13976KLFT LFT20191001000010810/01/19 00:00:31  5-MIN KLFT 010600Z AUTO 00000KT 10SM CLR 24/22 A3002 -40 87 1100 000/00 RMK AO2 T02440222
13976KLFT LFT20191001000510810/01/19 00:05:31  5-MIN KLFT 010605Z AUTO 00000KT 10SM CLR 24/22 A3002 -40 90 1000 000/00 RMK AO2 T02390222
13976KLFT LFT20191001001010810/01/19 00:10:31  5-MIN KLFT 010610Z AUTO 00000KT 10SM CLR 24/22 A3002 -40 90 1000 000/00 RMK AO2 T02390222
13976KLFT LFT20191001001510810/01/19 00:15:31  5-MIN KLFT 010615Z AUTO 00000KT 10SM CLR 24/22 A3002 -40 90 1000 000/00 RMK AO2 T02390222
13976KLFT LFT20191001002010810/01/19 00:20:31  5-MIN KLFT 010620Z AUTO 00000KT 10SM CLR 24/22 A3002 -40 90 1000 000/00 RMK AO2 T02390222
13976KLFT LFT20191001002510810/01/19 00:25:31  5-MIN KLFT 010625Z AUTO 00000KT 10SM CLR 23/22 A3002 -40 93 1000 000/00 RMK AO2 T02330222
13976KLFT LFT20191001003010810/01/19 00:30:31  5-MIN KLFT 010630Z AUTO 00000KT 10SM CLR 23/22 A3002 -40 93 1000 000/00 RMK AO2 T02330222
13976KLFT LFT20191001003510810/01/19 00:35:31  5-MIN KLFT 010635Z AUTO 00000KT 10SM CLR 24/22 A3002 -40 90 1000 000/00 RMK AO2 T02390222
13976KLFT LFT20191001004010710/01/19 00:40:31  5-MIN KLFT 010640Z AUTO 00000KT 10SM CLR 23/22 A3002 -40 93 900 000/00 RMK AO2 T02330222
13976KLFT LFT20191001004510810/01/19 00:45:31  5-MIN KLFT 010645Z AUTO 00000KT 10SM CLR 23/22 A3002 -40 93 1000 000/00 RMK AO2 T02330222
13976KLFT LFT20191001005011510/01/19 00:50:31  5-MIN KLFT 010650Z AUTO 00000KT 10SM CLR 24/22 A3002 -40 90 1000 000/00 RMK AO2 SLP165 T02390222
13976KLFT LFT20191001005510810/01/19 00:55:31  5-MIN KLFT 010655Z AUTO 00000KT 10SM CLR 24/22 A3002 -40 90 1000 000/00 RMK AO2 T02390222
13976KLFT LFT20191001010010810/01/19 01:00:31  5-MIN KLFT 010700Z AUTO 00000KT 10SM CLR 23/22 A3002 -40 90 1000 000/00 RMK AO2 T02330217
13976KLFT LFT20191001010510810/01/19 01:05:31  5-MIN KLFT 010705Z AUTO 00000KT 10SM CLR 23/22 A3002 -40 90 1000 000/00 RMK AO2 T02330217
13976KLFT LFT20191001011010810/01/19 01:10:31  5-MIN KLFT 010710Z AUTO 00000KT 10SM CLR 24/22 A3002 -40 87 1000 000/00 RMK AO2 T02390217
13976KLFT LFT20191001011510810/01/19 01:15:31  5-MIN KLFT 010715Z AUTO 00000KT 10SM CLR 24/22 A3002 -40 87 1000 000/00 RMK AO2 T02390217
13976KLFT LFT20191001012010810/01/19 01:20:31  5-MIN KLFT 010720Z AUTO 00000KT 10SM CLR 24/22 A3002 -40 90 1000 000/00 RMK AO2 T02390222
13976KLFT LFT20191001012510810/01/19 01:25:31  5-MIN KLFT 010725Z AUTO 00000KT 10SM CLR 24/22 A3002 -40 90 1000 000/00 RMK AO2 T02390222
13976KLFT LFT20191001013010810/01/19 01:30:31  5-MIN KLFT 010730Z AUTO 00000KT 10SM CLR 24/22 A3001 -40 90 1000 000/00 RMK AO2 T02390222
13976KLFT LFT20191001013510810/01/19 01:35:31  5-MIN KLFT 010735Z AUTO 00000KT 10SM CLR 23/22 A3001 -30 93 1000 000/00 RMK AO2 T02330222
13976KLFT LFT20191001014010810/01/19 01:40:31  5-MIN KLFT 010740Z AUTO 00000KT 10SM CLR 23/22 A3001 -30 93 1000 000/00 RMK AO2 T02330222
13976KLFT LFT20191001014510810/01/19 01:45:31  5-MIN KLFT 010745Z AUTO 00000KT 10SM CLR 23/22 A3001 -30 93 1000 000/00 RMK AO2 T02330222
13976KLFT LFT20191001015011510/01/19 01:50:31  5-MIN KLFT 010750Z AUTO 00000KT 10SM CLR 23/22 A3001 -30 93 1000 000/00 RMK AO2 SLP161 T02330222
13976KLFT LFT20191001015510810/01/19 01:55:31  5-MIN KLFT 010755Z AUTO 00000KT 10SM CLR 23/22 A3001 -30 90 1000 000/00 RMK AO2 T02330217
13976KLFT LFT20191001020010810/01/19 02:00:31  5-MIN KLFT 010800Z AUTO 00000KT 10SM CLR 23/22 A3001 -30 93 1000 000/00 RMK AO2 T02330222
13976KLFT LFT20191001020510810/01/19 02:05:31  5-MIN KLFT 010805Z AUTO 00000KT 10SM CLR 23/22 A3001 -30 93 1000 000/00 RMK AO2 T02330222
13976KLFT LFT20191001021010810/01/19 02:10:31  5-MIN KLFT 010810Z AUTO 00000KT 10SM CLR 23/22 A3001 -30 90 1000 000/00 RMK AO2 T02330217
13976KLFT LFT20191001021510710/01/19 02:15:31  5-MIN KLFT 010815Z AUTO 00000KT 10SM CLR 23/22 A3001 -30 93 900 000/00 RMK AO2 T02280217
13976KLFT LFT20191001022010710/01/19 02:20:31  5-MIN KLFT 010820Z AUTO 00000KT 10SM CLR 23/22 A3001 -30 93 900 000/00 RMK AO2 T02280217
13976KLFT LFT20191001022510710/01/19 02:25:31  5-MIN KLFT 010825Z AUTO 00000KT 10SM CLR 23/22 A3001 -30 93 900 000/00 RMK AO2 T02280217
13976KLFT LFT20191001023010710/01/19 02:30:31  5-MIN KLFT 010830Z AUTO 00000KT 10SM CLR 23/21 A3001 -30 90 900 000/00 RMK AO2 T02280211
13976KLFT LFT20191001023510710/01/19 02:35:31  5-MIN KLFT 010835Z AUTO 00000KT 10SM CLR 23/22 A3001 -30 93 900 000/00 RMK AO2 T02280217
13976KLFT LFT20191001024010710/01/19 02:40:31  5-MIN KLFT 010840Z AUTO 00000KT 10SM CLR 23/22 A3001 -30 93 900 000/00 RMK AO2 T02280217
13976KLFT LFT20191001024510710/01/19 02:45:31  5-MIN KLFT 010845Z AUTO 00000KT 10SM CLR 23/22 A3001 -30 93 900 000/00 RMK AO2 T02280217
13976KLFT LFT20191001025012110/01/19 02:50:31  5-MIN KLFT 010850Z AUTO 00000KT 10SM CLR 23/22 A3001 -30 90 1000 000/00 RMK AO2 SLP160 T02330217 58005
13976KLFT LFT20191001025510710/01/19 02:55:31  5-MIN KLFT 010855Z AUTO 00000KT 9SM CLR 23/22 A3001 -30 93 1000 000/00 RMK AO2 T02330222
13976KLFT LFT20191001030010710/01/19 03:00:31  5-MIN KLFT 010900Z AUTO 00000KT 8SM CLR 23/22 A3001 -30 93 1000 000/00 RMK AO2 T02330222
13976KLFT LFT20191003200510310/03/19 20:05:31  5-MIN KLFT 040205Z 00000KT 10SM CLR 27/24 A3002 -40 84 1300 000/00 RMK AO2 T02670239
13976KLFT LFT20191003201010310/03/19 20:10:31  5-MIN KLFT 040210Z 00000KT 10SM CLR 27/24 A3002 -40 84 1300 000/00 RMK AO2 T02670239
13976KLFT LFT20191003201510310/03/19 20:15:31  5-MIN KLFT 040215Z 00000KT 10SM CLR 27/24 A3002 -40 84 1300 000/00 RMK AO2 T02670239
13976KLFT LFT20191003202010310/03/19 20:20:31  5-MIN KLFT 040220Z 00000KT 10SM CLR 26/24 A3002 -50 87 1300 000/00 RMK AO2 T02610239
13976KLFT LFT20191003202510310/03/19 20:25:31  5-MIN KLFT 040225Z 00000KT 10SM CLR 26/23 A3003 -50 81 1300 000/00 RMK AO2 T02610228
13976KLFT LFT20191003203010310/03/19 20:30:31  5-MIN KLFT 040230Z 00000KT 10SM CLR 27/23 A3003 -50 82 1300 000/00 RMK AO2 T02670233
13976KLFT LFT20191003203510310/03/19 20:35:31  5-MIN KLFT 040235Z 00000KT 10SM CLR 27/23 A3003 -50 79 1300 000/00 RMK AO2 T02670228
13976KLFT LFT20191003204010310/03/19 20:40:31  5-MIN KLFT 040240Z 23003KT 10SM CLR 27/22 A3003 -50 76 1300 220/03 RMK AO2 T02670222
13976KLFT LFT20191003204510310/03/19 20:45:31  5-MIN KLFT 040245Z 00000KT 10SM CLR 27/22 A3003 -60 76 1300 000/00 RMK AO2 T02670222
13976KLFT LFT20191003205011610/03/19 20:50:31  5-MIN KLFT 040250Z 00000KT 10SM CLR 27/23 A3004 -60 79 1300 000/00 RMK AO2 SLP170 T02670228 53005
13976KLFT LFT20191003205510310/03/19 20:55:31  5-MIN KLFT 040255Z 00000KT 10SM CLR 27/22 A3004 -60 76 1300 000/00 RMK AO2 T02670222
13976KLFT LFT20191003210010310/03/19 21:00:31  5-MIN KLFT 040300Z 00000KT 10SM CLR 27/22 A3004 -60 76 1300 000/00 RMK AO2 T02670222
13976KLFT LFT20191003210510310/03/19 21:05:31  5-MIN KLFT 040305Z 00000KT 10SM CLR 27/22 A3004 -60 76 1300 000/00 RMK AO2 T02670222
13976KLFT LFT20191003211010310/03/19 21:10:31  5-MIN KLFT 040310Z 00000KT 10SM CLR 27/22 A3004 -60 76 1300 000/00 RMK AO2 T02670222
13976KLFT LFT20191003211510810/03/19 21:15:31  5-MIN KLFT 040315Z AUTO 00000KT 10SM CLR 27/22 A3004 -60 76 1300 000/00 RMK AO2 T02670222
13976KLFT LFT20191003212010810/03/19 21:20:31  5-MIN KLFT 040320Z AUTO 00000KT 10SM CLR 27/22 A3005 -70 76 1300 000/00 RMK AO2 T02670222
13976KLFT LFT20191003212510810/03/19 21:25:31  5-MIN KLFT 040325Z AUTO 00000KT 10SM CLR 26/22 A3004 -70 79 1200 000/00 RMK AO2 T02610222
13976KLFT LFT20191003213010810/03/19 21:30:31  5-MIN KLFT 040330Z AUTO 00000KT 10SM CLR 26/22 A3004 -60 79 1200 000/00 RMK AO2 T02610222
13976KLFT LFT20191003213510810/03/19 21:35:31  5-MIN KLFT 040335Z AUTO 00000KT 10SM CLR 27/22 A3004 -60 76 1300 000/00 RMK AO2 T02670222
13976KLFT LFT20191003214010810/03/19 21:40:31  5-MIN KLFT 040340Z AUTO 00000KT 10SM CLR 27/23 A3004 -60 79 1300 000/00 RMK AO2 T02670228
13976KLFT LFT20191003214510810/03/19 21:45:31  5-MIN KLFT 040345Z AUTO 29003KT 10SM CLR 27/22 A3004 -70 76 1300 290/03 RMK AO2 T02670222
13976KLFT LFT20191003215011510/03/19 21:50:31  5-MIN KLFT 040350Z AUTO 31003KT 10SM CLR 27/22 A3005 -70 76 1300 310/03 RMK AO2 SLP173 T02670222
13976KLFT LFT20191003215510810/03/19 21:55:31  5-MIN KLFT 040355Z AUTO 30004KT 10SM CLR 27/22 A3004 -60 76 1300 300/04 RMK AO2 T02670222
13976KLFT LFT20191003220010810/03/19 22:00:31  5-MIN KLFT 040400Z AUTO 00000KT 10SM CLR 26/22 A3004 -60 79 1200 000/00 RMK AO2 T02610222
13976KLFT LFT20191003220510810/03/19 22:05:31  5-MIN KLFT 040405Z AUTO 00000KT 10SM CLR 27/22 A3004 -60 76 1300 000/00 RMK AO2 T02670222
13976KLFT LFT20191003221010810/03/19 22:10:31  5-MIN KLFT 040410Z AUTO 00000KT 10SM CLR 27/22 A3004 -60 76 1300 000/00 RMK AO2 T02670222
13976KLFT LFT20191003221510810/03/19 22:15:31  5-MIN KLFT 040415Z AUTO 00000KT 10SM CLR 26/22 A3004 -60 79 1200 000/00 RMK AO2 T02610222
13976KLFT LFT20191003222010810/03/19 22:20:31  5-MIN KLFT 040420Z AUTO 00000KT 10SM CLR 26/22 A3004 -60 79 1200 000/00 RMK AO2 T02610222
13976KLFT LFT20191003222510810/03/19 22:25:31  5-MIN KLFT 040425Z AUTO 00000KT 10SM CLR 26/23 A3004 -60 81 1200 000/00 RMK AO2 T02610228
13976KLFT LFT20191003223010810/03/19 22:30:31  5-MIN KLFT 040430Z AUTO 00000KT 10SM CLR 26/23 A3004 -60 87 1200 000/00 RMK AO2 T02560233
13976KLFT LFT20191003223510810/03/19 22:35:31  5-MIN KLFT 040435Z AUTO 00000KT 10SM CLR 26/23 A3004 -60 87 1200 000/00 RMK AO2 T02560233
13976KLFT LFT20191003224010810/03/19 22:40:31  5-MIN KLFT 040440Z AUTO 00000KT 10SM CLR 26/23 A3004 -60 87 1200 000/00 RMK AO2 T02560233
13976KLFT LFT20191003224510810/03/19 22:45:31  5-MIN KLFT 040445Z AUTO 34004KT 10SM CLR 26/23 A3004 -60 84 1200 330/04 RMK AO2 T02560228
13976KLFT LFT20191003225011510/03/19 22:50:31  5-MIN KLFT 040450Z AUTO 35004KT 10SM CLR 26/22 A3004 -60 79 1200 350/04 RMK AO2 SLP171 T02610222
13976KLFT LFT20191003225510810/03/19 22:55:31  5-MIN KLFT 040455Z AUTO 34004KT 10SM CLR 26/22 A3004 -60 79 1200 330/04 RMK AO2 T02610222
13976KLFT LFT20191003230010810/03/19 23:00:31  5-MIN KLFT 040500Z AUTO 34003KT 10SM CLR 27/22 A3004 -60 76 1300 330/03 RMK AO2 T02670222
13976KLFT LFT20191003230510810/03/19 23:05:31  5-MIN KLFT 040505Z AUTO 34004KT 10SM CLR 27/22 A3004 -60 76 1300 340/04 RMK AO2 T02670222
13976KLFT LFT20191003231010810/03/19 23:10:31  5-MIN KLFT 040510Z AUTO 33003KT 10SM CLR 27/22 A3004 -60 73 1300 320/03 RMK AO2 T02670217
13976KLFT LFT20191003231510810/03/19 23:15:31  5-MIN KLFT 040515Z AUTO 33004KT 10SM CLR 27/22 A3004 -60 73 1300 330/04 RMK AO2 T02670217
13976KLFT LFT20191003232010810/03/19 23:20:31  5-MIN KLFT 040520Z AUTO 34004KT 10SM CLR 27/22 A3004 -60 73 1300 340/04 RMK AO2 T02670217
13976KLFT LFT20191003232511110/03/19 23:25:31  5-MIN KLFT 040525Z AUTO 33005KT 10SM FEW090 27/22 A3003 -60 73 1300 330/05 RMK AO2 T02670217
13976KLFT LFT20191003233011110/03/19 23:30:31  5-MIN KLFT 040530Z AUTO 34003KT 10SM FEW090 27/22 A3003 -50 73 1300 330/03 RMK AO2 T02670217
13976KLFT LFT20191003233511110/03/19 23:35:31  5-MIN KLFT 040535Z AUTO 33003KT 10SM FEW090 27/22 A3003 -50 73 1300 330/03 RMK AO2 T02670217
13976KLFT LFT20191003234011110/03/19 23:40:31  5-MIN KLFT 040540Z AUTO 34003KT 10SM FEW090 27/22 A3003 -50 73 1300 340/03 RMK AO2 T02670217
13976KLFT LFT20191003234511110/03/19 23:45:31  5-MIN KLFT 040545Z AUTO 34003KT 10SM FEW090 26/22 A3003 -50 76 1300 340/03 RMK AO2 T02610217
13976KLFT LFT20191003235014610/03/19 23:50:31  5-MIN KLFT 040550Z AUTO 34003KT 10SM FEW090 26/22 A3003 -50 76 1300 340/03 RMK AO2 SLP168 T02610217 10289 20256 403440233 52022
13976KLFT LFT20191003235511110/03/19 23:55:31  5-MIN KLFT 040555Z AUTO 34003KT 10SM FEW090 26/22 A3003 -50 76 1300 340/03 RMK AO2 T02610217
13976KLFT LFT20191004000011110/04/19 00:00:31  5-MIN KLFT 040600Z AUTO 32003KT 10SM FEW090 26/22 A3003 -50 76 1300 320/03 RMK AO2 T02610217
13976KLFT LFT20191004000511110/04/19 00:05:31  5-MIN KLFT 040605Z AUTO 33003KT 10SM FEW090 26/22 A3003 -50 76 1300 330/03 RMK AO2 T02610217
13976KLFT LFT20191004001011110/04/19 00:10:31  5-MIN KLFT 040610Z AUTO 33003KT 10SM FEW090 26/22 A3003 -50 76 1300 330/03 RMK AO2 T02610217
13976KLFT LFT20191004001511110/04/19 00:15:31  5-MIN KLFT 040615Z AUTO 33003KT 10SM FEW090 26/22 A3002 -50 76 1300 330/03 RMK AO2 T02610217
13976KLFT LFT20191004002010810/04/19 00:20:31  5-MIN KLFT 040620Z AUTO 31003KT 10SM CLR 26/22 A3002 -50 76 1300 310/03 RMK AO2 T02610217
13976KLFT LFT20191004002510810/04/19 00:25:31  5-MIN KLFT 040625Z AUTO 32003KT 10SM CLR 26/22 A3002 -50 76 1300 320/03 RMK AO2 T02610217
13976KLFT LFT20191004003010810/04/19 00:30:31  5-MIN KLFT 040630Z AUTO 32003KT 10SM CLR 26/21 A3002 -40 73 1300 320/03 RMK AO2 T02610211
13976KLFT LFT20191004003510810/04/19 00:35:31  5-MIN KLFT 040635Z AUTO 00000KT 10SM CLR 26/21 A3002 -40 73 1300 000/00 RMK AO2 T02610211
13976KLFT LFT20191004004010810/04/19 00:40:31  5-MIN KLFT 040640Z AUTO 00000KT 10SM CLR 26/21 A3002 -40 76 1200 000/00 RMK AO2 T02560211
13976KLFT LFT20191004004510810/04/19 00:45:31  5-MIN KLFT 040645Z AUTO 00000KT 10SM CLR 26/22 A3002 -40 79 1200 000/00 RMK AO2 T02560217
13976KLFT LFT20191004005011510/04/19 00:50:31  5-MIN KLFT 040650Z AUTO 00000KT 10SM CLR 26/22 A3002 -40 79 1200 000/00 RMK AO2 SLP165 T02560217
13976KLFT LFT20191004005510810/04/19 00:55:31  5-MIN KLFT 040655Z AUTO 00000KT 10SM CLR 25/22 A3002 -40 84 1100 000/00 RMK AO2 T02500222
13976KLFT LFT20191004010010810/04/19 01:00:31  5-MIN KLFT 040700Z AUTO 00000KT 10SM CLR 25/22 A3002 -40 84 1100 000/00 RMK AO2 T02500222
13976KLFT LFT20191004010510810/04/19 01:05:31  5-MIN KLFT 040705Z AUTO 01003KT 10SM CLR 25/22 A3002 -40 84 1100 360/03 RMK AO2 T02500222
13976KLFT LFT20191004011010810/04/19 01:10:31  5-MIN KLFT 040710Z AUTO 01004KT 10SM CLR 24/22 A3002 -50 84 1100 010/04 RMK AO2 T02440217
13976KLFT LFT20191004011510810/04/19 01:15:31  5-MIN KLFT 040715Z AUTO 02004KT 10SM CLR 24/22 A3002 -50 87 1100 020/04 RMK AO2 T02440222
13976KLFT LFT20191004012010810/04/19 01:20:31  5-MIN KLFT 040720Z AUTO 02004KT 10SM CLR 24/22 A3002 -40 84 1100 020/04 RMK AO2 T02440217
13976KLFT LFT20191004012510810/04/19 01:25:31  5-MIN KLFT 040725Z AUTO 03003KT 10SM CLR 24/22 A3002 -40 84 1100 020/03 RMK AO2 T02440217
13976KLFT LFT20191004013010810/04/19 01:30:31  5-MIN KLFT 040730Z AUTO 02003KT 10SM CLR 24/22 A3002 -50 84 1100 020/03 RMK AO2 T02440217
13976KLFT LFT20191004013510810/04/19 01:35:31  5-MIN KLFT 040735Z AUTO 01003KT 10SM CLR 24/22 A3002 -40 84 1100 010/03 RMK AO2 T02440217
13976KLFT LFT20191004014010810/04/19 01:40:31  5-MIN KLFT 040740Z AUTO 01003KT 10SM CLR 24/21 A3002 -40 81 1100 010/03 RMK AO2 T02440211
13976KLFT LFT20191004014510810/04/19 01:45:31  5-MIN KLFT 040745Z AUTO 02004KT 10SM CLR 24/21 A3002 -40 81 1100 010/04 RMK AO2 T02440211
13976KLFT LFT20191004015011510/04/19 01:50:31  5-MIN KLFT 040750Z AUTO 02005KT 10SM CLR 24/21 A3002 -50 81 1100 020/05 RMK AO2 SLP166 T02440211
13976KLFT LFT20191004015510810/04/19 01:55:31  5-MIN KLFT 040755Z AUTO 02005KT 10SM CLR 24/21 A3003 -50 81 1100 020/05 RMK AO2 T02440211
13976KLFT LFT20191004020010810/04/19 02:00:31  5-MIN KLFT 040800Z AUTO 03005KT 10SM CLR 24/21 A3003 -50 84 1000 030/05 RMK AO2 T02390211
13976KLFT LFT20191004020510810/04/19 02:05:31  5-MIN KLFT 040805Z AUTO 05003KT 10SM CLR 24/21 A3003 -50 84 1000 040/03 RMK AO2 T02390211
13976KLFT LFT20191004021010810/04/19 02:10:31  5-MIN KLFT 040810Z AUTO 03003KT 10SM CLR 24/21 A3002 -50 84 1000 030/03 RMK AO2 T02390211
13976KLFT LFT20191004021510810/04/19 02:15:31  5-MIN KLFT 040815Z AUTO 02005KT 10SM CLR 24/21 A3002 -50 84 1000 020/05 RMK AO2 T02390211
13976KLFT LFT20191004022010810/04/19 02:20:31  5-MIN KLFT 040820Z AUTO 02005KT 10SM CLR 24/21 A3002 -40 84 1000 010/05 RMK AO2 T02390211
13976KLFT LFT20191004022510810/04/19 02:25:31  5-MIN KLFT 040825Z AUTO 01007KT 10SM CLR 24/21 A3002 -40 81 1100 010/07 RMK AO2 T02440211
13976KLFT LFT20191004023010810/04/19 02:30:31  5-MIN KLFT 040830Z AUTO 01007KT 10SM CLR 24/21 A3002 -40 81 1100 010/07 RMK AO2 T02440211
13976KLFT LFT20191004023510810/04/19 02:35:31  5-MIN KLFT 040835Z AUTO 01006KT 10SM CLR 24/21 A3002 -40 81 1100 010/06 RMK AO2 T02440211
13976KLFT LFT20191004024010810/04/19 02:40:31  5-MIN KLFT 040840Z AUTO 02008KT 10SM CLR 24/21 A3002 -40 81 1100 020/08 RMK AO2 T02440211
13976KLFT LFT20191004024510810/04/19 02:45:31  5-MIN KLFT 040845Z AUTO 02007KT 10SM CLR 24/21 A3002 -40 84 1000 020/07 RMK AO2 T02390211
13976KLFT LFT20191004025012110/04/19 02:50:31  5-MIN KLFT 040850Z AUTO 01006KT 10SM CLR 24/21 A3002 -40 84 1000 010/06 RMK AO2 SLP164 T02390211 58003
13976KLFT LFT20191004025510810/04/19 02:55:31  5-MIN KLFT 040855Z AUTO 02007KT 10SM CLR 24/21 A3002 -40 84 1000 010/07 RMK AO2 T02390211
13976KLFT LFT20191004030010810/04/19 03:00:31  5-MIN KLFT 040900Z AUTO 01006KT 10SM CLR 24/21 A3002 -40 84 1000 010/06 RMK AO2 T02390211
13976KLFT LFT20191004030510810/04/19 03:05:31  5-MIN KLFT 040905Z AUTO 01006KT 10SM CLR 24/21 A3002 -40 84 1000 010/06 RMK AO2 T02390211
13976KLFT LFT20191004031010810/04/19 03:10:31  5-MIN KLFT 040910Z AUTO 02006KT 10SM CLR 24/21 A3002 -40 84 1000 020/06 RMK AO2 T02390211
13976KLFT LFT20191004031510810/04/19 03:15:31  5-MIN KLFT 040915Z AUTO 02005KT 10SM CLR 24/21 A3002 -40 84 1000 020/05 RMK AO2 T02390211
13976KLFT LFT20191004032010810/04/19 03:20:31  5-MIN KLFT 040920Z AUTO 02005KT 10SM CLR 23/21 A3002 -40 87 1000 020/05 RMK AO2 T02330211
13976KLFT LFT20191004032510810/04/19 03:25:31  5-MIN KLFT 040925Z AUTO 02005KT 10SM CLR 23/21 A3002 -40 87 1000 020/05 RMK AO2 T02330211
13976KLFT LFT20191004033010810/04/19 03:30:31  5-MIN KLFT 040930Z AUTO 02005KT 10SM CLR 23/21 A3001 -40 87 1000 020/05 RMK AO2 T02330211
13976KLFT LFT20191004033510810/04/19 03:35:31  5-MIN KLFT 040935Z AUTO 03005KT 10SM CLR 23/21 A3001 -40 87 1000 030/05 RMK AO2 T02330211
13976KLFT LFT20191004034010710/04/19 03:40:31  5-MIN KLFT 040940Z AUTO 04003KT 10SM CLR 23/21 A3001 -30 90 900 040/03 RMK AO2 T02280211
13976KLFT LFT20191004034510710/04/19 03:45:31  5-MIN KLFT 040945Z AUTO 04003KT 10SM CLR 23/21 A3001 -30 90 900 040/03 RMK AO2 T02280211
13976KLFT LFT20191004035011510/04/19 03:50:31  5-MIN KLFT 040950Z AUTO 04003KT 10SM CLR 23/21 A3001 -30 87 1000 040/03 RMK AO2 SLP162 T02330211
13976KLFT LFT20191004035510710/04/19 03:55:31  5-MIN KLFT 040955Z AUTO 03004KT 10SM CLR 23/21 A3001 -30 90 900 030/04 RMK AO2 T02280211
13976KLFT LFT20191004040010710/04/19 04:00:31  5-MIN KLFT 041000Z AUTO 03004KT 10SM CLR 23/21 A3001 -40 90 900 030/04 RMK AO2 T02280211
13976KLFT LFT20191004040510710/04/19 04:05:31  5-MIN KLFT 041005Z AUTO 03003KT 10SM CLR 23/21 A3002 -40 90 900 030/03 RMK AO2 T02280211
13976KLFT LFT20191004041010710/04/19 04:10:31  5-MIN KLFT 041010Z AUTO 00000KT 10SM CLR 23/21 A3002 -40 90 900 000/00 RMK AO2 T02280211
13976KLFT LFT20191004041510710/04/19 04:15:31  5-MIN KLFT 041015Z AUTO 02003KT 10SM CLR 23/21 A3002 -40 87 900 020/03 RMK AO2 T02280206
13976KLFT LFT20191004042010710/04/19 04:20:31  5-MIN KLFT 041020Z AUTO 04003KT 10SM CLR 23/21 A3002 -40 87 900 040/03 RMK AO2 T02280206
13976KLFT LFT20191004042510710/04/19 04:25:31  5-MIN KLFT 041025Z AUTO 00000KT 10SM CLR 23/21 A3002 -40 90 900 000/00 RMK AO2 T02280211
13976KLFT LFT20191004043010210/04/19 04:30:31  5-MIN KLFT 041030Z 00000KT 10SM CLR 23/21 A3002 -40 90 900 000/00 RMK AO2 T02280211
13976KLFT LFT20191004043510210/04/19 04:35:31  5-MIN KLFT 041035Z 00000KT 10SM CLR 23/21 A3002 -40 90 900 000/00 RMK AO2 T02280211
13976KLFT LFT20191004044010210/04/19 04:40:31  5-MIN KLFT 041040Z 00000KT 10SM CLR 23/21 A3002 -40 90 900 000/00 RMK AO2 T02280211
13976KLFT LFT20191004044510210/04/19 04:45:31  5-MIN KLFT 041045Z 01003KT 10SM CLR 23/21 A3002 -40 90 900 360/03 RMK AO2 T02280211
13976KLFT LFT20191004045011010/04/19 04:50:31  5-MIN KLFT 041050Z 00000KT 10SM CLR 23/21 A3002 -40 87 1000 000/00 RMK AO2 SLP164 T02330211
13976KLFT LFT20191004045510310/04/19 04:55:31  5-MIN KLFT 041055Z 00000KT 10SM CLR 23/21 A3002 -40 87 1000 000/00 RMK AO2 T02330211
13976KLFT LFT20191004050010310/04/19 05:00:31  5-MIN KLFT 041100Z 36003KT 10SM CLR 23/21 A3002 -40 87 1000 360/03 RMK AO2 T02330211
13976KLFT LFT20191004050510310/04/19 05:05:31  5-MIN KLFT 041105Z 35006KT 10SM CLR 23/21 A3002 -40 87 1000 350/06 RMK AO2 T02330211
13976KLFT LFT20191004051010310/04/19 05:10:31  5-MIN KLFT 041110Z 01003KT 10SM CLR 23/21 A3002 -40 87 1000 010/03 RMK AO2 T02330211
13976KLFT LFT20191004051510210/04/19 05:15:31  5-MIN KLFT 041115Z 35004KT 10SM CLR 23/21 A3002 -50 87 900 340/04 RMK AO2 T02330211
13976KLFT LFT20191004052010210/04/19 05:20:31  5-MIN KLFT 041120Z 35004KT 10SM CLR 23/21 A3002 -50 87 900 350/04 RMK AO2 T02330211
13976KLFT LFT20191004052510210/04/19 05:25:31  5-MIN KLFT 041125Z 34003KT 10SM CLR 23/21 A3002 -50 87 900 340/03 RMK AO2 T02330211
13976KLFT LFT20191004053010210/04/19 05:30:31  5-MIN KLFT 041130Z 34004KT 10SM CLR 23/21 A3002 -50 87 900 340/04 RMK AO2 T02330211
13976KLFT LFT20191004053510210/04/19 05:35:31  5-MIN KLFT 041135Z 35003KT 10SM CLR 23/21 A3003 -50 87 900 350/03 RMK AO2 T02330211
13976KLFT LFT20191004054010210/04/19 05:40:31  5-MIN KLFT 041140Z 36003KT 10SM CLR 23/21 A3003 -50 87 900 360/03 RMK AO2 T02330211
13976KLFT LFT20191004054510210/04/19 05:45:31  5-MIN KLFT 041145Z 00000KT 10SM CLR 23/21 A3003 -50 87 900 000/00 RMK AO2 T02330211
13976KLFT LFT20191004055012710/04/19 05:50:31  5-MIN KLFT 041150Z 35003KT 10SM CLR 23/21 A3003 -50 87 900 350/03 RMK AO2 SLP167 T02330211 10261 20228 56004
13976KLFT LFT20191004055510210/04/19 05:55:31  5-MIN KLFT 041155Z 36004KT 10SM CLR 23/21 A3003 -50 87 900 360/04 RMK AO2 T02330211
13976KLFT LFT20191004060010210/04/19 06:00:31  5-MIN KLFT 041200Z 01003KT 10SM CLR 23/21 A3003 -50 87 900 010/03 RMK AO2 T02330211
13976KLFT LFT20191004060510110/04/19 06:05:31  5-MIN KLFT 041205Z 02003KT 9SM CLR 23/21 A3003 -50 90 900 020/03 RMK AO2 T02280211
13976KLFT LFT20191004061010110/04/19 06:10:31  5-MIN KLFT 041210Z 00000KT 9SM CLR 23/21 A3003 -50 90 900 000/00 RMK AO2 T02280211
13976KLFT LFT20191004061510110/04/19 06:15:31  5-MIN KLFT 041215Z 00000KT 9SM CLR 23/21 A3003 -50 90 900 000/00 RMK AO2 T02280211
13976KLFT LFT20191004062010110/04/19 06:20:31  5-MIN KLFT 041220Z 00000KT 9SM CLR 23/21 A3004 -60 90 900 000/00 RMK AO2 T02280211
13976KLFT LFT20191004062510110/04/19 06:25:31  5-MIN KLFT 041225Z 03003KT 9SM CLR 23/21 A3004 -60 90 900 030/03 RMK AO2 T02280211
13976KLFT LFT20191004063010110/04/19 06:30:31  5-MIN KLFT 041230Z 02005KT 8SM CLR 23/21 A3004 -60 90 900 020/05 RMK AO2 T02280211
13976KLFT LFT20191004063510110/04/19 06:35:31  5-MIN KLFT 041235Z 02004KT 8SM CLR 23/21 A3004 -60 87 900 010/04 RMK AO2 T02330211
13976KLFT LFT20191004064010110/04/19 06:40:31  5-MIN KLFT 041240Z 36004KT 9SM CLR 23/21 A3004 -60 87 900 360/04 RMK AO2 T02330211
13976KLFT LFT20191004064510110/04/19 06:45:31  5-MIN KLFT 041245Z 01006KT 8SM CLR 23/21 A3004 -60 87 900 010/06 RMK AO2 T02330211
13976KLFT LFT20191004065010810/04/19 06:50:31  5-MIN KLFT 041250Z 02005KT 9SM CLR 23/22 A3004 -60 90 900 020/05 RMK AO2 SLP172 T02330217
13976KLFT LFT20191004065510110/04/19 06:55:31  5-MIN KLFT 041255Z 01005KT 9SM CLR 23/22 A3004 -60 90 900 010/05 RMK AO2 T02330217
13976KLFT LFT20191004070010210/04/19 07:00:31  5-MIN KLFT 041300Z 01004KT 9SM CLR 24/22 A3004 -60 87 1000 010/04 RMK AO2 T02390217
13976KLFT LFT20191004070510210/04/19 07:05:31  5-MIN KLFT 041305Z 35004KT 9SM CLR 24/22 A3004 -60 87 1000 350/04 RMK AO2 T02390217
13976KLFT LFT20191004071010210/04/19 07:10:31  5-MIN KLFT 041310Z 02004KT 9SM CLR 24/22 A3004 -60 84 1100 020/04 RMK AO2 T02440217
13976KLFT LFT20191004071510210/04/19 07:15:31  5-MIN KLFT 041315Z 02005KT 9SM CLR 24/22 A3004 -60 84 1100 020/05 RMK AO2 T02440217
13976KLFT LFT20191004072010210/04/19 07:20:31  5-MIN KLFT 041320Z 02005KT 9SM CLR 24/22 A3004 -60 84 1100 020/05 RMK AO2 T02440217
13976KLFT LFT20191004072510210/04/19 07:25:31  5-MIN KLFT 041325Z 02004KT 9SM CLR 24/22 A3004 -60 84 1100 010/04 RMK AO2 T02440217
13976KLFT LFT20191004073010210/04/19 07:30:31  5-MIN KLFT 041330Z 03005KT 9SM CLR 24/22 A3004 -60 84 1100 030/05 RMK AO2 T02440217
13976KLFT LFT20191004073510310/04/19 07:35:31  5-MIN KLFT 041335Z 03004KT 10SM CLR 25/22 A3004 -70 81 1100 030/04 RMK AO2 T02500217
13976KLFT LFT20191004074010310/04/19 07:40:31  5-MIN KLFT 041340Z 00000KT 10SM CLR 25/22 A3004 -70 81 1100 000/00 RMK AO2 T02500217
13976KLFT LFT20191004074510310/04/19 07:45:31  5-MIN KLFT 041345Z 03003KT 10SM CLR 25/22 A3005 -70 81 1100 030/03 RMK AO2 T02500217
13976KLFT LFT20191004075011010/04/19 07:50:31  5-MIN KLFT 041350Z 02004KT 10SM CLR 25/22 A3005 -70 81 1100 020/04 RMK AO2 SLP174 T02500217
13976KLFT LFT20191004075510310/04/19 07:55:31  5-MIN KLFT 041355Z 03004KT 10SM CLR 26/22 A3005 -70 81 1200 020/04 RMK AO2 T02560222
13976KLFT LFT20191004080010310/04/19 08:00:31  5-MIN KLFT 041400Z 04004KT 10SM CLR 26/22 A3005 -70 81 1200 030/04 RMK AO2 T02560222
13976KLFT LFT20191016193010210/16/19 19:30:31  5-MIN KLFT 170130Z 02006KT 10SM CLR 17/13 A3004 -70 78 200 020/06 RMK AO2 T01720133
13976KLFT LFT20191016193510210/16/19 19:35:31  5-MIN KLFT 170135Z 01005KT 10SM CLR 17/13 A3005 -70 78 200 010/05 RMK AO2 T01720133
13976KLFT LFT20191016194010210/16/19 19:40:31  5-MIN KLFT 170140Z 36006KT 10SM CLR 17/13 A3005 -70 77 100 360/06 RMK AO2 T01670128
13976KLFT LFT20191016194510210/16/19 19:45:31  5-MIN KLFT 170145Z 01005KT 10SM CLR 17/13 A3005 -70 77 100 010/05 RMK AO2 T01670128
13976KLFT LFT20191016195010910/16/19 19:50:31  5-MIN KLFT 170150Z 02004KT 10SM CLR 17/13 A3005 -70 77 100 020/04 RMK AO2 SLP176 T01670128
13976KLFT LFT20191016195510210/16/19 19:55:31  5-MIN KLFT 170155Z 03005KT 10SM CLR 17/13 A3005 -70 77 100 030/05 RMK AO2 T01670128
13976KLFT LFT20191016200010210/16/19 20:00:31  5-MIN KLFT 170200Z 03004KT 10SM CLR 16/13 A3005 -70 80 100 030/04 RMK AO2 T01610128
13976KLFT LFT20191016200510210/16/19 20:05:31  5-MIN KLFT 170205Z 02005KT 10SM CLR 16/13 A3005 -70 80 100 010/05 RMK AO2 T01610128
13976KLFT LFT20191016201010210/16/19 20:10:31  5-MIN KLFT 170210Z 02005KT 10SM CLR 16/13 A3005 -70 80 100 020/05 RMK AO2 T01610128
13976KLFT LFT20191016201510210/16/19 20:15:31  5-MIN KLFT 170215Z 36005KT 10SM CLR 16/13 A3005 -70 80 100 360/05 RMK AO2 T01610128
13976KLFT LFT20191016202010210/16/19 20:20:31  5-MIN KLFT 170220Z 01006KT 10SM CLR 16/13 A3005 -70 80 100 010/06 RMK AO2 T01610128
13976KLFT LFT20191016202510210/16/19 20:25:31  5-MIN KLFT 170225Z 02006KT 10SM CLR 16/13 A3005 -70 80 100 010/06 RMK AO2 T01610128
13976KLFT LFT20191016203010210/16/19 20:30:31  5-MIN KLFT 170230Z 02007KT 10SM CLR 16/12 A3005 -70 77 100 020/07 RMK AO2 T01610122
13976KLFT LFT20191016203510010/16/19 20:35:31  5-MIN KLFT 170235Z 02006KT 10SM CLR 16/13 A3005 -70 83 0 020/06 RMK AO2 T01560128
13976KLFT LFT20191016204010010/16/19 20:40:31  5-MIN KLFT 170240Z 03005KT 10SM CLR 16/13 A3005 -70 83 0 030/05 RMK AO2 T01560128
13976KLFT LFT20191016204510010/16/19 20:45:31  5-MIN KLFT 170245Z 02005KT 10SM CLR 16/13 A3005 -70 83 0 020/05 RMK AO2 T01560128
13976KLFT LFT20191016205011310/16/19 20:50:31  5-MIN KLFT 170250Z 01006KT 10SM CLR 16/12 A3005 -70 80 0 010/06 RMK AO2 SLP177 T01560122 53011
13976KLFT LFT20191016205510810/16/19 20:55:31  5-MIN KLFT 170255Z 01010G15KT 10SM CLR 16/12 A3006 -80 77 100 010/10G15 RMK AO2 T01610122
13976KLFT LFT20191016210010210/16/19 21:00:31  5-MIN KLFT 170300Z 01008KT 10SM CLR 16/12 A3006 -80 75 100 010/08 RMK AO2 T01610117
13976KLFT LFT20191016210510210/16/19 21:05:31  5-MIN KLFT 170305Z 01008KT 10SM CLR 16/12 A3006 -80 75 100 010/08 RMK AO2 T01610117
13976KLFT LFT20191016211010210/16/19 21:10:31  5-MIN KLFT 170310Z 01008KT 10SM CLR 16/12 A3006 -80 75 100 010/08 RMK AO2 T01610117
13976KLFT LFT20191016211510210/16/19 21:15:31  5-MIN KLFT 170315Z 01008KT 10SM CLR 16/12 A3006 -80 75 100 010/08 RMK AO2 T01610117
13976KLFT LFT20191016212010210/16/19 21:20:31  5-MIN KLFT 170320Z 02008KT 10SM CLR 16/12 A3006 -80 75 100 020/08 RMK AO2 T01610117
13976KLFT LFT20191016212510010/16/19 21:25:31  5-MIN KLFT 170325Z 02010KT 10SM CLR 16/12 A3006 -80 77 0 020/10 RMK AO2 T01560117
13976KLFT LFT20191016213010010/16/19 21:30:31  5-MIN KLFT 170330Z 02009KT 10SM CLR 16/12 A3006 -80 77 0 020/09 RMK AO2 T01560117
13976KLFT LFT20191016213510510/16/19 21:35:31  5-MIN KLFT 170335Z AUTO 02009KT 10SM CLR 16/12 A3006 -80 77 0 020/09 RMK AO2 T01560117
13976KLFT LFT20191016214010510/16/19 21:40:31  5-MIN KLFT 170340Z AUTO 02009KT 10SM CLR 16/12 A3006 -80 77 0 020/09 RMK AO2 T01560117
13976KLFT LFT20191016214510510/16/19 21:45:31  5-MIN KLFT 170345Z AUTO 02009KT 10SM CLR 16/12 A3006 -80 77 0 020/09 RMK AO2 T01560117
13976KLFT LFT20191016215011210/16/19 21:50:31  5-MIN KLFT 170350Z AUTO 02010KT 10SM CLR 15/12 A3006 -80 80 0 020/10 RMK AO2 SLP178 T01500117
13976KLFT LFT20191016215510510/16/19 21:55:31  5-MIN KLFT 170355Z AUTO 03008KT 10SM CLR 15/12 A3006 -80 80 0 030/08 RMK AO2 T01500117
13976KLFT LFT20191016220010510/16/19 22:00:31  5-MIN KLFT 170400Z AUTO 02008KT 10SM CLR 15/12 A3006 -80 80 0 020/08 RMK AO2 T01500117
13976KLFT LFT20191016220510510/16/19 22:05:31  5-MIN KLFT 170405Z AUTO 02007KT 10SM CLR 15/12 A3006 -80 80 0 020/07 RMK AO2 T01500117
13976KLFT LFT20191016221010510/16/19 22:10:31  5-MIN KLFT 170410Z AUTO 03007KT 10SM CLR 15/12 A3006 -80 80 0 030/07 RMK AO2 T01500117
13976KLFT LFT20191016221510510/16/19 22:15:31  5-MIN KLFT 170415Z AUTO 04005KT 10SM CLR 15/12 A3007 -90 80 0 040/05 RMK AO2 T01500117
13976KLFT LFT20191016222010510/16/19 22:20:31  5-MIN KLFT 170420Z AUTO 04007KT 10SM CLR 15/12 A3007 -90 80 0 030/07 RMK AO2 T01500117
13976KLFT LFT20191016222510510/16/19 22:25:31  5-MIN KLFT 170425Z AUTO 04008KT 10SM CLR 15/11 A3007 -90 77 0 040/08 RMK AO2 T01500111
13976KLFT LFT20191016223010510/16/19 22:30:31  5-MIN KLFT 170430Z AUTO 04009KT 10SM CLR 15/11 A3007 -90 77 0 030/09 RMK AO2 T01500111
13976KLFT LFT20191016223510810/16/19 22:35:31  5-MIN KLFT 170435Z AUTO 04010KT 10SM CLR 14/11 A3006 -80 80 -100 040/10 RMK AO2 T01440111
13976KLFT LFT20191016224010810/16/19 22:40:31  5-MIN KLFT 170440Z AUTO 03009KT 10SM CLR 14/11 A3006 -80 80 -100 030/09 RMK AO2 T01440111
13976KLFT LFT20191016224510810/16/19 22:45:31  5-MIN KLFT 170445Z AUTO 02010KT 10SM CLR 14/11 A3006 -80 80 -100 020/10 RMK AO2 T01440111
13976KLFT LFT20191016225011510/16/19 22:50:31  5-MIN KLFT 170450Z AUTO 02010KT 10SM CLR 14/11 A3006 -80 80 -100 020/10 RMK AO2 SLP177 T01440111
13976KLFT LFT20191016225510810/16/19 22:55:31  5-MIN KLFT 170455Z AUTO 02010KT 10SM CLR 14/11 A3005 -70 80 -100 020/10 RMK AO2 T01440111
13976KLFT LFT20191016230010810/16/19 23:00:31  5-MIN KLFT 170500Z AUTO 03009KT 10SM CLR 14/11 A3005 -70 80 -100 030/09 RMK AO2 T01440111
13976KLFT LFT20191016230510810/16/19 23:05:31  5-MIN KLFT 170505Z AUTO 04007KT 10SM CLR 14/11 A3005 -70 80 -100 040/07 RMK AO2 T01440111
13976KLFT LFT20191016231010810/16/19 23:10:31  5-MIN KLFT 170510Z AUTO 04007KT 10SM CLR 14/11 A3005 -70 80 -100 040/07 RMK AO2 T01440111
13976KLFT LFT20191016231510810/16/19 23:15:31  5-MIN KLFT 170515Z AUTO 04007KT 10SM CLR 14/11 A3005 -70 80 -100 040/07 RMK AO2 T01440111
13976KLFT LFT20191016232010810/16/19 23:20:31  5-MIN KLFT 170520Z AUTO 03008KT 10SM CLR 14/11 A3005 -70 83 -100 030/08 RMK AO2 T01390111
13976KLFT LFT20191016232510810/16/19 23:25:31  5-MIN KLFT 170525Z AUTO 02009KT 10SM CLR 14/11 A3004 -60 80 -100 020/09 RMK AO2 T01440111
13976KLFT LFT20191016233010810/16/19 23:30:31  5-MIN KLFT 170530Z AUTO 03009KT 10SM CLR 14/11 A3004 -60 80 -100 030/09 RMK AO2 T01440111
13976KLFT LFT20191016233510810/16/19 23:35:31  5-MIN KLFT 170535Z AUTO 03010KT 10SM CLR 14/11 A3004 -60 83 -100 030/10 RMK AO2 T01390111
13976KLFT LFT20191016234010810/16/19 23:40:31  5-MIN KLFT 170540Z AUTO 03010KT 10SM CLR 14/11 A3004 -60 80 -100 030/10 RMK AO2 T01390106
13976KLFT LFT20191016234510810/16/19 23:45:31  5-MIN KLFT 170545Z AUTO 03009KT 10SM CLR 14/11 A3004 -60 80 -100 030/09 RMK AO2 T01390106
13976KLFT LFT20191016235014310/16/19 23:50:31  5-MIN KLFT 170550Z AUTO 03008KT 10SM CLR 14/11 A3004 -60 80 -100 030/08 RMK AO2 SLP170 T01390106 10183 20139 402330139 51017
13976KLFT LFT20191016235510810/16/19 23:55:31  5-MIN KLFT 170555Z AUTO 04007KT 10SM CLR 14/11 A3004 -60 80 -100 030/07 RMK AO2 T01390106
13976KLFT LFT20191017000010810/17/19 00:00:31  5-MIN KLFT 170600Z AUTO 04008KT 10SM CLR 14/11 A3004 -60 80 -100 040/08 RMK AO2 T01390106
13976KLFT LFT20191017000510810/17/19 00:05:31  5-MIN KLFT 170605Z AUTO 04006KT 10SM CLR 14/11 A3005 -70 80 -100 040/06 RMK AO2 T01390106
13976KLFT LFT20191017001010810/17/19 00:10:31  5-MIN KLFT 170610Z AUTO 03008KT 10SM CLR 14/11 A3004 -60 80 -100 030/08 RMK AO2 T01390106
13976KLFT LFT20191017001510810/17/19 00:15:31  5-MIN KLFT 170615Z AUTO 04008KT 10SM CLR 14/11 A3004 -60 80 -100 030/08 RMK AO2 T01390106
13976KLFT LFT20191017002010810/17/19 00:20:31  5-MIN KLFT 170620Z AUTO 04008KT 10SM CLR 14/11 A3004 -60 80 -100 040/08 RMK AO2 T01390106
13976KLFT LFT20191017002510810/17/19 00:25:31  5-MIN KLFT 170625Z AUTO 04007KT 10SM CLR 14/11 A3004 -60 80 -100 040/07 RMK AO2 T01390106
13976KLFT LFT20191017003010810/17/19 00:30:31  5-MIN KLFT 170630Z AUTO 04007KT 10SM CLR 14/11 A3004 -60 80 -100 040/07 RMK AO2 T01390106
13976KLFT LFT20191017003510810/17/19 00:35:31  5-MIN KLFT 170635Z AUTO 04008KT 10SM CLR 13/11 A3004 -60 83 -200 040/08 RMK AO2 T01330106
13976KLFT LFT20191017004010810/17/19 00:40:31  5-MIN KLFT 170640Z AUTO 04007KT 10SM CLR 13/10 A3004 -70 80 -200 040/07 RMK AO2 T01330100
13976KLFT LFT20191017004510810/17/19 00:45:31  5-MIN KLFT 170645Z AUTO 04005KT 10SM CLR 13/10 A3005 -70 80 -200 040/05 RMK AO2 T01330100
13976KLFT LFT20191017005011510/17/19 00:50:31  5-MIN KLFT 170650Z AUTO 05005KT 10SM CLR 13/10 A3005 -70 80 -200 050/05 RMK AO2 SLP173 T01330100
13976KLFT LFT20191017005510810/17/19 00:55:31  5-MIN KLFT 170655Z AUTO 04005KT 10SM CLR 14/10 A3004 -70 77 -100 040/05 RMK AO2 T01390100
13976KLFT LFT20191017010010810/17/19 01:00:31  5-MIN KLFT 170700Z AUTO 05005KT 10SM CLR 13/10 A3004 -60 80 -200 050/05 RMK AO2 T01330100
13976KLFT LFT20191017010510810/17/19 01:05:31  5-MIN KLFT 170705Z AUTO 05005KT 10SM CLR 13/10 A3004 -60 80 -200 050/05 RMK AO2 T01330100
13976KLFT LFT20191017011010810/17/19 01:10:31  5-MIN KLFT 170710Z AUTO 04006KT 10SM CLR 13/10 A3004 -60 80 -200 040/06 RMK AO2 T01330100
13976KLFT LFT20191017011510810/17/19 01:15:31  5-MIN KLFT 170715Z AUTO 04005KT 10SM CLR 13/10 A3005 -70 80 -200 040/05 RMK AO2 T01330100
13976KLFT LFT20191017012010810/17/19 01:20:31  5-MIN KLFT 170720Z AUTO 04005KT 10SM CLR 13/10 A3005 -70 80 -200 030/05 RMK AO2 T01330100
13976KLFT LFT20191017012510810/17/19 01:25:31  5-MIN KLFT 170725Z AUTO 04006KT 10SM CLR 13/10 A3004 -60 83 -300 040/06 RMK AO2 T01280100
13976KLFT LFT20191017013010810/17/19 01:30:31  5-MIN KLFT 170730Z AUTO 05005KT 10SM CLR 13/09 A3004 -60 77 -200 050/05 RMK AO2 T01330094
13976KLFT LFT20191017013510810/17/19 01:35:31  5-MIN KLFT 170735Z AUTO 05005KT 10SM CLR 13/09 A3005 -70 77 -200 050/05 RMK AO2 T01330094
13976KLFT LFT20191017014010810/17/19 01:40:31  5-MIN KLFT 170740Z AUTO 04005KT 10SM CLR 13/09 A3004 -60 77 -200 040/05 RMK AO2 T01330094
13976KLFT LFT20191017014510810/17/19 01:45:31  5-MIN KLFT 170745Z AUTO 03006KT 10SM CLR 13/09 A3004 -60 80 -300 030/06 RMK AO2 T01280094
13976KLFT LFT20191017015011510/17/19 01:50:31  5-MIN KLFT 170750Z AUTO 03007KT 10SM CLR 13/09 A3004 -60 80 -300 030/07 RMK AO2 SLP171 T01280094
13976KLFT LFT20191017015510810/17/19 01:55:31  5-MIN KLFT 170755Z AUTO 02007KT 10SM CLR 13/09 A3004 -60 80 -300 020/07 RMK AO2 T01280094
13976KLFT LFT20191017020010810/17/19 02:00:31  5-MIN KLFT 170800Z AUTO 01009KT 10SM CLR 13/09 A3004 -60 80 -300 010/09 RMK AO2 T01280094
13976KLFT LFT20191017020510810/17/19 02:05:31  5-MIN KLFT 170805Z AUTO 02007KT 10SM CLR 13/09 A3003 -50 80 -200 020/07 RMK AO2 T01280094
13976KLFT LFT20191017021010810/17/19 02:10:31  5-MIN KLFT 170810Z AUTO 02009KT 10SM CLR 13/09 A3003 -50 80 -200 020/09 RMK AO2 T01280094
13976KLFT LFT20191017021510810/17/19 02:15:31  5-MIN KLFT 170815Z AUTO 02009KT 10SM CLR 13/09 A3003 -50 80 -200 020/09 RMK AO2 T01280094
13976KLFT LFT20191017022010810/17/19 02:20:31  5-MIN KLFT 170820Z AUTO 02009KT 10SM CLR 13/09 A3003 -50 80 -200 020/09 RMK AO2 T01280094
13976KLFT LFT20191017022510810/17/19 02:25:31  5-MIN KLFT 170825Z AUTO 03008KT 10SM CLR 13/09 A3002 -50 80 -200 030/08 RMK AO2 T01280094
13976KLFT LFT20191017023010810/17/19 02:30:31  5-MIN KLFT 170830Z AUTO 03007KT 10SM CLR 13/09 A3002 -40 80 -200 030/07 RMK AO2 T01280094
13976KLFT LFT20191017023510810/17/19 02:35:31  5-MIN KLFT 170835Z AUTO 02008KT 10SM CLR 13/09 A3002 -40 80 -200 020/08 RMK AO2 T01280094
13976KLFT LFT20191017024010810/17/19 02:40:31  5-MIN KLFT 170840Z AUTO 03007KT 10SM CLR 13/09 A3002 -40 80 -200 030/07 RMK AO2 T01280094
13976KLFT LFT20191017024510810/17/19 02:45:31  5-MIN KLFT 170845Z AUTO 03008KT 10SM CLR 13/09 A3002 -40 80 -200 030/08 RMK AO2 T01280094
13976KLFT LFT20191017025012110/17/19 02:50:31  5-MIN KLFT 170850Z AUTO 03008KT 10SM CLR 12/09 A3002 -40 83 -300 030/08 RMK AO2 SLP164 T01220094 58006
13976KLFT LFT20191017025510810/17/19 02:55:31  5-MIN KLFT 170855Z AUTO 03007KT 10SM CLR 12/09 A3001 -40 83 -300 030/07 RMK AO2 T01220094
13976KLFT LFT20191017030010810/17/19 03:00:31  5-MIN KLFT 170900Z AUTO 04006KT 10SM CLR 12/09 A3001 -30 83 -300 040/06 RMK AO2 T01220094
13976KLFT LFT20191017030510810/17/19 03:05:31  5-MIN KLFT 170905Z AUTO 04007KT 10SM CLR 12/09 A3001 -30 83 -300 040/07 RMK AO2 T01220094
13976KLFT LFT20191017031010810/17/19 03:10:31  5-MIN KLFT 170910Z AUTO 05007KT 10SM CLR 13/09 A3001 -30 80 -200 040/07 RMK AO2 T01280094
13976KLFT LFT20191017031510810/17/19 03:15:31  5-MIN KLFT 170915Z AUTO 03007KT 10SM CLR 12/09 A3000 -30 83 -300 030/07 RMK AO2 T01220094
13976KLFT LFT20191017032010810/17/19 03:20:31  5-MIN KLFT 170920Z AUTO 04006KT 10SM CLR 12/09 A3000 -20 83 -300 040/06 RMK AO2 T01220094
13976KLFT LFT20191017032510810/17/19 03:25:31  5-MIN KLFT 170925Z AUTO 05004KT 10SM CLR 13/09 A3001 -30 80 -200 050/04 RMK AO2 T01280094
13976KLFT LFT20191017033010810/17/19 03:30:31  5-MIN KLFT 170930Z AUTO 05005KT 10SM CLR 13/09 A3001 -30 80 -200 050/05 RMK AO2 T01280094
13976KLFT LFT20191017033510810/17/19 03:35:31  5-MIN KLFT 170935Z AUTO 05004KT 10SM CLR 13/09 A3000 -30 80 -200 050/04 RMK AO2 T01280094
13976KLFT LFT20191017034010810/17/19 03:40:31  5-MIN KLFT 170940Z AUTO 05005KT 10SM CLR 12/09 A3000 -30 83 -300 050/05 RMK AO2 T01220094
13976KLFT LFT20191017034510810/17/19 03:45:31  5-MIN KLFT 170945Z AUTO 04006KT 10SM CLR 12/09 A3000 -20 83 -300 040/06 RMK AO2 T01220094
13976KLFT LFT20191017035011510/17/19 03:50:31  5-MIN KLFT 170950Z AUTO 04006KT 10SM CLR 12/09 A2999 -20 83 -300 040/06 RMK AO2 SLP156 T01220094
13976KLFT LFT20191017035510310/17/19 03:55:31  5-MIN KLFT 170955Z 03007KT 10SM CLR 12/09 A3000 -20 83 -300 030/07 RMK AO2 T01220094
13976KLFT LFT20191017040010310/17/19 04:00:31  5-MIN KLFT 171000Z 04006KT 10SM CLR 12/09 A3000 -20 83 -300 030/06 RMK AO2 T01220094
13976KLFT LFT20191017040510310/17/19 04:05:31  5-MIN KLFT 171005Z 04005KT 10SM CLR 12/09 A3000 -30 83 -300 040/05 RMK AO2 T01220094
13976KLFT LFT20191017041010310/17/19 04:10:31  5-MIN KLFT 171010Z 04006KT 10SM CLR 12/09 A3000 -30 83 -300 040/06 RMK AO2 T01220094
13976KLFT LFT20191017041510310/17/19 04:15:31  5-MIN KLFT 171015Z 03008KT 10SM CLR 12/09 A3000 -30 83 -300 030/08 RMK AO2 T01220094
13976KLFT LFT20191017042010310/17/19 04:20:31  5-MIN KLFT 171020Z 04007KT 10SM CLR 12/09 A3001 -30 83 -300 030/07 RMK AO2 T01220094
13976KLFT LFT20191017042510310/17/19 04:25:31  5-MIN KLFT 171025Z 03007KT 10SM CLR 12/09 A3001 -30 83 -300 030/07 RMK AO2 T01220094
13976KLFT LFT20191017043010310/17/19 04:30:31  5-MIN KLFT 171030Z 03007KT 10SM CLR 12/09 A3001 -40 83 -300 030/07 RMK AO2 T01220094
13976KLFT LFT20191017043510310/17/19 04:35:31  5-MIN KLFT 171035Z 02007KT 10SM CLR 12/09 A3002 -40 83 -300 020/07 RMK AO2 T01220094
13976KLFT LFT20191017044010310/17/19 04:40:31  5-MIN KLFT 171040Z 03006KT 10SM CLR 12/09 A3002 -40 83 -300 030/06 RMK AO2 T01220094
13976KLFT LFT20191017044510310/17/19 04:45:31  5-MIN KLFT 171045Z 04005KT 10SM CLR 12/09 A3002 -40 83 -300 040/05 RMK AO2 T01220094
13976KLFT LFT20191017045011010/17/19 04:50:31  5-MIN KLFT 171050Z 04006KT 10SM CLR 12/09 A3002 -40 83 -300 040/06 RMK AO2 SLP164 T01220094
13976KLFT LFT20191017045510310/17/19 04:55:31  5-MIN KLFT 171055Z 04007KT 10SM CLR 12/09 A3002 -40 83 -300 030/07 RMK AO2 T01220094
13976KLFT LFT20191017050010310/17/19 05:00:31  5-MIN KLFT 171100Z 03007KT 10SM CLR 12/09 A3002 -40 86 -400 030/07 RMK AO2 T01170094
13976KLFT LFT20191017050510310/17/19 05:05:31  5-MIN KLFT 171105Z 04006KT 10SM CLR 12/09 A3003 -50 83 -300 040/06 RMK AO2 T01220094
13976KLFT LFT20191017051010310/17/19 05:10:31  5-MIN KLFT 171110Z 04006KT 10SM CLR 12/09 A3003 -50 83 -300 040/06 RMK AO2 T01220094
13976KLFT LFT20191017051510310/17/19 05:15:31  5-MIN KLFT 171115Z 04006KT 10SM CLR 12/09 A3003 -50 83 -300 040/06 RMK AO2 T01220094
13976KLFT LFT20191017052010310/17/19 05:20:31  5-MIN KLFT 171120Z 04005KT 10SM CLR 12/09 A3003 -50 86 -400 030/05 RMK AO2 T01170094
13976KLFT LFT20191017052510310/17/19 05:25:31  5-MIN KLFT 171125Z 04005KT 10SM CLR 12/09 A3003 -50 86 -400 040/05 RMK AO2 T01170094
13976KLFT LFT20191017053010310/17/19 05:30:31  5-MIN KLFT 171130Z 04005KT 10SM CLR 12/09 A3003 -50 86 -400 030/05 RMK AO2 T01170094
13976KLFT LFT20191017053510310/17/19 05:35:31  5-MIN KLFT 171135Z 03004KT 10SM CLR 12/09 A3003 -60 86 -400 030/04 RMK AO2 T01170094
13976KLFT LFT20191017054010310/17/19 05:40:31  5-MIN KLFT 171140Z 04004KT 10SM CLR 12/09 A3004 -60 86 -400 040/04 RMK AO2 T01170094
13976KLFT LFT20191017054510310/17/19 05:45:31  5-MIN KLFT 171145Z 04004KT 10SM CLR 12/09 A3004 -60 86 -400 040/04 RMK AO2 T01170094
13976KLFT LFT20191017055013410/17/19 05:50:31  5-MIN KLFT 171150Z 04004KT 10SM CLR 12/09 A3004 -60 86 -400 040/04 RMK AO2 SLP171 70007 T01170094 10139 20117 58007
13976KLFT LFT20191017055510310/17/19 05:55:31  5-MIN KLFT 171155Z 04004KT 10SM CLR 12/09 A3004 -60 86 -400 040/04 RMK AO2 T01170094
13976KLFT LFT20191017060010310/17/19 06:00:31  5-MIN KLFT 171200Z 02005KT 10SM CLR 12/09 A3004 -60 86 -400 020/05 RMK AO2 T01170094
13976KLFT LFT20191017060510310/17/19 06:05:31  5-MIN KLFT 171205Z 03005KT 10SM CLR 12/09 A3004 -60 86 -400 030/05 RMK AO2 T01170094
13976KLFT LFT20191017061010310/17/19 06:10:31  5-MIN KLFT 171210Z 03005KT 10SM CLR 12/09 A3004 -60 86 -400 030/05 RMK AO2 T01170094
13976KLFT LFT20191017061510310/17/19 06:15:31  5-MIN KLFT 171215Z 04004KT 10SM CLR 12/09 A3004 -60 86 -400 040/04 RMK AO2 T01170094
13976KLFT LFT20191017062010310/17/19 06:20:31  5-MIN KLFT 171220Z 05005KT 10SM CLR 12/09 A3004 -60 86 -400 040/05 RMK AO2 T01170094
13976KLFT LFT20191017062510310/17/19 06:25:31  5-MIN KLFT 171225Z 04005KT 10SM CLR 12/09 A3004 -60 86 -400 040/05 RMK AO2 T01170094
13976KLFT LFT20191017063010310/17/19 06:30:31  5-MIN KLFT 171230Z 04006KT 10SM CLR 12/09 A3004 -70 86 -400 040/06 RMK AO2 T01170094
13976KLFT LFT20191017063510310/17/19 06:35:31  5-MIN KLFT 171235Z 04005KT 10SM CLR 12/09 A3005 -70 86 -400 040/05 RMK AO2 T01170094
13976KLFT LFT20191017064010310/17/19 06:40:31  5-MIN KLFT 171240Z 04007KT 10SM CLR 12/09 A3005 -70 86 -400 040/07 RMK AO2 T01170094
13976KLFT LFT20191017064510310/17/19 06:45:31  5-MIN KLFT 171245Z 04007KT 10SM CLR 12/09 A3005 -70 86 -400 040/07 RMK AO2 T01170094
13976KLFT LFT20191017065011010/17/19 06:50:31  5-MIN KLFT 171250Z 05005KT 10SM CLR 12/09 A3005 -70 83 -300 050/05 RMK AO2 SLP176 T01220094
13976KLFT LFT20191017065510310/17/19 06:55:31  5-MIN KLFT 171255Z 04005KT 10SM CLR 12/09 A3005 -70 83 -300 040/05 RMK AO2 T01220094
13976KLFT LFT20191017070010310/17/19 07:00:31  5-MIN KLFT 171300Z 04006KT 10SM CLR 12/09 A3005 -70 83 -300 030/06 RMK AO2 T01220094
13976KLFT LFT20191017070510310/17/19 07:05:31  5-MIN KLFT 171305Z 04005KT 10SM CLR 12/09 A3006 -80 83 -300 040/05 RMK AO2 T01220094
13976KLFT LFT20191017071010310/17/19 07:10:31  5-MIN KLFT 171310Z 02008KT 10SM CLR 12/09 A3006 -80 83 -300 020/08 RMK AO2 T01220094
13976KLFT LFT20191017071510310/17/19 07:15:31  5-MIN KLFT 171315Z 03009KT 10SM CLR 12/09 A3005 -70 83 -300 030/09 RMK AO2 T01220094
13976KLFT LFT20191017072010310/17/19 07:20:31  5-MIN KLFT 171320Z 03009KT 10SM CLR 12/09 A3006 -80 83 -300 030/09 RMK AO2 T01220094
13976KLFT LFT20191017072510310/17/19 07:25:31  5-MIN KLFT 171325Z 05006KT 10SM CLR 12/09 A3005 -70 83 -300 050/06 RMK AO2 T01220094
13976KLFT LFT20191017210510110/17/19 21:05:31  5-MIN KLFT 180305Z 06006KT 10SM CLR 16/12 A2994 20 80 100 060/06 RMK AO2 T01560122
13976KLFT LFT20191017211010610/17/19 21:10:31  5-MIN KLFT 180310Z AUTO 04005KT 10SM CLR 16/12 A2994 30 80 100 040/05 RMK AO2 T01560122
13976KLFT LFT20191017211510610/17/19 21:15:31  5-MIN KLFT 180315Z AUTO 06004KT 10SM CLR 16/12 A2994 30 80 100 060/04 RMK AO2 T01560122
13976KLFT LFT20191017212010610/17/19 21:20:31  5-MIN KLFT 180320Z AUTO 06005KT 10SM CLR 16/12 A2993 30 80 100 060/05 RMK AO2 T01560122
13976KLFT LFT20191017212510610/17/19 21:25:31  5-MIN KLFT 180325Z AUTO 05004KT 10SM CLR 16/12 A2994 30 80 100 050/04 RMK AO2 T01560122
13976KLFT LFT20191017213010610/17/19 21:30:31  5-MIN KLFT 180330Z AUTO 05005KT 10SM CLR 16/13 A2993 30 83 100 050/05 RMK AO2 T01560128
13976KLFT LFT20191017213510610/17/19 21:35:31  5-MIN KLFT 180335Z AUTO 06004KT 10SM CLR 16/12 A2994 30 80 100 060/04 RMK AO2 T01560122
13976KLFT LFT20191017214010610/17/19 21:40:31  5-MIN KLFT 180340Z AUTO 07004KT 10SM CLR 16/12 A2994 30 80 100 070/04 RMK AO2 T01560122
13976KLFT LFT20191017214510610/17/19 21:45:31  5-MIN KLFT 180345Z AUTO 07004KT 10SM CLR 16/12 A2994 30 80 100 070/04 RMK AO2 T01560122
13976KLFT LFT20191017215011310/17/19 21:50:31  5-MIN KLFT 180350Z AUTO 00000KT 10SM CLR 16/13 A2994 30 83 100 000/00 RMK AO2 SLP138 T01560128
13976KLFT LFT20191017215510610/17/19 21:55:31  5-MIN KLFT 180355Z AUTO VRB03KT 10SM CLR 16/13 A2994 30 83 100 VRB/03 RMK AO2 T01560128
13976KLFT LFT20191017220010610/17/19 22:00:31  5-MIN KLFT 180400Z AUTO 07004KT 10SM CLR 16/13 A2994 30 83 100 070/04 RMK AO2 T01560128
13976KLFT LFT20191017220510610/17/19 22:05:31  5-MIN KLFT 180405Z AUTO 08004KT 10SM CLR 16/12 A2993 30 80 100 080/04 RMK AO2 T01560122
13976KLFT LFT20191017221010610/17/19 22:10:31  5-MIN KLFT 180410Z AUTO 06004KT 10SM CLR 16/13 A2993 30 83 100 060/04 RMK AO2 T01560128
13976KLFT LFT20191017221510610/17/19 22:15:31  5-MIN KLFT 180415Z AUTO 06004KT 10SM CLR 16/12 A2993 30 80 100 060/04 RMK AO2 T01560122
13976KLFT LFT20191017222010610/17/19 22:20:31  5-MIN KLFT 180420Z AUTO 04005KT 10SM CLR 16/12 A2993 30 80 100 040/05 RMK AO2 T01560122
13976KLFT LFT20191017222510610/17/19 22:25:31  5-MIN KLFT 180425Z AUTO 04005KT 10SM CLR 16/12 A2993 40 80 200 040/05 RMK AO2 T01560122
13976KLFT LFT20191017223010610/17/19 22:30:31  5-MIN KLFT 180430Z AUTO 04005KT 10SM CLR 16/12 A2993 30 80 100 040/05 RMK AO2 T01560122
13976KLFT LFT20191017223510610/17/19 22:35:31  5-MIN KLFT 180435Z AUTO 05005KT 10SM CLR 16/12 A2993 30 80 100 050/05 RMK AO2 T01560122
13976KLFT LFT20191017224010610/17/19 22:40:31  5-MIN KLFT 180440Z AUTO 04006KT 10SM CLR 16/12 A2993 40 80 200 040/06 RMK AO2 T01560122
13976KLFT LFT20191017224510610/17/19 22:45:31  5-MIN KLFT 180445Z AUTO 05004KT 10SM CLR 16/12 A2993 40 80 200 050/04 RMK AO2 T01560122
13976KLFT LFT20191017225011310/17/19 22:50:31  5-MIN KLFT 180450Z AUTO 05005KT 10SM CLR 16/12 A2993 40 80 200 050/05 RMK AO2 SLP133 T01560122
13976KLFT LFT20191017225510610/17/19 22:55:31  5-MIN KLFT 180455Z AUTO 06004KT 10SM CLR 16/12 A2993 30 80 100 050/04 RMK AO2 T01560122
13976KLFT LFT20191017230010610/17/19 23:00:31  5-MIN KLFT 180500Z AUTO 00000KT 10SM CLR 16/12 A2994 30 80 100 000/00 RMK AO2 T01560122
13976KLFT LFT20191017230510610/17/19 23:05:31  5-MIN KLFT 180505Z AUTO 05004KT 10SM CLR 16/13 A2993 30 83 100 050/04 RMK AO2 T01560128
13976KLFT LFT20191017231010610/17/19 23:10:31  5-MIN KLFT 180510Z AUTO 04005KT 10SM CLR 16/12 A2993 40 80 100 040/05 RMK AO2 T01560122
13976KLFT LFT20191017231510610/17/19 23:15:31  5-MIN KLFT 180515Z AUTO 04005KT 10SM CLR 16/12 A2993 40 80 200 040/05 RMK AO2 T01560122
13976KLFT LFT20191017232010610/17/19 23:20:31  5-MIN KLFT 180520Z AUTO 04005KT 10SM CLR 16/12 A2992 40 80 200 040/05 RMK AO2 T01560122
13976KLFT LFT20191017232510610/17/19 23:25:31  5-MIN KLFT 180525Z AUTO 05005KT 10SM CLR 16/12 A2992 40 80 200 050/05 RMK AO2 T01560122
13976KLFT LFT20191017233010610/17/19 23:30:31  5-MIN KLFT 180530Z AUTO 06003KT 10SM CLR 16/12 A2992 40 80 200 060/03 RMK AO2 T01560122
13976KLFT LFT20191017233510610/17/19 23:35:31  5-MIN KLFT 180535Z AUTO 06004KT 10SM CLR 16/12 A2993 40 80 200 060/04 RMK AO2 T01560122
13976KLFT LFT20191017234010910/17/19 23:40:31  5-MIN KLFT 180540Z AUTO 05005KT 10SM FEW050 16/12 A2992 40 80 200 050/05 RMK AO2 T01560122
13976KLFT LFT20191017234510910/17/19 23:45:31  5-MIN KLFT 180545Z AUTO 06006KT 10SM FEW050 16/12 A2992 50 80 200 050/06 RMK AO2 T01560122
13976KLFT LFT20191017235014410/17/19 23:50:31  5-MIN KLFT 180550Z AUTO 05006KT 10SM FEW050 16/12 A2991 50 80 200 050/06 RMK AO2 SLP128 T01560122 10161 20156 401780117 50002
13976KLFT LFT20191017235510910/17/19 23:55:31  5-MIN KLFT 180555Z AUTO 05006KT 10SM FEW050 16/12 A2991 60 80 200 050/06 RMK AO2 T01560122
13976KLFT LFT20191018000010610/18/19 00:00:31  5-MIN KLFT 180600Z AUTO 05004KT 10SM CLR 16/12 A2991 50 80 200 050/04 RMK AO2 T01560122
13976KLFT LFT20191018000510610/18/19 00:05:31  5-MIN KLFT 180605Z AUTO 06003KT 10SM CLR 16/12 A2991 50 80 200 060/03 RMK AO2 T01560122
13976KLFT LFT20191018001010610/18/19 00:10:31  5-MIN KLFT 180610Z AUTO 06003KT 10SM CLR 16/12 A2991 50 80 200 060/03 RMK AO2 T01560122
13976KLFT LFT20191018001510610/18/19 00:15:31  5-MIN KLFT 180615Z AUTO 05004KT 10SM CLR 16/12 A2991 50 80 200 050/04 RMK AO2 T01560122
13976KLFT LFT20191018002010610/18/19 00:20:31  5-MIN KLFT 180620Z AUTO 04005KT 10SM CLR 16/12 A2991 50 80 200 040/05 RMK AO2 T01560122
13976KLFT LFT20191018002510610/18/19 00:25:31  5-MIN KLFT 180625Z AUTO 04006KT 10SM CLR 16/12 A2990 60 80 200 040/06 RMK AO2 T01560122
13976KLFT LFT20191018003010610/18/19 00:30:31  5-MIN KLFT 180630Z AUTO 05005KT 10SM CLR 16/12 A2991 60 80 200 050/05 RMK AO2 T01560122
13976KLFT LFT20191018003510610/18/19 00:35:31  5-MIN KLFT 180635Z AUTO 04005KT 10SM CLR 16/12 A2990 60 80 200 040/05 RMK AO2 T01560122
13976KLFT LFT20191018004010610/18/19 00:40:31  5-MIN KLFT 180640Z AUTO 05005KT 10SM CLR 15/12 A2990 60 83 100 050/05 RMK AO2 T01500122
13976KLFT LFT20191018004510610/18/19 00:45:31  5-MIN KLFT 180645Z AUTO 03007KT 10SM CLR 15/12 A2990 60 83 100 030/07 RMK AO2 T01500122
13976KLFT LFT20191018005011310/18/19 00:50:31  5-MIN KLFT 180650Z AUTO 04006KT 10SM CLR 15/12 A2990 60 83 100 040/06 RMK AO2 SLP125 T01500122
13976KLFT LFT20191018005510610/18/19 00:55:31  5-MIN KLFT 180655Z AUTO 04006KT 10SM CLR 15/12 A2990 60 83 100 030/06 RMK AO2 T01500122
13976KLFT LFT20191018010010610/18/19 01:00:31  5-MIN KLFT 180700Z AUTO 03007KT 10SM CLR 15/12 A2990 60 83 100 030/07 RMK AO2 T01500122
13976KLFT LFT20191018010510610/18/19 01:05:31  5-MIN KLFT 180705Z AUTO 04006KT 10SM CLR 15/12 A2990 60 83 100 040/06 RMK AO2 T01500122
13976KLFT LFT20191018011010610/18/19 01:10:31  5-MIN KLFT 180710Z AUTO 04006KT 10SM CLR 15/12 A2990 60 83 100 040/06 RMK AO2 T01500122
13976KLFT LFT20191018011510610/18/19 01:15:31  5-MIN KLFT 180715Z AUTO 04006KT 10SM CLR 15/12 A2990 70 83 100 040/06 RMK AO2 T01500122
13976KLFT LFT20191018012010610/18/19 01:20:31  5-MIN KLFT 180720Z AUTO 04006KT 10SM CLR 15/12 A2990 70 83 100 040/06 RMK AO2 T01500122
13976KLFT LFT20191018012510610/18/19 01:25:31  5-MIN KLFT 180725Z AUTO 04006KT 10SM CLR 15/12 A2990 70 83 100 040/06 RMK AO2 T01500122
13976KLFT LFT20191018013010610/18/19 01:30:31  5-MIN KLFT 180730Z AUTO 04007KT 10SM CLR 15/12 A2990 70 83 100 040/07 RMK AO2 T01500122
13976KLFT LFT20191018013510610/18/19 01:35:31  5-MIN KLFT 180735Z AUTO 06005KT 10SM CLR 15/12 A2990 60 83 100 060/05 RMK AO2 T01500122
13976KLFT LFT20191018014010610/18/19 01:40:31  5-MIN KLFT 180740Z AUTO 05006KT 10SM CLR 15/12 A2990 70 83 100 050/06 RMK AO2 T01500122
13976KLFT LFT20191018014510610/18/19 01:45:31  5-MIN KLFT 180745Z AUTO 04005KT 10SM CLR 15/12 A2989 70 83 100 040/05 RMK AO2 T01500122
13976KLFT LFT20191018015011310/18/19 01:50:31  5-MIN KLFT 180750Z AUTO 04006KT 10SM CLR 15/12 A2989 70 83 100 030/06 RMK AO2 SLP122 T01500122
13976KLFT LFT20191018015510610/18/19 01:55:31  5-MIN KLFT 180755Z AUTO 04004KT 10SM CLR 15/12 A2990 70 83 100 040/04 RMK AO2 T01500122
13976KLFT LFT20191018020010910/18/19 02:00:31  5-MIN KLFT 180800Z AUTO 04004KT 10SM FEW060 15/12 A2990 60 83 100 040/04 RMK AO2 T01500122
13976KLFT LFT20191018020510910/18/19 02:05:31  5-MIN KLFT 180805Z AUTO 03006KT 10SM BKN060 15/12 A2990 70 83 100 030/06 RMK AO2 T01500122
13976KLFT LFT20191018021010910/18/19 02:10:31  5-MIN KLFT 180810Z AUTO 05005KT 10SM BKN065 15/12 A2990 60 83 100 050/05 RMK AO2 T01500122
13976KLFT LFT20191018021510910/18/19 02:15:31  5-MIN KLFT 180815Z AUTO 04004KT 10SM SCT065 15/12 A2990 60 83 100 040/04 RMK AO2 T01500122
13976KLFT LFT20191018022010910/18/19 02:20:31  5-MIN KLFT 180820Z AUTO 03006KT 10SM SCT065 15/12 A2989 70 83 100 020/06 RMK AO2 T01500122
13976KLFT LFT20191018022510910/18/19 02:25:31  5-MIN KLFT 180825Z AUTO 03005KT 10SM SCT065 15/12 A2989 70 83 100 030/05 RMK AO2 T01500122
13976KLFT LFT20191018023010910/18/19 02:30:31  5-MIN KLFT 180830Z AUTO 04005KT 10SM SCT065 15/12 A2989 70 83 100 040/05 RMK AO2 T01500122
13976KLFT LFT20191018023510910/18/19 02:35:31  5-MIN KLFT 180835Z AUTO 05004KT 10SM FEW065 15/12 A2989 70 83 100 050/04 RMK AO2 T01500122
13976KLFT LFT20191018024010910/18/19 02:40:31  5-MIN KLFT 180840Z AUTO 05004KT 10SM FEW070 15/12 A2989 70 83 100 050/04 RMK AO2 T01500122
13976KLFT LFT20191018024510910/18/19 02:45:31  5-MIN KLFT 180845Z AUTO 06005KT 10SM SCT070 15/12 A2988 80 83 100 060/05 RMK AO2 T01500122
13976KLFT LFT20191018025012210/18/19 02:50:31  5-MIN KLFT 180850Z AUTO 05004KT 10SM FEW070 15/12 A2988 80 83 100 050/04 RMK AO2 SLP119 T01500122 58013
13976KLFT LFT20191018025510910/18/19 02:55:31  5-MIN KLFT 180855Z AUTO 05004KT 10SM SCT070 15/12 A2988 80 83 100 050/04 RMK AO2 T01500122
13976KLFT LFT20191018030010910/18/19 03:00:31  5-MIN KLFT 180900Z AUTO 04004KT 10SM BKN070 15/12 A2988 80 80 100 040/04 RMK AO2 T01500117
13976KLFT LFT20191018030510910/18/19 03:05:31  5-MIN KLFT 180905Z AUTO 03006KT 10SM BKN070 15/12 A2988 80 83 100 030/06 RMK AO2 T01500122
13976KLFT LFT20191018031010910/18/19 03:10:31  5-MIN KLFT 180910Z AUTO 04006KT 10SM BKN070 15/12 A2988 80 83 100 040/06 RMK AO2 T01500122
13976KLFT LFT20191018031510910/18/19 03:15:31  5-MIN KLFT 180915Z AUTO 05005KT 10SM BKN070 15/12 A2987 90 83 100 050/05 RMK AO2 T01500122
13976KLFT LFT20191018032010910/18/19 03:20:31  5-MIN KLFT 180920Z AUTO 05006KT 10SM BKN070 15/12 A2987 90 80 200 050/06 RMK AO2 T01500117
13976KLFT LFT20191018032510910/18/19 03:25:31  5-MIN KLFT 180925Z AUTO 05005KT 10SM SCT070 15/12 A2987 90 80 200 050/05 RMK AO2 T01500117
13976KLFT LFT20191018033010910/18/19 03:30:31  5-MIN KLFT 180930Z AUTO 07004KT 10SM FEW075 15/12 A2987 90 80 100 060/04 RMK AO2 T01500117
13976KLFT LFT20191018033510910/18/19 03:35:31  5-MIN KLFT 180935Z AUTO 06003KT 10SM FEW075 15/12 A2987 90 83 100 060/03 RMK AO2 T01500122
13976KLFT LFT20191018034010610/18/19 03:40:31  5-MIN KLFT 180940Z AUTO 06004KT 10SM CLR 15/12 A2987 90 83 100 060/04 RMK AO2 T01500122
13976KLFT LFT20191018034510610/18/19 03:45:31  5-MIN KLFT 180945Z AUTO 00000KT 10SM CLR 15/12 A2988 90 80 100 000/00 RMK AO2 T01500117
13976KLFT LFT20191018035011310/18/19 03:50:31  5-MIN KLFT 180950Z AUTO 00000KT 10SM CLR 15/12 A2988 80 83 100 000/00 RMK AO2 SLP117 T01500122
13976KLFT LFT20191018035510610/18/19 03:55:31  5-MIN KLFT 180955Z AUTO 00000KT 10SM CLR 15/12 A2988 80 83 100 000/00 RMK AO2 T01500122
13976KLFT LFT20191018040010610/18/19 04:00:31  5-MIN KLFT 181000Z AUTO 02003KT 10SM CLR 15/12 A2988 80 80 100 020/03 RMK AO2 T01500117
13976KLFT LFT20191018040510910/18/19 04:05:31  5-MIN KLFT 181005Z AUTO 04003KT 10SM FEW037 15/12 A2988 80 80 100 030/03 RMK AO2 T01500117
13976KLFT LFT20191018041010910/18/19 04:10:31  5-MIN KLFT 181010Z AUTO 05004KT 10SM SCT037 15/12 A2988 80 83 100 050/04 RMK AO2 T01500122
13976KLFT LFT20191018041510410/18/19 04:15:31  5-MIN KLFT 181015Z 05003KT 10SM BKN037 15/12 A2988 80 80 100 050/03 RMK AO2 T01500117
13976KLFT LFT20191018042010410/18/19 04:20:31  5-MIN KLFT 181020Z 05005KT 10SM SCT037 15/12 A2987 90 80 100 050/05 RMK AO2 T01500117
13976KLFT LFT20191018042510410/18/19 04:25:31  5-MIN KLFT 181025Z 05004KT 10SM SCT037 15/12 A2988 80 80 100 050/04 RMK AO2 T01500117
13976KLFT LFT20191018043010410/18/19 04:30:31  5-MIN KLFT 181030Z 05004KT 10SM SCT037 15/12 A2987 90 80 100 050/04 RMK AO2 T01500117
13976KLFT LFT20191018043510410/18/19 04:35:31  5-MIN KLFT 181035Z 05005KT 10SM FEW037 15/12 A2987 90 80 100 050/05 RMK AO2 T01500117
13976KLFT LFT20191018044010410/18/19 04:40:31  5-MIN KLFT 181040Z 06005KT 10SM FEW037 15/12 A2987 90 80 200 060/05 RMK AO2 T01500117
13976KLFT LFT20191018044510110/18/19 04:45:31  5-MIN KLFT 181045Z 06005KT 10SM CLR 15/12 A2987 90 80 200 060/05 RMK AO2 T01500117
13976KLFT LFT20191018045010810/18/19 04:50:31  5-MIN KLFT 181050Z 06004KT 10SM CLR 15/12 A2987 90 80 200 060/04 RMK AO2 SLP114 T01500117
13976KLFT LFT20191018045510110/18/19 04:55:31  5-MIN KLFT 181055Z 06005KT 10SM CLR 15/12 A2987 90 80 200 060/05 RMK AO2 T01500117
13976KLFT LFT20191018050010110/18/19 05:00:31  5-MIN KLFT 181100Z 05005KT 10SM CLR 15/12 A2987 90 80 200 050/05 RMK AO2 T01500117
13976KLFT LFT20191018050510110/18/19 05:05:31  5-MIN KLFT 181105Z 05006KT 10SM CLR 15/12 A2987 90 80 200 050/06 RMK AO2 T01500117
13976KLFT LFT20191018051010110/18/19 05:10:31  5-MIN KLFT 181110Z 05006KT 10SM CLR 15/12 A2987 90 80 200 050/06 RMK AO2 T01500117
13976KLFT LFT20191018051510110/18/19 05:15:31  5-MIN KLFT 181115Z 06004KT 10SM CLR 15/12 A2987 90 80 200 060/04 RMK AO2 T01500117
13976KLFT LFT20191018052010110/18/19 05:20:31  5-MIN KLFT 181120Z 06004KT 10SM CLR 15/12 A2987 90 80 200 060/04 RMK AO2 T01500117
13976KLFT LFT20191018052510110/18/19 05:25:31  5-MIN KLFT 181125Z 05005KT 10SM CLR 15/12 A2987 90 80 200 050/05 RMK AO2 T01500117
13976KLFT LFT20191018053010110/18/19 05:30:31  5-MIN KLFT 181130Z 04004KT 10SM CLR 15/11 A2987 90 77 200 040/04 RMK AO2 T01500111
13976KLFT LFT20191018053511110/18/19 05:35:31  5-MIN KLFT 181135Z 05005KT 10SM FEW090 FEW110 15/12 A2987 90 80 200 040/05 RMK AO2 T01500117
13976KLFT LFT20191018054011110/18/19 05:40:31  5-MIN KLFT 181140Z 05004KT 10SM FEW085 SCT110 15/12 A2987 90 80 200 050/04 RMK AO2 T01500117
13976KLFT LFT20191018054511110/18/19 05:45:31  5-MIN KLFT 181145Z 05003KT 10SM SCT090 BKN110 15/12 A2987 90 80 200 050/03 RMK AO2 T01500117
13976KLFT LFT20191018055013610/18/19 05:50:31  5-MIN KLFT 181150Z VRB03KT 10SM FEW090 BKN110 15/12 A2987 90 80 100 VRB/03 RMK AO2 SLP115 T01500117 10156 20150 58007
13976KLFT LFT20191018055512810/18/19 05:55:31  5-MIN KLFT 181155Z 06004KT 10SM -RA FEW075 SCT090 BKN110 15/12 A2987 90 80 200 060/04 RMK AO2 P0000 T01500117
13976KLFT LFT20191018060012810/18/19 06:00:31  5-MIN KLFT 181200Z 07004KT 10SM -RA FEW075 SCT090 BKN110 15/12 A2987 90 80 200 070/04 RMK AO2 P0000 T01500117
13976KLFT LFT20191018060513110/18/19 06:05:31  5-MIN KLFT 181205Z 06006KT 10SM FEW080 FEW090 SCT110 15/12 A2986 100 80 200 060/06 RMK AO2 RAE04 P0000 T01500117
13976KLFT LFT20191018061013110/18/19 06:10:31  5-MIN KLFT 181210Z 05004KT 10SM FEW075 FEW090 SCT110 14/12 A2987 100 83 100 050/04 RMK AO2 RAE04 P0000 T01440117
13976KLFT LFT20191018061512410/18/19 06:15:31  5-MIN KLFT 181215Z 04005KT 10SM FEW075 FEW110 14/12 A2986 100 83 100 040/05 RMK AO2 RAE04 P0000 T01440117
13976KLFT LFT20191018062011710/18/19 06:20:31  5-MIN KLFT 181220Z 05004KT 10SM FEW075 14/12 A2986 100 83 100 050/04 RMK AO2 RAE04 P0000 T01440117
13976KLFT LFT20191018062511410/18/19 06:25:31  5-MIN KLFT 181225Z 04004KT 10SM CLR 15/12 A2986 100 80 200 040/04 RMK AO2 RAE04 P0000 T01500117
13976KLFT LFT20191018063011310/18/19 06:30:31  5-MIN KLFT 181230Z 05003KT 10SM CLR 15/12 A2987 90 80 200 040/03 RMK AO2 RAE04 P0000 T01500117
13976KLFT LFT20191018063511410/18/19 06:35:31  5-MIN KLFT 181235Z 05006KT 10SM CLR 15/12 A2986 100 80 200 040/06 RMK AO2 RAE04 P0000 T01500117
13976KLFT LFT20191018064011310/18/19 06:40:31  5-MIN KLFT 181240Z 04004KT 10SM CLR 15/11 A2987 90 77 200 040/04 RMK AO2 RAE04 P0000 T01500111
13976KLFT LFT20191018064511310/18/19 06:45:31  5-MIN KLFT 181245Z 05004KT 10SM CLR 15/12 A2987 90 80 200 050/04 RMK AO2 RAE04 P0000 T01500117
13976KLFT LFT20191018065012010/18/19 06:50:31  5-MIN KLFT 181250Z 05004KT 10SM CLR 15/12 A2987 90 80 200 050/04 RMK AO2 RAE04 SLP113 P0000 T01500117
13976KLFT LFT20191018065510110/18/19 06:55:31  5-MIN KLFT 181255Z VRB03KT 10SM CLR 15/12 A2987 90 80 200 VRB/03 RMK AO2 T01500117
13976KLFT LFT20191018070010110/18/19 07:00:31  5-MIN KLFT 181300Z 06003KT 10SM CLR 15/12 A2987 90 80 200 060/03 RMK AO2 T01500117
13976KLFT LFT20191018070510110/18/19 07:05:31  5-MIN KLFT 181305Z 06003KT 10SM CLR 15/12 A2987 90 80 100 060/03 RMK AO2 T01500117
13976KLFT LFT20191018071010110/18/19 07:10:31  5-MIN KLFT 181310Z 04003KT 10SM CLR 15/12 A2987 90 80 100 040/03 RMK AO2 T01500117
13976KLFT LFT20191018071510110/18/19 07:15:31  5-MIN KLFT 181315Z 04005KT 10SM CLR 15/12 A2987 90 80 100 040/05 RMK AO2 T01500117
13976KLFT LFT20191018072010110/18/19 07:20:31  5-MIN KLFT 181320Z 04008KT 10SM CLR 15/12 A2987 90 80 100 040/08 RMK AO2 T01500117
13976KLFT LFT20191018072510110/18/19 07:25:31  5-MIN KLFT 181325Z 05007KT 10SM CLR 15/12 A2987 90 80 200 040/07 RMK AO2 T01500117
13976KLFT LFT20191018073010110/18/19 07:30:31  5-MIN KLFT 181330Z 05005KT 10SM CLR 15/12 A2988 90 80 100 050/05 RMK AO2 T01500117
13976KLFT LFT20191018073510110/18/19 07:35:31  5-MIN KLFT 181335Z 06005KT 10SM CLR 15/12 A2987 90 80 100 060/05 RMK AO2 T01500117
13976KLFT LFT20191018074010110/18/19 07:40:31  5-MIN KLFT 181340Z 05007KT 10SM CLR 15/12 A2987 90 80 100 050/07 RMK AO2 T01500117
13976KLFT LFT20191018074510110/18/19 07:45:31  5-MIN KLFT 181345Z 06006KT 10SM CLR 15/12 A2988 90 80 100 050/06 RMK AO2 T01500117
13976KLFT LFT20191018075010810/18/19 07:50:31  5-MIN KLFT 181350Z 06004KT 10SM CLR 16/12 A2988 80 77 200 060/04 RMK AO2 SLP118 T01560117
13976KLFT LFT20191018075510110/18/19 07:55:31  5-MIN KLFT 181355Z 07005KT 10SM CLR 16/12 A2988 80 77 200 070/05 RMK AO2 T01560117
13976KLFT LFT20191018080010110/18/19 08:00:31  5-MIN KLFT 181400Z 07005KT 10SM CLR 16/12 A2989 80 77 200 070/05 RMK AO2 T01560117
13976KLFT LFT20191018080510110/18/19 08:05:31  5-MIN KLFT 181405Z 07004KT 10SM CLR 16/12 A2989 80 77 200 060/04 RMK AO2 T01560117
13976KLFT LFT20191018081010110/18/19 08:10:31  5-MIN KLFT 181410Z VRB06KT 10SM CLR 16/12 A2989 80 77 200 VRB/06 RMK AO2 T01560117
13976KLFT LFT20191018081510110/18/19 08:15:31  5-MIN KLFT 181415Z 06005KT 10SM CLR 16/12 A2988 80 77 200 060/05 RMK AO2 T01560117
13976KLFT LFT20191018082010110/18/19 08:20:31  5-MIN KLFT 181420Z 07005KT 10SM CLR 16/12 A2989 80 77 200 070/05 RMK AO2 T01560117
13976KLFT LFT20191018082510110/18/19 08:25:31  5-MIN KLFT 181425Z 06005KT 10SM CLR 16/12 A2989 80 75 300 050/05 RMK AO2 T01610117
13976KLFT LFT20191018083010110/18/19 08:30:31  5-MIN KLFT 181430Z 06005KT 10SM CLR 16/12 A2988 80 75 300 060/05 RMK AO2 T01610117
13976KLFT LFT20191018083510110/18/19 08:35:31  5-MIN KLFT 181435Z 05006KT 10SM CLR 16/12 A2988 80 75 300 050/06 RMK AO2 T01610117
13976KLFT LFT20191018084010110/18/19 08:40:31  5-MIN KLFT 181440Z 06007KT 10SM CLR 17/12 A2988 80 72 300 060/07 RMK AO2 T01670117
13976KLFT LFT20191018084510110/18/19 08:45:31  5-MIN KLFT 181445Z 05005KT 10SM CLR 17/12 A2988 80 72 300 050/05 RMK AO2 T01670117
13976KLFT LFT20191018085012010/18/19 08:50:31  5-MIN KLFT 181450Z 06005KT 10SM CLR 17/12 A2988 80 72 400 050/05 RMK AO2 SLP118 60000 T01720122 55005
13976KLFT LFT20191018085510110/18/19 08:55:31  5-MIN KLFT 181455Z 06005KT 10SM CLR 17/12 A2988 80 72 400 060/05 RMK AO2 T01720122
13976KLFT LFT20191018090010110/18/19 09:00:31  5-MIN KLFT 181500Z VRB06KT 10SM CLR 17/12 A2988 80 72 400 VRB/06 RMK AO2 T01720122
13976KLFT LFT20191022060510410/22/19 06:05:31  5-MIN KLFT 221205Z 03004KT 10SM CLR 12/09 A3011 -120 83 -400 030/04 RMK AO2 T01220094
13976KLFT LFT20191022061010410/22/19 06:10:31  5-MIN KLFT 221210Z 05004KT 10SM CLR 12/09 A3011 -120 83 -400 040/04 RMK AO2 T01220094
13976KLFT LFT20191022061510410/22/19 06:15:31  5-MIN KLFT 221215Z 06004KT 10SM CLR 13/10 A3011 -130 83 -300 060/04 RMK AO2 T01280100
13976KLFT LFT20191022062010410/22/19 06:20:31  5-MIN KLFT 221220Z 05004KT 10SM CLR 13/10 A3012 -130 83 -300 050/04 RMK AO2 T01280100
13976KLFT LFT20191022062510410/22/19 06:25:31  5-MIN KLFT 221225Z 06004KT 10SM CLR 13/10 A3012 -130 83 -300 060/04 RMK AO2 T01280100
13976KLFT LFT20191022063010410/22/19 06:30:31  5-MIN KLFT 221230Z 00000KT 10SM CLR 13/11 A3012 -140 86 -300 000/00 RMK AO2 T01280106
13976KLFT LFT20191022063510410/22/19 06:35:31  5-MIN KLFT 221235Z 00000KT 10SM CLR 13/11 A3012 -140 86 -400 000/00 RMK AO2 T01280106
13976KLFT LFT20191022064010410/22/19 06:40:31  5-MIN KLFT 221240Z 00000KT 10SM CLR 13/11 A3013 -140 86 -400 000/00 RMK AO2 T01280106
13976KLFT LFT20191022064510410/22/19 06:45:31  5-MIN KLFT 221245Z 00000KT 10SM CLR 13/11 A3013 -150 83 -300 000/00 RMK AO2 T01330106
13976KLFT LFT20191022065011110/22/19 06:50:31  5-MIN KLFT 221250Z 00000KT 10SM CLR 13/11 A3013 -150 86 -300 000/00 RMK AO2 SLP203 T01330111
13976KLFT LFT20191022065510410/22/19 06:55:31  5-MIN KLFT 221255Z 00000KT 10SM CLR 13/11 A3013 -150 86 -300 000/00 RMK AO2 T01330111
13976KLFT LFT20191022070010410/22/19 07:00:31  5-MIN KLFT 221300Z 00000KT 10SM CLR 14/11 A3013 -150 83 -200 000/00 RMK AO2 T01390111
13976KLFT LFT20191022070510410/22/19 07:05:31  5-MIN KLFT 221305Z 00000KT 10SM CLR 14/11 A3014 -150 83 -200 000/00 RMK AO2 T01390111
13976KLFT LFT20191022071010410/22/19 07:10:31  5-MIN KLFT 221310Z 00000KT 10SM CLR 14/11 A3014 -150 83 -200 000/00 RMK AO2 T01390111
13976KLFT LFT20191022071510410/22/19 07:15:31  5-MIN KLFT 221315Z 00000KT 10SM CLR 14/11 A3014 -150 77 -200 000/00 RMK AO2 T01440106
13976KLFT LFT20191022072010410/22/19 07:20:31  5-MIN KLFT 221320Z 00000KT 10SM CLR 14/11 A3015 -160 80 -200 000/00 RMK AO2 T01440111
13976KLFT LFT20191022072510410/22/19 07:25:31  5-MIN KLFT 221325Z 00000KT 10SM CLR 14/11 A3015 -160 77 -200 000/00 RMK AO2 T01440106
13976KLFT LFT20191022073010410/22/19 07:30:31  5-MIN KLFT 221330Z 00000KT 10SM CLR 14/11 A3015 -160 77 -200 000/00 RMK AO2 T01440106
13976KLFT LFT20191022073510410/22/19 07:35:31  5-MIN KLFT 221335Z 04003KT 10SM CLR 14/11 A3015 -170 80 -200 040/03 RMK AO2 T01440111
13976KLFT LFT20191022074010410/22/19 07:40:31  5-MIN KLFT 221340Z 02003KT 10SM CLR 15/11 A3016 -170 74 -100 020/03 RMK AO2 T01500106
13976KLFT LFT20191022074510410/22/19 07:45:31  5-MIN KLFT 221345Z 01003KT 10SM CLR 15/11 A3016 -170 74 -100 010/03 RMK AO2 T01500106
13976KLFT LFT20191022075011110/22/19 07:50:31  5-MIN KLFT 221350Z 01003KT 10SM CLR 15/11 A3016 -170 74 -100 010/03 RMK AO2 SLP213 T01500106
13976KLFT LFT20191022075510410/22/19 07:55:31  5-MIN KLFT 221355Z 02003KT 10SM CLR 16/11 A3016 -180 74 -100 020/03 RMK AO2 T01560111
13976KLFT LFT20191022080010110/22/19 08:00:31  5-MIN KLFT 221400Z 02004KT 10SM CLR 16/11 A3017 -180 72 0 020/04 RMK AO2 T01610111
13976KLFT LFT20191022080510110/22/19 08:05:31  5-MIN KLFT 221405Z 02004KT 10SM CLR 16/11 A3017 -180 72 0 020/04 RMK AO2 T01610111
13976KLFT LFT20191022081010110/22/19 08:10:31  5-MIN KLFT 221410Z 03005KT 10SM CLR 17/11 A3017 -180 69 0 030/05 RMK AO2 T01670111
13976KLFT LFT20191022081510110/22/19 08:15:31  5-MIN KLFT 221415Z 02006KT 10SM CLR 17/11 A3017 -180 67 0 020/06 RMK AO2 T01670106
13976KLFT LFT20191022082010310/22/19 08:20:31  5-MIN KLFT 221420Z 02005KT 10SM CLR 17/11 A3017 -180 67 100 020/05 RMK AO2 T01720111
13976KLFT LFT20191022082510310/22/19 08:25:31  5-MIN KLFT 221425Z 02006KT 10SM CLR 17/11 A3017 -180 64 100 020/06 RMK AO2 T01720106
13976KLFT LFT20191022083010310/22/19 08:30:31  5-MIN KLFT 221430Z 02006KT 10SM CLR 17/11 A3017 -180 64 100 020/06 RMK AO2 T01720106
13976KLFT LFT20191022083510310/22/19 08:35:31  5-MIN KLFT 221435Z 01005KT 10SM CLR 18/11 A3017 -180 62 100 010/05 RMK AO2 T01780106
13976KLFT LFT20191022084010310/22/19 08:40:31  5-MIN KLFT 221440Z 02005KT 10SM CLR 18/11 A3017 -180 60 200 020/05 RMK AO2 T01830106
13976KLFT LFT20191022084510310/22/19 08:45:31  5-MIN KLFT 221445Z 02006KT 10SM CLR 18/10 A3017 -180 58 200 020/06 RMK AO2 T01830100
13976KLFT LFT20191022085011610/22/19 08:50:31  5-MIN KLFT 221450Z 02008KT 10SM CLR 18/09 A3017 -190 56 200 020/08 RMK AO2 SLP217 T01830094 53018
13976KLFT LFT20191022085510310/22/19 08:55:31  5-MIN KLFT 221455Z 01007KT 10SM CLR 18/09 A3018 -190 56 200 010/07 RMK AO2 T01830094
13976KLFT LFT20191022090010310/22/19 09:00:31  5-MIN KLFT 221500Z 02007KT 10SM CLR 19/09 A3018 -190 54 300 020/07 RMK AO2 T01890094
13976KLFT LFT20191022090510310/22/19 09:05:31  5-MIN KLFT 221505Z 03007KT 10SM CLR 19/09 A3018 -190 52 300 030/07 RMK AO2 T01890089
13976KLFT LFT20191022091010310/22/19 09:10:31  5-MIN KLFT 221510Z 02007KT 10SM CLR 19/09 A3018 -190 52 300 020/07 RMK AO2 T01890089
13976KLFT LFT20191022091510310/22/19 09:15:31  5-MIN KLFT 221515Z 03008KT 10SM CLR 19/09 A3018 -190 50 300 030/08 RMK AO2 T01940089
13976KLFT LFT20191022092010310/22/19 09:20:31  5-MIN KLFT 221520Z 03007KT 10SM CLR 19/09 A3018 -190 50 300 030/07 RMK AO2 T01940089
13976KLFT LFT20191022092510310/22/19 09:25:31  5-MIN KLFT 221525Z 04007KT 10SM CLR 19/09 A3018 -190 50 300 040/07 RMK AO2 T01940089
13976KLFT LFT20191022093010310/22/19 09:30:31  5-MIN KLFT 221530Z 03006KT 10SM CLR 20/09 A3018 -190 48 400 030/06 RMK AO2 T02000089
13976KLFT LFT20191022093510310/22/19 09:35:31  5-MIN KLFT 221535Z 03007KT 10SM CLR 20/09 A3018 -190 48 400 030/07 RMK AO2 T02000089
13976KLFT LFT20191022094010310/22/19 09:40:31  5-MIN KLFT 221540Z 03007KT 10SM CLR 21/09 A3018 -190 46 500 020/07 RMK AO2 T02060089
13976KLFT LFT20191022094510310/22/19 09:45:31  5-MIN KLFT 221545Z 02007KT 10SM CLR 21/09 A3018 -190 46 500 020/07 RMK AO2 T02060089
13976KLFT LFT20191022095011010/22/19 09:50:31  5-MIN KLFT 221550Z 03007KT 10SM CLR 21/08 A3018 -190 43 500 030/07 RMK AO2 SLP218 T02110083
13976KLFT LFT20191022095510310/22/19 09:55:31  5-MIN KLFT 221555Z 01009KT 10SM CLR 21/08 A3018 -190 42 500 010/09 RMK AO2 T02110078
13976KLFT LFT20191022100010310/22/19 10:00:31  5-MIN KLFT 221600Z 36009KT 10SM CLR 21/07 A3018 -190 40 500 360/09 RMK AO2 T02110072
13976KLFT LFT20191022100510310/22/19 10:05:31  5-MIN KLFT 221605Z 01009KT 10SM CLR 22/08 A3018 -190 40 600 010/09 RMK AO2 T02170078
13976KLFT LFT20191022101010310/22/19 10:10:31  5-MIN KLFT 221610Z 01008KT 10SM CLR 22/08 A3018 -190 42 600 010/08 RMK AO2 T02170083
13976KLFT LFT20191022101510310/22/19 10:15:31  5-MIN KLFT 221615Z 36008KT 10SM CLR 22/08 A3018 -190 39 600 360/08 RMK AO2 T02220078
13976KLFT LFT20191022102010310/22/19 10:20:31  5-MIN KLFT 221620Z 36009KT 10SM CLR 22/08 A3018 -190 39 600 360/09 RMK AO2 T02220078
13976KLFT LFT20191022102510310/22/19 10:25:31  5-MIN KLFT 221625Z 01008KT 10SM CLR 22/08 A3018 -190 39 600 010/08 RMK AO2 T02220078
13976KLFT LFT20191022103010310/22/19 10:30:31  5-MIN KLFT 221630Z 03007KT 10SM CLR 22/07 A3018 -190 37 600 030/07 RMK AO2 T02220072
13976KLFT LFT20191022103510310/22/19 10:35:31  5-MIN KLFT 221635Z 03006KT 10SM CLR 22/07 A3018 -190 37 600 030/06 RMK AO2 T02220072
13976KLFT LFT20191022104010310/22/19 10:40:31  5-MIN KLFT 221640Z 03009KT 10SM CLR 23/08 A3018 -190 38 800 030/09 RMK AO2 T02330083
13976KLFT LFT20191022104510310/22/19 10:45:31  5-MIN KLFT 221645Z 03009KT 10SM CLR 23/07 A3017 -190 36 700 030/09 RMK AO2 T02280072
13976KLFT LFT20191022105011010/22/19 10:50:31  5-MIN KLFT 221650Z 03011KT 10SM CLR 23/07 A3017 -180 36 700 030/11 RMK AO2 SLP217 T02280072
13976KLFT LFT20191022105510310/22/19 10:55:31  5-MIN KLFT 221655Z 02008KT 10SM CLR 23/08 A3017 -180 37 700 020/08 RMK AO2 T02280078
13976KLFT LFT20191022110010310/22/19 11:00:31  5-MIN KLFT 221700Z 02009KT 10SM CLR 23/07 A3017 -180 35 800 020/09 RMK AO2 T02330072
13976KLFT LFT20191022110510310/22/19 11:05:31  5-MIN KLFT 221705Z 03009KT 10SM CLR 23/08 A3017 -180 36 800 030/09 RMK AO2 T02330078
13976KLFT LFT20191022111010310/22/19 11:10:31  5-MIN KLFT 221710Z 03009KT 10SM CLR 23/08 A3017 -180 38 800 020/09 RMK AO2 T02330083
13976KLFT LFT20191022111510310/22/19 11:15:31  5-MIN KLFT 221715Z 02009KT 10SM CLR 23/07 A3017 -180 35 800 020/09 RMK AO2 T02330072
13976KLFT LFT20191022112010310/22/19 11:20:31  5-MIN KLFT 221720Z 02010KT 10SM CLR 24/07 A3017 -190 34 800 020/10 RMK AO2 T02390072
13976KLFT LFT20191022112510910/22/19 11:25:31  5-MIN KLFT 221725Z 36009G16KT 10SM CLR 24/06 A3017 -180 31 800 360/09G16 RMK AO2 T02390061
13976KLFT LFT20191022113010310/22/19 11:30:31  5-MIN KLFT 221730Z 02009KT 10SM CLR 24/06 A3017 -180 30 800 020/09 RMK AO2 T02390056
13976KLFT LFT20191022113510310/22/19 11:35:31  5-MIN KLFT 221735Z 02012KT 10SM CLR 24/05 A3017 -180 29 800 020/12 RMK AO2 T02390050
13976KLFT LFT20191022114010310/22/19 11:40:31  5-MIN KLFT 221740Z 03008KT 10SM CLR 24/05 A3017 -180 29 800 030/08 RMK AO2 T02390050
13976KLFT LFT20191022114510310/22/19 11:45:31  5-MIN KLFT 221745Z 02009KT 10SM CLR 24/06 A3017 -180 30 800 020/09 RMK AO2 T02390056
13976KLFT LFT20191022115012810/22/19 11:50:31  5-MIN KLFT 221750Z 02011KT 10SM CLR 24/05 A3017 -180 29 800 020/11 RMK AO2 SLP215 T02390050 10244 20122 51024
13976KLFT LFT20191022115510310/22/19 11:55:31  5-MIN KLFT 221755Z 02011KT 10SM CLR 24/05 A3017 -180 28 900 020/11 RMK AO2 T02440050
13976KLFT LFT20191022120010310/22/19 12:00:31  5-MIN KLFT 221800Z 36007KT 10SM CLR 24/06 A3016 -180 29 900 360/07 RMK AO2 T02440056
13976KLFT LFT20191022120510310/22/19 12:05:31  5-MIN KLFT 221805Z 36008KT 10SM CLR 24/05 A3016 -170 28 900 360/08 RMK AO2 T02440050
13976KLFT LFT20191022121010310/22/19 12:10:31  5-MIN KLFT 221810Z 02010KT 10SM CLR 24/06 A3016 -170 29 900 020/10 RMK AO2 T02440056
13976KLFT LFT20191022121510910/22/19 12:15:31  5-MIN KLFT 221815Z 36013G18KT 10SM CLR 24/04 A3015 -170 27 900 360/13G18 RMK AO2 T02440044
13976KLFT LFT20191022122010310/22/19 12:20:31  5-MIN KLFT 221820Z 01013KT 10SM CLR 24/04 A3015 -170 26 900 010/13 RMK AO2 T02440039
13976KLFT LFT20191022122510310/22/19 12:25:31  5-MIN KLFT 221825Z 36012KT 10SM CLR 24/03 A3015 -170 25 900 360/12 RMK AO2 T02440033
13976KLFT LFT20191022123010310/22/19 12:30:31  5-MIN KLFT 221830Z 01012KT 10SM CLR 24/04 A3015 -160 27 900 010/12 RMK AO2 T02440044
13976KLFT LFT20191022123510910/22/19 12:35:31  5-MIN KLFT 221835Z 03013G20KT 10SM CLR 24/04 A3015 -160 27 900 020/13G20 RMK AO2 T02440044
13976KLFT LFT20191022124011010/22/19 12:40:31  5-MIN KLFT 221840Z 01010G20KT 10SM CLR 25/05 A3015 -160 27 1000 010/10G20 RMK AO2 T02500050
13976KLFT LFT20191022124510410/22/19 12:45:31  5-MIN KLFT 221845Z 01011KT 10SM CLR 25/05 A3015 -160 27 1000 010/11 RMK AO2 T02500050
13976KLFT LFT20191022125011710/22/19 12:50:31  5-MIN KLFT 221850Z 35011G16KT 10SM CLR 25/05 A3015 -160 27 1000 350/11G16 RMK AO2 SLP207 T02500050
13976KLFT LFT20191022125510410/22/19 12:55:31  5-MIN KLFT 221855Z 01010KT 10SM CLR 25/06 A3014 -160 28 1000 010/10 RMK AO2 T02500056
13976KLFT LFT20191022130010410/22/19 13:00:31  5-MIN KLFT 221900Z 02011KT 10SM CLR 25/06 A3014 -150 28 1000 020/11 RMK AO2 T02500056
13976KLFT LFT20191022130510410/22/19 13:05:31  5-MIN KLFT 221905Z 03012KT 10SM CLR 25/06 A3014 -150 28 1000 030/12 RMK AO2 T02500056
13976KLFT LFT20191022131010410/22/19 13:10:31  5-MIN KLFT 221910Z 36008KT 10SM CLR 25/06 A3014 -150 28 1000 360/08 RMK AO2 T02500056
13976KLFT LFT20191022131510410/22/19 13:15:31  5-MIN KLFT 221915Z 36014KT 10SM CLR 25/05 A3013 -150 27 1000 360/14 RMK AO2 T02500050
13976KLFT LFT20191022132010410/22/19 13:20:31  5-MIN KLFT 221920Z 02014KT 10SM CLR 25/05 A3013 -150 27 1000 020/14 RMK AO2 T02500050
13976KLFT LFT20191022132510410/22/19 13:25:31  5-MIN KLFT 221925Z 02012KT 10SM CLR 25/04 A3013 -150 26 1000 020/12 RMK AO2 T02500044
13976KLFT LFT20191022133010410/22/19 13:30:31  5-MIN KLFT 221930Z 36014KT 10SM CLR 25/04 A3013 -150 26 1000 360/14 RMK AO2 T02500044
13976KLFT LFT20191022133510410/22/19 13:35:31  5-MIN KLFT 221935Z 02013KT 10SM CLR 25/04 A3013 -140 26 1000 010/13 RMK AO2 T02500044
13976KLFT LFT20191022134010410/22/19 13:40:31  5-MIN KLFT 221940Z 02015KT 10SM CLR 25/04 A3013 -140 25 1000 020/15 RMK AO2 T02500039
13976KLFT LFT20191022134511010/22/19 13:45:31  5-MIN KLFT 221945Z 02017G21KT 10SM CLR 24/04 A3013 -140 26 1000 020/17G21 RMK AO2 T02440039
13976KLFT LFT20191022135011710/22/19 13:50:31  5-MIN KLFT 221950Z 01013G21KT 10SM CLR 25/04 A3013 -140 25 1000 010/13G21 RMK AO2 SLP200 T02500039
13976KLFT LFT20191022135510410/22/19 13:55:31  5-MIN KLFT 221955Z 35012KT 10SM CLR 25/04 A3013 -140 25 1000 350/12 RMK AO2 T02500039
13976KLFT LFT20191022140011010/22/19 14:00:31  5-MIN KLFT 222000Z 36015G20KT 10SM CLR 25/04 A3012 -140 25 1000 360/15G20 RMK AO2 T02500039
13976KLFT LFT20191022140511010/22/19 14:05:31  5-MIN KLFT 222005Z 36016G21KT 10SM CLR 24/03 A3012 -140 25 1000 350/16G21 RMK AO2 T02440033
13976KLFT LFT20191022141010410/22/19 14:10:31  5-MIN KLFT 222010Z 36012KT 10SM CLR 25/03 A3012 -140 24 1000 360/12 RMK AO2 T02500033
13976KLFT LFT20191022141511010/22/19 14:15:31  5-MIN KLFT 222015Z 01017G23KT 10SM CLR 25/04 A3012 -140 25 1000 010/17G23 RMK AO2 T02500039
13976KLFT LFT20191022142011010/22/19 14:20:31  5-MIN KLFT 222020Z 36010G23KT 10SM CLR 25/04 A3012 -140 25 1000 350/10G23 RMK AO2 T02500039
13976KLFT LFT20191022142510410/22/19 14:25:31  5-MIN KLFT 222025Z 36010KT 10SM CLR 25/04 A3012 -140 26 1000 360/10 RMK AO2 T02500044
13976KLFT LFT20191022143011010/22/19 14:30:31  5-MIN KLFT 222030Z 01014G17KT 10SM CLR 25/04 A3012 -140 25 1000 360/14G17 RMK AO2 T02500039
13976KLFT LFT20191022143510410/22/19 14:35:31  5-MIN KLFT 222035Z 01013KT 10SM CLR 25/03 A3012 -140 23 1000 010/13 RMK AO2 T02500028
13976KLFT LFT20191022144010410/22/19 14:40:31  5-MIN KLFT 222040Z 36012KT 10SM CLR 25/03 A3012 -140 23 1000 360/12 RMK AO2 T02500028
13976KLFT LFT20191022144510410/22/19 14:45:31  5-MIN KLFT 222045Z 35013KT 10SM CLR 25/04 A3012 -140 25 1000 340/13 RMK AO2 T02500039
13976KLFT LFT20191022145011710/22/19 14:50:31  5-MIN KLFT 222050Z 34013KT 10SM CLR 25/03 A3012 -140 24 1000 340/13 RMK AO2 SLP199 T02500033 58003
13976KLFT LFT20191022145510410/22/19 14:55:31  5-MIN KLFT 222055Z 01015KT 10SM CLR 25/03 A3012 -140 23 1000 010/15 RMK AO2 T02500028
13976KLFT LFT20191022150011010/22/19 15:00:31  5-MIN KLFT 222100Z 36017G21KT 10SM CLR 25/03 A3012 -130 23 1000 360/17G21 RMK AO2 T02500028
13976KLFT LFT20191022150511010/22/19 15:05:31  5-MIN KLFT 222105Z 01012G21KT 10SM CLR 24/02 A3012 -130 22 1000 010/12G21 RMK AO2 T02440017
13976KLFT LFT20191022151010410/22/19 15:10:31  5-MIN KLFT 222110Z 01016KT 10SM CLR 25/02 A3012 -130 22 1000 360/16 RMK AO2 T02500022
13976KLFT LFT20191022151511010/22/19 15:15:31  5-MIN KLFT 222115Z 36017G22KT 10SM CLR 24/02 A3012 -130 22 1000 360/17G22 RMK AO2 T02440017
13976KLFT LFT20191022152011010/22/19 15:20:31  5-MIN KLFT 222120Z 36013G22KT 10SM CLR 24/02 A3012 -130 23 1000 360/13G22 RMK AO2 T02440022
13976KLFT LFT20191022152510410/22/19 15:25:31  5-MIN KLFT 222125Z 36011KT 10SM CLR 24/03 A3012 -130 24 1000 350/11 RMK AO2 T02440028
13976KLFT LFT20191022153010410/22/19 15:30:31  5-MIN KLFT 222130Z 36011KT 10SM CLR 24/03 A3012 -130 24 1000 360/11 RMK AO2 T02440028
13976KLFT LFT20191022153510410/22/19 15:35:31  5-MIN KLFT 222135Z 35012KT 10SM CLR 24/03 A3012 -130 25 1000 350/12 RMK AO2 T02440033
13976KLFT LFT20191022154010410/22/19 15:40:31  5-MIN KLFT 222140Z 36010KT 10SM CLR 24/03 A3012 -130 25 1000 350/10 RMK AO2 T02440033
13976KLFT LFT20191022154510410/22/19 15:45:31  5-MIN KLFT 222145Z 36011KT 10SM CLR 24/04 A3012 -130 26 1000 360/11 RMK AO2 T02440039
13976KLFT LFT20191022155011110/22/19 15:50:31  5-MIN KLFT 222150Z 01011KT 10SM CLR 24/03 A3012 -130 25 1000 360/11 RMK AO2 SLP198 T02440033
13976KLFT LFT20191022155510310/22/19 15:55:31  5-MIN KLFT 222155Z 01010KT 10SM CLR 24/03 A3012 -130 25 900 010/10 RMK AO2 T02390028
13976KLFT LFT20191022160010310/22/19 16:00:31  5-MIN KLFT 222200Z 36011KT 10SM CLR 24/03 A3012 -130 26 900 360/11 RMK AO2 T02390033
13976KLFT LFT20191022160510910/22/19 16:05:31  5-MIN KLFT 222205Z 36012G17KT 10SM CLR 24/03 A3012 -130 26 900 360/12G17 RMK AO2 T02390033
13976KLFT LFT20191022161010910/22/19 16:10:31  5-MIN KLFT 222210Z 01011G17KT 10SM CLR 23/03 A3012 -130 26 800 360/11G17 RMK AO2 T02330033
13976KLFT LFT20191022161510310/22/19 16:15:31  5-MIN KLFT 222215Z 01012KT 10SM CLR 23/03 A3012 -130 26 800 010/12 RMK AO2 T02330033
13976KLFT LFT20191022162010310/22/19 16:20:31  5-MIN KLFT 222220Z 01011KT 10SM CLR 23/03 A3012 -140 25 800 360/11 RMK AO2 T02330028
13976KLFT LFT20191022162510310/22/19 16:25:31  5-MIN KLFT 222225Z 01010KT 10SM CLR 23/03 A3012 -140 25 800 010/10 RMK AO2 T02330028
13976KLFT LFT20191022163010310/22/19 16:30:31  5-MIN KLFT 222230Z 01011KT 10SM CLR 23/03 A3012 -140 27 800 010/11 RMK AO2 T02280033
13976KLFT LFT20191022163510310/22/19 16:35:31  5-MIN KLFT 222235Z 02009KT 10SM CLR 23/03 A3012 -140 27 800 010/09 RMK AO2 T02280033
13976KLFT LFT20191022164010310/22/19 16:40:31  5-MIN KLFT 222240Z 01008KT 10SM CLR 23/03 A3012 -140 27 800 010/08 RMK AO2 T02280033
13976KLFT LFT20191022164510310/22/19 16:45:31  5-MIN KLFT 222245Z 02008KT 10SM CLR 23/04 A3012 -140 29 800 020/08 RMK AO2 T02280039
13976KLFT LFT20191022165011010/22/19 16:50:31  5-MIN KLFT 222250Z 01007KT 10SM CLR 22/04 A3012 -140 31 700 010/07 RMK AO2 SLP200 T02220044
13976KLFT LFT20191022165510310/22/19 16:55:31  5-MIN KLFT 222255Z 01007KT 10SM CLR 22/04 A3012 -140 32 600 010/07 RMK AO2 T02170044
13976KLFT LFT20191022170010310/22/19 17:00:31  5-MIN KLFT 222300Z 02006KT 10SM CLR 22/05 A3013 -140 33 600 010/06 RMK AO2 T02170050
13976KLFT LFT20191022170510310/22/19 17:05:31  5-MIN KLFT 222305Z 03005KT 10SM CLR 21/06 A3013 -140 36 600 030/05 RMK AO2 T02110056
13976KLFT LFT20191022171010310/22/19 17:10:31  5-MIN KLFT 222310Z 05003KT 10SM CLR 21/06 A3013 -140 36 600 050/03 RMK AO2 T02110056
13976KLFT LFT20191022171510310/22/19 17:15:31  5-MIN KLFT 222315Z 04004KT 10SM CLR 21/06 A3013 -140 37 600 040/04 RMK AO2 T02110061
13976KLFT LFT20191022172010310/22/19 17:20:31  5-MIN KLFT 222320Z 03004KT 10SM CLR 21/07 A3013 -140 40 500 030/04 RMK AO2 T02060067
13976KLFT LFT20191022172510310/22/19 17:25:31  5-MIN KLFT 222325Z 04004KT 10SM CLR 21/07 A3013 -140 40 500 040/04 RMK AO2 T02060067
13976KLFT LFT20191022173010310/22/19 17:30:31  5-MIN KLFT 222330Z 05003KT 10SM CLR 20/07 A3013 -150 43 400 050/03 RMK AO2 T02000072
13976KLFT LFT20191022173510310/22/19 17:35:31  5-MIN KLFT 222335Z 05003KT 10SM CLR 19/09 A3013 -150 52 400 050/03 RMK AO2 T01940094
13976KLFT LFT20191022174010310/22/19 17:40:31  5-MIN KLFT 222340Z 00000KT 10SM CLR 18/11 A3014 -150 60 200 000/00 RMK AO2 T01830106
13976KLFT LFT20191022174510310/22/19 17:45:31  5-MIN KLFT 222345Z 00000KT 10SM CLR 18/11 A3014 -150 64 200 000/00 RMK AO2 T01780111
13976KLFT LFT20191022175012810/22/19 17:50:31  5-MIN KLFT 222350Z 00000KT 10SM CLR 18/12 A3014 -150 67 200 000/00 RMK AO2 SLP205 T01780117 10256 20178 56016
13976KLFT LFT20191022175510310/22/19 17:55:31  5-MIN KLFT 222355Z 00000KT 10SM CLR 18/12 A3014 -150 67 200 000/00 RMK AO2 T01780117
13976KLFT LFT20191022180010310/22/19 18:00:31  5-MIN KLFT 230000Z 00000KT 10SM CLR 17/12 A3014 -160 69 100 000/00 RMK AO2 T01720117
13976KLFT LFT20191023171010310/23/19 17:10:31  5-MIN KLFT 232310Z 00000KT 10SM CLR 21/11 A3009 -100 50 600 000/00 RMK AO2 T02110106
13976KLFT LFT20191023171510310/23/19 17:15:31  5-MIN KLFT 232315Z 00000KT 10SM CLR 21/11 A3009 -110 54 600 000/00 RMK AO2 T02060111
13976KLFT LFT20191023172010310/23/19 17:20:31  5-MIN KLFT 232320Z 00000KT 10SM CLR 21/12 A3009 -110 56 600 000/00 RMK AO2 T02060117
13976KLFT LFT20191023172510310/23/19 17:25:31  5-MIN KLFT 232325Z 00000KT 10SM CLR 20/12 A3009 -110 60 500 000/00 RMK AO2 T02000122
13976KLFT LFT20191023173010310/23/19 17:30:31  5-MIN KLFT 232330Z 00000KT 10SM CLR 19/13 A3009 -110 65 400 000/00 RMK AO2 T01940128
13976KLFT LFT20191023173510310/23/19 17:35:31  5-MIN KLFT 232335Z 00000KT 10SM CLR 19/12 A3010 -110 62 400 000/00 RMK AO2 T01940122
13976KLFT LFT20191023174010310/23/19 17:40:31  5-MIN KLFT 232340Z 00000KT 10SM CLR 19/13 A3010 -110 70 400 000/00 RMK AO2 T01890133
13976KLFT LFT20191023174510310/23/19 17:45:31  5-MIN KLFT 232345Z 00000KT 10SM CLR 18/13 A3010 -110 70 300 000/00 RMK AO2 T01830128
13976KLFT LFT20191023175012810/23/19 17:50:31  5-MIN KLFT 232350Z 00000KT 10SM CLR 19/12 A3010 -120 65 300 000/00 RMK AO2 SLP192 T01890122 10239 20183 56022
13976KLFT LFT20191023175510310/23/19 17:55:31  5-MIN KLFT 232355Z 00000KT 10SM CLR 18/12 A3010 -120 67 300 000/00 RMK AO2 T01830122
13976KLFT LFT20191023180010310/23/19 18:00:31  5-MIN KLFT 240000Z 00000KT 10SM CLR 18/13 A3010 -120 75 200 000/00 RMK AO2 T01780133
13976KLFT LFT20191023180510310/23/19 18:05:31  5-MIN KLFT 240005Z 00000KT 10SM CLR 18/13 A3010 -120 75 200 000/00 RMK AO2 T01780133
13976KLFT LFT20191023181010310/23/19 18:10:31  5-MIN KLFT 240010Z 00000KT 10SM CLR 17/13 A3011 -120 78 100 000/00 RMK AO2 T01720133
13976KLFT LFT20191023181510310/23/19 18:15:31  5-MIN KLFT 240015Z 00000KT 10SM CLR 17/13 A3011 -130 78 100 000/00 RMK AO2 T01720133
13976KLFT LFT20191023182010310/23/19 18:20:31  5-MIN KLFT 240020Z 00000KT 10SM CLR 17/14 A3011 -130 80 100 000/00 RMK AO2 T01720139
13976KLFT LFT20191023182510110/23/19 18:25:31  5-MIN KLFT 240025Z 00000KT 10SM CLR 16/13 A3011 -130 83 0 000/00 RMK AO2 T01610133
13976KLFT LFT20191023183010310/23/19 18:30:31  5-MIN KLFT 240030Z 00000KT 10SM CLR 17/13 A3011 -130 80 100 000/00 RMK AO2 T01670133
13976KLFT LFT20191023183510310/23/19 18:35:31  5-MIN KLFT 240035Z 00000KT 10SM CLR 17/13 A3011 -130 80 100 000/00 RMK AO2 T01670133
13976KLFT LFT20191023184010310/23/19 18:40:31  5-MIN KLFT 240040Z 00000KT 10SM CLR 17/13 A3011 -130 80 100 000/00 RMK AO2 T01670133
13976KLFT LFT20191023184510110/23/19 18:45:31  5-MIN KLFT 240045Z 00000KT 10SM CLR 16/13 A3011 -130 83 0 000/00 RMK AO2 T01610133
13976KLFT LFT20191023185010810/23/19 18:50:31  5-MIN KLFT 240050Z 00000KT 10SM CLR 16/13 A3011 -130 83 0 000/00 RMK AO2 SLP195 T01610133
13976KLFT LFT20191023185510110/23/19 18:55:31  5-MIN KLFT 240055Z 00000KT 10SM CLR 16/13 A3011 -130 83 0 000/00 RMK AO2 T01610133
13976KLFT LFT20191023190010110/23/19 19:00:31  5-MIN KLFT 240100Z 00000KT 10SM CLR 16/13 A3011 -130 86 0 000/00 RMK AO2 T01560133
13976KLFT LFT20191023190510110/23/19 19:05:31  5-MIN KLFT 240105Z 00000KT 10SM CLR 16/13 A3011 -130 86 0 000/00 RMK AO2 T01560133
13976KLFT LFT20191023191010110/23/19 19:10:31  5-MIN KLFT 240110Z 00000KT 10SM CLR 16/13 A3011 -130 86 0 000/00 RMK AO2 T01560133
13976KLFT LFT20191023191510110/23/19 19:15:31  5-MIN KLFT 240115Z 00000KT 10SM CLR 16/12 A3011 -130 80 0 000/00 RMK AO2 T01560122
13976KLFT LFT20191023192010110/23/19 19:20:31  5-MIN KLFT 240120Z 00000KT 10SM CLR 16/12 A3011 -130 77 0 000/00 RMK AO2 T01610122
13976KLFT LFT20191023192510110/23/19 19:25:31  5-MIN KLFT 240125Z 08003KT 10SM CLR 16/12 A3011 -130 75 0 080/03 RMK AO2 T01610117
13976KLFT LFT20191023193010110/23/19 19:30:31  5-MIN KLFT 240130Z 09003KT 10SM CLR 16/12 A3011 -130 75 0 090/03 RMK AO2 T01610117
13976KLFT LFT20191023193510110/23/19 19:35:31  5-MIN KLFT 240135Z 00000KT 10SM CLR 16/12 A3011 -130 75 0 000/00 RMK AO2 T01610117
13976KLFT LFT20191023194010110/23/19 19:40:31  5-MIN KLFT 240140Z 08004KT 10SM CLR 16/11 A3011 -130 74 0 080/04 RMK AO2 T01560111
13976KLFT LFT20191023194510110/23/19 19:45:31  5-MIN KLFT 240145Z 08003KT 10SM CLR 16/11 A3011 -130 72 0 080/03 RMK AO2 T01610111
13976KLFT LFT20191023195010810/23/19 19:50:31  5-MIN KLFT 240150Z 08003KT 10SM CLR 16/11 A3012 -130 69 0 080/03 RMK AO2 SLP197 T01610106
13976KLFT LFT20191023195510110/23/19 19:55:31  5-MIN KLFT 240155Z 08003KT 10SM CLR 16/11 A3012 -130 69 0 080/03 RMK AO2 T01610106
13976KLFT LFT20191023200010110/23/19 20:00:31  5-MIN KLFT 240200Z 09004KT 10SM CLR 16/11 A3011 -130 69 0 090/04 RMK AO2 T01610106
13976KLFT LFT20191023200510110/23/19 20:05:31  5-MIN KLFT 240205Z 00000KT 10SM CLR 16/11 A3011 -130 69 0 000/00 RMK AO2 T01610106
13976KLFT LFT20191023201010110/23/19 20:10:31  5-MIN KLFT 240210Z 08004KT 10SM CLR 16/10 A3011 -130 69 0 080/04 RMK AO2 T01560100
13976KLFT LFT20191023201510110/23/19 20:15:31  5-MIN KLFT 240215Z 10003KT 10SM CLR 16/11 A3011 -130 72 0 100/03 RMK AO2 T01560106
13976KLFT LFT20191023202010110/23/19 20:20:31  5-MIN KLFT 240220Z 10004KT 10SM CLR 16/10 A3011 -130 69 0 100/04 RMK AO2 T01560100
13976KLFT LFT20191023202510110/23/19 20:25:31  5-MIN KLFT 240225Z 10004KT 10SM CLR 16/10 A3012 -130 69 0 100/04 RMK AO2 T01560100
13976KLFT LFT20191023203010110/23/19 20:30:31  5-MIN KLFT 240230Z 09003KT 10SM CLR 16/10 A3012 -130 69 0 090/03 RMK AO2 T01560100
13976KLFT LFT20191023203510110/23/19 20:35:31  5-MIN KLFT 240235Z 09003KT 10SM CLR 16/11 A3012 -130 72 0 090/03 RMK AO2 T01560106
13976KLFT LFT20191023204010410/23/19 20:40:31  5-MIN KLFT 240240Z 10003KT 10SM CLR 15/11 A3012 -130 74 -100 100/03 RMK AO2 T01500106
13976KLFT LFT20191023204510410/23/19 20:45:31  5-MIN KLFT 240245Z 11003KT 10SM CLR 15/11 A3012 -140 74 -100 110/03 RMK AO2 T01500106
13976KLFT LFT20191023205011710/23/19 20:50:31  5-MIN KLFT 240250Z 10003KT 10SM CLR 15/11 A3012 -140 74 -100 100/03 RMK AO2 SLP199 T01500106 53001
13976KLFT LFT20191023205510410/23/19 20:55:31  5-MIN KLFT 240255Z 10004KT 10SM CLR 15/11 A3012 -130 74 -100 100/04 RMK AO2 T01500106
13976KLFT LFT20191023210010410/23/19 21:00:31  5-MIN KLFT 240300Z 10003KT 10SM CLR 15/11 A3012 -140 74 -100 100/03 RMK AO2 T01500106
13976KLFT LFT20191023210510410/23/19 21:05:31  5-MIN KLFT 240305Z 10003KT 10SM CLR 15/11 A3012 -140 74 -100 100/03 RMK AO2 T01500106
13976KLFT LFT20191023211010410/23/19 21:10:31  5-MIN KLFT 240310Z 10003KT 10SM CLR 15/11 A3012 -140 74 -100 100/03 RMK AO2 T01500106
13976KLFT LFT20191023211510410/23/19 21:15:31  5-MIN KLFT 240315Z 11003KT 10SM CLR 15/11 A3012 -140 74 -100 110/03 RMK AO2 T01500106
13976KLFT LFT20191023212010410/23/19 21:20:31  5-MIN KLFT 240320Z 00000KT 10SM CLR 15/11 A3012 -140 74 -100 000/00 RMK AO2 T01500106
13976KLFT LFT20191023212510410/23/19 21:25:31  5-MIN KLFT 240325Z 00000KT 10SM CLR 14/11 A3013 -140 77 -200 000/00 RMK AO2 T01440106
13976KLFT LFT20191023213010910/23/19 21:30:31  5-MIN KLFT 240330Z AUTO 00000KT 10SM CLR 14/11 A3013 -140 77 -200 000/00 RMK AO2 T01440106
13976KLFT LFT20191023213510910/23/19 21:35:31  5-MIN KLFT 240335Z AUTO 00000KT 10SM CLR 14/11 A3013 -140 77 -200 000/00 RMK AO2 T01440106
13976KLFT LFT20191023214010910/23/19 21:40:31  5-MIN KLFT 240340Z AUTO 00000KT 10SM CLR 14/11 A3013 -140 77 -200 000/00 RMK AO2 T01440106
13976KLFT LFT20191023214510910/23/19 21:45:31  5-MIN KLFT 240345Z AUTO 00000KT 10SM CLR 14/11 A3013 -140 77 -200 000/00 RMK AO2 T01440106
13976KLFT LFT20191023215011610/23/19 21:50:31  5-MIN KLFT 240350Z AUTO 00000KT 10SM CLR 14/11 A3012 -140 80 -200 000/00 RMK AO2 SLP200 T01390106
13976KLFT LFT20191023215510910/23/19 21:55:31  5-MIN KLFT 240355Z AUTO 00000KT 10SM CLR 14/11 A3013 -140 80 -200 000/00 RMK AO2 T01390106
13976KLFT LFT20191023220010910/23/19 22:00:31  5-MIN KLFT 240400Z AUTO 00000KT 10SM CLR 14/11 A3013 -140 83 -200 000/00 RMK AO2 T01390111
13976KLFT LFT20191023220510910/23/19 22:05:31  5-MIN KLFT 240405Z AUTO 00000KT 10SM CLR 14/11 A3013 -140 83 -200 000/00 RMK AO2 T01390111
13976KLFT LFT20191023221010910/23/19 22:10:31  5-MIN KLFT 240410Z AUTO 00000KT 10SM CLR 14/11 A3013 -140 83 -200 000/00 RMK AO2 T01390111
13976KLFT LFT20191023221510910/23/19 22:15:31  5-MIN KLFT 240415Z AUTO 00000KT 10SM CLR 14/11 A3012 -140 83 -200 000/00 RMK AO2 T01390111
13976KLFT LFT20191023222010910/23/19 22:20:31  5-MIN KLFT 240420Z AUTO 09003KT 10SM CLR 14/11 A3012 -130 83 -200 090/03 RMK AO2 T01390111
13976KLFT LFT20191023222510910/23/19 22:25:31  5-MIN KLFT 240425Z AUTO VRB03KT 10SM CLR 13/11 A3012 -130 86 -300 VRB/03 RMK AO2 T01330111
13976KLFT LFT20191023223010910/23/19 22:30:31  5-MIN KLFT 240430Z AUTO 11003KT 10SM CLR 13/11 A3011 -130 86 -300 110/03 RMK AO2 T01330111
13976KLFT LFT20191023223510910/23/19 22:35:31  5-MIN KLFT 240435Z AUTO 11003KT 10SM CLR 14/11 A3011 -130 83 -200 110/03 RMK AO2 T01390111
13976KLFT LFT20191023224010910/23/19 22:40:31  5-MIN KLFT 240440Z AUTO 11003KT 10SM CLR 14/11 A3011 -130 83 -200 110/03 RMK AO2 T01390111
13976KLFT LFT20191023224510910/23/19 22:45:31  5-MIN KLFT 240445Z AUTO 00000KT 10SM CLR 14/11 A3011 -130 83 -200 000/00 RMK AO2 T01390111
13976KLFT LFT20191023225011610/23/19 22:50:31  5-MIN KLFT 240450Z AUTO 00000KT 10SM CLR 14/11 A3011 -120 83 -200 000/00 RMK AO2 SLP194 T01390111
13976KLFT LFT20191023225510910/23/19 22:55:31  5-MIN KLFT 240455Z AUTO 00000KT 10SM CLR 14/11 A3010 -120 83 -200 000/00 RMK AO2 T01390111
13976KLFT LFT20191023230010910/23/19 23:00:31  5-MIN KLFT 240500Z AUTO 11003KT 10SM CLR 14/11 A3010 -120 83 -200 110/03 RMK AO2 T01390111
13976KLFT LFT20191023230510910/23/19 23:05:31  5-MIN KLFT 240505Z AUTO 00000KT 10SM CLR 14/11 A3010 -120 83 -200 000/00 RMK AO2 T01390111
13976KLFT LFT20191023231010910/23/19 23:10:31  5-MIN KLFT 240510Z AUTO 12003KT 10SM CLR 14/11 A3010 -120 83 -200 110/03 RMK AO2 T01390111
13976KLFT LFT20191023231510910/23/19 23:15:31  5-MIN KLFT 240515Z AUTO 00000KT 10SM CLR 13/11 A3010 -120 86 -300 000/00 RMK AO2 T01330111
13976KLFT LFT20191023232010910/23/19 23:20:31  5-MIN KLFT 240520Z AUTO 00000KT 10SM CLR 13/11 A3010 -120 86 -300 000/00 RMK AO2 T01330111
13976KLFT LFT20191023232510910/23/19 23:25:31  5-MIN KLFT 240525Z AUTO 00000KT 10SM CLR 13/11 A3010 -120 86 -300 000/00 RMK AO2 T01330111
13976KLFT LFT20191023233010910/23/19 23:30:31  5-MIN KLFT 240530Z AUTO 00000KT 10SM CLR 13/11 A3010 -120 86 -300 000/00 RMK AO2 T01330111
13976KLFT LFT20191023233510910/23/19 23:35:31  5-MIN KLFT 240535Z AUTO 00000KT 10SM CLR 13/11 A3010 -110 89 -300 000/00 RMK AO2 T01280111
13976KLFT LFT20191023234010910/23/19 23:40:31  5-MIN KLFT 240540Z AUTO 00000KT 10SM CLR 13/11 A3009 -110 86 -300 000/00 RMK AO2 T01330111
13976KLFT LFT20191023234510910/23/19 23:45:31  5-MIN KLFT 240545Z AUTO 00000KT 10SM CLR 13/11 A3009 -110 86 -300 000/00 RMK AO2 T01330111
13976KLFT LFT20191023235014410/23/19 23:50:31  5-MIN KLFT 240550Z AUTO 00000KT 10SM CLR 13/11 A3010 -110 86 -300 000/00 RMK AO2 SLP191 T01330111 10189 20128 402390089 51006
13976KLFT LFT20191023235510910/23/19 23:55:31  5-MIN KLFT 240555Z AUTO 00000KT 10SM CLR 13/11 A3010 -110 89 -300 000/00 RMK AO2 T01280111
13976KLFT LFT20191024000010910/24/19 00:00:31  5-MIN KLFT 240600Z AUTO 00000KT 10SM CLR 13/11 A3010 -110 89 -300 000/00 RMK AO2 T01280111
13976KLFT LFT20191024000510910/24/19 00:05:31  5-MIN KLFT 240605Z AUTO 11003KT 10SM CLR 13/11 A3010 -110 83 -300 110/03 RMK AO2 T01330106
13976KLFT LFT20191024001010910/24/19 00:10:31  5-MIN KLFT 240610Z AUTO 10003KT 10SM CLR 13/11 A3010 -110 83 -300 100/03 RMK AO2 T01330106
13976KLFT LFT20191024001510910/24/19 00:15:31  5-MIN KLFT 240615Z AUTO 00000KT 10SM CLR 13/11 A3010 -120 83 -300 000/00 RMK AO2 T01330106
13976KLFT LFT20191024002010910/24/19 00:20:31  5-MIN KLFT 240620Z AUTO 00000KT 10SM CLR 13/11 A3010 -120 86 -300 000/00 RMK AO2 T01280106
13976KLFT LFT20191024002510910/24/19 00:25:31  5-MIN KLFT 240625Z AUTO 00000KT 10SM CLR 13/11 A3010 -110 86 -300 000/00 RMK AO2 T01280106
13976KLFT LFT20191024003010910/24/19 00:30:31  5-MIN KLFT 240630Z AUTO 07003KT 10SM CLR 13/11 A3010 -110 86 -300 070/03 RMK AO2 T01280106
13976KLFT LFT20191024003510910/24/19 00:35:31  5-MIN KLFT 240635Z AUTO 06003KT 10SM CLR 13/11 A3010 -120 86 -300 060/03 RMK AO2 T01280106
13976KLFT LFT20191024004010910/24/19 00:40:31  5-MIN KLFT 240640Z AUTO 06003KT 10SM CLR 12/10 A3010 -120 86 -400 060/03 RMK AO2 T01220100
13976KLFT LFT20191024004510910/24/19 00:45:31  5-MIN KLFT 240645Z AUTO 06003KT 10SM CLR 12/10 A3010 -120 86 -400 060/03 RMK AO2 T01220100
13976KLFT LFT20191024005011610/24/19 00:50:31  5-MIN KLFT 240650Z AUTO 08003KT 10SM CLR 12/11 A3010 -110 89 -400 070/03 RMK AO2 SLP191 T01220106
13976KLFT LFT20191024005510910/24/19 00:55:31  5-MIN KLFT 240655Z AUTO 09003KT 10SM CLR 13/11 A3010 -110 86 -300 090/03 RMK AO2 T01280106
13976KLFT LFT20191024010010910/24/19 01:00:31  5-MIN KLFT 240700Z AUTO 10003KT 10SM CLR 13/11 A3010 -110 86 -300 100/03 RMK AO2 T01280106
13976KLFT LFT20191024010510910/24/19 01:05:31  5-MIN KLFT 240705Z AUTO 10003KT 10SM CLR 13/11 A3010 -110 86 -300 090/03 RMK AO2 T01280106
13976KLFT LFT20191024011010910/24/19 01:10:31  5-MIN KLFT 240710Z AUTO 10003KT 10SM CLR 13/11 A3009 -110 86 -300 100/03 RMK AO2 T01280106
13976KLFT LFT20191024011510910/24/19 01:15:31  5-MIN KLFT 240715Z AUTO 00000KT 10SM CLR 13/11 A3010 -110 86 -300 000/00 RMK AO2 T01280106
13976KLFT LFT20191024012010910/24/19 01:20:31  5-MIN KLFT 240720Z AUTO 07003KT 10SM CLR 13/11 A3010 -120 86 -300 070/03 RMK AO2 T01280106
13976KLFT LFT20191024012510910/24/19 01:25:31  5-MIN KLFT 240725Z AUTO 06003KT 10SM CLR 12/11 A3010 -110 89 -400 050/03 RMK AO2 T01220106
13976KLFT LFT20191024013010910/24/19 01:30:31  5-MIN KLFT 240730Z AUTO 06004KT 10SM CLR 12/10 A3010 -110 86 -400 050/04 RMK AO2 T01220100
13976KLFT LFT20191024013510910/24/19 01:35:31  5-MIN KLFT 240735Z AUTO 06003KT 10SM CLR 12/11 A3010 -110 89 -400 060/03 RMK AO2 T01220106
13976KLFT LFT20191024014010910/24/19 01:40:31  5-MIN KLFT 240740Z AUTO 06004KT 10SM CLR 12/11 A3010 -110 89 -400 060/04 RMK AO2 T01220106
13976KLFT LFT20191024014510910/24/19 01:45:31  5-MIN KLFT 240745Z AUTO 08004KT 10SM CLR 13/11 A3009 -110 86 -300 080/04 RMK AO2 T01280106
13976KLFT LFT20191024015011610/24/19 01:50:31  5-MIN KLFT 240750Z AUTO 00000KT 10SM CLR 13/11 A3009 -110 86 -300 000/00 RMK AO2 SLP189 T01280106
13976KLFT LFT20191024015510910/24/19 01:55:31  5-MIN KLFT 240755Z AUTO 09003KT 10SM CLR 13/11 A3009 -110 86 -300 090/03 RMK AO2 T01280106
13976KLFT LFT20191024020010910/24/19 02:00:31  5-MIN KLFT 240800Z AUTO 08003KT 10SM CLR 13/11 A3009 -110 86 -300 080/03 RMK AO2 T01280106
13976KLFT LFT20191024020510910/24/19 02:05:31  5-MIN KLFT 240805Z AUTO 07003KT 10SM CLR 13/11 A3009 -110 89 -300 070/03 RMK AO2 T01280111
13976KLFT LFT20191024021010910/24/19 02:10:31  5-MIN KLFT 240810Z AUTO 06003KT 10SM CLR 12/11 A3009 -110 89 -400 060/03 RMK AO2 T01220106
13976KLFT LFT20191024021510910/24/19 02:15:31  5-MIN KLFT 240815Z AUTO 07003KT 10SM CLR 12/11 A3009 -110 89 -400 070/03 RMK AO2 T01220106
13976KLFT LFT20191024022010910/24/19 02:20:31  5-MIN KLFT 240820Z AUTO 00000KT 10SM CLR 12/11 A3009 -110 89 -400 000/00 RMK AO2 T01220106
13976KLFT LFT20191024022510910/24/19 02:25:31  5-MIN KLFT 240825Z AUTO 00000KT 10SM CLR 12/11 A3009 -110 89 -400 000/00 RMK AO2 T01220106
13976KLFT LFT20191024023010910/24/19 02:30:31  5-MIN KLFT 240830Z AUTO 00000KT 10SM CLR 12/11 A3009 -110 89 -400 000/00 RMK AO2 T01220106
13976KLFT LFT20191024023510910/24/19 02:35:31  5-MIN KLFT 240835Z AUTO 00000KT 10SM CLR 13/11 A3009 -110 89 -300 000/00 RMK AO2 T01280111
13976KLFT LFT20191024024010910/24/19 02:40:31  5-MIN KLFT 240840Z AUTO 00000KT 10SM CLR 13/11 A3009 -100 89 -300 000/00 RMK AO2 T01280111
13976KLFT LFT20191024024510910/24/19 02:45:31  5-MIN KLFT 240845Z AUTO 00000KT 10SM CLR 13/11 A3009 -100 89 -300 000/00 RMK AO2 T01280111
13976KLFT LFT20191024025012210/24/19 02:50:31  5-MIN KLFT 240850Z AUTO 06003KT 10SM CLR 12/11 A3009 -100 89 -400 060/03 RMK AO2 SLP187 T01220106 58007
13976KLFT LFT20191024025510910/24/19 02:55:31  5-MIN KLFT 240855Z AUTO 06003KT 10SM CLR 12/11 A3008 -100 89 -400 060/03 RMK AO2 T01220106
13976KLFT LFT20191024030010910/24/19 03:00:31  5-MIN KLFT 240900Z AUTO 07003KT 10SM CLR 12/11 A3008 -100 89 -400 070/03 RMK AO2 T01220106
13976KLFT LFT20191024030510910/24/19 03:05:31  5-MIN KLFT 240905Z AUTO 00000KT 10SM CLR 13/11 A3008 -100 86 -300 000/00 RMK AO2 T01280106
13976KLFT LFT20191024031010910/24/19 03:10:31  5-MIN KLFT 240910Z AUTO 00000KT 10SM CLR 13/11 A3008 -100 86 -300 000/00 RMK AO2 T01280106
13976KLFT LFT20191024031510910/24/19 03:15:31  5-MIN KLFT 240915Z AUTO 08003KT 10SM CLR 13/11 A3008 -100 86 -300 070/03 RMK AO2 T01280106
13976KLFT LFT20191024032010910/24/19 03:20:31  5-MIN KLFT 240920Z AUTO 00000KT 10SM CLR 13/11 A3008 -100 86 -300 000/00 RMK AO2 T01280106
13976KLFT LFT20191024032510910/24/19 03:25:31  5-MIN KLFT 240925Z AUTO 08003KT 10SM CLR 13/11 A3008 -100 86 -300 080/03 RMK AO2 T01280106
13976KLFT LFT20191024033010910/24/19 03:30:31  5-MIN KLFT 240930Z AUTO 00000KT 10SM CLR 13/11 A3008 -100 86 -300 000/00 RMK AO2 T01280106
13976KLFT LFT20191024033510910/24/19 03:35:31  5-MIN KLFT 240935Z AUTO 06004KT 10SM CLR 13/11 A3008 -100 86 -300 060/04 RMK AO2 T01280106
13976KLFT LFT20191024034010910/24/19 03:40:31  5-MIN KLFT 240940Z AUTO 07004KT 10SM CLR 12/11 A3008 -100 89 -400 070/04 RMK AO2 T01220106
13976KLFT LFT20191024034510910/24/19 03:45:31  5-MIN KLFT 240945Z AUTO VRB03KT 10SM CLR 12/11 A3008 -100 89 -400 VRB/03 RMK AO2 T01220106
13976KLFT LFT20191024035011610/24/19 03:50:31  5-MIN KLFT 240950Z AUTO 07003KT 10SM CLR 12/11 A3008 -100 89 -400 070/03 RMK AO2 SLP185 T01220106
13976KLFT LFT20191024035510910/24/19 03:55:31  5-MIN KLFT 240955Z AUTO 06004KT 10SM CLR 12/11 A3008 -100 89 -400 060/04 RMK AO2 T01220106
13976KLFT LFT20191024040010910/24/19 04:00:31  5-MIN KLFT 241000Z AUTO 07003KT 10SM CLR 12/11 A3008 -100 89 -400 060/03 RMK AO2 T01220106
13976KLFT LFT20191024040510810/24/19 04:05:31  5-MIN KLFT 241005Z AUTO 08003KT 10SM CLR 12/11 A3007 -90 89 -400 080/03 RMK AO2 T01220106
13976KLFT LFT20191024041010910/24/19 04:10:31  5-MIN KLFT 241010Z AUTO 08003KT 10SM CLR 12/11 A3008 -100 89 -400 080/03 RMK AO2 T01220106
13976KLFT LFT20191024041510410/24/19 04:15:31  5-MIN KLFT 241015Z VRB03KT 10SM CLR 13/11 A3008 -100 86 -300 VRB/03 RMK AO2 T01280106
13976KLFT LFT20191024042010410/24/19 04:20:31  5-MIN KLFT 241020Z 07003KT 10SM CLR 13/11 A3008 -100 86 -300 070/03 RMK AO2 T01280106
13976KLFT LFT20191024042510410/24/19 04:25:31  5-MIN KLFT 241025Z 08003KT 10SM CLR 13/11 A3008 -100 86 -300 070/03 RMK AO2 T01280106
13976KLFT LFT20191024043010410/24/19 04:30:31  5-MIN KLFT 241030Z VRB04KT 10SM CLR 13/11 A3008 -100 86 -300 VRB/04 RMK AO2 T01280106
13976KLFT LFT20191024043510310/24/19 04:35:31  5-MIN KLFT 241035Z 07003KT 10SM CLR 13/11 A3008 -90 86 -300 060/03 RMK AO2 T01280106
13976KLFT LFT20191024044010310/24/19 04:40:31  5-MIN KLFT 241040Z 07003KT 10SM CLR 12/11 A3008 -90 89 -400 060/03 RMK AO2 T01220106
13976KLFT LFT20191024044510410/24/19 04:45:31  5-MIN KLFT 241045Z 08003KT 10SM CLR 12/11 A3008 -100 89 -400 080/03 RMK AO2 T01220106
13976KLFT LFT20191024045011110/24/19 04:50:31  5-MIN KLFT 241050Z 07003KT 10SM CLR 12/11 A3008 -100 89 -400 060/03 RMK AO2 SLP185 T01220106
13976KLFT LFT20191024045510410/24/19 04:55:31  5-MIN KLFT 241055Z 06004KT 10SM CLR 12/11 A3008 -100 89 -400 060/04 RMK AO2 T01220106
13976KLFT LFT20191024050010310/24/19 05:00:31  5-MIN KLFT 241100Z 06003KT 10SM CLR 12/10 A3008 -90 86 -400 060/03 RMK AO2 T01220100
13976KLFT LFT20191024050510310/24/19 05:05:31  5-MIN KLFT 241105Z 08003KT 10SM CLR 12/11 A3007 -90 89 -400 080/03 RMK AO2 T01220106
13976KLFT LFT20191026210510610/26/19 21:05:31  5-MIN KLFT 270305Z 33006KT 10SM OVC022 15/10 A2993 30 72 100 330/06 RMK AO2 T01500100 $
13976KLFT LFT20191026211010610/26/19 21:10:31  5-MIN KLFT 270310Z 33007KT 10SM OVC022 15/11 A2993 30 74 100 330/07 RMK AO2 T01500106 $
13976KLFT LFT20191026211510610/26/19 21:15:31  5-MIN KLFT 270315Z 33006KT 10SM OVC022 15/11 A2993 30 74 100 330/06 RMK AO2 T01500106 $
13976KLFT LFT20191026212011110/26/19 21:20:31  5-MIN KLFT 270320Z AUTO 33006KT 10SM OVC022 15/11 A2993 30 74 100 330/06 RMK AO2 T01500106 $
13976KLFT LFT20191026212511110/26/19 21:25:31  5-MIN KLFT 270325Z AUTO 34005KT 10SM OVC022 15/11 A2994 30 74 100 330/05 RMK AO2 T01500106 $
13976KLFT LFT20191026213011110/26/19 21:30:31  5-MIN KLFT 270330Z AUTO 35007KT 10SM OVC022 15/11 A2993 30 74 100 350/07 RMK AO2 T01500106 $
13976KLFT LFT20191026213511110/26/19 21:35:31  5-MIN KLFT 270335Z AUTO 35007KT 10SM OVC021 15/11 A2993 30 74 100 350/07 RMK AO2 T01500106 $
13976KLFT LFT20191026214011110/26/19 21:40:31  5-MIN KLFT 270340Z AUTO 34006KT 10SM OVC021 15/11 A2994 30 74 100 340/06 RMK AO2 T01500106 $
13976KLFT LFT20191026214511110/26/19 21:45:31  5-MIN KLFT 270345Z AUTO 34007KT 10SM OVC021 15/11 A2994 30 74 100 340/07 RMK AO2 T01500106 $
13976KLFT LFT20191026215011810/26/19 21:50:31  5-MIN KLFT 270350Z AUTO 35005KT 10SM OVC021 15/11 A2994 30 74 100 350/05 RMK AO2 SLP137 T01500106 $
13976KLFT LFT20191026215511110/26/19 21:55:31  5-MIN KLFT 270355Z AUTO 33004KT 10SM OVC021 15/11 A2994 30 74 100 330/04 RMK AO2 T01500106 $
13976KLFT LFT20191026220011110/26/19 22:00:31  5-MIN KLFT 270400Z AUTO 34007KT 10SM OVC020 15/11 A2994 20 74 100 340/07 RMK AO2 T01500106 $
13976KLFT LFT20191026220511110/26/19 22:05:31  5-MIN KLFT 270405Z AUTO 35006KT 10SM OVC020 15/11 A2995 20 74 100 350/06 RMK AO2 T01500106 $
13976KLFT LFT20191026221011110/26/19 22:10:31  5-MIN KLFT 270410Z AUTO 34004KT 10SM OVC020 15/11 A2995 20 74 100 340/04 RMK AO2 T01500106 $
13976KLFT LFT20191026221511110/26/19 22:15:31  5-MIN KLFT 270415Z AUTO VRB04KT 10SM OVC020 15/11 A2995 20 74 100 VRB/04 RMK AO2 T01500106 $
13976KLFT LFT20191026222011110/26/19 22:20:31  5-MIN KLFT 270420Z AUTO 33003KT 10SM OVC020 15/11 A2995 20 74 100 330/03 RMK AO2 T01500106 $
13976KLFT LFT20191026222511110/26/19 22:25:31  5-MIN KLFT 270425Z AUTO 36005KT 10SM OVC020 15/10 A2995 20 72 100 360/05 RMK AO2 T01500100 $
13976KLFT LFT20191026223011110/26/19 22:30:31  5-MIN KLFT 270430Z AUTO VRB04KT 10SM OVC020 15/10 A2995 20 72 100 VRB/04 RMK AO2 T01500100 $
13976KLFT LFT20191026223511110/26/19 22:35:31  5-MIN KLFT 270435Z AUTO 35006KT 10SM OVC020 15/11 A2995 20 74 100 350/06 RMK AO2 T01500106 $
13976KLFT LFT20191026224011110/26/19 22:40:31  5-MIN KLFT 270440Z AUTO 32008KT 10SM OVC020 15/11 A2995 20 74 100 320/08 RMK AO2 T01500106 $
13976KLFT LFT20191026224511110/26/19 22:45:31  5-MIN KLFT 270445Z AUTO 35006KT 10SM OVC020 15/11 A2995 20 74 100 350/06 RMK AO2 T01500106 $
13976KLFT LFT20191026225011810/26/19 22:50:31  5-MIN KLFT 270450Z AUTO 35005KT 10SM OVC020 15/11 A2995 20 74 100 350/05 RMK AO2 SLP141 T01500106 $
13976KLFT LFT20191026225511110/26/19 22:55:31  5-MIN KLFT 270455Z AUTO 35005KT 10SM OVC019 15/11 A2995 20 74 100 350/05 RMK AO2 T01500106 $
13976KLFT LFT20191026230011110/26/19 23:00:31  5-MIN KLFT 270500Z AUTO 34007KT 10SM OVC019 15/11 A2995 10 74 100 340/07 RMK AO2 T01500106 $
13976KLFT LFT20191026230511110/26/19 23:05:31  5-MIN KLFT 270505Z AUTO 02006KT 10SM OVC019 15/11 A2995 10 74 100 020/06 RMK AO2 T01500106 $
13976KLFT LFT20191026231010910/26/19 23:10:31  5-MIN KLFT 270510Z AUTO 01005KT 10SM OVC019 14/11 A2995 20 77 0 360/05 RMK AO2 T01440106 $
13976KLFT LFT20191026231510910/26/19 23:15:31  5-MIN KLFT 270515Z AUTO 34007KT 10SM OVC019 14/11 A2995 10 77 0 340/07 RMK AO2 T01440106 $
13976KLFT LFT20191026232010910/26/19 23:20:31  5-MIN KLFT 270520Z AUTO 35006KT 10SM OVC019 14/11 A2995 10 77 0 350/06 RMK AO2 T01440106 $
13976KLFT LFT20191026232510910/26/19 23:25:31  5-MIN KLFT 270525Z AUTO 35006KT 10SM OVC019 14/10 A2995 20 74 0 350/06 RMK AO2 T01440100 $
13976KLFT LFT20191026233010910/26/19 23:30:31  5-MIN KLFT 270530Z AUTO 35009KT 10SM OVC019 14/10 A2995 20 74 0 350/09 RMK AO2 T01440100 $
13976KLFT LFT20191026233510910/26/19 23:35:31  5-MIN KLFT 270535Z AUTO 35007KT 10SM OVC020 14/10 A2995 20 74 0 350/07 RMK AO2 T01440100 $
13976KLFT LFT20191026234010910/26/19 23:40:31  5-MIN KLFT 270540Z AUTO 35006KT 10SM OVC020 14/10 A2995 20 74 0 350/06 RMK AO2 T01440100 $
13976KLFT LFT20191026234510910/26/19 23:45:31  5-MIN KLFT 270545Z AUTO 36006KT 10SM OVC020 14/10 A2995 10 74 0 360/06 RMK AO2 T01440100 $
13976KLFT LFT20191026235014410/26/19 23:50:31  5-MIN KLFT 270550Z AUTO 01005KT 10SM OVC020 14/10 A2995 20 74 0 010/05 RMK AO2 SLP142 T01440100 10150 20139 401610139 52016 $
13976KLFT LFT20191026235510910/26/19 23:55:31  5-MIN KLFT 270555Z AUTO 35005KT 10SM OVC020 14/10 A2995 10 74 0 350/05 RMK AO2 T01440100 $
13976KLFT LFT20191027000010910/27/19 00:00:31  5-MIN KLFT 270600Z AUTO 36005KT 10SM OVC020 14/10 A2995 10 74 0 360/05 RMK AO2 T01440100 $
13976KLFT LFT20191027000510910/27/19 00:05:31  5-MIN KLFT 270605Z AUTO 36005KT 10SM OVC020 14/10 A2995 10 74 0 360/05 RMK AO2 T01440100 $
13976KLFT LFT20191027001010910/27/19 00:10:31  5-MIN KLFT 270610Z AUTO 04003KT 10SM OVC020 14/10 A2995 10 74 0 040/03 RMK AO2 T01440100 $
13976KLFT LFT20191027001510910/27/19 00:15:31  5-MIN KLFT 270615Z AUTO 00000KT 10SM OVC020 14/10 A2995 10 74 0 000/00 RMK AO2 T01440100 $
13976KLFT LFT20191027002010910/27/19 00:20:31  5-MIN KLFT 270620Z AUTO 00000KT 10SM OVC020 14/11 A2995 10 77 0 000/00 RMK AO2 T01440106 $
13976KLFT LFT20191027002510910/27/19 00:25:31  5-MIN KLFT 270625Z AUTO 01003KT 10SM OVC020 14/11 A2995 10 77 0 010/03 RMK AO2 T01440106 $
13976KLFT LFT20191027003010910/27/19 00:30:31  5-MIN KLFT 270630Z AUTO 02003KT 10SM OVC021 14/11 A2996 10 77 0 020/03 RMK AO2 T01440106 $
13976KLFT LFT20191027003510910/27/19 00:35:31  5-MIN KLFT 270635Z AUTO 00000KT 10SM OVC021 14/11 A2996 10 77 0 000/00 RMK AO2 T01440106 $
13976KLFT LFT20191027004010910/27/19 00:40:31  5-MIN KLFT 270640Z AUTO 00000KT 10SM OVC021 14/11 A2996 10 77 0 000/00 RMK AO2 T01440106 $
13976KLFT LFT20191027004510910/27/19 00:45:31  5-MIN KLFT 270645Z AUTO 00000KT 10SM OVC021 14/11 A2996 10 77 0 000/00 RMK AO2 T01440106 $
13976KLFT LFT20191027005011610/27/19 00:50:31  5-MIN KLFT 270650Z AUTO 00000KT 10SM OVC022 14/11 A2996 10 77 0 000/00 RMK AO2 SLP145 T01440106 $
13976KLFT LFT20191027005510810/27/19 00:55:31  5-MIN KLFT 270655Z AUTO 00000KT 10SM OVC022 14/11 A2996 0 77 0 000/00 RMK AO2 T01440106 $
13976KLFT LFT20191027010010810/27/19 01:00:31  5-MIN KLFT 270700Z AUTO 00000KT 10SM OVC022 14/11 A2996 0 77 0 000/00 RMK AO2 T01440106 $
13976KLFT LFT20191027010510810/27/19 01:05:31  5-MIN KLFT 270705Z AUTO 00000KT 10SM OVC022 14/11 A2996 0 77 0 000/00 RMK AO2 T01440106 $
13976KLFT LFT20191027011010810/27/19 01:10:31  5-MIN KLFT 270710Z AUTO 00000KT 10SM OVC022 14/11 A2996 0 77 0 000/00 RMK AO2 T01440106 $
13976KLFT LFT20191027011510810/27/19 01:15:31  5-MIN KLFT 270715Z AUTO 00000KT 10SM OVC022 14/11 A2996 0 77 0 000/00 RMK AO2 T01440106 $
13976KLFT LFT20191027012010810/27/19 01:20:31  5-MIN KLFT 270720Z AUTO 00000KT 10SM OVC022 14/11 A2996 0 77 0 000/00 RMK AO2 T01440106 $
13976KLFT LFT20191027012510810/27/19 01:25:31  5-MIN KLFT 270725Z AUTO 00000KT 10SM OVC022 14/11 A2996 0 80 0 000/00 RMK AO2 T01440111 $
13976KLFT LFT20191027013010810/27/19 01:30:31  5-MIN KLFT 270730Z AUTO 00000KT 10SM OVC022 14/11 A2997 0 80 0 000/00 RMK AO2 T01440111 $
13976KLFT LFT20191027013510810/27/19 01:35:31  5-MIN KLFT 270735Z AUTO 00000KT 10SM OVC022 14/11 A2996 0 80 0 000/00 RMK AO2 T01440111 $
13976KLFT LFT20191027014010810/27/19 01:40:31  5-MIN KLFT 270740Z AUTO 00000KT 10SM OVC022 14/11 A2996 0 80 0 000/00 RMK AO2 T01440111 $
13976KLFT LFT20191027014510810/27/19 01:45:31  5-MIN KLFT 270745Z AUTO 00000KT 10SM OVC022 14/11 A2996 0 80 0 000/00 RMK AO2 T01440111 $
13976KLFT LFT20191027015011510/27/19 01:50:31  5-MIN KLFT 270750Z AUTO 00000KT 10SM OVC022 14/11 A2997 0 80 0 000/00 RMK AO2 SLP147 T01440111 $
13976KLFT LFT20191027015510810/27/19 01:55:31  5-MIN KLFT 270755Z AUTO 00000KT 10SM OVC022 14/11 A2997 0 80 0 000/00 RMK AO2 T01440111 $
13976KLFT LFT20191027020010810/27/19 02:00:31  5-MIN KLFT 270800Z AUTO 00000KT 10SM OVC022 14/11 A2997 0 80 0 000/00 RMK AO2 T01440111 $
13976KLFT LFT20191027020510810/27/19 02:05:31  5-MIN KLFT 270805Z AUTO 00000KT 10SM OVC022 14/11 A2997 0 80 0 000/00 RMK AO2 T01440111 $
13976KLFT LFT20191027021010810/27/19 02:10:31  5-MIN KLFT 270810Z AUTO 00000KT 10SM OVC022 14/11 A2997 0 80 0 000/00 RMK AO2 T01440111 $
13976KLFT LFT20191027021510810/27/19 02:15:31  5-MIN KLFT 270815Z AUTO 00000KT 10SM OVC022 14/11 A2997 0 80 0 000/00 RMK AO2 T01440111 $
13976KLFT LFT20191027022010810/27/19 02:20:31  5-MIN KLFT 270820Z AUTO 00000KT 10SM OVC022 14/11 A2997 0 80 0 000/00 RMK AO2 T01440111 $
13976KLFT LFT20191027022510810/27/19 02:25:31  5-MIN KLFT 270825Z AUTO 00000KT 10SM OVC021 14/12 A2997 0 83 0 000/00 RMK AO2 T01440117 $
13976KLFT LFT20191027023010810/27/19 02:30:31  5-MIN KLFT 270830Z AUTO 00000KT 10SM OVC021 14/11 A2998 0 80 0 000/00 RMK AO2 T01440111 $
13976KLFT LFT20191027023510810/27/19 02:35:31  5-MIN KLFT 270835Z AUTO 00000KT 10SM OVC021 14/11 A2998 0 80 0 000/00 RMK AO2 T01440111 $
13976KLFT LFT20191027024010810/27/19 02:40:31  5-MIN KLFT 270840Z AUTO 00000KT 10SM OVC021 14/11 A2998 0 80 0 000/00 RMK AO2 T01440111 $
13976KLFT LFT20191027024510810/27/19 02:45:31  5-MIN KLFT 270845Z AUTO 00000KT 10SM OVC021 14/11 A2998 0 80 0 000/00 RMK AO2 T01440111 $
13976KLFT LFT20191027025012110/27/19 02:50:31  5-MIN KLFT 270850Z AUTO 00000KT 10SM OVC021 14/11 A2998 0 80 0 000/00 RMK AO2 SLP151 T01440111 51006 $
13976KLFT LFT20191027025511010/27/19 02:55:31  5-MIN KLFT 270855Z AUTO 00000KT 10SM OVC021 14/11 A2998 -10 80 0 000/00 RMK AO2 T01440111 $
13976KLFT LFT20191027030011010/27/19 03:00:31  5-MIN KLFT 270900Z AUTO 00000KT 10SM OVC021 14/11 A2998 -10 80 0 000/00 RMK AO2 T01440111 $
13976KLFT LFT20191027030511010/27/19 03:05:31  5-MIN KLFT 270905Z AUTO 00000KT 10SM OVC021 14/11 A2998 -10 80 0 000/00 RMK AO2 T01440111 $
13976KLFT LFT20191027031011010/27/19 03:10:31  5-MIN KLFT 270910Z AUTO 00000KT 10SM OVC021 14/11 A2998 -10 80 0 000/00 RMK AO2 T01440111 $
13976KLFT LFT20191027031511010/27/19 03:15:31  5-MIN KLFT 270915Z AUTO 00000KT 10SM OVC021 14/11 A2998 -10 80 0 000/00 RMK AO2 T01440111 $
13976KLFT LFT20191027032011010/27/19 03:20:31  5-MIN KLFT 270920Z AUTO 00000KT 10SM OVC021 14/12 A2998 -10 83 0 000/00 RMK AO2 T01440117 $
13976KLFT LFT20191027032511010/27/19 03:25:31  5-MIN KLFT 270925Z AUTO 00000KT 10SM OVC021 14/11 A2998 -10 80 0 000/00 RMK AO2 T01440111 $
13976KLFT LFT20191027033011010/27/19 03:30:31  5-MIN KLFT 270930Z AUTO 00000KT 10SM OVC021 14/12 A2998 -10 83 0 000/00 RMK AO2 T01440117 $
13976KLFT LFT20191027033511010/27/19 03:35:31  5-MIN KLFT 270935Z AUTO 00000KT 10SM OVC021 14/12 A2998 -10 83 0 000/00 RMK AO2 T01440117 $
13976KLFT LFT20191027034011010/27/19 03:40:31  5-MIN KLFT 270940Z AUTO 00000KT 10SM OVC021 14/11 A2998 -10 80 0 000/00 RMK AO2 T01440111 $
13976KLFT LFT20191027034511010/27/19 03:45:31  5-MIN KLFT 270945Z AUTO 00000KT 10SM OVC021 14/12 A2998 -10 83 0 000/00 RMK AO2 T01440117 $
13976KLFT LFT20191027035011710/27/19 03:50:31  5-MIN KLFT 270950Z AUTO 00000KT 10SM OVC021 14/11 A2998 -10 80 0 000/00 RMK AO2 SLP151 T01440111 $
13976KLFT LFT20191027035511010/27/19 03:55:31  5-MIN KLFT 270955Z AUTO 00000KT 10SM OVC021 14/12 A2998 -10 83 0 000/00 RMK AO2 T01440117 $
13976KLFT LFT20191027040011010/27/19 04:00:31  5-MIN KLFT 271000Z AUTO 00000KT 10SM OVC021 14/12 A2998 -10 83 0 000/00 RMK AO2 T01440117 $
13976KLFT LFT20191027040511010/27/19 04:05:31  5-MIN KLFT 271005Z AUTO 00000KT 10SM OVC021 14/12 A2998 -10 83 0 000/00 RMK AO2 T01440117 $
13976KLFT LFT20191027041011010/27/19 04:10:31  5-MIN KLFT 271010Z AUTO 00000KT 10SM OVC021 14/12 A2998 -10 83 0 000/00 RMK AO2 T01440117 $
13976KLFT LFT20191027041511010/27/19 04:15:31  5-MIN KLFT 271015Z AUTO 13003KT 10SM OVC021 14/12 A2998 -10 83 0 130/03 RMK AO2 T01440117 $
13976KLFT LFT20191027042011010/27/19 04:20:31  5-MIN KLFT 271020Z AUTO 00000KT 10SM OVC022 14/12 A2998 -10 83 0 000/00 RMK AO2 T01440117 $
13976KLFT LFT20191027042511010/27/19 04:25:31  5-MIN KLFT 271025Z AUTO 00000KT 10SM OVC022 14/12 A2999 -10 83 0 000/00 RMK AO2 T01440117 $
13976KLFT LFT20191027043011010/27/19 04:30:31  5-MIN KLFT 271030Z AUTO 00000KT 10SM OVC022 14/12 A2999 -10 83 0 000/00 RMK AO2 T01440117 $
13976KLFT LFT20191027043510510/27/19 04:35:31  5-MIN KLFT 271035Z 12003KT 10SM OVC022 14/12 A2999 -20 83 0 120/03 RMK AO2 T01440117 $
13976KLFT LFT20191027044010510/27/19 04:40:31  5-MIN KLFT 271040Z 00000KT 10SM OVC022 14/12 A2999 -20 83 0 000/00 RMK AO2 T01440117 $
13976KLFT LFT20191027044510510/27/19 04:45:31  5-MIN KLFT 271045Z 00000KT 10SM OVC022 14/12 A2999 -20 83 0 000/00 RMK AO2 T01440117 $
13976KLFT LFT20191027045011210/27/19 04:50:31  5-MIN KLFT 271050Z 00000KT 10SM OVC022 14/12 A2999 -10 83 0 000/00 RMK AO2 SLP155 T01440117 $
13976KLFT LFT20191027045510510/27/19 04:55:31  5-MIN KLFT 271055Z 00000KT 10SM OVC022 14/11 A2999 -10 80 0 000/00 RMK AO2 T01440111 $
13976KLFT LFT20191027050010510/27/19 05:00:31  5-MIN KLFT 271100Z 00000KT 10SM OVC021 14/12 A2999 -10 83 0 000/00 RMK AO2 T01440117 $
13976KLFT LFT20191027050510510/27/19 05:05:31  5-MIN KLFT 271105Z 00000KT 10SM OVC021 14/12 A2999 -10 83 0 000/00 RMK AO2 T01440117 $
13976KLFT LFT20191027051010510/27/19 05:10:31  5-MIN KLFT 271110Z 00000KT 10SM OVC021 14/11 A2999 -10 80 0 000/00 RMK AO2 T01440111 $
13976KLFT LFT20191027051510510/27/19 05:15:31  5-MIN KLFT 271115Z 00000KT 10SM OVC021 14/11 A2999 -20 80 0 000/00 RMK AO2 T01440111 $
13976KLFT LFT20191027052010510/27/19 05:20:31  5-MIN KLFT 271120Z 00000KT 10SM OVC021 14/11 A2999 -20 80 0 000/00 RMK AO2 T01440111 $
13976KLFT LFT20191027052510510/27/19 05:25:31  5-MIN KLFT 271125Z 00000KT 10SM OVC021 14/11 A2999 -20 80 0 000/00 RMK AO2 T01440111 $
13976KLFT LFT20191027053010510/27/19 05:30:31  5-MIN KLFT 271130Z 00000KT 10SM OVC021 14/11 A2999 -20 80 0 000/00 RMK AO2 T01440111 $
13976KLFT LFT20191027053510510/27/19 05:35:31  5-MIN KLFT 271135Z 00000KT 10SM OVC021 14/11 A2999 -20 80 0 000/00 RMK AO2 T01440111 $
13976KLFT LFT20191027054010510/27/19 05:40:31  5-MIN KLFT 271140Z 00000KT 10SM OVC021 14/12 A3000 -20 83 0 000/00 RMK AO2 T01440117 $
13976KLFT LFT20191027054510510/27/19 05:45:31  5-MIN KLFT 271145Z 00000KT 10SM OVC021 14/12 A3000 -20 83 0 000/00 RMK AO2 T01440117 $
13976KLFT LFT20191027055013010/27/19 05:50:31  5-MIN KLFT 271150Z 00000KT 10SM OVC021 14/12 A3000 -20 83 0 000/00 RMK AO2 SLP158 T01440117 10144 20144 53009 $
13976KLFT LFT20191027055510510/27/19 05:55:31  5-MIN KLFT 271155Z 00000KT 10SM OVC021 14/12 A3000 -20 83 0 000/00 RMK AO2 T01440117 $
13976KLFT LFT20191027060010510/27/19 06:00:31  5-MIN KLFT 271200Z 00000KT 10SM OVC021 14/12 A3000 -20 83 0 000/00 RMK AO2 T01440117 $
13976KLFT LFT20191027060510510/27/19 06:05:31  5-MIN KLFT 271205Z 00000KT 10SM OVC021 14/11 A3000 -30 80 0 000/00 RMK AO2 T01440111 $
13976KLFT LFT20191027061010510/27/19 06:10:31  5-MIN KLFT 271210Z 00000KT 10SM OVC022 14/11 A3000 -30 80 0 000/00 RMK AO2 T01440111 $
13976KLFT LFT20191027061510510/27/19 06:15:31  5-MIN KLFT 271215Z 00000KT 10SM OVC022 14/12 A3000 -30 83 0 000/00 RMK AO2 T01440117 $
13976KLFT LFT20191027062010510/27/19 06:20:31  5-MIN KLFT 271220Z 00000KT 10SM OVC022 14/12 A3000 -30 83 0 000/00 RMK AO2 T01440117 $
13976KLFT LFT20191027062510510/27/19 06:25:31  5-MIN KLFT 271225Z 00000KT 10SM OVC022 14/12 A3000 -30 83 0 000/00 RMK AO2 T01440117 $
13976KLFT LFT20191027063010510/27/19 06:30:31  5-MIN KLFT 271230Z 00000KT 10SM OVC021 14/11 A3001 -30 80 0 000/00 RMK AO2 T01440111 $
13976KLFT LFT20191027063510510/27/19 06:35:31  5-MIN KLFT 271235Z 00000KT 10SM OVC021 14/11 A3001 -30 80 0 000/00 RMK AO2 T01440111 $
13976KLFT LFT20191027064010510/27/19 06:40:31  5-MIN KLFT 271240Z 00000KT 10SM OVC021 14/11 A3001 -30 80 0 000/00 RMK AO2 T01440111 $
13976KLFT LFT20191027064510510/27/19 06:45:31  5-MIN KLFT 271245Z 00000KT 10SM OVC021 14/11 A3001 -30 80 0 000/00 RMK AO2 T01440111 $
13976KLFT LFT20191027065011210/27/19 06:50:31  5-MIN KLFT 271250Z 00000KT 10SM OVC021 14/11 A3001 -30 80 0 000/00 RMK AO2 SLP161 T01440111 $
13976KLFT LFT20191027065510510/27/19 06:55:31  5-MIN KLFT 271255Z 00000KT 10SM OVC021 14/11 A3001 -40 80 0 000/00 RMK AO2 T01440111 $
13976KLFT LFT20191027070010510/27/19 07:00:31  5-MIN KLFT 271300Z 00000KT 10SM OVC021 14/11 A3001 -40 80 0 000/00 RMK AO2 T01440111 $
13976KLFT LFT20191027070510510/27/19 07:05:31  5-MIN KLFT 271305Z 00000KT 10SM OVC021 15/11 A3002 -40 77 0 000/00 RMK AO2 T01500111 $
13976KLFT LFT20191027071010510/27/19 07:10:31  5-MIN KLFT 271310Z 00000KT 10SM OVC020 15/11 A3002 -40 77 0 000/00 RMK AO2 T01500111 $
13976KLFT LFT20191027071510510/27/19 07:15:31  5-MIN KLFT 271315Z 00000KT 10SM OVC020 15/11 A3002 -40 77 0 000/00 RMK AO2 T01500111 $
13976KLFT LFT20191027072010510/27/19 07:20:31  5-MIN KLFT 271320Z 00000KT 10SM OVC020 15/11 A3002 -50 77 0 000/00 RMK AO2 T01500111 $
13976KLFT LFT20191027072510510/27/19 07:25:31  5-MIN KLFT 271325Z 00000KT 10SM OVC020 15/11 A3003 -50 77 0 000/00 RMK AO2 T01500111 $
13976KLFT LFT20191027073010510/27/19 07:30:31  5-MIN KLFT 271330Z 00000KT 10SM OVC020 15/12 A3003 -50 80 0 000/00 RMK AO2 T01500117 $
13976KLFT LFT20191027073510510/27/19 07:35:31  5-MIN KLFT 271335Z 00000KT 10SM OVC020 15/11 A3003 -50 77 0 000/00 RMK AO2 T01500111 $
13976KLFT LFT20191027074010510/27/19 07:40:31  5-MIN KLFT 271340Z 05003KT 10SM OVC020 15/11 A3003 -60 74 0 050/03 RMK AO2 T01500106 $
13976KLFT LFT20191027074510510/27/19 07:45:31  5-MIN KLFT 271345Z VRB03KT 10SM OVC020 15/11 A3003 -60 77 0 VRB/03 RMK AO2 T01500111 $
13976KLFT LFT20191027075011210/27/19 07:50:31  5-MIN KLFT 271350Z 07004KT 10SM OVC020 16/11 A3004 -60 74 0 070/04 RMK AO2 SLP170 T01560111 $
13976KLFT LFT20191027075510510/27/19 07:55:31  5-MIN KLFT 271355Z 05004KT 10SM OVC020 16/11 A3004 -60 74 0 050/04 RMK AO2 T01560111 $
13976KLFT LFT20191027080010510/27/19 08:00:31  5-MIN KLFT 271400Z 04004KT 10SM OVC019 16/11 A3004 -60 74 0 040/04 RMK AO2 T01560111 $
13976KLFT LFT20191027080510510/27/19 08:05:31  5-MIN KLFT 271405Z VRB04KT 10SM OVC019 16/11 A3004 -60 72 0 VRB/04 RMK AO2 T01560106 $
13976KLFT LFT20191027081010510/27/19 08:10:31  5-MIN KLFT 271410Z VRB03KT 10SM OVC019 16/11 A3005 -70 72 0 VRB/03 RMK AO2 T01560106 $
13976KLFT LFT20191027081510510/27/19 08:15:31  5-MIN KLFT 271415Z 05004KT 10SM OVC019 16/11 A3005 -70 74 0 050/04 RMK AO2 T01560111 $
13976KLFT LFT20191027082010510/27/19 08:20:31  5-MIN KLFT 271420Z VRB03KT 10SM OVC019 16/11 A3005 -70 72 0 VRB/03 RMK AO2 T01560106 $
13976KLFT LFT20191027082510510/27/19 08:25:31  5-MIN KLFT 271425Z 07004KT 10SM OVC018 16/11 A3005 -70 74 0 070/04 RMK AO2 T01560111 $
13976KLFT LFT20191027083010510/27/19 08:30:31  5-MIN KLFT 271430Z 04004KT 10SM OVC018 16/11 A3005 -70 74 0 040/04 RMK AO2 T01560111 $
13976KLFT LFT20191027083510510/27/19 08:35:31  5-MIN KLFT 271435Z 05003KT 10SM OVC018 16/11 A3005 -70 74 0 050/03 RMK AO2 T01560111 $
13976KLFT LFT20191027084010510/27/19 08:40:31  5-MIN KLFT 271440Z 03005KT 10SM OVC018 16/11 A3005 -70 74 0 030/05 RMK AO2 T01560111 $
13976KLFT LFT20191027084510510/27/19 08:45:31  5-MIN KLFT 271445Z VRB03KT 10SM OVC018 16/11 A3005 -70 74 0 VRB/03 RMK AO2 T01560111 $
13976KLFT LFT20191027085011810/27/19 08:50:31  5-MIN KLFT 271450Z 03003KT 10SM OVC016 16/11 A3005 -70 74 0 030/03 RMK AO2 SLP176 T01560111 53007 $
13976KLFT LFT20191027085510510/27/19 08:55:31  5-MIN KLFT 271455Z VRB04KT 10SM OVC016 16/12 A3005 -70 77 0 VRB/04 RMK AO2 T01560117 $
13976KLFT LFT20191027090010510/27/19 09:00:31  5-MIN KLFT 271500Z 09004KT 10SM OVC017 16/11 A3005 -70 74 0 090/04 RMK AO2 T01560111 $
