13976KLFT LFT20190807061510208/07/19 06:15:31  5-MIN KLFT 071215Z 00000KT 10SM CLR 25/25 A2997 0 100 1200 000/00 RMK AO2 T02500250
13976KLFT LFT20190807062010108/07/19 06:20:31  5-MIN KLFT 071220Z 00000KT 10SM CLR 26/25 A2997 0 97 1300 000/00 RMK AO2 T02560250
13976KLFT LFT20190807062510108/07/19 06:25:31  5-MIN KLFT 071225Z 00000KT 10SM CLR 26/25 A2997 0 97 1300 000/00 RMK AO2 T02560250
13976KLFT LFT20190807063010108/07/19 06:30:31  5-MIN KLFT 071230Z 00000KT 10SM CLR 26/25 A2997 0 97 1300 000/00 RMK AO2 T02560250
13976KLFT LFT20190807063510108/07/19 06:35:31  5-MIN KLFT 071235Z 00000KT 10SM CLR 26/25 A2998 0 93 1300 000/00 RMK AO2 T02610250
13976KLFT LFT20190807064010408/07/19 06:40:31  5-MIN KLFT 071240Z 25004KT 10SM FEW021 27/26 A2998 0 93 1400 250/04 RMK AO2 T02670256
13976KLFT LFT20190807064510408/07/19 06:45:31  5-MIN KLFT 071245Z 25004KT 10SM FEW021 27/25 A2998 0 90 1400 240/04 RMK AO2 T02670250
13976KLFT LFT20190807065011108/07/19 06:50:31  5-MIN KLFT 071250Z 23003KT 10SM FEW021 27/26 A2998 0 90 1400 230/03 RMK AO2 SLP150 T02720256
13976KLFT LFT20190807065510408/07/19 06:55:31  5-MIN KLFT 071255Z 24004KT 10SM FEW021 27/26 A2997 0 90 1400 240/04 RMK AO2 T02720256
13976KLFT LFT20190807070010408/07/19 07:00:31  5-MIN KLFT 071300Z 23004KT 10SM FEW021 27/26 A2997 0 90 1400 230/04 RMK AO2 T02720256
13976KLFT LFT20190807070510108/07/19 07:05:31  5-MIN KLFT 071305Z 24004KT 10SM CLR 27/26 A2998 0 90 1400 240/04 RMK AO2 T02720256
13976KLFT LFT20190807071010108/07/19 07:10:31  5-MIN KLFT 071310Z 23005KT 10SM CLR 27/26 A2998 0 90 1400 230/05 RMK AO2 T02720256
13976KLFT LFT20190807071510108/07/19 07:15:31  5-MIN KLFT 071315Z 25006KT 10SM CLR 27/26 A2998 0 90 1400 250/06 RMK AO2 T02720256
13976KLFT LFT20190807072010108/07/19 07:20:31  5-MIN KLFT 071320Z 24005KT 10SM CLR 28/26 A2998 0 87 1500 240/05 RMK AO2 T02780256
13976KLFT LFT20190807072510308/07/19 07:25:31  5-MIN KLFT 071325Z 23005KT 10SM CLR 28/26 A2998 -10 87 1500 230/05 RMK AO2 T02780256
13976KLFT LFT20190807073010308/07/19 07:30:31  5-MIN KLFT 071330Z 24005KT 10SM CLR 28/26 A2998 -10 87 1500 240/05 RMK AO2 T02780256
13976KLFT LFT20190807073510308/07/19 07:35:31  5-MIN KLFT 071335Z 26005KT 10SM CLR 28/26 A2998 -10 85 1600 260/05 RMK AO2 T02830256
13976KLFT LFT20190807074010308/07/19 07:40:31  5-MIN KLFT 071340Z 24005KT 10SM CLR 28/26 A2998 -10 85 1600 240/05 RMK AO2 T02830256
13976KLFT LFT20190807074510308/07/19 07:45:31  5-MIN KLFT 071345Z 25005KT 10SM CLR 28/26 A2998 -10 87 1600 250/05 RMK AO2 T02830261
13976KLFT LFT20190807075011008/07/19 07:50:31  5-MIN KLFT 071350Z 26005KT 10SM CLR 28/26 A2998 -10 85 1600 260/05 RMK AO2 SLP153 T02830256
13976KLFT LFT20190807075510308/07/19 07:55:31  5-MIN KLFT 071355Z 25007KT 10SM CLR 29/26 A2998 -10 82 1600 250/07 RMK AO2 T02890256
13976KLFT LFT20190807080010608/07/19 08:00:31  5-MIN KLFT 071400Z 24008KT 10SM BKN015 29/26 A2999 -10 82 1600 240/08 RMK AO2 T02890256
13976KLFT LFT20190807080510608/07/19 08:05:31  5-MIN KLFT 071405Z 23008KT 10SM BKN015 29/26 A2999 -10 82 1600 230/08 RMK AO2 T02890256
13976KLFT LFT20190807081010608/07/19 08:10:31  5-MIN KLFT 071410Z 26007KT 10SM BKN015 28/25 A2999 -10 82 1600 260/07 RMK AO2 T02830250
13976KLFT LFT20190807081510608/07/19 08:15:31  5-MIN KLFT 071415Z 25007KT 10SM BKN015 28/25 A2999 -20 82 1600 250/07 RMK AO2 T02830250
13976KLFT LFT20190807082010608/07/19 08:20:31  5-MIN KLFT 071420Z 26007KT 10SM BKN015 28/26 A2999 -20 85 1500 260/07 RMK AO2 T02830256
13976KLFT LFT20190807082510608/07/19 08:25:31  5-MIN KLFT 071425Z 26006KT 10SM BKN015 28/25 A3000 -20 82 1500 260/06 RMK AO2 T02830250
13976KLFT LFT20190807083010608/07/19 08:30:31  5-MIN KLFT 071430Z 27007KT 10SM BKN015 28/25 A3000 -20 82 1500 270/07 RMK AO2 T02830250
13976KLFT LFT20190807083510608/07/19 08:35:31  5-MIN KLFT 071435Z 27006KT 10SM BKN015 29/25 A2999 -20 79 1600 270/06 RMK AO2 T02890250
13976KLFT LFT20190807084010608/07/19 08:40:31  5-MIN KLFT 071440Z 24006KT 10SM BKN015 28/26 A2999 -20 85 1500 240/06 RMK AO2 T02830256
13976KLFT LFT20190807084510608/07/19 08:45:31  5-MIN KLFT 071445Z 26004KT 10SM BKN015 29/26 A2999 -10 82 1600 260/04 RMK AO2 T02890256
13976KLFT LFT20190807085011908/07/19 08:50:31  5-MIN KLFT 071450Z 27005KT 10SM BKN015 29/26 A2999 -10 79 1700 270/05 RMK AO2 SLP154 T02940256 53008
13976KLFT LFT20190807085511308/07/19 08:55:31  5-MIN KLFT 071455Z 23004KT 10SM BKN015 BKN050 29/26 A2999 -10 79 1700 230/04 RMK AO2 T02940256
13976KLFT LFT20190807090011308/07/19 09:00:31  5-MIN KLFT 071500Z 24005KT 10SM BKN015 BKN050 29/26 A2999 -10 79 1700 230/05 RMK AO2 T02940256
13976KLFT LFT20190807090511308/07/19 09:05:31  5-MIN KLFT 071505Z VRB03KT 10SM BKN015 BKN050 29/26 A2999 -20 79 1700 VRB/03 RMK AO2 T02940256
13976KLFT LFT20190807091011308/07/19 09:10:31  5-MIN KLFT 071510Z 28006KT 10SM BKN015 BKN050 29/25 A2999 -20 76 1700 280/06 RMK AO2 T02940250
13976KLFT LFT20190807091511308/07/19 09:15:31  5-MIN KLFT 071515Z 27007KT 10SM BKN015 BKN050 29/25 A2999 -20 76 1700 260/07 RMK AO2 T02940250
13976KLFT LFT20190807092011308/07/19 09:20:31  5-MIN KLFT 071520Z 26007KT 10SM BKN015 BKN050 29/25 A2999 -20 76 1700 260/07 RMK AO2 T02940250
13976KLFT LFT20190807092511308/07/19 09:25:31  5-MIN KLFT 071525Z 24007KT 10SM BKN015 BKN050 30/26 A2999 -20 77 1700 230/07 RMK AO2 T03000256
13976KLFT LFT20190807093011308/07/19 09:30:31  5-MIN KLFT 071530Z 22005KT 10SM BKN015 BKN050 30/26 A2999 -10 77 1700 220/05 RMK AO2 T03000256
13976KLFT LFT20190807093511308/07/19 09:35:31  5-MIN KLFT 071535Z 31004KT 10SM BKN015 BKN050 31/26 A2999 -10 74 1800 310/04 RMK AO2 T03060256
13976KLFT LFT20190807094011308/07/19 09:40:31  5-MIN KLFT 071540Z 31005KT 10SM BKN015 BKN050 30/25 A2999 -10 74 1700 310/05 RMK AO2 T03000250
13976KLFT LFT20190807094511308/07/19 09:45:31  5-MIN KLFT 071545Z 29005KT 10SM BKN015 BKN050 30/25 A2999 -10 74 1700 290/05 RMK AO2 T03000250
13976KLFT LFT20190807095011308/07/19 09:50:31  5-MIN KLFT 071550Z VRB04KT 10SM BKN018 30/25 A2999 -20 74 1700 VRB/04 RMK AO2 SLP155 T03000250
13976KLFT LFT20190807095510608/07/19 09:55:31  5-MIN KLFT 071555Z 31006KT 10SM BKN018 30/24 A2999 -20 72 1700 310/06 RMK AO2 T03000244
13976KLFT LFT20190807100010608/07/19 10:00:31  5-MIN KLFT 071600Z 30005KT 10SM BKN018 31/25 A2999 -10 72 1800 300/05 RMK AO2 T03060250
13976KLFT LFT20190807100510608/07/19 10:05:31  5-MIN KLFT 071605Z 26006KT 10SM BKN018 30/24 A2999 -10 72 1700 260/06 RMK AO2 T03000244
13976KLFT LFT20190807101010608/07/19 10:10:31  5-MIN KLFT 071610Z 24006KT 10SM BKN018 30/24 A2999 -10 72 1700 240/06 RMK AO2 T03000244
13976KLFT LFT20190807101511208/07/19 10:15:31  5-MIN KLFT 071615Z 22012G16KT 10SM BKN018 29/24 A2999 -10 76 1600 220/12G16 RMK AO2 T02890244
13976KLFT LFT20190807102010508/07/19 10:20:31  5-MIN KLFT 071620Z 23017KT 9SM BKN018 27/24 A2999 -20 84 1400 230/17 RMK AO2 T02670239
13976KLFT LFT20190807102513408/07/19 10:25:31  5-MIN KLFT 071625Z 22012G18KT 2 1/2SM +RA BR BKN018 25/23 A3000 -30 87 1200 220/12G18 RMK AO2 RAB22 P0002 T02500228
13976KLFT LFT20190807103013108/07/19 10:30:31  5-MIN KLFT 071630Z 21006KT 2SM +RA BR BKN018 25/24 A3001 -40 93 1100 210/06 RMK AO2 RAB22 PRESRR P0004 T02500239
13976KLFT LFT20190807103512808/07/19 10:35:31  5-MIN KLFT 071635Z 27008KT 1 1/4SM +RA BR BKN018 26/24 A3000 -30 93 1200 270/08 RMK AO2 RAB22 P0009 T02560244
13976KLFT LFT20190807104012608/07/19 10:40:31  5-MIN KLFT 071640Z VRB03KT 3/4SM +RA BR BKN018 25/24 A3000 -20 93 1200 VRB/03 RMK AO2 RAB22 P0016 T02500239
13976KLFT LFT20190807104512608/07/19 10:45:31  5-MIN KLFT 071645Z 08005KT 3/4SM +RA BR BKN018 26/23 A3000 -20 87 1200 080/05 RMK AO2 RAB22 P0019 T02560233
13976KLFT LFT20190807105011308/07/19 10:50:31  5-MIN KLFT 071650Z 10003KT 7SM RA BR BKN018 25/24 A3000 -20 93 1200 100/03 RMK AO2 RAB22 P0020
13976KLFT LFT20190807105513108/07/19 10:55:31  5-MIN KLFT 071655Z VRB03KT 4SM RA BR BKN018 BKN050 OVC065 25/24 A3000 -20 93 1200 VRB/03 RMK AO2 P0000 T02500239
13976KLFT LFT20190807110012908/07/19 11:00:31  5-MIN KLFT 071700Z 00000KT 7SM -RA BKN018 BKN050 OVC065 26/24 A2999 -20 93 1200 000/00 RMK AO2 P0000 T02560244
13976KLFT LFT20190807110512908/07/19 11:05:31  5-MIN KLFT 071705Z 09003KT 9SM -RA BKN018 BKN050 OVC065 26/24 A2999 -10 93 1200 090/03 RMK AO2 P0000 T02560244
13976KLFT LFT20190807111013008/07/19 11:10:31  5-MIN KLFT 071710Z 09003KT 10SM -RA BKN018 BKN050 OVC065 26/24 A2999 -10 90 1300 090/03 RMK AO2 P0000 T02610244
13976KLFT LFT20190807111514408/07/19 11:15:31  5-MIN KLFT 071715Z 14003KT 10SM BKN018 BKN050 OVC065 27/25 A2998 -10 90 1400 140/03 RMK AO2 LTG DSNT SE RAE15 P0000 T02670250
13976KLFT LFT20190807112014408/07/19 11:20:31  5-MIN KLFT 071720Z 00000KT 10SM BKN018 BKN050 OVC065 27/25 A2998 -10 90 1400 000/00 RMK AO2 LTG DSNT SE RAE15 P0000 T02670250
13976KLFT LFT20190807112514208/07/19 11:25:31  5-MIN KLFT 071725Z 15004KT 10SM BKN018 BKN050 OVC065 27/25 A2998 0 87 1400 150/04 RMK AO2 LTG DSNT SE RAE15 P0000 T02720250
13976KLFT LFT20190807113014208/07/19 11:30:31  5-MIN KLFT 071730Z 16004KT 10SM BKN018 BKN050 OVC065 28/25 A2998 0 84 1500 160/04 RMK AO2 LTG DSNT SE RAE15 P0000 T02780250
13976KLFT LFT20190807113515008/07/19 11:35:31  5-MIN KLFT 071735Z 16004KT 10SM BKN018 BKN050 OVC065 28/25 A2998 -10 84 1500 160/04 RMK AO2 LTG DSNT SE AND W RAE15 P0000 T02780250
13976KLFT LFT20190807114014308/07/19 11:40:31  5-MIN KLFT 071740Z 16004KT 10SM SCT018 SCT030 28/25 A2998 -10 82 1600 160/04 RMK AO2 LTG DSNT SE AND W RAE15 P0000 T02830250
13976KLFT LFT20190807114513608/07/19 11:45:31  5-MIN KLFT 071745Z 16004KT 10SM SCT018 SCT030 29/26 A2998 -10 82 1600 160/04 RMK AO2 LTG DSNT W RAE15 P0000 T02890256
13976KLFT LFT20190807115015608/07/19 11:50:31  5-MIN KLFT 071750Z 00000KT 10SM SCT018 SCT030 29/26 A2998 -10 82 1700 000/00 RMK AO2 RAE15 SLP153 P0000 60020 T02940261 10306 20244 53006
13976KLFT LFT20190807115511308/07/19 11:55:31  5-MIN KLFT 071755Z 14004KT 10SM SCT018 SCT030 29/26 A2998 -10 79 1700 140/04 RMK AO2 T02940256
13976KLFT LFT20190807120011308/07/19 12:00:31  5-MIN KLFT 071800Z 15003KT 10SM SCT018 SCT030 29/26 A2998 -10 82 1700 140/03 RMK AO2 T02940261
13976KLFT LFT20190807120512408/07/19 12:05:31  5-MIN KLFT 071805Z 00000KT 10SM SCT018 SCT030 30/26 A2998 -10 77 1700 000/00 RMK AO2 LTG DSNT W T03000256
13976KLFT LFT20190807121012208/07/19 12:10:31  5-MIN KLFT 071810Z 14003KT 10SM SCT018 SCT030 30/25 A2998 0 74 1800 140/03 RMK AO2 LTG DSNT W T03000250
13976KLFT LFT20190807121511408/07/19 12:15:31  5-MIN KLFT 071815Z 10SM SCT018 SCT030 29/24 A2999 -10 74 1700 M /M RMK AO2 LTG DSNT W T02940244
13976KLFT LFT20190807122011708/07/19 12:20:31  5-MIN KLFT 071820Z 26014G20KT 10SM VCTS BKN030 28/23 A2999 -10 71 1600 260/14G20 RMK AO2 T02830228
13976KLFT LFT20190807122511708/07/19 12:25:31  5-MIN KLFT 071825Z 26012G22KT 10SM VCTS BKN030 28/22 A2999 -10 71 1500 260/12G22 RMK AO2 T02780222
13976KLFT LFT20190807123013208/07/19 12:30:31  5-MIN KLFT 071830Z 27011G22KT 9SM VCTS -RA BKN030 27/23 A2999 -10 76 1400 270/11G22 RMK AO2 RAB30 P0000 T02720228
13976KLFT LFT20190807123512608/07/19 12:35:31  5-MIN KLFT 071835Z 26008KT 9SM VCTS -RA BKN030 26/23 A2999 -10 81 1300 260/08 RMK AO2 RAB30 P0000 T02610228
13976KLFT LFT20190807124013308/07/19 12:40:31  5-MIN KLFT 071840Z 26006KT 10SM -RA BKN030 26/23 A2999 -10 81 1300 260/06 RMK AO2 LTG DSNT S RAB30 P0000 T02610228
13976KLFT LFT20190807124513308/07/19 12:45:31  5-MIN KLFT 071845Z 30005KT 10SM -RA BKN030 26/23 A2999 -10 81 1300 300/05 RMK AO2 LTG DSNT S RAB30 P0000 T02610228
13976KLFT LFT20190807125015408/07/19 12:50:31  5-MIN KLFT 071850Z 24004KT 10SM -RA BKN034 BKN065 BKN080 26/22 A2998 -10 79 1300 240/04 RMK AO2 LTG DSNT S RAB30 SLP153 P0000 T02610222
13976KLFT LFT20190807125512008/07/19 12:55:31  5-MIN KLFT 071855Z 24004KT 10SM FEW040 BKN080 OVC110 26/22 A2999 -10 79 1300 240/04 RMK AO2 T02610222
13976KLFT LFT20190807130013208/07/19 13:00:31  5-MIN KLFT 071900Z 25005KT 10SM FEW040 BKN080 OVC110 26/22 A2999 -10 79 1300 250/05 RMK AO2 LTG DSNT NE T02610222
13976KLFT LFT20190807130513808/07/19 13:05:31  5-MIN KLFT 071905Z 20005KT 10SM FEW040 BKN080 BKN110 27/22 A2999 -20 76 1400 200/05 RMK AO2 LTG DSNT N AND NE T02670222
13976KLFT LFT20190807131013108/07/19 13:10:31  5-MIN KLFT 071910Z 22004KT 10SM SCT080 BKN100 27/23 A2999 -20 79 1400 220/04 RMK AO2 LTG DSNT N AND NE T02670228
13976KLFT LFT20190807131513108/07/19 13:15:31  5-MIN KLFT 071915Z 00000KT 10SM FEW080 BKN100 27/23 A2999 -20 79 1400 000/00 RMK AO2 LTG DSNT N AND NE T02670228
13976KLFT LFT20190807132013608/07/19 13:20:31  5-MIN KLFT 071920Z AUTO 00000KT 10SM FEW080 BKN110 27/23 A2999 -20 79 1400 000/00 RMK AO2 LTG DSNT N AND NE T02670228
13976KLFT LFT20190807132513108/07/19 13:25:31  5-MIN KLFT 071925Z 00000KT 10SM FEW050 BKN110 27/23 A2999 -10 76 1400 000/00 RMK AO2 LTG DSNT N AND NE T02720228
13976KLFT LFT20190807133012408/07/19 13:30:31  5-MIN KLFT 071930Z 00000KT 10SM SCT110 27/23 A2998 -10 76 1400 000/00 RMK AO2 LTG DSNT N AND NE T02720228
13976KLFT LFT20190807133512408/07/19 13:35:31  5-MIN KLFT 071935Z 00000KT 10SM FEW110 27/23 A2998 -10 76 1400 000/00 RMK AO2 LTG DSNT N AND NE T02720228
13976KLFT LFT20190807134012208/07/19 13:40:31  5-MIN KLFT 071940Z 00000KT 10SM FEW110 27/23 A2998 0 79 1400 000/00 RMK AO2 LTG DSNT N AND NE T02720233
13976KLFT LFT20190807134511308/07/19 13:45:31  5-MIN KLFT 071945Z 22003KT 10SM CLR 27/23 A2997 0 76 1400 220/03 RMK AO2 LTG DSNT NE T02720228
13976KLFT LFT20190807135012008/07/19 13:50:31  5-MIN KLFT 071950Z 23003KT 10SM CLR 27/23 A2997 0 76 1500 230/03 RMK AO2 LTG DSNT NE SLP147 T02720228
13976KLFT LFT20190807135511308/07/19 13:55:31  5-MIN KLFT 071955Z 00000KT 10SM CLR 27/23 A2997 0 76 1500 000/00 RMK AO2 LTG DSNT NE T02720228
13976KLFT LFT20190807140011408/07/19 14:00:31  5-MIN KLFT 072000Z 27003KT 10SM CLR 27/23 A2996 10 76 1500 270/03 RMK AO2 LTG DSNT NE T02720228
13976KLFT LFT20190807140511408/07/19 14:05:31  5-MIN KLFT 072005Z 00000KT 10SM CLR 28/23 A2996 10 74 1500 000/00 RMK AO2 LTG DSNT NE T02780228
13976KLFT LFT20190807141011408/07/19 14:10:31  5-MIN KLFT 072010Z 00000KT 10SM CLR 28/23 A2996 10 74 1500 000/00 RMK AO2 LTG DSNT NE T02780228
13976KLFT LFT20190807141511408/07/19 14:15:31  5-MIN KLFT 072015Z 22003KT 10SM CLR 28/23 A2995 10 76 1500 220/03 RMK AO2 LTG DSNT NE T02780233
13976KLFT LFT20190807142010208/07/19 14:20:31  5-MIN KLFT 072020Z 21003KT 10SM CLR 28/23 A2995 10 76 1500 210/03 RMK AO2 T02780233
13976KLFT LFT20190807142510208/07/19 14:25:31  5-MIN KLFT 072025Z 21004KT 10SM CLR 28/23 A2995 10 74 1600 210/04 RMK AO2 T02830233
13976KLFT LFT20190807143010208/07/19 14:30:31  5-MIN KLFT 072030Z 19004KT 10SM CLR 28/23 A2995 10 74 1600 190/04 RMK AO2 T02830233
13976KLFT LFT20190807143511308/07/19 14:35:31  5-MIN KLFT 072035Z 16004KT 10SM CLR 28/24 A2995 10 76 1600 160/04 RMK AO2 LTG DSNT W T02830239
13976KLFT LFT20190807144011308/07/19 14:40:31  5-MIN KLFT 072040Z 17004KT 10SM CLR 29/24 A2995 20 74 1700 170/04 RMK AO2 LTG DSNT W T02890239
13976KLFT LFT20190807144511308/07/19 14:45:31  5-MIN KLFT 072045Z VRB04KT 10SM CLR 29/24 A2995 20 74 1700 VRB/04 RMK AO2 LTG DSNT W T02890239
13976KLFT LFT20190807145012108/07/19 14:50:31  5-MIN KLFT 072050Z 20005KT 10SM CLR 29/23 A2995 20 71 1700 200/05 RMK AO2 SLP139 60000 T02890233 58002
13976KLFT LFT20190807145510208/07/19 14:55:31  5-MIN KLFT 072055Z 17004KT 10SM CLR 29/23 A2995 20 69 1700 170/04 RMK AO2 T02940233
13976KLFT LFT20190807150010208/07/19 15:00:31  5-MIN KLFT 072100Z 17004KT 10SM CLR 29/23 A2995 20 71 1700 170/04 RMK AO2 T02890233
13976KLFT LFT20190807150510208/07/19 15:05:31  5-MIN KLFT 072105Z 20004KT 10SM CLR 29/24 A2995 20 71 1700 200/04 RMK AO2 T02940239
13976KLFT LFT20190807151010208/07/19 15:10:31  5-MIN KLFT 072110Z 21004KT 10SM CLR 30/24 A2994 20 72 1800 210/04 RMK AO2 T03000244
13976KLFT LFT20190807151510208/07/19 15:15:31  5-MIN KLFT 072115Z 22006KT 10SM CLR 31/24 A2994 30 69 1900 220/06 RMK AO2 T03060244
13976KLFT LFT20190807152010208/07/19 15:20:31  5-MIN KLFT 072120Z 21006KT 10SM CLR 31/24 A2993 30 69 1900 210/06 RMK AO2 T03060244
13976KLFT LFT20190807152510208/07/19 15:25:31  5-MIN KLFT 072125Z 19005KT 10SM CLR 31/24 A2993 40 69 1900 190/05 RMK AO2 T03060244
13976KLFT LFT20190807153010208/07/19 15:30:31  5-MIN KLFT 072130Z 20005KT 10SM CLR 31/24 A2993 40 69 1900 190/05 RMK AO2 T03060244
13976KLFT LFT20190807153510208/07/19 15:35:31  5-MIN KLFT 072135Z 20006KT 10SM CLR 31/24 A2993 40 69 1900 200/06 RMK AO2 T03060244
13976KLFT LFT20190807154010208/07/19 15:40:31  5-MIN KLFT 072140Z 19008KT 10SM CLR 31/25 A2993 40 72 1900 190/08 RMK AO2 T03060250
13976KLFT LFT20190807154510208/07/19 15:45:31  5-MIN KLFT 072145Z 21007KT 10SM CLR 31/25 A2993 40 72 1900 210/07 RMK AO2 T03060250
13976KLFT LFT20190807155010908/07/19 15:50:31  5-MIN KLFT 072150Z 20008KT 10SM CLR 31/25 A2993 40 69 1900 200/08 RMK AO2 SLP133 T03110250
13976KLFT LFT20190807155510208/07/19 15:55:31  5-MIN KLFT 072155Z 22007KT 10SM CLR 31/24 A2992 40 67 1900 220/07 RMK AO2 T03110244
13976KLFT LFT20190807160010508/07/19 16:00:31  5-MIN KLFT 072200Z 21007KT 10SM SCT035 31/25 A2993 40 69 1900 200/07 RMK AO2 T03110250
13976KLFT LFT20190807160510508/07/19 16:05:31  5-MIN KLFT 072205Z 19005KT 10SM SCT035 31/24 A2992 40 69 1900 190/05 RMK AO2 T03060244
13976KLFT LFT20190807161010508/07/19 16:10:31  5-MIN KLFT 072210Z 21006KT 10SM SCT035 30/24 A2992 40 72 1800 210/06 RMK AO2 T03000244
13976KLFT LFT20190807161510508/07/19 16:15:31  5-MIN KLFT 072215Z 22008KT 10SM SCT035 30/24 A2992 40 69 1800 220/08 RMK AO2 T03000239
13976KLFT LFT20190807162010408/07/19 16:20:31  5-MIN KLFT 072220Z 26008KT 8SM SCT035 30/24 A2992 40 69 1800 250/08 RMK AO2 T03000239
13976KLFT LFT20190807162512008/07/19 16:25:31  5-MIN KLFT 072225Z 35006KT 4SM +RA SCT035 28/24 A2993 40 79 1600 350/06 RMK AO2 RAB21 P0021 T02830244
13976KLFT LFT20190807163011908/07/19 16:30:31  5-MIN KLFT 072230Z 29009KT 4SM RA SCT035 29/25 A2993 40 79 1700 290/09 RMK AO2 RAB21 P0021 T02890250
13976KLFT LFT20190807163513108/07/19 16:35:31  5-MIN KLFT 072235Z 28007KT 4SM -RA SCT035 29/24 A2992 40 76 1700 280/07 RMK AO2 LTG DSNT N RAB21 P0021 T02890244
13976KLFT LFT20190807164013108/07/19 16:40:31  5-MIN KLFT 072240Z 27008KT 4SM -RA SCT035 30/25 A2992 40 74 1800 270/08 RMK AO2 LTG DSNT N RAB21 P0021 T03000250
13976KLFT LFT20190807164513308/07/19 16:45:31  5-MIN KLFT 072245Z 28006KT 4SM HZ SCT035 31/25 A2992 40 72 1900 280/06 RMK AO2 LTG DSNT N RAB21E44 P0021 T03060250
13976KLFT LFT20190807165012908/07/19 16:50:31  5-MIN KLFT 072250Z 28008KT 4SM HZ SCT035 31/26 A2992 40 74 1900 280/08 RMK AO2 RAB21E44 SLP132 P0021 T03060256
13976KLFT LFT20190807165511908/07/19 16:55:31  5-MIN KLFT 072255Z 28007KT 10SM FEW041 SCT055 BKN090 31/24 A2992 40 69 1900 280/07 RMK AO2 T03060244
13976KLFT LFT20190807170011908/07/19 17:00:31  5-MIN KLFT 072300Z 26007KT 10SM FEW036 BKN060 BKN090 31/24 A2992 40 69 1900 260/07 RMK AO2 T03060244
13976KLFT LFT20190807170510508/07/19 17:05:31  5-MIN KLFT 072305Z 27007KT 10SM SCT060 31/24 A2992 40 67 1900 270/07 RMK AO2 T03110244
13976KLFT LFT20190807171010508/07/19 17:10:31  5-MIN KLFT 072310Z 26007KT 10SM FEW060 31/24 A2992 40 67 1900 260/07 RMK AO2 T03110244
13976KLFT LFT20190807171510508/07/19 17:15:31  5-MIN KLFT 072315Z 25005KT 10SM FEW060 31/24 A2992 40 67 1900 240/05 RMK AO2 T03110244
13976KLFT LFT20190807172010508/07/19 17:20:31  5-MIN KLFT 072320Z 28005KT 10SM FEW060 31/24 A2992 40 67 1900 280/05 RMK AO2 T03110244
13976KLFT LFT20190807172510508/07/19 17:25:31  5-MIN KLFT 072325Z 26008KT 10SM FEW060 31/24 A2992 50 67 1900 260/08 RMK AO2 T03110244
13976KLFT LFT20190807173010208/07/19 17:30:31  5-MIN KLFT 072330Z 26008KT 10SM CLR 31/24 A2992 50 65 1900 260/08 RMK AO2 T03110239
13976KLFT LFT20190807173510208/07/19 17:35:31  5-MIN KLFT 072335Z 25006KT 10SM CLR 31/24 A2992 50 65 1900 250/06 RMK AO2 T03110239
13976KLFT LFT20190807174010208/07/19 17:40:31  5-MIN KLFT 072340Z 26008KT 10SM CLR 31/23 A2992 50 63 1900 250/08 RMK AO2 T03110233
13976KLFT LFT20190807174510208/07/19 17:45:31  5-MIN KLFT 072345Z 26007KT 10SM CLR 31/23 A2991 50 63 1900 260/07 RMK AO2 T03110233
13976KLFT LFT20190807175013308/07/19 17:50:31  5-MIN KLFT 072350Z 24006KT 10SM CLR 31/23 A2991 50 65 1900 240/06 RMK AO2 SLP128 60021 T03060233 10311 20261 58012
13976KLFT LFT20190807175510208/07/19 17:55:31  5-MIN KLFT 072355Z 24007KT 10SM CLR 31/24 A2991 50 67 1900 240/07 RMK AO2 T03060239
13976KLFT LFT20190807180010208/07/19 18:00:31  5-MIN KLFT 080000Z 25006KT 10SM CLR 31/23 A2991 50 65 1900 250/06 RMK AO2 T03060233
13976KLFT LFT20190807180510208/07/19 18:05:31  5-MIN KLFT 080005Z 25008KT 10SM CLR 31/24 A2991 50 67 1900 250/08 RMK AO2 T03060239
13976KLFT LFT20190807181010208/07/19 18:10:31  5-MIN KLFT 080010Z 25005KT 10SM CLR 30/24 A2992 50 69 1800 250/05 RMK AO2 T03000239
13976KLFT LFT20190808041010708/08/19 04:10:31  5-MIN KLFT 081010Z AUTO 21003KT 10SM CLR 26/24 A2995 20 93 1300 210/03 RMK AO2 T02560244
13976KLFT LFT20190808041511008/08/19 04:15:31  5-MIN KLFT 081015Z AUTO 20004KT 10SM FEW019 26/24 A2995 20 93 1300 200/04 RMK AO2 T02560244
13976KLFT LFT20190808042010508/08/19 04:20:31  5-MIN KLFT 081020Z 20003KT 10SM FEW019 26/24 A2995 20 93 1300 200/03 RMK AO2 T02560244
13976KLFT LFT20190808042510508/08/19 04:25:31  5-MIN KLFT 081025Z 19003KT 10SM FEW019 26/24 A2995 20 93 1300 190/03 RMK AO2 T02560244
13976KLFT LFT20190808043010508/08/19 04:30:31  5-MIN KLFT 081030Z 00000KT 10SM FEW019 26/24 A2995 20 93 1300 000/00 RMK AO2 T02560244
13976KLFT LFT20190808043510508/08/19 04:35:31  5-MIN KLFT 081035Z 21003KT 10SM FEW019 26/24 A2995 20 93 1300 210/03 RMK AO2 T02560244
13976KLFT LFT20190808044010508/08/19 04:40:31  5-MIN KLFT 081040Z 22003KT 10SM FEW019 26/24 A2995 20 93 1300 210/03 RMK AO2 T02560244
13976KLFT LFT20190808044510208/08/19 04:45:31  5-MIN KLFT 081045Z 21003KT 10SM CLR 26/24 A2995 10 93 1300 210/03 RMK AO2 T02560244
13976KLFT LFT20190808045010908/08/19 04:50:31  5-MIN KLFT 081050Z 21003KT 10SM CLR 26/24 A2995 10 93 1300 210/03 RMK AO2 SLP143 T02560244
13976KLFT LFT20190808045510208/08/19 04:55:31  5-MIN KLFT 081055Z 21003KT 10SM CLR 26/24 A2996 10 93 1300 210/03 RMK AO2 T02560244
13976KLFT LFT20190808050010208/08/19 05:00:31  5-MIN KLFT 081100Z 22003KT 10SM CLR 26/25 A2996 10 97 1300 220/03 RMK AO2 T02560250
13976KLFT LFT20190808050510208/08/19 05:05:31  5-MIN KLFT 081105Z VRB03KT 10SM CLR 26/25 A2996 10 97 1300 VRB/03 RMK AO2 T02560250
13976KLFT LFT20190808051010208/08/19 05:10:31  5-MIN KLFT 081110Z 21003KT 10SM CLR 26/25 A2996 10 93 1300 210/03 RMK AO2 T02610250
13976KLFT LFT20190808051510208/08/19 05:15:31  5-MIN KLFT 081115Z 20003KT 10SM CLR 26/25 A2996 10 97 1300 200/03 RMK AO2 T02560250
13976KLFT LFT20190808052010208/08/19 05:20:31  5-MIN KLFT 081120Z 19003KT 10SM CLR 26/25 A2996 10 97 1300 190/03 RMK AO2 T02560250
13976KLFT LFT20190808052510108/08/19 05:25:31  5-MIN KLFT 081125Z 19003KT 10SM CLR 26/25 A2996 0 97 1300 190/03 RMK AO2 T02560250
13976KLFT LFT20190808053010108/08/19 05:30:31  5-MIN KLFT 081130Z 00000KT 10SM CLR 26/25 A2997 0 97 1300 000/00 RMK AO2 T02560250
13976KLFT LFT20190808053510108/08/19 05:35:31  5-MIN KLFT 081135Z 00000KT 10SM CLR 26/25 A2997 0 97 1300 000/00 RMK AO2 T02560250
13976KLFT LFT20190808054010108/08/19 05:40:31  5-MIN KLFT 081140Z 00000KT 10SM CLR 26/25 A2997 0 97 1300 000/00 RMK AO2 T02560250
13976KLFT LFT20190808054510008/08/19 05:45:31  5-MIN KLFT 081145Z 00000KT 9SM CLR 26/25 A2997 0 97 1300 000/00 RMK AO2 T02560250
13976KLFT LFT20190808055013108/08/19 05:50:31  5-MIN KLFT 081150Z 00000KT 9SM CLR 26/25 A2997 0 97 1300 000/00 RMK AO2 SLP147 70041 T02560250 10261 20250 55003
13976KLFT LFT20190808055510008/08/19 05:55:31  5-MIN KLFT 081155Z 00000KT 9SM CLR 26/25 A2997 0 97 1300 000/00 RMK AO2 T02560250
13976KLFT LFT20190808060010008/08/19 06:00:31  5-MIN KLFT 081200Z 00000KT 9SM CLR 26/25 A2997 0 97 1300 000/00 RMK AO2 T02560250
13976KLFT LFT20190808060510108/08/19 06:05:31  5-MIN KLFT 081205Z 21003KT 10SM CLR 26/25 A2997 0 97 1300 210/03 RMK AO2 T02560250
13976KLFT LFT20190808061010108/08/19 06:10:31  5-MIN KLFT 081210Z 22003KT 10SM CLR 26/25 A2997 0 97 1300 220/03 RMK AO2 T02560250
13976KLFT LFT20190808061510108/08/19 06:15:31  5-MIN KLFT 081215Z 22003KT 10SM CLR 26/25 A2997 0 97 1300 220/03 RMK AO2 T02560250
13976KLFT LFT20190808062010108/08/19 06:20:31  5-MIN KLFT 081220Z 22003KT 10SM CLR 26/25 A2997 0 93 1300 220/03 RMK AO2 T02610250
13976KLFT LFT20190808062510108/08/19 06:25:31  5-MIN KLFT 081225Z 22003KT 10SM CLR 26/25 A2998 0 93 1300 220/03 RMK AO2 T02610250
13976KLFT LFT20190808063010108/08/19 06:30:31  5-MIN KLFT 081230Z 22003KT 10SM CLR 26/26 A2998 0 97 1300 220/03 RMK AO2 T02610256
13976KLFT LFT20190808063510108/08/19 06:35:31  5-MIN KLFT 081235Z 22003KT 10SM CLR 26/26 A2998 0 97 1300 220/03 RMK AO2 T02610256
13976KLFT LFT20190808064010108/08/19 06:40:31  5-MIN KLFT 081240Z 24003KT 10SM CLR 27/26 A2998 0 93 1400 240/03 RMK AO2 T02670256
13976KLFT LFT20190808064510308/08/19 06:45:31  5-MIN KLFT 081245Z 24004KT 10SM CLR 27/26 A2998 -10 93 1400 240/04 RMK AO2 T02670256
13976KLFT LFT20190808065011008/08/19 06:50:31  5-MIN KLFT 081250Z 26005KT 10SM CLR 27/26 A2998 -10 90 1400 260/05 RMK AO2 SLP152 T02720256
13976KLFT LFT20190808065510308/08/19 06:55:31  5-MIN KLFT 081255Z 25004KT 10SM CLR 27/26 A2998 -10 90 1400 250/04 RMK AO2 T02720256
13976KLFT LFT20190808070010308/08/19 07:00:31  5-MIN KLFT 081300Z 25005KT 10SM CLR 27/26 A2998 -10 90 1400 250/05 RMK AO2 T02720256
13976KLFT LFT20190808070510308/08/19 07:05:31  5-MIN KLFT 081305Z 26005KT 10SM CLR 28/26 A2998 -10 87 1500 260/05 RMK AO2 T02780256
13976KLFT LFT20190808071010308/08/19 07:10:31  5-MIN KLFT 081310Z 25006KT 10SM CLR 28/26 A2998 -10 87 1500 250/06 RMK AO2 T02780256
13976KLFT LFT20190808071510308/08/19 07:15:31  5-MIN KLFT 081315Z 24005KT 10SM CLR 28/26 A2999 -10 87 1500 240/05 RMK AO2 T02780256
13976KLFT LFT20190808072010308/08/19 07:20:31  5-MIN KLFT 081320Z 25005KT 10SM CLR 28/26 A2999 -10 87 1500 250/05 RMK AO2 T02780256
13976KLFT LFT20190808072510308/08/19 07:25:31  5-MIN KLFT 081325Z 25005KT 10SM CLR 28/26 A2999 -10 85 1600 250/05 RMK AO2 T02830256
13976KLFT LFT20190808073010308/08/19 07:30:31  5-MIN KLFT 081330Z 24005KT 10SM CLR 28/26 A2999 -10 85 1600 240/05 RMK AO2 T02830256
13976KLFT LFT20190808073510308/08/19 07:35:31  5-MIN KLFT 081335Z 25007KT 10SM CLR 28/26 A2999 -10 85 1600 250/07 RMK AO2 T02830256
13976KLFT LFT20190808074010308/08/19 07:40:31  5-MIN KLFT 081340Z 25006KT 10SM CLR 28/26 A2999 -20 85 1500 250/06 RMK AO2 T02830256
13976KLFT LFT20190808074510308/08/19 07:45:31  5-MIN KLFT 081345Z 26008KT 10SM CLR 29/26 A3000 -20 82 1600 260/08 RMK AO2 T02890256
13976KLFT LFT20190808075011308/08/19 07:50:31  5-MIN KLFT 081350Z 25006KT 10SM FEW025 29/26 A2999 -20 82 1600 250/06 RMK AO2 SLP156 T02890256
13976KLFT LFT20190808075510308/08/19 07:55:31  5-MIN KLFT 081355Z 26008KT 10SM CLR 29/26 A2999 -20 82 1600 250/08 RMK AO2 T02890256
13976KLFT LFT20190808080010608/08/19 08:00:31  5-MIN KLFT 081400Z 25008KT 10SM FEW020 29/26 A2999 -20 82 1600 250/08 RMK AO2 T02890256
13976KLFT LFT20190808080510608/08/19 08:05:31  5-MIN KLFT 081405Z 23008KT 10SM FEW020 29/26 A2999 -20 82 1600 230/08 RMK AO2 T02890256
13976KLFT LFT20190808081010608/08/19 08:10:31  5-MIN KLFT 081410Z 25010KT 10SM FEW020 29/26 A2999 -20 82 1600 250/10 RMK AO2 T02890256
13976KLFT LFT20190808081510508/08/19 08:15:31  5-MIN KLFT 081415Z 26010KT 9SM FEW020 29/26 A2999 -20 82 1600 260/10 RMK AO2 T02890256
13976KLFT LFT20190808082010508/08/19 08:20:31  5-MIN KLFT 081420Z 26008KT 9SM SCT020 29/26 A2999 -20 82 1600 260/08 RMK AO2 T02890256
13976KLFT LFT20190808082510508/08/19 08:25:31  5-MIN KLFT 081425Z 24009KT 9SM SCT020 29/26 A2999 -20 79 1700 240/09 RMK AO2 T02940256
13976KLFT LFT20190808083010508/08/19 08:30:31  5-MIN KLFT 081430Z 26008KT 9SM SCT020 29/26 A3000 -20 79 1700 260/08 RMK AO2 T02940256
13976KLFT LFT20190808083510608/08/19 08:35:31  5-MIN KLFT 081435Z 25011KT 10SM BKN020 29/26 A2999 -20 79 1700 250/11 RMK AO2 T02940256
13976KLFT LFT20190808084010608/08/19 08:40:31  5-MIN KLFT 081440Z 25010KT 10SM BKN020 29/25 A2999 -20 76 1700 250/10 RMK AO2 T02940250
13976KLFT LFT20190808084510608/08/19 08:45:31  5-MIN KLFT 081445Z 25008KT 10SM BKN020 29/26 A2999 -20 79 1700 250/08 RMK AO2 T02940256
13976KLFT LFT20190808085011908/08/19 08:50:31  5-MIN KLFT 081450Z 27010KT 10SM BKN020 30/26 A2999 -10 77 1700 270/10 RMK AO2 SLP155 T03000256 53009
13976KLFT LFT20190808085510608/08/19 08:55:31  5-MIN KLFT 081455Z 26009KT 10SM BKN020 30/25 A2999 -20 74 1700 260/09 RMK AO2 T03000250
13976KLFT LFT20190808090010608/08/19 09:00:31  5-MIN KLFT 081500Z 27011KT 10SM BKN020 30/25 A3000 -20 74 1700 260/11 RMK AO2 T03000250
13976KLFT LFT20190808090510608/08/19 09:05:31  5-MIN KLFT 081505Z 26011KT 10SM BKN020 30/25 A3000 -20 74 1700 260/11 RMK AO2 T03000250
13976KLFT LFT20190808091010608/08/19 09:10:31  5-MIN KLFT 081510Z 26011KT 10SM BKN020 30/25 A3000 -20 74 1700 260/11 RMK AO2 T03000250
13976KLFT LFT20190808091510608/08/19 09:15:31  5-MIN KLFT 081515Z 26011KT 10SM BKN020 30/25 A3000 -20 74 1700 260/11 RMK AO2 T03000250
13976KLFT LFT20190808092010608/08/19 09:20:31  5-MIN KLFT 081520Z 25009KT 10SM BKN020 30/25 A3000 -20 74 1700 250/09 RMK AO2 T03000250
13976KLFT LFT20190808092510608/08/19 09:25:31  5-MIN KLFT 081525Z 27009KT 10SM BKN020 31/25 A3000 -20 72 1800 260/09 RMK AO2 T03060250
13976KLFT LFT20190808093010608/08/19 09:30:31  5-MIN KLFT 081530Z 25008KT 10SM BKN020 31/26 A3000 -20 74 1800 250/08 RMK AO2 T03060256
13976KLFT LFT20190808093510608/08/19 09:35:31  5-MIN KLFT 081535Z 27008KT 10SM BKN020 31/26 A3000 -20 74 1800 270/08 RMK AO2 T03060256
13976KLFT LFT20190808094010608/08/19 09:40:31  5-MIN KLFT 081540Z 25007KT 10SM BKN020 31/25 A3000 -20 72 1800 250/07 RMK AO2 T03060250
13976KLFT LFT20190808094510608/08/19 09:45:31  5-MIN KLFT 081545Z 26009KT 10SM BKN020 31/25 A3000 -20 72 1800 260/09 RMK AO2 T03060250
13976KLFT LFT20190808095012008/08/19 09:50:31  5-MIN KLFT 081550Z 25008KT 10SM BKN026 BKN036 31/25 A3000 -20 72 1800 250/08 RMK AO2 SLP158 T03060250
13976KLFT LFT20190808095512008/08/19 09:55:31  5-MIN KLFT 081555Z 24007KT 10SM FEW026 FEW030 SCT036 31/25 A3000 -20 72 1800 240/07 RMK AO2 T03060250
13976KLFT LFT20190808100011308/08/19 10:00:31  5-MIN KLFT 081600Z VRB05KT 10SM SCT026 BKN034 30/25 A3000 -30 74 1700 VRB/05 RMK AO2 T03000250
13976KLFT LFT20190808100511308/08/19 10:05:31  5-MIN KLFT 081605Z 25008KT 10SM BKN026 BKN036 30/25 A3000 -30 74 1700 250/08 RMK AO2 T03000250
13976KLFT LFT20190808101011308/08/19 10:10:31  5-MIN KLFT 081610Z 25008KT 10SM BKN026 BKN036 30/24 A3000 -20 72 1700 250/08 RMK AO2 T03000244
13976KLFT LFT20190808101511308/08/19 10:15:31  5-MIN KLFT 081615Z 24008KT 10SM BKN026 BKN036 31/25 A3000 -20 69 1800 240/08 RMK AO2 T03110250
13976KLFT LFT20190808102011308/08/19 10:20:31  5-MIN KLFT 081620Z 26005KT 10SM BKN026 BKN036 31/25 A3000 -20 69 1900 260/05 RMK AO2 T03110250
13976KLFT LFT20190808102511908/08/19 10:25:31  5-MIN KLFT 081625Z 27008G14KT 10SM BKN026 BKN036 32/24 A3000 -20 65 1900 270/08G14 RMK AO2 T03170244
13976KLFT LFT20190808103011908/08/19 10:30:31  5-MIN KLFT 081630Z 25010G14KT 10SM BKN026 BKN036 32/24 A3000 -20 65 1900 250/10G14 RMK AO2 T03170244
13976KLFT LFT20190808103511308/08/19 10:35:31  5-MIN KLFT 081635Z 25008KT 10SM BKN026 BKN036 31/24 A3000 -20 65 1900 250/08 RMK AO2 T03110239
13976KLFT LFT20190808104011308/08/19 10:40:31  5-MIN KLFT 081640Z 27006KT 10SM BKN026 BKN036 32/24 A3000 -20 63 1900 270/06 RMK AO2 T03170239
13976KLFT LFT20190808104511308/08/19 10:45:31  5-MIN KLFT 081645Z VRB06KT 10SM BKN026 BKN036 31/24 A3000 -20 65 1900 VRB/06 RMK AO2 T03110239
13976KLFT LFT20190808105012008/08/19 10:50:31  5-MIN KLFT 081650Z 25008KT 10SM BKN026 BKN036 32/24 A3000 -20 65 1900 250/08 RMK AO2 SLP157 T03170244
13976KLFT LFT20190808105510308/08/19 10:55:31  5-MIN KLFT 081655Z 26009KT 10SM CLR 32/24 A3000 -20 63 2000 260/09 RMK AO2 T03220244
13976KLFT LFT20190808110011308/08/19 11:00:31  5-MIN KLFT 081700Z 27005KT 10SM BKN021 BKN028 32/24 A3000 -20 65 1900 270/05 RMK AO2 T03170244
13976KLFT LFT20190808110511308/08/19 11:05:31  5-MIN KLFT 081705Z VRB06KT 10SM BKN021 BKN028 32/24 A3000 -20 63 2000 VRB/06 RMK AO2 T03220244
13976KLFT LFT20190808111011308/08/19 11:10:31  5-MIN KLFT 081710Z 26007KT 10SM BKN021 BKN028 32/24 A3000 -20 63 2000 260/07 RMK AO2 T03220244
13976KLFT LFT20190808111511308/08/19 11:15:31  5-MIN KLFT 081715Z VRB06KT 10SM BKN021 BKN028 32/24 A3000 -20 61 2000 VRB/06 RMK AO2 T03220239
13976KLFT LFT20190808112011308/08/19 11:20:31  5-MIN KLFT 081720Z 32007KT 10SM BKN021 BKN028 32/24 A2999 -20 65 1900 320/07 RMK AO2 T03170244
13976KLFT LFT20190808112511308/08/19 11:25:31  5-MIN KLFT 081725Z 28007KT 10SM BKN021 BKN028 32/24 A2999 -20 63 1900 280/07 RMK AO2 T03170239
13976KLFT LFT20190808113011308/08/19 11:30:31  5-MIN KLFT 081730Z 29007KT 10SM BKN021 BKN028 32/24 A2999 -20 61 2000 290/07 RMK AO2 T03220239
13976KLFT LFT20190808113511308/08/19 11:35:31  5-MIN KLFT 081735Z 28007KT 10SM BKN021 BKN028 32/24 A2999 -10 61 2000 280/07 RMK AO2 T03220239
13976KLFT LFT20190808114012408/08/19 11:40:31  5-MIN KLFT 081740Z 28008KT 10SM BKN021 BKN028 33/24 A2998 -10 59 2100 280/08 RMK AO2 LTG DSNT E T03280239
13976KLFT LFT20190808114512408/08/19 11:45:31  5-MIN KLFT 081745Z VRB06KT 10SM BKN032 BKN049 33/24 A2998 -10 61 2100 VRB/06 RMK AO2 LTG DSNT E T03280244
13976KLFT LFT20190808115014908/08/19 11:50:31  5-MIN KLFT 081750Z 27007KT 10SM BKN032 BKN049 33/24 A2998 -10 59 2100 270/07 RMK AO2 LTG DSNT E SLP151 T03280239 10328 20256 58004
13976KLFT LFT20190808115510408/08/19 11:55:31  5-MIN KLFT 081755Z 29005KT 10SM SCT039 33/24 A2998 0 59 2100 290/05 RMK AO2 T03280239
13976KLFT LFT20190808120012708/08/19 12:00:31  5-MIN KLFT 081800Z 29007KT 230V330 10SM BKN032 BKN049 32/24 A2998 0 61 2000 290/07 230V330 RMK AO2 T03220239
13976KLFT LFT20190808120511108/08/19 12:05:31  5-MIN KLFT 081805Z 28008KT 10SM BKN032 BKN049 33/24 A2998 0 59 2100 280/08 RMK AO2 T03280239
13976KLFT LFT20190808121011308/08/19 12:10:31  5-MIN KLFT 081810Z 26006KT 10SM BKN032 BKN049 33/24 A2998 -10 59 2100 260/06 RMK AO2 T03280239
13976KLFT LFT20190808121512308/08/19 12:15:31  5-MIN KLFT 081815Z 24007KT 10SM BKN032 BKN049 33/23 A2998 0 57 2100 230/07 RMK AO2 LTG DSNT SE T03280233
13976KLFT LFT20190808122012508/08/19 12:20:31  5-MIN KLFT 081820Z 27009KT 10SM BKN032 BKN049 33/23 A2998 -10 57 2100 270/09 RMK AO2 LTG DSNT SE T03280233
13976KLFT LFT20190808122512308/08/19 12:25:31  5-MIN KLFT 081825Z 30007KT 10SM BKN032 BKN049 33/24 A2998 0 59 2100 300/07 RMK AO2 LTG DSNT SE T03280239
13976KLFT LFT20190808123012508/08/19 12:30:31  5-MIN KLFT 081830Z 28007KT 10SM BKN032 BKN049 33/23 A2998 -10 55 2100 280/07 RMK AO2 LTG DSNT SE T03330233
13976KLFT LFT20190808123512508/08/19 12:35:31  5-MIN KLFT 081835Z 28008KT 10SM BKN032 BKN049 33/23 A2998 -10 55 2100 280/08 RMK AO2 LTG DSNT SE T03330233
13976KLFT LFT20190808124011308/08/19 12:40:31  5-MIN KLFT 081840Z 22007KT 10SM BKN032 BKN049 34/23 A2998 -10 51 2200 220/07 RMK AO2 T03390228
13976KLFT LFT20190808124511308/08/19 12:45:31  5-MIN KLFT 081845Z 25006KT 10SM BKN032 BKN049 33/23 A2998 -10 53 2100 250/06 RMK AO2 T03330228
13976KLFT LFT20190808125012008/08/19 12:50:31  5-MIN KLFT 081850Z 22007KT 10SM BKN032 BKN049 34/22 A2998 -10 50 2200 220/07 RMK AO2 SLP152 T03390222
13976KLFT LFT20190808125510408/08/19 12:55:31  5-MIN KLFT 081855Z 22009KT 10SM FEW047 33/23 A2998 0 53 2100 220/09 RMK AO2 T03330228
13976KLFT LFT20190808130011108/08/19 13:00:31  5-MIN KLFT 081900Z VRB05KT 10SM FEW047 SCT060 34/23 A2997 0 53 2200 VRB/05 RMK AO2 T03390233
13976KLFT LFT20190808130511108/08/19 13:05:31  5-MIN KLFT 081905Z 26006KT 10SM FEW049 SCT060 34/24 A2997 0 57 2200 260/06 RMK AO2 T03390244
13976KLFT LFT20190808131010408/08/19 13:10:31  5-MIN KLFT 081910Z 25008KT 10SM SCT049 33/23 A2997 0 53 2100 250/08 RMK AO2 T03330228
13976KLFT LFT20190808131510408/08/19 13:15:31  5-MIN KLFT 081915Z 25004KT 10SM SCT049 33/23 A2997 0 55 2100 250/04 RMK AO2 T03280228
13976KLFT LFT20190808132010408/08/19 13:20:31  5-MIN KLFT 081920Z 28007KT 10SM SCT049 33/23 A2997 0 57 2100 280/07 RMK AO2 T03280233
13976KLFT LFT20190808132511808/08/19 13:25:31  5-MIN KLFT 081925Z 30010KT 10SM SCT049 SCT060 BKN095 33/23 A2997 0 57 2100 300/10 RMK AO2 T03280233
13976KLFT LFT20190808133011808/08/19 13:30:31  5-MIN KLFT 081930Z 31012KT 10SM FEW045 SCT055 BKN095 32/22 A2997 0 56 1900 310/12 RMK AO2 T03170222
13976KLFT LFT20190808133513308/08/19 13:35:31  5-MIN KLFT 081935Z 32011KT 7SM -RA SCT048 SCT060 BKN090 31/23 A2997 0 62 1800 320/11 RMK AO2 RAB34 P0001 T03060228
13976KLFT LFT20190808134013208/08/19 13:40:31  5-MIN KLFT 081940Z 34006KT 5SM RA FEW045 SCT055 BKN090 30/23 A2997 0 67 1800 340/06 RMK AO2 RAB34 P0001 T03000233
13976KLFT LFT20190808134513308/08/19 13:45:31  5-MIN KLFT 081945Z 33006KT 7SM -RA FEW043 FEW055 BKN090 31/23 A2997 0 63 1900 330/06 RMK AO2 RAB34 P0001 T03110233
13976KLFT LFT20190808135013308/08/19 13:50:31  5-MIN KLFT 081950Z 33004KT 10SM FEW044 BKN090 32/23 A2996 0 61 2000 320/04 RMK AO2 RAB34E47 SLP146 P0001 T03170233
13976KLFT LFT20190808135511908/08/19 13:55:31  5-MIN KLFT 081955Z 30005KT 10SM FEW044 BKN090 BKN120 32/24 A2996 10 61 2000 300/05 RMK AO2 T03220239
13976KLFT LFT20190808140011908/08/19 14:00:31  5-MIN KLFT 082000Z 31004KT 10SM FEW080 SCT090 BKN120 32/23 A2995 10 59 2000 310/04 RMK AO2 T03220233
13976KLFT LFT20190808140511908/08/19 14:05:31  5-MIN KLFT 082005Z 30004KT 10SM FEW044 SCT090 SCT120 33/23 A2995 10 57 2100 300/04 RMK AO2 T03280233
13976KLFT LFT20190808141011908/08/19 14:10:31  5-MIN KLFT 082010Z 31003KT 10SM FEW046 FEW090 SCT120 33/23 A2995 20 57 2100 310/03 RMK AO2 T03280233
13976KLFT LFT20190808141511208/08/19 14:15:31  5-MIN KLFT 082015Z 00000KT 10SM SCT046 SCT120 33/23 A2995 20 57 2100 000/00 RMK AO2 T03280233
13976KLFT LFT20190808142011208/08/19 14:20:31  5-MIN KLFT 082020Z VRB05KT 10SM BKN044 BKN120 33/24 A2995 20 57 2200 VRB/05 RMK AO2 T03330239
13976KLFT LFT20190808142511208/08/19 14:25:31  5-MIN KLFT 082025Z 19005KT 10SM BKN044 BKN060 33/24 A2995 20 59 2100 190/05 RMK AO2 T03280239
13976KLFT LFT20190808143011208/08/19 14:30:31  5-MIN KLFT 082030Z 00000KT 10SM BKN044 BKN060 33/23 A2995 20 57 2100 000/00 RMK AO2 T03280233
13976KLFT LFT20190808143511208/08/19 14:35:31  5-MIN KLFT 082035Z 28005KT 10SM BKN044 BKN060 33/23 A2995 20 57 2100 280/05 RMK AO2 T03280233
13976KLFT LFT20190808144011208/08/19 14:40:31  5-MIN KLFT 082040Z 24007KT 10SM BKN044 BKN060 33/23 A2995 20 57 2100 240/07 RMK AO2 T03280233
13976KLFT LFT20190808144511908/08/19 14:45:31  5-MIN KLFT 082045Z 23005KT 10SM SCT046 BKN060 BKN080 33/23 A2994 20 57 2100 230/05 RMK AO2 T03280233
13976KLFT LFT20190808145013808/08/19 14:50:31  5-MIN KLFT 082050Z 29005KT 10SM SCT046 BKN060 BKN080 33/23 A2994 30 57 2100 290/05 RMK AO2 SLP138 60001 T03280233 57007
13976KLFT LFT20190808145511208/08/19 14:55:31  5-MIN KLFT 082055Z 24008KT 10SM BKN048 BKN060 33/23 A2994 30 57 2100 240/08 RMK AO2 T03280233
13976KLFT LFT20190808150011908/08/19 15:00:31  5-MIN KLFT 082100Z 24008KT 10SM BKN048 BKN060 BKN080 33/23 A2994 30 55 2200 240/08 RMK AO2 T03330233
13976KLFT LFT20190808150511908/08/19 15:05:31  5-MIN KLFT 082105Z 23006KT 10SM BKN048 BKN065 BKN080 33/23 A2994 30 53 2200 230/06 RMK AO2 T03330228
13976KLFT LFT20190808151011908/08/19 15:10:31  5-MIN KLFT 082110Z 24007KT 10SM BKN048 BKN060 BKN080 33/23 A2994 30 53 2200 240/07 RMK AO2 T03330228
13976KLFT LFT20190808151511208/08/19 15:15:31  5-MIN KLFT 082115Z 26010KT 10SM BKN048 BKN070 33/23 A2994 30 53 2200 260/10 RMK AO2 T03330228
13976KLFT LFT20190808152010508/08/19 15:20:31  5-MIN KLFT 082120Z 22007KT 10SM BKN050 33/23 A2993 30 53 2200 220/07 RMK AO2 T03330228
13976KLFT LFT20190808152510508/08/19 15:25:31  5-MIN KLFT 082125Z 23008KT 10SM BKN050 34/23 A2993 30 53 2200 230/08 RMK AO2 T03390233
13976KLFT LFT20190808153012208/08/19 15:30:31  5-MIN KLFT 082130Z 24009KT 10SM SCT050 33/23 A2994 30 55 2100 240/09 RMK AO2 LTG DSNT E AND W T03280228
13976KLFT LFT20190808153512908/08/19 15:35:31  5-MIN KLFT 082135Z 24007KT 10SM FEW050 SCT065 33/23 A2993 30 57 2100 240/07 RMK AO2 LTG DSNT E AND W T03280233
13976KLFT LFT20190808154012908/08/19 15:40:31  5-MIN KLFT 082140Z 24009KT 10SM BKN060 BKN070 34/23 A2993 30 53 2200 230/09 RMK AO2 LTG DSNT E AND W T03390233
13976KLFT LFT20190808154511908/08/19 15:45:31  5-MIN KLFT 082145Z 21006KT 10SM FEW049 SCT060 BKN070 34/23 A2994 30 53 2200 210/06 RMK AO2 T03390233
13976KLFT LFT20190808155010708/08/19 15:50:31  5-MIN KLFT 082150Z 20006KT 10SM VCTS FEW050 SCT060 34/23 A2994 30 53 2200 200/06 RMK AO2
13976KLFT LFT20190808155513408/08/19 15:55:31  5-MIN KLFT 082155Z 21007KT 10SM VCTS BKN050 BKN060 34/23 A2994 20 51 2200 210/07 RMK AO2 LTG DSNT E AND W T03390228
13976KLFT LFT20190808160013408/08/19 16:00:31  5-MIN KLFT 082200Z 23004KT 10SM VCTS BKN050 BKN060 33/23 A2994 30 53 2200 230/04 RMK AO2 LTG DSNT E AND W T03330228
13976KLFT LFT20190808160512908/08/19 16:05:31  5-MIN KLFT 082205Z VRB04KT 10SM BKN050 BKN060 33/23 A2994 30 55 2200 VRB/04 RMK AO2 LTG DSNT E AND W T03330233
13976KLFT LFT20190810113510608/10/19 11:35:31  5-MIN KLFT 101735Z 23008KT 10SM FEW041 33/23 A3001 -40 55 2000 230/08 RMK AO2 T03280228
13976KLFT LFT20190810114010608/10/19 11:40:31  5-MIN KLFT 101740Z 21009KT 10SM FEW041 33/23 A3001 -30 55 2100 210/09 RMK AO2 T03330233
13976KLFT LFT20190810114510608/10/19 11:45:31  5-MIN KLFT 101745Z 20006KT 10SM FEW041 33/23 A3001 -30 55 2000 200/06 RMK AO2 T03280228
13976KLFT LFT20190810115012808/10/19 11:50:31  5-MIN KLFT 101750Z 24007KT 10SM CLR 33/23 A3001 -30 55 2100 240/07 RMK AO2 SLP161 T03330233 10333 20250 51013
13976KLFT LFT20190810115510308/10/19 11:55:31  5-MIN KLFT 101755Z 23007KT 10SM CLR 33/23 A3000 -30 57 2000 230/07 RMK AO2 T03280233
13976KLFT LFT20190810120010308/10/19 12:00:31  5-MIN KLFT 101800Z 22007KT 10SM CLR 33/23 A3001 -30 53 2100 220/07 RMK AO2 T03330228
13976KLFT LFT20190810120510308/10/19 12:05:31  5-MIN KLFT 101805Z 20005KT 10SM CLR 33/22 A3000 -30 51 2100 200/05 RMK AO2 T03330222
13976KLFT LFT20190810121010608/10/19 12:10:31  5-MIN KLFT 101810Z 28008KT 10SM FEW045 33/22 A3000 -30 51 2100 280/08 RMK AO2 T03330222
13976KLFT LFT20190810121510608/10/19 12:15:31  5-MIN KLFT 101815Z 24006KT 10SM FEW045 33/22 A3000 -20 51 2100 240/06 RMK AO2 T03330222
13976KLFT LFT20190810122010608/10/19 12:20:31  5-MIN KLFT 101820Z 24008KT 10SM FEW047 33/23 A3000 -20 53 2100 240/08 RMK AO2 T03330228
13976KLFT LFT20190810122510608/10/19 12:25:31  5-MIN KLFT 101825Z 26005KT 10SM FEW047 33/23 A2999 -20 53 2100 260/05 RMK AO2 T03330228
13976KLFT LFT20190810123010608/10/19 12:30:31  5-MIN KLFT 101830Z 26008KT 10SM FEW046 33/23 A2999 -20 53 2100 260/08 RMK AO2 T03330228
13976KLFT LFT20190810123510608/10/19 12:35:31  5-MIN KLFT 101835Z 30008KT 10SM FEW046 33/23 A2999 -10 53 2100 300/08 RMK AO2 T03330228
13976KLFT LFT20190810124010608/10/19 12:40:31  5-MIN KLFT 101840Z VRB05KT 10SM FEW046 33/23 A2999 -10 53 2100 VRB/05 RMK AO2 T03330228
13976KLFT LFT20190810124510608/10/19 12:45:31  5-MIN KLFT 101845Z 29006KT 10SM FEW046 33/23 A2998 -10 53 2100 290/06 RMK AO2 T03330228
13976KLFT LFT20190810125011108/10/19 12:50:31  5-MIN KLFT 101850Z 22004KT 10SM BKN035 33/23 A2998 0 55 2100 210/04 RMK AO2 SLP151 T03280228
13976KLFT LFT20190810125511108/10/19 12:55:31  5-MIN KLFT 101855Z VRB03KT 10SM FEW046 FEW055 33/23 A2998 0 55 2100 VRB/03 RMK AO2 T03280228
13976KLFT LFT20190810130010408/10/19 13:00:31  5-MIN KLFT 101900Z 25004KT 10SM FEW055 33/23 A2997 0 53 2100 250/04 RMK AO2 T03330228
13976KLFT LFT20190810130510408/10/19 13:05:31  5-MIN KLFT 101905Z 26004KT 10SM FEW050 33/22 A2997 0 53 2100 260/04 RMK AO2 T03280222
13976KLFT LFT20190810131010408/10/19 13:10:31  5-MIN KLFT 101910Z 27006KT 10SM FEW050 33/23 A2997 0 53 2100 270/06 RMK AO2 T03330228
13976KLFT LFT20190810131510408/10/19 13:15:31  5-MIN KLFT 101915Z VRB03KT 10SM FEW050 33/23 A2996 0 53 2100 VRB/03 RMK AO2 T03330228
13976KLFT LFT20190810132010508/10/19 13:20:31  5-MIN KLFT 101920Z 24005KT 10SM FEW055 33/22 A2996 10 51 2100 240/05 RMK AO2 T03330222
13976KLFT LFT20190810132511208/10/19 13:25:31  5-MIN KLFT 101925Z VRB06KT 10SM FEW049 FEW060 33/23 A2996 10 55 2100 VRB/06 RMK AO2 T03280228
13976KLFT LFT20190810133011208/10/19 13:30:31  5-MIN KLFT 101930Z 24005KT 10SM FEW049 FEW060 34/23 A2996 10 51 2200 240/05 RMK AO2 T03390228
13976KLFT LFT20190810133511208/10/19 13:35:31  5-MIN KLFT 101935Z 24006KT 10SM FEW050 FEW060 33/23 A2996 10 55 2100 240/06 RMK AO2 T03330233
13976KLFT LFT20190810134010508/10/19 13:40:31  5-MIN KLFT 101940Z 24005KT 10SM SCT055 33/22 A2995 10 51 2100 240/05 RMK AO2 T03330222
13976KLFT LFT20190810134510508/10/19 13:45:31  5-MIN KLFT 101945Z VRB05KT 10SM SCT055 34/23 A2995 10 51 2200 VRB/05 RMK AO2 T03390228
13976KLFT LFT20190810135011208/10/19 13:50:31  5-MIN KLFT 101950Z 19005KT 10SM BKN040 33/23 A2995 20 53 2100 190/05 RMK AO2 SLP142 T03330228
13976KLFT LFT20190810135509508/10/19 13:55:31  5-MIN KLFT 101955Z 10SM BKN040 34/23 A2995 10 51 2200 M /M RMK AO2 T03390228
13976KLFT LFT20190810140010508/10/19 14:00:31  5-MIN KLFT 102000Z 24007KT 10SM BKN040 34/23 A2995 20 50 2300 240/07 RMK AO2 T03440228
13976KLFT LFT20190810140510508/10/19 14:05:31  5-MIN KLFT 102005Z 21005KT 10SM BKN040 34/23 A2995 20 51 2200 210/05 RMK AO2 T03390228
13976KLFT LFT20190810141010508/10/19 14:10:31  5-MIN KLFT 102010Z 27009KT 10SM BKN040 34/23 A2995 20 52 2300 270/09 RMK AO2 T03440233
13976KLFT LFT20190810141510508/10/19 14:15:31  5-MIN KLFT 102015Z 30004KT 10SM BKN040 33/23 A2995 20 53 2200 290/04 RMK AO2 T03330228
13976KLFT LFT20190810142010508/10/19 14:20:31  5-MIN KLFT 102020Z 29003KT 10SM BKN040 33/23 A2995 20 53 2200 290/03 RMK AO2 T03330228
13976KLFT LFT20190810142510508/10/19 14:25:31  5-MIN KLFT 102025Z 32004KT 10SM BKN040 33/23 A2995 20 53 2200 320/04 RMK AO2 T03330228
13976KLFT LFT20190810143010508/10/19 14:30:31  5-MIN KLFT 102030Z VRB06KT 10SM BKN040 34/23 A2994 20 51 2200 VRB/06 RMK AO2 T03390228
13976KLFT LFT20190810143510508/10/19 14:35:31  5-MIN KLFT 102035Z 23006KT 10SM BKN040 34/23 A2994 30 51 2200 230/06 RMK AO2 T03390228
13976KLFT LFT20190810144010508/10/19 14:40:31  5-MIN KLFT 102040Z 26004KT 10SM BKN040 33/23 A2994 30 53 2200 260/04 RMK AO2 T03330228
13976KLFT LFT20190810144510508/10/19 14:45:31  5-MIN KLFT 102045Z 28006KT 10SM BKN040 34/23 A2994 30 52 2300 280/06 RMK AO2 T03440233
13976KLFT LFT20190810145011808/10/19 14:50:31  5-MIN KLFT 102050Z 26009KT 10SM BKN040 34/23 A2994 30 52 2300 260/09 RMK AO2 SLP137 T03440233 58007
13976KLFT LFT20190810145511208/10/19 14:55:31  5-MIN KLFT 102055Z 27006KT 10SM SCT048 BKN060 34/23 A2994 30 53 2200 270/06 RMK AO2 T03390233
13976KLFT LFT20190810150011208/10/19 15:00:31  5-MIN KLFT 102100Z 26006KT 10SM SCT048 SCT060 34/23 A2994 30 53 2200 250/06 RMK AO2 T03390233
13976KLFT LFT20190810150511208/10/19 15:05:31  5-MIN KLFT 102105Z 25009KT 10SM FEW048 SCT060 34/23 A2994 30 51 2200 250/09 RMK AO2 T03390228
13976KLFT LFT20190810151010508/10/19 15:10:31  5-MIN KLFT 102110Z 24009KT 10SM FEW048 34/23 A2993 30 51 2200 240/09 RMK AO2 T03390228
13976KLFT LFT20190810151510508/10/19 15:15:31  5-MIN KLFT 102115Z 22006KT 10SM FEW048 34/23 A2993 30 53 2200 220/06 RMK AO2 T03390233
13976KLFT LFT20190810152010208/10/19 15:20:31  5-MIN KLFT 102120Z 26006KT 10SM CLR 34/23 A2994 30 53 2200 260/06 RMK AO2 T03390233
13976KLFT LFT20190810152510508/10/19 15:25:31  5-MIN KLFT 102125Z 23007KT 10SM FEW050 33/23 A2993 30 55 2200 220/07 RMK AO2 T03330233
13976KLFT LFT20190810153011208/10/19 15:30:31  5-MIN KLFT 102130Z 23006KT 10SM FEW047 SCT055 34/24 A2993 30 55 2200 220/06 RMK AO2 T03390239
13976KLFT LFT20190810153511208/10/19 15:35:31  5-MIN KLFT 102135Z 24008KT 10SM FEW047 SCT060 33/23 A2993 30 57 2100 240/08 RMK AO2 T03280233
13976KLFT LFT20190810154011208/10/19 15:40:31  5-MIN KLFT 102140Z 22006KT 10SM FEW049 SCT060 33/23 A2993 30 55 2100 220/06 RMK AO2 T03280228
13976KLFT LFT20190810154510508/10/19 15:45:31  5-MIN KLFT 102145Z 23008KT 10SM SCT055 34/23 A2994 30 53 2200 230/08 RMK AO2 T03390233
13976KLFT LFT20190810155011908/10/19 15:50:31  5-MIN KLFT 102150Z 25006KT 10SM BKN055 BKN070 34/23 A2993 30 53 2200 250/06 RMK AO2 SLP136 T03390233
13976KLFT LFT20190810155511208/10/19 15:55:31  5-MIN KLFT 102155Z 20010KT 10SM BKN055 BKN070 34/23 A2993 30 53 2200 200/10 RMK AO2 T03390233
13976KLFT LFT20190810160010508/10/19 16:00:31  5-MIN KLFT 102200Z 25007KT 10SM SCT055 34/23 A2993 30 51 2200 240/07 RMK AO2 T03390228
13976KLFT LFT20190810160510508/10/19 16:05:31  5-MIN KLFT 102205Z 27007KT 10SM SCT050 34/23 A2993 30 51 2200 270/07 RMK AO2 T03390228
13976KLFT LFT20190810161010508/10/19 16:10:31  5-MIN KLFT 102210Z 25009KT 10SM BKN050 34/23 A2993 30 51 2200 250/09 RMK AO2 T03390228
13976KLFT LFT20190810161510508/10/19 16:15:31  5-MIN KLFT 102215Z 25005KT 10SM BKN050 33/22 A2993 30 51 2200 250/05 RMK AO2 T03330222
13976KLFT LFT20190810162010508/10/19 16:20:31  5-MIN KLFT 102220Z 23010KT 10SM BKN050 34/23 A2993 30 51 2200 230/10 RMK AO2 T03390228
13976KLFT LFT20190810162510508/10/19 16:25:31  5-MIN KLFT 102225Z 26009KT 10SM BKN050 34/23 A2993 30 51 2200 260/09 RMK AO2 T03390228
13976KLFT LFT20190810163010508/10/19 16:30:31  5-MIN KLFT 102230Z 24009KT 10SM BKN050 34/23 A2993 30 51 2200 240/09 RMK AO2 T03390228
13976KLFT LFT20190810163511208/10/19 16:35:31  5-MIN KLFT 102235Z 23008KT 10SM SCT050 BKN055 34/23 A2993 30 51 2200 230/08 RMK AO2 T03390228
13976KLFT LFT20190810164010508/10/19 16:40:31  5-MIN KLFT 102240Z 24011KT 10SM SCT050 33/23 A2993 30 53 2200 240/11 RMK AO2 T03330228
13976KLFT LFT20190810164510508/10/19 16:45:31  5-MIN KLFT 102245Z 23007KT 10SM FEW050 33/22 A2993 30 53 2100 230/07 RMK AO2 T03280222
13976KLFT LFT20190810165011208/10/19 16:50:31  5-MIN KLFT 102250Z 23009KT 10SM SCT050 34/22 A2993 30 50 2200 230/09 RMK AO2 SLP136 T03390222
13976KLFT LFT20190810165510508/10/19 16:55:31  5-MIN KLFT 102255Z 24009KT 10SM SCT050 33/22 A2993 30 51 2200 240/09 RMK AO2 T03330222
13976KLFT LFT20190810170010508/10/19 17:00:31  5-MIN KLFT 102300Z 24007KT 10SM FEW050 33/22 A2993 30 50 2200 240/07 RMK AO2 T03330217
13976KLFT LFT20190810170510508/10/19 17:05:31  5-MIN KLFT 102305Z 26008KT 10SM FEW050 33/22 A2993 30 53 2100 260/08 RMK AO2 T03280222
13976KLFT LFT20190810171010508/10/19 17:10:31  5-MIN KLFT 102310Z 24009KT 10SM FEW050 33/22 A2993 30 51 2100 240/09 RMK AO2 T03280217
13976KLFT LFT20190810171510508/10/19 17:15:31  5-MIN KLFT 102315Z 24008KT 10SM FEW050 33/22 A2993 30 53 2100 240/08 RMK AO2 T03280222
13976KLFT LFT20190810172010508/10/19 17:20:31  5-MIN KLFT 102320Z 24006KT 10SM FEW050 33/22 A2993 30 51 2100 240/06 RMK AO2 T03280217
13976KLFT LFT20190810172510208/10/19 17:25:31  5-MIN KLFT 102325Z 23007KT 10SM CLR 33/22 A2993 30 51 2100 230/07 RMK AO2 T03280217
13976KLFT LFT20190810173010208/10/19 17:30:31  5-MIN KLFT 102330Z 22008KT 10SM CLR 32/22 A2993 30 53 2000 220/08 RMK AO2 T03220217
13976KLFT LFT20190810173510208/10/19 17:35:31  5-MIN KLFT 102335Z 23008KT 10SM CLR 32/22 A2993 30 53 2000 230/08 RMK AO2 T03220217
13976KLFT LFT20190810174010208/10/19 17:40:31  5-MIN KLFT 102340Z 24008KT 10SM CLR 32/22 A2993 30 53 2000 240/08 RMK AO2 T03220217
13976KLFT LFT20190810174510208/10/19 17:45:31  5-MIN KLFT 102345Z 24007KT 10SM CLR 32/22 A2993 40 53 2100 240/07 RMK AO2 T03220217
13976KLFT LFT20190810175012708/10/19 17:50:31  5-MIN KLFT 102350Z 24007KT 10SM CLR 32/22 A2993 30 53 2000 240/07 RMK AO2 SLP135 T03220217 10344 20322 56023
13976KLFT LFT20190810175510208/10/19 17:55:31  5-MIN KLFT 102355Z 23007KT 10SM CLR 32/22 A2993 40 53 2100 230/07 RMK AO2 T03220217
13976KLFT LFT20190810180010208/10/19 18:00:31  5-MIN KLFT 110000Z 23007KT 10SM CLR 32/22 A2993 30 55 2000 230/07 RMK AO2 T03170217
13976KLFT LFT20190810180510208/10/19 18:05:31  5-MIN KLFT 110005Z 24007KT 10SM CLR 32/22 A2993 40 55 2000 240/07 RMK AO2 T03170217
13976KLFT LFT20190810181010208/10/19 18:10:31  5-MIN KLFT 110010Z 23007KT 10SM CLR 32/22 A2993 40 55 2000 230/07 RMK AO2 T03170217
13976KLFT LFT20190810181510208/10/19 18:15:31  5-MIN KLFT 110015Z 24008KT 10SM CLR 32/22 A2993 40 55 2000 240/08 RMK AO2 T03170217
13976KLFT LFT20190810182010208/10/19 18:20:31  5-MIN KLFT 110020Z 24007KT 10SM CLR 32/22 A2993 40 56 2000 240/07 RMK AO2 T03170222
13976KLFT LFT20190810182510208/10/19 18:25:31  5-MIN KLFT 110025Z 24006KT 10SM CLR 32/22 A2993 30 56 2000 240/06 RMK AO2 T03170222
13976KLFT LFT20190810183010208/10/19 18:30:31  5-MIN KLFT 110030Z 23006KT 10SM CLR 31/22 A2993 30 58 1900 230/06 RMK AO2 T03110222
13976KLFT LFT20190810183510208/10/19 18:35:31  5-MIN KLFT 110035Z 23007KT 10SM CLR 31/22 A2993 30 58 1900 230/07 RMK AO2 T03110222
13976KLFT LFT20190810184010208/10/19 18:40:31  5-MIN KLFT 110040Z 22006KT 10SM CLR 31/22 A2993 30 58 1900 220/06 RMK AO2 T03110222
13976KLFT LFT20190810184510208/10/19 18:45:31  5-MIN KLFT 110045Z 23005KT 10SM CLR 31/23 A2994 30 62 1900 220/05 RMK AO2 T03060228
13976KLFT LFT20190810185010908/10/19 18:50:31  5-MIN KLFT 110050Z 23006KT 10SM CLR 31/23 A2994 30 62 1900 230/06 RMK AO2 SLP137 T03060228
13976KLFT LFT20190810185510208/10/19 18:55:31  5-MIN KLFT 110055Z 22007KT 10SM CLR 31/22 A2994 30 60 1900 220/07 RMK AO2 T03060222
13976KLFT LFT20190810190010208/10/19 19:00:31  5-MIN KLFT 110100Z 21006KT 10SM CLR 30/22 A2994 30 62 1800 210/06 RMK AO2 T03000222
13976KLFT LFT20190810190510208/10/19 19:05:31  5-MIN KLFT 110105Z 22006KT 10SM CLR 30/23 A2994 30 65 1800 220/06 RMK AO2 T03000228
13976KLFT LFT20190810191010208/10/19 19:10:31  5-MIN KLFT 110110Z 22006KT 10SM CLR 30/23 A2994 20 65 1800 220/06 RMK AO2 T03000228
13976KLFT LFT20190810191510208/10/19 19:15:31  5-MIN KLFT 110115Z 21005KT 10SM CLR 29/23 A2994 20 67 1700 210/05 RMK AO2 T02940228
13976KLFT LFT20190810192010208/10/19 19:20:31  5-MIN KLFT 110120Z 21006KT 10SM CLR 29/23 A2995 20 67 1700 210/06 RMK AO2 T02940228
13976KLFT LFT20190810192510208/10/19 19:25:31  5-MIN KLFT 110125Z 21007KT 10SM CLR 29/23 A2995 20 67 1700 210/07 RMK AO2 T02940228
13976KLFT LFT20190810193010208/10/19 19:30:31  5-MIN KLFT 110130Z 21006KT 10SM CLR 29/23 A2995 20 69 1700 210/06 RMK AO2 T02940233
13976KLFT LFT20190810193510208/10/19 19:35:31  5-MIN KLFT 110135Z 21007KT 10SM CLR 29/23 A2995 20 71 1700 210/07 RMK AO2 T02890233
13976KLFT LFT20190810194010208/10/19 19:40:31  5-MIN KLFT 110140Z 21006KT 10SM CLR 29/24 A2995 20 74 1700 210/06 RMK AO2 T02890239
13976KLFT LFT20190810194510208/10/19 19:45:31  5-MIN KLFT 110145Z 21007KT 10SM CLR 29/24 A2995 20 74 1700 210/07 RMK AO2 T02890239
13976KLFT LFT20190810195010908/10/19 19:50:31  5-MIN KLFT 110150Z 21007KT 10SM CLR 29/24 A2995 20 76 1700 210/07 RMK AO2 SLP142 T02890244
13976KLFT LFT20190810195510208/10/19 19:55:31  5-MIN KLFT 110155Z 21007KT 10SM CLR 29/24 A2995 10 76 1700 210/07 RMK AO2 T02890244
13976KLFT LFT20190810200010208/10/19 20:00:31  5-MIN KLFT 110200Z 21008KT 10SM CLR 29/24 A2995 10 76 1700 210/08 RMK AO2 T02890244
13976KLFT LFT20190810200510208/10/19 20:05:31  5-MIN KLFT 110205Z 22008KT 10SM CLR 29/24 A2996 10 76 1700 220/08 RMK AO2 T02890244
13976KLFT LFT20190810201010208/10/19 20:10:31  5-MIN KLFT 110210Z 22007KT 10SM CLR 29/24 A2996 10 76 1600 220/07 RMK AO2 T02890244
13976KLFT LFT20190810201510108/10/19 20:15:31  5-MIN KLFT 110215Z 22007KT 10SM CLR 29/24 A2996 0 76 1600 220/07 RMK AO2 T02890244
13976KLFT LFT20190810202010108/10/19 20:20:31  5-MIN KLFT 110220Z 22007KT 10SM CLR 29/24 A2997 0 76 1600 220/07 RMK AO2 T02890244
13976KLFT LFT20190810202510108/10/19 20:25:31  5-MIN KLFT 110225Z 23006KT 10SM CLR 29/24 A2997 0 76 1600 230/06 RMK AO2 T02890244
13976KLFT LFT20190810203010108/10/19 20:30:31  5-MIN KLFT 110230Z 22006KT 10SM CLR 29/24 A2997 0 76 1600 220/06 RMK AO2 T02890244
13976KLFT LFT20190810203510108/10/19 20:35:31  5-MIN KLFT 110235Z 22006KT 10SM CLR 28/24 A2997 0 79 1600 220/06 RMK AO2 T02830244
13976KLFT LFT20190810204010108/10/19 20:40:31  5-MIN KLFT 110240Z 22006KT 10SM CLR 28/24 A2997 0 79 1600 220/06 RMK AO2 T02830244
13976KLFT LFT20190810204510108/10/19 20:45:31  5-MIN KLFT 110245Z 21006KT 10SM CLR 28/24 A2997 0 79 1600 210/06 RMK AO2 T02830244
13976KLFT LFT20190810205011408/10/19 20:50:31  5-MIN KLFT 110250Z 21007KT 10SM CLR 28/24 A2997 0 79 1600 210/07 RMK AO2 SLP148 T02830244 56003
13976KLFT LFT20190810205510108/10/19 20:55:31  5-MIN KLFT 110255Z 21007KT 10SM CLR 28/24 A2997 0 79 1600 210/07 RMK AO2 T02830244
13976KLFT LFT20190810210010108/10/19 21:00:31  5-MIN KLFT 110300Z 21005KT 10SM CLR 28/25 A2997 0 82 1600 210/05 RMK AO2 T02830250
13976KLFT LFT20190810210510108/10/19 21:05:31  5-MIN KLFT 110305Z 22007KT 10SM CLR 28/24 A2997 0 79 1600 220/07 RMK AO2 T02830244
13976KLFT LFT20190810211010108/10/19 21:10:31  5-MIN KLFT 110310Z 22006KT 10SM CLR 28/25 A2997 0 82 1600 220/06 RMK AO2 T02830250
13976KLFT LFT20190810211510108/10/19 21:15:31  5-MIN KLFT 110315Z 23005KT 10SM CLR 28/24 A2997 0 82 1500 220/05 RMK AO2 T02780244
13976KLFT LFT20190810212010108/10/19 21:20:31  5-MIN KLFT 110320Z 22006KT 10SM CLR 28/24 A2997 0 82 1500 220/06 RMK AO2 T02780244
13976KLFT LFT20190810212510108/10/19 21:25:31  5-MIN KLFT 110325Z 22005KT 10SM CLR 28/24 A2997 0 82 1500 220/05 RMK AO2 T02780244
13976KLFT LFT20190810213010108/10/19 21:30:31  5-MIN KLFT 110330Z 23006KT 10SM CLR 28/24 A2998 0 82 1500 230/06 RMK AO2 T02780244
13976KLFT LFT20190810213510108/10/19 21:35:31  5-MIN KLFT 110335Z 23005KT 10SM CLR 28/24 A2998 0 82 1500 220/05 RMK AO2 T02780244
13976KLFT LFT20190810214010108/10/19 21:40:31  5-MIN KLFT 110340Z 22005KT 10SM CLR 28/24 A2998 0 82 1500 220/05 RMK AO2 T02780244
13976KLFT LFT20190810214510108/10/19 21:45:31  5-MIN KLFT 110345Z 22005KT 10SM CLR 28/24 A2998 0 82 1500 220/05 RMK AO2 T02780244
13976KLFT LFT20190810215010808/10/19 21:50:31  5-MIN KLFT 110350Z 21006KT 10SM CLR 28/24 A2998 0 82 1500 210/06 RMK AO2 SLP150 T02780244
13976KLFT LFT20190810215510108/10/19 21:55:31  5-MIN KLFT 110355Z 21006KT 10SM CLR 28/24 A2998 0 82 1500 210/06 RMK AO2 T02780244
13976KLFT LFT20190810220010108/10/19 22:00:31  5-MIN KLFT 110400Z 22005KT 10SM CLR 28/24 A2997 0 82 1500 210/05 RMK AO2 T02780244
13976KLFT LFT20190810220510108/10/19 22:05:31  5-MIN KLFT 110405Z 22005KT 10SM CLR 28/24 A2997 0 82 1500 220/05 RMK AO2 T02780244
13976KLFT LFT20190810221010108/10/19 22:10:31  5-MIN KLFT 110410Z 21003KT 10SM CLR 27/24 A2997 0 84 1400 210/03 RMK AO2 T02720244
13976KLFT LFT20190810221510108/10/19 22:15:31  5-MIN KLFT 110415Z 22003KT 10SM CLR 27/24 A2997 0 84 1400 220/03 RMK AO2 T02720244
13976KLFT LFT20190810222010108/10/19 22:20:31  5-MIN KLFT 110420Z 22003KT 10SM CLR 27/24 A2997 0 84 1400 220/03 RMK AO2 T02720244
13976KLFT LFT20190810222510108/10/19 22:25:31  5-MIN KLFT 110425Z 20004KT 10SM CLR 27/24 A2997 0 84 1400 200/04 RMK AO2 T02720244
13976KLFT LFT20190810223010108/10/19 22:30:31  5-MIN KLFT 110430Z 22005KT 10SM CLR 27/24 A2997 0 84 1500 220/05 RMK AO2 T02720244
13976KLFT LFT20190810223510108/10/19 22:35:31  5-MIN KLFT 110435Z 22004KT 10SM CLR 27/24 A2997 0 87 1400 210/04 RMK AO2 T02670244
13976KLFT LFT20190810224010108/10/19 22:40:31  5-MIN KLFT 110440Z 21004KT 10SM CLR 27/24 A2997 0 84 1500 210/04 RMK AO2 T02720244
13976KLFT LFT20190810224510108/10/19 22:45:31  5-MIN KLFT 110445Z 22004KT 10SM CLR 27/24 A2996 0 84 1500 220/04 RMK AO2 T02720244
13976KLFT LFT20190810225010908/10/19 22:50:31  5-MIN KLFT 110450Z 22003KT 10SM CLR 27/24 A2996 10 84 1500 220/03 RMK AO2 SLP145 T02720244
13976KLFT LFT20190810225510208/10/19 22:55:31  5-MIN KLFT 110455Z 21003KT 10SM CLR 27/24 A2996 10 84 1500 210/03 RMK AO2 T02720244
13976KLFT LFT20190810230010208/10/19 23:00:31  5-MIN KLFT 110500Z 22003KT 10SM CLR 27/24 A2996 10 84 1500 220/03 RMK AO2 T02720244
13976KLFT LFT20190810230510208/10/19 23:05:31  5-MIN KLFT 110505Z 21003KT 10SM CLR 27/24 A2996 10 84 1500 210/03 RMK AO2 T02720244
13976KLFT LFT20190810231010108/10/19 23:10:31  5-MIN KLFT 110510Z 23003KT 10SM CLR 27/24 A2996 0 84 1500 230/03 RMK AO2 T02720244
13976KLFT LFT20190810231510108/10/19 23:15:31  5-MIN KLFT 110515Z 24004KT 10SM CLR 27/24 A2996 0 87 1400 240/04 RMK AO2 T02670244
13976KLFT LFT20190810232010108/10/19 23:20:31  5-MIN KLFT 110520Z 23004KT 10SM CLR 27/24 A2997 0 84 1500 230/04 RMK AO2 T02720244
13976KLFT LFT20190810232510108/10/19 23:25:31  5-MIN KLFT 110525Z 24005KT 10SM CLR 27/24 A2997 0 84 1500 240/05 RMK AO2 T02720244
13976KLFT LFT20190810233010108/10/19 23:30:31  5-MIN KLFT 110530Z 23005KT 10SM CLR 27/24 A2996 0 84 1500 230/05 RMK AO2 T02720244
13976KLFT LFT20190822164010208/22/19 16:40:31  5-MIN KLFT 222240Z VRB05KT 10SM CLR 31/24 A2993 40 67 1900 VRB/05 RMK AO2 T03060239
13976KLFT LFT20190822164510208/22/19 16:45:31  5-MIN KLFT 222245Z VRB05KT 10SM CLR 31/24 A2993 40 67 1900 VRB/05 RMK AO2 T03060239
13976KLFT LFT20190822165010908/22/19 16:50:31  5-MIN KLFT 222250Z VRB04KT 10SM CLR 31/24 A2993 40 67 1900 VRB/04 RMK AO2 SLP134 T03060239
13976KLFT LFT20190822165511808/22/19 16:55:31  5-MIN KLFT 222255Z 16007KT 110V180 10SM CLR 31/24 A2993 30 67 1900 160/07 110V180 RMK AO2 T03060239
13976KLFT LFT20190822170010208/22/19 17:00:31  5-MIN KLFT 222300Z 14004KT 10SM CLR 31/24 A2993 30 67 1900 140/04 RMK AO2 T03060239
13976KLFT LFT20190822170510208/22/19 17:05:31  5-MIN KLFT 222305Z 15006KT 10SM CLR 31/24 A2994 30 67 1900 150/06 RMK AO2 T03060239
13976KLFT LFT20190822171010208/22/19 17:10:31  5-MIN KLFT 222310Z 16006KT 10SM CLR 30/24 A2994 30 69 1800 160/06 RMK AO2 T03000239
13976KLFT LFT20190822171510508/22/19 17:15:31  5-MIN KLFT 222315Z VRB04KT 10SM FEW028 30/24 A2994 30 69 1800 VRB/04 RMK AO2 T03000239
13976KLFT LFT20190822172010508/22/19 17:20:31  5-MIN KLFT 222320Z VRB04KT 10SM FEW028 30/24 A2994 20 69 1800 VRB/04 RMK AO2 T03000239
13976KLFT LFT20190822172511208/22/19 17:25:31  5-MIN KLFT 222325Z 15004KT 10SM FEW028 FEW034 30/24 A2994 30 69 1800 150/04 RMK AO2 T03000239
13976KLFT LFT20190822173011208/22/19 17:30:31  5-MIN KLFT 222330Z 16004KT 10SM FEW028 FEW034 30/24 A2994 30 69 1800 150/04 RMK AO2 T03000239
13976KLFT LFT20190822173510508/22/19 17:35:31  5-MIN KLFT 222335Z VRB04KT 10SM FEW028 29/24 A2994 30 71 1700 VRB/04 RMK AO2 T02940239
13976KLFT LFT20190822174010508/22/19 17:40:31  5-MIN KLFT 222340Z 14003KT 10SM FEW028 29/24 A2994 30 71 1700 140/03 RMK AO2 T02940239
13976KLFT LFT20190822174510208/22/19 17:45:31  5-MIN KLFT 222345Z 13003KT 10SM CLR 29/24 A2994 30 71 1700 130/03 RMK AO2 T02940239
13976KLFT LFT20190822175013008/22/19 17:50:31  5-MIN KLFT 222350Z VRB04KT 10SM SCT031 29/24 A2994 30 71 1700 VRB/04 RMK AO2 SLP138 T02940239 10317 20267 58022
13976KLFT LFT20190822175510508/22/19 17:55:31  5-MIN KLFT 222355Z 12005KT 10SM SCT031 29/23 A2994 30 71 1700 120/05 RMK AO2 T02890233
13976KLFT LFT20190822180011908/22/19 18:00:31  5-MIN KLFT 230000Z VRB03KT 10SM SCT031 BKN050 BKN080 29/23 A2994 20 71 1700 VRB/03 RMK AO2 T02890233
13976KLFT LFT20190822180511908/22/19 18:05:31  5-MIN KLFT 230005Z 11003KT 10SM SCT031 BKN055 BKN090 29/23 A2994 30 71 1700 110/03 RMK AO2 T02890233
13976KLFT LFT20190822181011908/22/19 18:10:31  5-MIN KLFT 230010Z VRB04KT 10SM SCT031 SCT060 BKN090 29/23 A2994 30 71 1700 VRB/04 RMK AO2 T02890233
13976KLFT LFT20190822181511908/22/19 18:15:31  5-MIN KLFT 230015Z 13003KT 10SM SCT031 SCT055 SCT090 28/23 A2994 30 74 1600 130/03 RMK AO2 T02830233
13976KLFT LFT20190822182011908/22/19 18:20:31  5-MIN KLFT 230020Z 12003KT 10SM FEW031 FEW055 SCT090 28/23 A2994 30 74 1600 120/03 RMK AO2 T02830233
13976KLFT LFT20190822182511208/22/19 18:25:31  5-MIN KLFT 230025Z VRB03KT 10SM FEW055 FEW090 28/23 A2994 30 74 1600 VRB/03 RMK AO2 T02830233
13976KLFT LFT20190822183010208/22/19 18:30:31  5-MIN KLFT 230030Z 00000KT 10SM CLR 28/24 A2994 30 76 1600 000/00 RMK AO2 T02830239
13976KLFT LFT20190822183510208/22/19 18:35:31  5-MIN KLFT 230035Z 00000KT 10SM CLR 28/24 A2994 30 79 1500 000/00 RMK AO2 T02780239
13976KLFT LFT20190822184010208/22/19 18:40:31  5-MIN KLFT 230040Z 00000KT 10SM CLR 28/24 A2994 30 79 1500 000/00 RMK AO2 T02780239
13976KLFT LFT20190822184510208/22/19 18:45:31  5-MIN KLFT 230045Z 16003KT 10SM CLR 28/24 A2994 30 76 1600 160/03 RMK AO2 T02830239
13976KLFT LFT20190822185010908/22/19 18:50:31  5-MIN KLFT 230050Z 17004KT 10SM CLR 28/24 A2994 30 76 1600 170/04 RMK AO2 SLP136 T02830239
13976KLFT LFT20190822185510508/22/19 18:55:31  5-MIN KLFT 230055Z 17006KT 10SM FEW030 28/24 A2994 30 76 1600 170/06 RMK AO2 T02830239
13976KLFT LFT20190822190010508/22/19 19:00:31  5-MIN KLFT 230100Z VRB06KT 10SM FEW030 28/24 A2994 30 76 1600 VRB/06 RMK AO2 T02830239
13976KLFT LFT20190822190510508/22/19 19:05:31  5-MIN KLFT 230105Z 17006KT 10SM FEW030 28/24 A2994 20 79 1600 170/06 RMK AO2 T02830244
13976KLFT LFT20190822191010508/22/19 19:10:31  5-MIN KLFT 230110Z 17005KT 10SM FEW030 28/24 A2994 20 79 1600 170/05 RMK AO2 T02830244
13976KLFT LFT20190822191510508/22/19 19:15:31  5-MIN KLFT 230115Z 17005KT 10SM FEW030 28/24 A2994 20 79 1600 170/05 RMK AO2 T02830244
13976KLFT LFT20190822192010508/22/19 19:20:31  5-MIN KLFT 230120Z 16006KT 10SM FEW030 28/24 A2994 20 79 1600 160/06 RMK AO2 T02830244
13976KLFT LFT20190822192510508/22/19 19:25:31  5-MIN KLFT 230125Z 16005KT 10SM FEW030 28/24 A2994 20 79 1600 160/05 RMK AO2 T02830244
13976KLFT LFT20190822193010508/22/19 19:30:31  5-MIN KLFT 230130Z 16005KT 10SM FEW030 28/24 A2994 30 82 1500 160/05 RMK AO2 T02780244
13976KLFT LFT20190822193510508/22/19 19:35:31  5-MIN KLFT 230135Z 16006KT 10SM FEW030 28/24 A2994 30 82 1500 160/06 RMK AO2 T02780244
13976KLFT LFT20190822194010508/22/19 19:40:31  5-MIN KLFT 230140Z 16005KT 10SM FEW030 28/24 A2995 20 82 1500 160/05 RMK AO2 T02780244
13976KLFT LFT20190822194510508/22/19 19:45:31  5-MIN KLFT 230145Z VRB03KT 10SM FEW030 28/24 A2995 20 82 1500 VRB/03 RMK AO2 T02780244
13976KLFT LFT20190822195010908/22/19 19:50:31  5-MIN KLFT 230150Z 12004KT 10SM CLR 28/24 A2995 20 82 1500 120/04 RMK AO2 SLP140 T02780244
13976KLFT LFT20190822195510208/22/19 19:55:31  5-MIN KLFT 230155Z VRB03KT 10SM CLR 27/24 A2995 20 84 1500 VRB/03 RMK AO2 T02720244
13976KLFT LFT20190822200010208/22/19 20:00:31  5-MIN KLFT 230200Z VRB03KT 10SM CLR 27/24 A2995 20 84 1500 VRB/03 RMK AO2 T02720244
13976KLFT LFT20190822200510208/22/19 20:05:31  5-MIN KLFT 230205Z 16003KT 10SM CLR 27/24 A2995 20 84 1500 150/03 RMK AO2 T02720244
13976KLFT LFT20190822201010208/22/19 20:10:31  5-MIN KLFT 230210Z VRB04KT 10SM CLR 27/24 A2995 10 84 1500 VRB/04 RMK AO2 T02720244
13976KLFT LFT20190822201510208/22/19 20:15:31  5-MIN KLFT 230215Z VRB05KT 10SM CLR 27/24 A2996 10 82 1500 VRB/05 RMK AO2 T02720239
13976KLFT LFT20190822202010208/22/19 20:20:31  5-MIN KLFT 230220Z VRB03KT 10SM CLR 27/23 A2996 10 79 1500 VRB/03 RMK AO2 T02720233
13976KLFT LFT20190822202510208/22/19 20:25:31  5-MIN KLFT 230225Z 14004KT 10SM CLR 27/23 A2996 10 79 1500 140/04 RMK AO2 T02720233
13976KLFT LFT20190822203010208/22/19 20:30:31  5-MIN KLFT 230230Z 12004KT 10SM CLR 27/23 A2996 10 79 1500 120/04 RMK AO2 T02720233
13976KLFT LFT20190822203510208/22/19 20:35:31  5-MIN KLFT 230235Z VRB03KT 10SM CLR 27/23 A2996 10 79 1500 VRB/03 RMK AO2 T02720233
13976KLFT LFT20190822204010208/22/19 20:40:31  5-MIN KLFT 230240Z VRB03KT 10SM CLR 27/23 A2996 10 82 1400 VRB/03 RMK AO2 T02670233
13976KLFT LFT20190822204510208/22/19 20:45:31  5-MIN KLFT 230245Z 00000KT 10SM CLR 27/23 A2996 10 82 1400 000/00 RMK AO2 T02670233
13976KLFT LFT20190822205011408/22/19 20:50:31  5-MIN KLFT 230250Z 00000KT 10SM CLR 27/23 A2996 0 82 1400 000/00 RMK AO2 SLP146 T02670233 53004
13976KLFT LFT20190822205510108/22/19 20:55:31  5-MIN KLFT 230255Z 11003KT 10SM CLR 27/23 A2997 0 79 1400 110/03 RMK AO2 T02670228
13976KLFT LFT20190822210010108/22/19 21:00:31  5-MIN KLFT 230300Z 11003KT 10SM CLR 27/23 A2997 0 79 1400 110/03 RMK AO2 T02670228
13976KLFT LFT20190822210510108/22/19 21:05:31  5-MIN KLFT 230305Z 00000KT 10SM CLR 26/23 A2997 0 81 1300 000/00 RMK AO2 T02610228
13976KLFT LFT20190822211010108/22/19 21:10:31  5-MIN KLFT 230310Z 00000KT 10SM CLR 26/23 A2996 0 81 1300 000/00 RMK AO2 T02610228
13976KLFT LFT20190822211510608/22/19 21:15:31  5-MIN KLFT 230315Z AUTO 00000KT 10SM CLR 26/23 A2996 0 81 1300 000/00 RMK AO2 T02610228
13976KLFT LFT20190822212010608/22/19 21:20:31  5-MIN KLFT 230320Z AUTO 00000KT 10SM CLR 26/23 A2997 0 81 1300 000/00 RMK AO2 T02610228
13976KLFT LFT20190822212510608/22/19 21:25:31  5-MIN KLFT 230325Z AUTO 00000KT 10SM CLR 26/23 A2997 0 81 1300 000/00 RMK AO2 T02610228
13976KLFT LFT20190822213010608/22/19 21:30:31  5-MIN KLFT 230330Z AUTO 00000KT 10SM CLR 26/23 A2997 0 81 1300 000/00 RMK AO2 T02610228
13976KLFT LFT20190822213510608/22/19 21:35:31  5-MIN KLFT 230335Z AUTO 00000KT 10SM CLR 26/23 A2997 0 87 1300 000/00 RMK AO2 T02560233
13976KLFT LFT20190822214010608/22/19 21:40:31  5-MIN KLFT 230340Z AUTO 00000KT 10SM CLR 26/23 A2996 0 87 1300 000/00 RMK AO2 T02560233
13976KLFT LFT20190822214510608/22/19 21:45:31  5-MIN KLFT 230345Z AUTO 00000KT 10SM CLR 26/23 A2997 0 87 1300 000/00 RMK AO2 T02560233
13976KLFT LFT20190822215011308/22/19 21:50:31  5-MIN KLFT 230350Z AUTO 00000KT 10SM CLR 26/23 A2997 0 87 1300 000/00 RMK AO2 SLP147 T02560233
13976KLFT LFT20190822215510608/22/19 21:55:31  5-MIN KLFT 230355Z AUTO 00000KT 10SM CLR 26/23 A2997 0 87 1300 000/00 RMK AO2 T02560233
13976KLFT LFT20190822220010608/22/19 22:00:31  5-MIN KLFT 230400Z AUTO 00000KT 10SM CLR 26/23 A2997 0 87 1300 000/00 RMK AO2 T02560233
13976KLFT LFT20190822220510608/22/19 22:05:31  5-MIN KLFT 230405Z AUTO 00000KT 10SM CLR 26/23 A2996 0 87 1300 000/00 RMK AO2 T02560233
13976KLFT LFT20190822221010708/22/19 22:10:31  5-MIN KLFT 230410Z AUTO 00000KT 10SM CLR 26/23 A2996 10 87 1300 000/00 RMK AO2 T02560233
13976KLFT LFT20190822221510708/22/19 22:15:31  5-MIN KLFT 230415Z AUTO 08003KT 10SM CLR 25/23 A2996 10 90 1200 070/03 RMK AO2 T02500233
13976KLFT LFT20190822222010708/22/19 22:20:31  5-MIN KLFT 230420Z AUTO 08003KT 10SM CLR 25/23 A2996 10 90 1200 070/03 RMK AO2 T02500233
13976KLFT LFT20190822222510708/22/19 22:25:31  5-MIN KLFT 230425Z AUTO 08003KT 10SM CLR 25/23 A2996 10 90 1200 080/03 RMK AO2 T02500233
13976KLFT LFT20190822223010708/22/19 22:30:31  5-MIN KLFT 230430Z AUTO 08003KT 10SM CLR 25/23 A2995 10 90 1200 080/03 RMK AO2 T02500233
13976KLFT LFT20190822223510708/22/19 22:35:31  5-MIN KLFT 230435Z AUTO 00000KT 10SM CLR 25/23 A2995 10 90 1200 000/00 RMK AO2 T02500233
13976KLFT LFT20190822224010708/22/19 22:40:31  5-MIN KLFT 230440Z AUTO 00000KT 10SM CLR 25/23 A2995 10 90 1200 000/00 RMK AO2 T02500233
13976KLFT LFT20190822224510708/22/19 22:45:31  5-MIN KLFT 230445Z AUTO 00000KT 10SM CLR 25/23 A2995 10 90 1200 000/00 RMK AO2 T02500233
13976KLFT LFT20190822225011408/22/19 22:50:31  5-MIN KLFT 230450Z AUTO 00000KT 10SM CLR 25/23 A2995 10 90 1200 000/00 RMK AO2 SLP142 T02500233
13976KLFT LFT20190822225510708/22/19 22:55:31  5-MIN KLFT 230455Z AUTO 00000KT 10SM CLR 25/23 A2995 10 90 1200 000/00 RMK AO2 T02500233
13976KLFT LFT20190822230010708/22/19 23:00:31  5-MIN KLFT 230500Z AUTO 00000KT 10SM CLR 25/23 A2995 10 90 1200 000/00 RMK AO2 T02500233
13976KLFT LFT20190822230511008/22/19 23:05:31  5-MIN KLFT 230505Z AUTO 00000KT 10SM FEW023 25/23 A2995 10 90 1200 000/00 RMK AO2 T02500233
13976KLFT LFT20190822231011008/22/19 23:10:31  5-MIN KLFT 230510Z AUTO 00000KT 10SM SCT023 25/23 A2995 10 90 1200 000/00 RMK AO2 T02500233
13976KLFT LFT20190822231511008/22/19 23:15:31  5-MIN KLFT 230515Z AUTO 00000KT 10SM SCT023 25/23 A2995 20 90 1200 000/00 RMK AO2 T02500233
13976KLFT LFT20190822232011008/22/19 23:20:31  5-MIN KLFT 230520Z AUTO 00000KT 10SM FEW023 25/23 A2995 20 90 1200 000/00 RMK AO2 T02500233
13976KLFT LFT20190822232511008/22/19 23:25:31  5-MIN KLFT 230525Z AUTO 00000KT 10SM FEW023 25/23 A2995 20 90 1200 000/00 RMK AO2 T02500233
13976KLFT LFT20190822233011008/22/19 23:30:31  5-MIN KLFT 230530Z AUTO 00000KT 10SM FEW023 25/23 A2995 20 90 1200 000/00 RMK AO2 T02500233
13976KLFT LFT20190822233511008/22/19 23:35:31  5-MIN KLFT 230535Z AUTO 00000KT 10SM FEW023 25/23 A2995 10 90 1200 000/00 RMK AO2 T02500233
13976KLFT LFT20190822234010708/22/19 23:40:31  5-MIN KLFT 230540Z AUTO 00000KT 10SM CLR 25/23 A2996 10 90 1200 000/00 RMK AO2 T02500233
13976KLFT LFT20190822234510708/22/19 23:45:31  5-MIN KLFT 230545Z AUTO 02003KT 10SM CLR 24/23 A2995 10 93 1200 020/03 RMK AO2 T02440233
13976KLFT LFT20190822235014208/22/19 23:50:31  5-MIN KLFT 230550Z AUTO 03003KT 10SM CLR 24/23 A2995 10 93 1200 030/03 RMK AO2 SLP143 T02440233 10289 20244 403170239 53008
13976KLFT LFT20190822235510708/22/19 23:55:31  5-MIN KLFT 230555Z AUTO 03003KT 10SM CLR 24/23 A2995 10 93 1200 030/03 RMK AO2 T02440233
13976KLFT LFT20190823000010708/23/19 00:00:31  5-MIN KLFT 230600Z AUTO 06003KT 10SM CLR 24/23 A2995 20 93 1200 060/03 RMK AO2 T02440233
13976KLFT LFT20190823000510708/23/19 00:05:31  5-MIN KLFT 230605Z AUTO 00000KT 10SM CLR 24/23 A2995 20 93 1200 000/00 RMK AO2 T02440233
13976KLFT LFT20190823001010708/23/19 00:10:31  5-MIN KLFT 230610Z AUTO 00000KT 10SM CLR 24/23 A2995 20 93 1200 000/00 RMK AO2 T02440233
13976KLFT LFT20190823001510708/23/19 00:15:31  5-MIN KLFT 230615Z AUTO 00000KT 10SM CLR 24/23 A2995 10 93 1200 000/00 RMK AO2 T02440233
13976KLFT LFT20190823002010708/23/19 00:20:31  5-MIN KLFT 230620Z AUTO 00000KT 10SM CLR 24/23 A2995 10 93 1200 000/00 RMK AO2 T02440233
13976KLFT LFT20190823002510708/23/19 00:25:31  5-MIN KLFT 230625Z AUTO 02003KT 10SM CLR 24/23 A2996 10 93 1200 020/03 RMK AO2 T02440233
13976KLFT LFT20190823003010708/23/19 00:30:31  5-MIN KLFT 230630Z AUTO 01003KT 10SM CLR 24/23 A2995 10 93 1200 010/03 RMK AO2 T02440233
13976KLFT LFT20190823003510708/23/19 00:35:31  5-MIN KLFT 230635Z AUTO 00000KT 10SM CLR 25/23 A2995 10 90 1200 000/00 RMK AO2 T02500233
13976KLFT LFT20190823004010708/23/19 00:40:31  5-MIN KLFT 230640Z AUTO 04003KT 10SM CLR 25/23 A2995 10 90 1200 040/03 RMK AO2 T02500233
13976KLFT LFT20190823004510708/23/19 00:45:31  5-MIN KLFT 230645Z AUTO 04003KT 10SM CLR 25/23 A2995 10 90 1200 040/03 RMK AO2 T02500233
13976KLFT LFT20190823005011408/23/19 00:50:31  5-MIN KLFT 230650Z AUTO 01003KT 10SM CLR 25/23 A2995 10 90 1200 010/03 RMK AO2 SLP142 T02500233
13976KLFT LFT20190823005510708/23/19 00:55:31  5-MIN KLFT 230655Z AUTO 00000KT 10SM CLR 25/23 A2995 10 90 1200 000/00 RMK AO2 T02500233
13976KLFT LFT20190823010010708/23/19 01:00:31  5-MIN KLFT 230700Z AUTO 00000KT 10SM CLR 25/23 A2995 20 90 1200 000/00 RMK AO2 T02500233
13976KLFT LFT20190823010510708/23/19 01:05:31  5-MIN KLFT 230705Z AUTO 00000KT 10SM CLR 25/23 A2995 20 90 1200 000/00 RMK AO2 T02500233
13976KLFT LFT20190823011010708/23/19 01:10:31  5-MIN KLFT 230710Z AUTO 00000KT 10SM CLR 25/23 A2995 20 90 1200 000/00 RMK AO2 T02500233
13976KLFT LFT20190823011510708/23/19 01:15:31  5-MIN KLFT 230715Z AUTO 00000KT 10SM CLR 25/23 A2995 20 90 1200 000/00 RMK AO2 T02500233
13976KLFT LFT20190823012010708/23/19 01:20:31  5-MIN KLFT 230720Z AUTO 04003KT 10SM CLR 24/23 A2995 20 93 1200 040/03 RMK AO2 T02440233
13976KLFT LFT20190823012510708/23/19 01:25:31  5-MIN KLFT 230725Z AUTO 00000KT 10SM CLR 24/23 A2994 20 93 1200 000/00 RMK AO2 T02440233
13976KLFT LFT20190823013010708/23/19 01:30:31  5-MIN KLFT 230730Z AUTO 00000KT 10SM CLR 24/23 A2994 20 93 1200 000/00 RMK AO2 T02440233
13976KLFT LFT20190823013510708/23/19 01:35:31  5-MIN KLFT 230735Z AUTO 04003KT 10SM CLR 24/23 A2994 20 93 1200 040/03 RMK AO2 T02440233
13976KLFT LFT20190823014010708/23/19 01:40:31  5-MIN KLFT 230740Z AUTO 00000KT 10SM CLR 24/23 A2994 20 93 1200 000/00 RMK AO2 T02440233
13976KLFT LFT20190823014510708/23/19 01:45:31  5-MIN KLFT 230745Z AUTO 00000KT 10SM CLR 24/23 A2994 20 93 1200 000/00 RMK AO2 T02440233
13976KLFT LFT20190823015011408/23/19 01:50:31  5-MIN KLFT 230750Z AUTO 00000KT 10SM CLR 24/23 A2994 20 93 1200 000/00 RMK AO2 SLP139 T02440233
13976KLFT LFT20190823015510708/23/19 01:55:31  5-MIN KLFT 230755Z AUTO 00000KT 10SM CLR 24/23 A2994 20 93 1200 000/00 RMK AO2 T02440233
13976KLFT LFT20190823020010708/23/19 02:00:31  5-MIN KLFT 230800Z AUTO 00000KT 10SM CLR 24/23 A2994 20 93 1200 000/00 RMK AO2 T02440233
13976KLFT LFT20190823020511908/23/19 02:05:31  5-MIN KLFT 230805Z AUTO 00000KT 10SM CLR 24/24 A2994 20 97 1200 000/00 RMK AO2 LTG DSNT SW T02440239
13976KLFT LFT20190823021011908/23/19 02:10:31  5-MIN KLFT 230810Z AUTO 08003KT 10SM CLR 24/24 A2994 20 97 1200 080/03 RMK AO2 LTG DSNT SW T02440239
13976KLFT LFT20190823021512208/23/19 02:15:31  5-MIN KLFT 230815Z AUTO 00000KT 10SM FEW021 24/24 A2994 20 97 1200 000/00 RMK AO2 LTG DSNT SW T02440239
13976KLFT LFT20190823022012208/23/19 02:20:31  5-MIN KLFT 230820Z AUTO 00000KT 10SM FEW021 24/24 A2994 20 97 1200 000/00 RMK AO2 LTG DSNT SW T02440239
13976KLFT LFT20190823022512208/23/19 02:25:31  5-MIN KLFT 230825Z AUTO 05003KT 10SM FEW021 24/24 A2994 20 97 1200 050/03 RMK AO2 LTG DSNT SW T02440239
13976KLFT LFT20190823023012208/23/19 02:30:31  5-MIN KLFT 230830Z AUTO 00000KT 10SM SCT021 24/24 A2994 20 97 1200 000/00 RMK AO2 LTG DSNT SW T02440239
13976KLFT LFT20190823023512208/23/19 02:35:31  5-MIN KLFT 230835Z AUTO 00000KT 10SM SCT021 24/24 A2994 30 97 1200 000/00 RMK AO2 LTG DSNT SW T02440239
13976KLFT LFT20190823024012208/23/19 02:40:31  5-MIN KLFT 230840Z AUTO 00000KT 10SM SCT021 25/24 A2994 30 93 1200 000/00 RMK AO2 LTG DSNT SW T02500239
13976KLFT LFT20190823024512208/23/19 02:45:31  5-MIN KLFT 230845Z AUTO 00000KT 10SM SCT021 25/24 A2994 30 93 1200 000/00 RMK AO2 LTG DSNT SW T02500239
13976KLFT LFT20190823025013808/23/19 02:50:31  5-MIN KLFT 230850Z AUTO 00000KT 10SM FEW021 24/24 A2994 30 97 1200 000/00 RMK AO2 LTG DSNT SE-SW SLP138 T02440239 57004
13976KLFT LFT20190823025513908/23/19 02:55:31  5-MIN KLFT 230855Z AUTO VRB03KT 10SM FEW021 SCT032 SCT060 25/24 A2994 30 93 1200 VRB/03 RMK AO2 LTG DSNT SE-SW T02500239
13976KLFT LFT20190823030013908/23/19 03:00:31  5-MIN KLFT 230900Z AUTO 00000KT 10SM FEW021 SCT025 SCT034 24/24 A2994 20 97 1200 000/00 RMK AO2 LTG DSNT SE-SW T02440239
13976KLFT LFT20190823030514408/23/19 03:05:31  5-MIN KLFT 230905Z AUTO 00000KT 10SM VCTS SCT023 SCT034 BKN065 25/24 A2994 20 93 1200 000/00 RMK AO2 LTG DSNT SE-SW T02500239
13976KLFT LFT20190823031014208/23/19 03:10:31  5-MIN KLFT 230910Z AUTO 19004KT 10SM VCTS SCT020 SCT025 BKN055 25/24 A2995 20 93 1200 190/04 RMK AO2 LTG DSNT S-W T02500239
13976KLFT LFT20190823031514208/23/19 03:15:31  5-MIN KLFT 230915Z AUTO 21005KT 10SM VCTS SCT020 BKN031 BKN055 25/24 A2995 10 93 1200 210/05 RMK AO2 LTG DSNT S-W T02500239
13976KLFT LFT20190823032014608/23/19 03:20:31  5-MIN KLFT 230920Z AUTO 24006KT 10SM VCTS SCT005 BKN022 BKN031 25/24 A2995 10 93 1200 240/06 RMK AO2 LTG DSNT S AND W T02500239
13976KLFT LFT20190823032514208/23/19 03:25:31  5-MIN KLFT 230925Z AUTO 22005KT 10SM VCTS BKN005 BKN022 OVC065 25/24 A2995 10 93 1200 220/05 RMK AO2 LTG DSNT S-W T02500239
13976KLFT LFT20190823033016008/23/19 03:30:31  5-MIN KLFT 230930Z AUTO 23005KT 4SM VCTS -RA BR BKN005 BKN020 OVC065 25/24 A2995 10 93 1200 230/05 RMK AO2 LTG DSNT S-W RAB27 P0003 T02500239
13976KLFT LFT20190823033516208/23/19 03:35:31  5-MIN KLFT 230935Z AUTO 24005KT 1 3/4SM VCTS +RA BR BKN005 OVC022 25/24 A2995 20 93 1200 230/05 RMK AO2 LTG DSNT SW AND W RAB27 P0007 T02500239
13976KLFT LFT20190823034016508/23/19 03:40:31  5-MIN KLFT 230940Z AUTO 20004KT 2 1/2SM VCTS -RA BR BKN007 BKN020 OVC041 25/24 A2995 10 93 1200 200/04 RMK AO2 LTG DSNT S-NW RAB27 P0008 T02500239
13976KLFT LFT20190823034515108/23/19 03:45:31  5-MIN KLFT 230945Z AUTO 00000KT 8SM VCTS -RA BKN007 BKN041 25/24 A2995 10 93 1200 000/00 RMK AO2 LTG DSNT S-NW RAB27 P0008 T02500239
13976KLFT LFT20190823035014208/23/19 03:50:31  5-MIN KLFT 230950Z AUTO 00000KT 10SM VCTS -RA SCT006 BKN039 25/24 A2996 10 93 1200 000/00 RMK AO2 LTG DSNT S-NW RAB27 P0008
13976KLFT LFT20190823035514308/23/19 03:55:31  5-MIN KLFT 230955Z AUTO VRB03KT 4SM +RA BR FEW006 BKN043 25/24 A2996 10 93 1200 VRB/03 RMK AO2 LTG DSNT S-NW P0002 T02500239
13976KLFT LFT20190823040014708/23/19 04:00:31  5-MIN KLFT 231000Z AUTO 06003KT 3SM +RA BR FEW007 BKN043 BKN075 25/24 A2995 10 97 1200 060/03 RMK AO2 LTG DSNT S P0003 T02500244
13976KLFT LFT20190823040514708/23/19 04:05:31  5-MIN KLFT 231005Z AUTO 06005KT 4SM +RA BR SCT045 BKN080 BKN110 25/24 A2995 20 93 1200 060/05 RMK AO2 LTG DSNT S P0004 T02500239
13976KLFT LFT20190823041014608/23/19 04:10:31  5-MIN KLFT 231010Z AUTO 06004KT 6SM RA BR FEW043 SCT075 BKN100 25/24 A2995 20 93 1200 060/04 RMK AO2 LTG DSNT S P0004 T02500239
13976KLFT LFT20190823041515108/23/19 04:15:31  5-MIN KLFT 231015Z AUTO 08004KT 9SM -RA FEW045 SCT080 OVC100 25/24 A2995 20 93 1200 080/04 RMK AO2 LTG DSNT SE AND S P0004 T02500239
13976KLFT LFT20190823042015208/23/19 04:20:31  5-MIN KLFT 231020Z AUTO 00000KT 10SM -RA FEW045 SCT075 BKN110 25/24 A2995 20 93 1200 000/00 RMK AO2 LTG DSNT SE AND S P0004 T02500239
13976KLFT LFT20190823042513708/23/19 04:25:31  5-MIN KLFT 231025Z 00000KT 10SM FEW075 BKN100 25/24 A2995 20 93 1200 000/00 RMK AO2 LTG DSNT E-S RAE21 P0004 T02500239
13976KLFT LFT20190823043014408/23/19 04:30:31  5-MIN KLFT 231030Z 00000KT 10SM FEW075 FEW085 SCT100 25/24 A2995 20 93 1200 000/00 RMK AO2 LTG DSNT E-S RAE21 P0004 T02500239
13976KLFT LFT20190823043513508/23/19 04:35:31  5-MIN KLFT 231035Z 00000KT 10SM -RA FEW100 SCT110 25/24 A2995 10 93 1200 000/00 RMK AO2 LTG DSNT E-S P0004 T02500239
13976KLFT LFT20190823044013508/23/19 04:40:31  5-MIN KLFT 231040Z 00000KT 10SM -RA FEW075 SCT100 25/24 A2995 20 93 1200 000/00 RMK AO2 LTG DSNT E-S P0004 T02500239
13976KLFT LFT20190823044512708/23/19 04:45:31  5-MIN KLFT 231045Z 00000KT 9SM -RA BKN100 25/24 A2995 20 93 1200 000/00 RMK AO2 LTG DSNT E-S P0004 T02500239
13976KLFT LFT20190823045014208/23/19 04:50:31  5-MIN KLFT 231050Z 11003KT 9SM -RA SCT095 BKN110 24/24 A2995 20 97 1200 110/03 RMK AO2 LTG DSNT E-SW SLP141 P0004 T02440239
13976KLFT LFT20190823045514108/23/19 04:55:31  5-MIN KLFT 231055Z 12003KT 10SM VCTS -RA BKN095 BKN110 24/24 A2996 10 97 1100 120/03 RMK AO2 LTG DSNT E-SW P0000 T02440239
13976KLFT LFT20190823050015208/23/19 05:00:31  5-MIN KLFT 231100Z 12004KT 10SM -TSRA FEW046 BKN095 BKN110 24/23 A2997 0 93 1100 120/04 RMK AO2 LTG DSNT E-SW TSB1059 P0000 T02440233
13976KLFT LFT20190823050515808/23/19 05:05:31  5-MIN KLFT 231105Z VRB04KT 10SM -TSRA FEW043 BKN090 OVC110 24/23 A2997 0 93 1100 VRB/04 RMK AO2 LTG DSNT E-S TSB1059 PRESRR P0000 T02440233
13976KLFT LFT20190823051015608/23/19 05:10:31  5-MIN KLFT 231110Z VRB03KT 10SM -TSRA FEW043 BKN090 OVC110 24/23 A2998 0 93 1100 VRB/03 RMK AO2 LTG DSNT E AND SE TSB1059 P0000 T02440233
13976KLFT LFT20190823051515008/23/19 05:15:31  5-MIN KLFT 231115Z 09003KT 10SM -TSRA FEW042 FEW070 OVC090 24/23 A2998 0 93 1100 090/03 RMK AO2 LTG DSNT SE TSB1059 P0000 T02440233
13976KLFT LFT20190823052015008/23/19 05:20:31  5-MIN KLFT 231120Z VRB04KT 10SM -TSRA FEW042 BKN090 BKN110 24/23 A2998 0 93 1100 VRB/04 RMK AO2 LTG DSNT SE TSB1059 P0000 T02440233
13976KLFT LFT20190823052515508/23/19 05:25:31  5-MIN KLFT 231125Z VRB04KT 10SM -TSRA FEW043 BKN090 BKN120 24/23 A2998 0 93 1100 VRB/04 RMK AO2 LTG DSNT E AND S TSB1059 P0000 T02440233
13976KLFT LFT20190823053016108/23/19 05:30:31  5-MIN KLFT 231130Z VRB04KT 10SM VCTS -RA FEW009 SCT090 BKN120 24/23 A2998 0 93 1100 VRB/04 RMK AO2 LTG DSNT E AND S TSB1059E27 P0000 T02440233
13976KLFT LFT20190823053516308/23/19 05:35:31  5-MIN KLFT 231135Z VRB05KT 10SM VCTS -RA SCT009 SCT046 BKN090 24/23 A2998 -10 93 1100 VRB/05 RMK AO2 LTG DSNT E AND S TSB1059E27 P0000 T02440233
13976KLFT LFT20190823054015208/23/19 05:40:31  5-MIN KLFT 231140Z VRB05KT 10SM -RA SCT009 SCT085 BKN120 24/23 A2998 -10 93 1100 VRB/05 RMK AO2 LTG DSNT E TSB1059E27 P0000 T02390228
13976KLFT LFT20190823054513908/23/19 05:45:31  5-MIN KLFT 231145Z VRB04KT 10SM VCTS -RA FEW009 SCT120 24/22 A2998 -10 90 1100 VRB/04 RMK AO2 TSB1059E27 P0000 T02390222
13976KLFT LFT20190823055016908/23/19 05:50:31  5-MIN KLFT 231150Z VRB03KT 10SM VCTS -RA FEW009 24/22 A2998 -10 90 1100 VRB/03 RMK AO2 TSB1059E27 SLP152 P0000 60014 70014 T02390222 10250 20239 53008
13976KLFT LFT20190823055512108/23/19 05:55:31  5-MIN KLFT 231155Z VRB03KT 10SM VCTS -RA FEW009 23/22 A2998 -10 93 1000 VRB/03 RMK AO2 P0000 T02330222
13976KLFT LFT20190823060011608/23/19 06:00:31  5-MIN KLFT 231200Z 16004KT 10SM -RA FEW008 23/22 A2998 -10 93 1000 160/04 RMK AO2 P0000 T02330222
13976KLFT LFT20190823060511308/23/19 06:05:31  5-MIN KLFT 231205Z 12003KT 10SM -RA CLR 23/22 A2998 -10 93 1000 120/03 RMK AO2 P0000 T02330222
13976KLFT LFT20190823061011108/23/19 06:10:31  5-MIN KLFT 231210Z VRB03KT 10SM -RA CLR 23/22 A2998 0 93 1000 VRB/03 RMK AO2 P0000 T02330222
13976KLFT LFT20190823061511308/23/19 06:15:31  5-MIN KLFT 231215Z 00000KT 10SM -RA CLR 23/22 A2998 -10 93 1000 000/00 RMK AO2 P0000 T02330222
13976KLFT LFT20190823062012908/23/19 06:20:31  5-MIN KLFT 231220Z 17003KT 6SM RA BR FEW120 23/22 A2998 -10 93 1000 170/03 RMK AO2 LTG DSNT SW P0001 T02330222
13976KLFT LFT20190823062513008/23/19 06:25:31  5-MIN KLFT 231225Z 17005KT 3SM +RA BR SCT110 23/22 A2998 -10 93 1000 170/05 RMK AO2 LTG DSNT SW P0003 T02330222
13976KLFT LFT20190823063014708/23/19 06:30:31  5-MIN KLFT 231230Z 17004KT 2 1/2SM +RA BR SCT100 BKN120 23/22 A2999 -10 93 1000 170/04 RMK AO2 LTG DSNT SW AND W P0005 T02330222
13976KLFT LFT20190823063514708/23/19 06:35:31  5-MIN KLFT 231235Z 17005KT 2 1/2SM +RA BR SCT095 BKN120 23/22 A2999 -10 93 1000 170/05 RMK AO2 LTG DSNT SW AND W P0006 T02330222
13976KLFT LFT20190823064013608/23/19 06:40:31  5-MIN KLFT 231240Z 17004KT 3SM +RA BR BKN100 BKN120 23/22 A2999 -10 93 1000 170/04 RMK AO2 LTG DSNT W P0008 T02330222
13976KLFT LFT20190823064512508/23/19 06:45:31  5-MIN KLFT 231245Z 15003KT 3SM +RA BR BKN095 BKN120 23/22 A2999 -10 93 1000 150/03 RMK AO2 P0009 T02330222
13976KLFT LFT20190823065013108/23/19 06:50:31  5-MIN KLFT 231250Z VRB03KT 4SM RA BR SCT100 BKN120 23/22 A2998 -10 93 1000 VRB/03 RMK AO2 SLP152 P0010 T02330222
13976KLFT LFT20190823065512308/23/19 06:55:31  5-MIN KLFT 231255Z VRB03KT 5SM +RA BR SCT095 BKN120 23/23 A2998 0 97 1000 VRB/03 RMK AO2 P0000 T02330228
13976KLFT LFT20190823070012208/23/19 07:00:31  5-MIN KLFT 231300Z 00000KT 5SM RA BR FEW095 BKN120 23/23 A2998 0 97 1000 000/00 RMK AO2 P0001 T02330228
13976KLFT LFT20190823070511508/23/19 07:05:31  5-MIN KLFT 231305Z 14003KT 5SM RA BR BKN110 23/23 A2998 0 97 1000 140/03 RMK AO2 P0002 T02330228
13976KLFT LFT20190823071011508/23/19 07:10:31  5-MIN KLFT 231310Z VRB03KT 4SM RA BR BKN110 23/23 A2998 0 97 1000 VRB/03 RMK AO2 P0003 T02330228
13976KLFT LFT20190823071511508/23/19 07:15:31  5-MIN KLFT 231315Z 00000KT 4SM RA BR BKN110 23/23 A2998 0 97 1000 000/00 RMK AO2 P0003 T02330228
13976KLFT LFT20190823072011508/23/19 07:20:31  5-MIN KLFT 231320Z 00000KT 6SM RA BR BKN110 23/23 A2998 0 97 1000 000/00 RMK AO2 P0004 T02330228
13976KLFT LFT20190823072511508/23/19 07:25:31  5-MIN KLFT 231325Z 00000KT 8SM -RA BKN110 23/23 A2998 -10 97 1000 000/00 RMK AO2 P0004 T02330228
13976KLFT LFT20190823073011408/23/19 07:30:31  5-MIN KLFT 231330Z 00000KT 10SM -RA BKN110 23/23 A2998 0 97 1000 000/00 RMK AO2 P0004 T02330228
13976KLFT LFT20190823073511408/23/19 07:35:31  5-MIN KLFT 231335Z 00000KT 10SM -RA SCT110 24/23 A2998 0 93 1100 000/00 RMK AO2 P0004 T02390228
13976KLFT LFT20190823074012908/23/19 07:40:31  5-MIN KLFT 231340Z 16003KT 9SM -RA FEW075 SCT095 SCT120 24/23 A2998 -10 97 1100 160/03 RMK AO2 P0004 T02390233
13976KLFT LFT20190823074513008/23/19 07:45:31  5-MIN KLFT 231345Z 16003KT 10SM -RA FEW075 SCT095 SCT120 24/23 A2999 -10 93 1100 160/03 RMK AO2 P0004 T02390228
13976KLFT LFT20190823075013908/23/19 07:50:31  5-MIN KLFT 231350Z 16003KT 10SM FEW075 SCT090 BKN110 24/23 A2999 -10 93 1000 160/03 RMK AO2 RAE47 SLP154 P0004 T02390228
13976KLFT LFT20190823075512008/23/19 07:55:31  5-MIN KLFT 231355Z 00000KT 10SM FEW075 SCT095 SCT120 24/23 A2999 -10 93 1100 000/00 RMK AO2 T02440233
13976KLFT LFT20190823080012008/23/19 08:00:31  5-MIN KLFT 231400Z 00000KT 10SM FEW075 FEW090 SCT110 24/23 A2999 -10 93 1100 000/00 RMK AO2 T02440233
13976KLFT LFT20190823080512008/23/19 08:05:31  5-MIN KLFT 231405Z 12003KT 10SM FEW075 SCT090 BKN110 24/23 A2999 -10 93 1100 120/03 RMK AO2 T02440233
13976KLFT LFT20190823081011308/23/19 08:10:31  5-MIN KLFT 231410Z 00000KT 10SM FEW075 BKN100 25/23 A2999 -10 90 1200 000/00 RMK AO2 T02500233
13976KLFT LFT20190823081511308/23/19 08:15:31  5-MIN KLFT 231415Z 00000KT 10SM FEW090 SCT110 25/23 A2999 -20 90 1200 000/00 RMK AO2 T02500233
13976KLFT LFT20190823082010608/23/19 08:20:31  5-MIN KLFT 231420Z 00000KT 10SM FEW100 26/24 A2999 -20 90 1200 000/00 RMK AO2 T02560239
13976KLFT LFT20190823082510608/23/19 08:25:31  5-MIN KLFT 231425Z 00000KT 10SM FEW100 26/23 A2999 -20 87 1200 000/00 RMK AO2 T02560233
13976KLFT LFT20190823083010608/23/19 08:30:31  5-MIN KLFT 231430Z 00000KT 10SM FEW100 26/24 A2999 -20 90 1200 000/00 RMK AO2 T02560239
13976KLFT LFT20190823083510308/23/19 08:35:31  5-MIN KLFT 231435Z 12003KT 10SM CLR 26/24 A2999 -20 90 1200 120/03 RMK AO2 T02560239
13976KLFT LFT20190823084010308/23/19 08:40:31  5-MIN KLFT 231440Z 00000KT 10SM CLR 26/24 A2999 -20 90 1200 000/00 RMK AO2 T02560239
13976KLFT LFT20190823084510608/23/19 08:45:31  5-MIN KLFT 231445Z 17005KT 10SM FEW027 26/24 A2999 -20 90 1200 160/05 RMK AO2 T02560239
13976KLFT LFT20190823085013208/23/19 08:50:31  5-MIN KLFT 231450Z VRB03KT 10SM SCT027 SCT036 26/24 A2999 -20 90 1200 VRB/03 RMK AO2 SLP156 60014 T02560239 53008
13976KLFT LFT20190823085511308/23/19 08:55:31  5-MIN KLFT 231455Z 16004KT 10SM SCT029 SCT036 26/23 A3000 -20 87 1200 160/04 RMK AO2 T02560233
13976KLFT LFT20190823090011308/23/19 09:00:31  5-MIN KLFT 231500Z 17005KT 10SM FEW029 SCT035 26/23 A2999 -20 87 1200 170/05 RMK AO2 T02560233
13976KLFT LFT20190823090511308/23/19 09:05:31  5-MIN KLFT 231505Z VRB03KT 10SM FEW029 SCT035 26/23 A3000 -20 87 1200 VRB/03 RMK AO2 T02560233
13976KLFT LFT20190823091011308/23/19 09:10:31  5-MIN KLFT 231510Z 00000KT 10SM FEW028 FEW036 26/23 A3000 -20 87 1200 000/00 RMK AO2 T02560233
13976KLFT LFT20190823091511308/23/19 09:15:31  5-MIN KLFT 231515Z VRB03KT 10SM FEW028 FEW036 26/23 A3000 -30 87 1200 VRB/03 RMK AO2 T02560233
13976KLFT LFT20190823092010308/23/19 09:20:31  5-MIN KLFT 231520Z 11003KT 10SM CLR 26/23 A3001 -30 87 1200 110/03 RMK AO2 T02560233
13976KLFT LFT20190823092510308/23/19 09:25:31  5-MIN KLFT 231525Z 00000KT 10SM CLR 26/23 A3001 -30 87 1200 000/00 RMK AO2 T02560233
13976KLFT LFT20190823093010308/23/19 09:30:31  5-MIN KLFT 231530Z 00000KT 10SM CLR 26/23 A3001 -30 87 1200 000/00 RMK AO2 T02560233
13976KLFT LFT20190823093510308/23/19 09:35:31  5-MIN KLFT 231535Z 00000KT 10SM CLR 26/23 A3001 -30 87 1200 000/00 RMK AO2 T02560233
13976KLFT LFT20190823094011308/23/19 09:40:31  5-MIN KLFT 231540Z 11003KT 10SM FEW048 FEW075 26/23 A3001 -30 87 1200 110/03 RMK AO2 T02560233
13976KLFT LFT20190823094513608/23/19 09:45:31  5-MIN KLFT 231545Z 12004KT 10SM -RA FEW048 FEW075 BKN100 26/23 A3001 -30 87 1200 120/04 RMK AO2 RAB42 P0000 T02560233
13976KLFT LFT20190823095014308/23/19 09:50:31  5-MIN KLFT 231550Z 12003KT 10SM -RA FEW048 SCT090 BKN110 25/23 A3001 -30 90 1200 120/03 RMK AO2 RAB42 SLP160 P0000 T02500233
13976KLFT LFT20190823095513008/23/19 09:55:31  5-MIN KLFT 231555Z 12003KT 10SM -RA FEW048 SCT075 BKN100 25/23 A3001 -30 90 1200 120/03 RMK AO2 P0000 T02500233
13976KLFT LFT20190823100013008/23/19 10:00:31  5-MIN KLFT 231600Z 00000KT 10SM -RA SCT050 BKN070 OVC120 25/23 A3000 -30 90 1200 000/00 RMK AO2 P0000 T02500233
13976KLFT LFT20190823100513008/23/19 10:05:31  5-MIN KLFT 231605Z 00000KT 10SM -RA SCT048 BKN070 OVC100 25/24 A3000 -30 93 1200 000/00 RMK AO2 P0000 T02500239
13976KLFT LFT20190823101013208/23/19 10:10:31  5-MIN KLFT 231610Z 11003KT 10SM FEW043 SCT050 BKN070 25/23 A3000 -20 90 1200 110/03 RMK AO2 RAE10 P0000 T02500233
13976KLFT LFT20190823101513208/23/19 10:15:31  5-MIN KLFT 231615Z 00000KT 10SM SCT043 BKN050 BKN075 25/24 A3000 -20 93 1200 000/00 RMK AO2 RAE10 P0000 T02500239
13976KLFT LFT20190823102013208/23/19 10:20:31  5-MIN KLFT 231620Z 00000KT 10SM BKN043 BKN055 BKN070 25/24 A2999 -20 93 1200 000/00 RMK AO2 RAE10 P0000 T02500239
13976KLFT LFT20190823102512508/23/19 10:25:31  5-MIN KLFT 231625Z 00000KT 10SM BKN046 BKN060 25/24 A2999 -20 93 1200 000/00 RMK AO2 RAE10 P0000 T02500239
13976KLFT LFT20190823103013208/23/19 10:30:31  5-MIN KLFT 231630Z 00000KT 10SM -RA BKN046 OVC060 25/24 A2999 -20 93 1200 000/00 RMK AO2 RAE10B27 P0000 T02500239
13976KLFT LFT20190823103513208/23/19 10:35:31  5-MIN KLFT 231635Z 10003KT 10SM -RA BKN046 OVC060 25/24 A2999 -10 93 1200 100/03 RMK AO2 RAE10B27 P0000 T02500239
13976KLFT LFT20190823104013208/23/19 10:40:31  5-MIN KLFT 231640Z 00000KT 10SM -RA BKN048 OVC060 26/24 A2999 -10 90 1200 000/00 RMK AO2 RAE10B27 P0000 T02560239
13976KLFT LFT20190823104513208/23/19 10:45:31  5-MIN KLFT 231645Z 00000KT 10SM -RA BKN046 OVC060 26/24 A2999 -10 90 1200 000/00 RMK AO2 RAE10B27 P0000 T02560239
13976KLFT LFT20190823105013908/23/19 10:50:31  5-MIN KLFT 231650Z 00000KT 10SM -RA BKN050 OVC065 26/24 A2999 -10 90 1200 000/00 RMK AO2 RAE10B27 SLP153 P0000 T02560239
13976KLFT LFT20190823105512308/23/19 10:55:31  5-MIN KLFT 231655Z 00000KT 10SM -RA SCT044 BKN055 26/24 A2998 -10 90 1200 000/00 RMK AO2 P0000 T02560239
13976KLFT LFT20190823110012708/23/19 11:00:31  5-MIN KLFT 231700Z 00000KT 10SM SCT044 BKN055 26/24 A2998 -10 90 1200 000/00 RMK AO2 RAE1659 P0000 T02560239
13976KLFT LFT20190823110513408/23/19 11:05:31  5-MIN KLFT 231705Z 00000KT 10SM FEW021 SCT044 BKN055 26/24 A2999 -10 90 1200 000/00 RMK AO2 RAE1659 P0000 T02560239
13976KLFT LFT20190823111013408/23/19 11:10:31  5-MIN KLFT 231710Z 17003KT 10SM FEW021 SCT044 SCT055 26/24 A2998 -10 90 1300 170/03 RMK AO2 RAE1659 P0000 T02610244
13976KLFT LFT20190823111513408/23/19 11:15:31  5-MIN KLFT 231715Z 00000KT 10SM FEW021 FEW043 SCT055 26/24 A2998 -10 90 1300 000/00 RMK AO2 RAE1659 P0000 T02610244
13976KLFT LFT20190823112012008/23/19 11:20:31  5-MIN KLFT 231720Z 00000KT 10SM FEW021 26/24 A2998 -10 90 1300 000/00 RMK AO2 RAE1659 P0000 T02610244
13976KLFT LFT20190823112511808/23/19 11:25:31  5-MIN KLFT 231725Z 00000KT 10SM FEW020 26/24 A2998 0 90 1300 000/00 RMK AO2 RAE1659 P0000 T02610244
13976KLFT LFT20190823113011808/23/19 11:30:31  5-MIN KLFT 231730Z 00000KT 10SM FEW020 27/24 A2998 0 84 1400 000/00 RMK AO2 RAE1659 P0000 T02720244
13976KLFT LFT20190823113511508/23/19 11:35:31  5-MIN KLFT 231735Z 16003KT 10SM CLR 27/24 A2998 0 84 1400 160/03 RMK AO2 RAE1659 P0000 T02720244
13976KLFT LFT20190823114011508/23/19 11:40:31  5-MIN KLFT 231740Z 17005KT 10SM CLR 27/24 A2997 0 84 1400 170/05 RMK AO2 RAE1659 P0000 T02720244
13976KLFT LFT20190823114511508/23/19 11:45:31  5-MIN KLFT 231745Z 17005KT 10SM CLR 28/24 A2998 0 82 1500 170/05 RMK AO2 RAE1659 P0000 T02780244
13976KLFT LFT20190823115014608/23/19 11:50:31  5-MIN KLFT 231750Z 17005KT 10SM CLR 28/24 A2998 0 82 1500 170/05 RMK AO2 RAE1659 SLP151 P0000 60014 T02780244 10278 20233 53004
13976KLFT LFT20190823115510308/23/19 11:55:31  5-MIN KLFT 231755Z 18004KT 10SM CLR 28/24 A2998 -10 82 1500 170/04 RMK AO2 T02780244
13976KLFT LFT20190823120010608/23/19 12:00:31  5-MIN KLFT 231800Z 17007KT 10SM OVC010 28/24 A2998 -10 79 1600 170/07 RMK AO2 T02830244
13976KLFT LFT20190823120510608/23/19 12:05:31  5-MIN KLFT 231805Z 17008KT 10SM OVC010 28/24 A2998 -10 79 1600 170/08 RMK AO2 T02830244
13976KLFT LFT20190823121010608/23/19 12:10:31  5-MIN KLFT 231810Z VRB05KT 10SM OVC010 28/24 A2998 -10 79 1500 VRB/05 RMK AO2 T02780239
13976KLFT LFT20190823121510608/23/19 12:15:31  5-MIN KLFT 231815Z 17007KT 10SM OVC010 28/24 A2998 -10 82 1500 170/07 RMK AO2 T02780244
13976KLFT LFT20190823122010608/23/19 12:20:31  5-MIN KLFT 231820Z 16005KT 10SM OVC010 28/24 A2998 -10 82 1500 160/05 RMK AO2 T02780244
13976KLFT LFT20190823122510608/23/19 12:25:31  5-MIN KLFT 231825Z 17006KT 10SM OVC010 28/24 A2998 -10 82 1500 170/06 RMK AO2 T02780244
13976KLFT LFT20190823123010608/23/19 12:30:31  5-MIN KLFT 231830Z 17008KT 10SM OVC010 28/24 A2998 -10 79 1600 170/08 RMK AO2 T02830244
13976KLFT LFT20190823123510608/23/19 12:35:31  5-MIN KLFT 231835Z 16007KT 10SM OVC010 28/24 A2998 -10 82 1500 160/07 RMK AO2 T02780244
13976KLFT LFT20190823124010608/23/19 12:40:31  5-MIN KLFT 231840Z 17010KT 10SM OVC010 28/24 A2998 -10 82 1500 170/10 RMK AO2 T02780244
13976KLFT LFT20190823124510608/23/19 12:45:31  5-MIN KLFT 231845Z 16009KT 10SM OVC013 28/24 A2998 -10 79 1500 160/09 RMK AO2 T02780239
13976KLFT LFT20190823125011308/23/19 12:50:31  5-MIN KLFT 231850Z 16008KT 10SM OVC013 28/24 A2998 -10 79 1500 160/08 RMK AO2 SLP152 T02780239
13976KLFT LFT20190823125511308/23/19 12:55:31  5-MIN KLFT 231855Z 16008KT 10SM BKN018 BKN023 28/24 A2998 -10 82 1500 160/08 RMK AO2 T02780244
13976KLFT LFT20190823130010608/23/19 13:00:31  5-MIN KLFT 231900Z 16007KT 10SM OVC013 27/24 A2998 -10 84 1400 160/07 RMK AO2 T02720244
13976KLFT LFT20190823130510608/23/19 13:05:31  5-MIN KLFT 231905Z 16007KT 10SM OVC013 27/24 A2998 -10 84 1400 160/07 RMK AO2 T02720244
13976KLFT LFT20190823131010608/23/19 13:10:31  5-MIN KLFT 231910Z 17004KT 10SM OVC013 28/24 A2998 -10 82 1500 160/04 RMK AO2 T02780244
13976KLFT LFT20190823131511008/23/19 13:15:31  5-MIN KLFT 231915Z 19012G17KT 10SM OVC013 27/23 A2998 0 79 1400 190/12G17 RMK AO2 T02720233
13976KLFT LFT20190823132011008/23/19 13:20:31  5-MIN KLFT 231920Z 18008G17KT 10SM OVC013 27/22 A2998 0 76 1400 180/08G17 RMK AO2 T02670222
13976KLFT LFT20190823132510408/23/19 13:25:31  5-MIN KLFT 231925Z 19007KT 10SM OVC013 27/22 A2997 0 76 1400 190/07 RMK AO2 T02670222
13976KLFT LFT20190823133010408/23/19 13:30:31  5-MIN KLFT 231930Z 18008KT 10SM OVC013 27/22 A2997 0 76 1400 170/08 RMK AO2 T02670222
13976KLFT LFT20190823133510408/23/19 13:35:31  5-MIN KLFT 231935Z 18007KT 10SM OVC013 27/22 A2997 0 76 1400 180/07 RMK AO2 T02670222
13976KLFT LFT20190823134010408/23/19 13:40:31  5-MIN KLFT 231940Z 20008KT 10SM OVC013 27/23 A2996 0 79 1400 200/08 RMK AO2 T02670228
13976KLFT LFT20190823134510408/23/19 13:45:31  5-MIN KLFT 231945Z 19007KT 10SM OVC013 27/23 A2996 0 79 1400 190/07 RMK AO2 T02670228
13976KLFT LFT20190823135010208/23/19 13:50:31  5-MIN KLFT 231950Z 17005KT 10SM FEW012 SCT020 27/23 A2996 10 79 1500 170/05 RMK AO2
13976KLFT LFT20190823135510508/23/19 13:55:31  5-MIN KLFT 231955Z 17006KT 10SM FEW012 27/23 A2996 10 79 1500 170/06 RMK AO2 T02720233
13976KLFT LFT20190823140010408/23/19 14:00:31  5-MIN KLFT 232000Z 18008KT 10SM FEW012 27/23 A2996 0 79 1500 180/08 RMK AO2 T02720233
13976KLFT LFT20190823140510108/23/19 14:05:31  5-MIN KLFT 232005Z 18007KT 10SM CLR 27/23 A2996 0 79 1500 180/07 RMK AO2 T02720233
13976KLFT LFT20190823141010108/23/19 14:10:31  5-MIN KLFT 232010Z 20009KT 10SM CLR 27/23 A2997 0 79 1500 190/09 RMK AO2 T02720233
13976KLFT LFT20190823141511108/23/19 14:15:31  5-MIN KLFT 232015Z 18008KT 10SM FEW013 FEW019 28/24 A2997 0 79 1500 180/08 RMK AO2 T02780239
13976KLFT LFT20190823142011108/23/19 14:20:31  5-MIN KLFT 232020Z 17008KT 10SM FEW013 FEW019 27/24 A2996 0 82 1500 170/08 RMK AO2 T02720239
13976KLFT LFT20190823142511208/23/19 14:25:31  5-MIN KLFT 232025Z 18007KT 10SM FEW013 SCT090 27/24 A2996 10 84 1500 180/07 RMK AO2 T02720244
13976KLFT LFT20190823143011208/23/19 14:30:31  5-MIN KLFT 232030Z 16005KT 10SM FEW013 BKN085 27/24 A2996 10 82 1500 160/05 RMK AO2 T02720239
13976KLFT LFT20190823143511208/23/19 14:35:31  5-MIN KLFT 232035Z 17008KT 10SM FEW013 BKN085 27/24 A2996 10 82 1500 170/08 RMK AO2 T02720239
13976KLFT LFT20190823144011208/23/19 14:40:31  5-MIN KLFT 232040Z 17007KT 10SM FEW013 BKN090 28/24 A2996 10 79 1500 170/07 RMK AO2 T02780239
13976KLFT LFT20190823144511108/23/19 14:45:31  5-MIN KLFT 232045Z 18010KT 10SM FEW013 BKN090 28/24 A2996 0 79 1500 180/10 RMK AO2 T02780239
13976KLFT LFT20190823145012408/23/19 14:50:31  5-MIN KLFT 232050Z 18010KT 10SM FEW013 BKN085 28/24 A2996 0 79 1500 180/10 RMK AO2 SLP146 T02780239 58005
13976KLFT LFT20190823145511108/23/19 14:55:31  5-MIN KLFT 232055Z 20006KT 10SM FEW013 SCT085 28/24 A2996 0 79 1500 200/06 RMK AO2 T02780239
13976KLFT LFT20190823150011208/23/19 15:00:31  5-MIN KLFT 232100Z 17008KT 10SM FEW013 SCT090 28/24 A2996 10 79 1500 170/08 RMK AO2 T02780239
13976KLFT LFT20190823150511208/23/19 15:05:31  5-MIN KLFT 232105Z 20011KT 10SM FEW013 FEW090 28/23 A2996 10 76 1500 190/11 RMK AO2 T02780233
13976KLFT LFT20190823151010208/23/19 15:10:31  5-MIN KLFT 232110Z 20009KT 10SM CLR 28/23 A2996 10 76 1500 200/09 RMK AO2 T02780233
13976KLFT LFT20190823151510108/23/19 15:15:31  5-MIN KLFT 232115Z 20007KT 10SM CLR 28/24 A2996 0 79 1500 200/07 RMK AO2 T02780239
13976KLFT LFT20190823152010508/23/19 15:20:31  5-MIN KLFT 232120Z 20009KT 10SM SCT065 28/24 A2996 10 76 1600 200/09 RMK AO2 T02830239
