13976KLFT LFT20191101060510511/01/19 06:05:31  5-MIN KLFT 011205Z 04005KT 10SM CLR 02/01 A3040 -390 92 -2000 040/05 RMK AO2 T00220011
13976KLFT LFT20191101061010511/01/19 06:10:31  5-MIN KLFT 011210Z 03003KT 10SM CLR 02/01 A3040 -390 92 -2000 030/03 RMK AO2 T00220011
13976KLFT LFT20191101061510511/01/19 06:15:31  5-MIN KLFT 011215Z 04003KT 10SM CLR 03/01 A3041 -400 89 -1900 040/03 RMK AO2 T00280011
13976KLFT LFT20191101062010511/01/19 06:20:31  5-MIN KLFT 011220Z 05003KT 10SM CLR 03/01 A3041 -400 89 -1900 050/03 RMK AO2 T00280011
13976KLFT LFT20191101062510511/01/19 06:25:31  5-MIN KLFT 011225Z 06003KT 10SM CLR 03/02 A3041 -400 92 -1900 060/03 RMK AO2 T00280017
13976KLFT LFT20191101063010511/01/19 06:30:31  5-MIN KLFT 011230Z 05004KT 10SM CLR 03/02 A3041 -400 89 -1800 050/04 RMK AO2 T00330017
13976KLFT LFT20191101063510511/01/19 06:35:31  5-MIN KLFT 011235Z 04003KT 10SM CLR 03/02 A3041 -400 89 -1800 030/03 RMK AO2 T00330017
13976KLFT LFT20191101064010511/01/19 06:40:31  5-MIN KLFT 011240Z 04004KT 10SM CLR 03/01 A3041 -400 89 -1900 040/04 RMK AO2 T00280011
13976KLFT LFT20191101064510511/01/19 06:45:31  5-MIN KLFT 011245Z 02003KT 10SM CLR 03/01 A3040 -400 89 -1900 010/03 RMK AO2 T00280011
13976KLFT LFT20191101065011211/01/19 06:50:31  5-MIN KLFT 011250Z 02004KT 10SM CLR 03/02 A3041 -400 92 -1900 020/04 RMK AO2 SLP296 T00280017
13976KLFT LFT20191101065510511/01/19 06:55:31  5-MIN KLFT 011255Z 02003KT 10SM CLR 03/02 A3041 -400 89 -1800 020/03 RMK AO2 T00330017
13976KLFT LFT20191101070010511/01/19 07:00:31  5-MIN KLFT 011300Z 03003KT 10SM CLR 03/02 A3041 -400 89 -1800 030/03 RMK AO2 T00330017
13976KLFT LFT20191101070510511/01/19 07:05:31  5-MIN KLFT 011305Z 03004KT 10SM CLR 04/02 A3041 -400 85 -1800 030/04 RMK AO2 T00390017
13976KLFT LFT20191101071010511/01/19 07:10:31  5-MIN KLFT 011310Z 03004KT 10SM CLR 04/02 A3041 -400 89 -1800 030/04 RMK AO2 T00390022
13976KLFT LFT20191101071510511/01/19 07:15:31  5-MIN KLFT 011315Z 03004KT 10SM CLR 04/02 A3041 -400 85 -1700 030/04 RMK AO2 T00440022
13976KLFT LFT20191101072010511/01/19 07:20:31  5-MIN KLFT 011320Z 04004KT 10SM CLR 04/02 A3041 -400 85 -1700 040/04 RMK AO2 T00440022
13976KLFT LFT20191101072510511/01/19 07:25:31  5-MIN KLFT 011325Z 03003KT 10SM CLR 04/02 A3041 -400 85 -1700 030/03 RMK AO2 T00440022
13976KLFT LFT20191101073010511/01/19 07:30:31  5-MIN KLFT 011330Z 07004KT 10SM CLR 05/03 A3042 -410 85 -1600 070/04 RMK AO2 T00500028
13976KLFT LFT20191101073510511/01/19 07:35:31  5-MIN KLFT 011335Z VRB04KT 10SM CLR 05/03 A3041 -400 85 -1600 VRB/04 RMK AO2 T00500028
13976KLFT LFT20191101074010511/01/19 07:40:31  5-MIN KLFT 011340Z 05004KT 10SM CLR 06/02 A3042 -410 79 -1600 050/04 RMK AO2 T00560022
13976KLFT LFT20191101074510511/01/19 07:45:31  5-MIN KLFT 011345Z 05004KT 10SM CLR 06/03 A3041 -400 82 -1600 050/04 RMK AO2 T00560028
13976KLFT LFT20191101075011211/01/19 07:50:31  5-MIN KLFT 011350Z 04004KT 10SM CLR 06/03 A3041 -400 79 -1500 040/04 RMK AO2 SLP298 T00610028
13976KLFT LFT20191101075510511/01/19 07:55:31  5-MIN KLFT 011355Z 05007KT 10SM CLR 06/02 A3041 -400 76 -1500 050/07 RMK AO2 T00610022
13976KLFT LFT20191101080010511/01/19 08:00:31  5-MIN KLFT 011400Z 05006KT 10SM CLR 06/02 A3041 -400 76 -1500 050/06 RMK AO2 T00610022
13976KLFT LFT20191101080510511/01/19 08:05:31  5-MIN KLFT 011405Z 04006KT 10SM CLR 06/02 A3041 -400 76 -1500 040/06 RMK AO2 T00610022
13976KLFT LFT20191101081010511/01/19 08:10:31  5-MIN KLFT 011410Z 06005KT 10SM CLR 06/02 A3041 -400 73 -1500 060/05 RMK AO2 T00610017
13976KLFT LFT20191101081510511/01/19 08:15:31  5-MIN KLFT 011415Z 06005KT 10SM CLR 07/02 A3041 -400 73 -1400 050/05 RMK AO2 T00670022
13976KLFT LFT20191101082010511/01/19 08:20:31  5-MIN KLFT 011420Z VRB03KT 10SM CLR 07/02 A3041 -400 73 -1400 VRB/03 RMK AO2 T00670022
13976KLFT LFT20191101082510511/01/19 08:25:31  5-MIN KLFT 011425Z 06005KT 10SM CLR 07/03 A3041 -400 73 -1400 060/05 RMK AO2 T00720028
13976KLFT LFT20191101083010511/01/19 08:30:31  5-MIN KLFT 011430Z 05006KT 10SM CLR 07/02 A3041 -400 70 -1300 050/06 RMK AO2 T00720022
13976KLFT LFT20191101083510511/01/19 08:35:31  5-MIN KLFT 011435Z 05007KT 10SM CLR 08/02 A3041 -400 68 -1300 050/07 RMK AO2 T00780022
13976KLFT LFT20191101084012111/01/19 08:40:31  5-MIN KLFT 011440Z 06008KT 030V110 10SM CLR 08/02 A3041 -400 65 -1300 060/08 030V110 RMK AO2 T00780017
13976KLFT LFT20191101084511111/01/19 08:45:31  5-MIN KLFT 011445Z 07009G16KT 10SM CLR 08/01 A3040 -400 60 -1300 070/09G16 RMK AO2 T00780006
13976KLFT LFT20191101085012411/01/19 08:50:31  5-MIN KLFT 011450Z 06012G17KT 10SM CLR 08/00 A3040 -400 58 -1300 060/12G17 RMK AO2 SLP295 T00780000 53018
13976KLFT LFT20191101085511111/01/19 08:55:31  5-MIN KLFT 011455Z 05011G17KT 10SM CLR 08/00 A3040 -400 58 -1300 050/11G17 RMK AO2 T00780000
13976KLFT LFT20191101090011111/01/19 09:00:31  5-MIN KLFT 011500Z 05009G16KT 10SM CLR 08/00 A3040 -390 58 -1300 050/09G16 RMK AO2 T00780000
13976KLFT LFT20191101090511111/01/19 09:05:31  5-MIN KLFT 011505Z 05013G17KT 10SM CLR 08/00 A3040 -390 55 -1200 050/13G17 RMK AO2 T00830000
13976KLFT LFT20191101091011111/01/19 09:10:31  5-MIN KLFT 011510Z 05010G17KT 10SM CLR 08/00 A3040 -390 55 -1200 050/10G17 RMK AO2 T00830000
13976KLFT LFT20191101091511111/01/19 09:15:31  5-MIN KLFT 011515Z 06009G17KT 10SM CLR 08/00 A3040 -390 55 -1200 060/09G17 RMK AO2 T00830000
13976KLFT LFT20191101092011211/01/19 09:20:31  5-MIN KLFT 011520Z 05009G16KT 10SM CLR 08/M01 A3040 -390 53 -1200 050/09G16 RMK AO2 T00831006
13976KLFT LFT20191101092511111/01/19 09:25:31  5-MIN KLFT 011525Z 05008G15KT 10SM CLR 09/01 A3040 -390 56 -1100 050/08G15 RMK AO2 T00890006
13976KLFT LFT20191101093010511/01/19 09:30:31  5-MIN KLFT 011530Z 06009KT 10SM CLR 09/00 A3040 -390 53 -1100 060/09 RMK AO2 T00890000
13976KLFT LFT20191101093510511/01/19 09:35:31  5-MIN KLFT 011535Z 04008KT 10SM CLR 09/00 A3040 -390 53 -1100 030/08 RMK AO2 T00890000
13976KLFT LFT20191101094010511/01/19 09:40:31  5-MIN KLFT 011540Z 06007KT 10SM CLR 09/01 A3039 -390 56 -1100 060/07 RMK AO2 T00890006
13976KLFT LFT20191101094510511/01/19 09:45:31  5-MIN KLFT 011545Z 04006KT 10SM CLR 09/01 A3039 -380 53 -1100 040/06 RMK AO2 T00940006
13976KLFT LFT20191101095011211/01/19 09:50:31  5-MIN KLFT 011550Z 05007KT 10SM CLR 09/01 A3039 -380 53 -1100 050/07 RMK AO2 SLP290 T00940006
13976KLFT LFT20191101095512111/01/19 09:55:31  5-MIN KLFT 011555Z 07008KT 050V110 10SM CLR 09/00 A3039 -380 51 -1100 070/08 050V110 RMK AO2 T00940000
13976KLFT LFT20191101100010511/01/19 10:00:31  5-MIN KLFT 011600Z VRB06KT 10SM CLR 09/01 A3039 -380 53 -1100 VRB/06 RMK AO2 T00940006
13976KLFT LFT20191101100510511/01/19 10:05:31  5-MIN KLFT 011605Z VRB04KT 10SM CLR 10/01 A3039 -380 52 -1000 VRB/04 RMK AO2 T01000006
13976KLFT LFT20191101101010511/01/19 10:10:31  5-MIN KLFT 011610Z VRB05KT 10SM CLR 10/01 A3039 -380 54 -1000 VRB/05 RMK AO2 T01000011
13976KLFT LFT20191101101510411/01/19 10:15:31  5-MIN KLFT 011615Z 06006KT 10SM CLR 11/01 A3039 -380 52 -900 060/06 RMK AO2 T01060011
13976KLFT LFT20191101102011011/01/19 10:20:31  5-MIN KLFT 011620Z 03009G18KT 10SM CLR 11/01 A3039 -380 52 -900 030/09G18 RMK AO2 T01060011
13976KLFT LFT20191101102511011/01/19 10:25:31  5-MIN KLFT 011625Z VRB06G18KT 10SM CLR 11/01 A3039 -380 52 -900 VRB/06G18 RMK AO2 T01060011
13976KLFT LFT20191101103010411/01/19 10:30:31  5-MIN KLFT 011630Z 02007KT 10SM CLR 11/01 A3039 -380 52 -900 020/07 RMK AO2 T01060011
13976KLFT LFT20191101103512011/01/19 10:35:31  5-MIN KLFT 011635Z 03007KT 360V070 10SM CLR 11/01 A3039 -380 50 -900 030/07 360V070 RMK AO2 T01060006
13976KLFT LFT20191101104010411/01/19 10:40:31  5-MIN KLFT 011640Z VRB05KT 10SM CLR 11/01 A3039 -380 48 -800 VRB/05 RMK AO2 T01110006
13976KLFT LFT20191101104510411/01/19 10:45:31  5-MIN KLFT 011645Z 03009KT 10SM CLR 11/01 A3038 -370 50 -900 030/09 RMK AO2 T01060006
13976KLFT LFT20191101105011111/01/19 10:50:31  5-MIN KLFT 011650Z 04009KT 10SM CLR 11/01 A3038 -370 50 -900 040/09 RMK AO2 SLP286 T01060006
13976KLFT LFT20191101105512011/01/19 10:55:31  5-MIN KLFT 011655Z 06007KT 020V110 10SM CLR 11/01 A3038 -370 48 -800 060/07 020V110 RMK AO2 T01110006
13976KLFT LFT20191101110010411/01/19 11:00:31  5-MIN KLFT 011700Z 03006KT 10SM CLR 11/01 A3037 -370 48 -800 030/06 RMK AO2 T01110006
13976KLFT LFT20191101110510411/01/19 11:05:31  5-MIN KLFT 011705Z VRB05KT 10SM CLR 11/01 A3037 -360 48 -800 VRB/05 RMK AO2 T01110006
13976KLFT LFT20191101111010411/01/19 11:10:31  5-MIN KLFT 011710Z 03008KT 10SM CLR 12/01 A3037 -360 46 -800 030/08 RMK AO2 T01170006
13976KLFT LFT20191101111510411/01/19 11:15:31  5-MIN KLFT 011715Z 07006KT 10SM CLR 12/00 A3037 -360 44 -800 070/06 RMK AO2 T01170000
13976KLFT LFT20191101112010411/01/19 11:20:31  5-MIN KLFT 011720Z 04007KT 10SM CLR 12/01 A3036 -360 46 -800 040/07 RMK AO2 T01170006
13976KLFT LFT20191101112510411/01/19 11:25:31  5-MIN KLFT 011725Z 03007KT 10SM CLR 12/00 A3036 -350 44 -800 030/07 RMK AO2 T01170000
13976KLFT LFT20191101113010411/01/19 11:30:31  5-MIN KLFT 011730Z 04007KT 10SM CLR 12/01 A3036 -350 46 -800 040/07 RMK AO2 T01170006
13976KLFT LFT20191101113510411/01/19 11:35:31  5-MIN KLFT 011735Z VRB03KT 10SM CLR 12/01 A3035 -350 46 -700 VRB/03 RMK AO2 T01170006
13976KLFT LFT20191101114010411/01/19 11:40:31  5-MIN KLFT 011740Z 01007KT 10SM CLR 12/01 A3035 -340 46 -700 010/07 RMK AO2 T01170006
13976KLFT LFT20191101114510411/01/19 11:45:31  5-MIN KLFT 011745Z VRB05KT 10SM CLR 12/01 A3035 -340 44 -700 VRB/05 RMK AO2 T01220006
13976KLFT LFT20191101115012911/01/19 11:50:31  5-MIN KLFT 011750Z 03005KT 10SM CLR 12/01 A3034 -340 44 -700 030/05 RMK AO2 SLP275 T01220006 10122 20022 50001
13976KLFT LFT20191101115510411/01/19 11:55:31  5-MIN KLFT 011755Z 01005KT 10SM CLR 12/01 A3034 -340 44 -700 010/05 RMK AO2 T01220006
13976KLFT LFT20191101120010411/01/19 12:00:31  5-MIN KLFT 011800Z VRB05KT 10SM CLR 12/00 A3034 -340 44 -700 VRB/05 RMK AO2 T01170000
13976KLFT LFT20191101120510411/01/19 12:05:31  5-MIN KLFT 011805Z VRB05KT 10SM CLR 12/00 A3034 -330 44 -700 VRB/05 RMK AO2 T01170000
13976KLFT LFT20191101121010411/01/19 12:10:31  5-MIN KLFT 011810Z 00000KT 10SM CLR 12/01 A3034 -330 44 -700 000/00 RMK AO2 T01220006
13976KLFT LFT20191101121510411/01/19 12:15:31  5-MIN KLFT 011815Z VRB03KT 10SM CLR 12/01 A3033 -330 46 -700 VRB/03 RMK AO2 T01220011
13976KLFT LFT20191101122010411/01/19 12:20:31  5-MIN KLFT 011820Z VRB03KT 10SM CLR 13/01 A3033 -330 44 -600 VRB/03 RMK AO2 T01280011
13976KLFT LFT20191101122509411/01/19 12:25:31  5-MIN KLFT 011825Z 10SM CLR 13/01 A3033 -330 44 -600 M /M RMK AO2 T01280011
13976KLFT LFT20191101123010411/01/19 12:30:31  5-MIN KLFT 011830Z 05005KT 10SM CLR 13/01 A3033 -320 43 -600 050/05 RMK AO2 T01280006
13976KLFT LFT20191101123510411/01/19 12:35:31  5-MIN KLFT 011835Z 05005KT 10SM CLR 13/01 A3032 -320 43 -600 050/05 RMK AO2 T01280006
13976KLFT LFT20191101124010411/01/19 12:40:31  5-MIN KLFT 011840Z 05005KT 10SM CLR 13/01 A3032 -320 43 -600 050/05 RMK AO2 T01280006
13976KLFT LFT20191101124510411/01/19 12:45:31  5-MIN KLFT 011845Z 05005KT 10SM CLR 13/01 A3031 -310 41 -500 050/05 RMK AO2 T01330006
13976KLFT LFT20191101125011111/01/19 12:50:31  5-MIN KLFT 011850Z 05005KT 10SM CLR 13/01 A3031 -310 41 -500 050/05 RMK AO2 SLP262 T01330006
13976KLFT LFT20191101125510411/01/19 12:55:31  5-MIN KLFT 011855Z 03006KT 10SM CLR 13/01 A3031 -310 41 -500 030/06 RMK AO2 T01330006
13976KLFT LFT20191101130010411/01/19 13:00:31  5-MIN KLFT 011900Z 10004KT 10SM CLR 13/01 A3030 -300 43 -500 100/04 RMK AO2 T01330011
13976KLFT LFT20191101130509411/01/19 13:05:31  5-MIN KLFT 011905Z 10SM CLR 13/01 A3030 -300 41 -500 M /M RMK AO2 T01330006
13976KLFT LFT20191101131010411/01/19 13:10:31  5-MIN KLFT 011910Z 00000KT 10SM CLR 13/01 A3030 -300 41 -500 000/00 RMK AO2 T01330006
13976KLFT LFT20191101131510411/01/19 13:15:31  5-MIN KLFT 011915Z VRB03KT 10SM CLR 13/01 A3030 -300 41 -500 VRB/03 RMK AO2 T01330006
13976KLFT LFT20191101132009411/01/19 13:20:31  5-MIN KLFT 011920Z 10SM CLR 14/01 A3030 -300 41 -400 M /M RMK AO2 T01390011
13976KLFT LFT20191101132510411/01/19 13:25:31  5-MIN KLFT 011925Z 03006KT 10SM CLR 14/01 A3029 -290 41 -400 030/06 RMK AO2 T01390011
13976KLFT LFT20191101133010411/01/19 13:30:31  5-MIN KLFT 011930Z VRB05KT 10SM CLR 14/01 A3029 -290 41 -400 VRB/05 RMK AO2 T01390011
13976KLFT LFT20191101133510911/01/19 13:35:31  5-MIN KLFT 011935Z AUTO 06005KT 10SM CLR 13/01 A3029 -290 41 -500 060/05 RMK AO2 T01330006
13976KLFT LFT20191101134010911/01/19 13:40:31  5-MIN KLFT 011940Z AUTO 03008KT 10SM CLR 14/00 A3029 -290 38 -400 030/08 RMK AO2 T01390000
13976KLFT LFT20191101134510911/01/19 13:45:31  5-MIN KLFT 011945Z AUTO 04005KT 10SM CLR 14/01 A3028 -290 40 -400 040/05 RMK AO2 T01390006
13976KLFT LFT20191101135011111/01/19 13:50:31  5-MIN KLFT 011950Z 04006KT 10SM CLR 14/01 A3028 -280 40 -400 040/06 RMK AO2 SLP253 T01390006
13976KLFT LFT20191101135510411/01/19 13:55:31  5-MIN KLFT 011955Z VRB05KT 10SM CLR 14/01 A3028 -280 38 -300 VRB/05 RMK AO2 T01440006
13976KLFT LFT20191101140010411/01/19 14:00:31  5-MIN KLFT 012000Z 07005KT 10SM CLR 14/01 A3027 -280 40 -300 070/05 RMK AO2 T01440011
13976KLFT LFT20191101140510411/01/19 14:05:31  5-MIN KLFT 012005Z 02006KT 10SM CLR 14/01 A3028 -280 40 -400 010/06 RMK AO2 T01390006
13976KLFT LFT20191101141010411/01/19 14:10:31  5-MIN KLFT 012010Z 02006KT 10SM CLR 14/01 A3028 -280 38 -300 020/06 RMK AO2 T01440006
13976KLFT LFT20191101141510411/01/19 14:15:31  5-MIN KLFT 012015Z 35005KT 10SM CLR 14/01 A3028 -280 40 -300 350/05 RMK AO2 T01440011
13976KLFT LFT20191101142010411/01/19 14:20:31  5-MIN KLFT 012020Z 07006KT 10SM CLR 14/01 A3027 -280 40 -300 070/06 RMK AO2 T01440011
13976KLFT LFT20191101142510411/01/19 14:25:31  5-MIN KLFT 012025Z VRB06KT 10SM CLR 14/01 A3027 -280 40 -300 VRB/06 RMK AO2 T01440011
13976KLFT LFT20191101143010411/01/19 14:30:31  5-MIN KLFT 012030Z 08005KT 10SM CLR 14/01 A3027 -270 40 -300 080/05 RMK AO2 T01440011
13976KLFT LFT20191101143510411/01/19 14:35:31  5-MIN KLFT 012035Z 06005KT 10SM CLR 14/01 A3027 -270 41 -400 060/05 RMK AO2 T01390011
13976KLFT LFT20191101144010411/01/19 14:40:31  5-MIN KLFT 012040Z 03005KT 10SM CLR 14/02 A3027 -270 41 -300 030/05 RMK AO2 T01440017
13976KLFT LFT20191101144510411/01/19 14:45:31  5-MIN KLFT 012045Z 03006KT 10SM CLR 14/01 A3027 -270 40 -300 030/06 RMK AO2 T01440011
13976KLFT LFT20191101145011711/01/19 14:50:31  5-MIN KLFT 012050Z 06005KT 10SM CLR 14/02 A3027 -270 41 -300 060/05 RMK AO2 SLP249 T01440017 58020
13976KLFT LFT20191101145510411/01/19 14:55:31  5-MIN KLFT 012055Z 06004KT 10SM CLR 14/02 A3026 -270 41 -300 060/04 RMK AO2 T01440017
13976KLFT LFT20191101150009411/01/19 15:00:31  5-MIN KLFT 012100Z 10SM CLR 14/02 A3027 -270 41 -300 M /M RMK AO2 T01440017
13976KLFT LFT20191101150510411/01/19 15:05:31  5-MIN KLFT 012105Z 06006KT 10SM CLR 14/01 A3027 -270 40 -300 060/06 RMK AO2 T01440011
13976KLFT LFT20191101151010411/01/19 15:10:31  5-MIN KLFT 012110Z 06006KT 10SM CLR 14/01 A3026 -270 41 -400 060/06 RMK AO2 T01390011
13976KLFT LFT20191101151510411/01/19 15:15:31  5-MIN KLFT 012115Z 06006KT 10SM CLR 14/01 A3026 -260 40 -300 060/06 RMK AO2 T01440011
13976KLFT LFT20191101152010411/01/19 15:20:31  5-MIN KLFT 012120Z 06006KT 10SM CLR 14/01 A3026 -260 40 -400 060/06 RMK AO2 T01390006
13976KLFT LFT20191101152510411/01/19 15:25:31  5-MIN KLFT 012125Z 06006KT 10SM CLR 14/01 A3026 -260 38 -300 060/06 RMK AO2 T01440006
13976KLFT LFT20191101153010411/01/19 15:30:31  5-MIN KLFT 012130Z 06006KT 10SM CLR 14/01 A3026 -260 38 -300 060/06 RMK AO2 T01440006
13976KLFT LFT20191101153510411/01/19 15:35:31  5-MIN KLFT 012135Z 06006KT 10SM CLR 14/01 A3026 -260 40 -300 060/06 RMK AO2 T01440011
13976KLFT LFT20191101154010411/01/19 15:40:31  5-MIN KLFT 012140Z 06006KT 10SM CLR 14/01 A3025 -260 38 -300 060/06 RMK AO2 T01440006
13976KLFT LFT20191101154510411/01/19 15:45:31  5-MIN KLFT 012145Z 06006KT 10SM CLR 14/01 A3025 -260 40 -300 060/06 RMK AO2 T01440011
13976KLFT LFT20191101155011111/01/19 15:50:31  5-MIN KLFT 012150Z 06006KT 10SM CLR 14/01 A3026 -260 40 -300 060/06 RMK AO2 SLP245 T01440011
13976KLFT LFT20191101155510411/01/19 15:55:31  5-MIN KLFT 012155Z 02006KT 10SM CLR 14/01 A3025 -260 40 -300 020/06 RMK AO2 T01440011
13976KLFT LFT20191101160010411/01/19 16:00:31  5-MIN KLFT 012200Z 01005KT 10SM CLR 14/01 A3025 -250 40 -400 010/05 RMK AO2 T01390006
13976KLFT LFT20191101160510411/01/19 16:05:31  5-MIN KLFT 012205Z 02008KT 10SM CLR 14/01 A3025 -260 40 -300 020/08 RMK AO2 T01440011
13976KLFT LFT20191101161010411/01/19 16:10:31  5-MIN KLFT 012210Z 01008KT 10SM CLR 14/01 A3025 -250 41 -400 010/08 RMK AO2 T01390011
13976KLFT LFT20191101161510411/01/19 16:15:31  5-MIN KLFT 012215Z 02008KT 10SM CLR 14/01 A3024 -250 40 -400 020/08 RMK AO2 T01390006
13976KLFT LFT20191101162010411/01/19 16:20:31  5-MIN KLFT 012220Z 02007KT 10SM CLR 13/01 A3024 -250 43 -400 020/07 RMK AO2 T01330011
13976KLFT LFT20191101162510411/01/19 16:25:31  5-MIN KLFT 012225Z 01007KT 10SM CLR 14/01 A3024 -250 41 -400 010/07 RMK AO2 T01390011
13976KLFT LFT20191101163010411/01/19 16:30:31  5-MIN KLFT 012230Z 02005KT 10SM CLR 14/01 A3024 -250 41 -400 020/05 RMK AO2 T01390011
13976KLFT LFT20191101163510411/01/19 16:35:31  5-MIN KLFT 012235Z 02006KT 10SM CLR 14/01 A3024 -250 41 -400 020/06 RMK AO2 T01390011
13976KLFT LFT20191101164010411/01/19 16:40:31  5-MIN KLFT 012240Z 02005KT 10SM CLR 14/01 A3025 -250 41 -400 010/05 RMK AO2 T01390011
13976KLFT LFT20191101164510411/01/19 16:45:31  5-MIN KLFT 012245Z 02005KT 10SM CLR 13/01 A3025 -250 43 -400 020/05 RMK AO2 T01330011
13976KLFT LFT20191101165011111/01/19 16:50:31  5-MIN KLFT 012250Z 02007KT 10SM CLR 13/01 A3025 -250 43 -400 020/07 RMK AO2 SLP242 T01330011
13976KLFT LFT20191101165510411/01/19 16:55:31  5-MIN KLFT 012255Z 02006KT 10SM CLR 13/02 A3025 -250 45 -400 020/06 RMK AO2 T01330017
13976KLFT LFT20191101170010411/01/19 17:00:31  5-MIN KLFT 012300Z 01005KT 10SM CLR 13/02 A3025 -250 46 -500 010/05 RMK AO2 T01280017
13976KLFT LFT20191101170510411/01/19 17:05:31  5-MIN KLFT 012305Z 02005KT 10SM CLR 12/02 A3025 -250 48 -600 020/05 RMK AO2 T01220017
13976KLFT LFT20191101171010411/01/19 17:10:31  5-MIN KLFT 012310Z 02005KT 10SM CLR 12/02 A3025 -250 52 -600 020/05 RMK AO2 T01170022
13976KLFT LFT20191101171510411/01/19 17:15:31  5-MIN KLFT 012315Z 02004KT 10SM CLR 12/02 A3025 -250 52 -600 020/04 RMK AO2 T01170022
13976KLFT LFT20191101172010411/01/19 17:20:31  5-MIN KLFT 012320Z 00000KT 10SM CLR 12/02 A3025 -260 52 -600 000/00 RMK AO2 T01170022
13976KLFT LFT20191101172510411/01/19 17:25:31  5-MIN KLFT 012325Z 00000KT 10SM CLR 12/02 A3026 -260 50 -600 000/00 RMK AO2 T01220022
13976KLFT LFT20191101173010411/01/19 17:30:31  5-MIN KLFT 012330Z 00000KT 10SM CLR 12/02 A3026 -260 50 -600 000/00 RMK AO2 T01220022
13976KLFT LFT20191101173510411/01/19 17:35:31  5-MIN KLFT 012335Z 00000KT 10SM CLR 12/02 A3026 -260 52 -600 000/00 RMK AO2 T01170022
13976KLFT LFT20191101174010411/01/19 17:40:31  5-MIN KLFT 012340Z 00000KT 10SM CLR 12/04 A3026 -270 61 -600 000/00 RMK AO2 T01170044
13976KLFT LFT20191101174510411/01/19 17:45:31  5-MIN KLFT 012345Z 00000KT 10SM CLR 11/04 A3026 -270 63 -700 000/00 RMK AO2 T01110044
13976KLFT LFT20191101175012911/01/19 17:50:31  5-MIN KLFT 012350Z 00000KT 10SM CLR 11/04 A3027 -270 63 -700 000/00 RMK AO2 SLP248 T01110044 10150 20111 56026
13976KLFT LFT20191101175510411/01/19 17:55:31  5-MIN KLFT 012355Z 00000KT 10SM CLR 11/04 A3027 -270 61 -700 000/00 RMK AO2 T01110039
13976KLFT LFT20191101180010411/01/19 18:00:31  5-MIN KLFT 020000Z 00000KT 10SM CLR 11/04 A3026 -270 63 -700 000/00 RMK AO2 T01110044
13976KLFT LFT20191104070510411/04/19 07:05:31  5-MIN KLFT 041305Z 02003KT 8SM CLR 07/06 A3016 -170 93 -1100 010/03 RMK AO2 T00720061
13976KLFT LFT20191104071010411/04/19 07:10:31  5-MIN KLFT 041310Z 03004KT 9SM CLR 08/06 A3015 -170 89 -1000 030/04 RMK AO2 T00780061
13976KLFT LFT20191104071510411/04/19 07:15:31  5-MIN KLFT 041315Z 00000KT 9SM CLR 08/06 A3016 -170 89 -1000 000/00 RMK AO2 T00780061
13976KLFT LFT20191104072010311/04/19 07:20:31  5-MIN KLFT 041320Z 00000KT 8SM CLR 08/07 A3016 -170 89 -900 000/00 RMK AO2 T00830067
13976KLFT LFT20191104072510311/04/19 07:25:31  5-MIN KLFT 041325Z 00000KT 9SM CLR 08/07 A3016 -170 93 -900 000/00 RMK AO2 T00830072
13976KLFT LFT20191104073010311/04/19 07:30:31  5-MIN KLFT 041330Z 00000KT 9SM CLR 09/08 A3016 -170 93 -900 000/00 RMK AO2 T00890078
13976KLFT LFT20191104073510411/04/19 07:35:31  5-MIN KLFT 041335Z 00000KT 10SM CLR 09/08 A3016 -170 89 -800 000/00 RMK AO2 T00940078
13976KLFT LFT20191104074010411/04/19 07:40:31  5-MIN KLFT 041340Z 06003KT 10SM CLR 10/08 A3016 -170 89 -700 060/03 RMK AO2 T01000083
13976KLFT LFT20191104074510411/04/19 07:45:31  5-MIN KLFT 041345Z 05003KT 10SM CLR 10/08 A3016 -170 89 -700 050/03 RMK AO2 T01000083
13976KLFT LFT20191104075011111/04/19 07:50:31  5-MIN KLFT 041350Z 00000KT 10SM CLR 11/08 A3016 -170 86 -700 000/00 RMK AO2 SLP212 T01060083
13976KLFT LFT20191104075510411/04/19 07:55:31  5-MIN KLFT 041355Z 07003KT 10SM CLR 11/08 A3016 -170 86 -700 070/03 RMK AO2 T01060083
13976KLFT LFT20191104080010411/04/19 08:00:31  5-MIN KLFT 041400Z 07004KT 10SM CLR 11/08 A3016 -170 83 -600 070/04 RMK AO2 T01110083
13976KLFT LFT20191104080510411/04/19 08:05:31  5-MIN KLFT 041405Z 00000KT 10SM CLR 11/08 A3016 -170 83 -600 000/00 RMK AO2 T01110083
13976KLFT LFT20191104081010411/04/19 08:10:31  5-MIN KLFT 041410Z VRB04KT 10SM CLR 11/08 A3016 -170 83 -600 VRB/04 RMK AO2 T01110083
13976KLFT LFT20191104081510411/04/19 08:15:31  5-MIN KLFT 041415Z 09004KT 10SM CLR 11/08 A3015 -170 83 -600 080/04 RMK AO2 T01110083
13976KLFT LFT20191104082010411/04/19 08:20:31  5-MIN KLFT 041420Z VRB04KT 10SM CLR 12/08 A3015 -160 80 -500 VRB/04 RMK AO2 T01170083
13976KLFT LFT20191104082510411/04/19 08:25:31  5-MIN KLFT 041425Z 07004KT 10SM CLR 12/08 A3015 -170 80 -500 070/04 RMK AO2 T01170083
13976KLFT LFT20191104083010411/04/19 08:30:31  5-MIN KLFT 041430Z 06004KT 10SM CLR 12/08 A3016 -170 77 -500 060/04 RMK AO2 T01220083
13976KLFT LFT20191104083510411/04/19 08:35:31  5-MIN KLFT 041435Z 06004KT 10SM CLR 12/08 A3016 -170 77 -500 060/04 RMK AO2 T01220083
13976KLFT LFT20191104084010411/04/19 08:40:31  5-MIN KLFT 041440Z VRB04KT 10SM CLR 12/08 A3016 -170 74 -500 VRB/04 RMK AO2 T01220078
13976KLFT LFT20191104084510411/04/19 08:45:31  5-MIN KLFT 041445Z 08003KT 10SM CLR 13/08 A3016 -170 74 -400 080/03 RMK AO2 T01280083
13976KLFT LFT20191104085011711/04/19 08:50:31  5-MIN KLFT 041450Z 00000KT 10SM CLR 13/08 A3016 -170 74 -400 000/00 RMK AO2 SLP213 T01280083 53005
13976KLFT LFT20191104085510411/04/19 08:55:31  5-MIN KLFT 041455Z VRB03KT 10SM CLR 13/08 A3016 -170 71 -300 VRB/03 RMK AO2 T01330083
13976KLFT LFT20191104090010411/04/19 09:00:31  5-MIN KLFT 041500Z VRB03KT 10SM CLR 13/08 A3016 -170 71 -300 VRB/03 RMK AO2 T01330083
13976KLFT LFT20191104090510411/04/19 09:05:31  5-MIN KLFT 041505Z VRB05KT 10SM CLR 14/08 A3016 -170 69 -300 VRB/05 RMK AO2 T01390083
13976KLFT LFT20191104091010411/04/19 09:10:31  5-MIN KLFT 041510Z 08005KT 10SM CLR 14/08 A3016 -170 66 -300 080/05 RMK AO2 T01390078
13976KLFT LFT20191104091510411/04/19 09:15:31  5-MIN KLFT 041515Z 07004KT 10SM CLR 14/08 A3016 -170 69 -300 070/04 RMK AO2 T01390083
13976KLFT LFT20191104092010411/04/19 09:20:31  5-MIN KLFT 041520Z VRB03KT 10SM CLR 14/08 A3016 -170 66 -200 VRB/03 RMK AO2 T01440083
13976KLFT LFT20191104092510411/04/19 09:25:31  5-MIN KLFT 041525Z 07004KT 10SM CLR 14/09 A3016 -170 69 -200 070/04 RMK AO2 T01440089
13976KLFT LFT20191104093010411/04/19 09:30:31  5-MIN KLFT 041530Z 07004KT 10SM CLR 14/08 A3016 -170 66 -200 070/04 RMK AO2 T01440083
13976KLFT LFT20191104093510411/04/19 09:35:31  5-MIN KLFT 041535Z 09004KT 10SM CLR 15/08 A3016 -170 64 -100 090/04 RMK AO2 T01500083
13976KLFT LFT20191104094010411/04/19 09:40:31  5-MIN KLFT 041540Z 10004KT 10SM CLR 15/08 A3016 -170 64 -100 100/04 RMK AO2 T01500083
13976KLFT LFT20191104094510411/04/19 09:45:31  5-MIN KLFT 041545Z 08004KT 10SM CLR 15/08 A3016 -170 64 -100 080/04 RMK AO2 T01500083
13976KLFT LFT20191104095011111/04/19 09:50:31  5-MIN KLFT 041550Z VRB03KT 10SM CLR 16/08 A3016 -170 62 -100 VRB/03 RMK AO2 SLP213 T01560083
13976KLFT LFT20191104095510111/04/19 09:55:31  5-MIN KLFT 041555Z 12004KT 10SM CLR 16/08 A3016 -170 59 0 120/04 RMK AO2 T01610083
13976KLFT LFT20191104100010111/04/19 10:00:31  5-MIN KLFT 041600Z VRB04KT 10SM CLR 16/08 A3016 -170 57 0 VRB/04 RMK AO2 T01610078
13976KLFT LFT20191104100510111/04/19 10:05:31  5-MIN KLFT 041605Z VRB04KT 10SM CLR 16/08 A3016 -170 57 0 VRB/04 RMK AO2 T01610078
13976KLFT LFT20191104101010111/04/19 10:10:31  5-MIN KLFT 041610Z VRB03KT 10SM CLR 17/08 A3016 -170 57 0 VRB/03 RMK AO2 T01670083
13976KLFT LFT20191104101510311/04/19 10:15:31  5-MIN KLFT 041615Z VRB03KT 10SM CLR 17/08 A3016 -170 55 100 VRB/03 RMK AO2 T01720083
13976KLFT LFT20191104102010311/04/19 10:20:31  5-MIN KLFT 041620Z VRB03KT 10SM CLR 17/09 A3016 -170 57 100 VRB/03 RMK AO2 T01720089
13976KLFT LFT20191104102510311/04/19 10:25:31  5-MIN KLFT 041625Z 07004KT 10SM CLR 18/09 A3015 -160 55 200 070/04 RMK AO2 T01780089
13976KLFT LFT20191104103010311/04/19 10:30:31  5-MIN KLFT 041630Z VRB03KT 10SM CLR 18/08 A3015 -160 53 200 VRB/03 RMK AO2 T01780083
13976KLFT LFT20191104103510311/04/19 10:35:31  5-MIN KLFT 041635Z VRB03KT 10SM CLR 17/08 A3015 -160 55 100 VRB/03 RMK AO2 T01720083
13976KLFT LFT20191104104010311/04/19 10:40:31  5-MIN KLFT 041640Z VRB04KT 10SM CLR 18/08 A3015 -160 53 200 VRB/04 RMK AO2 T01780083
13976KLFT LFT20191104104510311/04/19 10:45:31  5-MIN KLFT 041645Z VRB04KT 10SM CLR 18/08 A3015 -160 53 200 VRB/04 RMK AO2 T01780083
13976KLFT LFT20191104105011011/04/19 10:50:31  5-MIN KLFT 041650Z 08003KT 10SM CLR 18/08 A3015 -160 53 200 080/03 RMK AO2 SLP208 T01780083
13976KLFT LFT20191104105510311/04/19 10:55:31  5-MIN KLFT 041655Z 10004KT 10SM CLR 18/09 A3014 -160 54 200 100/04 RMK AO2 T01830089
13976KLFT LFT20191104110010311/04/19 11:00:31  5-MIN KLFT 041700Z VRB05KT 10SM CLR 18/09 A3014 -160 55 200 VRB/05 RMK AO2 T01780089
13976KLFT LFT20191104110510311/04/19 11:05:31  5-MIN KLFT 041705Z VRB04KT 10SM CLR 18/09 A3014 -150 55 200 VRB/04 RMK AO2 T01780089
13976KLFT LFT20191104111010311/04/19 11:10:31  5-MIN KLFT 041710Z 11003KT 10SM CLR 18/09 A3014 -150 54 200 110/03 RMK AO2 T01830089
13976KLFT LFT20191104111510311/04/19 11:15:31  5-MIN KLFT 041715Z 08004KT 10SM CLR 18/09 A3013 -150 54 200 080/04 RMK AO2 T01830089
13976KLFT LFT20191104112010311/04/19 11:20:31  5-MIN KLFT 041720Z VRB03KT 10SM CLR 19/09 A3013 -150 54 300 VRB/03 RMK AO2 T01890094
13976KLFT LFT20191104112510311/04/19 11:25:31  5-MIN KLFT 041725Z VRB03KT 10SM CLR 19/09 A3013 -140 52 400 VRB/03 RMK AO2 T01940094
13976KLFT LFT20191104113010311/04/19 11:30:31  5-MIN KLFT 041730Z VRB04KT 10SM CLR 19/09 A3013 -140 52 300 VRB/04 RMK AO2 T01890089
13976KLFT LFT20191104113510311/04/19 11:35:31  5-MIN KLFT 041735Z 13004KT 10SM CLR 19/09 A3013 -140 52 400 120/04 RMK AO2 T01940094
13976KLFT LFT20191104114010311/04/19 11:40:31  5-MIN KLFT 041740Z VRB05KT 10SM CLR 19/09 A3013 -140 52 400 VRB/05 RMK AO2 T01940094
13976KLFT LFT20191104114510311/04/19 11:45:31  5-MIN KLFT 041745Z 10004KT 10SM CLR 19/09 A3012 -140 52 400 100/04 RMK AO2 T01940094
13976KLFT LFT20191104115012811/04/19 11:50:31  5-MIN KLFT 041750Z VRB03KT 10SM CLR 20/09 A3012 -140 50 500 VRB/03 RMK AO2 SLP199 T02000094 10200 20061 51006
13976KLFT LFT20191104115510311/04/19 11:55:31  5-MIN KLFT 041755Z VRB03KT 10SM CLR 20/09 A3012 -130 50 500 VRB/03 RMK AO2 T02000094
13976KLFT LFT20191104120010311/04/19 12:00:31  5-MIN KLFT 041800Z VRB04KT 10SM CLR 20/10 A3012 -130 52 500 VRB/04 RMK AO2 T02000100
13976KLFT LFT20191104120510311/04/19 12:05:31  5-MIN KLFT 041805Z VRB04KT 10SM CLR 20/10 A3011 -130 52 500 VRB/04 RMK AO2 T02000100
13976KLFT LFT20191104121010311/04/19 12:10:31  5-MIN KLFT 041810Z VRB04KT 10SM CLR 21/10 A3011 -130 50 500 VRB/04 RMK AO2 T02060100
13976KLFT LFT20191104121510311/04/19 12:15:31  5-MIN KLFT 041815Z 11004KT 10SM CLR 21/10 A3011 -120 48 600 110/04 RMK AO2 T02110100
13976KLFT LFT20191104122010311/04/19 12:20:31  5-MIN KLFT 041820Z VRB03KT 10SM CLR 21/10 A3010 -120 50 500 VRB/03 RMK AO2 T02060100
13976KLFT LFT20191104122510311/04/19 12:25:31  5-MIN KLFT 041825Z VRB04KT 10SM CLR 21/11 A3010 -120 52 500 VRB/04 RMK AO2 T02060106
13976KLFT LFT20191104123010311/04/19 12:30:31  5-MIN KLFT 041830Z VRB04KT 10SM CLR 21/11 A3010 -120 52 500 VRB/04 RMK AO2 T02060106
13976KLFT LFT20191104123510311/04/19 12:35:31  5-MIN KLFT 041835Z VRB04KT 10SM CLR 21/11 A3010 -110 50 600 VRB/04 RMK AO2 T02110106
13976KLFT LFT20191104124010311/04/19 12:40:31  5-MIN KLFT 041840Z VRB05KT 10SM CLR 21/11 A3009 -110 52 600 VRB/05 RMK AO2 T02110111
13976KLFT LFT20191104124510311/04/19 12:45:31  5-MIN KLFT 041845Z VRB03KT 10SM CLR 21/11 A3009 -110 50 600 VRB/03 RMK AO2 T02110106
13976KLFT LFT20191104125011011/04/19 12:50:31  5-MIN KLFT 041850Z VRB05KT 10SM CLR 22/11 A3009 -110 50 700 VRB/05 RMK AO2 SLP189 T02170111
13976KLFT LFT20191104125510311/04/19 12:55:31  5-MIN KLFT 041855Z VRB04KT 10SM CLR 21/11 A3009 -100 52 600 VRB/04 RMK AO2 T02110111
13976KLFT LFT20191104130010311/04/19 13:00:31  5-MIN KLFT 041900Z 10003KT 10SM CLR 22/11 A3009 -100 50 700 100/03 RMK AO2 T02170111
13976KLFT LFT20191104130510311/04/19 13:05:31  5-MIN KLFT 041905Z VRB03KT 10SM CLR 22/11 A3008 -100 50 700 VRB/03 RMK AO2 T02170111
13976KLFT LFT20191104131010311/04/19 13:10:31  5-MIN KLFT 041910Z VRB03KT 10SM CLR 22/11 A3008 -100 49 800 VRB/03 RMK AO2 T02220111
13976KLFT LFT20191104131510311/04/19 13:15:31  5-MIN KLFT 041915Z 15003KT 10SM CLR 22/12 A3008 -100 52 700 150/03 RMK AO2 T02170117
13976KLFT LFT20191104132010311/04/19 13:20:31  5-MIN KLFT 041920Z VRB03KT 10SM CLR 22/12 A3008 -100 52 700 VRB/03 RMK AO2 T02170117
13976KLFT LFT20191104132510311/04/19 13:25:31  5-MIN KLFT 041925Z 11003KT 10SM CLR 22/12 A3008 -100 52 700 110/03 RMK AO2 T02170117
13976KLFT LFT20191104133010311/04/19 13:30:31  5-MIN KLFT 041930Z 12004KT 10SM CLR 22/12 A3008 -100 52 700 120/04 RMK AO2 T02170117
13976KLFT LFT20191104133510211/04/19 13:35:31  5-MIN KLFT 041935Z VRB03KT 10SM CLR 22/12 A3008 -90 52 700 VRB/03 RMK AO2 T02170117
13976KLFT LFT20191104134010311/04/19 13:40:31  5-MIN KLFT 041940Z VRB03KT 10SM CLR 22/12 A3008 -100 51 800 VRB/03 RMK AO2 T02220117
13976KLFT LFT20191104134510311/04/19 13:45:31  5-MIN KLFT 041945Z 18006KT 10SM CLR 22/12 A3008 -100 51 800 180/06 RMK AO2 T02220117
13976KLFT LFT20191104135010911/04/19 13:50:31  5-MIN KLFT 041950Z 18005KT 10SM CLR 22/12 A3008 -90 52 700 180/05 RMK AO2 SLP184 T02170117
13976KLFT LFT20191104135510211/04/19 13:55:31  5-MIN KLFT 041955Z 10003KT 10SM CLR 22/12 A3007 -90 52 700 090/03 RMK AO2 T02170117
13976KLFT LFT20191104140010211/04/19 14:00:31  5-MIN KLFT 042000Z VRB04KT 10SM CLR 22/12 A3007 -90 52 700 VRB/04 RMK AO2 T02170117
13976KLFT LFT20191104140510211/04/19 14:05:31  5-MIN KLFT 042005Z VRB03KT 10SM CLR 22/12 A3007 -90 52 800 VRB/03 RMK AO2 T02220122
13976KLFT LFT20191104141010211/04/19 14:10:31  5-MIN KLFT 042010Z VRB03KT 10SM CLR 22/12 A3007 -90 52 800 VRB/03 RMK AO2 T02220122
13976KLFT LFT20191104141510211/04/19 14:15:31  5-MIN KLFT 042015Z 17007KT 10SM CLR 22/12 A3007 -90 52 800 160/07 RMK AO2 T02220122
13976KLFT LFT20191104142010211/04/19 14:20:31  5-MIN KLFT 042020Z 18005KT 10SM CLR 22/12 A3007 -90 52 700 180/05 RMK AO2 T02170117
13976KLFT LFT20191104142510211/04/19 14:25:31  5-MIN KLFT 042025Z VRB03KT 10SM CLR 22/12 A3007 -90 52 800 VRB/03 RMK AO2 T02220122
13976KLFT LFT20191104143010211/04/19 14:30:31  5-MIN KLFT 042030Z 12004KT 10SM CLR 22/12 A3007 -90 52 800 110/04 RMK AO2 T02220122
13976KLFT LFT20191104143510211/04/19 14:35:31  5-MIN KLFT 042035Z VRB03KT 10SM CLR 22/12 A3006 -80 52 800 VRB/03 RMK AO2 T02220122
13976KLFT LFT20191104144010211/04/19 14:40:31  5-MIN KLFT 042040Z VRB05KT 10SM CLR 22/12 A3006 -80 52 800 VRB/05 RMK AO2 T02220122
13976KLFT LFT20191104144510211/04/19 14:45:31  5-MIN KLFT 042045Z VRB03KT 10SM CLR 22/12 A3006 -80 52 800 VRB/03 RMK AO2 T02220122
13976KLFT LFT20191104145011511/04/19 14:50:31  5-MIN KLFT 042050Z VRB04KT 10SM CLR 23/12 A3006 -80 51 800 VRB/04 RMK AO2 SLP178 T02280122 58014
13976KLFT LFT20191104145510211/04/19 14:55:31  5-MIN KLFT 042055Z 00000KT 10SM CLR 22/12 A3006 -80 52 800 000/00 RMK AO2 T02220122
13976KLFT LFT20191104150010211/04/19 15:00:31  5-MIN KLFT 042100Z VRB03KT 10SM CLR 22/12 A3006 -80 52 800 VRB/03 RMK AO2 T02220122
13976KLFT LFT20191104150510211/04/19 15:05:31  5-MIN KLFT 042105Z VRB03KT 10SM CLR 22/12 A3005 -80 52 800 VRB/03 RMK AO2 T02220122
13976KLFT LFT20191104151010211/04/19 15:10:31  5-MIN KLFT 042110Z 00000KT 10SM CLR 22/12 A3005 -70 52 800 000/00 RMK AO2 T02220122
13976KLFT LFT20191104151510211/04/19 15:15:31  5-MIN KLFT 042115Z 00000KT 10SM CLR 22/13 A3005 -70 54 800 000/00 RMK AO2 T02220128
13976KLFT LFT20191104152010211/04/19 15:20:31  5-MIN KLFT 042120Z 17007KT 10SM CLR 22/13 A3005 -80 54 800 170/07 RMK AO2 T02220128
13976KLFT LFT20191104152510211/04/19 15:25:31  5-MIN KLFT 042125Z VRB04KT 10SM CLR 22/13 A3006 -80 54 800 VRB/04 RMK AO2 T02220128
13976KLFT LFT20191104153010211/04/19 15:30:31  5-MIN KLFT 042130Z 16004KT 10SM CLR 22/13 A3005 -70 54 800 160/04 RMK AO2 T02220128
13976KLFT LFT20191104153510211/04/19 15:35:31  5-MIN KLFT 042135Z 16004KT 10SM CLR 22/12 A3005 -70 54 700 160/04 RMK AO2 T02170122
13976KLFT LFT20191104154010211/04/19 15:40:31  5-MIN KLFT 042140Z 16005KT 10SM CLR 22/12 A3005 -70 54 700 160/05 RMK AO2 T02170122
13976KLFT LFT20191104154510211/04/19 15:45:31  5-MIN KLFT 042145Z 16004KT 10SM CLR 22/13 A3005 -70 56 700 160/04 RMK AO2 T02170128
13976KLFT LFT20191104155010911/04/19 15:50:31  5-MIN KLFT 042150Z VRB04KT 10SM CLR 22/13 A3005 -70 54 800 VRB/04 RMK AO2 SLP176 T02220128
13976KLFT LFT20191104155510211/04/19 15:55:31  5-MIN KLFT 042155Z VRB04KT 10SM CLR 22/13 A3005 -70 54 800 VRB/04 RMK AO2 T02220128
13976KLFT LFT20191104160010211/04/19 16:00:31  5-MIN KLFT 042200Z 16004KT 10SM CLR 22/13 A3005 -70 54 800 160/04 RMK AO2 T02220128
13976KLFT LFT20191104160510211/04/19 16:05:31  5-MIN KLFT 042205Z 15003KT 10SM CLR 22/13 A3005 -70 54 800 150/03 RMK AO2 T02220128
13976KLFT LFT20191104161010211/04/19 16:10:31  5-MIN KLFT 042210Z 12004KT 10SM CLR 22/13 A3005 -70 56 700 120/04 RMK AO2 T02170128
13976KLFT LFT20191104161510211/04/19 16:15:31  5-MIN KLFT 042215Z 13004KT 10SM CLR 22/13 A3005 -70 56 700 130/04 RMK AO2 T02170128
13976KLFT LFT20191104162010211/04/19 16:20:31  5-MIN KLFT 042220Z 12004KT 10SM CLR 22/13 A3005 -70 56 700 120/04 RMK AO2 T02170128
13976KLFT LFT20191104162510211/04/19 16:25:31  5-MIN KLFT 042225Z VRB03KT 10SM CLR 22/13 A3005 -70 56 700 VRB/03 RMK AO2 T02170128
13976KLFT LFT20191104163010211/04/19 16:30:31  5-MIN KLFT 042230Z 12003KT 10SM CLR 21/13 A3005 -70 58 700 120/03 RMK AO2 T02110128
13976KLFT LFT20191104163510211/04/19 16:35:31  5-MIN KLFT 042235Z VRB03KT 10SM CLR 21/13 A3005 -70 58 700 VRB/03 RMK AO2 T02110128
13976KLFT LFT20191104164010211/04/19 16:40:31  5-MIN KLFT 042240Z 11004KT 10SM CLR 21/13 A3005 -70 58 700 110/04 RMK AO2 T02110128
13976KLFT LFT20191104164510211/04/19 16:45:31  5-MIN KLFT 042245Z 00000KT 10SM CLR 21/13 A3005 -70 58 700 000/00 RMK AO2 T02110128
13976KLFT LFT20191104165010911/04/19 16:50:31  5-MIN KLFT 042250Z 11003KT 10SM CLR 21/13 A3005 -70 60 600 110/03 RMK AO2 SLP176 T02060128
13976KLFT LFT20191104165510211/04/19 16:55:31  5-MIN KLFT 042255Z 12003KT 10SM CLR 21/13 A3005 -70 60 600 120/03 RMK AO2 T02060128
13976KLFT LFT20191104170010211/04/19 17:00:31  5-MIN KLFT 042300Z 00000KT 10SM CLR 21/13 A3006 -80 60 600 000/00 RMK AO2 T02060128
13976KLFT LFT20191104170510211/04/19 17:05:31  5-MIN KLFT 042305Z 00000KT 10SM CLR 20/13 A3005 -70 63 500 000/00 RMK AO2 T02000128
13976KLFT LFT20191104171010211/04/19 17:10:31  5-MIN KLFT 042310Z 00000KT 10SM CLR 20/13 A3005 -70 65 500 000/00 RMK AO2 T02000133
13976KLFT LFT20191104171510211/04/19 17:15:31  5-MIN KLFT 042315Z 11003KT 10SM CLR 19/13 A3005 -70 67 500 110/03 RMK AO2 T01940133
13976KLFT LFT20191104172010211/04/19 17:20:31  5-MIN KLFT 042320Z 12003KT 10SM CLR 19/13 A3005 -70 67 500 120/03 RMK AO2 T01940133
13976KLFT LFT20191104172510211/04/19 17:25:31  5-MIN KLFT 042325Z 00000KT 10SM CLR 19/13 A3006 -80 70 400 000/00 RMK AO2 T01890133
13976KLFT LFT20191104173010211/04/19 17:30:31  5-MIN KLFT 042330Z VRB03KT 10SM CLR 19/13 A3006 -80 70 400 VRB/03 RMK AO2 T01890133
13976KLFT LFT20191104173510211/04/19 17:35:31  5-MIN KLFT 042335Z 11003KT 10SM CLR 18/13 A3006 -80 72 300 110/03 RMK AO2 T01830133
13976KLFT LFT20191104174010211/04/19 17:40:31  5-MIN KLFT 042340Z VRB03KT 10SM CLR 18/13 A3006 -80 72 300 VRB/03 RMK AO2 T01830133
13976KLFT LFT20191104174510211/04/19 17:45:31  5-MIN KLFT 042345Z 12003KT 10SM CLR 18/13 A3006 -80 72 300 120/03 RMK AO2 T01830133
13976KLFT LFT20191104175012711/04/19 17:50:31  5-MIN KLFT 042350Z 12003KT 10SM CLR 18/13 A3006 -80 75 300 120/03 RMK AO2 SLP178 T01780133 10228 20178 56022
13976KLFT LFT20191104175510211/04/19 17:55:31  5-MIN KLFT 042355Z 00000KT 10SM CLR 18/14 A3006 -80 78 300 000/00 RMK AO2 T01780139
13976KLFT LFT20191104180010211/04/19 18:00:31  5-MIN KLFT 050000Z 00000KT 10SM CLR 18/14 A3006 -80 78 300 000/00 RMK AO2 T01780139
13976KLFT LFT20191104180510211/04/19 18:05:31  5-MIN KLFT 050005Z 00000KT 10SM CLR 17/14 A3006 -80 80 200 000/00 RMK AO2 T01720139
13976KLFT LFT20191104181010211/04/19 18:10:31  5-MIN KLFT 050010Z 00000KT 10SM CLR 17/13 A3006 -80 78 200 000/00 RMK AO2 T01720133
13976KLFT LFT20191104181510211/04/19 18:15:31  5-MIN KLFT 050015Z 00000KT 10SM CLR 17/13 A3006 -80 78 200 000/00 RMK AO2 T01720133
13976KLFT LFT20191104182010211/04/19 18:20:31  5-MIN KLFT 050020Z 00000KT 10SM CLR 17/13 A3007 -90 78 200 000/00 RMK AO2 T01720133
13976KLFT LFT20191104182510211/04/19 18:25:31  5-MIN KLFT 050025Z 00000KT 10SM CLR 17/13 A3007 -90 78 200 000/00 RMK AO2 T01720133
13976KLFT LFT20191104183010211/04/19 18:30:31  5-MIN KLFT 050030Z 00000KT 10SM CLR 17/13 A3007 -90 78 200 000/00 RMK AO2 T01720133
13976KLFT LFT20191104183510211/04/19 18:35:31  5-MIN KLFT 050035Z 00000KT 10SM CLR 17/14 A3007 -90 83 100 000/00 RMK AO2 T01670139
13976KLFT LFT20191104184010211/04/19 18:40:31  5-MIN KLFT 050040Z 00000KT 10SM CLR 17/13 A3007 -90 80 100 000/00 RMK AO2 T01670133
13976KLFT LFT20191104184510211/04/19 18:45:31  5-MIN KLFT 050045Z 00000KT 10SM CLR 17/13 A3007 -90 80 100 000/00 RMK AO2 T01670133
13976KLFT LFT20191104185010911/04/19 18:50:31  5-MIN KLFT 050050Z 00000KT 10SM CLR 17/13 A3008 -90 80 100 000/00 RMK AO2 SLP184 T01670133
13976KLFT LFT20191104185510011/04/19 18:55:31  5-MIN KLFT 050055Z 00000KT 10SM CLR 16/14 A3008 -90 86 0 000/00 RMK AO2 T01610139
13976KLFT LFT20191104190010011/04/19 19:00:31  5-MIN KLFT 050100Z 00000KT 10SM CLR 16/14 A3008 -90 86 0 000/00 RMK AO2 T01610139
13976KLFT LFT20191105053010711/05/19 05:30:31  5-MIN KLFT 051130Z 00000KT 10SM OVC070 15/12 A3016 -170 80 -100 000/00 RMK AO2 T01500117
13976KLFT LFT20191105053510711/05/19 05:35:31  5-MIN KLFT 051135Z 00000KT 10SM OVC070 15/12 A3016 -170 80 -100 000/00 RMK AO2 T01500117
13976KLFT LFT20191105054010711/05/19 05:40:31  5-MIN KLFT 051140Z 00000KT 10SM OVC070 15/11 A3016 -170 77 -100 000/00 RMK AO2 T01500111
13976KLFT LFT20191105054510711/05/19 05:45:31  5-MIN KLFT 051145Z 00000KT 10SM OVC070 15/11 A3016 -170 77 -100 000/00 RMK AO2 T01500111
13976KLFT LFT20191105055013211/05/19 05:50:31  5-MIN KLFT 051150Z 00000KT 10SM OVC070 15/12 A3016 -170 80 -100 000/00 RMK AO2 SLP211 T01500117 10150 20144 53003
13976KLFT LFT20191105055510711/05/19 05:55:31  5-MIN KLFT 051155Z 08003KT 10SM OVC070 15/12 A3016 -170 80 -100 070/03 RMK AO2 T01500117
13976KLFT LFT20191105060010711/05/19 06:00:31  5-MIN KLFT 051200Z 00000KT 10SM OVC070 15/12 A3015 -170 80 -100 000/00 RMK AO2 T01500117
13976KLFT LFT20191105060510711/05/19 06:05:31  5-MIN KLFT 051205Z 00000KT 10SM OVC070 15/12 A3016 -170 80 -100 000/00 RMK AO2 T01500117
13976KLFT LFT20191105061010711/05/19 06:10:31  5-MIN KLFT 051210Z 00000KT 10SM OVC070 15/12 A3016 -170 80 -100 000/00 RMK AO2 T01500117
13976KLFT LFT20191105061510711/05/19 06:15:31  5-MIN KLFT 051215Z 00000KT 10SM OVC070 15/12 A3016 -170 80 -100 000/00 RMK AO2 T01500117
13976KLFT LFT20191105062010711/05/19 06:20:31  5-MIN KLFT 051220Z 00000KT 10SM OVC070 15/11 A3017 -180 77 -100 000/00 RMK AO2 T01500111
13976KLFT LFT20191105062510711/05/19 06:25:31  5-MIN KLFT 051225Z 00000KT 10SM OVC065 15/12 A3017 -180 80 -100 000/00 RMK AO2 T01500117
13976KLFT LFT20191105063010711/05/19 06:30:31  5-MIN KLFT 051230Z 00000KT 10SM OVC065 15/12 A3017 -180 80 -100 000/00 RMK AO2 T01500117
13976KLFT LFT20191105063510711/05/19 06:35:31  5-MIN KLFT 051235Z 00000KT 10SM OVC065 15/12 A3017 -180 80 -100 000/00 RMK AO2 T01500117
13976KLFT LFT20191105064010711/05/19 06:40:31  5-MIN KLFT 051240Z 00000KT 10SM OVC065 15/12 A3017 -180 80 -100 000/00 RMK AO2 T01500117
13976KLFT LFT20191105064510711/05/19 06:45:31  5-MIN KLFT 051245Z 00000KT 10SM OVC065 15/12 A3017 -180 80 -100 000/00 RMK AO2 T01500117
13976KLFT LFT20191105065012111/05/19 06:50:31  5-MIN KLFT 051250Z 00000KT 10SM BKN060 OVC075 15/12 A3017 -180 80 -100 000/00 RMK AO2 SLP217 T01500117
13976KLFT LFT20191105065510711/05/19 06:55:31  5-MIN KLFT 051255Z 00000KT 10SM OVC060 15/12 A3018 -190 80 -100 000/00 RMK AO2 T01500117
13976KLFT LFT20191105070010711/05/19 07:00:31  5-MIN KLFT 051300Z 00000KT 10SM OVC060 15/12 A3018 -190 80 -100 000/00 RMK AO2 T01500117
13976KLFT LFT20191105070510711/05/19 07:05:31  5-MIN KLFT 051305Z 11003KT 10SM OVC060 15/12 A3018 -190 83 -100 110/03 RMK AO2 T01500122
13976KLFT LFT20191105071010711/05/19 07:10:31  5-MIN KLFT 051310Z 00000KT 10SM OVC060 15/12 A3018 -190 83 -100 000/00 RMK AO2 T01500122
13976KLFT LFT20191105071510711/05/19 07:15:31  5-MIN KLFT 051315Z 00000KT 10SM OVC065 15/12 A3018 -190 83 -200 000/00 RMK AO2 T01500122
13976KLFT LFT20191105072010711/05/19 07:20:31  5-MIN KLFT 051320Z 10003KT 10SM OVC060 15/12 A3018 -190 83 -100 100/03 RMK AO2 T01500122
13976KLFT LFT20191105072510711/05/19 07:25:31  5-MIN KLFT 051325Z VRB03KT 10SM OVC060 15/12 A3017 -190 83 -100 VRB/03 RMK AO2 T01500122
13976KLFT LFT20191105073010711/05/19 07:30:31  5-MIN KLFT 051330Z 11005KT 10SM OVC060 15/12 A3018 -190 80 -100 110/05 RMK AO2 T01500117
13976KLFT LFT20191105073510711/05/19 07:35:31  5-MIN KLFT 051335Z VRB04KT 10SM OVC065 15/12 A3018 -190 80 -200 VRB/04 RMK AO2 T01500117
13976KLFT LFT20191105074010711/05/19 07:40:31  5-MIN KLFT 051340Z 08004KT 10SM OVC070 16/12 A3018 -190 77 -100 080/04 RMK AO2 T01560117
13976KLFT LFT20191105074510711/05/19 07:45:31  5-MIN KLFT 051345Z VRB03KT 10SM OVC070 16/11 A3019 -190 74 -100 VRB/03 RMK AO2 T01560111
13976KLFT LFT20191105075011411/05/19 07:50:31  5-MIN KLFT 051350Z 00000KT 10SM OVC070 16/11 A3019 -200 74 -100 000/00 RMK AO2 SLP222 T01560111
13976KLFT LFT20191105075510711/05/19 07:55:31  5-MIN KLFT 051355Z 00000KT 10SM OVC070 16/11 A3019 -200 74 -100 000/00 RMK AO2 T01560111
13976KLFT LFT20191105080010411/05/19 08:00:31  5-MIN KLFT 051400Z 00000KT 10SM OVC075 16/11 A3019 -200 72 0 000/00 RMK AO2 T01610111
13976KLFT LFT20191105080510411/05/19 08:05:31  5-MIN KLFT 051405Z 00000KT 10SM OVC075 16/11 A3019 -200 72 0 000/00 RMK AO2 T01610111
13976KLFT LFT20191105081010411/05/19 08:10:31  5-MIN KLFT 051410Z 00000KT 10SM OVC075 16/11 A3019 -200 72 0 000/00 RMK AO2 T01610111
13976KLFT LFT20191105081510411/05/19 08:15:31  5-MIN KLFT 051415Z 00000KT 10SM OVC075 16/11 A3019 -200 72 0 000/00 RMK AO2 T01610111
13976KLFT LFT20191105082010411/05/19 08:20:31  5-MIN KLFT 051420Z 00000KT 10SM OVC075 17/12 A3019 -200 72 0 000/00 RMK AO2 T01670117
13976KLFT LFT20191105082510411/05/19 08:25:31  5-MIN KLFT 051425Z 00000KT 10SM OVC075 17/12 A3020 -200 72 0 000/00 RMK AO2 T01670117
13976KLFT LFT20191105083010411/05/19 08:30:31  5-MIN KLFT 051430Z 00000KT 10SM OVC075 17/12 A3020 -200 72 0 000/00 RMK AO2 T01670117
13976KLFT LFT20191105083510411/05/19 08:35:31  5-MIN KLFT 051435Z 00000KT 10SM OVC075 17/11 A3020 -210 69 0 000/00 RMK AO2 T01670111
13976KLFT LFT20191105084010411/05/19 08:40:31  5-MIN KLFT 051440Z 12003KT 10SM OVC075 17/12 A3020 -210 69 0 120/03 RMK AO2 T01720117
13976KLFT LFT20191105084510411/05/19 08:45:31  5-MIN KLFT 051445Z 00000KT 10SM OVC075 17/11 A3020 -210 67 0 000/00 RMK AO2 T01720111
13976KLFT LFT20191105085011711/05/19 08:50:31  5-MIN KLFT 051450Z 12003KT 10SM OVC075 17/11 A3020 -210 67 0 120/03 RMK AO2 SLP227 T01720111 52012
13976KLFT LFT20191105085510411/05/19 08:55:31  5-MIN KLFT 051455Z 00000KT 10SM OVC075 17/11 A3020 -210 67 0 000/00 RMK AO2 T01720111
13976KLFT LFT20191105090010611/05/19 09:00:31  5-MIN KLFT 051500Z 00000KT 10SM OVC075 18/11 A3020 -210 64 100 000/00 RMK AO2 T01780111
13976KLFT LFT20191105090510611/05/19 09:05:31  5-MIN KLFT 051505Z 12003KT 10SM OVC075 18/12 A3020 -210 67 100 120/03 RMK AO2 T01780117
13976KLFT LFT20191105091010611/05/19 09:10:31  5-MIN KLFT 051510Z 00000KT 10SM OVC075 18/12 A3021 -210 67 100 000/00 RMK AO2 T01780117
13976KLFT LFT20191105091510611/05/19 09:15:31  5-MIN KLFT 051515Z 12003KT 10SM OVC075 18/12 A3021 -220 65 200 120/03 RMK AO2 T01830117
13976KLFT LFT20191105092010611/05/19 09:20:31  5-MIN KLFT 051520Z 00000KT 10SM OVC080 18/12 A3021 -220 65 200 000/00 RMK AO2 T01830117
13976KLFT LFT20191105092510611/05/19 09:25:31  5-MIN KLFT 051525Z 00000KT 10SM OVC080 19/12 A3021 -220 62 200 000/00 RMK AO2 T01890117
13976KLFT LFT20191105093010611/05/19 09:30:31  5-MIN KLFT 051530Z 00000KT 10SM OVC080 19/12 A3021 -220 62 200 000/00 RMK AO2 T01890117
13976KLFT LFT20191105093510611/05/19 09:35:31  5-MIN KLFT 051535Z 00000KT 10SM OVC080 19/12 A3021 -220 60 300 000/00 RMK AO2 T01940117
13976KLFT LFT20191105094010611/05/19 09:40:31  5-MIN KLFT 051540Z 10003KT 10SM OVC080 19/11 A3021 -220 58 300 100/03 RMK AO2 T01940111
13976KLFT LFT20191105094510611/05/19 09:45:31  5-MIN KLFT 051545Z 00000KT 10SM OVC080 20/11 A3021 -220 56 300 000/00 RMK AO2 T02000111
13976KLFT LFT20191105095011311/05/19 09:50:31  5-MIN KLFT 051550Z 00000KT 10SM OVC080 20/11 A3021 -220 54 300 000/00 RMK AO2 SLP230 T02000106
13976KLFT LFT20191105095510611/05/19 09:55:31  5-MIN KLFT 051555Z 00000KT 10SM BKN080 20/11 A3022 -220 54 300 000/00 RMK AO2 T02000106
13976KLFT LFT20191105100010611/05/19 10:00:31  5-MIN KLFT 051600Z 10003KT 10SM BKN080 21/10 A3022 -220 50 400 100/03 RMK AO2 T02060100
13976KLFT LFT20191105100510611/05/19 10:05:31  5-MIN KLFT 051605Z 00000KT 10SM SCT080 21/09 A3022 -230 48 400 000/00 RMK AO2 T02060094
13976KLFT LFT20191105101010611/05/19 10:10:31  5-MIN KLFT 051610Z VRB03KT 10SM BKN080 21/09 A3022 -230 45 500 VRB/03 RMK AO2 T02110089
13976KLFT LFT20191105101510611/05/19 10:15:31  5-MIN KLFT 051615Z VRB03KT 10SM BKN080 21/09 A3022 -220 45 500 VRB/03 RMK AO2 T02110089
13976KLFT LFT20191105102010611/05/19 10:20:31  5-MIN KLFT 051620Z 13003KT 10SM BKN080 22/08 A3021 -220 42 500 130/03 RMK AO2 T02170083
13976KLFT LFT20191105102510611/05/19 10:25:31  5-MIN KLFT 051625Z 12003KT 10SM BKN085 22/09 A3021 -220 43 500 120/03 RMK AO2 T02170089
13976KLFT LFT20191105103010611/05/19 10:30:31  5-MIN KLFT 051630Z 00000KT 10SM OVC085 22/10 A3022 -220 45 600 000/00 RMK AO2 T02220100
13976KLFT LFT20191105103510611/05/19 10:35:31  5-MIN KLFT 051635Z 00000KT 10SM OVC085 22/11 A3022 -220 47 600 000/00 RMK AO2 T02220106
13976KLFT LFT20191105104010611/05/19 10:40:31  5-MIN KLFT 051640Z VRB03KT 10SM OVC085 23/12 A3022 -220 49 700 VRB/03 RMK AO2 T02280117
13976KLFT LFT20191105104510611/05/19 10:45:31  5-MIN KLFT 051645Z 00000KT 10SM BKN085 23/12 A3021 -220 49 700 000/00 RMK AO2 T02280117
13976KLFT LFT20191105105011311/05/19 10:50:31  5-MIN KLFT 051650Z 00000KT 10SM BKN085 23/12 A3021 -220 51 700 000/00 RMK AO2 SLP230 T02280122
13976KLFT LFT20191105105510611/05/19 10:55:31  5-MIN KLFT 051655Z 09003KT 10SM BKN085 23/12 A3021 -220 51 700 090/03 RMK AO2 T02280122
13976KLFT LFT20191105110010611/05/19 11:00:31  5-MIN KLFT 051700Z 06004KT 10SM BKN085 23/13 A3021 -220 51 700 060/04 RMK AO2 T02330128
13976KLFT LFT20191105110510611/05/19 11:05:31  5-MIN KLFT 051705Z VRB03KT 10SM BKN085 23/13 A3021 -220 51 700 VRB/03 RMK AO2 T02330128
13976KLFT LFT20191105111010611/05/19 11:10:31  5-MIN KLFT 051710Z 08004KT 10SM BKN085 23/13 A3021 -220 51 700 080/04 RMK AO2 T02330128
13976KLFT LFT20191105111510611/05/19 11:15:31  5-MIN KLFT 051715Z VRB04KT 10SM BKN085 23/13 A3021 -220 51 700 VRB/04 RMK AO2 T02330128
13976KLFT LFT20191105112010611/05/19 11:20:31  5-MIN KLFT 051720Z 05004KT 10SM SCT090 24/13 A3021 -220 51 800 040/04 RMK AO2 T02390133
13976KLFT LFT20191105112510611/05/19 11:25:31  5-MIN KLFT 051725Z VRB04KT 10SM SCT090 23/13 A3021 -220 53 700 VRB/04 RMK AO2 T02330133
13976KLFT LFT20191105113010611/05/19 11:30:31  5-MIN KLFT 051730Z 08005KT 10SM BKN090 24/13 A3021 -220 51 800 080/05 RMK AO2 T02390133
13976KLFT LFT20191105113510611/05/19 11:35:31  5-MIN KLFT 051735Z VRB04KT 10SM BKN090 24/13 A3021 -210 51 800 VRB/04 RMK AO2 T02390133
13976KLFT LFT20191105114010611/05/19 11:40:31  5-MIN KLFT 051740Z 00000KT 10SM SCT090 24/14 A3021 -210 53 800 000/00 RMK AO2 T02390139
13976KLFT LFT20191105114510611/05/19 11:45:31  5-MIN KLFT 051745Z 08003KT 10SM SCT090 24/14 A3020 -210 51 900 080/03 RMK AO2 T02440139
13976KLFT LFT20191105115013111/05/19 11:50:31  5-MIN KLFT 051750Z 07004KT 10SM FEW090 24/14 A3020 -210 51 900 070/04 RMK AO2 SLP226 T02440139 10244 20150 51015
13976KLFT LFT20191105115510611/05/19 11:55:31  5-MIN KLFT 051755Z VRB03KT 10SM FEW090 24/14 A3019 -200 51 900 VRB/03 RMK AO2 T02440139
13976KLFT LFT20191105120010411/05/19 12:00:31  5-MIN KLFT 051800Z VRB04KT 10SM CLR 25/14 A3019 -200 51 1000 VRB/04 RMK AO2 T02500144
13976KLFT LFT20191105120510411/05/19 12:05:31  5-MIN KLFT 051805Z 09004KT 10SM CLR 25/14 A3019 -190 51 1000 090/04 RMK AO2 T02500144
13976KLFT LFT20191105121010311/05/19 12:10:31  5-MIN KLFT 051810Z 10004KT 10SM CLR 24/14 A3018 -190 51 900 100/04 RMK AO2 T02440139
13976KLFT LFT20191105121510411/05/19 12:15:31  5-MIN KLFT 051815Z 10005KT 10SM CLR 25/14 A3017 -190 49 1000 090/05 RMK AO2 T02500139
13976KLFT LFT20191105122010411/05/19 12:20:31  5-MIN KLFT 051820Z 09004KT 10SM CLR 25/14 A3017 -180 49 1000 090/04 RMK AO2 T02500139
13976KLFT LFT20191105122510411/05/19 12:25:31  5-MIN KLFT 051825Z VRB04KT 10SM CLR 25/14 A3017 -180 49 1000 VRB/04 RMK AO2 T02500139
13976KLFT LFT20191105123012011/05/19 12:30:31  5-MIN KLFT 051830Z 04007KT 020V080 10SM CLR 26/14 A3016 -180 49 1000 040/07 020V080 RMK AO2 T02560144
13976KLFT LFT20191105123510411/05/19 12:35:31  5-MIN KLFT 051835Z 08004KT 10SM CLR 26/14 A3016 -170 48 1000 080/04 RMK AO2 T02560139
13976KLFT LFT20191105124010411/05/19 12:40:31  5-MIN KLFT 051840Z VRB04KT 10SM CLR 25/14 A3016 -170 49 1000 VRB/04 RMK AO2 T02500139
13976KLFT LFT20191105124510411/05/19 12:45:31  5-MIN KLFT 051845Z 06005KT 10SM CLR 26/14 A3016 -170 49 1000 060/05 RMK AO2 T02560144
13976KLFT LFT20191105125011111/05/19 12:50:31  5-MIN KLFT 051850Z VRB03KT 10SM CLR 26/14 A3016 -170 49 1000 VRB/03 RMK AO2 SLP212 T02560144
13976KLFT LFT20191105125510411/05/19 12:55:31  5-MIN KLFT 051855Z 07004KT 10SM CLR 25/14 A3016 -170 49 1000 070/04 RMK AO2 T02500139
13976KLFT LFT20191105130009411/05/19 13:00:31  5-MIN KLFT 051900Z 10SM CLR 26/14 A3016 -170 48 1000 M /M RMK AO2 T02560139
13976KLFT LFT20191105130510411/05/19 13:05:31  5-MIN KLFT 051905Z 07006KT 10SM CLR 26/14 A3016 -170 48 1000 060/06 RMK AO2 T02560139
13976KLFT LFT20191105131010411/05/19 13:10:31  5-MIN KLFT 051910Z 04006KT 10SM CLR 26/14 A3015 -170 48 1100 040/06 RMK AO2 T02610144
13976KLFT LFT20191105131510411/05/19 13:15:31  5-MIN KLFT 051915Z 08004KT 10SM CLR 26/14 A3015 -170 46 1100 080/04 RMK AO2 T02610139
13976KLFT LFT20191105132010411/05/19 13:20:31  5-MIN KLFT 051920Z 04008KT 10SM CLR 26/14 A3015 -170 48 1100 040/08 RMK AO2 T02560139
13976KLFT LFT20191105132510411/05/19 13:25:31  5-MIN KLFT 051925Z 03008KT 10SM CLR 26/14 A3015 -160 48 1100 030/08 RMK AO2 T02560139
13976KLFT LFT20191105133010411/05/19 13:30:31  5-MIN KLFT 051930Z VRB05KT 10SM CLR 26/14 A3015 -160 49 1100 VRB/05 RMK AO2 T02560144
13976KLFT LFT20191105133510411/05/19 13:35:31  5-MIN KLFT 051935Z 06004KT 10SM CLR 26/14 A3015 -160 48 1100 060/04 RMK AO2 T02560139
13976KLFT LFT20191105134010411/05/19 13:40:31  5-MIN KLFT 051940Z VRB04KT 10SM CLR 25/14 A3015 -160 49 1000 VRB/04 RMK AO2 T02500139
13976KLFT LFT20191105134510411/05/19 13:45:31  5-MIN KLFT 051945Z 04003KT 10SM CLR 25/14 A3015 -160 51 1000 040/03 RMK AO2 T02500144
13976KLFT LFT20191105135011111/05/19 13:50:31  5-MIN KLFT 051950Z VRB05KT 10SM CLR 26/14 A3015 -160 49 1100 VRB/05 RMK AO2 SLP209 T02560144
13976KLFT LFT20191105135510411/05/19 13:55:31  5-MIN KLFT 051955Z 05005KT 10SM CLR 25/14 A3015 -160 51 1000 050/05 RMK AO2 T02500144
13976KLFT LFT20191105140010411/05/19 14:00:31  5-MIN KLFT 052000Z 04004KT 10SM CLR 26/14 A3015 -160 49 1100 040/04 RMK AO2 T02560144
13976KLFT LFT20191105140510411/05/19 14:05:31  5-MIN KLFT 052005Z 07004KT 10SM CLR 26/15 A3015 -160 51 1100 070/04 RMK AO2 T02560150
13976KLFT LFT20191105141010411/05/19 14:10:31  5-MIN KLFT 052010Z VRB03KT 10SM CLR 25/14 A3015 -160 51 1000 VRB/03 RMK AO2 T02500144
13976KLFT LFT20191105141510411/05/19 14:15:31  5-MIN KLFT 052015Z 07004KT 10SM CLR 26/14 A3015 -160 49 1100 070/04 RMK AO2 T02560144
13976KLFT LFT20191105142010411/05/19 14:20:31  5-MIN KLFT 052020Z 05005KT 10SM CLR 26/14 A3015 -160 49 1100 050/05 RMK AO2 T02560144
13976KLFT LFT20191105142510411/05/19 14:25:31  5-MIN KLFT 052025Z 04005KT 10SM CLR 26/14 A3015 -160 49 1100 040/05 RMK AO2 T02560144
13976KLFT LFT20191105143010411/05/19 14:30:31  5-MIN KLFT 052030Z 05004KT 10SM CLR 25/14 A3015 -160 51 1000 050/04 RMK AO2 T02500144
13976KLFT LFT20191105143510411/05/19 14:35:31  5-MIN KLFT 052035Z 07004KT 10SM CLR 25/14 A3015 -160 51 1000 060/04 RMK AO2 T02500144
13976KLFT LFT20191105144010411/05/19 14:40:31  5-MIN KLFT 052040Z 07005KT 10SM CLR 25/14 A3015 -160 51 1000 060/05 RMK AO2 T02500144
13976KLFT LFT20191105144510411/05/19 14:45:31  5-MIN KLFT 052045Z 06005KT 10SM CLR 25/14 A3015 -160 51 1000 060/05 RMK AO2 T02500144
13976KLFT LFT20191105145011711/05/19 14:50:31  5-MIN KLFT 052050Z 07005KT 10SM CLR 25/14 A3015 -160 51 1000 060/05 RMK AO2 SLP209 T02500144 58002
13976KLFT LFT20191105145510411/05/19 14:55:31  5-MIN KLFT 052055Z 08003KT 10SM CLR 25/14 A3015 -160 51 1000 080/03 RMK AO2 T02500144
13976KLFT LFT20191105150010411/05/19 15:00:31  5-MIN KLFT 052100Z 06006KT 10SM CLR 25/15 A3015 -160 53 1000 060/06 RMK AO2 T02500150
13976KLFT LFT20191105150510411/05/19 15:05:31  5-MIN KLFT 052105Z 07003KT 10SM CLR 25/15 A3015 -160 53 1000 070/03 RMK AO2 T02500150
13976KLFT LFT20191105151010411/05/19 15:10:31  5-MIN KLFT 052110Z 07003KT 10SM CLR 25/15 A3015 -170 53 1000 070/03 RMK AO2 T02500150
13976KLFT LFT20191105151510311/05/19 15:15:31  5-MIN KLFT 052115Z 08004KT 10SM CLR 24/15 A3015 -170 55 900 070/04 RMK AO2 T02440150
13976KLFT LFT20191105152010311/05/19 15:20:31  5-MIN KLFT 052120Z 06005KT 10SM CLR 24/15 A3015 -170 55 900 060/05 RMK AO2 T02440150
13976KLFT LFT20191105152510411/05/19 15:25:31  5-MIN KLFT 052125Z 07003KT 10SM CLR 25/15 A3015 -170 53 1000 070/03 RMK AO2 T02500150
13976KLFT LFT20191105153010311/05/19 15:30:31  5-MIN KLFT 052130Z 06004KT 10SM CLR 24/15 A3015 -170 55 900 060/04 RMK AO2 T02440150
13976KLFT LFT20191105153510411/05/19 15:35:31  5-MIN KLFT 052135Z 07004KT 10SM CLR 25/15 A3016 -170 53 1000 070/04 RMK AO2 T02500150
13976KLFT LFT20191105154010311/05/19 15:40:31  5-MIN KLFT 052140Z 09003KT 10SM CLR 24/15 A3016 -170 55 900 080/03 RMK AO2 T02440150
13976KLFT LFT20191105154510311/05/19 15:45:31  5-MIN KLFT 052145Z 08003KT 10SM CLR 24/15 A3016 -170 55 900 080/03 RMK AO2 T02440150
13976KLFT LFT20191105155011011/05/19 15:50:31  5-MIN KLFT 052150Z 00000KT 10SM CLR 24/15 A3016 -180 57 900 000/00 RMK AO2 SLP214 T02390150
13976KLFT LFT20191105155510311/05/19 15:55:31  5-MIN KLFT 052155Z 00000KT 10SM CLR 24/15 A3016 -170 57 900 000/00 RMK AO2 T02390150
13976KLFT LFT20191105160010611/05/19 16:00:31  5-MIN KLFT 052200Z 07003KT 10SM FEW050 24/16 A3016 -170 59 900 070/03 RMK AO2 T02390156
13976KLFT LFT20191105160510611/05/19 16:05:31  5-MIN KLFT 052205Z 00000KT 10SM FEW050 24/15 A3016 -180 57 900 000/00 RMK AO2 T02390150
13976KLFT LFT20191105161010611/05/19 16:10:31  5-MIN KLFT 052210Z 00000KT 10SM SCT050 24/16 A3017 -180 59 900 000/00 RMK AO2 T02390156
13976KLFT LFT20191105161510611/05/19 16:15:31  5-MIN KLFT 052215Z 00000KT 10SM BKN050 24/16 A3017 -180 59 800 000/00 RMK AO2 T02390156
13976KLFT LFT20191105162010611/05/19 16:20:31  5-MIN KLFT 052220Z 00000KT 10SM BKN050 24/16 A3017 -180 59 800 000/00 RMK AO2 T02390156
13976KLFT LFT20191105162510611/05/19 16:25:31  5-MIN KLFT 052225Z 00000KT 10SM BKN050 24/16 A3017 -180 59 800 000/00 RMK AO2 T02390156
13976KLFT LFT20191105163010611/05/19 16:30:31  5-MIN KLFT 052230Z 00000KT 10SM BKN050 24/16 A3017 -180 59 800 000/00 RMK AO2 T02390156
13976KLFT LFT20191105163510611/05/19 16:35:31  5-MIN KLFT 052235Z 00000KT 10SM BKN050 23/16 A3017 -180 63 800 000/00 RMK AO2 T02330161
13976KLFT LFT20191105164010611/05/19 16:40:31  5-MIN KLFT 052240Z 00000KT 10SM SCT050 23/16 A3017 -180 65 700 000/00 RMK AO2 T02280161
13976KLFT LFT20191105164510611/05/19 16:45:31  5-MIN KLFT 052245Z 00000KT 10SM SCT050 22/16 A3017 -180 68 700 000/00 RMK AO2 T02220161
13976KLFT LFT20191105165012011/05/19 16:50:31  5-MIN KLFT 052250Z 00000KT 10SM FEW041 SCT050 22/17 A3017 -180 73 600 000/00 RMK AO2 SLP216 T02170167
13976KLFT LFT20191105165510611/05/19 16:55:31  5-MIN KLFT 052255Z 00000KT 10SM SCT041 22/17 A3017 -180 70 700 000/00 RMK AO2 T02220167
13976KLFT LFT20191105170010611/05/19 17:00:31  5-MIN KLFT 052300Z 05003KT 10SM BKN041 22/17 A3017 -180 70 700 040/03 RMK AO2 T02220167
13976KLFT LFT20191105170510611/05/19 17:05:31  5-MIN KLFT 052305Z 00000KT 10SM BKN041 22/17 A3018 -190 70 600 000/00 RMK AO2 T02220167
13976KLFT LFT20191105171010611/05/19 17:10:31  5-MIN KLFT 052310Z 03004KT 10SM BKN041 22/17 A3018 -190 70 600 030/04 RMK AO2 T02220167
13976KLFT LFT20191105171510611/05/19 17:15:31  5-MIN KLFT 052315Z 03008KT 10SM OVC042 22/16 A3018 -190 68 600 030/08 RMK AO2 T02220161
13976KLFT LFT20191105172010611/05/19 17:20:31  5-MIN KLFT 052320Z 03006KT 10SM OVC042 22/16 A3018 -190 68 600 030/06 RMK AO2 T02220161
13976KLFT LFT20191105172510611/05/19 17:25:31  5-MIN KLFT 052325Z 04006KT 10SM OVC042 22/16 A3018 -190 70 600 040/06 RMK AO2 T02170161
13976KLFT LFT20191106144010411/06/19 14:40:31  5-MIN KLFT 062040Z 05005KT 10SM CLR 25/13 A3016 -170 46 1000 050/05 RMK AO2 T02500128
13976KLFT LFT20191106144510411/06/19 14:45:31  5-MIN KLFT 062045Z VRB05KT 10SM CLR 26/13 A3016 -170 46 1000 VRB/05 RMK AO2 T02560133
13976KLFT LFT20191106145011711/06/19 14:50:31  5-MIN KLFT 062050Z 07004KT 10SM CLR 25/13 A3016 -170 48 1000 070/04 RMK AO2 SLP211 T02500133 58018
13976KLFT LFT20191106145510411/06/19 14:55:31  5-MIN KLFT 062055Z 06005KT 10SM CLR 26/13 A3016 -170 46 1000 050/05 RMK AO2 T02560133
13976KLFT LFT20191106150010411/06/19 15:00:31  5-MIN KLFT 062100Z 08003KT 10SM CLR 25/13 A3015 -170 48 1000 080/03 RMK AO2 T02500133
13976KLFT LFT20191106150510411/06/19 15:05:31  5-MIN KLFT 062105Z 06004KT 10SM CLR 26/14 A3015 -170 48 1100 060/04 RMK AO2 T02560139
13976KLFT LFT20191106151010411/06/19 15:10:31  5-MIN KLFT 062110Z VRB03KT 10SM CLR 26/14 A3015 -170 48 1100 VRB/03 RMK AO2 T02560139
13976KLFT LFT20191106151510411/06/19 15:15:31  5-MIN KLFT 062115Z 08003KT 10SM CLR 25/13 A3015 -160 48 1000 080/03 RMK AO2 T02500133
13976KLFT LFT20191106152010411/06/19 15:20:31  5-MIN KLFT 062120Z 00000KT 10SM CLR 25/14 A3015 -160 49 1000 000/00 RMK AO2 T02500139
13976KLFT LFT20191106152510411/06/19 15:25:31  5-MIN KLFT 062125Z VRB03KT 10SM CLR 25/14 A3015 -160 49 1000 VRB/03 RMK AO2 T02500139
13976KLFT LFT20191106153010411/06/19 15:30:31  5-MIN KLFT 062130Z 08004KT 10SM CLR 25/14 A3015 -160 49 1000 080/04 RMK AO2 T02500139
13976KLFT LFT20191106153510411/06/19 15:35:31  5-MIN KLFT 062135Z 11003KT 10SM CLR 25/14 A3014 -160 49 1000 110/03 RMK AO2 T02500139
13976KLFT LFT20191106154010411/06/19 15:40:31  5-MIN KLFT 062140Z 07003KT 10SM CLR 25/14 A3014 -160 49 1000 070/03 RMK AO2 T02500139
13976KLFT LFT20191106154510411/06/19 15:45:31  5-MIN KLFT 062145Z 07004KT 10SM CLR 25/14 A3014 -160 49 1000 070/04 RMK AO2 T02500139
13976KLFT LFT20191106155011111/06/19 15:50:31  5-MIN KLFT 062150Z 06004KT 10SM CLR 25/14 A3014 -160 49 1000 060/04 RMK AO2 SLP206 T02500139
13976KLFT LFT20191106155510411/06/19 15:55:31  5-MIN KLFT 062155Z 00000KT 10SM CLR 25/14 A3014 -160 49 1000 000/00 RMK AO2 T02500139
13976KLFT LFT20191106160010411/06/19 16:00:31  5-MIN KLFT 062200Z 07003KT 10SM CLR 25/14 A3015 -160 51 1000 070/03 RMK AO2 T02500144
13976KLFT LFT20191106160510411/06/19 16:05:31  5-MIN KLFT 062205Z 08003KT 10SM CLR 25/14 A3015 -160 51 1000 080/03 RMK AO2 T02500144
13976KLFT LFT20191106161010411/06/19 16:10:31  5-MIN KLFT 062210Z VRB03KT 10SM CLR 25/14 A3015 -160 51 1000 VRB/03 RMK AO2 T02500144
13976KLFT LFT20191106161510311/06/19 16:15:31  5-MIN KLFT 062215Z 09003KT 10SM CLR 24/14 A3015 -160 53 900 090/03 RMK AO2 T02440144
13976KLFT LFT20191106162010311/06/19 16:20:31  5-MIN KLFT 062220Z 08003KT 10SM CLR 24/14 A3015 -160 53 900 080/03 RMK AO2 T02440144
13976KLFT LFT20191106162510311/06/19 16:25:31  5-MIN KLFT 062225Z 00000KT 10SM CLR 24/14 A3015 -160 53 900 000/00 RMK AO2 T02440144
13976KLFT LFT20191106163010311/06/19 16:30:31  5-MIN KLFT 062230Z 09003KT 10SM CLR 24/14 A3015 -160 53 900 090/03 RMK AO2 T02440144
13976KLFT LFT20191106163510311/06/19 16:35:31  5-MIN KLFT 062235Z 00000KT 10SM CLR 24/14 A3015 -160 53 900 000/00 RMK AO2 T02440144
13976KLFT LFT20191106164010311/06/19 16:40:31  5-MIN KLFT 062240Z 00000KT 10SM CLR 24/15 A3015 -170 57 900 000/00 RMK AO2 T02390150
13976KLFT LFT20191106164510311/06/19 16:45:31  5-MIN KLFT 062245Z 00000KT 10SM CLR 24/15 A3015 -160 57 900 000/00 RMK AO2 T02390150
13976KLFT LFT20191106165011011/06/19 16:50:31  5-MIN KLFT 062250Z 00000KT 10SM CLR 24/15 A3015 -160 57 900 000/00 RMK AO2 SLP209 T02390150
13976KLFT LFT20191106165510311/06/19 16:55:31  5-MIN KLFT 062255Z 00000KT 10SM CLR 23/15 A3015 -160 59 800 000/00 RMK AO2 T02330150
13976KLFT LFT20191106170010311/06/19 17:00:31  5-MIN KLFT 062300Z 00000KT 10SM CLR 23/16 A3015 -170 63 700 000/00 RMK AO2 T02280156
13976KLFT LFT20191106170510311/06/19 17:05:31  5-MIN KLFT 062305Z 00000KT 10SM CLR 23/16 A3015 -170 63 700 000/00 RMK AO2 T02280156
13976KLFT LFT20191106171010311/06/19 17:10:31  5-MIN KLFT 062310Z 00000KT 10SM CLR 22/16 A3016 -170 65 700 000/00 RMK AO2 T02220156
13976KLFT LFT20191106171510311/06/19 17:15:31  5-MIN KLFT 062315Z 00000KT 10SM CLR 22/16 A3016 -170 68 600 000/00 RMK AO2 T02170156
13976KLFT LFT20191106172010311/06/19 17:20:31  5-MIN KLFT 062320Z 00000KT 10SM CLR 21/16 A3016 -170 73 500 000/00 RMK AO2 T02110161
13976KLFT LFT20191106172510311/06/19 17:25:31  5-MIN KLFT 062325Z 00000KT 10SM CLR 21/17 A3016 -170 78 500 000/00 RMK AO2 T02060167
13976KLFT LFT20191106173010311/06/19 17:30:31  5-MIN KLFT 062330Z 00000KT 10SM CLR 20/17 A3016 -170 81 400 000/00 RMK AO2 T02000167
13976KLFT LFT20191106173510311/06/19 17:35:31  5-MIN KLFT 062335Z 00000KT 10SM CLR 20/17 A3016 -170 81 400 000/00 RMK AO2 T02000167
13976KLFT LFT20191106174010311/06/19 17:40:31  5-MIN KLFT 062340Z 00000KT 10SM CLR 20/17 A3016 -170 81 400 000/00 RMK AO2 T02000167
13976KLFT LFT20191106174510311/06/19 17:45:31  5-MIN KLFT 062345Z 00000KT 10SM CLR 20/17 A3016 -170 81 400 000/00 RMK AO2 T02000167
13976KLFT LFT20191106175012811/06/19 17:50:31  5-MIN KLFT 062350Z 00000KT 10SM CLR 20/17 A3016 -170 81 400 000/00 RMK AO2 SLP213 T02000167 10256 20200 56025
13976KLFT LFT20191106175510311/06/19 17:55:31  5-MIN KLFT 062355Z 00000KT 10SM CLR 19/17 A3016 -170 84 300 000/00 RMK AO2 T01940167
13976KLFT LFT20191106180010311/06/19 18:00:31  5-MIN KLFT 070000Z 00000KT 10SM CLR 19/16 A3016 -180 81 300 000/00 RMK AO2 T01940161
13976KLFT LFT20191106180510311/06/19 18:05:31  5-MIN KLFT 070005Z 00000KT 10SM CLR 19/16 A3016 -170 81 300 000/00 RMK AO2 T01940161
13976KLFT LFT20191106181010311/06/19 18:10:31  5-MIN KLFT 070010Z 00000KT 10SM CLR 19/17 A3016 -170 87 300 000/00 RMK AO2 T01890167
13976KLFT LFT20191106181510311/06/19 18:15:31  5-MIN KLFT 070015Z 00000KT 10SM CLR 19/17 A3016 -170 87 300 000/00 RMK AO2 T01890167
13976KLFT LFT20191106182010311/06/19 18:20:31  5-MIN KLFT 070020Z 00000KT 10SM CLR 19/17 A3016 -170 87 300 000/00 RMK AO2 T01890167
13976KLFT LFT20191106182510311/06/19 18:25:31  5-MIN KLFT 070025Z 00000KT 10SM CLR 18/17 A3016 -170 90 200 000/00 RMK AO2 T01830167
13976KLFT LFT20191106183010311/06/19 18:30:31  5-MIN KLFT 070030Z 00000KT 10SM CLR 18/17 A3016 -180 90 200 000/00 RMK AO2 T01830167
13976KLFT LFT20191106183510311/06/19 18:35:31  5-MIN KLFT 070035Z 00000KT 10SM CLR 18/16 A3017 -180 87 200 000/00 RMK AO2 T01830161
13976KLFT LFT20191106184010311/06/19 18:40:31  5-MIN KLFT 070040Z 00000KT 10SM CLR 19/16 A3017 -180 84 300 000/00 RMK AO2 T01890161
13976KLFT LFT20191106184510311/06/19 18:45:31  5-MIN KLFT 070045Z 00000KT 10SM CLR 19/16 A3017 -180 81 300 000/00 RMK AO2 T01890156
13976KLFT LFT20191106185011011/06/19 18:50:31  5-MIN KLFT 070050Z 00000KT 10SM CLR 18/16 A3017 -180 84 200 000/00 RMK AO2 SLP215 T01830156
13976KLFT LFT20191106185510311/06/19 18:55:31  5-MIN KLFT 070055Z 00000KT 10SM CLR 18/16 A3016 -180 87 200 000/00 RMK AO2 T01830161
13976KLFT LFT20191106190010311/06/19 19:00:31  5-MIN KLFT 070100Z 00000KT 10SM CLR 18/16 A3017 -180 90 100 000/00 RMK AO2 T01780161
13976KLFT LFT20191106190510311/06/19 19:05:31  5-MIN KLFT 070105Z 00000KT 10SM CLR 18/17 A3017 -180 90 200 000/00 RMK AO2 T01830167
13976KLFT LFT20191106191010311/06/19 19:10:31  5-MIN KLFT 070110Z 00000KT 10SM CLR 18/17 A3017 -180 93 100 000/00 RMK AO2 T01780167
13976KLFT LFT20191106191510311/06/19 19:15:31  5-MIN KLFT 070115Z 00000KT 10SM CLR 18/17 A3017 -180 93 100 000/00 RMK AO2 T01780167
13976KLFT LFT20191106192010311/06/19 19:20:31  5-MIN KLFT 070120Z 00000KT 10SM CLR 18/17 A3017 -180 93 100 000/00 RMK AO2 T01780167
13976KLFT LFT20191106192510311/06/19 19:25:31  5-MIN KLFT 070125Z 00000KT 10SM CLR 18/16 A3017 -180 90 100 000/00 RMK AO2 T01780161
13976KLFT LFT20191106193010211/06/19 19:30:31  5-MIN KLFT 070130Z 00000KT 9SM CLR 17/16 A3018 -190 93 100 000/00 RMK AO2 T01720161
13976KLFT LFT20191106193510211/06/19 19:35:31  5-MIN KLFT 070135Z 00000KT 9SM CLR 17/16 A3018 -190 90 100 000/00 RMK AO2 T01720156
13976KLFT LFT20191106194010211/06/19 19:40:31  5-MIN KLFT 070140Z 00000KT 9SM CLR 17/16 A3018 -190 93 100 000/00 RMK AO2 T01720161
13976KLFT LFT20191106194510211/06/19 19:45:31  5-MIN KLFT 070145Z 10003KT 9SM CLR 18/16 A3018 -190 90 100 100/03 RMK AO2 T01780161
13976KLFT LFT20191106195011011/06/19 19:50:31  5-MIN KLFT 070150Z 00000KT 10SM CLR 18/16 A3018 -190 90 100 000/00 RMK AO2 SLP219 T01780161
13976KLFT LFT20191106195510311/06/19 19:55:31  5-MIN KLFT 070155Z 00000KT 10SM CLR 18/16 A3018 -190 90 100 000/00 RMK AO2 T01780161
13976KLFT LFT20191106200010311/06/19 20:00:31  5-MIN KLFT 070200Z 00000KT 10SM CLR 18/16 A3018 -190 87 100 000/00 RMK AO2 T01780156
13976KLFT LFT20191106200510311/06/19 20:05:31  5-MIN KLFT 070205Z 09003KT 10SM CLR 18/16 A3017 -180 87 100 090/03 RMK AO2 T01780156
13976KLFT LFT20191106201010311/06/19 20:10:31  5-MIN KLFT 070210Z 00000KT 10SM CLR 18/16 A3017 -180 87 100 000/00 RMK AO2 T01780156
13976KLFT LFT20191106201510311/06/19 20:15:31  5-MIN KLFT 070215Z 00000KT 10SM CLR 18/16 A3017 -190 90 100 000/00 RMK AO2 T01780161
13976KLFT LFT20191106202010311/06/19 20:20:31  5-MIN KLFT 070220Z 11003KT 10SM CLR 18/16 A3017 -180 87 200 110/03 RMK AO2 T01830161
13976KLFT LFT20191106202510211/06/19 20:25:31  5-MIN KLFT 070225Z 00000KT 9SM CLR 18/16 A3017 -180 90 100 000/00 RMK AO2 T01780161
13976KLFT LFT20191106203010211/06/19 20:30:31  5-MIN KLFT 070230Z 00000KT 9SM CLR 18/16 A3017 -180 90 100 000/00 RMK AO2 T01780161
13976KLFT LFT20191106203510211/06/19 20:35:31  5-MIN KLFT 070235Z 00000KT 9SM CLR 18/16 A3017 -180 90 100 000/00 RMK AO2 T01780161
13976KLFT LFT20191106204010211/06/19 20:40:31  5-MIN KLFT 070240Z 00000KT 8SM CLR 18/16 A3017 -180 87 200 000/00 RMK AO2 T01830161
13976KLFT LFT20191106204510211/06/19 20:45:31  5-MIN KLFT 070245Z 00000KT 8SM CLR 18/16 A3017 -180 87 200 000/00 RMK AO2 T01830161
13976KLFT LFT20191106205011511/06/19 20:50:31  5-MIN KLFT 070250Z 00000KT 8SM CLR 18/16 A3017 -180 87 200 000/00 RMK AO2 SLP216 T01830161 53001
13976KLFT LFT20191106205510211/06/19 20:55:31  5-MIN KLFT 070255Z 00000KT 8SM CLR 18/16 A3017 -180 87 200 000/00 RMK AO2 T01830161
13976KLFT LFT20191106210010211/06/19 21:00:31  5-MIN KLFT 070300Z 00000KT 9SM CLR 18/16 A3017 -180 90 100 000/00 RMK AO2 T01780161
13976KLFT LFT20191106210510211/06/19 21:05:31  5-MIN KLFT 070305Z 00000KT 9SM CLR 18/16 A3017 -180 87 200 000/00 RMK AO2 T01830161
13976KLFT LFT20191106211010211/06/19 21:10:31  5-MIN KLFT 070310Z 12003KT 9SM CLR 18/16 A3017 -180 87 200 120/03 RMK AO2 T01830161
13976KLFT LFT20191106211510211/06/19 21:15:31  5-MIN KLFT 070315Z 00000KT 8SM CLR 18/16 A3017 -180 87 200 000/00 RMK AO2 T01830161
13976KLFT LFT20191106212010211/06/19 21:20:31  5-MIN KLFT 070320Z 12003KT 8SM CLR 18/16 A3017 -180 87 200 110/03 RMK AO2 T01830161
13976KLFT LFT20191106212510211/06/19 21:25:31  5-MIN KLFT 070325Z 12003KT 8SM CLR 18/16 A3017 -180 87 200 120/03 RMK AO2 T01830161
13976KLFT LFT20191106213010211/06/19 21:30:31  5-MIN KLFT 070330Z 12003KT 8SM CLR 18/17 A3016 -170 90 200 120/03 RMK AO2 T01830167
13976KLFT LFT20191106213510211/06/19 21:35:31  5-MIN KLFT 070335Z 12003KT 8SM CLR 18/17 A3016 -170 90 200 120/03 RMK AO2 T01830167
13976KLFT LFT20191106214010211/06/19 21:40:31  5-MIN KLFT 070340Z 12003KT 8SM CLR 18/17 A3016 -170 90 200 120/03 RMK AO2 T01830167
13976KLFT LFT20191106214510211/06/19 21:45:31  5-MIN KLFT 070345Z 12003KT 8SM CLR 18/17 A3016 -170 90 200 120/03 RMK AO2 T01830167
13976KLFT LFT20191106215010911/06/19 21:50:31  5-MIN KLFT 070350Z 12003KT 8SM CLR 18/17 A3016 -170 90 200 120/03 RMK AO2 SLP211 T01830167
13976KLFT LFT20191106215510211/06/19 21:55:31  5-MIN KLFT 070355Z 13003KT 8SM CLR 18/17 A3015 -170 90 200 130/03 RMK AO2 T01830167
13976KLFT LFT20191106220010211/06/19 22:00:31  5-MIN KLFT 070400Z 00000KT 8SM CLR 18/17 A3015 -160 93 200 000/00 RMK AO2 T01780167
13976KLFT LFT20191106220510211/06/19 22:05:31  5-MIN KLFT 070405Z 00000KT 8SM CLR 18/16 A3015 -170 87 200 000/00 RMK AO2 T01830161
13976KLFT LFT20191106221010211/06/19 22:10:31  5-MIN KLFT 070410Z 00000KT 8SM CLR 18/16 A3015 -170 90 200 000/00 RMK AO2 T01780161
13976KLFT LFT20191106221510711/06/19 22:15:31  5-MIN KLFT 070415Z AUTO 00000KT 8SM CLR 18/16 A3015 -170 87 200 000/00 RMK AO2 T01830161
13976KLFT LFT20191106222010711/06/19 22:20:31  5-MIN KLFT 070420Z AUTO 00000KT 8SM CLR 18/16 A3015 -170 90 200 000/00 RMK AO2 T01780161
13976KLFT LFT20191106222510711/06/19 22:25:31  5-MIN KLFT 070425Z AUTO 00000KT 7SM CLR 18/16 A3015 -160 90 200 000/00 RMK AO2 T01780161
13976KLFT LFT20191106223011011/06/19 22:30:31  5-MIN KLFT 070430Z AUTO 00000KT 6SM BR CLR 18/16 A3015 -160 90 200 000/00 RMK AO2 T01780161
13976KLFT LFT20191106223511011/06/19 22:35:31  5-MIN KLFT 070435Z AUTO 00000KT 6SM BR CLR 18/16 A3015 -160 90 200 000/00 RMK AO2 T01780161
13976KLFT LFT20191106224011011/06/19 22:40:31  5-MIN KLFT 070440Z AUTO 00000KT 5SM BR CLR 17/16 A3015 -160 93 100 000/00 RMK AO2 T01720161
13976KLFT LFT20191106224511011/06/19 22:45:31  5-MIN KLFT 070445Z AUTO 00000KT 4SM BR CLR 17/16 A3015 -160 93 100 000/00 RMK AO2 T01720161
13976KLFT LFT20191106225011711/06/19 22:50:31  5-MIN KLFT 070450Z AUTO 00000KT 4SM BR CLR 17/16 A3015 -160 93 100 000/00 RMK AO2 SLP208 T01720161
13976KLFT LFT20191106225511011/06/19 22:55:31  5-MIN KLFT 070455Z AUTO 00000KT 3SM BR CLR 17/16 A3015 -160 93 100 000/00 RMK AO2 T01720161
13976KLFT LFT20191106230011011/06/19 23:00:31  5-MIN KLFT 070500Z AUTO 00000KT 3SM BR CLR 17/16 A3014 -160 93 100 000/00 RMK AO2 T01720161
13976KLFT LFT20191106230510811/06/19 23:05:31  5-MIN KLFT 070505Z AUTO 00000KT 3SM BR CLR 17/16 A3014 -160 96 0 000/00 RMK AO2 T01670161
13976KLFT LFT20191106231010811/06/19 23:10:31  5-MIN KLFT 070510Z AUTO 00000KT 3SM BR CLR 17/16 A3014 -150 96 0 000/00 RMK AO2 T01670161
13976KLFT LFT20191106231511011/06/19 23:15:31  5-MIN KLFT 070515Z AUTO 00000KT 3SM BR CLR 17/16 A3014 -150 93 100 000/00 RMK AO2 T01720161
13976KLFT LFT20191106232011011/06/19 23:20:31  5-MIN KLFT 070520Z AUTO 00000KT 4SM BR CLR 17/16 A3014 -150 93 100 000/00 RMK AO2 T01720161
13976KLFT LFT20191106232511011/06/19 23:25:31  5-MIN KLFT 070525Z AUTO 00000KT 3SM BR CLR 17/16 A3014 -150 93 100 000/00 RMK AO2 T01720161
13976KLFT LFT20191106233011011/06/19 23:30:31  5-MIN KLFT 070530Z AUTO 00000KT 3SM BR CLR 17/16 A3014 -150 93 100 000/00 RMK AO2 T01720161
13976KLFT LFT20191106233511011/06/19 23:35:31  5-MIN KLFT 070535Z AUTO 00000KT 3SM BR CLR 17/16 A3014 -150 93 100 000/00 RMK AO2 T01720161
13976KLFT LFT20191106234010811/06/19 23:40:31  5-MIN KLFT 070540Z AUTO 00000KT 3SM BR CLR 17/16 A3014 -150 93 0 000/00 RMK AO2 T01670156
13976KLFT LFT20191106234510811/06/19 23:45:31  5-MIN KLFT 070545Z AUTO 00000KT 5SM BR CLR 17/16 A3013 -150 93 0 000/00 RMK AO2 T01670156
13976KLFT LFT20191106235014311/06/19 23:50:31  5-MIN KLFT 070550Z AUTO 00000KT 5SM BR CLR 17/16 A3014 -150 93 0 000/00 RMK AO2 SLP204 T01670156 10194 20167 402560122 50003
13976KLFT LFT20191106235510811/06/19 23:55:31  5-MIN KLFT 070555Z AUTO 00000KT 4SM BR CLR 17/16 A3013 -150 93 0 000/00 RMK AO2 T01670156
13976KLFT LFT20191107000011011/07/19 00:00:31  5-MIN KLFT 070600Z AUTO 00000KT 4SM BR CLR 17/16 A3013 -150 93 100 000/00 RMK AO2 T01670156
13976KLFT LFT20191107000511011/07/19 00:05:31  5-MIN KLFT 070605Z AUTO 00000KT 3SM BR CLR 17/16 A3013 -150 93 100 000/00 RMK AO2 T01670156
13976KLFT LFT20191107001010811/07/19 00:10:31  5-MIN KLFT 070610Z AUTO 00000KT 2SM BR CLR 17/16 A3013 -150 93 0 000/00 RMK AO2 T01670156
13976KLFT LFT20191107001511211/07/19 00:15:31  5-MIN KLFT 070615Z AUTO 00000KT 1 1/2SM BR CLR 16/16 A3013 -150 96 0 000/00 RMK AO2 T01610156
13976KLFT LFT20191107002011211/07/19 00:20:31  5-MIN KLFT 070620Z AUTO 00000KT 1 1/2SM BR CLR 16/16 A3013 -140 96 0 000/00 RMK AO2 T01610156
13976KLFT LFT20191107002511211/07/19 00:25:31  5-MIN KLFT 070625Z AUTO 00000KT 1 1/2SM BR CLR 16/16 A3013 -140 96 0 000/00 RMK AO2 T01610156
13976KLFT LFT20191107003011211/07/19 00:30:31  5-MIN KLFT 070630Z AUTO 00000KT 1 1/4SM BR CLR 16/16 A3013 -140 96 0 000/00 RMK AO2 T01610156
13976KLFT LFT20191107003510811/07/19 00:35:31  5-MIN KLFT 070635Z AUTO 00000KT 1SM BR CLR 16/16 A3012 -140 96 0 000/00 RMK AO2 T01610156
13976KLFT LFT20191107004010811/07/19 00:40:31  5-MIN KLFT 070640Z AUTO 00000KT 1SM BR CLR 16/16 A3012 -140 96 0 000/00 RMK AO2 T01610156
13976KLFT LFT20191107004511211/07/19 00:45:31  5-MIN KLFT 070645Z AUTO 00000KT 1 1/2SM BR CLR 16/16 A3012 -140 96 0 000/00 RMK AO2 T01610156
13976KLFT LFT20191107005010211/07/19 00:50:31  5-MIN KLFT 070650Z AUTO 00000KT 2 1/2SM BR CLR 16/16 A3012 -140 96 0 000/00 RMK AO2
13976KLFT LFT20191107005511111/07/19 00:55:31  5-MIN KLFT 070655Z AUTO 00000KT 2SM BR FEW022 16/15 A3012 -140 93 0 000/00 RMK AO2 T01610150
13976KLFT LFT20191107010012211/07/19 01:00:31  5-MIN KLFT 070700Z AUTO 00000KT 1 3/4SM BR FEW004 SCT022 16/16 A3012 -140 96 0 000/00 RMK AO2 T01610156
13976KLFT LFT20191107010511811/07/19 01:05:31  5-MIN KLFT 070705Z AUTO 00000KT 2SM BR SCT004 BKN022 16/16 A3012 -130 96 0 000/00 RMK AO2 T01610156
13976KLFT LFT20191107011013411/07/19 01:10:31  5-MIN KLFT 070710Z AUTO 00000KT 2 1/2SM BR BKN002 BKN022 16/16 A3012 -130 96 0 000/00 RMK AO2 CIG 002V005 T01610156
13976KLFT LFT20191107011512011/07/19 01:15:31  5-MIN KLFT 070715Z AUTO 00000KT 2SM BR BKN002 BKN022 17/16 A3011 -130 96 100 000/00 RMK AO2 T01670161
13976KLFT LFT20191107012012011/07/19 01:20:31  5-MIN KLFT 070720Z AUTO 00000KT 1SM BR BKN002 OVC022 17/16 A3011 -130 93 100 000/00 RMK AO2 T01720161
13976KLFT LFT20191107012511411/07/19 01:25:31  5-MIN KLFT 070725Z AUTO 00000KT 1/2SM FG VV002 17/17 A3012 -130 96 100 000/00 RMK AO2 T01720167
13976KLFT LFT20191107013011411/07/19 01:30:31  5-MIN KLFT 070730Z AUTO 00000KT 1/4SM FG VV002 17/17 A3011 -130 96 100 000/00 RMK AO2 T01720167
13976KLFT LFT20191107013511411/07/19 01:35:31  5-MIN KLFT 070735Z AUTO 00000KT 1/4SM FG VV002 17/17 A3011 -130 96 100 000/00 RMK AO2 T01720167
13976KLFT LFT20191107014011411/07/19 01:40:31  5-MIN KLFT 070740Z AUTO 00000KT 1/4SM FG VV002 17/17 A3011 -130 96 100 000/00 RMK AO2 T01720167
13976KLFT LFT20191107014511411/07/19 01:45:31  5-MIN KLFT 070745Z AUTO 00000KT 1/4SM FG VV002 17/17 A3011 -130 96 100 000/00 RMK AO2 T01720167
13976KLFT LFT20191107015012111/07/19 01:50:31  5-MIN KLFT 070750Z AUTO 00000KT 1/4SM FG VV002 17/17 A3011 -130 96 100 000/00 RMK AO2 SLP195 T01720167
13976KLFT LFT20191107015511411/07/19 01:55:31  5-MIN KLFT 070755Z AUTO 00000KT 1/4SM FG VV002 17/17 A3011 -130 96 100 000/00 RMK AO2 T01720167
13976KLFT LFT20191107020011411/07/19 02:00:31  5-MIN KLFT 070800Z AUTO 00000KT 1/4SM FG VV002 17/17 A3011 -120 96 100 000/00 RMK AO2 T01720167
13976KLFT LFT20191107020511411/07/19 02:05:31  5-MIN KLFT 070805Z AUTO 00000KT 1/4SM FG VV002 17/17 A3011 -120 96 100 000/00 RMK AO2 T01720167
13976KLFT LFT20191107021011411/07/19 02:10:31  5-MIN KLFT 070810Z AUTO 00000KT 1/4SM FG VV002 18/17 A3011 -120 93 200 000/00 RMK AO2 T01780167
13976KLFT LFT20191107021511411/07/19 02:15:31  5-MIN KLFT 070815Z AUTO 00000KT 1/4SM FG VV002 18/17 A3010 -120 93 200 000/00 RMK AO2 T01780167
13976KLFT LFT20191107022011411/07/19 02:20:31  5-MIN KLFT 070820Z AUTO 00000KT 1/4SM FG VV002 18/17 A3010 -120 96 200 000/00 RMK AO2 T01780172
13976KLFT LFT20191107022511411/07/19 02:25:31  5-MIN KLFT 070825Z AUTO 00000KT 1/4SM FG VV002 18/17 A3010 -120 96 200 000/00 RMK AO2 T01780172
13976KLFT LFT20191107023011411/07/19 02:30:31  5-MIN KLFT 070830Z AUTO 00000KT 1/4SM FG VV002 18/17 A3010 -120 96 200 000/00 RMK AO2 T01780172
13976KLFT LFT20191107023511411/07/19 02:35:31  5-MIN KLFT 070835Z AUTO 00000KT 1/4SM FG VV002 18/17 A3010 -120 96 200 000/00 RMK AO2 T01780172
13976KLFT LFT20191107230511111/07/19 23:05:31  5-MIN KLFT 080505Z AUTO 02015KT 10SM OVC015 18/15 A3016 -170 81 200 020/15 RMK AO2 T01830150
13976KLFT LFT20191107231011711/07/19 23:10:31  5-MIN KLFT 080510Z AUTO 02014G22KT 10SM OVC015 18/15 A3016 -170 81 200 020/14G22 RMK AO2 T01830150
13976KLFT LFT20191107231511711/07/19 23:15:31  5-MIN KLFT 080515Z AUTO 02012G22KT 10SM OVC015 18/15 A3016 -180 81 200 020/12G22 RMK AO2 T01830150
13976KLFT LFT20191107232011111/07/19 23:20:31  5-MIN KLFT 080520Z AUTO 02014KT 10SM OVC015 18/15 A3016 -170 81 200 010/14 RMK AO2 T01830150
13976KLFT LFT20191107232511111/07/19 23:25:31  5-MIN KLFT 080525Z AUTO 02014KT 10SM OVC015 18/15 A3017 -180 83 100 020/14 RMK AO2 T01780150
13976KLFT LFT20191107233011111/07/19 23:30:31  5-MIN KLFT 080530Z AUTO 02015KT 10SM OVC015 18/15 A3017 -180 83 100 020/15 RMK AO2 T01780150
13976KLFT LFT20191107233511711/07/19 23:35:31  5-MIN KLFT 080535Z AUTO 02011G20KT 10SM OVC015 18/15 A3017 -180 83 100 020/11G20 RMK AO2 T01780150
13976KLFT LFT20191107234011711/07/19 23:40:31  5-MIN KLFT 080540Z AUTO 02016G20KT 10SM OVC015 18/14 A3017 -180 81 100 020/16G20 RMK AO2 T01780144
13976KLFT LFT20191107234511711/07/19 23:45:31  5-MIN KLFT 080545Z AUTO 01016G21KT 10SM OVC013 17/14 A3017 -180 83 100 010/16G21 RMK AO2 T01720144
13976KLFT LFT20191107235015211/07/19 23:50:31  5-MIN KLFT 080550Z AUTO 01016KT 10SM OVC013 17/14 A3017 -180 83 100 010/16 RMK AO2 SLP217 60000 T01720144 10228 20172 402670161 53013
13976KLFT LFT20191107235511711/07/19 23:55:31  5-MIN KLFT 080555Z AUTO 01012G22KT 10SM OVC013 17/14 A3017 -190 83 100 010/12G22 RMK AO2 T01720144
13976KLFT LFT20191108000010911/08/19 00:00:31  5-MIN KLFT 080600Z AUTO 02014KT 10SM OVC013 17/14 A3017 -180 86 0 020/14 RMK AO2 T01670144
13976KLFT LFT20191108000511511/08/19 00:05:31  5-MIN KLFT 080605Z AUTO 01017G23KT 10SM OVC011 17/14 A3017 -190 83 0 010/17G23 RMK AO2 T01670139
13976KLFT LFT20191108001011511/08/19 00:10:31  5-MIN KLFT 080610Z AUTO 01013G23KT 10SM OVC011 17/14 A3018 -190 83 0 360/13G23 RMK AO2 T01670139
13976KLFT LFT20191108001510911/08/19 00:15:31  5-MIN KLFT 080615Z AUTO 01013KT 10SM OVC010 17/14 A3017 -180 83 0 010/13 RMK AO2 T01670139
13976KLFT LFT20191108002010911/08/19 00:20:31  5-MIN KLFT 080620Z AUTO 01015KT 10SM OVC010 16/14 A3018 -190 86 0 010/15 RMK AO2 T01610139
13976KLFT LFT20191108002510911/08/19 00:25:31  5-MIN KLFT 080625Z AUTO 01014KT 10SM OVC010 16/13 A3018 -190 83 0 010/14 RMK AO2 T01610133
13976KLFT LFT20191108003011211/08/19 00:30:31  5-MIN KLFT 080630Z AUTO 35017KT 10SM OVC010 16/13 A3018 -190 86 -100 350/17 RMK AO2 T01560133
13976KLFT LFT20191108003511211/08/19 00:35:31  5-MIN KLFT 080635Z AUTO 01015KT 10SM OVC010 16/13 A3018 -190 83 -100 010/15 RMK AO2 T01560128
13976KLFT LFT20191108004011811/08/19 00:40:31  5-MIN KLFT 080640Z AUTO 01017G23KT 10SM OVC010 15/13 A3018 -190 86 -100 010/17G23 RMK AO2 T01500128
13976KLFT LFT20191108004511811/08/19 00:45:31  5-MIN KLFT 080645Z AUTO 01013G23KT 10SM OVC010 15/13 A3018 -190 86 -200 010/13G23 RMK AO2 T01500128
13976KLFT LFT20191108005010211/08/19 00:50:31  5-MIN KLFT 080650Z AUTO 02015KT 10SM OVC009 14/12 A3019 -200 86 -200 020/15 RMK AO2
13976KLFT LFT20191108005511811/08/19 00:55:31  5-MIN KLFT 080655Z AUTO 01017G23KT 10SM OVC009 14/12 A3019 -200 86 -200 010/17G23 RMK AO2 T01440122
13976KLFT LFT20191108010011811/08/19 01:00:31  5-MIN KLFT 080700Z AUTO 01013G23KT 10SM OVC009 14/12 A3018 -190 86 -200 010/13G23 RMK AO2 T01440122
13976KLFT LFT20191108010511211/08/19 01:05:31  5-MIN KLFT 080705Z AUTO 02013KT 10SM OVC009 14/12 A3019 -200 86 -200 020/13 RMK AO2 T01440122
13976KLFT LFT20191108011011211/08/19 01:10:31  5-MIN KLFT 080710Z AUTO 02013KT 10SM OVC008 14/12 A3018 -190 86 -200 020/13 RMK AO2 T01440122
13976KLFT LFT20191108011511211/08/19 01:15:31  5-MIN KLFT 080715Z AUTO 01013KT 10SM OVC008 14/12 A3018 -190 86 -300 010/13 RMK AO2 T01390117
13976KLFT LFT20191108012011211/08/19 01:20:31  5-MIN KLFT 080720Z AUTO 01015KT 10SM OVC008 14/12 A3018 -190 86 -300 010/15 RMK AO2 T01390117
13976KLFT LFT20191108012511211/08/19 01:25:31  5-MIN KLFT 080725Z AUTO 01015KT 10SM OVC008 14/12 A3018 -190 86 -300 010/15 RMK AO2 T01390117
13976KLFT LFT20191108013011811/08/19 01:30:31  5-MIN KLFT 080730Z AUTO 01015G21KT 10SM OVC008 13/11 A3018 -190 86 -300 010/15G21 RMK AO2 T01330111
13976KLFT LFT20191108013511811/08/19 01:35:31  5-MIN KLFT 080735Z AUTO 01013G21KT 10SM OVC008 13/11 A3018 -190 86 -400 010/13G21 RMK AO2 T01330111
13976KLFT LFT20191108014011811/08/19 01:40:31  5-MIN KLFT 080740Z AUTO 01016G21KT 10SM OVC007 13/11 A3019 -200 89 -400 010/16G21 RMK AO2 T01280111
13976KLFT LFT20191108014511811/08/19 01:45:31  5-MIN KLFT 080745Z AUTO 01012G21KT 10SM OVC007 13/11 A3020 -210 89 -400 360/12G21 RMK AO2 T01280111
13976KLFT LFT20191108015012511/08/19 01:50:31  5-MIN KLFT 080750Z AUTO 36015G21KT 10SM OVC006 13/11 A3020 -210 89 -400 350/15G21 RMK AO2 SLP225 T01280111
13976KLFT LFT20191108015511811/08/19 01:55:31  5-MIN KLFT 080755Z AUTO 02016G21KT 10SM OVC006 12/11 A3020 -210 89 -500 020/16G21 RMK AO2 T01220106
13976KLFT LFT20191108020011811/08/19 02:00:31  5-MIN KLFT 080800Z AUTO 01012G20KT 10SM OVC006 12/11 A3019 -200 89 -500 010/12G20 RMK AO2 T01220106
13976KLFT LFT20191108020511211/08/19 02:05:31  5-MIN KLFT 080805Z AUTO 36014KT 10SM OVC006 12/11 A3019 -200 89 -500 360/14 RMK AO2 T01220106
13976KLFT LFT20191108021011211/08/19 02:10:31  5-MIN KLFT 080810Z AUTO 36016KT 10SM OVC006 12/10 A3019 -200 89 -600 360/16 RMK AO2 T01170100
13976KLFT LFT20191108021511811/08/19 02:15:31  5-MIN KLFT 080815Z AUTO 01016G23KT 10SM OVC006 12/09 A3019 -200 86 -600 010/16G23 RMK AO2 T01170094
13976KLFT LFT20191108022011811/08/19 02:20:31  5-MIN KLFT 080820Z AUTO 02016G23KT 10SM OVC006 11/09 A3019 -200 89 -600 020/16G23 RMK AO2 T01110094
13976KLFT LFT20191108022511811/08/19 02:25:31  5-MIN KLFT 080825Z AUTO 02013G21KT 10SM OVC006 11/09 A3019 -200 89 -600 020/13G21 RMK AO2 T01110094
13976KLFT LFT20191108023011211/08/19 02:30:31  5-MIN KLFT 080830Z AUTO 01013KT 10SM OVC006 11/09 A3019 -200 89 -600 010/13 RMK AO2 T01110094
13976KLFT LFT20191108023511811/08/19 02:35:31  5-MIN KLFT 080835Z AUTO 02017G22KT 10SM OVC006 11/09 A3019 -200 89 -600 020/17G22 RMK AO2 T01110094
13976KLFT LFT20191108024011811/08/19 02:40:31  5-MIN KLFT 080840Z AUTO 01016G25KT 10SM OVC006 11/09 A3019 -200 86 -600 010/16G25 RMK AO2 T01110089
13976KLFT LFT20191108024511811/08/19 02:45:31  5-MIN KLFT 080845Z AUTO 01015G25KT 10SM OVC006 11/09 A3019 -200 86 -600 010/15G25 RMK AO2 T01110089
13976KLFT LFT20191108025013111/08/19 02:50:31  5-MIN KLFT 080850Z AUTO 01014G25KT 10SM OVC007 11/09 A3019 -200 86 -600 010/14G25 RMK AO2 SLP224 T01110089 51011
13976KLFT LFT20191108025511211/08/19 02:55:31  5-MIN KLFT 080855Z AUTO 36015KT 10SM OVC007 11/09 A3020 -210 86 -600 360/15 RMK AO2 T01110089
13976KLFT LFT20191108030011211/08/19 03:00:31  5-MIN KLFT 080900Z AUTO 01015KT 10SM OVC007 11/09 A3021 -210 86 -600 010/15 RMK AO2 T01110089
13976KLFT LFT20191108030511211/08/19 03:05:31  5-MIN KLFT 080905Z AUTO 02015KT 10SM OVC007 11/09 A3020 -210 86 -600 010/15 RMK AO2 T01110089
13976KLFT LFT20191108031011211/08/19 03:10:31  5-MIN KLFT 080910Z AUTO 01015KT 10SM OVC008 11/09 A3020 -210 86 -600 010/15 RMK AO2 T01110089
13976KLFT LFT20191108031511211/08/19 03:15:31  5-MIN KLFT 080915Z AUTO 01013KT 10SM OVC008 11/09 A3020 -210 86 -600 010/13 RMK AO2 T01110089
13976KLFT LFT20191108032011211/08/19 03:20:31  5-MIN KLFT 080920Z AUTO 02013KT 10SM OVC008 11/09 A3020 -210 86 -600 020/13 RMK AO2 T01110089
13976KLFT LFT20191108032511811/08/19 03:25:31  5-MIN KLFT 080925Z AUTO 01016G19KT 10SM OVC008 11/08 A3020 -210 83 -600 010/16G19 RMK AO2 T01110083
13976KLFT LFT20191108033011211/08/19 03:30:31  5-MIN KLFT 080930Z AUTO 01017KT 10SM OVC009 11/08 A3020 -210 86 -700 010/17 RMK AO2 T01060083
13976KLFT LFT20191108033511211/08/19 03:35:31  5-MIN KLFT 080935Z AUTO 01013KT 10SM OVC009 11/08 A3020 -210 83 -600 010/13 RMK AO2 T01110083
13976KLFT LFT20191108034011211/08/19 03:40:31  5-MIN KLFT 080940Z AUTO 01012KT 10SM OVC009 11/08 A3020 -210 83 -600 010/12 RMK AO2 T01110083
13976KLFT LFT20191108034511811/08/19 03:45:31  5-MIN KLFT 080945Z AUTO 01015G22KT 10SM OVC009 11/08 A3020 -210 83 -600 010/15G22 RMK AO2 T01110083
13976KLFT LFT20191108035010811/08/19 03:50:31  5-MIN KLFT 080950Z AUTO 36016G22KT 10SM OVC010 11/08 A3021 -220 86 -700 360/16G22 RMK AO2
13976KLFT LFT20191108035511811/08/19 03:55:31  5-MIN KLFT 080955Z AUTO 01013G20KT 10SM OVC010 11/08 A3021 -220 83 -600 010/13G20 RMK AO2 T01110083
13976KLFT LFT20191108040011211/08/19 04:00:31  5-MIN KLFT 081000Z AUTO 01011KT 10SM OVC010 11/08 A3021 -220 86 -700 010/11 RMK AO2 T01060083
13976KLFT LFT20191108040511811/08/19 04:05:31  5-MIN KLFT 081005Z AUTO 02015G21KT 10SM OVC010 11/08 A3020 -210 86 -700 020/15G21 RMK AO2 T01060083
13976KLFT LFT20191108041011811/08/19 04:10:31  5-MIN KLFT 081010Z AUTO 02013G21KT 10SM OVC010 11/08 A3020 -210 86 -700 020/13G21 RMK AO2 T01060083
13976KLFT LFT20191108041511211/08/19 04:15:31  5-MIN KLFT 081015Z AUTO 02012KT 10SM OVC010 11/08 A3020 -210 86 -700 020/12 RMK AO2 T01060083
13976KLFT LFT20191108042011811/08/19 04:20:31  5-MIN KLFT 081020Z AUTO 01012G19KT 10SM OVC010 11/08 A3021 -220 86 -700 010/12G19 RMK AO2 T01060083
13976KLFT LFT20191108042511811/08/19 04:25:31  5-MIN KLFT 081025Z AUTO 01011G18KT 10SM OVC010 11/08 A3021 -220 86 -700 010/11G18 RMK AO2 T01060083
13976KLFT LFT20191108043011211/08/19 04:30:31  5-MIN KLFT 081030Z AUTO 02018KT 10SM OVC010 11/08 A3021 -220 86 -700 020/18 RMK AO2 T01060083
13976KLFT LFT20191108043511811/08/19 04:35:31  5-MIN KLFT 081035Z AUTO 02013G20KT 10SM OVC010 11/08 A3021 -210 83 -700 020/13G20 RMK AO2 T01060078
13976KLFT LFT20191108044011211/08/19 04:40:31  5-MIN KLFT 081040Z AUTO 01014KT 10SM OVC010 11/08 A3022 -220 83 -700 010/14 RMK AO2 T01060078
13976KLFT LFT20191108044511211/08/19 04:45:31  5-MIN KLFT 081045Z AUTO 01012KT 10SM OVC010 11/08 A3021 -210 83 -700 010/12 RMK AO2 T01060078
13976KLFT LFT20191108045011911/08/19 04:50:31  5-MIN KLFT 081050Z AUTO 01013KT 10SM OVC010 11/08 A3021 -220 83 -700 010/13 RMK AO2 SLP228 T01060078
13976KLFT LFT20191108045511211/08/19 04:55:31  5-MIN KLFT 081055Z AUTO 02014KT 10SM OVC010 11/08 A3021 -220 83 -700 020/14 RMK AO2 T01060078
13976KLFT LFT20191108050011811/08/19 05:00:31  5-MIN KLFT 081100Z AUTO 02015G20KT 10SM OVC010 11/08 A3022 -230 83 -700 020/15G20 RMK AO2 T01060078
13976KLFT LFT20191108050511211/08/19 05:05:31  5-MIN KLFT 081105Z AUTO 36015KT 10SM OVC011 11/08 A3022 -230 83 -700 360/15 RMK AO2 T01060078
13976KLFT LFT20191108051011211/08/19 05:10:31  5-MIN KLFT 081110Z AUTO 02014KT 10SM OVC011 11/07 A3022 -230 80 -700 020/14 RMK AO2 T01060072
13976KLFT LFT20191108051511211/08/19 05:15:31  5-MIN KLFT 081115Z AUTO 01016KT 10SM OVC012 10/07 A3021 -220 83 -800 010/16 RMK AO2 T01000072
13976KLFT LFT20191108052011811/08/19 05:20:31  5-MIN KLFT 081120Z AUTO 01016G20KT 10SM OVC012 10/07 A3022 -230 83 -800 010/16G20 RMK AO2 T01000072
13976KLFT LFT20191108052511211/08/19 05:25:31  5-MIN KLFT 081125Z AUTO 01015KT 10SM OVC012 10/07 A3022 -230 83 -800 010/15 RMK AO2 T01000072
13976KLFT LFT20191108053010711/08/19 05:30:31  5-MIN KLFT 081130Z 02012KT 10SM OVC012 10/07 A3022 -220 83 -800 010/12 RMK AO2 T01000072
13976KLFT LFT20191108053510711/08/19 05:35:31  5-MIN KLFT 081135Z 01013KT 10SM OVC012 10/07 A3022 -230 83 -800 010/13 RMK AO2 T01000072
13976KLFT LFT20191108054010711/08/19 05:40:31  5-MIN KLFT 081140Z 01013KT 10SM OVC013 10/07 A3022 -230 83 -800 010/13 RMK AO2 T01000072
13976KLFT LFT20191108054511311/08/19 05:45:31  5-MIN KLFT 081145Z 02015G22KT 10SM OVC013 10/07 A3022 -230 83 -800 020/15G22 RMK AO2 T01000072
13976KLFT LFT20191108055013811/08/19 05:50:31  5-MIN KLFT 081150Z 02013G22KT 10SM OVC013 10/07 A3022 -230 83 -800 020/13G22 RMK AO2 SLP233 T01000072 10172 20100 51008
13976KLFT LFT20191108055510711/08/19 05:55:31  5-MIN KLFT 081155Z 02013KT 10SM OVC013 10/07 A3022 -230 83 -800 020/13 RMK AO2 T01000072
13976KLFT LFT20191108060010711/08/19 06:00:31  5-MIN KLFT 081200Z 02010KT 10SM OVC013 10/07 A3022 -230 83 -800 020/10 RMK AO2 T01000072
13976KLFT LFT20191108060510711/08/19 06:05:31  5-MIN KLFT 081205Z 02014KT 10SM OVC013 10/07 A3022 -230 83 -800 020/14 RMK AO2 T01000072
13976KLFT LFT20191108061010711/08/19 06:10:31  5-MIN KLFT 081210Z 02012KT 10SM OVC013 10/07 A3022 -230 83 -800 020/12 RMK AO2 T01000072
13976KLFT LFT20191108061510711/08/19 06:15:31  5-MIN KLFT 081215Z 01013KT 10SM OVC013 10/07 A3023 -230 83 -800 010/13 RMK AO2 T01000072
13976KLFT LFT20191108062010711/08/19 06:20:31  5-MIN KLFT 081220Z 02014KT 10SM OVC013 10/07 A3023 -240 83 -800 020/14 RMK AO2 T01000072
13976KLFT LFT20191108062511311/08/19 06:25:31  5-MIN KLFT 081225Z 01016G20KT 10SM OVC013 10/07 A3023 -240 83 -800 010/16G20 RMK AO2 T01000072
13976KLFT LFT20191108063011311/08/19 06:30:31  5-MIN KLFT 081230Z 02012G20KT 10SM OVC013 10/07 A3023 -240 80 -800 020/12G20 RMK AO2 T01000067
13976KLFT LFT20191108063510711/08/19 06:35:31  5-MIN KLFT 081235Z 03014KT 10SM OVC013 10/07 A3023 -240 80 -800 020/14 RMK AO2 T01000067
13976KLFT LFT20191108064010711/08/19 06:40:31  5-MIN KLFT 081240Z 01013KT 10SM OVC013 10/07 A3023 -240 80 -800 010/13 RMK AO2 T01000067
13976KLFT LFT20191108064511311/08/19 06:45:31  5-MIN KLFT 081245Z 02014G19KT 10SM OVC013 10/07 A3023 -240 80 -800 020/14G19 RMK AO2 T01000067
13976KLFT LFT20191108065011411/08/19 06:50:31  5-MIN KLFT 081250Z 02014KT 10SM OVC013 10/07 A3023 -240 80 -800 020/14 RMK AO2 SLP236 T01000067
13976KLFT LFT20191108065510711/08/19 06:55:31  5-MIN KLFT 081255Z 02014KT 10SM OVC013 10/07 A3023 -240 80 -800 020/14 RMK AO2 T01000067
13976KLFT LFT20191108070010711/08/19 07:00:31  5-MIN KLFT 081300Z 02013KT 10SM OVC013 10/07 A3023 -240 80 -800 020/13 RMK AO2 T01000067
13976KLFT LFT20191108070511311/08/19 07:05:31  5-MIN KLFT 081305Z 02015G20KT 10SM OVC013 10/07 A3024 -240 80 -800 020/15G20 RMK AO2 T01000067
13976KLFT LFT20191108071011311/08/19 07:10:31  5-MIN KLFT 081310Z 02015G20KT 10SM OVC013 10/07 A3024 -240 80 -800 020/15G20 RMK AO2 T01000067
13976KLFT LFT20191108071511311/08/19 07:15:31  5-MIN KLFT 081315Z 02016G20KT 10SM OVC013 10/07 A3024 -240 80 -800 020/16G20 RMK AO2 T01000067
13976KLFT LFT20191108072010711/08/19 07:20:31  5-MIN KLFT 081320Z 01016KT 10SM OVC013 09/07 A3024 -250 83 -900 010/16 RMK AO2 T00940067
13976KLFT LFT20191108072511311/08/19 07:25:31  5-MIN KLFT 081325Z 01017G23KT 10SM OVC013 09/07 A3024 -250 83 -900 010/17G23 RMK AO2 T00940067
13976KLFT LFT20191108073011311/08/19 07:30:31  5-MIN KLFT 081330Z 02013G23KT 10SM OVC013 09/07 A3024 -250 83 -900 020/13G23 RMK AO2 T00940067
13976KLFT LFT20191108073510711/08/19 07:35:31  5-MIN KLFT 081335Z 02011KT 10SM OVC013 09/07 A3024 -250 83 -900 020/11 RMK AO2 T00940067
13976KLFT LFT20191108074011311/08/19 07:40:31  5-MIN KLFT 081340Z 02014G18KT 10SM OVC013 09/07 A3025 -250 83 -900 020/14G18 RMK AO2 T00940067
13976KLFT LFT20191108074510711/08/19 07:45:31  5-MIN KLFT 081345Z 01012KT 10SM OVC013 09/07 A3026 -260 83 -900 010/12 RMK AO2 T00940067
13976KLFT LFT20191108075011411/08/19 07:50:31  5-MIN KLFT 081350Z 01013KT 10SM OVC012 10/07 A3025 -260 80 -800 010/13 RMK AO2 SLP244 T01000067
13976KLFT LFT20191108075510711/08/19 07:55:31  5-MIN KLFT 081355Z 01012KT 10SM OVC012 09/07 A3026 -260 83 -900 010/12 RMK AO2 T00940067
13976KLFT LFT20191108080010711/08/19 08:00:31  5-MIN KLFT 081400Z 36013KT 10SM OVC012 09/06 A3026 -270 79 -900 360/13 RMK AO2 T00940061
13976KLFT LFT20191108080510711/08/19 08:05:31  5-MIN KLFT 081405Z 01014KT 10SM OVC012 09/06 A3027 -270 79 -900 360/14 RMK AO2 T00940061
13976KLFT LFT20191108081010711/08/19 08:10:31  5-MIN KLFT 081410Z 02013KT 10SM OVC012 09/06 A3027 -270 79 -900 020/13 RMK AO2 T00940061
13976KLFT LFT20191108081510711/08/19 08:15:31  5-MIN KLFT 081415Z 01014KT 10SM OVC012 09/06 A3026 -270 79 -900 010/14 RMK AO2 T00940061
13976KLFT LFT20191108082010711/08/19 08:20:31  5-MIN KLFT 081420Z 01012KT 10SM OVC013 09/06 A3026 -270 79 -900 010/12 RMK AO2 T00940061
13976KLFT LFT20191108082510711/08/19 08:25:31  5-MIN KLFT 081425Z 02014KT 10SM OVC013 09/06 A3027 -270 79 -900 020/14 RMK AO2 T00940061
13976KLFT LFT20191108083010711/08/19 08:30:31  5-MIN KLFT 081430Z 01014KT 10SM OVC013 09/06 A3027 -270 79 -900 010/14 RMK AO2 T00940061
13976KLFT LFT20191108083511311/08/19 08:35:31  5-MIN KLFT 081435Z 02011G20KT 10SM OVC013 09/06 A3026 -270 79 -900 020/11G20 RMK AO2 T00940061
13976KLFT LFT20191108084010711/08/19 08:40:31  5-MIN KLFT 081440Z 01013KT 10SM OVC013 09/06 A3027 -270 79 -900 010/13 RMK AO2 T00940061
13976KLFT LFT20191108084510711/08/19 08:45:31  5-MIN KLFT 081445Z 01013KT 10SM OVC012 09/06 A3027 -280 79 -900 360/13 RMK AO2 T00940061
13976KLFT LFT20191108085012011/08/19 08:50:31  5-MIN KLFT 081450Z 01015KT 10SM OVC012 09/06 A3027 -280 79 -900 010/15 RMK AO2 SLP251 T00940061 53007
13976KLFT LFT20191108085510711/08/19 08:55:31  5-MIN KLFT 081455Z 02013KT 10SM OVC012 09/06 A3027 -280 79 -900 020/13 RMK AO2 T00940061
13976KLFT LFT20191108090010711/08/19 09:00:31  5-MIN KLFT 081500Z 01014KT 10SM OVC012 09/06 A3027 -270 79 -900 010/14 RMK AO2 T00940061
13976KLFT LFT20191108090510711/08/19 09:05:31  5-MIN KLFT 081505Z 03015KT 10SM OVC012 09/06 A3027 -270 79 -900 020/15 RMK AO2 T00940061
13976KLFT LFT20191108091010711/08/19 09:10:31  5-MIN KLFT 081510Z 02014KT 10SM OVC013 09/06 A3027 -270 79 -900 020/14 RMK AO2 T00940061
13976KLFT LFT20191108091510711/08/19 09:15:31  5-MIN KLFT 081515Z 02015KT 10SM OVC013 09/06 A3027 -270 76 -900 010/15 RMK AO2 T00940056
13976KLFT LFT20191108092010711/08/19 09:20:31  5-MIN KLFT 081520Z 01013KT 10SM OVC013 10/06 A3027 -270 77 -900 010/13 RMK AO2 T01000061
13976KLFT LFT20191108092510711/08/19 09:25:31  5-MIN KLFT 081525Z 01013KT 10SM OVC013 09/06 A3027 -280 76 -900 010/13 RMK AO2 T00940056
13976KLFT LFT20191108093010711/08/19 09:30:31  5-MIN KLFT 081530Z 36013KT 10SM OVC013 09/06 A3028 -280 76 -900 360/13 RMK AO2 T00940056
13976KLFT LFT20191108093510711/08/19 09:35:31  5-MIN KLFT 081535Z 01013KT 10SM OVC013 09/06 A3028 -280 76 -900 010/13 RMK AO2 T00940056
13976KLFT LFT20191108094010711/08/19 09:40:31  5-MIN KLFT 081540Z 01012KT 10SM OVC013 09/06 A3028 -280 76 -900 010/12 RMK AO2 T00940056
13976KLFT LFT20191108094510711/08/19 09:45:31  5-MIN KLFT 081545Z 02015KT 10SM OVC013 09/06 A3028 -280 76 -900 010/15 RMK AO2 T00940056
13976KLFT LFT20191108095011411/08/19 09:50:31  5-MIN KLFT 081550Z 01014KT 10SM OVC013 09/06 A3027 -270 76 -900 010/14 RMK AO2 SLP250 T00940056
13976KLFT LFT20191108095511411/08/19 09:55:31  5-MIN KLFT 081555Z 01015G22KT 10SM OVC013 09/06 A3027 -280 79 -1000 010/15G22 RMK AO2 T00890056
13976KLFT LFT20191108100011311/08/19 10:00:31  5-MIN KLFT 081600Z 01015G22KT 10SM OVC013 09/06 A3027 -270 76 -900 010/15G22 RMK AO2 T00940056
13976KLFT LFT20191108100510711/08/19 10:05:31  5-MIN KLFT 081605Z 01015KT 10SM OVC013 09/06 A3027 -270 76 -900 010/15 RMK AO2 T00940056
13976KLFT LFT20191108101010711/08/19 10:10:31  5-MIN KLFT 081610Z 01015KT 10SM OVC013 09/06 A3027 -270 76 -900 010/15 RMK AO2 T00940056
13976KLFT LFT20191108101510711/08/19 10:15:31  5-MIN KLFT 081615Z 01013KT 10SM OVC013 09/06 A3027 -270 76 -900 010/13 RMK AO2 T00940056
13976KLFT LFT20191108102011311/08/19 10:20:31  5-MIN KLFT 081620Z 02014G20KT 10SM OVC013 09/06 A3027 -270 76 -900 020/14G20 RMK AO2 T00940056
13976KLFT LFT20191108102511311/08/19 10:25:31  5-MIN KLFT 081625Z 03015G21KT 10SM OVC013 09/06 A3027 -270 76 -900 030/15G21 RMK AO2 T00940056
13976KLFT LFT20191108103010711/08/19 10:30:31  5-MIN KLFT 081630Z 02013KT 10SM OVC013 09/06 A3027 -270 76 -900 020/13 RMK AO2 T00940056
13976KLFT LFT20191108103510711/08/19 10:35:31  5-MIN KLFT 081635Z 01013KT 10SM OVC013 09/06 A3028 -280 76 -900 010/13 RMK AO2 T00940056
13976KLFT LFT20191108104011311/08/19 10:40:31  5-MIN KLFT 081640Z 02016G22KT 10SM OVC013 09/06 A3028 -280 76 -900 020/16G22 RMK AO2 T00940056
13976KLFT LFT20191108104511311/08/19 10:45:31  5-MIN KLFT 081645Z 02013G22KT 10SM OVC014 09/06 A3027 -280 76 -900 020/13G22 RMK AO2 T00940056
13976KLFT LFT20191108105012011/08/19 10:50:31  5-MIN KLFT 081650Z 02015G21KT 10SM OVC014 09/06 A3027 -280 76 -900 020/15G21 RMK AO2 SLP251 T00940056
13976KLFT LFT20191108105511311/08/19 10:55:31  5-MIN KLFT 081655Z 03014G21KT 10SM OVC014 09/06 A3028 -280 76 -900 030/14G21 RMK AO2 T00940056
13976KLFT LFT20191108110010711/08/19 11:00:31  5-MIN KLFT 081700Z 01012KT 10SM OVC014 09/06 A3028 -280 76 -900 010/12 RMK AO2 T00940056
13976KLFT LFT20191109080010511/09/19 08:00:31  5-MIN KLFT 091400Z 02008KT 10SM CLR 05/02 A3030 -300 82 -1500 020/08 RMK AO2 T00500022
13976KLFT LFT20191109080510511/09/19 08:05:31  5-MIN KLFT 091405Z 03007KT 10SM CLR 04/02 A3030 -300 82 -1600 030/07 RMK AO2 T00440017
13976KLFT LFT20191109081010511/09/19 08:10:31  5-MIN KLFT 091410Z 03006KT 10SM CLR 05/02 A3030 -300 79 -1500 030/06 RMK AO2 T00500017
13976KLFT LFT20191109081510511/09/19 08:15:31  5-MIN KLFT 091415Z 03007KT 10SM CLR 05/02 A3030 -300 82 -1500 030/07 RMK AO2 T00500022
13976KLFT LFT20191109082010511/09/19 08:20:31  5-MIN KLFT 091420Z 03007KT 10SM CLR 06/02 A3030 -300 79 -1400 030/07 RMK AO2 T00560022
13976KLFT LFT20191109082510511/09/19 08:25:31  5-MIN KLFT 091425Z 02007KT 10SM CLR 06/02 A3030 -300 76 -1400 020/07 RMK AO2 T00560017
13976KLFT LFT20191109083010511/09/19 08:30:31  5-MIN KLFT 091430Z 02007KT 10SM CLR 06/02 A3030 -300 76 -1400 020/07 RMK AO2 T00610022
13976KLFT LFT20191109083510511/09/19 08:35:31  5-MIN KLFT 091435Z 02006KT 10SM CLR 06/02 A3030 -300 76 -1400 020/06 RMK AO2 T00610022
13976KLFT LFT20191109084010511/09/19 08:40:31  5-MIN KLFT 091440Z 05005KT 10SM CLR 07/02 A3030 -300 73 -1300 050/05 RMK AO2 T00670022
13976KLFT LFT20191109084510511/09/19 08:45:31  5-MIN KLFT 091445Z 05005KT 10SM CLR 07/02 A3030 -300 73 -1300 050/05 RMK AO2 T00670022
13976KLFT LFT20191109085011811/09/19 08:50:31  5-MIN KLFT 091450Z 03005KT 10SM CLR 07/02 A3030 -300 70 -1200 030/05 RMK AO2 SLP261 T00720022 53002
13976KLFT LFT20191109085510511/09/19 08:55:31  5-MIN KLFT 091455Z 03007KT 10SM CLR 07/02 A3030 -300 68 -1200 030/07 RMK AO2 T00720017
13976KLFT LFT20191109090010511/09/19 09:00:31  5-MIN KLFT 091500Z 02005KT 10SM CLR 08/02 A3030 -300 68 -1200 020/05 RMK AO2 T00780022
13976KLFT LFT20191109090510511/09/19 09:05:31  5-MIN KLFT 091505Z 04004KT 10SM CLR 08/02 A3030 -300 68 -1200 040/04 RMK AO2 T00780022
13976KLFT LFT20191109091010511/09/19 09:10:31  5-MIN KLFT 091510Z 04004KT 10SM CLR 08/02 A3030 -300 65 -1100 040/04 RMK AO2 T00830022
13976KLFT LFT20191109091510511/09/19 09:15:31  5-MIN KLFT 091515Z 02005KT 10SM CLR 08/02 A3030 -300 65 -1100 020/05 RMK AO2 T00830022
13976KLFT LFT20191109092010511/09/19 09:20:31  5-MIN KLFT 091520Z 03004KT 10SM CLR 09/02 A3030 -300 63 -1000 020/04 RMK AO2 T00890022
13976KLFT LFT20191109092510511/09/19 09:25:31  5-MIN KLFT 091525Z VRB04KT 10SM CLR 08/02 A3030 -300 65 -1100 VRB/04 RMK AO2 T00830022
13976KLFT LFT20191109093010511/09/19 09:30:31  5-MIN KLFT 091530Z 04004KT 10SM CLR 09/02 A3030 -300 63 -1000 040/04 RMK AO2 T00890022
13976KLFT LFT20191109093510511/09/19 09:35:31  5-MIN KLFT 091535Z 03005KT 10SM CLR 09/02 A3030 -300 60 -1000 030/05 RMK AO2 T00940022
13976KLFT LFT20191109094010511/09/19 09:40:31  5-MIN KLFT 091540Z 04003KT 10SM CLR 09/02 A3030 -300 60 -1000 040/03 RMK AO2 T00940022
13976KLFT LFT20191109094510411/09/19 09:45:31  5-MIN KLFT 091545Z VRB04KT 10SM CLR 10/02 A3030 -300 58 -900 VRB/04 RMK AO2 T01000022
13976KLFT LFT20191109095011111/09/19 09:50:31  5-MIN KLFT 091550Z 02005KT 10SM CLR 10/02 A3030 -300 56 -900 020/05 RMK AO2 SLP258 T01000017
13976KLFT LFT20191109095510411/09/19 09:55:31  5-MIN KLFT 091555Z 05003KT 10SM CLR 10/02 A3029 -290 56 -900 050/03 RMK AO2 T01000017
13976KLFT LFT20191109100010411/09/19 10:00:31  5-MIN KLFT 091600Z 04006KT 10SM CLR 11/02 A3029 -290 56 -800 040/06 RMK AO2 T01060022
13976KLFT LFT20191109100510411/09/19 10:05:31  5-MIN KLFT 091605Z 04006KT 10SM CLR 11/01 A3029 -290 52 -800 040/06 RMK AO2 T01060011
13976KLFT LFT20191109101010411/09/19 10:10:31  5-MIN KLFT 091610Z 01004KT 10SM CLR 12/02 A3029 -290 50 -700 010/04 RMK AO2 T01170017
13976KLFT LFT20191109101510411/09/19 10:15:31  5-MIN KLFT 091615Z 05005KT 10SM CLR 12/02 A3029 -290 48 -600 050/05 RMK AO2 T01220017
13976KLFT LFT20191109102010411/09/19 10:20:31  5-MIN KLFT 091620Z 01005KT 10SM CLR 12/02 A3029 -290 48 -600 360/05 RMK AO2 T01220017
13976KLFT LFT20191109102510411/09/19 10:25:31  5-MIN KLFT 091625Z 03006KT 10SM CLR 13/01 A3029 -290 44 -500 030/06 RMK AO2 T01280011
13976KLFT LFT20191109103010411/09/19 10:30:31  5-MIN KLFT 091630Z 03005KT 10SM CLR 13/01 A3029 -290 43 -500 030/05 RMK AO2 T01280006
13976KLFT LFT20191109103510411/09/19 10:35:31  5-MIN KLFT 091635Z 02007KT 10SM CLR 13/01 A3029 -290 41 -500 020/07 RMK AO2 T01330006
13976KLFT LFT20191109104010411/09/19 10:40:31  5-MIN KLFT 091640Z 02008KT 10SM CLR 13/00 A3029 -290 41 -500 020/08 RMK AO2 T01280000
13976KLFT LFT20191109104510411/09/19 10:45:31  5-MIN KLFT 091645Z 03007KT 10SM CLR 13/01 A3029 -290 41 -500 030/07 RMK AO2 T01330006
13976KLFT LFT20191109105011111/09/19 10:50:31  5-MIN KLFT 091650Z 02007KT 10SM CLR 13/01 A3028 -290 41 -500 020/07 RMK AO2 SLP255 T01330006
13976KLFT LFT20191109105510411/09/19 10:55:31  5-MIN KLFT 091655Z 01006KT 10SM CLR 13/01 A3028 -280 41 -500 010/06 RMK AO2 T01330006
13976KLFT LFT20191109110010411/09/19 11:00:31  5-MIN KLFT 091700Z 02006KT 10SM CLR 14/01 A3028 -280 40 -400 020/06 RMK AO2 T01390006
13976KLFT LFT20191109110510411/09/19 11:05:31  5-MIN KLFT 091705Z 02007KT 10SM CLR 14/01 A3028 -280 40 -400 020/07 RMK AO2 T01390006
13976KLFT LFT20191109111010411/09/19 11:10:31  5-MIN KLFT 091710Z 03007KT 10SM CLR 14/00 A3028 -280 38 -400 030/07 RMK AO2 T01390000
13976KLFT LFT20191109111510411/09/19 11:15:31  5-MIN KLFT 091715Z 02009KT 10SM CLR 14/00 A3027 -280 38 -400 020/09 RMK AO2 T01390000
13976KLFT LFT20191109112010411/09/19 11:20:31  5-MIN KLFT 091720Z 03007KT 10SM CLR 14/00 A3027 -270 37 -300 030/07 RMK AO2 T01440000
13976KLFT LFT20191109112510411/09/19 11:25:31  5-MIN KLFT 091725Z 02007KT 10SM CLR 15/01 A3027 -270 37 -200 010/07 RMK AO2 T01500006
13976KLFT LFT20191109113010411/09/19 11:30:31  5-MIN KLFT 091730Z 01009KT 10SM CLR 15/00 A3027 -270 35 -200 010/09 RMK AO2 T01500000
13976KLFT LFT20191109113510411/09/19 11:35:31  5-MIN KLFT 091735Z 02009KT 10SM CLR 16/00 A3026 -270 34 -200 020/09 RMK AO2 T01560000
13976KLFT LFT20191109114010511/09/19 11:40:31  5-MIN KLFT 091740Z 02008KT 10SM CLR 15/M01 A3026 -260 34 -200 020/08 RMK AO2 T01501006
13976KLFT LFT20191109114510411/09/19 11:45:31  5-MIN KLFT 091745Z 04009KT 10SM CLR 15/00 A3026 -260 35 -200 040/09 RMK AO2 T01500000
13976KLFT LFT20191109115012911/09/19 11:50:31  5-MIN KLFT 091750Z 03007KT 10SM CLR 15/00 A3026 -260 35 -200 030/07 RMK AO2 SLP245 T01500000 10156 20017 51012
13976KLFT LFT20191109115510411/09/19 11:55:31  5-MIN KLFT 091755Z 36008KT 10SM CLR 16/01 A3025 -260 34 -100 360/08 RMK AO2 T01610006
13976KLFT LFT20191109120010511/09/19 12:00:31  5-MIN KLFT 091800Z 36006KT 10SM CLR 16/M01 A3025 -250 33 -200 360/06 RMK AO2 T01561006
13976KLFT LFT20191109120510511/09/19 12:05:31  5-MIN KLFT 091805Z 03009KT 10SM CLR 16/M01 A3025 -250 33 -200 030/09 RMK AO2 T01561006
13976KLFT LFT20191109121010511/09/19 12:10:31  5-MIN KLFT 091810Z VRB06KT 10SM CLR 16/M01 A3024 -250 32 -100 VRB/06 RMK AO2 T01611006
13976KLFT LFT20191109121510411/09/19 12:15:31  5-MIN KLFT 091815Z 03008KT 10SM CLR 16/00 A3024 -250 33 -100 030/08 RMK AO2 T01610000
13976KLFT LFT20191109122010511/09/19 12:20:31  5-MIN KLFT 091820Z 02007KT 10SM CLR 16/M01 A3024 -240 31 -100 020/07 RMK AO2 T01561011
13976KLFT LFT20191109122510411/09/19 12:25:31  5-MIN KLFT 091825Z 03008KT 10SM CLR 16/00 A3023 -240 33 -100 030/08 RMK AO2 T01610000
13976KLFT LFT20191109123010511/09/19 12:30:31  5-MIN KLFT 091830Z 03006KT 10SM CLR 16/M01 A3023 -240 32 -100 030/06 RMK AO2 T01611006
13976KLFT LFT20191109123510111/09/19 12:35:31  5-MIN KLFT 091835Z 02007KT 10SM CLR 17/00 A3023 -230 32 0 020/07 RMK AO2 T01670000
13976KLFT LFT20191109124010411/09/19 12:40:31  5-MIN KLFT 091840Z 02007KT 10SM CLR 16/00 A3023 -230 33 -100 020/07 RMK AO2 T01610000
13976KLFT LFT20191109124510211/09/19 12:45:31  5-MIN KLFT 091845Z 01008KT 10SM CLR 17/M01 A3022 -230 31 0 010/08 RMK AO2 T01671006
13976KLFT LFT20191109125010811/09/19 12:50:31  5-MIN KLFT 091850Z VRB06KT 10SM CLR 17/00 A3022 -230 32 0 VRB/06 RMK AO2 SLP234 T01670000
13976KLFT LFT20191109125510211/09/19 12:55:31  5-MIN KLFT 091855Z 01008KT 10SM CLR 17/M01 A3022 -230 31 0 010/08 RMK AO2 T01671006
13976KLFT LFT20191109130010211/09/19 13:00:31  5-MIN KLFT 091900Z 03008KT 10SM CLR 17/M01 A3022 -230 31 0 020/08 RMK AO2 T01671006
13976KLFT LFT20191109130510111/09/19 13:05:31  5-MIN KLFT 091905Z 02007KT 10SM CLR 17/00 A3022 -220 31 0 020/07 RMK AO2 T01720000
13976KLFT LFT20191109131010211/09/19 13:10:31  5-MIN KLFT 091910Z 03007KT 10SM CLR 17/M01 A3021 -220 29 0 030/07 RMK AO2 T01721006
13976KLFT LFT20191109131510211/09/19 13:15:31  5-MIN KLFT 091915Z 01010KT 10SM CLR 17/M01 A3021 -220 28 0 010/10 RMK AO2 T01721011
13976KLFT LFT20191109132010211/09/19 13:20:31  5-MIN KLFT 091920Z 36008KT 10SM CLR 17/M02 A3021 -220 27 0 360/08 RMK AO2 T01721017
13976KLFT LFT20191109132510211/09/19 13:25:31  5-MIN KLFT 091925Z 36007KT 10SM CLR 17/M01 A3021 -220 28 0 360/07 RMK AO2 T01721011
13976KLFT LFT20191109133010411/09/19 13:30:31  5-MIN KLFT 091930Z 03007KT 10SM CLR 18/M01 A3021 -220 27 100 020/07 RMK AO2 T01781011
13976KLFT LFT20191109133510411/09/19 13:35:31  5-MIN KLFT 091935Z 34006KT 10SM CLR 18/M01 A3021 -220 27 100 340/06 RMK AO2 T01781011
13976KLFT LFT20191109134010411/09/19 13:40:31  5-MIN KLFT 091940Z 01009KT 10SM CLR 18/M02 A3021 -220 26 100 010/09 RMK AO2 T01781017
13976KLFT LFT20191109134510411/09/19 13:45:31  5-MIN KLFT 091945Z 03009KT 10SM CLR 18/M02 A3021 -220 26 100 030/09 RMK AO2 T01781017
13976KLFT LFT20191109135011111/09/19 13:50:31  5-MIN KLFT 091950Z 02009KT 10SM CLR 18/M01 A3021 -220 27 100 020/09 RMK AO2 SLP229 T01781011
13976KLFT LFT20191109135510411/09/19 13:55:31  5-MIN KLFT 091955Z 01009KT 10SM CLR 18/M02 A3021 -210 26 100 010/09 RMK AO2 T01781017
13976KLFT LFT20191109140010411/09/19 14:00:31  5-MIN KLFT 092000Z 02007KT 10SM CLR 18/M02 A3020 -210 26 100 010/07 RMK AO2 T01781017
13976KLFT LFT20191109140510411/09/19 14:05:31  5-MIN KLFT 092005Z 03008KT 10SM CLR 18/M02 A3020 -210 26 100 030/08 RMK AO2 T01781017
13976KLFT LFT20191109141010411/09/19 14:10:31  5-MIN KLFT 092010Z 03007KT 10SM CLR 18/M01 A3020 -210 27 100 030/07 RMK AO2 T01781011
13976KLFT LFT20191109141510411/09/19 14:15:31  5-MIN KLFT 092015Z 36006KT 10SM CLR 18/M01 A3020 -210 26 200 360/06 RMK AO2 T01831011
13976KLFT LFT20191109142010411/09/19 14:20:31  5-MIN KLFT 092020Z 36006KT 10SM CLR 18/M01 A3020 -210 28 100 360/06 RMK AO2 T01781006
13976KLFT LFT20191109142510311/09/19 14:25:31  5-MIN KLFT 092025Z 01009KT 10SM CLR 18/00 A3020 -210 29 200 010/09 RMK AO2 T01830000
13976KLFT LFT20191109143010411/09/19 14:30:31  5-MIN KLFT 092030Z 36008KT 10SM CLR 18/M01 A3020 -210 27 100 360/08 RMK AO2 T01781011
13976KLFT LFT20191109143510411/09/19 14:35:31  5-MIN KLFT 092035Z 04006KT 10SM CLR 18/M02 A3020 -210 26 100 040/06 RMK AO2 T01781017
13976KLFT LFT20191109144010411/09/19 14:40:31  5-MIN KLFT 092040Z 03007KT 10SM CLR 18/M01 A3020 -210 27 100 030/07 RMK AO2 T01781011
13976KLFT LFT20191109144510411/09/19 14:45:31  5-MIN KLFT 092045Z 36006KT 10SM CLR 18/M01 A3020 -210 27 100 360/06 RMK AO2 T01781011
13976KLFT LFT20191109145011711/09/19 14:50:31  5-MIN KLFT 092050Z 03010KT 10SM CLR 18/M01 A3020 -210 27 100 020/10 RMK AO2 SLP225 T01781011 58017
13976KLFT LFT20191109145510411/09/19 14:55:31  5-MIN KLFT 092055Z 04008KT 10SM CLR 18/M02 A3020 -210 26 100 030/08 RMK AO2 T01781017
13976KLFT LFT20191109150010411/09/19 15:00:31  5-MIN KLFT 092100Z 04007KT 10SM CLR 18/M01 A3020 -200 27 100 040/07 RMK AO2 T01781011
13976KLFT LFT20191109150510411/09/19 15:05:31  5-MIN KLFT 092105Z 01009KT 10SM CLR 18/M01 A3019 -200 27 200 010/09 RMK AO2 T01831006
13976KLFT LFT20191109151010411/09/19 15:10:31  5-MIN KLFT 092110Z 03007KT 10SM CLR 18/M02 A3020 -200 26 100 030/07 RMK AO2 T01781017
13976KLFT LFT20191109151510411/09/19 15:15:31  5-MIN KLFT 092115Z 05007KT 10SM CLR 18/M01 A3019 -200 27 200 050/07 RMK AO2 T01831006
13976KLFT LFT20191109152010411/09/19 15:20:31  5-MIN KLFT 092120Z 01008KT 10SM CLR 18/M01 A3019 -200 27 100 010/08 RMK AO2 T01781011
13976KLFT LFT20191109152510411/09/19 15:25:31  5-MIN KLFT 092125Z 01007KT 10SM CLR 18/M01 A3019 -200 27 100 010/07 RMK AO2 T01781011
13976KLFT LFT20191109153010411/09/19 15:30:31  5-MIN KLFT 092130Z 02010KT 10SM CLR 18/M01 A3020 -200 27 100 010/10 RMK AO2 T01781011
13976KLFT LFT20191109153510411/09/19 15:35:31  5-MIN KLFT 092135Z 03008KT 10SM CLR 18/M01 A3019 -200 27 100 020/08 RMK AO2 T01781011
13976KLFT LFT20191109154010411/09/19 15:40:31  5-MIN KLFT 092140Z 03009KT 10SM CLR 18/M02 A3019 -200 26 100 030/09 RMK AO2 T01781017
13976KLFT LFT20191109154510211/09/19 15:45:31  5-MIN KLFT 092145Z 02008KT 10SM CLR 17/M02 A3019 -200 27 0 020/08 RMK AO2 T01721017
13976KLFT LFT20191109155011111/09/19 15:50:31  5-MIN KLFT 092150Z 03006KT 10SM CLR 18/M02 A3019 -200 26 100 030/06 RMK AO2 SLP224 T01781017
13976KLFT LFT20191109155510411/09/19 15:55:31  5-MIN KLFT 092155Z 01007KT 10SM CLR 18/M02 A3019 -200 26 100 010/07 RMK AO2 T01781017
13976KLFT LFT20191109160010411/09/19 16:00:31  5-MIN KLFT 092200Z 01007KT 10SM CLR 18/M02 A3019 -200 26 100 010/07 RMK AO2 T01781017
13976KLFT LFT20191109160510211/09/19 16:05:31  5-MIN KLFT 092205Z 02006KT 10SM CLR 17/M02 A3020 -200 27 0 020/06 RMK AO2 T01721017
13976KLFT LFT20191109161010211/09/19 16:10:31  5-MIN KLFT 092210Z 01007KT 10SM CLR 17/M02 A3020 -200 26 0 010/07 RMK AO2 T01721022
13976KLFT LFT20191109161510211/09/19 16:15:31  5-MIN KLFT 092215Z 03006KT 10SM CLR 17/M02 A3019 -200 27 0 030/06 RMK AO2 T01721017
13976KLFT LFT20191109162010211/09/19 16:20:31  5-MIN KLFT 092220Z 02007KT 10SM CLR 17/M02 A3019 -200 27 0 020/07 RMK AO2 T01671022
13976KLFT LFT20191109162510211/09/19 16:25:31  5-MIN KLFT 092225Z 03006KT 10SM CLR 17/M02 A3019 -200 28 0 030/06 RMK AO2 T01671017
13976KLFT LFT20191109163010211/09/19 16:30:31  5-MIN KLFT 092230Z 03006KT 10SM CLR 16/M01 A3019 -200 30 0 030/06 RMK AO2 T01611011
13976KLFT LFT20191109163510211/09/19 16:35:31  5-MIN KLFT 092235Z 03006KT 10SM CLR 16/M01 A3020 -200 30 0 030/06 RMK AO2 T01611011
13976KLFT LFT20191109164010511/09/19 16:40:31  5-MIN KLFT 092240Z 03005KT 10SM CLR 16/M01 A3020 -200 33 -100 020/05 RMK AO2 T01561006
13976KLFT LFT20191109164510511/09/19 16:45:31  5-MIN KLFT 092245Z 02004KT 10SM CLR 16/M01 A3020 -200 33 -100 020/04 RMK AO2 T01561006
13976KLFT LFT20191109165011111/09/19 16:50:31  5-MIN KLFT 092250Z 02004KT 10SM CLR 16/00 A3020 -210 34 -100 020/04 RMK AO2 SLP225 T01560000
13976KLFT LFT20191109165510411/09/19 16:55:31  5-MIN KLFT 092255Z 02004KT 10SM CLR 15/00 A3020 -210 35 -200 010/04 RMK AO2 T01500000
13976KLFT LFT20191109170010511/09/19 17:00:31  5-MIN KLFT 092300Z 02004KT 10SM CLR 15/M01 A3020 -210 34 -200 020/04 RMK AO2 T01501006
13976KLFT LFT20191109170510511/09/19 17:05:31  5-MIN KLFT 092305Z 04003KT 10SM CLR 15/M01 A3020 -210 34 -200 040/03 RMK AO2 T01501006
13976KLFT LFT20191109171010511/09/19 17:10:31  5-MIN KLFT 092310Z 04003KT 10SM CLR 15/M01 A3020 -200 34 -200 040/03 RMK AO2 T01501006
13976KLFT LFT20191109171510411/09/19 17:15:31  5-MIN KLFT 092315Z 05003KT 10SM CLR 15/00 A3019 -200 35 -200 040/03 RMK AO2 T01500000
13976KLFT LFT20191109172010411/09/19 17:20:31  5-MIN KLFT 092320Z 03003KT 10SM CLR 14/01 A3019 -200 40 -200 030/03 RMK AO2 T01440011
13976KLFT LFT20191109172510411/09/19 17:25:31  5-MIN KLFT 092325Z 04003KT 10SM CLR 14/02 A3019 -200 41 -200 040/03 RMK AO2 T01440017
13976KLFT LFT20191109173010411/09/19 17:30:31  5-MIN KLFT 092330Z 03003KT 10SM CLR 13/04 A3019 -200 52 -400 030/03 RMK AO2 T01330039
13976KLFT LFT20191109173510411/09/19 17:35:31  5-MIN KLFT 092335Z 00000KT 10SM CLR 13/04 A3019 -200 56 -400 000/00 RMK AO2 T01280044
13976KLFT LFT20191109174010411/09/19 17:40:31  5-MIN KLFT 092340Z 03003KT 10SM CLR 13/04 A3019 -200 54 -400 030/03 RMK AO2 T01280039
13976KLFT LFT20191109174510411/09/19 17:45:31  5-MIN KLFT 092345Z 00000KT 10SM CLR 12/05 A3019 -200 61 -500 000/00 RMK AO2 T01220050
13976KLFT LFT20191109175012911/09/19 17:50:31  5-MIN KLFT 092350Z 00000KT 10SM CLR 12/06 A3019 -200 66 -600 000/00 RMK AO2 SLP223 T01170056 10183 20117 56019
13976KLFT LFT20191109175510411/09/19 17:55:31  5-MIN KLFT 092355Z 00000KT 10SM CLR 12/06 A3019 -200 66 -600 000/00 RMK AO2 T01170056
13976KLFT LFT20191109180010411/09/19 18:00:31  5-MIN KLFT 100000Z 00000KT 10SM CLR 12/06 A3019 -200 68 -600 000/00 RMK AO2 T01170061
13976KLFT LFT20191109180510411/09/19 18:05:31  5-MIN KLFT 100005Z 04003KT 10SM CLR 11/07 A3019 -200 74 -600 040/03 RMK AO2 T01110067
13976KLFT LFT20191109181010411/09/19 18:10:31  5-MIN KLFT 100010Z 00000KT 10SM CLR 11/05 A3019 -200 66 -600 000/00 RMK AO2 T01110050
13976KLFT LFT20191109181510411/09/19 18:15:31  5-MIN KLFT 100015Z 04003KT 10SM CLR 11/05 A3019 -200 66 -600 040/03 RMK AO2 T01110050
13976KLFT LFT20191109182010411/09/19 18:20:31  5-MIN KLFT 100020Z 04003KT 10SM CLR 11/06 A3020 -200 71 -700 040/03 RMK AO2 T01060056
13976KLFT LFT20191109182510411/09/19 18:25:31  5-MIN KLFT 100025Z 03003KT 10SM CLR 11/05 A3019 -200 68 -700 030/03 RMK AO2 T01060050
13976KLFT LFT20191109183010411/09/19 18:30:31  5-MIN KLFT 100030Z 00000KT 10SM CLR 10/05 A3019 -200 71 -800 000/00 RMK AO2 T01000050
13976KLFT LFT20191109183510411/09/19 18:35:31  5-MIN KLFT 100035Z 00000KT 10SM CLR 09/04 A3020 -200 71 -800 000/00 RMK AO2 T00940044
13976KLFT LFT20191109184010411/09/19 18:40:31  5-MIN KLFT 100040Z 00000KT 10SM CLR 10/04 A3019 -200 68 -800 000/00 RMK AO2 T01000044
13976KLFT LFT20191109184510411/09/19 18:45:31  5-MIN KLFT 100045Z 00000KT 10SM CLR 10/05 A3020 -200 71 -800 000/00 RMK AO2 T01000050
13976KLFT LFT20191109185011111/09/19 18:50:31  5-MIN KLFT 100050Z 00000KT 10SM CLR 10/06 A3019 -200 77 -800 000/00 RMK AO2 SLP224 T01000061
13976KLFT LFT20191109185510411/09/19 18:55:31  5-MIN KLFT 100055Z 00000KT 10SM CLR 09/07 A3019 -200 83 -800 000/00 RMK AO2 T00940067
13976KLFT LFT20191109190010411/09/19 19:00:31  5-MIN KLFT 100100Z 00000KT 10SM CLR 09/06 A3020 -210 79 -800 000/00 RMK AO2 T00940061
13976KLFT LFT20191109190510411/09/19 19:05:31  5-MIN KLFT 100105Z 00000KT 10SM CLR 09/06 A3020 -210 79 -800 000/00 RMK AO2 T00940061
13976KLFT LFT20191109191010411/09/19 19:10:31  5-MIN KLFT 100110Z 00000KT 10SM CLR 09/06 A3020 -210 79 -800 000/00 RMK AO2 T00940061
13976KLFT LFT20191109191510411/09/19 19:15:31  5-MIN KLFT 100115Z 00000KT 10SM CLR 09/06 A3020 -210 79 -800 000/00 RMK AO2 T00940061
13976KLFT LFT20191109192010411/09/19 19:20:31  5-MIN KLFT 100120Z 00000KT 10SM CLR 09/06 A3020 -210 79 -800 000/00 RMK AO2 T00940061
13976KLFT LFT20191109192510411/09/19 19:25:31  5-MIN KLFT 100125Z 00000KT 10SM CLR 09/07 A3020 -210 83 -800 000/00 RMK AO2 T00940067
13976KLFT LFT20191109193010411/09/19 19:30:31  5-MIN KLFT 100130Z 00000KT 10SM CLR 09/07 A3020 -210 83 -800 000/00 RMK AO2 T00940067
13976KLFT LFT20191109193510411/09/19 19:35:31  5-MIN KLFT 100135Z 00000KT 10SM CLR 09/07 A3020 -210 83 -800 000/00 RMK AO2 T00940067
13976KLFT LFT20191109194010411/09/19 19:40:31  5-MIN KLFT 100140Z 00000KT 10SM CLR 09/07 A3020 -210 86 -900 000/00 RMK AO2 T00890067
13976KLFT LFT20191109194510411/09/19 19:45:31  5-MIN KLFT 100145Z 00000KT 10SM CLR 09/07 A3020 -210 86 -900 000/00 RMK AO2 T00890067
13976KLFT LFT20191109195011111/09/19 19:50:31  5-MIN KLFT 100150Z 00000KT 10SM CLR 09/07 A3020 -210 86 -900 000/00 RMK AO2 SLP226 T00890067
13976KLFT LFT20191109195510411/09/19 19:55:31  5-MIN KLFT 100155Z 00000KT 10SM CLR 09/07 A3020 -210 86 -900 000/00 RMK AO2 T00890067
13976KLFT LFT20191110100510311/10/19 10:05:31  5-MIN KLFT 101605Z 17003KT 10SM CLR 18/04 A3022 -230 41 100 170/03 RMK AO2 T01780044
13976KLFT LFT20191110101010311/10/19 10:10:31  5-MIN KLFT 101610Z 15003KT 10SM CLR 18/04 A3022 -230 39 100 150/03 RMK AO2 T01780039
13976KLFT LFT20191110101510311/10/19 10:15:31  5-MIN KLFT 101615Z 19004KT 10SM CLR 18/03 A3022 -230 36 100 180/04 RMK AO2 T01830033
13976KLFT LFT20191110102010311/10/19 10:20:31  5-MIN KLFT 101620Z 18004KT 10SM CLR 18/03 A3022 -230 38 100 180/04 RMK AO2 T01780033
13976KLFT LFT20191110102510311/10/19 10:25:31  5-MIN KLFT 101625Z 17003KT 10SM CLR 18/03 A3022 -230 35 100 160/03 RMK AO2 T01830028
13976KLFT LFT20191110103010311/10/19 10:30:31  5-MIN KLFT 101630Z 14003KT 10SM CLR 18/03 A3022 -230 35 100 140/03 RMK AO2 T01830028
13976KLFT LFT20191110103510311/10/19 10:35:31  5-MIN KLFT 101635Z 00000KT 10SM CLR 19/03 A3022 -230 34 200 000/00 RMK AO2 T01890028
13976KLFT LFT20191110104010311/10/19 10:40:31  5-MIN KLFT 101640Z 16003KT 10SM CLR 19/03 A3022 -220 34 200 160/03 RMK AO2 T01890028
13976KLFT LFT20191110104510311/10/19 10:45:31  5-MIN KLFT 101645Z 00000KT 10SM CLR 19/03 A3021 -220 34 200 000/00 RMK AO2 T01890028
13976KLFT LFT20191110105011011/10/19 10:50:31  5-MIN KLFT 101650Z 00000KT 10SM CLR 19/02 A3021 -220 31 200 000/00 RMK AO2 SLP229 T01890017
13976KLFT LFT20191110105510311/10/19 10:55:31  5-MIN KLFT 101655Z 00000KT 10SM CLR 19/03 A3021 -220 33 300 000/00 RMK AO2 T01940028
13976KLFT LFT20191110110010311/10/19 11:00:31  5-MIN KLFT 101700Z 00000KT 10SM CLR 19/03 A3021 -210 34 300 000/00 RMK AO2 T01940033
13976KLFT LFT20191110110510311/10/19 11:05:31  5-MIN KLFT 101705Z 00000KT 10SM CLR 19/03 A3020 -210 33 300 000/00 RMK AO2 T01940028
13976KLFT LFT20191110111010311/10/19 11:10:31  5-MIN KLFT 101710Z VRB03KT 10SM CLR 19/02 A3020 -210 31 300 VRB/03 RMK AO2 T01940022
13976KLFT LFT20191110111510311/10/19 11:15:31  5-MIN KLFT 101715Z 00000KT 10SM CLR 19/02 A3019 -200 31 300 000/00 RMK AO2 T01940022
13976KLFT LFT20191110112010311/10/19 11:20:31  5-MIN KLFT 101720Z VRB03KT 10SM CLR 20/02 A3019 -200 30 400 VRB/03 RMK AO2 T02000022
13976KLFT LFT20191110112510311/10/19 11:25:31  5-MIN KLFT 101725Z 00000KT 10SM CLR 20/02 A3019 -200 29 400 000/00 RMK AO2 T02000017
13976KLFT LFT20191110113010311/10/19 11:30:31  5-MIN KLFT 101730Z 00000KT 10SM CLR 21/03 A3019 -200 30 400 000/00 RMK AO2 T02060028
13976KLFT LFT20191110113510311/10/19 11:35:31  5-MIN KLFT 101735Z 00000KT 10SM CLR 20/03 A3019 -200 31 400 000/00 RMK AO2 T02000028
13976KLFT LFT20191110114010311/10/19 11:40:31  5-MIN KLFT 101740Z 00000KT 10SM CLR 20/03 A3019 -200 31 400 000/00 RMK AO2 T02000028
13976KLFT LFT20191110114510311/10/19 11:45:31  5-MIN KLFT 101745Z 03003KT 10SM CLR 21/03 A3018 -190 32 400 030/03 RMK AO2 T02060033
13976KLFT LFT20191110115012811/10/19 11:50:31  5-MIN KLFT 101750Z 00000KT 10SM CLR 21/04 A3018 -190 32 500 000/00 RMK AO2 SLP219 T02110039 10211 20050 51012
13976KLFT LFT20191110115510311/10/19 11:55:31  5-MIN KLFT 101755Z VRB03KT 10SM CLR 21/03 A3017 -190 32 500 VRB/03 RMK AO2 T02060033
13976KLFT LFT20191110120010311/10/19 12:00:31  5-MIN KLFT 101800Z 00000KT 10SM CLR 21/03 A3017 -180 30 500 000/00 RMK AO2 T02110033
13976KLFT LFT20191110120510311/10/19 12:05:31  5-MIN KLFT 101805Z 00000KT 10SM CLR 21/03 A3017 -180 29 500 000/00 RMK AO2 T02110028
13976KLFT LFT20191110121010311/10/19 12:10:31  5-MIN KLFT 101810Z 00000KT 10SM CLR 21/04 A3017 -180 32 500 000/00 RMK AO2 T02110039
13976KLFT LFT20191110121510311/10/19 12:15:31  5-MIN KLFT 101815Z 21004KT 10SM CLR 21/04 A3016 -170 32 500 210/04 RMK AO2 T02110039
13976KLFT LFT20191110122010311/10/19 12:20:31  5-MIN KLFT 101820Z 22003KT 10SM CLR 21/03 A3016 -170 32 500 220/03 RMK AO2 T02060033
13976KLFT LFT20191110122510311/10/19 12:25:31  5-MIN KLFT 101825Z 00000KT 10SM CLR 21/03 A3015 -170 32 500 000/00 RMK AO2 T02060033
13976KLFT LFT20191110123010311/10/19 12:30:31  5-MIN KLFT 101830Z 00000KT 10SM CLR 21/04 A3015 -160 32 500 000/00 RMK AO2 T02110039
13976KLFT LFT20191110123510311/10/19 12:35:31  5-MIN KLFT 101835Z 00000KT 10SM CLR 22/05 A3015 -160 33 600 000/00 RMK AO2 T02170050
13976KLFT LFT20191110124010311/10/19 12:40:31  5-MIN KLFT 101840Z VRB03KT 10SM CLR 22/04 A3015 -160 32 600 VRB/03 RMK AO2 T02170044
13976KLFT LFT20191110124510311/10/19 12:45:31  5-MIN KLFT 101845Z 00000KT 10SM CLR 21/04 A3014 -160 33 600 000/00 RMK AO2 T02110044
13976KLFT LFT20191110125011011/10/19 12:50:31  5-MIN KLFT 101850Z 00000KT 10SM CLR 21/04 A3014 -150 33 600 000/00 RMK AO2 SLP206 T02110044
13976KLFT LFT20191110125510311/10/19 12:55:31  5-MIN KLFT 101855Z 00000KT 10SM CLR 22/05 A3014 -150 33 600 000/00 RMK AO2 T02170050
13976KLFT LFT20191110130010311/10/19 13:00:31  5-MIN KLFT 101900Z 00000KT 10SM CLR 22/05 A3014 -150 33 600 000/00 RMK AO2 T02170050
13976KLFT LFT20191110130510311/10/19 13:05:31  5-MIN KLFT 101905Z 00000KT 10SM CLR 22/06 A3013 -150 34 600 000/00 RMK AO2 T02170056
13976KLFT LFT20191110131010311/10/19 13:10:31  5-MIN KLFT 101910Z 00000KT 10SM CLR 22/06 A3013 -150 33 700 000/00 RMK AO2 T02220056
13976KLFT LFT20191110131510311/10/19 13:15:31  5-MIN KLFT 101915Z VRB03KT 10SM CLR 22/06 A3013 -140 33 700 VRB/03 RMK AO2 T02220056
13976KLFT LFT20191110132010311/10/19 13:20:31  5-MIN KLFT 101920Z 00000KT 10SM CLR 22/06 A3013 -140 33 700 000/00 RMK AO2 T02220056
13976KLFT LFT20191110132510311/10/19 13:25:31  5-MIN KLFT 101925Z 16005KT 10SM CLR 22/06 A3012 -140 35 700 160/05 RMK AO2 T02220061
13976KLFT LFT20191110133010311/10/19 13:30:31  5-MIN KLFT 101930Z 20005KT 10SM CLR 22/06 A3012 -140 34 600 200/05 RMK AO2 T02170056
13976KLFT LFT20191110133510311/10/19 13:35:31  5-MIN KLFT 101935Z VRB03KT 10SM CLR 22/06 A3012 -140 34 600 VRB/03 RMK AO2 T02170056
13976KLFT LFT20191110134010311/10/19 13:40:31  5-MIN KLFT 101940Z 00000KT 10SM CLR 22/07 A3012 -130 36 700 000/00 RMK AO2 T02220067
13976KLFT LFT20191110134510311/10/19 13:45:31  5-MIN KLFT 101945Z 00000KT 10SM CLR 22/06 A3012 -130 35 700 000/00 RMK AO2 T02220061
13976KLFT LFT20191110135011011/10/19 13:50:31  5-MIN KLFT 101950Z VRB04KT 10SM CLR 22/06 A3012 -130 35 700 VRB/04 RMK AO2 SLP198 T02220061
13976KLFT LFT20191110135510311/10/19 13:55:31  5-MIN KLFT 101955Z 00000KT 10SM CLR 22/06 A3011 -130 36 700 000/00 RMK AO2 T02170061
13976KLFT LFT20191110140010311/10/19 14:00:31  5-MIN KLFT 102000Z 00000KT 10SM CLR 22/06 A3011 -130 35 700 000/00 RMK AO2 T02220061
13976KLFT LFT20191110140510311/10/19 14:05:31  5-MIN KLFT 102005Z 00000KT 10SM CLR 22/06 A3011 -130 36 700 000/00 RMK AO2 T02170061
13976KLFT LFT20191110141010311/10/19 14:10:31  5-MIN KLFT 102010Z VRB03KT 10SM CLR 22/06 A3011 -120 35 700 VRB/03 RMK AO2 T02220061
13976KLFT LFT20191110141510311/10/19 14:15:31  5-MIN KLFT 102015Z VRB03KT 10SM CLR 22/06 A3011 -120 36 700 VRB/03 RMK AO2 T02170061
13976KLFT LFT20191110142010311/10/19 14:20:31  5-MIN KLFT 102020Z VRB03KT 10SM CLR 22/06 A3010 -120 35 700 VRB/03 RMK AO2 T02220061
13976KLFT LFT20191110142510311/10/19 14:25:31  5-MIN KLFT 102025Z VRB04KT 10SM CLR 22/06 A3010 -120 34 700 VRB/04 RMK AO2 T02170056
13976KLFT LFT20191110143010811/10/19 14:30:31  5-MIN KLFT 102030Z AUTO VRB03KT 10SM CLR 22/06 A3010 -120 33 700 VRB/03 RMK AO2 T02220056
13976KLFT LFT20191110143510811/10/19 14:35:31  5-MIN KLFT 102035Z AUTO 00000KT 10SM CLR 22/06 A3010 -120 35 700 000/00 RMK AO2 T02220061
13976KLFT LFT20191110144010811/10/19 14:40:31  5-MIN KLFT 102040Z AUTO 00000KT 10SM CLR 22/06 A3010 -120 35 700 000/00 RMK AO2 T02220061
13976KLFT LFT20191110144510811/10/19 14:45:31  5-MIN KLFT 102045Z AUTO 14003KT 10SM CLR 22/06 A3010 -120 35 700 140/03 RMK AO2 T02220061
13976KLFT LFT20191110145011611/10/19 14:50:31  5-MIN KLFT 102050Z 12003KT 10SM CLR 22/06 A3010 -110 35 700 120/03 RMK AO2 SLP191 T02220061 58020
13976KLFT LFT20191110145510311/10/19 14:55:31  5-MIN KLFT 102055Z VRB04KT 10SM CLR 22/06 A3010 -110 35 700 VRB/04 RMK AO2 T02220061
13976KLFT LFT20191110150010311/10/19 15:00:31  5-MIN KLFT 102100Z 15004KT 10SM CLR 22/07 A3009 -110 36 700 150/04 RMK AO2 T02220067
13976KLFT LFT20191110150510311/10/19 15:05:31  5-MIN KLFT 102105Z VRB03KT 10SM CLR 22/06 A3009 -110 35 700 VRB/03 RMK AO2 T02220061
13976KLFT LFT20191110151010311/10/19 15:10:31  5-MIN KLFT 102110Z 00000KT 10SM CLR 22/06 A3010 -110 36 700 000/00 RMK AO2 T02170061
13976KLFT LFT20191110151510311/10/19 15:15:31  5-MIN KLFT 102115Z 00000KT 10SM CLR 22/06 A3009 -110 35 700 000/00 RMK AO2 T02220061
13976KLFT LFT20191110152010311/10/19 15:20:31  5-MIN KLFT 102120Z VRB03KT 10SM CLR 22/07 A3009 -110 36 700 VRB/03 RMK AO2 T02220067
13976KLFT LFT20191110152510311/10/19 15:25:31  5-MIN KLFT 102125Z 00000KT 10SM CLR 22/06 A3009 -110 35 700 000/00 RMK AO2 T02220061
13976KLFT LFT20191110153010311/10/19 15:30:31  5-MIN KLFT 102130Z VRB03KT 10SM CLR 22/06 A3009 -110 35 700 VRB/03 RMK AO2 T02220061
13976KLFT LFT20191110153510311/10/19 15:35:31  5-MIN KLFT 102135Z VRB03KT 10SM CLR 22/06 A3009 -110 36 700 VRB/03 RMK AO2 T02170061
13976KLFT LFT20191110154010311/10/19 15:40:31  5-MIN KLFT 102140Z 00000KT 10SM CLR 22/06 A3009 -110 35 700 000/00 RMK AO2 T02220061
13976KLFT LFT20191110154510311/10/19 15:45:31  5-MIN KLFT 102145Z 17004KT 10SM CLR 22/06 A3009 -110 36 700 170/04 RMK AO2 T02170061
13976KLFT LFT20191110155011011/10/19 15:50:31  5-MIN KLFT 102150Z 14003KT 10SM CLR 22/06 A3009 -110 36 700 140/03 RMK AO2 SLP189 T02170061
13976KLFT LFT20191110155510311/10/19 15:55:31  5-MIN KLFT 102155Z 00000KT 10SM CLR 22/06 A3009 -110 33 700 000/00 RMK AO2 T02220056
13976KLFT LFT20191110160010311/10/19 16:00:31  5-MIN KLFT 102200Z 14003KT 10SM CLR 22/06 A3009 -110 36 700 140/03 RMK AO2 T02170061
13976KLFT LFT20191110160510311/10/19 16:05:31  5-MIN KLFT 102205Z 11004KT 10SM CLR 22/07 A3009 -100 37 700 110/04 RMK AO2 T02170067
13976KLFT LFT20191110161010311/10/19 16:10:31  5-MIN KLFT 102210Z 13003KT 10SM CLR 22/06 A3009 -100 36 700 120/03 RMK AO2 T02170061
13976KLFT LFT20191110161510311/10/19 16:15:31  5-MIN KLFT 102215Z VRB03KT 10SM CLR 22/07 A3008 -100 37 700 VRB/03 RMK AO2 T02170067
13976KLFT LFT20191110162010311/10/19 16:20:31  5-MIN KLFT 102220Z 12004KT 10SM CLR 21/07 A3008 -100 38 600 120/04 RMK AO2 T02110067
13976KLFT LFT20191110162510311/10/19 16:25:31  5-MIN KLFT 102225Z VRB04KT 10SM CLR 21/07 A3008 -100 38 600 VRB/04 RMK AO2 T02110067
13976KLFT LFT20191110163010311/10/19 16:30:31  5-MIN KLFT 102230Z 12003KT 10SM CLR 21/07 A3008 -100 40 600 120/03 RMK AO2 T02060067
13976KLFT LFT20191110163510311/10/19 16:35:31  5-MIN KLFT 102235Z 13003KT 10SM CLR 21/07 A3008 -100 40 600 120/03 RMK AO2 T02060067
13976KLFT LFT20191110164010311/10/19 16:40:31  5-MIN KLFT 102240Z 12003KT 10SM CLR 21/07 A3008 -100 40 600 120/03 RMK AO2 T02060067
13976KLFT LFT20191110164510311/10/19 16:45:31  5-MIN KLFT 102245Z 12003KT 10SM CLR 20/07 A3008 -100 41 500 120/03 RMK AO2 T02000067
13976KLFT LFT20191110165011011/10/19 16:50:31  5-MIN KLFT 102250Z 11003KT 10SM CLR 20/07 A3008 -100 41 500 110/03 RMK AO2 SLP184 T02000067
13976KLFT LFT20191110165510311/10/19 16:55:31  5-MIN KLFT 102255Z 12003KT 10SM CLR 19/07 A3008 -100 43 400 120/03 RMK AO2 T01940067
13976KLFT LFT20191110170010311/10/19 17:00:31  5-MIN KLFT 102300Z 12003KT 10SM CLR 19/07 A3008 -100 43 400 110/03 RMK AO2 T01940067
13976KLFT LFT20191110170510311/10/19 17:05:31  5-MIN KLFT 102305Z 12003KT 10SM CLR 19/07 A3008 -100 46 400 120/03 RMK AO2 T01890072
13976KLFT LFT20191110171010311/10/19 17:10:31  5-MIN KLFT 102310Z 00000KT 10SM CLR 18/08 A3008 -100 50 300 000/00 RMK AO2 T01830078
13976KLFT LFT20191110171510311/10/19 17:15:31  5-MIN KLFT 102315Z 00000KT 10SM CLR 18/08 A3008 -100 53 200 000/00 RMK AO2 T01780083
13976KLFT LFT20191110172010311/10/19 17:20:31  5-MIN KLFT 102320Z 00000KT 10SM CLR 17/09 A3008 -100 60 200 000/00 RMK AO2 T01720094
13976KLFT LFT20191110172510211/10/19 17:25:31  5-MIN KLFT 102325Z 00000KT 10SM CLR 17/09 A3008 -90 62 100 000/00 RMK AO2 T01670094
13976KLFT LFT20191110173010011/10/19 17:30:31  5-MIN KLFT 102330Z 00000KT 10SM CLR 16/11 A3008 -90 69 0 000/00 RMK AO2 T01610106
13976KLFT LFT20191110173510111/10/19 17:35:31  5-MIN KLFT 102335Z 00000KT 10SM CLR 16/11 A3008 -100 72 0 000/00 RMK AO2 T01560106
13976KLFT LFT20191110174010111/10/19 17:40:31  5-MIN KLFT 102340Z 00000KT 10SM CLR 16/10 A3008 -100 69 0 000/00 RMK AO2 T01560100
13976KLFT LFT20191110174509411/10/19 17:45:31  5-MIN KLFT 102345Z 10SM CLR 14/09 A3009 -100 69 -100 M /M RMK AO2 T01440089
13976KLFT LFT20191110175012611/10/19 17:50:31  5-MIN KLFT 102350Z 12004KT 10SM CLR 16/09 A3008 -100 64 0 120/04 RMK AO2 SLP187 T01560089 10222 20144 56027
13976KLFT LFT20191110175510111/10/19 17:55:31  5-MIN KLFT 102355Z 16004KT 10SM CLR 16/10 A3009 -100 69 0 160/04 RMK AO2 T01560100
13976KLFT LFT20191110180010111/10/19 18:00:31  5-MIN KLFT 110000Z 16004KT 10SM CLR 16/09 A3009 -100 67 0 160/04 RMK AO2 T01560094
13976KLFT LFT20191110180510111/10/19 18:05:31  5-MIN KLFT 110005Z 16003KT 10SM CLR 16/10 A3009 -110 69 0 160/03 RMK AO2 T01560100
13976KLFT LFT20191110181010411/10/19 18:10:31  5-MIN KLFT 110010Z 16003KT 10SM CLR 14/11 A3009 -110 80 -200 160/03 RMK AO2 T01390106
13976KLFT LFT20191110181510411/10/19 18:15:31  5-MIN KLFT 110015Z 18004KT 10SM CLR 15/11 A3009 -110 74 -100 180/04 RMK AO2 T01500106
13976KLFT LFT20191110182010111/10/19 18:20:31  5-MIN KLFT 110020Z 18004KT 10SM CLR 16/09 A3009 -110 67 0 180/04 RMK AO2 T01560094
13976KLFT LFT20191110182510411/10/19 18:25:31  5-MIN KLFT 110025Z 17003KT 10SM CLR 14/09 A3009 -110 72 -100 170/03 RMK AO2 T01440094
13976KLFT LFT20191110183010411/10/19 18:30:31  5-MIN KLFT 110030Z 00000KT 10SM CLR 14/10 A3009 -110 77 -200 000/00 RMK AO2 T01390100
13976KLFT LFT20191110183510411/10/19 18:35:31  5-MIN KLFT 110035Z 00000KT 10SM CLR 14/10 A3009 -110 77 -200 000/00 RMK AO2 T01390100
13976KLFT LFT20191110184010411/10/19 18:40:31  5-MIN KLFT 110040Z 00000KT 10SM CLR 13/11 A3009 -110 83 -300 000/00 RMK AO2 T01330106
13976KLFT LFT20191110184510411/10/19 18:45:31  5-MIN KLFT 110045Z 00000KT 10SM CLR 14/11 A3009 -110 80 -200 000/00 RMK AO2 T01390106
13976KLFT LFT20191110185011111/10/19 18:50:31  5-MIN KLFT 110050Z 00000KT 10SM CLR 14/11 A3009 -110 80 -200 000/00 RMK AO2 SLP190 T01390106
13976KLFT LFT20191110185510411/10/19 18:55:31  5-MIN KLFT 110055Z 00000KT 10SM CLR 13/11 A3009 -110 83 -300 000/00 RMK AO2 T01330106
13976KLFT LFT20191110190010411/10/19 19:00:31  5-MIN KLFT 110100Z 00000KT 10SM CLR 13/11 A3009 -110 83 -200 000/00 RMK AO2 T01330106
13976KLFT LFT20191110190510411/10/19 19:05:31  5-MIN KLFT 110105Z 00000KT 10SM CLR 13/11 A3009 -110 86 -300 000/00 RMK AO2 T01280106
13976KLFT LFT20191110191010411/10/19 19:10:31  5-MIN KLFT 110110Z 00000KT 10SM CLR 12/11 A3009 -110 89 -400 000/00 RMK AO2 T01220106
13976KLFT LFT20191110191510411/10/19 19:15:31  5-MIN KLFT 110115Z 00000KT 10SM CLR 12/11 A3010 -110 89 -400 000/00 RMK AO2 T01220106
13976KLFT LFT20191110192010411/10/19 19:20:31  5-MIN KLFT 110120Z 00000KT 10SM CLR 12/11 A3010 -110 89 -400 000/00 RMK AO2 T01220106
13976KLFT LFT20191110192510411/10/19 19:25:31  5-MIN KLFT 110125Z 00000KT 10SM CLR 13/11 A3010 -110 86 -300 000/00 RMK AO2 T01280106
13976KLFT LFT20191110193010411/10/19 19:30:31  5-MIN KLFT 110130Z 00000KT 10SM CLR 13/11 A3010 -120 86 -300 000/00 RMK AO2 T01280106
13976KLFT LFT20191110193510411/10/19 19:35:31  5-MIN KLFT 110135Z 00000KT 10SM CLR 12/11 A3010 -120 89 -400 000/00 RMK AO2 T01220106
13976KLFT LFT20191110194010411/10/19 19:40:31  5-MIN KLFT 110140Z 00000KT 10SM CLR 12/11 A3010 -120 89 -400 000/00 RMK AO2 T01220106
13976KLFT LFT20191110194510411/10/19 19:45:31  5-MIN KLFT 110145Z 00000KT 10SM CLR 13/11 A3010 -120 86 -300 000/00 RMK AO2 T01280106
13976KLFT LFT20191110195011111/10/19 19:50:31  5-MIN KLFT 110150Z 00000KT 10SM CLR 13/11 A3010 -120 86 -300 000/00 RMK AO2 SLP193 T01280106
13976KLFT LFT20191110195510411/10/19 19:55:31  5-MIN KLFT 110155Z 00000KT 10SM CLR 13/11 A3011 -120 86 -300 000/00 RMK AO2 T01280106
13976KLFT LFT20191110200010411/10/19 20:00:31  5-MIN KLFT 110200Z 00000KT 10SM CLR 12/11 A3011 -120 89 -400 000/00 RMK AO2 T01220106
13976KLFT LFT20191110200510411/10/19 20:05:31  5-MIN KLFT 110205Z 00000KT 10SM CLR 12/11 A3011 -120 89 -400 000/00 RMK AO2 T01220106
13976KLFT LFT20191110201010411/10/19 20:10:31  5-MIN KLFT 110210Z 00000KT 10SM CLR 12/11 A3011 -120 89 -400 000/00 RMK AO2 T01220106
13976KLFT LFT20191110201510411/10/19 20:15:31  5-MIN KLFT 110215Z 00000KT 10SM CLR 12/11 A3011 -120 89 -400 000/00 RMK AO2 T01220106
13976KLFT LFT20191110202010411/10/19 20:20:31  5-MIN KLFT 110220Z 00000KT 10SM CLR 12/11 A3011 -120 89 -400 000/00 RMK AO2 T01220106
13976KLFT LFT20191110202510311/10/19 20:25:31  5-MIN KLFT 110225Z 00000KT 9SM CLR 12/11 A3011 -120 89 -400 000/00 RMK AO2 T01220106
13976KLFT LFT20191110203010311/10/19 20:30:31  5-MIN KLFT 110230Z 00000KT 9SM CLR 12/11 A3010 -120 89 -400 000/00 RMK AO2 T01220106
13976KLFT LFT20191110203510311/10/19 20:35:31  5-MIN KLFT 110235Z 00000KT 8SM CLR 12/11 A3010 -120 93 -500 000/00 RMK AO2 T01170106
13976KLFT LFT20191110204010311/10/19 20:40:31  5-MIN KLFT 110240Z 00000KT 7SM CLR 11/10 A3010 -120 93 -500 000/00 RMK AO2 T01110100
13976KLFT LFT20191110204510311/10/19 20:45:31  5-MIN KLFT 110245Z 00000KT 7SM CLR 11/10 A3010 -120 93 -500 000/00 RMK AO2 T01110100
13976KLFT LFT20191110205011611/10/19 20:50:31  5-MIN KLFT 110250Z 00000KT 7SM CLR 11/10 A3010 -120 93 -500 000/00 RMK AO2 SLP191 T01110100 55004
13976KLFT LFT20191110205510311/10/19 20:55:31  5-MIN KLFT 110255Z 00000KT 8SM CLR 12/11 A3010 -120 93 -500 000/00 RMK AO2 T01170106
13976KLFT LFT20191110210010311/10/19 21:00:31  5-MIN KLFT 110300Z 00000KT 8SM CLR 12/11 A3010 -120 93 -500 000/00 RMK AO2 T01170106
13976KLFT LFT20191110210510311/10/19 21:05:31  5-MIN KLFT 110305Z 00000KT 7SM CLR 12/11 A3010 -120 93 -500 000/00 RMK AO2 T01170106
13976KLFT LFT20191110211010611/10/19 21:10:31  5-MIN KLFT 110310Z 00000KT 6SM BR CLR 11/10 A3010 -120 93 -500 000/00 RMK AO2 T01110100
13976KLFT LFT20191110211510611/10/19 21:15:31  5-MIN KLFT 110315Z 00000KT 6SM BR CLR 11/10 A3010 -120 93 -500 000/00 RMK AO2 T01110100
13976KLFT LFT20191110212010611/10/19 21:20:31  5-MIN KLFT 110320Z 00000KT 6SM BR CLR 11/09 A3010 -120 89 -500 000/00 RMK AO2 T01110094
13976KLFT LFT20191110212510611/10/19 21:25:31  5-MIN KLFT 110325Z 00000KT 6SM BR CLR 11/10 A3010 -110 93 -500 000/00 RMK AO2 T01110100
13976KLFT LFT20191110213010311/10/19 21:30:31  5-MIN KLFT 110330Z 00000KT 7SM CLR 11/10 A3009 -110 93 -500 000/00 RMK AO2 T01110100
13976KLFT LFT20191110213510311/10/19 21:35:31  5-MIN KLFT 110335Z 00000KT 8SM CLR 11/10 A3009 -110 93 -500 000/00 RMK AO2 T01110100
13976KLFT LFT20191110214010311/10/19 21:40:31  5-MIN KLFT 110340Z 00000KT 9SM CLR 11/10 A3009 -110 93 -500 000/00 RMK AO2 T01110100
13976KLFT LFT20191110214510311/10/19 21:45:31  5-MIN KLFT 110345Z 00000KT 8SM CLR 11/10 A3009 -110 93 -500 000/00 RMK AO2 T01110100
13976KLFT LFT20191110215011011/10/19 21:50:31  5-MIN KLFT 110350Z 00000KT 9SM CLR 11/10 A3009 -110 93 -500 000/00 RMK AO2 SLP188 T01110100
13976KLFT LFT20191110215510411/10/19 21:55:31  5-MIN KLFT 110355Z 00000KT 10SM CLR 11/09 A3009 -110 93 -600 000/00 RMK AO2 T01060094
13976KLFT LFT20191110220010911/10/19 22:00:31  5-MIN KLFT 110400Z AUTO 00000KT 10SM CLR 11/09 A3009 -110 93 -600 000/00 RMK AO2 T01060094
13976KLFT LFT20191111190510511/11/19 19:05:31  5-MIN KLFT 120105Z 00000KT 10SM BKN095 20/18 A3002 -40 90 600 000/00 RMK AO2 T02000183
13976KLFT LFT20191111191010511/11/19 19:10:31  5-MIN KLFT 120110Z 00000KT 10SM BKN095 19/18 A3002 -40 90 500 000/00 RMK AO2 T01940178
13976KLFT LFT20191111191510511/11/19 19:15:31  5-MIN KLFT 120115Z 00000KT 10SM BKN095 19/18 A3002 -40 90 500 000/00 RMK AO2 T01940178
13976KLFT LFT20191111192011211/11/19 19:20:31  5-MIN KLFT 120120Z 00000KT 10SM FEW024 OVC095 20/18 A3002 -40 87 600 000/00 RMK AO2 T02000178
13976KLFT LFT20191111192511211/11/19 19:25:31  5-MIN KLFT 120125Z 00000KT 10SM FEW024 OVC095 20/18 A3001 -40 90 600 000/00 RMK AO2 T02000183
13976KLFT LFT20191111193010511/11/19 19:30:31  5-MIN KLFT 120130Z 00000KT 10SM OVC095 20/18 A3001 -40 90 600 000/00 RMK AO2 T02000183
13976KLFT LFT20191111193511211/11/19 19:35:31  5-MIN KLFT 120135Z 00000KT 10SM FEW065 OVC095 20/18 A3002 -40 90 600 000/00 RMK AO2 T02000183
13976KLFT LFT20191111194011211/11/19 19:40:31  5-MIN KLFT 120140Z 00000KT 10SM SCT065 OVC095 19/18 A3001 -40 93 500 000/00 RMK AO2 T01940183
13976KLFT LFT20191111194511211/11/19 19:45:31  5-MIN KLFT 120145Z 00000KT 10SM BKN070 OVC095 19/18 A3001 -40 93 500 000/00 RMK AO2 T01940183
13976KLFT LFT20191111195011911/11/19 19:50:31  5-MIN KLFT 120150Z 00000KT 10SM BKN070 OVC095 20/18 A3002 -40 90 600 000/00 RMK AO2 SLP164 T02000183
13976KLFT LFT20191111195511211/11/19 19:55:31  5-MIN KLFT 120155Z 00000KT 10SM BKN070 OVC095 20/18 A3002 -50 90 600 000/00 RMK AO2 T02000183
13976KLFT LFT20191111200010511/11/19 20:00:31  5-MIN KLFT 120200Z 00000KT 10SM OVC070 20/18 A3003 -50 90 600 000/00 RMK AO2 T02000183
13976KLFT LFT20191111200510511/11/19 20:05:31  5-MIN KLFT 120205Z 00000KT 10SM OVC070 19/18 A3003 -50 93 500 000/00 RMK AO2 T01940183
13976KLFT LFT20191111201010511/11/19 20:10:31  5-MIN KLFT 120210Z 00000KT 10SM OVC070 19/18 A3003 -50 93 500 000/00 RMK AO2 T01940183
13976KLFT LFT20191111201510511/11/19 20:15:31  5-MIN KLFT 120215Z 00000KT 10SM OVC070 19/18 A3003 -50 93 500 000/00 RMK AO2 T01940183
13976KLFT LFT20191111202010511/11/19 20:20:31  5-MIN KLFT 120220Z 00000KT 10SM OVC070 19/18 A3003 -50 93 500 000/00 RMK AO2 T01940183
13976KLFT LFT20191111202510511/11/19 20:25:31  5-MIN KLFT 120225Z 00000KT 10SM OVC070 20/18 A3003 -50 90 600 000/00 RMK AO2 T02000183
13976KLFT LFT20191111203010511/11/19 20:30:31  5-MIN KLFT 120230Z 00000KT 10SM OVC070 20/18 A3003 -50 90 600 000/00 RMK AO2 T02000183
13976KLFT LFT20191111203511211/11/19 20:35:31  5-MIN KLFT 120235Z 00000KT 10SM BKN070 OVC090 19/18 A3003 -50 93 500 000/00 RMK AO2 T01940183
13976KLFT LFT20191111204011211/11/19 20:40:31  5-MIN KLFT 120240Z 00000KT 10SM BKN070 OVC090 21/18 A3003 -50 87 600 000/00 RMK AO2 T02060183
13976KLFT LFT20191111204511911/11/19 20:45:31  5-MIN KLFT 120245Z 00000KT 10SM FEW050 BKN070 OVC090 20/18 A3003 -50 90 600 000/00 RMK AO2 T02000183
13976KLFT LFT20191111205013211/11/19 20:50:31  5-MIN KLFT 120250Z 00000KT 10SM SCT048 BKN075 OVC090 20/18 A3003 -50 90 600 000/00 RMK AO2 SLP169 T02000183 53007
13976KLFT LFT20191111205511911/11/19 20:55:31  5-MIN KLFT 120255Z 00000KT 10SM BKN048 BKN070 OVC090 20/18 A3003 -50 90 600 000/00 RMK AO2 T02000183
13976KLFT LFT20191111210011211/11/19 21:00:31  5-MIN KLFT 120300Z 00000KT 10SM BKN046 OVC090 20/18 A3003 -60 90 600 000/00 RMK AO2 T02000183
13976KLFT LFT20191111210511211/11/19 21:05:31  5-MIN KLFT 120305Z 00000KT 10SM BKN044 OVC090 20/18 A3003 -60 90 600 000/00 RMK AO2 T02000183
13976KLFT LFT20191111211010511/11/19 21:10:31  5-MIN KLFT 120310Z 00000KT 10SM OVC044 19/18 A3004 -60 93 500 000/00 RMK AO2 T01940183
13976KLFT LFT20191111211510511/11/19 21:15:31  5-MIN KLFT 120315Z 00000KT 10SM OVC044 19/18 A3004 -60 93 500 000/00 RMK AO2 T01940183
13976KLFT LFT20191111212010511/11/19 21:20:31  5-MIN KLFT 120320Z 00000KT 10SM OVC042 20/18 A3004 -60 90 500 000/00 RMK AO2 T02000183
13976KLFT LFT20191111212510511/11/19 21:25:31  5-MIN KLFT 120325Z 00000KT 10SM OVC042 19/18 A3004 -60 93 500 000/00 RMK AO2 T01940183
13976KLFT LFT20191111213010511/11/19 21:30:31  5-MIN KLFT 120330Z 00000KT 10SM OVC040 20/18 A3004 -60 90 500 000/00 RMK AO2 T02000183
13976KLFT LFT20191111213511211/11/19 21:35:31  5-MIN KLFT 120335Z 00000KT 10SM BKN033 OVC041 21/18 A3004 -60 87 600 000/00 RMK AO2 T02060183
13976KLFT LFT20191111214011211/11/19 21:40:31  5-MIN KLFT 120340Z 30003KT 10SM BKN033 OVC041 21/18 A3004 -60 87 600 300/03 RMK AO2 T02060183
13976KLFT LFT20191111214511911/11/19 21:45:31  5-MIN KLFT 120345Z 00000KT 10SM FEW025 BKN032 OVC040 21/18 A3004 -60 87 600 000/00 RMK AO2 T02060183
13976KLFT LFT20191111215013411/11/19 21:50:31  5-MIN KLFT 120350Z 30004KT 7SM -RA FEW025 OVC032 21/18 A3005 -70 87 600 300/04 RMK AO2 RAB49 SLP174 P0000 T02060183
13976KLFT LFT20191111215512311/11/19 21:55:31  5-MIN KLFT 120355Z 32009KT 4SM RA BR FEW025 OVC032 20/18 A3005 -70 90 500 320/09 RMK AO2 P0000 T02000183
13976KLFT LFT20191111220012811/11/19 22:00:31  5-MIN KLFT 120400Z 32012KT 5SM -RA FEW018 SCT027 OVC032 21/18 A3005 -70 84 600 320/12 RMK AO2 P0000 T02060178
13976KLFT LFT20191111220512811/11/19 22:05:31  5-MIN KLFT 120405Z 32011KT 9SM -RA FEW011 SCT017 OVC032 20/18 A3005 -70 87 500 320/11 RMK AO2 P0000 T02000178
13976KLFT LFT20191111221013011/11/19 22:10:31  5-MIN KLFT 120410Z 31012KT 8SM SCT011 BKN017 OVC032 20/18 A3005 -70 90 500 310/12 RMK AO2 RAE07 P0000 T02000183
13976KLFT LFT20191111221516911/11/19 22:15:31  5-MIN KLFT 120415Z AUTO 32020G33KT 4SM -RA BR BKN009 BKN017 OVC032 19/17 A3006 -80 90 400 320/20G33 RMK AO2 PK WND 31033/0413 RAE07B13 P0001 T01890172
13976KLFT LFT20191111222017311/11/19 22:20:31  5-MIN KLFT 120420Z AUTO 33021G34KT 2 1/2SM -RA BR SCT007 BKN011 OVC027 17/16 A3006 -80 90 200 330/21G34 RMK AO2 PK WND 33034/0416 RAE07B13 P0002 T01720156
13976KLFT LFT20191111222518111/11/19 22:25:31  5-MIN KLFT 120425Z AUTO 35024G34KT 2SM -RA BR BKN007 OVC015 17/16 A3007 -90 90 200 340/24G34 RMK AO2 PK WND 33034/0416 RAE07B13 CIG 005V011 PRESRR P0002 T01720156
13976KLFT LFT20191111223017811/11/19 22:30:31  5-MIN KLFT 120430Z AUTO 35022G31KT 2 1/2SM -RA BR BKN007 OVC013 16/14 A3007 -90 90 100 350/22G31 RMK AO2 PK WND 33034/0416 RAE07B13 CIG 005V011 P0003 T01610144
13976KLFT LFT20191111223517711/11/19 22:35:31  5-MIN KLFT 120435Z AUTO 35017G30KT 2 1/2SM -RA BR BKN007 OVC013 16/14 A3008 -100 90 0 350/17G30 RMK AO2 PK WND 33034/0416 RAE07B13 CIG 005V011 P0003 T01560139
13976KLFT LFT20191111224017311/11/19 22:40:31  5-MIN KLFT 120440Z AUTO 36017G28KT 3SM -RA BR BKN007 OVC013 16/14 A3008 -100 90 0 360/17G28 RMK AO2 PK WND 33034/0416 RAE07B13 CIG 005V009 P0003 T01560139
13976KLFT LFT20191111224518311/11/19 22:45:31  5-MIN KLFT 120445Z AUTO 36023G30KT 4SM -RA BR BKN009 OVC013 14/12 A3009 -110 90 -200 360/23G30 RMK AO2 PK WND 33034/0416 RAE07B13 CIG 005V009 PRESRR P0005 T01390122
13976KLFT LFT20191111225016111/11/19 22:50:31  5-MIN KLFT 120450Z AUTO 36019G30KT 6SM -RA BR SCT007 OVC013 13/11 A3010 -120 86 -300 360/19G30 RMK AO2 PK WND 33034/0416 RAE07B13 PRESRR P0005
13976KLFT LFT20191111225512511/11/19 22:55:31  5-MIN KLFT 120455Z AUTO 01017G26KT 10SM OVC011 13/11 A3011 -120 89 -300 010/17G26 RMK AO2 PRESRR T01280111
13976KLFT LFT20191111230014411/11/19 23:00:31  5-MIN KLFT 120500Z AUTO 01019G25KT 10SM BKN009 OVC013 13/11 A3012 -130 89 -300 010/19G25 RMK AO2 CIG 006V011 PRESRR T01280111
13976KLFT LFT20191111230516211/11/19 23:05:31  5-MIN KLFT 120505Z AUTO 36018G27KT 10SM BKN007 OVC012 12/11 A3012 -140 89 -400 360/18G27 RMK AO2 PK WND 01027/0502 CIG 006V010 PRESRR T01220106
13976KLFT LFT20191111231015511/11/19 23:10:31  5-MIN KLFT 120510Z AUTO 36020G27KT 10SM BKN007 OVC013 12/11 A3012 -140 93 -500 360/20G27 RMK AO2 PK WND 01027/0502 CIG 006V011 T01170106
13976KLFT LFT20191111231515511/11/19 23:15:31  5-MIN KLFT 120515Z AUTO 36024G32KT 10SM BKN007 OVC013 11/09 A3012 -140 89 -600 360/24G32 RMK AO2 PK WND 01032/0512 CIG 006V010 T01110094
13976KLFT LFT20191111232016211/11/19 23:20:31  5-MIN KLFT 120520Z AUTO 36022G32KT 10SM BKN007 BKN015 OVC023 11/08 A3013 -140 86 -600 360/22G32 RMK AO2 PK WND 01032/0512 CIG 006V012 T01060083
13976KLFT LFT20191111232515011/11/19 23:25:31  5-MIN KLFT 120525Z AUTO 01020G31KT 10SM SCT007 BKN013 OVC025 11/08 A3014 -150 86 -600 010/20G31 RMK AO2 PK WND 01032/0512 T01060083
13976KLFT LFT20191111233015011/11/19 23:30:31  5-MIN KLFT 120530Z AUTO 36020G29KT 10SM FEW007 BKN013 OVC025 11/08 A3014 -150 86 -600 360/20G29 RMK AO2 PK WND 01032/0512 T01060083
13976KLFT LFT20191111233515011/11/19 23:35:31  5-MIN KLFT 120535Z AUTO 36022G29KT 10SM FEW007 BKN013 OVC025 10/08 A3014 -150 89 -700 360/22G29 RMK AO2 PK WND 01032/0512 T01000083
13976KLFT LFT20191111234014311/11/19 23:40:31  5-MIN KLFT 120540Z AUTO 01021G29KT 10SM BKN013 OVC026 10/08 A3014 -150 86 -700 010/21G29 RMK AO2 PK WND 01032/0512 T01000078
13976KLFT LFT20191111234514311/11/19 23:45:31  5-MIN KLFT 120545Z AUTO 01018G30KT 10SM BKN013 OVC028 10/07 A3014 -150 83 -700 010/18G30 RMK AO2 PK WND 01032/0512 T01000072
13976KLFT LFT20191111235018411/11/19 23:50:31  5-MIN KLFT 120550Z AUTO 36019G30KT 10SM BKN013 OVC028 09/07 A3014 -150 86 -800 360/19G30 RMK AO2 PK WND 01032/0512 SLP206 60005 T00940072 10217 20094 402610094 51012
13976KLFT LFT20191111235513611/11/19 23:55:31  5-MIN KLFT 120555Z AUTO 01021G31KT 10SM OVC013 09/07 A3014 -160 86 -800 360/21G31 RMK AO2 PK WND 01027/0554 T00940072
13976KLFT LFT20191112000011811/12/19 00:00:31  5-MIN KLFT 120600Z AUTO 36020G31KT 10SM OVC013 09/07 A3015 -160 83 -800 360/20G31 RMK AO2 T00940067
13976KLFT LFT20191112000511811/12/19 00:05:31  5-MIN KLFT 120605Z AUTO 36018G28KT 10SM OVC013 09/07 A3015 -170 83 -800 360/18G28 RMK AO2 T00940067
13976KLFT LFT20191112001014311/12/19 00:10:31  5-MIN KLFT 120610Z AUTO 36022G29KT 10SM BKN013 OVC033 09/07 A3016 -170 86 -900 360/22G29 RMK AO2 PK WND 36029/0607 T00890067
13976KLFT LFT20191112001515911/12/19 00:15:31  5-MIN KLFT 120615Z AUTO 36019G29KT 10SM -RA BKN013 OVC035 09/07 A3016 -170 86 -900 360/19G29 RMK AO2 PK WND 36029/0612 RAB11 P0000 T00890067
13976KLFT LFT20191112002015911/12/19 00:20:31  5-MIN KLFT 120620Z AUTO 36023G31KT 10SM -RA BKN013 OVC037 09/06 A3016 -170 83 -900 360/23G31 RMK AO2 PK WND 36031/0620 RAB11 P0000 T00890061
13976KLFT LFT20191112002515911/12/19 00:25:31  5-MIN KLFT 120625Z AUTO 36021G32KT 10SM -RA BKN013 OVC037 08/06 A3016 -170 82 -900 360/21G32 RMK AO2 PK WND 02032/0622 RAB11 P0000 T00830056
13976KLFT LFT20191112003016511/12/19 00:30:31  5-MIN KLFT 120630Z AUTO 36022G32KT 10SM BKN013 BKN020 OVC037 08/06 A3017 -180 82 -900 360/22G32 RMK AO2 PK WND 02032/0622 RAB11E27 P0000 T00830056
13976KLFT LFT20191112003516511/12/19 00:35:31  5-MIN KLFT 120635Z AUTO 36018G29KT 10SM BKN015 BKN020 OVC037 08/06 A3017 -180 82 -900 360/18G29 RMK AO2 PK WND 02032/0622 RAB11E27 P0000 T00830056
13976KLFT LFT20191112004017211/12/19 00:40:31  5-MIN KLFT 120640Z AUTO 01022G34KT 7SM -RA BKN015 BKN020 OVC037 08/06 A3016 -170 86 -1000 010/22G34 RMK AO2 PK WND 36034/0637 RAB11E27B40 P0000 T00780056
13976KLFT LFT20191112004517511/12/19 00:45:31  5-MIN KLFT 120645Z AUTO 36019G34KT 5SM -RA BR BKN015 BKN019 OVC050 08/06 A3016 -170 86 -1000 360/19G34 RMK AO2 PK WND 36034/0637 RAB11E27B40 P0000 T00780056
13976KLFT LFT20191112005015811/12/19 00:50:31  5-MIN KLFT 120650Z AUTO 36021G27KT 4SM -RA BR BKN014 OVC019 07/06 A3016 -170 89 -1100 360/21G27 RMK AO2 PK WND 36034/0637 RAB11E27B40 P0000
13976KLFT LFT20191112005514411/12/19 00:55:31  5-MIN KLFT 120655Z AUTO 01019G27KT 4SM RA BR BKN014 BKN019 OVC050 07/06 A3016 -170 89 -1100 010/19G27 RMK AO2 P0000 T00720056
13976KLFT LFT20191112010016311/12/19 01:00:31  5-MIN KLFT 120700Z AUTO 01019G28KT 5SM -RA BR BKN014 BKN021 OVC050 07/06 A3017 -180 89 -1100 010/19G28 RMK AO2 PK WND 02028/0659 P0001 T00720056
13976KLFT LFT20191112010516311/12/19 01:05:31  5-MIN KLFT 120705Z AUTO 01021G31KT 5SM -RA BR BKN014 BKN021 OVC050 07/05 A3017 -180 86 -1100 010/21G31 RMK AO2 PK WND 01031/0703 P0001 T00720050
13976KLFT LFT20191112011016311/12/19 01:10:31  5-MIN KLFT 120710Z AUTO 36019G31KT 5SM -RA BR BKN014 BKN037 OVC055 07/05 A3017 -180 86 -1100 360/19G31 RMK AO2 PK WND 01031/0703 P0002 T00720050
13976KLFT LFT20191112011516311/12/19 01:15:31  5-MIN KLFT 120715Z AUTO 36017G28KT 5SM -RA BR BKN012 BKN018 OVC060 07/05 A3018 -190 86 -1100 360/17G28 RMK AO2 PK WND 01031/0703 P0002 T00720050
13976KLFT LFT20191112012015611/12/19 01:20:31  5-MIN KLFT 120720Z AUTO 36018G27KT 6SM -RA BR BKN012 OVC055 07/06 A3018 -190 89 -1100 360/18G27 RMK AO2 PK WND 01031/0703 P0002 T00720056
13976KLFT LFT20191112012515411/12/19 01:25:31  5-MIN KLFT 120725Z AUTO 36015G25KT 10SM -RA BKN010 OVC060 07/06 A3018 -190 89 -1100 360/15G25 RMK AO2 PK WND 01031/0703 P0002 T00720056
13976KLFT LFT20191112013016111/12/19 01:30:31  5-MIN KLFT 120730Z AUTO 36019G27KT 10SM -RA BKN010 BKN013 OVC018 07/06 A3018 -190 89 -1100 360/19G27 RMK AO2 PK WND 01031/0703 P0002 T00720056
13976KLFT LFT20191112013515611/12/19 01:35:31  5-MIN KLFT 120735Z AUTO 36019G27KT 10SM BKN010 OVC018 07/05 A3018 -190 86 -1100 360/19G27 RMK AO2 PK WND 01031/0703 RAE32 P0002 T00720050
13976KLFT LFT20191112014015611/12/19 01:40:31  5-MIN KLFT 120740Z AUTO 36023G33KT 10SM BKN011 OVC016 07/04 A3018 -190 86 -1200 360/23G33 RMK AO2 PK WND 01033/0737 RAE32 P0002 T00670044
13976KLFT LFT20191112014514911/12/19 01:45:31  5-MIN KLFT 120745Z AUTO 36022G33KT 10SM OVC011 07/04 A3018 -190 86 -1200 360/22G33 RMK AO2 PK WND 01033/0737 RAE32 P0002 T00670044
13976KLFT LFT20191112015015611/12/19 01:50:31  5-MIN KLFT 120750Z AUTO 36019G31KT 10SM OVC011 07/04 A3018 -190 86 -1200 360/19G31 RMK AO2 PK WND 01033/0737 RAE32 SLP221 P0002 T00670044
13976KLFT LFT20191112015513711/12/19 01:55:31  5-MIN KLFT 120755Z AUTO 36022G31KT 10SM OVC011 07/04 A3019 -200 86 -1200 360/22G31 RMK AO2 PK WND 01031/0754 T00670044
13976KLFT LFT20191112020013711/12/19 02:00:31  5-MIN KLFT 120800Z AUTO 01022G31KT 10SM OVC013 06/04 A3019 -200 86 -1200 010/22G31 RMK AO2 PK WND 01031/0754 T00610039
13976KLFT LFT20191112020513711/12/19 02:05:31  5-MIN KLFT 120805Z AUTO 01023G30KT 10SM OVC013 06/04 A3018 -190 86 -1200 010/23G30 RMK AO2 PK WND 01031/0754 T00610039
13976KLFT LFT20191112021013711/12/19 02:10:31  5-MIN KLFT 120810Z AUTO 01019G35KT 10SM OVC013 06/04 A3019 -200 86 -1200 010/19G35 RMK AO2 PK WND 36035/0806 T00610039
13976KLFT LFT20191112021513711/12/19 02:15:31  5-MIN KLFT 120815Z AUTO 01021G35KT 10SM OVC013 06/04 A3019 -200 86 -1200 360/21G35 RMK AO2 PK WND 36035/0806 T00610039
13976KLFT LFT20191112022014411/12/19 02:20:31  5-MIN KLFT 120820Z AUTO 01017G31KT 10SM BKN013 OVC020 06/04 A3019 -200 86 -1200 010/17G31 RMK AO2 PK WND 36035/0806 T00610039
13976KLFT LFT20191112022514411/12/19 02:25:31  5-MIN KLFT 120825Z AUTO 01019G27KT 10SM BKN013 OVC020 06/04 A3019 -200 86 -1200 010/19G27 RMK AO2 PK WND 36035/0806 T00610039
13976KLFT LFT20191112023013711/12/19 02:30:31  5-MIN KLFT 120830Z AUTO 01017G25KT 10SM OVC014 06/04 A3020 -210 86 -1200 010/17G25 RMK AO2 PK WND 36035/0806 T00610039
13976KLFT LFT20191112023513711/12/19 02:35:31  5-MIN KLFT 120835Z AUTO 01019G26KT 10SM OVC014 06/04 A3020 -210 89 -1300 010/19G26 RMK AO2 PK WND 36035/0806 T00610044
13976KLFT LFT20191112024014411/12/19 02:40:31  5-MIN KLFT 120840Z AUTO 01015G26KT 10SM BKN012 OVC018 06/04 A3020 -210 86 -1200 010/15G26 RMK AO2 PK WND 36035/0806 T00610039
13976KLFT LFT20191112024514411/12/19 02:45:31  5-MIN KLFT 120845Z AUTO 01016G26KT 10SM BKN012 OVC018 06/04 A3020 -210 86 -1300 010/16G26 RMK AO2 PK WND 36035/0806 T00610039
13976KLFT LFT20191112025015611/12/19 02:50:31  5-MIN KLFT 120850Z AUTO 01019G25KT 10SM OVC013 06/04 A3020 -210 86 -1200 010/19G25 RMK AO2 PK WND 36035/0806 SLP226 60002 T00610039 53038
13976KLFT LFT20191112025513711/12/19 02:55:31  5-MIN KLFT 120855Z AUTO 36020G30KT 10SM OVC013 06/04 A3021 -210 86 -1300 360/20G30 RMK AO2 PK WND 36029/0854 T00610039
13976KLFT LFT20191112030013711/12/19 03:00:31  5-MIN KLFT 120900Z AUTO 36022G32KT 10SM OVC012 06/03 A3021 -220 85 -1300 360/22G32 RMK AO2 PK WND 02032/0856 T00560033
13976KLFT LFT20191112030513711/12/19 03:05:31  5-MIN KLFT 120905Z AUTO 01020G32KT 10SM OVC012 06/03 A3021 -220 85 -1300 010/20G32 RMK AO2 PK WND 02032/0856 T00560033
13976KLFT LFT20191112031013711/12/19 03:10:31  5-MIN KLFT 120910Z AUTO 36022G30KT 10SM OVC012 06/03 A3022 -220 85 -1300 360/22G30 RMK AO2 PK WND 02032/0856 T00560033
13976KLFT LFT20191112031513711/12/19 03:15:31  5-MIN KLFT 120915Z AUTO 01019G32KT 10SM OVC014 06/03 A3021 -220 85 -1300 010/19G32 RMK AO2 PK WND 01032/0912 T00560033
13976KLFT LFT20191112032013711/12/19 03:20:31  5-MIN KLFT 120920Z AUTO 01020G32KT 10SM OVC014 06/03 A3021 -220 85 -1300 010/20G32 RMK AO2 PK WND 01032/0912 T00560033
13976KLFT LFT20191112032515311/12/19 03:25:31  5-MIN KLFT 120925Z AUTO 01018G27KT 10SM -RA OVC015 06/03 A3021 -220 85 -1300 010/18G27 RMK AO2 PK WND 01032/0912 RAB21 P0000 T00560033
13976KLFT LFT20191112033015211/12/19 03:30:31  5-MIN KLFT 120930Z AUTO 01017G25KT 9SM -RA OVC013 06/03 A3021 -220 85 -1300 010/17G25 RMK AO2 PK WND 01032/0912 RAB21 P0000 T00560033
13976KLFT LFT20191112033515311/12/19 03:35:31  5-MIN KLFT 120935Z AUTO 01024G34KT 10SM -RA OVC013 06/03 A3022 -230 85 -1300 010/24G34 RMK AO2 PK WND 36034/0935 RAB21 P0000 T00560033
13976KLFT LFT20191112034015911/12/19 03:40:31  5-MIN KLFT 120940Z AUTO 01020G34KT 10SM BKN013 OVC018 05/03 A3023 -240 85 -1400 010/20G34 RMK AO2 PK WND 36034/0935 RAB21E38 P0000 T00500028
13976KLFT LFT20191112034515911/12/19 03:45:31  5-MIN KLFT 120945Z AUTO 36022G32KT 10SM BKN013 OVC019 05/02 A3023 -240 82 -1400 360/22G32 RMK AO2 PK WND 36034/0935 RAB21E38 P0000 T00500022
13976KLFT LFT20191112035016611/12/19 03:50:31  5-MIN KLFT 120950Z AUTO 01021G32KT 10SM BKN013 OVC019 05/02 A3023 -240 82 -1400 010/21G32 RMK AO2 PK WND 36034/0935 RAB21E38 SLP237 P0000 T00500022
13976KLFT LFT20191112035512611/12/19 03:55:31  5-MIN KLFT 120955Z AUTO 36017G29KT 10SM BKN013 OVC020 05/02 A3023 -240 82 -1400 360/17G29 RMK AO2 T00500022
13976KLFT LFT20191112040013711/12/19 04:00:31  5-MIN KLFT 121000Z AUTO 35020G26KT 10SM OVC015 05/02 A3024 -250 82 -1400 350/20G26 RMK AO2 PK WND 35026/1000 T00500022
13976KLFT LFT20191112040513711/12/19 04:05:31  5-MIN KLFT 121005Z AUTO 36020G30KT 10SM OVC015 05/02 A3024 -250 82 -1400 360/20G30 RMK AO2 PK WND 02030/1004 T00500022
13976KLFT LFT20191112041015311/12/19 04:10:31  5-MIN KLFT 121010Z AUTO 36021G30KT 10SM -RA OVC015 04/02 A3025 -250 82 -1500 350/21G30 RMK AO2 PK WND 02030/1004 RAB07 P0000 T00440017
13976KLFT LFT20191112041515311/12/19 04:15:31  5-MIN KLFT 121015Z AUTO 01019G29KT 10SM -RA OVC014 04/02 A3025 -260 82 -1500 010/19G29 RMK AO2 PK WND 02030/1004 RAB07 P0000 T00440017
13976KLFT LFT20191112042015211/12/19 04:20:31  5-MIN KLFT 121020Z AUTO 36023G34KT 10SM OVC014 04/02 A3025 -260 82 -1500 360/23G34 RMK AO2 PK WND 01034/1018 RAB07E16 P0000 T00440017
13976KLFT LFT20191112042515211/12/19 04:25:31  5-MIN KLFT 121025Z AUTO 36021G34KT 10SM OVC014 04/02 A3026 -260 85 -1600 360/21G34 RMK AO2 PK WND 01034/1018 RAB07E16 P0000 T00390017
13976KLFT LFT20191112043015211/12/19 04:30:31  5-MIN KLFT 121030Z AUTO 36021G31KT 10SM OVC014 04/02 A3026 -270 85 -1600 360/21G31 RMK AO2 PK WND 01034/1018 RAB07E16 P0000 T00390017
13976KLFT LFT20191112043515211/12/19 04:35:31  5-MIN KLFT 121035Z AUTO 01018G30KT 10SM OVC014 04/01 A3027 -270 82 -1600 360/18G30 RMK AO2 PK WND 01034/1018 RAB07E16 P0000 T00390011
13976KLFT LFT20191112044015211/12/19 04:40:31  5-MIN KLFT 121040Z AUTO 02018G30KT 10SM OVC013 04/01 A3026 -270 82 -1600 020/18G30 RMK AO2 PK WND 01034/1018 RAB07E16 P0000 T00390011
13976KLFT LFT20191112044515911/12/19 04:45:31  5-MIN KLFT 121045Z AUTO 01023G31KT 10SM BKN013 OVC021 04/01 A3027 -270 82 -1600 010/23G31 RMK AO2 PK WND 01034/1018 RAB07E16 P0000 T00390011
13976KLFT LFT20191112045016611/12/19 04:50:31  5-MIN KLFT 121050Z AUTO 01018G31KT 10SM BKN013 OVC020 04/01 A3027 -270 82 -1600 010/18G31 RMK AO2 PK WND 01034/1018 RAB07E16 SLP250 P0000 T00390011
13976KLFT LFT20191112045511911/12/19 04:55:31  5-MIN KLFT 121055Z AUTO 01018G29KT 10SM OVC014 04/01 A3027 -280 82 -1600 010/18G29 RMK AO2 T00390011
13976KLFT LFT20191112050011911/12/19 05:00:31  5-MIN KLFT 121100Z AUTO 01016G23KT 10SM OVC014 04/01 A3028 -280 82 -1600 010/16G23 RMK AO2 T00390011
13976KLFT LFT20191112050513711/12/19 05:05:31  5-MIN KLFT 121105Z AUTO 36022G28KT 10SM OVC014 04/01 A3028 -280 82 -1600 360/22G28 RMK AO2 PK WND 36028/1105 T00390011
13976KLFT LFT20191112051015311/12/19 05:10:31  5-MIN KLFT 121110Z AUTO 36020G30KT 10SM -RA OVC014 04/01 A3028 -280 82 -1600 360/20G30 RMK AO2 PK WND 02030/1107 RAB06 P0000 T00390011
13976KLFT LFT20191112051515311/12/19 05:15:31  5-MIN KLFT 121115Z AUTO 01022G30KT 10SM -RA OVC014 04/02 A3028 -280 85 -1600 010/22G30 RMK AO2 PK WND 02030/1107 RAB06 P0000 T00390017
13976KLFT LFT20191112052015311/12/19 05:20:31  5-MIN KLFT 121120Z AUTO 01015G28KT 10SM -RA OVC014 04/02 A3028 -290 85 -1600 010/15G28 RMK AO2 PK WND 02030/1107 RAB06 P0000 T00390017
13976KLFT LFT20191112052514711/12/19 05:25:31  5-MIN KLFT 121125Z AUTO 36012KT 10SM -RA OVC013 04/02 A3029 -290 85 -1600 360/12 RMK AO2 PK WND 02030/1107 RAB06 P0000 T00390017
13976KLFT LFT20191112053014611/12/19 05:30:31  5-MIN KLFT 121130Z 36016G25KT 9SM RA OVC011 04/02 A3029 -290 85 -1600 360/16G25 RMK AO2 PK WND 02030/1107 RAB06 P0000 T00390017
13976KLFT LFT20191112053514711/12/19 05:35:31  5-MIN KLFT 121135Z 36019G26KT 8SM -RA OVC011 03/02 A3029 -290 89 -1700 360/19G26 RMK AO2 PK WND 02030/1107 RAB06 P0001 T00330017
13976KLFT LFT20191112054014711/12/19 05:40:31  5-MIN KLFT 121140Z 01020G33KT 8SM -RA OVC011 03/01 A3029 -290 85 -1700 010/20G33 RMK AO2 PK WND 02033/1139 RAB06 P0001 T00330011
13976KLFT LFT20191112054515411/12/19 05:45:31  5-MIN KLFT 121145Z 01019G33KT 9SM -RA BKN011 OVC015 03/01 A3029 -290 85 -1700 010/19G33 RMK AO2 PK WND 02033/1139 RAB06 P0001 T00330011
13976KLFT LFT20191112055014311/12/19 05:50:31  5-MIN KLFT 121150Z 01018G26KT 8SM RA SCT010 OVC015 03/01 A3030 -300 85 -1700 010/18G26 RMK AO2 PK WND 02033/1139 RAB06 P0002
13976KLFT LFT20191112055512911/12/19 05:55:31  5-MIN KLFT 121155Z 01016G26KT 7SM RA SCT010 OVC015 03/01 A3030 -300 85 -1700 010/16G26 RMK AO2 P0000 T00330011
13976KLFT LFT20191112060012911/12/19 06:00:31  5-MIN KLFT 121200Z 01015G22KT 7SM RA FEW010 OVC015 03/01 A3030 -300 85 -1700 010/15G22 RMK AO2 P0001 T00330011
13976KLFT LFT20191112060512311/12/19 06:05:31  5-MIN KLFT 121205Z 01014G22KT 8SM -RA OVC015 03/01 A3030 -300 85 -1700 010/14G22 RMK AO2 P0001 T00330011
13976KLFT LFT20191112061011711/12/19 06:10:31  5-MIN KLFT 121210Z 36015KT 9SM -RA OVC015 03/01 A3029 -300 85 -1700 360/15 RMK AO2 P0001 T00330011
13976KLFT LFT20191112061514211/12/19 06:15:31  5-MIN KLFT 121215Z 01016G29KT 10SM -RA OVC013 03/01 A3030 -300 85 -1700 010/16G29 RMK AO2 PK WND 02029/1215 P0001 T00330011
13976KLFT LFT20191112062014211/12/19 06:20:31  5-MIN KLFT 121220Z 02020G29KT 10SM -RA OVC013 03/01 A3029 -290 89 -1800 020/20G29 RMK AO2 PK WND 02029/1215 P0001 T00280011
13976KLFT LFT20191112062514211/12/19 06:25:31  5-MIN KLFT 121225Z 01018G29KT 10SM -RA OVC013 03/01 A3030 -300 89 -1800 010/18G29 RMK AO2 PK WND 02029/1215 P0001 T00280011
13976KLFT LFT20191112063015211/12/19 06:30:31  5-MIN KLFT 121230Z 36023G28KT 10SM OVC011 03/01 A3030 -300 89 -1800 350/23G28 RMK AO2 PK WND 02029/1215 RAE26UPB26E28 P0001 T00280011
13976KLFT LFT20191112063516411/12/19 06:35:31  5-MIN KLFT 121235Z 36020G29KT 10SM OVC011 03/01 A3031 -300 85 -1800 360/20G29 RMK AO2 PK WND 02029/1215 RAE26UPB26E28 CIG 009V013 P0001 T00280006
13976KLFT LFT20191112064016411/12/19 06:40:31  5-MIN KLFT 121240Z 01020G29KT 10SM OVC011 03/01 A3031 -310 85 -1800 360/20G29 RMK AO2 PK WND 02029/1215 RAE26UPB26E28 CIG 009V013 P0001 T00280006
13976KLFT LFT20191112064515211/12/19 06:45:31  5-MIN KLFT 121245Z 01020G34KT 10SM OVC011 02/01 A3031 -310 89 -1900 010/20G34 RMK AO2 PK WND 01034/1243 RAE26UPB26E28 P0001 T00220006
13976KLFT LFT20191112065015911/12/19 06:50:31  5-MIN KLFT 121250Z 01019G34KT 10SM OVC010 02/01 A3031 -310 89 -1900 010/19G34 RMK AO2 PK WND 01034/1243 RAE26UPB26E28 SLP265 P0001 T00220006
13976KLFT LFT20191112065513211/12/19 06:55:31  5-MIN KLFT 121255Z 01018G27KT 10SM OVC010 02/01 A3032 -320 89 -1900 010/18G27 RMK AO2 PK WND 01027/1254 T00220006
13976KLFT LFT20191112070013211/12/19 07:00:31  5-MIN KLFT 121300Z 01018G28KT 10SM OVC012 02/00 A3031 -310 85 -1900 010/18G28 RMK AO2 PK WND 36028/1256 T00220000
13976KLFT LFT20191113150510511/13/19 15:05:31  5-MIN KLFT 132105Z 10003KT 10SM CLR 09/M04 A3020 -210 37 -800 100/03 RMK AO2 T00941044
13976KLFT LFT20191113151010511/13/19 15:10:31  5-MIN KLFT 132110Z 00000KT 10SM CLR 09/M04 A3020 -210 37 -800 000/00 RMK AO2 T00941044
13976KLFT LFT20191113151510511/13/19 15:15:31  5-MIN KLFT 132115Z 00000KT 10SM CLR 09/M04 A3020 -210 37 -800 000/00 RMK AO2 T00941044
13976KLFT LFT20191113152010511/13/19 15:20:31  5-MIN KLFT 132120Z VRB03KT 10SM CLR 09/M04 A3020 -210 37 -800 VRB/03 RMK AO2 T00941044
13976KLFT LFT20191113152510511/13/19 15:25:31  5-MIN KLFT 132125Z 00000KT 10SM CLR 09/M04 A3020 -210 37 -800 000/00 RMK AO2 T00941044
13976KLFT LFT20191113153010511/13/19 15:30:31  5-MIN KLFT 132130Z 00000KT 10SM CLR 09/M04 A3020 -210 37 -800 000/00 RMK AO2 T00941044
13976KLFT LFT20191113153510511/13/19 15:35:31  5-MIN KLFT 132135Z 00000KT 10SM CLR 09/M04 A3020 -210 37 -800 000/00 RMK AO2 T00941044
13976KLFT LFT20191113154010511/13/19 15:40:31  5-MIN KLFT 132140Z 00000KT 10SM CLR 09/M04 A3020 -210 37 -800 000/00 RMK AO2 T00941044
13976KLFT LFT20191113154510511/13/19 15:45:31  5-MIN KLFT 132145Z 00000KT 10SM CLR 09/M03 A3020 -210 40 -800 000/00 RMK AO2 T00941033
13976KLFT LFT20191113155011211/13/19 15:50:31  5-MIN KLFT 132150Z 00000KT 10SM CLR 09/M04 A3020 -210 39 -800 000/00 RMK AO2 SLP227 T00941039
13976KLFT LFT20191113155510511/13/19 15:55:31  5-MIN KLFT 132155Z 00000KT 10SM CLR 09/M04 A3021 -210 40 -900 000/00 RMK AO2 T00891039
13976KLFT LFT20191113160010511/13/19 16:00:31  5-MIN KLFT 132200Z 00000KT 10SM CLR 09/M04 A3020 -210 38 -900 000/00 RMK AO2 T00891044
13976KLFT LFT20191113160510511/13/19 16:05:31  5-MIN KLFT 132205Z VRB03KT 10SM CLR 09/M04 A3020 -210 38 -900 VRB/03 RMK AO2 T00891044
13976KLFT LFT20191113161010511/13/19 16:10:31  5-MIN KLFT 132210Z 00000KT 10SM CLR 09/M04 A3020 -210 40 -900 000/00 RMK AO2 T00891039
13976KLFT LFT20191113161510511/13/19 16:15:31  5-MIN KLFT 132215Z VRB03KT 10SM CLR 09/M04 A3020 -210 40 -900 VRB/03 RMK AO2 T00891039
13976KLFT LFT20191113162010511/13/19 16:20:31  5-MIN KLFT 132220Z 00000KT 10SM CLR 09/M04 A3020 -210 38 -900 000/00 RMK AO2 T00891044
13976KLFT LFT20191113162510511/13/19 16:25:31  5-MIN KLFT 132225Z 00000KT 10SM CLR 09/M04 A3020 -210 38 -900 000/00 RMK AO2 T00891044
13976KLFT LFT20191113163010511/13/19 16:30:31  5-MIN KLFT 132230Z 00000KT 10SM CLR 09/M04 A3020 -210 40 -900 000/00 RMK AO2 T00891039
13976KLFT LFT20191113163510511/13/19 16:35:31  5-MIN KLFT 132235Z 00000KT 10SM CLR 09/M04 A3020 -210 40 -900 000/00 RMK AO2 T00891039
13976KLFT LFT20191113164010511/13/19 16:40:31  5-MIN KLFT 132240Z 00000KT 10SM CLR 09/M04 A3020 -210 40 -900 000/00 RMK AO2 T00891039
13976KLFT LFT20191113164510611/13/19 16:45:31  5-MIN KLFT 132245Z 00000KT 10SM CLR 08/M03 A3020 -210 43 -1000 000/00 RMK AO2 T00831033
13976KLFT LFT20191113165011311/13/19 16:50:31  5-MIN KLFT 132250Z 00000KT 10SM CLR 08/M04 A3020 -210 42 -1000 000/00 RMK AO2 SLP225 T00831039
13976KLFT LFT20191113165510611/13/19 16:55:31  5-MIN KLFT 132255Z 00000KT 10SM CLR 08/M03 A3020 -210 43 -1000 000/00 RMK AO2 T00831033
13976KLFT LFT20191113170010611/13/19 17:00:31  5-MIN KLFT 132300Z 00000KT 10SM CLR 08/M04 A3020 -210 42 -1000 000/00 RMK AO2 T00831039
13976KLFT LFT20191113170510611/13/19 17:05:31  5-MIN KLFT 132305Z 00000KT 10SM CLR 08/M04 A3019 -200 42 -1000 000/00 RMK AO2 T00831039
13976KLFT LFT20191113171010611/13/19 17:10:31  5-MIN KLFT 132310Z 06003KT 10SM CLR 08/M03 A3019 -200 43 -1000 060/03 RMK AO2 T00831033
13976KLFT LFT20191113171510611/13/19 17:15:31  5-MIN KLFT 132315Z 00000KT 10SM CLR 08/M02 A3019 -200 47 -1000 000/00 RMK AO2 T00831022
13976KLFT LFT20191113172010611/13/19 17:20:31  5-MIN KLFT 132320Z 00000KT 10SM CLR 08/M02 A3019 -200 49 -1000 000/00 RMK AO2 T00781022
13976KLFT LFT20191113172510611/13/19 17:25:31  5-MIN KLFT 132325Z 00000KT 10SM CLR 08/M02 A3019 -200 49 -1000 000/00 RMK AO2 T00831017
13976KLFT LFT20191113173010611/13/19 17:30:31  5-MIN KLFT 132330Z 00000KT 10SM CLR 08/M02 A3020 -200 51 -1000 000/00 RMK AO2 T00781017
13976KLFT LFT20191113173510611/13/19 17:35:31  5-MIN KLFT 132335Z 00000KT 10SM CLR 08/M02 A3020 -210 49 -1000 000/00 RMK AO2 T00781022
13976KLFT LFT20191113174010611/13/19 17:40:31  5-MIN KLFT 132340Z 00000KT 10SM CLR 08/M03 A3020 -210 45 -1000 000/00 RMK AO2 T00831028
13976KLFT LFT20191113174510611/13/19 17:45:31  5-MIN KLFT 132345Z 00000KT 10SM CLR 08/M02 A3020 -210 47 -1000 000/00 RMK AO2 T00831022
13976KLFT LFT20191113175013111/13/19 17:50:31  5-MIN KLFT 132350Z 00000KT 10SM CLR 08/M02 A3020 -210 47 -1000 000/00 RMK AO2 SLP227 T00831022 10100 20061 56030
13976KLFT LFT20191113175510611/13/19 17:55:31  5-MIN KLFT 132355Z 00000KT 10SM CLR 08/M02 A3020 -210 47 -1000 000/00 RMK AO2 T00831022
13976KLFT LFT20191113180010611/13/19 18:00:31  5-MIN KLFT 140000Z 00000KT 10SM CLR 08/M02 A3021 -210 49 -1000 000/00 RMK AO2 T00831017
13976KLFT LFT20191113180510611/13/19 18:05:31  5-MIN KLFT 140005Z 20004KT 10SM CLR 08/M01 A3021 -220 53 -1100 200/04 RMK AO2 T00781011
13976KLFT LFT20191113181010411/13/19 18:10:31  5-MIN KLFT 140010Z 20005KT 9SM CLR 07/00 A3021 -220 60 -1100 200/05 RMK AO2 T00720000
13976KLFT LFT20191113181510411/13/19 18:15:31  5-MIN KLFT 140015Z 21005KT 8SM CLR 07/00 A3021 -220 60 -1100 210/05 RMK AO2 T00720000
13976KLFT LFT20191113182010411/13/19 18:20:31  5-MIN KLFT 140020Z 21005KT 8SM CLR 07/00 A3021 -220 60 -1100 210/05 RMK AO2 T00720000
13976KLFT LFT20191113182510411/13/19 18:25:31  5-MIN KLFT 140025Z 20004KT 7SM CLR 07/00 A3021 -220 62 -1200 200/04 RMK AO2 T00670000
13976KLFT LFT20191113183010411/13/19 18:30:31  5-MIN KLFT 140030Z 21004KT 7SM CLR 07/01 A3022 -220 65 -1200 210/04 RMK AO2 T00670006
13976KLFT LFT20191113183510411/13/19 18:35:31  5-MIN KLFT 140035Z 21003KT 7SM CLR 07/01 A3022 -220 65 -1200 200/03 RMK AO2 T00670006
13976KLFT LFT20191113184010411/13/19 18:40:31  5-MIN KLFT 140040Z 19003KT 8SM CLR 07/01 A3022 -230 65 -1200 190/03 RMK AO2 T00670006
13976KLFT LFT20191113184510411/13/19 18:45:31  5-MIN KLFT 140045Z 20004KT 9SM CLR 07/00 A3022 -230 60 -1100 200/04 RMK AO2 T00720000
13976KLFT LFT20191113185011211/13/19 18:50:31  5-MIN KLFT 140050Z 19003KT 10SM CLR 07/00 A3022 -230 60 -1100 190/03 RMK AO2 SLP233 T00720000
13976KLFT LFT20191113185510511/13/19 18:55:31  5-MIN KLFT 140055Z 20003KT 10SM CLR 07/00 A3022 -230 60 -1100 200/03 RMK AO2 T00720000
13976KLFT LFT20191113190010511/13/19 19:00:31  5-MIN KLFT 140100Z 19003KT 10SM CLR 07/00 A3022 -230 60 -1100 190/03 RMK AO2 T00720000
13976KLFT LFT20191113190510511/13/19 19:05:31  5-MIN KLFT 140105Z 19003KT 10SM CLR 07/00 A3022 -230 60 -1100 190/03 RMK AO2 T00720000
13976KLFT LFT20191113191010511/13/19 19:10:31  5-MIN KLFT 140110Z 20004KT 10SM CLR 07/00 A3022 -230 60 -1100 200/04 RMK AO2 T00720000
13976KLFT LFT20191113191510511/13/19 19:15:31  5-MIN KLFT 140115Z 17004KT 10SM CLR 07/01 A3022 -230 62 -1100 170/04 RMK AO2 T00720006
13976KLFT LFT20191113192010511/13/19 19:20:31  5-MIN KLFT 140120Z 18005KT 10SM CLR 07/01 A3023 -230 62 -1100 170/05 RMK AO2 T00720006
13976KLFT LFT20191113192510511/13/19 19:25:31  5-MIN KLFT 140125Z 18005KT 10SM CLR 07/00 A3023 -230 60 -1100 180/05 RMK AO2 T00720000
13976KLFT LFT20191113193010511/13/19 19:30:31  5-MIN KLFT 140130Z 19004KT 10SM CLR 07/01 A3022 -230 62 -1100 190/04 RMK AO2 T00720006
13976KLFT LFT20191113193510511/13/19 19:35:31  5-MIN KLFT 140135Z 19004KT 10SM CLR 07/00 A3022 -230 60 -1100 190/04 RMK AO2 T00720000
13976KLFT LFT20191113194010511/13/19 19:40:31  5-MIN KLFT 140140Z 17004KT 10SM CLR 07/01 A3022 -230 62 -1100 170/04 RMK AO2 T00720006
13976KLFT LFT20191113194510511/13/19 19:45:31  5-MIN KLFT 140145Z 18005KT 10SM CLR 07/01 A3022 -230 62 -1100 180/05 RMK AO2 T00720006
13976KLFT LFT20191113195011511/13/19 19:50:31  5-MIN KLFT 140150Z 20004KT 10SM FEW100 07/01 A3022 -230 65 -1200 200/04 RMK AO2 SLP233 T00670006
13976KLFT LFT20191113195510811/13/19 19:55:31  5-MIN KLFT 140155Z 19005KT 10SM SCT110 07/01 A3022 -230 62 -1100 190/05 RMK AO2 T00720006
13976KLFT LFT20191113200010811/13/19 20:00:31  5-MIN KLFT 140200Z 19005KT 10SM BKN100 07/01 A3022 -230 62 -1100 190/05 RMK AO2 T00720006
13976KLFT LFT20191113200511511/13/19 20:05:31  5-MIN KLFT 140205Z 18005KT 10SM BKN100 BKN120 07/01 A3022 -230 62 -1100 180/05 RMK AO2 T00720006
13976KLFT LFT20191113201011511/13/19 20:10:31  5-MIN KLFT 140210Z 18005KT 10SM FEW090 BKN110 07/01 A3022 -230 62 -1100 180/05 RMK AO2 T00720006
13976KLFT LFT20191113201513111/13/19 20:15:31  5-MIN KLFT 140215Z 19006KT 10SM -RA FEW090 BKN110 07/01 A3022 -230 67 -1200 190/06 RMK AO2 RAB12 P0000 T00670011
13976KLFT LFT20191113202012411/13/19 20:20:31  5-MIN KLFT 140220Z 20005KT 10SM -RA BKN110 07/01 A3022 -230 67 -1200 200/05 RMK AO2 RAB12 P0000 T00670011
13976KLFT LFT20191113202512311/13/19 20:25:31  5-MIN KLFT 140225Z 20005KT 10SM BKN110 07/01 A3022 -230 67 -1200 200/05 RMK AO2 RAB12E24 P0000 T00670011
13976KLFT LFT20191113203012311/13/19 20:30:31  5-MIN KLFT 140230Z 19005KT 10SM BKN110 07/01 A3023 -230 67 -1200 190/05 RMK AO2 RAB12E24 P0000 T00670011
13976KLFT LFT20191113203512311/13/19 20:35:31  5-MIN KLFT 140235Z 19005KT 10SM BKN110 07/01 A3022 -230 67 -1200 190/05 RMK AO2 RAB12E24 P0000 T00670011
13976KLFT LFT20191113204012311/13/19 20:40:31  5-MIN KLFT 140240Z 19005KT 10SM BKN110 07/01 A3022 -230 67 -1200 190/05 RMK AO2 RAB12E24 P0000 T00670011
13976KLFT LFT20191113204512311/13/19 20:45:31  5-MIN KLFT 140245Z 17003KT 10SM BKN110 07/01 A3022 -220 65 -1200 170/03 RMK AO2 RAB12E24 P0000 T00670006
13976KLFT LFT20191113205014211/13/19 20:50:31  5-MIN KLFT 140250Z VRB03KT 10SM BKN110 07/01 A3021 -220 67 -1200 VRB/03 RMK AO2 RAB12E24 SLP231 P0000 60000 T00670011 55000
13976KLFT LFT20191113205510811/13/19 20:55:31  5-MIN KLFT 140255Z 00000KT 10SM BKN120 07/01 A3021 -220 65 -1200 000/00 RMK AO2 T00670006
13976KLFT LFT20191113210010811/13/19 21:00:31  5-MIN KLFT 140300Z 00000KT 10SM BKN110 07/01 A3021 -220 67 -1200 000/00 RMK AO2 T00670011
13976KLFT LFT20191113210510811/13/19 21:05:31  5-MIN KLFT 140305Z 00000KT 10SM BKN120 07/01 A3021 -220 65 -1100 000/00 RMK AO2 T00720011
13976KLFT LFT20191113211010811/13/19 21:10:31  5-MIN KLFT 140310Z 00000KT 10SM BKN120 07/01 A3022 -220 67 -1200 000/00 RMK AO2 T00670011
13976KLFT LFT20191113211510811/13/19 21:15:31  5-MIN KLFT 140315Z 00000KT 10SM BKN110 07/01 A3022 -220 67 -1200 000/00 RMK AO2 T00670011
13976KLFT LFT20191113212010811/13/19 21:20:31  5-MIN KLFT 140320Z 00000KT 10SM BKN110 07/01 A3022 -220 67 -1200 000/00 RMK AO2 T00670011
13976KLFT LFT20191113212510811/13/19 21:25:31  5-MIN KLFT 140325Z 05003KT 10SM BKN110 07/01 A3021 -220 67 -1200 050/03 RMK AO2 T00670011
13976KLFT LFT20191113213010811/13/19 21:30:31  5-MIN KLFT 140330Z 06003KT 10SM SCT110 07/02 A3021 -220 70 -1200 060/03 RMK AO2 T00670017
13976KLFT LFT20191113213510811/13/19 21:35:31  5-MIN KLFT 140335Z 00000KT 10SM SCT110 07/01 A3021 -220 67 -1200 000/00 RMK AO2 T00670011
13976KLFT LFT20191113214010811/13/19 21:40:31  5-MIN KLFT 140340Z 00000KT 10SM SCT110 07/01 A3021 -220 67 -1200 000/00 RMK AO2 T00670011
13976KLFT LFT20191113214510811/13/19 21:45:31  5-MIN KLFT 140345Z 00000KT 10SM BKN120 07/02 A3022 -230 70 -1200 000/00 RMK AO2 T00670017
13976KLFT LFT20191113215012211/13/19 21:50:31  5-MIN KLFT 140350Z 00000KT 10SM FEW090 BKN120 07/01 A3022 -230 67 -1200 000/00 RMK AO2 SLP232 T00670011
13976KLFT LFT20191113215511511/13/19 21:55:31  5-MIN KLFT 140355Z 00000KT 10SM FEW090 BKN120 07/01 A3023 -230 67 -1200 000/00 RMK AO2 T00670011
13976KLFT LFT20191113220010811/13/19 22:00:31  5-MIN KLFT 140400Z 04003KT 10SM BKN110 07/02 A3022 -230 70 -1200 040/03 RMK AO2 T00670017
13976KLFT LFT20191113220510811/13/19 22:05:31  5-MIN KLFT 140405Z 00000KT 10SM OVC110 07/02 A3023 -230 70 -1200 000/00 RMK AO2 T00670017
13976KLFT LFT20191113221011311/13/19 22:10:31  5-MIN KLFT 140410Z AUTO 34003KT 10SM OVC110 07/02 A3023 -230 70 -1200 340/03 RMK AO2 T00670017
13976KLFT LFT20191113221511311/13/19 22:15:31  5-MIN KLFT 140415Z AUTO 00000KT 10SM OVC100 07/01 A3023 -230 67 -1200 000/00 RMK AO2 T00670011
13976KLFT LFT20191113222011311/13/19 22:20:31  5-MIN KLFT 140420Z AUTO 00000KT 10SM OVC100 07/01 A3023 -240 67 -1200 000/00 RMK AO2 T00670011
13976KLFT LFT20191113222511311/13/19 22:25:31  5-MIN KLFT 140425Z AUTO 23003KT 10SM OVC100 07/02 A3024 -250 70 -1200 230/03 RMK AO2 T00670017
13976KLFT LFT20191113223011311/13/19 22:30:31  5-MIN KLFT 140430Z AUTO 24004KT 10SM OVC095 07/02 A3024 -240 70 -1200 240/04 RMK AO2 T00670017
13976KLFT LFT20191113223511311/13/19 22:35:31  5-MIN KLFT 140435Z AUTO 25004KT 10SM OVC095 07/02 A3024 -240 70 -1200 240/04 RMK AO2 T00670017
13976KLFT LFT20191113224012711/13/19 22:40:31  5-MIN KLFT 140440Z AUTO 24004KT 10SM FEW080 BKN095 OVC120 07/02 A3024 -240 68 -1200 240/04 RMK AO2 T00720017
13976KLFT LFT20191113224512011/13/19 22:45:31  5-MIN KLFT 140445Z AUTO 23003KT 10SM BKN090 OVC110 07/02 A3024 -240 68 -1200 230/03 RMK AO2 T00720017
13976KLFT LFT20191113225012711/13/19 22:50:31  5-MIN KLFT 140450Z AUTO 23003KT 10SM SCT090 OVC120 07/02 A3024 -240 68 -1200 230/03 RMK AO2 SLP239 T00720017
13976KLFT LFT20191113225512011/13/19 22:55:31  5-MIN KLFT 140455Z AUTO 25004KT 10SM SCT090 OVC110 07/02 A3024 -250 68 -1200 240/04 RMK AO2 T00720017
13976KLFT LFT20191113230012011/13/19 23:00:31  5-MIN KLFT 140500Z AUTO 26005KT 10SM SCT090 OVC110 07/02 A3024 -250 68 -1200 250/05 RMK AO2 T00720017
13976KLFT LFT20191113230512011/13/19 23:05:31  5-MIN KLFT 140505Z AUTO 26005KT 10SM SCT090 OVC120 07/02 A3023 -240 68 -1200 260/05 RMK AO2 T00720017
13976KLFT LFT20191113231012011/13/19 23:10:31  5-MIN KLFT 140510Z AUTO 28003KT 10SM SCT100 OVC120 07/02 A3023 -240 68 -1200 280/03 RMK AO2 T00720017
13976KLFT LFT20191113231512011/13/19 23:15:31  5-MIN KLFT 140515Z AUTO 28004KT 10SM SCT095 OVC120 07/02 A3023 -240 68 -1200 280/04 RMK AO2 T00720017
13976KLFT LFT20191113232012011/13/19 23:20:31  5-MIN KLFT 140520Z AUTO 28004KT 10SM SCT090 OVC110 07/02 A3023 -240 68 -1100 280/04 RMK AO2 T00720017
13976KLFT LFT20191113232512011/13/19 23:25:31  5-MIN KLFT 140525Z AUTO 28005KT 10SM BKN090 OVC110 07/01 A3023 -240 65 -1100 280/05 RMK AO2 T00720011
13976KLFT LFT20191113233012011/13/19 23:30:31  5-MIN KLFT 140530Z AUTO 31003KT 10SM BKN085 OVC110 07/02 A3022 -230 68 -1100 300/03 RMK AO2 T00720017
13976KLFT LFT20191113233512011/13/19 23:35:31  5-MIN KLFT 140535Z AUTO 30003KT 10SM BKN085 OVC110 07/01 A3022 -230 65 -1100 290/03 RMK AO2 T00720011
13976KLFT LFT20191113234011311/13/19 23:40:31  5-MIN KLFT 140540Z AUTO 27003KT 10SM OVC085 07/01 A3022 -230 65 -1100 270/03 RMK AO2 T00720011
13976KLFT LFT20191113234512911/13/19 23:45:31  5-MIN KLFT 140545Z AUTO 00000KT 10SM -RA OVC085 07/01 A3022 -220 65 -1100 000/00 RMK AO2 RAB45 P0000 T00720011
13976KLFT LFT20191113235017011/13/19 23:50:31  5-MIN KLFT 140550Z AUTO 32004KT 10SM -RA OVC085 07/02 A3022 -220 68 -1100 320/04 RMK AO2 RAB45 SLP231 P0000 60000 T00720017 10083 20067 401001039 50003
13976KLFT LFT20191113235512511/13/19 23:55:31  5-MIN KLFT 140555Z AUTO 30004KT 10SM OVC085 07/01 A3022 -220 67 -1200 300/04 RMK AO2 RAE55 P0000 T00670011
13976KLFT LFT20191114000013411/14/19 00:00:31  5-MIN KLFT 140600Z AUTO 30003KT 10SM FEW070 OVC085 07/02 A3022 -230 70 -1200 300/03 RMK AO2 RAE0555 P0000 T00670017
13976KLFT LFT20191114000513411/14/19 00:05:31  5-MIN KLFT 140605Z AUTO 30005KT 10SM FEW070 OVC085 07/02 A3022 -230 70 -1200 300/05 RMK AO2 RAE0555 P0000 T00670017
13976KLFT LFT20191114001012711/14/19 00:10:31  5-MIN KLFT 140610Z AUTO 29003KT 10SM OVC085 07/02 A3022 -220 70 -1200 290/03 RMK AO2 RAE0555 P0000 T00670017
13976KLFT LFT20191114001512711/14/19 00:15:31  5-MIN KLFT 140615Z AUTO 30005KT 10SM OVC080 07/02 A3022 -220 70 -1200 300/05 RMK AO2 RAE0555 P0000 T00670017
13976KLFT LFT20191114002013411/14/19 00:20:31  5-MIN KLFT 140620Z AUTO 30005KT 10SM BKN080 OVC110 07/02 A3022 -230 70 -1200 300/05 RMK AO2 RAE0555 P0000 T00670017
13976KLFT LFT20191114002513411/14/19 00:25:31  5-MIN KLFT 140625Z AUTO 31006KT 10SM BKN080 OVC110 07/02 A3022 -230 70 -1200 300/06 RMK AO2 RAE0555 P0000 T00670017
13976KLFT LFT20191114003013411/14/19 00:30:31  5-MIN KLFT 140630Z AUTO 31007KT 10SM BKN075 OVC090 07/02 A3022 -230 70 -1200 310/07 RMK AO2 RAE0555 P0000 T00670017
13976KLFT LFT20191114003513411/14/19 00:35:31  5-MIN KLFT 140635Z AUTO 31006KT 10SM BKN075 OVC085 07/02 A3022 -220 70 -1200 310/06 RMK AO2 RAE0555 P0000 T00670017
13976KLFT LFT20191114004013411/14/19 00:40:31  5-MIN KLFT 140640Z AUTO 34005KT 10SM BKN070 OVC085 07/02 A3022 -220 70 -1100 340/05 RMK AO2 RAE0555 P0000 T00720022
13976KLFT LFT20191114004513411/14/19 00:45:31  5-MIN KLFT 140645Z AUTO 34004KT 10SM BKN070 OVC085 07/02 A3022 -230 70 -1100 340/04 RMK AO2 RAE0555 P0000 T00720022
13976KLFT LFT20191114005013411/14/19 00:50:31  5-MIN KLFT 140650Z AUTO 34005KT 10SM OVC070 07/02 A3022 -230 68 -1100 330/05 RMK AO2 RAE0555 SLP233 P0000 T00720017
13976KLFT LFT20191114005511311/14/19 00:55:31  5-MIN KLFT 140655Z AUTO 33005KT 10SM OVC070 07/02 A3023 -230 68 -1100 330/05 RMK AO2 T00720017
13976KLFT LFT20191114010011311/14/19 01:00:31  5-MIN KLFT 140700Z AUTO 31004KT 10SM OVC070 07/02 A3023 -240 68 -1100 310/04 RMK AO2 T00720017
13976KLFT LFT20191114010511311/14/19 01:05:31  5-MIN KLFT 140705Z AUTO 34004KT 10SM OVC070 07/02 A3023 -240 70 -1100 330/04 RMK AO2 T00720022
13976KLFT LFT20191114011011311/14/19 01:10:31  5-MIN KLFT 140710Z AUTO 33003KT 10SM OVC070 07/02 A3023 -240 70 -1200 330/03 RMK AO2 T00720022
13976KLFT LFT20191114011511311/14/19 01:15:31  5-MIN KLFT 140715Z AUTO 36003KT 10SM OVC070 07/02 A3023 -240 70 -1100 360/03 RMK AO2 T00720022
13976KLFT LFT20191114012011311/14/19 01:20:31  5-MIN KLFT 140720Z AUTO 35004KT 10SM OVC070 07/02 A3023 -240 70 -1100 340/04 RMK AO2 T00720022
13976KLFT LFT20191114012511311/14/19 01:25:31  5-MIN KLFT 140725Z AUTO 35005KT 10SM OVC070 07/02 A3023 -230 70 -1100 350/05 RMK AO2 T00720022
13976KLFT LFT20191114013011311/14/19 01:30:31  5-MIN KLFT 140730Z AUTO 36004KT 10SM OVC070 07/02 A3023 -230 70 -1100 350/04 RMK AO2 T00720022
13976KLFT LFT20191114013511311/14/19 01:35:31  5-MIN KLFT 140735Z AUTO 35004KT 10SM OVC070 07/03 A3023 -230 73 -1100 350/04 RMK AO2 T00720028
13976KLFT LFT20191114014011311/14/19 01:40:31  5-MIN KLFT 140740Z AUTO 03006KT 10SM OVC070 07/03 A3022 -230 73 -1100 030/06 RMK AO2 T00720028
13976KLFT LFT20191114014511311/14/19 01:45:31  5-MIN KLFT 140745Z AUTO 03004KT 10SM OVC070 07/03 A3022 -230 73 -1100 030/04 RMK AO2 T00720028
13976KLFT LFT20191114015012011/14/19 01:50:31  5-MIN KLFT 140750Z AUTO 02005KT 10SM OVC070 07/03 A3022 -220 73 -1100 020/05 RMK AO2 SLP231 T00720028
13976KLFT LFT20191114015512011/14/19 01:55:31  5-MIN KLFT 140755Z AUTO 02005KT 10SM BKN070 OVC100 07/03 A3022 -220 76 -1100 010/05 RMK AO2 T00720033
13976KLFT LFT20191114020012711/14/19 02:00:31  5-MIN KLFT 140800Z AUTO 01006KT 10SM BKN070 BKN090 OVC100 07/03 A3021 -220 73 -1100 010/06 RMK AO2 T00720028
13976KLFT LFT20191114020512011/14/19 02:05:31  5-MIN KLFT 140805Z AUTO 02006KT 10SM SCT075 OVC090 07/03 A3021 -220 73 -1100 020/06 RMK AO2 T00720028
13976KLFT LFT20191114021011311/14/19 02:10:31  5-MIN KLFT 140810Z AUTO 01005KT 10SM OVC080 07/03 A3021 -220 73 -1100 010/05 RMK AO2 T00720028
13976KLFT LFT20191114021511311/14/19 02:15:31  5-MIN KLFT 140815Z AUTO 02006KT 10SM OVC080 07/03 A3021 -210 73 -1100 020/06 RMK AO2 T00720028
13976KLFT LFT20191114022011311/14/19 02:20:31  5-MIN KLFT 140820Z AUTO 35005KT 10SM OVC080 07/03 A3021 -220 76 -1100 350/05 RMK AO2 T00720033
13976KLFT LFT20191114022511311/14/19 02:25:31  5-MIN KLFT 140825Z AUTO 32004KT 10SM OVC080 07/03 A3021 -220 73 -1100 320/04 RMK AO2 T00720028
13976KLFT LFT20191114023011311/14/19 02:30:31  5-MIN KLFT 140830Z AUTO 31004KT 10SM OVC075 07/03 A3022 -220 73 -1100 310/04 RMK AO2 T00720028
13976KLFT LFT20191114023511311/14/19 02:35:31  5-MIN KLFT 140835Z AUTO 34005KT 10SM OVC075 07/03 A3022 -220 73 -1100 340/05 RMK AO2 T00720028
13976KLFT LFT20191114024011311/14/19 02:40:31  5-MIN KLFT 140840Z AUTO 34004KT 10SM OVC070 07/03 A3021 -220 73 -1100 340/04 RMK AO2 T00720028
13976KLFT LFT20191114024511311/14/19 02:45:31  5-MIN KLFT 140845Z AUTO 35004KT 10SM OVC070 07/03 A3021 -220 73 -1100 350/04 RMK AO2 T00720028
13976KLFT LFT20191114025013211/14/19 02:50:31  5-MIN KLFT 140850Z AUTO 35006KT 10SM OVC070 07/03 A3021 -220 73 -1100 350/06 RMK AO2 SLP230 60000 T00720028 50002
13976KLFT LFT20191114025511311/14/19 02:55:31  5-MIN KLFT 140855Z AUTO 01005KT 10SM OVC065 07/03 A3021 -220 73 -1100 010/05 RMK AO2 T00720028
13976KLFT LFT20191114030011311/14/19 03:00:31  5-MIN KLFT 140900Z AUTO 03005KT 10SM OVC065 07/03 A3021 -220 73 -1100 020/05 RMK AO2 T00720028
13976KLFT LFT20191118190509911/18/19 19:05:31  5-MIN KLFT 190105Z 00000KT 10SM CLR 13/09 A2992 50 77 0 000/00 RMK AO2 T01330094
13976KLFT LFT20191118191009911/18/19 19:10:31  5-MIN KLFT 190110Z 00000KT 10SM CLR 14/09 A2992 50 71 0 000/00 RMK AO2 T01390089
13976KLFT LFT20191118191509911/18/19 19:15:31  5-MIN KLFT 190115Z 00000KT 10SM CLR 14/08 A2992 40 69 0 000/00 RMK AO2 T01390083
13976KLFT LFT20191118192010211/18/19 19:20:31  5-MIN KLFT 190120Z 00000KT 10SM CLR 13/08 A2992 50 71 -100 000/00 RMK AO2 T01330083
13976KLFT LFT20191118192510211/18/19 19:25:31  5-MIN KLFT 190125Z 00000KT 10SM CLR 13/08 A2992 40 71 -100 000/00 RMK AO2 T01330083
13976KLFT LFT20191118193010211/18/19 19:30:31  5-MIN KLFT 190130Z 00000KT 10SM CLR 13/09 A2992 40 80 -100 000/00 RMK AO2 T01280094
13976KLFT LFT20191118193510211/18/19 19:35:31  5-MIN KLFT 190135Z 00000KT 10SM CLR 12/09 A2992 40 83 -200 000/00 RMK AO2 T01220094
13976KLFT LFT20191118194010211/18/19 19:40:31  5-MIN KLFT 190140Z 00000KT 10SM CLR 12/09 A2992 40 83 -200 000/00 RMK AO2 T01220094
13976KLFT LFT20191118194510211/18/19 19:45:31  5-MIN KLFT 190145Z 00000KT 10SM CLR 12/09 A2993 40 86 -300 000/00 RMK AO2 T01170094
13976KLFT LFT20191118195010911/18/19 19:50:31  5-MIN KLFT 190150Z 00000KT 10SM CLR 12/09 A2993 40 86 -300 000/00 RMK AO2 SLP134 T01170094
13976KLFT LFT20191118195510211/18/19 19:55:31  5-MIN KLFT 190155Z 00000KT 10SM CLR 12/09 A2993 30 86 -300 000/00 RMK AO2 T01170094
13976KLFT LFT20191118200010211/18/19 20:00:31  5-MIN KLFT 190200Z 00000KT 10SM CLR 12/09 A2994 30 86 -300 000/00 RMK AO2 T01170094
13976KLFT LFT20191118200510211/18/19 20:05:31  5-MIN KLFT 190205Z 00000KT 10SM CLR 12/09 A2993 30 83 -200 000/00 RMK AO2 T01220094
13976KLFT LFT20191118201010211/18/19 20:10:31  5-MIN KLFT 190210Z 00000KT 10SM CLR 12/09 A2993 30 86 -300 000/00 RMK AO2 T01170094
13976KLFT LFT20191118201510211/18/19 20:15:31  5-MIN KLFT 190215Z 00000KT 10SM CLR 12/09 A2993 40 86 -300 000/00 RMK AO2 T01170094
13976KLFT LFT20191118202010211/18/19 20:20:31  5-MIN KLFT 190220Z 00000KT 10SM CLR 11/09 A2993 30 89 -300 000/00 RMK AO2 T01110094
13976KLFT LFT20191118202510211/18/19 20:25:31  5-MIN KLFT 190225Z 00000KT 10SM CLR 11/09 A2993 30 89 -300 000/00 RMK AO2 T01110094
13976KLFT LFT20191118203010211/18/19 20:30:31  5-MIN KLFT 190230Z 00000KT 10SM CLR 11/09 A2993 30 89 -300 000/00 RMK AO2 T01110094
13976KLFT LFT20191118203510211/18/19 20:35:31  5-MIN KLFT 190235Z 00000KT 10SM CLR 11/09 A2993 30 89 -300 000/00 RMK AO2 T01110094
13976KLFT LFT20191118204010211/18/19 20:40:31  5-MIN KLFT 190240Z 00000KT 10SM CLR 11/09 A2993 30 89 -300 000/00 RMK AO2 T01110094
13976KLFT LFT20191118204510211/18/19 20:45:31  5-MIN KLFT 190245Z 00000KT 10SM CLR 11/09 A2994 30 89 -300 000/00 RMK AO2 T01110094
13976KLFT LFT20191118205011511/18/19 20:50:31  5-MIN KLFT 190250Z 00000KT 10SM CLR 11/09 A2994 20 89 -300 000/00 RMK AO2 SLP139 T01110094 53007
13976KLFT LFT20191118205510111/18/19 20:55:31  5-MIN KLFT 190255Z 00000KT 9SM CLR 11/09 A2994 30 89 -400 000/00 RMK AO2 T01060089
13976KLFT LFT20191118210010111/18/19 21:00:31  5-MIN KLFT 190300Z 00000KT 9SM CLR 11/09 A2994 20 89 -400 000/00 RMK AO2 T01060089
13976KLFT LFT20191118210510111/18/19 21:05:31  5-MIN KLFT 190305Z 00000KT 9SM CLR 11/09 A2995 20 89 -400 000/00 RMK AO2 T01060089
13976KLFT LFT20191118211010211/18/19 21:10:31  5-MIN KLFT 190310Z 00000KT 10SM CLR 11/09 A2995 20 89 -400 000/00 RMK AO2 T01060089
13976KLFT LFT20191118211510211/18/19 21:15:31  5-MIN KLFT 190315Z 00000KT 10SM CLR 11/09 A2994 20 89 -400 000/00 RMK AO2 T01060089
13976KLFT LFT20191118212010211/18/19 21:20:31  5-MIN KLFT 190320Z 00000KT 10SM CLR 11/09 A2995 20 89 -400 000/00 RMK AO2 T01060089
13976KLFT LFT20191118212510211/18/19 21:25:31  5-MIN KLFT 190325Z 00000KT 10SM CLR 11/09 A2994 20 89 -400 000/00 RMK AO2 T01060089
13976KLFT LFT20191118213010111/18/19 21:30:31  5-MIN KLFT 190330Z 00000KT 9SM CLR 11/09 A2994 20 89 -400 000/00 RMK AO2 T01060089
13976KLFT LFT20191118213510111/18/19 21:35:31  5-MIN KLFT 190335Z 00000KT 8SM CLR 10/09 A2994 20 93 -500 000/00 RMK AO2 T01000089
13976KLFT LFT20191118214010111/18/19 21:40:31  5-MIN KLFT 190340Z 00000KT 7SM CLR 10/09 A2994 20 93 -500 000/00 RMK AO2 T01000089
13976KLFT LFT20191118214510111/18/19 21:45:31  5-MIN KLFT 190345Z 00000KT 7SM CLR 10/09 A2994 20 93 -500 000/00 RMK AO2 T01000089
13976KLFT LFT20191118215011111/18/19 21:50:31  5-MIN KLFT 190350Z 00000KT 6SM BR CLR 10/09 A2994 30 93 -500 000/00 RMK AO2 SLP138 T01000089
13976KLFT LFT20191118215510411/18/19 21:55:31  5-MIN KLFT 190355Z 00000KT 6SM BR CLR 10/09 A2994 30 93 -500 000/00 RMK AO2 T01000089
13976KLFT LFT20191118220010111/18/19 22:00:31  5-MIN KLFT 190400Z 00000KT 7SM CLR 11/09 A2994 30 93 -400 000/00 RMK AO2 T01060094
13976KLFT LFT20191118220510111/18/19 22:05:31  5-MIN KLFT 190405Z 00000KT 8SM CLR 10/09 A2994 20 93 -500 000/00 RMK AO2 T01000089
13976KLFT LFT20191118221010111/18/19 22:10:31  5-MIN KLFT 190410Z 00000KT 8SM CLR 10/08 A2995 20 89 -500 000/00 RMK AO2 T01000083
13976KLFT LFT20191118221510211/18/19 22:15:31  5-MIN KLFT 190415Z 00000KT 10SM CLR 11/08 A2995 20 86 -400 000/00 RMK AO2 T01060083
13976KLFT LFT20191118222010111/18/19 22:20:31  5-MIN KLFT 190420Z 00000KT 9SM CLR 11/08 A2994 20 83 -400 000/00 RMK AO2 T01060078
13976KLFT LFT20191118222510111/18/19 22:25:31  5-MIN KLFT 190425Z 00000KT 7SM CLR 10/08 A2994 20 89 -500 000/00 RMK AO2 T01000083
13976KLFT LFT20191118223010911/18/19 22:30:31  5-MIN KLFT 190430Z AUTO 00000KT 6SM BR CLR 10/08 A2995 20 89 -500 000/00 RMK AO2 T01000083
13976KLFT LFT20191118223510911/18/19 22:35:31  5-MIN KLFT 190435Z AUTO 00000KT 6SM BR CLR 09/08 A2995 20 93 -600 000/00 RMK AO2 T00940083
13976KLFT LFT20191118224010911/18/19 22:40:31  5-MIN KLFT 190440Z AUTO 00000KT 5SM BR CLR 09/08 A2995 20 93 -600 000/00 RMK AO2 T00940083
13976KLFT LFT20191118224510911/18/19 22:45:31  5-MIN KLFT 190445Z AUTO 00000KT 4SM BR CLR 09/08 A2995 20 93 -600 000/00 RMK AO2 T00940083
13976KLFT LFT20191118225011611/18/19 22:50:31  5-MIN KLFT 190450Z AUTO 00000KT 4SM BR CLR 09/08 A2995 20 93 -600 000/00 RMK AO2 SLP140 T00940083
13976KLFT LFT20191118225510911/18/19 22:55:31  5-MIN KLFT 190455Z AUTO 00000KT 5SM BR CLR 09/08 A2995 20 93 -600 000/00 RMK AO2 T00940083
13976KLFT LFT20191118230010911/18/19 23:00:31  5-MIN KLFT 190500Z AUTO 00000KT 5SM BR CLR 09/08 A2995 20 96 -600 000/00 RMK AO2 T00890083
13976KLFT LFT20191118230510911/18/19 23:05:31  5-MIN KLFT 190505Z AUTO 00000KT 4SM BR CLR 09/08 A2995 20 93 -600 000/00 RMK AO2 T00890078
13976KLFT LFT20191118231010911/18/19 23:10:31  5-MIN KLFT 190510Z AUTO 00000KT 4SM BR CLR 08/07 A2995 20 93 -700 000/00 RMK AO2 T00830072
13976KLFT LFT20191118231510911/18/19 23:15:31  5-MIN KLFT 190515Z AUTO 00000KT 3SM BR CLR 08/07 A2995 20 93 -700 000/00 RMK AO2 T00830072
13976KLFT LFT20191118232011111/18/19 23:20:31  5-MIN KLFT 190520Z AUTO 00000KT 3/4SM BR CLR 08/07 A2995 20 93 -800 000/00 RMK AO2 T00780067
13976KLFT LFT20191118232511111/18/19 23:25:31  5-MIN KLFT 190525Z AUTO 00000KT 1/2SM FG CLR 08/07 A2995 20 93 -700 000/00 RMK AO2 T00830072
13976KLFT LFT20191118233011111/18/19 23:30:31  5-MIN KLFT 190530Z AUTO 00000KT 3/4SM BR CLR 08/07 A2995 20 93 -700 000/00 RMK AO2 T00830072
13976KLFT LFT20191118233511311/18/19 23:35:31  5-MIN KLFT 190535Z AUTO 00000KT 2 1/2SM BR CLR 09/08 A2995 20 93 -600 000/00 RMK AO2 T00890078
13976KLFT LFT20191118234010911/18/19 23:40:31  5-MIN KLFT 190540Z AUTO 00000KT 2SM BR CLR 09/08 A2995 20 93 -600 000/00 RMK AO2 T00890078
13976KLFT LFT20191118234511311/18/19 23:45:31  5-MIN KLFT 190545Z AUTO 00000KT 1 1/2SM BR CLR 08/08 A2995 20 96 -700 000/00 RMK AO2 T00830078
13976KLFT LFT20191118235014411/18/19 23:50:31  5-MIN KLFT 190550Z AUTO 00000KT 2SM BR CLR 08/07 A2995 20 93 -700 000/00 RMK AO2 SLP141 T00830072 10167 20078 402170050 51017
13976KLFT LFT20191118235510911/18/19 23:55:31  5-MIN KLFT 190555Z AUTO 00000KT 4SM BR CLR 08/07 A2995 20 93 -700 000/00 RMK AO2 T00830072
13976KLFT LFT20191119000010911/19/19 00:00:31  5-MIN KLFT 190600Z AUTO 00000KT 4SM BR CLR 08/07 A2995 20 93 -700 000/00 RMK AO2 T00830072
13976KLFT LFT20191119000510911/19/19 00:05:31  5-MIN KLFT 190605Z AUTO 00000KT 4SM BR CLR 08/07 A2995 20 93 -700 000/00 RMK AO2 T00830072
13976KLFT LFT20191119001010911/19/19 00:10:31  5-MIN KLFT 190610Z AUTO 00000KT 3SM BR CLR 08/07 A2995 20 93 -700 000/00 RMK AO2 T00830072
13976KLFT LFT20191119001510911/19/19 00:15:31  5-MIN KLFT 190615Z AUTO 00000KT 3SM BR CLR 08/07 A2994 20 96 -800 000/00 RMK AO2 T00780072
13976KLFT LFT20191119002010911/19/19 00:20:31  5-MIN KLFT 190620Z AUTO 00000KT 2SM BR CLR 08/07 A2994 20 93 -700 000/00 RMK AO2 T00830072
13976KLFT LFT20191119002512711/19/19 00:25:31  5-MIN KLFT 190625Z AUTO 00000KT 1 1/4SM BR CLR 07/07 A2994 20 96 -800 000/00 RMK AO2 VIS 1/2V2 1/2 T00720067
13976KLFT LFT20191119003011311/19/19 00:30:31  5-MIN KLFT 190630Z AUTO 00000KT 1 1/4SM BR CLR 07/07 A2994 20 96 -800 000/00 RMK AO2 T00720067
13976KLFT LFT20191119003510911/19/19 00:35:31  5-MIN KLFT 190635Z AUTO 00000KT 2SM BR CLR 08/07 A2994 20 93 -800 000/00 RMK AO2 T00780067
13976KLFT LFT20191119004011311/19/19 00:40:31  5-MIN KLFT 190640Z AUTO 00000KT 2 1/2SM BR CLR 08/07 A2994 20 93 -700 000/00 RMK AO2 T00780067
13976KLFT LFT20191119004511311/19/19 00:45:31  5-MIN KLFT 190645Z AUTO 00000KT 1 3/4SM BR CLR 08/07 A2994 20 93 -800 000/00 RMK AO2 T00780067
13976KLFT LFT20191119005011811/19/19 00:50:31  5-MIN KLFT 190650Z AUTO 00000KT 1/2SM FG CLR 07/07 A2994 20 96 -800 000/00 RMK AO2 SLP139 T00720067
13976KLFT LFT20191119005511111/19/19 00:55:31  5-MIN KLFT 190655Z AUTO 00000KT 1/2SM FG CLR 07/07 A2994 20 96 -800 000/00 RMK AO2 T00720067
13976KLFT LFT20191119010011311/19/19 01:00:31  5-MIN KLFT 190700Z AUTO 00000KT 1 1/2SM BR CLR 08/07 A2994 20 93 -800 000/00 RMK AO2 T00780067
13976KLFT LFT20191119010510911/19/19 01:05:31  5-MIN KLFT 190705Z AUTO 00000KT 5SM BR CLR 08/07 A2995 20 93 -800 000/00 RMK AO2 T00780067
13976KLFT LFT20191119011010911/19/19 01:10:31  5-MIN KLFT 190710Z AUTO 00000KT 4SM BR CLR 07/07 A2995 20 96 -800 000/00 RMK AO2 T00720067
13976KLFT LFT20191119011510911/19/19 01:15:31  5-MIN KLFT 190715Z AUTO 00000KT 5SM BR CLR 07/06 A2995 20 93 -800 000/00 RMK AO2 T00720061
13976KLFT LFT20191119012010911/19/19 01:20:31  5-MIN KLFT 190720Z AUTO 00000KT 6SM BR CLR 07/06 A2994 20 93 -800 000/00 RMK AO2 T00720061
13976KLFT LFT20191119012510611/19/19 01:25:31  5-MIN KLFT 190725Z AUTO 00000KT 8SM CLR 07/06 A2995 20 89 -800 000/00 RMK AO2 T00720056
13976KLFT LFT20191119013010711/19/19 01:30:31  5-MIN KLFT 190730Z AUTO 00000KT 10SM CLR 07/06 A2995 20 89 -800 000/00 RMK AO2 T00720056
13976KLFT LFT20191119013510911/19/19 01:35:31  5-MIN KLFT 190735Z AUTO 00000KT 6SM BR CLR 07/06 A2995 20 93 -800 000/00 RMK AO2 T00720061
13976KLFT LFT20191119014012111/19/19 01:40:31  5-MIN KLFT 190740Z AUTO 00000KT 1SM BR VV002 07/06 A2995 20 93 -800 000/00 RMK AO2 VIS 1/4V5 T00720061
13976KLFT LFT20191119014512711/19/19 01:45:31  5-MIN KLFT 190745Z AUTO 00000KT 3/4SM BR VV002 07/06 A2995 20 93 -800 000/00 RMK AO2 VIS 1/4V2 1/2 T00720061
13976KLFT LFT20191119015013011/19/19 01:50:31  5-MIN KLFT 190750Z AUTO 20003KT 1 1/2SM BR CLR 07/06 A2995 20 93 -800 200/03 RMK AO2 VIS 1/2V5 SLP141 T00720061
13976KLFT LFT20191119015510911/19/19 01:55:31  5-MIN KLFT 190755Z AUTO 00000KT 4SM BR CLR 07/06 A2995 20 93 -800 000/00 RMK AO2 T00720061
13976KLFT LFT20191119020010611/19/19 02:00:31  5-MIN KLFT 190800Z AUTO 00000KT 7SM CLR 08/07 A2995 20 93 -800 000/00 RMK AO2 T00780067
13976KLFT LFT20191119020510911/19/19 02:05:31  5-MIN KLFT 190805Z AUTO 00000KT 6SM BR CLR 07/06 A2995 20 93 -800 000/00 RMK AO2 T00720061
13976KLFT LFT20191119021010911/19/19 02:10:31  5-MIN KLFT 190810Z AUTO 00000KT 4SM BR CLR 08/06 A2995 10 89 -800 000/00 RMK AO2 T00780061
13976KLFT LFT20191119021511111/19/19 02:15:31  5-MIN KLFT 190815Z AUTO 00000KT 3/4SM BR CLR 07/06 A2996 10 96 -900 000/00 RMK AO2 T00670061
13976KLFT LFT20191119022011111/19/19 02:20:31  5-MIN KLFT 190820Z AUTO 00000KT 1/2SM FG CLR 07/06 A2996 10 93 -800 000/00 RMK AO2 T00720061
13976KLFT LFT20191119022511311/19/19 02:25:31  5-MIN KLFT 190825Z AUTO 00000KT 1 1/4SM BR CLR 07/06 A2996 10 93 -800 000/00 RMK AO2 T00720061
13976KLFT LFT20191119023012111/19/19 02:30:31  5-MIN KLFT 190830Z AUTO 00000KT 2SM BR CLR 07/06 A2996 10 93 -800 000/00 RMK AO2 VIS 1 1/4V3 T00720061
13976KLFT LFT20191119023510911/19/19 02:35:31  5-MIN KLFT 190835Z AUTO 00000KT 2SM BR CLR 07/06 A2996 10 93 -800 000/00 RMK AO2 T00720061
13976KLFT LFT20191119024010911/19/19 02:40:31  5-MIN KLFT 190840Z AUTO 00000KT 2SM BR CLR 07/06 A2996 10 96 -900 000/00 RMK AO2 T00670061
13976KLFT LFT20191119024511311/19/19 02:45:31  5-MIN KLFT 190845Z AUTO 00000KT 2 1/2SM BR CLR 07/06 A2996 10 96 -900 000/00 RMK AO2 T00670061
13976KLFT LFT20191119025009611/19/19 02:50:31  5-MIN KLFT 190850Z AUTO 00000KT 7SM CLR 07/06 A2996 10 93 -900 000/00 RMK AO2
13976KLFT LFT20191119025510611/19/19 02:55:31  5-MIN KLFT 190855Z AUTO 00000KT 9SM CLR 07/06 A2996 10 93 -900 000/00 RMK AO2 T00670056
13976KLFT LFT20191119030010711/19/19 03:00:31  5-MIN KLFT 190900Z AUTO 00000KT 10SM CLR 07/06 A2996 10 93 -900 000/00 RMK AO2 T00670056
13976KLFT LFT20191119030510611/19/19 03:05:31  5-MIN KLFT 190905Z AUTO 00000KT 8SM CLR 07/06 A2996 10 93 -900 000/00 RMK AO2 T00670056
13976KLFT LFT20191119031010911/19/19 03:10:31  5-MIN KLFT 190910Z AUTO 00000KT 5SM BR CLR 07/06 A2996 10 96 -900 000/00 RMK AO2 T00670061
13976KLFT LFT20191119031510811/19/19 03:15:31  5-MIN KLFT 190915Z AUTO 00000KT 6SM BR CLR 07/06 A2996 0 93 -900 000/00 RMK AO2 T00670056
13976KLFT LFT20191119032010611/19/19 03:20:31  5-MIN KLFT 190920Z AUTO 00000KT 9SM CLR 06/05 A2996 0 93 -1000 000/00 RMK AO2 T00610050
13976KLFT LFT20191119032510711/19/19 03:25:31  5-MIN KLFT 190925Z AUTO 00000KT 10SM CLR 06/05 A2996 0 93 -1000 000/00 RMK AO2 T00610050
13976KLFT LFT20191119033010611/19/19 03:30:31  5-MIN KLFT 190930Z AUTO 00000KT 10SM CLR 07/06 A2996 0 93 -900 000/00 RMK AO2 T00670056
13976KLFT LFT20191119033510511/19/19 03:35:31  5-MIN KLFT 190935Z AUTO 00000KT 8SM CLR 07/06 A2997 0 93 -900 000/00 RMK AO2 T00670056
13976KLFT LFT20191119034010611/19/19 03:40:31  5-MIN KLFT 190940Z AUTO 00000KT 7SM CLR 06/06 A2997 0 96 -1000 000/00 RMK AO2 T00610056
13976KLFT LFT20191119034510511/19/19 03:45:31  5-MIN KLFT 190945Z AUTO 00000KT 7SM CLR 07/05 A2997 0 89 -900 000/00 RMK AO2 T00670050
13976KLFT LFT20191119035011311/19/19 03:50:31  5-MIN KLFT 190950Z AUTO 00000KT 8SM CLR 06/06 A2997 0 96 -1000 000/00 RMK AO2 SLP148 T00610056
13976KLFT LFT20191119035510711/19/19 03:55:31  5-MIN KLFT 190955Z AUTO 00000KT 10SM CLR 06/05 A2997 0 93 -1000 000/00 RMK AO2 T00610050
13976KLFT LFT20191119040010711/19/19 04:00:31  5-MIN KLFT 191000Z AUTO 00000KT 10SM CLR 06/05 A2997 0 93 -1000 000/00 RMK AO2 T00610050
13976KLFT LFT20191119040510611/19/19 04:05:31  5-MIN KLFT 191005Z AUTO 00000KT 10SM CLR 07/04 A2997 0 86 -900 000/00 RMK AO2 T00670044
13976KLFT LFT20191119041010611/19/19 04:10:31  5-MIN KLFT 191010Z AUTO 00000KT 10SM CLR 07/05 A2996 0 89 -900 000/00 RMK AO2 T00670050
13976KLFT LFT20191119041510611/19/19 04:15:31  5-MIN KLFT 191015Z AUTO 00000KT 10SM CLR 07/05 A2996 0 89 -900 000/00 RMK AO2 T00670050
13976KLFT LFT20191119042010511/19/19 04:20:31  5-MIN KLFT 191020Z AUTO 00000KT 9SM CLR 07/05 A2997 0 86 -800 000/00 RMK AO2 T00720050
13976KLFT LFT20191119042510811/19/19 04:25:31  5-MIN KLFT 191025Z AUTO 00000KT 5SM BR CLR 07/06 A2997 0 89 -800 000/00 RMK AO2 T00720056
13976KLFT LFT20191119043011211/19/19 04:30:31  5-MIN KLFT 191030Z AUTO 00000KT 2 1/2SM BR CLR 07/06 A2997 0 93 -900 000/00 RMK AO2 T00670056
13976KLFT LFT20191119043511111/19/19 04:35:31  5-MIN KLFT 191035Z AUTO 00000KT 1/2SM FG CLR 06/06 A2997 0 96 -1000 000/00 RMK AO2 T00610056
13976KLFT LFT20191119044011011/19/19 04:40:31  5-MIN KLFT 191040Z AUTO 00000KT 1/2SM FG CLR 07/06 A2997 0 93 -900 000/00 RMK AO2 T00670056
13976KLFT LFT20191119044511311/19/19 04:45:31  5-MIN KLFT 191045Z AUTO 00000KT 1 1/4SM BR CLR 06/06 A2997 0 96 -1000 000/00 RMK AO2 T00610056
13976KLFT LFT20191119045011611/19/19 04:50:31  5-MIN KLFT 191050Z AUTO 00000KT 2SM BR CLR 06/05 A2998 0 93 -1000 000/00 RMK AO2 SLP150 T00610050
13976KLFT LFT20191119045511311/19/19 04:55:31  5-MIN KLFT 191055Z AUTO 00000KT 2 1/2SM BR CLR 06/05 A2998 0 93 -1000 000/00 RMK AO2 T00610050
13976KLFT LFT20191119050010911/19/19 05:00:31  5-MIN KLFT 191100Z AUTO 00000KT 3SM BR CLR 06/05 A2998 0 96 -1100 000/00 RMK AO2 T00560050
13976KLFT LFT20191119050510911/19/19 05:05:31  5-MIN KLFT 191105Z AUTO 00000KT 3SM BR CLR 06/04 A2997 0 92 -1100 000/00 RMK AO2 T00560044
13976KLFT LFT20191119051010911/19/19 05:10:31  5-MIN KLFT 191110Z AUTO 00000KT 3SM BR CLR 06/05 A2997 0 93 -1000 000/00 RMK AO2 T00610050
13976KLFT LFT20191119051511311/19/19 05:15:31  5-MIN KLFT 191115Z AUTO 00000KT 2 1/2SM BR CLR 06/06 A2997 0 96 -1000 000/00 RMK AO2 T00610056
13976KLFT LFT20191119052010811/19/19 05:20:31  5-MIN KLFT 191120Z AUTO 00000KT 2SM BR CLR 07/06 A2998 0 93 -900 000/00 RMK AO2 T00670056
13976KLFT LFT20191119052510811/19/19 05:25:31  5-MIN KLFT 191125Z AUTO 00000KT 3SM BR CLR 07/06 A2998 0 93 -900 000/00 RMK AO2 T00670056
13976KLFT LFT20191119053010411/19/19 05:30:31  5-MIN KLFT 191130Z 00000KT 10SM CLR 06/06 A2998 -10 96 -1000 000/00 RMK AO2 T00610056
13976KLFT LFT20191119053510311/19/19 05:35:31  5-MIN KLFT 191135Z 00000KT 10SM CLR 07/06 A2998 -10 93 -900 000/00 RMK AO2 T00670056
13976KLFT LFT20191119054010311/19/19 05:40:31  5-MIN KLFT 191140Z 00000KT 10SM CLR 07/06 A2998 -10 93 -900 000/00 RMK AO2 T00670056
13976KLFT LFT20191119054510411/19/19 05:45:31  5-MIN KLFT 191145Z 00000KT 10SM CLR 06/06 A2998 -10 96 -1000 000/00 RMK AO2 T00610056
13976KLFT LFT20191119055012911/19/19 05:50:31  5-MIN KLFT 191150Z 00000KT 10SM CLR 06/06 A2998 -10 96 -1000 000/00 RMK AO2 SLP151 T00610056 10083 20056 51006
13976KLFT LFT20191119055511011/19/19 05:55:31  5-MIN KLFT 191155Z 00000KT 1 3/4SM BR CLR 06/06 A2998 -10 96 -1000 000/00 RMK AO2 T00610056
13976KLFT LFT20191119060010411/19/19 06:00:31  5-MIN KLFT 191200Z 00000KT 10SM CLR 06/06 A2998 -10 96 -1000 000/00 RMK AO2 T00610056
13976KLFT LFT20191119060510411/19/19 06:05:31  5-MIN KLFT 191205Z 00000KT 10SM CLR 06/06 A2999 -10 96 -1000 000/00 RMK AO2 T00610056
13976KLFT LFT20191119061010411/19/19 06:10:31  5-MIN KLFT 191210Z 00000KT 10SM CLR 06/05 A2999 -10 96 -1100 000/00 RMK AO2 T00560050
13976KLFT LFT20191119061510411/19/19 06:15:31  5-MIN KLFT 191215Z 00000KT 10SM CLR 06/05 A2999 -10 96 -1100 000/00 RMK AO2 T00560050
13976KLFT LFT20191119062010411/19/19 06:20:31  5-MIN KLFT 191220Z 00000KT 10SM CLR 06/05 A2999 -20 93 -1000 000/00 RMK AO2 T00610050
13976KLFT LFT20191119062510411/19/19 06:25:31  5-MIN KLFT 191225Z 00000KT 10SM CLR 06/05 A2999 -20 96 -1100 000/00 RMK AO2 T00560050
13976KLFT LFT20191119063010411/19/19 06:30:31  5-MIN KLFT 191230Z 00000KT 10SM CLR 06/04 A2999 -20 92 -1100 000/00 RMK AO2 T00560044
13976KLFT LFT20191119063510311/19/19 06:35:31  5-MIN KLFT 191235Z 00000KT 10SM CLR 07/06 A2999 -20 93 -900 000/00 RMK AO2 T00670056
13976KLFT LFT20191119064010311/19/19 06:40:31  5-MIN KLFT 191240Z 00000KT 10SM CLR 07/06 A3000 -20 93 -900 000/00 RMK AO2 T00670056
13976KLFT LFT20191119064510311/19/19 06:45:31  5-MIN KLFT 191245Z 00000KT 10SM CLR 07/06 A3000 -20 93 -900 000/00 RMK AO2 T00670056
13976KLFT LFT20191119065011111/19/19 06:50:31  5-MIN KLFT 191250Z 00000KT 10SM CLR 07/06 A3000 -30 93 -1000 000/00 RMK AO2 SLP159 T00670056
13976KLFT LFT20191119065510411/19/19 06:55:31  5-MIN KLFT 191255Z 00000KT 10SM CLR 07/06 A3000 -30 93 -1000 000/00 RMK AO2 T00670056
13976KLFT LFT20191119070010411/19/19 07:00:31  5-MIN KLFT 191300Z 00000KT 10SM CLR 06/06 A3001 -30 96 -1000 000/00 RMK AO2 T00610056
13976KLFT LFT20191121020510911/21/19 02:05:31  5-MIN KLFT 210805Z AUTO VRB03KT 10SM CLR 14/12 A3011 -130 86 -100 VRB/03 RMK AO2 T01440122
13976KLFT LFT20191121021010911/21/19 02:10:31  5-MIN KLFT 210810Z AUTO 13003KT 10SM CLR 14/12 A3011 -130 86 -100 130/03 RMK AO2 T01440122
13976KLFT LFT20191121021510911/21/19 02:15:31  5-MIN KLFT 210815Z AUTO 14003KT 10SM CLR 14/12 A3011 -130 86 -100 130/03 RMK AO2 T01440122
13976KLFT LFT20191121022010911/21/19 02:20:31  5-MIN KLFT 210820Z AUTO 13004KT 10SM CLR 14/12 A3011 -130 90 -200 130/04 RMK AO2 T01390122
13976KLFT LFT20191121022510911/21/19 02:25:31  5-MIN KLFT 210825Z AUTO VRB03KT 10SM CLR 14/12 A3011 -120 86 -100 VRB/03 RMK AO2 T01440122
13976KLFT LFT20191121023010911/21/19 02:30:31  5-MIN KLFT 210830Z AUTO 12004KT 10SM CLR 14/12 A3011 -120 86 -100 120/04 RMK AO2 T01440122
13976KLFT LFT20191121023510911/21/19 02:35:31  5-MIN KLFT 210835Z AUTO 12003KT 10SM CLR 14/12 A3011 -130 90 -200 120/03 RMK AO2 T01390122
13976KLFT LFT20191121024010911/21/19 02:40:31  5-MIN KLFT 210840Z AUTO 12003KT 10SM CLR 14/12 A3011 -130 90 -200 120/03 RMK AO2 T01390122
13976KLFT LFT20191121024510911/21/19 02:45:31  5-MIN KLFT 210845Z AUTO 00000KT 10SM CLR 14/12 A3011 -130 90 -200 000/00 RMK AO2 T01390122
13976KLFT LFT20191121025012211/21/19 02:50:31  5-MIN KLFT 210850Z AUTO 00000KT 10SM CLR 14/12 A3012 -130 90 -200 000/00 RMK AO2 SLP197 T01390122 58000
13976KLFT LFT20191121025510911/21/19 02:55:31  5-MIN KLFT 210855Z AUTO 00000KT 10SM CLR 14/12 A3012 -130 90 -200 000/00 RMK AO2 T01390122
13976KLFT LFT20191121030010911/21/19 03:00:31  5-MIN KLFT 210900Z AUTO 00000KT 10SM CLR 14/12 A3011 -130 90 -200 000/00 RMK AO2 T01390122
13976KLFT LFT20191121030510911/21/19 03:05:31  5-MIN KLFT 210905Z AUTO 00000KT 10SM CLR 14/12 A3012 -130 90 -200 000/00 RMK AO2 T01390122
13976KLFT LFT20191121031010911/21/19 03:10:31  5-MIN KLFT 210910Z AUTO 00000KT 10SM CLR 14/12 A3012 -130 86 -200 000/00 RMK AO2 T01390117
13976KLFT LFT20191121031510911/21/19 03:15:31  5-MIN KLFT 210915Z AUTO 00000KT 10SM CLR 14/12 A3012 -130 90 -200 000/00 RMK AO2 T01390122
13976KLFT LFT20191121032010911/21/19 03:20:31  5-MIN KLFT 210920Z AUTO 00000KT 10SM CLR 14/12 A3012 -130 90 -200 000/00 RMK AO2 T01390122
13976KLFT LFT20191121032510911/21/19 03:25:31  5-MIN KLFT 210925Z AUTO 00000KT 10SM CLR 14/12 A3012 -130 90 -200 000/00 RMK AO2 T01390122
13976KLFT LFT20191121033010911/21/19 03:30:31  5-MIN KLFT 210930Z AUTO 00000KT 10SM CLR 13/12 A3012 -130 89 -300 000/00 RMK AO2 T01330117
13976KLFT LFT20191121033510911/21/19 03:35:31  5-MIN KLFT 210935Z AUTO 00000KT 10SM CLR 13/12 A3012 -130 93 -300 000/00 RMK AO2 T01330122
13976KLFT LFT20191121034010911/21/19 03:40:31  5-MIN KLFT 210940Z AUTO 00000KT 10SM CLR 13/12 A3012 -130 93 -300 000/00 RMK AO2 T01330122
13976KLFT LFT20191121034510911/21/19 03:45:31  5-MIN KLFT 210945Z AUTO 00000KT 10SM CLR 13/12 A3012 -130 89 -300 000/00 RMK AO2 T01330117
13976KLFT LFT20191121035011611/21/19 03:50:31  5-MIN KLFT 210950Z AUTO 00000KT 10SM CLR 13/12 A3012 -130 89 -300 000/00 RMK AO2 SLP198 T01330117
13976KLFT LFT20191121035510911/21/19 03:55:31  5-MIN KLFT 210955Z AUTO 00000KT 10SM CLR 13/12 A3012 -130 89 -300 000/00 RMK AO2 T01330117
13976KLFT LFT20191121040011211/21/19 04:00:31  5-MIN KLFT 211000Z AUTO 00000KT 10SM FEW036 13/12 A3012 -140 89 -300 000/00 RMK AO2 T01330117
13976KLFT LFT20191121040511211/21/19 04:05:31  5-MIN KLFT 211005Z AUTO 00000KT 10SM SCT036 13/12 A3012 -130 89 -300 000/00 RMK AO2 T01330117
13976KLFT LFT20191121041011211/21/19 04:10:31  5-MIN KLFT 211010Z AUTO 00000KT 10SM SCT037 13/12 A3012 -130 93 -300 000/00 RMK AO2 T01280117
13976KLFT LFT20191121041511211/21/19 04:15:31  5-MIN KLFT 211015Z AUTO 00000KT 10SM SCT037 13/12 A3012 -130 93 -300 000/00 RMK AO2 T01280117
13976KLFT LFT20191121042011111/21/19 04:20:31  5-MIN KLFT 211020Z AUTO 00000KT 9SM FEW037 13/12 A3012 -130 93 -300 000/00 RMK AO2 T01280117
13976KLFT LFT20191121042511111/21/19 04:25:31  5-MIN KLFT 211025Z AUTO 00000KT 9SM FEW037 13/12 A3012 -130 93 -300 000/00 RMK AO2 T01280117
13976KLFT LFT20191121043011211/21/19 04:30:31  5-MIN KLFT 211030Z AUTO 00000KT 10SM FEW037 13/12 A3012 -140 93 -300 000/00 RMK AO2 T01280117
13976KLFT LFT20191121043511211/21/19 04:35:31  5-MIN KLFT 211035Z AUTO 00000KT 10SM FEW037 13/12 A3012 -140 93 -300 000/00 RMK AO2 T01280117
13976KLFT LFT20191121044010911/21/19 04:40:31  5-MIN KLFT 211040Z AUTO 00000KT 10SM CLR 13/12 A3012 -130 93 -300 000/00 RMK AO2 T01280117
13976KLFT LFT20191121044510811/21/19 04:45:31  5-MIN KLFT 211045Z AUTO 00000KT 9SM CLR 13/12 A3012 -130 93 -300 000/00 RMK AO2 T01280117
13976KLFT LFT20191121045011511/21/19 04:50:31  5-MIN KLFT 211050Z AUTO 11003KT 9SM CLR 13/12 A3011 -130 93 -300 110/03 RMK AO2 SLP197 T01280117
13976KLFT LFT20191121045510811/21/19 04:55:31  5-MIN KLFT 211055Z AUTO 11003KT 9SM CLR 13/12 A3011 -130 93 -300 110/03 RMK AO2 T01280117
13976KLFT LFT20191121050010411/21/19 05:00:31  5-MIN KLFT 211100Z 11003KT 10SM CLR 13/12 A3011 -130 89 -300 110/03 RMK AO2 T01330117
13976KLFT LFT20191121050510411/21/19 05:05:31  5-MIN KLFT 211105Z 11004KT 10SM CLR 13/12 A3011 -130 93 -300 110/04 RMK AO2 T01330122
13976KLFT LFT20191121051010411/21/19 05:10:31  5-MIN KLFT 211110Z 10003KT 10SM CLR 13/12 A3011 -130 93 -300 100/03 RMK AO2 T01330122
13976KLFT LFT20191121051510411/21/19 05:15:31  5-MIN KLFT 211115Z 00000KT 10SM CLR 13/12 A3012 -130 93 -300 000/00 RMK AO2 T01330122
13976KLFT LFT20191121052010411/21/19 05:20:31  5-MIN KLFT 211120Z 00000KT 10SM CLR 14/12 A3012 -130 90 -200 000/00 RMK AO2 T01390122
13976KLFT LFT20191121052510411/21/19 05:25:31  5-MIN KLFT 211125Z 00000KT 10SM CLR 13/12 A3012 -130 93 -300 000/00 RMK AO2 T01330122
13976KLFT LFT20191121053010411/21/19 05:30:31  5-MIN KLFT 211130Z 00000KT 10SM CLR 13/12 A3012 -140 89 -300 000/00 RMK AO2 T01330117
13976KLFT LFT20191121053510411/21/19 05:35:31  5-MIN KLFT 211135Z 00000KT 10SM CLR 13/12 A3012 -130 89 -300 000/00 RMK AO2 T01330117
13976KLFT LFT20191121054010411/21/19 05:40:31  5-MIN KLFT 211140Z 00000KT 10SM CLR 13/12 A3012 -130 93 -300 000/00 RMK AO2 T01330122
13976KLFT LFT20191121054510311/21/19 05:45:31  5-MIN KLFT 211145Z 00000KT 9SM CLR 13/12 A3012 -140 93 -300 000/00 RMK AO2 T01330122
13976KLFT LFT20191121055012911/21/19 05:50:31  5-MIN KLFT 211150Z 00000KT 10SM CLR 13/12 A3012 -140 93 -300 000/00 RMK AO2 SLP200 T01330122 10144 20128 55005
13976KLFT LFT20191121055510411/21/19 05:55:31  5-MIN KLFT 211155Z 00000KT 10SM CLR 13/12 A3013 -140 93 -300 000/00 RMK AO2 T01330122
13976KLFT LFT20191121060010411/21/19 06:00:31  5-MIN KLFT 211200Z 00000KT 10SM CLR 13/12 A3013 -140 93 -400 000/00 RMK AO2 T01280117
13976KLFT LFT20191121060510311/21/19 06:05:31  5-MIN KLFT 211205Z 00000KT 9SM CLR 13/12 A3013 -140 93 -400 000/00 RMK AO2 T01280117
13976KLFT LFT20191121061010311/21/19 06:10:31  5-MIN KLFT 211210Z 00000KT 9SM CLR 13/12 A3013 -140 93 -300 000/00 RMK AO2 T01330122
13976KLFT LFT20191121061510311/21/19 06:15:31  5-MIN KLFT 211215Z 00000KT 9SM CLR 13/12 A3013 -140 93 -300 000/00 RMK AO2 T01330122
13976KLFT LFT20191121062010311/21/19 06:20:31  5-MIN KLFT 211220Z 00000KT 9SM CLR 13/12 A3013 -150 93 -300 000/00 RMK AO2 T01330122
13976KLFT LFT20191121062510311/21/19 06:25:31  5-MIN KLFT 211225Z 00000KT 9SM CLR 13/12 A3014 -150 93 -300 000/00 RMK AO2 T01330122
13976KLFT LFT20191121063010311/21/19 06:30:31  5-MIN KLFT 211230Z 00000KT 9SM CLR 13/12 A3014 -150 93 -300 000/00 RMK AO2 T01330122
13976KLFT LFT20191121063510311/21/19 06:35:31  5-MIN KLFT 211235Z 00000KT 9SM CLR 13/12 A3013 -150 93 -300 000/00 RMK AO2 T01330122
13976KLFT LFT20191121064010311/21/19 06:40:31  5-MIN KLFT 211240Z 00000KT 8SM CLR 13/12 A3013 -150 93 -300 000/00 RMK AO2 T01330122
13976KLFT LFT20191121064510311/21/19 06:45:31  5-MIN KLFT 211245Z 00000KT 7SM CLR 13/12 A3013 -150 93 -300 000/00 RMK AO2 T01330122
13976KLFT LFT20191121065011011/21/19 06:50:31  5-MIN KLFT 211250Z 00000KT 8SM CLR 13/12 A3014 -150 93 -300 000/00 RMK AO2 SLP204 T01330122
13976KLFT LFT20191121065510311/21/19 06:55:31  5-MIN KLFT 211255Z 11003KT 9SM CLR 14/12 A3013 -150 90 -200 100/03 RMK AO2 T01390122
13976KLFT LFT20191121070010311/21/19 07:00:31  5-MIN KLFT 211300Z 00000KT 9SM CLR 14/12 A3013 -150 90 -200 000/00 RMK AO2 T01390122
13976KLFT LFT20191121070510311/21/19 07:05:31  5-MIN KLFT 211305Z 00000KT 9SM CLR 14/12 A3013 -150 90 -200 000/00 RMK AO2 T01390122
13976KLFT LFT20191121071010411/21/19 07:10:31  5-MIN KLFT 211310Z 00000KT 10SM CLR 14/13 A3014 -150 93 -200 000/00 RMK AO2 T01390128
13976KLFT LFT20191121071510411/21/19 07:15:31  5-MIN KLFT 211315Z 00000KT 10SM CLR 14/13 A3014 -150 93 -200 000/00 RMK AO2 T01390128
13976KLFT LFT20191121072010411/21/19 07:20:31  5-MIN KLFT 211320Z VRB03KT 10SM CLR 14/13 A3014 -150 90 -200 VRB/03 RMK AO2 T01440128
13976KLFT LFT20191121072510411/21/19 07:25:31  5-MIN KLFT 211325Z 11003KT 10SM CLR 14/13 A3013 -150 93 -200 110/03 RMK AO2 T01440133
13976KLFT LFT20191121073010411/21/19 07:30:31  5-MIN KLFT 211330Z 12003KT 10SM CLR 15/13 A3014 -150 86 -100 120/03 RMK AO2 T01500128
13976KLFT LFT20191121073510411/21/19 07:35:31  5-MIN KLFT 211335Z 11004KT 10SM CLR 15/13 A3014 -150 90 -100 110/04 RMK AO2 T01500133
13976KLFT LFT20191121074010111/21/19 07:40:31  5-MIN KLFT 211340Z 00000KT 10SM CLR 16/13 A3013 -150 86 0 000/00 RMK AO2 T01560133
13976KLFT LFT20191121074510111/21/19 07:45:31  5-MIN KLFT 211345Z 12004KT 10SM CLR 16/13 A3013 -150 86 0 120/04 RMK AO2 T01560133
13976KLFT LFT20191121075010811/21/19 07:50:31  5-MIN KLFT 211350Z 11004KT 10SM CLR 16/13 A3013 -150 86 0 110/04 RMK AO2 SLP203 T01560133
13976KLFT LFT20191121075510111/21/19 07:55:31  5-MIN KLFT 211355Z 11005KT 10SM CLR 16/13 A3013 -140 86 0 110/05 RMK AO2 T01560133
13976KLFT LFT20191121080010111/21/19 08:00:31  5-MIN KLFT 211400Z 12004KT 10SM CLR 16/13 A3013 -150 83 0 120/04 RMK AO2 T01610133
13976KLFT LFT20191121080510111/21/19 08:05:31  5-MIN KLFT 211405Z VRB03KT 10SM CLR 17/14 A3013 -150 83 0 VRB/03 RMK AO2 T01670139
13976KLFT LFT20191121081010311/21/19 08:10:31  5-MIN KLFT 211410Z 12004KT 10SM CLR 17/14 A3013 -150 83 100 120/04 RMK AO2 T01720144
13976KLFT LFT20191121081510311/21/19 08:15:31  5-MIN KLFT 211415Z VRB04KT 10SM CLR 17/14 A3014 -150 80 100 VRB/04 RMK AO2 T01720139
13976KLFT LFT20191121082010311/21/19 08:20:31  5-MIN KLFT 211420Z VRB03KT 10SM CLR 17/14 A3014 -150 80 100 VRB/03 RMK AO2 T01720139
13976KLFT LFT20191121082510311/21/19 08:25:31  5-MIN KLFT 211425Z VRB04KT 10SM CLR 17/14 A3013 -150 80 100 VRB/04 RMK AO2 T01720139
13976KLFT LFT20191121083010311/21/19 08:30:31  5-MIN KLFT 211430Z 12005KT 10SM CLR 17/14 A3014 -150 80 100 120/05 RMK AO2 T01720139
13976KLFT LFT20191121083510311/21/19 08:35:31  5-MIN KLFT 211435Z VRB04KT 10SM CLR 18/14 A3014 -150 81 200 VRB/04 RMK AO2 T01780144
13976KLFT LFT20191121084010311/21/19 08:40:31  5-MIN KLFT 211440Z VRB04KT 10SM CLR 18/14 A3014 -160 78 200 VRB/04 RMK AO2 T01830144
13976KLFT LFT20191121084510311/21/19 08:45:31  5-MIN KLFT 211445Z 00000KT 10SM CLR 18/14 A3015 -160 78 200 000/00 RMK AO2 T01830144
13976KLFT LFT20191121085011611/21/19 08:50:31  5-MIN KLFT 211450Z 12004KT 10SM CLR 19/14 A3014 -160 75 300 120/04 RMK AO2 SLP207 T01890144 53004
13976KLFT LFT20191121085510311/21/19 08:55:31  5-MIN KLFT 211455Z 12006KT 10SM CLR 19/14 A3014 -150 75 300 120/06 RMK AO2 T01890144
13976KLFT LFT20191121090010311/21/19 09:00:31  5-MIN KLFT 211500Z 13005KT 10SM CLR 19/14 A3013 -150 75 300 130/05 RMK AO2 T01890144
13976KLFT LFT20191121090510311/21/19 09:05:31  5-MIN KLFT 211505Z 13006KT 10SM CLR 19/14 A3013 -150 75 300 130/06 RMK AO2 T01890144
13976KLFT LFT20191121091010311/21/19 09:10:31  5-MIN KLFT 211510Z VRB04KT 10SM CLR 19/14 A3014 -150 75 300 VRB/04 RMK AO2 T01890144
13976KLFT LFT20191121091510311/21/19 09:15:31  5-MIN KLFT 211515Z 12004KT 10SM CLR 19/14 A3014 -150 72 400 120/04 RMK AO2 T01940144
13976KLFT LFT20191121092010311/21/19 09:20:31  5-MIN KLFT 211520Z VRB05KT 10SM CLR 19/14 A3013 -150 72 400 VRB/05 RMK AO2 T01940144
13976KLFT LFT20191121092510311/21/19 09:25:31  5-MIN KLFT 211525Z 11004KT 10SM CLR 19/14 A3013 -150 72 400 110/04 RMK AO2 T01940144
13976KLFT LFT20191121093010311/21/19 09:30:31  5-MIN KLFT 211530Z VRB04KT 10SM CLR 19/14 A3013 -140 72 400 VRB/04 RMK AO2 T01940144
13976KLFT LFT20191121093510311/21/19 09:35:31  5-MIN KLFT 211535Z VRB03KT 10SM CLR 20/15 A3013 -140 72 400 VRB/03 RMK AO2 T02000150
13976KLFT LFT20191121094010311/21/19 09:40:31  5-MIN KLFT 211540Z VRB04KT 10SM CLR 20/15 A3013 -140 72 400 VRB/04 RMK AO2 T02000150
13976KLFT LFT20191121094510311/21/19 09:45:31  5-MIN KLFT 211545Z VRB04KT 10SM CLR 21/15 A3013 -140 70 500 VRB/04 RMK AO2 T02060150
13976KLFT LFT20191121095011011/21/19 09:50:31  5-MIN KLFT 211550Z 00000KT 10SM CLR 21/15 A3013 -150 70 500 000/00 RMK AO2 SLP203 T02060150
13976KLFT LFT20191121095510311/21/19 09:55:31  5-MIN KLFT 211555Z 12005KT 10SM CLR 21/15 A3014 -150 68 600 120/05 RMK AO2 T02110150
13976KLFT LFT20191121100010311/21/19 10:00:31  5-MIN KLFT 211600Z 00000KT 10SM CLR 21/15 A3014 -150 68 600 000/00 RMK AO2 T02110150
13976KLFT LFT20191121100510311/21/19 10:05:31  5-MIN KLFT 211605Z VRB04KT 10SM CLR 21/15 A3013 -150 68 600 VRB/04 RMK AO2 T02110150
13976KLFT LFT20191121101010211/21/19 10:10:31  5-MIN KLFT 211610Z VRB03KT 9SM CLR 22/15 A3013 -150 65 600 VRB/03 RMK AO2 T02170150
13976KLFT LFT20191121101510211/21/19 10:15:31  5-MIN KLFT 211615Z VRB04KT 7SM CLR 22/15 A3014 -150 65 600 VRB/04 RMK AO2 T02170150
13976KLFT LFT20191121102010211/21/19 10:20:31  5-MIN KLFT 211620Z 15005KT 7SM CLR 22/15 A3013 -140 63 700 150/05 RMK AO2 T02220150
13976KLFT LFT20191121102510211/21/19 10:25:31  5-MIN KLFT 211625Z VRB05KT 7SM CLR 22/16 A3013 -140 65 700 VRB/05 RMK AO2 T02220156
13976KLFT LFT20191121103010211/21/19 10:30:31  5-MIN KLFT 211630Z 15004KT 7SM CLR 22/15 A3013 -140 63 700 150/04 RMK AO2 T02220150
13976KLFT LFT20191121103510211/21/19 10:35:31  5-MIN KLFT 211635Z 16007KT 9SM CLR 22/15 A3013 -140 63 700 160/07 RMK AO2 T02220150
13976KLFT LFT20191121104010311/21/19 10:40:31  5-MIN KLFT 211640Z VRB05KT 10SM CLR 22/15 A3012 -140 63 700 VRB/05 RMK AO2 T02220150
13976KLFT LFT20191121104510311/21/19 10:45:31  5-MIN KLFT 211645Z VRB04KT 10SM CLR 23/15 A3012 -130 61 800 VRB/04 RMK AO2 T02280150
13976KLFT LFT20191121105011011/21/19 10:50:31  5-MIN KLFT 211650Z VRB05KT 10SM CLR 23/15 A3012 -130 59 800 VRB/05 RMK AO2 SLP198 T02330150
13976KLFT LFT20191121105510311/21/19 10:55:31  5-MIN KLFT 211655Z VRB05KT 10SM CLR 24/16 A3012 -130 59 900 VRB/05 RMK AO2 T02390156
13976KLFT LFT20191121110010311/21/19 11:00:31  5-MIN KLFT 211700Z VRB05KT 10SM CLR 24/15 A3011 -130 57 900 VRB/05 RMK AO2 T02390150
13976KLFT LFT20191121110511911/21/19 11:05:31  5-MIN KLFT 211705Z 14007KT 090V170 10SM CLR 24/15 A3011 -130 57 900 140/07 090V170 RMK AO2 T02390150
13976KLFT LFT20191121111010311/21/19 11:10:31  5-MIN KLFT 211710Z 16008KT 10SM CLR 23/15 A3012 -130 59 800 160/08 RMK AO2 T02330150
13976KLFT LFT20191121111510911/21/19 11:15:31  5-MIN KLFT 211715Z 17009G15KT 10SM CLR 24/15 A3011 -130 57 900 170/09G15 RMK AO2 T02390150
13976KLFT LFT20191121112011011/21/19 11:20:31  5-MIN KLFT 211720Z 17009G15KT 10SM CLR 24/15 A3011 -120 55 1000 170/09G15 RMK AO2 T02440150
13976KLFT LFT20191121112510411/21/19 11:25:31  5-MIN KLFT 211725Z 14006KT 10SM CLR 24/15 A3011 -120 55 1000 140/06 RMK AO2 T02440150
13976KLFT LFT20191121113010311/21/19 11:30:31  5-MIN KLFT 211730Z 15005KT 10SM CLR 24/15 A3011 -120 57 900 140/05 RMK AO2 T02390150
13976KLFT LFT20191121113510611/21/19 11:35:31  5-MIN KLFT 211735Z 17006KT 10SM FEW043 24/15 A3011 -130 57 900 170/06 RMK AO2 T02390150
13976KLFT LFT20191121114010611/21/19 11:40:31  5-MIN KLFT 211740Z 17006KT 10SM SCT043 24/15 A3011 -120 57 900 170/06 RMK AO2 T02390150
13976KLFT LFT20191121114510711/21/19 11:45:31  5-MIN KLFT 211745Z 16008KT 10SM BKN043 24/15 A3011 -120 55 1000 160/08 RMK AO2 T02440150
13976KLFT LFT20191121115013811/21/19 11:50:31  5-MIN KLFT 211750Z 17010G16KT 10SM BKN043 25/14 A3010 -120 51 1100 160/10G16 RMK AO2 SLP192 T02500144 10250 20128 53005
13976KLFT LFT20191121115511311/21/19 11:55:31  5-MIN KLFT 211755Z 18009G16KT 10SM BKN042 25/14 A3009 -110 51 1100 170/09G16 RMK AO2 T02500144
13976KLFT LFT20191121120010711/21/19 12:00:31  5-MIN KLFT 211800Z 16009KT 10SM BKN042 25/14 A3009 -110 51 1100 160/09 RMK AO2 T02500144
13976KLFT LFT20191121120511311/21/19 12:05:31  5-MIN KLFT 211805Z 17008G17KT 10SM BKN041 25/14 A3009 -110 51 1100 170/08G17 RMK AO2 T02500144
13976KLFT LFT20191121121011311/21/19 12:10:31  5-MIN KLFT 211810Z 17010G17KT 10SM SCT041 25/14 A3008 -100 51 1100 170/10G17 RMK AO2 T02500144
13976KLFT LFT20191121121511311/21/19 12:15:31  5-MIN KLFT 211815Z 17012G17KT 10SM FEW041 26/14 A3008 -100 49 1100 160/12G17 RMK AO2 T02560144
13976KLFT LFT20191121122011211/21/19 12:20:31  5-MIN KLFT 211820Z 17012G19KT 10SM FEW041 26/14 A3007 -90 49 1100 160/12G19 RMK AO2 T02560144
13976KLFT LFT20191121122511211/21/19 12:25:31  5-MIN KLFT 211825Z 18013G19KT 10SM SCT043 26/14 A3007 -90 49 1100 180/13G19 RMK AO2 T02560144
13976KLFT LFT20191121123011211/21/19 12:30:31  5-MIN KLFT 211830Z 17011G18KT 10SM SCT043 25/14 A3007 -90 51 1100 170/11G18 RMK AO2 T02500144
13976KLFT LFT20191121123511211/21/19 12:35:31  5-MIN KLFT 211835Z 18013G19KT 10SM FEW043 25/14 A3007 -90 49 1100 180/13G19 RMK AO2 T02500139
13976KLFT LFT20191121124011211/21/19 12:40:31  5-MIN KLFT 211840Z 18010G19KT 10SM FEW043 25/14 A3007 -90 49 1100 180/10G19 RMK AO2 T02500139
13976KLFT LFT20191121124511211/21/19 12:45:31  5-MIN KLFT 211845Z 17009G16KT 10SM SCT043 24/14 A3007 -90 51 1000 160/09G16 RMK AO2 T02440139
13976KLFT LFT20191121125011911/21/19 12:50:31  5-MIN KLFT 211850Z 16009G16KT 10SM FEW043 24/14 A3007 -90 51 1000 150/09G16 RMK AO2 SLP181 T02440139
13976KLFT LFT20191121125510611/21/19 12:55:31  5-MIN KLFT 211855Z 17010KT 10SM FEW042 24/14 A3007 -90 51 1000 170/10 RMK AO2 T02440139
13976KLFT LFT20191121130010611/21/19 13:00:31  5-MIN KLFT 211900Z 16009KT 10SM FEW042 24/14 A3007 -90 51 1000 160/09 RMK AO2 T02440139
13976KLFT LFT20191121130511211/21/19 13:05:31  5-MIN KLFT 211905Z 17007G15KT 10SM FEW042 25/14 A3006 -80 49 1100 170/07G15 RMK AO2 T02500139
13976KLFT LFT20191121131011211/21/19 13:10:31  5-MIN KLFT 211910Z 17009G15KT 10SM FEW044 26/14 A3006 -80 49 1200 170/09G15 RMK AO2 T02560144
13976KLFT LFT20191121131511211/21/19 13:15:31  5-MIN KLFT 211915Z 17011G17KT 10SM FEW044 25/14 A3006 -80 49 1100 160/11G17 RMK AO2 T02500139
13976KLFT LFT20191121132011211/21/19 13:20:31  5-MIN KLFT 211920Z 17010G17KT 10SM FEW042 24/14 A3005 -70 51 1000 170/10G17 RMK AO2 T02440139
13976KLFT LFT20191121132510611/21/19 13:25:31  5-MIN KLFT 211925Z 18010KT 10SM FEW042 24/14 A3005 -70 51 1000 180/10 RMK AO2 T02440139
13976KLFT LFT20191121133011211/21/19 13:30:31  5-MIN KLFT 211930Z 18009G17KT 10SM FEW042 24/14 A3005 -70 51 1000 170/09G17 RMK AO2 T02440139
13976KLFT LFT20191121133511211/21/19 13:35:31  5-MIN KLFT 211935Z 17010G17KT 10SM SCT042 24/14 A3005 -70 53 1000 170/10G17 RMK AO2 T02440144
13976KLFT LFT20191121134011211/21/19 13:40:31  5-MIN KLFT 211940Z 17011G16KT 10SM FEW042 24/14 A3005 -70 53 1000 170/11G16 RMK AO2 T02440144
13976KLFT LFT20191121134510611/21/19 13:45:31  5-MIN KLFT 211945Z 17011KT 10SM FEW042 24/14 A3005 -70 51 1000 160/11 RMK AO2 T02440139
13976KLFT LFT20191121135011311/21/19 13:50:31  5-MIN KLFT 211950Z 17010KT 10SM FEW042 24/14 A3005 -70 53 1000 170/10 RMK AO2 SLP174 T02440144
13976KLFT LFT20191121135510611/21/19 13:55:31  5-MIN KLFT 211955Z 17010KT 10SM FEW042 24/14 A3005 -70 53 1000 170/10 RMK AO2 T02440144
13976KLFT LFT20191121140010911/21/19 14:00:31  5-MIN KLFT 212000Z 16007G16KT 10SM CLR 24/14 A3005 -70 53 1000 160/07G16 RMK AO2 T02440144
13976KLFT LFT20191124220010111/24/19 22:00:31  5-MIN KLFT 250400Z 00000KT 10SM CLR 08/07 A2997 0 89 -700 000/00 RMK AO2 T00830067
13976KLFT LFT20191124220510611/24/19 22:05:31  5-MIN KLFT 250405Z AUTO 18003KT 10SM CLR 08/06 A2997 0 86 -700 180/03 RMK AO2 T00830061
13976KLFT LFT20191124221010611/24/19 22:10:31  5-MIN KLFT 250410Z AUTO 00000KT 10SM CLR 08/06 A2997 0 89 -800 000/00 RMK AO2 T00780061
13976KLFT LFT20191124221510611/24/19 22:15:31  5-MIN KLFT 250415Z AUTO 00000KT 10SM CLR 08/06 A2997 0 86 -700 000/00 RMK AO2 T00830061
13976KLFT LFT20191124222010611/24/19 22:20:31  5-MIN KLFT 250420Z AUTO 17003KT 10SM CLR 08/06 A2997 0 86 -700 170/03 RMK AO2 T00830061
13976KLFT LFT20191124222510611/24/19 22:25:31  5-MIN KLFT 250425Z AUTO 18003KT 10SM CLR 08/07 A2997 0 89 -700 170/03 RMK AO2 T00830067
13976KLFT LFT20191124223010611/24/19 22:30:31  5-MIN KLFT 250430Z AUTO 00000KT 10SM CLR 08/06 A2997 0 86 -700 000/00 RMK AO2 T00830061
13976KLFT LFT20191124223510611/24/19 22:35:31  5-MIN KLFT 250435Z AUTO 00000KT 10SM CLR 07/06 A2997 0 89 -800 000/00 RMK AO2 T00720056
13976KLFT LFT20191124224010611/24/19 22:40:31  5-MIN KLFT 250440Z AUTO 00000KT 10SM CLR 08/06 A2997 0 89 -800 000/00 RMK AO2 T00780061
13976KLFT LFT20191124224510611/24/19 22:45:31  5-MIN KLFT 250445Z AUTO 00000KT 10SM CLR 08/06 A2997 0 86 -700 000/00 RMK AO2 T00830061
13976KLFT LFT20191124225011311/24/19 22:50:31  5-MIN KLFT 250450Z AUTO 19003KT 10SM CLR 08/06 A2997 0 89 -800 190/03 RMK AO2 SLP147 T00780061
13976KLFT LFT20191124225510611/24/19 22:55:31  5-MIN KLFT 250455Z AUTO 19003KT 10SM CLR 08/06 A2996 0 89 -800 190/03 RMK AO2 T00780061
13976KLFT LFT20191124230010711/24/19 23:00:31  5-MIN KLFT 250500Z AUTO 17003KT 10SM CLR 08/06 A2996 10 86 -800 170/03 RMK AO2 T00780056
13976KLFT LFT20191124230510711/24/19 23:05:31  5-MIN KLFT 250505Z AUTO 18003KT 10SM CLR 08/06 A2996 10 86 -700 170/03 RMK AO2 T00830061
13976KLFT LFT20191124231010711/24/19 23:10:31  5-MIN KLFT 250510Z AUTO 17003KT 10SM CLR 08/06 A2995 10 86 -700 160/03 RMK AO2 T00830061
13976KLFT LFT20191124231510711/24/19 23:15:31  5-MIN KLFT 250515Z AUTO 00000KT 10SM CLR 09/07 A2996 10 86 -600 000/00 RMK AO2 T00890067
13976KLFT LFT20191124232010711/24/19 23:20:31  5-MIN KLFT 250520Z AUTO 00000KT 10SM CLR 08/07 A2995 10 89 -700 000/00 RMK AO2 T00830067
13976KLFT LFT20191124232510711/24/19 23:25:31  5-MIN KLFT 250525Z AUTO 00000KT 10SM CLR 08/06 A2995 10 89 -800 000/00 RMK AO2 T00780061
13976KLFT LFT20191124233010711/24/19 23:30:31  5-MIN KLFT 250530Z AUTO 00000KT 10SM CLR 07/06 A2995 10 93 -800 000/00 RMK AO2 T00720061
13976KLFT LFT20191124233510711/24/19 23:35:31  5-MIN KLFT 250535Z AUTO 00000KT 10SM CLR 08/06 A2995 10 89 -800 000/00 RMK AO2 T00780061
13976KLFT LFT20191124234010711/24/19 23:40:31  5-MIN KLFT 250540Z AUTO 19003KT 10SM CLR 07/06 A2995 10 89 -800 190/03 RMK AO2 T00720056
13976KLFT LFT20191124234510711/24/19 23:45:31  5-MIN KLFT 250545Z AUTO 00000KT 10SM CLR 08/06 A2995 20 86 -800 000/00 RMK AO2 T00780056
13976KLFT LFT20191124235014211/24/19 23:50:31  5-MIN KLFT 250550Z AUTO 00000KT 10SM CLR 08/06 A2995 10 89 -800 000/00 RMK AO2 SLP142 T00780061 10117 20072 401670044 50001
13976KLFT LFT20191124235510711/24/19 23:55:31  5-MIN KLFT 250555Z AUTO 00000KT 10SM CLR 08/06 A2995 20 89 -800 000/00 RMK AO2 T00780061
13976KLFT LFT20191125000010711/25/19 00:00:31  5-MIN KLFT 250600Z AUTO 00000KT 10SM CLR 07/06 A2995 10 93 -900 000/00 RMK AO2 T00670056
13976KLFT LFT20191125000510711/25/19 00:05:31  5-MIN KLFT 250605Z AUTO 00000KT 10SM CLR 07/06 A2995 20 93 -900 000/00 RMK AO2 T00670056
13976KLFT LFT20191125001010711/25/19 00:10:31  5-MIN KLFT 250610Z AUTO 00000KT 10SM CLR 07/05 A2995 20 89 -900 000/00 RMK AO2 T00670050
13976KLFT LFT20191125001510711/25/19 00:15:31  5-MIN KLFT 250615Z AUTO 00000KT 10SM CLR 07/05 A2995 20 89 -900 000/00 RMK AO2 T00670050
13976KLFT LFT20191125002010711/25/19 00:20:31  5-MIN KLFT 250620Z AUTO 00000KT 10SM CLR 07/06 A2994 20 89 -800 000/00 RMK AO2 T00720056
13976KLFT LFT20191125002510611/25/19 00:25:31  5-MIN KLFT 250625Z AUTO 00000KT 9SM CLR 07/06 A2994 30 89 -800 000/00 RMK AO2 T00720056
13976KLFT LFT20191125003010611/25/19 00:30:31  5-MIN KLFT 250630Z AUTO 00000KT 7SM CLR 07/06 A2994 30 89 -800 000/00 RMK AO2 T00720056
13976KLFT LFT20191125003510911/25/19 00:35:31  5-MIN KLFT 250635Z AUTO 00000KT 6SM BR CLR 07/06 A2994 30 93 -900 000/00 RMK AO2 T00670056
13976KLFT LFT20191125004010911/25/19 00:40:31  5-MIN KLFT 250640Z AUTO 00000KT 5SM BR CLR 07/06 A2994 30 89 -800 000/00 RMK AO2 T00720056
13976KLFT LFT20191125004510911/25/19 00:45:31  5-MIN KLFT 250645Z AUTO 00000KT 3SM BR CLR 07/06 A2994 20 93 -900 000/00 RMK AO2 T00670056
13976KLFT LFT20191125005011111/25/19 00:50:31  5-MIN KLFT 250650Z AUTO 00000KT 2 1/2SM BR CLR 07/06 A2994 20 93 -900 000/00 RMK AO2 VIS 1V5
13976KLFT LFT20191125005511011/25/19 00:55:31  5-MIN KLFT 250655Z AUTO 00000KT 5SM BR CLR 06/05 A2995 20 93 -1000 000/00 RMK AO2 T00610050
13976KLFT LFT20191125010010711/25/19 01:00:31  5-MIN KLFT 250700Z AUTO 00000KT 9SM CLR 06/04 A2995 20 92 -1000 000/00 RMK AO2 T00560044
13976KLFT LFT20191125010510811/25/19 01:05:31  5-MIN KLFT 250705Z AUTO 00000KT 10SM CLR 06/04 A2995 20 89 -1000 000/00 RMK AO2 T00610044
13976KLFT LFT20191125011010711/25/19 01:10:31  5-MIN KLFT 250710Z AUTO 00000KT 10SM CLR 07/05 A2994 20 89 -900 000/00 RMK AO2 T00670050
13976KLFT LFT20191125011510711/25/19 01:15:31  5-MIN KLFT 250715Z AUTO 00000KT 10SM CLR 07/06 A2994 30 93 -900 000/00 RMK AO2 T00670056
13976KLFT LFT20191125012010611/25/19 01:20:31  5-MIN KLFT 250720Z AUTO 00000KT 7SM CLR 07/06 A2994 30 93 -900 000/00 RMK AO2 T00670056
13976KLFT LFT20191125012510911/25/19 01:25:31  5-MIN KLFT 250725Z AUTO 00000KT 4SM BR CLR 06/05 A2994 30 93 -900 000/00 RMK AO2 T00610050
13976KLFT LFT20191125013012111/25/19 01:30:31  5-MIN KLFT 250730Z AUTO 00000KT 2 1/2SM BR CLR 06/05 A2994 30 93 -900 000/00 RMK AO2 VIS 1V5 T00610050
13976KLFT LFT20191125013512311/25/19 01:35:31  5-MIN KLFT 250735Z AUTO 00000KT 1 1/2SM BR CLR 06/05 A2993 30 93 -900 000/00 RMK AO2 VIS 1/2V3 T00610050
13976KLFT LFT20191125014011311/25/19 01:40:31  5-MIN KLFT 250740Z AUTO 00000KT 1/2SM FG VV002 06/05 A2993 30 93 -900 000/00 RMK AO2 T00610050
13976KLFT LFT20191125014511311/25/19 01:45:31  5-MIN KLFT 250745Z AUTO 00000KT 1/2SM FG VV002 07/05 A2993 40 89 -900 000/00 RMK AO2 T00670050
13976KLFT LFT20191125015010111/25/19 01:50:31  5-MIN KLFT 250750Z AUTO 00000KT 1SM BR VV002 06/05 A2993 40 93 -900 000/00 RMK AO2
13976KLFT LFT20191125015511311/25/19 01:55:31  5-MIN KLFT 250755Z AUTO 00000KT 3/4SM BR VV002 06/05 A2992 40 93 -900 000/00 RMK AO2 T00610050
13976KLFT LFT20191125020011311/25/19 02:00:31  5-MIN KLFT 250800Z AUTO 00000KT 1/2SM FG VV002 06/05 A2993 40 93 -900 000/00 RMK AO2 T00610050
13976KLFT LFT20191125020511311/25/19 02:05:31  5-MIN KLFT 250805Z AUTO 00000KT 1/2SM FG VV002 06/05 A2993 40 93 -900 000/00 RMK AO2 T00610050
13976KLFT LFT20191125021011311/25/19 02:10:31  5-MIN KLFT 250810Z AUTO 00000KT 1/2SM FG VV002 06/05 A2993 40 93 -900 000/00 RMK AO2 T00610050
13976KLFT LFT20191125021511711/25/19 02:15:31  5-MIN KLFT 250815Z AUTO 00000KT 1 1/2SM BR FEW002 06/04 A2993 40 92 -1000 000/00 RMK AO2 T00560044
13976KLFT LFT20191125022011311/25/19 02:20:31  5-MIN KLFT 250820Z AUTO 00000KT 6SM BR FEW002 06/04 A2993 40 92 -1000 000/00 RMK AO2 T00560044
13976KLFT LFT20191125022511311/25/19 02:25:31  5-MIN KLFT 250825Z AUTO 00000KT 3SM BR FEW002 06/04 A2992 40 92 -1000 000/00 RMK AO2 T00560044
13976KLFT LFT20191125023011711/25/19 02:30:31  5-MIN KLFT 250830Z AUTO 00000KT 2 1/2SM BR FEW002 06/04 A2992 40 92 -1000 000/00 RMK AO2 T00560044
13976KLFT LFT20191125023511711/25/19 02:35:31  5-MIN KLFT 250835Z AUTO 00000KT 1 1/4SM BR SCT002 06/04 A2992 50 92 -1000 000/00 RMK AO2 T00560044
13976KLFT LFT20191125024011411/25/19 02:40:31  5-MIN KLFT 250840Z AUTO 00000KT 3/4SM BR VV002 05/04 A2992 40 96 -1100 000/00 RMK AO2 T00500044
13976KLFT LFT20191125024511411/25/19 02:45:31  5-MIN KLFT 250845Z AUTO 00000KT 1/2SM FG VV002 06/04 A2992 50 92 -1000 000/00 RMK AO2 T00560044
13976KLFT LFT20191125025010411/25/19 02:50:31  5-MIN KLFT 250850Z AUTO 00000KT 1/4SM FG VV002 05/04 A2992 50 96 -1100 000/00 RMK AO2
13976KLFT LFT20191125025511411/25/19 02:55:31  5-MIN KLFT 250855Z AUTO 00000KT 1/4SM FG VV002 06/04 A2992 50 92 -1000 000/00 RMK AO2 T00560044
13976KLFT LFT20191125030011411/25/19 03:00:31  5-MIN KLFT 250900Z AUTO 00000KT 1/4SM FG VV002 06/04 A2991 50 92 -1000 000/00 RMK AO2 T00560044
13976KLFT LFT20191125030511411/25/19 03:05:31  5-MIN KLFT 250905Z AUTO 00000KT 1/2SM FG VV002 05/04 A2991 50 96 -1100 000/00 RMK AO2 T00500044
13976KLFT LFT20191125031011711/25/19 03:10:31  5-MIN KLFT 250910Z AUTO 00000KT 1 1/4SM BR FEW002 06/04 A2991 50 92 -1000 000/00 RMK AO2 T00560044
13976KLFT LFT20191125031511311/25/19 03:15:31  5-MIN KLFT 250915Z AUTO 00000KT 3SM BR FEW002 05/04 A2992 50 96 -1100 000/00 RMK AO2 T00500044
13976KLFT LFT20191125032011311/25/19 03:20:31  5-MIN KLFT 250920Z AUTO 00000KT 4SM BR FEW002 05/04 A2992 50 92 -1100 000/00 RMK AO2 T00500039
13976KLFT LFT20191125032511011/25/19 03:25:31  5-MIN KLFT 250925Z AUTO 04003KT 9SM FEW002 04/03 A2991 50 96 -1200 040/03 RMK AO2 T00390033
13976KLFT LFT20191125033010811/25/19 03:30:31  5-MIN KLFT 250930Z AUTO 00000KT 10SM CLR 04/03 A2991 50 92 -1200 000/00 RMK AO2 T00390028
13976KLFT LFT20191125033510811/25/19 03:35:31  5-MIN KLFT 250935Z AUTO 04003KT 10SM CLR 04/03 A2991 50 92 -1100 040/03 RMK AO2 T00440033
13976KLFT LFT20191125034010811/25/19 03:40:31  5-MIN KLFT 250940Z AUTO 03003KT 10SM CLR 04/03 A2991 50 96 -1200 030/03 RMK AO2 T00390033
13976KLFT LFT20191125034510811/25/19 03:45:31  5-MIN KLFT 250945Z AUTO 03003KT 10SM CLR 04/03 A2991 50 96 -1200 030/03 RMK AO2 T00390033
13976KLFT LFT20191125035011511/25/19 03:50:31  5-MIN KLFT 250950Z AUTO 02003KT 10SM CLR 04/03 A2992 50 96 -1200 020/03 RMK AO2 SLP130 T00390033
13976KLFT LFT20191125035510811/25/19 03:55:31  5-MIN KLFT 250955Z AUTO 03003KT 10SM CLR 04/03 A2992 50 92 -1200 030/03 RMK AO2 T00390028
13976KLFT LFT20191125040010811/25/19 04:00:31  5-MIN KLFT 251000Z AUTO 00000KT 10SM CLR 04/03 A2992 50 92 -1200 000/00 RMK AO2 T00390028
13976KLFT LFT20191125040510811/25/19 04:05:31  5-MIN KLFT 251005Z AUTO 00000KT 10SM CLR 04/03 A2992 50 92 -1100 000/00 RMK AO2 T00440033
13976KLFT LFT20191125041010811/25/19 04:10:31  5-MIN KLFT 251010Z AUTO 00000KT 10SM CLR 06/04 A2991 50 89 -1000 000/00 RMK AO2 T00560039
13976KLFT LFT20191125041511011/25/19 04:15:31  5-MIN KLFT 251015Z AUTO 00000KT 7SM FEW002 05/04 A2991 60 92 -1100 000/00 RMK AO2 T00500039
13976KLFT LFT20191125042011311/25/19 04:20:31  5-MIN KLFT 251020Z AUTO 00000KT 3SM BR SCT002 06/04 A2990 60 92 -1000 000/00 RMK AO2 T00560044
13976KLFT LFT20191125042511311/25/19 04:25:31  5-MIN KLFT 251025Z AUTO 14003KT 3SM BR FEW002 06/05 A2990 60 96 -1000 140/03 RMK AO2 T00560050
13976KLFT LFT20191125043011311/25/19 04:30:31  5-MIN KLFT 251030Z AUTO 00000KT 2SM BR FEW002 06/05 A2990 60 96 -1000 000/00 RMK AO2 T00560050
13976KLFT LFT20191125043511411/25/19 04:35:31  5-MIN KLFT 251035Z AUTO 00000KT 3/4SM BR VV002 06/04 A2990 60 92 -1000 000/00 RMK AO2 T00560044
13976KLFT LFT20191125044011411/25/19 04:40:31  5-MIN KLFT 251040Z AUTO 00000KT 1/2SM FG VV002 06/04 A2990 60 92 -1000 000/00 RMK AO2 T00560044
13976KLFT LFT20191125044511411/25/19 04:45:31  5-MIN KLFT 251045Z AUTO 00000KT 1/2SM FG VV002 05/04 A2990 60 96 -1000 000/00 RMK AO2 T00500044
13976KLFT LFT20191125045012111/25/19 04:50:31  5-MIN KLFT 251050Z AUTO 00000KT 1/2SM FG VV002 05/04 A2990 60 92 -1000 000/00 RMK AO2 SLP125 T00500039
13976KLFT LFT20191125045511211/25/19 04:55:31  5-MIN KLFT 251055Z AUTO 00000KT 1SM BR VV002 05/04 A2990 60 96 -1000 000/00 RMK AO2 T00500044
13976KLFT LFT20191125050011311/25/19 05:00:31  5-MIN KLFT 251100Z AUTO 12003KT 4SM BR FEW002 04/04 A2990 60 96 -1100 120/03 RMK AO2 T00440039
13976KLFT LFT20191125050511311/25/19 05:05:31  5-MIN KLFT 251105Z AUTO 13003KT 4SM BR FEW002 05/04 A2990 60 92 -1000 130/03 RMK AO2 T00500039
13976KLFT LFT20191125051011311/25/19 05:10:31  5-MIN KLFT 251110Z AUTO 14003KT 6SM BR FEW002 06/05 A2990 70 96 -1000 140/03 RMK AO2 T00560050
13976KLFT LFT20191125051510911/25/19 05:15:31  5-MIN KLFT 251115Z AUTO 00000KT 9SM FEW002 06/05 A2989 70 93 -900 000/00 RMK AO2 T00610050
13976KLFT LFT20191125052010611/25/19 05:20:31  5-MIN KLFT 251120Z AUTO 00000KT 9SM CLR 06/05 A2989 70 93 -900 000/00 RMK AO2 T00610050
13976KLFT LFT20191125052510611/25/19 05:25:31  5-MIN KLFT 251125Z AUTO 00000KT 9SM CLR 06/06 A2989 70 96 -900 000/00 RMK AO2 T00610056
13976KLFT LFT20191125053010111/25/19 05:30:31  5-MIN KLFT 251130Z 13003KT 8SM CLR 07/06 A2989 70 93 -800 130/03 RMK AO2 T00670056
13976KLFT LFT20191125053510111/25/19 05:35:31  5-MIN KLFT 251135Z 00000KT 8SM CLR 07/06 A2989 70 93 -800 000/00 RMK AO2 T00670056
13976KLFT LFT20191125054010111/25/19 05:40:31  5-MIN KLFT 251140Z 00000KT 9SM CLR 07/06 A2989 80 93 -800 000/00 RMK AO2 T00670056
13976KLFT LFT20191125054510111/25/19 05:45:31  5-MIN KLFT 251145Z 00000KT 9SM CLR 07/06 A2989 80 93 -800 000/00 RMK AO2 T00670056
13976KLFT LFT20191125055012611/25/19 05:50:31  5-MIN KLFT 251150Z 00000KT 8SM CLR 07/06 A2989 70 93 -800 000/00 RMK AO2 SLP120 T00670056 10083 20039 58010
13976KLFT LFT20191125055510411/25/19 05:55:31  5-MIN KLFT 251155Z 00000KT 5SM BR CLR 06/06 A2989 80 96 -900 000/00 RMK AO2 T00610056
13976KLFT LFT20191125060010411/25/19 06:00:31  5-MIN KLFT 251200Z 00000KT 3SM BR CLR 06/05 A2989 70 93 -900 000/00 RMK AO2 T00610050
13976KLFT LFT20191125060510511/25/19 06:05:31  5-MIN KLFT 251205Z 00000KT 4SM BR CLR 06/05 A2989 80 96 -1000 000/00 RMK AO2 T00560050
13976KLFT LFT20191125061010511/25/19 06:10:31  5-MIN KLFT 251210Z 00000KT 4SM BR CLR 06/05 A2989 70 96 -1000 000/00 RMK AO2 T00560050
13976KLFT LFT20191125061510411/25/19 06:15:31  5-MIN KLFT 251215Z 00000KT 4SM BR CLR 06/05 A2989 70 93 -900 000/00 RMK AO2 T00610050
13976KLFT LFT20191125062010411/25/19 06:20:31  5-MIN KLFT 251220Z 00000KT 4SM BR CLR 07/06 A2989 70 93 -800 000/00 RMK AO2 T00670056
13976KLFT LFT20191125062510411/25/19 06:25:31  5-MIN KLFT 251225Z 00000KT 4SM BR CLR 07/06 A2990 60 96 -800 000/00 RMK AO2 T00670061
13976KLFT LFT20191125063010411/25/19 06:30:31  5-MIN KLFT 251230Z 00000KT 4SM BR CLR 06/06 A2990 60 96 -900 000/00 RMK AO2 T00610056
13976KLFT LFT20191125063510411/25/19 06:35:31  5-MIN KLFT 251235Z 00000KT 4SM BR CLR 07/06 A2990 60 93 -800 000/00 RMK AO2 T00670056
13976KLFT LFT20191125064010411/25/19 06:40:31  5-MIN KLFT 251240Z 00000KT 4SM BR CLR 06/06 A2990 60 96 -900 000/00 RMK AO2 T00610056
13976KLFT LFT20191125064510411/25/19 06:45:31  5-MIN KLFT 251245Z 00000KT 4SM BR CLR 06/05 A2990 60 93 -900 000/00 RMK AO2 T00610050
13976KLFT LFT20191125065011111/25/19 06:50:31  5-MIN KLFT 251250Z 00000KT 5SM BR CLR 06/05 A2990 60 93 -900 000/00 RMK AO2 SLP125 T00610050
13976KLFT LFT20191125065510411/25/19 06:55:31  5-MIN KLFT 251255Z 00000KT 5SM BR CLR 06/05 A2990 60 93 -900 000/00 RMK AO2 T00610050
13976KLFT LFT20191125070010511/25/19 07:00:31  5-MIN KLFT 251300Z 00000KT 5SM BR CLR 06/05 A2991 50 96 -1000 000/00 RMK AO2 T00560050
13976KLFT LFT20191125070510511/25/19 07:05:31  5-MIN KLFT 251305Z 00000KT 5SM BR CLR 05/04 A2991 50 96 -1100 000/00 RMK AO2 T00500044
13976KLFT LFT20191125071010511/25/19 07:10:31  5-MIN KLFT 251310Z 00000KT 5SM BR CLR 04/03 A2992 50 92 -1100 000/00 RMK AO2 T00440033
13976KLFT LFT20191125071510511/25/19 07:15:31  5-MIN KLFT 251315Z 00000KT 5SM BR CLR 05/04 A2992 50 92 -1100 000/00 RMK AO2 T00500039
13976KLFT LFT20191125072010511/25/19 07:20:31  5-MIN KLFT 251320Z 00000KT 5SM BR CLR 06/04 A2992 50 89 -1000 000/00 RMK AO2 T00560039
13976KLFT LFT20191125072510411/25/19 07:25:31  5-MIN KLFT 251325Z 00000KT 5SM BR CLR 06/05 A2992 50 93 -900 000/00 RMK AO2 T00610050
13976KLFT LFT20191125073010411/25/19 07:30:31  5-MIN KLFT 251330Z 00000KT 5SM BR CLR 07/06 A2992 40 93 -900 000/00 RMK AO2 T00670056
13976KLFT LFT20191125073510411/25/19 07:35:31  5-MIN KLFT 251335Z 00000KT 5SM BR CLR 07/06 A2992 40 93 -800 000/00 RMK AO2 T00720061
13976KLFT LFT20191125074010411/25/19 07:40:31  5-MIN KLFT 251340Z 00000KT 5SM BR CLR 08/07 A2992 40 93 -700 000/00 RMK AO2 T00780067
13976KLFT LFT20191125074510411/25/19 07:45:31  5-MIN KLFT 251345Z 00000KT 5SM BR CLR 08/07 A2992 40 96 -700 000/00 RMK AO2 T00780072
13976KLFT LFT20191125075010811/25/19 07:50:31  5-MIN KLFT 251350Z 00000KT 9SM CLR 08/07 A2993 40 93 -700 000/00 RMK AO2 SLP134 T00830072
13976KLFT LFT20191125075510211/25/19 07:55:31  5-MIN KLFT 251355Z 00000KT 10SM CLR 08/07 A2993 40 93 -700 000/00 RMK AO2 T00830072
13976KLFT LFT20191125080010211/25/19 08:00:31  5-MIN KLFT 251400Z 14003KT 10SM CLR 09/08 A2993 30 89 -500 140/03 RMK AO2 T00940078
13976KLFT LFT20191125080510211/25/19 08:05:31  5-MIN KLFT 251405Z 00000KT 10SM CLR 10/08 A2993 40 89 -500 000/00 RMK AO2 T01000083
13976KLFT LFT20191125081010211/25/19 08:10:31  5-MIN KLFT 251410Z VRB03KT 10SM CLR 10/08 A2993 40 89 -500 VRB/03 RMK AO2 T01000083
13976KLFT LFT20191125081510211/25/19 08:15:31  5-MIN KLFT 251415Z 15003KT 10SM CLR 11/08 A2993 40 86 -400 150/03 RMK AO2 T01060083
13976KLFT LFT20191125082010211/25/19 08:20:31  5-MIN KLFT 251420Z 00000KT 10SM CLR 11/09 A2993 30 89 -400 000/00 RMK AO2 T01060089
13976KLFT LFT20191125082510211/25/19 08:25:31  5-MIN KLFT 251425Z 16004KT 10SM CLR 11/09 A2993 30 86 -300 160/04 RMK AO2 T01110089
13976KLFT LFT20191125083010211/25/19 08:30:31  5-MIN KLFT 251430Z VRB03KT 10SM CLR 11/09 A2993 30 86 -300 VRB/03 RMK AO2 T01110089
13976KLFT LFT20191125083510211/25/19 08:35:31  5-MIN KLFT 251435Z 16004KT 10SM CLR 12/09 A2993 30 83 -300 160/04 RMK AO2 T01170089
13976KLFT LFT20191125084010211/25/19 08:40:31  5-MIN KLFT 251440Z 16003KT 10SM CLR 12/09 A2994 30 83 -200 160/03 RMK AO2 T01220094
13976KLFT LFT20191125084510211/25/19 08:45:31  5-MIN KLFT 251445Z 15005KT 10SM CLR 12/09 A2994 30 83 -200 140/05 RMK AO2 T01220094
13976KLFT LFT20191125085011511/25/19 08:50:31  5-MIN KLFT 251450Z VRB03KT 10SM CLR 13/09 A2994 30 80 -100 VRB/03 RMK AO2 SLP137 T01280094 58010
13976KLFT LFT20191125085510211/25/19 08:55:31  5-MIN KLFT 251455Z VRB03KT 10SM CLR 13/09 A2994 30 77 -100 VRB/03 RMK AO2 T01330094
13976KLFT LFT20191125090010211/25/19 09:00:31  5-MIN KLFT 251500Z VRB03KT 10SM CLR 13/10 A2994 30 80 -100 VRB/03 RMK AO2 T01330100
13976KLFT LFT20191125090509911/25/19 09:05:31  5-MIN KLFT 251505Z VRB04KT 10SM CLR 14/10 A2994 30 77 0 VRB/04 RMK AO2 T01390100
13976KLFT LFT20191125091009911/25/19 09:10:31  5-MIN KLFT 251510Z VRB04KT 10SM CLR 14/10 A2994 20 77 0 VRB/04 RMK AO2 T01390100
13976KLFT LFT20191125091509911/25/19 09:15:31  5-MIN KLFT 251515Z 15004KT 10SM CLR 14/10 A2994 20 77 0 150/04 RMK AO2 T01390100
13976KLFT LFT20191125092009911/25/19 09:20:31  5-MIN KLFT 251520Z VRB03KT 10SM CLR 14/10 A2994 20 77 0 VRB/03 RMK AO2 T01390100
13976KLFT LFT20191125092509911/25/19 09:25:31  5-MIN KLFT 251525Z VRB03KT 10SM CLR 14/10 A2994 20 77 0 VRB/03 RMK AO2 T01390100
13976KLFT LFT20191125093009911/25/19 09:30:31  5-MIN KLFT 251530Z 16004KT 10SM CLR 14/10 A2994 20 74 0 160/04 RMK AO2 T01440100
13976KLFT LFT20191125093509911/25/19 09:35:31  5-MIN KLFT 251535Z 16006KT 10SM CLR 14/10 A2994 20 74 0 150/06 RMK AO2 T01440100
13976KLFT LFT20191125094009911/25/19 09:40:31  5-MIN KLFT 251540Z VRB06KT 10SM CLR 14/10 A2994 20 74 0 VRB/06 RMK AO2 T01440100
13976KLFT LFT20191125094509911/25/19 09:45:31  5-MIN KLFT 251545Z VRB05KT 10SM CLR 14/10 A2994 30 74 0 VRB/05 RMK AO2 T01440100
13976KLFT LFT20191125095010811/25/19 09:50:31  5-MIN KLFT 251550Z 16005KT 10SM CLR 15/11 A2994 30 74 100 160/05 RMK AO2 SLP136 T01500106
13976KLFT LFT20191125095510111/25/19 09:55:31  5-MIN KLFT 251555Z VRB05KT 10SM CLR 16/11 A2993 30 72 100 VRB/05 RMK AO2 T01560106
13976KLFT LFT20191125100010111/25/19 10:00:31  5-MIN KLFT 251600Z 16007KT 10SM CLR 16/11 A2993 30 72 100 160/07 RMK AO2 T01560106
13976KLFT LFT20191125100510111/25/19 10:05:31  5-MIN KLFT 251605Z 16006KT 10SM CLR 16/11 A2993 40 69 200 160/06 RMK AO2 T01610106
13976KLFT LFT20191125101010111/25/19 10:10:31  5-MIN KLFT 251610Z 17007KT 10SM CLR 16/11 A2993 30 69 200 170/07 RMK AO2 T01610106
13976KLFT LFT20191125101510111/25/19 10:15:31  5-MIN KLFT 251615Z 16006KT 10SM CLR 17/11 A2993 40 67 300 160/06 RMK AO2 T01670106
13976KLFT LFT20191125102010111/25/19 10:20:31  5-MIN KLFT 251620Z 17006KT 10SM CLR 17/11 A2993 40 67 300 160/06 RMK AO2 T01670106
13976KLFT LFT20191125102510111/25/19 10:25:31  5-MIN KLFT 251625Z 17007KT 10SM CLR 17/11 A2993 40 67 300 170/07 RMK AO2 T01670106
13976KLFT LFT20191125103010111/25/19 10:30:31  5-MIN KLFT 251630Z 17008KT 10SM CLR 17/11 A2993 40 67 300 170/08 RMK AO2 T01670106
13976KLFT LFT20191125103510111/25/19 10:35:31  5-MIN KLFT 251635Z VRB05KT 10SM CLR 17/11 A2993 40 67 300 VRB/05 RMK AO2 T01670106
13976KLFT LFT20191125104010111/25/19 10:40:31  5-MIN KLFT 251640Z 16006KT 10SM CLR 17/11 A2993 40 64 300 160/06 RMK AO2 T01720106
13976KLFT LFT20191125104510111/25/19 10:45:31  5-MIN KLFT 251645Z 16007KT 10SM CLR 17/11 A2993 40 64 300 160/07 RMK AO2 T01720106
13976KLFT LFT20191125105010811/25/19 10:50:31  5-MIN KLFT 251650Z 18006KT 10SM CLR 18/11 A2993 40 62 400 170/06 RMK AO2 SLP133 T01780106
13976KLFT LFT20191125105510111/25/19 10:55:31  5-MIN KLFT 251655Z 18009KT 10SM CLR 18/11 A2993 40 64 400 180/09 RMK AO2 T01780111
13976KLFT LFT20191125110010111/25/19 11:00:31  5-MIN KLFT 251700Z 16007KT 10SM CLR 18/11 A2992 40 64 400 160/07 RMK AO2 T01780111
13976KLFT LFT20191125110510111/25/19 11:05:31  5-MIN KLFT 251705Z 17006KT 10SM CLR 18/11 A2992 50 62 500 170/06 RMK AO2 T01830111
13976KLFT LFT20191125111010111/25/19 11:10:31  5-MIN KLFT 251710Z 17008KT 10SM CLR 18/11 A2991 50 62 500 160/08 RMK AO2 T01830111
13976KLFT LFT20191125111510111/25/19 11:15:31  5-MIN KLFT 251715Z 17006KT 10SM CLR 18/11 A2991 50 62 500 170/06 RMK AO2 T01830111
13976KLFT LFT20191125112010111/25/19 11:20:31  5-MIN KLFT 251720Z 17007KT 10SM CLR 19/12 A2991 60 62 600 170/07 RMK AO2 T01890117
13976KLFT LFT20191125112510111/25/19 11:25:31  5-MIN KLFT 251725Z VRB06KT 10SM CLR 19/12 A2990 60 62 600 VRB/06 RMK AO2 T01890117
13976KLFT LFT20191125113010111/25/19 11:30:31  5-MIN KLFT 251730Z 16006KT 10SM CLR 19/12 A2990 60 62 600 160/06 RMK AO2 T01890117
13976KLFT LFT20191125113510111/25/19 11:35:31  5-MIN KLFT 251735Z 16006KT 10SM CLR 19/12 A2990 70 60 600 160/06 RMK AO2 T01940117
13976KLFT LFT20191125114010111/25/19 11:40:31  5-MIN KLFT 251740Z VRB05KT 10SM CLR 19/12 A2989 70 60 600 VRB/05 RMK AO2 T01940117
13976KLFT LFT20191125114510111/25/19 11:45:31  5-MIN KLFT 251745Z VRB05KT 10SM CLR 19/12 A2989 70 60 700 VRB/05 RMK AO2 T01940117
13976KLFT LFT20191125115012611/25/19 11:50:31  5-MIN KLFT 251750Z 19008KT 10SM CLR 20/12 A2989 80 58 700 190/08 RMK AO2 SLP120 T02000117 10200 20044 51018
13976KLFT LFT20191125115510111/25/19 11:55:31  5-MIN KLFT 251755Z 18010KT 10SM CLR 20/12 A2988 80 58 700 180/10 RMK AO2 T02000117
13976KLFT LFT20191125120010111/25/19 12:00:31  5-MIN KLFT 251800Z 18009KT 10SM CLR 20/12 A2988 80 58 700 180/09 RMK AO2 T02000117
13976KLFT LFT20191125120510111/25/19 12:05:31  5-MIN KLFT 251805Z 20010KT 10SM CLR 20/12 A2988 80 58 700 190/10 RMK AO2 T02000117
13976KLFT LFT20191125121010111/25/19 12:10:31  5-MIN KLFT 251810Z 20010KT 10SM CLR 21/12 A2988 80 56 800 190/10 RMK AO2 T02060117
13976KLFT LFT20191125121510111/25/19 12:15:31  5-MIN KLFT 251815Z 17008KT 10SM CLR 21/12 A2988 80 56 800 170/08 RMK AO2 T02060117
13976KLFT LFT20191125122010111/25/19 12:20:31  5-MIN KLFT 251820Z 18010KT 10SM CLR 21/12 A2988 80 56 800 180/10 RMK AO2 T02060117
13976KLFT LFT20191125122510111/25/19 12:25:31  5-MIN KLFT 251825Z 18010KT 10SM CLR 20/12 A2988 80 58 700 180/10 RMK AO2 T02000117
13976KLFT LFT20191125123011711/25/19 12:30:31  5-MIN KLFT 251830Z 17009KT 140V200 10SM CLR 21/12 A2987 90 56 800 170/09 140V200 RMK AO2 T02060117
13976KLFT LFT20191125123510111/25/19 12:35:31  5-MIN KLFT 251835Z 18009KT 10SM CLR 21/12 A2987 90 56 800 180/09 RMK AO2 T02060117
13976KLFT LFT20191125124010111/25/19 12:40:31  5-MIN KLFT 251840Z 17008KT 10SM CLR 20/12 A2987 90 58 700 170/08 RMK AO2 T02000117
13976KLFT LFT20191125124510111/25/19 12:45:31  5-MIN KLFT 251845Z 17010KT 10SM CLR 20/12 A2987 90 58 700 170/10 RMK AO2 T02000117
13976KLFT LFT20191125125010911/25/19 12:50:31  5-MIN KLFT 251850Z 16007KT 10SM CLR 20/12 A2986 100 58 700 160/07 RMK AO2 SLP112 T02000117
13976KLFT LFT20191125125510211/25/19 12:55:31  5-MIN KLFT 251855Z 17009KT 10SM CLR 21/12 A2986 100 58 800 170/09 RMK AO2 T02060122
13976KLFT LFT20191125130010211/25/19 13:00:31  5-MIN KLFT 251900Z 16010KT 10SM CLR 21/12 A2986 100 58 800 160/10 RMK AO2 T02060122
13976KLFT LFT20191125130510211/25/19 13:05:31  5-MIN KLFT 251905Z 16009KT 10SM CLR 20/12 A2985 110 60 800 160/09 RMK AO2 T02000122
13976KLFT LFT20191125131010811/25/19 13:10:31  5-MIN KLFT 251910Z 16010G15KT 10SM CLR 20/12 A2986 100 60 800 160/10G15 RMK AO2 T02000122
13976KLFT LFT20191125131510811/25/19 13:15:31  5-MIN KLFT 251915Z 17009G15KT 10SM CLR 20/12 A2986 100 60 700 170/09G15 RMK AO2 T02000122
13976KLFT LFT20191125132010811/25/19 13:20:31  5-MIN KLFT 251920Z 18010G16KT 10SM CLR 21/12 A2986 100 58 800 180/10G16 RMK AO2 T02060122
13976KLFT LFT20191125132510811/25/19 13:25:31  5-MIN KLFT 251925Z 17009G16KT 10SM CLR 21/12 A2985 110 58 800 170/09G16 RMK AO2 T02060122
13976KLFT LFT20191125133010811/25/19 13:30:31  5-MIN KLFT 251930Z 19011G16KT 10SM CLR 21/12 A2985 110 56 900 190/11G16 RMK AO2 T02110122
13976KLFT LFT20191125133510211/25/19 13:35:31  5-MIN KLFT 251935Z 17009KT 10SM CLR 21/13 A2985 110 58 900 160/09 RMK AO2 T02110128
13976KLFT LFT20191125134010211/25/19 13:40:31  5-MIN KLFT 251940Z 20011KT 10SM CLR 21/13 A2985 110 58 900 200/11 RMK AO2 T02110128
13976KLFT LFT20191125134510811/25/19 13:45:31  5-MIN KLFT 251945Z 17009G17KT 10SM CLR 21/13 A2984 110 60 800 170/09G17 RMK AO2 T02060128
13976KLFT LFT20191125135010911/25/19 13:50:31  5-MIN KLFT 251950Z 16008KT 10SM CLR 21/13 A2984 120 60 800 160/08 RMK AO2 SLP105 T02060128
13976KLFT LFT20191125135510211/25/19 13:55:31  5-MIN KLFT 251955Z 18009KT 10SM CLR 21/13 A2984 120 58 900 170/09 RMK AO2 T02110128
13976KLFT LFT20191125140010211/25/19 14:00:31  5-MIN KLFT 252000Z 17009KT 10SM CLR 21/13 A2983 120 60 800 170/09 RMK AO2 T02060128
13976KLFT LFT20191125140510211/25/19 14:05:31  5-MIN KLFT 252005Z 17010KT 10SM CLR 21/13 A2983 120 60 800 170/10 RMK AO2 T02060128
13976KLFT LFT20191125141010211/25/19 14:10:31  5-MIN KLFT 252010Z 17009KT 10SM CLR 21/13 A2983 130 60 800 170/09 RMK AO2 T02060128
13976KLFT LFT20191125141510811/25/19 14:15:31  5-MIN KLFT 252015Z 18009G15KT 10SM CLR 21/13 A2984 120 60 800 180/09G15 RMK AO2 T02060128
13976KLFT LFT20191125142010811/25/19 14:20:31  5-MIN KLFT 252020Z 17010G15KT 10SM CLR 21/13 A2983 120 60 800 170/10G15 RMK AO2 T02060128
13976KLFT LFT20191125142510211/25/19 14:25:31  5-MIN KLFT 252025Z 18011KT 10SM CLR 21/13 A2983 130 60 800 180/11 RMK AO2 T02060128
13976KLFT LFT20191125143011211/25/19 14:30:31  5-MIN KLFT 252030Z AUTO 18011G17KT 9SM CLR 21/12 A2984 120 58 800 180/11G17 RMK AO2 T02060122
13976KLFT LFT20191125143511211/25/19 14:35:31  5-MIN KLFT 252035Z AUTO 17007G17KT 8SM CLR 20/13 A2983 130 63 800 170/07G17 RMK AO2 T02000128
13976KLFT LFT20191125144011211/25/19 14:40:31  5-MIN KLFT 252040Z AUTO 16009G14KT 9SM CLR 20/13 A2983 130 63 800 160/09G14 RMK AO2 T02000128
13976KLFT LFT20191125144510611/25/19 14:45:31  5-MIN KLFT 252045Z AUTO 18007KT 9SM CLR 20/13 A2983 130 63 800 180/07 RMK AO2 T02000128
13976KLFT LFT20191125145012011/25/19 14:50:31  5-MIN KLFT 252050Z AUTO 19009KT 10SM CLR 20/13 A2983 130 63 800 180/09 RMK AO2 SLP101 T02000128 58019
13976KLFT LFT20191125145510611/25/19 14:55:31  5-MIN KLFT 252055Z AUTO 16011KT 9SM CLR 21/13 A2983 130 60 800 160/11 RMK AO2 T02060128
13976KLFT LFT20191125150010611/25/19 15:00:31  5-MIN KLFT 252100Z AUTO 17008KT 9SM CLR 20/13 A2983 130 63 800 170/08 RMK AO2 T02000128
13976KLFT LFT20191125150510711/25/19 15:05:31  5-MIN KLFT 252105Z AUTO 17008KT 10SM CLR 20/13 A2983 130 63 800 170/08 RMK AO2 T02000128
13976KLFT LFT20191125151010711/25/19 15:10:31  5-MIN KLFT 252110Z AUTO 18010KT 10SM CLR 20/13 A2982 130 63 800 170/10 RMK AO2 T02000128
13976KLFT LFT20191125151510711/25/19 15:15:31  5-MIN KLFT 252115Z AUTO 16010KT 10SM CLR 20/13 A2982 140 63 800 160/10 RMK AO2 T02000128
13976KLFT LFT20191125152010711/25/19 15:20:31  5-MIN KLFT 252120Z AUTO 16008KT 10SM CLR 20/13 A2982 140 63 800 160/08 RMK AO2 T02000128
13976KLFT LFT20191125152510711/25/19 15:25:31  5-MIN KLFT 252125Z AUTO 17008KT 10SM CLR 20/13 A2982 140 63 800 170/08 RMK AO2 T02000128
13976KLFT LFT20191125153010711/25/19 15:30:31  5-MIN KLFT 252130Z AUTO 16009KT 10SM CLR 20/13 A2982 140 63 800 160/09 RMK AO2 T02000128
13976KLFT LFT20191125153512311/25/19 15:35:31  5-MIN KLFT 252135Z AUTO 16008KT 100V180 10SM CLR 20/13 A2982 140 63 800 160/08 100V180 RMK AO2 T02000128
13976KLFT LFT20191125154010711/25/19 15:40:31  5-MIN KLFT 252140Z AUTO 17010KT 10SM CLR 20/13 A2982 140 63 800 170/10 RMK AO2 T02000128
13976KLFT LFT20191125154510711/25/19 15:45:31  5-MIN KLFT 252145Z AUTO 17009KT 10SM CLR 20/13 A2982 140 63 800 170/09 RMK AO2 T02000128
13976KLFT LFT20191125155011411/25/19 15:50:31  5-MIN KLFT 252150Z AUTO 17010KT 10SM CLR 19/13 A2982 140 65 700 170/10 RMK AO2 SLP097 T01940128
13976KLFT LFT20191125155510711/25/19 15:55:31  5-MIN KLFT 252155Z AUTO 17009KT 10SM CLR 19/13 A2982 130 65 700 170/09 RMK AO2 T01940128
13976KLFT LFT20191125160010711/25/19 16:00:31  5-MIN KLFT 252200Z AUTO 18010KT 10SM CLR 19/13 A2982 140 65 700 180/10 RMK AO2 T01940128
13976KLFT LFT20191125160510711/25/19 16:05:31  5-MIN KLFT 252205Z AUTO 17010KT 10SM CLR 19/13 A2982 130 65 700 170/10 RMK AO2 T01940128
13976KLFT LFT20191125161010711/25/19 16:10:31  5-MIN KLFT 252210Z AUTO 17009KT 10SM CLR 19/13 A2982 130 65 700 170/09 RMK AO2 T01940128
13976KLFT LFT20191125161510211/25/19 16:15:31  5-MIN KLFT 252215Z 16007KT 10SM CLR 19/13 A2982 140 65 700 160/07 RMK AO2 T01940128
13976KLFT LFT20191125162010811/25/19 16:20:31  5-MIN KLFT 252220Z 17012G16KT 10SM CLR 19/13 A2982 130 67 700 160/12G16 RMK AO2 T01890128
13976KLFT LFT20191125162510811/25/19 16:25:31  5-MIN KLFT 252225Z 17008G16KT 10SM CLR 19/13 A2983 130 67 700 170/08G16 RMK AO2 T01890128
13976KLFT LFT20191125163010211/25/19 16:30:31  5-MIN KLFT 252230Z 17008KT 10SM CLR 19/13 A2983 130 67 700 170/08 RMK AO2 T01890128
13976KLFT LFT20191125163510211/25/19 16:35:31  5-MIN KLFT 252235Z 17007KT 10SM CLR 19/13 A2983 130 67 700 170/07 RMK AO2 T01890128
13976KLFT LFT20191125164010511/25/19 16:40:31  5-MIN KLFT 252240Z 17007KT 10SM FEW055 19/13 A2983 130 67 700 170/07 RMK AO2 T01890128
13976KLFT LFT20191125164510511/25/19 16:45:31  5-MIN KLFT 252245Z 16009KT 10SM SCT055 19/13 A2982 130 67 700 160/09 RMK AO2 T01890128
13976KLFT LFT20191125165011211/25/19 16:50:31  5-MIN KLFT 252250Z 16007KT 10SM SCT050 18/13 A2982 130 70 600 160/07 RMK AO2 SLP099 T01830128
13976KLFT LFT20191125165510511/25/19 16:55:31  5-MIN KLFT 252255Z 17009KT 10SM BKN050 18/13 A2982 130 70 600 160/09 RMK AO2 T01830128
13976KLFT LFT20191125170011111/25/19 17:00:31  5-MIN KLFT 252300Z 17006G15KT 10SM BKN048 18/13 A2983 130 70 600 170/06G15 RMK AO2 T01830128
13976KLFT LFT20191125170511211/25/19 17:05:31  5-MIN KLFT 252305Z 16005KT 10SM BKN048 OVC055 18/13 A2982 130 70 600 160/05 RMK AO2 T01830128
13976KLFT LFT20191125171011211/25/19 17:10:31  5-MIN KLFT 252310Z 16007KT 10SM BKN048 OVC055 18/13 A2982 130 70 600 160/07 RMK AO2 T01830128
13976KLFT LFT20191125171511111/25/19 17:15:31  5-MIN KLFT 252315Z 16009G14KT 10SM OVC047 18/13 A2982 130 70 600 160/09G14 RMK AO2 T01830128
13976KLFT LFT20191125172010511/25/19 17:20:31  5-MIN KLFT 252320Z 17007KT 10SM BKN047 18/13 A2982 130 72 500 160/07 RMK AO2 T01780128
13976KLFT LFT20191125172510511/25/19 17:25:31  5-MIN KLFT 252325Z 17006KT 10SM BKN047 18/13 A2982 130 72 500 160/06 RMK AO2 T01780128
13976KLFT LFT20191125173010511/25/19 17:30:31  5-MIN KLFT 252330Z 16007KT 10SM BKN047 18/13 A2982 140 72 500 160/07 RMK AO2 T01780128
13976KLFT LFT20191125173511211/25/19 17:35:31  5-MIN KLFT 252335Z 16006KT 10SM BKN047 BKN055 18/13 A2982 140 72 500 160/06 RMK AO2 T01780128
13976KLFT LFT20191125174010511/25/19 17:40:31  5-MIN KLFT 252340Z 16004KT 10SM BKN049 18/13 A2982 140 72 500 160/04 RMK AO2 T01780128
13976KLFT LFT20191125174510511/25/19 17:45:31  5-MIN KLFT 252345Z 14004KT 10SM BKN049 18/13 A2982 140 72 500 140/04 RMK AO2 T01780128
13976KLFT LFT20191125175013011/25/19 17:50:31  5-MIN KLFT 252350Z VRB06KT 10SM BKN049 18/13 A2981 140 72 500 VRB/06 RMK AO2 SLP095 T01780128 10211 20178 56017
13976KLFT LFT20191125175510511/25/19 17:55:31  5-MIN KLFT 252355Z 16007KT 10SM BKN049 18/13 A2982 140 72 500 160/07 RMK AO2 T01780128
13976KLFT LFT20191125180011111/25/19 18:00:31  5-MIN KLFT 260000Z 16007G14KT 10SM BKN050 18/13 A2982 140 72 500 160/07G14 RMK AO2 T01780128
13976KLFT LFT20191125180511111/25/19 18:05:31  5-MIN KLFT 260005Z 16008G14KT 10SM BKN050 17/13 A2982 140 75 500 160/08G14 RMK AO2 T01720128
13976KLFT LFT20191125181010511/25/19 18:10:31  5-MIN KLFT 260010Z 15006KT 10SM BKN055 17/13 A2982 140 75 500 150/06 RMK AO2 T01720128
13976KLFT LFT20191125181510511/25/19 18:15:31  5-MIN KLFT 260015Z 15006KT 10SM SCT055 17/13 A2982 140 75 500 150/06 RMK AO2 T01720128
13976KLFT LFT20191125182010511/25/19 18:20:31  5-MIN KLFT 260020Z 16005KT 10SM SCT055 17/13 A2981 140 75 500 150/05 RMK AO2 T01720128
13976KLFT LFT20191125182510511/25/19 18:25:31  5-MIN KLFT 260025Z 15004KT 10SM SCT055 17/13 A2981 140 75 500 150/04 RMK AO2 T01720128
13976KLFT LFT20191125183010511/25/19 18:30:31  5-MIN KLFT 260030Z VRB03KT 10SM BKN055 17/13 A2981 150 75 500 VRB/03 RMK AO2 T01720128
13976KLFT LFT20191125183510511/25/19 18:35:31  5-MIN KLFT 260035Z 16005KT 10SM BKN055 17/13 A2981 140 75 500 160/05 RMK AO2 T01720128
13976KLFT LFT20191125184010511/25/19 18:40:31  5-MIN KLFT 260040Z 16005KT 10SM BKN055 17/13 A2982 140 75 500 160/05 RMK AO2 T01720128
13976KLFT LFT20191125184510511/25/19 18:45:31  5-MIN KLFT 260045Z 16005KT 10SM BKN055 17/13 A2982 140 75 500 160/05 RMK AO2 T01720128
13976KLFT LFT20191125185011211/25/19 18:50:31  5-MIN KLFT 260050Z 16005KT 10SM OVC055 17/13 A2982 140 75 500 160/05 RMK AO2 SLP096 T01720128
13976KLFT LFT20191125185510511/25/19 18:55:31  5-MIN KLFT 260055Z 16005KT 10SM BKN055 17/13 A2982 140 75 500 160/05 RMK AO2 T01720128
13976KLFT LFT20191125190010511/25/19 19:00:31  5-MIN KLFT 260100Z 16005KT 10SM BKN055 17/13 A2982 140 75 500 160/05 RMK AO2 T01720128
13976KLFT LFT20191125190510511/25/19 19:05:31  5-MIN KLFT 260105Z VRB04KT 10SM BKN055 17/13 A2981 140 77 400 VRB/04 RMK AO2 T01670128
13976KLFT LFT20191125191010511/25/19 19:10:31  5-MIN KLFT 260110Z 16005KT 10SM BKN055 17/13 A2982 140 75 500 160/05 RMK AO2 T01720128
13976KLFT LFT20191125191510511/25/19 19:15:31  5-MIN KLFT 260115Z 16006KT 10SM BKN055 17/13 A2982 130 75 500 150/06 RMK AO2 T01720128
13976KLFT LFT20191125192010511/25/19 19:20:31  5-MIN KLFT 260120Z 16007KT 10SM BKN055 17/13 A2983 130 78 500 160/07 RMK AO2 T01720133
13976KLFT LFT20191125192510511/25/19 19:25:31  5-MIN KLFT 260125Z 17006KT 10SM BKN055 17/13 A2983 120 78 500 170/06 RMK AO2 T01720133
13976KLFT LFT20191125193010511/25/19 19:30:31  5-MIN KLFT 260130Z VRB06KT 10SM OVC055 17/13 A2983 130 78 500 VRB/06 RMK AO2 T01720133
13976KLFT LFT20191125193510511/25/19 19:35:31  5-MIN KLFT 260135Z 15006KT 10SM OVC055 17/13 A2983 130 78 500 150/06 RMK AO2 T01720133
13976KLFT LFT20191125194010511/25/19 19:40:31  5-MIN KLFT 260140Z 17007KT 10SM OVC055 17/13 A2983 120 78 500 160/07 RMK AO2 T01720133
13976KLFT LFT20191125194512711/25/19 19:45:31  5-MIN KLFT 260145Z 15009G15KT 120V190 10SM OVC055 17/13 A2983 120 78 500 150/09G15 120V190 RMK AO2 T01720133
13976KLFT LFT20191125195011211/25/19 19:50:31  5-MIN KLFT 260150Z 16009KT 10SM OVC055 17/13 A2983 120 78 500 160/09 RMK AO2 SLP102 T01720133
13976KLFT LFT20191125195510511/25/19 19:55:31  5-MIN KLFT 260155Z 16006KT 10SM OVC055 17/13 A2984 120 78 500 160/06 RMK AO2 T01720133
13976KLFT LFT20191125200010511/25/19 20:00:31  5-MIN KLFT 260200Z 17006KT 10SM OVC055 17/13 A2984 120 78 500 160/06 RMK AO2 T01720133
13976KLFT LFT20191127040011611/27/19 04:00:31  5-MIN KLFT 271000Z AUTO 19006KT 7SM SCT008 OVC021 23/22 A2994 20 93 1000 190/06 RMK AO2 T02280217
13976KLFT LFT20191127040511611/27/19 04:05:31  5-MIN KLFT 271005Z AUTO 19007KT 7SM BKN008 OVC021 23/22 A2994 30 93 1000 190/07 RMK AO2 T02280217
13976KLFT LFT20191127041012311/27/19 04:10:31  5-MIN KLFT 271010Z AUTO 19007KT 7SM BKN008 BKN021 OVC045 23/22 A2994 30 93 1000 190/07 RMK AO2 T02280217
13976KLFT LFT20191127041512311/27/19 04:15:31  5-MIN KLFT 271015Z AUTO 19008KT 7SM BKN008 BKN021 OVC045 23/22 A2994 20 93 1000 190/08 RMK AO2 T02280217
13976KLFT LFT20191127042012311/27/19 04:20:31  5-MIN KLFT 271020Z AUTO 19008KT 7SM BKN008 BKN021 OVC085 23/22 A2994 20 93 1000 190/08 RMK AO2 T02280217
13976KLFT LFT20191127042512311/27/19 04:25:31  5-MIN KLFT 271025Z AUTO 19006KT 7SM BKN008 BKN019 OVC080 23/22 A2994 20 93 1000 190/06 RMK AO2 T02280217
13976KLFT LFT20191127043012311/27/19 04:30:31  5-MIN KLFT 271030Z AUTO 19007KT 7SM BKN008 BKN019 OVC085 23/22 A2995 20 93 1000 190/07 RMK AO2 T02280217
13976KLFT LFT20191127043513411/27/19 04:35:31  5-MIN KLFT 271035Z AUTO 21007KT 7SM BKN008 BKN019 OVC085 23/22 A2995 20 93 1000 200/07 RMK AO2 LTG DSNT N T02280217
13976KLFT LFT20191127044012311/27/19 04:40:31  5-MIN KLFT 271040Z AUTO 20008KT 6SM BR OVC008 23/22 A2995 20 93 1000 200/08 RMK AO2 LTG DSNT N T02280217
13976KLFT LFT20191127044513011/27/19 04:45:31  5-MIN KLFT 271045Z AUTO 20008KT 6SM BR BKN008 OVC080 23/21 A2995 20 90 1000 200/08 RMK AO2 LTG DSNT N T02280211
13976KLFT LFT20191127045013611/27/19 04:50:31  5-MIN KLFT 271050Z AUTO 20006KT 6SM BR BKN008 OVC041 22/21 A2995 20 93 900 200/06 RMK AO2 LTG DSNT N SLP141 T02220211
13976KLFT LFT20191127045513011/27/19 04:55:31  5-MIN KLFT 271055Z AUTO 20006KT 6SM BR BKN008 OVC041 22/21 A2995 10 93 900 200/06 RMK AO2 LTG DSNT NE T02220211
13976KLFT LFT20191127050015911/27/19 05:00:31  5-MIN KLFT 271100Z AUTO VRB03KT 5SM -RA BR BKN008 OVC041 22/22 A2997 0 97 900 VRB/03 RMK AO2 LTG DSNT NE RAB1059 CIG 004V010 P0000 T02220217
13976KLFT LFT20191127050515911/27/19 05:05:31  5-MIN KLFT 271105Z AUTO 33010KT 4SM +RA BR BKN006 OVC012 23/22 A2997 0 93 900 330/10 RMK AO2 LTG DSNT NE RAB1059 CIG 004V010 P0002 T02280217
13976KLFT LFT20191127051015311/27/19 05:10:31  5-MIN KLFT 271110Z 34011KT 1 3/4SM +RA BR SCT004 BKN008 OVC018 22/20 A2997 0 90 800 340/11 RMK AO2 LTG DSNT NE RAB1059 P0020 T02170200
13976KLFT LFT20191127051514211/27/19 05:15:31  5-MIN KLFT 271115Z 30005KT 2SM +RA BR SCT008 OVC016 22/20 A2997 0 90 800 300/05 RMK AO2 LTG DSNT NE RAB1059 P0044 T02170200
13976KLFT LFT20191127052014811/27/19 05:20:31  5-MIN KLFT 271120Z 14003KT 2SM +RA BR SCT005 SCT013 OVC018 21/20 A2997 0 93 700 140/03 RMK AO2 LTG DSNT W RAB1059 P0056 T02110200
13976KLFT LFT20191127052514511/27/19 05:25:31  5-MIN KLFT 271125Z 2SM +RA BR FEW005 BKN018 OVC038 21/19 A2998 0 90 700 M /M RMK AO2 LTG DSNT NE AND W RAB1059 P0059 T02110194
13976KLFT LFT20191127053015111/27/19 05:30:31  5-MIN KLFT 271130Z 22004KT 2SM +RA BR FEW005 BKN024 OVC036 21/19 A2997 0 90 800 220/04 RMK AO2 LTG DSNT W-NE RAB1059 P0064 T02110194
13976KLFT LFT20191127053515311/27/19 05:35:31  5-MIN KLFT 271135Z 24005KT 2SM +RA BR FEW016 BKN024 OVC036 21/19 A2999 -10 90 700 240/05 RMK AO2 LTG DSNT W-NE RAB1059 P0067 T02110194
13976KLFT LFT20191127054015311/27/19 05:40:31  5-MIN KLFT 271140Z 29010KT 2SM +RA BR FEW012 BKN022 OVC036 21/19 A2998 -10 90 700 290/10 RMK AO2 LTG DSNT W-NE RAB1059 P0075 T02110194
13976KLFT LFT20191127054516211/27/19 05:45:31  5-MIN KLFT 271145Z 28008KT 2SM VCTS +RA BR FEW012 BKN022 OVC036 21/19 A2999 -20 90 700 280/08 RMK AO2 LTG DSNT NE AND W RAB1059 P0088 T02110194
13976KLFT LFT20191127055014711/27/19 05:50:31  5-MIN KLFT 271150Z 28006KT 3/4SM VCTS +RA BR BKN022 OVC036 21/19 A2999 -20 90 700 280/06 RMK AO2 LTG DSNT NE AND W RAB1059 P0102
13976KLFT LFT20191127055514211/27/19 05:55:31  5-MIN KLFT 271155Z 27006KT 3/4SM VCTS +RA BR BKN022 21/20 A3000 -30 93 700 270/06 RMK AO2 LTG DSNT NE AND W P0004 T02110200
13976KLFT LFT20191127060013011/27/19 06:00:31  5-MIN KLFT 271200Z 30003KT 1/2SM +RA FG OVC010 21/20 A3001 -30 93 700 300/03 RMK AO2 LTG DSNT W P0023 T02110200
13976KLFT LFT20191127060513711/27/19 06:05:31  5-MIN KLFT 271205Z 00000KT 1/2SM +RA FG OVC010 21/20 A3001 -40 93 700 000/00 RMK AO2 LTG DSNT W PRESRR P0033 T02110200
13976KLFT LFT20191127061013811/27/19 06:10:31  5-MIN KLFT 271210Z 24006KT 1/2SM +TSRA FG OVC010 21/20 A3001 -40 93 700 240/06 RMK AO2 LTG DSNT W TSB08 P0054 T02110200
13976KLFT LFT20191127061514511/27/19 06:15:31  5-MIN KLFT 271215Z 22006KT 1/2SM +TSRA FG OVC010 21/20 A3001 -30 93 700 220/06 RMK AO2 LTG DSNT SW AND W TSB08 P0071 T02110200
13976KLFT LFT20191127062014511/27/19 06:20:31  5-MIN KLFT 271220Z 21010KT 3/4SM +TSRA BR OVC010 21/20 A3001 -30 93 700 210/10 RMK AO2 LTG DSNT SW AND W TSB08 P0087 T02110200
13976KLFT LFT20191127062515511/27/19 06:25:31  5-MIN KLFT 271225Z 19011KT 1SM VCTS +RA BR OVC010 21/20 A3002 -40 93 700 190/11 RMK AO2 LTG DSNT E AND SW AND W TSB08E23 P0095 T02110200
13976KLFT LFT20191127063015911/27/19 06:30:31  5-MIN KLFT 271230Z VRB05KT 1 1/2SM VCTS +RA BR OVC010 21/20 A3004 -60 93 700 VRB/05 RMK AO2 LTG DSNT E AND W TSB08E23 PRESRR P0099 T02110200
13976KLFT LFT20191127063515411/27/19 06:35:31  5-MIN KLFT 271235Z 2SM +TSRA OVC010 17/13 A3006 -80 77 100 M /M RMK AO2 PK WND 36027/1235 LTG DSNT E TSB08E23B32 PRESRR P0103 T01670128
13976KLFT LFT20191127064017311/27/19 06:40:31  5-MIN KLFT 271240Z 36022G30KT 2 1/2SM +TSRA OVC010 15/09 A3007 -90 69 0 360/22G30 RMK AO2 PK WND 35030/1236 VIS 1 3/4V3 TSB08E23B32 PRESRR P0107 T01500094
13976KLFT LFT20191127064515411/27/19 06:45:31  5-MIN KLFT 271245Z 36016G30KT 3SM +TSRA OVC010 14/09 A3008 -100 72 -100 360/16G30 RMK AO2 PK WND 35030/1236 TSB08E23B32 P0109 T01440094
13976KLFT LFT20191127065014511/27/19 06:50:31  5-MIN KLFT 271250Z 01014G24KT 2SM +RA OVC010 14/09 A3008 -100 72 -100 360/14G24 RMK AO2 PK WND 35030/1236 TSB08E23B32E47 P0111
13976KLFT LFT20191127065513611/27/19 06:55:31  5-MIN KLFT 271255Z 36015G22KT 4SM +RA FEW025 BKN033 OVC043 14/10 A3008 -100 77 -200 360/15G22 RMK AO2 P0001 T01390100
13976KLFT LFT20191127070012911/27/19 07:00:31  5-MIN KLFT 271300Z 36013KT 5SM RA FEW022 BKN033 OVC043 14/10 A3009 -100 77 -200 360/13 RMK AO2 P0001 T01390100
13976KLFT LFT20191127070512211/27/19 07:05:31  5-MIN KLFT 271305Z 03013KT 7SM RA BKN033 OVC045 14/09 A3008 -100 74 -200 030/13 RMK AO2 P0002 T01390094
13976KLFT LFT20191127071013011/27/19 07:10:31  5-MIN KLFT 271310Z 04009KT 7SM +RA SCT029 BKN035 OVC045 14/09 A3009 -110 74 -200 040/09 RMK AO2 P0003 T01390094
13976KLFT LFT20191127071512911/27/19 07:15:31  5-MIN KLFT 271315Z 04007KT 6SM RA SCT029 BKN035 OVC045 13/09 A3010 -120 77 -300 040/07 RMK AO2 P0004 T01330094
13976KLFT LFT20191127072012311/27/19 07:20:31  5-MIN KLFT 271320Z 02007KT 8SM -RA BKN029 OVC043 13/09 A3010 -120 77 -300 020/07 RMK AO2 P0004 T01330094
13976KLFT LFT20191127072513111/27/19 07:25:31  5-MIN KLFT 271325Z 04004KT 10SM -RA BKN029 BKN036 OVC043 14/10 A3010 -110 77 -200 040/04 RMK AO2 P0004 T01390100
13976KLFT LFT20191127073013311/27/19 07:30:31  5-MIN KLFT 271330Z 03004KT 10SM BKN031 BKN045 OVC070 13/10 A3011 -120 80 -300 030/04 RMK AO2 RAE29 P0004 T01330100
13976KLFT LFT20191127073513311/27/19 07:35:31  5-MIN KLFT 271335Z 33004KT 10SM SCT029 BKN039 OVC070 14/10 A3012 -130 77 -200 330/04 RMK AO2 RAE29 P0004 T01390100
13976KLFT LFT20191127074014011/27/19 07:40:31  5-MIN KLFT 271340Z 31005KT 10SM BKN035 BKN043 OVC070 14/10 A3012 -140 74 -200 310/05 RMK AO2 RAE29 PRESRR P0004 T01440100
13976KLFT LFT20191127074513911/27/19 07:45:31  5-MIN KLFT 271345Z 34003KT 5SM -RA FEW023 BKN038 OVC070 14/10 A3013 -140 74 -200 330/03 RMK AO2 RAE29B44 P0006 T01440100
13976KLFT LFT20191127075012911/27/19 07:50:31  5-MIN KLFT 271350Z 35005KT 2SM +RA FEW023 BKN037 OVC070 14/11 A3013 -150 80 -200 350/05 RMK AO2 RAE29B44 P0009
13976KLFT LFT20191127075512311/27/19 07:55:31  5-MIN KLFT 271355Z 35008KT 3SM +RA BKN039 OVC070 14/11 A3013 -150 80 -200 350/08 RMK AO2 P0000 T01390106
13976KLFT LFT20191127080012311/27/19 08:00:31  5-MIN KLFT 271400Z 01006KT 3SM +RA BKN041 OVC070 14/11 A3014 -150 80 -200 360/06 RMK AO2 P0001 T01390106
13976KLFT LFT20191127080513711/27/19 08:05:31  5-MIN KLFT 271405Z 00000KT 3SM +RA FEW038 BKN045 OVC070 14/10 A3015 -160 77 -200 000/00 RMK AO2 PRESRR P0002 T01390100
13976KLFT LFT20191127081013011/27/19 08:10:31  5-MIN KLFT 271410Z 31006KT 3SM +RA BKN043 OVC065 14/11 A3016 -170 77 -200 310/06 RMK AO2 PRESRR P0004 T01440106
13976KLFT LFT20191127081512311/27/19 08:15:31  5-MIN KLFT 271415Z 30005KT 3SM +RA BKN041 OVC060 14/11 A3016 -170 77 -200 300/05 RMK AO2 P0005 T01440106
13976KLFT LFT20191127082012911/27/19 08:20:31  5-MIN KLFT 271420Z 31007KT 3SM RA FEW039 SCT048 OVC060 14/11 A3016 -180 80 -200 310/07 RMK AO2 P0005 T01440111
13976KLFT LFT20191127082512311/27/19 08:25:31  5-MIN KLFT 271425Z 01011KT 3SM -RA SCT039 OVC060 14/10 A3017 -180 74 -200 360/11 RMK AO2 P0005 T01440100
13976KLFT LFT20191127083012311/27/19 08:30:31  5-MIN KLFT 271430Z 01013KT 3SM -RA BKN039 OVC060 15/09 A3017 -180 66 -100 010/13 RMK AO2 P0005 T01500089
13976KLFT LFT20191127083512311/27/19 08:35:31  5-MIN KLFT 271435Z 02013KT 3SM -RA BKN039 OVC060 14/08 A3017 -180 66 -200 020/13 RMK AO2 P0005 T01440083
13976KLFT LFT20191127084013411/27/19 08:40:31  5-MIN KLFT 271440Z 04010KT 3SM -RA BKN039 OVC055 14/09 A3018 -190 69 -200 040/10 RMK AO2 WSHFT 1423 P0005 T01440089
13976KLFT LFT20191127084513911/27/19 08:45:31  5-MIN KLFT 271445Z 04010KT 3SM HZ BKN039 OVC055 14/08 A3017 -180 66 -200 040/10 RMK AO2 WSHFT 1423 RAE41 P0005 T01440083
13976KLFT LFT20191127085015811/27/19 08:50:31  5-MIN KLFT 271450Z 04010KT 3SM HZ BKN039 OVC055 14/09 A3018 -190 71 -300 040/10 RMK AO2 WSHFT 1423 RAE41 SLP218 P0005 60127 T01390089 53018
13976KLFT LFT20191127085511411/27/19 08:55:31  5-MIN KLFT 271455Z 36012KT 10SM BKN039 OVC055 14/10 A3017 -180 77 -300 360/12 RMK AO2 T01390100
13976KLFT LFT20191127090014011/27/19 09:00:31  5-MIN KLFT 271500Z 02014G20KT 4SM -RA BR BKN039 OVC060 13/10 A3016 -180 80 -300 020/14G20 RMK AO2 RAB1456 P0001 T01330100
13976KLFT LFT20191127090514111/27/19 09:05:31  5-MIN KLFT 271505Z 04015KT 4SM -RA BR FEW039 SCT045 OVC060 13/08 A3017 -180 69 -300 040/15 RMK AO2 RAB1456 P0001 T01330078
13976KLFT LFT20191127091014711/27/19 09:10:31  5-MIN KLFT 271510Z 05012G21KT 4SM -RA BR FEW038 FEW045 OVC060 13/07 A3017 -180 66 -300 050/12G21 RMK AO2 RAB1456 P0001 T01330072
13976KLFT LFT20191127091514011/27/19 09:15:31  5-MIN KLFT 271515Z 05008G18KT 4SM -RA BR FEW041 OVC065 14/07 A3017 -180 64 -300 040/08G18 RMK AO2 RAB1456 P0001 T01390072
13976KLFT LFT20191127092013411/27/19 09:20:31  5-MIN KLFT 271520Z 05005KT 4SM -RA BR FEW039 OVC065 14/08 A3018 -190 66 -300 050/05 RMK AO2 RAB1456 P0001 T01390078
13976KLFT LFT20191127092512711/27/19 09:25:31  5-MIN KLFT 271525Z 06006KT 4SM -RA BR OVC065 14/08 A3018 -190 66 -300 060/06 RMK AO2 RAB1456 P0001 T01390078
13976KLFT LFT20191127093012711/27/19 09:30:31  5-MIN KLFT 271530Z 05004KT 4SM -RA BR OVC060 14/08 A3018 -190 69 -300 050/04 RMK AO2 RAB1456 P0001 T01390083
13976KLFT LFT20191127093512711/27/19 09:35:31  5-MIN KLFT 271535Z 04007KT 4SM -RA BR OVC060 14/09 A3018 -190 69 -200 040/07 RMK AO2 RAB1456 P0001 T01440089
13976KLFT LFT20191127094013411/27/19 09:40:31  5-MIN KLFT 271540Z 04006KT 4SM -RA BR BKN060 OVC075 14/09 A3018 -190 72 -200 040/06 RMK AO2 RAB1456 P0001 T01440094
13976KLFT LFT20191127094513411/27/19 09:45:31  5-MIN KLFT 271545Z 03008KT 4SM -RA BR BKN065 BKN080 16/10 A3017 -180 69 -100 030/08 RMK AO2 RAB1456 P0001 T01560100
13976KLFT LFT20191127095013811/27/19 09:50:31  5-MIN KLFT 271550Z 03008KT 10SM SCT060 BKN075 16/10 A3018 -190 69 -100 030/08 RMK AO2 RAB1456E50 SLP218 P0001 T01560100
13976KLFT LFT20191127095511111/27/19 09:55:31  5-MIN KLFT 271555Z 03009KT 10SM SCT065 BKN095 17/09 A3018 -190 62 0 030/09 RMK AO2 T01670094
13976KLFT LFT20191127100011311/27/19 10:00:31  5-MIN KLFT 271600Z 04010KT 10SM FEW065 BKN095 17/09 A3017 -180 60 100 030/10 RMK AO2 T01720094
13976KLFT LFT20191127100511311/27/19 10:05:31  5-MIN KLFT 271605Z 03010KT 10SM FEW075 SCT095 17/08 A3017 -190 55 100 030/10 RMK AO2 T01720083
13976KLFT LFT20191127101010611/27/19 10:10:31  5-MIN KLFT 271610Z 03011KT 10SM FEW095 17/08 A3017 -180 55 100 030/11 RMK AO2 T01720083
13976KLFT LFT20191127101510611/27/19 10:15:31  5-MIN KLFT 271615Z 03011KT 10SM FEW095 18/08 A3017 -180 51 100 030/11 RMK AO2 T01780078
13976KLFT LFT20191127102010611/27/19 10:20:31  5-MIN KLFT 271620Z 05008KT 10SM FEW095 18/07 A3018 -190 49 100 050/08 RMK AO2 T01780072
13976KLFT LFT20191127102510311/27/19 10:25:31  5-MIN KLFT 271625Z 03011KT 10SM CLR 18/07 A3017 -190 46 200 030/11 RMK AO2 T01830067
13976KLFT LFT20191127103010311/27/19 10:30:31  5-MIN KLFT 271630Z 03014KT 10SM CLR 18/07 A3017 -180 46 200 020/14 RMK AO2 T01830067
13976KLFT LFT20191127103510311/27/19 10:35:31  5-MIN KLFT 271635Z 03012KT 10SM CLR 18/07 A3017 -180 46 200 030/12 RMK AO2 T01830067
13976KLFT LFT20191127104010911/27/19 10:40:31  5-MIN KLFT 271640Z 04013G18KT 10SM CLR 18/06 A3017 -180 44 200 040/13G18 RMK AO2 T01830061
13976KLFT LFT20191127104510911/27/19 10:45:31  5-MIN KLFT 271645Z 04012G18KT 10SM CLR 19/06 A3017 -180 41 300 040/12G18 RMK AO2 T01890056
13976KLFT LFT20191127105011611/27/19 10:50:31  5-MIN KLFT 271650Z 04017G21KT 10SM CLR 19/05 A3017 -180 39 300 040/17G21 RMK AO2 SLP216 T01890050
13976KLFT LFT20191127105510911/27/19 10:55:31  5-MIN KLFT 271655Z 04015G21KT 10SM CLR 19/04 A3017 -180 38 300 040/15G21 RMK AO2 T01890044
13976KLFT LFT20191127110010911/27/19 11:00:31  5-MIN KLFT 271700Z 04011G19KT 10SM CLR 19/04 A3016 -180 38 300 040/11G19 RMK AO2 T01890044
13976KLFT LFT20191127110510311/27/19 11:05:31  5-MIN KLFT 271705Z 04013KT 10SM CLR 19/04 A3016 -180 36 300 040/13 RMK AO2 T01890039
13976KLFT LFT20191127111010911/27/19 11:10:31  5-MIN KLFT 271710Z 05011G18KT 10SM CLR 19/04 A3016 -170 35 300 050/11G18 RMK AO2 T01940039
13976KLFT LFT20191127111510911/27/19 11:15:31  5-MIN KLFT 271715Z 04012G18KT 10SM CLR 19/04 A3016 -170 35 300 040/12G18 RMK AO2 T01940039
13976KLFT LFT20191127112010311/27/19 11:20:31  5-MIN KLFT 271720Z 05014KT 10SM CLR 19/04 A3016 -170 35 300 050/14 RMK AO2 T01940039
13976KLFT LFT20191127112510311/27/19 11:25:31  5-MIN KLFT 271725Z 04010KT 10SM CLR 19/04 A3016 -170 37 300 040/10 RMK AO2 T01940044
13976KLFT LFT20191127113010311/27/19 11:30:31  5-MIN KLFT 271730Z 03014KT 10SM CLR 20/04 A3015 -170 34 400 030/14 RMK AO2 T02000039
13976KLFT LFT20191127113510311/27/19 11:35:31  5-MIN KLFT 271735Z 05011KT 10SM CLR 20/04 A3015 -170 35 400 050/11 RMK AO2 T02000044
13976KLFT LFT20191127114010911/27/19 11:40:31  5-MIN KLFT 271740Z 03013G18KT 10SM CLR 20/03 A3015 -170 33 400 030/13G18 RMK AO2 T02000033
13976KLFT LFT20191127114510311/27/19 11:45:31  5-MIN KLFT 271745Z 04013KT 10SM CLR 20/03 A3015 -160 33 400 040/13 RMK AO2 T02000033
13976KLFT LFT20191127115014011/27/19 11:50:31  5-MIN KLFT 271750Z 04014G18KT 10SM CLR 20/03 A3015 -160 33 400 040/14G18 RMK AO2 SLP210 60128 T02000033 10211 20133 51061
13976KLFT LFT20191127115510311/27/19 11:55:31  5-MIN KLFT 271755Z 03015KT 10SM CLR 21/04 A3015 -160 33 500 030/15 RMK AO2 T02060039
13976KLFT LFT20191127120010311/27/19 12:00:31  5-MIN KLFT 271800Z 04012KT 10SM CLR 21/04 A3015 -160 33 500 040/12 RMK AO2 T02060039
13976KLFT LFT20191127120510311/27/19 12:05:31  5-MIN KLFT 271805Z 04014KT 10SM CLR 20/03 A3015 -160 31 400 040/14 RMK AO2 T02000028
13976KLFT LFT20191127121010911/27/19 12:10:31  5-MIN KLFT 271810Z 04016G20KT 10SM CLR 20/03 A3014 -160 31 400 040/16G20 RMK AO2 T02000028
13976KLFT LFT20191127121510911/27/19 12:15:31  5-MIN KLFT 271815Z 04014G20KT 10SM CLR 19/03 A3014 -150 33 400 040/14G20 RMK AO2 T01940028
13976KLFT LFT20191127122010311/27/19 12:20:31  5-MIN KLFT 271820Z 04010KT 10SM CLR 19/02 A3014 -160 31 400 040/10 RMK AO2 T01940022
13976KLFT LFT20191127122510311/27/19 12:25:31  5-MIN KLFT 271825Z 04012KT 10SM CLR 20/03 A3014 -150 33 400 040/12 RMK AO2 T02000033
13976KLFT LFT20191127123010311/27/19 12:30:31  5-MIN KLFT 271830Z 03011KT 10SM CLR 20/03 A3014 -150 31 400 030/11 RMK AO2 T02000028
13976KLFT LFT20191127123510311/27/19 12:35:31  5-MIN KLFT 271835Z 03012KT 10SM CLR 21/03 A3014 -150 32 500 030/12 RMK AO2 T02060033
13976KLFT LFT20191127124010311/27/19 12:40:31  5-MIN KLFT 271840Z 03012KT 10SM CLR 21/03 A3014 -150 30 500 030/12 RMK AO2 T02060028
13976KLFT LFT20191127124510311/27/19 12:45:31  5-MIN KLFT 271845Z 03013KT 10SM CLR 21/03 A3014 -150 30 600 030/13 RMK AO2 T02110033
13976KLFT LFT20191127125011011/27/19 12:50:31  5-MIN KLFT 271850Z 03012KT 10SM CLR 21/03 A3014 -150 29 600 030/12 RMK AO2 SLP204 T02110028
13976KLFT LFT20191127125510311/27/19 12:55:31  5-MIN KLFT 271855Z 03013KT 10SM CLR 22/03 A3014 -150 29 600 030/13 RMK AO2 T02170033
13976KLFT LFT20191127130010311/27/19 13:00:31  5-MIN KLFT 271900Z 03011KT 10SM CLR 21/02 A3014 -150 29 500 030/11 RMK AO2 T02060022
13976KLFT LFT20191127130510311/27/19 13:05:31  5-MIN KLFT 271905Z 04010KT 10SM CLR 21/03 A3013 -150 30 500 040/10 RMK AO2 T02060028
13976KLFT LFT20191127131010311/27/19 13:10:31  5-MIN KLFT 271910Z 04011KT 10SM CLR 21/03 A3013 -150 29 600 040/11 RMK AO2 T02110028
13976KLFT LFT20191127131510311/27/19 13:15:31  5-MIN KLFT 271915Z 05010KT 10SM CLR 21/02 A3013 -150 28 600 050/10 RMK AO2 T02110022
13976KLFT LFT20191127132010311/27/19 13:20:31  5-MIN KLFT 271920Z 04009KT 10SM CLR 21/03 A3013 -150 29 600 040/09 RMK AO2 T02110028
13976KLFT LFT20191127132510911/27/19 13:25:31  5-MIN KLFT 271925Z 02012G18KT 10SM CLR 21/02 A3013 -150 28 600 020/12G18 RMK AO2 T02110022
13976KLFT LFT20191127133010311/27/19 13:30:31  5-MIN KLFT 271930Z 04011KT 10SM CLR 21/03 A3013 -150 30 600 040/11 RMK AO2 T02110033
13976KLFT LFT20191127133510311/27/19 13:35:31  5-MIN KLFT 271935Z 04012KT 10SM CLR 22/03 A3013 -150 29 600 040/12 RMK AO2 T02170033
13976KLFT LFT20191127134010311/27/19 13:40:31  5-MIN KLFT 271940Z 02013KT 10SM CLR 22/03 A3013 -140 28 600 020/13 RMK AO2 T02170028
13976KLFT LFT20191127134510311/27/19 13:45:31  5-MIN KLFT 271945Z 04009KT 10SM CLR 21/03 A3013 -140 29 600 040/09 RMK AO2 T02110028
13976KLFT LFT20191127135011011/27/19 13:50:31  5-MIN KLFT 271950Z 04011KT 10SM CLR 22/03 A3013 -150 29 600 040/11 RMK AO2 SLP202 T02170033
13976KLFT LFT20191127135510311/27/19 13:55:31  5-MIN KLFT 271955Z 05010KT 10SM CLR 22/03 A3013 -140 28 600 050/10 RMK AO2 T02170028
13976KLFT LFT20191127140010311/27/19 14:00:31  5-MIN KLFT 272000Z 06009KT 10SM CLR 22/02 A3013 -140 27 600 060/09 RMK AO2 T02170022
13976KLFT LFT20191127140510311/27/19 14:05:31  5-MIN KLFT 272005Z 02010KT 10SM CLR 21/02 A3013 -150 28 600 020/10 RMK AO2 T02110022
13976KLFT LFT20191127141010311/27/19 14:10:31  5-MIN KLFT 272010Z 05011KT 10SM CLR 22/03 A3013 -140 28 600 050/11 RMK AO2 T02170028
13976KLFT LFT20191127141510911/27/19 14:15:31  5-MIN KLFT 272015Z 04011G17KT 10SM CLR 22/03 A3013 -140 28 600 040/11G17 RMK AO2 T02170028
13976KLFT LFT20191127142010311/27/19 14:20:31  5-MIN KLFT 272020Z 04013KT 10SM CLR 22/03 A3013 -140 28 600 040/13 RMK AO2 T02170028
13976KLFT LFT20191127142510311/27/19 14:25:31  5-MIN KLFT 272025Z 03013KT 10SM CLR 22/03 A3013 -140 28 600 030/13 RMK AO2 T02170028
13976KLFT LFT20191127143010311/27/19 14:30:31  5-MIN KLFT 272030Z 04013KT 10SM CLR 22/03 A3012 -140 28 600 040/13 RMK AO2 T02170028
13976KLFT LFT20191127143510311/27/19 14:35:31  5-MIN KLFT 272035Z 05010KT 10SM CLR 22/03 A3012 -130 28 600 040/10 RMK AO2 T02170028
13976KLFT LFT20191127144010311/27/19 14:40:31  5-MIN KLFT 272040Z 05008KT 10SM CLR 22/02 A3012 -140 27 600 050/08 RMK AO2 T02170022
13976KLFT LFT20191127144510311/27/19 14:45:31  5-MIN KLFT 272045Z 06008KT 10SM CLR 22/03 A3012 -140 28 600 060/08 RMK AO2 T02170028
13976KLFT LFT20191127145011611/27/19 14:50:31  5-MIN KLFT 272050Z 05009KT 10SM CLR 22/03 A3012 -130 28 600 050/09 RMK AO2 SLP199 T02170028 58008
13976KLFT LFT20191127145510311/27/19 14:55:31  5-MIN KLFT 272055Z 05007KT 10SM CLR 22/03 A3012 -130 28 600 050/07 RMK AO2 T02170028
13976KLFT LFT20191127150010311/27/19 15:00:31  5-MIN KLFT 272100Z 05010KT 10SM CLR 22/03 A3012 -130 28 600 040/10 RMK AO2 T02170028
13976KLFT LFT20191127150510311/27/19 15:05:31  5-MIN KLFT 272105Z 02012KT 10SM CLR 22/04 A3012 -130 31 700 020/12 RMK AO2 T02170039
13976KLFT LFT20191127151010311/27/19 15:10:31  5-MIN KLFT 272110Z 36011KT 10SM CLR 22/03 A3012 -130 29 600 360/11 RMK AO2 T02170033
13976KLFT LFT20191127151510311/27/19 15:15:31  5-MIN KLFT 272115Z 01009KT 10SM CLR 22/03 A3012 -130 29 600 010/09 RMK AO2 T02170033
13976KLFT LFT20191127152010311/27/19 15:20:31  5-MIN KLFT 272120Z 02012KT 10SM CLR 22/04 A3012 -140 31 600 020/12 RMK AO2 T02170039
13976KLFT LFT20191127152510311/27/19 15:25:31  5-MIN KLFT 272125Z 04009KT 10SM CLR 22/03 A3012 -140 29 600 040/09 RMK AO2 T02170033
13976KLFT LFT20191127153010311/27/19 15:30:31  5-MIN KLFT 272130Z 02008KT 10SM CLR 22/04 A3013 -140 31 600 010/08 RMK AO2 T02170039
13976KLFT LFT20191127153510311/27/19 15:35:31  5-MIN KLFT 272135Z 03009KT 10SM CLR 21/04 A3013 -140 32 600 030/09 RMK AO2 T02110039
13976KLFT LFT20191127154010311/27/19 15:40:31  5-MIN KLFT 272140Z 03009KT 10SM CLR 21/03 A3013 -150 30 600 030/09 RMK AO2 T02110033
13976KLFT LFT20191127154510311/27/19 15:45:31  5-MIN KLFT 272145Z 03009KT 10SM CLR 22/04 A3013 -150 31 600 030/09 RMK AO2 T02170039
13976KLFT LFT20191127155011011/27/19 15:50:31  5-MIN KLFT 272150Z 03009KT 10SM CLR 21/04 A3013 -150 32 600 030/09 RMK AO2 SLP203 T02110039
13976KLFT LFT20191127155510311/27/19 15:55:31  5-MIN KLFT 272155Z 03009KT 10SM CLR 21/04 A3013 -150 33 500 030/09 RMK AO2 T02060039
13976KLFT LFT20191128020511211/28/19 02:05:31  5-MIN KLFT 280805Z AUTO 05007KT 10SM SCT060 15/04 A3025 -260 47 -200 050/07 RMK AO2 T01500039
13976KLFT LFT20191128021011211/28/19 02:10:31  5-MIN KLFT 280810Z AUTO 06006KT 10SM FEW060 15/04 A3025 -260 49 -200 050/06 RMK AO2 T01500044
13976KLFT LFT20191128021511211/28/19 02:15:31  5-MIN KLFT 280815Z AUTO 05006KT 10SM SCT060 15/04 A3025 -260 49 -200 050/06 RMK AO2 T01500044
13976KLFT LFT20191128022011211/28/19 02:20:31  5-MIN KLFT 280820Z AUTO 05004KT 10SM SCT060 14/04 A3025 -260 51 -300 050/04 RMK AO2 T01440044
13976KLFT LFT20191128022511211/28/19 02:25:31  5-MIN KLFT 280825Z AUTO 06005KT 10SM FEW060 14/04 A3025 -250 51 -300 050/05 RMK AO2 T01440044
13976KLFT LFT20191128023011211/28/19 02:30:31  5-MIN KLFT 280830Z AUTO 05006KT 10SM FEW060 14/04 A3025 -250 51 -300 050/06 RMK AO2 T01440044
13976KLFT LFT20191128023511211/28/19 02:35:31  5-MIN KLFT 280835Z AUTO 05006KT 10SM FEW060 14/04 A3025 -250 51 -300 050/06 RMK AO2 T01440044
13976KLFT LFT20191128024010911/28/19 02:40:31  5-MIN KLFT 280840Z AUTO 05005KT 10SM CLR 14/04 A3024 -250 51 -300 050/05 RMK AO2 T01440044
13976KLFT LFT20191128024510911/28/19 02:45:31  5-MIN KLFT 280845Z AUTO 05006KT 10SM CLR 14/04 A3024 -240 52 -400 050/06 RMK AO2 T01390044
13976KLFT LFT20191128025012211/28/19 02:50:31  5-MIN KLFT 280850Z AUTO 05007KT 10SM CLR 14/04 A3024 -240 51 -300 040/07 RMK AO2 SLP238 T01440044 50003
13976KLFT LFT20191128025510911/28/19 02:55:31  5-MIN KLFT 280855Z AUTO 05006KT 10SM CLR 14/04 A3024 -240 52 -300 050/06 RMK AO2 T01390044
13976KLFT LFT20191128030010911/28/19 03:00:31  5-MIN KLFT 280900Z AUTO 06007KT 10SM CLR 14/04 A3024 -240 51 -300 060/07 RMK AO2 T01440044
13976KLFT LFT20191128030510911/28/19 03:05:31  5-MIN KLFT 280905Z AUTO 06007KT 10SM CLR 14/04 A3024 -240 51 -300 060/07 RMK AO2 T01440044
13976KLFT LFT20191128031010911/28/19 03:10:31  5-MIN KLFT 280910Z AUTO 06007KT 10SM CLR 14/04 A3024 -240 51 -300 060/07 RMK AO2 T01440044
13976KLFT LFT20191128031510911/28/19 03:15:31  5-MIN KLFT 280915Z AUTO 05006KT 10SM CLR 14/04 A3024 -250 51 -300 050/06 RMK AO2 T01440044
13976KLFT LFT20191128032010911/28/19 03:20:31  5-MIN KLFT 280920Z AUTO 06006KT 10SM CLR 14/04 A3024 -250 51 -300 050/06 RMK AO2 T01440044
13976KLFT LFT20191128032510911/28/19 03:25:31  5-MIN KLFT 280925Z AUTO 06007KT 10SM CLR 14/04 A3025 -250 51 -300 060/07 RMK AO2 T01440044
13976KLFT LFT20191128033010911/28/19 03:30:31  5-MIN KLFT 280930Z AUTO 06006KT 10SM CLR 14/04 A3025 -250 51 -300 060/06 RMK AO2 T01440044
13976KLFT LFT20191128033510911/28/19 03:35:31  5-MIN KLFT 280935Z AUTO 06005KT 10SM CLR 14/04 A3024 -250 49 -300 060/05 RMK AO2 T01440039
13976KLFT LFT20191128034010911/28/19 03:40:31  5-MIN KLFT 280940Z AUTO 06007KT 10SM CLR 14/04 A3024 -250 50 -400 060/07 RMK AO2 T01390039
13976KLFT LFT20191128034510911/28/19 03:45:31  5-MIN KLFT 280945Z AUTO 06006KT 10SM CLR 14/04 A3024 -250 50 -400 050/06 RMK AO2 T01390039
13976KLFT LFT20191128035011611/28/19 03:50:31  5-MIN KLFT 280950Z AUTO 06006KT 10SM CLR 14/04 A3024 -250 50 -400 060/06 RMK AO2 SLP240 T01390039
13976KLFT LFT20191128035510911/28/19 03:55:31  5-MIN KLFT 280955Z AUTO 06007KT 10SM CLR 14/04 A3024 -250 50 -400 060/07 RMK AO2 T01390039
13976KLFT LFT20191128040010911/28/19 04:00:31  5-MIN KLFT 281000Z AUTO 05006KT 10SM CLR 14/04 A3025 -250 50 -400 050/06 RMK AO2 T01390039
13976KLFT LFT20191128040510911/28/19 04:05:31  5-MIN KLFT 281005Z AUTO 04005KT 10SM CLR 14/04 A3025 -250 50 -400 040/05 RMK AO2 T01390039
13976KLFT LFT20191128041010911/28/19 04:10:31  5-MIN KLFT 281010Z AUTO 04006KT 10SM CLR 14/04 A3025 -250 50 -400 040/06 RMK AO2 T01390039
13976KLFT LFT20191128041510911/28/19 04:15:31  5-MIN KLFT 281015Z AUTO 05005KT 10SM CLR 14/04 A3025 -250 50 -400 050/05 RMK AO2 T01390039
13976KLFT LFT20191128042010911/28/19 04:20:31  5-MIN KLFT 281020Z AUTO 05005KT 10SM CLR 14/04 A3025 -250 52 -400 050/05 RMK AO2 T01390044
13976KLFT LFT20191128042510911/28/19 04:25:31  5-MIN KLFT 281025Z AUTO 06004KT 10SM CLR 14/04 A3025 -250 52 -400 060/04 RMK AO2 T01390044
13976KLFT LFT20191128043010911/28/19 04:30:31  5-MIN KLFT 281030Z AUTO 06005KT 10SM CLR 14/04 A3025 -250 52 -400 060/05 RMK AO2 T01390044
13976KLFT LFT20191128043510911/28/19 04:35:31  5-MIN KLFT 281035Z AUTO 06006KT 10SM CLR 14/04 A3025 -250 52 -400 060/06 RMK AO2 T01390044
13976KLFT LFT20191128044010911/28/19 04:40:31  5-MIN KLFT 281040Z AUTO 06005KT 10SM CLR 14/04 A3025 -250 52 -400 060/05 RMK AO2 T01390044
13976KLFT LFT20191128044510911/28/19 04:45:31  5-MIN KLFT 281045Z AUTO 06005KT 10SM CLR 13/04 A3025 -250 54 -400 060/05 RMK AO2 T01330044
13976KLFT LFT20191128045011611/28/19 04:50:31  5-MIN KLFT 281050Z AUTO 05005KT 10SM CLR 13/04 A3025 -250 54 -400 050/05 RMK AO2 SLP242 T01330044
13976KLFT LFT20191128045510411/28/19 04:55:31  5-MIN KLFT 281055Z 05005KT 10SM CLR 13/04 A3025 -250 54 -400 050/05 RMK AO2 T01330044
13976KLFT LFT20191128050010411/28/19 05:00:31  5-MIN KLFT 281100Z 06006KT 10SM CLR 13/04 A3025 -250 54 -400 050/06 RMK AO2 T01330044
13976KLFT LFT20191128050510411/28/19 05:05:31  5-MIN KLFT 281105Z 05006KT 10SM CLR 13/04 A3025 -250 54 -400 050/06 RMK AO2 T01330044
13976KLFT LFT20191128051010411/28/19 05:10:31  5-MIN KLFT 281110Z 06005KT 10SM CLR 13/04 A3025 -250 54 -400 050/05 RMK AO2 T01330044
13976KLFT LFT20191128051510411/28/19 05:15:31  5-MIN KLFT 281115Z 06004KT 10SM CLR 13/04 A3025 -250 54 -400 060/04 RMK AO2 T01330044
13976KLFT LFT20191128052010411/28/19 05:20:31  5-MIN KLFT 281120Z 06004KT 10SM CLR 13/05 A3025 -250 57 -400 060/04 RMK AO2 T01330050
13976KLFT LFT20191128052510711/28/19 05:25:31  5-MIN KLFT 281125Z 07005KT 10SM FEW050 13/04 A3025 -250 54 -400 070/05 RMK AO2 T01330044
13976KLFT LFT20191128053010711/28/19 05:30:31  5-MIN KLFT 281130Z 06004KT 10SM SCT050 13/05 A3025 -260 57 -400 060/04 RMK AO2 T01330050
13976KLFT LFT20191128053510711/28/19 05:35:31  5-MIN KLFT 281135Z 06005KT 10SM SCT050 13/05 A3025 -260 57 -400 060/05 RMK AO2 T01330050
13976KLFT LFT20191128054010711/28/19 05:40:31  5-MIN KLFT 281140Z 06005KT 10SM BKN055 14/05 A3025 -260 55 -400 060/05 RMK AO2 T01390050
13976KLFT LFT20191128054510711/28/19 05:45:31  5-MIN KLFT 281145Z 06005KT 10SM BKN055 14/05 A3025 -260 55 -400 050/05 RMK AO2 T01390050
13976KLFT LFT20191128055013811/28/19 05:50:31  5-MIN KLFT 281150Z 06003KT 10SM OVC055 14/05 A3026 -260 55 -400 060/03 RMK AO2 SLP245 70128 T01390050 10161 20133 58002
13976KLFT LFT20191128055510711/28/19 05:55:31  5-MIN KLFT 281155Z 05004KT 10SM OVC055 14/05 A3026 -260 55 -400 050/04 RMK AO2 T01390050
13976KLFT LFT20191128060010711/28/19 06:00:31  5-MIN KLFT 281200Z 07004KT 10SM OVC055 14/05 A3026 -260 55 -400 070/04 RMK AO2 T01390050
13976KLFT LFT20191128060510711/28/19 06:05:31  5-MIN KLFT 281205Z 06005KT 10SM OVC055 14/05 A3026 -260 55 -400 060/05 RMK AO2 T01390050
13976KLFT LFT20191128061010711/28/19 06:10:31  5-MIN KLFT 281210Z 06005KT 10SM OVC055 14/05 A3026 -260 55 -400 060/05 RMK AO2 T01390050
13976KLFT LFT20191128061510711/28/19 06:15:31  5-MIN KLFT 281215Z 06004KT 10SM OVC055 14/05 A3026 -270 55 -400 060/04 RMK AO2 T01390050
13976KLFT LFT20191128062010711/28/19 06:20:31  5-MIN KLFT 281220Z 05003KT 10SM OVC055 14/05 A3027 -270 55 -400 050/03 RMK AO2 T01390050
13976KLFT LFT20191128062510711/28/19 06:25:31  5-MIN KLFT 281225Z 06004KT 10SM OVC055 14/05 A3027 -270 55 -400 060/04 RMK AO2 T01390050
13976KLFT LFT20191128063010711/28/19 06:30:31  5-MIN KLFT 281230Z 06003KT 10SM OVC055 14/05 A3027 -270 55 -400 060/03 RMK AO2 T01390050
13976KLFT LFT20191128063510711/28/19 06:35:31  5-MIN KLFT 281235Z 06003KT 10SM OVC050 14/05 A3027 -270 55 -400 060/03 RMK AO2 T01390050
13976KLFT LFT20191128064010711/28/19 06:40:31  5-MIN KLFT 281240Z VRB03KT 10SM OVC050 14/05 A3027 -270 55 -400 VRB/03 RMK AO2 T01390050
13976KLFT LFT20191128064510711/28/19 06:45:31  5-MIN KLFT 281245Z 07004KT 10SM OVC050 14/05 A3027 -280 55 -400 070/04 RMK AO2 T01390050
13976KLFT LFT20191128065011411/28/19 06:50:31  5-MIN KLFT 281250Z 06004KT 10SM OVC050 14/05 A3027 -270 55 -400 060/04 RMK AO2 SLP250 T01390050
13976KLFT LFT20191128065510711/28/19 06:55:31  5-MIN KLFT 281255Z 06003KT 10SM OVC050 14/05 A3027 -280 55 -400 060/03 RMK AO2 T01390050
13976KLFT LFT20191128070010711/28/19 07:00:31  5-MIN KLFT 281300Z 06004KT 10SM OVC050 14/05 A3027 -280 55 -400 050/04 RMK AO2 T01390050
13976KLFT LFT20191128070510711/28/19 07:05:31  5-MIN KLFT 281305Z 06004KT 10SM OVC050 14/05 A3027 -270 55 -400 060/04 RMK AO2 T01390050
13976KLFT LFT20191128071010711/28/19 07:10:31  5-MIN KLFT 281310Z 07003KT 10SM OVC050 14/05 A3027 -270 55 -400 070/03 RMK AO2 T01390050
13976KLFT LFT20191128071510711/28/19 07:15:31  5-MIN KLFT 281315Z 07003KT 10SM BKN050 14/06 A3027 -280 57 -400 060/03 RMK AO2 T01390056
13976KLFT LFT20191128072010711/28/19 07:20:31  5-MIN KLFT 281320Z 06005KT 10SM BKN050 14/05 A3028 -280 55 -400 060/05 RMK AO2 T01390050
13976KLFT LFT20191128072510711/28/19 07:25:31  5-MIN KLFT 281325Z 07004KT 10SM OVC050 14/05 A3028 -280 55 -400 070/04 RMK AO2 T01390050
13976KLFT LFT20191128073010711/28/19 07:30:31  5-MIN KLFT 281330Z 06005KT 10SM BKN050 14/06 A3027 -280 55 -300 060/05 RMK AO2 T01440056
13976KLFT LFT20191128073510711/28/19 07:35:31  5-MIN KLFT 281335Z 07004KT 10SM BKN050 14/05 A3027 -280 53 -300 060/04 RMK AO2 T01440050
13976KLFT LFT20191128074010711/28/19 07:40:31  5-MIN KLFT 281340Z 07004KT 10SM BKN050 14/05 A3027 -280 53 -300 070/04 RMK AO2 T01440050
13976KLFT LFT20191128074510711/28/19 07:45:31  5-MIN KLFT 281345Z 07004KT 10SM BKN050 14/05 A3027 -280 53 -300 070/04 RMK AO2 T01440050
13976KLFT LFT20191128075011411/28/19 07:50:31  5-MIN KLFT 281350Z 07005KT 10SM SCT050 14/05 A3027 -280 53 -300 060/05 RMK AO2 SLP251 T01440050
13976KLFT LFT20191128075510711/28/19 07:55:31  5-MIN KLFT 281355Z 06005KT 10SM SCT050 14/05 A3028 -280 53 -300 060/05 RMK AO2 T01440050
13976KLFT LFT20191128080010711/28/19 08:00:31  5-MIN KLFT 281400Z 06006KT 10SM SCT050 14/05 A3028 -280 53 -300 060/06 RMK AO2 T01440050
13976KLFT LFT20191128080510711/28/19 08:05:31  5-MIN KLFT 281405Z 06006KT 10SM SCT050 15/05 A3028 -280 51 -300 060/06 RMK AO2 T01500050
13976KLFT LFT20191128081010711/28/19 08:10:31  5-MIN KLFT 281410Z 07006KT 10SM FEW050 14/04 A3028 -280 51 -300 070/06 RMK AO2 T01440044
13976KLFT LFT20191128081510711/28/19 08:15:31  5-MIN KLFT 281415Z 07005KT 10SM FEW050 15/05 A3028 -280 51 -300 070/05 RMK AO2 T01500050
13976KLFT LFT20191128082010711/28/19 08:20:31  5-MIN KLFT 281420Z 07005KT 10SM FEW050 15/05 A3028 -280 51 -300 070/05 RMK AO2 T01500050
13976KLFT LFT20191128082510711/28/19 08:25:31  5-MIN KLFT 281425Z VRB05KT 10SM SCT050 15/05 A3028 -280 51 -300 VRB/05 RMK AO2 T01500050
13976KLFT LFT20191128083010711/28/19 08:30:31  5-MIN KLFT 281430Z VRB06KT 10SM SCT049 16/05 A3028 -280 49 -200 VRB/06 RMK AO2 T01560050
13976KLFT LFT20191128083510711/28/19 08:35:31  5-MIN KLFT 281435Z 07006KT 10SM FEW049 16/05 A3028 -280 49 -200 070/06 RMK AO2 T01560050
13976KLFT LFT20191128084010711/28/19 08:40:31  5-MIN KLFT 281440Z VRB06KT 10SM FEW049 16/05 A3028 -280 49 -200 VRB/06 RMK AO2 T01560050
13976KLFT LFT20191128084510711/28/19 08:45:31  5-MIN KLFT 281445Z 07004KT 10SM FEW049 16/05 A3028 -290 49 -200 070/04 RMK AO2 T01560050
13976KLFT LFT20191128085012011/28/19 08:50:31  5-MIN KLFT 281450Z VRB04KT 10SM FEW049 16/05 A3029 -290 49 -200 VRB/04 RMK AO2 SLP256 T01560050 53007
13976KLFT LFT20191128085510411/28/19 08:55:31  5-MIN KLFT 281455Z 08008KT 10SM CLR 16/05 A3029 -290 49 -200 080/08 RMK AO2 T01560050
13976KLFT LFT20191128090010411/28/19 09:00:31  5-MIN KLFT 281500Z 07005KT 10SM CLR 16/05 A3029 -290 47 -100 070/05 RMK AO2 T01610050
13976KLFT LFT20191128090510411/28/19 09:05:31  5-MIN KLFT 281505Z 08005KT 10SM CLR 16/05 A3029 -290 47 -100 080/05 RMK AO2 T01610050
13976KLFT LFT20191128091010411/28/19 09:10:31  5-MIN KLFT 281510Z 07006KT 10SM CLR 17/05 A3029 -290 45 -100 070/06 RMK AO2 T01670050
13976KLFT LFT20191128091510411/28/19 09:15:31  5-MIN KLFT 281515Z VRB04KT 10SM CLR 17/05 A3029 -290 45 -100 VRB/04 RMK AO2 T01670050
13976KLFT LFT20191128092010411/28/19 09:20:31  5-MIN KLFT 281520Z 06005KT 10SM CLR 17/05 A3029 -290 45 -100 060/05 RMK AO2 T01670050
13976KLFT LFT20191128092510411/28/19 09:25:31  5-MIN KLFT 281525Z 06005KT 10SM CLR 17/05 A3029 -290 45 -100 060/05 RMK AO2 T01670050
13976KLFT LFT20191128093010111/28/19 09:30:31  5-MIN KLFT 281530Z 06006KT 10SM CLR 17/06 A3029 -290 46 0 060/06 RMK AO2 T01720056
13976KLFT LFT20191128093510111/28/19 09:35:31  5-MIN KLFT 281535Z 06006KT 10SM CLR 17/06 A3028 -290 46 0 060/06 RMK AO2 T01720056
13976KLFT LFT20191128094010111/28/19 09:40:31  5-MIN KLFT 281540Z VRB05KT 10SM CLR 18/06 A3029 -290 44 0 VRB/05 RMK AO2 T01780056
13976KLFT LFT20191128094510111/28/19 09:45:31  5-MIN KLFT 281545Z 08005KT 10SM CLR 18/06 A3029 -290 44 0 080/05 RMK AO2 T01780056
13976KLFT LFT20191128095010811/28/19 09:50:31  5-MIN KLFT 281550Z 08005KT 10SM CLR 18/06 A3028 -280 44 0 070/05 RMK AO2 SLP254 T01780056
13976KLFT LFT20191128095510111/28/19 09:55:31  5-MIN KLFT 281555Z VRB05KT 10SM CLR 18/06 A3028 -280 44 0 VRB/05 RMK AO2 T01780056
13976KLFT LFT20191128100010311/28/19 10:00:31  5-MIN KLFT 281600Z 07006KT 10SM CLR 18/06 A3028 -280 44 100 060/06 RMK AO2 T01830061
13976KLFT LFT20191128100510311/28/19 10:05:31  5-MIN KLFT 281605Z 07006KT 10SM CLR 18/06 A3028 -280 44 100 070/06 RMK AO2 T01830061
13976KLFT LFT20191128101010311/28/19 10:10:31  5-MIN KLFT 281610Z 08007KT 10SM CLR 18/06 A3027 -280 44 100 080/07 RMK AO2 T01830061
13976KLFT LFT20191128101510311/28/19 10:15:31  5-MIN KLFT 281615Z VRB04KT 10SM CLR 18/06 A3027 -280 44 100 VRB/04 RMK AO2 T01830061
13976KLFT LFT20191128102010311/28/19 10:20:31  5-MIN KLFT 281620Z VRB06KT 10SM CLR 19/07 A3027 -280 43 200 VRB/06 RMK AO2 T01940067
13976KLFT LFT20191128102510311/28/19 10:25:31  5-MIN KLFT 281625Z VRB05KT 10SM CLR 19/07 A3028 -280 44 100 VRB/05 RMK AO2 T01890067
13976KLFT LFT20191128103010311/28/19 10:30:31  5-MIN KLFT 281630Z VRB06KT 10SM CLR 19/07 A3027 -280 44 100 VRB/06 RMK AO2 T01890067
13976KLFT LFT20191128103510311/28/19 10:35:31  5-MIN KLFT 281635Z VRB05KT 10SM CLR 19/07 A3027 -280 43 200 VRB/05 RMK AO2 T01940067
13976KLFT LFT20191128104010311/28/19 10:40:31  5-MIN KLFT 281640Z VRB03KT 10SM CLR 19/07 A3027 -280 44 200 VRB/03 RMK AO2 T01940072
13976KLFT LFT20191128104510311/28/19 10:45:31  5-MIN KLFT 281645Z VRB04KT 10SM CLR 19/07 A3028 -280 43 200 VRB/04 RMK AO2 T01940067
13976KLFT LFT20191128105011011/28/19 10:50:31  5-MIN KLFT 281650Z VRB04KT 10SM CLR 20/07 A3028 -280 43 300 VRB/04 RMK AO2 SLP252 T02000072
13976KLFT LFT20191128105510311/28/19 10:55:31  5-MIN KLFT 281655Z 08006KT 10SM CLR 20/07 A3027 -270 43 300 080/06 RMK AO2 T02000072
13976KLFT LFT20191128110010311/28/19 11:00:31  5-MIN KLFT 281700Z VRB04KT 10SM CLR 20/08 A3027 -270 45 300 VRB/04 RMK AO2 T02000078
13976KLFT LFT20191128110510311/28/19 11:05:31  5-MIN KLFT 281705Z 09003KT 10SM CLR 20/07 A3027 -270 43 300 090/03 RMK AO2 T02000072
13976KLFT LFT20191128111010311/28/19 11:10:31  5-MIN KLFT 281710Z VRB03KT 10SM CLR 21/07 A3027 -270 41 400 VRB/03 RMK AO2 T02060072
13976KLFT LFT20191128111510311/28/19 11:15:31  5-MIN KLFT 281715Z 06004KT 10SM CLR 21/08 A3026 -270 43 400 060/04 RMK AO2 T02060078
13976KLFT LFT20191128112010311/28/19 11:20:31  5-MIN KLFT 281720Z VRB04KT 10SM CLR 21/08 A3026 -270 43 400 VRB/04 RMK AO2 T02060078
13976KLFT LFT20191128112510311/28/19 11:25:31  5-MIN KLFT 281725Z VRB03KT 10SM CLR 21/08 A3026 -260 45 400 VRB/03 RMK AO2 T02060083
13976KLFT LFT20191128113010311/28/19 11:30:31  5-MIN KLFT 281730Z 00000KT 10SM CLR 21/08 A3026 -260 45 400 000/00 RMK AO2 T02060083
13976KLFT LFT20191128113510311/28/19 11:35:31  5-MIN KLFT 281735Z 00000KT 10SM CLR 21/08 A3026 -260 42 400 000/00 RMK AO2 T02110078
13976KLFT LFT20191128114010311/28/19 11:40:31  5-MIN KLFT 281740Z 09003KT 10SM CLR 22/08 A3025 -260 42 500 090/03 RMK AO2 T02170083
13976KLFT LFT20191128114510311/28/19 11:45:31  5-MIN KLFT 281745Z VRB05KT 10SM CLR 22/09 A3025 -250 43 500 VRB/05 RMK AO2 T02170089
13976KLFT LFT20191128115012811/28/19 11:50:31  5-MIN KLFT 281750Z 16005KT 10SM CLR 21/08 A3025 -250 43 400 150/05 RMK AO2 SLP242 T02110083 10217 20139 51010
13976KLFT LFT20191128115510311/28/19 11:55:31  5-MIN KLFT 281755Z VRB03KT 10SM CLR 22/09 A3024 -250 43 500 VRB/03 RMK AO2 T02170089
13976KLFT LFT20191128120010311/28/19 12:00:31  5-MIN KLFT 281800Z 00000KT 10SM CLR 22/09 A3024 -250 43 500 000/00 RMK AO2 T02170089
13976KLFT LFT20191128120510311/28/19 12:05:31  5-MIN KLFT 281805Z 00000KT 10SM CLR 22/09 A3024 -240 43 600 000/00 RMK AO2 T02220094
13976KLFT LFT20191128121010311/28/19 12:10:31  5-MIN KLFT 281810Z 00000KT 10SM CLR 22/09 A3023 -240 42 600 000/00 RMK AO2 T02220089
13976KLFT LFT20191128121510311/28/19 12:15:31  5-MIN KLFT 281815Z 00000KT 10SM CLR 22/09 A3023 -240 42 600 000/00 RMK AO2 T02220089
13976KLFT LFT20191128122010311/28/19 12:20:31  5-MIN KLFT 281820Z VRB03KT 10SM CLR 22/09 A3023 -230 43 600 VRB/03 RMK AO2 T02220094
13976KLFT LFT20191128122510311/28/19 12:25:31  5-MIN KLFT 281825Z VRB03KT 10SM CLR 22/09 A3022 -230 43 600 VRB/03 RMK AO2 T02220094
13976KLFT LFT20191128123010311/28/19 12:30:31  5-MIN KLFT 281830Z 00000KT 10SM CLR 23/09 A3022 -230 42 700 000/00 RMK AO2 T02280094
13976KLFT LFT20191128123510311/28/19 12:35:31  5-MIN KLFT 281835Z 09004KT 10SM CLR 23/09 A3022 -220 42 700 090/04 RMK AO2 T02280094
13976KLFT LFT20191128124010311/28/19 12:40:31  5-MIN KLFT 281840Z 00000KT 10SM CLR 23/09 A3022 -220 42 700 000/00 RMK AO2 T02280094
13976KLFT LFT20191128124510311/28/19 12:45:31  5-MIN KLFT 281845Z VRB04KT 10SM CLR 23/10 A3021 -220 44 700 VRB/04 RMK AO2 T02280100
13976KLFT LFT20191128125011011/28/19 12:50:31  5-MIN KLFT 281850Z VRB03KT 10SM CLR 23/10 A3021 -220 44 700 VRB/03 RMK AO2 SLP229 T02280100
13976KLFT LFT20191128125510311/28/19 12:55:31  5-MIN KLFT 281855Z VRB03KT 10SM CLR 23/11 A3021 -210 44 700 VRB/03 RMK AO2 T02330106
13976KLFT LFT20191128130010311/28/19 13:00:31  5-MIN KLFT 281900Z 06004KT 10SM CLR 23/10 A3020 -210 42 700 060/04 RMK AO2 T02330100
13976KLFT LFT20191128130510311/28/19 13:05:31  5-MIN KLFT 281905Z VRB04KT 10SM CLR 23/10 A3020 -210 42 700 VRB/04 RMK AO2 T02330100
13976KLFT LFT20191128131010311/28/19 13:10:31  5-MIN KLFT 281910Z VRB04KT 10SM CLR 23/10 A3020 -210 42 800 VRB/04 RMK AO2 T02330100
13976KLFT LFT20191128131510311/28/19 13:15:31  5-MIN KLFT 281915Z 13004KT 10SM CLR 23/11 A3020 -200 44 800 120/04 RMK AO2 T02330106
13976KLFT LFT20191128132010311/28/19 13:20:31  5-MIN KLFT 281920Z VRB03KT 10SM CLR 24/11 A3019 -200 42 800 VRB/03 RMK AO2 T02390106
13976KLFT LFT20191128132510311/28/19 13:25:31  5-MIN KLFT 281925Z VRB04KT 10SM CLR 24/11 A3019 -200 42 800 VRB/04 RMK AO2 T02390106
13976KLFT LFT20191128133010311/28/19 13:30:31  5-MIN KLFT 281930Z VRB04KT 10SM CLR 24/11 A3019 -200 42 800 VRB/04 RMK AO2 T02390106
13976KLFT LFT20191128133510311/28/19 13:35:31  5-MIN KLFT 281935Z 14004KT 10SM CLR 24/11 A3019 -200 44 800 140/04 RMK AO2 T02390111
13976KLFT LFT20191128134010311/28/19 13:40:31  5-MIN KLFT 281940Z VRB03KT 10SM CLR 24/11 A3019 -200 42 800 VRB/03 RMK AO2 T02390106
13976KLFT LFT20191128134510311/28/19 13:45:31  5-MIN KLFT 281945Z VRB04KT 10SM CLR 24/11 A3019 -200 44 800 VRB/04 RMK AO2 T02390111
13976KLFT LFT20191128135011011/28/19 13:50:31  5-MIN KLFT 281950Z VRB05KT 10SM CLR 24/11 A3019 -200 44 800 VRB/05 RMK AO2 SLP223 T02390111
13976KLFT LFT20191128135510311/28/19 13:55:31  5-MIN KLFT 281955Z VRB03KT 10SM CLR 24/11 A3019 -200 44 800 VRB/03 RMK AO2 T02390111
13976KLFT LFT20191128140010311/28/19 14:00:31  5-MIN KLFT 282000Z 09004KT 10SM CLR 24/11 A3019 -200 42 900 090/04 RMK AO2 T02440111
