53988KBKB BKB20190901000010809/01/19 00:00:31  5-MIN KBKB 010600Z AUTO 00000KT 10SM CLR 23/22 A2999 230 90 1300 000/00 RMK AO2 T02330217
53988KBKB BKB20190901000510809/01/19 00:05:31  5-MIN KBKB 010605Z AUTO 00000KT 10SM CLR 23/22 A2999 230 90 1300 000/00 RMK AO2 T02330217
53988KBKB BKB20190901001010809/01/19 00:10:31  5-MIN KBKB 010610Z AUTO 00000KT 10SM CLR 23/22 A2999 230 90 1300 000/00 RMK AO2 T02330217
53988KBKB BKB20190901001510809/01/19 00:15:31  5-MIN KBKB 010615Z AUTO 00000KT 10SM CLR 23/22 A2999 230 90 1300 000/00 RMK AO2 T02330217
53988KBKB BKB20190901002010809/01/19 00:20:31  5-MIN KBKB 010620Z AUTO 00000KT 10SM CLR 23/22 A2999 230 90 1300 000/00 RMK AO2 T02330217
53988KBKB BKB20190901002510809/01/19 00:25:31  5-MIN KBKB 010625Z AUTO 00000KT 10SM CLR 23/22 A2999 230 93 1200 000/00 RMK AO2 T02280217
53988KBKB BKB20190901003010809/01/19 00:30:31  5-MIN KBKB 010630Z AUTO 00000KT 10SM CLR 23/21 A2999 230 90 1200 000/00 RMK AO2 T02280211
53988KBKB BKB20190901003510809/01/19 00:35:31  5-MIN KBKB 010635Z AUTO 00000KT 10SM CLR 23/21 A3000 230 90 1200 000/00 RMK AO2 T02280211
53988KBKB BKB20190901004010809/01/19 00:40:31  5-MIN KBKB 010640Z AUTO 00000KT 10SM CLR 23/22 A3000 230 93 1200 000/00 RMK AO2 T02280217
53988KBKB BKB20190901004510809/01/19 00:45:31  5-MIN KBKB 010645Z AUTO 00000KT 10SM CLR 23/21 A3000 220 90 1200 000/00 RMK AO2 T02280211
53988KBKB BKB20190901005011509/01/19 00:50:31  5-MIN KBKB 010650Z AUTO 00000KT 10SM CLR 23/21 A3000 220 90 1200 000/00 RMK AO2 SLP185 T02280211
53988KBKB BKB20190901005510809/01/19 00:55:31  5-MIN KBKB 010655Z AUTO 00000KT 10SM CLR 22/21 A3000 220 93 1200 000/00 RMK AO2 T02220211
53988KBKB BKB20190901010010809/01/19 01:00:31  5-MIN KBKB 010700Z AUTO 00000KT 10SM CLR 22/21 A3000 220 93 1200 000/00 RMK AO2 T02220211
53988KBKB BKB20190901010510809/01/19 01:05:31  5-MIN KBKB 010705Z AUTO 00000KT 10SM CLR 22/21 A3000 220 93 1200 000/00 RMK AO2 T02220211
53988KBKB BKB20190901011010809/01/19 01:10:31  5-MIN KBKB 010710Z AUTO 00000KT 10SM CLR 22/21 A3000 220 93 1200 000/00 RMK AO2 T02220211
53988KBKB BKB20190901011510809/01/19 01:15:31  5-MIN KBKB 010715Z AUTO 00000KT 10SM CLR 22/21 A3000 220 93 1200 000/00 RMK AO2 T02220211
53988KBKB BKB20190901012010709/01/19 01:20:31  5-MIN KBKB 010720Z AUTO 00000KT 8SM CLR 22/21 A3000 220 93 1200 000/00 RMK AO2 T02220211
53988KBKB BKB20190901012510709/01/19 01:25:31  5-MIN KBKB 010725Z AUTO 00000KT 7SM CLR 22/21 A3000 220 93 1200 000/00 RMK AO2 T02220211
53988KBKB BKB20190901013011009/01/19 01:30:31  5-MIN KBKB 010730Z AUTO 00000KT 6SM BR CLR 22/21 A3000 220 93 1200 000/00 RMK AO2 T02220211
53988KBKB BKB20190901013507109/01/19 01:35:31  5-MIN KBKB 010735Z AUTO 00000KT 6S RMK AO2 T02060194
53988KBKB BKB20190901033011009/01/19 03:30:31  5-MIN KBKB 010930Z AUTO 00000KT 3SM BR CLR 21/19 A3000 230 93 1000 000/00 RMK AO2 T02060194
53988KBKB BKB20190901033511009/01/19 03:35:31  5-MIN KBKB 010935Z AUTO 00000KT 3SM BR CLR 21/19 A3000 230 93 1000 000/00 RMK AO2 T02060194
53988KBKB BKB20190901034011009/01/19 03:40:31  5-MIN KBKB 010940Z AUTO 00000KT 3SM BR CLR 21/19 A3000 230 93 1000 000/00 RMK AO2 T02060194
53988KBKB BKB20190903044510809/03/19 04:45:31  5-MIN KBKB 031045Z AUTO 00000KT 10SM CLR 22/21 A2994 280 90 1200 000/00 RMK AO2 T02220206
53988KBKB BKB20190903045011509/03/19 04:50:31  5-MIN KBKB 031050Z AUTO 00000KT 10SM CLR 22/21 A2995 270 90 1200 000/00 RMK AO2 SLP165 T02220206
53988KBKB BKB20190903045510809/03/19 04:55:31  5-MIN KBKB 031055Z AUTO 00000KT 10SM CLR 22/21 A2995 270 90 1200 000/00 RMK AO2 T02220206
53988KBKB BKB20190903050010809/03/19 05:00:31  5-MIN KBKB 031100Z AUTO 00000KT 10SM CLR 22/21 A2995 270 90 1200 000/00 RMK AO2 T02220206
53988KBKB BKB20190903050510809/03/19 05:05:31  5-MIN KBKB 031105Z AUTO 00000KT 10SM CLR 22/21 A2995 270 90 1200 000/00 RMK AO2 T02220206
53988KBKB BKB20190903051010809/03/19 05:10:31  5-MIN KBKB 031110Z AUTO 00000KT 10SM CLR 22/21 A2995 270 90 1200 000/00 RMK AO2 T02220206
53988KBKB BKB20190903051510809/03/19 05:15:31  5-MIN KBKB 031115Z AUTO 00000KT 10SM CLR 22/21 A2995 270 90 1200 000/00 RMK AO2 T02220206
53988KBKB BKB20190903052010809/03/19 05:20:31  5-MIN KBKB 031120Z AUTO 00000KT 10SM CLR 22/21 A2995 270 90 1200 000/00 RMK AO2 T02220206
53988KBKB BKB20190903052510809/03/19 05:25:31  5-MIN KBKB 031125Z AUTO 00000KT 10SM CLR 22/21 A2996 270 90 1200 000/00 RMK AO2 T02220206
53988KBKB BKB20190903053010809/03/19 05:30:31  5-MIN KBKB 031130Z AUTO 00000KT 10SM CLR 22/21 A2996 260 93 1100 000/00 RMK AO2 T02170206
53988KBKB BKB20190903053510809/03/19 05:35:31  5-MIN KBKB 031135Z AUTO 00000KT 10SM CLR 22/21 A2996 260 93 1100 000/00 RMK AO2 T02170206
53988KBKB BKB20190903054010809/03/19 05:40:31  5-MIN KBKB 031140Z AUTO 00000KT 10SM CLR 22/21 A2996 260 93 1100 000/00 RMK AO2 T02170206
53988KBKB BKB20190903054510809/03/19 05:45:31  5-MIN KBKB 031145Z AUTO 00000KT 10SM CLR 22/21 A2996 260 93 1100 000/00 RMK AO2 T02170206
53988KBKB BKB20190903055013309/03/19 05:50:31  5-MIN KBKB 031150Z AUTO 00000KT 10SM CLR 22/21 A2996 260 90 1200 000/00 RMK AO2 SLP172 T02220206 10239 20217 55005
53988KBKB BKB20190903055510809/03/19 05:55:31  5-MIN KBKB 031155Z AUTO 00000KT 10SM CLR 22/21 A2997 260 90 1200 000/00 RMK AO2 T02220206
53988KBKB BKB20190903060010809/03/19 06:00:31  5-MIN KBKB 031200Z AUTO 00000KT 10SM CLR 22/21 A2997 250 90 1200 000/00 RMK AO2 T02220206
53988KBKB BKB20190903060510809/03/19 06:05:31  5-MIN KBKB 031205Z AUTO 00000KT 10SM CLR 22/21 A2997 250 90 1200 000/00 RMK AO2 T02220206
53988KBKB BKB20190903061010809/03/19 06:10:31  5-MIN KBKB 031210Z AUTO 00000KT 10SM CLR 22/21 A2997 250 90 1200 000/00 RMK AO2 T02220206
53988KBKB BKB20190903061510809/03/19 06:15:31  5-MIN KBKB 031215Z AUTO 00000KT 10SM CLR 23/21 A2997 250 90 1300 000/00 RMK AO2 T02280211
53988KBKB BKB20190903062010809/03/19 06:20:31  5-MIN KBKB 031220Z AUTO 00000KT 10SM CLR 23/21 A2998 250 90 1200 000/00 RMK AO2 T02280211
53988KBKB BKB20190903062510809/03/19 06:25:31  5-MIN KBKB 031225Z AUTO 00000KT 10SM CLR 23/21 A2998 250 90 1200 000/00 RMK AO2 T02280211
53988KBKB BKB20190903063010809/03/19 06:30:31  5-MIN KBKB 031230Z AUTO 00000KT 10SM CLR 23/21 A2998 250 87 1300 000/00 RMK AO2 T02330211
53988KBKB BKB20190903063510809/03/19 06:35:31  5-MIN KBKB 031235Z AUTO 00000KT 10SM CLR 23/21 A2998 240 90 1200 000/00 RMK AO2 T02280211
53988KBKB BKB20190903064010809/03/19 06:40:31  5-MIN KBKB 031240Z AUTO 00000KT 10SM CLR 23/21 A2998 240 87 1300 000/00 RMK AO2 T02330211
53988KBKB BKB20190903064510809/03/19 06:45:31  5-MIN KBKB 031245Z AUTO VRB03KT 10SM CLR 24/22 A2998 240 87 1400 VRB/03 RMK AO2 T02390217
53988KBKB BKB20190903065011509/03/19 06:50:31  5-MIN KBKB 031250Z AUTO 00000KT 10SM CLR 24/22 A2998 240 84 1400 000/00 RMK AO2 SLP176 T02440217
53988KBKB BKB20190903065510809/03/19 06:55:31  5-MIN KBKB 031255Z AUTO 00000KT 10SM CLR 25/22 A2998 240 81 1500 000/00 RMK AO2 T02500217
53988KBKB BKB20190903070010809/03/19 07:00:31  5-MIN KBKB 031300Z AUTO 00000KT 10SM CLR 26/22 A2998 240 81 1600 000/00 RMK AO2 T02560222
53988KBKB BKB20190903070510809/03/19 07:05:31  5-MIN KBKB 031305Z AUTO 00000KT 10SM CLR 26/22 A2998 240 76 1600 000/00 RMK AO2 T02610217
53988KBKB BKB20190903071010809/03/19 07:10:31  5-MIN KBKB 031310Z AUTO 00000KT 10SM CLR 26/22 A2998 240 76 1600 000/00 RMK AO2 T02610217
53988KBKB BKB20190903071510809/03/19 07:15:31  5-MIN KBKB 031315Z AUTO VRB03KT 10SM CLR 27/22 A2998 250 73 1700 VRB/03 RMK AO2 T02670217
53988KBKB BKB20190903072010809/03/19 07:20:31  5-MIN KBKB 031320Z AUTO 00000KT 10SM CLR 27/22 A2998 250 76 1700 000/00 RMK AO2 T02670222
53988KBKB BKB20190903072510809/03/19 07:25:31  5-MIN KBKB 031325Z AUTO 00000KT 10SM CLR 27/22 A2998 250 74 1800 000/00 RMK AO2 T02720222
53988KBKB BKB20190903073010809/03/19 07:30:31  5-MIN KBKB 031330Z AUTO VRB03KT 10SM CLR 27/22 A2997 250 71 1800 VRB/03 RMK AO2 T02720217
53988KBKB BKB20190903073510809/03/19 07:35:31  5-MIN KBKB 031335Z AUTO 00000KT 10SM CLR 27/22 A2997 250 71 1800 000/00 RMK AO2 T02720217
53988KBKB BKB20190903074010809/03/19 07:40:31  5-MIN KBKB 031340Z AUTO VRB03KT 10SM CLR 28/22 A2997 250 71 1800 VRB/03 RMK AO2 T02780222
53988KBKB BKB20190903074510809/03/19 07:45:31  5-MIN KBKB 031345Z AUTO VRB03KT 10SM CLR 28/22 A2998 250 69 1800 VRB/03 RMK AO2 T02780217
53988KBKB BKB20190903075011509/03/19 07:50:31  5-MIN KBKB 031350Z AUTO VRB03KT 10SM CLR 28/22 A2998 240 69 1800 VRB/03 RMK AO2 SLP176 T02780217
53988KBKB BKB20190903075510809/03/19 07:55:31  5-MIN KBKB 031355Z AUTO 00000KT 10SM CLR 28/22 A2998 240 69 1900 000/00 RMK AO2 T02830222
53988KBKB BKB20190903080010809/03/19 08:00:31  5-MIN KBKB 031400Z AUTO VRB03KT 10SM CLR 28/22 A2998 250 66 1900 VRB/03 RMK AO2 T02830217
53988KBKB BKB20190903080510809/03/19 08:05:31  5-MIN KBKB 031405Z AUTO 00000KT 10SM CLR 29/22 A2998 240 67 1900 000/00 RMK AO2 T02890222
53988KBKB BKB20190903081010809/03/19 08:10:31  5-MIN KBKB 031410Z AUTO VRB03KT 10SM CLR 29/22 A2998 250 67 1900 VRB/03 RMK AO2 T02890222
53988KBKB BKB20190903081510809/03/19 08:15:31  5-MIN KBKB 031415Z AUTO VRB05KT 10SM CLR 29/22 A2998 240 64 1900 VRB/05 RMK AO2 T02890217
53988KBKB BKB20190903082010809/03/19 08:20:31  5-MIN KBKB 031420Z AUTO VRB03KT 10SM CLR 29/22 A2998 250 62 2000 VRB/03 RMK AO2 T02940217
53988KBKB BKB20190903082510809/03/19 08:25:31  5-MIN KBKB 031425Z AUTO VRB03KT 10SM CLR 29/22 A2998 240 62 2000 VRB/03 RMK AO2 T02940217
53988KBKB BKB20190903083010809/03/19 08:30:31  5-MIN KBKB 031430Z AUTO VRB03KT 10SM CLR 30/22 A2998 240 62 2100 VRB/03 RMK AO2 T03000222
53988KBKB BKB20190903083510809/03/19 08:35:31  5-MIN KBKB 031435Z AUTO 00000KT 10SM CLR 30/22 A2998 250 62 2100 000/00 RMK AO2 T03000222
53988KBKB BKB20190903084010809/03/19 08:40:31  5-MIN KBKB 031440Z AUTO VRB04KT 10SM CLR 31/22 A2998 250 60 2100 VRB/04 RMK AO2 T03060222
53988KBKB BKB20190903084510809/03/19 08:45:31  5-MIN KBKB 031445Z AUTO VRB03KT 10SM CLR 30/22 A2997 250 60 2100 VRB/03 RMK AO2 T03000217
53988KBKB BKB20190903085012109/03/19 08:50:31  5-MIN KBKB 031450Z AUTO 09003KT 10SM CLR 31/22 A2997 250 58 2100 090/03 RMK AO2 SLP175 T03060217 53013
53988KBKB BKB20190903085510809/03/19 08:55:31  5-MIN KBKB 031455Z AUTO VRB06KT 10SM CLR 31/22 A2997 250 58 2100 VRB/06 RMK AO2 T03060217
53988KBKB BKB20190903090010809/03/19 09:00:31  5-MIN KBKB 031500Z AUTO VRB05KT 10SM CLR 31/22 A2998 250 58 2100 VRB/05 RMK AO2 T03060217
53988KBKB BKB20190903090510809/03/19 09:05:31  5-MIN KBKB 031505Z AUTO VRB05KT 10SM CLR 31/22 A2998 250 58 2100 VRB/05 RMK AO2 T03060217
53988KBKB BKB20190903091010809/03/19 09:10:31  5-MIN KBKB 031510Z AUTO VRB04KT 10SM CLR 31/22 A2998 250 58 2100 VRB/04 RMK AO2 T03060217
53988KBKB BKB20190903091510809/03/19 09:15:31  5-MIN KBKB 031515Z AUTO VRB03KT 10SM CLR 31/22 A2998 250 56 2200 VRB/03 RMK AO2 T03110217
53988KBKB BKB20190903092010809/03/19 09:20:31  5-MIN KBKB 031520Z AUTO VRB04KT 10SM CLR 31/22 A2998 240 56 2200 VRB/04 RMK AO2 T03110217
53988KBKB BKB20190903092510809/03/19 09:25:31  5-MIN KBKB 031525Z AUTO VRB03KT 10SM CLR 31/22 A2998 240 56 2200 VRB/03 RMK AO2 T03110217
53988KBKB BKB20190903093010809/03/19 09:30:31  5-MIN KBKB 031530Z AUTO VRB03KT 10SM CLR 32/22 A2998 250 56 2200 VRB/03 RMK AO2 T03170222
53988KBKB BKB20190903093510809/03/19 09:35:31  5-MIN KBKB 031535Z AUTO VRB04KT 10SM CLR 32/22 A2998 250 55 2200 VRB/04 RMK AO2 T03170217
53988KBKB BKB20190903094009809/03/19 09:40:31  5-MIN KBKB 031540Z AUTO 10SM CLR 32/22 A2998 250 53 2300 M /M RMK AO2 T03220217
53988KBKB BKB20190903094510809/03/19 09:45:31  5-MIN KBKB 031545Z AUTO VRB06KT 10SM CLR 31/21 A2997 250 54 2200 VRB/06 RMK AO2 T03110211
53988KBKB BKB20190903095011509/03/19 09:50:31  5-MIN KBKB 031550Z AUTO VRB03KT 10SM CLR 32/22 A2997 250 55 2300 VRB/03 RMK AO2 SLP175 T03170217
53988KBKB BKB20190903095510809/03/19 09:55:31  5-MIN KBKB 031555Z AUTO VRB03KT 10SM CLR 32/22 A2997 250 53 2300 VRB/03 RMK AO2 T03220217
53988KBKB BKB20190903100010809/03/19 10:00:31  5-MIN KBKB 031600Z AUTO VRB05KT 10SM CLR 33/22 A2997 250 51 2400 VRB/05 RMK AO2 T03280217
53988KBKB BKB20190903100510809/03/19 10:05:31  5-MIN KBKB 031605Z AUTO VRB03KT 10SM CLR 33/22 A2997 250 51 2400 VRB/03 RMK AO2 T03280217
53988KBKB BKB20190903101011109/03/19 10:10:31  5-MIN KBKB 031610Z AUTO VRB03KT 10SM FEW042 32/21 A2997 250 51 2300 VRB/03 RMK AO2 T03220211
53988KBKB BKB20190903101511109/03/19 10:15:31  5-MIN KBKB 031615Z AUTO VRB03KT 10SM FEW042 33/22 A2997 260 50 2400 VRB/03 RMK AO2 T03330217
53988KBKB BKB20190903102011109/03/19 10:20:31  5-MIN KBKB 031620Z AUTO VRB04KT 10SM FEW044 33/22 A2997 260 51 2400 VRB/04 RMK AO2 T03280217
53988KBKB BKB20190903102511809/03/19 10:25:31  5-MIN KBKB 031625Z AUTO VRB03KT 10SM SCT044 SCT050 33/22 A2996 260 51 2400 VRB/03 RMK AO2 T03280217
53988KBKB BKB20190903103011809/03/19 10:30:31  5-MIN KBKB 031630Z AUTO VRB05KT 10SM SCT044 BKN050 33/22 A2996 260 51 2400 VRB/05 RMK AO2 T03280217
53988KBKB BKB20190903103511109/03/19 10:35:31  5-MIN KBKB 031635Z AUTO VRB04KT 10SM SCT044 33/21 A2996 260 49 2400 VRB/04 RMK AO2 T03280211
53988KBKB BKB20190903104011109/03/19 10:40:31  5-MIN KBKB 031640Z AUTO 08004KT 10SM SCT046 32/21 A2996 260 51 2300 080/04 RMK AO2 T03220211
53988KBKB BKB20190903104511109/03/19 10:45:31  5-MIN KBKB 031645Z AUTO VRB04KT 10SM BKN046 33/21 A2996 260 49 2400 VRB/04 RMK AO2 T03280211
53988KBKB BKB20190903105012509/03/19 10:50:31  5-MIN KBKB 031650Z AUTO 00000KT 10SM BKN045 BKN050 32/21 A2996 260 51 2300 000/00 RMK AO2 SLP168 T03220211
53988KBKB BKB20190903105515509/03/19 10:55:31  5-MIN KBKB 031655Z AUTO VRB05KT 10SM BKN047 32/21 A2996 270 53 2300 VRB/05 RMK AO2 T0317021109/03/19 11:09 2400 VRB/04 RMK AO2 T03280211
53988KBKB BKB20190903114011109/03/19 11:40:31  5-MIN KBKB 031740Z AUTO VRB04KT 10SM FEW048 33/21 A2995 270 49 2400 VRB/04 RMK AO2 T03280211
53988KBKB BKB20190903114511809/03/19 11:45:31  5-MIN KBKB 031745Z AUTO VRB05KT 10SM SCT048 SCT065 33/21 A2995 270 49 2400 VRB/05 RMK AO2 T03280211
53988KBKB BKB20190903115014309/03/19 11:50:31  5-MIN KBKB 031750Z AUTO VRB04KT 10SM SCT048 SCT065 32/21 A2995 270 49 2300 VRB/04 RMK AO2 SLP166 T03220206 10339 20222 50003
53988KBKB BKB20190903115511809/03/19 11:55:31  5-MIN KBKB 031755Z AUTO VRB04KT 10SM FEW050 SCT065 34/21 A2994 280 46 2500 VRB/04 RMK AO2 T03390211
53988KBKB BKB20190903115512209/03/19 11:55:31  5-MIN KBKB 031755Z AUTO VRB04KT 10SM FEW050 SCT065 34/21 A2994 280 46 2500 VRB/04 RMK AO2 T033902110211
53988KBKB BKB20190903120011809/03/19 12:00:31  5-MIN KBKB 031800Z AUTO 00000KT 10SM FEW050 SCT065 34/21 A2994 280 45 2500 000/00 RMK AO2 T03390206
53988KBKB BKB20190903120511709/03/19 12:05:31  5-MIN KBKB 031805Z AUTO VRB03KT 10SM SCT050 SCT065 34/21 A2994 280 45 2500 VRB/03 RMK AO2T03280211
53988KBKB BKB20190903120511809/03/19 12:05:31  5-MIN KBKB 031805Z AUTO VRB03KT 10SM SCT050 SCT065 34/21 A2994 280 45 2500 VRB/03 RMK AO2 T03390206
53988KBKB BKB20190903121010809/03/19 12:10:31  5-MIN KBKB 031810Z AUTO 10SM SCT050 SCT065 34/21 A2994 280 46 2500 M /M RMK AO2 T03390211
53988KBKB BKB20190903121511109/03/19 12:15:31  5-MIN KBKB 031815Z AUTO 00000KT 10SM SCT050 34/21 A2994 280 46 2500 000/00 RMK AO2 T03390211
53988KBKB BKB20190903122011109/03/19 12:20:31  5-MIN KBKB 031820Z AUTO 06004KT 10SM SCT050 34/21 A2994 280 45 2600 060/04 RMK AO2 T03440211
53988KBKB BKB20190903122511109/03/19 12:25:31  5-MIN KBKB 031825Z AUTO VRB03KT 10SM SCT050 33/21 A2993 290 48 2500 VRB/03 RMK AO2 T03330211
53988KBKB BKB20190903123011109/03/19 12:30:31  5-MIN KBKB 031830Z AUTO VRB04KT 10SM SCT050 32/21 A2993 290 49 2400 VRB/04 RMK AO2 T03220206
53988KBKB BKB20190903123511109/03/19 12:35:31  5-MIN KBKB 031835Z AUTO VRB03KT 10SM FEW050 33/21 A2993 290 48 2500 VRB/03 RMK AO2 T03330211
53988KBKB BKB20190903124011109/03/19 12:40:31  5-MIN KBKB 031840Z AUTO VRB03KT 10SM FEW050 34/21 A2993 290 45 2600 VRB/03 RMK AO2 T03440211
53988KBKB BKB20190903124511109/03/19 12:45:31  5-MIN KBKB 031845Z AUTO 36004KT 10SM FEW050 34/21 A2993 290 45 2600 350/04 RMK AO2 T03440211
53988KBKB BKB20190903125011809/03/19 12:50:31  5-MIN KBKB 031850Z AUTO VRB04KT 10SM FEW050 34/21 A2993 290 45 2500 VRB/04 RMK AO2 SLP159 T03390206
53988KBKB BKB20190903125511109/03/19 12:55:31  5-MIN KBKB 031855Z AUTO VRB04KT 10SM FEW050 33/21 A2993 290 46 2500 VRB/04 RMK AO2 T03330206
53988KBKB BKB20190903130011109/03/19 13:00:31  5-MIN KBKB 031900Z AUTO VRB03KT 10SM FEW050 34/21 A2992 290 43 2600 VRB/03 RMK AO2 T03440206
53988KBKB BKB20190903130511109/03/19 13:05:31  5-MIN KBKB 031905Z AUTO VRB03KT 10SM FEW050 34/21 A2992 300 43 2600 VRB/03 RMK AO2 T03440206
53988KBKB BKB20190903131011109/03/19 13:10:31  5-MIN KBKB 031910Z AUTO VRB04KT 10SM FEW060 34/21 A2992 300 43 2600 VRB/04 RMK AO2 T03440206
53988KBKB BKB20190903131511109/03/19 13:15:31  5-MIN KBKB 031915Z AUTO VRB04KT 10SM FEW060 33/21 A2992 300 46 2500 VRB/04 RMK AO2 T03330206
53988KBKB BKB20190903132010809/03/19 13:20:31  5-MIN KBKB 031920Z AUTO VRB04KT 10SM CLR 33/20 A2992 300 45 2500 VRB/04 RMK AO2 T03330200
53988KBKB BKB20190903132511109/03/19 13:25:31  5-MIN KBKB 031925Z AUTO VRB03KT 10SM FEW065 34/21 A2991 310 43 2600 VRB/03 RMK AO2 T03440206
53988KBKB BKB20190903133011109/03/19 13:30:31  5-MIN KBKB 031930Z AUTO VRB06KT 10SM FEW065 34/21 A2991 310 43 2600 VRB/06 RMK AO2 T03440206
53988KBKB BKB20190903133511109/03/19 13:35:31  5-MIN KBKB 031935Z AUTO VRB04KT 10SM FEW065 34/21 A2991 310 43 2600 VRB/04 RMK AO2 T03440206
53988KBKB BKB20190903134010809/03/19 13:40:31  5-MIN KBKB 031940Z AUTO VRB03KT 10SM CLR 35/21 A2991 310 42 2700 VRB/03 RMK AO2 T03500206
53988KBKB BKB20190903134507309/03/19 13:45:31  5-MIN KBKB 031945Z AUTO V2700 VRB/03 RMK AO2 T03500206
53988KBKB BKB20190903154011109/03/19 15:40:31  5-MIN KBKB 032140Z AUTO 00000KT 10SM FEW060 35/21 A2989 330 43 2700 000/00 RMK AO2 T03500211
53988KBKB BKB20190903154511109/03/19 15:45:31  5-MIN KBKB 032145Z AUTO VRB04KT 10SM SCT060 35/21 A2989 330 42 2700 VRB/04 RMK AO2 T03500206
53988KBKB BKB20190903155011809/03/19 15:50:31  5-MIN KBKB 032150Z AUTO VRB04KT 10SM SCT060 34/20 A2989 330 42 2600 VRB/04 RMK AO2 SLP147 T03440200
53988KBKB BKB20190903155511109/03/19 15:55:31  5-MIN KBKB 032155Z AUTO 00000KT 10SM SCT060 33/21 A2989 330 46 2500 000/00 RMK AO2 T03330206
53988KBKB BKB20190903155515609/03/19 15:55:31  5-MIN KBKB 032155Z AUTO 0000003/19 15:35:31  5-MIN KBKB 032135Z AUTO VRB03KT 10SM FEW055 35/21 A2989 330 42 2700 VRB/03 RMK AO2 T03500206
53988KBKB BKB20190903160011109/03/19 16:00:31  5-MIN KBKB 032200Z AUTO 00000KT 10SM SCT060 33/21 A2989 330 48 2500 000/00 RMK AO2 T03280206
53988KBKB BKB20190903160504309/03/19 16:05:31  5-MIN KBKB 032205Z AUTO 
53988KBKB BKB20190903160511809/03/19 16:05:31  5-MIN KBKB 032205Z AUTO VRB05KT 10SM SCT060 BKN090 33/21 A2989 330 48 2500 VRB/05 RMK AO2 T03330211
53988KBKB BKB20190903161011809/03/19 16:10:31  5-MIN KBKB 032210Z AUTO VRB03KT 10SM SCT060 BKN090 34/21 A2989 330 45 2600 VRB/03 RMK AO2 T03390206
53988KBKB BKB20190903161511809/03/19 16:15:31  5-MIN KBKB 032215Z AUTO VRB03KT 10SM FEW060 SCT090 33/21 A2989 320 48 2500 VRB/03 RMK AO2 T03280206
53988KBKB BKB20190903162011809/03/19 16:20:31  5-MIN KBKB 032220Z AUTO 00000KT 10SM FEW060 SCT090 32/20 A2989 320 48 2400 000/00 RMK AO2 T03220200
53988KBKB BKB20190903162016109/03/19 16:20:31  5-MIN KBKB 032220Z AUTO 00000KT 10SM FEW060 SCT090 32/20 A2989 320 48 2400 000/00 RMK AO2 T03220200 A2989 330 48 2500 VRB/05 RMK AO2 T03330211
53988KBKB BKB20190903162511809/03/19 16:25:31  5-MIN KBKB 032225Z AUTO 05003KT 10SM FEW060 FEW090 33/21 A2989 320 48 2500 040/03 RMK AO2 T03280206
53988KBKB BKB20190903163011109/03/19 16:30:31  5-MIN KBKB 032230Z AUTO 00000KT 10SM FEW090 33/21 A2990 320 48 2500 000/00 RMK AO2 T03330211
53988KBKB BKB20190903163510809/03/19 16:35:31  5-MIN KBKB 032235Z AUTO 00000KT 10SM CLR 34/21 A2990 320 46 2600 000/00 RMK AO2 T03390211
53988KBKB BKB20190903164010809/03/19 16:40:31  5-MIN KBKB 032240Z AUTO VRB03KT 10SM CLR 34/21 A2990 320 46 2600 VRB/03 RMK AO2 T03390211
53988KBKB BKB20190903164510809/03/19 16:45:31  5-MIN KBKB 032245Z AUTO VRB03KT 10SM CLR 34/21 A2990 320 46 2600 VRB/03 RMK AO2 T03390211
53988KBKB BKB20190903165011509/03/19 16:50:31  5-MIN KBKB 032250Z AUTO 00000KT 10SM CLR 33/21 A2990 320 46 2500 000/00 RMK AO2 SLP149 T03330206
53988KBKB BKB20190903165510809/03/19 16:55:31  5-MIN KBKB 032255Z AUTO 07004KT 10SM CLR 33/21 A2990 320 46 2500 060/04 RMK AO2 T03330206
53988KBKB BKB20190903170010809/03/19 17:00:31  5-MIN KBKB 032300Z AUTO 00000KT 10SM CLR 33/21 A2990 320 48 2500 000/00 RMK AO2 T03330211
53988KBKB BKB20190903170510809/03/19 17:05:31  5-MIN KBKB 032305Z AUTO VRB04KT 10SM CLR 33/22 A2990 320 51 2500 VRB/04 RMK AO2 T03280217
53988KBKB BKB20190903171010809/03/19 17:10:31  5-MIN KBKB 032310Z AUTO 00000KT 10SM CLR 33/21 A2990 320 49 2500 000/00 RMK AO2 T03280211
53988KBKB BKB20190903171510809/03/19 17:15:31  5-MIN KBKB 032315Z AUTO 00000KT 10SM CLR 33/21 A2990 320 49 2500 000/00 RMK AO2 T03280211
53988KBKB BKB20190903172010809/03/19 17:20:31  5-MIN KBKB 032320Z AUTO 00000KT 10SM CLR 33/21 A2990 310 48 2500 000/00 RMK AO2 T03280206
53988KBKB BKB20190903172510809/03/19 17:25:31  5-MIN KBKB 032325Z AUTO 00000KT 10SM CLR 32/21 A2991 310 49 2400 000/00 RMK AO2 T03220206
53988KBKB BKB20190903173010809/03/19 17:30:31  5-MIN KBKB 032330Z AUTO 00000KT 10SM CLR 32/21 A2990 310 53 2300 000/00 RMK AO2 T03170211
53988KBKB BKB20190903173510809/03/19 17:35:31  5-MIN KBKB 032335Z AUTO 00000KT 10SM CLR 32/21 A2991 310 53 2300 000/00 RMK AO2 T03170211
53988KBKB BKB20190903174010809/03/19 17:40:31  5-MIN KBKB 032340Z AUTO 00000KT 10SM CLR 31/22 A2990 310 58 2200 000/00 RMK AO2 T03060217
53988KBKB BKB20190903174510809/03/19 17:45:31  5-MIN KBKB 032345Z AUTO 00000KT 10SM CLR 30/22 A2990 310 62 2100 000/00 RMK AO2 T03000222
53988KBKB BKB20190903175013309/03/19 17:50:31  5-MIN KBKB 032350Z AUTO 00000KT 10SM CLR 30/22 A2990 310 62 2100 000/00 RMK AO2 SLP151 T03000222 10356 20300 56018
53988KBKB BKB20190903175510809/03/19 17:55:31  5-MIN KBKB 032355Z AUTO 00000KT 10SM CLR 29/22 A2990 310 62 2100 000/00 RMK AO2 T02940217
53988KBKB BKB20190903180010809/03/19 18:00:31  5-MIN KBKB 040000Z AUTO 00000KT 10SM CLR 29/22 A2991 310 64 2000 000/00 RMK AO2 T02890217
53988KBKB BKB20190903180510809/03/19 18:05:31  5-MIN KBKB 040005Z AUTO 00000KT 10SM CLR 29/22 A2991 310 64 2000 000/00 RMK AO2 T02890217
53988KBKB BKB20190903181010809/03/19 18:10:31  5-MIN KBKB 040010Z AUTO 00000KT 10SM CLR 29/22 A2991 310 64 2000 000/00 RMK AO2 T02890217
53988KBKB BKB20190903181510809/03/19 18:15:31  5-MIN KBKB 040015Z AUTO 00000KT 10SM CLR 28/22 A2991 310 69 2000 000/00 RMK AO2 T02830222
53988KBKB BKB20190903182010809/03/19 18:20:31  5-MIN KBKB 040020Z AUTO 00000KT 10SM CLR 28/22 A2991 310 71 1900 000/00 RMK AO2 T02780222
53988KBKB BKB20190903182510809/03/19 18:25:31  5-MIN KBKB 040025Z AUTO 00000KT 10SM CLR 28/22 A2991 310 71 1900 000/00 RMK AO2 T02780222
53988KBKB BKB20190903183010809/03/19 18:30:31  5-MIN KBKB 040030Z AUTO 00000KT 10SM CLR 28/22 A2991 310 71 1900 000/00 RMK AO2 T02780222
53988KBKB BKB20190903183510809/03/19 18:35:31  5-MIN KBKB 040035Z AUTO 00000KT 10SM CLR 28/22 A2991 300 71 1900 000/00 RMK AO2 T02780222
53988KBKB BKB20190903184010809/03/19 18:40:31  5-MIN KBKB 040040Z AUTO 00000KT 10SM CLR 27/22 A2991 300 74 1800 000/00 RMK AO2 T02720222
53988KBKB BKB20190903184510809/03/19 18:45:31  5-MIN KBKB 040045Z AUTO 00000KT 10SM CLR 27/22 A2992 300 74 1800 000/00 RMK AO2 T02720222
53988KBKB BKB20190903185011509/03/19 18:50:31  5-MIN KBKB 040050Z AUTO 00000KT 10SM CLR 27/23 A2992 300 76 1800 000/00 RMK AO2 SLP156 T02720228
53988KBKB BKB20190903185510809/03/19 18:55:31  5-MIN KBKB 040055Z AUTO 00000KT 10SM CLR 27/22 A2992 300 74 1800 000/00 RMK AO2 T02720222
53988KBKB BKB20190903190010809/03/19 19:00:31  5-MIN KBKB 040100Z AUTO 00000KT 10SM CLR 27/22 A2992 300 76 1800 000/00 RMK AO2 T02670222
53988KBKB BKB20190903190510809/03/19 19:05:31  5-MIN KBKB 040105Z AUTO 00000KT 10SM CLR 27/22 A2992 300 76 1800 000/00 RMK AO2 T02670222
53988KBKB BKB20190903191010809/03/19 19:10:31  5-MIN KBKB 040110Z AUTO 00000KT 10SM CLR 27/22 A2992 300 73 1800 000/00 RMK AO2 T02670217
53988KBKB BKB20190903191510809/03/19 19:15:31  5-MIN KBKB 040115Z AUTO 00000KT 10SM CLR 26/22 A2992 300 76 1700 000/00 RMK AO2 T02610217
53988KBKB BKB20190903192010809/03/19 19:20:31  5-MIN KBKB 040120Z AUTO 00000KT 10SM CLR 27/22 A2992 300 73 1800 000/00 RMK AO2 T02670217
53988KBKB BKB20190903192510809/03/19 19:25:31  5-MIN KBKB 040125Z AUTO 00000KT 10SM CLR 26/22 A2992 300 76 1700 000/00 RMK AO2 T02610217
53988KBKB BKB20190903193010809/03/19 19:30:31  5-MIN KBKB 040130Z AUTO 00000KT 10SM CLR 26/22 A2993 290 76 1700 000/00 RMK AO2 T02610217
53988KBKB BKB20190903193510809/03/19 19:35:31  5-MIN KBKB 040135Z AUTO 00000KT 10SM CLR 26/22 A2993 290 76 1700 000/00 RMK AO2 T02610217
53988KBKB BKB20190903194010809/03/19 19:40:31  5-MIN KBKB 040140Z AUTO 00000KT 10SM CLR 26/22 A2993 290 76 1700 000/00 RMK AO2 T02610217
53988KBKB BKB20190903194510809/03/19 19:45:31  5-MIN KBKB 040145Z AUTO 00000KT 10SM CLR 26/22 A2993 290 76 1700 000/00 RMK AO2 T02610217
53988KBKB BKB20190903195011509/03/19 19:50:31  5-MIN KBKB 040150Z AUTO 00000KT 10SM CLR 26/22 A2993 290 79 1600 000/00 RMK AO2 SLP160 T02560217
53988KBKB BKB20190903195510809/03/19 19:55:31  5-MIN KBKB 040155Z AUTO 00000KT 10SM CLR 26/22 A2993 290 79 1600 000/00 RMK AO2 T02560217
53988KBKB BKB20190903200010809/03/19 20:00:31  5-MIN KBKB 040200Z AUTO 00000KT 10SM CLR 26/22 A2993 290 79 1600 000/00 RMK AO2 T02560217
53988KBKB BKB20190903200510809/03/19 20:05:31  5-MIN KBKB 040205Z AUTO 00000KT 10SM CLR 26/22 A2993 290 79 1600 000/00 RMK AO2 T02560217
53988KBKB BKB20190903201010809/03/19 20:10:31  5-MIN KBKB 040210Z AUTO 00000KT 10SM CLR 25/22 A2993 290 81 1600 000/00 RMK AO2 T02500217
53988KBKB BKB20190903201510809/03/19 20:15:31  5-MIN KBKB 040215Z AUTO 00000KT 10SM CLR 25/22 A2993 290 81 1600 000/00 RMK AO2 T02500217
53988KBKB BKB20190903202010809/03/19 20:20:31  5-MIN KBKB 040220Z AUTO 00000KT 10SM CLR 24/22 A2993 290 84 1500 000/00 RMK AO2 T02440217
53988KBKB BKB20190903202510809/03/19 20:25:31  5-MIN KBKB 040225Z AUTO 00000KT 10SM CLR 24/22 A2993 290 84 1500 000/00 RMK AO2 T02440217
53988KBKB BKB20190903203010809/03/19 20:30:31  5-MIN KBKB 040230Z AUTO 00000KT 10SM CLR 25/22 A2993 290 81 1500 000/00 RMK AO2 T02500217
53988KBKB BKB20190903203510809/03/19 20:35:31  5-MIN KBKB 040235Z AUTO 00000KT 10SM CLR 25/22 A2994 280 81 1500 000/00 RMK AO2 T02500217
53988KBKB BKB20190903204010809/03/19 20:40:31  5-MIN KBKB 040240Z AUTO 00000KT 10SM CLR 25/22 A2994 280 81 1500 000/00 RMK AO2 T02500217
53988KBKB BKB20190903204510809/03/19 20:45:31  5-MIN KBKB 040245Z AUTO 00000KT 10SM CLR 25/22 A2994 280 81 1500 000/00 RMK AO2 T02500217
53988KBKB BKB20190903205012109/03/19 20:50:31  5-MIN KBKB 040250Z AUTO 00000KT 10SM CLR 24/22 A2994 280 84 1500 000/00 RMK AO2 SLP163 T02440217 53005
53988KBKB BKB20190903205510809/03/19 20:55:31  5-MIN KBKB 040255Z AUTO 00000KT 10SM CLR 24/22 A2994 280 84 1500 000/00 RMK AO2 T02440217
53988KBKB BKB20190903210010809/03/19 21:00:31  5-MIN KBKB 040300Z AUTO 00000KT 10SM CLR 24/22 A2994 280 84 1500 000/00 RMK AO2 T02440217
53988KBKB BKB20190903210510809/03/19 21:05:31  5-MIN KBKB 040305Z AUTO 00000KT 10SM CLR 24/22 A2994 280 84 1500 000/00 RMK AO2 T02440217
53988KBKB BKB20190903211010809/03/19 21:10:31  5-MIN KBKB 040310Z AUTO 00000KT 10SM CLR 24/22 A2994 280 84 1500 000/00 RMK AO2 T02440217
53988KBKB BKB20190903211510809/03/19 21:15:31  5-MIN KBKB 040315Z AUTO 00000KT 10SM CLR 24/22 A2994 280 84 1500 000/00 RMK AO2 T02440217
53988KBKB BKB20190903212010809/03/19 21:20:31  5-MIN KBKB 040320Z AUTO 00000KT 10SM CLR 24/22 A2994 280 87 1400 000/00 RMK AO2 T02390217
53988KBKB BKB20190903212510809/03/19 21:25:31  5-MIN KBKB 040325Z AUTO 00000KT 10SM CLR 24/22 A2994 280 87 1400 000/00 RMK AO2 T02390217
53988KBKB BKB20190903213010809/03/19 21:30:31  5-MIN KBKB 040330Z AUTO 00000KT 10SM CLR 24/22 A2994 280 87 1400 000/00 RMK AO2 T02390217
53988KBKB BKB20190903213510809/03/19 21:35:31  5-MIN KBKB 040335Z AUTO 00000KT 10SM CLR 24/22 A2994 280 87 1400 000/00 RMK AO2 T02390217
53988KBKB BKB20190903214010809/03/19 21:40:31  5-MIN KBKB 040340Z AUTO 00000KT 10SM CLR 24/22 A2994 280 87 1400 000/00 RMK AO2 T02390217
53988KBKB BKB20190903214510809/03/19 21:45:31  5-MIN KBKB 040345Z AUTO 00000KT 10SM CLR 24/22 A2995 270 87 1400 000/00 RMK AO2 T02390217
53988KBKB BKB20190903215011509/03/19 21:50:31  5-MIN KBKB 040350Z AUTO 00000KT 10SM CLR 24/22 A2994 280 87 1400 000/00 RMK AO2 SLP165 T02390217
53988KBKB BKB20190903215510809/03/19 21:55:31  5-MIN KBKB 040355Z AUTO 00000KT 10SM CLR 24/22 A2994 280 87 1400 000/00 RMK AO2 T02390217
53988KBKB BKB20190903220010809/03/19 22:00:31  5-MIN KBKB 040400Z AUTO 00000KT 10SM CLR 24/22 A2994 280 87 1400 000/00 RMK AO2 T02390217
53988KBKB BKB20190903220510809/03/19 22:05:31  5-MIN KBKB 040405Z AUTO 00000KT 10SM CLR 24/21 A2994 280 84 1400 000/00 RMK AO2 T02390211
53988KBKB BKB20190903221010809/03/19 22:10:31  5-MIN KBKB 040410Z AUTO 00000KT 10SM CLR 24/21 A2994 280 84 1400 000/00 RMK AO2 T02390211
53988KBKB BKB20190903221510809/03/19 22:15:31  5-MIN KBKB 040415Z AUTO 00000KT 10SM CLR 24/21 A2994 280 84 1400 000/00 RMK AO2 T02390211
53988KBKB BKB20190903222010809/03/19 22:20:31  5-MIN KBKB 040420Z AUTO 00000KT 10SM CLR 24/21 A2994 280 84 1400 000/00 RMK AO2 T02390211
53988KBKB BKB20190903222514109/03/19 22:25:31  5-MIN KBKB 040425Z AUTO 00000KT 10SM CLR 23/21 A2994 280 87 1400 000/00 RMK AO2 T02330211 87 1400 000/00 RMK AO2 T02330211
53988KBKB BKB20190903232010809/03/19 23:20:31  5-MIN KBKB 040520Z AUTO 00000KT 10SM CLR 23/21 A2994 280 87 1400 000/00 RMK AO2 T02330211
53988KBKB BKB20190903232510809/03/19 23:25:31  5-MIN KBKB 040525Z AUTO 00000KT 10SM CLR 23/21 A2994 280 87 1400 000/00 RMK AO2 T02330211
53988KBKB BKB20190903233010809/03/19 23:30:31  5-MIN KBKB 040530Z AUTO 00000KT 10SM CLR 23/21 A2994 280 90 1300 000/00 RMK AO2 T02280211
53988KBKB BKB20190903233510809/03/19 23:35:31  5-MIN KBKB 040535Z AUTO 00000KT 10SM CLR 23/21 A2994 280 87 1400 000/00 RMK AO2 T02330211
53988KBKB BKB20190903233517209/03/19 23:35:31  5-MIN KBKB 040535Z AUTO 00000KT 10SM CLR 23/21 A2994 280:15:31  5-MIN KBKB 040515Z AUTO 00000KT 10SM CLR 23/21 A2994 280 87 1400 000/00 RMK AO2 T02330211
53988KBKB BKB20190903234010809/03/19 23:40:31  5-MIN KBKB 040540Z AUTO 00000KT 10SM CLR 23/21 A2994 280 90 1300 000/00 RMK AO2 T02280211
53988KBKB BKB20190903234506209/03/19 23:45:31  5-MIN KBKB 040545Z AUTO 00000KT 10SM 330211
53988KBKB BKB20190903234510809/03/19 23:45:31  5-MIN KBKB 040545Z AUTO 00000KT 10SM CLR 23/21 A2995 280 90 1300 000/00 RMK AO2 T02280211
53988KBKB BKB20190903235014309/03/19 23:50:31  5-MIN KBKB 040550Z AUTO 00000KT 10SM CLR 23/21 A2995 270 90 1300 000/00 RMK AO2 SLP166 T02280211 10294 20228 403560217 51012
53988KBKB BKB20190903235510809/03/19 23:55:31  5-MIN KBKB 040555Z AUTO 00000KT 10SM CLR 23/21 A2995 270 90 1300 000/00 RMK AO2 T02280211
53988KBKB BKB20190904000010809/04/19 00:00:31  5-MIN KBKB 040600Z AUTO 00000KT 10SM CLR 23/21 A2995 270 90 1300 000/00 RMK AO2 T02280211
53988KBKB BKB20190904000510809/04/19 00:05:31  5-MIN KBKB 040605Z AUTO 00000KT 10SM CLR 23/21 A2995 270 90 1300 000/00 RMK AO2 T02280211
53988KBKB BKB20190904001010809/04/19 00:10:31  5-MIN KBKB 040610Z AUTO 00000KT 10SM CLR 23/21 A2995 270 90 1300 000/00 RMK AO2 T02280211
53988KBKB BKB20190904001510809/04/19 00:15:31  5-MIN KBKB 040615Z AUTO 00000KT 10SM CLR 23/21 A2995 270 90 1300 000/00 RMK AO2 T02280211
53988KBKB BKB20190904002010809/04/19 00:20:31  5-MIN KBKB 040620Z AUTO 00000KT 10SM CLR 23/21 A2995 270 90 1300 000/00 RMK AO2 T02280211
53988KBKB BKB20190904002510809/04/19 00:25:31  5-MIN KBKB 040625Z AUTO 00000KT 10SM CLR 23/21 A2995 270 90 1300 000/00 RMK AO2 T02280211
53988KBKB BKB20190904003010809/04/19 00:30:31  5-MIN KBKB 040630Z AUTO 00000KT 10SM CLR 23/21 A2996 270 90 1300 000/00 RMK AO2 T02280211
53988KBKB BKB20190904003510809/04/19 00:35:31  5-MIN KBKB 040635Z AUTO 00000KT 10SM CLR 23/21 A2996 270 90 1300 000/00 RMK AO2 T02280211
53988KBKB BKB20190904004010809/04/19 00:40:31  5-MIN KBKB 040640Z AUTO 00000KT 10SM CLR 22/21 A2995 270 93 1200 000/00 RMK AO2 T02220211
53988KBKB BKB20190904004510809/04/19 00:45:31  5-MIN KBKB 040645Z AUTO 00000KT 10SM CLR 22/21 A2995 270 93 1200 000/00 RMK AO2 T02220211
53988KBKB BKB20190904005011509/04/19 00:50:31  5-MIN KBKB 040650Z AUTO 00000KT 10SM CLR 22/21 A2995 270 93 1200 000/00 RMK AO2 SLP167 T02220211
53988KBKB BKB20190904005510809/04/19 00:55:31  5-MIN KBKB 040655Z AUTO 00000KT 10SM CLR 22/21 A2995 270 93 1200 000/00 RMK AO2 T02220211
53988KBKB BKB20190904010010809/04/19 01:00:31  5-MIN KBKB 040700Z AUTO 00000KT 10SM CLR 22/21 A2995 270 93 1200 000/00 RMK AO2 T02220211
53988KBKB BKB20190904010510809/04/19 01:05:31  5-MIN KBKB 040705Z AUTO 00000KT 10SM CLR 22/21 A2995 270 93 1200 000/00 RMK AO2 T02220211
53988KBKB BKB20190904011010809/04/19 01:10:31  5-MIN KBKB 040710Z AUTO 00000KT 10SM CLR 22/21 A2995 270 93 1200 000/00 RMK AO2 T02220211
53988KBKB BKB20190904011510809/04/19 01:15:31  5-MIN KBKB 040715Z AUTO 00000KT 10SM CLR 22/21 A2995 270 93 1200 000/00 RMK AO2 T02220211
53988KBKB BKB20190904012010809/04/19 01:20:31  5-MIN KBKB 040720Z AUTO 00000KT 10SM CLR 22/21 A2995 270 93 1200 000/00 RMK AO2 T02220211
53988KBKB BKB20190904012510809/04/19 01:25:31  5-MIN KBKB 040725Z AUTO 00000KT 10SM CLR 22/21 A2995 270 93 1200 000/00 RMK AO2 T02220211
53988KBKB BKB20190904013014309/04/19 01:30:31  5-MIN KBKB 040730Z AUTO 00000KT 10SM CLR 22/B 040925Z AUTO 00000KT 10SM CLR 22/21 A2996 260 93 1100 000/00 RMK AO2 T02170206
53988KBKB BKB20190904031510709/04/19 03:15:31  5-MIN KBKB 040915Z AUTO 00000KT 9SM CLR 22/21 A2996 270 93 1100 000/00 RMK AO2 T02170206
53988KBKB BKB20190904032010809/04/19 03:20:31  5-MIN KBKB 040920Z AUTO 00000KT 10SM CLR 22/21 A2996 260 93 1100 000/00 RMK AO2 T02170206
53988KBKB BKB20190904032510809/04/19 03:25:31  5-MIN KBKB 040925Z AUTO 00000KT 10SM CLR 22/21 A2996 260 93 1100 000/00 RMK AO2 T02170206
53988KBKB BKB20190904033010809/04/19 03:30:31  5-MIN KBKB 040930Z AUTO 00000KT 10SM CLR 22/21 A2996 260 93 1100 000/00 RMK AO2 T02170206
53988KBKB BKB20190904033017109/04/19 03:30:31  5-MIN KBKB 040930Z AUTO 00000KT 10SM CLR 22/21 A2996 260 93 1100 000/00 RMK AO2 T02170200000KT 10SM CLR 22/21 A2996 270 93 1100 000/00 RMK AO2 T02170206
53988KBKB BKB20190904033510809/04/19 03:35:31  5-MIN KBKB 040935Z AUTO 00000KT 10SM CLR 22/21 A2996 260 93 1100 000/00 RMK AO2 T02170206
53988KBKB BKB20190905054010609/05/19 05:40:31  5-MIN KBKB 051140Z AUTO 00000KT 7SM CLR 20/19 A3005 180 97 800 000/00 RMK AO2 T02000194
53988KBKB BKB20190905054510909/05/19 05:45:31  5-MIN KBKB 051145Z AUTO 00000KT 6SM BR CLR 20/19 A3005 180 97 800 000/00 RMK AO2 T02000194
53988KBKB BKB20190905055013409/05/19 05:50:31  5-MIN KBKB 051150Z AUTO 00000KT 5SM BR CLR 20/19 A3005 170 97 800 000/00 RMK AO2 SLP202 T02000194 10222 20200 55001
53988KBKB BKB20190905055510909/05/19 05:55:31  5-MIN KBKB 051155Z AUTO 00000KT 5SM BR CLR 20/19 A3005 170 97 800 000/00 RMK AO2 T02000194
53988KBKB BKB20190905060010909/05/19 06:00:31  5-MIN KBKB 051200Z AUTO 00000KT 5SM BR CLR 21/19 A3005 170 93 900 000/00 RMK AO2 T02060194
53988KBKB BKB20190905060510909/05/19 06:05:31  5-MIN KBKB 051205Z AUTO 00000KT 6SM BR CLR 21/19 A3006 170 93 900 000/00 RMK AO2 T02060194
53988KBKB BKB20190905061010909/05/19 06:10:31  5-MIN KBKB 051210Z AUTO 00000KT 6SM BR CLR 21/19 A3006 170 93 900 000/00 RMK AO2 T02060194
53988KBKB BKB20190905061510609/05/19 06:15:31  5-MIN KBKB 051215Z AUTO 00000KT 7SM CLR 21/19 A3006 170 93 900 000/00 RMK AO2 T02060194
53988KBKB BKB20190905062010609/05/19 06:20:31  5-MIN KBKB 051220Z AUTO 00000KT 7SM CLR 21/19 A3006 170 93 900 000/00 RMK AO2 T02060194
53988KBKB BKB20190905062510609/05/19 06:25:31  5-MIN KBKB 051225Z AUTO 00000KT 8SM CLR 21/20 A3006 170 97 900 000/00 RMK AO2 T02060200
53988KBKB BKB20190905063010709/05/19 06:30:31  5-MIN KBKB 051230Z AUTO 00000KT 8SM CLR 21/20 A3006 160 93 1000 000/00 RMK AO2 T02110200
53988KBKB BKB20190905063510709/05/19 06:35:31  5-MIN KBKB 051235Z AUTO 00000KT 8SM CLR 21/20 A3007 160 93 1000 000/00 RMK AO2 T02110200
53988KBKB BKB20190905064010709/05/19 06:40:31  5-MIN KBKB 051240Z AUTO 00000KT 9SM CLR 22/21 A3007 160 93 1000 000/00 RMK AO2 T02170206
53988KBKB BKB20190905064510709/05/19 06:45:31  5-MIN KBKB 051245Z AUTO 00000KT 9SM CLR 22/21 A3007 160 93 1000 000/00 RMK AO2 T02170206
53988KBKB BKB20190905065011509/05/19 06:50:31  5-MIN KBKB 051250Z AUTO 00000KT 10SM CLR 22/21 A3007 160 93 1100 000/00 RMK AO2 SLP209 T02220211
53988KBKB BKB20190905065510809/05/19 06:55:31  5-MIN KBKB 051255Z AUTO 00000KT 10SM CLR 23/21 A3007 160 90 1100 000/00 RMK AO2 T02280211
53988KBKB BKB20190905070010809/05/19 07:00:31  5-MIN KBKB 051300Z AUTO 00000KT 10SM CLR 23/22 A3007 160 90 1200 000/00 RMK AO2 T02330217
53988KBKB BKB20190905070510809/05/19 07:05:31  5-MIN KBKB 051305Z AUTO 00000KT 10SM CLR 23/22 A3007 160 93 1200 000/00 RMK AO2 T02330222
53988KBKB BKB20190905071010809/05/19 07:10:31  5-MIN KBKB 051310Z AUTO 00000KT 10SM CLR 23/22 A3007 160 90 1200 000/00 RMK AO2 T02330217
53988KBKB BKB20190905071510809/05/19 07:15:31  5-MIN KBKB 051315Z AUTO 00000KT 10SM CLR 24/22 A3008 150 87 1300 000/00 RMK AO2 T02440222
53988KBKB BKB20190905072010809/05/19 07:20:31  5-MIN KBKB 051320Z AUTO 00000KT 10SM CLR 26/23 A3008 150 84 1500 000/00 RMK AO2 T02560228
53988KBKB BKB20190905072510809/05/19 07:25:31  5-MIN KBKB 051325Z AUTO 00000KT 10SM CLR 26/23 A3008 150 84 1500 000/00 RMK AO2 T02610233
53988KBKB BKB20190905073010809/05/19 07:30:31  5-MIN KBKB 051330Z AUTO 00000KT 10SM CLR 27/23 A3008 150 82 1600 000/00 RMK AO2 T02670233
53988KBKB BKB20190905073510809/05/19 07:35:31  5-MIN KBKB 051335Z AUTO 00000KT 10SM CLR 27/23 A3008 150 79 1600 000/00 RMK AO2 T02720233
53988KBKB BKB20190905074010809/05/19 07:40:31  5-MIN KBKB 051340Z AUTO 00000KT 10SM CLR 28/23 A3008 150 74 1700 000/00 RMK AO2 T02780228
53988KBKB BKB20190905074510809/05/19 07:45:31  5-MIN KBKB 051345Z AUTO 00000KT 10SM CLR 28/22 A3008 150 69 1800 000/00 RMK AO2 T02830222
53988KBKB BKB20190905075011509/05/19 07:50:31  5-MIN KBKB 051350Z AUTO 00000KT 10SM CLR 29/22 A3008 150 64 1800 000/00 RMK AO2 SLP210 T02890217
53988KBKB BKB20190905075510809/05/19 07:55:31  5-MIN KBKB 051355Z AUTO 00000KT 10SM CLR 29/22 A3008 150 64 1800 000/00 RMK AO2 T02890217
53988KBKB BKB20190905080010809/05/19 08:00:31  5-MIN KBKB 051400Z AUTO VRB03KT 10SM CLR 29/22 A3008 150 62 1900 VRB/03 RMK AO2 T02940217
53988KBKB BKB20190905080510809/05/19 08:05:31  5-MIN KBKB 051405Z AUTO 00000KT 10SM CLR 29/22 A3008 150 62 1900 000/00 RMK AO2 T02940217
53988KBKB BKB20190905081010809/05/19 08:10:31  5-MIN KBKB 051410Z AUTO 00000KT 10SM CLR 30/22 A3008 150 60 1900 000/00 RMK AO2 T03000217
53988KBKB BKB20190905081510809/05/19 08:15:31  5-MIN KBKB 051415Z AUTO 00000KT 10SM CLR 30/22 A3008 150 60 1900 000/00 RMK AO2 T03000217
53988KBKB BKB20190905082010809/05/19 08:20:31  5-MIN KBKB 051420Z AUTO 00000KT 10SM CLR 31/22 A3008 150 58 2000 000/00 RMK AO2 T03060217
53988KBKB BKB20190905082510809/05/19 08:25:31  5-MIN KBKB 051425Z AUTO 00000KT 10SM CLR 31/22 A3008 150 60 2000 000/00 RMK AO2 T03060222
53988KBKB BKB20190905083010809/05/19 08:30:31  5-MIN KBKB 051430Z AUTO 00000KT 10SM CLR 31/22 A3008 150 58 2100 000/00 RMK AO2 T03110222
53988KBKB BKB20190905083510809/05/19 08:35:31  5-MIN KBKB 051435Z AUTO 00000KT 10SM CLR 31/22 A3008 150 58 2100 000/00 RMK AO2 T03110222
53988KBKB BKB20190905084010809/05/19 08:40:31  5-MIN KBKB 051440Z AUTO VRB03KT 10SM CLR 31/22 A3008 150 56 2100 VRB/03 RMK AO2 T03110217
53988KBKB BKB20190905084510809/05/19 08:45:31  5-MIN KBKB 051445Z AUTO 00000KT 10SM CLR 32/21 A3008 150 53 2100 000/00 RMK AO2 T03170211
53988KBKB BKB20190905085012109/05/19 08:50:31  5-MIN KBKB 051450Z AUTO 00000KT 10SM CLR 32/22 A3008 150 55 2100 000/00 RMK AO2 SLP211 T03170217 53015
53988KBKB BKB20190905085510809/05/19 08:55:31  5-MIN KBKB 051455Z AUTO VRB03KT 10SM CLR 32/22 A3008 150 55 2200 VRB/03 RMK AO2 T03220222
53988KBKB BKB20190905090010809/05/19 09:00:31  5-MIN KBKB 051500Z AUTO 00000KT 10SM CLR 32/22 A3008 150 53 2200 000/00 RMK AO2 T03220217
53988KBKB BKB20190905090510809/05/19 09:05:31  5-MIN KBKB 051505Z AUTO 00000KT 10SM CLR 32/22 A3008 150 53 2200 000/00 RMK AO2 T03220217
53988KBKB BKB20190905091010809/05/19 09:10:31  5-MIN KBKB 051510Z AUTO 00000KT 10SM CLR 32/21 A3008 150 51 2200 000/00 RMK AO2 T03220211
53988KBKB BKB20190905091510809/05/19 09:15:31  5-MIN KBKB 051515Z AUTO 00000KT 10SM CLR 32/22 A3008 150 53 2200 000/00 RMK AO2 T03220217
53988KBKB BKB20190905092010809/05/19 09:20:31  5-MIN KBKB 051520Z AUTO 00000KT 10SM CLR 33/21 A3008 150 48 2300 000/00 RMK AO2 T03330211
53988KBKB BKB20190905092510809/05/19 09:25:31  5-MIN KBKB 051525Z AUTO 00000KT 10SM CLR 33/21 A3008 150 49 2300 000/00 RMK AO2 T03280211
53988KBKB BKB20190905093010809/05/19 09:30:31  5-MIN KBKB 051530Z AUTO VRB03KT 10SM CLR 33/21 A3008 150 46 2300 VRB/03 RMK AO2 T03330206
53988KBKB BKB20190905093510809/05/19 09:35:31  5-MIN KBKB 051535Z AUTO 00000KT 10SM CLR 33/21 A3008 150 46 2300 000/00 RMK AO2 T03330206
53988KBKB BKB20190905094010809/05/19 09:40:31  5-MIN KBKB 051540Z AUTO 00000KT 10SM CLR 34/21 A3008 150 46 2400 000/00 RMK AO2 T03390211
53988KBKB BKB20190905094510809/05/19 09:45:31  5-MIN KBKB 051545Z AUTO 00000KT 10SM CLR 34/21 A3008 150 45 2400 000/00 RMK AO2 T03440211
53988KBKB BKB20190905095011509/05/19 09:50:31  5-MIN KBKB 051550Z AUTO 00000KT 10SM CLR 34/21 A3008 150 46 2400 000/00 RMK AO2 SLP210 T03390211
53988KBKB BKB20190905095510809/05/19 09:55:31  5-MIN KBKB 051555Z AUTO 00000KT 10SM CLR 34/21 A3008 150 46 2400 000/00 RMK AO2 T03390211
53988KBKB BKB20190905100010809/05/19 10:00:31  5-MIN KBKB 051600Z AUTO 00000KT 10SM CLR 34/21 A3008 150 45 2400 000/00 RMK AO2 T03390206
53988KBKB BKB20190905100510809/05/19 10:05:31  5-MIN KBKB 051605Z AUTO 00000KT 10SM CLR 34/20 A3008 150 43 2400 000/00 RMK AO2 T03390200
53988KBKB BKB20190905101010809/05/19 10:10:31  5-MIN KBKB 051610Z AUTO VRB03KT 10SM CLR 34/21 A3008 150 43 2400 VRB/03 RMK AO2 T03440206
53988KBKB BKB20190905101510809/05/19 10:15:31  5-MIN KBKB 051615Z AUTO 00000KT 10SM CLR 34/21 A3008 150 45 2400 000/00 RMK AO2 T03390206
53988KBKB BKB20190905102010809/05/19 10:20:31  5-MIN KBKB 051620Z AUTO VRB04KT 10SM CLR 33/20 A3008 150 45 2300 VRB/04 RMK AO2 T03330200
53988KBKB BKB20190905102510809/05/19 10:25:31  5-MIN KBKB 051625Z AUTO 22003KT 10SM CLR 33/20 A3008 150 45 2300 220/03 RMK AO2 T03330200
53988KBKB BKB20190905103011109/05/19 10:30:31  5-MIN KBKB 051630Z AUTO VRB03KT 10SM FEW060 34/20 A3008 150 42 2400 VRB/03 RMK AO2 T03440200
53988KBKB BKB20190905103511109/05/19 10:35:31  5-MIN KBKB 051635Z AUTO 00000KT 10SM FEW060 34/20 A3008 150 42 2400 000/00 RMK AO2 T03440200
53988KBKB BKB20190905104011109/05/19 10:40:31  5-MIN KBKB 051640Z AUTO 00000KT 10SM FEW060 34/19 A3007 160 42 2400 000/00 RMK AO2 T03390194
53988KBKB BKB20190905104511109/05/19 10:45:31  5-MIN KBKB 051645Z AUTO 00000KT 10SM FEW060 34/20 A3007 160 42 2400 000/00 RMK AO2 T03440200
53988KBKB BKB20190905105011809/05/19 10:50:31  5-MIN KBKB 051650Z AUTO 00000KT 10SM SCT060 35/20 A3007 160 40 2500 000/00 RMK AO2 SLP207 T03500200
53988KBKB BKB20190905105511109/05/19 10:55:31  5-MIN KBKB 051655Z AUTO VRB03KT 10SM SCT060 35/20 A3007 160 40 2500 VRB/03 RMK AO2 T03500200
53988KBKB BKB20190905110011109/05/19 11:00:31  5-MIN KBKB 051700Z AUTO VRB03KT 10SM FEW065 35/19 A3007 160 39 2500 VRB/03 RMK AO2 T03500194
53988KBKB BKB20190905110511109/05/19 11:05:31  5-MIN KBKB 051705Z AUTO VRB03KT 10SM FEW065 36/20 A3006 160 39 2600 VRB/03 RMK AO2 T03560200
53988KBKB BKB20190905111011109/05/19 11:10:31  5-MIN KBKB 051710Z AUTO 24004KT 10SM FEW065 35/20 A3006 170 40 2500 240/04 RMK AO2 T03500200
53988KBKB BKB20190905111511109/05/19 11:15:31  5-MIN KBKB 051715Z AUTO VRB03KT 10SM FEW065 35/20 A3006 170 40 2500 VRB/03 RMK AO2 T03500200
53988KBKB BKB20190905112011109/05/19 11:20:31  5-MIN KBKB 051720Z AUTO 28004KT 10SM FEW065 36/20 A3006 170 39 2600 280/04 RMK AO2 T03560200
53988KBKB BKB20190905112510809/05/19 11:25:31  5-MIN KBKB 051725Z AUTO 00000KT 10SM CLR 35/19 A3006 170 38 2500 000/00 RMK AO2 T03500189
53988KBKB BKB20190905113010809/05/19 11:30:31  5-MIN KBKB 051730Z AUTO VRB03KT 10SM CLR 36/19 A3006 170 38 2600 VRB/03 RMK AO2 T03560194
53988KBKB BKB20190905113510809/05/19 11:35:31  5-MIN KBKB 051735Z AUTO VRB03KT 10SM CLR 36/19 A3006 170 38 2600 VRB/03 RMK AO2 T03560194
53988KBKB BKB20190905114010809/05/19 11:40:31  5-MIN KBKB 051740Z AUTO VRB03KT 10SM CLR 36/19 A3006 170 38 2600 VRB/03 RMK AO2 T03560194
53988KBKB BKB20190905114511109/05/19 11:45:31  5-MIN KBKB 051745Z AUTO VRB03KT 10SM FEW065 36/19 A3005 170 37 2600 VRB/03 RMK AO2 T03610194
53988KBKB BKB20190905115013609/05/19 11:50:31  5-MIN KBKB 051750Z AUTO VRB03KT 10SM SCT065 36/19 A3005 180 38 2600 VRB/03 RMK AO2 SLP201 T03560194 10361 20200 51008
53988KBKB BKB20190905115511109/05/19 11:55:31  5-MIN KBKB 051755Z AUTO VRB03KT 10SM BKN065 34/19 A3005 180 39 2500 VRB/03 RMK AO2 T03440189
53988KBKB BKB20190905120011109/05/19 12:00:31  5-MIN KBKB 051800Z AUTO 05003KT 10SM SCT065 34/19 A3005 180 39 2500 040/03 RMK AO2 T03440189
53988KBKB BKB20190905120511109/05/19 12:05:31  5-MIN KBKB 051805Z AUTO 13003KT 10SM SCT065 34/19 A3005 180 39 2500 130/03 RMK AO2 T03440189
53988KBKB BKB20190905121011109/05/19 12:10:31  5-MIN KBKB 051810Z AUTO 11003KT 10SM SCT065 36/19 A3005 180 38 2600 110/03 RMK AO2 T03560194
53988KBKB BKB20190905121511109/05/19 12:15:31  5-MIN KBKB 051815Z AUTO 14003KT 10SM FEW065 36/18 A3005 180 35 2600 140/03 RMK AO2 T03560183
53988KBKB BKB20190905122011109/05/19 12:20:31  5-MIN KBKB 051820Z AUTO 00000KT 10SM FEW065 36/18 A3004 180 35 2600 000/00 RMK AO2 T03560183
53988KBKB BKB20190905122510809/05/19 12:25:31  5-MIN KBKB 051825Z AUTO 00000KT 10SM CLR 36/19 A3004 190 35 2700 000/00 RMK AO2 T03610189
53988KBKB BKB20190905123011109/05/19 12:30:31  5-MIN KBKB 051830Z AUTO VRB04KT 10SM FEW070 36/19 A3004 190 35 2700 VRB/04 RMK AO2 T03610189
53988KBKB BKB20190905123511109/05/19 12:35:31  5-MIN KBKB 051835Z AUTO 01004KT 10SM FEW070 35/19 A3004 190 38 2500 360/04 RMK AO2 T03500189
53988KBKB BKB20190905124014409/05/19 12:40:31  5-MIN KBKB 051840Z AUTO VRB03KT 10SM FEW070 34/19 A3004 190 42 2400 VRB/03 RMK AO2 T03390194 35 2700 VRB/03 RMK AO2 T03610189
53988KBKB BKB20190905131010809/05/19 13:10:31  5-MIN KBKB 051910Z AUTO 00000KT 10SM CLR 37/19 A3003 200 36 2700 000/00 RMK AO2 T03670194
53988KBKB BKB20190905131510809/05/19 13:15:31  5-MIN KBKB 051915Z AUTO 36004KT 10SM CLR 37/20 A3003 200 37 2700 360/04 RMK AO2 T03670200
53988KBKB BKB20190905132010809/05/19 13:20:31  5-MIN KBKB 051920Z AUTO 27003KT 10SM CLR 36/19 A3002 200 35 2700 270/03 RMK AO2 T03610189
53988KBKB BKB20190905132511109/05/19 13:25:31  5-MIN KBKB 051925Z AUTO 00000KT 10SM FEW070 35/19 A3002 200 39 2600 000/00 RMK AO2 T03500194
53988KBKB BKB20190905132516809/05/19 13:25:31  5-MIN KBKB 051925Z AUTO 00000KT 10SM FEW070 35/19 A3002 200 39 2600 000/00 RMK AO2 T0350019409/0 CLR 36/19 A3003 200 35 2700 VRB/03 RMK AO2 T03610189
53988KBKB BKB20190905133011109/05/19 13:30:31  5-MIN KBKB 051930Z AUTO VRB04KT 10SM FEW070 35/19 A3002 200 39 2600 VRB/04 RMK AO2 T03500194
53988KBKB BKB20190905133510809/05/19 13:35:31  5-MIN KBKB 051935Z AUTO 00000KT 10SM CLR 34/19 A3002 200 42 2400 000/00 RMK AO2 T03390194
53988KBKB BKB20190905134010809/05/19 13:40:31  5-MIN KBKB 051940Z AUTO 00000KT 10SM CLR 34/20 A3002 210 43 2400 000/00 RMK AO2 T03390200
53988KBKB BKB20190905134510809/05/19 13:45:31  5-MIN KBKB 051945Z AUTO 00000KT 10SM CLR 34/19 A3002 210 40 2500 000/00 RMK AO2 T03440194
53988KBKB BKB20190905135011509/05/19 13:50:31  5-MIN KBKB 051950Z AUTO 00000KT 10SM CLR 36/19 A3001 210 37 2700 000/00 RMK AO2 SLP187 T03610194
53988KBKB BKB20190905135510809/05/19 13:55:31  5-MIN KBKB 051955Z AUTO 00000KT 10SM CLR 36/19 A3001 220 37 2700 000/00 RMK AO2 T03610194
53988KBKB BKB20190905140010809/05/19 14:00:31  5-MIN KBKB 052000Z AUTO 00000KT 10SM CLR 36/19 A3001 220 37 2700 000/00 RMK AO2 T03610194
53988KBKB BKB20190905140510809/05/19 14:05:31  5-MIN KBKB 052005Z AUTO VRB03KT 10SM CLR 37/19 A3001 220 34 2800 VRB/03 RMK AO2 T03670189
53988KBKB BKB20190905141010809/05/19 14:10:31  5-MIN KBKB 052010Z AUTO 00000KT 10SM CLR 36/19 A3000 220 35 2700 000/00 RMK AO2 T03610189
53988KBKB BKB20190905141510809/05/19 14:15:31  5-MIN KBKB 052015Z AUTO VRB03KT 10SM CLR 36/19 A3000 220 35 2700 VRB/03 RMK AO2 T03610189
53988KBKB BKB20190905142010809/05/19 14:20:31  5-MIN KBKB 052020Z AUTO 00000KT 10SM CLR 37/19 A3000 230 36 2800 000/00 RMK AO2 T03670194
53988KBKB BKB20190905142510809/05/19 14:25:31  5-MIN KBKB 052025Z AUTO VRB03KT 10SM CLR 37/19 A3000 230 36 2800 VRB/03 RMK AO2 T03670194
53988KBKB BKB20190905143010809/05/19 14:30:31  5-MIN KBKB 052030Z AUTO 00000KT 10SM CLR 37/19 A2999 230 36 2800 000/00 RMK AO2 T03670194
53988KBKB BKB20190905143510809/05/19 14:35:31  5-MIN KBKB 052035Z AUTO VRB03KT 10SM CLR 37/19 A2999 230 36 2800 VRB/03 RMK AO2 T03670194
53988KBKB BKB20190905144010809/05/19 14:40:31  5-MIN KBKB 052040Z AUTO VRB03KT 10SM CLR 37/19 A2999 240 34 2800 VRB/03 RMK AO2 T03670189
53988KBKB BKB20190905144510809/05/19 14:45:31  5-MIN KBKB 052045Z AUTO 00000KT 10SM CLR 37/19 A2999 240 34 2800 000/00 RMK AO2 T03670189
53988KBKB BKB20190905145012109/05/19 14:50:31  5-MIN KBKB 052050Z AUTO 00000KT 10SM CLR 36/19 A2999 240 35 2700 000/00 RMK AO2 SLP179 T03610189 58009
53988KBKB BKB20190905145510809/05/19 14:55:31  5-MIN KBKB 052055Z AUTO VRB03KT 10SM CLR 36/19 A2998 240 35 2700 VRB/03 RMK AO2 T03610189
53988KBKB BKB20190905150010809/05/19 15:00:31  5-MIN KBKB 052100Z AUTO 00000KT 10SM CLR 35/19 A2998 240 39 2600 000/00 RMK AO2 T03500194
53988KBKB BKB20190905150510809/05/19 15:05:31  5-MIN KBKB 052105Z AUTO 00000KT 10SM CLR 36/20 A2998 240 39 2700 000/00 RMK AO2 T03560200
53988KBKB BKB20190905151010809/05/19 15:10:31  5-MIN KBKB 052110Z AUTO 00000KT 10SM CLR 36/19 A2998 240 38 2700 000/00 RMK AO2 T03560194
53988KBKB BKB20190905151510809/05/19 15:15:31  5-MIN KBKB 052115Z AUTO 00000KT 10SM CLR 35/21 A2998 240 42 2600 000/00 RMK AO2 T03500206
53988KBKB BKB20190905152010809/05/19 15:20:31  5-MIN KBKB 052120Z AUTO 00000KT 10SM CLR 34/21 A2998 240 43 2500 000/00 RMK AO2 T03440206
53988KBKB BKB20190905152510809/05/19 15:25:31  5-MIN KBKB 052125Z AUTO 00000KT 10SM CLR 33/21 A2998 240 48 2400 000/00 RMK AO2 T03330211
53988KBKB BKB20190905153010809/05/19 15:30:31  5-MIN KBKB 052130Z AUTO 00000KT 10SM CLR 33/22 A2998 240 51 2400 000/00 RMK AO2 T03330222
53988KBKB BKB20190905153511209/05/19 15:35:31  5-MIN KBKB 052135Z AUTO 00000KT 10SM CLR 35/22 A2998 240 47 2600 000/00 RMK AO2 T035002220228
53988KBKB BKB20190905171010809/05/19 17:10:31  5-MIN KBKB 052310Z AUTO 00000KT 10SM CLR 32/22 A2997 250 56 2300 000/00 RMK AO2 T03170222
53988KBKB BKB20190905171510809/05/19 17:15:31  5-MIN KBKB 052315Z AUTO 00000KT 10SM CLR 32/22 A2997 260 55 2300 000/00 RMK AO2 T03170217
53988KBKB BKB20190905172010809/05/19 17:20:31  5-MIN KBKB 052320Z AUTO 00000KT 10SM CLR 32/22 A2997 250 56 2300 000/00 RMK AO2 T03170222
53988KBKB BKB20190905172510809/05/19 17:25:31  5-MIN KBKB 052325Z AUTO 00000KT 10SM CLR 31/23 A2997 250 62 2100 000/00 RMK AO2 T03060228
53988KBKB BKB20190905173010809/05/19 17:30:31  5-MIN KBKB 052330Z AUTO 00000KT 10SM CLR 31/22 A2997 250 60 2100 000/00 RMK AO2 T03060222
53988KBKB BKB20190905173510809/05/19 17:35:31  5-MIN KBKB 052335Z AUTO 00000KT 10SM CLR 30/23 A2997 250 65 2100 000/00 RMK AO2 T03000228
53988KBKB BKB20190905194010809/05/19 19:40:31  5-MIN KBKB 060140Z AUTO 00000KT 10SM CLR 26/22 A2999 240 81 1600 000/00 RMK AO2 T02560222
53988KBKB BKB20190905194510809/05/19 19:45:31  5-MIN KBKB 060145Z AUTO 00000KT 10SM CLR 26/22 A2999 240 79 1600 000/00 RMK AO2 T02610222
53988KBKB BKB20190905195011409/05/19 19:50:31  5-MIN KBKB 060150Z AUTO 00000KT 9SM CLR 26/22 A2999 240 79 1600 000/00 RMK AO2 SLP179 T02610222
53988KBKB BKB20190905195510809/05/19 19:55:31  5-MIN KBKB 060155Z AUTO 00000KT 10SM CLR 26/22 A2999 240 79 1600 000/00 RMK AO2 T02610222
53988KBKB BKB20190905200010809/05/19 20:00:31  5-MIN KBKB 060200Z AUTO 00000KT 10SM CLR 26/22 A2999 240 81 1600 000/00 RMK AO2 T02560222
53988KBKB BKB20190905200510809/05/19 20:05:31  5-MIN KBKB 060205Z AUTO 00000KT 10SM CLR 26/22 A2999 240 81 1600 000/00 RMK AO2 T02560222
53988KBKB BKB20190905201010809/05/19 20:10:31  5-MIN KBKB 060210Z AUTO 00000KT 10SM CLR 26/22 A2999 230 81 1500 000/00 RMK AO2 T02560222
53988KBKB BKB20190905201510809/05/19 20:15:31  5-MIN KBKB 060215Z AUTO 00000KT 10SM CLR 26/22 A2999 230 81 1500 000/00 RMK AO2 T02560222
53988KBKB BKB20190905202010809/05/19 20:20:31  5-MIN KBKB 060220Z AUTO 00000KT 10SM CLR 26/22 A2999 230 81 1500 000/00 RMK AO2 T02560222
53988KBKB BKB20190905202510809/05/19 20:25:31  5-MIN KBKB 060225Z AUTO 00000KT 10SM CLR 25/23 A2999 230 87 1500 000/00 RMK AO2 T02500228
53988KBKB BKB20190905203010809/05/19 20:30:31  5-MIN KBKB 060230Z AUTO 00000KT 10SM CLR 25/23 A2999 230 87 1500 000/00 RMK AO2 T02500228
53988KBKB BKB20190905203510809/05/19 20:35:31  5-MIN KBKB 060235Z AUTO 00000KT 10SM CLR 25/23 A2999 230 87 1500 000/00 RMK AO2 T02500228
53988KBKB BKB20190905204010809/05/19 20:40:31  5-MIN KBKB 060240Z AUTO 00000KT 10SM CLR 25/23 A2999 230 87 1500 000/00 RMK AO2 T02500228
53988KBKB BKB20190905204510809/05/19 20:45:31  5-MIN KBKB 060245Z AUTO 00000KT 10SM CLR 25/23 A3000 230 87 1500 000/00 RMK AO2 T02500228
53988KBKB BKB20190905205012109/05/19 20:50:31  5-MIN KBKB 060250Z AUTO 00000KT 10SM CLR 24/23 A3000 230 90 1400 000/00 RMK AO2 SLP182 T02440228 55005
53988KBKB BKB20190905205510809/05/19 20:55:31  5-MIN KBKB 060255Z AUTO 00000KT 10SM CLR 24/23 A3000 230 90 1400 000/00 RMK AO2 T02440228
53988KBKB BKB20190905210010809/05/19 21:00:31  5-MIN KBKB 060300Z AUTO 00000KT 10SM CLR 25/22 A3000 230 84 1500 000/00 RMK AO2 T02500222
53988KBKB BKB20190905210510809/05/19 21:05:31  5-MIN KBKB 060305Z AUTO 00000KT 10SM CLR 25/23 A3000 230 87 1500 000/00 RMK AO2 T02500228
53988KBKB BKB20190905211010809/05/19 21:10:31  5-MIN KBKB 060310Z AUTO 00000KT 10SM CLR 24/23 A3000 230 90 1400 000/00 RMK AO2 T02440228
53988KBKB BKB20190905211510809/05/19 21:15:31  5-MIN KBKB 060315Z AUTO 00000KT 10SM CLR 24/23 A3000 230 90 1400 000/00 RMK AO2 T02440228
53988KBKB BKB20190905212010809/05/19 21:20:31  5-MIN KBKB 060320Z AUTO 00000KT 10SM CLR 24/22 A3000 230 87 1400 000/00 RMK AO2 T02440222
53988KBKB BKB20190905212510809/05/19 21:25:31  5-MIN KBKB 060325Z AUTO 00000KT 10SM CLR 24/22 A2999 230 87 1400 000/00 RMK AO2 T02440222
53988KBKB BKB20190905213010809/05/19 21:30:31  5-MIN KBKB 060330Z AUTO 00000KT 10SM CLR 24/22 A2999 230 90 1400 000/00 RMK AO2 T02390222
53988KBKB BKB20190905213510809/05/19 21:35:31  5-MIN KBKB 060335Z AUTO 00000KT 10SM CLR 24/22 A2999 230 90 1400 000/00 RMK AO2 T02390222
53988KBKB BKB20190905214010809/05/19 21:40:31  5-MIN KBKB 060340Z AUTO 00000KT 10SM CLR 24/22 A2999 230 90 1400 000/00 RMK AO2 T02390222
53988KBKB BKB20190905214510809/05/19 21:45:31  5-MIN KBKB 060345Z AUTO 00000KT 10SM CLR 24/22 A2999 230 90 1400 000/00 RMK AO2 T02390222
53988KBKB BKB20190905215010709/05/19 21:50:31  5-MIN KBKB 060350Z AUTO 00000KT 10SM CLR 24/22 A2999 23090 1400 000/00 RMK AO2 T02390222
53988KBKB BKB20190905221010709/05/19 22:10:31  5-MIN KBKB 060410Z AUTO 00000KT 9SM CLR 23/22 A2999 230 93 1300 000/00 RMK AO2 T02330222
53988KBKB BKB20190905221510709/05/19 22:15:31  5-MIN KBKB 060415Z AUTO 00000KT 9SM CLR 23/22 A2999 230 93 1300 000/00 RMK AO2 T02330222
53988KBKB BKB20190905222010109/05/19 22:20:31  5-MIN KBKB 060420Z AUTO 00000KT 9SM CLR 23/22 A2999 17 10294 20228 403670200 53009
53988KBKB BKB20190905235510709/05/19 23:55:31  5-MIN KBKB 060555Z AUTO 00000KT 7SM CLR 23/22 A2999 230 93 1200 000/00 RMK AO2 T02280217
53988KBKB BKB20190906000010709/06/19 00:00:31  5-MIN KBKB 060600Z AUTO 00000KT 7SM CLR 23/22 A2999 230 93 1200 000/00 RMK AO2 T02280217
53988KBKB BKB20190906000510709/06/19 00:05:31  5-MIN KBKB 060605Z AUTO 00000KT 7SM CLR 23/22 A2999 230 93 1200 000/00 RMK AO2 T02280217
53988KBKB BKB20190906001004109/06/19 00:10:31  5-MIN KBKB 060610Z0211
53988KBKB BKB20190906003510709/06/19 00:35:31  5-MIN KBKB 060635Z AUTO 00000KT 7SM CLR 22/21 A2999 230 93 1200 000/00 RMK AO2 T02220211
53988KBKB BKB20190906004010709/06/19 00:40:31  5-MIN KBKB 060640Z AUTO 00000KT 7SM CLR 22/21 A2999 230 93 1200 000/00 RMK AO2 T02220211
53988KBKB BKB20190906004511009/06/19 00:45:31  5-MIN KBKB 060645Z AUTO 00000KT 6SM BR CLR 22/21 A2999 230 93 1200 000/00 RMK AO2 T02220211
53988KBKB BKB20190906005011409/06/19 00:50:31  5-MIN KBKB 060650Z AUTO 00000KT 7SM CLR 22/21 A2999 230 93 1200 000/00 RMK AO2 SLP180 T02220211
53988KBKB BKB20190906005510709/06/19 00:55:31  5-MIN KBKB 060655Z AUTO 00000KT 7SM CLR 22/21 A2999 230 93 1200 000/00 RMK AO2 T02220211
53988KBKB BKB20190906010011009/06/19 01:00:31  5-MIN KBKB 060700Z AUTO 00000KT 6SM BR CLR 22/21 A2999 230 93 1200 000/00 RMK AO2 T02220211
53988KBKB BKB20190906010511009/06/19 01:05:31  5-MIN KBKB 060705Z AUTO 00000KT 6SM BR CLR 22/21 A2999 230 93 1200 000/00 RMK AO2 T02220211
53988KBKB BKB20190906011011009/06/19 01:10:31  5-MIN KBKB 060710Z AUTO 20003KT 6SM BR CLR 22/21 A3000 230 93 1200 200/03 RMK AO2 T02220211
53988KBKB BKB20190906011512809/06/19 01:15:31  5-MIN KBKB 060715Z AUTO 00000KT 6SM BR CLR 22/21  CLR 22/21 A2999 230 93 1200 000/00 RMK AO2 SLP180 T02220211
53988KBKB BKB20190906015510809/06/19 01:55:31  5-MIN KBKB 060755Z AUTO 00000KT 10SM CLR 22/21 A2999 230 90 1200 000/00 RMK AO2 T02220206
53988KBKB BKB20190906020010809/06/19 02:00:31  5-MIN KBKB 060800Z AUTO 00000KT 10SM CLR 22/21 A2999 230 90 1200 000/00 RMK AO2 T02220206
53988KBKB BKB20190906020510809/06/19 02:05:31  5-MIN KBKB 060805Z AUTO 00000KT 10SM CLR 22/21 A2999 230 90 1200 000/00 RMK AO2 T02220206
53988KBKB BKB20190906021010809/06/19 02:10:31  5-MIN KBKB 060810Z AUTO 00000KT 10SM CLR 22/21 A2999 230 90 1200 000/00 RMK AO2 T02220206
53988KBKB BKB20190906021510809/06/19 02:15:31  5-MIN KBKB 060815Z AUTO 00000KT 10SM CLR 22/21 A2999 230 90 1200 000/00 RMK AO2 T02220206
53988KBKB BKB20190906022010709/06/19 02:20:31  5-MIN KBKB 060820Z AUTO 00000KT 9SM CLR 22/21 A2999 230 90 1200 000/00 RMK AO2 T02220206
53988KBKB BKB20190906022510709/06/19 02:25:31  5-MIN KBKB 060825Z AUTO 00000KT 9SM CLR 22/21 A2999 230 93 1100 000/00 RMK AO2 T02170206
53988KBKB BKB20190906023010709/06/19 02:30:31  5-MIN KBKB 060830Z AUTO 00000KT 8SM CLR 22/21 A2999 230 93 1100 000/00 RMK AO2 T02170206
53988KBKB BKB20190906023510709/06/19 02:35:31  5-MIN KBKB 060835Z AUTO 00000KT 8SM CLR 22/21 A2999 230 93 1100 000/00 RMK AO2 T02170206
53988KBKB BKB20190906024010709/06/19 02:40:31  5-MIN KBKB 060840Z AUTO 00000KT 8SM CLR 22/21 A2999 230 93 1100 000/00 RMK AO2 T02170206
53988KBKB BKB20190906024510709/06/19 02:45:31  5-MIN KBKB 060845Z AUTO 00000KT 9SM CLR 22/21 A3000 230 93 1100 000/00 RMK AO2 T02170206
53988KBKB BKB20190906025012009/06/19 02:50:31  5-MIN KBKB 060850Z AUTO 00000KT 9SM CLR 22/21 A3000 230 93 1100 000/00 RMK AO2 SLP181 T02170206 56001
53988KBKB BKB20190906025510709/06/19 02:55:31  5-MIN KBKB 060855Z AUTO 00000KT 9SM CLR 22/21 A2999 230 90 1200 000/00 RMK AO2 T02220206
53988KBKB BKB20190906030010709/06/19 03:00:31  5-MIN KBKB 060900Z AUTO 00000KT 9SM CLR 22/21 A2999 230 93 1100 000/00 RMK AO2 T02170206
53988KBKB BKB20190906030510709/06/19 03:05:31  5-MIN KBKB 060905Z AUTO 00000KT 9SM CLR 22/21 A3000 230 93 1100 000/00 RMK AO2 T02170206
53988KBKB BKB20190906031010709/06/19 03:10:31  5-MIN KBKB 060910Z AUTO 00000KT 9SM CLR 22/21 A3000 230 93 1100 000/00 RMK AO2 T02170206
53988KBKB BKB20190906031510809/06/19 03:15:31  5-MIN KBKB 060915Z AUTO 00000KT 10SM CLR 22/21 A3000 230 93 1100 000/00 RMK AO2 T02170206
53988KBKB BKB20190906032010809/06/19 03:20:31  5-MIN KBKB 060920Z AUTO 00000KT 10SM CLR 22/21 A3000 230 93 1100 000/00 RMK AO2 T02170206
53988KBKB BKB20190906032510809/06/19 03:25:31  5-MIN KBKB 060925Z AUTO 00000KT 10SM CLR 22/21 A3000 230 93 1100 000/00 RMK AO2 T02170206
53988KBKB BKB20190906033010809/06/19 03:30:31  5-MIN KBKB 060930Z AUTO 00000KT 10SM CLR 22/21 A3000 230 93 1100 000/00 RMK AO2 T02170206
53988KBKB BKB20190906033510809/06/19 03:35:31  5-MIN KBKB 060935Z AUTO 00000KT 10SM CLR 22/21 A3000 230 90 1200 000/00 RMK AO2 T02220206
53988KBKB BKB20190906034010809/06/19 03:40:31  5-MIN KBKB 060940Z AUTO 00000KT 10SM CLR 22/21 A3000 230 90 1200 000/00 RMK AO2 T02220206
53988KBKB BKB20190906034510809/06/19 03:45:31  5-MIN KBKB 060945Z AUTO 00000KT 10SM CLR 22/21 A3000 220 90 1200 000/00 RMK AO2 T02220206
53988KBKB BKB20190906035011509/06/19 03:50:31  5-MIN KBKB 060950Z AUTO 00000KT 10SM CLR 22/21 A3000 220 90 1200 000/00 RMK AO2 SLP183 T02220206
53988KBKB BKB20190906035509109/06/19 03:55:31  5-MIN KBKB 060955Z AUTO 00000KT 10SM CLR90 1100 000/00 RMK AO2 T02170200
53988KBKB BKB20190906044510809/06/19 04:45:31  5-MIN KBKB 061045Z AUTO 00000KT 10SM CLR 22/20 A3001 210 90 1100 000/00 RMK AO2 T02170200
53988KBKB BKB20190906045011509/06/19 04:50:31  5-MIN KBKB 061050Z AUTO 00000KT 10SM CLR 22/20 A3001 210 90 1100 000/00 RMK AO2 SLP189 T02170200
53988KBKB BKB20190906045514409/06/19 04:55:31  5-MIN KBKB 061055Z AUTO 00000KT 10SM CLR 22/20 A3001 210 90 1100 000/00 RMK AO2 T02170200190 90 1200 000/00 RMK AO2 T02280211
53988KBKB BKB20190906064510709/06/19 06:45:31  5-MIN KBKB 061245Z AUTO 00000KT 7SM CLR 23/22 A3004 190 93 1200 000/00 RMK AO2 T02280217
53988KBKB BKB20190906065011409/06/19 06:50:31  5-MIN KBKB 061250Z AUTO 00000KT 8SM CLR 23/22 A3004 190 90 1200 000/00 RMK AO2 SLP198 T02330217
53988KBKB BKB20190906065511909/06/19 06:55:31  5-MIN KBKB 061255Z AUTO 00000KT 9SM CLR 24/22 A3004 180 87 1300 000/00 RMK AO2 T0239021709/06/120222
53988KBKB BKB20190906073510809/06/19 07:35:31  5-MIN KBKB 061335Z AUTO 00000KT 10SM CLR 28/22 A3005 180 71 1700 000/00 RMK AO2 T02780222
53988KBKB BKB20190908065011709/08/19 06:50:31  5-MIN KBKB 081250Z AUTO 00000KT 10SM CLR 24/22 A3001 220 90 1300 000/00 RMK AO2 SLP187 T02390222 $
53988KBKB BKB20190908065511009/08/19 06:55:31  5-MIN KBKB 081255Z AUTO 00000KT 10SM CLR 24/23 A3001 220 90 1400 000/00 RMK AO2 T02440228 $
53988KBKB BKB20190908070011009/08/19 07:00:31  5-MIN KBKB 081300Z AUTO 00000KT 10SM CLR 24/23 A3001 220 90 1400 000/00 RMK AO2 T02440228 $
53988KBKB BKB20190908070511009/08/19 07:05:31  5-MIN KBKB 081305Z AUTO 00000KT 10SM CLR 25/23 A3001 220 87 1500 000/00 RMK AO2 T02500228 $
53988KBKB BKB20190908071011009/08/19 07:10:31  5-MIN KBKB 081310Z AUTO 00000KT 10SM CLR 25/23 A3001 220 87 1500 000/00 RMK AO2 T02500228 $
53988KBKB BKB20190908071511009/08/19 07:15:31  5-MIN KBKB 081315Z AUTO 00000KT 10SM CLR 26/23 A3000 220 84 1500 000/00 RMK AO2 T02560228 $
53988KBKB BKB20190908072011009/08/19 07:20:31  5-MIN KBKB 081320Z AUTO 00000KT 10SM CLR 26/23 A3000 220 84 1600 000/00 RMK AO2 T02610233 $
53988KBKB BKB20190908072511009/08/19 07:25:31  5-MIN KBKB 081325Z AUTO VRB03KT 10SM CLR 26/23 A3000 220 81 1600 VRB/03 RMK AO2 T02610228 $
53988KBKB BKB20190908073011009/08/19 07:30:31  5-MIN KBKB 081330Z AUTO VRB03KT 10SM CLR 26/23 A3000 220 81 1600 VRB/03 RMK AO2 T02610228 $
53988KBKB BKB20190908073511009/08/19 07:35:31  5-MIN KBKB 081335Z AUTO 00000KT 10SM CLR 27/23 A3000 220 82 1700 000/00 RMK AO2 T02670233 $
53988KBKB BKB20190908074011009/08/19 07:40:31  5-MIN KBKB 081340Z AUTO 00000KT 10SM CLR 27/23 A3000 220 79 1700 000/00 RMK AO2 T02670228 $
53988KBKB BKB20190908074511009/08/19 07:45:31  5-MIN KBKB 081345Z AUTO 00000KT 10SM CLR 27/23 A3000 220 79 1700 000/00 RMK AO2 T02720233 $
53988KBKB BKB20190908075011709/08/19 07:50:31  5-MIN KBKB 081350Z AUTO VRB03KT 10SM CLR 27/23 A3001 220 79 1700 VRB/03 RMK AO2 SLP186 T02720233 $
53988KBKB BKB20190908075511009/08/19 07:55:31  5-MIN KBKB 081355Z AUTO VRB03KT 10SM CLR 27/23 A3001 220 79 1700 VRB/03 RMK AO2 T02720233 $
53988KBKB BKB20190908080011009/08/19 08:00:31  5-MIN KBKB 081400Z AUTO VRB04KT 10SM CLR 28/23 A3001 220 74 1800 VRB/04 RMK AO2 T02780228 $
53988KBKB BKB20190908080511009/08/19 08:05:31  5-MIN KBKB 081405Z AUTO 00000KT 10SM CLR 28/23 A3001 220 74 1800 000/00 RMK AO2 T02830233 $
53988KBKB BKB20190908081011009/08/19 08:10:31  5-MIN KBKB 081410Z AUTO VRB03KT 10SM CLR 28/23 A3001 220 74 1800 VRB/03 RMK AO2 T02830233 $
53988KBKB BKB20190908081511009/08/19 08:15:31  5-MIN KBKB 081415Z AUTO 00000KT 10SM CLR 28/23 A3001 220 74 1800 000/00 RMK AO2 T02830233 $
53988KBKB BKB20190908082010009/08/19 08:20:31  5-MIN KBKB 081420Z AUTO 10SM CLR 29/23 A3001 220 69 1900 M /M RMK AO2 T02890228 $
53988KBKB BKB20190908082511009/08/19 08:25:31  5-MIN KBKB 081425Z AUTO 00000KT 10SM CLR 29/23 A3001 220 69 1900 000/00 RMK AO2 T02890228 $
53988KBKB BKB20190908083011009/08/19 08:30:31  5-MIN KBKB 081430Z AUTO 00000KT 10SM CLR 29/23 A3001 220 69 1900 000/00 RMK AO2 T02890228 $
53988KBKB BKB20190908083511009/08/19 08:35:31  5-MIN KBKB 081435Z AUTO 00000KT 10SM CLR 29/23 A3001 210 69 2000 000/00 RMK AO2 T02940233 $
53988KBKB BKB20190908084011009/08/19 08:40:31  5-MIN KBKB 081440Z AUTO 00000KT 10SM CLR 29/23 A3001 220 69 2000 000/00 RMK AO2 T02940233 $
53988KBKB BKB20190908084511009/08/19 08:45:31  5-MIN KBKB 081445Z AUTO 00000KT 10SM CLR 30/23 A3001 220 67 2000 000/00 RMK AO2 T03000233 $
53988KBKB BKB20190908085012309/08/19 08:50:31  5-MIN KBKB 081450Z AUTO VRB04KT 10SM CLR 30/23 A3001 220 65 2000 VRB/04 RMK AO2 SLP187 T03000228 53010 $
53988KBKB BKB20190908124011009/08/19 12:40:31  5-MIN KBKB 081840Z AUTO 00000KT 10SM CLR 36/22 A2997 250 45 2700 000/00 RMK AO2 T03560222 $
53988KBKB BKB20190908124511009/08/19 12:45:31  5-MIN KBKB 081845Z AUTO VRB03KT 10SM CLR 36/22 A2997 250 45 2700 VRB/03 RMK AO2 T03560222 $
53988KBKB BKB20190908125011709/08/19 12:50:31  5-MIN KBKB 081850Z AUTO VRB04KT 10SM CLR 36/22 A2997 250 44 2700 VRB/04 RMK AO2 SLP172 T03560217 $
53988KBKB BKB20190908125514509/08/19 12:55:31  5-MIN KBKB 081855Z AUTO VRB04KT 10SM CLR 36/21 A2997 260 42 2700 VRB/04 RMK AO2 T03560211 $ 69 1900 000/00 RMK AO2 T02830222 $
53988KBKB BKB20190908184011009/08/19 18:40:31  5-MIN KBKB 090040Z AUTO 00000KT 10SM CLR 28/23 A2995 270 71 1900 000/00 RMK AO2 T02830228 $
53988KBKB BKB20190908184511009/08/19 18:45:31  5-MIN KBKB 090045Z AUTO 00000KT 10SM CLR 28/23 A2995 270 71 1900 000/00 RMK AO2 T02830228 $
53988KBKB BKB20190909045011909/09/19 04:50:31  5-MIN KBKB 091050Z AUTO 00000KT 6SM BR CLR 23/22 A3001 210 93 1300 000/00 RMK AO2 SLP188 T02330222 $
53988KBKB BKB20190909045510909/09/19 04:55:31  5-MIN KBKB 091055Z AUTO 00000KT 7SM CLR 23/22 A3001 210 93 1300 000/00 RMK AO2 T02330222 $
53988KBKB BKB20190909050010909/09/19 05:00:31  5-MIN KBKB 091100Z AUTO 00000KT 7SM CLR 23/22 A3001 210 93 1300 000/00 RMK AO2 T02330222 $
53988KBKB BKB20190909050510909/09/19 05:05:31  5-MIN KBKB 091105Z AUTO 00000KT 7SM CLR 23/22 A3001 210 93 1300 000/00 RMK AO2 T02330222 $
53988KBKB BKB20190909051011009/09/19 05:10:31  5-MIN KBKB 091110Z AUTO 00000KT 6SM BR CLR 23/22 A3002 210 93 1300 000/00 RMK AO2 T02330222
53988KBKB BKB20190909051510709/09/19 05:15:31  5-MIN KBKB 091115Z AUTO 00000KT 7SM CLR 23/22 A3002 210 93 1300 000/00 RMK AO2 T02330222
53988KBKB BKB20190909052010709/09/19 05:20:31  5-MIN KBKB 091120Z AUTO 00000KT 7SM CLR 23/22 A3002 210 93 1300 000/00 RMK AO2 T02330222
53988KBKB BKB20190909052510709/09/19 05:25:31  5-MIN KBKB 091125Z AUTO 00000KT 7SM CLR 23/22 A3002 210 93 1300 000/00 RMK AO2 T02330222
53988KBKB BKB20190909053010709/09/19 05:30:31  5-MIN KBKB 091130Z AUTO 00000KT 7SM CLR 23/22 A3002 210 93 1300 000/00 RMK AO2 T02330222
53988KBKB BKB20190909053511009/09/19 05:35:31  5-MIN KBKB 091135Z AUTO 00000KT 6SM BR CLR 23/22 A3002 200 93 1300 000/00 RMK AO2 T02330222
53988KBKB BKB20190909054011009/09/19 05:40:31  5-MIN KBKB 091140Z AUTO 00000KT 6SM BR CLR 23/22 A3003 200 93 1300 000/00 RMK AO2 T02330222
53988KBKB BKB20190909054511009/09/19 05:45:31  5-MIN KBKB 091145Z AUTO 00000KT 5SM BR CLR 23/22 A3003 200 93 1300 000/00 RMK AO2 T02330222
53988KBKB BKB20190909055013509/09/19 05:50:31  5-MIN KBKB 091150Z AUTO 00000KT 5SM BR CLR 23/22 A3003 200 93 1300 000/00 RMK AO2 SLP194 T02330222 10239 20233 50001
53988KBKB BKB20190909055511009/09/19 05:55:31  5-MIN KBKB 091155Z AUTO 00000KT 4SM BR CLR 23/22 A3003 200 93 1300 000/00 RMK AO2 T02330222
53988KBKB BKB20190909060011009/09/19 06:00:31  5-MIN KBKB 091200Z AUTO 00000KT 3SM BR CLR 23/22 A3003 190 93 1200 000/00 RMK AO2 T02330222
53988KBKB BKB20190909060511009/09/19 06:05:31  5-MIN KBKB 091205Z AUTO 00000KT 4SM BR CLR 23/22 A3003 190 93 1200 000/00 RMK AO2 T02330222
53988KBKB BKB20190909061011009/09/19 06:10:31  5-MIN KBKB 091210Z AUTO 00000KT 4SM BR CLR 23/22 A3004 190 93 1200 000/00 RMK AO2 T02330222
53988KBKB BKB20190909061511009/09/19 06:15:31  5-MIN KBKB 091215Z AUTO 00000KT 5SM BR CLR 23/22 A3004 190 93 1200 000/00 RMK AO2 T02330222
53988KBKB BKB20190909062011009/09/19 06:20:31  5-MIN KBKB 091220Z AUTO 00000KT 4SM BR CLR 23/23 A3004 190 97 1200 000/00 RMK AO2 T02330228
53988KBKB BKB20190909062511009/09/19 06:25:31  5-MIN KBKB 091225Z AUTO 00000KT 4SM BR CLR 23/23 A3004 180 97 1200 000/00 RMK AO2 T02330228
53988KBKB BKB20190909063011009/09/19 06:30:31  5-MIN KBKB 091230Z AUTO 00000KT 4SM BR CLR 24/23 A3005 180 93 1300 000/00 RMK AO2 T02390228
53988KBKB BKB20190909063511009/09/19 06:35:31  5-MIN KBKB 091235Z AUTO 00000KT 5SM BR CLR 24/23 A3005 180 93 1300 000/00 RMK AO2 T02390228
53988KBKB BKB20190909064011009/09/19 06:40:31  5-MIN KBKB 091240Z AUTO 00000KT 6SM BR CLR 24/23 A3005 180 93 1300 000/00 RMK AO2 T02390228
53988KBKB BKB20190909064510709/09/19 06:45:31  5-MIN KBKB 091245Z AUTO 00000KT 7SM CLR 24/23 A3005 180 93 1400 000/00 RMK AO2 T02440233
53988KBKB BKB20190909065011409/09/19 06:50:31  5-MIN KBKB 091250Z AUTO 00000KT 7SM CLR 24/23 A3005 180 93 1400 000/00 RMK AO2 SLP202 T02440233
53988KBKB BKB20190909065511009/09/19 06:55:31  5-MIN KBKB 091255Z AUTO 00000KT 6SM BR CLR 24/24 A3006 170 97 1300 000/00 RMK AO2 T02440239
53988KBKB BKB20190909070011009/09/19 07:00:31  5-MIN KBKB 091300Z AUTO 00000KT 6SM BR CLR 25/23 A3006 170 90 1400 000/00 RMK AO2 T02500233
53988KBKB BKB20190909070510709/09/19 07:05:31  5-MIN KBKB 091305Z AUTO 00000KT 7SM CLR 25/24 A3006 170 93 1400 000/00 RMK AO2 T02500239
53988KBKB BKB20190909071010709/09/19 07:10:31  5-MIN KBKB 091310Z AUTO 00000KT 7SM CLR 25/24 A3006 170 93 1400 000/00 RMK AO2 T02500239
53988KBKB BKB20190909071510709/09/19 07:15:31  5-MIN KBKB 091315Z AUTO 00000KT 8SM CLR 25/24 A3006 170 93 1400 000/00 RMK AO2 T02500239
53988KBKB BKB20190909072010709/09/19 07:20:31  5-MIN KBKB 091320Z AUTO 00000KT 9SM CLR 25/24 A3006 170 93 1400 000/00 RMK AO2 T02500239
53988KBKB BKB20190909072510709/09/19 07:25:31  5-MIN KBKB 091325Z AUTO 00000KT 8SM CLR 26/24 A3006 170 90 1500 000/00 RMK AO2 T02560239
53988KBKB BKB20190909073010709/09/19 07:30:31  5-MIN KBKB 091330Z AUTO 00000KT 9SM CLR 26/24 A3006 170 90 1500 000/00 RMK AO2 T02560239
53988KBKB BKB20190909073510709/09/19 07:35:31  5-MIN KBKB 091335Z AUTO 00000KT 9SM CLR 26/24 A3006 170 90 1500 000/00 RMK AO2 T02560239
53988KBKB BKB20190909074010709/09/19 07:40:31  5-MIN KBKB 091340Z AUTO 00000KT 9SM CLR 26/24 A3007 160 87 1500 000/00 RMK AO2 T02610239
53988KBKB BKB20190909074511009/09/19 07:45:31  5-MIN KBKB 091345Z AUTO 00000KT 9SM FEW070 26/24 A3007 160 90 1500 000/00 RMK AO2 T02610244
53988KBKB BKB20190909075011709/09/19 07:50:31  5-MIN KBKB 091350Z AUTO 00000KT 9SM SCT070 26/24 A3007 160 87 1500 000/00 RMK AO2 SLP208 T02610239
53988KBKB BKB20190909075511109/09/19 07:55:31  5-MIN KBKB 091355Z AUTO 00000KT 10SM SCT070 26/24 A3007 160 87 1500 000/00 RMK AO2 T02610239
53988KBKB BKB20190909080011109/09/19 08:00:31  5-MIN KBKB 091400Z AUTO 00000KT 10SM SCT075 26/24 A3007 160 90 1500 000/00 RMK AO2 T02610244
53988KBKB BKB20190909080511109/09/19 08:05:31  5-MIN KBKB 091405Z AUTO 00000KT 10SM BKN070 26/24 A3007 160 90 1500 000/00 RMK AO2 T02610244
53988KBKB BKB20190909081011109/09/19 08:10:31  5-MIN KBKB 091410Z AUTO 00000KT 10SM BKN070 27/24 A3007 160 84 1600 000/00 RMK AO2 T02670239
53988KBKB BKB20190909081511809/09/19 08:15:31  5-MIN KBKB 091415Z AUTO 00000KT 10SM SCT070 BKN095 27/24 A3007 160 87 1600 000/00 RMK AO2 T02670244
53988KBKB BKB20190909082011809/09/19 08:20:31  5-MIN KBKB 091420Z AUTO 00000KT 10SM FEW070 SCT095 27/24 A3007 160 84 1600 000/00 RMK AO2 T02670239
53988KBKB BKB20190909082511109/09/19 08:25:31  5-MIN KBKB 091425Z AUTO 00000KT 10SM FEW070 27/24 A3007 160 84 1600 000/00 RMK AO2 T02720244
53988KBKB BKB20190909083011109/09/19 08:30:31  5-MIN KBKB 091430Z AUTO 00000KT 10SM FEW070 27/24 A3007 160 84 1600 000/00 RMK AO2 T02720244
53988KBKB BKB20190909083510809/09/19 08:35:31  5-MIN KBKB 091435Z AUTO 00000KT 10SM CLR 27/24 A3007 160 84 1600 000/00 RMK AO2 T02720244
53988KBKB BKB20190909084010809/09/19 08:40:31  5-MIN KBKB 091440Z AUTO 00000KT 10SM CLR 28/24 A3007 160 82 1700 000/00 RMK AO2 T02780244
53988KBKB BKB20190909084510809/09/19 08:45:31  5-MIN KBKB 091445Z AUTO 00000KT 10SM CLR 28/24 A3007 160 79 1800 000/00 RMK AO2 T02830244
53988KBKB BKB20190909085012109/09/19 08:50:31  5-MIN KBKB 091450Z AUTO 00000KT 10SM CLR 28/24 A3007 160 79 1800 000/00 RMK AO2 SLP207 T02830244 53010
53988KBKB BKB20190909085510809/09/19 08:55:31  5-MIN KBKB 091455Z AUTO 00000KT 10SM CLR 29/24 A3007 160 76 1800 000/00 RMK AO2 T02890244
53988KBKB BKB20190909090010809/09/19 09:00:31  5-MIN KBKB 091500Z AUTO 00000KT 10SM CLR 29/24 A3007 160 74 1900 000/00 RMK AO2 T02940244
53988KBKB BKB20190909090510809/09/19 09:05:31  5-MIN KBKB 091505Z AUTO 00000KT 10SM CLR 29/24 A3007 160 74 1900 000/00 RMK AO2 T02940244
53988KBKB BKB20190909091010809/09/19 09:10:31  5-MIN KBKB 091510Z AUTO 00000KT 10SM CLR 30/24 A3007 160 69 2000 000/00 RMK AO2 T03000239
53988KBKB BKB20190909091510809/09/19 09:15:31  5-MIN KBKB 091515Z AUTO 00000KT 10SM CLR 30/24 A3007 160 69 2000 000/00 RMK AO2 T03000239
53988KBKB BKB20190909092010809/09/19 09:20:31  5-MIN KBKB 091520Z AUTO 00000KT 10SM CLR 31/24 A3007 160 65 2100 000/00 RMK AO2 T03110239
53988KBKB BKB20190909092510809/09/19 09:25:31  5-MIN KBKB 091525Z AUTO 00000KT 10SM CLR 30/23 A3007 160 67 2000 000/00 RMK AO2 T03000233
53988KBKB BKB20190909093011109/09/19 09:30:31  5-MIN KBKB 091530Z AUTO 00000KT 10SM FEW065 31/24 A3007 160 67 2000 000/00 RMK AO2 T03060239
53988KBKB BKB20190909093511809/09/19 09:35:31  5-MIN KBKB 091535Z AUTO 00000KT 10SM FEW050 FEW065 31/24 A3007 160 67 2000 000/00 RMK AO2 T03060239
53988KBKB BKB20190909094011109/09/19 09:40:31  5-MIN KBKB 091540Z AUTO 00000KT 10SM FEW050 31/24 A3007 160 65 2100 000/00 RMK AO2 T03110239
53988KBKB BKB20190909094511109/09/19 09:45:31  5-MIN KBKB 091545Z AUTO VRB03KT 10SM FEW050 32/24 A3007 160 63 2100 VRB/03 RMK AO2 T03170239
53988KBKB BKB20190909095012509/09/19 09:50:31  5-MIN KBKB 091550Z AUTO 00000KT 10SM FEW050 FEW065 32/24 A3007 160 63 2100 000/00 RMK AO2 SLP208 T03170239
53988KBKB BKB20190909095513309/09/19 09:55:31  5-MIN KBKB 091555Z AUTO 00000KT 10SM FEW050 FEW060 32/24 A3007 160 61 2200 000/00 RMK AO0 000/00 RMK AO2 T03330233
53988KBKB BKB20190909110511109/09/19 11:05:31  5-MIN KBKB 091705Z AUTO VRB05KT 10SM BKN039 34/23 A3004 180 53 2400 VRB/05 RMK AO2 T03390233
53988KBKB BKB20190909111011109/09/19 11:10:31  5-MIN KBKB 091710Z AUTO 14005KT 10SM BKN039 34/23 A3004 180 53 2400 140/05 RMK AO2 T03390233
53988KBKB BKB20190909111511109/09/19 11:15:31  5-MIN KBKB 091715Z AUTO VRB05KT 10SM SCT039 34/23 A3004 180 52 2500 VRB/05 RMK AO2 T03440233
53988KBKB BKB20190909112011109/09/19 11:20:31  5-MIN KBKB 091720Z AUTO VRB03KT 10SM FEW037 33/23 A3004 180 55 2400 VRB/03 RMK AO2 T03330233
53988KBKB BKB20190909112511809/09/19 11:25:31  5-MIN KBKB 091725Z AUTO 07003KT 10SM FEW037 SCT049 33/23 A3004 190 55 2300 070/03 RMK AO2 T03280228
53988KBKB BKB20190909113004309/09/19 11:30:31  5-MIN KBKB 091730Z 90233
53988KBKB BKB20190909113011809/09/19 11:30:31  5-MIN KBKB 091730Z AUTO VRB04KT 10SM FEW037 SCT049 33/23 A3004 190 55 2400 VRB/04 RMK AO2 T03330233
53988KBKB BKB20190909113019209/09/19 11:30:31  5-MIN KBKB 091730Z AUTO VRB04KT 10SM FEW037 SCT049 33/23 A3004 190 55 2400 VRB/04 RMK AO2 T0333023309/09/19 11:35:31  SCT080 33/22 A2996 260 51 2400 120/03 RMK AO2 T03330222
53988KBKB BKB20190909113511809/09/19 11:35:31  5-MIN KBKB 091735Z AUTO VRB04KT 10SM FEW041 FEW049 33/24 A3004 190 59 2300 VRB/04 RMK AO2 T03280239
53988KBKB BKB20190909113514709/09/19 11:35:31  5-MIN KBKB 091735Z AUTO VRB04KT 10SM FEW041 FEW049 33/24 A300RB05KT 10SM SCT039 34/23 A3004 180 52 2500 VRB/05 RMK AO2 T03440233
53988KBKB BKB20190909114011109/09/19 11:40:31  5-MIN KBKB 091740Z AUTO VRB03KT 10SM SCT047 33/24 A3004 190 59 2300 VRB/03 RMK AO2 T03280239
53988KBKB BKB20190909114514909/09/19 11:45:31  5-MIN KBKB 091745Z AUTO 00000KT 10SM SCT047 BK25Z AUTO 07003KT 10SM FEW037 SCT049 33/23 A3004 190 55 2300 070/03 RMK AO2 T03280228
53988KBKB BKB20190909151012509/09/19 15:10:31  5-MIN KBKB 092110Z AUTO 13003KT 10SM FEW047 SCT060 SCT080 33/22 A2996 260 51 2400 120/03 RMK AO2 T03330222
53988KBKB BKB20190909151512509/09/19 15:15:31  5-MIN KBKB 092115Z AUTO VRB03KT 10SM SCT047 SCT060 BKN080 33/23 A2996 260 53 2400 VRB/03 RMK AO2 T03330228
53988KBKB BKB20190909152012709/09/19 15:20:31  5-MIN KBKB 092120Z AUTO VRB03KT 10SM TS FEW047 SCT060 33/23 A2996 260 53 2400 VRB/03 RMK AO2 TSB18 T03330228
53988KBKB BKB20190909152511909/09/19 15:25:31  5-MIN KBKB 092125Z AUTO VRB03KT 10SM TS 10SM FEW047 34/23 A2996 260 50 2600 VRB/04 RMK AO2 T03440228
53988KBKB BKB20190909152512709/09/19 15:25:31  5-MIN KBKB 092125Z AUTO VRB03KT 10SM TS FEW047 FEW060 33/22 A2996 260 53 2400 VRB/03 RMK AO2 TSB18 T03280222
53988KBKB BKB20190909152518409/09/19 15:25:31  5-MIN KBKB 092125Z AUTO VRB03KT 10SM TS FEW047 FEW060 33/22 A2996 260 53 2400 VRB0SM TS FEW031 FEW120 24/22 A2999 230 90 1400 000/00 RMK AO2 RAB13E31 P0003 T02390222
53988KBKB BKB20190909153012709/09/19 15:30:31  5-MIN KBKB 092130Z AUTO VRB03KT 10SM TS FEW048 FEW060 32/22 A2996 260 53 2300 VRB/03 RMK AO2 TSB18 T03220217
53988KBKB BKB20190909153018209/09/19 15:30:31  5-MIN KBKB 092130Z AUTO VRB03KT 10SM TS FEW048 FEW060 32/22 A2996 260 53 2300 VRB/03 RMK AO2 TSB18 T03220217BKN080 33/23 A2996 260 53 2400 VRB/03 RMK AO2 T03330228
53988KBKB BKB20190909153512709/09/19 15:35:31  5-MIN KBKB 092135Z AUTO 00000KT 10SM TS FEW048 FEW060 32/22 A2996 260 53 2300 000/00 RMK AO2 TSB18 T03220217
53988KBKB BKB20190909154011509/09/19 15:40:31  5-MIN KBKB 092140Z AUTO 00000KT 10SM TS CLR 32/22 A2996 260 56 2300 000/00 RMK AO2 B18 T03330228
53988KBKB BKB20190909155012409/09/19 15:50:31  5-MIN KBKB 092150Z AUTO VRB03KT 10SM TS CLR 31/23 A2997 250 60 2200 VRB/03 RMK AO2 TSB18 SLP174 T03110228
53988KBKB BKB20190909155511109/09/19 15:55:31  5-MIN KBKB 092155Z AUTO 00000KT 10SM TS CLR 31/23 A2997 250 60 2200 000/00 RMK AO2 T03110228
53988KBKB BKB20190909160011109/09/19 16:00:31  5-MIN KBKB 092200Z AUTO VRB05KT 10SM TS CLR 31/23 A2997 250 60 2200 VRB/05 RMK AO2 T03110228
53988KBKB BKB20190909160511109/09/19 16:05:31  5-MIN KBKB 092205Z AUTO VRB05KT 10SM TS CLR 31/23 A2997 250 60 2200 VRB/05 RMK AO2 T03110228
53988KBKB BKB20190909161011409/09/19 16:10:31  5-MIN KBKB 092210Z AUTO VRB03KT 10SM TS FEW049 31/23 A2998 240 62 2100 VRB/03 RMK AO2 T03060228
53988KBKB BKB20190909161513509/09/19 16:15:31  5-MIN KBKB 092215Z AUTO VRB03KT 8SM -TSRA FEW049 29/23 A2999 230 67 2000 VRB/03 RMK AO2 RAB13 PRESRR P0000 T02940228
53988KBKB BKB20190909162014209/09/19 16:20:31  5-MIN KBKB 092220Z AUTO VRB05KT 4SM +TSRA FEW039 SCT048 BKN070 26/21 A2999 230 73 1500 VRB/05 RMK AO2 RAB13 P0003 T02560206
53988KBKB BKB20190909162514209/09/19 16:25:31  5-MIN KBKB 092225Z AUTO 00000KT 4SM -TSRA SCT034 SCT048 BKN120 24/21 A2999 230 84 1400 000/00 RMK AO2 RAB13 P0003 T02390211
53988KBKB BKB20190909163014309/09/19 16:30:31  5-MIN KBKB 092230Z AUTO 00000KT 10SM -TSRA FEW030 SCT048 SCT120 24/22 A2999 230 87 1400 000/00 RMK AO2 RAB13 P0003 T02390217
53988KBKB BKB20190909163514309/09/19 16:35:31  5-MIN KBKB 092235Z AUTO 00000KT 10SM TS FEW034 SCT048 SCT120 23/22 A3000 230 90 1300 000/00 RMK AO2 RAB13E31 P0003 T02330217
53988KBKB BKB20190909164014309/09/19 16:40:31  5-MIN KBKB 092240Z AUTO 22003KT 10SM TS FEW034 FEW048 SCT120 24/22 A3000 220 90 1300 220/03 RMK AO2 RAB13E31 P0003 T02390222
53988KBKB BKB20190909164513609/09/19 16:45:31  5-MIN KBKB 092245Z AUTO 00000KT 10SM TS FEW031 FEW120 24/22 A2999 230 90 1400 000/00 RMK AO2 RAB13E31 P0003 T02390222
53988KBKB BKB20190909165013609/09/19 16:50:31  5-MIN KBKB 092250Z AUTO 00000KT 10SM TS FEW120 24/22 A3000 230 90 1400 000/00 RMK AO2 RAB13E31 SLP183 P0003 T02390222
53988KBKB BKB20190909165511109/09/19 16:55:31  5-MIN KBKB 092255Z AUTO 00000KT 10SM TS CLR 24/23 A3000 220 90 1400 000/00 RMK AO2 T02440228
53988KBKB BKB20190909170012109/09/19 17:00:31  5-MIN KBKB 092300Z AUTO 00000KT 10SM TS FEW095 FEW120 24/23 A3001 210 90 1400 000/00 RMK AO2 T02440228
53988KBKB BKB20190909170515009/09/19 17:05:31  5-MIN KBKB 092305Z AUTO VRB03KT 10SM -TSRA FEW047 SCT055 BKN120 24/23 A3002 210 93 1300 VRB/03 RMK AO2 RAB05 PRESRR P0000 T02390228
53988KBKB BKB20190909171014309/09/19 17:10:31  5-MIN KBKB 092310Z AUTO 00000KT 10SM -TSRA FEW047 SCT055 BKN095 24/22 A3002 200 87 1400 000/00 RMK AO2 RAB05 P0000 T02440222
53988KBKB BKB20190909171514309/09/19 17:15:31  5-MIN KBKB 092315Z AUTO 00000KT 10SM -TSRA FEW047 SCT055 BKN120 24/23 A3002 200 90 1400 000/00 RMK AO2 RAB05 P0000 T02440228
53988KBKB BKB20190909172014309/09/19 17:20:31  5-MIN KBKB 092320Z AUTO 00000KT 10SM -TSRA FEW047 SCT055 BKN120 24/23 A3003 200 90 1400 000/00 RMK AO2 RAB05 P0000 T02440228
53988KBKB BKB20190909172514309/09/19 17:25:31  5-MIN KBKB 092325Z AUTO 00000KT 10SM -TSRA FEW047 SCT055 BKN110 24/23 A3003 200 90 1400 000/00 RMK AO2 RAB05 P0000 T02440228
53988KBKB BKB20190909173014409/09/19 17:30:31  5-MIN KBKB 092330Z AUTO 00000KT 6SM TSRA BR FEW050 SCT075 BKN100 25/23 A3003 200 87 1400 000/00 RMK AO2 RAB05 P0001 T02500228
53988KBKB BKB20190909173514509/09/19 17:35:31  5-MIN KBKB 092335Z AUTO 00000KT 4SM -TSRA BR FEW048 SCT100 BKN120 24/23 A3003 200 93 1400 000/00 RMK AO2 RAB05 P0002 T02440233
53988KBKB BKB20190909174014509/09/19 17:40:31  5-MIN KBKB 092340Z AUTO 00000KT 5SM -TSRA BR FEW050 FEW095 SCT120 24/23 A3002 210 93 1400 000/00 RMK AO2 RAB05 P0002 T02440233
53988KBKB BKB20190909174515109/09/19 17:45:31  5-MIN KBKB 092345Z AUTO 33003KT 4SM -TSRA BR FEW050 SCT095 SCT120 24/23 A3002 210 93 1400 330/03 RMK AO2 RAB05 TSB44 P0002 T02440233
53988KBKB BKB20190909175018209/09/19 17:50:31  5-MIN KBKB 092350Z AUTO 00000KT 4SM TS BR FEW070 FEW100 SCT120 24/23 A3002 210 93 1400 000/00 RMK AO2 RAB05E49 TSB44 SLP190 P0002 60005 T02440233 10356 20233 58025
53988KBKB BKB20190909175512309/09/19 17:55:31  5-MIN KBKB 092355Z AUTO 00000KT 5SM TS BR FEW070 FEW120 24/23 A3001 210 93 1400 000/00 RMK AO2 T02440233
53988KBKB BKB20190909180012109/09/19 18:00:31  5-MIN KBKB 100000Z AUTO 00000KT 6SM BR FEW120 24/23 A3001 220 90 1400 000/00 RMK AO2 TSE2359 T02440228
53988KBKB BKB20190909180511509/09/19 18:05:31  5-MIN KBKB 100005Z AUTO 00000KT 7SM CLR 24/23 A3000 220 90 1400 000/00 RMK AO2 TSE2359 T02440228
53988KBKB BKB20190909181011809/09/19 18:10:31  5-MIN KBKB 100010Z AUTO 00000KT 5SM BR CLR 24/23 A3000 230 93 1400 000/00 RMK AO2 TSE2359 T02440233
53988KBKB BKB20190909181511809/09/19 18:15:31  5-MIN KBKB 100015Z AUTO 00000KT 4SM BR CLR 24/23 A3000 230 93 1400 000/00 RMK AO2 TSE2359 T02440233
53988KBKB BKB20190909182012109/09/19 18:20:31  5-MIN KBKB 100020Z AUTO 00000KT 4SM BR SCT100 24/23 A2999 230 93 1400 000/00 RMK AO2 TSE2359 T02440233
53988KBKB BKB20190909182513709/09/19 18:25:31  5-MIN KBKB 100025Z AUTO 00000KT 4SM -RA BR SCT110 24/23 A2999 230 93 1400 000/00 RMK AO2 RAB21 TSE2359 P0000 T02440233
53988KBKB BKB20190909183013709/09/19 18:30:31  5-MIN KBKB 100030Z AUTO 00000KT 5SM -RA BR FEW110 24/23 A2999 230 97 1400 000/00 RMK AO2 RAB21 TSE2359 P0000 T02390233
53988KBKB BKB20190909183513709/09/19 18:35:31  5-MIN KBKB 100035Z AUTO 00000KT 5SM -RA BR SCT110 24/23 A3000 230 93 1400 000/00 RMK AO2 RAB21 TSE2359 P0000 T02390228
53988KBKB BKB20190909184014409/09/19 18:40:31  5-MIN KBKB 100040Z AUTO 00000KT 5SM -RA BR FEW090 SCT110 24/23 A3000 220 93 1300 000/00 RMK AO2 RAB21 TSE2359 P0001 T02390228
53988KBKB BKB20190909184515109/09/19 18:45:31  5-MIN KBKB 100045Z AUTO 00000KT 6SM -RA BR FEW050 SCT095 BKN110 24/23 A3001 220 93 1300 000/00 RMK AO2 RAB21 TSE2359 P0001 T02390228
53988KBKB BKB20190909185014609/09/19 18:50:31  5-MIN KBKB 100050Z AUTO 00000KT 6SM -TSRA BR FEW050 SCT110 24/23 A3002 210 93 1300 000/00 RMK AO2 RAB21 TSE2359B47 PRESRR P0001
53988KBKB BKB20190909185512309/09/19 18:55:31  5-MIN KBKB 100055Z AUTO 00000KT 5SM TS BR FEW050 FEW110 24/23 A3002 210 93 1300 000/00 RMK AO2 T02390228
53988KBKB BKB20190909190012309/09/19 19:00:31  5-MIN KBKB 100100Z AUTO 00000KT 4SM TS BR FEW050 FEW110 24/23 A3002 210 93 1300 000/00 RMK AO2 T02390228
53988KBKB BKB20190909190511909/09/19 19:05:31  5-MIN KBKB 100105Z AUTO 00000KT 5SM BR FEW050 24/23 A3002 210 93 1300 000/00 RMK AO2 TSE02 T02390228
53988KBKB BKB20190909191011909/09/19 19:10:31  5-MIN KBKB 100110Z AUTO 00000KT 6SM BR FEW050 24/23 A3002 210 93 1300 000/00 RMK AO2 TSE02 T02390228
53988KBKB BKB20190909191511609/09/19 19:15:31  5-MIN KBKB 100115Z AUTO 00000KT 5SM BR CLR 24/23 A3002 210 93 1300 000/00 RMK AO2 TSE02 T02390228
53988KBKB BKB20190909192011609/09/19 19:20:31  5-MIN KBKB 100120Z AUTO 00000KT 4SM BR CLR 24/23 A3002 200 93 1300 000/00 RMK AO2 TSE02 T02390228
53988KBKB BKB20190909192511609/09/19 19:25:31  5-MIN KBKB 100125Z AUTO 00000KT 4SM BR CLR 24/23 A3003 200 93 1300 000/00 RMK AO2 TSE02 T02390228
53988KBKB BKB20190909193011609/09/19 19:30:31  5-MIN KBKB 100130Z AUTO 00000KT 4SM BR CLR 24/23 A3003 190 93 1300 000/00 RMK AO2 TSE02 T02390228
53988KBKB BKB20190909193511609/09/19 19:35:31  5-MIN KBKB 100135Z AUTO 00000KT 4SM BR CLR 24/23 A3003 190 97 1300 000/00 RMK AO2 TSE02 T02390233
53988KBKB BKB20190909194011609/09/19 19:40:31  5-MIN KBKB 100140Z AUTO 00000KT 4SM BR CLR 24/23 A3004 190 93 1300 000/00 RMK AO2 TSE02 T02390228
53988KBKB BKB20190909194511909/09/19 19:45:31  5-MIN KBKB 100145Z AUTO 00000KT 4SM BR FEW050 24/23 A3004 180 93 1300 000/00 RMK AO2 TSE02 T02390228
53988KBKB BKB20190909195012609/09/19 19:50:31  5-MIN KBKB 100150Z AUTO VRB03KT 5SM BR FEW050 24/23 A3004 180 93 1300 VRB/03 RMK AO2 TSE02 SLP198 T02390228
53988KBKB BKB20190909195511009/09/19 19:55:31  5-MIN KBKB 100155Z AUTO 00000KT 7SM FEW050 24/23 A3004 190 93 1300 000/00 RMK AO2 T02390228
53988KBKB BKB20190909200011009/09/19 20:00:31  5-MIN KBKB 100200Z AUTO 00000KT 8SM FEW050 24/23 A3004 180 93 1300 000/00 RMK AO2 T02390228
53988KBKB BKB20190909200512109/09/19 20:05:31  5-MIN KBKB 100205Z AUTO 00000KT 8SM FEW050 24/23 A3005 3/22 A3005 180 97 1200 000/00 RMK AO2 T02280222
53988KBKB BKB20190909215011809/09/19 21:50:31  5-MIN KBKB 100350Z AUTO 00000KT 10SM FEW045 23/22 A3005 180 93 1200 000/00 RMK AO2 SLP202 T02330222
53988KBKB BKB20190909215511109/09/19 21:55:31  5-MIN KBKB 100355Z AUTO 00000KT 10SM FEW047 23/22 A3005 180 97 1200 000/00 RMK AO2 T02280222
53988KBKB BKB20190909220010709/09/19 22:00:31  5-MIN KBKB 100400Z AUTO 00000KT 9SM CLR 23/22 A3005 180 90 1200 000/00 RMK AO2 T02330217
53988KBKB BKB20190909220510709/09/19 22:05:31  5-MIN KBKB 100405Z AUTO 00000KT 8SM CLR 23/22 A3005 180 93 1200 000/00 RMK AO2 T02330222
53988KBKB BKB20190909220515809/09/19 22:05:31  5-MIN KBKB 100405Z AUTO 00000KT 8SM CLR 23/22 A3005 180 93  AUTO 00000KT 8SM FEW045 SCT055 23/22 A3005 180 93 1200 000/00 RMK AO2 T02330222
53988KBKB BKB20190909221010709/09/19 22:10:31  5-MIN KBKB 100410Z AUTO 00000KT 8SM CLR 23/22 A3005 180 90 1200 000/00 RMK AO2 T02330217
53988KBKB BKB20190909221510709/09/19 22:15:31  5-MIN KBKB 100415Z AUTO 00000KT 8SM CLR 23/22 A3005 180 93 1200 000/00 RMK AO2 T02330222
53988KBKB BKB20190909221514309/09/19 22:15:31  5-MIN KBKB 100415Z AUTO 00000KT 8SM CLR 23/22 A3005 180 93 1200 000/00 RMK AO2 T02330222180 93 1100 000/00 RMK AO2 T02220211
53988KBKB BKB20190909221517509/09/19 22:15:31  5-MIN KBKB 100415Z AUTO 00000KT 8SM CLR 23/22 A3005 180 :55:31  5-MIN KBKB 100355Z AUTO 00000KT 10SM FEW047 23/22 A3005 180 97 1200 000/00 RMK AO2 T02280222
53988KBKB BKB20190909222010709/09/19 22:20:31  5-MIN KBKB 100420Z AUTO 00000KT 8SM CLR 23/22 A3005 170 93 1200 000/00 RMK AO2 T02330222
53988KBKB BKB20190909222517509/09/19 22:25:31  5-MIN KBKB 100425Z AUTO 00000KT 7SM CLR 23/22 A3006 09/19 22:05:31  5-MIN KBKB 100405Z AUTO 00000KT 8SM CLR 23/22 A3005 180 93 1200 000/00 RMK AO2 T02330222
53988KBKB BKB20190910012011009/10/19 01:20:31  5-MIN KBKB 100720Z AUTO 00000KT 4SM BR CLR 22/21 A3005 180 93 1100 000/00 RMK AO2 T02220211
53988KBKB BKB20190910012511009/10/19 01:25:31  5-MIN KBKB 100725Z AUTO 00000KT 4SM BR CLR 22/21 A3005 180 93 1100 000/00 RMK AO2 T02220211
53988KBKB BKB20190910013011009/10/19 01:30:31  5-MIN KBKB 100730Z AUTO 00000KT 4SM BR CLR 22/21 A3005 180 93 1100 000/00 RMK AO2 T02220211
53988KBKB BKB20190910013511009/10/19 01:35:31  5-MIN KBKB 100735Z AUTO 00000KT 4SM BR CLR 22/21 A3005 180 93 1100 000/00 RMK AO2 T02220211
53988KBKB BKB20190910013516609/10/19 01:35:31  5-MIN KBKB 100735Z AUTO 00000KT 4SM BR CLR 22/21 A3005  5-MIN KBKB 100715Z AUTO 00000KT 4SM BR CLR 22/21 A3005 180 93 1100 000/00 RMK AO2 T02220211
53988KBKB BKB20190910014008009/10/19 01:40:31  5-MIN KBKB 100740Z AUTO 00000KT 4SM BR CLR 22MK AO2 T02170211
53988KBKB BKB20190910014011009/10/19 01:40:31  5-MIN KBKB 100740Z AUTO 00000KT 4SM BR CLR 22/21 A3005 180 93 1100 000/00 RMK AO2 T02220211
53988KBKB BKB20190910014511009/10/19 01:45:31  5-MIN KBKB 100745Z AUTO 00000KT 4SM BR CLR 22/21 A3005 180 93 1100 000/00 RMK AO2 T02220211
53988KBKB BKB20190910014516609/10/19 01:45:31  5-MIN KBKB 100745Z AUTO 00000KT 4SM BR CL0/19 01:25:31  5-MIN KBKB 100725Z AUTO 00000KT 4SM BR CLR 22/21 A3005 180 93 1100 000/00 RMK AO2 T02220211
53988KBKB BKB20190910015011709/10/19 01:50:31  5-MIN KBKB 100750Z AUTO 00000KT 4SM BR CLR 22/21 A3005 180 93 1100 000/00 RMK AO2 SLP202 T02220211
53988KBKB BKB20190910015504709/10/19 01:55:31  5-MIN KBKB 100755Z AUTO 0011
53988KBKB BKB20190910025012309/10/19 02:50:31  5-MIN KBKB 100850Z AUTO 00000KT 4SM BR CLR 22/21 A3005 180 93 1000 000/00 RMK AO2 SLP202 T02170206 53002
53988KBKB BKB20190910025511009/10/19 02:55:31  5-MIN KBKB 100855Z AUTO 00000KT 4SM BR CLR 22/21 A3006 170 97 1000 000/00 RMK AO2 T02170211
53988KBKB BKB20190910030011009/10/19 03:00:31  5-MIN KBKB 100900Z AUTO 00000KT 6SM BR CLR 22/21 A3006 170 93 1100 000/00 RMK AO2 T02220211
53988KBKB BKB20190910030511009/10/19 03:05:31  5-MIN KBKB 100905Z AUTO 00000KT 6SM BR CLR 22/21 A3006 170 97 1000 000/00 RMK AO2 T02170211
53988KBKB BKB20190910031011009/10/19 03:10:31  5-MIN KBKB 100910Z AUTO 00000KT 5SM BR CLR 22/21 A3005 180 97 1000 000/00 RMK AO2 T02170211
53988KBKB BKB20190910031511009/10/19 03:15:31  5-MIN KBKB 100915Z AUTO 00000KT 5SM BR CLR 22/21 A3005 180 97 1000 000/00 RMK AO2 T02170211
53988KBKB BKB20190910032011009/10/19 03:20:31  5-MIN KBKB 100920Z AUTO 00000KT 5SM BR CLR 22/21 A3006 170 97 1000 000/00 RMK AO2 T02170211
53988KBKB BKB20190910032511009/10/19 03:25:31  5-MIN KBKB 100925Z AUTO 00000KT 6SM BR CLR 22/21 A3006 170 97 1000 000/00 RMK AO2 T02170211
53988KBKB BKB20190910033011009/10/19 03:30:31  5-MIN KBKB 100930Z AUTO 00000KT 6SM BR CLR 22/21 A3006 170 97 1000 000/00 RMK AO2 T02170211
53988KBKB BKB20190910033511009/10/19 03:35:31  5-MIN KBKB 100935Z AUTO 00000KT 6SM BR CLR 22/21 A3006 170 97 1000 000/00 RMK AO2 T02170211
53988KBKB BKB20190910034010709/10/19 03:40:31  5-MIN KBKB 100940Z AUTO 00000KT 7SM CLR 22/21 A3006 170 97 1000 000/00 RMK AO2 T02170211
53988KBKB BKB20190910034511009/10/19 03:45:31  5-MIN KBKB 100945Z AUTO 00000KT 6SM BR CLR 22/21 A3006 170 93 1000 000/00 RMK AO2 T02170206
53988KBKB BKB20190910035011709/10/19 03:50:31  5-MIN KBKB 100950Z AUTO 00000KT 6SM BR CLR 22/21 A3006 170 97 1000 000/00 RMK AO2 SLP204 T02170211
53988KBKB BKB20190910035511009/10/19 03:55:31  5-MIN KBKB 100955Z AUTO 00000KT 5SM BR CLR 22/21 A3006 170 93 1000 000/00 RMK AO2 T02170206
53988KBKB BKB20190910040011009/10/19 04:00:31  5-MIN KBKB 101000Z AUTO 00000KT 4SM BR CLR 22/21 A3006 170 93 1000 000/00 RMK AO2 T02170206
53988KBKB BKB20190910040511009/10/19 04:05:31  5-MIN KBKB 101005Z AUTO 00000KT 4SM BR CLR 22/21 A3006 170 93 1000 000/00 RMK AO2 T02170206
53988KBKB BKB20190910041011009/10/19 04:10:31  5-MIN KBKB 101010Z AUTO 00000KT 4SM BR CLR 22/21 A3006 170 93 1000 000/00 RMK AO2 T02170206
53988KBKB BKB20190910041511009/10/19 04:15:31  5-MIN KBKB 101015Z AUTO 00000KT 4SM BR CLR 22/21 A3006 160 93 1000 000/00 RMK AO2 T02170206
53988KBKB BKB20190910042011009/10/19 04:20:31  5-MIN KBKB 101020Z AUTO 00000KT 3SM BR CLR 22/21 A3006 160 93 1000 000/00 RMK AO2 T02170206
53988KBKB BKB20190910042511009/10/19 04:25:31  5-MIN KBKB 101025Z AUTO 00000KT 3SM BR CLR 22/21 A3006 170 93 1000 000/00 RMK AO2 T02170206
53988KBKB BKB20190910043011009/10/19 04:30:31  5-MIN KBKB 101030Z AUTO 00000KT 4SM BR CLR 21/21 A3006 170 97 1000 000/00 RMK AO2 T02110206
53988KBKB BKB20190910043511009/10/19 04:35:31  5-MIN KBKB 101035Z AUTO 00000KT 4SM BR CLR 22/21 A3006 170 93 1000 000/00 RMK AO2 T02170206
53988KBKB BKB20190910044011009/10/19 04:40:31  5-MIN KBKB 101040Z AUTO 00000KT 4SM BR CLR 22/21 A3007 160 93 1000 000/00 RMK AO2 T02170206
53988KBKB BKB20190910044511009/10/19 04:45:31  5-MIN KBKB 101045Z AUTO 00000KT 4SM BR CLR 21/21 A3007 160 97 1000 000/00 RMK AO2 T02110206
53988KBKB BKB20190910045011709/10/19 04:50:31  5-MIN KBKB 101050Z AUTO 00000KT 3SM BR CLR 21/21 A3007 160 97 1000 000/00 RMK AO2 SLP208 T02110206
53988KBKB BKB20190910045511009/10/19 04:55:31  5-MIN KBKB 101055Z AUTO 00000KT 3SM BR CLR 21/21 A3007 160 97 1000 000/00 RMK AO2 T02110206
53988KBKB BKB20190910050011009/10/19 05:00:31  5-MIN KBKB 101100Z AUTO 00000KT 3SM BR CLR 21/21 A3007 160 97 1000 000/00 RMK AO2 T02110206
53988KBKB BKB20190910050511009/10/19 05:05:31  5-MIN KBKB 101105Z AUTO 00000KT 3SM BR CLR 21/21 A3007 160 97 1000 000/00 RMK AO2 T02110206
53988KBKB BKB20190910051011009/10/19 05:10:31  5-MIN KBKB 101110Z AUTO 00000KT 4SM BR CLR 21/21 A3007 160 97 1000 000/00 RMK AO2 T02110206
53988KBKB BKB20190910051511009/10/19 05:15:31  5-MIN KBKB 101115Z AUTO 00000KT 3SM BR CLR 21/21 A3007 160 97 1000 000/00 RMK AO2 T02110206
53988KBKB BKB20190910052010909/10/19 05:20:31  5-MIN KBKB 101120Z AUTO 00000KT 3SM BR CLR 21/21 A3007 160 97 900 000/00 RMK AO2 T02110206
53988KBKB BKB20190910052510909/10/19 05:25:31  5-MIN KBKB 101125Z AUTO 00000KT 3SM BR CLR 21/20 A3007 160 93 900 000/00 RMK AO2 T02110200
53988KBKB BKB20190910053010909/10/19 05:30:31  5-MIN KBKB 101130Z AUTO 00000KT 4SM BR CLR 21/21 A3007 160 97 900 000/00 RMK AO2 T02110206
53988KBKB BKB20190910053510909/10/19 05:35:31  5-MIN KBKB 101135Z AUTO 00000KT 3SM BR CLR 21/21 A3008 150 97 900 000/00 RMK AO2 T02110206
53988KBKB BKB20190910054010909/10/19 05:40:31  5-MIN KBKB 101140Z AUTO 00000KT 3SM BR CLR 21/21 A3008 150 97 900 000/00 RMK AO2 T02110206
53988KBKB BKB20190910054510909/10/19 05:45:31  5-MIN KBKB 101145Z AUTO 00000KT 3SM BR CLR 21/21 A3008 150 97 900 000/00 RMK AO2 T02110206
53988KBKB BKB20190910055014009/10/19 05:50:31  5-MIN KBKB 101150Z AUTO 00000KT 4SM BR CLR 21/21 A3008 150 97 900 000/00 RMK AO2 SLP211 70006 T02110206 10222 20211 55002
53988KBKB BKB20190910055511009/10/19 05:55:31  5-MIN KBKB 101155Z AUTO 00000KT 4SM BR CLR 22/21 A3008 150 93 1000 000/00 RMK AO2 T02170206
53988KBKB BKB20190910060011009/10/19 06:00:31  5-MIN KBKB 101200Z AUTO 00000KT 4SM BR CLR 22/21 A3008 150 93 1000 000/00 RMK AO2 T02170206
53988KBKB BKB20190910060511009/10/19 06:05:31  5-MIN KBKB 101205Z AUTO 00000KT 5SM BR CLR 22/21 A3008 150 93 1000 000/00 RMK AO2 T02170206
53988KBKB BKB20190910061011009/10/19 06:10:31  5-MIN KBKB 101210Z AUTO 00000KT 6SM BR CLR 22/21 A3008 150 93 1000 000/00 RMK AO2 T02170206
53988KBKB BKB20190910061511009/10/19 06:15:31  5-MIN KBKB 101215Z AUTO 00000KT 6SM BR CLR 22/21 A3009 150 97 1000 000/00 RMK AO2 T02170211
53988KBKB BKB20190910062011009/10/19 06:20:31  5-MIN KBKB 101220Z AUTO 00000KT 6SM BR CLR 22/21 A3009 140 97 1000 000/00 RMK AO2 T02170211
53988KBKB BKB20190910062511009/10/19 06:25:31  5-MIN KBKB 101225Z AUTO 00000KT 6SM BR CLR 22/21 A3009 140 97 1000 000/00 RMK AO2 T02170211
53988KBKB BKB20190910063011009/10/19 06:30:31  5-MIN KBKB 101230Z AUTO 00000KT 6SM BR CLR 22/21 A3009 140 93 1100 000/00 RMK AO2 T02220211
53988KBKB BKB20190910063511009/10/19 06:35:31  5-MIN KBKB 101235Z AUTO 00000KT 6SM BR CLR 22/21 A3009 140 93 1100 000/00 RMK AO2 T02220211
53988KBKB BKB20190910064011009/10/19 06:40:31  5-MIN KBKB 101240Z AUTO 00000KT 6SM BR CLR 22/21 A3009 140 93 1100 000/00 RMK AO2 T02220211
53988KBKB BKB20190910064509509/10/19 06:45:31  5-MIN KBKB 101245Z AUTO 00000KT 7SM CLR 22/21 A3009 140 93 RMK AO2 T03110233
53988KBKB BKB20190910103519709/10/19 10:35:31  5-MIN KBKB 101635Z AUTO VRB04KT 10SM SCT028 SCT034 32/24 A3011 120 63 2100 VRB/04 RMK AO2 T0317023909/10/19 10:40:31  RMK AO2 T03060233 A3011 120 63 2000 VRB/03 RMK AO2 T03110233
53988KBKB BKB20190910104512509/10/19 10:45:31  5-MIN KBKB 101645Z AUTO 00000KT 10SM SCT030 SCT036 SCT050 32/23 A3011 120 61 2100 000/00 RMK AO2 T03170233
53988KBKB BKB20190910105012209/10/19 10:50:31  5-MIN KBKB 101650Z AUTO 10SM FEW030 SCT036 SCT050 32/23 A3011 120 61 2100 M /M RMK AO2 SLP222 T03170233
53988KBKB BKB20190910105512509/10/19 10:55:31  5-MIN KBKB 101655Z AUTO VRB05KT 10SM FEW028 SCT036 028 SCT034 32/2411 120 61 2100 VRB/05 RMK AO2 T03170233
53988KBKB BKB20190910105512509/10/19 10:55:31  5-MIN KBKB 101655Z AUTO VRB05KT 10SM FEW028 SCT036 SCT048 32/23 A3011 120 61 2100 VRB/05 RMK AO2 T03170233
53988KBKB BKB20190910110012409/10/19 11:00:31  5-MIN KBKB 101700Z AUTO 00000KT 10SM FEW030SCT028 SCT038 31/23 A3011 120 63 2000 VRB/03 RMK AO2 T03110233
53988KBKB BKB20190910110012509/10/19 11:00:31  5-MIN KBKB 101700Z AUTO 00000KT 10SM FEW030 SCT036 SCT048 32/23 A3011 120 59 2200 000/00 RMK AO2 T03220233
53988KBKB BKB20190910110017709/10/19 11:00:31  5-MIN KBKB 101700Z AUTO 00000KT 10SM FEW030 SCT036 SCT048 32/23 A3011 120 59 2200 000/00 RMK AO2 T0322023309/10/19 11:05:31 0 43 2500 VRB/03 RMK AO2 T03440206
53988KBKB BKB20190910110511109/10/19 11:05:31  5-MIN KBKB 101705Z AUTO VRB05KT 10SM FEW034 32/23 A3011 130 59 2200 VRB/05 RMK AO2 T03220233
53988KBKB BKB20190910111011809/10/19 11:10:31  5-MIN KBKB 101710Z AUTO VRB03KT 10SM FEW034 FEW047 32/23 A3011 130 57 2200 VRB/03 RMK AO2 T03220228
53988KBKB BKB20190910111514009/10/19 11:15:31  5-MIN KBKB 101715Z AUTO 00000KT 10SM FEW034 FEW060 31/22 A3011 130 58 2000 000/00 RMK AO2 T0311022209/10/19 11:20:3170233
53988KBKB BKB20190910144011109/10/19 14:40:31  5-MIN KBKB 102040Z AUTO 00000KT 10SM FEW050 33/21 A3006 170 46 2300 000/00 RMK AO2 T03330206
53988KBKB BKB20190910144511109/10/19 14:45:31  5-MIN KBKB 102045Z AUTO 00000KT 10SM FEW050 33/21 A3006 170 48 2300 000/00 RMK AO2 T03280206
53988KBKB BKB20190911005011409/11/19 00:50:31  5-MIN KBKB 110650Z AUTO 00000KT 8SM CLR 23/22 A3010 130 93 1100 000/00 RMK AO2 SLP219 T02280217
53988KBKB BKB20190911005510709/11/19 00:55:31  5-MIN KBKB 110655Z AUTO 00000KT 7SM CLR 23/22 A3010 130 93 1100 000/00 RMK AO2 T02280217
53988KBKB BKB20190911010010709/11/19 01:00:31  5-MIN KBKB 110700Z AUTO 00000KT 7SM CLR 23/22 A3010 130 93 1100 000/00 RMK AO2 T02280217
53988KBKB BKB20190911010511009/11/19 01:05:31  5-MIN KBKB 110705Z AUTO 00000KT 6SM BR CLR 23/22 A3010 130 93 1100 000/00 RMK AO2 T02280217
53988KBKB BKB20190911011011009/11/19 01:10:31  5-MIN KBKB 110710Z AUTO 00000KT 5SM BR CLR 23/22 A3010 140 93 1100 000/00 RMK AO2 T02280217
53988KBKB BKB20190911011511009/11/19 01:15:31  5-MIN KBKB 110715Z AUTO 00000KT 5SM BR CLR 22/22 A3009 140 97 1100 000/00 RMK AO2 T02220217
53988KBKB BKB20190911012011009/11/19 01:20:31  5-MIN KBKB 110720Z AUTO 00000KT 5SM BR CLR 22/22 A3009 140 97 1100 000/00 RMK AO2 T02220217
53988KBKB BKB20190911012511009/11/19 01:25:31  5-MIN KBKB 110725Z AUTO 00000KT 5SM BR CLR 22/22 A3009 140 97 1100 000/00 RMK AO2 T02220217
53988KBKB BKB20190911013011009/11/19 01:30:31  5-MIN KBKB 110730Z AUTO 00000KT 4SM BR CLR 22/22 A3009 140 97 1100 000/00 RMK AO2 T02220217
53988KBKB BKB20190911013511009/11/19 01:35:31  5-MIN KBKB 110735Z AUTO 00000KT 4SM BR CLR 22/22 A3009 140 97 1100 000/00 RMK AO2 T02220217
53988KBKB BKB20190911014011009/11/19 01:40:31  5-MIN KBKB 110740Z AUTO 00000KT 4SM BR CLR 22/22 A3009 140 97 1100 000/00 RMK AO2 T02220217
53988KBKB BKB20190911014511009/11/19 01:45:31  5-MIN KBKB 110745Z AUTO 00000KT 4SM BR CLR 22/22 A3008 150 97 1100 000/00 RMK AO2 T02220217
53988KBKB BKB20190911015011709/11/19 01:50:31  5-MIN KBKB 110750Z AUTO 00000KT 5SM BR CLR 22/22 A3008 150 97 1100 000/00 RMK AO2 SLP213 T02220217
53988KBKB BKB20190911015511009/11/19 01:55:31  5-MIN KBKB 110755Z AUTO 00000KT 5SM BR CLR 22/22 A3009 150 97 1100 000/00 RMK AO2 T02220217
53988KBKB BKB20190911020011009/11/19 02:00:31  5-MIN KBKB 110800Z AUTO 00000KT 5SM BR CLR 22/22 A3009 140 97 1100 000/00 RMK AO2 T02220217
53988KBKB BKB20190911020511009/11/19 02:05:31  5-MIN KBKB 110805Z AUTO 00000KT 5SM BR CLR 22/22 A3009 140 97 1100 000/00 RMK AO2 T02220217
53988KBKB BKB20190911021011009/11/19 02:10:31  5-MIN KBKB 110810Z AUTO 00000KT 4SM BR CLR 22/21 A3009 140 93 1100 000/00 RMK AO2 T02220211
53988KBKB BKB20190911021511009/11/19 02:15:31  5-MIN KBKB 110815Z AUTO 00000KT 4SM BR CLR 22/21 A3009 140 93 1100 000/00 RMK AO2 T02220211
53988KBKB BKB20190911022011009/11/19 02:20:31  5-MIN KBKB 110820Z AUTO 00000KT 4SM BR CLR 22/21 A3008 150 93 1100 000/00 RMK AO2 T02220211
53988KBKB BKB20190911022511009/11/19 02:25:31  5-MIN KBKB 110825Z AUTO 00000KT 4SM BR CLR 22/21 A3008 150 93 1100 000/00 RMK AO2 T02220211
53988KBKB BKB20190911023011009/11/19 02:30:31  5-MIN KBKB 110830Z AUTO 00000KT 4SM BR CLR 22/21 A3008 150 93 1100 000/00 RMK AO2 T02220211
53988KBKB BKB20190911023511009/11/19 02:35:31  5-MIN KBKB 110835Z AUTO 00000KT 4SM BR CLR 22/21 A3009 150 93 1100 000/00 RMK AO2 T02220211
53988KBKB BKB20190911024011009/11/19 02:40:31  5-MIN KBKB 110840Z AUTO 00000KT 4SM BR CLR 22/21 A3009 140 97 1000 000/00 RMK AO2 T02170211
53988KBKB BKB20190911024511009/11/19 02:45:31  5-MIN KBKB 110845Z AUTO 00000KT 4SM BR CLR 22/21 A3009 140 97 1000 000/00 RMK AO2 T02170211
53988KBKB BKB20190911025012309/11/19 02:50:31  5-MIN KBKB 110850Z AUTO 00000KT 4SM BR CLR 22/21 A3009 140 97 1000 000/00 RMK AO2 SLP214 T02170211 53001
53988KBKB BKB20190911025511009/11/19 02:55:31  5-MIN KBKB 110855Z AUTO 00000KT 5SM BR CLR 22/21 A3009 140 93 1100 000/00 RMK AO2 T02220211
53988KBKB BKB20190911030011009/11/19 03:00:31  5-MIN KBKB 110900Z AUTO 00000KT 5SM BR CLR 22/21 A3009 140 93 1100 000/00 RMK AO2 T02220211
53988KBKB BKB20190911030511009/11/19 03:05:31  5-MIN KBKB 110905Z AUTO 00000KT 4SM BR CLR 22/21 A3009 140 93 1100 000/00 RMK AO2 T02220211
53988KBKB BKB20190911031011009/11/19 03:10:31  5-MIN KBKB 110910Z AUTO 00000KT 4SM BR CLR 22/21 A3009 140 93 1100 000/00 RMK AO2 T02220211
53988KBKB BKB20190911031511009/11/19 03:15:31  5-MIN KBKB 110915Z AUTO 00000KT 4SM BR CLR 22/21 A3010 140 97 1000 000/00 RMK AO2 T02170211
53988KBKB BKB20190911032011009/11/19 03:20:31  5-MIN KBKB 110920Z AUTO 00000KT 4SM BR CLR 22/21 A3010 140 97 1000 000/00 RMK AO2 T02170211
53988KBKB BKB20190911032511009/11/19 03:25:31  5-MIN KBKB 110925Z AUTO 00000KT 4SM BR CLR 22/21 A3009 140 97 1000 000/00 RMK AO2 T02170211
53988KBKB BKB20190911033011009/11/19 03:30:31  5-MIN KBKB 110930Z AUTO 00000KT 4SM BR CLR 22/21 A3010 140 97 1000 000/00 RMK AO2 T02170211
53988KBKB BKB20190911033511009/11/19 03:35:31  5-MIN KBKB 110935Z AUTO 00000KT 4SM BR CLR 22/21 A3009 140 93 1100 000/00 RMK AO2 T02220211
53988KBKB BKB20190911034011309/11/19 03:40:31  5-MIN KBKB 110940Z AUTO 00000KT 5SM BR FEW017 22/21 A3010 140 93 1000 000/00 RMK AO2 T02220211
53988KBKB BKB20190911034511309/11/19 03:45:31  5-MIN KBKB 110945Z AUTO 00000KT 6SM BR SCT017 22/21 A3010 130 93 1000 000/00 RMK AO2 T02220211
53988KBKB BKB20190911035011009/11/19 03:50:31  5-MIN KBKB 110950Z AUTO 00000KT 6SM BR SCT017 BKN024 22/22 A3010 130 97 1000 000/00 RMK AO2
53988KBKB BKB20190911035511709/11/19 03:55:31  5-MIN KBKB 110955Z AUTO 00000KT 7SM SCT017 BKN024 23/22 A3010 130 93 1100 000/00 RMK AO2 T02280217
53988KBKB BKB20190911040011709/11/19 04:00:31  5-MIN KBKB 111000Z AUTO 00000KT 8SM BKN017 BKN026 23/22 A3010 130 93 1100 000/00 RMK AO2 T02280217
53988KBKB BKB20190911040511709/11/19 04:05:31  5-MIN KBKB 111005Z AUTO 00000KT 8SM BKN017 BKN024 23/22 A3010 130 93 1100 000/00 RMK AO2 T02280217
53988KBKB BKB20190911041011709/11/19 04:10:31  5-MIN KBKB 111010Z AUTO 00000KT 9SM BKN017 BKN024 23/22 A3011 130 97 1100 000/00 RMK AO2 T02280222
53988KBKB BKB20190911041511709/11/19 04:15:31  5-MIN KBKB 111015Z AUTO 00000KT 8SM BKN017 BKN024 23/22 A3011 120 97 1100 000/00 RMK AO2 T02280222
53988KBKB BKB20190911042011709/11/19 04:20:31  5-MIN KBKB 111020Z AUTO 00000KT 7SM SCT016 BKN025 23/22 A3011 120 97 1100 000/00 RMK AO2 T02280222
53988KBKB BKB20190911042512009/11/19 04:25:31  5-MIN KBKB 111025Z AUTO 00000KT 6SM BR SCT016 SCT025 23/22 A3011 120 97 1100 000/00 RMK AO2 T02280222
53988KBKB BKB20190911043012009/11/19 04:30:31  5-MIN KBKB 111030Z AUTO 00000KT 5SM BR FEW016 FEW027 23/22 A3011 120 93 1100 000/00 RMK AO2 T02280217
53988KBKB BKB20190911043512009/11/19 04:35:31  5-MIN KBKB 111035Z AUTO 00000KT 5SM BR FEW016 FEW025 23/22 A3011 120 93 1100 000/00 RMK AO2 T02280217
53988KBKB BKB20190911044012009/11/19 04:40:31  5-MIN KBKB 111040Z AUTO 00000KT 4SM BR FEW016 FEW025 23/22 A3011 120 93 1100 000/00 RMK AO2 T02280217
53988KBKB BKB20190911044512009/11/19 04:45:31  5-MIN KBKB 111045Z AUTO 00000KT 4SM BR FEW016 FEW027 23/22 A3011 120 93 1100 000/00 RMK AO2 T02280217
53988KBKB BKB20190911045012009/11/19 04:50:31  5-MIN KBKB 111050Z AUTO 00000KT 3SM BR FEW016 22/22 A3011 120 97 1000 000/00 RMK AO2 SLP224 T02220217
53988KBKB BKB20190911045511409/11/19 04:55:31  5-MIN KBKB 111055Z AUTO 00000KT 2 1/2SM BR CLR 22/22 A3011 120 97 1000 000/00 RMK AO2 T02220217
53988KBKB BKB20190911050011409/11/19 05:00:31  5-MIN KBKB 111100Z AUTO 00000KT 2 1/2SM BR CLR 22/22 A3012 120 97 1000 000/00 RMK AO2 T02220217
53988KBKB BKB20190911050511009/11/19 05:05:31  5-MIN KBKB 111105Z AUTO 00000KT 3SM BR CLR 22/21 A3012 120 93 1000 000/00 RMK AO2 T02220211
53988KBKB BKB20190911051011009/11/19 05:10:31  5-MIN KBKB 111110Z AUTO 00000KT 3SM BR CLR 22/21 A3012 120 93 1000 000/00 RMK AO2 T02220211
53988KBKB BKB20190911051511009/11/19 05:15:31  5-MIN KBKB 111115Z AUTO 00000KT 3SM BR CLR 22/22 A3012 110 97 1000 000/00 RMK AO2 T02220217
53988KBKB BKB20190911052011009/11/19 05:20:31  5-MIN KBKB 111120Z AUTO 00000KT 2SM BR CLR 22/21 A3012 110 93 1000 000/00 RMK AO2 T02220211
53988KBKB BKB20190911052511009/11/19 05:25:31  5-MIN KBKB 111125Z AUTO 00000KT 1SM BR CLR 22/21 A3012 120 97 1000 000/00 RMK AO2 T02170211
53988KBKB BKB20190911053011009/11/19 05:30:31  5-MIN KBKB 111130Z AUTO 00000KT 1SM BR CLR 22/21 A3011 120 97 1000 000/00 RMK AO2 T02170211
53988KBKB BKB20190911053511409/11/19 05:35:31  5-MIN KBKB 111135Z AUTO 00000KT 1 1/2SM BR CLR 22/21 A3012 120 97 1000 000/00 RMK AO2 T02170211
53988KBKB BKB20190911054011009/11/19 05:40:31  5-MIN KBKB 111140Z AUTO 00000KT 2SM BR CLR 22/21 A3012 120 93 1000 000/00 RMK AO2 T02220211
53988KBKB BKB20190911054511409/11/19 05:45:31  5-MIN KBKB 111145Z AUTO 00000KT 2 1/2SM BR CLR 22/21 A3012 110 97 1000 000/00 RMK AO2 T02170211
53988KBKB BKB20190911055017209/11/19 05:50:31  5-MIN KBKB 111150Z AUTO 00000KT 3SM BR CLR 22/22 A3012 110 97 1000 000/00 RMK AO20Z AUTO 00000KT 8SM CLR 24/23 A3014 100 93 1200 000/00 RMK AO2 T02390228
53988KBKB BKB20190911065011709/11/19 06:50:31  5-MIN KBKB 111250Z AUTO 00000KT 4SM BR CLR 23/22 A3014 100 97 1100 000/00 RMK AO2 SLP232 T02280222
53988KBKB BKB20190911065511009/11/19 06:55:31  5-MIN KBKB 111255Z AUTO 00000KT 6SM BR CLR 23/23 A3014 100 97 1100 000/00 RMK AO2 T02330228
53988KBKB BKB20190911070010709/11/19 07:00:31  5-MIN KBKB 111300Z AUTO 00000KT 8SM CLR 24/23 A3014 100 93 1200 000/00 RMK AO2 T02390228
53988KBKB BKB20190911070510609/11/19 07:05:31  5-MIN KBKB 111305Z AUTO 00000KT 9SM CLR 24/23 A3014 90 93 1200 000/00 RMK AO2 T02390228
53988KBKB BKB20190911070515809/11/19 07:05:31  5-MIN KBKB 111305Z AUTO 00000KT 9SM CLR 24/23 A3014 90 93 1200 000/00 RMK AO2 T0239022809/11/192 A3014 100 97 1100 000/00 RMK AO2 T02280222
53988KBKB BKB20190911071010709/11/19 07:10:31  5-MIN KBKB 111310Z AUTO 00000KT 10SM CLR 25/23 A3014 90 90 1300 000/00 RMK AO2 T02500233
53988KBKB BKB20190911071510709/11/19 07:15:31  5-MIN KBKB 111315Z AUTO 12003KT 10SM CLR 25/23 A3014 90 90 1300 110/03 RMK AO2 T02500233
53988KBKB BKB20190911071517209/11/19 07:15:31  5-MIN KBKB 111315Z AUTO 12003KT 10SM CLR 25/23 A3014 90 90 1300 110/03 RMK AO2 T0250023309/11/6SM BR CLR 23/23 A3014 100 97 1100 000/00 RMK AO2 T02330228
53988KBKB BKB20190911072010709/11/19 07:20:31  5-MIN KBKB 111320Z AUTO 00000KT 10SM CLR 26/23 A3014 90 87 1400 000/00 RMK AO2 T02560233
53988KBKB BKB20190911072510709/11/19 07:25:31  5-MIN KBKB 111325Z AUTO 00000KT 10SM CLR 26/23 A3015 90 87 1400 000/00 RMK AO2 T02560233
53988KBKB BKB20190911072517109/11/19 07:25:31  5-MIN KBKB 111325Z AUTO 00000KT 10SM CLR 26/23 A3015 90 87 1400 000/00 RMK AO2 T02560233 00000KT 9SM CLR 24/23 A3014 90 93 1200 000/00 RMK AO2 T02390228
53988KBKB BKB20190911073010709/11/19 07:30:31  5-MIN KBKB 111330Z AUTO VRB03KT 10SM CLR 26/23 A3015 90 84 1400 VRB/03 RMK AO2 T02610233
53988KBKB BKB20190911073510709/11/19 07:35:31  5-MIN KBKB 111335Z AUTO 00000KT 10SM CLR 27/23 A3015 90 82 1500 000/00 RMK AO2 T02670233
53988KBKB BKB20190911074010709/11/19 07:40:31  5-MIN KBKB 111340Z AUTO VRB03KT 10SM CLR 27/24 A3015 80 82 1600 VRB/03 RMK AO2 T02720239
53988KBKB BKB20190911074514009/11/19 07:45:31  5-MIN KBKB 111345Z AUTO 00000KT 10SM CLR 27/23 A3015 80 79 1600 000/00 RMK AO2 T02720230 56 2100 VRB/05 RMK AO2 T03170222
53988KBKB BKB20190911111510709/11/19 11:15:31  5-MIN KBKB 111715Z AUTO 00000KT 10SM CLR 32/22 A3015 90 55 2100 000/00 RMK AO2 T03170217
53988KBKB BKB20190911112010709/11/19 11:20:31  5-MIN KBKB 111720Z AUTO VRB03KT 10SM CLR 32/22 A3014 90 53 2100 VRB/03 RMK AO2 T03220217
53988KBKB BKB20190911112511009/11/19 11:25:31  5-MIN KBKB 111725Z AUTO VRB04KT 10SM FEW036 32/22 A3014 90 55 2100 VRB/04 RMK AO2 T03170217
53988KBKB BKB20190911113011109/11/19 11:30:31  5-MIN KBKB 111730Z AUTO VRB03KT 10SM FEW036 32/22 A3014 100 53 2100 VRB/03 RMK AO2 T03220217
53988KBKB BKB20190911113510809/11/19 11:35:31  5-MIN KBKB 111735Z AUTO VRB03KT 10SM CLR 31/21 A3014 100 56 1900 VRB/03 RMK AO2 T03060211
53988KBKB BKB20190911114010809/11/19 11:40:31  5-MIN KBKB 111740Z AUTO 00000KT 10SM CLR 30/21 A3014 100 58 1900 000/00 RMK AO2 T03000211
53988KBKB BKB20190911114016309/11/19 11:40:31  5-MIN KBKB 111740Z AUTO 00000KT 10SM CLR 30/21 A3014 100 58 1900 000/00 RMK AO2 T030002110SM CLR 32/22 A3014 90 53 2100 VRB/03 RMK AO2 T03220217
53988KBKB BKB20190911114510809/11/19 11:45:31  5-MIN KBKB 111745Z AUTO 00000KT 10SM CLR 32/22 A3013 100 55 2100 000/00 RMK AO2 T03170217
53988KBKB BKB20190911115016909/11/19 11:50:31  5-MIN KBKB 111750Z AUTO VRB04KT 10SM FEW055 32/22 A3013 100 53 2100 VRB/04 RMK AO2 SLP229 T03220217 10322 20222 51014 46 2300 VRB/03 RMK AO2 T03330206
53988KBKB BKB20190911115017009/11/19 11:50:31  5-MIN KBKB 111750Z AUTO VRB04KT 10SM FEW055 32/22 A3013 100 53 2100 VRB/04 RMK AO2 SLP23KT 10SM FEW036 32/22 A3014 100 53 2100 VRB/03 RMK AO2 T03220217
53988KBKB BKB20190911124511109/11/19 12:45:31  5-MIN KBKB 111845Z AUTO VRB04KT 10SM FEW065 33/20 A3010 130 45 2300 VRB/04 RMK AO2 T03330200
53988KBKB BKB20190911133010809/11/19 13:30:31  5-MIN KBKB 111930Z AUTO 00000KT 10SM CLR 34/20 A3008 150 43 2400 000/00 RMK AO2 T03390200
53988KBKB BKB20190911133510809/11/19 13:35:31  5-MIN KBKB 111935Z AUTO 00000KT 10SM CLR 34/21 A3007 160 43 2400 000/00 RMK AO2 T03440206
53988KBKB BKB20190911134010809/11/19 13:40:31  5-MIN KBKB 111940Z AUTO VRB04KT 10SM CLR 34/21 A3007 160 45 2400 VRB/04 RMK AO2 T03440211
53988KBKB BKB20190911134510809/11/19 13:45:31  5-MIN KBKB 111945Z AUTO VRB03KT 10SM CLR 33/21 A3007 160 48 2300 VRB/03 RMK AO2 T03330211
53988KBKB BKB20190911135011509/11/19 13:50:31  5-MIN KBKB 111950Z AUTO VRB03KT 10SM CLR 33/21 A3007 160 49 2300 VRB/03 RMK AO2 SLP208 T03280211
53988KBKB BKB20190911135510809/11/19 13:55:31  5-MIN KBKB 111955Z AUTO VRB04KT 10SM CLR 33/21 A3007 160 49 2300 VRB/04 RMK AO2 T03280211
53988KBKB BKB20190911140010809/11/19 14:00:31  5-MIN KBKB 112000Z AUTO 00000KT 10SM CLR 33/21 A3006 170 48 2300 000/00 RMK AO2 T03280206
53988KBKB BKB20190911140510809/11/19 14:05:31  5-MIN KBKB 112005Z AUTO VRB04KT 10SM CLR 33/21 A3006 170 48 2300 VRB/04 RMK AO2 T03330211
53988KBKB BKB20190911141010809/11/19 14:10:31  5-MIN KBKB 112010Z AUTO VRB03KT 10SM CLR 34/21 A3006 170 45 2400 VRB/03 RMK AO2 T03390206
53988KBKB BKB20190911141510809/11/19 14:15:31  5-MIN KBKB 112015Z AUTO 12004KT 10SM CLR 34/21 A3006 170 45 2400 110/04 RMK AO2 T03390206
53988KBKB BKB20190911142010809/11/19 14:20:31  5-MIN KBKB 112020Z AUTO VRB03KT 10SM CLR 34/20 A3006 170 42 2500 VRB/03 RMK AO2 T03440200
53988KBKB BKB20190911142510809/11/19 14:25:31  5-MIN KBKB 112025Z AUTO VRB03KT 10SM CLR 34/20 A3005 170 42 2500 VRB/03 RMK AO2 T03440200
53988KBKB BKB20190911143010809/11/19 14:30:31  5-MIN KBKB 112030Z AUTO 00000KT 10SM CLR 34/20 A3005 180 42 2500 000/00 RMK AO2 T03440200
53988KBKB BKB20190911143510809/11/19 14:35:31  5-MIN KBKB 112035Z AUTO VRB03KT 10SM CLR 34/20 A3005 180 42 2500 VRB/03 RMK AO2 T03440200
53988KBKB BKB20190911144010809/11/19 14:40:31  5-MIN KBKB 112040Z AUTO VRB04KT 10SM CLR 34/19 A3005 180 40 2500 VRB/04 RMK AO2 T03440194
53988KBKB BKB20190911144510809/11/19 14:45:31  5-MIN KBKB 112045Z AUTO VRB03KT 10SM CLR 34/19 A3005 180 42 2400 VRB/03 RMK AO2 T03390194
53988KBKB BKB20190911145012109/11/19 14:50:31  5-MIN KBKB 112050Z AUTO 00000KT 10SM CLR 34/20 A3005 180 43 2400 000/00 RMK AO2 SLP201 T03390200 58011
53988KBKB BKB20190911145510809/11/19 14:55:31  5-MIN KBKB 112055Z AUTO VRB04KT 10SM CLR 34/20 A3005 180 42 2500 VRB/04 RMK AO2 T03440200
53988KBKB BKB20190911150010809/11/19 15:00:31  5-MIN KBKB 112100Z AUTO VRB03KT 10SM CLR 34/20 A3005 180 42 2500 VRB/03 RMK AO2 T03440200
53988KBKB BKB20190911150510809/11/19 15:05:31  5-MIN KBKB 112105Z AUTO VRB03KT 10SM CLR 34/20 A3005 180 43 2400 VRB/03 RMK AO2 T03390200
53988KBKB BKB20190911151010809/11/19 15:10:31  5-MIN KBKB 112110Z AUTO VRB03KT 10SM CLR 34/21 A3005 180 43 2500 VRB/03 RMK AO2 T03440206
53988KBKB BKB20190911151511109/11/19 15:15:31  5-MIN KBKB 112115Z AUTO 00000KT 10SM FEW055 34/21 A3004 180 43 2500 000/00 RMK AO2 T03440206
53988KBKB BKB20190911152011109/11/19 15:20:31  5-MIN KBKB 112120Z AUTO VRB04KT 10SM FEW055 34/21 A3004 190 43 2500 VRB/04 RMK AO2 T03440206
53988KBKB BKB20190911152510809/11/19 15:25:31  5-MIN KBKB 112125Z AUTO VRB04KT 10SM CLR 34/21 A3004 190 43 2500 VRB/04 RMK AO2 T03440206
53988KBKB BKB20190911153010809/11/19 15:30:31  5-MIN KBKB 112130Z AUTO VRB04KT 10SM CLR 34/20 A3004 190 42 2500 VRB/04 RMK AO2 T03440200
53988KBKB BKB20190911153512209/11/19 15:35:31  5-MIN KBKB 112135Z AUTO VRB2255Z AUTO 00000KT 10SM CLR 33/21 A3003 190 48 2300 000/00 RMK AO2 T03280206
53988KBKB BKB20190911170010809/11/19 17:00:31  5-MIN KBKB 112300Z AUTO 00000KT 10SM CLR 33/21 A3004 190 48 2300 000/00 RMK AO2 T03280206
53988KBKB BKB20190911170510809/11/19 17:05:31  5-MIN KBKB 112305Z AUTO VRB03KT 10SM CLR 32/20 A3004 190 48 2200 VRB/03 RMK AO2 T03220200
53988KBKB BKB20190911171010809/11/19 17:10:31  5-MIN KBKB 112310Z AUTO VRB03KT 10SM CLR 32/20 A3004 190 51 2200 VRB/03 RMK AO2 T03170206
53988KBKB BKB20190911173010809/11/19 17:30:31  5-MIN KBKB 112330Z AUTO 00000KT 10SM CLR 32/21 A3004 190 51 2200 000/00 RMK AO2 T03170206
53988KBKB BKB20190911173510809/11/19 17:35:31  5-MIN KBKB 112335Z AUTO 00000KT 10SM CLR 31/21 A3004 190 53 2100 000/00 RMK AO2 T03110206
53988KBKB BKB20190911174010809/11/19 17:40:31  5-MIN KBKB 112340Z AUTO 00000KT 10SM CLR 31/21 A3004 190 54 2100 000/00 RMK AO2 T03060206
53988KBKB BKB20190911174510809/11/19 17:45:31  5-MIN KBKB 112345Z AUTO 00000KT 10SM CLR 31/21 A3004 190 54 2100 000/00 RMK AO2 T03060206
53988KBKB BKB20190911175013309/11/19 17:50:31  5-MIN KBKB 112350Z AUTO 00000KT 10SM CLR 30/21 A3004 190 56 2000 000/00 RMK AO2 SLP197 T03000206 10350 20300 56027
53988KBKB BKB20190911175514109/11/19 17:55:31  5-MIN KBKB 112355Z AUTO 00000KT 10SM CLR 29/21 A3004 190 60 1900 000/00 RMK AO2 T02940211 69 1600 000/00 RMK AO2 T02670206
53988KBKB BKB20190911184010809/11/19 18:40:31  5-MIN KBKB 120040Z AUTO 00000KT 10SM CLR 26/21 A3004 190 73 1600 000/00 RMK AO2 T02610211
53988KBKB BKB20190911184510809/11/19 18:45:31  5-MIN KBKB 120045Z AUTO 00000KT 10SM CLR 26/21 A3004 180 73 1600 000/00 RMK AO2 T02610211
53988KBKB BKB20190911185011509/11/19 18:50:31  5-MIN KBKB 120050Z AUTO 00000KT 10SM CLR 26/21 A3004 180 73 1600 000/00 RMK AO2 SLP200 T02610211
53988KBKB BKB20190911185510809/11/19 18:55:31  5-MIN KBKB 120055Z AUTO 00000KT 10SM CLR 26/21 A3004 180 73 1600 000/00 RMK AO2 T02610211
53988KBKB BKB20190911190010809/11/19 19:00:31  5-MIN KBKB 120100Z AUTO 00000KT 10SM CLR 26/21 A3004 190 73 1600 000/00 RMK AO2 T02610211
53988KBKB BKB20190911190510809/11/19 19:05:31  5-MIN KBKB 120105Z AUTO 00000KT 10SM CLR 26/21 A3004 190 73 1600 000/00 RMK AO2 T02610211
53988KBKB BKB20190911191010809/11/19 19:10:31  5-MIN KBKB 120110Z AUTO 00000KT 10SM CLR 26/21 A3004 180 76 1500 000/00 RMK AO2 T02560211
53988KBKB BKB20190911191510809/11/19 19:15:31  5-MIN KBKB 120115Z AUTO 00000KT 10SM CLR 26/22 A3005 180 76 1500 000/00 RMK AO2 T02610217
53988KBKB BKB20190911192010809/11/19 19:20:31  5-MIN KBKB 120120Z AUTO 00000KT 10SM CLR 26/22 A3005 180 79 1500 000/00 RMK AO2 T02560217
53988KBKB BKB20190911192510809/11/19 19:25:31  5-MIN KBKB 120125Z AUTO 00000KT 10SM CLR 26/21 A3005 180 76 1500 000/00 RMK AO2 T02560211
53988KBKB BKB20190911193010809/11/19 19:30:31  5-MIN KBKB 120130Z AUTO 00000KT 10SM CLR 26/22 A3005 170 79 1500 000/00 RMK AO2 T02560217
53988KBKB BKB20190911193510809/11/19 19:35:31  5-MIN KBKB 120135Z AUTO 00000KT 10SM CLR 26/22 A3006 170 79 1500 000/00 RMK AO2 T02560217
53988KBKB BKB20190911194010809/11/19 19:40:31  5-MIN KBKB 120140Z AUTO 00000KT 10SM CLR 26/21 A3006 170 76 1500 000/00 RMK AO2 T02560211
53988KBKB BKB20190911194510809/11/19 19:45:31  5-MIN KBKB 120145Z AUTO 00000KT 10SM CLR 25/21 A3006 170 79 1400 000/00 RMK AO2 T02500211
53988KBKB BKB20190911195011509/11/19 19:50:31  5-MIN KBKB 120150Z AUTO 00000KT 10SM CLR 25/21 A3006 170 79 1400 000/00 RMK AO2 SLP205 T02500211
53988KBKB BKB20190911195510809/11/19 19:55:31  5-MIN KBKB 120155Z AUTO 00000KT 10SM CLR 25/21 A3006 160 79 1400 000/00 RMK AO2 T02500211
53988KBKB BKB20190911200010809/11/19 20:00:31  5-MIN KBKB 120200Z AUTO 00000KT 10SM CLR 25/21 A3007 160 79 1400 000/00 RMK AO2 T02500211
53988KBKB BKB20190911200510809/11/19 20:05:31  5-MIN KBKB 120205Z AUTO 00000KT 10SM CLR 25/21 A3007 160 79 1400 000/00 RMK AO2 T02500211
53988KBKB BKB20190911201010809/11/19 20:10:31  5-MIN KBKB 120210Z AUTO 00000KT 10SM CLR 24/21 A3007 160 81 1300 000/00 RMK AO2 T02440211
53988KBKB BKB20190911201510809/11/19 20:15:31  5-MIN KBKB 120215Z AUTO 00000KT 10SM CLR 24/21 A3007 160 81 1300 000/00 RMK AO2 T02440211
53988KBKB BKB20190911202010809/11/19 20:20:31  5-MIN KBKB 120220Z AUTO 00000KT 10SM CLR 24/21 A3008 160 81 1300 000/00 RMK AO2 T02440211
53988KBKB BKB20190911202510809/11/19 20:25:31  5-MIN KBKB 120225Z AUTO 00000KT 10SM CLR 24/21 A3008 150 81 1300 000/00 RMK AO2 T02440211
53988KBKB BKB20190911203010809/11/19 20:30:31  5-MIN KBKB 120230Z AUTO 00000KT 10SM CLR 24/22 A3008 150 84 1300 000/00 RMK AO2 T02440217
53988KBKB BKB20190911203510809/11/19 20:35:31  5-MIN KBKB 120235Z AUTO 00000KT 10SM CLR 25/21 A3008 150 79 1400 000/00 RMK AO2 T02500211
53988KBKB BKB20190911204007509/11/19 20:40:31  5-MIN KBKB 120240Z AUTO 00000KT 10SM00 RMK AO2 T02500217
53988KBKB BKB20190911214010809/11/19 21:40:31  5-MIN KBKB 120340Z AUTO 00000KT 10SM CLR 25/22 A3009 140 81 1400 000/00 RMK AO2 T02500217
53988KBKB BKB20190911214510809/11/19 21:45:31  5-MIN KBKB 120345Z AUTO 00000KT 10SM CLR 24/22 A3009 140 84 1300 000/00 RMK AO2 T02440217
53988KBKB BKB20190911215015109/11/19 21:50:31  5-MIN KBKB 120350Z AUTO 00000KT 10SM CLR 24/22 A3009 140 84 1300 000/00 RMK AO2 SLP214 T02440217140 87 1200 000/00 RMK AO2 T02390217
53988KBKB BKB20190911223511109/11/19 22:35:31  5-MIN KBKB 120435Z AUTO 00000KT 10SM FEW050 24/22 A3009 140 87 1200 000/00 RMK AO2 T02390217
53988KBKB BKB20190911224011109/11/19 22:40:31  5-MIN KBKB 120440Z AUTO 00000KT 10SM FEW050 24/22 A3009 140 87 1200 000/00 RMK AO2 T02390217
53988KBKB BKB20190911224511109/11/19 22:45:31  5-MIN KBKB 120445Z AUTO 00000KT 10SM FEW050 24/22 A3009 140 87 1300 000/00 RMK AO2 T02390217
53988KBKB BKB20190911225011509/11/19 22:50:31  5-MIN KBKB 120450Z AUTO 00000KT 10SM CLR 24/22 A3009 150 87 1300 000/00 RMK AO2 SLP213 T02390217
53988KBKB BKB20190911225510809/11/19 22:55:31  5-MIN KBKB 120455Z AUTO 00000KT 10SM CLR 23/22 A3009 150 90 1200 000/00 RMK AO2 T02330217
53988KBKB BKB20190911230010809/11/19 23:00:31  5-MIN KBKB 120500Z AUTO 00000KT 10SM CLR 23/22 A3008 150 90 1200 000/00 RMK AO2 T02330217
53988KBKB BKB20190911230510809/11/19 23:05:31  5-MIN KBKB 120505Z AUTO 00000KT 10SM CLR 23/22 A3008 150 90 1200 000/00 RMK AO2 T02330217
53988KBKB BKB20190911231010809/11/19 23:10:31  5-MIN KBKB 120510Z AUTO 00000KT 10SM CLR 23/22 A3008 150 90 1200 000/00 RMK AO2 T02330217
53988KBKB BKB20190911231510809/11/19 23:15:31  5-MIN KBKB 120515Z AUTO 00000KT 10SM CLR 23/22 A3008 150 90 1200 000/00 RMK AO2 T02330217
53988KBKB BKB20190911232010809/11/19 23:20:31  5-MIN KBKB 120520Z AUTO 00000KT 10SM CLR 23/22 A3008 150 90 1200 000/00 RMK AO2 T02330217
53988KBKB BKB20190911232510809/11/19 23:25:31  5-MIN KBKB 120525Z AUTO 00000KT 10SM CLR 23/22 A3007 160 90 1200 000/00 RMK AO2 T02330217
53988KBKB BKB20190911233010809/11/19 23:30:31  5-MIN KBKB 120530Z AUTO 00000KT 10SM CLR 23/22 A3007 160 90 1200 000/00 RMK AO2 T02330217
53988KBKB BKB20190911233510809/11/19 23:35:31  5-MIN KBKB 120535Z AUTO 00000KT 10SM CLR 23/22 A3007 160 90 1200 000/00 RMK AO2 T02330217
53988KBKB BKB20190911234010809/11/19 23:40:31  5-MIN KBKB 120540Z AUTO 00000KT 10SM CLR 23/22 A3007 160 93 1100 000/00 RMK AO2 T02280217
53988KBKB BKB20190911234510809/11/19 23:45:31  5-MIN KBKB 120545Z AUTO 00000KT 10SM CLR 23/22 A3007 160 90 1200 000/00 RMK AO2 T02330217
53988KBKB BKB20190911235014309/11/19 23:50:31  5-MIN KBKB 120550Z AUTO 00000KT 10SM CLR 23/22 A3007 160 93 1100 000/00 RMK AO2 SLP207 T02280217 10294 20228 403500217 53017
53988KBKB BKB20190911235510809/11/19 23:55:31  5-MIN KBKB 120555Z AUTO 00000KT 10SM CLR 23/22 A3007 160 93 1100 000/00 RMK AO2 T02280217
53988KBKB BKB20190912000010809/12/19 00:00:31  5-MIN KBKB 120600Z AUTO 00000KT 10SM CLR 23/22 A3007 160 93 1100 000/00 RMK AO2 T02280217
53988KBKB BKB20190912000510809/12/19 00:05:31  5-MIN KBKB 120605Z AUTO 00000KT 10SM CLR 23/21 A3007 160 90 1100 000/00 RMK AO2 T02280211
53988KBKB BKB20190912001010809/12/19 00:10:31  5-MIN KBKB 120610Z AUTO 00000KT 10SM CLR 23/21 A3007 160 90 1100 000/00 RMK AO2 T02280211
53988KBKB BKB20190912001510809/12/19 00:15:31  5-MIN KBKB 120615Z AUTO 00000KT 10SM CLR 23/21 A3006 170 90 1100 000/00 RMK AO2 T02280211
53988KBKB BKB20190912002010809/12/19 00:20:31  5-MIN KBKB 120620Z AUTO 00000KT 10SM CLR 23/21 A3006 170 90 1200 000/00 RMK AO2 T02280211
53988KBKB BKB20190912002510809/12/19 00:25:31  5-MIN KBKB 120625Z AUTO 00000KT 10SM CLR 23/21 A3006 170 90 1200 000/00 RMK AO2 T02280211
53988KBKB BKB20190912003010809/12/19 00:30:31  5-MIN KBKB 120630Z AUTO 00000KT 10SM CLR 22/21 A3006 170 93 1100 000/00 RMK AO2 T02220211
53988KBKB BKB20190912003514009/12/19 00:35:31  5-MIN KBKB 120635Z AUTO 00000KT 10SM CLR 22/21 A3006 170 93 1100 000/00 RMK AO2 T0222021197 1000 000/00 RMK AO2 T02170211
53988KBKB BKB20190912004010809/12/19 00:40:31  5-MIN KBKB 120640Z AUTO 00000KT 10SM CLR 22/21 A3006 170 93 1100 000/00 RMK AO2 T02220211
53988KBKB BKB20190912004510809/12/19 00:45:31  5-MIN KBKB 120645Z AUTO 00000KT 10SM CLR 22/21 A3006 170 93 1100 000/00 RMK AO2 T02220211
53988KBKB BKB20190912005011509/12/19 00:50:31  5-MIN KBKB 120650Z AUTO 00000KT 10SM CLR 22/21 A3006 170 93 1100 000/00 RMK AO2 SLP203 T02220211
53988KBKB BKB20190912005510709/12/19 00:55:31  5-MIN KBKB 120655Z AUTO 00000KT 9SM CLR 22/21 A3005 180 93 1100 000/00 RMK AO2 T02220211
53988KBKB BKB20190912010010709/12/19 01:00:31  5-MIN KBKB 120700Z AUTO 00000KT 8SM CLR 22/21 A3005 180 97 1000 000/00 RMK AO2 T02170211
53988KBKB BKB20190912010510709/12/19 01:05:31  5-MIN KBKB 120705Z AUTO 00000KT 8SM CLR 22/21 A3005 180 93 1100 000/00 RMK AO2 T02220211
53988KBKB BKB20190912011010709/12/19 01:10:31  5-MIN KBKB 120710Z AUTO 00000KT 8SM CLR 22/21 A3005 180 93 1100 000/00 RMK AO2 T02220211
53988KBKB BKB20190912011510709/12/19 01:15:31  5-MIN KBKB 120715Z AUTO 00000KT 7SM CLR 22/21 A3005 180 93 1100 000/00 RMK AO2 T02220211
53988KBKB BKB20190912012010709/12/19 01:20:31  5-MIN KBKB 120720Z AUTO 00000KT 7SM CLR 22/21 A3005 180 97 1000 000/00 RMK AO2 T02170211
53988KBKB BKB20190912012510709/12/19 01:25:31  5-MIN KBKB 120725Z AUTO 00000KT 7SM CLR 22/21 A3005 180 97 1000 000/00 RMK AO2 T02170211
53988KBKB BKB20190912013010709/12/19 01:30:31  5-MIN KBKB 120730Z AUTO 00000KT 7SM CLR 22/21 A3005 180 97 1000 000/00 RMK AO2 T02170211
53988KBKB BKB20190912013510709/12/19 01:35:31  5-MIN KBKB 120735Z AUTO 00000KT 7SM CLR 22/21 A3005 180 97 1000 000/00 RMK AO2 T02170211
53988KBKB BKB20190912014010709/12/19 01:40:31  5-MIN KBKB 120740Z AUTO 00000KT 7SM CLR 22/21 A3005 180 97 1000 000/00 RMK AO2 T02170211
53988KBKB BKB20190912014511009/12/19 01:45:31  5-MIN KBKB 120745Z AUTO 00000KT 6SM BR CLR 22/21 A3004 180 97 1000 000/00 RMK AO2 T02170211
53988KBKB BKB20190912015011709/12/19 01:50:31  5-MIN KBKB 120750Z AUTO 00000KT 6SM BR CLR 22/21 A3005 180 97 1000 000/00 RMK AO2 SLP199 T02170211
53988KBKB BKB20190912015511009/12/19 01:55:31  5-MIN KBKB 120755Z AUTO 00000KT 6SM BR CLR 22/21 A3004 180 97 1000 000/00 RMK AO2 T02170211
53988KBKB BKB20190912020011009/12/19 02:00:31  5-MIN KBKB 120800Z AUTO 00000KT 6SM BR CLR 22/21 A3004 180 93 1000 000/00 RMK AO2 T02170206
53988KBKB BKB20190912020510709/12/19 02:05:31  5-MIN KBKB 120805Z AUTO 00000KT 7SM CLR 22/21 A3004 180 93 1000 000/00 RMK AO2 T02170206
53988KBKB BKB20190912021010709/12/19 02:10:31  5-MIN KBKB 120810Z AUTO 00000KT 7SM CLR 22/21 A3004 180 93 1000 000/00 RMK AO2 T02170206
53988KBKB BKB20190912021510709/12/19 02:15:31  5-MIN KBKB 120815Z AUTO 00000KT 7SM CLR 22/21 A3004 180 93 1000 000/00 RMK AO2 T02170206
53988KBKB BKB20190912022010709/12/19 02:20:31  5-MIN KBKB 120820Z AUTO 00000KT 7SM CLR 22/21 A3004 190 93 1000 000/00 RMK AO2 T02170206
53988KBKB BKB20190912022511009/12/19 02:25:31  5-MIN KBKB 120825Z AUTO 00000KT 6SM BR CLR 22/21 A3004 190 93 1000 000/00 RMK AO2 T02170206
53988KBKB BKB20190912023017409/12/19 02:30:31  5-MIN KBKB 120830Z AUTO 00000KT 6SM BR CLR 22/21 A3004 190 93 1000 000/00 RMK AO2 T0217020600KT 6SM BR CLR 22/21 A3004 190 93 1100 000/00 RMK AO2 T02170206
53988KBKB BKB20190912030011009/12/19 03:00:31  5-MIN KBKB 120900Z AUTO 00000KT 5SM BR CLR 21/21 A3004 190 97 1000 000/00 RMK AO2 T02110206
53988KBKB BKB20190912030511009/12/19 03:05:31  5-MIN KBKB 120905Z AUTO 00000KT 5SM BR CLR 21/21 A3004 190 97 1000 000/00 RMK AO2 T02110206
53988KBKB BKB20190912031014109/12/19 03:10:31  5-MIN KBKB 120910Z AUTO 00000KT 5SM BR CLR 21/21 A3004 190 97 1000 000/00 RMK AO2 T021102066 1700 000/00 RMK AO2 T02780233
53988KBKB BKB20190912082010809/12/19 08:20:31  5-MIN KBKB 121420Z AUTO VRB03KT 10SM CLR 28/23 A3010 130 74 1700 VRB/03 RMK AO2 T02830233
53988KBKB BKB20190912082510809/12/19 08:25:31  5-MIN KBKB 121425Z AUTO VRB04KT 10SM CLR 28/23 A3011 130 71 1700 VRB/04 RMK AO2 T02830228
53988KBKB BKB20190912083010809/12/19 08:30:31  5-MIN KBKB 121430Z AUTO VRB04KT 10SM CLR 29/23 A3011 130 69 1800 VRB/04 RMK AO2 T02890228
53988KBKB BKB20190912083510809/12/19 08:35:31  5-MIN KBKB 121435Z AUTO VRB03KT 10SM CLR 29/23 A3011 120 69 1800 VRB/03 RMK AO2 T02890228
53988KBKB BKB20190912084010809/12/19 08:40:31  5-MIN KBKB 121440Z AUTO VRB03KT 10SM CLR 29/22 A3011 120 67 1800 VRB/03 RMK AO2 T02890222
53988KBKB BKB20190912084510809/12/19 08:45:31  5-MIN KBKB 121445Z AUTO VRB04KT 10SM CLR 29/23 A3011 120 67 1800 VRB/04 RMK AO2 T02940228
53988KBKB BKB20190912085012109/12/19 08:50:31  5-MIN KBKB 121450Z AUTO VRB05KT 10SM CLR 29/23 A3012 120 67 1800 VRB/05 RMK AO2 SLP224 T02940228 53013
53988KBKB BKB20190912085510809/12/19 08:55:31  5-MIN KBKB 121455Z AUTO VRB05KT 10SM CLR 29/23 A3012 120 69 1800 VRB/05 RMK AO2 T02890228
53988KBKB BKB20190912090010809/12/19 09:00:31  5-MIN KBKB 121500Z AUTO VRB03KT 10SM CLR 29/23 A3012 120 67 1800 VRB/03 RMK AO2 T02940228
53988KBKB BKB20190912090510809/12/19 09:05:31  5-MIN KBKB 121505Z AUTO VRB04KT 10SM CLR 29/23 A3012 110 67 1800 VRB/04 RMK AO2 T02940228
53988KBKB BKB20190912091010809/12/19 09:10:31  5-MIN KBKB 121510Z AUTO VRB04KT 10SM CLR 29/23 A3012 110 67 1800 VRB/04 RMK AO2 T02940228
53988KBKB BKB20190912091510809/12/19 09:15:31  5-MIN KBKB 121515Z AUTO VRB04KT 10SM CLR 29/23 A3012 110 67 1800 VRB/04 RMK AO2 T02940228
53988KBKB BKB20190912092010809/12/19 09:20:31  5-MIN KBKB 121520Z AUTO 12003KT 10SM CLR 29/22 A3012 110 64 1800 110/03 RMK AO2 T02940222
53988KBKB BKB20190912092507309/12/19 09:25:31  5-MIN KBKB 121525Z AUTO 14003KT 10SM CLR 29/22 A301230
53988KBKB BKB20190912224010809/12/19 22:40:31  5-MIN KBKB 130440Z AUTO 00000KT 10SM CLR 22/20 A3007 160 87 1100 000/00 RMK AO2 T02220200
53988KBKB BKB20190912224510809/12/19 22:45:31  5-MIN KBKB 130445Z AUTO 00000KT 10SM CLR 22/20 A3007 160 87 1100 000/00 RMK AO2 T02220200
53988KBKB BKB20190912225011509/12/19 22:50:31  5-MIN KBKB 130450Z AUTO 00000KT 10SM CLR 22/20 A3007 160 87 1100 000/00 RMK AO2 SLP206 T02220200
53988KBKB BKB20190912225510809/12/19 22:55:31  5-MIN KBKB 130455Z AUTO 00000KT 10SM CLR 22/20 A3007 160 87 1100 000/00 RMK AO2 T02220200
53988KBKB BKB20190912230010809/12/19 23:00:31  5-MIN KBKB 130500Z AUTO 00000KT 10SM CLR 22/20 A3007 160 90 1000 000/00 RMK AO2 T02170200
53988KBKB BKB20190912230510809/12/19 23:05:31  5-MIN KBKB 130505Z AUTO 00000KT 10SM CLR 22/20 A3007 160 90 1000 000/00 RMK AO2 T02170200
53988KBKB BKB20190912231010809/12/19 23:10:31  5-MIN KBKB 130510Z AUTO 00000KT 10SM CLR 22/20 A3007 160 87 1100 000/00 RMK AO2 T02220200
53988KBKB BKB20190912231510809/12/19 23:15:31  5-MIN KBKB 130515Z AUTO 00000KT 10SM CLR 22/20 A3007 160 87 1100 000/00 RMK AO2 T02220200
53988KBKB BKB20190912232010809/12/19 23:20:31  5-MIN KBKB 130520Z AUTO 00000KT 10SM CLR 22/20 A3007 160 87 1100 000/00 RMK AO2 T02220200
53988KBKB BKB20190912232510809/12/19 23:25:31  5-MIN KBKB 130525Z AUTO 00000KT 10SM CLR 22/20 A3007 160 87 1100 000/00 RMK AO2 T02220200
53988KBKB BKB20190912233010809/12/19 23:30:31  5-MIN KBKB 130530Z AUTO 00000KT 10SM CLR 22/20 A3007 160 87 1100 000/00 RMK AO2 T02220200
53988KBKB BKB20190912233510809/12/19 23:35:31  5-MIN KBKB 130535Z AUTO 00000KT 10SM CLR 22/20 A3007 160 90 1000 000/00 RMK AO2 T02170200
53988KBKB BKB20190912234010809/12/19 23:40:31  5-MIN KBKB 130540Z AUTO 00000KT 10SM CLR 22/20 A3007 160 90 1000 000/00 RMK AO2 T02170200
53988KBKB BKB20190912234510809/12/19 23:45:31  5-MIN KBKB 130545Z AUTO 00000KT 10SM CLR 22/20 A3007 160 90 1000 000/00 RMK AO2 T02170200
53988KBKB BKB20190912235014309/12/19 23:50:31  5-MIN KBKB 130550Z AUTO 00000KT 10SM CLR 22/20 A3007 160 87 1100 000/00 RMK AO2 SLP207 T02220200 10289 20217 403500200 53013
53988KBKB BKB20190912235510809/12/19 23:55:31  5-MIN KBKB 130555Z AUTO 00000KT 10SM CLR 22/20 A3007 160 87 1100 000/00 RMK AO2 T02220200
53988KBKB BKB20190913000010809/13/19 00:00:31  5-MIN KBKB 130600Z AUTO 00000KT 10SM CLR 22/20 A3007 160 90 1000 000/00 RMK AO2 T02170200
53988KBKB BKB20190913000510809/13/19 00:05:31  5-MIN KBKB 130605Z AUTO 00000KT 10SM CLR 22/20 A3007 160 90 1000 000/00 RMK AO2 T02170200
53988KBKB BKB20190913001010809/13/19 00:10:31  5-MIN KBKB 130610Z AUTO 00000KT 10SM CLR 22/20 A3007 160 90 1000 000/00 RMK AO2 T02170200
53988KBKB BKB20190913001510809/13/19 00:15:31  5-MIN KBKB 130615Z AUTO 00000KT 10SM CLR 22/20 A3007 160 90 1000 000/00 RMK AO2 T02170200
53988KBKB BKB20190913002010809/13/19 00:20:31  5-MIN KBKB 130620Z AUTO 00000KT 10SM CLR 22/20 A3007 160 90 1000 000/00 RMK AO2 T02170200
53988KBKB BKB20190913002510809/13/19 00:25:31  5-MIN KBKB 130625Z AUTO 00000KT 10SM CLR 22/20 A3007 160 90 1000 000/00 RMK AO2 T02170200
53988KBKB BKB20190913003010809/13/19 00:30:31  5-MIN KBKB 130630Z AUTO 00000KT 10SM CLR 22/20 A3007 160 90 1000 000/00 RMK AO2 T02170200
53988KBKB BKB20190913003510809/13/19 00:35:31  5-MIN KBKB 130635Z AUTO 00000KT 10SM CLR 22/20 A3007 160 90 1000 000/00 RMK AO2 T02170200
53988KBKB BKB20190913004005209/13/19 00:40:31  5-MIN KBKB 130640Z AUTO T02110200
53988KBKB BKB20190913010510809/13/19 01:05:31  5-MIN KBKB 130705Z AUTO 00000KT 10SM CLR 21/20 A3007 160 93 1000 000/00 RMK AO2 T02110200
53988KBKB BKB20190913011010809/13/19 01:10:31  5-MIN KBKB 130710Z AUTO 00000KT 10SM CLR 21/19 A3007 160 90 1000 000/00 RMK AO2 T02110194
53988KBKB BKB20190913011510809/13/19 01:15:31  5-MIN KBKB 130715Z AUTO 00000KT 10SM CLR 21/19 A3007 160 90 1000 000/00 RMK AO2 T02110194
53988KBKB BKB20190913012013309/13/19 01:20:31  5-MIN KBKB 130720Z AUTO 00000KT 10SM CLR 21/19 TO 00000KT 10SM CLR 21/20 A3009 140 93 900 000/00 RMK AO2 T02110200
53988KBKB BKB20190913044010709/13/19 04:40:31  5-MIN KBKB 131040Z AUTO 00000KT 10SM CLR 21/20 A3009 140 93 900 000/00 RMK AO2 T02110200
53988KBKB BKB20190913044510709/13/19 04:45:31  5-MIN KBKB 131045Z AUTO 00000KT 10SM CLR 21/20 A3009 140 93 900 000/00 RMK AO2 T02110200
53988KBKB BKB20190913045011409/13/19 04:50:31  5-MIN KBKB 131050Z AUTO 00000KT 10SM CLR 21/20 A3009 140 93 900 000/00 RMK AO2 SLP214 T02110200
53988KBKB BKB20190913045510709/13/19 04:55:31  5-MIN KBKB 131055Z AUTO 00000KT 10SM CLR 21/20 A3009 140 93 900 000/00 RMK AO2 T02110200
53988KBKB BKB20190913050010709/13/19 05:00:31  5-MIN KBKB 131100Z AUTO 00000KT 10SM CLR 21/19 A3009 140 93 900 000/00 RMK AO2 T02060194
53988KBKB BKB20190913050510709/13/19 05:05:31  5-MIN KBKB 131105Z AUTO 00000KT 10SM CLR 21/19 A3009 140 93 900 000/00 RMK AO2 T02060194
53988KBKB BKB20190913051016009/13/19 05:10:31  5-MIN KBKB 131110Z AUTO 00000KT 10SM CLR 21/19 A3009 140 93 900 000/00 RMK AO2 T00KT 10SM CLR 21/19 A3009 140 93 900 000/00 RMK AO2 T02060194
53988KBKB BKB20190913052010709/13/19 05:20:31  5-MIN KBKB 131120Z AUTO 00000KT 10SM CLR 21/19 A3009 140 93 900 000/00 RMK AO2 T02060194
53988KBKB BKB20190913052510709/13/19 05:25:31  5-MIN KBKB 131125Z AUTO 00000KT 10SM CLR 21/19 A3009 140 93 900 000/00 RMK AO2 T02060194
53988KBKB BKB20190913053012509/13/19 05:30:31  5-MIN KBKB 131130Z AUTO 00000KT 1000000KT 10SM CLR 22/20 A3010 130 87 1000 000/00 RMK AO2 SLP218 T02220200
53988KBKB BKB20190913065510809/13/19 06:55:31  5-MIN KBKB 131255Z AUTO 00000KT 10SM CLR 23/21 A3010 130 90 1100 000/00 RMK AO2 T02280211
53988KBKB BKB20190913070010809/13/19 07:00:31  5-MIN KBKB 131300Z AUTO 00000KT 10SM CLR 23/21 A3010 130 90 1100 000/00 RMK AO2 T02280211
53988KBKB BKB20190913070517009/13/19 07:05:31  5-MIN KBKB 131305Z AUTO 00000KT 10SM CLR 23/21 A3010 130 87 1200 000/00 RMK AO2 T02330211 31/21 A3012 120 53 2000 000/00 RMK AO2 SLP223 T03110206 51012
53988KBKB BKB20190913085510809/13/19 08:55:31  5-MIN KBKB 131455Z AUTO 36004KT 10SM CLR 31/21 A3012 120 53 2000 360/04 RMK AO2 T03110206
53988KBKB BKB20190913090010809/13/19 09:00:31  5-MIN KBKB 131500Z AUTO 00000KT 10SM CLR 32/21 A3012 120 53 2100 000/00 RMK AO2 T03170211
53988KBKB BKB20190913090512509/13/19 09:05:31  5-MIN KBKB 131505Z AUTO VRB03KT 10SM CLR 32/21 A3012 120 51 2100 VRB/03 RMK AO2 T031702064 5MIN(S) LISTED.
53988KBKB BKB20190913185011509/13/19 18:50:31  5-MIN KBKB 140050Z AUTO 00000KT 10SM CLR 28/19 A3003 200 58 1800 000/00 RMK AO2 SLP193 T02780189
53988KBKB BKB20190913185510809/13/19 18:55:31  5-MIN KBKB 140055Z AUTO 00000KT 10SM CLR 27/19 A3003 200 60 1700 000/00 RMK AO2 T02720189
53988KBKB BKB20190913190010809/13/19 19:00:31  5-MIN KBKB 140100Z AUTO 00000KT 10SM CLR 27/19 A3003 200 60 1700 000/00 RMK AO2 T02720189
53988KBKB BKB20190913190510809/13/19 19:05:31  5-MIN KBKB 140105Z AUTO 00000KT 10SM CLR 27/19 A3003 200 60 1700 000/00 RMK AO2 T02720189
53988KBKB BKB20190913191010809/13/19 19:10:31  5-MIN KBKB 140110Z AUTO 00000KT 10SM CLR 27/19 A3003 200 60 1700 000/00 RMK AO2 T02720189
53988KBKB BKB20190913191510809/13/19 19:15:31  5-MIN KBKB 140115Z AUTO 00000KT 10SM CLR 27/19 A3003 190 62 1600 000/00 RMK AO2 T02670189
53988KBKB BKB20190913192010809/13/19 19:20:31  5-MIN KBKB 140120Z AUTO 00000KT 10SM CLR 27/19 A3004 190 62 1600 000/00 RMK AO2 T02670189
53988KBKB BKB20190913192510809/13/19 19:25:31  5-MIN KBKB 140125Z AUTO 00000KT 10SM CLR 27/19 A3004 190 62 1600 000/00 RMK AO2 T02670189
53988KBKB BKB20190913193010809/13/19 19:30:31  5-MIN KBKB 140130Z AUTO 00000KT 10SM CLR 27/19 A3004 190 64 1600 000/00 RMK AO2 T02670194
53988KBKB BKB20190913193510809/13/19 19:35:31  5-MIN KBKB 140135Z AUTO 00000KT 10SM CLR 26/19 A3004 190 66 1600 000/00 RMK AO2 T02610194
53988KBKB BKB20190913194010809/13/19 19:40:31  5-MIN KBKB 140140Z AUTO 00000KT 10SM CLR 26/19 A3004 190 68 1500 000/00 RMK AO2 T02560194
53988KBKB BKB20190913194510809/13/19 19:45:31  5-MIN KBKB 140145Z AUTO 00000KT 10SM CLR 26/19 A3004 180 66 1600 000/00 RMK AO2 T02610194
53988KBKB BKB20190913195011509/13/19 19:50:31  5-MIN KBKB 140150Z AUTO 00000KT 10SM CLR 26/19 A3005 180 68 1500 000/00 RMK AO2 SLP200 T02560194
53988KBKB BKB20190913195510809/13/19 19:55:31  5-MIN KBKB 140155Z AUTO 00000KT 10SM CLR 26/20 A3005 180 71 1500 000/00 RMK AO2 T02560200
53988KBKB BKB20190913200010809/13/19 20:00:31  5-MIN KBKB 140200Z AUTO 00000KT 10SM CLR 26/21 A3005 180 73 1500 000/00 RMK AO2 T02560206
53988KBKB BKB20190913200510809/13/19 20:05:31  5-MIN KBKB 140205Z AUTO 00000KT 10SM CLR 25/21 A3005 180 76 1400 000/00 RMK AO2 T02500206
53988KBKB BKB20190913201010809/13/19 20:10:31  5-MIN KBKB 140210Z AUTO 00000KT 10SM CLR 25/20 A3005 180 73 1400 000/00 RMK AO2 T02500200
53988KBKB BKB20190913201510809/13/19 20:15:31  5-MIN KBKB 140215Z AUTO 00000KT 10SM CLR 25/20 A3005 180 73 1400 000/00 RMK AO2 T02500200
53988KBKB BKB20190913202010809/13/19 20:20:31  5-MIN KBKB 140220Z AUTO 00000KT 10SM CLR 25/20 A3005 180 73 1400 000/00 RMK AO2 T02500200
53988KBKB BKB20190913202510809/13/19 20:25:31  5-MIN KBKB 140225Z AUTO 00000KT 10SM CLR 25/20 A3005 180 73 1400 000/00 RMK AO2 T02500200
53988KBKB BKB20190913203010809/13/19 20:30:31  5-MIN KBKB 140230Z AUTO 00000KT 10SM CLR 24/19 A3005 180 73 1400 000/00 RMK AO2 T02440194
53988KBKB BKB20190913203510809/13/19 20:35:31  5-MIN KBKB 140235Z AUTO 00000KT 10SM CLR 24/20 A3005 180 76 1400 000/00 RMK AO2 T02440200
53988KBKB BKB20190913204010809/13/19 20:40:31  5-MIN KBKB 140240Z AUTO 00000KT 10SM CLR 24/20 A3005 180 76 1400 000/00 RMK AO2 T02440200
53988KBKB BKB20190913204510809/13/19 20:45:31  5-MIN KBKB 140245Z AUTO 00000KT 10SM CLR 24/20 A3006 170 76 1300 000/00 RMK AO2 T02440200
53988KBKB BKB20190913205012109/13/19 20:50:31  5-MIN KBKB 140250Z AUTO 00000KT 10SM CLR 24/21 A3006 170 78 1300 000/00 RMK AO2 SLP203 T02440206 55004
53988KBKB BKB20190913205510809/13/19 20:55:31  5-MIN KBKB 140255Z AUTO 00000KT 10SM CLR 24/21 A3006 170 81 1300 000/00 RMK AO2 T02390206
53988KBKB BKB20190913210010809/13/19 21:00:31  5-MIN KBKB 140300Z AUTO 00000KT 10SM CLR 24/21 A3006 170 81 1300 000/00 RMK AO2 T02390206
53988KBKB BKB20190913210510809/13/19 21:05:31  5-MIN KBKB 140305Z AUTO 00000KT 10SM CLR 24/21 A3006 170 81 1300 000/00 RMK AO2 T02390206
53988KBKB BKB20190913211010809/13/19 21:10:31  5-MIN KBKB 140310Z AUTO 00000KT 10SM CLR 24/21 A3006 170 81 1300 000/00 RMK AO2 T02390206
53988KBKB BKB20190913211510809/13/19 21:15:31  5-MIN KBKB 140315Z AUTO 00000KT 10SM CLR 23/20 A3006 160 81 1200 000/00 RMK AO2 T02330200
53988KBKB BKB20190913212010809/13/19 21:20:31  5-MIN KBKB 140320Z AUTO 00000KT 10SM CLR 23/20 A3007 160 81 1200 000/00 RMK AO2 T02330200
53988KBKB BKB20190913212510809/13/19 21:25:31  5-MIN KBKB 140325Z AUTO 00000KT 10SM CLR 23/19 A3007 160 78 1200 000/00 RMK AO2 T02330194
53988KBKB BKB20190913213010809/13/19 21:30:31  5-MIN KBKB 140330Z AUTO 00000KT 10SM CLR 23/20 A3007 160 81 1200 000/00 RMK AO2 T02330200
53988KBKB BKB20190913213510809/13/19 21:35:31  5-MIN KBKB 140335Z AUTO 00000KT 10SM CLR 23/20 A3007 160 81 1200 000/00 RMK AO2 T02330200
53988KBKB BKB20190913214010809/13/19 21:40:31  5-MIN KBKB 140340Z AUTO 00000KT 10SM CLR 23/20 A3007 160 81 1200 000/00 RMK AO2 T02330200
53988KBKB BKB20190913214510809/13/19 21:45:31  5-MIN KBKB 140345Z AUTO 00000KT 10SM CLR 23/21 A3007 160 84 1200 000/00 RMK AO2 T02330206
53988KBKB BKB20190913215011509/13/19 21:50:31  5-MIN KBKB 140350Z AUTO 00000KT 10SM CLR 23/21 A3007 160 84 1200 000/00 RMK AO2 SLP207 T02330206
53988KBKB BKB20190913215510809/13/19 21:55:31  5-MIN KBKB 140355Z AUTO 00000KT 10SM CLR 23/20 A3007 160 81 1200 000/00 RMK AO2 T02330200
53988KBKB BKB20190913220010809/13/19 22:00:31  5-MIN KBKB 140400Z AUTO 00000KT 10SM CLR 23/20 A3007 160 84 1100 000/00 RMK AO2 T02280200
53988KBKB BKB20190913220510809/13/19 22:05:31  5-MIN KBKB 140405Z AUTO 00000KT 10SM CLR 23/20 A3007 160 84 1100 000/00 RMK AO2 T02280200
53988KBKB BKB20190913221010809/13/19 22:10:31  5-MIN KBKB 140410Z AUTO 00000KT 10SM CLR 23/20 A3006 170 84 1100 000/00 RMK AO2 T02280200
53988KBKB BKB20190913221510809/13/19 22:15:31  5-MIN KBKB 140415Z AUTO 00000KT 10SM CLR 23/19 A3007 160 81 1100 000/00 RMK AO2 T02280194
53988KBKB BKB20190913222010809/13/19 22:20:31  5-MIN KBKB 140420Z AUTO 00000KT 10SM CLR 23/19 A3007 160 81 1100 000/00 RMK AO2 T02280194
53988KBKB BKB20190913222510809/13/19 22:25:31  5-MIN KBKB 140425Z AUTO 00000KT 10SM CLR 23/19 A3007 160 81 1100 000/00 RMK AO2 T02280194
53988KBKB BKB20190913223010809/13/19 22:30:31  5-MIN KBKB 140430Z AUTO 00000KT 10SM CLR 23/20 A3007 160 84 1100 000/00 RMK AO2 T02280200
53988KBKB BKB20190913223510809/13/19 22:35:31  5-MIN KBKB 140435Z AUTO 00000KT 10SM CLR 23/20 A3007 160 84 1100 000/00 RMK AO2 T02280200
53988KBKB BKB20190913224010809/13/19 22:40:31  5-MIN KBKB 140440Z AUTO 00000KT 10SM CLR 22/20 A3007 160 87 1100 000/00 RMK AO2 T02220200
53988KBKB BKB20190913224510809/13/19 22:45:31  5-MIN KBKB 140445Z AUTO 00000KT 10SM CLR 23/20 A3006 170 84 1100 000/00 RMK AO2 T02280200
53988KBKB BKB20190913225011409/13/19 22:50:31  5-MIN KBKB 140450Z AUTO 00000KT 9SM CLR 23/20 A3006 170 84 1200 000/00 RMK AO2 SLP204 T02280200
53988KBKB BKB20190913225510709/13/19 22:55:31  5-MIN KBKB 140455Z AUTO 00000KT 8SM CLR 22/20 A3006 170 87 1100 000/00 RMK AO2 T02220200
53988KBKB BKB20190913230010709/13/19 23:00:31  5-MIN KBKB 140500Z AUTO 00000KT 8SM CLR 22/20 A3006 170 87 1100 000/00 RMK AO2 T02220200
53988KBKB BKB20190913230510709/13/19 23:05:31  5-MIN KBKB 140505Z AUTO 00000KT 8SM CLR 22/20 A3006 170 87 1100 000/00 RMK AO2 T02220200
53988KBKB BKB20190913231010709/13/19 23:10:31  5-MIN KBKB 140510Z AUTO 00000KT 7SM CLR 22/20 A3006 170 87 1100 000/00 RMK AO2 T02220200
53988KBKB BKB20190913231508409/13/19 23:15:31  5-MIN KBKB 140515Z AUTO 00000KT 7SM CLR 22/19 A3006 170 84 110200
53988KBKB BKB20190914010012009/14/19 01:00:31  5-MIN KBKB 140700Z AUTO 00000KT 5SM HZ BKN090 BKN110 23/20 A3006 170 81 1200 000/00 RMK AO2 T02330200
53988KBKB BKB20190914010512009/14/19 01:05:31  5-MIN KBKB 140705Z AUTO 00000KT 5SM HZ BKN085 BKN120 24/20 A3006 170 78 1300 000/00 RMK AO2 T02390200
53988KBKB BKB20190914011012009/14/19 01:10:31  5-MIN KBKB 140710Z AUTO 00000KT 6SM HZ BKN090 BKN120 24/19 A3005 170 73 1400 000/00 RMK AO2 T02440194
53988KBKB BKB20190914011511709/14/19 01:15:31  5-MIN KBKB 140715Z AUTO 00000KT 7SM BKN090 BKN120 24/20 A3005 180 78 1300 000/00 RMK AO2 T02390200
53988KBKB BKB20190914011513609/14/19 01:15:31  5-MIN KBKB 140715Z AUTO 00000KT 7SM BKN090 BKN120 24/20 SM BR BKN090 23/21 A3006 170 87 1200 000/00 RMK AO2 T02280206
53988KBKB BKB20190914012011709/14/19 01:20:31  5-MIN KBKB 140720Z AUTO 00000KT 7SM BKN090 BKN120 24/19 A3006 170 76 1300 000/00 RMK AO2 T02390194
53988KBKB BKB20190914012509409/14/19 01:25:31  5-MIN KBKB 140725Z AUTO 00000KT 6SM HZ 170 84 1000 000/00 RMK AO2 T02170189
53988KBKB BKB20190914012512009/14/19 01:25:31  5-MIN KBKB 140725Z AUTO 00000KT 6SM HZ BKN090 BKN120 24/20 A3006 170 78 1300 000/00 RMK AO2 T02390200
53988KBKB BKB20190914012514209/14/19 01:25:31  5-MIN KBKB 140725Z31  5-MIN KBKB 140705Z AUTO 00000KT 5SM HZ BKN085 BKN120 24/20 A3006 170 78 1300 000/00 RMK AO2 T02390200
53988KBKB BKB20190914013012009/14/19 01:30:31  5-MIN KBKB 140730Z AUTO 00000KT 6SM HZ BKN090 BKN120 24/20 A3006 170 78 1300 000/00 RMK AO2 T02390200
53988KBKB BKB20190914013014009/14/19 01:30:31  5-MIN KBKB 140730Z AUTO 00000KT 6SM HZ BKN090 BKN120 24/20 A3006 170 78 1300 000/00 RMK AO2 T0239020009/14K AO2 T02440194
53988KBKB BKB20190914013511009/14/19 01:35:31  5-MIN KBKB 140735Z AUTO 00000KT 7SM BKN095 24/20 A3006 170 78 1300 000/00 RMK AO2 T02390200
53988KBKB BKB20190914014014409/14/19 01:40:31  5-MIN KBKB 140740Z AUTO 00000KT 7SM BKN095 24/20 A3005 170 78 1300 000/00 RMK AO2 T023902000 76 1300 000/00 RMK AO2 T02390194
53988KBKB BKB20190914045011509/14/19 04:50:31  5-MIN KBKB 141050Z AUTO 00000KT 10SM CLR 22/19 A3006 170 84 1000 000/00 RMK AO2 SLP205 T02170189
53988KBKB BKB20190914045510809/14/19 04:55:31  5-MIN KBKB 141055Z AUTO 00000KT 10SM CLR 22/19 A3006 170 84 1000 000/00 RMK AO2 T02170189
53988KBKB BKB20190914050010809/14/19 05:00:31  5-MIN KBKB 141100Z AUTO 00000KT 10SM CLR 22/19 A3006 170 87 1000 000/00 RMK AO2 T02170194
53988KBKB BKB20190914050510809/14/19 05:05:31  5-MIN KBKB 141105Z AUTO 00000KT 10SM CLR 22/19 A3006 170 87 1000 000/00 RMK AO2 T02170194
53988KBKB BKB20190914050516209/14/19 05:05:31  5-MIN KBKB 141105Z AUTO 00000KT 10SM CLR 22/19 A3006 170 87 1000 000/00 RMK AO2 T02170194M CLR 22/19 A3006 170 84 1000 000/00 RMK AO2 T02170189
53988KBKB BKB20190914051010809/14/19 05:10:31  5-MIN KBKB 141110Z AUTO 00000KT 10SM CLR 22/19 A3006 170 87 1000 000/00 RMK AO2 T02170194
53988KBKB BKB20190914051510809/14/19 05:15:31  5-MIN KBKB 141115Z AUTO 00000KT 10SM CLR 22/19 A3007 160 84 1000 000/00 RMK AO2 T02170189
53988KBKB BKB20190914052010809/14/19 05:20:31  5-MIN KBKB 141120Z AUTO 00000KT 10SM CLR 22/19 A3007 160 84 1000 000/00 RMK AO2 T02170189
53988KBKB BKB20190914052516509/14/19 05:25:31  5-MIN KBKB 141125Z AUTO 00000KT 10SM CLR 22/19 A3007 165:05:31  5-MIN KBKB 141105Z AUTO 00000KT 10SM CLR 22/19 A3006 170 87 1000 000/00 RM02220194
53988KBKB BKB20190914064010809/14/19 06:40:31  5-MIN KBKB 141240Z AUTO 00000KT 10SM CLR 23/19 A3008 150 81 1100 000/00 RMK AO2 T02280194
53988KBKB BKB20190914064510809/14/19 06:45:31  5-MIN KBKB 141245Z AUTO 00000KT 10SM CLR 23/19 A3009 150 81 1100 000/00 RMK AO2 T02280194
53988KBKB BKB20190914165011509/14/19 16:50:31  5-MIN KBKB 142250Z AUTO VRB03KT 10SM CLR 34/18 A2999 230 36 2500 VRB/03 RMK AO2 SLP182 T03440178
53988KBKB BKB20190914165510809/14/19 16:55:31  5-MIN KBKB 142255Z AUTO VRB05KT 10SM CLR 34/17 A2999 230 35 2500 VRB/05 RMK AO2 T03440172
53988KBKB BKB20190914170010809/14/19 17:00:31  5-MIN KBKB 142300Z AUTO VRB04KT 10SM CLR 34/17 A2999 230 36 2500 VRB/04 RMK AO2 T03390172
53988KBKB BKB20190914170510809/14/19 17:05:31  5-MIN KBKB 142305Z AUTO VRB03KT 10SM CLR 34/17 A3000 230 36 2500 VRB/03 RMK AO2 T03390172
53988KBKB BKB20190914171010809/14/19 17:10:31  5-MIN KBKB 142310Z AUTO 00000KT 10SM CLR 34/17 A3000 230 36 2500 000/00 RMK AO2 T03390172
53988KBKB BKB20190914171510809/14/19 17:15:31  5-MIN KBKB 142315Z AUTO VRB03KT 10SM CLR 33/18 A3000 230 39 2400 VRB/03 RMK AO2 T03330178
53988KBKB BKB20190914172010809/14/19 17:20:31  5-MIN KBKB 142320Z AUTO VRB04KT 10SM CLR 33/17 A3000 230 37 2400 VRB/04 RMK AO2 T03330172
53988KBKB BKB20190914172510809/14/19 17:25:31  5-MIN KBKB 142325Z AUTO 00000KT 10SM CLR 33/17 A3000 220 39 2300 000/00 RMK AO2 T03280172
53988KBKB BKB20190914173010809/14/19 17:30:31  5-MIN KBKB 142330Z AUTO VRB04KT 10SM CLR 33/17 A3000 220 39 2300 VRB/04 RMK AO2 T03280172
53988KBKB BKB20190914173510809/14/19 17:35:31  5-MIN KBKB 142335Z AUTO 00000KT 10SM CLR 33/17 A3000 220 37 2300 000/00 RMK AO2 T03280167
53988KBKB BKB20190914174010809/14/19 17:40:31  5-MIN KBKB 142340Z AUTO 00000KT 10SM CLR 32/17 A3000 220 40 2300 000/00 RMK AO2 T03220172
53988KBKB BKB20190914174510809/14/19 17:45:31  5-MIN KBKB 142345Z AUTO 00000KT 10SM CLR 32/17 A3000 220 41 2200 000/00 RMK AO2 T03170172
53988KBKB BKB20190914175013309/14/19 17:50:31  5-MIN KBKB 142350Z AUTO 00000KT 10SM CLR 32/17 A3000 220 41 2200 000/00 RMK AO2 SLP185 T03170172 10367 20317 56019
53988KBKB BKB20190914175510809/14/19 17:55:31  5-MIN KBKB 142355Z AUTO 00000KT 10SM CLR 31/17 A3001 220 42 2200 000/00 RMK AO2 T03110172
53988KBKB BKB20190914180010809/14/19 18:00:31  5-MIN KBKB 150000Z AUTO 00000KT 10SM CLR 31/17 A3001 220 41 2200 000/00 RMK AO2 T03110167
53988KBKB BKB20190914180510809/14/19 18:05:31  5-MIN KBKB 150005Z AUTO 00000KT 10SM CLR 31/17 A3001 220 42 2100 000/00 RMK AO2 T03060167
53988KBKB BKB20190914181010809/14/19 18:10:31  5-MIN KBKB 150010Z AUTO 00000KT 10SM CLR 31/17 A3001 220 42 2100 000/00 RMK AO2 T03060167
53988KBKB BKB20190914181510809/14/19 18:15:31  5-MIN KBKB 150015Z AUTO 00000KT 10SM CLR 30/17 A3001 220 44 2000 000/00 RMK AO2 T03000167
53988KBKB BKB20190914182010809/14/19 18:20:31  5-MIN KBKB 150020Z AUTO 00000KT 10SM CLR 29/17 A3001 220 45 2000 000/00 RMK AO2 T02940167
53988KBKB BKB20190914182510809/14/19 18:25:31  5-MIN KBKB 150025Z AUTO 00000KT 10SM CLR 29/17 A3001 220 48 1900 000/00 RMK AO2 T02890172
53988KBKB BKB20190914183010809/14/19 18:30:31  5-MIN KBKB 150030Z AUTO 00000KT 10SM CLR 29/17 A3001 220 47 1900 000/00 RMK AO2 T02890167
53988KBKB BKB20190914183510809/14/19 18:35:31  5-MIN KBKB 150035Z AUTO 00000KT 10SM CLR 28/17 A3001 220 48 1800 000/00 RMK AO2 T02830167
53988KBKB BKB20190914184010809/14/19 18:40:31  5-MIN KBKB 150040Z AUTO 00000KT 10SM CLR 28/17 A3001 220 50 1800 000/00 RMK AO2 T02780167
53988KBKB BKB20190914184510809/14/19 18:45:31  5-MIN KBKB 150045Z AUTO 00000KT 10SM CLR 28/16 A3001 210 48 1800 000/00 RMK AO2 T02780161
53988KBKB BKB20190914185011509/14/19 18:50:31  5-MIN KBKB 150050Z AUTO 00000KT 10SM CLR 28/16 A3001 210 48 1800 000/00 RMK AO2 SLP188 T02780161
53988KBKB BKB20190914185510809/14/19 18:55:31  5-MIN KBKB 150055Z AUTO 00000KT 10SM CLR 28/16 A3001 210 48 1800 000/00 RMK AO2 T02780161
53988KBKB BKB20190914190010809/14/19 19:00:31  5-MIN KBKB 150100Z AUTO 00000KT 10SM CLR 28/16 A3001 210 48 1800 000/00 RMK AO2 T02780161
53988KBKB BKB20190914190510809/14/19 19:05:31  5-MIN KBKB 150105Z AUTO 00000KT 10SM CLR 27/17 A3002 210 52 1700 000/00 RMK AO2 T02720167
53988KBKB BKB20190914191010809/14/19 19:10:31  5-MIN KBKB 150110Z AUTO 00000KT 10SM CLR 27/17 A3002 210 52 1700 000/00 RMK AO2 T02720167
53988KBKB BKB20190914191510809/14/19 19:15:31  5-MIN KBKB 150115Z AUTO 00000KT 10SM CLR 26/17 A3002 210 57 1600 000/00 RMK AO2 T02610172
53988KBKB BKB20190914192010809/14/19 19:20:31  5-MIN KBKB 150120Z AUTO 00000KT 10SM CLR 27/17 A3002 210 53 1600 000/00 RMK AO2 T02670167
53988KBKB BKB20190914192510809/14/19 19:25:31  5-MIN KBKB 150125Z AUTO 00000KT 10SM CLR 27/17 A3002 210 53 1600 000/00 RMK AO2 T02670167
53988KBKB BKB20190914193010809/14/19 19:30:31  5-MIN KBKB 150130Z AUTO 00000KT 10SM CLR 27/17 A3002 210 53 1600 000/00 RMK AO2 T02670167
53988KBKB BKB20190914193510809/14/19 19:35:31  5-MIN KBKB 150135Z AUTO 00000KT 10SM CLR 26/16 A3002 210 53 1600 000/00 RMK AO2 T02610161
53988KBKB BKB20190914194010809/14/19 19:40:31  5-MIN KBKB 150140Z AUTO 00000KT 10SM CLR 27/16 A3002 200 52 1600 000/00 RMK AO2 T02670161
53988KBKB BKB20190914194510809/14/19 19:45:31  5-MIN KBKB 150145Z AUTO 00000KT 10SM CLR 27/17 A3003 200 53 1600 000/00 RMK AO2 T02670167
53988KBKB BKB20190914195011509/14/19 19:50:31  5-MIN KBKB 150150Z AUTO 00000KT 10SM CLR 26/17 A3003 200 57 1600 000/00 RMK AO2 SLP193 T02610172
53988KBKB BKB20190914195510809/14/19 19:55:31  5-MIN KBKB 150155Z AUTO 00000KT 10SM CLR 26/17 A3003 200 55 1600 000/00 RMK AO2 T02610167
53988KBKB BKB20190914200010809/14/19 20:00:31  5-MIN KBKB 150200Z AUTO 00000KT 10SM CLR 26/17 A3003 200 55 1600 000/00 RMK AO2 T02610167
53988KBKB BKB20190914200510809/14/19 20:05:31  5-MIN KBKB 150205Z AUTO 00000KT 10SM CLR 25/17 A3003 190 61 1400 000/00 RMK AO2 T02500172
53988KBKB BKB20190914201010809/14/19 20:10:31  5-MIN KBKB 150210Z AUTO 00000KT 10SM CLR 25/18 A3003 190 66 1400 000/00 RMK AO2 T02500183
53988KBKB BKB20190914201510809/14/19 20:15:31  5-MIN KBKB 150215Z AUTO 00000KT 10SM CLR 25/18 A3004 190 64 1400 000/00 RMK AO2 T02500178
53988KBKB BKB20190914202010809/14/19 20:20:31  5-MIN KBKB 150220Z AUTO 00000KT 10SM CLR 25/18 A3004 190 64 1400 000/00 RMK AO2 T02500178
53988KBKB BKB20190914202510809/14/19 20:25:31  5-MIN KBKB 150225Z AUTO 00000KT 10SM CLR 25/18 A3004 190 66 1400 000/00 RMK AO2 T02500183
53988KBKB BKB20190914203010809/14/19 20:30:31  5-MIN KBKB 150230Z AUTO 00000KT 10SM CLR 25/18 A3004 180 66 1400 000/00 RMK AO2 T02500183
53988KBKB BKB20190914203510809/14/19 20:35:31  5-MIN KBKB 150235Z AUTO 00000KT 10SM CLR 25/18 A3004 190 66 1400 000/00 RMK AO2 T02500183
53988KBKB BKB20190914204010809/14/19 20:40:31  5-MIN KBKB 150240Z AUTO 00000KT 10SM CLR 24/18 A3004 190 71 1300 000/00 RMK AO2 T02390183
53988KBKB BKB20190914204510809/14/19 20:45:31  5-MIN KBKB 150245Z AUTO 00000KT 10SM CLR 24/18 A3004 190 66 1400 000/00 RMK AO2 T02440178
53988KBKB BKB20190914205012109/14/19 20:50:31  5-MIN KBKB 150250Z AUTO 00000KT 10SM CLR 24/19 A3004 180 73 1300 000/00 RMK AO2 SLP199 T02390189 53003
53988KBKB BKB20190914205510809/14/19 20:55:31  5-MIN KBKB 150255Z AUTO 00000KT 10SM CLR 24/18 A3004 180 71 1300 000/00 RMK AO2 T02390183
53988KBKB BKB20190914210010809/14/19 21:00:31  5-MIN KBKB 150300Z AUTO 00000KT 10SM CLR 23/19 A3004 180 76 1200 000/00 RMK AO2 T02330189
53988KBKB BKB20190914210510809/14/19 21:05:31  5-MIN KBKB 150305Z AUTO 00000KT 10SM CLR 24/18 A3005 180 71 1300 000/00 RMK AO2 T02390183
53988KBKB BKB20190914211010809/14/19 21:10:31  5-MIN KBKB 150310Z AUTO 00000KT 10SM CLR 24/18 A3005 180 71 1300 000/00 RMK AO2 T02390183
53988KBKB BKB20190914211510809/14/19 21:15:31  5-MIN KBKB 150315Z AUTO 00000KT 10SM CLR 24/18 A3005 180 71 1300 000/00 RMK AO2 T02390183
53988KBKB BKB20190914212010809/14/19 21:20:31  5-MIN KBKB 150320Z AUTO 00000KT 10SM CLR 24/18 A3005 170 71 1300 000/00 RMK AO2 T02390183
53988KBKB BKB20190914212513609/14/19 21:25:31  5-MIN KBKB 150325Z AUTO 00000KT 10SM CLR 24/19 A3005 170 KT 10SM CLR 22/18 A3006 170 75 1100 000/00 RMK AO2 T02220178
53988KBKB BKB20190914231510809/14/19 23:15:31  5-MIN KBKB 150515Z AUTO 00000KT 10SM CLR 22/18 A3007 160 75 1100 000/00 RMK AO2 T02220178
53988KBKB BKB20190914232010809/14/19 23:20:31  5-MIN KBKB 150520Z AUTO 00000KT 10SM CLR 22/18 A3006 170 75 1100 000/00 RMK AO2 T02220178
53988KBKB BKB20190914232510809/14/19 23:25:31  5-MIN KBKB 150525Z AUTO 00000KT 10SM CLR 22/18 A3006 170 78 1100 000/00 RMK AO2 T02220183
53988KBKB BKB20190914233010809/14/19 23:30:31  5-MIN KBKB 150530Z AUTO 00000KT 10SM CLR 22/18 A3007 160 78 1100 000/00 RMK AO2 T02220183
53988KBKB BKB20190914233017009/14/19 23:30:31  5-MIN KBKB 150530Z AUTO 00000KT 10SM CLR 22/18 A3007 160 78 1100 000/00 RMK AO2 T02TO 00000KT 10SM CLR 22/18 A3006 160 75 1100 000/00 RMK AO2 T02220178
53988KBKB BKB20190914233510809/14/19 23:35:31  5-MIN KBKB 150535Z AUTO 00000KT 10SM CLR 22/19 A3007 160 84 1000 000/00 RMK AO2 T02170189
53988KBKB BKB20190914234010809/14/19 23:40:31  5-MIN KBKB 150540Z AUTO 00000KT 10SM CLR 22/19 A3007 160 84 1000 000/00 RMK AO2 T02170189
53988KBKB BKB20190914234017009/14/19 23:40:31  5-MIN KBKB 150540Z AUTO 00000KT 10SM CLR 22/19 A3007 160 84 1000 000/00 RMK AO0Z AUTO 00000KT 10SM CLR 22/18 A3006 170 75 1100 000/00 RMK AO2 T02220178
53988KBKB BKB20190914234510809/14/19 23:45:31  5-MIN KBKB 150545Z AUTO 00000KT 10SM CLR 22/18 A3007 160 78 1100 000/00 RMK AO2 T02220183
53988KBKB BKB20190914235010709/14/19 23:50:31  5-MIN KBKB 150550Z AUTO 00000KT 10SM CLR 22/18 A3006 170 90 900 000/00 RMK AO2 T02060189
53988KBKB BKB20190914235017009/14/19 23:50:31  5-MIN KBKB 150550Z AUTO 00000KT 10SM CLR 22/18 A3006 170 81 1000 000/00  150530Z AUTO 00000KT 10SM CLR 22/18 A3007 160 78 1100 000/00 RMK AO2 T02220183
53988KBKB BKB20190915024010709/15/19 02:40:31  5-MIN KBKB 150840Z AUTO 00000KT 10SM CLR 21/19 A3004 180 90 900 000/00 RMK AO2 T02060189
53988KBKB BKB20190915024510709/15/19 02:45:31  5-MIN KBKB 150845Z AUTO 00000KT 10SM CLR 21/19 A3004 190 90 900 000/00 RMK AO2 T02060189
53988KBKB BKB20190915025012009/15/19 02:50:31  5-MIN KBKB 150850Z AUTO 00000KT 10SM CLR 21/19 A3004 190 90 900 000/00 RMK AO2 SLP197 T02060189 50007
53988KBKB BKB20190915025510709/15/19 02:55:31  5-MIN KBKB 150855Z AUTO 00000KT 10SM CLR 21/19 A3004 190 90 900 000/00 RMK AO2 T02060189
53988KBKB BKB20190915030005309/15/19 03:00:31  5-MIN KBKB 150900ZMK AO2 T02060189
53988KBKB BKB20190915030010709/15/19 03:00:31  5-MIN KBKB 150900Z AUTO 00000KT 10SM CLR 21/19 A3004 190 90 900 000/00 RMK AO2 T02060189
53988KBKB BKB20190915030510709/15/19 03:05:31  5-MIN KBKB 150905Z AUTO 00000KT 10SM CLR 21/19 A3004 190 90 900 000/00 RMK AO2 T02060189
53988KBKB BKB20190915031010709/15/19 03:10:31  5-MIN KBKB 150910Z AUTO 00000KT 10SM CLR 21/19 A3004 180 90 900 000/00 RMK AO2 T02060189
53988KBKB BKB20190915031519709/15/19 03:15:31  5-MIN KBKB 150915Z AUTO 00000KT 10SM CLR 21/19 A3005 180 90 900 000/00 RMK AO2 T0206018909/15/19 03:20:31  5-M A3004 190 90 900 000/00 RMK AO2 T02060189T 000/00 RMK AO2 T02060189
53988KBKB BKB20190915041010709/15/19 04:10:31  5-MIN KBKB 151010Z AUTO 00000KT 10SM CLR 21/19 A3004 180 90 900 000/00 RMK AO2 T02060189
53988KBKB BKB20190915041510709/15/19 04:15:31  5-MIN KBKB 151015Z AUTO 00000KT 10SM CLR 21/19 A3004 180 90 900 000/00 RMK AO2 T02060189
53988KBKB BKB20190915042010709/15/19 04:20:31  5-MIN KBKB 151020Z AUTO 00000KT 10SM CLR 21/19 A3004 180 90 900 000/00 RMK AO2 T02060189
53988KBKB BKB20190915042508509/15/19 04:25:31  5-MIN KBKB 151025Z AUTO 00000KISTING COMPLETE, 144 5MIN(S) LISTED.
53988KBKB BKB20190915144511809/15/19 14:45:31  5-MIN KBKB 152045Z AUTO VRB06KT 10SM FEW060 FEW075 36/19 A2995 270 38 2700 VRB/06 RMK AO2 T03560194
53988KBKB BKB20190915145012409/15/19 14:50:31  5-MIN KBKB 152050Z AUTO VRB05KT 10SM FEW065 36/19 A2995 270 38 2700 VRB/05 RMK AO2 SLP166 T03560194 58010
53988KBKB BKB20190915145511109/15/19 14:55:31  5-MIN KBKB 152055Z AUTO VRB06KT 10SM FEW065 36/19 A2995 270 37 2700 VRB/06 RMK AO2 T03560189
53988KBKB BKB20190915150011109/15/19 15:00:31  5-MIN KBKB 152100Z AUTO VRB04KT 10SM FEW060 35/19 A2995 270 39 2600 VRB/04 RMK AO2 T03500194
53988KBKB BKB20190915150511109/15/19 15:05:31  5-MIN KBKB 152105Z AUTO VRB05KT 10SM FEW060 36/20 A2995 280 39 2700 VRB/05 RMK AO2 T03560200
53988KBKB BKB20190915151011109/15/19 15:10:31  5-MIN KBKB 152110Z AUTO VRB04KT 10SM FEW065 34/20 A2995 270 43 2500 VRB/04 RMK AO2 T03390200
53988KBKB BKB20190915151511109/15/19 15:15:31  5-MIN KBKB 152115Z AUTO VRB04KT 10SM SCT060 35/20 A2994 280 40 2700 VRB/04 RMK AO2 T03500200
53988KBKB BKB20190915152011109/15/19 15:20:31  5-MIN KBKB 152120Z AUTO VRB03KT 10SM SCT060 36/20 A2994 280 39 2700 VRB/03 RMK AO2 T03560200
53988KBKB BKB20190915152511109/15/19 15:25:31  5-MIN KBKB 152125Z AUTO VRB05KT 10SM SCT060 35/19 A2994 280 39 2700 VRB/05 RMK AO2 T03500194
53988KBKB BKB20190915153011109/15/19 15:30:31  5-MIN KBKB 152130Z AUTO 00000KT 10SM FEW060 35/20 A2994 280 40 2700 000/00 RMK AO2 T03500200
53988KBKB BKB20190915153511109/15/19 15:35:31  5-MIN KBKB 152135Z AUTO VRB05KT 10SM FEW060 36/19 A2994 280 38 2700 VRB/05 RMK AO2 T03560194
53988KBKB BKB20190915154011109/15/19 15:40:31  5-MIN KBKB 152140Z AUTO VRB05KT 10SM FEW060 35/19 A2994 280 39 2700 VRB/05 RMK AO2 T03500194
53988KBKB BKB20190915154511109/15/19 15:45:31  5-MIN KBKB 152145Z AUTO VRB04KT 10SM FEW065 36/20 A2994 280 39 2700 VRB/04 RMK AO2 T03560200
53988KBKB BKB20190915155011809/15/19 15:50:31  5-MIN KBKB 152150Z AUTO VRB05KT 10SM FEW070 34/20 A2994 280 42 2600 VRB/05 RMK AO2 SLP164 T03440200
53988KBKB BKB20190915155511109/15/19 15:55:31  5-MIN KBKB 152155Z AUTO VRB04KT 10SM FEW070 34/19 A2994 280 40 2600 VRB/04 RMK AO2 T03440194
53988KBKB BKB20190915160010809/15/19 16:00:31  5-MIN KBKB 152200Z AUTO VRB05KT 10SM CLR 34/19 A2994 280 40 2600 VRB/05 RMK AO2 T03440194
53988KBKB BKB20190915160510809/15/19 16:05:31  5-MIN KBKB 152205Z AUTO VRB03KT 10SM CLR 35/19 A2994 280 39 2600 VRB/03 RMK AO2 T03500194
53988KBKB BKB20190915161010809/15/19 16:10:31  5-MIN KBKB 152210Z AUTO VRB04KT 10SM CLR 35/19 A2994 280 39 2600 VRB/04 RMK AO2 T03500194
53988KBKB BKB20190915161510809/15/19 16:15:31  5-MIN KBKB 152215Z AUTO VRB05KT 10SM CLR 34/19 A2994 280 39 2600 VRB/05 RMK AO2 T03440189
53988KBKB BKB20190915162010809/15/19 16:20:31  5-MIN KBKB 152220Z AUTO 00000KT 10SM CLR 34/19 A2994 280 40 2600 000/00 RMK AO2 T03440194
53988KBKB BKB20190915162509809/15/19 16:25:31  5-MIN KBKB 152225Z AUTO 10SM CLR 34/19 A2995 270 40 2600 M /M RMK AO2 T03440194
53988KBKB BKB20190915163010809/15/19 16:30:31  5-MIN KBKB 152230Z AUTO VRB04KT 10SM CLR 34/19 A2995 270 40 2600 VRB/04 RMK AO2 T03440194
53988KBKB BKB20190915163510809/15/19 16:35:31  5-MIN KBKB 152235Z AUTO VRB04KT 10SM CLR 34/19 A2995 270 40 2600 VRB/04 RMK AO2 T03440194
53988KBKB BKB20190915164010809/15/19 16:40:31  5-MIN KBKB 152240Z AUTO VRB03KT 10SM CLR 34/19 A2995 270 40 2600 VRB/03 RMK AO2 T03440194
53988KBKB BKB20190915164511109/15/19 16:45:31  5-MIN KBKB 152245Z AUTO VRB04KT 10SM FEW070 34/19 A2995 270 40 2600 VRB/04 RMK AO2 T03440194
53988KBKB BKB20190915165012509/15/19 16:50:31  5-MIN KBKB 152250Z AUTO VRB03KT 10SM FEW060 FEW075 34/19 A2995 270 40 2600 VRB/03 RMK AO2 SLP166 T03440194
53988KBKB BKB20190915165511109/15/19 16:55:31  5-MIN KBKB 152255Z AUTO VRB03KT 10SM FEW060 34/20 A2995 270 42 2600 VRB/03 RMK AO2 T03440200
53988KBKB BKB20190915170011109/15/19 17:00:31  5-MIN KBKB 152300Z AUTO VRB03KT 10SM FEW070 34/19 A2995 270 42 2500 VRB/03 RMK AO2 T03390194
53988KBKB BKB20190915170511109/15/19 17:05:31  5-MIN KBKB 152305Z AUTO 00000KT 10SM FEW070 34/19 A2995 270 42 2500 000/00 RMK AO2 T03390194
53988KBKB BKB20190915171010809/15/19 17:10:31  5-MIN KBKB 152310Z AUTO 10SM FEW070 SCT090 34/19 A2995 270 42 2500 M /M RMK AO2 T03390194
53988KBKB BKB20190915171511809/15/19 17:15:31  5-MIN KBKB 152315Z AUTO VRB04KT 10SM SCT065 SCT090 33/19 A2995 270 43 2500 VRB/04 RMK AO2 T03330194
53988KBKB BKB20190915172011109/15/19 17:20:31  5-MIN KBKB 152320Z AUTO VRB03KT 10SM FEW065 33/19 A2995 270 43 2500 VRB/03 RMK AO2 T03330194
53988KBKB BKB20190915172511109/15/19 17:25:31  5-MIN KBKB 152325Z AUTO VRB03KT 10SM FEW065 33/19 A2995 270 43 2500 VRB/03 RMK AO2 T03330194
53988KBKB BKB20190915173011109/15/19 17:30:31  5-MIN KBKB 152330Z AUTO VRB03KT 10SM SCT070 33/20 A2995 270 46 2400 VRB/03 RMK AO2 T03280200
53988KBKB BKB20190915173511109/15/19 17:35:31  5-MIN KBKB 152335Z AUTO 00000KT 10SM FEW070 33/20 A2995 270 46 2400 000/00 RMK AO2 T03280200
53988KBKB BKB20190915174011109/15/19 17:40:31  5-MIN KBKB 152340Z AUTO 00000KT 10SM FEW070 32/20 A2995 270 48 2300 000/00 RMK AO2 T03220200
53988KBKB BKB20190915174512509/15/19 17:45:31  5-MIN KBKB 152345Z AUTO 00000KT 10SM FEW070 FEW080 SCT100 32/20 A2995 270 48 2300 000/00 RMK AO2 T03220200
53988KBKB BKB20190915175015009/15/19 17:50:31  5-MIN KBKB 152350Z AUTO 00000KT 10SM FEW070 SCT080 SCT110 32/20 A2996 270 48 2300 000/00 RMK AO2 SLP169 T03220200 10361 20322 56023
53988KBKB BKB20190915175511809/15/19 17:55:31  5-MIN KBKB 152355Z AUTO 00000KT 10SM SCT065 SCT080 32/21 A2995 270 49 2300 000/00 RMK AO2 T03220206
53988KBKB BKB20190915180012509/15/19 18:00:31  5-MIN KBKB 160000Z AUTO 00000KT 10SM SCT065 BKN080 BKN100 32/21 A2996 270 51 2300 000/00 RMK AO2 T03170206
53988KBKB BKB20190915180512509/15/19 18:05:31  5-MIN KBKB 160005Z AUTO 00000KT 10SM SCT065 BKN080 BKN100 31/21 A2996 270 53 2200 000/00 RMK AO2 T03110206
53988KBKB BKB20190915181011809/15/19 18:10:31  5-MIN KBKB 160010Z AUTO 00000KT 10SM SCT065 BKN080 31/21 A2995 270 56 2100 000/00 RMK AO2 T03060211
53988KBKB BKB20190915181511809/15/19 18:15:31  5-MIN KBKB 160015Z AUTO 00000KT 10SM SCT065 SCT080 30/21 A2995 270 56 2100 000/00 RMK AO2 T03000206
53988KBKB BKB20190915182011109/15/19 18:20:31  5-MIN KBKB 160020Z AUTO 00000KT 10SM FEW065 29/21 A2995 270 58 2000 000/00 RMK AO2 T02940206
53988KBKB BKB20190915182511109/15/19 18:25:31  5-MIN KBKB 160025Z AUTO 00000KT 10SM FEW060 29/21 A2995 270 58 2000 000/00 RMK AO2 T02940206
53988KBKB BKB20190915183010809/15/19 18:30:31  5-MIN KBKB 160030Z AUTO 00000KT 10SM CLR 29/21 A2995 270 60 2000 000/00 RMK AO2 T02890206
53988KBKB BKB20190915183510809/15/19 18:35:31  5-MIN KBKB 160035Z AUTO 00000KT 10SM CLR 28/21 A2995 270 62 1900 000/00 RMK AO2 T02830206
53988KBKB BKB20190915184010809/15/19 18:40:31  5-MIN KBKB 160040Z AUTO 00000KT 10SM CLR 28/21 A2995 270 62 1900 000/00 RMK AO2 T02830206
53988KBKB BKB20190915184510809/15/19 18:45:31  5-MIN KBKB 160045Z AUTO 00000KT 10SM CLR 28/21 A2995 270 64 1800 000/00 RMK AO2 T02780206
53988KBKB BKB20190915185011509/15/19 18:50:31  5-MIN KBKB 160050Z AUTO 00000KT 10SM CLR 28/21 A2995 270 64 1800 000/00 RMK AO2 SLP168 T02780206
53988KBKB BKB20190915185510809/15/19 18:55:31  5-MIN KBKB 160055Z AUTO 00000KT 10SM CLR 28/21 A2996 270 64 1800 000/00 RMK AO2 T02780206
53988KBKB BKB20190915190010809/15/19 19:00:31  5-MIN KBKB 160100Z AUTO 00000KT 10SM CLR 27/21 A2996 260 66 1800 000/00 RMK AO2 T02720206
53988KBKB BKB20190915190510809/15/19 19:05:31  5-MIN KBKB 160105Z AUTO 00000KT 10SM CLR 27/21 A2996 260 66 1800 000/00 RMK AO2 T02720206
53988KBKB BKB20190915191010809/15/19 19:10:31  5-MIN KBKB 160110Z AUTO 00000KT 10SM CLR 27/21 A2996 260 66 1800 000/00 RMK AO2 T02720206
53988KBKB BKB20190915191510809/15/19 19:15:31  5-MIN KBKB 160115Z AUTO 00000KT 10SM CLR 27/21 A2996 260 69 1700 000/00 RMK AO2 T02670206
53988KBKB BKB20190915192010809/15/19 19:20:31  5-MIN KBKB 160120Z AUTO 00000KT 10SM CLR 27/21 A2996 260 69 1700 000/00 RMK AO2 T02670206
53988KBKB BKB20190915192510809/15/19 19:25:31  5-MIN KBKB 160125Z AUTO 00000KT 10SM CLR 27/21 A2996 260 69 1700 000/00 RMK AO2 T02670206
53988KBKB BKB20190915193010809/15/19 19:30:31  5-MIN KBKB 160130Z AUTO 00000KT 10SM CLR 26/21 A2996 260 71 1600 000/00 RMK AO2 T02610206
53988KBKB BKB20190915193510809/15/19 19:35:31  5-MIN KBKB 160135Z AUTO 00000KT 10SM CLR 26/21 A2997 250 73 1600 000/00 RMK AO2 T02560206
53988KBKB BKB20190915194010809/15/19 19:40:31  5-MIN KBKB 160140Z AUTO 00000KT 10SM CLR 26/21 A2997 250 73 1600 000/00 RMK AO2 T02560206
53988KBKB BKB20190915194510809/15/19 19:45:31  5-MIN KBKB 160145Z AUTO 00000KT 10SM CLR 26/21 A2997 250 71 1600 000/00 RMK AO2 T02610206
53988KBKB BKB20190915195011509/15/19 19:50:31  5-MIN KBKB 160150Z AUTO 00000KT 10SM CLR 26/21 A2997 250 71 1600 000/00 RMK AO2 SLP174 T02610206
53988KBKB BKB20190915195510809/15/19 19:55:31  5-MIN KBKB 160155Z AUTO 00000KT 10SM CLR 26/21 A2998 250 73 1600 000/00 RMK AO2 T02560206
53988KBKB BKB20190915200010809/15/19 20:00:31  5-MIN KBKB 160200Z AUTO 00000KT 10SM CLR 26/21 A2998 240 73 1600 000/00 RMK AO2 T02560206
53988KBKB BKB20190915200510809/15/19 20:05:31  5-MIN KBKB 160205Z AUTO 00000KT 10SM CLR 26/21 A2998 240 73 1600 000/00 RMK AO2 T02560206
53988KBKB BKB20190915201010809/15/19 20:10:31  5-MIN KBKB 160210Z AUTO 00000KT 10SM CLR 26/21 A2998 240 73 1600 000/00 RMK AO2 T02560206
53988KBKB BKB20190915201510809/15/19 20:15:31  5-MIN KBKB 160215Z AUTO 00000KT 10SM CLR 26/21 A2998 240 73 1600 000/00 RMK AO2 T02560206
53988KBKB BKB20190915202010809/15/19 20:20:31  5-MIN KBKB 160220Z AUTO 00000KT 10SM CLR 26/21 A2998 240 73 1600 000/00 RMK AO2 T02560206
53988KBKB BKB20190915202510809/15/19 20:25:31  5-MIN KBKB 160225Z AUTO 00000KT 10SM CLR 26/21 A2998 240 73 1600 000/00 RMK AO2 T02560206
53988KBKB BKB20190915203010809/15/19 20:30:31  5-MIN KBKB 160230Z AUTO 00000KT 10SM CLR 25/21 A2999 240 76 1500 000/00 RMK AO2 T02500206
53988KBKB BKB20190915203510809/15/19 20:35:31  5-MIN KBKB 160235Z AUTO 00000KT 10SM CLR 25/21 A2999 240 79 1500 000/00 RMK AO2 T02500211
53988KBKB BKB20190915204010809/15/19 20:40:31  5-MIN KBKB 160240Z AUTO 00000KT 10SM CLR 25/21 A2999 230 79 1500 000/00 RMK AO2 T02500211
53988KBKB BKB20190915204510809/15/19 20:45:31  5-MIN KBKB 160245Z AUTO 00000KT 10SM CLR 25/21 A2999 230 79 1500 000/00 RMK AO2 T02500211
53988KBKB BKB20190915205012109/15/19 20:50:31  5-MIN KBKB 160250Z AUTO 00000KT 10SM CLR 25/21 A2999 230 79 1500 000/00 RMK AO2 SLP181 T02500211 53002
53988KBKB BKB20190915205510809/15/19 20:55:31  5-MIN KBKB 160255Z AUTO 00000KT 10SM CLR 25/21 A2999 230 79 1500 000/00 RMK AO2 T02500211
53988KBKB BKB20190915210010809/15/19 21:00:31  5-MIN KBKB 160300Z AUTO 08003KT 10SM CLR 26/21 A2999 230 76 1500 080/03 RMK AO2 T02560211
53988KBKB BKB20190915210510809/15/19 21:05:31  5-MIN KBKB 160305Z AUTO 00000KT 10SM CLR 26/21 A2999 230 73 1600 000/00 RMK AO2 T02610211
53988KBKB BKB20190915211010809/15/19 21:10:31  5-MIN KBKB 160310Z AUTO 00000KT 10SM CLR 26/21 A2999 230 76 1500 000/00 RMK AO2 T02560211
53988KBKB BKB20190915211510809/15/19 21:15:31  5-MIN KBKB 160315Z AUTO 00000KT 10SM CLR 26/21 A2999 230 76 1500 000/00 RMK AO2 T02560211
53988KBKB BKB20190915212010809/15/19 21:20:31  5-MIN KBKB 160320Z AUTO 00000KT 10SM CLR 26/21 A2999 230 76 1500 000/00 RMK AO2 T02560211
53988KBKB BKB20190915212510809/15/19 21:25:31  5-MIN KBKB 160325Z AUTO 00000KT 10SM CLR 26/21 A2999 230 76 1500 000/00 RMK AO2 T02560211
53988KBKB BKB20190915213010809/15/19 21:30:31  5-MIN KBKB 160330Z AUTO 00000KT 10SM CLR 26/21 A2999 230 76 1500 000/00 RMK AO2 T02560211
53988KBKB BKB20190915213510809/15/19 21:35:31  5-MIN KBKB 160335Z AUTO 00000KT 10SM CLR 26/21 A2999 230 76 1500 000/00 RMK AO2 T02560211
53988KBKB BKB20190915214010809/15/19 21:40:31  5-MIN KBKB 160340Z AUTO 00000KT 10SM CLR 25/21 A3000 230 79 1500 000/00 RMK AO2 T02500211
53988KBKB BKB20190915214510809/15/19 21:45:31  5-MIN KBKB 160345Z AUTO 00000KT 10SM CLR 25/21 A3000 230 79 1500 000/00 RMK AO2 T02500211
53988KBKB BKB20190915215011509/15/19 21:50:31  5-MIN KBKB 160350Z AUTO 00000KT 10SM CLR 25/21 A3000 230 79 1500 000/00 RMK AO2 SLP181 T02500211
53988KBKB BKB20190915215510809/15/19 21:55:31  5-MIN KBKB 160355Z AUTO 00000KT 10SM CLR 25/21 A3000 230 79 1500 000/00 RMK AO2 T02500211
53988KBKB BKB20190915220010809/15/19 22:00:31  5-MIN KBKB 160400Z AUTO 00000KT 10SM CLR 25/21 A3000 230 79 1500 000/00 RMK AO2 T02500211
53988KBKB BKB20190915220510809/15/19 22:05:31  5-MIN KBKB 160405Z AUTO 00000KT 10SM CLR 25/21 A3000 230 76 1500 000/00 RMK AO2 T02500206
53988KBKB BKB20190915221010809/15/19 22:10:31  5-MIN KBKB 160410Z AUTO 00000KT 10SM CLR 25/21 A3000 230 79 1500 000/00 RMK AO2 T02500211
53988KBKB BKB20190915221510809/15/19 22:15:31  5-MIN KBKB 160415Z AUTO 00000KT 10SM CLR 25/21 A3000 230 79 1500 000/00 RMK AO2 T02500211
53988KBKB BKB20190915222010809/15/19 22:20:31  5-MIN KBKB 160420Z AUTO 00000KT 10SM CLR 24/21 A2999 230 81 1400 000/00 RMK AO2 T02440211
53988KBKB BKB20190915222510809/15/19 22:25:31  5-MIN KBKB 160425Z AUTO 00000KT 10SM CLR 24/21 A2999 230 81 1400 000/00 RMK AO2 T02440211
53988KBKB BKB20190915223010809/15/19 22:30:31  5-MIN KBKB 160430Z AUTO 00000KT 10SM CLR 24/21 A2999 230 81 1400 000/00 RMK AO2 T02440211
53988KBKB BKB20190915223510809/15/19 22:35:31  5-MIN KBKB 160435Z AUTO 00000KT 10SM CLR 25/21 A3000 230 79 1500 000/00 RMK AO2 T02500211
53988KBKB BKB20190915224010809/15/19 22:40:31  5-MIN KBKB 160440Z AUTO 00000KT 10SM CLR 24/21 A2999 230 81 1400 000/00 RMK AO2 T02440211
53988KBKB BKB20190915224510809/15/19 22:45:31  5-MIN KBKB 160445Z AUTO 00000KT 10SM CLR 24/21 A3000 230 81 1400 000/00 RMK AO2 T02440211
53988KBKB BKB20190915225011509/15/19 22:50:31  5-MIN KBKB 160450Z AUTO 00000KT 10SM CLR 24/21 A3000 230 81 1400 000/00 RMK AO2 SLP181 T02440211
53988KBKB BKB20190915225507809/15/19 22:55:31  5-MIN KBKB 160455Z AUTO 00 90 1100 000/00 RMK AO2 T02170200
53988KBKB BKB20190915225510809/15/19 22:55:31  5-MIN KBKB 160455Z AUTO 00000KT 10SM CLR 24/21 A3000 230 81 1400 000/00 RMK AO2 T02440211
53988KBKB BKB20190915230010809/15/19 23:00:31  5-MIN KBKB 160500Z AUTO 00000KT 10SM CLR 25/21 A3000 230 76 1500 000/00 RMK AO2 T02500206
53988KBKB BKB20190915230510809/15/19 23:05:31  5-MIN KBKB 160505Z AUTO 00000KT 10SM CLR 24/21 A3000 230 78 1400 000/00 RMK AO2 T02440206
53988KBKB BKB20190915231010809/15/19 23:10:31  5-MIN KBKB 160510Z AUTO 00000KT 10SM CLR 24/21 A3000 230 78 1400 000/00 RMK AO2 T02440206
53988KBKB BKB20190915231510809/15/19 23:15:31  5-MIN KBKB 160515Z AUTO 00000KT 10SM CLR 24/21 A3000 230 78 1400 000/00 RMK AO2 T02440206
53988KBKB BKB20190915232010809/15/19 23:20:31  5-MIN KBKB 160520Z AUTO 00000KT 10SM CLR 24/21 A3000 230 78 1400 000/00 RMK AO2 T02440206
53988KBKB BKB20190915232510809/15/19 23:25:31  5-MIN KBKB 160525Z AUTO 00000KT 10SM CLR 24/21 A2999 230 78 1400 000/00 RMK AO2 T02440206
53988KBKB BKB20190915233010809/15/19 23:30:31  5-MIN KBKB 160530Z AUTO 00000KT 10SM CLR 24/21 A3000 230 81 1400 000/00 RMK AO2 T02390206
53988KBKB BKB20190915233510809/15/19 23:35:31  5-MIN KBKB 160535Z AUTO 00000KT 10SM CLR 24/21 A3000 230 81 1400 000/00 RMK AO2 T02390206
53988KBKB BKB20190915234010809/15/19 23:40:31  5-MIN KBKB 160540Z AUTO 00000KT 10SM CLR 24/21 A3000 230 78 1400 000/00 RMK AO2 T02440206
53988KBKB BKB20190915234510809/15/19 23:45:31  5-MIN KBKB 160545Z AUTO 00000KT 10SM CLR 24/21 A3000 230 84 1400 000/00 RMK AO2 T02390211
53988KBKB BKB20190915235014309/15/19 23:50:31  5-MIN KBKB 160550Z AUTO 00000KT 10SM CLR 24/21 A3000 230 84 1400 000/00 RMK AO2 SLP182 T02390211 10322 20239 403610200 53013
53988KBKB BKB20190915235510809/15/19 23:55:31  5-MIN KBKB 160555Z AUTO 00000KT 10SM CLR 24/21 A3000 230 81 1400 000/00 RMK AO2 T02390206
53988KBKB BKB20190916000010809/16/19 00:00:31  5-MIN KBKB 160600Z AUTO 00000KT 10SM CLR 24/21 A3000 230 81 1400 000/00 RMK AO2 T02390206
53988KBKB BKB20190916000510809/16/19 00:05:31  5-MIN KBKB 160605Z AUTO 00000KT 10SM CLR 24/21 A3000 230 84 1400 000/00 RMK AO2 T02390211
53988KBKB BKB20190916001010809/16/19 00:10:31  5-MIN KBKB 160610Z AUTO 00000KT 10SM CLR 24/21 A3000 230 84 1400 000/00 RMK AO2 T02390211
53988KBKB BKB20190916001510809/16/19 00:15:31  5-MIN KBKB 160615Z AUTO 00000KT 10SM CLR 24/21 A3000 230 84 1400 000/00 RMK AO2 T02390211
53988KBKB BKB20190916002010809/16/19 00:20:31  5-MIN KBKB 160620Z AUTO 00000KT 10SM CLR 24/21 A3000 230 84 1400 000/00 RMK AO2 T02390211
53988KBKB BKB20190916002510809/16/19 00:25:31  5-MIN KBKB 160625Z AUTO 00000KT 10SM CLR 24/21 A3000 230 84 1400 000/00 RMK AO2 T02390211
53988KBKB BKB20190916003010809/16/19 00:30:31  5-MIN KBKB 160630Z AUTO 00000KT 10SM CLR 24/21 A3000 230 84 1400 000/00 RMK AO2 T02390211
53988KBKB BKB20190916003510809/16/19 00:35:31  5-MIN KBKB 160635Z AUTO 00000KT 10SM CLR 23/21 A3000 230 87 1300 000/00 RMK AO2 T02330211
53988KBKB BKB20190916004010809/16/19 00:40:31  5-MIN KBKB 160640Z AUTO 00000KT 10SM CLR 23/21 A3000 230 87 1300 000/00 RMK AO2 T02330211
53988KBKB BKB20190916004510809/16/19 00:45:31  5-MIN KBKB 160645Z AUTO 00000KT 10SM CLR 23/21 A3000 220 87 1300 000/00 RMK AO2 T02330211
53988KBKB BKB20190916005011509/16/19 00:50:31  5-MIN KBKB 160650Z AUTO 00000KT 10SM CLR 23/21 A3000 220 87 1300 000/00 RMK AO2 SLP183 T02330211
53988KBKB BKB20190916005510809/16/19 00:55:31  5-MIN KBKB 160655Z AUTO 00000KT 10SM CLR 23/21 A3000 220 87 1300 000/00 RMK AO2 T02330211
53988KBKB BKB20190916010010809/16/19 01:00:31  5-MIN KBKB 160700Z AUTO 00000KT 10SM CLR 23/21 A3000 220 87 1300 000/00 RMK AO2 T02330211
53988KBKB BKB20190916010510809/16/19 01:05:31  5-MIN KBKB 160705Z AUTO 00000KT 10SM CLR 23/21 A3000 230 87 1300 000/00 RMK AO2 T02330211
53988KBKB BKB20190916011010809/16/19 01:10:31  5-MIN KBKB 160710Z AUTO 00000KT 10SM CLR 23/21 A3000 230 87 1300 000/00 RMK AO2 T02330211
53988KBKB BKB20190916011510809/16/19 01:15:31  5-MIN KBKB 160715Z AUTO 00000KT 10SM CLR 23/21 A3000 220 90 1200 000/00 RMK AO2 T02280211
53988KBKB BKB20190916012010809/16/19 01:20:31  5-MIN KBKB 160720Z AUTO 00000KT 10SM CLR 23/21 A3000 220 90 1200 000/00 RMK AO2 T02280211
53988KBKB BKB20190916012510809/16/19 01:25:31  5-MIN KBKB 160725Z AUTO 00000KT 10SM CLR 23/21 A3000 230 90 1200 000/00 RMK AO2 T02280211
53988KBKB BKB20190916013010809/16/19 01:30:31  5-MIN KBKB 160730Z AUTO 00000KT 10SM CLR 23/21 A3000 230 90 1200 000/00 RMK AO2 T02280211
53988KBKB BKB20190916013510809/16/19 01:35:31  5-MIN KBKB 160735Z AUTO 00000KT 10SM CLR 23/21 A3000 230 90 1200 000/00 RMK AO2 T02280211
53988KBKB BKB20190916014010009/16/19 01:40:31  5-MIN KBKB 160740Z AUTO 00000KT 10SM CLR 23/21 A3000 230 000/00 RMK AO2 T02220206
53988KBKB BKB20190916022010809/16/19 02:20:31  5-MIN KBKB 160820Z AUTO 00000KT 10SM CLR 22/21 A3000 230 90 1200 000/00 RMK AO2 T02220206
53988KBKB BKB20190916022510809/16/19 02:25:31  5-MIN KBKB 160825Z AUTO 00000KT 10SM CLR 22/21 A2999 230 90 1200 000/00 RMK AO2 T02220206
53988KBKB BKB20190916023010809/16/19 02:30:31  5-MIN KBKB 160830Z AUTO 00000KT 10SM CLR 22/21 A2999 230 90 1200 000/00 RMK AO2 T02220206
53988KBKB BKB20190916023510809/16/19 02:35:31  5-MIN KBKB 160835Z AUTO 00000KT 10SM CLR 22/21 A2999 230 93 1100 000/00 RMK AO2 T02170206
53988KBKB BKB20190916023516809/16/19 02:35:31  5-MIN KBKB 160835Z AUTO 00000KT 10SM CLR 22/21 A2999 230 93 1100 000/00 RMK AO2 T0217020609/10SM CLR 22/21 A3000 230 90 1200 000/00 RMK AO2 T02220206
53988KBKB BKB20190916024010809/16/19 02:40:31  5-MIN KBKB 160840Z AUTO 00000KT 10SM CLR 22/20 A2999 230 90 1100 000/00 RMK AO2 T02170200
53988KBKB BKB20190916024510809/16/19 02:45:31  5-MIN KBKB 160845Z AUTO 00000KT 10SM CLR 22/21 A2999 230 90 1200 000/00 RMK AO2 T02220206
53988KBKB BKB20190916024516809/16/19 02:45:31  5-MIN KBKB 160845Z AUTO 00000KT 10SM CLR 22/21 A2999 230 90 1200 000/00 RMK AO2 T0222020609/16/19 02:50:21 A2999 230 90 1200 000/00 RMK AO2 T02220206
53988KBKB BKB20190916025012109/16/19 02:50:31  5-MIN KBKB 160850Z AUTO 00000KT 10SM CLR 22/20 A2999 230 90 1100 000/00 RMK AO2 SLP180 T02170200 51002
53988KBKB BKB20190916025510809/16/19 02:55:31  5-MIN KBKB 160855Z AUTO 00000KT 10SM CLR 22/20 A2999 230 90 1100 000/00 RMK AO2 T02170200
53988KBKB BKB20190916030010809/16/19 03:00:31  5-MIN KBKB 160900Z AUTO 00000KT 10SM CLR 22/21 A2999 230 93 1100 000/00 RMK AO2 T02170206
53988KBKB BKB20190916030510809/16/19 03:05:31  5-MIN KBKB 160905Z AUTO 00000KT 10SM CLR 22/21 A2999 230 93 1100 000/00 RMK AO2 T02170206
53988KBKB BKB20190916031010809/16/19 03:10:31  5-MIN KBKB 160910Z AUTO 00000KT 10SM CLR 22/21 A2999 230 93 1100 000/00 RMK AO2 T02170206
53988KBKB BKB20190916031510809/16/19 03:15:31  5-MIN KBKB 160915Z AUTO 00000KT 10SM CLR 22/21 A2999 230 93 1100 000/00 RMK AO2 T02170206
53988KBKB BKB20190916032010809/16/19 03:20:31  5-MIN KBKB 160920Z AUTO 00000KT 10SM CLR 22/21 A2999 230 93 1100 000/00 RMK AO2 T02170206
53988KBKB BKB20190916032510809/16/19 03:25:31  5-MIN KBKB 160925Z AUTO 00000KT 10SM CLR 22/20 A2999 230 90 1100 000/00 RMK AO2 T02170200
53988KBKB BKB20190916033010809/16/19 03:30:31  5-MIN KBKB 160930Z AUTO 00000KT 10SM CLR 22/20 A2999 230 90 1100 000/00 RMK AO2 T02170200
53988KBKB BKB20190916033510809/16/19 03:35:31  5-MIN KBKB 160935Z AUTO 00000KT 10SM CLR 22/20 A2999 230 90 1100 000/00 RMK AO2 T02170200
53988KBKB BKB20190916034010809/16/19 03:40:31  5-MIN KBKB 160940Z AUTO 00000KT 10SM CLR 22/20 A2999 230 90 1100 000/00 RMK AO2 T02170200
53988KBKB BKB20190916034510709/16/19 03:45:31  5-MIN KBKB 160945Z AUTO 00000KT 9SM CLR 21/20 A2999 230 93 1000 000/00 RMK AO2 T02110200
53988KBKB BKB20190916035011409/16/19 03:50:31  5-MIN KBKB 160950Z AUTO 00000KT 9SM CLR 21/20 A2999 230 93 1000 000/00 RMK AO2 SLP181 T02110200
53988KBKB BKB20190916035510709/16/19 03:55:31  5-MIN KBKB 160955Z AUTO 00000KT 9SM CLR 21/20 A2999 230 93 1000 000/00 RMK AO2 T02110200
53988KBKB BKB20190916040010709/16/19 04:00:31  5-MIN KBKB 161000Z AUTO 00000KT 9SM CLR 21/20 A2999 230 93 1000 000/00 RMK AO2 T02110200
53988KBKB BKB20190916040510709/16/19 04:05:31  5-MIN KBKB 161005Z AUTO 00000KT 9SM CLR 21/20 A2999 230 93 1000 000/00 RMK AO2 T02110200
53988KBKB BKB20190916041010709/16/19 04:10:31  5-MIN KBKB 161010Z AUTO 00000KT 8SM CLR 21/20 A3000 230 93 1000 000/00 RMK AO2 T02110200
53988KBKB BKB20190916041510709/16/19 04:15:31  5-MIN KBKB 161015Z AUTO 00000KT 8SM CLR 21/20 A3000 230 93 1000 000/00 RMK AO2 T02110200
53988KBKB BKB20190916042010709/16/19 04:20:31  5-MIN KBKB 161020Z AUTO 00000KT 8SM CLR 21/20 A3000 230 93 1000 000/00 RMK AO2 T02110200
53988KBKB BKB20190916042510709/16/19 04:25:31  5-MIN KBKB 161025Z AUTO 00000KT 8SM CLR 21/20 A3000 230 93 1000 000/00 RMK AO2 T02110200
53988KBKB BKB20190916043010709/16/19 04:30:31  5-MIN KBKB 161030Z AUTO 00000KT 7SM CLR 21/20 A3000 230 93 1000 000/00 RMK AO2 T02110200
53988KBKB BKB20190916043510709/16/19 04:35:31  5-MIN KBKB 161035Z AUTO 00000KT 7SM CLR 21/20 A3000 230 93 1000 000/00 RMK AO2 T02110200
53988KBKB BKB20190916044010709/16/19 04:40:31  5-MIN KBKB 161040Z AUTO 00000KT 7SM CLR 21/20 A3000 230 97 1000 000/00 RMK AO2 T02060200
53988KBKB BKB20190916213510809/16/19 21:35:31  5-MIN KBKB 170335Z AUTO 00000KT 10SM CLR 25/23 A2997 250 87 1500 000/00 RMK AO2 T02500228
53988KBKB BKB20190916214010809/16/19 21:40:31  5-MIN KBKB 170340Z AUTO VRB04KT 10SM CLR 24/23 A2997 250 90 1400 VRB/04 RMK AO2 T02440228
53988KBKB BKB20190916214510809/16/19 21:45:31  5-MIN KBKB 170345Z AUTO 00000KT 10SM CLR 25/23 A2997 250 87 1500 000/00 RMK AO2 T02500228
53988KBKB BKB20190916215011509/16/19 21:50:31  5-MIN KBKB 170350Z AUTO VRB03KT 10SM CLR 25/23 A2997 250 87 1500 VRB/03 RMK AO2 SLP172 T02500228
53988KBKB BKB20190916215510809/16/19 21:55:31  5-MIN KBKB 170355Z AUTO VRB03KT 10SM CLR 25/23 A2997 260 87 1500 VRB/03 RMK AO2 T02500228
53988KBKB BKB20190916220010809/16/19 22:00:31  5-MIN KBKB 170400Z AUTO 00000KT 10SM CLR 25/23 A2997 260 87 1500 000/00 RMK AO2 T02500228
53988KBKB BKB20190916220510809/16/19 22:05:31  5-MIN KBKB 170405Z AUTO VRB03KT 10SM CLR 25/23 A2997 260 87 1500 VRB/03 RMK AO2 T02500228
53988KBKB BKB20190916221010809/16/19 22:10:31  5-MIN KBKB 170410Z AUTO VRB03KT 10SM CLR 25/23 A2996 260 87 1500 VRB/03 RMK AO2 T02500228
53988KBKB BKB20190916221510809/16/19 22:15:31  5-MIN KBKB 170415Z AUTO 00000KT 10SM CLR 25/23 A2997 260 87 1500 000/00 RMK AO2 T02500228
53988KBKB BKB20190916222010809/16/19 22:20:31  5-MIN KBKB 170420Z AUTO VRB03KT 10SM CLR 25/23 A2997 260 87 1500 VRB/03 RMK AO2 T02500228
53988KBKB BKB20190916222510809/16/19 22:25:31  5-MIN KBKB 170425Z AUTO 13003KT 10SM CLR 25/23 A2996 260 87 1500 120/03 RMK AO2 T02500228
53988KBKB BKB20190916223010809/16/19 22:30:31  5-MIN KBKB 170430Z AUTO VRB03KT 10SM CLR 25/23 A2997 260 87 1500 VRB/03 RMK AO2 T02500228
53988KBKB BKB20190916223510809/16/19 22:35:31  5-MIN KBKB 170435Z AUTO 00000KT 10SM CLR 25/23 A2997 260 87 1500 000/00 RMK AO2 T02500228
53988KBKB BKB20190916224010809/16/19 22:40:31  5-MIN KBKB 170440Z AUTO 00000KT 10SM CLR 25/23 A2997 260 87 1500 000/00 RMK AO2 T02500228
53988KBKB BKB20190916224510809/16/19 22:45:31  5-MIN KBKB 170445Z AUTO 00000KT 10SM CLR 25/23 A2997 260 87 1500 000/00 RMK AO2 T02500228
53988KBKB BKB20190916225011509/16/19 22:50:31  5-MIN KBKB 170450Z AUTO 00000KT 10SM CLR 25/23 A2996 260 87 1500 000/00 RMK AO2 SLP170 T02500228
53988KBKB BKB20190916225510809/16/19 22:55:31  5-MIN KBKB 170455Z AUTO 00000KT 10SM CLR 24/23 A2996 260 90 1500 000/00 RMK AO2 T02440228
53988KBKB BKB20190916230010809/16/19 23:00:31  5-MIN KBKB 170500Z AUTO 00000KT 10SM CLR 24/23 A2996 260 90 1500 000/00 RMK AO2 T02440228
53988KBKB BKB20190916230515409/16/19 23:05:31  5-MIN KBKB 170505Z AUTO 00000KT 10SM CLR 24/23 A2996 260 90 1500 000/00 RMK AO2 SM CLR 24/23 A2996 270 90 1500 000/00 RMK AO2 T02440228
53988KBKB BKB20190916233510809/16/19 23:35:31  5-MIN KBKB 170535Z AUTO 00000KT 10SM CLR 24/23 A2996 270 90 1500 000/00 RMK AO2 T02440228
53988KBKB BKB20190916234010809/16/19 23:40:31  5-MIN KBKB 170540Z AUTO 00000KT 10SM CLR 24/23 A2995 270 90 1500 000/00 RMK AO2 T02440228
53988KBKB BKB20190916234514009/16/19 23:45:31  5-MIN KBKB 170545Z AUTO 00000KT 10SM CLR 24/23 A2995 270 90 1500 000/00 RMK AO2 T0244022897 1300 000/00 RMK AO2 T02280222
53988KBKB BKB20190917030511009/17/19 03:05:31  5-MIN KBKB 170905Z AUTO 00000KT 6SM BR CLR 23/22 A2994 280 97 1300 000/00 RMK AO2 T02280222
53988KBKB BKB20190917031011009/17/19 03:10:31  5-MIN KBKB 170910Z AUTO 00000KT 6SM BR CLR 23/22 A2994 280 97 1300 000/00 RMK AO2 T02280222
53988KBKB BKB20190917031510709/17/19 03:15:31  5-MIN KBKB 170915Z AUTO 00000KT 8SM CLR 23/22 A2994 280 97 1300 000/00 RMK AO2 T02280222
53988KBKB BKB20190917032010709/17/19 03:20:31  5-MIN KBKB 170920Z AUTO 00000KT 7SM CLR 23/22 A2994 280 97 1300 000/00 RMK AO2 T02280222
53988KBKB BKB20190917032511009/17/19 03:25:31  5-MIN KBKB 170925Z AUTO 00000KT 7SM FEW004 23/22 A2994 280 97 1300 000/00 RMK AO2 T02280222
53988KBKB BKB20190917033011009/17/19 03:30:31  5-MIN KBKB 170930Z AUTO 00000KT 7SM FEW004 23/22 A2994 280 97 1300 000/00 RMK AO2 T02280222
53988KBKB BKB20190917033511309/17/19 03:35:31  5-MIN KBKB 170935Z AUTO 00000KT 6SM BR SCT003 23/22 A2994 280 97 1300 000/00 RMK AO2 T02280222
53988KBKB BKB20190917034011309/17/19 03:40:31  5-MIN KBKB 170940Z AUTO 00000KT 6SM BR SCT003 23/22 A2994 280 97 1300 000/00 RMK AO2 T02280222
53988KBKB BKB20190917034511309/17/19 03:45:31  5-MIN KBKB 170945Z AUTO 00000KT 6SM BR BKN003 23/22 A2994 280 97 1300 000/00 RMK AO2 T02280222
53988KBKB BKB20190917035007709/17/19 03:50:31  5-MIN KBKB 170950Z AUTO 00000KT 5SM BR BKN003 23/22 A2994 
53988KBKB BKB20190917061511309/17/19 06:15:31  5-MIN KBKB 171215Z AUTO 00000KT 4SM BR OVC002 23/23 A2997 250 97 1300 000/00 RMK AO2 T02330228
53988KBKB BKB20190917062011309/17/19 06:20:31  5-MIN KBKB 171220Z AUTO 00000KT 4SM BR OVC002 23/23 A2998 250 97 1300 000/00 RMK AO2 T02330228
53988KBKB BKB20190917062511309/17/19 06:25:31  5-MIN KBKB 171225Z AUTO 00000KT 5SM BR OVC002 24/23 A2998 250 93 1400 000/00 RMK AO2 T02390228
53988KBKB BKB20190917063011309/17/19 06:30:31  5-MIN KBKB 171230Z AUTO 00000KT 6SM BR OVC002 24/23 A2998 240 93 1400 000/00 RMK AO2 T02390228
53988KBKB BKB20190917063511009/17/19 06:35:31  5-MIN KBKB 171235Z AUTO 00000KT 7SM OVC003 24/23 A2998 240 93 1400 000/00 RMK AO2 T02390228
53988KBKB BKB20190917064011009/17/19 06:40:31  5-MIN KBKB 171240Z AUTO VRB03KT 7SM OVC003 24/23 A2998 240 93 1400 VRB/03 RMK AO2 T02390228
53988KBKB BKB20190917064512609/17/19 06:45:31  5-MIN KBKB 171245Z AUTO 00000KT 8SM OVC003 24/23 A2998 240 93 1400 000 230 82 1700 VRB/03 RMK AO2 T02720239
53988KBKB BKB20190917090011109/17/19 09:00:31  5-MIN KBKB 171500Z AUTO VRB04KT 10SM BKN011 28/24 A3000 220 79 1800 VRB/04 RMK AO2 T02780239
53988KBKB BKB20190917090511109/17/19 09:05:31  5-MIN KBKB 171505Z AUTO VRB03KT 10SM BKN011 28/24 A3000 220 79 1800 VRB/03 RMK AO2 T02780239
53988KBKB BKB20190917091011109/17/19 09:10:31  5-MIN KBKB 171510Z AUTO VRB03KT 10SM BKN012 28/24 A3000 220 79 1800 VRB/03 RMK AO2 T02780239
53988KBKB BKB20190917091511809/17/19 09:15:31  5-MIN KBKB 171515Z AUTO 04003KT 10SM BKN012 BKN019 28/24 A3000 220 82 1800 030/03 RMK AO2 T02780244
53988KBKB BKB20190917092011809/17/19 09:20:31  5-MIN KBKB 171520Z AUTO VRB03KT 10SM BKN012 BKN019 28/24 A3000 220 79 1800 VRB/03 RMK AO2 T02830244
53988KBKB BKB20190917092511809/17/19 09:25:31  5-MIN KBKB 171525Z AUTO 13004KT 10SM BKN012 BKN021 28/24 A3000 220 79 1800 130/04 RMK AO2 T02830244
53988KBKB BKB20190917093011809/17/19 09:30:31  5-MIN KBKB 171530Z AUTO 09003KT 10SM BKN014 BKN022 28/24 A3001 220 79 1800 080/03 RMK AO2 T02830244
53988KBKB BKB20190917193511109/17/19 19:35:31  5-MIN KBKB 180135Z AUTO 00000KT 10SM FEW007 24/23 A2995 270 90 1500 000/00 RMK AO2 T02440228
53988KBKB BKB20190917194011109/17/19 19:40:31  5-MIN KBKB 180140Z AUTO 00000KT 10SM FEW007 24/23 A2994 280 90 1500 000/00 RMK AO2 T02440228
53988KBKB BKB20190917194511109/17/19 19:45:31  5-MIN KBKB 180145Z AUTO 00000KT 10SM FEW007 24/23 A2994 280 90 1500 000/00 RMK AO2 T02440228
53988KBKB BKB20190917195011809/17/19 19:50:31  5-MIN KBKB 180150Z AUTO 00000KT 10SM FEW007 24/23 A2994 280 90 1500 000/00 RMK AO2 SLP163 T02440228
53988KBKB BKB20190917195511109/17/19 19:55:31  5-MIN KBKB 180155Z AUTO 11003KT 10SM FEW007 24/23 A2994 280 90 1500 110/03 RMK AO2 T02440228
53988KBKB BKB20190917200011109/17/19 20:00:31  5-MIN KBKB 180200Z AUTO 00000KT 10SM FEW007 24/23 A2994 280 90 1500 000/00 RMK AO2 T02440228
53988KBKB BKB20190917200510809/17/19 20:05:31  5-MIN KBKB 180205Z AUTO 00000KT 10SM CLR 24/23 A2994 280 90 1500 000/00 RMK AO2 T02440228
53988KBKB BKB20190917201010809/17/19 20:10:31  5-MIN KBKB 180210Z AUTO 00000KT 10SM CLR 24/23 A2994 280 90 1500 000/00 RMK AO2 T02440228
53988KBKB BKB20190917201510809/17/19 20:15:31  5-MIN KBKB 180215Z AUTO 00000KT 10SM CLR 24/23 A2994 280 90 1500 000/00 RMK AO2 T02440228
53988KBKB BKB20190917202010809/17/19 20:20:31  5-MIN KBKB 180220Z AUTO 11003KT 10SM CLR 24/23 A2994 280 90 1500 110/03 RMK AO2 T02440228
53988KBKB BKB20190917202510809/17/19 20:25:31  5-MIN KBKB 180225Z AUTO VRB03KT 10SM CLR 24/23 A2994 280 90 1500 VRB/03 RMK AO2 T02440228
53988KBKB BKB20190917203010809/17/19 20:30:31  5-MIN KBKB 180230Z AUTO 14003KT 10SM CLR 24/23 A2994 280 90 1500 130/03 RMK AO2 T02440228
53988KBKB BKB20190917203510809/17/19 20:35:31  5-MIN KBKB 180235Z AUTO 00000KT 10SM CLR 24/23 A2994 280 90 1500 000/00 RMK AO2 T02440228
53988KBKB BKB20190917204010809/17/19 20:40:31  5-MIN KBKB 180240Z AUTO 00000KT 10SM CLR 24/23 A2994 280 90 1500 000/00 RMK AO2 T02440228
53988KBKB BKB20190917204510809/17/19 20:45:31  5-MIN KBKB 180245Z AUTO 00000KT 10SM CLR 24/23 A2994 280 93 1400 000/00 RMK AO2 T02390228
53988KBKB BKB20190917205012109/17/19 20:50:31  5-MIN KBKB 180250Z AUTO 00000KT 10SM CLR 24/23 A2994 280 93 1400 000/00 RMK AO2 SLP163 T02390228 53015
53988KBKB BKB20190917205510809/17/19 20:55:31  5-MIN KBKB 180255Z AUTO 00000KT 10SM CLR 24/22 A2994 280 90 1400 000/00 RMK AO2 T02390222
53988KBKB BKB20190917210010809/17/19 21:00:31  5-MIN KBKB 180300Z AUTO 00000KT 10SM CLR 24/22 A2994 280 90 1400 000/00 RMK AO2 T02390222
53988KBKB BKB20190917210510809/17/19 21:05:31  5-MIN KBKB 180305Z AUTO 00000KT 10SM CLR 24/22 A2993 280 87 1500 000/00 RMK AO2 T02440222
53988KBKB BKB20190917211010809/17/19 21:10:31  5-MIN KBKB 180310Z AUTO 00000KT 10SM CLR 24/22 A2994 280 87 1500 000/00 RMK AO2 T02440222
53988KBKB BKB20190917211510809/17/19 21:15:31  5-MIN KBKB 180315Z AUTO 00000KT 10SM CLR 24/22 A2994 280 90 1400 000/00 RMK AO2 T02390222
53988KBKB BKB20190917212015409/17/19 21:20:31  5-MIN KBKB 180320Z AUTO 00000KT 10SM CLR 24/22 A2994 280 90 1400 000/00 RMK AO2 T023902220935Z AUTO 14003KT 00 000/00 RMK AO2 T02390222
53988KBKB BKB20190917215011509/17/19 21:50:31  5-MIN KBKB 180350Z AUTO 00000KT 10SM CLR 24/22 A2994 280 90 1400 000/00 RMK AO2 SLP162 T02390222
53988KBKB BKB20190917215510809/17/19 21:55:31  5-MIN KBKB 180355Z AUTO 00000KT 10SM CLR 24/22 A2994 280 90 1400 000/00 RMK AO2 T02390222
53988KBKB BKB20190917220010809/17/19 22:00:31  5-MIN KBKB 180400Z AUTO 00000KT 10SM CLR 24/22 A2994 280 87 1500 000/00 RMK AO2 T02440222
53988KBKB BKB20190917220510809/17/19 22:05:31  5-MIN KBKB 180405Z AUTO 00000KT 10SM CLR 24/22 A2994 280 87 1500 000/00 RMK AO2 T02440222
53988KBKB BKB20190917221010809/17/19 22:10:31  5-MIN KBKB 180410Z AUTO 00000KT 10SM CLR 24/22 A2993 290 90 1400 000/00 RMK AO2 T02390222
53988KBKB BKB20190917221510809/17/19 22:15:31  5-MIN KBKB 180415Z AUTO 00000KT 10SM CLR 24/22 A2993 290 90 1400 000/00 RMK AO2 T02390222
53988KBKB BKB20190917222011409/17/19 22:20:31  5-MIN KBKB 180420Z AUTO 00000KT 10SM CLR 24/22 A2993 290 87 1500 000/00 RMK AO2 T02440222330222
53988KBKB BKB20190917234510809/17/19 23:45:31  5-MIN KBKB 180545Z AUTO 00000KT 10SM CLR 23/22 A2992 300 93 1400 000/00 RMK AO2 T02330222
53988KBKB BKB20190917235014309/17/19 23:50:31  5-MIN KBKB 180550Z AUTO 00000KT 10SM CLR 23/22 A2992 300 93 1400 000/00 RMK AO2 SLP156 T02330222 10250 20233 403440228 56004
53988KBKB BKB20190917235514409/17/19 23:55:31  5-MIN KBKB 180555Z AUTO 00000KT 10SM CLR 23/22 A2992 300 93 1400 000/00 RMK AO2 T02330222300 93 1400 000/00 RMK AO2 T02330222
53988KBKB BKB20190918010011109/18/19 01:00:31  5-MIN KBKB 180700Z AUTO 00000KT 10SM FEW006 23/22 A2992 300 93 1400 000/00 RMK AO2 T02330222
53988KBKB BKB20190918010511109/18/19 01:05:31  5-MIN KBKB 180705Z AUTO 00000KT 10SM FEW006 23/22 A2992 300 93 1400 000/00 RMK AO2 T02330222
53988KBKB BKB20190918011021509/18/19 01:10:31  5-MIN KBKB 180710Z AUTO 00000KT 10SM FEW006 23/22 A2992 300 93 1400 000/00 RMK AO2 T0233022209/18/19 01:15115Z AUTO 00000KT 10SM OVC007 23/22 A2992 300 93 1400 000/00 RMK AO2 CIG 003V009 T02330222
53988KBKB BKB20190918052012309/18/19 05:20:31  5-MIN KBKB 181120Z AUTO 00000KT 10SM OVC007 23/22 A2992 300 93 1400 000/00 RMK AO2 CIG 003V008 T02330222
53988KBKB BKB20190918052512309/18/19 05:25:31  5-MIN KBKB 181125Z AUTO 00000KT 10SM BKN005 23/22 A2992 300 93 1400 000/00 RMK AO2 CIG 003V008 T02330222
53988KBKB BKB20190918053012309/18/19 05:30:31  5-MIN KBKB 181130Z AUTO 00000KT 10SM BKN005 23/22 A2992 290 93 1400 000/00 RMK AO2 CIG 003V008 T02330222
53988KBKB BKB20190918053512309/18/19 05:35:31  5-MIN KBKB 181135Z AUTO 00000KT 10SM BKN005 23/22 A2992 300 93 1400 000/00 RMK AO2 CIG 003V009 T02330222
53988KBKB BKB20190918054012309/18/19 05:40:31  5-MIN KBKB 181140Z AUTO 00000KT 10SM BKN005 23/22 A2993 290 93 1400 000/00 RMK AO2 CIG 003V007 T02330222
53988KBKB BKB20190918054512309/18/19 05:45:31  5-MIN KBKB 181145Z AUTO 00000KT 10SM BKN005 23/23 A2993 290 97 1400 000/00 RMK AO2 CIG 003V009 T02330228
53988KBKB BKB20190918055014809/18/19 05:50:31  5-MIN KBKB 181150Z AUTO 00000KT 10SM BKN005 23/23 A2993 290 97 1400 000/00 RMK AO2 CIG 003V009 SLP161 T02330228 10239 20228 57004
53988KBKB BKB20190918055512309/18/19 05:55:31  5-MIN KBKB 181155Z AUTO 00000KT 10SM OVC005 23/23 A2993 290 97 1400 000/00 RMK AO2 CIG 003V009 T02330228
53988KBKB BKB20190918060008109/18/19 06:00:31  5-MIN KBKB 181200Z AUTO VRB03KT 10SM BKN005 23/23 A2993 290228
53988KBKB BKB20190918063511109/18/19 06:35:31  5-MIN KBKB 181235Z AUTO VRB03KT 10SM OVC004 24/23 A2993 290 93 1400 VRB/03 RMK AO2 T02390228
53988KBKB BKB20190918064011109/18/19 06:40:31  5-MIN KBKB 181240Z AUTO VRB04KT 10SM OVC004 24/23 A2993 290 93 1400 VRB/04 RMK AO2 T02390228
53988KBKB BKB20190918064511109/18/19 06:45:31  5-MIN KBKB 181245Z AUTO 00000KT 10SM OVC004 24/23 A2993 290 93 1400 000/00 RMK AO2 T02390228
53988KBKB BKB20190918065011809/18/19 06:50:31  5-MIN KBKB 181250Z AUTO 00000KT 10SM OVC004 24/23 A2994 280 93 1400 000/00 RMK AO2 SLP163 T02390228
53988KBKB BKB20190918065511109/18/19 06:55:31  5-MIN KBKB 181255Z AUTO 00000KT 10SM OVC004 24/23 A2994 280 93 1500 000/00 RMK AO2 T02440233
53988KBKB BKB20190918070011109/18/19 07:00:31  5-MIN KBKB 181300Z AUTO VRB03KT 10SM OVC004 24/23 A2994 280 93 1500 VRB/03 RMK AO2 T02440233
53988KBKB BKB20190918070511109/18/19 07:05:31  5-MIN KBKB 181305Z AUTO VRB03KT 10SM OVC004 24/23 A2994 280 93 1500 VRB/03 RMK AO2 T02440233
53988KBKB BKB20190918071011109/18/19 07:10:31  5-MIN KBKB 181310Z AUTO VRB04KT 10SM OVC004 24/23 A2994 280 93 1500 VRB/04 RMK AO2 T02440233
53988KBKB BKB20190918071511109/18/19 07:15:31  5-MIN KBKB 181315Z AUTO VRB04KT 10SM OVC005 25/23 A2994 280 90 1500 VRB/04 RMK AO2 T02500233
53988KBKB BKB20190918072011109/18/19 07:20:31  5-MIN KBKB 181320Z AUTO VRB03KT 10SM OVC005 25/23 A2994 280 90 1500 VRB/03 RMK AO2 T02500233
53988KBKB BKB20190918072511109/18/19 07:25:31  5-MIN KBKB 181325Z AUTO VRB04KT 10SM OVC005 25/23 A2994 280 90 1500 VRB/04 RMK AO2 T02500233
53988KBKB BKB20190918073011109/18/19 07:30:31  5-MIN KBKB 181330Z AUTO VRB04KT 10SM OVC005 25/23 A2994 280 90 1500 VRB/04 RMK AO2 T02500233
53988KBKB BKB20190918155011809/18/19 15:50:31  5-MIN KBKB 182150Z AUTO 00000KT 10SM FEW007 26/23 A2991 310 87 1600 000/00 RMK AO2 SLP155 T02560233
53988KBKB BKB20190918155511109/18/19 15:55:31  5-MIN KBKB 182155Z AUTO 12003KT 10SM FEW008 26/23 A2991 310 87 1600 120/03 RMK AO2 T02560233
53988KBKB BKB20190918160011109/18/19 16:00:31  5-MIN KBKB 182200Z AUTO 00000KT 10SM FEW008 26/23 A2991 300 87 1600 000/00 RMK AO2 T02560233
53988KBKB BKB20190918160511109/18/19 16:05:31  5-MIN KBKB 182205Z AUTO VRB03KT 10SM FEW008 26/23 A2991 310 87 1600 VRB/03 RMK AO2 T02560233
53988KBKB BKB20190918161011109/18/19 16:10:31  5-MIN KBKB 182210Z AUTO 00000KT 10SM FEW009 26/23 A2991 300 84 1600 000/00 RMK AO2 T02560228
53988KBKB BKB20190918161511109/18/19 16:15:31  5-MIN KBKB 182215Z AUTO 00000KT 10SM FEW009 26/23 A2991 300 84 1600 000/00 RMK AO2 T02560228
53988KBKB BKB20190918162011109/18/19 16:20:31  5-MIN KBKB 182220Z AUTO 12003KT 10SM FEW009 26/23 A2991 310 87 1600 110/03 RMK AO2 T02560233
53988KBKB BKB20190918162511109/18/19 16:25:31  5-MIN KBKB 182225Z AUTO 11003KT 10SM FEW009 26/23 A2991 310 84 1600 100/03 RMK AO2 T02560228
53988KBKB BKB20190918163011809/18/19 16:30:31  5-MIN KBKB 182230Z AUTO 13003KT 10SM FEW009 SCT110 25/23 A2991 310 87 1600 120/03 RMK AO2 T02500228
53988KBKB BKB20190918163511809/18/19 16:35:31  5-MIN KBKB 182235Z AUTO VRB03KT 10SM FEW009 FEW110 25/23 A2991 310 87 1600 VRB/03 RMK AO2 T02500228
53988KBKB BKB20190918164012509/18/19 16:40:31  5-MIN KBKB 182240Z AUTO 00000KT 10SM FEW009 FEW016 FEW110 26/23 A2991 310 84 1600 000/00 RMK AO2 T02560228
53988KBKB BKB20190918164512509/18/19 16:45:31  5-MIN KBKB 182245Z AUTO VRB03KT 10SM FEW009 SCT016 SCT110 26/23 A2991 310 87 1600 VRB/03 RMK AO2 T02560233
53988KBKB BKB20190918165012509/18/19 16:50:31  5-MIN KBKB 182250Z AUTO 00000KT 10SM FEW009 SCT120 25/23 A2991 310 90 1600 000/00 RMK AO2 SLP154 T02500233
53988KBKB BKB20190918165511809/18/19 16:55:31  5-MIN KBKB 182255Z AUTO 00000KT 10SM SCT009 BKN120 25/23 A2991 310 90 1600 000/00 RMK AO2 T02500233
53988KBKB BKB20190918170011809/18/19 17:00:31  5-MIN KBKB 182300Z AUTO 00000KT 10SM FEW009 SCT120 25/23 A2991 310 90 1600 000/00 RMK AO2 T02500233
53988KBKB BKB20190918170512509/18/19 17:05:31  5-MIN KBKB 182305Z AUTO 00000KT 10SM FEW009 SCT050 BKN120 25/23 A2991 310 90 1600 000/00 RMK AO2 T02500233
53988KBKB BKB20190918171012509/18/19 17:10:31  5-MIN KBKB 182310Z AUTO VRB03KT 10SM FEW009 BKN050 BKN120 25/23 A2991 310 90 1600 VRB/03 RMK AO2 T02500233
53988KBKB BKB20190918171512509/18/19 17:15:31  5-MIN KBKB 182315Z AUTO VRB03KT 10SM FEW009 BKN050 BKN120 25/23 A2991 310 90 1600 VRB/03 RMK AO2 T02500233
53988KBKB BKB20190918172012509/18/19 17:20:31  5-MIN KBKB 182320Z AUTO 00000KT 10SM FEW008 BKN055 OVC120 25/23 A2991 300 90 1600 000/00 RMK AO2 T02500233
53988KBKB BKB20190918172511109/18/19 17:25:31  5-MIN KBKB 182325Z AUTO VRB03KT 10SM BKN055 25/23 A2992 300 90 1600 VRB/03 RMK AO2 T02500233
53988KBKB BKB20190918173011109/18/19 17:30:31  5-MIN KBKB 182330Z AUTO 00000KT 10SM BKN055 25/23 A2992 300 90 1600 000/00 RMK AO2 T02500233
53988KBKB BKB20190918173511109/18/19 17:35:31  5-MIN KBKB 182335Z AUTO 00000KT 10SM BKN055 25/23 A2992 300 90 1600 000/00 RMK AO2 T02500233
53988KBKB BKB20190918174011109/18/19 17:40:31  5-MIN KBKB 182340Z AUTO 00000KT 10SM SCT055 25/23 A2992 300 90 1600 000/00 RMK AO2 T02500233
53988KBKB BKB20190918174511109/18/19 17:45:31  5-MIN KBKB 182345Z AUTO VRB03KT 10SM SCT060 25/23 A2992 300 90 1600 VRB/03 RMK AO2 T02500233
53988KBKB BKB20190918175014209/18/19 17:50:31  5-MIN KBKB 182350Z AUTO 00000KT 10SM FEW060 25/23 A2992 300 90 1600 000/00 RMK AO2 SLP156 60001 T02500233 10256 20233 55010
53988KBKB BKB20190918175511809/18/19 17:55:31  5-MIN KBKB 182355Z AUTO 00000KT 10SM FEW055 SCT090 25/23 A2991 300 90 1600 000/00 RMK AO2 T02500233
53988KBKB BKB20190918180011109/18/19 18:00:31  5-MIN KBKB 190000Z AUTO 10003KT 10SM SCT090 25/23 A2991 300 90 1600 100/03 RMK AO2 T02500233
53988KBKB BKB20190918180511109/18/19 18:05:31  5-MIN KBKB 190005Z AUTO 00000KT 10SM SCT090 24/23 A2991 300 93 1500 000/00 RMK AO2 T02440233
53988KBKB BKB20190918181011109/18/19 18:10:31  5-MIN KBKB 190010Z AUTO VRB03KT 10SM SCT090 24/23 A2991 300 93 1500 VRB/03 RMK AO2 T02440233
53988KBKB BKB20190918181511109/18/19 18:15:31  5-MIN KBKB 190015Z AUTO 00000KT 10SM BKN095 24/23 A2992 300 93 1500 000/00 RMK AO2 T02440233
53988KBKB BKB20190918182011109/18/19 18:20:31  5-MIN KBKB 190020Z AUTO 00000KT 10SM BKN095 24/23 A2992 300 93 1500 000/00 RMK AO2 T02440233
53988KBKB BKB20190918182511109/18/19 18:25:31  5-MIN KBKB 190025Z AUTO 00000KT 10SM BKN095 24/23 A2991 300 93 1500 000/00 RMK AO2 T02440233
53988KBKB BKB20190918183011809/18/19 18:30:31  5-MIN KBKB 190030Z AUTO 00000KT 10SM BKN095 BKN120 24/23 A2991 300 90 1500 000/00 RMK AO2 T02440228
53988KBKB BKB20190918183512509/18/19 18:35:31  5-MIN KBKB 190035Z AUTO 12003KT 10SM FEW016 SCT060 BKN095 24/23 A2991 300 90 1500 120/03 RMK AO2 T02440228
53988KBKB BKB20190918184012509/18/19 18:40:31  5-MIN KBKB 190040Z AUTO 00000KT 10SM FEW016 SCT060 BKN100 24/23 A2991 300 90 1500 000/00 RMK AO2 T02440228
53988KBKB BKB20190918184512509/18/19 18:45:31  5-MIN KBKB 190045Z AUTO VRB03KT 10SM FEW016 BKN100 BKN120 24/23 A2991 300 90 1500 VRB/03 RMK AO2 T02440228
53988KBKB BKB20190918185013209/18/19 18:50:31  5-MIN KBKB 190050Z AUTO VRB03KT 10SM FEW013 SCT060 BKN100 24/23 A2991 300 90 1500 VRB/03 RMK AO2 SLP156 T02440228
53988KBKB BKB20190918185512509/18/19 18:55:31  5-MIN KBKB 190055Z AUTO 00000KT 10SM SCT013 SCT060 BKN110 24/23 A2991 300 90 1500 000/00 RMK AO2 T02440228
53988KBKB BKB20190918190012509/18/19 19:00:31  5-MIN KBKB 190100Z AUTO 00000KT 10SM SCT013 SCT065 BKN110 24/23 A2991 300 90 1500 000/00 RMK AO2 T02440228
53988KBKB BKB20190918190512509/18/19 19:05:31  5-MIN KBKB 190105Z AUTO 00000KT 10SM SCT006 SCT013 BKN110 24/23 A2991 300 90 1500 000/00 RMK AO2 T02440228
53988KBKB BKB20190918191012509/18/19 19:10:31  5-MIN KBKB 190110Z AUTO VRB03KT 10SM SCT006 BKN013 BKN110 24/23 A2992 300 93 1500 VRB/03 RMK AO2 T02440233
53988KBKB BKB20190918191513709/18/19 19:15:31  5-MIN KBKB 190115Z AUTO VRB03KT 10SM BKN006 BKN013 BKN110 24/23 A2992 300 93 1500 VRB/03 RMK AO2 CIG 004V010 T02440233
53988KBKB BKB20190918192011809/18/19 19:20:31  5-MIN KBKB 190120Z AUTO VRB03KT 10SM BKN006 BKN011 24/23 A2992 300 93 1500 VRB/03 RMK AO2 T02440233
53988KBKB BKB20190918192513009/18/19 19:25:31  5-MIN KBKB 190125Z AUTO 00000KT 10SM BKN006 BKN011 24/23 A2992 300 93 1500 000/00 RMK AO2 CIG 004V009 T02440233
53988KBKB BKB20190918193012309/18/19 19:30:31  5-MIN KBKB 190130Z AUTO 11004KT 10SM BKN006 24/23 A2992 300 93 1500 110/04 RMK AO2 CIG 004V010 T02440233
53988KBKB BKB20190918193513009/18/19 19:35:31  5-MIN KBKB 190135Z AUTO VRB03KT 10SM BKN006 BKN010 24/23 A2992 300 90 1500 VRB/03 RMK AO2 CIG 004V008 T02440228
53988KBKB BKB20190918194013009/18/19 19:40:31  5-MIN KBKB 190140Z AUTO 00000KT 10SM BKN006 BKN010 24/23 A2992 300 90 1500 000/00 RMK AO2 CIG 004V009 T02440228
53988KBKB BKB20190918194511809/18/19 19:45:31  5-MIN KBKB 190145Z AUTO VRB03KT 10SM BKN006 BKN010 24/23 A2992 300 93 1400 VRB/03 RMK AO2 T02390228
53988KBKB BKB20190918195013709/18/19 19:50:31  5-MIN KBKB 190150Z AUTO 11004KT 10SM BKN006 BKN070 24/23 A2992 300 93 1400 110/04 RMK AO2 CIG 005V010 SLP157 T02390228
53988KBKB BKB20190918195513009/18/19 19:55:31  5-MIN KBKB 190155Z AUTO 10003KT 10SM BKN006 BKN070 24/23 A2992 300 93 1400 100/03 RMK AO2 CIG 005V010 T02390228
53988KBKB BKB20190918200011109/18/19 20:00:31  5-MIN KBKB 190200Z AUTO 00000KT 10SM BKN006 24/23 A2992 300 93 1400 000/00 RMK AO2 T02390228
53988KBKB BKB20190918200511109/18/19 20:05:31  5-MIN KBKB 190205Z AUTO 12003KT 10SM SCT006 24/23 A2992 300 93 1400 110/03 RMK AO2 T02390228
53988KBKB BKB20190918201011109/18/19 20:10:31  5-MIN KBKB 190210Z AUTO VRB03KT 10SM SCT006 24/23 A2993 290 93 1400 VRB/03 RMK AO2 T02390228
53988KBKB BKB20190918201511109/18/19 20:15:31  5-MIN KBKB 190215Z AUTO VRB03KT 10SM BKN006 24/23 A2993 290 93 1400 VRB/03 RMK AO2 T02390228
53988KBKB BKB20190918202011109/18/19 20:20:31  5-MIN KBKB 190220Z AUTO 00000KT 10SM BKN006 24/23 A2993 290 93 1400 000/00 RMK AO2 T02390228
53988KBKB BKB20190918202511109/18/19 20:25:31  5-MIN KBKB 190225Z AUTO 00000KT 10SM BKN006 24/23 A2993 290 93 1400 000/00 RMK AO2 T02390228
53988KBKB BKB20190918203011109/18/19 20:30:31  5-MIN KBKB 190230Z AUTO 00000KT 10SM BKN006 24/23 A2993 290 93 1400 000/00 RMK AO2 T02390228
53988KBKB BKB20190918203511109/18/19 20:35:31  5-MIN KBKB 190235Z AUTO VRB03KT 10SM BKN006 24/23 A2993 290 93 1400 VRB/03 RMK AO2 T02390228
53988KBKB BKB20190918204011109/18/19 20:40:31  5-MIN KBKB 190240Z AUTO VRB03KT 10SM BKN006 24/23 A2993 290 93 1400 VRB/03 RMK AO2 T02390228
53988KBKB BKB20190918204511109/18/19 20:45:31  5-MIN KBKB 190245Z AUTO 00000KT 10SM BKN006 24/23 A2993 290 93 1400 000/00 RMK AO2 T02390228
53988KBKB BKB20190918205012409/18/19 20:50:31  5-MIN KBKB 190250Z AUTO 10003KT 10SM BKN006 24/23 A2993 290 93 1400 100/03 RMK AO2 SLP159 T02390228 55000
53988KBKB BKB20190918205511109/18/19 20:55:31  5-MIN KBKB 190255Z AUTO VRB04KT 10SM BKN006 24/23 A2993 290 93 1400 VRB/04 RMK AO2 T02390228
53988KBKB BKB20190918210011109/18/19 21:00:31  5-MIN KBKB 190300Z AUTO VRB04KT 10SM BKN006 24/23 A2993 290 93 1400 VRB/04 RMK AO2 T02390228
53988KBKB BKB20190918210511109/18/19 21:05:31  5-MIN KBKB 190305Z AUTO VRB03KT 10SM SCT005 24/23 A2993 290 93 1400 VRB/03 RMK AO2 T02390228
53988KBKB BKB20190918211011109/18/19 21:10:31  5-MIN KBKB 190310Z AUTO 00000KT 10SM SCT005 24/23 A2993 290 93 1400 000/00 RMK AO2 T02390228
53988KBKB BKB20190918211511109/18/19 21:15:31  5-MIN KBKB 190315Z AUTO VRB03KT 10SM SCT005 24/23 A2993 290 93 1400 VRB/03 RMK AO2 T02390228
53988KBKB BKB20190918212011109/18/19 21:20:31  5-MIN KBKB 190320Z AUTO VRB03KT 10SM SCT005 24/23 A2993 290 93 1400 VRB/03 RMK AO2 T02390228
53988KBKB BKB20190918212511109/18/19 21:25:31  5-MIN KBKB 190325Z AUTO VRB04KT 10SM SCT005 24/22 A2993 290 90 1400 VRB/04 RMK AO2 T02390222
53988KBKB BKB20190918213011109/18/19 21:30:31  5-MIN KBKB 190330Z AUTO VRB03KT 10SM SCT005 24/22 A2993 290 90 1400 VRB/03 RMK AO2 T02390222
53988KBKB BKB20190918213511109/18/19 21:35:31  5-MIN KBKB 190335Z AUTO VRB03KT 10SM FEW005 24/22 A2993 290 90 1400 VRB/03 RMK AO2 T02390222
53988KBKB BKB20190918214011109/18/19 21:40:31  5-MIN KBKB 190340Z AUTO 12005KT 10SM FEW005 23/22 A2992 300 93 1400 110/05 RMK AO2 T02330222
53988KBKB BKB20190918214515509/18/19 21:45:31  5-MIN KBKB 190345Z AUTO VRB04KT 10SM FEW005 23/22 A2992 300 93 1400 VRB/04 RMK AO2 T023300SM  A2992 300 93 1400 000/00 RMK AO2 T02330222
53988KBKB BKB20190918230010809/18/19 23:00:31  5-MIN KBKB 190500Z AUTO 00000KT 10SM CLR 23/22 A2992 300 93 1400 000/00 RMK AO2 T02330222
53988KBKB BKB20190918230510809/18/19 23:05:31  5-MIN KBKB 190505Z AUTO 00000KT 10SM CLR 23/22 A2991 300 93 1400 000/00 RMK AO2 T02330222
53988KBKB BKB20190918231010809/18/19 23:10:31  5-MIN KBKB 190510Z AUTO 00000KT 10SM CLR 23/22 A2991 310 93 1400 000/00 RMK AO2 T02330222
53988KBKB BKB20190918231510809/18/19 23:15:31  5-MIN KBKB 190515Z AUTO 00000KT 10SM CLR 23/22 A2991 310 93 1400 000/00 RMK AO2 T02330222
53988KBKB BKB20190918231517209/18/19 23:15:31  5-MIN KBKB 190515Z AUTO 00000KT 10SM CLR 23/22 A28/19 22:55:31  5-MIN KBKB 190455Z AUTO 00000KT 10SM CLR 23/22 A2992 300 93 1400 000/00 RMK AO2 T02330222
53988KBKB BKB20190918232010809/18/19 23:20:31  5-MIN KBKB 190520Z AUTO 00000KT 10SM CLR 23/22 A2991 310 93 1400 000/00 RMK AO2 T02330222
53988KBKB BKB20190918232510809/18/19 23:25:31  5-MIN KBKB 190525Z AUTO 00000KT 10SM CLR 23/22 A2991 310 93 1400 000/00 RMK AO2 T02330222
53988KBKB BKB20190918233010809/18/19 23:30:31  5-MIN KBKB 190530Z AUTO 00000KT 10SM CLR 23/22 A2991 310 93 1400 000/00 RMK AO2 T02330222
53988KBKB BKB20190918233510809/18/19 23:35:31  5-MIN KBKB 190535Z AUTO 00000KT 10SM CLR 23/22 A2991 310 93 1400 000/00 RMK AO2 T02330222
53988KBKB BKB20190918233517009/18/19 23:35:31  5-MIN KBKB 190535Z AUTO 00000KT 10SM CLR 23/22 A2991 310 93 1400 000/0KB 190515Z AUTO 00000KT 10SM CLR 23/22 A2991 310 93 1400 000/00 RMK AO2 T02330222
53988KBKB BKB20190918234010809/18/19 23:40:31  5-MIN KBKB 190540Z AUTO 00000KT 10SM CLR 23/22 A2991 310 93 1400 000/00 RMK AO2 T02330222
53988KBKB BKB20190918234510809/18/19 23:45:31  5-MIN KBKB 190545Z AUTO 00000KT 10SM CLR 23/22 A2991 310 93 1400 000/00 RMK AO2 T02330222
53988KBKB BKB20190918235014309/18/19 23:50:31  5-MIN KBKB 190550Z AUTO 00000KT 10SM CLR 23/22 A2991 310 93 1400 000/00 RMK AO2 SLP154 T02330222 10250 20233 402830228 53005
53988KBKB BKB20190918235510809/18/19 23:55:31  5-MIN KBKB 190555Z AUTO 00000KT 10SM CLR 23/22 A2991 310 93 1400 000/00 RMK AO2 T02330222
53988KBKB BKB20190919000010809/19/19 00:00:31  5-MIN KBKB 190600Z AUTO 00000KT 10SM CLR 23/22 A2991 310 93 1400 000/00 RMK AO2 T02330222
53988KBKB BKB20190919000510809/19/19 00:05:31  5-MIN KBKB 190605Z AUTO 00000KT 10SM CLR 23/22 A2991 310 93 1400 000/00 RMK AO2 T02330222
53988KBKB BKB20190919001010809/19/19 00:10:31  5-MIN KBKB 190610Z AUTO 00000KT 10SM CLR 23/22 A2991 310 93 1400 000/00 RMK AO2 T02330222
53988KBKB BKB20190919001511109/19/19 00:15:31  5-MIN KBKB 190615Z AUTO 00000KT 10SM FEW090 23/22 A2991 310 93 1400 000/00 RMK AO2 T02330222
53988KBKB BKB20190919002011109/19/19 00:20:31  5-MIN KBKB 190620Z AUTO 00000KT 10SM SCT095 23/22 A2991 310 93 1400 000/00 RMK AO2 T02330222
53988KBKB BKB20190919002511109/19/19 00:25:31  5-MIN KBKB 190625Z AUTO 00000KT 10SM BKN095 23/22 A2991 300 93 1400 000/00 RMK AO2 T02330222
53988KBKB BKB20190919003011109/19/19 00:30:31  5-MIN KBKB 190630Z AUTO 00000KT 10SM BKN100 23/22 A2992 300 93 1400 000/00 RMK AO2 T02330222
53988KBKB BKB20190919003511109/19/19 00:35:31  5-MIN KBKB 190635Z AUTO 00000KT 10SM BKN100 23/22 A2992 300 93 1400 000/00 RMK AO2 T02330222
53988KBKB BKB20190919004011809/19/19 00:40:31  5-MIN KBKB 190640Z AUTO 00000KT 10SM FEW007 OVC100 23/22 A2992 300 93 1400 000/00 RMK AO2 T02330222
53988KBKB BKB20190919004511809/19/19 00:45:31  5-MIN KBKB 190645Z AUTO 00000KT 10SM FEW007 OVC100 23/22 A2991 300 93 1400 000/00 RMK AO2 T02330222
53988KBKB BKB20190919005012509/19/19 00:50:31  5-MIN KBKB 190650Z AUTO 13003KT 10SM SCT005 OVC100 23/22 A2991 310 93 1400 130/03 RMK AO2 SLP155 T02330222
53988KBKB BKB20190919005513009/19/19 00:55:31  5-MIN KBKB 190655Z AUTO 00000KT 10SM BKN005 OVC100 23/22 A2991 310 93 1400 000/00 RMK AO2 CIG 003V008 T02330222
53988KBKB BKB20190919010013009/19/19 01:00:31  5-MIN KBKB 190700Z AUTO VRB03KT 10SM BKN005 OVC100 23/22 A2991 310 93 1400 VRB/03 RMK AO2 CIG 003V008 T02330222
53988KBKB BKB20190919010523109/19/19 01:05:31  5-MIN KBKB 190705Z AUTO 00000KT 10SM BKN005 OVC100 23/22 A2991 310 93 1400 000/00 RMK AO2 CIG 003V008 T0233 AUTO 00000KT 10SM BKN004 OVC110 24/23 A2990 320 93 1500 000/00 RMK AO2 RAE45 CIG 003V007 P0001 T02390228
53988KBKB BKB20190919023513509/19/19 02:35:31  5-MIN KBKB 190835Z AUTO VRB04KT 10SM -RA BKN004 BKN090 OVC110 24/23 A2990 320 93 1500 VRB/04 RMK AO2 P0001 T02390228
53988KBKB BKB20190919024012809/19/19 02:40:31  5-MIN KBKB 190840Z AUTO 00000KT 10SM -RA BKN004 OVC110 24/23 A2990 320 93 1500 000/00 RMK AO2 P0001 T02390228
53988KBKB BKB20190919024514209/19/19 02:45:31  5-MIN KBKB 190845Z AUTO 00000KT 10SM BKN004 OVC110 24/23 A2990 320 93 1500 000/00 RMK AO2 RAE45 CIG 003V007 P0001 T02390228
53988KBKB BKB20190919025009309/19/19 02:50:31  5-MIN KBKB 190850Z AUTO VRB03KT 10SM BKN004 OVC110 RMK AO2 P0001 T02330228
53988KBKB BKB20190919025016109/19/19 02:50:31  5-MIN KBKB 190850Z AUTO VRB03KT 10SM BKN004 OVC110 24/23 A2990 320 93 1500 VRB/03 RMK AO2 RAE45 CIG 003V007 SLP149 P0001 60002 T02390228 57006
53988KBKB BKB20190919025512809/19/19 02:55:31  5-MIN KBKB 190855Z AUTO 00000KT 10SM -RA BKN004 OVC120 24/23 A2989 320 93 1500 000/00 RMK AO2 P0000 T02390228
53988KBKB BKB20190919025519109/19/19 02:55:31  5-MIN KBKB 190855Z AUTO 00000KT 10SM -RA BKN004 OVC120 24/23 A2989 320 93 1500 000/00 RMK AO2 P0000 T023902284 OVC110 24/23 A2990 320 93 1500 000/00 RMK AO2 P0001 T02390228
53988KBKB BKB20190919030013409/19/19 03:00:31  5-MIN KBKB 190900Z AUTO 00000KT 9SM -RA SCT005 BKN008 OVC120 24/23 A2989 320 93 1500 000/00 RMK AO2 P0001 T02390228
53988KBKB BKB20190919030507309/19/19 03:05:31  5-MIN KBKB 190905Z AUTO VRB03KT 9SM 07 P0001 T02390228
53988KBKB BKB20190919030513409/19/19 03:05:31  5-MIN KBKB 190905Z AUTO VRB03KT 9SM -RA SCT005 BKN050 BKN070 24/23 A2989 320 93 1500 VRB/03 RMK AO2 P0001 T02390228
53988KBKB BKB20190919031012809/19/19 03:10:31  5-MIN KBKB 190910Z AUTO 00000KT 10SM -RA SCT005 BKN050 24/23 A2989 320 93 1500 000/00 RMK AO2 P0000 T02390228
53988KBKB BKB20190919031013509/19/19 03:10:31  5-MIN KBKB 190910Z AUTO 00000KT 10SM -RA SCT005 BKN050 BKN070 24/23 A2990 320 93 1500 000/00 RMK AO2 P0001 T02390228
53988KBKB BKB20190919031513509/19/19 03:15:31  5-MIN KBKB 190915Z AUTO 00000KT 10SM -RA SCT005 BKN050 BKN070 24/23 A2990 320 93 1500 000/00 RMK AO2 P0001 T02390228
53988KBKB BKB20190919032009409/19/19 03:20:31  5-MIN KBKB 190920Z AUTO 00000KT 10SM -RA SCT005 /00 RMK AO2 P0001 T02390228
53988KBKB BKB20190919032013509/19/19 03:20:31  5-MIN KBKB 190920Z AUTO 00000KT 10SM -RA SCT005 SCT050 BKN095 24/23 A2990 320 93 1500 000/00 RMK AO2 P0001 T02390228
53988KBKB BKB20190919032513509/19/19 03:25:31  5-MIN KBKB 190925Z AUTO VRB03KT 10SM -RA FEW005 SCT050 BKN095 24/23 A2990 320 97 1500 VRB/03 RMK AO2 P0001 T02390233
53988KBKB BKB20190919033013509/19/19 03:30:31  5-MIN KBKB 190930Z AUTO VRB03KT 10SM -RA FEW005 BKN095 BKN110 24/23 A2990 320 97 1500 VRB/03 RMK AO2 P0001 T02390233
53988KBKB BKB20190919033513509/19/19 03:35:31  5-MIN KBKB 190935Z AUTO 00000KT 10SM -RA FEW005 BKN100 OVC110 24/23 A2990 320 97 1500 000/00 RMK AO2 P0001 T02390233
53988KBKB BKB20190919034012709/19/19 03:40:31  5-MIN KBKB 190940Z AUTO 00000KT 9SM -RA FEW005 OVC100 24/23 A2990 320 97 1500 000/00 RMK AO2 P0001 T02390233
53988KBKB BKB20190919034513409/19/19 03:45:31  5-MIN KBKB 190945Z AUTO VRB03KT 9SM -RA FEW005 FEW065 OVC100 24/23 A2990 320 97 1500 VRB/03 RMK AO2 P0001 T02390233
53988KBKB BKB20190920114511109/20/19 11:45:31  5-MIN KBKB 201745Z AUTO VRB04KT 10SM OVC110 27/24 A3007 160 84 1600 VRB/04 RMK AO2 T02720244
53988KBKB BKB20190920115014909/20/19 11:50:31  5-MIN KBKB 201750Z AUTO VRB03KT 10SM FEW017 OVC110 27/24 A3007 160 82 1700 VRB/03 RMK AO2 SLP206 60001 T02720239 10278 20233 53010
53988KBKB BKB20190920115511809/20/19 11:55:31  5-MIN KBKB 201755Z AUTO 00000KT 10SM FEW017 OVC110 28/24 A3007 160 82 1700 000/00 RMK AO2 T02780244
53988KBKB BKB20190920120012509/20/19 12:00:31  5-MIN KBKB 201800Z AUTO 00000KT 10SM SCT017 SCT021 OVC110 28/24 A3007 160 82 1700 000/00 RMK AO2 T02780244
53988KBKB BKB20190920120511809/20/19 12:05:31  5-MIN KBKB 201805Z AUTO 00000KT 10SM BKN018 OVC110 28/24 A3006 170 82 1700 000/00 RMK AO2 T02780244
53988KBKB BKB20190920121012509/20/19 12:10:31  5-MIN KBKB 201810Z AUTO 12004KT 10SM BKN016 BKN021 OVC110 28/24 A3007 160 82 1700 110/04 RMK AO2 T02780244
53988KBKB BKB20190920121512509/20/19 12:15:31  5-MIN KBKB 201815Z AUTO 11003KT 10SM BKN016 BKN021 OVC110 27/24 A3006 170 84 1700 110/03 RMK AO2 T02720244
53988KBKB BKB20190920122011809/20/19 12:20:31  5-MIN KBKB 201820Z AUTO 13003KT 10SM BKN016 OVC023 28/24 A3006 170 82 1700 130/03 RMK AO2 T02780244
53988KBKB BKB20190920122512509/20/19 12:25:31  5-MIN KBKB 201825Z AUTO VRB03KT 10SM BKN018 BKN023 BKN035 28/24 A3006 170 82 1700 VRB/03 RMK AO2 T02780244
53988KBKB BKB20190920123012509/20/19 12:30:31  5-MIN KBKB 201830Z AUTO VRB03KT 10SM BKN018 BKN023 BKN035 28/24 A3006 170 79 1800 VRB/03 RMK AO2 T02830244
53988KBKB BKB20190920123512509/20/19 12:35:31  5-MIN KBKB 201835Z AUTO VRB04KT 10SM BKN016 BKN021 BKN033 28/24 A3005 170 79 1800 VRB/04 RMK AO2 T02830244
53988KBKB BKB20190920124012509/20/19 12:40:31  5-MIN KBKB 201840Z AUTO VRB03KT 10SM SCT016 BKN021 BKN033 29/24 A3005 180 76 1900 VRB/03 RMK AO2 T02890244
53988KBKB BKB20190920124512509/20/19 12:45:31  5-MIN KBKB 201845Z AUTO VRB04KT 10SM FEW014 SCT021 BKN110 29/24 A3005 180 76 1900 VRB/04 RMK AO2 T02890244
53988KBKB BKB20190920125010809/20/19 12:50:31  5-MIN KBKB 201850Z AUTO 00000KT 10SM FEW014 BKN110 28/24 A3005 180 76 1800 000/00 RMK AO2
53988KBKB BKB20190920125511809/20/19 12:55:31  5-MIN KBKB 201855Z AUTO VRB04KT 10SM FEW014 BKN110 29/24 A3004 180 76 1900 VRB/04 RMK AO2 T02890244
53988KBKB BKB20190920130011809/20/19 13:00:31  5-MIN KBKB 201900Z AUTO VRB05KT 10SM FEW014 BKN110 29/24 A3004 190 76 1900 VRB/05 RMK AO2 T02890244
53988KBKB BKB20190920130511109/20/19 13:05:31  5-MIN KBKB 201905Z AUTO VRB03KT 10SM BKN110 28/24 A3004 190 76 1800 VRB/03 RMK AO2 T02830239
53988KBKB BKB20190920131011109/20/19 13:10:31  5-MIN KBKB 201910Z AUTO VRB03KT 10SM BKN120 29/24 A3004 190 76 1900 VRB/03 RMK AO2 T02890244
53988KBKB BKB20190920131511809/20/19 13:15:31  5-MIN KBKB 201915Z AUTO VRB03KT 10SM FEW019 BKN120 29/24 A3004 190 74 1900 VRB/03 RMK AO2 T02890239
53988KBKB BKB20190920132011809/20/19 13:20:31  5-MIN KBKB 201920Z AUTO VRB04KT 10SM FEW019 SCT120 29/24 A3004 190 74 1900 VRB/04 RMK AO2 T02890239
53988KBKB BKB20190920132512509/20/19 13:25:31  5-MIN KBKB 201925Z AUTO VRB05KT 10SM FEW021 FEW026 SCT120 29/24 A3003 190 71 1900 VRB/05 RMK AO2 T02940239
53988KBKB BKB20190920133011809/20/19 13:30:31  5-MIN KBKB 201930Z AUTO VRB05KT 10SM SCT023 BKN120 29/24 A3003 200 71 1900 VRB/05 RMK AO2 T02940239
53988KBKB BKB20190920133511809/20/19 13:35:31  5-MIN KBKB 201935Z AUTO VRB04KT 10SM SCT023 BKN120 29/24 A3003 200 74 1900 VRB/04 RMK AO2 T02940244
53988KBKB BKB20190920134011109/20/19 13:40:31  5-MIN KBKB 201940Z AUTO VRB03KT 10SM BKN023 30/24 A3003 200 72 2000 VRB/03 RMK AO2 T03000244
53988KBKB BKB20190920134511809/20/19 13:45:31  5-MIN KBKB 201945Z AUTO VRB05KT 10SM SCT023 BKN110 29/24 A3003 200 71 1900 VRB/05 RMK AO2 T02940239
53988KBKB BKB20190920135011509/20/19 13:50:31  5-MIN KBKB 201950Z AUTO VRB03KT 10SM SCT021 SCT026 BKN110 30/24 A3002 200 72 2000 VRB/03 RMK AO2
53988KBKB BKB20190920135514009/20/19 13:55:31  5-MIN KBKB 201955Z AUTO 18008G15KT 130V240 10SM BKN023 BKN110 29/23 A3003 200 69 1900 180/08G15 130V240 RMK AO2 T02940233
53988KBKB BKB20190920140013109/20/19 14:00:31  5-MIN KBKB 202000Z AUTO VRB06G15KT 10SM SCT023 BKN029 BKN110 27/22 A3003 190 74 1700 VRB/06G15 RMK AO2 T02720222
53988KBKB BKB20190920140513109/20/19 14:05:31  5-MIN KBKB 202005Z AUTO 10SM -RA SCT023 BKN031 OVC110 27/22 A3004 190 73 1600 M /M RMK AO2 RAB04 P0000 T02670217
53988KBKB BKB20190920141014109/20/19 14:10:31  5-MIN KBKB 202010Z AUTO VRB05KT 10SM -RA FEW021 BKN031 OVC110 26/21 A3004 190 76 1500 VRB/05 RMK AO2 RAB04 P0000 T02560211
53988KBKB BKB20190920141514109/20/19 14:15:31  5-MIN KBKB 202015Z AUTO VRB04KT 10SM -RA SCT028 BKN055 OVC085 25/21 A3004 190 79 1400 VRB/04 RMK AO2 RAB04 P0000 T02500211
53988KBKB BKB20190920142014109/20/19 14:20:31  5-MIN KBKB 202020Z AUTO VRB04KT 10SM -RA FEW022 SCT034 OVC060 24/21 A3004 190 81 1400 VRB/04 RMK AO2 RAB04 P0000 T02440211
53988KBKB BKB20190920142517109/20/19 14:25:31  5-MIN KBKB 202025Z AUTO VRB04KT 10SM -RA FEW033 BKN060 OVC075 24/21 A3004 180 81 1400 VRB/04 RMK AO2 RAB04 P0000 T02440 84 1400 000/00 RMK AO2 T02500222
53988KBKB BKB20190920163010809/20/19 16:30:31  5-MIN KBKB 202230Z AUTO 00000KT 10SM CLR 25/22 A3004 190 84 1400 000/00 RMK AO2 T02500222
53988KBKB BKB20190920163510809/20/19 16:35:31  5-MIN KBKB 202235Z AUTO 00000KT 10SM CLR 25/22 A3004 190 84 1400 000/00 RMK AO2 T02500222
53988KBKB BKB20190920164011109/20/19 16:40:31  5-MIN KBKB 202240Z AUTO 00000KT 10SM FEW100 25/22 A3004 190 81 1400 000/00 RMK AO2 T02500217
53988KBKB BKB20190920164511109/20/19 16:45:31  5-MIN KBKB 202245Z AUTO 00000KT 10SM BKN100 25/22 A3004 190 84 1400 000/00 RMK AO2 T02500222
53988KBKB BKB20190920165005609/20/19 16:50:31  5-MIN KBKB 202250Z ARMK AO2 T02500222
53988KBKB BKB20190920165011809/20/19 16:50:31  5-MIN KBKB 202250Z AUTO 00000KT 10SM BKN100 25/22 A3004 190 84 1400 000/00 RMK AO2 SLP198 T02500222
53988KBKB BKB20190920165511109/20/19 16:55:31  5-MIN KBKB 202255Z AUTO 00000KT 10SM BKN100 25/22 A3004 190 84 1400 000/00 RMK AO2 T02500222
53988KBKB BKB20190920170011109/20/19 17:00:31  5-MIN KBKB 202300Z AUTO 00000KT 10SM OVC100 25/22 A3004 190 84 1400 000/00 RMK AO2 T02500222
53988KBKB BKB20190920170015509/20/19 17:00:31  5-MIN KBKB 202300Z AUTO 009/20/19 16:40:31  5-MIN KBKB 202240Z AUTO 00000KT 10SM FEW100 25/22 A3004 190 81 1400 000/00 RMK AO2 T02500217
53988KBKB BKB20190920170511109/20/19 17:05:31  5-MIN KBKB 202305Z AUTO 00000KT 10SM OVC100 25/22 A3004 190 84 1400 000/00 RMK AO2 T02500222
53988KBKB BKB20190920171011109/20/19 17:10:31  5-MIN KBKB 202310Z AUTO 00000KT 10SM OVC100 25/22 A3004 190 84 1400 000/00 RMK AO2 T02500222
53988KBKB BKB20190920171016309/20/19 17:10:31  5-MIN KBKB 202310Z AUTO 00000KT 19 16:50:31  5-MIN KBKB 202250Z AUTO 00000KT 10SM BKN100 25/22 A3004 190 84 1400 000/00 RMK AO2 SLP198 T02500222
53988KBKB BKB20190920171511109/20/19 17:15:31  5-MIN KBKB 202315Z AUTO 00000KT 10SM OVC100 25/23 A3004 180 87 1400 000/00 RMK AO2 T02500228
53988KBKB BKB20190920172011109/20/19 17:20:31  5-MIN KBKB 202320Z AUTO 00000KT 10SM OVC100 25/23 A3004 190 87 1400 000/00 RMK AO2 T02500228
53988KBKB BKB20190920172511109/20/19 17:25:31  5-MIN KBKB 202325Z AUTO 00000KT 10SM BKN100 25/23 A3004 190 87 1400 000/00 RMK AO2 T02500228
53988KBKB BKB20190920173011109/20/19 17:30:31  5-MIN KBKB 202330Z AUTO 00000KT 10SM BKN100 25/23 A3004 190 87 1400 000/00 RMK AO2 T02500228
53988KBKB BKB20190920173014709/20/19 17:30:31  5-MIN KBKB 202330Z AUTO 00000KT 10SM BKN100 25/23 A3004 190 87 1400 000/00 RMK AO2 T02500228160 93 1300 000/00 RMK AO2 T02390228
53988KBKB BKB20190920173511109/20/19 17:35:31  5-MIN KBKB 202335Z AUTO 00000KT 10SM SCT100 25/23 A3004 190 87 1400 000/00 RMK AO2 T02500228
53988KBKB BKB20190920174005009/20/19 17:40:31  5-MIN KBKB 202340Z AUTT02500228
53988KBKB BKB20190920201511009/20/19 20:15:31  5-MIN KBKB 210215Z AUTO 00000KT 8SM OVC120 24/23 A3007 160 93 1300 000/00 RMK AO2 T02390228
53988KBKB BKB20190920202011009/20/19 20:20:31  5-MIN KBKB 210220Z AUTO 00000KT 8SM BKN120 24/23 A3007 160 93 1300 000/00 RMK AO2 T02390228
53988KBKB BKB20190920202511009/20/19 20:25:31  5-MIN KBKB 210225Z AUTO 00000KT 8SM BKN110 24/23 A3007 160 93 1300 000/00 RMK AO2 T02390228
53988KBKB BKB20190920203011009/20/19 20:30:31  5-MIN KBKB 210230Z AUTO 00000KT 7SM SCT110 24/23 A3007 160 93 1300 000/00 RMK AO2 T02390228
53988KBKB BKB20190920203016209/20/19 20:30:31  5-MIN KBKB 210230Z AUTO 00000KT 7SM SCT110 24/23 A3007 160 93 1300 000/00 RMK AO2 T0239022809/20/19 20:357 160 93 1300 000/00 RMK AO2 T02390228
53988KBKB BKB20190920203511009/20/19 20:35:31  5-MIN KBKB 210235Z AUTO 00000KT 7SM SCT110 24/23 A3007 160 93 1300 000/00 RMK AO2 T02390228
53988KBKB BKB20190920204011309/20/19 20:40:31  5-MIN KBKB 210240Z AUTO 00000KT 6SM BR FEW110 23/23 A3008 150 97 1200 000/00 RMK AO2 T02330228
53988KBKB BKB20190920204016309/20/19 20:40:31  5-MIN KBKB 210240Z AUTO 00000KT 6SM BR FEW110 23/23 A3008 150 97 1200 000/00 RMK AO2 T0233022809/20/19 20:45160 93 1300 000/00 RMK AO2 T02390228
53988KBKB BKB20190920204511009/20/19 20:45:31  5-MIN KBKB 210245Z AUTO 00000KT 5SM BR CLR 23/23 A3008 150 97 1200 000/00 RMK AO2 T02330228
53988KBKB BKB20190920205012609/20/19 20:50:31  5-MIN KBKB 210250Z AUTO 00000KT 5SM BR FEW040 23/22 A3008 150 93 1200 000/00 RMK AO2 SLP213 T02330222 55000
53988KBKB BKB20190920205016109/20/19 20:50:31  5-MIN KBKB 210250Z AUTO 00000KT 5SM BR FEW040 23/22 A3008 150 93 1200 000/00 RMK AO2 SLP213 T02330222 5500009/20 1300 000/00 RMK AO2 T02390228
53988KBKB BKB20190920205511309/20/19 20:55:31  5-MIN KBKB 210255Z AUTO 00000KT 5SM BR FEW040 23/22 A3008 150 93 1200 000/00 RMK AO2 T02330222
53988KBKB BKB20190920210011309/20/19 21:00:31  5-MIN KBKB 210300Z AUTO 00000KT 4SM BR FEW040 23/22 A3008 150 93 1200 000/00 RMK AO2 T02330222
53988KBKB BKB20190920210014509/20/19 21:00:31  5-MIN KBKB 210300Z AUTO 00000KT 4SM BR FEW040 23/22 A3008 150 93 1200 000/00 RMK AO2 T0233022297 1200 000/00 RMK AO2 T02330228
53988KBKB BKB20190920210511309/20/19 21:05:31  5-MIN KBKB 210305Z AUTO 00000KT 3SM BR SCT044 23/22 A3008 150 93 1200 000/00 RMK AO2 T02330222
53988KBKB BKB20190920211011309/20/19 21:10:31  5-MIN KBKB 210310Z AUTO 00000KT 3SM BR SCT046 23/22 A3008 150 93 1200 000/00 RMK AO2 T02330222
53988KBKB BKB20190920211015509/20/19 21:10:31  5-MIN KBKB 210310Z AUTO 00000KT 3SM BR SCT046 23/22 A3008 150 93 1200 000/00 /22 A3008 150 93 1200 000/00 RMK AO2 SLP213 T02330222 55000
53988KBKB BKB20190920211507709/20/19 21:15:31  5-MIN KBKB 210315Z AUTO 00000KT 3SM 0/00 RMK AO2 T02220217
53988KBKB BKB20190920224511309/20/19 22:45:31  5-MIN KBKB 210445Z AUTO 00000KT 2SM BR FEW032 23/22 A3008 150 93 1100 000/00 RMK AO2 T02280217
53988KBKB BKB20190920225011509/20/19 22:50:31  5-MIN KBKB 210450Z AUTO 00000KT 2 1/2SM BR SCT034 23/22 A3009 150 93 1100 000/00 RMK AO2 VIS 1V4
53988KBKB BKB20190920225511309/20/19 22:55:31  5-MIN KBKB 210455Z AUTO 00000KT 3SM BR FEW034 23/22 A3009 140 93 1100 000/00 RMK AO2 T02280217
53988KBKB BKB20190920230011309/20/19 23:00:31  5-MIN KBKB 210500Z AUTO 00000KT 3SM BR FEW034 23/22 A3009 140 93 1100 000/00 RMK AO2 T02280217
53988KBKB BKB20190920230511309/20/19 23:05:31  5-MIN KBKB 210505Z AUTO 00000KT 2SM BR FEW034 23/22 A3009 140 93 1100 000/00 RMK AO2 T02280217
53988KBKB BKB20190920231011709/20/19 23:10:31  5-MIN KBKB 210510Z AUTO 00000KT 1 3/4SM BR FEW034 22/22 A3009 140 97 1100 000/00 RMK AO2 T02220217
53988KBKB BKB20190920231511709/20/19 23:15:31  5-MIN KBKB 210515Z AUTO 00000KT 1 3/4SM BR FEW036 22/22 A3009 140 97 1100 000/00 RMK AO2 T02220217
53988KBKB BKB20190920232011409/20/19 23:20:31  5-MIN KBKB 210520Z AUTO 00000KT 1 3/4SM BR CLR 22/22 A3009 140 97 1100 000/00 RMK AO2 T02220217
53988KBKB BKB20190920232511409/20/19 23:25:31  5-MIN KBKB 210525Z AUTO 00000KT 1 1/2SM BR CLR 22/22 A3009 140 97 1100 000/00 RMK AO2 T02220217
53988KBKB BKB20190920233011409/20/19 23:30:31  5-MIN KBKB 210530Z AUTO 00000KT 1 1/2SM BR CLR 22/21 A3009 140 93 1100 000/00 RMK AO2 T02220211
53988KBKB BKB20190920233511409/20/19 23:35:31  5-MIN KBKB 210535Z AUTO 00000KT 1 3/4SM BR CLR 22/21 A3009 140 93 1100 000/00 RMK AO2 T02220211
53988KBKB BKB20190920234011409/20/19 23:40:31  5-MIN KBKB 210540Z AUTO 00000KT 1 1/2SM BR CLR 22/21 A3009 140 93 1100 000/00 RMK AO2 T02220211
53988KBKB BKB20190920234511709/20/19 23:45:31  5-MIN KBKB 210545Z AUTO 00000KT 1 1/4SM BR FEW002 22/21 A3009 140 93 1100 000/00 RMK AO2 T02220211
53988KBKB BKB20190920235010709/20/19 23:50:31  5-MIN KBKB 210550Z AUTO 00000KT 1 1/2SM BR FEW002 22/21 A3009 140 93 1100 000/00 RMK AO2
53988KBKB BKB20190920235512509/20/19 23:55:31  5-MIN KBKB 210555Z AUTO 00000KT 2 1/2SM BR FEW003 22/21 A3009 140 93 1100 000/00 RMK AO2 VIS 1V5 T02220211
53988KBKB BKB20190921000011309/21/19 00:00:31  5-MIN KBKB 210600Z AUTO 00000KT 4SM BR FEW003 22/21 A3009 140 93 1100 000/00 RMK AO2 T02220211
53988KBKB BKB20190921000511709/21/19 00:05:31  5-MIN KBKB 210605Z AUTO 00000KT 2 1/2SM BR FEW003 22/21 A3009 140 93 1100 000/00 RMK AO2 T02220211
53988KBKB BKB20190921001012509/21/19 00:10:31  5-MIN KBKB 210610Z AUTO 00000KT 2 1/2SM BR FEW003 22/21 A3009 140 93 1100 000/00 RMK AO2 VIS 1V5 T02220211
53988KBKB BKB20190921001511009/21/19 00:15:31  5-MIN KBKB 210615Z AUTO 00000KT 5SM BR CLR 22/21 A3009 140 93 1100 000/00 RMK AO2 T02220211
53988KBKB BKB20190921002011009/21/19 00:20:31  5-MIN KBKB 210620Z AUTO 00000KT 6SM BR CLR 22/21 A3009 140 93 1100 000/00 RMK AO2 T02220211
53988KBKB BKB20190921002511009/21/19 00:25:31  5-MIN KBKB 210625Z AUTO 00000KT 6SM BR CLR 22/22 A3009 150 97 1100 000/00 RMK AO2 T02220217
53988KBKB BKB20190921003011009/21/19 00:30:31  5-MIN KBKB 210630Z AUTO 00000KT 6SM BR CLR 22/22 A3009 150 97 1100 000/00 RMK AO2 T02220217
53988KBKB BKB20190921003510709/21/19 00:35:31  5-MIN KBKB 210635Z AUTO 00000KT 7SM CLR 22/22 A3009 140 97 1100 000/00 RMK AO2 T02220217
53988KBKB BKB20190921004010709/21/19 00:40:31  5-MIN KBKB 210640Z AUTO 00000KT 8SM CLR 23/22 A3009 140 93 1100 000/00 RMK AO2 T02280217
53988KBKB BKB20190921004510709/21/19 00:45:31  5-MIN KBKB 210645Z AUTO 00000KT 9SM CLR 23/22 A3009 140 93 1100 000/00 RMK AO2 T02280217
53988KBKB BKB20190921005011409/21/19 00:50:31  5-MIN KBKB 210650Z AUTO 00000KT 9SM CLR 23/22 A3009 140 93 1100 000/00 RMK AO2 SLP214 T02280217
53988KBKB BKB20190921005510709/21/19 00:55:31  5-MIN KBKB 210655Z AUTO 00000KT 8SM CLR 22/22 A3009 140 97 1100 000/00 RMK AO2 T02220217
53988KBKB BKB20190921010010709/21/19 01:00:31  5-MIN KBKB 210700Z AUTO 00000KT 8SM CLR 22/22 A3008 150 97 1100 000/00 RMK AO2 T02220217
53988KBKB BKB20190921010510709/21/19 01:05:31  5-MIN KBKB 210705Z AUTO 00000KT 7SM CLR 22/22 A3008 150 97 1100 000/00 RMK AO2 T02220217
53988KBKB BKB20190921011010709/21/19 01:10:31  5-MIN KBKB 210710Z AUTO 00000KT 7SM CLR 23/22 A3008 150 93 1100 000/00 RMK AO2 T02280217
53988KBKB BKB20190921011510709/21/19 01:15:31  5-MIN KBKB 210715Z AUTO 00000KT 8SM CLR 23/22 A3008 150 93 1100 000/00 RMK AO2 T02280217
53988KBKB BKB20190921012010709/21/19 01:20:31  5-MIN KBKB 210720Z AUTO 00000KT 8SM CLR 23/22 A3008 150 93 1100 000/00 RMK AO2 T02280217
53988KBKB BKB20190921012510709/21/19 01:25:31  5-MIN KBKB 210725Z AUTO 12003KT 8SM CLR 22/22 A3008 150 97 1100 120/03 RMK AO2 T02220217
53988KBKB BKB20190921013010709/21/19 01:30:31  5-MIN KBKB 210730Z AUTO 13004KT 9SM CLR 23/22 A3008 150 93 1100 120/04 RMK AO2 T02280217
53988KBKB BKB20190921013510809/21/19 01:35:31  5-MIN KBKB 210735Z AUTO VRB03KT 10SM CLR 23/22 A3008 150 93 1100 VRB/03 RMK AO2 T02280217
53988KBKB BKB20190921014010809/21/19 01:40:31  5-MIN KBKB 210740Z AUTO VRB03KT 10SM CLR 23/22 A3008 150 93 1100 VRB/03 RMK AO2 T02280217
53988KBKB BKB20190921014510809/21/19 01:45:31  5-MIN KBKB 210745Z AUTO 00000KT 10SM CLR 23/22 A3008 150 93 1100 000/00 RMK AO2 T02280217
53988KBKB BKB20190921015011509/21/19 01:50:31  5-MIN KBKB 210750Z AUTO VRB03KT 10SM CLR 23/22 A3007 160 93 1100 VRB/03 RMK AO2 SLP209 T02280217
53988KBKB BKB20190921015510809/21/19 01:55:31  5-MIN KBKB 210755Z AUTO 00000KT 10SM CLR 23/22 A3007 160 93 1100 000/00 RMK AO2 T02280217
53988KBKB BKB20190921020010809/21/19 02:00:31  5-MIN KBKB 210800Z AUTO VRB03KT 10SM CLR 23/22 A3007 160 93 1100 VRB/03 RMK AO2 T02280217
53988KBKB BKB20190921020510809/21/19 02:05:31  5-MIN KBKB 210805Z AUTO VRB04KT 10SM CLR 23/22 A3007 160 93 1100 VRB/04 RMK AO2 T02280217
53988KBKB BKB20190921021008109/21/19 02:10:31  5-MIN KBKB 210810Z AUTO VRB04KT 10SM0 000/00 RMK AO2 T02110206
53988KBKB BKB20190921060017009/21/19 06:00:31  5-MIN KBKB 211200Z AUTO 00000KT 2SM BR CLR 21/21 A3010 130 M BR CLR 22/21 A3010 140 93 1000 000/00 RMK AO2 T02170206130 97 900 000/00 RMK AO2 T02110206
53988KBKB BKB20190921061011309/21/19 06:10:31  5-MIN KBKB 211210Z AUTO 00000KT 2 1/2SM BR CLR 21/21 A3010 130 97 900 000/00 RMK AO2 T02110206
53988KBKB BKB20190921061510909/21/19 06:15:31  5-MIN KBKB 211215Z AUTO 00000KT 3SM BR CLR 21/21 A3011 130 97 900 000/00 RMK AO2 T02110206
53988KBKB BKB20190921062010909/21/19 06:20:31  5-MIN KBKB 211220Z AUTO 00000KT 3SM BR CLR 21/21 A3011 120 97 900 000/00 RMK AO2 T02110206
53988KBKB BKB20190921062016509/21/19 06:20:31  5-MIN KBKB 211220Z AUTO 00000KT 3SM BR CLR 21 06:00:31  5-MIN KBKB 211200Z AUTO 00000KT 2SM BR CLR 21/21 A3010 130 97 900 000/00 RMK AO2 T02110206
53988KBKB BKB20190921062510009/21/19 06:25:31  5-MIN KBKB 211225Z AUTO 4SM BR CLR 22/21 A3011 120 93 1000 M /M RMK AO2 T02170206
53988KBKB BKB20190921063011009/21/19 06:30:31  5-MIN KBKB 211230Z AUTO 00000KT 6SM BR CLR 22/21 A3011 120 93 1000 000/00 RMK AO2 T02170206
53988KBKB BKB20190921063509709/21/19 06:35:31  5-MIN KBKB 211235Z AUTO 7SM CLR 22/21 A3011 120 93 1000 M /M RMK AO2 T02170206
53988KBKB BKB20190921064010709/21/19 06:40:31  5-MIN KBKB 211240Z AUTO 00000KT 8SM CLR 22/21 A3011 120 97 1000 000/00 RMK AO2 T02170211
53988KBKB BKB20190921064507809/21/19 06:45:31  5-MIN KBKB 211245Z AUTO 00000KT 9SM CLR 22/21 A3011 120 936
53988KBKB BKB20190921064510709/21/19 06:45:31  5-MIN KBKB 211245Z AUTO 00000KT 9SM CLR 22/21 A3011 120 93 1000 000/00 RMK AO2 T02220211
53988KBKB BKB20190921065011509/21/19 06:50:31  5-MIN KBKB 211250Z AUTO 00000KT 10SM CLR 22/21 A3011 120 93 1000 000/00 RMK AO2 SLP224 T02220211
53988KBKB BKB20190921065509809/21/19 06:55:31  5-MIN KBKB 211255Z AUTO 10SM CLR 23/21 A3012 120 90 1100 M /M RMK AO2 T02280211
53988KBKB BKB20190921070010809/21/19 07:00:31  5-MIN KBKB 211300Z AUTO 00000KT 10SM CLR 23/21 A3012 120 90 1100 000/00 RMK AO2 T02280211
53988KBKB BKB20190921070506709/21/19 07:05:31  5-MIN KBKB 211305Z AUTO VRB03KT 10SM CLR 23/2128
53988KBKB BKB20190921070518309/21/19 07:05:31  5-MIN KBKB 211305Z AUTO VRB03KT 10SM CLR 23/21 A3012 1/19 06:45:31  5-MIN KBKB 211245Z AUTO 00000KT 9SM CLR 22/21 A3011 120  93 1000 000/00 RMK AO2 SLP224 T02220211
53988KBKB BKB20190921094511109/21/19 09:45:31  5-MIN KBKB 211545Z AUTO VRB04KT 10SM FEW022 29/23 A3013 100 69 1800 VRB/04 RMK AO2 T02890228
53988KBKB BKB20190921095011809/21/19 09:50:31  5-MIN KBKB 211550Z AUTO VRB03KT 10SM FEW022 29/23 A3013 100 69 1800 VRB/03 RMK AO2 SLP229 T02890228
53988KBKB BKB20190921095510109/21/19 09:55:31  5-MIN KBKB 211555Z AUTO 10SM FEW022 29/23 A3013 100 67 1800 M /M RMK AO2 T02940228
53988KBKB BKB20190921100011109/21/19 10:00:31  5-MIN KBKB 211600Z AUTO VRB05KT 10SM FEW022 29/22 A3013 100 64 1800 VRB/05 RMK AO2 T02940222
53988KBKB BKB20190921100511109/21/19 10:05:31  5-MIN KBKB 211605Z AUTO 00000KT 10SM FEW022 30/23 A3013 110 65 1900 000/00 RMK AO2 T03000228
53988KBKB BKB20190921101010809/21/19 10:10:31  5-MIN KBKB 211610Z AUTO 10SM FEW022 FEW029 29/22 A3013 110 64 1800 M /M RMK AO2 T02940222
53988KBKB BKB20190921101506309/21/19 10:15:31  5-MIN KBKB 211615Z AUTO VRB05KT 29 T02890228
53988KBKB BKB20190921101511809/21/19 10:15:31  5-MIN KBKB 211615Z AUTO VRB05KT 10SM FEW024 FEW029 29/22 A3013 110 64 1800 VRB/05 RMK AO2 T02940222
53988KBKB BKB20190921102011109/21/19 10:20:31  5-MIN KBKB 211620Z AUTO VRB06KT 10SM FEW026 29/22 A3012 110 64 1800 VRB/06 RMK AO2 T02940222
53988KBKB BKB20190921102511109/21/19 10:25:31  5-MIN KBKB 211625Z AUTO VRB04KT 10SM FEW026 29/22 A3012 110 64 1800 VRB/04 RMK AO2 T02940222
53988KBKB BKB20190921103011109/21/19 10:30:31  5-MIN KBKB 211630Z AUTO VRB06KT 10SM FEW026 30/22 A3012 110 62 1900 VRB/06 RMK AO2 T03000222
53988KBKB BKB20190921103511109/21/19 10:35:31  5-MIN KBKB 211635Z AUTO VRB05KT 10SM FEW026 30/22 A3012 110 60 1900 VRB/05 RMK AO2 T03000217
53988KBKB BKB20190921104011109/21/19 10:40:31  5-MIN KBKB 211640Z AUTO VRB04KT 10SM SCT026 29/22 A3012 110 62 1800 VRB/04 RMK AO2 T02940217
53988KBKB BKB20190921104511109/21/19 10:45:31  5-MIN KBKB 211645Z AUTO VRB03KT 10SM SCT028 30/22 A3012 110 62 1900 VRB/03 RMK AO2 T03000222
53988KBKB BKB20190921105011809/21/19 10:50:31  5-MIN KBKB 211650Z AUTO 12006KT 10SM SCT028 29/22 A3012 110 64 1800 120/06 RMK AO2 SLP225 T02940222
53988KBKB BKB20190921105511809/21/19 10:55:31  5-MIN KBKB 211655Z AUTO VRB03KT 10SM SCT028 SCT035 30/22 A3012 110 62 1900 VRB/03 RMK AO2 T03000222
53988KBKB BKB20190921110011809/21/19 11:00:31  5-MIN KBKB 211700Z AUTO VRB05KT 10SM SCT028 SCT035 30/22 A3012 110 60 1900 VRB/05 RMK AO2 T03000217
53988KBKB BKB20190921110511809/21/19 11:05:31  5-MIN KBKB 211705Z AUTO VRB04KT 10SM SCT030 BKN035 30/22 A3012 110 60 1900 VRB/04 RMK AO2 T03000217
53988KBKB BKB20190921111011109/21/19 11:10:31  5-MIN KBKB 211710Z AUTO VRB04KT 10SM SCT032 30/22 A3012 120 60 1900 VRB/04 RMK AO2 T03000217
53988KBKB BKB20190921111511109/21/19 11:15:31  5-MIN KBKB 211715Z AUTO VRB04KT 10SM SCT032 31/22 A3012 120 58 2000 VRB/04 RMK AO2 T03060217
53988KBKB BKB20190921112011109/21/19 11:20:31  5-MIN KBKB 211720Z AUTO VRB03KT 10SM SCT032 31/22 A3011 120 58 2000 VRB/03 RMK AO2 T03060217
53988KBKB BKB20190921112511109/21/19 11:25:31  5-MIN KBKB 211725Z AUTO VRB03KT 10SM SCT032 31/21 A3012 120 56 2000 VRB/03 RMK AO2 T03060211
53988KBKB BKB20190921113011109/21/19 11:30:31  5-MIN KBKB 211730Z AUTO VRB04KT 10SM SCT033 32/22 A3012 120 56 2100 VRB/04 RMK AO2 T03170222
53988KBKB BKB20190921113511809/21/19 11:35:31  5-MIN KBKB 211735Z AUTO VRB03KT 10SM SCT035 SCT045 31/22 A3011 120 56 2000 VRB/03 RMK AO2 T03110217
53988KBKB BKB20190921114011809/21/19 11:40:31  5-MIN KBKB 211740Z AUTO VRB03KT 10SM SCT035 SCT045 30/22 A3011 120 60 1900 VRB/03 RMK AO2 T03000217
53988KBKB BKB20190921114511809/21/19 11:45:31  5-MIN KBKB 211745Z AUTO VRB04KT 10SM FEW035 SCT045 31/22 A3011 120 56 2000 VRB/04 RMK AO2 T03110217
53988KBKB BKB20190921115014309/21/19 11:50:31  5-MIN KBKB 211750Z AUTO VRB04KT 10SM FEW035 SCT044 31/21 A3011 130 54 2000 VRB/04 RMK AO2 SLP220 T03110211 10317 20211 51010
53988KBKB BKB20190921115511809/21/19 11:55:31  5-MIN KBKB 211755Z AUTO VRB06KT 10SM FEW037 SCT046 31/21 A3011 130 54 2000 VRB/06 RMK AO2 T03110211
53988KBKB BKB20190921120011809/21/19 12:00:31  5-MIN KBKB 211800Z AUTO VRB03KT 10SM FEW039 FEW046 31/21 A3010 130 56 2000 VRB/03 RMK AO2 T03060211
53988KBKB BKB20190921120511809/21/19 12:05:31  5-MIN KBKB 211805Z AUTO VRB04KT 10SM FEW039 FEW046 31/22 A3010 130 56 2000 VRB/04 RMK AO2 T03110217
53988KBKB BKB20190921121011109/21/19 12:10:31  5-MIN KBKB 211810Z AUTO VRB04KT 10SM FEW047 30/21 A3010 130 58 1900 VRB/04 RMK AO2 T03000211
53988KBKB BKB20190921121511809/21/19 12:15:31  5-MIN KBKB 211815Z AUTO VRB05KT 10SM FEW050 SCT070 30/21 A3010 130 58 1900 VRB/05 RMK AO2 T03000211
53988KBKB BKB20190921122011809/21/19 12:20:31  5-MIN KBKB 211820Z AUTO 12006KT 10SM FEW050 FEW070 31/21 A3010 130 54 2000 110/06 RMK AO2 T03110211
53988KBKB BKB20190921122511109/21/19 12:25:31  5-MIN KBKB 211825Z AUTO VRB04KT 10SM FEW050 31/22 A3009 140 56 2100 VRB/04 RMK AO2 T03110217
53988KBKB BKB20190921123011109/21/19 12:30:31  5-MIN KBKB 211830Z AUTO VRB04KT 10SM FEW050 31/21 A3009 140 56 2000 VRB/04 RMK AO2 T03060211
53988KBKB BKB20190921123511109/21/19 12:35:31  5-MIN KBKB 211835Z AUTO VRB03KT 10SM FEW050 31/21 A3009 140 56 2000 VRB/03 RMK AO2 T03060211
53988KBKB BKB20190921124011109/21/19 12:40:31  5-MIN KBKB 211840Z AUTO VRB04KT 10SM FEW050 31/21 A3009 140 54 2100 VRB/04 RMK AO2 T03110211
53988KBKB BKB20190921124510809/21/19 12:45:31  5-MIN KBKB 211845Z AUTO 00000KT 10SM CLR 31/22 A3009 140 58 2000 000/00 RMK AO2 T03060217
53988KBKB BKB20190921125011509/21/19 12:50:31  5-MIN KBKB 211850Z AUTO VRB05KT 10SM CLR 32/22 A3008 150 53 2200 VRB/05 RMK AO2 SLP212 T03220217
53988KBKB BKB20190921125510809/21/19 12:55:31  5-MIN KBKB 211855Z AUTO VRB03KT 10SM CLR 31/21 A3008 150 54 2100 VRB/03 RMK AO2 T03110211
53988KBKB BKB20190921130010809/21/19 13:00:31  5-MIN KBKB 211900Z AUTO 00000KT 10SM CLR 32/21 A3008 150 53 2100 000/00 RMK AO2 T03170211
53988KBKB BKB20190921130511109/21/19 13:05:31  5-MIN KBKB 211905Z AUTO VRB03KT 10SM SCT042 31/21 A3008 150 53 2100 VRB/03 RMK AO2 T03110206
53988KBKB BKB20190921131011109/21/19 13:10:31  5-MIN KBKB 211910Z AUTO VRB03KT 10SM SCT042 32/21 A3007 160 51 2100 VRB/03 RMK AO2 T03170206
53988KBKB BKB20190921131511109/21/19 13:15:31  5-MIN KBKB 211915Z AUTO VRB04KT 10SM FEW042 32/21 A3007 160 51 2200 VRB/04 RMK AO2 T03220211
53988KBKB BKB20190921132011109/21/19 13:20:31  5-MIN KBKB 211920Z AUTO VRB03KT 10SM FEW043 31/21 A3007 160 54 2000 VRB/03 RMK AO2 T03060206
53988KBKB BKB20190921132511109/21/19 13:25:31  5-MIN KBKB 211925Z AUTO 00000KT 10SM FEW043 32/21 A3007 160 53 2100 000/00 RMK AO2 T03170211
53988KBKB BKB20190921133011109/21/19 13:30:31  5-MIN KBKB 211930Z AUTO VRB06KT 10SM FEW043 33/22 A3007 160 51 2300 VRB/06 RMK AO2 T03280217
53988KBKB BKB20190921133510809/21/19 13:35:31  5-MIN KBKB 211935Z AUTO VRB04KT 10SM CLR 32/21 A3006 170 51 2200 VRB/04 RMK AO2 T03170206
53988KBKB BKB20190921134011109/21/19 13:40:31  5-MIN KBKB 211940Z AUTO VRB04KT 10SM FEW046 32/21 A3006 170 49 2200 VRB/04 RMK AO2 T03220206
53988KBKB BKB20190921134511109/21/19 13:45:31  5-MIN KBKB 211945Z AUTO VRB04KT 10SM FEW046 31/21 A3006 170 53 2100 VRB/04 RMK AO2 T03110206
53988KBKB BKB20190921135011809/21/19 13:50:31  5-MIN KBKB 211950Z AUTO 00000KT 10SM SCT050 32/20 A3006 170 49 2200 000/00 RMK AO2 SLP203 T03170200
53988KBKB BKB20190921135511809/21/19 13:55:31  5-MIN KBKB 211955Z AUTO VRB04KT 10SM SCT047 SCT055 32/21 A3006 170 49 2200 VRB/04 RMK AO2 T03220206
53988KBKB BKB20190921140011109/21/19 14:00:31  5-MIN KBKB 212000Z AUTO 10005KT 10SM FEW047 32/20 A3005 180 48 2200 100/05 RMK AO2 T03220200
53988KBKB BKB20190921140511109/21/19 14:05:31  5-MIN KBKB 212005Z AUTO VRB03KT 10SM SCT047 33/21 A3005 180 48 2300 VRB/03 RMK AO2 T03280206
53988KBKB BKB20190921141011809/21/19 14:10:31  5-MIN KBKB 212010Z AUTO VRB03KT 10SM BKN045 BKN055 33/21 A3005 180 49 2300 VRB/03 RMK AO2 T03280211
53988KBKB BKB20190921141512509/21/19 14:15:31  5-MIN KBKB 212015Z AUTO 10005KT 10SM SCT045 BKN055 BKN085 32/21 A3005 180 53 2200 100/05 RMK AO2 T03170211
53988KBKB BKB20190921142012509/21/19 14:20:31  5-MIN KBKB 212020Z AUTO 00000KT 10SM FEW045 SCT060 SCT085 32/21 A3005 180 53 2200 000/00 RMK AO2 T03170211
53988KBKB BKB20190921142510809/21/19 14:25:31  5-MIN KBKB 212025Z AUTO 10SM FEW045 SCT055 33/21 A3005 180 49 2300 M /M RMK AO2 T03280211
53988KBKB BKB20190921143011809/21/19 14:30:31  5-MIN KBKB 212030Z AUTO VRB04KT 10SM SCT045 BKN055 32/21 A3004 180 51 2200 VRB/04 RMK AO2 T03220211
53988KBKB BKB20190921143511809/21/19 14:35:31  5-MIN KBKB 212035Z AUTO VRB03KT 10SM BKN047 BKN060 33/21 A3004 190 49 2300 VRB/03 RMK AO2 T03280211
53988KBKB BKB20190921144012509/21/19 14:40:31  5-MIN KBKB 212040Z AUTO VRB04KT 10SM FEW043 SCT050 BKN060 32/21 A3004 190 51 2200 VRB/04 RMK AO2 T03220211
53988KBKB BKB20190921144511109/21/19 14:45:31  5-MIN KBKB 212045Z AUTO VRB05KT 10SM SCT048 33/21 A3003 190 48 2300 VRB/05 RMK AO2 T03280206
53988KBKB BKB20190921145012409/21/19 14:50:31  5-MIN KBKB 212050Z AUTO VRB04KT 10SM SCT048 32/21 A3003 190 49 2200 VRB/04 RMK AO2 SLP195 T03220206 58009
53988KBKB BKB20190921145511109/21/19 14:55:31  5-MIN KBKB 212055Z AUTO 12005KT 10SM FEW048 33/21 A3003 190 49 2300 110/05 RMK AO2 T03280211
53988KBKB BKB20190921150011109/21/19 15:00:31  5-MIN KBKB 212100Z AUTO 12005KT 10SM FEW050 32/21 A3003 200 49 2200 120/05 RMK AO2 T03220206
53988KBKB BKB20190921150510809/21/19 15:05:31  5-MIN KBKB 212105Z AUTO VRB05KT 10SM CLR 32/21 A3003 200 49 2200 VRB/05 RMK AO2 T03220206
53988KBKB BKB20190921151010809/21/19 15:10:31  5-MIN KBKB 212110Z AUTO VRB03KT 10SM CLR 33/21 A3003 200 48 2300 VRB/03 RMK AO2 T03280206
53988KBKB BKB20190921151510809/21/19 15:15:31  5-MIN KBKB 212115Z AUTO VRB03KT 10SM CLR 32/21 A3003 200 49 2300 VRB/03 RMK AO2 T03220206
53988KBKB BKB20190921152010809/21/19 15:20:31  5-MIN KBKB 212120Z AUTO 00000KT 10SM CLR 33/21 A3003 200 48 2300 000/00 RMK AO2 T03280206
53988KBKB BKB20190921152510809/21/19 15:25:31  5-MIN KBKB 212125Z AUTO VRB04KT 10SM CLR 33/21 A3002 200 48 2300 VRB/04 RMK AO2 T03280206
53988KBKB BKB20190921153010809/21/19 15:30:31  5-MIN KBKB 212130Z AUTO VRB05KT 10SM CLR 32/21 A3002 200 49 2300 VRB/05 RMK AO2 T03220206
53988KBKB BKB20190921153510809/21/19 15:35:31  5-MIN KBKB 212135Z AUTO VRB04KT 10SM CLR 32/20 A3002 210 48 2300 VRB/04 RMK AO2 T03220200
53988KBKB BKB20190921154010809/21/19 15:40:31  5-MIN KBKB 212140Z AUTO VRB03KT 10SM CLR 33/21 A3002 210 48 2300 VRB/03 RMK AO2 T03280206
53988KBKB BKB20190921154510809/21/19 15:45:31  5-MIN KBKB 212145Z AUTO 14005KT 10SM CLR 32/20 A3002 210 48 2300 140/05 RMK AO2 T03220200
53988KBKB BKB20190921155011509/21/19 15:50:31  5-MIN KBKB 212150Z AUTO VRB03KT 10SM CLR 32/20 A3002 210 48 2300 VRB/03 RMK AO2 SLP189 T03220200
53988KBKB BKB20190921155510809/21/19 15:55:31  5-MIN KBKB 212155Z AUTO VRB03KT 10SM CLR 32/20 A3002 210 48 2300 VRB/03 RMK AO2 T03220200
53988KBKB BKB20190921160010809/21/19 16:00:31  5-MIN KBKB 212200Z AUTO 00000KT 10SM CLR 32/21 A3001 210 49 2300 000/00 RMK AO2 T03220206
53988KBKB BKB20190921160510809/21/19 16:05:31  5-MIN KBKB 212205Z AUTO 00000KT 10SM CLR 32/21 A3001 210 49 2300 000/00 RMK AO2 T03220206
53988KBKB BKB20190921161010809/21/19 16:10:31  5-MIN KBKB 212210Z AUTO 10004KT 10SM CLR 32/21 A3001 210 49 2300 100/04 RMK AO2 T03220206
53988KBKB BKB20190921161510809/21/19 16:15:31  5-MIN KBKB 212215Z AUTO VRB03KT 10SM CLR 32/21 A3002 210 49 2300 VRB/03 RMK AO2 T03220206
53988KBKB BKB20190921162010809/21/19 16:20:31  5-MIN KBKB 212220Z AUTO 14004KT 10SM CLR 32/21 A3002 210 49 2300 140/04 RMK AO2 T03220206
53988KBKB BKB20190921162510809/21/19 16:25:31  5-MIN KBKB 212225Z AUTO VRB03KT 10SM CLR 32/20 A3002 210 49 2200 VRB/03 RMK AO2 T03170200
53988KBKB BKB20190921163010809/21/19 16:30:31  5-MIN KBKB 212230Z AUTO 00000KT 10SM CLR 32/20 A3002 210 49 2200 000/00 RMK AO2 T03170200
53988KBKB BKB20190921163510809/21/19 16:35:31  5-MIN KBKB 212235Z AUTO 00000KT 10SM CLR 32/19 A3002 210 47 2200 000/00 RMK AO2 T03170194
53988KBKB BKB20190921164010809/21/19 16:40:31  5-MIN KBKB 212240Z AUTO VRB03KT 10SM CLR 32/20 A3002 210 49 2200 VRB/03 RMK AO2 T03170200
53988KBKB BKB20190921164510809/21/19 16:45:31  5-MIN KBKB 212245Z AUTO VRB04KT 10SM CLR 32/21 A3002 210 51 2200 VRB/04 RMK AO2 T03170206
53988KBKB BKB20190921165011509/21/19 16:50:31  5-MIN KBKB 212250Z AUTO VRB03KT 10SM CLR 32/20 A3002 210 49 2200 VRB/03 RMK AO2 SLP190 T03170200
53988KBKB BKB20190921165510809/21/19 16:55:31  5-MIN KBKB 212255Z AUTO VRB03KT 10SM CLR 31/20 A3002 210 51 2100 VRB/03 RMK AO2 T03110200
53988KBKB BKB20190921170022509/21/19 17:00:31  5-MIN KBKB 212300Z AUTO VRB03KT 10SM CLR 31/21 A3002 210 53 2100 VRB/03 RMK AO2 T0311020609/21/19 17:0 212350Z AUTO 00000KT 10SM CLR 28/22 A3003 200 69 1800 000/00 RMK AO2 SLP193 T02780217 10333 20278 56024
53988KBKB BKB20190921175510809/21/19 17:55:31  5-MIN KBKB 212355Z AUTO 00000KT 10SM CLR 28/22 A3002 200 69 1800 000/00 RMK AO2 T02780217
53988KBKB BKB20190921180010809/21/19 18:00:31  5-MIN KBKB 220000Z AUTO 00000KT 10SM CLR 28/22 A3002 200 69 1800 000/00 RMK AO2 T02780217
53988KBKB BKB20190921180510809/21/19 18:05:31  5-MIN KBKB 220005Z AUTO 00000KT 10SM CLR 27/22 A3002 200 73 1600 000/00 RMK AO2 T02670217
53988KBKB BKB20190921181010809/21/19 18:10:31  5-MIN KBKB 220010Z AUTO 00000KT 10SM CLR 27/22 A3002 210 73 1600 000/00 RMK AO2 T02670217
53988KBKB BKB20190921181017009/21/19 18:10:31  5-MIN KBKB 220010Z AUTO 00000KT 10SM CLR 27/22 A3002 210 73  00000KT 10SM CLR 28/22 A3003 200 69 1800 000/00 RMK AO2 SLP193 T02780217 10333 20278 56024
53988KBKB BKB20190921181510809/21/19 18:15:31  5-MIN KBKB 220015Z AUTO 00000KT 10SM CLR 27/22 A3002 210 73 1600 000/00 RMK AO2 T02670217
53988KBKB BKB20190921182011109/21/19 18:20:31  5-MIN KBKB 220020Z AUTO VRB06KT 10SM FEW047 27/22 A3003 200 71 1700 VRB/06 RMK AO2 T02720217
53988KBKB BKB20190921182017009/21/19 18:20:31  5-MIN KBKB 220020Z AUTO VRB06KT 10SM FEW047 27/22 A3003 200 71 1700 VRB/06 RM00Z AUTO 00000KT 10SM CLR 28/22 A3002 200 69 1800 000/00 RMK AO2 T02780217
53988KBKB BKB20190921182511109/21/19 18:25:31  5-MIN KBKB 220025Z AUTO VRB06KT 10SM FEW047 28/22 A3003 200 69 1800 VRB/06 RMK AO2 T02780217
53988KBKB BKB20190921183011109/21/19 18:30:31  5-MIN KBKB 220030Z AUTO VRB03KT 10SM FEW047 28/22 A3003 200 69 1800 VRB/03 RMK AO2 T02780217
53988KBKB BKB20190921183511109/21/19 18:35:31  5-MIN KBKB 220035Z AUTO VRB03KT 10SM FEW047 27/22 A3003 200 71 1700 VRB/03 RMK AO2 T02720217
53988KBKB BKB20190921184011109/21/19 18:40:31  5-MIN KBKB 220040Z AUTO 00000KT 10SM FEW046 27/22 A3003 190 71 1700 000/00 RMK AO2 T02720217
53988KBKB BKB20190921184510109/21/19 18:45:31  5-MIN KBKB 220045Z AUTO 10SM FEW046 27/22 A3004 190 71 1700 M /M RMK AO2 T02720217
53988KBKB BKB20190921185011509/21/19 18:50:31  5-MIN KBKB 220050Z AUTO VRB03KT 10SM CLR 27/22 A3004 190 73 1600 VRB/03 RMK AO2 SLP198 T02670217
53988KBKB BKB20190921185509809/21/19 18:55:31  5-MIN KBKB 220055Z AUTO 10SM CLR 27/22 A3004 190 73 1600 M /M RMK AO2 T02670217
53988KBKB BKB20190921190010809/21/19 19:00:31  5-MIN KBKB 220100Z AUTO VRB03KT 10SM CLR 27/22 A3004 190 73 1600 VRB/03 RMK AO2 T02670217
53988KBKB BKB20190921190510809/21/19 19:05:31  5-MIN KBKB 220105Z AUTO 14003KT 10SM CLR 27/22 A3004 190 73 1600 140/03 RMK AO2 T02670217
53988KBKB BKB20190921191011109/21/19 19:10:31  5-MIN KBKB 220110Z AUTO 00000KT 10SM FEW042 27/22 A3004 180 73 1600 000/00 RMK AO2 T02670217
53988KBKB BKB20190921191511109/21/19 19:15:31  5-MIN KBKB 220115Z AUTO VRB03KT 10SM SCT042 27/22 A3005 180 73 1600 VRB/03 RMK AO2 T02670217
53988KBKB BKB20190921192011109/21/19 19:20:31  5-MIN KBKB 220120Z AUTO VRB03KT 10SM SCT042 27/21 A3005 180 71 1600 VRB/03 RMK AO2 T02670211
53988KBKB BKB20190921192511109/21/19 19:25:31  5-MIN KBKB 220125Z AUTO VRB04KT 10SM BKN042 27/22 A3005 180 73 1600 VRB/04 RMK AO2 T02670217
53988KBKB BKB20190921193011809/21/19 19:30:31  5-MIN KBKB 220130Z AUTO 00000KT 10SM BKN044 BKN055 27/21 A3005 180 71 1600 000/00 RMK AO2 T02670211
53988KBKB BKB20190921193512509/21/19 19:35:31  5-MIN KBKB 220135Z AUTO 00000KT 10SM SCT044 BKN050 BKN065 27/22 A3005 180 73 1600 000/00 RMK AO2 T02670217
53988KBKB BKB20190921194011809/21/19 19:40:31  5-MIN KBKB 220140Z AUTO 00000KT 10SM SCT044 OVC060 26/22 A3005 180 76 1500 000/00 RMK AO2 T02610217
53988KBKB BKB20190921194511809/21/19 19:45:31  5-MIN KBKB 220145Z AUTO VRB03KT 10SM FEW044 OVC060 26/22 A3005 180 76 1500 VRB/03 RMK AO2 T02610217
53988KBKB BKB20190921195012509/21/19 19:50:31  5-MIN KBKB 220150Z AUTO VRB04KT 10SM FEW046 BKN060 26/22 A3005 180 76 1500 VRB/04 RMK AO2 SLP202 T02610217
53988KBKB BKB20190921195511809/21/19 19:55:31  5-MIN KBKB 220155Z AUTO VRB03KT 10SM FEW050 BKN060 26/22 A3006 170 76 1500 VRB/03 RMK AO2 T02610217
53988KBKB BKB20190921200011109/21/19 20:00:31  5-MIN KBKB 220200Z AUTO 00000KT 10SM BKN060 26/22 A3006 170 76 1500 000/00 RMK AO2 T02610217
53988KBKB BKB20190921200011809/21/19 20:00:31  5-MIN KBKB 220200Z AUTO 00000KT 10SM BKN060 26/22 A3006 170 76 1500 000/00 RMK AO2 T0261021709/21/2
53988KBKB BKB20190921200511109/21/19 20:05:31  5-MIN KBKB 220205Z AUTO 00000KT 10SM BKN060 26/22 A3006 170 76 1500 000/00 RMK AO2 T02610217
53988KBKB BKB20190921201011109/21/19 20:10:31  5-MIN KBKB 220210Z AUTO VRB03KT 10SM SCT060 26/22 A3006 170 79 1500 VRB/03 RMK AO2 T02560217
53988KBKB BKB20190921201511109/21/19 20:15:31  5-MIN KBKB 220215Z AUTO 13003KT 10SM FEW060 26/22 A3007 160 81 1500 130/03 RMK AO2 T02560222
53988KBKB BKB20190921202012509/21/19 20:20:31  5-MIN KBKB 220220Z AUTO VRB03KT 10SM FEW036 FEW050 SCT060 26/22 A3007 160 81 1500 VRB/03 RMK AO2 T02560222
53988KBKB BKB20190921202511809/21/19 20:25:31  5-MIN KBKB 220225Z AUTO 00000KT 10SM FEW036 FEW050 26/22 A3007 160 81 1500 000/00 RMK AO2 T02560222
53988KBKB BKB20190921203010809/21/19 20:30:31  5-MIN KBKB 220230Z AUTO 10SM FEW036 FEW070 26/22 A3007 160 81 1500 M /M RMK AO2 T02560222
53988KBKB BKB20190921203511809/21/19 20:35:31  5-MIN KBKB 220235Z AUTO VRB04KT 10SM FEW035 SCT070 26/22 A3007 160 81 1500 VRB/04 RMK AO2 T02560222
53988KBKB BKB20190921204011809/21/19 20:40:31  5-MIN KBKB 220240Z AUTO VRB04KT 10SM FEW035 BKN070 26/22 A3007 160 81 1500 VRB/04 RMK AO2 T02560222
53988KBKB BKB20190921204512509/21/19 20:45:31  5-MIN KBKB 220245Z AUTO VRB05KT 10SM FEW029 SCT035 BKN070 26/22 A3007 160 81 1500 VRB/05 RMK AO2 T02560222
53988KBKB BKB20190921205013809/21/19 20:50:31  5-MIN KBKB 220250Z AUTO VRB03KT 10SM FEW029 FEW035 BKN070 26/22 A3008 160 81 1500 VRB/03 RMK AO2 SLP209 T02560222 55003
53988KBKB BKB20190921205511809/21/19 20:55:31  5-MIN KBKB 220255Z AUTO VRB05KT 10SM FEW029 SCT070 26/22 A3008 150 81 1500 VRB/05 RMK AO2 T02560222
53988KBKB BKB20190921210011809/21/19 21:00:31  5-MIN KBKB 220300Z AUTO VRB04KT 10SM FEW029 SCT070 25/22 A3008 150 84 1400 VRB/04 RMK AO2 T02500222
53988KBKB BKB20190921210512509/21/19 21:05:31  5-MIN KBKB 220305Z AUTO VRB03KT 10SM FEW029 FEW036 SCT070 25/22 A3008 150 84 1400 VRB/03 RMK AO2 T02500222
53988KBKB BKB20190921211011809/21/19 21:10:31  5-MIN KBKB 220310Z AUTO VRB04KT 10SM FEW036 FEW070 25/22 A3008 150 84 1400 VRB/04 RMK AO2 T02500222
53988KBKB BKB20190921211510809/21/19 21:15:31  5-MIN KBKB 220315Z AUTO 00000KT 10SM CLR 25/22 A3008 150 84 1400 000/00 RMK AO2 T02500222
53988KBKB BKB20190921212010809/21/19 21:20:31  5-MIN KBKB 220320Z AUTO VRB03KT 10SM CLR 25/22 A3008 150 84 1400 VRB/03 RMK AO2 T02500222
53988KBKB BKB20190921212511109/21/19 21:25:31  5-MIN KBKB 220325Z AUTO 00000KT 10SM FEW037 25/22 A3008 150 84 1400 000/00 RMK AO2 T02500222
53988KBKB BKB20190921213011809/21/19 21:30:31  5-MIN KBKB 220330Z AUTO VRB04KT 10SM FEW037 SCT070 25/22 A3008 150 84 1400 VRB/04 RMK AO2 T02500222
53988KBKB BKB20190921213511809/21/19 21:35:31  5-MIN KBKB 220335Z AUTO VRB03KT 10SM FEW039 BKN070 25/22 A3008 150 84 1400 VRB/03 RMK AO2 T02500222
53988KBKB BKB20190921214011809/21/19 21:40:31  5-MIN KBKB 220340Z AUTO 00000KT 10SM FEW039 BKN070 25/22 A3008 150 84 1400 000/00 RMK AO2 T02500222
53988KBKB BKB20190921214511809/21/19 21:45:31  5-MIN KBKB 220345Z AUTO 00000KT 10SM FEW039 BKN070 25/22 A3009 150 84 1400 000/00 RMK AO2 T02500222
53988KBKB BKB20190921215013209/21/19 21:50:31  5-MIN KBKB 220350Z AUTO VRB04KT 10SM FEW039 FEW050 BKN065 25/22 A3008 150 84 1400 VRB/04 RMK AO2 SLP212 T02500222
53988KBKB BKB20190921215511809/21/19 21:55:31  5-MIN KBKB 220355Z AUTO VRB03KT 10SM FEW050 OVC065 25/22 A3008 150 84 1400 VRB/03 RMK AO2 T02500222
53988KBKB BKB20190921220011809/21/19 22:00:31  5-MIN KBKB 220400Z AUTO VRB03KT 10SM FEW050 OVC065 25/22 A3008 150 84 1400 VRB/03 RMK AO2 T02500222
53988KBKB BKB20190921220511809/21/19 22:05:31  5-MIN KBKB 220405Z AUTO VRB03KT 10SM FEW050 OVC065 25/22 A3008 150 84 1400 VRB/03 RMK AO2 T02500222
53988KBKB BKB20190921221012509/21/19 22:10:31  5-MIN KBKB 220410Z AUTO VRB04KT 10SM FEW050 BKN065 BKN080 24/22 A3008 150 87 1300 VRB/04 RMK AO2 T02440222
53988KBKB BKB20190921221511809/21/19 22:15:31  5-MIN KBKB 220415Z AUTO VRB03KT 10SM FEW050 BKN070 24/22 A3008 150 87 1300 VRB/03 RMK AO2 T02440222
53988KBKB BKB20190921222011109/21/19 22:20:31  5-MIN KBKB 220420Z AUTO 00000KT 10SM OVC070 24/22 A3008 150 87 1300 000/00 RMK AO2 T02440222
53988KBKB BKB20190921222511109/21/19 22:25:31  5-MIN KBKB 220425Z AUTO 00000KT 10SM BKN070 24/22 A3008 150 87 1300 000/00 RMK AO2 T02440222
53988KBKB BKB20190921223011109/21/19 22:30:31  5-MIN KBKB 220430Z AUTO 00000KT 10SM BKN075 24/22 A3008 150 87 1300 000/00 RMK AO2 T02440222
53988KBKB BKB20190921223521909/21/19 22:35:31  5-MIN KBKB 220435Z AUTO VRB04KT 10SM OVC070 24/22 A3008 160 87 1300 VRB/04 RMK AO2 T0244022209/21/19 22:40:31  5-M 220650Z AUTO 00000KT 10SM CLR 23/22 A3006 170 93 1200 000/00 RMK AO2 SLP206 T02330222
53988KBKB BKB20190922004510809/22/19 00:45:31  5-MIN KBKB 220645Z AUTO 00000KT 10SM CLR 23/22 A3006 160 93 1200 000/00 RMK AO2 T02330222
53988KBKB BKB20190922005011509/22/19 00:50:31  5-MIN KBKB 220650Z AUTO 00000KT 10SM CLR 23/22 A3006 170 93 1200 000/00 RMK AO2 SLP206 T02330222
53988KBKB BKB20190922005510809/22/19 00:55:31  5-MIN KBKB 220655Z AUTO 00000KT 10SM CLR 23/22 A3007 160 93 1200 000/00 RMK AO2 T02330222
53988KBKB BKB20190922010010809/22/19 01:00:31  5-MIN KBKB 220700Z AUTO VRB03KT 10SM CLR 23/22 A3006 160 93 1200 VRB/03 RMK AO2 T02330222
53988KBKB BKB20190922010016109/22/19 01:00:31  5-MIN KBKB 220700Z AUTO VRB03KT 10SM CLR 23/22 A3006 160 93 1200 VRB/03 RMK AO2 T0233022209/22/19 01:05:31160 93 1200 000/00 RMK AO2 T02330222
53988KBKB BKB20190922010510809/22/19 01:05:31  5-MIN KBKB 220705Z AUTO 00000KT 10SM CLR 23/22 A3007 160 93 1200 000/00 RMK AO2 T02330222
53988KBKB BKB20190922011010809/22/19 01:10:31  5-MIN KBKB 220710Z AUTO 00000KT 10SM CLR 23/22 A3006 170 93 1200 000/00 RMK AO2 T02330222
53988KBKB BKB20190922011510809/22/19 01:15:31  5-MIN KBKB 220715Z AUTO 00000KT 10SM CLR 23/22 A3006 170 93 1200 000/00 RMK AO2 T02330222
53988KBKB BKB20190922012010809/22/19 01:20:31  5-MIN KBKB 220720Z AUTO 00000KT 10SM CLR 23/22 A3006 170 93 1200 000/00 RMK AO2 T02330222
53988KBKB BKB20190922012016809/22/19 01:20:31  5-MIN KBKB 220720Z AUTO 00000KT 10SM CLR 23/22 A3006 170 93 1200 000/00 RMK AO2 T0233022209/22/19 01:25:31  5-M6 160 93 1200 VRB/03 RMK AO2 T02330222
53988KBKB BKB20190922012510809/22/19 01:25:31  5-MIN KBKB 220725Z AUTO 00000KT 10SM CLR 23/22 A3006 170 93 1200 000/00 RMK AO2 T02330222
53988KBKB BKB20190922013010809/22/19 01:30:31  5-MIN KBKB 220730Z AUTO 00000KT 10SM CLR 23/22 A3006 170 90 1200 000/00 RMK AO2 T02330217
53988KBKB BKB20190922013506209/22/19 01:35:31  5-MIN KBKB 220735Z 000/00 RMK AO2 T02330222
53988KBKB BKB20190922013510809/22/19 01:35:31  5-MIN KBKB 220735Z AUTO 00000KT 10SM CLR 23/22 A3006 170 90 1200 000/00 RMK AO2 T02330217
53988KBKB BKB20190922014010809/22/19 01:40:31  5-MIN KBKB 220740Z AUTO 00000KT 10SM CLR 23/22 A3007 160 90 1200 000/00 RMK AO2 T02330217
53988KBKB BKB20190922014506209/22/19 01:45:31  5-MIN KBKB 220745Z AUTO 0000K AO2 T02330222
53988KBKB BKB20190922014510809/22/19 01:45:31  5-MIN KBKB 220745Z AUTO 00000KT 10SM CLR 23/22 A3006 170 90 1200 000/00 RMK AO2 T02330217
53988KBKB BKB20190922015011509/22/19 01:50:31  5-MIN KBKB 220750Z AUTO 00000KT 10SM CLR 23/22 A3007 160 90 1200 000/00 RMK AO2 SLP206 T02330217
53988KBKB BKB20190922015515009/22/19 01:55:31  5-MIN KBKB 220755Z AUTO 00 T02330217 93 1100 VRB/03 RMK AO2 T0UTO 00000KT 10SM CLR 22/21 A3005 180 93 1100 000/00 RMK AO2 T02220211
53988KBKB BKB20190922042010809/22/19 04:20:31  5-MIN KBKB 221020Z AUTO 00000KT 10SM CLR 22/21 A3005 170 93 1100 000/00 RMK AO2 T02220211
53988KBKB BKB20190922042510809/22/19 04:25:31  5-MIN KBKB 221025Z AUTO 00000KT 10SM CLR 22/21 A3005 170 93 1100 000/00 RMK AO2 T02220211
53988KBKB BKB20190922043010809/22/19 04:30:31  5-MIN KBKB 221030Z AUTO 00000KT 10SM CLR 22/21 A3005 170 93 1100 000/00 RMK AO2 T02220211
53988KBKB BKB20190922043510809/22/19 04:35:31  5-MIN KBKB 221035Z AUTO VRB03KT 10SM CLR 22/21 A3005 170 93 1100 VRB/03 RMK AO2 T02220211
53988KBKB BKB20190922044010809/22/19 04:40:31  5-MIN KBKB 221040Z AUTO VRB03KT 10SM CLR 22/21 A3006 170 93 1100 VRB/03 RMK AO2 T02220211
53988KBKB BKB20190922044510809/22/19 04:45:31  5-MIN KBKB 221045Z AUTO 00000KT 10SM CLR 22/21 A3006 170 93 1100 000/00 RMK AO2 T02220211
53988KBKB BKB20190922044517009/22/19 04:45:31  5-MIN KBKB 221045Z AUTO 00000KT 10SM CLR 22/21 A3006 170 93 1100 000/00 R221025Z AUTO 00000KT 10SM CLR 22/21 A3005 170 93 1100 000/00 RMK AO2 T02220211
53988KBKB BKB20190922045011509/22/19 04:50:31  5-MIN KBKB 221050Z AUTO 00000KT 10SM CLR 22/21 A3006 170 93 1100 000/00 RMK AO2 SLP203 T02220211
53988KBKB BKB20190922045510809/22/19 04:55:31  5-MIN KBKB 221055Z AUTO 00000KT 10SM CLR 22/21 A3006 170 93 1100 000/00 RMK AO2 T02220211
53988KBKB BKB20190922045516309/22/19 04:55:31  5-MIN KBKB 221055Z AUTO 00000KT 10SM CLR 22/21 A3006 170 93 1100 000/00 RMK AO VRB03KT 10SM CLR 22/21 A3005 170 93 1100 VRB/03 RMK AO2 T02220211
53988KBKB BKB20190922050010809/22/19 05:00:31  5-MIN KBKB 221100Z AUTO VRB03KT 10SM CLR 22/21 A3006 170 93 1100 VRB/03 RMK AO2 T02220211
53988KBKB BKB20190922050510809/22/19 05:05:31  5-MIN KBKB 221105Z AUTO 13003KT 10SM CLR 22/21 A3006 170 93 1100 130/03 RMK AO2 T02220211
53988KBKB BKB20190922050516309/22/19 05:05:31  5-MIN KBKB 221105Z AUTO 13003KT 10SM CLR 22/21 A3006 170 93 1100 130/03 RMK AO2 T02220210SM CLR 22/21 A3006 170 93 1100 000/00 RMK AO2 T02220211
53988KBKB BKB20190922051010809/22/19 05:10:31  5-MIN KBKB 221110Z AUTO VRB03KT 10SM CLR 22/21 A3006 170 93 1100 VRB/03 RMK AO2 T02220211
53988KBKB BKB20190922051510809/22/19 05:15:31  5-MIN KBKB 221115Z AUTO VRB03KT 10SM CLR 22/21 A3006 170 93 1100 VRB/03 RMK AO2 T02220211
53988KBKB BKB20190922051516809/22/19 05:15:31  5-MIN KBKB 221115Z AUTO VRB03KT 10SM CLR 22/21 A3006 170 93 1100 VRB/03 RMK AO2 T0222021109/10SM CLR 22/21 A3006 170 93 1100 000/00 RMK AO2 T02220211
53988KBKB BKB20190922052010809/22/19 05:20:31  5-MIN KBKB 221120Z AUTO VRB03KT 10SM CLR 22/21 A3006 170 93 1100 VRB/03 RMK AO2 T02220211
53988KBKB BKB20190922052510809/22/19 05:25:31  5-MIN KBKB 221125Z AUTO VRB03KT 10SM CLR 22/21 A3007 160 93 1100 VRB/03 RMK AO2 T02220211
53988KBKB BKB20190922052516809/22/19 05:25:31  5-MIN KBKB 221125Z AUTO VRB03KT 10SM CLR 22/21 A3007 160 93 1100 VRB/03 RMK AO2 T02220211KT 10SM CLR 22/21 A3006 170 93 1100 130/03 RMK AO2 T02220211
53988KBKB BKB20190922053010809/22/19 05:30:31  5-MIN KBKB 221130Z AUTO 00000KT 10SM CLR 22/21 A3007 160 93 1100 000/00 RMK AO2 T02220211
53988KBKB BKB20190922053515409/22/19 05:35:31  5-MIN KBKB 221135Z AUTO 00000KT 10SM CLR 22/21 A3006 170 93 1100 000/00 RMK AO2 T022LR 25/21 A3008 150 76 1400 VRB/04 RMK AO2 T02500206
53988KBKB BKB20190922073510809/22/19 07:35:31  5-MIN KBKB 221335Z AUTO VRB04KT 10SM CLR 25/21 A3008 150 76 1400 VRB/04 RMK AO2 T02500206
53988KBKB BKB20190922074010809/22/19 07:40:31  5-MIN KBKB 221340Z AUTO VRB05KT 10SM CLR 25/21 A3008 150 79 1400 VRB/05 RMK AO2 T02500211
53988KBKB BKB20190922174510809/22/19 17:45:31  5-MIN KBKB 222345Z AUTO 00000KT 10SM CLR 28/21 A3000 230 64 1900 000/00 RMK AO2 T02830211
53988KBKB BKB20190922175013309/22/19 17:50:31  5-MIN KBKB 222350Z AUTO 00000KT 10SM CLR 28/22 A3000 220 66 1800 000/00 RMK AO2 SLP184 T02830217 10328 20283 56016
53988KBKB BKB20190922175510809/22/19 17:55:31  5-MIN KBKB 222355Z AUTO 00000KT 10SM CLR 28/22 A3000 220 69 1800 000/00 RMK AO2 T02780217
53988KBKB BKB20190922180010809/22/19 18:00:31  5-MIN KBKB 230000Z AUTO 00000KT 10SM CLR 28/22 A3000 220 69 1800 000/00 RMK AO2 T02780217
53988KBKB BKB20190922180510809/22/19 18:05:31  5-MIN KBKB 230005Z AUTO 00000KT 10SM CLR 27/22 A3000 220 71 1700 000/00 RMK AO2 T02720217
53988KBKB BKB20190922181010809/22/19 18:10:31  5-MIN KBKB 230010Z AUTO 00000KT 10SM CLR 27/22 A3000 220 76 1700 000/00 RMK AO2 T02670222
53988KBKB BKB20190922181510809/22/19 18:15:31  5-MIN KBKB 230015Z AUTO 00000KT 10SM CLR 27/22 A3001 220 76 1700 000/00 RMK AO2 T02670222
53988KBKB BKB20190922182010809/22/19 18:20:31  5-MIN KBKB 230020Z AUTO 00000KT 10SM CLR 26/22 A3001 220 79 1600 000/00 RMK AO2 T02610222
53988KBKB BKB20190922182510809/22/19 18:25:31  5-MIN KBKB 230025Z AUTO 00000KT 10SM CLR 26/22 A3000 220 76 1600 000/00 RMK AO2 T02610217
53988KBKB BKB20190922183010809/22/19 18:30:31  5-MIN KBKB 230030Z AUTO 00000KT 10SM CLR 26/22 A3001 220 76 1600 000/00 RMK AO2 T02610217
53988KBKB BKB20190922183510809/22/19 18:35:31  5-MIN KBKB 230035Z AUTO 00000KT 10SM CLR 26/22 A3001 220 79 1600 000/00 RMK AO2 T02610222
53988KBKB BKB20190922184010809/22/19 18:40:31  5-MIN KBKB 230040Z AUTO 00000KT 10SM CLR 26/22 A3001 220 81 1500 000/00 RMK AO2 T02560222
53988KBKB BKB20190922184510809/22/19 18:45:31  5-MIN KBKB 230045Z AUTO 00000KT 10SM CLR 26/22 A3001 220 79 1500 000/00 RMK AO2 T02560217
53988KBKB BKB20190922185011509/22/19 18:50:31  5-MIN KBKB 230050Z AUTO 00000KT 10SM CLR 26/22 A3001 220 81 1500 000/00 RMK AO2 SLP188 T02560222
53988KBKB BKB20190922185510809/22/19 18:55:31  5-MIN KBKB 230055Z AUTO 00000KT 10SM CLR 26/22 A3001 210 79 1500 000/00 RMK AO2 T02560217
53988KBKB BKB20190922190010809/22/19 19:00:31  5-MIN KBKB 230100Z AUTO 00000KT 10SM CLR 26/22 A3001 210 79 1500 000/00 RMK AO2 T02560217
53988KBKB BKB20190922190510809/22/19 19:05:31  5-MIN KBKB 230105Z AUTO 00000KT 10SM CLR 26/22 A3001 210 79 1500 000/00 RMK AO2 T02560217
53988KBKB BKB20190922191010809/22/19 19:10:31  5-MIN KBKB 230110Z AUTO 00000KT 10SM CLR 26/22 A3002 210 76 1600 000/00 RMK AO2 T02610217
53988KBKB BKB20190922191510809/22/19 19:15:31  5-MIN KBKB 230115Z AUTO 00000KT 10SM CLR 26/22 A3001 210 76 1600 000/00 RMK AO2 T02610217
53988KBKB BKB20190922192010809/22/19 19:20:31  5-MIN KBKB 230120Z AUTO 00000KT 10SM CLR 26/22 A3002 210 76 1600 000/00 RMK AO2 T02610217
53988KBKB BKB20190922192510809/22/19 19:25:31  5-MIN KBKB 230125Z AUTO 00000KT 10SM CLR 26/22 A3002 200 79 1500 000/00 RMK AO2 T02560217
53988KBKB BKB20190922193010809/22/19 19:30:31  5-MIN KBKB 230130Z AUTO 00000KT 10SM CLR 26/22 A3002 200 76 1600 000/00 RMK AO2 T02610217
53988KBKB BKB20190922193510809/22/19 19:35:31  5-MIN KBKB 230135Z AUTO 00000KT 10SM CLR 26/22 A3002 200 76 1600 000/00 RMK AO2 T02610217
53988KBKB BKB20190922194010809/22/19 19:40:31  5-MIN KBKB 230140Z AUTO 00000KT 10SM CLR 26/22 A3003 200 79 1500 000/00 RMK AO2 T02560217
53988KBKB BKB20190922194510809/22/19 19:45:31  5-MIN KBKB 230145Z AUTO 00000KT 10SM CLR 26/22 A3003 200 79 1500 000/00 RMK AO2 T02560217
53988KBKB BKB20190922195011509/22/19 19:50:31  5-MIN KBKB 230150Z AUTO 00000KT 10SM CLR 26/22 A3003 190 79 1500 000/00 RMK AO2 SLP195 T02560217
53988KBKB BKB20190922195510809/22/19 19:55:31  5-MIN KBKB 230155Z AUTO 00000KT 10SM CLR 26/22 A3003 190 79 1500 000/00 RMK AO2 T02560217
53988KBKB BKB20190922200010809/22/19 20:00:31  5-MIN KBKB 230200Z AUTO 00000KT 10SM CLR 25/22 A3003 190 84 1400 000/00 RMK AO2 T02500222
53988KBKB BKB20190922200510809/22/19 20:05:31  5-MIN KBKB 230205Z AUTO 00000KT 10SM CLR 25/22 A3003 190 84 1400 000/00 RMK AO2 T02500222
53988KBKB BKB20190922201010809/22/19 20:10:31  5-MIN KBKB 230210Z AUTO 00000KT 10SM CLR 25/22 A3003 190 84 1400 000/00 RMK AO2 T02500222
53988KBKB BKB20190922201510809/22/19 20:15:31  5-MIN KBKB 230215Z AUTO 00000KT 10SM CLR 25/22 A3004 190 81 1400 000/00 RMK AO2 T02500217
53988KBKB BKB20190922202010809/22/19 20:20:31  5-MIN KBKB 230220Z AUTO 00000KT 10SM CLR 25/22 A3004 190 81 1400 000/00 RMK AO2 T02500217
53988KBKB BKB20190922202510809/22/19 20:25:31  5-MIN KBKB 230225Z AUTO 00000KT 10SM CLR 25/22 A3004 190 81 1400 000/00 RMK AO2 T02500217
53988KBKB BKB20190922203010809/22/19 20:30:31  5-MIN KBKB 230230Z AUTO 00000KT 10SM CLR 24/22 A3004 190 84 1400 000/00 RMK AO2 T02440217
53988KBKB BKB20190922203510809/22/19 20:35:31  5-MIN KBKB 230235Z AUTO 00000KT 10SM CLR 24/22 A3004 180 87 1400 000/00 RMK AO2 T02440222
53988KBKB BKB20190922204010809/22/19 20:40:31  5-MIN KBKB 230240Z AUTO 00000KT 10SM CLR 24/22 A3004 180 84 1400 000/00 RMK AO2 T02440217
53988KBKB BKB20190922204510809/22/19 20:45:31  5-MIN KBKB 230245Z AUTO 00000KT 10SM CLR 24/22 A3004 180 84 1400 000/00 RMK AO2 T02440217
53988KBKB BKB20190922205012109/22/19 20:50:31  5-MIN KBKB 230250Z AUTO 00000KT 10SM CLR 24/22 A3004 180 84 1400 000/00 RMK AO2 SLP199 T02440217 53003
53988KBKB BKB20190922205510809/22/19 20:55:31  5-MIN KBKB 230255Z AUTO 00000KT 10SM CLR 24/22 A3005 180 87 1300 000/00 RMK AO2 T02390217
53988KBKB BKB20190922210010809/22/19 21:00:31  5-MIN KBKB 230300Z AUTO 00000KT 10SM CLR 24/22 A3005 180 87 1300 000/00 RMK AO2 T02390217
53988KBKB BKB20190922210510809/22/19 21:05:31  5-MIN KBKB 230305Z AUTO 00000KT 10SM CLR 24/22 A3005 180 87 1300 000/00 RMK AO2 T02390217
53988KBKB BKB20190922211010809/22/19 21:10:31  5-MIN KBKB 230310Z AUTO 00000KT 10SM CLR 24/22 A3005 180 87 1300 000/00 RMK AO2 T02390217
53988KBKB BKB20190922211510809/22/19 21:15:31  5-MIN KBKB 230315Z AUTO 00000KT 10SM CLR 24/22 A3005 180 87 1300 000/00 RMK AO2 T02390217
53988KBKB BKB20190922212010809/22/19 21:20:31  5-MIN KBKB 230320Z AUTO 00000KT 10SM CLR 24/22 A3005 180 87 1300 000/00 RMK AO2 T02390217
53988KBKB BKB20190922212510809/22/19 21:25:31  5-MIN KBKB 230325Z AUTO 00000KT 10SM CLR 24/22 A3005 180 87 1300 000/00 RMK AO2 T02390217
53988KBKB BKB20190922213010809/22/19 21:30:31  5-MIN KBKB 230330Z AUTO 00000KT 10SM CLR 24/22 A3005 180 87 1300 000/00 RMK AO2 T02390217
53988KBKB BKB20190922213510809/22/19 21:35:31  5-MIN KBKB 230335Z AUTO 00000KT 10SM CLR 24/22 A3005 180 87 1300 000/00 RMK AO2 T02390217
53988KBKB BKB20190922214010809/22/19 21:40:31  5-MIN KBKB 230340Z AUTO 00000KT 10SM CLR 24/22 A3005 180 87 1300 000/00 RMK AO2 T02390217
53988KBKB BKB20190922214510809/22/19 21:45:31  5-MIN KBKB 230345Z AUTO 00000KT 10SM CLR 24/22 A3005 180 87 1300 000/00 RMK AO2 T02390217
53988KBKB BKB20190922215011509/22/19 21:50:31  5-MIN KBKB 230350Z AUTO 00000KT 10SM CLR 24/22 A3005 180 87 1300 000/00 RMK AO2 SLP200 T02390217
53988KBKB BKB20190922215510809/22/19 21:55:31  5-MIN KBKB 230355Z AUTO 00000KT 10SM CLR 23/22 A3005 180 90 1200 000/00 RMK AO2 T02330217
53988KBKB BKB20190922220010809/22/19 22:00:31  5-MIN KBKB 230400Z AUTO 00000KT 10SM CLR 23/22 A3005 180 90 1200 000/00 RMK AO2 T02330217
53988KBKB BKB20190922220510809/22/19 22:05:31  5-MIN KBKB 230405Z AUTO 00000KT 10SM CLR 23/22 A3005 180 90 1200 000/00 RMK AO2 T02330217
53988KBKB BKB20190922221010809/22/19 22:10:31  5-MIN KBKB 230410Z AUTO 00000KT 10SM CLR 23/22 A3005 180 90 1200 000/00 RMK AO2 T02330217
53988KBKB BKB20190922221510809/22/19 22:15:31  5-MIN KBKB 230415Z AUTO 00000KT 10SM CLR 23/22 A3005 180 90 1200 000/00 RMK AO2 T02330217
53988KBKB BKB20190922222010809/22/19 22:20:31  5-MIN KBKB 230420Z AUTO 00000KT 10SM CLR 23/22 A3005 180 90 1200 000/00 RMK AO2 T02330217
53988KBKB BKB20190922222510809/22/19 22:25:31  5-MIN KBKB 230425Z AUTO 00000KT 10SM CLR 23/22 A3005 180 90 1200 000/00 RMK AO2 T02330217
53988KBKB BKB20190922223010809/22/19 22:30:31  5-MIN KBKB 230430Z AUTO 00000KT 10SM CLR 23/22 A3005 180 90 1200 000/00 RMK AO2 T02330217
53988KBKB BKB20190922223510809/22/19 22:35:31  5-MIN KBKB 230435Z AUTO 00000KT 10SM CLR 23/22 A3005 180 90 1200 000/00 RMK AO2 T02330217
53988KBKB BKB20190922224010809/22/19 22:40:31  5-MIN KBKB 230440Z AUTO 00000KT 10SM CLR 23/22 A3005 180 90 1200 000/00 RMK AO2 T02330217
53988KBKB BKB20190922224510809/22/19 22:45:31  5-MIN KBKB 230445Z AUTO 00000KT 10SM CLR 23/22 A3005 180 90 1200 000/00 RMK AO2 T02330217
53988KBKB BKB20190922225011509/22/19 22:50:31  5-MIN KBKB 230450Z AUTO 00000KT 10SM CLR 23/22 A3004 180 90 1200 000/00 RMK AO2 SLP199 T02330217
53988KBKB BKB20190922225510809/22/19 22:55:31  5-MIN KBKB 230455Z AUTO 00000KT 10SM CLR 23/22 A3004 180 90 1200 000/00 RMK AO2 T02330217
53988KBKB BKB20190922230010809/22/19 23:00:31  5-MIN KBKB 230500Z AUTO 00000KT 10SM CLR 23/22 A3004 190 90 1200 000/00 RMK AO2 T02330217
53988KBKB BKB20190922230510809/22/19 23:05:31  5-MIN KBKB 230505Z AUTO 00000KT 10SM CLR 23/22 A3004 190 90 1200 000/00 RMK AO2 T02330217
53988KBKB BKB20190922231010809/22/19 23:10:31  5-MIN KBKB 230510Z AUTO 00000KT 10SM CLR 23/22 A3004 190 93 1200 000/00 RMK AO2 T02280217
53988KBKB BKB20190922231510809/22/19 23:15:31  5-MIN KBKB 230515Z AUTO 00000KT 10SM CLR 23/22 A3004 190 90 1200 000/00 RMK AO2 T02330217
53988KBKB BKB20190922232010809/22/19 23:20:31  5-MIN KBKB 230520Z AUTO 00000KT 10SM CLR 23/22 A3004 190 93 1200 000/00 RMK AO2 T02280217
53988KBKB BKB20190922232510809/22/19 23:25:31  5-MIN KBKB 230525Z AUTO 00000KT 10SM CLR 23/22 A3003 190 93 1200 000/00 RMK AO2 T02280217
53988KBKB BKB20190922233010809/22/19 23:30:31  5-MIN KBKB 230530Z AUTO 00000KT 10SM CLR 23/22 A3003 200 90 1200 000/00 RMK AO2 T02330217
53988KBKB BKB20190922233510809/22/19 23:35:31  5-MIN KBKB 230535Z AUTO 00000KT 10SM CLR 23/22 A3003 200 90 1300 000/00 RMK AO2 T02330217
53988KBKB BKB20190922234010809/22/19 23:40:31  5-MIN KBKB 230540Z AUTO 00000KT 10SM CLR 23/22 A3003 200 93 1200 000/00 RMK AO2 T02280217
53988KBKB BKB20190922234510809/22/19 23:45:31  5-MIN KBKB 230545Z AUTO 00000KT 10SM CLR 23/22 A3002 200 93 1200 000/00 RMK AO2 T02280217
53988KBKB BKB20190922235014309/22/19 23:50:31  5-MIN KBKB 230550Z AUTO 00000KT 10SM CLR 23/22 A3002 200 93 1200 000/00 RMK AO2 SLP192 T02280217 10278 20228 403280222 53015
53988KBKB BKB20190922235510809/22/19 23:55:31  5-MIN KBKB 230555Z AUTO 00000KT 10SM CLR 23/22 A3002 200 93 1200 000/00 RMK AO2 T02280217
53988KBKB BKB20190923000010809/23/19 00:00:31  5-MIN KBKB 230600Z AUTO 00000KT 10SM CLR 23/22 A3002 200 93 1200 000/00 RMK AO2 T02280217
53988KBKB BKB20190923000513509/23/19 00:05:31  5-MIN KBKB 230605Z AUTO 00000KT 10SM CLR 23/22 A3002 210 90 1300 000/00 RMK AO2 T0233021709/23/19 00:10:32 T02220211
53988KBKB BKB20190923024511109/23/19 02:45:31  5-MIN KBKB 230845Z AUTO 00000KT 10SM SCT015 22/21 A3001 210 93 1100 000/00 RMK AO2 T02220211
53988KBKB BKB20190923025012409/23/19 02:50:31  5-MIN KBKB 230850Z AUTO 00000KT 10SM SCT015 22/21 A3002 210 93 1100 000/00 RMK AO2 SLP189 T02220211 58008
53988KBKB BKB20190923025511109/23/19 02:55:31  5-MIN KBKB 230855Z AUTO 00000KT 10SM SCT015 22/21 A3002 210 93 1100 000/00 RMK AO2 T02220211
53988KBKB BKB20190923030011109/23/19 03:00:31  5-MIN KBKB 230900Z AUTO 00000KT 10SM FEW015 22/21 A3002 210 93 1100 000/00 RMK AO2 T02220211
53988KBKB BKB20190923030015009/23/19 03:00:31  5-MIN KBKB 230900Z AUTO 00000KT 10:31  5-MIN KBKB 230840Z AUTO 00000KT 10SM SCT015 22/21 A3001 210 93 1100 000/00 RMK AO2 T02220211
53988KBKB BKB20190923030511109/23/19 03:05:31  5-MIN KBKB 230905Z AUTO 00000KT 10SM FEW015 22/21 A3002 210 93 1100 000/00 RMK AO2 T02220211
53988KBKB BKB20190923031011109/23/19 03:10:31  5-MIN KBKB 230910Z AUTO 00000KT 10SM FEW015 22/21 A3002 210 97 1100 000/00 RMK AO2 T02170211
53988KBKB BKB20190923031016309/23/19 03:10:31  5-MIN KBKB 230910Z AUTO 00000KT 10SM1  5-MIN KBKB 230850Z AUTO 00000KT 10SM SCT015 22/21 A3002 210 93 1100 000/00 RMK AO2 SLP189 T02220211 58008
53988KBKB BKB20190923031511109/23/19 03:15:31  5-MIN KBKB 230915Z AUTO 00000KT 10SM FEW015 22/21 A3002 210 93 1100 000/00 RMK AO2 T02220211
53988KBKB BKB20190923032010709/23/19 03:20:31  5-MIN KBKB 230920Z AUTO 00000KT 9SM CLR 22/21 A3002 210 97 1100 000/00 RMK AO2 T02170211
53988KBKB BKB20190923032510809/23/19 03:25:31  5-MIN KBKB 230925Z AUTO 00000KT 10SM CLR 22/21 A3002 210 97 1100 000/00 RMK AO2 T02170211
53988KBKB BKB20190923033010709/23/19 03:30:31  5-MIN KBKB 230930Z AUTO 00000KT 9SM CLR 22/21 A3002 200 97 1100 000/00 RMK AO2 T02170211
53988KBKB BKB20190923033510709/23/19 03:35:31  5-MIN KBKB 230935Z AUTO 00000KT 8SM CLR 22/21 A3002 200 97 1100 000/00 RMK AO2 T02170211
53988KBKB BKB20190923033510809/23/19 03:35:31  5-MIN KBKB 230935Z AUTO 00000KT 8SM CLR 22/09/23/19 03:15:31  5-MIN KBKBRMK AO2 T02170211
53988KBKB BKB20190923034006509/23/19 03:40:31  5-MIN KBKB 230940Z AUTO 00000KT 8SM CLR 22/211
53988KBKB BKB20190923034010709/23/19 03:40:31  5-MIN KBKB 230940Z AUTO 00000KT 8SM CLR 22/21 A3003 200 97 1100 000/00 RMK AO2 T02170211
53988KBKB BKB20190923034510709/23/19 03:45:31  5-MIN KBKB 230945Z AUTO 00000KT 8SM CLR 22/21 A3003 200 93 1100 000/00 RMK AO2 T02170206
53988KBKB BKB20190923035011409/23/19 03:50:31  5-MIN KBKB 230950Z AUTO 00000KT 8SM CLR 22/21 A3003 200 93 1100 000/00 RMK AO2 SLP193 T02170206
53988KBKB BKB20190923035510709/23/19 03:55:31  5-MIN KBKB 230955Z AUTO 00000KT 8SM CLR 22/21 A3003 200 93 1100 000/00 RMK AO2 T02170206
53988KBKB BKB20190923035516409/23/19 03:55:31  5-MIN KBKB 230955Z AUTO 00000KT 8SM CLR 22/21 A3003 200 93 1100 000/00 RMK AO2 T0217020609/23/LR 22/21 A3002 200 97 1100 000/00 RMK AO2 T02170211
53988KBKB BKB20190923040010709/23/19 04:00:31  5-MIN KBKB 231000Z AUTO 00000KT 8SM CLR 22/21 A3003 200 93 1100 000/00 RMK AO2 T02170206
53988KBKB BKB20190923040510709/23/19 04:05:31  5-MIN KBKB 231005Z AUTO 00000KT 9SM CLR 22/21 A3002 200 93 1100 000/00 RMK AO2 T02170206
53988KBKB BKB20190923041010709/23/19 04:10:31  5-MIN KBKB 231010Z AUTO 00000KT 9SM CLR 22/21 A3002 200 93 1100 000/00 RMK AO2 T02170206
53988KBKB BKB20190923041510709/23/19 04:15:31  5-MIN KBKB 231015Z AUTO 00000KT 8SM CLR 22/21 A3003 200 93 1100 000/00 RMK AO2 T02170206
53988KBKB BKB20190923041517109/23/19 04:15:31  5-MIN KBKB 231015Z AUTO 00000KT 8SM CLR 22/21 A3003 200 93 1100 000/00 RMK AO2 T0217020609/23/19 04:20R 22/21 A3003 200 93 1100 000/00 RMK AO2 T02170206
53988KBKB BKB20190923042010709/23/19 04:20:31  5-MIN KBKB 231020Z AUTO 00000KT 8SM CLR 21/21 A3002 200 97 1000 000/00 RMK AO2 T02110206
53988KBKB BKB20190923042510709/23/19 04:25:31  5-MIN KBKB 231025Z AUTO 00000KT 7SM CLR 21/21 A3002 200 97 1000 000/00 RMK AO2 T02110206
53988KBKB BKB20190923043010709/23/19 04:30:31  5-MIN KBKB 231030Z AUTO 00000KT 7SM CLR 22/21 A3002 200 93 1100 000/00 RMK AO2 T02170206
53988KBKB BKB20190923043510709/23/19 04:35:31  5-MIN KBKB 231035Z AUTO 00000KT 7SM CLR 21/21 A3003 200 97 1000 000/00 RMK AO2 T02110206
53988KBKB BKB20190923043510709/23/19 04:35:31  5-MIN KBKB 231035Z AUTO 00000KT 7SM CLR 21/21 A3003 200 97 1000 000/00 RMK AO2 T021Z 206
53988KBKB BKB20190923044010709/23/19 04:40:31  5-MIN KBKB 231040Z AUTO 00000KT 7SM CLR 22/21 A3003 200 93 1100 000/00 RMK AO2 T02170206
53988KBKB BKB20190923044017309/23/19 04:40:31  5-MIN KBKB 231040Z AUTO 00000KT 7SM CLR 22/21 A3003 200 93 1100 000/00 RMK AO2 T0217 AUTO 00000KT 8SM CLR 21/21 A3002 200 97 1000 000/00 RMK AO2 T02110206
53988KBKB BKB20190923044510709/23/19 04:45:31  5-MIN KBKB 231045Z AUTO 00000KT 7SM CLR 21/21 A3003 200 97 1000 000/00 RMK AO2 T02110206
53988KBKB BKB20190923045011409/23/19 04:50:31  5-MIN KBKB 231050Z AUTO 00000KT 7SM CLR 21/21 A3003 190 97 1000 000/00 RMK AO2 SLP195 T02110206
53988KBKB BKB20190923045510709/23/19 04:55:31  5-MIN KBKB 231055Z AUTO 00000KT 7SM CLR 21/21 A3003 190 97 1000 000/00 RMK AO2 T02110206
53988KBKB BKB20190923050011009/23/19 05:00:31  5-MIN KBKB 231100Z AUTO 00000KT 6SM BR CLR 21/21 A3004 190 97 1000 000/00 RMK AO2 T02110206
53988KBKB BKB20190923050511009/23/19 05:05:31  5-MIN KBKB 231105Z AUTO 00000KT 6SM BR CLR 21/21 A3004 190 97 1000 000/00 RMK AO2 T02110206
53988KBKB BKB20190923051010709/23/19 05:10:31  5-MIN KBKB 231110Z AUTO 00000KT 7SM CLR 21/21 A3003 190 97 1000 000/00 RMK AO2 T02110206
53988KBKB BKB20190923051510709/23/19 05:15:31  5-MIN KBKB 231115Z AUTO 00000KT 7SM CLR 21/21 A3003 190 97 1000 000/00 RMK AO2 T02110206
53988KBKB BKB20190923052010709/23/19 05:20:31  5-MIN KBKB 231120Z AUTO 00000KT 8SM CLR 21/21 A3003 190 97 1000 000/00 RMK AO2 T02110206
53988KBKB BKB20190923052510709/23/19 05:25:31  5-MIN KBKB 231125Z AUTO 00000KT 7SM CLR 21/21 A3003 190 97 1000 000/00 RMK AO2 T02110206
53988KBKB BKB20190923053011009/23/19 05:30:31  5-MIN KBKB 231130Z AUTO 00000KT 6SM BR CLR 21/20 A3004 190 93 1000 000/00 RMK AO2 T02110200
53988KBKB BKB20190923053511009/23/19 05:35:31  5-MIN KBKB 231135Z AUTO 00000KT 5SM BR CLR 21/20 A3004 190 93 1000 000/00 RMK AO2 T02110200
53988KBKB BKB20190923054011009/23/19 05:40:31  5-MIN KBKB 231140Z AUTO 00000KT 6SM BR CLR 21/21 A3004 190 97 1000 000/00 RMK AO2 T02110206
53988KBKB BKB20190923054510709/23/19 05:45:31  5-MIN KBKB 231145Z AUTO 00000KT 7SM CLR 21/21 A3004 190 97 1000 000/00 RMK AO2 T02110206
53988KBKB BKB20190923055013209/23/19 05:50:31  5-MIN KBKB 231150Z AUTO 00000KT 8SM CLR 21/20 A3004 190 93 1000 000/00 RMK AO2 SLP198 T02110200 10239 20211 58002
53988KBKB BKB20190923055510709/23/19 05:55:31  5-MIN KBKB 231155Z AUTO 00000KT 7SM CLR 21/20 A3004 190 93 1000 000/00 RMK AO2 T02110200
53988KBKB BKB20190923060010709/23/19 06:00:31  5-MIN KBKB 231200Z AUTO 00000KT 7SM CLR 21/20 A3004 180 93 1000 000/00 RMK AO2 T02110200
53988KBKB BKB20190923060510709/23/19 06:05:31  5-MIN KBKB 231205Z AUTO 00000KT 7SM CLR 21/20 A3004 180 93 1000 000/00 RMK AO2 T02110200
53988KBKB BKB20190923061010709/23/19 06:10:31  5-MIN KBKB 231210Z AUTO 00000KT 8SM CLR 21/20 A3004 180 93 1000 000/00 RMK AO2 T02110200
53988KBKB BKB20190923061510709/23/19 06:15:31  5-MIN KBKB 231215Z AUTO 00000KT 8SM CLR 21/21 A3005 180 97 1000 000/00 RMK AO2 T02110206
53988KBKB BKB20190923062010709/23/19 06:20:31  5-MIN KBKB 231220Z AUTO 00000KT 7SM CLR 21/21 A3005 180 97 1000 000/00 RMK AO2 T02110206
53988KBKB BKB20190923062511309/23/19 06:25:31  5-MIN KBKB 231225Z AUTO 00000KT 6SM BR FEW012 21/21 A3005 180 97 1000 000/00 RMK AO2 T02110206
53988KBKB BKB20190923063012009/23/19 06:30:31  5-MIN KBKB 231230Z AUTO 00000KT 6SM BR FEW004 SCT012 22/21 A3005 180 93 1000 000/00 RMK AO2 T02170206
53988KBKB BKB20190923063512009/23/19 06:35:31  5-MIN KBKB 231235Z AUTO 00000KT 5SM BR SCT004 BKN012 22/21 A3005 180 97 1000 000/00 RMK AO2 T02170211
53988KBKB BKB20190923064012009/23/19 06:40:31  5-MIN KBKB 231240Z AUTO 00000KT 5SM BR BKN004 BKN012 22/21 A3005 170 93 1100 000/00 RMK AO2 T02220211
53988KBKB BKB20190923064512009/23/19 06:45:31  5-MIN KBKB 231245Z AUTO 00000KT 5SM BR BKN003 BKN012 22/22 A3005 170 97 1100 000/00 RMK AO2 T02220217
53988KBKB BKB20190923065012709/23/19 06:50:31  5-MIN KBKB 231250Z AUTO 00000KT 4SM BR BKN003 OVC012 22/22 A3006 170 97 1100 000/00 RMK AO2 SLP204 T02220217
53988KBKB BKB20190923065512009/23/19 06:55:31  5-MIN KBKB 231255Z AUTO 00000KT 2SM BR BKN002 OVC007 23/22 A3006 170 93 1200 000/00 RMK AO2 T02280217
53988KBKB BKB20190923070011309/23/19 07:00:31  5-MIN KBKB 231300Z AUTO 00000KT 1SM BR OVC002 23/22 A3005 170 93 1200 000/00 RMK AO2 T02280217
53988KBKB BKB20190923070511509/23/19 07:05:31  5-MIN KBKB 231305Z AUTO 00000KT 3/4SM BR OVC002 23/22 A3005 170 97 1200 000/00 RMK AO2 T02280222
53988KBKB BKB20190923071011409/23/19 07:10:31  5-MIN KBKB 231310Z AUTO 00000KT 3/4SM BR VV002 23/22 A3006 170 97 1200 000/00 RMK AO2 T02280222
53988KBKB BKB20190923071511409/23/19 07:15:31  5-MIN KBKB 231315Z AUTO 00000KT 1/2SM FG VV003 23/22 A3006 170 93 1200 000/00 RMK AO2 T02330222
53988KBKB BKB20190923072011409/23/19 07:20:31  5-MIN KBKB 231320Z AUTO 00000KT 3/4SM BR VV003 23/22 A3006 170 93 1200 000/00 RMK AO2 T02330222
53988KBKB BKB20190923072511309/23/19 07:25:31  5-MIN KBKB 231325Z AUTO 00000KT 1SM BR OVC002 23/23 A3006 170 97 1200 000/00 RMK AO2 T02330228
53988KBKB BKB20190923073011709/23/19 07:30:31  5-MIN KBKB 231330Z AUTO 00000KT 1 1/2SM BR OVC002 23/23 A3006 170 97 1200 000/00 RMK AO2 T02330228
53988KBKB BKB20190923073511309/23/19 07:35:31  5-MIN KBKB 231335Z AUTO 00000KT 3SM BR OVC002 24/23 A3006 170 93 1300 000/00 RMK AO2 T02390228
53988KBKB BKB20190923074011309/23/19 07:40:31  5-MIN KBKB 231340Z AUTO 00000KT 5SM BR OVC002 24/23 A3006 170 93 1300 000/00 RMK AO2 T02440233
53988KBKB BKB20190923074511009/23/19 07:45:31  5-MIN KBKB 231345Z AUTO 00000KT 7SM OVC002 24/23 A3006 170 93 1300 000/00 RMK AO2 T02440233
53988KBKB BKB20190923075012909/23/19 07:50:31  5-MIN KBKB 231350Z AUTO 00000KT 9SM OVC004 25/24 A3006 170 93 1400 000/00 RMK AO2 CIG 002V006 SLP206 T02500239
53988KBKB BKB20190923075512309/23/19 07:55:31  5-MIN KBKB 231355Z AUTO 00000KT 10SM OVC004 26/24 A3007 160 90 1500 000/00 RMK AO2 CIG 002V008 T02560239
53988KBKB BKB20190923080012309/23/19 08:00:31  5-MIN KBKB 231400Z AUTO 00000KT 10SM BKN004 26/24 A3007 160 90 1500 000/00 RMK AO2 CIG 002V008 T02560239
53988KBKB BKB20190923080512309/23/19 08:05:31  5-MIN KBKB 231405Z AUTO 00000KT 10SM BKN006 26/24 A3007 160 90 1500 000/00 RMK AO2 CIG 003V010 T02560239
53988KBKB BKB20190923081012309/23/19 08:10:31  5-MIN KBKB 231410Z AUTO 00000KT 10SM BKN006 26/23 A3007 160 84 1500 000/00 RMK AO2 CIG 004V010 T02610233
53988KBKB BKB20190923081512309/23/19 08:15:31  5-MIN KBKB 231415Z AUTO 00000KT 10SM BKN008 27/24 A3007 160 84 1600 000/00 RMK AO2 CIG 005V010 T02670239
53988KBKB BKB20190923082012309/23/19 08:20:31  5-MIN KBKB 231420Z AUTO VRB04KT 10SM BKN008 27/24 A3007 160 82 1600 VRB/04 RMK AO2 CIG 006V011 T02720239
53988KBKB BKB20190923082512309/23/19 08:25:31  5-MIN KBKB 231425Z AUTO VRB03KT 10SM BKN008 27/24 A3007 160 82 1600 VRB/03 RMK AO2 CIG 007V013 T02720239
53988KBKB BKB20190923083012309/23/19 08:30:31  5-MIN KBKB 231430Z AUTO 00000KT 10SM BKN010 28/24 A3007 160 79 1700 000/00 RMK AO2 CIG 007V013 T02780239
53988KBKB BKB20190923083511109/23/19 08:35:31  5-MIN KBKB 231435Z AUTO VRB03KT 10SM BKN010 28/24 A3007 160 79 1700 VRB/03 RMK AO2 T02780239
53988KBKB BKB20190923084011109/23/19 08:40:31  5-MIN KBKB 231440Z AUTO VRB03KT 10SM SCT010 27/24 A3007 160 82 1600 VRB/03 RMK AO2 T02720239
53988KBKB BKB20190923084511109/23/19 08:45:31  5-MIN KBKB 231445Z AUTO VRB03KT 10SM SCT011 27/24 A3007 160 82 1600 VRB/03 RMK AO2 T02720239
53988KBKB BKB20190923085010109/23/19 08:50:31  5-MIN KBKB 231450Z AUTO VRB03KT 10SM BKN013 28/23 A3008 150 76 1700 VRB/03 RMK AO2
53988KBKB BKB20190923085511109/23/19 08:55:31  5-MIN KBKB 231455Z AUTO VRB03KT 10SM BKN013 28/24 A3008 150 76 1800 VRB/03 RMK AO2 T02830239
53988KBKB BKB20190923090011109/23/19 09:00:31  5-MIN KBKB 231500Z AUTO VRB05KT 10SM BKN015 28/24 A3008 150 76 1800 VRB/05 RMK AO2 T02830239
53988KBKB BKB20190923090511109/23/19 09:05:31  5-MIN KBKB 231505Z AUTO VRB04KT 10SM SCT015 28/23 A3008 150 76 1700 VRB/04 RMK AO2 T02780233
53988KBKB BKB20190923091011109/23/19 09:10:31  5-MIN KBKB 231510Z AUTO VRB04KT 10SM SCT014 28/23 A3008 150 76 1700 VRB/04 RMK AO2 T02780233
53988KBKB BKB20190923091511109/23/19 09:15:31  5-MIN KBKB 231515Z AUTO VRB03KT 10SM SCT014 28/23 A3008 150 74 1800 VRB/03 RMK AO2 T02830233
53988KBKB BKB20190923092011109/23/19 09:20:31  5-MIN KBKB 231520Z AUTO VRB03KT 10SM FEW016 28/23 A3008 150 74 1800 VRB/03 RMK AO2 T02830233
53988KBKB BKB20190923092511109/23/19 09:25:31  5-MIN KBKB 231525Z AUTO VRB03KT 10SM FEW016 29/24 A3008 150 71 1900 VRB/03 RMK AO2 T02940239
53988KBKB BKB20190923093011109/23/19 09:30:31  5-MIN KBKB 231530Z AUTO VRB03KT 10SM SCT020 29/23 A3008 150 69 1900 VRB/03 RMK AO2 T02940233
53988KBKB BKB20190923093511109/23/19 09:35:31  5-MIN KBKB 231535Z AUTO VRB03KT 10SM BKN020 30/23 A3008 150 67 1900 VRB/03 RMK AO2 T03000233
53988KBKB BKB20190923094015409/23/19 09:40:31  5-MIN KBKB 231540Z AUTO VRB03KT 10SM BKN020 30/23 A3008 150 67 1900 VRB/03 RMK AO2 T03000233 A3000 220 55 2200 VRB/04 RMK AO2 T03170217
53988KBKB BKB20190923132012509/23/19 13:20:31  5-MIN KBKB 231920Z AUTO 00000KT 10SM SC0 BKN060 33/22 A3000 222 A3000 220 55 2200 000/00 RMK AO2 T03170217
53988KBKB BKB20190923132512509/23/19 13:25:31  5-MIN KBKB 231925Z AUTO 00000KT 10SM SCT046 BKN060 BKN095 33/22 A3000 220 51 2300 000/00 RMK AO2 T03280217
53988KBKB BKB20190923133012509/23/19 13:30:31  5-MIN KBKB 231930Z AUTO 00000KT 10SM FEW045 BKN050 BKN065 33/21 A3000 220 48 2400 000/00 RMK AO2 T03330211
53988KBKB BKB20190923133511809/23/19 13:35:31  5-MIN KBKB 231935Z AUTO VRB03KT 10SM BKN050 BKN060 34/22 A3000 220 48 2500 VRB/03 RMK AO2 T03390217
53988KBKB BKB20190923134011809/23/19 13:40:31  5-MIN KBKB 231940Z AUTO VRB04KT 10SM SCT050 BKN060 33/22 A3000 220 50 2400 VRB/04 RMK AO2 T03330217
53988KBKB BKB20190923134511809/23/19 13:45:31  5-MIN KBKB 231945Z AUTO VRB03KT 10SM FEW048 SCT060 32/22 A3000 230 55 2200 VRB/03 RMK AO2 T03170217
53988KBKB BKB20190923135012509/23/19 13:50:31  5-MIN KBKB 231950Z AUTO 00000KT 10SM FEW048 SCT060 31/22 A3000 230 56 2200 000/00 RMK AO2 SLP182 T03110217
53988KBKB BKB20190923135511809/23/19 13:55:31  5-MIN KBKB 231955Z AUTO 00000KT 10SM FEW050 SCT060 31/22 A2999 230 58 2200 000/00 RMK AO2 T03110222
53988KBKB BKB20190923140011109/23/19 14:00:31  5-MIN KBKB 232000Z AUTO 00000KT 10SM FEW060 31/22 A2999 230 58 2200 000/00 RMK AO2 T03110222
53988KBKB BKB20190923140013509/23/19 14:00:31  5-MIN KBKB 232000Z AUTO 0000231940Z AUTO VRB04KT 10SM SCT050 BKN060 33/22 A3000 220 50 2400 VRB/04 RMK AO2 T03330217
53988KBKB BKB20190923140510809/23/19 14:05:31  5-MIN KBKB 232005Z AUTO 00000KT 10SM CLR 32/22 A2999 230 56 2200 000/00 RMK AO2 T03170222
53988KBKB BKB20190923141010809/23/19 14:10:31  5-MIN KBKB 232010Z AUTO 00000KT 10SM CLR 33/22 A2999 230 51 2400 000/00 RMK AO2 T03280217
53988KBKB BKB20190923141510809/23/19 14:15:31  5-MIN KBKB 232015Z AUTO 14003KT 10SM CLR 33/21 A2999 230 49 2400 130/03 RMK AO2 T03280211
53988KBKB BKB20190923142005909/23/19 14:20:31  5-MIN KBKB 232020Z AUTO 00000KT 03110222
53988KBKB BKB20190923142010809/23/19 14:20:31  5-MIN KBKB 232020Z AUTO 00000KT 10SM CLR 33/22 A2999 240 51 2400 000/00 RMK AO2 T03280217
53988KBKB BKB20190923142506209/23/19 14:25:31  5-MIN KBKB 232025Z AUTO 00000KTO2 T03110222
53988KBKB BKB20190923142510809/23/19 14:25:31  5-MIN KBKB 232025Z AUTO 00000KT 10SM CLR 32/21 A2998 240 51 2300 000/00 RMK AO2 T03220211
53988KBKB BKB20190923143010809/23/19 14:30:31  5-MIN KBKB 232030Z AUTO VRB03KT 10SM CLR 32/21 A2998 240 53 2200 VRB/03 RMK AO2 T03170211
53988KBKB BKB20190923143012009/23/19 14:30:31  5-MIN KBKB 232030Z AUTO VRB03KT 10SM CLR 32/M BKN070 32/22 A2997 250 55 2200 000/00 RMK AO2 T03170217
53988KBKB BKB20190923143510809/23/19 14:35:31  5-MIN KBKB 232035Z AUTO 00000KT 10SM CLR 32/22 A2998 240 55 2200 000/00 RMK AO2 T03170217
53988KBKB BKB20190923144011109/23/19 14:40:31  5-MIN KBKB 232040Z AUTO 00000KT 10SM FEW065 32/22 A2998 240 56 2200 000/00 RMK AO2 T03170222
53988KBKB BKB20190923144516909/23/19 14:45:31  5-MIN KBKB 232045Z AUTO 00000KT 10SM SCT065 32/22  14:25:31  5-MIN KBKB 232025Z AUTO 00000KT 10SM CLR 32/21 A2998 240 51 2300 000/00 RMK AO2 T03220211
53988KBKB BKB20190923154511809/23/19 15:45:31  5-MIN KBKB 232145Z AUTO 00000KT 10SM SCT047 OVC060 32/22 A2997 250 55 2300 000/00 RMK AO2 T03220222
53988KBKB BKB20190923155012509/23/19 15:50:31  5-MIN KBKB 232150Z AUTO VRB03KT 10SM FEW047 OVC060 32/22 A2997 250 56 2300 VRB/03 RMK AO2 SLP175 T03170222
53988KBKB BKB20190923155511109/23/19 15:55:31  5-MIN KBKB 232155Z AUTO 00000KT 10SM OVC060 32/22 A2997 250 56 2200 000/00 RMK AO2 T03170222
53988KBKB BKB20190923160011109/23/19 16:00:31  5-MIN KBKB 232200Z AUTO VRB03KT 10SM OVC065 32/22 A2997 250 55 2300 VRB/03 RMK AO2 T03220222
53988KBKB BKB20190923160511109/23/19 16:05:31  5-MIN KBKB 232205Z AUTO 00000KT 10SM BKN065 33/22 A2997 250 53 2400 000/00 RMK AO2 T03280222
53988KBKB BKB20190923161011109/23/19 16:10:31  5-MIN KBKB 232210Z AUTO 00000KT 10SM BKN065 33/22 A2997 250 53 2400 000/00 RMK AO2 T03280222
53988KBKB BKB20190923161511109/23/19 16:15:31  5-MIN KBKB 232215Z AUTO 00000KT 10SM BKN065 33/22 A2997 250 51 2400 000/00 RMK AO2 T03280217
53988KBKB BKB20190923162011109/23/19 16:20:31  5-MIN KBKB 232220Z AUTO 00000KT 10SM BKN070 32/22 A2997 250 53 2300 000/00 RMK AO2 T03220217
53988KBKB BKB20190923162511109/23/19 16:25:31  5-MIN KBKB 232225Z AUTO VRB03KT 10SM BKN070 32/22 A2997 250 53 2300 VRB/03 RMK AO2 T03220217
53988KBKB BKB20190923163011109/23/19 16:30:31  5-MIN KBKB 232230Z AUTO 15003KT 10SM BKN070 31/22 A2997 250 56 2200 140/03 RMK AO2 T03110217
53988KBKB BKB20190923163511109/23/19 16:35:31  5-MIN KBKB 232235Z AUTO VRB03KT 10SM BKN070 32/22 A2997 250 55 2200 VRB/03 RMK AO2 T03170217
53988KBKB BKB20190923164011109/23/19 16:40:31  5-MIN KBKB 232240Z AUTO 00000KT 10SM BKN070 32/22 A2997 250 55 2200 000/00 RMK AO2 T03170217
53988KBKB BKB20190923164511809/23/19 16:45:31  5-MIN KBKB 232245Z AUTO 00000KT 10SM BKN070 BKN095 31/22 A2997 250 56 2200 000/00 RMK AO2 T03110217
53988KBKB BKB20190923165012509/23/19 16:50:31  5-MIN KBKB 232250Z AUTO 00000KT 10SM SCT070 OVC095 31/22 A2997 250 56 2200 000/00 RMK AO2 SLP175 T03110217
53988KBKB BKB20190923165511809/23/19 16:55:31  5-MIN KBKB 232255Z AUTO 00000KT 10SM SCT070 OVC095 31/22 A2997 250 58 2100 000/00 RMK AO2 T03060217
53988KBKB BKB20190923170011809/23/19 17:00:31  5-MIN KBKB 232300Z AUTO 00000KT 10SM FEW070 BKN095 30/22 A2997 250 60 2100 000/00 RMK AO2 T03000217
53988KBKB BKB20190923170511809/23/19 17:05:31  5-MIN KBKB 232305Z AUTO 00000KT 10SM FEW070 BKN095 30/22 A2997 250 60 2100 000/00 RMK AO2 T03000217
53988KBKB BKB20190923171011109/23/19 17:10:31  5-MIN KBKB 232310Z AUTO 00000KT 10SM SCT095 29/23 A2997 250 67 2000 000/00 RMK AO2 T02940228
53988KBKB BKB20190923171511109/23/19 17:15:31  5-MIN KBKB 232315Z AUTO 00000KT 10SM SCT095 29/23 A2997 250 69 1900 000/00 RMK AO2 T02890228
53988KBKB BKB20190923172011109/23/19 17:20:31  5-MIN KBKB 232320Z AUTO 00000KT 10SM FEW095 29/23 A2997 250 69 1900 000/00 RMK AO2 T02890228
53988KBKB BKB20190923172511809/23/19 17:25:31  5-MIN KBKB 232325Z AUTO 00000KT 10SM FEW070 FEW095 28/23 A2997 250 71 1900 000/00 RMK AO2 T02830228
53988KBKB BKB20190923173011109/23/19 17:30:31  5-MIN KBKB 232330Z AUTO 00000KT 10SM FEW070 28/23 A2997 260 71 1900 000/00 RMK AO2 T02830228
53988KBKB BKB20190923173511109/23/19 17:35:31  5-MIN KBKB 232335Z AUTO 00000KT 10SM FEW070 28/23 A2997 260 71 1900 000/00 RMK AO2 T02830228
53988KBKB BKB20190923174011109/23/19 17:40:31  5-MIN KBKB 232340Z AUTO 00000KT 10SM FEW070 28/23 A2997 250 76 1800 000/00 RMK AO2 T02780233
53988KBKB BKB20190923174511009/23/19 17:45:31  5-MIN KBKB 232345Z AUTO 00000KT 9SM SCT070 27/23 A2997 260 79 1800 000/00 RMK AO2 T02720233
53988KBKB BKB20190923175013509/23/19 17:50:31  5-MIN KBKB 232350Z AUTO 00000KT 8SM SCT070 27/23 A2997 260 76 1800 000/00 RMK AO2 SLP173 T02720228 10339 20272 56021
53988KBKB BKB20190923175511009/23/19 17:55:31  5-MIN KBKB 232355Z AUTO 00000KT 8SM SCT075 27/23 A2997 260 76 1800 000/00 RMK AO2 T02720228
53988KBKB BKB20190923180011109/23/19 18:00:31  5-MIN KBKB 240000Z AUTO 00000KT 10SM SCT075 27/22 A2997 250 74 1800 000/00 RMK AO2 T02720222
53988KBKB BKB20190923180511109/23/19 18:05:31  5-MIN KBKB 240005Z AUTO 00000KT 10SM FEW075 27/22 A2997 250 76 1700 000/00 RMK AO2 T02670222
53988KBKB BKB20190923181011109/23/19 18:10:31  5-MIN KBKB 240010Z AUTO 00000KT 10SM SCT070 27/22 A2997 250 76 1700 000/00 RMK AO2 T02670222
53988KBKB BKB20190923181511109/23/19 18:15:31  5-MIN KBKB 240015Z AUTO 00000KT 10SM SCT070 27/22 A2997 250 76 1700 000/00 RMK AO2 T02670222
53988KBKB BKB20190923182011109/23/19 18:20:31  5-MIN KBKB 240020Z AUTO 00000KT 10SM BKN070 26/22 A2998 250 79 1600 000/00 RMK AO2 T02610222
53988KBKB BKB20190923182511109/23/19 18:25:31  5-MIN KBKB 240025Z AUTO 00000KT 10SM BKN070 26/22 A2997 250 79 1600 000/00 RMK AO2 T02610222
53988KBKB BKB20190923183011109/23/19 18:30:31  5-MIN KBKB 240030Z AUTO 00000KT 10SM BKN070 26/23 A2997 250 81 1600 000/00 RMK AO2 T02610228
53988KBKB BKB20190923183511009/23/19 18:35:31  5-MIN KBKB 240035Z AUTO 00000KT 9SM OVC070 27/22 A2997 250 76 1700 000/00 RMK AO2 T02670222
53988KBKB BKB20190923184011009/23/19 18:40:31  5-MIN KBKB 240040Z AUTO 00000KT 9SM OVC075 27/23 A2997 250 79 1700 000/00 RMK AO2 T02670228
53988KBKB BKB20190923184511009/23/19 18:45:31  5-MIN KBKB 240045Z AUTO 00000KT 9SM OVC075 26/23 A2997 250 81 1600 000/00 RMK AO2 T02610228
53988KBKB BKB20190923185011809/23/19 18:50:31  5-MIN KBKB 240050Z AUTO 00000KT 10SM OVC075 27/23 A2997 250 79 1700 000/00 RMK AO2 SLP176 T02670228
53988KBKB BKB20190923185511109/23/19 18:55:31  5-MIN KBKB 240055Z AUTO 00000KT 10SM OVC075 26/23 A2998 250 81 1600 000/00 RMK AO2 T02610228
53988KBKB BKB20190923190011109/23/19 19:00:31  5-MIN KBKB 240100Z AUTO 00000KT 10SM OVC080 26/23 A2998 250 84 1600 000/00 RMK AO2 T02610233
53988KBKB BKB20190923190511109/23/19 19:05:31  5-MIN KBKB 240105Z AUTO 00000KT 10SM OVC080 26/23 A2998 250 81 1600 000/00 RMK AO2 T02610228
53988KBKB BKB20190923191011109/23/19 19:10:31  5-MIN KBKB 240110Z AUTO 00000KT 10SM BKN080 26/22 A2998 250 79 1600 000/00 RMK AO2 T02610222
53988KBKB BKB20190923191511109/23/19 19:15:31  5-MIN KBKB 240115Z AUTO 00000KT 10SM BKN080 26/22 A2998 240 81 1600 000/00 RMK AO2 T02560222
53988KBKB BKB20190923192011109/23/19 19:20:31  5-MIN KBKB 240120Z AUTO 00000KT 10SM SCT080 26/22 A2998 250 81 1600 000/00 RMK AO2 T02560222
53988KBKB BKB20190923192511109/23/19 19:25:31  5-MIN KBKB 240125Z AUTO 00000KT 10SM FEW080 26/22 A2998 240 81 1600 000/00 RMK AO2 T02560222
53988KBKB BKB20190923193011109/23/19 19:30:31  5-MIN KBKB 240130Z AUTO 00000KT 10SM FEW080 26/22 A2998 240 81 1600 000/00 RMK AO2 T02560222
53988KBKB BKB20190923193510809/23/19 19:35:31  5-MIN KBKB 240135Z AUTO 00000KT 10SM CLR 25/22 A2998 240 81 1500 000/00 RMK AO2 T02500217
53988KBKB BKB20190923194010809/23/19 19:40:31  5-MIN KBKB 240140Z AUTO 00000KT 10SM CLR 26/22 A2998 240 79 1600 000/00 RMK AO2 T02560217
53988KBKB BKB20190923194510809/23/19 19:45:31  5-MIN KBKB 240145Z AUTO 00000KT 10SM CLR 25/22 A2998 240 84 1500 000/00 RMK AO2 T02500222
53988KBKB BKB20190923195011509/23/19 19:50:31  5-MIN KBKB 240150Z AUTO 00000KT 10SM CLR 25/22 A2998 240 84 1500 000/00 RMK AO2 SLP177 T02500222
53988KBKB BKB20190923195510809/23/19 19:55:31  5-MIN KBKB 240155Z AUTO 00000KT 10SM CLR 25/22 A2998 240 81 1500 000/00 RMK AO2 T02500217
53988KBKB BKB20190923200010809/23/19 20:00:31  5-MIN KBKB 240200Z AUTO 00000KT 10SM CLR 24/22 A2998 240 84 1400 000/00 RMK AO2 T02440217
53988KBKB BKB20190923200510809/23/19 20:05:31  5-MIN KBKB 240205Z AUTO 00000KT 10SM CLR 24/22 A2998 240 84 1400 000/00 RMK AO2 T02440217
53988KBKB BKB20190923201010809/23/19 20:10:31  5-MIN KBKB 240210Z AUTO 00000KT 10SM CLR 24/22 A2998 240 84 1400 000/00 RMK AO2 T02440217
53988KBKB BKB20190923201510809/23/19 20:15:31  5-MIN KBKB 240215Z AUTO 00000KT 10SM CLR 24/22 A2998 240 87 1400 000/00 RMK AO2 T02390217
53988KBKB BKB20190923202010809/23/19 20:20:31  5-MIN KBKB 240220Z AUTO 00000KT 10SM CLR 24/22 A2998 240 87 1400 000/00 RMK AO2 T02390217
53988KBKB BKB20190923202510809/23/19 20:25:31  5-MIN KBKB 240225Z AUTO 00000KT 10SM CLR 24/22 A2998 240 87 1400 000/00 RMK AO2 T02390217
53988KBKB BKB20190923203010809/23/19 20:30:31  5-MIN KBKB 240230Z AUTO 00000KT 10SM CLR 24/21 A2999 240 84 1400 000/00 RMK AO2 T02390211
53988KBKB BKB20190923203510809/23/19 20:35:31  5-MIN KBKB 240235Z AUTO 00000KT 10SM CLR 24/21 A2999 240 84 1400 000/00 RMK AO2 T02390211
53988KBKB BKB20190923204010809/23/19 20:40:31  5-MIN KBKB 240240Z AUTO 00000KT 10SM CLR 23/21 A2999 240 87 1300 000/00 RMK AO2 T02330211
53988KBKB BKB20190923204510809/23/19 20:45:31  5-MIN KBKB 240245Z AUTO 00000KT 10SM CLR 24/22 A2999 240 87 1400 000/00 RMK AO2 T02390217
53988KBKB BKB20190923205012109/23/19 20:50:31  5-MIN KBKB 240250Z AUTO 00000KT 10SM CLR 23/22 A2999 240 90 1300 000/00 RMK AO2 SLP179 T02330217 58004
53988KBKB BKB20190923205510809/23/19 20:55:31  5-MIN KBKB 240255Z AUTO 00000KT 10SM CLR 23/22 A2999 240 90 1300 000/00 RMK AO2 T02330217
53988KBKB BKB20190923210010809/23/19 21:00:31  5-MIN KBKB 240300Z AUTO 00000KT 10SM CLR 23/22 A2999 230 90 1300 000/00 RMK AO2 T02330217
53988KBKB BKB20190923210510809/23/19 21:05:31  5-MIN KBKB 240305Z AUTO 00000KT 10SM CLR 23/22 A2999 230 90 1300 000/00 RMK AO2 T02330217
53988KBKB BKB20190923211010809/23/19 21:10:31  5-MIN KBKB 240310Z AUTO 00000KT 10SM CLR 23/22 A3000 230 90 1300 000/00 RMK AO2 T02330217
53988KBKB BKB20190923211510809/23/19 21:15:31  5-MIN KBKB 240315Z AUTO 00000KT 10SM CLR 24/22 A3000 230 87 1400 000/00 RMK AO2 T02390217
53988KBKB BKB20190923212010809/23/19 21:20:31  5-MIN KBKB 240320Z AUTO 00000KT 10SM CLR 24/22 A3000 230 87 1400 000/00 RMK AO2 T02390217
53988KBKB BKB20190923212510809/23/19 21:25:31  5-MIN KBKB 240325Z AUTO 00000KT 10SM CLR 24/21 A2999 230 84 1400 000/00 RMK AO2 T02390211
53988KBKB BKB20190923213010809/23/19 21:30:31  5-MIN KBKB 240330Z AUTO 00000KT 10SM CLR 24/22 A2999 230 87 1400 000/00 RMK AO2 T02390217
53988KBKB BKB20190923213510809/23/19 21:35:31  5-MIN KBKB 240335Z AUTO 00000KT 10SM CLR 24/22 A2999 230 87 1400 000/00 RMK AO2 T02390217
53988KBKB BKB20190923214010809/23/19 21:40:31  5-MIN KBKB 240340Z AUTO 00000KT 10SM CLR 24/22 A2999 230 87 1400 000/00 RMK AO2 T02390217
53988KBKB BKB20190923214510809/23/19 21:45:31  5-MIN KBKB 240345Z AUTO 00000KT 10SM CLR 24/22 A2999 230 87 1400 000/00 RMK AO2 T02390217
53988KBKB BKB20190923215011509/23/19 21:50:31  5-MIN KBKB 240350Z AUTO 00000KT 10SM CLR 24/22 A2999 230 87 1400 000/00 RMK AO2 SLP180 T02390217
53988KBKB BKB20190923215510809/23/19 21:55:31  5-MIN KBKB 240355Z AUTO 00000KT 10SM CLR 24/22 A2999 230 87 1400 000/00 RMK AO2 T02390217
53988KBKB BKB20190923220010809/23/19 22:00:31  5-MIN KBKB 240400Z AUTO 00000KT 10SM CLR 24/22 A2999 230 87 1400 000/00 RMK AO2 T02390217
53988KBKB BKB20190923220510809/23/19 22:05:31  5-MIN KBKB 240405Z AUTO 00000KT 10SM CLR 24/22 A2999 230 87 1400 000/00 RMK AO2 T02390217
53988KBKB BKB20190923221010809/23/19 22:10:31  5-MIN KBKB 240410Z AUTO 00000KT 10SM CLR 24/22 A2999 240 87 1400 000/00 RMK AO2 T02390217
53988KBKB BKB20190923221510809/23/19 22:15:31  5-MIN KBKB 240415Z AUTO 00000KT 10SM CLR 24/22 A2999 240 87 1400 000/00 RMK AO2 T02390217
53988KBKB BKB20190923222010809/23/19 22:20:31  5-MIN KBKB 240420Z AUTO 00000KT 10SM CLR 24/22 A2999 240 87 1400 000/00 RMK AO2 T02390217
53988KBKB BKB20190923222510809/23/19 22:25:31  5-MIN KBKB 240425Z AUTO 00000KT 10SM CLR 24/22 A2999 240 87 1400 000/00 RMK AO2 T02390217
53988KBKB BKB20190923223010809/23/19 22:30:31  5-MIN KBKB 240430Z AUTO 00000KT 10SM CLR 24/22 A2999 240 87 1400 000/00 RMK AO2 T02390217
53988KBKB BKB20190923223510809/23/19 22:35:31  5-MIN KBKB 240435Z AUTO 00000KT 10SM CLR 24/22 A2999 240 87 1400 000/00 RMK AO2 T02390217
53988KBKB BKB20190923224010809/23/19 22:40:31  5-MIN KBKB 240440Z AUTO 00000KT 10SM CLR 24/22 A2998 240 87 1400 000/00 RMK AO2 T02390217
53988KBKB BKB20190923224510809/23/19 22:45:31  5-MIN KBKB 240445Z AUTO 00000KT 10SM CLR 24/22 A2998 240 87 1400 000/00 RMK AO2 T02390217
53988KBKB BKB20190923225011509/23/19 22:50:31  5-MIN KBKB 240450Z AUTO 00000KT 10SM CLR 24/22 A2998 240 87 1400 000/00 RMK AO2 SLP178 T02390217
53988KBKB BKB20190923225510809/23/19 22:55:31  5-MIN KBKB 240455Z AUTO 00000KT 10SM CLR 24/22 A2998 240 87 1400 000/00 RMK AO2 T02390217
53988KBKB BKB20190923230010809/23/19 23:00:31  5-MIN KBKB 240500Z AUTO 00000KT 10SM CLR 24/22 A2998 240 87 1400 000/00 RMK AO2 T02390217
53988KBKB BKB20190923230515409/23/19 23:05:31  5-MIN KBKB 240505Z AUTO 00000KT 10SM CLR 23/22 A2998 240 90 1300 000/00 RMK AO2 T0233021709/23/19 23:10:31  50 000/00 RMK AO2 T02280217
53988KBKB BKB20190923233510809/23/19 23:35:31  5-MIN KBKB 240535Z AUTO 00000KT 10SM CLR 23/22 A2997 250 90 1300 000/00 RMK AO2 T02330217
53988KBKB BKB20190923234010809/23/19 23:40:31  5-MIN KBKB 240540Z AUTO 00000KT 10SM CLR 23/22 A2997 250 93 1300 000/00 RMK AO2 T02280217
53988KBKB BKB20190923234510809/23/19 23:45:31  5-MIN KBKB 240545Z AUTO 00000KT 10SM CLR 23/22 A2997 250 93 1300 000/00 RMK AO2 T02280217
53988KBKB BKB20190923235014309/23/19 23:50:31  5-MIN KBKB 240550Z AUTO 00000KT 10SM CLR 23/22 A2997 250 93 1300 000/00 RMK AO2 SLP175 T02280217 10272 20228 403390211 51007
53988KBKB BKB20190923235510809/23/19 23:55:31  5-MIN KBKB 240555Z AUTO 00000KT 10SM CLR 23/22 A2998 250 93 1200 000/00 RMK AO2 T02280217
53988KBKB BKB20190923235514109/23/19 23:55:31  5-MIN KBKB 240555Z AUTO 00000KT 10SM CLR 23/22 A2998 250 93 1200 000/00 RMK AO2 T02280217 93 1300 000/00 RMK AO2 T02280217
53988KBKB BKB20190924000010709/24/19 00:00:31  5-MIN KBKB 240600Z AUTO 00000KT 9SM CLR 23/22 A2998 250 93 1200 000/00 RMK AO2 T02280217
53988KBKB BKB20190924000510709/24/19 00:05:31  5-MIN KBKB 240605Z AUTO 00000KT 9SM CLR 23/22 A2998 250 93 1200 000/00 RMK AO2 T02280217
53988KBKB BKB20190924001010809/24/19 00:10:31  5-MIN KBKB 240610Z AUTO 00000KT 10SM CLR 22/22 A2998 250 97 1200 000/00 RMK AO2 T02220217
53988KBKB BKB20190924001510809/24/19 00:15:31  5-MIN KBKB 240615Z AUTO 00000KT 10SM CLR 23/21 A2998 250 90 1200 000/00 RMK AO2 T02280211
53988KBKB BKB20190924002010809/24/19 00:20:31  5-MIN KBKB 240620Z AUTO 00000KT 10SM CLR 22/21 A2998 250 93 1200 000/00 RMK AO2 T02220211
53988KBKB BKB20190924002510709/24/19 00:25:31  5-MIN KBKB 240625Z AUTO 00000KT 9SM CLR 23/22 A2998 250 93 1200 000/00 RMK AO2 T02280217
53988KBKB BKB20190924003010709/24/19 00:30:31  5-MIN KBKB 240630Z AUTO 00000KT 8SM CLR 22/21 A2998 250 93 1200 000/00 RMK AO2 T02220211
53988KBKB BKB20190924003510709/24/19 00:35:31  5-MIN KBKB 240635Z AUTO 00000KT 9SM CLR 22/21 A2998 250 93 1200 000/00 RMK AO2 T02220211
53988KBKB BKB20190924004010709/24/19 00:40:31  5-MIN KBKB 240640Z AUTO 00000KT 9SM CLR 22/21 A2998 250 93 1200 000/00 RMK AO2 T02220211
53988KBKB BKB20190924004510709/24/19 00:45:31  5-MIN KBKB 240645Z AUTO 00000KT 8SM CLR 22/21 A2997 250 93 1200 000/00 RMK AO2 T02220211
53988KBKB BKB20190924005011409/24/19 00:50:31  5-MIN KBKB 240650Z AUTO 00000KT 8SM CLR 22/21 A2998 250 93 1200 000/00 RMK AO2 SLP176 T02220211
53988KBKB BKB20190924005510709/24/19 00:55:31  5-MIN KBKB 240655Z AUTO 00000KT 8SM CLR 22/21 A2997 250 93 1200 000/00 RMK AO2 T02220211
53988KBKB BKB20190924010010709/24/19 01:00:31  5-MIN KBKB 240700Z AUTO 00000KT 8SM CLR 22/21 A2997 250 93 1200 000/00 RMK AO2 T02220211
53988KBKB BKB20190924010510709/24/19 01:05:31  5-MIN KBKB 240705Z AUTO 00000KT 8SM CLR 22/21 A2997 250 93 1200 000/00 RMK AO2 T02220211
53988KBKB BKB20190924011010709/24/19 01:10:31  5-MIN KBKB 240710Z AUTO 00000KT 8SM CLR 22/21 A2997 250 93 1200 000/00 RMK AO2 T02220211
53988KBKB BKB20190924011510709/24/19 01:15:31  5-MIN KBKB 240715Z AUTO 00000KT 8SM CLR 22/21 A2997 250 93 1200 000/00 RMK AO2 T02220211
53988KBKB BKB20190924012010709/24/19 01:20:31  5-MIN KBKB 240720Z AUTO 00000KT 7SM CLR 22/21 A2997 250 97 1100 000/00 RMK AO2 T02170211
53988KBKB BKB20190924012510709/24/19 01:25:31  5-MIN KBKB 240725Z AUTO 00000KT 7SM CLR 22/21 A2998 250 93 1100 000/00 RMK AO2 T02170206
53988KBKB BKB20190924013011009/24/19 01:30:31  5-MIN KBKB 240730Z AUTO 00000KT 6SM BR CLR 22/21 A2997 250 93 1100 000/00 RMK AO2 T02170206
53988KBKB BKB20190924013511009/24/19 01:35:31  5-MIN KBKB 240735Z AUTO 00000KT 6SM BR CLR 22/21 A2997 250 93 1100 000/00 RMK AO2 T02170206
53988KBKB BKB20190924014011009/24/19 01:40:31  5-MIN KBKB 240740Z AUTO 00000KT 6SM BR CLR 22/21 A2997 250 93 1100 000/00 RMK AO2 T02170206
53988KBKB BKB20190924014511009/24/19 01:45:31  5-MIN KBKB 240745Z AUTO 00000KT 6SM BR CLR 22/21 A2997 250 93 1100 000/00 RMK AO2 T02170206
53988KBKB BKB20190924015011709/24/19 01:50:31  5-MIN KBKB 240750Z AUTO 00000KT 6SM BR CLR 22/21 A2997 250 93 1100 000/00 RMK AO2 SLP174 T02170206
53988KBKB BKB20190924015511009/24/19 01:55:31  5-MIN KBKB 240755Z AUTO 00000KT 6SM BR CLR 22/21 A2997 250 93 1100 000/00 RMK AO2 T02170206
53988KBKB BKB20190924020011009/24/19 02:00:31  5-MIN KBKB 240800Z AUTO 00000KT 6SM BR CLR 22/21 A2997 250 93 1100 000/00 RMK AO2 T02170206
53988KBKB BKB20190924020511009/24/19 02:05:31  5-MIN KBKB 240805Z AUTO 00000KT 6SM BR CLR 22/21 A2997 250 93 1100 000/00 RMK AO2 T02170206
53988KBKB BKB20190924021011809/24/19 02:10:31  5-MIN KBKB 240810Z AUTO 00000KT 7SM CLR 22/21 A2997 250  A2997 250 93 1100 000/00 RMK AO2 T02110200
53988KBKB BKB20190924024511009/24/19 02:45:31  5-MIN KBKB 240845Z AUTO 00000KT 6SM BR CLR 22/21 A2997 250 93 1100 000/00 RMK AO2 T02170206
53988KBKB BKB20190924025012309/24/19 02:50:31  5-MIN KBKB 240850Z AUTO 00000KT 6SM BR CLR 21/21 A2997 250 97 1100 000/00 RMK AO2 SLP174 T02110206 58004
53988KBKB BKB20190924025511009/24/19 02:55:31  5-MIN KBKB 240855Z AUTO 00000KT 6SM BR CLR 21/21 A2997 250 97 1100 000/00 RMK AO2 T02110206
53988KBKB BKB20190924030011009/24/19 03:00:31  5-MIN KBKB 240900Z AUTO 00000KT 6SM BR CLR 21/21 A2997 250 97 1100 000/00 RMK AO2 T02110206
53988KBKB BKB20190924030511009/24/19 03:05:31  5-MIN KBKB 240905Z AUTO 00000KT 6SM BR CLR 21/21 A2997 250 97 1100 000/00 RMK AO2 T02110206
53988KBKB BKB20190924031011009/24/19 03:10:31  5-MIN KBKB 240910Z AUTO 00000KT 6SM BR CLR 21/21 A2997 250 97 1100 000/00 RMK AO2 T02110206
53988KBKB BKB20190924031511009/24/19 03:15:31  5-MIN KBKB 240915Z AUTO 00000KT 6SM BR CLR 21/21 A2997 250 97 1100 000/00 RMK AO2 T02110206
53988KBKB BKB20190924032011009/24/19 03:20:31  5-MIN KBKB 240920Z AUTO 00000KT 6SM BR CLR 21/21 A2997 250 97 1100 000/00 RMK AO2 T02110206
53988KBKB BKB20190924032511009/24/19 03:25:31  5-MIN KBKB 240925Z AUTO 00000KT 6SM BR CLR 21/21 A2997 250 97 1100 000/00 RMK AO2 T02110206
53988KBKB BKB20190924033011009/24/19 03:30:31  5-MIN KBKB 240930Z AUTO 00000KT 6SM BR CLR 21/20 A2997 250 93 1100 000/00 RMK AO2 T02110200
53988KBKB BKB20190924033511009/24/19 03:35:31  5-MIN KBKB 240935Z AUTO 00000KT 6SM BR CLR 21/20 A2997 250 93 1100 000/00 RMK AO2 T02110200
53988KBKB BKB20190924034010709/24/19 03:40:31  5-MIN KBKB 240940Z AUTO 00000KT 7SM CLR 21/20 A2997 250 93 1100 000/00 RMK AO2 T02110200
53988KBKB BKB20190924034511009/24/19 03:45:31  5-MIN KBKB 240945Z AUTO 00000KT 6SM BR CLR 21/20 A2997 250 93 1100 000/00 RMK AO2 T02110200
53988KBKB BKB20190924035011709/24/19 03:50:31  5-MIN KBKB 240950Z AUTO 00000KT 6SM BR CLR 21/20 A2997 250 93 1100 000/00 RMK AO2 SLP174 T02110200
53988KBKB BKB20190924035511009/24/19 03:55:31  5-MIN KBKB 240955Z AUTO 00000KT 6SM BR CLR 21/20 A2997 250 93 1100 000/00 RMK AO2 T02110200
53988KBKB BKB20190924040011009/24/19 04:00:31  5-MIN KBKB 241000Z AUTO 00000KT 6SM BR CLR 21/20 A2997 250 97 1000 000/00 RMK AO2 T02060200
53988KBKB BKB20190924040511009/24/19 04:05:31  5-MIN KBKB 241005Z AUTO 00000KT 6SM BR CLR 21/20 A2997 250 93 1100 000/00 RMK AO2 T02110200
53988KBKB BKB20190924041011009/24/19 04:10:31  5-MIN KBKB 241010Z AUTO 00000KT 6SM BR CLR 21/20 A2998 250 93 1100 000/00 RMK AO2 T02110200
53988KBKB BKB20190924041511009/24/19 04:15:31  5-MIN KBKB 241015Z AUTO 00000KT 6SM BR CLR 21/20 A2998 250 93 1100 000/00 RMK AO2 T02110200
53988KBKB BKB20190924042011009/24/19 04:20:31  5-MIN KBKB 241020Z AUTO 00000KT 6SM BR CLR 21/20 A2998 250 97 1000 000/00 RMK AO2 T02060200
53988KBKB BKB20190924042511009/24/19 04:25:31  5-MIN KBKB 241025Z AUTO 00000KT 6SM BR CLR 21/20 A2998 240 97 1000 000/00 RMK AO2 T02060200
53988KBKB BKB20190924043011009/24/19 04:30:31  5-MIN KBKB 241030Z AUTO 00000KT 6SM BR CLR 21/20 A2998 240 97 1000 000/00 RMK AO2 T02060200
53988KBKB BKB20190924043511009/24/19 04:35:31  5-MIN KBKB 241035Z AUTO 00000KT 6SM BR CLR 21/20 A2998 240 97 1000 000/00 RMK AO2 T02060200
53988KBKB BKB20190924044011009/24/19 04:40:31  5-MIN KBKB 241040Z AUTO 00000KT 6SM BR CLR 21/20 A2998 240 97 1000 000/00 RMK AO2 T02060200
53988KBKB BKB20190924044511009/24/19 04:45:31  5-MIN KBKB 241045Z AUTO 00000KT 6SM BR CLR 21/20 A2998 240 97 1000 000/00 RMK AO2 T02060200
53988KBKB BKB20190924045011709/24/19 04:50:31  5-MIN KBKB 241050Z AUTO 00000KT 6SM BR CLR 21/20 A2998 240 97 1000 000/00 RMK AO2 SLP178 T02060200
53988KBKB BKB20190924045511009/24/19 04:55:31  5-MIN KBKB 241055Z AUTO 00000KT 6SM BR CLR 21/20 A2998 240 97 1000 000/00 RMK AO2 T02060200
53988KBKB BKB20190924050011009/24/19 05:00:31  5-MIN KBKB 241100Z AUTO 00000KT 6SM BR CLR 21/20 A2998 240 97 1000 000/00 RMK AO2 T02060200
53988KBKB BKB20190924050511009/24/19 05:05:31  5-MIN KBKB 241105Z AUTO 00000KT 6SM BR CLR 21/20 A2999 240 97 1000 000/00 RMK AO2 T02060200
53988KBKB BKB20190924051011009/24/19 05:10:31  5-MIN KBKB 241110Z AUTO 00000KT 6SM BR CLR 21/20 A2999 240 97 1000 000/00 RMK AO2 T02060200
53988KBKB BKB20190924051511009/24/19 05:15:31  5-MIN KBKB 241115Z AUTO 00000KT 6SM BR CLR 21/20 A2999 240 97 1000 000/00 RMK AO2 T02060200
53988KBKB BKB20190924052011009/24/19 05:20:31  5-MIN KBKB 241120Z AUTO 00000KT 6SM BR CLR 21/20 A2999 230 97 1000 000/00 RMK AO2 T02060200
53988KBKB BKB20190924052511009/24/19 05:25:31  5-MIN KBKB 241125Z AUTO 00000KT 6SM BR CLR 21/20 A2999 230 97 1000 000/00 RMK AO2 T02060200
53988KBKB BKB20190924053011009/24/19 05:30:31  5-MIN KBKB 241130Z AUTO 00000KT 6SM BR CLR 21/19 A2999 230 93 1000 000/00 RMK AO2 T02060194
53988KBKB BKB20190924053511009/24/19 05:35:31  5-MIN KBKB 241135Z AUTO 00000KT 6SM BR CLR 21/19 A2999 230 93 1000 000/00 RMK AO2 T02060194
53988KBKB BKB20190924054010709/24/19 05:40:31  5-MIN KBKB 241140Z AUTO 00000KT 7SM CLR 21/20 A2999 230 97 1000 000/00 RMK AO2 T02060200
53988KBKB BKB20190924054510709/24/19 05:45:31  5-MIN KBKB 241145Z AUTO 00000KT 7SM CLR 21/20 A2999 230 97 1000 000/00 RMK AO2 T02060200
53988KBKB BKB20190924055013209/24/19 05:50:31  5-MIN KBKB 241150Z AUTO 00000KT 7SM CLR 21/20 A2999 230 97 1000 000/00 RMK AO2 SLP183 T02060200 10228 20206 55001
53988KBKB BKB20190924055511009/24/19 05:55:31  5-MIN KBKB 241155Z AUTO 00000KT 6SM BR CLR 21/20 A2999 230 97 1000 000/00 RMK AO2 T02060200
53988KBKB BKB20190924060011009/24/19 06:00:31  5-MIN KBKB 241200Z AUTO 00000KT 6SM BR CLR 21/20 A2999 230 97 1000 000/00 RMK AO2 T02060200
53988KBKB BKB20190924060511009/24/19 06:05:31  5-MIN KBKB 241205Z AUTO 00000KT 5SM BR CLR 21/19 A2999 230 93 1000 000/00 RMK AO2 T02060194
53988KBKB BKB20190924061011009/24/19 06:10:31  5-MIN KBKB 241210Z AUTO 00000KT 5SM BR CLR 21/19 A2999 230 93 1000 000/00 RMK AO2 T02060194
53988KBKB BKB20190924061511009/24/19 06:15:31  5-MIN KBKB 241215Z AUTO 00000KT 5SM BR CLR 21/20 A2999 230 97 1000 000/00 RMK AO2 T02060200
53988KBKB BKB20190924062011009/24/19 06:20:31  5-MIN KBKB 241220Z AUTO 00000KT 6SM BR CLR 21/20 A2999 230 97 1000 000/00 RMK AO2 T02060200
53988KBKB BKB20190924062511009/24/19 06:25:31  5-MIN KBKB 241225Z AUTO 00000KT 6SM BR CLR 21/20 A2999 230 97 1000 000/00 RMK AO2 T02060200
53988KBKB BKB20190924063011009/24/19 06:30:31  5-MIN KBKB 241230Z AUTO 00000KT 6SM BR CLR 21/20 A2999 230 97 1000 000/00 RMK AO2 T02060200
53988KBKB BKB20190924063511009/24/19 06:35:31  5-MIN KBKB 241235Z AUTO 00000KT 6SM BR CLR 21/20 A2999 230 93 1000 000/00 RMK AO2 T02110200
53988KBKB BKB20190924064011009/24/19 06:40:31  5-MIN KBKB 241240Z AUTO 00000KT 6SM BR CLR 21/21 A2999 230 97 1000 000/00 RMK AO2 T02110206
53988KBKB BKB20190924064510709/24/19 06:45:31  5-MIN KBKB 241245Z AUTO 00000KT 7SM CLR 21/21 A2999 230 97 1000 000/00 RMK AO2 T02110206
53988KBKB BKB20190924065011409/24/19 06:50:31  5-MIN KBKB 241250Z AUTO 00000KT 8SM CLR 22/21 A2999 230 93 1100 000/00 RMK AO2 SLP182 T02170206
53988KBKB BKB20190924065510709/24/19 06:55:31  5-MIN KBKB 241255Z AUTO 00000KT 7SM CLR 22/21 A2999 230 93 1100 000/00 RMK AO2 T02170206
53988KBKB BKB20190924070010709/24/19 07:00:31  5-MIN KBKB 241300Z AUTO 00000KT 7SM CLR 22/21 A2999 230 93 1200 000/00 RMK AO2 T02220211
53988KBKB BKB20190924070510709/24/19 07:05:31  5-MIN KBKB 241305Z AUTO 00000KT 7SM CLR 22/22 A2999 230 97 1200 000/00 RMK AO2 T02220217
53988KBKB BKB20190924071010709/24/19 07:10:31  5-MIN KBKB 241310Z AUTO 00000KT 9SM CLR 22/22 A2999 230 97 1200 000/00 RMK AO2 T02220217
53988KBKB BKB20190924071510809/24/19 07:15:31  5-MIN KBKB 241315Z AUTO 00000KT 10SM CLR 23/22 A2999 230 93 1200 000/00 RMK AO2 T02280217
53988KBKB BKB20190924072010809/24/19 07:20:31  5-MIN KBKB 241320Z AUTO 00000KT 10SM CLR 23/22 A2999 230 93 1200 000/00 RMK AO2 T02280217
53988KBKB BKB20190924072510809/24/19 07:25:31  5-MIN KBKB 241325Z AUTO 00000KT 10SM CLR 24/22 A2999 230 90 1400 000/00 RMK AO2 T02390222
53988KBKB BKB20190924073010809/24/19 07:30:31  5-MIN KBKB 241330Z AUTO 00000KT 10SM CLR 24/23 A2999 230 90 1400 000/00 RMK AO2 T02440228
53988KBKB BKB20190924073510809/24/19 07:35:31  5-MIN KBKB 241335Z AUTO 00000KT 10SM CLR 25/23 A2999 230 90 1500 000/00 RMK AO2 T02500233
53988KBKB BKB20190924074010809/24/19 07:40:31  5-MIN KBKB 241340Z AUTO 00000KT 10SM CLR 26/23 A2999 230 87 1500 000/00 RMK AO2 T02560233
53988KBKB BKB20190924074510809/24/19 07:45:31  5-MIN KBKB 241345Z AUTO 00000KT 10SM CLR 26/23 A2999 230 84 1600 000/00 RMK AO2 T02610233
53988KBKB BKB20190924075011509/24/19 07:50:31  5-MIN KBKB 241350Z AUTO 00000KT 10SM CLR 26/23 A2999 230 81 1600 000/00 RMK AO2 SLP182 T02610228
53988KBKB BKB20190924075510809/24/19 07:55:31  5-MIN KBKB 241355Z AUTO VRB03KT 10SM CLR 26/23 A2999 230 81 1600 VRB/03 RMK AO2 T02610228
53988KBKB BKB20190924080010809/24/19 08:00:31  5-MIN KBKB 241400Z AUTO 00000KT 10SM CLR 27/23 A2999 230 79 1700 000/00 RMK AO2 T02670228
53988KBKB BKB20190924080510809/24/19 08:05:31  5-MIN KBKB 241405Z AUTO 21003KT 10SM CLR 27/23 A2999 230 79 1700 210/03 RMK AO2 T02670228
53988KBKB BKB20190924081010809/24/19 08:10:31  5-MIN KBKB 241410Z AUTO 00000KT 10SM CLR 27/23 A2999 230 79 1700 000/00 RMK AO2 T02670228
53988KBKB BKB20190924081510809/24/19 08:15:31  5-MIN KBKB 241415Z AUTO 19003KT 10SM CLR 27/23 A2999 230 76 1700 180/03 RMK AO2 T02720228
53988KBKB BKB20190924082014909/24/19 08:20:31  5-MIN KBKB 241420Z AUTO 00000KT 10SM CLR 27/22 A2999 230 74 1700 000/00 RMK AO2 T0272022209/24230 60 2000 VRB/03 RMK AO2 T03000217
53988KBKB BKB20190924093010809/24/19 09:30:31  5-MIN KBKB 241530Z AUTO VRB03KT 10SM CLR 30/22 A2999 230 60 2000 VRB/03 RMK AO2 T03000217
53988KBKB BKB20190924093510809/24/19 09:35:31  5-MIN KBKB 241535Z AUTO 00000KT 10SM CLR 30/22 A2999 230 60 2000 000/00 RMK AO2 T03000217
53988KBKB BKB20190924094010809/24/19 09:40:31  5-MIN KBKB 241540Z AUTO VRB03KT 10SM CLR 30/22 A2999 230 60 2000 VRB/03 RMK AO2 T03000217
53988KBKB BKB20190924094510809/24/19 09:45:31  5-MIN KBKB 241545Z AUTO 00000KT 10SM CLR 30/22 A2999 230 60 2000 000/00 RMK AO2 T03000217
53988KBKB BKB20190924094517009/24/19 09:45:31  5-MIN KBKB 241545Z AUTO 00000KT 10SM CLR 30/22 A2999 230 60 2000 000/00 RMK AO2 T0UTO 00000KT 10SM CLR 30/22 A2999 230 60 2000 000/00 RMK AO2 T03000217
53988KBKB BKB20190924095011509/24/19 09:50:31  5-MIN KBKB 241550Z AUTO 00000KT 10SM CLR 31/22 A2999 230 58 2200 000/00 RMK AO2 SLP181 T03110222
53988KBKB BKB20190924095510809/24/19 09:55:31  5-MIN KBKB 241555Z AUTO 00000KT 10SM CLR 31/22 A2999 230 58 2100 000/00 RMK AO2 T03060217
53988KBKB BKB20190924095516309/24/19 09:55:31  5-MIN KBKB 241555Z AUTO 00000KT 10SM CLR 31/22 A2999 230 58 2100 000/00 RMK AO2 T03060210SM CLR 30/22 A2999 230 60 2000 000/00 RMK AO2 T03000217
53988KBKB BKB20190924100010509/24/19 10:00:31  5-MIN KBKB 241600Z AUTO VRB03KT CLR 31/21 A3000 230 56 2100 VRB/03 RMK AO2 T03060211 $
53988KBKB BKB20190924100510509/24/19 10:05:31  5-MIN KBKB 241605Z AUTO VRB03KT CLR 31/21 A3000 230 56 2100 VRB/03 RMK AO2 T03060211 $
53988KBKB BKB20190924100516409/24/19 10:05:31  5-MIN KBKB 241605Z AUTO VRB03KT CLR 31/21 A3000 230 56 2100 VRB/03 RMK AO2 T03060211 $09/2SM CLR 30/22 A2999 230 60 2000 000/00 RMK AO2 T03000217
53988KBKB BKB20190924101009609/24/19 10:10:31  5-MIN KBKB 241610Z AUTO 00000KT CLR A3000 M M M 000/00 RMK AO2 PWINO FZRANO $
53988KBKB BKB20190924101508609/24/19 10:15:31  5-MIN KBKB 241615Z AUTO A3000 M M M M /M RMK AO2 PWINO FZRANO PNO $
53988KBKB BKB20190924102008609/24/19 10:20:31  5-MIN KBKB 241620Z AUTO A3000 M M M M /M RMK AO2 PWINO FZRANO PNO $
53988KBKB BKB20190924102508609/24/19 10:25:31  5-MIN KBKB 241625Z AUTO A2999 M M M M /M RMK AO2 PWINO FZRANO PNO $
53988KBKB BKB20190924103008609/24/19 10:30:31  5-MIN KBKB 241630Z AUTO A2999 M M M M /M RMK AO2 PWINO FZRANO PNO $
53988KBKB BKB20190924103508609/24/19 10:35:31  5-MIN KBKB 241635Z AUTO A2999 M M M M /M RMK AO2 PWINO FZRANO PNO $
53988KBKB BKB20190924104008609/24/19 10:40:31  5-MIN KBKB 241640Z AUTO A2999 M M M M /M RMK AO2 PWINO FZRANO PNO $
53988KBKB BKB20190924104508609/24/19 10:45:31  5-MIN KBKB 241645Z AUTO A2999 M M M M /M RMK AO2 PWINO FZRANO PNO $
53988KBKB BKB20190924105009209/24/19 10:50:31  5-MIN KBKB 241650Z AUTO A2998 M M M M /M RMK AO2 SLPNO PWINO FZRANO PNO $
53988KBKB BKB20190924105508609/24/19 10:55:31  5-MIN KBKB 241655Z AUTO A2998 M M M M /M RMK AO2 PWINO FZRANO PNO $
53988KBKB BKB20190924110008609/24/19 11:00:31  5-MIN KBKB 241700Z AUTO A2998 M M M M /M RMK AO2 PWINO FZRANO PNO $
53988KBKB BKB20190924110508609/24/19 11:05:31  5-MIN KBKB 241705Z AUTO A2998 M M M M /M RMK AO2 PWINO FZRANO PNO $
53988KBKB BKB20190924111008609/24/19 11:10:31  5-MIN KBKB 241710Z AUTO A2998 M M M M /M RMK AO2 PWINO FZRANO PNO $
53988KBKB BKB20190924111508609/24/19 11:15:31  5-MIN KBKB 241715Z AUTO A2998 M M M M /M RMK AO2 PWINO FZRANO PNO $
53988KBKB BKB20190924112008609/24/19 11:20:31  5-MIN KBKB 241720Z AUTO A2998 M M M M /M RMK AO2 PWINO FZRANO PNO $
53988KBKB BKB20190924112508609/24/19 11:25:31  5-MIN KBKB 241725Z AUTO A2997 M M M M /M RMK AO2 PWINO FZRANO PNO $
53988KBKB BKB20190924113008609/24/19 11:30:31  5-MIN KBKB 241730Z AUTO A2997 M M M M /M RMK AO2 PWINO FZRANO PNO $
53988KBKB BKB20190924113508609/24/19 11:35:31  5-MIN KBKB 241735Z AUTO A2997 M M M M /M RMK AO2 PWINO FZRANO PNO $
53988KBKB BKB20190924114008609/24/19 11:40:31  5-MIN KBKB 241740Z AUTO A2997 M M M M /M RMK AO2 PWINO FZRANO PNO $
53988KBKB BKB20190924114508609/24/19 11:45:31  5-MIN KBKB 241745Z AUTO A2997 M M M M /M RMK AO2 PWINO FZRANO PNO $
53988KBKB BKB20190924115012409/24/19 11:50:31  5-MIN KBKB 241750Z AUTO A2996 M M M M /M RMK AO2 SLPNO 6//// 56000 PWINO FZRANO PNO $09/24/19 11:55:31  5
53988KBKB BKB20190924140011609/24/19 14:00:31  5-MIN KBKB 242000Z AUTO VRB04KT 10SM +RA CLR 32/19 A2991 310 46 2300 VRB/04 RMK AO2 T03170189 PNO
53988KBKB BKB20190924140512409/24/19 14:05:31  5-MIN KBKB 242005Z AUTO 14004KT 10SM CLR 33/19 A2991 310 44 2400 130/04 RMK AO2 RAEMM T03280194 PWINO PNO
53988KBKB BKB20190924141011609/24/19 14:10:31  5-MIN KBKB 242010Z AUTO 00000KT 10SM -RA CLR 33/19 A2991 310 43 2500 000/00 RMK AO2 T03330194 PNO
53988KBKB BKB20190924141512009/24/19 14:15:31  5-MIN KBKB 242015Z AUTO VRB05KT 10SM CLR 33/19 A2991 310 44 2400 VRB/05 RMK AO2 T03280194 PWINO PNO $
53988KBKB BKB20190924141513809/24/19 14:15:31  5-MIN KBKB 242015Z AUTO VRB05KT 10SM CLR 33/19 A2991 310 44 2400 VRB/05 RMK A1 300 44 2400 140/04 RMK AO2 T03280194 PNO
53988KBKB BKB20190924142012009/24/19 14:20:31  5-MIN KBKB 242020Z AUTO VRB04KT 10SM CLR 33/19 A2990 320 44 2500 VRB/04 RMK AO2 T03280194 PWINO PNO $
53988KBKB BKB20190924142512009/24/19 14:25:31  5-MIN KBKB 242025Z AUTO VRB04KT 10SM CLR 32/19 A2990 320 46 2400 VRB/04 RMK AO2 T03220194 PWINO PNO $
53988KBKB BKB20190924142514009/24/19 14:25:31  5-MIN KBKB 242025Z AUTO VRB04KT 10 AUTO 14004KT 10SM CLR 33/19 A2991 310 44 2400 130/04 RMK AO2 RAEMM T03280194 PWINO PNO
53988KBKB BKB20190924143012009/24/19 14:30:31  5-MIN KBKB 242030Z AUTO VRB03KT 10SM CLR 33/19 A2990 320 44 2500 VRB/03 RMK AO2 T03280194 PWINO PNO $
53988KBKB BKB20190924143013409/24/19 14:30:31  5-MIN KBKB 242030Z AUTO VRB03KT 10SM CLR 33/19 A2990 320 44 2500 VRB/03 RMK AO2 T03280194 PWINO PNO $09/24/19 14:3O
53988KBKB BKB20190924143512309/24/19 14:35:31  5-MIN KBKB 242035Z AUTO 00000KT 10SM FEW050 33/19 A2990 320 44 2500 000/00 RMK AO2 T03280194 PWINO PNO $
53988KBKB BKB20190924144012309/24/19 14:40:31  5-MIN KBKB 242040Z AUTO VRB04KT 10SM SCT050 33/19 A2990 320 43 2500 VRB/04 RMK AO2 T03330194 PWINO PNO $
53988KBKB BKB20190924144013109/24/19 14:40:31  5-MIN KBKB 242040Z AUTO VRB04KT 10SM SCT050 33/19 A2990 320 43 2500 VRB/04 RMK AO2 T03330194 PWINO PNO $NO PNO $
53988KBKB BKB20190924204511509/24/19 20:45:31  5-MIN KBKB 250245Z AUTO 00000KT 10SM RA CLR 22/19 A2991 310 84 1300 000/00 RMK AO2 T02220194 PNO
53988KBKB BKB20190924205013409/24/19 20:50:31  5-MIN KBKB 250250Z AUTO 00000KT 10SM RA CLR 22/20 A2991 310 87 1300 000/00 RMK AO2 SLP154 6//// T02220200 55008 PNO
53988KBKB BKB20190924205511509/24/19 20:55:31  5-MIN KBKB 250255Z AUTO 00000KT 10SM RA CLR 22/19 A2991 310 84 1300 000/00 RMK AO2 T02220194 PNO
53988KBKB BKB20190924210011509/24/19 21:00:31  5-MIN KBKB 250300Z AUTO 00000KT 10SM RA CLR 22/19 A2991 300 84 1300 000/00 RMK AO2 T02220194 PNO
53988KBKB BKB20190924210511509/24/19 21:05:31  5-MIN KBKB 250305Z AUTO 00000KT 10SM RA CLR 22/19 A2991 310 84 1300 000/00 RMK AO2 T02220194 PNO
53988KBKB BKB20190924211011509/24/19 21:10:31  5-MIN KBKB 250310Z AUTO 00000KT 10SM RA CLR 22/19 A2991 300 87 1200 000/00 RMK AO2 T02170194 PNO
53988KBKB BKB20190924211511509/24/19 21:15:31  5-MIN KBKB 250315Z AUTO 00000KT 10SM RA CLR 22/19 A2991 310 87 1200 000/00 RMK AO2 T02170194 PNO
53988KBKB BKB20190924212011509/24/19 21:20:31  5-MIN KBKB 250320Z AUTO 00000KT 10SM RA CLR 22/19 A2991 310 87 1200 000/00 RMK AO2 T02170194 PNO
53988KBKB BKB20190924212511509/24/19 21:25:31  5-MIN KBKB 250325Z AUTO 00000KT 10SM RA CLR 22/19 A2991 310 87 1200 000/00 RMK AO2 T02170194 PNO
53988KBKB BKB20190924213011509/24/19 21:30:31  5-MIN KBKB 250330Z AUTO 00000KT 10SM RA CLR 22/19 A2991 310 87 1200 000/00 RMK AO2 T02170194 PNO
53988KBKB BKB20190924213511509/24/19 21:35:31  5-MIN KBKB 250335Z AUTO 00000KT 10SM RA CLR 21/19 A2991 310 90 1100 000/00 RMK AO2 T02110194 PNO
53988KBKB BKB20190924214011509/24/19 21:40:31  5-MIN KBKB 250340Z AUTO 00000KT 10SM RA CLR 22/19 A2991 310 84 1200 000/00 RMK AO2 T02170189 PNO
53988KBKB BKB20190924214511509/24/19 21:45:31  5-MIN KBKB 250345Z AUTO 00000KT 10SM RA CLR 22/19 A2991 310 84 1200 000/00 RMK AO2 T02170189 PNO
53988KBKB BKB20190924215012209/24/19 21:50:31  5-MIN KBKB 250350Z AUTO 00000KT 10SM RA CLR 22/19 A2990 310 87 1200 000/00 RMK AO2 SLP151 T02170194 PNO
53988KBKB BKB20190924215511509/24/19 21:55:31  5-MIN KBKB 250355Z AUTO 00000KT 10SM RA CLR 22/19 A2991 310 87 1200 000/00 RMK AO2 T02170194 PNO
53988KBKB BKB20190924220011509/24/19 22:00:31  5-MIN KBKB 250400Z AUTO 00000KT 10SM RA CLR 22/19 A2990 310 87 1200 000/00 RMK AO2 T02170194 PNO
53988KBKB BKB20190924220511509/24/19 22:05:31  5-MIN KBKB 250405Z AUTO 00000KT 10SM RA CLR 22/19 A2990 320 84 1200 000/00 RMK AO2 T02170189 PNO
53988KBKB BKB20190924221011509/24/19 22:10:31  5-MIN KBKB 250410Z AUTO 00000KT 10SM RA CLR 22/19 A2990 320 84 1200 000/00 RMK AO2 T02170189 PNO
53988KBKB BKB20190924221511509/24/19 22:15:31  5-MIN KBKB 250415Z AUTO 00000KT 10SM RA CLR 21/19 A2990 320 87 1100 000/00 RMK AO2 T02110189 PNO
53988KBKB BKB20190924222011509/24/19 22:20:31  5-MIN KBKB 250420Z AUTO 00000KT 10SM RA CLR 22/19 A2990 320 84 1200 000/00 RMK AO2 T02170189 PNO
53988KBKB BKB20190924222511509/24/19 22:25:31  5-MIN KBKB 250425Z AUTO 00000KT 10SM RA CLR 21/19 A2990 320 87 1100 000/00 RMK AO2 T02110189 PNO
53988KBKB BKB20190924223011509/24/19 22:30:31  5-MIN KBKB 250430Z AUTO 00000KT 10SM RA CLR 21/19 A2990 320 90 1100 000/00 RMK AO2 T02110194 PNO
53988KBKB BKB20190924223511509/24/19 22:35:31  5-MIN KBKB 250435Z AUTO 00000KT 10SM RA CLR 21/19 A2990 320 90 1100 000/00 RMK AO2 T02110194 PNO
53988KBKB BKB20190924224011509/24/19 22:40:31  5-MIN KBKB 250440Z AUTO 00000KT 10SM RA CLR 21/19 A2990 320 90 1100 000/00 RMK AO2 T02110194 PNO
53988KBKB BKB20190924224511509/24/19 22:45:31  5-MIN KBKB 250445Z AUTO 00000KT 10SM RA CLR 21/19 A2989 320 90 1100 000/00 RMK AO2 T02110194 PNO
53988KBKB BKB20190924225012109/24/19 22:50:31  5-MIN KBKB 250450Z AUTO 00000KT 10SM RA CLR 21/19 A2989 320 90 1200 000/00 RMK AO2 SLPNO T02110194 PNO
53988KBKB BKB20190924225511509/24/19 22:55:31  5-MIN KBKB 250455Z AUTO 00000KT 10SM RA CLR 21/19 A2989 320 90 1200 000/00 RMK AO2 T02110194 PNO
53988KBKB BKB20190924230011509/24/19 23:00:31  5-MIN KBKB 250500Z AUTO 00000KT 10SM RA CLR 21/19 A2989 320 90 1200 000/00 RMK AO2 T02110194 PNO
53988KBKB BKB20190924230511509/24/19 23:05:31  5-MIN KBKB 250505Z AUTO 00000KT 10SM RA CLR 21/19 A2989 320 90 1200 000/00 RMK AO2 T02110194 PNO
53988KBKB BKB20190924231011509/24/19 23:10:31  5-MIN KBKB 250510Z AUTO 00000KT 10SM RA CLR 21/19 A2989 320 90 1100 000/00 RMK AO2 T02110194 PNO
53988KBKB BKB20190924231511509/24/19 23:15:31  5-MIN KBKB 250515Z AUTO 00000KT 10SM RA CLR 21/19 A2989 320 90 1100 000/00 RMK AO2 T02110194 PNO
53988KBKB BKB20190924232011509/24/19 23:20:31  5-MIN KBKB 250520Z AUTO 00000KT 10SM RA CLR 21/19 A2989 320 90 1100 000/00 RMK AO2 T02110194 PNO
53988KBKB BKB20190924232511509/24/19 23:25:31  5-MIN KBKB 250525Z AUTO 00000KT 10SM RA CLR 21/19 A2989 320 90 1200 000/00 RMK AO2 T02110194 PNO
53988KBKB BKB20190924233011509/24/19 23:30:31  5-MIN KBKB 250530Z AUTO 00000KT 10SM RA CLR 21/19 A2989 320 93 1100 000/00 RMK AO2 T02060194 PNO
53988KBKB BKB20190924233511509/24/19 23:35:31  5-MIN KBKB 250535Z AUTO 00000KT 10SM RA CLR 21/19 A2989 320 90 1200 000/00 RMK AO2 T02110194 PNO
53988KBKB BKB20190924234011509/24/19 23:40:31  5-MIN KBKB 250540Z AUTO 00000KT 10SM RA CLR 21/19 A2989 330 90 1200 000/00 RMK AO2 T02110194 PNO
53988KBKB BKB20190924234511509/24/19 23:45:31  5-MIN KBKB 250545Z AUTO 00000KT 10SM RA CLR 21/19 A2989 330 93 1100 000/00 RMK AO2 T02060194 PNO
53988KBKB BKB20190924235015509/24/19 23:50:31  5-MIN KBKB 250550Z AUTO 00000KT 10SM RA CLR 21/19 A2989 330 93 1100 000/00 RMK AO2 SLPNO 6//// T02060194 10272 20206 403330206 53015 PNO
53988KBKB BKB20190924235511509/24/19 23:55:31  5-MIN KBKB 250555Z AUTO 00000KT 10SM RA CLR 21/19 A2989 330 93 1100 000/00 RMK AO2 T02060194 PNO
53988KBKB BKB20190925000011509/25/19 00:00:31  5-MIN KBKB 250600Z AUTO 00000KT 10SM RA CLR 21/19 A2989 330 93 1100 000/00 RMK AO2 T02060194 PNO
53988KBKB BKB20190925000511509/25/19 00:05:31  5-MIN KBKB 250605Z AUTO 00000KT 10SM RA CLR 21/19 A2989 330 93 1100 000/00 RMK AO2 T02060194 PNO
53988KBKB BKB20190925001011509/25/19 00:10:31  5-MIN KBKB 250610Z AUTO 00000KT 10SM RA CLR 21/19 A2989 330 93 1100 000/00 RMK AO2 T02060194 PNO
53988KBKB BKB20190925001511509/25/19 00:15:31  5-MIN KBKB 250615Z AUTO 00000KT 10SM RA CLR 21/19 A2989 330 90 1100 000/00 RMK AO2 T02060189 PNO
53988KBKB BKB20190925002011509/25/19 00:20:31  5-MIN KBKB 250620Z AUTO 00000KT 10SM RA CLR 21/19 A2989 330 93 1100 000/00 RMK AO2 T02060194 PNO
53988KBKB BKB20190925002511509/25/19 00:25:31  5-MIN KBKB 250625Z AUTO 00000KT 10SM RA CLR 21/19 A2989 320 93 1100 000/00 RMK AO2 T02060194 PNO
53988KBKB BKB20190925003011509/25/19 00:30:31  5-MIN KBKB 250630Z AUTO 00000KT 10SM RA CLR 21/19 A2989 330 93 1100 000/00 RMK AO2 T02060194 PNO
53988KBKB BKB20190925003511509/25/19 00:35:31  5-MIN KBKB 250635Z AUTO 00000KT 10SM RA CLR 21/19 A2989 330 93 1100 000/00 RMK AO2 T02060194 PNO
53988KBKB BKB20190925004011509/25/19 00:40:31  5-MIN KBKB 250640Z AUTO 00000KT 10SM RA CLR 21/19 A2989 330 93 1100 000/00 RMK AO2 T02060194 PNO
53988KBKB BKB20190925004511509/25/19 00:45:31  5-MIN KBKB 250645Z AUTO 00000KT 10SM RA CLR 21/19 A2989 320 93 1100 000/00 RMK AO2 T02060194 PNO
53988KBKB BKB20190925005012209/25/19 00:50:31  5-MIN KBKB 250650Z AUTO 00000KT 10SM RA CLR 21/19 A2989 320 93 1100 000/00 RMK AO2 SLP147 T02060194 PNO
53988KBKB BKB20190925005511509/25/19 00:55:31  5-MIN KBKB 250655Z AUTO 00000KT 10SM RA CLR 21/19 A2989 320 93 1100 000/00 RMK AO2 T02060194 PNO
53988KBKB BKB20190925010011509/25/19 01:00:31  5-MIN KBKB 250700Z AUTO 00000KT 10SM RA CLR 21/19 A2989 320 93 1100 000/00 RMK AO2 T02060194 PNO
53988KBKB BKB20190925010511509/25/19 01:05:31  5-MIN KBKB 250705Z AUTO 00000KT 10SM RA CLR 21/19 A2989 320 93 1100 000/00 RMK AO2 T02060194 PNO
53988KBKB BKB20190925011011509/25/19 01:10:31  5-MIN KBKB 250710Z AUTO 00000KT 10SM RA CLR 21/19 A2989 330 93 1100 000/00 RMK AO2 T02060194 PNO
53988KBKB BKB20190925011511509/25/19 01:15:31  5-MIN KBKB 250715Z AUTO 00000KT 10SM RA CLR 20/19 A2989 330 97 1000 000/00 RMK AO2 T02000194 PNO
53988KBKB BKB20190925012011509/25/19 01:20:31  5-MIN KBKB 250720Z AUTO 00000KT 10SM RA CLR 21/19 A2989 330 93 1100 000/00 RMK AO2 T02060194 PNO
53988KBKB BKB20190925012511509/25/19 01:25:31  5-MIN KBKB 250725Z AUTO 00000KT 10SM RA CLR 20/19 A2989 330 93 1000 000/00 RMK AO2 T02000189 PNO
53988KBKB BKB20190925013011509/25/19 01:30:31  5-MIN KBKB 250730Z AUTO 00000KT 10SM RA CLR 20/19 A2989 330 93 1000 000/00 RMK AO2 T02000189 PNO
53988KBKB BKB20190925013511509/25/19 01:35:31  5-MIN KBKB 250735Z AUTO 00000KT 10SM RA CLR 20/19 A2989 330 93 1000 000/00 RMK AO2 T02000189 PNO
53988KBKB BKB20190925014011509/25/19 01:40:31  5-MIN KBKB 250740Z AUTO 00000KT 10SM RA CLR 20/19 A2989 330 93 1000 000/00 RMK AO2 T02000189 PNO
53988KBKB BKB20190925014511509/25/19 01:45:31  5-MIN KBKB 250745Z AUTO 00000KT 10SM RA CLR 20/19 A2989 330 93 1000 000/00 RMK AO2 T02000189 PNO
53988KBKB BKB20190925015012209/25/19 01:50:31  5-MIN KBKB 250750Z AUTO 00000KT 10SM RA CLR 20/19 A2989 330 93 1000 000/00 RMK AO2 SLP146 T02000189 PNO
53988KBKB BKB20190925015511509/25/19 01:55:31  5-MIN KBKB 250755Z AUTO 00000KT 10SM RA CLR 20/19 A2989 330 93 1000 000/00 RMK AO2 T02000189 PNO
53988KBKB BKB20190925020011409/25/19 02:00:31  5-MIN KBKB 250800Z AUTO 00000KT 9SM RA CLR 20/19 A2989 330 93 1000 000/00 RMK AO2 T02000189 PNO
53988KBKB BKB20190925020511409/25/19 02:05:31  5-MIN KBKB 250805Z AUTO 00000KT 9SM RA CLR 20/19 A2989 330 93 1000 000/00 RMK AO2 T02000189 PNO
53988KBKB BKB20190925021011409/25/19 02:10:31  5-MIN KBKB 250810Z AUTO 00000KT 9SM RA CLR 20/19 A2989 330 93 1000 000/00 RMK AO2 T02000189 PNO
53988KBKB BKB20190925021511409/25/19 02:15:31  5-MIN KBKB 250815Z AUTO 00000KT 9SM RA CLR 20/19 A2989 330 93 1000 000/00 RMK AO2 T02000189 PNO
53988KBKB BKB20190925022011409/25/19 02:20:31  5-MIN KBKB 250820Z AUTO 00000KT 9SM RA CLR 20/19 A2989 330 93 1000 000/00 RMK AO2 T02000189 PNO
53988KBKB BKB20190925022511409/25/19 02:25:31  5-MIN KBKB 250825Z AUTO 00000KT 8SM RA CLR 20/19 A2989 330 93 1000 000/00 RMK AO2 T02000189 PNO
53988KBKB BKB20190925023011409/25/19 02:30:31  5-MIN KBKB 250830Z AUTO 00000KT 7SM RA CLR 20/19 A2989 330 93 1000 000/00 RMK AO2 T02000189 PNO
53988KBKB BKB20190925023511409/25/19 02:35:31  5-MIN KBKB 250835Z AUTO 00000KT 7SM RA CLR 20/19 A2989 330 93 1000 000/00 RMK AO2 T02000189 PNO
53988KBKB BKB20190925024011409/25/19 02:40:31  5-MIN KBKB 250840Z AUTO 00000KT 7SM RA CLR 19/19 A2989 330 97 1000 000/00 RMK AO2 T01940189 PNO
53988KBKB BKB20190925024511709/25/19 02:45:31  5-MIN KBKB 250845Z AUTO 00000KT 6SM RA BR CLR 19/19 A2989 330 97 1000 000/00 RMK AO2 T01940189 PNO
53988KBKB BKB20190925025013609/25/19 02:50:31  5-MIN KBKB 250850Z AUTO 00000KT 6SM RA BR CLR 19/19 A2989 330 97 1000 000/00 RMK AO2 SLP145 6//// T01940189 56008 PNO
53988KBKB BKB20190925025511409/25/19 02:55:31  5-MIN KBKB 250855Z AUTO 00000KT 7SM RA CLR 19/19 A2989 330 97 1000 000/00 RMK AO2 T01940189 PNO
53988KBKB BKB20190925030011409/25/19 03:00:31  5-MIN KBKB 250900Z AUTO 00000KT 7SM RA CLR 19/19 A2989 330 97 1000 000/00 RMK AO2 T01940189 PNO
53988KBKB BKB20190925030511709/25/19 03:05:31  5-MIN KBKB 250905Z AUTO 00000KT 6SM RA BR CLR 19/18 A2989 330 93 1000 000/00 RMK AO2 T01940183 PNO
53988KBKB BKB20190925031011709/25/19 03:10:31  5-MIN KBKB 250910Z AUTO 00000KT 6SM RA BR CLR 19/18 A2989 330 93 1000 000/00 RMK AO2 T01940183 PNO
53988KBKB BKB20190925031511309/25/19 03:15:31  5-MIN KBKB 250915Z AUTO 00000KT 7SM RA CLR 19/18 A2989 320 97 900 000/00 RMK AO2 T01890183 PNO
53988KBKB BKB20190925032011709/25/19 03:20:31  5-MIN KBKB 250920Z AUTO 00000KT 6SM RA BR CLR 19/18 A2989 320 93 1000 000/00 RMK AO2 T01940183 PNO
53988KBKB BKB20190925032511609/25/19 03:25:31  5-MIN KBKB 250925Z AUTO 00000KT 6SM RA BR CLR 19/18 A2989 320 97 900 000/00 RMK AO2 T01890183 PNO
53988KBKB BKB20190925033011609/25/19 03:30:31  5-MIN KBKB 250930Z AUTO 00000KT 4SM RA BR CLR 19/18 A2989 320 97 900 000/00 RMK AO2 T01890183 PNO
53988KBKB BKB20190925033511609/25/19 03:35:31  5-MIN KBKB 250935Z AUTO 00000KT 4SM RA BR CLR 19/18 A2989 320 97 900 000/00 RMK AO2 T01890183 PNO
53988KBKB BKB20190925034011609/25/19 03:40:31  5-MIN KBKB 250940Z AUTO 00000KT 5SM RA BR CLR 19/18 A2990 320 97 900 000/00 RMK AO2 T01890183 PNO
53988KBKB BKB20190925043011309/25/19 04:30:31  5-MIN KBKB 251030Z AUTO 00000KT 8SM RA CLR 19/18 A2991 310 93 900 000/00 RMK AO2 T01890178 PNO
53988KBKB BKB20190925043511309/25/19 04:35:31  5-MIN KBKB 251035Z AUTO 00000KT 8SM RA CLR 19/18 A2991 310 93 900 000/00 RMK AO2 T01890178 PNO
53988KBKB BKB20190925044011309/25/19 04:40:31  5-MIN KBKB 251040Z AUTO 00000KT 7SM RA CLR 19/18 A2991 310 93 900 000/00 RMK AO2 T01890178 PNO
53988KBKB BKB20190925044511309/25/19 04:45:31  5-MIN KBKB 251045Z AUTO 00000KT 7SM RA CLR 19/18 A2991 310 93 900 000/00 RMK AO2 T01890178 PNO
53988KBKB BKB20190925045012009/25/19 04:50:31  5-MIN KBKB 251050Z AUTO 00000KT 7SM RA CLR 19/18 A2991 310 93 900 000/00 RMK AO2 SLP154 T01890178 PNO
53988KBKB BKB20190925045015509/25/19 04:50:31  5-MIN KBKB 251050Z AUTO 00000KT 7SM RA CLR 19/18 A2991 310 93 900 000/00 RMK AO2 CLR 19/18 A2991 310 93 900 000/00 RMK AO2 T01890178 PNO
53988KBKB BKB20190925045511309/25/19 04:55:31  5-MIN KBKB 251055Z AUTO 00000KT 8SM RA CLR 18/18 A2991 310 96 800 000/00 RMK AO2 T01830178 PNO
53988KBKB BKB20190925050011309/25/19 05:00:31  5-MIN KBKB 251100Z AUTO 00000KT 8SM RA CLR 19/18 A2991 310 93 900 000/00 RMK AO2 T01890178 PNO
53988KBKB BKB20190925050014809/25/19 05:00:31  5-MIN KBKB 251100Z AUTO 00000KT 8SM RA CLR 19/18 A2991 310 93 900 000/00 RMK A19/18 A2991 310 93 900 000/00 RMK AO2 T01890178 PNO
53988KBKB BKB20190925050511609/25/19 05:05:31  5-MIN KBKB 251105Z AUTO 00000KT 6SM RA BR CLR 18/18 A2991 300 96 800 000/00 RMK AO2 T01830178 PNO
53988KBKB BKB20190925051011609/25/19 05:10:31  5-MIN KBKB 251110Z AUTO 00000KT 5SM RA BR CLR 18/18 A2991 310 96 800 000/00 RMK AO2 T01830178 PNO
53988KBKB BKB20190925051511609/25/19 05:15:31  5-MIN KBKB 251115Z AUTO 00000KT 6SM RA BR CLR 18/18 A2991 310 96 800 000/00 RMK AO2 T01830178 PNO
53988KBKB BKB20190925052011309/25/19 05:20:31  5-MIN KBKB 251120Z AUTO 00000KT 7SM RA CLR 18/18 A2991 310 96 800 000/00 RMK AO2 T01830178 PNO
53988KBKB BKB20190925052511309/25/19 05:25:31  5-MIN KBKB 251125Z AUTO 00000KT 7SM RA CLR 18/18 A2991 300 96 800 000/00 RMK AO2 T01830178 PNO
53988KBKB BKB20190925053011309/25/19 05:30:31  5-MIN KBKB 251130Z AUTO 00000KT 7SM RA CLR 18/18 A2991 300 96 800 000/00 RMK AO2 T01830178 PNO
53988KBKB BKB20190925053511609/25/19 05:35:31  5-MIN KBKB 251135Z AUTO 00000KT 6SM RA BR CLR 18/17 A2992 300 93 800 000/00 RMK AO2 T01830172 PNO
53988KBKB BKB20190925054011309/25/19 05:40:31  5-MIN KBKB 251140Z AUTO 00000KT 7SM RA CLR 18/18 A2991 300 96 800 000/00 RMK AO2 T01830178 PNO
53988KBKB BKB20190925054511309/25/19 05:45:31  5-MIN KBKB 251145Z AUTO 00000KT 7SM RA CLR 18/17 A2992 300 93 800 000/00 RMK AO2 T01830172 PNO
53988KBKB BKB20190925055015009/25/19 05:50:31  5-MIN KBKB 251150Z AUTO 00000KT 7SM RA CLR 18/17 A2992 300 93 800 000/00 RMK AO2 SLP157 6//// 7//// T01830172 10206 20183 58001 PNO
53988KBKB BKB20190925055511609/25/19 05:55:31  5-MIN KBKB 251155Z AUTO 00000KT 6SM RA BR CLR 18/17 A2992 300 96 700 000/00 RMK AO2 T01780172 PNO
53988KBKB BKB20190925060011609/25/19 06:00:31  5-MIN KBKB 251200Z AUTO 00000KT 5SM RA BR CLR 18/17 A2992 300 96 700 000/00 RMK AO2 T01780172 PNO
53988KBKB BKB20190925060511609/25/19 06:05:31  5-MIN KBKB 251205Z AUTO 00000KT 4SM RA BR CLR 18/17 A2992 300 93 800 000/00 RMK AO2 T01830172 PNO
53988KBKB BKB20190925061011609/25/19 06:10:31  5-MIN KBKB 251210Z AUTO 00000KT 4SM RA BR CLR 18/17 A2992 300 93 800 000/00 RMK AO2 T01830172 PNO
53988KBKB BKB20190925061511609/25/19 06:15:31  5-MIN KBKB 251215Z AUTO 00000KT 4SM RA BR CLR 18/17 A2992 290 93 800 000/00 RMK AO2 T01830172 PNO
53988KBKB BKB20190925062011609/25/19 06:20:31  5-MIN KBKB 251220Z AUTO 00000KT 3SM RA BR CLR 18/18 A2993 290 96 800 000/00 RMK AO2 T01830178 PNO
53988KBKB BKB20190925062511609/25/19 06:25:31  5-MIN KBKB 251225Z AUTO 00000KT 3SM RA BR CLR 18/18 A2993 290 96 800 000/00 RMK AO2 T01830178 PNO
53988KBKB BKB20190925063011609/25/19 06:30:31  5-MIN KBKB 251230Z AUTO 00000KT 3SM RA BR CLR 18/18 A2993 290 96 800 000/00 RMK AO2 T01830178 PNO
53988KBKB BKB20190925063507509/25/19 06:35:31  5-MIN KBKB 251235Z AUTO 00000KT 4SM RA BR CLR 18/18  PNO
53988KBKB BKB20190925082511509/25/19 08:25:31  5-MIN KBKB 251425Z AUTO 00000KT 10SM RA CLR 26/21 A2995 270 73 1700 000/00 RMK AO2 T02610211 PNO
53988KBKB BKB20190925083011509/25/19 08:30:31  5-MIN KBKB 251430Z AUTO VRB03KT 10SM RA CLR 26/21 A2995 270 73 1700 VRB/03 RMK AO2 T02610211 PNO
53988KBKB BKB20190925083511509/25/19 08:35:31  5-MIN KBKB 251435Z AUTO 00000KT 10SM RA CLR 26/21 A2995 270 73 1700 000/00 RMK AO2 T02610211 PNO
53988KBKB BKB20190925084011509/25/19 08:40:31  5-MIN KBKB 251440Z AUTO VRB03KT 10SM RA CLR 27/21 A2995 270 71 1700 VRB/03 RMK AO2 T02670211 PNO
53988KBKB BKB20190925084014909/25/19 08:40:31  5-MIN KBKB 251440Z AUTO VRB03KT 10SM RA CLR 27/21 A2995 270 71 17010SM RA CLR 26/21 A2995 270 73 1700 000/00 RMK AO2 T02610211 PNO
53988KBKB BKB20190925184511509/25/19 18:45:31  5-MIN KBKB 260045Z AUTO 00000KT 10SM RA CLR 24/20 A2987 340 76 1600 000/00 RMK AO2 T02440200 PNO
53988KBKB BKB20190925185012209/25/19 18:50:31  5-MIN KBKB 260050Z AUTO 00000KT 10SM RA CLR 24/19 A2987 340 73 1600 000/00 RMK AO2 SLP141 T02440194 PNO
53988KBKB BKB20190925185511509/25/19 18:55:31  5-MIN KBKB 260055Z AUTO 00000KT 10SM RA CLR 24/20 A2987 340 78 1500 000/00 RMK AO2 T02390200 PNO
53988KBKB BKB20190925190011509/25/19 19:00:31  5-MIN KBKB 260100Z AUTO 00000KT 10SM RA CLR 24/19 A2988 340 76 1500 000/00 RMK AO2 T02390194 PNO
53988KBKB BKB20190925190511509/25/19 19:05:31  5-MIN KBKB 260105Z AUTO 00000KT 10SM RA CLR 24/19 A2988 340 76 1500 000/00 RMK AO2 T02390194 PNO
53988KBKB BKB20190925191011509/25/19 19:10:31  5-MIN KBKB 260110Z AUTO 00000KT 10SM RA CLR 24/19 A2988 340 76 1500 000/00 RMK AO2 T02390194 PNO
53988KBKB BKB20190925191511509/25/19 19:15:31  5-MIN KBKB 260115Z AUTO 00000KT 10SM RA CLR 23/19 A2988 340 78 1400 000/00 RMK AO2 T02330194 PNO
53988KBKB BKB20190925192011509/25/19 19:20:31  5-MIN KBKB 260120Z AUTO 00000KT 10SM RA CLR 24/20 A2988 340 78 1500 000/00 RMK AO2 T02390200 PNO
53988KBKB BKB20190925192511509/25/19 19:25:31  5-MIN KBKB 260125Z AUTO 00000KT 10SM RA CLR 23/19 A2988 330 78 1400 000/00 RMK AO2 T02330194 PNO
53988KBKB BKB20190925193011509/25/19 19:30:31  5-MIN KBKB 260130Z AUTO 00000KT 10SM RA CLR 23/19 A2988 330 81 1400 000/00 RMK AO2 T02280194 PNO
53988KBKB BKB20190925193511509/25/19 19:35:31  5-MIN KBKB 260135Z AUTO 00000KT 10SM RA CLR 23/19 A2989 330 78 1400 000/00 RMK AO2 T02330194 PNO
53988KBKB BKB20190925194011509/25/19 19:40:31  5-MIN KBKB 260140Z AUTO 00000KT 10SM RA CLR 23/19 A2989 330 81 1300 000/00 RMK AO2 T02280194 PNO
53988KBKB BKB20190925194511509/25/19 19:45:31  5-MIN KBKB 260145Z AUTO 00000KT 10SM RA CLR 23/19 A2989 320 78 1300 000/00 RMK AO2 T02280189 PNO
53988KBKB BKB20190925195012209/25/19 19:50:31  5-MIN KBKB 260150Z AUTO 00000KT 10SM RA CLR 22/19 A2989 320 81 1300 000/00 RMK AO2 SLP149 T02220189 PNO
53988KBKB BKB20190925195511509/25/19 19:55:31  5-MIN KBKB 260155Z AUTO 00000KT 10SM RA CLR 23/19 A2990 320 78 1300 000/00 RMK AO2 T02280189 PNO
53988KBKB BKB20190925200011509/25/19 20:00:31  5-MIN KBKB 260200Z AUTO 00000KT 10SM RA CLR 23/19 A2990 320 78 1300 000/00 RMK AO2 T02280189 PNO
53988KBKB BKB20190925200511509/25/19 20:05:31  5-MIN KBKB 260205Z AUTO 00000KT 10SM RA CLR 22/19 A2990 320 81 1300 000/00 RMK AO2 T02220189 PNO
53988KBKB BKB20190925201011509/25/19 20:10:31  5-MIN KBKB 260210Z AUTO 00000KT 10SM RA CLR 22/19 A2990 320 81 1300 000/00 RMK AO2 T02220189 PNO
53988KBKB BKB20190925201511509/25/19 20:15:31  5-MIN KBKB 260215Z AUTO 00000KT 10SM RA CLR 22/19 A2990 320 84 1200 000/00 RMK AO2 T02170189 PNO
53988KBKB BKB20190925202011509/25/19 20:20:31  5-MIN KBKB 260220Z AUTO 00000KT 10SM RA CLR 22/19 A2990 310 84 1200 000/00 RMK AO2 T02170189 PNO
53988KBKB BKB20190925202511509/25/19 20:25:31  5-MIN KBKB 260225Z AUTO 00000KT 10SM RA CLR 22/19 A2991 310 84 1200 000/00 RMK AO2 T02170189 PNO
53988KBKB BKB20190925203011509/25/19 20:30:31  5-MIN KBKB 260230Z AUTO 00000KT 10SM RA CLR 22/19 A2991 310 84 1200 000/00 RMK AO2 T02170189 PNO
53988KBKB BKB20190925203511509/25/19 20:35:31  5-MIN KBKB 260235Z AUTO 00000KT 10SM RA CLR 22/19 A2991 310 84 1200 000/00 RMK AO2 T02170189 PNO
53988KBKB BKB20190925204011509/25/19 20:40:31  5-MIN KBKB 260240Z AUTO 00000KT 10SM RA CLR 21/19 A2991 310 87 1100 000/00 RMK AO2 T02110189 PNO
53988KBKB BKB20190925204511509/25/19 20:45:31  5-MIN KBKB 260245Z AUTO 00000KT 10SM RA CLR 22/19 A2991 310 84 1200 000/00 RMK AO2 T02170189 PNO
53988KBKB BKB20190925205013409/25/19 20:50:31  5-MIN KBKB 260250Z AUTO 00000KT 10SM RA CLR 21/19 A2991 300 87 1100 000/00 RMK AO2 SLP155 6//// T02110189 53000 PNO
53988KBKB BKB20190925205511509/25/19 20:55:31  5-MIN KBKB 260255Z AUTO 00000KT 10SM RA CLR 22/19 A2991 300 84 1200 000/00 RMK AO2 T02170189 PNO
53988KBKB BKB20190925210011509/25/19 21:00:31  5-MIN KBKB 260300Z AUTO 00000KT 10SM RA CLR 21/19 A2992 300 87 1100 000/00 RMK AO2 T02110189 PNO
53988KBKB BKB20190925210511509/25/19 21:05:31  5-MIN KBKB 260305Z AUTO 00000KT 10SM RA CLR 21/19 A2992 300 87 1100 000/00 RMK AO2 T02110189 PNO
53988KBKB BKB20190925211011509/25/19 21:10:31  5-MIN KBKB 260310Z AUTO 00000KT 10SM RA CLR 21/19 A2992 300 87 1100 000/00 RMK AO2 T02110189 PNO
53988KBKB BKB20190925211511509/25/19 21:15:31  5-MIN KBKB 260315Z AUTO 00000KT 10SM RA CLR 21/19 A2992 300 87 1100 000/00 RMK AO2 T02110189 PNO
53988KBKB BKB20190925212011509/25/19 21:20:31  5-MIN KBKB 260320Z AUTO 00000KT 10SM RA CLR 21/19 A2992 300 87 1100 000/00 RMK AO2 T02110189 PNO
53988KBKB BKB20190925212511509/25/19 21:25:31  5-MIN KBKB 260325Z AUTO 00000KT 10SM RA CLR 21/19 A2992 300 87 1100 000/00 RMK AO2 T02110189 PNO
53988KBKB BKB20190925213011509/25/19 21:30:31  5-MIN KBKB 260330Z AUTO 00000KT 10SM RA CLR 21/19 A2992 300 87 1100 000/00 RMK AO2 T02110189 PNO
53988KBKB BKB20190925213511509/25/19 21:35:31  5-MIN KBKB 260335Z AUTO 00000KT 10SM RA CLR 21/19 A2992 300 90 1100 000/00 RMK AO2 T02060189 PNO
53988KBKB BKB20190925214011509/25/19 21:40:31  5-MIN KBKB 260340Z AUTO 00000KT 10SM RA CLR 21/19 A2992 300 87 1100 000/00 RMK AO2 T02110189 PNO
53988KBKB BKB20190925214511509/25/19 21:45:31  5-MIN KBKB 260345Z AUTO 00000KT 10SM RA CLR 21/19 A2992 300 90 1100 000/00 RMK AO2 T02060189 PNO
53988KBKB BKB20190925215012209/25/19 21:50:31  5-MIN KBKB 260350Z AUTO 00000KT 10SM RA CLR 21/19 A2992 300 90 1100 000/00 RMK AO2 SLP158 T02060189 PNO
53988KBKB BKB20190925215511509/25/19 21:55:31  5-MIN KBKB 260355Z AUTO 00000KT 10SM RA CLR 21/19 A2992 300 87 1100 000/00 RMK AO2 T02110189 PNO
53988KBKB BKB20190925220011509/25/19 22:00:31  5-MIN KBKB 260400Z AUTO 00000KT 10SM RA CLR 21/19 A2992 300 90 1100 000/00 RMK AO2 T02060189 PNO
53988KBKB BKB20190925220511509/25/19 22:05:31  5-MIN KBKB 260405Z AUTO 00000KT 10SM RA CLR 21/19 A2992 300 90 1100 000/00 RMK AO2 T02060189 PNO
53988KBKB BKB20190925221011509/25/19 22:10:31  5-MIN KBKB 260410Z AUTO 00000KT 10SM RA CLR 21/19 A2992 300 90 1100 000/00 RMK AO2 T02060189 PNO
53988KBKB BKB20190925221511509/25/19 22:15:31  5-MIN KBKB 260415Z AUTO 00000KT 10SM RA CLR 21/19 A2992 300 90 1100 000/00 RMK AO2 T02060189 PNO
53988KBKB BKB20190925222011509/25/19 22:20:31  5-MIN KBKB 260420Z AUTO 00000KT 10SM RA CLR 21/19 A2992 290 90 1100 000/00 RMK AO2 T02060189 PNO
53988KBKB BKB20190925222511509/25/19 22:25:31  5-MIN KBKB 260425Z AUTO 00000KT 10SM RA CLR 21/19 A2993 290 90 1100 000/00 RMK AO2 T02060189 PNO
53988KBKB BKB20190925223011509/25/19 22:30:31  5-MIN KBKB 260430Z AUTO 00000KT 10SM RA CLR 21/19 A2993 290 90 1000 000/00 RMK AO2 T02060189 PNO
53988KBKB BKB20190925223511509/25/19 22:35:31  5-MIN KBKB 260435Z AUTO 00000KT 10SM RA CLR 21/19 A2993 290 90 1100 000/00 RMK AO2 T02060189 PNO
53988KBKB BKB20190925224011509/25/19 22:40:31  5-MIN KBKB 260440Z AUTO 00000KT 10SM RA CLR 21/19 A2992 300 90 1100 000/00 RMK AO2 T02060189 PNO
53988KBKB BKB20190925224511509/25/19 22:45:31  5-MIN KBKB 260445Z AUTO 00000KT 10SM RA CLR 21/19 A2992 300 90 1100 000/00 RMK AO2 T02060189 PNO
53988KBKB BKB20190925225012209/25/19 22:50:31  5-MIN KBKB 260450Z AUTO 00000KT 10SM RA CLR 21/19 A2992 300 90 1100 000/00 RMK AO2 SLP156 T02060189 PNO
53988KBKB BKB20190925225511509/25/19 22:55:31  5-MIN KBKB 260455Z AUTO 00000KT 10SM RA CLR 21/19 A2992 300 90 1100 000/00 RMK AO2 T02060189 PNO
53988KBKB BKB20190925230011509/25/19 23:00:31  5-MIN KBKB 260500Z AUTO 00000KT 10SM RA CLR 21/19 A2992 300 90 1100 000/00 RMK AO2 T02060189 PNO
53988KBKB BKB20190925230511509/25/19 23:05:31  5-MIN KBKB 260505Z AUTO 00000KT 10SM RA CLR 21/19 A2992 300 90 1100 000/00 RMK AO2 T02060189 PNO
53988KBKB BKB20190925231016909/25/19 23:10:31  5-MIN KBKB 260510Z AUTO 00000KT 10SM RA CLR 21:15:31  5-MIN KBKB 260615Z AUTO 00000KT 10SM RA CLR 20/19 A2988 330 93 1000 000/00 RMK AO2 T02000189 PNO
53988KBKB BKB20190926000511509/26/19 00:05:31  5-MIN KBKB 260605Z AUTO 00000KT 10SM RA CLR 20/19 A2989 330 93 1000 000/00 RMK AO2 T02000189 PNO
53988KBKB BKB20190926001011509/26/19 00:10:31  5-MIN KBKB 260610Z AUTO 00000KT 10SM RA CLR 20/19 A2989 330 93 1000 000/00 RMK AO2 T02000189 PNO
53988KBKB BKB20190926001511509/26/19 00:15:31  5-MIN KBKB 260615Z AUTO 00000KT 10SM RA CLR 20/19 A2988 330 93 1000 000/00 RMK AO2 T02000189 PNO
53988KBKB BKB20190926002011509/26/19 00:20:31  5-MIN KBKB 260620Z AUTO 00000KT 10SM RA CLR 20/19 A2988 330 93 1000 000/00 RMK AO2 T02000189 PNO
53988KBKB BKB20190926002015109/26/19 00:20:31  5-MIN KBKB 260620Z AUTO 00000KT 10SM RA CLR 20 260600Z AUTO 00000KT 10SM RA CLR 20/19 A2989 320 93 1000 000/00 RMK AO2 T02000189 PNO
53988KBKB BKB20190926002511509/26/19 00:25:31  5-MIN KBKB 260625Z AUTO 00000KT 10SM RA CLR 20/19 A2988 330 93 1000 000/00 RMK AO2 T02000189 PNO
53988KBKB BKB20190926003011509/26/19 00:30:31  5-MIN KBKB 260630Z AUTO 00000KT 10SM RA CLR 20/19 A2988 340 93 1000 000/00 RMK AO2 T02000189 PNO
53988KBKB BKB20190926003511509/26/19 00:35:31  5-MIN KBKB 260635Z AUTO 00000KT 10SM RA CLR 20/19 A2988 340 93 1000 000/00 RMK AO2 T02000189 PNO
53988KBKB BKB20190926003514909/26/19 00:35:31  5-MIN KBKB 260635Z AUTO 00000KT 10SM RA CLR 20/19 A2988 340 93 1000 000/00 RMK AO2 T02000189 PNO09/26/19 00:40:31  5-MI2000189 PNO
53988KBKB BKB20190926004011509/26/19 00:40:31  5-MIN KBKB 260640Z AUTO 00000KT 10SM RA CLR 19/19 A2988 340 97 1000 000/00 RMK AO2 T01940189 PNO
53988KBKB BKB20190926004511509/26/19 00:45:31  5-MIN KBKB 260645Z AUTO 00000KT 10SM RA CLR 19/18 A2988 340 93 1000 000/00 RMK AO2 T01940183 PNO
53988KBKB BKB20190926005012209/26/19 00:50:31  5-MIN KBKB 260650Z AUTO 00000KT 10SM RA CLR 19/18 A2988 340 93 1000 000/00 RMK AO2 SLP143 T01940183 PNO
53988KBKB BKB20190926005511509/26/19 00:55:31  5-MIN KBKB 260655Z AUTO 00000KT 10SM RA CLR 19/18 A2988 340 93 1000 000/00 RMK AO2 T01940183 PNO
53988KBKB BKB20190926010011509/26/19 01:00:31  5-MIN KBKB 260700Z AUTO 00000KT 10SM RA CLR 19/18 A2988 340 93 1000 000/00 RMK AO2 T01940183 PNO
53988KBKB BKB20190926010511509/26/19 01:05:31  5-MIN KBKB 260705Z AUTO 00000KT 10SM RA CLR 19/18 A2988 330 93 1000 000/00 RMK AO2 T01940183 PNO
53988KBKB BKB20190926011011509/26/19 01:10:31  5-MIN KBKB 260710Z AUTO 00000KT 10SM RA CLR 19/19 A2988 340 97 1000 000/00 RMK AO2 T01940189 PNO
53988KBKB BKB20190926011511509/26/19 01:15:31  5-MIN KBKB 260715Z AUTO 00000KT 10SM RA CLR 19/18 A2988 340 93 1000 000/00 RMK AO2 T01940183 PNO
53988KBKB BKB20190926012011509/26/19 01:20:31  5-MIN KBKB 260720Z AUTO 00000KT 10SM RA CLR 19/19 A2988 340 97 1000 000/00 RMK AO2 T01940189 PNO
53988KBKB BKB20190926012511509/26/19 01:25:31  5-MIN KBKB 260725Z AUTO 00000KT 10SM RA CLR 19/19 A2988 340 97 1000 000/00 RMK AO2 T01940189 PNO
53988KBKB BKB20190926013011509/26/19 01:30:31  5-MIN KBKB 260730Z AUTO 00000KT 10SM RA CLR 19/18 A2988 340 93 1000 000/00 RMK AO2 T01940183 PNO
53988KBKB BKB20190926013511509/26/19 01:35:31  5-MIN KBKB 260735Z AUTO 00000KT 10SM RA CLR 19/18 A2988 340 93 1000 000/00 RMK AO2 T01940183 PNO
53988KBKB BKB20190926014011409/26/19 01:40:31  5-MIN KBKB 260740Z AUTO 00000KT 9SM RA CLR 19/18 A2988 340 93 1000 000/00 RMK AO2 T01940183 PNO
53988KBKB BKB20190926014511409/26/19 01:45:31  5-MIN KBKB 260745Z AUTO 00000KT 8SM RA CLR 19/18 A2988 340 93 1000 000/00 RMK AO2 T01940183 PNO
53988KBKB BKB20190926015012109/26/19 01:50:31  5-MIN KBKB 260750Z AUTO 00000KT 8SM RA CLR 19/18 A2988 340 93 1000 000/00 RMK AO2 SLP142 T01940183 PNO
53988KBKB BKB20190926015511309/26/19 01:55:31  5-MIN KBKB 260755Z AUTO 00000KT 8SM RA CLR 19/18 A2988 340 97 900 000/00 RMK AO2 T01890183 PNO
53988KBKB BKB20190926020011409/26/19 02:00:31  5-MIN KBKB 260800Z AUTO 00000KT 8SM RA CLR 19/18 A2988 340 93 1000 000/00 RMK AO2 T01940183 PNO
53988KBKB BKB20190926020511409/26/19 02:05:31  5-MIN KBKB 260805Z AUTO 00000KT 8SM RA CLR 19/18 A2988 330 93 1000 000/00 RMK AO2 T01940183 PNO
53988KBKB BKB20190926021011909/26/19 02:10:31  5-MIN KBKB 260810Z AUTO 00000KT 7SM RA CLR 19/18 A2988 A2992 300 96 800 000/00 RMK AO2 T01830178 PNO
53988KBKB BKB20190926035012309/26/19 03:50:31  5-MIN KBKB 260950Z AUTO 00000KT 5SM RA BR CLR 18/18 A2992 300 96 800 000/00 RMK AO2 SLP156 T01830178 PNO
53988KBKB BKB20190926035511609/26/19 03:55:31  5-MIN KBKB 260955Z AUTO 00000KT 4SM RA BR CLR 18/18 A2992 300 96 800 000/00 RMK AO2 T01830178 PNO
53988KBKB BKB20190926040011609/26/19 04:00:31  5-MIN KBKB 261000Z AUTO 00000KT 4SM RA BR CLR 18/18 A2992 300 96 800 000/00 RMK AO2 T01830178 PNO
53988KBKB BKB20190926040511609/26/19 04:05:31  5-MIN KBKB 261005Z AUTO 00000KT 5SM RA BR CLR 18/18 A2992 300 96 800 000/00 RMK AO2 T01830178 PNO
53988KBKB BKB20190926040514109/26/19 04:05:31  5-MIN KBKB 261005Z AUTO 00000KT 5SM RA BR CLR 18/18 A2992 300 96 800 000/00 RMK A2 300 96 800 000/00 RMK AO2 T01830178 PNO
53988KBKB BKB20190926041011609/26/19 04:10:31  5-MIN KBKB 261010Z AUTO 00000KT 4SM RA BR CLR 18/18 A2992 300 96 800 000/00 RMK AO2 T01830178 PNO
53988KBKB BKB20190926041511609/26/19 04:15:31  5-MIN KBKB 261015Z AUTO 00000KT 4SM RA BR CLR 18/18 A2992 300 96 800 000/00 RMK AO2 T01830178 PNO
53988KBKB BKB20190926041514809/26/19 04:15:31  5-MIN KBKB 261015Z AUTO 00000KT 4SM RA BR CLR 18/Z AUTO 00000KT 4SM RA BR CLR 18/18 A2992 300 96 800 000/00 RMK AO2 T01830178 PNO
53988KBKB BKB20190926042011609/26/19 04:20:31  5-MIN KBKB 261020Z AUTO 00000KT 4SM RA BR CLR 18/17 A2992 300 93 800 000/00 RMK AO2 T01830172 PNO
53988KBKB BKB20190926042014609/26/19 04:20:31  5-MIN KBKB 261020Z AUTO 00000KT 4SM RA BR CLR 18/17 A2992 300 93 800 000/00 RMK AO2 T01830172 PNO0 000/00 RMK AO2 T01830178 PNO
53988KBKB BKB20190926042511609/26/19 04:25:31  5-MIN KBKB 261025Z AUTO 00000KT 4SM RA BR CLR 18/17 A2992 300 96 700 000/00 RMK AO2 T01780172 PNO
53988KBKB BKB20190926043011609/26/19 04:30:31  5-MIN KBKB 261030Z AUTO 00000KT 4SM RA BR CLR 18/17 A2992 300 96 700 000/00 RMK AO2 T01780172 PNO
53988KBKB BKB20190926043014809/26/19 04:30:31  5-MIN KBKB 261030Z AUTO 00000KT 4SM RA BR CLR 18/17 A2992 300 96 700 000/00 RMK AO2 A2992 300 96 800 000/00 RMK AO2 T01830178 PNO
53988KBKB BKB20190926043511609/26/19 04:35:31  5-MIN KBKB 261035Z AUTO 00000KT 5SM RA BR CLR 18/17 A2992 300 96 700 000/00 RMK AO2 T01780172 PNO
53988KBKB BKB20190926044011609/26/19 04:40:31  5-MIN KBKB 261040Z AUTO 00000KT 5SM RA BR CLR 18/17 A2993 290 96 700 000/00 RMK AO2 T01780172 PNO
53988KBKB BKB20190926044014609/26/19 04:40:31  5-MIN KBKB 261040Z AUTO 00000KT 5SM RA BR CLR 18/17 O 00000KT 4SM RA BR CLR 18/17 A2992 300 93 800 000/00 RMK AO2 T01830172 PNO
53988KBKB BKB20190926044511609/26/19 04:45:31  5-MIN KBKB 261045Z AUTO 00000KT 4SM RA BR CLR 18/17 A2993 290 96 700 000/00 RMK AO2 T01780172 PNO
53988KBKB BKB20190926045012309/26/19 04:50:31  5-MIN KBKB 261050Z AUTO 00000KT 4SM RA BR CLR 18/17 A2993 290 96 700 000/00 RMK AO2 SLP160 T01780172 PNO
53988KBKB BKB20190926045511609/26/19 04:55:31  5-MIN KBKB 261055Z AUTO 00000KT 4SM RA BR CLR 18/17 A2993 290 93 700 000/00 RMK AO2 T01780167 PNO
53988KBKB BKB20190926050011609/26/19 05:00:31  5-MIN KBKB 261100Z AUTO 00000KT 4SM RA BR CLR 18/17 A2993 290 93 700 000/00 RMK AO2 T01780167 PNO
53988KBKB BKB20190926050511609/26/19 05:05:31  5-MIN KBKB 261105Z AUTO 00000KT 4SM RA BR CLR 18/17 A2993 290 93 700 000/00 RMK AO2 T01780167 PNO
53988KBKB BKB20190926051014709/26/19 05:10:31  5-MIN KBKB 261110Z AUTO 00000KT 4SM RA BR CLR 18/17 A2993 290 93 700 000/00 RMK AO2 T01780167 P 700 000/00 RMK AO2 T01780172 PNO
53988KBKB BKB20190926054511609/26/19 05:45:31  5-MIN KBKB 261145Z AUTO 00000KT 5SM RA BR CLR 17/17 A2993 290 96 700 000/00 RMK AO2 T01720167 PNO
53988KBKB BKB20190926055015309/26/19 05:50:31  5-MIN KBKB 261150Z AUTO 00000KT 5SM RA BR CLR 17/17 A2993 290 96 700 000/00 RMK AO2 SLP161 6//// 7//// T01720167 10200 20172 53002 PNO
53988KBKB BKB20190926055511609/26/19 05:55:31  5-MIN KBKB 261155Z AUTO 00000KT 4SM RA BR CLR 17/17 A2993 290 96 700 000/00 RMK AO2 T01720167 PNO
53988KBKB BKB20190926060011609/26/19 06:00:31  5-MIN KBKB 261200Z AUTO 00000KT 4SM RA BR CLR 17/17 A2993 290 96 700 000/00 RMK AO2 T01720167 PNO
53988KBKB BKB20190926060511609/26/19 06:05:31  5-MIN KBKB 261205Z AUTO 00000KT 3SM RA BR CLR 17/17 A2994 280 96 700 000/00 RMK AO2 T01720167 PNO
53988KBKB BKB20190926061011609/26/19 06:10:31  5-MIN KBKB 261210Z AUTO 00000KT 3SM RA BR CLR 17/17 A2994 280 96 600 000/00 RMK AO2 T01720167 PNO
53988KBKB BKB20190926061511609/26/19 06:15:31  5-MIN KBKB 261215Z AUTO 00000KT 3SM RA BR CLR 17/17 A2994 280 96 600 000/00 RMK AO2 T01720167 PNO
53988KBKB BKB20190926062011609/26/19 06:20:31  5-MIN KBKB 261220Z AUTO 00000KT 3SM RA BR CLR 17/17 A2994 280 96 600 000/00 RMK AO2 T01720167 PNO
53988KBKB BKB20190926062511609/26/19 06:25:31  5-MIN KBKB 261225Z AUTO 00000KT 4SM RA BR CLR 17/17 A2994 280 96 700 000/00 RMK AO2 T01720167 PNO
53988KBKB BKB20190926063011609/26/19 06:30:31  5-MIN KBKB 261230Z AUTO 00000KT 4SM RA BR CLR 18/17 A2994 280 93 700 000/00 RMK AO2 T01780167 PNO
53988KBKB BKB20190926063511609/26/19 06:35:31  5-MIN KBKB 261235Z AUTO 00000KT 4SM RA BR CLR 18/17 A2994 280 96 700 000/00 RMK AO2 T01780172 PNO
53988KBKB BKB20190926064011609/26/19 06:40:31  5-MIN KBKB 261240Z AUTO 00000KT 4SM RA BR CLR 18/17 A2994 280 96 700 000/00 RMK AO2 T01780172 PNO
53988KBKB BKB20190926064511609/26/19 06:45:31  5-MIN KBKB 261245Z AUTO 00000KT 4SM RA BR CLR 18/17 A2994 280 93 800 000/00 RMK AO2 T01830172 PNO
53988KBKB BKB20190926065012309/26/19 06:50:31  5-MIN KBKB 261250Z AUTO 00000KT 4SM RA BR CLR 18/18 A2994 280 96 800 000/00 RMK AO2 SLP164 T01830178 PNO
53988KBKB BKB20190926065511609/26/19 06:55:31  5-MIN KBKB 261255Z AUTO 00000KT 5SM RA BR CLR 18/18 A2994 280 96 800 000/00 RMK AO2 T01830178 PNO
53988KBKB BKB20190926070011609/26/19 07:00:31  5-MIN KBKB 261300Z AUTO 00000KT 5SM RA BR CLR 19/18 A2995 280 97 800 000/00 RMK AO2 T01890183 PNO
53988KBKB BKB20190926070511309/26/19 07:05:31  5-MIN KBKB 261305Z AUTO 00000KT 7SM RA CLR 19/18 A2994 280 93 900 000/00 RMK AO2 T01940183 PNO
53988KBKB BKB20190926071011309/26/19 07:10:31  5-MIN KBKB 261310Z AUTO 00000KT 8SM RA CLR 19/19 A2994 280 97 900 000/00 RMK AO2 T01940189 PNO
53988KBKB BKB20190926071511409/26/19 07:15:31  5-MIN KBKB 261315Z AUTO 00000KT 8SM RA CLR 20/19 A2995 270 93 1000 000/00 RMK AO2 T02000189 PNO
53988KBKB BKB20190926072011409/26/19 07:20:31  5-MIN KBKB 261320Z AUTO 00000KT 8SM RA CLR 21/19 A2995 270 93 1000 000/00 RMK AO2 T02060194 PNO
53988KBKB BKB20190926072511409/26/19 07:25:31  5-MIN KBKB 261325Z AUTO 00000KT 9SM RA CLR 21/19 A2995 270 90 1100 000/00 RMK AO2 T02110194 PNO
53988KBKB BKB20190926073011509/26/19 07:30:31  5-MIN KBKB 261330Z AUTO 00000KT 10SM RA CLR 21/20 A2995 270 93 1100 000/00 RMK AO2 T02110200 PNO
53988KBKB BKB20190926073511509/26/19 07:35:31  5-MIN KBKB 261335Z AUTO 00000KT 10SM RA CLR 22/21 A2995 270 93 1200 000/00 RMK AO2 T02170206 PNO
53988KBKB BKB20190926074011509/26/19 07:40:31  5-MIN KBKB 261340Z AUTO 00000KT 10SM RA CLR 22/21 A2995 270 93 1200 000/00 RMK AO2 T02220211 PNO
53988KBKB BKB20190926074511509/26/19 07:45:31  5-MIN KBKB 261345Z AUTO 00000KT 10SM RA CLR 23/21 A2995 270 87 1300 000/00 RMK AO2 T02330211 PNO
53988KBKB BKB20190926075012209/26/19 07:50:31  5-MIN KBKB 261350Z AUTO 00000KT 10SM RA CLR 24/22 A2996 260 87 1400 000/00 RMK AO2 SLP170 T02390217 PNO
53988KBKB BKB20190926075511509/26/19 07:55:31  5-MIN KBKB 261355Z AUTO 00000KT 10SM RA CLR 24/21 A2996 260 81 1500 000/00 RMK AO2 T02440211 PNO
53988KBKB BKB20190926080011509/26/19 08:00:31  5-MIN KBKB 261400Z AUTO 00000KT 10SM RA CLR 25/21 A2996 260 79 1500 000/00 RMK AO2 T02500211 PNO
53988KBKB BKB20190926080511509/26/19 08:05:31  5-MIN KBKB 261405Z AUTO 00000KT 10SM RA CLR 25/21 A2996 260 79 1500 000/00 RMK AO2 T02500211 PNO
53988KBKB BKB20190926081011509/26/19 08:10:31  5-MIN KBKB 261410Z AUTO 00000KT 10SM RA CLR 26/21 A2996 260 73 1600 000/00 RMK AO2 T02560206 PNO
53988KBKB BKB20190926081511509/26/19 08:15:31  5-MIN KBKB 261415Z AUTO 00000KT 10SM RA CLR 26/21 A2996 260 73 1600 000/00 RMK AO2 T02560206 PNO
53988KBKB BKB20190926082011509/26/19 08:20:31  5-MIN KBKB 261420Z AUTO 00000KT 10SM RA CLR 26/20 A2996 260 71 1600 000/00 RMK AO2 T02560200 PNO
53988KBKB BKB20190926082511509/26/19 08:25:31  5-MIN KBKB 261425Z AUTO VRB03KT 10SM RA CLR 26/21 A2996 260 71 1600 VRB/03 RMK AO2 T02610206 PNO
53988KBKB BKB20190926083011509/26/19 08:30:31  5-MIN KBKB 261430Z AUTO 00000KT 10SM RA CLR 26/20 A2996 260 71 1600 000/00 RMK AO2 T02560200 PNO
53988KBKB BKB20190926083511509/26/19 08:35:31  5-MIN KBKB 261435Z AUTO 00000KT 10SM RA CLR 26/20 A2996 260 68 1600 000/00 RMK AO2 T02610200 PNO
53988KBKB BKB20190926084011509/26/19 08:40:31  5-MIN KBKB 261440Z AUTO 00000KT 10SM RA CLR 27/20 A2997 260 66 1700 000/00 RMK AO2 T02670200 PNO
53988KBKB BKB20190926084511509/26/19 08:45:31  5-MIN KBKB 261445Z AUTO 00000KT 10SM RA CLR 27/20 A2997 250 66 1700 000/00 RMK AO2 T02670200 PNO
53988KBKB BKB20190926085013409/26/19 08:50:31  5-MIN KBKB 261450Z AUTO VRB03KT 10SM RA CLR 27/20 A2998 250 64 1800 VRB/03 RMK AO2 SLP177 6//// T02720200 51011 PNO
53988KBKB BKB20190926085511509/26/19 08:55:31  5-MIN KBKB 261455Z AUTO 00000KT 10SM RA CLR 27/20 A2997 250 64 1800 000/00 RMK AO2 T02720200 PNO
53988KBKB BKB20190926090011509/26/19 09:00:31  5-MIN KBKB 261500Z AUTO 00000KT 10SM RA CLR 27/20 A2997 250 64 1800 000/00 RMK AO2 T02720200 PNO
53988KBKB BKB20190926090511509/26/19 09:05:31  5-MIN KBKB 261505Z AUTO VRB03KT 10SM RA CLR 27/20 A2997 260 64 1800 VRB/03 RMK AO2 T02720200 PNO
53988KBKB BKB20190926091011509/26/19 09:10:31  5-MIN KBKB 261510Z AUTO 00000KT 10SM RA CLR 27/20 A2997 250 64 1800 000/00 RMK AO2 T02720200 PNO
53988KBKB BKB20190926091511509/26/19 09:15:31  5-MIN KBKB 261515Z AUTO 00000KT 10SM RA CLR 27/20 A2998 250 64 1800 000/00 RMK AO2 T02720200 PNO
53988KBKB BKB20190926092011809/26/19 09:20:31  5-MIN KBKB 261520Z AUTO 00000KT 10SM RA FEW031 28/19 A2998 250 60 1800 000/00 RMK AO2 T02780194 PNO
53988KBKB BKB20190926092511909/26/19 09:25:31  5-MIN KBKB 261525Z AUTO VRB03KT 10SM -RA SCT031 28/19 A2997 250 58 1900 VRB/03 RMK AO2 T02830194 PNO
53988KBKB BKB20190926093011809/26/19 09:30:31  5-MIN KBKB 261530Z AUTO 00000KT 10SM RA BKN031 28/19 A2998 250 60 1800 000/00 RMK AO2 T02780194 PNO
53988KBKB BKB20190926093511909/26/19 09:35:31  5-MIN KBKB 261535Z AUTO 00000KT 10SM -RA BKN033 28/19 A2998 250 56 1900 000/00 RMK AO2 T02830189 PNO
53988KBKB BKB20190926094011909/26/19 09:40:31  5-MIN KBKB 261540Z AUTO 00000KT 10SM -RA SCT033 28/19 A2998 250 56 1900 000/00 RMK AO2 T02830189 PNO
53988KBKB BKB20190926094511909/26/19 09:45:31  5-MIN KBKB 261545Z AUTO 00000KT 10SM -RA SCT033 29/19 A2997 250 56 1900 000/00 RMK AO2 T02890194 PNO
53988KBKB BKB20190926095012609/26/19 09:50:31  5-MIN KBKB 261550Z AUTO 00000KT 10SM -RA FEW032 29/19 A2997 250 54 1900 000/00 RMK AO2 SLP175 T02890189 PNO
53988KBKB BKB20190926095511909/26/19 09:55:31  5-MIN KBKB 261555Z AUTO VRB03KT 10SM -RA FEW034 29/19 A2997 250 54 1900 VRB/03 RMK AO2 T02890189 PNO
53988KBKB BKB20190926100011909/26/19 10:00:31  5-MIN KBKB 261600Z AUTO 00000KT 10SM -RA FEW036 30/19 A2997 250 52 2100 000/00 RMK AO2 T03000194 PNO
53988KBKB BKB20190926100511909/26/19 10:05:31  5-MIN KBKB 261605Z AUTO VRB03KT 10SM -RA SCT036 28/19 A2997 250 58 1900 VRB/03 RMK AO2 T02830194 PNO
53988KBKB BKB20190926101011909/26/19 10:10:31  5-MIN KBKB 261610Z AUTO 00000KT 10SM -RA FEW036 28/19 A2997 250 58 1900 000/00 RMK AO2 T02830194 PNO
53988KBKB BKB20190926101511909/26/19 10:15:31  5-MIN KBKB 261615Z AUTO 00000KT 10SM -RA FEW037 27/19 A2997 250 60 1800 000/00 RMK AO2 T02720189 PNO
53988KBKB BKB20190926102011909/26/19 10:20:31  5-MIN KBKB 261620Z AUTO 00000KT 10SM -RA FEW037 28/19 A2997 250 56 1900 000/00 RMK AO2 T02830189 PNO
53988KBKB BKB20190926102511909/26/19 10:25:31  5-MIN KBKB 261625Z AUTO 00000KT 10SM -RA FEW037 29/19 A2997 250 54 1900 000/00 RMK AO2 T02890189 PNO
53988KBKB BKB20190926103011909/26/19 10:30:31  5-MIN KBKB 261630Z AUTO VRB03KT 10SM -RA FEW037 30/19 A2997 260 51 2100 VRB/03 RMK AO2 T03000189 PNO
53988KBKB BKB20190926103511909/26/19 10:35:31  5-MIN KBKB 261635Z AUTO 08003KT 10SM -RA SCT039 30/18 A2996 260 49 2100 070/03 RMK AO2 T03000183 PNO
53988KBKB BKB20190926104011909/26/19 10:40:31  5-MIN KBKB 261640Z AUTO VRB03KT 10SM -RA SCT039 29/19 A2996 260 52 2000 VRB/03 RMK AO2 T02940189 PNO
53988KBKB BKB20190926104511909/26/19 10:45:31  5-MIN KBKB 261645Z AUTO VRB03KT 10SM -RA BKN041 29/19 A2996 260 52 2000 VRB/03 RMK AO2 T02940189 PNO
53988KBKB BKB20190926105012609/26/19 10:50:31  5-MIN KBKB 261650Z AUTO 00000KT 10SM -RA BKN041 31/19 A2996 260 49 2200 000/00 RMK AO2 SLP171 T03110194 PNO
53988KBKB BKB20190926105511909/26/19 10:55:31  5-MIN KBKB 261655Z AUTO VRB03KT 10SM -RA BKN041 30/19 A2996 260 51 2100 VRB/03 RMK AO2 T03000189 PNO
53988KBKB BKB20190926110011909/26/19 11:00:31  5-MIN KBKB 261700Z AUTO VRB03KT 10SM -RA BKN041 30/19 A2995 270 51 2100 VRB/03 RMK AO2 T03000189 PNO
53988KBKB BKB20190926110511909/26/19 11:05:31  5-MIN KBKB 261705Z AUTO VRB03KT 10SM -RA BKN039 31/19 A2995 270 51 2100 VRB/03 RMK AO2 T03060194 PNO
53988KBKB BKB20190926111011909/26/19 11:10:31  5-MIN KBKB 261710Z AUTO 00000KT 10SM -RA BKN039 31/19 A2995 270 49 2100 000/00 RMK AO2 T03060189 PNO
53988KBKB BKB20190926111511909/26/19 11:15:31  5-MIN KBKB 261715Z AUTO 00000KT 10SM -RA SCT039 29/19 A2995 270 52 2000 000/00 RMK AO2 T02940189 PNO
53988KBKB BKB20190926112011909/26/19 11:20:31  5-MIN KBKB 261720Z AUTO 00000KT 10SM -RA SCT039 31/19 A2995 270 49 2200 000/00 RMK AO2 T03060189 PNO
53988KBKB BKB20190926112511909/26/19 11:25:31  5-MIN KBKB 261725Z AUTO 00000KT 10SM -RA SCT039 30/19 A2995 270 51 2100 000/00 RMK AO2 T03000189 PNO
53988KBKB BKB20190926113011909/26/19 11:30:31  5-MIN KBKB 261730Z AUTO 00000KT 10SM -RA FEW039 31/19 A2994 280 49 2200 000/00 RMK AO2 T03060189 PNO
53988KBKB BKB20190926113511909/26/19 11:35:31  5-MIN KBKB 261735Z AUTO VRB04KT 10SM -RA FEW041 31/18 A2994 280 46 2200 VRB/04 RMK AO2 T03110183 PNO
53988KBKB BKB20190926114011609/26/19 11:40:31  5-MIN KBKB 261740Z AUTO VRB03KT 10SM -RA CLR 31/18 A2994 280 46 2200 VRB/03 RMK AO2 T03060178 PNO
53988KBKB BKB20190926114516609/26/19 11:45:31  5-MIN KBKB 261745Z AUTO VRB03KT 10SM -RA CLR 31/18 A2993 290 46 2200 VRB/03 RMK AO2 T03060178 PNO09/26/19  2300 VRB/04 RMK AO2 SLP149 T03110178 PNO
53988KBKB BKB20190926125511609/26/19 12:55:31  5-MIN KBKB 261855Z AUTO VRB04KT 10SM -RA CLR 31/18 A2990 320 44 2300 VRB/04 RMK AO2 T03110178 PNO
53988KBKB BKB20190926130011609/26/19 13:00:31  5-MIN KBKB 261900Z AUTO VRB03KT 10SM -RA CLR 32/18 A2989 320 44 2300 VRB/03 RMK AO2 T03170183 PNO
53988KBKB BKB20190926130511609/26/19 13:05:31  5-MIN KBKB 261905Z AUTO 00000KT 10SM -RA CLR 32/18 A2989 330 44 2300 000/00 RMK AO2 T03170183 PNO
53988KBKB BKB20190926131010609/26/19 13:10:31  5-MIN KBKB 261910Z AUTO 10SM -RA CLR 31/18 A2989 330 44 2300 M /M RMK AO2 T03110178 PNO
53988KBKB BKB20190926131511609/26/19 13:15:31  5-MIN KBKB 261915Z AUTO VRB04KT 10SM -RA CLR 31/18 A2988 330 44 2300 VRB/04 RMK AO2 T03110178 PNO
53988KBKB BKB20190926132004009/26/19 13:20:31  5-MIN KBKB 261920Z AU
53988KBKB BKB20190926132011609/26/19 13:20:31  5-MIN KBKB 261920Z AUTO 00000KT 10SM -RA CLR 32/18 A2988 330 43 2400 000/00 RMK AO2 T03170178 PNO
53988KBKB BKB20190926132511609/26/19 13:25:31  5-MIN KBKB 261925Z AUTO VRB04KT 10SM -RA CLR 32/18 A2988 330 43 2400 VRB/04 RMK AO2 T03170178 PNO
53988KBKB BKB20190926133011609/26/19 13:30:31  5-MIN KBKB 261930Z AUTO 00000KT 10SM -RA CLR 31/17 A2988 340 42 2300 000/00 RMK AO2 T03110172 PNO
53988KBKB BKB20190926133511609/26/19 13:35:31  5-MIN KBKB 261935Z AUTO VRB03KT 10SM -RA CLR 32/17 A2988 340 40 2400 VRB/03 RMK AO2 T03220172 PNO
53988KBKB BKB20190926133514609/26/19 13:35:31  5-MIN KBKB 261935Z AUTO VRB03KT 10SM -RA CLR 32/17 A2988 340 40 2400 VRB/03 RMK AO2 T03220172 PNO09/26/19 1MK AO2 T03110178 PNO
53988KBKB BKB20190926134011609/26/19 13:40:31  5-MIN KBKB 261940Z AUTO 13004KT 10SM -RA CLR 32/18 A2988 340 44 2400 130/04 RMK AO2 T03170183 PNO
53988KBKB BKB20190926134511609/26/19 13:45:31  5-MIN KBKB 261945Z AUTO VRB03KT 10SM -RA CLR 32/18 A2987 340 44 2400 VRB/03 RMK AO2 T03170183 PNO
53988KBKB BKB20190926135012309/26/19 13:50:31  5-MIN KBKB 261950Z AUTO VRB04KT 10SM -RA CLR 32/18 A2987 340 43 2400 VRB/04 RMK AO2 SLP141 T03170178 PNO
53988KBKB BKB20190926135511609/26/19 13:55:31  5-MIN KBKB 261955Z AUTO 00000KT 10SM -RA CLR 32/18 A2987 340 44 2400 000/00 RMK AO2 T03170183 PNO
53988KBKB BKB20190926140011609/26/19 14:00:31  5-MIN KBKB 262000Z AUTO VRB04KT 10SM -RA CLR 32/18 A2987 350 44 2400 VRB/04 RMK AO2 T03170183 PNO
53988KBKB BKB20190926140511609/26/19 14:05:31  5-MIN KBKB 262005Z AUTO VRB03KT 10SM -RA CLR 32/18 A2987 340 43 2400 VRB/03 RMK AO2 T03220183 PNO
53988KBKB BKB20190926141011609/26/19 14:10:31  5-MIN KBKB 262010Z AUTO VRB03KT 10SM -RA CLR 31/18 A2987 350 44 2300 VRB/03 RMK AO2 T03110178 PNO
53988KBKB BKB20190926141511609/26/19 14:15:31  5-MIN KBKB 262015Z AUTO VRB04KT 10SM -RA CLR 32/18 A2987 350 43 2400 VRB/04 RMK AO2 T03170178 PNO
53988KBKB BKB20190926142011609/26/19 14:20:31  5-MIN KBKB 262020Z AUTO VRB03KT 10SM -RA CLR 32/18 A2987 350 44 2400 VRB/03 RMK AO2 T03170183 PNO
53988KBKB BKB20190926142511609/26/19 14:25:31  5-MIN KBKB 262025Z AUTO VRB03KT 10SM -RA CLR 32/18 A2987 350 44 2400 VRB/03 RMK AO2 T03170183 PNO
53988KBKB BKB20190926143011609/26/19 14:30:31  5-MIN KBKB 262030Z AUTO VRB03KT 10SM -RA CLR 32/18 A2987 350 44 2400 VRB/03 RMK AO2 T03170183 PNO
53988KBKB BKB20190926143511609/26/19 14:35:31  5-MIN KBKB 262035Z AUTO 15004KT 10SM -RA CLR 32/18 A2986 350 43 2400 140/04 RMK AO2 T03220183 PNO
53988KBKB BKB20190926144011709/26/19 14:40:31  5-MIN KBKB 262040Z AUTTO VRB03KT 10SM -RA CLR 31/18 A2984 370 46 2300 VRB/03 RMK AO2 T03060178 PNO
53988KBKB BKB20190926163011609/26/19 16:30:31  5-MIN KBKB 262230Z AUTO VRB03KT 10SM -RA CLR 31/18 A2984 370 46 2300 VRB/03 RMK AO2 T03060178 PNO
53988KBKB BKB20190926163511609/26/19 16:35:31  5-MIN KBKB 262235Z AUTO 00000KT 10SM -RA CLR 31/18 A2985 370 46 2300 000/00 RMK AO2 T03060178 PNO
53988KBKB BKB20190926164011609/26/19 16:40:31  5-MIN KBKB 262240Z AUTO 00000KT 10SM -RA CLR 31/18 A2985 370 47 2300 000/00 RMK AO2 T03060183 PNO
53988KBKB BKB20190926164511809/26/19 16:45:31  5-MIN KBKB 262245Z AUTO 00000KT 10SM CLR 30/18 A2985 360 49 2200 000/00 RMK AO2 RAE45 T03000183 PNO
53988KBKB BKB20190926165012309/26/19 16:50:31  5-MIN KBKB 262250Z AUTO 12003KT 10SM -RA CLR 30/18 A2985 360 49 2200 120/03 RMK AO2 SLP133 T03000183 PNO
53988KBKB BKB20190926165014409/26/19 16:50:31  5-MIN KBKB 262250Z AUTO 12003KT 10SM -RA CLR 30/18 A2985 360 49 2200 120/03 RMK AO2 SLP133 T03000183 PNORMK AO2 T03060178 PNO
53988KBKB BKB20190926165511609/26/19 16:55:31  5-MIN KBKB 262255Z AUTO VRB03KT 10SM -RA CLR 30/19 A2985 360 51 2200 VRB/03 RMK AO2 T03000189 PNO
53988KBKB BKB20190926170011609/26/19 17:00:31  5-MIN KBKB 262300Z AUTO 00000KT 10SM -RA CLR 29/19 A2985 360 52 2100 000/00 RMK AO2 T02940189 PNO
53988KBKB BKB20190926170013909/26/19 17:00:31  5-MIN KBKB 262300Z AUTO 00000KT 10SM -RA CLR 29/19 A2985 360 52 2100 000/00 RMK AO2 T029300 000/00 RMK AO2 T03060183 PNO
53988KBKB BKB20190926170511809/26/19 17:05:31  5-MIN KBKB 262305Z AUTO 00000KT 10SM CLR 29/19 A2985 360 52 2100 000/00 RMK AO2 RAE03 T02940189 PNO
53988KBKB BKB20190926171011609/26/19 17:10:31  5-MIN KBKB 262310Z AUTO 13003KT 10SM -RA CLR 29/19 A2985 360 54 2100 130/03 RMK AO2 T02890189 PNO
53988KBKB BKB20190926171014609/26/19 17:10:31  5-MIN KBKB 262310Z AUTO 13003KT 10SM -RA CLR 29/19 A2985 360 54 2100 130/03 RMK 360 49 2200 120/03 RMK AO2 SLP133 T03000183 PNO
53988KBKB BKB20190926171511609/26/19 17:15:31  5-MIN KBKB 262315Z AUTO 00000KT 10SM -RA CLR 29/19 A2985 360 54 2100 000/00 RMK AO2 T02890189 PNO
53988KBKB BKB20190926172011609/26/19 17:20:31  5-MIN KBKB 262320Z AUTO 00000KT 10SM -RA CLR 28/19 A2985 360 56 2000 000/00 RMK AO2 T02830189 PNO
53988KBKB BKB20190926172014609/26/19 17:20:31  5-MIN KBKB 262320Z AUTO 00000KT 10SMKBKB 262300Z AUTO 00000KT 10SM -RA CLR 29/19 A2985 360 52 2100 000/00 RMK AO2 T02940189 PNO
53988KBKB BKB20190926172511609/26/19 17:25:31  5-MIN KBKB 262325Z AUTO 00000KT 10SM -RA CLR 28/19 A2985 360 60 2000 000/00 RMK AO2 T02780194 PNO
53988KBKB BKB20190926173011609/26/19 17:30:31  5-MIN KBKB 262330Z AUTO 00000KT 10SM -RA CLR 27/19 A2985 360 62 1900 000/00 RMK AO2 T02720194 PNO
53988KBKB BKB20190926173014809/26/19 17:30:31  5-MIN KBKB 262330Z AUTO 000:31  5-MIN KBKB 262310Z AUTO 13003KT 10SM -RA CLR 29/19 A2985 360 54 2100 130/03 RMK AO2 T02890189 PNO
53988KBKB BKB20190926173511609/26/19 17:35:31  5-MIN KBKB 262335Z AUTO 00000KT 10SM -RA CLR 27/19 A2986 360 64 1800 000/00 RMK AO2 T02670194 PNO
53988KBKB BKB20190926174011609/26/19 17:40:31  5-MIN KBKB 262340Z AUTO 00000KT 10SM -RA CLR 26/19 A2986 360 66 1800 000/00 RMK AO2 T02610194 PNO
53988KBKB BKB20190926182511509/26/19 18:25:31  5-MIN KBKB 270025Z AUTO 00000KT 10SM RA CLR 24/19 A2986 350 76 1500 000/00 RMK AO2 T02390194 PNO
53988KBKB BKB20190926183011509/26/19 18:30:31  5-MIN KBKB 270030Z AUTO 00000KT 10SM RA CLR 24/19 A2986 350 76 1500 000/00 RMK AO2 T02390194 PNO
53988KBKB BKB20190926183511509/26/19 18:35:31  5-MIN KBKB 270035Z AUTO 00000KT 10SM RA CLR 23/19 A2986 350 81 1400 000/00 RMK AO2 T02280194 PNO
53988KBKB BKB20190926184011509/26/19 18:40:31  5-MIN KBKB 270040Z AUTO 00000KT 10SM RA CLR 23/19 A2986 350 76 1400 000/00 RMK AO2 T02330189 PNO
53988KBKB BKB20190926184511509/26/19 18:45:31  5-MIN KBKB 270045Z AUTO 00000KT 10SM RA CLR 23/19 A2986 350 81 1400 000/00 RMK AO2 T02280194 PNO
53988KBKB BKB20190926185012209/26/19 18:50:31  5-MIN KBKB 270050Z AUTO 00000KT 10SM RA CLR 23/19 A2986 350 78 1400 000/00 RMK AO2 SLP137 T02330194 PNO
53988KBKB BKB20190926185511509/26/19 18:55:31  5-MIN KBKB 270055Z AUTO 00000KT 10SM RA CLR 23/19 A2986 350 78 1400 000/00 RMK AO2 T02330194 PNO
53988KBKB BKB20190926190011509/26/19 19:00:31  5-MIN KBKB 270100Z AUTO 00000KT 10SM RA CLR 23/19 A2986 350 81 1400 000/00 RMK AO2 T02280194 PNO
53988KBKB BKB20190926190511509/26/19 19:05:31  5-MIN KBKB 270105Z AUTO 00000KT 10SM RA CLR 23/19 A2986 350 81 1400 000/00 RMK AO2 T02280194 PNO
53988KBKB BKB20190926191011509/26/19 19:10:31  5-MIN KBKB 270110Z AUTO 00000KT 10SM RA CLR 23/19 A2986 350 81 1400 000/00 RMK AO2 T02280194 PNO
53988KBKB BKB20190926191511509/26/19 19:15:31  5-MIN KBKB 270115Z AUTO 00000KT 10SM RA CLR 22/19 A2986 350 84 1300 000/00 RMK AO2 T02220194 PNO
53988KBKB BKB20190926192011509/26/19 19:20:31  5-MIN KBKB 270120Z AUTO 00000KT 10SM RA CLR 22/19 A2987 350 84 1300 000/00 RMK AO2 T02220194 PNO
53988KBKB BKB20190926192511509/26/19 19:25:31  5-MIN KBKB 270125Z AUTO 00000KT 10SM RA CLR 22/19 A2987 350 84 1300 000/00 RMK AO2 T02220194 PNO
53988KBKB BKB20190926193011509/26/19 19:30:31  5-MIN KBKB 270130Z AUTO 00000KT 10SM RA CLR 22/19 A2987 350 84 1300 000/00 RMK AO2 T02220194 PNO
53988KBKB BKB20190926193511509/26/19 19:35:31  5-MIN KBKB 270135Z AUTO 00000KT 10SM RA CLR 22/19 A2987 340 81 1300 000/00 RMK AO2 T02220189 PNO
53988KBKB BKB20190926194011509/26/19 19:40:31  5-MIN KBKB 270140Z AUTO 00000KT 10SM RA CLR 22/19 A2987 340 81 1300 000/00 RMK AO2 T02220189 PNO
53988KBKB BKB20190926194511109/26/19 19:45:31  5-MIN KBKB 270145Z AUTO RMK AO2 SLP151 T02110194 PNO330 90 1200 000/00 RMK AO2 T02110194 PNO
53988KBKB BKB20190926230511509/26/19 23:05:31  5-MIN KBKB 270505Z AUTO 00000KT 10SM RA CLR 21/19 A2989 330 90 1200 000/00 RMK AO2 T02110194 PNO
53988KBKB BKB20190926231011509/26/19 23:10:31  5-MIN KBKB 270510Z AUTO 00000KT 10SM RA CLR 21/19 A2988 330 93 1100 000/00 RMK AO2 T02060194 PNO
53988KBKB BKB20190926231522109/26/19 23:15:31  5-MIN KBKB 270515Z AUTO 00000KT 10SM RA CLR 21/9/26/19 23:50:31  5-MIN KBKB 270550Z AUTO 00000KT 10SM RA CLR 21/20 A2989 330 93 1200 000/00 RMK AO2 SLP146 6//// T02110200 10256 20206 403220172 53012 PNO
53988KBKB BKB20190926235511509/26/19 23:55:31  5-MIN KBKB 270555Z AUTO 00000KT 10SM RA CLR 21/19 A2989 330 93 1100 000/00 RMK AO2 T02060194 PNO
53988KBKB BKB20190927000015509/27/19 00:00:31  5-MIN KBKB 270600Z AUTO 00000KT 10SM RA CLR 21/19 A2989 330 93 1100 000/00 RMK AO2 T02060194 PNO320 93 1100 000/00 RMK AO2 T02060194 PNO
53988KBKB BKB20190927002011409/27/19 00:20:31  5-MIN KBKB 270620Z AUTO 00000KT 8SM RA CLR 21/19 A2989 320 93 1100 000/00 RMK AO2 T02060194 PNO
53988KBKB BKB20190927002511409/27/19 00:25:31  5-MIN KBKB 270625Z AUTO 00000KT 7SM RA CLR 20/19 A2989 320 97 1000 000/00 RMK AO2 T02000194 PNO
53988KBKB BKB20190927003011709/27/19 00:30:31  5-MIN KBKB 270630Z AUTO 00000KT 6SM RA BR CLR 21/19 A2989 320 93 1100 000/00 RMK AO2 T02060194 PNO
53988KBKB BKB20190927003511709/27/19 00:35:31  5-MIN KBKB 270635Z AUTO 00000KT 6SM RA BR CLR 20/19 A2989 320 97 1000 000/00 RMK AO2 T02000194 PNO
53988KBKB BKB20190927004011709/27/19 00:40:31  5-MIN KBKB 270640Z AUTO 00000KT 6SM RA BR CLR 20/19 A2989 330 97 1000 000/00 RMK AO2 T02000194 PNO
53988KBKB BKB20190927004511709/27/19 00:45:31  5-MIN KBKB 270645Z AUTO 00000KT 6SM RA BR CLR 20/19 A2989 330 97 1000 000/00 RMK AO2 T02000194 PNO
53988KBKB BKB20190927005012409/27/19 00:50:31  5-MIN KBKB 270650Z AUTO 00000KT 6SM RA BR CLR 20/19 A2989 330 97 1000 000/00 RMK AO2 SLP146 T02000194 PNO
53988KBKB BKB20190927005511709/27/19 00:55:31  5-MIN KBKB 270655Z AUTO 00000KT 5SM RA BR CLR 20/19 A2989 330 97 1000 000/00 RMK AO2 T02000194 PNO
53988KBKB BKB20190927010011709/27/19 01:00:31  5-MIN KBKB 270700Z AUTO 00000KT 4SM RA BR CLR 20/19 A2989 330 97 1000 000/00 RMK AO2 T02000194 PNO
53988KBKB BKB20190927010511709/27/19 01:05:31  5-MIN KBKB 270705Z AUTO 00000KT 4SM RA BR CLR 20/19 A2988 330 93 1000 000/00 RMK AO2 T02000189 PNO
53988KBKB BKB20190927011011709/27/19 01:10:31  5-MIN KBKB 270710Z AUTO 00000KT 3SM RA BR CLR 20/19 A2988 330 97 1000 000/00 RMK AO2 T02000194 PNO
53988KBKB BKB20190927011512909/27/19 01:15:31  5-MIN KBKB 270715Z AUTO 00000KT 1 3/4SM RA BR CLR 20/19 A2988 330 93 1000 000/00 RMK AO2 VIS 1V5 T02000189 PNO
53988KBKB BKB20190927012013109/27/19 01:20:31  5-MIN KBKB 270720Z AUTO 00000KT 1 1/2SM RA BR CLR 20/19 A2988 330 93 1000 000/00 RMK AO2 VIS 3/4V4 T02000189 PNO
53988KBKB BKB20190927012512109/27/19 01:25:31  5-MIN KBKB 270725Z AUTO 00000KT 2 1/2SM RA BR CLR 20/19 A2988 330 93 1000 000/00 RMK AO2 T02000189 PNO
53988KBKB BKB20190927013011709/27/19 01:30:31  5-MIN KBKB 270730Z AUTO 00000KT 5SM RA BR CLR 20/19 A2988 330 93 1000 000/00 RMK AO2 T02000189 PNO
53988KBKB BKB20190927013511709/27/19 01:35:31  5-MIN KBKB 270735Z AUTO 00000KT 4SM RA BR CLR 20/19 A2988 330 93 1000 000/00 RMK AO2 T02000189 PNO
53988KBKB BKB20190927014011709/27/19 01:40:31  5-MIN KBKB 270740Z AUTO 00000KT 4SM RA BR CLR 20/19 A2988 330 93 1000 000/00 RMK AO2 T02000189 PNO
53988KBKB BKB20190927014511709/27/19 01:45:31  5-MIN KBKB 270745Z AUTO 00000KT 5SM RA BR CLR 20/19 A2988 330 93 1000 000/00 RMK AO2 T02000189 PNO
53988KBKB BKB20190927015007009/27/19 01:50:31  5-MIN KBKB 270750Z AUTO 00000KT 5SM RA BR CLR83 PNO
53988KBKB BKB20190927023511709/27/19 02:35:31  5-MIN KBKB 270835Z AUTO 00000KT 5SM RA BR CLR 19/18 A2988 340 93 1000 000/00 RMK AO2 T01940183 PNO
53988KBKB BKB20190927024011709/27/19 02:40:31  5-MIN KBKB 270840Z AUTO 00000KT 5SM RA BR CLR 19/18 A2988 340 93 1000 000/00 RMK AO2 T01940183 PNO
53988KBKB BKB20190927024516209/27/19 02:45:31  5-MIN KBKB 270845Z AUTO 00000KT 5SM RA BR CLR 19/18 A2988 340 93 1000 000/00 RMK AO2 T01940183 PNOA2990 320 96 800 000/00 RMK AO2 T01830178 PNO
53988KBKB BKB20190927043011609/27/19 04:30:31  5-MIN KBKB 271030Z AUTO 00000KT 4SM RA BR CLR 19/18 A2990 320 93 900 000/00 RMK AO2 T01890178 PNO
53988KBKB BKB20190927043511609/27/19 04:35:31  5-MIN KBKB 271035Z AUTO 00000KT 4SM RA BR CLR 18/18 A2990 320 96 800 000/00 RMK AO2 T01830178 PNO
53988KBKB BKB20190927044016109/27/19 04:40:31  5-MIN KBKB 271040Z AUTO 00000KT 4SM RA BR CLR 18/18 A2990 320 96 800 000/00 RMK AO2 T01830178 PNOA2991 310 96 800 000/00 RMK AO2 T01830178 PNO
53988KBKB BKB20190928032511509/28/19 03:25:31  5-MIN KBKB 280925Z AUTO 00000KT 10SM RA CLR 23/22 A2990 320 93 1400 000/00 RMK AO2 T02330222 PNO
53988KBKB BKB20190928033011509/28/19 03:30:31  5-MIN KBKB 280930Z AUTO 00000KT 10SM RA CLR 23/22 A2990 320 93 1400 000/00 RMK AO2 T02330222 PNO
53988KBKB BKB20190928033511509/28/19 03:35:31  5-MIN KBKB 280935Z AUTO 00000KT 10SM RA CLR 23/22 A2990 320 97 1300 000/00 RMK AO2 T02280222 PNO
53988KBKB BKB20190928034011509/28/19 03:40:31  5-MIN KBKB 280940Z AUTO 00000KT 10SM RA CLR 23/22 A2990 310 93 1300 000/00 RMK AO2 T02280217 PNO
53988KBKB BKB20190928034511509/28/19 03:45:31  5-MIN KBKB 280945Z AUTO 00000KT 10SM RA CLR 23/22 A2991 310 93 1400 000/00 RMK AO2 T02330222 PNO
53988KBKB BKB20190928035012209/28/19 03:50:31  5-MIN KBKB 280950Z AUTO 00000KT 10SM RA CLR 23/22 A2991 310 90 1400 000/00 RMK AO2 SLP152 T02330217 PNO
53988KBKB BKB20190928035511509/28/19 03:55:31  5-MIN KBKB 280955Z AUTO 00000KT 10SM RA CLR 23/22 A2991 310 93 1300 000/00 RMK AO2 T02280217 PNO
53988KBKB BKB20190928040011509/28/19 04:00:31  5-MIN KBKB 281000Z AUTO 00000KT 10SM RA CLR 23/22 A2991 310 93 1300 000/00 RMK AO2 T02280217 PNO
53988KBKB BKB20190928040511509/28/19 04:05:31  5-MIN KBKB 281005Z AUTO 00000KT 10SM RA CLR 23/22 A2991 310 93 1400 000/00 RMK AO2 T02330222 PNO
53988KBKB BKB20190928041011509/28/19 04:10:31  5-MIN KBKB 281010Z AUTO 00000KT 10SM RA CLR 23/22 A2991 300 93 1300 000/00 RMK AO2 T02280217 PNO
53988KBKB BKB20190928041511409/28/19 04:15:31  5-MIN KBKB 281015Z AUTO 00000KT 9SM RA CLR 23/22 A2992 300 93 1300 000/00 RMK AO2 T02280217 PNO
53988KBKB BKB20190928042011409/28/19 04:20:31  5-MIN KBKB 281020Z AUTO 00000KT 8SM RA CLR 23/22 A2992 300 93 1300 000/00 RMK AO2 T02280217 PNO
53988KBKB BKB20190928042511409/28/19 04:25:31  5-MIN KBKB 281025Z AUTO 00000KT 7SM RA CLR 23/22 A2992 300 93 1300 000/00 RMK AO2 T02280217 PNO
53988KBKB BKB20190928043011709/28/19 04:30:31  5-MIN KBKB 281030Z AUTO 00000KT 6SM RA BR CLR 23/22 A2992 300 93 1300 000/00 RMK AO2 T02280217 PNO
53988KBKB BKB20190928043511409/28/19 04:35:31  5-MIN KBKB 281035Z AUTO 00000KT 7SM RA CLR 23/22 A2992 300 93 1300 000/00 RMK AO2 T02280217 PNO
53988KBKB BKB20190928044011409/28/19 04:40:31  5-MIN KBKB 281040Z AUTO 00000KT 8SM RA CLR 23/22 A2992 300 93 1300 000/00 RMK AO2 T02280217 PNO
53988KBKB BKB20190928044511409/28/19 04:45:31  5-MIN KBKB 281045Z AUTO 00000KT 8SM RA CLR 23/22 A2992 300 93 1300 000/00 RMK AO2 T02280217 PNO
53988KBKB BKB20190928045012109/28/19 04:50:31  5-MIN KBKB 281050Z AUTO 00000KT 7SM RA CLR 22/22 A2992 300 97 1200 000/00 RMK AO2 SLP158 T02220217 PNO
53988KBKB BKB20190928045523309/28/19 04:55:31  5-MIN KBKB 281055Z AUTO 00000KT 6SM RA BR CLR 22/22 A2992 290 97 1200 000/00 RMK AO2 T02220217 PNO09/28/19 05:00:31  A2994 280 97 1200 000/00 RMK AO2 T02220217 PNO3 6//// 7////  000/00 RMK AO2 VIS 2V4 T02220211 PNO
53988KBKB BKB20190928060512409/28/19 06:05:31  5-MIN KBKB 281205Z AUTO 00000KT 1 1/4SM RA BR FEW003 22/21 A2995 270 93 1200 000/00 RMK AO2 T02220211 PNO
53988KBKB BKB20190928061013409/28/19 06:10:31  5-MIN KBKB 281210Z AUTO 00000KT 1 1/4SM RA BR FEW003 22/21 A2995 270 93 1200 000/00 RMK AO2 VIS 1/2V2 T02220211 PNO
53988KBKB BKB20190928061514009/28/19 06:15:31  5-MIN KBKB 281215Z AUTO 00000KT 1 3/4SM RA BR FEW003 22/21 A2995 270 93 1200 000/00 RMK AO2 VIS 1 1/4V2 1/2 T02220211 PNO
53988KBKB BKB20190928062012409/28/19 06:20:31  5-MIN KBKB 281220Z AUTO 00000KT 1 3/4SM RA BR SCT003 22/22 A2995 270 97 1200 000/00 RMK AO2 T02220217 PNO
53988KBKB BKB20190928062512409/28/19 06:25:31  5-MIN KBKB 281225Z AUTO 00000KT 1 3/4SM RA BR FEW003 22/22 A2995 270 97 1200 000/00 RMK AO2 T02220217 PNO
53988KBKB BKB20190928063013609/28/19 06:30:31  5-MIN KBKB 281230Z AUTO 00000KT 2 1/2SM RA BR FEW003 22/22 A2996 270 97 1200 000/00 RMK AO2 VIS 1 1/2V3 T02220217 PNO
53988KBKB BKB20190928063512009/28/19 06:35:31  5-MIN KBKB 281235Z AUTO 00000KT 3SM RA BR FEW003 23/22 A2996 260 93 1300 000/00 RMK AO2 T02280217 PNO
53988KBKB BKB20190928064012009/28/19 06:40:31  5-MIN KBKB 281240Z AUTO 00000KT 4SM RA BR FEW003 23/22 A2996 260 97 1300 000/00 RMK AO2 T02280222 PNO
53988KBKB BKB20190928064512009/28/19 06:45:31  5-MIN KBKB 281245Z AUTO VRB03KT 4SM RA BR FEW003 23/22 A2996 260 97 1300 VRB/03 RMK AO2 T02280222 PNO
53988KBKB BKB20190928065012709/28/19 06:50:31  5-MIN KBKB 281250Z AUTO VRB03KT 5SM RA BR FEW004 23/22 A2997 260 97 1300 VRB/03 RMK AO2 SLP172 T02280222 PNO
53988KBKB BKB20190928065512009/28/19 06:55:31  5-MIN KBKB 281255Z AUTO 13003KT 6SM RA BR FEW004 23/22 A2997 260 93 1300 130/03 RMK AO2 T02330222 PNO
53988KBKB BKB20190928070014009/28/19 07:00:31  5-MIN KBKB 281300Z AUTO 00000KT 7SM RA FEW004 23/22 A2997 250 93 1300 000/00 RMK AO2 T023300 VRB/03 RMK AO2 T02670228 PNO
53988KBKB BKB20190928081011609/28/19 08:10:31  5-MIN KBKB 281410Z AUTO VRB04KT 10SM -RA CLR 27/23 A2999 240 76 1700 VRB/04 RMK AO2 T02720228 PNO
53988KBKB BKB20190928081511609/28/19 08:15:31  5-MIN KBKB 281415Z AUTO VRB05KT 10SM -RA CLR 27/23 A2999 240 76 1700 VRB/05 RMK AO2 T02720228 PNO
53988KBKB BKB20190928082012109/28/19 08:20:31  5-MIN KBKB 281420Z AUTO VRB03KT 10SM -RA CLR 28/23 A2999A2999 230 71 1900 VRB/05 RMK AO2 T02830228 PNO
53988KBKB BKB20190928085013809/28/19 08:50:31  5-MIN KBKB 281450Z AUTO 00000KT 10SM -RA FEW080 29/23 A2999 230 69 1900 000/00 RMK AO2 SLP181 6//// T02890228 53015 PNO
53988KBKB BKB20190928085511609/28/19 08:55:31  5-MIN KBKB 281455Z AUTO VRB05KT 10SM -RA CLR 29/23 A3000 230 67 2000 VRB/05 RMK AO2 T02940228 PNO
53988KBKB BKB20190928090011609/28/19 09:00:31  5-MIN KBKB 281500Z AUTO VRB03KT 10SM -RA CLR 29/23 A3000 230 69 1900 VRB/03 RMK AO2 T02890228 PNO
53988KBKB BKB20190928090511609/28/19 09:05:31  5-MIN KBKB 281505Z AUTO VRB04KT 10SM -RA CLR 29/23 A3000 230 67 2000 VRB/04 RMK AO2 T02940228 PNO
53988KBKB BKB20190928091011609/28/19 09:10:31  5-MIN KBKB 281510Z AUTO VRB03KT 10SM -RA CLR 29/23 A3000 220 69 1900 VRB/03 RMK AO2 T02890228 PNO
53988KBKB BKB20190928091505209/28/19 09:15:31  5-MIN KBKB 281515Z AUTO VRB03KTNO
53988KBKB BKB20190928105014009/28/19 10:50:31  5-MIN KBKB 281650Z AUTO VRB04KT 10SM -RA SCT031 BKN039 OVC085 31/22 A3001 220 58 2100 VRB/04 RMK AO2 SLP187 T03110222 PNO
53988KBKB BKB20190928105512609/28/19 10:55:31  5-MIN KBKB 281655Z AUTO VRB03KT 10SM -RA BKN033 BKN085 32/23 A3001 220 58 2200 VRB/03 RMK AO2 T03170228 PNO
53988KBKB BKB20190928110011209/28/19 11:00:31  5-MIN KBKB 281700Z AUTO VRB04KT 10SM -RA BKN035 BKN085 31/22 A3001 210 56 2100 VRB/04 R11 PNO
53988KBKB BKB20190928124011909/28/19 12:40:31  5-MIN KBKB 281840Z AUTO VRB05KT 10SM -RA FEW044 32/21 A2998 250 51 2300 VRB/05 RMK AO2 T03220211 PNO
53988KBKB BKB20190928124511909/28/19 12:45:31  5-MIN KBKB 281845Z AUTO VRB05KT 10SM -RA SCT044 32/21 A2998 250 51 2300 VRB/05 RMK AO2 T03220211 PNO
53988KBKB BKB20190928125018509/28/19 12:50:31  5-MIN KBKB 281850Z AUTO 00000KT 10SM -RA FEW042 32/21 A2998 250 53 2200 000/00 RMK AO2 SLP176 T03170211 PNOBKN075 33/21 A2997 250 49 2400 VRB/03 RMK AO2 T03280211 PNO
53988KBKB BKB20190928131013309/28/19 13:10:31  5-MIN KBKB 281910Z AUTO VRB04KT 10SM -RA FEW043 FEW050 BKN075 33/20 A2997 250 45 2400 VRB/04 RMK AO2 T03330200 PNO
53988KBKB BKB20190928131512609/28/19 13:15:31  5-MIN KBKB 281915Z AUTO 00000KT 10SM -RA FEW050 BKN075 33/20 A2997 250 45 2400 000/00 RMK AO2 T03330200 PNO
53988KBKB BKB20190928132013309/28/19 13:20:31  5-MIN KBKB 281920Z AUTO VRB04KT 10SM -RA FEW050 FEW065 BKN080 34/21 A2997 260 45 2500 VRB/04 RMK AO2 T03390206 PNO
53988KBKB BKB20190928132513309/28/19 13:25:31  5-MIN KBKB 281925Z AUTO VRB03KT 10SM -RA FEW050 SCT060 BKN080 34/21 A2997 260 45 2500 VRB/03 RMK AO2 T03390206 PNO
53988KBKB BKB20190928133012609/28/19 13:30:31  5-MIN KBKB 281930Z AUTO VRB03KT 10SM -RA FEW050 BKN075 33/21 A2997 250 46 2400 VRB/03 RMK AO2 T03330206 PNO
53988KBKB BKB20190928133512809/28/19 13:35:31  5-MIN KBKB 281935Z AUTO 14004KT 10SM FEW050 SCT080 32/20 A2996 260 48 2300 140/04 RMK AO2 RAE32 T03220200 PNO
53988KBKB BKB20190928134012809/28/19 13:40:31  5-MIN KBKB 281940Z AUTO VRB04KT 10SM SCT050 BKN080 33/21 A2996 260 48 2400 VRB/04 RMK AO2 RAE32 T03280206 PNO
53988KBKB BKB20190928134507509/28/19 13:45:31  5-MIN KBKB 281945Z AUTO VRB05KT 10SM FEW050 SCT080 33/21
53988KBKB BKB20190928143511109/28/19 14:35:31  5-MIN KBKB 282035Z AUTO VRB04KT 9SM CLR 34/20 A2995 270 43 2500 VRB/04 RMK AO2 T03390200 PNO
53988KBKB BKB20190928144011109/28/19 14:40:31  5-MIN KBKB 282040Z AUTO VRB04KT 9SM CLR 34/19 A2995 270 42 2500 VRB/04 RMK AO2 T03390194 PNO
53988KBKB BKB20190928144511209/28/19 14:45:31  5-MIN KBKB 282045Z AUTO VRB04KT 10SM CLR 34/20 A2994 280 43 2500 VRB/04 RMK AO2 T03390200 PNO
53988KBKB BKB20190928145013109/28/19 14:50:31  5-MIN KBKB 282050Z AUTO VRB03KT 10SM CLR 34/20 A2994 280 43 2500 VRB/03 RMK AO2 SLP165 6//// T03390200 58001 PNO
53988KBKB BKB20190928145511509/28/19 14:55:31  5-MIN KBKB 282055Z AUTO VRB05KT 10SM FEW050 34/21 A2994 280 45 2500 VRB/05 RMK AO2 T03390206 PNO
53988KBKB BKB20190928150013109/28/19 15:00:31  5-MIN KBKB 282100Z AUTO 16007KT 110V220 10SM SCT050 33/21 A2994 280 46 2500 160/07 110V220 RMK AO2 T03330206 PNO
53988KBKB BKB20190928150512909/28/19 15:05:31  5-MIN KBKB 282105Z AUTO VRB06KT 10SM SCT050 SCT065 SCT080 33/21 A2994 280 46 2500 VRB/06 RMK AO2 T03330206 PNO
53988KBKB BKB20190928151012909/28/19 15:10:31  5-MIN KBKB 282110Z AUTO VRB04KT 10SM FEW050 FEW065 SCT080 32/21 A2994 280 49 2300 VRB/04 RMK AO2 T03220206 PNO
53988KBKB BKB20190928151512209/28/19 15:15:31  5-MIN KBKB 282115Z AUTO VRB04KT 10SM FEW050 FEW080 32/21 A2994 280 51 2300 VRB/04 RMK AO2 T03170206 PNO
53988KBKB BKB20190928152011509/28/19 15:20:31  5-MIN KBKB 282120Z AUTO VRB03KT 10SM FEW050 32/21 A2994 280 49 2300 VRB/03 RMK AO2 T03220206 PNO
53988KBKB BKB20190928152511509/28/19 15:25:31  5-MIN KBKB 282125Z AUTO VRB03KT 10SM FEW050 33/21 A2994 280 48 2400 VRB/03 RMK AO2 T03280206 PNO
53988KBKB BKB20190928153011209/28/19 15:30:31  5-MIN KBKB 282130Z AUTO 00000KT 10SM CLR 33/21 A2994 280 46 2500 000/00 RMK AO2 T03330206 PNO
53988KBKB BKB20190928153511209/28/19 15:35:31  5-MIN KBKB 282135Z AUTO VRB04KT 10SM CLR 33/21 A2994 280 46 2500 VRB/04 RMK AO2 T03330206 PNO
53988KBKB BKB20190928154011209/28/19 15:40:31  5-MIN KBKB 282140Z AUTO VRB04KT 10SM CLR 33/21 A2994 280 46 2500 VRB/04 RMK AO2 T03330206 PNO
53988KBKB BKB20190928154511209/28/19 15:45:31  5-MIN KBKB 282145Z AUTO VRB04KT 10SM CLR 33/21 A2994 280 48 2400 VRB/04 RMK AO2 T03280206 PNO
53988KBKB BKB20190928155029509/28/19 15:50:31  5-MIN KBKB 282150Z AUTO VRB03KT 10SM CLR 32/21 A2994 280 51 2300 VRB/03 RMK AO2 SLP163 T03170206 PNO09/28/19 15:55:31  5-M04KT 10SM CLR 33/20 A2994 280 46 2400 VRB/04 RMK AO2 T03280200 PNO09/2B 282220Z AUTO VRB05KT 10SM CLR 33/21 A2994 280 48 2400 VRB/05 RMK AO2 T03280206 PNO
53988KBKB BKB20190928162511209/28/19 16:25:31  5-MIN KBKB 282225Z AUTO 00000KT 10SM CLR 32/20 A2994 280 49 2300 000/00 RMK AO2 T03170200 PNO
53988KBKB BKB20190928163011109/28/19 16:30:31  5-MIN KBKB 282230Z AUTO VRB03KT 8SM CLR 32/21 A2994 280 51 2300 VRB/03 RMK AO2 T03170206 PNO
53988KBKB BKB20190928163511409/28/19 16:35:31  5-MIN KBKB 282235Z AUTO VRB04KT 6SM HZ CLR 32/21 A2995 280 51 2300 VRB/04 RMK AO2 T03170206 PNO
53988KBKB BKB20190928164011109/28/19 16:40:31  5-MIN KBKB 282240Z AUTO VRB03KT 8SM CLR 32/21 A2995 270 51 2300 VRB/03 RMK AO2 T03170206 PNO
53988KBKB BKB20190928164511209/28/19 16:45:31  5-MIN KBKB 282245Z AUTO 00000KT 10SM CLR 32/21 A2994 280 51 2300 000/00 RMK AO2 T03170206 PNO
53988KBKB BKB20190928165016109/28/19 16:50:31  5-MIN KBKB 282250Z AUTO 00000KT 10SM CLR 31/21 A2995 270 53 2200 000/00 RMK AO2 SLP165 TR 30/20 A2996 270 54 2100 VRB/03 RMK AO2 T03000200 PNO
53988KBKB BKB20190928173011209/28/19 17:30:31  5-MIN KBKB 282330Z AUTO 00000KT 10SM CLR 29/20 A2996 270 56 2000 000/00 RMK AO2 T02940200 PNO
53988KBKB BKB20190928173511209/28/19 17:35:31  5-MIN KBKB 282335Z AUTO 00000KT 10SM CLR 29/20 A2996 260 56 2000 000/00 RMK AO2 T02940200 PNO
53988KBKB BKB20190928174014109/28/19 17:40:31  5-MIN KBKB 282340Z AUTO 00000KT 10SM -RA CLR 29/19 A2996 260 54 2000 000/00 RMK AO250 71 1600 000/00 RMK AO2 T02560200 PNO
53988KBKB BKB20190928192011509/28/19 19:20:31  5-MIN KBKB 290120Z AUTO 00000KT 10SM RA CLR 25/20 A2997 250 73 1500 000/00 RMK AO2 T02500200 PNO
53988KBKB BKB20190928192511509/28/19 19:25:31  5-MIN KBKB 290125Z AUTO 00000KT 10SM RA CLR 25/20 A2997 250 73 1500 000/00 RMK AO2 T02500200 PNO
53988KBKB BKB20190928193011509/28/19 19:30:31  5-MIN KBKB 290130Z AUTO 00000KT 10SM RA CLR 25/20 A2997 250 73 1500 000/00 RMK AO2 T02500200 PNO
53988KBKB BKB20190928193511509/28/19 19:35:31  5-MIN KBKB 290135Z AUTO 00000KT 10SM RA CLR 25/21 A2998 250 76 1500 000/00 RMK AO2 T02500206 PNO
53988KBKB BKB20190928194011509/28/19 19:40:31  5-MIN KBKB 290140Z AUTO 00000KT 10SM RA CLR 25/21 A2998 250 76 1500 000/00 RMK AO2 T02500206 PNO
53988KBKB BKB20190928194511509/28/19 19:45:31  5-MIN KBKB 290145Z AUTO 00000KT 10SM RA CLR 25/21 A2998 250 76 1500 000/00 RMK AO2 T02500206 PNO
53988KBKB BKB20190928195012209/28/19 19:50:31  5-MIN KBKB 290150Z AUTO 00000KT 10SM RA CLR 25/21 A2998 240 76 1500 000/00 RMK AO2 SLP177 T02500206 PNO
53988KBKB BKB20190928195511509/28/19 19:55:31  5-MIN KBKB 290155Z AUTO 00000KT 10SM RA CLR 25/21 A2998 240 76 1500 000/00 RMK AO2 T02500206 PNO
53988KBKB BKB20190928200011509/28/19 20:00:31  5-MIN KBKB 290200Z AUTO 00000KT 10SM RA CLR 25/21 A2998 240 76 1500 000/00 RMK AO2 T02500206 PNO
53988KBKB BKB20190928200511509/28/19 20:05:31  5-MIN KBKB 290205Z AUTO 00000KT 10SM RA CLR 25/21 A2998 240 76 1500 000/00 RMK AO2 T02500206 PNO
53988KBKB BKB20190928201011509/28/19 20:10:31  5-MIN KBKB 290210Z AUTO 00000KT 10SM RA CLR 25/21 A2998 240 76 1500 000/00 RMK AO2 T02500206 PNO
53988KBKB BKB20190928201511509/28/19 20:15:31  5-MIN KBKB 290215Z AUTO 00000KT 10SM RA CLR 25/21 A2998 240 76 1500 000/00 RMK AO2 T02500206 PNO
53988KBKB BKB20190928202011509/28/19 20:20:31  5-MIN KBKB 290220Z AUTO 00000KT 10SM RA CLR 25/21 A2998 240 76 1500 000/00 RMK AO2 T02500206 PNO
53988KBKB BKB20190928202511509/28/19 20:25:31  5-MIN KBKB 290225Z AUTO 00000KT 10SM RA CLR 25/21 A2998 240 76 1500 000/00 RMK AO2 T02500206 PNO
53988KBKB BKB20190928203011509/28/19 20:30:31  5-MIN KBKB 290230Z AUTO 00000KT 10SM RA CLR 25/21 A2998 240 79 1500 000/00 RMK AO2 T02500211 PNO
53988KBKB BKB20190928203511509/28/19 20:35:31  5-MIN KBKB 290235Z AUTO 00000KT 10SM RA CLR 25/21 A2998 240 79 1500 000/00 RMK AO2 T02500211 PNO
53988KBKB BKB20190928204011509/28/19 20:40:31  5-MIN KBKB 290240Z AUTO 00000KT 10SM RA CLR 25/21 A2999 240 79 1500 000/00 RMK AO2 T02500211 PNO
53988KBKB BKB20190928204511509/28/19 20:45:31  5-MIN KBKB 290245Z AUTO 00000KT 10SM RA CLR 26/21 A2999 230 76 1500 000/00 RMK AO2 T02560211 PNO
53988KBKB BKB20190928205013409/28/19 20:50:31  5-MIN KBKB 290250Z AUTO 00000KT 10SM RA CLR 26/21 A2999 230 76 1500 000/00 RMK AO2 SLP180 6//// T02560211 53006 PNO
53988KBKB BKB20190928205511509/28/19 20:55:31  5-MIN KBKB 290255Z AUTO 00000KT 10SM RA CLR 26/21 A2999 230 76 1500 000/00 RMK AO2 T02560211 PNO
53988KBKB BKB20190928210011509/28/19 21:00:31  5-MIN KBKB 290300Z AUTO 00000KT 10SM RA CLR 26/21 A2999 230 76 1500 000/00 RMK AO2 T02560211 PNO
53988KBKB BKB20190928210511509/28/19 21:05:31  5-MIN KBKB 290305Z AUTO 00000KT 10SM RA CLR 25/21 A2999 230 79 1500 000/00 RMK AO2 T02500211 PNO
53988KBKB BKB20190928211011509/28/19 21:10:31  5-MIN KBKB 290310Z AUTO 00000KT 10SM RA CLR 25/21 A2999 230 79 1500 000/00 RMK AO2 T02500211 PNO
53988KBKB BKB20190928211511509/28/19 21:15:31  5-MIN KBKB 290315Z AUTO 00000KT 10SM RA CLR 25/22 A3000 230 81 1500 000/00 RMK AO2 T02500217 PNO
53988KBKB BKB20190928212011509/28/19 21:20:31  5-MIN KBKB 290320Z AUTO 00000KT 10SM RA CLR 25/22 A3000 230 81 1500 000/00 RMK AO2 T02500217 PNO
53988KBKB BKB20190928212511809/28/19 21:25:31  5-MIN KBKB 290325Z AUTO 00000KT 10SM RA FEW046 25/22 A3000 230 81 1500 000/00 RMK AO2 T02500217 PNO
53988KBKB BKB20190928213011809/28/19 21:30:31  5-MIN KBKB 290330Z AUTO 00000KT 10SM RA SCT046 24/22 A3000 220 84 1400 000/00 RMK AO2 T02440217 PNO
53988KBKB BKB20190928213511809/28/19 21:35:31  5-MIN KBKB 290335Z AUTO 00000KT 10SM RA SCT044 24/22 A3000 220 84 1400 000/00 RMK AO2 T02440217 PNO
53988KBKB BKB20190928214011809/28/19 21:40:31  5-MIN KBKB 290340Z AUTO 00000KT 10SM RA BKN044 25/22 A3001 220 81 1500 000/00 RMK AO2 T02500217 PNO
53988KBKB BKB20190928214512509/28/19 21:45:31  5-MIN KBKB 290345Z AUTO 00000KT 10SM RA SCT039 BKN047 25/22 A3001 220 81 1500 000/00 RMK AO2 T02500217 PNO
53988KBKB BKB20190928215013209/28/19 21:50:31  5-MIN KBKB 290350Z AUTO 00000KT 10SM RA SCT039 BKN047 25/22 A3001 220 81 1500 000/00 RMK AO2 SLP186 T02500217 PNO
53988KBKB BKB20190928215512509/28/19 21:55:31  5-MIN KBKB 290355Z AUTO 00000KT 10SM RA SCT037 BKN049 25/22 A3001 220 81 1500 000/00 RMK AO2 T02500217 PNO
53988KBKB BKB20190928220012509/28/19 22:00:31  5-MIN KBKB 290400Z AUTO 00000KT 10SM RA SCT037 BKN049 25/22 A3001 220 84 1500 000/00 RMK AO2 T02500222 PNO
53988KBKB BKB20190928220513209/28/19 22:05:31  5-MIN KBKB 290405Z AUTO 00000KT 10SM RA FEW038 SCT047 BKN055 25/22 A3001 220 84 1500 000/00 RMK AO2 T02500222 PNO
53988KBKB BKB20190928221012509/28/19 22:10:31  5-MIN KBKB 290410Z AUTO VRB03KT 10SM RA FEW038 SCT050 25/22 A3001 220 84 1500 VRB/03 RMK AO2 T02500222 PNO
53988KBKB BKB20190928221511809/28/19 22:15:31  5-MIN KBKB 290415Z AUTO VRB03KT 10SM RA SCT050 25/22 A3001 220 84 1500 VRB/03 RMK AO2 T02500222 PNO
53988KBKB BKB20190928222011809/28/19 22:20:31  5-MIN KBKB 290420Z AUTO 00000KT 10SM RA FEW050 26/22 A3001 220 81 1500 000/00 RMK AO2 T02560222 PNO
53988KBKB BKB20190928222511809/28/19 22:25:31  5-MIN KBKB 290425Z AUTO 00000KT 10SM RA FEW050 25/22 A3001 220 84 1500 000/00 RMK AO2 T02500222 PNO
53988KBKB BKB20190928223012509/28/19 22:30:31  5-MIN KBKB 290430Z AUTO 00000KT 10SM RA FEW037 FEW050 25/22 A3001 210 84 1500 000/00 RMK AO2 T02500222 PNO
53988KBKB BKB20190928223512509/28/19 22:35:31  5-MIN KBKB 290435Z AUTO 00000KT 10SM RA FEW035 SCT050 26/22 A3001 210 81 1500 000/00 RMK AO2 T02560222 PNO
53988KBKB BKB20190928224011809/28/19 22:40:31  5-MIN KBKB 290440Z AUTO 00000KT 10SM RA SCT035 26/22 A3001 210 81 1500 000/00 RMK AO2 T02560222 PNO
53988KBKB BKB20190928224511809/28/19 22:45:31  5-MIN KBKB 290445Z AUTO 00000KT 10SM RA FEW035 25/22 A3002 210 84 1500 000/00 RMK AO2 T02500222 PNO
53988KBKB BKB20190928225013209/28/19 22:50:31  5-MIN KBKB 290450Z AUTO VRB03KT 10SM RA FEW035 FEW047 26/22 A3002 210 81 1500 VRB/03 RMK AO2 SLP189 T02560222 PNO
53988KBKB BKB20190928225512509/28/19 22:55:31  5-MIN KBKB 290455Z AUTO 00000KT 10SM RA SCT035 SCT047 26/22 A3002 210 81 1500 000/00 RMK AO2 T02560222 PNO
53988KBKB BKB20190928230012509/28/19 23:00:31  5-MIN KBKB 290500Z AUTO 00000KT 10SM RA SCT035 BKN047 26/22 A3002 210 81 1500 000/00 RMK AO2 T02560222 PNO
53988KBKB BKB20190928230512509/28/19 23:05:31  5-MIN KBKB 290505Z AUTO 00000KT 10SM RA FEW036 SCT047 26/22 A3002 210 81 1500 000/00 RMK AO2 T02560222 PNO
53988KBKB BKB20190928231012509/28/19 23:10:31  5-MIN KBKB 290510Z AUTO 00000KT 10SM RA FEW036 FEW047 25/22 A3002 210 84 1500 000/00 RMK AO2 T02500222 PNO
53988KBKB BKB20190928231511309/28/19 23:15:31  5-MIN KBKB 290515Z AUTO 00000KT 10SM RA FEW036 FEW047 25/22 A3001 210 03 RMK AO2 T02500222 PNO
53988KBKB BKB20190928231512509/28/19 23:15:31  5-MIN KBKB 290515Z AUTO 00000KT 10SM RA FEW036 FEW047 25/22 A3001 210 84 1500 000/00 RMK AO2 T02500222 PNO
53988KBKB BKB20190928232011809/28/19 23:20:31  5-MIN KBKB 290520Z AUTO 00000KT 10SM RA FEW036 25/22 A3001 210 84 1500 000/00 RMK AO2 T02500222 PNO
53988KBKB BKB20190928232511809/28/19 23:25:31  5-MIN KBKB 290525Z AUTO VRB03KT 10SM RA FEW042 25/22 A3001 210 84 1500 VRB/03 RMK AO2 T02500222 PNO
53988KBKB BKB20190928233011509/28/19 23:30:31  5-MIN KBKB 290530Z AUTO 00000KT 10SM RA CLR 25/22 A3001 210 84 1500 000/00 RMK AO2 T02500222 PNO
53988KBKB BKB20190928233016709/28/19 23:30:31  5-MIN KBKB 290530Z AUTO 00000KT 10SM RA CLR 25/22 A3001  RMK AO2 T035Z AUTO 00000KT 10SM RA CLR 24/22 A3003 200 87 1400 000/00 RMK AO2 T02440222 PNO
53988KBKB BKB20190928233511509/28/19 23:35:31  5-MIN KBKB 290535Z AUTO 00000KT 10SM RA CLR 25/23 A3001 210 87 1500 000/00 RMK AO2 T02500228 PNO
53988KBKB BKB20190928234011509/28/19 23:40:31  5-MIN KBKB 290540Z AUTO 00000KT 10SM RA CLR 25/23 A3001 210 87 1500 000/00 RMK AO2 T02500228 PNO
53988KBKB BKB20190928234511509/28/19 23:45:31  5-MIN KBKB 290545Z AUTO 00000KT 10SM RA CLR 25/23 A3002 210 87 1500 000/00 RMK AO2 T02500228 PNO
53988KBKB BKB20190928235015609/28/19 23:50:31  5-MIN KBKB 290550Z AUTO 00000KT 10SM RA CLR 25/23 A3002 210 87 1500 000/00 RMK AO2 SLP188 6//// T02500228 10278 20244 403440222 53009 PNO
53988KBKB BKB20190928235511509/28/19 23:55:31  5-MIN KBKB 290555Z AUTO 00000KT 10SM RA CLR 25/23 A3002 210 87 1500 000/00 RMK AO2 T02500228 PNO
53988KBKB BKB20190929000011509/29/19 00:00:31  5-MIN KBKB 290600Z AUTO 00000KT 10SM RA CLR 25/23 A3002 210 87 1500 000/00 RMK AO2 T02500228 PNO
53988KBKB BKB20190929000511509/29/19 00:05:31  5-MIN KBKB 290605Z AUTO 00000KT 10SM RA CLR 25/23 A3002 210 87 1500 000/00 RMK AO2 T02500228 PNO
53988KBKB BKB20190929001011509/29/19 00:10:31  5-MIN KBKB 290610Z AUTO 00000KT 10SM RA CLR 25/23 A3002 210 87 1500 000/00 RMK AO2 T02500228 PNO
53988KBKB BKB20190929001511509/29/19 00:15:31  5-MIN KBKB 290615Z AUTO VRB03KT 10SM RA CLR 25/23 A3002 200 87 1400 VRB/03 RMK AO2 T02500228 PNO
53988KBKB BKB20190929002011509/29/19 00:20:31  5-MIN KBKB 290620Z AUTO 00000KT 10SM RA CLR 24/23 A3003 200 90 1400 000/00 RMK AO2 T02440228 PNO
53988KBKB BKB20190929002511509/29/19 00:25:31  5-MIN KBKB 290625Z AUTO 00000KT 10SM RA CLR 24/23 A3003 200 90 1400 000/00 RMK AO2 T02440228 PNO
53988KBKB BKB20190929003011509/29/19 00:30:31  5-MIN KBKB 290630Z AUTO 00000KT 10SM RA CLR 24/22 A3003 200 87 1400 000/00 RMK AO2 T02440222 PNO
53988KBKB BKB20190929003511509/29/19 00:35:31  5-MIN KBKB 290635Z AUTO 00000KT 10SM RA CLR 24/22 A3003 200 87 1400 000/00 RMK AO2 T02440222 PNO
53988KBKB BKB20190929004011509/29/19 00:40:31  5-MIN KBKB 290640Z AUTO VRB03KT 10SM RA CLR 24/22 A3002 200 87 1400 VRB/03 RMK AO2 T02440222 PNO
53988KBKB BKB20190929004511509/29/19 00:45:31  5-MIN KBKB 290645Z AUTO 00000KT 10SM RA CLR 24/22 A3002 200 87 1400 000/00 RMK AO2 T02440222 PNO
53988KBKB BKB20190929005007009/29/19 00:50:31  5-MIN KBKB 290650Z AUTO 00000KT 10SM RA CLR 24/22 O
53988KBKB BKB20190929005012209/29/19 00:50:31  5-MIN KBKB 290650Z AUTO 00000KT 10SM RA CLR 24/22 A3002 200 87 1400 000/00 RMK AO2 SLP192 T02440222 PNO
53988KBKB BKB20190929005511509/29/19 00:55:31  5-MIN KBKB 290655Z AUTO 00000KT 10SM RA CLR 24/22 A3002 200 90 1300 000/00 RMK AO2 T02390222 PNO
53988KBKB BKB20190929010011509/29/19 01:00:31  5-MIN KBKB 290700Z AUTO 00000KT 10SM RA CLR 24/22 A3002 210 90 1300 000/00 RMK AO2 T02390222 PNO
53988KBKB BKB20190929010511509/29/19 01:05:31  5-MIN KBKB 290705Z AUTO 00000KT 10SM RA CLR 24/22 A3002 200 90 1300 000/00 RMK AO2 T02390222 PNO
53988KBKB BKB20190929011011509/29/19 01:10:31  5-MIN KBKB 290710Z AUTO 00000KT 10SM RA CLR 24/22 A3002 200 90 1300 000/00 RMK AO2 T02390222 PNO
53988KBKB BKB20190929011511509/29/19 01:15:31  5-MIN KBKB 290715Z AUTO 00000KT 10SM RA CLR 24/22 A3002 210 90 1300 000/00 RMK AO2 T02390222 PNO
53988KBKB BKB20190929012011509/29/19 01:20:31  5-MIN KBKB 290720Z AUTO VRB03KT 10SM RA CLR 24/22 A3002 200 90 1300 VRB/03 RMK AO2 T02390222 PNO
53988KBKB BKB20190929012511509/29/19 01:25:31  5-MIN KBKB 290725Z AUTO 00000KT 10SM RA CLR 24/22 A3003 200 90 1300 000/00 RMK AO2 T02390222 PNO
53988KBKB BKB20190929013011509/29/19 01:30:31  5-MIN KBKB 290730Z AUTO 00000KT 10SM RA CLR 24/22 A3002 200 90 1300 000/00 RMK AO2 T02390222 PNO
53988KBKB BKB20190929013511509/29/19 01:35:31  5-MIN KBKB 290735Z AUTO 00000KT 10SM RA CLR 24/22 A3002 200 90 1300 000/00 RMK AO2 T02390222 PNO
53988KBKB BKB20190929014007809/29/19 01:40:31  5-MIN KBKB 290740Z AU LISTING COMPLETE, 144 5MIN(S) LISTED.
53988KBKB BKB20190929014011509/29/19 01:40:31  5-MIN KBKB 290740Z AUTO 00000KT 10SM RA CLR 24/22 A3002 200 90 1300 000/00 RMK AO2 T02390222 PNO
53988KBKB BKB20190929014511509/29/19 01:45:31  5-MIN KBKB 290745Z AUTO 00000KT 10SM RA CLR 24/22 A3003 200 90 1300 000/00 RMK AO2 T02390222 PNO
53988KBKB BKB20190929015012209/29/19 01:50:31  5-MIN KBKB 290750Z AUTO 00000KT 10SM RA CLR 24/22 A3003 200 90 1300 000/00 RMK AO2 SLP193 T02390222 PNO
53988KBKB BKB20190929015515609/29/19 01:55:31  5-MIN KBKB 290755Z AUTO 00000KT 10SM RA CLR 23/22 A3002 200 93 1300 000/00 RMK AO2 T02330222 PNO 200 93 1200 000/00 RMK AO2 T02280217 PNO
53988KBKB BKB20190929024511409/29/19 02:45:31  5-MIN KBKB 290845Z AUTO 00000KT 7SM RA CLR 23/22 A3002 200 93 1200 000/00 RMK AO2 T02280217 PNO
53988KBKB BKB20190929025013609/29/19 02:50:31  5-MIN KBKB 290850Z AUTO 00000KT 6SM RA BR CLR 23/22 A3002 200 93 1200 000/00 RMK AO2 SLP192 6//// T02280217 50009 PNO
53988KBKB BKB20190929025511709/29/19 02:55:31  5-MIN KBKB 290855Z AUTO 00000KT 5SM RA BR CLR 22/22 A3002 200 97 1100 000/00 RMK AO2 T02220217 PNO
53988KBKB BKB20190929030011709/29/19 03:00:31  5-MIN KBKB 290900Z AUTO 00000KT 5SM RA BR CLR 22/22 A3002 200 97 1100 000/00 RMK AO2 T02220217 PNO
53988KBKB BKB20190929030012709/29/19 03:00:31  5-MIN KBKB 290900Z AUTO 00000KT 5SM RA BR CLR 22/22 A3002 200 97 1100 000/00 RMK AO2 T02220217 PNO280217 PNO
53988KBKB BKB20190929030511709/29/19 03:05:31  5-MIN KBKB 290905Z AUTO 00000KT 4SM RA BR CLR 22/22 A3002 200 97 1100 000/00 RMK AO2 T02220217 PNO
53988KBKB BKB20190929031011709/29/19 03:10:31  5-MIN KBKB 290910Z AUTO 00000KT 4SM RA BR CLR 22/22 A3002 200 97 1100 000/00 RMK AO2 T02220217 PNO
53988KBKB BKB20190929031014509/29/19 03:10:31  5-MIN KBKB 290910Z AUTO 00000KT 4SM RA BR CLR 22/22 A3002 200 97 1100 000/00 RMK AO2 T0222022 SLP192 6//// T02280217 50009 PNO
53988KBKB BKB20190929031511709/29/19 03:15:31  5-MIN KBKB 290915Z AUTO 00000KT 5SM RA BR CLR 22/22 A3002 200 97 1100 000/00 RMK AO2 T02220217 PNO
53988KBKB BKB20190929032011709/29/19 03:20:31  5-MIN KBKB 290920Z AUTO 00000KT 4SM RA BR CLR 22/22 A3002 200 97 1100 000/00 RMK AO2 T02220217 PNO
53988KBKB BKB20190929032511709/29/19 03:25:31  5-MIN KBKB 290925Z AUTO 00000KT 3SM RA BR CLR 22/22 A3002 200 97 1100 000/00 RMK AO2 T02220217 PNO
53988KBKB BKB20190929033011709/29/19 03:30:31  5-MIN KBKB 290930Z AUTO 00000KT 4SM RA BR CLR 22/22 A3003 200 97 1100 000/00 RMK AO2 T02220217 PNO
53988KBKB BKB20190929033511709/29/19 03:35:31  5-MIN KBKB 290935Z AUTO 00000KT 4SM RA BR CLR 22/21 A3003 200 97 1100 000/00 RMK AO2 T02170211 PNO
53988KBKB BKB20190929034013309/29/19 03:40:31  5-MIN KBKB 290940Z AUTO 00000KT 2 1/2SM RA BR CLR 22/22 A3003 200 97 1100 000/00 RMK AO2 VIS 1 1/2V4 T02220217 PNO
53988KBKB BKB20190929034513309/29/19 03:45:31  5-MIN KBKB 290945Z AUTO 00000KT 2 1/2SM RA BR CLR 22/22 A3002 200 97 1100 000/00 RMK AO2 VIS 1 1/2V3 T02220217 PNO
53988KBKB BKB20190929035014009/29/19 03:50:31  5-MIN KBKB 290950Z AUTO 00000KT 2 1/2SM RA BR CLR 22/22 A3002 200 97 1100 000/00 RMK AO2 VIS 1 3/4V3 SLP192 T02220217 PNO
53988KBKB BKB20190929035511709/29/19 03:55:31  5-MIN KBKB 290955Z AUTO 00000KT 2SM RA BR CLR 22/21 A3002 200 93 1100 000/00 RMK AO2 T02220211 PNO
53988KBKB BKB20190929040012909/29/19 04:00:31  5-MIN KBKB 291000Z AUTO 00000KT 2SM RA BR CLR 22/21 A3002 200 97 1100 000/00 RMK AO2 VIS 1 1/2V3 T02170211 PNO
53988KBKB BKB20190929040512909/29/19 04:05:31  5-MIN KBKB 291005Z AUTO 00000KT 2SM RA BR CLR 22/21 A3003 200 97 1100 000/00 RMK AO2 VIS 1 1/4V3 T02170211 PNO
53988KBKB BKB20190929041013309/29/19 04:10:31  5-MIN KBKB 291010Z AUTO 00000KT 1 1/2SM RA BR CLR 22/21 A3003 200 97 1100 000/00 RMK AO2 VIS 1V2 1/2 T02170211 PNO
53988KBKB BKB20190929041511709/29/19 04:15:31  5-MIN KBKB 291015Z AUTO 00000KT 2SM RA BR CLR 22/21 A3003 190 97 1100 000/00 RMK AO2 T02170211 PNO
53988KBKB BKB20190929042011709/29/19 04:20:31  5-MIN KBKB 291020Z AUTO 00000KT 3SM RA BR CLR 22/21 A3003 190 97 1100 000/00 RMK AO2 T02170211 PNO
53988KBKB BKB20190929042512909/29/19 04:25:31  5-MIN KBKB 291025Z AUTO 00000KT 1 3/4SM RA BR CLR 22/21 A3004 190 97 1100 000/00 RMK AO2 VIS 1V4 T02170211 PNO
53988KBKB BKB20190929043012109/29/19 04:30:31  5-MIN KBKB 291030Z AUTO 00000KT 1 1/4SM RA BR CLR 22/21 A3004 190 93 1100 000/00 RMK AO2 T02220211 PNO
53988KBKB BKB20190929043512909/29/19 04:35:31  5-MIN KBKB 291035Z AUTO 00000KT 1SM RA BR VV006 22/21 A3004 190 97 1000 000/00 RMK AO2 VIS 3/4V2 T02170211 PNO
53988KBKB BKB20190929044012409/29/19 04:40:31  5-MIN KBKB 291040Z AUTO 00000KT 1 1/4SM RA BR FEW006 22/21 A3004 190 97 1000 000/00 RMK AO2 T02170211 PNO
53988KBKB BKB20190929044513709/29/19 04:45:31  5-MIN KBKB 291045Z AUTO 00000KT 1 3/4SM RA BR CLR 22/21 A3004 180 97 1000 000/00 RMK AO2 VIS 1 1/4V2 1/2 T02170211 PNO
53988KBKB BKB20190929045010709/29/19 04:50:31  5-MIN KBKB 291050Z AUTO 00000KT 2SM RA BR CLR 22/21 A3005 180 97 1000 000/00 RMK AO2 PNO
53988KBKB BKB20190929045511709/29/19 04:55:31  5-MIN KBKB 291055Z AUTO 00000KT 2SM RA BR CLR 22/21 A3005 180 97 1000 000/00 RMK AO2 T02170211 PNO
53988KBKB BKB20190929050012509/29/19 05:00:31  5-MIN KBKB 291100Z AUTO 00000KT 2SM RA BR CLR 22/21 A3005 180 97 1000 000/00 RMK AO2 VIS 1V4 T02170211 PNO
53988KBKB BKB20190929050512709/29/19 05:05:31  5-MIN KBKB 291105Z AUTO 00000KT 1 3/4SM RA BR CLR 22/21 A3/22 A3007 160 97 1100 000/00 RMK AO2 T02220217 PNO
53988KBKB BKB20190929062012709/29/19 06:20:31  5-MIN KBKB 291220Z AUTO 00000KT 5SM RA BR FEW023 FEW030 22/21 A3007 160 93 1100 000/00 RMK AO2 T02220211 PNO
53988KBKB BKB20190929062512009/29/19 06:25:31  5-MIN KBKB 291225Z AUTO 00000KT 5SM RA BR FEW023 22/22 A3007 160 97 1100 000/00 RMK AO2 T02220217 PNO
53988KBKB BKB20190929063011709/29/19 06:30:31  5-MIN KBKB 291230Z AUTO 00000KT 5SM RA BR CLR 22/22 A3007 160 97 1100 000/00 RMK AO2 T02220217 PNO
53988KBKB BKB20190929063511709/29/19 06:35:31  5-MIN KBKB 291235Z AUTO 00000KT 5SM RA BR CLR 22/22 A3007 160 97 1100 000/00 RMK AO2 T02220217 PNO
53988KBKB BKB20190929063513009/29/19 06:35:31  5-MIN KBKB 291235Z AUTO 00000KT 5SM RA BR CLR 22/22 A3T030 22/21 A3007 160 93 1100 000/00 RMK AO2 T02220211 PNO
53988KBKB BKB20190929064011709/29/19 06:40:31  5-MIN KBKB 291240Z AUTO 00000KT 5SM RA BR CLR 23/22 A3007 160 93 1100 000/00 RMK AO2 T02280217 PNO
53988KBKB BKB20190929064511709/29/19 06:45:31  5-MIN KBKB 291245Z AUTO 00000KT 6SM RA BR CLR 23/22 A3007 160 93 1100 000/00 RMK AO2 T02280217 PNO
53988KBKB BKB20190929064514309/29/19 06:45:31  5-MIN KBKB 291245Z AUTO 00000KT 6SM RA BR CLR 23/22 KT 5SM RA BR FEW023 22/22 A3007 160 97 1100 000/00 RMK AO2 T02220217 PNO
53988KBKB BKB20190929065012409/29/19 06:50:31  5-MIN KBKB 291250Z AUTO 00000KT 6SM RA BR CLR 23/22 A3007 160 93 1100 000/00 RMK AO2 SLP209 T02280217 PNO
53988KBKB BKB20190929065511709/29/19 06:55:31  5-MIN KBKB 291255Z AUTO VRB03KT 5SM RA BR CLR 23/22 A3007 160 93 1100 VRB/03 RMK AO2 T02280217 PNO
53988KBKB BKB20190929065513809/29/19 06:55:31  5-MIN KBKB 291255Z AUTO VRB03KT 5SM RAZ AUTO 00000KT 5SM RA BR CLR 22/22 A3007 160 97 1100 000/00 RMK AO2 T02220217 PNO
53988KBKB BKB20190929070011409/29/19 07:00:31  5-MIN KBKB 291300Z AUTO 00000KT 7SM RA CLR 23/22 A3007 160 93 1100 000/00 RMK AO2 T02280217 PNO
53988KBKB BKB20190929070511409/29/19 07:05:31  5-MIN KBKB 291305Z AUTO 00000KT 9SM RA CLR 23/22 A3007 160 93 1200 000/00 RMK AO2 T02330222 PNO
53988KBKB BKB20190929070514109/29/19 07:05:31  5-MIN KBKB 291305Z AUTO 00000KT 9B 291245Z AUTO 00000KT 6SM RA BR CLR 23/22 A3007 160 93 1100 000/00 RMK AO2 T02280217 PNO
53988KBKB BKB20190929071011409/29/19 07:10:31  5-MIN KBKB 291310Z AUTO 00000KT 9SM RA CLR 23/22 A3007 160 93 1200 000/00 RMK AO2 T02330222 PNO
53988KBKB BKB20190929071511409/29/19 07:15:31  5-MIN KBKB 291315Z AUTO 00000KT 9SM RA CLR 24/22 A3007 160 90 1300 000/00 RMK AO2 T02390222 PNO
53988KBKB BKB20190929072011409/29/19 07:20:31  5-MIN KBKB 291320Z AUTO VRB03KT 8SM RA CLR 24/22 A3007 160 87 1300 VRB/03 RMK AO2 T02440222 PNO
53988KBKB BKB20190929072511409/29/19 07:25:31  5-MIN KBKB 291325Z AUTO VRB03KT 8SM RA CLR 24/23 A3007 160 90 1300 VRB/03 RMK AO2 T02440228 PNO
53988KBKB BKB20190929073011509/29/19 07:30:31  5-MIN KBKB 291330Z AUTO 00000KT 9SM -RA CLR 24/23 A3007 160 90 1300 000/00 RMK AO2 T02440228 PNO
53988KBKB BKB20190929073511509/29/19 07:35:31  5-MIN KBKB 291335Z AUTO 00000KT 10SM RA CLR 25/23 A3007 160 87 1400 000/00 RMK AO2 T02500228 PNO
53988KBKB BKB20190930155012309/30/19 15:50:31  5-MIN KBKB 302150Z AUTO 12003KT 10SM -RA CLR 33/18 A2998 250 41 2400 120/03 RMK AO2 SLP176 T03280183 PNO
53988KBKB BKB20190930155511609/30/19 15:55:31  5-MIN KBKB 302155Z AUTO VRB04KT 10SM -RA CLR 33/19 A2997 250 42 2400 VRB/04 RMK AO2 T03330189 PNO
53988KBKB BKB20190930160011609/30/19 16:00:31  5-MIN KBKB 302200Z AUTO VRB05KT 10SM -RA CLR 33/19 A2997 250 43 2400 VRB/05 RMK AO2 T03280189 PNO
53988KBKB BKB20190930160511609/30/19 16:05:31  5-MIN KBKB 302205Z AUTO VRB03KT 10SM -RA CLR 33/19 A2997 250 43 2400 VRB/03 RMK AO2 T03280189 PNO
53988KBKB BKB20190930161011609/30/19 16:10:31  5-MIN KBKB 302210Z AUTO VRB04KT 10SM -RA CLR 33/19 A2997 250 43 2400 VRB/04 RMK AO2 T03280189 PNO
53988KBKB BKB20190930161510609/30/19 16:15:31  5-MIN KBKB 302215Z AUTO 10SM -RA CLR 33/19 A2997 250 43 2400 M /M RMK AO2 T03280189 PNO
53988KBKB BKB20190930162011609/30/19 16:20:31  5-MIN KBKB 302220Z AUTO VRB03KT 10SM -RA CLR 32/19 A2997 250 44 2300 VRB/03 RMK AO2 T03220189 PNO
53988KBKB BKB20190930162511609/30/19 16:25:31  5-MIN KBKB 302225Z AUTO 00000KT 10SM -RA CLR 33/19 A2997 250 43 2400 000/00 RMK AO2 T03280189 PNO
53988KBKB BKB20190930163011609/30/19 16:30:31  5-MIN KBKB 302230Z AUTO 00000KT 10SM -RA CLR 32/19 A2997 250 44 2300 000/00 RMK AO2 T03220189 PNO
53988KBKB BKB20190930163511609/30/19 16:35:31  5-MIN KBKB 302235Z AUTO VRB03KT 10SM -RA CLR 32/19 A2997 250 44 2300 VRB/03 RMK AO2 T03220189 PNO
53988KBKB BKB20190930164011609/30/19 16:40:31  5-MIN KBKB 302240Z AUTO 14003KT 10SM -RA CLR 32/19 A2997 250 44 2300 140/03 RMK AO2 T03220189 PNO
53988KBKB BKB20190930164511609/30/19 16:45:31  5-MIN KBKB 302245Z AUTO VRB03KT 10SM -RA CLR 32/19 A2997 250 46 2300 VRB/03 RMK AO2 T03170189 PNO
53988KBKB BKB20190930165012309/30/19 16:50:31  5-MIN KBKB 302250Z AUTO VRB03KT 10SM -RA CLR 31/19 A2997 250 47 2200 VRB/03 RMK AO2 SLP173 T03110189 PNO
53988KBKB BKB20190930165511609/30/19 16:55:31  5-MIN KBKB 302255Z AUTO 00000KT 10SM -RA CLR 31/18 A2997 250 46 2200 000/00 RMK AO2 T03110183 PNO
53988KBKB BKB20190930170011609/30/19 17:00:31  5-MIN KBKB 302300Z AUTO 00000KT 10SM -RA CLR 31/19 A2997 250 47 2200 000/00 RMK AO2 T03110189 PNO
53988KBKB BKB20190930170511609/30/19 17:05:31  5-MIN KBKB 302305Z AUTO 00000KT 10SM -RA CLR 31/19 A2997 250 49 2100 000/00 RMK AO2 T03060189 PNO
53988KBKB BKB20190930171011609/30/19 17:10:31  5-MIN KBKB 302310Z AUTO 00000KT 10SM -RA CLR 31/19 A2997 250 49 2100 000/00 RMK AO2 T03060189 PNO
53988KBKB BKB20190930171511609/30/19 17:15:31  5-MIN KBKB 302315Z AUTO 00000KT 10SM -RA CLR 30/19 A2997 250 52 2100 000/00 RMK AO2 T03000194 PNO
53988KBKB BKB20190930172011609/30/19 17:20:31  5-MIN KBKB 302320Z AUTO 00000KT 10SM -RA CLR 29/19 A2997 250 54 2000 000/00 RMK AO2 T02940194 PNO
53988KBKB BKB20190930172511609/30/19 17:25:31  5-MIN KBKB 302325Z AUTO 00000KT 10SM -RA CLR 29/19 A2997 250 54 2000 000/00 RMK AO2 T02940194 PNO
53988KBKB BKB20190930173015509/30/19 17:30:31  5-MIN KBKB 302330Z AUTO 00000KT 9SM -RA CLR 29/20 A2998 250 58 1900 000/00 RMK AO2 T02890200 PNO240 66 1700 000/00 RMK AO2 T02670200 PNO
53988KBKB BKB20190930180011509/30/19 18:00:31  5-MIN KBKB 010000Z AUTO 00000KT 7SM -RA CLR 27/20 A2998 240 66 1700 000/00 RMK AO2 T02670200 PNO
53988KBKB BKB20190930180511509/30/19 18:05:31  5-MIN KBKB 010005Z AUTO 00000KT 9SM -RA CLR 26/20 A2998 240 68 1600 000/00 RMK AO2 T02610200 PNO
53988KBKB BKB20190930181011509/30/19 18:10:31  5-MIN KBKB 010010Z AUTO 00000KT 8SM -RA CLR 27/20 A2998 240 66 1700 000/00 RMK AO2 T02670200 PNO
53988KBKB BKB20190930181511509/30/19 18:15:31  5-MIN KBKB 010015Z AUTO 00000KT 4SM -RA CLR 26/20 A2998 240 68 1600 000/00 RMK AO2 T02610200 PNO
53988KBKB BKB20190930182011509/30/19 18:20:31  5-MIN KBKB 010020Z AUTO 00000KT 3SM -RA CLR 26/20 A2998 240 68 1600 000/00 RMK AO2 T02610200 PNO
53988KBKB BKB20190930182520609/30/19 18:25:31  5-MIN KBKB 010025Z AUTO 00000KT 6SM -RA CLR 26/20 A2998 240 71 1600 000/00 RMK AO2 T02560200 PNO0950Z AUTO 00000KT 10SM -RA CLR 25/20 A2999 240 73 1500 000/00 RMK AO2 SLP179 T02500200 PNO
53988KBKB BKB20190930185511609/30/19 18:55:31  5-MIN KBKB 010055Z AUTO 00000KT 10SM -RA CLR 25/20 A2999 230 73 1500 000/00 RMK AO2 T02500200 PNO
53988KBKB BKB20190930190011509/30/19 19:00:31  5-MIN KBKB 010100Z AUTO 00000KT 10SM RA CLR 25/20 A2999 230 73 1500 000/00 RMK AO2 T02500200 PNO
53988KBKB BKB20190930190511609/30/19 19:05:31  5-MIN KBKB 010105Z AUTO 00000KT 10SM -RA CLR 25/20 A2999 230 73 1500 000/00 RMK AO2 T02500200 PNO
53988KBKB BKB20190930191011509/30/19 19:10:31  5-MIN KBKB 010110Z AUTO 00000KT 10SM RA CLR 25/20 A2999 230 73 1500 000/00 RMK AO2 T02500200 PNO
53988KBKB BKB20190930191511509/30/19 19:15:31  5-MIN KBKB 010115Z AUTO 00000KT 10SM RA CLR 24/20 A3000 230 76 1400 000/00 RMK AO2 T02440200 PNO
53988KBKB BKB20190930192011609/30/19 19:20:31  5-MIN KBKB 010120Z AUTO 00000KT 10SM -RA CLR 24/20 A3000 230 76 1400 000/00 RMK AO2 T02440200 PNO
53988KBKB BKB20190930192511509/30/19 19:25:31  5-MIN KBKB 010125Z AUTO 00000KT 10SM RA CLR 24/20 A3000 230 76 1400 000/00 RMK AO2 T02440200 PNO
53988KBKB BKB20190930193011409/30/19 19:30:31  5-MIN KBKB 010130Z AUTO 00000KT 8SM RA CLR 24/20 A3000 220 76 1400 000/00 RMK AO2 T02440200 PNO
53988KBKB BKB20190930193511509/30/19 19:35:31  5-MIN KBKB 010135Z AUTO 00000KT 7SM -RA CLR 24/20 A3000 220 76 1400 000/00 RMK AO2 T02440200 PNO
53988KBKB BKB20190930194011409/30/19 19:40:31  5-MIN KBKB 010140Z AUTO 00000KT 8SM RA CLR 24/19 A3000 220 76 1300 000/00 RMK AO2 T02390194 PNO
53988KBKB BKB20190930194511409/30/19 19:45:31  5-MIN KBKB 010145Z AUTO 00000KT 9SM RA CLR 24/19 A3000 220 76 1300 000/00 RMK AO2 T02390194 PNO
53988KBKB BKB20190930195012109/30/19 19:50:31  5-MIN KBKB 010150Z AUTO 00000KT 9SM RA CLR 24/20 A3000 220 76 1400 000/00 RMK AO2 SLP185 T02440200 PNO
53988KBKB BKB20190930195511409/30/19 19:55:31  5-MIN KBKB 010155Z AUTO 00000KT 8SM RA CLR 24/20 A3000 220 76 1400 000/00 RMK AO2 T02440200 PNO
53988KBKB BKB20190930200011409/30/19 20:00:31  5-MIN KBKB 010200Z AUTO 00000KT 8SM RA CLR 24/20 A3000 220 76 1400 000/00 RMK AO2 T02440200 PNO
53988KBKB BKB20190930200511409/30/19 20:05:31  5-MIN KBKB 010205Z AUTO 00000KT 9SM RA CLR 24/20 A3001 220 78 1300 000/00 RMK AO2 T02390200 PNO
53988KBKB BKB20190930201011409/30/19 20:10:31  5-MIN KBKB 010210Z AUTO 00000KT 9SM RA CLR 24/20 A3001 220 78 1300 000/00 RMK AO2 T02390200 PNO
53988KBKB BKB20190930201511409/30/19 20:15:31  5-MIN KBKB 010215Z AUTO 00000KT 7SM RA CLR 24/20 A3000 220 78 1300 000/00 RMK AO2 T02390200 PNO
53988KBKB BKB20190930202011509/30/19 20:20:31  5-MIN KBKB 010220Z AUTO 00000KT 6SM -RA CLR 24/20 A3001 220 78 1300 000/00 RMK AO2 T02390200 PNO
53988KBKB BKB20190930202511809/30/19 20:25:31  5-MIN KBKB 010225Z AUTO 00000KT 6SM -RA FEW050 24/21 A3001 220 81 1300 000/00 RMK AO2 T02390206 PNO
53988KBKB BKB20190930203011809/30/19 20:30:31  5-MIN KBKB 010230Z AUTO 00000KT 9SM -RA FEW050 23/20 A3001 220 81 1300 000/00 RMK AO2 T02330200 PNO
53988KBKB BKB20190930203511509/30/19 20:35:31  5-MIN KBKB 010235Z AUTO 00000KT 10SM RA CLR 24/20 A3001 220 78 1300 000/00 RMK AO2 T02390200 PNO
53988KBKB BKB20190930204011509/30/19 20:40:31  5-MIN KBKB 010240Z AUTO 00000KT 10SM RA CLR 24/20 A3001 210 78 1300 000/00 RMK AO2 T02390200 PNO
53988KBKB BKB20190930204519709/30/19 20:45:31  5-MIN KBKB 010245Z AUTO 00000KT 10SM RA FEW050 24/20 A3001 210 78 1300 000/00 RMK AO2 T02390200 PNOUTO 00000KT 10SM RA SCT048 23/21 A3001 210 84 1300 000/00 RMK AO2 T02330206 PNO
53988KBKB BKB20190930214511809/30/19 21:45:31  5-MIN KBKB 010345Z AUTO 00000KT 10SM RA SCT048 24/20 A3001 210 78 1300 000/00 RMK AO2 T02390200 PNO
53988KBKB BKB20190930215012509/30/19 21:50:31  5-MIN KBKB 010350Z AUTO 00000KT 10SM RA SCT048 23/20 A3001 210 81 1300 000/00 RMK AO2 SLP188 T02330200 PNO
53988KBKB BKB20190930215510009/30/19 21:55:31  5-MIN KBKB 010355Z AUTO 00000KT 10SM RA FEW048 23/21 000/00 RMK AO2 T02170200 PNO
53988KBKB BKB20190930233511509/30/19 23:35:31  5-MIN KBKB 010535Z AUTO 00000KT 10SM RA CLR 22/20 A3001 220 90 1100 000/00 RMK AO2 T02170200 PNO
53988KBKB BKB20190930234011509/30/19 23:40:31  5-MIN KBKB 010540Z AUTO 00000KT 10SM RA CLR 22/20 A3001 220 90 1100 000/00 RMK AO2 T02170200 PNO
53988KBKB BKB20190930234515509/30/19 23:45:31  5-MIN KBKB 010545Z AUTO 00000KT 10SM RA CLR 22/20 A3001 220 90 1100 000/00 RMK AO2 T02170200 PNO220 93 1000 000/00 RMK AO2 T02110200 PNO
