13976KLFT LFT20190903171510209/03/19 17:15:31  5-MIN KLFT 032315Z 06004KT 10SM CLR 32/22 A2990 60 53 2100 060/04 RMK AO2 T03220217
13976KLFT LFT20190903172010209/03/19 17:20:31  5-MIN KLFT 032320Z 07003KT 10SM CLR 32/22 A2991 60 55 2100 070/03 RMK AO2 T03220222
13976KLFT LFT20190903172510209/03/19 17:25:31  5-MIN KLFT 032325Z 07003KT 10SM CLR 32/22 A2991 50 55 2100 070/03 RMK AO2 T03220222
13976KLFT LFT20190903173010209/03/19 17:30:31  5-MIN KLFT 032330Z 08003KT 10SM CLR 32/22 A2991 50 56 2000 080/03 RMK AO2 T03170222
13976KLFT LFT20190903173510209/03/19 17:35:31  5-MIN KLFT 032335Z 08003KT 10SM CLR 32/22 A2991 50 56 2000 080/03 RMK AO2 T03170222
13976KLFT LFT20190903174010209/03/19 17:40:31  5-MIN KLFT 032340Z 00000KT 10SM CLR 32/22 A2991 50 56 2000 000/00 RMK AO2 T03170222
13976KLFT LFT20190903174510209/03/19 17:45:31  5-MIN KLFT 032345Z 00000KT 10SM CLR 32/23 A2991 50 58 2000 000/00 RMK AO2 T03170228
13976KLFT LFT20190903175012709/03/19 17:50:31  5-MIN KLFT 032350Z 00000KT 10SM CLR 32/23 A2991 50 58 2000 000/00 RMK AO2 SLP129 T03170228 10339 20317 56015
13976KLFT LFT20190903175510209/03/19 17:55:31  5-MIN KLFT 032355Z 00000KT 10SM CLR 31/23 A2991 50 63 1900 000/00 RMK AO2 T03110233
13976KLFT LFT20190903180010209/03/19 18:00:31  5-MIN KLFT 040000Z 00000KT 10SM CLR 31/23 A2991 50 63 1900 000/00 RMK AO2 T03110233
13976KLFT LFT20190903180510209/03/19 18:05:31  5-MIN KLFT 040005Z 00000KT 10SM CLR 31/23 A2991 50 63 1900 000/00 RMK AO2 T03110233
13976KLFT LFT20190903181010209/03/19 18:10:31  5-MIN KLFT 040010Z 00000KT 10SM CLR 31/23 A2991 50 65 1900 000/00 RMK AO2 T03060233
13976KLFT LFT20190903181510209/03/19 18:15:31  5-MIN KLFT 040015Z 00000KT 10SM CLR 31/24 A2992 50 67 1900 000/00 RMK AO2 T03060239
13976KLFT LFT20190903182010209/03/19 18:20:31  5-MIN KLFT 040020Z 00000KT 10SM CLR 31/24 A2992 50 67 1900 000/00 RMK AO2 T03060239
13976KLFT LFT20190903182510209/03/19 18:25:31  5-MIN KLFT 040025Z 00000KT 10SM CLR 29/24 A2992 50 71 1800 000/00 RMK AO2 T02940239
13976KLFT LFT20190903183010209/03/19 18:30:31  5-MIN KLFT 040030Z 00000KT 10SM CLR 30/24 A2992 50 72 1800 000/00 RMK AO2 T03000244
13976KLFT LFT20190903183510209/03/19 18:35:31  5-MIN KLFT 040035Z 00000KT 10SM CLR 29/24 A2992 50 74 1800 000/00 RMK AO2 T02940244
13976KLFT LFT20190903184010209/03/19 18:40:31  5-MIN KLFT 040040Z 00000KT 10SM CLR 29/25 A2992 50 79 1700 000/00 RMK AO2 T02890250
13976KLFT LFT20190903184510209/03/19 18:45:31  5-MIN KLFT 040045Z 00000KT 10SM CLR 29/25 A2992 50 79 1700 000/00 RMK AO2 T02890250
13976KLFT LFT20190903185010909/03/19 18:50:31  5-MIN KLFT 040050Z 00000KT 10SM CLR 28/25 A2992 50 82 1600 000/00 RMK AO2 SLP130 T02830250
13976KLFT LFT20190903185510209/03/19 18:55:31  5-MIN KLFT 040055Z 00000KT 10SM CLR 28/25 A2992 50 82 1600 000/00 RMK AO2 T02830250
13976KLFT LFT20190903190010209/03/19 19:00:31  5-MIN KLFT 040100Z 00000KT 10SM CLR 28/25 A2992 50 82 1600 000/00 RMK AO2 T02830250
13976KLFT LFT20190903190510209/03/19 19:05:31  5-MIN KLFT 040105Z 00000KT 10SM CLR 28/25 A2992 40 82 1600 000/00 RMK AO2 T02830250
13976KLFT LFT20190903191010209/03/19 19:10:31  5-MIN KLFT 040110Z 00000KT 10SM CLR 28/24 A2992 40 79 1600 000/00 RMK AO2 T02830244
13976KLFT LFT20190903191510209/03/19 19:15:31  5-MIN KLFT 040115Z 00000KT 10SM CLR 28/25 A2992 40 82 1600 000/00 RMK AO2 T02830250
13976KLFT LFT20190903192010209/03/19 19:20:31  5-MIN KLFT 040120Z 00000KT 10SM CLR 28/25 A2992 40 84 1600 000/00 RMK AO2 T02780250
13976KLFT LFT20190903192510209/03/19 19:25:31  5-MIN KLFT 040125Z 00000KT 10SM CLR 28/25 A2992 40 84 1600 000/00 RMK AO2 T02780250
13976KLFT LFT20190903193010209/03/19 19:30:31  5-MIN KLFT 040130Z 04003KT 10SM CLR 28/24 A2992 40 82 1600 040/03 RMK AO2 T02780244
13976KLFT LFT20190903193510209/03/19 19:35:31  5-MIN KLFT 040135Z 04004KT 10SM CLR 27/24 A2992 40 84 1500 040/04 RMK AO2 T02720244
13976KLFT LFT20190903194010209/03/19 19:40:31  5-MIN KLFT 040140Z 00000KT 10SM CLR 28/24 A2992 40 82 1600 000/00 RMK AO2 T02780244
13976KLFT LFT20190903194510209/03/19 19:45:31  5-MIN KLFT 040145Z 00000KT 10SM CLR 28/24 A2993 40 82 1600 000/00 RMK AO2 T02780244
13976KLFT LFT20190903195010909/03/19 19:50:31  5-MIN KLFT 040150Z 00000KT 10SM CLR 28/24 A2993 40 82 1600 000/00 RMK AO2 SLP133 T02780244
13976KLFT LFT20190903195510209/03/19 19:55:31  5-MIN KLFT 040155Z 05003KT 10SM CLR 28/24 A2993 40 82 1600 050/03 RMK AO2 T02780244
13976KLFT LFT20190903200010209/03/19 20:00:31  5-MIN KLFT 040200Z 05003KT 10SM CLR 28/24 A2993 40 82 1600 050/03 RMK AO2 T02780244
13976KLFT LFT20190903200510209/03/19 20:05:31  5-MIN KLFT 040205Z 05003KT 10SM CLR 28/24 A2993 40 82 1600 050/03 RMK AO2 T02780244
13976KLFT LFT20190903201010209/03/19 20:10:31  5-MIN KLFT 040210Z 00000KT 10SM CLR 27/24 A2993 40 84 1500 000/00 RMK AO2 T02720244
13976KLFT LFT20190903201510209/03/19 20:15:31  5-MIN KLFT 040215Z 00000KT 10SM CLR 27/24 A2993 40 84 1500 000/00 RMK AO2 T02720244
13976KLFT LFT20190903202010209/03/19 20:20:31  5-MIN KLFT 040220Z 00000KT 10SM CLR 27/24 A2993 30 84 1500 000/00 RMK AO2 T02720244
13976KLFT LFT20190903202510209/03/19 20:25:31  5-MIN KLFT 040225Z 00000KT 10SM CLR 28/24 A2993 30 82 1600 000/00 RMK AO2 T02780244
13976KLFT LFT20190903203010209/03/19 20:30:31  5-MIN KLFT 040230Z 00000KT 10SM CLR 27/24 A2993 30 84 1500 000/00 RMK AO2 T02720244
13976KLFT LFT20190903203510209/03/19 20:35:31  5-MIN KLFT 040235Z 00000KT 10SM CLR 27/24 A2994 30 84 1500 000/00 RMK AO2 T02720244
13976KLFT LFT20190903204010209/03/19 20:40:31  5-MIN KLFT 040240Z 00000KT 10SM CLR 27/24 A2994 30 84 1500 000/00 RMK AO2 T02720244
13976KLFT LFT20190903204510209/03/19 20:45:31  5-MIN KLFT 040245Z 00000KT 10SM CLR 27/24 A2994 30 87 1400 000/00 RMK AO2 T02670244
13976KLFT LFT20190903205011509/03/19 20:50:31  5-MIN KLFT 040250Z 00000KT 10SM CLR 27/24 A2994 30 87 1400 000/00 RMK AO2 SLP136 T02670244 53006
13976KLFT LFT20190903205510209/03/19 20:55:31  5-MIN KLFT 040255Z 00000KT 10SM CLR 27/24 A2994 30 87 1400 000/00 RMK AO2 T02670244
13976KLFT LFT20190903210010209/03/19 21:00:31  5-MIN KLFT 040300Z 06003KT 10SM CLR 27/24 A2993 30 87 1400 060/03 RMK AO2 T02670244
13976KLFT LFT20190903210510209/03/19 21:05:31  5-MIN KLFT 040305Z 00000KT 10SM CLR 27/24 A2993 30 87 1400 000/00 RMK AO2 T02670244
13976KLFT LFT20190903211010209/03/19 21:10:31  5-MIN KLFT 040310Z 04004KT 10SM CLR 27/24 A2994 30 87 1400 040/04 RMK AO2 T02670244
13976KLFT LFT20190903211510209/03/19 21:15:31  5-MIN KLFT 040315Z 00000KT 10SM CLR 27/23 A2994 30 82 1400 000/00 RMK AO2 T02670233
13976KLFT LFT20190903212010709/03/19 21:20:31  5-MIN KLFT 040320Z AUTO 00000KT 10SM CLR 27/24 A2994 30 84 1400 000/00 RMK AO2 T02670239
13976KLFT LFT20190903212510709/03/19 21:25:31  5-MIN KLFT 040325Z AUTO 00000KT 10SM CLR 27/24 A2994 20 82 1500 000/00 RMK AO2 T02720239
13976KLFT LFT20190903213010709/03/19 21:30:31  5-MIN KLFT 040330Z AUTO 00000KT 10SM CLR 27/24 A2994 20 87 1400 000/00 RMK AO2 T02670244
13976KLFT LFT20190903213510709/03/19 21:35:31  5-MIN KLFT 040335Z AUTO 00000KT 10SM CLR 27/24 A2994 20 87 1400 000/00 RMK AO2 T02670244
13976KLFT LFT20190903214010709/03/19 21:40:31  5-MIN KLFT 040340Z AUTO 00000KT 10SM CLR 27/24 A2994 20 87 1400 000/00 RMK AO2 T02670244
13976KLFT LFT20190903214510709/03/19 21:45:31  5-MIN KLFT 040345Z AUTO 00000KT 10SM CLR 27/24 A2994 20 87 1400 000/00 RMK AO2 T02670244
13976KLFT LFT20190903215011409/03/19 21:50:31  5-MIN KLFT 040350Z AUTO 00000KT 10SM CLR 26/24 A2994 20 87 1400 000/00 RMK AO2 SLP139 T02610239
13976KLFT LFT20190903215510709/03/19 21:55:31  5-MIN KLFT 040355Z AUTO 00000KT 10SM CLR 26/24 A2995 20 87 1400 000/00 RMK AO2 T02610239
13976KLFT LFT20190903220010709/03/19 22:00:31  5-MIN KLFT 040400Z AUTO 00000KT 10SM CLR 26/24 A2994 20 87 1400 000/00 RMK AO2 T02610239
13976KLFT LFT20190903220510709/03/19 22:05:31  5-MIN KLFT 040405Z AUTO 00000KT 10SM CLR 26/24 A2994 20 87 1400 000/00 RMK AO2 T02610239
13976KLFT LFT20190903221010709/03/19 22:10:31  5-MIN KLFT 040410Z AUTO 00000KT 10SM CLR 26/24 A2995 20 87 1400 000/00 RMK AO2 T02610239
13976KLFT LFT20190903221510709/03/19 22:15:31  5-MIN KLFT 040415Z AUTO 00000KT 10SM CLR 26/24 A2995 20 87 1400 000/00 RMK AO2 T02610239
13976KLFT LFT20190903222010709/03/19 22:20:31  5-MIN KLFT 040420Z AUTO 00000KT 10SM CLR 26/24 A2995 20 90 1300 000/00 RMK AO2 T02560239
13976KLFT LFT20190903222510709/03/19 22:25:31  5-MIN KLFT 040425Z AUTO 00000KT 10SM CLR 26/24 A2995 20 87 1400 000/00 RMK AO2 T02610239
13976KLFT LFT20190903223010709/03/19 22:30:31  5-MIN KLFT 040430Z AUTO 00000KT 10SM CLR 26/24 A2994 20 87 1400 000/00 RMK AO2 T02610239
13976KLFT LFT20190903223510709/03/19 22:35:31  5-MIN KLFT 040435Z AUTO 00000KT 10SM CLR 26/24 A2994 20 90 1300 000/00 RMK AO2 T02560239
13976KLFT LFT20190903224010709/03/19 22:40:31  5-MIN KLFT 040440Z AUTO 00000KT 10SM CLR 26/24 A2994 20 87 1400 000/00 RMK AO2 T02610239
13976KLFT LFT20190903224510709/03/19 22:45:31  5-MIN KLFT 040445Z AUTO 00000KT 10SM CLR 26/24 A2995 20 87 1400 000/00 RMK AO2 T02610239
13976KLFT LFT20190903225011409/03/19 22:50:31  5-MIN KLFT 040450Z AUTO 00000KT 10SM CLR 26/24 A2995 20 87 1400 000/00 RMK AO2 SLP139 T02610239
13976KLFT LFT20190903225510709/03/19 22:55:31  5-MIN KLFT 040455Z AUTO 00000KT 10SM CLR 26/24 A2994 20 90 1300 000/00 RMK AO2 T02560239
13976KLFT LFT20190903230010709/03/19 23:00:31  5-MIN KLFT 040500Z AUTO 00000KT 10SM CLR 26/23 A2994 20 87 1300 000/00 RMK AO2 T02560233
13976KLFT LFT20190903230510709/03/19 23:05:31  5-MIN KLFT 040505Z AUTO 00000KT 10SM CLR 26/23 A2994 20 87 1300 000/00 RMK AO2 T02560233
13976KLFT LFT20190903231010709/03/19 23:10:31  5-MIN KLFT 040510Z AUTO 00000KT 10SM CLR 26/23 A2994 30 87 1300 000/00 RMK AO2 T02560233
13976KLFT LFT20190903231510709/03/19 23:15:31  5-MIN KLFT 040515Z AUTO 00000KT 10SM CLR 26/23 A2994 30 87 1300 000/00 RMK AO2 T02560233
13976KLFT LFT20190903232010709/03/19 23:20:31  5-MIN KLFT 040520Z AUTO 00000KT 10SM CLR 26/23 A2994 30 87 1300 000/00 RMK AO2 T02560233
13976KLFT LFT20190903232510709/03/19 23:25:31  5-MIN KLFT 040525Z AUTO 00000KT 10SM CLR 26/24 A2994 30 90 1300 000/00 RMK AO2 T02560239
13976KLFT LFT20190903233010709/03/19 23:30:31  5-MIN KLFT 040530Z AUTO 00000KT 10SM CLR 26/24 A2994 30 90 1300 000/00 RMK AO2 T02560239
13976KLFT LFT20190903233510709/03/19 23:35:31  5-MIN KLFT 040535Z AUTO 00000KT 10SM CLR 26/24 A2994 30 90 1300 000/00 RMK AO2 T02560239
13976KLFT LFT20190903234010709/03/19 23:40:31  5-MIN KLFT 040540Z AUTO 00000KT 10SM CLR 25/24 A2994 30 93 1200 000/00 RMK AO2 T02500239
13976KLFT LFT20190903234510709/03/19 23:45:31  5-MIN KLFT 040545Z AUTO 00000KT 10SM CLR 26/23 A2994 30 87 1300 000/00 RMK AO2 T02560233
13976KLFT LFT20190903235014209/03/19 23:50:31  5-MIN KLFT 040550Z AUTO 00000KT 10SM CLR 25/23 A2994 30 90 1200 000/00 RMK AO2 SLP137 T02500233 10317 20250 403390239 53007
13976KLFT LFT20190903235510709/03/19 23:55:31  5-MIN KLFT 040555Z AUTO 00000KT 10SM CLR 25/23 A2994 30 90 1200 000/00 RMK AO2 T02500233
13976KLFT LFT20190904000010709/04/19 00:00:31  5-MIN KLFT 040600Z AUTO 00000KT 10SM CLR 25/23 A2994 30 90 1200 000/00 RMK AO2 T02500233
13976KLFT LFT20190904000510709/04/19 00:05:31  5-MIN KLFT 040605Z AUTO 00000KT 10SM CLR 25/23 A2994 30 90 1200 000/00 RMK AO2 T02500233
13976KLFT LFT20190904001010709/04/19 00:10:31  5-MIN KLFT 040610Z AUTO 00000KT 10SM CLR 26/24 A2994 30 90 1300 000/00 RMK AO2 T02560239
13976KLFT LFT20190904001510709/04/19 00:15:31  5-MIN KLFT 040615Z AUTO 00000KT 10SM CLR 26/23 A2994 30 87 1300 000/00 RMK AO2 T02560233
13976KLFT LFT20190904002010709/04/19 00:20:31  5-MIN KLFT 040620Z AUTO 00000KT 10SM CLR 26/23 A2994 20 87 1300 000/00 RMK AO2 T02560233
13976KLFT LFT20190904002510709/04/19 00:25:31  5-MIN KLFT 040625Z AUTO 00000KT 10SM CLR 25/23 A2994 20 90 1200 000/00 RMK AO2 T02500233
13976KLFT LFT20190904003010709/04/19 00:30:31  5-MIN KLFT 040630Z AUTO 00000KT 10SM CLR 25/23 A2994 20 87 1200 000/00 RMK AO2 T02500228
13976KLFT LFT20190904003510709/04/19 00:35:31  5-MIN KLFT 040635Z AUTO 00000KT 10SM CLR 25/23 A2995 20 87 1200 000/00 RMK AO2 T02500228
13976KLFT LFT20190904004010709/04/19 00:40:31  5-MIN KLFT 040640Z AUTO 00000KT 10SM CLR 25/23 A2995 20 87 1200 000/00 RMK AO2 T02500228
13976KLFT LFT20190904004510709/04/19 00:45:31  5-MIN KLFT 040645Z AUTO 00000KT 10SM CLR 25/23 A2995 20 90 1200 000/00 RMK AO2 T02500233
13976KLFT LFT20190904005011409/04/19 00:50:31  5-MIN KLFT 040650Z AUTO 00000KT 10SM CLR 25/23 A2995 20 90 1200 000/00 RMK AO2 SLP140 T02500233
13976KLFT LFT20190904005510709/04/19 00:55:31  5-MIN KLFT 040655Z AUTO 00000KT 10SM CLR 25/23 A2995 20 90 1200 000/00 RMK AO2 T02500233
13976KLFT LFT20190904010010709/04/19 01:00:31  5-MIN KLFT 040700Z AUTO 00000KT 10SM CLR 25/23 A2995 20 90 1200 000/00 RMK AO2 T02500233
13976KLFT LFT20190904010510709/04/19 01:05:31  5-MIN KLFT 040705Z AUTO 00000KT 10SM CLR 25/23 A2994 20 90 1200 000/00 RMK AO2 T02500233
13976KLFT LFT20190904011010709/04/19 01:10:31  5-MIN KLFT 040710Z AUTO 00000KT 10SM CLR 25/23 A2994 20 90 1200 000/00 RMK AO2 T02500233
13976KLFT LFT20190904011510709/04/19 01:15:31  5-MIN KLFT 040715Z AUTO 00000KT 10SM CLR 25/23 A2994 20 87 1200 000/00 RMK AO2 T02500228
13976KLFT LFT20190904012010709/04/19 01:20:31  5-MIN KLFT 040720Z AUTO 00000KT 10SM CLR 25/23 A2994 20 87 1200 000/00 RMK AO2 T02500228
13976KLFT LFT20190904012510709/04/19 01:25:31  5-MIN KLFT 040725Z AUTO 00000KT 10SM CLR 25/23 A2994 20 87 1200 000/00 RMK AO2 T02500228
13976KLFT LFT20190904013010709/04/19 01:30:31  5-MIN KLFT 040730Z AUTO 00000KT 10SM CLR 25/23 A2994 20 87 1200 000/00 RMK AO2 T02500228
13976KLFT LFT20190904013510709/04/19 01:35:31  5-MIN KLFT 040735Z AUTO 00000KT 10SM CLR 25/23 A2994 20 87 1200 000/00 RMK AO2 T02500228
13976KLFT LFT20190904014010709/04/19 01:40:31  5-MIN KLFT 040740Z AUTO 00000KT 10SM CLR 25/23 A2994 20 87 1200 000/00 RMK AO2 T02500228
13976KLFT LFT20190904014510709/04/19 01:45:31  5-MIN KLFT 040745Z AUTO 00000KT 10SM CLR 25/23 A2995 20 87 1200 000/00 RMK AO2 T02500228
13976KLFT LFT20190904015011409/04/19 01:50:31  5-MIN KLFT 040750Z AUTO 00000KT 10SM CLR 25/23 A2995 20 87 1200 000/00 RMK AO2 SLP140 T02500228
13976KLFT LFT20190904015510709/04/19 01:55:31  5-MIN KLFT 040755Z AUTO 00000KT 10SM CLR 25/23 A2995 20 90 1200 000/00 RMK AO2 T02500233
13976KLFT LFT20190904020010709/04/19 02:00:31  5-MIN KLFT 040800Z AUTO 00000KT 10SM CLR 25/23 A2995 20 90 1200 000/00 RMK AO2 T02500233
13976KLFT LFT20190904020510709/04/19 02:05:31  5-MIN KLFT 040805Z AUTO 00000KT 10SM CLR 25/23 A2995 20 90 1200 000/00 RMK AO2 T02500233
13976KLFT LFT20190904021010709/04/19 02:10:31  5-MIN KLFT 040810Z AUTO 00000KT 10SM CLR 25/23 A2995 20 90 1200 000/00 RMK AO2 T02500233
13976KLFT LFT20190904021510709/04/19 02:15:31  5-MIN KLFT 040815Z AUTO 02003KT 10SM CLR 25/23 A2994 20 90 1200 020/03 RMK AO2 T02500233
13976KLFT LFT20190904022010709/04/19 02:20:31  5-MIN KLFT 040820Z AUTO 02003KT 10SM CLR 25/23 A2994 20 87 1200 020/03 RMK AO2 T02500228
13976KLFT LFT20190904022510709/04/19 02:25:31  5-MIN KLFT 040825Z AUTO 03003KT 10SM CLR 25/23 A2994 30 87 1200 020/03 RMK AO2 T02500228
13976KLFT LFT20190904023010709/04/19 02:30:31  5-MIN KLFT 040830Z AUTO 04003KT 10SM CLR 24/23 A2994 30 90 1200 040/03 RMK AO2 T02440228
13976KLFT LFT20190904023510709/04/19 02:35:31  5-MIN KLFT 040835Z AUTO 03003KT 10SM CLR 24/23 A2994 30 90 1200 030/03 RMK AO2 T02440228
13976KLFT LFT20190904024010709/04/19 02:40:31  5-MIN KLFT 040840Z AUTO 04003KT 10SM CLR 24/23 A2994 30 90 1200 040/03 RMK AO2 T02440228
13976KLFT LFT20190904024510709/04/19 02:45:31  5-MIN KLFT 040845Z AUTO 04004KT 10SM CLR 24/23 A2994 30 90 1200 040/04 RMK AO2 T02440228
13976KLFT LFT20190904025012009/04/19 02:50:31  5-MIN KLFT 040850Z AUTO 04004KT 10SM CLR 24/23 A2994 30 93 1100 040/04 RMK AO2 SLP137 T02390228 50001
13976KLFT LFT20190904025510709/04/19 02:55:31  5-MIN KLFT 040855Z AUTO 04004KT 10SM CLR 24/22 A2994 30 90 1100 040/04 RMK AO2 T02390222
13976KLFT LFT20190904030010709/04/19 03:00:31  5-MIN KLFT 040900Z AUTO 04004KT 10SM CLR 24/22 A2994 30 90 1100 040/04 RMK AO2 T02390222
13976KLFT LFT20190904030510709/04/19 03:05:31  5-MIN KLFT 040905Z AUTO 03004KT 10SM CLR 24/22 A2994 30 90 1100 030/04 RMK AO2 T02390222
13976KLFT LFT20190904031010709/04/19 03:10:31  5-MIN KLFT 040910Z AUTO 03004KT 10SM CLR 24/22 A2994 30 90 1100 030/04 RMK AO2 T02390222
13976KLFT LFT20190904031510709/04/19 03:15:31  5-MIN KLFT 040915Z AUTO 03003KT 10SM CLR 24/22 A2994 30 90 1100 030/03 RMK AO2 T02390222
13976KLFT LFT20190904032010709/04/19 03:20:31  5-MIN KLFT 040920Z AUTO 03003KT 10SM CLR 24/22 A2994 30 90 1100 030/03 RMK AO2 T02390222
13976KLFT LFT20190904032510709/04/19 03:25:31  5-MIN KLFT 040925Z AUTO 02003KT 10SM CLR 24/22 A2994 20 90 1100 020/03 RMK AO2 T02390222
13976KLFT LFT20190904033010709/04/19 03:30:31  5-MIN KLFT 040930Z AUTO 03003KT 10SM CLR 24/22 A2994 20 90 1100 030/03 RMK AO2 T02390222
13976KLFT LFT20190904033510709/04/19 03:35:31  5-MIN KLFT 040935Z AUTO 03003KT 10SM CLR 24/22 A2995 20 90 1100 030/03 RMK AO2 T02390222
13976KLFT LFT20190904034010709/04/19 03:40:31  5-MIN KLFT 040940Z AUTO 03003KT 10SM CLR 24/22 A2995 20 90 1100 030/03 RMK AO2 T02390222
13976KLFT LFT20190904034510709/04/19 03:45:31  5-MIN KLFT 040945Z AUTO 00000KT 10SM CLR 24/22 A2995 20 90 1100 000/00 RMK AO2 T02390222
13976KLFT LFT20190904035011409/04/19 03:50:31  5-MIN KLFT 040950Z AUTO 00000KT 10SM CLR 24/22 A2995 20 90 1100 000/00 RMK AO2 SLP141 T02390222
13976KLFT LFT20190904035510709/04/19 03:55:31  5-MIN KLFT 040955Z AUTO 03003KT 10SM CLR 24/22 A2995 20 90 1100 030/03 RMK AO2 T02390222
13976KLFT LFT20190904040010709/04/19 04:00:31  5-MIN KLFT 041000Z AUTO 03003KT 10SM CLR 24/22 A2995 10 90 1100 030/03 RMK AO2 T02390222
13976KLFT LFT20190904040510709/04/19 04:05:31  5-MIN KLFT 041005Z AUTO 03003KT 10SM CLR 24/22 A2995 10 90 1100 030/03 RMK AO2 T02390222
13976KLFT LFT20190904041010709/04/19 04:10:31  5-MIN KLFT 041010Z AUTO 03003KT 10SM CLR 24/22 A2996 10 90 1100 020/03 RMK AO2 T02390222
13976KLFT LFT20190904041510709/04/19 04:15:31  5-MIN KLFT 041015Z AUTO 02003KT 10SM CLR 24/22 A2996 10 90 1100 020/03 RMK AO2 T02390222
13976KLFT LFT20190904042010209/04/19 04:20:31  5-MIN KLFT 041020Z 03003KT 10SM CLR 24/22 A2996 10 90 1100 030/03 RMK AO2 T02390222
13976KLFT LFT20190904042510209/04/19 04:25:31  5-MIN KLFT 041025Z 03003KT 10SM CLR 24/22 A2996 10 90 1100 030/03 RMK AO2 T02390222
13976KLFT LFT20190904043010209/04/19 04:30:31  5-MIN KLFT 041030Z 03003KT 10SM CLR 24/22 A2996 10 90 1100 030/03 RMK AO2 T02390222
13976KLFT LFT20190904043510209/04/19 04:35:31  5-MIN KLFT 041035Z 03003KT 10SM CLR 24/22 A2996 10 90 1100 030/03 RMK AO2 T02390222
13976KLFT LFT20190904044010109/04/19 04:40:31  5-MIN KLFT 041040Z 02003KT 10SM CLR 24/22 A2996 0 87 1100 020/03 RMK AO2 T02390217
13976KLFT LFT20190904044510109/04/19 04:45:31  5-MIN KLFT 041045Z 02003KT 10SM CLR 24/22 A2997 0 87 1100 020/03 RMK AO2 T02390217
13976KLFT LFT20190904045010809/04/19 04:50:31  5-MIN KLFT 041050Z 03003KT 10SM CLR 24/22 A2997 0 87 1100 030/03 RMK AO2 SLP147 T02390217
13976KLFT LFT20190904045510109/04/19 04:55:31  5-MIN KLFT 041055Z 04003KT 10SM CLR 24/22 A2997 0 90 1100 040/03 RMK AO2 T02390222
13976KLFT LFT20190904050010109/04/19 05:00:31  5-MIN KLFT 041100Z 04003KT 10SM CLR 24/22 A2997 0 87 1100 040/03 RMK AO2 T02390217
13976KLFT LFT20190904050510109/04/19 05:05:31  5-MIN KLFT 041105Z 04004KT 10SM CLR 24/22 A2997 0 87 1100 040/04 RMK AO2 T02390217
13976KLFT LFT20190904051010109/04/19 05:10:31  5-MIN KLFT 041110Z 04004KT 10SM CLR 24/22 A2997 0 90 1100 040/04 RMK AO2 T02390222
13976KLFT LFT20190906063010609/06/19 06:30:31  5-MIN KLFT 061230Z 31007KT 10SM FEW055 26/21 A3003 -60 76 1200 310/07 RMK AO2 T02560211
13976KLFT LFT20190906063510609/06/19 06:35:31  5-MIN KLFT 061235Z 31006KT 10SM FEW055 26/21 A3003 -60 73 1300 310/06 RMK AO2 T02610211
13976KLFT LFT20190906064010309/06/19 06:40:31  5-MIN KLFT 061240Z 30007KT 10SM CLR 26/21 A3004 -60 73 1200 300/07 RMK AO2 T02610211
13976KLFT LFT20190906064510309/06/19 06:45:31  5-MIN KLFT 061245Z 31008KT 10SM CLR 26/21 A3004 -60 73 1200 310/08 RMK AO2 T02610211
13976KLFT LFT20190906065011009/06/19 06:50:31  5-MIN KLFT 061250Z 31007KT 10SM CLR 26/21 A3004 -60 73 1200 310/07 RMK AO2 SLP171 T02610211
13976KLFT LFT20190906065510309/06/19 06:55:31  5-MIN KLFT 061255Z 30007KT 10SM CLR 26/21 A3004 -60 73 1200 300/07 RMK AO2 T02610211
13976KLFT LFT20190906070010309/06/19 07:00:31  5-MIN KLFT 061300Z 31007KT 10SM CLR 27/21 A3004 -60 69 1300 310/07 RMK AO2 T02670206
13976KLFT LFT20190906070510309/06/19 07:05:31  5-MIN KLFT 061305Z 31006KT 10SM CLR 27/21 A3004 -60 69 1300 310/06 RMK AO2 T02670206
13976KLFT LFT20190906071010309/06/19 07:10:31  5-MIN KLFT 061310Z 32009KT 10SM CLR 27/21 A3004 -70 66 1400 320/09 RMK AO2 T02720206
13976KLFT LFT20190906071510309/06/19 07:15:31  5-MIN KLFT 061315Z 33007KT 10SM CLR 27/21 A3005 -70 66 1400 330/07 RMK AO2 T02720206
13976KLFT LFT20190906072010609/06/19 07:20:31  5-MIN KLFT 061320Z 33006KT 10SM FEW055 27/21 A3005 -70 66 1400 320/06 RMK AO2 T02720206
13976KLFT LFT20190906072510609/06/19 07:25:31  5-MIN KLFT 061325Z 33006KT 10SM FEW055 28/21 A3005 -70 64 1400 330/06 RMK AO2 T02780206
13976KLFT LFT20190906073010609/06/19 07:30:31  5-MIN KLFT 061330Z 33008KT 10SM FEW055 28/21 A3005 -70 66 1400 330/08 RMK AO2 T02780211
13976KLFT LFT20190906073510609/06/19 07:35:31  5-MIN KLFT 061335Z 35007KT 10SM FEW055 28/21 A3005 -70 64 1400 350/07 RMK AO2 T02780206
13976KLFT LFT20190906074010609/06/19 07:40:31  5-MIN KLFT 061340Z 34008KT 10SM FEW055 28/21 A3005 -70 64 1400 340/08 RMK AO2 T02780206
13976KLFT LFT20190906074510609/06/19 07:45:31  5-MIN KLFT 061345Z 34006KT 10SM FEW055 28/21 A3005 -70 62 1500 340/06 RMK AO2 T02830206
13976KLFT LFT20190906075011009/06/19 07:50:31  5-MIN KLFT 061350Z 34006KT 10SM CLR 28/21 A3005 -70 64 1500 340/06 RMK AO2 SLP176 T02830211
13976KLFT LFT20190906075510309/06/19 07:55:31  5-MIN KLFT 061355Z 32007KT 10SM CLR 28/21 A3005 -70 62 1500 320/07 RMK AO2 T02830206
13976KLFT LFT20190906080010309/06/19 08:00:31  5-MIN KLFT 061400Z 32006KT 10SM CLR 28/21 A3006 -80 64 1500 320/06 RMK AO2 T02830211
13976KLFT LFT20190906080510309/06/19 08:05:31  5-MIN KLFT 061405Z 32005KT 10SM CLR 28/21 A3006 -80 64 1500 320/05 RMK AO2 T02830211
13976KLFT LFT20190906081010309/06/19 08:10:31  5-MIN KLFT 061410Z 33005KT 10SM CLR 29/21 A3006 -80 62 1500 330/05 RMK AO2 T02890211
13976KLFT LFT20190906081510309/06/19 08:15:31  5-MIN KLFT 061415Z 33005KT 10SM CLR 29/21 A3005 -70 62 1500 330/05 RMK AO2 T02890211
13976KLFT LFT20190906082010309/06/19 08:20:31  5-MIN KLFT 061420Z 34005KT 10SM CLR 29/21 A3005 -70 60 1600 340/05 RMK AO2 T02940211
13976KLFT LFT20190906082510309/06/19 08:25:31  5-MIN KLFT 061425Z 33005KT 10SM CLR 29/21 A3006 -80 60 1600 330/05 RMK AO2 T02940211
13976KLFT LFT20190906083010309/06/19 08:30:31  5-MIN KLFT 061430Z 33003KT 10SM CLR 30/21 A3006 -80 58 1700 320/03 RMK AO2 T03000211
13976KLFT LFT20190906083510309/06/19 08:35:31  5-MIN KLFT 061435Z 34004KT 10SM CLR 30/22 A3006 -80 60 1700 340/04 RMK AO2 T03000217
13976KLFT LFT20190906084010309/06/19 08:40:31  5-MIN KLFT 061440Z VRB03KT 10SM CLR 30/21 A3006 -80 58 1700 VRB/03 RMK AO2 T03000211
13976KLFT LFT20190906084510309/06/19 08:45:31  5-MIN KLFT 061445Z VRB05KT 10SM CLR 30/21 A3006 -80 58 1700 VRB/05 RMK AO2 T03000211
13976KLFT LFT20190906085011609/06/19 08:50:31  5-MIN KLFT 061450Z VRB03KT 10SM CLR 30/21 A3006 -80 58 1700 VRB/03 RMK AO2 SLP179 T03000211 53009
13976KLFT LFT20190906085510309/06/19 08:55:31  5-MIN KLFT 061455Z 32006KT 10SM CLR 31/21 A3006 -80 56 1700 320/06 RMK AO2 T03060211
13976KLFT LFT20190906090010309/06/19 09:00:31  5-MIN KLFT 061500Z 31004KT 10SM CLR 31/21 A3006 -80 56 1700 310/04 RMK AO2 T03060211
13976KLFT LFT20190906090510309/06/19 09:05:31  5-MIN KLFT 061505Z VRB03KT 10SM CLR 31/21 A3006 -80 54 1800 VRB/03 RMK AO2 T03110211
13976KLFT LFT20190906091010309/06/19 09:10:31  5-MIN KLFT 061510Z 36004KT 10SM CLR 31/22 A3006 -80 56 1800 350/04 RMK AO2 T03110217
13976KLFT LFT20190906091510309/06/19 09:15:31  5-MIN KLFT 061515Z 34003KT 10SM CLR 31/22 A3006 -80 56 1800 340/03 RMK AO2 T03110217
13976KLFT LFT20190906092010309/06/19 09:20:31  5-MIN KLFT 061520Z 00000KT 10SM CLR 32/22 A3006 -80 55 1800 000/00 RMK AO2 T03170217
13976KLFT LFT20190906092510309/06/19 09:25:31  5-MIN KLFT 061525Z VRB03KT 10SM CLR 31/22 A3006 -80 56 1800 VRB/03 RMK AO2 T03110217
13976KLFT LFT20190906093010309/06/19 09:30:31  5-MIN KLFT 061530Z 32003KT 10SM CLR 32/22 A3006 -80 55 1800 320/03 RMK AO2 T03170217
13976KLFT LFT20190906093510309/06/19 09:35:31  5-MIN KLFT 061535Z 35004KT 10SM CLR 32/22 A3006 -80 55 1800 350/04 RMK AO2 T03170217
13976KLFT LFT20190906094010309/06/19 09:40:31  5-MIN KLFT 061540Z VRB03KT 10SM CLR 32/22 A3006 -80 53 1900 VRB/03 RMK AO2 T03220217
13976KLFT LFT20190906094510309/06/19 09:45:31  5-MIN KLFT 061545Z 31004KT 10SM CLR 32/22 A3006 -80 56 1800 310/04 RMK AO2 T03170222
13976KLFT LFT20190906095011009/06/19 09:50:31  5-MIN KLFT 061550Z 33004KT 10SM CLR 32/22 A3006 -80 53 1900 330/04 RMK AO2 SLP177 T03220217
13976KLFT LFT20190906095510309/06/19 09:55:31  5-MIN KLFT 061555Z 00000KT 10SM CLR 32/22 A3006 -80 53 1900 000/00 RMK AO2 T03220217
13976KLFT LFT20190906100010309/06/19 10:00:31  5-MIN KLFT 061600Z 35004KT 10SM CLR 33/22 A3006 -80 51 2000 350/04 RMK AO2 T03280217
13976KLFT LFT20190906100510309/06/19 10:05:31  5-MIN KLFT 061605Z VRB03KT 10SM CLR 33/22 A3005 -80 51 2000 VRB/03 RMK AO2 T03280217
13976KLFT LFT20190906101010309/06/19 10:10:31  5-MIN KLFT 061610Z 00000KT 10SM CLR 33/22 A3005 -70 53 2000 000/00 RMK AO2 T03280222
13976KLFT LFT20190906101510309/06/19 10:15:31  5-MIN KLFT 061615Z VRB03KT 10SM CLR 33/22 A3005 -70 53 2000 VRB/03 RMK AO2 T03280222
13976KLFT LFT20190906102010309/06/19 10:20:31  5-MIN KLFT 061620Z 00000KT 10SM CLR 33/22 A3005 -70 53 2000 000/00 RMK AO2 T03280222
13976KLFT LFT20190906102510309/06/19 10:25:31  5-MIN KLFT 061625Z 32004KT 10SM CLR 33/22 A3005 -70 50 2000 320/04 RMK AO2 T03330217
13976KLFT LFT20190906103010309/06/19 10:30:31  5-MIN KLFT 061630Z 00000KT 10SM CLR 33/22 A3005 -70 51 2000 000/00 RMK AO2 T03280217
13976KLFT LFT20190906103510309/06/19 10:35:31  5-MIN KLFT 061635Z 04004KT 10SM CLR 33/22 A3005 -70 51 2000 040/04 RMK AO2 T03330222
13976KLFT LFT20190906104010309/06/19 10:40:31  5-MIN KLFT 061640Z 35005KT 10SM CLR 34/22 A3005 -70 50 2100 350/05 RMK AO2 T03390222
13976KLFT LFT20190906104510309/06/19 10:45:31  5-MIN KLFT 061645Z 34004KT 10SM CLR 34/22 A3005 -70 50 2100 340/04 RMK AO2 T03390222
13976KLFT LFT20190906105011009/06/19 10:50:31  5-MIN KLFT 061650Z 00000KT 10SM CLR 34/22 A3005 -70 50 2100 000/00 RMK AO2 SLP174 T03390222
13976KLFT LFT20190906105510309/06/19 10:55:31  5-MIN KLFT 061655Z VRB03KT 10SM CLR 34/22 A3005 -70 50 2100 VRB/03 RMK AO2 T03390222
13976KLFT LFT20190906110010309/06/19 11:00:31  5-MIN KLFT 061700Z 00000KT 10SM CLR 34/22 A3005 -70 48 2200 000/00 RMK AO2 T03440222
13976KLFT LFT20190906110510309/06/19 11:05:31  5-MIN KLFT 061705Z VRB04KT 10SM CLR 34/22 A3004 -60 46 2200 VRB/04 RMK AO2 T03440217
13976KLFT LFT20190906111009309/06/19 11:10:31  5-MIN KLFT 061710Z 10SM CLR 34/22 A3004 -70 46 2200 M /M RMK AO2 T03440217
13976KLFT LFT20190906111510309/06/19 11:15:31  5-MIN KLFT 061715Z 02004KT 10SM CLR 34/21 A3004 -60 45 2200 020/04 RMK AO2 T03440211
13976KLFT LFT20190906112010309/06/19 11:20:31  5-MIN KLFT 061720Z 33004KT 10SM CLR 34/22 A3004 -60 46 2200 320/04 RMK AO2 T03440217
13976KLFT LFT20190906112510309/06/19 11:25:31  5-MIN KLFT 061725Z 36003KT 10SM CLR 34/21 A3004 -60 45 2200 360/03 RMK AO2 T03440211
13976KLFT LFT20190906113010309/06/19 11:30:31  5-MIN KLFT 061730Z 01005KT 10SM CLR 34/22 A3004 -60 46 2200 010/05 RMK AO2 T03440217
13976KLFT LFT20190906113510309/06/19 11:35:31  5-MIN KLFT 061735Z VRB03KT 10SM CLR 34/21 A3004 -60 45 2200 VRB/03 RMK AO2 T03440211
13976KLFT LFT20190906114010609/06/19 11:40:31  5-MIN KLFT 061740Z 32006KT 10SM FEW050 35/21 A3004 -60 43 2200 320/06 RMK AO2 T03500211
13976KLFT LFT20190906114510609/06/19 11:45:31  5-MIN KLFT 061745Z VRB06KT 10SM FEW050 34/21 A3004 -60 45 2200 VRB/06 RMK AO2 T03440211
13976KLFT LFT20190906115013109/06/19 11:50:31  5-MIN KLFT 061750Z 00000KT 10SM FEW050 34/21 A3003 -60 43 2200 000/00 RMK AO2 SLP170 T03440206 10350 20256 51012
13976KLFT LFT20190906115510609/06/19 11:55:31  5-MIN KLFT 061755Z VRB03KT 10SM FEW050 34/21 A3003 -50 45 2200 VRB/03 RMK AO2 T03440211
13976KLFT LFT20190906120010609/06/19 12:00:31  5-MIN KLFT 061800Z 03005KT 10SM FEW055 35/22 A3003 -50 45 2200 030/05 RMK AO2 T03500217
13976KLFT LFT20190906120510609/06/19 12:05:31  5-MIN KLFT 061805Z VRB05KT 10SM FEW055 35/22 A3003 -50 45 2200 VRB/05 RMK AO2 T03500217
13976KLFT LFT20190906121010609/06/19 12:10:31  5-MIN KLFT 061810Z 27006KT 10SM FEW055 34/22 A3003 -50 46 2200 270/06 RMK AO2 T03440217
13976KLFT LFT20190906121510609/06/19 12:15:31  5-MIN KLFT 061815Z 00000KT 10SM FEW055 34/21 A3003 -50 45 2200 000/00 RMK AO2 T03440211
13976KLFT LFT20190906122010609/06/19 12:20:31  5-MIN KLFT 061820Z VRB04KT 10SM FEW055 35/22 A3002 -50 45 2200 VRB/04 RMK AO2 T03500217
13976KLFT LFT20190906122510609/06/19 12:25:31  5-MIN KLFT 061825Z VRB04KT 10SM FEW055 35/22 A3002 -50 45 2300 VRB/04 RMK AO2 T03500217
13976KLFT LFT20190906123010609/06/19 12:30:31  5-MIN KLFT 061830Z 32005KT 10SM FEW050 35/22 A3002 -40 45 2300 320/05 RMK AO2 T03500217
13976KLFT LFT20190906123510609/06/19 12:35:31  5-MIN KLFT 061835Z 29004KT 10SM FEW050 35/22 A3002 -40 45 2300 290/04 RMK AO2 T03500217
13976KLFT LFT20190906124010609/06/19 12:40:31  5-MIN KLFT 061840Z VRB04KT 10SM FEW055 35/22 A3002 -40 47 2300 VRB/04 RMK AO2 T03500222
13976KLFT LFT20190906124510609/06/19 12:45:31  5-MIN KLFT 061845Z 03006KT 10SM SCT055 34/21 A3002 -40 45 2200 030/06 RMK AO2 T03440211
13976KLFT LFT20190906125011309/06/19 12:50:31  5-MIN KLFT 061850Z 03004KT 10SM BKN055 34/21 A3002 -40 46 2100 030/04 RMK AO2 SLP164 T03390211
13976KLFT LFT20190906125510609/06/19 12:55:31  5-MIN KLFT 061855Z 00000KT 10SM SCT055 34/21 A3002 -40 46 2100 000/00 RMK AO2 T03390211
13976KLFT LFT20190906130010609/06/19 13:00:31  5-MIN KLFT 061900Z 33004KT 10SM SCT055 34/22 A3001 -40 48 2100 330/04 RMK AO2 T03390217
13976KLFT LFT20190906130510609/06/19 13:05:31  5-MIN KLFT 061905Z 33003KT 10SM BKN055 35/22 A3001 -30 45 2300 330/03 RMK AO2 T03500217
13976KLFT LFT20190906131010609/06/19 13:10:31  5-MIN KLFT 061910Z VRB05KT 10SM BKN055 36/22 A3001 -30 44 2300 VRB/05 RMK AO2 T03560217
13976KLFT LFT20190906131510609/06/19 13:15:31  5-MIN KLFT 061915Z 03006KT 10SM BKN055 36/22 A3001 -30 45 2300 030/06 RMK AO2 T03560222
13976KLFT LFT20190906132010609/06/19 13:20:31  5-MIN KLFT 061920Z VRB03KT 10SM BKN055 35/21 A3000 -30 43 2300 VRB/03 RMK AO2 T03500211
13976KLFT LFT20190906132510609/06/19 13:25:31  5-MIN KLFT 061925Z 05005KT 10SM SCT055 36/21 A3000 -30 42 2300 050/05 RMK AO2 T03560211
13976KLFT LFT20190906133011109/06/19 13:30:31  5-MIN KLFT 061930Z AUTO 03004KT 10SM SCT055 36/21 A3000 -30 41 2400 030/04 RMK AO2 T03610211
13976KLFT LFT20190906133511109/06/19 13:35:31  5-MIN KLFT 061935Z AUTO 00000KT 10SM FEW055 36/21 A3000 -20 41 2300 000/00 RMK AO2 T03560206
13976KLFT LFT20190906134011109/06/19 13:40:31  5-MIN KLFT 061940Z AUTO 09004KT 10SM FEW055 35/21 A3000 -20 42 2300 080/04 RMK AO2 T03500206
13976KLFT LFT20190906134510809/06/19 13:45:31  5-MIN KLFT 061945Z AUTO 00000KT 10SM CLR 36/21 A3000 -20 41 2300 000/00 RMK AO2 T03560206
13976KLFT LFT20190906135011009/06/19 13:50:31  5-MIN KLFT 061950Z 00000KT 10SM CLR 35/21 A2999 -20 43 2300 000/00 RMK AO2 SLP156 T03500211
13976KLFT LFT20190906135510609/06/19 13:55:31  5-MIN KLFT 061955Z 02006KT 10SM FEW060 35/21 A2999 -20 43 2300 020/06 RMK AO2 T03500211
13976KLFT LFT20190906140010609/06/19 14:00:31  5-MIN KLFT 062000Z 03005KT 10SM SCT060 35/21 A2999 -20 43 2300 030/05 RMK AO2 T03500211
13976KLFT LFT20190906140510609/06/19 14:05:31  5-MIN KLFT 062005Z 06005KT 10SM SCT060 35/21 A2999 -20 42 2300 060/05 RMK AO2 T03500206
13976KLFT LFT20190906141010609/06/19 14:10:31  5-MIN KLFT 062010Z 06004KT 10SM SCT060 34/21 A2999 -10 45 2200 060/04 RMK AO2 T03440211
13976KLFT LFT20190906141510609/06/19 14:15:31  5-MIN KLFT 062015Z VRB03KT 10SM FEW060 34/21 A2999 -10 46 2200 VRB/03 RMK AO2 T03390211
13976KLFT LFT20190906142010609/06/19 14:20:31  5-MIN KLFT 062020Z 00000KT 10SM FEW060 34/22 A2999 -10 48 2200 000/00 RMK AO2 T03390217
13976KLFT LFT20190906142510609/06/19 14:25:31  5-MIN KLFT 062025Z 00000KT 10SM FEW060 34/22 A2999 -10 48 2200 000/00 RMK AO2 T03390217
13976KLFT LFT20190906143010609/06/19 14:30:31  5-MIN KLFT 062030Z 00000KT 10SM FEW060 34/21 A2998 -10 45 2200 000/00 RMK AO2 T03440211
13976KLFT LFT20190906143510309/06/19 14:35:31  5-MIN KLFT 062035Z 02004KT 10SM CLR 36/22 A2998 -10 44 2400 020/04 RMK AO2 T03560217
13976KLFT LFT20190906144010109/06/19 14:40:31  5-MIN KLFT 062040Z 02005KT 10SM CLR 35/21 A2998 0 43 2300 020/05 RMK AO2 T03500211
13976KLFT LFT20190906144510109/06/19 14:45:31  5-MIN KLFT 062045Z 05003KT 10SM CLR 34/22 A2998 0 46 2200 050/03 RMK AO2 T03440217
13976KLFT LFT20190906145011709/06/19 14:50:31  5-MIN KLFT 062050Z 00000KT 10SM SCT055 34/21 A2997 0 45 2200 000/00 RMK AO2 SLP149 T03440211 58010
13976KLFT LFT20190906145510109/06/19 14:55:31  5-MIN KLFT 062055Z 03004KT 10SM CLR 34/22 A2997 0 48 2200 030/04 RMK AO2 T03390217
13976KLFT LFT20190906150010109/06/19 15:00:31  5-MIN KLFT 062100Z 08003KT 10SM CLR 34/21 A2997 0 45 2300 070/03 RMK AO2 T03440211
13976KLFT LFT20190906150510109/06/19 15:05:31  5-MIN KLFT 062105Z 00000KT 10SM CLR 35/22 A2997 0 45 2300 000/00 RMK AO2 T03500217
13976KLFT LFT20190906151010109/06/19 15:10:31  5-MIN KLFT 062110Z 00000KT 10SM CLR 34/22 A2997 0 46 2300 000/00 RMK AO2 T03440217
13976KLFT LFT20190906151510109/06/19 15:15:31  5-MIN KLFT 062115Z 00000KT 10SM CLR 34/22 A2997 0 46 2300 000/00 RMK AO2 T03440217
13976KLFT LFT20190906152010109/06/19 15:20:31  5-MIN KLFT 062120Z 09004KT 10SM CLR 35/22 A2997 0 45 2300 090/04 RMK AO2 T03500217
13976KLFT LFT20190906152510109/06/19 15:25:31  5-MIN KLFT 062125Z 36004KT 10SM CLR 36/21 A2997 0 42 2400 360/04 RMK AO2 T03560211
13976KLFT LFT20190906153010109/06/19 15:30:31  5-MIN KLFT 062130Z VRB04KT 10SM CLR 36/22 A2996 0 44 2400 VRB/04 RMK AO2 T03560217
13976KLFT LFT20190906153510209/06/19 15:35:31  5-MIN KLFT 062135Z 04007KT 10SM CLR 36/22 A2996 10 44 2400 040/07 RMK AO2 T03560217
13976KLFT LFT20190906154010209/06/19 15:40:31  5-MIN KLFT 062140Z 36006KT 10SM CLR 36/21 A2996 10 42 2400 360/06 RMK AO2 T03560211
13976KLFT LFT20190906154510209/06/19 15:45:31  5-MIN KLFT 062145Z 35004KT 10SM CLR 36/21 A2996 10 42 2400 350/04 RMK AO2 T03560211
13976KLFT LFT20190906155010909/06/19 15:50:31  5-MIN KLFT 062150Z 34005KT 10SM CLR 36/21 A2996 10 42 2400 340/05 RMK AO2 SLP144 T03560211
13976KLFT LFT20190906155510209/06/19 15:55:31  5-MIN KLFT 062155Z 31005KT 10SM CLR 36/21 A2996 10 41 2400 310/05 RMK AO2 T03560206
13976KLFT LFT20190906160010209/06/19 16:00:31  5-MIN KLFT 062200Z 33003KT 10SM CLR 36/21 A2996 10 41 2400 330/03 RMK AO2 T03560206
13976KLFT LFT20190906160509209/06/19 16:05:31  5-MIN KLFT 062205Z 10SM CLR 36/21 A2996 10 41 2400 M /M RMK AO2 T03560206
13976KLFT LFT20190906161010209/06/19 16:10:31  5-MIN KLFT 062210Z 32004KT 10SM CLR 36/21 A2996 10 41 2400 320/04 RMK AO2 T03560206
13976KLFT LFT20190906161510209/06/19 16:15:31  5-MIN KLFT 062215Z 01007KT 10SM CLR 36/21 A2996 10 42 2400 010/07 RMK AO2 T03560211
13976KLFT LFT20190906162010209/06/19 16:20:31  5-MIN KLFT 062220Z 36006KT 10SM CLR 36/21 A2996 10 41 2400 360/06 RMK AO2 T03560206
13976KLFT LFT20190906162510209/06/19 16:25:31  5-MIN KLFT 062225Z 01005KT 10SM CLR 36/21 A2996 10 41 2400 010/05 RMK AO2 T03560206
13976KLFT LFT20190906163010209/06/19 16:30:31  5-MIN KLFT 062230Z 01006KT 10SM CLR 36/20 A2996 10 39 2400 010/06 RMK AO2 T03560200
13976KLFT LFT20190906163510209/06/19 16:35:31  5-MIN KLFT 062235Z 35007KT 10SM CLR 36/20 A2996 10 39 2400 350/07 RMK AO2 T03560200
13976KLFT LFT20190906164010209/06/19 16:40:31  5-MIN KLFT 062240Z 34006KT 10SM CLR 36/19 A2996 10 38 2400 340/06 RMK AO2 T03560194
13976KLFT LFT20190906164510209/06/19 16:45:31  5-MIN KLFT 062245Z 33005KT 10SM CLR 36/19 A2996 10 38 2400 330/05 RMK AO2 T03560194
13976KLFT LFT20190906165010909/06/19 16:50:31  5-MIN KLFT 062250Z 34005KT 10SM CLR 36/19 A2996 10 38 2400 340/05 RMK AO2 SLP144 T03560194
13976KLFT LFT20190906165510209/06/19 16:55:31  5-MIN KLFT 062255Z 00000KT 10SM CLR 36/19 A2996 10 38 2400 000/00 RMK AO2 T03560194
13976KLFT LFT20190906170010209/06/19 17:00:31  5-MIN KLFT 062300Z 34007KT 10SM CLR 35/20 A2996 10 40 2300 340/07 RMK AO2 T03500200
13976KLFT LFT20190906170510209/06/19 17:05:31  5-MIN KLFT 062305Z 34005KT 10SM CLR 35/20 A2996 10 40 2300 340/05 RMK AO2 T03500200
13976KLFT LFT20190906171010209/06/19 17:10:31  5-MIN KLFT 062310Z 35004KT 10SM CLR 35/20 A2996 10 40 2300 350/04 RMK AO2 T03500200
13976KLFT LFT20190906171510209/06/19 17:15:31  5-MIN KLFT 062315Z 34006KT 10SM CLR 35/20 A2996 10 40 2300 340/06 RMK AO2 T03500200
13976KLFT LFT20190906172010209/06/19 17:20:31  5-MIN KLFT 062320Z 35003KT 10SM CLR 35/19 A2996 10 39 2300 350/03 RMK AO2 T03500194
13976KLFT LFT20190906172510209/06/19 17:25:31  5-MIN KLFT 062325Z 32005KT 10SM CLR 35/19 A2996 10 39 2300 320/05 RMK AO2 T03500194
13976KLFT LFT20190906173010209/06/19 17:30:31  5-MIN KLFT 062330Z 33004KT 10SM CLR 34/20 A2996 10 42 2300 330/04 RMK AO2 T03440200
13976KLFT LFT20190906173510209/06/19 17:35:31  5-MIN KLFT 062335Z 33004KT 10SM CLR 34/20 A2996 10 42 2300 330/04 RMK AO2 T03440200
13976KLFT LFT20190906174010209/06/19 17:40:31  5-MIN KLFT 062340Z 33004KT 10SM CLR 34/20 A2996 10 42 2300 330/04 RMK AO2 T03440200
13976KLFT LFT20190906174510209/06/19 17:45:31  5-MIN KLFT 062345Z 34004KT 10SM CLR 34/20 A2996 10 42 2300 340/04 RMK AO2 T03440200
13976KLFT LFT20190906175012709/06/19 17:50:31  5-MIN KLFT 062350Z 34004KT 10SM CLR 34/20 A2996 10 43 2200 340/04 RMK AO2 SLP145 T03390200 10361 20339 58020
13976KLFT LFT20190906175510209/06/19 17:55:31  5-MIN KLFT 062355Z 36003KT 10SM CLR 34/19 A2996 10 40 2300 360/03 RMK AO2 T03440194
13976KLFT LFT20190906180010209/06/19 18:00:31  5-MIN KLFT 070000Z 00000KT 10SM CLR 34/19 A2996 10 42 2200 000/00 RMK AO2 T03390194
13976KLFT LFT20190906180510209/06/19 18:05:31  5-MIN KLFT 070005Z 00000KT 10SM CLR 33/21 A2996 10 49 2100 000/00 RMK AO2 T03280211
13976KLFT LFT20190906181010209/06/19 18:10:31  5-MIN KLFT 070010Z 00000KT 10SM CLR 32/23 A2996 10 61 2000 000/00 RMK AO2 T03170233
13976KLFT LFT20190906181510209/06/19 18:15:31  5-MIN KLFT 070015Z 00000KT 10SM CLR 31/23 A2996 10 63 1900 000/00 RMK AO2 T03110233
13976KLFT LFT20190906182010209/06/19 18:20:31  5-MIN KLFT 070020Z 00000KT 10SM CLR 31/24 A2996 10 67 1800 000/00 RMK AO2 T03060239
13976KLFT LFT20190906182510209/06/19 18:25:31  5-MIN KLFT 070025Z 00000KT 10SM CLR 30/25 A2996 10 74 1800 000/00 RMK AO2 T03000250
13976KLFT LFT20190910041511109/10/19 04:15:31  5-MIN KLFT 101015Z 00000KT 8SM FEW031 BKN049 23/22 A3007 -90 93 900 000/00 RMK AO2 T02330222
13976KLFT LFT20190910042011109/10/19 04:20:31  5-MIN KLFT 101020Z 00000KT 8SM SCT031 BKN049 23/22 A3007 -90 93 900 000/00 RMK AO2 T02330222
13976KLFT LFT20190910042511109/10/19 04:25:31  5-MIN KLFT 101025Z 00000KT 8SM FEW031 BKN047 23/22 A3007 -90 93 900 000/00 RMK AO2 T02330222
13976KLFT LFT20190910043011109/10/19 04:30:31  5-MIN KLFT 101030Z 00000KT 8SM FEW031 SCT047 23/22 A3007 -90 93 900 000/00 RMK AO2 T02330222
13976KLFT LFT20190910043511209/10/19 04:35:31  5-MIN KLFT 101035Z 00000KT 8SM FEW031 FEW050 24/22 A3007 -90 90 1000 000/00 RMK AO2 T02390222
13976KLFT LFT20190910044010409/10/19 04:40:31  5-MIN KLFT 101040Z 00000KT 7SM FEW031 23/22 A3007 -90 93 900 000/00 RMK AO2 T02330222
13976KLFT LFT20190910044510409/10/19 04:45:31  5-MIN KLFT 101045Z 00000KT 7SM FEW031 23/22 A3007 -90 93 900 000/00 RMK AO2 T02330222
13976KLFT LFT20190910045011109/10/19 04:50:31  5-MIN KLFT 101050Z 00000KT 7SM FEW036 23/22 A3008 -90 93 900 000/00 RMK AO2 SLP184 T02330222
13976KLFT LFT20190910045510509/10/19 04:55:31  5-MIN KLFT 101055Z 00000KT 7SM FEW036 23/22 A3008 -100 93 900 000/00 RMK AO2 T02330222
13976KLFT LFT20190910050010509/10/19 05:00:31  5-MIN KLFT 101100Z 00000KT 7SM FEW036 23/22 A3008 -100 93 900 000/00 RMK AO2 T02330222
13976KLFT LFT20190910050510509/10/19 05:05:31  5-MIN KLFT 101105Z 00000KT 7SM FEW034 23/22 A3008 -100 93 900 000/00 RMK AO2 T02330222
13976KLFT LFT20190910051010509/10/19 05:10:31  5-MIN KLFT 101110Z 03003KT 7SM FEW034 23/22 A3008 -100 93 900 030/03 RMK AO2 T02330222
13976KLFT LFT20190910051510809/10/19 05:15:31  5-MIN KLFT 101115Z 00000KT 6SM BR FEW035 23/22 A3008 -100 93 900 000/00 RMK AO2 T02330222
13976KLFT LFT20190910052010509/10/19 05:20:31  5-MIN KLFT 101120Z 00000KT 7SM FEW035 23/22 A3009 -100 93 900 000/00 RMK AO2 T02330222
13976KLFT LFT20190910052510509/10/19 05:25:31  5-MIN KLFT 101125Z 00000KT 7SM FEW035 23/22 A3009 -110 93 900 000/00 RMK AO2 T02330222
13976KLFT LFT20190910053010509/10/19 05:30:31  5-MIN KLFT 101130Z 00000KT 7SM FEW035 23/22 A3009 -110 93 900 000/00 RMK AO2 T02330222
13976KLFT LFT20190910053510509/10/19 05:35:31  5-MIN KLFT 101135Z 00000KT 7SM FEW036 23/22 A3009 -110 93 900 000/00 RMK AO2 T02330222
13976KLFT LFT20190910054010509/10/19 05:40:31  5-MIN KLFT 101140Z 03003KT 8SM FEW036 23/22 A3009 -110 93 900 030/03 RMK AO2 T02330222
13976KLFT LFT20190910054510509/10/19 05:45:31  5-MIN KLFT 101145Z 00000KT 8SM FEW036 23/22 A3009 -110 93 900 000/00 RMK AO2 T02330222
13976KLFT LFT20190910055013309/10/19 05:50:31  5-MIN KLFT 101150Z 00000KT 7SM CLR 23/22 A3009 -110 93 900 000/00 RMK AO2 SLP190 70030 T02330222 10244 20233 58003
13976KLFT LFT20190910055510509/10/19 05:55:31  5-MIN KLFT 101155Z 00000KT 6SM BR CLR 23/22 A3009 -110 93 900 000/00 RMK AO2 T02330222
13976KLFT LFT20190910060010509/10/19 06:00:31  5-MIN KLFT 101200Z 00000KT 5SM BR CLR 23/22 A3010 -110 93 900 000/00 RMK AO2 T02330222
13976KLFT LFT20190910060510809/10/19 06:05:31  5-MIN KLFT 101205Z 00000KT 5SM BR FEW040 23/22 A3010 -110 93 900 000/00 RMK AO2 T02330222
13976KLFT LFT20190910061010809/10/19 06:10:31  5-MIN KLFT 101210Z 00000KT 5SM BR FEW040 23/22 A3010 -120 93 900 000/00 RMK AO2 T02330222
13976KLFT LFT20190910061510809/10/19 06:15:31  5-MIN KLFT 101215Z 05003KT 5SM BR FEW040 23/22 A3010 -120 93 900 050/03 RMK AO2 T02330222
13976KLFT LFT20190910062010809/10/19 06:20:31  5-MIN KLFT 101220Z 00000KT 5SM BR FEW040 23/22 A3010 -120 93 900 000/00 RMK AO2 T02330222
13976KLFT LFT20190910062510809/10/19 06:25:31  5-MIN KLFT 101225Z 00000KT 5SM BR FEW040 24/23 A3010 -120 93 900 000/00 RMK AO2 T02390228
13976KLFT LFT20190910063010809/10/19 06:30:31  5-MIN KLFT 101230Z 00000KT 5SM BR FEW040 24/23 A3011 -120 93 900 000/00 RMK AO2 T02390228
13976KLFT LFT20190910063510809/10/19 06:35:31  5-MIN KLFT 101235Z 00000KT 5SM BR FEW040 24/23 A3011 -120 93 900 000/00 RMK AO2 T02390228
13976KLFT LFT20190910064010809/10/19 06:40:31  5-MIN KLFT 101240Z 06003KT 5SM BR FEW040 24/23 A3011 -130 93 900 060/03 RMK AO2 T02390228
13976KLFT LFT20190910064510809/10/19 06:45:31  5-MIN KLFT 101245Z 06003KT 5SM BR FEW040 24/23 A3011 -130 93 900 060/03 RMK AO2 T02390228
13976KLFT LFT20190910065011509/10/19 06:50:31  5-MIN KLFT 101250Z 07004KT 5SM BR FEW040 24/23 A3011 -130 93 900 070/04 RMK AO2 SLP196 T02390228
13976KLFT LFT20190910065510609/10/19 06:55:31  5-MIN KLFT 101255Z 07003KT 5SM BR CLR 24/23 A3011 -130 90 1000 070/03 RMK AO2 T02440228
13976KLFT LFT20190910070010609/10/19 07:00:31  5-MIN KLFT 101300Z 06004KT 5SM BR CLR 24/23 A3011 -130 90 1000 050/04 RMK AO2 T02440228
13976KLFT LFT20190910070510609/10/19 07:05:31  5-MIN KLFT 101305Z 06004KT 6SM BR CLR 24/23 A3011 -130 90 1000 060/04 RMK AO2 T02440228
13976KLFT LFT20190910071010609/10/19 07:10:31  5-MIN KLFT 101310Z 07004KT 6SM BR CLR 25/23 A3011 -130 87 1000 070/04 RMK AO2 T02500228
13976KLFT LFT20190910071510609/10/19 07:15:31  5-MIN KLFT 101315Z VRB03KT 6SM BR CLR 25/23 A3012 -130 90 1000 VRB/03 RMK AO2 T02500233
13976KLFT LFT20190910072010609/10/19 07:20:31  5-MIN KLFT 101320Z VRB03KT 6SM BR CLR 25/23 A3012 -130 87 1000 VRB/03 RMK AO2 T02500228
13976KLFT LFT20190910072510309/10/19 07:25:31  5-MIN KLFT 101325Z 07005KT 7SM CLR 26/23 A3012 -130 87 1100 070/05 RMK AO2 T02560233
13976KLFT LFT20190910073010309/10/19 07:30:31  5-MIN KLFT 101330Z 08004KT 7SM CLR 26/23 A3012 -130 87 1100 080/04 RMK AO2 T02560233
13976KLFT LFT20190910073510309/10/19 07:35:31  5-MIN KLFT 101335Z VRB03KT 7SM CLR 26/23 A3012 -140 84 1200 VRB/03 RMK AO2 T02610233
13976KLFT LFT20190910074010309/10/19 07:40:31  5-MIN KLFT 101340Z 07005KT 8SM CLR 26/23 A3012 -140 84 1200 070/05 RMK AO2 T02610233
13976KLFT LFT20190910074510309/10/19 07:45:31  5-MIN KLFT 101345Z VRB03KT 8SM CLR 26/23 A3012 -140 84 1200 VRB/03 RMK AO2 T02610233
13976KLFT LFT20190910075011009/10/19 07:50:31  5-MIN KLFT 101350Z 07003KT 9SM CLR 27/24 A3012 -140 84 1200 070/03 RMK AO2 SLP200 T02670239
13976KLFT LFT20190910075510309/10/19 07:55:31  5-MIN KLFT 101355Z 07005KT 9SM CLR 27/24 A3012 -140 84 1200 070/05 RMK AO2 T02670239
13976KLFT LFT20190910080010309/10/19 08:00:31  5-MIN KLFT 101400Z 08004KT 9SM CLR 27/23 A3013 -140 82 1200 080/04 RMK AO2 T02670233
13976KLFT LFT20190910080510409/10/19 08:05:31  5-MIN KLFT 101405Z VRB04KT 10SM CLR 27/24 A3013 -140 82 1300 VRB/04 RMK AO2 T02720239
13976KLFT LFT20190910081010409/10/19 08:10:31  5-MIN KLFT 101410Z 09004KT 10SM CLR 27/24 A3013 -140 82 1300 090/04 RMK AO2 T02720239
13976KLFT LFT20190910081510409/10/19 08:15:31  5-MIN KLFT 101415Z VRB03KT 10SM CLR 28/24 A3013 -140 79 1300 VRB/03 RMK AO2 T02780239
13976KLFT LFT20190910082010409/10/19 08:20:31  5-MIN KLFT 101420Z 00000KT 10SM CLR 28/24 A3013 -140 76 1400 000/00 RMK AO2 T02830239
13976KLFT LFT20190910082510409/10/19 08:25:31  5-MIN KLFT 101425Z 00000KT 10SM CLR 28/24 A3013 -140 79 1300 000/00 RMK AO2 T02780239
13976KLFT LFT20190910083010409/10/19 08:30:31  5-MIN KLFT 101430Z VRB03KT 10SM CLR 28/24 A3013 -140 79 1400 VRB/03 RMK AO2 T02830244
13976KLFT LFT20190910083510409/10/19 08:35:31  5-MIN KLFT 101435Z 09003KT 10SM CLR 29/24 A3013 -140 76 1500 090/03 RMK AO2 T02890244
13976KLFT LFT20190910084010409/10/19 08:40:31  5-MIN KLFT 101440Z VRB04KT 10SM CLR 29/24 A3013 -140 76 1500 VRB/04 RMK AO2 T02890244
13976KLFT LFT20190910084510409/10/19 08:45:31  5-MIN KLFT 101445Z VRB04KT 10SM CLR 29/24 A3013 -140 76 1500 VRB/04 RMK AO2 T02890244
13976KLFT LFT20190910085011709/10/19 08:50:31  5-MIN KLFT 101450Z 08004KT 10SM CLR 29/24 A3013 -140 74 1500 080/04 RMK AO2 SLP202 T02890239 53012
13976KLFT LFT20190910085510409/10/19 08:55:31  5-MIN KLFT 101455Z VRB03KT 10SM CLR 29/24 A3013 -140 74 1500 VRB/03 RMK AO2 T02940244
13976KLFT LFT20190910090010409/10/19 09:00:31  5-MIN KLFT 101500Z VRB05KT 10SM CLR 29/24 A3013 -150 74 1500 VRB/05 RMK AO2 T02940244
13976KLFT LFT20190910090510409/10/19 09:05:31  5-MIN KLFT 101505Z 09004KT 10SM CLR 29/24 A3013 -150 71 1500 090/04 RMK AO2 T02940239
13976KLFT LFT20190910091010409/10/19 09:10:31  5-MIN KLFT 101510Z 08005KT 10SM CLR 29/24 A3013 -150 74 1500 080/05 RMK AO2 T02940244
13976KLFT LFT20190910091510409/10/19 09:15:31  5-MIN KLFT 101515Z VRB04KT 10SM CLR 30/24 A3013 -150 72 1600 VRB/04 RMK AO2 T03000244
13976KLFT LFT20190910092010409/10/19 09:20:31  5-MIN KLFT 101520Z VRB05KT 10SM CLR 30/24 A3014 -150 69 1600 VRB/05 RMK AO2 T03000239
13976KLFT LFT20190910092510409/10/19 09:25:31  5-MIN KLFT 101525Z 10005KT 10SM CLR 30/24 A3014 -150 69 1600 100/05 RMK AO2 T03000239
13976KLFT LFT20190910093010709/10/19 09:30:31  5-MIN KLFT 101530Z VRB04KT 10SM FEW024 30/24 A3014 -150 69 1600 VRB/04 RMK AO2 T03000239
13976KLFT LFT20190910093510709/10/19 09:35:31  5-MIN KLFT 101535Z VRB04KT 10SM FEW024 31/24 A3013 -150 67 1600 VRB/04 RMK AO2 T03060239
13976KLFT LFT20190910094010409/10/19 09:40:31  5-MIN KLFT 101540Z VRB05KT 10SM CLR 31/24 A3013 -150 67 1600 VRB/05 RMK AO2 T03060239
13976KLFT LFT20190910094510709/10/19 09:45:31  5-MIN KLFT 101545Z 14006KT 10SM FEW027 30/23 A3013 -150 67 1600 140/06 RMK AO2 T03000233
13976KLFT LFT20190910095009709/10/19 09:50:31  5-MIN KLFT 101550Z VRB04KT 10SM BKN029 31/23 A3013 -150 65 1600 VRB/04 RMK AO2
13976KLFT LFT20190910095510709/10/19 09:55:31  5-MIN KLFT 101555Z VRB04KT 10SM BKN029 31/23 A3013 -150 65 1600 VRB/04 RMK AO2 T03060233
13976KLFT LFT20190910100010709/10/19 10:00:31  5-MIN KLFT 101600Z 14005KT 10SM BKN029 31/23 A3013 -150 65 1600 140/05 RMK AO2 T03060233
13976KLFT LFT20190910100510709/10/19 10:05:31  5-MIN KLFT 101605Z 13004KT 10SM BKN029 31/23 A3013 -150 65 1600 130/04 RMK AO2 T03060233
13976KLFT LFT20190910101010709/10/19 10:10:31  5-MIN KLFT 101610Z VRB04KT 10SM BKN029 31/23 A3013 -150 63 1700 VRB/04 RMK AO2 T03110233
13976KLFT LFT20190910101510709/10/19 10:15:31  5-MIN KLFT 101615Z 08005KT 10SM BKN029 31/23 A3013 -140 63 1700 080/05 RMK AO2 T03110233
13976KLFT LFT20190910102010709/10/19 10:20:31  5-MIN KLFT 101620Z VRB04KT 10SM BKN029 31/23 A3013 -140 63 1700 VRB/04 RMK AO2 T03110233
13976KLFT LFT20190910102510709/10/19 10:25:31  5-MIN KLFT 101625Z VRB05KT 10SM BKN029 31/23 A3013 -140 60 1700 VRB/05 RMK AO2 T03110228
13976KLFT LFT20190910103010709/10/19 10:30:31  5-MIN KLFT 101630Z VRB05KT 10SM BKN029 32/23 A3013 -140 58 1800 VRB/05 RMK AO2 T03170228
13976KLFT LFT20190910103510709/10/19 10:35:31  5-MIN KLFT 101635Z VRB05KT 10SM BKN029 32/23 A3013 -140 58 1800 VRB/05 RMK AO2 T03170228
13976KLFT LFT20190910104010709/10/19 10:40:31  5-MIN KLFT 101640Z 00000KT 10SM BKN029 32/23 A3013 -140 58 1800 000/00 RMK AO2 T03170228
13976KLFT LFT20190910104510709/10/19 10:45:31  5-MIN KLFT 101645Z 00000KT 10SM BKN029 32/23 A3013 -140 61 1800 000/00 RMK AO2 T03170233
13976KLFT LFT20190910105010409/10/19 10:50:31  5-MIN KLFT 101650Z VRB03KT 10SM BKN034 BKN050 32/23 A3013 -140 58 1800 VRB/03 RMK AO2
13976KLFT LFT20190910105512109/10/19 10:55:31  5-MIN KLFT 101655Z VRB05KT 10SM FEW034 SCT050 BKN060 32/23 A3013 -140 59 1800 VRB/05 RMK AO2 T03220233
13976KLFT LFT20190910110011409/10/19 11:00:31  5-MIN KLFT 101700Z 10004KT 10SM FEW036 BKN055 32/22 A3013 -140 56 1800 100/04 RMK AO2 T03170222
13976KLFT LFT20190910110511409/10/19 11:05:31  5-MIN KLFT 101705Z VRB03KT 10SM FEW036 BKN055 32/23 A3013 -140 58 1800 VRB/03 RMK AO2 T03170228
13976KLFT LFT20190910111012109/10/19 11:10:31  5-MIN KLFT 101710Z VRB05KT 10SM FEW038 BKN049 BKN060 31/22 A3013 -140 58 1700 VRB/05 RMK AO2 T03110222
13976KLFT LFT20190910111511409/10/19 11:15:31  5-MIN KLFT 101715Z 11004KT 10SM SCT049 BKN060 32/23 A3012 -140 58 1800 110/04 RMK AO2 T03170228
13976KLFT LFT20190910112011409/10/19 11:20:31  5-MIN KLFT 101720Z VRB03KT 10SM FEW049 BKN060 32/23 A3012 -140 58 1800 VRB/03 RMK AO2 T03170228
13976KLFT LFT20190910112512109/10/19 11:25:31  5-MIN KLFT 101725Z VRB04KT 10SM FEW038 FEW049 BKN060 32/23 A3012 -140 58 1800 VRB/04 RMK AO2 T03170228
13976KLFT LFT20190910113012109/10/19 11:30:31  5-MIN KLFT 101730Z 14003KT 10SM FEW040 SCT049 BKN060 32/22 A3012 -140 56 1800 140/03 RMK AO2 T03170222
13976KLFT LFT20190910113511409/10/19 11:35:31  5-MIN KLFT 101735Z VRB04KT 10SM SCT049 BKN060 32/22 A3012 -140 56 1800 VRB/04 RMK AO2 T03170222
13976KLFT LFT20190910114011409/10/19 11:40:31  5-MIN KLFT 101740Z VRB03KT 10SM FEW043 BKN055 32/22 A3012 -140 56 1800 VRB/03 RMK AO2 T03170222
13976KLFT LFT20190910114511409/10/19 11:45:31  5-MIN KLFT 101745Z 14003KT 10SM SCT043 BKN050 32/23 A3012 -140 57 1800 140/03 RMK AO2 T03220228
13976KLFT LFT20190910115013209/10/19 11:50:31  5-MIN KLFT 101750Z 18006KT 10SM BKN043 33/23 A3012 -140 55 1900 180/06 RMK AO2 SLP199 T03280228 10328 20233 51012
13976KLFT LFT20190910115511409/10/19 11:55:31  5-MIN KLFT 101755Z VRB03KT 10SM SCT043 BKN050 33/23 A3012 -140 55 1900 VRB/03 RMK AO2 T03280228
13976KLFT LFT20190910120011409/10/19 12:00:31  5-MIN KLFT 101800Z VRB03KT 10SM SCT041 BKN055 32/23 A3012 -140 57 1800 VRB/03 RMK AO2 T03220228
13976KLFT LFT20190910120511409/10/19 12:05:31  5-MIN KLFT 101805Z VRB05KT 10SM FEW041 BKN055 33/23 A3012 -130 55 1900 VRB/05 RMK AO2 T03280228
13976KLFT LFT20190910121011409/10/19 12:10:31  5-MIN KLFT 101810Z VRB05KT 10SM FEW041 SCT055 32/23 A3012 -130 57 1800 VRB/05 RMK AO2 T03220228
13976KLFT LFT20190910121511409/10/19 12:15:31  5-MIN KLFT 101815Z VRB03KT 10SM FEW041 BKN060 32/23 A3012 -140 58 1800 VRB/03 RMK AO2 T03170228
13976KLFT LFT20190910122011409/10/19 12:20:31  5-MIN KLFT 101820Z 13003KT 10SM FEW044 BKN060 32/22 A3012 -140 56 1800 130/03 RMK AO2 T03170222
13976KLFT LFT20190910122511409/10/19 12:25:31  5-MIN KLFT 101825Z 00000KT 10SM BKN050 BKN060 32/23 A3012 -140 58 1800 000/00 RMK AO2 T03170228
13976KLFT LFT20190910123012109/10/19 12:30:31  5-MIN KLFT 101830Z 00000KT 10SM FEW041 BKN050 BKN060 32/23 A3012 -140 58 1800 000/00 RMK AO2 T03170228
13976KLFT LFT20190910123512109/10/19 12:35:31  5-MIN KLFT 101835Z VRB03KT 10SM FEW041 BKN050 OVC060 32/23 A3012 -140 58 1800 VRB/03 RMK AO2 T03170228
13976KLFT LFT20190910124011409/10/19 12:40:31  5-MIN KLFT 101840Z 11003KT 10SM FEW041 OVC055 32/23 A3012 -140 58 1800 110/03 RMK AO2 T03170228
13976KLFT LFT20190910124511409/10/19 12:45:31  5-MIN KLFT 101845Z 11003KT 10SM SCT045 OVC055 32/23 A3012 -140 58 1800 110/03 RMK AO2 T03170228
13976KLFT LFT20190910125012109/10/19 12:50:31  5-MIN KLFT 101850Z 00000KT 10SM SCT035 BKN050 32/23 A3012 -140 58 1800 000/00 RMK AO2 SLP199 T03170228
13976KLFT LFT20190910125511409/10/19 12:55:31  5-MIN KLFT 101855Z 00000KT 10SM BKN045 OVC055 32/23 A3012 -130 57 1800 000/00 RMK AO2 T03220228
13976KLFT LFT20190910130012109/10/19 13:00:31  5-MIN KLFT 101900Z VRB03KT 10SM SCT045 BKN055 OVC070 32/23 A3012 -130 57 1800 VRB/03 RMK AO2 T03220228
13976KLFT LFT20190910130512109/10/19 13:05:31  5-MIN KLFT 101905Z VRB05KT 10SM SCT043 BKN050 OVC060 33/23 A3012 -130 55 1900 VRB/05 RMK AO2 T03280228
13976KLFT LFT20190910131012109/10/19 13:10:31  5-MIN KLFT 101910Z VRB03KT 10SM BKN043 BKN050 OVC060 33/23 A3011 -130 55 1900 VRB/03 RMK AO2 T03280228
13976KLFT LFT20190910131511409/10/19 13:15:31  5-MIN KLFT 101915Z 08004KT 10SM BKN043 OVC055 32/23 A3011 -130 57 1800 080/04 RMK AO2 T03220228
13976KLFT LFT20190910132011409/10/19 13:20:31  5-MIN KLFT 101920Z VRB03KT 10SM BKN045 OVC060 33/23 A3011 -130 55 1900 VRB/03 RMK AO2 T03280228
13976KLFT LFT20190910132512609/10/19 13:25:31  5-MIN KLFT 101925Z AUTO 16006KT 10SM BKN043 BKN050 BKN060 32/23 A3011 -120 57 1800 160/06 RMK AO2 T03220228
13976KLFT LFT20190910133011209/10/19 13:30:31  5-MIN KLFT 101930Z AUTO 17007KT 10SM BKN045 32/23 A3010 -120 57 1900 170/07 RMK AO2 T03220228
13976KLFT LFT20190910133512609/10/19 13:35:31  5-MIN KLFT 101935Z AUTO 00000KT 10SM SCT045 BKN055 BKN085 32/22 A3010 -120 56 1800 000/00 RMK AO2 T03170222
13976KLFT LFT20190910134012609/10/19 13:40:31  5-MIN KLFT 101940Z AUTO 00000KT 10SM SCT044 SCT090 BKN110 32/23 A3010 -120 58 1800 000/00 RMK AO2 T03170228
13976KLFT LFT20190910134512609/10/19 13:45:31  5-MIN KLFT 101945Z AUTO 18003KT 10SM FEW044 SCT090 SCT110 32/22 A3010 -110 55 1900 180/03 RMK AO2 T03220222
13976KLFT LFT20190910135012609/10/19 13:50:31  5-MIN KLFT 101950Z AUTO VRB03KT 10SM SCT044 SCT100 32/23 A3010 -110 57 1900 VRB/03 RMK AO2 SLP191 T03220228
13976KLFT LFT20190910135512609/10/19 13:55:31  5-MIN KLFT 101955Z AUTO VRB03KT 10SM SCT044 SCT075 BKN100 33/23 A3009 -110 57 1900 VRB/03 RMK AO2 T03280233
13976KLFT LFT20190910140012609/10/19 14:00:31  5-MIN KLFT 102000Z AUTO VRB04KT 10SM FEW046 SCT060 BKN075 33/23 A3009 -110 53 2000 VRB/04 RMK AO2 T03330228
13976KLFT LFT20190910140512609/10/19 14:05:31  5-MIN KLFT 102005Z AUTO VRB03KT 10SM SCT046 BKN070 BKN100 33/23 A3009 -110 53 2000 VRB/03 RMK AO2 T03330228
13976KLFT LFT20190910141013009/10/19 14:10:31  5-MIN KLFT 102010Z AUTO VRB04KT 10SM BKN045 BKN075 33/23 A3009 -100 55 2000 VRB/04 RMK AO2 LTG DSNT W T03330233
13976KLFT LFT20190910141514409/10/19 14:15:31  5-MIN KLFT 102015Z 12004KT 10SM VCTS BKN045 BKN055 BKN085 33/23 A3008 -100 55 1900 120/04 RMK AO2 LTG DSNT SE AND W T03280228
13976KLFT LFT20190910142014409/10/19 14:20:31  5-MIN KLFT 102020Z VRB04KT 10SM VCTS SCT045 BKN055 OVC085 32/23 A3008 -100 57 1900 VRB/04 RMK AO2 LTG DSNT SE AND W T03220228
13976KLFT LFT20190910142514409/10/19 14:25:31  5-MIN KLFT 102025Z VRB03KT 10SM VCTS FEW044 SCT055 BKN065 33/23 A3008 -100 55 1900 VRB/03 RMK AO2 LTG DSNT SE AND W T03280228
13976KLFT LFT20190910143014409/10/19 14:30:31  5-MIN KLFT 102030Z 00000KT 10SM VCTS FEW044 SCT055 BKN080 32/23 A3008 -100 57 1900 000/00 RMK AO2 LTG DSNT SE AND W T03220228
13976KLFT LFT20190910143513709/10/19 14:35:31  5-MIN KLFT 102035Z 00000KT 10SM VCTS FEW044 SCT055 BKN085 32/23 A3008 -100 57 1900 000/00 RMK AO2 LTG DSNT W T03220228
13976KLFT LFT20190910144013909/10/19 14:40:31  5-MIN KLFT 102040Z 00000KT 10SM FEW044 BKN055 BKN085 32/23 A3008 -100 58 1800 000/00 RMK AO2 LTG DSNT SE AND W T03170228
13976KLFT LFT20190910144515509/10/19 14:45:31  5-MIN KLFT 102045Z VRB04KT 10SM -RA SCT044 BKN055 BKN080 32/23 A3008 -100 58 1800 VRB/04 RMK AO2 LTG DSNT SE AND W RAB44 P0000 T03170228
13976KLFT LFT20190910145015209/10/19 14:50:31  5-MIN KLFT 102050Z 12006KT 9SM -TSRA BKN044 BKN055 BKN080 31/23 A3009 -100 65 1700 120/06 RMK AO2 LTG DSNT SE AND W RAB44 TSB50 P0001
13976KLFT LFT20190910145514309/10/19 14:55:31  5-MIN KLFT 102055Z 03013KT 4SM +TSRA BKN044 BKN055 28/23 A3009 -100 74 1400 030/13 RMK AO2 LTG DSNT SE AND W P0000 T02830233
13976KLFT LFT20190910150014909/10/19 15:00:31  5-MIN KLFT 102100Z 01008G16KT 3SM -TSRA BKN044 OVC055 29/23 A3009 -110 71 1500 010/08G16 RMK AO2 LTG DSNT SE AND W P0001 T02890233
13976KLFT LFT20190910150513609/10/19 15:05:31  5-MIN KLFT 102105Z 02006KT 8SM -TSRA OVC043 28/23 A3009 -110 74 1400 020/06 RMK AO2 LTG DSNT SE AND W P0001 T02830233
13976KLFT LFT20190910151014009/10/19 15:10:31  5-MIN KLFT 102110Z 36007KT 10SM TS OVC043 28/24 A3009 -100 76 1400 360/07 RMK AO2 LTG DSNT SE AND W RAE09 P0001 T02830239
13976KLFT LFT20190910151514009/10/19 15:15:31  5-MIN KLFT 102115Z 36004KT 10SM TS OVC043 29/23 A3009 -110 67 1600 350/04 RMK AO2 LTG DSNT SE AND W RAE09 P0001 T02940228
13976KLFT LFT20190910152016109/10/19 15:20:31  5-MIN KLFT 102120Z VRB04KT 10SM TS BKN043 BKN065 OVC100 29/23 A3009 -110 69 1600 VRB/04 RMK AO2 LTG DSNT N AND SE AND NW RAE09 P0001 T02940233
13976KLFT LFT20190910152516109/10/19 15:25:31  5-MIN KLFT 102125Z 36007KT 10SM TS BKN043 BKN050 BKN100 29/23 A3009 -110 69 1600 360/07 RMK AO2 LTG DSNT N AND SE AND NW RAE09 P0001 T02940233
13976KLFT LFT20190910153015109/10/19 15:30:31  5-MIN KLFT 102130Z 04006KT 10SM TS SCT043 BKN050 BKN060 29/24 A3009 -110 74 1500 040/06 RMK AO2 LTG DSNT ALQDS RAE09 P0001 T02890239
13976KLFT LFT20190910153516109/10/19 15:35:31  5-MIN KLFT 102135Z 02008KT 10SM TS FEW043 SCT050 BKN090 28/23 A3009 -110 74 1400 020/08 RMK AO2 LTG DSNT E AND SE AND NW RAE09 P0001 T02830233
13976KLFT LFT20190910154016109/10/19 15:40:31  5-MIN KLFT 102140Z 02006KT 10SM TS FEW045 SCT060 BKN090 28/23 A3009 -110 76 1400 020/06 RMK AO2 LTG DSNT E AND SE AND NW RAE09 P0001 T02780233
13976KLFT LFT20190910154516109/10/19 15:45:31  5-MIN KLFT 102145Z 01006KT 10SM TS FEW043 SCT050 BKN090 28/23 A3009 -110 74 1400 360/06 RMK AO2 LTG DSNT E AND SE AND NW RAE09 P0001 T02830233
13976KLFT LFT20190910155016209/10/19 15:50:31  5-MIN KLFT 102150Z VRB03KT 10SM TS FEW045 SCT055 BKN070 28/24 A3009 -110 76 1400 VRB/03 RMK AO2 LTG DSNT SE AND NW RAE09 SLP189 P0001 T02830239
13976KLFT LFT20190910155514509/10/19 15:55:31  5-MIN KLFT 102155Z 00000KT 10SM VCTS SCT040 SCT050 BKN070 28/24 A3009 -110 76 1400 000/00 RMK AO2 LTG DSNT SE AND NW T02830239
13976KLFT LFT20190910160014509/10/19 16:00:31  5-MIN KLFT 102200Z VRB03KT 10SM VCTS SCT043 SCT055 BKN090 28/24 A3009 -110 76 1400 VRB/03 RMK AO2 LTG DSNT SE AND NW T02830239
13976KLFT LFT20190910160514009/10/19 16:05:31  5-MIN KLFT 102205Z 00000KT 10SM FEW041 SCT070 SCT090 29/24 A3009 -110 76 1500 000/00 RMK AO2 LTG DSNT SE AND NW T02890244
13976KLFT LFT20190910161013309/10/19 16:10:31  5-MIN KLFT 102210Z VRB03KT 10SM FEW041 FEW050 SCT070 29/24 A3009 -110 74 1600 VRB/03 RMK AO2 LTG DSNT NW T02940244
13976KLFT LFT20190912000510909/12/19 00:05:31  5-MIN KLFT 120605Z AUTO 05003KT 10SM CLR 24/23 A3008 -100 90 1000 050/03 RMK AO2 T02440228
13976KLFT LFT20190912001010809/12/19 00:10:31  5-MIN KLFT 120610Z AUTO 06003KT 9SM CLR 24/23 A3008 -100 93 1000 050/03 RMK AO2 T02440233
13976KLFT LFT20190912001510809/12/19 00:15:31  5-MIN KLFT 120615Z AUTO 06004KT 9SM CLR 24/23 A3008 -100 93 1000 050/04 RMK AO2 T02440233
13976KLFT LFT20190912002010809/12/19 00:20:31  5-MIN KLFT 120620Z AUTO 00000KT 9SM CLR 24/23 A3008 -100 93 1000 000/00 RMK AO2 T02440233
13976KLFT LFT20190912002510809/12/19 00:25:31  5-MIN KLFT 120625Z AUTO 00000KT 9SM CLR 24/23 A3008 -100 93 1000 000/00 RMK AO2 T02440233
13976KLFT LFT20190912003010809/12/19 00:30:31  5-MIN KLFT 120630Z AUTO 00000KT 9SM CLR 24/23 A3008 -100 93 1000 000/00 RMK AO2 T02440233
13976KLFT LFT20190912003510809/12/19 00:35:31  5-MIN KLFT 120635Z AUTO 00000KT 9SM CLR 24/23 A3008 -100 93 1000 000/00 RMK AO2 T02440233
13976KLFT LFT20190912004010709/12/19 00:40:31  5-MIN KLFT 120640Z AUTO 00000KT 9SM CLR 24/23 A3008 -90 93 1000 000/00 RMK AO2 T02440233
13976KLFT LFT20190912004510809/12/19 00:45:31  5-MIN KLFT 120645Z AUTO 00000KT 9SM CLR 24/23 A3008 -100 93 1000 000/00 RMK AO2 T02440233
13976KLFT LFT20190912005011409/12/19 00:50:31  5-MIN KLFT 120650Z AUTO 00000KT 8SM CLR 24/23 A3008 -100 93 900 000/00 RMK AO2 SLP184 T02390228
13976KLFT LFT20190912005510709/12/19 00:55:31  5-MIN KLFT 120655Z AUTO 00000KT 7SM CLR 24/23 A3007 -90 93 1000 000/00 RMK AO2 T02390228
13976KLFT LFT20190912010010709/12/19 01:00:31  5-MIN KLFT 120700Z AUTO 00000KT 7SM CLR 24/23 A3007 -90 93 1000 000/00 RMK AO2 T02390228
13976KLFT LFT20190912010510709/12/19 01:05:31  5-MIN KLFT 120705Z AUTO 00000KT 7SM CLR 24/23 A3007 -90 93 1000 000/00 RMK AO2 T02390228
13976KLFT LFT20190912011010709/12/19 01:10:31  5-MIN KLFT 120710Z AUTO 00000KT 7SM CLR 24/23 A3007 -90 93 1000 000/00 RMK AO2 T02440233
13976KLFT LFT20190912011510709/12/19 01:15:31  5-MIN KLFT 120715Z AUTO 00000KT 8SM CLR 24/23 A3007 -90 93 1000 000/00 RMK AO2 T02440233
13976KLFT LFT20190912012010709/12/19 01:20:31  5-MIN KLFT 120720Z AUTO 00000KT 8SM CLR 24/23 A3007 -80 97 1000 000/00 RMK AO2 T02390233
13976KLFT LFT20190912012510709/12/19 01:25:31  5-MIN KLFT 120725Z AUTO 00000KT 8SM CLR 24/23 A3006 -80 93 1000 000/00 RMK AO2 T02390228
13976KLFT LFT20190912013010709/12/19 01:30:31  5-MIN KLFT 120730Z AUTO 05003KT 8SM CLR 24/23 A3006 -80 93 1000 050/03 RMK AO2 T02390228
13976KLFT LFT20190912013510709/12/19 01:35:31  5-MIN KLFT 120735Z AUTO 00000KT 8SM CLR 24/23 A3006 -80 93 1000 000/00 RMK AO2 T02390228
13976KLFT LFT20190912014010709/12/19 01:40:31  5-MIN KLFT 120740Z AUTO 00000KT 9SM CLR 24/23 A3006 -80 93 1000 000/00 RMK AO2 T02390228
13976KLFT LFT20190912014510709/12/19 01:45:31  5-MIN KLFT 120745Z AUTO 00000KT 8SM CLR 24/23 A3006 -80 93 1000 000/00 RMK AO2 T02390228
13976KLFT LFT20190912015011409/12/19 01:50:31  5-MIN KLFT 120750Z AUTO 00000KT 8SM CLR 24/23 A3006 -80 93 1000 000/00 RMK AO2 SLP178 T02390228
13976KLFT LFT20190912015510709/12/19 01:55:31  5-MIN KLFT 120755Z AUTO 00000KT 8SM CLR 24/23 A3006 -80 93 1000 000/00 RMK AO2 T02390228
13976KLFT LFT20190912020010709/12/19 02:00:31  5-MIN KLFT 120800Z AUTO 00000KT 8SM CLR 24/23 A3005 -70 93 1000 000/00 RMK AO2 T02390228
13976KLFT LFT20190912020510709/12/19 02:05:31  5-MIN KLFT 120805Z AUTO 00000KT 8SM CLR 24/23 A3005 -70 93 1000 000/00 RMK AO2 T02390228
13976KLFT LFT20190912021010709/12/19 02:10:31  5-MIN KLFT 120810Z AUTO 00000KT 7SM CLR 24/23 A3005 -70 93 1000 000/00 RMK AO2 T02390228
13976KLFT LFT20190912021510709/12/19 02:15:31  5-MIN KLFT 120815Z AUTO 00000KT 7SM CLR 24/23 A3005 -70 93 1000 000/00 RMK AO2 T02390228
13976KLFT LFT20190912022010709/12/19 02:20:31  5-MIN KLFT 120820Z AUTO 00000KT 7SM CLR 24/23 A3005 -70 93 1000 000/00 RMK AO2 T02390228
13976KLFT LFT20190912022510709/12/19 02:25:31  5-MIN KLFT 120825Z AUTO 08003KT 7SM CLR 24/23 A3005 -70 93 1000 080/03 RMK AO2 T02390228
13976KLFT LFT20190912023010709/12/19 02:30:31  5-MIN KLFT 120830Z AUTO 08003KT 7SM CLR 24/23 A3005 -70 93 1000 080/03 RMK AO2 T02390228
13976KLFT LFT20190912023510709/12/19 02:35:31  5-MIN KLFT 120835Z AUTO 08003KT 8SM CLR 24/23 A3005 -70 93 1000 080/03 RMK AO2 T02390228
13976KLFT LFT20190912024010709/12/19 02:40:31  5-MIN KLFT 120840Z AUTO 08003KT 9SM CLR 24/23 A3005 -70 93 1000 080/03 RMK AO2 T02390228
13976KLFT LFT20190912024510709/12/19 02:45:31  5-MIN KLFT 120845Z AUTO 00000KT 9SM CLR 24/23 A3005 -70 93 1000 000/00 RMK AO2 T02390228
13976KLFT LFT20190912025012109/12/19 02:50:31  5-MIN KLFT 120850Z AUTO 00000KT 10SM CLR 24/23 A3006 -80 93 1000 000/00 RMK AO2 SLP177 T02390228 58006
13976KLFT LFT20190912025510809/12/19 02:55:31  5-MIN KLFT 120855Z AUTO 00000KT 10SM CLR 24/23 A3006 -80 93 1000 000/00 RMK AO2 T02390228
13976KLFT LFT20190912030010809/12/19 03:00:31  5-MIN KLFT 120900Z AUTO 00000KT 10SM CLR 24/23 A3006 -80 93 1000 000/00 RMK AO2 T02390228
13976KLFT LFT20190912030510809/12/19 03:05:31  5-MIN KLFT 120905Z AUTO 00000KT 10SM CLR 24/23 A3006 -80 93 1000 000/00 RMK AO2 T02390228
13976KLFT LFT20190912031010609/12/19 03:10:31  5-MIN KLFT 120910Z AUTO 00000KT 9SM CLR 23/22 A3005 -70 93 900 000/00 RMK AO2 T02330222
13976KLFT LFT20190912031510709/12/19 03:15:31  5-MIN KLFT 120915Z AUTO 00000KT 10SM CLR 23/22 A3005 -70 93 900 000/00 RMK AO2 T02330222
13976KLFT LFT20190912032010709/12/19 03:20:31  5-MIN KLFT 120920Z AUTO 00000KT 10SM CLR 23/22 A3005 -70 93 900 000/00 RMK AO2 T02330222
13976KLFT LFT20190912032510709/12/19 03:25:31  5-MIN KLFT 120925Z AUTO 00000KT 10SM CLR 23/22 A3005 -70 93 900 000/00 RMK AO2 T02330222
13976KLFT LFT20190912033010709/12/19 03:30:31  5-MIN KLFT 120930Z AUTO 00000KT 10SM CLR 23/22 A3005 -70 93 900 000/00 RMK AO2 T02330222
13976KLFT LFT20190912033510609/12/19 03:35:31  5-MIN KLFT 120935Z AUTO 00000KT 9SM CLR 23/22 A3005 -70 93 900 000/00 RMK AO2 T02330222
13976KLFT LFT20190912034010609/12/19 03:40:31  5-MIN KLFT 120940Z AUTO 00000KT 9SM CLR 23/22 A3005 -70 93 900 000/00 RMK AO2 T02330222
13976KLFT LFT20190912034510609/12/19 03:45:31  5-MIN KLFT 120945Z AUTO 00000KT 9SM CLR 23/22 A3005 -70 93 900 000/00 RMK AO2 T02330222
13976KLFT LFT20190912035011309/12/19 03:50:31  5-MIN KLFT 120950Z AUTO 00000KT 9SM CLR 23/22 A3006 -80 93 900 000/00 RMK AO2 SLP177 T02330222
13976KLFT LFT20190912035510609/12/19 03:55:31  5-MIN KLFT 120955Z AUTO 00000KT 9SM CLR 23/22 A3006 -80 93 900 000/00 RMK AO2 T02330222
13976KLFT LFT20190912040010609/12/19 04:00:31  5-MIN KLFT 121000Z AUTO 08003KT 9SM CLR 23/22 A3006 -80 93 900 080/03 RMK AO2 T02330222
13976KLFT LFT20190912040510609/12/19 04:05:31  5-MIN KLFT 121005Z AUTO 00000KT 9SM CLR 23/22 A3006 -80 93 900 000/00 RMK AO2 T02330222
13976KLFT LFT20190912041010609/12/19 04:10:31  5-MIN KLFT 121010Z AUTO 00000KT 9SM CLR 23/22 A3006 -80 93 900 000/00 RMK AO2 T02330222
13976KLFT LFT20190912041510609/12/19 04:15:31  5-MIN KLFT 121015Z AUTO 00000KT 9SM CLR 23/22 A3006 -80 93 900 000/00 RMK AO2 T02330222
13976KLFT LFT20190912042010609/12/19 04:20:31  5-MIN KLFT 121020Z AUTO 07003KT 9SM CLR 23/22 A3006 -80 93 900 060/03 RMK AO2 T02330222
13976KLFT LFT20190912042510109/12/19 04:25:31  5-MIN KLFT 121025Z 07004KT 9SM CLR 23/22 A3006 -80 93 900 060/04 RMK AO2 T02330222
13976KLFT LFT20190912043010109/12/19 04:30:31  5-MIN KLFT 121030Z 06004KT 8SM CLR 23/22 A3006 -80 93 900 060/04 RMK AO2 T02330222
13976KLFT LFT20190912043510109/12/19 04:35:31  5-MIN KLFT 121035Z 07004KT 8SM CLR 23/22 A3006 -80 93 900 070/04 RMK AO2 T02330222
13976KLFT LFT20190912044010109/12/19 04:40:31  5-MIN KLFT 121040Z 07003KT 8SM CLR 23/22 A3006 -80 93 900 070/03 RMK AO2 T02330222
13976KLFT LFT20190912044510109/12/19 04:45:31  5-MIN KLFT 121045Z 00000KT 8SM CLR 23/22 A3006 -80 93 900 000/00 RMK AO2 T02330222
13976KLFT LFT20190912045010809/12/19 04:50:31  5-MIN KLFT 121050Z 08003KT 8SM CLR 23/22 A3006 -80 93 900 080/03 RMK AO2 SLP180 T02330222
13976KLFT LFT20190912045510109/12/19 04:55:31  5-MIN KLFT 121055Z 08004KT 8SM CLR 23/22 A3006 -80 93 900 080/04 RMK AO2 T02330222
13976KLFT LFT20190912050010209/12/19 05:00:31  5-MIN KLFT 121100Z 08003KT 9SM CLR 24/23 A3007 -80 93 1000 080/03 RMK AO2 T02390228
13976KLFT LFT20190912050510209/12/19 05:05:31  5-MIN KLFT 121105Z 00000KT 9SM CLR 24/23 A3007 -80 93 1000 000/00 RMK AO2 T02390228
13976KLFT LFT20190912051010109/12/19 05:10:31  5-MIN KLFT 121110Z 00000KT 9SM CLR 23/23 A3007 -90 97 900 000/00 RMK AO2 T02330228
13976KLFT LFT20190912051510109/12/19 05:15:31  5-MIN KLFT 121115Z 00000KT 9SM CLR 23/23 A3007 -90 97 900 000/00 RMK AO2 T02330228
13976KLFT LFT20190912052010109/12/19 05:20:31  5-MIN KLFT 121120Z 00000KT 9SM CLR 23/22 A3007 -90 93 900 000/00 RMK AO2 T02330222
13976KLFT LFT20190912052510109/12/19 05:25:31  5-MIN KLFT 121125Z 00000KT 9SM CLR 23/22 A3007 -90 93 900 000/00 RMK AO2 T02330222
13976KLFT LFT20190912053010109/12/19 05:30:31  5-MIN KLFT 121130Z 00000KT 9SM CLR 23/22 A3008 -90 93 900 000/00 RMK AO2 T02330222
13976KLFT LFT20190912053510209/12/19 05:35:31  5-MIN KLFT 121135Z 00000KT 9SM CLR 23/22 A3008 -100 93 900 000/00 RMK AO2 T02330222
13976KLFT LFT20190912054010209/12/19 05:40:31  5-MIN KLFT 121140Z 00000KT 9SM CLR 23/22 A3008 -100 93 900 000/00 RMK AO2 T02330222
13976KLFT LFT20190912054510209/12/19 05:45:31  5-MIN KLFT 121145Z 00000KT 9SM CLR 23/22 A3008 -100 97 800 000/00 RMK AO2 T02280222
13976KLFT LFT20190912055013309/12/19 05:50:31  5-MIN KLFT 121150Z 00000KT 9SM CLR 23/22 A3009 -100 93 900 000/00 RMK AO2 SLP187 70006 T02330222 10244 20228 56009
13976KLFT LFT20190912055510209/12/19 05:55:31  5-MIN KLFT 121155Z 00000KT 9SM CLR 23/22 A3008 -100 97 800 000/00 RMK AO2 T02280222
13976KLFT LFT20190912060010209/12/19 06:00:31  5-MIN KLFT 121200Z 00000KT 9SM CLR 23/22 A3009 -100 93 800 000/00 RMK AO2 T02280217
13976KLFT LFT20190912060510209/12/19 06:05:31  5-MIN KLFT 121205Z 00000KT 9SM CLR 23/22 A3009 -110 90 900 000/00 RMK AO2 T02330217
13976KLFT LFT20190912061010209/12/19 06:10:31  5-MIN KLFT 121210Z 00000KT 8SM CLR 23/22 A3009 -110 90 900 000/00 RMK AO2 T02330217
13976KLFT LFT20190912061510209/12/19 06:15:31  5-MIN KLFT 121215Z 00000KT 7SM CLR 23/22 A3009 -110 93 900 000/00 RMK AO2 T02330222
13976KLFT LFT20190912062010209/12/19 06:20:31  5-MIN KLFT 121220Z 00000KT 7SM CLR 23/22 A3009 -110 93 900 000/00 RMK AO2 T02330222
13976KLFT LFT20190912062510209/12/19 06:25:31  5-MIN KLFT 121225Z 00000KT 8SM CLR 23/22 A3009 -110 93 900 000/00 RMK AO2 T02330222
13976KLFT LFT20190912063010209/12/19 06:30:31  5-MIN KLFT 121230Z 00000KT 9SM CLR 24/22 A3009 -110 90 900 000/00 RMK AO2 T02390222
13976KLFT LFT20190912063510309/12/19 06:35:31  5-MIN KLFT 121235Z 00000KT 10SM CLR 23/22 A3009 -110 93 900 000/00 RMK AO2 T02330222
13976KLFT LFT20190912064010309/12/19 06:40:31  5-MIN KLFT 121240Z 00000KT 10SM CLR 24/22 A3009 -110 90 900 000/00 RMK AO2 T02390222
13976KLFT LFT20190912064510309/12/19 06:45:31  5-MIN KLFT 121245Z 00000KT 10SM CLR 24/23 A3009 -110 93 900 000/00 RMK AO2 T02390228
13976KLFT LFT20190912065011009/12/19 06:50:31  5-MIN KLFT 121250Z 00000KT 10SM CLR 24/23 A3010 -110 93 900 000/00 RMK AO2 SLP191 T02390228
13976KLFT LFT20190912065510409/12/19 06:55:31  5-MIN KLFT 121255Z 00000KT 10SM CLR 24/23 A3010 -110 90 1000 000/00 RMK AO2 T02440228
13976KLFT LFT20190912070010409/12/19 07:00:31  5-MIN KLFT 121300Z 04003KT 10SM CLR 24/23 A3010 -110 90 1000 040/03 RMK AO2 T02440228
13976KLFT LFT20190912070510409/12/19 07:05:31  5-MIN KLFT 121305Z 05003KT 10SM CLR 24/23 A3010 -120 90 1000 050/03 RMK AO2 T02440228
13976KLFT LFT20190912071010409/12/19 07:10:31  5-MIN KLFT 121310Z 00000KT 10SM CLR 24/23 A3010 -120 90 1000 000/00 RMK AO2 T02440228
13976KLFT LFT20190912071510409/12/19 07:15:31  5-MIN KLFT 121315Z 06003KT 10SM CLR 24/23 A3010 -120 90 1000 060/03 RMK AO2 T02440228
13976KLFT LFT20190912072010409/12/19 07:20:31  5-MIN KLFT 121320Z 08003KT 10SM CLR 25/23 A3010 -120 90 1100 080/03 RMK AO2 T02500233
13976KLFT LFT20190912072510409/12/19 07:25:31  5-MIN KLFT 121325Z 00000KT 10SM CLR 25/23 A3010 -120 90 1000 000/00 RMK AO2 T02500233
13976KLFT LFT20190912073010409/12/19 07:30:31  5-MIN KLFT 121330Z 00000KT 10SM CLR 25/23 A3010 -120 90 1000 000/00 RMK AO2 T02500233
13976KLFT LFT20190912073510409/12/19 07:35:31  5-MIN KLFT 121335Z 00000KT 10SM CLR 25/23 A3011 -120 90 1000 000/00 RMK AO2 T02500233
13976KLFT LFT20190912074010409/12/19 07:40:31  5-MIN KLFT 121340Z VRB03KT 10SM CLR 26/24 A3011 -120 90 1100 VRB/03 RMK AO2 T02560239
13976KLFT LFT20190912074510409/12/19 07:45:31  5-MIN KLFT 121345Z 00000KT 10SM CLR 26/24 A3011 -120 87 1200 000/00 RMK AO2 T02610239
13976KLFT LFT20190912075011109/12/19 07:50:31  5-MIN KLFT 121350Z VRB03KT 10SM CLR 26/24 A3011 -120 87 1200 VRB/03 RMK AO2 SLP195 T02610239
13976KLFT LFT20190912075510409/12/19 07:55:31  5-MIN KLFT 121355Z 00000KT 10SM CLR 26/24 A3011 -120 87 1200 000/00 RMK AO2 T02610239
13976KLFT LFT20190912080010409/12/19 08:00:31  5-MIN KLFT 121400Z 08004KT 10SM CLR 27/24 A3011 -130 87 1200 080/04 RMK AO2 T02670244
13976KLFT LFT20190912080510409/12/19 08:05:31  5-MIN KLFT 121405Z VRB05KT 10SM CLR 27/24 A3011 -130 84 1200 VRB/05 RMK AO2 T02670239
13976KLFT LFT20190912081010409/12/19 08:10:31  5-MIN KLFT 121410Z VRB03KT 10SM CLR 27/24 A3011 -130 84 1200 VRB/03 RMK AO2 T02670239
13976KLFT LFT20190912081510409/12/19 08:15:31  5-MIN KLFT 121415Z VRB04KT 10SM CLR 27/24 A3011 -130 82 1300 VRB/04 RMK AO2 T02720239
13976KLFT LFT20190912082010409/12/19 08:20:31  5-MIN KLFT 121420Z 10004KT 10SM CLR 27/24 A3011 -130 82 1300 100/04 RMK AO2 T02720239
13976KLFT LFT20190912082510409/12/19 08:25:31  5-MIN KLFT 121425Z 09005KT 10SM CLR 27/24 A3011 -130 82 1300 090/05 RMK AO2 T02720239
13976KLFT LFT20190912083010409/12/19 08:30:31  5-MIN KLFT 121430Z VRB04KT 10SM CLR 27/24 A3012 -130 82 1300 VRB/04 RMK AO2 T02720239
13976KLFT LFT20190912083510409/12/19 08:35:31  5-MIN KLFT 121435Z VRB04KT 10SM CLR 28/24 A3012 -130 79 1300 VRB/04 RMK AO2 T02780239
13976KLFT LFT20190912084010409/12/19 08:40:31  5-MIN KLFT 121440Z 12006KT 10SM CLR 28/24 A3012 -130 79 1300 120/06 RMK AO2 T02780239
13976KLFT LFT20190912084510409/12/19 08:45:31  5-MIN KLFT 121445Z VRB03KT 10SM CLR 28/24 A3012 -130 79 1300 VRB/03 RMK AO2 T02780239
13976KLFT LFT20190912085011709/12/19 08:50:31  5-MIN KLFT 121450Z 07005KT 10SM CLR 28/24 A3012 -140 76 1400 070/05 RMK AO2 SLP199 T02830239 53010
13976KLFT LFT20190912085510409/12/19 08:55:31  5-MIN KLFT 121455Z 07003KT 10SM CLR 28/24 A3012 -140 76 1400 070/03 RMK AO2 T02830239
13976KLFT LFT20190912090010409/12/19 09:00:31  5-MIN KLFT 121500Z 00000KT 10SM CLR 29/24 A3012 -140 74 1500 000/00 RMK AO2 T02890239
13976KLFT LFT20190912090509409/12/19 09:05:31  5-MIN KLFT 121505Z 10SM CLR 29/24 A3012 -140 74 1500 M /M RMK AO2 T02890239
13976KLFT LFT20190912091010409/12/19 09:10:31  5-MIN KLFT 121510Z 07004KT 10SM CLR 29/23 A3012 -140 71 1500 070/04 RMK AO2 T02890233
13976KLFT LFT20190912091510409/12/19 09:15:31  5-MIN KLFT 121515Z 10003KT 10SM CLR 29/24 A3012 -140 71 1500 100/03 RMK AO2 T02940239
13976KLFT LFT20190912092010409/12/19 09:20:31  5-MIN KLFT 121520Z 10006KT 10SM CLR 29/23 A3012 -140 69 1500 100/06 RMK AO2 T02940233
13976KLFT LFT20190912092510409/12/19 09:25:31  5-MIN KLFT 121525Z VRB06KT 10SM CLR 29/23 A3012 -140 69 1500 VRB/06 RMK AO2 T02940233
13976KLFT LFT20190912093010409/12/19 09:30:31  5-MIN KLFT 121530Z 10006KT 10SM CLR 29/23 A3012 -140 67 1500 100/06 RMK AO2 T02940228
13976KLFT LFT20190912093510409/12/19 09:35:31  5-MIN KLFT 121535Z VRB05KT 10SM CLR 29/22 A3012 -140 64 1500 VRB/05 RMK AO2 T02940222
13976KLFT LFT20190912094010409/12/19 09:40:31  5-MIN KLFT 121540Z VRB06KT 10SM CLR 29/22 A3012 -140 64 1500 VRB/06 RMK AO2 T02940222
13976KLFT LFT20190912094510409/12/19 09:45:31  5-MIN KLFT 121545Z 09005KT 10SM CLR 30/22 A3012 -140 62 1600 080/05 RMK AO2 T03000222
13976KLFT LFT20190912095011109/12/19 09:50:31  5-MIN KLFT 121550Z 08005KT 10SM CLR 30/23 A3012 -140 65 1600 080/05 RMK AO2 SLP200 T03000228
13976KLFT LFT20190912095510409/12/19 09:55:31  5-MIN KLFT 121555Z VRB03KT 10SM CLR 30/23 A3012 -140 65 1600 VRB/03 RMK AO2 T03000228
13976KLFT LFT20190912100009409/12/19 10:00:31  5-MIN KLFT 121600Z 10SM CLR 31/23 A3012 -140 62 1600 M /M RMK AO2 T03060228
13976KLFT LFT20190912100510409/12/19 10:05:31  5-MIN KLFT 121605Z 10005KT 10SM CLR 31/22 A3012 -140 60 1700 100/05 RMK AO2 T03060222
13976KLFT LFT20190912101010409/12/19 10:10:31  5-MIN KLFT 121610Z VRB03KT 10SM CLR 31/22 A3012 -140 60 1700 VRB/03 RMK AO2 T03060222
13976KLFT LFT20190912101510409/12/19 10:15:31  5-MIN KLFT 121615Z VRB05KT 10SM CLR 31/22 A3012 -140 60 1700 VRB/05 RMK AO2 T03060222
13976KLFT LFT20190912102010409/12/19 10:20:31  5-MIN KLFT 121620Z VRB05KT 10SM CLR 31/22 A3012 -140 56 1700 VRB/05 RMK AO2 T03110217
13976KLFT LFT20190912102510409/12/19 10:25:31  5-MIN KLFT 121625Z 00000KT 10SM CLR 31/22 A3012 -140 58 1700 000/00 RMK AO2 T03110222
13976KLFT LFT20190912103009409/12/19 10:30:31  5-MIN KLFT 121630Z 10SM CLR 31/22 A3012 -140 58 1700 M /M RMK AO2 T03110222
13976KLFT LFT20190912103510409/12/19 10:35:31  5-MIN KLFT 121635Z 11004KT 10SM CLR 31/22 A3012 -140 56 1700 110/04 RMK AO2 T03110217
13976KLFT LFT20190912104010409/12/19 10:40:31  5-MIN KLFT 121640Z VRB04KT 10SM CLR 31/22 A3012 -140 56 1700 VRB/04 RMK AO2 T03110217
13976KLFT LFT20190912104510409/12/19 10:45:31  5-MIN KLFT 121645Z VRB04KT 10SM CLR 32/22 A3012 -140 55 1800 VRB/04 RMK AO2 T03170217
13976KLFT LFT20190912105011109/12/19 10:50:31  5-MIN KLFT 121650Z VRB04KT 10SM CLR 32/22 A3012 -140 55 1800 VRB/04 RMK AO2 SLP199 T03220222
13976KLFT LFT20190912105510709/12/19 10:55:31  5-MIN KLFT 121655Z VRB04KT 10SM SCT045 32/22 A3012 -130 55 1800 VRB/04 RMK AO2 T03170217
13976KLFT LFT20190912110010709/12/19 11:00:31  5-MIN KLFT 121700Z VRB05KT 10SM SCT045 32/22 A3012 -130 55 1800 VRB/05 RMK AO2 T03170217
13976KLFT LFT20190912110510709/12/19 11:05:31  5-MIN KLFT 121705Z VRB03KT 10SM SCT045 32/22 A3012 -130 53 1800 VRB/03 RMK AO2 T03220217
13976KLFT LFT20190912111010709/12/19 11:10:31  5-MIN KLFT 121710Z VRB04KT 10SM SCT045 32/22 A3012 -130 55 1800 VRB/04 RMK AO2 T03170217
13976KLFT LFT20190912111510709/12/19 11:15:31  5-MIN KLFT 121715Z VRB04KT 10SM SCT045 32/22 A3011 -130 53 1800 VRB/04 RMK AO2 T03220217
13976KLFT LFT20190912112010709/12/19 11:20:31  5-MIN KLFT 121720Z 08006KT 10SM SCT045 32/21 A3011 -130 53 1800 080/06 RMK AO2 T03170211
13976KLFT LFT20190912112510709/12/19 11:25:31  5-MIN KLFT 121725Z 09007KT 10SM SCT045 32/21 A3011 -130 53 1800 090/07 RMK AO2 T03170211
13976KLFT LFT20190912113010709/12/19 11:30:31  5-MIN KLFT 121730Z VRB03KT 10SM SCT045 32/21 A3011 -130 53 1800 VRB/03 RMK AO2 T03170211
13976KLFT LFT20190912113510709/12/19 11:35:31  5-MIN KLFT 121735Z VRB05KT 10SM SCT045 32/22 A3011 -120 53 1900 VRB/05 RMK AO2 T03220217
13976KLFT LFT20190912114010709/12/19 11:40:31  5-MIN KLFT 121740Z VRB04KT 10SM SCT045 32/21 A3011 -120 53 1800 VRB/04 RMK AO2 T03170211
13976KLFT LFT20190912114510709/12/19 11:45:31  5-MIN KLFT 121745Z 11003KT 10SM SCT045 32/22 A3010 -120 53 1900 110/03 RMK AO2 T03220217
13976KLFT LFT20190912115013209/12/19 11:50:31  5-MIN KLFT 121750Z VRB05KT 10SM SCT045 33/21 A3010 -120 49 1900 VRB/05 RMK AO2 SLP193 T03280211 10328 20228 52012
13976KLFT LFT20190912115510409/12/19 11:55:31  5-MIN KLFT 121755Z VRB05KT 10SM CLR 32/21 A3010 -120 49 1900 VRB/05 RMK AO2 T03220206
13976KLFT LFT20190912120010709/12/19 12:00:31  5-MIN KLFT 121800Z VRB03KT 10SM FEW049 32/21 A3010 -120 51 1900 VRB/03 RMK AO2 T03220211
13976KLFT LFT20190912120510709/12/19 12:05:31  5-MIN KLFT 121805Z VRB05KT 10SM FEW049 32/22 A3010 -120 53 1900 VRB/05 RMK AO2 T03220217
13976KLFT LFT20190912121010709/12/19 12:10:31  5-MIN KLFT 121810Z 13005KT 10SM FEW047 32/21 A3010 -120 51 1900 130/05 RMK AO2 T03220211
13976KLFT LFT20190912121510709/12/19 12:15:31  5-MIN KLFT 121815Z 00000KT 10SM FEW047 32/22 A3010 -120 53 1900 000/00 RMK AO2 T03220217
13976KLFT LFT20190912122009709/12/19 12:20:31  5-MIN KLFT 121820Z 10SM FEW048 32/21 A3010 -120 51 1900 M /M RMK AO2 T03220211
13976KLFT LFT20190912122510709/12/19 12:25:31  5-MIN KLFT 121825Z VRB03KT 10SM SCT048 32/21 A3010 -120 51 1900 VRB/03 RMK AO2 T03220211
13976KLFT LFT20190912123010709/12/19 12:30:31  5-MIN KLFT 121830Z 00000KT 10SM FEW048 33/22 A3010 -110 51 1900 000/00 RMK AO2 T03280217
13976KLFT LFT20190912123510709/12/19 12:35:31  5-MIN KLFT 121835Z 08003KT 10SM FEW048 33/21 A3010 -110 49 1900 080/03 RMK AO2 T03280211
13976KLFT LFT20190912124010709/12/19 12:40:31  5-MIN KLFT 121840Z 00000KT 10SM FEW048 32/21 A3010 -110 49 1900 000/00 RMK AO2 T03220206
13976KLFT LFT20190912124510709/12/19 12:45:31  5-MIN KLFT 121845Z VRB03KT 10SM SCT050 33/21 A3009 -110 49 1900 VRB/03 RMK AO2 T03280211
13976KLFT LFT20190912125011409/12/19 12:50:31  5-MIN KLFT 121850Z 16005KT 10SM SCT050 33/21 A3009 -110 48 2000 160/05 RMK AO2 SLP189 T03330211
13976KLFT LFT20190912125510709/12/19 12:55:31  5-MIN KLFT 121855Z VRB03KT 10SM FEW050 33/21 A3009 -110 48 2000 VRB/03 RMK AO2 T03330211
13976KLFT LFT20190912130010709/12/19 13:00:31  5-MIN KLFT 121900Z 00000KT 10SM SCT050 34/21 A3009 -110 46 2100 000/00 RMK AO2 T03390211
13976KLFT LFT20190912130510709/12/19 13:05:31  5-MIN KLFT 121905Z 07004KT 10SM SCT050 33/21 A3008 -100 48 2000 070/04 RMK AO2 T03330211
13976KLFT LFT20190912131010709/12/19 13:10:31  5-MIN KLFT 121910Z 07005KT 10SM FEW050 33/21 A3008 -100 46 2000 070/05 RMK AO2 T03330206
13976KLFT LFT20190912131510709/12/19 13:15:31  5-MIN KLFT 121915Z 08004KT 10SM FEW050 33/21 A3008 -100 46 2000 080/04 RMK AO2 T03330206
13976KLFT LFT20190912132010609/12/19 13:20:31  5-MIN KLFT 121920Z 00000KT 10SM FEW050 33/20 A3008 -90 45 2000 000/00 RMK AO2 T03330200
13976KLFT LFT20190912132510609/12/19 13:25:31  5-MIN KLFT 121925Z VRB05KT 10SM FEW050 33/20 A3007 -90 45 2000 VRB/05 RMK AO2 T03330200
13976KLFT LFT20190912133010309/12/19 13:30:31  5-MIN KLFT 121930Z 06003KT 10SM CLR 33/21 A3007 -90 46 2000 060/03 RMK AO2 T03330206
13976KLFT LFT20190912133510609/12/19 13:35:31  5-MIN KLFT 121935Z 00000KT 10SM FEW055 33/21 A3007 -90 46 2000 000/00 RMK AO2 T03330206
13976KLFT LFT20190912134010609/12/19 13:40:31  5-MIN KLFT 121940Z 07005KT 10SM FEW055 33/21 A3007 -90 46 2000 070/05 RMK AO2 T03330206
13976KLFT LFT20190912134510309/12/19 13:45:31  5-MIN KLFT 121945Z 07004KT 10SM CLR 33/21 A3007 -90 48 2000 060/04 RMK AO2 T03280206
13976KLFT LFT20190912135011009/12/19 13:50:31  5-MIN KLFT 121950Z 07004KT 10SM CLR 33/20 A3006 -80 45 2000 070/04 RMK AO2 SLP180 T03330200
13976KLFT LFT20190912135510309/12/19 13:55:31  5-MIN KLFT 121955Z 00000KT 10SM CLR 33/21 A3006 -80 48 2000 000/00 RMK AO2 T03330211
13976KLFT LFT20190912140010309/12/19 14:00:31  5-MIN KLFT 122000Z VRB03KT 10SM CLR 33/21 A3006 -80 46 2000 VRB/03 RMK AO2 T03330206
13976KLFT LFT20190912140510309/12/19 14:05:31  5-MIN KLFT 122005Z 00000KT 10SM CLR 34/21 A3006 -80 45 2100 000/00 RMK AO2 T03390206
13976KLFT LFT20190912141010609/12/19 14:10:31  5-MIN KLFT 122010Z 06006KT 10SM FEW055 34/21 A3005 -70 45 2100 060/06 RMK AO2 T03390206
13976KLFT LFT20190912141510609/12/19 14:15:31  5-MIN KLFT 122015Z 06007KT 10SM SCT060 33/21 A3005 -70 48 2000 060/07 RMK AO2 T03330211
13976KLFT LFT20190912142010609/12/19 14:20:31  5-MIN KLFT 122020Z 08003KT 10SM SCT060 33/21 A3005 -70 48 2000 080/03 RMK AO2 T03280206
13976KLFT LFT20190912142511309/12/19 14:25:31  5-MIN KLFT 122025Z 00000KT 10SM FEW055 SCT070 33/21 A3005 -70 49 2000 000/00 RMK AO2 T03280211
13976KLFT LFT20190912143011309/12/19 14:30:31  5-MIN KLFT 122030Z 07004KT 10SM FEW055 BKN070 33/21 A3005 -70 48 2000 070/04 RMK AO2 T03330211
13976KLFT LFT20190912143510609/12/19 14:35:31  5-MIN KLFT 122035Z VRB03KT 10SM SCT060 33/21 A3004 -70 46 2000 VRB/03 RMK AO2 T03330206
13976KLFT LFT20190912144010609/12/19 14:40:31  5-MIN KLFT 122040Z VRB04KT 10SM SCT065 33/21 A3004 -60 48 2000 VRB/04 RMK AO2 T03330211
13976KLFT LFT20190912144510609/12/19 14:45:31  5-MIN KLFT 122045Z 04005KT 10SM FEW070 34/21 A3004 -60 46 2100 040/05 RMK AO2 T03390211
13976KLFT LFT20190912145011909/12/19 14:50:31  5-MIN KLFT 122050Z VRB03KT 10SM BKN055 33/21 A3004 -60 48 2100 VRB/03 RMK AO2 SLP171 T03330211 58005
13976KLFT LFT20190912145510309/12/19 14:55:31  5-MIN KLFT 122055Z 11003KT 10SM CLR 33/21 A3004 -60 46 2100 110/03 RMK AO2 T03330206
13976KLFT LFT20190912150010309/12/19 15:00:31  5-MIN KLFT 122100Z VRB06KT 10SM CLR 33/21 A3004 -60 48 2100 VRB/06 RMK AO2 T03330211
13976KLFT LFT20190912150510309/12/19 15:05:31  5-MIN KLFT 122105Z 07006KT 10SM CLR 33/21 A3004 -60 46 2100 070/06 RMK AO2 T03330206
13976KLFT LFT20190912151010309/12/19 15:10:31  5-MIN KLFT 122110Z 06006KT 10SM CLR 33/21 A3003 -60 48 2100 050/06 RMK AO2 T03330211
13976KLFT LFT20190912151510309/12/19 15:15:31  5-MIN KLFT 122115Z 05005KT 10SM CLR 33/21 A3003 -60 48 2100 050/05 RMK AO2 T03330211
13976KLFT LFT20190912152010309/12/19 15:20:31  5-MIN KLFT 122120Z VRB04KT 10SM CLR 33/21 A3003 -60 48 2100 VRB/04 RMK AO2 T03330211
13976KLFT LFT20190912152510309/12/19 15:25:31  5-MIN KLFT 122125Z 00000KT 10SM CLR 33/21 A3003 -60 46 2100 000/00 RMK AO2 T03330206
13976KLFT LFT20190912153010309/12/19 15:30:31  5-MIN KLFT 122130Z 07004KT 10SM CLR 33/21 A3003 -50 46 2100 070/04 RMK AO2 T03330206
13976KLFT LFT20190912153510309/12/19 15:35:31  5-MIN KLFT 122135Z 05005KT 10SM CLR 33/20 A3003 -60 45 2100 050/05 RMK AO2 T03330200
13976KLFT LFT20190912154010609/12/19 15:40:31  5-MIN KLFT 122140Z 06005KT 10SM FEW055 33/21 A3003 -60 46 2100 060/05 RMK AO2 T03330206
13976KLFT LFT20190912154510609/12/19 15:45:31  5-MIN KLFT 122145Z 05007KT 10SM FEW050 33/21 A3004 -60 46 2100 050/07 RMK AO2 T03330206
13976KLFT LFT20190912155011309/12/19 15:50:31  5-MIN KLFT 122150Z 05006KT 10SM SCT050 33/21 A3003 -60 48 2100 050/06 RMK AO2 SLP170 T03330211
13976KLFT LFT20190912155510609/12/19 15:55:31  5-MIN KLFT 122155Z 03007KT 10SM FEW050 33/21 A3003 -50 48 2100 030/07 RMK AO2 T03330211
13976KLFT LFT20190912160010609/12/19 16:00:31  5-MIN KLFT 122200Z 05004KT 10SM FEW050 33/21 A3003 -50 48 2100 050/04 RMK AO2 T03330211
13976KLFT LFT20190912160510609/12/19 16:05:31  5-MIN KLFT 122205Z 06005KT 10SM FEW050 33/21 A3003 -50 48 2100 060/05 RMK AO2 T03330211
13976KLFT LFT20190912161010609/12/19 16:10:31  5-MIN KLFT 122210Z 07004KT 10SM FEW055 33/21 A3003 -50 48 2100 070/04 RMK AO2 T03330211
13976KLFT LFT20190912161510309/12/19 16:15:31  5-MIN KLFT 122215Z 07003KT 10SM CLR 33/21 A3003 -50 48 2100 070/03 RMK AO2 T03330211
13976KLFT LFT20190912162010309/12/19 16:20:31  5-MIN KLFT 122220Z 08003KT 10SM CLR 33/21 A3003 -50 48 2100 080/03 RMK AO2 T03330211
13976KLFT LFT20190912162510309/12/19 16:25:31  5-MIN KLFT 122225Z 00000KT 10SM CLR 33/21 A3003 -50 46 2100 000/00 RMK AO2 T03330206
13976KLFT LFT20190912163010309/12/19 16:30:31  5-MIN KLFT 122230Z 06005KT 10SM CLR 33/22 A3003 -50 50 2100 050/05 RMK AO2 T03330217
13976KLFT LFT20190912163510309/12/19 16:35:31  5-MIN KLFT 122235Z 06005KT 10SM CLR 33/21 A3003 -50 49 2000 050/05 RMK AO2 T03280211
13976KLFT LFT20190912164010309/12/19 16:40:31  5-MIN KLFT 122240Z 05006KT 10SM CLR 33/21 A3002 -50 49 2000 050/06 RMK AO2 T03280211
13976KLFT LFT20190912164510309/12/19 16:45:31  5-MIN KLFT 122245Z 06006KT 10SM CLR 33/21 A3003 -50 48 2000 060/06 RMK AO2 T03280206
13976KLFT LFT20190912165011009/12/19 16:50:31  5-MIN KLFT 122250Z 06003KT 10SM CLR 33/21 A3003 -50 49 2000 060/03 RMK AO2 SLP168 T03280211
13976KLFT LFT20190912165510309/12/19 16:55:31  5-MIN KLFT 122255Z 07003KT 10SM CLR 33/21 A3003 -50 49 2000 060/03 RMK AO2 T03280211
13976KLFT LFT20190912170010309/12/19 17:00:31  5-MIN KLFT 122300Z 06003KT 10SM CLR 33/21 A3003 -50 49 2000 060/03 RMK AO2 T03280211
13976KLFT LFT20190912170510309/12/19 17:05:31  5-MIN KLFT 122305Z 06003KT 10SM CLR 33/21 A3003 -50 49 2000 060/03 RMK AO2 T03280211
13976KLFT LFT20190912171010309/12/19 17:10:31  5-MIN KLFT 122310Z 08003KT 10SM CLR 32/21 A3003 -50 51 1900 080/03 RMK AO2 T03220211
13976KLFT LFT20190912171510309/12/19 17:15:31  5-MIN KLFT 122315Z 08003KT 10SM CLR 32/21 A3003 -50 51 1900 070/03 RMK AO2 T03220211
13976KLFT LFT20190912172010309/12/19 17:20:31  5-MIN KLFT 122320Z 07003KT 10SM CLR 32/21 A3003 -50 51 1900 070/03 RMK AO2 T03220211
13976KLFT LFT20190912172510309/12/19 17:25:31  5-MIN KLFT 122325Z 07003KT 10SM CLR 32/21 A3003 -50 51 1900 070/03 RMK AO2 T03220211
13976KLFT LFT20190912173010309/12/19 17:30:31  5-MIN KLFT 122330Z 00000KT 10SM CLR 32/21 A3003 -50 53 1900 000/00 RMK AO2 T03170211
13976KLFT LFT20190912173510309/12/19 17:35:31  5-MIN KLFT 122335Z 00000KT 10SM CLR 32/22 A3003 -50 55 1900 000/00 RMK AO2 T03170217
13976KLFT LFT20190912174010309/12/19 17:40:31  5-MIN KLFT 122340Z 00000KT 10SM CLR 32/22 A3003 -50 55 1900 000/00 RMK AO2 T03170217
13976KLFT LFT20190912174510309/12/19 17:45:31  5-MIN KLFT 122345Z 00000KT 10SM CLR 31/22 A3003 -50 56 1800 000/00 RMK AO2 T03110217
13976KLFT LFT20190912175012809/12/19 17:50:31  5-MIN KLFT 122350Z 00000KT 10SM CLR 31/22 A3003 -50 58 1800 000/00 RMK AO2 SLP167 T03110222 10339 20311 58022
13976KLFT LFT20190912175510309/12/19 17:55:31  5-MIN KLFT 122355Z 00000KT 10SM CLR 31/22 A3003 -50 56 1800 000/00 RMK AO2 T03110217
13976KLFT LFT20190912180010309/12/19 18:00:31  5-MIN KLFT 130000Z 00000KT 10SM CLR 31/22 A3003 -50 60 1800 000/00 RMK AO2 T03060222
13976KLFT LFT20190912180510309/12/19 18:05:31  5-MIN KLFT 130005Z 00000KT 10SM CLR 31/23 A3003 -50 62 1800 000/00 RMK AO2 T03060228
13976KLFT LFT20190912181010309/12/19 18:10:31  5-MIN KLFT 130010Z 00000KT 10SM CLR 30/23 A3003 -50 65 1700 000/00 RMK AO2 T03000228
13976KLFT LFT20190912181510309/12/19 18:15:31  5-MIN KLFT 130015Z 00000KT 10SM CLR 29/23 A3003 -50 69 1600 000/00 RMK AO2 T02940233
13976KLFT LFT20190912182010309/12/19 18:20:31  5-MIN KLFT 130020Z 00000KT 10SM CLR 29/23 A3003 -50 69 1600 000/00 RMK AO2 T02940233
13976KLFT LFT20190912182510309/12/19 18:25:31  5-MIN KLFT 130025Z 00000KT 10SM CLR 29/24 A3003 -50 71 1600 000/00 RMK AO2 T02940239
13976KLFT LFT20190912183010309/12/19 18:30:31  5-MIN KLFT 130030Z 00000KT 10SM CLR 29/25 A3003 -50 79 1600 000/00 RMK AO2 T02890250
13976KLFT LFT20190912183510309/12/19 18:35:31  5-MIN KLFT 130035Z 16003KT 10SM CLR 28/25 A3003 -50 82 1500 160/03 RMK AO2 T02830250
13976KLFT LFT20190912184010309/12/19 18:40:31  5-MIN KLFT 130040Z 19003KT 10SM CLR 28/24 A3003 -50 76 1500 190/03 RMK AO2 T02830239
13976KLFT LFT20190912184510309/12/19 18:45:31  5-MIN KLFT 130045Z 21003KT 10SM CLR 28/22 A3003 -50 71 1400 210/03 RMK AO2 T02780222
13976KLFT LFT20190912185011009/12/19 18:50:31  5-MIN KLFT 130050Z 21003KT 10SM CLR 28/22 A3003 -60 69 1500 200/03 RMK AO2 SLP170 T02830222
13976KLFT LFT20190912185510309/12/19 18:55:31  5-MIN KLFT 130055Z VRB03KT 10SM CLR 28/23 A3004 -60 71 1500 VRB/03 RMK AO2 T02830228
13976KLFT LFT20190912190010309/12/19 19:00:31  5-MIN KLFT 130100Z 15003KT 10SM CLR 28/23 A3004 -60 74 1500 150/03 RMK AO2 T02830233
13976KLFT LFT20190912190510309/12/19 19:05:31  5-MIN KLFT 130105Z 19004KT 10SM CLR 28/23 A3004 -70 76 1400 190/04 RMK AO2 T02780233
13976KLFT LFT20190912191010309/12/19 19:10:31  5-MIN KLFT 130110Z 19005KT 10SM CLR 28/22 A3005 -70 71 1400 190/05 RMK AO2 T02780222
13976KLFT LFT20190912191510309/12/19 19:15:31  5-MIN KLFT 130115Z 21005KT 10SM CLR 27/22 A3005 -70 74 1400 210/05 RMK AO2 T02720222
13976KLFT LFT20190912192010309/12/19 19:20:31  5-MIN KLFT 130120Z 20004KT 10SM CLR 27/22 A3004 -70 76 1300 200/04 RMK AO2 T02670222
13976KLFT LFT20190912192510309/12/19 19:25:31  5-MIN KLFT 130125Z 20005KT 10SM CLR 27/22 A3004 -70 74 1400 200/05 RMK AO2 T02720222
13976KLFT LFT20190912193010309/12/19 19:30:31  5-MIN KLFT 130130Z 21004KT 10SM CLR 27/22 A3005 -70 74 1400 210/04 RMK AO2 T02720222
13976KLFT LFT20190912193510309/12/19 19:35:31  5-MIN KLFT 130135Z 20004KT 10SM CLR 27/22 A3005 -70 74 1400 200/04 RMK AO2 T02720222
13976KLFT LFT20190912194010309/12/19 19:40:31  5-MIN KLFT 130140Z 20003KT 10SM CLR 28/22 A3005 -70 71 1400 200/03 RMK AO2 T02780222
13976KLFT LFT20190912194510309/12/19 19:45:31  5-MIN KLFT 130145Z 22003KT 10SM CLR 28/22 A3005 -70 69 1400 220/03 RMK AO2 T02780217
13976KLFT LFT20190912195011009/12/19 19:50:31  5-MIN KLFT 130150Z 23003KT 10SM CLR 28/22 A3005 -70 71 1400 230/03 RMK AO2 SLP175 T02780222
13976KLFT LFT20190912195510309/12/19 19:55:31  5-MIN KLFT 130155Z 22003KT 10SM CLR 28/22 A3005 -70 71 1400 220/03 RMK AO2 T02780222
13976KLFT LFT20190912200010309/12/19 20:00:31  5-MIN KLFT 130200Z 00000KT 10SM CLR 28/22 A3005 -70 71 1400 000/00 RMK AO2 T02780222
13976KLFT LFT20190912200510309/12/19 20:05:31  5-MIN KLFT 130205Z 00000KT 10SM CLR 27/22 A3005 -70 74 1400 000/00 RMK AO2 T02720222
13976KLFT LFT20190912201010309/12/19 20:10:31  5-MIN KLFT 130210Z 00000KT 10SM CLR 28/22 A3005 -70 71 1400 000/00 RMK AO2 T02780222
13976KLFT LFT20190912201510309/12/19 20:15:31  5-MIN KLFT 130215Z 00000KT 10SM CLR 27/23 A3005 -70 79 1300 000/00 RMK AO2 T02670228
13976KLFT LFT20190912202010309/12/19 20:20:31  5-MIN KLFT 130220Z 14003KT 10SM CLR 27/24 A3006 -80 84 1300 140/03 RMK AO2 T02670239
13976KLFT LFT20190912202510309/12/19 20:25:31  5-MIN KLFT 130225Z 00000KT 10SM CLR 27/24 A3006 -80 84 1300 000/00 RMK AO2 T02670239
13976KLFT LFT20190912203010309/12/19 20:30:31  5-MIN KLFT 130230Z 00000KT 10SM CLR 27/23 A3007 -80 82 1300 000/00 RMK AO2 T02670233
13976KLFT LFT20190912203510309/12/19 20:35:31  5-MIN KLFT 130235Z 00000KT 10SM CLR 27/24 A3007 -90 84 1300 000/00 RMK AO2 T02670239
13976KLFT LFT20190912204010309/12/19 20:40:31  5-MIN KLFT 130240Z 00000KT 10SM CLR 27/24 A3007 -90 84 1300 000/00 RMK AO2 T02670239
13976KLFT LFT20190912204510309/12/19 20:45:31  5-MIN KLFT 130245Z 00000KT 10SM CLR 26/24 A3007 -90 87 1200 000/00 RMK AO2 T02610239
13976KLFT LFT20190912205011609/12/19 20:50:31  5-MIN KLFT 130250Z 03004KT 10SM CLR 26/23 A3007 -90 87 1100 030/04 RMK AO2 SLP183 T02560233 56004
13976KLFT LFT20190912205510309/12/19 20:55:31  5-MIN KLFT 130255Z 02005KT 10SM CLR 26/23 A3008 -90 84 1100 020/05 RMK AO2 T02560228
13976KLFT LFT20190912210010309/12/19 21:00:31  5-MIN KLFT 130300Z 01004KT 10SM CLR 26/23 A3008 -90 84 1100 010/04 RMK AO2 T02560228
13976KLFT LFT20190912210510309/12/19 21:05:31  5-MIN KLFT 130305Z 00000KT 10SM CLR 26/23 A3008 -90 84 1100 000/00 RMK AO2 T02560228
13976KLFT LFT20190912211010409/12/19 21:10:31  5-MIN KLFT 130310Z 00000KT 10SM CLR 26/23 A3008 -100 81 1200 000/00 RMK AO2 T02610228
13976KLFT LFT20190912211510909/12/19 21:15:31  5-MIN KLFT 130315Z AUTO 00000KT 10SM CLR 26/23 A3008 -100 81 1200 000/00 RMK AO2 T02610228
13976KLFT LFT20190912212010909/12/19 21:20:31  5-MIN KLFT 130320Z AUTO 00000KT 10SM CLR 27/23 A3008 -100 79 1300 000/00 RMK AO2 T02670228
13976KLFT LFT20190912212510909/12/19 21:25:31  5-MIN KLFT 130325Z AUTO 00000KT 10SM CLR 26/23 A3008 -100 84 1100 000/00 RMK AO2 T02560228
13976KLFT LFT20190912213010909/12/19 21:30:31  5-MIN KLFT 130330Z AUTO 00000KT 10SM CLR 26/23 A3008 -100 81 1200 000/00 RMK AO2 T02610228
13976KLFT LFT20190912213510909/12/19 21:35:31  5-MIN KLFT 130335Z AUTO 00000KT 10SM CLR 26/23 A3008 -100 84 1200 000/00 RMK AO2 T02610233
13976KLFT LFT20190912214010909/12/19 21:40:31  5-MIN KLFT 130340Z AUTO 00000KT 10SM CLR 26/24 A3008 -100 87 1200 000/00 RMK AO2 T02610239
13976KLFT LFT20190912214510909/12/19 21:45:31  5-MIN KLFT 130345Z AUTO 00000KT 10SM CLR 26/24 A3008 -100 87 1200 000/00 RMK AO2 T02610239
13976KLFT LFT20190912215011509/12/19 21:50:31  5-MIN KLFT 130350Z AUTO 35003KT 10SM CLR 26/24 A3007 -90 90 1100 350/03 RMK AO2 SLP183 T02560239
13976KLFT LFT20190912215510809/12/19 21:55:31  5-MIN KLFT 130355Z AUTO 34003KT 10SM CLR 26/23 A3007 -90 81 1200 340/03 RMK AO2 T02610228
13976KLFT LFT20190912220010809/12/19 22:00:31  5-MIN KLFT 130400Z AUTO 00000KT 10SM CLR 26/23 A3007 -90 81 1200 000/00 RMK AO2 T02610228
13976KLFT LFT20190912220510809/12/19 22:05:31  5-MIN KLFT 130405Z AUTO 00000KT 10SM CLR 26/23 A3007 -90 81 1200 000/00 RMK AO2 T02610228
13976KLFT LFT20190912221010809/12/19 22:10:31  5-MIN KLFT 130410Z AUTO 00000KT 10SM CLR 26/23 A3007 -90 81 1200 000/00 RMK AO2 T02610228
13976KLFT LFT20190912221510809/12/19 22:15:31  5-MIN KLFT 130415Z AUTO 00000KT 10SM CLR 26/23 A3007 -90 84 1200 000/00 RMK AO2 T02610233
13976KLFT LFT20190912222010809/12/19 22:20:31  5-MIN KLFT 130420Z AUTO 00000KT 10SM CLR 26/23 A3007 -90 84 1200 000/00 RMK AO2 T02610233
13976KLFT LFT20190912222510809/12/19 22:25:31  5-MIN KLFT 130425Z AUTO 00000KT 10SM CLR 26/23 A3007 -90 81 1200 000/00 RMK AO2 T02610228
13976KLFT LFT20190912223010809/12/19 22:30:31  5-MIN KLFT 130430Z AUTO 00000KT 10SM CLR 26/23 A3007 -90 81 1200 000/00 RMK AO2 T02610228
13976KLFT LFT20190912223510809/12/19 22:35:31  5-MIN KLFT 130435Z AUTO 00000KT 10SM CLR 26/23 A3007 -90 81 1200 000/00 RMK AO2 T02610228
13976KLFT LFT20190912224010809/12/19 22:40:31  5-MIN KLFT 130440Z AUTO 00000KT 10SM CLR 26/23 A3007 -90 87 1100 000/00 RMK AO2 T02560233
13976KLFT LFT20190912224510809/12/19 22:45:31  5-MIN KLFT 130445Z AUTO 00000KT 10SM CLR 26/23 A3007 -90 87 1200 000/00 RMK AO2 T02560233
13976KLFT LFT20190912225011809/12/19 22:50:31  5-MIN KLFT 130450Z AUTO 00000KT 10SM FEW085 26/23 A3007 -90 87 1200 000/00 RMK AO2 SLP181 T02560233
13976KLFT LFT20190912225511109/12/19 22:55:31  5-MIN KLFT 130455Z AUTO 00000KT 10SM FEW085 26/24 A3007 -80 90 1200 000/00 RMK AO2 T02560239
13976KLFT LFT20190912230011109/12/19 23:00:31  5-MIN KLFT 130500Z AUTO 00000KT 10SM FEW085 26/24 A3007 -90 90 1200 000/00 RMK AO2 T02560239
13976KLFT LFT20190912230511109/12/19 23:05:31  5-MIN KLFT 130505Z AUTO 00000KT 10SM FEW085 26/24 A3007 -90 90 1100 000/00 RMK AO2 T02560239
13976KLFT LFT20190912231011809/12/19 23:10:31  5-MIN KLFT 130510Z AUTO 00000KT 10SM FEW060 SCT085 26/24 A3007 -90 90 1100 000/00 RMK AO2 T02560239
13976KLFT LFT20190912231511809/12/19 23:15:31  5-MIN KLFT 130515Z AUTO 00000KT 10SM FEW065 BKN085 26/24 A3006 -80 90 1200 000/00 RMK AO2 T02560239
13976KLFT LFT20190912232011809/12/19 23:20:31  5-MIN KLFT 130520Z AUTO 00000KT 10SM FEW070 SCT085 26/23 A3007 -80 87 1200 000/00 RMK AO2 T02560233
13976KLFT LFT20190912232511809/12/19 23:25:31  5-MIN KLFT 130525Z AUTO 00000KT 10SM FEW065 SCT085 26/23 A3007 -90 84 1200 000/00 RMK AO2 T02560228
13976KLFT LFT20190912233011809/12/19 23:30:31  5-MIN KLFT 130530Z AUTO 06004KT 10SM FEW065 FEW085 26/23 A3007 -90 87 1100 060/04 RMK AO2 T02560233
13976KLFT LFT20190912233511109/12/19 23:35:31  5-MIN KLFT 130535Z AUTO 05004KT 10SM FEW085 25/23 A3007 -90 90 1100 050/04 RMK AO2 T02500233
13976KLFT LFT20190912234011109/12/19 23:40:31  5-MIN KLFT 130540Z AUTO 04003KT 10SM FEW080 25/23 A3007 -90 87 1100 040/03 RMK AO2 T02500228
13976KLFT LFT20190912234510809/12/19 23:45:31  5-MIN KLFT 130545Z AUTO 04004KT 10SM CLR 25/23 A3007 -90 87 1100 040/04 RMK AO2 T02500228
13976KLFT LFT20190912235014309/12/19 23:50:31  5-MIN KLFT 130550Z AUTO 05004KT 10SM CLR 25/22 A3007 -90 84 1100 050/04 RMK AO2 SLP182 T02500222 10311 20250 403390228 53016
13976KLFT LFT20190912235510809/12/19 23:55:31  5-MIN KLFT 130555Z AUTO 04003KT 10SM CLR 25/22 A3007 -90 84 1100 040/03 RMK AO2 T02500222
13976KLFT LFT20190913000010809/13/19 00:00:31  5-MIN KLFT 130600Z AUTO 04004KT 10SM CLR 24/22 A3007 -90 87 1000 040/04 RMK AO2 T02440222
13976KLFT LFT20190913000511109/13/19 00:05:31  5-MIN KLFT 130605Z AUTO 04004KT 10SM FEW075 25/22 A3007 -90 84 1100 040/04 RMK AO2 T02500222
13976KLFT LFT20190913001011109/13/19 00:10:31  5-MIN KLFT 130610Z AUTO 03004KT 10SM SCT075 24/22 A3007 -90 87 1000 030/04 RMK AO2 T02440222
13976KLFT LFT20190913001511109/13/19 00:15:31  5-MIN KLFT 130615Z AUTO 01004KT 10SM FEW075 25/22 A3007 -90 84 1100 010/04 RMK AO2 T02500222
13976KLFT LFT20190913002011109/13/19 00:20:31  5-MIN KLFT 130620Z AUTO 00000KT 10SM FEW075 25/22 A3007 -90 84 1100 000/00 RMK AO2 T02500222
13976KLFT LFT20190913002511109/13/19 00:25:31  5-MIN KLFT 130625Z AUTO 00000KT 10SM FEW075 24/22 A3007 -90 87 1000 000/00 RMK AO2 T02440222
13976KLFT LFT20190913003011109/13/19 00:30:31  5-MIN KLFT 130630Z AUTO 00000KT 10SM FEW075 25/22 A3007 -90 81 1100 000/00 RMK AO2 T02500217
13976KLFT LFT20190913003511109/13/19 00:35:31  5-MIN KLFT 130635Z AUTO 00000KT 10SM FEW070 25/22 A3007 -90 81 1100 000/00 RMK AO2 T02500217
13976KLFT LFT20190913004010809/13/19 00:40:31  5-MIN KLFT 130640Z AUTO 00000KT 10SM CLR 25/23 A3007 -90 87 1100 000/00 RMK AO2 T02500228
13976KLFT LFT20190913004510809/13/19 00:45:31  5-MIN KLFT 130645Z AUTO 00000KT 10SM CLR 24/23 A3007 -90 90 1000 000/00 RMK AO2 T02440228
13976KLFT LFT20190913005011509/13/19 00:50:31  5-MIN KLFT 130650Z AUTO 00000KT 10SM CLR 25/23 A3007 -90 87 1100 000/00 RMK AO2 SLP182 T02500228
13976KLFT LFT20190913005510809/13/19 00:55:31  5-MIN KLFT 130655Z AUTO 00000KT 10SM CLR 24/23 A3007 -90 90 1000 000/00 RMK AO2 T02440228
13976KLFT LFT20190913010010809/13/19 01:00:31  5-MIN KLFT 130700Z AUTO 00000KT 10SM CLR 25/23 A3007 -90 87 1100 000/00 RMK AO2 T02500228
13976KLFT LFT20190913010510809/13/19 01:05:31  5-MIN KLFT 130705Z AUTO 00000KT 10SM CLR 24/23 A3007 -90 90 1000 000/00 RMK AO2 T02440228
13976KLFT LFT20190913011010809/13/19 01:10:31  5-MIN KLFT 130710Z AUTO 00000KT 10SM CLR 24/23 A3007 -90 90 1000 000/00 RMK AO2 T02440228
13976KLFT LFT20190913011510809/13/19 01:15:31  5-MIN KLFT 130715Z AUTO 00000KT 10SM CLR 25/23 A3007 -90 87 1100 000/00 RMK AO2 T02500228
13976KLFT LFT20190913012010809/13/19 01:20:31  5-MIN KLFT 130720Z AUTO 00000KT 10SM CLR 25/22 A3007 -90 84 1100 000/00 RMK AO2 T02500222
13976KLFT LFT20190913012510809/13/19 01:25:31  5-MIN KLFT 130725Z AUTO 00000KT 10SM CLR 25/22 A3007 -90 84 1100 000/00 RMK AO2 T02500222
13976KLFT LFT20190913013010809/13/19 01:30:31  5-MIN KLFT 130730Z AUTO 00000KT 10SM CLR 24/22 A3007 -80 87 1000 000/00 RMK AO2 T02440222
13976KLFT LFT20190913013510809/13/19 01:35:31  5-MIN KLFT 130735Z AUTO 00000KT 10SM CLR 24/22 A3006 -80 87 1000 000/00 RMK AO2 T02440222
13976KLFT LFT20190913014010809/13/19 01:40:31  5-MIN KLFT 130740Z AUTO 00000KT 10SM CLR 24/22 A3006 -80 87 1000 000/00 RMK AO2 T02440222
13976KLFT LFT20190913014510809/13/19 01:45:31  5-MIN KLFT 130745Z AUTO 01003KT 10SM CLR 24/22 A3006 -80 87 1000 010/03 RMK AO2 T02440222
13976KLFT LFT20190913015011509/13/19 01:50:31  5-MIN KLFT 130750Z AUTO 03003KT 10SM CLR 24/22 A3006 -80 84 1000 030/03 RMK AO2 SLP178 T02440217
13976KLFT LFT20190913015510809/13/19 01:55:31  5-MIN KLFT 130755Z AUTO 02004KT 10SM CLR 24/22 A3006 -80 87 1000 020/04 RMK AO2 T02440222
13976KLFT LFT20190913020010809/13/19 02:00:31  5-MIN KLFT 130800Z AUTO 03004KT 10SM CLR 24/22 A3006 -80 87 1000 030/04 RMK AO2 T02390217
13976KLFT LFT20190913020510809/13/19 02:05:31  5-MIN KLFT 130805Z AUTO 03003KT 10SM CLR 24/22 A3006 -80 87 1000 030/03 RMK AO2 T02440222
13976KLFT LFT20190913021010809/13/19 02:10:31  5-MIN KLFT 130810Z AUTO 04003KT 10SM CLR 24/22 A3006 -80 90 1000 040/03 RMK AO2 T02390222
13976KLFT LFT20190913021510809/13/19 02:15:31  5-MIN KLFT 130815Z AUTO 04003KT 10SM CLR 24/22 A3005 -70 90 1000 040/03 RMK AO2 T02390222
13976KLFT LFT20190913022010809/13/19 02:20:31  5-MIN KLFT 130820Z AUTO 04003KT 10SM CLR 24/22 A3005 -70 90 1000 040/03 RMK AO2 T02390222
13976KLFT LFT20190913022510709/13/19 02:25:31  5-MIN KLFT 130825Z AUTO 04004KT 9SM CLR 24/22 A3005 -70 87 1000 040/04 RMK AO2 T02390217
13976KLFT LFT20190913023010709/13/19 02:30:31  5-MIN KLFT 130830Z AUTO 04003KT 9SM CLR 24/22 A3005 -70 87 1000 040/03 RMK AO2 T02390217
13976KLFT LFT20190913023510709/13/19 02:35:31  5-MIN KLFT 130835Z AUTO 05003KT 9SM CLR 24/22 A3005 -70 87 1000 050/03 RMK AO2 T02390217
13976KLFT LFT20190913024010709/13/19 02:40:31  5-MIN KLFT 130840Z AUTO 04005KT 9SM CLR 24/22 A3005 -70 87 1000 040/05 RMK AO2 T02390217
13976KLFT LFT20190913024510709/13/19 02:45:31  5-MIN KLFT 130845Z AUTO 04005KT 9SM CLR 24/22 A3005 -70 87 1000 040/05 RMK AO2 T02390217
13976KLFT LFT20190913025011909/13/19 02:50:31  5-MIN KLFT 130850Z AUTO 04003KT 8SM CLR 23/22 A3005 -70 90 900 040/03 RMK AO2 SLP176 T02330217 55001
13976KLFT LFT20190913025510609/13/19 02:55:31  5-MIN KLFT 130855Z AUTO 00000KT 8SM CLR 23/22 A3006 -80 90 900 000/00 RMK AO2 T02330217
13976KLFT LFT20190913030010709/13/19 03:00:31  5-MIN KLFT 130900Z AUTO 00000KT 8SM CLR 24/22 A3005 -70 90 1000 000/00 RMK AO2 T02390222
13976KLFT LFT20190913030510709/13/19 03:05:31  5-MIN KLFT 130905Z AUTO 00000KT 8SM CLR 24/22 A3005 -70 90 1000 000/00 RMK AO2 T02390222
13976KLFT LFT20190913031010709/13/19 03:10:31  5-MIN KLFT 130910Z AUTO 00000KT 8SM CLR 24/22 A3005 -70 90 1000 000/00 RMK AO2 T02390222
13976KLFT LFT20190913031510709/13/19 03:15:31  5-MIN KLFT 130915Z AUTO 00000KT 7SM CLR 24/22 A3006 -80 90 1000 000/00 RMK AO2 T02390222
13976KLFT LFT20190913032010709/13/19 03:20:31  5-MIN KLFT 130920Z AUTO 00000KT 7SM CLR 24/22 A3006 -80 90 1000 000/00 RMK AO2 T02390222
13976KLFT LFT20190913032510709/13/19 03:25:31  5-MIN KLFT 130925Z AUTO 00000KT 7SM CLR 24/22 A3006 -80 90 1000 000/00 RMK AO2 T02390222
13976KLFT LFT20190913033010709/13/19 03:30:31  5-MIN KLFT 130930Z AUTO 00000KT 8SM CLR 24/22 A3006 -80 90 1000 000/00 RMK AO2 T02390222
13976KLFT LFT20190913033510609/13/19 03:35:31  5-MIN KLFT 130935Z AUTO 36003KT 8SM CLR 23/22 A3006 -80 90 900 360/03 RMK AO2 T02330217
13976KLFT LFT20190913034010709/13/19 03:40:31  5-MIN KLFT 130940Z AUTO 01003KT 9SM CLR 24/22 A3006 -80 87 1000 010/03 RMK AO2 T02390217
13976KLFT LFT20190913034510709/13/19 03:45:31  5-MIN KLFT 130945Z AUTO 02004KT 9SM CLR 24/22 A3006 -80 87 1000 020/04 RMK AO2 T02390217
13976KLFT LFT20190913035011409/13/19 03:50:31  5-MIN KLFT 130950Z AUTO 01004KT 9SM CLR 24/22 A3006 -80 87 1000 360/04 RMK AO2 SLP179 T02390217
13976KLFT LFT20190913035510709/13/19 03:55:31  5-MIN KLFT 130955Z AUTO 36003KT 9SM CLR 24/22 A3006 -80 87 1000 360/03 RMK AO2 T02390217
13976KLFT LFT20190913040010809/13/19 04:00:31  5-MIN KLFT 131000Z AUTO 36003KT 10SM CLR 24/22 A3007 -90 87 1000 360/03 RMK AO2 T02390217
13976KLFT LFT20190913040510809/13/19 04:05:31  5-MIN KLFT 131005Z AUTO 00000KT 10SM CLR 24/22 A3007 -90 87 1000 000/00 RMK AO2 T02390217
13976KLFT LFT20190913041010309/13/19 04:10:31  5-MIN KLFT 131010Z 00000KT 10SM CLR 24/22 A3007 -90 87 1000 000/00 RMK AO2 T02390217
13976KLFT LFT20190913041510309/13/19 04:15:31  5-MIN KLFT 131015Z 00000KT 10SM CLR 24/22 A3007 -90 87 1000 000/00 RMK AO2 T02390217
13976KLFT LFT20190913042010309/13/19 04:20:31  5-MIN KLFT 131020Z 00000KT 10SM CLR 24/22 A3007 -90 87 1000 000/00 RMK AO2 T02390217
13976KLFT LFT20190913042510309/13/19 04:25:31  5-MIN KLFT 131025Z 00000KT 10SM CLR 24/22 A3008 -90 87 1000 000/00 RMK AO2 T02390217
13976KLFT LFT20190913043010309/13/19 04:30:31  5-MIN KLFT 131030Z 00000KT 10SM CLR 24/22 A3008 -100 87 900 000/00 RMK AO2 T02390217
13976KLFT LFT20190913043510209/13/19 04:35:31  5-MIN KLFT 131035Z 00000KT 9SM CLR 24/22 A3008 -100 87 900 000/00 RMK AO2 T02390217
13976KLFT LFT20190913044010209/13/19 04:40:31  5-MIN KLFT 131040Z 00000KT 9SM CLR 24/22 A3008 -100 87 900 000/00 RMK AO2 T02390217
13976KLFT LFT20190913044510209/13/19 04:45:31  5-MIN KLFT 131045Z 03003KT 9SM CLR 23/22 A3008 -100 90 900 030/03 RMK AO2 T02330217
13976KLFT LFT20190913045010909/13/19 04:50:31  5-MIN KLFT 131050Z 00000KT 9SM CLR 24/22 A3008 -100 87 900 000/00 RMK AO2 SLP185 T02390217
13976KLFT LFT20190913045510209/13/19 04:55:31  5-MIN KLFT 131055Z 00000KT 9SM CLR 23/22 A3008 -100 90 900 000/00 RMK AO2 T02330217
13976KLFT LFT20190913050010209/13/19 05:00:31  5-MIN KLFT 131100Z 00000KT 9SM CLR 24/22 A3008 -100 87 900 000/00 RMK AO2 T02390217
13976KLFT LFT20190913050510209/13/19 05:05:31  5-MIN KLFT 131105Z 00000KT 9SM CLR 24/22 A3009 -100 87 900 000/00 RMK AO2 T02390217
13976KLFT LFT20190913051010209/13/19 05:10:31  5-MIN KLFT 131110Z 36003KT 9SM CLR 23/22 A3009 -100 90 900 350/03 RMK AO2 T02330217
13976KLFT LFT20190913051510209/13/19 05:15:31  5-MIN KLFT 131115Z 35003KT 9SM CLR 24/22 A3009 -110 87 900 350/03 RMK AO2 T02390217
13976KLFT LFT20190913052010309/13/19 05:20:31  5-MIN KLFT 131120Z 36004KT 10SM CLR 24/22 A3009 -110 87 900 360/04 RMK AO2 T02390217
13976KLFT LFT20190913052510309/13/19 05:25:31  5-MIN KLFT 131125Z 01003KT 10SM CLR 24/21 A3009 -110 84 900 010/03 RMK AO2 T02390211
13976KLFT LFT20190913053010309/13/19 05:30:31  5-MIN KLFT 131130Z 01004KT 10SM CLR 24/21 A3009 -110 84 900 010/04 RMK AO2 T02390211
13976KLFT LFT20190913053510309/13/19 05:35:31  5-MIN KLFT 131135Z 01004KT 10SM CLR 24/21 A3009 -110 84 900 010/04 RMK AO2 T02390211
13976KLFT LFT20190913054010309/13/19 05:40:31  5-MIN KLFT 131140Z 02003KT 10SM CLR 24/21 A3010 -110 84 900 020/03 RMK AO2 T02390211
13976KLFT LFT20190913054510309/13/19 05:45:31  5-MIN KLFT 131145Z 02004KT 10SM CLR 23/21 A3009 -110 87 900 020/04 RMK AO2 T02330211
13976KLFT LFT20190913055012809/13/19 05:50:31  5-MIN KLFT 131150Z 02004KT 10SM CLR 23/21 A3009 -110 87 900 020/04 RMK AO2 SLP189 T02330211 10250 20233 58005
13976KLFT LFT20190913055510309/13/19 05:55:31  5-MIN KLFT 131155Z 02004KT 10SM CLR 23/21 A3009 -110 87 900 020/04 RMK AO2 T02330211
13976KLFT LFT20190913060010309/13/19 06:00:31  5-MIN KLFT 131200Z 01004KT 10SM CLR 23/21 A3009 -110 87 900 010/04 RMK AO2 T02330211
13976KLFT LFT20190913060510309/13/19 06:05:31  5-MIN KLFT 131205Z 36004KT 10SM CLR 23/21 A3009 -110 87 900 360/04 RMK AO2 T02330211
13976KLFT LFT20190913061010309/13/19 06:10:31  5-MIN KLFT 131210Z 01005KT 10SM CLR 23/21 A3009 -110 87 900 010/05 RMK AO2 T02330211
13976KLFT LFT20190913061510309/13/19 06:15:31  5-MIN KLFT 131215Z 02004KT 10SM CLR 23/21 A3010 -110 87 900 020/04 RMK AO2 T02330211
13976KLFT LFT20190913062010309/13/19 06:20:31  5-MIN KLFT 131220Z 02004KT 10SM CLR 23/21 A3010 -110 87 900 020/04 RMK AO2 T02330211
13976KLFT LFT20190913062510309/13/19 06:25:31  5-MIN KLFT 131225Z 02005KT 10SM CLR 23/21 A3010 -110 87 900 020/05 RMK AO2 T02330211
13976KLFT LFT20190913063010309/13/19 06:30:31  5-MIN KLFT 131230Z 02004KT 10SM CLR 24/21 A3010 -110 84 900 020/04 RMK AO2 T02390211
13976KLFT LFT20190913063510309/13/19 06:35:31  5-MIN KLFT 131235Z 01004KT 10SM CLR 24/21 A3010 -120 84 900 010/04 RMK AO2 T02390211
13976KLFT LFT20190913064010309/13/19 06:40:31  5-MIN KLFT 131240Z 02004KT 10SM CLR 24/21 A3010 -120 84 900 020/04 RMK AO2 T02390211
13976KLFT LFT20190913064510309/13/19 06:45:31  5-MIN KLFT 131245Z 02004KT 10SM CLR 24/21 A3010 -120 84 900 020/04 RMK AO2 T02390211
13976KLFT LFT20190913065011109/13/19 06:50:31  5-MIN KLFT 131250Z 03004KT 10SM CLR 24/22 A3010 -120 84 1000 030/04 RMK AO2 SLP193 T02440217
13976KLFT LFT20190913065510409/13/19 06:55:31  5-MIN KLFT 131255Z 03004KT 10SM CLR 24/22 A3010 -120 84 1000 030/04 RMK AO2 T02440217
13976KLFT LFT20190913070010409/13/19 07:00:31  5-MIN KLFT 131300Z 02004KT 10SM CLR 24/22 A3010 -120 84 1000 020/04 RMK AO2 T02440217
13976KLFT LFT20190913070510409/13/19 07:05:31  5-MIN KLFT 131305Z 03003KT 10SM CLR 25/22 A3010 -120 81 1000 020/03 RMK AO2 T02500217
13976KLFT LFT20190913071010409/13/19 07:10:31  5-MIN KLFT 131310Z 04004KT 10SM CLR 25/22 A3011 -120 81 1000 040/04 RMK AO2 T02500217
13976KLFT LFT20190913071510409/13/19 07:15:31  5-MIN KLFT 131315Z 04004KT 10SM CLR 25/22 A3011 -120 81 1000 040/04 RMK AO2 T02500217
13976KLFT LFT20190913072010409/13/19 07:20:31  5-MIN KLFT 131320Z 04004KT 10SM CLR 26/21 A3011 -120 76 1100 040/04 RMK AO2 T02560211
13976KLFT LFT20190913072510409/13/19 07:25:31  5-MIN KLFT 131325Z 05005KT 10SM CLR 26/22 A3011 -120 79 1100 040/05 RMK AO2 T02560217
13976KLFT LFT20190913073010409/13/19 07:30:31  5-MIN KLFT 131330Z 04005KT 10SM CLR 26/22 A3011 -120 79 1100 040/05 RMK AO2 T02560217
13976KLFT LFT20190913073510409/13/19 07:35:31  5-MIN KLFT 131335Z 03005KT 10SM CLR 26/22 A3011 -130 76 1200 030/05 RMK AO2 T02610217
13976KLFT LFT20190913074010409/13/19 07:40:31  5-MIN KLFT 131340Z 04005KT 10SM CLR 26/22 A3011 -130 76 1200 040/05 RMK AO2 T02610217
13976KLFT LFT20190913074510409/13/19 07:45:31  5-MIN KLFT 131345Z 02006KT 10SM CLR 27/22 A3011 -120 73 1200 020/06 RMK AO2 T02670217
13976KLFT LFT20190913075011109/13/19 07:50:31  5-MIN KLFT 131350Z 02005KT 10SM CLR 27/22 A3011 -120 73 1200 020/05 RMK AO2 SLP195 T02670217
13976KLFT LFT20190913075510409/13/19 07:55:31  5-MIN KLFT 131355Z 02006KT 10SM CLR 27/22 A3011 -130 71 1300 020/06 RMK AO2 T02720217
13976KLFT LFT20190913080010409/13/19 08:00:31  5-MIN KLFT 131400Z 02005KT 10SM CLR 27/22 A3011 -130 71 1300 020/05 RMK AO2 T02720217
13976KLFT LFT20190913080510409/13/19 08:05:31  5-MIN KLFT 131405Z 02006KT 10SM CLR 28/22 A3011 -130 69 1300 020/06 RMK AO2 T02780217
13976KLFT LFT20190913081010409/13/19 08:10:31  5-MIN KLFT 131410Z 02005KT 10SM CLR 28/22 A3011 -130 66 1400 020/05 RMK AO2 T02830217
13976KLFT LFT20190913081510409/13/19 08:15:31  5-MIN KLFT 131415Z 01005KT 10SM CLR 28/22 A3011 -130 66 1400 010/05 RMK AO2 T02830217
13976KLFT LFT20190913082010409/13/19 08:20:31  5-MIN KLFT 131420Z 01007KT 10SM CLR 28/22 A3011 -130 66 1400 010/07 RMK AO2 T02830217
13976KLFT LFT20190913082510409/13/19 08:25:31  5-MIN KLFT 131425Z 02006KT 10SM CLR 28/22 A3011 -130 66 1400 020/06 RMK AO2 T02830217
13976KLFT LFT20190913083010409/13/19 08:30:31  5-MIN KLFT 131430Z 03007KT 10SM CLR 29/22 A3011 -130 64 1500 020/07 RMK AO2 T02890217
13976KLFT LFT20190913083510409/13/19 08:35:31  5-MIN KLFT 131435Z 03006KT 10SM CLR 29/22 A3012 -130 64 1500 020/06 RMK AO2 T02890217
13976KLFT LFT20190913084010409/13/19 08:40:31  5-MIN KLFT 131440Z 04006KT 10SM CLR 29/22 A3012 -130 67 1500 040/06 RMK AO2 T02890222
13976KLFT LFT20190913084510409/13/19 08:45:31  5-MIN KLFT 131445Z 03005KT 10SM CLR 29/22 A3012 -130 64 1500 030/05 RMK AO2 T02940222
13976KLFT LFT20190913085011709/13/19 08:50:31  5-MIN KLFT 131450Z 05005KT 10SM CLR 29/22 A3012 -130 62 1500 050/05 RMK AO2 SLP197 T02940217 53013
13976KLFT LFT20190913085510409/13/19 08:55:31  5-MIN KLFT 131455Z 05006KT 10SM CLR 29/22 A3011 -130 62 1500 050/06 RMK AO2 T02940217
13976KLFT LFT20190913090010409/13/19 09:00:31  5-MIN KLFT 131500Z 05005KT 10SM CLR 29/22 A3011 -130 62 1500 050/05 RMK AO2 T02940217
13976KLFT LFT20190913090510409/13/19 09:05:31  5-MIN KLFT 131505Z 05005KT 10SM CLR 30/22 A3011 -130 62 1600 050/05 RMK AO2 T03000222
13976KLFT LFT20190913091010409/13/19 09:10:31  5-MIN KLFT 131510Z 05006KT 10SM CLR 30/22 A3011 -130 60 1600 050/06 RMK AO2 T03000217
13976KLFT LFT20190913091510409/13/19 09:15:31  5-MIN KLFT 131515Z 05006KT 10SM CLR 30/22 A3011 -130 60 1600 050/06 RMK AO2 T03000217
13976KLFT LFT20190913092010409/13/19 09:20:31  5-MIN KLFT 131520Z 05006KT 10SM CLR 30/22 A3011 -130 60 1600 050/06 RMK AO2 T03000217
13976KLFT LFT20190913092510409/13/19 09:25:31  5-MIN KLFT 131525Z 05006KT 10SM CLR 31/22 A3011 -130 58 1700 050/06 RMK AO2 T03060217
13976KLFT LFT20190913093010409/13/19 09:30:31  5-MIN KLFT 131530Z 06006KT 10SM CLR 31/22 A3011 -130 58 1700 060/06 RMK AO2 T03060217
13976KLFT LFT20190913093510409/13/19 09:35:31  5-MIN KLFT 131535Z 04006KT 10SM CLR 31/22 A3011 -130 60 1700 040/06 RMK AO2 T03060222
13976KLFT LFT20190913094010409/13/19 09:40:31  5-MIN KLFT 131540Z 05005KT 10SM CLR 31/22 A3011 -130 60 1700 050/05 RMK AO2 T03060222
13976KLFT LFT20190913094510409/13/19 09:45:31  5-MIN KLFT 131545Z 05005KT 10SM CLR 31/22 A3011 -130 58 1700 050/05 RMK AO2 T03110222
13976KLFT LFT20190913095011109/13/19 09:50:31  5-MIN KLFT 131550Z 04007KT 10SM CLR 31/22 A3011 -130 56 1700 040/07 RMK AO2 SLP196 T03110217
13976KLFT LFT20190913095510409/13/19 09:55:31  5-MIN KLFT 131555Z 02008KT 10SM CLR 32/22 A3011 -130 56 1800 020/08 RMK AO2 T03170222
13976KLFT LFT20190913100010409/13/19 10:00:31  5-MIN KLFT 131600Z 04006KT 10SM CLR 32/22 A3011 -130 55 1800 040/06 RMK AO2 T03170217
13976KLFT LFT20190913100510409/13/19 10:05:31  5-MIN KLFT 131605Z 03009KT 10SM CLR 32/22 A3011 -130 56 1800 030/09 RMK AO2 T03170222
13976KLFT LFT20190913101010409/13/19 10:10:31  5-MIN KLFT 131610Z 03006KT 10SM CLR 32/22 A3011 -130 56 1800 030/06 RMK AO2 T03170222
13976KLFT LFT20190913101510409/13/19 10:15:31  5-MIN KLFT 131615Z 07005KT 10SM CLR 32/22 A3011 -130 56 1800 070/05 RMK AO2 T03170222
13976KLFT LFT20190913102010409/13/19 10:20:31  5-MIN KLFT 131620Z 07005KT 10SM CLR 32/22 A3011 -130 56 1800 070/05 RMK AO2 T03170222
13976KLFT LFT20190913102510409/13/19 10:25:31  5-MIN KLFT 131625Z 06005KT 10SM CLR 32/22 A3011 -130 55 1800 060/05 RMK AO2 T03220222
13976KLFT LFT20190914071010409/14/19 07:10:31  5-MIN KLFT 141310Z 00000KT 10SM CLR 24/22 A3009 -100 84 1000 000/00 RMK AO2 T02440217
13976KLFT LFT20190914071510409/14/19 07:15:31  5-MIN KLFT 141315Z 07003KT 10SM CLR 25/22 A3009 -100 84 1100 070/03 RMK AO2 T02500222
13976KLFT LFT20190914072010409/14/19 07:20:31  5-MIN KLFT 141320Z 06003KT 10SM CLR 25/22 A3009 -110 84 1100 060/03 RMK AO2 T02500222
13976KLFT LFT20190914072510409/14/19 07:25:31  5-MIN KLFT 141325Z 00000KT 10SM CLR 25/22 A3009 -110 84 1100 000/00 RMK AO2 T02500222
13976KLFT LFT20190914073010409/14/19 07:30:31  5-MIN KLFT 141330Z 00000KT 10SM CLR 26/22 A3009 -110 81 1100 000/00 RMK AO2 T02560222
13976KLFT LFT20190914073510409/14/19 07:35:31  5-MIN KLFT 141335Z 00000KT 10SM CLR 26/22 A3010 -110 81 1100 000/00 RMK AO2 T02560222
13976KLFT LFT20190914074010409/14/19 07:40:31  5-MIN KLFT 141340Z VRB03KT 10SM CLR 26/22 A3009 -110 79 1200 VRB/03 RMK AO2 T02610222
13976KLFT LFT20190914074510409/14/19 07:45:31  5-MIN KLFT 141345Z 07003KT 10SM CLR 27/22 A3009 -110 76 1200 070/03 RMK AO2 T02670222
13976KLFT LFT20190914075011109/14/19 07:50:31  5-MIN KLFT 141350Z 06003KT 10SM CLR 27/22 A3010 -110 76 1200 060/03 RMK AO2 SLP191 T02670222
13976KLFT LFT20190914075510409/14/19 07:55:31  5-MIN KLFT 141355Z 06003KT 10SM CLR 27/22 A3010 -110 76 1200 060/03 RMK AO2 T02670222
13976KLFT LFT20190914080010409/14/19 08:00:31  5-MIN KLFT 141400Z 06003KT 10SM CLR 27/23 A3009 -110 76 1300 060/03 RMK AO2 T02720228
13976KLFT LFT20190914080510409/14/19 08:05:31  5-MIN KLFT 141405Z 06003KT 10SM CLR 28/22 A3009 -110 71 1400 060/03 RMK AO2 T02780222
13976KLFT LFT20190914081010409/14/19 08:10:31  5-MIN KLFT 141410Z 07004KT 10SM CLR 28/23 A3009 -110 71 1400 060/04 RMK AO2 T02830228
13976KLFT LFT20190914081510409/14/19 08:15:31  5-MIN KLFT 141415Z 08003KT 10SM CLR 28/22 A3009 -110 69 1400 080/03 RMK AO2 T02830222
13976KLFT LFT20190914082010409/14/19 08:20:31  5-MIN KLFT 141420Z 00000KT 10SM CLR 28/22 A3009 -110 69 1400 000/00 RMK AO2 T02830222
13976KLFT LFT20190914082510409/14/19 08:25:31  5-MIN KLFT 141425Z 08003KT 10SM CLR 29/22 A3009 -110 67 1500 080/03 RMK AO2 T02890222
13976KLFT LFT20190914083010409/14/19 08:30:31  5-MIN KLFT 141430Z 08003KT 10SM CLR 29/23 A3009 -110 69 1500 080/03 RMK AO2 T02890228
13976KLFT LFT20190914083510409/14/19 08:35:31  5-MIN KLFT 141435Z 09004KT 10SM CLR 29/23 A3009 -110 69 1500 080/04 RMK AO2 T02890228
13976KLFT LFT20190914084010409/14/19 08:40:31  5-MIN KLFT 141440Z VRB04KT 10SM CLR 29/23 A3009 -110 67 1600 VRB/04 RMK AO2 T02940228
13976KLFT LFT20190914084510409/14/19 08:45:31  5-MIN KLFT 141445Z VRB03KT 10SM CLR 30/23 A3009 -110 65 1600 VRB/03 RMK AO2 T03000228
13976KLFT LFT20190914085011709/14/19 08:50:31  5-MIN KLFT 141450Z VRB05KT 10SM CLR 30/23 A3009 -110 65 1600 VRB/05 RMK AO2 SLP190 T03000228 53009
13976KLFT LFT20190914085510409/14/19 08:55:31  5-MIN KLFT 141455Z VRB05KT 10SM CLR 30/22 A3009 -110 62 1600 VRB/05 RMK AO2 T03000222
13976KLFT LFT20190914090010409/14/19 09:00:31  5-MIN KLFT 141500Z 06004KT 10SM CLR 30/22 A3009 -110 62 1600 060/04 RMK AO2 T03000222
13976KLFT LFT20190914090510409/14/19 09:05:31  5-MIN KLFT 141505Z VRB03KT 10SM CLR 31/23 A3009 -110 62 1700 VRB/03 RMK AO2 T03060228
13976KLFT LFT20190914091010409/14/19 09:10:31  5-MIN KLFT 141510Z 05005KT 10SM CLR 31/22 A3009 -110 60 1700 050/05 RMK AO2 T03060222
13976KLFT LFT20190914091510409/14/19 09:15:31  5-MIN KLFT 141515Z 05006KT 10SM CLR 31/22 A3009 -110 60 1700 050/06 RMK AO2 T03060222
13976KLFT LFT20190914092010409/14/19 09:20:31  5-MIN KLFT 141520Z VRB04KT 10SM CLR 31/22 A3009 -110 60 1700 VRB/04 RMK AO2 T03060222
13976KLFT LFT20190914092510409/14/19 09:25:31  5-MIN KLFT 141525Z VRB03KT 10SM CLR 31/22 A3009 -110 58 1700 VRB/03 RMK AO2 T03060217
13976KLFT LFT20190914093010409/14/19 09:30:31  5-MIN KLFT 141530Z 09004KT 10SM CLR 31/22 A3010 -110 58 1700 090/04 RMK AO2 T03060217
13976KLFT LFT20190914093510409/14/19 09:35:31  5-MIN KLFT 141535Z 06005KT 10SM CLR 31/22 A3010 -110 56 1700 060/05 RMK AO2 T03110217
13976KLFT LFT20190914094010409/14/19 09:40:31  5-MIN KLFT 141540Z 08005KT 10SM CLR 31/21 A3010 -110 54 1700 080/05 RMK AO2 T03110211
13976KLFT LFT20190914094510409/14/19 09:45:31  5-MIN KLFT 141545Z 07006KT 10SM CLR 31/21 A3010 -120 56 1700 070/06 RMK AO2 T03060211
13976KLFT LFT20190914095011109/14/19 09:50:31  5-MIN KLFT 141550Z 07004KT 10SM CLR 31/22 A3010 -120 56 1700 070/04 RMK AO2 SLP192 T03110217
13976KLFT LFT20190914095510409/14/19 09:55:31  5-MIN KLFT 141555Z 11005KT 10SM CLR 31/21 A3010 -120 54 1700 110/05 RMK AO2 T03110211
13976KLFT LFT20190914100010409/14/19 10:00:31  5-MIN KLFT 141600Z 06006KT 10SM CLR 31/21 A3010 -110 54 1700 060/06 RMK AO2 T03110211
13976KLFT LFT20190914100510409/14/19 10:05:31  5-MIN KLFT 141605Z VRB06KT 10SM CLR 31/22 A3010 -110 56 1700 VRB/06 RMK AO2 T03110217
13976KLFT LFT20190914101010409/14/19 10:10:31  5-MIN KLFT 141610Z VRB03KT 10SM CLR 32/21 A3010 -110 53 1800 VRB/03 RMK AO2 T03170211
13976KLFT LFT20190914101510409/14/19 10:15:31  5-MIN KLFT 141615Z VRB04KT 10SM CLR 32/22 A3010 -110 55 1800 VRB/04 RMK AO2 T03170217
13976KLFT LFT20190914102010409/14/19 10:20:31  5-MIN KLFT 141620Z 06007KT 10SM CLR 32/22 A3010 -110 53 1900 060/07 RMK AO2 T03220217
13976KLFT LFT20190914102510409/14/19 10:25:31  5-MIN KLFT 141625Z 07006KT 10SM CLR 32/21 A3010 -110 51 1800 070/06 RMK AO2 T03170206
13976KLFT LFT20190914103010409/14/19 10:30:31  5-MIN KLFT 141630Z VRB04KT 10SM CLR 31/21 A3010 -110 53 1700 VRB/04 RMK AO2 T03110206
13976KLFT LFT20190914103510409/14/19 10:35:31  5-MIN KLFT 141635Z VRB05KT 10SM CLR 32/21 A3009 -110 51 1900 VRB/05 RMK AO2 T03220211
13976KLFT LFT20190914104010409/14/19 10:40:31  5-MIN KLFT 141640Z 05004KT 10SM CLR 32/22 A3009 -110 53 1900 050/04 RMK AO2 T03220217
13976KLFT LFT20190914104510409/14/19 10:45:31  5-MIN KLFT 141645Z VRB04KT 10SM CLR 32/21 A3009 -110 51 1900 VRB/04 RMK AO2 T03220211
13976KLFT LFT20190914105011109/14/19 10:50:31  5-MIN KLFT 141650Z VRB05KT 10SM CLR 32/21 A3009 -110 51 1900 VRB/05 RMK AO2 SLP188 T03220211
13976KLFT LFT20190914105510409/14/19 10:55:31  5-MIN KLFT 141655Z 08004KT 10SM CLR 32/21 A3009 -110 49 1900 080/04 RMK AO2 T03220206
13976KLFT LFT20190914110010409/14/19 11:00:31  5-MIN KLFT 141700Z 05007KT 10SM CLR 32/21 A3009 -100 49 1900 050/07 RMK AO2 T03220206
13976KLFT LFT20190914110510409/14/19 11:05:31  5-MIN KLFT 141705Z 05011KT 10SM CLR 33/21 A3009 -100 48 1900 050/11 RMK AO2 T03280206
13976KLFT LFT20190914111010409/14/19 11:10:31  5-MIN KLFT 141710Z 05008KT 10SM CLR 32/20 A3009 -100 48 1900 050/08 RMK AO2 T03220200
13976KLFT LFT20190914111510409/14/19 11:15:31  5-MIN KLFT 141715Z 09004KT 10SM CLR 32/21 A3009 -100 49 1900 090/04 RMK AO2 T03220206
13976KLFT LFT20190914112010709/14/19 11:20:31  5-MIN KLFT 141720Z 08006KT 10SM FEW048 33/21 A3008 -100 48 1900 080/06 RMK AO2 T03280206
13976KLFT LFT20190914112510709/14/19 11:25:31  5-MIN KLFT 141725Z 07007KT 10SM FEW048 32/21 A3008 -100 49 1900 070/07 RMK AO2 T03220206
13976KLFT LFT20190914113010709/14/19 11:30:31  5-MIN KLFT 141730Z 08005KT 10SM FEW049 32/21 A3008 -100 49 1900 080/05 RMK AO2 T03220206
13976KLFT LFT20190914113510709/14/19 11:35:31  5-MIN KLFT 141735Z 04010KT 10SM FEW049 33/21 A3008 -100 48 1900 040/10 RMK AO2 T03280206
13976KLFT LFT20190914114010709/14/19 11:40:31  5-MIN KLFT 141740Z 06010KT 10SM FEW049 33/20 A3008 -100 46 1900 060/10 RMK AO2 T03280200
13976KLFT LFT20190914114510609/14/19 11:45:31  5-MIN KLFT 141745Z 05007KT 10SM FEW049 33/19 A3008 -90 44 1900 050/07 RMK AO2 T03280194
13976KLFT LFT20190914115013109/14/19 11:50:31  5-MIN KLFT 141750Z VRB05KT 10SM FEW049 33/19 A3007 -90 44 2000 VRB/05 RMK AO2 SLP183 T03280194 10328 20222 50007
13976KLFT LFT20190914115511909/14/19 11:55:31  5-MIN KLFT 141755Z 08007KT 050V110 10SM CLR 33/19 A3007 -90 44 2000 080/07 050V110 RMK AO2 T03280194
13976KLFT LFT20190914120010309/14/19 12:00:31  5-MIN KLFT 141800Z 06010KT 10SM CLR 33/20 A3007 -90 46 2000 060/10 RMK AO2 T03280200
13976KLFT LFT20190914120510909/14/19 12:05:31  5-MIN KLFT 141805Z 05010G18KT 10SM CLR 33/19 A3007 -90 44 2000 050/10G18 RMK AO2 T03280194
13976KLFT LFT20190914121012509/14/19 12:10:31  5-MIN KLFT 141810Z 05007G18KT 030V090 10SM CLR 33/20 A3007 -90 46 2000 050/07G18 030V090 RMK AO2 T03280200
13976KLFT LFT20190914121510309/14/19 12:15:31  5-MIN KLFT 141815Z 05009KT 10SM CLR 33/20 A3007 -90 46 2000 050/09 RMK AO2 T03280200
13976KLFT LFT20190914122010909/14/19 12:20:31  5-MIN KLFT 141820Z 04011G15KT 10SM CLR 33/20 A3007 -90 45 2000 040/11G15 RMK AO2 T03330200
13976KLFT LFT20190914122510909/14/19 12:25:31  5-MIN KLFT 141825Z 06008G15KT 10SM CLR 33/21 A3007 -90 46 2000 060/08G15 RMK AO2 T03330206
13976KLFT LFT20190914123010909/14/19 12:30:31  5-MIN KLFT 141830Z 07010G16KT 10SM CLR 33/20 A3007 -90 46 2000 070/10G16 RMK AO2 T03280200
13976KLFT LFT20190914123510909/14/19 12:35:31  5-MIN KLFT 141835Z 07008G16KT 10SM CLR 33/20 A3007 -90 46 2000 070/08G16 RMK AO2 T03280200
13976KLFT LFT20190914124010309/14/19 12:40:31  5-MIN KLFT 141840Z VRB05KT 10SM CLR 33/21 A3006 -80 46 2000 VRB/05 RMK AO2 T03330206
13976KLFT LFT20190914124510909/14/19 12:45:31  5-MIN KLFT 141845Z 05010G14KT 10SM CLR 33/19 A3006 -80 43 2000 050/10G14 RMK AO2 T03330194
13976KLFT LFT20190914125011009/14/19 12:50:31  5-MIN KLFT 141850Z 06008KT 10SM CLR 33/19 A3006 -80 43 2000 060/08 RMK AO2 SLP178 T03280189
13976KLFT LFT20190914125510309/14/19 12:55:31  5-MIN KLFT 141855Z 08007KT 10SM CLR 33/19 A3006 -80 42 2000 080/07 RMK AO2 T03330189
13976KLFT LFT20190914130010309/14/19 13:00:31  5-MIN KLFT 141900Z VRB06KT 10SM CLR 33/19 A3006 -80 44 2000 VRB/06 RMK AO2 T03280194
13976KLFT LFT20190914130510309/14/19 13:05:31  5-MIN KLFT 141905Z 06007KT 10SM CLR 33/19 A3005 -70 44 2000 060/07 RMK AO2 T03280194
13976KLFT LFT20190914131010309/14/19 13:10:31  5-MIN KLFT 141910Z 08007KT 10SM CLR 33/19 A3005 -70 42 2000 080/07 RMK AO2 T03330189
13976KLFT LFT20190914131510309/14/19 13:15:31  5-MIN KLFT 141915Z VRB05KT 10SM CLR 33/19 A3005 -70 43 2000 VRB/05 RMK AO2 T03280189
13976KLFT LFT20190914132010309/14/19 13:20:31  5-MIN KLFT 141920Z 07007KT 10SM CLR 33/19 A3004 -60 43 2000 070/07 RMK AO2 T03330194
13976KLFT LFT20190914132510309/14/19 13:25:31  5-MIN KLFT 141925Z 08008KT 10SM CLR 33/19 A3004 -60 43 2000 080/08 RMK AO2 T03330194
13976KLFT LFT20190914133010309/14/19 13:30:31  5-MIN KLFT 141930Z 08007KT 10SM CLR 33/19 A3004 -60 42 2000 080/07 RMK AO2 T03330189
13976KLFT LFT20190914133510309/14/19 13:35:31  5-MIN KLFT 141935Z 10008KT 10SM CLR 33/18 A3004 -60 40 2100 100/08 RMK AO2 T03330183
13976KLFT LFT20190914134010909/14/19 13:40:31  5-MIN KLFT 141940Z VRB06G16KT 10SM CLR 33/19 A3003 -50 42 2100 VRB/06G16 RMK AO2 T03330189
13976KLFT LFT20190914134512509/14/19 13:45:31  5-MIN KLFT 141945Z 08008G16KT 060V120 10SM CLR 33/19 A3003 -50 42 2100 080/08G16 060V120 RMK AO2 T03330189
13976KLFT LFT20190914135011609/14/19 13:50:31  5-MIN KLFT 141950Z 07010G15KT 10SM CLR 33/18 A3003 -50 40 2100 060/10G15 RMK AO2 SLP169 T03330183
13976KLFT LFT20190914135510909/14/19 13:55:31  5-MIN KLFT 141955Z 06009G15KT 10SM CLR 33/18 A3003 -50 40 2100 060/09G15 RMK AO2 T03330183
13976KLFT LFT20190914140010309/14/19 14:00:31  5-MIN KLFT 142000Z 07007KT 10SM CLR 33/18 A3003 -50 40 2100 070/07 RMK AO2 T03330183
13976KLFT LFT20190914140510909/14/19 14:05:31  5-MIN KLFT 142005Z 06010G14KT 10SM CLR 33/18 A3003 -50 39 2100 050/10G14 RMK AO2 T03330178
13976KLFT LFT20190914141010909/14/19 14:10:31  5-MIN KLFT 142010Z VRB06G14KT 10SM CLR 33/18 A3003 -50 40 2000 VRB/06G14 RMK AO2 T03280178
13976KLFT LFT20190914141510309/14/19 14:15:31  5-MIN KLFT 142015Z 05012KT 10SM CLR 33/18 A3003 -50 39 2100 050/12 RMK AO2 T03330178
13976KLFT LFT20190914142011909/14/19 14:20:31  5-MIN KLFT 142020Z 07007KT 050V110 10SM CLR 33/18 A3002 -50 39 2100 070/07 050V110 RMK AO2 T03330178
13976KLFT LFT20190914142510909/14/19 14:25:31  5-MIN KLFT 142025Z 07009G15KT 10SM CLR 33/19 A3002 -50 42 2100 070/09G15 RMK AO2 T03330189
13976KLFT LFT20190914143010309/14/19 14:30:31  5-MIN KLFT 142030Z VRB05KT 10SM CLR 33/19 A3003 -50 42 2100 VRB/05 RMK AO2 T03330189
13976KLFT LFT20190914143510309/14/19 14:35:31  5-MIN KLFT 142035Z VRB05KT 10SM CLR 33/19 A3002 -50 43 2000 VRB/05 RMK AO2 T03280189
13976KLFT LFT20190914144010309/14/19 14:40:31  5-MIN KLFT 142040Z 05010KT 10SM CLR 33/19 A3002 -50 43 2100 050/10 RMK AO2 T03330194
13976KLFT LFT20190914144510309/14/19 14:45:31  5-MIN KLFT 142045Z 05008KT 10SM CLR 33/18 A3002 -50 40 2100 050/08 RMK AO2 T03330183
13976KLFT LFT20190914145011609/14/19 14:50:31  5-MIN KLFT 142050Z 06010KT 10SM CLR 33/19 A3002 -40 42 2100 060/10 RMK AO2 SLP166 T03330189 58007
13976KLFT LFT20190914145510309/14/19 14:55:31  5-MIN KLFT 142055Z 05007KT 10SM CLR 33/18 A3002 -50 40 2100 050/07 RMK AO2 T03330183
13976KLFT LFT20190914150010309/14/19 15:00:31  5-MIN KLFT 142100Z 04008KT 10SM CLR 33/19 A3002 -50 42 2100 040/08 RMK AO2 T03330189
13976KLFT LFT20190914150510909/14/19 15:05:31  5-MIN KLFT 142105Z 07007G14KT 10SM CLR 33/19 A3002 -40 42 2100 070/07G14 RMK AO2 T03330189
13976KLFT LFT20190914151010309/14/19 15:10:31  5-MIN KLFT 142110Z 05007KT 10SM CLR 33/19 A3002 -40 43 2100 050/07 RMK AO2 T03330194
13976KLFT LFT20190914151510309/14/19 15:15:31  5-MIN KLFT 142115Z 06008KT 10SM CLR 33/19 A3002 -40 43 2100 050/08 RMK AO2 T03330194
13976KLFT LFT20190914152010309/14/19 15:20:31  5-MIN KLFT 142120Z VRB06KT 10SM CLR 33/19 A3002 -40 43 2000 VRB/06 RMK AO2 T03280189
13976KLFT LFT20190914152510309/14/19 15:25:31  5-MIN KLFT 142125Z 06007KT 10SM CLR 33/19 A3002 -40 42 2100 060/07 RMK AO2 T03330189
13976KLFT LFT20190914153010909/14/19 15:30:31  5-MIN KLFT 142130Z 05009G14KT 10SM CLR 33/18 A3002 -40 40 2100 050/09G14 RMK AO2 T03330183
13976KLFT LFT20190914153510909/14/19 15:35:31  5-MIN KLFT 142135Z 08008G14KT 10SM CLR 33/18 A3002 -40 41 2000 080/08G14 RMK AO2 T03280183
13976KLFT LFT20190914154010309/14/19 15:40:31  5-MIN KLFT 142140Z 07005KT 10SM CLR 33/19 A3002 -40 43 2000 070/05 RMK AO2 T03280189
13976KLFT LFT20190914154510309/14/19 15:45:31  5-MIN KLFT 142145Z VRB05KT 10SM CLR 33/19 A3002 -40 43 2000 VRB/05 RMK AO2 T03280189
13976KLFT LFT20190914155011009/14/19 15:50:31  5-MIN KLFT 142150Z VRB05KT 10SM CLR 33/19 A3002 -40 44 2000 VRB/05 RMK AO2 SLP164 T03280194
13976KLFT LFT20190914155510309/14/19 15:55:31  5-MIN KLFT 142155Z 10005KT 10SM CLR 33/19 A3002 -40 44 2000 100/05 RMK AO2 T03280194
13976KLFT LFT20190914160010309/14/19 16:00:31  5-MIN KLFT 142200Z 08004KT 10SM CLR 33/19 A3002 -40 44 2000 080/04 RMK AO2 T03280194
13976KLFT LFT20190914160510309/14/19 16:05:31  5-MIN KLFT 142205Z 07006KT 10SM CLR 33/19 A3002 -40 44 2000 070/06 RMK AO2 T03280194
13976KLFT LFT20190914161010309/14/19 16:10:31  5-MIN KLFT 142210Z 09004KT 10SM CLR 33/19 A3002 -40 44 2000 090/04 RMK AO2 T03280194
13976KLFT LFT20190914161510309/14/19 16:15:31  5-MIN KLFT 142215Z 08004KT 10SM CLR 33/19 A3002 -40 44 2000 080/04 RMK AO2 T03280194
13976KLFT LFT20190914162010309/14/19 16:20:31  5-MIN KLFT 142220Z VRB05KT 10SM CLR 33/20 A3002 -40 46 2000 VRB/05 RMK AO2 T03280200
13976KLFT LFT20190914162510309/14/19 16:25:31  5-MIN KLFT 142225Z 07007KT 10SM CLR 33/19 A3001 -40 44 2000 070/07 RMK AO2 T03280194
13976KLFT LFT20190914163010309/14/19 16:30:31  5-MIN KLFT 142230Z 07005KT 10SM CLR 33/19 A3001 -40 44 2000 070/05 RMK AO2 T03280194
13976KLFT LFT20190914163510309/14/19 16:35:31  5-MIN KLFT 142235Z 07006KT 10SM CLR 32/19 A3002 -40 46 2000 070/06 RMK AO2 T03220194
13976KLFT LFT20190914164010309/14/19 16:40:31  5-MIN KLFT 142240Z VRB05KT 10SM CLR 32/19 A3001 -40 46 2000 VRB/05 RMK AO2 T03220194
13976KLFT LFT20190914164510309/14/19 16:45:31  5-MIN KLFT 142245Z VRB04KT 10SM CLR 32/19 A3001 -40 46 2000 VRB/04 RMK AO2 T03220194
13976KLFT LFT20190914165011009/14/19 16:50:31  5-MIN KLFT 142250Z 08003KT 10SM CLR 32/19 A3002 -40 46 2000 080/03 RMK AO2 SLP164 T03220194
13976KLFT LFT20190914165510309/14/19 16:55:31  5-MIN KLFT 142255Z VRB04KT 10SM CLR 32/20 A3002 -40 48 2000 VRB/04 RMK AO2 T03220200
13976KLFT LFT20190914170010309/14/19 17:00:31  5-MIN KLFT 142300Z 08004KT 10SM CLR 32/19 A3002 -40 46 2000 080/04 RMK AO2 T03220194
13976KLFT LFT20190914170510309/14/19 17:05:31  5-MIN KLFT 142305Z VRB03KT 10SM CLR 32/20 A3002 -40 48 1900 VRB/03 RMK AO2 T03220200
13976KLFT LFT20190914171010309/14/19 17:10:31  5-MIN KLFT 142310Z VRB05KT 10SM CLR 32/20 A3002 -40 49 1900 VRB/05 RMK AO2 T03170200
13976KLFT LFT20190914171510309/14/19 17:15:31  5-MIN KLFT 142315Z VRB06KT 10SM CLR 31/20 A3002 -50 51 1800 VRB/06 RMK AO2 T03110200
13976KLFT LFT20190914172010809/14/19 17:20:31  5-MIN KLFT 142320Z AUTO VRB04KT 10SM CLR 31/19 A3003 -50 49 1800 VRB/04 RMK AO2 T03110194
13976KLFT LFT20190914172510809/14/19 17:25:31  5-MIN KLFT 142325Z AUTO VRB03KT 10SM CLR 31/19 A3003 -50 51 1800 VRB/03 RMK AO2 T03060194
13976KLFT LFT20190914173010809/14/19 17:30:31  5-MIN KLFT 142330Z AUTO 13004KT 10SM CLR 31/19 A3003 -50 51 1800 130/04 RMK AO2 T03060194
13976KLFT LFT20190914173510809/14/19 17:35:31  5-MIN KLFT 142335Z AUTO VRB03KT 10SM CLR 30/20 A3003 -50 54 1700 VRB/03 RMK AO2 T03000200
13976KLFT LFT20190914174010809/14/19 17:40:31  5-MIN KLFT 142340Z AUTO 00000KT 10SM CLR 30/20 A3003 -50 54 1700 000/00 RMK AO2 T03000200
13976KLFT LFT20190914174510809/14/19 17:45:31  5-MIN KLFT 142345Z AUTO VRB03KT 10SM CLR 30/20 A3003 -50 54 1700 VRB/03 RMK AO2 T03000200
13976KLFT LFT20190914175013309/14/19 17:50:31  5-MIN KLFT 142350Z AUTO 00000KT 10SM CLR 29/20 A3003 -50 56 1600 000/00 RMK AO2 SLP167 T02940200 10333 20294 56017
13976KLFT LFT20190914175510809/14/19 17:55:31  5-MIN KLFT 142355Z AUTO 00000KT 10SM CLR 29/21 A3003 -50 58 1600 000/00 RMK AO2 T02940206
13976KLFT LFT20190914180010809/14/19 18:00:31  5-MIN KLFT 150000Z AUTO 00000KT 10SM CLR 29/21 A3003 -50 58 1600 000/00 RMK AO2 T02940206
13976KLFT LFT20190914180510809/14/19 18:05:31  5-MIN KLFT 150005Z AUTO 00000KT 10SM CLR 29/21 A3003 -50 60 1600 000/00 RMK AO2 T02890206
13976KLFT LFT20190914181010809/14/19 18:10:31  5-MIN KLFT 150010Z AUTO 00000KT 10SM CLR 29/21 A3003 -50 60 1600 000/00 RMK AO2 T02890206
13976KLFT LFT20190914181510309/14/19 18:15:31  5-MIN KLFT 150015Z 00000KT 10SM CLR 28/21 A3003 -50 64 1500 000/00 RMK AO2 T02830211
13976KLFT LFT20190914182010309/14/19 18:20:31  5-MIN KLFT 150020Z 00000KT 10SM CLR 28/21 A3003 -50 64 1500 000/00 RMK AO2 T02830211
13976KLFT LFT20190914182510309/14/19 18:25:31  5-MIN KLFT 150025Z 00000KT 10SM CLR 28/21 A3003 -50 64 1500 000/00 RMK AO2 T02830211
13976KLFT LFT20190914183010309/14/19 18:30:31  5-MIN KLFT 150030Z 00000KT 10SM CLR 28/21 A3003 -50 64 1500 000/00 RMK AO2 T02830211
13976KLFT LFT20190914183510309/14/19 18:35:31  5-MIN KLFT 150035Z 00000KT 10SM CLR 28/21 A3003 -50 66 1400 000/00 RMK AO2 T02780211
13976KLFT LFT20190914184010309/14/19 18:40:31  5-MIN KLFT 150040Z 00000KT 10SM CLR 28/21 A3003 -50 66 1400 000/00 RMK AO2 T02780211
13976KLFT LFT20190914184510309/14/19 18:45:31  5-MIN KLFT 150045Z 00000KT 10SM CLR 28/21 A3003 -50 66 1400 000/00 RMK AO2 T02780211
13976KLFT LFT20190914185011009/14/19 18:50:31  5-MIN KLFT 150050Z 00000KT 10SM CLR 27/22 A3003 -50 71 1400 000/00 RMK AO2 SLP169 T02720217
13976KLFT LFT20190914185510309/14/19 18:55:31  5-MIN KLFT 150055Z 00000KT 10SM CLR 27/22 A3003 -50 74 1400 000/00 RMK AO2 T02720222
13976KLFT LFT20190914190010309/14/19 19:00:31  5-MIN KLFT 150100Z 00000KT 10SM CLR 27/22 A3003 -50 76 1300 000/00 RMK AO2 T02670222
13976KLFT LFT20190914190510309/14/19 19:05:31  5-MIN KLFT 150105Z 00000KT 10SM CLR 26/22 A3003 -50 79 1300 000/00 RMK AO2 T02610222
13976KLFT LFT20190915181010209/15/19 18:10:31  5-MIN KLFT 160010Z 08003KT 10SM CLR 30/22 A2996 10 62 1800 080/03 RMK AO2 T03000222
13976KLFT LFT20190915181510209/15/19 18:15:31  5-MIN KLFT 160015Z 00000KT 10SM CLR 29/22 A2996 10 64 1700 000/00 RMK AO2 T02940222
13976KLFT LFT20190915182010209/15/19 18:20:31  5-MIN KLFT 160020Z 08003KT 10SM CLR 29/22 A2996 10 64 1700 080/03 RMK AO2 T02940222
13976KLFT LFT20190915182510209/15/19 18:25:31  5-MIN KLFT 160025Z 09003KT 10SM CLR 29/22 A2996 10 64 1700 090/03 RMK AO2 T02940222
13976KLFT LFT20190915183010209/15/19 18:30:31  5-MIN KLFT 160030Z 00000KT 10SM CLR 29/22 A2996 10 67 1700 000/00 RMK AO2 T02890222
13976KLFT LFT20190915183510209/15/19 18:35:31  5-MIN KLFT 160035Z 00000KT 10SM CLR 29/22 A2996 10 67 1600 000/00 RMK AO2 T02890222
13976KLFT LFT20190915184010209/15/19 18:40:31  5-MIN KLFT 160040Z 09003KT 10SM CLR 29/22 A2996 10 67 1700 090/03 RMK AO2 T02890222
13976KLFT LFT20190915184510209/15/19 18:45:31  5-MIN KLFT 160045Z 09003KT 10SM CLR 29/22 A2996 10 67 1600 080/03 RMK AO2 T02890222
13976KLFT LFT20190915185010909/15/19 18:50:31  5-MIN KLFT 160050Z 09003KT 10SM CLR 29/22 A2996 10 67 1600 090/03 RMK AO2 SLP144 T02890222
13976KLFT LFT20190915185510209/15/19 18:55:31  5-MIN KLFT 160055Z VRB03KT 10SM CLR 29/22 A2996 10 64 1600 VRB/03 RMK AO2 T02890217
13976KLFT LFT20190915190010109/15/19 19:00:31  5-MIN KLFT 160100Z 00000KT 10SM CLR 28/22 A2996 0 69 1600 000/00 RMK AO2 T02830222
13976KLFT LFT20190915190510109/15/19 19:05:31  5-MIN KLFT 160105Z 00000KT 10SM CLR 28/22 A2996 0 66 1600 000/00 RMK AO2 T02830217
13976KLFT LFT20190915191010109/15/19 19:10:31  5-MIN KLFT 160110Z 00000KT 10SM CLR 28/22 A2997 0 66 1600 000/00 RMK AO2 T02830217
13976KLFT LFT20190915191510109/15/19 19:15:31  5-MIN KLFT 160115Z 00000KT 10SM CLR 28/22 A2997 0 69 1600 000/00 RMK AO2 T02830222
13976KLFT LFT20190915192010109/15/19 19:20:31  5-MIN KLFT 160120Z 00000KT 10SM CLR 28/22 A2997 0 69 1600 000/00 RMK AO2 T02830222
13976KLFT LFT20190915192510109/15/19 19:25:31  5-MIN KLFT 160125Z 00000KT 10SM CLR 28/22 A2997 0 71 1500 000/00 RMK AO2 T02780222
13976KLFT LFT20190915193010109/15/19 19:30:31  5-MIN KLFT 160130Z 10003KT 10SM CLR 28/22 A2998 0 71 1500 100/03 RMK AO2 T02780222
13976KLFT LFT20190915193510309/15/19 19:35:31  5-MIN KLFT 160135Z 00000KT 10SM CLR 28/22 A2998 -10 71 1500 000/00 RMK AO2 T02780222
13976KLFT LFT20190915194010609/15/19 19:40:31  5-MIN KLFT 160140Z 00000KT 10SM FEW060 28/22 A2998 -10 71 1500 000/00 RMK AO2 T02780222
13976KLFT LFT20190915194510609/15/19 19:45:31  5-MIN KLFT 160145Z 00000KT 10SM FEW055 28/22 A2998 -10 71 1500 000/00 RMK AO2 T02780222
13976KLFT LFT20190915195011309/15/19 19:50:31  5-MIN KLFT 160150Z 00000KT 10SM FEW055 28/22 A2998 -10 71 1500 000/00 RMK AO2 SLP153 T02780222
13976KLFT LFT20190915195510609/15/19 19:55:31  5-MIN KLFT 160155Z 00000KT 10SM FEW055 28/22 A2999 -10 71 1500 000/00 RMK AO2 T02780222
13976KLFT LFT20190915200010609/15/19 20:00:31  5-MIN KLFT 160200Z 00000KT 10SM FEW055 28/22 A2999 -10 71 1500 000/00 RMK AO2 T02780222
13976KLFT LFT20190915200510609/15/19 20:05:31  5-MIN KLFT 160205Z 00000KT 10SM FEW055 28/22 A2999 -20 71 1500 000/00 RMK AO2 T02780222
13976KLFT LFT20190915201010309/15/19 20:10:31  5-MIN KLFT 160210Z 00000KT 10SM CLR 27/22 A2999 -20 74 1400 000/00 RMK AO2 T02720222
13976KLFT LFT20190915201510309/15/19 20:15:31  5-MIN KLFT 160215Z 00000KT 10SM CLR 28/22 A2999 -20 71 1500 000/00 RMK AO2 T02780222
13976KLFT LFT20190915202010309/15/19 20:20:31  5-MIN KLFT 160220Z 00000KT 10SM CLR 27/22 A3000 -20 74 1400 000/00 RMK AO2 T02720222
13976KLFT LFT20190915202510309/15/19 20:25:31  5-MIN KLFT 160225Z 12003KT 10SM CLR 27/22 A3000 -20 74 1400 120/03 RMK AO2 T02720222
13976KLFT LFT20190915203010309/15/19 20:30:31  5-MIN KLFT 160230Z 12003KT 10SM CLR 27/22 A3000 -20 74 1400 120/03 RMK AO2 T02720222
13976KLFT LFT20190915203510309/15/19 20:35:31  5-MIN KLFT 160235Z 11003KT 10SM CLR 27/22 A3000 -20 74 1400 110/03 RMK AO2 T02720222
13976KLFT LFT20190915204010309/15/19 20:40:31  5-MIN KLFT 160240Z 00000KT 10SM CLR 27/22 A3000 -20 74 1400 000/00 RMK AO2 T02720222
13976KLFT LFT20190915204510309/15/19 20:45:31  5-MIN KLFT 160245Z 11003KT 10SM CLR 27/22 A3000 -20 74 1400 110/03 RMK AO2 T02720222
13976KLFT LFT20190915205011609/15/19 20:50:31  5-MIN KLFT 160250Z 00000KT 10SM CLR 27/22 A3000 -30 74 1400 000/00 RMK AO2 SLP159 T02720222 50001
13976KLFT LFT20190915205510309/15/19 20:55:31  5-MIN KLFT 160255Z 11003KT 10SM CLR 27/23 A3000 -30 79 1300 110/03 RMK AO2 T02670228
13976KLFT LFT20190915210010809/15/19 21:00:31  5-MIN KLFT 160300Z AUTO 00000KT 10SM CLR 27/23 A3000 -30 79 1400 000/00 RMK AO2 T02670228
13976KLFT LFT20190915210510809/15/19 21:05:31  5-MIN KLFT 160305Z AUTO VRB03KT 10SM CLR 27/23 A3000 -30 79 1300 VRB/03 RMK AO2 T02670228
13976KLFT LFT20190915211010309/15/19 21:10:31  5-MIN KLFT 160310Z 00000KT 10SM CLR 27/23 A3000 -30 79 1400 000/00 RMK AO2 T02670228
13976KLFT LFT20190915211510809/15/19 21:15:31  5-MIN KLFT 160315Z AUTO 00000KT 10SM CLR 27/23 A3000 -30 79 1300 000/00 RMK AO2 T02670228
13976KLFT LFT20190915212010809/15/19 21:20:31  5-MIN KLFT 160320Z AUTO 00000KT 10SM CLR 27/23 A3000 -30 79 1300 000/00 RMK AO2 T02670228
13976KLFT LFT20190915212510809/15/19 21:25:31  5-MIN KLFT 160325Z AUTO 00000KT 10SM CLR 26/23 A3000 -30 81 1300 000/00 RMK AO2 T02610228
13976KLFT LFT20190915213010809/15/19 21:30:31  5-MIN KLFT 160330Z AUTO 00000KT 10SM CLR 26/23 A3000 -30 81 1300 000/00 RMK AO2 T02610228
13976KLFT LFT20190915213510809/15/19 21:35:31  5-MIN KLFT 160335Z AUTO 00000KT 10SM CLR 26/23 A3001 -30 81 1300 000/00 RMK AO2 T02610228
13976KLFT LFT20190915214010809/15/19 21:40:31  5-MIN KLFT 160340Z AUTO 00000KT 10SM CLR 26/23 A3001 -30 81 1300 000/00 RMK AO2 T02610228
13976KLFT LFT20190915214511109/15/19 21:45:31  5-MIN KLFT 160345Z AUTO 00000KT 10SM FEW060 26/23 A3001 -30 81 1300 000/00 RMK AO2 T02610228
13976KLFT LFT20190915215011809/15/19 21:50:31  5-MIN KLFT 160350Z AUTO 00000KT 10SM FEW060 26/23 A3001 -30 81 1300 000/00 RMK AO2 SLP160 T02610228
13976KLFT LFT20190915215511109/15/19 21:55:31  5-MIN KLFT 160355Z AUTO 00000KT 10SM FEW060 26/23 A3001 -30 81 1300 000/00 RMK AO2 T02610228
13976KLFT LFT20190915220011109/15/19 22:00:31  5-MIN KLFT 160400Z AUTO 00000KT 10SM FEW060 26/23 A3000 -30 81 1300 000/00 RMK AO2 T02610228
13976KLFT LFT20190915220511109/15/19 22:05:31  5-MIN KLFT 160405Z AUTO 00000KT 10SM FEW060 26/23 A3000 -30 81 1300 000/00 RMK AO2 T02610228
13976KLFT LFT20190915221011109/15/19 22:10:31  5-MIN KLFT 160410Z AUTO 00000KT 10SM FEW060 26/23 A3000 -30 84 1200 000/00 RMK AO2 T02560228
13976KLFT LFT20190915221511109/15/19 22:15:31  5-MIN KLFT 160415Z AUTO 00000KT 10SM FEW055 26/23 A3000 -30 84 1200 000/00 RMK AO2 T02560228
13976KLFT LFT20190915222010809/15/19 22:20:31  5-MIN KLFT 160420Z AUTO 00000KT 10SM CLR 26/23 A3000 -30 84 1200 000/00 RMK AO2 T02560228
13976KLFT LFT20190915222510809/15/19 22:25:31  5-MIN KLFT 160425Z AUTO 00000KT 10SM CLR 26/23 A3000 -30 84 1200 000/00 RMK AO2 T02560228
13976KLFT LFT20190915223010809/15/19 22:30:31  5-MIN KLFT 160430Z AUTO 00000KT 10SM CLR 25/23 A3000 -30 87 1200 000/00 RMK AO2 T02500228
13976KLFT LFT20190915223510809/15/19 22:35:31  5-MIN KLFT 160435Z AUTO 00000KT 10SM CLR 25/23 A3000 -30 87 1200 000/00 RMK AO2 T02500228
13976KLFT LFT20190915224010809/15/19 22:40:31  5-MIN KLFT 160440Z AUTO 00000KT 10SM CLR 25/23 A3000 -30 87 1200 000/00 RMK AO2 T02500228
13976KLFT LFT20190915224510809/15/19 22:45:31  5-MIN KLFT 160445Z AUTO 00000KT 10SM CLR 25/23 A3000 -20 87 1200 000/00 RMK AO2 T02500228
13976KLFT LFT20190915225011509/15/19 22:50:31  5-MIN KLFT 160450Z AUTO 00000KT 10SM CLR 25/23 A3000 -20 87 1200 000/00 RMK AO2 SLP158 T02500228
13976KLFT LFT20190915225510809/15/19 22:55:31  5-MIN KLFT 160455Z AUTO 00000KT 10SM CLR 26/23 A3000 -30 84 1200 000/00 RMK AO2 T02560228
13976KLFT LFT20190915230010809/15/19 23:00:31  5-MIN KLFT 160500Z AUTO 00000KT 10SM CLR 26/22 A3000 -30 81 1200 000/00 RMK AO2 T02560222
13976KLFT LFT20190915230510809/15/19 23:05:31  5-MIN KLFT 160505Z AUTO 00000KT 10SM CLR 26/23 A3000 -30 84 1200 000/00 RMK AO2 T02560228
13976KLFT LFT20190915231010809/15/19 23:10:31  5-MIN KLFT 160510Z AUTO 00000KT 10SM CLR 26/23 A3000 -30 84 1200 000/00 RMK AO2 T02560228
13976KLFT LFT20190915231511109/15/19 23:15:31  5-MIN KLFT 160515Z AUTO 00000KT 10SM FEW049 26/23 A3000 -30 84 1200 000/00 RMK AO2 T02560228
13976KLFT LFT20190915232011109/15/19 23:20:31  5-MIN KLFT 160520Z AUTO 00000KT 10SM SCT049 26/23 A3001 -30 84 1200 000/00 RMK AO2 T02560228
13976KLFT LFT20190915232511109/15/19 23:25:31  5-MIN KLFT 160525Z AUTO 00000KT 10SM BKN049 26/23 A3001 -30 84 1200 000/00 RMK AO2 T02560228
13976KLFT LFT20190915233011109/15/19 23:30:31  5-MIN KLFT 160530Z AUTO 00000KT 10SM BKN049 26/23 A3000 -30 84 1200 000/00 RMK AO2 T02560228
13976KLFT LFT20190915233511109/15/19 23:35:31  5-MIN KLFT 160535Z AUTO 00000KT 10SM BKN047 26/23 A3000 -30 84 1200 000/00 RMK AO2 T02560228
13976KLFT LFT20190915234011109/15/19 23:40:31  5-MIN KLFT 160540Z AUTO 00000KT 10SM OVC047 26/23 A3000 -30 84 1200 000/00 RMK AO2 T02560228
13976KLFT LFT20190915234511809/15/19 23:45:31  5-MIN KLFT 160545Z AUTO 00000KT 10SM BKN047 OVC055 26/23 A3001 -30 84 1200 000/00 RMK AO2 T02560228
13976KLFT LFT20190915235015309/15/19 23:50:31  5-MIN KLFT 160550Z AUTO 00000KT 10SM BKN047 OVC055 26/23 A3001 -30 84 1200 000/00 RMK AO2 SLP160 T02560228 10306 20250 403330228 53013
13976KLFT LFT20190915235512509/15/19 23:55:31  5-MIN KLFT 160555Z AUTO 00000KT 10SM BKN047 BKN055 OVC070 26/23 A3001 -30 84 1200 000/00 RMK AO2 T02560228
13976KLFT LFT20190916000012509/16/19 00:00:31  5-MIN KLFT 160600Z AUTO 00000KT 10SM BKN047 BKN060 OVC070 26/23 A3001 -30 84 1200 000/00 RMK AO2 T02560228
13976KLFT LFT20190916000512509/16/19 00:05:31  5-MIN KLFT 160605Z AUTO 00000KT 10SM BKN047 BKN060 OVC070 26/23 A3000 -30 84 1200 000/00 RMK AO2 T02560228
13976KLFT LFT20190916001012509/16/19 00:10:31  5-MIN KLFT 160610Z AUTO 00000KT 10SM SCT048 BKN060 BKN070 26/23 A3000 -30 84 1200 000/00 RMK AO2 T02560228
13976KLFT LFT20190916001512509/16/19 00:15:31  5-MIN KLFT 160615Z AUTO 00000KT 10SM SCT048 BKN060 BKN070 26/23 A3000 -30 84 1200 000/00 RMK AO2 T02560228
13976KLFT LFT20190916002011809/16/19 00:20:31  5-MIN KLFT 160620Z AUTO 00000KT 10SM SCT050 BKN070 26/23 A3000 -20 84 1200 000/00 RMK AO2 T02560228
13976KLFT LFT20190916002511809/16/19 00:25:31  5-MIN KLFT 160625Z AUTO 07003KT 10SM FEW050 SCT070 26/23 A3000 -20 84 1200 070/03 RMK AO2 T02560228
13976KLFT LFT20190916003011809/16/19 00:30:31  5-MIN KLFT 160630Z AUTO 00000KT 10SM FEW055 FEW070 26/23 A3000 -20 84 1200 000/00 RMK AO2 T02560228
13976KLFT LFT20190916003511109/16/19 00:35:31  5-MIN KLFT 160635Z AUTO 00000KT 10SM FEW055 26/23 A3000 -20 84 1200 000/00 RMK AO2 T02560228
13976KLFT LFT20190916004010809/16/19 00:40:31  5-MIN KLFT 160640Z AUTO 00000KT 10SM CLR 26/23 A3000 -20 84 1200 000/00 RMK AO2 T02560228
13976KLFT LFT20190916004510809/16/19 00:45:31  5-MIN KLFT 160645Z AUTO 07003KT 10SM CLR 26/23 A3000 -20 84 1200 070/03 RMK AO2 T02560228
13976KLFT LFT20190916005011509/16/19 00:50:31  5-MIN KLFT 160650Z AUTO 00000KT 10SM CLR 25/23 A3000 -20 87 1200 000/00 RMK AO2 SLP157 T02500228
13976KLFT LFT20190916005510809/16/19 00:55:31  5-MIN KLFT 160655Z AUTO 00000KT 10SM CLR 25/22 A3000 -20 84 1200 000/00 RMK AO2 T02500222
13976KLFT LFT20190916010010809/16/19 01:00:31  5-MIN KLFT 160700Z AUTO 00000KT 10SM CLR 25/23 A3000 -20 87 1200 000/00 RMK AO2 T02500228
13976KLFT LFT20190916010510809/16/19 01:05:31  5-MIN KLFT 160705Z AUTO 03003KT 10SM CLR 25/22 A2999 -20 84 1200 030/03 RMK AO2 T02500222
13976KLFT LFT20190916011010809/16/19 01:10:31  5-MIN KLFT 160710Z AUTO 04003KT 10SM CLR 24/22 A2999 -20 87 1100 040/03 RMK AO2 T02440222
13976KLFT LFT20190916011510809/16/19 01:15:31  5-MIN KLFT 160715Z AUTO 04003KT 10SM CLR 24/22 A2999 -20 87 1100 040/03 RMK AO2 T02440222
13976KLFT LFT20190916012010809/16/19 01:20:31  5-MIN KLFT 160720Z AUTO 04004KT 10SM CLR 24/22 A2999 -20 87 1100 040/04 RMK AO2 T02440222
13976KLFT LFT20190916012510809/16/19 01:25:31  5-MIN KLFT 160725Z AUTO 04004KT 10SM CLR 24/22 A2999 -20 87 1100 040/04 RMK AO2 T02440222
13976KLFT LFT20190916013010809/16/19 01:30:31  5-MIN KLFT 160730Z AUTO 04004KT 10SM CLR 24/22 A2999 -20 87 1100 040/04 RMK AO2 T02440222
13976KLFT LFT20190916013510809/16/19 01:35:31  5-MIN KLFT 160735Z AUTO 04005KT 10SM CLR 24/22 A2999 -20 87 1100 040/05 RMK AO2 T02440222
13976KLFT LFT20190916014010809/16/19 01:40:31  5-MIN KLFT 160740Z AUTO 03005KT 10SM CLR 24/22 A2999 -10 87 1100 030/05 RMK AO2 T02440222
13976KLFT LFT20190916014510809/16/19 01:45:31  5-MIN KLFT 160745Z AUTO 03005KT 10SM CLR 24/22 A2999 -10 87 1100 030/05 RMK AO2 T02440222
13976KLFT LFT20190916015011509/16/19 01:50:31  5-MIN KLFT 160750Z AUTO 03004KT 10SM CLR 24/22 A2999 -10 90 1100 030/04 RMK AO2 SLP154 T02390222
13976KLFT LFT20190916015510809/16/19 01:55:31  5-MIN KLFT 160755Z AUTO 03004KT 10SM CLR 24/22 A2998 -10 90 1100 030/04 RMK AO2 T02390222
13976KLFT LFT20190916020010809/16/19 02:00:31  5-MIN KLFT 160800Z AUTO 04004KT 10SM CLR 24/22 A2998 -10 90 1100 040/04 RMK AO2 T02390222
13976KLFT LFT20190916020510809/16/19 02:05:31  5-MIN KLFT 160805Z AUTO 05003KT 10SM CLR 24/22 A2998 -10 87 1100 040/03 RMK AO2 T02440222
13976KLFT LFT20190916021010809/16/19 02:10:31  5-MIN KLFT 160810Z AUTO 05005KT 10SM CLR 24/22 A2998 -10 87 1100 040/05 RMK AO2 T02440222
13976KLFT LFT20190916021510809/16/19 02:15:31  5-MIN KLFT 160815Z AUTO 04004KT 10SM CLR 24/22 A2998 -10 87 1100 040/04 RMK AO2 T02440222
13976KLFT LFT20190916022010809/16/19 02:20:31  5-MIN KLFT 160820Z AUTO 00000KT 10SM CLR 24/22 A2998 -10 87 1100 000/00 RMK AO2 T02440222
13976KLFT LFT20190916022510809/16/19 02:25:31  5-MIN KLFT 160825Z AUTO 00000KT 10SM CLR 24/22 A2998 -10 87 1100 000/00 RMK AO2 T02440222
13976KLFT LFT20190916023010809/16/19 02:30:31  5-MIN KLFT 160830Z AUTO 00000KT 10SM CLR 24/22 A2998 -10 87 1100 000/00 RMK AO2 T02440222
13976KLFT LFT20190916023510809/16/19 02:35:31  5-MIN KLFT 160835Z AUTO 00000KT 10SM CLR 24/22 A2999 -10 87 1100 000/00 RMK AO2 T02440222
13976KLFT LFT20190916024010809/16/19 02:40:31  5-MIN KLFT 160840Z AUTO 05003KT 10SM CLR 24/22 A2999 -10 87 1100 040/03 RMK AO2 T02440222
13976KLFT LFT20190916024510809/16/19 02:45:31  5-MIN KLFT 160845Z AUTO 04003KT 10SM CLR 24/22 A2999 -10 90 1100 040/03 RMK AO2 T02390222
13976KLFT LFT20190916025012109/16/19 02:50:31  5-MIN KLFT 160850Z AUTO 04003KT 10SM CLR 24/22 A2999 -10 87 1100 040/03 RMK AO2 SLP153 T02440222 53001
13976KLFT LFT20190916025510809/16/19 02:55:31  5-MIN KLFT 160855Z AUTO 05003KT 10SM CLR 24/22 A2999 -10 87 1100 050/03 RMK AO2 T02440222
13976KLFT LFT20190916030010809/16/19 03:00:31  5-MIN KLFT 160900Z AUTO 00000KT 10SM CLR 24/22 A2998 -10 87 1100 000/00 RMK AO2 T02440222
13976KLFT LFT20190916030510809/16/19 03:05:31  5-MIN KLFT 160905Z AUTO 00000KT 10SM CLR 24/22 A2998 -10 87 1100 000/00 RMK AO2 T02440222
13976KLFT LFT20190916031010809/16/19 03:10:31  5-MIN KLFT 160910Z AUTO 04003KT 10SM CLR 24/22 A2998 -10 90 1100 040/03 RMK AO2 T02390222
13976KLFT LFT20190916031510809/16/19 03:15:31  5-MIN KLFT 160915Z AUTO 05003KT 10SM CLR 24/22 A2998 -10 90 1100 040/03 RMK AO2 T02390222
13976KLFT LFT20190916032010809/16/19 03:20:31  5-MIN KLFT 160920Z AUTO 05003KT 10SM CLR 24/22 A2998 -10 87 1100 050/03 RMK AO2 T02390217
13976KLFT LFT20190916032510609/16/19 03:25:31  5-MIN KLFT 160925Z AUTO 00000KT 10SM CLR 24/22 A2998 0 90 1100 000/00 RMK AO2 T02390222
13976KLFT LFT20190916033010609/16/19 03:30:31  5-MIN KLFT 160930Z AUTO 06003KT 10SM CLR 24/22 A2998 0 90 1100 060/03 RMK AO2 T02390222
13976KLFT LFT20190916033510609/16/19 03:35:31  5-MIN KLFT 160935Z AUTO 05003KT 10SM CLR 24/22 A2998 0 90 1100 050/03 RMK AO2 T02390222
13976KLFT LFT20190916034010609/16/19 03:40:31  5-MIN KLFT 160940Z AUTO 05003KT 10SM CLR 24/22 A2998 0 90 1100 050/03 RMK AO2 T02390222
13976KLFT LFT20190916034510609/16/19 03:45:31  5-MIN KLFT 160945Z AUTO 05003KT 10SM CLR 24/22 A2998 0 90 1100 050/03 RMK AO2 T02390222
13976KLFT LFT20190916035011509/16/19 03:50:31  5-MIN KLFT 160950Z AUTO 05003KT 10SM CLR 24/22 A2998 -10 90 1100 050/03 RMK AO2 SLP151 T02390222
13976KLFT LFT20190916035510809/16/19 03:55:31  5-MIN KLFT 160955Z AUTO 04003KT 10SM CLR 24/22 A2998 -10 90 1100 040/03 RMK AO2 T02390222
13976KLFT LFT20190916040010809/16/19 04:00:31  5-MIN KLFT 161000Z AUTO 02004KT 10SM CLR 23/22 A2998 -10 90 1000 020/04 RMK AO2 T02330217
13976KLFT LFT20190916040510809/16/19 04:05:31  5-MIN KLFT 161005Z AUTO 03004KT 10SM CLR 23/22 A2998 -10 90 1000 030/04 RMK AO2 T02330217
13976KLFT LFT20190916041010809/16/19 04:10:31  5-MIN KLFT 161010Z AUTO 03004KT 10SM CLR 23/22 A2998 -10 90 1000 030/04 RMK AO2 T02330217
13976KLFT LFT20190916041510809/16/19 04:15:31  5-MIN KLFT 161015Z AUTO 04004KT 10SM CLR 23/22 A2998 -10 90 1000 040/04 RMK AO2 T02330217
13976KLFT LFT20190916042010809/16/19 04:20:31  5-MIN KLFT 161020Z AUTO 03004KT 10SM CLR 23/22 A2998 -10 90 1000 030/04 RMK AO2 T02330217
13976KLFT LFT20190916042510709/16/19 04:25:31  5-MIN KLFT 161025Z AUTO 02004KT 10SM CLR 23/22 A2998 -10 93 900 020/04 RMK AO2 T02280217
13976KLFT LFT20190916043010309/16/19 04:30:31  5-MIN KLFT 161030Z 03004KT 10SM CLR 23/22 A2998 -10 90 1000 030/04 RMK AO2 T02330217
13976KLFT LFT20190916043510309/16/19 04:35:31  5-MIN KLFT 161035Z 04005KT 10SM CLR 23/22 A2998 -10 90 1000 040/05 RMK AO2 T02330217
13976KLFT LFT20190916044010309/16/19 04:40:31  5-MIN KLFT 161040Z 04005KT 10SM CLR 23/22 A2998 -10 90 1000 040/05 RMK AO2 T02330217
13976KLFT LFT20190916044510309/16/19 04:45:31  5-MIN KLFT 161045Z 04005KT 10SM CLR 23/22 A2999 -10 90 1000 040/05 RMK AO2 T02330217
13976KLFT LFT20190916045011009/16/19 04:50:31  5-MIN KLFT 161050Z 03006KT 10SM CLR 23/22 A2998 -10 90 1000 030/06 RMK AO2 SLP153 T02330217
13976KLFT LFT20190916045510309/16/19 04:55:31  5-MIN KLFT 161055Z 03007KT 10SM CLR 23/22 A2998 -10 90 1000 030/07 RMK AO2 T02330217
13976KLFT LFT20190916050010309/16/19 05:00:31  5-MIN KLFT 161100Z 03007KT 10SM CLR 23/22 A2998 -10 90 1000 030/07 RMK AO2 T02330217
13976KLFT LFT20190916050510309/16/19 05:05:31  5-MIN KLFT 161105Z 03007KT 10SM CLR 23/22 A2998 -10 90 1000 030/07 RMK AO2 T02330217
13976KLFT LFT20190916051010309/16/19 05:10:31  5-MIN KLFT 161110Z 04005KT 10SM CLR 23/22 A2998 -10 90 1000 040/05 RMK AO2 T02330217
13976KLFT LFT20190916051510209/16/19 05:15:31  5-MIN KLFT 161115Z 04006KT 9SM CLR 23/22 A2999 -10 90 1000 040/06 RMK AO2 T02330217
13976KLFT LFT20190916052010209/16/19 05:20:31  5-MIN KLFT 161120Z 03007KT 9SM CLR 23/22 A2999 -10 90 1000 030/07 RMK AO2 T02330217
13976KLFT LFT20190916052510209/16/19 05:25:31  5-MIN KLFT 161125Z 02008KT 9SM CLR 23/22 A2999 -10 90 1000 020/08 RMK AO2 T02330217
13976KLFT LFT20190916053010309/16/19 05:30:31  5-MIN KLFT 161130Z 03007KT 10SM CLR 23/22 A2999 -10 90 1000 030/07 RMK AO2 T02330217
13976KLFT LFT20190916053510209/16/19 05:35:31  5-MIN KLFT 161135Z 03007KT 9SM CLR 23/22 A2999 -10 90 1000 030/07 RMK AO2 T02330217
13976KLFT LFT20190916054010209/16/19 05:40:31  5-MIN KLFT 161140Z 03007KT 9SM CLR 23/22 A2999 -10 90 1000 030/07 RMK AO2 T02330217
13976KLFT LFT20190916054510209/16/19 05:45:31  5-MIN KLFT 161145Z 04006KT 9SM CLR 23/22 A2999 -10 90 1000 040/06 RMK AO2 T02330217
13976KLFT LFT20190916055012709/16/19 05:50:31  5-MIN KLFT 161150Z 04006KT 9SM CLR 23/22 A2999 -20 90 1000 040/06 RMK AO2 SLP155 T02330217 10261 20228 56007
13976KLFT LFT20190916055510209/16/19 05:55:31  5-MIN KLFT 161155Z 04006KT 8SM CLR 23/22 A2999 -20 93 1000 040/06 RMK AO2 T02330222
13976KLFT LFT20190916060010209/16/19 06:00:31  5-MIN KLFT 161200Z 04006KT 8SM CLR 23/22 A3000 -20 93 1000 040/06 RMK AO2 T02330222
13976KLFT LFT20190916060510209/16/19 06:05:31  5-MIN KLFT 161205Z 04006KT 8SM CLR 23/22 A3000 -20 93 1000 040/06 RMK AO2 T02330222
13976KLFT LFT20190916211010309/16/19 21:10:31  5-MIN KLFT 170310Z 00000KT 10SM CLR 26/24 A2999 -10 90 1200 000/00 RMK AO2 T02560239
13976KLFT LFT20190916211510309/16/19 21:15:31  5-MIN KLFT 170315Z 00000KT 10SM CLR 25/24 A2999 -10 93 1200 000/00 RMK AO2 T02500239
13976KLFT LFT20190916212010309/16/19 21:20:31  5-MIN KLFT 170320Z 00000KT 10SM CLR 25/24 A2999 -10 93 1200 000/00 RMK AO2 T02500239
13976KLFT LFT20190916212510809/16/19 21:25:31  5-MIN KLFT 170325Z AUTO VRB03KT 10SM CLR 25/24 A2999 -10 93 1200 VRB/03 RMK AO2 T02500239
13976KLFT LFT20190916213010809/16/19 21:30:31  5-MIN KLFT 170330Z AUTO 00000KT 10SM CLR 25/24 A2999 -10 93 1200 000/00 RMK AO2 T02500239
13976KLFT LFT20190916213510809/16/19 21:35:31  5-MIN KLFT 170335Z AUTO 00000KT 10SM CLR 25/24 A2999 -10 93 1200 000/00 RMK AO2 T02500239
13976KLFT LFT20190916214010809/16/19 21:40:31  5-MIN KLFT 170340Z AUTO 00000KT 10SM CLR 25/24 A2999 -10 93 1200 000/00 RMK AO2 T02500239
13976KLFT LFT20190916214510809/16/19 21:45:31  5-MIN KLFT 170345Z AUTO 00000KT 10SM CLR 25/24 A2999 -10 93 1200 000/00 RMK AO2 T02500239
13976KLFT LFT20190916215011509/16/19 21:50:31  5-MIN KLFT 170350Z AUTO VRB03KT 10SM CLR 25/24 A2999 -10 93 1200 VRB/03 RMK AO2 SLP154 T02500239
13976KLFT LFT20190916215510809/16/19 21:55:31  5-MIN KLFT 170355Z AUTO 10003KT 10SM CLR 25/24 A2999 -10 93 1200 100/03 RMK AO2 T02500239
13976KLFT LFT20190916220010809/16/19 22:00:31  5-MIN KLFT 170400Z AUTO 00000KT 10SM CLR 25/24 A2999 -10 93 1200 000/00 RMK AO2 T02500239
13976KLFT LFT20190916220510809/16/19 22:05:31  5-MIN KLFT 170405Z AUTO 00000KT 10SM CLR 25/24 A2999 -10 93 1200 000/00 RMK AO2 T02500239
13976KLFT LFT20190916221010809/16/19 22:10:31  5-MIN KLFT 170410Z AUTO VRB03KT 10SM CLR 25/23 A2998 -10 90 1200 VRB/03 RMK AO2 T02500233
13976KLFT LFT20190916221510809/16/19 22:15:31  5-MIN KLFT 170415Z AUTO 00000KT 10SM CLR 25/23 A2998 -10 90 1200 000/00 RMK AO2 T02500233
13976KLFT LFT20190916222010809/16/19 22:20:31  5-MIN KLFT 170420Z AUTO 09003KT 10SM CLR 25/23 A2998 -10 90 1200 090/03 RMK AO2 T02500233
13976KLFT LFT20190916222510809/16/19 22:25:31  5-MIN KLFT 170425Z AUTO 09003KT 10SM CLR 25/23 A2998 -10 90 1200 090/03 RMK AO2 T02500233
13976KLFT LFT20190916223010809/16/19 22:30:31  5-MIN KLFT 170430Z AUTO VRB03KT 10SM CLR 25/23 A2998 -10 90 1200 VRB/03 RMK AO2 T02500233
13976KLFT LFT20190916223510609/16/19 22:35:31  5-MIN KLFT 170435Z AUTO 10004KT 10SM CLR 25/23 A2998 0 90 1200 100/04 RMK AO2 T02500233
13976KLFT LFT20190916224010609/16/19 22:40:31  5-MIN KLFT 170440Z AUTO 10004KT 10SM CLR 24/23 A2998 0 93 1100 100/04 RMK AO2 T02440233
13976KLFT LFT20190916224510609/16/19 22:45:31  5-MIN KLFT 170445Z AUTO VRB03KT 10SM CLR 24/23 A2998 0 93 1100 VRB/03 RMK AO2 T02440233
13976KLFT LFT20190916225011309/16/19 22:50:31  5-MIN KLFT 170450Z AUTO VRB03KT 10SM CLR 24/23 A2997 0 93 1100 VRB/03 RMK AO2 SLP149 T02440233
13976KLFT LFT20190916225510609/16/19 22:55:31  5-MIN KLFT 170455Z AUTO VRB03KT 10SM CLR 24/23 A2997 0 93 1100 VRB/03 RMK AO2 T02440233
13976KLFT LFT20190916230010609/16/19 23:00:31  5-MIN KLFT 170500Z AUTO 10004KT 10SM CLR 24/23 A2997 0 93 1100 100/04 RMK AO2 T02440233
13976KLFT LFT20190916230510609/16/19 23:05:31  5-MIN KLFT 170505Z AUTO 11003KT 10SM CLR 24/23 A2997 0 93 1100 110/03 RMK AO2 T02440233
13976KLFT LFT20190916231010609/16/19 23:10:31  5-MIN KLFT 170510Z AUTO 10003KT 10SM CLR 24/23 A2997 0 93 1100 100/03 RMK AO2 T02440233
13976KLFT LFT20190916231510609/16/19 23:15:31  5-MIN KLFT 170515Z AUTO VRB04KT 10SM CLR 24/23 A2997 0 93 1100 VRB/04 RMK AO2 T02440233
13976KLFT LFT20190916232010609/16/19 23:20:31  5-MIN KLFT 170520Z AUTO VRB03KT 10SM CLR 24/23 A2997 0 93 1100 VRB/03 RMK AO2 T02440233
13976KLFT LFT20190916232510609/16/19 23:25:31  5-MIN KLFT 170525Z AUTO VRB03KT 10SM CLR 24/23 A2997 0 93 1100 VRB/03 RMK AO2 T02440233
13976KLFT LFT20190916233010609/16/19 23:30:31  5-MIN KLFT 170530Z AUTO 10003KT 10SM CLR 24/23 A2997 0 93 1100 100/03 RMK AO2 T02440233
13976KLFT LFT20190916233510609/16/19 23:35:31  5-MIN KLFT 170535Z AUTO VRB03KT 10SM CLR 24/23 A2996 0 93 1100 VRB/03 RMK AO2 T02440233
13976KLFT LFT20190916234010609/16/19 23:40:31  5-MIN KLFT 170540Z AUTO 09003KT 10SM CLR 24/23 A2996 0 93 1100 080/03 RMK AO2 T02440233
13976KLFT LFT20190916234510609/16/19 23:45:31  5-MIN KLFT 170545Z AUTO VRB03KT 10SM CLR 24/23 A2996 0 93 1100 VRB/03 RMK AO2 T02440233
13976KLFT LFT20190916235014109/16/19 23:50:31  5-MIN KLFT 170550Z AUTO VRB04KT 10SM CLR 24/23 A2996 0 93 1100 VRB/04 RMK AO2 SLP146 T02440233 10272 20244 403170228 53007
13976KLFT LFT20190916235510609/16/19 23:55:31  5-MIN KLFT 170555Z AUTO 11003KT 10SM CLR 24/23 A2996 0 93 1100 110/03 RMK AO2 T02440233
13976KLFT LFT20190917000010709/17/19 00:00:31  5-MIN KLFT 170600Z AUTO 00000KT 10SM CLR 24/23 A2996 10 93 1100 000/00 RMK AO2 T02440233
13976KLFT LFT20190917000510609/17/19 00:05:31  5-MIN KLFT 170605Z AUTO VRB03KT 10SM CLR 24/23 A2996 0 93 1100 VRB/03 RMK AO2 T02440233
13976KLFT LFT20190917001010609/17/19 00:10:31  5-MIN KLFT 170610Z AUTO 00000KT 10SM CLR 24/23 A2996 0 93 1100 000/00 RMK AO2 T02440233
13976KLFT LFT20190917001510709/17/19 00:15:31  5-MIN KLFT 170615Z AUTO 00000KT 10SM CLR 24/23 A2996 10 93 1100 000/00 RMK AO2 T02440233
13976KLFT LFT20190917002010709/17/19 00:20:31  5-MIN KLFT 170620Z AUTO 00000KT 10SM CLR 24/23 A2996 10 93 1100 000/00 RMK AO2 T02440233
13976KLFT LFT20190917002510709/17/19 00:25:31  5-MIN KLFT 170625Z AUTO 10003KT 10SM CLR 24/23 A2996 10 93 1100 100/03 RMK AO2 T02440233
13976KLFT LFT20190917003010709/17/19 00:30:31  5-MIN KLFT 170630Z AUTO 00000KT 10SM CLR 24/23 A2996 10 93 1100 000/00 RMK AO2 T02440233
13976KLFT LFT20190917003510709/17/19 00:35:31  5-MIN KLFT 170635Z AUTO 11003KT 10SM CLR 24/23 A2996 10 93 1100 110/03 RMK AO2 T02440233
13976KLFT LFT20190917004010709/17/19 00:40:31  5-MIN KLFT 170640Z AUTO 13003KT 10SM CLR 24/23 A2996 10 93 1100 120/03 RMK AO2 T02440233
13976KLFT LFT20190917004510709/17/19 00:45:31  5-MIN KLFT 170645Z AUTO 00000KT 10SM CLR 24/23 A2996 10 93 1100 000/00 RMK AO2 T02440233
13976KLFT LFT20190917005011409/17/19 00:50:31  5-MIN KLFT 170650Z AUTO 10003KT 10SM CLR 24/23 A2996 10 93 1100 100/03 RMK AO2 SLP145 T02440233
13976KLFT LFT20190917005510709/17/19 00:55:31  5-MIN KLFT 170655Z AUTO VRB03KT 10SM CLR 24/23 A2996 10 93 1100 VRB/03 RMK AO2 T02440233
13976KLFT LFT20190917010010709/17/19 01:00:31  5-MIN KLFT 170700Z AUTO 10003KT 10SM CLR 24/23 A2996 10 93 1100 100/03 RMK AO2 T02440233
13976KLFT LFT20190917010510709/17/19 01:05:31  5-MIN KLFT 170705Z AUTO 00000KT 10SM CLR 24/23 A2996 10 93 1100 000/00 RMK AO2 T02440233
13976KLFT LFT20190917011010709/17/19 01:10:31  5-MIN KLFT 170710Z AUTO 07003KT 10SM CLR 24/23 A2996 10 93 1100 070/03 RMK AO2 T02440233
13976KLFT LFT20190917011510709/17/19 01:15:31  5-MIN KLFT 170715Z AUTO 07003KT 10SM CLR 24/23 A2996 10 93 1100 070/03 RMK AO2 T02440233
13976KLFT LFT20190917012010709/17/19 01:20:31  5-MIN KLFT 170720Z AUTO 00000KT 10SM CLR 24/23 A2996 10 97 1100 000/00 RMK AO2 T02390233
13976KLFT LFT20190917012510709/17/19 01:25:31  5-MIN KLFT 170725Z AUTO 00000KT 10SM CLR 24/23 A2996 10 97 1100 000/00 RMK AO2 T02390233
13976KLFT LFT20190917013010709/17/19 01:30:31  5-MIN KLFT 170730Z AUTO 00000KT 10SM CLR 24/23 A2996 10 97 1100 000/00 RMK AO2 T02390233
13976KLFT LFT20190917013510709/17/19 01:35:31  5-MIN KLFT 170735Z AUTO 00000KT 10SM CLR 24/23 A2995 10 97 1100 000/00 RMK AO2 T02390233
13976KLFT LFT20190917014010709/17/19 01:40:31  5-MIN KLFT 170740Z AUTO 00000KT 10SM CLR 24/23 A2995 10 97 1100 000/00 RMK AO2 T02390233
13976KLFT LFT20190917014510709/17/19 01:45:31  5-MIN KLFT 170745Z AUTO VRB03KT 10SM CLR 24/23 A2995 20 97 1100 VRB/03 RMK AO2 T02390233
13976KLFT LFT20190917015011409/17/19 01:50:31  5-MIN KLFT 170750Z AUTO 11003KT 10SM CLR 24/23 A2995 20 97 1100 110/03 RMK AO2 SLP141 T02390233
13976KLFT LFT20190917015510709/17/19 01:55:31  5-MIN KLFT 170755Z AUTO 00000KT 10SM CLR 24/23 A2995 20 97 1100 000/00 RMK AO2 T02390233
13976KLFT LFT20190917020010709/17/19 02:00:31  5-MIN KLFT 170800Z AUTO 10003KT 10SM CLR 24/23 A2995 20 97 1100 100/03 RMK AO2 T02390233
13976KLFT LFT20190917020510709/17/19 02:05:31  5-MIN KLFT 170805Z AUTO 11003KT 10SM CLR 24/23 A2995 20 93 1200 100/03 RMK AO2 T02440233
13976KLFT LFT20190917021010709/17/19 02:10:31  5-MIN KLFT 170810Z AUTO VRB04KT 10SM CLR 24/23 A2995 20 93 1200 VRB/04 RMK AO2 T02440233
13976KLFT LFT20190917021510709/17/19 02:15:31  5-MIN KLFT 170815Z AUTO 12004KT 10SM CLR 24/23 A2995 20 93 1200 120/04 RMK AO2 T02440233
13976KLFT LFT20190917022010709/17/19 02:20:31  5-MIN KLFT 170820Z AUTO 12004KT 10SM CLR 24/23 A2994 20 93 1200 120/04 RMK AO2 T02440233
13976KLFT LFT20190917022510709/17/19 02:25:31  5-MIN KLFT 170825Z AUTO 09003KT 10SM CLR 24/23 A2994 20 93 1200 090/03 RMK AO2 T02440233
13976KLFT LFT20190917023010709/17/19 02:30:31  5-MIN KLFT 170830Z AUTO 00000KT 10SM CLR 24/23 A2994 20 93 1200 000/00 RMK AO2 T02440233
13976KLFT LFT20190917023510709/17/19 02:35:31  5-MIN KLFT 170835Z AUTO 09003KT 10SM CLR 24/23 A2994 20 93 1200 090/03 RMK AO2 T02440233
13976KLFT LFT20190917024010709/17/19 02:40:31  5-MIN KLFT 170840Z AUTO 00000KT 10SM CLR 24/23 A2994 30 93 1200 000/00 RMK AO2 T02440233
13976KLFT LFT20190917024510709/17/19 02:45:31  5-MIN KLFT 170845Z AUTO VRB03KT 10SM CLR 24/23 A2994 30 93 1200 VRB/03 RMK AO2 T02440233
13976KLFT LFT20190917025012009/17/19 02:50:31  5-MIN KLFT 170850Z AUTO 00000KT 10SM CLR 24/23 A2994 30 93 1200 000/00 RMK AO2 SLP138 T02440233 58006
13976KLFT LFT20190917025510709/17/19 02:55:31  5-MIN KLFT 170855Z AUTO 11003KT 10SM CLR 24/23 A2994 30 93 1200 110/03 RMK AO2 T02440233
13976KLFT LFT20190917030010709/17/19 03:00:31  5-MIN KLFT 170900Z AUTO 00000KT 10SM CLR 24/23 A2994 30 93 1200 000/00 RMK AO2 T02440233
13976KLFT LFT20190917030510709/17/19 03:05:31  5-MIN KLFT 170905Z AUTO 00000KT 10SM CLR 24/23 A2994 30 93 1200 000/00 RMK AO2 T02440233
13976KLFT LFT20190917031010709/17/19 03:10:31  5-MIN KLFT 170910Z AUTO 00000KT 10SM CLR 24/23 A2994 30 93 1200 000/00 RMK AO2 T02440233
13976KLFT LFT20190917031510709/17/19 03:15:31  5-MIN KLFT 170915Z AUTO 00000KT 10SM CLR 24/23 A2994 30 93 1200 000/00 RMK AO2 T02440233
13976KLFT LFT20190917032010709/17/19 03:20:31  5-MIN KLFT 170920Z AUTO 00000KT 10SM CLR 24/23 A2994 30 93 1200 000/00 RMK AO2 T02440233
13976KLFT LFT20190917032510709/17/19 03:25:31  5-MIN KLFT 170925Z AUTO 00000KT 10SM CLR 24/23 A2994 30 93 1200 000/00 RMK AO2 T02440233
13976KLFT LFT20190917033010709/17/19 03:30:31  5-MIN KLFT 170930Z AUTO 00000KT 10SM CLR 24/23 A2994 30 93 1200 000/00 RMK AO2 T02440233
13976KLFT LFT20190917033510709/17/19 03:35:31  5-MIN KLFT 170935Z AUTO 00000KT 10SM CLR 24/23 A2994 30 93 1200 000/00 RMK AO2 T02440233
13976KLFT LFT20190917034010709/17/19 03:40:31  5-MIN KLFT 170940Z AUTO 00000KT 10SM CLR 24/23 A2994 30 93 1200 000/00 RMK AO2 T02440233
13976KLFT LFT20190917034511009/17/19 03:45:31  5-MIN KLFT 170945Z AUTO 07003KT 10SM FEW005 24/23 A2994 20 93 1200 070/03 RMK AO2 T02440233
13976KLFT LFT20190917035011709/17/19 03:50:31  5-MIN KLFT 170950Z AUTO 06003KT 10SM FEW005 24/23 A2994 20 93 1200 060/03 RMK AO2 SLP138 T02440233
13976KLFT LFT20190917035510709/17/19 03:55:31  5-MIN KLFT 170955Z AUTO 06003KT 10SM CLR 24/23 A2995 20 93 1200 060/03 RMK AO2 T02440233
13976KLFT LFT20190917040010709/17/19 04:00:31  5-MIN KLFT 171000Z AUTO 06003KT 10SM CLR 24/23 A2995 20 93 1200 060/03 RMK AO2 T02440233
13976KLFT LFT20190917040511009/17/19 04:05:31  5-MIN KLFT 171005Z AUTO 06003KT 10SM FEW005 24/23 A2995 20 93 1200 060/03 RMK AO2 T02440233
13976KLFT LFT20190917041011009/17/19 04:10:31  5-MIN KLFT 171010Z AUTO 06003KT 10SM SCT005 24/23 A2995 20 93 1200 060/03 RMK AO2 T02440233
13976KLFT LFT20190917041511009/17/19 04:15:31  5-MIN KLFT 171015Z AUTO 00000KT 10SM BKN005 24/23 A2995 20 93 1200 000/00 RMK AO2 T02440233
13976KLFT LFT20190917042011009/17/19 04:20:31  5-MIN KLFT 171020Z AUTO 00000KT 10SM BKN005 24/23 A2995 10 93 1200 000/00 RMK AO2 T02440233
13976KLFT LFT20190917042511009/17/19 04:25:31  5-MIN KLFT 171025Z AUTO 08003KT 10SM BKN005 24/23 A2996 10 93 1200 070/03 RMK AO2 T02440233
13976KLFT LFT20190917043010509/17/19 04:30:31  5-MIN KLFT 171030Z 07003KT 10SM OVC005 24/23 A2996 10 93 1100 070/03 RMK AO2 T02440233
13976KLFT LFT20190917043510509/17/19 04:35:31  5-MIN KLFT 171035Z 06003KT 10SM OVC005 24/23 A2996 10 93 1100 060/03 RMK AO2 T02440233
13976KLFT LFT20190917044010509/17/19 04:40:31  5-MIN KLFT 171040Z 07003KT 10SM OVC004 24/23 A2996 10 93 1100 070/03 RMK AO2 T02440233
13976KLFT LFT20190917044510509/17/19 04:45:31  5-MIN KLFT 171045Z VRB03KT 10SM OVC004 24/23 A2996 10 93 1100 VRB/03 RMK AO2 T02440233
13976KLFT LFT20190917045011209/17/19 04:50:31  5-MIN KLFT 171050Z 08003KT 10SM OVC004 24/23 A2996 10 93 1100 080/03 RMK AO2 SLP145 T02440233
13976KLFT LFT20190917045510409/17/19 04:55:31  5-MIN KLFT 171055Z 07004KT 10SM OVC004 24/23 A2996 0 93 1100 070/04 RMK AO2 T02440233
13976KLFT LFT20190917050010409/17/19 05:00:31  5-MIN KLFT 171100Z 07003KT 10SM OVC004 24/23 A2996 0 93 1100 070/03 RMK AO2 T02440233
13976KLFT LFT20190917050510409/17/19 05:05:31  5-MIN KLFT 171105Z 07003KT 10SM OVC004 24/24 A2997 0 97 1100 070/03 RMK AO2 T02440239
13976KLFT LFT20190917051010409/17/19 05:10:31  5-MIN KLFT 171110Z 07003KT 10SM OVC004 24/23 A2997 0 93 1100 070/03 RMK AO2 T02440233
13976KLFT LFT20190917051510409/17/19 05:15:31  5-MIN KLFT 171115Z 07003KT 10SM OVC004 24/23 A2997 0 93 1100 070/03 RMK AO2 T02440233
13976KLFT LFT20190917052010409/17/19 05:20:31  5-MIN KLFT 171120Z 00000KT 10SM OVC003 24/24 A2997 0 97 1100 000/00 RMK AO2 T02440239
13976KLFT LFT20190917052510409/17/19 05:25:31  5-MIN KLFT 171125Z 00000KT 10SM OVC003 24/24 A2997 0 97 1100 000/00 RMK AO2 T02440239
13976KLFT LFT20190917053010409/17/19 05:30:31  5-MIN KLFT 171130Z 00000KT 10SM OVC003 24/24 A2998 0 97 1100 000/00 RMK AO2 T02440239
13976KLFT LFT20190917053510409/17/19 05:35:31  5-MIN KLFT 171135Z 09003KT 10SM OVC003 24/24 A2998 0 97 1100 090/03 RMK AO2 T02440239
13976KLFT LFT20190917054010409/17/19 05:40:31  5-MIN KLFT 171140Z VRB03KT 10SM OVC003 24/24 A2998 0 97 1100 VRB/03 RMK AO2 T02440239
13976KLFT LFT20190917054510609/17/19 05:45:31  5-MIN KLFT 171145Z 00000KT 10SM OVC004 24/24 A2998 -10 97 1100 000/00 RMK AO2 T02440239
13976KLFT LFT20190917055013609/17/19 05:50:31  5-MIN KLFT 171150Z 10003KT 9SM OVC004 24/24 A2998 -10 97 1100 100/03 RMK AO2 SLP151 70009 T02440239 10244 20239 58008
13976KLFT LFT20190917055510509/17/19 05:55:31  5-MIN KLFT 171155Z 09003KT 8SM OVC004 24/24 A2998 -10 97 1100 090/03 RMK AO2 T02440239
13976KLFT LFT20190917060010809/17/19 06:00:31  5-MIN KLFT 171200Z 11003KT 6SM BR OVC003 24/24 A2998 -10 97 1100 110/03 RMK AO2 T02440239
13976KLFT LFT20190917060510809/17/19 06:05:31  5-MIN KLFT 171205Z 09003KT 3SM BR OVC003 24/24 A2998 -10 97 1100 090/03 RMK AO2 T02440239
13976KLFT LFT20190917061012009/17/19 06:10:31  5-MIN KLFT 171210Z 00000KT 2SM BR OVC003 24/24 A2998 -10 97 1100 000/00 RMK AO2 VIS 1 1/2V4 T02440239
13976KLFT LFT20190917061511209/17/19 06:15:31  5-MIN KLFT 171215Z 00000KT 1 1/2SM BR OVC003 24/24 A2998 -10 97 1100 000/00 RMK AO2 T02440239
13976KLFT LFT20190917062011209/17/19 06:20:31  5-MIN KLFT 171220Z VRB03KT 1 3/4SM BR OVC002 24/24 A2999 -10 97 1100 VRB/03 RMK AO2 T02440239
13976KLFT LFT20190917062510809/17/19 06:25:31  5-MIN KLFT 171225Z 09003KT 2SM BR OVC003 24/24 A2999 -10 97 1100 080/03 RMK AO2 T02440239
13976KLFT LFT20190917063010809/17/19 06:30:31  5-MIN KLFT 171230Z 09004KT 2SM BR OVC003 24/24 A2999 -10 97 1100 090/04 RMK AO2 T02440239
13976KLFT LFT20190917063510809/17/19 06:35:31  5-MIN KLFT 171235Z 00000KT 2SM BR OVC003 24/24 A2999 -10 97 1100 000/00 RMK AO2 T02440239
13976KLFT LFT20190917064010809/17/19 06:40:31  5-MIN KLFT 171240Z 11003KT 2SM BR OVC003 24/24 A2999 -10 97 1100 110/03 RMK AO2 T02440239
13976KLFT LFT20190917064510809/17/19 06:45:31  5-MIN KLFT 171245Z 09004KT 2SM BR OVC003 24/24 A2999 -10 97 1100 080/04 RMK AO2 T02440239
13976KLFT LFT20190917065009809/17/19 06:50:31  5-MIN KLFT 171250Z 09004KT 4SM BR OVC003 25/24 A2999 -20 93 1200 090/04 RMK AO2
13976KLFT LFT20190917065510809/17/19 06:55:31  5-MIN KLFT 171255Z 00000KT 5SM BR OVC002 25/24 A2999 -20 93 1200 000/00 RMK AO2 T02500239
13976KLFT LFT20190917070010509/17/19 07:00:31  5-MIN KLFT 171300Z 10003KT 7SM OVC002 25/24 A3000 -20 93 1200 100/03 RMK AO2 T02500239
13976KLFT LFT20190917070510509/17/19 07:05:31  5-MIN KLFT 171305Z 00000KT 7SM OVC002 25/24 A3000 -20 93 1200 000/00 RMK AO2 T02500239
13976KLFT LFT20190917071010509/17/19 07:10:31  5-MIN KLFT 171310Z VRB03KT 8SM OVC003 25/24 A3000 -20 93 1200 VRB/03 RMK AO2 T02500239
13976KLFT LFT20190917071510509/17/19 07:15:31  5-MIN KLFT 171315Z 00000KT 8SM OVC003 25/24 A3000 -20 97 1200 000/00 RMK AO2 T02500244
13976KLFT LFT20190917072010509/17/19 07:20:31  5-MIN KLFT 171320Z 00000KT 8SM OVC003 25/24 A3000 -20 97 1200 000/00 RMK AO2 T02500244
13976KLFT LFT20190917072510509/17/19 07:25:31  5-MIN KLFT 171325Z 00000KT 9SM OVC003 26/24 A3000 -20 93 1200 000/00 RMK AO2 T02560244
13976KLFT LFT20190917073010509/17/19 07:30:31  5-MIN KLFT 171330Z VRB03KT 9SM OVC003 26/24 A3000 -30 93 1200 VRB/03 RMK AO2 T02560244
13976KLFT LFT20190917073510609/17/19 07:35:31  5-MIN KLFT 171335Z VRB03KT 10SM OVC003 26/24 A3000 -30 93 1200 VRB/03 RMK AO2 T02560244
13976KLFT LFT20190917074010609/17/19 07:40:31  5-MIN KLFT 171340Z 00000KT 10SM OVC003 26/24 A3000 -30 93 1200 000/00 RMK AO2 T02560244
13976KLFT LFT20190917074510609/17/19 07:45:31  5-MIN KLFT 171345Z VRB03KT 10SM OVC003 26/24 A3000 -30 93 1200 VRB/03 RMK AO2 T02560244
13976KLFT LFT20190917075011309/17/19 07:50:31  5-MIN KLFT 171350Z 00000KT 10SM OVC004 26/24 A3001 -30 93 1200 000/00 RMK AO2 SLP160 T02560244
13976KLFT LFT20190917075511809/17/19 07:55:31  5-MIN KLFT 171355Z 14003KT 10SM OVC004 26/24 A3001 -30 90 1300 140/03 RMK AO2 CIG 003V008 T02610244
13976KLFT LFT20190917080010509/17/19 08:00:31  5-MIN KLFT 171400Z 00000KT 8SM OVC007 26/24 A3001 -30 90 1300 000/00 RMK AO2 T02610244
13976KLFT LFT20190917080510509/17/19 08:05:31  5-MIN KLFT 171405Z VRB03KT 8SM OVC007 26/24 A3001 -30 90 1300 VRB/03 RMK AO2 T02610244
13976KLFT LFT20190917081010509/17/19 08:10:31  5-MIN KLFT 171410Z 00000KT 8SM OVC007 26/24 A3001 -30 90 1300 000/00 RMK AO2 T02610244
13976KLFT LFT20190917081510509/17/19 08:15:31  5-MIN KLFT 171415Z 00000KT 8SM OVC007 26/25 A3001 -30 93 1300 000/00 RMK AO2 T02610250
13976KLFT LFT20190917082010509/17/19 08:20:31  5-MIN KLFT 171420Z 09004KT 8SM OVC007 26/25 A3001 -30 93 1300 090/04 RMK AO2 T02610250
13976KLFT LFT20190917082510509/17/19 08:25:31  5-MIN KLFT 171425Z VRB03KT 8SM OVC007 27/25 A3001 -40 90 1300 VRB/03 RMK AO2 T02670250
13976KLFT LFT20190917083010509/17/19 08:30:31  5-MIN KLFT 171430Z 09004KT 8SM OVC007 27/25 A3001 -40 90 1300 090/04 RMK AO2 T02670250
13976KLFT LFT20190917083510509/17/19 08:35:31  5-MIN KLFT 171435Z VRB04KT 8SM OVC007 27/25 A3001 -40 90 1300 VRB/04 RMK AO2 T02670250
13976KLFT LFT20190917084010509/17/19 08:40:31  5-MIN KLFT 171440Z VRB03KT 8SM OVC007 27/25 A3001 -40 87 1400 VRB/03 RMK AO2 T02720250
13976KLFT LFT20190917084510509/17/19 08:45:31  5-MIN KLFT 171445Z VRB04KT 8SM OVC007 27/25 A3001 -40 87 1400 VRB/04 RMK AO2 T02720250
13976KLFT LFT20190917085013009/17/19 08:50:31  5-MIN KLFT 171450Z VRB04KT 8SM OVC007 27/25 A3001 -40 87 1400 VRB/04 RMK AO2 CIG 005V011 SLP163 T02720250 53013
13976KLFT LFT20190917085511809/17/19 08:55:31  5-MIN KLFT 171455Z VRB03KT 10SM OVC007 28/25 A3001 -40 84 1500 VRB/03 RMK AO2 CIG 006V011 T02780250
13976KLFT LFT20190917090011809/17/19 09:00:31  5-MIN KLFT 171500Z 11004KT 10SM BKN008 28/25 A3001 -40 84 1500 110/04 RMK AO2 CIG 007V012 T02780250
13976KLFT LFT20190917090511809/17/19 09:05:31  5-MIN KLFT 171505Z VRB03KT 10SM BKN008 28/25 A3002 -40 84 1500 VRB/03 RMK AO2 CIG 007V013 T02780250
13976KLFT LFT20190919151010509/19/19 15:10:31  5-MIN KLFT 192110Z 23005KT 10SM BKN023 29/23 A2996 10 71 1600 230/05 RMK AO2 T02890233
13976KLFT LFT20190919151510409/19/19 15:15:31  5-MIN KLFT 192115Z 22004KT 10SM BKN023 29/24 A2996 0 71 1700 220/04 RMK AO2 T02940239
13976KLFT LFT20190919152010409/19/19 15:20:31  5-MIN KLFT 192120Z 22004KT 10SM BKN023 29/24 A2996 0 74 1600 220/04 RMK AO2 T02890239
13976KLFT LFT20190919152510409/19/19 15:25:31  5-MIN KLFT 192125Z 20004KT 10SM BKN023 29/24 A2996 0 74 1600 190/04 RMK AO2 T02890239
13976KLFT LFT20190919153010409/19/19 15:30:31  5-MIN KLFT 192130Z 19003KT 10SM BKN023 29/24 A2996 0 71 1700 190/03 RMK AO2 T02940239
13976KLFT LFT20190919153510409/19/19 15:35:31  5-MIN KLFT 192135Z 22003KT 10SM BKN023 29/24 A2996 0 71 1700 220/03 RMK AO2 T02940239
13976KLFT LFT20190919154010909/19/19 15:40:31  5-MIN KLFT 192140Z 23003KT 10SM VCTS SCT023 29/24 A2996 0 71 1700 230/03 RMK AO2 T02940239
13976KLFT LFT20190919154512809/19/19 15:45:31  5-MIN KLFT 192145Z 32004KT 10SM VCTS SCT023 29/24 A2996 0 74 1600 320/04 RMK AO2 LTG DSNT NE AND SW T02890239
13976KLFT LFT20190919155013509/19/19 15:50:31  5-MIN KLFT 192150Z 00000KT 10SM VCTS SCT023 28/23 A2997 0 76 1500 000/00 RMK AO2 LTG DSNT NE AND SW SLP148 T02780233
13976KLFT LFT20190919155512309/19/19 15:55:31  5-MIN KLFT 192155Z 30004KT 10SM TS CLR 28/23 A2997 0 76 1500 290/04 RMK AO2 LTG DSNT NE AND SW T02780233
13976KLFT LFT20190919160011609/19/19 16:00:31  5-MIN KLFT 192200Z 31004KT 10SM TS CLR 28/24 A2997 0 79 1500 310/04 RMK AO2 LTG DSNT NE T02780239
13976KLFT LFT20190919160510709/19/19 16:05:31  5-MIN KLFT 192205Z 31007KT 10SM TS FEW021 28/24 A2997 0 79 1500 300/07 RMK AO2 T02780239
13976KLFT LFT20190919161011509/19/19 16:10:31  5-MIN KLFT 192210Z 32006KT 10SM VCTS SCT019 28/24 A2997 0 79 1500 320/06 RMK AO2 TSE08 T02780239
13976KLFT LFT20190919161512209/19/19 16:15:31  5-MIN KLFT 192215Z 32007KT 10SM VCTS SCT019 BKN024 28/24 A2997 0 79 1500 320/07 RMK AO2 TSE08 T02780239
13976KLFT LFT20190919162011009/19/19 16:20:31  5-MIN KLFT 192220Z 30006KT 10SM BKN021 27/22 A2997 0 74 1400 300/06 RMK AO2 TSE08 T02720222
13976KLFT LFT20190919162512909/19/19 16:25:31  5-MIN KLFT 192225Z 31004KT 10SM BKN019 BKN024 27/22 A2997 0 74 1400 310/04 RMK AO2 LTG DSNT SE TSE08 T02720222
13976KLFT LFT20190919163012909/19/19 16:30:31  5-MIN KLFT 192230Z 30004KT 10SM BKN019 BKN026 27/22 A2997 0 71 1400 300/04 RMK AO2 LTG DSNT SE TSE08 T02720217
13976KLFT LFT20190919163512909/19/19 16:35:31  5-MIN KLFT 192235Z 31004KT 10SM BKN019 OVC028 27/22 A2997 0 71 1400 310/04 RMK AO2 LTG DSNT SE TSE08 T02720217
13976KLFT LFT20190919164013509/19/19 16:40:31  5-MIN KLFT 192240Z 31005KT 10SM SCT019 BKN028 27/22 A2997 0 71 1500 310/05 RMK AO2 LTG DSNT E AND SE TSE08 T02720217
13976KLFT LFT20190919164513509/19/19 16:45:31  5-MIN KLFT 192245Z 31004KT 10SM SCT019 SCT026 27/22 A2997 0 71 1500 310/04 RMK AO2 LTG DSNT E AND SE TSE08 T02720217
13976KLFT LFT20190919165012509/19/19 16:50:31  5-MIN KLFT 192250Z 31004KT 10SM SCT019 SCT026 27/22 A2996 0 71 1500 310/04 RMK AO2 LTG DSNT E AND SE TSE08
13976KLFT LFT20190919165513009/19/19 16:55:31  5-MIN KLFT 192255Z 32006KT 10SM FEW017 FEW026 27/22 A2996 10 71 1500 320/06 RMK AO2 LTG DSNT E AND SE T02720217
13976KLFT LFT20190919170012309/19/19 17:00:31  5-MIN KLFT 192300Z 33004KT 10SM FEW017 27/21 A2996 10 69 1500 330/04 RMK AO2 LTG DSNT E AND SE T02720211
13976KLFT LFT20190919170512009/19/19 17:05:31  5-MIN KLFT 192305Z 34004KT 10SM CLR 27/21 A2996 10 69 1500 340/04 RMK AO2 LTG DSNT E AND SE T02720211
13976KLFT LFT20190919171012009/19/19 17:10:31  5-MIN KLFT 192310Z 00000KT 10SM CLR 27/21 A2996 10 66 1500 000/00 RMK AO2 LTG DSNT E AND SE T02720206
13976KLFT LFT20190919171512009/19/19 17:15:31  5-MIN KLFT 192315Z 00000KT 10SM CLR 27/21 A2996 10 69 1500 000/00 RMK AO2 LTG DSNT E AND SE T02720211
13976KLFT LFT20190919172011909/19/19 17:20:31  5-MIN KLFT 192320Z 31004KT 10SM CLR 27/21 A2996 0 71 1400 310/04 RMK AO2 LTG DSNT E AND SE T02670211
13976KLFT LFT20190919172511909/19/19 17:25:31  5-MIN KLFT 192325Z 31003KT 10SM CLR 26/21 A2996 0 73 1300 310/03 RMK AO2 LTG DSNT E AND SE T02610211
13976KLFT LFT20190919173011309/19/19 17:30:31  5-MIN KLFT 192330Z 34003KT 10SM CLR 26/21 A2996 10 73 1300 340/03 RMK AO2 LTG DSNT E T02610211
13976KLFT LFT20190919173512009/19/19 17:35:31  5-MIN KLFT 192335Z 02003KT 10SM CLR 26/21 A2995 10 73 1300 020/03 RMK AO2 LTG DSNT NE AND E T02610211
13976KLFT LFT20190919174012009/19/19 17:40:31  5-MIN KLFT 192340Z 00000KT 10SM CLR 26/21 A2996 10 73 1300 000/00 RMK AO2 LTG DSNT NE AND E T02610211
13976KLFT LFT20190919174512009/19/19 17:45:31  5-MIN KLFT 192345Z 01003KT 10SM CLR 26/21 A2996 10 76 1300 010/03 RMK AO2 LTG DSNT NE AND E T02560211
13976KLFT LFT20190919175014809/19/19 17:50:31  5-MIN KLFT 192350Z 05003KT 10SM SCT015 26/21 A2996 10 76 1300 050/03 RMK AO2 LTG DSNT NE AND E SLP145 T02560211 10294 20256 56014
13976KLFT LFT20190919175512009/19/19 17:55:31  5-MIN KLFT 192355Z 00000KT 10SM CLR 26/21 A2996 10 76 1300 000/00 RMK AO2 LTG DSNT NE AND E T02560211
13976KLFT LFT20190919180012009/19/19 18:00:31  5-MIN KLFT 200000Z 00000KT 10SM CLR 26/21 A2996 10 76 1300 000/00 RMK AO2 LTG DSNT NE AND E T02560211
13976KLFT LFT20190919180512009/19/19 18:05:31  5-MIN KLFT 200005Z 00000KT 10SM CLR 26/22 A2996 10 79 1300 000/00 RMK AO2 LTG DSNT NE AND E T02560217
13976KLFT LFT20190919181012009/19/19 18:10:31  5-MIN KLFT 200010Z 00000KT 10SM CLR 25/22 A2996 10 81 1200 000/00 RMK AO2 LTG DSNT NE AND E T02500217
13976KLFT LFT20190919181512009/19/19 18:15:31  5-MIN KLFT 200015Z 00000KT 10SM CLR 25/22 A2996 10 81 1200 000/00 RMK AO2 LTG DSNT NE AND E T02500217
13976KLFT LFT20190919182011909/19/19 18:20:31  5-MIN KLFT 200020Z 00000KT 10SM CLR 25/22 A2997 0 84 1200 000/00 RMK AO2 LTG DSNT NE AND E T02500222
13976KLFT LFT20190919182511309/19/19 18:25:31  5-MIN KLFT 200025Z 00000KT 10SM CLR 25/22 A2997 0 84 1200 000/00 RMK AO2 LTG DSNT NE T02500222
13976KLFT LFT20190919183011609/19/19 18:30:31  5-MIN KLFT 200030Z VRB03KT 10SM FEW020 25/22 A2998 0 84 1200 VRB/03 RMK AO2 LTG DSNT NE T02500222
13976KLFT LFT20190919183511809/19/19 18:35:31  5-MIN KLFT 200035Z 00000KT 10SM SCT020 26/23 A2998 -10 84 1200 000/00 RMK AO2 LTG DSNT NE T02560228
13976KLFT LFT20190919184012509/19/19 18:40:31  5-MIN KLFT 200040Z 06003KT 10SM FEW020 SCT028 26/23 A2998 -10 87 1200 060/03 RMK AO2 LTG DSNT NE T02560233
13976KLFT LFT20190919184512509/19/19 18:45:31  5-MIN KLFT 200045Z 07004KT 10SM FEW020 FEW028 26/23 A2998 -10 87 1200 070/04 RMK AO2 LTG DSNT NE T02560233
13976KLFT LFT20190919185013109/19/19 18:50:31  5-MIN KLFT 200050Z 07004KT 10SM FEW021 26/23 A2999 -10 87 1200 070/04 RMK AO2 LTG DSNT N AND NE SLP153 T02560233
13976KLFT LFT20190919185512409/19/19 18:55:31  5-MIN KLFT 200055Z 06004KT 10SM FEW021 25/23 A2998 -10 90 1200 060/04 RMK AO2 LTG DSNT N AND NE T02500233
13976KLFT LFT20190919190012409/19/19 19:00:31  5-MIN KLFT 200100Z 08003KT 10SM FEW021 25/23 A2998 -10 90 1200 080/03 RMK AO2 LTG DSNT N AND NE T02500233
13976KLFT LFT20190919190512409/19/19 19:05:31  5-MIN KLFT 200105Z 00000KT 10SM FEW023 FEW029 25/23 A2999 -10 90 1200 000/00 RMK AO2 LTG DSNT N T02500233
13976KLFT LFT20190919191012409/19/19 19:10:31  5-MIN KLFT 200110Z 00000KT 10SM FEW023 SCT029 26/23 A2999 -10 87 1200 000/00 RMK AO2 LTG DSNT N T02560233
13976KLFT LFT20190919191511309/19/19 19:15:31  5-MIN KLFT 200115Z VRB03KT 10SM FEW025 SCT032 25/23 A2999 -10 87 1200 VRB/03 RMK AO2 T02500228
13976KLFT LFT20190919192011309/19/19 19:20:31  5-MIN KLFT 200120Z 00000KT 10SM FEW025 SCT032 25/22 A2999 -10 84 1200 000/00 RMK AO2 T02500222
13976KLFT LFT20190919192511309/19/19 19:25:31  5-MIN KLFT 200125Z 08003KT 10SM FEW022 SCT033 25/22 A2999 -20 84 1200 080/03 RMK AO2 T02500222
13976KLFT LFT20190919193011309/19/19 19:30:31  5-MIN KLFT 200130Z 00000KT 10SM FEW024 SCT033 25/22 A2999 -20 84 1200 000/00 RMK AO2 T02500222
13976KLFT LFT20190919193511309/19/19 19:35:31  5-MIN KLFT 200135Z VRB03KT 10SM FEW024 SCT033 25/22 A2999 -20 81 1200 VRB/03 RMK AO2 T02500217
13976KLFT LFT20190919194011309/19/19 19:40:31  5-MIN KLFT 200140Z VRB04KT 10SM FEW025 FEW035 24/22 A2999 -20 84 1100 VRB/04 RMK AO2 T02440217
13976KLFT LFT20190919194510609/19/19 19:45:31  5-MIN KLFT 200145Z VRB03KT 10SM FEW035 24/21 A3000 -20 81 1100 VRB/03 RMK AO2 T02440211
13976KLFT LFT20190919195011009/19/19 19:50:31  5-MIN KLFT 200150Z VRB04KT 10SM CLR 24/21 A3000 -30 81 1100 VRB/04 RMK AO2 SLP158 T02440211
13976KLFT LFT20190919195510309/19/19 19:55:31  5-MIN KLFT 200155Z 04004KT 10SM CLR 24/21 A3001 -30 81 1100 040/04 RMK AO2 T02440211
13976KLFT LFT20190919200010609/19/19 20:00:31  5-MIN KLFT 200200Z 05004KT 10SM FEW031 24/22 A3001 -30 87 1000 050/04 RMK AO2 T02390217
13976KLFT LFT20190919200510609/19/19 20:05:31  5-MIN KLFT 200205Z 05004KT 10SM SCT031 24/21 A3001 -40 84 1000 050/04 RMK AO2 T02390211
13976KLFT LFT20190919201011309/19/19 20:10:31  5-MIN KLFT 200210Z 06005KT 10SM FEW026 BKN031 24/21 A3001 -40 84 1000 060/05 RMK AO2 T02390211
13976KLFT LFT20190919201511309/19/19 20:15:31  5-MIN KLFT 200215Z 06005KT 10SM SCT026 BKN033 24/21 A3001 -40 84 1000 060/05 RMK AO2 T02390211
13976KLFT LFT20190919202012009/19/19 20:20:31  5-MIN KLFT 200220Z 07005KT 10SM SCT026 BKN033 BKN048 24/21 A3001 -40 84 1000 060/05 RMK AO2 T02390211
13976KLFT LFT20190919202512009/19/19 20:25:31  5-MIN KLFT 200225Z 07005KT 10SM SCT026 BKN035 OVC046 24/21 A3002 -40 84 1000 070/05 RMK AO2 T02390211
13976KLFT LFT20190919203012009/19/19 20:30:31  5-MIN KLFT 200230Z 06004KT 10SM SCT025 BKN035 OVC048 24/21 A3002 -40 84 1000 060/04 RMK AO2 T02390211
13976KLFT LFT20190919203512009/19/19 20:35:31  5-MIN KLFT 200235Z VRB04KT 10SM SCT027 BKN035 BKN049 24/21 A3002 -40 84 1000 VRB/04 RMK AO2 T02390211
13976KLFT LFT20190919204012009/19/19 20:40:31  5-MIN KLFT 200240Z 08003KT 10SM FEW024 BKN037 BKN049 24/21 A3001 -40 84 1000 070/03 RMK AO2 T02390211
13976KLFT LFT20190919204512009/19/19 20:45:31  5-MIN KLFT 200245Z 08004KT 10SM FEW026 SCT037 BKN049 24/21 A3001 -40 84 1000 080/04 RMK AO2 T02390211
13976KLFT LFT20190919205013309/19/19 20:50:31  5-MIN KLFT 200250Z 09005KT 10SM FEW026 FEW037 SCT049 24/21 A3001 -40 84 1000 090/05 RMK AO2 SLP163 T02390211 56004
13976KLFT LFT20190919205512009/19/19 20:55:31  5-MIN KLFT 200255Z 11004KT 10SM FEW026 FEW036 FEW049 24/21 A3001 -30 84 1000 110/04 RMK AO2 T02390211
13976KLFT LFT20190919210010309/19/19 21:00:31  5-MIN KLFT 200300Z VRB03KT 10SM CLR 23/21 A3001 -30 87 1000 VRB/03 RMK AO2 T02330211
13976KLFT LFT20190919210510309/19/19 21:05:31  5-MIN KLFT 200305Z 08003KT 10SM CLR 23/21 A3001 -30 87 1000 080/03 RMK AO2 T02330211
13976KLFT LFT20190919211010309/19/19 21:10:31  5-MIN KLFT 200310Z 08003KT 10SM CLR 23/21 A3001 -40 87 1000 080/03 RMK AO2 T02330211
13976KLFT LFT20190919211510309/19/19 21:15:31  5-MIN KLFT 200315Z 10003KT 10SM CLR 23/21 A3001 -40 87 1000 100/03 RMK AO2 T02330211
13976KLFT LFT20190919212010309/19/19 21:20:31  5-MIN KLFT 200320Z 08003KT 10SM CLR 23/21 A3001 -40 87 1000 080/03 RMK AO2 T02330211
13976KLFT LFT20190919212510809/19/19 21:25:31  5-MIN KLFT 200325Z AUTO 08003KT 10SM CLR 23/21 A3001 -40 87 1000 080/03 RMK AO2 T02330211
13976KLFT LFT20190919213010809/19/19 21:30:31  5-MIN KLFT 200330Z AUTO 07003KT 10SM CLR 23/22 A3001 -30 90 1000 070/03 RMK AO2 T02330217
13976KLFT LFT20190919213510809/19/19 21:35:31  5-MIN KLFT 200335Z AUTO 08004KT 10SM CLR 23/22 A3001 -30 90 1000 080/04 RMK AO2 T02330217
13976KLFT LFT20190919214010809/19/19 21:40:31  5-MIN KLFT 200340Z AUTO 08004KT 10SM CLR 23/22 A3001 -30 90 1000 080/04 RMK AO2 T02330217
13976KLFT LFT20190919214510809/19/19 21:45:31  5-MIN KLFT 200345Z AUTO 08004KT 10SM CLR 23/22 A3001 -30 90 1000 080/04 RMK AO2 T02330217
13976KLFT LFT20190919215011509/19/19 21:50:31  5-MIN KLFT 200350Z AUTO 08003KT 10SM CLR 23/22 A3001 -30 90 1000 080/03 RMK AO2 SLP162 T02330217
13976KLFT LFT20190919215510809/19/19 21:55:31  5-MIN KLFT 200355Z AUTO 08003KT 10SM CLR 23/22 A3001 -30 90 1000 080/03 RMK AO2 T02330217
13976KLFT LFT20190919220010809/19/19 22:00:31  5-MIN KLFT 200400Z AUTO 08003KT 10SM CLR 23/22 A3001 -30 90 1000 080/03 RMK AO2 T02330217
13976KLFT LFT20190919220510809/19/19 22:05:31  5-MIN KLFT 200405Z AUTO 07004KT 10SM CLR 23/22 A3000 -30 90 1000 070/04 RMK AO2 T02330217
13976KLFT LFT20190919221010809/19/19 22:10:31  5-MIN KLFT 200410Z AUTO 09004KT 10SM CLR 23/22 A3000 -30 90 1000 090/04 RMK AO2 T02330217
13976KLFT LFT20190919221510809/19/19 22:15:31  5-MIN KLFT 200415Z AUTO 09003KT 10SM CLR 23/22 A3000 -30 90 1000 090/03 RMK AO2 T02330217
13976KLFT LFT20190919222010809/19/19 22:20:31  5-MIN KLFT 200420Z AUTO 08003KT 10SM CLR 23/22 A3000 -30 90 1000 080/03 RMK AO2 T02330217
13976KLFT LFT20190919222510809/19/19 22:25:31  5-MIN KLFT 200425Z AUTO VRB03KT 10SM CLR 23/22 A3000 -30 90 1000 VRB/03 RMK AO2 T02330217
13976KLFT LFT20190919223010809/19/19 22:30:31  5-MIN KLFT 200430Z AUTO VRB03KT 10SM CLR 23/22 A3000 -30 90 1000 VRB/03 RMK AO2 T02330217
13976KLFT LFT20190919223510809/19/19 22:35:31  5-MIN KLFT 200435Z AUTO 09004KT 10SM CLR 23/22 A3000 -30 90 1000 090/04 RMK AO2 T02330217
13976KLFT LFT20190919224010809/19/19 22:40:31  5-MIN KLFT 200440Z AUTO 00000KT 10SM CLR 23/22 A3000 -30 90 1000 000/00 RMK AO2 T02330217
13976KLFT LFT20190919224510809/19/19 22:45:31  5-MIN KLFT 200445Z AUTO 00000KT 10SM CLR 23/22 A3000 -30 90 1000 000/00 RMK AO2 T02330217
13976KLFT LFT20190919225011509/19/19 22:50:31  5-MIN KLFT 200450Z AUTO VRB03KT 10SM CLR 23/22 A3000 -30 90 1000 VRB/03 RMK AO2 SLP160 T02330217
13976KLFT LFT20190919225510809/19/19 22:55:31  5-MIN KLFT 200455Z AUTO 10003KT 10SM CLR 23/22 A3000 -30 90 1000 100/03 RMK AO2 T02330217
13976KLFT LFT20190919230010809/19/19 23:00:31  5-MIN KLFT 200500Z AUTO VRB03KT 10SM CLR 23/22 A3000 -30 90 1000 VRB/03 RMK AO2 T02330217
13976KLFT LFT20190919230510709/19/19 23:05:31  5-MIN KLFT 200505Z AUTO VRB03KT 10SM CLR 23/22 A3000 -30 93 900 VRB/03 RMK AO2 T02280217
13976KLFT LFT20190919231010709/19/19 23:10:31  5-MIN KLFT 200510Z AUTO VRB03KT 10SM CLR 23/22 A3000 -30 93 900 VRB/03 RMK AO2 T02280217
13976KLFT LFT20190919231510709/19/19 23:15:31  5-MIN KLFT 200515Z AUTO 10003KT 10SM CLR 23/22 A3000 -30 93 900 100/03 RMK AO2 T02280217
13976KLFT LFT20190919232010709/19/19 23:20:31  5-MIN KLFT 200520Z AUTO VRB03KT 10SM CLR 23/22 A3000 -30 93 900 VRB/03 RMK AO2 T02280217
13976KLFT LFT20190919232510709/19/19 23:25:31  5-MIN KLFT 200525Z AUTO 08004KT 10SM CLR 23/22 A3000 -20 93 900 080/04 RMK AO2 T02280217
13976KLFT LFT20190919233010709/19/19 23:30:31  5-MIN KLFT 200530Z AUTO 08004KT 10SM CLR 23/22 A3000 -20 93 900 080/04 RMK AO2 T02280217
13976KLFT LFT20190919233510709/19/19 23:35:31  5-MIN KLFT 200535Z AUTO VRB03KT 10SM CLR 23/22 A3000 -20 93 900 VRB/03 RMK AO2 T02280217
13976KLFT LFT20190919234010709/19/19 23:40:31  5-MIN KLFT 200540Z AUTO 08003KT 10SM CLR 23/22 A3000 -20 93 900 080/03 RMK AO2 T02280217
13976KLFT LFT20190919234510709/19/19 23:45:31  5-MIN KLFT 200545Z AUTO VRB03KT 10SM CLR 23/22 A3000 -20 93 900 VRB/03 RMK AO2 T02280217
13976KLFT LFT20190919235014209/19/19 23:50:31  5-MIN KLFT 200550Z AUTO 08003KT 10SM CLR 23/22 A2999 -20 93 900 080/03 RMK AO2 SLP156 T02280217 10256 20228 402940228 51018
13976KLFT LFT20190919235510709/19/19 23:55:31  5-MIN KLFT 200555Z AUTO 08004KT 10SM CLR 23/22 A2999 -20 93 900 080/04 RMK AO2 T02280217
13976KLFT LFT20190920000010809/20/19 00:00:31  5-MIN KLFT 200600Z AUTO VRB04KT 10SM CLR 23/22 A2999 -20 90 1000 VRB/04 RMK AO2 T02330217
13976KLFT LFT20190920000510809/20/19 00:05:31  5-MIN KLFT 200605Z AUTO 00000KT 10SM CLR 23/22 A2999 -20 90 1000 000/00 RMK AO2 T02330217
13976KLFT LFT20190920001010809/20/19 00:10:31  5-MIN KLFT 200610Z AUTO VRB03KT 10SM CLR 23/22 A3000 -20 90 1000 VRB/03 RMK AO2 T02330217
13976KLFT LFT20190920001510809/20/19 00:15:31  5-MIN KLFT 200615Z AUTO 00000KT 10SM CLR 23/22 A3000 -20 90 1000 000/00 RMK AO2 T02330217
13976KLFT LFT20190920002010809/20/19 00:20:31  5-MIN KLFT 200620Z AUTO 00000KT 10SM CLR 23/22 A3000 -20 90 1000 000/00 RMK AO2 T02330217
13976KLFT LFT20190920002510809/20/19 00:25:31  5-MIN KLFT 200625Z AUTO 00000KT 10SM CLR 23/22 A3000 -30 90 1000 000/00 RMK AO2 T02330217
13976KLFT LFT20190920003010809/20/19 00:30:31  5-MIN KLFT 200630Z AUTO 11003KT 10SM CLR 23/22 A3000 -30 90 1000 110/03 RMK AO2 T02330217
13976KLFT LFT20190920003510809/20/19 00:35:31  5-MIN KLFT 200635Z AUTO 11003KT 10SM CLR 23/22 A3000 -30 90 1000 110/03 RMK AO2 T02330217
13976KLFT LFT20190920004010809/20/19 00:40:31  5-MIN KLFT 200640Z AUTO 00000KT 10SM CLR 23/22 A3001 -30 90 1000 000/00 RMK AO2 T02330217
13976KLFT LFT20190920004510809/20/19 00:45:31  5-MIN KLFT 200645Z AUTO 00000KT 10SM CLR 23/22 A3001 -30 90 1000 000/00 RMK AO2 T02330217
13976KLFT LFT20190920005011809/20/19 00:50:31  5-MIN KLFT 200650Z AUTO 00000KT 10SM FEW120 23/22 A3001 -30 90 1000 000/00 RMK AO2 SLP161 T02330217
13976KLFT LFT20190920005511109/20/19 00:55:31  5-MIN KLFT 200655Z AUTO 00000KT 10SM SCT120 23/22 A3001 -30 90 1000 000/00 RMK AO2 T02330217
13976KLFT LFT20190920010011109/20/19 01:00:31  5-MIN KLFT 200700Z AUTO 00000KT 10SM BKN120 23/22 A3001 -30 90 1000 000/00 RMK AO2 T02330217
13976KLFT LFT20190920010511109/20/19 01:05:31  5-MIN KLFT 200705Z AUTO 00000KT 10SM BKN120 23/22 A3000 -30 90 1000 000/00 RMK AO2 T02330217
13976KLFT LFT20190920011011109/20/19 01:10:31  5-MIN KLFT 200710Z AUTO 00000KT 10SM BKN120 23/22 A3000 -30 90 1000 000/00 RMK AO2 T02330217
13976KLFT LFT20190920011511109/20/19 01:15:31  5-MIN KLFT 200715Z AUTO VRB03KT 10SM BKN120 23/22 A3000 -30 90 1000 VRB/03 RMK AO2 T02330217
13976KLFT LFT20190920012011109/20/19 01:20:31  5-MIN KLFT 200720Z AUTO 00000KT 10SM SCT120 23/22 A3000 -20 93 1000 000/00 RMK AO2 T02330222
13976KLFT LFT20190920012511109/20/19 01:25:31  5-MIN KLFT 200725Z AUTO 00000KT 10SM SCT120 23/22 A3000 -20 93 1000 000/00 RMK AO2 T02330222
13976KLFT LFT20190920013011109/20/19 01:30:31  5-MIN KLFT 200730Z AUTO 00000KT 10SM FEW120 23/22 A3000 -20 93 1000 000/00 RMK AO2 T02330222
13976KLFT LFT20190920013511109/20/19 01:35:31  5-MIN KLFT 200735Z AUTO 00000KT 10SM FEW120 23/22 A3000 -20 93 1000 000/00 RMK AO2 T02330222
13976KLFT LFT20190920014010809/20/19 01:40:31  5-MIN KLFT 200740Z AUTO 00000KT 10SM CLR 24/22 A3000 -20 90 1000 000/00 RMK AO2 T02390222
13976KLFT LFT20190920014510809/20/19 01:45:31  5-MIN KLFT 200745Z AUTO 00000KT 10SM CLR 24/22 A3000 -20 90 1000 000/00 RMK AO2 T02390222
13976KLFT LFT20190920015011509/20/19 01:50:31  5-MIN KLFT 200750Z AUTO 00000KT 10SM CLR 24/22 A3000 -20 90 1000 000/00 RMK AO2 SLP158 T02390222
13976KLFT LFT20190920015510809/20/19 01:55:31  5-MIN KLFT 200755Z AUTO 00000KT 10SM CLR 24/22 A3000 -20 90 1000 000/00 RMK AO2 T02390222
13976KLFT LFT20190920020010809/20/19 02:00:31  5-MIN KLFT 200800Z AUTO 00000KT 10SM CLR 24/22 A3000 -20 90 1000 000/00 RMK AO2 T02390222
13976KLFT LFT20190920020510809/20/19 02:05:31  5-MIN KLFT 200805Z AUTO 11003KT 10SM CLR 24/22 A3000 -20 90 1000 110/03 RMK AO2 T02390222
13976KLFT LFT20190920021010809/20/19 02:10:31  5-MIN KLFT 200810Z AUTO 00000KT 10SM CLR 24/22 A3000 -20 90 1000 000/00 RMK AO2 T02390222
13976KLFT LFT20190920021510809/20/19 02:15:31  5-MIN KLFT 200815Z AUTO 00000KT 10SM CLR 24/22 A3000 -20 90 1000 000/00 RMK AO2 T02390222
13976KLFT LFT20190920022010809/20/19 02:20:31  5-MIN KLFT 200820Z AUTO 00000KT 10SM CLR 24/22 A3000 -20 90 1000 000/00 RMK AO2 T02390222
13976KLFT LFT20190920022510809/20/19 02:25:31  5-MIN KLFT 200825Z AUTO 00000KT 10SM CLR 24/22 A3000 -20 90 1000 000/00 RMK AO2 T02390222
13976KLFT LFT20190920023010809/20/19 02:30:31  5-MIN KLFT 200830Z AUTO VRB03KT 10SM CLR 24/23 A3000 -20 93 1000 VRB/03 RMK AO2 T02390228
13976KLFT LFT20190920023510809/20/19 02:35:31  5-MIN KLFT 200835Z AUTO 00000KT 10SM CLR 24/22 A3000 -20 90 1000 000/00 RMK AO2 T02390222
13976KLFT LFT20190920024010809/20/19 02:40:31  5-MIN KLFT 200840Z AUTO 00000KT 10SM CLR 24/22 A2999 -20 90 1000 000/00 RMK AO2 T02390222
13976KLFT LFT20190920024510809/20/19 02:45:31  5-MIN KLFT 200845Z AUTO VRB03KT 10SM CLR 24/22 A2999 -20 90 1000 VRB/03 RMK AO2 T02390222
13976KLFT LFT20190920025012109/20/19 02:50:31  5-MIN KLFT 200850Z AUTO VRB03KT 10SM CLR 24/22 A2999 -20 90 1000 VRB/03 RMK AO2 SLP156 T02390222 58006
13976KLFT LFT20190920025510809/20/19 02:55:31  5-MIN KLFT 200855Z AUTO 12003KT 10SM CLR 24/22 A3000 -20 90 1000 110/03 RMK AO2 T02390222
13976KLFT LFT20190920030010809/20/19 03:00:31  5-MIN KLFT 200900Z AUTO 10003KT 10SM CLR 24/22 A3000 -20 90 1000 100/03 RMK AO2 T02390222
13976KLFT LFT20190920030510809/20/19 03:05:31  5-MIN KLFT 200905Z AUTO 09004KT 10SM CLR 24/22 A3000 -20 90 1000 090/04 RMK AO2 T02390222
13976KLFT LFT20190920031010809/20/19 03:10:31  5-MIN KLFT 200910Z AUTO 09003KT 10SM CLR 24/23 A3000 -20 93 1000 090/03 RMK AO2 T02390228
13976KLFT LFT20190920031510809/20/19 03:15:31  5-MIN KLFT 200915Z AUTO 10004KT 10SM CLR 24/23 A3000 -20 93 1000 090/04 RMK AO2 T02390228
13976KLFT LFT20190920032010809/20/19 03:20:31  5-MIN KLFT 200920Z AUTO 10004KT 10SM CLR 24/23 A3000 -20 93 1000 100/04 RMK AO2 T02390228
13976KLFT LFT20190920032510809/20/19 03:25:31  5-MIN KLFT 200925Z AUTO 10004KT 10SM CLR 24/23 A3000 -20 93 1000 100/04 RMK AO2 T02390228
13976KLFT LFT20190920033010809/20/19 03:30:31  5-MIN KLFT 200930Z AUTO VRB03KT 10SM CLR 24/23 A3000 -20 93 1000 VRB/03 RMK AO2 T02390228
13976KLFT LFT20190920033510809/20/19 03:35:31  5-MIN KLFT 200935Z AUTO 11004KT 10SM CLR 24/23 A3000 -20 93 1000 110/04 RMK AO2 T02390228
13976KLFT LFT20190920034010809/20/19 03:40:31  5-MIN KLFT 200940Z AUTO 11003KT 10SM CLR 24/23 A3000 -20 93 1000 110/03 RMK AO2 T02390228
13976KLFT LFT20190920034510809/20/19 03:45:31  5-MIN KLFT 200945Z AUTO 11003KT 10SM CLR 24/23 A3000 -30 93 1000 110/03 RMK AO2 T02390228
13976KLFT LFT20190920035011509/20/19 03:50:31  5-MIN KLFT 200950Z AUTO 00000KT 10SM CLR 24/23 A3000 -30 93 1000 000/00 RMK AO2 SLP160 T02390228
13976KLFT LFT20190920035510809/20/19 03:55:31  5-MIN KLFT 200955Z AUTO 00000KT 10SM CLR 24/23 A3001 -30 93 1000 000/00 RMK AO2 T02390228
13976KLFT LFT20190920040010309/20/19 04:00:31  5-MIN KLFT 201000Z 00000KT 10SM CLR 24/23 A3001 -30 93 1000 000/00 RMK AO2 T02390228
13976KLFT LFT20190920040510309/20/19 04:05:31  5-MIN KLFT 201005Z 00000KT 10SM CLR 24/23 A3001 -30 93 1000 000/00 RMK AO2 T02390228
13976KLFT LFT20190920041010309/20/19 04:10:31  5-MIN KLFT 201010Z 00000KT 10SM CLR 24/23 A3001 -40 93 1000 000/00 RMK AO2 T02390228
13976KLFT LFT20190920041510309/20/19 04:15:31  5-MIN KLFT 201015Z 00000KT 10SM CLR 24/23 A3001 -40 93 1000 000/00 RMK AO2 T02390228
13976KLFT LFT20190920042010309/20/19 04:20:31  5-MIN KLFT 201020Z 00000KT 10SM CLR 24/23 A3002 -40 93 1000 000/00 RMK AO2 T02390228
13976KLFT LFT20190920042510309/20/19 04:25:31  5-MIN KLFT 201025Z 00000KT 10SM CLR 24/23 A3002 -40 93 1000 000/00 RMK AO2 T02390228
13976KLFT LFT20190920043010309/20/19 04:30:31  5-MIN KLFT 201030Z 10003KT 10SM CLR 24/23 A3002 -40 93 1000 100/03 RMK AO2 T02390228
13976KLFT LFT20190920043510309/20/19 04:35:31  5-MIN KLFT 201035Z 00000KT 10SM CLR 24/23 A3002 -40 93 1000 000/00 RMK AO2 T02390228
13976KLFT LFT20190920044010309/20/19 04:40:31  5-MIN KLFT 201040Z 00000KT 10SM CLR 24/23 A3002 -40 93 1000 000/00 RMK AO2 T02390228
13976KLFT LFT20190920044510309/20/19 04:45:31  5-MIN KLFT 201045Z 00000KT 10SM CLR 24/23 A3002 -40 93 1000 000/00 RMK AO2 T02390228
13976KLFT LFT20190920045011009/20/19 04:50:31  5-MIN KLFT 201050Z VRB03KT 10SM CLR 24/23 A3002 -50 93 1000 VRB/03 RMK AO2 SLP166 T02390228
13976KLFT LFT20190920045510309/20/19 04:55:31  5-MIN KLFT 201055Z 00000KT 10SM CLR 24/23 A3002 -50 93 1000 000/00 RMK AO2 T02390228
13976KLFT LFT20190920050010309/20/19 05:00:31  5-MIN KLFT 201100Z 00000KT 10SM CLR 24/23 A3003 -50 90 1100 000/00 RMK AO2 T02440228
13976KLFT LFT20190920050510309/20/19 05:05:31  5-MIN KLFT 201105Z 00000KT 10SM CLR 24/23 A3003 -50 90 1100 000/00 RMK AO2 T02440228
13976KLFT LFT20190920051010309/20/19 05:10:31  5-MIN KLFT 201110Z 00000KT 10SM CLR 24/23 A3003 -50 90 1100 000/00 RMK AO2 T02440228
13976KLFT LFT20190920051510309/20/19 05:15:31  5-MIN KLFT 201115Z 00000KT 10SM CLR 24/23 A3003 -50 90 1100 000/00 RMK AO2 T02440228
13976KLFT LFT20190920052010309/20/19 05:20:31  5-MIN KLFT 201120Z 11003KT 10SM CLR 24/23 A3003 -50 90 1100 110/03 RMK AO2 T02440228
13976KLFT LFT20190920052510309/20/19 05:25:31  5-MIN KLFT 201125Z 11003KT 10SM CLR 24/23 A3003 -60 93 1100 110/03 RMK AO2 T02440233
13976KLFT LFT20190920053010309/20/19 05:30:31  5-MIN KLFT 201130Z 11003KT 10SM CLR 24/23 A3003 -60 93 1100 110/03 RMK AO2 T02440233
13976KLFT LFT20190920053510309/20/19 05:35:31  5-MIN KLFT 201135Z 00000KT 10SM CLR 24/23 A3004 -60 93 1100 000/00 RMK AO2 T02440233
13976KLFT LFT20190920054010309/20/19 05:40:31  5-MIN KLFT 201140Z 09003KT 10SM CLR 24/23 A3004 -60 93 1100 090/03 RMK AO2 T02440233
13976KLFT LFT20190920054510309/20/19 05:45:31  5-MIN KLFT 201145Z 00000KT 10SM CLR 24/23 A3004 -60 93 1100 000/00 RMK AO2 T02440233
13976KLFT LFT20190920055012809/20/19 05:50:31  5-MIN KLFT 201150Z 09003KT 10SM CLR 24/23 A3004 -60 93 1100 090/03 RMK AO2 SLP171 T02440233 10244 20228 50001
13976KLFT LFT20190920055510309/20/19 05:55:31  5-MIN KLFT 201155Z 00000KT 10SM CLR 24/23 A3004 -60 93 1100 000/00 RMK AO2 T02440233
13976KLFT LFT20190920060011209/20/19 06:00:31  5-MIN KLFT 201200Z VRB03KT 9SM FEW009 SCT020 24/23 A3004 -60 93 1100 VRB/03 RMK AO2 T02440233
13976KLFT LFT20190920060511209/20/19 06:05:31  5-MIN KLFT 201205Z VRB03KT 8SM FEW009 SCT020 24/23 A3004 -60 93 1100 VRB/03 RMK AO2 T02440233
13976KLFT LFT20190920061011209/20/19 06:10:31  5-MIN KLFT 201210Z 11003KT 8SM FEW009 SCT020 24/23 A3004 -60 93 1100 110/03 RMK AO2 T02440233
13976KLFT LFT20190920061511209/20/19 06:15:31  5-MIN KLFT 201215Z VRB04KT 8SM FEW009 SCT020 24/23 A3004 -60 93 1100 VRB/04 RMK AO2 T02440233
13976KLFT LFT20190920062011209/20/19 06:20:31  5-MIN KLFT 201220Z VRB03KT 8SM FEW009 SCT020 24/23 A3004 -60 93 1100 VRB/03 RMK AO2 T02440233
13976KLFT LFT20190920062511209/20/19 06:25:31  5-MIN KLFT 201225Z 11003KT 8SM FEW009 SCT020 24/23 A3004 -60 93 1100 110/03 RMK AO2 T02440233
13976KLFT LFT20190920063012309/20/19 06:30:31  5-MIN KLFT 201230Z 10003KT 9SM FEW009 SCT020 24/23 A3005 -70 93 1000 100/03 RMK AO2 LTG DSNT S T02440233
13976KLFT LFT20190920063512309/20/19 06:35:31  5-MIN KLFT 201235Z 10003KT 9SM FEW009 SCT020 24/23 A3005 -70 93 1000 100/03 RMK AO2 LTG DSNT S T02440233
13976KLFT LFT20190920064012309/20/19 06:40:31  5-MIN KLFT 201240Z VRB03KT 9SM FEW009 SCT020 25/23 A3005 -70 90 1100 VRB/03 RMK AO2 LTG DSNT S T02500233
13976KLFT LFT20190920064512409/20/19 06:45:31  5-MIN KLFT 201245Z 12003KT 10SM FEW009 SCT020 25/23 A3006 -80 90 1100 120/03 RMK AO2 LTG DSNT S T02500233
13976KLFT LFT20190920065012009/20/19 06:50:31  5-MIN KLFT 201250Z 11003KT 10SM FEW009 SCT020 25/23 A3006 -80 90 1100 110/03 RMK AO2 SLP178 T02500233
13976KLFT LFT20190920065510309/20/19 06:55:31  5-MIN KLFT 201255Z 00000KT 10SM CLR 25/23 A3006 -80 90 1100 000/00 RMK AO2 T02500233
13976KLFT LFT20190920070010309/20/19 07:00:31  5-MIN KLFT 201300Z 11003KT 10SM CLR 25/24 A3006 -80 93 1100 110/03 RMK AO2 T02500239
13976KLFT LFT20190920070510309/20/19 07:05:31  5-MIN KLFT 201305Z VRB03KT 10SM CLR 25/24 A3006 -80 93 1100 VRB/03 RMK AO2 T02500239
13976KLFT LFT20190920071010309/20/19 07:10:31  5-MIN KLFT 201310Z 00000KT 10SM CLR 26/24 A3006 -80 90 1200 000/00 RMK AO2 T02560239
13976KLFT LFT20190920071510309/20/19 07:15:31  5-MIN KLFT 201315Z 00000KT 10SM CLR 26/24 A3006 -80 90 1200 000/00 RMK AO2 T02560239
13976KLFT LFT20190920072011309/20/19 07:20:31  5-MIN KLFT 201320Z 11003KT 10SM FEW009 SCT020 26/24 A3007 -80 90 1200 110/03 RMK AO2 T02560239
13976KLFT LFT20190920072511309/20/19 07:25:31  5-MIN KLFT 201325Z 12003KT 10SM FEW009 SCT020 26/24 A3007 -90 90 1200 120/03 RMK AO2 T02560239
13976KLFT LFT20190920073011309/20/19 07:30:31  5-MIN KLFT 201330Z 12004KT 10SM FEW009 SCT020 26/24 A3007 -90 87 1200 120/04 RMK AO2 T02610239
13976KLFT LFT20190920073511309/20/19 07:35:31  5-MIN KLFT 201335Z VRB03KT 10SM FEW009 SCT020 26/24 A3007 -90 87 1200 VRB/03 RMK AO2 T02610239
13976KLFT LFT20190920074011309/20/19 07:40:31  5-MIN KLFT 201340Z 12005KT 10SM FEW009 SCT020 26/24 A3007 -90 87 1200 120/05 RMK AO2 T02610239
13976KLFT LFT20190920074511309/20/19 07:45:31  5-MIN KLFT 201345Z VRB05KT 10SM FEW009 SCT020 27/24 A3007 -90 84 1300 VRB/05 RMK AO2 T02670239
13976KLFT LFT20190920075011009/20/19 07:50:31  5-MIN KLFT 201350Z 12004KT 10SM CLR 27/24 A3007 -90 84 1300 120/04 RMK AO2 SLP182 T02670239
13976KLFT LFT20190920075510309/20/19 07:55:31  5-MIN KLFT 201355Z VRB04KT 10SM CLR 27/24 A3007 -90 84 1300 VRB/04 RMK AO2 T02670239
13976KLFT LFT20190920080010309/20/19 08:00:31  5-MIN KLFT 201400Z VRB03KT 10SM CLR 27/24 A3008 -90 84 1300 VRB/03 RMK AO2 T02670239
13976KLFT LFT20190920080510409/20/19 08:05:31  5-MIN KLFT 201405Z VRB03KT 10SM CLR 27/23 A3008 -100 79 1300 VRB/03 RMK AO2 T02720233
13976KLFT LFT20190920081010409/20/19 08:10:31  5-MIN KLFT 201410Z 12004KT 10SM CLR 27/23 A3008 -100 82 1300 120/04 RMK AO2 T02670233
13976KLFT LFT20190920081510409/20/19 08:15:31  5-MIN KLFT 201415Z VRB03KT 10SM CLR 27/23 A3008 -100 82 1300 VRB/03 RMK AO2 T02670233
13976KLFT LFT20190920082010409/20/19 08:20:31  5-MIN KLFT 201420Z VRB03KT 10SM CLR 27/23 A3008 -100 79 1300 VRB/03 RMK AO2 T02720233
13976KLFT LFT20190920082510409/20/19 08:25:31  5-MIN KLFT 201425Z VRB04KT 10SM CLR 27/23 A3009 -100 79 1300 VRB/04 RMK AO2 T02720233
13976KLFT LFT20190920083010409/20/19 08:30:31  5-MIN KLFT 201430Z VRB05KT 10SM CLR 27/23 A3009 -100 79 1300 VRB/05 RMK AO2 T02720233
13976KLFT LFT20190920083510409/20/19 08:35:31  5-MIN KLFT 201435Z 13004KT 10SM CLR 27/23 A3008 -100 79 1300 130/04 RMK AO2 T02720233
13976KLFT LFT20190920084010409/20/19 08:40:31  5-MIN KLFT 201440Z VRB03KT 10SM CLR 27/23 A3009 -100 79 1300 VRB/03 RMK AO2 T02720233
13976KLFT LFT20190920084510409/20/19 08:45:31  5-MIN KLFT 201445Z VRB04KT 10SM CLR 27/23 A3009 -100 79 1300 VRB/04 RMK AO2 T02720233
13976KLFT LFT20190920085011709/20/19 08:50:31  5-MIN KLFT 201450Z VRB03KT 10SM CLR 28/23 A3009 -100 76 1400 VRB/03 RMK AO2 SLP188 T02780233 53014
13976KLFT LFT20190920085510409/20/19 08:55:31  5-MIN KLFT 201455Z VRB05KT 10SM CLR 28/23 A3009 -110 76 1400 VRB/05 RMK AO2 T02780233
13976KLFT LFT20190920090010409/20/19 09:00:31  5-MIN KLFT 201500Z 13006KT 10SM CLR 27/23 A3009 -110 79 1300 120/06 RMK AO2 T02720233
13976KLFT LFT20190920090510409/20/19 09:05:31  5-MIN KLFT 201505Z VRB04KT 10SM CLR 28/23 A3009 -110 76 1400 VRB/04 RMK AO2 T02780233
13976KLFT LFT20190920091010409/20/19 09:10:31  5-MIN KLFT 201510Z VRB04KT 10SM CLR 28/23 A3009 -110 76 1400 VRB/04 RMK AO2 T02780233
13976KLFT LFT20190920091510409/20/19 09:15:31  5-MIN KLFT 201515Z VRB03KT 10SM CLR 28/23 A3009 -110 76 1400 VRB/03 RMK AO2 T02780233
13976KLFT LFT20190920092009409/20/19 09:20:31  5-MIN KLFT 201520Z 10SM CLR 28/23 A3009 -110 76 1400 M /M RMK AO2 T02780233
13976KLFT LFT20190920092510409/20/19 09:25:31  5-MIN KLFT 201525Z VRB04KT 10SM CLR 28/23 A3009 -110 76 1400 VRB/04 RMK AO2 T02780233
13976KLFT LFT20190920093010409/20/19 09:30:31  5-MIN KLFT 201530Z VRB06KT 10SM CLR 28/23 A3009 -110 74 1400 VRB/06 RMK AO2 T02830233
13976KLFT LFT20190920093510409/20/19 09:35:31  5-MIN KLFT 201535Z VRB04KT 10SM CLR 28/24 A3010 -110 76 1400 VRB/04 RMK AO2 T02830239
13976KLFT LFT20190920094010709/20/19 09:40:31  5-MIN KLFT 201540Z VRB06KT 10SM FEW022 28/24 A3009 -110 76 1400 VRB/06 RMK AO2 T02830239
13976KLFT LFT20190920094510709/20/19 09:45:31  5-MIN KLFT 201545Z VRB06KT 10SM FEW022 28/23 A3010 -110 74 1400 VRB/06 RMK AO2 T02830233
13976KLFT LFT20190920095013009/20/19 09:50:31  5-MIN KLFT 201550Z 13007KT 090V160 10SM FEW022 29/23 A3010 -120 71 1500 130/07 090V160 RMK AO2 SLP192 T02890233
13976KLFT LFT20190920095510709/20/19 09:55:31  5-MIN KLFT 201555Z VRB04KT 10SM FEW022 29/23 A3010 -120 71 1500 VRB/04 RMK AO2 T02890233
13976KLFT LFT20190920100010709/20/19 10:00:31  5-MIN KLFT 201600Z VRB05KT 10SM FEW023 29/23 A3010 -120 71 1500 VRB/05 RMK AO2 T02890233
13976KLFT LFT20190920100510709/20/19 10:05:31  5-MIN KLFT 201605Z VRB03KT 10SM SCT023 29/23 A3010 -120 71 1500 VRB/03 RMK AO2 T02890233
13976KLFT LFT20190920101010709/20/19 10:10:31  5-MIN KLFT 201610Z VRB03KT 10SM FEW023 29/23 A3010 -120 71 1500 VRB/03 RMK AO2 T02890233
13976KLFT LFT20190920101509709/20/19 10:15:31  5-MIN KLFT 201615Z 10SM FEW023 29/23 A3010 -120 71 1500 M /M RMK AO2 T02890233
13976KLFT LFT20190920102010709/20/19 10:20:31  5-MIN KLFT 201620Z VRB05KT 10SM FEW023 29/23 A3010 -120 69 1500 VRB/05 RMK AO2 T02890228
13976KLFT LFT20190920102510709/20/19 10:25:31  5-MIN KLFT 201625Z VRB06KT 10SM FEW023 29/23 A3010 -120 69 1500 VRB/06 RMK AO2 T02890228
13976KLFT LFT20190920103010709/20/19 10:30:31  5-MIN KLFT 201630Z 15006KT 10SM FEW023 29/23 A3010 -120 69 1500 150/06 RMK AO2 T02890228
13976KLFT LFT20190920103510709/20/19 10:35:31  5-MIN KLFT 201635Z 14006KT 10SM FEW027 29/23 A3010 -110 69 1500 140/06 RMK AO2 T02890228
13976KLFT LFT20190920104010409/20/19 10:40:31  5-MIN KLFT 201640Z VRB05KT 10SM CLR 29/23 A3010 -110 67 1600 VRB/05 RMK AO2 T02940228
13976KLFT LFT20190920104510409/20/19 10:45:31  5-MIN KLFT 201645Z 11005KT 10SM CLR 29/23 A3009 -110 67 1600 110/05 RMK AO2 T02940228
13976KLFT LFT20190920105011409/20/19 10:50:31  5-MIN KLFT 201650Z VRB04KT 10SM BKN030 29/23 A3009 -110 67 1600 VRB/04 RMK AO2 SLP189 T02940228
13976KLFT LFT20190920105510709/20/19 10:55:31  5-MIN KLFT 201655Z VRB05KT 10SM FEW026 29/23 A3009 -110 69 1600 VRB/05 RMK AO2 T02940233
13976KLFT LFT20190920110010709/20/19 11:00:31  5-MIN KLFT 201700Z VRB04KT 10SM FEW026 29/23 A3009 -110 67 1600 VRB/04 RMK AO2 T02940228
13976KLFT LFT20190920110512109/20/19 11:05:31  5-MIN KLFT 201705Z VRB05KT 10SM FEW028 FEW034 SCT043 29/23 A3009 -110 69 1600 VRB/05 RMK AO2 T02940233
13976KLFT LFT20190920111011409/20/19 11:10:31  5-MIN KLFT 201710Z 11006KT 10SM FEW028 SCT065 29/23 A3009 -110 67 1600 110/06 RMK AO2 T02940228
13976KLFT LFT20190920111512909/20/19 11:15:31  5-MIN KLFT 201715Z 11003KT 8SM -RA FEW030 SCT070 28/23 A3009 -110 71 1400 110/03 RMK AO2 RAB14 P0000 T02830228
13976KLFT LFT20190920112013609/20/19 11:20:31  5-MIN KLFT 201720Z 11004KT 8SM -RA FEW030 BKN070 BKN085 29/23 A3009 -110 71 1500 110/04 RMK AO2 RAB14 P0000 T02890233
13976KLFT LFT20190920112513709/20/19 11:25:31  5-MIN KLFT 201725Z 11006KT 10SM -RA FEW032 SCT070 BKN100 29/23 A3009 -100 71 1500 110/06 RMK AO2 RAB14 P0000 T02890233
13976KLFT LFT20190920113013709/20/19 11:30:31  5-MIN KLFT 201730Z VRB05KT 10SM -RA FEW046 FEW070 SCT100 29/23 A3009 -100 69 1600 VRB/05 RMK AO2 RAB14 P0000 T02940233
13976KLFT LFT20190920113513709/20/19 11:35:31  5-MIN KLFT 201735Z VRB04KT 10SM -RA FEW070 FEW080 SCT100 30/23 A3008 -100 67 1600 VRB/04 RMK AO2 RAB14 P0000 T03000233
13976KLFT LFT20190920114013709/20/19 11:40:31  5-MIN KLFT 201740Z VRB04KT 10SM -RA FEW070 FEW080 SCT100 30/23 A3008 -100 65 1600 VRB/04 RMK AO2 RAB14 P0000 T03000228
13976KLFT LFT20190920114513009/20/19 11:45:31  5-MIN KLFT 201745Z VRB04KT 10SM -RA FEW080 FEW100 30/23 A3008 -100 65 1600 VRB/04 RMK AO2 RAB14 P0000 T03000228
13976KLFT LFT20190920115017009/20/19 11:50:31  5-MIN KLFT 201750Z 13008KT 090V170 10SM -RA FEW080 31/22 A3008 -100 60 1700 130/08 090V170 RMK AO2 RAB14 SLP184 P0000 60000 T03060222 10306 20244 51017
13976KLFT LFT20190920115510609/20/19 11:55:31  5-MIN KLFT 201755Z 16006KT 10SM BKN027 31/22 A3008 -90 58 1800 160/06 RMK AO2 T03110222
13976KLFT LFT20190920120010609/20/19 12:00:31  5-MIN KLFT 201800Z VRB05KT 10SM BKN027 31/22 A3007 -90 58 1800 VRB/05 RMK AO2 T03110222
13976KLFT LFT20190920120510609/20/19 12:05:31  5-MIN KLFT 201805Z 14008KT 10SM BKN027 31/22 A3007 -90 58 1800 140/08 RMK AO2 T03110222
13976KLFT LFT20190920121010609/20/19 12:10:31  5-MIN KLFT 201810Z 11007KT 10SM BKN027 31/22 A3007 -90 56 1800 110/07 RMK AO2 T03110217
13976KLFT LFT20190920121512209/20/19 12:15:31  5-MIN KLFT 201815Z 12007KT 080V140 10SM BKN027 31/22 A3007 -90 58 1700 120/07 080V140 RMK AO2 T03060217
13976KLFT LFT20190920122010609/20/19 12:20:31  5-MIN KLFT 201820Z VRB04KT 10SM BKN027 31/22 A3007 -90 58 1800 VRB/04 RMK AO2 T03110222
13976KLFT LFT20190920122510609/20/19 12:25:31  5-MIN KLFT 201825Z 12005KT 10SM BKN027 31/22 A3007 -90 58 1700 120/05 RMK AO2 T03060217
13976KLFT LFT20190920123011709/20/19 12:30:31  5-MIN KLFT 201830Z VRB05KT 10SM BKN027 31/21 A3007 -90 56 1700 VRB/05 RMK AO2 LTG DSNT S T03060211
13976KLFT LFT20190920123511709/20/19 12:35:31  5-MIN KLFT 201835Z VRB05KT 10SM BKN027 31/22 A3006 -80 56 1800 VRB/05 RMK AO2 LTG DSNT S T03110217
13976KLFT LFT20190920124011709/20/19 12:40:31  5-MIN KLFT 201840Z VRB05KT 10SM BKN027 30/21 A3006 -80 58 1700 VRB/05 RMK AO2 LTG DSNT S T03000211
13976KLFT LFT20190920124511709/20/19 12:45:31  5-MIN KLFT 201845Z VRB04KT 10SM BKN027 31/21 A3006 -80 56 1700 VRB/04 RMK AO2 LTG DSNT S T03060211
13976KLFT LFT20190920125012409/20/19 12:50:31  5-MIN KLFT 201850Z VRB06KT 10SM BKN027 31/21 A3006 -80 54 1800 VRB/06 RMK AO2 LTG DSNT S SLP179 T03110211
13976KLFT LFT20190920125512209/20/19 12:55:31  5-MIN KLFT 201855Z 11007KT 090V150 10SM FEW045 31/21 A3006 -80 54 1700 110/07 090V150 RMK AO2 T03060206
13976KLFT LFT20190920130010609/20/19 13:00:31  5-MIN KLFT 201900Z VRB04KT 10SM FEW050 31/21 A3006 -80 53 1800 VRB/04 RMK AO2 T03110206
13976KLFT LFT20190920130512209/20/19 13:05:31  5-MIN KLFT 201905Z 10007KT 070V130 10SM FEW045 32/21 A3006 -80 53 1800 100/07 070V130 RMK AO2 T03170211
13976KLFT LFT20190920131012209/20/19 13:10:31  5-MIN KLFT 201910Z 13007KT 100V220 10SM FEW045 31/21 A3006 -80 54 1700 130/07 100V220 RMK AO2 T03060206
13976KLFT LFT20190920131511309/20/19 13:15:31  5-MIN KLFT 201915Z 12007KT 10SM FEW045 SCT085 31/21 A3006 -80 53 1800 120/07 RMK AO2 T03110206
13976KLFT LFT20190920132012409/20/19 13:20:31  5-MIN KLFT 201920Z VRB06KT 10SM FEW046 SCT085 32/21 A3006 -80 51 1800 VRB/06 RMK AO2 LTG DSNT W T03170206
13976KLFT LFT20190920132512409/20/19 13:25:31  5-MIN KLFT 201925Z 12006KT 10SM FEW046 FEW085 32/20 A3006 -80 49 1800 120/06 RMK AO2 LTG DSNT W T03170200
13976KLFT LFT20190920133015209/20/19 13:30:31  5-MIN KLFT 201930Z 14008KT 110V200 10SM VCTS FEW046 FEW085 32/20 A3006 -80 49 1800 140/08 110V200 RMK AO2 LTG DSNT SW AND W T03170200
13976KLFT LFT20190920133512309/20/19 13:35:31  5-MIN KLFT 201935Z VRB06KT 10SM VCTS SCT040 32/19 A3006 -80 47 1800 VRB/06 RMK AO2 LTG DSNT SW T03170194
13976KLFT LFT20190920134012909/20/19 13:40:31  5-MIN KLFT 201940Z 14011G18KT 10SM VCTS SCT040 32/19 A3006 -80 46 1800 140/11G18 RMK AO2 LTG DSNT SW T03170189
13976KLFT LFT20190920134511209/20/19 13:45:31  5-MIN KLFT 201945Z VRB06G18KT 10SM SCT040 32/19 A3006 -80 46 1800 VRB/06G18 RMK AO2 T03170189
13976KLFT LFT20190920135012409/20/19 13:50:31  5-MIN KLFT 201950Z VRB05KT 10SM SCT040 31/22 A3006 -80 56 1800 VRB/05 RMK AO2 LTG DSNT W SLP177 T03110217
13976KLFT LFT20190920135511409/20/19 13:55:31  5-MIN KLFT 201955Z 17006KT 10SM CLR 31/21 A3005 -70 54 1800 170/06 RMK AO2 LTG DSNT W T03110211
13976KLFT LFT20190922192510309/22/19 19:25:31  5-MIN KLFT 230125Z 00000KT 10SM CLR 26/22 A3004 -60 79 1200 000/00 RMK AO2 T02610222
13976KLFT LFT20190922193010309/22/19 19:30:31  5-MIN KLFT 230130Z 00000KT 10SM CLR 26/22 A3005 -70 79 1200 000/00 RMK AO2 T02610222
13976KLFT LFT20190922193510309/22/19 19:35:31  5-MIN KLFT 230135Z 00000KT 10SM CLR 27/22 A3005 -70 76 1300 000/00 RMK AO2 T02670222
13976KLFT LFT20190922194010309/22/19 19:40:31  5-MIN KLFT 230140Z 00000KT 10SM CLR 26/22 A3005 -70 79 1200 000/00 RMK AO2 T02610222
13976KLFT LFT20190922194510309/22/19 19:45:31  5-MIN KLFT 230145Z 00000KT 10SM CLR 26/23 A3005 -70 81 1200 000/00 RMK AO2 T02610228
13976KLFT LFT20190922195011009/22/19 19:50:31  5-MIN KLFT 230150Z 00000KT 10SM CLR 26/23 A3005 -70 81 1200 000/00 RMK AO2 SLP176 T02610228
13976KLFT LFT20190922195510309/22/19 19:55:31  5-MIN KLFT 230155Z 00000KT 10SM CLR 26/23 A3005 -70 84 1200 000/00 RMK AO2 T02560228
13976KLFT LFT20190922200010309/22/19 20:00:31  5-MIN KLFT 230200Z 00000KT 10SM CLR 26/23 A3005 -70 87 1200 000/00 RMK AO2 T02560233
13976KLFT LFT20190922200510309/22/19 20:05:31  5-MIN KLFT 230205Z 00000KT 10SM CLR 26/23 A3006 -80 87 1200 000/00 RMK AO2 T02560233
13976KLFT LFT20190922201010309/22/19 20:10:31  5-MIN KLFT 230210Z 00000KT 10SM CLR 26/23 A3006 -80 87 1200 000/00 RMK AO2 T02560233
13976KLFT LFT20190922201510309/22/19 20:15:31  5-MIN KLFT 230215Z 00000KT 10SM CLR 26/23 A3006 -80 84 1200 000/00 RMK AO2 T02560228
13976KLFT LFT20190922202010309/22/19 20:20:31  5-MIN KLFT 230220Z 00000KT 10SM CLR 26/23 A3006 -80 84 1200 000/00 RMK AO2 T02560228
13976KLFT LFT20190922202510309/22/19 20:25:31  5-MIN KLFT 230225Z 00000KT 10SM CLR 26/23 A3006 -80 87 1200 000/00 RMK AO2 T02560233
13976KLFT LFT20190922203010309/22/19 20:30:31  5-MIN KLFT 230230Z 00000KT 10SM CLR 25/23 A3006 -80 90 1100 000/00 RMK AO2 T02500233
13976KLFT LFT20190922203510309/22/19 20:35:31  5-MIN KLFT 230235Z 00000KT 10SM CLR 25/23 A3006 -80 90 1100 000/00 RMK AO2 T02500233
13976KLFT LFT20190922204010309/22/19 20:40:31  5-MIN KLFT 230240Z 00000KT 10SM CLR 25/23 A3006 -80 87 1100 000/00 RMK AO2 T02500228
13976KLFT LFT20190922204510309/22/19 20:45:31  5-MIN KLFT 230245Z 00000KT 10SM CLR 25/23 A3007 -90 87 1100 000/00 RMK AO2 T02500228
13976KLFT LFT20190922205011609/22/19 20:50:31  5-MIN KLFT 230250Z 00000KT 10SM CLR 24/23 A3007 -90 90 1000 000/00 RMK AO2 SLP182 T02440228 53002
13976KLFT LFT20190922205510309/22/19 20:55:31  5-MIN KLFT 230255Z 00000KT 10SM CLR 24/23 A3007 -90 90 1000 000/00 RMK AO2 T02440228
13976KLFT LFT20190922210010309/22/19 21:00:31  5-MIN KLFT 230300Z 00000KT 10SM CLR 24/23 A3007 -90 90 1000 000/00 RMK AO2 T02440228
13976KLFT LFT20190922210510309/22/19 21:05:31  5-MIN KLFT 230305Z 00000KT 10SM CLR 24/23 A3007 -90 90 1000 000/00 RMK AO2 T02440228
13976KLFT LFT20190922211010809/22/19 21:10:31  5-MIN KLFT 230310Z AUTO 00000KT 10SM CLR 24/23 A3007 -90 90 1000 000/00 RMK AO2 T02440228
13976KLFT LFT20190922211510809/22/19 21:15:31  5-MIN KLFT 230315Z AUTO 00000KT 10SM CLR 25/23 A3008 -90 87 1100 000/00 RMK AO2 T02500228
13976KLFT LFT20190922212010809/22/19 21:20:31  5-MIN KLFT 230320Z AUTO 12003KT 10SM CLR 25/23 A3007 -90 87 1100 120/03 RMK AO2 T02500228
13976KLFT LFT20190922212510809/22/19 21:25:31  5-MIN KLFT 230325Z AUTO 00000KT 10SM CLR 25/23 A3007 -90 87 1100 000/00 RMK AO2 T02500228
13976KLFT LFT20190922213010809/22/19 21:30:31  5-MIN KLFT 230330Z AUTO 00000KT 10SM CLR 25/23 A3007 -90 87 1100 000/00 RMK AO2 T02500228
13976KLFT LFT20190922213510809/22/19 21:35:31  5-MIN KLFT 230335Z AUTO 00000KT 10SM CLR 25/23 A3007 -90 87 1100 000/00 RMK AO2 T02500228
13976KLFT LFT20190922214010809/22/19 21:40:31  5-MIN KLFT 230340Z AUTO 00000KT 10SM CLR 25/23 A3007 -90 87 1100 000/00 RMK AO2 T02500228
13976KLFT LFT20190922214510809/22/19 21:45:31  5-MIN KLFT 230345Z AUTO 00000KT 10SM CLR 25/23 A3007 -90 87 1100 000/00 RMK AO2 T02500228
13976KLFT LFT20190922215011509/22/19 21:50:31  5-MIN KLFT 230350Z AUTO 00000KT 10SM CLR 25/23 A3007 -90 87 1100 000/00 RMK AO2 SLP182 T02500228
13976KLFT LFT20190922215510809/22/19 21:55:31  5-MIN KLFT 230355Z AUTO 11003KT 10SM CLR 25/23 A3007 -90 87 1100 110/03 RMK AO2 T02500228
13976KLFT LFT20190922220010809/22/19 22:00:31  5-MIN KLFT 230400Z AUTO 11003KT 10SM CLR 25/23 A3007 -90 87 1100 110/03 RMK AO2 T02500228
13976KLFT LFT20190922220510809/22/19 22:05:31  5-MIN KLFT 230405Z AUTO 00000KT 10SM CLR 25/23 A3007 -90 87 1100 000/00 RMK AO2 T02500228
13976KLFT LFT20190922221010809/22/19 22:10:31  5-MIN KLFT 230410Z AUTO 00000KT 10SM CLR 25/23 A3007 -90 87 1100 000/00 RMK AO2 T02500228
13976KLFT LFT20190922221510809/22/19 22:15:31  5-MIN KLFT 230415Z AUTO 11003KT 10SM CLR 25/23 A3007 -90 87 1100 110/03 RMK AO2 T02500228
13976KLFT LFT20190922222010809/22/19 22:20:31  5-MIN KLFT 230420Z AUTO 00000KT 10SM CLR 24/23 A3007 -90 90 1000 000/00 RMK AO2 T02440228
13976KLFT LFT20190922222510809/22/19 22:25:31  5-MIN KLFT 230425Z AUTO 00000KT 10SM CLR 24/23 A3007 -90 90 1000 000/00 RMK AO2 T02440228
13976KLFT LFT20190922223010809/22/19 22:30:31  5-MIN KLFT 230430Z AUTO 00000KT 10SM CLR 24/23 A3007 -90 90 1000 000/00 RMK AO2 T02440228
13976KLFT LFT20190922223510809/22/19 22:35:31  5-MIN KLFT 230435Z AUTO 00000KT 10SM CLR 24/23 A3007 -90 90 1000 000/00 RMK AO2 T02440228
13976KLFT LFT20190922224010809/22/19 22:40:31  5-MIN KLFT 230440Z AUTO 00000KT 10SM CLR 24/23 A3007 -90 90 1000 000/00 RMK AO2 T02440228
13976KLFT LFT20190922224510809/22/19 22:45:31  5-MIN KLFT 230445Z AUTO 00000KT 10SM CLR 24/23 A3007 -90 90 1000 000/00 RMK AO2 T02440228
13976KLFT LFT20190922225011509/22/19 22:50:31  5-MIN KLFT 230450Z AUTO 00000KT 10SM CLR 24/23 A3007 -90 90 1000 000/00 RMK AO2 SLP181 T02440228
13976KLFT LFT20190922225510809/22/19 22:55:31  5-MIN KLFT 230455Z AUTO 00000KT 10SM CLR 24/23 A3007 -90 90 1000 000/00 RMK AO2 T02440228
13976KLFT LFT20190922230010809/22/19 23:00:31  5-MIN KLFT 230500Z AUTO 00000KT 10SM CLR 24/23 A3007 -90 90 1000 000/00 RMK AO2 T02440228
13976KLFT LFT20190922230510809/22/19 23:05:31  5-MIN KLFT 230505Z AUTO 00000KT 10SM CLR 24/23 A3006 -80 90 1000 000/00 RMK AO2 T02440228
13976KLFT LFT20190922231010809/22/19 23:10:31  5-MIN KLFT 230510Z AUTO 00000KT 10SM CLR 24/23 A3006 -80 90 1000 000/00 RMK AO2 T02440228
13976KLFT LFT20190922231510809/22/19 23:15:31  5-MIN KLFT 230515Z AUTO 00000KT 10SM CLR 24/23 A3006 -80 90 1000 000/00 RMK AO2 T02440228
13976KLFT LFT20190922232010809/22/19 23:20:31  5-MIN KLFT 230520Z AUTO 00000KT 10SM CLR 24/23 A3007 -80 90 1000 000/00 RMK AO2 T02440228
13976KLFT LFT20190922232510809/22/19 23:25:31  5-MIN KLFT 230525Z AUTO 00000KT 10SM CLR 24/23 A3006 -80 90 1000 000/00 RMK AO2 T02440228
13976KLFT LFT20190922233010809/22/19 23:30:31  5-MIN KLFT 230530Z AUTO 00000KT 10SM CLR 24/23 A3006 -80 90 1000 000/00 RMK AO2 T02440228
13976KLFT LFT20190922233510809/22/19 23:35:31  5-MIN KLFT 230535Z AUTO 00000KT 10SM CLR 24/23 A3006 -80 90 1000 000/00 RMK AO2 T02440228
13976KLFT LFT20190922234010809/22/19 23:40:31  5-MIN KLFT 230540Z AUTO 00000KT 10SM CLR 24/23 A3006 -80 90 1000 000/00 RMK AO2 T02440228
13976KLFT LFT20190922234510809/22/19 23:45:31  5-MIN KLFT 230545Z AUTO 00000KT 10SM CLR 24/22 A3006 -80 90 1000 000/00 RMK AO2 T02390222
13976KLFT LFT20190922235014309/22/19 23:50:31  5-MIN KLFT 230550Z AUTO 00000KT 10SM CLR 24/22 A3006 -80 90 1000 000/00 RMK AO2 SLP178 T02390222 10283 20239 403170222 53013
13976KLFT LFT20190922235510809/22/19 23:55:31  5-MIN KLFT 230555Z AUTO 00000KT 10SM CLR 24/23 A3006 -80 93 1000 000/00 RMK AO2 T02390228
13976KLFT LFT20190923000010809/23/19 00:00:31  5-MIN KLFT 230600Z AUTO 00000KT 10SM CLR 24/23 A3006 -80 93 1000 000/00 RMK AO2 T02390228
13976KLFT LFT20190923000510809/23/19 00:05:31  5-MIN KLFT 230605Z AUTO 00000KT 10SM CLR 24/23 A3006 -80 93 1000 000/00 RMK AO2 T02390228
13976KLFT LFT20190923001010809/23/19 00:10:31  5-MIN KLFT 230610Z AUTO 00000KT 10SM CLR 24/22 A3006 -80 90 1000 000/00 RMK AO2 T02390222
13976KLFT LFT20190923001510809/23/19 00:15:31  5-MIN KLFT 230615Z AUTO 00000KT 10SM CLR 24/22 A3006 -80 90 1000 000/00 RMK AO2 T02390222
13976KLFT LFT20190923002010809/23/19 00:20:31  5-MIN KLFT 230620Z AUTO 00000KT 10SM CLR 24/23 A3006 -80 93 1000 000/00 RMK AO2 T02390228
13976KLFT LFT20190923002510809/23/19 00:25:31  5-MIN KLFT 230625Z AUTO 00000KT 10SM CLR 24/22 A3006 -80 90 1000 000/00 RMK AO2 T02390222
13976KLFT LFT20190923003010809/23/19 00:30:31  5-MIN KLFT 230630Z AUTO 00000KT 10SM CLR 24/22 A3006 -80 90 1000 000/00 RMK AO2 T02390222
13976KLFT LFT20190923003510809/23/19 00:35:31  5-MIN KLFT 230635Z AUTO 00000KT 10SM CLR 24/22 A3006 -80 90 1000 000/00 RMK AO2 T02390222
13976KLFT LFT20190923004010809/23/19 00:40:31  5-MIN KLFT 230640Z AUTO 00000KT 10SM CLR 24/22 A3006 -80 90 1000 000/00 RMK AO2 T02390222
13976KLFT LFT20190923004510809/23/19 00:45:31  5-MIN KLFT 230645Z AUTO 00000KT 10SM CLR 24/22 A3005 -70 90 1000 000/00 RMK AO2 T02390222
13976KLFT LFT20190923005011509/23/19 00:50:31  5-MIN KLFT 230650Z AUTO 00000KT 10SM CLR 24/22 A3006 -80 90 1000 000/00 RMK AO2 SLP177 T02390222
13976KLFT LFT20190923005510809/23/19 00:55:31  5-MIN KLFT 230655Z AUTO 00000KT 10SM CLR 24/22 A3006 -80 90 1000 000/00 RMK AO2 T02390222
13976KLFT LFT20190923010010809/23/19 01:00:31  5-MIN KLFT 230700Z AUTO 13003KT 10SM CLR 24/22 A3006 -80 90 1000 130/03 RMK AO2 T02390222
13976KLFT LFT20190923010510809/23/19 01:05:31  5-MIN KLFT 230705Z AUTO 00000KT 10SM CLR 24/22 A3006 -80 90 1000 000/00 RMK AO2 T02390222
13976KLFT LFT20190923011010809/23/19 01:10:31  5-MIN KLFT 230710Z AUTO 00000KT 10SM CLR 24/22 A3005 -70 90 1000 000/00 RMK AO2 T02390222
13976KLFT LFT20190923011510809/23/19 01:15:31  5-MIN KLFT 230715Z AUTO 00000KT 10SM CLR 24/22 A3005 -70 90 1000 000/00 RMK AO2 T02390222
13976KLFT LFT20190923012010809/23/19 01:20:31  5-MIN KLFT 230720Z AUTO 00000KT 10SM CLR 24/22 A3005 -70 90 1000 000/00 RMK AO2 T02390222
13976KLFT LFT20190923012510809/23/19 01:25:31  5-MIN KLFT 230725Z AUTO 00000KT 10SM CLR 24/22 A3005 -70 90 1000 000/00 RMK AO2 T02390222
13976KLFT LFT20190923013010809/23/19 01:30:31  5-MIN KLFT 230730Z AUTO 00000KT 10SM CLR 24/22 A3005 -70 90 1000 000/00 RMK AO2 T02390222
13976KLFT LFT20190923013510709/23/19 01:35:31  5-MIN KLFT 230735Z AUTO 00000KT 10SM CLR 23/22 A3006 -80 93 900 000/00 RMK AO2 T02330222
13976KLFT LFT20190923014010709/23/19 01:40:31  5-MIN KLFT 230740Z AUTO 00000KT 10SM CLR 23/22 A3005 -70 93 800 000/00 RMK AO2 T02280217
13976KLFT LFT20190923014510709/23/19 01:45:31  5-MIN KLFT 230745Z AUTO 00000KT 10SM CLR 23/22 A3005 -70 93 900 000/00 RMK AO2 T02330222
13976KLFT LFT20190923015011409/23/19 01:50:31  5-MIN KLFT 230750Z AUTO 00000KT 10SM CLR 23/22 A3005 -70 93 900 000/00 RMK AO2 SLP176 T02330222
13976KLFT LFT20190923015510709/23/19 01:55:31  5-MIN KLFT 230755Z AUTO 00000KT 10SM CLR 23/22 A3005 -70 93 900 000/00 RMK AO2 T02330222
13976KLFT LFT20190923020010709/23/19 02:00:31  5-MIN KLFT 230800Z AUTO 00000KT 10SM CLR 23/22 A3005 -70 93 900 000/00 RMK AO2 T02330222
13976KLFT LFT20190923020510709/23/19 02:05:31  5-MIN KLFT 230805Z AUTO 00000KT 10SM CLR 23/22 A3005 -70 93 900 000/00 RMK AO2 T02330222
13976KLFT LFT20190923021010709/23/19 02:10:31  5-MIN KLFT 230810Z AUTO 00000KT 10SM CLR 23/22 A3005 -70 93 900 000/00 RMK AO2 T02330222
13976KLFT LFT20190923021510709/23/19 02:15:31  5-MIN KLFT 230815Z AUTO 00000KT 10SM CLR 23/22 A3005 -70 97 900 000/00 RMK AO2 T02280222
13976KLFT LFT20190923022010709/23/19 02:20:31  5-MIN KLFT 230820Z AUTO 00000KT 10SM CLR 23/22 A3005 -70 93 900 000/00 RMK AO2 T02280217
13976KLFT LFT20190923022510709/23/19 02:25:31  5-MIN KLFT 230825Z AUTO 00000KT 10SM CLR 23/22 A3004 -70 93 900 000/00 RMK AO2 T02280217
13976KLFT LFT20190923023010709/23/19 02:30:31  5-MIN KLFT 230830Z AUTO 00000KT 10SM CLR 23/22 A3004 -60 93 900 000/00 RMK AO2 T02330222
13976KLFT LFT20190923023510709/23/19 02:35:31  5-MIN KLFT 230835Z AUTO 00000KT 10SM CLR 23/22 A3004 -60 93 900 000/00 RMK AO2 T02330222
13976KLFT LFT20190923024010609/23/19 02:40:31  5-MIN KLFT 230840Z AUTO 00000KT 9SM CLR 23/22 A3004 -60 93 900 000/00 RMK AO2 T02330222
13976KLFT LFT20190923024510609/23/19 02:45:31  5-MIN KLFT 230845Z AUTO 00000KT 9SM CLR 23/22 A3004 -60 93 900 000/00 RMK AO2 T02330222
13976KLFT LFT20190923025011909/23/19 02:50:31  5-MIN KLFT 230850Z AUTO 00000KT 9SM CLR 23/22 A3004 -60 93 900 000/00 RMK AO2 SLP170 T02330222 58004
13976KLFT LFT20190923025510609/23/19 02:55:31  5-MIN KLFT 230855Z AUTO 00000KT 9SM CLR 23/22 A3003 -60 93 900 000/00 RMK AO2 T02330222
13976KLFT LFT20190923030010709/23/19 03:00:31  5-MIN KLFT 230900Z AUTO 00000KT 10SM CLR 23/22 A3003 -50 93 900 000/00 RMK AO2 T02330222
13976KLFT LFT20190923030510709/23/19 03:05:31  5-MIN KLFT 230905Z AUTO 00000KT 10SM CLR 23/22 A3003 -50 97 900 000/00 RMK AO2 T02280222
13976KLFT LFT20190923031010709/23/19 03:10:31  5-MIN KLFT 230910Z AUTO 00000KT 10SM CLR 23/22 A3003 -50 97 900 000/00 RMK AO2 T02280222
13976KLFT LFT20190923031510709/23/19 03:15:31  5-MIN KLFT 230915Z AUTO 00000KT 10SM CLR 23/22 A3003 -50 93 900 000/00 RMK AO2 T02330222
13976KLFT LFT20190923032010709/23/19 03:20:31  5-MIN KLFT 230920Z AUTO VRB03KT 10SM CLR 23/22 A3003 -50 93 900 VRB/03 RMK AO2 T02330222
13976KLFT LFT20190923032510709/23/19 03:25:31  5-MIN KLFT 230925Z AUTO 12003KT 10SM CLR 23/22 A3003 -50 93 900 120/03 RMK AO2 T02330222
13976KLFT LFT20190923033010709/23/19 03:30:31  5-MIN KLFT 230930Z AUTO 00000KT 10SM CLR 23/22 A3003 -50 93 900 000/00 RMK AO2 T02330222
13976KLFT LFT20190923033510709/23/19 03:35:31  5-MIN KLFT 230935Z AUTO VRB03KT 10SM CLR 23/22 A3003 -50 93 900 VRB/03 RMK AO2 T02330222
13976KLFT LFT20190923034010709/23/19 03:40:31  5-MIN KLFT 230940Z AUTO 00000KT 10SM CLR 23/22 A3002 -50 90 900 000/00 RMK AO2 T02330217
13976KLFT LFT20190923034510709/23/19 03:45:31  5-MIN KLFT 230945Z AUTO 00000KT 10SM CLR 23/22 A3003 -50 90 900 000/00 RMK AO2 T02330217
13976KLFT LFT20190923035011409/23/19 03:50:31  5-MIN KLFT 230950Z AUTO VRB03KT 10SM CLR 23/22 A3003 -50 90 900 VRB/03 RMK AO2 SLP167 T02330217
13976KLFT LFT20190923035510709/23/19 03:55:31  5-MIN KLFT 230955Z AUTO 00000KT 10SM CLR 23/22 A3003 -50 90 900 000/00 RMK AO2 T02330217
13976KLFT LFT20190923040010709/23/19 04:00:31  5-MIN KLFT 231000Z AUTO 00000KT 10SM CLR 23/22 A3003 -50 90 900 000/00 RMK AO2 T02330217
13976KLFT LFT20190923040510709/23/19 04:05:31  5-MIN KLFT 231005Z AUTO 00000KT 10SM CLR 23/22 A3003 -50 90 900 000/00 RMK AO2 T02330217
13976KLFT LFT20190923041010709/23/19 04:10:31  5-MIN KLFT 231010Z AUTO 00000KT 10SM CLR 23/22 A3003 -50 93 900 000/00 RMK AO2 T02280217
13976KLFT LFT20190923041510709/23/19 04:15:31  5-MIN KLFT 231015Z AUTO 00000KT 10SM CLR 23/22 A3003 -60 93 900 000/00 RMK AO2 T02280217
13976KLFT LFT20190923042010709/23/19 04:20:31  5-MIN KLFT 231020Z AUTO 00000KT 10SM CLR 23/22 A3004 -60 93 900 000/00 RMK AO2 T02280217
13976KLFT LFT20190923042510209/23/19 04:25:31  5-MIN KLFT 231025Z 00000KT 10SM CLR 23/22 A3004 -60 93 900 000/00 RMK AO2 T02280217
13976KLFT LFT20190923043010209/23/19 04:30:31  5-MIN KLFT 231030Z 00000KT 10SM CLR 23/22 A3004 -60 93 900 000/00 RMK AO2 T02280217
13976KLFT LFT20190923043510209/23/19 04:35:31  5-MIN KLFT 231035Z 00000KT 10SM CLR 23/22 A3004 -60 93 900 000/00 RMK AO2 T02280217
13976KLFT LFT20190923044010209/23/19 04:40:31  5-MIN KLFT 231040Z 00000KT 10SM CLR 22/21 A3004 -60 93 800 000/00 RMK AO2 T02220211
13976KLFT LFT20190923044510209/23/19 04:45:31  5-MIN KLFT 231045Z 00000KT 10SM CLR 22/21 A3004 -60 93 800 000/00 RMK AO2 T02220211
13976KLFT LFT20190923045010909/23/19 04:50:31  5-MIN KLFT 231050Z 00000KT 10SM CLR 22/21 A3004 -60 93 800 000/00 RMK AO2 SLP172 T02220211
13976KLFT LFT20190923045510209/23/19 04:55:31  5-MIN KLFT 231055Z 00000KT 10SM CLR 22/21 A3004 -70 93 800 000/00 RMK AO2 T02220211
13976KLFT LFT20190923050010209/23/19 05:00:31  5-MIN KLFT 231100Z 00000KT 10SM CLR 22/21 A3005 -70 93 800 000/00 RMK AO2 T02220211
13976KLFT LFT20190923050510209/23/19 05:05:31  5-MIN KLFT 231105Z 00000KT 10SM CLR 22/21 A3005 -70 93 800 000/00 RMK AO2 T02220211
13976KLFT LFT20190923051010209/23/19 05:10:31  5-MIN KLFT 231110Z 00000KT 10SM CLR 22/21 A3005 -70 97 700 000/00 RMK AO2 T02170211
13976KLFT LFT20190923051510209/23/19 05:15:31  5-MIN KLFT 231115Z 00000KT 10SM CLR 22/21 A3005 -70 93 800 000/00 RMK AO2 T02220211
13976KLFT LFT20190923052010209/23/19 05:20:31  5-MIN KLFT 231120Z 00000KT 10SM CLR 22/21 A3005 -70 93 800 000/00 RMK AO2 T02220211
13976KLFT LFT20190923052510109/23/19 05:25:31  5-MIN KLFT 231125Z 00000KT 9SM CLR 22/21 A3005 -70 93 800 000/00 RMK AO2 T02220211
13976KLFT LFT20190923053010209/23/19 05:30:31  5-MIN KLFT 231130Z 00000KT 10SM CLR 22/21 A3005 -70 93 800 000/00 RMK AO2 T02220211
13976KLFT LFT20190923053510209/23/19 05:35:31  5-MIN KLFT 231135Z 00000KT 10SM CLR 22/21 A3005 -70 93 800 000/00 RMK AO2 T02220211
13976KLFT LFT20190923054010209/23/19 05:40:31  5-MIN KLFT 231140Z 00000KT 10SM CLR 22/21 A3005 -70 93 800 000/00 RMK AO2 T02220211
13976KLFT LFT20190923054510209/23/19 05:45:31  5-MIN KLFT 231145Z 00000KT 10SM CLR 22/21 A3005 -70 93 800 000/00 RMK AO2 T02220211
13976KLFT LFT20190923055012709/23/19 05:50:31  5-MIN KLFT 231150Z 00000KT 10SM CLR 22/21 A3006 -80 93 800 000/00 RMK AO2 SLP177 T02220211 10239 20217 58008
13976KLFT LFT20190923055510209/23/19 05:55:31  5-MIN KLFT 231155Z 00000KT 10SM CLR 22/21 A3006 -80 93 800 000/00 RMK AO2 T02220211
13976KLFT LFT20190923060010209/23/19 06:00:31  5-MIN KLFT 231200Z 00000KT 10SM CLR 22/21 A3006 -80 93 800 000/00 RMK AO2 T02220211
13976KLFT LFT20190923060510209/23/19 06:05:31  5-MIN KLFT 231205Z 00000KT 10SM CLR 22/21 A3006 -80 97 700 000/00 RMK AO2 T02170211
13976KLFT LFT20190923061010209/23/19 06:10:31  5-MIN KLFT 231210Z 00000KT 10SM CLR 22/21 A3006 -80 93 800 000/00 RMK AO2 T02220211
13976KLFT LFT20190923061510209/23/19 06:15:31  5-MIN KLFT 231215Z 00000KT 10SM CLR 22/21 A3006 -80 93 800 000/00 RMK AO2 T02220211
13976KLFT LFT20190923062010209/23/19 06:20:31  5-MIN KLFT 231220Z 00000KT 10SM CLR 22/21 A3006 -80 93 800 000/00 RMK AO2 T02220211
13976KLFT LFT20190923062510209/23/19 06:25:31  5-MIN KLFT 231225Z 00000KT 10SM CLR 22/21 A3006 -80 93 800 000/00 RMK AO2 T02220211
13976KLFT LFT20190923063010209/23/19 06:30:31  5-MIN KLFT 231230Z 00000KT 10SM CLR 22/21 A3007 -90 93 800 000/00 RMK AO2 T02220211
13976KLFT LFT20190923063510209/23/19 06:35:31  5-MIN KLFT 231235Z 00000KT 10SM CLR 23/21 A3007 -90 90 800 000/00 RMK AO2 T02280211
13976KLFT LFT20190923064010209/23/19 06:40:31  5-MIN KLFT 231240Z 04003KT 10SM CLR 23/21 A3007 -90 90 800 030/03 RMK AO2 T02280211
13976KLFT LFT20190923064510209/23/19 06:45:31  5-MIN KLFT 231245Z 00000KT 10SM CLR 23/22 A3007 -90 93 800 000/00 RMK AO2 T02280217
13976KLFT LFT20190923065010909/23/19 06:50:31  5-MIN KLFT 231250Z 00000KT 10SM CLR 23/22 A3007 -90 90 900 000/00 RMK AO2 SLP182 T02330217
13976KLFT LFT20190923065510209/23/19 06:55:31  5-MIN KLFT 231255Z 00000KT 10SM CLR 23/22 A3007 -90 90 900 000/00 RMK AO2 T02330217
13976KLFT LFT20190923070010209/23/19 07:00:31  5-MIN KLFT 231300Z 00000KT 10SM CLR 23/22 A3007 -90 93 900 000/00 RMK AO2 T02330222
13976KLFT LFT20190923070510309/23/19 07:05:31  5-MIN KLFT 231305Z 00000KT 10SM CLR 24/22 A3007 -90 90 1000 000/00 RMK AO2 T02390222
13976KLFT LFT20190923071010309/23/19 07:10:31  5-MIN KLFT 231310Z 00000KT 10SM CLR 24/22 A3007 -90 90 1000 000/00 RMK AO2 T02390222
13976KLFT LFT20190923071510309/23/19 07:15:31  5-MIN KLFT 231315Z 00000KT 10SM CLR 24/22 A3008 -90 87 1000 000/00 RMK AO2 T02440222
13976KLFT LFT20190923072010309/23/19 07:20:31  5-MIN KLFT 231320Z 00000KT 10SM CLR 24/22 A3008 -90 87 1000 000/00 RMK AO2 T02440222
13976KLFT LFT20190927161010209/27/19 16:10:31  5-MIN KLFT 272210Z 17009KT 10SM CLR 31/21 A2988 80 54 1900 170/09 RMK AO2 T03060206
13976KLFT LFT20190927161510209/27/19 16:15:31  5-MIN KLFT 272215Z 17008KT 10SM CLR 31/21 A2988 80 54 1900 170/08 RMK AO2 T03060206
13976KLFT LFT20190927162010209/27/19 16:20:31  5-MIN KLFT 272220Z 18010KT 10SM CLR 31/21 A2988 80 54 1900 180/10 RMK AO2 T03060206
13976KLFT LFT20190927162510809/27/19 16:25:31  5-MIN KLFT 272225Z 16010G14KT 10SM CLR 30/21 A2988 80 56 1900 160/10G14 RMK AO2 T03000206
13976KLFT LFT20190927163010809/27/19 16:30:31  5-MIN KLFT 272230Z 17010G14KT 10SM CLR 30/21 A2988 80 56 1900 160/10G14 RMK AO2 T03000206
13976KLFT LFT20190927163510209/27/19 16:35:31  5-MIN KLFT 272235Z 17008KT 10SM CLR 30/21 A2988 80 56 1900 170/08 RMK AO2 T03000206
13976KLFT LFT20190927164011809/27/19 16:40:31  5-MIN KLFT 272240Z 16007KT 130V190 10SM CLR 30/21 A2988 80 58 1900 160/07 130V190 RMK AO2 T03000211
13976KLFT LFT20190927164511809/27/19 16:45:31  5-MIN KLFT 272245Z 17007KT 130V200 10SM CLR 30/21 A2988 80 58 1900 170/07 130V200 RMK AO2 T03000211
13976KLFT LFT20190927165010909/27/19 16:50:31  5-MIN KLFT 272250Z 17008KT 10SM CLR 30/21 A2988 80 56 1900 170/08 RMK AO2 SLP118 T03000206
13976KLFT LFT20190927165510209/27/19 16:55:31  5-MIN KLFT 272255Z 18008KT 10SM CLR 29/21 A2988 80 60 1800 180/08 RMK AO2 T02940211
13976KLFT LFT20190927170010209/27/19 17:00:31  5-MIN KLFT 272300Z 18010KT 10SM CLR 29/21 A2988 80 60 1800 180/10 RMK AO2 T02940211
13976KLFT LFT20190927170510209/27/19 17:05:31  5-MIN KLFT 272305Z 17009KT 10SM CLR 29/22 A2988 80 64 1800 170/09 RMK AO2 T02940222
13976KLFT LFT20190927171010209/27/19 17:10:31  5-MIN KLFT 272310Z 18008KT 10SM CLR 29/22 A2988 80 64 1800 180/08 RMK AO2 T02940222
13976KLFT LFT20190927171510209/27/19 17:15:31  5-MIN KLFT 272315Z 18009KT 10SM CLR 29/22 A2988 80 64 1800 180/09 RMK AO2 T02940222
13976KLFT LFT20190927172010209/27/19 17:20:31  5-MIN KLFT 272320Z 18010KT 10SM CLR 29/22 A2988 80 67 1700 180/10 RMK AO2 T02890222
13976KLFT LFT20190927172510209/27/19 17:25:31  5-MIN KLFT 272325Z 17007KT 10SM CLR 29/22 A2988 80 67 1700 170/07 RMK AO2 T02890222
13976KLFT LFT20190927173010209/27/19 17:30:31  5-MIN KLFT 272330Z 17009KT 10SM CLR 29/22 A2988 80 67 1700 170/09 RMK AO2 T02890222
13976KLFT LFT20190927173510209/27/19 17:35:31  5-MIN KLFT 272335Z 17007KT 10SM CLR 29/22 A2988 80 67 1700 170/07 RMK AO2 T02890222
13976KLFT LFT20190927174010209/27/19 17:40:31  5-MIN KLFT 272340Z 17006KT 10SM CLR 28/22 A2988 80 69 1700 170/06 RMK AO2 T02830222
13976KLFT LFT20190927174510209/27/19 17:45:31  5-MIN KLFT 272345Z 17008KT 10SM CLR 28/22 A2988 80 69 1700 170/08 RMK AO2 T02830222
13976KLFT LFT20190927175012709/27/19 17:50:31  5-MIN KLFT 272350Z 17005KT 10SM CLR 28/22 A2988 80 69 1700 170/05 RMK AO2 SLP119 T02830222 10317 20283 56018
13976KLFT LFT20190927175510209/27/19 17:55:31  5-MIN KLFT 272355Z 17007KT 10SM CLR 28/22 A2989 80 69 1700 170/07 RMK AO2 T02830222
13976KLFT LFT20190927180010209/27/19 18:00:31  5-MIN KLFT 280000Z 18004KT 10SM CLR 28/22 A2989 70 69 1700 170/04 RMK AO2 T02830222
13976KLFT LFT20190927180510209/27/19 18:05:31  5-MIN KLFT 280005Z 18005KT 10SM CLR 28/22 A2989 80 69 1700 180/05 RMK AO2 T02830222
13976KLFT LFT20190927181010209/27/19 18:10:31  5-MIN KLFT 280010Z 17005KT 10SM CLR 28/22 A2989 70 71 1600 170/05 RMK AO2 T02780222
13976KLFT LFT20190927181510209/27/19 18:15:31  5-MIN KLFT 280015Z 18006KT 10SM CLR 28/22 A2989 70 71 1600 180/06 RMK AO2 T02780222
13976KLFT LFT20190927182010209/27/19 18:20:31  5-MIN KLFT 280020Z 18004KT 10SM CLR 28/22 A2989 70 71 1600 180/04 RMK AO2 T02780222
13976KLFT LFT20190927182510209/27/19 18:25:31  5-MIN KLFT 280025Z 17006KT 10SM CLR 28/22 A2989 70 71 1600 170/06 RMK AO2 T02780222
13976KLFT LFT20190927183010209/27/19 18:30:31  5-MIN KLFT 280030Z 18005KT 10SM CLR 28/22 A2989 70 71 1600 180/05 RMK AO2 T02780222
13976KLFT LFT20190927183510209/27/19 18:35:31  5-MIN KLFT 280035Z 18004KT 10SM CLR 27/22 A2989 70 74 1500 180/04 RMK AO2 T02720222
13976KLFT LFT20190927184010209/27/19 18:40:31  5-MIN KLFT 280040Z 17004KT 10SM CLR 27/22 A2989 70 74 1500 170/04 RMK AO2 T02720222
13976KLFT LFT20190927184510209/27/19 18:45:31  5-MIN KLFT 280045Z 16003KT 10SM CLR 27/23 A2989 70 76 1500 160/03 RMK AO2 T02720228
13976KLFT LFT20190927185010909/27/19 18:50:31  5-MIN KLFT 280050Z 17004KT 10SM CLR 27/23 A2989 70 76 1500 170/04 RMK AO2 SLP122 T02720228
13976KLFT LFT20190927185510209/27/19 18:55:31  5-MIN KLFT 280055Z 17003KT 10SM CLR 27/23 A2990 70 76 1500 170/03 RMK AO2 T02720228
13976KLFT LFT20190927190010209/27/19 19:00:31  5-MIN KLFT 280100Z 00000KT 10SM CLR 27/23 A2990 70 76 1500 000/00 RMK AO2 T02720228
13976KLFT LFT20190927190510209/27/19 19:05:31  5-MIN KLFT 280105Z 00000KT 10SM CLR 27/23 A2990 70 76 1500 000/00 RMK AO2 T02720228
13976KLFT LFT20190927191010209/27/19 19:10:31  5-MIN KLFT 280110Z 16003KT 10SM CLR 27/23 A2990 70 79 1500 160/03 RMK AO2 T02670228
13976KLFT LFT20190927191510209/27/19 19:15:31  5-MIN KLFT 280115Z 00000KT 10SM CLR 27/23 A2990 70 79 1500 000/00 RMK AO2 T02670228
13976KLFT LFT20190927192010209/27/19 19:20:31  5-MIN KLFT 280120Z 00000KT 10SM CLR 27/23 A2990 60 79 1500 000/00 RMK AO2 T02670228
13976KLFT LFT20190927192510209/27/19 19:25:31  5-MIN KLFT 280125Z 16003KT 10SM CLR 27/23 A2990 60 79 1500 160/03 RMK AO2 T02670228
13976KLFT LFT20190927193010209/27/19 19:30:31  5-MIN KLFT 280130Z 16003KT 10SM CLR 27/23 A2990 60 79 1500 160/03 RMK AO2 T02670228
13976KLFT LFT20190927193510209/27/19 19:35:31  5-MIN KLFT 280135Z 16003KT 10SM CLR 27/23 A2990 60 79 1500 160/03 RMK AO2 T02670228
13976KLFT LFT20190927194010209/27/19 19:40:31  5-MIN KLFT 280140Z 16003KT 10SM CLR 26/23 A2990 60 81 1400 150/03 RMK AO2 T02610228
13976KLFT LFT20190927194510209/27/19 19:45:31  5-MIN KLFT 280145Z 00000KT 10SM CLR 26/23 A2990 60 81 1400 000/00 RMK AO2 T02610228
13976KLFT LFT20190927195010909/27/19 19:50:31  5-MIN KLFT 280150Z 00000KT 10SM CLR 26/23 A2991 60 81 1400 000/00 RMK AO2 SLP127 T02610228
13976KLFT LFT20190927195510209/27/19 19:55:31  5-MIN KLFT 280155Z 00000KT 10SM CLR 26/23 A2991 50 81 1400 000/00 RMK AO2 T02610228
13976KLFT LFT20190927200010209/27/19 20:00:31  5-MIN KLFT 280200Z 00000KT 10SM CLR 26/23 A2991 50 81 1400 000/00 RMK AO2 T02610228
13976KLFT LFT20190927200510209/27/19 20:05:31  5-MIN KLFT 280205Z 00000KT 10SM CLR 26/23 A2991 50 81 1400 000/00 RMK AO2 T02610228
13976KLFT LFT20190927201010209/27/19 20:10:31  5-MIN KLFT 280210Z 00000KT 10SM CLR 26/23 A2991 50 84 1400 000/00 RMK AO2 T02610233
13976KLFT LFT20190927201510209/27/19 20:15:31  5-MIN KLFT 280215Z 00000KT 10SM CLR 26/23 A2991 50 84 1300 000/00 RMK AO2 T02560228
13976KLFT LFT20190927202010209/27/19 20:20:31  5-MIN KLFT 280220Z 00000KT 10SM CLR 26/23 A2991 50 84 1300 000/00 RMK AO2 T02560228
13976KLFT LFT20190927202510209/27/19 20:25:31  5-MIN KLFT 280225Z 00000KT 10SM CLR 26/23 A2991 50 84 1300 000/00 RMK AO2 T02560228
13976KLFT LFT20190927203010209/27/19 20:30:31  5-MIN KLFT 280230Z 00000KT 10SM CLR 26/23 A2992 50 84 1300 000/00 RMK AO2 T02560228
13976KLFT LFT20190927203510209/27/19 20:35:31  5-MIN KLFT 280235Z 00000KT 10SM CLR 26/23 A2992 40 84 1300 000/00 RMK AO2 T02560228
13976KLFT LFT20190927204010209/27/19 20:40:31  5-MIN KLFT 280240Z 00000KT 10SM CLR 26/23 A2992 40 84 1300 000/00 RMK AO2 T02560228
13976KLFT LFT20190927204510209/27/19 20:45:31  5-MIN KLFT 280245Z 00000KT 10SM CLR 26/23 A2992 40 81 1400 000/00 RMK AO2 T02610228
13976KLFT LFT20190927205011509/27/19 20:50:31  5-MIN KLFT 280250Z 00000KT 10SM CLR 26/23 A2993 40 84 1300 000/00 RMK AO2 SLP133 T02560228 55000
13976KLFT LFT20190927205510209/27/19 20:55:31  5-MIN KLFT 280255Z 00000KT 10SM CLR 26/23 A2993 40 84 1300 000/00 RMK AO2 T02560228
13976KLFT LFT20190927210010209/27/19 21:00:31  5-MIN KLFT 280300Z 00000KT 10SM CLR 25/23 A2993 40 87 1200 000/00 RMK AO2 T02500228
13976KLFT LFT20190927210510209/27/19 21:05:31  5-MIN KLFT 280305Z 00000KT 10SM CLR 25/23 A2993 40 87 1200 000/00 RMK AO2 T02500228
13976KLFT LFT20190927211010209/27/19 21:10:31  5-MIN KLFT 280310Z 11003KT 10SM CLR 25/23 A2993 40 87 1200 110/03 RMK AO2 T02500228
13976KLFT LFT20190927211510209/27/19 21:15:31  5-MIN KLFT 280315Z 11003KT 10SM CLR 25/23 A2993 40 87 1200 110/03 RMK AO2 T02500228
13976KLFT LFT20190927212010209/27/19 21:20:31  5-MIN KLFT 280320Z 12003KT 10SM CLR 25/23 A2993 40 87 1200 120/03 RMK AO2 T02500228
13976KLFT LFT20190927212510709/27/19 21:25:31  5-MIN KLFT 280325Z AUTO VRB03KT 10SM CLR 25/23 A2993 40 87 1200 VRB/03 RMK AO2 T02500228
13976KLFT LFT20190927213010709/27/19 21:30:31  5-MIN KLFT 280330Z AUTO 00000KT 10SM CLR 25/23 A2993 30 87 1200 000/00 RMK AO2 T02500228
13976KLFT LFT20190927213510709/27/19 21:35:31  5-MIN KLFT 280335Z AUTO VRB03KT 10SM CLR 25/23 A2993 30 87 1200 VRB/03 RMK AO2 T02500228
13976KLFT LFT20190927214010709/27/19 21:40:31  5-MIN KLFT 280340Z AUTO 15003KT 10SM CLR 25/23 A2993 30 87 1200 140/03 RMK AO2 T02500228
13976KLFT LFT20190927214510709/27/19 21:45:31  5-MIN KLFT 280345Z AUTO VRB03KT 10SM CLR 25/22 A2993 30 84 1200 VRB/03 RMK AO2 T02500222
13976KLFT LFT20190927215011409/27/19 21:50:31  5-MIN KLFT 280350Z AUTO 00000KT 10SM CLR 25/22 A2993 30 84 1200 000/00 RMK AO2 SLP136 T02500222
13976KLFT LFT20190927215510709/27/19 21:55:31  5-MIN KLFT 280355Z AUTO 00000KT 10SM CLR 25/22 A2994 30 84 1200 000/00 RMK AO2 T02500222
13976KLFT LFT20190927220010709/27/19 22:00:31  5-MIN KLFT 280400Z AUTO 00000KT 10SM CLR 25/22 A2994 30 84 1200 000/00 RMK AO2 T02500222
13976KLFT LFT20190927220510709/27/19 22:05:31  5-MIN KLFT 280405Z AUTO 12003KT 10SM CLR 24/22 A2994 30 87 1200 120/03 RMK AO2 T02440222
13976KLFT LFT20190927221010709/27/19 22:10:31  5-MIN KLFT 280410Z AUTO 00000KT 10SM CLR 24/22 A2993 30 87 1200 000/00 RMK AO2 T02440222
13976KLFT LFT20190927221510709/27/19 22:15:31  5-MIN KLFT 280415Z AUTO 00000KT 10SM CLR 24/22 A2993 30 87 1200 000/00 RMK AO2 T02440222
13976KLFT LFT20190927222010709/27/19 22:20:31  5-MIN KLFT 280420Z AUTO 00000KT 10SM CLR 24/22 A2993 30 87 1200 000/00 RMK AO2 T02440222
13976KLFT LFT20190927222510709/27/19 22:25:31  5-MIN KLFT 280425Z AUTO 00000KT 10SM CLR 24/22 A2993 30 87 1200 000/00 RMK AO2 T02440222
13976KLFT LFT20190927223011009/27/19 22:30:31  5-MIN KLFT 280430Z AUTO 00000KT 10SM FEW029 24/22 A2993 30 87 1200 000/00 RMK AO2 T02440222
13976KLFT LFT20190927223511009/27/19 22:35:31  5-MIN KLFT 280435Z AUTO VRB03KT 10SM FEW027 24/22 A2993 40 87 1200 VRB/03 RMK AO2 T02440222
13976KLFT LFT20190927224011709/27/19 22:40:31  5-MIN KLFT 280440Z AUTO 00000KT 10SM SCT027 SCT034 24/22 A2993 40 87 1200 000/00 RMK AO2 T02440222
13976KLFT LFT20190927224511709/27/19 22:45:31  5-MIN KLFT 280445Z AUTO VRB03KT 10SM SCT027 SCT034 24/22 A2993 40 87 1200 VRB/03 RMK AO2 T02440222
13976KLFT LFT20190927225012409/27/19 22:50:31  5-MIN KLFT 280450Z AUTO 00000KT 10SM SCT027 SCT034 24/22 A2993 40 87 1200 000/00 RMK AO2 SLP134 T02440222
13976KLFT LFT20190927225511709/27/19 22:55:31  5-MIN KLFT 280455Z AUTO 00000KT 10SM FEW027 SCT034 24/22 A2993 40 87 1200 000/00 RMK AO2 T02440222
13976KLFT LFT20190927230011709/27/19 23:00:31  5-MIN KLFT 280500Z AUTO 00000KT 10SM FEW027 FEW034 24/22 A2993 40 87 1200 000/00 RMK AO2 T02440222
13976KLFT LFT20190927230511709/27/19 23:05:31  5-MIN KLFT 280505Z AUTO 00000KT 10SM FEW027 FEW034 24/22 A2993 40 87 1200 000/00 RMK AO2 T02440222
13976KLFT LFT20190927231011009/27/19 23:10:31  5-MIN KLFT 280510Z AUTO 00000KT 10SM FEW027 24/22 A2993 40 87 1200 000/00 RMK AO2 T02440222
13976KLFT LFT20190927231511009/27/19 23:15:31  5-MIN KLFT 280515Z AUTO VRB03KT 10SM SCT029 24/22 A2993 40 87 1200 VRB/03 RMK AO2 T02440222
13976KLFT LFT20190927232011009/27/19 23:20:31  5-MIN KLFT 280520Z AUTO 00000KT 10SM FEW029 24/22 A2992 40 87 1200 000/00 RMK AO2 T02440222
13976KLFT LFT20190927232511009/27/19 23:25:31  5-MIN KLFT 280525Z AUTO 00000KT 10SM FEW029 24/22 A2992 40 87 1200 000/00 RMK AO2 T02440222
13976KLFT LFT20190927233011009/27/19 23:30:31  5-MIN KLFT 280530Z AUTO 00000KT 10SM FEW029 24/22 A2992 40 87 1200 000/00 RMK AO2 T02440222
13976KLFT LFT20190927233511009/27/19 23:35:31  5-MIN KLFT 280535Z AUTO 00000KT 10SM FEW029 24/22 A2992 40 87 1200 000/00 RMK AO2 T02440222
13976KLFT LFT20190927234011009/27/19 23:40:31  5-MIN KLFT 280540Z AUTO VRB03KT 10SM FEW029 24/23 A2992 40 90 1200 VRB/03 RMK AO2 T02440228
13976KLFT LFT20190927234510709/27/19 23:45:31  5-MIN KLFT 280545Z AUTO 12003KT 10SM CLR 24/23 A2992 50 90 1200 120/03 RMK AO2 T02440228
13976KLFT LFT20190927235014209/27/19 23:50:31  5-MIN KLFT 280550Z AUTO VRB03KT 10SM CLR 24/23 A2992 40 90 1200 VRB/03 RMK AO2 SLP131 T02440228 10283 20244 403170211 53014
13976KLFT LFT20190927235510709/27/19 23:55:31  5-MIN KLFT 280555Z AUTO VRB03KT 10SM CLR 24/23 A2992 40 90 1200 VRB/03 RMK AO2 T02440228
13976KLFT LFT20190928000010709/28/19 00:00:31  5-MIN KLFT 280600Z AUTO VRB03KT 10SM CLR 24/23 A2992 40 90 1200 VRB/03 RMK AO2 T02440228
13976KLFT LFT20190928000510709/28/19 00:05:31  5-MIN KLFT 280605Z AUTO 00000KT 10SM CLR 24/23 A2992 40 90 1200 000/00 RMK AO2 T02440228
13976KLFT LFT20190928001010709/28/19 00:10:31  5-MIN KLFT 280610Z AUTO 00000KT 10SM CLR 24/23 A2992 40 90 1200 000/00 RMK AO2 T02440228
13976KLFT LFT20190928001510709/28/19 00:15:31  5-MIN KLFT 280615Z AUTO 00000KT 10SM CLR 24/23 A2992 40 90 1200 000/00 RMK AO2 T02440228
13976KLFT LFT20190928002011009/28/19 00:20:31  5-MIN KLFT 280620Z AUTO 00000KT 10SM FEW029 24/23 A2992 40 90 1200 000/00 RMK AO2 T02440228
13976KLFT LFT20190928002511709/28/19 00:25:31  5-MIN KLFT 280625Z AUTO 00000KT 10SM FEW023 SCT029 24/23 A2992 40 93 1100 000/00 RMK AO2 T02390228
13976KLFT LFT20190928003011709/28/19 00:30:31  5-MIN KLFT 280630Z AUTO 00000KT 10SM SCT023 SCT031 24/23 A2992 40 90 1200 000/00 RMK AO2 T02440228
13976KLFT LFT20190928003511709/28/19 00:35:31  5-MIN KLFT 280635Z AUTO 00000KT 10SM SCT023 BKN029 24/23 A2992 40 90 1200 000/00 RMK AO2 T02440228
13976KLFT LFT20190928004011709/28/19 00:40:31  5-MIN KLFT 280640Z AUTO 10003KT 10SM SCT023 BKN029 24/23 A2992 40 90 1200 100/03 RMK AO2 T02440228
13976KLFT LFT20190928004512409/28/19 00:45:31  5-MIN KLFT 280645Z AUTO 11003KT 10SM FEW023 SCT029 BKN036 24/23 A2992 40 93 1100 110/03 RMK AO2 T02390228
13976KLFT LFT20190928005013109/28/19 00:50:31  5-MIN KLFT 280650Z AUTO 00000KT 10SM SCT023 BKN036 BKN050 24/23 A2992 40 93 1100 000/00 RMK AO2 SLP132 T02390228
13976KLFT LFT20190928005512409/28/19 00:55:31  5-MIN KLFT 280655Z AUTO 00000KT 10SM FEW025 SCT031 BKN040 24/23 A2992 40 90 1200 000/00 RMK AO2 T02440228
13976KLFT LFT20190928010012409/28/19 01:00:31  5-MIN KLFT 280700Z AUTO 00000KT 10SM FEW025 BKN041 BKN050 24/23 A2992 40 90 1200 000/00 RMK AO2 T02440228
13976KLFT LFT20190928010512409/28/19 01:05:31  5-MIN KLFT 280705Z AUTO 00000KT 10SM FEW031 SCT042 BKN050 24/23 A2992 40 90 1200 000/00 RMK AO2 T02440228
13976KLFT LFT20190928011011709/28/19 01:10:31  5-MIN KLFT 280710Z AUTO 00000KT 10SM FEW042 SCT050 24/23 A2992 40 90 1200 000/00 RMK AO2 T02440228
13976KLFT LFT20190928011512409/28/19 01:15:31  5-MIN KLFT 280715Z AUTO 00000KT 10SM FEW033 SCT044 SCT050 24/23 A2992 40 90 1200 000/00 RMK AO2 T02440228
13976KLFT LFT20190928012011709/28/19 01:20:31  5-MIN KLFT 280720Z AUTO 00000KT 10SM SCT030 BKN047 24/23 A2992 40 90 1200 000/00 RMK AO2 T02440228
13976KLFT LFT20190928012511709/28/19 01:25:31  5-MIN KLFT 280725Z AUTO 00000KT 10SM SCT030 BKN047 24/23 A2992 40 90 1200 000/00 RMK AO2 T02440228
13976KLFT LFT20190928013012409/28/19 01:30:31  5-MIN KLFT 280730Z AUTO 00000KT 10SM SCT030 BKN035 BKN047 24/23 A2992 40 90 1200 000/00 RMK AO2 T02440228
13976KLFT LFT20190928013512409/28/19 01:35:31  5-MIN KLFT 280735Z AUTO VRB03KT 10SM SCT028 BKN034 BKN041 24/23 A2992 40 90 1200 VRB/03 RMK AO2 T02440228
13976KLFT LFT20190928014012409/28/19 01:40:31  5-MIN KLFT 280740Z AUTO 00000KT 10SM BKN031 BKN043 BKN050 24/23 A2992 40 90 1200 000/00 RMK AO2 T02440228
13976KLFT LFT20190928014512409/28/19 01:45:31  5-MIN KLFT 280745Z AUTO 00000KT 10SM FEW029 SCT034 SCT045 24/23 A2992 40 93 1100 000/00 RMK AO2 T02390228
13976KLFT LFT20190928015012309/28/19 01:50:31  5-MIN KLFT 280750Z AUTO 00000KT 9SM FEW029 FEW034 24/23 A2992 40 93 1100 000/00 RMK AO2 SLP132 T02390228
13976KLFT LFT20190928015511609/28/19 01:55:31  5-MIN KLFT 280755Z AUTO 00000KT 9SM FEW029 FEW034 24/23 A2992 40 93 1100 000/00 RMK AO2 T02390228
13976KLFT LFT20190928020010609/28/19 02:00:31  5-MIN KLFT 280800Z AUTO 00000KT 9SM CLR 24/23 A2992 40 93 1100 000/00 RMK AO2 T02390228
13976KLFT LFT20190928020510609/28/19 02:05:31  5-MIN KLFT 280805Z AUTO 00000KT 8SM CLR 24/23 A2992 40 93 1100 000/00 RMK AO2 T02390228
13976KLFT LFT20190928021010609/28/19 02:10:31  5-MIN KLFT 280810Z AUTO 00000KT 8SM CLR 24/23 A2992 40 93 1100 000/00 RMK AO2 T02390228
13976KLFT LFT20190928021510609/28/19 02:15:31  5-MIN KLFT 280815Z AUTO 00000KT 8SM CLR 24/23 A2992 40 93 1100 000/00 RMK AO2 T02390228
13976KLFT LFT20190928022010609/28/19 02:20:31  5-MIN KLFT 280820Z AUTO 00000KT 8SM CLR 24/22 A2992 40 90 1100 000/00 RMK AO2 T02390222
13976KLFT LFT20190928022510609/28/19 02:25:31  5-MIN KLFT 280825Z AUTO 00000KT 8SM CLR 24/22 A2992 40 90 1100 000/00 RMK AO2 T02390222
13976KLFT LFT20190928023010609/28/19 02:30:31  5-MIN KLFT 280830Z AUTO 00000KT 8SM CLR 24/22 A2992 40 90 1100 000/00 RMK AO2 T02390222
13976KLFT LFT20190928023510609/28/19 02:35:31  5-MIN KLFT 280835Z AUTO 00000KT 7SM CLR 24/22 A2992 40 90 1100 000/00 RMK AO2 T02390222
13976KLFT LFT20190928024010909/28/19 02:40:31  5-MIN KLFT 280840Z AUTO 00000KT 7SM FEW043 24/22 A2992 40 90 1100 000/00 RMK AO2 T02390222
13976KLFT LFT20190928024510909/28/19 02:45:31  5-MIN KLFT 280845Z AUTO 00000KT 7SM FEW043 24/23 A2992 40 93 1100 000/00 RMK AO2 T02390228
13976KLFT LFT20190928025012209/28/19 02:50:31  5-MIN KLFT 280850Z AUTO 00000KT 7SM FEW043 24/23 A2992 40 93 1100 000/00 RMK AO2 SLP132 T02390228 58002
13976KLFT LFT20190928025510909/28/19 02:55:31  5-MIN KLFT 280855Z AUTO 00000KT 7SM FEW044 23/22 A2992 40 93 1100 000/00 RMK AO2 T02330222
13976KLFT LFT20190928030010909/28/19 03:00:31  5-MIN KLFT 280900Z AUTO 00000KT 7SM FEW044 23/22 A2992 40 93 1100 000/00 RMK AO2 T02330222
13976KLFT LFT20190928030510909/28/19 03:05:31  5-MIN KLFT 280905Z AUTO 00000KT 7SM FEW044 23/22 A2992 40 93 1100 000/00 RMK AO2 T02330222
13976KLFT LFT20190928031010609/28/19 03:10:31  5-MIN KLFT 280910Z AUTO 10003KT 7SM CLR 23/22 A2992 40 93 1100 100/03 RMK AO2 T02330222
13976KLFT LFT20190928031510609/28/19 03:15:31  5-MIN KLFT 280915Z AUTO VRB03KT 7SM CLR 23/22 A2992 40 93 1100 VRB/03 RMK AO2 T02330222
13976KLFT LFT20190928032010609/28/19 03:20:31  5-MIN KLFT 280920Z AUTO 00000KT 7SM CLR 23/22 A2993 40 93 1100 000/00 RMK AO2 T02330222
13976KLFT LFT20190928032510609/28/19 03:25:31  5-MIN KLFT 280925Z AUTO 00000KT 7SM CLR 23/22 A2993 40 93 1100 000/00 RMK AO2 T02330222
13976KLFT LFT20190928033010609/28/19 03:30:31  5-MIN KLFT 280930Z AUTO VRB03KT 7SM CLR 23/22 A2993 40 93 1100 VRB/03 RMK AO2 T02330222
13976KLFT LFT20190928033510609/28/19 03:35:31  5-MIN KLFT 280935Z AUTO 00000KT 7SM CLR 23/22 A2993 40 93 1100 000/00 RMK AO2 T02330222
13976KLFT LFT20190928034010609/28/19 03:40:31  5-MIN KLFT 280940Z AUTO 00000KT 7SM CLR 23/22 A2993 40 93 1100 000/00 RMK AO2 T02330222
13976KLFT LFT20190928034510609/28/19 03:45:31  5-MIN KLFT 280945Z AUTO 00000KT 7SM CLR 23/22 A2993 30 93 1100 000/00 RMK AO2 T02330222
13976KLFT LFT20190928035011309/28/19 03:50:31  5-MIN KLFT 280950Z AUTO 00000KT 7SM CLR 23/22 A2993 30 93 1100 000/00 RMK AO2 SLP135 T02330222
13976KLFT LFT20190928035510609/28/19 03:55:31  5-MIN KLFT 280955Z AUTO 00000KT 7SM CLR 23/22 A2993 30 93 1000 000/00 RMK AO2 T02330222
13976KLFT LFT20190928040010609/28/19 04:00:31  5-MIN KLFT 281000Z AUTO 00000KT 7SM CLR 23/22 A2994 30 93 1000 000/00 RMK AO2 T02330222
13976KLFT LFT20190928040510109/28/19 04:05:31  5-MIN KLFT 281005Z 00000KT 7SM CLR 23/22 A2994 30 93 1000 000/00 RMK AO2 T02330222
13976KLFT LFT20190928214010809/28/19 21:40:31  5-MIN KLFT 290340Z AUTO VRB04KT 10SM CLR 26/23 A3003 -60 84 1200 VRB/04 RMK AO2 T02560228
13976KLFT LFT20190928214510809/28/19 21:45:31  5-MIN KLFT 290345Z AUTO 12004KT 10SM CLR 26/23 A3003 -60 81 1300 120/04 RMK AO2 T02610228
13976KLFT LFT20190928215011509/28/19 21:50:31  5-MIN KLFT 290350Z AUTO VRB03KT 10SM CLR 26/23 A3004 -60 84 1200 VRB/03 RMK AO2 SLP171 T02560228
13976KLFT LFT20190928215510809/28/19 21:55:31  5-MIN KLFT 290355Z AUTO VRB03KT 10SM CLR 26/23 A3004 -60 84 1200 VRB/03 RMK AO2 T02560228
13976KLFT LFT20190928220010809/28/19 22:00:31  5-MIN KLFT 290400Z AUTO 13003KT 10SM CLR 26/23 A3004 -60 84 1200 130/03 RMK AO2 T02560228
13976KLFT LFT20190928220510809/28/19 22:05:31  5-MIN KLFT 290405Z AUTO 13003KT 10SM CLR 26/23 A3004 -60 84 1200 130/03 RMK AO2 T02560228
13976KLFT LFT20190928221010809/28/19 22:10:31  5-MIN KLFT 290410Z AUTO VRB03KT 10SM CLR 26/23 A3004 -60 84 1200 VRB/03 RMK AO2 T02560228
13976KLFT LFT20190928221510809/28/19 22:15:31  5-MIN KLFT 290415Z AUTO 12003KT 10SM CLR 26/23 A3004 -60 84 1200 120/03 RMK AO2 T02560228
13976KLFT LFT20190928222010809/28/19 22:20:31  5-MIN KLFT 290420Z AUTO VRB03KT 10SM CLR 26/23 A3004 -60 84 1200 VRB/03 RMK AO2 T02560228
13976KLFT LFT20190928222510809/28/19 22:25:31  5-MIN KLFT 290425Z AUTO 00000KT 10SM CLR 26/23 A3004 -60 84 1200 000/00 RMK AO2 T02560228
13976KLFT LFT20190928223010809/28/19 22:30:31  5-MIN KLFT 290430Z AUTO 00000KT 10SM CLR 26/23 A3004 -60 84 1200 000/00 RMK AO2 T02560228
13976KLFT LFT20190928223510809/28/19 22:35:31  5-MIN KLFT 290435Z AUTO 00000KT 10SM CLR 26/23 A3004 -60 84 1200 000/00 RMK AO2 T02560228
13976KLFT LFT20190928224010809/28/19 22:40:31  5-MIN KLFT 290440Z AUTO 00000KT 10SM CLR 25/23 A3004 -60 87 1100 000/00 RMK AO2 T02500228
13976KLFT LFT20190928224510809/28/19 22:45:31  5-MIN KLFT 290445Z AUTO 00000KT 10SM CLR 25/23 A3004 -60 87 1100 000/00 RMK AO2 T02500228
13976KLFT LFT20190928225011509/28/19 22:50:31  5-MIN KLFT 290450Z AUTO 12003KT 10SM CLR 25/23 A3004 -60 87 1100 120/03 RMK AO2 SLP172 T02500228
13976KLFT LFT20190928225510809/28/19 22:55:31  5-MIN KLFT 290455Z AUTO 00000KT 10SM CLR 25/23 A3004 -60 87 1100 000/00 RMK AO2 T02500228
13976KLFT LFT20190928230010809/28/19 23:00:31  5-MIN KLFT 290500Z AUTO 12003KT 10SM CLR 25/23 A3004 -60 87 1100 120/03 RMK AO2 T02500228
13976KLFT LFT20190928230510809/28/19 23:05:31  5-MIN KLFT 290505Z AUTO 00000KT 10SM CLR 25/23 A3004 -60 87 1100 000/00 RMK AO2 T02500228
13976KLFT LFT20190928231010809/28/19 23:10:31  5-MIN KLFT 290510Z AUTO 00000KT 10SM CLR 25/23 A3004 -60 87 1100 000/00 RMK AO2 T02500228
13976KLFT LFT20190928231510809/28/19 23:15:31  5-MIN KLFT 290515Z AUTO 00000KT 10SM CLR 25/23 A3004 -60 87 1100 000/00 RMK AO2 T02500228
13976KLFT LFT20190928232010809/28/19 23:20:31  5-MIN KLFT 290520Z AUTO 00000KT 10SM CLR 25/23 A3004 -60 87 1100 000/00 RMK AO2 T02500228
13976KLFT LFT20190928232510809/28/19 23:25:31  5-MIN KLFT 290525Z AUTO 00000KT 10SM CLR 25/23 A3004 -60 87 1100 000/00 RMK AO2 T02500228
13976KLFT LFT20190928233010809/28/19 23:30:31  5-MIN KLFT 290530Z AUTO 00000KT 10SM CLR 24/23 A3004 -60 90 1100 000/00 RMK AO2 T02440228
13976KLFT LFT20190928233510809/28/19 23:35:31  5-MIN KLFT 290535Z AUTO 00000KT 10SM CLR 24/23 A3004 -60 90 1100 000/00 RMK AO2 T02440228
13976KLFT LFT20190928234010809/28/19 23:40:31  5-MIN KLFT 290540Z AUTO 00000KT 10SM CLR 24/23 A3004 -60 90 1100 000/00 RMK AO2 T02440228
13976KLFT LFT20190928234510809/28/19 23:45:31  5-MIN KLFT 290545Z AUTO 00000KT 10SM CLR 24/23 A3004 -60 90 1100 000/00 RMK AO2 T02440228
13976KLFT LFT20190928235014309/28/19 23:50:31  5-MIN KLFT 290550Z AUTO 00000KT 10SM CLR 24/22 A3004 -60 90 1000 000/00 RMK AO2 SLP172 T02390222 10289 20239 403330233 53014
13976KLFT LFT20190928235510809/28/19 23:55:31  5-MIN KLFT 290555Z AUTO 00000KT 10SM CLR 24/23 A3004 -60 90 1100 000/00 RMK AO2 T02440228
13976KLFT LFT20190929000010809/29/19 00:00:31  5-MIN KLFT 290600Z AUTO 00000KT 10SM CLR 24/23 A3004 -60 90 1100 000/00 RMK AO2 T02440228
13976KLFT LFT20190929000510709/29/19 00:05:31  5-MIN KLFT 290605Z AUTO 00000KT 9SM CLR 24/23 A3004 -60 90 1100 000/00 RMK AO2 T02440228
13976KLFT LFT20190929001010709/29/19 00:10:31  5-MIN KLFT 290610Z AUTO 00000KT 9SM CLR 24/23 A3004 -60 93 1000 000/00 RMK AO2 T02390228
13976KLFT LFT20190929001510709/29/19 00:15:31  5-MIN KLFT 290615Z AUTO 00000KT 8SM CLR 24/23 A3003 -60 90 1100 000/00 RMK AO2 T02440228
13976KLFT LFT20190929002010709/29/19 00:20:31  5-MIN KLFT 290620Z AUTO 00000KT 8SM CLR 24/23 A3003 -60 93 1000 000/00 RMK AO2 T02390228
13976KLFT LFT20190929002510709/29/19 00:25:31  5-MIN KLFT 290625Z AUTO 00000KT 8SM CLR 24/23 A3004 -60 93 1000 000/00 RMK AO2 T02390228
13976KLFT LFT20190929003010709/29/19 00:30:31  5-MIN KLFT 290630Z AUTO 00000KT 8SM CLR 24/23 A3004 -60 93 1000 000/00 RMK AO2 T02390228
13976KLFT LFT20190929003510709/29/19 00:35:31  5-MIN KLFT 290635Z AUTO 00000KT 8SM CLR 24/23 A3004 -60 93 1000 000/00 RMK AO2 T02390228
13976KLFT LFT20190929004010709/29/19 00:40:31  5-MIN KLFT 290640Z AUTO 00000KT 8SM CLR 24/23 A3004 -60 93 1000 000/00 RMK AO2 T02390228
13976KLFT LFT20190929004510709/29/19 00:45:31  5-MIN KLFT 290645Z AUTO 00000KT 8SM CLR 24/23 A3004 -60 93 1000 000/00 RMK AO2 T02390228
13976KLFT LFT20190929005011409/29/19 00:50:31  5-MIN KLFT 290650Z AUTO 00000KT 8SM CLR 24/23 A3004 -60 93 1000 000/00 RMK AO2 SLP173 T02390228
13976KLFT LFT20190929005510609/29/19 00:55:31  5-MIN KLFT 290655Z AUTO 00000KT 8SM CLR 23/22 A3004 -60 93 900 000/00 RMK AO2 T02330222
13976KLFT LFT20190929010010609/29/19 01:00:31  5-MIN KLFT 290700Z AUTO 00000KT 7SM CLR 23/22 A3004 -70 93 900 000/00 RMK AO2 T02330222
13976KLFT LFT20190929010510609/29/19 01:05:31  5-MIN KLFT 290705Z AUTO 00000KT 7SM CLR 23/22 A3004 -60 93 900 000/00 RMK AO2 T02330222
13976KLFT LFT20190929011010609/29/19 01:10:31  5-MIN KLFT 290710Z AUTO 00000KT 7SM CLR 23/22 A3004 -60 93 900 000/00 RMK AO2 T02330222
13976KLFT LFT20190929011510609/29/19 01:15:31  5-MIN KLFT 290715Z AUTO 00000KT 7SM CLR 23/22 A3004 -60 93 900 000/00 RMK AO2 T02330222
13976KLFT LFT20190929012010609/29/19 01:20:31  5-MIN KLFT 290720Z AUTO 00000KT 7SM CLR 23/22 A3004 -60 93 900 000/00 RMK AO2 T02330222
13976KLFT LFT20190929012510609/29/19 01:25:31  5-MIN KLFT 290725Z AUTO 00000KT 8SM CLR 23/22 A3004 -60 93 900 000/00 RMK AO2 T02330222
13976KLFT LFT20190929013010609/29/19 01:30:31  5-MIN KLFT 290730Z AUTO 00000KT 8SM CLR 23/22 A3004 -60 97 900 000/00 RMK AO2 T02280222
13976KLFT LFT20190929013510609/29/19 01:35:31  5-MIN KLFT 290735Z AUTO 00000KT 8SM CLR 23/22 A3004 -60 97 900 000/00 RMK AO2 T02280222
13976KLFT LFT20190929014010909/29/19 01:40:31  5-MIN KLFT 290740Z AUTO 00000KT 8SM FEW030 23/22 A3004 -60 93 900 000/00 RMK AO2 T02330222
13976KLFT LFT20190929014510909/29/19 01:45:31  5-MIN KLFT 290745Z AUTO 00000KT 9SM FEW030 23/22 A3004 -60 93 900 000/00 RMK AO2 T02330222
13976KLFT LFT20190929015011609/29/19 01:50:31  5-MIN KLFT 290750Z AUTO 00000KT 9SM FEW028 23/22 A3004 -60 93 900 000/00 RMK AO2 SLP172 T02330222
13976KLFT LFT20190929015510909/29/19 01:55:31  5-MIN KLFT 290755Z AUTO 00000KT 9SM FEW028 23/22 A3004 -60 93 900 000/00 RMK AO2 T02330222
13976KLFT LFT20190929020010909/29/19 02:00:31  5-MIN KLFT 290800Z AUTO 00000KT 9SM FEW028 23/22 A3004 -60 93 900 000/00 RMK AO2 T02330222
13976KLFT LFT20190929020510909/29/19 02:05:31  5-MIN KLFT 290805Z AUTO 00000KT 9SM FEW029 23/22 A3004 -60 93 900 000/00 RMK AO2 T02330222
13976KLFT LFT20190929021010909/29/19 02:10:31  5-MIN KLFT 290810Z AUTO 00000KT 9SM FEW027 23/22 A3003 -60 93 900 000/00 RMK AO2 T02330222
13976KLFT LFT20190929021510909/29/19 02:15:31  5-MIN KLFT 290815Z AUTO 07003KT 9SM FEW027 23/22 A3003 -60 93 900 070/03 RMK AO2 T02330222
13976KLFT LFT20190929022010909/29/19 02:20:31  5-MIN KLFT 290820Z AUTO 06003KT 9SM FEW024 23/22 A3004 -60 90 900 060/03 RMK AO2 T02330217
13976KLFT LFT20190929022510609/29/19 02:25:31  5-MIN KLFT 290825Z AUTO 00000KT 9SM CLR 23/22 A3003 -60 90 900 000/00 RMK AO2 T02330217
13976KLFT LFT20190929023010909/29/19 02:30:31  5-MIN KLFT 290830Z AUTO 00000KT 9SM FEW025 23/22 A3003 -60 93 900 000/00 RMK AO2 T02280217
13976KLFT LFT20190929023510909/29/19 02:35:31  5-MIN KLFT 290835Z AUTO 07003KT 9SM FEW025 23/22 A3003 -60 90 900 070/03 RMK AO2 T02330217
13976KLFT LFT20190929024011009/29/19 02:40:31  5-MIN KLFT 290840Z AUTO 06003KT 10SM FEW026 23/22 A3003 -60 93 900 060/03 RMK AO2 T02330222
13976KLFT LFT20190929024511009/29/19 02:45:31  5-MIN KLFT 290845Z AUTO 06003KT 10SM FEW026 23/22 A3003 -60 90 900 060/03 RMK AO2 T02330217
13976KLFT LFT20190929025012309/29/19 02:50:31  5-MIN KLFT 290850Z AUTO 07003KT 10SM FEW026 23/22 A3003 -50 90 900 070/03 RMK AO2 SLP169 T02330217 51005
13976KLFT LFT20190929025511009/29/19 02:55:31  5-MIN KLFT 290855Z AUTO 06003KT 10SM FEW026 23/22 A3003 -50 90 900 060/03 RMK AO2 T02330217
13976KLFT LFT20190929030010609/29/19 03:00:31  5-MIN KLFT 290900Z AUTO 00000KT 9SM CLR 23/22 A3003 -50 90 900 000/00 RMK AO2 T02330217
13976KLFT LFT20190929030510609/29/19 03:05:31  5-MIN KLFT 290905Z AUTO 00000KT 9SM CLR 23/22 A3003 -50 90 900 000/00 RMK AO2 T02330217
13976KLFT LFT20190929031010609/29/19 03:10:31  5-MIN KLFT 290910Z AUTO 00000KT 9SM CLR 23/22 A3003 -50 90 900 000/00 RMK AO2 T02330217
13976KLFT LFT20190929031510609/29/19 03:15:31  5-MIN KLFT 290915Z AUTO 00000KT 9SM CLR 23/22 A3003 -60 93 900 000/00 RMK AO2 T02330222
13976KLFT LFT20190929032010609/29/19 03:20:31  5-MIN KLFT 290920Z AUTO 00000KT 9SM CLR 23/22 A3003 -50 93 900 000/00 RMK AO2 T02330222
13976KLFT LFT20190929032510609/29/19 03:25:31  5-MIN KLFT 290925Z AUTO 00000KT 9SM CLR 23/22 A3003 -60 93 900 000/00 RMK AO2 T02330222
13976KLFT LFT20190929033010709/29/19 03:30:31  5-MIN KLFT 290930Z AUTO 00000KT 10SM CLR 23/22 A3003 -50 93 900 000/00 RMK AO2 T02330222
13976KLFT LFT20190929033510609/29/19 03:35:31  5-MIN KLFT 290935Z AUTO 00000KT 9SM CLR 23/22 A3003 -60 93 900 000/00 RMK AO2 T02330222
13976KLFT LFT20190929034010609/29/19 03:40:31  5-MIN KLFT 290940Z AUTO VRB03KT 9SM CLR 23/22 A3003 -60 93 900 VRB/03 RMK AO2 T02330222
13976KLFT LFT20190929034510609/29/19 03:45:31  5-MIN KLFT 290945Z AUTO 08003KT 9SM CLR 23/22 A3003 -60 93 900 080/03 RMK AO2 T02330222
13976KLFT LFT20190929035011309/29/19 03:50:31  5-MIN KLFT 290950Z AUTO 08003KT 9SM CLR 23/22 A3004 -60 93 900 080/03 RMK AO2 SLP170 T02330222
13976KLFT LFT20190929035510609/29/19 03:55:31  5-MIN KLFT 290955Z AUTO 08005KT 9SM CLR 23/22 A3004 -60 93 900 070/05 RMK AO2 T02330222
13976KLFT LFT20190929040010609/29/19 04:00:31  5-MIN KLFT 291000Z AUTO 08003KT 9SM CLR 23/22 A3004 -60 93 900 080/03 RMK AO2 T02330222
13976KLFT LFT20190929040510609/29/19 04:05:31  5-MIN KLFT 291005Z AUTO 00000KT 9SM CLR 23/22 A3004 -60 93 900 000/00 RMK AO2 T02330222
13976KLFT LFT20190929041010609/29/19 04:10:31  5-MIN KLFT 291010Z AUTO 00000KT 9SM CLR 23/22 A3004 -60 93 900 000/00 RMK AO2 T02330222
13976KLFT LFT20190929041510609/29/19 04:15:31  5-MIN KLFT 291015Z AUTO VRB03KT 9SM CLR 23/22 A3004 -60 93 900 VRB/03 RMK AO2 T02330222
13976KLFT LFT20190929042010609/29/19 04:20:31  5-MIN KLFT 291020Z AUTO 00000KT 9SM CLR 23/22 A3004 -60 93 900 000/00 RMK AO2 T02330222
13976KLFT LFT20190929042510609/29/19 04:25:31  5-MIN KLFT 291025Z AUTO 00000KT 9SM CLR 23/22 A3004 -60 93 900 000/00 RMK AO2 T02330222
13976KLFT LFT20190929043010109/29/19 04:30:31  5-MIN KLFT 291030Z 10003KT 9SM CLR 23/22 A3004 -60 93 900 090/03 RMK AO2 T02330222
13976KLFT LFT20190929043510109/29/19 04:35:31  5-MIN KLFT 291035Z 00000KT 9SM CLR 23/22 A3005 -70 93 900 000/00 RMK AO2 T02330222
13976KLFT LFT20190929044010109/29/19 04:40:31  5-MIN KLFT 291040Z 00000KT 9SM CLR 23/22 A3005 -70 93 900 000/00 RMK AO2 T02330222
13976KLFT LFT20190929044510109/29/19 04:45:31  5-MIN KLFT 291045Z 00000KT 9SM CLR 23/22 A3005 -70 93 900 000/00 RMK AO2 T02330222
13976KLFT LFT20190929045010809/29/19 04:50:31  5-MIN KLFT 291050Z 00000KT 9SM CLR 23/22 A3005 -70 93 900 000/00 RMK AO2 SLP176 T02330222
13976KLFT LFT20190929045510109/29/19 04:55:31  5-MIN KLFT 291055Z 00000KT 9SM CLR 23/22 A3005 -70 93 900 000/00 RMK AO2 T02330222
13976KLFT LFT20190929050010109/29/19 05:00:31  5-MIN KLFT 291100Z VRB03KT 9SM CLR 23/22 A3005 -80 93 900 VRB/03 RMK AO2 T02330222
13976KLFT LFT20190929050510109/29/19 05:05:31  5-MIN KLFT 291105Z 00000KT 9SM CLR 23/22 A3006 -80 93 900 000/00 RMK AO2 T02330222
13976KLFT LFT20190929051010109/29/19 05:10:31  5-MIN KLFT 291110Z 00000KT 9SM CLR 23/22 A3006 -80 93 900 000/00 RMK AO2 T02330222
13976KLFT LFT20190929051510109/29/19 05:15:31  5-MIN KLFT 291115Z 00000KT 9SM CLR 23/22 A3006 -80 93 900 000/00 RMK AO2 T02330222
13976KLFT LFT20190929052010109/29/19 05:20:31  5-MIN KLFT 291120Z 00000KT 8SM CLR 23/22 A3006 -80 93 900 000/00 RMK AO2 T02330222
13976KLFT LFT20190929052510109/29/19 05:25:31  5-MIN KLFT 291125Z 00000KT 8SM CLR 23/22 A3006 -80 93 900 000/00 RMK AO2 T02330222
13976KLFT LFT20190929053010109/29/19 05:30:31  5-MIN KLFT 291130Z 08003KT 8SM CLR 23/22 A3006 -80 93 900 080/03 RMK AO2 T02330222
13976KLFT LFT20190929053510109/29/19 05:35:31  5-MIN KLFT 291135Z 00000KT 8SM CLR 23/22 A3006 -80 93 900 000/00 RMK AO2 T02330222
13976KLFT LFT20190929054010109/29/19 05:40:31  5-MIN KLFT 291140Z 00000KT 8SM CLR 23/22 A3006 -80 93 900 000/00 RMK AO2 T02330222
13976KLFT LFT20190929054510109/29/19 05:45:31  5-MIN KLFT 291145Z 09003KT 8SM CLR 23/22 A3006 -80 93 900 090/03 RMK AO2 T02330222
13976KLFT LFT20190929055012609/29/19 05:50:31  5-MIN KLFT 291150Z 09003KT 8SM CLR 23/22 A3006 -80 93 900 090/03 RMK AO2 SLP179 T02330222 10244 20228 58003
13976KLFT LFT20190929055510109/29/19 05:55:31  5-MIN KLFT 291155Z 00000KT 8SM CLR 23/22 A3006 -80 93 900 000/00 RMK AO2 T02330222
13976KLFT LFT20190929060010109/29/19 06:00:31  5-MIN KLFT 291200Z 00000KT 7SM CLR 23/22 A3006 -80 93 900 000/00 RMK AO2 T02330222
13976KLFT LFT20190929060510409/29/19 06:05:31  5-MIN KLFT 291205Z 00000KT 6SM BR CLR 23/22 A3007 -90 93 900 000/00 RMK AO2 T02330222
13976KLFT LFT20190929061010409/29/19 06:10:31  5-MIN KLFT 291210Z 00000KT 6SM BR CLR 23/22 A3007 -90 93 900 000/00 RMK AO2 T02330222
13976KLFT LFT20190929061510409/29/19 06:15:31  5-MIN KLFT 291215Z 07003KT 6SM BR CLR 23/22 A3007 -90 93 900 070/03 RMK AO2 T02330222
13976KLFT LFT20190929062010409/29/19 06:20:31  5-MIN KLFT 291220Z 00000KT 6SM BR CLR 23/22 A3007 -90 93 900 000/00 RMK AO2 T02330222
13976KLFT LFT20190929062510109/29/19 06:25:31  5-MIN KLFT 291225Z 06003KT 7SM CLR 23/22 A3007 -90 93 900 060/03 RMK AO2 T02330222
13976KLFT LFT20190929063010109/29/19 06:30:31  5-MIN KLFT 291230Z 05003KT 7SM CLR 23/22 A3007 -90 93 900 050/03 RMK AO2 T02330222
13976KLFT LFT20190929063510109/29/19 06:35:31  5-MIN KLFT 291235Z 06003KT 7SM CLR 23/22 A3007 -90 93 900 060/03 RMK AO2 T02330222
13976KLFT LFT20190929064010109/29/19 06:40:31  5-MIN KLFT 291240Z 07003KT 7SM CLR 23/22 A3007 -90 93 900 070/03 RMK AO2 T02330222
13976KLFT LFT20190929064510209/29/19 06:45:31  5-MIN KLFT 291245Z 07004KT 8SM CLR 24/22 A3007 -90 90 1000 070/04 RMK AO2 T02390222
13976KLFT LFT20190929065010909/29/19 06:50:31  5-MIN KLFT 291250Z 08004KT 8SM CLR 24/23 A3008 -100 93 900 080/04 RMK AO2 SLP185 T02390228
13976KLFT LFT20190929065510209/29/19 06:55:31  5-MIN KLFT 291255Z VRB03KT 8SM CLR 24/23 A3008 -100 93 900 VRB/03 RMK AO2 T02390228
13976KLFT LFT20190929070010209/29/19 07:00:31  5-MIN KLFT 291300Z 07003KT 9SM CLR 24/23 A3008 -100 93 900 070/03 RMK AO2 T02390228
13976KLFT LFT20190929070510309/29/19 07:05:31  5-MIN KLFT 291305Z 08003KT 9SM CLR 24/23 A3008 -100 90 1000 070/03 RMK AO2 T02440228
13976KLFT LFT20190929071010309/29/19 07:10:31  5-MIN KLFT 291310Z VRB03KT 9SM CLR 24/23 A3008 -100 90 1000 VRB/03 RMK AO2 T02440228
13976KLFT LFT20190929071510409/29/19 07:15:31  5-MIN KLFT 291315Z 00000KT 10SM CLR 24/23 A3008 -100 90 1000 000/00 RMK AO2 T02440228
13976KLFT LFT20190929072010409/29/19 07:20:31  5-MIN KLFT 291320Z 09003KT 10SM CLR 25/23 A3009 -100 87 1100 090/03 RMK AO2 T02500228
13976KLFT LFT20190929072510409/29/19 07:25:31  5-MIN KLFT 291325Z 00000KT 10SM CLR 25/23 A3009 -100 90 1100 000/00 RMK AO2 T02500233
13976KLFT LFT20190929073010409/29/19 07:30:31  5-MIN KLFT 291330Z 07003KT 10SM CLR 26/23 A3009 -110 87 1100 060/03 RMK AO2 T02560233
13976KLFT LFT20190929073510409/29/19 07:35:31  5-MIN KLFT 291335Z 08003KT 10SM CLR 26/23 A3009 -100 87 1100 080/03 RMK AO2 T02560233
13976KLFT LFT20190929074010409/29/19 07:40:31  5-MIN KLFT 291340Z VRB03KT 10SM CLR 26/23 A3009 -100 87 1100 VRB/03 RMK AO2 T02560233
13976KLFT LFT20190929074510409/29/19 07:45:31  5-MIN KLFT 291345Z VRB03KT 10SM CLR 26/23 A3009 -110 84 1200 VRB/03 RMK AO2 T02610233
13976KLFT LFT20190929075011109/29/19 07:50:31  5-MIN KLFT 291350Z VRB03KT 10SM CLR 26/23 A3009 -110 84 1200 VRB/03 RMK AO2 SLP188 T02610233
13976KLFT LFT20190929075510409/29/19 07:55:31  5-MIN KLFT 291355Z 08005KT 10SM CLR 27/24 A3009 -110 84 1300 080/05 RMK AO2 T02670239
13976KLFT LFT20190929080010409/29/19 08:00:31  5-MIN KLFT 291400Z 09004KT 10SM CLR 27/23 A3009 -110 82 1300 090/04 RMK AO2 T02670233
13976KLFT LFT20190929080510409/29/19 08:05:31  5-MIN KLFT 291405Z 08003KT 10SM CLR 27/24 A3009 -110 84 1200 080/03 RMK AO2 T02670239
13976KLFT LFT20190929081010409/29/19 08:10:31  5-MIN KLFT 291410Z VRB04KT 10SM CLR 27/24 A3010 -110 82 1300 VRB/04 RMK AO2 T02720239
13976KLFT LFT20190929081510409/29/19 08:15:31  5-MIN KLFT 291415Z VRB03KT 10SM CLR 27/24 A3010 -110 82 1300 VRB/03 RMK AO2 T02720239
13976KLFT LFT20190929082010409/29/19 08:20:31  5-MIN KLFT 291420Z 10003KT 10SM CLR 28/24 A3010 -110 79 1400 100/03 RMK AO2 T02780239
13976KLFT LFT20190929082510409/29/19 08:25:31  5-MIN KLFT 291425Z VRB03KT 10SM CLR 28/24 A3010 -120 79 1400 VRB/03 RMK AO2 T02780239
13976KLFT LFT20190929083010409/29/19 08:30:31  5-MIN KLFT 291430Z VRB04KT 10SM CLR 28/24 A3010 -120 79 1400 VRB/04 RMK AO2 T02780239
13976KLFT LFT20190929083510409/29/19 08:35:31  5-MIN KLFT 291435Z 11004KT 10SM CLR 28/24 A3010 -120 79 1400 110/04 RMK AO2 T02780239
13976KLFT LFT20190929084010409/29/19 08:40:31  5-MIN KLFT 291440Z VRB03KT 10SM CLR 28/24 A3010 -110 79 1400 VRB/03 RMK AO2 T02780239
13976KLFT LFT20190929084510409/29/19 08:45:31  5-MIN KLFT 291445Z 11004KT 10SM CLR 28/24 A3010 -120 76 1400 110/04 RMK AO2 T02830239
13976KLFT LFT20190929085011709/29/19 08:50:31  5-MIN KLFT 291450Z 00000KT 10SM CLR 28/24 A3010 -120 79 1400 000/00 RMK AO2 SLP192 T02830244 53010
13976KLFT LFT20190929085510409/29/19 08:55:31  5-MIN KLFT 291455Z 07005KT 10SM CLR 29/24 A3010 -120 76 1500 070/05 RMK AO2 T02890244
13976KLFT LFT20190929090010709/29/19 09:00:31  5-MIN KLFT 291500Z 07004KT 10SM FEW014 29/24 A3010 -120 76 1500 070/04 RMK AO2 T02890244
13976KLFT LFT20190929090510709/29/19 09:05:31  5-MIN KLFT 291505Z 07004KT 10SM BKN025 29/24 A3010 -120 76 1500 070/04 RMK AO2 T02890244
13976KLFT LFT20190929091010709/29/19 09:10:31  5-MIN KLFT 291510Z VRB04KT 10SM BKN018 29/24 A3010 -120 76 1500 VRB/04 RMK AO2 T02890244
13976KLFT LFT20190929091510709/29/19 09:15:31  5-MIN KLFT 291515Z VRB04KT 10SM OVC016 29/24 A3010 -120 76 1500 VRB/04 RMK AO2 T02890244
13976KLFT LFT20190929092010709/29/19 09:20:31  5-MIN KLFT 291520Z 07007KT 10SM OVC016 29/24 A3010 -120 76 1500 070/07 RMK AO2 T02890244
13976KLFT LFT20190929092510709/29/19 09:25:31  5-MIN KLFT 291525Z VRB04KT 10SM OVC016 29/24 A3010 -120 74 1500 VRB/04 RMK AO2 T02890239
13976KLFT LFT20190929093010709/29/19 09:30:31  5-MIN KLFT 291530Z VRB03KT 10SM OVC016 29/24 A3010 -120 76 1500 VRB/03 RMK AO2 T02890244
13976KLFT LFT20190929093510709/29/19 09:35:31  5-MIN KLFT 291535Z 12003KT 10SM OVC016 29/24 A3010 -120 74 1500 120/03 RMK AO2 T02940244
13976KLFT LFT20190930150510609/30/19 15:05:31  5-MIN KLFT 302105Z 00000KT 10SM SCT040 32/22 A3002 -40 53 2000 000/00 RMK AO2 T03220217
13976KLFT LFT20190930151010609/30/19 15:10:31  5-MIN KLFT 302110Z 00000KT 10SM SCT040 32/21 A3002 -40 51 2000 000/00 RMK AO2 T03220211
13976KLFT LFT20190930151510609/30/19 15:15:31  5-MIN KLFT 302115Z 09004KT 10SM SCT040 32/21 A3001 -40 53 1900 090/04 RMK AO2 T03170211
13976KLFT LFT20190930152010609/30/19 15:20:31  5-MIN KLFT 302120Z 07003KT 10SM SCT040 31/22 A3001 -40 56 1800 070/03 RMK AO2 T03110217
13976KLFT LFT20190930152510609/30/19 15:25:31  5-MIN KLFT 302125Z 07004KT 10SM SCT040 31/22 A3001 -40 58 1800 070/04 RMK AO2 T03060217
13976KLFT LFT20190930153010609/30/19 15:30:31  5-MIN KLFT 302130Z 06005KT 10SM SCT040 32/22 A3001 -30 55 1900 050/05 RMK AO2 T03170217
13976KLFT LFT20190930153510609/30/19 15:35:31  5-MIN KLFT 302135Z 06005KT 10SM SCT040 32/22 A3001 -30 55 1900 060/05 RMK AO2 T03170217
13976KLFT LFT20190930154010609/30/19 15:40:31  5-MIN KLFT 302140Z 06005KT 10SM SCT040 32/22 A3001 -30 55 1900 060/05 RMK AO2 T03170217
13976KLFT LFT20190930154510609/30/19 15:45:31  5-MIN KLFT 302145Z 07003KT 10SM SCT040 32/22 A3001 -30 55 1900 070/03 RMK AO2 T03170217
13976KLFT LFT20190930155011309/30/19 15:50:31  5-MIN KLFT 302150Z 08003KT 10SM SCT043 32/22 A3001 -30 55 1900 080/03 RMK AO2 SLP160 T03170217
13976KLFT LFT20190930155510609/30/19 15:55:31  5-MIN KLFT 302155Z 10004KT 10SM FEW045 32/22 A3000 -30 53 2000 100/04 RMK AO2 T03220217
13976KLFT LFT20190930160010609/30/19 16:00:31  5-MIN KLFT 302200Z 11004KT 10SM SCT047 31/21 A3000 -30 54 1800 110/04 RMK AO2 T03110211
13976KLFT LFT20190930160510609/30/19 16:05:31  5-MIN KLFT 302205Z 00000KT 10SM SCT047 31/21 A3000 -30 54 1800 000/00 RMK AO2 T03110211
13976KLFT LFT20190930161010609/30/19 16:10:31  5-MIN KLFT 302210Z 00000KT 10SM SCT047 31/22 A3000 -30 56 1800 000/00 RMK AO2 T03110217
13976KLFT LFT20190930161510609/30/19 16:15:31  5-MIN KLFT 302215Z VRB03KT 10SM SCT047 31/22 A3000 -20 60 1800 VRB/03 RMK AO2 T03060222
13976KLFT LFT20190930162010609/30/19 16:20:31  5-MIN KLFT 302220Z 08004KT 10SM SCT047 31/22 A3000 -20 58 1800 070/04 RMK AO2 T03110222
13976KLFT LFT20190930162510609/30/19 16:25:31  5-MIN KLFT 302225Z VRB03KT 10SM SCT047 32/22 A3000 -20 56 1900 VRB/03 RMK AO2 T03170222
13976KLFT LFT20190930163010609/30/19 16:30:31  5-MIN KLFT 302230Z VRB03KT 10SM SCT047 32/22 A3000 -20 56 1900 VRB/03 RMK AO2 T03170222
13976KLFT LFT20190930163510609/30/19 16:35:31  5-MIN KLFT 302235Z 08005KT 10SM SCT047 31/22 A3000 -20 58 1900 080/05 RMK AO2 T03110222
13976KLFT LFT20190930164010609/30/19 16:40:31  5-MIN KLFT 302240Z 09004KT 10SM SCT047 31/22 A3000 -20 58 1900 090/04 RMK AO2 T03110222
13976KLFT LFT20190930164510609/30/19 16:45:31  5-MIN KLFT 302245Z 09003KT 10SM SCT047 31/22 A3000 -20 60 1800 090/03 RMK AO2 T03060222
13976KLFT LFT20190930165011309/30/19 16:50:31  5-MIN KLFT 302250Z 00000KT 10SM SCT047 30/22 A3000 -20 62 1700 000/00 RMK AO2 SLP157 T03000222
13976KLFT LFT20190930165510609/30/19 16:55:31  5-MIN KLFT 302255Z 10003KT 10SM SCT065 30/22 A3000 -20 62 1700 100/03 RMK AO2 T03000222
13976KLFT LFT20190930170010609/30/19 17:00:31  5-MIN KLFT 302300Z 00000KT 10SM FEW065 29/22 A3000 -20 64 1700 000/00 RMK AO2 T02940222
13976KLFT LFT20190930170510609/30/19 17:05:31  5-MIN KLFT 302305Z 09003KT 10SM FEW070 29/22 A3000 -20 64 1700 090/03 RMK AO2 T02940222
13976KLFT LFT20190930171010309/30/19 17:10:31  5-MIN KLFT 302310Z 00000KT 10SM CLR 29/22 A3000 -20 64 1700 000/00 RMK AO2 T02940222
13976KLFT LFT20190930171510309/30/19 17:15:31  5-MIN KLFT 302315Z 00000KT 10SM CLR 29/23 A3000 -20 67 1700 000/00 RMK AO2 T02940228
13976KLFT LFT20190930172010609/30/19 17:20:31  5-MIN KLFT 302320Z 00000KT 10SM FEW043 29/23 A3000 -20 67 1700 000/00 RMK AO2 T02940228
13976KLFT LFT20190930172510609/30/19 17:25:31  5-MIN KLFT 302325Z 00000KT 10SM FEW045 29/23 A3000 -20 67 1700 000/00 RMK AO2 T02940228
13976KLFT LFT20190930173010609/30/19 17:30:31  5-MIN KLFT 302330Z 00000KT 10SM FEW045 29/23 A3000 -20 69 1600 000/00 RMK AO2 T02890228
13976KLFT LFT20190930173510609/30/19 17:35:31  5-MIN KLFT 302335Z 00000KT 10SM FEW045 29/23 A3000 -20 69 1600 000/00 RMK AO2 T02890228
13976KLFT LFT20190930174010609/30/19 17:40:31  5-MIN KLFT 302340Z 00000KT 10SM FEW044 29/23 A3000 -20 69 1600 000/00 RMK AO2 T02890228
13976KLFT LFT20190930174510609/30/19 17:45:31  5-MIN KLFT 302345Z 00000KT 10SM FEW044 29/23 A3000 -20 69 1600 000/00 RMK AO2 T02890228
13976KLFT LFT20190930175012809/30/19 17:50:31  5-MIN KLFT 302350Z 00000KT 10SM CLR 29/23 A3000 -20 71 1600 000/00 RMK AO2 SLP158 T02890233 10328 20289 56022
13976KLFT LFT20190930175510309/30/19 17:55:31  5-MIN KLFT 302355Z 00000KT 10SM CLR 28/23 A3000 -20 74 1500 000/00 RMK AO2 T02830233
13976KLFT LFT20190930180010309/30/19 18:00:31  5-MIN KLFT 010000Z 00000KT 10SM CLR 28/23 A3000 -20 74 1500 000/00 RMK AO2 T02830233
13976KLFT LFT20190930180510309/30/19 18:05:31  5-MIN KLFT 010005Z 00000KT 10SM CLR 28/23 A3000 -20 74 1500 000/00 RMK AO2 T02830233
13976KLFT LFT20190930181010309/30/19 18:10:31  5-MIN KLFT 010010Z 00000KT 10SM CLR 28/23 A3000 -30 76 1500 000/00 RMK AO2 T02780233
13976KLFT LFT20190930181510309/30/19 18:15:31  5-MIN KLFT 010015Z 17003KT 10SM CLR 28/23 A3000 -30 74 1500 170/03 RMK AO2 T02780228
13976KLFT LFT20190930182010209/30/19 18:20:31  5-MIN KLFT 010020Z 00000KT 9SM CLR 28/23 A3000 -30 74 1500 000/00 RMK AO2 T02780228
13976KLFT LFT20190930182510209/30/19 18:25:31  5-MIN KLFT 010025Z 00000KT 9SM CLR 28/23 A3000 -30 74 1500 000/00 RMK AO2 T02780228
13976KLFT LFT20190930183010309/30/19 18:30:31  5-MIN KLFT 010030Z 00000KT 10SM CLR 28/23 A3000 -30 71 1500 000/00 RMK AO2 T02830228
13976KLFT LFT20190930183510309/30/19 18:35:31  5-MIN KLFT 010035Z 00000KT 10SM CLR 28/23 A3001 -30 76 1500 000/00 RMK AO2 T02780233
13976KLFT LFT20190930184010309/30/19 18:40:31  5-MIN KLFT 010040Z 00000KT 10SM CLR 28/23 A3001 -30 76 1500 000/00 RMK AO2 T02780233
13976KLFT LFT20190930184510309/30/19 18:45:31  5-MIN KLFT 010045Z 00000KT 10SM CLR 27/23 A3001 -30 79 1400 000/00 RMK AO2 T02720233
13976KLFT LFT20190930185011009/30/19 18:50:31  5-MIN KLFT 010050Z 00000KT 10SM CLR 27/23 A3001 -30 79 1400 000/00 RMK AO2 SLP161 T02720233
13976KLFT LFT20190930185510309/30/19 18:55:31  5-MIN KLFT 010055Z 00000KT 10SM CLR 27/24 A3001 -30 82 1400 000/00 RMK AO2 T02720239
13976KLFT LFT20190930190010309/30/19 19:00:31  5-MIN KLFT 010100Z 00000KT 10SM CLR 27/23 A3001 -40 79 1400 000/00 RMK AO2 T02720233
13976KLFT LFT20190930190510309/30/19 19:05:31  5-MIN KLFT 010105Z 00000KT 10SM CLR 27/24 A3001 -40 82 1400 000/00 RMK AO2 T02720239
13976KLFT LFT20190930191010309/30/19 19:10:31  5-MIN KLFT 010110Z 00000KT 10SM CLR 27/24 A3001 -40 84 1300 000/00 RMK AO2 T02670239
13976KLFT LFT20190930191510309/30/19 19:15:31  5-MIN KLFT 010115Z 00000KT 10SM CLR 27/24 A3002 -40 82 1400 000/00 RMK AO2 T02720239
13976KLFT LFT20190930192010309/30/19 19:20:31  5-MIN KLFT 010120Z 00000KT 10SM CLR 27/24 A3002 -40 84 1300 000/00 RMK AO2 T02670239
13976KLFT LFT20190930192510309/30/19 19:25:31  5-MIN KLFT 010125Z 00000KT 10SM CLR 27/24 A3002 -40 87 1300 000/00 RMK AO2 T02670244
13976KLFT LFT20190930193010309/30/19 19:30:31  5-MIN KLFT 010130Z 00000KT 10SM CLR 26/24 A3002 -40 87 1300 000/00 RMK AO2 T02610239
13976KLFT LFT20190930193510609/30/19 19:35:31  5-MIN KLFT 010135Z 00000KT 10SM FEW047 26/24 A3002 -40 87 1300 000/00 RMK AO2 T02610239
13976KLFT LFT20190930194010609/30/19 19:40:31  5-MIN KLFT 010140Z 00000KT 10SM SCT047 26/24 A3002 -40 90 1300 000/00 RMK AO2 T02610244
13976KLFT LFT20190930194510609/30/19 19:45:31  5-MIN KLFT 010145Z 00000KT 10SM FEW048 26/24 A3002 -40 90 1300 000/00 RMK AO2 T02610244
13976KLFT LFT20190930195011309/30/19 19:50:31  5-MIN KLFT 010150Z 00000KT 10SM FEW048 26/24 A3002 -40 90 1300 000/00 RMK AO2 SLP166 T02610244
13976KLFT LFT20190930195510609/30/19 19:55:31  5-MIN KLFT 010155Z 00000KT 10SM FEW048 26/24 A3002 -50 90 1300 000/00 RMK AO2 T02610244
13976KLFT LFT20190930200010609/30/19 20:00:31  5-MIN KLFT 010200Z 00000KT 10SM FEW048 26/24 A3002 -50 87 1300 000/00 RMK AO2 T02610239
13976KLFT LFT20190930200510609/30/19 20:05:31  5-MIN KLFT 010205Z 00000KT 10SM FEW048 26/24 A3003 -50 87 1300 000/00 RMK AO2 T02610239
13976KLFT LFT20190930201010309/30/19 20:10:31  5-MIN KLFT 010210Z 00000KT 10SM CLR 26/24 A3003 -50 87 1300 000/00 RMK AO2 T02610239
13976KLFT LFT20190930201510309/30/19 20:15:31  5-MIN KLFT 010215Z 00000KT 10SM CLR 26/24 A3003 -50 87 1300 000/00 RMK AO2 T02610239
13976KLFT LFT20190930202010309/30/19 20:20:31  5-MIN KLFT 010220Z 00000KT 10SM CLR 26/23 A3003 -50 87 1200 000/00 RMK AO2 T02560233
13976KLFT LFT20190930202510309/30/19 20:25:31  5-MIN KLFT 010225Z 00000KT 10SM CLR 26/24 A3003 -60 90 1200 000/00 RMK AO2 T02560239
13976KLFT LFT20190930203010309/30/19 20:30:31  5-MIN KLFT 010230Z 00000KT 10SM CLR 26/24 A3004 -60 90 1200 000/00 RMK AO2 T02560239
13976KLFT LFT20190930203510309/30/19 20:35:31  5-MIN KLFT 010235Z 00000KT 10SM CLR 26/24 A3004 -60 90 1200 000/00 RMK AO2 T02560239
13976KLFT LFT20190930204010309/30/19 20:40:31  5-MIN KLFT 010240Z 00000KT 10SM CLR 26/24 A3004 -60 87 1200 000/00 RMK AO2 T02610239
13976KLFT LFT20190930204510309/30/19 20:45:31  5-MIN KLFT 010245Z 00000KT 10SM CLR 26/24 A3004 -60 90 1200 000/00 RMK AO2 T02560239
13976KLFT LFT20190930205011609/30/19 20:50:31  5-MIN KLFT 010250Z 00000KT 10SM CLR 26/24 A3004 -60 90 1200 000/00 RMK AO2 SLP171 T02560239 55006
13976KLFT LFT20190930205510309/30/19 20:55:31  5-MIN KLFT 010255Z 00000KT 10SM CLR 25/24 A3004 -60 93 1100 000/00 RMK AO2 T02500239
13976KLFT LFT20190930210010309/30/19 21:00:31  5-MIN KLFT 010300Z 00000KT 10SM CLR 26/24 A3004 -60 90 1200 000/00 RMK AO2 T02560239
13976KLFT LFT20190930210510309/30/19 21:05:31  5-MIN KLFT 010305Z 00000KT 10SM CLR 26/24 A3004 -60 90 1200 000/00 RMK AO2 T02560239
13976KLFT LFT20190930211010309/30/19 21:10:31  5-MIN KLFT 010310Z 00000KT 10SM CLR 26/24 A3004 -60 90 1200 000/00 RMK AO2 T02560239
13976KLFT LFT20190930211510309/30/19 21:15:31  5-MIN KLFT 010315Z 00000KT 10SM CLR 25/23 A3004 -60 90 1100 000/00 RMK AO2 T02500233
13976KLFT LFT20190930212010309/30/19 21:20:31  5-MIN KLFT 010320Z 00000KT 10SM CLR 26/23 A3004 -60 87 1200 000/00 RMK AO2 T02560233
13976KLFT LFT20190930212510809/30/19 21:25:31  5-MIN KLFT 010325Z AUTO 00000KT 10SM CLR 26/23 A3004 -60 87 1200 000/00 RMK AO2 T02560233
13976KLFT LFT20190930213010809/30/19 21:30:31  5-MIN KLFT 010330Z AUTO 00000KT 10SM CLR 25/23 A3004 -60 90 1100 000/00 RMK AO2 T02500233
13976KLFT LFT20190930213510809/30/19 21:35:31  5-MIN KLFT 010335Z AUTO 00000KT 10SM CLR 25/23 A3004 -60 90 1100 000/00 RMK AO2 T02500233
13976KLFT LFT20190930214010809/30/19 21:40:31  5-MIN KLFT 010340Z AUTO 00000KT 10SM CLR 25/23 A3004 -60 87 1100 000/00 RMK AO2 T02500228
13976KLFT LFT20190930214510809/30/19 21:45:31  5-MIN KLFT 010345Z AUTO 00000KT 10SM CLR 25/23 A3004 -60 87 1100 000/00 RMK AO2 T02500228
13976KLFT LFT20190930215011509/30/19 21:50:31  5-MIN KLFT 010350Z AUTO 00000KT 10SM CLR 26/23 A3004 -60 84 1200 000/00 RMK AO2 SLP171 T02560228
13976KLFT LFT20190930215510809/30/19 21:55:31  5-MIN KLFT 010355Z AUTO 00000KT 10SM CLR 25/23 A3004 -60 87 1100 000/00 RMK AO2 T02500228
13976KLFT LFT20190930220010809/30/19 22:00:31  5-MIN KLFT 010400Z AUTO 00000KT 10SM CLR 25/23 A3004 -60 87 1100 000/00 RMK AO2 T02500228
13976KLFT LFT20190930220510809/30/19 22:05:31  5-MIN KLFT 010405Z AUTO 00000KT 10SM CLR 25/23 A3004 -60 87 1100 000/00 RMK AO2 T02500228
13976KLFT LFT20190930221010809/30/19 22:10:31  5-MIN KLFT 010410Z AUTO 10003KT 10SM CLR 25/23 A3004 -60 87 1100 100/03 RMK AO2 T02500228
13976KLFT LFT20190930221510809/30/19 22:15:31  5-MIN KLFT 010415Z AUTO 00000KT 10SM CLR 25/23 A3004 -60 87 1100 000/00 RMK AO2 T02500228
13976KLFT LFT20190930222010809/30/19 22:20:31  5-MIN KLFT 010420Z AUTO 10003KT 10SM CLR 25/23 A3004 -60 87 1100 100/03 RMK AO2 T02500228
13976KLFT LFT20190930222510809/30/19 22:25:31  5-MIN KLFT 010425Z AUTO 10003KT 10SM CLR 25/23 A3003 -60 87 1100 100/03 RMK AO2 T02500228
13976KLFT LFT20190930223010809/30/19 22:30:31  5-MIN KLFT 010430Z AUTO 11003KT 10SM CLR 25/23 A3003 -60 87 1100 110/03 RMK AO2 T02500228
13976KLFT LFT20190930223510809/30/19 22:35:31  5-MIN KLFT 010435Z AUTO 00000KT 10SM CLR 25/23 A3003 -60 87 1100 000/00 RMK AO2 T02500228
13976KLFT LFT20190930224010809/30/19 22:40:31  5-MIN KLFT 010440Z AUTO 12003KT 10SM CLR 25/23 A3003 -60 87 1100 120/03 RMK AO2 T02500228
13976KLFT LFT20190930224510809/30/19 22:45:31  5-MIN KLFT 010445Z AUTO 00000KT 10SM CLR 25/23 A3003 -60 87 1100 000/00 RMK AO2 T02500228
13976KLFT LFT20190930225011509/30/19 22:50:31  5-MIN KLFT 010450Z AUTO 00000KT 10SM CLR 25/23 A3003 -50 87 1100 000/00 RMK AO2 SLP169 T02500228
13976KLFT LFT20190930225510809/30/19 22:55:31  5-MIN KLFT 010455Z AUTO 00000KT 10SM CLR 25/23 A3003 -50 87 1100 000/00 RMK AO2 T02500228
13976KLFT LFT20190930230010809/30/19 23:00:31  5-MIN KLFT 010500Z AUTO 00000KT 10SM CLR 25/23 A3003 -50 87 1100 000/00 RMK AO2 T02500228
13976KLFT LFT20190930230510809/30/19 23:05:31  5-MIN KLFT 010505Z AUTO 00000KT 10SM CLR 24/23 A3003 -50 90 1100 000/00 RMK AO2 T02440228
13976KLFT LFT20190930231010809/30/19 23:10:31  5-MIN KLFT 010510Z AUTO 00000KT 10SM CLR 24/23 A3002 -50 90 1100 000/00 RMK AO2 T02440228
13976KLFT LFT20190930231510809/30/19 23:15:31  5-MIN KLFT 010515Z AUTO 00000KT 10SM CLR 24/23 A3002 -50 90 1100 000/00 RMK AO2 T02440228
13976KLFT LFT20190930232010809/30/19 23:20:31  5-MIN KLFT 010520Z AUTO 00000KT 10SM CLR 24/23 A3002 -50 90 1100 000/00 RMK AO2 T02440228
13976KLFT LFT20190930232510809/30/19 23:25:31  5-MIN KLFT 010525Z AUTO 00000KT 10SM CLR 24/23 A3002 -50 90 1100 000/00 RMK AO2 T02440228
13976KLFT LFT20190930233010809/30/19 23:30:31  5-MIN KLFT 010530Z AUTO 00000KT 10SM CLR 24/23 A3002 -50 90 1100 000/00 RMK AO2 T02440228
13976KLFT LFT20190930233510809/30/19 23:35:31  5-MIN KLFT 010535Z AUTO 00000KT 10SM CLR 24/23 A3003 -50 90 1100 000/00 RMK AO2 T02440228
13976KLFT LFT20190930234010809/30/19 23:40:31  5-MIN KLFT 010540Z AUTO 00000KT 10SM CLR 24/22 A3003 -50 90 1000 000/00 RMK AO2 T02390222
13976KLFT LFT20190930234510809/30/19 23:45:31  5-MIN KLFT 010545Z AUTO 00000KT 10SM CLR 24/22 A3002 -50 90 1000 000/00 RMK AO2 T02390222
13976KLFT LFT20190930235014309/30/19 23:50:31  5-MIN KLFT 010550Z AUTO 00000KT 10SM CLR 24/22 A3003 -50 90 1000 000/00 RMK AO2 SLP167 T02390222 10283 20239 403280233 53014
13976KLFT LFT20190930235510809/30/19 23:55:31  5-MIN KLFT 010555Z AUTO 00000KT 10SM CLR 24/22 A3002 -50 87 1100 000/00 RMK AO2 T02440222
