53988KBKB BKB20190701034010907/01/19 03:40:31  5-MIN KBKB 010940Z AUTO 00000KT 6SM BR CLR 20/19 A3004 190 97 900 000/00 RMK AO2 T02000194
53988KBKB BKB20190701034510907/01/19 03:45:31  5-MIN KBKB 010945Z AUTO 00000KT 6SM BR CLR 20/19 A3004 180 97 900 000/00 RMK AO2 T02000194
53988KBKB BKB20190701035010907/01/19 03:50:31  5-MIN KBKB 010950Z AUTO 00000KT 6SM BR CLR 20/19 A3004 180 97 900 000/00 RMK AO2 T02000194
53988KBKB BKB20190701035511307/01/19 03:55:31  5-MIN KBKB 010955Z AUTO 00000KT 7SM CLR 20/19 A3004 180 97 900 000/00 RMK AO2 SLP200 T02000194
53988KBKB BKB20190701040010607/01/19 04:00:31  5-MIN KBKB 011000Z AUTO 00000KT 7SM CLR 20/19 A3004 180 93 900 000/00 RMK AO2 T02000189
53988KBKB BKB20190701040510607/01/19 04:05:31  5-MIN KBKB 011005Z AUTO 00000KT 7SM CLR 20/19 A3005 180 93 800 000/00 RMK AO2 T02000189
53988KBKB BKB20190701041010607/01/19 04:10:31  5-MIN KBKB 011010Z AUTO 00000KT 7SM CLR 20/19 A3005 180 93 800 000/00 RMK AO2 T02000189
53988KBKB BKB20190701041510607/01/19 04:15:31  5-MIN KBKB 011015Z AUTO 00000KT 7SM CLR 20/19 A3005 180 93 800 000/00 RMK AO2 T02000189
53988KBKB BKB20190701042010607/01/19 04:20:31  5-MIN KBKB 011020Z AUTO 00000KT 7SM CLR 20/19 A3005 180 93 800 000/00 RMK AO2 T02000189
53988KBKB BKB20190701042510607/01/19 04:25:31  5-MIN KBKB 011025Z AUTO 00000KT 7SM CLR 20/19 A3005 180 93 900 000/00 RMK AO2 T02000189
53988KBKB BKB20190701043010607/01/19 04:30:31  5-MIN KBKB 011030Z AUTO 00000KT 7SM CLR 20/19 A3004 180 93 900 000/00 RMK AO2 T02000189
53988KBKB BKB20190701043510607/01/19 04:35:31  5-MIN KBKB 011035Z AUTO 00000KT 7SM CLR 20/19 A3004 180 93 900 000/00 RMK AO2 T02000189
53988KBKB BKB20190701044010607/01/19 04:40:31  5-MIN KBKB 011040Z AUTO 00000KT 7SM CLR 20/19 A3005 180 93 900 000/00 RMK AO2 T02000189
53988KBKB BKB20190701044510907/01/19 04:45:31  5-MIN KBKB 011045Z AUTO 00000KT 6SM BR CLR 20/19 A3005 180 93 800 000/00 RMK AO2 T02000189
53988KBKB BKB20190701045010907/01/19 04:50:31  5-MIN KBKB 011050Z AUTO 00000KT 4SM BR CLR 20/19 A3004 180 93 900 000/00 RMK AO2 T02000189
53988KBKB BKB20190701045511607/01/19 04:55:31  5-MIN KBKB 011055Z AUTO 00000KT 4SM BR CLR 20/19 A3004 180 93 900 000/00 RMK AO2 SLP199 T02000189
53988KBKB BKB20190701050010907/01/19 05:00:31  5-MIN KBKB 011100Z AUTO 00000KT 4SM BR CLR 20/19 A3005 180 93 900 000/00 RMK AO2 T02000189
53988KBKB BKB20190701050510907/01/19 05:05:31  5-MIN KBKB 011105Z AUTO 00000KT 4SM BR CLR 20/19 A3004 180 93 900 000/00 RMK AO2 T02000189
53988KBKB BKB20190701051010907/01/19 05:10:31  5-MIN KBKB 011110Z AUTO 00000KT 5SM BR CLR 20/19 A3004 180 93 900 000/00 RMK AO2 T02000189
53988KBKB BKB20190701051510907/01/19 05:15:31  5-MIN KBKB 011115Z AUTO 00000KT 4SM BR CLR 20/19 A3004 180 93 900 000/00 RMK AO2 T02000189
53988KBKB BKB20190701052011307/01/19 05:20:31  5-MIN KBKB 011120Z AUTO 00000KT 2 1/2SM BR CLR 20/19 A3004 180 93 900 000/00 RMK AO2 T02000189
53988KBKB BKB20190701052510907/01/19 05:25:31  5-MIN KBKB 011125Z AUTO 00000KT 3SM BR CLR 20/19 A3005 180 93 800 000/00 RMK AO2 T02000189
53988KBKB BKB20190701053010407/01/19 05:30:31  5-MIN KBKB 011130Z A3005 170 97 800 000/00 RMK AO2 SLP203 T02000194 10222 20200 51001
53988KBKB BKB20190701060010907/01/19 06:00:31  5-MIN KBKB 011200Z AUTO 00000KT 6SM BR CLR 20/19 A3005 170 97 800 000/00 RMK AO2 T02000194
53988KBKB BKB20190701060510907/01/19 06:05:31  5-MIN KBKB 011205Z AUTO 00000KT 6SM BR CLR 21/19 A3005 170 93 900 000/00 RMK AO2 T02060194
53988KBKB BKB20190701061015707/01/19 06:10:31  5-MIN KBKB 011210Z AUTO 00000KT 5SM BR 08:40:31  5-MIN KBKB 011440Z AUTO 21004KT 10SM CLR 28/21 A3007 160 64 1700 210/04 RMK AO2 T02780206
53988KBKB BKB20190701084510807/01/19 08:45:31  5-MIN KBKB 011445Z AUTO 00000KT 10SM CLR 28/21 A3007 160 62 1800 000/00 RMK AO2 T02830206
53988KBKB BKB20190701085010807/01/19 08:50:31  5-MIN KBKB 011450Z AUTO VRB03KT 10SM CLR 28/21 A3007 160 62 1800 VRB/03 RMK AO2 T02830206
53988KBKB BKB20190701085512107/01/19 08:55:31  5-MIN KBKB 011455Z AUTO 00000KT 10SM CLR 28/21 A3007 160 62 1800 000/00 RMK AO2 SLP206 T02830206 51006
53988KBKB BKB20190701090010807/01/19 09:00:31  5-MIN KBKB 011500Z AUTO 00000KT 10SM CLR 29/21 A3006 160 60 1800 000/00 RMK AO2 T02890206
53988KBKB BKB20190701090510807/01/19 09:05:31  5-MIN KBKB 011505Z AUTO 00000KT 10SM CLR 29/21 A3006 170 60 1800 000/00 RMK AO2 T02890206
53988KBKB BKB20190701091010807/01/19 09:10:31  5-MIN KBKB 011510Z AUTO 00000KT 10SM CLR 29/21 A3006 170 60 1800 000/00 RMK AO2 T02890206
53988KBKB BKB20190701091510807/01/19 09:15:31  5-MIN KBKB 011515Z AUTO VRB03KT 10SM CLR 29/20 A3006 170 58 1800 VRB/03 RMK AO2 T02890200
53988KBKB BKB20190701092010807/01/19 09:20:31  5-MIN KBKB 011520Z AUTO 00000KT 10SM CLR 29/20 A3006 170 56 1900 000/00 RMK AO2 T02940200
53988KBKB BKB20190701092510807/01/19 09:25:31  5-MIN KBKB 011525Z AUTO 00000KT 10SM CLR 29/21 A3006 170 58 1900 000/00 RMK AO2 T02940206
53988KBKB BKB20190701093011107/01/19 09:30:31  5-MIN KBKB 011530Z AUTO 00000KT 10SM CLR 30/21 A3006 170200 51 2200 VRB/03 RMK AO2 T03220211
53988KBKB BKB20190701122511807/01/19 12:25:31  5-MIN KBKB 011825Z AUTO VRB03KT 10SM FEW055 FEW070 32/21 A3003 200 51 2200 VRB/03 RMK AO2 T03170206
53988KBKB BKB20190701123011807/01/19 12:30:31  5-MIN KBKB 011830Z AUTO VRB03KT 10SM SCT055 SCT070 31/20 A3003 200 51 2100 VRB/03 RMK AO2 T03110200
53988KBKB BKB20190701123511807/01/19 12:35:31  5-MIN KBKB 011835Z AUTO 00000KT 10SM BKN050 BKN070 31/21 A3003 200 54 2100 000/00 RMK AO2 T03060206
53988KBKB BKB20190701124011807/01/19 12:40:31  5-MIN KBKB 011840Z AUTO VRB03KT 10SM BKN050 BKN070 31/21 A3002 200 53 2100 VRB/03 RMK AO2 T03110206
53988KBKB BKB20190701124511807/01/19 12:45:31  5-MIN KBKB 011845Z AUTO 00000KT 10SM BKN050 BKN070 32/21 A3002 200 51 2300 000/00 RMK AO2 T03220211
53988KBKB BKB20190701125019507/01/19 12:50:31  5-MIN KBKB 011850Z AUTO 00000KT 10SM BKN050 BKN070 31/21 A3002 210 53 2100 000/00 RMKKB 011925Z AUTO 00000KT 10SM BKN050 OVC055 31/21 A3001 210 56 2100 000/00 RMK AO2 T03060211
53988KBKB BKB20190701130011807/01/19 13:00:31  5-MIN KBKB 011900Z AUTO VRB03KT 10SM BKN050 OVC060 32/21 A3002 210 53 2200 VRB/03 RMK AO2 T03170211
53988KBKB BKB20190701130511807/01/19 13:05:31  5-MIN KBKB 011905Z AUTO VRB03KT 10SM BKN050 BKN065 33/21 A3002 210 49 2300 VRB/03 RMK AO2 T03280211
53988KBKB BKB20190701131011807/01/19 13:10:31  5-MIN KBKB 011910Z AUTO VRB03KT 10SM BKN050 BKN065 32/21 A3001 210 51 2300 VRB/03 RMK AO2 T03220211
53988KBKB BKB20190701131511107/01/19 13:15:31  5-MIN KBKB 011915Z AUTO VRB03KT 10SM BKN050 31/21 A3001 210 53 2100 VRB/03 RMK AO2 T03110206
53988KBKB BKB20190701132011107/01/19 13:20:31  5-MIN KBKB 011920Z AUTO 00000KT 10SM OVC050 31/21 A3001 210 54 2100 000/00 RMK AO2 T03110211
53988KBKB BKB20190701132511807/01/19 13:25:31  5-MIN KBKB 011925Z AUTO 00000KT 10SM BKN050 OVC055 31/21 A3001 210 56 2100 000/00 RMK AO2 T03060211
53988KBKB BKB20190701133011807/01/19 13:30:31  5-MIN KBKB 011930Z AUTO 00000KT 10SM BKN050 BKN055 32/21 A3001 220 53 2200 000/00 RMK AO2 T03170211
53988KBKB BKB20190701133511107/01/19 13:35:31  5-MIN KBKB 011935Z AUTO VRB03KT 10SM BKN050 32/21 A3001 220 51 2200 VRB/03 RMK AO2 T03170206
53988KBKB BKB20190701134011807/01/19 13:40:31  5-MIN KBKB 011940Z AUTO VRB03KT 10SM BKN050 BKN070 32/21 A3001 220 53 2200 VRB/03 RMK AO2 T03170211
53988KBKB BKB20190701134511807/01/19 13:45:31  5-MIN KBKB 011945Z AUTO 00000KT 10SM SCT050 BKN070 31/21 A3001 210 53 2100 000/00 RMK AO2 T03110206
53988KBKB BKB20190701135011807/01/19 13:50:31  5-MIN KBKB 011950Z AUTO 00000KT 10SM SCT055 BKN070 31/21 A3001 210 54 2100 000/00 RMK AO2 T03110211
53988KBKB BKB20190701135512507/01/19 13:55:31  5-MIN KBKB 011955Z AUTO 00000KT 10SM SCT055 BKN070 31/21 A3001 210 54 2100 000/00 RMK AO2 SLP188 T03110211
53988KBKB BKB20190701135513007/01/19 13:55:31  5-MIN KBKB 011955Z AUTO 00000KT 10SM SCT055 BKN070 31/21BKN085 31/21 A3000 220 53 2200 VRB/03 RMK AO2 T03110206
53988KBKB BKB20190701140012507/01/19 14:00:31  5-MIN KBKB 012000Z AUTO 00000KT 10SM SCT060 BKN070 BKN090 31/21 A3001 220 54 2100 000/00 RMK AO2 T03110211
53988KBKB BKB20190701140512507/01/19 14:05:31  5-MIN KBKB 012005Z AUTO 00000KT 10SM SCT060 BKN070 BKN090 31/22 A3001 220 58 2100 000/00 RMK AO2 T03060217
53988KBKB BKB20190701141011807/01/19 14:10:31  5-MIN KBKB 012010Z AUTO 00000KT 10SM BKN065 OVC085 31/22 A3001 220 58 2100 000/00 RMK AO2 T03060217
53988KBKB BKB20190701141511807/01/19 14:15:31  5-MIN KBKB 012015Z AUTO 00000KT 10SM BKN065 OVC090 32/22 A3001 220 55 2200 000/00 RMK AO2 T03170217
53988KBKB BKB20190701142011807/01/19 14:20:31  5-MIN KBKB 012020Z AUTO VRB03KT 10SM BKN065 OVC085 32/22 A3000 220 55 2200 VRB/03 RMK AO2 T03170217
53988KBKB BKB20190701142511807/01/19 14:25:31  5-MIN KBKB 012025Z AUTO VRB04KT 10SM SCT065 BKN080 32/21 A3000 220 53 2200 VRB/04 RMK AO2 T03170211
53988KBKB BKB20190701143012507/01/19 14:30:31  5-MIN KBKB 012030Z AUTO VRB03KT 10SM SCT060 SCT075 BKN085 31/21 A3000 220 53 2200 VRB/03 RMK AO2 T03110206
53988KBKB BKB20190701143512507/01/19 14:35:31  5-MIN KBKB 012035Z AUTO VRB03KT 10SM FEW048 SCT055 BKN070 33/21 A3000 220 49 2300 VRB/03 RMK AO2 T03280211
53988KBKB BKB20190701144012507/01/19 14:40:31  5-MIN KBKB 012040Z AUTO VRB05KT 10SM SCT048 SCT060 BKN075 32/21 A3000 230 49 2300 VRB/05 RMK AO2 T03220206
53988KBKB BKB20190701144512507/01/19 14:45:31  5-MIN KBKB 012045Z AUTO 11005KT 10SM SCT048 SCT060 BKN075 32/21 A3000 230 49 2300 110/05 RMK AO2 T03220206
53988KBKB BKB20190701145011807/01/19 14:50:31  5-MIN KBKB 012050Z AUTO 00000KT 10SM SCT048 SCT060 32/21 A2999 230 51 2300 000/00 RMK AO2 T03220211
53988KBKB BKB20190701145513107/01/19 14:55:31  5-MIN KBKB 012055Z AUTO 19004KT 10SM SCT050 SCT060 33/21 A3000 230 49 2300 190/04 RMK AO2 SLP182 T03280211 58007
53988KBKB BKB20190701145515907/01/19 14:55:31  5-MIN KBKB 012055Z AUTO 19004KT 10SM SCT050 SCT060 33/21250 46 2300 VRB/04 RMK AO2 T0322019403/20 A2998 250 46 2400 VRB/03 RMK AO2 T0328020T
53988KBKB BKB20190701150014807/01/19 15:00:31  5-MIN KBKB 012100Z07/01/19 15:35:31  5-MIN KBKB 012135Z AUTO 00000KT 10SM BKN050 32/19 A2999 230 47 2200 000/00 RMK AO2 T03170194
53988KBKB BKB20190701163509607/01/19 16:35:31  5-MIN KBKB 012235Z AUTO VRB03KT 10SM FEW050 32/20 A2998 /00 RMK AO2 T02720217
53988KBKB BKB20190701194010807/01/19 19:40:31  5-MIN KBKB 020140Z AUTO 00000KT 10SM CLR 27/22 A3000 220 73 1700 000/00 RMK AO2 T02670217
53988KBKB BKB20190701194510807/01/19 19:45:31  5-MIN KBKB 020145Z AUTO 00000KT 10SM CLR 27/22 A3000 220 73 1700 000/00 RMK AO2 T02670217
53988KBKB BKB20190701195008707/01/19 19:50:31  5-MIN KBKB 020150Z AUTO 00000KT 110 84 1400 000/00 RMK AO2 T02440217
53988KBKB BKB20190701195010807/01/19 19:50:31  5-MIN KBKB 020150Z AUTO 00000KT 10SM CLR 27/22 A3000 220 76 1700 000/00 RMK AO2 T02670222
53988KBKB BKB20190701195511507/01/19 19:55:31  5-MIN KBKB 020155Z AUTO 00000KT 10SM CLR 26/22 A3000 220 76 1600 000/00 RMK AO2 SLP185 T02610217
53988KBKB BKB20190701200010807/01/19 20:00:31  5-MIN KBKB 020200Z AUTO 00000KT 10SM CLR 27/22 A3000 220 73 1700 000/00 RMK AO2 T02670217
53988KBKB BKB20190701200516507/01/19 20:05:31  5-MIN KBKB 020205Z AUTO 00000KT 10SM CL7/01/19 19:45:31  5-MIN KBKB 020145Z AUTO 00000KT 10SM CLR 27/22 A3000 220 73 1700 000/00 RMK AO2 T02670217
53988KBKB BKB20190701221010807/01/19 22:10:31  5-MIN KBKB 020410Z AUTO 00000KT 10SM CLR 24/22 A3001 210 87 1400 000/00 RMK AO2 T02440222
53988KBKB BKB20190701221510807/01/19 22:15:31  5-MIN KBKB 020415Z AUTO 00000KT 10SM CLR 24/22 A3001 210 84 1400 000/00 RMK AO2 T02440217
53988KBKB BKB20190701222010807/01/19 22:20:31  5-MIN KBKB 020420Z AUTO 00000KT 10SM CLR 24/22 A3001 210 87 1300 000/00 RMK AO2 T02390217
53988KBKB BKB20190702002010807/02/19 00:20:31  5-MIN KBKB 020620Z AUTO 00000KT 10SM CLR 23/21 A3000 230 90 1200 000/00 RMK AO2 T02280211
53988KBKB BKB20190702002510807/02/19 00:25:31  5-MIN KBKB 020625Z AUTO 00000KT 10SM CLR 23/21 A3000 230 90 1200 000/00 RMK AO2 T02280211
53988KBKB BKB20190702003010707/02/19 00:30:31  5-MIN KBKB 020630Z AUTO 00000KT 9SM CLR 23/21 A3000 230 90 1200 000/00 RMK AO2 T02280211
53988KBKB BKB20190702003509207/02/19 00:35:31  5-MIN KBKB 020635Z AUTO 00000KT 9SN LISTING COMPLETE, 144 5MIN(S) LISTED.
53988KBKB BKB20190702015010707/02/19 01:50:31  5-MIN KBKB 020750Z AUTO 00000KT 7SM CLR 22/21 A2999 230 97 1100 000/00 RMK AO2 T02170211
53988KBKB BKB20190702015511407/02/19 01:55:31  5-MIN KBKB 020755Z AUTO 00000KT 7SM CLR 22/21 A2999 230 97 1100 000/00 RMK AO2 SLP181 T02170211
53988KBKB BKB20190702020011007/02/19 02:00:31  5-MIN KBKB 020800Z AUTO 00000KT 6SM BR CLR 22/21 A2999 230 97 1100 000/00 RMK AO2 T02170211
53988KBKB BKB20190702020510707/02/19 02:05:31  5-MIN KBKB 020805Z AUTO 00000KT 7SM CLR 22/21 A2999 230 97 1100 000/00 RMK AO2 T02170211
53988KBKB BKB20190702021010707/02/19 02:10:31  5-MIN KBKB 020810Z AUTO 00000KT 7SM CLR 22/21 A2999 230 93 1100 000/00 RMK AO2 T02170206
53988KBKB BKB20190702021511007/02/19 02:15:31  5-MIN KBKB 020815Z AUTO 00000KT 6SM BR CLR 22/21 A2999 230 93 1100 000/00 RMK AO2 T02170206
53988KBKB BKB20190702022011007/02/19 02:20:31  5-MIN KBKB 020820Z AUTO 00000KT 6SM BR CLR 22/21 A2999 230 93 1100 000/00 RMK AO2 T02170206
53988KBKB BKB20190702022511007/02/19 02:25:31  5-MIN KBKB 020825Z AUTO 00000KT 6SM BR CLR 22/21 A3000 230 93 1100 000/00 RMK AO2 T02170206
53988KBKB BKB20190702023011007/02/19 02:30:31  5-MIN KBKB 020830Z AUTO 00000KT 6SM BR CLR 22/21 A3000 230 93 1100 000/00 RMK AO2 T02170206
53988KBKB BKB20190702023511007/02/19 02:35:31  5-MIN KBKB 020835Z AUTO 00000KT 6SM BR CLR 22/21 A3000 230 93 1100 000/00 RMK AO2 T02170206
53988KBKB BKB20190702024010707/02/19 02:40:31  5-MIN KBKB 020840Z AUTO 00000KT 7SM CLR 22/21 A3000 230 93 1100 000/00 RMK AO2 T02170206
53988KBKB BKB20190702024511007/02/19 02:45:31  5-MIN KBKB 020845Z AUTO 00000KT 6SM BR CLR 22/21 A3000 230 93 1100 000/00 RMK AO2 T02170206
53988KBKB BKB20190702025011007/02/19 02:50:31  5-MIN KBKB 020850Z AUTO 00000KT 6SM BR CLR 22/21 A3000 230 93 1100 000/00 RMK AO2 T02170206
53988KBKB BKB20190702110011107/02/19 11:00:31  5-MIN KBKB 021700Z AUTO VRB04KT 10SM SCT032 31/23 A3001 220 62 2100 VRB/04 RMK AO2 T03060228
53988KBKB BKB20190702110511107/02/19 11:05:31  5-MIN KBKB 021705Z AUTO VRB04KT 10SM FEW032 32/23 A3000 220 58 2200 VRB/04 RMK AO2 T03170228
53988KBKB BKB20190702111011107/02/19 11:10:31  5-MIN KBKB 021710Z AUTO VRB04KT 10SM FEW032 32/23 A3000 220 58 2200 VRB/04 RMK AO2 T03170228
53988KBKB BKB20190702111510807/02/19 11:15:31  5-MIN KBKB 021715Z AUTO VRB04KT 10SM CLR 31/22 A3000 230 58 2200 VRB/04 RMK AO2 T03110222
53988KBKB BKB20190702112011807/02/19 11:20:31  5-MIN KBKB 021720Z AUTO VRB03KT 10SM FEW037 FEW049 32/22 A3000 230 56 2200 VRB/03 RMK AO2 T03170222
53988KBKB BKB20190702112511807/02/19 11:25:31  5-MIN KBKB 021725Z AUTO 00000KT 10SM FEW037 FEW049 31/22 A2999 230 60 2100 000/00 RMK AO2 T03060222
53988KBKB BKB20190702113011807/02/19 11:30:31  5-MIN KBKB 021730Z AUTO VRB03KT 10SM FEW039 SCT049 32/23 A2999 230 58 2200 VRB/03 RMK AO2 T03170228
53988KBKB BKB20190702113511807/02/19 11:35:31  5-MIN KBKB 021735Z AUTO VRB03KT 10SM FEW039 SCT049 32/22 A2999 230 55 2300 VRB/03 RMK AO2 T03220222
53988KBKB BKB20190702114011807/02/19 11:40:31  5-MIN KBKB 021740Z AUTO VRB04KT 10SM FEW039 FEW048 32/22 A2999 240 56 2200 VRB/04 RMK AO2 T03170222
53988KBKB BKB20190702114511807/02/19 11:45:31  5-MIN KBKB 021745Z AUTO VRB05KT 10SM FEW039 FEW048 32/22 A2999 240 55 2300 VRB/05 RMK AO2 T03220222
53988KBKB BKB20190702115011107/02/19 11:50:31  5-MIN KBKB 021750Z AUTO 00000KT 10SM FEW039 32/21 A2998 240 51 2300 000/00 RMK AO2 T03220211
53988KBKB BKB20190702115513607/02/19 11:55:31  5-MIN KBKB 021755Z AUTO 00000KT 10SM FEW045 32/22 A2998 240 55 2200 000/00 RMK AO2 SLP178 T03170217 10322 20211 50001
53988KBKB BKB20190702120010107/02/19 12:00:31  5-MIN KBKB 021800Z AUTO 10SM FEW045 32/22 A2998 240 55 2300 M /M RMK AO2 T03220222
53988KBKB BKB20190702120511107/02/19 12:05:31  5-MIN KBKB 021805Z AUTO 00000KT 10SM FEW045 32/22 A2998 240 56 2200 000/00 RMK AO2 T03170222
53988KBKB BKB20190702121011107/02/19 12:10:31  5-MIN KBKB 021810Z AUTO VRB03KT 10SM FEW045 32/22 A2998 240 55 2200 VRB/03 RMK AO2 T03170217
53988KBKB BKB20190702121511107/02/19 12:15:31  5-MIN KBKB 021815Z AUTO 00000KT 10SM FEW045 32/23 A2998 240 57 2300 000/00 RMK AO2 T03220228
53988KBKB BKB20190702122011807/02/19 12:20:31  5-MIN KBKB 021820Z AUTO 21005KT 10SM FEW041 FEW050 32/22 A2999 240 53 2300 210/05 RMK AO2 T03220217
53988KBKB BKB20190702122511807/02/19 12:25:31  5-MIN KBKB 021825Z AUTO 20004KT 10SM FEW039 SCT050 32/22 A2998 240 56 2200 190/04 RMK AO2 T03170222
53988KBKB BKB20190702123011107/02/19 12:30:31  5-MIN KBKB 021830Z AUTO 00000KT 10SM FEW039 32/22 A2998 240 55 2300 000/00 RMK AO2 T03220222
53988KBKB BKB20190702123511107/02/19 12:35:31  5-MIN KBKB 021835Z AUTO VRB04KT 10SM FEW039 33/23 A2998 250 55 2400 VRB/04 RMK AO2 T03280228
53988KBKB BKB20190702124011807/02/19 12:40:31  5-MIN KBKB 021840Z AUTO 00000KT 10SM FEW039 SCT060 32/22 A2998 250 56 2200 000/00 RMK AO2 T03170222
53988KBKB BKB20190702124512507/02/19 12:45:31  5-MIN KBKB 021845Z AUTO VRB03KT 10SM FEW041 SCT050 SCT060 32/22 A2998 250 55 2300 VRB/03 RMK AO2 T03220222
53988KBKB BKB20190702125005307/02/19 12:50:31  5-MIN KBKB 021850Z AUTO 1003000233
53988KBKB BKB20190702143512507/02/19 14:35:31  5-MIN KBKB 022035Z AUTO VRB03KT 10SM FEW044 SCT060 BKN080 29/23 A2996 260 67 2000 VRB/03 RMK AO2 T02940228
53988KBKB BKB20190702144010907/02/19 14:40:31  5-MIN KBKB 022040Z AUTO VRB03KT 10SM TS SCT044 BKN060 BKN110 2800 000/00 RMK AO2 T02780233
53988KBKB BKB20190702163012507/02/19 16:30:31  5-MIN KBKB 022230Z AUTO 00000KT 10SM BKN022 BKN028 OVC042 28/23 A2996 260 76 1800 000/00 RMK AO2 T02780233
53988KBKB BKB20190702163512507/02/19 16:35:31  5-MIN KBKB 022235Z AUTO VRB03KT 10SM BKN021 BKN030 OVC042 28/23 A2997 260 76 1800 VRB/03 RMK AO2 T02780233
53988KBKB BKB20190702164012507/02/19 16:40:31  5-MIN KBKB 022240Z AUTO VRB03KT 10SM BKN021 BKN030 OVC040 27/23 A2996 260 79 1700 VRB/03 RMK AO2 T02670228
53988KBKB BKB20190702164512507/02/19 16:45:31  5-MIN KBKB 022245Z AUTO 00000KT 10SM BKN021 BKN027 BKN040 27/23 A2996 260 79 1700 000/00 RMK AO2 T02670228
53988KBKB BKB20190702165015907/02/19 16:50:31  5-MIN KBKB 022250Z AUTO 00000KT 10SM SCT021 SCT028 BKN040 27/23 A2996 260 79 1700 000/00 RMK AO2 T026702280 93 1400 000/00 RMK AO2 T02440233
53988KBKB BKB20190702165018007/02/19 16:50:31  5-MIN KBKB 022250Z AUTO 00000KT 10SM SCT021 SCT028 BKN040 27/23 A2996 260 79 1700 000/00 RMK AO2 T02670228OVC042 28/23 A2997 260 76 1800 VRB/03 RMK AO2 T02780233
53988KBKB BKB20190702213510707/02/19 21:35:31  5-MIN KBKB 030335Z AUTO 00000KT 7SM CLR 24/23 A2997 250 93 1400 000/00 RMK AO2 T02440233
53988KBKB BKB20190702214011007/02/19 21:40:31  5-MIN KBKB 030340Z AUTO 00000KT 5SM BR CLR 24/23 A2997 250 93 1400 000/00 RMK AO2 T02440233
53988KBKB BKB20190702214511307/02/19 21:45:31  5-MIN KBKB 030345Z AUTO 00000KT 5SM BR FEW015 24/23 A2997 250 93 1400 000/00 RMK AO2 T02440233
53988KBKB BKB20190702215011307/02/19 21:50:31  5-MIN KBKB 030350Z AUTO 00000KT 5SM BR FEW015 24/23 A2997 250 93 1400 000/00 RMK AO2 T02440233
53988KBKB BKB20190702215016407/02/19 21:50:31  5-MIN KBKB 030350Z AUTO 00000KT 5SM BR FEW015 24/23 A2997 250 93 1400 000/00 RMK 0000KT 10SM CLR 24/23 A2997 250 93 1400 000/00 RMK AO2 T02440233
53988KBKB BKB20190702215512007/02/19 21:55:31  5-MIN KBKB 030355Z AUTO 00000KT 6SM BR FEW015 24/23 A2997 250 93 1400 000/00 RMK AO2 SLP173 T02440233
53988KBKB BKB20190702220011307/02/19 22:00:31  5-MIN KBKB 030400Z AUTO 00000KT 5SM BR FEW015 24/23 A2997 260 93 1500 000/00 RMK AO2 T02440233
53988KBKB BKB20190702220014807/02/19 22:00:31  5-MIN KBKB 030400Z AUTO 00000KT 5SM BR FEW015 24/23 340Z AUTO 00000KT 5SM BR CLR 24/23 A2997 250 93 1400 000/00 RMK AO2 T02440233
53988KBKB BKB20190702220510707/02/19 22:05:31  5-MIN KBKB 030405Z AUTO 00000KT 4SM BR FEW015 24/23 270 97 1400 000/00 RMK AO2 T02390233
53988KBKB BKB20190702225512007/02/19 22:55:31  5-MIN KBKB 030455Z AUTO 00000KT 6SM BR FEW004 24/23 A2995 270 93 1400 000/00 RMK AO2 SLP167 T02390228
53988KBKB BKB20190703204010807/03/19 20:40:31  5-MIN KBKB 040240Z AUTO 00000KT 10SM CLR 24/23 A2995 270 93 1400 000/00 RMK AO2 T02390228
53988KBKB BKB20190703204510807/03/19 20:45:31  5-MIN KBKB 040245Z AUTO 00000KT 10SM CLR 24/23 A2995 270 93 1400 000/00 RMK AO2 T02390228
53988KBKB BKB20190703205010807/03/19 20:50:31  5-MIN KBKB 040250Z AUTO 00000KT 10SM CLR 24/23 A2995 270 93 1400 000/00 RMK AO2 T02390228
53988KBKB BKB20190703205512107/03/19 20:55:31  5-MIN KBKB 040255Z AUTO 00000KT 10SM CLR 24/23 A2995 270 93 1400 000/00 RMK AO2 SLP168 T02390228 57010
53988KBKB BKB20190703210010807/03/19 21:00:31  5-MIN KBKB 040300Z AUTO 00000KT 10SM CLR 24/23 A2995 270 93 1400 000/00 RMK AO2 T02390228
53988KBKB BKB20190703210510807/03/19 21:05:31  5-MIN KBKB 040305Z AUTO 00000KT 10SM CLR 24/23 A2996 270 93 1400 000/00 RMK AO2 T02390228
53988KBKB BKB20190703211010807/03/19 21:10:31  5-MIN KBKB 040310Z AUTO 00000KT 10SM CLR 24/23 A2996 260 93 1400 000/00 RMK AO2 T02390228
53988KBKB BKB20190703211510807/03/19 21:15:31  5-MIN KBKB 040315Z AUTO 00000KT 10SM CLR 24/23 A2996 260 93 1400 000/00 RMK AO2 T02390228
53988KBKB BKB20190703212010807/03/19 21:20:31  5-MIN KBKB 040320Z AUTO 00000KT 10SM CLR 24/23 A2996 260 93 1400 000/00 RMK AO2 T02390228
53988KBKB BKB20190703212510807/03/19 21:25:31  5-MIN KBKB 040325Z AUTO 00000KT 10SM CLR 24/23 A2996 260 93 1400 000/00 RMK AO2 T02390228
53988KBKB BKB20190703213010807/03/19 21:30:31  5-MIN KBKB 040330Z AUTO 00000KT 10SM CLR 24/23 A2996 260 93 1400 000/00 RMK AO2 T02390228
53988KBKB BKB20190703213510807/03/19 21:35:31  5-MIN KBKB 040335Z AUTO 00000KT 10SM CLR 24/23 A2996 260 93 1400 000/00 RMK AO2 T02390228
53988KBKB BKB20190703214011107/03/19 21:40:31  5-MIN KBKB 040340Z AUTO 00000KT 10SM FEW003 24/23 A2996 260 93 1400 000/00 RMK AO2 T02390228
53988KBKB BKB20190703214511107/03/19 21:45:31  5-MIN KBKB 040345Z AUTO 00000KT 10SM SCT003 24/23 A2996 260 97 1400 000/00 RMK AO2 T02390233
53988KBKB BKB20190703215011107/03/19 21:50:31  5-MIN KBKB 040350Z AUTO 00000KT 10SM BKN003 24/23 A2996 260 97 1400 000/00 RMK AO2 T02390233
53988KBKB BKB20190703215511707/03/19 21:55:31  5-MIN KBKB 040355Z AUTO 00000KT 9SM BKN003 24/23 A2996 260 97 1400 000/00 RMK AO2 SLP171 T02390233
53988KBKB BKB20190703220011007/03/19 22:00:31  5-MIN KBKB 040400Z AUTO VRB03KT 9SM OVC003 24/23 A2996 260 97 1400 VRB/03 RMK AO2 T02390233
53988KBKB BKB20190703220511007/03/19 22:05:31  5-MIN KBKB 040405Z AUTO 00000KT 9SM OVC003 24/23 A2996 260 97 1400 000/00 RMK AO2 T02390233
53988KBKB BKB20190703221011007/03/19 22:10:31  5-MIN KBKB 040410Z AUTO 00000KT 9SM OVC003 24/23 A2996 260 97 1400 000/00 RMK AO2 T02390233
53988KBKB BKB20190703221511007/03/19 22:15:31  5-MIN KBKB 040415Z AUTO 00000KT 9SM OVC003 24/23 A2996 260 97 1400 000/00 RMK AO2 T02390233
53988KBKB BKB20190703222011007/03/19 22:20:31  5-MIN KBKB 040420Z AUTO 00000KT 9SM OVC003 24/23 A2997 260 97 1400 000/00 RMK AO2 T02390233
53988KBKB BKB20190703222511107/03/19 22:25:31  5-MIN KBKB 040425Z AUTO 00000KT 10SM BKN003 24/23 A2997 260 97 1400 000/00 RMK AO2 T02390233
53988KBKB BKB20190703223019207/03/19 22:30:31  5-MIN KBKB 040430Z AUTO 00000KT 9SM BKN003 24/23 A2997 250 97 1400 000/00 RMK AO2 T0239023307/03/19 22UTO 00000KT 9SM BKN004 24/23 A2997 250 93 1400 000/00 RMK AO2 T02390228
53988KBKB BKB20190703225011007/03/19 22:50:31  5-MIN KBKB 040450Z AUTO 00000KT 9SM BKN004 24/23 A2997 250 93 1400 000/00 RMK AO2 T02390228
53988KBKB BKB20190703225510007/03/19 22:55:31  5-MIN KBKB 040455Z AUTO 00000KT 9SM SCT004 24/23 A2997 250 93 1400 000/00 RMK AO2
53988KBKB BKB20190703230018807/03/19 23:00:31  5-MIN KBKB 040500Z AUTO 00000KT 10SM SCT004 24/23 A2997 250 93 1400 000/00 RMK AO2 T0239022040725Z AUTO 00000KT 10SM CLR 23/22 A2998 250 93 1200 000/00 RMK AO2 T02280217
53988KBKB BKB20190704013010807/04/19 01:30:31  5-MIN KBKB 040730Z AUTO 00000KT 10SM CLR 23/22 A2998 250 93 1200 000/00 RMK AO2 T02280217
53988KBKB BKB20190704013511107/04/19 01:35:31  5-MIN KBKB 040735Z AUTO 00000KT 10SM FEW020 23/22 A2997 250 93 1300 000/00 RMK AO2 T02280217
53988KBKB BKB20190704014014407/04/19 01:40:31  5-MIN KBKB 040740Z AUTO 00000KT 10SM FEW020 23/22 A2997 250 93 1300 000/00 RMK4/23 A2996 260 97 1400 000/00 RMK AO2 T02390233
53988KBKB BKB20190704041011707/04/19 04:10:31  5-MIN KBKB 041010Z AUTO 00000KT 2 1/2SM BR OVC002 24/23 A2996 260 97 1400 000/00 RMK AO2 T02390233
53988KBKB BKB20190704041511307/04/19 04:15:31  5-MIN KBKB 041015Z AUTO 00000KT 2SM BR OVC002 24/23 A2996 260 97 1400 000/00 RMK AO2 T02390233
53988KBKB BKB20190704042011307/04/19 04:20:31  5-MIN KBKB 041020Z AUTO 00000KT 2SM BR OVC002 24/23 A2996 260 97 1400 000/00 RMK AO2 T02390233
53988KBKB BKB20190704060011707/04/19 06:00:31  5-MIN KBKB 041200Z AUTO 00000KT 2 1/2SM BR OVC002 24/23 A2997 250 97 1400 000/00 RMK AO2 T02390233
53988KBKB BKB20190704060511307/04/19 06:05:31  5-MIN KBKB 041205Z AUTO 00000KT 3SM BR OVC002 24/23 A2997 250 97 1400 000/00 RMK AO2 T02390233
53988KBKB BKB20190704061011307/04/19 06:10:31  5-MIN KBKB 041210Z AUTO 00000KT 4SM BR OVC002 24/23 A2998 250 97 1400 000/00 RMK AO2 T02390233
53988KBKB BKB20190704061511307/04/19 06:15:31  5-MIN KBKB 041215Z AUTO 00000KT 4SM BR OVC002 24/23 A2998 240 97 1400 000/00 RMK AO2 T02390233
53988KBKB BKB20190704062011307/04/19 06:20:31  5-MIN KBKB 041220Z AUTO 00000KT 5SM BR OVC002 24/23 A2999 240 97 1400 000/00 RMK AO2 T02390233
53988KBKB BKB20190704062511307/04/19 06:25:31  5-MIN KBKB 041225Z AUTO 00000KT 5SM BR OVC002 24/23 A2999 230 93 1400 000/00 RMK AO2 T02440233
53988KBKB BKB20190704063011307/04/19 06:30:31  5-MIN KBKB 041230Z AUTO 00000KT 5SM BR OVC002 24/24 A3000 230 97 1400 000/00 RMK AO2 T02440239
53988KBKB BKB20190704063511307/04/19 06:35:31  5-MIN KBKB 041235Z AUTO 00000KT 6SM BR OVC002 24/24 A3000 230 97 1400 000/00 RMK AO2 T02440239
53988KBKB BKB20190704064011007/04/19 06:40:31  5-MIN KBKB 041240Z AUTO 00000KT 7SM OVC002 24/24 A3000 220 97 1400 000/00 RMK AO2 T02440239
53988KBKB BKB20190704064511007/04/19 06:45:31  5-MIN KBKB 041245Z AUTO VRB03KT 8SM OVC002 25/24 A3000 220 97 1500 VRB/03 RMK AO2 T02500244
53988KBKB BKB20190704065011007/04/19 06:50:31  5-MIN KBKB 041250Z AUTO 00000KT 9SM OVC002 25/24 A3001 220 93 1500 000/00 RMK AO2 T02500239
53988KBKB BKB20190704065511807/04/19 06:55:31  5-MIN KBKB 041255Z AUTO 00000KT 10SM OVC003 25/24 A3001 220 97 1500 000/00 RMK AO2 SLP187 T02500244
53988KBKB BKB20190704070011107/04/19 07:00:31  5-MIN KBKB 041300Z AUTO 00000KT 10SM BKN003 26/24 A3001 220 93 1500 000/00 RMK AO2 T02560244
53988KBKB BKB20190704070512307/04/19 07:05:31  5-MIN KBKB 041305Z AUTO 19003KT 10SM BKN003 26/24 A3002 210 93 1500 180/03 RMK AO2 CIG 002V006 T02560244
53988KBKB BKB20190704071013007/04/19 07:10:31  5-MIN KBKB 041310Z AUTO VRB03KT 10SM BKN005 BKN080 26/24 A3002 210 90 1600 VRB/03 RMK AO2 CIG 003V006 T02610244
53988KBKB BKB20190704071511807/04/19 07:15:31  5-MIN KBKB 041315Z AUTO VRB03KT 10SM SCT005 BKN080 26/24 A3002 200 93 1500 VRB/03 RMK AO2 T02560244
53988KBKB BKB20190704072011807/04/19 07:20:31  5-MIN KBKB 041320Z AUTO VRB03KT 10SM FEW005 BKN080 26/24 A3003 200 93 1500 VRB/03 RMK AO2 T02560244
53988KBKB BKB20190704072511807/04/19 07:25:31  5-MIN KBKB 041325Z AUTO 21004KT 10SM FEW005 BKN085 26/24 A3003 200 90 1600 210/04 RMK AO2 T02610244
53988KBKB BKB20190704073012507/04/19 07:30:31  5-MIN KBKB 041330Z AUTO 00000KT 10SM FEW005 SCT065 OVC085 26/25 A3003 190 93 1600 000/00 RMK AO2 T02610250
53988KBKB BKB20190704073511807/04/19 07:35:31  5-MIN KBKB 041335Z AUTO VRB03KT 10SM SCT060 BKN085 26/24 A3004 190 90 1600 VRB/03 RMK AO2 T02610244
53988KBKB BKB20190704074012507/04/19 07:40:31  5-MIN KBKB 041340Z AUTO 00000KT 10SM FEW035 BKN060 OVC085 26/24 A3003 190 90 1600 000/00 RMK AO2 T02610244
53988KBKB BKB20190704074512507/04/19 07:45:31  5-MIN KBKB 041345Z AUTO 00000KT 10SM FEW009 BKN065 OVC090 27/24 A3002 200 87 1600 000/00 RMK AO2 T02670244
53988KBKB BKB20190704075012507/04/19 07:50:31  5-MIN KBKB 041350Z AUTO 00000KT 10SM FEW009 BKN065 BKN090 27/24 A3002 210 87 1600 000/00 RMK AO2 T02670244
53988KBKB BKB20190704075513207/04/19 07:55:31  5-MIN KBKB 041355Z AUTO 00000KT 10SM FEW009 BKN065 27/25 A3001 210 87 1700 000/00 RMK AO2 PRESFR SLP188 T02720250
53988KBKB BKB20190704080011807/04/19 08:00:31  5-MIN KBKB 041400Z AUTO 00000KT 10SM FEW009 SCT060 27/25 A3001 220 87 1700 000/00 RMK AO2 T02720250
53988KBKB BKB20190704080511807/04/19 08:05:31  5-MIN KBKB 041405Z AUTO 21003KT 10SM SCT009 BKN065 27/24 A3001 210 84 1700 200/03 RMK AO2 T02720244
53988KBKB BKB20190704081012307/04/19 08:10:31  5-MIN KBKB 041410Z AUTO 00000KT 10SM BKN009 27/25 A3001 220 87 1700 000/00 RMK AO2 CIG 007V012 T02720250
53988KBKB BKB20190704081511107/04/19 08:15:31  5-MIN KBKB 041415Z AUTO 00000KT 10SM BKN009 27/25 A3001 210 87 1700 000/00 RMK AO2 T02720250
53988KBKB BKB20190704082011107/04/19 08:20:31  5-MIN KBKB 041420Z AUTO 00000KT 10SM BKN009 27/25 A3001 210 87 1700 000/00 RMK AO2 T02720250
53988KBKB BKB20190704082511107/04/19 08:25:31  5-MIN KBKB 041425Z AUTO 00000KT 10SM BKN009 28/26 A3001 210 85 1800 000/00 RMK AO2 T02830256
53988KBKB BKB20190704083011107/04/19 08:30:31  5-MIN KBKB 041430Z AUTO 00000KT 10SM BKN009 28/25 A3001 210 82 1800 000/00 RMK AO2 T02830250
53988KBKB BKB20190704083512307/04/19 08:35:31  5-MIN KBKB 041435Z AUTO 00000KT 10SM BKN009 28/25 A3001 210 82 1800 000/00 RMK AO2 CIG 008V012 T02830250
53988KBKB BKB20190704084011807/04/19 08:40:31  5-MIN KBKB 041440Z AUTO VRB03KT 10SM SCT009 SCT013 28/25 A3001 210 84 1800 VRB/03 RMK AO2 T02780250
53988KBKB BKB20190704084511807/04/19 08:45:31  5-MIN KBKB 041445Z AUTO VRB04KT 10SM SCT009 SCT015 27/25 A3001 210 87 1700 VRB/04 RMK AO2 T02720250
53988KBKB BKB20190704085011807/04/19 08:50:31  5-MIN KBKB 041450Z AUTO VRB03KT 10SM FEW009 SCT015 28/24 A3001 210 82 1800 VRB/03 RMK AO2 T02780244
53988KBKB BKB20190704085512407/04/19 08:55:31  5-MIN KBKB 041455Z AUTO VRB03KT 10SM FEW015 28/25 A3001 210 82 1800 VRB/03 RMK AO2 SLP188 T02830250 53004
53988KBKB BKB20190704090011107/04/19 09:00:31  5-MIN KBKB 041500Z AUTO 17003KT 10SM SCT015 29/25 A3001 210 79 1900 160/03 RMK AO2 T02890250
53988KBKB BKB20190704090511107/04/19 09:05:31  5-MIN KBKB 041505Z AUTO VRB04KT 10SM SCT015 29/25 A3001 210 76 2000 VRB/04 RMK AO2 T02940250
53988KBKB BKB20190704091011107/04/19 09:10:31  5-MIN KBKB 041510Z AUTO VRB03KT 10SM FEW015 29/25 A3001 210 76 2000 VRB/03 RMK AO2 T02940250
53988KBKB BKB20190704091511107/04/19 09:15:31  5-MIN KBKB 041515Z AUTO VRB03KT 10SM FEW017 29/25 A3001 220 76 2000 VRB/03 RMK AO2 T02940250
53988KBKB BKB20190704092011107/04/19 09:20:31  5-MIN KBKB 041520Z AUTO 00000KT 10SM SCT017 29/24 A3001 210 74 2000 000/00 RMK AO2 T02940244
53988KBKB BKB20190704092511107/04/19 09:25:31  5-MIN KBKB 041525Z AUTO VRB04KT 10SM SCT017 29/25 A3001 210 76 2000 VRB/04 RMK AO2 T02940250
53988KBKB BKB20190704093011107/04/19 09:30:31  5-MIN KBKB 041530Z AUTO VRB03KT 10SM SCT018 30/25 A3001 220 74 2000 VRB/03 RMK AO2 T03000250
53988KBKB BKB20190704093511807/04/19 09:35:31  5-MIN KBKB 041535Z AUTO VRB04KT 10SM SCT018 SCT025 31/25 A3001 210 72 2100 VRB/04 RMK AO2 T03060250
53988KBKB BKB20190704094011807/04/19 09:40:31  5-MIN KBKB 041540Z AUTO VRB04KT 10SM BKN020 BKN025 31/25 A3001 220 72 2100 VRB/04 RMK AO2 T03060250
53988KBKB BKB20190704094511107/04/19 09:45:31  5-MIN KBKB 041545Z AUTO VRB03KT 10SM BKN020 30/25 A3001 220 74 2000 VRB/03 RMK AO2 T03000250
53988KBKB BKB20190704095011807/04/19 09:50:31  5-MIN KBKB 041550Z AUTO VRB03KT 10SM SCT021 SCT027 31/24 A3001 220 69 2100 VRB/03 RMK AO2 T03060244
53988KBKB BKB20190704095512507/04/19 09:55:31  5-MIN KBKB 041555Z AUTO VRB03KT 10SM SCT021 BKN027 31/25 A3001 220 69 2100 VRB/03 RMK AO2 SLP186 T03110250
53988KBKB BKB20190704100011107/04/19 10:00:31  5-MIN KBKB 041600Z AUTO VRB03KT 10SM SCT023 31/24 A3001 220 69 2100 VRB/03 RMK AO2 T03060244
53988KBKB BKB20190704100511107/04/19 10:05:31  5-MIN KBKB 041605Z AUTO 00000KT 10SM SCT023 31/25 A3001 220 69 2100 000/00 RMK AO2 T03110250
53988KBKB BKB20190704101011107/04/19 10:10:31  5-MIN KBKB 041610Z AUTO 00000KT 10SM SCT023 31/25 A3001 210 72 2100 000/00 RMK AO2 T03060250
53988KBKB BKB20190704101511107/04/19 10:15:31  5-MIN KBKB 041615Z AUTO 22004KT 10SM SCT023 31/24 A3001 210 67 2100 210/04 RMK AO2 T03110244
53988KBKB BKB20190704102011107/04/19 10:20:31  5-MIN KBKB 041620Z AUTO VRB03KT 10SM SCT023 32/24 A3001 210 65 2200 VRB/03 RMK AO2 T03170244
53988KBKB BKB20190704102511807/04/19 10:25:31  5-MIN KBKB 041625Z AUTO VRB05KT 10SM SCT023 SCT032 32/25 A3001 210 67 2200 VRB/05 RMK AO2 T03170250
53988KBKB BKB20190704103011807/04/19 10:30:31  5-MIN KBKB 041630Z AUTO VRB03KT 10SM FEW024 SCT032 31/24 A3001 210 67 2100 VRB/03 RMK AO2 T03110244
53988KBKB BKB20190704103512507/04/19 10:35:31  5-MIN KBKB 041635Z AUTO VRB03KT 10SM FEW024 SCT029 SCT034 32/25 A3001 210 67 2200 VRB/03 RMK AO2 T03170250
53988KBKB BKB20190704104011807/04/19 10:40:31  5-MIN KBKB 041640Z AUTO VRB04KT 10SM SCT026 SCT032 31/24 A3001 210 67 2100 VRB/04 RMK AO2 T03110244
53988KBKB BKB20190704104511107/04/19 10:45:31  5-MIN KBKB 041645Z AUTO 00000KT 10SM BKN028 31/25 A3001 210 69 2100 000/00 RMK AO2 T03110250
53988KBKB BKB20190704105011807/04/19 10:50:31  5-MIN KBKB 041650Z AUTO 00000KT 10SM SCT028 BKN035 31/24 A3001 210 67 2100 000/00 RMK AO2 T03110244
53988KBKB BKB20190704105512507/04/19 10:55:31  5-MIN KBKB 041655Z AUTO VRB04KT 10SM SCT028 BKN036 32/25 A3001 210 67 2200 VRB/04 RMK AO2 SLP188 T03170250
53988KBKB BKB20190704110011807/04/19 11:00:31  5-MIN KBKB 041700Z AUTO 00000KT 10SM SCT030 BKN040 32/24 A3001 210 63 2300 000/00 RMK AO2 T03220244
53988KBKB BKB20190704110511807/04/19 11:05:31  5-MIN KBKB 041705Z AUTO VRB04KT 10SM SCT030 BKN038 32/24 A3001 210 63 2300 VRB/04 RMK AO2 T03220244
53988KBKB BKB20190704111010107/04/19 11:10:31  5-MIN KBKB 041710Z AUTO 10SM SCT032 31/24 A3002 210 67 2100 M /M RMK AO2 T03110244
53988KBKB BKB20190704111511807/04/19 11:15:31  5-MIN KBKB 041715Z AUTO 00000KT 10SM SCT032 BKN041 32/24 A3002 210 65 2200 000/00 RMK AO2 T03170244
53988KBKB BKB20190704112012507/04/19 11:20:31  5-MIN KBKB 041720Z AUTO VRB04KT 10SM SCT032 BKN039 BKN046 32/24 A3002 210 63 2300 VRB/04 RMK AO2 T03220244
53988KBKB BKB20190704112511807/04/19 11:25:31  5-MIN KBKB 041725Z AUTO VRB03KT 10SM BKN035 BKN046 32/24 A3002 210 61 2300 VRB/03 RMK AO2 T03220239
53988KBKB BKB20190704113011807/04/19 11:30:31  5-MIN KBKB 041730Z AUTO 00000KT 10SM BKN035 BKN046 33/24 A3001 210 61 2300 000/00 RMK AO2 T03280244
53988KBKB BKB20190704113511807/04/19 11:35:31  5-MIN KBKB 041735Z AUTO VRB03KT 10SM BKN035 BKN046 33/25 A3001 210 61 2400 VRB/03 RMK AO2 T03330250
53988KBKB BKB20190704114011807/04/19 11:40:31  5-MIN KBKB 041740Z AUTO 00000KT 10SM SCT036 BKN048 33/24 A3001 210 61 2300 000/00 RMK AO2 T03280244
53988KBKB BKB20190704114511807/04/19 11:45:31  5-MIN KBKB 041745Z AUTO VRB03KT 10SM BKN036 BKN055 32/25 A3001 210 65 2300 VRB/03 RMK AO2 T03220250
53988KBKB BKB20190704115012507/04/19 11:50:31  5-MIN KBKB 041750Z AUTO VRB06KT 10SM SCT034 SCT043 BKN055 33/24 A3001 220 61 2300 VRB/06 RMK AO2 T03280244
53988KBKB BKB20190704115513607/04/19 11:55:31  5-MIN KBKB 041755Z AUTO VRB03KT 10SM FEW036 33/24 A3001 220 61 2300 VRB/03 RMK AO2 SLP187 T03280244 10333 20239 51013
53988KBKB BKB20190704120011107/04/19 12:00:31  5-MIN KBKB 041800Z AUTO VRB03KT 10SM SCT034 32/24 A3001 220 63 2300 VRB/03 RMK AO2 T03220244
53988KBKB BKB20190704120511107/04/19 12:05:31  5-MIN KBKB 041805Z AUTO VRB04KT 10SM SCT034 33/25 A3001 220 61 2400 VRB/04 RMK AO2 T03330250
53988KBKB BKB20190704121011107/04/19 12:10:31  5-MIN KBKB 041810Z AUTO VRB03KT 10SM FEW034 33/25 A3001 220 61 2400 VRB/03 RMK AO2 T03330250
53988KBKB BKB20190704121511107/04/19 12:15:31  5-MIN KBKB 041815Z AUTO VRB05KT 10SM FEW034 34/24 A3001 220 57 2500 VRB/05 RMK AO2 T03390244
53988KBKB BKB20190704122011807/04/19 12:20:31  5-MIN KBKB 041820Z AUTO VRB05KT 10SM FEW036 34/24 A3000  A2999 230 59 2400 VRB/05 RMK AO2 T03330244
53988KBKB BKB20190704133511807/04/19 13:35:31  5-MIN KBKB 041935Z AUTO VRB05KT 10SM SCT041 SCT050 33/24 A2999 230 61 2400 VRB/05 RMK AO2 T03280244
53988KBKB BKB20190704134011807/04/19 13:40:31  5-MIN KBKB 041940Z AUTO VRB03KT 10SM SCT041 SCT050 32/24 A2999 240 63 2300 VRB/03 RMK AO2 T03220244
53988KBKB BKB20190704134511807/04/19 13:45:31  5-MIN KBKB 041945Z AUTO VRB04KT 10SM SCT041 BKN050 34/24 A2999 240 57 2500 VRB/04 RMK AO2 T03390244
53988KBKB BKB20190704135011807/04/19 13:50:31  5-MIN KBKB 041950Z AUTO VRB06KT 10SM SCT041 BKN050 34/24 A2999 240 57 2500 VRB/06 RMK AO2 T03390244
53988KBKB BKB20190704135014207/04/19 13:50:31  5-MIN KBKB 041950Z AUTO VRB06KT 10SM SCT041 BKN050 34/24 A2999 240 57 2500 VRB/06 RMK AO2 T0332400 VRB/05 RMK AO2 T03330244
53988KBKB BKB20190704135512507/04/19 13:55:31  5-MIN KBKB 041955Z AUTO VRB04KT 10SM SCT041 SCT050 33/24 A2999 240 59 2400 VRB/04 RMK AO2 SLP179 T03330244
53988KBKB BKB20190704140011807/04/19 14:00:31  5-MIN KBKB 042000Z AUTO VRB04KT 10SM SCT044 BKN065 32/24 A2998 240 63 2300 VRB/04 RMK AO2 T03220244
53988KBKB BKB20190704140013507/04/19 14:00:31  5-MIN KBKB 042000Z AUTO VRB04KT 10SM SCT044 BKN065 32/24 A2998 240 63 2300A2999 240 63 2300 VRB/03 RMK AO2 T03220244
53988KBKB BKB20190704140512507/04/19 14:05:31  5-MIN KBKB 042005Z AUTO VRB03KT 10SM FEW042 SCT049 SCT060 33/24 A2998 240 61 2400 VRB/03 RMK AO2 T03280244
53988KBKB BKB20190704141011107/04/19 14:10:31  5-MIN KBKB 042010Z AUTO VRB04KT 10SM SCT042 34/24 A2998 240 57 2500 VRB/04 RMK AO2 T03390244
53988KBKB BKB20190704141012607/04/19 14:10:31  5-MIN KBKB 042010Z AUTO VRB04KT 10SM SCT042 34/24 A2998 240 57 2 A2999 240 57 2500 VRB/06 RMK AO2 T03390244
53988KBKB BKB20190704141511107/04/19 14:15:31  5-MIN KBKB 042015Z AUTO VRB03KT 10SM SCT042 34/24 A2998 250 57 2500 VRB/03 RMK AO2 T03390244
53988KBKB BKB20190704142011107/04/19 14:20:31  5-MIN KBKB 042020Z AUTO VRB04KT 10SM SCT042 34/24 A2997 250 55 2500 VRB/04 RMK AO2 T03390239
53988KBKB BKB20190704142511107/04/19 14:25:31  5-MIN KBKB 042025Z AUTO VRB06KT 10SM FEW042 34/23 A2997 250 53 2500 VRB/06 RMK AO2 T03390233
53988KBKB BKB20190704143011107/04/19 14:30:31  5-MIN KBKB 042030Z AUTO VRB06KT 10SM FEW042 34/23 A2997 250 53 2500 VRB/06 RMK AO2 T03390233
53988KBKB BKB20190704143511807/04/19 14:35:31  5-MIN KBKB 042035Z AUTO VRB05KT 10SM SCT042 SCT050 34/24 A2997 250 55 2500 VRB/05 RMK AO2 T03390239
53988KBKB BKB20190704144011807/04/19 14:40:31  5-MIN KBKB 042040Z AUTO VRB04KT 10SM FEW042 SCT050 34/24 A2997 250 55 2500 VRB/04 RMK AO2 T03390239
53988KBKB BKB20190704144511807/04/19 14:45:31  5-MIN KBKB 042045Z AUTO 00000KT 10SM FEW044 FEW050 34/24 A2997 250 53 2600 000/00 RMK AO2 T03440239
53988KBKB BKB20190704145011807/04/19 14:50:31  5-MIN KBKB 042050Z AUTO VRB04KT 10SM FEW044 FEW050 34/24 A2997 250 53 2600 VRB/04 RMK AO2 T03440239
53988KBKB BKB20190704145516707/04/19 14:55:31  5-MIN KBKB 042055Z AUTO VRB04KT 10SM FEW044 34/23 A2997 250 50 2600 VRB/04 RMK AO2 SLP173 T03440228 50001 A2996 260 63 2300 VRB/03 RMK AO2 T03170239
53988KBKB BKB20190704171011807/04/19 17:10:31  5-MIN KBKB 042310Z AUTO VRB03KT 10SM SCT037 SCT048 32/24 A2996 260 63 2300 VRB/03 RMK AO2 T03220244
53988KBKB BKB20190704171511807/04/19 17:15:31  5-MIN KBKB 042315Z AUTO VRB03KT 10SM SCT037 SCT048 32/24 A2996 260 63 2300 VRB/03 RMK AO2 T03170239
53988KBKB BKB20190704172011107/04/19 17:20:31  5-MIN KBKB 042320Z AUTO VRB03KT 10SM SCT037 31/24 A2997 260 65 2200 VRB/03 RMK AO2 T03110239
53988KBKB BKB20190704172511107/04/19 17:25:31  5-MIN KBKB 042325Z AUTO 00000KT 10SM SCT037 32/24 A2997 260 63 2300 000/00 RMK AO2 T03220244
53988KBKB BKB20190704172514707/04/19 17:25:31  5-MIN KBKB 042325Z AUTO 00000KT 10SM SCT037 32/24 A2997 260 63 2300 000/00 RMK AO2 T0322024407/04/19400 VRB/03 RMK AO2 T03280239
53988KBKB BKB20190704173011107/04/19 17:30:31  5-MIN KBKB 042330Z AUTO VRB05KT 10SM SCT037 32/24 A2997 250 63 2300 VRB/05 RMK AO2 T03170239
53988KBKB BKB20190704173511107/04/19 17:35:31  5-MIN KBKB 042335Z AUTO VRB04KT 10SM FEW037 32/24 A2997 250 63 2300 VRB/04 RMK AO2 T03170239
53988KBKB BKB20190704173516107/04/19 17:35:31  5-MIN KBKB 042335Z AUTO VRB04KT 10SM FEW037 32/24 A2997 250 63 2300 VRB/04 RMK AO2 T0317023907/04/19A2996 260 63 2300 VRB/03 RMK AO2 T03170239
53988KBKB BKB20190704174011107/04/19 17:40:31  5-MIN KBKB 042340Z AUTO 00000KT 10SM FEW037 31/24 A2997 250 65 2200 000/00 RMK AO2 T03110239
53988KBKB BKB20190704174510807/04/19 17:45:31  5-MIN KBKB 042345Z AUTO VRB04KT 10SM CLR 32/24 A2997 250 65 2300 VRB/04 RMK AO2 T03170244
53988KBKB BKB20190704174515907/04/19 17:45:31  5-MIN KBKB 042345Z AUTO VRB04KT 10SM CLR 32/24 A2997 250 65 2300 VRB/04 RMK AO2 T0317024407/04/19 17:57 260 63 2300 000/00 RMK AO2 T03220244
53988KBKB BKB20190704175011107/04/19 17:50:31  5-MIN KBKB 042350Z AUTO 00000KT 10SM FEW036 32/24 A2997 250 65 2300 000/00 RMK AO2 T03170244
53988KBKB BKB20190704175513607/04/19 17:55:31  5-MIN KBKB 042355Z AUTO 00000KT 10SM SCT033 31/24 A2997 250 67 2200 000/00 RMK AO2 SLP175 T03110244 10344 20311 58014
53988KBKB BKB20190704175516607/04/19 17:55:31  5-MIN KBKB 042355Z AUTO 00000KT 10SM SCT033 31/24 A2997 250 67 2200 000/00 RMK AO2 SLP175 T03110244 10344 20311 58 63 2300 VRB/04 RMK AO2 T03170239
53988KBKB BKB20190706130511007/06/19 13:05:31  5-MIN KBKB 061905Z AUTO VRB03KT 10SM CLR 34/20 A3007 160 42 2400 VRB/03 RMK AO2 T03440200 $
53988KBKB BKB20190706131011007/06/19 13:10:31  5-MIN KBKB 061910Z AUTO 00000KT 10SM CLR 34/19 A3007 160 40 2400 000/00 RMK AO2 T03440194 $
53988KBKB BKB20190706131511007/06/19 13:15:31  5-MIN KBKB 061915Z AUTO 00000KT 10SM CLR 34/19 A3007 160 40 2400 000/00 RMK AO2 T03440194 $
53988KBKB BKB20190706132011007/06/19 13:20:31  5-MIN KBKB 061920Z AUTO 00000KT 10SM CLR 34/19 A3006 170 40 2500 000/00 RMK AO2 T03440194 $
53988KBKB BKB20190706132511007/06/19 13:25:31  5-MIN KBKB 061925Z AUTO VRB05KT 10SM CLR 34/19 A3006 170 40 2500 VRB/05 RMK AO2 T03440194 $
53988KBKB BKB20190706133011007/06/19 13:30:31  5-MIN KBKB 061930Z AUTO VRB03KT 10SM CLR 34/19 A3006 170 40 2500 VRB/03 RMK AO2 T03440194 $
53988KBKB BKB20190706133511007/06/19 13:35:31  5-MIN KBKB 061935Z AUTO VRB03KT 10SM CLR 35/19 A3006 170 38 2500 VRB/03 RMK AO2 T03500189 $
53988KBKB BKB20190706134011007/06/19 13:40:31  5-MIN KBKB 061940Z AUTO VRB03KT 10SM CLR 35/19 A3005 170 38 2500 VRB/03 RMK AO2 T03500189 $
53988KBKB BKB20190706134511007/06/19 13:45:31  5-MIN KBKB 061945Z AUTO 00000KT 10SM CLR 36/20 A3005 180 39 2600 000/00 RMK AO2 T03560200 $
53988KBKB BKB20190706135011007/06/19 13:50:31  5-MIN KBKB 061950Z AUTO 34003KT 10SM CLR 36/19 A3005 180 38 2600 340/03 RMK AO2 T03560194 $
53988KBKB BKB20190706135511707/06/19 13:55:31  5-MIN KBKB 061955Z AUTO 00000KT 10SM CLR 35/19 A3005 180 38 2500 000/00 RMK AO2 SLP199 T03500189 $
53988KBKB BKB20190706140011007/06/19 14:00:31  5-MIN KBKB 062000Z AUTO 00000KT 10SM CLR 36/19 A3004 180 38 2600 000/00 RMK AO2 T03560194 $
53988KBKB BKB20190706140511007/06/19 14:05:31  5-MIN KBKB 062005Z AUTO VRB04KT 10SM CLR 35/19 A3004 190 38 2500 VRB/04 RMK AO2 T03500189 $
53988KBKB BKB20190706141011007/06/19 14:10:31  5-MIN KBKB 062010Z AUTO VRB03KT 10SM CLR 35/19 A3004 190 38 2500 VRB/03 RMK AO2 T03500189 $
53988KBKB BKB20190706141511007/06/19 14:15:31  5-MIN KBKB 062015Z AUTO VRB03KT 10SM CLR 35/19 A3004 190 38 2500 VRB/03 RMK AO2 T03500189 $
53988KBKB BKB20190706142011007/06/19 14:20:31  5-MIN KBKB 062020Z AUTO VRB03KT 10SM CLR 35/19 A3003 190 38 2500 VRB/03 RMK AO2 T03500189 $
53988KBKB BKB20190706142511007/06/19 14:25:31  5-MIN KBKB 062025Z AUTO 00000KT 10SM CLR 36/19 A3003 200 37 2600 000/00 RMK AO2 T03560189 $
53988KBKB BKB20190706143011007/06/19 14:30:31  5-MIN KBKB 062030Z AUTO VRB03KT 10SM CLR 35/19 A3003 200 38 2600 VRB/03 RMK AO2 T03500189 $
53988KBKB BKB20190706143511007/06/19 14:35:31  5-MIN KBKB 062035Z AUTO 30004KT 10SM CLR 35/19 A3003 200 38 2600 300/04 RMK AO2 T03500189 $
53988KBKB BKB20190706144011007/06/19 14:40:31  5-MIN KBKB 062040Z AUTO 00000KT 10SM CLR 36/19 A3002 200 37 2600 000/00 RMK AO2 T03560189 $
53988KBKB BKB20190706144511007/06/19 14:45:31  5-MIN KBKB 062045Z AUTO 00000KT 10SM CLR 35/18 A3002 210 36 2600 000/00 RMK AO2 T03500183 $
53988KBKB BKB20190706145011007/06/19 14:50:31  5-MIN KBKB 062050Z AUTO 00000KT 10SM CLR 34/19 A3002 210 40 2500 000/00 RMK AO2 T03440194 $
53988KBKB BKB20190706145512307/06/19 14:55:31  5-MIN KBKB 062055Z AUTO VRB03KT 10SM CLR 35/19 A3002 210 39 2600 VRB/03 RMK AO2 SLP188 T03500194 58006 $
53988KBKB BKB20190706150011007/06/19 15:00:31  5-MIN KBKB 062100Z AUTO 25005KT 10SM CLR 35/19 A3001 210 38 2600 250/05 RMK AO2 T03500189 $
53988KBKB BKB20190706150511007/06/19 15:05:31  5-MIN KBKB 062105Z AUTO 00000KT 10SM CLR 35/19 A3001 210 38 2600 000/00 RMK AO2 T03500189 $
53988KBKB BKB20190706151011007/06/19 15:10:31  5-MIN KBKB 062110Z AUTO VRB03KT 10SM CLR 35/19 A3001 220 38 2600 VRB/03 RMK AO2 T03500189 $
53988KBKB BKB20190706151511007/06/19 15:15:31  5-MIN KBKB 062115Z AUTO 00000KT 10SM CLR 35/18 A3001 220 35 2600 000/00 RMK AO2 T03500178 $
53988KBKB BKB20190706152011007/06/19 15:20:31  5-MIN KBKB 062120Z AUTO VRB03KT 10SM CLR 34/18 A3000 220 39 2500 VRB/03 RMK AO2 T03390183 $
53988KBKB BKB20190706152511007/06/19 15:25:31  5-MIN KBKB 062125Z AUTO 00000KT 10SM CLR 34/19 A3000 230 39 2500 000/00 RMK AO2 T03440189 $
53988KBKB BKB20190706153011007/06/19 15:30:31  5-MIN KBKB 062130Z AUTO 00000KT 10SM CLR 35/18 A3000 230 36 2600 000/00 RMK AO2 T03500183 $
53988KBKB BKB20190706153511007/06/19 15:35:31  5-MIN KBKB 062135Z AUTO 00000KT 10SM CLR 35/18 A2999 230 36 2600 000/00 RMK AO2 T03500183 $
53988KBKB BKB20190706154011007/06/19 15:40:31  5-MIN KBKB 062140Z AUTO VRB03KT 10SM CLR 35/19 A3000 230 38 2600 VRB/03 RMK AO2 T03500189 $
53988KBKB BKB20190706154511007/06/19 15:45:31  5-MIN KBKB 062145Z AUTO 00000KT 10SM CLR 34/18 A2999 230 39 2500 000/00 RMK AO2 T03390183 $
53988KBKB BKB20190706155011007/06/19 15:50:31  5-MIN KBKB 062150Z AUTO 00000KT 10SM CLR 35/19 A2999 230 39 2600 000/00 RMK AO2 T03500194 $
53988KBKB BKB20190706155511707/06/19 15:55:31  5-MIN KBKB 062155Z AUTO 00000KT 10SM CLR 35/20 A2999 230 40 2600 000/00 RMK AO2 SLP181 T03500200 $
53988KBKB BKB20190706160011007/06/19 16:00:31  5-MIN KBKB 062200Z AUTO 00000KT 10SM CLR 34/19 A2999 230 40 2500 000/00 RMK AO2 T03440194 $
53988KBKB BKB20190706160511007/06/19 16:05:31  5-MIN KBKB 062205Z AUTO VRB04KT 10SM CLR 35/20 A2999 230 40 2600 VRB/04 RMK AO2 T03500200 $
53988KBKB BKB20190706161011007/06/19 16:10:31  5-MIN KBKB 062210Z AUTO VRB04KT 10SM CLR 35/20 A2999 240 40 2600 VRB/04 RMK AO2 T03500200 $
53988KBKB BKB20190706161511007/06/19 16:15:31  5-MIN KBKB 062215Z AUTO 00000KT 10SM CLR 35/19 A2999 240 39 2600 000/00 RMK AO2 T03500194 $
53988KBKB BKB20190706162011007/06/19 16:20:31  5-MIN KBKB 062220Z AUTO 00000KT 10SM CLR 35/19 A2999 240 39 2600 000/00 RMK AO2 T03500194 $
53988KBKB BKB20190706162511007/06/19 16:25:31  5-MIN KBKB 062225Z AUTO 34004KT 10SM CLR 36/20 A2998 240 39 2700 340/04 RMK AO2 T03560200 $
53988KBKB BKB20190706163011007/06/19 16:30:31  5-MIN KBKB 062230Z AUTO 00000KT 10SM CLR 35/20 A2999 240 40 2600 000/00 RMK AO2 T03500200 $
53988KBKB BKB20190706163511007/06/19 16:35:31  5-MIN KBKB 062235Z AUTO VRB03KT 10SM CLR 35/21 A2999 240 42 2600 VRB/03 RMK AO2 T03500206 $
53988KBKB BKB20190706164011007/06/19 16:40:31  5-MIN KBKB 062240Z AUTO VRB03KT 10SM CLR 34/21 A2999 240 43 2500 VRB/03 RMK AO2 T03440206 $
53988KBKB BKB20190706164511007/06/19 16:45:31  5-MIN KBKB 062245Z AUTO 00000KT 10SM CLR 34/21 A2999 240 43 2500 000/00 RMK AO2 T03440206 $
53988KBKB BKB20190706165011007/06/19 16:50:31  5-MIN KBKB 062250Z AUTO 00000KT 10SM CLR 35/21 A2999 240 43 2600 000/00 RMK AO2 T03500211 $
53988KBKB BKB20190706165511707/06/19 16:55:31  5-MIN KBKB 062255Z AUTO 00000KT 10SM CLR 34/21 A2999 230 43 2500 000/00 RMK AO2 SLP179 T03440206 $
53988KBKB BKB20190706170011007/06/19 17:00:31  5-MIN KBKB 062300Z AUTO VRB03KT 10SM CLR 34/21 A2999 230 46 2500 VRB/03 RMK AO2 T03390211 $
53988KBKB BKB20190706170511307/06/19 17:05:31  5-MIN KBKB 062305Z AUTO VRB03KT 10SM FEW060 33/22 A2999 240 50 2400 VRB/03 RMK AO2 T03330217 $
53988KBKB BKB20190706171011307/06/19 17:10:31  5-MIN KBKB 062310Z AUTO 00000KT 10SM FEW060 34/22 A2999 230 48 2500 000/00 RMK AO2 T03390217 $
53988KBKB BKB20190706171511307/06/19 17:15:31  5-MIN KBKB 062315Z AUTO 00000KT 10SM FEW060 34/22 A2999 230 48 2500 000/00 RMK AO2 T03390217 $
53988KBKB BKB20190706172010307/06/19 17:20:31  5-MIN KBKB 062320Z AUTO 10SM FEW060 33/22 A2999 230 50 2400 M /M RMK AO2 T03330217 $
53988KBKB BKB20190706172511307/06/19 17:25:31  5-MIN KBKB 062325Z AUTO 21003KT 10SM FEW060 33/21 A2999 230 48 2400 210/03 RMK AO2 T03330211 $
53988KBKB BKB20190706173011307/06/19 17:30:31  5-MIN KBKB 062330Z AUTO 00000KT 10SM FEW060 33/22 A2999 230 50 2400 000/00 RMK AO2 T03330217 $
53988KBKB BKB20190706173511007/06/19 17:35:31  5-MIN KBKB 062335Z AUTO 00000KT 10SM CLR 33/22 A2999 230 50 2400 000/00 RMK AO2 T03330217 $
53988KBKB BKB20190706174011007/06/19 17:40:31  5-MIN KBKB 062340Z AUTO 00000KT 10SM CLR 33/22 A2999 230 51 2300 000/00 RMK AO2 T03280217 $
53988KBKB BKB20190706174511007/06/19 17:45:31  5-MIN KBKB 062345Z AUTO 00000KT 10SM CLR 33/22 A3000 230 53 2300 000/00 RMK AO2 T03280222 $
53988KBKB BKB20190706175011007/06/19 17:50:31  5-MIN KBKB 062350Z AUTO 00000KT 10SM CLR 32/22 A3000 230 55 2300 000/00 RMK AO2 T03220222 $
53988KBKB BKB20190706175513507/06/19 17:55:31  5-MIN KBKB 062355Z AUTO 00000KT 10SM CLR 32/22 A3000 230 56 2200 000/00 RMK AO2 SLP183 T03170222 10356 20317 58023 $
53988KBKB BKB20190706180011007/06/19 18:00:31  5-MIN KBKB 070000Z AUTO 00000KT 10SM CLR 32/22 A3000 230 56 2200 000/00 RMK AO2 T03170222 $
53988KBKB BKB20190706180511007/06/19 18:05:31  5-MIN KBKB 070005Z AUTO 00000KT 10SM CLR 31/23 A3000 220 60 2200 000/00 RMK AO2 T03110228 $
53988KBKB BKB20190706181011007/06/19 18:10:31  5-MIN KBKB 070010Z AUTO 00000KT 10SM CLR 31/23 A3000 220 62 2100 000/00 RMK AO2 T03060228 $
53988KBKB BKB20190706181511007/06/19 18:15:31  5-MIN KBKB 070015Z AUTO 00000KT 10SM CLR 31/23 A3001 220 62 2100 000/00 RMK AO2 T03060228 $
53988KBKB BKB20190706182011007/06/19 18:20:31  5-MIN KBKB 070020Z AUTO 00000KT 10SM CLR 30/23 A3001 220 67 2000 000/00 RMK AO2 T03000233 $
53988KBKB BKB20190706182511007/06/19 18:25:31  5-MIN KBKB 070025Z AUTO 00000KT 10SM CLR 30/23 A3001 210 67 2000 000/00 RMK AO2 T03000233 $
53988KBKB BKB20190706183011007/06/19 18:30:31  5-MIN KBKB 070030Z AUTO 00000KT 10SM CLR 30/23 A3001 210 67 2000 000/00 RMK AO2 T03000233 $
53988KBKB BKB20190706183511007/06/19 18:35:31  5-MIN KBKB 070035Z AUTO 00000KT 10SM CLR 28/23 A3001 210 71 1800 000/00 RMK AO2 T02830228 $
53988KBKB BKB20190706184011007/06/19 18:40:31  5-MIN KBKB 070040Z AUTO 00000KT 10SM CLR 29/23 A3002 210 69 1900 000/00 RMK AO2 T02890228 $
53988KBKB BKB20190706184511007/06/19 18:45:31  5-MIN KBKB 070045Z AUTO 00000KT 10SM CLR 28/23 A3002 210 71 1800 000/00 RMK AO2 T02830228 $
53988KBKB BKB20190706185011007/06/19 18:50:31  5-MIN KBKB 070050Z AUTO 00000KT 10SM CLR 28/23 A3003 200 71 1800 000/00 RMK AO2 T02830228 $
53988KBKB BKB20190706185511707/06/19 18:55:31  5-MIN KBKB 070055Z AUTO 00000KT 10SM CLR 29/23 A3003 200 69 1900 000/00 RMK AO2 SLP193 T02890228 $
53988KBKB BKB20190706190011007/06/19 19:00:31  5-MIN KBKB 070100Z AUTO 00000KT 10SM CLR 29/23 A3003 200 69 1900 000/00 RMK AO2 T02890228 $
53988KBKB BKB20190706190511007/06/19 19:05:31  5-MIN KBKB 070105Z AUTO 00000KT 10SM CLR 28/23 A3003 200 74 1800 000/00 RMK AO2 T02830233 $
53988KBKB BKB20190706191011007/06/19 19:10:31  5-MIN KBKB 070110Z AUTO 00000KT 10SM CLR 28/23 A3002 200 71 1800 000/00 RMK AO2 T02830228 $
53988KBKB BKB20190706191511007/06/19 19:15:31  5-MIN KBKB 070115Z AUTO 00000KT 10SM CLR 27/23 A3003 200 76 1700 000/00 RMK AO2 T02720228 $
53988KBKB BKB20190706192011007/06/19 19:20:31  5-MIN KBKB 070120Z AUTO 00000KT 10SM CLR 27/23 A3003 200 76 1700 000/00 RMK AO2 T02720228 $
53988KBKB BKB20190706192511007/06/19 19:25:31  5-MIN KBKB 070125Z AUTO 00000KT 10SM CLR 27/23 A3002 200 76 1700 000/00 RMK AO2 T02720228 $
53988KBKB BKB20190706193011007/06/19 19:30:31  5-MIN KBKB 070130Z AUTO 00000KT 10SM CLR 27/23 A3002 200 76 1700 000/00 RMK AO2 T02720228 $
53988KBKB BKB20190706193511007/06/19 19:35:31  5-MIN KBKB 070135Z AUTO 00000KT 10SM CLR 27/23 A3003 200 76 1700 000/00 RMK AO2 T02720228 $
53988KBKB BKB20190706194011007/06/19 19:40:31  5-MIN KBKB 070140Z AUTO 00000KT 10SM CLR 27/23 A3003 200 82 1600 000/00 RMK AO2 T02670233 $
53988KBKB BKB20190706194511007/06/19 19:45:31  5-MIN KBKB 070145Z AUTO 00000KT 10SM CLR 27/23 A3003 200 82 1600 000/00 RMK AO2 T02670233 $
53988KBKB BKB20190706195011007/06/19 19:50:31  5-MIN KBKB 070150Z AUTO 00000KT 10SM CLR 27/23 A3003 200 82 1600 000/00 RMK AO2 T02670233 $
53988KBKB BKB20190706195511707/06/19 19:55:31  5-MIN KBKB 070155Z AUTO 00000KT 10SM CLR 27/24 A3003 200 84 1600 000/00 RMK AO2 SLP194 T02670239 $
53988KBKB BKB20190706200017907/06/19 20:00:31  5-MIN KBKB 070200Z AUTO 00000KT 10SM CLR 27/24 A3003 200 84 1600 000/00 RMK AO2 T02670239 $07/06/19 20:05:31  56/23 A3002 210 87 1500 000/00 RMK AO2 T02560233 $
53988KBKB BKB20190706210511007/06/19 21:05:31  5-MIN KBKB 070305Z AUTO 00000KT 10SM CLR 26/23 A3002 210 87 1500 000/00 RMK AO2 T02560233 $
53988KBKB BKB20190706211011007/06/19 21:10:31  5-MIN KBKB 070310Z AUTO 00000KT 10SM CLR 26/23 A3002 210 87 1500 000/00 RMK AO2 T02560233 $
53988KBKB BKB20190706211511007/06/19 21:15:31  5-MIN KBKB 070315Z AUTO 00000KT 10SM CLR 25/23 A3003 200 90 1400 000/00 RMK AO2 T02500233 $
53988KBKB BKB20190706212011007/06/19 21:20:31  5-MIN KBKB 070320Z AUTO 00000KT 10SM CLR 25/23 A3003 200 90 1400 000/00 RMK AO2 T02500233 $
53988KBKB BKB20190706212505407/06/19 21:25:31  5-MIN KBKB 070325Z AUTO 00000KT 10$
53988KBKB BKB20190706212511007/06/19 21:25:31  5-MIN KBKB 070325Z AUTO 00000KT 10SM CLR 25/23 A3003 200 90 1400 000/00 RMK AO2 T02500233 $
53988KBKB BKB20190706213011007/06/19 21:30:31  5-MIN KBKB 070330Z AUTO 00000KT 10SM CLR 25/23 A3003 200 90 1400 000/00 RMK AO2 T02500233 $
53988KBKB BKB20190706213505407/06/19 21:35:31  5-MIN KBKB 070335Z AUTO 00000KT 10S
53988KBKB BKB20190706213511007/06/19 21:35:31  5-MIN KBKB 070335Z AUTO 00000KT 10SM CLR 25/23 A3003 200 90 1400 000/00 RMK AO2 T02500233 $
53988KBKB BKB20190706214011007/06/19 21:40:31  5-MIN KBKB 070340Z AUTO 00000KT 10SM CLR 25/23 A3003 200 90 1400 000/00 RMK AO2 T02500233 $
53988KBKB BKB20190706214511007/06/19 21:45:31  5-MIN KBKB 070345Z AUTO 00000KT 10SM CLR 25/23 A3003 200 90 1400 000/00 RMK AO2 T02500233 $
53988KBKB BKB20190706215011007/06/19 21:50:31  5-MIN KBKB 070350Z AUTO 00000KT 10SM CLR 25/23 A3003 200 90 1400 000/00 RMK AO2 T02500233 $
53988KBKB BKB20190706215511707/06/19 21:55:31  5-MIN KBKB 070355Z AUTO 00000KT 10SM CLR 25/23 A3002 200 90 1400 000/00 RMK AO2 SLP192 T02500233 $
53988KBKB BKB20190706220011007/06/19 22:00:31  5-MIN KBKB 070400Z AUTO 00000KT 10SM CLR 25/23 A3003 200 87 1400 000/00 RMK AO2 T02500228 $
53988KBKB BKB20190706220511007/06/19 22:05:31  5-MIN KBKB 070405Z AUTO 00000KT 10SM CLR 25/23 A3003 200 90 1400 000/00 RMK AO2 T02500233 $
53988KBKB BKB20190706221011007/06/19 22:10:31  5-MIN KBKB 070410Z AUTO 00000KT 10SM CLR 24/23 A3002 200 90 1400 000/00 RMK AO2 T02440228 $
53988KBKB BKB20190706221511007/06/19 22:15:31  5-MIN KBKB 070415Z AUTO 00000KT 10SM CLR 24/23 A3002 200 90 1400 000/00 RMK AO2 T02440228 $
53988KBKB BKB20190706222011007/06/19 22:20:31  5-MIN KBKB 070420Z AUTO 00000KT 10SM CLR 24/23 A3002 200 90 1400 000/00 RMK AO2 T02440228 $
53988KBKB BKB20190706222511007/06/19 22:25:31  5-MIN KBKB 070425Z AUTO 00000KT 10SM CLR 24/23 A3002 200 90 1400 000/00 RMK AO2 T02440228 $
53988KBKB BKB20190706223011007/06/19 22:30:31  5-MIN KBKB 070430Z AUTO 00000KT 10SM CLR 24/23 A3002 210 93 1300 000/00 RMK AO2 T02390228 $
53988KBKB BKB20190706223511007/06/19 22:35:31  5-MIN KBKB 070435Z AUTO 00000KT 10SM CLR 24/23 A3002 210 90 1400 000/00 RMK AO2 T02440228 $
53988KBKB BKB20190706224011007/06/19 22:40:31  5-MIN KBKB 070440Z AUTO 00000KT 10SM CLR 24/23 A3002 210 90 1400 000/00 RMK AO2 T02440228 $
53988KBKB BKB20190706224511007/06/19 22:45:31  5-MIN KBKB 070445Z AUTO 00000KT 10SM CLR 24/23 A3003 200 93 1300 000/00 RMK AO2 T02390228 $
53988KBKB BKB20190706225011007/06/19 22:50:31  5-MIN KBKB 070450Z AUTO 00000KT 10SM CLR 24/23 A3003 200 93 1300 000/00 RMK AO2 T02390228 $
53988KBKB BKB20190706225511707/06/19 22:55:31  5-MIN KBKB 070455Z AUTO 00000KT 10SM CLR 24/23 A3003 200 93 1300 000/00 RMK AO2 SLP194 T02390228 $
53988KBKB BKB20190706230015207/06/19 23:00:31  5-MIN KBKB 070500Z AUTO 00000KT 10SM CLR 24/23 A3003 200 93 1300 000/00 RMK AO2 T02390228 $ 90 1300 000/00 RMK AO2 SLP185 T02390222 $
53988KBKB BKB20190707010011007/07/19 01:00:31  5-MIN KBKB 070700Z AUTO 00000KT 10SM CLR 24/22 A3001 220 87 1400 000/00 RMK AO2 T02440222 $
53988KBKB BKB20190708060511007/08/19 06:05:31  5-MIN KBKB 081205Z AUTO 00000KT 5SM BR CLR 23/22 A2996 260 93 1300 000/00 RMK AO2 T02330222
53988KBKB BKB20190708061011007/08/19 06:10:31  5-MIN KBKB 081210Z AUTO 00000KT 6SM BR CLR 23/23 A2997 250 97 1300 000/00 RMK AO2 T02330228
53988KBKB BKB20190708061511007/08/19 06:15:31  5-MIN KBKB 081215Z AUTO 00000KT 6SM BR CLR 23/23 A2997 250 97 1300 000/00 RMK AO2 T02330228
53988KBKB BKB20190708062011007/08/19 06:20:31  5-MIN KBKB 081220Z AUTO 00000KT 6SM BR CLR 24/23 A2997 250 93 1400 000/00 RMK AO2 T02390228
53988KBKB BKB20190708062511007/08/19 06:25:31  5-MIN KBKB 081225Z AUTO 00000KT 6SM BR CLR 24/23 A2997 250 97 1400 000/00 RMK AO2 T02390233
53988KBKB BKB20190708063010707/08/19 06:30:31  5-MIN KBKB 081230Z AUTO 00000KT 7SM CLR 24/24 A2997 250 97 1400 000/00 RMK AO2 T02440239
53988KBKB BKB20190708063510707/08/19 06:35:31  5-MIN KBKB 081235Z AUTO 00000KT 8SM CLR 24/24 A2997 250 97 1400 000/00 RMK AO2 T02440239
53988KBKB BKB20190708064010707/08/19 06:40:31  5-MIN KBKB 081240Z AUTO 00000KT 9SM CLR 25/24 A2997 250 93 1500 000/00 RMK AO2 T02500239
53988KBKB BKB20190708064510807/08/19 06:45:31  5-MIN KBKB 081245Z AUTO 00000KT 10SM CLR 26/24 A2997 250 93 1600 000/00 RMK AO2 T02560244
53988KBKB BKB20190708065011507/08/19 06:50:31  5-MIN KBKB 081250Z AUTO 00000KT 10SM CLR 26/24 A2997 250 90 1600 000/00 RMK AO2 SLP175 T02610244
53988KBKB BKB20190708065510807/08/19 06:55:31  5-MIN KBKB 081255Z AUTO 00000KT 10SM CLR 27/24 A2998 250 87 1700 000/00 RMK AO2 T02670244
53988KBKB BKB20190708070010807/08/19 07:00:31  5-MIN KBKB 081300Z AUTO 00000KT 10SM CLR 27/24 A2998 240 87 1700 000/00 RMK AO2 T02670244
53988KBKB BKB20190708070510807/08/19 07:05:31  5-MIN KBKB 081305Z AUTO 00000KT 10SM CLR 27/24 A2998 240 84 1700 000/00 RMK AO2 T02720244
53988KBKB BKB20190708071010807/08/19 07:10:31  5-MIN KBKB 081310Z AUTO VRB03KT 10SM CLR 27/24 A2998 240 84 1700 VRB/03 RMK AO2 T02720244
53988KBKB BKB20190708071510807/08/19 07:15:31  5-MIN KBKB 081315Z AUTO VRB03KT 10SM CLR 27/25 A2998 240 87 1700 VRB/03 RMK AO2 T02720250
53988KBKB BKB20190708072010807/08/19 07:20:31  5-MIN KBKB 081320Z AUTO VRB03KT 10SM CLR 28/25 A2998 240 84 1800 VRB/03 RMK AO2 T02780250
53988KBKB BKB20190708072510807/08/19 07:25:31  5-MIN KBKB 081325Z AUTO VRB03KT 10SM CLR 28/25 A2998 240 82 1900 VRB/03 RMK AO2 T02830250
53988KBKB BKB20190708073010807/08/19 07:30:31  5-MIN KBKB 081330Z AUTO VRB03KT 10SM CLR 28/24 A2998 240 79 1900 VRB/03 RMK AO2 T02830244
53988KBKB BKB20190708073510807/08/19 07:35:31  5-MIN KBKB 081335Z AUTO VRB03KT 10SM CLR 28/24 A2998 240 79 1900 VRB/03 RMK AO2 T02830244
53988KBKB BKB20190708074010807/08/19 07:40:31  5-MIN KBKB 081340Z AUTO VRB03KT 10SM CLR 29/24 A2998 240 76 1900 VRB/03 RMK AO2 T02890244
53988KBKB BKB20190708074510807/08/19 07:45:31  5-MIN KBKB 081345Z AUTO 00000KT 10SM CLR 29/24 A2998 240 76 1900 000/00 RMK AO2 T02890244
53988KBKB BKB20190708075011507/08/19 07:50:31  5-MIN KBKB 081350Z AUTO VRB03KT 10SM CLR 29/24 A2999 240 76 1900 VRB/03 RMK AO2 SLP179 T02890244
53988KBKB BKB20190708075510807/08/19 07:55:31  5-MIN KBKB 081355Z AUTO VRB03KT 10SM CLR 29/24 A2998 240 74 2000 VRB/03 RMK AO2 T02940244
53988KBKB BKB20190708080010807/08/19 08:00:31  5-MIN KBKB 081400Z AUTO VRB03KT 10SM CLR 29/24 A2998 240 74 2000 VRB/03 RMK AO2 T02940244
53988KBKB BKB20190708080510807/08/19 08:05:31  5-MIN KBKB 081405Z AUTO VRB03KT 10SM CLR 29/24 A2998 240 74 2000 VRB/03 RMK AO2 T02940244
53988KBKB BKB20190708081010807/08/19 08:10:31  5-MIN KBKB 081410Z AUTO VRB04KT 10SM CLR 29/24 A2998 240 71 2000 VRB/04 RMK AO2 T02940239
53988KBKB BKB20190708081510807/08/19 08:15:31  5-MIN KBKB 081415Z AUTO 00000KT 10SM CLR 29/24 A2998 240 71 2000 000/00 RMK AO2 T02940239
53988KBKB BKB20190708082007307/08/19 08:20:31  5-MIN KBKB 081420Z AUTO 22003KT M M M 220/03 RMK AO2 $
53988KBKB BKB20190708082510107/08/19 08:25:31  5-MIN KBKB 081425Z AUTO 00000KT 31/24 A2998 250 67 2200 000/00 RMK AO2 T03110244 $
53988KBKB BKB20190708083009907/08/19 08:30:31  5-MIN KBKB 081430Z AUTO 00000KT 31/24 A2998 250 69 2100 000/00 RMK AO2 T03060244
53988KBKB BKB20190708083510407/08/19 08:35:31  5-MIN KBKB 081435Z AUTO VRB03KT 10SM 31/24 A2998 250 67 2100 VRB/03 RMK AO2 T03060239
53988KBKB BKB20190708084010407/08/19 08:40:31  5-MIN KBKB 081440Z AUTO 00000KT 10SM 31/24 A2998 250 67 2100 000/00 RMK AO2 T03060239
53988KBKB BKB20190708084510407/08/19 08:45:31  5-MIN KBKB 081445Z AUTO VRB03KT 10SM 31/24 A2998 250 67 2100 VRB/03 RMK AO2 T03060239
53988KBKB BKB20190708085011107/08/19 08:50:31  5-MIN KBKB 081450Z AUTO VRB03KT 10SM 31/24 A2998 250 65 2200 VRB/03 RMK AO2 SLP176 T03110239
53988KBKB BKB20190708085510807/08/19 08:55:31  5-MIN KBKB 081455Z AUTO 00000KT 10SM CLR 31/23 A2998 240 65 2100 000/00 RMK AO2 T03060233
53988KBKB BKB20190708090010807/08/19 09:00:31  5-MIN KBKB 081500Z AUTO 00000KT 10SM CLR 31/24 A2998 240 65 2200 000/00 RMK AO2 T03110239
53988KBKB BKB20190708090510807/08/19 09:05:31  5-MIN KBKB 081505Z AUTO VRB03KT 10SM CLR 31/24 A2998 240 65 2200 VRB/03 RMK AO2 T03110239
53988KBKB BKB20190708091011107/08/19 09:10:31  5-MIN KBKB 081510Z AUTO 00000KT 10SM FEW029 31/24 A2998 240 67 2100 000/00 RMK AO2 T03060239
53988KBKB BKB20190708091511107/08/19 09:15:31  5-MIN KBKB 081515Z AUTO 00000KT 10SM SCT029 31/24 A2998 240 67 2100 000/00 RMK AO2 T03060239
53988KBKB BKB20190708092011107/08/19 09:20:31  5-MIN KBKB 081520Z AUTO 00000KT 10SM FEW029 31/23 A2998 240 65 2100 000/00 RMK AO2 T03060233
53988KBKB BKB20190708092511107/08/19 09:25:31  5-MIN KBKB 081525Z AUTO 00000KT 10SM SCT030 31/23 A2998 240 63 2200 000/00 RMK AO2 T03110233
53988KBKB BKB20190708093011107/08/19 09:30:31  5-MIN KBKB 081530Z AUTO VRB04KT 10SM SCT030 32/24 A2998 240 63 2200 VRB/04 RMK AO2 T03170239
53988KBKB BKB20190708093511107/08/19 09:35:31  5-MIN KBKB 081535Z AUTO 00000KT 10SM FEW030 32/23 A2998 240 61 2200 000/00 RMK AO2 T03170233
53988KBKB BKB20190708094011107/08/19 09:40:31  5-MIN KBKB 081540Z AUTO 00000KT 10SM FEW030 32/24 A2998 240 61 2300 000/00 RMK AO2 T03220239
53988KBKB BKB20190708094511107/08/19 09:45:31  5-MIN KBKB 081545Z AUTO VRB04KT 10SM FEW030 32/23 A2998 240 61 2200 VRB/04 RMK AO2 T03170233
53988KBKB BKB20190708095011807/08/19 09:50:31  5-MIN KBKB 081550Z AUTO 00000KT 10SM FEW030 32/24 A2998 240 61 2300 000/00 RMK AO2 SLP177 T03220239
53988KBKB BKB20190708095510807/08/19 09:55:31  5-MIN KBKB 081555Z AUTO VRB04KT 10SM CLR 32/23 A2998 240 59 2300 VRB/04 RMK AO2 T03220233
53988KBKB BKB20190708100010807/08/19 10:00:31  5-MIN KBKB 081600Z AUTO 00000KT 10SM CLR 32/24 A2998 240 61 2300 000/00 RMK AO2 T03220239
53988KBKB BKB20190708100510807/08/19 10:05:31  5-MIN KBKB 081605Z AUTO VRB03KT 10SM CLR 32/23 A2998 240 59 2300 VRB/03 RMK AO2 T03220233
53988KBKB BKB20190708101011107/08/19 10:10:31  5-MIN KBKB 081610Z AUTO 00000KT 10SM FEW034 32/23 A2998 240 59 2300 000/00 RMK AO2 T03220233
53988KBKB BKB20190708101511107/08/19 10:15:31  5-MIN KBKB 081615Z AUTO 00000KT 10SM SCT034 32/23 A2998 240 57 2300 000/00 RMK AO2 T03220228
53988KBKB BKB20190708102011107/08/19 10:20:31  5-MIN KBKB 081620Z AUTO 00000KT 10SM BKN033 32/23 A2998 250 59 2300 000/00 RMK AO2 T03220233
53988KBKB BKB20190708102511107/08/19 10:25:31  5-MIN KBKB 081625Z AUTO VRB03KT 10SM BKN033 32/24 A2998 250 61 2300 VRB/03 RMK AO2 T03220239
53988KBKB BKB20190708103011107/08/19 10:30:31  5-MIN KBKB 081630Z AUTO 00000KT 10SM BKN033 31/23 A2998 250 63 2200 000/00 RMK AO2 T03110233
53988KBKB BKB20190708103511107/08/19 10:35:31  5-MIN KBKB 081635Z AUTO 00000KT 10SM SCT034 32/24 A2998 250 61 2300 000/00 RMK AO2 T03220239
53988KBKB BKB20190708104011107/08/19 10:40:31  5-MIN KBKB 081640Z AUTO VRB03KT 10SM SCT034 32/23 A2997 250 59 2300 VRB/03 RMK AO2 T03220233
53988KBKB BKB20190708104511107/08/19 10:45:31  5-MIN KBKB 081645Z AUTO VRB04KT 10SM FEW034 32/23 A2997 250 59 2300 VRB/04 RMK AO2 T03220233
53988KBKB BKB20190708105011807/08/19 10:50:31  5-MIN KBKB 081650Z AUTO 00000KT 10SM FEW037 33/23 A2997 250 55 2400 000/00 RMK AO2 SLP173 T03280228
53988KBKB BKB20190708105510807/08/19 10:55:31  5-MIN KBKB 081655Z AUTO 27004KT 10SM CLR 33/23 A2997 250 53 2400 270/04 RMK AO2 T03330228
53988KBKB BKB20190708110010807/08/19 11:00:31  5-MIN KBKB 081700Z AUTO 00000KT 10SM CLR 32/23 A2997 250 59 2300 000/00 RMK AO2 T03220233
53988KBKB BKB20190708110510807/08/19 11:05:31  5-MIN KBKB 081705Z AUTO 21003KT 10SM CLR 33/23 A2997 250 57 2400 200/03 RMK AO2 T03280233
53988KBKB BKB20190708111010807/08/19 11:10:31  5-MIN KBKB 081710Z AUTO 00000KT 10SM CLR 33/23 A2997 250 55 2400 000/00 RMK AO2 T03280228
53988KBKB BKB20190708111510807/08/19 11:15:31  5-MIN KBKB 081715Z AUTO 00000KT 10SM CLR 32/22 A2997 250 55 2300 000/00 RMK AO2 T03220222
53988KBKB BKB20190708112010807/08/19 11:20:31  5-MIN KBKB 081720Z AUTO 15005KT 10SM CLR 33/23 A2997 260 55 2400 150/05 RMK AO2 T03330233
53988KBKB BKB20190708112510807/08/19 11:25:31  5-MIN KBKB 081725Z AUTO VRB03KT 10SM CLR 34/23 A2997 260 53 2500 VRB/03 RMK AO2 T03390233
53988KBKB BKB20190708113010807/08/19 11:30:31  5-MIN KBKB 081730Z AUTO VRB03KT 10SM CLR 34/23 A2997 260 51 2500 VRB/03 RMK AO2 T03390228
53988KBKB BKB20190708113510807/08/19 11:35:31  5-MIN KBKB 081735Z AUTO 00000KT 10SM CLR 33/22 A2997 260 51 2400 000/00 RMK AO2 T03330222
53988KBKB BKB20190708114010807/08/19 11:40:31  5-MIN KBKB 081740Z AUTO 12003KT 10SM CLR 33/22 A2996 260 51 2400 110/03 RMK AO2 T03330222
53988KBKB BKB20190708114510807/08/19 11:45:31  5-MIN KBKB 081745Z AUTO VRB04KT 10SM CLR 34/23 A2996 260 50 2600 VRB/04 RMK AO2 T03440228
53988KBKB BKB20190708115013007/08/19 11:50:31  5-MIN KBKB 081750Z AUTO VRB03KT 10SM FEW065 33/22 A2996 260 51 2400 VRB/03 RMK AO2 SLP170 T03330222 10344 20233
53988KBKB BKB20190708115511107/08/19 11:55:31  5-MIN KBKB 081755Z AUTO 00000KT 10SM SCT070 34/23 A2996 260 51 2500 000/00 RMK AO2 T03390228
53988KBKB BKB20190708120011107/08/19 12:00:31  5-MIN KBKB 081800Z AUTO 00000KT 10SM FEW070 34/22 A2996 260 50 2500 000/00 RMK AO2 T03390222
53988KBKB BKB20190708120511807/08/19 12:05:31  5-MIN KBKB 081805Z AUTO 00000KT 10SM FEW042 FEW070 34/23 A2996 260 50 2600 000/00 RMK AO2 T03440228
53988KBKB BKB20190708121011807/08/19 12:10:31  5-MIN KBKB 081810Z AUTO 00000KT 10SM FEW044 SCT065 34/23 A2995 270 51 2500 000/00 RMK AO2 T03390228
53988KBKB BKB20190708121512507/08/19 12:15:31  5-MIN KBKB 081815Z AUTO VRB04KT 10SM SCT044 BKN060 BKN070 33/23 A2995 270 53 2500 VRB/04 RMK AO2 T03330228
53988KBKB BKB20190708122012507/08/19 12:20:31  5-MIN KBKB 081820Z AUTO 21003KT 10SM SCT044 BKN055 BKN070 33/23 A2995 270 55 2400 200/03 RMK AO2 T03280228
53988KBKB BKB20190708122510907/08/19 12:25:31  5-MIN KBKB 081825Z AUTO 00000KT 10SM SCT044 33/23 A2995 290 50 2600 M /M RMK AO2 T03440228
53988KBKB BKB20190708133011807/08/19 13:30:31  5-MIN KBKB 081930Z AUTO 00000KT 10SM FEW046 BKN060 34/22 A2993 290 48 2600 000/00 RMK AO2 T03440222
53988KBKB BKB20190708133510807/08/19 13:35:31  5-MIN KBKB 081935Z AUTO 10SM SCT046 SCT060 34/23 A2993 290 50 2600 M /M RMK AO2 T03440228
53988KBKB BKB20190708134011807/08/19 13:40:31  5-MIN KBKB 081940Z AUTO 24003KT 10SM BKN046 BKN060 34/22 A2993 290 48 2600 230/03 RMK AO2 T03440222
53988KBKB BKB20190708134511807/08/19 13:45:31  5-MIN KBKB 081945Z AUTO 00000KT 10SM BKN047 BKN055 35/22 A2992 300 47 2700 000/00 RMK AO2 T03500222
53988KBKB BKB20190708134515007/08/19 13:45:31  5-MIN KBKB 081945Z AUTO 00000KT 10SM BKN047 BKN055 35/22 A293KT 10SM SCT046 BKN060 33/23 A2993 290 53 2500 VRB/03 RMK AO2 T03330228
53988KBKB BKB20190708135011807/08/19 13:50:31  5-MIN KBKB 081950Z AUTO VRB03KT 10SM BKN050 35/23 A2992 300 48 2700 VRB/03 RMK AO2 SLP156 T03500228
53988KBKB BKB20190708135511807/08/19 13:55:31  5-MIN KBKB 081955Z AUTO VRB04KT 10SM SCT050 SCT060 34/23 A2992 300 51 2600 VRB/04 RMK AO2 T03390228
53988KBKB BKB20190708135514207/08/19 13:55:31  5-MIN KBKB 081955Z AUTO V3:35:31  5-MIN KBKB 081935Z AUTO 10SM SCT046 SCT060 34/23 A2993 290 50 2600 M /M RMK AO2 T03440228
53988KBKB BKB20190708140011107/08/19 14:00:31  5-MIN KBKB 082000Z AUTO 00000KT 10SM BKN050 34/23 A2992 300 50 2600 000/00 RMK AO2 T03440228
53988KBKB BKB20190708140015407/08/19 14:00:31  5-MIN KBKB 082000Z AUTO 00000KT 10SM BKN050 34/23 A2992 300 50 2600 000/00 RMK AO2 T03440228 A2992 300 47 2700 000/00 RMK AO2 T03500222
53988KBKB BKB20190708140511107/08/19 14:05:31  5-MIN KBKB 082005Z AUTO VRB04KT 10SM BKN049 34/22 A2992 300 50 2600 VRB/04 RMK AO2 T03390222
53988KBKB BKB20190708141011107/08/19 14:10:31  5-MIN KBKB 082010Z AUTO VRB03KT 10SM SCT049 35/23 A2992 300 48 2700 VRB/03 RMK AO2 T03500228
53988KBKB BKB20190708141511107/08/19 14:15:31  5-MIN KBKB 082015Z AUTO VRB03KT 10SM SCT049 34/23 A2991 300 50 2600 VRB/03 RMK AO2 T03440228
53988KBKB BKB20190708142011107/08/19 14:20:31  5-MIN KBKB 082020Z AUTO VRB03KT 10SM SCT049 34/23 A2991 310 51 2600 VRB/03 RMK AO2 T03390228
53988KBKB BKB20190708142511107/08/19 14:25:31  5-MIN KBKB 082025Z AUTO 00000KT 10SM SCT049 33/23 A2991 310 53 2500 000/00 RMK AO2 T03330228
53988KBKB BKB20190708143011107/08/19 14:30:31  5-MIN KBKB 082030Z AUTO VRB03KT 10SM FEW049 33/22 A2991 310 51 2500 VRB/03 RMK AO2 T03330222
53988KBKB BKB20190708143511107/08/19 14:35:31  5-MIN KBKB 082035Z AUTO 00000KT 10SM SCT049 34/22 A2991 310 50 2600 000/00 RMK AO2 T03390222
53988KBKB BKB20190708144011107/08/19 14:40:31  5-MIN KBKB 082040Z AUTO VRB04KT 10SM SCT049 35/23 A2991 310 48 2700 VRB/04 RMK AO2 T03500228
53988KBKB BKB20190708144511807/08/19 14:45:31  5-MIN KBKB 082045Z AUTO VRB05KT 10SM SCT050 SCT055 34/23 A2990 310 50 2600 VRB/05 RMK AO2 T03440228
53988KBKB BKB20190708145012407/08/19 14:50:31  5-MIN KBKB 082050Z AUTO 00000KT 10SM SCT050 33/22 A2990 320 51 2500 000/00 RMK AO2 SLP150 T03330222 58006
53988KBKB BKB20190708145511107/08/19 14:55:31  5-MIN KBKB 082055Z AUTO 00000KT 10SM FEW050 34/22 A2990 320 48 2600 000/00 RMK AO2 T03440222
53988KBKB BKB20190708150009307/08/19 15:00:31  5-MIN KBKB 082100Z AUTO 21003KT 10SM SCT050 34/22 A2990 320 48O2 T03390211
53988KBKB BKB20190708171010807/08/19 17:10:31  5-MIN KBKB 082310Z AUTO 00000KT 10SM CLR 34/21 A2988 340 45 2700 000/00 RMK AO2 T03440211
53988KBKB BKB20190708171510807/08/19 17:15:31  5-MIN KBKB 082315Z AUTO 24003KT 10SM CLR 34/21 A2988 330 46 2600 240/03 RMK AO2 T03390211
53988KBKB BKB20190708172010807/08/19 17:20:31  5-MIN KBKB 082320Z AUTO VRB03KT 10SM CLR 34/21 A2988 330 46 2600 VRB/03 RMK AO2 T03390211
53988KBKB BKB20190708172510807/08/19 17:25:31  5-MIN KBKB 082325Z AUTO 00000KT 10SM CLR 34/22 A2988 330 48 2600 000/00 RMK AO2 T03390217
53988KBKB BKB20190708172517007/08/19 17:25:31  5-MIN KBKB 082325Z AUTO 00000KT 10SM CLR 34/22 A2988 330 48 2600 000/00 RMK2305Z AUTO 00000KT 10SM CLR 34/21 A2988 340 45 2700 000/00 RMK AO2 T03440211
53988KBKB BKB20190708173010807/08/19 17:30:31  5-MIN KBKB 082330Z AUTO VRB03KT 10SM CLR 34/22 A2989 330 48 2600 VRB/03 RMK AO2 T03390217
53988KBKB BKB20190708173510807/08/19 17:35:31  5-MIN KBKB 082335Z AUTO 00000KT 10SM CLR 33/22 A2989 330 51 2500 000/00 RMK AO2 T03330222
53988KBKB BKB20190708173517007/08/19 17:35:31  5-MIN KBKB 082335Z AUTO 00000KT 10SM CLR 33/22 A2989 330 51 2500 000/00 R082315Z AUTO 24003KT 10SM CLR 34/21 A2988 330 46 2600 240/03 RMK AO2 T03390211
53988KBKB BKB20190708174010807/08/19 17:40:31  5-MIN KBKB 082340Z AUTO 00000KT 10SM CLR 33/22 A2989 330 51 2500 000/00 RMK AO2 T03330222
53988KBKB BKB20190708174510807/08/19 17:45:31  5-MIN KBKB 082345Z AUTO 00000KT 10SM CLR 33/22 A2989 330 50 2500 000/00 RMK AO2 T03330217
53988KBKB BKB20190708174517007/08/19 17:45:31  5-MIN KBKB 082345Z AUTO 00000KT 10SM CLR 33/22 A2989 330 50 2500 000/00 RMK AO2 T033O 00000KT 10SM CLR 34/22 A2988 330 48 2600 000/00 RMK AO2 T03390217
53988KBKB BKB20190708175013307/08/19 17:50:31  5-MIN KBKB 082350Z AUTO 22003KT 10SM CLR 33/22 A2989 320 50 2500 220/03 RMK AO2 SLP147 T03330217 10350 20322 56020
53988KBKB BKB20190708175510807/08/19 17:55:31  5-MIN KBKB 082355Z AUTO 00000KT 10SM CLR 33/22 A2989 330 50 2500 000/00 RMK AO2 T03330217
53988KBKB BKB20190708175514707/08/19 17:55:31  5-MIN KBKB 082355Z AUTO 00000KT 10SM CLR-MIN KBKB 082335Z AUTO 00000KT 10SM CLR 33/22 A2989 330 51 2500 000/00 RMK AO2 T03330222
53988KBKB BKB20190708180010807/08/19 18:00:31  5-MIN KBKB 090000Z AUTO 00000KT 10SM CLR 33/22 A2989 320 53 2500 000/00 RMK AO2 T03280222
53988KBKB BKB20190708180014107/08/19 18:00:31  5-MIN KBKB 090000Z AUTO 00000KT 10SM CLR 33/22 A2989 320 53 2500 000/00 RMK AO2 T03280222 50 2500 000/00 RMK AO2 T03330217
53988KBKB BKB20190708184010807/08/19 18:40:31  5-MIN KBKB 090040Z AUTO 00000KT 10SM CLR 31/23 A2990 320 65 2200 000/00 RMK AO2 T03060233
53988KBKB BKB20190708184510807/08/19 18:45:31  5-MIN KBKB 090045Z AUTO 00000KT 10SM CLR 31/23 A2990 320 65 2200 000/00 RMK AO2 T03060233
53988KBKB BKB20190708185011507/08/19 18:50:31  5-MIN KBKB 090050Z AUTO 00000KT 10SM CLR 30/23 A2990 320 67 2200 000/00 RMK AO2 SLP149 T03000233
53988KBKB BKB20190708185510807/08/19 18:55:31  5-MIN KBKB 090055Z AUTO 00000KT 10SM CLR 30/24 A2990 320 69 2200 000/00 RMK AO2 T03000239
53988KBKB BKB20190708190010807/08/19 19:00:31  5-MIN KBKB 090100Z AUTO 00000KT 10SM CLR 30/23 A2990 320 67 2200 000/00 RMK AO2 T03000233
53988KBKB BKB20190708190510807/08/19 19:05:31  5-MIN KBKB 090105Z AUTO 00000KT 10SM CLR 29/23 A2990 320 69 2100 000/00 RMK AO2 T02940233
53988KBKB BKB20190708191010807/08/19 19:10:31  5-MIN KBKB 090110Z AUTO 00000KT 10SM CLR 29/24 A2990 320 71 2100 000/00 RMK AO2 T02940239
53988KBKB BKB20190708191510807/08/19 19:15:31  5-MIN KBKB 090115Z AUTO 00000KT 10SM CLR 29/23 A2990 310 71 2000 000/00 RMK AO2 T02890233
53988KBKB BKB20190708192010807/08/19 19:20:31  5-MIN KBKB 090120Z AUTO 00000KT 10SM CLR 29/23 A2990 310 71 2000 000/00 RMK AO2 T02890233
53988KBKB BKB20190708192510807/08/19 19:25:31  5-MIN KBKB 090125Z AUTO 00000KT 10SM CLR 28/23 A2990 310 74 2000 000/00 RMK AO2 T02830233
53988KBKB BKB20190708193010807/08/19 19:30:31  5-MIN KBKB 090130Z AUTO 00000KT 10SM CLR 28/23 A2990 310 74 2000 000/00 RMK AO2 T02830233
53988KBKB BKB20190708193510807/08/19 19:35:31  5-MIN KBKB 090135Z AUTO 00000KT 10SM CLR 28/24 A2990 310 79 1900 000/00 RMK AO2 T02780239
53988KBKB BKB20190708194010807/08/19 19:40:31  5-MIN KBKB 090140Z AUTO 00000KT 10SM CLR 28/23 A2991 310 74 2000 000/00 RMK AO2 T02830233
53988KBKB BKB20190708194510807/08/19 19:45:31  5-MIN KBKB 090145Z AUTO 00000KT 10SM CLR 28/23 A2991 310 76 1900 000/00 RMK AO2 T02780233
53988KBKB BKB20190708195022407/08/19 19:50:31  5-MIN KBKB 090150Z AUTO 00000KT 10SM CLR 28/24 A2991 310 79 1900 000/00 RMK AO2 SLP152 T02780239 79 1900 000/00 RMK AO2 T0278023907/08/19TO 00000KT 10SM CLR 27/24 A2991 310 82 1800 000/00 RMK AO2 T02720239
53988KBKB BKB20190708202510807/08/19 20:25:31  5-MIN KBKB 090225Z AUTO 00000KT 10SM CLR 27/24 A2991 310 82 1800 000/00 RMK AO2 T02720239
53988KBKB BKB20190708203010807/08/19 20:30:31  5-MIN KBKB 090230Z AUTO 00000KT 10SM CLR 27/24 A2991 310 82 1800 000/00 RMK AO2 T02720239
53988KBKB BKB20190708203510807/08/19 20:35:31  5-MIN KBKB 090235Z AUTO 00000KT 10SM CLR 27/24 A2991 310 82 1800 000/00 RMK AO2 T02720239
53988KBKB BKB20190708204010807/08/19 20:40:31  5-MIN KBKB 090240Z AUTO 00000KT 10SM CLR 27/24 A2991 310 82 1800 000/00 RMK AO2 T02720239
53988KBKB BKB20190708204510807/08/19 20:45:31  5-MIN KBKB 090245Z AUTO 00000KT 10SM CLR 27/23 A2991 310 79 1800 000/00 RMK AO2 T02720233
53988KBKB BKB20190708205012107/08/19 20:50:31  5-MIN KBKB 090250Z AUTO 00000KT 10SM CLR 27/24 A2991 300 82 1800 000/00 RMK AO2 SLP154 T02720239 55003
53988KBKB BKB20190708205510807/08/19 20:55:31  5-MIN KBKB 090255Z AUTO 00000KT 10SM CLR 27/24 A2992 300 84 1800 000/00 RMK AO2 T02670239
53988KBKB BKB20190708210010807/08/19 21:00:31  5-MIN KBKB 090300Z AUTO 00000KT 10SM CLR 27/24 A2992 300 84 1800 000/00 RMK AO2 T02670239
53988KBKB BKB20190708210510807/08/19 21:05:31  5-MIN KBKB 090305Z AUTO 00000KT 10SM CLR 27/24 A2992 300 84 1800 000/00 RMK AO2 T02670239
53988KBKB BKB20190708211014107/08/19 21:10:31  5-MIN KBKB 090310Z AUTO 00000KT 10SM CLR 27/24 A2992 300 84 1800 000/00 RMK AO2 T02670239 90 1600 000/00 RMK AO2 T02500233
53988KBKB BKB20190709002010807/09/19 00:20:31  5-MIN KBKB 090620Z AUTO 00000KT 10SM CLR 25/23 A2992 300 90 1600 000/00 RMK AO2 T02500233
53988KBKB BKB20190709002510807/09/19 00:25:31  5-MIN KBKB 090625Z AUTO 00000KT 10SM CLR 25/23 A2992 300 90 1600 000/00 RMK AO2 T02500233
53988KBKB BKB20190709003010807/09/19 00:30:31  5-MIN KBKB 090630Z AUTO 00000KT 10SM CLR 26/24 A2992 300 90 1600 000/00 RMK AO2 T02560239
53988KBKB BKB20190709003510807/09/19 00:35:31  5-MIN KBKB 090635Z AUTO 00000KT 10SM CLR 26/24 A2992 300 90 1600 000/00 RMK AO2 T02560239
53988KBKB BKB20190709004010807/09/19 00:40:31  5-MIN KBKB 090640Z AUTO 00000KT 10SM CLR 26/24 A2992 300 90 1600 000/00 RMK AO2 T02560239
53988KBKB BKB20190709004510807/09/19 00:45:31  5-MIN KBKB 090645Z AUTO 00000KT 10SM CLR 26/24 A2992 300 90 1600 000/00 RMK AO2 T02560239
53988KBKB BKB20190709005012107/09/19 00:50:31  5-MIN KBKB 090650Z AUTO 00000KT 10SM  00000KT 9SM CLR 25/24 A2993 290 93 1600 000/00 RMK AO2 T02500239
53988KBKB BKB20190709021510707/09/19 02:15:31  5-MIN KBKB 090815Z AUTO 00000KT 9SM CLR 25/24 A2993 290 93 1600 000/00 RMK AO2 T02500239
53988KBKB BKB20190709022010807/09/19 02:20:31  5-MIN KBKB 090820Z AUTO 00000KT 10SM CLR 25/24 A2993 290 93 1600 000/00 RMK AO2 T02500239
53988KBKB BKB20190709022514407/09/19 02:25:31  5-MIN KBKB 090825Z AUTO 00000KT 10SM CLR 25/24 A2993 290 93 1600 000/00 RMK AO2 T0250023907/09/19 02 000/00 RMK AO2 T02390233
53988KBKB BKB20190709051011007/09/19 05:10:31  5-MIN KBKB 091110Z AUTO 00000KT 4SM BR CLR 24/23 A2993 290 97 1400 000/00 RMK AO2 T02390233
53988KBKB BKB20190709051511007/09/19 05:15:31  5-MIN KBKB 091115Z AUTO 00000KT 3SM BR CLR 24/23 A2993 290 93 1400 000/00 RMK AO2 T02390228
53988KBKB BKB20190709052014607/09/19 05:20:31  5-MIN KBKB 091120Z AUTO 00000KT 3SM BR CLR 24/23 A2993 290 97 1400 000/00 RMK AO2 T02390233290 93 1400 000/00 RMK AO2 T02390228
53988KBKB BKB20190709052511007/09/19 05:25:31  5-MIN KBKB 091125Z AUTO 00000KT 3SM BR CLR 24/23 A2993 290 97 1400 000/00 RMK AO2 T02390233
53988KBKB BKB20190709053011007/09/19 05:30:31  5-MIN KBKB 091130Z AUTO 00000KT 4SM BR CLR 24/23 A2994 280 97 1400 000/00 RMK AO2 T02390233
53988KBKB BKB20190709053511007/09/19 05:35:31  5-MIN KBKB 091135Z AUTO 00000KT 4SM BR CLR 24/23 A2993 290 93 1400 000/00 RMK AO2 T02390228
53988KBKB BKB20190709054011007/09/19 05:40:31  5-MIN KBKB 091140Z AUTO 00000KT 4SM BR CLR 23/23 A2994 280 97 1400 000/00 RMK AO2 T02330228
53988KBKB BKB20190709054511007/09/19 05:45:31  5-MIN KBKB 091145Z AUTO 00000KT 3SM BR CLR 23/23 A2994 280 97 1400 000/00 RMK AO2 T02330228
53988KBKB BKB20190709055011007/09/19 05:50:31  5-MIN KBKB 091150Z AUTO 00000KT 3SM BR CLR 23/23 A2994 270 97 1500 000/00 RMK AO2 T02440239
53988KBKB BKB20190709055013507/09/19 05:50:31  5-MIN KBKB 091150Z AUTO 00000KT 3SM BR CLR 23/23 A2994 280 97 1400 000/00 RMK AO2 SLP163 T02330228 10256 20233 50003
53988KBKB BKB20190709055511007/09/19 05:55:31  5-MIN KBKB 091155Z AUTO 00000KT 4SM BR CLR 24/23 A2994 280 93 1400 000/00 RMK AO2 T02390228
53988KBKB BKB20190709060011007/09/19 06:00:31  5-MIN KBKB 091200Z AUTO 00000KT 4SM BR CLR 24/23 A2994 280 97 1400 000/00 RMK AO2 T02390233
53988KBKB BKB20190709060511007/09/19 06:05:31  5-MIN KBKB 091205Z AUTO 00000KT 5SM BR CLR 24/24 A2995 270 97 1500 000/00 RMK AO2 T02440239
53988KBKB BKB20190709061010707/09/19 06:10:31  5-MIN KBKB 091210Z AUTO 00000KT 7SM CLR 24/24 A2995 270 97 1500 000/00 RMK AO2 T02440239
53988KBKB BKB20190709061511007/09/19 06:15:31  5-MIN KBKB 091215Z AUTO 00000KT 7SM SCT011 25/24 A2995 270 97 1500 000/00 RMK AO2 T02500244
53988KBKB BKB20190709062008407/09/19 06:20:31  5-MIN KBKB 091220Z AUTO 00000KT 9SM SCT011 26/24 A2996 2602560244
53988KBKB BKB20190709062011007/09/19 06:20:31  5-MIN KBKB 091220Z AUTO 00000KT 9SM SCT011 26/24 A2996 260 93 1600 000/00 RMK AO2 T02560244
53988KBKB BKB20190709062511107/09/19 06:25:31  5-MIN KBKB 091225Z AUTO 00000KT 10SM SCT013 26/24 A2996 260 93 1600 000/00 RMK AO2 T02560244
53988KBKB BKB20190709063011107/09/19 06:30:31  5-MIN KBKB 091230Z AUTO 00000KT 10SM FEW013 26/24 A2996 260 93 1600 000/00 RMK AO2 T02560244
53988KBKB BKB20190709063511107/09/19 06:35:31  5-MIN KBKB 091235Z AUTO 00000KT 10SM FEW012 26/25 A2996 260 97 1600 000/00 RMK AO2 T02560250
53988KBKB BKB20190709064011107/09/19 06:40:31  5-MIN KBKB 091240Z AUTO 00000KT 10SM FEW012 26/25 A2996 260 93 1600 000/00 RMK AO2 T02610250
53988KBKB BKB20190709064511107/09/19 06:45:31  5-MIN KBKB 091245Z AUTO 00000KT 10SM FEW014 26/25 A2996 260 93 1600 000/00 RMK AO2 T02610250
53988KBKB BKB20190709065011507/09/19 06:50:31  5-MIN KBKB 091250Z AUTO 00000KT 10SM CLR 26/25 A2997 250 93 1600 000/00 RMK AO2 SLP173 T02610250
53988KBKB BKB20190709065510807/09/19 06:55:31  5-MIN KBKB 091255Z AUTO 25003KT 10SM CLR 27/25 A2997 250 90 1700 250/03 RMK AO2 T02670250
53988KBKB BKB20190709070010807/09/19 07:00:31  5-MIN KBKB 091300Z AUTO 00000KT 10SM CLR 27/25 A2997 250 90 1700 000/00 RMK AO2 T02670250
53988KBKB BKB20190709070510807/09/19 07:05:31  5-MIN KBKB 091305Z AUTO VRB03KT 10SM CLR 27/25 A2997 250 87 1800 VRB/03 RMK AO2 T02720250
53988KBKB BKB20190709071011107/09/19 07:10:31  5-MIN KBKB 091310Z AUTO 24003KT 10SM FEW011 28/25 A2998 250 84 1800 240/03 RMK AO2 T02780250
53988KBKB BKB20190709071511107/09/19 07:15:31  5-MIN KBKB 091315Z AUTO 00000KT 10SM FEW011 28/25 A2998 240 82 1900 000/00 RMK AO2 T02830250
53988KBKB BKB20190709072011107/09/19 07:20:31  5-MIN KBKB 091320Z AUTO 00000KT 10SM FEW011 28/25 A2998 240 84 1800 000/00 RMK AO2 T02780250
53988KBKB BKB20190709072511107/09/19 07:25:31  5-MIN KBKB 091325Z AUTO 00000KT 10SM SCT011 28/25 A2999 240 82 1900 000/00 RMK AO2 T02830250
53988KBKB BKB20190709073011107/09/19 07:30:31  5-MIN KBKB 091330Z AUTO 00000KT 10SM BKN011 28/25 A2999 240 82 1900 000/00 RMK AO2 T02830250
53988KBKB BKB20190709073511107/09/19 07:35:31  5-MIN KBKB 091335Z AUTO VRB03KT 10SM BKN012 28/25 A2999 230 82 1900 VRB/03 RMK AO2 T02830250
53988KBKB BKB20190709074011107/09/19 07:40:31  5-MIN KBKB 091340Z AUTO VRB03KT 10SM BKN012 28/25 A2999 240 84 1800 VRB/03 RMK AO2 T02780250
53988KBKB BKB20190709074511107/09/19 07:45:31  5-MIN KBKB 091345Z AUTO VRB05KT 10SM BKN012 28/25 A2999 240 82 1900 VRB/05 RMK AO2 T02830250
53988KBKB BKB20190709075010107/09/19 07:50:31  5-MIN KBKB 091350Z AUTO VRB04KT 10SM SCT012 29/25 A2999 230 79 1900 VRB/04 RMK AO2
53988KBKB BKB20190709075511107/09/19 07:55:31  5-MIN KBKB 091355Z AUTO VRB03KT 10SM SCT012 29/25 A2999 230 79 1900 VRB/03 RMK AO2 T02890250
53988KBKB BKB20190709080011107/09/19 08:00:31  5-MIN KBKB 091400Z AUTO VRB05KT 10SM SCT014 29/25 A2999 230 76 2000 VRB/05 RMK AO2 T02940250
53988KBKB BKB20190709080511307/09/19 08:05:31  5-MIN KBKB 091405Z A AUTO VRB03KT 10SM SCT037 33/23 A2998 240 55 2400 VRB/03 RMK AO2 T03330233
53988KBKB BKB20190709111511107/09/19 11:15:31  5-MIN KBKB 091715Z AUTO VRB04KT 10SM BKN037 32/23 A2998 240 61 2200 VRB/04 RMK AO2 T03170233
53988KBKB BKB20190709112011107/09/19 11:20:31  5-MIN KBKB 091720Z AUTO VRB03KT 10SM BKN039 32/23 A2998 240 61 2200 VRB/03 RMK AO2 T03170233
53988KBKB BKB20190709112511107/09/19 11:25:31  5-MIN KBKB 091725Z AUTO VRB03KT 10SM BKN039 33/23 A2998 250 55 2400 VRB/03 RMK AO2 T03280228
53988KBKB BKB20190709113011107/09/19 11:30:31  5-MIN KBKB 091730Z AUTO 00000KT 10SM BKN040 32/23 A2998 250 61 2200 000/00 RMK AO2 T03170233
53988KBKB BKB20190709113507707/09/19 11:35:31  5-MIN KBKB 091735Z AUTO 00000KT 10SM BKN040 33/40222 58008
53988KBKB BKB20190709150512507/09/19 15:05:31  5-MIN KBKB 092105Z AUTO VRB03KT 10SM FEW060 FEW075 FEW095 35/22 A2991 300 45 2700 VRB/03 RMK AO2 T03500217
53988KBKB BKB20190709151012507/09/19 15:10:31  5-MIN KBKB 092110Z AUTO VRB03KT 10SM FEW055 SCT075 SCT095 35/23 A2991 300 48 2700 VRB/03 RMK AO2 T03500228
53988KBKB BKB20190709151511107/09/19 15:15:31  5-MIN KBKB 092115Z AUTO VRB03KT 10SM FEW055 35/22 A2991 310 47 2700 VRB/03 RMK AO2 T03500222
53988KBKB BKB20190709152011107/09/19 15:20:31  5-MIN KBKB 092120Z AUTO VRB03KT 10SM FEW055 35/22 A2991 310 47 2700 VRB/03 RMK AO2 T03500222
53988KBKB BKB20190709152511107/09/19 15:25:31  5-MIN KBKB 092125Z AUTO VRB04KT 10SM FEW055 35/22 A2991 310 47 2700 VRB/04 RMK AO2 T03500222
53988KBKB BKB20190709153011107/09/19 15:30:31  5-MIN KBKB 092130Z AUTO VRB03KT 10SM FEW050 35/22 A2991 310 45 2700 VRB/03 RMK AO2 T03500217
53988KBKB BKB20190709153511107/09/19 15:35:31  5-MIN KBKB 092135Z AUTO 00000KT 10SM FEW050 36/22 A2991 310 45 2800 000/00 RMK AO2 T03560222
53988KBKB BKB20190709154010807/09/19 15:40:31  5-MIN KBKB 092140Z AUTO 00000KT 10SM CLR 34/23 A2991 310 51 2600 000/00 RMK AO2 T03390228
53988KBKB BKB20190709154510807/09/19 15:45:31  5-MIN KBKB 092145Z AUTO 00000KT 10SM CLR 34/22 A2991 310 50 2600 000/00 RMK AO2 T03390222
53988KBKB BKB20190709155011807/09/19 15:50:31  5-MIN KBKB 092150Z AUTO 00000KT 10SM FEW055 34/23 A2990 310 53 2600 000/00 RMK AO2 SLP150 T03390233
53988KBKB BKB20190709155511107/09/19 15:55:31  5-MIN KBKB 092155Z AUTO 00000KT 10SM SCT050 34/23 A2990 310 50 2600 000/00 RMK AO2 T03440228
53988KBKB BKB20190709160011107/09/19 16:00:31  5-MIN KBKB 092200Z AUTO VRB04KT 10SM SCT050 34/23 A2991 310 51 2600 VRB/04 RMK AO2 T03390228
53988KBKB BKB20190709160511107/09/19 16:05:31  5-MIN KBKB 092205Z AUTO VRB03KT 10SM BKN050 33/23 A2990 310 53 2500 VRB/03 RMK AO2 T03330228
53988KBKB BKB20190709161011807/09/19 16:10:31  5-MIN KBKB 092210Z AUTO 00000KT 10SM BKN050 BKN065 33/23 A2990 310 53 2500 000/00 RMK AO2 T03330228
53988KBKB BKB20190709161511807/09/19 16:15:31  5-MIN KBKB 092215Z AUTO VRB03KT 10SM BKN060 OVC070 33/23 A2990 310 53 2500 VRB/03 RMK AO2 T03330228
53988KBKB BKB20190709162011807/09/19 16:20:31  5-MIN KBKB 092220Z AUTO 24003KT 10SM SCT055 OVC070 33/23 A2990 320 55 2500 240/03 RMK AO2 T03330233
53988KBKB BKB20190709162511807/09/19 16:25:31  5-MIN KBKB 092225Z AUTO 00000KT 10SM SCT055 OVC070 33/23 A2990 320 55 2500 000/00 RMK AO2 T03330233
53988KBKB BKB20190709163011807/09/19 16:30:31  5-MIN KBKB 092230Z AUTO 00000KT 10SM SCT060 BKN070 33/23 A2990 320 55 2500 000/00 RMK AO2 T03330233
53988KBKB BKB20190709163511107/09/19 16:35:31  5-MIN KBKB 092235Z AUTO 00000KT 10SM BKN070 33/23 A2990 320 53 2500 000/00 RMK AO2 T03330228
53988KBKB BKB20190709164011107/09/19 16:40:31  5-MIN KBKB 092240Z AUTO VRB03KT 10SM SCT070 34/23 A2990 320 53 2600 VRB/03 RMK AO2 T03390233
53988KBKB BKB20190709164511807/09/19 16:45:31  5-MIN KBKB 092245Z AUTO 00000KT 10SM FEW049 SCT070 33/23 A2989 320 53 2500 000/00 RMK AO2 T03330228
53988KBKB BKB20190709165012507/09/19 16:50:31  5-MIN KBKB 092250Z AUTO 00000KT 10SM SCT049 SCT070 34/23 A2989 320 53 2600 000/00 RMK AO2 SLP147 T03390233
53988KBKB BKB20190709165511107/09/19 16:55:31  5-MIN KBKB 092255Z AUTO 00000KT 10SM SCT049 34/23 A2989 320 53 2600 000/00 RMK AO2 T03390233
53988KBKB BKB20190709170011807/09/19 17:00:31  5-MIN KBKB 092300Z AUTO 00000KT 10SM FEW049 SCT075 34/23 A2989 320 53 2600 000/00 RMK AO2 T03390233
53988KBKB BKB20190709170511807/09/19 17:05:31  5-MIN KBKB 092305Z AUTO 00000KT 10SM SCT048 SCT080 33/23 A2990 320 55 2500 000/00 RMK AO2 T03330233
53988KBKB BKB20190709171011807/09/19 17:10:31  5-MIN KBKB 092310Z AUTO 00000KT 10SM SCT048 BKN080 33/23 A2990 320 53 2500 000/00 RMK AO2 T03330228
53988KBKB BKB20190709171511807/09/19 17:15:31  5-MIN KBKB 092315Z AUTO 00000KT 10SM SCT048 SCT080 33/24 A2990 320 57 2500 000/00 RMK AO2 T03330239
53988KBKB BKB20190709172011807/09/19 17:20:31  5-MIN KBKB 092320Z AUTO 00000KT 10SM FEW049 SCT080 33/24 A2990 320 61 2500 000/00 RMK AO2 T03280244
53988KBKB BKB20190709172511807/09/19 17:25:31  5-MIN KBKB 092325Z AUTO 00000KT 10SM FEW049 SCT080 32/24 A2989 320 61 2400 000/00 RMK AO2 T03220239
53988KBKB BKB20190709173011107/09/19 17:30:31  5-MIN KBKB 092330Z AUTO 00000KT 10SM FEW048 32/24 A2989 320 65 2300 000/00 RMK AO2 T03170244
53988KBKB BKB20190709173511107/09/19 17:35:31  5-MIN KBKB 092335Z AUTO 00000KT 10SM FEW048 32/24 A2989 320 63 2400 000/00 RMK AO2 T03220244
53988KBKB BKB20190709174011107/09/19 17:40:31  5-MIN KBKB 092340Z AUTO 00000KT 10SM FEW048 32/24 A2989 320 61 2400 000/00 RMK AO2 T03220239
53988KBKB BKB20190709174511107/09/19 17:45:31  5-MIN KBKB 092345Z AUTO 00000KT 10SM FEW048 32/24 A2989 320 63 2400 000/00 RMK AO2 T03220244
53988KBKB BKB20190709175013307/09/19 17:50:31  5-MIN KBKB 092350Z AUTO 00000KT 10SM CLR 32/24 A2989 320 61 2400 000/00 RMK AO2 SLP148 T03220239 10356 20317 58019
53988KBKB BKB20190709175510807/09/19 17:55:31  5-MIN KBKB 092355Z AUTO 00000KT 10SM CLR 32/24 A2989 320 61 2400 000/00 RMK AO2 T03220239
53988KBKB BKB20190709180010807/09/19 18:00:31  5-MIN KBKB 100000Z AUTO 00000KT 10SM CLR 32/24 A2989 320 61 2400 000/00 RMK AO2 T03220239
53988KBKB BKB20190709180510807/09/19 18:05:31  5-MIN KBKB 100005Z AUTO 00000KT 10SM CLR 32/24 A2989 320 61 2400 000/00 RMK AO2 T03220239
53988KBKB BKB20190709181010807/09/19 18:10:31  5-MIN KBKB 100010Z AUTO 00000KT 10SM CLR 32/24 A2989 320 63 2300 000/00 RMK AO2 T03170239
53988KBKB BKB20190709181510807/09/19 18:15:31  5-MIN KBKB 100015Z AUTO 00000KT 10SM CLR 31/24 A2990 320 67 2300 000/00 RMK AO2 T03110244
53988KBKB BKB20190709182010807/09/19 18:20:31  5-MIN KBKB 100020Z AUTO 00000KT 10SM CLR 31/24 A2989 320 65 2300 000/00 RMK AO2 T03110239
53988KBKB BKB20190709182510807/09/19 18:25:31  5-MIN KBKB 100025Z AUTO 00000KT 10SM CLR 31/24 A2989 320 67 2300 000/00 RMK AO2 T03110244
53988KBKB BKB20190709183010807/09/19 18:30:31  5-MIN KBKB 100030Z AUTO 00000KT 10SM CLR 31/24 A2989 320 69 2200 000/00 RMK AO2 T03060244
53988KBKB BKB20190709183510807/09/19 18:35:31  5-MIN KBKB 100035Z AUTO 00000KT 10SM CLR 31/24 A2989 330 69 2200 000/00 RMK AO2 T03060244
53988KBKB BKB20190709184010807/09/19 18:40:31  5-MIN KBKB 100040Z AUTO 00000KT 10SM CLR 30/24 A2989 320 72 2200 000/00 RMK AO2 T03000244
53988KBKB BKB20190709184510807/09/19 18:45:31  5-MIN KBKB 100045Z AUTO 00000KT 10SM CLR 30/24 A2990 320 72 2200 000/00 RMK AO2 T03000244
53988KBKB BKB20190709185011507/09/19 18:50:31  5-MIN KBKB 100050Z AUTO 00000KT 10SM CLR 29/24 A2990 320 74 2100 000/00 RMK AO2 SLP149 T02940244
53988KBKB BKB20190709185510807/09/19 18:55:31  5-MIN KBKB 100055Z AUTO 00000KT 10SM CLR 29/25 A2990 320 76 2100 000/00 RMK AO2 T02940250
53988KBKB BKB20190709190010807/09/19 19:00:31  5-MIN KBKB 100100Z AUTO 00000KT 10SM CLR 29/24 A2990 320 74 2100 000/00 RMK AO2 T02940244
53988KBKB BKB20190709190510807/09/19 19:05:31  5-MIN KBKB 100105Z AUTO 00000KT 10SM CLR 29/24 A2990 310 74 2100 000/00 RMK AO2 T02940244
53988KBKB BKB20190709191010807/09/19 19:10:31  5-MIN KBKB 100110Z AUTO 00000KT 10SM CLR 29/24 A2990 310 74 2100 000/00 RMK AO2 T02940244
53988KBKB BKB20190709191510807/09/19 19:15:31  5-MIN KBKB 100115Z AUTO 00000KT 10SM CLR 29/24 A2990 310 76 2000 000/00 RMK AO2 T02890244
53988KBKB BKB20190709192010807/09/19 19:20:31  5-MIN KBKB 100120Z AUTO 00000KT 10SM CLR 29/24 A2991 310 76 2000 000/00 RMK AO2 T02890244
53988KBKB BKB20190709192510807/09/19 19:25:31  5-MIN KBKB 100125Z AUTO 00000KT 10SM CLR 29/24 A2991 310 76 2000 000/00 RMK AO2 T02890244
53988KBKB BKB20190709193010807/09/19 19:30:31  5-MIN KBKB 100130Z AUTO 00000KT 10SM CLR 28/24 A2991 310 76 1900 000/00 RMK AO2 T02830239
53988KBKB BKB20190709193510807/09/19 19:35:31  5-MIN KBKB 100135Z AUTO 00000KT 10SM CLR 28/24 A2991 300 79 1900 000/00 RMK AO2 T02830244
53988KBKB BKB20190709194010807/09/19 19:40:31  5-MIN KBKB 100140Z AUTO 00000KT 10SM CLR 28/24 A2992 300 82 1900 000/00 RMK AO2 T02780244
53988KBKB BKB20190709194510807/09/19 19:45:31  5-MIN KBKB 100145Z AUTO 00000KT 10SM CLR 28/24 A2992 300 79 1900 000/00 RMK AO2 T02780239
53988KBKB BKB20190709195011507/09/19 19:50:31  5-MIN KBKB 100150Z AUTO 00000KT 10SM CLR 28/24 A2992 300 79 1900 000/00 RMK AO2 SLP157 T02780239
53988KBKB BKB20190709195510807/09/19 19:55:31  5-MIN KBKB 100155Z AUTO 00000KT 10SM CLR 28/24 A2992 300 79 1900 000/00 RMK AO2 T02780239
53988KBKB BKB20190709200010807/09/19 20:00:31  5-MIN KBKB 100200Z AUTO 00000KT 10SM CLR 28/24 A2993 290 79 1900 000/00 RMK AO2 T02780239
53988KBKB BKB20190709200510807/09/19 20:05:31  5-MIN KBKB 100205Z AUTO 00000KT 10SM CLR 28/24 A2992 290 79 1900 000/00 RMK AO2 T02780239
53988KBKB BKB20190709201010807/09/19 20:10:31  5-MIN KBKB 100210Z AUTO 00000KT 10SM CLR 28/24 A2993 290 82 1900 000/00 RMK AO2 T02780244
53988KBKB BKB20190709201510807/09/19 20:15:31  5-MIN KBKB 100215Z AUTO 00000KT 10SM CLR 27/24 A2993 290 82 1800 000/00 RMK AO2 T02720239
53988KBKB BKB20190709202010807/09/19 20:20:31  5-MIN KBKB 100220Z AUTO 00000KT 10SM CLR 27/24 A2993 290 82 1800 000/00 RMK AO2 T02720239
53988KBKB BKB20190709202510807/09/19 20:25:31  5-MIN KBKB 100225Z AUTO 00000KT 10SM CLR 27/24 A2992 290 82 1800 000/00 RMK AO2 T02720239
53988KBKB BKB20190709203010807/09/19 20:30:31  5-MIN KBKB 100230Z AUTO 00000KT 10SM CLR 27/24 A2993 290 84 1800 000/00 RMK AO2 T02720244
53988KBKB BKB20190709203510807/09/19 20:35:31  5-MIN KBKB 100235Z AUTO 00000KT 10SM CLR 27/24 A2993 290 82 1800 000/00 RMK AO2 T02720239
53988KBKB BKB20190709204010807/09/19 20:40:31  5-MIN KBKB 100240Z AUTO 00000KT 10SM CLR 27/24 A2993 290 82 1800 000/00 RMK AO2 T02720239
53988KBKB BKB20190709204510807/09/19 20:45:31  5-MIN KBKB 100245Z AUTO 00000KT 10SM CLR 27/24 A2993 290 82 1800 000/00 RMK AO2 T02720239
53988KBKB BKB20190709205012107/09/19 20:50:31  5-MIN KBKB 100250Z AUTO 00000KT 10SM CLR 27/24 A2993 290 84 1700 000/00 RMK AO2 SLP161 T02670239 55007
53988KBKB BKB20190709205510807/09/19 20:55:31  5-MIN KBKB 100255Z AUTO 00000KT 10SM CLR 27/24 A2993 290 84 1700 000/00 RMK AO2 T02670239
53988KBKB BKB20190709210010807/09/19 21:00:31  5-MIN KBKB 100300Z AUTO 00000KT 10SM CLR 27/24 A2993 290 84 1700 000/00 RMK AO2 T02670239
53988KBKB BKB20190709210510807/09/19 21:05:31  5-MIN KBKB 100305Z AUTO 00000KT 10SM CLR 27/24 A2993 290 84 1700 000/00 RMK AO2 T02670239
53988KBKB BKB20190709211010807/09/19 21:10:31  5-MIN KBKB 100310Z AUTO 00000KT 10SM CLR 27/24 A2994 280 84 1700 000/00 RMK AO2 T02670239
53988KBKB BKB20190709211510807/09/19 21:15:31  5-MIN KBKB 100315Z AUTO 00000KT 10SM CLR 27/24 A2994 280 84 1700 000/00 RMK AO2 T02670239
53988KBKB BKB20190709212010807/09/19 21:20:31  5-MIN KBKB 100320Z AUTO 00000KT 10SM CLR 26/24 A2994 280 87 1700 000/00 RMK AO2 T02610239
53988KBKB BKB20190709212510807/09/19 21:25:31  5-MIN KBKB 100325Z AUTO 00000KT 10SM CLR 26/24 A2994 280 87 1700 000/00 RMK AO2 T02610239
53988KBKB BKB20190709213010807/09/19 21:30:31  5-MIN KBKB 100330Z AUTO 00000KT 10SM CLR 26/24 A2994 280 87 1700 000/00 RMK AO2 T02610239
53988KBKB BKB20190709213510807/09/19 21:35:31  5-MIN KBKB 100335Z AUTO 00000KT 10SM CLR 26/24 A2994 280 87 1700 000/00 RMK AO2 T02610239
53988KBKB BKB20190709214010807/09/19 21:40:31  5-MIN KBKB 100340Z AUTO 00000KT 10SM CLR 26/24 A2994 280 87 1700 000/00 RMK AO2 T02610239
53988KBKB BKB20190709214510807/09/19 21:45:31  5-MIN KBKB 100345Z AUTO 00000KT 10SM CLR 26/24 A2994 280 87 1700 000/00 RMK AO2 T02610239
53988KBKB BKB20190709215011507/09/19 21:50:31  5-MIN KBKB 100350Z AUTO 00000KT 10SM CLR 26/24 A2994 280 87 1700 000/00 RMK AO2 SLP164 T02610239
53988KBKB BKB20190709215510807/09/19 21:55:31  5-MIN KBKB 100355Z AUTO 00000KT 10SM CLR 26/24 A2995 270 87 1700 000/00 RMK AO2 T02610239
53988KBKB BKB20190709220010807/09/19 22:00:31  5-MIN KBKB 100400Z AUTO 00000KT 10SM CLR 26/24 A2995 270 87 1700 000/00 RMK AO2 T02610239
53988KBKB BKB20190709220510807/09/19 22:05:31  5-MIN KBKB 100405Z AUTO 00000KT 10SM CLR 26/24 A2995 270 87 1700 000/00 RMK AO2 T02610239
53988KBKB BKB20190709221010807/09/19 22:10:31  5-MIN KBKB 100410Z AUTO 00000KT 10SM CLR 26/24 A2995 270 87 1700 000/00 RMK AO2 T02610239
53988KBKB BKB20190709221510807/09/19 22:15:31  5-MIN KBKB 100415Z AUTO 00000KT 10SM CLR 26/24 A2995 270 90 1600 000/00 RMK AO2 T02560239
53988KBKB BKB20190709222010807/09/19 22:20:31  5-MIN KBKB 100420Z AUTO 00000KT 10SM CLR 26/24 A2995 270 90 1600 000/00 RMK AO2 T02560239
53988KBKB BKB20190709222510807/09/19 22:25:31  5-MIN KBKB 100425Z AUTO 00000KT 10SM CLR 26/24 A2996 270 87 1700 000/00 RMK AO2 T02610239
53988KBKB BKB20190709223010807/09/19 22:30:31  5-MIN KBKB 100430Z AUTO 00000KT 10SM CLR 26/24 A2996 260 87 1600 000/00 RMK AO2 T02610239
53988KBKB BKB20190709223509907/09/19 22:35:31  5-MIN KBKB 100435Z AUTO 00000KT 10SM CLR 26/24 A2996 260 87 1600 000/00 RMK AO39
53988KBKB BKB20190709232510807/09/19 23:25:31  5-MIN KBKB 100525Z AUTO 00000KT 10SM CLR 26/24 A2995 270 87 1700 000/00 RMK AO2 T02610239
53988KBKB BKB20190709233010807/09/19 23:30:31  5-MIN KBKB 100530Z AUTO 00000KT 10SM CLR 26/24 A2995 270 87 1700 000/00 RMK AO2 T02610239
53988KBKB BKB20190709233510807/09/19 23:35:31  5-MIN KBKB 100535Z AUTO 00000KT 10SM CLR 26/24 A2995 270 87 1700 000/00 RMK AO2 T02610239
53988KBKB BKB20190709234010807/09/19 23:40:31  5-MIN KBKB 100540Z AUTO 00000KT 10SM CLR 26/24 A2995 270 87 1700 000/00 RMK AO2 T02610239
53988KBKB BKB20190709234510807/09/19 23:45:31  5-MIN KBKB 100545Z AUTO 00000KT 10SM CLR 26/24 A2995 270 87 1700 000/00 RMK AO2 T02610239
53988KBKB BKB20190709234517007/09/19 23:45:31  5-MIN KBKB 100545Z AUTO 00000KT 10SM CLR 26/24 A2995 270 87 1700 000/00 RMK AO5Z AUTO 00000KT 10SM CLR 26/24 A2995 270 87 1700 000/00 RMK AO2 T02610239
53988KBKB BKB20190709235014307/09/19 23:50:31  5-MIN KBKB 100550Z AUTO 00000KT 10SM CLR 26/24 A2995 270 87 1700 000/00 RMK AO2 SLP166 T02610239 10328 20256 403560233 53013
53988KBKB BKB20190709235510807/09/19 23:55:31  5-MIN KBKB 100555Z AUTO 00000KT 10SM CLR 26/24 A2995 270 87 1700 000/00 RMK AO2 T02610239
53988KBKB BKB20190710000010807/10/19 00:00:31  5-MIN KBKB 100600Z AUTO 00000KT 10SM CLR 26/24 A2995 270 87 1700 000/00 RMK AO2 T02610239
53988KBKB BKB20190710000510807/10/19 00:05:31  5-MIN KBKB 100605Z AUTO 00000KT 10SM CLR 26/24 A2995 270 87 1700 000/00 RMK AO2 T02610239
53988KBKB BKB20190710001010807/10/19 00:10:31  5-MIN KBKB 100610Z AUTO 00000KT 10SM CLR 26/24 A2995 270 87 1700 000/00 RMK AO2 T02610239
53988KBKB BKB20190710001510807/10/19 00:15:31  5-MIN KBKB 100615Z AUTO 00000KT 10SM CLR 26/24 A2995 270 87 1700 000/00 RMK AO2 T02610239
53988KBKB BKB20190710002010807/10/19 00:20:31  5-MIN KBKB 100620Z AUTO 00000KT 10SM CLR 26/24 A2995 270 87 1700 000/00 RMK AO2 T02610239
53988KBKB BKB20190710002510807/10/19 00:25:31  5-MIN KBKB 100625Z AUTO 00000KT 10SM CLR 26/24 A2995 270 87 1700 000/00 RMK AO2 T02610239
53988KBKB BKB20190710003010807/10/19 00:30:31  5-MIN KBKB 100630Z AUTO 00000KT 10SM CLR 26/24 A2995 270 87 1700 000/00 RMK AO2 T02610239
53988KBKB BKB20190710003510807/10/19 00:35:31  5-MIN KBKB 100635Z AUTO 00000KT 10SM CLR 26/24 A2994 280 87 1700 000/00 RMK AO2 T02610239
53988KBKB BKB20190710004010807/10/19 00:40:31  5-MIN KBKB 100640Z AUTO 00000KT 10SM CLR 26/24 A2994 280 87 1700 000/00 RMK AO2 T02610239
53988KBKB BKB20190710004510807/10/19 00:45:31  5-MIN KBKB 100645Z AUTO 00000KT 10SM CLR 26/24 A2994 280 87 1700 000/00 RMK AO2 T02610239
53988KBKB BKB20190710005011507/10/19 00:50:31  5-MIN KBKB 100650Z AUTO 00000KT 10SM CLR 26/24 A2994 280 90 1700 000/00 RMK AO2 SLP164 T02610244
53988KBKB BKB20190710005510807/10/19 00:55:31  5-MIN KBKB 100655Z AUTO VRB03KT 10SM CLR 26/24 A2994 280 90 1700 VRB/03 RMK AO2 T02610244
53988KBKB BKB20190710010010807/10/19 01:00:31  5-MIN KBKB 100700Z AUTO 00000KT 10SM CLR 26/24 A2995 270 90 1700 000/00 RMK AO2 T02610244
53988KBKB BKB20190710010510807/10/19 01:05:31  5-MIN KBKB 100705Z AUTO 00000KT 10SM CLR 26/24 A2995 280 90 1700 000/00 RMK AO2 T02610244
53988KBKB BKB20190710011010807/10/19 01:10:31  5-MIN KBKB 100710Z AUTO 00000KT 10SM CLR 26/24 A2995 270 90 1700 000/00 RMK AO2 T02610244
53988KBKB BKB20190710011510807/10/19 01:15:31  5-MIN KBKB 100715Z AUTO 00000KT 10SM CLR 26/24 A2995 270 90 1700 000/00 RMK AO2 T02610244
53988KBKB BKB20190710012010807/10/19 01:20:31  5-MIN KBKB 100720Z AUTO 00000KT 10SM CLR 26/24 A2995 270 90 1700 000/00 RMK AO2 T02610244
53988KBKB BKB20190710012509607/10/19 01:25:31  5-MIN KBKB 100725Z AUTO 00000KT 10SM2994 280 90 1600 000/00 RMK AO2 T02560239
53988KBKB BKB20190710030010807/10/19 03:00:31  5-MIN KBKB 100900Z AUTO 00000KT 10SM CLR 26/24 A2994 280 90 1600 000/00 RMK AO2 T02560239
53988KBKB BKB20190710100510807/10/19 10:05:31  5-MIN KBKB 101605Z AUTO 00000KT 10SM CLR 32/25 A2999 230 67 2200 000/00 RMK AO2 T03170250
53988KBKB BKB20190710101010807/10/19 10:10:31  5-MIN KBKB 101610Z AUTO 02003KT 10SM CLR 32/25 A2999 230 65 2300 020/03 RMK AO2 T03220250
53988KBKB BKB20190710101510807/10/19 10:15:31  5-MIN KBKB 101615Z AUTO VRB03KT 10SM CLR 32/25 A2999 230 65 2300 VRB/03 RMK AO2 T03220250
53988KBKB BKB20190710102010807/10/19 10:20:31  5-MIN KBKB 101620Z AUTO VRB03KT 10SM CLR 32/24 A2999 230 65 2200 VRB/03 RMK AO2 T03170244
53988KBKB BKB20190710102510807/10/19 10:25:31  5-MIN KBKB 101625Z AUTO VRB04KT 10SM CLR 32/25 A2999 230 65 2300 VRB/04 RMK AO2 T03220250
53988KBKB BKB20190710103010807/10/19 10:30:31  5-MIN KBKB 101630Z AUTO 00000KT 10SM CLR 32/25 A2999 230 65 2300 000/00 RMK AO2 T03220250
53988KBKB BKB20190710103510807/10/19 10:35:31  5-MIN KBKB 101635Z AUTO VRB03KT 10SM CLR 33/25 A2999 230 63 2400 VRB/03 RMK AO2 T03280250
53988KBKB BKB20190710104010807/10/19 10:40:31  5-MIN KBKB 101640Z AUTO VRB03KT 10SM CLR 33/24 A2999 230 61 2400 VRB/03 RMK AO2 T03280244
53988KBKB BKB20190710104510807/10/19 10:45:31  5-MIN KBKB 101645Z AUTO VRB03KT 10SM CLR 34/25 A2999 230 59 2500 VRB/03 RMK AO2 T03390250
53988KBKB BKB20190710105010807/10/19 10:50:31  5-MIN KBKB 101650Z AUTO 10SM SCT030 34/24 A2999 230 57 2500 M /M RMK AO2 SLP181 T03390244
53988KBKB BKB20190710105511107/10/19 10:55:31  5-MIN KBKB 101655Z AUTO VRB04KT 10SM SCT032 33/24 A2999 230 61 2300 VRB/04 RMK AO2 T03280244
53988KBKB BKB20190710110011107/10/19 11:00:31  5-MIN KBKB 101700Z AUTO 00000KT 10SM SCT032 32/24 A2999 230 63 2300 000/00 RMK AO2 T03220244
53988KBKB BKB20190710110511107/10/19 11:05:31  5-MIN KBKB 101705Z AUTO VRB04KT 10SM FEW032 32/24 A2999 230 63 2300 VRB/04 RMK AO2 T03220244
53988KBKB BKB20190710111011107/10/19 11:10:31  5-MIN KBKB 101710Z AUTO 35003KT 10SM FEW032 32/24 A2999 230 63 2300 340/03 RMK AO2 T03220244
53988KBKB BKB20190710111511107/10/19 11:15:31  5-MIN KBKB 101715Z AUTO 00000KT 10SM FEW032 33/25 A2999 230 63 2400 000/00 RMK AO2 T03280250
53988KBKB BKB20190710112011107/10/19 11:20:31  5-MIN KBKB 101720Z AUTO 00000KT 10SM FEW032 33/24 A2999 240 59 2400 000/00 RMK AO2 T03330244
53988KBKB BKB20190710112511807/10/19 11:25:31  5-MIN KBKB 101725Z AUTO 04004KT 10SM FEW032 SCT060 33/25 A2999 240 63 2400 030/04 RMK AO2 T03280250
53988KBKB BKB20190710113011807/10/19 11:30:31  5-MIN KBKB 101730Z AUTO VRB03KT 10SM FEW032 FEW055 33/25 A2998 240 63 2400 VRB/03 RMK AO2 T03280250
53988KBKB BKB20190710113511807/10/19 11:35:31  5-MIN KBKB 101735Z AUTO 07003KT 10SM FEW032 FEW055 33/24 A2998 240 61 2400 060/03 RMK AO2 T03280244
53988KBKB BKB20190710114011107/10/19 11:40:31  5-MIN KBKB 101740Z AUTO 00000KT 10SM SCT033 33/24 A2998 250 59 2400 000/00 RMK AO2 T03280239
53988KBKB BKB20190710114512507/10/19 11:45:31  5-MIN KBKB 101745Z AUTO VRB04KT 10SM SCT033 SCT050 BKN110 33/24 A2998 240 61 2400 VRB/04 RMK AO2 T03280244
53988KBKB BKB20190710115015007/10/19 11:50:31  5-MIN KBKB 101750Z AUTO VRB04KT 10SM FEW033 SCT050 BKN110 32/24 A2998 240 63 2300 VRB/04 RMK AO2 SLP175 T03220244 10339 20250 53007
53988KBKB BKB20190710115512507/10/19 11:55:31  5-MIN KBKB 101755Z AUTO 00000KT 10SM FEW033 SCT070 BKN110 33/25 A2998 250 63 2400 000/00 RMK AO2 T03280250
53988KBKB BKB20190710120012507/10/19 12:00:31  5-MIN KBKB 101800Z AUTO VRB03KT 10SM FEW033 SCT050 BKN100 33/25 A2998 250 63 2400 VRB/03 RMK AO2 T03280250
53988KBKB BKB20190710120514107/10/19 12:05:31  5-MIN KBKB 101805Z AUTO VRB03KT 10SM -RA FEW034 BKN047 OVC110 33/25 A2998 250 63 2400 VRB/03 RMK AO2 RAB05 P0000 T03280250
53988KBKB BKB20190710121014107/10/19 12:10:31  5-MIN KBKB 101810Z AUTO 00000KT 10SM -RA BKN045 BKN060 BKN110 32/25 A2997 250 65 2300 000/00 RMK AO2 RAB05 P0000 T03220250
53988KBKB BKB20190710121514107/10/19 12:15:31  5-MIN KBKB 101815Z AUTO 00000KT 10SM -RA SCT045 BKN070 BKN110 32/25 A2997 250 65 2300 000/00 RMK AO2 RAB05 P0000 T03220250
53988KBKB BKB20190710122013307/10/19 12:20:31  5-MIN KBKB 101820Z AUTO VRB03KT 10SM FEW046 BKN070 33/24 A2997 250 59 2400 VRB/03 RMK AO2 RAB05E17 P0000 T03330244
53988KBKB BKB20190710122513307/10/19 12:25:31  5-MIN KBKB 101825Z AUTO VRB03KT 10SM FEW046 SCT065 34/24 A2997 250 57 2500 VRB/03 RMK AO2 RAB05E17 P0000 T03390244
53988KBKB BKB20190710123013307/10/19 12:30:31  5-MIN KBKB 101830Z AUTO 00000KT 10SM FEW046 SCT065 34/24 A2997 260 55 2500 000/00 RMK AO2 RAB05E17 P0000 T03390239
53988KBKB BKB20190710123512607/10/19 12:35:31  5-MIN KBKB 101835Z AUTO 00000KT 10SM FEW065 34/24 A2997 260 55 2500 000/00 RMK AO2 RAB05E17 P0000 T03390239
53988KBKB BKB20190710124013107/10/19 12:40:31  5-MIN KBKB 101840Z AUTO 00000KT 10SM VCTS FEW070 33/24 A2997 260 57 2400 000/00 RMK AO2 RAB05E17 P0000 T03330239
53988KBKB BKB20190710124512807/10/19 12:45:31  5-MIN KBKB 101845Z AUTO 36003KT 10SM VCTS CLR 34/24 A2997 260 55 2500 360/03 RMK AO2 RAB05E17 P0000 T03390239
53988KBKB BKB20190710125013807/10/19 12:50:31  5-MIN KBKB 101850Z AUTO 00000KT 10SM VCTS FEW040 33/24 A2996 260 57 2400 000/00 RMK AO2 RAB05E17 SLP170 P0000 T03330239
53988KBKB BKB20190710125511107/10/19 12:55:31  5-MIN KBKB 101855Z AUTO VRB04KT 10SM SCT038 33/24 A2997 260 59 2400 VRB/04 RMK AO2 T03280239
53988KBKB BKB20190710130011107/10/19 13:00:31  5-MIN KBKB 101900Z AUTO VRB03KT 10SM BKN038 31/23 A2997 250 65 2100 VRB/03 RMK AO2 T03060233
53988KBKB BKB20190710130511107/10/19 13:05:31  5-MIN KBKB 101905Z AUTO 22004KT 10SM BKN038 31/23 A2997 250 65 2100 220/04 RMK AO2 T03060233
53988KBKB BKB20190710131011807/10/19 13:10:31  5-MIN KBKB 101910Z AUTO VRB04KT 10SM BKN038 BKN047 31/23 A2997 250 65 2100 VRB/04 RMK AO2 T03060233
53988KBKB BKB20190710131511807/10/19 13:15:31  5-MIN KBKB 101915Z AUTO VRB04KT 10SM BKN038 BKN047 31/24 A2996 260 67 2100 VRB/04 RMK AO2 T03060239
53988KBKB BKB20190710132011807/10/19 13:20:31  5-MIN KBKB 101920Z AUTO VRB03KT 10SM SCT038 BKN047 31/24 A2996 260 65 2200 VRB/03 RMK AO2 T03110239
53988KBKB BKB20190710132511807/10/19 13:25:31  5-MIN KBKB 101925Z AUTO VRB04KT 10SM SCT038 SCT047 31/24 A2997 260 67 2200 VRB/04 RMK AO2 T03110244
53988KBKB BKB20190710133011807/10/19 13:30:31  5-MIN KBKB 101930Z AUTO VRB04KT 10SM FEW040 SCT047 31/24 A2997 260 67 2200 VRB/04 RMK AO2 T03110244
53988KBKB BKB20190710133511107/10/19 13:35:31  5-MIN KBKB 101935Z AUTO VRB05KT 10SM FEW044 32/24 A2996 260 65 2300 VRB/05 RMK AO2 T03170244
53988KBKB BKB20190710134010807/10/19 13:40:31  5-MIN KBKB 101940Z AUTO VRB05KT 10SM CLR 33/24 A2995 270 61 2400 VRB/05 RMK AO2 T03280244
53988KBKB BKB20190710134510807/10/19 13:45:31  5-MIN KBKB 101945Z AUTO VRB03KT 10SM CLR 33/24 A2995 270 59 2500 VRB/03 RMK AO2 T03330244
53988KBKB BKB20190710135011507/10/19 13:50:31  5-MIN KBKB 101950Z AUTO VRB04KT 10SM CLR 33/24 A2995 270 59 2500 VRB/04 RMK AO2 SLP166 T03330244
53988KBKB BKB20190710135510807/10/19 13:55:31  5-MIN KBKB 101955Z AUTO 23003KT 10SM CLR 34/25 A2994 280 59 2500 220/03 RMK AO2 T03390250
53988KBKB BKB20190710140010807/10/19 14:00:31  5-MIN KBKB 102000Z AUTO VRB04KT 10SM CLR 33/24 A2994 280 61 2400 VRB/04 RMK AO2 T03280244
53988KBKB BKB20190710140510807/10/19 14:05:31  5-MIN KBKB 102005Z AUTO VRB04KT 10SM CLR 32/24 A2994 280 63 2400 VRB/04 RMK AO2 T03220244
53988KBKB BKB20190710141011307/10/19 14:10:31  5-MIN KBKB 102010Z AUTO VRB04KT 10SM VCTS CLR 32/24 A2994 280 63 2300 VRB/04 RMK AO2 T03220244
53988KBKB BKB20190710141511707/10/19 14:15:31  5-MIN KBKB 102015Z AUTO VRB03KT 10SM TS CLR 32/24 A2994 280 65 2300 VRB/03 RMK AO2 TSB15 T03170244
53988KBKB BKB20190710142011707/10/19 14:20:31  5-MIN KBKB 102020Z AUTO VRB03KT 10SM TS CLR 32/24 A2994 280 63 2400 VRB/03 RMK AO2 TSB15 T03220244
53988KBKB BKB20190710142511707/10/19 14:25:31  5-MIN KBKB 102025Z AUTO VRB03KT 10SM TS CLR 32/24 A2993 290 63 2400 VRB/03 RMK AO2 TSB15 T03220244
53988KBKB BKB20190710143011707/10/19 14:30:31  5-MIN KBKB 102030Z AUTO 00000KT 10SM TS CLR 32/24 A2994 280 63 2400 000/00 RMK AO2 TSB15 T03220244
53988KBKB BKB20190710143511707/10/19 14:35:31  5-MIN KBKB 102035Z AUTO VRB03KT 10SM TS CLR 32/24 A2994 280 63 2300 VRB/03 RMK AO2 TSB15 T03220244
53988KBKB BKB20190710144011707/10/19 14:40:31  5-MIN KBKB 102040Z AUTO 00000KT 10SM TS CLR 33/24 A2993 290 61 2400 000/00 RMK AO2 TSB15 T03280244
53988KBKB BKB20190710144511707/10/19 14:45:31  5-MIN KBKB 102045Z AUTO 00000KT 10SM TS CLR 33/24 A2993 290 61 2400 000/00 RMK AO2 TSB15 T03280244
53988KBKB BKB20190710145013607/10/19 14:50:31  5-MIN KBKB 102050Z AUTO 00000KT 10SM TS CLR 33/24 A2993 290 61 2400 000/00 RMK AO2 TSB15 SLP160 60000 T03280244 58003
53988KBKB BKB20190710145511407/10/19 14:55:31  5-MIN KBKB 102055Z AUTO 00000KT 10SM TS FEW100 32/24 A2993 290 65 2300 000/00 RMK AO2 T03170244
53988KBKB BKB20190710150012807/10/19 15:00:31  5-MIN KBKB 102100Z AUTO VRB04KT 10SM TS FEW046 SCT075 BKN110 31/24 A2994 280 67 2200 VRB/04 RMK AO2 T03110244
53988KBKB BKB20190710150514707/10/19 15:05:31  5-MIN KBKB 102105Z AUTO VRB04KT 10SM -RA SCT046 SCT055 BKN075 30/24 A2994 280 72 2100 VRB/04 RMK AO2 RAB02 TSE01 P0000 T03000244
53988KBKB BKB20190710151013307/10/19 15:10:31  5-MIN KBKB 102110Z AUTO 00000KT 10SM -RA BKN044 29/24 A2993 290 76 2000 000/00 RMK AO2 RAB02 TSE01 P0000 T02890244
53988KBKB BKB20190710151513307/10/19 15:15:31  5-MIN KBKB 102115Z AUTO 00000KT 10SM -RA BKN044 29/24 A2993 290 74 2000 000/00 RMK AO2 RAB02 TSE01 P0000 T02890239
53988KBKB BKB20190710152014607/10/19 15:20:31  5-MIN KBKB 102120Z AUTO 00000KT 10SM SCT044 BKN075 BKN095 29/24 A2993 290 74 2000 000/00 RMK AO2 RAB02E19 TSE01 P0000 T02890239
53988KBKB BKB20190710152514707/10/19 15:25:31  5-MIN KBKB 102125Z AUTO 00000KT 10SM -RA BKN043 BKN080 BKN100 29/24 A2993 290 74 2000 000/00 RMK AO2 RAB02 TSE01 P0000 T02890239
53988KBKB BKB20190710153013307/10/19 15:30:31  5-MIN KBKB 102130Z AUTO 00000KT 10SM -RA BKN043 28/24 A2993 290 76 1900 000/00 RMK AO2 RAB02 TSE01 P0000 T02830239
53988KBKB BKB20190710153514007/10/19 15:35:31  5-MIN KBKB 102135Z AUTO 00000KT 10SM -RA FEW039 SCT046 29/24 A2993 290 76 2000 000/00 RMK AO2 RAB02 TSE01 P0000 T02890244
53988KBKB BKB20190710154013207/10/19 15:40:31  5-MIN KBKB 102140Z AUTO 00000KT 10SM FEW039 28/24 A2993 290 79 1900 000/00 RMK AO2 RAB02E38 TSE01 P0000 T02830244
53988KBKB BKB20190710154513207/10/19 15:45:31  5-MIN KBKB 102145Z AUTO 00000KT 10SM FEW041 29/24 A2992 290 76 2000 000/00 RMK AO2 RAB02E38 TSE01 P0000 T02890244
53988KBKB BKB20190710155013907/10/19 15:50:31  5-MIN KBKB 102150Z AUTO 00000KT 10SM FEW041 29/24 A2992 300 74 2100 000/00 RMK AO2 RAB02E38 TSE01 SLP157 P0000 T02940244
53988KBKB BKB20190710155510807/10/19 15:55:31  5-MIN KBKB 102155Z AUTO 00000KT 10SM CLR 29/24 A2992 300 74 2100 000/00 RMK AO2 T02940244
53988KBKB BKB20190710160010807/10/19 16:00:31  5-MIN KBKB 102200Z AUTO 00000KT 10SM CLR 29/24 A2992 300 76 2000 000/00 RMK AO2 T02890244
53988KBKB BKB20190710160510807/10/19 16:05:31  5-MIN KBKB 102205Z AUTO 00000KT 10SM CLR 29/24 A2992 300 74 2100 000/00 RMK AO2 T02940244
53988KBKB BKB20190710161010807/10/19 16:10:31  5-MIN KBKB 102210Z AUTO 00000KT 10SM CLR 29/24 A2992 300 74 2100 000/00 RMK AO2 T02940244
53988KBKB BKB20190710161510807/10/19 16:15:31  5-MIN KBKB 102215Z AUTO 00000KT 10SM CLR 30/25 A2992 300 74 2100 000/00 RMK AO2 T03000250
53988KBKB BKB20190710162010807/10/19 16:20:31  5-MIN KBKB 102220Z AUTO 00000KT 10SM CLR 31/25 A2991 300 72 2200 000/00 RMK AO2 T03060250
53988KBKB BKB20190710162510807/10/19 16:25:31  5-MIN KBKB 102225Z AUTO 00000KT 10SM CLR 30/25 A2991 310 74 2100 000/00 RMK AO2 T03000250
53988KBKB BKB20190710163010807/10/19 16:30:31  5-MIN KBKB 102230Z AUTO 00000KT 10SM CLR 30/25 A2991 310 74 2100 000/00 RMK AO2 T03000250
53988KBKB BKB20190710163510807/10/19 16:35:31  5-MIN KBKB 102235Z AUTO 00000KT 10SM CLR 30/24 A2991 310 72 2100 000/00 RMK AO2 T03000244
53988KBKB BKB20190710164010807/10/19 16:40:31  5-MIN KBKB 102240Z AUTO 00000KT 10SM CLR 30/25 A2990 310 74 2100 000/00 RMK AO2 T03000250
53988KBKB BKB20190710164510807/10/19 16:45:31  5-MIN KBKB 102245Z AUTO 00000KT 10SM CLR 31/25 A2990 310 72 2200 000/00 RMK AO2 T03060250
53988KBKB BKB20190710165011507/10/19 16:50:31  5-MIN KBKB 102250Z AUTO 00000KT 10SM CLR 31/26 A2990 320 74 2200 000/00 RMK AO2 SLP150 T03060256
53988KBKB BKB20190710165510807/10/19 16:55:31  5-MIN KBKB 102255Z AUTO 00000KT 10SM CLR 31/25 A2990 320 72 2200 000/00 RMK AO2 T03060250
53988KBKB BKB20190710170010807/10/19 17:00:31  5-MIN KBKB 102300Z AUTO 00000KT 10SM CLR 31/26 A2990 320 74 2200 000/00 RMK AO2 T03060256
53988KBKB BKB20190710170510807/10/19 17:05:31  5-MIN KBKB 102305Z AUTO 00000KT 10SM CLR 31/26 A2990 310 74 2200 000/00 RMK AO2 T03060256
53988KBKB BKB20190710171010807/10/19 17:10:31  5-MIN KBKB 102310Z AUTO 00000KT 10SM CLR 31/25 A2990 310 69 2300 000/00 RMK AO2 T03110250
53988KBKB BKB20190710171510807/10/19 17:15:31  5-MIN KBKB 102315Z AUTO 00000KT 10SM CLR 31/26 A2990 320 74 2200 000/00 RMK AO2 T03060256
53988KBKB BKB20190710172010807/10/19 17:20:31  5-MIN KBKB 102320Z AUTO 00000KT 10SM CLR 31/26 A2990 320 74 2200 000/00 RMK AO2 T03060256
53988KBKB BKB20190710172510807/10/19 17:25:31  5-MIN KBKB 102325Z AUTO 00000KT 10SM CLR 31/26 A2990 320 72 2300 000/00 RMK AO2 T03110256
53988KBKB BKB20190710173010807/10/19 17:30:31  5-MIN KBKB 102330Z AUTO 00000KT 10SM CLR 31/25 A2989 320 69 2300 000/00 RMK AO2 T03110250
53988KBKB BKB20190710183010807/10/19 18:30:31  5-MIN KBKB 110030Z AUTO 00000KT 10SM CLR 30/26 A2989 320 77 2200 000/00 RMK AO2 T03000256
53988KBKB BKB20190710183510807/10/19 18:35:31  5-MIN KBKB 110035Z AUTO 00000KT 10SM CLR 30/26 A2989 320 79 2200 000/00 RMK AO2 T03000261
53988KBKB BKB20190710184010807/10/19 18:40:31  5-MIN KBKB 110040Z AUTO 00000KT 10SM CLR 30/26 A2990 320 79 2200 000/00 RMK AO2 T03000261
53988KBKB BKB20190710184510807/10/19 18:45:31  5-MIN KBKB 110045Z AUTO 00000KT 10SM CLR 30/26 A2990 310 69 2300 000/00 RMK AO2 T03110250
53988KBKB BKB20190710184510807/10/19 18:45:31  5-MIN KBKB 110045Z AUTO 00000KT 10SM CLR 30/26 A2990 310 79 2100 000/00 RMK AO2 T03000261
53988KBKB BKB20190710185011507/10/19 18:50:31  5-MIN KBKB 110050Z AUTO 00000KT 10SM CLR 29/26 A2991 310 82 2100 000/00 RMK AO2 SLP152 T02940261
53988KBKB BKB20190710185510807/10/19 18:55:31  5-MIN KBKB 110055Z AUTO 00000KT 10SM CLR 29/26 A2991 310 79 2200 000/00 RMK AO2 T03000261
53988KBKB BKB20190710185510807/10/19 18:55:31  5-MIN KBKB 110055Z AUTO 00000KT 10SM CLR 29/26 A2991 310 82 2100 000/00 RMK AO2 T02940261
53988KBKB BKB20190710190010807/10/19 19:00:31  5-MIN KBKB 110100Z AUTO 00000KT 10SM CLR 29/26 A2991 310 82 2100 000/00 RMK AO2 T02940261
53988KBKB BKB20190710190510807/10/19 19:05:31  5-MIN KBKB 110105Z AUTO 00000KT 10SM CLR 29/26 A2992 300 85 2000 000/00 RMK AO2 T02890261
53988KBKB BKB20190710190516507/10/19 19:05:31  5-MIN KBKB 110105Z AUTO 00000KT 10SM CLR 29/26 A2992 30  5-MIN KBKB 110045Z AUTO 00000KT 10SM CLR 30/26 A2990 310 79 2100 000/00 RMK AO2 T03000261
53988KBKB BKB20190710191010807/10/19 19:10:31  5-MIN KBKB 110110Z AUTO 00000KT 10SM CLR 29/26 A2992 300 82 2000 000/00 RMK AO2 T02890256
53988KBKB BKB20190710191510807/10/19 19:15:31  5-MIN KBKB 110115Z AUTO 00000KT 10SM CLR 29/26 A2992 300 82 2000 000/00 RMK AO2 T02890256
53988KBKB BKB20190710192010807/10/19 19:20:31  5-MIN KBKB 110120Z AUTO 00000KT 10SM CLR 28/26 A2992 300 85 1900 000/00 RMK AO2 T02830256
53988KBKB BKB20190710192510807/10/19 19:25:31  5-MIN KBKB 110125Z AUTO 00000KT 10SM CLR 28/26 A2992 300 85 1900 000/00 RMK AO2 T02830256
53988KBKB BKB20190710193010807/10/19 19:30:31  5-MIN KBKB 110130Z AUTO 00000KT 10SM CLR 28/26 A2992 300 85 1900 000/00 RMK AO2 T02830256
53988KBKB BKB20190710193510807/10/19 19:35:31  5-MIN KBKB 110135Z AUTO 00000KT 10SM CLR 28/26 A2992 300 85 1900 000/00 RMK AO2 T02830256
53988KBKB BKB20190710194010807/10/19 19:40:31  5-MIN KBKB 110140Z AUTO 00000KT 10SM CLR 28/26 A2992 300 87 1900 000/00 RMK AO2 T02780256
53988KBKB BKB20190710194510807/10/19 19:45:31  5-MIN KBKB 110145Z AUTO 00000KT 10SM CLR 28/26 A2992 300 87 1900 000/00 RMK AO2 T02780256
53988KBKB BKB20190710195011507/10/19 19:50:31  5-MIN KBKB 110150Z AUTO 00000KT 10SM CLR 28/26 A2992 300 87 1900 000/00 RMK AO2 SLP157 T02780256
53988KBKB BKB20190710195510807/10/19 19:55:31  5-MIN KBKB 110155Z AUTO 00000KT 10SM CLR 28/26 A2992 300 87 1900 000/00 RMK AO2 T02780256
53988KBKB BKB20190710200010807/10/19 20:00:31  5-MIN KBKB 110200Z AUTO 00000KT 10SM CLR 28/26 A2993 290 87 1900 000/00 RMK AO2 T02780256
53988KBKB BKB20190710200510807/10/19 20:05:31  5-MIN KBKB 110205Z AUTO 00000KT 10SM CLR 28/26 A2993 290 87 1900 000/00 RMK AO2 T02780256
53988KBKB BKB20190710201010807/10/19 20:10:31  5-MIN KBKB 110210Z AUTO 00000KT 10SM CLR 27/26 A2993 290 90 1800 000/00 RMK AO2 T02720256
53988KBKB BKB20190710201510807/10/19 20:15:31  5-MIN KBKB 110215Z AUTO 00000KT 10SM CLR 27/26 A2993 290 90 1800 000/00 RMK AO2 T02720256
53988KBKB BKB20190710202010807/10/19 20:20:31  5-MIN KBKB 110220Z AUTO 00000KT 10SM CLR 27/26 A2993 290 90 1800 000/00 RMK AO2 T02720256
53988KBKB BKB20190710202510807/10/19 20:25:31  5-MIN KBKB 110225Z AUTO 00000KT 10SM CLR 27/26 A2993 290 90 1800 000/00 RMK AO2 T02720256
53988KBKB BKB20190710203011707/10/19 20:30:31  5-MIN KBKB 110230Z AUTO 00000KT  00000KT 10SM CLR 27/26 A2992 300 93 1800 000/00 RMK AO2 T02670256
53988KBKB BKB20190710222510707/10/19 22:25:31  5-MIN KBKB 110425Z AUTO 00000KT 8SM CLR 27/26 A2991 310 93 1800 000/00 RMK AO2 T02670256
53988KBKB BKB20190710223010707/10/19 22:30:31  5-MIN KBKB 110430Z AUTO 00000KT 8SM CLR 27/26 A2991 310 93 1800 000/00 RMK AO2 T02670256
53988KBKB BKB20190710223510707/10/19 22:35:31  5-MIN KBKB 110435Z AUTO 00000KT 9SM CLR 27/26 A2991 310 93 1800 000/00 RMK AO2 T02670256
53988KBKB BKB20190710224010707/10/19 22:40:31  5-MIN KBKB 110440Z AUTO 00000KT 9SM CLR 27/26 A2990 310 93 1800 000/00 RMK AO2 T02670256
53988KBKB BKB20190710224510707/10/19 22:45:31  5-MIN KBKB 110445Z AUTO 00000KT 8SM CLR 27/26 A2990 320 93 1800 000/00 RMK AO2 T02670256
53988KBKB BKB20190710225011407/10/19 22:50:31  5-MIN KBKB 110450Z AUTO 00000KT 8SM CLR 27/26 A2990 310 93 1800 000/00 RMK AO2 SLP150 T02670256
53988KBKB BKB20190710225510707/10/19 22:55:31  5-MIN KBKB 110455Z AUTO 00000KT 8SM CLR 27/25 A2990 320 90 1800 000/00 RMK AO2 T02670250
53988KBKB BKB20190710230010707/10/19 23:00:31  5-MIN KBKB 110500Z AUTO 00000KT 8SM CLR 26/25 A2990 320 93 1700 000/00 RMK AO2 T02610250
53988KBKB BKB20190710230510707/10/19 23:05:31  5-MIN KBKB 110505Z AUTO 00000KT 7SM CLR 26/25 A2990 320 93 1700 000/00 RMK AO2 T02610250
53988KBKB BKB20190710231010707/10/19 23:10:31  5-MIN KBKB 110510Z AUTO 00000KT 7SM CLR 26/25 A2990 320 93 1700 000/00 RMK AO2 T02610250
53988KBKB BKB20190710231510707/10/19 23:15:31  5-MIN KBKB 110515Z AUTO 00000KT 8SM CLR 26/25 A2990 310 93 1700 000/00 RMK AO2 T02610250
53988KBKB BKB20190710232010707/10/19 23:20:31  5-MIN KBKB 110520Z AUTO 00000KT 7SM CLR 26/25 A2991 310 93 1700 000/00 RMK AO2 T02610250
53988KBKB BKB20190710232510707/10/19 23:25:31  5-MIN KBKB 110525Z AUTO 00000KT 7SM CLR 26/25 A2990 310 93 1700 000/00 RMK AO2 T02610250
53988KBKB BKB20190710233010707/10/19 23:30:31  5-MIN KBKB 110530Z AUTO 00000KT 7SM CLR 26/25 A2991 310 93 1700 000/00 RMK AO2 T02610250
53988KBKB BKB20190710233510707/10/19 23:35:31  5-MIN KBKB 110535Z AUTO 00000KT 8SM CLR 26/25 A2990 310 93 1700 000/00 RMK AO2 T02610250
53988KBKB BKB20190710234010707/10/19 23:40:31  5-MIN KBKB 110540Z AUTO 00000KT 8SM CLR 26/25 A2990 320 93 1700 000/00 RMK AO2 T02610250
53988KBKB BKB20190710234510707/10/19 23:45:31  5-MIN KBKB 110545Z AUTO 00000KT 9SM CLR 26/25 A2990 320 93 1700 000/00 RMK AO2 T02610250
53988KBKB BKB20190710235014207/10/19 23:50:31  5-MIN KBKB 110550Z AUTO 00000KT 9SM CLR 26/25 A2990 320 93 1700 000/00 RMK AO2 SLP148 T02610250 10311 20261 403440250 51013
53988KBKB BKB20190710235510707/10/19 23:55:31  5-MIN KBKB 110555Z AUTO VRB03KT 8SM CLR 26/25 A2990 310 93 1700 VRB/03 RMK AO2 T02610250
53988KBKB BKB20190711000010707/11/19 00:00:31  5-MIN KBKB 110600Z AUTO 00000KT 9SM CLR 26/25 A2991 310 93 1700 000/00 RMK AO2 T02610250
53988KBKB BKB20190711000515407/11/19 00:05:31  5-MIN KBKB 110605Z AUTO 00000KT 10SM CLR 27/25 A2991 310 900630Z AUTO 00000KT 10SM CLR 27/25 A2991 310 90 1800 000/00 RMK AO2 T02670250
53988KBKB BKB20190711003510807/11/19 00:35:31  5-MIN KBKB 110635Z AUTO 00000KT 10SM CLR 27/25 A2991 310 90 1800 000/00 RMK AO2 T02670250
53988KBKB BKB20190711004010807/11/19 00:40:31  5-MIN KBKB 110640Z AUTO 00000KT 10SM CLR 27/25 A2991 310 90 1800 000/00 RMK AO2 T02670250
53988KBKB BKB20190711004513807/11/19 00:45:31  5-MIN KBKB 110645Z AUTO 00000KT 10SM CLR 27/25 A2991 310 90 1800 000/00 RMK AO2 89 320 93 1700 VRB/03 RMK AO2 T02560244
53988KBKB BKB20190711060511307/11/19 06:05:31  5-MIN KBKB 111205Z AUTO 00000KT 6SM BR BKN004 26/24 A2990 320 93 1700 000/00 RMK AO2 T02560244
53988KBKB BKB20190711061011307/11/19 06:10:31  5-MIN KBKB 111210Z AUTO VRB03KT 6SM BR OVC004 26/24 A2990 320 93 1700 VRB/03 RMK AO2 T02560244
53988KBKB BKB20190711061511307/11/19 06:15:31  5-MIN KBKB 111215Z AUTO VRB03KT 6SM BR OVC004 26/24 A2990 320 93 1700 VRB/03 RMK AO2 T02560244
53988KBKB BKB20190711062011307/11/19 06:20:31  5-MIN KBKB 111220Z AUTO VRB03KT 6SM BR OVC004 26/24 A2990 320 93 1700 VRB/03 RMK AO2 T02560244
53988KBKB BKB20190711062511307/11/19 06:25:31  5-MIN KBKB 111225Z AUTO 00000KT 6SM BR OVC004 26/24 A2990 320 93 1700 000/00 RMK AO2 T02560244
53988KBKB BKB20190711063011307/11/19 06:30:31  5-MIN KBKB 111230Z AUTO VRB03KT 6SM BR OVC004 26/24 A2990 320 93 1600 VRB/03 RMK AO2 T02560244
53988KBKB BKB20190711071011107/11/19 07:10:31  5-MIN KBKB 111310Z AUTO 05003KT 10SM SCT005 27/24 A2991 310 87 1800 040/03 RMK AO2 T02670244
53988KBKB BKB20190711071511107/11/19 07:15:31  5-MIN KBKB 111315Z AUTO 02003KT 10SM FEW006 27/24 A2991 310 87 1800 010/03 RMK AO2 T02670244
53988KBKB BKB20190711072011107/11/19 07:20:31  5-MIN KBKB 111320Z AUTO VRB03KT 10SM FEW006 27/24 A2991 310 84 1800 VRB/03 RMK AO2 T02720244
53988KBKB BKB20190711072512607/11/19 07:25:31  5-MIN KBKB 111325Z -MIN KBKB 111540Z AUTO VRB03KT 10SM CLR 31/24 A2989 330 69 2200 VRB/03 RMK AO2 T03060244
53988KBKB BKB20190711094511107/11/19 09:45:31  5-MIN KBKB 111545Z AUTO VRB03KT 10SM FEW021 31/24 A2989 330 69 2200 VRB/03 RMK AO2 T03060244
53988KBKB BKB20190711095011807/11/19 09:50:31  5-MIN KBKB 111550Z AUTO VRB06KT 10SM FEW021 31/24 A2989 330 69 2200 VRB/06 RMK AO2 SLP144 T03060244
53988KBKB BKB20190711095507107/11/19 09:55:31  5-MIN KBKB 111555Z AUTO VRB05KT 10SM K AO2 T03110244
53988KBKB BKB20190711102011107/11/19 10:20:31  5-MIN KBKB 111620Z AUTO VRB03KT 10SM FEW024 32/25 A2988 330 67 2400 VRB/03 RMK AO2 T03170250
53988KBKB BKB20190711190510807/11/19 19:05:31  5-MIN KBKB 120105Z AUTO 00000KT 10SM CLR 30/24 A2978 430 69 2300 000/00 RMK AO2 T03000239
53988KBKB BKB20190711191010807/11/19 19:10:31  5-MIN KBKB 120110Z AUTO 02003KT 10SM CLR 29/24 A2978 420 71 2200 010/03 RMK AO2 T02940239
53988KBKB BKB20190711191510807/11/19 19:15:31  5-MIN KBKB 120115Z AUTO 00000KT 10SM CLR 29/24 A2979 420 71 2200 000/00 RMK AO2 T02940239
53988KBKB BKB20190711192010807/11/19 19:20:31  5-MIN KBKB 120120Z AUTO 00000KT 10SM CLR 29/24 A2979 420 71 2200 000/00 RMK AO2 T02940239
53988KBKB BKB20190711192510807/11/19 19:25:31  5-MIN KBKB 120125Z AUTO 00000KT 10SM CLR 29/24 A2979 420 71 2200 000/00 RMK AO2 T02940239
53988KBKB BKB20190711193010807/11/19 19:30:31  5-MIN KBKB 120130Z AUTO 00000KT 10SM CLR 29/24 A2979 420 74 2100 000/00 RMK AO2 T02890239
53988KBKB BKB20190711193510807/11/19 19:35:31  5-MIN KBKB 120135Z AUTO 00000KT 10SM CLR 29/23 A2979 420 71 2100 000/00 RMK AO2 T02890233
53988KBKB BKB20190711194010807/11/19 19:40:31  5-MIN KBKB 120140Z AUTO VRB03KT 10SM CLR 29/24 A2980 410 74 2100 VRB/03 RMK AO2 T02890239
53988KBKB BKB20190711194510807/11/19 19:45:31  5-MIN KBKB 120145Z AUTO 00000KT 10SM CLR 29/23 A2980 410 71 2100 000/00 RMK AO2 T02890233
53988KBKB BKB20190711195011507/11/19 19:50:31  5-MIN KBKB 120150Z AUTO 00000KT 10SM CLR 29/23 A2980 410 71 2100 000/00 RMK AO2 SLP116 T02890233
53988KBKB BKB20190711195510807/11/19 19:55:31  5-MIN KBKB 120155Z AUTO 00000KT 10SM CLR 29/23 A2981 400 71 2100 000/00 RMK AO2 T02890233
53988KBKB BKB20190711200010807/11/19 20:00:31  5-MIN KBKB 120200Z AUTO 00000KT 10SM CLR 28/23 A2981 400 74 2100 000/00 RMK AO2 T02830233
53988KBKB BKB20190711200510807/11/19 20:05:31  5-MIN KBKB 120205Z AUTO 00000KT 10SM CLR 28/23 A2981 400 74 2100 000/00 RMK AO2 T02830233
53988KBKB BKB20190711201010807/11/19 20:10:31  5-MIN KBKB 120210Z AUTO 00000KT 10SM CLR 29/23 A2981 400 71 2100 000/00 RMK AO2 T02890233
53988KBKB BKB20190711201510807/11/19 20:15:31  5-MIN KBKB 120215Z AUTO 00000KT 10SM CLR 28/23 A2981 400 74 2100 000/00 RMK AO2 T02830233
53988KBKB BKB20190711202010807/11/19 20:20:31  5-MIN KBKB 120220Z AUTO 00000KT 10SM CLR 28/23 A2981 400 74 2100 000/00 RMK AO2 T02830233
53988KBKB BKB20190711202510807/11/19 20:25:31  5-MIN KBKB 120225Z AUTO 00000KT 10SM CLR 28/23 A2981 400 76 2000 000/00 RMK AO2 T02780233
53988KBKB BKB20190711203010807/11/19 20:30:31  5-MIN KBKB 120230Z AUTO VRB03KT 10SM CLR 28/23 A2980 410 76 2000 VRB/03 RMK AO2 T02780233
53988KBKB BKB20190711203510807/11/19 20:35:31  5-MIN KBKB 120235Z AUTO 00000KT 10SM CLR 28/23 A2981 400 76 2000 000/00 RMK AO2 T02780233
53988KBKB BKB20190711204010807/11/19 20:40:31  5-MIN KBKB 120240Z AUTO 00000KT 10SM CLR 28/23 A2981 400 76 2000 000/00 RMK AO2 T02780233
53988KBKB BKB20190711204510807/11/19 20:45:31  5-MIN KBKB 120245Z AUTO 00000KT 10SM CLR 28/23 A2981 400 76 2000 000/00 RMK AO2 T02780233
53988KBKB BKB20190711205012107/11/19 20:50:31  5-MIN KBKB 120250Z AUTO 00000KT 10SM CLR 28/23 A2982 400 76 2000 000/00 RMK AO2 SLP120 T02780233 56008
53988KBKB BKB20190711205510807/11/19 20:55:31  5-MIN KBKB 120255Z AUTO 00000KT 10SM CLR 28/23 A2982 390 76 2000 000/00 RMK AO2 T02780233
53988KBKB BKB20190711210010807/11/19 21:00:31  5-MIN KBKB 120300Z AUTO 00000KT 10SM CLR 28/23 A2982 390 76 2000 000/00 RMK AO2 T02780233
53988KBKB BKB20190711210510807/11/19 21:05:31  5-MIN KBKB 120305Z AUTO 00000KT 10SM CLR 28/23 A2982 390 76 2000 000/00 RMK AO2 T02780233
53988KBKB BKB20190711211010807/11/19 21:10:31  5-MIN KBKB 120310Z AUTO 00000KT 10SM CLR 28/23 A2982 390 76 2000 000/00 RMK AO2 T02780233
53988KBKB BKB20190711211510807/11/19 21:15:31  5-MIN KBKB 120315Z AUTO 01003KT 10SM CLR 27/23 A2983 390 79 1900 360/03 RMK AO2 T02720233
53988KBKB BKB20190711212010807/11/19 21:20:31  5-MIN KBKB 120320Z AUTO 01003KT 10SM CLR 28/23 A2983 380 76 2000 010/03 RMK AO2 T02780233
53988KBKB BKB20190711212510807/11/19 21:25:31  5-MIN KBKB 120325Z AUTO VRB03KT 10SM CLR 28/23 A2983 380 76 2000 VRB/03 RMK AO2 T02780233
53988KBKB BKB20190711213010807/11/19 21:30:31  5-MIN KBKB 120330Z AUTO 01004KT 10SM CLR 27/23 A2982 390 79 1900 010/04 RMK AO2 T02720233
53988KBKB BKB20190711213510807/11/19 21:35:31  5-MIN KBKB 120335Z AUTO 00000KT 10SM CLR 27/23 A2982 390 79 1900 000/00 RMK AO2 T02720233
53988KBKB BKB20190711214010807/11/19 21:40:31  5-MIN KBKB 120340Z AUTO 02003KT 10SM CLR 28/23 A2982 390 76 2000 020/03 RMK AO2 T02780233
53988KBKB BKB20190711214510807/11/19 21:45:31  5-MIN KBKB 120345Z AUTO VRB04KT 10SM CLR 28/23 A2982 390 76 2000 VRB/04 RMK AO2 T02780233
53988KBKB BKB20190711215011507/11/19 21:50:31  5-MIN KBKB 120350Z AUTO VRB04KT 10SM CLR 28/23 A2981 400 76 2000 VRB/04 RMK AO2 SLP119 T02780233
53988KBKB BKB20190711215510807/11/19 21:55:31  5-MIN KBKB 120355Z AUTO VRB03KT 10SM CLR 27/23 A2981 400 79 1900 VRB/03 RMK AO2 T02720233
53988KBKB BKB20190711220010807/11/19 22:00:31  5-MIN KBKB 120400Z AUTO VRB03KT 10SM CLR 27/23 A2981 400 79 1900 VRB/03 RMK AO2 T02720233
53988KBKB BKB20190711220510807/11/19 22:05:31  5-MIN KBKB 120405Z AUTO VRB03KT 10SM CLR 28/23 A2981 400 76 2000 VRB/03 RMK AO2 T02780233
53988KBKB BKB20190711221010807/11/19 22:10:31  5-MIN KBKB 120410Z AUTO 00000KT 10SM CLR 28/23 A2981 400 76 2000 000/00 RMK AO2 T02780233
53988KBKB BKB20190711221510807/11/19 22:15:31  5-MIN KBKB 120415Z AUTO VRB03KT 10SM CLR 28/23 A2981 400 76 2000 VRB/03 RMK AO2 T02780233
53988KBKB BKB20190711222010807/11/19 22:20:31  5-MIN KBKB 120420Z AUTO VRB04KT 10SM CLR 28/23 A2981 400 74 2100 VRB/04 RMK AO2 T02830233
53988KBKB BKB20190711222510807/11/19 22:25:31  5-MIN KBKB 120425Z AUTO VRB03KT 10SM CLR 28/23 A2980 410 76 2000 VRB/03 RMK AO2 T02780233
53988KBKB BKB20190711223010807/11/19 22:30:31  5-MIN KBKB 120430Z AUTO VRB04KT 10SM CLR 28/23 A2980 410 76 2000 VRB/04 RMK AO2 T02780233
53988KBKB BKB20190711223510807/11/19 22:35:31  5-MIN KBKB 120435Z AUTO VRB04KT 10SM CLR 28/23 A2981 400 76 2000 VRB/04 RMK AO2 T02780233
53988KBKB BKB20190711224010807/11/19 22:40:31  5-MIN KBKB 120440Z AUTO VRB03KT 10SM CLR 28/23 A2981 400 76 2000 VRB/03 RMK AO2 T02780233
53988KBKB BKB20190711224510807/11/19 22:45:31  5-MIN KBKB 120445Z AUTO VRB04KT 10SM CLR 28/23 A2981 400 76 2000 VRB/04 RMK AO2 T02780233
53988KBKB BKB20190711225011507/11/19 22:50:31  5-MIN KBKB 120450Z AUTO 02006KT 10SM CLR 28/23 A2981 400 76 2000 020/06 RMK AO2 SLP119 T02780233
53988KBKB BKB20190711225510807/11/19 22:55:31  5-MIN KBKB 120455Z AUTO VRB05KT 10SM CLR 28/23 A2981 400 76 2000 VRB/05 RMK AO2 T02780233
53988KBKB BKB20190711230010807/11/19 23:00:31  5-MIN KBKB 120500Z AUTO VRB04KT 10SM CLR 27/23 A2981 400 79 1900 VRB/04 RMK AO2 T02720233
53988KBKB BKB20190711230510807/11/19 23:05:31  5-MIN KBKB 120505Z AUTO VRB04KT 10SM CLR 27/23 A2981 400 79 1900 VRB/04 RMK AO2 T02720233
53988KBKB BKB20190711231010807/11/19 23:10:31  5-MIN KBKB 120510Z AUTO VRB04KT 10SM CLR 27/23 A2980 410 79 2000 VRB/04 RMK AO2 T02720233
53988KBKB BKB20190711231510807/11/19 23:15:31  5-MIN KBKB 120515Z AUTO VRB03KT 10SM CLR 27/23 A2980 410 79 2000 VRB/03 RMK AO2 T02720233
53988KBKB BKB20190711232011507/11/19 23:20:31  5-MIN KBKB 120520Z AUTO 00000KT 10SM CLR 27/23 A2979 420 79 2000 000/00 RMK AO2 PRESFR T02720233
53988KBKB BKB20190711232511507/11/19 23:25:31  5-MIN KBKB 120525Z AUTO VRB03KT 10SM CLR 27/23 A2978 430 79 2000 VRB/03 RMK AO2 PRESFR T02720233
53988KBKB BKB20190711233010807/11/19 23:30:31  5-MIN KBKB 120530Z AUTO VRB03KT 10SM CLR 27/23 A2977 430 79 2000 VRB/03 RMK AO2 T02720233
53988KBKB BKB20190711233510807/11/19 23:35:31  5-MIN KBKB 120535Z AUTO 00000KT 10SM CLR 27/23 A2977 440 79 2000 000/00 RMK AO2 T02720233
53988KBKB BKB20190711234010807/11/19 23:40:31  5-MIN KBKB 120540Z AUTO 00000KT 10SM CLR 27/23 A2977 440 82 1900 000/00 RMK AO2 T02670233
53988KBKB BKB20190711234510807/11/19 23:45:31  5-MIN KBKB 120545Z AUTO 00000KT 10SM CLR 27/23 A2976 440 82 1900 000/00 RMK AO2 T02670233
53988KBKB BKB20190711235014307/11/19 23:50:31  5-MIN KBKB 120550Z AUTO 00000KT 10SM CLR 27/23 A2976 440 82 1900 000/00 RMK AO2 SLP102 T02670233 10311 20267 403500250 53014
53988KBKB BKB20190711235510807/11/19 23:55:31  5-MIN KBKB 120555Z AUTO VRB03KT 10SM CLR 27/23 A2977 440 82 1900 VRB/03 RMK AO2 T02670233
53988KBKB BKB20190712000010807/12/19 00:00:31  5-MIN KBKB 120600Z AUTO 00000KT 10SM CLR 27/23 A2977 440 82 1900 000/00 RMK AO2 T02670233
53988KBKB BKB20190712000510807/12/19 00:05:31  5-MIN KBKB 120605Z AUTO 00000KT 10SM CLR 27/23 A2977 440 82 1900 000/00 RMK AO2 T02670233
53988KBKB BKB20190712001010807/12/19 00:10:31  5-MIN KBKB 120610Z AUTO 00000KT 10SM CLR 27/23 A2977 440 82 1900 000/00 RMK AO2 T02670233
53988KBKB BKB20190712001510807/12/19 00:15:31  5-MIN KBKB 120615Z AUTO VRB03KT 10SM CLR 27/23 A2977 440 82 1900 VRB/03 RMK AO2 T02670233
53988KBKB BKB20190712002010807/12/19 00:20:31  5-MIN KBKB 120620Z AUTO 00000KT 10SM CLR 27/23 A2977 440 82 1900 000/00 RMK AO2 T02670233
53988KBKB BKB20190712002510807/12/19 00:25:31  5-MIN KBKB 120625Z AUTO VRB03KT 10SM CLR 27/23 A2977 440 82 1900 VRB/03 RMK AO2 T02670233
53988KBKB BKB20190712003010807/12/19 00:30:31  5-MIN KBKB 120630Z AUTO VRB03KT 10SM CLR 27/23 A2977 440 82 1900 VRB/03 RMK AO2 T02670233
53988KBKB BKB20190712003510807/12/19 00:35:31  5-MIN KBKB 120635Z AUTO VRB03KT 10SM CLR 27/23 A2977 440 82 1900 VRB/03 RMK AO2 T02670233
53988KBKB BKB20190712004010807/12/19 00:40:31  5-MIN KBKB 120640Z AUTO 00000KT 10SM CLR 27/23 A2977 440 82 1900 000/00 RMK AO2 T02670233
53988KBKB BKB20190712004510807/12/19 00:45:31  5-MIN KBKB 120645Z AUTO 02003KT 10SM CLR 26/23 A2977 440 84 1900 020/03 RMK AO2 T02610233
53988KBKB BKB20190712005011507/12/19 00:50:31  5-MIN KBKB 120650Z AUTO 04003KT 10SM CLR 26/23 A2977 430 84 1900 030/03 RMK AO2 SLP106 T02610233
53988KBKB BKB20190712005510807/12/19 00:55:31  5-MIN KBKB 120655Z AUTO 00000KT 10SM CLR 26/23 A2977 430 84 1900 000/00 RMK AO2 T02610233
53988KBKB BKB20190712010011107/12/19 01:00:31  5-MIN KBKB 120700Z AUTO VRB03KT 10SM FEW055 27/23 A2977 430 82 1900 VRB/03 RMK AO2 T02670233
53988KBKB BKB20190712010511107/12/19 01:05:31  5-MIN KBKB 120705Z AUTO VRB03KT 10SM FEW060 26/23 A2978 430 84 1900 VRB/03 RMK AO2 T02610233
53988KBKB BKB20190712011011107/12/19 01:10:31  5-MIN KBKB 120710Z AUTO VRB03KT 10SM FEW060 26/23 A2978 430 84 1900 VRB/03 RMK AO2 T02610233
53988KBKB BKB20190712011511107/12/19 01:15:31  5-MIN KBKB 120715Z AUTO VRB03KT 10SM FEW060 26/23 A2978 430 84 1900 VRB/03 RMK AO2 T02610233
53988KBKB BKB20190712012011107/12/19 01:20:31  5-MIN KBKB 120720Z AUTO VRB03KT 10SM FEW060 26/23 A2978 430 81 1900 VRB/03 RMK AO2 T02610228
53988KBKB BKB20190712012511107/12/19 01:25:31  5-MIN KBKB 120725Z AUTO 00000KT 10SM FEW060 26/23 A2978 430 81 1900 000/00 RMK AO2 T02610228
53988KBKB BKB20190712013010807/12/19 01:30:31  5-MIN KBKB 120730Z AUTO VRB03KT 10SM CLR 26/23 A2978 430 81 1900 VRB/03 RMK AO2 T02610228
53988KBKB BKB20190712013511707/12/19 01:35:31  5-MIN KBKB 120735Z AUTO 00000KT 10SM CLR 26/23 A2978 430 81 1900  87 1700 000/00 RMK AO2 T02500228
53988KBKB BKB20190712022510807/12/19 02:25:31  5-MIN KBKB 120825Z AUTO 00000KT 10SM CLR 25/23 A2978 430 87 1700 000/00 RMK AO2 T02500228
53988KBKB BKB20190712023010807/12/19 02:30:31  5-MIN KBKB 120830Z AUTO 00000KT 10SM CLR 25/23 A2978 430 87 1700 000/00 RMK AO2 T02500228
53988KBKB BKB20190712023510807/12/19 02:35:31  5-MIN KBKB 120835Z AUTO 00000KT 10SM CLR 25/23 A2978 430 87 1700 000/00 RMK AO2 T02500228
53988KBKB BKB20190712024010807/12/19 02:40:31  5-MIN KBKB 120840Z AUTO 02004KT 10SM CLR 25/23 A2978 430 87 1700 020/04 RMK AO2 T02500228
53988KBKB BKB20190712024511107/12/19 02:45:31  5-MIN KBKB 120845Z AUTO 00000KT 10SM FEW043 25/23 A2978 430 87 1700 000/00 RMK AO2 T02500228
53988KBKB BKB20190712025012407/12/19 02:50:31  5-MIN KBKB 120850Z AUTO 00000KT 10SM SCT043 25/23 A2978 430 87 1700 000/00 RMK AO2 SLP109 T02500228 58017
53988KBKB BKB20190712025511107/12/19 02:55:31  5-MIN KBKB 120855Z AUTO 00000KT 10SM SCT045 25/23 A2978 430 87 1700 000/00 RMK AO2 T02500228
53988KBKB BKB20190712025515107/12/19 02:55:31  5-MIN KBKB 120855Z AUTO 00000KT 10SM SCT045 25/23 A2978 430 87 1700 000/00 RMK AO2 T0250022807/12/19 03:00:3000/00 RMK AO2 T02500228
53988KBKB BKB20190712030011107/12/19 03:00:31  5-MIN KBKB 120900Z AUTO 00000KT 10SM BKN047 25/23 A2978 430 87 1700 000/00 RMK AO2 T02500228
53988KBKB BKB20190712030511107/12/19 03:05:31  5-MIN KBKB 120905Z AUTO 00000KT 10SM BKN047 25/23 A2978 430 87 1700 000/00 RMK AO2 T02500228
53988KBKB BKB20190712031011107/12/19 03:10:31  5-MIN KBKB 120910Z AUTO 00000KT 10SM BKN047 25/23 A2978 430 87 1700 000/00 RMK AO2 T02500228
53988KBKB BKB20190712031511807/12/19 03:15:31  5-MIN KBKB 120915Z AUTO VRB03KT 10SM BKN045 BKN050 25/23 A2978 430 87 1700 VRB/03 RMK AO2 T02500228
53988KBKB BKB20190712032011807/12/19 03:20:31  5-MIN KBKB 120920Z AUTO 00000KT 10SM SCT040 BKN050 25/23 A2978 430 87 1700 000/00 RMK AO2 T02500228
53988KBKB BKB20190712032512507/12/19 03:25:31  5-MIN KBKB 120925Z AUTO VRB03KT 10SM FEW039 BKN050 BKN060 25/23 A2978 430 87 1700 VRB/03 RMK AO2 T02500228
53988KBKB BKB20190712033012507/12/19 03:30:31  5-MIN KBKB 120930Z AUTO 00000KT 10SM FEW034 SCT043 BKN050 25/23 A2978 430 87 1700 000/00 RMK AO2 T02500228
53988KBKB BKB20190712033512507/12/19 03:35:31  5-MIN KBKB 120935Z AUTO 00000KT 10SM SCT032 BKN043 OVC060 26/23 A2977 430 84 1800 000/00 RMK AO2 T02560228
53988KBKB BKB20190712034012507/12/19 03:40:31  5-MIN KBKB 120940Z AUTO 00000KT 10SM SCT032 BKN043 BKN060 25/23 A2977 430 87 1700 000/00 RMK AO2 T02500228
53988KBKB BKB20190712034512507/12/19 03:45:31  5-MIN KBKB 120945Z AUTO 00000KT 10SM BKN034 BKN047 BKN060 25/23 A2977 430 87 1700 000/00 RMK AO2 T02500228
53988KBKB BKB20190712035013207/12/19 03:50:31  5-MIN KBKB 120950Z AUTO 00000KT 10SM BKN032 BKN043 BKN060 25/23 A2978 430 87 1700 000/00 RMK AO2 SLP107 T02500228
53988KBKB BKB20190712035512507/12/19 03:55:31  5-MIN KBKB 120955Z AUTO 00000KT 10SM SCT030 BKN037 BKN065 25/23 A2978 430 87 1700 000/00 RMK AO2 T02500228
53988KBKB BKB20190712040012507/12/19 04:00:31  5-MIN KBKB 121000Z AUTO 00000KT 10SM BKN030 BKN039 BKN046 25/23 A2978 430 87 1700 000/00 RMK AO2 T02500228
53988KBKB BKB20190712040512507/12/19 04:05:31  5-MIN KBKB 121005Z AUTO 00000KT 10SM FEW028 BKN034 BKN043 25/23 A2978 430 87 1700 000/00 RMK AO2 T02500228
53988KBKB BKB20190712041010307/12/19 04:10:31  5-MIN KBKB 121010Z AUTO 00000KT 10SM BKN032 BKN041  90 1700 VRB/04 RMK AO2 T02500233
53988KBKB BKB20190712055510807/12/19 05:55:31  5-MIN KBKB 121155Z AUTO VRB03KT 10SM CLR 25/23 A2977 430 90 1700 VRB/03 RMK AO2 T02500233
53988KBKB BKB20190712060010807/12/19 06:00:31  5-MIN KBKB 121200Z AUTO VRB04KT 10SM CLR 25/23 A2977 430 90 1700 VRB/04 RMK AO2 T02500233
53988KBKB BKB20190712060510807/12/19 06:05:31  5-MIN KBKB 121205Z AUTO VRB03KT 10SM CLR 25/23 A2977 430 90 1700 VRB/03 RMK AO2 T02500233
53988KBKB BKB20190712061010807/12/19 06:10:31  5-MIN KBKB 121210Z AUTO VRB04KT 10SM CLR 25/23 A2977 430 90 1700 VRB/04 RMK AO2 T02500233
53988KBKB BKB20190712061510807/12/19 06:15:31  5-MIN KBKB 121215Z AUTO VRB04KT 10SM CLR 26/23 A2978 430 87 1800 VRB/04 RMK AO2 T02560233
53988KBKB BKB20190712062010807/12/19 06:20:31  5-MIN KBKB 121220Z AUTO 02004KT 10SM CLR 26/23 A2978 430 87 1800 020/04 RMK AO2 T02560233
53988KBKB BKB20190712062506207/12/19 06:25:31  5-MIN KBKB 121225Z AUTO VRRMK AO2 T02500233
53988KBKB BKB20190712062510807/12/19 06:25:31  5-MIN KBKB 121225Z AUTO VRB05KT 10SM CLR 26/23 A2978 430 84 1900 VRB/05 RMK AO2 T02610233
53988KBKB BKB20190712063010807/12/19 06:30:31  5-MIN KBKB 121230Z AUTO VRB04KT 10SM CLR 26/23 A2978 430 84 1900 VRB/04 RMK AO2 T02610233
53988KBKB BKB20190712063510807/12/19 06:35:31  5-MIN KBKB 121235Z AUTO VRB03KT 10SM CLR 26/23 A2978 430 84 1900 VRB/03 RMK AO2 T02610233
53988KBKB BKB20190712064010807/12/19 06:40:31  5-MIN KBKB 121240Z AUTO VRB03KT 10SM CLR 26/23 A2978 430 84 1900 VRB/03 RMK AO2 T02610233
53988KBKB BKB20190712064016807/12/19 06:40:31  5-MIN KBKB 121240Z AUTO VRB03KT 10SM CLR 26/23 A2978 430 84 1900 VRB/03 RMK AO2 T02610233KT 10SM CLR 26/23 A2978 430 87 1800 020/04 RMK AO2 T02560233
53988KBKB BKB20190712064510807/12/19 06:45:31  5-MIN KBKB 121245Z AUTO VRB05KT 10SM CLR 26/23 A2978 430 84 1900 VRB/05 RMK AO2 T02610233
53988KBKB BKB20190712065011507/12/19 06:50:31  5-MIN KBKB 121250Z AUTO VRB05KT 10SM CLR 27/23 A2978 430 82 1900 VRB/05 RMK AO2 SLP108 T02670233
53988KBKB BKB20190712065017007/12/19 06:50:31  5-MIN KBKB 121250Z AUTO VRB05KT 10SM CLR 27/23 A2978 430 82 1900 VRB/BKB 121230Z AUTO VRB04KT 10SM CLR 26/23 A2978 430 84 1900 VRB/04 RMK AO2 T02610233
53988KBKB BKB20190712065510807/12/19 06:55:31  5-MIN KBKB 121255Z AUTO VRB03KT 10SM CLR 27/23 A2978 430 82 1900 VRB/03 RMK AO2 T02670233
53988KBKB BKB20190712070010807/12/19 07:00:31  5-MIN KBKB 121300Z AUTO VRB04KT 10SM CLR 27/23 A2978 430 82 1900 VRB/04 RMK AO2 T02670233
53988KBKB BKB20190712070016307/12/19 07:00:31  5-MIN KBKB 121300Z AUTO VRB04KT 10SM CLR 27/23 A2978 430 82 1900 V121240Z AUTO VRB03KT 10SM CLR 26/23 A2978 430 84 1900 VRB/03 RMK AO2 T02610233
53988KBKB BKB20190712070510807/12/19 07:05:31  5-MIN KBKB 121305Z AUTO VRB05KT 10SM CLR 27/23 A2978 430 82 1900 VRB/05 RMK AO2 T02670233
53988KBKB BKB20190712071010807/12/19 07:10:31  5-MIN KBKB 121310Z AUTO VRB04KT 10SM CLR 27/23 A2978 430 79 2000 VRB/04 RMK AO2 T02720233
53988KBKB BKB20190712071511107/12/19 07:15:31  5-MIN KBKB 121315Z AUTO VRB05KT 10SM FEW012 27/23 A2978 430 79 2000 VRB/05 RMK AO2 T02720233
53988KBKB BKB20190712072011107/12/19 07:20:31  5-MIN KBKB 121320Z AUTO VRB04KT 10SM FEW012 27/23 A2978 420 79 2000 VRB/04 RMK AO2 T02720233
53988KBKB BKB20190712072511107/12/19 07:25:31  5-MIN KBKB 121325Z AUTO VRB03KT 10SM FEW012 27/23 A2979 420 79 2000 VRB/03 RMK AO2 T02720233
53988KBKB BKB20190712073010107/12/19 07:30:31  5-MIN KBKB 121330Z AUTO 10SM FEW012 27/23 A2978 430 79 2000 M /M RMK AO2 T02720233
53988KBKB BKB20190712073511107/12/19 07:35:31  5-MIN KBKB 121335Z AUTO VRB04KT 10SM FEW013 28/23 A2978 430 76 2000 VRB/04 RMK AO2 T02780233
53988KBKB BKB20190712074011107/12/19 07:40:31  5-MIN KBKB 121340Z AUTO VRB05KT 10SM FEW013 28/23 A2979 420 76 2000 VRB/05 RMK AO2 T02780233
53988KBKB BKB20190712074511107/12/19 07:45:31  5-MIN KBKB 121345Z AUTO VRB03KT 10SM FEW013 28/23 A2979 420 76 2000 VRB/03 RMK AO2 T02780233
53988KBKB BKB20190712075010807/12/19 07:50:31  5-MIN KBKB 121350Z AUTO 10SM FEW014 28/23 A2979 420 76 2000 M /M RMK AO2 SLP113 T02780233
53988KBKB BKB20190712075511107/12/19 07:55:31  5-MIN KBKB 121355Z AUTO VRB05KT 10SM FEW014 28/23 A2979 420 74 2100 VRB/05 RMK AO2 T02830233
53988KBKB BKB20190712080011107/12/19 08:00:31  5-MIN KBKB 121400Z AUTO 03007KT 10SM FEW014 28/23 A2979 420 76 2000 030/07 RMK AO2 T02780233
53988KBKB BKB20190712080511107/12/19 08:05:31  5-MIN KBKB 121405Z AUTO VRB06KT 10SM FEW014 28/23 A2979 420 74 2100 VRB/06 RMK AO2 T02830233
53988KBKB BKB20190712081011107/12/19 08:10:31  5-MIN KBKB 121410Z AUTO VRB05KT 10SM FEW014 28/23 A2979 420 74 2100 VRB/05 RMK AO2 T02830233
53988KBKB BKB20190712081511107/12/19 08:15:31  5-MIN KBKB 121415Z AUTO VRB03KT 10SM FEW014 28/24 A2979 420 76 2100 VRB/03 RMK AO2 T02830239
53988KBKB BKB20190712082011107/12/19 08:20:31  5-MIN KBKB 121420Z AUTO VRB05KT 10SM FEW016 28/24 A2979 420 76 2100 VRB/05 RMK AO2 T02830239
53988KBKB BKB20190712082511107/12/19 08:25:31  5-MIN KBKB 121425Z AUTO VRB04KT 10SM FEW016 29/24 A2979 420 74 2100 VRB/04 RMK AO2 T02890239
53988KBKB BKB20190712083011107/12/19 08:30:31  5-MIN KBKB 121430Z AUTO VRB06KT 10SM FEW016 29/24 A2979 420 74 2100 VRB/06 RMK AO2 T02890239
53988KBKB BKB20190712083512707/12/19 08:35:31  5-MIN KBKB 121435Z AUTO 02007KT 340V060 10SM FEW016 28/23 A2979 420 74 2100 020/07 340V060 RMK AO2 T02830233
53988KBKB BKB20190712084011107/12/19 08:40:31  5-MIN KBKB 121440Z AUTO VRB04KT 10SM FEW016 28/23 A2979 420 74 2100 VRB/04 RMK AO2 T02830233
53988KBKB BKB20190712084511107/12/19 08:45:31  5-MIN KBKB 121445Z AUTO VRB05KT 10SM FEW016 29/24 A2979 420 74 2100 VRB/05 RMK AO2 T02890239
53988KBKB BKB20190712085012407/12/19 08:50:31  5-MIN KBKB 121450Z AUTO VRB03KT 10SM FEW016 29/24 A2979 420 71 2200 VRB/03 RMK AO2 SLP110 T02940239 58003
53988KBKB BKB20190712085510807/12/19 08:55:31  5-MIN KBKB 121455Z AUTO 03005KT 10SM CLR 29/24 A2979 420 71 2200 030/05 RMK AO2 T02940239
53988KBKB BKB20190712090010807/12/19 09:00:31  5-MIN KBKB 121500Z AUTO VRB04KT 10SM CLR 30/24 A2979 420 69 2300 VRB/04 RMK AO2 T03000239
53988KBKB BKB20190712090510807/12/19 09:05:31  5-MIN KBKB 121505Z AUTO VRB05KT 10SM CLR 30/24 A2978 420 69 2300 VRB/05 RMK AO2 T03000239
53988KBKB BKB20190712091010807/12/19 09:10:31  5-MIN KBKB 121510Z AUTO VRB05KT 10SM CLR 30/23 A2979 420 67 2300 VRB/05 RMK AO2 T03000233
53988KBKB BKB20190712091510807/12/19 09:15:31  5-MIN KBKB 121515Z AUTO VRB05KT 10SM CLR 30/23 A2979 420 67 2300 VRB/05 RMK AO2 T03000233
53988KBKB BKB20190712092015807/12/19 09:20:31  5-MIN KBKB 121520Z AUTO VRB04KT 10SM CLR 31/24 A2979 420 67 2300 VRB/04 RMK AO2 T0306023907/12/19 09:25:31  5 2500 010/07 RMK AO2 T03220228
53988KBKB BKB20190712111511107/12/19 11:15:31  5-MIN KBKB 121715Z AUTO 01007KT 10SM FEW034 32/23 A2977 440 57 2500 010/07 RMK AO2 T03220228
53988KBKB BKB20190712112012707/12/19 11:20:31  5-MIN KBKB 121720Z AUTO 02007KT 320V100 10SM SCT034 32/23 A2977 440 59 2500 020/07 320V100 RMK AO2 T03220233
53988KBKB BKB20190712112512707/12/19 11:25:31  5-MIN KBKB 121725Z AUTO 02007KT 310V070 10SM SCT036 32/23 A2977 440 58 2500 020/07 310V070 RMK AO2 T03170228
53988KBKB BKB20190712113013107/12/19 11:30:31  5-MIN KBKB 121730Z AUTO 05007G17KT 350V110 10SM SCT036 32/23 A2977 440 57 2500 050/07G17 35/05 RMK AO2 T03170228
53988KBKB BKB20190712113013307/12/19 11:30:31  5-MIN KBKB 121730Z AUTO 05007G17KT 350V110 10SM SCT036 32/23 A2977 440 57 2500 050/07G17 350V110 RMK AO2 T03220228
53988KBKB BKB20190712113511707/12/19 11:35:31  5-MIN KBKB 121735Z AUTO VRB06G17KT 10SM SCT036 33/23 A2977 440 57 2600 VRB/06G17 RMK AO2 T03280233
53988KBKB BKB20190712113517707/12/19 11:35:31  5-MIN KBKB 121735Z AUTO VRB06G10:31  5-MIN KBKB 122040Z AUTO VRB04KT 10SM FEW044 BKN060 34/23 A2971 500 52 2900 VRB/04 RMK AO2 T03440233B/04 RMK AO2 T03440233
53988KBKB BKB20190712114012107/12/19 11:40:31  5-MIN KBKB 121740Z AUTO 03007KT 360V080 10SM SCT036 A2977 440 59 2500 020/07 320V100 RMK AO2 T03220233
53988KBKB BKB20190712114012707/12/19 11:40:31  5-MIN KBKB 121740Z AUTO 03007KT 360V080 10SM SCT036 33/23 A2977 440 57 2600 030/07 360V080 RMK AO2 T03280233
53988KBKB BKB20190712114518607/12/19 11:45:31  5-MIN KBKB 121745Z AUTO 03007KT 350V070 10SM SCT038 33/23 A2977 440 55 2600 030/07 350V070 RMK AO2 T0328022832/23 A2977 440 57 2500 050/07G17 350V110 RMK AO2 T03220228
53988KBKB BKB20190712142511807/12/19 14:25:31  5-MIN KBKB 122025Z AUTO VRB06KT 10SM SCT045 BKN050 34/23 A2971 490 51 2800 VRB/06 RMK AO2 T03390228
53988KBKB BKB20190712143011807/12/19 14:30:31  5-MIN KBKB 122030Z AUTO VRB06KT 10SM BKN045 BKN050 33/23 A2971 490 53 2700 VRB/06 RMK AO2 T03330228
53988KBKB BKB20190712143511807/12/19 14:35:31  5-MIN KBKB 122035Z AUTO VRB04KT 10SM SCT044 SCT055 34/23 A2971 500 52 2900 VRB/04 RMK AO2 T03440233
53988KBKB BKB20190712144011807/12/19 14:40:31  5-MIN KBKB 122040Z AUTO VRB04KT 10SM FEW044 BKN060 34/23 A2971 500 52 2900 VRB/04 RMK AO2 T03440233
53988KBKB BKB20190712144513407/12/19 14:45:31  5-MIN KBKB 122045Z AUTO 04007KT 350V100 10SM SCT043 BKN060 33/23 A2970 500 53 2700 030/07 350V100 RMK AO2 T03330228
53988KBKB BKB20190712145012407/12/19 14:50:31  5-MIN KBKB 122050Z AUTO VRB05KT 10SM FEW043 SCT060 BKN07033/23 A2971 490 53 2700 VRB/06 RMK AO2 T03330228
53988KBKB BKB20190712145013807/12/19 14:50:31  5-MIN KBKB 122050Z AUTO VRB05KT 10SM FEW043 SCT060 BKN070 33/23 A2970 500 53 2700 VRB/05 RMK AO2 SLP082 T03330228 58007
53988KBKB BKB20190712145506907/12/19 14:55:31  5-MIN KBKB 122055Z AUTO 04007/05 RMK AO2 T03280233
53988KBKB BKB20190712145522407/12/19 14:55:31  5-MIN KBKB 122055Z AUTO 04007KT 010V070 10SM FEW043 BKN065 34/23 A2970 500 50 2900 030/07 010V070 RMK AO2 T0344022807/12/19 15:00:31  4KT 10SM FEW044 BKN060 34/23 A2971 500 52 2900 VRB/04 RMK AO2 T03440233
53988KBKB BKB20190712170510807/12/19 17:05:31  5-MIN KBKB 122305Z AUTO VRB05KT 10SM CLR 33/23 A2968 520 57 2700 VRB/05 RMK AO2 T03280233
53988KBKB BKB20190712171010807/12/19 17:10:31  5-MIN KBKB 122310Z AUTO VRB06KT 10SM CLR 33/23 A2968 520 57 2700 VRB/06 RMK AO2 T03280233
53988KBKB BKB20190712171510807/12/19 17:15:31  5-MIN KBKB 122315Z AUTO 06005KT 10SM CLR 33/23 A2968 520 57 2700 060/05 RMK AO2 T03280233
53988KBKB BKB20190712172012407/12/19 17:20:31  5-MIN KBKB 122320Z AUTO 02007KT 230V160 10SM CLR 32/23 A2968 520 59 2600 020/07 230V160 RMK AO2 T03220233
53988KBKB BKB20190712172510807/12/19 17:25:31  5-MIN KBKB 122325Z AUTO VRB06KT 10SM CLR 33/23 A2968 520 57 2700 VRB/06 RMK AO2 T03280233
53988KBKB BKB20190712173011107/12/19 17:30:31  5-MIN KBKB 122330Z AUTO 03006KT 10SM FEW040 33/23 A2968 520 57 2700 030/06 RMK AO2 T03280233
53988KBKB BKB20190712173511107/12/19 17:35:31  5-MIN KBKB 122335Z AUTO VRB05KT 10SM FEW040 33/23 A2968 520 57 2700 VRB/05 RMK AO2 T03280233
53988KBKB BKB20190712174013407/12/19 17:40:31  5-MIN KBKB 122340Z AUTO 03007KT 350V070 10SM FEW040 FEW050 32/23 A2969 520 57 2600 030/07 350V070 RMK AO2 T03220228
53988KBKB BKB20190712174511107/12/19 17:45:31  5-MIN KBKB 122345Z AUTO VRB06KT 10SM FEW040 32/23 A2969 520 58 2600 VRB/06 RMK AO2 T03170228
53988KBKB BKB20190712175013607/12/19 17:50:31  5-MIN KBKB 122350Z AUTO VRB03KT 10SM FEW040 32/23 A2969 520 58 2600 VRB/03 RMK AO2 SLP077 T03170228 10350 20317 56023
53988KBKB BKB20190712175513407/12/19 17:55:31  5-MIN KBKB 122355Z AUTO 04007KT 350V100 10SM SCT040 SCT050 32/23 A2969 510 58 2600 040/07 350V100 RMK AO2 T03170228
53988KBKB BKB20190712180011807/12/19 18:00:31  5-MIN KBKB 130000Z AUTO VRB04KT 10SM SCT040 SCT050 32/23 A2969 510 58 2600 VRB/04 RMK AO2 T03170228
53988KBKB BKB20190712180513407/12/19 18:05:31  5-MIN KBKB 130005Z AUTO 03007KT 340V060 10SM FEW038 SCT055 31/23 A2969 510 60 2500 020/07 340V060 RMK AO2 T03110228
53988KBKB BKB20190712181011707/12/19 18:10:31  5-MIN KBKB 130010Z AUTO VRB05G14KT 10SM FEW038 31/22 A2968 520 60 2500 VRB/05G14 RMK AO2 T03060222
53988KBKB BKB20190712181511707/12/19 18:15:31  5-MIN KBKB 130015Z AUTO VRB05G14KT 10SM FEW038 31/23 A2969 520 62 2500 VRB/05G14 RMK AO2 T03060228
53988KBKB BKB20190712182011107/12/19 18:20:31  5-MIN KBKB 130020Z AUTO VRB05KT 10SM FEW038 31/23 A2969 510 62 2500 VRB/05 RMK AO2 T03060228
53988KBKB BKB20190712182510807/12/19 18:25:31  5-MIN KBKB 130025Z AUTO VRB04KT 10SM CLR 31/23 A2969 510 62 2500 VRB/04 RMK AO2 T03060228
53988KBKB BKB20190712183010807/12/19 18:30:31  5-MIN KBKB 130030Z AUTO VRB04KT 10SM CLR 30/23 A2969 510 65 2400 VRB/04 RMK AO2 T03000228
53988KBKB BKB20190712183510807/12/19 18:35:31  5-MIN KBKB 130035Z AUTO VRB03KT 10SM CLR 30/23 A2969 510 65 2400 VRB/03 RMK AO2 T03000228
53988KBKB BKB20190712184010807/12/19 18:40:31  5-MIN KBKB 130040Z AUTO VRB04KT 10SM CLR 30/23 A2969 510 67 2400 VRB/04 RMK AO2 T03000233
53988KBKB BKB20190712184510807/12/19 18:45:31  5-MIN KBKB 130045Z AUTO VRB05KT 10SM CLR 30/23 A2969 510 67 2400 VRB/05 RMK AO2 T03000233
53988KBKB BKB20190712185011507/12/19 18:50:31  5-MIN KBKB 130050Z AUTO VRB04KT 10SM CLR 30/23 A2970 510 67 2400 VRB/04 RMK AO2 SLP080 T03000233
53988KBKB BKB20190712185510807/12/19 18:55:31  5-MIN KBKB 130055Z AUTO VRB04KT 10SM CLR 29/23 A2970 510 69 2300 VRB/04 RMK AO2 T02940233
53988KBKB BKB20190712190010807/12/19 19:00:31  5-MIN KBKB 130100Z AUTO VRB04KT 10SM CLR 29/23 A2970 500 69 2300 VRB/04 RMK AO2 T02940233
53988KBKB BKB20190712190510807/12/19 19:05:31  5-MIN KBKB 130105Z AUTO VRB05KT 10SM CLR 29/23 A2970 500 69 2300 VRB/05 RMK AO2 T02940233
53988KBKB BKB20190712191010807/12/19 19:10:31  5-MIN KBKB 130110Z AUTO VRB04KT 10SM CLR 29/23 A2970 500 69 2300 VRB/04 RMK AO2 T02940233
53988KBKB BKB20190712191510807/12/19 19:15:31  5-MIN KBKB 130115Z AUTO VRB03KT 10SM CLR 29/23 A2970 500 71 2200 VRB/03 RMK AO2 T02890233
53988KBKB BKB20190712192009807/12/19 19:20:31  5-MIN KBKB 130120Z AUTO 10SM CLR 29/23 A2970 500 71 2200 M /M RMK AO2 T02890233
53988KBKB BKB20190712192510807/12/19 19:25:31  5-MIN KBKB 130125Z AUTO VRB03KT 10SM CLR 29/23 A2971 500 71 2200 VRB/03 RMK AO2 T02890233
53988KBKB BKB20190712193010807/12/19 19:30:31  5-MIN KBKB 130130Z AUTO VRB04KT 10SM CLR 29/23 A2971 490 71 2200 VRB/04 RMK AO2 T02890233
53988KBKB BKB20190712193510807/12/19 19:35:31  5-MIN KBKB 130135Z AUTO VRB04KT 10SM CLR 29/23 A2971 500 71 2200 VRB/04 RMK AO2 T02890233
53988KBKB BKB20190712194010807/12/19 19:40:31  5-MIN KBKB 130140Z AUTO 04003KT 10SM CLR 28/23 A2971 500 74 2200 040/03 RMK AO2 T02830233
53988KBKB BKB20190712194510807/12/19 19:45:31  5-MIN KBKB 130145Z AUTO VRB03KT 10SM CLR 28/23 A2971 500 74 2200 VRB/03 RMK AO2 T02830233
53988KBKB BKB20190712195011507/12/19 19:50:31  5-MIN KBKB 130150Z AUTO VRB05KT 10SM CLR 28/23 A2971 500 71 2200 VRB/05 RMK AO2 SLP084 T02830228
53988KBKB BKB20190712195510807/12/19 19:55:31  5-MIN KBKB 130155Z AUTO 00000KT 10SM CLR 29/23 A2971 500 69 2200 000/00 RMK AO2 T02890228
53988KBKB BKB20190712200010807/12/19 20:00:31  5-MIN KBKB 130200Z AUTO VRB03KT 10SM CLR 28/23 A2971 490 71 2200 VRB/03 RMK AO2 T02830228
53988KBKB BKB20190712200509807/12/19 20:05:31  5-MIN KBKB 130205Z AUTO 10SM CLR 28/23 A2971 490 71 2200 M /M RMK AO2 T02830228
53988KBKB BKB20190712201010807/12/19 20:10:31  5-MIN KBKB 130210Z AUTO VRB04KT 10SM CLR 28/23 A2971 490 71 2200 VRB/04 RMK AO2 T02830228
53988KBKB BKB20190712201510807/12/19 20:15:31  5-MIN KBKB 130215Z AUTO VRB05KT 10SM CLR 28/23 A2971 490 71 2200 VRB/05 RMK AO2 T02830228
53988KBKB BKB20190712202009807/12/19 20:20:31  5-MIN KBKB 130220Z AUTO 10SM CLR 28/23 A2971 490 71 2200 M /M RMK AO2 T02830228
53988KBKB BKB20190712202510807/12/19 20:25:31  5-MIN KBKB 130225Z AUTO VRB04KT 10SM CLR 28/23 A2971 490 71 2200 VRB/04 RMK AO2 T02830228
53988KBKB BKB20190712203010807/12/19 20:30:31  5-MIN KBKB 130230Z AUTO VRB03KT 10SM CLR 28/23 A2971 490 71 2200 VRB/03 RMK AO2 T02830228
53988KBKB BKB20190712203510807/12/19 20:35:31  5-MIN KBKB 130235Z AUTO VRB04KT 10SM CLR 28/23 A2971 490 74 2100 VRB/04 RMK AO2 T02780228
53988KBKB BKB20190712204010807/12/19 20:40:31  5-MIN KBKB 130240Z AUTO VRB03KT 10SM CLR 28/23 A2971 490 74 2100 VRB/03 RMK AO2 T02780228
53988KBKB BKB20190712204510807/12/19 20:45:31  5-MIN KBKB 130245Z AUTO VRB03KT 10SM CLR 28/23 A2972 490 74 2100 VRB/03 RMK AO2 T02780228
53988KBKB BKB20190712205012107/12/19 20:50:31  5-MIN KBKB 130250Z AUTO VRB03KT 10SM CLR 28/23 A2972 480 74 2100 VRB/03 RMK AO2 SLP088 T02780228 56005
53988KBKB BKB20190712205510807/12/19 20:55:31  5-MIN KBKB 130255Z AUTO 00000KT 10SM CLR 28/23 A2973 480 74 2100 000/00 RMK AO2 T02780228
53988KBKB BKB20190712210011107/12/19 21:00:31  5-MIN KBKB 130300Z AUTO VRB03KT 10SM FEW065 28/23 A2973 480 74 2100 VRB/03 RMK AO2 T02780228
53988KBKB BKB20190712210512707/12/19 21:05:31  5-MIN KBKB 130305Z AUTO VRB06KT 10SM -RA SCT060 28/23 A2973 470 74 2100 VRB/06 RMK AO2 RAB05 P0000 T02780228
53988KBKB BKB20190712211012707/12/19 21:10:31  5-MIN KBKB 130310Z AUTO 00000KT 10SM -RA SCT060 28/23 A2973 470 76 2100 000/00 RMK AO2 RAB05 P0000 T02780233
53988KBKB BKB20190712211513007/12/19 21:15:31  5-MIN KBKB 130315Z AUTO 9SM -RA FEW046 BKN060 BKN070 27/23 A2974 470 79 2000 M /M RMK AO2 RAB05 P0000 T02720233
53988KBKB BKB20190712212013907/12/19 21:20:31  5-MIN KBKB 130320Z AUTO VRB06G16KT 7SM -RA FEW045 BKN055 27/24 A2974 470 84 2000 VRB/06G16 RMK AO2 RAB05 P0001 T02670239
53988KBKB BKB20190712212513207/12/19 21:25:31  5-MIN KBKB 130325Z AUTO VRB04G15KT 8SM -RA BKN060 26/24 A2974 470 87 1900 VRB/04G15 RMK AO2 RAB05 P0001 T02610239
53988KBKB BKB20190712213013407/12/19 21:30:31  5-MIN KBKB 130330Z AUTO VRB04KT 10SM -RA FEW048 OVC060 26/24 A2974 470 87 1900 VRB/04 RMK AO2 RAB05 P0001 T02610239
53988KBKB BKB20190712213512707/12/19 21:35:31  5-MIN KBKB 130335Z AUTO VRB04KT 10SM -RA OVC055 26/24 A2974 470 90 1800 VRB/04 RMK AO2 RAB05 P0001 T02560239
53988KBKB BKB20190712214013407/12/19 21:40:31  5-MIN KBKB 130340Z AUTO VRB03KT 10SM -RA BKN055 OVC070 26/24 A2974 470 90 1800 VRB/03 RMK AO2 RAB05 P0001 T02560239
53988KBKB BKB20190712214513407/12/19 21:45:31  5-MIN KBKB 130345Z AUTO 00000KT 10SM -RA BKN060 OVC070 26/24 A2974 470 90 1800 000/00 RMK AO2 RAB05 P0001 T02560239
53988KBKB BKB20190712215014007/12/19 21:50:31  5-MIN KBKB 130350Z AUTO VRB03KT 10SM BKN060 OVC075 26/24 A2974 470 90 1800 VRB/03 RMK AO2 RAB05E46 SLP095 P0001 T02560239
53988KBKB BKB20190712215511807/12/19 21:55:31  5-MIN KBKB 130355Z AUTO VRB03KT 10SM SCT060 OVC080 26/24 A2974 470 87 1900 VRB/03 RMK AO2 T02610239
53988KBKB BKB20190712220011807/12/19 22:00:31  5-MIN KBKB 130400Z AUTO 00000KT 10SM FEW055 OVC080 26/24 A2973 470 87 1900 000/00 RMK AO2 T02610239
53988KBKB BKB20190712220512507/12/19 22:05:31  5-MIN KBKB 130405Z AUTO VRB03KT 10SM FEW060 BKN080 OVC100 26/24 A2973 480 87 1900 VRB/03 RMK AO2 T02610239
53988KBKB BKB20190712221011807/12/19 22:10:31  5-MIN KBKB 130410Z AUTO VRB03KT 10SM BKN080 BKN100 26/23 A2973 470 84 1900 VRB/03 RMK AO2 T02610233
53988KBKB BKB20190712221511807/12/19 22:15:31  5-MIN KBKB 130415Z AUTO 03003KT 10SM SCT085 BKN100 26/23 A2973 470 84 1900 030/03 RMK AO2 T02610233
53988KBKB BKB20190712222011807/12/19 22:20:31  5-MIN KBKB 130420Z AUTO VRB03KT 10SM SCT085 BKN100 26/23 A2973 470 84 1900 VRB/03 RMK AO2 T02610233
53988KBKB BKB20190712222511807/12/19 22:25:31  5-MIN KBKB 130425Z AUTO VRB03KT 10SM FEW090 SCT100 26/23 A2973 470 84 1900 VRB/03 RMK AO2 T02610233
53988KBKB BKB20190712223011107/12/19 22:30:31  5-MIN KBKB 130430Z AUTO VRB03KT 10SM FEW100 26/23 A2973 480 84 1900 VRB/03 RMK AO2 T02610233
53988KBKB BKB20190712223511107/12/19 22:35:31  5-MIN KBKB 130435Z AUTO VRB03KT 10SM FEW100 26/23 A2973 480 84 1900 VRB/03 RMK AO2 T02610233
53988KBKB BKB20190712224010807/12/19 22:40:31  5-MIN KBKB 130440Z AUTO 00000KT 10SM CLR 26/23 A2973 480 84 1900 000/00 RMK AO2 T02610233
53988KBKB BKB20190712224510807/12/19 22:45:31  5-MIN KBKB 130445Z AUTO VRB05KT 10SM CLR 26/23 A2973 480 84 1900 VRB/05 RMK AO2 T02610233
53988KBKB BKB20190712225011507/12/19 22:50:31  5-MIN KBKB 130450Z AUTO 03004KT 10SM CLR 26/23 A2972 480 84 1900 020/04 RMK AO2 SLP089 T02610233
53988KBKB BKB20190712225509807/12/19 22:55:31  5-MIN KBKB 130455Z AUTO 10SM CLR 26/23 A2972 480 84 1900 M /M RMK AO2 T02610233
53988KBKB BKB20190712230010807/12/19 23:00:31  5-MIN KBKB 130500Z AUTO VRB05KT 10SM CLR 26/23 A2972 480 84 1900 VRB/05 RMK AO2 T02610233
53988KBKB BKB20190712230510807/12/19 23:05:31  5-MIN KBKB 130505Z AUTO VRB06KT 10SM CLR 26/23 A2971 490 84 1900 VRB/06 RMK AO2 T02610233
53988KBKB BKB20190712231010807/12/19 23:10:31  5-MIN KBKB 130510Z AUTO VRB03KT 10SM CLR 26/23 A2971 490 84 1900 VRB/03 RMK AO2 T02610233
53988KBKB BKB20190712231510807/12/19 23:15:31  5-MIN KBKB 130515Z AUTO VRB04KT 10SM CLR 26/23 A2971 490 84 1900 VRB/04 RMK AO2 T02610233
53988KBKB BKB20190712232010807/12/19 23:20:31  5-MIN KBKB 130520Z AUTO VRB04KT 10SM CLR 26/23 A2971 490 84 1900 VRB/04 RMK AO2 T02610233
53988KBKB BKB20190712232510807/12/19 23:25:31  5-MIN KBKB 130525Z AUTO 00000KT 10SM CLR 26/23 A2971 490 84 1900 000/00 RMK AO2 T02610233
53988KBKB BKB20190712233010807/12/19 23:30:31  5-MIN KBKB 130530Z AUTO VRB03KT 10SM CLR 26/23 A2971 490 84 1900 VRB/03 RMK AO2 T02610233
53988KBKB BKB20190712233510807/12/19 23:35:31  5-MIN KBKB 130535Z AUTO VRB03KT 10SM CLR 26/23 A2971 490 84 1900 VRB/03 RMK AO2 T02610233
53988KBKB BKB20190712234010807/12/19 23:40:31  5-MIN KBKB 130540Z AUTO VRB03KT 10SM CLR 26/23 A2971 490 84 1900 VRB/03 RMK AO2 T02610233
53988KBKB BKB20190712234510807/12/19 23:45:31  5-MIN KBKB 130545Z AUTO 04003KT 10SM CLR 26/23 A2971 500 87 1900 030/03 RMK AO2 T02560233
53988KBKB BKB20190712235014907/12/19 23:50:31  5-MIN KBKB 130550Z AUTO VRB05KT 10SM CLR 26/23 A2971 500 84 1900 VRB/05 RMK AO2 SLP083 60001 T02610233 10317 20256 403500250 53014
53988KBKB BKB20190712235510807/12/19 23:55:31  5-MIN KBKB 130555Z AUTO VRB04KT 10SM CLR 26/23 A2971 500 87 1900 VRB/04 RMK AO2 T02560233
53988KBKB BKB20190713000010807/13/19 00:00:31  5-MIN KBKB 130600Z AUTO VRB03KT 10SM CLR 26/23 A2971 500 87 1900 VRB/03 RMK AO2 T02560233
53988KBKB BKB20190713000510807/13/19 00:05:31  5-MIN KBKB 130605Z AUTO VRB03KT 10SM CLR 26/23 A2970 500 87 1900 VRB/03 RMK AO2 T02560233
53988KBKB BKB20190713001009807/13/19 00:10:31  5-MIN KBKB 130610Z AUTO 10SM CLR 26/23 A2970 500 87 1900 M /M RMK AO2 T02560233
53988KBKB BKB20190713001510807/13/19 00:15:31  5-MIN KBKB 130615Z AUTO VRB03KT 10SM CLR 26/23 A2970 500 87 1900 VRB/03 RMK AO2 T02560233
53988KBKB BKB20190713002009807/13/19 00:20:31  5-MIN KBKB 130620Z AUTO 10SM CLR 26/23 A2970 510 87 1900 M /M RMK AO2 T02560233
53988KBKB BKB20190713002510807/13/19 00:25:31  5-MIN KBKB 130625Z AUTO 00000KT 10SM CLR 26/23 A2970 500 87 1900 000/00 RMK AO2 T02560233
53988KBKB BKB20190713003010807/13/19 00:30:31  5-MIN KBKB 130630Z AUTO VRB04KT 10SM CLR 26/23 A2970 500 87 1900 VRB/04 RMK AO2 T02560233
53988KBKB BKB20190713003510807/13/19 00:35:31  5-MIN KBKB 130635Z AUTO VRB04KT 10SM CLR 26/23 A2970 500 87 1900 VRB/04 RMK AO2 T02560233
53988KBKB BKB20190713004015207/13/19 00:40:31  5-MIN KBKB 130640Z AUTO VRB05KT 10SM CLR 26/23 A2970 510 87 1900 VRB/05 RMK AO2 T0256023307/13/19 00:4VRB/04 RMK AO2 SLP074 T02500228
53988KBKB BKB20190713015011507/13/19 01:50:31  5-MIN KBKB 130750Z AUTO VRB04KT 10SM CLR 25/23 A2968 520 87 1800 VRB/04 RMK AO2 SLP074 T02500228
53988KBKB BKB20190713015510807/13/19 01:55:31  5-MIN KBKB 130755Z AUTO VRB04KT 10SM CLR 25/23 A2968 520 87 1800 VRB/04 RMK AO2 T02500228
53988KBKB BKB20190713020010807/13/19 02:00:31  5-MIN KBKB 130800Z AUTO VRB03KT 10SM CLR 25/23 A2968 520 87 1800 VRB/03 RMK AO2 T02500228
53988KBKB BKB20190713020510807/13/19 02:05:31  5-MIN KBKB 130805Z AUTO VRB03KT 10SM FEW028 25/23 A2968  87 1800 VRB/03 RMK AO2 T02500228
53988KBKB BKB20190713020511107/13/19 02:05:31  5-MIN KBKB 130805Z AUTO VRB03KT 10SM FEW028 25/23 A2968 520 87 1800 VRB/03 RMK AO2 T02500228
53988KBKB BKB20190713021010107/13/19 02:10:31  5-MIN KBKB 130810Z AUTO 10SM FEW028 25/23 A2968 520 87 1800 M /M RMK AO2 T02500228
53988KBKB BKB20190713021510807/13/19 02:15:31  5-MIN KBKB 130815Z AUTO VRB03KT 10SM FEW027 25/23 A2968  87 1800 VRB/04 RMK AO2 T02500228
53988KBKB BKB20190713021511107/13/19 02:15:31  5-MIN KBKB 130815Z AUTO VRB03KT 10SM FEW027 25/23 A2968 520 87 1800 VRB/03 RMK AO2 T02500228
53988KBKB BKB20190713022011107/13/19 02:20:31  5-MIN KBKB 130820Z AUTO 02005KT 10SM FEW027 25/23 A2968 520 87 1800 020/05 RMK AO2 T02500228
53988KBKB BKB20190713022511107/13/19 02:25:31  5-MIN KBKB 130825Z AUTO VRB04KT 10SM FEW027 25/23 A2968 530 87 1800 VRB/04 RMK AO2 T02500228
53988KBKB BKB20190713022517307/13/19 02:25:31  5-MIN KBKB 130825Z AUTO VRB04KT 10SM FEW027 25/23 A2968 5:31  5-MIN KBKB 130805Z AUTO VRB03KT 10SM FEW028 25/23 A2968 520 87 1800 VRB/03 RMK AO2 T02500228
53988KBKB BKB20190713023011107/13/19 02:30:31  5-MIN KBKB 130830Z AUTO VRB04KT 10SM SCT025 25/22 A2968 520 84 1800 VRB/04 RMK AO2 T02500222
53988KBKB BKB20190713023511107/13/19 02:35:31  5-MIN KBKB 130835Z AUTO VRB04KT 10SM SCT025 25/22 A2967 530 84 1800 VRB/04 RMK AO2 T02500222
53988KBKB BKB20190713024011807/13/19 02:40:31  5-MIN KBKB 130840Z AUTO VRB03KT 10SM FEW017 SCT025 25/22 A2967 530 84 1800 VRB/03 RMK AO2 T02500222
53988KBKB BKB20190713024511807/13/19 02:45:31  5-MIN KBKB 130845Z AUTO VRB05KT 10SM SCT017 SCT024 25/22 A2967 530 84 1800 VRB/05 RMK AO2 T02500222
53988KBKB BKB20190713025010807/13/19 02:50:31  5-MIN KBKB 130850Z AUTO VRB06KT 10SM BKN017 BKN024 25/22 A2967 530 84 1900 VRB/06 RMK AO2
53988KBKB BKB20190713025511807/13/19 02:55:31  5-MIN KBKB 130855Z AUTO VRB03KT 10SM BKN019 BKN024 25/22 A2967 530 84 1800 VRB/03 RMK AO2 T02500222
53988KBKB BKB20190713030011107/13/19 03:00:31  5-MIN KBKB 130900Z AUTO VRB05KT 10SM BKN017 25/22 A2967 530 84 1900 VRB/05 RMK AO2 T02500222
53988KBKB BKB20190713030511107/13/19 03:05:31  5-MIN KBKB 130905Z AUTO VRB03KT 10SM BKN017 25/22 A2967 530 84 1800 VRB/03 RMK AO2 T02500222
53988KBKB BKB20190713031011107/13/19 03:10:31  5-MIN KBKB 130910Z AUTO VRB05KT 10SM BKN017 25/22 A2967 530 84 1900 VRB/05 RMK AO2 T02500222
53988KBKB BKB20190713031511107/13/19 03:15:31  5-MIN KBKB 130915Z AUTO VRB04KT 10SM SCT017 25/22 A2966 540 84 1900 VRB/04 RMK AO2 T02500222
53988KBKB BKB20190713032013007/13/19 03:20:31  5-MIN KBKB 130920Z AUTO VRB03KT 10SM SCT015 25/22 AT018 OVC030 25/22 A2966 540 84 1900 VRB/06 RMK AO2 T02500222
53988KBKB BKB20190713045013207/13/19 04:50:31  5-MIN KBKB 131050Z AUTO VRB05KT 10SM SCT018 SCT024 OVC030 25/22 A2966 540 84 1900 VRB/05 RMK AO2 SLP067 T02500222
53988KBKB BKB20190713045511807/13/19 04:55:31  5-MIN KBKB 131055Z AUTO VRB04KT 10SM BKN021 OVC030 25/22 A2966 540 84 1900 VRB/04 RMK AO2 T02500222
53988KBKB BKB20190713050011807/13/19 05:00:31  5-MIN KBKB 131100Z AUTO VRB06KT 10SM BKN019 OVC030 26/22 A2966 540 81 1900 VRB/06 RMK AO2 T02560222
53988KBKB BKB20190713053511107/13/19 05:35:31  5-MIN KBKB 131135Z AUTO VRB06KT 10SM OVC018 26/22 A2966 540 81 1900 VRB/06 RMK AO2 T02560222
53988KBKB BKB20190713054011107/13/19 05:40:31  5-MIN KBKB 131140Z AUTO VRB05KT 10SM OVC018 26/22 A2966 540 81 1900 VRB/05 RMK AO2 T02560222
53988KBKB BKB20190713054511807/13/19 05:45:31  5-MIN KBKB 131145Z AUTO VRB05KT 10SM BKN018 OVC023 26/23 A2966 540 84 1900 VRB/05 RMK AO2 T02560228
53988KBKB BKB20190713055014907/13/19 05:50:31  5-MIN KBKB 131150Z AUTO VRB06KT 10SM BKN018 OVC023 26/22 A2966 540 81 1900 VRB/06 RMK AO2 SLP068 70001 T02560222 10256 20244 55009
53988KBKB BKB20190713055511807/13/19 05:55:31  5-MIN KBKB 131155Z AUTO 03008KT 10SM BKN018 OVC024 26/22 A2966 540 81 1900 030/08 RMK AO2 T02560222
53988KBKB BKB20190713060014707/13/19 06:00:31  5-MIN KBKB 131200Z AUTO 02008G16KT 350V060 10SM BKN018 BKN026 OVC032 26/22 A2966 540 81 1900 020/08G16 350V060 RMK AO2 T02560222
53988KBKB BKB20190713060514007/13/19 06:05:31  5-MIN KBKB 131205Z AUTO 02007G16KT 350V060 10SM SCT018 OVC026 26/22 A2966 540 81 1900 020/07G16 350V060 RMK AO2 T02560222
53988KBKB BKB20190713061012507/13/19 06:10:31  5-MIN KBKB 131210Z AUTO VRB05KT 10SM BKN018 BKN025 OVC029 26/22 A2967 540 81 1900 VRB/05 RMK AO2 T02560222
53988KBKB BKB20190713061512507/13/19 06:15:31  5-MIN KBKB 131215Z AUTO VRB04KT 10SM BKN018 BKN025 OVC029 26/23 A2967 530 84 1900 VRB/04 RMK AO2 T02560228
53988KBKB BKB20190713062013307/13/19 06:20:31  5-MIN KBKB 131220Z AUTO 03008KT 010V070 9SM BKN018 OVC027 26/23 A2967 530 84 1900 030/08 010V070 RMK AO2 T02560228
53988KBKB BKB20190713062510707/13/19 06:25:31  5-MIN KBKB 131225Z AUTO 7SM BKN018 OVC027 26/23 A2967 530 84 1900 M /M RMK AO2 T02560228
53988KBKB BKB20190713063012007/13/19 06:30:31  5-MIN KBKB 131230Z AUTO VRB06KT 6SM BR BKN016 OVC021 25/23 A2967 530 87 1800 VRB/06 RMK AO2 T02500228
53988KBKB BKB20190713063511007/13/19 06:35:31  5-MIN KBKB 131235Z AUTO 02006KT 8SM OVC016 25/23 A2967 530 87 1800 010/06 RMK AO2 T02500228
53988KBKB BKB20190713064011107/13/19 06:40:31  5-MIN KBKB 131240Z AUTO VRB05KT 10SM OVC016 25/23 A2968 520 87 1800 VRB/05 RMK AO2 T02500228
53988KBKB BKB20190713064511807/13/19 06:45:31  5-MIN KBKB 131245Z AUTO VRB05KT 10SM BKN016 OVC021 26/23 A2968 520 84 1900 VRB/05 RMK AO2 T02560228
53988KBKB BKB20190713065011707/13/19 06:50:31  5-MIN KBKB 131250Z AUTO VRB04KT 9SM OVC016 26/23 A2968 520 84 1900 VRB/04 RMK AO2 SLP075 T02560228
53988KBKB BKB20190713065510007/13/19 06:55:31  5-MIN KBKB 131255Z AUTO VRB04KT 9SM OVC016 26/23 A29608 330V080 RMK AO2 T02560228
53988KBKB BKB20190713072013407/13/19 07:20:31  5-MIN KBKB 131320Z AUTO 03007KT 350V070 10SM BKN016 OVC022 26/23 A2969 520 81 2000 030/07 350V070 RMK AO2 T02610228
53988KBKB BKB20190713072513407/13/19 07:25:31  5-MIN KBKB 131325Z AUTO 03007KT 360V060 10SM BKN016 OVC022 26/23 A2969 510 81 2000 020/07 360V060 RMK AO2 T02610228
53988KBKB BKB20190713073018907/13/19 07:30:31  5-MIN KBKB 131330Z AUTO VRB05KT 10SM BKN016 OVC022 26/23 A2969 510 81 20060 10SM -RA BKN022 OVC027 26/22 A2969 510 79 2000 020/07G15 340V060 RMK AO2 RAB04 P0000 T02610222
53988KBKB BKB20190713102013307/13/19 10:20:31  5-MIN KBKB 131620Z AUTO VRB04KT 10SM BKN022 OVC029 26/23 A2969 510 81 2000 VRB/04 RMK AO2 RAB04E16 P0000 T02610228
53988KBKB BKB20190713102518707/13/19 10:25:31  5-MIN KBKB 131625Z AUTO 10SM FEW017 SCT022 OVC031 27/22 A2968 520 76 2000 M /M RMK AO2 RAB04E16 P0000 T0267022207/13/19 10:30:7 330V090 RMK AO2 RAB04E16 P0000 T02670222
53988KBKB BKB20190713104013307/13/19 10:40:31  5-MIN KBKB 131640Z AUTO VRB06KT 10SM BKN024 OVC030 27/22 A2968 520 76 2000 VRB/06 RMK AO2 RAB04E16 P0000 T02670222
53988KBKB BKB20190713104514907/13/19 10:45:31  5-MIN KBKB 131645Z AUTO 06008KT 010V130 10SM BKN026 OVC032 27/22 A2968 520 71 2100 050/08 010V130 RMK AO2 RAB04E16 P0000 T02720217
53988KBKB BKB20190713105017307/13/19 10:50:31  5-MIN KBKB 131650Z AUTO 03007G17KT 3 04008G19KT 360V080 3SM -RA BR BKN014 OVC021 24/22 A2965 550 87 1800 030/08G19 360V080 RMK AO2 RAB1859 P0001 T02440222
53988KBKB BKB20190713132516707/13/19 13:25:31  5-MIN KBKB 131925Z AUTO 03008G19KT 340V090 3SM -RA BR BKN011 BKN016 OVC021 24/22 A2965 550 90 1700 030/08G19 340V090 RMK AO2 RAB1859 P0001 T02390222
53988KBKB BKB20190713133014507/13/19 13:30:31  5-MIN KBKB 131930Z AUTO VRB06KT 3SM -RA BR BKN010 BKN015 OVC020 24/22 A2965 550 90 1700 VRB/06 RMK AO2 RAB1859 P0001 T02390222
53988KBKB BKB20190713133514807/13/19 13:35:31  5-MIN KBKB 131935Z AUTO VRB04G19KT 2 1/2SM -RA BR BKN008 OVC013 24/23 A2965 550 93 1700 VRB/04G19 RMK AO2 RAB1859 P0002 T02390228
53988KBKB BKB20190713134015507/13/19 13:40:31  5-MIN KBKB 131940Z AUTO VRB04G19KT 2 1/2SM -RA BR BKN008 BKN013 OVC021 24/22 A2965 550 90 1800 VRB/04G19 RMK AO2 RAB1859 P0002 T02390222
53988KBKB BKB20190713145012407/13/19 14:50:31  5-MIN KBKB 132050Z AUTO VRB05KT 1 3/4SM -RA BR BKN007 OVC010 24/23 A2962 580 93 1800 VRB/05 RMK AO2 P0003
53988KBKB BKB20190713145512707/13/19 14:55:31  5-MIN KBKB 132055Z AUTO 03007KT 1 1/2SM -RA BR OVC007 24/23 A2962 580 93 1800 030/07 RMK AO2 P0000 T02390228
53988KBKB BKB20190713150012707/13/19 15:00:31  5-MIN KBKB 132100Z AUTO VRB04KT 1 3/4SM -RA BR OVC007 24/23 A2961 580 93 1800 VRB/04 RMK AO2 P0001 T02390228
53988KBKB BKB20190713150019107/13/19 15:00:31  5-MIN KBKB 132100Z AUTO VRB04KT 1 3/4SM -RA BR OVC007 310Z AUTO 04007KT 350V090 4SM -RA BR OVC008 23/22 A2959 600 93 1700 040/07 350V090 RMK AO2 CIG 006V013 P0001 T02330222
53988KBKB BKB20190713150512307/13/19 15:05:31  5-MIN KBKB 132105Z AUTO VRB06KT 2SM -RA BR OVC008 24/23 A2961 580 93 1800 VRB/06 RMK AO2 P0001 T02390228
53988KBKB BKB20190713151012307/13/19 15:10:31  5-MIN KBKB 132110Z AUTO VRB06KT 2SM -RA BR OVC008 24/23 A2961 590 93 1800 VRB/06 RMK AO2 P0001 T02390228
53988KBKB BKB20190713151512707/13/19 15:15:31  5-MIN KBKB 132115Z AUTO VRB06KT 1 3/4SM -RA BR OVC008 24/23 A2961 590 93 1800 VRB/06 RMK AO2 P0002 T02390228
53988KBKB BKB20190713152014507/13/19 15:20:31  5-MIN KBKB 132120Z AUTO 03009G15KT 350V080 2SM -RA BR OVC008 24/23 A2961 590 93 1800 030/09G15 350V080 RMK AO2 P0002 T02390228
53988KBKB BKB20190713152513307/13/19 15:25:31  5-MIN KBKB 132125Z AUTO VRB06G15KT 2 1/2SM -RA BR OVC008 24/23 A2961 590 93 1800 VRB/06G15 RMK AO2 P0002 T02390228
53988KBKB BKB20190713153012707/13/19 15:30:31  5-MIN KBKB 132130Z AUTO VRB03KT 2 1/2SM -RA BR OVC008 24/23 A2961 590 93 1800 VRB/03 RMK AO2 P0002 T02390228
53988KBKB BKB20190713153512407/13/19 15:35:31  5-MIN KBKB 132135Z AUTO 1 3/4SM -RA BR BKN008 OVC012 24/23 A2961 590 93 1800 M /M RMK AO2 P0003 T02390228
53988KBKB BKB20190713154012407/13/19 15:40:31  5-MIN KBKB 132140Z AUTO 1 3/4SM -RA BR BKN007 OVC012 24/23 A2961 590 93 1800 M /M RMK AO2 P0003 T02390228
53988KBKB BKB20190713154512307/13/19 15:45:31  5-MIN KBKB 132145Z AUTO VRB05KT 2SM -RA BR OVC007 23/23 A2961 590 97 1700 VRB/05 RMK AO2 P0004 T02330228
53988KBKB BKB20190713155013207/13/19 15:50:31  5-MIN KBKB 132150Z AUTO 04005KT 2SM -RA BR BKN007 OVC011 23/22 A2961 590 93 1700 030/05 RMK AO2 CIG 005V009 P0004
53988KBKB BKB20190713155514607/13/19 15:55:31  5-MIN KBKB 132155Z AUTO 04007KT 340V090 2SM -RA BR BKN007 OVC011 23/22 A2961 580 93 1700 040/07 340V090 RMK AO2 P0001 T02330222
53988KBKB BKB20190713160012007/13/19 16:00:31  5-MIN KBKB 132200Z AUTO 2SM -RA BR BKN007 OVC012 23/22 A2961 590 93 1700 M /M RMK AO2 P0001 T02330222
53988KBKB BKB20190713160513007/13/19 16:05:31  5-MIN KBKB 132205Z AUTO VRB06KT 2SM -RA BR BKN007 OVC012 23/22 A2961 590 93 1700 VRB/06 RMK AO2 P0001 T02330222
53988KBKB BKB20190713161013407/13/19 16:10:31  5-MIN KBKB 132210Z AUTO VRB06KT 1 3/4SM -RA BR BKN007 OVC012 23/22 A2961 590 93 1700 VRB/06 RMK AO2 P0002 T02330222
53988KBKB BKB20190713161514607/13/19 16:15:31  5-MIN KBKB 132215Z AUTO 05007KT 300V120 2SM -RA BR BKN007 OVC014 23/22 A2961 590 93 1700 040/07 300V120 RMK AO2 P0002 T02330222
53988KBKB BKB20190713162013407/13/19 16:20:31  5-MIN KBKB 132220Z AUTO VRB05KT 2 1/2SM -RA BR BKN008 OVC012 23/22 A2961 590 93 1700 VRB/05 RMK AO2 P0002 T02330222
53988KBKB BKB20190713162514207/13/19 16:25:31  5-MIN KBKB 132225Z AUTO VRB05KT 3SM -RA BR BKN008 OVC014 23/22 A2960 590 93 1700 VRB/05 RMK AO2 CIG 005V010 P0002 T02330222
53988KBKB BKB20190713163015807/13/19 16:30:31  5-MIN KBKB 132230Z AUTO 05007KT 320V120 3SM -RA BR BKN008 OVC012 23/22 A2960 600 93 1700 050/07 320V120 RMK AO2 CIG 005V009 P0002 T02330222
53988KBKB BKB20190713163514207/13/19 16:35:31  5-MIN KBKB 132235Z AUTO VRB06KT 4SM -RA BR BKN008 OVC012 23/22 A2960 600 93 1700 VRB/06 RMK AO2 CIG 005V011 P0002 T02330222
53988KBKB BKB20190713164014407/13/19 16:40:31  5-MIN KBKB 132240Z AUTO VRB05KT 5SM BR BKN008 OVC012 23/22 A2960 600 93 1700 VRB/05 RMK AO2 RAE37 CIG 006V010 P0002 T02330222
53988KBKB BKB20190713164516007/13/19 16:45:31  5-MIN KBKB 132245Z AUTO 05007KT 360V100 5SM BR BKN008 OVC013 23/22 A2960 600 93 1700 040/07 360V100 RMK AO2 RAE37 CIG 006V010 P0002 T02330222
53988KBKB BKB20190713165013707/13/19 16:50:31  5-MIN KBKB 132250Z AUTO VRB06KT 4SM -RA BR BKN008 OVC013 23/22 A2960 600 93 1700 VRB/06 RMK AO2 SLP047 P0002 T02330222
53988KBKB BKB20190713165513507/13/19 16:55:31  5-MIN KBKB 132255Z AUTO VRB05KT 4SM -RA BR OVC008 23/22 A2959 600 93 1700 VRB/05 RMK AO2 CIG 006V013 P0000 T02330222
53988KBKB BKB20190713170013507/13/19 17:00:31  5-MIN KBKB 132300Z AUTO VRB06KT 3SM -RA BR OVC008 23/22 A2959 600 93 1700 VRB/06 RMK AO2 CIG 006V014 P0001 T02330222
53988KBKB BKB20190713170514207/13/19 17:05:31  5-MIN KBKB 132305Z AUTO VRB06KT 3SM -RA BR BKN008 OVC012 23/22 A2959 600 93 1700 VRB/06 RMK AO2 CIG 006V010 P0001 T02330222
53988KBKB BKB20190713171015107/13/19 17:10:31  5-MIN KBKB 132310Z AUTO 04007KT 350V090 4SM -RA BR OVC008 23/22 A2959 600 93 1700 040/07 350V090 RMK AO2 CIG 006V013 P0001 T02330222
53988KBKB BKB20190713171515707/13/19 17:15:31  5-MIN KBKB 132315Z AUTO 04009G16KT 010V100 4SM -RA BR OVC009 23/22 A2959 610 93 1800 040/09G16 010V100 RMK AO2 CIG 006V013 P0001 T02330222
53988KBKB BKB20190713172015707/13/19 17:20:31  5-MIN KBKB 132320Z AUTO 04008G17KT 010V080 5SM -RA BR OVC009 23/22 A2959 610 93 1800 040/08G17 010V080 RMK AO2 CIG 006V013 P0001 T02330222
53988KBKB BKB20190713172020307/13/19 17:20:31  5-MIN KBKB 132320Z AUTO 04008G17KT 010V080 5SM -RA BR OVC009 23/22 A2959 610 93 1800 040/0O VRB06KT 4SM -RA BR OVC009 23/22 A2959 610 97 1700 VRB/06 RMK AO2 CIG 006V012 P0001 T02280222
53988KBKB BKB20190713172515707/13/19 17:25:31  5-MIN KBKB 132325Z AUTO 04007G17KT 350V100 5SM -RA BR OVC009 23/22 A2959 610 93 1800 040/07G17 350V100 RMK AO2 CIG 006V013 P0001 T02330222
53988KBKB BKB20190713173013507/13/19 17:30:31  5-MIN KBKB 132330Z AUTO VRB06KT 4SM -RA BR OVC009 23/22 A2959 610 97 1700 VRB/06 RMK AO2 CIG 006V012 P0001 T02280222
53988KBKB BKB20190713173514207/13/19 17:35:31  5-MIN KBKB 132335Z AUTO VRB06KT 3SM -RA BR BKN009 OVC012 23/22 A2959 610 97 1700 VRB/06 RMK AO2 CIG 006V010 P0001 T02280222
53988KBKB BKB20190713174014207/13/19 17:40:31  5-MIN KBKB 132340Z AUTO VRB05KT 3SM -RA BR BKN009 OVC012 23/22 A2959 610 97 1700 VRB/05 RMK AO2 CIG 006V010 P0001 T02280222
53988KBKB BKB20190713174513907/13/19 17:45:31  5-MIN KBKB 132345Z AUTO VRB06KT 2 1/2SM -RA BR OVC008 23/22 A2959 610 97 1700 VRB/06 RMK AO2 CIG 006V014 P0002 T02280222
53988KBKB BKB20190713175017707/13/19 17:50:31  5-MIN KBKB 132350Z AUTO VRB06KT 2 1/2SM -RA BR BKN008 OVC013 23/22 A2958 610 97 1700 VRB/06 RMK AO2 CIG 006V011 SLP043 P0002 60014 T02280222 10261 20228 58010
53988KBKB BKB20190713175516107/13/19 17:55:31  5-MIN KBKB 132355Z AUTO 05007G15KT 020V080 2 1/2SM -RA BR OVC008 23/22 A2958 610 97 1700 050/07G15 020V080 RMK AO2 CIG 006V013 P0000 T02280222
53988KBKB BKB20190713180016807/13/19 18:00:31  5-MIN KBKB 140000Z AUTO 04008G15KT 010V080 2 1/2SM -RA BR BKN008 OVC012 23/22 A2958 610 97 1700 040/08G15 010V080 RMK AO2 CIG 006V011 P0000 T02280222
53988KBKB BKB20190713180514607/13/19 18:05:31  5-MIN KBKB 140005Z AUTO VRB05KT 2 1/2SM -RA BR BKN008 OVC012 23/22 A2958 610 97 1700 VRB/05 RMK AO2 CIG 006V011 P0001 T02280222
53988KBKB BKB20190713181014607/13/19 18:10:31  5-MIN KBKB 140010Z AUTO VRB06KT 2 1/2SM -RA BR BKN008 OVC011 23/22 A2958 610 97 1700 VRB/06 RMK AO2 CIG 006V010 P0001 T02280222
53988KBKB BKB20190713181513507/13/19 18:15:31  5-MIN KBKB 140015Z AUTO VRB06KT 3SM -RA BR OVC008 23/22 A2958 610 97 1700 VRB/06 RMK AO2 CIG 006V012 P0001 T02280222
53988KBKB BKB20190713182013507/13/19 18:20:31  5-MIN KBKB 140020Z AUTO VRB06KT 3SM -RA BR OVC008 23/22 A2958 610 97 1700 VRB/06 RMK AO2 CIG 006V012 P0001 T02280222
53988KBKB BKB20190713182513907/13/19 18:25:31  5-MIN KBKB 140025Z AUTO VRB03KT 2 1/2SM -RA BR OVC008 23/22 A2958 610 97 1700 VRB/03 RMK AO2 CIG 004V012 P0001 T02280222
53988KBKB BKB20190713183013907/13/19 18:30:31  5-MIN KBKB 140030Z AUTO VRB04KT 2 1/2SM -RA BR OVC008 23/22 A2958 610 97 1700 VRB/04 RMK AO2 CIG 004V012 P0001 T02280222
53988KBKB BKB20190713183515507/13/19 18:35:31  5-MIN KBKB 140035Z AUTO 05007KT 030V090 2 1/2SM -RA BR OVC008 23/22 A2958 610 97 1700 050/07 030V090 RMK AO2 CIG 004V012 P0002 T02280222
53988KBKB BKB20190713184013907/13/19 18:40:31  5-MIN KBKB 140040Z AUTO VRB05KT 2 1/2SM -RA BR OVC008 23/22 A2958 610 97 1700 VRB/05 RMK AO2 CIG 004V011 P0002 T02280222
53988KBKB BKB20190713184513507/13/19 18:45:31  5-MIN KBKB 140045Z AUTO VRB04KT 3SM -RA BR OVC008 23/22 A2958 610 97 1700 VRB/04 RMK AO2 CIG 004V011 P0002 T02280222
53988KBKB BKB20190713185017907/13/19 18:50:31  5-MIN KBKB 140050Z AUTO VRB04KT 4SM -RA BR OVC008 23/22 A2959 610 97 1700 VRB/04 RMK AO2 CIG 004V011 P000224/23 A2961 590 93 1800 VRB/04 RMK AO2 P0002 T02390228
53988KBKB BKB20190713201512707/13/19 20:15:31  5-MIN KBKB 140215Z AUTO VRB03KT 2 1/2SM -RA BR OVC005 24/23 A2961 590 93 1800 VRB/03 RMK AO2 P0002 T02390228
53988KBKB BKB20190713202012707/13/19 20:20:31  5-MIN KBKB 140220Z AUTO 06004KT 2 1/2SM -RA BR OVC005 24/23 A2961 590 93 1800 050/04 RMK AO2 P0003 T02390228
53988KBKB BKB20190713202512307/13/19 20:25:31  5-MIN KBKB 140225Z AUTO VRB03KT 3SM -RA BR OVC006 24/23 A2961 590 93 1800 VRB/03 RMK AO2 P0003 T02390228
53988KBKB BKB20190713203012307/13/19 20:30:31  5-MIN KBKB 140230Z AUTO VRB04KT 3SM -RA BR OVC006 24/23 A2961 580 97 1800 VRB/04 RMK AO2 P0003 T02390233
53988KBKB BKB20190713203512307/13/19 20:35:31  5-MIN KBKB 140235Z AUTO VRB03KT 3SM -RA BR OVC008 24/23 A2961 580 97 1800 VRB/03 RMK AO2 P0004 T02390233
53988KBKB BKB20190713204012307/13/19 20:40:31  5-MIN KBKB 140240Z AUTO VRB05KT 3SM -RA BR OVC008 24/23 A2961 580 97 1800 VRB/05 RMK AO2 P0004 T02390233
53988KBKB BKB20190713204512307/13/19 20:45:31  5-MIN KBKB 140245Z AUTO VRB03KT 5SM -RA BR OVC007 24/23 A2962 580 97 1800 VRB/03 RMK AO2 P0004 T02390233
53988KBKB BKB20190713204512707/13/19 20:45:31  5-MIN KBKB 140245Z AUTO VRB03KT 5SM -RA BR OVC007 24/23 A2962 580 97 1800 VRB/03 RMK AO2 P02 P0003 T02390228
53988KBKB BKB20190713205013907/13/19 20:50:31  5-MIN KBKB 140250Z AUTO VRB04KT 8SM -RA OVC007 24/23 A2962 580 97 1800 VRB/04 RMK AO2 SLP054 P0004 60009 T02390233 56010
53988KBKB BKB20190713205511107/13/19 20:55:31  5-MIN KBKB 140255Z AUTO VRB04R OVC008 24/23 A2961 580 97 1800 VRB/03 RMK AO2 P0004 T02390233
53988KBKB BKB20190713205512807/13/19 20:55:31  5-MIN KBKB 140255Z AUTO VRB04KT 10SM -RA BKN007 OVC012 24/23 A2962 580 97 1800 VRB/04 RMK AO2 P0000 T02390233
53988KBKB BKB20190713210012307/13/19 21:00:31  5-MIN KBKB 140300Z AUTO 12005KT 10SM BKN007 OVC012 24/23A2962 580 97 1800 VRB/03 RMK AO2 P0004 T02390233
53988KBKB BKB20190713210013207/13/19 21:00:31  5-MIN KBKB 140300Z AUTO 12005KT 10SM BKN007 OVC012 24/23 A2962 570 93 1800 110/05 RMK AO2 RAE0256 P0000 T02390228
53988KBKB BKB20190713210512507/13/19 21:05:31  5-MIN KBKB 140305Z AUTO VRB04KT 10SM OVC007 24/23 A2963 570 93 1800 VRB/04 RMK AO2 RAE0256 P0000 T02390228
53988KBKB BKB20190713211013707/13/19 21:10:31  5-MIN KBKB 140310Z AUTO VRB04KT 10SM OVC009 24/23 A2963 570 93 1800 VRB/04 RMK AO2 RAE0256 CIG 004V011 P0000 T02390228
53988KBKB BKB20190713211517707/13/19 21:15:31  5-MIN KBKB 140315Z AUTO VRB03KT 10SM BKN007 OVC011 24/23 A2964 560 93 1800 VRB/03 RMK AO2 RAE0256 CIG 004V009 P0000 T02390530 93 1700 VRB/04 RMK AO2 T02390228
53988KBKB BKB20190713232511007/13/19 23:25:31  5-MIN KBKB 140525Z AUTO VRB03KT 7SM OVC006 24/23 A2967 530 93 1700 VRB/03 RMK AO2 T02390228
53988KBKB BKB20190713233012907/13/19 23:30:31  5-MIN KBKB 140530Z AUTO VRB04KT 6SM -RA BR OVC006 24/23 A2967 530 93 1700 VRB/04 RMK AO2 RAB29 P0000 T02390228
53988KBKB BKB20190713233514107/13/19 23:35:31  5-MIN KBKB 140535Z AUTO VRB04KT 5SM -RA BR OVC006 24/23 A2967 530 93 1700 VRB/04 RMK AO2 RAB29 CIG 005V009 P0000 T02390228
53988KBKB BKB20190713234012807/13/19 23:40:31  5-MIN KBKB 140540Z AUTO VRB03KT 5SM BR OVC006 24/23 A2968 530 93 1700 VRB/03 RMK AO2 RAB29E39 P0000 T02390228
53988KBKB BKB20190713234514007/13/19 23:45:31  5-MIN KBKB 140545Z AUTO VRB03KT 4SM BR OVC006 24/23 A2968 520 93 1700 VRB/03 RMK AO2 RAB29E39 CIG 004V009 P0000 T02390228
53988KBKB BKB20190713234519407/13/19 23:45:31  5-MIN KBKB 140545Z AUTO VRB03KT 4SM BR OVC006 24/23 A2968 520 93 1700 VRB/03 RMK AO2 RAB29E39 CIG 004V009 P0000 T02390228A2967 530 93 1700 VRB/04 RMK AO2 RAB29 P0000 T02390228
53988KBKB BKB20190713235018207/13/19 23:50:31  5-MIN KBKB 140550Z AUTO 00000KT 4SM -RA BR OVC006 24/23 A2968 520 93 1700 000/00 RMK AO2 RAB29 CIG 004V009 SLP074 P0000 60009 T02390228 10250 20228 402780228 53012
53988KBKB BKB20190713235513507/13/19 23:55:31  5-MIN KBKB 140555Z AUTO VRB04KT 3SM -RA BR OVC005 24/23 A2968 520 93 1700 VRB/04 RMK AO2 CIG 003V009 P0001 T02390228
53988KBKB BKB20190713235517607/13/19 23:55:31  5-MIN KBKB 140555Z AUTO VRB04KT 3SM 9 23:40:31  5-MIN KBKB 140540Z AUTO VRB03KT 5SM BR OVC006 24/23 A2968 530 93 1700 VRB/03 RMK AO2 RAB29E39 P0000 T02390228
53988KBKB BKB20190714000012307/14/19 00:00:31  5-MIN KBKB 140600Z AUTO VRB04KT 3SM -RA BR OVC005 24/23 A2968 520 93 1700 VRB/04 RMK AO2 P0001 T02390228
53988KBKB BKB20190714000017907/14/19 00:00:31  5-MIN KBKB 140600Z AUTO VRB04KT 3SM -RA BR OVC005 24/23 A2968 520 93 1700 VRB/04 RMK AO2 P0001 T0239022807/14/19 00:05:31   RAB29E39 CIG 004V009 P0000 T02390228
53988KBKB BKB20190714000512307/14/19 00:05:31  5-MIN KBKB 140605Z AUTO VRB03KT 3SM -RA BR OVC007 24/23 A2968 520 93 1700 VRB/03 RMK AO2 P0001 T02390228
53988KBKB BKB20190714001011507/14/19 00:10:31  5-MIN KBKB 140610Z AUTO VRB03KT 3SM -RA BR OVC005 24/23 A2968 520 93 1700 VRB/03 402780228 53012
53988KBKB BKB20190714001012307/14/19 00:10:31  5-MIN KBKB 140610Z AUTO VRB03KT 3SM -RA BR OVC005 24/23 A2968 520 93 1700 VRB/03 RMK AO2 P0002 T02390228
53988KBKB BKB20190714001012707/14/19 00:10:31  5-MIN KBKB 140610Z AUTO VRB03KT 3SM -RA BR OVC005 24/223/23 A2969 510 97 1600 VRB/04 RMK AO2 P0003 T02330228
53988KBKB BKB20190714001512307/14/19 00:15:31  5-MIN KBKB 140615Z AUTO VRB03KT 3SM -RA BR OVC005 24/23 A2968 520 93 1700 VRB/03 RMK AO2 P0002 T02390228
53988KBKB BKB20190714002012507/14/19 00:20:31  5-MIN KBKB 140620Z AUTO VRB04KT 3SM -RA BR OVC005 24/23 3 A2968 520 93 1700 VRB/04 RMK AO2 P0001 T02390228
53988KBKB BKB20190714023012307/14/19 02:30:31  5-MIN KBKB 140830Z AUTO VRB04KT 4SM -RA BR OVC005 23/23 A2969 510 97 1600 VRB/04 RMK AO2 P0004 T02330228
53988KBKB BKB20190714023513507/14/19 02:35:31  5-MIN KBKB 140835Z AUTO VRB03KT 5SM -RA BR OVC005 23/23 A2969 510 97 1600 VRB/03 RMK AO2 CIG 003V010 P0004 T02330228
53988KBKB BKB20190714024013907/14/19 02:40:31  5-MIN KBKB 140840Z AUTO VRB05KT 7SM -RA BKN005 OVC010 23/23 A2969 510 97 1600 VRB/05 RMK AO2 CIG 004V007 P0004 T02330228
53988KBKB BKB20190714024513007/14/19 02:45:31  5-MIN KBKB 140845Z AUTO VRB04KT 6SM -RA BR BKN005 OVC010 23/23 A2969 510 97 1600 VRB/04 RMK AO2 P0004 T02330228
53988KBKB BKB20190714025009207/14/19 02:50:31  5-MIN KBKB 140850Z AUTO VRB04KT 5SM -RA BR BKN007 OVC011 23/23 A2970 0228
53988KBKB BKB20190714025014907/14/19 02:50:31  5-MIN KBKB 140850Z AUTO VRB04KT 5SM -RA BR BKN007 OVC011 23/23 A2970 510 97 1600 VRB/04 RMK AO2 SLP081 P0004 60013 T02330228 51019
53988KBKB BKB20190714025513007/14/19 02:55:31  5-MIN KBKB 140855Z AUTO VRB04KT 4SM -RA BR BKN007 OVC011 23/23 A2970 510 97 1600 VRB/04 RMK AO2 P0000 T02330228
53988KBKB BKB20190714025517507/14/19 02:55:31  5-MIN KBKB 140855Z AUTO VRB04KT 4SM -RA BR BKN007 OVC011 23/23 A2970 510 97 1600 VRB/04 RMK AO2 P0000 T0233022800 VRB/05 RMK AO2 CIG 004V007 P0004 T02330228
53988KBKB BKB20190714034513507/14/19 03:45:31  5-MIN KBKB 140945Z AUTO VRB04KT 5SM -RA BR OVC006 23/22 A2971 500 93 1600 VRB/04 RMK AO2 CIG 004V011 P0003 T02330222
53988KBKB BKB20190714035014207/14/19 03:50:31  5-MIN KBKB 140950Z AUTO VRB04KT 5SM -RA BR OVC006 23/23 A2971 490 97 1600 VRB/04 RMK AO2 CIG 004V011 SLP086 P0004 T02330228
53988KBKB BKB20190714035513507/14/19 03:55:31  5-MIN KBKB 140955Z AUTO VRB04KT 4SM -RA BR OVC006 23/23 A2971 490 97 1600 VRB/04 RMK AO2 CIG 004V009 P0000 T02330228
53988KBKB BKB20190714040013507/14/19 04:00:31  5-MIN KBKB 141000Z AUTO VRB05KT 4SM -RA BR OVC006 23/23 A2972 490 97 1600 VRB/05 RMK AO2 CIG 004V009 P0000 T02330228
53988KBKB BKB20190714040513507/14/19 04:05:31  5-MIN KBKB 141005Z AUTO VRB03KT 4SM -RA BR OVC006 23/22 A2972 490 93 1600 VRB/03 RMK AO2 CIG 004V011 P0001 T02330222
53988KBKB BKB20190714041012307/14/19 04:10:31  5-MIN KBKB 141010Z AUTO VRB04KT 4SM -RA BR OVC006 23/22 A2972 490 93 1600 VRB/04 RMK AO2 P0001 T02330222
53988KBKB BKB20190714041513007/14/19 04:15:31  5-MIN KBKB 141015Z AUTO VRB04KT 4SM -RA BR BKN006 OVC015 23/22 A2972 490 93 1600 VRB/04 RMK AO2 P0002 T02330222
53988KBKB BKB20190714042013707/14/19 04:20:31  5-MIN KBKB 141020Z AUTO VRB04KT 3SM -RA BR BKN006 BKN010 OVC015 23/23 A2972 480 97 1600 VRB/04 RMK AO2 P0002 T02330228
53988KBKB BKB20190714042513007/14/19 04:25:31  5-MIN KBKB 141025Z AUTO VRB04KT 4SM -RA BR BKN006 OVC015 23/23 A2972 480 97 1600 VRB/04 RMK AO2 P0003 T02330228
53988KBKB BKB20190714043013007/14/19 04:30:31  5-MIN KBKB 141030Z AUTO VRB03KT 4SM -RA BR BKN006 OVC015 23/23 A2972 480 97 1600 VRB/03 RMK AO2 P0003 T02330228
53988KBKB BKB20190714043513007/14/19 04:35:31  5-MIN KBKB 141035Z AUTO VRB03KT 5SM -RA BR BKN007 OVC015 23/23 A2972 480 97 1600 VRB/03 RMK AO2 P0003 T02330228
53988KBKB BKB20190714044012007/14/19 04:40:31  5-MIN KBKB 141040Z AUTO 4SM -RA BR BKN007 OVC014 23/23 A2973 480 97 1600 M /M RMK AO2 P0004 T02330228
53988KBKB BKB20190714044513007/14/19 04:45:31  5-MIN KBKB 141045Z AUTO VRB05KT 4SM -RA BR BKN007 OVC014 23/23 A2973 480 97 1600 VRB/05 RMK AO2 P0004 T02330228
53988KBKB BKB20190714045012707/14/19 04:50:31  5-MIN KBKB 141050Z AUTO 5SM -RA BR BKN006 OVC009 23/22 A2973 470 93 1600 M /M RMK AO2 SLP093 P0004 T02330222
53988KBKB BKB20190714045513007/14/19 04:55:31  5-MIN KBKB 141055Z AUTO VRB04KT 6SM -RA BR BKN006 OVC012 23/22 A2973 470 93 1600 VRB/04 RMK AO2 P0000 T02330222
53988KBKB BKB20190714050013007/14/19 05:00:31  5-MIN KBKB 141100Z AUTO VRB04KT 5SM -RA BR BKN006 OVC010 23/22 A2973 470 93 1600 VRB/04 RMK AO2 P0001 T02330222
53988KBKB BKB20190714050513007/14/19 05:05:31  5-MIN KBKB 141105Z AUTO VRB04KT 4SM -RA BR BKN006 OVC010 23/22 A2973 470 93 1600 VRB/04 RMK AO2 P0001 T02330222
53988KBKB BKB20190714051013007/14/19 05:10:31  5-MIN KBKB 141110Z AUTO VRB04KT 4SM -RA BR BKN006 OVC024 23/22 A2973 470 93 1600 VRB/04 RMK AO2 P0002 T02330222
53988KBKB BKB20190714051513707/14/19 05:15:31  5-MIN KBKB 141115Z AUTO VRB04KT 4SM -RA BR BKN006 BKN010 OVC022 23/22 A2974 470 93 1600 VRB/04 RMK AO2 P0002 T02330222
53988KBKB BKB20190714052013707/14/19 05:20:31  5-MIN KBKB 141120Z AUTO 00000KT 3SM -RA BR BKN006 BKN010 OVC019 23/22 A2974 470 93 1600 000/00 RMK AO2 P0003 T02330222
53988KBKB BKB20190714052512007/14/19 05:25:31  5-MIN KBKB 141125Z AUTO 4SM -RA BR BKN006 OVC021 23/22 A2974 470 93 1600 M /M RMK AO2 P0003 T02330222
53988KBKB BKB20190714053012007/14/19 05:30:31  5-MIN KBKB 141130Z AUTO 5SM -RA BR BKN006 OVC021 23/22 A2974 460 93 1600 M /M RMK AO2 P0003 T02330222
53988KBKB BKB20190714053513007/14/19 05:35:31  5-MIN KBKB 141135Z AUTO 00000KT 4SM -RA BR BKN006 OVC018 23/22 A2974 460 93 1600 000/00 RMK AO2 P0004 T02330222
53988KBKB BKB20190714054012307/14/19 05:40:31  5-MIN KBKB 141140Z AUTO VRB03KT 4SM -RA BR OVC006 23/22 A2974 460 93 1600 VRB/03 RMK AO2 P0004 T02330222
53988KBKB BKB20190714054517107/14/19 05:45:31  5-MIN KBKB 141145Z AUTO VRB03KT 3SM -RA BR OVC006 23/22 A2975 460 93 1600 VRB/03 RMK AO2 P0004 T02330222A2975 450 93 1600 VRB/04 RMK AO2 P0001 T02330222
53988KBKB BKB20190714061512707/14/19 06:15:31  5-MIN KBKB 141215Z AUTO VRB04KT 1 3/4SM -RA BR OVC005 23/22 A2975 450 93 1600 VRB/04 RMK AO2 P0002 T02330222
53988KBKB BKB20190714062012707/14/19 06:20:31  5-MIN KBKB 141220Z AUTO VRB04KT 1 3/4SM -RA BR OVC005 23/22 A2976 450 93 1600 VRB/04 RMK AO2 P0003 T02330222
53988KBKB BKB20190714062512707/14/19 06:25:31  5-MIN KBKB 141225Z AUTO VRB04KT 1 3/4SM -RA BR OVC005 23/22 A2976 450 93 1600 VRB/04 RMK AO2 P0004 T02330222
53988KBKB BKB20190714063012707/14/19 06:30:31  5-MIN KBKB 141230Z AUTO VRB03KT 1 3/4SM -RA BR OVC005 23/23 A2976 450 97 1600 VRB/03 RMK AO2 P0005 T02330228
53988KBKB BKB20190714063512307/14/19 06:35:31  5-MIN KBKB 141235Z AUTO VRB04KT 2SM -RA BR OVC004 23/23 A2976 440 97 1600 VRB/04 RMK AO2 P0006 T02330228
53988KBKB BKB20190714064012307/14/19 06:40:31  5-MIN KBKB 141240Z AUTO VRB04KT 2SM -RA BR OVC004 23/23 A2977 440 97 1600 VRB/04 RMK AO2 P0006 T02330228
53988KBKB BKB20190714064512707/14/19 06:45:31  5-MIN KBKB 141245Z AUTO VRB06KT 2 1/2SM -RA BR OVC004 23/23 A2977 440 97 1500 VRB/06 RMK AO2 P0007 T02330228
53988KBKB BKB20190714065011707/14/19 06:50:31  5-MIN KBKB 141250Z AUTO VRB04KT 2 1/2SM -RA BR OVC006 23/23 A2977 440 97 1500 VRB/04 RMK AO2 P0007
53988KBKB BKB20190714065512707/14/19 06:55:31  5-MIN KBKB 141255Z AUTO VRB05KT 2 1/2SM -RA BR OVC006 23/23 A2977 430 97 1500 VRB/05 RMK AO2 P0000 T02330228
53988KBKB BKB20190714070012307/14/19 07:00:31  5-MIN KBKB 141300Z AUTO VRB04KT 2SM -RA BR OVC006 23/22 A2978 430 93 1500 VRB/04 RMK AO2 P0001 T02330222
53988KBKB BKB20190714070512707/14/19 07:05:31  5-MIN KBKB 141305Z AUTO VRB05KT 1 3/4SM -RA BR OVC006 23/23 A2978 430 97 1500 VRB/05 RMK AO2 P0002 T02330228
53988KBKB BKB20190714071013407/14/19 07:10:31  5-MIN KBKB 141310Z AUTO VRB04KT 1 3/4SM -RA BR BKN006 OVC010 23/23 A2978 430 97 1500 VRB/04 RMK AO2 P0002 T02330228
53988KBKB BKB20190714071512907/14/19 07:15:31  5-MIN KBKB 141315Z AUTO 2 1/2SM -RA BR OVC006 23/23 A2978 430 97 1500 M /M RMK AO2 VIS 1 3/4V4 P0002 T02330228
53988KBKB BKB20190714072012307/14/19 07:20:31  5-MIN KBKB 141320Z AUTO VRB04KT 4SM -RA BR OVC006 23/23 A2978 420 97 1500 VRB/04 RMK AO2 P0002 T02330228
53988KBKB BKB20190714072512307/14/19 07:25:31  5-MIN KBKB 141325Z AUTO 00000KT 4SM -RA BR OVC006 23/23 A2979 420 97 1500 000/00 RMK AO2 P0003 T02330228
53988KBKB BKB20190714073012307/14/19 07:30:31  5-MIN KBKB 141330Z AUTO VRB04KT 3SM -RA BR OVC006 23/23 A2979 420 97 1500 VRB/04 RMK AO2 P0003 T02330228
53988KBKB BKB20190714073512307/14/19 07:35:31  5-MIN KBKB 141335Z AUTO VRB06KT 3SM -RA BR OVC006 24/23 A2979 420 93 1600 VRB/06 RMK AO2 P0003 T02390228
53988KBKB BKB20190714074012307/14/19 07:40:31  5-MIN KBKB 141340Z AUTO VRB04KT 3SM -RA BR OVC006 23/23 A2979 420 97 1500 VRB/04 RMK AO2 P0003 T02330228
53988KBKB BKB20190714074512307/14/19 07:45:31  5-MIN KBKB 141345Z AUTO 21005KT 5SM -RA BR OVC006 23/23 A2980 410 97 1500 200/05 RMK AO2 P0003 T02330228
53988KBKB BKB20190714075024007/14/19 07:50:31  5-MIN KBKB 141350Z AUTO VRB04KT 10SM BKN005 OVC009 23/23 A2980 410 97 1500 VRB/04 RMK AO2 RAE46 SLP116 P0003 T0233022807/14/19 07:55KT 6SM -RA BR BKN006 BKN012 OVC018 24/23 A2982 390 97 1500 VRB/03 RMK AO2 P0000 T02390233
53988KBKB BKB20190714100513707/14/19 10:05:31  5-MIN KBKB 141605Z AUTO 00000KT 6SM -RA BR BKN007 BKN016 OVC050 24/23 A2982 390 93 1600 000/00 RMK AO2 P0000 T02440233
53988KBKB BKB20190714101019207/14/19 10:10:31  5-MIN KBKB 141610Z AUTO VRB05KT 10SM BKN007 BKN018 OVC055 24/23 A2983 380 93 1600 VRB/05 RMK AO2 RAE07 P0000 T02440233OVC065 26/23 A2981 400 84 1800 VRB/04 RMK AO2 T02610233
53988KBKB BKB20190714120512507/14/19 12:05:31  5-MIN KBKB 141805Z AUTO 00000KT 10SM FEW010 SCT045 OVC065 27/24 A2981 400 84 1900 000/00 RMK AO2 T02670239
53988KBKB BKB20190714121012507/14/19 12:10:31  5-MIN KBKB 141810Z AUTO VRB03KT 10SM FEW010 SCT045 OVC065 27/24 A2981 400 84 1900 VRB/03 RMK AO2 T02670239
53988KBKB BKB20190714121512507/14/19 12:15:31  5-MIN KBKB 141815Z AUTO VRB04KT 10SM SCT012 SCT045 OVC065 27/23 A2981 400 82 1900 VRB/04 RMK AO2 T02670233
53988KBKB BKB20190714122012507/14/19 12:20:31  5-MIN KBKB 141820Z AUTO VRB04KT 10SM SCT012 SCT044 OVC065 27/23 A2981 400 82 1900 VRB/04 RMK AO2 T02670233
53988KBKB BKB20190714122512507/14/19 12:25:31  5-MIN KBKB 141825Z AUTO VRB04KT 10SM SCT012 SCT044 OVC065 27/24 A2981 400 84 1900 VRB/04 RMK AO2 T02670239
53988KBKB BKB20190714123011807/14/19 12:30:31  5-MIN KBKB 141830Z AUTO VRB03KT 10SM SCT012 OVC070 27/24 A2981 400 82 1900 VRB/03 RMK AO2 T02720239
53988KBKB BKB20190714123511807/14/19 12:35:31  5-MIN KBKB 141835Z AUTO VRB04KT 10SM SCT014 OVC070 27/24 A2981 400 82 1900 VRB/04 RMK AO2 T02720239
53988KBKB BKB20190714124016907/14/19 12:40:31  5-MIN KBKB 141840Z AUTO VRB03KT 10SM SCT014 BKN070 28/24 A2981 410 79 2000 VRB/03 RMK AO2 T0278023907/14/23 A2980 410 79 2000 VRB/04 RMK AO2 T02720233
53988KBKB BKB20190714130514307/14/19 13:05:31  5-MIN KBKB 141905Z AUTO VRB04KT 10SM -RA BKN020 BKN025 OVC039 27/24 A2980 410 82 2000 VRB/04 RMK AO2 RAB1859 P0000 T02720239
53988KBKB BKB20190714131014207/14/19 13:10:31  5-MIN KBKB 141910Z AUTO VRB03KT 10SM SCT018 BKN023 OVC035 28/24 A2980 410 79 2000 VRB/03 RMK AO2 RAB1859E08 P0000 T02780239
53988KBKB BKB20190714131514207/14/19 13:15:31  5-MIN KBKB 141915Z AUTO 27003KT 7SM -RA FEW015 BKN021 OVC029 27/24 A2981 400 82 1900 270/03 RMK AO2 RAB1859 P0001 T02720239
53988KBKB BKB20190714132013807/14/19 13:20:31  5-MIN KBKB 141920Z AUTO VRB03KT 6SM -RA BR BKN019 OVC027 26/24 A2981 400 90 1800 VRB/03 RMK AO2 RAB1859 P0001 T02610244
53988KBKB BKB20190714132514107/14/19 13:25:31  5-MIN KBKB 141925Z AUTO VRB04KT 9SM FEW016 BKN021 OVC045 26/24 A2981 400 90 1800 VRB/04 RMK AO2 RAB1859E25 P0001 T02610244
53988KBKB BKB20190714133014207/14/19 13:30:31  5-MIN KBKB 141930Z AUTO VRB05KT 10SM SCT019 BKN028 OVC047 27/24 A2981 400 87 1900 VRB/05 RMK AO2 RAB1859E25 P0001 T02670244
53988KBKB BKB20190714133514207/14/19 13:35:31  5-MIN KBKB 141935Z AUTO VRB04KT 10SM SCT019 BKN027 OVC047 27/24 A2981 400 84 1900 VRB/04 RMK AO2 RAB1859E25 P0001 T02670239
53988KBKB BKB20190714134014207/14/19 13:40:31  5-MIN KBKB 141940Z AUTO VRB03KT 10SM SCT019 BKN027 OVC060 27/24 A2981 400 82 1900 VRB/03 RMK AO2 RAB1859E25 P0001 T02720239
53988KBKB BKB20190714134514207/14/19 13:45:31  5-MIN KBKB 141945Z AUTO VRB04KT 10SM FEW019 BKN033 OVC060 28/24 A2980 410 79 2000 VRB/04 RMK AO2 RAB1859E25 P0001 T02780239
53988KBKB BKB20190714135012207/14/19 13:50:31  5-MIN KBKB 141950Z AUTO 10SM SCT024 BKN033 OVC060 28/23 A2980 410 74 2100 M /M RMK AO2 RAB1859E25 P0001
53988KBKB BKB20190714135512507/14/19 13:55:31  5-MIN KBKB 141955Z AUTO 22006KT 10SM SCT024 BKN032 OVC060 29/23 A2980 410 71 2100 220/06 RMK AO2 T02890233
53988KBKB BKB20190714140012507/14/19 14:00:31  5-MIN KBKB 142000Z AUTO VRB03KT 10SM SCT025 BKN032 BKN065 29/23 A2980 410 71 2100 VRB/03 RMK AO2 T02890233
53988KBKB BKB20190714140514107/14/19 14:05:31  5-MIN KBKB 142005Z AUTO 26007KT 210V310 10SM SCT027 SCT032 BKN065 29/23 A2980 410 69 2200 260/07 210V310 RMK AO2 T02940233
53988KBKB BKB20190714141014107/14/19 14:10:31  5-MIN KBKB 142010Z AUTO 24007KT 190V300 10SM SCT027 BKN032 BKN065 29/23 A2980 410 69 2100 240/07 190V300 RMK AO2 T02890228
53988KBKB BKB20190714141512507/14/19 14:15:31  5-MIN KBKB 142015Z AUTO VRB05KT 10SM SCT027 BKN032 BKN065 28/23 A2980 410 71 2100 VRB/05 RMK AO2 T02830228
53988KBKB BKB20190714142011807/14/19 14:20:31  5-MIN KBKB 142020Z AUTO VRB03KT 10SM BKN027 BKN034 28/23 A2980 410 71 2100 VRB/03 RMK AO2 T02830228
53988KBKB BKB20190714142511807/14/19 14:25:31  5-MIN KBKB 142025Z AUTO VRB04KT 10SM BKN027 BKN034 28/23 A2980 410 74 2000 VRB/04 RMK AO2 T02780228
53988KBKB BKB20190714143011807/14/19 14:30:31  5-MIN KBKB 142030Z AUTO VRB04KT 10SM BKN027 BKN034 28/23 A2980 410 74 2000 VRB/04 RMK AO2 T02780228
53988KBKB BKB20190714143512507/14/19 14:35:31  5-MIN KBKB 142035Z AUTO VRB05KT 10SM BKN027 BKN033 OVC041 27/23 A2980 410 76 1900 VRB/05 RMK AO2 T02720228
53988KBKB BKB20190714144012507/14/19 14:40:31  5-MIN KBKB 142040Z AUTO VRB03KT 10SM BKN027 BKN033 OVC041 27/23 A2980 410 76 1900 VRB/03 RMK AO2 T02720228
53988KBKB BKB20190714144511807/14/19 14:45:31  5-MIN KBKB 142045Z AUTO VRB04KT 10SM BKN027 OVC033 27/23 A2980 410 79 2000 VRB/04 RMK AO2 T02720233
53988KBKB BKB20190714145013707/14/19 14:50:31  5-MIN KBKB 142050Z AUTO 00000KT 10SM BKN027 OVC034 27/23 A2980 410 79 2000 000/00 RMK AO2 SLP116 60001 T02720233 50001
53988KBKB BKB20190714145511507/14/19 14:55:31  5-MIN KBKB 142055Z AUTO 10SM SCT023 BKN027 OVC036 27/23 A2980 410 79 2000 M /M RMK AO2 T02720233
53988KBKB BKB20190714150010607/14/19 15:00:31  5-MIN KBKB 142100Z AUTO 00000KT 10SM FEW023 BKN029 OVC036 27/23 A2905 RMK AO2 T02780228
53988KBKB BKB20190714150012507/14/19 15:00:31  5-MIN KBKB 142100Z AUTO 00000KT 10SM FEW023 BKN029 OVC036 27/23 A2980 410 76 2000 000/00 RMK AO2 T02720228
53988KBKB BKB20190714150511507/14/19 15:05:31  5-MIN KBKB 142105Z AUTO 10SM FEW023 BKN029 OVC036 27/23 A2980 410 76 2000 M /M RMK AO2 T02720228
53988KBKB BKB20190714151012507/14/19 15:10:31  5-MIN KBKB 142110Z AUTO VRB04KT 10SM FEW023 BKN030 OVC036 27/23 A2980 410 79 1900 VRB/04 RMK AO2 T02720233
53988KBKB BKB20190714151512507/14/19 15:15:31  5-MIN KBKB 142115Z AUTO VRB04KT 10SM SCT025 BKN034 OVC065 27/23 A2980 410 79 2000 VRB/04 RMK AO2 T02720233
53988KBKB BKB20190714152012507/14/19 15:20:31  5-MIN KBKB 142120Z AUTO VRB05KT 10SM FEW025 BKN034 OVC075 28/23 A2980 410 76 2000 VRB/05 RMK AO2 T02780233
53988KBKB BKB20190714152511507/14/19 15:25:31  5-MIN KBKB 142125Z AUTO 10SM FEW025 BKN034 OVC075 28/23 A2980 410 76 2000 M /M RMK AO2 T02780233
53988KBKB BKB20190714153012507/14/19 15:30:31  5-MIN KBKB 142130Z AUTO VRB06KT 10SM FEW025 BKN060 OVC075 28/23 A2980 410 74 2000 VRB/06 RMK AO2 T02780228
53988KBKB BKB20190714153512507/14/19 15:35:31  5-MIN KBKB 142135Z AUTO VRB06KT 10SM FEW025 BKN060 OVC075 28/23 A2980 410 74 2000 VRB/06 RMK AO2 T02780228
53988KBKB BKB20190714154011807/14/19 15:40:31  5-MIN KBKB 142140Z AUTO 21005KT 10SM FEW023 OVC060 28/23 A2980 410 74 2000 210/05 RMK AO2 T02780228
53988KBKB BKB20190714154511107/14/19 15:45:31  5-MIN KBKB 142145Z AUTO 00000KT 10SM OVC065 28/23 A2980 410 74 2000 000/00 RMK AO2 T02780228
53988KBKB BKB20190714155013207/14/19 15:50:31  5-MIN KBKB 142150Z AUTO 00000KT 10SM FEW023 FEW044 OVC060 28/23 A2980 410 74 2100 000/00 RMK AO2 SLP117 T02830233
53988KBKB BKB20190714155511507/14/19 15:55:31  5-MIN KBKB 142155Z AUTO 10SM SCT023 SCT044 OVC060 28/23 A2981 400 74 2100 M /M RMK AO2 T02830233
53988KBKB BKB20190714160011807/14/19 16:00:31  5-MIN KBKB 142200Z AUTO VRB03KT 10SM SCT023 OVC065 28/23 A2981 400 71 2100 VRB/03 RMK AO2 T02830228
53988KBKB BKB20190714160511807/14/19 16:05:31  5-MIN KBKB 142205Z AUTO VRB03KT 10SM SCT023 OVC065 28/23 A2981 400 74 2100 VRB/03 RMK AO2 T02830233
53988KBKB BKB20190714161011807/14/19 16:10:31  5-MIN KBKB 142210Z AUTO VRB04KT 10SM FEW023 OVC065 28/23 A2981 400 76 2000 VRB/04 RMK AO2 T02780233
53988KBKB BKB20190714161511807/14/19 16:15:31  5-MIN KBKB 142215Z AUTO VRB04KT 10SM FEW023 OVC065 27/23 A2981 400 76 1900 VRB/04 RMK AO2 T02720228
53988KBKB BKB20190714162011807/14/19 16:20:31  5-MIN KBKB 142220Z AUTO VRB03KT 10SM FEW023 OVC060 27/23 A2981 400 76 1900 VRB/03 RMK AO2 T02720228
53988KBKB BKB20190714162511807/14/19 16:25:31  5-MIN KBKB 142225Z AUTO 21004KT 10SM FEW023 OVC060 27/23 A2981 400 76 1900 210/04 RMK AO2 T02720228
53988KBKB BKB20190714163012507/14/19 16:30:31  5-MIN KBKB 142230Z AUTO VRB05KT 10SM FEW025 BKN060 OVC075 27/23 A2981 400 76 1900 VRB/05 RMK AO2 T02720228
53988KBKB BKB20190714163511807/14/19 16:35:31  5-MIN KBKB 142235Z AUTO VRB03KT 10SM BKN060 OVC075 27/23 A2981 400 76 1900 VRB/03 RMK AO2 T02720228
53988KBKB BKB20190714164011807/14/19 16:40:31  5-MIN KBKB 142240Z AUTO VRB03KT 10SM BKN065 OVC080 27/23 A2981 400 76 1900 VRB/03 RMK AO2 T02720228
53988KBKB BKB20190714164512507/14/19 16:45:31  5-MIN KBKB 142245Z AUTO 21005KT 10SM FEW028 BKN065 OVC075 27/23 A2981 400 76 1900 210/05 RMK AO2 T02720228
53988KBKB BKB20190714165013207/14/19 16:50:31  5-MIN KBKB 142250Z AUTO VRB03KT 10SM SCT026 BKN065 OVC075 27/23 A2981 400 76 1900 VRB/03 RMK AO2 SLP118 T02720228
53988KBKB BKB20190714165512507/14/19 16:55:31  5-MIN KBKB 142255Z AUTO VRB04KT 10SM SCT024 SCT030 OVC075 27/22 A2981 400 74 1900 VRB/04 RMK AO2 T02720222
53988KBKB BKB20190714170012507/14/19 17:00:31  5-MIN KBKB 142300Z AUTO 00000KT 10SM SCT026 BKN070 OVC085 27/22 A2981 400 74 1900 000/00 RMK AO2 T02720222
53988KBKB BKB20190714170512507/14/19 17:05:31  5-MIN KBKB 142305Z AUTO VRB05KT 10SM SCT026 BKN055 OVC090 27/23 A2981 400 79 1900 VRB/05 RMK AO2 T02670228
53988KBKB BKB20190714171012507/14/19 17:10:31  5-MIN KBKB 142310Z AUTO VRB05KT 10SM SCT024 BKN050 OVC085 27/22 A2981 400 76 1900 VRB/05 RMK AO2 T02670222
53988KBKB BKB20190714171512507/14/19 17:15:31  5-MIN KBKB 142315Z AUTO 00000KT 10SM FEW020 BKN026 OVC085 27/23 A2981 400 79 1900 000/00 RMK AO2 T02670228
53988KBKB BKB20190714172012507/14/19 17:20:31  5-MIN KBKB 142320Z AUTO VRB03KT 10SM SCT020 BKN026 OVC085 27/23 A2982 390 79 1900 VRB/03 RMK AO2 T02670228
53988KBKB BKB20190714172512507/14/19 17:25:31  5-MIN KBKB 142325Z AUTO 00000KT 10SM BKN020 BKN028 OVC065 27/23 A2982 390 79 1900 000/00 RMK AO2 T02670228
53988KBKB BKB20190714173012507/14/19 17:30:31  5-MIN KBKB 142330Z AUTO 20003KT 10SM BKN020 BKN028 OVC065 26/23 A2982 400 81 1800 200/03 RMK AO2 T02610228
53988KBKB BKB20190714173512507/14/19 17:35:31  5-MIN KBKB 142335Z AUTO 00000KT 10SM SCT020 BKN025 OVC065 26/23 A2982 400 81 1800 000/00 RMK AO2 T02610228
53988KBKB BKB20190714174012507/14/19 17:40:31  5-MIN KBKB 142340Z AUTO VRB03KT 10SM FEW020 BKN025 OVC070 27/23 A2982 390 79 1900 VRB/03 RMK AO2 T02670228
53988KBKB BKB20190714174512507/14/19 17:45:31  5-MIN KBKB 142345Z AUTO 00000KT 10SM SCT020 BKN055 OVC080 27/23 A2982 390 79 1900 000/00 RMK AO2 T02670228
53988KBKB BKB20190714175015607/14/19 17:50:31  5-MIN KBKB 142350Z AUTO 00000KT 10SM SCT020 BKN028 OVC080 27/23 A2982 390 79 1900 000/00 RMK AO2 SLP122 60001 T02670228 10294 20261 58001
53988KBKB BKB20190714175512507/14/19 17:55:31  5-MIN KBKB 142355Z AUTO 00000KT 10SM FEW021 BKN026 OVC080 26/23 A2982 390 81 1800 000/00 RMK AO2 T02610228
53988KBKB BKB20190714180012507/14/19 18:00:31  5-MIN KBKB 150000Z AUTO 00000KT 10SM BKN023 BKN028 OVC070 26/23 A2982 390 81 1800 000/00 RMK AO2 T02610228
53988KBKB BKB20190714180512507/14/19 18:05:31  5-MIN KBKB 150005Z AUTO VRB03KT 10SM SCT021 BKN026 OVC075 26/23 A2982 390 81 1800 VRB/03 RMK AO2 T02610228
53988KBKB BKB20190714181012507/14/19 18:10:31  5-MIN KBKB 150010Z AUTO 00000KT 10SM SCT021 BKN026 OVC050 26/23 A2982 390 81 1800 000/00 RMK AO2 T02610228
53988KBKB BKB20190714181512507/14/19 18:15:31  5-MIN KBKB 150015Z AUTO 00000KT 10SM SCT021 BKN027 OVC050 26/23 A2982 390 84 1700 000/00 RMK AO2 T02560228
53988KBKB BKB20190714182011807/14/19 18:20:31  5-MIN KBKB 150020Z AUTO 00000KT 10SM BKN025 OVC050 26/23 A2982 390 84 1700 000/00 RMK AO2 T02560228
53988KBKB BKB20190714182512507/14/19 18:25:31  5-MIN KBKB 150025Z AUTO VRB03KT 10SM FEW021 BKN025 OVC055 26/23 A2982 390 84 1700 VRB/03 RMK AO2 T02560228
53988KBKB BKB20190714183012507/14/19 18:30:31  5-MIN KBKB 150030Z AUTO VRB03KT 10SM FEW021 SCT026 OVC055 26/23 A2982 390 84 1700 VRB/03 RMK AO2 T02560228
53988KBKB BKB20190714183512507/14/19 18:35:31  5-MIN KBKB 150035Z AUTO 00000KT 10SM FEW021 FEW026 OVC055 26/23 A2982 390 84 1700 000/00 RMK AO2 T02560228
53988KBKB BKB20190714184012507/14/19 18:40:31  5-MIN KBKB 150040Z AUTO 00000KT 10SM FEW021 FEW026 OVC055 26/23 A2982 390 84 1700 000/00 RMK AO2 T02560228
53988KBKB BKB20190714184511807/14/19 18:45:31  5-MIN KBKB 150045Z AUTO VRB04KT 10SM FEW026 OVC055 25/23 A2982 390 87 1700 VRB/04 RMK AO2 T02500228
53988KBKB BKB20190714185012507/14/19 18:50:31  5-MIN KBKB 150050Z AUTO 00000KT 10SM FEW024 OVC055 25/23 A2982 390 87 1700 000/00 RMK AO2 SLP124 T02500228
53988KBKB BKB20190714185511107/14/19 18:55:31  5-MIN KBKB 150055Z AUTO 00000KT 10SM OVC060 25/23 A2982 390 87 1700 000/00 RMK AO2 T02500228
53988KBKB BKB20190714190012507/14/19 19:00:31  5-MIN KBKB 150100Z AUTO VRB03KT 10SM FEW023 BKN050 OVC060 25/23 A2982 390 87 1700 VRB/03 RMK AO2 T02500228
53988KBKB BKB20190714190512507/14/19 19:05:31  5-MIN KBKB 150105Z AUTO 00000KT 10SM FEW023 BKN045 OVC060 26/23 A2983 390 84 1700 000/00 RMK AO2 T02560228
53988KBKB BKB20190714191012507/14/19 19:10:31  5-MIN KBKB 150110Z AUTO 00000KT 10SM FEW023 BKN045 OVC060 26/23 A2983 380 84 1700 000/00 RMK AO2 T02560228
53988KBKB BKB20190714191512507/14/19 19:15:31  5-MIN KBKB 150115Z AUTO 00000KT 10SM SCT025 BKN043 OVC065 25/23 A2983 380 87 1700 000/00 RMK AO2 T02500228
53988KBKB BKB20190714192012507/14/19 19:20:31  5-MIN KBKB 150120Z AUTO 00000KT 10SM SCT025 BKN040 OVC048 24/23 A2983 380 90 1600 000/00 RMK AO2 T02440228
53988KBKB BKB20190714192512507/14/19 19:25:31  5-MIN KBKB 150125Z AUTO 00000KT 10SM BKN025 BKN038 OVC045 25/23 A2983 380 87 1700 000/00 RMK AO2 T02500228
53988KBKB BKB20190714193012507/14/19 19:30:31  5-MIN KBKB 150130Z AUTO 00000KT 10SM FEW022 BKN027 OVC045 25/23 A2983 380 87 1700 000/00 RMK AO2 T02500228
53988KBKB BKB20190714193512507/14/19 19:35:31  5-MIN KBKB 150135Z AUTO 00000KT 10SM BKN027 BKN036 OVC043 26/23 A2983 380 84 1700 000/00 RMK AO2 T02560228
53988KBKB BKB20190714194012507/14/19 19:40:31  5-MIN KBKB 150140Z AUTO 00000KT 10SM SCT023 BKN027 OVC043 26/23 A2983 380 84 1700 000/00 RMK AO2 T02560228
53988KBKB BKB20190714194512507/14/19 19:45:31  5-MIN KBKB 150145Z AUTO 00000KT 10SM BKN022 BKN027 OVC036 25/23 A2983 380 87 1700 000/00 RMK AO2 T02500228
53988KBKB BKB20190714195012707/14/19 19:50:31  5-MIN KBKB 150150Z AUTO 00000KT 10SM BKN022 OVC028 25/23 A2983 380 87 1700 000/00 RMK AO2 SL T02440233 53007
53988KBKB BKB20190714205013807/14/19 20:50:31  5-MIN KBKB 150250Z AUTO VRB03KT 10SM BKN006 BKN011 OVC021 24/23 A2985 360 93 1600 VRB/03 RMK AO2 SLP133 T02440233 53007
53988KBKB BKB20190714205512507/14/19 20:55:31  5-MIN KBKB 150255Z AUTO 00000KT 10SM BKN006 BKN021 OVC030 24/23 A2985 360 93 1600 000/00 RMK AO2 T02440233
53988KBKB BKB20190714210013007/14/19 21:00:31  5-MIN KBKB 150300Z AUTO VRB03KT 10SM BKN006 OVC030 24/23 A2985 360 93 1600 VRB/03 RMK AO2 CIG 005V013 T02440233
53988KBKB BKB20190714210510507/14/19 21:05:31  5-MIN KBKB 150305Z AUTO VRB03KTOVC021 25/23 A2985 370 90 1600 VRB/04 RMK AO2 T02500233
53988KBKB BKB20190714210512307/14/19 21:05:31  5-MIN KBKB 150305Z AUTO VRB03KT 10SM BKN006 24/23 A2985 360 93 1600 VRB/03 RMK AO2 CIG 005V013 T02440233
53988KBKB BKB20190714211011107/14/19 21:10:31  5-MIN KBKB 150310Z AUTO VRB03KT 10SM BKN006 24/23 A2985 360 93 1600 VRB/03 RMK AO2 T02440233
53988KBKB BKB20190714211016607/14/19 21:10:31  5-MIN KBKB 150310Z AUTO VRB03KT 10SM BKN006 24/23 A2985 360 93 1600 VRB/03 RMK AO2 T02440233OVC030 24/23 A2985 360 93 1600 000/00 RMK AO2 T02440233
53988KBKB BKB20190714211511107/14/19 21:15:31  5-MIN KBKB 150315Z AUTO VRB03KT 10SM OVC006 24/23 A2986 360 93 1600 VRB/03 RMK AO2 T02440233
53988KBKB BKB20190714212011107/14/19 21:20:31  5-MIN KBKB 150320Z AUTO VRB04KT 10SM OVC006 24/23 A2985 360 93 1600 VRB/04 RMK AO2 T02440233
53988KBKB BKB20190714212014907/14/19 21:20:31  5-MIN KBKB 150320Z AUTO VRB04KT 10SM OVC006 24/23 A2985 360 93 1600 VRB/04 RMK AO2 T0244023307/14/19 21:25:31  G 005V013 T02440233
53988KBKB BKB20190714212511107/14/19 21:25:31  5-MIN KBKB 150325Z AUTO VRB03KT 10SM OVC006 24/23 A2986 360 93 1600 VRB/03 RMK AO2 T02440233
53988KBKB BKB20190714213011107/14/19 21:30:31  5-MIN KBKB 150330Z AUTO VRB03KT 10SM OVC006 24/23 A2985 360 93 1600 VRB/03 RMK AO2 T02440233
53988KBKB BKB20190714213511107/14/19 21:35:31  5-MIN KBKB 150335Z AUTO 00000KT 10SM OVC006 24/23 A2985 360 97 1500 000/00 RMK AO2 T02390233
53988KBKB BKB20190714214011107/14/19 21:40:31  5-MIN KBKB 150340Z AUTO VRB03KT 10SM OVC005 24/23 A2985 360 93 1600 VRB/03 RMK AO2 T02440233
53988KBKB BKB20190714214511107/14/19 21:45:31  5-MIN KBKB 150345Z AUTO VRB03KT 10SM OVC005 24/23 A2986 360 93 1600 VRB/03 RMK AO2 T02440233
53988KBKB BKB20190714215011807/14/19 21:50:31  5-MIN KBKB 150350Z AUTO VRB03KT 10SM OVC005 24/23 A2986 360 93 1600 VRB/03 RMK AO2 SLP136 T02440233
53988KBKB BKB20190714215511107/14/19 21:55:31  5-MIN KBKB 150355Z AUTO VRB03KT 10SM OVC005 24/23 A2986 360 93 1600 VRB/03 RMK AO2 T02440233
53988KBKB BKB20190714220011107/14/19 22:00:31  5-MIN KBKB 150400Z AUTO 00000KT 10SM OVC005 24/23 A2986 360 93 1600 000/00 RMK AO2 T02440233
53988KBKB BKB20190714220511107/14/19 22:05:31  5-MIN KBKB 150405Z AUTO VRB03KT 10SM OVC005 24/23 A2986 350 97 1500 VRB/03 RMK AO2 T02390233
53988KBKB BKB20190714221011107/14/19 22:10:31  5-MIN KBKB 150410Z AUTO VRB03KT 10SM OVC005 24/23 A2986 350 97 1500 VRB/03 RMK AO2 T02390233
53988KBKB BKB20190714221511107/14/19 22:15:31  5-MIN KBKB 150415Z AUTO VRB03KT 10SM OVC005 24/23 A2986 350 97 1500 VRB/03 RMK AO2 T02390233
53988KBKB BKB20190714222012307/14/19 22:20:31  5-MIN KBKB 150420Z AUTO VRB04KT 10SM OVC005 24/23 A2986 350 97 1500 VRB/04 RMK AO2 CIG 004V009 T02390233
53988KBKB BKB20190714222511107/14/19 22:25:31  5-MIN KBKB 150425Z AUTO VRB03KT 10SM OVC005 24/23 A2986 350 97 1500 VRB/03 RMK AO2 T02390233
53988KBKB BKB20190714223016907/14/19 22:30:31  5-MIN KBKB 150430Z AUTO VRB03KT 10SM OVC005 24/23 A2986 350 97 1500 VRB/03 RMK AO2 T02390233 A SCT080 23/23 A2986 350 97 1400 000/00 RMK AO2 T02330228
53988KBKB BKB20190715002511807/15/19 00:25:31  5-MIN KBKB 150625Z AUTO 00000KT 10SM FEW006 SCT075 23/23 A2986 350 97 1400 000/00 RMK AO2 T02330228
53988KBKB BKB20190715003011807/15/19 00:30:31  5-MIN KBKB 150630Z AUTO 00000KT 10SM FEW006 FEW075 23/23 A2986 350 97 1400 000/00 RMK AO2 T02330228
53988KBKB BKB20190715003512507/15/19 00:35:31  5-MIN KBKB 150635Z AUTO 00000KT 10SM FEW006 FEW044 SCT075 23/23 A2986 350 97 1400 000/00 RMK AO2 T02330228
53988KBKB BKB20190715004011807/15/19 00:40:31  5-MIN KBKB 150640Z AUTO VRB03KT 10SM SCT044 SCT075 23/23 A2986 350 97 1400 VRB/03 RMK AO2 T02330228
53988KBKB BKB20190715004511807/15/19 00:45:31  5-MIN KBKB 150645Z AUTO 00000KT 10SM BKN044 BKN075 23/23 A2986 360 97 1400 000/00 RMK AO2 T02330228
53988KBKB BKB20190715005012507/15/19 00:50:31  5-MIN KBKB 150650Z AUTO 00000KT 10SM BKN044 BKN075 23/23 A2985 360 97 1500 000/00 RMK AO2 SLP134 T02330228
53988KBKB BKB20190715005013507/15/19 00:50:31  5-MIN KBKB 150650Z AUTO 00000KT 10SM BKN044 00KT 10SM FEW006 FEW075 23/23 A2986 350 97 1400 000/00 RMK AO2 T02330228
53988KBKB BKB20190715005511807/15/19 00:55:31  5-MIN KBKB 150655Z AUTO 00000KT 10SM SCT045 SCT075 23/23 A2985 360 97 1500 000/00 RMK AO2 T02330228
53988KBKB BKB20190715010011807/15/19 01:00:31  5-MIN KBKB 150700Z AUTO VRB03KT 10SM SCT045 SCT075 23/22 A2985 360 93 1500 VRB/03 RMK AO2 T02330222
53988KBKB BKB20190715010013507/15/19 01:00:31  5-MIN KBKB 150700Z AUTO VRB03KT 10Z AUTO VRB03KT 10SM SCT044 SCT075 23/23 A2986 350 97 1400 VRB/03 RMK AO2 T02330228
53988KBKB BKB20190715015511107/15/19 01:55:31  5-MIN KBKB 150755Z AUTO VRB03KT 10SM FEW007 23/23 A2985 360 97 1500 VRB/03 RMK AO2 T02330228
53988KBKB BKB20190715020011107/15/19 02:00:31  5-MIN KBKB 150800Z AUTO VRB05KT 10SM SCT007 23/23 A2986 360 97 1400 VRB/05 RMK AO2 T02330228
53988KBKB BKB20190715020511107/15/19 02:05:31  5-MIN KBKB 150805Z AUTO VRB04KT 10SM BKN007 24/23 A2986 360 93 1500 VRB/04 RMK AO2 T02390228
53988KBKB BKB20190715021011807/15/19 02:10:31  5-MIN KBKB 150810Z AUTO VRB04KT 10SM BKN007 BKN036 24/23 A2986 360 93 1500 VRB/04 RMK AO2 T02390228
53988KBKB BKB20190715021511107/15/19 02:15:31  5-MIN KBKB 150815Z AUTO VRB04KT 10SM SCT007 24/23 A2986 360 93 1500 VRB/04 RMK AO2 T02390228
53988KBKB BKB20190715022011107/15/19 02:20:31  5-MIN KBKB 150820Z AUTO 00000KT 10SM SCT007 24/23 A2986 360 93 1500 000/00 RMK AO2 T02390228
53988KBKB BKB20190715022511107/15/19 02:25:31  5-MIN KBKB 150825Z AUTO VRB03KT 10SM SCT007 24/23 A2986 350 93 1500 VRB/03 RMK AO2 T02390228
53988KBKB BKB20190715023011807/15/19 02:30:31  5-MIN KBKB 150830Z AUTO 00000KT 10SM SCT007 SCT036 24/23 A2986 360 93 1500 000/00 RMK AO2 T02390228
53988KBKB BKB20190715023511807/15/19 02:35:31  5-MIN KBKB 150835Z AUTO 00000KT 10SM SCT008 BKN036 24/23 A2986 360 93 1500 000/00 RMK AO2 T02390228
53988KBKB BKB20190715024013007/15/19 02:40:31  5-MIN KBKB 150840Z AUTO VRB03KT 10SM BKN008 BKN036 24/23 A2985 360 93 1500 VRB/03 RMK AO2 CIG 007V011 T02390228
53988KBKB BKB20190715024511807/15/19 02:45:31  5-MIN KBKB 150845Z AUTO VRB04KT 10SM SCT008 BKN035 24/23 A2985 370 93 1500 VRB/04 RMK AO2 T02390228
53988KBKB BKB20190715025013807/15/19 02:50:31  5-MIN KBKB 150850Z AUTO VRB03KT 10SM SCT008 SCT035 SCT075 24/23 A2985 360 93 1500 VRB/03 RMK AO2 SLP133 T02390228 51006
53988KBKB BKB20190715025512507/15/19 02:55:31  5-MIN KBKB 150855Z AUTO VRB03KT 10SM FEW008 SCT035 BKN075 24/23 A2985 360 93 1500 VRB/03 RMK AO2 T02390228
53988KBKB BKB20190715030012507/15/19 03:00:31  5-MIN KBKB 150900Z AUTO VRB03KT 10SM FEW008 FEW035 BKN075 24/23 A2985 360 93 1500 VRB/03 RMK AO2 T02390228
53988KBKB BKB20190715030511807/15/19 03:05:31  5-MIN KBKB 150905Z AUTO VRB03KT 10SM FEW008 BKN075 24/23 A2985 360 93 1500 VRB/03 RMK AO2 T02390228
53988KBKB BKB20190715031011807/15/19 03:10:31  5-MIN KBKB 150910Z AUTO 00000KT 10SM FEW045 BKN075 24/23 A2986 360 93 1500 000/00 RMK AO2 T02390228
53988KBKB BKB20190715031511807/15/19 03:15:31  5-MIN KBKB 150915Z AUTO VRB03KT 10SM SCT045 OVC075 24/23 A2986 350 90 1600 VRB/03 RMK AO2 T02440228
53988KBKB BKB20190715032011807/15/19 03:20:31  5-MIN KBKB 150920Z AUTO 00000KT 10SM SCT045 OVC075 24/23 A2987 350 90 1600 000/00 RMK AO2 T02440228
53988KBKB BKB20190715032511807/15/19 03:25:31  5-MIN KBKB 150925Z AUTO VRB03KT 10SM BKN045 OVC075 24/23 A2987 340 90 1600 VRB/03 RMK AO2 T02440228
53988KBKB BKB20190715033011807/15/19 03:30:31  5-MIN KBKB 150930Z AUTO VRB03KT 10SM BKN045 OVC075 24/23 A2987 340 90 1600 VRB/03 RMK AO2 T02440228
53988KBKB BKB20190715033511807/15/19 03:35:31  5-MIN KBKB 150935Z AUTO VRB03KT 10SM BKN045 OVC075 24/23 A2987 340 90 1600 VRB/03 RMK AO2 T02440228
53988KBKB BKB20190715034011807/15/19 03:40:31  5-MIN KBKB 150940Z AUTO 00000KT 10SM FEW009 OVC045 24/23 A2987 340 93 1600 000/00 RMK AO2 T02440233
53988KBKB BKB20190715034512507/15/19 03:45:31  5-MIN KBKB 150945Z AUTO 00000KT 10SM SCT009 BKN045 OVC075 24/23 A2987 350 90 1600 000/00 RMK AO2 T02440228
53988KBKB BKB20190715035012907/15/19 03:50:31  5-MIN KBKB 150950Z AUTO VRB03KT 10SM SCT009 BKN045 24/ OVC070 24/23 A2987 350 90 1600 VRB/04 RMK AO2 T02440228
53988KBKB BKB20190715041512507/15/19 04:15:31  5-MIN KBKB 151015Z AUTO VRB03KT 10SM BKN008 BKN034 BKN043 24/23 A2987 340 90 1600 VRB/03 RMK AO2 T02440228
53988KBKB BKB20190715042013407/15/19 04:20:31  5-MIN KBKB 151020Z AUTO 00000KT 10SM TS SCT007 BKN034 BKN070 24/23 A2987 340 90 1600 000/00 RMK AO2 TSB20 T02440228
53988KBKB BKB20190715042513407/15/19 04:25:31  5-MIN KBKB 151025Z AUTO VRB04KT 10SM TS SCT007 SCT034 BKN070 24/23 A2987 340 93 1600 VRB/04 RMK AO2 TSB20 T02440233
53988KBKB BKB20190715043013407/15/19 04:30:31  5-MIN KBKB 151030Z AUTO 00000KT 10SM TS FEW007 SCT034 BKN049 24/23 A2988 340 93 1600 000/00 RMK AO2 TSB20 T02440233
53988KBKB BKB20190715043513407/15/19 04:35:31  5-MIN KBKB 151035Z AUTO VRB04KT 10SM TS FEW007 SCT032 BKN049 24/23 A2989 330 93 1500 VRB/04 RMK AO2 TSB20 T02440233
53988KBKB BKB20190715044013407/15/19 04:40:31  5-MIN KBKB 151040Z AUTO VRB03KT 10SM TS FEW007 BKN032 BKN049 24/23 A2988 330 93 1500 VRB/03 RMK AO2 TSB20 T02440233
53988KBKB BKB20190715044513407/15/19 04:45:31  5-MIN KBKB 151045Z AUTO VRB03KT 10SM TS SCT007 BKN032 BKN049 24/23 A2988 330 93 1500 VRB/03 RMK AO2 TSB20 T02440233
53988KBKB BKB20190715045012407/15/19 04:50:31  5-MIN KBKB 151050Z AUTO VRB03KT 10SM SCT007 BKN030 OVC070 24/23 A2988 340 93 1500 VRB/03 RMK AO2 TSB20E48
53988KBKB BKB20190715045512507/15/19 04:55:31  5-MIN KBKB 151055Z AUTO VRB04KT 10SM SCT007 BKN027 OVC095 24/23 A2988 340 93 1600 VRB/04 RMK AO2 T02440233
53988KBKB BKB20190715050012507/15/19 05:00:31  5-MIN KBKB 151100Z AUTO VRB03KT 10SM SCT007 BKN033 OVC095 24/23 A2988 340 93 1500 VRB/03 RMK AO2 T02440233
53988KBKB BKB20190715050512507/15/19 05:05:31  5-MIN KBKB 151105Z AUTO VRB03KT 10SM SCT007 BKN029 OVC085 24/23 A2988 340 93 1600 VRB/03 RMK AO2 T02440233
53988KBKB BKB20190715051012507/15/19 05:10:31  5-MIN KBKB 151110Z AUTO VRB03KT 10SM FEW007 BKN080 OVC095 24/23 A2988 340 93 1600 VRB/03 RMK AO2 T02440233
53988KBKB BKB20190715051512507/15/19 05:15:31  5-MIN KBKB 151115Z AUTO 00000KT 10SM FEW007 BKN075 OVC090 24/23 A2987 340 93 1600 000/00 RMK AO2 T02440233
53988KBKB BKB20190715052011807/15/19 05:20:31  5-MIN KBKB 151120Z AUTO VRB03KT 10SM SCT070 BKN090 24/23 A2987 340 93 1600 VRB/03 RMK AO2 T02440233
53988KBKB BKB20190715052511807/15/19 05:25:31  5-MIN KBKB 151125Z AUTO VRB03KT 10SM SCT070 BKN090 24/23 A2988 340 93 1500 VRB/03 RMK AO2 T02440233
53988KBKB BKB20190715053011807/15/19 05:30:31  5-MIN KBKB 151130Z AUTO VRB03KT 10SM SCT075 BKN090 24/23 A2988 330 93 1500 VRB/03 RMK AO2 T02440233
53988KBKB BKB20190715053511807/15/19 05:35:31  5-MIN KBKB 151135Z AUTO 00000KT 10SM SCT070 SCT095 24/23 A2989 330 93 1500 000/00 RMK AO2 T02440233
53988KBKB BKB20190715054013607/15/19 05:40:31  5-MIN KBKB 151140Z AUTO 00000KT 10SM SCT070 24/23 A29M SCT007 BKN080 25/23 A2993 290 90 1600 000/00 RMK AO2 T02500233
53988KBKB BKB20190715072511807/15/19 07:25:31  5-MIN KBKB 151325Z AUTO 00000KT 10SM SCT007 BKN080 25/23 A2994 280 90 1500 000/00 RMK AO2 T02500233
53988KBKB BKB20190715073011807/15/19 07:30:31  5-MIN KBKB 151330Z AUTO 18003KT 10SM SCT007 BKN080 25/23 A2994 280 90 1500 170/03 RMK AO2 T02500233
53988KBKB BKB20190715073511807/15/19 07:35:31  5-MIN KBKB 151335Z AUTO 00000KT 10SM SCT007 BKN080 25/23 A2994 280 90 1500 000/00 RMK AO2 T02500233
53988KBKB BKB20190715074012507/15/19 07:40:31  5-MIN KBKB 151340Z AUTO 00000KT 10SM SCT007 SCT070 BKN085 25/23 A2994 280 90 1500 000/00 RMK AO2 T02500233
53988KBKB BKB20190715074512507/15/19 07:45:31  5-MIN KBKB 151345Z AUTO 00000KT 10SM SCT007 BKN070 BKN085 26/23 A2994 280 87 1600 000/00 RMK AO2 T02560233
53988KBKB BKB20190715075020307/15/19 07:50:31  5-MIN KBKB 151350Z AUTO 00000KT 10SM SCT007 BKN060 BKN075 26/23 A2994 280 87 1600 0BKB 151510Z AUTO VRB05KT 10SM -RA OVC006 24/23 A2997 250 93 1400 VRB/05 RMK AO2 RAB08 P0000 T02440233
53988KBKB BKB20190715091512707/15/19 09:15:31  5-MIN KBKB 151515Z AUTO VRB04KT 10SM -RA OVC006 24/23 A2997 250 93 1400 VRB/04 RMK AO2 RAB08 P0000 T02440233
53988KBKB BKB20190715092012707/15/19 09:20:31  5-MIN KBKB 151520Z AUTO VRB03KT 10SM -RA OVC006 24/23 A2997 250 93 1400 VRB/03 RMK AO2 RAB08 P0000 T02440233
53988KBKB BKB20190715093513807/15/19 09:35:31  5-MIN KBKB 151535Z AUTO VRB04KT 10SM OVC006 24/23 A2997 250 93 1400 VRB/04 RMK AO2 RAB08E23 CIG 005V009 P0000 T02440233
53988KBKB BKB20190715094012607/15/19 09:40:31  5-MIN KBKB 151540Z AUTO VRB04KT 10SM OVC006 24/23 A2998 250 93 1400 VRB/04 RMK AO2 RAB08E23 P0000 T02440233
53988KBKB BKB20190715094519207/15/19 09:45:31  5-MIN KBKB 151545Z AUTO VRB03KT 10SM OVC006 24/23 A2998 240 90 1400 VRB/03 RMK AO2 RAB08SM -RA BKN007 OVC036 24/23 A2998 250 93 1400 M /M RMK AO2 CIG 005V015 P0000 T02440233
53988KBKB BKB20190715101014207/15/19 10:10:31  5-MIN KBKB 151610Z AUTO VRB03KT 10SM BKN007 OVC034 24/23 A2998 240 93 1400 VRB/03 RMK AO2 RAE06 CIG 005V010 P0000 T02440233
53988KBKB BKB20190715101524607/15/19 10:15:31  5-MIN KBKB 151615Z AUTO 10SM -RA BKN007 BKN010 OVC034 24/23 A2998 240 97 1400 M /M RMK AO2 CIG 005V008 P0000 T0239023307/15/19 1 VRB06KT 1/2SM +TSRA FG FEW006 BKN011 OVC017 23/23 A2998 240 97 1300 VRB/06 RMK AO2 P0031 T02330228
53988KBKB BKB20190715105015707/15/19 10:50:31  5-MIN KBKB 151650Z AUTO VRB06KT 1/4SM VCTS +RA FG FEW006 BKN010 OVC025 23/23 A2998 240 97 1300 VRB/06 RMK AO2 TSE49 SLP178 P0046 T02330228
53988KBKB BKB20190715105514007/15/19 10:55:31  5-MIN KBKB 151655Z AUTO VRB03KT 1/2SM +TSRA FG FEW006 OVC010 23/23 A2998 240 97 1300 VRB/03 RMK AO2 TSB55 P0001 T02330228
53988KBKB BKB20190715110015107/15/19 11:00:31  5-MIN KBKB 151700Z AUTO VRB04KT 1 1/4SM -TSRA BR BKN008 BKN023 OVC029 23/23 A2998 240 97 1300 VRB/04 RMK AO2 TSB1655 P0002 T02330228
53988KBKB BKB20190715110515007/15/19 11:05:31  5-MIN KBKB 151705Z AUTO VRB03KT 5SM -TSRA BR BKN008 BKN013 OVC029 23/23 A2998 250 97 1300 VRB/03 RMK AO2 TSB1655B02 P0002 T02330228
53988KBKB BKB20190715111014807/15/19 11:10:31  5-MIN KBKB 151710Z AUTO 00000KT 10SM -TSRA BKN008 BKN013 OVC040 23/23 A2998 240 97 1300 000/00 RMK AO2 TSB1655B02 P0002 T02330228
53988KBKB BKB20190715111514707/15/19 11:15:31  5-MIN KBKB 151715Z AUTO 00000KT 9SM -TSRA FEW006 BKN013 OVC042 23/23 A2998 240 97 1300 000/00 RMK AO2 TSB1655B02 P0002 T02330228
53988KBKB BKB20190715112015107/15/19 11:20:31  5-MIN KBKB 151720Z AUTO 00000KT 4SM -RA BR SCT006 BKN013 OVC031 23/23 A2998 240 97 1300 000/00 RMK AO2 TSB1655B02E17 P0004 T02330228
53988KBKB BKB20190715112516007/15/19 11:25:31  5-MIN KBKB 151725Z AUTO 00000KT 2SM RA BR SCT008 BKN013 OVC032 24/23 A2999 240 93 1400 000/00 RMK AO2 VIS 3/4V5 TSB1655B02E17 P0005 T02390228
53988KBKB BKB20190715113015307/15/19 11:30:31  5-MIN KBKB 151730Z AUTO 00000KT 1/2SM +RA FG SCT008 BKN012 OVC020 24/23 A2999 240 93 1400 000/00 RMK AO2 TSB1655B02E17 P0021 T02390228
53988KBKB BKB20190715113515207/15/19 11:35:31  5-MIN KBKB 151735Z AUTO 00000KT 1/4SM +TSRA FG SCT008 OVC012 23/23 A2999 240 100 1300 000/00 RMK AO2 TSB1655B02E17B33 P0041 T02330233
53988KBKB BKB20190715114015107/15/19 11:40:31  5-MIN KBKB 151740Z AUTO 00000KT 1/4SM +TSRA FG SCT008 OVC014 23/23 A2998 240 97 1300 000/00 RMK AO2 TSB1655B02E17B33 P0050 T02330228
53988KBKB BKB20190715114515207/15/19 11:45:31  5-MIN KBKB 151745Z AUTO 00000KT 3/4SM TSRA BR FEW009 SCT013 OVC018 24/23 A2998 240 93 1400 000/00 RMK AO2 VIS 1 1/4V3 P0000 T02390228
53988KBKB BKB20190715114515707/15/19 11:45:31  5-MIN KBKB 151745Z AUTO 00000KT 3/4SM TSRA BR FEW009 BKN016 OVC022 23/23 A2999 240 97 1300 000/00 RMK AO2 TSB1655B02E17B33 P0052 T02330228
53988KBKB BKB20190715115019107/15/19 11:50:31  5-MIN KBKB 151750Z AUTO 00000KT 1 1/4SM RA BR FEW009 BKN013 OVC018 23/23 A2999 240 97 1300 000/00 RMK AO2 TSB1655B02E17B33E49 SLP180 P0053 60104 T02330228 10256 20233 51021
53988KBKB BKB20190715115515207/15/19 11:55:31  5-MIN KBKB 151755Z AUTO 00000KT 2 1/2SM RA BR FEW009 SCT013 OVC018 24/23 A2998 240 93 1400 000/00 RMK AO2 VIS 1 1/4V3 P0000 T02390228
53988KBKB BKB20190715120013607/15/19 12:00:31  5-MIN KBKB 151800Z AUTO 00000KT 3SM RA BR FEW011 BKN018 OVC023 24/23 A2998 240 97 1400 000/00 RMK AO2 P0001 T02390233
53988KBKB BKB20190715120513707/15/19 12:05:31  5-MIN KBKB 151805Z AUTO 14003KT 4SM -RA BR FEW013 BKN019 OVC031 24/23 A2998 240 97 1400 140/03 RMK AO2 P0001 T02390233
53988KBKB BKB20190715121013707/15/19 12:10:31  5-MIN KBKB 151810Z AUTO 00000KT 5SM -RA BR BKN017 BKN045 OVC100 24/23 A2998 240 97 1400 000/00 RMK AO2 P0002 T02390233
53988KBKB BKB20190715121513707/15/19 12:15:31  5-MIN KBKB 151815Z AUTO 00000KT 4SM -RA BR BKN017 BKN041 OVC100 24/23 A2998 240 97 1400 000/00 RMK AO2 P0002 T02390233
53988KBKB BKB20190715122013707/15/19 12:20:31  5-MIN KBKB 151820Z AUTO 00000KT 5SM -RA BR SCT017 BKN041 OVC065 24/23 A2998 240 97 1400 000/00 RMK AO2 P0003 T02390233
53988KBKB BKB20190715122513407/15/19 12:25:31  5-MIN KBKB 151825Z AUTO 19003KT 9SM -RA FEW002 BKN043 OVC100 24/23 A2998 240 93 1400 180/03 RMK AO2 P0003 T02440233
53988KBKB BKB20190715123013707/15/19 12:30:31  5-MIN KBKB 151830Z AUTO 20003KT 6SM -RA BR FEW002 BKN047 OVC100 24/24 A2998 240 97 1400 200/03 RMK AO2 P0003 T02440239
53988KBKB BKB20190715123513607/15/19 12:35:31  5-MIN KBKB 151835Z AUTO VRB03KT 4SM RA BR FEW002 BKN047 OVC065 24/23 A2998 240 93 1400 VRB/03 RMK AO2 P0004 T02440233
53988KBKB BKB20190715124013707/15/19 12:40:31  5-MIN KBKB 151840Z AUTO 00000KT 5SM -RA BR FEW004 BKN049 OVC100 24/23 A2998 250 93 1400 000/00 RMK AO2 P0004 T02440233
53988KBKB BKB20190715124513407/15/19 12:45:31  5-MIN KBKB 151845Z AUTO 00000KT 9SM -RA FEW004 BKN049 OVC100 24/23 A2997 250 93 1400 000/00 RMK AO2 P0004 T02440233
53988KBKB BKB20190715125014907/15/19 12:50:31  5-MIN KBKB 151850Z AUTO 14003KT 10SM -RA FEW004 BKN049 OVC110 24/24 A2996 260 97 1500 140/03 RMK AO2 PRESFR SLP171 P0004 T02440239
53988KBKB BKB20190715125513407/15/19 12:55:31  5-MIN KBKB 151855Z AUTO 00000KT 9SM -RA FEW016 BKN049 OVC110 25/24 A2996 260 93 1500 000/00 RMK AO2 P0000 T02500239
53988KBKB BKB20190715130013407/15/19 13:00:31  5-MIN KBKB 151900Z AUTO VRB03KT 9SM -RA FEW005 BKN047 OVC100 25/24 A2996 270 93 1500 VRB/03 RMK AO2 P0000 T02500239
53988KBKB BKB20190715130513507/15/19 13:05:31  5-MIN KBKB 151905Z AUTO 00000KT 10SM -RA SCT005 BKN045 OVC100 25/24 A2996 270 97 1500 000/00 RMK AO2 P0000 T02500244
53988KBKB BKB20190715131013507/15/19 13:10:31  5-MIN KBKB 151910Z AUTO VRB03KT 10SM -RA SCT005 BKN048 OVC080 25/24 A2995 270 93 1500 VRB/03 RMK AO2 P0000 T02500239
53988KBKB BKB20190715131513507/15/19 13:15:31  5-MIN KBKB 151915Z AUTO 00000KT 10SM -RA SCT005 BKN044 OVC110 25/24 A2996 260 93 1500 000/00 RMK AO2 P0001 T02500239
53988KBKB BKB20190715132013507/15/19 13:20:31  5-MIN KBKB 151920Z AUTO 00000KT 10SM -RA SCT005 BKN049 OVC110 24/24 A2996 270 97 1500 000/00 RMK AO2 P0001 T02440239
53988KBKB BKB20190715132513707/15/19 13:25:31  5-MIN KBKB 151925Z AUTO 00000KT 10SM SCT004 BKN038 BKN049 25/24 A2995 270 97 1500 000/00 RMK AO2 RAE21 P0001 T02500244
53988KBKB BKB20190715133013707/15/19 13:30:31  5-MIN KBKB 151930Z AUTO 00000KT 10SM SCT004 BKN043 BKN049 25/24 A2995 270 93 1500 000/00 RMK AO2 RAE21 P0001 T02500239
53988KBKB BKB20190715133019407/15/19 13:30:31  5-MIN KBKB 151930Z AUTO 00000KT 10SM SCT004 BKN043 BKN049 25/24 A2995 270 93 1500 000/00 RMK AOCT037 BKN048 26/24 A2995 270 93 1600 000/00 RMK AO2 RAE21 SLP169 P0001 T02560244
53988KBKB BKB20190715133513707/15/19 13:35:31  5-MIN KBKB 151935Z AUTO 00000KT 10SM SCT004 SCT040 BKN048 25/24 A2995 270 97 1500 000/00 RMK AO2 RAE21 P0001 T02500244
53988KBKB BKB20190715134013707/15/19 13:40:31  5-MIN KBKB 151940Z AUTO 00000KT 10SM FEW004 SCT039 BKN048 25/24 A2995 270 97 1500 000/00 RMK AO2 RAE21 P0001 T02500244
53988KBKB BKB20190715134513707/15/19 13:45:31  5-MIN KBKB 151945Z AUTO 00000KT 10SM FEW004 SCT039 BKN048 26/24 A2995 270 93 1600 000/00 RMK AO2 RAE21 P0001 T02560244
53988KBKB BKB20190715135014407/15/19 13:50:31  5-MIN KBKB 151950Z AUTO 00000KT 10SM FEW004 SCT037 BKN048 26/24 A2995 270 93 1600 000/00 RMK AO2 RAE21 SLP169 P0001 T02560244
53988KBKB BKB20190715135512507/15/19 13:55:31  5-MIN KBKB 151955Z AUTO VRB03KT 10SM FEW004 SCT037 SCT048 26/24 A2995 270 93 1600 VRB/03 RMK AO2 T02560244
53988KBKB BKB20190715140012507/15/19 14:00:31  5-MIN KBKB 152000Z AUTO 00000KT 10SM FEW021 FEW038 SCT048 26/24 A2995 270 93 1600 000/00 RMK AO2 T02560244
53988KBKB BKB20190715140511807/15/19 14:05:31  5-MIN KBKB 152005Z AUTO VRB03KT 10SM FEW021 FEW038 26/24 A2995 270 93 1600 VRB/03 RMK AO2 T02560244
53988KBKB BKB20190715141010807/15/19 14:10:31  5-MIN KBKB 152010Z AUTO VRB03KT 10SM CLR 26/25 A2995 270 93 1700 VRB/03 RMK AO2 T02610250
53988KBKB BKB20190715141511107/15/19 14:15:31  5-MIN KBKB 152015Z AUTO VRB04KT 10SM FEW028 27/24 A2995 270 87 1700 VRB/04 RMK AO2 T02670244
53988KBKB BKB20190715142011107/15/19 14:20:31  5-MIN KBKB 152020Z AUTO 00000KT 10SM FEW028 27/24 A2994 280 84 1800 000/00 RMK AO2 T02720244
53988KBKB BKB20190715142511807/15/19 14:25:31  5-MIN KBKB 152025Z AUTO 00000KT 10SM FEW013 FEW028 28/25 A2994 280 82 1900 000/00 RMK AO2 T02830250
53988KBKB BKB20190715143011807/15/19 14:30:31  5-MIN KBKB 152030Z AUTO VRB03KT 10SM FEW013 SCT028 28/25 A2994 280 82 1900 VRB/03 RMK AO2 T02830250
53988KBKB BKB20190715143512507/15/19 14:35:31  5-MIN KBKB 152035Z AUTO 00000KT 10SM SCT013 SCT019 SCT027 28/25 A2994 280 82 1900 000/00 RMK AO2 T02830250
53988KBKB BKB20190715144012507/15/19 14:40:31  5-MIN KBKB 152040Z AUTO 00000KT 10SM SCT013 SCT019 BKN027 28/25 A2994 280 82 1900 000/00 RMK AO2 T02830250
53988KBKB BKB20190715144512507/15/19 14:45:31  5-MIN KBKB 152045Z AUTO 00000KT 10SM SCT013 BKN019 BKN043 28/25 A2994 280 82 1900 000/00 RMK AO2 T02830250
53988KBKB BKB20190715145011507/15/19 14:50:31  5-MIN KBKB 152050Z AUTO VRB03KT 10SM BKN013 BKN021 BKN043 28/25 A2993 290 82 1900 VRB/03 RMK AO2
53988KBKB BKB20190715145512507/15/19 14:55:31  5-MIN KBKB 152055Z AUTO 00000KT 10SM BKN013 BKN023 OVC041 28/25 A2993 290 82 1900 000/00 RMK AO2 T02830250
53988KBKB BKB20190715150012507/15/19 15:00:31  5-MIN KBKB 152100Z AUTO 00000KT 10SM BKN015 BKN023 BKN041 28/25 A2992 290 82 1900 000/00 RMK AO2 T02830250
53988KBKB BKB20190715150512507/15/19 15:05:31  5-MIN KBKB 152105Z AUTO 00000KT 10SM SCT015 BKN019 BKN024 28/25 A2992 290 82 1900 000/00 RMK AO2 T02830250
53988KBKB BKB20190715151011807/15/19 15:10:31  5-MIN KBKB 152110Z AUTO 00000KT 10SM BKN017 BKN024 28/24 A2992 300 79 1900 000/00 RMK AO2 T02830244
53988KBKB BKB20190715151511807/15/19 15:15:31  5-MIN KBKB 152115Z AUTO VRB04KT 10SM SCT015 OVC022 28/24 A2993 290 82 1900 VRB/04 RMK AO2 T02780244
53988KBKB BKB20190715152011807/15/19 15:20:31  5-MIN KBKB 152120Z AUTO 00000KT 10SM BKN018 OVC024 28/25 A2993 290 82 1900 000/00 RMK AO2 T02830250
53988KBKB BKB20190715152511807/15/19 15:25:31  5-MIN KBKB 152125Z AUTO 00000KT 10SM BKN018 OVC024 28/25 A2993 290 84 1900 000/00 RMK AO2 T02780250
53988KBKB BKB20190715153012507/15/19 15:30:31  5-MIN KBKB 152130Z AUTO 00000KT 10SM BKN018 BKN027 OVC055 28/25 A2993 290 84 1900 000/00 RMK AO2 T02780250
53988KBKB BKB20190715153512507/15/19 15:35:31  5-MIN KBKB 152135Z AUTO 00000KT 10SM FEW017 BKN023 BKN060 27/25 A2992 290 87 1800 000/00 RMK AO2 T02720250
53988KBKB BKB20190715154011807/15/19 15:40:31  5-MIN KBKB 152140Z AUTO 00000KT 10SM SCT020 BKN060 28/25 A2992 290 84 1900 000/00 RMK AO2 T02780250
53988KBKB BKB20190715154512807/15/19 15:45:31  5-MIN KBKB 152145Z AUTO 00000KT 10SM TS SCT020 BKN034 OVC060 28/25 A2993 290 84 1900 000/00 RMK AO2 T02780250
53988KBKB BKB20190715155012607/15/19 15:50:31  5-MIN KBKB 152150Z AUTO VRB03KT 10SM VCTS FEW015 BKN032 OVC060 28/25 A2993 290 84 1900 VRB/03 RMK AO2 TSE50
53988KBKB BKB20190715155512807/15/19 15:55:31  5-MIN KBKB 152155Z AUTO VRB05KT 10SM TS SCT017 BKN030 OVC060 27/24 A2994 280 84 1800 VRB/05 RMK AO2 T02720244
53988KBKB BKB20190715160013607/15/19 16:00:31  5-MIN KBKB 152200Z AUTO VRB05KT 10SM TS FEW017 BKN032 OVC060 26/23 A2994 280 84 1700 VRB/05 RMK AO2 TSB2158 T02610233
53988KBKB BKB20190715160515107/15/19 16:05:31  5-MIN KBKB 152205Z AUTO VRB05KT 10SM -TSRA FEW017 BKN028 OVC060 26/23 A2994 280 84 1700 VRB/05 RMK AO2 RAB04 TSB2158 P0000 T02610233
53988KBKB BKB20190715161015107/15/19 16:10:31  5-MIN KBKB 152210Z AUTO VRB05KT 10SM -TSRA FEW014 SCT019 OVC028 26/23 A2994 280 87 1600 VRB/05 RMK AO2 RAB04 TSB2158 P0000 T02560233
53988KBKB BKB20190715161515107/15/19 16:15:31  5-MIN KBKB 152215Z AUTO VRB03KT 10SM -TSRA SCT014 BKN026 OVC048 25/23 A2994 280 90 1500 VRB/03 RMK AO2 RAB04 TSB2158 P0000 T02500233
53988KBKB BKB20190715162017507/15/19 16:20:31  5-MIN KBKB 152220Z AUTO VRB03KT 10SM -TSRA FEW012 SCT021 BKN030 25/23 A2994 280 87 1500 VRB/03 RMK AO2 RAB04 TSB2158 P0000  93 1400 000/00 RMK AO2 T02390228
53988KBKB BKB20190715212010807/15/19 21:20:31  5-MIN KBKB 160320Z AUTO 00000KT 10SM CLR 24/23 A2995 270 93 1400 000/00 RMK AO2 T02390228
53988KBKB BKB20190715212510707/15/19 21:25:31  5-MIN KBKB 160325Z AUTO 00000KT 9SM CLR 24/23 A2995 270 93 1400 000/00 RMK AO2 T02390228
53988KBKB BKB20190715213010707/15/19 21:30:31  5-MIN KBKB 160330Z AUTO 00000KT 9SM CLR 24/23 A2996 270 93 1400 000/00 RMK AO2 T02390228
53988KBKB BKB20190715213510807/15/19 21:35:31  5-MIN KBKB 160335Z AUTO 00000KT 10SM CLR 24/23 A2996 260 97 1400 000/00 RMK AO2 T02390233
53988KBKB BKB20190715214006407/15/19 21:40:31  5-MIN KBKB 160340Z AUTO /00 RMK AO2 T02390228
53988KBKB BKB20190715214010807/15/19 21:40:31  5-MIN KBKB 160340Z AUTO 00000KT 10SM CLR 24/23 A2996 270 97 1400 000/00 RMK AO2 T02390233
53988KBKB BKB20190715214510807/15/19 21:45:31  5-MIN KBKB 160345Z AUTO VRB03KT 10SM CLR 24/23 A2996 260 97 1400 VRB/03 RMK AO2 T02390233
53988KBKB BKB20190715215006307/15/19 21:50:31  5-MIN KBKB 160350Z AUTO 0000MK AO2 T02390228
53988KBKB BKB20190715215011507/15/19 21:50:31  5-MIN KBKB 160350Z AUTO 00000KT 10SM CLR 24/23 A2996 260 97 1400 000/00 RMK AO2 SLP171 T02390233
53988KBKB BKB20190715215510807/15/19 21:55:31  5-MIN KBKB 160355Z AUTO VRB03KT 10SM CLR 24/23 A2996 260 97 1400 VRB/03 RMK AO2 T02390233
53988KBKB BKB20190715220005507/15/19 22:00:31  5-MIN KBKB 160400Z AUTO 00000KT 1233
53988KBKB BKB20190715220010807/15/19 22:00:31  5-MIN KBKB 160400Z AUTO 00000KT 10SM CLR 24/23 A2996 260 97 1400 000/00 RMK AO2 T02390233
53988KBKB BKB20190715220514407/15/19 22:05:31  5-MIN KBKB 160405Z AUTO VRB03KT 10SM CLR 24/23 A2996 260 93 1500 VRB/03 RMK AO2 T02440233250 97 1500 VRB/03 RMK AO2 T02500244
53988KBKB BKB20190715230011007/15/19 23:00:31  5-MIN KBKB 160500Z AUTO VRB03KT 8SM OVC004 25/24 A2997 250 97 1500 VRB/03 RMK AO2 T02500244
53988KBKB BKB20190715234511307/15/19 23:45:31  5-MIN KBKB 160545Z AUTO 00000KT 6SM BR OVC003 26/24 A2998 250 93 1600 000/00 RMK AO2 T02560244
53988KBKB BKB20190715235014807/15/19 23:50:31  5-MIN KBKB 160550Z AUTO 00000KT 6SM BR OVC003 26/24 A2998 250 93 1600 000/00 RMK AO2 SLP176 T02560244 10256 20233 402890233 53004
53988KBKB BKB20190715235511307/15/19 23:55:31  5-MIN KBKB 160555Z AUTO 00000KT 6SM BR OVC003 26/25 A2998 250 97 1600 000/00 RMK AO2 T02560250
53988KBKB BKB20190716000011307/16/19 00:00:31  5-MIN KBKB 160600Z AUTO 21003KT 6SM BR OVC003 26/25 A2998 250 97 1600 200/03 RMK AO2 T02560250
53988KBKB BKB20190716000511007/16/19 00:05:31  5-MIN KBKB 160605Z AUTO VRB04KT 8SM OVC003 26/25 A2998 250 97 1600 VRB/04 RMK AO2 T02560250
53988KBKB BKB20190716001011007/16/19 00:10:31  5-MIN KBKB 160610Z AUTO 00000KT 9SM OVC003 26/25 A2998 240 97 1600 000/00 RMK AO2 T02560250
53988KBKB BKB20190716001511007/16/19 00:15:31  5-MIN KBKB 160615Z AUTO VRB03KT 9SM OVC003 26/25 A2998 250 97 1600 VRB/03 RMK AO2 T02560250
53988KBKB BKB20190716002012207/16/19 00:20:31  5-MIN KBKB 160620Z AUTO VRB05KT 9SM OVC003 26/25 A2997 250 97 1600 VRB/05 RMK AO2 CIG 002V007 T02560250
53988KBKB BKB20190716002512307/16/19 00:25:31  5-MIN KBKB 160625Z AUTO VRB04KT 10SM OVC003 26/25 A2997 250 97 1600 VRB/04 RMK AO2 CIG 002V007 T02560250
53988KBKB BKB20190716003012307/16/19 00:30:31  5-MIN KBKB 160630Z AUTO 00000KT 10SM OVC004 26/25 A2997 250 97 1600 000/00 RMK AO2 CIG 003V007 T02560250
53988KBKB BKB20190716003512307/16/19 00:35:31  5-MIN KBKB 160635Z AUTO VRB03KT 10SM OVC004 26/25 A2997 250 97 1600 VRB/03 RMK AO2 CIG 003V007 T02560250
53988KBKB BKB20190716004012307/16/19 00:40:31  5-MIN KBKB 160640Z AUTO VRB04KT 10SM OVC006 26/25 A2997 250 97 1600 VRB/04 RMK AO2 CIG 004V009 T02560250
53988KBKB BKB20190716004512307/16/19 00:45:31  5-MIN KBKB 160645Z AUTO VRB03KT 10SM OVC006 26/25 A2997 250 97 1600 VRB/03 RMK AO2 CIG 004V009 T02560250
53988KBKB BKB20190716005017907/16/19 00:50:31  5-MIN KBKB 160650Z AUTO VRB04KT 10SM BKN006 OVC013 26/25 A27 OVC014 26/25 A2997 250 97 1697 250 97 1600 VRB/03 RMK AO2 C/00 RMK AO2 CIG 005V011 SLP174 T02560250
53988KBKB BKB20190716015512307/16/19 01:55:31  5-MIN KBKB 160755Z AUTO 00000KT 10SM OVC008 26/25 A2997 250 97 1600 000/00 RMK AO2 CIG 005V011 T02560250
53988KBKB BKB20190716020012307/16/19 02:00:31  5-MIN KBKB 160800Z AUTO 00000KT 10SM OVC008 26/25 A2997 250 97 1600 000/00 RMK AO2 CIG 005V011 T02560250
53988KBKB BKB20190716020512207/16/19 02:05:31  5-MIN KBKB 160805Z AUTO VRB03KT 9SM OVC008 26/25 A2997 250 97 1600 VRB/03 RMK AO2 CIG 005V011 T02560250
53988KBKB BKB20190716021012207/16/19 02:10:31  5-MIN KBKB 160810Z AUTO VRB04KT 9SM OVC008 26/25 A2997 250 97 1600 VRB/04 RMK AO2 CIG 005V011 T02560250
53988KBKB BKB20190716021512907/16/19 02:15:31  5-MIN KBKB 160815Z AUTO VRB03KT 9SM BKN008 OVC022 26/25 A2997 250 97 1600 VRB/03 RMK AO2 CIG 005V011 T02560250
53988KBKB BKB20190716022012907/16/19 02:20:31  5-MIN KBKB 160820Z AUTO 00000KT 9SM BKN008 OVC013 26/25 A2997 250 97 1600 000/00 RMK AO2 CIG 005V010 T02560250
53988KBKB BKB20190716022511907/16/19 02:25:31  5-MIN KBKB 160825Z AUTO 9SM BKN008 OVC015 26/25 A2997 250 97 1600 M /M RMK AO2 CIG 006V012 T02560250
53988KBKB BKB20190716023012307/16/19 02:30:31  5-MIN KBKB 160830Z AUTO VRB03KT 10SM OVC008 26/25 A2998 250 97 1600 VRB/03 RMK AO2 CIG 006V013 T02560250
53988KBKB BKB20190716023513007/16/19 02:35:31  5-MIN KBKB 160835Z AUTO 00000KT 10SM BKN008 OVC015 26/25 A2998 240 97 1600 000/00 RMK AO2 CIG 005V012 T02560250
53988KBKB BKB20190716024013607/16/19 02:40:31  5-MIN KBKB 160840Z AUTO 00000KT 9SM BKN009 BKN013 OVC020 26/25 A2998 240 97 1600 000/00 RMK AO2 CIG 005V011 T02560250
53988KBKB BKB20190716024512907/16/19 02:45:31  5-MIN KBKB 160845Z AUTO 00000KT 9SM BKN007 OVC011 26/25 A2998 240 97 1600 000/00 RMK AO2 CIG 005V010 T02560250
53988KBKB BKB20190716025013507/16/19 02:50:31  5-MIN KBKB 160850Z AUTO VRB03KT 9SM OVC009 26/25 A2998 240 97 1600 VRB/03 RMK AO2 CIG 005V012 SLP177 T02560250 51008
53988KBKB BKB20190716025512207/16/19 02:55:31  5-MIN KBKB 160855Z AUTO VRB03KT 9SM OVC007 26/25 A2998 240 97 1600 VRB/03 RMK AO2 CIG 005V011 T02560250
53988KBKB BKB20190716030012207/16/19 03:00:31  5-MIN KBKB 160900Z AUTO 00000KT 8SM OVC009 26/25 A2998 240 97 1600 000/00 RMK AO2 CIG 005V014 T02560250
53988KBKB BKB20190716030512207/16/19 03:05:31  5-MIN KBKB 160905Z AUTO 00000KT 8SM OVC009 26/25 A2998 240 97 1600 000/00 RMK AO2 CIG 005V013 T02560250
53988KBKB BKB20190716031012907/16/19 03:10:31  5-MIN KBKB 160910Z AUTO VRB03KT 9SM BKN009 OVC015 26/25 A2998 240 97 1600 VRB/03 RMK AO2 CIG 005V011 T02560250
53988KBKB BKB20190716031512907/16/19 03:15:31  5-MIN KBKB 160915Z AUTO 00000KT 9SM BKN009 OVC012 26/25 A2998 240 97 1600 000/00 RMK AO2 CIG 005V009 T02560250
53988KBKB BKB20190716032015107/16/19 03:20:31  5-MIN KBKB 160920Z AUTO VRB03KT 8SM BKN009 OVC015 26/25 A2998 240 97 1600 VRB/03 RMK AO2 CIG 005V013 T0256025007IG 005V012 T02560250
53988KBKB BKB20190716033512407/16/19 03:35:31  5-MIN KBKB 160935Z AUTO VRB05KT 9SM FEW007 BKN012 BKN021 26/25 A2999 240 97 1600 VRB/05 RMK AO2 T02560250
53988KBKB BKB20190716034012407/16/19 03:40:31  5-MIN KBKB 160940Z AUTO VRB03KT 9SM FEW008 BKN011 BKN016 26/25 A2999 240 97 1600 VRB/03 RMK AO2 T02560250
53988KBKB BKB20190716034517907/16/19 03:45:31  5-MIN KBKB 160945Z AUTO 00000KT 9SM FEW008 BKN013 BKN021 26/25 A2999 240 97 1600 000/00 RMKM OVC006 27/26 A3002 210 93 1600 VRB/05 RMK AO2 CIG 004V008 T02670256
53988KBKB BKB20190716065012407/16/19 06:50:31  5-MIN KBKB 161250Z AUTO 00000KT 9SM BKN006 OVC011 26/26 A3002 200 97 1600 000/00 RMK AO2 SLP192 T02610256
53988KBKB BKB20190716065512907/16/19 06:55:31  5-MIN KBKB 161255Z AUTO VRB04KT 9SM BKN006 OVC015 27/26 A3002 200 93 1600 VRB/04 RMK AO2 CIG 005V011 T02670256
53988KBKB BKB20190716070013007/16/19 07:00:31  5-MIN KBKB 161300Z AUTO VRB04KT 10SM BKN008 OVC015 27/26 A3003 200 93 1600 VRB/04 RMK AO2 CIG 005V011 T02670256
53988KBKB BKB20190716070513007/16/19 07:05:31  5-MIN KBKB 161305Z AUTO VRB03KT 10SM BKN008 BKN015 27/26 A3003 200 93 1600 VRB/03 RMK AO2 CIG 005V011 T02670256
53988KBKB BKB20190716071013007/16/19 07:10:31  5-MIN KBKB 161310Z AUTO 00000KT 10SM BKN008 BKN015 27/26 A3003 200 93 1600 000/00 RMK AO2 CIG 005V011 T02670256
53988KBKB BKB20190716071507807/16/19 07:15:31  5-MIN KBKB 161315Z AUTO VRB05KT 10SM BKN006 P0000 T02940261
53988KBKB BKB20190716084512807/16/19 08:45:31  5-MIN KBKB 161445Z AUTO VRB04KT 10SM BKN015 29/26 A3004 190 82 1900 VRB/04 RMK AO2 RAB1356E06 P0000 T02890256
53988KBKB BKB20190716085014707/16/19 08:50:31  5-MIN KBKB 161450Z AUTO VRB03KT 10SM SCT015 29/26 A3003 190 82 1900 VRB/03 RMK AO2 RAB1356E06 SLP195 P0000 60000 T02940261 50010
53988KBKB BKB20190716085511807/16/19 08:55:31  5-MIN KBKB 161455Z AUTO VRB04KT 10SM SCT016 29/26 A3004  A3003 200 77 2100 VRB/04 RMK AO2 T03060261
53988KBKB BKB20190716091511807/16/19 09:15:31  5-MIN KBKB 161515Z AUTO VRB04KT 10SM SCT018 SCT023 29/26 A3003 190 79 1900 VRB/04 RMK AO2 T02940256
53988KBKB BKB20190716092016107/16/19 09:20:31  5-MIN KBKB 161520Z AUTO VRB03KT 10SM SCT018 SCT023 29/26 A3003 190 82 1900 VRB/03 RMK AO2 T02890256 A3004 190 79 1900 VRB/05 RMK AO2 T02940256
53988KBKB BKB20190716094011807/16/19 09:40:31  5-MIN KBKB 161540Z AUTO 00000KT 10SM FEW018 SCT026 31/26 A3004 190 77 2100 000/00 RMK AO2 T03060261
53988KBKB BKB20190716094511507/16/19 09:45:31  5-MIN KBKB 161545Z AUTO 10SM FEW019 SCT026 SCT033 31/25 A3004 190 69 2100 M /M RMK AO2 T03110250
53988KBKB BKB20190716095013807/16/19 09:50:31  5-MIN KBKB 161550Z AUTO VRB03KT 10SM FEW019 SCT026 BK0SM FEW033 SCT050 33/24 A3003 200 59 2400 VRB/04 RMK AO2 T03330244
53988KBKB BKB20190716114011107/16/19 11:40:31  5-MIN KBKB 161740Z AUTO VRB06KT 10SM FEW035 33/24 A3003 200 61 2300 VRB/06 RMK AO2 T03280244
53988KBKB BKB20190716200510807/16/19 20:05:31  5-MIN KBKB 170205Z AUTO 00000KT 10SM CLR 26/24 A3000 230 90 1600 000/00 RMK AO2 T02610244
53988KBKB BKB20190716201010807/16/19 20:10:31  5-MIN KBKB 170210Z AUTO 00000KT 10SM CLR 26/24 A3000 230 90 1500 000/00 RMK AO2 T02560239
53988KBKB BKB20190716201510807/16/19 20:15:31  5-MIN KBKB 170215Z AUTO VRB03KT 10SM CLR 26/24 A3000 220 90 1500 VRB/03 RMK AO2 T02560239
53988KBKB BKB20190716202010807/16/19 20:20:31  5-MIN KBKB 170220Z AUTO 00000KT 10SM CLR 26/24 A3000 220 87 1600 000/00 RMK AO2 T02610239
53988KBKB BKB20190716202510807/16/19 20:25:31  5-MIN KBKB 170225Z AUTO 00000KT 10SM CLR 26/24 A3000 220 90 1500 000/00 RMK AO2 T02560239
53988KBKB BKB20190716203010807/16/19 20:30:31  5-MIN KBKB 170230Z AUTO 00000KT 10SM CLR 26/24 A3001 220 90 1500 000/00 RMK AO2 T02560239
53988KBKB BKB20190716203510807/16/19 20:35:31  5-MIN KBKB 170235Z AUTO 00000KT 10SM CLR 26/24 A3001 220 90 1500 000/00 RMK AO2 T02560239
53988KBKB BKB20190716204010807/16/19 20:40:31  5-MIN KBKB 170240Z AUTO 00000KT 10SM CLR 26/23 A3001 220 84 1600 000/00 RMK AO2 T02610233
53988KBKB BKB20190716204510807/16/19 20:45:31  5-MIN KBKB 170245Z AUTO 00000KT 10SM CLR 26/24 A3001 210 87 1600 000/00 RMK AO2 T02610239
53988KBKB BKB20190716205012107/16/19 20:50:31  5-MIN KBKB 170250Z AUTO 00000KT 10SM CLR 26/24 A3002 210 90 1500 000/00 RMK AO2 SLP189 T02560239 58006
53988KBKB BKB20190716205510807/16/19 20:55:31  5-MIN KBKB 170255Z AUTO 00000KT 10SM CLR 26/23 A3002 210 87 1500 000/00 RMK AO2 T02560233
53988KBKB BKB20190716210010807/16/19 21:00:31  5-MIN KBKB 170300Z AUTO 00000KT 10SM CLR 26/23 A3002 210 87 1500 000/00 RMK AO2 T02560233
53988KBKB BKB20190716210510807/16/19 21:05:31  5-MIN KBKB 170305Z AUTO 00000KT 10SM CLR 26/24 A3002 210 90 1500 000/00 RMK AO2 T02560239
53988KBKB BKB20190716211010807/16/19 21:10:31  5-MIN KBKB 170310Z AUTO 00000KT 10SM CLR 26/24 A3002 200 90 1500 000/00 RMK AO2 T02560239
53988KBKB BKB20190716211510807/16/19 21:15:31  5-MIN KBKB 170315Z AUTO 00000KT 10SM CLR 25/24 A3002 200 93 1400 000/00 RMK AO2 T02500239
53988KBKB BKB20190716212010807/16/19 21:20:31  5-MIN KBKB 170320Z AUTO 00000KT 10SM CLR 25/24 A3003 200 93 1400 000/00 RMK AO2 T02500239
53988KBKB BKB20190716212510807/16/19 21:25:31  5-MIN KBKB 170325Z AUTO 00000KT 10SM CLR 25/24 A3002 200 93 1400 000/00 RMK AO2 T02500239
53988KBKB BKB20190716213010807/16/19 21:30:31  5-MIN KBKB 170330Z AUTO 00000KT 10SM CLR 25/23 A3003 200 90 1400 000/00 RMK AO2 T02500233
53988KBKB BKB20190716213510807/16/19 21:35:31  5-MIN KBKB 170335Z AUTO 00000KT 10SM CLR 25/23 A3003 200 90 1400 000/00 RMK AO2 T02500233
53988KBKB BKB20190716214010807/16/19 21:40:31  5-MIN KBKB 170340Z AUTO 00000KT 10SM CLR 25/23 A3003 200 90 1400 000/00 RMK AO2 T02500233
53988KBKB BKB20190716214510807/16/19 21:45:31  5-MIN KBKB 170345Z AUTO 00000KT 10SM CLR 25/23 A3003 200 90 1400 000/00 RMK AO2 T02500233
53988KBKB BKB20190716215011507/16/19 21:50:31  5-MIN KBKB 170350Z AUTO 00000KT 10SM CLR 25/23 A3003 190 90 1400 000/00 RMK AO2 SLP195 T02500233
53988KBKB BKB20190716215510807/16/19 21:55:31  5-MIN KBKB 170355Z AUTO 00000KT 10SM CLR 25/23 A3003 190 90 1400 000/00 RMK AO2 T02500233
53988KBKB BKB20190716220010807/16/19 22:00:31  5-MIN KBKB 170400Z AUTO 00000KT 10SM CLR 25/23 A3004 190 90 1400 000/00 RMK AO2 T02500233
53988KBKB BKB20190716220510807/16/19 22:05:31  5-MIN KBKB 170405Z AUTO 00000KT 10SM CLR 25/23 A3004 190 90 1400 000/00 RMK AO2 T02500233
53988KBKB BKB20190716221010807/16/19 22:10:31  5-MIN KBKB 170410Z AUTO 00000KT 10SM CLR 25/23 A3004 190 90 1400 000/00 RMK AO2 T02500233
53988KBKB BKB20190716221510807/16/19 22:15:31  5-MIN KBKB 170415Z AUTO 00000KT 10SM CLR 25/23 A3004 190 90 1400 000/00 RMK AO2 T02500233
53988KBKB BKB20190716222010807/16/19 22:20:31  5-MIN KBKB 170420Z AUTO 00000KT 10SM CLR 25/23 A3004 190 90 1400 000/00 RMK AO2 T02500233
53988KBKB BKB20190716222510807/16/19 22:25:31  5-MIN KBKB 170425Z AUTO 00000KT 10SM CLR 25/23 A3004 190 90 1400 000/00 RMK AO2 T02500233
53988KBKB BKB20190716223010807/16/19 22:30:31  5-MIN KBKB 170430Z AUTO 00000KT 10SM CLR 25/23 A3004 190 90 1400 000/00 RMK AO2 T02500233
53988KBKB BKB20190716223510807/16/19 22:35:31  5-MIN KBKB 170435Z AUTO 00000KT 10SM CLR 24/23 A3004 190 93 1400 000/00 RMK AO2 T02440233
53988KBKB BKB20190716224010807/16/19 22:40:31  5-MIN KBKB 170440Z AUTO 00000KT 10SM CLR 24/23 A3004 190 93 1400 000/00 RMK AO2 T02440233
53988KBKB BKB20190716224510707/16/19 22:45:31  5-MIN KBKB 170445Z AUTO 00000KT 9SM CLR 24/23 A3004 190 93 1400 000/00 RMK AO2 T02440233
53988KBKB BKB20190716225011407/16/19 22:50:31  5-MIN KBKB 170450Z AUTO 00000KT 9SM CLR 24/23 A3004 190 93 1400 000/00 RMK AO2 SLP197 T02440233
53988KBKB BKB20190716225510707/16/19 22:55:31  5-MIN KBKB 170455Z AUTO 00000KT 9SM CLR 24/23 A3004 190 93 1400 000/00 RMK AO2 T02440233
53988KBKB BKB20190716230010707/16/19 23:00:31  5-MIN KBKB 170500Z AUTO 00000KT 8SM CLR 24/24 A3004 190 97 1400 000/00 RMK AO2 T02440239
53988KBKB BKB20190716230510707/16/19 23:05:31  5-MIN KBKB 170505Z AUTO 00000KT 8SM CLR 24/24 A3004 190 97 1400 000/00 RMK AO2 T02440239
53988KBKB BKB20190716231011007/16/19 23:10:31  5-MIN KBKB 170510Z AUTO 00000KT 7SM FEW008 24/24 A3004 190 97 1400 000/00 RMK AO2 T02440239
53988KBKB BKB20190716231511007/16/19 23:15:31  5-MIN KBKB 170515Z AUTO 00000KT 7SM SCT008 25/24 A3004 190 93 1400 000/00 RMK AO2 T02500239
53988KBKB BKB20190716232011007/16/19 23:20:31  5-MIN KBKB 170520Z AUTO 00000KT 8SM SCT008 25/24 A3004 190 93 1400 000/00 RMK AO2 T02500239
53988KBKB BKB20190716232511007/16/19 23:25:31  5-MIN KBKB 170525Z AUTO 00000KT 7SM FEW008 25/24 A3004 190 93 1400 000/00 RMK AO2 T02500239
53988KBKB BKB20190716233011007/16/19 23:30:31  5-MIN KBKB 170530Z AUTO 00000KT 7SM SCT008 25/24 A3004 190 93 1400 000/00 RMK AO2 T02500239
53988KBKB BKB20190716233511007/16/19 23:35:31  5-MIN KBKB 170535Z AUTO 00000KT 7SM SCT008 25/24 A3004 190 93 1400 000/00 RMK AO2 T02500239
53988KBKB BKB20190716234011007/16/19 23:40:31  5-MIN KBKB 170540Z AUTO 00000KT 7SM SCT008 25/24 A3004 190 93 1400 000/00 RMK AO2 T02500239
53988KBKB BKB20190716234511007/16/19 23:45:31  5-MIN KBKB 170545Z AUTO VRB03KT 7SM SCT007 25/24 A3004 190 93 1400 VRB/03 RMK AO2 T02500239
53988KBKB BKB20190716235014507/16/19 23:50:31  5-MIN KBKB 170550Z AUTO 00000KT 7SM SCT007 25/24 A3004 190 93 1400 000/00 RMK AO2 SLP196 T02500239 10294 20244 403500244 53014
53988KBKB BKB20190716235512707/16/19 23:55:31  5-MIN KBKB 170555Z AUTO 00000KT 6SM BR FEW004 BKN009 BKN014 25/24 A3004 190 97 1400 000/00 RMK AO2 T02500244
53988KBKB BKB20190717000012007/17/19 00:00:31  5-MIN KBKB 170600Z AUTO 00000KT 6SM BR SCT004 BKN009 25/24 A3004 190 97 1400 000/00 RMK AO2 T02500244
53988KBKB BKB20190717000512007/17/19 00:05:31  5-MIN KBKB 170605Z AUTO 00000KT 6SM BR BKN004 BKN009 25/24 A3004 190 97 1400 000/00 RMK AO2 T02500244
53988KBKB BKB20190717001012007/17/19 00:10:31  5-MIN KBKB 170610Z AUTO 00000KT 6SM BR BKN004 OVC010 25/24 A3004 190 97 1400 000/00 RMK AO2 T02500244
53988KBKB BKB20190717001512007/17/19 00:15:31  5-MIN KBKB 170615Z AUTO VRB03KT 6SM BR BKN004 OVC010 25/24 A3004 190 97 1400 VRB/03 RMK AO2 T02500244
53988KBKB BKB20190717002012007/17/19 00:20:31  5-MIN KBKB 170620Z AUTO 00000KT 6SM BR BKN004 OVC010 25/24 A3004 190 97 1400 000/00 RMK AO2 T02500244
53988KBKB BKB20190717002511307/17/19 00:25:31  5-MIN KBKB 170625Z AUTO VRB03KT 6SM BR OVC003 26/24 A3003 190 93 1500 VRB/03 RMK AO2 T02560244
53988KBKB BKB20190717003011307/17/19 00:30:31  5-MIN KBKB 170630Z AUTO 00000KT 6SM BR OVC003 26/24 A3003 200 93 1500 000/00 RMK AO2 T02560244
53988KBKB BKB20190717003511307/17/19 00:35:31  5-MIN KBKB 170635Z AUTO 00000KT 5SM BR OVC003 26/25 A3003 190 97 1500 000/00 RMK AO2 T02560250
53988KBKB BKB20190717004011307/17/19 00:40:31  5-MIN KBKB 170640Z AUTO 00000KT 4SM BR OVC003 26/25 A3003 190 97 1500 000/00 RMK AO2 T02560250
53988KBKB BKB20190717004511307/17/19 00:45:31  5-MIN KBKB 170645Z AUTO VRB03KT 3SM BR OVC002 26/25 A3003 190 97 1500 VRB/03 RMK AO2 T02560250
53988KBKB BKB20190717005011507/17/19 00:50:31  5-MIN KBKB 170650Z AUTO VRB03KT 2 1/2SM BR OVC002 26/25 A3003 190 97 1500 VRB/03 RMK AO2 VIS 2V3
53988KBKB BKB20190717005511707/17/19 00:55:31  5-MIN KBKB 170655Z AUTO VRB03KT 2 1/2SM BR OVC002 26/25 A3003 190 97 1500 VRB/03 RMK AO2 T02560250
53988KBKB BKB20190717010011707/17/19 01:00:31  5-MIN KBKB 170700Z AUTO VRB04KT 2 1/2SM BR OVC002 26/25 A3003 190 97 1500 VRB/04 RMK AO2 T02560250
53988KBKB BKB20190717010511307/17/19 01:05:31  5-MIN KBKB 170705Z AUTO VRB03KT 2SM BR OVC002 26/25 A3003 190 97 1500 VRB/03 RMK AO2 T02560250
53988KBKB BKB20190717011011307/17/19 01:10:31  5-MIN KBKB 170710Z AUTO VRB03KT 2SM BR OVC002 26/25 A3003 190 97 1500 VRB/03 RMK AO2 T02560250
53988KBKB BKB20190717011511307/17/19 01:15:31  5-MIN KBKB 170715Z AUTO VRB03KT 2SM BR OVC002 26/25 A3003 190 97 1500 VRB/03 RMK AO2 T02560250
53988KBKB BKB20190717012011307/17/19 01:20:31  5-MIN KBKB 170720Z AUTO VRB04KT 2SM BR OVC002 26/25 A3003 200 97 1500 VRB/04 RMK AO2 T02560250
53988KBKB BKB20190717012511307/17/19 01:25:31  5-MIN KBKB 170725Z AUTO 00000KT 2SM BR OVC002 26/25 A3003 200 97 1500 000/00 RMK AO2 T02560250
53988KBKB BKB20190717013011707/17/19 01:30:31  5-MIN KBKB 170730Z AUTO 00000KT 2 1/2SM BR OVC002 26/25 A3003 200 97 1500 000/00 RMK AO2 T02560250
53988KBKB BKB20190717013511307/17/19 01:35:31  5-MIN KBKB 170735Z AUTO 19003KT 3SM BR OVC002 26/25 A3003 200 97 1500 190/03 RMK AO2 T02560250
53988KBKB BKB20190717014011307/17/19 01:40:31  5-MIN KBKB 170740Z AUTO 00000KT 4SM BR OVC002 26/25 A3003 200 97 1500 000/00 RMK AO2 T02560250
53988KBKB BKB20190717014511307/17/19 01:45:31  5-MIN KBKB 170745Z AUTO VRB03KT 5SM BR OVC002 26/25 A3003 200 97 1500 VRB/03 RMK AO2 T02560250
53988KBKB BKB20190717015012007/17/19 01:50:31  5-MIN KBKB 170750Z AUTO VRB03KT 5SM BR OVC002 26/25 A3003 200 97 1500 VRB/03 RMK AO2 SLP193 T02560250
53988KBKB BKB20190717015511307/17/19 01:55:31  5-MIN KBKB 170755Z AUTO VRB04KT 6SM BR OVC002 26/25 A3003 200 97 1500 VRB/04 RMK AO2 T02560250
53988KBKB BKB20190717020016407/17/19 02:00:31  5-MIN KBKB 170800Z AUTO VRB04KT 7SM OVC002 26/25 A3002 200 97 1500 VRB/04 RMK AO2 T02560250A3003 200 93 1600 000/00 RMK AO2 CIG 005V011 T02610250
53988KBKB BKB20190717024013607/17/19 02:40:31  5-MIN KBKB 170840Z AUTO VRB03KT 9SM BKN007 BKN012 OVC017 26/25 A3003 200 93 1600 VRB/03 RMK AO2 CIG 005V009 T02610250
53988KBKB BKB20190717024512907/17/19 02:45:31  5-MIN KBKB 170845Z AUTO 00000KT 9SM BKN009 OVC017 26/25 A3003 200 93 1600 000/00 RMK AO2 CIG 005V011 T02610250
53988KBKB BKB20190717025014207/17/19 02:50:31  5-MIN KBKB 170850Z AUTO 00000KT 9SM BKN009 OVC013 26/24 A3003 200 90 1600 000/00 RMK AO2 CIG 006V011 SLP193 T02610244 50007
53988KBKB BKB20190717025509107/17/19 02:55:31  5-MIN KBKB 170855Z AUTO VRB03KT 9SM VRB/04 RMK AO2 CIG 004V011 T02610250
53988KBKB BKB20190717025512907/17/19 02:55:31  5-MIN KBKB 170855Z AUTO VRB03KT 9SM BKN009 OVC013 26/24 A3003 200 90 1600 VRB/03 RMK AO2 CIG 006V011 T02610244
53988KBKB BKB20190717030012207/17/19 03:00:31  5-MIN KBKB 170900Z AUTO VRB03KT 9SM OVC009 26/25 A3003 200 93 1600 VRB/03 RMK AO2 CIG 006V013 T02610250
53988KBKB BKB20190717030022507/17/19 03:00:31  5-MIN KBKB 170900Z AUTO VRB03KT 9SM OVC009 26/25 A3003 200 93 1600 VRB/03 RMK AO2 CIG 006V013 T0261025007/17/19 03:05:31  500KT 9SM BKN009 OVC017 26/25 A3003 200 93 1600 000/00 RMK AO2 CIG 005V011 T02610250
53988KBKB BKB20190717030512207/17/19 03:05:31  5-MIN KBKB 170905Z AUTO 00000KT 9SM OVC009 26/25 A3003 200 93 1600 000/00 RMK AO2 CIG 005V011 T02610250
53988KBKB BKB20190717031012207/17/19 03:10:31  5-MIN KBKB 170910Z AUTO 00000KT 9SM OVC007 26/25 A3003 200 93 1600 000/00 RMK AO2 CIG 005V011 T02610250
53988KBKB BKB20190717031512207/17/19 03:15:31  5-MIN KBKB 170915Z AUTO 00000KT 9SM OVC007 26/25 A3003 190 93 1600 000/00 RMK AO2 CIG 005V011 T02610250
53988KBKB BKB20190717032012207/17/19 03:20:31  5-MIN KBKB 170920Z AUTO 00000KT 9SM OVC007 26/25 A3003 190 93 1600 000/00 RMK AO2 CIG 005V010 T02610250
53988KBKB BKB20190717032512207/17/19 03:25:31  5-MIN KBKB 170925Z AUTO 00000KT 9SM OVC007 26/25 A3003 190 93 1600 000/00 RMK AO2 CIG 005V011 T02610250
53988KBKB BKB20190717033012207/17/19 03:30:31  5-MIN KBKB 170930Z AUTO 00000KT 9SM OVC007 26/25 A3003 190 93 1600 000/00 RMK AO2 CIG 005V011 T02610250
53988KBKB BKB20190717033512207/17/19 03:35:31  5-MIN KBKB 170935Z AUTO 00000KT 9SM OVC007 26/25 A3003 190 93 1600 000/00 RMK AO2 CIG 005V011 T02610250
53988KBKB BKB20190717034011307/17/19 03:40:31  5-MIN KBKB 170940Z AUTO 10SM OVC007 26/25 A3004 190 93 1600 M /M RMK AO2 CIG 005V011 T02610250
53988KBKB BKB20190717034512307/17/19 03:45:31  5-MIN KBKB 170945Z AUTO VRB03KT 10SM OVC007 26/25 A3004 190 93 1600 VRB/03 RMK AO2 CIG 005V011 T02610250
53988KBKB BKB20190717035013007/17/19 03:50:31  5-MIN KBKB 170950Z AUTO 00000KT 10SM OVC007 26/25 A3004 190 93 1600 000/00 RMK AO2 CIG 005V011 SLP197 T02610250
53988KBKB BKB20190717035512307/17/19 03:55:31  5-MIN KBKB 170955Z AUTO 00000KT 10SM OVC007 26/24 A3004 190 90 1600 000/00 RMK AO2 CIG 005V011 T02610244
53988KBKB BKB20190717040012307/17/19 04:00:31  5-MIN KBKB 171000Z AUTO VRB03KT 10SM OVC008 26/24 A3004 190 90 1600 VRB/03 RMK AO2 CIG 005V012 T02610244
53988KBKB BKB20190717040512307/17/19 04:05:31  5-MIN KBKB 171005Z AUTO 00000KT 10SM OVC008 26/24 A3004 190 90 1600 000/00 RMK AO2 CIG 006V012 T02610244
53988KBKB BKB20190717041012307/17/19 04:10:31  5-MIN KBKB 171010Z AUTO 00000KT 10SM OVC010 26/24 A3004 180 90 1600 000/00 RMK AO2 CIG 006V014 T02610244
53988KBKB BKB20190717041511107/17/19 04:15:31  5-MIN KBKB 171015Z AUTO 00000KT 10SM OVC010 26/24 A3004 190 90 1600 000/00 RMK AO2 T02610244
53988KBKB BKB20190717042011107/17/19 04:20:31  5-MIN KBKB 171020Z AUTO 00000KT 10SM OVC010 26/24 A3004 190 93 1500 000/00 RMK AO2 T02560244
53988KBKB BKB20190717042511107/17/19 04:25:31  5-MIN KBKB 171025Z AUTO 00000KT 10SM BKN011 26/24 A3004 190 93 1500 000/00 RMK AO2 T02560244
53988KBKB BKB20190717043011807/17/19 04:30:31  5-MIN KBKB 171030Z AUTO 00000KT 10SM SCT008 BKN013 26/24 A3004 190 93 1500 000/00 RMK AO2 T02560244
53988KBKB BKB20190717043511807/17/19 04:35:31  5-MIN KBKB 171035Z AUTO 00000KT 10SM SCT008 OVC011 26/24 A3004 180 93 1500 000/00 RMK AO2 T02560244
53988KBKB BKB20190717044019407/17/19 04:40:31  5-MIN KBKB 171040Z AUTO 00000KT 9SM BKN008 OVC013 26/24 A3005 180 93 1500 000/00 RMK AO2 CIM BKN004 BKN008 OVC011 26/25 A3007 160 97 1500 000/00 RMK AO2 T0256025007/1702560250
53988KBKB BKB20190717061012007/17/19 06:10:31  5-MIN KBKB 171210Z AUTO 00000KT 6SM BR SCT005 OVC011 26/25 A3006 170 97 1500 000/00 RMK AO2 T02560250
53988KBKB BKB20190717061512007/17/19 06:15:31  5-MIN KBKB 171215Z AUTO 00000KT 6SM BR BKN005 OVC011 26/25 A3006 170 97 1500 000/00 RMK AO2 T02560250
53988KBKB BKB20190717062011707/17/19 06:20:31  5-MIN KBKB 171220Z AUTO 00000KT 7SM BKN005 OVC011 26/25 A3006 170 97 1500 000/00 RMK AO2 T02560250
53988KBKB BKB20190717062512407/17/19 06:25:31  5-MIN KBKB 171225Z AUTO 00000KT 7SM BKN004 BKN008 OVC011 26/25 A3007 160 97 1500 000/00 RMK AO2 T02560250
53988KBKB BKB20190717063011707/17/19 06:30:31  5-MIN KBKB 171230Z AUTO 00000KT 7SM BKN004 OVC013 26/25 A3007 160 93 1500 000/00 RMK AO2 T02610250
53988KBKB BKB20190717063512407/17/19 06:35:31  5-MIN KBKB 171235Z AUTO 00000KT 8SM SCT004 SCT008 OVC013 26/25 A3007 160 93 1500 000/00 RMK AO2 T02610250
53988KBKB BKB20190717063513807/17/19 06:35:31  5-MIN KBKB 171235Z AUTO 00000KT 8SM SCT004 SCT008 OVC013 26/25 A3007 160 93 1500 000/00 RMK AO2 T0260 RMK AO2 T02560250
53988KBKB BKB20190717064012907/17/19 06:40:31  5-MIN KBKB 171240Z AUTO 00000KT 8SM BKN006 OVC013 26/25 A3007 160 93 1500 000/00 RMK AO2 CIG 003V010 T02610250
53988KBKB BKB20190717064512607/17/19 06:45:31  5-MIN KBKB 171245Z AUTO 00000KT 8SM B BKN004 BKN008 OVC011 26/25 A3007 160 97 1500 000/00 RMK AO2 T02560250
53988KBKB BKB20190717064512907/17/19 06:45:31  5-MIN KBKB 171245Z AUTO 00000KT 8SM BKN006 OVC013 27/25 A3007 160 90 1600 000/00 RMK AO2 CIG 003V010 T02670250
53988KBKB BKB20190717065012407/17/19 06:50:31  5-MIN KBKB 171250Z AUTO 00000KT 8SM BKN006 OVC013 27/25  26/25 A3007 160 93 1500 000/00 RMK AO2 T02610250
53988KBKB BKB20190717065013607/17/19 06:50:31  5-MIN KBKB 171250Z AUTO 00000KT 8SM BKN006 OVC013 27/25 A3007 160 90 1600 000/00 RMK AO2 CIG 003V009 SLP208 T02670250
53988KBKB BKB20190717065512907/17/19 06:55:31  5-MIN KBKB 171255Z AUTO VRB03KT 9SM BKN006 OVC013 27/25 A3007 160 90 1600 VRB/03 RMK AO2 CIG 004V009 T02670250
53988KBKB BKB20190717070010207/17/19 07:00:31  5-MIN KBKB 171300Z AUTO 00000KT 9SM BKN008 OVC013 27/25 A3008 150 903V010 T02610250
53988KBKB BKB20190717070012907/17/19 07:00:31  5-MIN KBKB 171300Z AUTO 00000KT 9SM BKN008 OVC013 27/25 A3008 150 90 1600 000/00 RMK AO2 CIG 005V009 T02670250
53988KBKB BKB20190717070509707/17/19 07:05:31  5-MIN KBKB 171305Z AUTO VRB04KT 9SM BKN008 OVC013 600 000/00 RMK AO2 T02720244
53988KBKB BKB20190717070512907/17/19 07:05:31  5-MIN KBKB 171305Z AUTO VRB04KT 9SM BKN008 OVC013 27/25 A3008 150 90 1600 VRB/04 RMK AO2 CIG 005V010 T02670250
53988KBKB BKB20190717071012907/17/19 07:10:31  5-MIN KBKB 171310Z AUTO VRB03KT 9SM BKN009 OVC013 27/25 A3008 150 90 1600 VRB/03 RMK AO2 CIG 005V011 T02670250
53988KBKB BKB20190717071513007/17/19 07:15:31  5-MIN KBKB 171315Z AUTO VRB03KT 10SM BKN009 OVC015 27/25 A3008 150 87 1600 VRB/03 RMK AO2 CIG 005V013 T02720250
53988KBKB BKB20190717072011107/17/19 07:20:31  5-MIN KBKB 171320Z AUTO 00000KT 10SM BKN013 28/25 A3008 150 84 1700 000/00 RMK AO2 T02780250
53988KBKB BKB20190717072513007/17/19 07:25:31  5-MIN KBKB 171325Z AUTO 00000KT 10SM BKN010 OVC015 28/25 A3008 150 84 1700 000/00 RMK AO2 CIG 006V012 T02780250
53988KBKB BKB20190717073011807/17/19 07:30:31  5-MIN KBKB 171330Z AUTO VRB04KT 10SM SCT010 BKN015 27/24 A3008 150 84 1600 VRB/04 RMK AO2 T02720244
53988KBKB BKB20190717073511807/17/19 07:35:31  5-MIN KBKB 171335Z AUTO 00000KT 10SM SCT010 BKN015 27/24 A3008 150 87 1600 000/00 RMK AO2 T02670244
53988KBKB BKB20190717074011107/17/19 07:40:31  5-MIN KBKB 171340Z AUTO VRB03KT 10SM SCT012 27/24 A3008 150 87 1600 VRB/03 RMK AO2 T02670244
53988KBKB BKB20190717074511107/17/19 07:45:31  5-MIN KBKB 171345Z AUTO 00000KT 10SM SCT012 27/24 A3008 150 84 1600 000/00 RMK AO2 T02720244
53988KBKB BKB20190717075012507/17/19 07:50:31  5-MIN KBKB 171350Z AUTO 00000KT 10SM FEW010 FEW016 27/24 A3009 150 84 1600 000/00 RMK AO2 SLP213 T02720244
53988KBKB BKB20190717075511107/17/19 07:55:31  5-MIN KBKB 171355Z AUTO 21003KT 10SM FEW016 28/24 A3009 150 79 1700 200/03 RMK AO2 T02780239
53988KBKB BKB20190717080010807/17/19 08:00:31  5-MIN KBKB 171400Z AUTO VRB03KT 10SM CLR 28/24 A3009 150 82 1700 VRB/03 RMK AO2 T02780244
53988KBKB BKB20190717080510807/17/19 08:05:31  5-MIN KBKB 171405Z AUTO VRB03KT 10SM CLR 28/24 A3009 140 79 1800 VRB/03 RMK AO2 T02830244
53988KBKB BKB20190717081010807/17/19 08:10:31  5-MIN KBKB 171410Z AUTO VRB04KT 10SM CLR 29/24 A3009 140 76 1800 VRB/04 RMK AO2 T02890244
53988KBKB BKB20190717081510807/17/19 08:15:31  5-MIN KBKB 171415Z AUTO VRB03KT 10SM CLR 28/24 A3008 150 79 1800 VRB/03 RMK AO2 T02830244
53988KBKB BKB20190717082010807/17/19 08:20:31  5-MIN KBKB 171420Z AUTO VRB03KT 10SM CLR 29/24 A3009 150 76 1800 VRB/03 RMK AO2 T02890244
53988KBKB BKB20190717082510807/17/19 08:25:31  5-MIN KBKB 171425Z AUTO VRB03KT 10SM CLR 29/24 A3009 150 74 1900 VRB/03 RMK AO2 T02940244
53988KBKB BKB20190717083010807/17/19 08:30:31  5-MIN KBKB 171430Z AUTO VRB04KT 10SM CLR 29/24 A3008 150 74 1800 VRB/04 RMK AO2 T02890239
53988KBKB BKB20190717083510807/17/19 08:35:31  5-MIN KBKB 171435Z AUTO VRB04KT 10SM CLR 30/24 A3008 150 72 1900 VRB/04 RMK AO2 T03000244
53988KBKB BKB20190717084011107/17/19 08:40:31  5-MIN KBKB 171440Z AUTO VRB04KT 10SM FEW030 30/24 A3009 140 72 1900 VRB/04 RMK AO2 T03000244
53988KBKB BKB20190717084511107/17/19 08:45:31  5-MIN KBKB 171445Z AUTO VRB04KT 10SM FEW028 30/24 A3009 140 69 1900 VRB/04 RMK AO2 T03000239
53988KBKB BKB20190717085012407/17/19 08:50:31  5-MIN KBKB 171450Z AUTO VRB04KT 10SM FEW028 30/24 A3009 140 72 1900 VRB/04 RMK AO2 SLP214 T03000244 51008
53988KBKB BKB20190717085511807/17/19 08:55:31  5-MIN KBKB 171455Z AUTO VRB05KT 10SM FEW021 SCT028 30/24 A3009 140 69 1900 VRB/05 RMK AO2 T03000239
53988KBKB BKB20190717090011807/17/19 09:00:31  5-MIN KBKB 171500Z AUTO VRB03KT 10SM SCT023 SCT030 30/24 A3009 140 69 1900 VRB/03 RMK AO2 T03000239
53988KBKB BKB20190717090511807/17/19 09:05:31  5-MIN KBKB 171505Z AUTO 20005KT 10SM SCT023 SCT027 30/24 A3009 140 69 1900 200/05 RMK AO2 T03000239
53988KBKB BKB20190717091011807/17/19 09:10:31  5-MIN KBKB 171510Z AUTO 00000KT 10SM SCT023 BKN029 31/24 A3009 150 69 2000 000/00 RMK AO2 T03060244
53988KBKB BKB20190717091511807/17/19 09:15:31  5-MIN KBKB 171515Z AUTO VRB04KT 10SM SCT022 BKN029 30/24 A3009 140 72 1900 VRB/04 RMK AO2 T03000244
53988KBKB BKB20190717092011807/17/19 09:20:31  5-MIN KBKB 171520Z AUTO VRB03KT 10SM SCT022 BKN027 29/24 A3009 140 74 1800 VRB/03 RMK AO2 T02890239
53988KBKB BKB20190717092511107/17/19 09:25:31  5-MIN KBKB 171525Z AUTO VRB03KT 10SM SCT022 30/24 A3009 140 69 1900 VRB/03 RMK AO2 T03000239
53988KBKB BKB20190717093011107/17/19 09:30:31  5-MIN KBKB 171530Z AUTO VRB03KT 10SM FEW022 31/24 A3009 140 65 2100 VRB/03 RMK AO2 T03110239
53988KBKB BKB20190717093511107/17/19 09:35:31  5-MIN KBKB 171535Z AUTO VRB04KT 10SM FEW022 31/24 A3009 150 67 2000 VRB/04 RMK AO2 T03060239
53988KBKB BKB20190717094011107/17/19 09:40:31  5-MIN KBKB 171540Z AUTO VRB03KT 10SM FEW022 31/24 A3009 140 65 2100 VRB/03 RMK AO2 T03110239
53988KBKB BKB20190717094510807/17/19 09:45:31  5-MIN KBKB 171545Z AUTO 22004KT 10SM CLR 31/24 A3009 150 65 2100 220/04 RMK AO2 T03110239
53988KBKB BKB20190717095011507/17/19 09:50:31  5-MIN KBKB 171550Z AUTO VRB04KT 10SM CLR 31/24 A3009 140 65 2100 VRB/04 RMK AO2 SLP214 T03110239
53988KBKB BKB20190717095510807/17/19 09:55:31  5-MIN KBKB 171555Z AUTO VRB04KT 10SM CLR 31/23 A3009 140 63 2100 VRB/04 RMK AO2 T03110233
53988KBKB BKB20190717100011107/17/19 10:00:31  5-MIN KBKB 171600Z AUTO VRB05KT 10SM FEW039 31/23 A3009 140 63 2100 VRB/05 RMK AO2 T03110233
53988KBKB BKB20190717100511107/17/19 10:05:31  5-MIN KBKB 171605Z AUTO VRB05KT 10SM FEW039 31/23 A3009 140 63 2100 VRB/05 RMK AO2 T03110233
53988KBKB BKB20190717101011107/17/19 10:10:31  5-MIN KBKB 171610Z AUTO VRB05KT 10SM FEW034 32/24 A3009 150 63 2100 VRB/05 RMK AO2 T03170239
53988KBKB BKB20190717101511107/17/19 10:15:31  5-MIN KBKB 171615Z AUTO VRB03KT 10SM SCT031 32/24 A3009 150 63 2100 VRB/03 RMK AO2 T03170239
53988KBKB BKB20190717102011107/17/19 10:20:31  5-MIN KBKB 171620Z AUTO VRB03KT 10SM SCT031 32/24 A3009 140 63 2100 VRB/03 RMK AO2 T03170239
53988KBKB BKB20190717102511107/17/19 10:25:31  5-MIN KBKB 171625Z AUTO VRB03KT 10SM BKN033 31/24 A3009 140 65 2100 VRB/03 RMK AO2 T03110239
53988KBKB BKB20190717103011107/17/19 10:30:31  5-MIN KBKB 171630Z AUTO VRB03KT 10SM BKN031 32/24 A3009 140 63 2200 VRB/03 RMK AO2 T03220244
53988KBKB BKB20190717103511807/17/19 10:35:31  5-MIN KBKB 171635Z AUTO VRB04KT 10SM SCT031 BKN046 31/24 A3009 140 67 2000 VRB/04 RMK AO2 T03060239
53988KBKB BKB20190717104011807/17/19 10:40:31  5-MIN KBKB 171640Z AUTO VRB04KT 10SM SCT031 BKN046 30/23 A3009 140 67 1900 VRB/04 RMK AO2 T03000233
53988KBKB BKB20190717104511107/17/19 10:45:31  5-MIN KBKB 171645Z AUTO VRB04KT 10SM SCT031 32/24 A3009 150 63 2100 VRB/04 RMK AO2 T03170239
53988KBKB BKB20190717105012507/17/19 10:50:31  5-MIN KBKB 171650Z AUTO VRB03KT 10SM FEW031 SCT043 31/24 A3009 140 65 2100 VRB/03 RMK AO2 SLP213 T03110239
53988KBKB BKB20190717105511807/17/19 10:55:31  5-MIN KBKB 171655Z AUTO VRB03KT 10SM FEW031 FEW045 32/24 A3009 140 63 2100 VRB/03 RMK AO2 T03170239
53988KBKB BKB20190717110011107/17/19 11:00:31  5-MIN KBKB 171700Z AUTO 00000KT 10SM FEW045 32/24 A3009 140 61 2200 000/00 RMK AO2 T03220239
53988KBKB BKB20190717110510807/17/19 11:05:31  5-MIN KBKB 171705Z AUTO VRB04KT 10SM CLR 32/24 A3009 140 61 2200 VRB/04 RMK AO2 T03220239
53988KBKB BKB20190717111011107/17/19 11:10:31  5-MIN KBKB 171710Z AUTO 00000KT 10SM FEW041 32/23 A3009 140 61 2100 000/00 RMK AO2 T03170233
53988KBKB BKB20190717111511107/17/19 11:15:31  5-MIN KBKB 171715Z AUTO VRB04KT 10SM SCT038 31/23 A3009 150 63 2100 VRB/04 RMK AO2 T03110233
53988KBKB BKB20190717112011807/17/19 11:20:31  5-MIN KBKB 171720Z AUTO 00000KT 10SM SCT036 SCT049 31/23 A3008 150 63 2100 000/00 RMK AO2 T03110233
53988KBKB BKB20190717112511807/17/19 11:25:31  5-MIN KBKB 171725Z AUTO 00000KT 10SM SCT036 SCT043 31/23 A3008 150 63 2100 000/00 RMK AO2 T03110233
53988KBKB BKB20190717113011807/17/19 11:30:31  5-MIN KBKB 171730Z AUTO 00000KT 10SM SCT036 SCT043 32/24 A3008 150 63 2100 000/00 RMK AO2 T03170239
53988KBKB BKB20190717113511107/17/19 11:35:31  5-MIN KBKB 171735Z AUTO VRB03KT 10SM SCT036 32/24 A3008 150 61 2200 VRB/03 RMK AO2 T03220239
53988KBKB BKB20190717114011107/17/19 11:40:31  5-MIN KBKB 171740Z AUTO VRB03KT 10SM SCT036 32/24 A3008 150 61 2200 VRB/03 RMK AO2 T03220239
53988KBKB BKB20190717114511107/17/19 11:45:31  5-MIN KBKB 171745Z AUTO VRB04KT 10SM SCT036 32/23 A3008 150 61 2100 VRB/04 RMK AO2 T03170233
53988KBKB BKB20190717115013607/17/19 11:50:31  5-MIN KBKB 171750Z AUTO VRB04KT 10SM FEW036 33/23 A3007 160 57 2300 VRB/04 RMK AO2 SLP208 T03280233 10328 20256 51010
53988KBKB BKB20190717115511107/17/19 11:55:31  5-MIN KBKB 171755Z AUTO VRB05KT 10SM FEW036 33/24 A3007 160 59 2300 VRB/05 RMK AO2 T03280239
53988KBKB BKB20190717120011107/17/19 12:00:31  5-MIN KBKB 171800Z AUTO VRB04KT 10SM FEW036 33/24 A3007 160 57 2300 VRB/04 RMK AO2 T03330239
53988KBKB BKB20190717120511107/17/19 12:05:31  5-MIN KBKB 171805Z AUTO VRB05KT 10SM FEW036 33/24 A3007 160 57 2300 VRB/05 RMK AO2 T03330239
53988KBKB BKB20190717121011107/17/19 12:10:31  5-MIN KBKB 171810Z AUTO VRB03KT 10SM FEW038 33/23 A3007 160 55 2300 VRB/03 RMK AO2 T03330233
53988KBKB BKB20190717121511107/17/19 12:15:31  5-MIN KBKB 171815Z AUTO VRB04KT 10SM SCT040 33/24 A3007 160 57 2300 VRB/04 RMK AO2 T03330239
53988KBKB BKB20190717122011107/17/19 12:20:31  5-MIN KBKB 171820Z AUTO VRB03KT 10SM SCT040 34/24 A3007 160 55 2400 VRB/03 RMK AO2 T03390239
53988KBKB BKB20190717122511107/17/19 12:25:31  5-MIN KBKB 171825Z AUTO 00000KT 10SM SCT040 33/24 A3007 160 59 2300 000/00 RMK AO2 T03280239
53988KBKB BKB20190717123011107/17/19 12:30:31  5-MIN KBKB 171830Z AUTO 00000KT 10SM BKN040 33/24 A3007 160 59 2300 000/00 RMK AO2 T03280239
53988KBKB BKB20190717123511807/17/19 12:35:31  5-MIN KBKB 171835Z AUTO VRB03KT 10SM BKN040 BKN047 33/24 A3007 160 59 2300 VRB/03 RMK AO2 T03280239
53988KBKB BKB20190717124011807/17/19 12:40:31  5-MIN KBKB 171840Z AUTO VRB03KT 10SM BKN038 BKN050 32/24 A3007 160 61 2200 VRB/03 RMK AO2 T03220239
53988KBKB BKB20190717124511807/17/19 12:45:31  5-MIN KBKB 171845Z AUTO 21004KT 10SM BKN038 BKN050 32/24 A3006 170 65 2100 210/04 RMK AO2 T03170244
53988KBKB BKB20190717125013207/17/19 12:50:31  5-MIN KBKB 171850Z AUTO VRB04KT 10SM BKN038 BKN050 BKN055 32/24 A3006 170 61 2200 VRB/04 RMK AO2 SLP204 T03220239
53988KBKB BKB20190717125512507/17/19 12:55:31  5-MIN KBKB 171855Z AUTO VRB03KT 10SM SCT038 BKN045 BKN055 33/24 A3006 170 61 2300 VRB/03 RMK AO2 T03280244
53988KBKB BKB20190717130011807/17/19 13:00:31  5-MIN KBKB 171900Z AUTO VRB04KT 10SM SCT038 BKN055 33/24 A3006 170 59 2300 VRB/04 RMK AO2 T03330244
53988KBKB BKB20190717130511807/17/19 13:05:31  5-MIN KBKB 171905Z AUTO VRB03KT 10SM FEW038 SCT055 33/24 A3006 170 59 2300 VRB/03 RMK AO2 T03280239
53988KBKB BKB20190717131011807/17/19 13:10:31  5-MIN KBKB 171910Z AUTO 00000KT 10SM SCT037 SCT055 33/24 A3006 170 57 2300 000/00 RMK AO2 T03330239
53988KBKB BKB20190717131510807/17/19 13:15:31  5-MIN KBKB 171915Z AUTO 10SM FEW037 SCT060 34/24 A3005 170 55 2400 M /M RMK AO2 T03390239
53988KBKB BKB20190717132011807/17/19 13:20:31  5-MIN KBKB 171920Z AUTO VRB04KT 10SM FEW037 FEW060 33/24 A3005 180 57 2300 VRB/04 RMK AO2 T03330239
53988KBKB BKB20190717132510107/17/19 13:25:31  5-MIN KBKB 171925Z AUTO 10SM FEW037 34/24 A3005 180 55 2400 M /M RMK AO2 T03390239
53988KBKB BKB20190717133011107/17/19 13:30:31  5-MIN KBKB 171930Z AUTO VRB05KT 10SM FEW037 34/24 A3005 180 55 2400 VRB/05 RMK AO2 T03390239
53988KBKB BKB20190717133511107/17/19 13:35:31  5-MIN KBKB 171935Z AUTO VRB03KT 10SM FEW037 34/24 A3005 180 55 2400 VRB/03 RMK AO2 T03390239
53988KBKB BKB20190717134010807/17/19 13:40:31  5-MIN KBKB 171940Z AUTO VRB05KT 10SM CLR 34/23 A3005 180 53 2400 VRB/05 RMK AO2 T03390233
53988KBKB BKB20190717134510807/17/19 13:45:31  5-MIN KBKB 171945Z AUTO 21005KT 10SM CLR 33/24 A3005 180 57 2400 210/05 RMK AO2 T03330239
53988KBKB BKB20190717135014807/17/19 13:50:31  5-MIN KBKB 171950Z AUTO VRB03KT 10SM CLR 33/23 A3005 180 55 2300 VRB/03 RMK AO2 SLP199 T03330233 57 2400 120/05 RMK AO2 T03390244
53988KBKB BKB20190717145510807/17/19 14:55:31  5-MIN KBKB 172055Z AUTO VRB04KT 10SM CLR 33/24 A3003 200 57 2400 VRB/04 RMK AO2 T03330239
53988KBKB BKB20190717150010807/17/19 15:00:31  5-MIN KBKB 172100Z AUTO 12005KT 10SM CLR 34/24 A3003 200 57 2400 120/05 RMK AO2 T03390244
53988KBKB BKB20190717150510807/17/19 15:05:31  5-MIN KBKB 172105Z AUTO VRB03KT 10SM CLR 34/24 A3003 200 55 2400 VRB/03 RMK AO2 T03390239
53988KBKB BKB20190717151011107/17/19 15:10:31  5-MIN KBKB 172110Z AUTO VRB03KT 10SM FEW038 33/24 A3003 200 57 2400 VRB/03 RMK AO2 T03330239
53988KBKB BKB20190717151017007/17/19 15:10:31  5-MIN KBKB 172110Z AUTO VRB03KT 10SM FEW038 33/24 A3003 200 57 2400 VRTO 00000KT 10SM CLR 33/23 A3003 200 55 2400 000/00 RMK AO2 SLP193 T03330233 58004
53988KBKB BKB20190717151511107/17/19 15:15:31  5-MIN KBKB 172115Z AUTO VRB04KT 10SM FEW040 33/24 A3003 200 57 2400 VRB/04 RMK AO2 T03330239
53988KBKB BKB20190717152005607/17/19 15:20:31  5-MIN KBKB 172120Z AUTO VRB0503330239
53988KBKB BKB20190717152011107/17/19 15:20:31  5-MIN KBKB 172120Z AUTO VRB05KT 10SM SCT040 34/24 A3002 200 57 2400 VRB/05 RMK AO2 T03390244
53988KBKB BKB20190717152511107/17/19 15:25:31  5-MIN KBKB 172125Z AUTO VRB03KT 10SM SCT040 34/24 A3002 200 57 2400 VRB/03 RMK AO2 T03390244
53988KBKB BKB20190717153011107/17/19 15:30:31  5-MIN KBKB 172130Z AUTO VRB05KT 10SM SCT040 34/24 A3002 210 55 2500 VRB/05 RMK AO2 T03440244
53988KBKB BKB20190717153511107/17/19 15:35:31  5-MIN KBKB 172135Z AUTO 00000KT 10SM SCT039 33/24 A3002 210 57 2400 000/00 RMK AO2 T03330239
53988KBKB BKB20190717154010107/17/19 15:40:31  5-MIN KBKB 172140Z AUTO 10SM SCT039 33/24 A3002 210 59 2400 M /M RMK AO2 T03330244
53988KBKB BKB20190717154511107/17/19 15:45:31  5-MIN KBKB 172145Z AUTO VRB03KT 10SM SCT039 34/24 A3002 210 57 2400 VRB/03 RMK AO2 T03390244
53988KBKB BKB20190717155011807/17/19 15:50:31  5-MIN KBKB 172150Z AUTO VRB03KT 10SM FEW039 34/24 A3002 210 55 2400 VRB/03 RMK AO2 SLP189 T03390239
53988KBKB BKB20190717155511107/17/19 15:55:31  5-MIN KBKB 172155Z AUTO VRB03KT 10SM FEW039 34/24 A3002 210 55 2400 VRB/03 RMK AO2 T03390239
53988KBKB BKB20190717160010807/17/19 16:00:31  5-MIN KBKB 172200Z AUTO VRB04KT 10SM CLR 33/24 A3002 210 57 2400 VRB/04 RMK AO2 T03330239
53988KBKB BKB20190717160510807/17/19 16:05:31  5-MIN KBKB 172205Z AUTO VRB06KT 10SM CLR 34/24 A3001 210 55 2400 VRB/06 RMK AO2 T03390239
53988KBKB BKB20190717161010807/17/19 16:10:31  5-MIN KBKB 172210Z AUTO VRB03KT 10SM CLR 33/23 A3001 210 57 2300 VRB/03 RMK AO2 T03280233
53988KBKB BKB20190717161510807/17/19 16:15:31  5-MIN KBKB 172215Z AUTO 21004KT 10SM CLR 34/24 A3001 210 55 2400 200/04 RMK AO2 T03390239
53988KBKB BKB20190717162011107/17/19 16:20:31  5-MIN KBKB 172220Z AUTO VRB05KT 10SM FEW037 33/24 A3002 210 61 2300 VRB/05 RMK AO2 T03280244
53988KBKB BKB20190717162510407/17/19 16:25:31  5-MIN KBKB 172225Z AUTO VRB04KT 10SM FEW037 33/24 A3001 210 59 2400 VRB/0O2 T03000250
53988KBKB BKB20190717182510807/17/19 18:25:31  5-MIN KBKB 180025Z AUTO 00000KT 10SM CLR 31/24 A2999 240 69 2100 000/00 RMK AO2 T03060244
53988KBKB BKB20190717183010807/17/19 18:30:31  5-MIN KBKB 180030Z AUTO 00000KT 10SM CLR 31/24 A2999 240 69 2100 000/00 RMK AO2 T03060244
53988KBKB BKB20190717183510807/17/19 18:35:31  5-MIN KBKB 180035Z AUTO 00000KT 10SM CLR 30/24 A2999 240 72 2000 000/00 RMK AO2 T03000244
53988KBKB BKB20190717184010807/17/19 18:40:31  5-MIN KBKB 180040Z AUTO 00000KT 10SM CLR 30/25 A2999 240 74 2000 000/00 RMK AO2 T03000250
53988KBKB BKB20190717184506207/17/19 18:45:31  5-MIN KBKB 180045Z AUTO 00000KT 10SM3060244
53988KBKB BKB20190717184510807/17/19 18:45:31  5-MIN KBKB 180045Z AUTO 00000KT 10SM CLR 30/24 A2999 240 72 2000 000/00 RMK AO2 T03000244
53988KBKB BKB20190717185011507/17/19 18:50:31  5-MIN KBKB 180050Z AUTO 00000KT 10SM CLR 29/24 A2999 240 74 2000 000/00 RMK AO2 SLP180 T02940244
53988KBKB BKB20190717185510807/17/19 18:55:31  5-MIN KBKB 180055Z AUTO 00000KT 10SM CLR 29/25 A2999 240 76 2000 000/00 RMK AO2 T02940250
53988KBKB BKB20190717185516507/17/19 18:55:31  5-MIN KBKB 180055Z AUTO 00000KT 10SM CLR 29/29 18:35:31  5-MIN KBKB 180035Z AUTO 00000KT 10SM CLR 30/24 A2999 240 72 2000 000/00 RMK AO2 T03000244
53988KBKB BKB20190717190010807/17/19 19:00:31  5-MIN KBKB 180100Z AUTO 00000KT 10SM CLR 29/25 A2999 230 76 2000 000/00 RMK AO2 T02940250
53988KBKB BKB20190719154512507/19/19 15:45:31  5-MIN KBKB 192145Z AUTO VRB03KT 10SM FEW043 FEW050 SCT065 34/24 A2997 250 55 2500 VRB/03 RMK AO2 T03390239
53988KBKB BKB20190719155012507/19/19 15:50:31  5-MIN KBKB 192150Z AUTO VRB05KT 10SM FEW047 SCT060 33/23 A2997 250 55 2400 VRB/05 RMK AO2 SLP175 T03280228
53988KBKB BKB20190719155510107/19/19 15:55:31  5-MIN KBKB 192155Z AUTO 10SM SCT060 32/23 A2997 250 57 2300 M /M RMK AO2 T03220228
53988KBKB BKB20190719160012507/19/19 16:00:31  5-MIN KBKB 192200Z AUTO VRB04KT 10SM FEW046 SCT060 BKN090 32/23 A2997 250 58 2300 VRB/04 RMK AO2 T03170228
53988KBKB BKB20190719160512507/19/19 16:05:31  5-MIN KBKB 192205Z AUTO 00000KT 10SM FEW046 FEW060 BKN090 32/23 A2997 250 58 2300 000/00 RMK AO2 T03170228
53988KBKB BKB20190719161012507/19/19 16:10:31  5-MIN KBKB 192210Z AUTO 00000KT 10SM FEW046 FEW060 BKN090 31/23 A2997 260 60 2200 000/00 RMK AO2 T03110228
53988KBKB BKB20190719161511807/19/19 16:15:31  5-MIN KBKB 192215Z AUTO 00000KT 10SM SCT065 BKN090 32/23 A2997 260 61 2300 000/00 RMK AO2 T03170233
53988KBKB BKB20190719162013407/19/19 16:20:31  5-MIN KBKB 192220Z AUTO VRB03KT 10SM -RA BKN070 BKN085 31/23 A2997 260 63 2200 VRB/03 RMK AO2 RAB17 P0000 T03110233
53988KBKB BKB20190719162513407/19/19 16:25:31  5-MIN KBKB 192225Z AUTO 00000KT 10SM -RA BKN075 BKN090 32/24 A2997 260 63 2300 000/00 RMK AO2 RAB17 P0000 T03170239
53988KBKB BKB20190719163013307/19/19 16:30:31  5-MIN KBKB 192230Z AUTO 00000KT 10SM BKN080 BKN090 32/24 A2996 260 65 2300 000/00 RMK AO2 RAB17E28 P0000 T03170244
53988KBKB BKB20190719163513307/19/19 16:35:31  5-MIN KBKB 192235Z AUTO 00000KT 10SM SCT075 BKN090 31/24 A2996 260 65 2200 000/00 RMK AO2 RAB17E28 P0000 T03110239
53988KBKB BKB20190719164013307/19/19 16:40:31  5-MIN KBKB 192240Z AUTO 00000KT 10SM SCT075 SCT100 31/24 A2996 260 67 2200 000/00 RMK AO2 RAB17E28 P0000 T03110244
53988KBKB BKB20190719164513307/19/19 16:45:31  5-MIN KBKB 192245Z AUTO 00000KT 10SM FEW075 SCT090 31/24 A2996 260 67 2200 000/00 RMK AO2 RAB17E28 P0000 T03110244
53988KBKB BKB20190719165014007/19/19 16:50:31  5-MIN KBKB 192250Z AUTO 00000KT 10SM FEW080 SCT095 32/24 A2996 260 65 2300 000/00 RMK AO2 RAB17E28 SLP169 P0000 T03170244
53988KBKB BKB20190719165511307/19/19 16:55:31  5-MIN KBKB 192255Z AUTO 00000KT 6SM HZ FEW085 32/25 A2996 270 65 2300 000/00 RMK AO2 T03220250
53988KBKB BKB20190719170012007/19/19 17:00:31  5-MIN KBKB 192300Z AUTO VRB03KT 5SM HZ FEW043 SCT090 32/24 A2996 270 63 2300 VRB/03 RMK AO2 T03220244
53988KBKB BKB20190719170512407/19/19 17:05:31  5-MIN KBKB 192305Z AUTO VRB04KT 8SM SCT043 SCT060 BKN090 32/24 A2996 260 63 2300 VRB/04 RMK AO2 T03220244
53988KBKB BKB20190719171009807/19/19 17:10:31  5-MIN KBKB 192310Z AUTO VRB03KT 10SM SCT043 SCT060 SCT085 32/24 A2996 260 63 23
53988KBKB BKB20190719175516207/19/19 17:55:31  5-MIN KBKB 192355Z AUTO VRB03KT 10SM FEW070 31/24MK AO2 T030002B 200020Z AUTO VRB03KT 10SM CLR 29/24 A2996 260 71 2000 VRB/03 RMK AO2 T02940239
53988KBKB BKB20190719182510807/19/19 18:25:31  5-MIN KBKB 200025Z AUTO 00000KT 10SM CLR 29/24 A2996 260 74 2000 000/00 RMK AO2 T02940244
53988KBKB BKB20190719183010807/19/19 18:30:31  5-MIN KBKB 200030Z AUTO 00000KT 10SM CLR 29/24 A2997 260 71 2000 000/00 RMK AO2 T02940239
53988KBKB BKB20190719183510807/19/19 18:35:31  5-MIN KBKB 200035Z AUTO 00000KT 10SM CLR 29/24 A2997 260 74 2000 000/00 RMK AO2 T02940244
53988KBKB BKB20190719184010807/19/19 18:40:31  5-MIN KBKB 200040Z AUTO 00000KT 10SM CLR 29/24 A2997 260 74 1900 000/00 RMK AO2 T02890239
53988KBKB BKB20190719184510807/19/19 18:45:31  5-MIN KBKB 200045Z AUTO 00000KT 10SM CLR 29/24 A2997 250 76 1900 000/00 RMK AO2 T02890244
53988KBKB BKB20190719185011507/19/19 18:50:31  5-MIN KBKB 200050Z AUTO 00000KT 10SM CLR 29/24 A2997 250 74 1900 000/00 RMK AO2 SLP173 T02890239
53988KBKB BKB20190719185510807/19/19 18:55:31  5-MIN KBKB 200055Z AUTO 00000KT 10SM CLR 29/24 A2997 250 74 1900 000/00 RMK AO2 T02890239
53988KBKB BKB20190719190010807/19/19 19:00:31  5-MIN KBKB 200100Z AUTO 00000KT 10SM CLR 28/24 A2997 250 79 1900 000/00 RMK AO2 T02830244
53988KBKB BKB20190719190510807/19/19 19:05:31  5-MIN KBKB 200105Z AUTO 00000KT 10SM CLR 28/24 A2997 250 79 1900 000/00 RMK AO2 T02830244
53988KBKB BKB20190719191012407/19/19 19:10:31  5-MIN KBKB 200110Z AUTO 00000KT 10SM CLR 28/24 A2998 250 79 1900 000/00  84 1700 VRB/03 RMK AO2 T02670239
53988KBKB BKB20190719212010807/19/19 21:20:31  5-MIN KBKB 200320Z AUTO 00000KT 10SM CLR 27/24 A2999 240 84 1700 000/00 RMK AO2 T02670239
53988KBKB BKB20190719212510807/19/19 21:25:31  5-MIN KBKB 200325Z AUTO 00000KT 10SM CLR 27/24 A2999 230 84 1700 000/00 RMK AO2 T02670239
53988KBKB BKB20190719213010807/19/19 21:30:31  5-MIN KBKB 200330Z AUTO 00000KT 10SM CLR 27/24 A2999 230 87 1700 000/00 RMK AO2 T02670244
53988KBKB BKB20190719213510807/19/19 21:35:31  5-MIN KBKB 200335Z AUTO 00000KT 10SM CLR 27/24 A2999 230 87 1700 000/00 RMK AO2 T02670244
53988KBKB BKB20190719214010807/19/19 21:40:31  5-MIN KBKB 200340Z AUTO 00000KT 10SM CLR 26/24 A2999 230 90 1600 000/00 RMK AO2 T02610244
53988KBKB BKB20190719214510807/19/19 21:45:31  5-MIN KBKB 200345Z AUTO 00000KT 10SM CLR 26/24 A2999 230 90 1600 000/00 RMK AO2 T02610244
53988KBKB BKB20190719215010707/19/19 21:50:31  5-MIN KBKB 200350Z AUTO 00000KT 10SM CLR 26/24 A2999 230 90 1600 000/00 RMKAO2 T02500239
53988KBKB BKB20190720001010807/20/19 00:10:31  5-MIN KBKB 200610Z AUTO 00000KT 10SM CLR 25/24 A2998 240 93 1500 000/00 RMK AO2 T02500239
53988KBKB BKB20190720001510807/20/19 00:15:31  5-MIN KBKB 200615Z AUTO 00000KT 10SM CLR 25/24 A2998 240 93 1500 000/00 RMK AO2 T02500239
53988KBKB BKB20190720002010807/20/19 00:20:31  5-MIN KBKB 200620Z AUTO 00000KT 10SM CLR 25/24 A2998 240 93 1500 000/00 RMK AO2 T02500239
53988KBKB BKB20190720002509207/20/19 00:25:31  5-MIN KBKB 200625Z AUTO 00000KTA2997 250 93 1500 000/00 RMK AO2 T02500239
53988KBKB BKB20190720011510707/20/19 01:15:31  5-MIN KBKB 200715Z AUTO 00000KT 8SM CLR 24/24 A2997 250 97 1400 000/00 RMK AO2 T02440239
53988KBKB BKB20190720012010707/20/19 01:20:31  5-MIN KBKB 200720Z AUTO 00000KT 7SM CLR 24/24 A2997 250 97 1400 000/00 RMK AO2 T02440239
53988KBKB BKB20190720012516707/20/19 01:25:31  5-MIN KBKB 200725Z AUTO 00000KT 7SM CLR 24/24 A2997 250 97 1400 000/00 RMK AO2 T0244023907/20/19 01:30:31  5-MILISTING COMPLETE, 144 5MIN(S) LISTED.
53988KBKB BKB20190720120511707/20/19 12:05:31  5-MIN KBKB 201805Z AUTO VRB04KT 9SM FEW003 BKN043 33/22 A2999 240 50 2400 VRB/04 RMK AO2 T03330217
53988KBKB BKB20190720121010707/20/19 12:10:31  5-MIN KBKB 201810Z AUTO 9SM FEW003 BKN045 33/22 A2999 240 51 2400 M /M RMK AO2 T03330222
53988KBKB BKB20190720121511007/20/19 12:15:31  5-MIN KBKB 201815Z AUTO VRB05KT 9SM SCT045 33/22 A2998 240 51 2400 VRB/05 RMK AO2 T03330222
53988KBKB BKB20190720122011007/20/19 12:20:31  5-MIN KBKB 201820Z AUTO VRB04KT 9SM SCT045 33/22 A2998 240 51 2400 VRB/04 RMK AO2 T03330222
53988KBKB BKB20190720122511307/20/19 12:25:31  5-MIN KBKB 201825Z AUTO VRB03KT 4SM HZ SCT045 33/22 A2998 250 53 2400 VRB/03 RMK AO2 T03280222
53988KBKB BKB20190720123012007/20/19 12:30:31  5-MIN KBKB 201830Z AUTO VRB05KT 4SM HZ FEW003 BKN046 34/23 A2998 250 51 2500 VRB/05 RMK AO2 T03390228
53988KBKB BKB20190720123512007/20/19 12:35:31  5-MIN KBKB 201835Z AUTO VRB03KT 6SM HZ FEW002 SCT046 34/22 A2997 250 48 2500 VRB/03 RMK AO2 T03390217
53988KBKB BKB20190720124010707/20/19 12:40:31  5-MIN KBKB 201840Z AUTO 9SM FEW002 SCT046 33/22 A2997 250 53 2400 M /M RMK AO2 T03280222
53988KBKB BKB20190720124512007/20/19 12:45:31  5-MIN KBKB 201845Z AUTO VRB03KT 6SM HZ FEW002 SCT046 34/23 A2997 260 50 2600 VRB/03 RMK AO2 T03440228
53988KBKB BKB20190720125012707/20/19 12:50:31  5-MIN KBKB 201850Z AUTO VRB04KT 5SM HZ FEW002 SCT046 34/23 A2996 260 51 2500 VRB/04 RMK AO2 SLP170 T03390228
53988KBKB BKB20190720125512007/20/19 12:55:31  5-MIN KBKB 201855Z AUTO 00000KT 4SM HZ FEW002 SCT046 34/22 A2996 260 50 2500 000/00 RMK AO2 T03390222
53988KBKB BKB20190720130012007/20/19 13:00:31  5-MIN KBKB 201900Z AUTO VRB04KT 5SM HZ FEW002 FEW046 34/23 A2996 260 51 2500 VRB/04 RMK AO2 T03390228
53988KBKB BKB20190720130511707/20/19 13:05:31  5-MIN KBKB 201905Z AUTO VRB04KT 9SM FEW002 FEW046 34/22 A2996 260 50 2500 VRB/04 RMK AO2 T03390222
53988KBKB BKB20190720131012007/20/19 13:10:31  5-MIN KBKB 201910Z AUTO VRB03KT 4SM HZ FEW002 FEW055 32/22 A2996 270 53 2300 VRB/03 RMK AO2 T03220217
53988KBKB BKB20190720131512007/20/19 13:15:31  5-MIN KBKB 201915Z AUTO VRB04KT 4SM HZ FEW002 SCT049 34/22 A2995 270 48 2500 VRB/04 RMK AO2 T03390217
53988KBKB BKB20190720132011007/20/19 13:20:31  5-MIN KBKB 201920Z AUTO VRB04KT 9SM FEW049 33/22 A2995 270 51 2500 VRB/04 RMK AO2 T03330222
53988KBKB BKB20190720132511107/20/19 13:25:31  5-MIN KBKB 201925Z AUTO VRB03KT 10SM FEW049 34/22 A2995 270 50 2500 VRB/03 RMK AO2 T03390222
53988KBKB BKB20190720133011707/20/19 13:30:31  5-MIN KBKB 201930Z AUTO 00000KT 8SM FEW023 SCT055 33/22 A2995 270 53 2400 000/00 RMK AO2 T03280222
53988KBKB BKB20190720133511007/20/19 13:35:31  5-MIN KBKB 201935Z AUTO 23003KT 8SM SCT055 33/22 A2995 270 53 2400 230/03 RMK AO2 T03280222
53988KBKB BKB20190720134011707/20/19 13:40:31  5-MIN KBKB 201940Z AUTO VRB03KT 7SM BKN050 BKN060 32/23 A2995 270 57 2300 VRB/03 RMK AO2 T03220228
53988KBKB BKB20190720134512407/20/19 13:45:31  5-MIN KBKB 201945Z AUTO VRB03KT 7SM BKN050 BKN060 BKN080 33/23 A2994 280 55 2400 VRB/03 RMK AO2 T03280228
53988KBKB BKB20190720135012107/20/19 13:50:31  5-MIN KBKB 201950Z AUTO 9SM SCT050 BKN060 BKN080 34/22 A2994 280 50 2500 M /M RMK AO2 SLP163 T03390222
53988KBKB BKB20190720135512407/20/19 13:55:31  5-MIN KBKB 201955Z AUTO VRB03KT 9SM SCT050 SCT060 BKN080 34/23 A2994 280 52 2600 VRB/03 RMK AO2 T03440233
53988KBKB BKB20190720140011807/20/19 14:00:31  5-MIN KBKB 202000Z AUTO VRB03KT 10SM SCT050 BKN075 33/23 A2994 280 53 2500 VRB/03 RMK AO2 T03330228
53988KBKB BKB20190720140513107/20/19 14:05:31  5-MIN KBKB 202005Z AUTO 00000KT 2 1/2SM HZ SCT047 BKN055 BKN075 33/23 A2994 280 55 2500 000/00 RMK AO2 T03330233
53988KBKB BKB20190720141012407/20/19 14:10:31  5-MIN KBKB 202010Z AUTO VRB04KT 2 1/2SM HZ FEW049 SCT080 34/23 A2994 280 53 2500 VRB/04 RMK AO2 T03390233
53988KBKB BKB20190720141511007/20/19 14:15:31  5-MIN KBKB 202015Z AUTO 18004KT 8SM FEW049 33/23 A2994 280 53 2500 170/04 RMK AO2 T03330228
53988KBKB BKB20190720142012007/20/19 14:20:31  5-MIN KBKB 202020Z AUTO VRB04KT 4SM HZ FEW002 SCT049 34/22 A2993 290 50 2500 VRB/04 RMK AO2 T03390222
53988KBKB BKB20190720142512007/20/19 14:25:31  5-MIN KBKB 202025Z AUTO VRB04KT 5SM HZ FEW002 SCT049 33/22 A2993 290 51 2500 VRB/04 RMK AO2 T03330222
53988KBKB BKB20190720143011007/20/19 14:30:31  5-MIN KBKB 202030Z AUTO VRB04KT 9SM FEW049 33/22 A2993 290 51 2500 VRB/04 RMK AO2 T03330222
53988KBKB BKB20190720143511107/20/19 14:35:31  5-MIN KBKB 202035Z AUTO VRB04KT 10SM FEW049 34/23 A2993 290 50 2600 VRB/04 RMK AO2 T03440228
53988KBKB BKB20190720144011107/20/19 14:40:31  5-MIN KBKB 202040Z AUTO 00000KT 10SM FEW050 33/22 A2993 280 53 2400 000/00 RMK AO2 T03280222
53988KBKB BKB20190720144511707/20/19 14:45:31  5-MIN KBKB 202045Z AUTO VRB03KT 9SM FEW050 SCT070 33/23 A2994 280 55 2400 VRB/03 RMK AO2 T03280228
53988KBKB BKB20190720145012007/20/19 14:50:31  5-MIN KBKB 202050Z AUTO VRB04KT 2SM HZ FEW050 SCT070 34/23 A2993 290 50 2600 VRB/04 RMK AO2 VIS 1/2V5
53988KBKB BKB20190720145513007/20/19 14:55:31  5-MIN KBKB 202055Z AUTO VRB04KT 2SM HZ FEW050 SCT070 34/23 A2993 290 50 2600 VRB/04 RMK AO2 VIS 1/2V5 T03440228
53988KBKB BKB20190720150011707/20/19 15:00:31  5-MIN KBKB 202100Z AUTO 00000KT 8SM FEW050 FEW070 34/23 A2993 290 50 2600 000/00 RMK AO2 T03440228
53988KBKB BKB20190720150512707/20/19 15:05:31  5-MIN KBKB 202105Z AUTO VRB04KT 6SM HZ FEW002 SCT050 SCT070 34/23 A2993 290 50 2600 VRB/04 RMK AO2 T03440228
53988KBKB BKB20190720151013107/20/19 15:10:31  5-MIN KBKB 202110Z AUTO 00000KT 2 1/2SM HZ FEW002 SCT050 SCT065 34/23 A2993 290 51 2500 000/00 RMK AO2 T03390228
53988KBKB BKB20190720151513207/20/19 15:15:31  5-MIN KBKB 202115Z AUTO VRB03KT 2 1/2SM HZ FEW002 SCT050 34/22 A2993 290 50 2500 VRB/03 RMK AO2 VIS 1V5 T03390222
53988KBKB BKB20190720152012007/20/19 15:20:31  5-MIN KBKB 202120Z AUTO VRB03KT 5SM HZ SCT050 SCT060 34/23 A2993 290 50 2600 VRB/03 RMK AO2 T03440228
53988KBKB BKB20190720152512007/20/19 15:25:31  5-MIN KBKB 202125Z AUTO VRB03KT 6SM HZ FEW050 SCT060 34/23 A2993 290 50 2600 VRB/03 RMK AO2 T03440228
53988KBKB BKB20190720153012707/20/19 15:30:31  5-MIN KBKB 202130Z AUTO VRB03KT 6SM HZ FEW001 FEW050 SCT060 34/23 A2993 290 50 2600 VRB/03 RMK AO2 T03440228
53988KBKB BKB20190720153512007/20/19 15:35:31  5-MIN KBKB 202135Z AUTO VRB05KT 6SM HZ FEW050 SCT060 33/22 A2993 290 51 2500 VRB/05 RMK AO2 T03330222
53988KBKB BKB20190720154011007/20/19 15:40:31  5-MIN KBKB 202140Z AUTO VRB03KT 9SM SCT055 33/22 A2993 290 53 2400 VRB/03 RMK AO2 T03280222
53988KBKB BKB20190720154511807/20/19 15:45:31  5-MIN KBKB 202145Z AUTO 00000KT 10SM SCT050 BKN070 33/23 A2993 290 53 2500 000/00 RMK AO2 T03330228
53988KBKB BKB20190720155013407/20/19 15:50:31  5-MIN KBKB 202150Z AUTO VRB03KT 6SM HZ FEW050 SCT070 SCT085 34/23 A2993 290 53 2500 VRB/03 RMK AO2 SLP158 T03390233
53988KBKB BKB20190720155512707/20/19 15:55:31  5-MIN KBKB 202155Z AUTO VRB03KT 6SM HZ SCT050 SCT070 BKN090 34/23 A2993 290 53 2500 VRB/03 RMK AO2 T03390233
53988KBKB BKB20190720160012007/20/19 16:00:31  5-MIN KBKB 202200Z AUTO VRB04KT 5SM HZ BKN050 BKN070 33/23 A2993 290 53 2500 VRB/04 RMK AO2 T03330228
53988KBKB BKB20190720160513407/20/19 16:05:31  5-MIN KBKB 202205Z AUTO VRB03KT 2 1/2SM HZ BKN050 BKN075 34/23 A2993 290 53 2500 VRB/03 RMK AO2 VIS 3/4V5 T03390233
53988KBKB BKB20190720161013707/20/19 16:10:31  5-MIN KBKB 202210Z AUTO VRB04KT 2SM HZ FEW002 SCT050 BKN075 34/23 A2993 290 53 2500 VRB/04 RMK AO2 VIS 3/4V5 T03390233
53988KBKB BKB20190720161511007/20/19 16:15:31  5-MIN KBKB 202215Z AUTO 4SM HZ FEW002 SCT050 34/23 A2993 290 53 2500 M /M RMK AO2 T03390233
53988KBKB BKB20190720162011007/20/19 16:20:31  5-MIN KBKB 202220Z AUTO 15004KT 7SM FEW050 33/23 A2992 300 55 2500 140/04 RMK AO2 T03330233
53988KBKB BKB20190720162511007/20/19 16:25:31  5-MIN KBKB 202225Z AUTO VRB03KT 9SM FEW050 34/23 A2992 300 53 2600 VRB/03 RMK AO2 T03390233
53988KBKB BKB20190720163011307/20/19 16:30:31  5-MIN KBKB 202230Z AUTO VRB03KT 5SM HZ FEW002 33/23 A2992 300 55 2400 VRB/03 RMK AO2 T03280228
53988KBKB BKB20190720163511307/20/19 16:35:31  5-MIN KBKB 202235Z AUTO 00000KT 5SM HZ FEW002 33/24 A2992 300 57 2500 000/00 RMK AO2 T03330239
53988KBKB BKB20190720164010807/20/19 16:40:31  5-MIN KBKB 202240Z AUTO 17004KT 10SM CLR 34/23 A2992 300 53 2600 170/04 RMK AO2 T03390233
53988KBKB BKB20190720164510807/20/19 16:45:31  5-MIN KBKB 202245Z AUTO VRB03KT 10SM CLR 33/23 A2992 300 53 2500 VRB/03 RMK AO2 T03330228
53988KBKB BKB20190720165011707/20/19 16:50:31  5-MIN KBKB 202250Z AUTO 00000KT 5SM HZ CLR 34/23 A2992 300 53 2600 000/00 RMK AO2 SLP156 T03390233
53988KBKB BKB20190720165511007/20/19 16:55:31  5-MIN KBKB 202255Z AUTO VRB04KT 4SM HZ CLR 33/23 A2992 300 53 2500 VRB/04 RMK AO2 T03330228
53988KBKB BKB20190720170012707/20/19 17:00:31  5-MIN KBKB 202300Z AUTO VRB03KT 1 3/4SM HZ FEW002 33/23 A2992 300 57 2400 VRB/03 RMK AO2 VIS 1/2V5 T03280233
53988KBKB BKB20190720170512707/20/19 17:05:31  5-MIN KBKB 202305Z AUTO VRB03KT 1 1/4SM HZ FEW002 32/23 A2992 300 57 2400 VRB/03 RMK AO2 VIS 1/2V5 T03220228
53988KBKB BKB20190720171011307/20/19 17:10:31  5-MIN KBKB 202310Z AUTO 00000KT 3SM HZ FEW002 32/23 A2992 300 59 2400 000/00 RMK AO2 T03220233
53988KBKB BKB20190720171511007/20/19 17:15:31  5-MIN KBKB 202315Z AUTO 00000KT 7SM FEW002 32/24 A2992 300 63 2300 000/00 RMK AO2 T03170239
53988KBKB BKB20190720172011007/20/19 17:20:31  5-MIN KBKB 202320Z AUTO 00000KT 7SM FEW002 32/24 A2992 300 63 2300 000/00 RMK AO2 T03170239
53988KBKB BKB20190720172511107/20/19 17:25:31  5-MIN KBKB 202325Z AUTO 00000KT 10SM FEW002 32/24 A2992 300 61 2400 000/00 RMK AO2 T03220239
53988KBKB BKB20190720173010807/20/19 17:30:31  5-MIN KBKB 202330Z AUTO VRB04KT 10SM CLR 32/23 A2992 300 59 2400 VRB/04 RMK AO2 T03220233
53988KBKB BKB20190720173510807/20/19 17:35:31  5-MIN KBKB 202335Z AUTO 00000KT 10SM CLR 32/24 A2992 300 63 2300 000/00 RMK AO2 T03170239
53988KBKB BKB20190720174010807/20/19 17:40:31  5-MIN KBKB 202340Z AUTO 00000KT 10SM CLR 32/24 A2993 290 63 2300 000/00 RMK AO2 T03170239
53988KBKB BKB20190720174510807/20/19 17:45:31  5-MIN KBKB 202345Z AUTO VRB03KT 10SM CLR 32/24 A2993 290 63 2300 VRB/03 RMK AO2 T03170239
53988KBKB BKB20190720175013307/20/19 17:50:31  5-MIN KBKB 202350Z AUTO VRB03KT 10SM CLR 32/23 A2992 290 61 2300 VRB/03 RMK AO2 SLP158 T03170233 10344 20317 56020
53988KBKB BKB20190720175511307/20/19 17:55:31  5-MIN KBKB 202355Z AUTO 00000KT 2SM HZ FEW001 32/23 A2992 300 61 2300 000/00 RMK AO2 T03170233
53988KBKB BKB20190720180011407/20/19 18:00:31  5-MIN KBKB 210000Z AUTO 00000KT 1/2SM HZ VV002 32/24 A2992 290 63 2300 000/00 RMK AO2 T03170239
53988KBKB BKB20190720180513907/20/19 18:05:31  5-MIN KBKB 210005Z AUTO VRB03KT 3/4SM HZB04KT 10SM SCT025 BKN035 OVC044 28/23 A2996 260 74 1900 VRB/04 RMK AO2 T02830233
53988KBKB BKB20190720191513407/20/19 19:15:31  5-MIN KBKB 210115Z AUTO 00000KT 10SM TS SCT028 BKN039 OVC070 28/23 A2996 260 74 1800 000/00 RMK AO2 TSB14 T02780228
53988KBKB BKB20190720192013407/20/19 19:20:31  5-MIN KBKB 210120Z AUTO VRB05KT 10SM TS FEW026 BKN034 BKN044 28/23 A2997 260 74 1800 VRB/05 RMK AO2 TSB14 T02780228
53988KBKB BKB20190720192513407/20/19 19:25:31  5-MIN KBKB 210125Z AUTO 15005KT 10SM TS SCT029 BKN040 BKN055 28/22 A2996 260 71 1800 150/05 RMK AO2 TSB14 T02780222
53988KBKB BKB20190720193009607/20/19 19:30:31  5-MIN KBKB 210130Z AUTO 10SM FEW029 SCT040 SCT055 27/22 /04 RMK AO2 T02830233
53988KBKB BKB20190720193012407/20/19 19:30:31  5-MIN KBKB 210130Z AUTO 10SM FEW029 SCT040 SCT055 27/22 A2996 260 74 1800 M /M RMK AO2 TSB14E29 T02720222
53988KBKB BKB20190720193513407/20/19 19:35:31  5-MIN KBKB 210135Z AUTO VRB03KT 10SM FEW029 FEW041 FEW055 27/22 A2995 270 74 1800 VRB/03 RMK AO2 TSB14E29 T02720222
53988KBKB BKB20190720193519507/20/19 19:35:31  5-MIN KBKB 210135Z AUTO VRB03KT 10SM FEW029 FEW041 FEW055 27/22 A2995 270 74 1800 VRB/03 RMK AO2 TSB14E29 T02720222BKN044 28/23 A2997 260 74 1800 VRB/05 RMK AO2 TSB14 T02780228
53988KBKB BKB20190720194012707/20/19 19:40:31  5-MIN KBKB 210140Z AUTO VRB03KT 10SM FEW033 FEW060 27/22 A2995 270 74 1800 VRB/03 RMK AO2 TSB14E29 T02720222
53988KBKB BKB20190720194511107/20/19 19:45:31  5-MIN KBKB 210145Z AUTO VRB03KT 10SM FEW033 27/22 A2995 270 76 1700 VRB/03 RMK AO2 TS2780222
53988KBKB BKB20190720194512007/20/19 19:45:31  5-MIN KBKB 210145Z AUTO VRB03KT 10SM FEW033 27/22 A2995 270 76 1700 VRB/03 RMK AO2 TSB14E29 T02670222
53988KBKB BKB20190720195012307/20/19 19:50:31  5-MIN KBKB 210150Z AUTO VRB03KT 9SM CLR 27/22 A2995 270 76 1700 VRB/03 RMK AO2 TSB14E29 SLP166 T02670222
53988KBKB BKB20190720195510707/20/19 19:55:31  5-MIN KBKB 210155Z AUTO VRB03KT 9SM CLR 27/22 A2995 270 76 1700 VRB/03 RMK AO2 T02670222
53988KBKB BKB20190720200010807/20/19 20:00:31  5-MIN KBKB 210200Z AUTO VRB03KT 10SM CLR 27/22 A2994 280 76 1700 VRB/03 RMK AO2 T02670222
53988KBKB BKB20190720200510807/20/19 20:05:31  5-MIN KBKB 210205Z AUTO VRB03KT 10SM CLR 27/22 A2995 270 76 1700 VRB/03 RMK AO2 T02670222
53988KBKB BKB20190720201010807/20/19 20:10:31  5-MIN KBKB 210210Z AUTO 00000KT 10SM CLR 27/22 A2995 270 76 1700 000/00 RMK AO2 T02670222
53988KBKB BKB20190720201510807/20/19 20:15:31  5-MIN KBKB 210215Z AUTO 00000KT 10SM CLR 26/22 A2995 270 79 1700 000/00 RMK AO2 T02610222
53988KBKB BKB20190720202010807/20/19 20:20:31  5-MIN KBKB 210220Z AUTO 00000KT 10SM CLR 26/22 A2995 270 79 1700 000/00 RMK AO2 T02610222
53988KBKB BKB20190720202510807/20/19 20:25:31  5-MIN KBKB 210225Z AUTO 00000KT 10SM CLR 26/22 A2995 270 79 1700 000/00 RMK AO2 T02610222
53988KBKB BKB20190720203010707/20/19 20:30:31  5-MIN KBKB 210230Z AUTO 00000KT 7SM CLR 26/22 A2995 270 79 1700 000/00 RMK AO2 T02610222
53988KBKB BKB20190720203511007/20/19 20:35:31  5-MIN KBKB 210235Z AUTO 00000KT 6SM HZ CLR 26/22 A2995 270 79 1700 000/00 RMK AO2 T02610222
53988KBKB BKB20190720204009207/20/19 20:40:31  5-MIN KBKB 210240Z AUTO VRB03KT 9SM CLR 26/ 1600 VRB/03 RMK AO2 T02560233
53988KBKB BKB20190720224010807/20/19 22:40:31  5-MIN KBKB 210440Z AUTO 00000KT 10SM CLR 26/23 A2995 270 87 1600 000/00 RMK AO2 T02560233
53988KBKB BKB20190720224510807/20/19 22:45:31  5-MIN KBKB 210445Z AUTO 00000KT 10SM CLR 26/23 A2995 270 87 1600 000/00 RMK AO2 T02560233
53988KBKB BKB20190720225011507/20/19 22:50:31  5-MIN KBKB 210450Z AUTO 00000KT 10SM CLR 26/23 A2995 270 87 1600 000/00 RMK AO2 SLP165 T02560233
53988KBKB BKB20190720225510807/20/19 22:55:31  5-MIN KBKB 210455Z AUTO VRB03KT 10SM CLR 26/23 A2995 270 87 1600 VRB/03 RMK AO2 T02560233
53988KBKB BKB20190720230005507/20/19 23:00:31  5-MIN KBKB 210500Z AMK AO2 T02560233
53988KBKB BKB20190720230010807/20/19 23:00:31  5-MIN KBKB 210500Z AUTO 00000KT 10SM CLR 26/23 A2995 270 87 1600 000/00 RMK AO2 T02560233
53988KBKB BKB20190720230510807/20/19 23:05:31  5-MIN KBKB 210505Z AUTO 00000KT 10SM CLR 26/23 A2995 270 87 1600 000/00 RMK AO2 T02560233
53988KBKB BKB20190720230516307/20/19 23:05:31  5-MIN KBKB 210505Z AUTO 00000KT 10SM CLR 26/23 A2995 270 87 1600 000/00 RMK AO2 T020KT 10SM CLR 26/23 A2995 270 87 1600 000/00 RMK AO2 T02560233
53988KBKB BKB20190720231010807/20/19 23:10:31  5-MIN KBKB 210510Z AUTO 00000KT 10SM CLR 26/23 A2995 270 87 1600 000/00 RMK AO2 T02560233
53988KBKB BKB20190720231510807/20/19 23:15:31  5-MIN KBKB 210515Z AUTO 00000KT 10SM CLR 26/23 A2995 270 87 1600 000/00 RMK AO2 T02560233
53988KBKB BKB20190720231516807/20/19 23:15:31  5-MIN KBKB 210515Z AUTO 00000KT 10SM CLR 26/23 A2995 270 87 1600 000/00 RMK AO2 T0256023307/20SM CLR 26/23 A2995 270 87 1600 VRB/03 RMK AO2 T02560233
53988KBKB BKB20190720232010807/20/19 23:20:31  5-MIN KBKB 210520Z AUTO VRB03KT 10SM CLR 25/23 A2995 270 90 1500 VRB/03 RMK AO2 T02500233
53988KBKB BKB20190720232510807/20/19 23:25:31  5-MIN KBKB 210525Z AUTO 00000KT 10SM CLR 25/23 A2995 270 90 1500 000/00 RMK AO2 T02500233
53988KBKB BKB20190720232516807/20/19 23:25:31  5-MIN KBKB 210525Z AUTO 00000KT 10SM CLR 25/23 A2995 270 90 1500 000/00 RMK AO2 T0250023307/20/19 23:30/23 A2995 270 87 1600 000/00 RMK AO2 T02560233
53988KBKB BKB20190720233010807/20/19 23:30:31  5-MIN KBKB 210530Z AUTO 00000KT 10SM CLR 25/23 A2995 270 90 1500 000/00 RMK AO2 T02500233
53988KBKB BKB20190720233510807/20/19 23:35:31  5-MIN KBKB 210535Z AUTO 00000KT 10SM CLR 25/23 A2995 270 90 1500 000/00 RMK AO2 T02500233
53988KBKB BKB20190720233516807/20/19 23:35:31  5-MIN KBKB 210535Z AUTO 00000KT 10SM CLR 25/23 A2995 270 90 1500 000/00 RMK AO2 T025002330T 10SM CLR 26/23 A2995 270 87 1600 000/00 RMK AO2 T02560233
53988KBKB BKB20190720234008107/20/19 23:40:31  5-MIN KBKB 210540Z AUTO 00000KT 10SM CLR /00 RMK AO2 T02440233
53988KBKB BKB20190720234010807/20/19 23:40:31  5-MIN KBKB 210540Z AUTO 00000KT 10SM CLR 25/23 A2995 270 90 1500 000/00 RMK AO2 T02500233
53988KBKB BKB20190720234516807/20/19 23:45:31  5-MIN KBKB 210545Z AUTO 00000KT 10SM CLR 25/23 A2995 270 90 1500 000/00 RMK AO2 T0250023307/20SM CLR 25/23 A2995 270 90 1500 000/00 RMK AO2 T02500233
53988KBKB BKB20190722063512507/22/19 06:35:31  5-MIN KBKB 221235Z AUTO 00000KT 10SM SCT001 BKN005 BKN100 23/22 A2999 230 97 1200 000/00 RMK AO2 T02280222
53988KBKB BKB20190722064011807/22/19 06:40:31  5-MIN KBKB 221240Z AUTO 00000KT 10SM BKN001 OVC005 23/22 A2999 240 97 1200 000/00 RMK AO2 T02280222
53988KBKB BKB20190722064511807/22/19 06:45:31  5-MIN KBKB 221245Z AUTO 00000KT 10SM BKN001 BKN007 23/22 A2999 240 97 1200 000/00 RMK AO2 T02280222
53988KBKB BKB20190722065012507/22/19 06:50:31  5-MIN KBKB 221250Z AUTO 00000KT 10SM BKN001 BKN009 23/22 A2999 240 97 1200 000/00 RMK AO2 SLP181 T02280222
53988KBKB BKB20190722065512507/22/19 06:55:31  5-MIN KBKB 221255Z AUTO 00000KT 10SM BKN001 BKN009 OVC013 23/22 A2999 230 93 1300 000/00 RMK AO2 T02330222
53988KBKB BKB20190722070011807/22/19 07:00:31  5-MIN KBKB 221300Z AUTO 00000KT 10SM SCT001 OVC011 23/23 A2999 240 97 1300 000/00 RMK AO2 T02330228
53988KBKB BKB20190722070511807/22/19 07:05:31  5-MIN KBKB 221305Z AUTO 00000KT 10SM SCT001 BKN011 23/23 A2998 240 97 1300 000/00 RMK AO2 T02330228
53988KBKB BKB20190722071011807/22/19 07:10:31  5-MIN KBKB 221310Z AUTO 00000KT 10SM SCT001 BKN011 23/22 A2998 240 93 1300 000/00 RMK AO2 T02330222
53988KBKB BKB20190722071511807/22/19 07:15:31  5-MIN KBKB 221315Z AUTO 00000KT 10SM SCT002 BKN011 23/23 A2998 240 97 1300 000/00 RMK AO2 T02330228
53988KBKB BKB20190722072011807/22/19 07:20:31  5-MIN KBKB 221320Z AUTO 00000KT 10SM SCT002 BKN011 23/23 A2998 240 97 1300 000/00 RMK AO2 T02330228
53988KBKB BKB20190722072511807/22/19 07:25:31  5-MIN KBKB 221325Z AUTO 00000KT 10SM FEW002 BKN011 24/23 A2998 240 93 1400 000/00 RMK AO2 T02390228
53988KBKB BKB20190722073011807/22/19 07:30:31  5-MIN KBKB 221330Z AUTO 00000KT 10SM FEW002 SCT011 24/23 A2999 240 93 1400 000/00 RMK AO2 T02390228
53988KBKB BKB20190722073511807/22/19 07:35:31  5-MIN KBKB 221335Z AUTO 00000KT 10SM FEW002 SCT010 24/23 A2999 240 97 1400 000/00 RMK AO2 T02390233
53988KBKB BKB20190722074011807/22/19 07:40:31  5-MIN KBKB 221340Z AUTO 00000KT 10SM FEW002 SCT010 24/23 A2999 240 93 1400 000/00 RMK AO2 T02440233
53988KBKB BKB20190722074511807/22/19 07:45:31  5-MIN KBKB 221345Z AUTO 00000KT 10SM FEW002 SCT010 24/23 A2999 230 93 1400 000/00 RMK AO2 T02440233
53988KBKB BKB20190722075012507/22/19 07:50:31  5-MIN KBKB 221350Z AUTO 00000KT 10SM FEW002 FEW010 24/23 A3000 230 93 1400 000/00 RMK AO2 SLP183 T02440233
53988KBKB BKB20190722075511107/22/19 07:55:31  5-MIN KBKB 221355Z AUTO 00000KT 10SM FEW004 24/24 A3000 230 97 1400 000/00 RMK AO2 T02440239
53988KBKB BKB20190722080011807/22/19 08:00:31  5-MIN KBKB 221400Z AUTO 00000KT 10SM FEW004 SCT012 24/24 A3000 230 97 1400 000/00 RMK AO2 T02440239
53988KBKB BKB20190722080511807/22/19 08:05:31  5-MIN KBKB 221405Z AUTO 00000KT 10SM SCT004 BKN012 24/24 A3000 230 97 1400 000/00 RMK AO2 T02440239
53988KBKB BKB20190722081014207/22/19 08:10:31  5-MIN KBKB 221410Z AUTO 00031  5-MIN KBKB 221615Z AUTO VRB03KT 10SM BKN017 29/24 A2999 230 76 1900 VRB/03 RMK AO2 T02890244
53988KBKB BKB20190722102011107/22/19 10:20:31  5-MIN KBKB 221620Z AUTO VRB04KT 10SM BKN017 29/24 A2999 230 74 2000 VRB/04 RMK AO2 T02940244
53988KBKB BKB20190722102511107/22/19 10:25:31  5-MIN KBKB 221625Z AUTO 00000KT 10SM BKN017 29/24 A2999 230 76 1900 000/00 RMK AO2 T02890244
53988KBKB BKB20190722103011107/22/19 10:30:31  5-MIN KBKB 221630Z AUTO 00000KT 10SM BKN017 29/24 A2999 230 74 2000 000/00 RMK AO2 T02940244
53988KBKB BKB20190722103511107/22/19 10:35:31  5-MIN KBKB 221635Z AUTO VRB03KT 10SM BKN017 29/24 A2999 230 74 2000 VRB/03 RMK AO2 T02940244
53988KBKB BKB20190722104010807/22/19 10:40:31  5-MIN KBKB 221640Z AUTO 10SM SCT017 BKN022 30/24 A2999 230 69 2000 M /M RMK AO2 T03000239
53988KBKB BKB20190722104518007/22/19 10:45:31  5-MIN KBKB 221645Z AUTO VRB04KT 10SM SCT019 30/24 A2999 230 69 2000 VRB/04 RMK AO2 T03000239A BKN110 26/24 A2996 260 87 1600 090/03 RMK AO2 TSE43 P0001 T02610239
53988KBKB BKB20190722125014807/22/19 12:50:31  5-MIN KBKB 221850Z AUTO 00000KT 10SM -RA FEW065 BKN100 BKN120 26/24 A2996 260 87 1600 000/00 RMK AO2 TSE43 SLP171 P0001 T02610239
53988KBKB BKB20190722125517107/22/19 12:55:31  5-MIN KBKB 221855Z AUTO 00000KT 10SM -RA FEW044 SCT090 BKN110 26/24 A2996 270 90 1600 000/00 RMK AO2 P0000 T02560239310 63 2300 000/00 RMK AO2 T03170239
53988KBKB BKB20190722151511107/22/19 15:15:31  5-MIN KBKB 222115Z AUTO VRB05KT 10SM FEW060 32/24 A2991 310 63 2400 VRB/05 RMK AO2 T03220244
53988KBKB BKB20190722152011107/22/19 15:20:31  5-MIN KBKB 222120Z AUTO VRB05KT 10SM FEW060 32/24 A2990 320 65 2300 VRB/05 RMK AO2 T03170244
53988KBKB BKB20190722152511607/22/19 15:25:31  5-MIN KBKB 222125Z AUTO VRB03KT 10SM VCTS FEW060 32/24 A2990 320 65 2300 VRB/03 RMK AO2 T03170244
53988KBKB BKB20190722153012007/22/19 15:30:31  5-MIN KBKB 222130Z AUTO VRB03KT 10SM TS FEW060 31/24 A2991 310 67 2300 VRB/03 RMK AO2 TSB26 T03110244
53988KBKB BKB20190722153512007/22/19 15:35:31  5-MIN KBKB 222135Z AUTO VRB03KT 10SM TS FEW060 31/25 A2991 310 69 2300 VRB/03 RMK AO2 TSB26 T03110250
53988KBKB BKB20190722154012907/22/19 15:40:31  5-MIN KBKB 222140Z AUTO VRB03KT 10SM TS CLR 31/25 A2990 310 69 2300 VRB/03 RMK AO2000 VRB/03 RMK AO2 T02830244
53988KBKB BKB20190722173511707/22/19 17:35:31  5-MIN KBKB 222335Z AUTO 00000KT 10SM TS CLR 28/24 A2990 320 79 2000 000/00 RMK AO2 TSB35 T02830244
53988KBKB BKB20190722174011707/22/19 17:40:31  5-MIN KBKB 222340Z AUTO 00000KT 10SM TS CLR 28/24 A2989 330 82 1900 000/00 RMK AO2 TSB35 T02780244
53988KBKB BKB20190722174511707/22/19 17:45:31  5-MIN KBKB 222345Z AUTO 00000KT 10SM TS CLR 28/24 A2990 320 82 1900 000/00 RMK AO2 TSB35 T02780244
53988KBKB BKB20190722175010707/22/19 17:50:31  5-MIN KBKB 222350Z AUTO 00000KT 10SM CLR 28/24 A2991 310 82 1900 000/00 RMK AO2 TSB35E50
53988KBKB BKB20190722175511507/22/19 17:55:31  5-MIN KBKB 222355Z AUTO 00000KT 10SM CLR 28/24 A2992 300 82 1900 000/00 RMK AO2 PRESRR T02780244
53988KBKB BKB20190722180010807/22/19 18:00:31  5-MIN KBKB 230000Z AUTO VRB03KT 10SM CLR 28/24 A2992 300 82 1900 VRB/03 RMK AO2 T02780244
53988KBKB BKB20190722180515607/22/19 18:05:31  5-MIN KBKB 230005Z AUTO 00000KT 10S19 18:30:31  5-MIN KBKB 230030Z AUTO VRB03KT 10SM CLR 27/24 A2992 290 84 1800 VRB/03 RMK AO2 T02720244
53988KBKB BKB20190723154010807/23/19 15:40:31  5-MIN KBKB 232140Z AUTO VRB05KT 10SM CLR 28/18 A2995 280 56 1800 VRB/05 RMK AO2 T02780183
53988KBKB BKB20190723154509807/23/19 15:45:31  5-MIN KBKB 232145Z AUTO 10SM CLR 29/18 A2994 280 52 2000 M /M RMK AO2 T02890183
53988KBKB BKB20190723155013107/23/19 15:50:31  5-MIN KBKB 232150Z AUTO 35007KT 270V040 10SM CLR 29/19 A2994 280 52 2000 350/07 270V040 RMK AO2 SLP164 T02940189
53988KBKB BKB20190723155512407/23/19 15:55:31  5-MIN KBKB 232155Z AUTO 01008KT 340V040 10SM CLR 29/18 A2994 280 50 2000 360/08 340V040 RMK AO2 T02940183
53988KBKB BKB20190723160010807/23/19 16:00:31  5-MIN KBKB 232200Z AUTO VRB05KT 10SM CLR 29/18 A2994 280 50 2000 VRB/05 RMK AO2 T02940183
53988KBKB BKB20190723160510807/23/19 16:05:31  5-MIN KBKB 232205Z AUTO VRB06KT 10SM CLR 29/18 A2994 280 50 2000 VRB/06 RMK AO2 T02940183
53988KBKB BKB20190723161010807/23/19 16:10:31  5-MIN KBKB 232210Z AUTO 36004KT 10SM CLR 29/18 A2994 280 52 2000 360/04 RMK AO2 T02890183
53988KBKB BKB20190723161509807/23/19 16:15:31  5-MIN KBKB 232215Z AUTO 10SM CLR 29/18 A2994 280 52 2000 M /M RMK AO2 T02890183
53988KBKB BKB20190723162012407/23/19 16:20:31  5-MIN KBKB 232220Z AUTO 01008KT 320V060 10SM CLR 29/18 A2994 280 52 2000 010/08 320V060 RMK AO2 T02890183
53988KBKB BKB20190723162510807/23/19 16:25:31  5-MIN KBKB 232225Z AUTO VRB05KT 10SM CLR 29/18 A2994 280 52 2000 VRB/05 RMK AO2 T02890183
53988KBKB BKB20190723163010807/23/19 16:30:31  5-MIN KBKB 232230Z AUTO VRB04KT 10SM CLR 29/19 A2993 290 54 2000 VRB/04 RMK AO2 T02890189
53988KBKB BKB20190723163513007/23/19 16:35:31  5-MIN KBKB 232235Z AUTO 02008G15KT 330V050 10SM CLR 29/18 A2993 290 50 2000 010/08G15 330V050 RMK AO2 T02940183
53988KBKB BKB20190723164013007/23/19 16:40:31  5-MIN KBKB 232240Z AUTO 02009G20KT 340V070 10SM CLR 29/18 A2993 290 52 2000 020/09G20 340V070 RMK AO2 T02890183
53988KBKB BKB20190723164511407/23/19 16:45:31  5-MIN KBKB 232245Z AUTO VRB05G20KT 10SM CLR 29/18 A2993 290 50 2000 VRB/05G20 RMK AO2 T02890178
53988KBKB BKB20190723165013107/23/19 16:50:31  5-MIN KBKB 232250Z AUTO 01007KT 330V050 10SM CLR 29/18 A2993 290 50 2000 010/07 330V050 RMK AO2 SLP161 T02890178
53988KBKB BKB20190723165510807/23/19 16:55:31  5-MIN KBKB 232255Z AUTO VRB04KT 10SM CLR 29/18 A2994 280 50 2000 VRB/04 RMK AO2 T02890178
53988KBKB BKB20190723170012407/23/19 17:00:31  5-MIN KBKB 232300Z AUTO 36007KT 300V080 10SM CLR 29/18 A2994 280 50 2000 360/07 300V080 RMK AO2 T02890178
53988KBKB BKB20190723170509807/23/19 17:05:31  5-MIN KBKB 232305Z AUTO 10SM CLR 28/18 A2994 280 52 1900 M /M RMK AO2 T02830178
53988KBKB BKB20190723171012407/23/19 17:10:31  5-MIN KBKB 232310Z AUTO 02007KT 330V060 10SM CLR 28/18 A2994 280 52 1900 010/07 330V060 RMK AO2 T02830178
53988KBKB BKB20190723171510807/23/19 17:15:31  5-MIN KBKB 232315Z AUTO VRB06KT 10SM CLR 28/18 A2994 280 52 1900 VRB/06 RMK AO2 T02830178
53988KBKB BKB20190723172004607/23/19 17:20:31  5-MIN KBKB 232320Z AUTO VR8
53988KBKB BKB20190723174510807/23/19 17:45:31  5-MIN KBKB 232345Z AUTO VRB03KT 10SM CLR 28/18 A2995 270 54 1800 VRB/03 RMK AO2 T02780178
53988KBKB BKB20190723175012307/23/19 17:50:31  5-MIN KBKB 232350Z AUTO 10SM CLR 27/18 A2996 260 56 1800 M /M RMK AO2 SLP169 T02720178 10300 20233 56016
53988KBKB BKB20190723175510807/23/19 17:55:31  5-MIN KBKB 232355Z AUTO VRB04KT 10SM CLR 27/17 A2996 260 55 1700 VRB/04 RMK AO2 T02670172
53988KBKB BKB20190723180010807/23/19 18:00:31  5-MIN KBKB 240000Z AUTO VRB03KT 10SM CLR 27/18 A2996 260 56 1800 VRB/03 RMK AO2 T02720178
53988KBKB BKB20190723180510807/23/19 18:05:31  5-MIN KBKB 240005Z AUTO VRB04KT 10SM CLR 27/18 A2996 260 56 1800 VRB/04 RMK AO2 T02720178
53988KBKB BKB20190723181010807/23/19 18:10:31  5-MIN KBKB 240010Z AUTO VRB03KT 10SM CLR 27/18 A2996 260 57 1700 VRB/03 RMK AO2 T02670178
53988KBKB BKB20190723181511507/23/19 18:15:31  5-MIN KBKB 240015Z AUTO 00000KT 10SM CLR 27/18 A2996 260 68 1300 VRB/03 RMK AO2 SLP185 T02330172
53988KBKB BKB20190723195510807/23/19 19:55:31  5-MIN KBKB 240155Z AUTO 00000KT 10SM CLR 24/17 A3000 220 63 1300 000/00 RMK AO2 T02390167
53988KBKB BKB20190723200010807/23/19 20:00:31  5-MIN KBKB 240200Z AUTO VRB03KT 10SM CLR 23/17 A3001 220 66 1300 VRB/03 RMK AO2 T02330167
53988KBKB BKB20190723200515607/23/19 20:05:31  5-MIN KBKB 240205Z AUTO VRB03KT 23/19 20:30:31  5-MIN KBKB 240230Z AUTO 00000KT 10SM CLR 22/17 A3002 210 73 1100 000/00 RMK AO2 T02220172
53988KBKB BKB20190723203510807/23/19 20:35:31  5-MIN KBKB 240235Z AUTO 00000KT 10SM CLR 22/18 A3002 210 78 1100 000/00 RMK AO2 T02170178
53988KBKB BKB20190723204011107/23/19 20:40:31  5-MIN KBKB 240240Z AUTO 00000KT 10SM FEW050 22/18 A3002 200 78 1100 000/00 RMK AO2 T02170178
53988KBKB BKB20190723204511107/23/19 20:45:31  5-MIN KBKB 240245Z AUTO 00000KT 10SM FEW050 22/17 A3002 200 75 1100 000/00 RMK AO2 T02170172
53988KBKB BKB20190723205012407/23/19 20:50:31  5-MIN KBKB 240250Z AUTO 00000KT 10SM FEW049 21/18 A3002 200 84 1000 000/00 RMK AO2 SLP193 T02110183 53001
53988KBKB BKB20190723205510807/23/19 20:55:31  5-MIN KBKB 240255Z AUTO VRB03KT 10SM CLR 21/18 A3003 200 84 1000 VRB/03 RMK AO2 T02110183
53988KBKB BKB20190723210012307/23/19 21:00:31  5-MIN KBKB 240300Z AUTO 00000KT 10SM FEW049 22/18 A3003 200 78 1100 000/00 RMK AO2 T0217017806 A3004 190
53988KBKB BKB20190724010510707/24/19 01:05:31  5-MIN KBKB 240705Z AUTO 00000KT 10SM CLR 19/16 A3001 210 78 800 000/00 RMK AO2 T01940156
53988KBKB BKB20190724011010707/24/19 01:10:31  5-MIN KBKB 240710Z AUTO VRB03KT 10SM CLR 19/16 A3001 210 78 800 VRB/03 RMK AO2 T01940156
53988KBKB BKB20190724011510707/24/19 01:15:31  5-MIN KBKB 240715Z AUTO VRB03KT 10SM CLR 19/16 A3001 210 78 800 VRB/03 RMK AO2 T01940156
53988KBKB BKB20190724012010707/24/19 01:20:31  5-MIN KBKB 240720Z AUTO 00000KT 10SM CLR 19/16 A3001 220 81 800 000/00 RMK AO2 T01890156
53988KBKB BKB20190724012510707/24/19 01:25:31  5-MIN KBKB 240725Z AUTO VRB04KT 10SM CLR 19/16 A3001 220 78 800 VRB/04 RMK AO2 T01940156
53988KBKB BKB20190724013010707/24/19 01:30:31  5-MIN KBKB 240730Z AUTO VRB04KT 10SM CLR 19/16 A3001 220 81 800 VRB/04 RMK AO2 T01890156
53988KBKB BKB20190724013510707/24/19 01:35:31  5-MIN KBKB 240735Z AUTO VRB03KT 10SM CLR 19/15 A3001 220 78 800 VRB/03 RMK AO2 T01890150
53988KBKB BKB20190724014010707/24/19 01:40:31  5-MIN KBKB 240740Z AUTO VRB03KT 10SM CLR 19/16 A3001 220 81 800 VRB/03 RMK AO2 T01890156
53988KBKB BKB20190724014510707/24/19 01:45:31  5-MIN KBKB 240745Z AUTO VRB03KT 10SM CLR 19/16 A3001 220 81 800 VRB/03 RMK AO2 T01890156
53988KBKB BKB20190724015011407/24/19 01:50:31  5-MIN KBKB 240750Z AUTO 00000KT 10SM CLR 19/15 A3001 220 78 800 000/00 RMK AO2 SLP188 T01890150
53988KBKB BKB20190724015510707/24/19 01:55:31  5-MIN KBKB 240755Z AUTO 00000KT 10SM CLR 19/15 A3001 220 78 800 000/00 RMK AO2 T01890150
53988KBKB BKB20190724020010707/24/19 02:00:31  5-MIN KBKB 240800Z AUTO 00000KT 10SM CLR 19/15 A3001 220 78 800 000/00 RMK AO2 T01890150
53988KBKB BKB20190724020510707/24/19 02:05:31  5-MIN KBKB 240805Z AUTO 00000KT 10SM CLR 19/15 A3001 210 78 800 000/00 RMK AO2 T01890150
53988KBKB BKB20190724021010707/24/19 02:10:31  5-MIN KBKB 240810Z AUTO 01003KT 10SM CLR 19/15 A3001 210 78 800 010/03 RMK AO2 T01890150
53988KBKB BKB20190724021510707/24/19 02:15:31  5-MIN KBKB 240815Z AUTO VRB03KT 10SM CLR 19/15 A3001 210 78 800 VRB/03 RMK AO2 T01890150
53988KBKB BKB20190724022010707/24/19 02:20:31  5-MIN KBKB 240820Z AUTO VRB03KT 10SM CLR 18/15 A3002 210 81 700 VRB/03 RMK AO2 T01830150
53988KBKB BKB20190724022510707/24/19 02:25:31  5-MIN KBKB 240825Z AUTO VRB03KT 10SM CLR 18/15 A3001 210 81 700 VRB/03 RMK AO2 T01830150
53988KBKB BKB20190724023010707/24/19 02:30:31  5-MIN KBKB 240830Z AUTO VRB03KT 10SM CLR 18/15 A3002 210 81 700 VRB/03 RMK AO2 T01830150
53988KBKB BKB20190724023510707/24/19 02:35:31  5-MIN KBKB 240835Z AUTO 00000KT 10SM CLR 18/15 A3002 210 81 700 000/00 RMK AO2 T01830150
53988KBKB BKB20190724024010707/24/19 02:40:31  5-MIN KBKB 240840Z AUTO VRB03KT 10SM CLR 18/15 A3002 210 81 700 VRB/03 RMK AO2 T01830150
53988KBKB BKB20190724024510707/24/19 02:45:31  5-MIN KBKB 240845Z AUTO VRB04KT 10SM CLR 18/15 A3002 210 81 700 VRB/04 RMK AO2 T01830150
53988KBKB BKB20190724025012007/24/19 02:50:31  5-MIN KBKB 240850Z AUTO 00000KT 10SM CLR 18/15 A3002 210 81 700 000/00 RMK AO2 SLP192 T01830150 50000
53988KBKB BKB20190724025510707/24/19 02:55:31  5-MIN KBKB 240855Z AUTO VRB04KT 10SM CLR 18/15 A3002 210 81 700 VRB/04 RMK AO2 T01830150
53988KBKB BKB20190724030010707/24/19 03:00:31  5-MIN KBKB 240900Z AUTO VRB03KT 10SM CLR 18/15 A3002 200 81 700 VRB/03 RMK AO2 T01830150
53988KBKB BKB20190724030510707/24/19 03:05:31  5-MIN KBKB 240905Z AUTO VRB03KT 10SM CLR 18/15 A3002 200 81 700 VRB/03 RMK AO2 T01830150
53988KBKB BKB20190724031010707/24/19 03:10:31  5-MIN KBKB 240910Z AUTO 01003KT 10SM CLR 18/15 A3002 200 83 600 010/03 RMK AO2 T01780150
53988KBKB BKB20190724031510707/24/19 03:15:31  5-MIN KBKB 240915Z AUTO 00000KT 10SM CLR 18/15 A3003 200 83 600 000/00 RMK AO2 T01780150
53988KBKB BKB20190724032010707/24/19 03:20:31  5-MIN KBKB 240920Z AUTO VRB03KT 10SM CLR 18/15 A3003 200 83 600 VRB/03 RMK AO2 T01780150
53988KBKB BKB20190724032510707/24/19 03:25:31  5-MIN KBKB 240925Z AUTO VRB03KT 10SM CLR 18/15 A3003 200 83 600 VRB/03 RMK AO2 T01780150
53988KBKB BKB20190724033010707/24/19 03:30:31  5-MIN KBKB 240930Z AUTO 00000KT 10SM CLR 18/15 A3003 190 83 600 000/00 RMK AO2 T01780150
53988KBKB BKB20190724033510707/24/19 03:35:31  5-MIN KBKB 240935Z AUTO 00000KT 10SM CLR 18/15 A3003 190 83 600 000/00 RMK AO2 T01780150
53988KBKB BKB20190724034010707/24/19 03:40:31  5-MIN KBKB 240940Z AUTO 00000KT 10SM CLR 18/15 A3003 190 83 600 000/00 RMK AO2 T01780150
53988KBKB BKB20190724034510707/24/19 03:45:31  5-MIN KBKB 240945Z AUTO 00000KT 10SM CLR 18/15 A3003 190 83 600 000/00 RMK AO2 T01780150
53988KBKB BKB20190724035011407/24/19 03:50:31  5-MIN KBKB 240950Z AUTO 00000KT 10SM CLR 18/15 A3003 190 83 600 000/00 RMK AO2 SLP196 T01780150
53988KBKB BKB20190724035510707/24/19 03:55:31  5-MIN KBKB 240955Z AUTO 00000KT 10SM CLR 18/15 A3003 190 83 600 000/00 RMK AO2 T01780150
53988KBKB BKB20190724040010707/24/19 04:00:31  5-MIN KBKB 241000Z AUTO 00000KT 10SM CLR 17/15 A3004 190 87 500 000/00 RMK AO2 T01720150
53988KBKB BKB20190724040510707/24/19 04:05:31  5-MIN KBKB 241005Z AUTO 00000KT 10SM CLR 17/15 A3004 190 87 500 000/00 RMK AO2 T01720150
53988KBKB BKB20190724041010707/24/19 04:10:31  5-MIN KBKB 241010Z AUTO 00000KT 10SM CLR 17/15 A3004 190 87 500 000/00 RMK AO2 T01720150
53988KBKB BKB20190724041510707/24/19 04:15:31  5-MIN KBKB 241015Z AUTO 00000KT 10SM CLR 17/15 A3004 190 87 500 000/00 RMK AO2 T01720150
53988KBKB BKB20190724042010707/24/19 04:20:31  5-MIN KBKB 241020Z AUTO VRB03KT 10SM CLR 17/15 A3004 190 87 500 VRB/03 RMK AO2 T01720150
53988KBKB BKB20190724042510707/24/19 04:25:31  5-MIN KBKB 241025Z AUTO 00000KT 10SM CLR 17/15 A3004 190 87 500 000/00 RMK AO2 T01720150
53988KBKB BKB20190724043010707/24/19 04:30:31  5-MIN KBKB 241030Z AUTO 00000KT 10SM CLR 17/15 A3004 190 87 500 000/00 RMK AO2 T01720150
53988KBKB BKB20190724043510707/24/19 04:35:31  5-MIN KBKB 241035Z AUTO 00000KT 10SM CLR 17/15 A3004 180 87 500 000/00 RMK AO2 T01720150
53988KBKB BKB20190724044010707/24/19 04:40:31  5-MIN KBKB 241040Z AUTO VRB03KT 10SM CLR 17/15 A3005 180 87 500 VRB/03 RMK AO2 T01720150
53988KBKB BKB20190724044510707/24/19 04:45:31  5-MIN KBKB 241045Z AUTO 00000KT 10SM CLR 17/15 A3005 180 87 500 000/00 RMK AO2 T01720150
53988KBKB BKB20190724045011407/24/19 04:50:31  5-MIN KBKB 241050Z AUTO VRB03KT 10SM CLR 17/15 A3005 180 87 500 VRB/03 RMK AO2 SLP201 T01720150
53988KBKB BKB20190724045510707/24/19 04:55:31  5-MIN KBKB 241055Z AUTO 00000KT 10SM CLR 17/15 A3005 180 87 500 000/00 RMK AO2 T01720150
53988KBKB BKB20190724050010707/24/19 05:00:31  5-MIN KBKB 241100Z AUTO 00000KT 10SM CLR 17/15 A3005 180 87 500 000/00 RMK AO2 T01720150
53988KBKB BKB20190724050510707/24/19 05:05:31  5-MIN KBKB 241105Z AUTO 00000KT 10SM CLR 17/15 A3005 180 87 500 000/00 RMK AO2 T01720150
53988KBKB BKB20190724051010707/24/19 05:10:31  5-MIN KBKB 241110Z AUTO 00000KT 10SM CLR 17/15 A3005 180 87 500 000/00 RMK AO2 T01720150
53988KBKB BKB20190724051510707/24/19 05:15:31  5-MIN KBKB 241115Z AUTO 00000KT 10SM CLR 17/15 A3005 180 87 500 000/00 RMK AO2 T01720150
53988KBKB BKB20190724052010707/24/19 05:20:31  5-MIN KBKB 241120Z AUTO 00000KT 10SM CLR 17/15 A3005 180 87 500 000/00 RMK AO2 T01720150
53988KBKB BKB20190724052510707/24/19 05:25:31  5-MIN KBKB 241125Z AUTO 00000KT 10SM CLR 17/15 A3005 180 87 500 000/00 RMK AO2 T01720150
53988KBKB BKB20190724053010707/24/19 05:30:31  5-MIN KBKB 241130Z AUTO VRB03KT 10SM CLR 17/15 A3005 180 87 500 VRB/03 RMK AO2 T01720150
53988KBKB BKB20190724053510707/24/19 05:35:31  5-MIN KBKB 241135Z AUTO 00000KT 10SM CLR 17/15 A3005 180 87 500 000/00 RMK AO2 T01720150
53988KBKB BKB20190724054010707/24/19 05:40:31  5-MIN KBKB 241140Z AUTO 02004KT 10SM CLR 17/15 A3005 180 87 500 010/04 RMK AO2 T01720150
53988KBKB BKB20190724054510707/24/19 05:45:31  5-MIN KBKB 241145Z AUTO 00000KT 10SM CLR 17/15 A3005 170 87 500 000/00 RMK AO2 T01720150
53988KBKB BKB20190724055013807/24/19 05:50:31  5-MIN KBKB 241150Z AUTO 00000KT 10SM CLR 17/15 A3006 170 87 500 000/00 RMK AO2 SLP204 70008 T01720150 10200 20172 55002
53988KBKB BKB20190724055510707/24/19 05:55:31  5-MIN KBKB 241155Z AUTO 00000KT 10SM CLR 17/15 A3006 170 87 500 000/00 RMK AO2 T01720150
53988KBKB BKB20190724060010707/24/19 06:00:31  5-MIN KBKB 241200Z AUTO 00000KT 10SM CLR 17/15 A3006 170 87 500 000/00 RMK AO2 T01720150
53988KBKB BKB20190724060510707/24/19 06:05:31  5-MIN KBKB 241205Z AUTO 00000KT 10SM CLR 18/15 A3006 170 83 600 000/00 RMK AO2 T01780150
53988KBKB BKB20190724061010707/24/19 06:10:31  5-MIN KBKB 241210Z AUTO 00000KT 10SM CLR 18/15 A3006 170 83 600 000/00 RMK AO2 T01780150
53988KBKB BKB20190724061510707/24/19 06:15:31  5-MIN KBKB 241215Z AUTO 00000KT 10SM CLR 18/16 A3006 170 87 600 000/00 RMK AO2 T01780156
53988KBKB BKB20190724062010707/24/19 06:20:31  5-MIN KBKB 241220Z AUTO VRB03KT 10SM CLR 18/16 A3005 170 87 600 VRB/03 RMK AO2 T01780156
53988KBKB BKB20190724062510707/24/19 06:25:31  5-MIN KBKB 241225Z AUTO 00000KT 10SM CLR 18/16 A3006 170 84 600 000/00 RMK AO2 T01830156
53988KBKB BKB20190724063010707/24/19 06:30:31  5-MIN KBKB 241230Z AUTO 00000KT 10SM CLR 18/16 A3006 170 84 600 000/00 RMK AO2 T01830156
53988KBKB BKB20190724063510707/24/19 06:35:31  5-MIN KBKB 241235Z AUTO VRB04KT 10SM CLR 19/16 A3006 170 81 700 VRB/04 RMK AO2 T01890156
53988KBKB BKB20190724064010707/24/19 06:40:31  5-MIN KBKB 241240Z AUTO 03005KT 10SM CLR 19/16 A3007 160 81 700 030/05 RMK AO2 T01890156
53988KBKB BKB20190724064510707/24/19 06:45:31  5-MIN KBKB 241245Z AUTO 00000KT 10SM CLR 19/16 A3007 160 78 800 000/00 RMK AO2 T01940156
53988KBKB BKB20190724065011407/24/19 06:50:31  5-MIN KBKB 241250Z AUTO VRB05KT 10SM CLR 19/16 A3007 160 78 800 VRB/05 RMK AO2 SLP207 T01940156
53988KBKB BKB20190724065510707/24/19 06:55:31  5-MIN KBKB 241255Z AUTO VRB03KT 10SM CLR 20/16 A3006 160 78 800 VRB/03 RMK AO2 T02000161
53988KBKB BKB20190724070010707/24/19 07:00:31  5-MIN KBKB 241300Z AUTO VRB05KT 10SM CLR 20/16 A3007 160 78 800 VRB/05 RMK AO2 T02000161
53988KBKB BKB20190724070510707/24/19 07:05:31  5-MIN KBKB 241305Z AUTO 02006KT 10SM CLR 20/16 A3007 160 75 800 020/06 RMK AO2 T02000156
53988KBKB BKB20190724071010707/24/19 07:10:31  5-MIN KBKB 241310Z AUTO VRB04KT 10SM CLR 21/16 A3007 160 75 900 VRB/04 RMK AO2 T02060161
53988KBKB BKB20190724071510707/24/19 07:15:31  5-MIN KBKB 241315Z AUTO 03006KT 10SM CLR 21/16 A3007 160 75 900 030/06 RMK AO2 T02060161
53988KBKB BKB20190724072010707/24/19 07:20:31  5-MIN KBKB 241320Z AUTO VRB06KT 10SM CLR 21/16 A3007 160 73 900 VRB/06 RMK AO2 T02110161
53988KBKB BKB20190724072510707/24/19 07:25:31  5-MIN KBKB 241325Z AUTO VRB04KT 10SM CLR 21/16 A3007 160 73 900 VRB/04 RMK AO2 T02110161
53988KBKB BKB20190724073012507/24/19 07:30:31  5-MIN KBKB 241330Z AUTO VRB05KT 10SM CLR 21/16 A3007 160 73 900 VRB/05 RMK AO2 T02110161 RMK AO2 T02440172
53988KBKB BKB20190724083510807/24/19 08:35:31  5-MIN KBKB 241435Z AUTO VRB03KT 10SM CLR 24/17 A3007 160 66 1300 VRB/03 RMK AO2 T02390172
53988KBKB BKB20190724084010807/24/19 08:40:31  5-MIN KBKB 241440Z AUTO VRB04KT 10SM CLR 24/17 A3007 160 63 1300 VRB/04 RMK AO2 T02440172
53988KBKB BKB20190724084510807/24/19 08:45:31  5-MIN KBKB 241445Z AUTO VRB05KT 10SM CLR 24/17 A3007 160 63 1300 VRB/05 RMK AO2 T02440172
53988KBKB BKB20190724085012107/24/19 08:50:31  5-MIN KBKB 241450Z AUTO 04006KT 10SM CLR 24/17 A3007 160 63 1300 040/06 RMK AO2 SLP208 T02440172 51012
53988KBKB BKB20190724085017007/24/19 08:50:31  5-MIN KBKB 241450Z AUTO 04006KT 10SM CLR 24/17 A3007 160 63 1300 040/06 RMK AO2 SLP208 T02440172 51CLR 24/17 A3007 160 63 1300 VRB/05 RMK AO2 T02390167
53988KBKB BKB20190724085510807/24/19 08:55:31  5-MIN KBKB 241455Z AUTO VRB05KT 10SM CLR 24/17 A3007 160 61 1300 VRB/05 RMK AO2 T02440167
53988KBKB BKB20190724090010807/24/19 09:00:31  5-MIN KBKB 241500Z AUTO VRB05KT 10SM CLR 25/17 A3007 160 59 1400 VRB/05 RMK AO2 T02500167
53988KBKB BKB20190724090015507/24/19 09:00:31  5-MIN KBKB 241500Z AUTO VRB05KT 10SM CLR 25/17 A3007 160 59 1400 VRB/05 RMK AO2 T025001674/17 A3007 160 63 1300 VRB/04 RMK AO2 T02440172
53988KBKB BKB20190724090510807/24/19 09:05:31  5-MIN KBKB 241505Z AUTO VRB04KT 10SM CLR 25/17 A3007 160 59 1400 VRB/04 RMK AO2 T02500167
53988KBKB BKB20190724091010807/24/19 09:10:31  5-MIN KBKB 241510Z AUTO 03007KT 10SM CLR 26/17 A3007 160 59 1500 030/07 RMK AO2 T02560172
53988KBKB BKB20190724091016807/24/19 09:10:31  5-MIN KBKB 241510Z AUTO 03007KT 10SM CLR 26/17 A3007 160 59 1500 030/07 RMK AO2 T0256017207/7 A3007 160 63 1300 040/06 RMK AO2 SLP208 T02440172 51012
53988KBKB BKB20190724091510807/24/19 09:15:31  5-MIN KBKB 241515Z AUTO VRB04KT 10SM CLR 26/17 A3007 160 59 1500 VRB/04 RMK AO2 T02560172
53988KBKB BKB20190724092010807/24/19 09:20:31  5-MIN KBKB 241520Z AUTO VRB04KT 10SM CLR 26/17 A3007 160 59 1500 VRB/04 RMK AO2 T02560172
53988KBKB BKB20190724092510807/24/19 09:25:31  5-MIN KBKB 241525Z AUTO VRB05KT 10SM CLR 26/17 A3007 160 57 1500 VRB/05 RMK AO2 T02610172
53988KBKB BKB20190724093010807/24/19 09:30:31  5-MIN KBKB 241530Z AUTO VRB04KT 10SM CLR 27/17 A3007 160 55 1600 VRB/04 RMK AO2 T02670172
53988KBKB BKB20190724093510807/24/19 09:35:31  5-MIN KBKB 241535Z AUTO VRB04KT 10SM CLR 26/17 A3007 160 55 1500 VRB/04 RMK AO2 T02610167
53988KBKB BKB20190724094010807/24/19 09:40:31  5-MIN KBKB 241540Z AUTO VRB05KT 10SM CLR 26/17 A3007 160 55 1500 VRB/05 RMK AO2 T02610167
53988KBKB BKB20190724094510807/24/19 09:45:31  5-MIN KBKB 241545Z AUTO VRB06KT 10SM CLR 26/17 A3007 160 55 1500 VRB/06 RMK AO2 T02610167
53988KBKB BKB20190724095011507/24/19 09:50:31  5-MIN KBKB 241550Z AUTO VRB06KT 10SM CLR 26/16 A3007 160 53 1500 VRB/06 RMK AO2 SLP209 T02610161
53988KBKB BKB20190724095510807/24/19 09:55:31  5-MIN KBKB 241555Z AUTO VRB05KT 10SM CLR 26/16 A3007 160 53 1500 VRB/05 RMK AO2 T02610161
53988KBKB BKB20190724100010807/24/19 10:00:31  5-MIN KBKB 241600Z AUTO VRB06KT 10SM CLR 27/17 A3006 170 53 1600 VRB/06 RMK AO2 T02670167
53988KBKB BKB20190724100510807/24/19 10:05:31  5-MIN KBKB 241605Z AUTO VRB04KT 10SM CLR 27/17 A3006 170 52 1700 VRB/04 RMK AO2 T02720167
53988KBKB BKB20190724101010807/24/19 10:10:31  5-MIN KBKB 241610Z AUTO VRB04KT 10SM CLR 27/17 A3006 170 52 1700 VRB/04 RMK AO2 T02720167
53988KBKB BKB20190724101512407/24/19 10:15:31  5-MIN KBKB 241615Z AUTO 02008KT 320V090 10SM CLR 27/17 A3006 170 52 1700 010/08 320V090 RMK AO2 T02720167
53988KBKB BKB20190724102012407/24/19 10:20:31  5-MIN KBKB 241620Z AUTO 01008KT 350V070 10SM CLR 27/16 A3006 170 52 1600 010/08 350V070 RMK AO2 T02670161
53988KBKB BKB20190724102512407/24/19 10:25:31  5-MIN KBKB 241625Z AUTO 03007KT 350V090 10SM CLR 27/16 A3006 170 50 1700 020/07 350V090 RMK AO2 T02720161
53988KBKB BKB20190724103010807/24/19 10:30:31  5-MIN KBKB 241630Z AUTO VRB06KT 10SM CLR 27/16 A3006 160 50 1700 VRB/06 RMK AO2 T02720161
53988KBKB BKB20190724103510807/24/19 10:35:31  5-MIN KBKB 241635Z AUTO VRB06KT 10SM CLR 27/16 A3006 170 50 1600 VRB/06 RMK AO2 T02670156
53988KBKB BKB20190724104012207/24/19 10:40:31  5-MIN KBKB 241640Z AUTO 05007KT 010V090 10SM CLR 27/16 A3007 160 50 1600 040/07 010V090 RMK AO2 2830161
53988KBKB BKB20190724115510807/24/19 11:55:31  5-MIN KBKB 241755Z AUTO VRB05KT 10SM CLR 28/16 A3005 170 47 1800 VRB/05 RMK AO2 T02830161
53988KBKB BKB20190724120012407/24/19 12:00:31  5-MIN KBKB 241800Z AUTO 04007KT 360V080 10SM CLR 28/16 A3005 170 47 1800 030/07 360V080 RMK AO2 T02830161
53988KBKB BKB20190724120510807/24/19 12:05:31  5-MIN KBKB 241805Z AUTO VRB04KT 10SM CLR 28/17 A3005 170 48 1800 VRB/04 RMK AO2 T02830167
53988KBKB BKB20190724121010807/24/19 12:10:31  5-MIN KBKB 241810Z AUTO 03006KT 10SM CLR 28/16 A3005 180 46 1700 030/06 RMK AO2 T02780156
53988KBKB BKB20190724121510807/24/19 12:15:31  5-MIN KBKB 241815Z AUTO VRB03KT 10SM CLR 29/17 A3005 180 47 1900 VRB/03 RMK AO2 T02890167
53988KBKB BKB20190724122010807/24/19 12:20:31  5-MIN KBKB 241820Z AUTO VRB05KT 10SM CLR 28/16 A3005 180 47 1800 VRB/05 RMK AO2 T02830161
53988KBKB BKB20190724122510807/24/19 12:25:31  5-MIN KBKB 241825Z AUTO VRB05KT 10SM CLR 28/16 A3004 190 47 1800 VRB/05 RMK AO2 T02830161
53988KBKB BKB20190724123012407/24/19 12:30:31  5-MIN KBKB 241830Z AUTO 05007KT 360V080 10SM CLR 28/16 A3004 190 47 1800 040/07 360V080 RMK AO2 T02830161
53988KBKB BKB20190724123510807/24/19 12:35:31  5-MIN KBKB 241835Z AUTO VRB05KT 10SM CLR 28/16 A3004 190 47 1800 VRB/05 RMK AO2 T02830161
53988KBKB BKB20190724124010807/24/19 12:40:31  5-MIN KBKB 241840Z AUTO VRB06KT 10SM CLR 29/17 A3004 190 47 1900 VRB/06 RMK AO2 T02890167
53988KBKB BKB20190724124510807/24/19 12:45:31  5-MIN KBKB 241845Z AUTO VRB06KT 10SM CLR 29/16 A3004 190 45 1900 VRB/06 RMK AO2 T02890161
53988KBKB BKB20190724125004607/24/19 12:50:31  5-MIN KBKB 241850Z AUTO VR1
53988KBKB BKB20190724125011507/24/19 12:50:31  5-MIN KBKB 241850Z AUTO VRB06KT 10SM CLR 29/16 A3004 190 45 1900 VRB/06 RMK AO2 SLP198 T02890161
53988KBKB BKB20190724125512407/24/19 12:55:31  5-MIN KBKB 241855Z AUTO 05007KT 020V080 10SM CLR 29/16 A3004 190 45 1900 050/07 020V080 RMK AO2 T02890161
53988KBKB BKB20190724130010807/24/19 13:00:31  5-MIN KBKB 241900Z AUTO VRB04KT 10SM CLR 29/16 A3003 190 45 1900 VRB/04 RMK AO2 T02890161
53988KBKB BKB20190724130510807/24/19 13:05:31  5-MIN KBKB 241905Z AUTO VRB04KT 10SM CLR 29/17 A3003 190 45 1900 VRB/04 RMK AO2 T02940167
53988KBKB BKB20190724131010807/24/19 13:10:31  5-MIN KBKB 241910Z AUTO VRB06KT 10SM CLR 29/17 A3003 190 45 1900 VRB/06 RMK AO2 T02940167
53988KBKB BKB20190724131510807/24/19 13:15:31  5-MIN KBKB 241915Z AUTO VRB06KT 10SM CLR 29/17 A3003 200 47 1900 VRB/06 RMK AO2 T02890167
53988KBKB BKB20190724132010807/24/19 13:20:31  5-MIN KBKB 241920Z AUTO VRB04KT 10SM CLR 29/17 A3003 200 47 1900 VRB/04 RMK AO2 T02890167
53988KBKB BKB20190724132510807/24/19 13:25:31  5-MIN KBKB 241925Z AUTO VRB04KT 10SM CLR 29/17 A3003 200 45 1900 VRB/04 RMK AO2 T02940167
53988KBKB BKB20190724133010807/24/19 13:30:31  5-MIN KBKB 241930Z AUTO VRB06KT 10SM CLR 29/17 A3003 200 47 1900 VRB/06 RMK AO2 T02940172
53988KBKB BKB20190724133510807/24/19 13:35:31  5-MIN KBKB 241935Z AUTO VRB06KT 10SM CLR 29/17 A3002 200 47 1900 VRB/06 RMK AO2 T02890167
53988KBKB BKB20190724134010807/24/19 13:40:31  5-MIN KBKB 241940Z AUTO VRB04KT 10SM CLR 29/17 A3002 200 45 1900 VRB/04 RMK AO2 T02940167
53988KBKB BKB20190724134510807/24/19 13:45:31  5-MIN KBKB 241945Z AUTO VRB05KT 10SM CLR 29/17 A3002 210 47 1900 VRB/05 RMK AO2 T02890167
53988KBKB BKB20190724135011507/24/19 13:50:31  5-MIN KBKB 241950Z AUTO VRB03KT 10SM CLR 29/17 A3002 210 47 2000 VRB/03 RMK AO2 SLP191 T02940172
53988KBKB BKB20190724135510807/24/19 13:55:31  5-MIN KBKB 241955Z AUTO VRB05KT 10SM CLR 29/17 A3002 210 47 2000 VRB/05 RMK AO2 T02940172
53988KBKB BKB20190724140010807/24/19 14:00:31  5-MIN KBKB 242000Z AUTO VRB04KT 10SM CLR 29/17 A3002 210 47 1900 VRB/04 RMK AO2 T02890167
53988KBKB BKB20190724140510807/24/19 14:05:31  5-MIN KBKB 242005Z AUTO VRB04KT 10SM CLR 29/17 A3001 210 45 2000 VRB/04 RMK AO2 T02940167
53988KBKB BKB20190724141011107/24/19 14:10:31  5-MIN KBKB 242010Z AUTO VRB06KT 10SM FEW050 29/17 A3001 210 45 2000 VRB/06 RMK AO2 T02940167
53988KBKB BKB20190724141511107/24/19 14:15:31  5-MIN KBKB 242015Z AUTO VRB05KT 10SM FEW050 29/17 A3001 210 47 1900 VRB/05 RMK AO2 T02890167
53988KBKB BKB20190724142011107/24/19 14:20:31  5-MIN KBKB 242020Z AUTO VRB04KT 10SM FEW050 29/17 A3001 220 47 1900 VRB/04 RMK AO2 T02890167
53988KBKB BKB20190724142511107/24/19 14:25:31  5-MIN KBKB 242025Z AUTO VRB04KT 10SM FEW050 29/17 A3001 220 45 2000 VRB/04 RMK AO2 T02940167
53988KBKB BKB20190724143011107/24/19 14:30:31  5-MIN KBKB 242030Z AUTO VRB06KT 10SM FEW050 29/16 A3001 220 44 2000 VRB/06 RMK AO2 T02940161
53988KBKB BKB20190724143511107/24/19 14:35:31  5-MIN KBKB 242035Z AUTO VRB05KT 10SM FEW050 30/16 A3001 220 42 2000 VRB/05 RMK AO2 T03000161
53988KBKB BKB20190724144010807/24/19 14:40:31  5-MIN KBKB 242040Z AUTO VRB04KT 10SM CLR 30/16 A3000 220 42 2000 VRB/04 RMK AO2 T03000161
53988KBKB BKB20190724144510807/24/19 14:45:31  5-MIN KBKB 242045Z AUTO VRB04KT 10SM CLR 29/16 A3000 220 44 2000 VRB/04 RMK AO2 T02940161
53988KBKB BKB20190724145012107/24/19 14:50:31  5-MIN KBKB 242050Z AUTO VRB04KT 10SM CLR 30/17 A3000 230 44 2000 VRB/04 RMK AO2 SLP184 T03000167 58004
53988KBKB BKB20190724145510807/24/19 14:55:31  5-MIN KBKB 242055Z AUTO VRB06KT 10SM CLR 30/17 A3000 230 44 2000 VRB/06 RMK AO2 T03000167
53988KBKB BKB20190724150010807/24/19 15:00:31  5-MIN KBKB 242100Z AUTO VRB03KT 10SM CLR 29/16 A3000 230 44 2000 VRB/03 RMK AO2 T02940161
53988KBKB BKB20190724150510807/24/19 15:05:31  5-MIN KBKB 242105Z AUTO VRB05KT 10SM CLR 29/16 A3000 230 44 2000 VRB/05 RMK AO2 T02940161
53988KBKB BKB20190724151010807/24/19 15:10:31  5-MIN KBKB 242110Z AUTO VRB03KT 10SM CLR 30/16 A3000 230 41 2000 VRB/03 RMK AO2 T03000156
53988KBKB BKB20190724151510807/24/19 15:15:31  5-MIN KBKB 242115Z AUTO VRB04KT 10SM CLR 30/16 A3000 230 42 2000 VRB/04 RMK AO2 T03000161
53988KBKB BKB20190724152010807/24/19 15:20:31  5-MIN KBKB 242120Z AUTO VRB05KT 10SM CLR 30/16 A2999 230 42 2000 VRB/05 RMK AO2 T03000161
53988KBKB BKB20190724152510807/24/19 15:25:31  5-MIN KBKB 242125Z AUTO VRB06KT 10SM CLR 29/16 A2999 230 42 2000 VRB/06 RMK AO2 T02940156
53988KBKB BKB20190724153010807/24/19 15:30:31  5-MIN KBKB 242130Z AUTO VRB04KT 10SM CLR 30/16 A2999 230 42 2000 VRB/04 RMK AO2 T03000161
53988KBKB BKB20190724153510807/24/19 15:35:31  5-MIN KBKB 242135Z AUTO VRB05KT 10SM CLR 30/16 A2999 230 42 2000 VRB/05 RMK AO2 T03000161
53988KBKB BKB20190724154010807/24/19 15:40:31  5-MIN KBKB 242140Z AUTO VRB03KT 10SM CLR 30/16 A2999 230 42 2000 VRB/03 RMK AO2 T03000161
53988KBKB BKB20190724154512407/24/19 15:45:31  5-MIN KBKB 242145Z AUTO 02007KT 320V090 10SM CLR 30/16 A2999 230 42 2000 010/07 320V090 RMK AO2 T03000161
53988KBKB BKB20190724155011507/24/19 15:50:31  5-MIN KBKB 242150Z AUTO VRB04KT 10SM CLR 29/16 A2999 230 42 2000 VRB/04 RMK AO2 SLP182 T02940156
53988KBKB BKB20190724155509807/24/19 15:55:31  5-MIN KBKB 242155Z AUTO 10SM CLR 30/17 A2999 230 44 2000 M /M RMK AO2 T03000167
53988KBKB BKB20190724160010807/24/19 16:00:31  5-MIN KBKB 242200Z AUTO VRB04KT 10SM CLR 30/16 A2999 230 42 2000 VRB/04 RMK AO2 T03000161
53988KBKB BKB20190724160510807/24/19 16:05:31  5-MIN KBKB 242205Z AUTO VRB06KT 10SM CLR 30/17 A2999 230 44 2000 VRB/06 RMK AO2 T03000167
53988KBKB BKB20190724161010807/24/19 16:10:31  5-MIN KBKB 242210Z AUTO VRB05KT 10SM CLR 29/16 A2999 230 44 2000 VRB/05 RMK AO2 T02940161
53988KBKB BKB20190724161510807/24/19 16:15:31  5-MIN KBKB 242215Z AUTO VRB04KT 10SM CLR 29/16 A2999 230 42 2000 VRB/04 RMK AO2 T02940156
53988KBKB BKB20190724162010807/24/19 16:20:31  5-MIN KBKB 242220Z AUTO VRB03KT 10SM CLR 30/17 A2999 230 44 2000 VRB/03 RMK AO2 T03000167
53988KBKB BKB20190724162510807/24/19 16:25:31  5-MIN KBKB 242225Z AUTO VRB04KT 10SM CLR 30/17 A2999 230 44 2000 VRB/04 RMK AO2 T03000167
53988KBKB BKB20190724163010807/24/19 16:30:31  5-MIN KBKB 242230Z AUTO 02004KT 10SM CLR 29/16 A2999 230 44 2000 010/04 RMK AO2 T02940161
53988KBKB BKB20190724163510807/24/19 16:35:31  5-MIN KBKB 242235Z AUTO VRB03KT 10SM CLR 29/16 A2999 230 44 2000 VRB/03 RMK AO2 T02940161
53988KBKB BKB20190724164010807/24/19 16:40:31  5-MIN KBKB 242240Z AUTO VRB06KT 10SM CLR 29/16 A2999 230 42 2000 VRB/06 RMK AO2 T02940156
53988KBKB BKB20190724164510807/24/19 16:45:31  5-MIN KBKB 242245Z AUTO 00000KT 10SM CLR 29/16 A2999 230 42 2000 000/00 RMK AO2 T02940156
53988KBKB BKB20190724165011507/24/19 16:50:31  5-MIN KBKB 242250Z AUTO 02006KT 10SM CLR 29/16 A2999 230 42 2000 020/06 RMK AO2 SLP181 T02940156
53988KBKB BKB20190724165510807/24/19 16:55:31  5-MIN KBKB 242255Z AUTO VRB04KT 10SM CLR 29/16 A2999 230 44 1900 VRB/04 RMK AO2 T02890156
53988KBKB BKB20190724170010807/24/19 17:00:31  5-MIN KBKB 242300Z AUTO VRB05KT 10SM CLR 29/16 A2999 230 42 2000 VRB/05 RMK AO2 T02940156
53988KBKB BKB20190724170510807/24/19 17:05:31  5-MIN KBKB 242305Z AUTO 00000KT 10SM CLR 29/16 A2999 230 45 1900 000/00 RMK AO2 T02890161
53988KBKB BKB20190724171010807/24/19 17:10:31  5-MIN KBKB 242310Z AUTO VRB05KT 10SM CLR 29/16 A2999 240 45 1900 VRB/05 RMK AO2 T02890161
53988KBKB BKB20190724171510807/24/19 17:15:31  5-MIN KBKB 242315Z AUTO VRB05KT 10SM CLR 28/16 A2999 230 45 1900 VRB/05 RMK AO2 T02830156
53988KBKB BKB20190724172010807/24/19 17:20:31  5-MIN KBKB 242320Z AUTO VRB03KT 10SM CLR 28/16 A2999 240 45 1900 VRB/03 RMK AO2 T02830156
53988KBKB BKB20190724172510807/24/19 17:25:31  5-MIN KBKB 242325Z AUTO 03005KT 10SM CLR 28/16 A2999 230 47 1900 020/05 RMK AO2 T02830161
53988KBKB BKB20190724173010807/24/19 17:30:31  5-MIN KBKB 242330Z AUTO 00000KT 10SM CLR 28/16 A2999 230 47 1900 000/00 RMK AO2 T02830161
53988KBKB BKB20190724173505507/24/19 17:35:31  5-MIN KBKB 242335Z AUTO V2 T02560156
53988KBKB BKB20190724184510807/24/19 18:45:31  5-MIN KBKB 250045Z AUTO VRB03KT 10SM CLR 26/16 A3001 220 55 1500 VRB/03 RMK AO2 T02560161
53988KBKB BKB20190724185011507/24/19 18:50:31  5-MIN KBKB 250050Z AUTO 00000KT 10SM CLR 25/16 A3001 220 57 1500 000/00 RMK AO2 SLP188 T02500161
53988KBKB BKB20190724185510807/24/19 18:55:31  5-MIN KBKB 250055Z AUTO 00000KT 10SM CLR 25/16 A3001 220 57 1500 000/00 RMK AO2 T02500161
53988KBKB BKB20190724190010807/24/19 19:00:31  5-MIN KBKB 250100Z AUTO 00000KT 10SM CLR 24/17 A3001 220 61 1400 000/00 RMK AO2 T02440167
53988KBKB BKB20190724190016507/24/19 19:00:31  5-MIN KBKB 250100Z AUTO 00000KT 10SM CLR 24/17 A3040:31  5-MIN KBKB 250040Z AUTO 00000KT 10SM CLR 26/16 A3001 220 53 1500 000/00 RMK AO2 T02560156
53988KBKB BKB20190724190510807/24/19 19:05:31  5-MIN KBKB 250105Z AUTO 00000KT 10SM CLR 24/16 A3001 220 59 1400 000/00 RMK AO2 T02440161
53988KBKB BKB20190724191010807/24/19 19:10:31  5-MIN KBKB 250110Z AUTO 00000KT 10SM CLR 24/17 A3001 220 63 1300 000/00 RMK AO2 T02390167
53988KBKB BKB20190724191011507/24/19 19:10:31  5-MIN KBKB 250110Z AUTO 00000KT 10SM CLR 24/17 A3001 220 57 1500 000/00 RMK AO2 SLP188 T02500161
53988KBKB BKB20190724191510807/24/19 19:15:31  5-MIN KBKB 250115Z AUTO 00000KT 10SM CLR 24/16 A3001 210 61 1300 000/00 RMK AO2 T02390161
53988KBKB BKB20190724192010807/24/19 19:20:31  5-MIN KBKB 250120Z AUTO 00000KT 10SM CLR 23/17 A3001 210 61 1400 000/00 RMK AO2 T02440167
53988KBKB BKB20190724192010807/24/19 19:20:31  5-MIN KBKB 250120Z AUTO 00000KT 10SM CLR 23/17 A3001 210 66 1300 000/00 RMK AO2 T02330167
53988KBKB BKB20190724192510807/24/19 19:25:31  5-MIN KBKB 250125Z AUTO 00000KT 10SM CLR 23/17 A3001 210 68 1200 000/00 RMK AO2 T02280167
53988KBKB BKB20190724193010807/24/19 19:30:31  5-MIN KBKB 250130Z AUTO 00000KT 10SM CLR 23/17 A3002 210 68 1200 000/00 RMK AO2 T02280167
53988KBKB BKB20190724193510807/24/19 19:35:31  5-MIN KBKB 250135Z AUTO 00000KT 10SM CLR 23/17 A3002 210 66 1300 000/00 RMK AO2 T02330167
53988KBKB BKB20190724194010807/24/19 19:40:31  5-MIN KBKB 250140Z AUTO 00000KT 10SM CLR 23/16 A3002 210 63 1300 000/00 RMK AO2 T02330161
53988KBKB BKB20190724194510807/24/19 19:45:31  5-MIN KBKB 250145Z AUTO 00000KT 10SM CLR 23/17 A3002 210 68 1200 000/00 RMK AO2 T02280167
53988KBKB BKB20190724195011507/24/19 19:50:31  5-MIN KBKB 250150Z AUTO 00000KT 10SM CLR 23/16 A3002 210 63 1300 000/00 RMK AO2 SLP191 T02330161
53988KBKB BKB20190724195510807/24/19 19:55:31  5-MIN KBKB 250155Z AUTO 00000KT 10SM CLR 23/16 A3002 210 65 1200 000/00 RMK AO2 T02280161
53988KBKB BKB20190724200010807/24/19 20:00:31  5-MIN KBKB 250200Z AUTO 00000KT 10SM CLR 22/17 A3002 210 73 1100 000/00 RMK AO2 T02220172
53988KBKB BKB20190724200510807/24/19 20:05:31  5-MIN KBKB 250205Z AUTO 00000KT 10SM CLR 22/17 A3002 200 75 1100 000/00 RMK AO2 T02170172
53988KBKB BKB20190724201010807/24/19 20:10:31  5-MIN KBKB 250210Z AUTO 00000KT 10SM CLR 22/18 A3003 200 78 1100 000/00 RMK AO2 T02170178
53988KBKB BKB20190724201510807/24/19 20:15:31  5-MIN KBKB 250215Z AUTO 00000KT 10SM CLR 22/17 A3003 200 75 1100 000/00 RMK AO2 T02170172
53988KBKB BKB20190724202010807/24/19 20:20:31  5-MIN KBKB 250220Z AUTO 00000KT 10SM CLR 22/17 A3003 200 75 1100 000/00 RMK AO2 T02170172
53988KBKB BKB20190724202510807/24/19 20:25:31  5-MIN KBKB 250225Z AUTO 00000KT 10SM CLR 22/17 A3003 200 70 1100 000/00 RMK AO2 T02220167
53988KBKB BKB20190724203010807/24/19 20:30:31  5-MIN KBKB 250230Z AUTO 00000KT 10SM CLR 22/17 A3003 200 75 1100 000/00 RMK AO2 T02170172
53988KBKB BKB20190724203510807/24/19 20:35:31  5-MIN KBKB 250235Z AUTO 00000KT 10SM CLR 21/18 A3003 200 81 1000 000/00 RMK AO2 T02110178
53988KBKB BKB20190724204014707/24/19 20:40:31  5-MIN KBKB 250240Z AUTO 00000KT 10SM CLR 22/17 A3003 200 75 1100 000/00 RMK AO2R 19/17 A3004 190 84 800 000/00 RMK AO2 T01940167
53988KBKB BKB20190724223510707/24/19 22:35:31  5-MIN KBKB 250435Z AUTO 00000KT 10SM CLR 19/17 A3004 190 84 800 000/00 RMK AO2 T01940167
53988KBKB BKB20190724224010707/24/19 22:40:31  5-MIN KBKB 250440Z AUTO 00000KT 10SM CLR 19/17 A3004 180 84 800 000/00 RMK AO2 T01940167
53988KBKB BKB20190724224510707/24/19 22:45:31  5-MIN KBKB 250445Z AUTO 00000KT 10SM CLR 19/17 A3004 180 84 800 000/00 RMK AO2 T01940167
53988KBKB BKB20190724225011407/24/19 22:50:31  5-MIN KBKB 250450Z AUTO 00000KT 10SM CLR 19/17 A3004 190 84 800 000/00 RMK AO2 SLP199 T01940167
53988KBKB BKB20190724225017307/24/19 22:50:31  5-MIN KBKB 250450Z AUTO 00000KT 10SM CLR 19/17 A3004 190 84 800 000/00 RMK AO2 SLP0Z AUTO 00000KT 10SM CLR 19/17 A3004 190 84 800 000/00 RMK AO2 T01940167
53988KBKB BKB20190724225510707/24/19 22:55:31  5-MIN KBKB 250455Z AUTO 00000KT 10SM CLR 19/17 A3004 190 87 700 000/00 RMK AO2 T01890167
53988KBKB BKB20190724230010707/24/19 23:00:31  5-MIN KBKB 250500Z AUTO 00000KT 10SM CLR 19/17 A3004 190 84 800 000/00 RMK AO2 T01940167
53988KBKB BKB20190724230010707/24/19 23:00:31  5-MIN KBKB 250500Z AUTO 00000KT 10SM CLR 19/17 A3004 190 90 700 000/00 RMK AO2 T01890172
53988KBKB BKB20190724230510707/24/19 23:05:31  5-MIN KBKB 250505Z AUTO 00000KT 10SM CLR 19/17 A3004 190 90 700 000/00 RMK AO2 T01890172
53988KBKB BKB20190724231005907/24/19 23:10:31  5-MIN KBKB 250510Z AUTO 0000O2 T01940167
53988KBKB BKB20190724231010707/24/19 23:10:31  5-MIN KBKB 250510Z AUTO 00000KT 10SM CLR 19/17 A3004 190 90 700 000/00 RMK AO2 T01890172
53988KBKB BKB20190724231510707/24/19 23:15:31  5-MIN KBKB 250515Z AUTO 00000KT 10SM CLR 18/17 A3004 190 93 700 000/00 RMK AO2 T01830172
53988KBKB BKB20190724232006607/24/19 23:20:31  5-MIN KBKB 250520Z AUTO 00000KT 10SM CLR 18/167
53988KBKB BKB20190724232010707/24/19 23:20:31  5-MIN KBKB 250520Z AUTO 00000KT 10SM CLR 18/17 A3004 190 90 700 000/00 RMK AO2 T01830167
53988KBKB BKB20190724232510707/24/19 23:25:31  5-MIN KBKB 250525Z AUTO 00000KT 10SM CLR 18/17 A3004 190 90 700 000/00 RMK AO2 T01830167
53988KBKB BKB20190724233006607/24/19 23:30:31  5-MIN KBKB 250530Z AUTO 00/00 RMK AO2 T01890172
53988KBKB BKB20190724233010707/24/19 23:30:31  5-MIN KBKB 250530Z AUTO 00000KT 10SM CLR 18/17 A3004 190 90 700 000/00 RMK AO2 T01830167
53988KBKB BKB20190724233510707/24/19 23:35:31  5-MIN KBKB 250535Z AUTO 00000KT 10SM CLR 18/17 A3004 190 90 700 000/00 RMK AO2 T01830167
53988KBKB BKB20190724234010707/24/19 23:40:31  5-MIN KBKB 250540Z AUTO 00000KT 10SM CLR 18/17 A3004 190 90 700 000/00 RMK AO2 T01830167
53988KBKB BKB20190724234510707/24/19 23:45:31  5-MIN KBKB 250545Z AUTO 00000KT 10SM CLR 18/17 A3004 190 90 700 000/00 RMK AO2 T01830167
53988KBKB BKB20190724235014207/24/19 23:50:31  5-MIN KBKB 250550Z AUTO 00000KT 10SM CLR 18/17 A3004 190 93 600 000/00 RMK AO2 SLP198 T01780167 10272 20178 403000172 53011
53988KBKB BKB20190724235510707/24/19 23:55:31  5-MIN KBKB 250555Z AUTO 00000KT 10SM CLR 18/17 A3004 190 93 600 000/00 RMK AO2 T01780167
53988KBKB BKB20190725000010707/25/19 00:00:31  5-MIN KBKB 250600Z AUTO 00000KT 10SM CLR 18/17 A3004 190 93 600 000/00 RMK AO2 T01780167
53988KBKB BKB20190725000510707/25/19 00:05:31  5-MIN KBKB 250605Z AUTO 00000KT 10SM CLR 18/17 A3004 190 93 600 000/00 RMK AO2 T01780167
53988KBKB BKB20190725001010707/25/19 00:10:31  5-MIN KBKB 250610Z AUTO 00000KT 10SM CLR 18/17 A3004 190 93 600 000/00 RMK AO2 T01780167
53988KBKB BKB20190725001510707/25/19 00:15:31  5-MIN KBKB 250615Z AUTO 00000KT 10SM CLR 18/17 A3003 190 93 600 000/00 RMK AO2 T01780167
53988KBKB BKB20190725002010707/25/19 00:20:31  5-MIN KBKB 250620Z AUTO 00000KT 10SM CLR 18/17 A3003 190 93 600 000/00 RMK AO2 T01780167
53988KBKB BKB20190725002510707/25/19 00:25:31  5-MIN KBKB 250625Z AUTO 00000KT 10SM CLR 18/17 A3003 190 93 600 000/00 RMK AO2 T01780167
53988KBKB BKB20190725003010707/25/19 00:30:31  5-MIN KBKB 250630Z AUTO 00000KT 10SM CLR 18/17 A3003 190 93 600 000/00 RMK AO2 T01780167
53988KBKB BKB20190725003510707/25/19 00:35:31  5-MIN KBKB 250635Z AUTO 00000KT 10SM CLR 18/17 A3003 190 93 600 000/00 RMK AO2 T01780167
53988KBKB BKB20190725004010707/25/19 00:40:31  5-MIN KBKB 250640Z AUTO 00000KT 10SM CLR 18/17 A3003 200 93 600 000/00 RMK AO2 T01780167
53988KBKB BKB20190725004510707/25/19 00:45:31  5-MIN KBKB 250645Z AUTO 00000KT 10SM CLR 18/17 A3003 200 93 600 000/00 RMK AO2 T01780167
53988KBKB BKB20190725005011407/25/19 00:50:31  5-MIN KBKB 250650Z AUTO 00000KT 10SM CLR 18/17 A3003 200 93 600 000/00 RMK AO2 SLP194 T01780167
53988KBKB BKB20190725005510707/25/19 00:55:31  5-MIN KBKB 250655Z AUTO 00000KT 10SM CLR 18/17 A3003 200 93 600 000/00 RMK AO2 T01780167
53988KBKB BKB20190725010010707/25/19 01:00:31  5-MIN KBKB 250700Z AUTO 00000KT 10SM CLR 18/17 A3003 200 93 600 000/00 RMK AO2 T01780167
53988KBKB BKB20190725010510707/25/19 01:05:31  5-MIN KBKB 250705Z AUTO 00000KT 10SM CLR 18/17 A3003 200 93 600 000/00 RMK AO2 T01780167
53988KBKB BKB20190725011010707/25/19 01:10:31  5-MIN KBKB 250710Z AUTO 00000KT 10SM CLR 18/17 A3003 200 93 600 000/00 RMK AO2 T01780167
53988KBKB BKB20190725011510707/25/19 01:15:31  5-MIN KBKB 250715Z AUTO 00000KT 10SM CLR 18/17 A3002 200 93 600 000/00 RMK AO2 T01780167
53988KBKB BKB20190725012010707/25/19 01:20:31  5-MIN KBKB 250720Z AUTO 00000KT 10SM CLR 18/17 A3002 200 93 600 000/00 RMK AO2 T01780167
53988KBKB BKB20190725012510707/25/19 01:25:31  5-MIN KBKB 250725Z AUTO 00000KT 10SM CLR 18/17 A3002 210 93 600 000/00 RMK AO2 T01780167
53988KBKB BKB20190725013010707/25/19 01:30:31  5-MIN KBKB 250730Z AUTO 00000KT 10SM CLR 18/17 A3002 210 93 600 000/00 RMK AO2 T01780167
53988KBKB BKB20190725013510707/25/19 01:35:31  5-MIN KBKB 250735Z AUTO 00000KT 10SM CLR 17/17 A3002 210 96 600 000/00 RMK AO2 T01720167
53988KBKB BKB20190725014010707/25/19 01:40:31  5-MIN KBKB 250740Z AUTO 00000KT 10SM CLR 17/17 A3002 210 96 600 000/00 RMK AO2 T01720167
53988KBKB BKB20190725014510707/25/19 01:45:31  5-MIN KBKB 250745Z AUTO 00000KT 10SM CLR 17/17 A3002 210 96 600 000/00 RMK AO2 T01720167
53988KBKB BKB20190725015011407/25/19 01:50:31  5-MIN KBKB 250750Z AUTO 00000KT 10SM CLR 18/17 A3002 210 93 600 000/00 RMK AO2 SLP191 T01780167
53988KBKB BKB20190725015510707/25/19 01:55:31  5-MIN KBKB 250755Z AUTO 00000KT 10SM CLR 18/17 A3002 210 93 600 000/00 RMK AO2 T01780167
53988KBKB BKB20190725020010707/25/19 02:00:31  5-MIN KBKB 250800Z AUTO 00000KT 10SM CLR 18/17 A3002 210 93 600 000/00 RMK AO2 T01780167
53988KBKB BKB20190725020510707/25/19 02:05:31  5-MIN KBKB 250805Z AUTO 00000KT 10SM CLR 17/17 A3002 210 96 600 000/00 RMK AO2 T01720167
53988KBKB BKB20190725021010707/25/19 02:10:31  5-MIN KBKB 250810Z AUTO 00000KT 10SM CLR 17/17 A3002 210 96 600 000/00 RMK AO2 T01720167
53988KBKB BKB20190725021510707/25/19 02:15:31  5-MIN KBKB 250815Z AUTO 00000KT 10SM CLR 17/17 A3002 210 96 600 000/00 RMK AO2 T01720167
53988KBKB BKB20190725022010707/25/19 02:20:31  5-MIN KBKB 250820Z AUTO 00000KT 10SM CLR 17/17 A3002 210 96 600 000/00 RMK AO2 T01720167
53988KBKB BKB20190725022510707/25/19 02:25:31  5-MIN KBKB 250825Z AUTO 00000KT 10SM CLR 17/16 A3002 210 93 600 000/00 RMK AO2 T01720161
53988KBKB BKB20190725023010707/25/19 02:30:31  5-MIN KBKB 250830Z AUTO 00000KT 10SM CLR 17/16 A3002 210 93 600 000/00 RMK AO2 T01720161
53988KBKB BKB20190725023510707/25/19 02:35:31  5-MIN KBKB 250835Z AUTO 00000KT 10SM CLR 17/16 A3002 210 93 600 000/00 RMK AO2 T01720161
53988KBKB BKB20190725024010707/25/19 02:40:31  5-MIN KBKB 250840Z AUTO 00000KT 10SM CLR 17/16 A3002 210 93 600 000/00 RMK AO2 T01720161
53988KBKB BKB20190725024510707/25/19 02:45:31  5-MIN KBKB 250845Z AUTO 00000KT 10SM CLR 17/16 A3002 210 93 600 000/00 RMK AO2 T01720161
53988KBKB BKB20190725025012007/25/19 02:50:31  5-MIN KBKB 250850Z AUTO 00000KT 10SM CLR 17/16 A3002 210 93 600 000/00 RMK AO2 SLP191 T01720161 50002
53988KBKB BKB20190725025510707/25/19 02:55:31  5-MIN KBKB 250855Z AUTO 00000KT 10SM CLR 17/16 A3002 210 93 600 000/00 RMK AO2 T01720161
53988KBKB BKB20190725030010707/25/19 03:00:31  5-MIN KBKB 250900Z AUTO 00000KT 10SM CLR 17/16 A3002 210 93 600 000/00 RMK AO2 T01720161
53988KBKB BKB20190725030510707/25/19 03:05:31  5-MIN KBKB 250905Z AUTO 00000KT 10SM CLR 17/16 A3002 210 93 600 000/00 RMK AO2 T01720161
53988KBKB BKB20190725031010707/25/19 03:10:31  5-MIN KBKB 250910Z AUTO 00000KT 10SM CLR 17/16 A3002 210 93 600 000/00 RMK AO2 T01720161
53988KBKB BKB20190725031510707/25/19 03:15:31  5-MIN KBKB 250915Z AUTO 00000KT 10SM CLR 17/16 A3002 210 93 600 000/00 RMK AO2 T01720161
53988KBKB BKB20190725032010707/25/19 03:20:31  5-MIN KBKB 250920Z AUTO 00000KT 10SM CLR 17/16 A3002 210 93 600 000/00 RMK AO2 T01720161
53988KBKB BKB20190725032510707/25/19 03:25:31  5-MIN KBKB 250925Z AUTO 00000KT 10SM CLR 17/16 A3002 210 93 600 000/00 RMK AO2 T01720161
53988KBKB BKB20190725033010707/25/19 03:30:31  5-MIN KBKB 250930Z AUTO 00000KT 10SM CLR 17/16 A3002 210 93 600 000/00 RMK AO2 T01720161
53988KBKB BKB20190725033510707/25/19 03:35:31  5-MIN KBKB 250935Z AUTO 00000KT 10SM CLR 17/16 A3002 200 93 600 000/00 RMK AO2 T01720161
53988KBKB BKB20190725034010707/25/19 03:40:31  5-MIN KBKB 250940Z AUTO 00000KT 10SM CLR 17/16 A3002 200 93 600 000/00 RMK AO2 T01720161
53988KBKB BKB20190725034510707/25/19 03:45:31  5-MIN KBKB 250945Z AUTO 00000KT 10SM CLR 17/16 A3002 200 93 600 000/00 RMK AO2 T01720161
53988KBKB BKB20190725035011407/25/19 03:50:31  5-MIN KBKB 250950Z AUTO 00000KT 10SM CLR 17/16 A3002 200 93 600 000/00 RMK AO2 SLP193 T01720161
53988KBKB BKB20190725035510707/25/19 03:55:31  5-MIN KBKB 250955Z AUTO 00000KT 10SM CLR 17/16 A3002 200 93 600 000/00 RMK AO2 T01720161
53988KBKB BKB20190725040010707/25/19 04:00:31  5-MIN KBKB 251000Z AUTO 00000KT 10SM CLR 17/16 A3003 200 93 500 000/00 RMK AO2 T01720161
53988KBKB BKB20190725040510707/25/19 04:05:31  5-MIN KBKB 251005Z AUTO 00000KT 10SM CLR 17/16 A3003 200 93 500 000/00 RMK AO2 T01720161
53988KBKB BKB20190725041010707/25/19 04:10:31  5-MIN KBKB 251010Z AUTO 00000KT 10SM CLR 17/16 A3003 200 93 500 000/00 RMK AO2 T01720161
53988KBKB BKB20190725041510707/25/19 04:15:31  5-MIN KBKB 251015Z AUTO 00000KT 10SM CLR 17/16 A3003 190 93 500 000/00 RMK AO2 T01720161
53988KBKB BKB20190725042010707/25/19 04:20:31  5-MIN KBKB 251020Z AUTO 00000KT 10SM CLR 17/16 A3004 190 93 500 000/00 RMK AO2 T01720161
53988KBKB BKB20190725042510707/25/19 04:25:31  5-MIN KBKB 251025Z AUTO 00000KT 10SM CLR 17/16 A3004 190 93 500 000/00 RMK AO2 T01720161
53988KBKB BKB20190725043010707/25/19 04:30:31  5-MIN KBKB 251030Z AUTO 00000KT 10SM CLR 17/16 A3004 190 93 500 000/00 RMK AO2 T01720161
53988KBKB BKB20190725043510707/25/19 04:35:31  5-MIN KBKB 251035Z AUTO 00000KT 10SM CLR 17/16 A3004 190 93 500 000/00 RMK AO2 T01720161
53988KBKB BKB20190725044010707/25/19 04:40:31  5-MIN KBKB 251040Z AUTO 00000KT 10SM CLR 18/17 A3004 190 93 600 000/00 RMK AO2 T01780167
53988KBKB BKB20190725044510707/25/19 04:45:31  5-MIN KBKB 251045Z AUTO 00000KT 10SM CLR 18/17 A3004 180 93 600 000/00 RMK AO2 T01780167
53988KBKB BKB20190725045011407/25/19 04:50:31  5-MIN KBKB 251050Z AUTO 00000KT 10SM CLR 18/17 A3005 180 93 600 000/00 RMK AO2 SLP200 T01780167
53988KBKB BKB20190725045510707/25/19 04:55:31  5-MIN KBKB 251055Z AUTO 00000KT 10SM CLR 18/17 A3005 180 93 600 000/00 RMK AO2 T01780167
53988KBKB BKB20190725050010707/25/19 05:00:31  5-MIN KBKB 251100Z AUTO 00000KT 10SM CLR 18/17 A3005 180 93 600 000/00 RMK AO2 T01780167
53988KBKB BKB20190725050510707/25/19 05:05:31  5-MIN KBKB 251105Z AUTO 02003KT 10SM CLR 18/17 A3005 180 93 600 020/03 RMK AO2 T01780167
53988KBKB BKB20190725051010707/25/19 05:10:31  5-MIN KBKB 251110Z AUTO 00000KT 10SM CLR 18/17 A3005 180 93 600 000/00 RMK AO2 T01780167
53988KBKB BKB20190725051510707/25/19 05:15:31  5-MIN KBKB 251115Z AUTO 00000KT 10SM CLR 18/17 A3005 180 93 600 000/00 RMK AO2 T01780167
53988KBKB BKB20190725052010707/25/19 05:20:31  5-MIN KBKB 251120Z AUTO 00000KT 10SM CLR 18/17 A3005 180 93 600 000/00 RMK AO2 T01780167
53988KBKB BKB20190725052510707/25/19 05:25:31  5-MIN KBKB 251125Z AUTO 00000KT 10SM CLR 18/17 A3005 180 93 600 000/00 RMK AO2 T01780167
53988KBKB BKB20190725053010707/25/19 05:30:31  5-MIN KBKB 251130Z AUTO 00000KT 10SM CLR 18/17 A3005 180 93 600 000/00 RMK AO2 T01780167
53988KBKB BKB20190725053510707/25/19 05:35:31  5-MIN KBKB 251135Z AUTO 00000KT 10SM CLR 18/17 A3006 170 93 600 000/00 RMK AO2 T01780167
53988KBKB BKB20190725054010707/25/19 05:40:31  5-MIN KBKB 251140Z AUTO 00000KT 10SM CLR 18/17 A3006 170 93 600 000/00 RMK AO2 T01780167
53988KBKB BKB20190725054510707/25/19 05:45:31  5-MIN KBKB 251145Z AUTO 00000KT 10SM CLR 18/17 A3006 170 93 600 000/00 RMK AO2 T01780167
53988KBKB BKB20190725055013207/25/19 05:50:31  5-MIN KBKB 251150Z AUTO 00000KT 10SM CLR 18/17 A3006 170 93 600 000/00 RMK AO2 SLP206 T01780167 10178 20172 56007
53988KBKB BKB20190725055510707/25/19 05:55:31  5-MIN KBKB 251155Z AUTO 00000KT 10SM CLR 18/17 A3006 160 93 600 000/00 RMK AO2 T01780167
53988KBKB BKB20190725060010707/25/19 06:00:31  5-MIN KBKB 251200Z AUTO 00000KT 10SM CLR 18/17 A3007 160 93 600 000/00 RMK AO2 T01780167
53988KBKB BKB20190725060510707/25/19 06:05:31  5-MIN KBKB 251205Z AUTO 00000KT 10SM CLR 18/17 A3007 160 93 600 000/00 RMK AO2 T01780167
53988KBKB BKB20190725061010707/25/19 06:10:31  5-MIN KBKB 251210Z AUTO 00000KT 10SM CLR 18/17 A3007 160 90 600 000/00 RMK AO2 T01830167
53988KBKB BKB20190725061510707/25/19 06:15:31  5-MIN KBKB 251215Z AUTO VRB03KT 10SM CLR 18/17 A3007 160 93 600 VRB/03 RMK AO2 T01830172
53988KBKB BKB20190725062010707/25/19 06:20:31  5-MIN KBKB 251220Z AUTO 00000KT 10SM CLR 18/17 A3008 150 93 600 000/00 RMK AO2 T01830172
53988KBKB BKB20190725062510707/25/19 06:25:31  5-MIN KBKB 251225Z AUTO 00000KT 10SM CLR 19/17 A3008 150 90 700 000/00 RMK AO2 T01890172
53988KBKB BKB20190725063010707/25/19 06:30:31  5-MIN KBKB 251230Z AUTO 00000KT 10SM CLR 19/18 A3008 150 90 700 000/00 RMK AO2 T01940178
53988KBKB BKB20190725063510707/25/19 06:35:31  5-MIN KBKB 251235Z AUTO 00000KT 10SM CLR 20/18 A3008 150 87 800 000/00 RMK AO2 T02000178
53988KBKB BKB20190725064010707/25/19 06:40:31  5-MIN KBKB 251240Z AUTO 00000KT 10SM CLR 20/18 A3008 150 90 800 000/00 RMK AO2 T02000183
53988KBKB BKB20190725064510707/25/19 06:45:31  5-MIN KBKB 251245Z AUTO 00000KT 10SM CLR 21/18 A3008 150 87 900 000/00 RMK AO2 T02060183
53988KBKB BKB20190725065011407/25/19 06:50:31  5-MIN KBKB 251250Z AUTO VRB03KT 10SM CLR 21/18 A3009 140 87 900 VRB/03 RMK AO2 SLP214 T02060183
53988KBKB BKB20190725065510707/25/19 06:55:31  5-MIN KBKB 251255Z AUTO VRB03KT 10SM CLR 21/18 A3009 150 87 900 VRB/03 RMK AO2 T02060183
53988KBKB BKB20190725070010707/25/19 07:00:31  5-MIN KBKB 251300Z AUTO 00000KT 10SM CLR 21/18 A3009 140 84 900 000/00 RMK AO2 T02110183
53988KBKB BKB20190725070510707/25/19 07:05:31  5-MIN KBKB 251305Z AUTO 03004KT 10SM CLR 21/18 A3009 150 84 900 030/04 RMK AO2 T02110183
53988KBKB BKB20190725071010807/25/19 07:10:31  5-MIN KBKB 251310Z AUTO VRB03KT 10SM CLR 22/18 A3009 150 81 1000 VRB/03 RMK AO2 T02170183
53988KBKB BKB20190725071510807/25/19 07:15:31  5-MIN KBKB 251315Z AUTO 02003KT 10SM CLR 22/18 A3009 140 78 1100 020/03 RMK AO2 T02220183
53988KBKB BKB20190725072010807/25/19 07:20:31  5-MIN KBKB 251320Z AUTO VRB04KT 10SM CLR 22/18 A3009 140 78 1100 VRB/04 RMK AO2 T02220183
53988KBKB BKB20190725072510807/25/19 07:25:31  5-MIN KBKB 251325Z AUTO 00000KT 10SM CLR 23/19 A3009 140 78 1100 000/00 RMK AO2 T02280189
53988KBKB BKB20190725075510807/25/19 07:55:31  5-MIN KBKB 251355Z AUTO 00000KT 10SM CLR 24/19 A3009 140 73 1200 000/00 RMK AO2 T02390189
53988KBKB BKB20190725080011107/25/19 08:00:31  5-MIN KBKB 251400Z AUTO VRB04KT 10SM FEW055 24/19 A3009 140 73 1200 VRB/04 RMK AO2 T02390189
53988KBKB BKB20190725080511107/25/19 08:05:31  5-MIN KBKB 251405Z AUTO VRB04KT 10SM FEW055 24/19 A3009 140 73 1200 VRB/04 RMK AO2 T02390189
53988KBKB BKB20190725081010807/25/19 08:10:31  5-MIN KBKB 251410Z AUTO VRB04KT 10SM CLR 24/19 A3009 140 71 1300 VRB/04 RMK AO2 T02440189
53988KBKB BKB20190725081510807/25/19 08:15:31  5-MIN KBKB 251415Z AUTO VRB03KT 10SM CLR 24/18 A3009 140 68 1300 VRB/03 RMK AO2 T02440183
53988KBKB BKB20190725082010807/25/19 08:20:31  5-MIN KBKB 251420Z AUTO VRB03KT 10SM CLR 25/19 A3009 140 71 1400 VRB/03 RMK AO2 T02500194
53988KBKB BKB20190725082016507/25/19 08:20:31  5-MIN KBKB 251420Z AUTO VRB03KT 10SM CLR 25/19 A3009 140 71 1400 VRB/03 RMK AO2 T0250019407/25/19 04/19 A3009 140 73 1200 VRB/04 RMK AO2 T02390189
53988KBKB BKB20190725082510807/25/19 08:25:31  5-MIN KBKB 251425Z AUTO 03005KT 10SM CLR 25/19 A3009 140 68 1400 030/05 RMK AO2 T02500189
53988KBKB BKB20190725083010807/25/19 08:30:31  5-MIN KBKB 251430Z AUTO VRB03KT 10SM CLR 25/18 A3010 140 66 1400 VRB/03 RMK AO2 T02500183
53988KBKB BKB20190725083510807/25/19 08:35:31  5-MIN KBKB 251435Z AUTO VRB03KT 10SM CLR 26/19 A3010 140 66 1400 VRB/03 RMK AO2 T02560189
53988KBKB BKB20190725084010807/25/19 08:40:31  5-MIN KBKB 251440Z AUTO VRB03KT 10SM CLR 26/18 A3009 140 62 1500 VRB/03 RMK AO2 T02610183
53988KBKB BKB20190725084510807/25/19 08:45:31  5-MIN KBKB 251445Z AUTO VRB04KT 10SM CLR 26/18 A3009 140 62 1500 VRB/04 RMK AO2 T02610183
53988KBKB BKB20190725085012107/25/19 08:50:31  5-MIN KBKB 251450Z AUTO VRB04KT 10SM CLR 26/18 A3009 140 62 1500 VRB/04 RMK AO2 SLP217 T02610183 53016
53988KBKB BKB20190725085510807/25/19 08:55:31  5-MIN KBKB 251455Z AUTO VRB03KT 10SM CLR 26/19 A3010 140 64 1500 VRB/03 RMK AO2 T02610189
53988KBKB BKB20190725090010807/25/19 09:00:31  5-MIN KBKB 251500Z AUTO VRB05KT 10SM CLR 25/18 A3010 130 66 1400 VRB/05 RMK AO2 T02500183
53988KBKB BKB20190725090510807/25/19 09:05:31  5-MIN KBKB 251505Z AUTO VRB04KT 10SM CLR 26/18 A3010 140 64 1400 VRB/04 RMK AO2 T02560183
53988KBKB BKB20190725091010807/25/19 09:10:31  5-MIN KBKB 251510Z AUTO VRB03KT 10SM CLR 27/19 A3010 140 62 1600 VRB/03 RMK AO2 T02670189
53988KBKB BKB20190725091510807/25/19 09:15:31  5-MIN KBKB 251515Z AUTO 00000KT 10SM CLR 27/19 A3009 140 62 1600 000/00 RMK AO2 T02670189
53988KBKB BKB20190725092010807/25/19 09:20:31  5-MIN KBKB 251520Z AUTO VRB05KT 10SM CLR 27/18 A3009 140 60 1600 VRB/05 RMK AO2 T02670183
53988KBKB BKB20190725092510807/25/19 09:25:31  5-MIN KBKB 251525Z AUTO VRB04KT 10SM CLR 27/18 A3009 140 60 1600 VRB/04 RMK AO2 T02670183
53988KBKB BKB20190725093010807/25/19 09:30:31  5-MIN KBKB 251530Z AUTO VRB04KT 10SM CLR 27/19 A3009 140 60 1600 VRB/04 RMK AO2 T02720189
53988KBKB BKB20190725093510807/25/19 09:35:31  5-MIN KBKB 251535Z AUTO VRB05KT 10SM CLR 27/18 A3009 150 58 1600 VRB/05 RMK AO2 T02720183
53988KBKB BKB20190725094010807/25/19 09:40:31  5-MIN KBKB 251540Z AUTO VRB04KT 10SM CLR 27/18 A3008 150 58 1600 VRB/04 RMK AO2 T02720183
53988KBKB BKB20190725094510807/25/19 09:45:31  5-MIN KBKB 251545Z AUTO VRB04KT 10SM CLR 28/18 A3008 150 56 1700 VRB/04 RMK AO2 T02780183
53988KBKB BKB20190725095011507/25/19 09:50:31  5-MIN KBKB 251550Z AUTO VRB05KT 10SM CLR 28/18 A3008 150 54 1700 VRB/05 RMK AO2 SLP213 T02780178
53988KBKB BKB20190725095510807/25/19 09:55:31  5-MIN KBKB 251555Z AUTO VRB04KT 10SM CLR 28/18 A3008 150 56 1700 VRB/04 RMK AO2 T02780183
53988KBKB BKB20190725100010807/25/19 10:00:31  5-MIN KBKB 251600Z AUTO VRB04KT 10SM CLR 27/18 A3008 150 57 1600 VRB/04 RMK AO2 T02670178
53988KBKB BKB20190725100510807/25/19 10:05:31  5-MIN KBKB 251605Z AUTO VRB04KT 10SM CLR 28/18 A3008 150 54 1700 VRB/04 RMK AO2 T02780178
53988KBKB BKB20190725101010807/25/19 10:10:31  5-MIN KBKB 251610Z AUTO VRB03KT 10SM CLR 28/17 A3008 150 50 1800 VRB/03 RMK AO2 T02830172
53988KBKB BKB20190725101510807/25/19 10:15:31  5-MIN KBKB 251615Z AUTO VRB03KT 10SM CLR 28/17 A3008 150 50 1800 VRB/03 RMK AO2 T02830172
53988KBKB BKB20190725102009807/25/19 10:20:31  5-MIN KBKB 251620Z AUTO 10SM CLR 29/17 A3008 150 48 1800 M /M RMK AO2 T02890172
53988KBKB BKB20190725102510807/25/19 10:25:31  5-MIN KBKB 251625Z AUTO 05006KT 10SM CLR 28/16 A3008 150 47 1800 050/06 RMK AO2 T02830161
53988KBKB BKB20190725103010807/25/19 10:30:31  5-MIN KBKB 251630Z AUTO VRB04KT 10SM CLR 28/17 A3008 150 48 1800 VRB/04 RMK AO2 T02830167
53988KBKB BKB20190725103017207/25/19 10:30:31  5-MIN KBKB 251630Z AUTO VRB04KT 10SM CLR 28/17 A3008 155:31  5-MIN KBKB 251655Z AUTO VRB03KT 10SM FEW050 29/16 A3007 160 45 1800 VRB/03 RMK AO2 T02890161
53988KBKB BKB20190725103510807/25/19 10:35:31  5-MIN KBKB 251635Z AUTO 12005KT 10SM CLR 29/17 A3008 150 48 1800 110/05 RMK AO2 T02890172
53988KBKB BKB20190725104010807/25/19 10:40:31  5-MIN KBKB 251640Z AUTO VRB05KT 10SM CLR 29/17 A3007 160 47 1800 VRB/05 RMK AO2 T02890167
53988KBKB BKB20190725104511107/25/19 10:45:31  5-MIN KBKB 251645Z AUTO VRB05KT 10SM FEW050 29/17 A3007 160 45 1900 VRB/05 RMK AO2 T02940167
53988KBKB BKB20190725105011807/25/19 10:50:31  5-MIN KBKB 251650Z AUTO VRB03KT 10SM FEW050 29/17 A3007 160 45 1900 VRB/03 RMK AO2 SLP210 T02940167
53988KBKB BKB20190725105511107/25/19 10:55:31  5-MIN KBKB 251655Z AUTO VRB03KT 10SM FEW050 29/16 A3007 160 45 1800 VRB/03 RMK AO2 T02890161
53988KBKB BKB20190725110010107/25/19 11:00:31  5-MIN KBKB 251700Z AUTO 10SM FEW050 29/17 A3007 160 47 1800 M /M RMK AO2 T02890167
53988KBKB BKB20190725110511107/25/19 11:05:31  5-MIN KBKB 251705Z AUTO VRB04KT 10SM FEW050 28/17 A3007 160 48 1800 VRB/04 RMK AO2 T02830167
53988KBKB BKB20190725111011107/25/19 11:10:31  5-MIN KBKB 251710Z AUTO VRB04KT 10SM FEW050 29/16 A3007 160 44 1900 VRB/04 RMK AO2 T02940161
53988KBKB BKB20190725111511107/25/19 11:15:31  5-MIN KBKB 251715Z AUTO VRB04KT 10SM FEW049 29/17 A3007 160 45 1900 VRB/04 RMK AO2 T02940167
53988KBKB BKB20190725112011107/25/19 11:20:31  5-MIN KBKB 251720Z AUTO VRB04KT 10SM SCT049 28/16 A3007 160 47 1800 VRB/04 RMK AO2 T02830161
53988KBKB BKB20190725112511107/25/19 11:25:31  5-MIN KBKB 251725Z AUTO VRB06KT 10SM SCT050 29/17 A3007 160 48 1800 VRB/06 RMK AO2 T02890172
53988KBKB BKB20190725113010107/25/19 11:30:31  5-MIN KBKB 251730Z AUTO 10SM SCT050 30/17 A3007 160 45 2000 M /M RMK AO2 T03000172
53988KBKB BKB20190725113511107/25/19 11:35:31  5-MIN KBKB 251735Z AUTO VRB04KT 10SM FEW050 30/17 A3006 170 45 2000 VRB/04 RMK AO2 T03000172
53988KBKB BKB20190725114011107/25/19 11:40:31  5-MIN KBKB 251740Z AUTO VRB04KT 10SM FEW050 29/17 A3006 170 47 1900 VRB/04 RMK AO2 T02940172
53988KBKB BKB20190725114511107/25/19 11:45:31  5-MIN KBKB 251745Z AUTO VRB03KT 10SM FEW050 30/17 A3006 170 44 2000 VRB/03 RMK AO2 T03000167
53988KBKB BKB20190725115015207/25/19 11:50:31  5-MIN KBKB 251750Z AUTO 06007KT 020V080 10SM FEW050 30/17 A3007 160 44 2000 060/07 020V080 RMK AO2 SLP207 T03000167 10300 20178 51010
53988KBKB BKB20190725115511107/25/19 11:55:31  5-MIN KBKB 251755Z AUTO VRB05KT 10SM FEW050 30/17 A3007 160 44 2000 VRB/05 RMK AO2 T03000167
53988KBKB BKB20190725120011107/25/19 12:00:31  5-MIN KBKB 251800Z AUTO VRB05KT 10SM FEW050 29/17 A3006 170 45 1900 VRB/05 RMK AO2 T02940167
53988KBKB BKB20190725120511107/25/19 12:05:31  5-MIN KBKB 251805Z AUTO VRB05KT 10SM FEW050 29/17 A3006 170 45 1900 VRB/05 RMK AO2 T02940167
53988KBKB BKB20190725121011107/25/19 12:10:31  5-MIN KBKB 251810Z AUTO VRB04KT 10SM FEW050 31/17 A3006 170 44 2000 VRB/04 RMK AO2 T03060172
53988KBKB BKB20190725121511107/25/19 12:15:31  5-MIN KBKB 251815Z AUTO VRB04KT 10SM SCT050 31/17 A3006 170 42 2000 VRB/04 RMK AO2 T03060167
53988KBKB BKB20190725122011107/25/19 12:20:31  5-MIN KBKB 251820Z AUTO VRB05KT 10SM FEW055 30/17 A3006 170 45 2000 VRB/05 RMK AO2 T03000172
53988KBKB BKB20190725122511107/25/19 12:25:31  5-MIN KBKB 251825Z AUTO VRB05KT 10SM FEW050 30/17 A3006 170 45 2000 VRB/05 RMK AO2 T03000172
53988KBKB BKB20190725123011107/25/19 12:30:31  5-MIN KBKB 251830Z AUTO VRB05KT 10SM FEW050 29/17 A3006 170 47 1800 VRB/05 RMK AO2 T02890167
53988KBKB BKB20190725123511107/25/19 12:35:31  5-MIN KBKB 251835Z AUTO 00000KT 10SM FEW050 30/17 A3006 170 45 2000 000/00 RMK AO2 T03000172
53988KBKB BKB20190725124010107/25/19 12:40:31  5-MIN KBKB 251840Z AUTO 10SM FEW055 29/17 A3006 170 47 1900 M /M RMK AO2 T02940172
53988KBKB BKB20190725124511107/25/19 12:45:31  5-MIN KBKB 251845Z AUTO VRB05KT 10SM FEW055 31/17 A3005 180 42 2000 VRB/05 RMK AO2 T03060167
53988KBKB BKB20190725125011807/25/19 12:50:31  5-MIN KBKB 251850Z AUTO VRB04KT 10SM FEW055 29/17 A3005 180 45 1900 VRB/04 RMK AO2 SLP202 T02940167
53988KBKB BKB20190725125511107/25/19 12:55:31  5-MIN KBKB 251855Z AUTO VRB05KT 10SM FEW055 31/17 A3005 180 42 2000 VRB/05 RMK AO2 T03060167
53988KBKB BKB20190725130011107/25/19 13:00:31  5-MIN KBKB 251900Z AUTO VRB05KT 10SM FEW055 31/17 A3005 180 42 2000 VRB/05 RMK AO2 T03060167
53988KBKB BKB20190725130511107/25/19 13:05:31  5-MIN KBKB 251905Z AUTO VRB06KT 10SM FEW055 31/16 A3005 180 39 2000 VRB/06 RMK AO2 T03060156
53988KBKB BKB20190725131010107/25/19 13:10:31  5-MIN KBKB 251910Z AUTO 10SM FEW060 31/16 A3005 180 41 2000 M /M RMK AO2 T03060161
53988KBKB BKB20190725131511107/25/19 13:15:31  5-MIN KBKB 251915Z AUTO 00000KT 10SM SCT055 31/16 A3005 180 41 2000 000/00 RMK AO2 T03060161
53988KBKB BKB20190725132011107/25/19 13:20:31  5-MIN KBKB 251920Z AUTO VRB04KT 10SM SCT055 30/16 A3004 180 42 2000 VRB/04 RMK AO2 T03000161
53988KBKB BKB20190725132511107/25/19 13:25:31  5-MIN KBKB 251925Z AUTO VRB03KT 10SM SCT055 31/16 A3004 190 40 2100 VRB/03 RMK AO2 T03110161
53988KBKB BKB20190725133011107/25/19 13:30:31  5-MIN KBKB 251930Z AUTO 00000KT 10SM SCT055 31/16 A3004 190 40 2100 000/00 RMK AO2 T03110161
53988KBKB BKB20190725133511107/25/19 13:35:31  5-MIN KBKB 251935Z AUTO VRB04KT 10SM BKN055 29/16 A3004 190 45 1900 VRB/04 RMK AO2 T02890161
53988KBKB BKB20190725134011107/25/19 13:40:31  5-MIN KBKB 251940Z AUTO VRB04KT 10SM SCT055 31/16 A3004 190 41 2100 VRB/04 RMK AO2 T03060161
53988KBKB BKB20190725134511107/25/19 13:45:31  5-MIN KBKB 251945Z AUTO 10006KT 10SM FEW055 31/16 A3004 190 40 2100 100/06 RMK AO2 T03110161
53988KBKB BKB20190725135011807/25/19 13:50:31  5-MIN KBKB 251950Z AUTO 00000KT 10SM FEW055 31/17 A3003 190 41 2100 000/00 RMK AO2 SLP196 T03110167
53988KBKB BKB20190725135511107/25/19 13:55:31  5-MIN KBKB 251955Z AUTO VRB04KT 10SM SCT055 31/16 A3003 190 41 2100 VRB/04 RMK AO2 T03060161
53988KBKB BKB20190725140010107/25/19 14:00:31  5-MIN KBKB 252000Z AUTO 10SM SCT060 31/17 A3003 190 41 2100 M /M RMK AO2 T03110167
53988KBKB BKB20190725140511107/25/19 14:05:31  5-MIN KBKB 252005Z AUTO VRB04KT 10SM SCT060 31/16 A3003 190 41 2100 VRB/04 RMK AO2 T03060161
53988KBKB BKB20190725141011107/25/19 14:10:31  5-MIN KBKB 252010Z AUTO VRB04KT 10SM FEW060 31/17 A3003 190 41 2100 VRB/04 RMK AO2 T03110167
53988KBKB BKB20190725141511107/25/19 14:15:31  5-MIN KBKB 252015Z AUTO VRB04KT 10SM FEW060 31/17 A3003 190 41 2100 VRB/04 RMK AO2 T03110167
53988KBKB BKB20190725142011107/25/19 14:20:31  5-MIN KBKB 252020Z AUTO 00000KT 10SM FEW060 31/16 A3003 190 39 2100 000/00 RMK AO2 T03060156
53988KBKB BKB20190725142511107/25/19 14:25:31  5-MIN KBKB 252025Z AUTO VRB06KT 10SM FEW060 31/16 A3003 190 40 2100 VRB/06 RMK AO2 T03110161
53988KBKB BKB20190725143011107/25/19 14:30:31  5-MIN KBKB 252030Z AUTO VRB04KT 10SM FEW060 31/17 A3003 200 42 2100 VRB/04 RMK AO2 T03060167
53988KBKB BKB20190725143511107/25/19 14:35:31  5-MIN KBKB 252035Z AUTO VRB03KT 10SM FEW060 32/17 A3003 200 40 2200 VRB/03 RMK AO2 T03170167
53988KBKB BKB20190725144011107/25/19 14:40:31  5-MIN KBKB 252040Z AUTO VRB03KT 10SM SCT060 31/16 A3003 200 41 2100 VRB/03 RMK AO2 T03060161
53988KBKB BKB20190725144511107/25/19 14:45:31  5-MIN KBKB 252045Z AUTO 05004KT 10SM SCT060 29/16 A3003 200 44 1900 050/04 RMK AO2 T02940161
53988KBKB BKB20190725145012407/25/19 14:50:31  5-MIN KBKB 252050Z AUTO 00000KT 10SM FEW060 31/17 A3003 200 42 2100 000/00 RMK AO2 SLP195 T03060167 56010
53988KBKB BKB20190725145511107/25/19 14:55:31  5-MIN KBKB 252055Z AUTO VRB03KT 10SM FEW060 31/16 A3003 200 38 2100 VRB/03 RMK AO2 T03110156
53988KBKB BKB20190725150011107/25/19 15:00:31  5-MIN KBKB 252100Z AUTO VRB04KT 10SM FEW060 31/16 A3003 200 40 2100 VRB/04 RMK AO2 T03110161
53988KBKB BKB20190725150511107/25/19 15:05:31  5-MIN KBKB 252105Z AUTO VRB04KT 10SM FEW060 31/16 A3003 200 41 2100 VRB/04 RMK AO2 T03060161
53988KBKB BKB20190725151011107/25/19 15:10:31  5-MIN KBKB 252110Z AUTO VRB04KT 10SM FEW065 31/16 A3003 200 41 2100 VRB/04 RMK AO2 T03060161
53988KBKB BKB20190725151511107/25/19 15:15:31  5-MIN KBKB 252115Z AUTO VRB03KT 10SM FEW065 29/16 A3003 200 44 1900 VRB/03 RMK AO2 T02890156
53988KBKB BKB20190725152011107/25/19 15:20:31  5-MIN KBKB 252120Z AUTO 00000KT 10SM FEW065 31/16 A3002 200 41 2100 000/00 RMK AO2 T03060161
53988KBKB BKB20190725152511107/25/19 15:25:31  5-MIN KBKB 252125Z AUTO 00000KT 10SM FEW065 31/16 A3002 200 40 2100 000/00 RMK AO2 T03110161
53988KBKB BKB20190725153011107/25/19 15:30:31  5-MIN KBKB 252130Z AUTO VRB06KT 10SM FEW065 31/16 A3002 200 40 2100 VRB/06 RMK AO2 T03110161
53988KBKB BKB20190725153511107/25/19 15:35:31  5-MIN KBKB 252135Z AUTO VRB04KT 10SM SCT060 31/16 A3002 200 41 2100 VRB/04 RMK AO2 T03060161
53988KBKB BKB20190725154011107/25/19 15:40:31  5-MIN KBKB 252140Z AUTO VRB04KT 10SM SCT060 30/16 A3002 200 42 2000 VRB/04 RMK AO2 T03000161
53988KBKB BKB20190725154511107/25/19 15:45:31  5-MIN KBKB 252145Z AUTO VRB04KT 10SM SCT060 29/16 A3002 200 44 1900 VRB/04 RMK AO2 T02940161
53988KBKB BKB20190725155011807/25/19 15:50:31  5-MIN KBKB 252150Z AUTO VRB03KT 10SM FEW060 29/16 A3002 200 44 1900 VRB/03 RMK AO2 SLP193 T02940161
53988KBKB BKB20190725155511107/25/19 15:55:31  5-MIN KBKB 252155Z AUTO 00000KT 10SM FEW060 31/16 A3002 210 41 2100 000/00 RMK AO2 T03060161
53988KBKB BKB20190725160011107/25/19 16:00:31  5-MIN KBKB 252200Z AUTO VRB04KT 10SM FEW060 31/16 A3002 210 41 2100 VRB/04 RMK AO2 T03060161
53988KBKB BKB20190725160511107/25/19 16:05:31  5-MIN KBKB 252205Z AUTO VRB06KT 10SM FEW060 31/16 A3002 210 40 2100 VRB/06 RMK AO2 T03110161
53988KBKB BKB20190725161011107/25/19 16:10:31  5-MIN KBKB 252210Z AUTO VRB03KT 10SM FEW060 31/17 A3002 210 41 2100 VRB/03 RMK AO2 T03110167
53988KBKB BKB20190725161510807/25/19 16:15:31  5-MIN KBKB 252215Z AUTO VRB03KT 10SM CLR 30/17 A3002 210 44 2000 VRB/03 RMK AO2 T03000167
53988KBKB BKB20190725162011107/25/19 16:20:31  5-MIN KBKB 252220Z AUTO 00000KT 10SM FEW060 30/17 A3002 210 44 2000 000/00 RMK AO2 T03000167
53988KBKB BKB20190725162511107/25/19 16:25:31  5-MIN KBKB 252225Z AUTO VRB03KT 10SM SCT060 31/17 A3002 210 41 2100 VRB/03 RMK AO2 T03110167
53988KBKB BKB20190725163011107/25/19 16:30:31  5-MIN KBKB 252230Z AUTO VRB06KT 10SM SCT060 31/17 A3002 210 42 2100 VRB/06 RMK AO2 T03110172
53988KBKB BKB20190725163511107/25/19 16:35:31  5-MIN KBKB 252235Z AUTO 00000KT 10SM FEW060 29/16 A3002 210 44 2000 000/00 RMK AO2 T02940161
53988KBKB BKB20190725164011107/25/19 16:40:31  5-MIN KBKB 252240Z AUTO 00000KT 10SM FEW060 29/16 A3002 210 45 1900 000/00 RMK AO2 T02890161
53988KBKB BKB20190725164511107/25/19 16:45:31  5-MIN KBKB 252245Z AUTO VRB03KT 10SM FEW060 28/17 A3002 210 50 1800 VRB/03 RMK AO2 T02780167
53988KBKB BKB20190725165011807/25/19 16:50:31  5-MIN KBKB 252250Z AUTO VRB03KT 10SM FEW060 30/17 A3002 210 45 2000 VRB/03 RMK AO2 SLP191 T03000172
53988KBKB BKB20190725165511107/25/19 16:55:31  5-MIN KBKB 252255Z AUTO 09004KT 10SM FEW060 30/16 A3002 210 42 2000 090/04 RMK AO2 T03000161
53988KBKB BKB20190725170010807/25/19 17:00:31  5-MIN KBKB 252300Z AUTO VRB03KT 10SM CLR 31/17 A3002 210 42 2100 VRB/03 RMK AO2 T03060167
53988KBKB BKB20190725181510807/25/19 18:15:31  5-MIN KBKB 260015Z AUTO 00000KT 10SM CLR 27/17 A3004 190 55 1600 000/00 RMK AO2 T02670172
53988KBKB BKB20190725182010807/25/19 18:20:31  5-MIN KBKB 260020Z AUTO 00000KT 10SM CLR 27/18 A3004 190 57 1600 000/00 RMK AO2 T02670178
53988KBKB BKB20190725182510807/25/19 18:25:31  5-MIN KBKB 260025Z AUTO 00000KT 10SM CLR 27/18 A3004 190 56 1700 000/00 RMK AO2 T02720178
53988KBKB BKB20190725183010807/25/19 18:30:31  5-MIN KBKB 260030Z AUTO 00000KT 10SM CLR 26/18 A3004 190 61 1500 000/00 RMK AO2 T02560178
53988KBKB BKB20190725183510807/25/19 18:35:31  5-MIN KBKB 260035Z AUTO 00000KT 10SM CLR 26/18 A3004 190 61 1500 000/00 RMK AO2 T02560178
53988KBKB BKB20190725184010807/25/19 18:40:31  5-MIN KBKB 260040Z AUTO 00000KT 10SM CLR 26/18 A3004 190 59 1600 000/00 RMK AO2 T02610178
53988KBKB BKB20190725184016807/25/19 18:40:31  5-MIN KBKB 260040Z AUTO 00000KT 10SM CLR 26/18 A3004 190 59 1600 000/00 RMK AO2 T0261017807/25/1 CLR 27/18 A3004 190 57 1600 000/00 RMK AO2 T02670178
53988KBKB BKB20190725184510807/25/19 18:45:31  5-MIN KBKB 260045Z AUTO 00000KT 10SM CLR 26/18 A3004 190 61 1500 000/00 RMK AO2 T02560178
53988KBKB BKB20190725185011507/25/19 18:50:31  5-MIN KBKB 260050Z AUTO 00000KT 10SM CLR 25/18 A3004 190 66 1400 000/00 RMK AO2 SLP198 T02500183
53988KBKB BKB20190725185016807/25/19 18:50:31  5-MIN KBKB 260050Z AUTO 00000KT 10SM CLR 25/18 A3004 190 66 1400 000/00 RMK AO2 SLP198 T0250018307/25/19 1 A3004 190 61 1500 000/00 RMK AO2 T02560178
53988KBKB BKB20190725185510807/25/19 18:55:31  5-MIN KBKB 260055Z AUTO 00000KT 10SM CLR 25/18 A3004 190 66 1400 000/00 RMK AO2 T02500183
53988KBKB BKB20190725190010807/25/19 19:00:31  5-MIN KBKB 260100Z AUTO 00000KT 10SM CLR 24/18 A3004 190 68 1400 000/00 RMK AO2 T02440183
53988KBKB BKB20190725190510807/25/19 19:05:31  5-MIN KBKB 260105Z AUTO 00000KT 10SM CLR 24/18 A3003 190 68 1400 000/00 RMK AO2 T02440183
53988KBKB BKB20190725191010807/25/19 19:10:31  5-MIN KBKB 260110Z AUTO 00000KT 10SM CLR 24/18 A3004 190 71 1300 000/00 RMK AO2 T02390183
53988KBKB BKB20190725191510807/25/19 19:15:31  5-MIN KBKB 260115Z AUTO 00000KT 10SM CLR 24/18 A3004 190 71 1300 000/00 RMK AO2 T02390183
53988KBKB BKB20190725192010807/25/19 19:20:31  5-MIN KBKB 260120Z AUTO 00000KT 10SM CLR 23/18 A3004 190 76 1200 000/00 RMK AO2 T02280183
53988KBKB BKB20190725192510807/25/19 19:25:31  5-MIN KBKB 260125Z AUTO 00000KT 10SM CLR 23/18 A3004 190 76 1200 000/00 RMK AO2 T02280183
53988KBKB BKB20190725193010807/25/19 19:30:31  5-MIN KBKB 260130Z AUTO 00000KT 10SM CLR 23/18 A3004 190 73 1200 000/00 RMK AO2 T02330183
53988KBKB BKB20190725193510807/25/19 19:35:31  5-MIN KBKB 260135Z AUTO 00000KT 10SM CLR 23/18 A3004 190 76 1200 000/00 RMK AO2 T02280183
53988KBKB BKB20190725194010807/25/19 19:40:31  5-MIN KBKB 260140Z AUTO 00000KT 10SM CLR 23/18 A3004 190 76 1200 000/00 RMK AO2 T02280183
53988KBKB BKB20190725194510807/25/19 19:45:31  5-MIN KBKB 260145Z AUTO 00000KT 10SM CLR 22/18 A3004 190 75 1100 000/00 RMK AO2 T02220178
53988KBKB BKB20190725195011507/25/19 19:50:31  5-MIN KBKB 260150Z AUTO 00000KT 10SM CLR 22/18 A3004 180 78 1000 000/00 RMK AO2 SLP200 T02170178
53988KBKB BKB20190725195510807/25/19 19:55:31  5-MIN KBKB 260155Z AUTO 00000KT 10SM CLR 22/18 A3004 180 81 1000 000/00 RMK AO2 T02170183
53988KBKB BKB20190725200010807/25/19 20:00:31  5-MIN KBKB 260200Z AUTO 00000KT 10SM CLR 22/18 A3005 180 81 1000 000/00 RMK AO2 T02170183
53988KBKB BKB20190725200510807/25/19 20:05:31  5-MIN KBKB 260205Z AUTO 00000KT 10SM CLR 21/18 A3004 180 84 1000 000/00 RMK AO2 T02110183
53988KBKB BKB20190725201010807/25/19 20:10:31  5-MIN KBKB 260210Z AUTO 00000KT 10SM CLR 22/18 A3004 180 81 1000 000/00 RMK AO2 T02170183
53988KBKB BKB20190725201510807/25/19 20:15:31  5-MIN KBKB 260215Z AUTO 00000KT 10SM CLR 22/18 A3005 180 81 1000 000/00 RMK AO2 T02170183
53988KBKB BKB20190725202010807/25/19 20:20:31  5-MIN KBKB 260220Z AUTO 00000KT 10SM CLR 22/18 A3005 180 78 1100 000/00 RMK AO2 T02220183
53988KBKB BKB20190725202509607/25/19 20:25:31  5-MIN KBKB 260225Z AUTO 00000KT 10 A3006 170 84 1000 000/00 RMK AO2 T02110183
53988KBKB BKB20190725210510807/25/19 21:05:31  5-MIN KBKB 260305Z AUTO 00000KT 10SM CLR 22/18 A3006 170 78 1000 000/00 RMK AO2 T02170178
53988KBKB BKB20190725211010807/25/19 21:10:31  5-MIN KBKB 260310Z AUTO 00000KT 10SM CLR 22/18 A3006 170 78 1000 000/00 RMK AO2 T02170178
53988KBKB BKB20190725211510807/25/19 21:15:31  5-MIN KBKB 260315Z AUTO 00000KT 10SM CLR 21/18 A3006 170 81 1000 000/00 RMK AO2 T02110178
53988KBKB BKB20190725212010807/25/19 21:20:31  5-MIN KBKB 260320Z AUTO 00000KT 10SM CLR 21/19 A3006 170 87 1000 000/00 RMK AO2 T02110189
53988KBKB BKB20190725212510807/25/19 21:25:31  5-MIN KBKB 260325Z AUTO 00000KT 10SM CLR 21/18 A3006 170 84 1000 000/00 RMK AO2 T02110183
53988KBKB BKB20190725213010807/25/19 21:30:31  5-MIN KBKB 260330Z AUTO 00000KT 10SM CLR 21/18 A3006 170 84 1000 000/00 RMK AO2 T02110183
53988KBKB BKB20190725213510807/25/19 21:35:31  5-MIN KBKB 260335Z AUTO 00000KT 10SM CLR 21/18 A3006 170 84 1000 000/00 RMK AO2 T02110183
53988KBKB BKB20190725214010807/25/19 21:40:31  5-MIN KBKB 260340Z AUTO 00000KT 10SM CLR 21/18 A3006 170 84 1000 000/00 RMK AO2 T02110183
53988KBKB BKB20190725214510807/25/19 21:45:31  5-MIN KBKB 260345Z AUTO 00000KT 10SM CLR 21/18 A3006 170 84 1000 000/00 RMK AO2 T02110183
53988KBKB BKB20190725215011507/25/19 21:50:31  5-MIN KBKB 260350Z AUTO 00000KT 10SM CLR 21/18 A3006 170 84 1000 000/00 RMK AO2 SLP206 T02110183
53988KBKB BKB20190725215510807/25/19 21:55:31  5-MIN KBKB 260355Z AUTO 00000KT 10SM CLR 21/18 A3006 170 84 1000 000/00 RMK AO2 T02110183
53988KBKB BKB20190725220010807/25/19 22:00:31  5-MIN KBKB 260400Z AUTO 00000KT 10SM CLR 21/18 A3006 160 84 1000 000/00 RMK AO2 T02110183
53988KBKB BKB20190725220510807/25/19 22:05:31  5-MIN KBKB 260405Z AUTO 00000KT 10SM CLR 21/18 A3006 170 84 1000 000/00 RMK AO2 T02110183
53988KBKB BKB20190725221010707/25/19 22:10:31  5-MIN KBKB 260410Z AUTO 00000KT 10SM CLR 21/18 A3006 170 87 900 000/00 RMK AO2 T02060183
53988KBKB BKB20190725221510707/25/19 22:15:31  5-MIN KBKB 260415Z AUTO 00000KT 10SM CLR 21/18 A3006 170 87 900 000/00 RMK AO2 T02060183
53988KBKB BKB20190725222010807/25/19 22:20:31  5-MIN KBKB 260420Z AUTO 00000KT 10SM CLR 21/18 A3006 160 84 1000 000/00 RMK AO2 T02110183
53988KBKB BKB20190725222510707/25/19 22:25:31  5-MIN KBKB 260425Z AUTO 00000KT 10SM CLR 21/18 A3006 160 87 900 000/00 RMK AO2 T02060183
53988KBKB BKB20190725223010707/25/19 22:30:31  5-MIN KBKB 260430Z AUTO 00000KT 10SM CLR 21/18 A3006 170 87 900 000/00 RMK AO2 T02060183
53988KBKB BKB20190725223510707/25/19 22:35:31  5-MIN KBKB 260435Z AUTO 00000KT 10SM CLR 21/18 A3006 160 87 900 000/00 RMK AO2 T02060183
53988KBKB BKB20190725224010707/25/19 22:40:31  5-MIN KBKB 260440Z AUTO 00000KT 10SM CLR 21/18 A3007 160 87 900 000/00 RMK AO2 T02060183
53988KBKB BKB20190725224510707/25/19 22:45:31  5-MIN KBKB 260445Z AUTO 00000KT 10SM CLR 21/18 A3007 160 87 900 000/00 RMK AO2 T02060183
53988KBKB BKB20190725225011407/25/19 22:50:31  5-MIN KBKB 260450Z AUTO 00000KT 10SM CLR 21/18 A3007 160 87 900 000/00 RMK AO2 SLP206 T02060183
53988KBKB BKB20190725225510707/25/19 22:55:31  5-MIN KBKB 260455Z AUTO 00000KT 10SM CLR 21/18 A3007 160 87 900 000/00 RMK AO2 T02060183
53988KBKB BKB20190725230010707/25/19 23:00:31  5-MIN KBKB 260500Z AUTO 00000KT 10SM CLR 21/18 A3007 160 87 900 000/00 RMK AO2 T02060183
53988KBKB BKB20190725230510707/25/19 23:05:31  5-MIN KBKB 260505Z AUTO 00000KT 10SM CLR 21/18 A3006 170 84 900 000/00 RMK AO2 T02060178
53988KBKB BKB20190725231010707/25/19 23:10:31  5-MIN KBKB 260510Z AUTO 00000KT 10SM CLR 21/18 A3006 170 84 900 000/00 RMK AO2 T02060178
53988KBKB BKB20190725231510707/25/19 23:15:31  5-MIN KBKB 260515Z AUTO 00000KT 10SM CLR 21/18 A3006 170 87 900 000/00 RMK AO2 T02060183
53988KBKB BKB20190725232010707/25/19 23:20:31  5-MIN KBKB 260520Z AUTO 00000KT 10SM CLR 21/18 A3006 170 87 900 000/00 RMK AO2 T02060183
53988KBKB BKB20190725232510707/25/19 23:25:31  5-MIN KBKB 260525Z AUTO 00000KT 10SM CLR 21/18 A3007 160 87 900 000/00 RMK AO2 T02060183
53988KBKB BKB20190725233010707/25/19 23:30:31  5-MIN KBKB 260530Z AUTO 00000KT 10SM CLR 21/18 A3007 160 87 900 000/00 RMK AO2 T02060183
53988KBKB BKB20190725233510707/25/19 23:35:31  5-MIN KBKB 260535Z AUTO 00000KT 10SM CLR 21/18 A3007 160 87 900 000/00 RMK AO2 T02060183
53988KBKB BKB20190725234010707/25/19 23:40:31  5-MIN KBKB 260540Z AUTO 00000KT 10SM CLR 20/18 A3007 160 90 800 000/00 RMK AO2 T02000183
53988KBKB BKB20190725234510707/25/19 23:45:31  5-MIN KBKB 260545Z AUTO 00000KT 10SM CLR 20/18 A3007 160 90 800 000/00 RMK AO2 T02000183
53988KBKB BKB20190725235014207/25/19 23:50:31  5-MIN KBKB 260550Z AUTO 00000KT 10SM CLR 21/18 A3007 160 87 900 000/00 RMK AO2 SLP207 T02060183 10283 20200 403170172 53008
53988KBKB BKB20190725235510707/25/19 23:55:31  5-MIN KBKB 260555Z AUTO 00000KT 10SM CLR 20/18 A3007 160 90 800 000/00 RMK AO2 T02000183
53988KBKB BKB20190726000010707/26/19 00:00:31  5-MIN KBKB 260600Z AUTO 00000KT 10SM CLR 21/18 A3007 160 84 900 000/00 RMK AO2 T02060178
53988KBKB BKB20190726000510707/26/19 00:05:31  5-MIN KBKB 260605Z AUTO 00000KT 10SM CLR 21/18 A3006 160 84 900 000/00 RMK AO2 T02060178
53988KBKB BKB20190726001010707/26/19 00:10:31  5-MIN KBKB 260610Z AUTO 00000KT 10SM CLR 21/18 A3006 170 84 900 000/00 RMK AO2 T02060178
53988KBKB BKB20190726001511007/26/19 00:15:31  5-MIN KBKB 260615Z AUTO 00000KT 10SM FEW060 21/18 A3006 170 84 900 000/00 RMK AO2 T02060178
53988KBKB BKB20190726002011007/26/19 00:20:31  5-MIN KBKB 260620Z AUTO 00000KT 10SM SCT060 21/18 A3006 170 84 900 000/00 RMK AO2 T02060178
53988KBKB BKB20190726002511007/26/19 00:25:31  5-MIN KBKB 260625Z AUTO 00000KT 10SM SCT060 21/18 A3006 170 84 900 000/00 RMK AO2 T02060178
53988KBKB BKB20190726003011007/26/19 00:30:31  5-MIN KBKB 260630Z AUTO 00000KT 10SM BKN060 21/18 A3006 170 84 900 000/00 RMK AO2 T02060178
53988KBKB BKB20190726003511007/26/19 00:35:31  5-MIN KBKB 260635Z AUTO 00000KT 10SM BKN060 21/18 A3006 170 84 900 000/00 RMK AO2 T02060178
53988KBKB BKB20190726004011007/26/19 00:40:31  5-MIN KBKB 260640Z AUTO 00000KT 10SM BKN060 21/18 A3006 170 84 900 000/00 RMK AO2 T02060178
53988KBKB BKB20190726004511007/26/19 00:45:31  5-MIN KBKB 260645Z AUTO 00000KT 10SM BKN065 21/18 A3006 170 87 900 000/00 RMK AO2 T02060183
53988KBKB BKB20190726005011707/26/19 00:50:31  5-MIN KBKB 260650Z AUTO 00000KT 10SM BKN065 21/18 A3006 170 87 900 000/00 RMK AO2 SLP205 T02060183
53988KBKB BKB20190726005511007/26/19 00:55:31  5-MIN KBKB 260655Z AUTO 00000KT 10SM BKN065 21/18 A3006 170 87 900 000/00 RMK AO2 T02060183
53988KBKB BKB20190726010011007/26/19 01:00:31  5-MIN KBKB 260700Z AUTO 00000KT 10SM BKN065 21/18 A3006 170 87 900 000/00 RMK AO2 T02060183
53988KBKB BKB20190726010511007/26/19 01:05:31  5-MIN KBKB 260705Z AUTO 00000KT 10SM SCT065 21/18 A3006 170 87 900 000/00 RMK AO2 T02060183
53988KBKB BKB20190726011011007/26/19 01:10:31  5-MIN KBKB 260710Z AUTO 00000KT 10SM SCT065 21/18 A3006 170 84 900 000/00 RMK AO2 T02060178
53988KBKB BKB20190726011511007/26/19 01:15:31  5-MIN KBKB 260715Z AUTO 00000KT 10SM FEW065 21/18 A3006 170 84 900 000/00 RMK AO2 T02060178
53988KBKB BKB20190726012011007/26/19 01:20:31  5-MIN KBKB 260720Z AUTO 00000KT 10SM FEW065 21/18 A3006 170 84 900 000/00 RMK AO2 T02060178
53988KBKB BKB20190726012511007/26/19 01:25:31  5-MIN KBKB 260725Z AUTO 00000KT 10SM FEW065 21/18 A3006 170 84 900 000/00 RMK AO2 T02060178
53988KBKB BKB20190726013010707/26/19 01:30:31  5-MIN KBKB 260730Z AUTO 00000KT 10SM CLR 21/18 A3006 170 84 900 000/00 RMK AO2 T02060178
53988KBKB BKB20190726013511007/26/19 01:35:31  5-MIN KBKB 260735Z AUTO 00000KT 10SM FEW065 20/18 A3006 170 87 800 000/00 RMK AO2 T02000178
53988KBKB BKB20190726014011007/26/19 01:40:31  5-MIN KBKB 260740Z AUTO 00000KT 10SM FEW065 21/18 A3006 170 84 900 000/00 RMK AO2 T02060178
53988KBKB BKB20190726014511007/26/19 01:45:31  5-MIN KBKB 260745Z AUTO 00000KT 10SM FEW065 21/17 A3006 170 81 900 000/00 RMK AO2 T02060172
53988KBKB BKB20190726015011707/26/19 01:50:31  5-MIN KBKB 260750Z AUTO 00000KT 10SM FEW065 20/17 A3006 170 84 800 000/00 RMK AO2 SLP204 T02000172
53988KBKB BKB20190726015511007/26/19 01:55:31  5-MIN KBKB 260755Z AUTO 00000KT 10SM FEW065 20/17 A3006 170 84 800 000/00 RMK AO2 T02000172
53988KBKB BKB20190726020011007/26/19 02:00:31  5-MIN KBKB 260800Z AUTO 00000KT 10SM FEW065 20/18 A3006 170 87 800 000/00 RMK AO2 T02000178
53988KBKB BKB20190726020511007/26/19 02:05:31  5-MIN KBKB 260805Z AUTO 00000KT 10SM FEW065 20/18 A3006 170 87 800 000/00 RMK AO2 T02000178
53988KBKB BKB20190726021010707/26/19 02:10:31  5-MIN KBKB 260810Z AUTO VRB03KT 10SM CLR 20/18 A3006 170 87 800 VRB/03 RMK AO2 T02000178
53988KBKB BKB20190726021511007/26/19 02:15:31  5-MIN KBKB 260815Z AUTO 00000KT 10SM FEW065 21/18 A3006 170 84 900 000/00 RMK AO2 T02060178
53988KBKB BKB20190726022011007/26/19 02:20:31  5-MIN KBKB 260820Z AUTO 00000KT 10SM FEW065 21/17 A3006 170 81 900 000/00 RMK AO2 T02060172
53988KBKB BKB20190726022511007/26/19 02:25:31  5-MIN KBKB 260825Z AUTO 00000KT 10SM FEW065 21/17 A3006 170 81 900 000/00 RMK AO2 T02060172
53988KBKB BKB20190726023011007/26/19 02:30:31  5-MIN KBKB 260830Z AUTO 00000KT 10SM FEW065 21/17 A3006 170 81 900 000/00 RMK AO2 T02060172
53988KBKB BKB20190726023511007/26/19 02:35:31  5-MIN KBKB 260835Z AUTO 00000KT 10SM SCT060 20/18 A3006 170 87 800 000/00 RMK AO2 T02000178
53988KBKB BKB20190726024011007/26/19 02:40:31  5-MIN KBKB 260840Z AUTO 00000KT 10SM SCT060 20/18 A3006 170 87 800 000/00 RMK AO2 T02000178
53988KBKB BKB20190726024511007/26/19 02:45:31  5-MIN KBKB 260845Z AUTO 00000KT 10SM SCT065 20/17 A3006 170 84 800 000/00 RMK AO2 T02000172
53988KBKB BKB20190726025012307/26/19 02:50:31  5-MIN KBKB 260850Z AUTO 00000KT 10SM SCT065 20/17 A3006 170 84 800 000/00 RMK AO2 SLP206 T02000172 50003
53988KBKB BKB20190726025511007/26/19 02:55:31  5-MIN KBKB 260855Z AUTO 00000KT 10SM FEW065 20/18 A3006 170 87 800 000/00 RMK AO2 T02000178
53988KBKB BKB20190726030011007/26/19 03:00:31  5-MIN KBKB 260900Z AUTO 00000KT 10SM FEW065 19/18 A3006 170 90 800 000/00 RMK AO2 T01940178
53988KBKB BKB20190726030511007/26/19 03:05:31  5-MIN KBKB 260905Z AUTO 00000KT 10SM FEW065 19/17 A3006 170 87 800 000/00 RMK AO2 T01940172
53988KBKB BKB20190726031011007/26/19 03:10:31  5-MIN KBKB 260910Z AUTO 00000KT 10SM FEW065 19/18 A3007 160 90 800 000/00 RMK AO2 T01940178
53988KBKB BKB20190726031511007/26/19 03:15:31  5-MIN KBKB 260915Z AUTO 00000KT 10SM FEW070 19/18 A3006 170 90 800 000/00 RMK AO2 T01940178
53988KBKB BKB20190726032011007/26/19 03:20:31  5-MIN KBKB 260920Z AUTO 00000KT 10SM FEW070 19/18 A3007 160 90 800 000/00 RMK AO2 T01940178
53988KBKB BKB20190726032511007/26/19 03:25:31  5-MIN KBKB 260925Z AUTO 00000KT 10SM FEW070 19/18 A3007 160 90 800 000/00 RMK AO2 T01940178
53988KBKB BKB20190726033011007/26/19 03:30:31  5-MIN KBKB 260930Z AUTO 00000KT 10SM FEW070 19/18 A3007 160 90 800 000/00 RMK AO2 T01940178
53988KBKB BKB20190726033511007/26/19 03:35:31  5-MIN KBKB 260935Z AUTO 00000KT 10SM SCT070 20/17 A3007 160 84 800 000/00 RMK AO2 T02000172
53988KBKB BKB20190726034011007/26/19 03:40:31  5-MIN KBKB 260940Z AUTO 00000KT 10SM BKN070 20/17 A3007 160 84 800 000/00 RMK AO2 T02000172
53988KBKB BKB20190726034511007/26/19 03:45:31  5-MIN KBKB 260945Z AUTO 00000KT 10SM BKN070 20/17 A3007 160 84 800 000/00 RMK AO2 T02000172
53988KBKB BKB20190726035011707/26/19 03:50:31  5-MIN KBKB 260950Z AUTO 00000KT 10SM SCT070 20/17 A3007 160 84 800 000/00 RMK AO2 SLP209 T02000172
53988KBKB BKB20190726035511007/26/19 03:55:31  5-MIN KBKB 260955Z AUTO 00000KT 10SM FEW070 20/17 A3007 160 84 800 000/00 RMK AO2 T02000172
53988KBKB BKB20190726040011007/26/19 04:00:31  5-MIN KBKB 261000Z AUTO 00000KT 10SM FEW070 20/17 A3008 150 84 800 000/00 RMK AO2 T02000172
53988KBKB BKB20190726040511007/26/19 04:05:31  5-MIN KBKB 261005Z AUTO 00000KT 10SM FEW070 20/17 A3008 150 84 800 000/00 RMK AO2 T02000172
53988KBKB BKB20190726041010707/26/19 04:10:31  5-MIN KBKB 261010Z AUTO 00000KT 10SM CLR 19/17 A3008 150 87 700 000/00 RMK AO2 T01940172
53988KBKB BKB20190726041510707/26/19 04:15:31  5-MIN KBKB 261015Z AUTO 00000KT 10SM CLR 19/17 A3008 150 87 700 000/00 RMK AO2 T01940172
53988KBKB BKB20190726042010707/26/19 04:20:31  5-MIN KBKB 261020Z AUTO 00000KT 10SM CLR 19/17 A3009 150 87 700 000/00 RMK AO2 T01940172
53988KBKB BKB20190726042510707/26/19 04:25:31  5-MIN KBKB 261025Z AUTO 00000KT 10SM CLR 19/17 A3009 140 87 700 000/00 RMK AO2 T01940172
53988KBKB BKB20190726043010707/26/19 04:30:31  5-MIN KBKB 261030Z AUTO 00000KT 10SM CLR 19/17 A3009 140 87 700 000/00 RMK AO2 T01940172
53988KBKB BKB20190726043510707/26/19 04:35:31  5-MIN KBKB 261035Z AUTO 00000KT 10SM CLR 19/17 A3009 140 87 700 000/00 RMK AO2 T01940172
53988KBKB BKB20190726044011007/26/19 04:40:31  5-MIN KBKB 261040Z AUTO 00000KT 10SM FEW055 19/17 A3009 140 87 700 000/00 RMK AO2 T01940172
53988KBKB BKB20190726044511007/26/19 04:45:31  5-MIN KBKB 261045Z AUTO 00000KT 10SM FEW055 19/17 A3010 140 87 700 000/00 RMK AO2 T01940172
53988KBKB BKB20190726045015907/26/19 04:50:31  5-MIN KBKB 261050Z AUTO 00000KT 10SM SCT060 20/17 A3010 130 84 800 000/00 RMK AO2 SLP217 T02000172 A3010 130 87 800 000/00 RMK AO2 T02000178
53988KBKB BKB20190726054511707/26/19 05:45:31  5-MIN KBKB 261145Z AUTO 00000KT 10SM FEW060 SCT075 20/18 A3011 130 87 800 000/00 RMK AO2 T02000178
53988KBKB BKB20190726055014207/26/19 05:50:31  5-MIN KBKB 261150Z AUTO VRB03KT 10SM FEW060 SCT075 20/18 A3011 130 87 800 VRB/03 RMK AO2 SLP221 T02000178 10211 20194 55001
53988KBKB BKB20190726055511707/26/19 05:55:31  5-MIN KBKB 261155Z AUTO 00000KT 10SM FEW060 FEW075 21/18 A3011 130 84 800 000/00 RMK AO2 T02060178
53988KBKB BKB20190726060011007/26/19 06:00:31  5-MIN KBKB 261200Z AUTO 00000KT 10SM FEW070 20/18 A3011 120 87 800 000/00 RMK AO2 T02000178
53988KBKB BKB20190726060511007/26/19 06:05:31  5-MIN KBKB 261205Z AUTO 00000KT 10SM FEW070 21/18 A3011 120 84 800 000/00 RMK AO2 T02060178
53988KBKB BKB20190726060512707/26/19 06:05:31  5-MIN KBKB 261205Z AUTO 00000KT 10SM FEW070 21/18 A3011 120 84 800 000/00 RMK AO2 0 000/00 RMK AO2 T02000178
53988KBKB BKB20190726061011007/26/19 06:10:31  5-MIN KBKB 261210Z AUTO 00000KT 10SM FEW070 21/18 A3011 120 84 800 000/00 RMK AO2 T02060178
53988KBKB BKB20190726061511007/26/19 06:15:31  5-MIN KBKB 261215Z AUTO 00000KT 10SM FEW075 21/18 A3011 120 84 800 000/00 RMK AO2 T02060178
53988KBKB BKB20190726061516307/26/19 06:15:31  5-MIN KBKB 261215Z AUTO 00000KT 10SM FEW075 21/18 A3011 120 84 800 000/00 RMK AO2 T02060178EW075 21/18 A3011 130 84 800 000/00 RMK AO2 T02060178
53988KBKB BKB20190726062011007/26/19 06:20:31  5-MIN KBKB 261220Z AUTO 00000KT 10SM FEW075 21/18 A3011 120 84 800 000/00 RMK AO2 T02060178
53988KBKB BKB20190726062511007/26/19 06:25:31  5-MIN KBKB 261225Z AUTO 00000KT 10SM FEW075 21/18 A3012 120 87 800 000/00 RMK AO2 T02060183
53988KBKB BKB20190726063011007/26/19 06:30:31  5-MIN KBKB 261230Z AUTO 02003KT 10SM FEW075 21/18 A3012 120 84 900 020/03 RMK AO2 T02110183
53988KBKB BKB20190726063511107/26/19 06:35:31  5-MIN KBKB 261235Z AUTO 00000KT 10SM FEW075 22/18 A3012 120 81 1000 000/00 RMK AO2 T02170183
53988KBKB BKB20190726064011007/26/19 06:40:31  5-MIN KBKB 261240Z AUTO 00000KT 10SM FEW075 21/18 A3012 110 84 900 000/00 RMK AO2 T02110183
53988KBKB BKB20190726064511107/26/19 06:45:31  5-MIN KBKB 261245Z AUTO 00000KT 10SM FEW075 22/18 A3012 110 81 1000 000/00 RMK AO2 T02170183
53988KBKB BKB20190726065011807/26/19 06:50:31  5-MIN KBKB 261250Z AUTO 00000KT 10SM FEW075 22/18 A3012 110 78 1000 000/00 RMK AO2 SLP226 T02220183
53988KBKB BKB20190726065511107/26/19 06:55:31  5-MIN KBKB 261255Z AUTO 00000KT 10SM FEW075 22/18 A3012 110 78 1000 000/00 RMK AO2 T02220183
53988KBKB BKB20190726070011107/26/19 07:00:31  5-MIN KBKB 261300Z AUTO 00000KT 10SM FEW075 22/18 A3012 120 78 1000 000/00 RMK AO2 T02220183
53988KBKB BKB20190726070511107/26/19 07:05:31  5-MIN KBKB 261305Z AUTO 00000KT 10SM FEW075 23/19 A3012 120 78 1100 000/00 RMK AO2 T02280189
53988KBKB BKB20190726071011107/26/19 07:10:31  5-MIN KBKB 261310Z AUTO VRB03KT 10SM FEW075 23/19 A3012 120 76 1200 VRB/03 RMK AO2 T02330189
53988KBKB BKB20190726071510807/26/19 07:15:31  5-MIN KBKB 261315Z AUTO 00000KT 10SM CLR 24/18 A3012 120 71 1200 000/00 RMK AO2 T02390183
53988KBKB BKB20190726072010807/26/19 07:20:31  5-MIN KBKB 261320Z AUTO 00000KT 10SM CLR 24/18 A3012 110 71 1200 000/00 RMK AO2 T02390183
53988KBKB BKB20190726072510807/26/19 07:25:31  5-MIN KBKB 261325Z AUTO VRB03KT 10SM CLR 24/19 A3012 110 71 1300 VRB/03 RMK AO2 T02440189
53988KBKB BKB20190726073010807/26/19 07:30:31  5-MIN KBKB 261330Z AUTO 00000KT 10SM CLR 24/19 A3012 110 71 1300 000/00 RMK AO2 T02440189
53988KBKB BKB20190726073510807/26/19 07:35:31  5-MIN KBKB 261335Z AUTO 00000KT 10SM CLR 25/18 A3012 110 66 1300 000/00 RMK AO2 T02500183
53988KBKB BKB20190726074010807/26/19 07:40:31  5-MIN KBKB 261340Z AUTO VRB03KT 10SM CLR 25/18 A3013 110 66 1300 VRB/03 RMK AO2 T02500183
53988KBKB BKB20190726074510807/26/19 07:45:31  5-MIN KBKB 261345Z AUTO VRB03KT 10SM CLR 25/18 A3013 110 66 1300 VRB/03 RMK AO2 T02500183
53988KBKB BKB20190726075011507/26/19 07:50:31  5-MIN KBKB 261350Z AUTO 00000KT 10SM CLR 25/18 A3013 110 66 1300 000/00 RMK AO2 SLP228 T02500183
53988KBKB BKB20190726075508507/26/19 07:55:31  5-MIN KBKB 261355Z AUTO VRB03KT 10SM CLR 26/19 A3013 110 66 1400 V
53988KBKB BKB20190726204510807/26/19 20:45:31  5-MIN KBKB 270245Z AUTO 00000KT 10SM CLR 23/19 A3010 130 81 1100 000/00 RMK AO2 T02280194
53988KBKB BKB20190726205012107/26/19 20:50:31  5-MIN KBKB 270250Z AUTO 00000KT 10SM CLR 23/19 A3010 130 81 1100 000/00 RMK AO2 SLP218 T02280194 55002
53988KBKB BKB20190726205510807/26/19 20:55:31  5-MIN KBKB 270255Z AUTO 00000KT 10SM CLR 23/19 A3010 130 81 1100 000/00 RMK AO2 T02280194
53988KBKB BKB20190726210010807/26/19 21:00:31  5-MIN KBKB 270300Z AUTO 00000KT 10SM CLR 23/19 A3010 130 81 1100 000/00 RMK AO2 T02280194
53988KBKB BKB20190726210510807/26/19 21:05:31  5-MIN KBKB 270305Z AUTO 00000KT 10SM CLR 23/20 A3010 130 84 1100 000/00 RMK AO2 T02280200
53988KBKB BKB20190726211010807/26/19 21:10:31  5-MIN KBKB 270310Z AUTO 00000KT 10SM CLR 23/20 A3010 130 84 1100 000/00 RMK AO2 T02280200
53988KBKB BKB20190726211510807/26/19 21:15:31  5-MIN KBKB 270315Z AUTO 00000KT 10SM CLR 23/20 A3010 130 84 1100 000/00 RMK AO2 T02280200
53988KBKB BKB20190726212010807/26/19 21:20:31  5-MIN KBKB 270320Z AUTO 00000KT 10SM CLR 23/20 A3010 130 84 1100 000/00 RMK AO2 T02280200
53988KBKB BKB20190726212510807/26/19 21:25:31  5-MIN KBKB 270325Z AUTO 00000KT 10SM CLR 23/20 A3010 130 84 1100 000/00 RMK AO2 T02280200
53988KBKB BKB20190726213010807/26/19 21:30:31  5-MIN KBKB 270330Z AUTO 00000KT 10SM CLR 23/20 A3010 130 84 1100 000/00 RMK AO2 T02280200
53988KBKB BKB20190726213510807/26/19 21:35:31  5-MIN KBKB 270335Z AUTO 00000KT 10SM CLR 23/20 A3010 130 84 1100 000/00 RMK AO2 T02280200
53988KBKB BKB20190726214010807/26/19 21:40:31  5-MIN KBKB 270340Z AUTO 00000KT 10SM CLR 22/19 A3010 130 84 1000 000/00 RMK AO2 T02220194
53988KBKB BKB20190726214510807/26/19 21:45:31  5-MIN KBKB 270345Z AUTO 00000KT 10SM CLR 23/19 A3010 130 81 1100 000/00 RMK AO2 T02280194
53988KBKB BKB20190726215011507/26/19 21:50:31  5-MIN KBKB 270350Z AUTO 00000KT 10SM CLR 23/20 A3010 130 84 1100 000/00 RMK AO2 SLP219 T02280200
53988KBKB BKB20190726215510807/26/19 21:55:31  5-MIN KBKB 270355Z AUTO 00000KT 10SM CLR 22/20 A3010 130 87 1000 000/00 RMK AO2 T02220200
53988KBKB BKB20190726220010807/26/19 22:00:31  5-MIN KBKB 270400Z AUTO 00000KT 10SM CLR 22/20 A3010 130 87 1000 000/00 RMK AO2 T02220200
53988KBKB BKB20190726220510807/26/19 22:05:31  5-MIN KBKB 270405Z AUTO 00000KT 10SM CLR 22/20 A3010 130 87 1000 000/00 RMK AO2 T02220200
53988KBKB BKB20190726221010807/26/19 22:10:31  5-MIN KBKB 270410Z AUTO 00000KT 10SM CLR 23/19 A3010 130 81 1100 000/00 RMK AO2 T02280194
53988KBKB BKB20190726221510807/26/19 22:15:31  5-MIN KBKB 270415Z AUTO 00000KT 10SM CLR 23/19 A3010 130 81 1100 000/00 RMK AO2 T02280194
53988KBKB BKB20190726222010807/26/19 22:20:31  5-MIN KBKB 270420Z AUTO 00000KT 10SM CLR 22/19 A3010 130 84 1000 000/00 RMK AO2 T02220194
53988KBKB BKB20190726222510807/26/19 22:25:31  5-MIN KBKB 270425Z AUTO 00000KT 10SM CLR 23/20 A3010 130 84 1100 000/00 RMK AO2 T02280200
53988KBKB BKB20190726223011107/26/19 22:30:31  5-MIN KBKB 270430Z AUTO 00000KT 10SM FEW055 23/20 A3010 130 84 1100 000/00 RMK AO2 T02280200
53988KBKB BKB20190726223511107/26/19 22:35:31  5-MIN KBKB 270435Z AUTO 00000KT 10SM FEW055 23/20 A3010 130 84 1100 000/00 RMK AO2 T02280200
53988KBKB BKB20190726224011107/26/19 22:40:31  5-MIN KBKB 270440Z AUTO 00000KT 10SM FEW055 22/20 A3010 130 87 1000 000/00 RMK AO2 T02220200
53988KBKB BKB20190726224511107/26/19 22:45:31  5-MIN KBKB 270445Z AUTO 00000KT 10SM FEW055 22/20 A3011 130 87 1000 000/00 RMK AO2 T02220200
53988KBKB BKB20190726225011807/26/19 22:50:31  5-MIN KBKB 270450Z AUTO 00000KT 10SM FEW055 22/19 A3011 120 84 1000 000/00 RMK AO2 SLP221 T02220194
53988KBKB BKB20190726225511107/26/19 22:55:31  5-MIN KBKB 270455Z AUTO 00000KT 10SM FEW055 22/20 A3011 120 87 1000 000/00 RMK AO2 T02220200
53988KBKB BKB20190726230010807/26/19 23:00:31  5-MIN KBKB 270500Z AUTO 00000KT 10SM CLR 22/20 A3012 120 87 1000 000/00 RMK AO2 T02220200
53988KBKB BKB20190726230510807/26/19 23:05:31  5-MIN KBKB 270505Z AUTO 00000KT 10SM CLR 22/19 A3011 120 84 1000 000/00 RMK AO2 T02220194
53988KBKB BKB20190726231010807/26/19 23:10:31  5-MIN KBKB 270510Z AUTO 00000KT 10SM CLR 22/19 A3011 120 84 1000 000/00 RMK AO2 T02220194
53988KBKB BKB20190726231510807/26/19 23:15:31  5-MIN KBKB 270515Z AUTO 00000KT 10SM CLR 22/19 A3011 120 84 1000 000/00 RMK AO2 T02220194
53988KBKB BKB20190726232010807/26/19 23:20:31  5-MIN KBKB 270520Z AUTO 00000KT 10SM CLR 22/19 A3011 120 87 1000 000/00 RMK AO2 T02170194
53988KBKB BKB20190727003510707/27/19 00:35:31  5-MIN KBKB 270635Z AUTO 00000KT 10SM CLR 21/19 A3011 130 90 900 000/00 RMK AO2 T02110194
53988KBKB BKB20190727004010707/27/19 00:40:31  5-MIN KBKB 270640Z AUTO 00000KT 10SM CLR 21/19 A3011 130 90 900 000/00 RMK AO2 T02110194
53988KBKB BKB20190727004515607/27/19 00:45:31  5-MIN KBKB 270645Z AUTO 00000KT 10SM CLR 21/19 A3011 130 90 900 000/00  00000KT 10SM CLR 22/19 A3011 130 87 1000 000/00 RMK AO2 T02170194
53988KBKB BKB20190727011510707/27/19 01:15:31  5-MIN KBKB 270715Z AUTO 00000KT 10SM CLR 21/19 A3011 130 90 900 000/00 RMK AO2 T02110194
53988KBKB BKB20190727012010707/27/19 01:20:31  5-MIN KBKB 270720Z AUTO 00000KT 10SM CLR 21/19 A3011 130 90 900 000/00 RMK AO2 T02110194
53988KBKB BKB20190727012510707/27/19 01:25:31  5-MIN KBKB 270725Z AUTO 00000KT 10SM CLR 21/19 A3010 130 90 900 000/00 RMK AO2 T02110194
53988KBKB BKB20190727013010707/27/19 01:30:31  5-MIN KBKB 270730Z AUTO 00000KT 10SM CLR 21/19 A3010 130 90 900 000/00 RMK AO2 T02110194
53988KBKB BKB20190727013510707/27/19 01:35:31  5-MIN KBKB 270735Z AUTO 00000KT 10SM CLR 21/19 A3010 130 90 900 000/00 RMK AO2 T02110194
53988KBKB BKB20190727014010707/27/19 01:40:31  5-MIN KBKB 270740Z AUTO 00000KT 10SM CLR 21/19 A3010 130 90 900 000/00 RMK AO2 T02110194
53988KBKB BKB20190727014512107/27/19 01:45:31  5-MIN KBKB 270745Z AUTO 00000KT 10SM CLR 21/19 A3010 130 90 900 10 130 90 900 000/00 RMK AO2 T02110194
53988KBKB BKB20190727022510707/27/19 02:25:31  5-MIN KBKB 270825Z AUTO 00000KT 10SM CLR 21/19 A3010 130 90 900 000/00 RMK AO2 T02110194
53988KBKB BKB20190727023010707/27/19 02:30:31  5-MIN KBKB 270830Z AUTO 00000KT 10SM CLR 21/19 A3010 130 90 900 000/00 RMK AO2 T02110194
53988KBKB BKB20190727023510707/27/19 02:35:31  5-MIN KBKB 270835Z AUTO 00000KT 10SM CLR 21/19 A3010 130 90 900 000/00 RMK AO2 T02110194
53988KBKB BKB20190727024010707/27/19 02:40:31  5-MIN KBKB 270840Z AUTO 00000KT 10SM CLR 21/19 A3010 130 90 900 000/00 RMK AO2 T02110194
53988KBKB BKB20190727024510707/27/19 02:45:31  5-MIN KBKB 270845Z AUTO 00000KT 10SM CLR 21/19 A3010 130 90 900 000/00 RMK AO2 T02110194
53988KBKB BKB20190727025012007/27/19 02:50:31  5-MIN KBKB 270850Z AUTO 00000KT 10SM CLR 21/19 A3010 130 90 900 000/00 RMK AO2 SLP219 T02110194 50002
53988KBKB BKB20190727025510707/27/19 02:55:31  5-MIN KBKB 270855Z AUTO 00000KT 10SM CLR 21/19 A3010 130 90 900 000/00 RMK AO2 T02110194
53988KBKB BKB20190727030010707/27/19 03:00:31  5-MIN KBKB 270900Z AUTO 00000KT 10SM CLR 21/19 A3011 130 90 900 000/00 RMK AO2 T02110194
53988KBKB BKB20190727030510707/27/19 03:05:31  5-MIN KBKB 270905Z AUTO 00000KT 10SM CLR 21/19 A3011 130 90 900 000/00 RMK AO2 T02110194
53988KBKB BKB20190727031010707/27/19 03:10:31  5-MIN KBKB 270910Z AUTO 00000KT 10SM CLR 21/19 A3011 130 90 900 000/00 RMK AO2 T02110194
53988KBKB BKB20190727031510707/27/19 03:15:31  5-MIN KBKB 270915Z AUTO 00000KT 10SM CLR 21/19 A3011 130 90 900 000/00 RMK AO2 T02110194
53988KBKB BKB20190727032010707/27/19 03:20:31  5-MIN KBKB 270920Z AUTO 00000KT 10SM CLR 21/19 A3011 130 90 900 000/00 RMK AO2 T02110194
53988KBKB BKB20190727032510707/27/19 03:25:31  5-MIN KBKB 270925Z AUTO 00000KT 10SM CLR 21/19 A3011 120 90 900 000/00 RMK AO2 T02110194
53988KBKB BKB20190727033010707/27/19 03:30:31  5-MIN KBKB 270930Z AUTO 00000KT 10SM CLR 21/19 A3011 120 90 900 000/00 RMK AO2 T02110194
53988KBKB BKB20190727033510707/27/19 03:35:31  5-MIN KBKB 270935Z AUTO 00000KT 10SM CLR 21/19 A3011 120 90 900 000/00 RMK AO2 T02110194
53988KBKB BKB20190727034010707/27/19 03:40:31  5-MIN KBKB 270940Z AUTO 00000KT 10SM CLR 21/19 A3011 120 90 900 000/00 RMK AO2 T02110194
53988KBKB BKB20190727034510707/27/19 03:45:31  5-MIN KBKB 270945Z AUTO 00000KT 10SM CLR 21/19 A3011 120 90 900 000/00 RMK AO2 T02110194
53988KBKB BKB20190727035011407/27/19 03:50:31  5-MIN KBKB 270950Z AUTO 00000KT 10SM CLR 21/19 A3012 120 90 900 000/00 RMK AO2 SLP223 T02110194
53988KBKB BKB20190727035510707/27/19 03:55:31  5-MIN KBKB 270955Z AUTO 00000KT 10SM CLR 21/19 A3012 120 90 900 000/00 RMK AO2 T02110194
53988KBKB BKB20190727040010707/27/19 04:00:31  5-MIN KBKB 271000Z AUTO 00000KT 10SM CLR 21/19 A3012 120 90 900 000/00 RMK AO2 T02110194
53988KBKB BKB20190727040510707/27/19 04:05:31  5-MIN KBKB 271005Z AUTO 00000KT 10SM CLR 21/19 A3012 120 90 900 000/00 RMK AO2 T02110194
53988KBKB BKB20190727041010707/27/19 04:10:31  5-MIN KBKB 271010Z AUTO 00000KT 10SM CLR 21/19 A3012 120 90 900 000/00 RMK AO2 T02110194
53988KBKB BKB20190727041510707/27/19 04:15:31  5-MIN KBKB 271015Z AUTO 00000KT 10SM CLR 21/19 A3012 120 90 900 000/00 RMK AO2 T02110194
53988KBKB BKB20190727042010707/27/19 04:20:31  5-MIN KBKB 271020Z AUTO 00000KT 10SM CLR 21/19 A3012 120 90 900 000/00 RMK AO2 T02110194
53988KBKB BKB20190727042516007/27/19 04:25:31  5-MIN KBKB 271025Z AUTO 00000KT 10SM CLR 21/20 A3012 110 93 900 000/00 RMK AO2 T0211020007/27/19 04:30:31  5-90 1000 000/00 RMK AO2 T02220206
53988KBKB BKB20190727060510807/27/19 06:05:31  5-MIN KBKB 271205Z AUTO 00000KT 10SM CLR 22/21 A3014 100 90 1000 000/00 RMK AO2 T02220206
53988KBKB BKB20190727061010707/27/19 06:10:31  5-MIN KBKB 271210Z AUTO 00000KT 10SM CLR 22/21 A3014 90 90 1000 000/00 RMK AO2 T02220206
53988KBKB BKB20190727061510707/27/19 06:15:31  5-MIN KBKB 271215Z AUTO 10003KT 10SM CLR 22/21 A3014 90 93 1000 100/03 RMK AO2 T02220211
53988KBKB BKB20190727062010707/27/19 06:20:31  5-MIN KBKB 271220Z AUTO VRB03KT 10SM CLR 23/21 A3015 90 90 1100 VRB/03 RMK AO2 T02280211
53988KBKB BKB20190727062510707/27/19 06:25:31  5-MIN KBKB 271225Z AUTO 00000KT 10SM CLR 23/21 A3015 90 90 1100 000/00 RMK AO2 T02280211
53988KBKB BKB20190727062513907/27/19 06:25:31  5-MIN KBKB 271225Z AUTO 00000KT 10SM CLR 23/21 A3015 90 90 1100 000/00 RMK AO2 T0228021184 1300 000/00 RMK AO2 T02500222
53988KBKB BKB20190727063010707/27/19 06:30:31  5-MIN KBKB 271230Z AUTO 00000KT 10SM CLR 23/21 A3015 90 87 1100 000/00 RMK AO2 T02330211
53988KBKB BKB20190727063510707/27/19 06:35:31  5-MIN KBKB 271235Z AUTO 00000KT 10SM CLR 23/22 A3015 90 90 1100 000/00 RMK AO2 T02330217
53988KBKB BKB20190727064010707/27/19 06:40:31  5-MIN KBKB 271240Z AUTO 00000KT 10SM CLR 24/22 A3015 80 87 1200 000/00 RMK AO2 T02390217
53988KBKB BKB20190727064510707/27/19 06:45:31  5-MIN KBKB 271245Z AUTO VRB03KT 10SM CLR 24/22 A3015 80 87 1200 VRB/03 RMK AO2 T02390217
53988KBKB BKB20190727065011407/27/19 06:50:31  5-MIN KBKB 271250Z AUTO VRB03KT 10SM CLR 24/22 A3016 80 87 1200 VRB/03 RMK AO2 SLP237 T02390217
53988KBKB BKB20190727065510707/27/19 06:55:31  5-MIN KBKB 271255Z AUTO 00000KT 10SM CLR 24/22 A3016 80 84 1200 000/00 RMK AO2 T02440217
53988KBKB BKB20190727070010707/27/19 07:00:31  5-MIN KBKB 271300Z AUTO VRB03KT 10SM CLR 24/22 A3016 80 84 1200 VRB/03 RMK AO2 T02440217
53988KBKB BKB20190727070510707/27/19 07:05:31  5-MIN KBKB 271305Z AUTO VRB03KT 10SM CLR 25/22 A3016 80 84 1300 VRB/03 RMK AO2 T02500222
53988KBKB BKB20190727071010707/27/19 07:10:31  5-MIN KBKB 271310Z AUTO 10003KT 10SM CLR 25/22 A3016 70 84 1300 090/03 RMK AO2 T02500222
53988KBKB BKB20190727071510707/27/19 07:15:31  5-MIN KBKB 271315Z AUTO 00000KT 10SM CLR 25/22 A3017 70 84 1300 000/00 RMK AO2 T02500222
53988KBKB BKB20190727072010707/27/19 07:20:31  5-MIN KBKB 271320Z AUTO 00000KT 10SM CLR 26/23 A3017 70 84 1400 000/00 RMK AO2 T02560228
53988KBKB BKB20190727072510707/27/19 07:25:31  5-MIN KBKB 271325Z AUTO VRB04KT 10SM CLR 26/23 A3016 70 84 1400 VRB/04 RMK AO2 T02560228
53988KBKB BKB20190727073010707/27/19 07:30:31  5-MIN KBKB 271330Z AUTO 00000KT 10SM CLR 26/23 A3016 70 81 1400 000/00 RMK AO2 T02610228
53988KBKB BKB20190727073012107/27/19 07:30:31  5-MIN KBKB 271330Z AUTO 00000KT 10SM CLR 26/23 A3016 70 81 1400 000/00 RMK AO2 T02610228 AO2 T02720228
53988KBKB BKB20190727073510707/27/19 07:35:31  5-MIN KBKB 271335Z AUTO VRB03KT 10SM CLR 26/23 A3016 70 81 1400 VRB/03 RMK AO2 T02610228
53988KBKB BKB20190727074010707/27/19 07:40:31  5-MIN KBKB 271340Z AUTO VRB03KT 10SM CLR 27/23 A3016 70 79 1500 VRB/03 RMK AO2 T02670228
53988KBKB BKB20190727074510707/27/19 07:45:31  5-MIN KBKB 271345Z AUTO 00000KT 10SM CLR 27/23 A3017 70 79 1500 000/00 RMK AO2 T02670228
53988KBKB BKB20190727075011407/27/19 07:50:31  5-MIN KBKB 271350Z AUTO VRB03KT 10SM CLR 27/23 A3017 70 79 1500 VRB/03 RMK AO2 SLP241 T02670228
53988KBKB BKB20190727075510707/27/19 07:55:31  5-MIN KBKB 271355Z AUTO 10004KT 10SM CLR 27/23 A3017 70 76 1500 100/04 RMK AO2 T02720228
53988KBKB BKB20190727080010707/27/19 08:00:31  5-MIN KBKB 271400Z AUTO 00000KT 10SM CLR 27/23 A3017 70 76 1500 000/00 RMK AO2 T02720228
53988KBKB BKB20190727080510707/27/19 08:05:31  5-MIN KBKB 271405Z AUTO 00000KT 10SM CLR 27/23 A3017 70 76 1500 000/00 RMK AO2 T02720228
53988KBKB BKB20190727081010707/27/19 08:10:31  5-MIN KBKB 271410Z AUTO VRB03KT 10SM CLR 28/23 A3017 70 76 1600 VRB/03 RMK AO2 T02780233
53988KBKB BKB20190727081013807/27/19 08:10:31  5-MIN KBKB 271410Z AUTO VRB03KT 10SM CLR 28/23 A3017 70 76 1600 VRB/03 RMK AO2 T027802330 2000 000/00 RMK AO2 T03110233
53988KBKB BKB20190727081510707/27/19 08:15:31  5-MIN KBKB 271415Z AUTO VRB04KT 10SM CLR 28/23 A3017 70 74 1600 VRB/04 RMK AO2 T02780228
53988KBKB BKB20190727082009107/27/19 08:20:31  5-MIN KBKB 271420Z AUTO VRB04KT 10SM CLRNG COMPLETE, 144 5MIN(S) LISTED.
53988KBKB BKB20190727102522007/27/19 10:25:31  5-MIN KBKB 271625Z AUTO 11006KT 10SM FEW025 SCT038 BKN095 31/23 A3015 90 62 1900 100/06 RMK AO2 T0306022807/27/19 1B04KT 10SM SCT031 SCT050 BKN060 30/23 A3015 80 65 1900 VRB/04 RMK AO2 SLP236 T03000228
53988KBKB BKB20190727104011707/27/19 10:40:31  5-MIN KBKB 271640Z AUTO VRB04KT 10SM FEW026 FEW033 31/23 A3015 90 62 1900 VRB/04 RMK AO2 T03060228
53988KBKB BKB20190727104511007/27/19 10:45:31  5-MIN KBKB 271645Z AUTO VRB03KT 10SM SCT031 30/23 A3015 90 65 1900 VRB/03 RMK AO2 T03000228
53988KBKB BKB20190727105013107/27/19 10:50:31  5-MIN KBKB 271650Z AUTO VRB04KT 10SM SCT031 SCT050 BKN060 30/23 A3015 80 65 1900 VRB/04 RMK AO2 SLP236 T03000228
53988KBKB BKB20190727105512407/27/19 10:55:31  5-MIN KBKB 271655Z AUTO VRB04KT 10SM FEW031 SCT047 SCT060 31/23 A3015 90 62 1900 VRB/04 RMK AO2 T03060228
53988KBKB BKB20190727105513607/27/19 10:55:31  5-MIN KBKB 271655Z AUTO VRB04KT 10SM FEW031 SCT047 SCT060 31/M FEW026 31/23 A3015 90 60 2000 VRB/03 RMK AO2 T03110228
53988KBKB BKB20190727110011707/27/19 11:00:31  5-MIN KBKB 271700Z AUTO VRB03KT 10SM FEW031 SCT060 31/23 A3015 90 63 2000 VRB/03 RMK AO2 T03110233
53988KBKB BKB20190727110510707/27/19 11:05:31  5-MIN KBKB 271705Z AUTO 10SM FEW031 SCT060 31/23 A3015 90 60 2000 M /M RMK AO2 T03110228
53988KBKB BKB20190727111011007/27/19 11:10:31  5-MIN KBKB 271710Z AUTO VRB04KT 10SM SCT033 32/23 A3015 90 58 2100 VRB/04 RMK AO2 T03170228
53988KBKB BKB20190727111511707/27/19 11:15:31  5-MIN KBKB 271715Z AUTO VRB03KT 10SM SCT033 SCT042 31/23 A3014 90 60 2000 VRB/03 RMK AO2 T03110228
53988KBKB BKB20190727111511707/27/19 11:15:31  5-MIN KBKB 271715Z AUTO VRB03KT 10SM SCT033 SCT042 31/23 A3014 90 60 2SM  VRB/03 RMK AO2 T03110228
53988KBKB BKB20190727112011107/27/19 11:20:31  5-MIN KBKB 271720Z AUTO VRB03KT 10SM BKN035 32/23 A3014 100 57 2100 VRB/03 RMK AO2 T03220228
53988KBKB BKB20190727112016007/27/19 11:20:31  5-MIN KBKB 271720Z AUTO VRB03KT 10SM BKN035 32/23 A3014 100 57 UTO VRB03KT 10SM FEW031 SCT060 31/23 A3015 90 63 2000 VRB/03 RMK AO2 T03110233
53988KBKB BKB20190727112511107/27/19 11:25:31  5-MIN KBKB 271725Z AUTO VRB04KT 10SM BKN035 33/23 A3014 100 55 2200 VRB/04 RMK AO2 T03280228
53988KBKB BKB20190727113011107/27/19 11:30:31  5-MIN KBKB 271730Z AUTO VRB03KT 10SM SCT035 33/23 A3014 100 55 2200 VRB/03 RMK AO2 T03280228
53988KBKB BKB20190727113511107/27/19 11:35:31  5-MIN KBKB 271735Z AUTO VRB04KT 10SM SCT035 32/23 A3013 100 59 2100 VRB/04 RMK AO2 T03220233
53988KBKB BKB20190727114011107/27/19 11:40:31  5-MIN KBKB 271740Z AUTO VRB04KT 10SM SCT035 32/23 A3013 100 57 2100 VRB/04 RMK AO2 T03220228
53988KBKB BKB20190727114016307/27/19 11:40:31  5-MIN KBKB 271740Z AUTO VRB04KT 107/27/19 11:20:31  5-MIN KBKB 271720Z AUTO VRB03KT 10SM BKN035 32/23 A3014 100 57 2100 VRB/03 RMK AO2 T03220228
53988KBKB BKB20190727114511107/27/19 11:45:31  5-MIN KBKB 271745Z AUTO VRB03KT 10SM FEW035 32/23 A3013 100 57 2100 VRB/03 RMK AO2 T03220228
53988KBKB BKB20190727115013607/27/19 11:50:31  5-MIN KBKB 271750Z AUTO VRB03KT 10SM FEW035 32/23 A3013 100 57 2100 VRB/03 RMK AO2 SLP228 T03220228 10328 20217 50007
53988KBKB BKB20190727115511107/27/19 11:55:31  5-MIN KBKB 271755Z AUTO 00000KT 10SM FEW035 32/23 A3013 110 58 2100 000/00 RMK AO2 T03170228
53988KBKB BKB20190727120011107/27/19 12:00:31  5-MIN KBKB 271800Z AUTO VRB04KT 10SM FEW070 32/23 A3013 110 57 2100 VRB/04 RMK AO2 T03220228
53988KBKB BKB20190727120511807/27/19 12:05:31  5-MIN KBKB 271805Z AUTO 00000KT 10SM FEW042 SCT070 32/23 A3013 110 58 2100 000/00 RMK AO2 T03170228
53988KBKB BKB20190727120513807/27/19 12:05:31  5-MIN KBKB 271805Z AUTO 0  5-MIN KBKB 271745Z AUTO VRB03KT 10SM FEW035 32/23 A3013 100 57 2100 VRB/03 RMK AO2 T03220228
53988KBKB BKB20190727121012907/27/19 12:10:31  5-MIN KBKB 271810Z AUTO VRBB 272220Z AUTO VRB04KT 10SM FEW060 30/24 A3011 130 69 1900 VRB/04 RMK AO2 T03000239
53988KBKB BKB20190727161510807/27/19 16:15:31  5-MIN KBKB 272215Z AUTO VRB03KT 10SM CLR 29/24 A3011 130 74 1900 VRB/03 RMK AO2 T02940244
53988KBKB BKB20190727162011107/27/19 16:20:31  5-MIN KBKB 272220Z AUTO VRB04KT 10SM FEW060 30/24 A3011 130 69 1900 VRB/04 RMK AO2 T03000239
53988KBKB BKB20190727162511807/27/19 16:25:31  5-MIN KBKB 272225Z AUTO VRB04KT 10SM FEW023 SCT060 30/23 A3011 120 67 1900 VRB/04 RMK AO2 T03000233
53988KBKB BKB20190727163011507/27/19 16:30:31  5-MIN KBKB 272230Z AUTO 10SM SCT025 SCT031 BKN060 28/22 A3012 120 69 1700 M /M RMK AO2 T02780217
53988KBKB BKB20190727163015907/27/19 16:30:31  5-MIN KBKB 272230Z AUTO 10SM SCT07/27/19 16:10:31  5-MIN KBKB 272210Z AUTO 00000KT 10SM CLR 29/24 A3010 130 76 1800 000/00 RMK AO2 T02890244
53988KBKB BKB20190727163512507/27/19 16:35:31  5-MIN KBKB 272235Z AUTO VRB06KT 10SM FEW025 BKN031 BKN060 27/21 A3012 110 69 1500 VRB/06 RMK AO2 T02670206
53988KBKB BKB20190727163516107/27/19 16:35:31  5-MIN KBKB 272235Z AUTO VRB06KT 10SM FEW025 BKN031 BKN060 27/21 A3012 110 69 1500 VRB/06 RMK AO2 T02670206130 69 1900 VRB/04 RMK AO2 T03000239
53988KBKB BKB20190727164012507/27/19 16:40:31  5-MIN KBKB 272240Z AUTO VRB05KT 10SM FEW025 BKN033 BKN049 27/20 A3012 110 66 1500 VRB/05 RMK AO2 T02670200
53988KBKB BKB20190727164512507/27/19 16:45:31  5-MIN KBKB 272245Z AUTO VRB03KT 10SM FEW025 BKN047 OVC080 27/20 A3012 120 64 1600 VRB/03 RMK AO2 T02720200
53988KBKB BKB20190727164512907/27/19 16:45:31  5-MIN KBKB 272245Z AUTO VRB03KT 10SM FEW025 BKN047 OVC080 27/20 A3012 120 64 1600 VRB/03 RMK AO2 T027202000733
53988KBKB BKB20190727165013207/27/19 16:50:31  5-MIN KBKB 272250Z AUTO 12004KT 10SM FEW025 BKN049 OVC055 28/20 A3012 120 62 1700 120/04 RMK AO2 SLP225 T02780200
53988KBKB BKB20190727165511407/27/19 16:55:31  5-MIN KBKB 272255Z AUTO VRB04KT 10SM FEW031 BKN060 OVC075 28/2069 1500 VRB/06 RMK AO2 T02670206
53988KBKB BKB20190727165512507/27/19 16:55:31  5-MIN KBKB 272255Z AUTO VRB04KT 10SM FEW031 BKN060 OVC075 28/20 A3011 120 60 1700 VRB/04 RMK AO2 T02830200
53988KBKB BKB20190727170012507/27/19 17:00:31  5-MIN KBKB 272300Z AUTO VRB05KT 10SM FEW033 BKN060 OVC075 28/20 A3011 120 60 1700 VRB/05 RMK AO2 T02830200
53988KBKB BKB20190727170511407/27/19 17:05:31  5-MIN KBKB 272305Z AUTO VRB04KT  BKN047 OVC080 27/20 A3012 120 64 1600 VRB/03 RMK AO2 T02720200
53988KBKB BKB20190727170512507/27/19 17:05:31  5-MIN KBKB 272305Z AUTO VRB04KT 10SM FEW047 BKN060 OVC075 27/20 A3011 120 64 1600 VRB/04 RMK AO2 T02720200
53988KBKB BKB20190727171014107/27/19 17:10:31  5-MIN KBKB 272310Z AUTO VRB03KT 10SM -RA BKN060 BKN075 OVC095 27/20 A3011 120 64 1600 VRB/03 RMK AO2 RAB09 P0000 T02720200
53988KBKB BKB20190727171024607/27/19 17:10:31  5-MIN KBKB 272310Z AUTO VRB03KT 10SM -RA BKN060 BKN075 OVC095 27/20 A3011 120 64 1600 VRB/03 RMK AO2 RAB09 P0000 T0272020007/27/19B 272255Z AUTO VRB04KT 10SM FEW031 BKN060 OVC075 28/20 A3011 120 60 1700 VRB/04 RMK AO2 T02830200
53988KBKB BKB20190727171514107/27/19 17:15:31  5-MIN KBKB 272315Z AUTO 09004KT 10SM -RA BKN060 BKN075 OVC120 27/21 A3011 130 66 1600 090/04 RMK AO2 RAB09 P0000 T02720206
53988KBKB BKB20190727171514307/27/19 17:15:31  5-MIN KBKB 272315Z AUTO 09004KT 10SM -RA BKN060 BKN27/19 OVC120 27/21 A3011 130 66 1600 090/04 RMK AO2 RAB09 P0000 T02720206
53988KBKB BKB20190727172012907/27/19 17:20:31  5-MIN KBKB 272320Z AUTO 00000KT 10SM -RA SCT055 BKN075 OVC075 27/20 A3011 120 64 1600 VRB/04 RMK AO2 T02720200
53988KBKB BKB20190727172014107/27/19 17:20:31  5-MIN KBKB 272320Z AUTO 00000KT 10SM -RA SCT055 BKN075 OVC120 27/21 A3010 130 69 1600 000/00 RMK AO2 RAB09 P0000 T02720211
53988KBKB BKB20190727172514007/27/19 17:25:31  5-MIN KBKB 272325Z AUTO VRB05KT 10SM BKN055 BKN100 OVC110 27/21 A3010 130 69 1600 VRB/05 RMK AO2 RAB09E23 P0000 T02720211
53988KBKB BKB20190727173007607/27/19 17:30:31  5-MIN KBKB 272330Z AUTO /03 RMK AO2 RAB09 P0000 T02720200
53988KBKB BKB20190727173014107/27/19 17:30:31  5-MIN KBKB 272330Z AUTO VRB04KT 10SM -RA SCT046 BKN055 OVC120 28/21 A3009 140 66 1700 VRB/04 RMK AO2 RAB09 P0000 T02780211
53988KBKB BKB20190727173514107/27/19 17:35:31  5-MIN KBKB 272335Z AUTO VRB03KT 10SM -RA BKN041 BKN055 OVC120 27/22 A3009 140 74 1600 VRB/03 RMK AO2 RAB09 P0000 T02720222
53988KBKB BKB20190727174014107/27/19 17:40:31  5-MIN KBKB 272340Z AUTO 13004KT 10SM -RA SCT035 BKN043 BKN055 27/22 A3009 140 74 1600 130/04 RMK AO2 RAB09 P0000 T02720222
53988KBKB BKB20190727174514107/27/19 17:45:31  5-MIN KBKB 272345Z AUTO 00000KT 10SM -RA BKN035 BKN045 BKN110 27/22 A3009 140 76 1600 000/00 RMK AO2 RAB09 P0000 T02670222
53988KBKB BKB20190727175016407/27/19 17:50:31  5-MIN KBKB 272350Z AUTO VRB03KT 10SM SCT039 SCT050 26/22 A3009 140 76 1500 VRB/03 RMK AO2 RAB09E49 SLP217 P0000 60000 T02610217 10333 20261 55004
53988KBKB BKB20190727175511107/27/19 17:55:31  5-MIN KBKB 272355Z AUTO 13005KT 10SM SCT037 26/22 A3010 140 76 1500 120/05 RMK AO2 T02610217
53988KBKB BKB20190727180011807/27/19 18:00:31  5-MIN KBKB 280000Z AUTO VRB04KT 10SM FEW032 FEW040 26/21 A3010 140 76 1400 VRB/04 RMK AO2 T02560211
53988KBKB BKB20190727180511107/27/19 18:05:31  5-MIN KBKB 280005Z AUTO VRB04KT 10SM FEW030 26/22 A3010 130 79 1400 VRB/04 RMK AO2 T02560217
53988KBKB BKB20190727181010807/27/19 18:10:31  5-MIN KBKB 280010Z AUTO 00000KT 10SM CLR 26/22 A3010 130 79 1400 000/00 RMK AO2 T02560217
53988KBKB BKB20190727181510807/27/19 18:15:31  5-MIN KBKB 280015Z AUTO 00000KT 10SM CLR 26/22 A3010 140 79 1400 000/00 RMK AO2 T02560217
53988KBKB BKB20190727182010807/27/19 18:20:31  5-MIN KBKB 280020Z AUTO 00000KT 10SM CLR 26/22 A3010 130 79 1400 000/00 RMK AO2 T02560217
53988KBKB BKB20190727182510807/27/19 18:25:31  5-MIN KBKB 280025Z AUTO 00000KT 10SM CLR 26/22 A3010 140 79 1400 000/00 RMK AO2 T02560217
53988KBKB BKB20190727183010807/27/19 18:30:31  5-MIN KBKB 280030Z AUTO 00000KT 10SM CLR 26/22 A3010 140 79 1400 000/00 RMK AO2 T02560217
53988KBKB BKB20190727183510807/27/19 18:35:31  5-MIN KBKB 280035Z AUTO 00000KT 10SM CLR 26/22 A3010 130 79 1400 000/00 RMK AO2 T02560217
53988KBKB BKB20190727184010807/27/19 18:40:31  5-MIN KBKB 280040Z AUTO 00000KT 10SM CLR 26/22 A3010 130 79 1400 000/00 RMK AO2 T02560217
53988KBKB BKB20190727184510807/27/19 18:45:31  5-MIN KBKB 280045Z AUTO 00000KT 10SM CLR 25/22 A3010 130 81 1400 000/00 RMK AO2 T02500217
53988KBKB BKB20190727185016307/27/19 18:50:31  5-MIN KBKB 280050Z AUTO 00000KT 10SM CLR 25/229:15:31  5-MIN KBKB 280115Z AUTO 00000KT 10SM CLR 24/22 A3010 130 84 1300 000/00 RMK AO2 T02440217
53988KBKB BKB20190727192010607/27/19 19:20:31  5-MIN KBKB 280120Z A239021707/20SM CLR 24/22 A3010 140 84 1300 000/00 RMK AO2 T02440217
53988KBKB BKB20190727192510807/27/19 19:25:31  5-MIN KBKB 280125Z AUTO 00000KT 10SM CLR 24/22 A3009 140 87 1200 000/00 RMK AO2 T02390217
53988KBKB BKB20190727193010807/27/19 19:30:31  5-MIN KBKB 280130Z AUTO 00000KT 10SM CLR 24/22 A3009 140 87 1200 000/00 RMK AO2 T02390217
53988KBKB BKB20190727193510807/27/19 19:35:31  5-MIN KBKB 280135Z AUTO 00000KT 10SM CLR 24/22 A3009 140 87 1200 000/00 RMK AO2 T02390217
53988KBKB BKB20190727194010807/27/19 19:40:31  5-MIN KBKB 280140Z AUTO VRB03KT 10SM CLR 24/22 A3009 140 87 1200 VRB/03 RMK AO2 T02390217
53988KBKB BKB20190727194510807/27/19 19:45:31  5-MIN KBKB 280145Z AUTO 00000KT 10SM CLR 24/22 A3010 140 87 1200 000/00 RMK AO2 T02390217
53988KBKB BKB20190727195011507/27/19 19:50:31  5-MIN KBKB 280150Z AUTO 00000KT 10SM CLR 24/22 A3010 140 87 1200 000/00 RMK AO2 SLP217 T02390217
53988KBKB BKB20190727195510807/27/19 19:55:31  5-MIN KBKB 280155Z AUTO 00000KT 10SM CLR 24/22 A3010 140 90 1200 000/00 RMK AO2 T02390222
53988KBKB BKB20190727200010807/27/19 20:00:31  5-MIN KBKB 280200Z AUTO 00000KT 10SM CLR 24/22 A3009 140 90 1200 000/00 RMK AO2 T02390222
53988KBKB BKB20190727200016307/27/19 20:00:31  5-MIN KBKB 280200Z AUTO 00000KT 10SM CLR 24/22 A3009 140 90 1200 000/00 RMK AO2 T0239T 10SM CLR 24/22 A3009 140 87 1200 VRB/03 RMK AO2 T02390217
53988KBKB BKB20190727200510807/27/19 20:05:31  5-MIN KBKB 280205Z AUTO 00000KT 10SM CLR 24/22 A3009 140 90 1200 000/00 RMK AO2 T02390222
53988KBKB BKB20190727201010807/27/19 20:10:31  5-MIN KBKB 280210Z AUTO 00000KT 10SM CLR 24/22 A3009 140 90 1200 000/00 RMK AO2 T02390222
53988KBKB BKB20190727201510807/27/19 20:15:31  5-MIN KBKB 280215Z AUTO 00000KT 10SM CLR 24/22 A3010 130 90 1200 000/00 RMK AO2 T02390222
53988KBKB BKB20190727202010807/27/19 20:20:31  5-MIN KBKB 280220Z AUTO 00000KT 10SM CLR 23/22 A3010 130 93 1200 000/00 RMK AO2 T02330222
53988KBKB BKB20190727202513307/27/19 20:25:31  5-MIN KBKB 280225Z AUTO 00000KT 10SM CLR 24/22 A3010 130 90 1200 000/00 RMK AO110 97 1100 000/00 RMK AO2 T02330228
53988KBKB BKB20190727230510807/27/19 23:05:31  5-MIN KBKB 280505Z AUTO 00000KT 10SM CLR 23/23 A3012 110 97 1100 000/00 RMK AO2 T02330228
53988KBKB BKB20190727231010807/27/19 23:10:31  5-MIN KBKB 280510Z AUTO 00000KT 10SM CLR 23/23 A3012 110 97 1100 000/00 RMK AO2 T02330228
53988KBKB BKB20190727231511107/27/19 23:15:31  5-MIN KBKB 280515Z AUTO 00000KT 10SM FEW013 23/23 A3012 110 97 1100 000/00 RMK AO2 T02330228
53988KBKB BKB20190727232011807/27/19 23:20:31  5-MIN KBKB 280520Z AUTO 00000KT 10SM SCT015 SCT021 24/23 A3012 110 93 1200 000/00 RMK AO2 T02390228
53988KBKB BKB20190727232016707/27/19 23:20:31  5-MIN KBKB 280520Z AUTO 00000KT 10SM SCT015 SCT021 24/23 A3012 110 93 1200 000/UTO 00000KT 10SM CLR 23/23 A3012 110 97 1100 000/00 RMK AO2 T02330228
53988KBKB BKB20190727232511807/27/19 23:25:31  5-MIN KBKB 280525Z AUTO 00000KT 10SM SCT015 SCT021 24/23 A3012 110 93 1200 000/00 RMK AO2 T02390228
53988KBKB BKB20190727233011807/27/19 23:30:31  5-MIN KBKB 280530Z AUTO 00000KT 10SM FEW015 SCT021 24/23 A3012 110 93 1200 000/00 RMK AO2 T02390228
53988KBKB BKB20190727233014707/27/19 23:30:31  5-MIN KBKB 280530Z AUTO 00000KT 10SM FEW015 SCT021 24/23Z AUTO 00000KT 10SM CLR 23/23 A3012 110 97 1100 000/00 RMK AO2 T02330228
53988KBKB BKB20190727233512507/27/19 23:35:31  5-MIN KBKB 280535Z AUTO 00000KT 10SM FEW006 SCT016 SCT022 24/23 A3012 110 93 1200 000/00 RMK AO2 T02390228
53988KBKB BKB20190727234012507/27/19 23:40:31  5-MIN KBKB 280540Z AUTO 00000KT 10SM FEW006 SCT016 SCT022 23/23 A3012 110 97 1100 000/00 RMK AO2 T02330228
53988KBKB BKB20190727234013507/27/19 23:40:31  5-MIN KBKB 280540Z AUTO BKB 280520Z AUTO 00000KT 10SM SCT015 SCT021 24/23 A3012 110 93 1200 000/00 RMK AO2 T02390228
53988KBKB BKB20190727234512507/27/19 23:45:31  5-MIN KBKB 280545Z AUTO 00000KT 10SM FEW006 SCT016 BKN022 24/23 A3012 110 93 1200 000/00 RMK AO2 T02390228
53988KBKB BKB20190727234516807/27/19 23:45:31  5-MIN KBKB 280545Z AUTO 00000KT 10SM FEW006 SCT016 BKN022 24/23 A3012 110 93 1200 000/00 RMK AO2 T02390228 A3012 110 93 1200 000/00 RMK AO2 T02390228
53988KBKB BKB20190727235015307/27/19 23:50:31  5-MIN KBKB 280550Z AUTO 00000KT 10SM FEW006 SCT016 24/23 A3012 120 93 1200 000/00 RMK AO2 SLP223 T02390228 10261 20233 403330211 53006
53988KBKB BKB20190727235509107/27/19 23:55:31  5-MIN KBKB 280555Z AUTO 00000KT 10SM FEW005 BKN014 24/23 A3011 102390228
53988KBKB BKB20190727235511807/27/19 23:55:31  5-MIN KBKB 280555Z AUTO 00000KT 10SM FEW005 BKN014 24/23 A3011 120 93 1200 000/00 RMK AO2 T02390228
53988KBKB BKB20190728000011807/28/19 00:00:31  5-MIN KBKB 280600Z AUTO 00000KT 10SM FEW005 BKN014 23/23 A3011 120 97 1200 000/00 RMK AO2 T02330228
53988KBKB BKB20190728000511707/28/19 00:05:31  5-MIN KBKB 280605Z AUTO 00000KT 10SM FEW005 BKN014 23/0 93 1200 000/00 RMK AO2 T02MK AO2 T02330222
53988KBKB BKB20190728022010707/28/19 02:20:31  5-MIN KBKB 280820Z AUTO 00000KT 7SM CLR 23/22 A3010 130 93 1200 000/00 RMK AO2 T02330222
53988KBKB BKB20190728022510707/28/19 02:25:31  5-MIN KBKB 280825Z AUTO 00000KT 9SM CLR 23/22 A3010 130 93 1200 000/00 RMK AO2 T02330222
53988KBKB BKB20190728023010707/28/19 02:30:31  5-MIN KBKB 280830Z AUTO 00000KT 8SM CLR 23/22 A3010 130 93 1200 000/00 RMK AO2 T02330222
53988KBKB BKB20190728023511007/28/19 02:35:31  5-MIN KBKB 280835Z AUTO 00000KT 7SM FEW004 23/22 A3010 130 97 1100 000/00 RMK AO2 T02280222
53988KBKB BKB20190728024011007/28/19 02:40:31  5-MIN KBKB 280840Z AUTO 00000KT 7SM SCT004 23/22 A3010 130 97 1100 000/00 RMK AO2 T02280222
53988KBKB BKB20190728024511007/28/19 02:45:31  5-MIN KBKB 280845Z AUTO 00000KT 8SM BKN003 23/22 A3010 130 97 1100 000/00 RMK AO2 T02280222
53988KBKB BKB20190728024516507/28/19 02:45:31  5-MIN KBKB 280845Z AUTO 00000KT 8SM BKN003 23/22 A3010 130 97 1100 000/00 RMK AO2 T0228022207/28/19 02:50:31  5-0 93 1200 000/00 RMK AO2 T02330222
53988KBKB BKB20190728025010007/28/19 02:50:31  5-MIN KBKB 280850Z AUTO 00000KT 9SM BKN003 23/22 A3010 130 93 1200 000/00 RMK AO2
53988KBKB BKB20190728025511107/28/19 02:55:31  5-MIN KBKB 280855Z AUTO 00000KT 10SM BKN003 23/22 A3010 130 93 1200 000/00 RMK AO2 T02330222
53988KBKB BKB20190728025517207/28/19 02:55:31  5-MIN KBKB 280855Z AUTO 00000KT 10SM BKN003 23/22 A3010 130 93 1200 000/00 RMK AO2 T0233022207/28 FEW004 23/22 A3010 130 97 1100 000/00 RMK AO2 T02280222
53988KBKB BKB20190728030011107/28/19 03:00:31  5-MIN KBKB 280900Z AUTO 00000KT 10SM BKN003 23/22 A3010 130 93 1200 000/00 RMK AO2 T02330222
53988KBKB BKB20190728030511007/28/19 03:05:31  5-MIN KBKB 280905Z AUTO 00000KT 9SM BKN003 23/22 A3010 130 93 1200 000/00 RMK AO2 T02330222
53988KBKB BKB20190728030517007/28/19 03:05:31  5-MIN KBKB 280905Z AUTO 00000KT 9SM BKN003 23/22 A3010 130 93 1200 000/00 RMK AO2 T0233022207/28/19 03:23/22 A3010 130 97 1100 000/00 RMK AO2 T02280222
53988KBKB BKB20190728031011007/28/19 03:10:31  5-MIN KBKB 280910Z AUTO 00000KT 9SM SCT003 23/22 A3010 130 97 1100 000/00 RMK AO2 T02280222
53988KBKB BKB20190728031511007/28/19 03:15:31  5-MIN KBKB 280915Z AUTO 00000KT 9SM SCT003 23/22 A3011 130 97 1100 000/00 RMK AO2 T02280222
53988KBKB BKB20190728031516307/28/19 03:15:31  5-MIN KBKB 280915Z AUTO 00000KT 9SM SCT003 23/22 A3011 130 97 1100 000/00 RMK AO2 T0228022207/28/19 03:20:31  5-MI 1200 000/00 RMK AO2 T02330222
53988KBKB BKB20190728032011107/28/19 03:20:31  5-MIN KBKB 280920Z AUTO 00000KT 10SM FEW003 23/22 A3011 130 93 1200 000/00 RMK AO2 T02330222
53988KBKB BKB20190728032016807/28/19 03:20:31  5-MIN KBKB 280920Z AUTO 00000KT 10SM FEW003 23/22-MIN KBKB 281050Z AUTO 00000KT 3SM BR OVC002 23/23 A3011 120 97 1200 000/00 RMK AO2 SLP223 T02330228
53988KBKB BKB20190728032511807/28/19 03:25:31  5-MIN KBKB 280925Z AUTO 00000KT 10SM SCT003 SCT011 23/22 A3011 130 97 1100 000/00 RMK AO2 T02280222
53988KBKB BKB20190728032516307/28/19 03:25:31  5-MIN KBKB 280925Z AUTO 00000KT 10SM SCT003 SCT011 23/22 A3011 130 97 1100 000/00 RMK AO2 T0228022222 A3010 130 93 1200 000/00 RMK AO2 T02330222
53988KBKB BKB20190728033011707/28/19 03:30:31  5-MIN KBKB 280930Z AUTO 00000KT 8SM BKN004 BKN011 23/22 A3011 130 93 1200 000/00 RMK AO2 T02330222
53988KBKB BKB20190728033514807/28/19 03:35:31  5-MIN KBKB 280935Z AUTO 00000KT 8SM BKN004 23/22 A3011 120 93 1200 000/00 RMK AO2 T023302211 130 97 1100 000/00 RMK AO2 T02280222
53988KBKB BKB20190728045511707/28/19 04:55:31  5-MIN KBKB 281055Z AUTO 00000KT 2 1/2SM BR OVC002 23/23 A3012 120 97 1200 000/00 RMK AO2 T02330228
53988KBKB BKB20190728165011507/28/19 16:50:31  5-MIN KBKB 282250Z AUTO VRB04KT 10SM CLR 30/22 A3004 190 60 2000 VRB/04 RMK AO2 SLP198 T03000217
53988KBKB BKB20190728165510807/28/19 16:55:31  5-MIN KBKB 282255Z AUTO VRB03KT 10SM CLR 31/22 A3004 190 58 2100 VRB/03 RMK AO2 T03060217
53988KBKB BKB20190728170010807/28/19 17:00:31  5-MIN KBKB 282300Z AUTO 00000KT 10SM CLR 31/22 A3004 190 58 2100 000/00 RMK AO2 T03060217
53988KBKB BKB20190728170510807/28/19 17:05:31  5-MIN KBKB 282305Z AUTO 00000KT 10SM CLR 31/22 A3004 190 58 2100 000/00 RMK AO2 T03060217
53988KBKB BKB20190728171010807/28/19 17:10:31  5-MIN KBKB 282310Z AUTO VRB03KT 10SM CLR 30/22 A3004 190 60 2000 VRB/03 RMK AO2 T03000217
53988KBKB BKB20190728171510807/28/19 17:15:31  5-MIN KBKB 282315Z AUTO VRB03KT 10SM CLR 30/22 A3004 180 60 2000 VRB/03 RMK AO2 T03000217
53988KBKB BKB20190728172010807/28/19 17:20:31  5-MIN KBKB 282320Z AUTO 00000KT 10SM CLR 30/22 A3005 180 60 2000 000/00 RMK AO2 T03000217
53988KBKB BKB20190728172510807/28/19 17:25:31  5-MIN KBKB 282325Z AUTO VRB03KT 10SM CLR 30/22 A3005 180 60 2000 VRB/03 RMK AO2 T03000217
53988KBKB BKB20190728173010807/28/19 17:30:31  5-MIN KBKB 282330Z AUTO VRB04KT 10SM CLR 30/22 A3005 180 60 2000 VRB/04 RMK AO2 T03000217
53988KBKB BKB20190728173507007/28/19 17:35:31  5-MIN KBKB 282335Z AUTO M M M M /M RMK AO2 FZRANO $
53988KBKB BKB20190728174010107/28/19 17:40:31  5-MIN KBKB 282340Z AUTO 00000KT 31/22 A3004 180 60 2000 000/00 RMK AO2 T03060222 $
53988KBKB BKB20190728174510607/28/19 17:45:31  5-MIN KBKB 282345Z AUTO VRB04KT 10SM 29/22 A3005 180 64 1900 VRB/04 RMK AO2 T02940222 $
53988KBKB BKB20190728175013107/28/19 17:50:31  5-MIN KBKB 282350Z AUTO VRB03KT 10SM 29/23 A3005 180 67 1900 VRB/03 RMK AO2 SLP200 6//// T02940228 10311 20278 $
53988KBKB BKB20190728175510607/28/19 17:55:31  5-MIN KBKB 282355Z AUTO VRB03KT 10SM 29/23 A3005 180 69 1900 VRB/03 RMK AO2 T02890228 $
53988KBKB BKB20190728180010607/28/19 18:00:31  5-MIN KBKB 290000Z AUTO VRB03KT 10SM 28/23 A3004 190 71 1800 VRB/03 RMK AO2 T02830228 $
53988KBKB BKB20190728180511007/28/19 18:05:31  5-MIN KBKB 290005Z AUTO VRB05KT 10SM CLR 28/23 A3004 190 71 1800 VRB/05 RMK AO2 T02830228 $
53988KBKB BKB20190728181011007/28/19 18:10:31  5-MIN KBKB 290010Z AUTO VRB03KT 10SM CLR 28/23 A3004 190 74 1700 VRB/03 RMK AO2 T02780228 $
53988KBKB BKB20190728181511007/28/19 18:15:31  5-MIN KBKB 290015Z AUTO VRB03KT 10SM CLR 28/23 A3004 190 74 1700 VRB/03 RMK AO2 T02780228 $
53988KBKB BKB20190728182011007/28/19 18:20:31  5-MIN KBKB 290020Z AUTO 00000KT 10SM CLR 28/23 A3004 190 74 1700 000/00 RMK AO2 T02780228 $
53988KBKB BKB20190728182511007/28/19 18:25:31  5-MIN KBKB 290025Z AUTO 00000KT 10SM CLR 27/23 A3004 190 76 1700 000/00 RMK AO2 T02720228 $
53988KBKB BKB20190728183011007/28/19 18:30:31  5-MIN KBKB 290030Z AUTO VRB04KT 10SM CLR 27/23 A3005 180 76 1700 VRB/04 RMK AO2 T02720228 $
53988KBKB BKB20190728183514707/28/19 18:35:31  5-MIN KBKB 290035Z AUTO 00000KT 10SM CLR 27/BKB 290110Z AUTO 00000KT 10SM CLR 26/23 A3004 190 81 1600 000/00 RMK AO2 T02610228 $
53988KBKB BKB20190728191511007/28/19 19:15:31  5-MIN KBKB 290115Z AUTO 00000KT 10SM CLR 27/23 A3004 190 79 1600 000/00 RMK AO2 T02670228 $
53988KBKB BKB20190728192011007/28/19 19:20:31  5-MIN KBKB 290120Z AUTO VRB03KT 10SM CLR 27/23 A3004 190 79 1600 VRB/03 RMK AO2 T02670228 $
53988KBKB BKB20190728192514507/28/19 19:25:31  5-MIN KBKB 290125Z AUTO 00000KT 10SM CLR 27/23 A3004 190 7 00000KT 10SM CLR 25/23 A3002 200 87 1400 000/00 RMK AO2 T02500228 $
53988KBKB BKB20190728200511007/28/19 20:05:31  5-MIN KBKB 290205Z AUTO 00000KT 10SM CLR 25/23 A3003 200 87 1400 000/00 RMK AO2 T02500228 $
53988KBKB BKB20190728201011007/28/19 20:10:31  5-MIN KBKB 290210Z AUTO 00000KT 10SM CLR 25/23 A3003 190 87 1400 000/00 RMK AO2 T02500228 $
53988KBKB BKB20190728201511007/28/19 20:15:31  5-MIN KBKB 290215Z AUTO 00000KT 10SM CLR 24/23 A3004 190 90 1400 000/00 RMK AO2 T02440228 $
53988KBKB BKB20190728202011007/28/19 20:20:31  5-MIN KBKB 290220Z AUTO 00000KT 10SM CLR 25/23 A3004 190 87 1400 000/00 RMK AO2 T02500228 $
53988KBKB BKB20190728202511007/28/19 20:25:31  5-MIN KBKB 290225Z AUTO 00000KT 10SM CLR 24/23 A3004 180 90 1400 000/00 RMK AO2 T02440228 $
53988KBKB BKB20190728203011007/28/19 20:30:31  5-MIN KBKB 290230Z AUTO 00000KT 10SM CLR 24/23 A3005 180 90 1400 000/00 RMK AO2 T02440228 $
53988KBKB BKB20190728203511007/28/19 20:35:31  5-MIN KBKB 290235Z AUTO 00000KT 10SM CLR 24/22 A3005 180 87 1400 000/00 RMK AO2 T02440222 $
53988KBKB BKB20190728204011007/28/19 20:40:31  5-MIN KBKB 290240Z AUTO 00000KT 10SM CLR 25/23 A3005 180 87 1400 000/00 RMK AO2 T02500228 $
53988KBKB BKB20190728204511007/28/19 20:45:31  5-MIN KBKB 290245Z AUTO 00000KT 10SM CLR 25/23 A3005 180 87 1400 000/00 RMK AO2 T02500228 $
53988KBKB BKB20190728205011707/28/19 20:50:31  5-MIN KBKB 290250Z AUTO 00000KT 10SM CLR 25/22 A3005 170 84 1400 000/00 RMK AO2 SLP202 T02500222 $
53988KBKB BKB20190728205511007/28/19 20:55:31  5-MIN KBKB 290255Z AUTO 00000KT 10SM CLR 25/22 A3005 180 84 1400 000/00 RMK AO2 T02500222 $
53988KBKB BKB20190728210011007/28/19 21:00:31  5-MIN KBKB 290300Z AUTO 00000KT 10SM CLR 25/22 A3005 170 84 1400 000/00 RMK AO2 T02500222 $
53988KBKB BKB20190728210511007/28/19 21:05:31  5-MIN KBKB 290305Z AUTO 00000KT 10SM CLR 25/22 A3005 170 84 1400 000/00 RMK AO2 T02500222 $
53988KBKB BKB20190728211011007/28/19 21:10:31  5-MIN KBKB 290310Z AUTO 00000KT 10SM CLR 25/22 A3006 170 84 1400 000/00 RMK AO2 T02500222 $
53988KBKB BKB20190728211511007/28/19 21:15:31  5-MIN KBKB 290315Z AUTO 00000KT 10SM CLR 24/22 A3006 170 87 1300 000/00 RMK AO2 T02440222 $
53988KBKB BKB20190728212011007/28/19 21:20:31  5-MIN KBKB 290320Z AUTO 00000KT 10SM CLR 24/22 A3006 170 87 1300 000/00 RMK AO2 T02440222 $
53988KBKB BKB20190728212511007/28/19 21:25:31  5-MIN KBKB 290325Z AUTO 00000KT 10SM CLR 24/22 A3006 170 87 1300 000/00 RMK AO2 T02440222 $
53988KBKB BKB20190728213011007/28/19 21:30:31  5-MIN KBKB 290330Z AUTO 00000KT 10SM CLR 24/22 A3006 170 87 1300 000/00 RMK AO2 T02440222 $
53988KBKB BKB20190728213511007/28/19 21:35:31  5-MIN KBKB 290335Z AUTO 00000KT 10SM CLR 24/22 A3006 170 87 1300 000/00 RMK AO2 T02440222 $
53988KBKB BKB20190728214011007/28/19 21:40:31  5-MIN KBKB 290340Z AUTO 00000KT 10SM CLR 24/22 A3006 170 87 1300 000/00 RMK AO2 T02440222 $
53988KBKB BKB20190728214511007/28/19 21:45:31  5-MIN KBKB 290345Z AUTO 00000KT 10SM CLR 24/22 A3006 160 87 1300 000/00 RMK AO2 T02440222 $
53988KBKB BKB20190728215011707/28/19 21:50:31  5-MIN KBKB 290350Z AUTO 00000KT 10SM CLR 24/22 A3006 170 87 1300 000/00 RMK AO2 SLP206 T02440222 $
53988KBKB BKB20190728215511007/28/19 21:55:31  5-MIN KBKB 290355Z AUTO 00000KT 10SM CLR 24/22 A3006 170 87 1300 000/00 RMK AO2 T02440222 $
53988KBKB BKB20190728220011207/28/19 22:00:31  5-MIN KBKB 290400Z AUTO 00000KT 10SM CLR 24/22 A3006 160 90 1300 000/00 RMK AO2 T02390222 $ $
53988KBKB BKB20190728225011707/28/19 22:50:31  5-MIN KBKB 290450Z AUTO 00000KT 10SM CLR 24/22 A3007 160 90 1300 000/00 RMK AO2 SLP206 T02390222 $
53988KBKB BKB20190728225511007/28/19 22:55:31  5-MIN KBKB 290455Z AUTO 00000KT 10SM CLR 24/22 A3006 170 90 1300 000/00 RMK AO2 T02390222 $
53988KBKB BKB20190728230011007/28/19 23:00:31  5-MIN KBKB 290500Z AUTO 00000KT 10SM CLR 23/22 A3006 160 93 1200 000/00 RMK AO2 T02330222 $
53988KBKB BKB20190728230510207/28/19 23:05:31  5-MIN KBKB 290505Z AUTO 00000KTR 23/22 A3003 190 93 1200 000/00 RMK AO2 T02280217 $
53988KBKB BKB20190729014511007/29/19 01:45:31  5-MIN KBKB 290745Z AUTO 00000KT 10SM CLR 23/22 A3004 190 93 1200 000/00 RMK AO2 T02280217 $
53988KBKB BKB20190729015011707/29/19 01:50:31  5-MIN KBKB 290750Z AUTO 00000KT 10SM CLR 23/22 A3004 190 93 1200 000/00 RMK AO2 SLP196 T02280217 $
53988KBKB BKB20190729015514107/29/19 01:55:31  5-MIN KBKB 290755Z AUTO 00000KT 10SM CLR 22/22 A3004 190 97 1100 000/00 RMK AO2 T02220217 $07/0 000/00 RMK AO2 T02280217 $
53988KBKB BKB20190729020511007/29/19 02:05:31  5-MIN KBKB 290805Z AUTO 00000KT 10SM CLR 22/22 A3004 190 97 1100 000/00 RMK AO2 T02220217 $
53988KBKB BKB20190729021011007/29/19 02:10:31  5-MIN KBKB 290810Z AUTO 00000KT 10SM CLR 22/22 A3004 190 97 1100 000/00 RMK AO2 T02220217 $
53988KBKB BKB20190729021511007/29/19 02:15:31  5-MIN KBKB 290815Z AUTO 00000KT 10SM CLR 22/22 A3004 190 97 1100 000/00 RMK AO2 T02220217 $
53988KBKB BKB20190729022011007/29/19 02:20:31  5-MIN KBKB 290820Z AUTO 00000KT 10SM CLR 23/22 A3004 190 93 1200 000/00 RMK AO2 T02280217 $
53988KBKB BKB20190729022511007/29/19 02:25:31  5-MIN KBKB 290825Z AUTO 00000KT 10SM CLR 22/22 A3004 190 97 1100 000/00 RMK AO2 T02220217 $
53988KBKB BKB20190729023011307/29/19 02:30:31  5-MIN KBKB 290830Z AUTO 00000KT 10SM FEW014 23/22 A3003 190 93 1200 000/00 RMK AO2 T02280217 $
53988KBKB BKB20190729023511307/29/19 02:35:31  5-MIN KBKB 290835Z AUTO 00000KT 10SM FEW014 23/22 A3003 190 93 1200 000/00 RMK AO2 T02280217 $
53988KBKB BKB20190729024011307/29/19 02:40:31  5-MIN KBKB 290840Z AUTO 00000KT 10SM FEW014 23/22 A3003 190 93 1200 000/00 RMK AO2 T02280217 $
53988KBKB BKB20190729024511307/29/19 02:45:31  5-MIN KBKB 290845Z AUTO 00000KT 10SM FEW015 23/22 A3003 190 93 1200 000/00 RMK AO2 T02280217 $
53988KBKB BKB20190729024516207/29/19 02:45:31  5-MIN KBKB 290845Z AUTO 00000KT 10SM FEW015 23/22 A3003 190 93 1200 000/00 RMK A0KT 10SM CLR 23/22 A3004 190 93 1200 000/00 RMK AO2 T02280217 $
53988KBKB BKB20190729025012307/29/19 02:50:31  5-MIN KBKB 290850Z AUTO 00000KT 10SM CLR 22/22 A3004 190 97 1100 000/00 RMK AO2 SLP196 T02220217 50001 $
53988KBKB BKB20190729025511007/29/19 02:55:31  5-MIN KBKB 290855Z AUTO 00000KT 10SM CLR 22/22 A3004 190 97 1100 000/00 RMK AO2 T02220217 $
53988KBKB BKB20190729030011007/29/19 03:00:31  5-MIN KBKB 290900Z AUTO 00000KT 10SM CLR 22/22 A3004 190 97 1100 000/00 RMK AO2 T02220217 $
53988KBKB BKB20190729030511007/29/19 03:05:31  5-MIN KBKB 290905Z AUTO 00000KT 10SM CLR 23/22 A3004 190 93 1200 000/00 RMK AO2 T02280217 $
53988KBKB BKB20190729031011007/29/19 03:10:31  5-MIN KBKB 290910Z AUTO 00000KT 10SM CLR 23/22 A3004 190 93 1200 000/00 RMK AO2 T02280217 $
53988KBKB BKB20190729031511007/29/19 03:15:31  5-MIN KBKB 290915Z AUTO 00000KT 10SM CLR 23/22 A3004 190 93 1200 000/00 RMK AO2 T02280217 $
53988KBKB BKB20190729032011307/29/19 03:20:31  5-MIN KBKB 290920Z AUTO 00000KT 10SM FEW012 23/22 A3004 190 93 1200 000/00 RMK AO2 T02280217 $
53988KBKB BKB20190729032512007/29/19 03:25:31  5-MIN KBKB 290925Z AUTO 00000KT 10SM FEW012 FEW018 23/22 A3004 190 93 1200 000/00 RMK AO2 T02280217 $
53988KBKB BKB20190729033012007/29/19 03:30:31  5-MIN KBKB 290930Z AUTO 00000KT 10SM FEW012 FEW018 23/22 A3003 190 97 1200 000/00 RMK AO2 T02280222 $
53988KBKB BKB20190729033512007/29/19 03:35:31  5-MIN KBKB 290935Z AUTO 00000KT 10SM FEW012 FEW018 23/22 A3004 190 93 1200 000/00 RMK AO2 T02280217 $
53988KBKB BKB20190729034011307/29/19 03:40:31  5-MIN KBKB 290940Z AUTO 00000KT 10SM FEW012 23/22 A3003 190 93 1200 000/00 RMK AO2 T02280217 $
53988KBKB BKB20190729034512007/29/19 03:45:31  5-MIN KBKB 290945Z AUTO 00000KT 10SM FEW012 FEW018 23/22 A3003 190 93 1200 000/00 RMK AO2 T02280217 $
53988KBKB BKB20190729035012007/29/19 03:50:31  5-MIN KBKB 290950Z AUTO 00000KT 10SM FEW018 23/22 A3004 190 93 1200 000/00 RMK AO2 SLP196 T02280217 $
53988KBKB BKB20190729035511007/29/19 03:55:31  5-MIN KBKB 290955Z AUTO 00000KT 10SM CLR 23/22 A3004 190 97 1200 000/00 RMK AO2 T02280222 $
53988KBKB BKB20190729040011007/29/19 04:00:31  5-MIN KBKB 291000Z AUTO 00000KT 10SM CLR 23/22 A3003 190 97 1200 000/00 RMK AO2 T02280222 $
53988KBKB BKB20190729040511307/29/19 04:05:31  5-MIN KBKB 291005Z AUTO 00000KT 10SM FEW018 23/22 A3003 190 97 1200 000/00 RMK AO2 T02280222 $
53988KBKB BKB20190729041011307/29/19 04:10:31  5-MIN KBKB 291010Z AUTO 00000KT 10SM FEW018 23/22 A3003 190 97 1200 000/00 RMK AO2 T02280222 $
53988KBKB BKB20190729041511007/29/19 04:15:31  5-MIN KBKB 291015Z AUTO 00000KT 10SM CLR 23/22 A3003 190 97 1200 000/00 RMK AO2 T02280222 $
53988KBKB BKB20190729042011007/29/19 04:20:31  5-MIN KBKB 291020Z AUTO 00000KT 10SM CLR 23/22 A3004 190 93 1200 000/00 RMK AO2 T02280217 $
53988KBKB BKB20190729042511007/29/19 04:25:31  5-MIN KBKB 291025Z AUTO 00000KT 10SM CLR 23/22 A3004 190 93 1200 000/00 RMK AO2 T02280217 $
53988KBKB BKB20190729043011007/29/19 04:30:31  5-MIN KBKB 291030Z AUTO 00000KT 10SM CLR 23/22 A3004 190 93 1200 000/00 RMK AO2 T02280217 $
53988KBKB BKB20190729043511007/29/19 04:35:31  5-MIN KBKB 291035Z AUTO 00000KT 10SM CLR 23/22 A3004 190 93 1200 000/00 RMK AO2 T02280217 $
53988KBKB BKB20190729044011007/29/19 04:40:31  5-MIN KBKB 291040Z AUTO 00000KT 10SM CLR 23/22 A3004 190 93 1200 000/00 RMK AO2 T02280217 $
53988KBKB BKB20190729044511007/29/19 04:45:31  5-MIN KBKB 291045Z AUTO 00000KT 10SM CLR 23/22 A3004 190 93 1200 000/00 RMK AO2 T02280217 $
53988KBKB BKB20190729045011707/29/19 04:50:31  5-MIN KBKB 291050Z AUTO 00000KT 10SM CLR 23/22 A3004 190 93 1200 000/00 RMK AO2 SLP196 T02280217 $
53988KBKB BKB20190729045511007/29/19 04:55:31  5-MIN KBKB 291055Z AUTO 00000KT 10SM CLR 23/22 A3004 190 93 1200 000/00 RMK AO2 T02280217 $
53988KBKB BKB20190729050011007/29/19 05:00:31  5-MIN KBKB 291100Z AUTO 00000KT 10SM CLR 23/22 A3004 190 93 1200 000/00 RMK AO2 T02280217 $
53988KBKB BKB20190729050511007/29/19 05:05:31  5-MIN KBKB 291105Z AUTO 00000KT 10SM CLR 23/22 A3004 190 93 1200 000/00 RMK AO2 T02280217 $
53988KBKB BKB20190729051011007/29/19 05:10:31  5-MIN KBKB 291110Z AUTO 00000KT 10SM CLR 23/22 A3004 190 93 1200 000/00 RMK AO2 T02280217 $
53988KBKB BKB20190729051511007/29/19 05:15:31  5-MIN KBKB 291115Z AUTO 00000KT 10SM CLR 22/22 A3004 190 97 1100 000/00 RMK AO2 T02220217 $
53988KBKB BKB20190729052011007/29/19 05:20:31  5-MIN KBKB 291120Z AUTO 00000KT 10SM CLR 23/22 A3004 190 93 1200 000/00 RMK AO2 T02280217 $
53988KBKB BKB20190729052511007/29/19 05:25:31  5-MIN KBKB 291125Z AUTO 00000KT 10SM CLR 23/22 A3004 190 93 1200 000/00 RMK AO2 T02280217 $
53988KBKB BKB20190729053011007/29/19 05:30:31  5-MIN KBKB 291130Z AUTO 00000KT 10SM CLR 23/22 A3004 190 93 1200 000/00 RMK AO2 T02280217 $
53988KBKB BKB20190729053511007/29/19 05:35:31  5-MIN KBKB 291135Z AUTO 00000KT 10SM CLR 23/22 A3004 180 93 1200 000/00 RMK AO2 T02280217 $
53988KBKB BKB20190729054011007/29/19 05:40:31  5-MIN KBKB 291140Z AUTO 00000KT 10SM CLR 23/22 A3004 190 93 1200 000/00 RMK AO2 T02280217 $
53988KBKB BKB20190729054510907/29/19 05:45:31  5-MIN KBKB 291145Z AUTO 00000KT 9SM CLR 23/22 A3004 190 93 1200 000/00 RMK AO2 T02280217 $
53988KBKB BKB20190729055014007/29/19 05:50:31  5-MIN KBKB 291150Z AUTO 00000KT 8SM CLR 23/22 A3004 180 93 1200 000/00 RMK AO2 SLP199 7//// T02280217 10233 20222 56007 $
53988KBKB BKB20190729055510907/29/19 05:55:31  5-MIN KBKB 291155Z AUTO 00000KT 8SM CLR 23/22 A3004 180 93 1200 000/00 RMK AO2 T02280217 $
53988KBKB BKB20190729060010907/29/19 06:00:31  5-MIN KBKB 291200Z AUTO 00000KT 9SM CLR 23/22 A3004 190 93 1200 000/00 RMK AO2 T02280217 $
53988KBKB BKB20190729060510907/29/19 06:05:31  5-MIN KBKB 291205Z AUTO 00000KT 9SM CLR 23/22 A3004 180 97 1200 000/00 RMK AO2 T02280222 $
53988KBKB BKB20190729061010907/29/19 06:10:31  5-MIN KBKB 291210Z AUTO 00000KT 9SM CLR 23/22 A3004 180 97 1200 000/00 RMK AO2 T02280222 $
53988KBKB BKB20190729061511007/29/19 06:15:31  5-MIN KBKB 291215Z AUTO 00000KT 10SM CLR 23/22 A3005 180 97 1200 000/00 RMK AO2 T02280222 $
53988KBKB BKB20190729062011007/29/19 06:20:31  5-MIN KBKB 291220Z AUTO 00000KT 10SM CLR 23/22 A3005 180 97 1200 000/00 RMK AO2 T02280222 $
53988KBKB BKB20190729062511007/29/19 06:25:31  5-MIN KBKB 291225Z AUTO 00000KT 10SM CLR 23/22 A3005 180 93 1200 000/00 RMK AO2 T02330222 $
53988KBKB BKB20190729063011007/29/19 06:30:31  5-MIN KBKB 291230Z AUTO 00000KT 10SM CLR 23/23 A3005 180 97 1200 000/00 RMK AO2 T02330228 $
53988KBKB BKB20190729063511007/29/19 06:35:31  5-MIN KBKB 291235Z AUTO 00000KT 10SM CLR 24/23 A3005 180 93 1300 000/00 RMK AO2 T02390228 $
53988KBKB BKB20190729064011007/29/19 06:40:31  5-MIN KBKB 291240Z AUTO 00000KT 10SM CLR 24/23 A3005 180 93 1300 000/00 RMK AO2 T02390228 $
53988KBKB BKB20190729064511007/29/19 06:45:31  5-MIN KBKB 291245Z AUTO 00000KT 10SM CLR 24/23 A3005 180 93 1300 000/00 RMK AO2 T02390228 $
53988KBKB BKB20190729065011707/29/19 06:50:31  5-MIN KBKB 291250Z AUTO 00000KT 10SM CLR 24/23 A3005 180 93 1400 000/00 RMK AO2 SLP202 T02440233 $
53988KBKB BKB20190729065511007/29/19 06:55:31  5-MIN KBKB 291255Z AUTO VRB03KT 10SM CLR 25/23 A3005 170 90 1400 VRB/03 RMK AO2 T02500233 $
53988KBKB BKB20190729070011007/29/19 07:00:31  5-MIN KBKB 291300Z AUTO VRB04KT 10SM CLR 25/23 A3005 170 90 1400 VRB/04 RMK AO2 T02500233 $
53988KBKB BKB20190729070511007/29/19 07:05:31  5-MIN KBKB 291305Z AUTO 19003KT 10SM CLR 25/23 A3005 170 90 1400 190/03 RMK AO2 T02500233 $
53988KBKB BKB20190729071010807/29/19 07:10:31  5-MIN KBKB 291310Z AUTO VRB03KT 10SM CLR 26/24 A3006 170 90 1500 VRB/03 RMK AO2 T02560239
53988KBKB BKB20190729071510807/29/19 07:15:31  5-MIN KBKB 291315Z AUTO 21003KT 10SM CLR 26/23 A3006 170 87 1500 200/03 RMK AO2 T02560233
53988KBKB BKB20190729072007307/29/19 07:20:31  5-MIN KBKB 291320Z AUTO 21003KT M M M 200/03 RMK AO2 $
53988KBKB BKB20190729072510107/29/19 07:25:31  5-MIN KBKB 291325Z AUTO 00000KT 26/24 A3006 170 87 1500 000/00 RMK AO2 T02610239 $
53988KBKB BKB20190729073010607/29/19 07:30:31  5-MIN KBKB 291330Z AUTO VRB04KT 10SM 27/24 A3006 170 84 1700 VRB/04 RMK AO2 T02720244 $
53988KBKB BKB20190729073510607/29/19 07:35:31  5-MIN KBKB 291335Z AUTO 00000KT 10SM 27/24 A3006 170 84 1600 000/00 RMK AO2 T02670239 $
53988KBKB BKB20190729074010607/29/19 07:40:31  5-MIN KBKB 291340Z AUTO VRB04KT 10SM 27/24 A3006 170 82 1700 VRB/04 RMK AO2 T02720239 $
53988KBKB BKB20190729074510607/29/19 07:45:31  5-MIN KBKB 291345Z AUTO 00000KT 10SM 27/24 A3006 170 84 1700 000/00 RMK AO2 T02720244 $
53988KBKB BKB20190729075012007/29/19 07:50:31  5-MIN KBKB 291350Z AUTO VRB03KT 10SM SCT013 28/24 A3006 170 82 1700 VRB/03 RMK AO2 SLP204 T02780244 $
53988KBKB BKB20190729075511307/29/19 07:55:31  5-MIN KBKB 291355Z AUTO VRB04KT 10SM SCT013 28/24 A3006 170 82 1700 VRB/04 RMK AO2 T02780244 $
53988KBKB BKB20190729080011307/29/19 08:00:31  5-MIN KBKB 291400Z AUTO VRB03KT 10SM SCT013 28/24 A3006 170 82 1700 VRB/03 RMK AO2 T02780244 $
53988KBKB BKB20190729080511307/29/19 08:05:31  5-MIN KBKB 291405Z AUTO 00000KT 10SM SCT015 28/24 A3006 170 79 1800 000/00 RMK AO2 T02830244 $
53988KBKB BKB20190729081011307/29/19 08:10:31  5-MIN KBKB 291410Z AUTO VRB03KT 10SM BKN013 29/24 A3006 170 76 1800 VRB/03 RMK AO2 T02890244 $
53988KBKB BKB20190729081510307/29/19 08:15:31  5-MIN KBKB 291415Z AUTO 10SM BKN013 28/24 A3006 170 79 1800 M /M RMK AO2 T02830244 $
53988KBKB BKB20190729082011307/29/19 08:20:31  5-MIN KBKB 291420Z AUTO VRB04KT 10SM BKN015 28/24 A3006 170 76 1800 VRB/04 RMK AO2 T02830239 $
53988KBKB BKB20190729082511307/29/19 08:25:31  5-MIN KBKB 291425Z AUTO VRB05KT 10SM BKN015 28/24 A3006 170 79 1800 VRB/05 RMK AO2 T02830244 $
53988KBKB BKB20190729083011307/29/19 08:30:31  5-MIN KBKB 291430Z AUTO VRB03KT 10SM BKN015 28/24 A3006 170 76 1800 VRB/03 RMK AO2 T02830239 $
53988KBKB BKB20190729083511307/29/19 08:35:31  5-MIN KBKB 291435Z AUTO VRB03KT 10SM BKN015 28/24 A3006 170 76 1800 VRB/03 RMK AO2 T02830239 $
53988KBKB BKB20190729084011307/29/19 08:40:31  5-MIN KBKB 291440Z AUTO VRB04KT 10SM BKN015 28/24 A3006 170 76 1800 VRB/04 RMK AO2 T02830239 $
53988KBKB BKB20190729084512007/29/19 08:45:31  5-MIN KBKB 291445Z AUTO 23005KT 10SM SCT016 SCT022 28/24 A3005 170 76 1800 220/05 RMK AO2 T02830239 $
53988KBKB BKB20190729085011007/29/19 08:50:31  5-MIN KBKB 291450Z AUTO VRB05KT 10SM SCT016 SCT022 28/24 A3005 180 76 1800 VRB/05 RMK AO2 $
53988KBKB BKB20190729085512007/29/19 08:55:31  5-MIN KBKB 291455Z AUTO VRB06KT 10SM SCT019 SCT028 29/24 A3005 180 71 1900 VRB/06 RMK AO2 T02940239 $
53988KBKB BKB20190729090012007/29/19 09:00:31  5-MIN KBKB 291500Z AUTO 00000KT 10SM SCT020 BKN028 30/24 A3005 170 72 2000 000/00 RMK AO2 T03000244 $
53988KBKB BKB20190729090512007/29/19 09:05:31  5-MIN KBKB 291505Z AUTO VRB04KT 10SM SCT020 BKN028 31/24 A3005 180 69 2000 VRB/04 RMK AO2 T03060244 $
53988KBKB BKB20190729091012007/29/19 09:10:31  5-MIN KBKB 291510Z AUTO 21005KT 10SM BKN022 BKN027 30/24 A3005 180 69 2000 210/05 RMK AO2 T03000239 $
53988KBKB BKB20190729091511307/29/19 09:15:31  5-MIN KBKB 291515Z AUTO VRB04KT 10SM BKN022 30/24 A3005 180 69 2000 VRB/04 RMK AO2 T03000239 $
53988KBKB BKB20190729092012007/29/19 09:20:31  5-MIN KBKB 291520Z AUTO 20004KT 10SM BKN022 BKN031 31/24 A3005 180 67 2000 200/04 RMK AO2 T03060239 $
53988KBKB BKB20190729092512007/29/19 09:25:31  5-MIN KBKB 291525Z AUTO VRB03KT 10SM BKN022 BKN033 29/23 A3005 180 69 1900 VRB/03 RMK AO2 T02940233 $
53988KBKB BKB20190729093012007/29/19 09:30:31  5-MIN KBKB 291530Z AUTO 00000KT 10SM BKN022 BKN033 31/24 A3005 180 67 2000 000/00 RMK AO2 T03060239 $
53988KBKB BKB20190729093512007/29/19 09:35:31  5-MIN KBKB 291535Z AUTO VRB03KT 10SM BKN022 BKN033 29/23 A3005 170 69 1900 VRB/03 RMK AO2 T02940233 $
53988KBKB BKB20190729094012007/29/19 09:40:31  5-MIN KBKB 291540Z AUTO VRB04KT 10SM SCT024 BKN033 29/23 A3006 170 71 1800 VRB/04 RMK AO2 T02890233 $
53988KBKB BKB20190729094512007/29/19 09:45:31  5-MIN KBKB 291545Z AUTO VRB04KT 10SM FEW024 SCT033 30/23 A3005 170 67 2000 VRB/04 RMK AO2 T03000233 $
53988KBKB BKB20190729095012007/29/19 09:50:31  5-MIN KBKB 291550Z AUTO VRB04KT 10SM FEW024 29/23 A3006 170 69 1900 VRB/04 RMK AO2 SLP203 T02940233 $
53988KBKB BKB20190729095511307/29/19 09:55:31  5-MIN KBKB 291555Z AUTO VRB04KT 10SM FEW024 29/23 A3006 170 67 1900 VRB/04 RMK AO2 T02940228 $
53988KBKB BKB20190729100011307/29/19 10:00:31  5-MIN KBKB 291600Z AUTO VRB04KT 10SM FEW026 31/23 A3006 170 62 2000 VRB/04 RMK AO2 T03060228 $
53988KBKB BKB20190729100511007/29/19 10:05:31  5-MIN KBKB 291605Z AUTO VRB05KT 10SM CLR 31/23 A3006 170 60 2100 VRB/05 RMK AO2 T03110228 $
53988KBKB BKB20190729101011007/29/19 10:10:31  5-MIN KBKB 291610Z AUTO 00000KT 10SM CLR 31/23 A3006 170 63 2100 000/00 RMK AO2 T03110233 $
53988KBKB BKB20190729101510307/29/19 10:15:31  5-MIN KBKB 291615Z AUTO 10SM FEW030 32/23 A3006 170 61 2200 M /M RMK AO2 T03170233 $
53988KBKB BKB20190729102012707/29/19 10:20:31  5-MIN KBKB 291620Z AUTO VRB03KT 10SM SCT030 SCT038 SCT060 31/23 A3006 170 65 2000 VRB/03 RMK AO2 T03060233 $
53988KBKB BKB20190729102512707/29/19 10:25:31  5-MIN KBKB 291625Z AUTO VRB03KT 10SM SCT030 SCT038 BKN049 30/23 A3006 170 65 2000 VRB/03 RMK AO2 T03000228 $
53988KBKB BKB20190729103007007/29/19 10:30:31  5-MIN KBKB 291630Z AUTO 23004KT RMK AO2 T03110217 $
53988KBKB BKB20190729111512707/29/19 11:15:31  5-MIN KBKB 291715Z AUTO VRB03KT 10SM SCT040 SCT049 SCT055 31/22 A3005 180 58 2000 VRB/03 RMK AO2 T03060217 $
53988KBKB BKB20190729112012007/29/19 11:20:31  5-MIN KBKB 291720Z AUTO VRB05KT 10SM FEW040 BKN060 32/22 A3005 180 56 2200 VRB/05 RMK AO2 T03170222 $
53988KBKB BKB20190729112512007/29/19 11:25:31  5-MIN KBKB 291725Z AUTO VRB04KT 10SM FEW040 BKN060 31/23 A3005 180 60 2100 VRB/04 RMK AO2 T03110228 $
53988KBKB BKB20190729113012707/29/19 11:30:31  5-MIN KBKB 291730Z AUTO VRB03KT 10SM FEW039 FEW049 BKN060 31/23 A3005 180 62 2000 VRB/03 RMK AO2 T03060228 $
53988KBKB BKB20190729113512007/29/19 11:35:31  5-MIN KBKB 291735Z AUTO 00000KT 10SM FEW039 SCT060 31/23 A3004 180 62 2000 000/00 RMK AO2 T03060228 $
53988KBKB BKB20190729113512907/29/19 11:35:31  5-MIN KBKB 291735Z AUTO 00000KT 10SM FEW039 SCT0T049 SCT055 31/22 A3005 180 58 2000 VRB/03 RMK AO2 T03060217 $
53988KBKB BKB20190729114011307/29/19 11:40:31  5-MIN KBKB 291740Z AUTO 00000KT 10SM FEW060 32/23 A3004 190 57 2200 000/00 RMK AO2 T03220228 $
53988KBKB BKB20190729114511307/29/19 11:45:31  5-MIN KBKB 291745Z AUTO VRB03KT 10SM FEW060 33/23 A3004 190 55 2400 VRB/03 RMK AO2 T03330233 $
53988KBKB BKB20190729114513607/29/19 11:45:31  5-MIN KBKB 291745Z AUTO VRB03KT 10SM FEW060 4KT 10SM FEW040 BKN060 31/23 A3005 180 60 2100 VRB/04 RMK AO2 T03110228 $
53988KBKB BKB20190729115013207/29/19 11:50:31  5-MIN KBKB 291750Z AUTO VRB04KT 10SM FEW060 33/23 A3004 190 55 2300 VRB/04 RMK AO2 SLP197 T03280228 10333 20250 $
53988KBKB BKB20190729115511307/29/19 11:55:31  5-MIN KBKB 291755Z AUTO VRB05KT 10SM FEW060 32/23 A3004 190 57 2200 VRB/05 RMK AO2 T03220228 $
53988KBKB BKB20190729120011007/29/19 12:00:31  5-MIN KBKB 291800Z AUTO VRB05KT 10SM CLR 32/23 A3004 190 57 2200 VRB/05 RMK AO2 T03220228 $
53988KBKB BKB20190729120511007/29/19 12:05:31  5-MIN KBKB 291805Z AUTO VRB04KT 10SM CLR 33/23 A3003 190 55 2300 VRB/04 RMK AO2 T03280228 $
53988KBKB BKB20190729121011307/29/19 12:10:31  5-MIN KBKB 291810Z AUTO VRB04KT 10SM FEW038 33/23 A3003 200 57 2300 VRB/04 RMK AO2 T03280233 $
53988KBKB BKB20190729121512007/29/19 12:15:31  5-MIN KBKB 291815Z AUTO VRB03KT 10SM SCT040 BKN050 32/23 A3003 200 58 2200 VRB/03 RMK AO2 T03170228 $
53988KBKB BKB20190729122012007/29/19 12:20:31  5-MIN KBKB 291820Z AUTO 00000KT 10SM SCT038 SCT050 32/23 A3003 200 58 2200 000/00 RMK AO2 T03170228 $
53988KBKB BKB20190729122511307/29/19 12:25:31  5-MIN KBKB 291825Z AUTO VRB06KT 10SM FEW040 33/22 A3002 200 53 2300 VRB/06 RMK AO2 T03280222 $
53988KBKB BKB20190729123012007/29/19 12:30:31  5-MIN KBKB 291830Z AUTO VRB03KT 10SM FEW040 SCT050 33/22 A3002 210 51 2300 VRB/03 RMK AO2 T03280217 $
53988KBKB BKB20190729123512007/29/19 12:35:31  5-MIN KBKB 291835Z AUTO VRB03KT 10SM SCT042 BKN050 32/22 A3001 210 53 2300 VRB/03 RMK AO2 T03220217 $
53988KBKB BKB20190729124011307/29/19 12:40:31  5-MIN KBKB 291840Z AUTO VRB03KT 10SM BKN044 32/22 A3002 210 53 2300 VRB/03 RMK AO2 T03220217 $
53988KBKB BKB20190729124511307/29/19 12:45:31  5-MIN KBKB 291845Z AUTO VRB04KT 10SM BKN044 33/22 A3002 210 53 2300 VRB/04 RMK AO2 T03280222 $
53988KBKB BKB20190729125012707/29/19 12:50:31  5-MIN KBKB 291850Z AUTO 00000KT 10SM BKN044 BKN065 33/22 A3002 210 53 2300 000/00 RMK AO2 SLP189 T03280222 $
53988KBKB BKB20190729125512007/29/19 12:55:31  5-MIN KBKB 291855Z AUTO VRB04KT 10SM BKN046 BKN065 33/21 A3001 210 49 2300 VRB/04 RMK AO2 T03280211 $
53988KBKB BKB20190729130011007/29/19 13:00:31  5-MIN KBKB 291900Z AUTO 10SM SCT046 SCT055 33/21 A3001 210 49 2300 M /M RMK AO2 T03280211 $
53988KBKB BKB20190729130512007/29/19 13:05:31  5-MIN KBKB 291905Z AUTO 20006KT 10SM BKN048 BKN060 33/22 A3001 220 53 2300 190/06 RMK AO2 T03280222 $
53988KBKB BKB20190729131012007/29/19 13:10:31  5-MIN KBKB 291910Z AUTO VRB04KT 10SM SCT048 SCT060 33/22 A3001 220 53 2300 VRB/04 RMK AO2 T03280222 $
53988KBKB BKB20190729131510907/29/19 13:15:31  5-MIN KBKB 291915Z AUTO VRB04KT 10SM SCT048 SCT060 32/22 A30200 000/00 RMK AO2 T03170217 $
53988KBKB BKB20190729131512007/29/19 13:15:31  5-MIN KBKB 291915Z AUTO VRB04KT 10SM SCT048 SCT060 32/22 A3001 220 55 2300 VRB/04 RMK AO2 T03220222 $
53988KBKB BKB20190729132011307/29/19 13:20:31  5-MIN KBKB 291920Z AUTO VRB03KT 10SM SCT049 33/22 A3001 220 51 2300 VRB/03 RMK AO2 T03280217 $
53988KBKB BKB20190729132512007/29/19 13:25:31  5-MIN KBKB 291925Z AUTO VRB03KT 10SM SCT049 SCT060 33/22 A3000 220 51 2300 VRB/03 RMK AO2 T03280217 $
53988KBKB BKB20190729133012007/29/19 13:30:31  5-MIN KBKB 291930Z AUTO VRB05KT 10SM SCT049 BKN060 33/22 A3000 220 50 2400 VRB/05 RMK AO2 T03330217 $
53988KBKB BKB20190729133512007/29/19 13:35:31  5-MIN KBKB 291935Z AUTO VRB05KT 10SM BKN049 BKN060 33/22 A3000 230 51 2300 VRB/05 RMK AO2 T03280217 $
53988KBKB BKB20190729134012007/29/19 13:40:31  5-MIN KBKB 291940Z AUTO VRB03KT 10SM BKN049 BKN060 32/22 A3000 230 55 2200 VRB/03 RMK AO2 T03170217 $
53988KBKB BKB20190729134512707/29/19 13:45:31  5-MIN KBKB 291945Z AUTO VRB04KT 10SM SCT049 BKN060 BKN070 32/22 A2999 230 53 2300 VRB/04 RMK AO2 T03220217 $
53988KBKB BKB20190729135013407/29/19 13:50:31  5-MIN KBKB 291950Z AUTO 00000KT 10SM FEW048 SCT055 BKN070 33/22 A2999 230 53 2400 000/00 RMK AO2 SLP180 T03280222 $
53988KBKB BKB20190729135512707/29/19 13:55:31  5-MIN KBKB 291955Z AUTO 00000KT 10SM SCT050 BKN065 BKN085 32/22 A2999 240 55 2200 000/00 RMK AO2 T03170217 $
53988KBKB BKB20190729140012707/29/19 14:00:31  5-MIN KBKB 292000Z AUTO 00000KT 10SM SCT050 BKN065 BKN085 33/23 A2999 240 55 2400 000/00 RMK AO2 T03280228 $
53988KBKB BKB20190729140512707/29/19 14:05:31  5-MIN KBKB 292005Z AUTO 00000KT 10SM SCT050 SCT065 BKN085 33/22 A2998 240 51 2400 000/00 RMK AO2 T03280217 $
53988KBKB BKB20190729141012707/29/19 14:10:31  5-MIN KBKB 292010Z AUTO 00000KT 10SM SCT050 BKN070 BKN085 33/22 A2998 240 53 2400 000/00 RMK AO2 T03280222 $
53988KBKB BKB20190729141512007/29/19 14:15:31  5-MIN KBKB 292015Z AUTO 00000KT 10SM BKN050 BKN065 32/22 A2998 240 53 2300 000/00 RMK AO2 T03220217 $
53988KBKB BKB20190729142012007/29/19 14:20:31  5-MIN KBKB 292020Z AUTO 14003KT 10SM BKN050 BKN065 32/22 A2998 250 53 2300 140/03 RMK AO2 T03220217 $
53988KBKB BKB20190729142512007/29/19 14:25:31  5-MIN KBKB 292025Z AUTO VRB03KT 10SM BKN050 BKN070 33/22 A2998 250 51 2400 VRB/03 RMK AO2 T03280217 $
53988KBKB BKB20190729143012007/29/19 14:30:31  5-MIN KBKB 292030Z AUTO VRB03KT 10SM BKN050 BKN070 34/22 A2997 250 50 2500 VRB/03 RMK AO2 T03390222 $
53988KBKB BKB20190729143512007/29/19 14:35:31  5-MIN KBKB 292035Z AUTO 19003KT 10SM BKN050 BKN070 34/21 A2998 250 46 2500 190/03 RMK AO2 T03390211 $
53988KBKB BKB20190729144012007/29/19 14:40:31  5-MIN KBKB 292040Z AUTO 00000KT 10SM SCT055 BKN075 34/21 A2997 250 46 2500 000/00 RMK AO2 T03390211 $
53988KBKB BKB20190729144512007/29/19 14:45:31  5-MIN KBKB 292045Z AUTO VRB03KT 10SM SCT050 SCT075 33/21 A2997 250 48 2400 VRB/03 RMK AO2 T03330211 $
53988KBKB BKB20190729145008307/29/19 14:50:31  5-MIN KBKB 292050Z AUTO 00000KT A2997 M M M 000/00 RMK AO2 SLPNO
53988KBKB BKB20190729145509907/29/19 14:55:31  5-MIN KBKB 292055Z AUTO VRB04KT 34/21 A2996 260 46 2500 VRB/04 RMK AO2 T03390211
53988KBKB BKB20190729150010407/29/19 15:00:31  5-MIN KBKB 292100Z AUTO VRB03KT 10SM 33/23 A2996 260 55 2400 VRB/03 RMK AO2 T03330233
53988KBKB BKB20190729150509407/29/19 15:05:31  5-MIN KBKB 292105Z AUTO 10SM 33/24 A2996 260 57 2400 M /M RMK AO2 T03330239
53988KBKB BKB20190729151010407/29/19 15:10:31  5-MIN KBKB 292110Z AUTO VRB05KT 10SM 32/23 A2996 260 59 2300 VRB/05 RMK AO2 T03220233
53988KBKB BKB20190729151510407/29/19 15:15:31  5-MIN KBKB 292115Z AUTO VRB04KT 10SM 33/23 A2996 260 57 2400 VRB/04 RMK AO2 T03280233
53988KBKB BKB20190729152011807/29/19 15:20:31  5-MIN KBKB 292120Z AUTO VRB05KT 10SM FEW060 SCT090 32/23 A2996 260 59 2300 VRB/05 RMK AO2 T03220233
53988KBKB BKB20190729152511807/29/19 15:25:31  5-MIN KBKB 292125Z AUTO VRB03KT 10SM SCT060 BKN090 32/23 A2996 260 61 2300 VRB/03 RMK AO2 T03170233
53988KBKB BKB20190729153011107/29/19 15:30:31  5-MIN KBKB 292130Z AUTO VRB03KT 10SM BKN055 32/23 A2996 260 59 2300 VRB/03 RMK AO2 T03220233
53988KBKB BKB20190729153511107/29/19 15:35:31  5-MIN KBKB 292135Z AUTO VRB03KT 10SM BKN060 33/24 A2996 260 57 2400 VRB/03 RMK AO2 T03330239
53988KBKB BKB20190729154011107/29/19 15:40:31  5-MIN KBKB 292140Z AUTO VRB05KT 10SM BKN060 32/23 A2996 260 59 2300 VRB/05 RMK AO2 T03220233
53988KBKB BKB20190729154511107/29/19 15:45:31  5-MIN KBKB 292145Z AUTO VRB05KT 10SM BKN060 32/23 A2996 260 58 2300 VRB/05 RMK AO2 T03170228
53988KBKB BKB20190729155012507/29/19 15:50:31  5-MIN KBKB 292150Z AUTO VRB05KT 10SM BKN055 BKN070 31/23 A2996 270 60 2200 VRB/05 RMK AO2 SLP169 T03110228
53988KBKB BKB20190729155512507/29/19 15:55:31  5-MIN KBKB 292155Z AUTO VRB04KT 10SM SCT050 BKN060 BKN070 31/23 A2996 270 60 2200 VRB/04 RMK AO2 T03110228
53988KBKB BKB20190729160011807/29/19 16:00:31  5-MIN KBKB 292200Z AUTO VRB03KT 10SM BKN055 BKN070 31/23 A2996 260 63 2200 VRB/03 RMK AO2 T03110233
53988KBKB BKB20190729160513407/29/19 16:05:31  5-MIN KBKB 292205Z AUTO VRB04KT 10SM -RA BKN055 BKN070 30/24 A2996 260 69 2100 VRB/04 RMK AO2 RAB02 P0000 T03000239
53988KBKB BKB20190729161014107/29/19 16:10:31  5-MIN KBKB 292210Z AUTO 00000KT 10SM -RA FEW050 BKN060 OVC075 29/24 A2996 260 74 2000 000/00 RMK AO2 RAB02 P0000 T02940244
53988KBKB BKB20190729161513307/29/19 16:15:31  5-MIN KBKB 292215Z AUTO VRB03KT 10SM BKN060 BKN070 30/24 A2996 260 72 2100 VRB/03 RMK AO2 RAB02E13 P0000 T03000244
53988KBKB BKB20190729162014207/29/19 16:20:31  5-MIN KBKB 292220Z AUTO 00000KT 10SM TS BKN060 BKN075 29/24 A2997 250 71 2000 000/00 RMK AO2 RAB02E13 TSB18 P0000 T02940239
53988KBKB BKB20190729162514207/29/19 16:25:31  5-MIN KBKB 292225Z AUTO 00000KT 10SM TS BKN060 BKN070 29/23 A2996 260 69 2000 000/00 RMK AO2 RAB02E13 TSB18 P0000 T02940233
53988KBKB BKB20190729163014207/29/19 16:30:31  5-MIN KBKB 292230Z AUTO 00000KT 10SM TS BKN065 BKN095 29/23 A2997 250 69 2000 000/00 RMK AO2 RAB02E13 TSB18 P0000 T02940233
53988KBKB BKB20190729163515407/29/19 16:35:31  5-MIN KBKB 292235Z AUTO VRB03KT 10SM VCTS FEW027 BKN065 BKN095 29/24 A2997 250 71 2000 VRB/03 RMK AO2 RAB02E13 TSB18E33 P0000 T02940239
53988KBKB BKB20190729164015407/29/19 16:40:31  5-MIN KBKB 292240Z AUTO VRB03KT 10SM VCTS FEW027 BKN065 BKN100 29/24 A2997 250 74 1900 VRB/03 RMK AO2 RAB02E13 TSB18E33 P0000 T02890239
53988KBKB BKB20190729164515507/29/19 16:45:31  5-MIN KBKB 292245Z AUTO 00000KT 10SM TS FEW027 SCT049 BKN060 29/23 A2997 250 71 1900 000/00 RMK AO2 RAB02E13 TSB18E33B45 P0000 T02890233
53988KBKB BKB20190729165014807/29/19 16:50:31  5-MIN KBKB 292250Z AUTO 00000KT 10SM TS FEW027 BKN047 OVC095 28/23 A2997 250 74 1900 000/00 RMK AO2 RAB02E13 TSB18E33B45B49 P0000
53988KBKB BKB20190729165514407/29/19 16:55:31  5-MIN KBKB 292255Z AUTO 21007KT 170V250 10SM TS SCT027 BKN046 OVC100 28/23 A2998 240 74 1800 210/07 170V250 RMK AO2 T02780228
53988KBKB BKB20190729170014507/29/19 17:00:31  5-MIN KBKB 292300Z AUTO VRB03KT 10SM -TSRA SCT027 BKN042 OVC060 27/23 A2998 250 79 1700 VRB/03 RMK AO2 RAB2258 P0000 T02670228
53988KBKB BKB20190729170514407/29/19 17:05:31  5-MIN KBKB 292305Z AUTO VRB04KT 9SM -TSRA FEW025 BKN050 OVC065 26/23 A2998 240 84 1600 VRB/04 RMK AO2 RAB2258 P0000 T02560228
53988KBKB BKB20190729171014407/29/19 17:10:31  5-MIN KBKB 292310Z AUTO 2SM +TSRA BR FEW027 BKN050 OVC065 25/23 A3000 220 87 1500 M /M RMK AO2 RAB2258 PRESRR P0007 T02500228
53988KBKB BKB20190729171514907/29/19 17:15:31  5-MIN KBKB 292315Z AUTO VRB04KT 3/4SM +TSRA BR BKN029 BKN042 OVC060 24/23 A3000 230 90 1400 VRB/04 RMK AO2 RAB2258 P0025 T02440228
53988KBKB BKB20190729172014907/29/19 17:20:31  5-MIN KBKB 292320Z AUTO 00000KT 1/2SM +TSRA FG BKN026 BKN040 OVC070 23/22 A2997 250 93 1300 000/00 RMK AO2 RAB2258 P0034 T02330222
53988KBKB BKB20190729172514707/29/19 17:25:31  5-MIN KBKB 292325Z AUTO 02004KT 1SM -TSRA BR SCT029 BKN055 OVC090 23/22 A2998 240 97 1200 020/04 RMK AO2 RAB2258 P0035 T02280222
53988KBKB BKB20190729173014707/29/19 17:30:31  5-MIN KBKB 292330Z AUTO 00000KT 4SM -TSRA BR SCT031 BKN065 OVC090 23/22 A2998 240 93 1200 000/00 RMK AO2 RAB2258 P0036 T02280217
53988KBKB BKB20190729173514707/29/19 17:35:31  5-MIN KBKB 292335Z AUTO 00000KT 4SM -TSRA BR SCT038 BKN070 OVC090 23/22 A2997 260 93 1300 000/00 RMK AO2 RAB2258 P0037 T02280217
53988KBKB BKB20190729174014707/29/19 17:40:31  5-MIN KBKB 292340Z AUTO 00000KT 4SM -TSRA BR BKN036 BKN080 OVC095 23/22 A2996 260 97 1300 000/00 RMK AO2 RAB2258 P0037 T02280222
53988KBKB BKB20190729174514707/29/19 17:45:31  5-MIN KBKB 292345Z AUTO 22004KT 6SM -TSRA BR SCT036 BKN070 BKN090 23/22 A2997 250 97 1300 220/04 RMK AO2 RAB2258 P0037 T02280222
53988KBKB BKB20190729175013807/29/19 17:50:31  5-MIN KBKB 292350Z AUTO 00000KT 8SM -RA FEW042 SCT080 BKN095 23/22 A2997 250 97 1300 000/00 RMK AO2 RAB2258 TSE50 P0037
53988KBKB BKB20190729175512407/29/19 17:55:31  5-MIN KBKB 292355Z AUTO 00000KT 9SM FEW042 SCT085 SCT110 23/22 A2996 260 97 1300 000/00 RMK AO2 T02280222
53988KBKB BKB20190729180012407/29/19 18:00:31  5-MIN KBKB 300000Z AUTO 00000KT 9SM FEW041 FEW075 SCT110 23/22 A2998 250 97 1200 000/00 RMK AO2 T02280222
53988KBKB BKB20190729180511007/29/19 18:05:31  5-MIN KBKB 300005Z AUTO 00000KT 9SM FEW032 23/22 A2999 240 97 1200 000/00 RMK AO2 T02280222
53988KBKB BKB20190729181011407/29/19 18:10:31  5-MIN KBKB 300010Z AUTO 00000KT 8SM CLR 23/22 A2999 230 93 1300 000/00 RMK AO2 PRESRR T02330222
53988KBKB BKB20190729181511407/29/19 18:15:31  5-MIN KBKB 300015Z AUTO 00000KT 7SM CLR 23/22 A3000 220 93 1300 000/00 RMK AO2 PRESRR T02330222
53988KBKB BKB20190729182011007/29/19 18:20:31  5-MIN KBKB 300020Z AUTO 00000KT 6SM BR CLR 23/22 A3000 220 93 1300 000/00 RMK AO2 T02330222
53988KBKB BKB20190729182511007/29/19 18:25:31  5-MIN KBKB 300025Z AUTO 00000KT 6SM BR CLR 23/22 A3000 220 93 1300 000/00 RMK AO2 T02330222
53988KBKB BKB20190729183010707/29/19 18:30:31  5-MIN KBKB 300030Z AUTO 00000KT 7SM CLR 23/22 A3001 220 93 1300 000/00 RMK AO2 T02330222
53988KBKB BKB20190729183510707/29/19 18:35:31  5-MIN KBKB 300035Z AUTO 00000KT 7SM CLR 23/23 A3001 220 97 1300 000/00 RMK AO2 T02330228
53988KBKB BKB20190729184011007/29/19 18:40:31  5-MIN KBKB 300040Z AUTO 00000KT 7SM SCT110 23/23 A3001 220 97 1300 000/00 RMK AO2 T02330228
53988KBKB BKB20190729184511307/29/19 18:45:31  5-MIN KBKB 300045Z AUTO 00000KT 6SM BR BKN110 23/23 A3002 210 97 1300 000/00 RMK AO2 T02330228
53988KBKB BKB20190729185013107/29/19 18:50:31  5-MIN KBKB 300050Z AUTO 00000KT 7SM FEW070 FEW085 BKN120 23/23 A3002 210 97 1300 000/00 RMK AO2 SLP190 T02330228
53988KBKB BKB20190729185525207/29/19 18:55:31  5-MIN KBKB 300055Z AUTO 00000KT 7SM SCT070 SCT085 BKN110 23/22 A3001 210 93 1300 000/00 RMK AO2 T0233022207/29/19 19:00:31  5-MI 300155Z AUTO 00000KT 8SM -RA SCT055 SCT075 BKN095 23/22 A2999 230 93 1300 000/00 RMK AO2 P0000 T02330222
53988KBKB BKB20190729195513407/29/19 19:55:31  5-MIN KBKB 300155Z AUTO 00000KT 8SM -RA SCT055 SCT075 BKN095 23/22 A2999 230 93 1300 000/00 RMK AO2 P0000 T02330222
53988KBKB BKB20190729200013407/29/19 20:00:31  5-MIN KBKB 300200Z AUTO 00000KT 7SM -RA SCT055 SCT075 BKN095 23/22 A2999 230 93 1300 000/00 RMK AO2 P0000 T02330222
53988KBKB BKB20190729200513007/29/19 20:05:31  5-MIN KBKB 300205Z AUTO 00000KT 6SM -RA BR FEW055 FEW075 23/22 A2999 230 93 1300 000/00 RMK AO2 P0000 T02330222
53988KBKB BKB20190729200515207/29/19 20:05:31  5-MIN KBKB 300205Z AUTO 00000KT 6SM -RA BR FEW055 FEW075SCT120 23/22 A3000 230 93 1300 000/00 RMK AO2 RAB09E50 SLP183 P0001 T02330222
53988KBKB BKB20190729201012207/29/19 20:10:31  5-MIN KBKB 300210Z AUTO 00000KT 7SM FEW055 23/22 A2999 230 93 1300 000/00 RMK AO2 RAE08 P0000 T02330222
53988KBKB BKB20190729201511207/29/19 20:15:31  5-MIN KBKB 300215Z AUTO 00000KT 8SM FEW055 23/23 A2999 93 1300 000/00 RMK AO2 P0000 T02330222
53988KBKB BKB20190729201512207/29/19 20:15:31  5-MIN KBKB 300215Z AUTO 00000KT 8SM FEW055 23/23 A2999 230 97 1300 000/00 RMK AO2 RAE08 P0000 T02330228
53988KBKB BKB20190729202012207/29/19 20:20:31  5-MIN KBKB 300220Z AUTO 00000KT 8SM FEW055 23/22 A2999 230 93 1300 000/00 RMK AO2 RAE08 P0000 T02330222
53988KBKB BKB20190729202511907/29/19 20:25:31  5-MIN KBKB 300225Z AUTO 00000KT 7SM CLR 23/22 A3000 230 93 1300 000/00 RMK AO2 RAE08 P0000 T02330222
53988KBKB BKB20190729202513007/29/19 20:25:31  5-MIN KBKB 300225Z AUTO 00000KT 6SM -RA BR FEW055 FEW075 23/22 A2999 230 93 1300 000/00 RMK AO2 P0000 T02330222
53988KBKB BKB20190729203011907/29/19 20:30:31  5-MIN KBKB 300230Z AUTO 00000KT 7SM CLR 23/23 A3000 230 97 1300 000/00 RMK AO2 RAE08 P0000 T02330228
53988KBKB BKB20190729203511907/29/19 20:35:31  5-MIN KBKB 300235Z AUTO 00000KT 8SM CLR 23/22 A3000 220 93 1300 000/00 RMK AO2 RAE08 P0000 T02330222
53988KBKB BKB20190729204012207/29/19 20:40:31  5-MIN KBKB 300240Z AUTO 00000KT 7SM FEW002 23/23 A3000 220 97 1300 000/00 RMK AO2 RAE08 P0000 T02330228
53988KBKB BKB20190729204512207/29/19 20:45:31  5-MIN KBKB 300245Z AUTO 00000KT 7SM FEW002 23/23 A3001 220 97 1300 000/00 RMK AO2 RAE08 P0000 T02330228
53988KBKB BKB20190729205014407/29/19 20:50:31  5-MIN KBKB 300250Z AUTO 00000KT 6SM BR FEW002 23/22 A3000 220 93 1300 000/00 RMK AO2 RAE08 SLP185 P0000 60001 T02330222 50003
53988KBKB BKB20190729205511707/29/19 20:55:31  5-MIN KBKB 300255Z AUTO 00000KT 7SM FEW002 SCT055 23/22 A3001 220 93 1300 000/00 RMK AO2 T02330222
53988KBKB BKB20190729210012407/29/19 21:00:31  5-MIN KBKB 300300Z AUTO 00000KT 7SM FEW002 FEW033 BKN060 23/23 A3001 220 97 1300 000/00 RMK AO2 T02330228
53988KBKB BKB20190729210512407/29/19 21:05:31  5-MIN KBKB 300305Z AUTO 00000KT 8SM FEW002 SCT033 BKN060 23/23 A3001 220 97 1300 000/00 RMK AO2 T02330228
53988KBKB BKB20190729211012407/29/19 21:10:31  5-MIN KBKB 300310Z AUTO 00000KT 7SM FEW002 SCT047 BKN055 23/23 A3001 220 97 1300 000/00 RMK AO2 T02330228
53988KBKB BKB20190729211512407/29/19 21:15:31  5-MIN KBKB 300315Z AUTO 00000KT 8SM FEW002 SCT047 BKN055 23/23 A3000 220 97 1300 000/00 RMK AO2 T02330228
53988KBKB BKB20190729212011707/29/19 21:20:31  5-MIN KBKB 300320Z AUTO 00000KT 9SM FEW002 SCT055 23/23 A3001 220 97 1300 000/00 RMK AO2 T02330228
53988KBKB BKB20190729212511707/29/19 21:25:31  5-MIN KBKB 300325Z AUTO 13003KT 7SM FEW002 SCT060 23/23 A3000 220 97 1300 120/03 RMK AO2 T02330228
53988KBKB BKB20190729213012007/29/19 21:30:31  5-MIN KBKB 300330Z AUTO 00000KT 6SM BR FEW002 FEW048 23/23 A3001 220 97 1300 000/00 RMK AO2 T02330228
53988KBKB BKB20190729213511007/29/19 21:35:31  5-MIN KBKB 300335Z AUTO 00000KT 7SM FEW002 23/23 A3001 220 97 1300 000/00 RMK AO2 T02330228
53988KBKB BKB20190729214010707/29/19 21:40:31  5-MIN KBKB 300340Z AUTO 00000KT 7SM CLR 23/23 A3001 220 97 1300 000/00 RMK AO2 T02330228
53988KBKB BKB20190729214511007/29/19 21:45:31  5-MIN KBKB 300345Z AUTO 00000KT 6SM BR CLR 23/23 A3000 220 97 1300 000/00 RMK AO2 T02330228
53988KBKB BKB20190729215011707/29/19 21:50:31  5-MIN KBKB 300350Z AUTO 00000KT 5SM BR CLR 23/23 A3000 220 97 1300 000/00 RMK AO2 SLP185 T02330228
53988KBKB BKB20190729215514307/29/19 21:55:31  5-MIN KBKB 300355Z AUTO 00000KT 5SM BR FEW002 23/23 A3000 220 97 1300  9700 220 97 1300 000/00 RMK AO2 RAB16 P0000 T02330228
53988KBKB BKB20190729233012207/29/19 23:30:31  5-MIN KBKB 300530Z AUTO 00000KT 8SM CLR 23/23 A3000 220 97 1300 000/00 RMK AO2 RAB16E28 P0000 T02330228
53988KBKB BKB20190729233512207/29/19 23:35:31  5-MIN KBKB 300535Z AUTO 00000KT 8SM CLR 23/23 A3000 220 97 1300 000/00 RMK AO2 RAB16E28 P0000 T02330228
53988KBKB BKB20190729234012207/29/19 23:40:31  5-MIN KBKB 300540Z AUTO 00000KT 7SM CLR 23/23 A3000 220 97 1300 000/00 RMK AO2 RAB16E28 P0000 T02330228
53988KBKB BKB20190729234512207/29/19 23:45:31  5-MIN KBKB 300545Z AUTO 00000KT 9SM CLR 23/23 A3000 230 97 1300 000/00 RMK AO2 RAB16E28 P0000 T02330228
53988KBKB BKB20190729235016407/29/19 23:50:31  5-MIN KBKB 300550Z AUTO 00000KT 10SM CLR 23/23 A3000 230 97 1300 000/00 RMK AO2 RAB16E28 SLP183 P0000 60001 T02330228 10233 20228 403440222 51015
53988KBKB BKB20190729235025007/29/19 23:50:31  5-MIN KBKB 300550Z AUTO 00000KT 10SM CLR 23/23 A3000 230 97 1300 000/00 RMK AO2 RAB16E28 SLP183 P0000 60001 T02330228 10233 20228 403440222 5101507/29/19 23:55:31  5LR 23/23 A3000 220 97 1300 000/00 RMK AO2 RAB16E28 P0000 T02330228
53988KBKB BKB20190729235510807/29/19 23:55:31  5-MIN KBKB 300555Z AUTO 00000KT 10SM CLR 23/23 A3000 230 97 1300 000/00 RMK AO2 T02330228
53988KBKB BKB20190730000010807/30/19 00:00:31  5-MIN KBKB 300600Z AUTO 00000KT 10SM CLR 23/23 A3000 220 97 1300 000/00 RMK AO2 T02330228
53988KBKB BKB20190730000015507/30/19 00:00:31  5-MIN KBKB 300600Z AUTO 00000KT 10SM CLR 23/23 A3000 220 97 1300 000/00 RMK AO2 T0233022897 1300 000/00 RMK AO2 RAB16E28 P0000 T02330228
53988KBKB BKB20190730000510807/30/19 00:05:31  5-MIN KBKB 300605Z AUTO 00000KT 10SM CLR 23/23 A3000 230 97 1300 000/00 RMK AO2 T02330228
53988KBKB BKB20190730001010707/30/19 00:10:31  5-MIN KBKB 300610Z AUTO 00000KT 8SM CLR 23/23 A3000 230 97 1300 000/00 RMK AO2 T02330228
53988KBKB BKB20190730001016807/30/19 00:10:31  5-MIN KBKB 300610Z AUTO 00000KT 8SM CLR 23/23 A3000 230 97 1300 000/00 RMK AO2 T0233022807/30/19 83 P0000 60001 T02330228 10233 20228 403440222 51015
53988KBKB BKB20190730001510707/30/19 00:15:31  5-MIN KBKB 300615Z AUTO 00000KT 8SM CLR 23/23 A2999 230 97 1300 000/00 RMK AO2 T02330228
53988KBKB BKB20190730002010807/30/19 00:20:31  5-MIN KBKB 300620Z AUTO 00000KT 10SM CLR 23/23 A2999 240 97 1300 000/00 RMK AO2 T02330228
53988KBKB BKB20190730002017007/30/19 00:20:31  5-MIN KBKB 300620Z AUTO 00000KT 10SM CLR 23/23 A2999 240 97 1300 000/00 RMK AO2 T0233022807/30/19 00:25:3/23 A3000 220 97 1300 000/00 RMK AO2 T02330228
53988KBKB BKB20190730002510707/30/19 00:25:31  5-MIN KBKB 300625Z AUTO 00000KT 9SM CLR 23/23 A2999 240 97 1300 000/00 RMK AO2 T02330228
53988KBKB BKB20190730003011107/30/19 00:30:31  5-MIN KBKB 300630Z AUTO 00000KT 10SM FEW015 23/22 A2999 240 93 1300 000/00 RMK AO2 T02330222
53988KBKB BKB20190730003511107/30/19 00:35:31  5-MIN KBKB 300635Z AUTO 00000KT 10SM FEW015 23/22 A2999 230 93 1300 000/00 RMK AO2 T02330222
53988KBKB BKB20190730004011107/30/19 00:40:31  5-MIN KBKB 300640Z AUTO 00000KT 10SM SCT017 23/22 A2999 230 93 1300 000/00 RMK AO2 T02330222
53988KBKB BKB20190730004511107/30/19 00:45:31  5-MIN KBKB 300645Z AUTO 00000KT 10SM BKN017 23/23 A2999 230 97 1300 000/00 RMK AO2 T02330228
53988KBKB BKB20190730005010107/30/19 00:50:31  5-MIN KBKB 300650Z AUTO 00000KT 10SM BKN019 23/23 A2999 230 97 1300 000/00 RMK AO2
53988KBKB BKB20190730005511807/30/19 00:55:31  5-MIN KBKB 300655Z AUTO 00000KT 10SM FEW016 BKN021 23/23 A2999 230 97 1300 000/00 RMK AO2 T02330228
53988KBKB BKB20190730010011807/30/19 01:00:31  5-MIN KBKB 300700Z AUTO 00000KT 10SM FEW016 BKN021 23/23 A2999 230 97 1300 000/00 RMK AO2 T02330228
53988KBKB BKB20190730050513207/30/19 05:05:31  5-MIN KBKB 301105Z AUTO 00000KT 6SM BR SCT070 OVC095 24/23 A3000 220 97 1300 000/00 RMK AO2 RAE01 P0000 T02390233
53988KBKB BKB20190730051013207/30/19 05:10:31  5-MIN KBKB 301110Z AUTO 00000KT 6SM BR FEW070 OVC100 24/23 A3000 220 97 1300 000/00 RMK AO2 RAE01 P0000 T02390233
53988KBKB BKB20190730051513207/30/19 05:15:31  5-MIN KBKB 301115Z AUTO 00000KT 6SM BR FEW075 BKN100 24/23 A3000 220 97 1300 000/00 RMK AO2 RAE01 P0000 T02390233
53988KBKB BKB20190730052013907/30/19 05:20:31  5-MIN KBKB 301120Z AUTO 00000KT 6SM BR FEW019 SCT095 BKN120 24/23 A3001 220 97 1300 000/00 RMK AO2 RAE01 P0000 T02390233
53988KBKB BKB20190730052513207/30/19 05:25:31  5-MIN KBKB 301125Z AUTO 00000KT 6SM BR SCT100 BKN120 24/23 A3000 220 97 1300 000/00 RMK AO2 RAE01 P0000 T02390233
53988KBKB BKB20190730053013907/30/19 05:30:31  5-MIN KBKB 301130Z AUTO 00000KT 5SM BR FEW012 SCT100 BKN120 24/23 A3001 220 97 1300 000/00 RMK AO2 RAE01 P0000 T02390233
53988KBKB BKB20190730053513907/30/19 05:35:31  5-MIN KBKB 301135Z AUTO 00000KT 4SM BR FEW008 SCT040 BKN100 24/23 A3001 220 97 1300 000/00 RMK AO2 RAE01 P0000 T02390233
53988KBKB BKB20190730054013907/30/19 05:40:31  5-MIN KBKB 301140Z AUTO 00000KT 4SM BR SCT005 SCT024 BKN042 24/23 A3001 220 97 1300 000/00 RMK AO2 RAE01 P0000 T02390233
53988KBKB BKB20190730054513907/30/19 05:45:31  5-MIN KBKB 301145Z AUTO 00000KT 4SM BR FEW002 SCT016 BKN042 24/23 A3001 220 97 1300 000/00 RMK AO2 RAE01 P0000 T02390233
53988KBKB BKB20190730055017607/30/19 05:50:31  5-MIN KBKB 301150Z AUTO 00000KT 4SM BR SCT011 BKN042 OVC120 24/23 A3001 220 97 1300 000/00 RMK AO2 RAE01 SLP188 P0000 60000 70038 T02390233 10239 20233 58001
53988KBKB BKB20190730055512707/30/19 05:55:31  5-MIN KBKB 301155Z AUTO 00000KT 4SM BR SCT011 BKN044 OVC080 24/23 A3001 220 97 1300 000/00 RMK AO2 T02390233
53988KBKB BKB20190730060012707/30/19 06:00:31  5-MIN KBKB 301200Z AUTO 00000KT 3SM BR FEW002 BKN046 OVC080 24/23 A3001 220 97 1300 000/00 RMK AO2 T02390233
53988KBKB BKB20190730060512707/30/19 06:05:31  5-MIN KBKB 301205Z AUTO 00000KT 3SM BR FEW009 BKN044 OVC080 24/23 A3001 210 97 1300 000/00 RMK AO2 T02390233
53988KBKB BKB20190730061012707/30/19 06:10:31  5-MIN KBKB 301210Z AUTO 00000KT 4SM BR FEW015 BKN047 OVC080 24/23 A3001 210 97 1300 000/00 RMK AO2 T02390233
53988KBKB BKB20190730061512707/30/19 06:15:31  5-MIN KBKB 301215Z AUTO 00000KT 4SM BR FEW015 BKN047 OVC080 24/23 A3001 210 97 1300 000/00 RMK AO2 T02390233
53988KBKB BKB20190730062012707/30/19 06:20:31  5-MIN KBKB 301220Z AUTO 00000KT 4SM BR FEW022 BKN047 OVC080 24/23 A3001 210 93 1400 000/00 RMK AO2 T02440233
53988KBKB BKB20190730062512707/30/19 06:25:31  5-MIN KBKB 301225Z AUTO 00000KT 4SM BR FEW024 BKN040 OVC080 24/23 A3001 210 93 1400 000/00 RMK AO2 T02440233
53988KBKB BKB20190730063012707/30/19 06:30:31  5-MIN KBKB 301230Z AUTO 00000KT 4SM BR FEW017 BKN039 OVC050 24/23 A3002 210 93 1400 000/00 RMK AO2 T02440233
53988KBKB BKB20190730063512707/30/19 06:35:31  5-MIN KBKB 301235Z AUTO 00000KT 5SM BR FEW017 BKN042 OVC075 24/24 A3002 210 97 1400 000/00 RMK AO2 T02440239
53988KBKB BKB20190730064012707/30/19 06:40:31  5-MIN KBKB 301240Z AUTO 00000KT 5SM BR FEW017 BKN042 OVC065 24/23 A3002 210 93 1400 000/00 RMK AO2 T02440233
53988KBKB BKB20190730064512707/30/19 06:45:31  5-MIN KBKB 301245Z AUTO 00000KT 5SM BR FEW017 BKN042 OVC065 24/23 A3002 210 93 1400 000/00 RMK AO2 T02440233
53988KBKB BKB20190730065015007/30/19 06:50:31  5-MIN KBKB 301250Z AUTO 00000KT 4SM -RA BR FEW027 SCT042 OVC065 24/24 A3001 210 97 1400 000/00 RMK AO2 RAB47 SLP190 P0001 T02440239
53988KBKB BKB20190730065513707/30/19 06:55:31  5-MIN KBKB 301255Z AUTO 00000KT 3SM -RA BR FEW016 BKN050 OVC065 24/24 A3002 210 97 1400 000/00 RMK AO2 P0000 T02440239
53988KBKB BKB20190730070013707/30/19 07:00:31  5-MIN KBKB 301300Z AUTO 00000KT 3SM -RA BR FEW014 BKN041 OVC065 24/24 A3002 210 97 1400 000/00 RMK AO2 P0001 T02440239
53988KBKB BKB20190730070513607/30/19 07:05:31  5-MIN KBKB 301305Z AUTO 00000KT 3SM RA BR FEW014 BKN038 OVC065 24/24 A3002 210 97 1400 000/00 RMK AO2 P0002 T02440239
53988KBKB BKB20190730071014107/30/19 07:10:31  5-MIN KBKB 301310Z AUTO 00000KT 1 1/4SM +RA BR FEW016 BKN030 OVC065 24/24 A3001 210 97 1400 000/00 RMK AO2 P0010 T02440239
53988KBKB BKB20190730071513907/30/19 07:15:31  5-MIN KBKB 301315Z AUTO 11003KT 3/4SM +RA BR SCT014 BKN028 OVC039 24/24 A3001 220 97 1400 100/03 RMK AO2 P0018 T02440239
53988KBKB BKB20190730072014407/30/19 07:20:31  5-MIN KBKB 301320Z AUTO 13003KT 1SM +RA BR SCT014 BKN018 OVC026 24/24 A3000 230 97 1400 120/03 RMK AO2 PRESFR P0022 T02440239
53988KBKB BKB20190730072513707/30/19 07:25:31  5-MIN KBKB 301325Z AUTO 20003KT 1SM +RA BR FEW005 BKN014 OVC020 24/24 A3000 220 97 1400 190/03 RMK AO2 P0029 T02440239
53988KBKB BKB20190730073014907/30/19 07:30:31  5-MIN KBKB 301330Z AUTO 00000KT 1 1/2SM -TSRA BR SCT005 BKN012 OVC020 24/24 A3001 220 97 1400 000/00 RMK AO2 TSB28 P0029 T02440239
53988KBKB BKB20190730073514807/30/19 07:35:31  5-MIN KBKB 301335Z AUTO VRB03KT 4SM -TSRA BR BKN005 BKN012 OVC020 24/24 A3001 220 97 1400 VRB/03 RMK AO2 TSB28B31 P0029 T02440239
53988KBKB BKB20190730074014407/30/19 07:40:31  5-MIN KBKB 301340Z AUTO 00000KT 6SM TS BR BKN003 OVC014 24/24 A3000 220 97 1400 000/00 RMK AO2 RAE37 TSB28B31 P0029 T02440239
53988KBKB BKB20190730074514407/30/19 07:45:31  5-MIN KBKB 301345Z AUTO 00000KT 6SM TS BR BKN003 OVC012 24/24 A3001 220 97 1400 000/00 RMK AO2 RAE37 TSB28B31 P0029 T02440239
53988KBKB BKB20190730075014407/30/19 07:50:31  5-MIN KBKB 301350Z AUTO VRB03KT 5SM TS BR OVC003 24/24 A3001 220 97 1400 VRB/03 RMK AO2 RAE37 TSB28B31 SLP187 P0029 T02440239
53988KBKB BKB20190730075511607/30/19 07:55:31  5-MIN KBKB 301355Z AUTO 00000KT 5SM TS BR OVC003 24/24 A3001 220 97 1400 000/00 RMK AO2 T02440239
53988KBKB BKB20190730080014707/30/19 08:00:31  5-MIN KBKB 301400Z AUTO VRB04KT 2 1/2SM -TSRA BR OVC003 24/24 A3001 220 97 1400 VRB/04 RMK AO2 VIS 3/4V5 RAB1356 P0001 T02440239
53988KBKB BKB20190730080514707/30/19 08:05:31  5-MIN KBKB 301405Z AUTO 00000KT 2 1/2SM -TSRA BR OVC003 24/24 A3001 220 97 1400 000/00 RMK AO2 VIS 3/4V5 RAB1356 P0001 T02440239
53988KBKB BKB20190730081013307/30/19 08:10:31  5-MIN KBKB 301410Z AUTO 00000KT 4SM -TSRA BR OVC003 25/24 A3001 220 93 1500 000/00 RMK AO2 RAB1356 P0002 T02500239
53988KBKB BKB20190730081513307/30/19 08:15:31  5-MIN KBKB 301415Z AUTO 00000KT 4SM -TSRA BR OVC003 25/24 A3001 210 93 1500 000/00 RMK AO2 RAB1356 P0002 T02500239
53988KBKB BKB20190730082014807/30/19 08:20:31  5-MIN KBKB 301420Z AUTO 00000KT 2SM TSRA BR BKN003 OVC018 25/24 A3002 210 93 1500 000/00 RMK AO2 RAB1356 TSE18B20 P0005 T02500239
53988KBKB BKB20190730082516007/30/19 08:25:31  5-MIN KBKB 301425Z AUTO 00000KT 1 3/4SM TSRA BR BKN004 OVC012 25/24 A3002 200 93 1400 000/00 RMK AO2 VIS 1V3 RAB1356 TSE18B20 P0006 T02500239
53988KBKB BKB20190730083016307/30/19 08:30:31  5-MIN KBKB 301430Z AUTO 00000KT 1 1/4SM +TSRA BR BKN004 OVC012 25/24 A3002 210 97 1500 000/00 RMK AO2 VIS 1/2V3 RAB1356 TSE18B20 P0013 T02500244
53988KBKB BKB20190730083514907/30/19 08:35:31  5-MIN KBKB 301435Z AUTO 00000KT 1SM -TSRA BR BKN004 OVC012 25/24 A3002 200 97 1400 000/00 RMK AO2 RAB1356 TSE18B20 P0014 T02500244
53988KBKB BKB20190730084015307/30/19 08:40:31  5-MIN KBKB 301440Z AUTO 00000KT 1 1/2SM RA BR BKN004 OVC008 25/24 A3002 200 97 1400 000/00 RMK AO2 RAB1356 TSE18B20E36 P0017 T02500244
53988KBKB BKB20190730084515407/30/19 08:45:31  5-MIN KBKB 301445Z AUTO 00000KT 1 1/4SM +RA BR BKN004 OVC014 25/24 A3002 210 97 1500 000/00 RMK AO2 RAB1356 TSE18B20E36 P0021 T02500244
53988KBKB BKB20190730085015107/30/19 08:50:31  5-MIN KBKB 301450Z AUTO VRB03KT 1 1/2SM -RA BR BKN006 BKN014 OVC022 25/24 A3001 210 97 1500 VRB/03 RMK AO2 RAB1356 TSE18B20E36 P0021
53988KBKB BKB20190730085513707/30/19 08:55:31  5-MIN KBKB 301455Z AUTO 00000KT 3SM -RA BR BKN006 BKN011 OVC022 25/24 A3001 210 97 1500 000/00 RMK AO2 P0000 T02500244
53988KBKB BKB20190730090014107/30/19 09:00:31  5-MIN KBKB 301500Z AUTO 01005KT 1 3/4SM -RA BR SCT005 BKN011 OVC024 25/24 A3001 210 97 1500 010/05 RMK AO2 P0008 T02500244
53988KBKB BKB20190730090513907/30/19 09:05:31  5-MIN KBKB 301505Z AUTO 00000KT 1/2SM +RA FG BKN007 BKN014 OVC019 25/24 A3001 220 97 1500 000/00 RMK AO2 P0025 T02500244
53988KBKB BKB20190730091013907/30/19 09:10:31  5-MIN KBKB 301510Z AUTO 00000KT 1/2SM -RA FG BKN009 BKN014 OVC022 25/24 A3001 210 97 1500 000/00 RMK AO2 P0026 T02500244
53988KBKB BKB20190730091513707/30/19 09:15:31  5-MIN KBKB 301515Z AUTO 00000KT 3SM -RA BR SCT005 BKN012 OVC070 25/24 A3001 220 97 1500 000/00 RMK AO2 P0026 T02500244
53988KBKB BKB20190730092013907/30/19 09:20:31  5-MIN KBKB 301520Z AUTO 00000KT 6SM BR SCT007 BKN018 OVC070 25/24 A3001 220 97 1500 000/00 RMK AO2 RAE20 P0026 T02500244
53988KBKB BKB20190730092513607/30/19 09:25:31  5-MIN KBKB 301525Z AUTO 00000KT 8SM FEW005 BKN021 OVC070 25/24 A3001 210 97 1500 000/00 RMK AO2 RAE20 P0026 T02500244
53988KBKB BKB20190730093013707/30/19 09:30:31  5-MIN KBKB 301530Z AUTO 00000KT 10SM FEW005 SCT010 BKN070 25/24 A3002 210 97 1500 000/00 RMK AO2 RAE20 P0026 T02500244
53988KBKB BKB20190730093513707/30/19 09:35:31  5-MIN KBKB 301535Z AUTO VRB03KT 10SM FEW007 BKN070 OVC085 25/24 A3002 200 97 1400 VRB/03 RMK AO2 RAE20 P0026 T02500244
53988KBKB BKB20190730094014607/30/19 09:40:31  5-MIN KBKB 301540Z AUTO 00000KT 10SM TS FEW005 OVC070 26/24 A3003 200 93 1500 000/00 RMK AO2 RAE20 TSB40 PRESRR P0026 T02560244
53988KBKB BKB20190730094513107/30/19 09:45:31  5-MIN KBKB 301545Z AUTO 00000KT 8SM TS OVC075 26/24 A3001 220 93 1500 000/00 RMK AO2 RAE20 TSB40 P0026 T02560244
53988KBKB BKB20190730095014807/30/19 09:50:31  5-MIN KBKB 301550Z AUTO 00000KT 6SM TS BR BKN070 OVC090 26/24 A3001 220 93 1500 000/00 RMK AO2 RAE20 TSB40 SLP188 P0026 T02560244
53988KBKB BKB20190730095512307/30/19 09:55:31  5-MIN KBKB 301555Z AUTO 00000KT 6SM TS BR BKN070 OVC080 26/24 A3002 200 93 1500 000/00 RMK AO2 T02560244
53988KBKB BKB20190730100013507/30/19 10:00:31  5-MIN KBKB 301600Z AUTO 00000KT 6SM BR FEW010 BKN065 OVC080 26/24 A3003 200 93 1500 000/00 RMK AO2 TSE1559 T02560244
53988KBKB BKB20190730100514107/30/19 10:05:31  5-MIN KBKB 301605Z AUTO 00000KT 4SM TS BR SCT010 BKN065 OVC080 26/25 A3003 200 97 1500 000/00 RMK AO2 TSE1559B05 T02560250
53988KBKB BKB20190730101015307/30/19 10:10:31  5-MIN KBKB 301610Z AUTO 00000KT 4SM TS BR BKN008 BKN065 OVC080 26/24 A3003 200 93 1500 000/00 RMK AO2 TSE1559B05 CIG 007V011 T02560244
53988KBKB BKB20190730101516107/30/19 10:15:31  5-MIN KBKB 301615Z AUTO 00000KT 5SM -TSRA BR BKN008 OVC070 26/25 A3002 210 97 1500 000/00 RMK AO2 RAB15 TSE1559B05 CIG 006V011 P0000 T02560250
53988KBKB BKB20190730102016807/30/19 10:20:31  5-MIN KBKB 301620Z AUTO 00000KT 5SM -TSRA BR BKN006 BKN010 OVC065 26/24 A3001 220 93 1500 000/00 RMK AO2 RAB15 TSE1559B05 CIG 004V009 P0000 T02560244
53988KBKB BKB20190730102516107/30/19 10:25:31  5-MIN KBKB 301625Z AUTO 00000KT 5SM -TSRA BR BKN006 OVC009 26/24 A3001 220 93 1500 000/00 RMK AO2 RAB15 TSE1559B05 CIG 003V007 P0000 T02560244
53988KBKB BKB20190730103015407/30/19 10:30:31  5-MIN KBKB 301630Z AUTO 00000KT 4SM -TSRA BR OVC006 26/24 A3000 220 93 1500 000/00 RMK AO2 RAB15 TSE1559B05 CIG 002V009 P0000 T02560244
53988KBKB BKB20190730103515707/30/19 10:35:31  5-MIN KBKB 301635Z AUTO 08004KT 4SM TS BR OVC005 26/24 A3001 210 93 1500 080/04 RMK AO2 RAB15E31 TSE1559B05B35 CIG 002V007 P0000 T02560244
53988KBKB BKB20190730104017007/30/19 10:40:31  5-MIN KBKB 301640Z AUTO 08009G18KT 5SM -TSRA BR OVC005 24/23 A3004 190 93 1300 080/09G18 RMK AO2 RAB15 TSE1559B05B35 CIG 002V008 PRESRR P0002 T02390228
53988KBKB BKB20190730104516007/30/19 10:45:31  5-MIN KBKB 301645Z AUTO 06009G19KT 3/4SM +TSRA BR OVC005 23/22 A3006 170 93 1100 060/09G19 RMK AO2 RAB15 TSE1559B05B35 PRESRR P0052 T02280217
53988KBKB BKB20190730105016007/30/19 10:50:31  5-MIN KBKB 301650Z AUTO VRB05G19KT 1/4SM +TSRA FG OVC005 22/22 A3004 190 97 1100 VRB/05G19 RMK AO2 RAB15 TSE1559B05B35 SLP199 P0103 T02220217
53988KBKB BKB20190730105513407/30/19 10:55:31  5-MIN KBKB 301655Z AUTO VRB03KT 1/4SM +TSRA FG FEW003 OVC007 22/22 A3006 170 97 1100 VRB/03 RMK AO2 P0004 T02220217
53988KBKB BKB20190730110013407/30/19 11:00:31  5-MIN KBKB 301700Z AUTO VRB05KT 1/4SM +TSRA FG FEW003 OVC007 22/22 A3006 170 97 1100 VRB/05 RMK AO2 P0030 T02220217
53988KBKB BKB20190730110512607/30/19 11:05:31  5-MIN KBKB 301705Z AUTO VRB03KT 1/4SM +TSRA FG VV008 22/22 A3006 170 97 1100 VRB/03 RMK AO2 P0057 T02220217
53988KBKB BKB20190730111014507/30/19 11:10:31  5-MIN KBKB 301710Z AUTO VRB03KT 1/2SM +TSRA FG VV012 OVC075 23/22 A3007 160 97 1100 000/00 RMK AO2 CIG 003V008 P0001 T02280222
53988KBKB BKB20190730121014707/30/19 12:10:31  5-MIN KBKB 301810Z AUTO 00000KT 10SM -RA BKN005 BKN055 OVC075 23/22 A3007 160 97 1100 000/00 RMK AO2 CIG 003V008 P0001 T02280222
53988KBKB BKB20190730121513507/30/19 12:15:31  5-MIN KBKB 301815Z AUTO 00000KT 10SM -RA BKN007 BKN055 OVC075 23/22 A3007 160 97 1100 000/00 RMK AO2 P0001 T02280222
53988KBKB BKB20190730122013207/30/19 12:20:31  5-MIN KBKB 301820Z AUTO 00000KT 3/4SM +RA BR BKN007 OVC017 23/22 A3006 170 97 1200 000/00 RMK AO2 P0012 T02280222
53988KBKB BKB20190730122513207/30/19 12:25:31  5-MIN KBKB 301825Z AUTO 00000KT 1/2SM +RA FG BKN006 OVC019 23/22 A3006 170 93 1200 000/00 RMK AO2 P0023 T02280217
53988KBKB BKB20190730123013207/30/19 12:30:31  5-MIN KBKB 301830Z AUTO 00000KT 1/2SM +RA FG SCT006 OVC019 23/22 A3007 160 93 1100 000/00 RMK AO2 P0026 T02280217
53988KBKB BKB20190730123013207/30/19 12:30:31  5-MIN KBKB 301830Z AUTO 00000KT 1/2SM +RA FG SCT006 OVC075 23/22 A3007 160 97 1100 000/00 RMK AO2 P0001 T02280222
53988KBKB BKB20190730123514107/30/19 12:35:31  5-MIN KBKB 301835Z AUTO 00000KT 1 3/4SM -RA BR FEW006 BKN019 OVC070 23/22 A3006 170 97 1200 000/00 RMK AO2 P0026 T02280222
53988KBKB BKB20190730124009307/30/19 12:40:31  5-MIN KBKB 301840Z AUTO 00000KT 9SM -RA1200 000/00 RMK AO2 P0012 T02280222
53988KBKB BKB20190730124013407/30/19 12:40:31  5-MIN KBKB 301840Z AUTO 00000KT 9SM -RA FEW007 BKN019 OVC090 23/22 A3006 170 97 1200 000/00 RMK AO2 P0026 T02280222
53988KBKB BKB20190730124513407/30/19 12:45:31  5-MIN KBKB 301845Z AUTO 00000KT 8SM -RA SCT022 BKN065 OVC090 23/22 A3005 180 97 1200 000/00 RMK AO2 P0027 T02280222
53988KBKB BKB20190730125014307/30/19 12:50:31  5-MIN KBKB 301850Z AUTO 00000KT 5SM RA BR FEW003 BKN024 OVC090 23/22 A3005 180 97 1200 000/00 RMK AO2 SLP202 P0028 T02280222
53988KBKB BKB20190730125513707/30/19 12:55:31  5-MIN KBKB 301855Z AUTO 00000KT 6SM -RA BR FEW003 BKN065 OVC095 23/22 A3005 180 97 1200 000/00 RMK AO2 P0000 T02280222
53988KBKB BKB20190730130013407/30/19 13:00:31  5-MIN KBKB 301900Z AUTO 00000KT 9SM -RA FEW003 BKN065 OVC100 23/23 A3004 190 97 1200 000/00 RMK AO2 P0000 T02330228
53988KBKB BKB20190730130513307/30/19 13:05:31  5-MIN KBKB 301905Z AUTO 13003KT 7SM RA FEW003 BKN065 OVC100 23/22 A3004 190 97 1200 130/03 RMK AO2 P0001 T02280222
53988KBKB BKB20190730131013407/30/19 13:10:31  5-MIN KBKB 301910Z AUTO VRB03KT 7SM -RA SCT003 BKN031 OVC100 23/23 A3004 190 97 1200 VRB/03 RMK AO2 P0002 T02330228
53988KBKB BKB20190730131513407/30/19 13:15:31  5-MIN KBKB 301915Z AUTO VRB03KT 9SM -RA SCT003 BKN031 BKN060 23/23 A3004 190 97 1200 VRB/03 RMK AO2 P0002 T02330228
53988KBKB BKB20190730132013707/30/19 13:20:31  5-MIN KBKB 301920Z AUTO 00000KT 10SM BKN003 BKN037 BKN110 23/23 A3004 190 97 1200 000/00 RMK AO2 RAE19 P0002 T02330228
53988KBKB BKB20190730132513007/30/19 13:25:31  5-MIN KBKB 301925Z AUTO 00000KT 10SM BKN003 BKN037 24/23 A3003 190 93 1300 000/00 RMK AO2 RAE19 P0002 T02390228
53988KBKB BKB20190730133013007/30/19 13:30:31  5-MIN KBKB 301930Z AUTO 00000KT 10SM BKN003 BKN037 24/23 A3003 200 93 1300 000/00 RMK AO2 RAE19 P0002 T02390228
53988KBKB BKB20190730133513707/30/19 13:35:31  5-MIN KBKB 301935Z AUTO 00000KT 10SM BKN004 BKN037 BKN050 24/23 A3002 200 93 1300 000/00 RMK AO2 RAE19 P0002 T02390228
53988KBKB BKB20190730134013007/30/19 13:40:31  5-MIN KBKB 301940Z AUTO VRB03KT 10SM BKN004 BKN044 24/23 A3002 210 97 1300 VRB/03 RMK AO2 RAE19 P0002 T02390233
53988KBKB BKB20190730134513707/30/19 13:45:31  5-MIN KBKB 301945Z AUTO 00000KT 10SM BKN004 BKN047 BKN100 24/23 A3001 210 93 1300 000/00 RMK AO2 RAE19 P0002 T02390228
53988KBKB BKB20190730135014107/30/19 13:50:31  5-MIN KBKB 301950Z AUTO 00000KT 10SM -RA SCT004 SCT047 BKN100 24/23 A3001 220 93 1400 000/00 RMK AO2 RAE19B49 PRESFR P0002
53988KBKB BKB20190730135512407/30/19 13:55:31  5-MIN KBKB 301955Z AUTO 00000KT 10SM -0000KT 10SM BKN110 25/23 A2999 240 90 1500 000/00 RMK AO2 T02500233
53988KBKB BKB20190730153511107/30/19 15:35:31  5-MIN KBKB 302135Z AUTO 00000KT 10SM BKN110 25/23 A2999 240 90 1500 000/00 RMK AO2 T02500233
53988KBKB BKB20190730154011107/30/19 15:40:31  5-MIN KBKB 302140Z AUTO 00000KT 10SM BKN110 26/23 A2998 240 87 1600 000/00 RMK AO2 T02560233
53988KBKB BKB20190730154511807/30/19 15:45:31  5-MIN KBKB 302145Z AUTO VRB03KT 10SM FEW007 BKN110 26/23 A2998 250 87 1600 VRB/03 RMK AO2 T02560233
53988KBKB BKB20190730155011807/30/19 15:50:31  5-MIN KBKB 302150Z AUTO VRB03KT 10SM SCT110 26/24 A2997 250 87 1600 VRB/03 RMK AO2 SLP175 T02610239
53988KBKB BKB20190730155015407/30/19 15:50:31  5-MIN KBKB 302150Z AUTO VRB03KT 10SM SCT110 26/24 A2997 250 00000KT 10SM BKN100 OVC120 25/23 A2999 240 90 1500 000/00 RMK AO2 T02500233
53988KBKB BKB20190730155511807/30/19 15:55:31  5-MIN KBKB 302155Z AUTO VRB03KT 10SM FEW009 SCT110 26/23 A2998 250 84 1600 VRB/03 RMK AO2 T02610233
53988KBKB BKB20190730160012507/30/19 16:00:31  5-MIN KBKB 302200Z AUTO VRB03KT 10SM FEW009 FEW013 FEW120 26/23 A2998 240 84 1600 VRB/03 RMK AO2 T02610233
53988KBKB BKB20190730160014007/30/19 16:00:31  5-MIN KBKB 302200Z AUTO VRB03KT 10SM FEW009 FEW013 FEW1200KT 10SM BKN110 26/23 A2998 240 87 1600 000/00 RMK AO2 T02560233
53988KBKB BKB20190730160511107/30/19 16:05:31  5-MIN KBKB 302205Z AUTO VRB04KT 10SM FEW010 26/23 A2997 250 81 1600 VRB/04 RMK AO2 T02610228
53988KBKB BKB20190730161011107/30/19 16:10:31  5-MIN KBKB 302210Z AUTO VRB05KT 10SM FEW010 26/23 A2997 250 81 1600 VRB/05 RMK AO2 T02610228
53988KBKB BKB20190730161014207/30/19 16:10:31  5-MIN KBKB 302210Z AUTO VRB05KT 10SM FEW010 26/23 A2997 10SM SCT110 26/24 A2997 250 87 1600 VRB/03 RMK AO2 SLP175 T02610239
53988KBKB BKB20190730161510807/30/19 16:15:31  5-MIN KBKB 302215Z AUTO VRB04KT 10SM CLR 26/23 A2997 250 81 1600 VRB/04 RMK AO2 T02610228
53988KBKB BKB20190730162010807/30/19 16:20:31  5-MIN KBKB 302220Z AUTO VRB03KT 10SM CLR 27/23 A2997 250 79 1700 VRB/03 RMK AO2 T02670228
53988KBKB BKB20190730162016607/30/19 16:20:31  5-MIN KBKB 302220Z AUTO VRB03KT 10SM CLR 27/23 KBKB 302200Z AUTO VRB03KT 10SM FEW009 FEW013 FEW120 26/23 A2998 240 84 1600 VRB/03 RMK AO2 T02610233
53988KBKB BKB20190730162510807/30/19 16:25:31  5-MIN KBKB 302225Z AUTO VRB03KT 10SM CLR 27/23 A2997 250 79 1700 VRB/03 RMK AO2 T02670228
53988KBKB BKB20190730163010807/30/19 16:30:31  5-MIN KBKB 302230Z AUTO VRB03KT 10SM CLR 27/23 A2997 260 79 1800 VRB/03 RMK AO2 T02720233
53988KBKB BKB20190730163015907/30/19 16:30:31  5-MIN KBKB 302230Z AUTO VRB03KT 10SM CLR 27/23 A2997 260 79 1800 VRB/03 RMK AO2 T0272023307/30/19 16:96 260 76 1700 000/00 RMK AO2 T02670222
53988KBKB BKB20190730163017207/30/19 16:30:31  5-MIN KBKB 302230Z AUTO VRB03KT 10SM CLR 27/23 A2997 210:31  5-MIN KBKB 302210Z AUTO VRB05KT 10SM FEW010 26/23 A2997 250 81 1600 VRB/05 RMK AO2 T02610228
53988KBKB BKB20190730163510807/30/19 16:35:31  5-MIN KBKB 302235Z AUTO VRB03KT 10SM CLR 27/22 A2996 260 76 1700 VRB/03 RMK AO2 T02670222
53988KBKB BKB20190730164010807/30/19 16:40:31  5-MIN KBKB 302240Z AUTO 00000KT 10SM CLR 27/22 A2997 260 76 1700 000/00 RMK AO2 T02670222
53988KBKB BKB20190730164510807/30/19 16:45:31  5-MIN KBKB 302245Z AUTO VRB03KT 10SM CLR 27/23 A2997 260 79 1700 VRB/03 RMK AO2 T02670228
53988KBKB BKB20190730165011507/30/19 16:50:31  5-MIN KBKB 302250Z AUTO 00000KT 10SM CLR 27/22 A2996 260 76 1700 000/00 RMK AO2 SLP170 T02670222
53988KBKB BKB20190730165510807/30/19 16:55:31  5-MIN KBKB 302255Z AUTO 00000KT 10SM CLR 27/22 A2996 260 76 1700 000/00 RMK AO2 T02670222
53988KBKB BKB20190730170010807/30/19 17:00:31  5-MIN KBKB 302300Z AUTO 00000KT 10SM CLR 27/23 A2996 260 79 1700 000/00 RMK AO2 T02670228
53988KBKB BKB20190730170510807/30/19 17:05:31  5-MIN KBKB 302305Z AUTO VRB03KT 10SM CLR 26/23 A2996 260 81 1600 VRB/03 RMK AO2 T02610228
53988KBKB BKB20190730171010807/30/19 17:10:31  5-MIN KBKB 302310Z AUTO 21003KT 10SM CLR 26/22 A2997 250 79 1600 210/03 RMK AO2 T02610222
53988KBKB BKB20190730171510807/30/19 17:15:31  5-MIN KBKB 302315Z AUTO VRB03KT 10SM CLR 26/23 A2997 260 81 1600 VRB/03 RMK AO2 T02610228
53988KBKB BKB20190730172010807/30/19 17:20:31  5-MIN KBKB 302320Z AUTO 22004KT 10SM CLR 26/23 A2997 250 81 1600 210/04 RMK AO2 T02610228
53988KBKB BKB20190730172510807/30/19 17:25:31  5-MIN KBKB 302325Z AUTO VRB03KT 10SM CLR 26/23 A2997 250 81 1600 VRB/03 RMK AO2 T02610228
53988KBKB BKB20190730173011107/30/19 17:30:31  5-MIN KBKB 302330Z AUTO 00000KT 10SM FEW014 26/22 A2997 250 81 1600 000/00 RMK AO2 T02560222
53988KBKB BKB20190730173511107/30/19 17:35:31  5-MIN KBKB 302335Z AUTO VRB04KT 10SM FEW014 26/23 A2997 260 84 1600 VRB/04 RMK AO2 T02560228
53988KBKB BKB20190730174011107/30/19 17:40:31  5-MIN KBKB 302340Z AUTO VRB03KT 10SM SCT014 25/22 A2996 260 84 1500 VRB/03 RMK AO2 T02500222
53988KBKB BKB20190730174511107/30/19 17:45:31  5-MIN KBKB 302345Z AUTO 00000KT 10SM SCT014 25/22 A2997 250 84 1500 000/00 RMK AO2 T02500222
53988KBKB BKB20190730175014207/30/19 17:50:31  5-MIN KBKB 302350Z AUTO 00000KT 10SM SCT014 25/22 A2997 250 84 1500 000/00 RMK AO2 SLP176 60030 T02500222 10272 20228 57024
53988KBKB BKB20190730175511107/30/19 17:55:31  5-MIN KBKB 302355Z AUTO 00000KT 10SM FEW014 25/22 A2998 250 84 1500 000/00 RMK AO2 T02500222
53988KBKB BKB20190730180011107/30/19 18:00:31  5-MIN KBKB 310000Z AUTO 00000KT 10SM SCT014 24/22 A2998 250 87 1400 000/00 RMK AO2 T02440222
53988KBKB BKB20190730180517107/30/19 18:05:31  5-MIN KBKB 310005Z AUTO 00000KT 10SM SCT013 24/23 A2998 240 90 1400 000/00 RMK AO2 T0244022810SM SCT013 24/22 A2998 240 87 1400 000/00 RMK AO2 T02440222
53988KBKB BKB20190730183511107/30/19 18:35:31  5-MIN KBKB 310035Z AUTO 00000KT 10SM FEW013 24/22 A2998 240 87 1400 000/00 RMK AO2 T02440222
53988KBKB BKB20190730184011107/30/19 18:40:31  5-MIN KBKB 310040Z AUTO 00000KT 10SM FEW014 24/22 A2999 240 90 1400 000/00 RMK AO2 T02390222
53988KBKB BKB20190730184510807/30/19 18:45:31  5-MIN KBKB 310045Z AUTO 00000KT 10SM CLR 24/22 A2999 240 90 1400 000/00 RMK AO2 T02390222
53988KBKB BKB20190730185011507/30/19 18:50:31  5-MIN KBKB 310050Z AUTO 00000KT 10SM CLR 24/22 A2998 240 90 1400 000/00 RMK AO2 SLP179 T02390222
53988KBKB BKB20190730185510807/30/19 18:55:31  5-MIN KBKB 310055Z AUTO 00000KT 10SM CLR 24/22 A2999 230 90 1400 000/00 RMK AO2 T02390222
53988KBKB BKB20190730190010807/30/19 19:00:31  5-MIN KBKB 310100Z AUTO 00000KT 10SM CLR 23/22 A3000 230 93 1300 000/00 RMK AO2 T02330222
53988KBKB BKB20190730190510807/30/19 19:05:31  5-MIN KBKB 310105Z AUTO 00000KT 10SM CLR 23/22 A2999 230 93 1300 000/00 RMK AO2 T02330222
53988KBKB BKB20190730190516107/30/19 19:05:31  5-MIN KBKB 310105Z AUTO 00000KT 10SM CLR 23/22 A2999 230 93 1300 000/00 RMK AO2 T0233022207/30/19 19A2999 240 90 1400 000/00 RMK AO2 T02390222
53988KBKB BKB20190730191018907/30/19 19:10:31  5-MIN KBKB 310110Z AUTO 00000KT 10SM CLR 23/22 A3000 230 93 1300 000/00 RMK AO2 T023B 310745Z AUTO 00000KT 3/4SM BR VV002 22/22 A3000 230 97 1200 000/00 RMK AO2 T02220217
53988KBKB BKB20190731014511407/31/19 01:45:31  5-MIN KBKB 310745Z AUTO 00000KT 3/4SM BR VV002 22/22 A3000 230 97 1200 000/00 RMK AO2 T02220217
53988KBKB BKB20190731015012107/31/19 01:50:31  5-MIN KBKB 310750Z AUTO 00000KT 3/4SM BR VV002 22/21 A3000 230 93 1200 000/00 RMK AO2 SLP184 T02220211
53988KBKB BKB20190731015511207/31/19 01:55:31  5-MIN KBKB 310755Z AUTO 00000KT 1SM BR VV002 22/21 A3000 220 97 1100 000/00 RMK AO2 T02170211
53988KBKB BKB20190731020011207/31/19 02:00:31  5-MIN KBKB 310800Z AUTO 00000KT 1SM BR VV002 22/21 A3000 220 97 1100 000/00 RMK AO2 T02170211
53988KBKB BKB20190731020014907/31/19 02:00:31  5-MIN KBKB 310800Z AUTO/19 01:40:31  5-MIN KBKB 310740Z AUTO 00000KT 1SM BR VV002 22/22 A3000 230 97 1200 000/00 RMK AO2 T02220217
53988KBKB BKB20190731020511207/31/19 02:05:31  5-MIN KBKB 310805Z AUTO 00000KT 1SM BR VV002 22/21 A3000 220 97 1100 000/00 RMK AO2 T02170211
53988KBKB BKB20190731021011407/31/19 02:10:31  5-MIN KBKB 310810Z AUTO 00000KT 3/4SM BR VV002 22/21 A3000 220 97 1100 000/00 RMK AO2 T02170211
53988KBKB BKB20190731021016007/31/19 02:10:31  5-MIN KBKB 310810Z AUTO 00000KT 50:31  5-MIN KBKB 310750Z AUTO 00000KT 3/4SM BR VV002 22/21 A3000 230 93 1200 000/00 RMK AO2 SLP184 T02220211
53988KBKB BKB20190731021511407/31/19 02:15:31  5-MIN KBKB 310815Z AUTO 00000KT 1/2SM FG VV002 22/21 A3000 220 97 1100 000/00 RMK AO2 T02170211
53988KBKB BKB20190731022011407/31/19 02:20:31  5-MIN KBKB 310820Z AUTO 00000KT 1/2SM FG VV002 22/21 A3000 220 97 1100 000/00 RMK AO2 T02170211
53988KBKB BKB20190731022015607/31/19 02:20:31  5-MIN KBKB 310820Z AUTO 000001/19 02:00:31  5-MIN KBKB 310800Z AUTO 00000KT 1SM BR VV002 22/21 A3000 220 97 1100 000/00 RMK AO2 T02170211
53988KBKB BKB20190731022511407/31/19 02:25:31  5-MIN KBKB 310825Z AUTO 00000KT 1/2SM FG VV002 22/21 A3000 220 97 1100 000/00 RMK AO2 T02170211
53988KBKB BKB20190731022515207/31/19 02:25:31  5-MIN KBKB 310825Z AUTO 00000KT 1/2SM FG VV002 22/21 A3000 220 97 1100 000/00 RMK AO2 T021703000 220 97 1100 000/00 RMK AO2 T02170211
53988KBKB BKB20190731023011407/31/19 02:30:31  5-MIN KBKB 310830Z AUTO 00000KT 3/4SM BR VV002 22/21 A3001 210 97 1000 000/00 RMK AO2 T02110206
53988KBKB BKB20190731023011407/31/19 02:30:31  5-MIN KBKB 310830Z AUTO 00000KT 3/4SM BR VV002 22/21 A3001 220 97 1100 000/00 RMK AO2 T02170211
53988KBKB BKB20190731023515207/31/19 02:35:31  5-MIN KBKB 310835Z AUTO 00000KT 3/4SM BR VV002 22/21 15Z AUTO 00000KT 1/2SM FG VV002 22/21 A3000 220 97 1100 000/00 RMK AO2 T02170211
53988KBKB BKB20190731140511107/31/19 14:05:31  5-MIN KBKB 312005Z AUTO VRB03KT 10SM FEW050 31/22 A3001 220 60 2100 VRB/03 RMK AO2 T03060222
53988KBKB BKB20190731141011807/31/19 14:10:31  5-MIN KBKB 312010Z AUTO 04004KT 10SM FEW040 SCT050 32/23 A3001 220 57 2300 040/04 RMK AO2 T03220228
53988KBKB BKB20190731141511807/31/19 14:15:31  5-MIN KBKB 312015Z AUTO VRB05KT 10SM FEW040 BKN050 32/23 A3001 220 58 2200 VRB/05 RMK AO2 T03170228
53988KBKB BKB20190731142011807/31/19 14:20:31  5-MIN KBKB 312020Z AUTO 00000KT 10SM FEW041 SCT050 32/22 A3001 220 56 2200 000/00 RMK AO2 T03170222
53988KBKB BKB20190731142511807/31/19 14:25:31  5-MIN KBKB 312025Z AUTO VRB04KT 10SM FEW041 FEW050 32/23 A3001 220 57 2300 VRB/04 RMK AO2 T03220228
53988KBKB BKB20190731143011807/31/19 14:30:31  5-MIN KBKB 312030Z AUTO VRB03KT 10SM FEW041 FEW050 32/23 A3000 220 57 2300 VRB/03 RMK AO2 T03220228
53988KBKB BKB20190731143511807/31/19 14:35:31  5-MIN KBKB 312035Z AUTO VRB03KT 10SM FEW041 FEW049 32/23 A3000 220 57 2300 VRB/03 RMK AO2 T03220228
53988KBKB BKB20190731144011107/31/19 14:40:31  5-MIN KBKB 312040Z AUTO 03004KT 10SM FEW049 32/22 A3000 220 56 2200 030/04 RMK AO2 T03170222
53988KBKB BKB20190731144510807/31/19 14:45:31  5-MIN KBKB 312045Z AUTO VRB03KT 10SM CLR 32/22 A3000 220 56 2200 VRB/03 RMK AO2 T03170222
53988KBKB BKB20190731145012107/31/19 14:50:31  5-MIN KBKB 312050Z AUTO VRB03KT 10SM CLR 32/23 A3000 220 57 2300 VRB/03 RMK AO2 SLP184 T03220228 58005
53988KBKB BKB20190731145510807/31/19 14:55:31  5-MIN KBKB 312055Z AUTO VRB04KT 10SM CLR 33/22 A3000 230 53 2300 VRB/04 RMK AO2 T03280222
53988KBKB BKB20190731150010807/31/19 15:00:31  5-MIN KBKB 312100Z AUTO VRB03KT 10SM CLR 33/23 A3000 230 55 2300 VRB/03 RMK AO2 T03280228
53988KBKB BKB20190731150510807/31/19 15:05:31  5-MIN KBKB 312105Z AUTO VRB03KT 10SM CLR 32/22 A3000 230 55 2300 VRB/03 RMK AO2 T03220222
53988KBKB BKB20190731151010807/31/19 15:10:31  5-MIN KBKB 312110Z AUTO VRB03KT 10SM CLR 32/22 A3000 230 55 2300 VRB/03 RMK AO2 T03220222
53988KBKB BKB20190731151510807/31/19 15:15:31  5-MIN KBKB 312115Z AUTO VRB03KT 10SM CLR 32/22 A2999 230 55 2300 VRB/03 RMK AO2 T03220222
53988KBKB BKB20190731152010807/31/19 15:20:31  5-MIN KBKB 312120Z AUTO 00000KT 10SM CLR 32/22 A2999 230 55 2300 000/00 RMK AO2 T03220222
53988KBKB BKB20190731152510807/31/19 15:25:31  5-MIN KBKB 312125Z AUTO VRB05KT 10SM CLR 33/23 A2999 230 55 2400 VRB/05 RMK AO2 T03280228
53988KBKB BKB20190731153010807/31/19 15:30:31  5-MIN KBKB 312130Z AUTO VRB03KT 10SM CLR 32/22 A2999 230 53 2300 VRB/03 RMK AO2 T03220217
53988KBKB BKB20190731153510807/31/19 15:35:31  5-MIN KBKB 312135Z AUTO 00000KT 10SM CLR 32/22 A2999 230 53 2300 000/00 RMK AO2 T03220217
53988KBKB BKB20190731154010807/31/19 15:40:31  5-MIN KBKB 312140Z AUTO 00000KT 10SM CLR 32/22 A2999 240 55 2300 000/00 RMK AO2 T03220222
53988KBKB BKB20190731154509807/31/19 15:45:31  5-MIN KBKB 312145Z AUTO 10SM CLR 32/22 A2999 230 55 2300 M /M RMK AO2 T03220222
53988KBKB BKB20190731155011507/31/19 15:50:31  5-MIN KBKB 312150Z AUTO 03004KT 10SM CLR 33/22 A2999 230 53 2400 020/04 RMK AO2 SLP180 T03280222
53988KBKB BKB20190731155510807/31/19 15:55:31  5-MIN KBKB 312155Z AUTO 00000KT 10SM CLR 32/22 A2999 230 55 2300 000/00 RMK AO2 T03220222
53988KBKB BKB20190731160010807/31/19 16:00:31  5-MIN KBKB 312200Z AUTO VRB04KT 10SM CLR 32/22 A2999 230 55 2300 VRB/04 RMK AO2 T03220222
53988KBKB BKB20190731160510807/31/19 16:05:31  5-MIN KBKB 312205Z AUTO VRB04KT 10SM CLR 32/22 A2999 230 55 2300 VRB/04 RMK AO2 T03220222
53988KBKB BKB20190731161010807/31/19 16:10:31  5-MIN KBKB 312210Z AUTO VRB06KT 10SM CLR 32/22 A2999 230 55 2200 VRB/06 RMK AO2 T03170217
53988KBKB BKB20190731161510807/31/19 16:15:31  5-MIN KBKB 312215Z AUTO VRB04KT 10SM CLR 32/22 A2999 230 55 2200 VRB/04 RMK AO2 T03170217
53988KBKB BKB20190731162010807/31/19 16:20:31  5-MIN KBKB 312220Z AUTO VRB03KT 10SM CLR 32/22 A2999 230 56 2200 VRB/03 RMK AO2 T03170222
53988KBKB BKB20190731162510807/31/19 16:25:31  5-MIN KBKB 312225Z AUTO VRB03KT 10SM CLR 32/23 A2999 240 57 2300 VRB/03 RMK AO2 T03220228
53988KBKB BKB20190731163010807/31/19 16:30:31  5-MIN KBKB 312230Z AUTO 00000KT 10SM CLR 32/22 A2999 230 55 2300 000/00 RMK AO2 T03220222
53988KBKB BKB20190731163510807/31/19 16:35:31  5-MIN KBKB 312235Z AUTO 00000KT 10SM CLR 32/22 A2999 240 55 2300 000/00 RMK AO2 T03220222
53988KBKB BKB20190731164010807/31/19 16:40:31  5-MIN KBKB 312240Z AUTO VRB03KT 10SM CLR 32/22 A2999 240 55 2300 VRB/03 RMK AO2 T03220222
53988KBKB BKB20190731164510807/31/19 16:45:31  5-MIN KBKB 312245Z AUTO 00000KT 10SM CLR 32/22 A2998 240 55 2300 000/00 RMK AO2 T03220222
53988KBKB BKB20190731165011507/31/19 16:50:31  5-MIN KBKB 312250Z AUTO 00000KT 10SM CLR 32/22 A2999 240 56 2200 000/00 RMK AO2 SLP179 T03170222
53988KBKB BKB20190731165510807/31/19 16:55:31  5-MIN KBKB 312255Z AUTO 04004KT 10SM CLR 32/22 A2998 240 55 2200 040/04 RMK AO2 T03170217
53988KBKB BKB20190731170010807/31/19 17:00:31  5-MIN KBKB 312300Z AUTO VRB03KT 10SM CLR 32/22 A2998 240 55 2200 VRB/03 RMK AO2 T03170217
53988KBKB BKB20190731170510807/31/19 17:05:31  5-MIN KBKB 312305Z AUTO VRB03KT 10SM CLR 32/22 A2998 240 55 2200 VRB/03 RMK AO2 T03170217
53988KBKB BKB20190731171010807/31/19 17:10:31  5-MIN KBKB 312310Z AUTO 00000KT 10SM CLR 32/22 A2998 240 56 2200 000/00 RMK AO2 T03170222
53988KBKB BKB20190731171510807/31/19 17:15:31  5-MIN KBKB 312315Z AUTO 00000KT 10SM CLR 31/22 A2998 240 56 2200 000/00 RMK AO2 T03110217
53988KBKB BKB20190731172010807/31/19 17:20:31  5-MIN KBKB 312320Z AUTO VRB03KT 10SM CLR 31/22 A2998 240 56 2200 VRB/03 RMK AO2 T03110217
53988KBKB BKB20190731172510807/31/19 17:25:31  5-MIN KBKB 312325Z AUTO VRB03KT 10SM CLR 31/22 A2998 240 58 2200 VRB/03 RMK AO2 T03110222
53988KBKB BKB20190731173010807/31/19 17:30:31  5-MIN KBKB 312330Z AUTO VRB03KT 10SM CLR 31/22 A2998 240 56 2200 VRB/03 RMK AO2 T03110217
53988KBKB BKB20190731173510807/31/19 17:35:31  5-MIN KBKB 312335Z AUTO VRB03KT 10SM CLR 31/22 A2998 240 56 2200 VRB/03 RMK AO2 T03110217
53988KBKB BKB20190731174010807/31/19 17:40:31  5-MIN KBKB 312340Z AUTO 00000KT 10SM CLR 31/22 A2998 240 58 2200 000/00 RMK AO2 T03110222
53988KBKB BKB20190731174510807/31/19 17:45:31  5-MIN KBKB 312345Z AUTO VRB03KT 10SM CLR 31/22 A2998 240 60 2100 VRB/03 RMK AO2 T03060222
53988KBKB BKB20190731175013307/31/19 17:50:31  5-MIN KBKB 312350Z AUTO VRB03KT 10SM CLR 31/22 A2998 240 60 2100 VRB/03 RMK AO2 SLP177 T03060222 10328 20300 56016
53988KBKB BKB20190731175510807/31/19 17:55:31  5-MIN KBKB 312355Z AUTO 00000KT 10SM CLR 30/22 A2998 240 62 2100 000/00 RMK AO2 T03000222
53988KBKB BKB20190731180010807/31/19 18:00:31  5-MIN KBKB 010000Z AUTO 00000KT 10SM CLR 30/22 A2998 240 60 2100 000/00 RMK AO2 T03000217
53988KBKB BKB20190731180510807/31/19 18:05:31  5-MIN KBKB 010005Z AUTO 00000KT 10SM CLR 29/22 A2998 240 62 2000 000/00 RMK AO2 T02940217
53988KBKB BKB20190731181010807/31/19 18:10:31  5-MIN KBKB 010010Z AUTO 00000KT 10SM CLR 29/22 A2998 240 62 2000 000/00 RMK AO2 T02940217
53988KBKB BKB20190731181510807/31/19 18:15:31  5-MIN KBKB 010015Z AUTO 00000KT 10SM CLR 29/22 A2999 240 64 1900 000/00 RMK AO2 T02890217
53988KBKB BKB20190731182010807/31/19 18:20:31  5-MIN KBKB 010020Z AUTO 00000KT 10SM CLR 29/22 A2999 240 67 1900 000/00 RMK AO2 T02890222
53988KBKB BKB20190731182510807/31/19 18:25:31  5-MIN KBKB 010025Z AUTO 00000KT 10SM CLR 28/22 A2999 240 69 1900 000/00 RMK AO2 T02830222
53988KBKB BKB20190731183010807/31/19 18:30:31  5-MIN KBKB 010030Z AUTO 00000KT 10SM CLR 28/23 A2998 240 74 1800 000/00 RMK AO2 T02780228
53988KBKB BKB20190731183510807/31/19 18:35:31  5-MIN KBKB 010035Z AUTO 00000KT 10SM CLR 28/23 A2999 240 74 1800 000/00 RMK AO2 T02780228
53988KBKB BKB20190731184010807/31/19 18:40:31  5-MIN KBKB 010040Z AUTO 00000KT 10SM CLR 28/22 A2998 240 71 1800 000/00 RMK AO2 T02780222
53988KBKB BKB20190731184510807/31/19 18:45:31  5-MIN KBKB 010045Z AUTO 00000KT 10SM CLR 27/23 A2998 240 76 1700 000/00 RMK AO2 T02720228
53988KBKB BKB20190731185011507/31/19 18:50:31  5-MIN KBKB 010050Z AUTO 00000KT 10SM CLR 27/23 A2998 240 76 1700 000/00 RMK AO2 SLP178 T02720228
53988KBKB BKB20190731185510807/31/19 18:55:31  5-MIN KBKB 010055Z AUTO 00000KT 10SM CLR 27/23 A2998 240 76 1700 000/00 RMK AO2 T02720228
53988KBKB BKB20190731190010807/31/19 19:00:31  5-MIN KBKB 010100Z AUTO 00000KT 10SM CLR 27/23 A2998 240 79 1700 000/00 RMK AO2 T02670228
53988KBKB BKB20190731190510807/31/19 19:05:31  5-MIN KBKB 010105Z AUTO 00000KT 10SM CLR 27/22 A2999 240 76 1700 000/00 RMK AO2 T02670222
53988KBKB BKB20190731191010807/31/19 19:10:31  5-MIN KBKB 010110Z AUTO 00000KT 10SM CLR 27/23 A2998 240 79 1700 000/00 RMK AO2 T02670228
53988KBKB BKB20190731191510807/31/19 19:15:31  5-MIN KBKB 010115Z AUTO 00000KT 10SM CLR 26/23 A2998 240 81 1600 000/00 RMK AO2 T02610228
53988KBKB BKB20190731192010807/31/19 19:20:31  5-MIN KBKB 010120Z AUTO 00000KT 10SM CLR 26/23 A2998 240 81 1600 000/00 RMK AO2 T02610228
53988KBKB BKB20190731192510807/31/19 19:25:31  5-MIN KBKB 010125Z AUTO 00000KT 10SM CLR 26/23 A2998 240 81 1600 000/00 RMK AO2 T02610228
53988KBKB BKB20190731193010807/31/19 19:30:31  5-MIN KBKB 010130Z AUTO 00000KT 10SM CLR 26/23 A2998 240 84 1600 000/00 RMK AO2 T02560228
53988KBKB BKB20190731193510807/31/19 19:35:31  5-MIN KBKB 010135Z AUTO 00000KT 10SM CLR 26/23 A2998 240 84 1600 000/00 RMK AO2 T02560228
53988KBKB BKB20190731194010807/31/19 19:40:31  5-MIN KBKB 010140Z AUTO 00000KT 10SM CLR 26/23 A2998 240 84 1600 000/00 RMK AO2 T02560228
53988KBKB BKB20190731194510807/31/19 19:45:31  5-MIN KBKB 010145Z AUTO 00000KT 10SM CLR 26/23 A2998 240 84 1600 000/00 RMK AO2 T02560228
53988KBKB BKB20190731195011507/31/19 19:50:31  5-MIN KBKB 010150Z AUTO 00000KT 10SM CLR 26/23 A2998 240 84 1600 000/00 RMK AO2 SLP179 T02560228
53988KBKB BKB20190731195510807/31/19 19:55:31  5-MIN KBKB 010155Z AUTO 00000KT 10SM CLR 25/22 A2998 240 84 1500 000/00 RMK AO2 T02500222
53988KBKB BKB20190731200010807/31/19 20:00:31  5-MIN KBKB 010200Z AUTO 00000KT 10SM CLR 25/22 A2999 240 84 1500 000/00 RMK AO2 T02500222
53988KBKB BKB20190731200510807/31/19 20:05:31  5-MIN KBKB 010205Z AUTO 00000KT 10SM CLR 25/23 A2999 240 87 1500 000/00 RMK AO2 T02500228
53988KBKB BKB20190731201010807/31/19 20:10:31  5-MIN KBKB 010210Z AUTO 00000KT 10SM CLR 25/23 A2999 240 87 1500 000/00 RMK AO2 T02500228
53988KBKB BKB20190731201510807/31/19 20:15:31  5-MIN KBKB 010215Z AUTO 00000KT 10SM CLR 25/23 A2999 240 87 1500 000/00 RMK AO2 T02500228
53988KBKB BKB20190731202010807/31/19 20:20:31  5-MIN KBKB 010220Z AUTO 00000KT 10SM CLR 25/23 A2999 240 87 1500 000/00 RMK AO2 T02500228
53988KBKB BKB20190731202510807/31/19 20:25:31  5-MIN KBKB 010225Z AUTO 00000KT 10SM CLR 25/23 A2999 240 87 1500 000/00 RMK AO2 T02500228
53988KBKB BKB20190731203010807/31/19 20:30:31  5-MIN KBKB 010230Z AUTO 00000KT 10SM CLR 25/23 A2999 230 87 1500 000/00 RMK AO2 T02500228
53988KBKB BKB20190731203510807/31/19 20:35:31  5-MIN KBKB 010235Z AUTO 00000KT 10SM CLR 24/23 A2999 230 90 1400 000/00 RMK AO2 T02440228
53988KBKB BKB20190731204010807/31/19 20:40:31  5-MIN KBKB 010240Z AUTO 00000KT 10SM CLR 24/23 A2999 240 90 1400 000/00 RMK AO2 T02440228
53988KBKB BKB20190731204510807/31/19 20:45:31  5-MIN KBKB 010245Z AUTO 00000KT 10SM CLR 24/23 A2999 240 90 1400 000/00 RMK AO2 T02440228
53988KBKB BKB20190731205012107/31/19 20:50:31  5-MIN KBKB 010250Z AUTO 00000KT 10SM CLR 24/23 A2999 240 90 1400 000/00 RMK AO2 SLP179 T02440228 56006
53988KBKB BKB20190731205510807/31/19 20:55:31  5-MIN KBKB 010255Z AUTO 00000KT 10SM CLR 24/23 A2999 240 90 1400 000/00 RMK AO2 T02440228
53988KBKB BKB20190731210010807/31/19 21:00:31  5-MIN KBKB 010300Z AUTO 00000KT 10SM CLR 24/23 A2999 240 90 1400 000/00 RMK AO2 T02440228
53988KBKB BKB20190731210510807/31/19 21:05:31  5-MIN KBKB 010305Z AUTO 00000KT 10SM CLR 24/23 A2999 230 90 1400 000/00 RMK AO2 T02440228
53988KBKB BKB20190731211010807/31/19 21:10:31  5-MIN KBKB 010310Z AUTO 00000KT 10SM CLR 24/23 A2999 230 90 1400 000/00 RMK AO2 T02440228
53988KBKB BKB20190731211510807/31/19 21:15:31  5-MIN KBKB 010315Z AUTO 00000KT 10SM CLR 24/23 A2999 230 90 1400 000/00 RMK AO2 T02440228
53988KBKB BKB20190731212010807/31/19 21:20:31  5-MIN KBKB 010320Z AUTO 00000KT 10SM CLR 24/23 A2999 230 90 1400 000/00 RMK AO2 T02440228
53988KBKB BKB20190731212510807/31/19 21:25:31  5-MIN KBKB 010325Z AUTO 00000KT 10SM CLR 24/23 A2999 230 90 1400 000/00 RMK AO2 T02440228
53988KBKB BKB20190731213010807/31/19 21:30:31  5-MIN KBKB 010330Z AUTO 00000KT 10SM CLR 24/23 A2999 230 90 1400 000/00 RMK AO2 T02440228
53988KBKB BKB20190731213510807/31/19 21:35:31  5-MIN KBKB 010335Z AUTO 00000KT 10SM CLR 24/23 A2999 230 90 1400 000/00 RMK AO2 T02440228
53988KBKB BKB20190731214010807/31/19 21:40:31  5-MIN KBKB 010340Z AUTO 00000KT 10SM CLR 24/23 A2999 230 90 1400 000/00 RMK AO2 T02440228
53988KBKB BKB20190731214510807/31/19 21:45:31  5-MIN KBKB 010345Z AUTO 00000KT 10SM CLR 24/23 A2999 230 90 1400 000/00 RMK AO2 T02440228
53988KBKB BKB20190731215011507/31/19 21:50:31  5-MIN KBKB 010350Z AUTO 00000KT 10SM CLR 24/23 A2999 230 93 1400 000/00 RMK AO2 SLP182 T02390228
53988KBKB BKB20190731215509407/31/19 21:55:31  5-MIN KBKB 010355Z AUTO 00000KT 10SM CLR 24/23 A2999 0/00 RMK AO2 T02390222
53988KBKB BKB20190731223010807/31/19 22:30:31  5-MIN KBKB 010430Z AUTO 00000KT 10SM CLR 24/22 A3000 220 90 1300 000/00 RMK AO2 T02390222
53988KBKB BKB20190731223510807/31/19 22:35:31  5-MIN KBKB 010435Z AUTO 00000KT 10SM CLR 23/22 A3000 220 93 1300 000/00 RMK AO2 T02330222
53988KBKB BKB20190731224010807/31/19 22:40:31  5-MIN KBKB 010440Z AUTO 00000KT 10SM CLR 24/22 A3000 230 90 1400 000/00 RMK AO2 T02390222
53988KBKB BKB20190731224510807/31/19 22:45:31  5-MIN KBKB 010445Z AUTO 00000KT 10SM CLR 23/22 A3000 220 93 1300 000/00 RMK AO2 T02330222
53988KBKB BKB20190731225006207/31/19 22:50:31  5-MIN KBKB 010450Z AUTO 0 RMK AO2 T02390222
53988KBKB BKB20190731225011407/31/19 22:50:31  5-MIN KBKB 010450Z AUTO 00000KT 9SM CLR 23/22 A3000 220 93 1300 000/00 RMK AO2 SLP184 T02330222
53988KBKB BKB20190731225510707/31/19 22:55:31  5-MIN KBKB 010455Z AUTO 00000KT 9SM CLR 23/22 A3000 220 93 1300 000/00 RMK AO2 T02330222
53988KBKB BKB20190731230005707/31/19 23:00:31  5-MIN KBKB 010500Z AUTO 00000KT 930222
53988KBKB BKB20190731230010707/31/19 23:00:31  5-MIN KBKB 010500Z AUTO 00000KT 9SM CLR 23/22 A3000 220 93 1300 000/00 RMK AO2 T02330222
53988KBKB BKB20190731230510707/31/19 23:05:31  5-MIN KBKB 010505Z AUTO 00000KT 9SM CLR 23/22 A3000 230 93 1300 000/00 RMK AO2 T02330222
53988KBKB BKB20190731231010707/31/19 23:10:31  5-MIN KBKB 010510Z AUTO 00000KT 8SM CLR 23/22 A3000 220 93 1300 000/00 RMK AO2 T02330222
53988KBKB BKB20190731231510707/31/19 23:15:31  5-MIN KBKB 010515Z AUTO 00000KT 8SM CLR 23/22 A3000 230 93 1300 000/00 RMK AO2 T02330222
53988KBKB BKB20190731232010807/31/19 23:20:31  5-MIN KBKB 010520Z AUTO 00000KT 10SM CLR 23/22 A3000 230 93 1300 000/00 RMK AO2 T02330222
53988KBKB BKB20190731232510807/31/19 23:25:31  5-MIN KBKB 010525Z AUTO 00000KT 10SM CLR 23/22 A2999 230 93 1300 000/00 RMK AO2 T02330222
53988KBKB BKB20190731233010807/31/19 23:30:31  5-MIN KBKB 010530Z AUTO 00000KT 10SM CLR 23/22 A3000 230 93 1300 000/00 RMK AO2 T02330222
53988KBKB BKB20190731233510807/31/19 23:35:31  5-MIN KBKB 010535Z AUTO 00000KT 10SM CLR 23/22 A3000 230 93 1300 000/00 RMK AO2 T02330222
53988KBKB BKB20190731234010807/31/19 23:40:31  5-MIN KBKB 010540Z AUTO 00000KT 10SM CLR 23/22 A3000 230 93 1300 000/00 RMK AO2 T02330222
53988KBKB BKB20190731234510807/31/19 23:45:31  5-MIN KBKB 010545Z AUTO 00000KT 10SM CLR 23/22 A2999 230 93 1300 000/00 RMK AO2 T02330222
53988KBKB BKB20190731235014207/31/19 23:50:31  5-MIN KBKB 010550Z AUTO 00000KT 9SM CLR 23/22 A3000 230 93 1300 000/00 RMK AO2 SLP182 T02330222 10300 20233 403280206 53002
53988KBKB BKB20190731235510707/31/19 23:55:31  5-MIN KBKB 010555Z AUTO 00000KT 9SM CLR 23/22 A3000 230 93 1300 000/00 RMK AO2 T02330222
