13976KLFT LFT20191210130516112/10/19 13:05:31  5-MIN KLFT 101905Z 01016G26KT 2 1/2SM -RA BR BKN009 BKN014 OVC040 11/09 A3012 -130 93 -600 010/16G26 RMK AO2 PK WND 03026/1905 P0000 T01060094
13976KLFT LFT20191210131015712/10/19 13:10:31  5-MIN KLFT 101910Z 02015G26KT 3SM -RA BR SCT007 BKN011 OVC021 11/09 A3011 -130 89 -600 020/15G26 RMK AO2 PK WND 03026/1905 P0000 T01060089
13976KLFT LFT20191210131515712/10/19 13:15:31  5-MIN KLFT 101915Z 02017G30KT 3SM -RA BR SCT009 BKN014 OVC041 11/09 A3011 -130 89 -600 020/17G30 RMK AO2 PK WND 01030/1913 P0001 T01060089
13976KLFT LFT20191210132016112/10/19 13:20:31  5-MIN KLFT 101920Z 03019G30KT 2 1/2SM -RA BR BKN009 BKN012 OVC041 11/09 A3011 -120 89 -600 030/19G30 RMK AO2 PK WND 01030/1913 P0001 T01060089
13976KLFT LFT20191210132516112/10/19 13:25:31  5-MIN KLFT 101925Z 03019G31KT 2 1/2SM -RA BR BKN009 BKN012 OVC037 11/09 A3011 -120 89 -600 020/19G31 RMK AO2 PK WND 02031/1921 P0001 T01060089
13976KLFT LFT20191210133015712/10/19 13:30:31  5-MIN KLFT 101930Z 03019G31KT 3SM -RA BR BKN011 BKN020 OVC043 11/09 A3011 -120 89 -600 030/19G31 RMK AO2 PK WND 02031/1921 P0001 T01060089
13976KLFT LFT20191210133515712/10/19 13:35:31  5-MIN KLFT 101935Z 03016G26KT 3SM -RA BR SCT011 BKN020 OVC043 11/09 A3010 -120 89 -600 030/16G26 RMK AO2 PK WND 02031/1921 P0001 T01060089
13976KLFT LFT20191210134015712/10/19 13:40:31  5-MIN KLFT 101940Z 03016G25KT 3SM -RA BR SCT009 BKN018 OVC043 11/09 A3010 -120 89 -600 030/16G25 RMK AO2 PK WND 02031/1921 P0001 T01060089
13976KLFT LFT20191210134515712/10/19 13:45:31  5-MIN KLFT 101945Z 03015G23KT 4SM -RA BR SCT009 BKN013 OVC040 11/09 A3011 -130 89 -600 030/15G23 RMK AO2 PK WND 02031/1921 P0001 T01060089
13976KLFT LFT20191210135015612/10/19 13:50:31  5-MIN KLFT 101950Z 03018G24KT 7SM BKN011 OVC018 11/09 A3011 -130 89 -600 030/18G24 RMK AO2 PK WND 02031/1921 RAE50 SLP195 P0001 T01060089
13976KLFT LFT20191210135511912/10/19 13:55:31  5-MIN KLFT 101955Z 02018G25KT 9SM BKN011 OVC017 11/09 A3011 -120 89 -600 020/18G25 RMK AO2 T01060089
13976KLFT LFT20191210140012012/10/19 14:00:31  5-MIN KLFT 102000Z 02018G25KT 10SM SCT009 OVC014 11/08 A3011 -130 86 -600 020/18G25 RMK AO2 T01060083
13976KLFT LFT20191210140513612/10/19 14:05:31  5-MIN KLFT 102005Z 01015G25KT 10SM -RA SCT009 OVC014 11/09 A3012 -130 89 -600 010/15G25 RMK AO2 RAB04 P0000 T01060089
13976KLFT LFT20191210141012912/10/19 14:10:31  5-MIN KLFT 102010Z 02016G25KT 10SM -RA OVC012 10/09 A3012 -130 93 -700 010/16G25 RMK AO2 RAB04 P0000 T01000089
13976KLFT LFT20191210141512912/10/19 14:15:31  5-MIN KLFT 102015Z 02017G25KT 10SM -RA OVC012 10/08 A3012 -140 89 -700 020/17G25 RMK AO2 RAB04 P0000 T01000083
13976KLFT LFT20191210142012812/10/19 14:20:31  5-MIN KLFT 102020Z 02016G25KT 10SM OVC012 10/08 A3013 -140 89 -700 020/16G25 RMK AO2 RAB04E16 P0000 T01000083
13976KLFT LFT20191210142512812/10/19 14:25:31  5-MIN KLFT 102025Z 02018G24KT 10SM OVC012 10/08 A3013 -140 89 -700 020/18G24 RMK AO2 RAB04E16 P0001 T01000083
13976KLFT LFT20191210143012212/10/19 14:30:31  5-MIN KLFT 102030Z 03014KT 10SM OVC012 10/08 A3012 -140 89 -700 030/14 RMK AO2 RAB04E16 P0001 T01000083
13976KLFT LFT20191210143512212/10/19 14:35:31  5-MIN KLFT 102035Z 02016KT 10SM OVC012 10/08 A3013 -140 89 -700 020/16 RMK AO2 RAB04E16 P0001 T01000083
13976KLFT LFT20191210144012212/10/19 14:40:31  5-MIN KLFT 102040Z 02017KT 10SM OVC012 10/08 A3013 -140 89 -700 020/17 RMK AO2 RAB04E16 P0001 T01000083
13976KLFT LFT20191210144512812/10/19 14:45:31  5-MIN KLFT 102045Z 03016G25KT 10SM OVC012 10/08 A3013 -150 89 -700 030/16G25 RMK AO2 RAB04E16 P0001 T01000083
13976KLFT LFT20191210145014712/10/19 14:50:31  5-MIN KLFT 102050Z 02017G25KT 10SM OVC014 10/08 A3013 -150 86 -700 020/17G25 RMK AO2 RAB04E16 SLP203 P0001 60008 T01000078 51014
13976KLFT LFT20191210145513112/10/19 14:55:31  5-MIN KLFT 102055Z 02019G28KT 10SM OVC014 10/08 A3013 -150 86 -700 020/19G28 RMK AO2 PK WND 02028/2054 T01000078
13976KLFT LFT20191210150013112/10/19 15:00:31  5-MIN KLFT 102100Z 02019G31KT 10SM OVC013 10/08 A3013 -150 86 -700 010/19G31 RMK AO2 PK WND 02031/2059 T01000078
13976KLFT LFT20191210150513112/10/19 15:05:31  5-MIN KLFT 102105Z 01019G31KT 10SM OVC013 10/08 A3013 -150 86 -700 010/19G31 RMK AO2 PK WND 02031/2059 T01000078
13976KLFT LFT20191210151013112/10/19 15:10:31  5-MIN KLFT 102110Z 03015G26KT 10SM OVC013 10/08 A3013 -150 86 -700 030/15G26 RMK AO2 PK WND 02031/2059 T01000078
13976KLFT LFT20191210151513112/10/19 15:15:31  5-MIN KLFT 102115Z 03019G26KT 10SM OVC013 10/08 A3014 -150 86 -700 020/19G26 RMK AO2 PK WND 02031/2059 T01000078
13976KLFT LFT20191210152013112/10/19 15:20:31  5-MIN KLFT 102120Z 02018G27KT 10SM OVC013 10/08 A3014 -150 86 -700 020/18G27 RMK AO2 PK WND 02031/2059 T01000078
13976KLFT LFT20191210152513112/10/19 15:25:31  5-MIN KLFT 102125Z 02017G27KT 10SM OVC013 10/08 A3013 -150 86 -700 020/17G27 RMK AO2 PK WND 02031/2059 T01000078
13976KLFT LFT20191210153013112/10/19 15:30:31  5-MIN KLFT 102130Z 02020G32KT 10SM OVC013 10/07 A3014 -150 83 -700 020/20G32 RMK AO2 PK WND 02032/2127 T01000072
13976KLFT LFT20191210153513112/10/19 15:35:31  5-MIN KLFT 102135Z 02016G32KT 10SM OVC013 10/08 A3014 -150 86 -700 020/16G32 RMK AO2 PK WND 02032/2127 T01000078
13976KLFT LFT20191210154013112/10/19 15:40:31  5-MIN KLFT 102140Z 02015G25KT 10SM OVC013 09/08 A3014 -150 89 -800 020/15G25 RMK AO2 PK WND 02032/2127 T00940078
13976KLFT LFT20191210154513112/10/19 15:45:31  5-MIN KLFT 102145Z 02021G32KT 10SM OVC013 09/07 A3014 -150 86 -800 020/21G32 RMK AO2 PK WND 03032/2145 T00940072
13976KLFT LFT20191210155013812/10/19 15:50:31  5-MIN KLFT 102150Z 02019G32KT 10SM OVC014 09/07 A3015 -160 86 -800 020/19G32 RMK AO2 PK WND 03032/2145 SLP208 T00940072
13976KLFT LFT20191210155511312/10/19 15:55:31  5-MIN KLFT 102155Z 02019G30KT 10SM OVC014 09/07 A3015 -160 83 -800 020/19G30 RMK AO2 T00940067
13976KLFT LFT20191210160011312/10/19 16:00:31  5-MIN KLFT 102200Z 03016G30KT 10SM OVC014 09/07 A3014 -160 86 -800 030/16G30 RMK AO2 T00940072
13976KLFT LFT20191210160513112/10/19 16:05:31  5-MIN KLFT 102205Z 03020G31KT 10SM OVC015 09/07 A3015 -160 83 -800 030/20G31 RMK AO2 PK WND 03031/2202 T00940067
13976KLFT LFT20191210161013112/10/19 16:10:31  5-MIN KLFT 102210Z 03022G31KT 10SM OVC015 09/07 A3015 -160 83 -800 020/22G31 RMK AO2 PK WND 03031/2202 T00940067
13976KLFT LFT20191210161513112/10/19 16:15:31  5-MIN KLFT 102215Z 03019G29KT 10SM OVC015 09/07 A3016 -170 83 -800 020/19G29 RMK AO2 PK WND 03031/2202 T00940067
13976KLFT LFT20191210162013112/10/19 16:20:31  5-MIN KLFT 102220Z 03015G29KT 10SM OVC015 09/07 A3016 -170 83 -800 030/15G29 RMK AO2 PK WND 03031/2202 T00940067
13976KLFT LFT20191210162513112/10/19 16:25:31  5-MIN KLFT 102225Z 02019G28KT 10SM OVC015 09/07 A3016 -170 83 -800 020/19G28 RMK AO2 PK WND 03031/2202 T00940067
13976KLFT LFT20191210163013112/10/19 16:30:31  5-MIN KLFT 102230Z 01018G28KT 10SM OVC015 09/07 A3017 -180 83 -800 010/18G28 RMK AO2 PK WND 03031/2202 T00940067
13976KLFT LFT20191210163513812/10/19 16:35:31  5-MIN KLFT 102235Z 01018G26KT 10SM OVC015 09/07 A3018 -190 86 -900 010/18G26 RMK AO2 PK WND 03031/2202 PRESRR T00890067
13976KLFT LFT20191210164013112/10/19 16:40:31  5-MIN KLFT 102240Z 01019G26KT 10SM OVC015 09/07 A3018 -190 86 -900 010/19G26 RMK AO2 PK WND 03031/2202 T00890067
13976KLFT LFT20191210164513112/10/19 16:45:31  5-MIN KLFT 102245Z 01016G26KT 10SM OVC015 09/07 A3018 -190 86 -900 010/16G26 RMK AO2 PK WND 03031/2202 T00890067
13976KLFT LFT20191210165013812/10/19 16:50:31  5-MIN KLFT 102250Z 01013G26KT 10SM OVC015 09/07 A3018 -190 86 -900 010/13G26 RMK AO2 PK WND 03031/2202 SLP220 T00890067
13976KLFT LFT20191210165511312/10/19 16:55:31  5-MIN KLFT 102255Z 01019G25KT 10SM OVC013 09/06 A3018 -190 83 -900 010/19G25 RMK AO2 T00890061
13976KLFT LFT20191210170013112/10/19 17:00:31  5-MIN KLFT 102300Z 02018G26KT 10SM OVC013 09/06 A3018 -190 83 -900 020/18G26 RMK AO2 PK WND 02026/2258 T00890061
13976KLFT LFT20191210170513212/10/19 17:05:31  5-MIN KLFT 102305Z 02017G26KT 10SM OVC013 08/06 A3019 -200 86 -1000 010/17G26 RMK AO2 PK WND 02026/2258 T00830061
13976KLFT LFT20191210171013112/10/19 17:10:31  5-MIN KLFT 102310Z 01017G27KT 10SM OVC013 09/06 A3019 -200 83 -900 010/17G27 RMK AO2 PK WND 02027/2308 T00890061
13976KLFT LFT20191210171513112/10/19 17:15:31  5-MIN KLFT 102315Z 02016G27KT 10SM OVC014 09/06 A3020 -210 83 -900 020/16G27 RMK AO2 PK WND 02027/2308 T00890061
13976KLFT LFT20191210172013112/10/19 17:20:31  5-MIN KLFT 102320Z 02019G27KT 10SM OVC014 09/06 A3020 -210 83 -900 020/19G27 RMK AO2 PK WND 03027/2317 T00890061
13976KLFT LFT20191210172513112/10/19 17:25:31  5-MIN KLFT 102325Z 01018G27KT 10SM OVC014 09/06 A3020 -210 83 -900 010/18G27 RMK AO2 PK WND 03027/2317 T00890061
13976KLFT LFT20191210173013912/10/19 17:30:31  5-MIN KLFT 102330Z 01015G26KT 10SM OVC014 08/06 A3021 -220 86 -1000 010/15G26 RMK AO2 PK WND 03027/2317 PRESRR T00830061
13976KLFT LFT20191210173513912/10/19 17:35:31  5-MIN KLFT 102335Z 01017G26KT 10SM OVC014 08/06 A3022 -230 86 -1000 010/17G26 RMK AO2 PK WND 03027/2317 PRESRR T00830061
13976KLFT LFT20191210174012612/10/19 17:40:31  5-MIN KLFT 102340Z 01016KT 10SM OVC014 08/06 A3022 -230 86 -1000 010/16 RMK AO2 PK WND 03027/2317 T00830061
13976KLFT LFT20191210174513212/10/19 17:45:31  5-MIN KLFT 102345Z 01016G24KT 10SM OVC014 08/06 A3023 -230 86 -1000 010/16G24 RMK AO2 PK WND 03027/2317 T00830061
13976KLFT LFT20191210175016312/10/19 17:50:31  5-MIN KLFT 102350Z 01015G25KT 10SM OVC014 08/06 A3023 -240 86 -1000 010/15G25 RMK AO2 PK WND 03027/2317 SLP236 60008 T00830061 10117 20083 53004
13976KLFT LFT20191210175511312/10/19 17:55:31  5-MIN KLFT 102355Z 01016G25KT 9SM OVC014 08/06 A3023 -240 86 -1000 010/16G25 RMK AO2 T00830061
13976KLFT LFT20191210180013812/10/19 18:00:31  5-MIN KLFT 110000Z 01014G23KT 7SM -RA BKN014 OVC040 08/06 A3023 -240 86 -1000 010/14G23 RMK AO2 RAB2356 P0000 T00830061
13976KLFT LFT20191210180513512/10/19 18:05:31  5-MIN KLFT 110005Z 02015KT 5SM -RA BR BKN014 OVC040 08/06 A3023 -240 86 -1000 020/15 RMK AO2 RAB2356 P0000 T00830061
13976KLFT LFT20191210181015912/10/19 18:10:31  5-MIN KLFT 110010Z 01018G26KT 5SM -RA BR BKN014 OVC040 08/06 A3023 -240 89 -1100 010/18G26 RMK AO2 PK WND 01026/0009 RAB2356 P0000 T00780061
13976KLFT LFT20191210181515912/10/19 18:15:31  5-MIN KLFT 110015Z 02016G26KT 5SM -RA BR BKN014 OVC041 08/06 A3023 -230 89 -1100 010/16G26 RMK AO2 PK WND 01026/0009 RAB2356 P0000 T00780061
13976KLFT LFT20191210182015312/10/19 18:20:31  5-MIN KLFT 110020Z 02015KT 6SM -RA BR BKN014 OVC043 08/06 A3023 -230 89 -1100 020/15 RMK AO2 PK WND 01026/0009 RAB2356 P0000 T00780061
13976KLFT LFT20191210182515012/10/19 18:25:31  5-MIN KLFT 110025Z 02015KT 8SM -RA BKN014 OVC043 08/06 A3023 -230 89 -1100 020/15 RMK AO2 PK WND 01026/0009 RAB2356 P0000 T00780061
13976KLFT LFT20191210183015012/10/19 18:30:31  5-MIN KLFT 110030Z 02018KT 10SM SCT014 OVC045 08/06 A3023 -240 89 -1100 020/18 RMK AO2 PK WND 01026/0009 RAB2356E26 P0000 T00780061
13976KLFT LFT20191210183516312/10/19 18:35:31  5-MIN KLFT 110035Z 03017G27KT 10SM SCT012 SCT017 OVC045 08/06 A3023 -230 89 -1100 020/17G27 RMK AO2 PK WND 02027/0032 RAB2356E26 P0000 T00780061
13976KLFT LFT20191210184015612/10/19 18:40:31  5-MIN KLFT 110040Z 03016G27KT 10SM SCT012 OVC045 08/06 A3022 -230 89 -1100 030/16G27 RMK AO2 PK WND 02027/0032 RAB2356E26 P0000 T00780061
13976KLFT LFT20191210184515012/10/19 18:45:31  5-MIN KLFT 110045Z 03016KT 10SM SCT012 OVC046 08/06 A3023 -230 89 -1100 030/16 RMK AO2 PK WND 02027/0032 RAB2356E26 P0000 T00780061
13976KLFT LFT20191210185016312/10/19 18:50:31  5-MIN KLFT 110050Z 02016G23KT 10SM SCT012 OVC046 08/06 A3024 -240 89 -1100 020/16G23 RMK AO2 PK WND 02027/0032 RAB2356E26 SLP238 P0000 T00780061
13976KLFT LFT20191210185512112/10/19 18:55:31  5-MIN KLFT 110055Z 02015G23KT 10SM BKN012 OVC046 08/06 A3024 -240 89 -1100 020/15G23 RMK AO2 T00780061
13976KLFT LFT20191210190012112/10/19 19:00:31  5-MIN KLFT 110100Z 03017G25KT 10SM BKN012 OVC048 08/06 A3024 -250 89 -1100 030/17G25 RMK AO2 T00780061
13976KLFT LFT20191210190512112/10/19 19:05:31  5-MIN KLFT 110105Z 03016G25KT 10SM BKN012 OVC048 08/06 A3024 -250 89 -1100 030/16G25 RMK AO2 T00780061
13976KLFT LFT20191210191012112/10/19 19:10:31  5-MIN KLFT 110110Z 02015G23KT 10SM BKN012 OVC048 08/06 A3024 -250 89 -1100 020/15G23 RMK AO2 T00780061
13976KLFT LFT20191210191512112/10/19 19:15:31  5-MIN KLFT 110115Z 03017G23KT 10SM BKN012 OVC048 08/06 A3024 -240 89 -1100 030/17G23 RMK AO2 T00780061
13976KLFT LFT20191210192012112/10/19 19:20:31  5-MIN KLFT 110120Z 03016G23KT 10SM BKN012 OVC049 08/06 A3024 -240 89 -1100 030/16G23 RMK AO2 T00780061
13976KLFT LFT20191210192512112/10/19 19:25:31  5-MIN KLFT 110125Z 03014G23KT 10SM BKN012 OVC049 08/06 A3024 -240 89 -1100 030/14G23 RMK AO2 T00780061
13976KLFT LFT20191210193013612/10/19 19:30:31  5-MIN KLFT 110130Z 03017G22KT 9SM -RA BKN012 OVC055 08/06 A3024 -250 89 -1100 030/17G22 RMK AO2 RAB26 P0000 T00780061
13976KLFT LFT20191210193513012/10/19 19:35:31  5-MIN KLFT 110135Z 03013KT 8SM -RA BKN012 OVC055 08/06 A3025 -250 89 -1100 030/13 RMK AO2 RAB26 P0000 T00780061
13976KLFT LFT20191210194015412/10/19 19:40:31  5-MIN KLFT 110140Z 03014G21KT 10SM BKN012 OVC055 08/06 A3026 -260 89 -1100 030/14G21 RMK AO2 LTG DSNT N AND NW RAB26E37 P0000 T00780061
13976KLFT LFT20191210194515412/10/19 19:45:31  5-MIN KLFT 110145Z 02014G21KT 10SM BKN013 OVC055 08/06 A3026 -260 89 -1100 020/14G21 RMK AO2 LTG DSNT N AND NW RAB26E37 P0000 T00780061
13976KLFT LFT20191210195015512/10/19 19:50:31  5-MIN KLFT 110150Z 03015KT 8SM -RA BKN013 OVC055 08/06 A3025 -260 89 -1100 030/15 RMK AO2 LTG DSNT N AND NW RAB26 SLP243 P0001 T00780061
13976KLFT LFT20191210195515112/10/19 19:55:31  5-MIN KLFT 110155Z 05012G21KT 5SM +RA BR BKN013 BKN050 OVC060 08/06 A3024 -250 89 -1100 040/12G21 RMK AO2 LTG DSNT N P0000 T00780061
13976KLFT LFT20191210200013212/10/19 20:00:31  5-MIN KLFT 110200Z 04013G22KT 5SM RA BR BKN012 OVC060 08/06 A3025 -260 89 -1100 040/13G22 RMK AO2 P0001 T00780061
13976KLFT LFT20191210200513012/10/19 20:05:31  5-MIN KLFT 110205Z 03014G22KT 7SM -RA BKN012 OVC060 08/06 A3027 -270 89 -1100 030/14G22 RMK AO2 P0001 T00780061
13976KLFT LFT20191210201013712/10/19 20:10:31  5-MIN KLFT 110210Z 04011G20KT 9SM -RA FEW008 BKN012 OVC060 08/06 A3026 -260 89 -1100 040/11G20 RMK AO2 P0001 T00780061
13976KLFT LFT20191210201513112/10/19 20:15:31  5-MIN KLFT 110215Z 05012KT 7SM +RA BKN012 BKN022 OVC060 08/06 A3025 -250 89 -1100 050/12 RMK AO2 P0003 T00780061
13976KLFT LFT20191210202013412/10/19 20:20:31  5-MIN KLFT 110220Z 04013KT 4SM +RA BR BKN012 BKN048 OVC060 08/06 A3026 -260 89 -1100 040/13 RMK AO2 P0004 T00780061
13976KLFT LFT20191210202513412/10/19 20:25:31  5-MIN KLFT 110225Z 04009KT 4SM +RA BR SCT009 BKN014 OVC048 08/06 A3026 -260 89 -1100 040/09 RMK AO2 P0006 T00780061
13976KLFT LFT20191210203013912/10/19 20:30:31  5-MIN KLFT 110230Z 02014G20KT 4SM RA BR SCT009 BKN014 OVC048 08/06 A3027 -270 89 -1100 020/14G20 RMK AO2 P0007 T00780061
13976KLFT LFT20191210203514012/10/19 20:35:31  5-MIN KLFT 110235Z 04012G20KT 6SM +RA BR BKN009 BKN014 OVC043 08/06 A3026 -260 89 -1100 040/12G20 RMK AO2 P0008 T00780061
13976KLFT LFT20191210204014012/10/19 20:40:31  5-MIN KLFT 110240Z 04013G22KT 5SM +RA BR SCT010 BKN015 OVC070 08/06 A3026 -260 89 -1100 040/13G22 RMK AO2 P0009 T00780061
13976KLFT LFT20191210204513912/10/19 20:45:31  5-MIN KLFT 110245Z 03012G22KT 5SM RA BR FEW008 BKN013 OVC075 08/06 A3026 -260 89 -1100 030/12G22 RMK AO2 P0010 T00780061
13976KLFT LFT20191210205012312/10/19 20:50:31  5-MIN KLFT 110250Z 04011KT 6SM RA BR SCT009 BKN015 OVC075 08/06 A3027 -270 89 -1100 040/11 RMK AO2 P0011
13976KLFT LFT20191210205514012/10/19 20:55:31  5-MIN KLFT 110255Z 04011G19KT 5SM +RA BR SCT009 BKN015 OVC075 08/06 A3027 -270 89 -1100 030/11G19 RMK AO2 P0000 T00780061
13976KLFT LFT20191210210013412/10/19 21:00:31  5-MIN KLFT 110300Z 04011KT 5SM +RA BR SCT009 BKN015 OVC075 08/06 A3027 -270 89 -1100 040/11 RMK AO2 P0001 T00780061
13976KLFT LFT20191210210513312/10/19 21:05:31  5-MIN KLFT 110305Z 03011KT 5SM RA BR SCT009 BKN013 OVC075 08/06 A3027 -280 89 -1100 030/11 RMK AO2 P0002 T00780061
13976KLFT LFT20191210211013112/10/19 21:10:31  5-MIN KLFT 110310Z 04012KT 8SM -RA SCT011 BKN014 OVC055 08/06 A3028 -280 89 -1100 040/12 RMK AO2 P0002 T00780061
13976KLFT LFT20191210211513212/10/19 21:15:31  5-MIN KLFT 110315Z 04012KT 10SM -RA SCT011 BKN014 OVC055 08/06 A3028 -280 89 -1100 040/12 RMK AO2 P0002 T00780061
13976KLFT LFT20191210212013712/10/19 21:20:31  5-MIN KLFT 110320Z 04013G20KT 10SM RA FEW008 BKN011 OVC075 08/06 A3028 -280 89 -1100 040/13G20 RMK AO2 P0003 T00780061
13976KLFT LFT20191210212513712/10/19 21:25:31  5-MIN KLFT 110325Z 03012G20KT 9SM -RA BKN011 BKN048 OVC075 08/06 A3029 -290 89 -1100 030/12G20 RMK AO2 P0003 T00780061
13976KLFT LFT20191210213013812/10/19 21:30:31  5-MIN KLFT 110330Z 03017G23KT 10SM -RA BKN011 BKN048 OVC075 08/06 A3027 -270 89 -1100 030/17G23 RMK AO2 P0003 T00780061
13976KLFT LFT20191210213514012/10/19 21:35:31  5-MIN KLFT 110335Z 03016G23KT 6SM +RA BR BKN011 BKN048 OVC085 08/06 A3027 -270 89 -1100 030/16G23 RMK AO2 P0006 T00780061
13976KLFT LFT20191210214014012/10/19 21:40:31  5-MIN KLFT 110340Z 03012G21KT 5SM +RA BR BKN011 BKN018 OVC070 08/06 A3028 -280 89 -1100 030/12G21 RMK AO2 P0007 T00780061
13976KLFT LFT20191210214513912/10/19 21:45:31  5-MIN KLFT 110345Z 04012G21KT 6SM RA BR BKN011 BKN017 OVC080 08/06 A3026 -270 89 -1100 040/12G21 RMK AO2 P0007 T00780061
13976KLFT LFT20191210215013012/10/19 21:50:31  5-MIN KLFT 110350Z 03010G21KT 4SM +RA BR BKN009 BKN015 OVC080 08/06 A3027 -270 89 -1100 030/10G21 RMK AO2 P0010
13976KLFT LFT20191210215514012/10/19 21:55:31  5-MIN KLFT 110355Z 02011G20KT 4SM +RA BR BKN009 BKN015 OVC045 08/06 A3028 -280 89 -1100 020/11G20 RMK AO2 P0000 T00780061
13976KLFT LFT20191210220014012/10/19 22:00:31  5-MIN KLFT 110400Z 02012G20KT 6SM -RA BR SCT009 BKN012 OVC043 08/06 A3028 -280 89 -1100 020/12G20 RMK AO2 P0000 T00780061
13976KLFT LFT20191210220513112/10/19 22:05:31  5-MIN KLFT 110405Z 03015G21KT 10SM -RA BKN009 OVC014 08/06 A3028 -280 89 -1100 030/15G21 RMK AO2 P0000 T00780061
13976KLFT LFT20191210221014312/10/19 22:10:31  5-MIN KLFT 110410Z 03014G21KT 10SM -RA BKN009 OVC014 08/06 A3027 -280 89 -1100 020/14G21 RMK AO2 CIG 007V013 P0000 T00780061
13976KLFT LFT20191210221513012/10/19 22:15:31  5-MIN KLFT 110415Z 02015KT 10SM -RA OVC009 08/06 A3027 -280 89 -1100 020/15 RMK AO2 CIG 007V013 P0001 T00780061
13976KLFT LFT20191210222012912/10/19 22:20:31  5-MIN KLFT 110420Z AUTO 02015G23KT 10SM -RA OVC011 08/06 A3028 -280 89 -1100 020/15G23 RMK AO2 P0001 T00780061
13976KLFT LFT20191210222512912/10/19 22:25:31  5-MIN KLFT 110425Z AUTO 02013G23KT 10SM -RA OVC011 08/06 A3028 -290 89 -1100 020/13G23 RMK AO2 P0001 T00780061
13976KLFT LFT20191210223012312/10/19 22:30:31  5-MIN KLFT 110430Z AUTO 03013KT 10SM -RA OVC011 08/06 A3029 -290 89 -1100 030/13 RMK AO2 P0001 T00780061
13976KLFT LFT20191210223513812/10/19 22:35:31  5-MIN KLFT 110435Z AUTO 02013G20KT 10SM OVC011 08/06 A3030 -300 89 -1200 020/13G20 RMK AO2 RAE33 PRESRR P0001 T00780061
13976KLFT LFT20191210224013112/10/19 22:40:31  5-MIN KLFT 110440Z AUTO 02014G20KT 10SM OVC011 08/06 A3030 -300 89 -1200 020/14G20 RMK AO2 RAE33 P0001 T00780061
13976KLFT LFT20191210224512512/10/19 22:45:31  5-MIN KLFT 110445Z AUTO 02014KT 10SM OVC011 08/06 A3029 -300 89 -1200 020/14 RMK AO2 RAE33 P0001 T00780061
13976KLFT LFT20191210225013212/10/19 22:50:31  5-MIN KLFT 110450Z AUTO 02015KT 10SM OVC011 08/06 A3030 -300 89 -1200 020/15 RMK AO2 RAE33 SLP259 P0001 T00780061
13976KLFT LFT20191210225511912/10/19 22:55:31  5-MIN KLFT 110455Z AUTO 02016G24KT 10SM OVC011 08/06 A3030 -300 86 -1200 020/16G24 RMK AO2 T00780056
13976KLFT LFT20191210230011912/10/19 23:00:31  5-MIN KLFT 110500Z AUTO 02016G24KT 10SM OVC011 08/06 A3030 -300 86 -1200 020/16G24 RMK AO2 T00780056
13976KLFT LFT20191210230511912/10/19 23:05:31  5-MIN KLFT 110505Z AUTO 02016G23KT 10SM OVC011 07/06 A3030 -300 89 -1200 020/16G23 RMK AO2 T00720056
13976KLFT LFT20191210231011912/10/19 23:10:31  5-MIN KLFT 110510Z AUTO 02014G23KT 10SM OVC011 07/06 A3031 -300 89 -1200 020/14G23 RMK AO2 T00720056
13976KLFT LFT20191210231511912/10/19 23:15:31  5-MIN KLFT 110515Z AUTO 02014G23KT 10SM OVC011 07/06 A3031 -310 89 -1200 010/14G23 RMK AO2 T00720056
13976KLFT LFT20191210232011912/10/19 23:20:31  5-MIN KLFT 110520Z AUTO 02017G24KT 10SM OVC011 07/06 A3030 -300 89 -1200 020/17G24 RMK AO2 T00720056
13976KLFT LFT20191210232511312/10/19 23:25:31  5-MIN KLFT 110525Z AUTO 02017KT 10SM OVC011 07/06 A3030 -300 89 -1200 020/17 RMK AO2 T00720056
13976KLFT LFT20191210233011312/10/19 23:30:31  5-MIN KLFT 110530Z AUTO 02016KT 10SM OVC011 07/06 A3030 -300 89 -1200 020/16 RMK AO2 T00720056
13976KLFT LFT20191210233511912/10/19 23:35:31  5-MIN KLFT 110535Z AUTO 02016G24KT 10SM OVC011 07/06 A3030 -300 89 -1200 020/16G24 RMK AO2 T00720056
13976KLFT LFT20191210234011912/10/19 23:40:31  5-MIN KLFT 110540Z AUTO 02015G25KT 10SM OVC011 07/06 A3030 -300 89 -1200 020/15G25 RMK AO2 T00720056
13976KLFT LFT20191210234511912/10/19 23:45:31  5-MIN KLFT 110545Z AUTO 02014G25KT 10SM OVC012 07/06 A3030 -300 89 -1200 020/14G25 RMK AO2 T00720056
13976KLFT LFT20191210235016012/10/19 23:50:31  5-MIN KLFT 110550Z AUTO 03016G22KT 10SM OVC014 07/06 A3031 -310 89 -1200 030/16G22 RMK AO2 SLP263 60026 T00720056 10083 20072 402170072 53012
13976KLFT LFT20191210235511912/10/19 23:55:31  5-MIN KLFT 110555Z AUTO 02016G22KT 10SM OVC014 07/06 A3031 -310 89 -1200 020/16G22 RMK AO2 T00720056
13976KLFT LFT20191211000011912/11/19 00:00:31  5-MIN KLFT 110600Z AUTO 02014G21KT 10SM OVC014 07/06 A3031 -310 89 -1200 020/14G21 RMK AO2 T00720056
13976KLFT LFT20191211000511912/11/19 00:05:31  5-MIN KLFT 110605Z AUTO 03015G22KT 10SM OVC014 07/06 A3031 -310 89 -1200 030/15G22 RMK AO2 T00720056
13976KLFT LFT20191211001011912/11/19 00:10:31  5-MIN KLFT 110610Z AUTO 02014G22KT 10SM OVC014 07/06 A3031 -310 89 -1200 020/14G22 RMK AO2 T00720056
13976KLFT LFT20191211001511912/11/19 00:15:31  5-MIN KLFT 110615Z AUTO 02014G21KT 10SM OVC014 07/06 A3031 -310 89 -1200 020/14G21 RMK AO2 T00720056
13976KLFT LFT20191211002011912/11/19 00:20:31  5-MIN KLFT 110620Z AUTO 02015G22KT 10SM OVC014 07/05 A3032 -320 86 -1200 020/15G22 RMK AO2 T00720050
13976KLFT LFT20191211002511312/11/19 00:25:31  5-MIN KLFT 110625Z AUTO 02014KT 10SM OVC014 07/05 A3031 -310 86 -1200 020/14 RMK AO2 T00720050
13976KLFT LFT20191211003011912/11/19 00:30:31  5-MIN KLFT 110630Z AUTO 02014G23KT 10SM OVC014 07/05 A3031 -310 86 -1200 020/14G23 RMK AO2 T00720050
13976KLFT LFT20191211003511912/11/19 00:35:31  5-MIN KLFT 110635Z AUTO 02012G23KT 10SM OVC015 07/06 A3031 -310 89 -1200 010/12G23 RMK AO2 T00720056
13976KLFT LFT20191211004011312/11/19 00:40:31  5-MIN KLFT 110640Z AUTO 02014KT 10SM OVC015 07/06 A3031 -310 89 -1200 010/14 RMK AO2 T00720056
13976KLFT LFT20191211004511312/11/19 00:45:31  5-MIN KLFT 110645Z AUTO 02016KT 10SM OVC015 07/05 A3032 -320 86 -1200 010/16 RMK AO2 T00720050
13976KLFT LFT20191211005012012/11/19 00:50:31  5-MIN KLFT 110650Z AUTO 02014KT 10SM OVC015 07/05 A3032 -310 86 -1200 020/14 RMK AO2 SLP265 T00720050
13976KLFT LFT20191211005511312/11/19 00:55:31  5-MIN KLFT 110655Z AUTO 02013KT 10SM OVC015 07/05 A3032 -320 86 -1200 020/13 RMK AO2 T00720050
13976KLFT LFT20191211010011912/11/19 01:00:31  5-MIN KLFT 110700Z AUTO 02016G22KT 10SM OVC016 07/05 A3032 -320 86 -1300 020/16G22 RMK AO2 T00720050
13976KLFT LFT20191213143511712/13/19 14:35:31  5-MIN KLFT 132035Z AUTO 00000KT 10SM SCT034 OVC047 18/12 A2983 120 67 600 000/00 RMK AO2 T01830122
13976KLFT LFT20191213144011712/13/19 14:40:31  5-MIN KLFT 132040Z AUTO 00000KT 10SM FEW034 BKN047 19/12 A2983 120 65 600 000/00 RMK AO2 T01890122
13976KLFT LFT20191213144511012/13/19 14:45:31  5-MIN KLFT 132045Z AUTO 00000KT 10SM BKN047 19/12 A2983 130 65 700 000/00 RMK AO2 T01890122
13976KLFT LFT20191213145012512/13/19 14:50:31  5-MIN KLFT 132050Z 00000KT 10SM SCT038 SCT047 19/12 A2983 130 65 700 000/00 RMK AO2 SLP100 T01890122 58020
13976KLFT LFT20191213145511212/13/19 14:55:31  5-MIN KLFT 132055Z 00000KT 10SM SCT038 BKN047 18/12 A2983 130 67 600 000/00 RMK AO2 T01830122
13976KLFT LFT20191213150011212/13/19 15:00:31  5-MIN KLFT 132100Z 00000KT 10SM SCT038 BKN047 19/12 A2983 130 65 700 000/00 RMK AO2 T01890122
13976KLFT LFT20191213150510512/13/19 15:05:31  5-MIN KLFT 132105Z 00000KT 10SM BKN041 19/12 A2983 130 65 700 000/00 RMK AO2 T01890122
13976KLFT LFT20191213151011212/13/19 15:10:31  5-MIN KLFT 132110Z 00000KT 10SM BKN041 OVC050 19/12 A2983 130 65 700 000/00 RMK AO2 T01890122
13976KLFT LFT20191213151511212/13/19 15:15:31  5-MIN KLFT 132115Z 00000KT 10SM BKN039 OVC050 18/12 A2983 130 67 600 000/00 RMK AO2 T01830122
13976KLFT LFT20191213152011212/13/19 15:20:31  5-MIN KLFT 132120Z 00000KT 10SM BKN041 BKN050 18/12 A2983 130 67 600 000/00 RMK AO2 T01830122
13976KLFT LFT20191213152511212/13/19 15:25:31  5-MIN KLFT 132125Z 00000KT 10SM SCT042 BKN050 19/12 A2983 130 65 700 000/00 RMK AO2 T01890122
13976KLFT LFT20191213153011212/13/19 15:30:31  5-MIN KLFT 132130Z 00000KT 10SM FEW040 SCT050 18/12 A2984 120 67 600 000/00 RMK AO2 T01830122
13976KLFT LFT20191213153511212/13/19 15:35:31  5-MIN KLFT 132135Z 00000KT 10SM FEW040 SCT050 19/12 A2984 120 65 600 000/00 RMK AO2 T01890122
13976KLFT LFT20191213154011212/13/19 15:40:31  5-MIN KLFT 132140Z 00000KT 10SM FEW039 SCT050 19/12 A2983 130 65 700 000/00 RMK AO2 T01890122
13976KLFT LFT20191213154511212/13/19 15:45:31  5-MIN KLFT 132145Z 00000KT 10SM FEW042 SCT050 19/12 A2983 130 65 700 000/00 RMK AO2 T01890122
13976KLFT LFT20191213155011912/13/19 15:50:31  5-MIN KLFT 132150Z 00000KT 10SM FEW042 FEW050 19/12 A2983 130 65 700 000/00 RMK AO2 SLP099 T01890122
13976KLFT LFT20191213155511212/13/19 15:55:31  5-MIN KLFT 132155Z 00000KT 10SM FEW039 FEW050 19/12 A2983 130 65 700 000/00 RMK AO2 T01890122
13976KLFT LFT20191213160011212/13/19 16:00:31  5-MIN KLFT 132200Z 00000KT 10SM FEW042 FEW050 19/12 A2982 130 65 700 000/00 RMK AO2 T01890122
13976KLFT LFT20191213160510212/13/19 16:05:31  5-MIN KLFT 132205Z 00000KT 10SM CLR 19/12 A2982 140 65 700 000/00 RMK AO2 T01890122
13976KLFT LFT20191213161010212/13/19 16:10:31  5-MIN KLFT 132210Z 00000KT 10SM CLR 18/12 A2982 140 65 600 000/00 RMK AO2 T01830117
13976KLFT LFT20191213161510212/13/19 16:15:31  5-MIN KLFT 132215Z 00000KT 10SM CLR 18/12 A2982 140 65 600 000/00 RMK AO2 T01830117
13976KLFT LFT20191213162010512/13/19 16:20:31  5-MIN KLFT 132220Z 00000KT 10SM FEW048 19/12 A2982 140 65 700 000/00 RMK AO2 T01890122
13976KLFT LFT20191213162510512/13/19 16:25:31  5-MIN KLFT 132225Z 00000KT 10SM FEW048 18/12 A2982 140 67 600 000/00 RMK AO2 T01830122
13976KLFT LFT20191213163010212/13/19 16:30:31  5-MIN KLFT 132230Z 00000KT 10SM CLR 18/12 A2982 140 67 600 000/00 RMK AO2 T01830122
13976KLFT LFT20191213163510212/13/19 16:35:31  5-MIN KLFT 132235Z 00000KT 10SM CLR 18/12 A2982 140 67 600 000/00 RMK AO2 T01830122
13976KLFT LFT20191213164010212/13/19 16:40:31  5-MIN KLFT 132240Z 10003KT 10SM CLR 18/12 A2981 140 67 600 090/03 RMK AO2 T01830122
13976KLFT LFT20191213164510212/13/19 16:45:31  5-MIN KLFT 132245Z 08003KT 10SM CLR 18/12 A2981 150 67 600 080/03 RMK AO2 T01830122
13976KLFT LFT20191213165010912/13/19 16:50:31  5-MIN KLFT 132250Z 00000KT 10SM CLR 18/12 A2981 140 69 500 000/00 RMK AO2 SLP095 T01780122
13976KLFT LFT20191213165510212/13/19 16:55:31  5-MIN KLFT 132255Z 00000KT 10SM CLR 18/12 A2982 140 69 500 000/00 RMK AO2 T01780122
13976KLFT LFT20191213170010212/13/19 17:00:31  5-MIN KLFT 132300Z 00000KT 10SM CLR 18/12 A2982 140 69 500 000/00 RMK AO2 T01780122
13976KLFT LFT20191213170510212/13/19 17:05:31  5-MIN KLFT 132305Z 00000KT 10SM CLR 18/12 A2982 140 69 500 000/00 RMK AO2 T01780122
13976KLFT LFT20191213171010212/13/19 17:10:31  5-MIN KLFT 132310Z 11003KT 10SM CLR 17/12 A2982 140 72 500 110/03 RMK AO2 T01720122
13976KLFT LFT20191213171510212/13/19 17:15:31  5-MIN KLFT 132315Z 00000KT 10SM CLR 17/12 A2981 140 72 500 000/00 RMK AO2 T01720122
13976KLFT LFT20191213172010212/13/19 17:20:31  5-MIN KLFT 132320Z 00000KT 10SM CLR 17/12 A2982 140 75 400 000/00 RMK AO2 T01670122
13976KLFT LFT20191213172510212/13/19 17:25:31  5-MIN KLFT 132325Z 00000KT 10SM CLR 17/12 A2981 150 75 400 000/00 RMK AO2 T01670122
13976KLFT LFT20191213173010212/13/19 17:30:31  5-MIN KLFT 132330Z 11003KT 10SM CLR 17/12 A2981 150 75 400 110/03 RMK AO2 T01670122
13976KLFT LFT20191213173510212/13/19 17:35:31  5-MIN KLFT 132335Z 00000KT 10SM CLR 17/12 A2981 150 75 400 000/00 RMK AO2 T01670122
13976KLFT LFT20191213174010212/13/19 17:40:31  5-MIN KLFT 132340Z 00000KT 10SM CLR 16/12 A2981 150 77 400 000/00 RMK AO2 T01610122
13976KLFT LFT20191213174510212/13/19 17:45:31  5-MIN KLFT 132345Z 00000KT 10SM CLR 16/12 A2980 150 77 400 000/00 RMK AO2 T01610122
13976KLFT LFT20191213175012712/13/19 17:50:31  5-MIN KLFT 132350Z 00000KT 10SM CLR 16/12 A2980 150 77 400 000/00 RMK AO2 SLP091 T01610122 10189 20156 56033
13976KLFT LFT20191213175510212/13/19 17:55:31  5-MIN KLFT 132355Z 00000KT 10SM CLR 16/12 A2980 150 77 400 000/00 RMK AO2 T01610122
13976KLFT LFT20191213180010212/13/19 18:00:31  5-MIN KLFT 140000Z 00000KT 10SM CLR 16/12 A2980 150 80 300 000/00 RMK AO2 T01560122
13976KLFT LFT20191213180510212/13/19 18:05:31  5-MIN KLFT 140005Z 00000KT 10SM CLR 16/12 A2980 150 80 300 000/00 RMK AO2 T01560122
13976KLFT LFT20191213181010212/13/19 18:10:31  5-MIN KLFT 140010Z 00000KT 10SM CLR 15/12 A2981 150 83 200 000/00 RMK AO2 T01500122
13976KLFT LFT20191213181510212/13/19 18:15:31  5-MIN KLFT 140015Z 00000KT 10SM CLR 15/12 A2981 150 83 200 000/00 RMK AO2 T01500122
13976KLFT LFT20191213182010212/13/19 18:20:31  5-MIN KLFT 140020Z 00000KT 10SM CLR 14/12 A2981 140 83 200 000/00 RMK AO2 T01440117
13976KLFT LFT20191213182510212/13/19 18:25:31  5-MIN KLFT 140025Z 07003KT 10SM CLR 14/12 A2981 140 83 200 070/03 RMK AO2 T01440117
13976KLFT LFT20191213183010212/13/19 18:30:31  5-MIN KLFT 140030Z 00000KT 10SM CLR 14/12 A2982 140 83 100 000/00 RMK AO2 T01440117
13976KLFT LFT20191213183510212/13/19 18:35:31  5-MIN KLFT 140035Z 00000KT 10SM CLR 14/12 A2982 140 83 100 000/00 RMK AO2 T01440117
13976KLFT LFT20191213184010212/13/19 18:40:31  5-MIN KLFT 140040Z 00000KT 10SM CLR 14/12 A2982 140 83 100 000/00 RMK AO2 T01440117
13976KLFT LFT20191213184510212/13/19 18:45:31  5-MIN KLFT 140045Z 03003KT 10SM CLR 14/11 A2983 130 83 100 030/03 RMK AO2 T01390111
13976KLFT LFT20191213185010712/13/19 18:50:31  5-MIN KLFT 140050Z 03004KT 10SM CLR 13/11 A2983 130 86 0 030/04 RMK AO2 SLP100 T01330111
13976KLFT LFT20191213185510012/13/19 18:55:31  5-MIN KLFT 140055Z 01003KT 10SM CLR 13/11 A2983 130 86 0 010/03 RMK AO2 T01330111
13976KLFT LFT20191213190010212/13/19 19:00:31  5-MIN KLFT 140100Z 00000KT 10SM CLR 14/11 A2984 120 83 100 000/00 RMK AO2 T01390111
13976KLFT LFT20191213190510312/13/19 19:05:31  5-MIN KLFT 140105Z 33003KT 10SM FEW029 13/11 A2984 120 83 0 330/03 RMK AO2 T01330106
13976KLFT LFT20191213191010312/13/19 19:10:31  5-MIN KLFT 140110Z 32003KT 10SM SCT029 13/11 A2984 120 86 0 320/03 RMK AO2 T01330111
13976KLFT LFT20191213191511212/13/19 19:15:31  5-MIN KLFT 140115Z 00000KT 10SM SCT031 BKN047 14/12 A2984 120 86 100 000/00 RMK AO2 T01390117
13976KLFT LFT20191213192011212/13/19 19:20:31  5-MIN KLFT 140120Z 00000KT 10SM BKN031 BKN047 14/12 A2984 120 86 100 000/00 RMK AO2 T01390117
13976KLFT LFT20191213192511212/13/19 19:25:31  5-MIN KLFT 140125Z 00000KT 10SM SCT031 BKN049 14/12 A2983 130 86 100 000/00 RMK AO2 T01390117
13976KLFT LFT20191213193011212/13/19 19:30:31  5-MIN KLFT 140130Z 00000KT 10SM SCT030 BKN049 14/12 A2983 130 86 100 000/00 RMK AO2 T01390117
13976KLFT LFT20191213193511912/13/19 19:35:31  5-MIN KLFT 140135Z 00000KT 10SM SCT030 BKN047 BKN055 14/12 A2983 130 86 100 000/00 RMK AO2 T01390117
13976KLFT LFT20191213194011912/13/19 19:40:31  5-MIN KLFT 140140Z 00000KT 10SM FEW030 BKN047 BKN055 14/12 A2983 130 86 100 000/00 RMK AO2 T01390117
13976KLFT LFT20191213194511212/13/19 19:45:31  5-MIN KLFT 140145Z 00000KT 10SM FEW030 SCT047 14/12 A2983 130 90 100 000/00 RMK AO2 T01390122
13976KLFT LFT20191213195011712/13/19 19:50:31  5-MIN KLFT 140150Z 00000KT 10SM SCT047 SCT055 13/12 A2983 130 89 0 000/00 RMK AO2 SLP101 T01330117
13976KLFT LFT20191213195511012/13/19 19:55:31  5-MIN KLFT 140155Z 00000KT 10SM FEW042 FEW050 13/12 A2983 130 89 0 000/00 RMK AO2 T01330117
13976KLFT LFT20191213200011012/13/19 20:00:31  5-MIN KLFT 140200Z 00000KT 10SM FEW042 FEW050 13/12 A2983 130 93 0 000/00 RMK AO2 T01330122
13976KLFT LFT20191213200510012/13/19 20:05:31  5-MIN KLFT 140205Z 00000KT 10SM CLR 13/12 A2983 130 89 0 000/00 RMK AO2 T01330117
13976KLFT LFT20191213201010012/13/19 20:10:31  5-MIN KLFT 140210Z 17003KT 10SM CLR 13/12 A2983 130 89 0 170/03 RMK AO2 T01330117
13976KLFT LFT20191213201510012/13/19 20:15:31  5-MIN KLFT 140215Z 00000KT 10SM CLR 13/12 A2983 130 89 0 000/00 RMK AO2 T01330117
13976KLFT LFT20191213202010012/13/19 20:20:31  5-MIN KLFT 140220Z 00000KT 10SM CLR 13/12 A2983 130 89 0 000/00 RMK AO2 T01330117
13976KLFT LFT20191213202510012/13/19 20:25:31  5-MIN KLFT 140225Z 00000KT 10SM CLR 13/12 A2983 130 93 0 000/00 RMK AO2 T01280117
13976KLFT LFT20191213203010012/13/19 20:30:31  5-MIN KLFT 140230Z 00000KT 10SM CLR 13/12 A2983 130 93 0 000/00 RMK AO2 T01280117
13976KLFT LFT20191213203510012/13/19 20:35:31  5-MIN KLFT 140235Z 00000KT 10SM CLR 13/12 A2983 130 93 0 000/00 RMK AO2 T01280117
13976KLFT LFT20191213204010012/13/19 20:40:31  5-MIN KLFT 140240Z 00000KT 10SM CLR 13/12 A2983 130 89 0 000/00 RMK AO2 T01330117
13976KLFT LFT20191213204510012/13/19 20:45:31  5-MIN KLFT 140245Z 00000KT 10SM CLR 13/12 A2983 130 93 0 000/00 RMK AO2 T01330122
13976KLFT LFT20191213205011312/13/19 20:50:31  5-MIN KLFT 140250Z 00000KT 10SM CLR 13/12 A2983 130 93 0 000/00 RMK AO2 SLP101 T01330122 58009
13976KLFT LFT20191213205510012/13/19 20:55:31  5-MIN KLFT 140255Z 00000KT 10SM CLR 13/12 A2983 130 93 0 000/00 RMK AO2 T01330122
13976KLFT LFT20191213210010312/13/19 21:00:31  5-MIN KLFT 140300Z 00000KT 10SM FEW060 13/12 A2983 130 93 0 000/00 RMK AO2 T01280117
13976KLFT LFT20191213210510312/13/19 21:05:31  5-MIN KLFT 140305Z 00000KT 10SM FEW060 13/11 A2983 130 89 0 000/00 RMK AO2 T01280111
13976KLFT LFT20191213211010312/13/19 21:10:31  5-MIN KLFT 140310Z 00000KT 10SM FEW060 13/11 A2983 130 89 0 000/00 RMK AO2 T01280111
13976KLFT LFT20191213211510312/13/19 21:15:31  5-MIN KLFT 140315Z 00000KT 10SM FEW060 13/11 A2983 130 89 0 000/00 RMK AO2 T01280111
13976KLFT LFT20191213212010612/13/19 21:20:31  5-MIN KLFT 140320Z 00000KT 10SM FEW060 12/11 A2983 120 93 -100 000/00 RMK AO2 T01220111
13976KLFT LFT20191213212511312/13/19 21:25:31  5-MIN KLFT 140325Z 00000KT 10SM FEW043 SCT060 12/11 A2984 120 93 -100 000/00 RMK AO2 T01220111
13976KLFT LFT20191213213011312/13/19 21:30:31  5-MIN KLFT 140330Z 00000KT 10SM SCT043 SCT060 12/11 A2984 120 93 -100 000/00 RMK AO2 T01220111
13976KLFT LFT20191213213510612/13/19 21:35:31  5-MIN KLFT 140335Z 00000KT 10SM FEW043 12/11 A2984 120 93 -100 000/00 RMK AO2 T01220111
13976KLFT LFT20191213214010612/13/19 21:40:31  5-MIN KLFT 140340Z 00000KT 10SM SCT045 12/11 A2984 120 93 -100 000/00 RMK AO2 T01220111
13976KLFT LFT20191213214510612/13/19 21:45:31  5-MIN KLFT 140345Z 00000KT 10SM SCT045 12/11 A2984 120 93 -100 000/00 RMK AO2 T01220111
13976KLFT LFT20191213215011212/13/19 21:50:31  5-MIN KLFT 140350Z 00000KT 9SM BKN047 12/11 A2984 120 93 -100 000/00 RMK AO2 SLP103 T01220111
13976KLFT LFT20191213215510512/13/19 21:55:31  5-MIN KLFT 140355Z 00000KT 9SM BKN045 12/11 A2984 120 96 -200 000/00 RMK AO2 T01170111
13976KLFT LFT20191213220010612/13/19 22:00:31  5-MIN KLFT 140400Z 00000KT 10SM BKN045 12/11 A2984 120 93 -100 000/00 RMK AO2 T01220111
13976KLFT LFT20191213220510512/13/19 22:05:31  5-MIN KLFT 140405Z 00000KT 9SM SCT045 12/11 A2984 120 93 -200 000/00 RMK AO2 T01170106
13976KLFT LFT20191213221010812/13/19 22:10:31  5-MIN KLFT 140410Z 00000KT 6SM BR FEW045 12/11 A2984 120 93 -200 000/00 RMK AO2 T01170106
13976KLFT LFT20191213221510812/13/19 22:15:31  5-MIN KLFT 140415Z 00000KT 6SM BR FEW043 12/11 A2984 120 93 -200 000/00 RMK AO2 T01170106
13976KLFT LFT20191213222011712/13/19 22:20:31  5-MIN KLFT 140420Z AUTO 00000KT 7SM FEW043 SCT055 12/11 A2984 120 93 -200 000/00 RMK AO2 T01170106
13976KLFT LFT20191213222511012/13/19 22:25:31  5-MIN KLFT 140425Z AUTO 03003KT 8SM SCT055 12/11 A2984 120 89 -100 030/03 RMK AO2 T01220106
13976KLFT LFT20191213223011712/13/19 22:30:31  5-MIN KLFT 140430Z AUTO 02003KT 8SM FEW047 BKN055 11/10 A2984 120 93 -200 020/03 RMK AO2 T01110100
13976KLFT LFT20191213223511712/13/19 22:35:31  5-MIN KLFT 140435Z AUTO 04004KT 9SM FEW047 BKN055 11/10 A2984 120 93 -200 040/04 RMK AO2 T01110100
13976KLFT LFT20191213224011812/13/19 22:40:31  5-MIN KLFT 140440Z AUTO 03004KT 10SM FEW047 BKN055 11/10 A2984 120 93 -200 030/04 RMK AO2 T01110100
13976KLFT LFT20191213224512412/13/19 22:45:31  5-MIN KLFT 140445Z AUTO 04003KT 9SM FEW025 SCT047 BKN055 11/10 A2985 110 93 -200 040/03 RMK AO2 T01110100
13976KLFT LFT20191213225013112/13/19 22:50:31  5-MIN KLFT 140450Z AUTO 00000KT 8SM FEW019 SCT024 BKN055 12/11 A2985 110 93 -200 000/00 RMK AO2 SLP106 T01170106
13976KLFT LFT20191213225512412/13/19 22:55:31  5-MIN KLFT 140455Z AUTO 00000KT 9SM SCT019 BKN029 BKN047 12/11 A2984 110 93 -200 000/00 RMK AO2 T01170106
13976KLFT LFT20191213230012512/13/19 23:00:31  5-MIN KLFT 140500Z AUTO 00000KT 10SM SCT019 BKN024 BKN029 12/11 A2985 110 89 -100 000/00 RMK AO2 T01220106
13976KLFT LFT20191213230512512/13/19 23:05:31  5-MIN KLFT 140505Z AUTO 30003KT 10SM BKN021 BKN029 BKN055 12/11 A2985 110 93 -100 300/03 RMK AO2 T01220111
13976KLFT LFT20191213231011512/13/19 23:10:31  5-MIN KLFT 140510Z AUTO 00000KT 10SM BKN021 BKN029 13/11 A2985 110 89 0 000/00 RMK AO2 T01280111
13976KLFT LFT20191213231510812/13/19 23:15:31  5-MIN KLFT 140515Z AUTO 00000KT 10SM BKN021 13/11 A2984 120 89 0 000/00 RMK AO2 T01280111
13976KLFT LFT20191213232010812/13/19 23:20:31  5-MIN KLFT 140520Z AUTO 00000KT 10SM SCT021 13/11 A2984 110 89 0 000/00 RMK AO2 T01280111
13976KLFT LFT20191213232511112/13/19 23:25:31  5-MIN KLFT 140525Z AUTO 00000KT 10SM SCT021 12/11 A2985 110 93 -100 000/00 RMK AO2 T01220111
13976KLFT LFT20191213233011712/13/19 23:30:31  5-MIN KLFT 140530Z AUTO 00000KT 8SM FEW021 SCT038 12/11 A2985 110 96 -200 000/00 RMK AO2 T01170111
13976KLFT LFT20191213233511712/13/19 23:35:31  5-MIN KLFT 140535Z AUTO 27003KT 8SM SCT023 BKN038 12/11 A2985 110 93 -100 270/03 RMK AO2 T01220111
13976KLFT LFT20191213234011512/13/19 23:40:31  5-MIN KLFT 140540Z AUTO 00000KT 10SM BKN023 BKN038 13/12 A2984 110 93 0 000/00 RMK AO2 T01280117
13976KLFT LFT20191213234511812/13/19 23:45:31  5-MIN KLFT 140545Z AUTO 00000KT 10SM BKN023 BKN038 12/11 A2985 110 93 -100 000/00 RMK AO2 T01220111
13976KLFT LFT20191213235010412/13/19 23:50:31  5-MIN KLFT 140550Z AUTO 00000KT 9SM SCT023 BKN038 13/11 A2985 110 89 0 000/00 RMK AO2
13976KLFT LFT20191213235511712/13/19 23:55:31  5-MIN KLFT 140555Z AUTO 00000KT 9SM SCT023 SCT037 12/11 A2985 110 93 -100 000/00 RMK AO2 T01220111
13976KLFT LFT20191214000010712/14/19 00:00:31  5-MIN KLFT 140600Z AUTO 00000KT 8SM SCT023 13/11 A2985 110 89 0 000/00 RMK AO2 T01280111
13976KLFT LFT20191214000510712/14/19 00:05:31  5-MIN KLFT 140605Z AUTO 00000KT 8SM FEW023 13/11 A2984 120 89 0 000/00 RMK AO2 T01280111
13976KLFT LFT20191214001011012/14/19 00:10:31  5-MIN KLFT 140610Z AUTO 00000KT 7SM FEW016 12/11 A2983 130 93 -100 000/00 RMK AO2 T01220111
13976KLFT LFT20191214001511312/14/19 00:15:31  5-MIN KLFT 140615Z AUTO 00000KT 6SM BR SCT016 12/11 A2984 120 96 -200 000/00 RMK AO2 T01170111
13976KLFT LFT20191214002011312/14/19 00:20:31  5-MIN KLFT 140620Z AUTO 00000KT 5SM BR SCT016 12/11 A2984 120 96 -200 000/00 RMK AO2 T01170111
13976KLFT LFT20191214002511712/14/19 00:25:31  5-MIN KLFT 140625Z AUTO 20003KT 1 3/4SM BR SCT016 11/10 A2984 120 96 -300 200/03 RMK AO2 T01060100
13976KLFT LFT20191214003011712/14/19 00:30:31  5-MIN KLFT 140630Z AUTO 19003KT 1 3/4SM BR BKN016 11/11 A2984 120 96 -200 190/03 RMK AO2 T01110106
13976KLFT LFT20191214003511312/14/19 00:35:31  5-MIN KLFT 140635Z AUTO 00000KT 5SM BR BKN016 12/11 A2984 120 96 -200 000/00 RMK AO2 T01170111
13976KLFT LFT20191214004011312/14/19 00:40:31  5-MIN KLFT 140640Z AUTO 20003KT 6SM BR OVC016 12/11 A2984 120 96 -200 200/03 RMK AO2 T01170111
13976KLFT LFT20191214004511312/14/19 00:45:31  5-MIN KLFT 140645Z AUTO 00000KT 5SM BR OVC016 12/11 A2983 120 93 -100 000/00 RMK AO2 T01220111
13976KLFT LFT20191214005012012/14/19 00:50:31  5-MIN KLFT 140650Z AUTO 00000KT 5SM BR OVC016 12/12 A2984 120 96 -100 000/00 RMK AO2 SLP103 T01220117
13976KLFT LFT20191214005511012/14/19 00:55:31  5-MIN KLFT 140655Z AUTO 00000KT 6SM BR OVC014 13/12 A2983 130 93 0 000/00 RMK AO2 T01280117
13976KLFT LFT20191214010011012/14/19 01:00:31  5-MIN KLFT 140700Z AUTO 00000KT 6SM BR OVC014 13/12 A2984 120 93 0 000/00 RMK AO2 T01280117
13976KLFT LFT20191214010511012/14/19 01:05:31  5-MIN KLFT 140705Z AUTO 00000KT 6SM BR OVC014 13/12 A2984 120 96 0 000/00 RMK AO2 T01280122
13976KLFT LFT20191214011011012/14/19 01:10:31  5-MIN KLFT 140710Z AUTO 00000KT 6SM BR OVC011 13/12 A2984 120 96 0 000/00 RMK AO2 T01280122
13976KLFT LFT20191214011511012/14/19 01:15:31  5-MIN KLFT 140715Z AUTO 00000KT 6SM BR OVC011 13/12 A2983 130 96 0 000/00 RMK AO2 T01280122
13976KLFT LFT20191214012012212/14/19 01:20:31  5-MIN KLFT 140720Z AUTO 00000KT 6SM BR OVC009 13/12 A2984 120 96 0 000/00 RMK AO2 CIG 009V013 T01280122
13976KLFT LFT20191214012511912/14/19 01:25:31  5-MIN KLFT 140725Z AUTO 00000KT 7SM OVC009 13/12 A2983 130 93 0 000/00 RMK AO2 CIG 007V012 T01280117
13976KLFT LFT20191214013011912/14/19 01:30:31  5-MIN KLFT 140730Z AUTO 00000KT 7SM OVC009 13/12 A2984 120 96 0 000/00 RMK AO2 CIG 006V012 T01280122
13976KLFT LFT20191214013511912/14/19 01:35:31  5-MIN KLFT 140735Z AUTO 00000KT 7SM OVC009 13/12 A2983 120 93 0 000/00 RMK AO2 CIG 006V011 T01280117
13976KLFT LFT20191214014011912/14/19 01:40:31  5-MIN KLFT 140740Z AUTO 00000KT 7SM OVC009 13/12 A2983 120 93 0 000/00 RMK AO2 CIG 006V011 T01280117
13976KLFT LFT20191214014511912/14/19 01:45:31  5-MIN KLFT 140745Z AUTO 00000KT 7SM OVC009 13/12 A2984 120 93 0 000/00 RMK AO2 CIG 006V011 T01280117
13976KLFT LFT20191214015012612/14/19 01:50:31  5-MIN KLFT 140750Z AUTO 00000KT 7SM OVC009 13/12 A2983 120 93 0 000/00 RMK AO2 CIG 006V011 SLP102 T01280117
13976KLFT LFT20191214015511912/14/19 01:55:31  5-MIN KLFT 140755Z AUTO 00000KT 7SM OVC007 13/12 A2984 120 93 0 000/00 RMK AO2 CIG 005V010 T01280117
13976KLFT LFT20191214020011912/14/19 02:00:31  5-MIN KLFT 140800Z AUTO 00000KT 7SM OVC007 13/12 A2983 130 93 0 000/00 RMK AO2 CIG 005V010 T01280117
13976KLFT LFT20191214020512212/14/19 02:05:31  5-MIN KLFT 140805Z AUTO 00000KT 6SM BR OVC007 13/12 A2983 130 93 0 000/00 RMK AO2 CIG 005V010 T01280117
13976KLFT LFT20191214021012212/14/19 02:10:31  5-MIN KLFT 140810Z AUTO 00000KT 6SM BR OVC007 13/12 A2983 120 96 0 000/00 RMK AO2 CIG 005V009 T01280122
13976KLFT LFT20191214021511012/14/19 02:15:31  5-MIN KLFT 140815Z AUTO 00000KT 6SM BR OVC005 13/12 A2984 120 93 0 000/00 RMK AO2 T01330122
13976KLFT LFT20191214022011012/14/19 02:20:31  5-MIN KLFT 140820Z AUTO 00000KT 6SM BR OVC005 13/12 A2983 130 93 0 000/00 RMK AO2 T01330122
13976KLFT LFT20191214022511012/14/19 02:25:31  5-MIN KLFT 140825Z AUTO 00000KT 6SM BR OVC005 13/12 A2983 130 93 0 000/00 RMK AO2 T01330122
13976KLFT LFT20191214023011012/14/19 02:30:31  5-MIN KLFT 140830Z AUTO 00000KT 5SM BR OVC005 13/12 A2983 130 93 0 000/00 RMK AO2 T01330122
13976KLFT LFT20191217181011412/17/19 18:10:31  5-MIN KLFT 180010Z 36015G25KT 10SM OVC026 06/01 A3028 -280 67 -1300 360/15G25 RMK AO2 T00610006
13976KLFT LFT20191217181511412/17/19 18:15:31  5-MIN KLFT 180015Z 01013G21KT 10SM OVC026 06/01 A3028 -280 67 -1300 360/13G21 RMK AO2 T00610006
13976KLFT LFT20191217182011412/17/19 18:20:31  5-MIN KLFT 180020Z 01017G24KT 10SM OVC028 06/01 A3028 -280 67 -1300 010/17G24 RMK AO2 T00610006
13976KLFT LFT20191217182513212/17/19 18:25:31  5-MIN KLFT 180025Z 01018G26KT 10SM OVC028 06/00 A3028 -280 67 -1400 360/18G26 RMK AO2 PK WND 01026/0025 T00560000
13976KLFT LFT20191217183013212/17/19 18:30:31  5-MIN KLFT 180030Z 01013G26KT 10SM OVC028 06/00 A3028 -280 67 -1400 360/13G26 RMK AO2 PK WND 01026/0025 T00560000
13976KLFT LFT20191217183513212/17/19 18:35:31  5-MIN KLFT 180035Z 36015G23KT 10SM OVC028 06/01 A3028 -280 70 -1400 350/15G23 RMK AO2 PK WND 01026/0025 T00560006
13976KLFT LFT20191217184012612/17/19 18:40:31  5-MIN KLFT 180040Z 36015KT 10SM OVC028 06/01 A3028 -280 70 -1400 360/15 RMK AO2 PK WND 01026/0025 T00560006
13976KLFT LFT20191217184513212/17/19 18:45:31  5-MIN KLFT 180045Z 35017G22KT 10SM OVC028 06/01 A3029 -290 70 -1400 350/17G22 RMK AO2 PK WND 01026/0025 T00560006
13976KLFT LFT20191217185013912/17/19 18:50:31  5-MIN KLFT 180050Z 36013G23KT 10SM OVC028 06/00 A3029 -290 67 -1400 360/13G23 RMK AO2 PK WND 01026/0025 SLP257 T00560000
13976KLFT LFT20191217185511412/17/19 18:55:31  5-MIN KLFT 180055Z 01015G23KT 10SM OVC028 06/00 A3029 -290 67 -1400 010/15G23 RMK AO2 T00560000
13976KLFT LFT20191217190010812/17/19 19:00:31  5-MIN KLFT 180100Z 36015KT 10SM OVC028 06/00 A3029 -290 67 -1400 360/15 RMK AO2 T00560000
13976KLFT LFT20191217190513212/17/19 19:05:31  5-MIN KLFT 180105Z 36018G26KT 10SM OVC028 06/00 A3029 -290 67 -1400 350/18G26 RMK AO2 PK WND 36026/0103 T00560000
13976KLFT LFT20191217191013212/17/19 19:10:31  5-MIN KLFT 180110Z 01011G26KT 10SM BKN028 05/00 A3029 -290 70 -1500 010/11G26 RMK AO2 PK WND 36026/0103 T00500000
13976KLFT LFT20191217191513212/17/19 19:15:31  5-MIN KLFT 180115Z 36013G19KT 10SM BKN028 05/00 A3030 -300 70 -1500 360/13G19 RMK AO2 PK WND 36026/0103 T00500000
13976KLFT LFT20191217192013212/17/19 19:20:31  5-MIN KLFT 180120Z 36013G19KT 10SM SCT028 05/00 A3029 -290 70 -1500 360/13G19 RMK AO2 PK WND 36026/0103 T00500000
13976KLFT LFT20191217192512612/17/19 19:25:31  5-MIN KLFT 180125Z 36013KT 10SM SCT028 05/00 A3030 -300 70 -1500 360/13 RMK AO2 PK WND 36026/0103 T00500000
13976KLFT LFT20191217193012612/17/19 19:30:31  5-MIN KLFT 180130Z 01011KT 10SM FEW028 05/00 A3030 -300 70 -1500 010/11 RMK AO2 PK WND 36026/0103 T00500000
13976KLFT LFT20191217193512912/17/19 19:35:31  5-MIN KLFT 180135Z 35010G19KT 10SM CLR 05/00 A3030 -300 70 -1500 350/10G19 RMK AO2 PK WND 36026/0103 T00500000
13976KLFT LFT20191217194012912/17/19 19:40:31  5-MIN KLFT 180140Z 36009G19KT 10SM CLR 05/00 A3030 -300 70 -1500 360/09G19 RMK AO2 PK WND 36026/0103 T00500000
13976KLFT LFT20191217194512312/17/19 19:45:31  5-MIN KLFT 180145Z 36010KT 10SM CLR 05/00 A3030 -300 70 -1500 360/10 RMK AO2 PK WND 36026/0103 T00500000
13976KLFT LFT20191217195013012/17/19 19:50:31  5-MIN KLFT 180150Z 36010KT 10SM CLR 05/00 A3031 -310 70 -1500 360/10 RMK AO2 PK WND 36026/0103 SLP262 T00500000
13976KLFT LFT20191217195510512/17/19 19:55:31  5-MIN KLFT 180155Z 36010KT 10SM CLR 04/00 A3031 -310 73 -1600 360/10 RMK AO2 T00440000
13976KLFT LFT20191217200010512/17/19 20:00:31  5-MIN KLFT 180200Z 36009KT 10SM CLR 04/00 A3031 -310 73 -1600 360/09 RMK AO2 T00440000
13976KLFT LFT20191217200510512/17/19 20:05:31  5-MIN KLFT 180205Z 36008KT 10SM CLR 04/00 A3031 -300 73 -1600 360/08 RMK AO2 T00440000
13976KLFT LFT20191217201010512/17/19 20:10:31  5-MIN KLFT 180210Z 36009KT 10SM CLR 04/00 A3031 -310 73 -1600 360/09 RMK AO2 T00440000
13976KLFT LFT20191217201510512/17/19 20:15:31  5-MIN KLFT 180215Z 36010KT 10SM CLR 04/00 A3031 -310 73 -1600 360/10 RMK AO2 T00440000
13976KLFT LFT20191217202010512/17/19 20:20:31  5-MIN KLFT 180220Z 36010KT 10SM CLR 04/00 A3031 -310 73 -1600 360/10 RMK AO2 T00440000
13976KLFT LFT20191217202510512/17/19 20:25:31  5-MIN KLFT 180225Z 36008KT 10SM CLR 04/00 A3031 -310 73 -1600 360/08 RMK AO2 T00440000
13976KLFT LFT20191217203010512/17/19 20:30:31  5-MIN KLFT 180230Z 36008KT 10SM CLR 04/00 A3031 -310 76 -1700 360/08 RMK AO2 T00390000
13976KLFT LFT20191217203510512/17/19 20:35:31  5-MIN KLFT 180235Z 36007KT 10SM CLR 04/00 A3031 -310 76 -1700 360/07 RMK AO2 T00390000
13976KLFT LFT20191217204010512/17/19 20:40:31  5-MIN KLFT 180240Z 36007KT 10SM CLR 04/00 A3031 -310 76 -1700 360/07 RMK AO2 T00390000
13976KLFT LFT20191217204510512/17/19 20:45:31  5-MIN KLFT 180245Z 36007KT 10SM CLR 04/00 A3031 -310 76 -1700 360/07 RMK AO2 T00390000
13976KLFT LFT20191217205011812/17/19 20:50:31  5-MIN KLFT 180250Z 36008KT 10SM CLR 04/00 A3031 -310 76 -1700 360/08 RMK AO2 SLP264 T00390000 53022
13976KLFT LFT20191217205510512/17/19 20:55:31  5-MIN KLFT 180255Z 36009KT 10SM CLR 04/00 A3031 -310 76 -1700 360/09 RMK AO2 T00390000
13976KLFT LFT20191217210010512/17/19 21:00:31  5-MIN KLFT 180300Z 36009KT 10SM CLR 04/00 A3032 -310 76 -1700 360/09 RMK AO2 T00390000
13976KLFT LFT20191217210510512/17/19 21:05:31  5-MIN KLFT 180305Z 36009KT 10SM CLR 04/00 A3031 -310 76 -1700 350/09 RMK AO2 T00390000
13976KLFT LFT20191217211010512/17/19 21:10:31  5-MIN KLFT 180310Z 36009KT 10SM CLR 04/00 A3032 -320 76 -1700 350/09 RMK AO2 T00390000
13976KLFT LFT20191217211510512/17/19 21:15:31  5-MIN KLFT 180315Z 36007KT 10SM CLR 04/00 A3032 -320 76 -1700 360/07 RMK AO2 T00390000
13976KLFT LFT20191217212010512/17/19 21:20:31  5-MIN KLFT 180320Z 36008KT 10SM CLR 03/00 A3032 -320 79 -1700 350/08 RMK AO2 T00330000
13976KLFT LFT20191217212510512/17/19 21:25:31  5-MIN KLFT 180325Z 36007KT 10SM CLR 03/00 A3032 -320 79 -1700 360/07 RMK AO2 T00330000
13976KLFT LFT20191217213010512/17/19 21:30:31  5-MIN KLFT 180330Z 35009KT 10SM CLR 04/00 A3032 -320 76 -1700 350/09 RMK AO2 T00390000
13976KLFT LFT20191217213510512/17/19 21:35:31  5-MIN KLFT 180335Z 35007KT 10SM CLR 03/00 A3032 -320 79 -1700 350/07 RMK AO2 T00330000
13976KLFT LFT20191217214010512/17/19 21:40:31  5-MIN KLFT 180340Z 35007KT 10SM CLR 03/00 A3032 -320 79 -1700 350/07 RMK AO2 T00330000
13976KLFT LFT20191217214510512/17/19 21:45:31  5-MIN KLFT 180345Z 35007KT 10SM CLR 03/00 A3032 -320 79 -1700 350/07 RMK AO2 T00330000
13976KLFT LFT20191217215011212/17/19 21:50:31  5-MIN KLFT 180350Z 36007KT 10SM CLR 03/00 A3032 -320 79 -1700 360/07 RMK AO2 SLP267 T00330000
13976KLFT LFT20191217215510512/17/19 21:55:31  5-MIN KLFT 180355Z 01006KT 10SM CLR 03/00 A3032 -320 79 -1700 360/06 RMK AO2 T00330000
13976KLFT LFT20191217220010512/17/19 22:00:31  5-MIN KLFT 180400Z 36006KT 10SM CLR 03/00 A3032 -320 79 -1700 360/06 RMK AO2 T00330000
13976KLFT LFT20191217220510512/17/19 22:05:31  5-MIN KLFT 180405Z 36007KT 10SM CLR 03/00 A3033 -320 79 -1700 360/07 RMK AO2 T00330000
13976KLFT LFT20191217221010512/17/19 22:10:31  5-MIN KLFT 180410Z 36006KT 10SM CLR 03/00 A3033 -330 82 -1800 360/06 RMK AO2 T00280000
13976KLFT LFT20191217221510512/17/19 22:15:31  5-MIN KLFT 180415Z 36005KT 10SM CLR 03/00 A3033 -330 79 -1700 360/05 RMK AO2 T00330000
13976KLFT LFT20191217222010512/17/19 22:20:31  5-MIN KLFT 180420Z 35006KT 10SM CLR 03/00 A3033 -330 82 -1800 350/06 RMK AO2 T00280000
13976KLFT LFT20191217222510512/17/19 22:25:31  5-MIN KLFT 180425Z 35006KT 10SM CLR 03/00 A3033 -330 82 -1800 350/06 RMK AO2 T00280000
13976KLFT LFT20191217223010512/17/19 22:30:31  5-MIN KLFT 180430Z 35006KT 10SM CLR 03/00 A3033 -330 82 -1800 350/06 RMK AO2 T00280000
13976KLFT LFT20191217223511012/17/19 22:35:31  5-MIN KLFT 180435Z AUTO 35006KT 10SM CLR 03/00 A3033 -330 82 -1800 350/06 RMK AO2 T00280000
13976KLFT LFT20191217224011012/17/19 22:40:31  5-MIN KLFT 180440Z AUTO 36005KT 10SM CLR 03/00 A3033 -320 82 -1800 360/05 RMK AO2 T00280000
13976KLFT LFT20191217224511012/17/19 22:45:31  5-MIN KLFT 180445Z AUTO 35005KT 10SM CLR 03/00 A3033 -330 82 -1800 350/05 RMK AO2 T00280000
13976KLFT LFT20191217225011712/17/19 22:50:31  5-MIN KLFT 180450Z AUTO 35005KT 10SM CLR 03/00 A3033 -330 82 -1800 350/05 RMK AO2 SLP270 T00280000
13976KLFT LFT20191217225511112/17/19 22:55:31  5-MIN KLFT 180455Z AUTO 36005KT 10SM CLR 03/M01 A3033 -330 79 -1800 360/05 RMK AO2 T00281006
13976KLFT LFT20191217230011112/17/19 23:00:31  5-MIN KLFT 180500Z AUTO 35005KT 10SM CLR 03/M01 A3033 -330 79 -1800 350/05 RMK AO2 T00281006
13976KLFT LFT20191217230511012/17/19 23:05:31  5-MIN KLFT 180505Z AUTO 36005KT 10SM CLR 03/00 A3033 -330 82 -1800 360/05 RMK AO2 T00280000
13976KLFT LFT20191217231011112/17/19 23:10:31  5-MIN KLFT 180510Z AUTO 35004KT 10SM CLR 03/M01 A3033 -330 79 -1800 350/04 RMK AO2 T00281006
13976KLFT LFT20191217231511112/17/19 23:15:31  5-MIN KLFT 180515Z AUTO 35005KT 10SM CLR 03/M01 A3033 -330 79 -1800 350/05 RMK AO2 T00281006
13976KLFT LFT20191217232011112/17/19 23:20:31  5-MIN KLFT 180520Z AUTO 35005KT 10SM CLR 03/M01 A3033 -330 79 -1800 350/05 RMK AO2 T00281006
13976KLFT LFT20191217232511112/17/19 23:25:31  5-MIN KLFT 180525Z AUTO 35006KT 10SM CLR 03/M01 A3033 -330 79 -1800 350/06 RMK AO2 T00281006
13976KLFT LFT20191217233011112/17/19 23:30:31  5-MIN KLFT 180530Z AUTO 35006KT 10SM CLR 03/M01 A3033 -320 79 -1800 350/06 RMK AO2 T00281006
13976KLFT LFT20191217233511112/17/19 23:35:31  5-MIN KLFT 180535Z AUTO 35006KT 10SM CLR 03/M01 A3033 -320 79 -1800 350/06 RMK AO2 T00281006
13976KLFT LFT20191217234011112/17/19 23:40:31  5-MIN KLFT 180540Z AUTO 35008KT 10SM CLR 03/M01 A3032 -320 79 -1800 350/08 RMK AO2 T00281006
13976KLFT LFT20191217234511112/17/19 23:45:31  5-MIN KLFT 180545Z AUTO 35006KT 10SM CLR 03/M01 A3033 -320 79 -1800 350/06 RMK AO2 T00281006
13976KLFT LFT20191217235014612/17/19 23:50:31  5-MIN KLFT 180550Z AUTO 35007KT 10SM CLR 03/M01 A3033 -330 79 -1800 350/07 RMK AO2 SLP269 T00281006 10061 20028 401220028 51015
13976KLFT LFT20191217235511112/17/19 23:55:31  5-MIN KLFT 180555Z AUTO 35008KT 10SM CLR 03/M01 A3033 -330 79 -1800 350/08 RMK AO2 T00281006
13976KLFT LFT20191218000011112/18/19 00:00:31  5-MIN KLFT 180600Z AUTO 35007KT 10SM CLR 03/M01 A3033 -330 79 -1800 350/07 RMK AO2 T00281006
13976KLFT LFT20191218000511112/18/19 00:05:31  5-MIN KLFT 180605Z AUTO 35008KT 10SM CLR 03/M01 A3033 -330 79 -1800 350/08 RMK AO2 T00281006
13976KLFT LFT20191218001011112/18/19 00:10:31  5-MIN KLFT 180610Z AUTO 35007KT 10SM CLR 03/M01 A3033 -330 79 -1800 350/07 RMK AO2 T00281006
13976KLFT LFT20191218001511112/18/19 00:15:31  5-MIN KLFT 180615Z AUTO 35009KT 10SM CLR 03/M01 A3033 -320 79 -1800 350/09 RMK AO2 T00281006
13976KLFT LFT20191218002011112/18/19 00:20:31  5-MIN KLFT 180620Z AUTO 35010KT 10SM CLR 03/M01 A3033 -320 79 -1800 350/10 RMK AO2 T00281006
13976KLFT LFT20191218002511012/18/19 00:25:31  5-MIN KLFT 180625Z AUTO 35009KT 10SM CLR 03/00 A3033 -330 82 -1800 350/09 RMK AO2 T00280000
13976KLFT LFT20191218003011112/18/19 00:30:31  5-MIN KLFT 180630Z AUTO 35008KT 10SM CLR 03/M01 A3033 -330 79 -1800 350/08 RMK AO2 T00281006
13976KLFT LFT20191218003511112/18/19 00:35:31  5-MIN KLFT 180635Z AUTO 35007KT 10SM CLR 03/M01 A3033 -330 79 -1800 340/07 RMK AO2 T00281006
13976KLFT LFT20191218004011112/18/19 00:40:31  5-MIN KLFT 180640Z AUTO 35007KT 10SM CLR 03/M01 A3033 -330 79 -1800 350/07 RMK AO2 T00281006
13976KLFT LFT20191218004511112/18/19 00:45:31  5-MIN KLFT 180645Z AUTO 35006KT 10SM CLR 03/M01 A3033 -330 79 -1800 350/06 RMK AO2 T00281006
13976KLFT LFT20191218005011812/18/19 00:50:31  5-MIN KLFT 180650Z AUTO 34008KT 10SM CLR 03/M01 A3033 -330 79 -1800 340/08 RMK AO2 SLP271 T00281006
13976KLFT LFT20191218005511112/18/19 00:55:31  5-MIN KLFT 180655Z AUTO 35007KT 10SM CLR 03/M01 A3033 -330 79 -1800 350/07 RMK AO2 T00281006
13976KLFT LFT20191218010011112/18/19 01:00:31  5-MIN KLFT 180700Z AUTO 35007KT 10SM CLR 02/M01 A3033 -330 82 -1900 350/07 RMK AO2 T00221006
13976KLFT LFT20191218010511112/18/19 01:05:31  5-MIN KLFT 180705Z AUTO 35008KT 10SM CLR 02/M01 A3033 -330 82 -1900 350/08 RMK AO2 T00221006
13976KLFT LFT20191218011011112/18/19 01:10:31  5-MIN KLFT 180710Z AUTO 35006KT 10SM CLR 02/M01 A3033 -330 82 -1900 350/06 RMK AO2 T00221006
13976KLFT LFT20191218011511112/18/19 01:15:31  5-MIN KLFT 180715Z AUTO 35006KT 10SM CLR 02/M01 A3034 -330 82 -1900 350/06 RMK AO2 T00221006
13976KLFT LFT20191218012011112/18/19 01:20:31  5-MIN KLFT 180720Z AUTO 35006KT 10SM CLR 02/M01 A3033 -330 82 -1900 350/06 RMK AO2 T00221006
13976KLFT LFT20191218012511112/18/19 01:25:31  5-MIN KLFT 180725Z AUTO 35008KT 10SM CLR 02/M01 A3034 -330 82 -1900 350/08 RMK AO2 T00221006
13976KLFT LFT20191218013011112/18/19 01:30:31  5-MIN KLFT 180730Z AUTO 35007KT 10SM CLR 02/M01 A3034 -340 82 -1900 350/07 RMK AO2 T00221006
13976KLFT LFT20191218013511112/18/19 01:35:31  5-MIN KLFT 180735Z AUTO 35007KT 10SM CLR 02/M01 A3034 -340 82 -1900 350/07 RMK AO2 T00221006
13976KLFT LFT20191218014011112/18/19 01:40:31  5-MIN KLFT 180740Z AUTO 35008KT 10SM CLR 02/M01 A3034 -340 82 -1900 350/08 RMK AO2 T00221006
13976KLFT LFT20191218014511112/18/19 01:45:31  5-MIN KLFT 180745Z AUTO 35007KT 10SM CLR 02/M01 A3034 -340 82 -1900 350/07 RMK AO2 T00221006
13976KLFT LFT20191218015011812/18/19 01:50:31  5-MIN KLFT 180750Z AUTO 35008KT 10SM CLR 02/M01 A3034 -340 82 -1900 350/08 RMK AO2 SLP275 T00221006
13976KLFT LFT20191218015511112/18/19 01:55:31  5-MIN KLFT 180755Z AUTO 35008KT 10SM CLR 02/M01 A3034 -340 82 -1900 350/08 RMK AO2 T00221006
13976KLFT LFT20191218020011112/18/19 02:00:31  5-MIN KLFT 180800Z AUTO 35007KT 10SM CLR 02/M01 A3035 -340 82 -1900 350/07 RMK AO2 T00221006
13976KLFT LFT20191218020511112/18/19 02:05:31  5-MIN KLFT 180805Z AUTO 35007KT 10SM CLR 02/M01 A3035 -350 82 -1900 350/07 RMK AO2 T00221006
13976KLFT LFT20191218021011112/18/19 02:10:31  5-MIN KLFT 180810Z AUTO 35006KT 10SM CLR 02/M01 A3035 -340 85 -2000 350/06 RMK AO2 T00171006
13976KLFT LFT20191218021511112/18/19 02:15:31  5-MIN KLFT 180815Z AUTO 36007KT 10SM CLR 02/M01 A3035 -340 85 -2000 350/07 RMK AO2 T00171006
13976KLFT LFT20191218022011112/18/19 02:20:31  5-MIN KLFT 180820Z AUTO 35006KT 10SM CLR 02/M01 A3035 -350 85 -2000 350/06 RMK AO2 T00171006
13976KLFT LFT20191218022511112/18/19 02:25:31  5-MIN KLFT 180825Z AUTO 35006KT 10SM CLR 02/M01 A3035 -340 85 -2000 350/06 RMK AO2 T00171006
13976KLFT LFT20191218023011112/18/19 02:30:31  5-MIN KLFT 180830Z AUTO 35006KT 10SM CLR 02/M01 A3035 -350 85 -2000 350/06 RMK AO2 T00171006
13976KLFT LFT20191218023511112/18/19 02:35:31  5-MIN KLFT 180835Z AUTO 35007KT 10SM CLR 02/M01 A3035 -350 85 -2000 350/07 RMK AO2 T00171006
13976KLFT LFT20191218024011112/18/19 02:40:31  5-MIN KLFT 180840Z AUTO 35006KT 10SM CLR 02/M01 A3035 -350 85 -2000 350/06 RMK AO2 T00171006
13976KLFT LFT20191218024511112/18/19 02:45:31  5-MIN KLFT 180845Z AUTO 35005KT 10SM CLR 02/M01 A3035 -350 85 -2000 340/05 RMK AO2 T00171006
13976KLFT LFT20191218025012412/18/19 02:50:31  5-MIN KLFT 180850Z AUTO 34006KT 10SM CLR 02/M01 A3036 -350 85 -2000 340/06 RMK AO2 SLP278 T00171006 50005
13976KLFT LFT20191218025511112/18/19 02:55:31  5-MIN KLFT 180855Z AUTO 34006KT 10SM CLR 02/M01 A3035 -350 85 -2000 340/06 RMK AO2 T00171006
13976KLFT LFT20191218030011112/18/19 03:00:31  5-MIN KLFT 180900Z AUTO 34005KT 10SM CLR 02/M01 A3036 -350 85 -2000 340/05 RMK AO2 T00171006
13976KLFT LFT20191218030511112/18/19 03:05:31  5-MIN KLFT 180905Z AUTO 34006KT 10SM CLR 02/M01 A3036 -350 85 -2000 340/06 RMK AO2 T00171006
13976KLFT LFT20191218031011112/18/19 03:10:31  5-MIN KLFT 180910Z AUTO 34007KT 10SM CLR 02/M01 A3036 -350 85 -2000 340/07 RMK AO2 T00171006
13976KLFT LFT20191218031511112/18/19 03:15:31  5-MIN KLFT 180915Z AUTO 34007KT 10SM CLR 02/M01 A3036 -350 85 -2000 340/07 RMK AO2 T00171006
13976KLFT LFT20191218032011112/18/19 03:20:31  5-MIN KLFT 180920Z AUTO 34007KT 10SM CLR 02/M01 A3036 -350 85 -2000 340/07 RMK AO2 T00171006
13976KLFT LFT20191218032511112/18/19 03:25:31  5-MIN KLFT 180925Z AUTO 34007KT 10SM CLR 02/M01 A3036 -350 85 -2000 340/07 RMK AO2 T00171006
13976KLFT LFT20191218033011112/18/19 03:30:31  5-MIN KLFT 180930Z AUTO 34007KT 10SM CLR 02/M01 A3036 -350 85 -2000 340/07 RMK AO2 T00171006
13976KLFT LFT20191218033511112/18/19 03:35:31  5-MIN KLFT 180935Z AUTO 34006KT 10SM CLR 02/M01 A3036 -360 85 -2000 340/06 RMK AO2 T00171006
13976KLFT LFT20191218034011112/18/19 03:40:31  5-MIN KLFT 180940Z AUTO 34007KT 10SM CLR 02/M01 A3036 -350 85 -2000 340/07 RMK AO2 T00171006
13976KLFT LFT20191218034511112/18/19 03:45:31  5-MIN KLFT 180945Z AUTO 34008KT 10SM CLR 02/M01 A3036 -350 85 -2000 340/08 RMK AO2 T00171006
13976KLFT LFT20191218035011812/18/19 03:50:31  5-MIN KLFT 180950Z AUTO 34007KT 10SM CLR 02/M01 A3036 -360 85 -2000 340/07 RMK AO2 SLP280 T00171006
13976KLFT LFT20191218035511112/18/19 03:55:31  5-MIN KLFT 180955Z AUTO 34007KT 10SM CLR 02/M01 A3036 -350 85 -2000 340/07 RMK AO2 T00171006
13976KLFT LFT20191218040011112/18/19 04:00:31  5-MIN KLFT 181000Z AUTO 34006KT 10SM CLR 02/M01 A3036 -360 85 -2000 340/06 RMK AO2 T00171006
13976KLFT LFT20191218040511112/18/19 04:05:31  5-MIN KLFT 181005Z AUTO 34007KT 10SM CLR 02/M01 A3036 -360 85 -2000 340/07 RMK AO2 T00171006
13976KLFT LFT20191218041011112/18/19 04:10:31  5-MIN KLFT 181010Z AUTO 34007KT 10SM CLR 01/M01 A3037 -360 89 -2100 340/07 RMK AO2 T00111006
13976KLFT LFT20191218041511112/18/19 04:15:31  5-MIN KLFT 181015Z AUTO 35006KT 10SM CLR 01/M01 A3037 -360 89 -2100 340/06 RMK AO2 T00111006
13976KLFT LFT20191218042011112/18/19 04:20:31  5-MIN KLFT 181020Z AUTO 35006KT 10SM CLR 01/M01 A3037 -360 89 -2100 340/06 RMK AO2 T00111006
13976KLFT LFT20191218042511112/18/19 04:25:31  5-MIN KLFT 181025Z AUTO 34007KT 10SM CLR 01/M01 A3037 -370 89 -2100 340/07 RMK AO2 T00111006
13976KLFT LFT20191218043011112/18/19 04:30:31  5-MIN KLFT 181030Z AUTO 34007KT 10SM CLR 01/M01 A3037 -370 89 -2100 340/07 RMK AO2 T00111006
13976KLFT LFT20191218043511112/18/19 04:35:31  5-MIN KLFT 181035Z AUTO 34007KT 10SM CLR 01/M01 A3037 -370 89 -2100 340/07 RMK AO2 T00111006
13976KLFT LFT20191218044011112/18/19 04:40:31  5-MIN KLFT 181040Z AUTO 34007KT 10SM CLR 01/M01 A3037 -370 89 -2100 340/07 RMK AO2 T00111006
13976KLFT LFT20191218044511112/18/19 04:45:31  5-MIN KLFT 181045Z AUTO 34008KT 10SM CLR 01/M01 A3038 -370 89 -2100 340/08 RMK AO2 T00111006
13976KLFT LFT20191218045011812/18/19 04:50:31  5-MIN KLFT 181050Z AUTO 34008KT 10SM CLR 01/M01 A3038 -370 89 -2100 340/08 RMK AO2 SLP286 T00111006
13976KLFT LFT20191218045511112/18/19 04:55:31  5-MIN KLFT 181055Z AUTO 34007KT 10SM CLR 01/M01 A3038 -370 89 -2100 340/07 RMK AO2 T00111006
13976KLFT LFT20191218050011112/18/19 05:00:31  5-MIN KLFT 181100Z AUTO 34007KT 10SM CLR 01/M01 A3038 -380 89 -2100 340/07 RMK AO2 T00111006
13976KLFT LFT20191218050511112/18/19 05:05:31  5-MIN KLFT 181105Z AUTO 34007KT 10SM CLR 02/M01 A3038 -380 85 -2000 340/07 RMK AO2 T00171006
13976KLFT LFT20191218051011112/18/19 05:10:31  5-MIN KLFT 181110Z AUTO 35007KT 10SM CLR 01/M01 A3039 -380 89 -2100 340/07 RMK AO2 T00111006
13976KLFT LFT20191218051511112/18/19 05:15:31  5-MIN KLFT 181115Z AUTO 34008KT 10SM CLR 01/M01 A3039 -380 89 -2100 340/08 RMK AO2 T00111006
13976KLFT LFT20191218052011112/18/19 05:20:31  5-MIN KLFT 181120Z AUTO 34008KT 10SM CLR 02/M01 A3039 -380 85 -2000 340/08 RMK AO2 T00171006
13976KLFT LFT20191218052510612/18/19 05:25:31  5-MIN KLFT 181125Z 35007KT 10SM CLR 02/M01 A3039 -380 82 -2000 350/07 RMK AO2 T00171011
13976KLFT LFT20191218053010612/18/19 05:30:31  5-MIN KLFT 181130Z 35006KT 10SM CLR 01/M01 A3039 -390 85 -2100 350/06 RMK AO2 T00111011
13976KLFT LFT20191218053510612/18/19 05:35:31  5-MIN KLFT 181135Z 35006KT 10SM CLR 01/M01 A3039 -390 85 -2100 350/06 RMK AO2 T00111011
13976KLFT LFT20191218054010612/18/19 05:40:31  5-MIN KLFT 181140Z 35006KT 10SM CLR 01/M01 A3040 -390 85 -2100 350/06 RMK AO2 T00111011
13976KLFT LFT20191218054510612/18/19 05:45:31  5-MIN KLFT 181145Z 36006KT 10SM CLR 01/M01 A3040 -390 85 -2100 360/06 RMK AO2 T00111011
13976KLFT LFT20191218055013112/18/19 05:50:31  5-MIN KLFT 181150Z 36004KT 10SM CLR 01/M01 A3040 -390 85 -2100 360/04 RMK AO2 SLP293 T00111011 10028 20011 53009
13976KLFT LFT20191218055510612/18/19 05:55:31  5-MIN KLFT 181155Z 36005KT 10SM CLR 01/M01 A3040 -390 85 -2100 360/05 RMK AO2 T00111011
13976KLFT LFT20191218060010612/18/19 06:00:31  5-MIN KLFT 181200Z 35004KT 10SM CLR 01/M01 A3040 -390 85 -2100 350/04 RMK AO2 T00111011
13976KLFT LFT20191218060510612/18/19 06:05:31  5-MIN KLFT 181205Z 35004KT 10SM CLR 01/M01 A3040 -390 85 -2100 350/04 RMK AO2 T00111011
13976KLFT LFT20191218161011112/18/19 16:10:31  5-MIN KLFT 182210Z 36013G19KT 10SM CLR 11/M03 A3036 -360 37 -800 360/13G19 RMK AO2 T01111028
13976KLFT LFT20191218161510512/18/19 16:15:31  5-MIN KLFT 182215Z 36013KT 10SM CLR 11/M03 A3036 -360 37 -800 360/13 RMK AO2 T01111028
13976KLFT LFT20191218162010512/18/19 16:20:31  5-MIN KLFT 182220Z 01013KT 10SM CLR 11/M03 A3036 -360 37 -800 010/13 RMK AO2 T01111028
13976KLFT LFT20191218162510512/18/19 16:25:31  5-MIN KLFT 182225Z 01012KT 10SM CLR 11/M03 A3036 -360 39 -900 010/12 RMK AO2 T01061028
13976KLFT LFT20191218163010512/18/19 16:30:31  5-MIN KLFT 182230Z 36008KT 10SM CLR 11/M02 A3036 -350 40 -900 360/08 RMK AO2 T01061022
13976KLFT LFT20191218163511112/18/19 16:35:31  5-MIN KLFT 182235Z 36013G17KT 10SM CLR 11/M02 A3036 -350 40 -900 360/13G17 RMK AO2 T01061022
13976KLFT LFT20191218164011112/18/19 16:40:31  5-MIN KLFT 182240Z 36009G17KT 10SM CLR 11/M03 A3036 -360 39 -900 360/09G17 RMK AO2 T01061028
13976KLFT LFT20191218164510612/18/19 16:45:31  5-MIN KLFT 182245Z 36010KT 10SM CLR 10/M03 A3036 -350 40 -1000 360/10 RMK AO2 T01001028
13976KLFT LFT20191218165011912/18/19 16:50:31  5-MIN KLFT 182250Z 36008G17KT 10SM CLR 10/M02 A3036 -360 42 -1000 360/08G17 RMK AO2 SLP280 T01001022
13976KLFT LFT20191218165511212/18/19 16:55:31  5-MIN KLFT 182255Z 36007G17KT 10SM CLR 10/M02 A3036 -360 42 -1000 360/07G17 RMK AO2 T01001022
13976KLFT LFT20191218170010612/18/19 17:00:31  5-MIN KLFT 182300Z 36008KT 10SM CLR 09/M02 A3037 -360 44 -1000 360/08 RMK AO2 T00941022
13976KLFT LFT20191218170510612/18/19 17:05:31  5-MIN KLFT 182305Z 01006KT 10SM CLR 09/M02 A3037 -360 44 -1000 360/06 RMK AO2 T00941022
13976KLFT LFT20191218171010612/18/19 17:10:31  5-MIN KLFT 182310Z 36007KT 10SM CLR 09/M02 A3037 -360 44 -1000 360/07 RMK AO2 T00941022
13976KLFT LFT20191218171510612/18/19 17:15:31  5-MIN KLFT 182315Z 36007KT 10SM CLR 09/M02 A3037 -360 44 -1000 360/07 RMK AO2 T00941022
13976KLFT LFT20191218172010612/18/19 17:20:31  5-MIN KLFT 182320Z 35008KT 10SM CLR 09/M02 A3037 -360 45 -1100 350/08 RMK AO2 T00891022
13976KLFT LFT20191218172510612/18/19 17:25:31  5-MIN KLFT 182325Z 36007KT 10SM CLR 09/M02 A3037 -370 47 -1100 360/07 RMK AO2 T00891017
13976KLFT LFT20191218173010612/18/19 17:30:31  5-MIN KLFT 182330Z 35007KT 10SM CLR 09/M02 A3037 -370 45 -1100 350/07 RMK AO2 T00891022
13976KLFT LFT20191218173510612/18/19 17:35:31  5-MIN KLFT 182335Z 35006KT 10SM CLR 09/M02 A3037 -370 47 -1100 350/06 RMK AO2 T00891017
13976KLFT LFT20191218174010612/18/19 17:40:31  5-MIN KLFT 182340Z 35006KT 10SM CLR 08/M02 A3037 -370 49 -1200 350/06 RMK AO2 T00831017
13976KLFT LFT20191218174510612/18/19 17:45:31  5-MIN KLFT 182345Z 34007KT 10SM CLR 08/M02 A3037 -370 49 -1200 340/07 RMK AO2 T00831017
13976KLFT LFT20191218175013112/18/19 17:50:31  5-MIN KLFT 182350Z 35007KT 10SM CLR 08/M02 A3038 -370 49 -1200 340/07 RMK AO2 SLP285 T00831017 10128 20083 56024
13976KLFT LFT20191218175510612/18/19 17:55:31  5-MIN KLFT 182355Z 34006KT 10SM CLR 08/M01 A3038 -370 51 -1200 340/06 RMK AO2 T00831011
13976KLFT LFT20191218180010612/18/19 18:00:31  5-MIN KLFT 190000Z 35006KT 10SM CLR 08/M02 A3038 -370 49 -1200 350/06 RMK AO2 T00831017
13976KLFT LFT20191218180510612/18/19 18:05:31  5-MIN KLFT 190005Z 35007KT 10SM CLR 08/M02 A3038 -370 49 -1200 350/07 RMK AO2 T00831017
13976KLFT LFT20191218181010612/18/19 18:10:31  5-MIN KLFT 190010Z 35006KT 10SM CLR 08/M02 A3038 -370 51 -1200 350/06 RMK AO2 T00781017
13976KLFT LFT20191218181510612/18/19 18:15:31  5-MIN KLFT 190015Z 35006KT 10SM CLR 08/M02 A3038 -370 51 -1200 350/06 RMK AO2 T00781017
13976KLFT LFT20191218182010612/18/19 18:20:31  5-MIN KLFT 190020Z 36005KT 10SM CLR 08/M02 A3038 -380 51 -1300 360/05 RMK AO2 T00781017
13976KLFT LFT20191218182510612/18/19 18:25:31  5-MIN KLFT 190025Z 03004KT 10SM CLR 07/M02 A3038 -380 53 -1300 030/04 RMK AO2 T00721017
13976KLFT LFT20191218183010612/18/19 18:30:31  5-MIN KLFT 190030Z 02004KT 10SM CLR 07/M02 A3039 -380 53 -1300 020/04 RMK AO2 T00721017
13976KLFT LFT20191218183510612/18/19 18:35:31  5-MIN KLFT 190035Z 02003KT 10SM CLR 07/M02 A3039 -380 53 -1300 020/03 RMK AO2 T00721017
13976KLFT LFT20191218184010612/18/19 18:40:31  5-MIN KLFT 190040Z 03003KT 10SM CLR 07/M02 A3039 -380 53 -1300 030/03 RMK AO2 T00721017
13976KLFT LFT20191218184510612/18/19 18:45:31  5-MIN KLFT 190045Z 01004KT 10SM CLR 07/M02 A3039 -380 53 -1300 010/04 RMK AO2 T00721017
13976KLFT LFT20191218185011312/18/19 18:50:31  5-MIN KLFT 190050Z 36004KT 10SM CLR 07/M02 A3039 -380 53 -1300 360/04 RMK AO2 SLP290 T00721017
13976KLFT LFT20191218185510612/18/19 18:55:31  5-MIN KLFT 190055Z 01004KT 10SM CLR 07/M02 A3039 -380 55 -1400 010/04 RMK AO2 T00671017
13976KLFT LFT20191218190010612/18/19 19:00:31  5-MIN KLFT 190100Z 36005KT 10SM CLR 07/M02 A3039 -380 55 -1400 360/05 RMK AO2 T00671017
13976KLFT LFT20191218190510612/18/19 19:05:31  5-MIN KLFT 190105Z 36004KT 10SM CLR 07/M02 A3039 -380 55 -1400 360/04 RMK AO2 T00671017
13976KLFT LFT20191218191010612/18/19 19:10:31  5-MIN KLFT 190110Z 01003KT 10SM CLR 07/M02 A3039 -380 55 -1400 360/03 RMK AO2 T00671017
13976KLFT LFT20191218191510612/18/19 19:15:31  5-MIN KLFT 190115Z 02003KT 10SM CLR 07/M02 A3039 -380 55 -1400 020/03 RMK AO2 T00671017
13976KLFT LFT20191218192010612/18/19 19:20:31  5-MIN KLFT 190120Z 01003KT 10SM CLR 07/M01 A3039 -390 57 -1400 010/03 RMK AO2 T00671011
13976KLFT LFT20191218192510612/18/19 19:25:31  5-MIN KLFT 190125Z 02003KT 10SM CLR 07/M01 A3040 -390 60 -1400 010/03 RMK AO2 T00671006
13976KLFT LFT20191218193010612/18/19 19:30:31  5-MIN KLFT 190130Z 36003KT 10SM CLR 07/M01 A3040 -390 60 -1400 360/03 RMK AO2 T00671006
13976KLFT LFT20191218193510612/18/19 19:35:31  5-MIN KLFT 190135Z 01003KT 10SM CLR 07/M01 A3040 -390 60 -1400 360/03 RMK AO2 T00671006
13976KLFT LFT20191218194010612/18/19 19:40:31  5-MIN KLFT 190140Z 00000KT 10SM CLR 07/M01 A3040 -390 60 -1400 000/00 RMK AO2 T00671006
13976KLFT LFT20191218194510612/18/19 19:45:31  5-MIN KLFT 190145Z 01003KT 10SM CLR 07/M01 A3040 -390 57 -1400 010/03 RMK AO2 T00671011
13976KLFT LFT20191218195011312/18/19 19:50:31  5-MIN KLFT 190150Z 02004KT 10SM CLR 06/M01 A3040 -390 60 -1500 020/04 RMK AO2 SLP295 T00611011
13976KLFT LFT20191218195510612/18/19 19:55:31  5-MIN KLFT 190155Z 02004KT 10SM CLR 06/M01 A3040 -400 62 -1500 010/04 RMK AO2 T00561011
13976KLFT LFT20191218200010612/18/19 20:00:31  5-MIN KLFT 190200Z 01004KT 10SM CLR 06/M01 A3040 -400 60 -1500 010/04 RMK AO2 T00611011
13976KLFT LFT20191218200510612/18/19 20:05:31  5-MIN KLFT 190205Z 00000KT 10SM CLR 06/M01 A3041 -400 62 -1600 000/00 RMK AO2 T00561011
13976KLFT LFT20191218201010612/18/19 20:10:31  5-MIN KLFT 190210Z 00000KT 10SM CLR 06/M01 A3041 -400 65 -1600 000/00 RMK AO2 T00561006
13976KLFT LFT20191218201510512/18/19 20:15:31  5-MIN KLFT 190215Z 00000KT 10SM CLR 06/00 A3041 -400 67 -1600 000/00 RMK AO2 T00560000
13976KLFT LFT20191218202010512/18/19 20:20:31  5-MIN KLFT 190220Z 00000KT 10SM CLR 06/01 A3041 -410 73 -1600 000/00 RMK AO2 T00560011
13976KLFT LFT20191218202510512/18/19 20:25:31  5-MIN KLFT 190225Z 00000KT 10SM CLR 06/02 A3042 -410 76 -1600 000/00 RMK AO2 T00560017
13976KLFT LFT20191218203010512/18/19 20:30:31  5-MIN KLFT 190230Z 00000KT 10SM CLR 06/02 A3042 -410 76 -1600 000/00 RMK AO2 T00560017
13976KLFT LFT20191218203510512/18/19 20:35:31  5-MIN KLFT 190235Z 00000KT 10SM CLR 05/02 A3042 -410 79 -1600 000/00 RMK AO2 T00500017
13976KLFT LFT20191218204010512/18/19 20:40:31  5-MIN KLFT 190240Z 00000KT 10SM CLR 05/02 A3042 -410 79 -1600 000/00 RMK AO2 T00500017
13976KLFT LFT20191218204510512/18/19 20:45:31  5-MIN KLFT 190245Z 00000KT 10SM CLR 04/02 A3042 -410 82 -1700 000/00 RMK AO2 T00440017
13976KLFT LFT20191218205011812/18/19 20:50:31  5-MIN KLFT 190250Z 00000KT 10SM CLR 04/02 A3042 -410 89 -1800 000/00 RMK AO2 SLP299 T00390022 53007
13976KLFT LFT20191218205510512/18/19 20:55:31  5-MIN KLFT 190255Z 00000KT 10SM CLR 04/01 A3042 -410 76 -1700 000/00 RMK AO2 T00440006
13976KLFT LFT20191218210010512/18/19 21:00:31  5-MIN KLFT 190300Z 00000KT 10SM CLR 04/01 A3042 -410 79 -1800 000/00 RMK AO2 T00390006
13976KLFT LFT20191218210510512/18/19 21:05:31  5-MIN KLFT 190305Z 00000KT 10SM CLR 04/01 A3042 -410 79 -1800 000/00 RMK AO2 T00390006
13976KLFT LFT20191218211010512/18/19 21:10:31  5-MIN KLFT 190310Z 00000KT 10SM CLR 03/01 A3042 -410 82 -1800 000/00 RMK AO2 T00330006
13976KLFT LFT20191218211510512/18/19 21:15:31  5-MIN KLFT 190315Z 00000KT 10SM CLR 04/02 A3042 -410 82 -1700 000/00 RMK AO2 T00440017
13976KLFT LFT20191218212010512/18/19 21:20:31  5-MIN KLFT 190320Z 00000KT 10SM CLR 04/02 A3042 -410 85 -1800 000/00 RMK AO2 T00390017
13976KLFT LFT20191218212510512/18/19 21:25:31  5-MIN KLFT 190325Z 00000KT 10SM CLR 04/02 A3042 -410 85 -1800 000/00 RMK AO2 T00390017
13976KLFT LFT20191218213010512/18/19 21:30:31  5-MIN KLFT 190330Z 00000KT 10SM CLR 04/02 A3042 -410 85 -1800 000/00 RMK AO2 T00390017
13976KLFT LFT20191218213510512/18/19 21:35:31  5-MIN KLFT 190335Z 00000KT 10SM CLR 04/02 A3042 -410 85 -1800 000/00 RMK AO2 T00390017
13976KLFT LFT20191218214010512/18/19 21:40:31  5-MIN KLFT 190340Z 00000KT 10SM CLR 04/01 A3042 -410 79 -1700 000/00 RMK AO2 T00440011
13976KLFT LFT20191218214510512/18/19 21:45:31  5-MIN KLFT 190345Z 34003KT 10SM CLR 04/01 A3042 -410 79 -1800 340/03 RMK AO2 T00390006
13976KLFT LFT20191218215011212/18/19 21:50:31  5-MIN KLFT 190350Z 00000KT 10SM CLR 04/00 A3042 -410 76 -1800 000/00 RMK AO2 SLP302 T00390000
13976KLFT LFT20191218215510512/18/19 21:55:31  5-MIN KLFT 190355Z 00000KT 10SM CLR 03/00 A3042 -410 79 -1800 000/00 RMK AO2 T00330000
13976KLFT LFT20191218220010612/18/19 22:00:31  5-MIN KLFT 190400Z 00000KT 10SM CLR 03/M01 A3042 -410 76 -1800 000/00 RMK AO2 T00331006
13976KLFT LFT20191218220510512/18/19 22:05:31  5-MIN KLFT 190405Z 00000KT 10SM CLR 04/00 A3042 -410 76 -1800 000/00 RMK AO2 T00390000
13976KLFT LFT20191218221010512/18/19 22:10:31  5-MIN KLFT 190410Z 00000KT 10SM CLR 03/00 A3042 -410 79 -1800 000/00 RMK AO2 T00330000
13976KLFT LFT20191218221510512/18/19 22:15:31  5-MIN KLFT 190415Z 00000KT 10SM CLR 03/00 A3042 -410 79 -1800 000/00 RMK AO2 T00330000
13976KLFT LFT20191218222010512/18/19 22:20:31  5-MIN KLFT 190420Z 00000KT 10SM CLR 03/00 A3042 -410 82 -1900 000/00 RMK AO2 T00280000
13976KLFT LFT20191218222510512/18/19 22:25:31  5-MIN KLFT 190425Z 00000KT 10SM CLR 03/00 A3042 -410 82 -1900 000/00 RMK AO2 T00280000
13976KLFT LFT20191218223011012/18/19 22:30:31  5-MIN KLFT 190430Z AUTO 00000KT 10SM CLR 03/00 A3042 -410 82 -1900 000/00 RMK AO2 T00280000
13976KLFT LFT20191218223511012/18/19 22:35:31  5-MIN KLFT 190435Z AUTO 00000KT 10SM CLR 03/00 A3042 -410 82 -1900 000/00 RMK AO2 T00280000
13976KLFT LFT20191218224011012/18/19 22:40:31  5-MIN KLFT 190440Z AUTO 35003KT 10SM CLR 03/00 A3042 -410 82 -1900 350/03 RMK AO2 T00280000
13976KLFT LFT20191218224511112/18/19 22:45:31  5-MIN KLFT 190445Z AUTO 35003KT 10SM CLR 02/M01 A3042 -410 82 -2000 350/03 RMK AO2 T00221006
13976KLFT LFT20191218225011812/18/19 22:50:31  5-MIN KLFT 190450Z AUTO 36003KT 10SM CLR 02/M01 A3042 -410 82 -2000 360/03 RMK AO2 SLP300 T00221006
13976KLFT LFT20191218225511112/18/19 22:55:31  5-MIN KLFT 190455Z AUTO 36003KT 10SM CLR 03/M01 A3042 -410 79 -1900 350/03 RMK AO2 T00281006
13976KLFT LFT20191218230011112/18/19 23:00:31  5-MIN KLFT 190500Z AUTO 00000KT 10SM CLR 03/M01 A3042 -410 79 -1900 000/00 RMK AO2 T00281006
13976KLFT LFT20191218230511012/18/19 23:05:31  5-MIN KLFT 190505Z AUTO 00000KT 10SM CLR 03/00 A3042 -410 82 -1900 000/00 RMK AO2 T00280000
13976KLFT LFT20191218231011012/18/19 23:10:31  5-MIN KLFT 190510Z AUTO 00000KT 10SM CLR 03/00 A3042 -410 82 -1900 000/00 RMK AO2 T00280000
13976KLFT LFT20191218231511012/18/19 23:15:31  5-MIN KLFT 190515Z AUTO 00000KT 10SM CLR 03/00 A3042 -410 82 -1900 000/00 RMK AO2 T00280000
13976KLFT LFT20191218232011012/18/19 23:20:31  5-MIN KLFT 190520Z AUTO 00000KT 10SM CLR 03/00 A3042 -410 82 -1900 000/00 RMK AO2 T00280000
13976KLFT LFT20191218232511012/18/19 23:25:31  5-MIN KLFT 190525Z AUTO 00000KT 10SM CLR 03/00 A3042 -410 82 -1900 000/00 RMK AO2 T00280000
13976KLFT LFT20191218233011012/18/19 23:30:31  5-MIN KLFT 190530Z AUTO 00000KT 10SM CLR 03/00 A3042 -410 79 -1800 000/00 RMK AO2 T00330000
13976KLFT LFT20191218233511012/18/19 23:35:31  5-MIN KLFT 190535Z AUTO 00000KT 10SM CLR 03/01 A3042 -410 82 -1800 000/00 RMK AO2 T00330006
13976KLFT LFT20191218234011012/18/19 23:40:31  5-MIN KLFT 190540Z AUTO 00000KT 10SM CLR 03/02 A3042 -410 89 -1900 000/00 RMK AO2 T00330017
13976KLFT LFT20191218234511012/18/19 23:45:31  5-MIN KLFT 190545Z AUTO 00000KT 10SM CLR 03/01 A3043 -410 85 -1900 000/00 RMK AO2 T00330011
13976KLFT LFT20191218235014512/18/19 23:50:31  5-MIN KLFT 190550Z AUTO 00000KT 10SM CLR 03/00 A3042 -410 79 -1800 000/00 RMK AO2 SLP302 T00330000 10083 20022 401280006 53014
13976KLFT LFT20191218235511112/18/19 23:55:31  5-MIN KLFT 190555Z AUTO 00000KT 10SM CLR 03/M01 A3043 -410 79 -1900 000/00 RMK AO2 T00281006
13976KLFT LFT20191219000011112/19/19 00:00:31  5-MIN KLFT 190600Z AUTO 00000KT 10SM CLR 03/M01 A3042 -410 79 -1900 000/00 RMK AO2 T00281006
13976KLFT LFT20191219000511012/19/19 00:05:31  5-MIN KLFT 190605Z AUTO 00000KT 10SM CLR 03/00 A3042 -410 82 -1900 000/00 RMK AO2 T00280000
13976KLFT LFT20191219001011112/19/19 00:10:31  5-MIN KLFT 190610Z AUTO 00000KT 10SM CLR 02/M01 A3042 -410 82 -2000 000/00 RMK AO2 T00221006
13976KLFT LFT20191219001511112/19/19 00:15:31  5-MIN KLFT 190615Z AUTO 00000KT 10SM CLR 02/M01 A3042 -410 85 -2100 000/00 RMK AO2 T00171006
13976KLFT LFT20191219002011112/19/19 00:20:31  5-MIN KLFT 190620Z AUTO 00000KT 10SM CLR 02/M01 A3042 -410 85 -2000 000/00 RMK AO2 T00171006
13976KLFT LFT20191219002511112/19/19 00:25:31  5-MIN KLFT 190625Z AUTO 00000KT 10SM CLR 02/M01 A3042 -410 82 -2100 000/00 RMK AO2 T00171011
13976KLFT LFT20191219003011112/19/19 00:30:31  5-MIN KLFT 190630Z AUTO 00000KT 10SM CLR 02/M01 A3042 -410 82 -2000 000/00 RMK AO2 T00221006
13976KLFT LFT20191219003511112/19/19 00:35:31  5-MIN KLFT 190635Z AUTO 00000KT 10SM CLR 02/M01 A3042 -410 82 -2000 000/00 RMK AO2 T00221006
13976KLFT LFT20191219004011112/19/19 00:40:31  5-MIN KLFT 190640Z AUTO 00000KT 10SM CLR 02/M01 A3041 -400 82 -2000 000/00 RMK AO2 T00221006
13976KLFT LFT20191219004511112/19/19 00:45:31  5-MIN KLFT 190645Z AUTO 00000KT 10SM CLR 02/M01 A3041 -400 82 -2000 000/00 RMK AO2 T00221006
13976KLFT LFT20191219005011812/19/19 00:50:31  5-MIN KLFT 190650Z AUTO 00000KT 10SM CLR 02/M01 A3041 -400 82 -2000 000/00 RMK AO2 SLP298 T00221006
13976KLFT LFT20191219005511112/19/19 00:55:31  5-MIN KLFT 190655Z AUTO 00000KT 10SM CLR 02/M01 A3041 -400 82 -2000 000/00 RMK AO2 T00221006
13976KLFT LFT20191219010011112/19/19 01:00:31  5-MIN KLFT 190700Z AUTO 00000KT 10SM CLR 02/M01 A3041 -400 85 -2000 000/00 RMK AO2 T00171006
13976KLFT LFT20191219010511112/19/19 01:05:31  5-MIN KLFT 190705Z AUTO 00000KT 10SM CLR 02/M01 A3041 -400 85 -2000 000/00 RMK AO2 T00171006
13976KLFT LFT20191219011011112/19/19 01:10:31  5-MIN KLFT 190710Z AUTO 00000KT 10SM CLR 02/M01 A3041 -400 85 -2000 000/00 RMK AO2 T00171006
13976KLFT LFT20191219011511112/19/19 01:15:31  5-MIN KLFT 190715Z AUTO 00000KT 10SM CLR 01/M01 A3041 -400 85 -2100 000/00 RMK AO2 T00111011
13976KLFT LFT20191219012011112/19/19 01:20:31  5-MIN KLFT 190720Z AUTO 00000KT 10SM CLR 02/M01 A3041 -400 82 -2000 000/00 RMK AO2 T00221006
13976KLFT LFT20191219012511112/19/19 01:25:31  5-MIN KLFT 190725Z AUTO 00000KT 10SM CLR 02/M01 A3041 -400 82 -2000 000/00 RMK AO2 T00221006
13976KLFT LFT20191219013011112/19/19 01:30:31  5-MIN KLFT 190730Z AUTO 00000KT 10SM CLR 02/M01 A3042 -410 82 -2000 000/00 RMK AO2 T00221006
13976KLFT LFT20191219013511112/19/19 01:35:31  5-MIN KLFT 190735Z AUTO 00000KT 10SM CLR 02/M01 A3042 -410 82 -2100 000/00 RMK AO2 T00171011
13976KLFT LFT20191219014011112/19/19 01:40:31  5-MIN KLFT 190740Z AUTO 33003KT 10SM CLR 01/M01 A3042 -410 85 -2100 330/03 RMK AO2 T00111011
13976KLFT LFT20191219014511112/19/19 01:45:31  5-MIN KLFT 190745Z AUTO 00000KT 10SM CLR 01/M01 A3042 -410 85 -2100 000/00 RMK AO2 T00111011
13976KLFT LFT20191219015011812/19/19 01:50:31  5-MIN KLFT 190750Z AUTO 00000KT 10SM CLR 01/M02 A3042 -410 85 -2200 000/00 RMK AO2 SLP300 T00061017
13976KLFT LFT20191219015511112/19/19 01:55:31  5-MIN KLFT 190755Z AUTO 00000KT 10SM CLR 01/M02 A3042 -410 82 -2100 000/00 RMK AO2 T00111017
13976KLFT LFT20191219020011112/19/19 02:00:31  5-MIN KLFT 190800Z AUTO 00000KT 10SM CLR 01/M01 A3042 -410 85 -2100 000/00 RMK AO2 T00111011
13976KLFT LFT20191219020511112/19/19 02:05:31  5-MIN KLFT 190805Z AUTO 00000KT 10SM CLR 01/M01 A3042 -410 85 -2100 000/00 RMK AO2 T00111011
13976KLFT LFT20191219021011112/19/19 02:10:31  5-MIN KLFT 190810Z AUTO 02003KT 10SM CLR 01/M01 A3042 -410 85 -2100 010/03 RMK AO2 T00111011
13976KLFT LFT20191219021511112/19/19 02:15:31  5-MIN KLFT 190815Z AUTO 03003KT 10SM CLR 01/M01 A3042 -410 89 -2200 020/03 RMK AO2 T00061011
13976KLFT LFT20191219022011112/19/19 02:20:31  5-MIN KLFT 190820Z AUTO 03003KT 10SM CLR 01/M01 A3042 -410 89 -2200 030/03 RMK AO2 T00061011
13976KLFT LFT20191219022511112/19/19 02:25:31  5-MIN KLFT 190825Z AUTO 03003KT 10SM CLR 00/M01 A3042 -410 92 -2300 030/03 RMK AO2 T00001011
13976KLFT LFT20191219023011112/19/19 02:30:31  5-MIN KLFT 190830Z AUTO 03003KT 10SM CLR 00/M01 A3042 -410 92 -2300 030/03 RMK AO2 T00001011
13976KLFT LFT20191219023511112/19/19 02:35:31  5-MIN KLFT 190835Z AUTO 02004KT 10SM CLR 00/M02 A3042 -410 88 -2300 020/04 RMK AO2 T00001017
13976KLFT LFT20191219024011112/19/19 02:40:31  5-MIN KLFT 190840Z AUTO 03004KT 10SM CLR 00/M02 A3041 -400 88 -2300 030/04 RMK AO2 T00001017
13976KLFT LFT20191219024511212/19/19 02:45:31  5-MIN KLFT 190845Z AUTO 05003KT 10SM CLR M01/M02 A3041 -400 88 -2300 050/03 RMK AO2 T10061022
13976KLFT LFT20191219025012412/19/19 02:50:31  5-MIN KLFT 190850Z AUTO 05003KT 10SM CLR 00/M02 A3041 -410 88 -2300 050/03 RMK AO2 SLP299 T00001017 53003
13976KLFT LFT20191219025511112/19/19 02:55:31  5-MIN KLFT 190855Z AUTO 00000KT 10SM CLR 01/M02 A3042 -410 85 -2200 000/00 RMK AO2 T00061017
13976KLFT LFT20191219030011112/19/19 03:00:31  5-MIN KLFT 190900Z AUTO 00000KT 10SM CLR 02/M01 A3042 -410 85 -2100 000/00 RMK AO2 T00171006
13976KLFT LFT20191219030511012/19/19 03:05:31  5-MIN KLFT 190905Z AUTO 00000KT 10SM CLR 02/00 A3042 -410 89 -2100 000/00 RMK AO2 T00170000
13976KLFT LFT20191219031011112/19/19 03:10:31  5-MIN KLFT 190910Z AUTO 05003KT 10SM CLR 02/M01 A3042 -410 85 -2100 050/03 RMK AO2 T00171006
13976KLFT LFT20191219031511112/19/19 03:15:31  5-MIN KLFT 190915Z AUTO 04003KT 10SM CLR 01/M01 A3042 -410 89 -2100 040/03 RMK AO2 T00111006
13976KLFT LFT20191219032011112/19/19 03:20:31  5-MIN KLFT 190920Z AUTO 00000KT 10SM CLR 01/M01 A3042 -410 89 -2200 000/00 RMK AO2 T00061011
13976KLFT LFT20191219032511112/19/19 03:25:31  5-MIN KLFT 190925Z AUTO 00000KT 10SM CLR 01/M02 A3042 -410 82 -2100 000/00 RMK AO2 T00111017
13976KLFT LFT20191219033011112/19/19 03:30:31  5-MIN KLFT 190930Z AUTO 00000KT 10SM CLR 01/M01 A3042 -410 85 -2100 000/00 RMK AO2 T00111011
13976KLFT LFT20191219033511112/19/19 03:35:31  5-MIN KLFT 190935Z AUTO 00000KT 10SM CLR 01/M01 A3042 -410 85 -2100 000/00 RMK AO2 T00111011
13976KLFT LFT20191219034011112/19/19 03:40:31  5-MIN KLFT 190940Z AUTO 00000KT 10SM CLR 01/M01 A3042 -410 89 -2100 000/00 RMK AO2 T00111006
13976KLFT LFT20191219034510912/19/19 03:45:31  5-MIN KLFT 190945Z AUTO 00000KT 9SM CLR 01/00 A3042 -410 92 -2100 000/00 RMK AO2 T00110000
13976KLFT LFT20191219035011712/19/19 03:50:31  5-MIN KLFT 190950Z AUTO 00000KT 9SM CLR 01/M01 A3042 -410 89 -2100 000/00 RMK AO2 SLP300 T00111006
13976KLFT LFT20191219035511112/19/19 03:55:31  5-MIN KLFT 190955Z AUTO 00000KT 10SM CLR 01/M01 A3042 -410 89 -2100 000/00 RMK AO2 T00111006
13976KLFT LFT20191219040011112/19/19 04:00:31  5-MIN KLFT 191000Z AUTO 00000KT 10SM CLR 01/M01 A3042 -410 85 -2100 000/00 RMK AO2 T00111011
13976KLFT LFT20191219040511112/19/19 04:05:31  5-MIN KLFT 191005Z AUTO 00000KT 10SM CLR 01/M02 A3042 -410 85 -2200 000/00 RMK AO2 T00061017
13976KLFT LFT20191222220510312/22/19 22:05:31  5-MIN KLFT 230405Z 32012KT 10SM CLR 12/06 A3005 -70 66 -400 320/12 RMK AO2 T01170056
13976KLFT LFT20191222221010312/22/19 22:10:31  5-MIN KLFT 230410Z 32013KT 10SM CLR 12/06 A3004 -70 66 -400 320/13 RMK AO2 T01170056
13976KLFT LFT20191222221510312/22/19 22:15:31  5-MIN KLFT 230415Z 33013KT 10SM CLR 12/06 A3004 -60 66 -400 320/13 RMK AO2 T01170056
13976KLFT LFT20191222222010312/22/19 22:20:31  5-MIN KLFT 230420Z 33011KT 10SM CLR 12/06 A3004 -60 66 -400 320/11 RMK AO2 T01170056
13976KLFT LFT20191222222510812/22/19 22:25:31  5-MIN KLFT 230425Z AUTO 32011KT 10SM CLR 12/06 A3004 -60 66 -400 320/11 RMK AO2 T01170056
13976KLFT LFT20191222223010812/22/19 22:30:31  5-MIN KLFT 230430Z AUTO 32009KT 10SM CLR 11/06 A3004 -60 68 -500 320/09 RMK AO2 T01110056
13976KLFT LFT20191222223510812/22/19 22:35:31  5-MIN KLFT 230435Z AUTO 32009KT 10SM CLR 11/06 A3003 -60 68 -500 320/09 RMK AO2 T01110056
13976KLFT LFT20191222224010812/22/19 22:40:31  5-MIN KLFT 230440Z AUTO 32008KT 10SM CLR 11/06 A3003 -50 68 -400 320/08 RMK AO2 T01110056
13976KLFT LFT20191222224510812/22/19 22:45:31  5-MIN KLFT 230445Z AUTO 31008KT 10SM CLR 11/06 A3003 -50 71 -500 310/08 RMK AO2 T01060056
13976KLFT LFT20191222225011512/22/19 22:50:31  5-MIN KLFT 230450Z AUTO 31008KT 10SM CLR 11/06 A3003 -50 71 -500 310/08 RMK AO2 SLP168 T01060056
13976KLFT LFT20191222225510812/22/19 22:55:31  5-MIN KLFT 230455Z AUTO 31007KT 10SM CLR 11/05 A3003 -50 68 -500 310/07 RMK AO2 T01060050
13976KLFT LFT20191222230010812/22/19 23:00:31  5-MIN KLFT 230500Z AUTO 30007KT 10SM CLR 11/05 A3003 -50 68 -500 300/07 RMK AO2 T01060050
13976KLFT LFT20191222230510812/22/19 23:05:31  5-MIN KLFT 230505Z AUTO 30007KT 10SM CLR 11/05 A3003 -50 68 -500 300/07 RMK AO2 T01060050
13976KLFT LFT20191222231010812/22/19 23:10:31  5-MIN KLFT 230510Z AUTO 31008KT 10SM CLR 11/06 A3003 -50 71 -500 310/08 RMK AO2 T01060056
13976KLFT LFT20191222231511112/22/19 23:15:31  5-MIN KLFT 230515Z AUTO 30009KT 10SM FEW100 11/06 A3003 -50 71 -500 300/09 RMK AO2 T01060056
13976KLFT LFT20191222232011112/22/19 23:20:31  5-MIN KLFT 230520Z AUTO 31008KT 10SM FEW100 11/06 A3003 -50 71 -500 300/08 RMK AO2 T01060056
13976KLFT LFT20191222232510812/22/19 23:25:31  5-MIN KLFT 230525Z AUTO 30009KT 10SM CLR 11/06 A3002 -50 71 -500 300/09 RMK AO2 T01060056
13976KLFT LFT20191222233010812/22/19 23:30:31  5-MIN KLFT 230530Z AUTO 29009KT 10SM CLR 11/05 A3002 -40 68 -500 290/09 RMK AO2 T01060050
13976KLFT LFT20191222233510812/22/19 23:35:31  5-MIN KLFT 230535Z AUTO 29009KT 10SM CLR 11/05 A3002 -40 68 -500 290/09 RMK AO2 T01060050
13976KLFT LFT20191222234010812/22/19 23:40:31  5-MIN KLFT 230540Z AUTO 29009KT 10SM CLR 11/05 A3002 -40 68 -500 290/09 RMK AO2 T01060050
13976KLFT LFT20191222234510812/22/19 23:45:31  5-MIN KLFT 230545Z AUTO 29009KT 10SM CLR 11/05 A3002 -40 68 -500 290/09 RMK AO2 T01060050
13976KLFT LFT20191222235014312/22/19 23:50:31  5-MIN KLFT 230550Z AUTO 30010KT 10SM CLR 11/05 A3002 -40 68 -500 300/10 RMK AO2 SLP165 T01060050 10122 20106 401560094 55000
13976KLFT LFT20191222235510812/22/19 23:55:31  5-MIN KLFT 230555Z AUTO 31009KT 10SM CLR 11/05 A3002 -40 68 -500 310/09 RMK AO2 T01060050
13976KLFT LFT20191223000011812/23/19 00:00:31  5-MIN KLFT 230600Z AUTO 30011KT 10SM FEW023 FEW028 11/05 A3002 -50 68 -500 300/11 RMK AO2 T01060050
13976KLFT LFT20191223000511812/23/19 00:05:31  5-MIN KLFT 230605Z AUTO 31009KT 10SM SCT023 SCT028 11/05 A3002 -40 68 -500 310/09 RMK AO2 T01060050
13976KLFT LFT20191223001011112/23/19 00:10:31  5-MIN KLFT 230610Z AUTO 30009KT 10SM BKN023 11/05 A3002 -40 68 -500 300/09 RMK AO2 T01060050
13976KLFT LFT20191223001511112/23/19 00:15:31  5-MIN KLFT 230615Z AUTO 31009KT 10SM BKN023 11/05 A3002 -40 68 -500 310/09 RMK AO2 T01060050
13976KLFT LFT20191223002011112/23/19 00:20:31  5-MIN KLFT 230620Z AUTO 31010KT 10SM BKN023 11/05 A3002 -40 68 -500 310/10 RMK AO2 T01060050
13976KLFT LFT20191223002511112/23/19 00:25:31  5-MIN KLFT 230625Z AUTO 32010KT 10SM OVC023 11/05 A3002 -40 68 -500 310/10 RMK AO2 T01060050
13976KLFT LFT20191223003011112/23/19 00:30:31  5-MIN KLFT 230630Z AUTO 31009KT 10SM OVC022 11/05 A3002 -40 68 -500 310/09 RMK AO2 T01060050
13976KLFT LFT20191223003511112/23/19 00:35:31  5-MIN KLFT 230635Z AUTO 31009KT 10SM OVC022 11/05 A3001 -40 66 -400 310/09 RMK AO2 T01110050
13976KLFT LFT20191223004011112/23/19 00:40:31  5-MIN KLFT 230640Z AUTO 32010KT 10SM OVC022 11/05 A3001 -40 68 -500 320/10 RMK AO2 T01060050
13976KLFT LFT20191223004511112/23/19 00:45:31  5-MIN KLFT 230645Z AUTO 32011KT 10SM OVC021 11/05 A3001 -30 66 -400 320/11 RMK AO2 T01110050
13976KLFT LFT20191223005011812/23/19 00:50:31  5-MIN KLFT 230650Z AUTO 32012KT 10SM OVC021 11/05 A3001 -30 66 -400 320/12 RMK AO2 SLP161 T01110050
13976KLFT LFT20191223005511712/23/19 00:55:31  5-MIN KLFT 230655Z AUTO 31011G18KT 10SM OVC021 11/05 A3001 -30 66 -400 310/11G18 RMK AO2 T01110050
13976KLFT LFT20191223010011712/23/19 01:00:31  5-MIN KLFT 230700Z AUTO 31010G18KT 10SM OVC021 11/05 A3001 -30 66 -400 310/10G18 RMK AO2 T01110050
13976KLFT LFT20191223010511112/23/19 01:05:31  5-MIN KLFT 230705Z AUTO 31012KT 10SM OVC021 11/05 A3001 -30 66 -400 310/12 RMK AO2 T01110050
13976KLFT LFT20191223011011112/23/19 01:10:31  5-MIN KLFT 230710Z AUTO 31009KT 10SM OVC021 11/05 A3001 -30 66 -400 310/09 RMK AO2 T01110050
13976KLFT LFT20191223011511112/23/19 01:15:31  5-MIN KLFT 230715Z AUTO 31012KT 10SM OVC021 11/05 A3001 -30 66 -400 310/12 RMK AO2 T01110050
13976KLFT LFT20191223012011112/23/19 01:20:31  5-MIN KLFT 230720Z AUTO 31010KT 10SM OVC021 11/05 A3001 -30 66 -400 310/10 RMK AO2 T01110050
13976KLFT LFT20191223012511112/23/19 01:25:31  5-MIN KLFT 230725Z AUTO 30010KT 10SM OVC021 11/06 A3001 -30 68 -400 300/10 RMK AO2 T01110056
13976KLFT LFT20191223013011112/23/19 01:30:31  5-MIN KLFT 230730Z AUTO 31010KT 10SM OVC020 11/05 A3001 -30 66 -400 310/10 RMK AO2 T01110050
13976KLFT LFT20191223013511112/23/19 01:35:31  5-MIN KLFT 230735Z AUTO 31010KT 10SM OVC020 11/05 A3000 -30 66 -400 310/10 RMK AO2 T01110050
13976KLFT LFT20191223014011112/23/19 01:40:31  5-MIN KLFT 230740Z AUTO 31010KT 10SM OVC020 11/05 A3000 -30 66 -400 310/10 RMK AO2 T01110050
13976KLFT LFT20191223014511712/23/19 01:45:31  5-MIN KLFT 230745Z AUTO 31010G16KT 10SM OVC019 11/05 A3000 -30 66 -400 310/10G16 RMK AO2 T01110050
13976KLFT LFT20191223015012412/23/19 01:50:31  5-MIN KLFT 230750Z AUTO 31011G16KT 10SM OVC019 11/05 A3001 -30 66 -400 310/11G16 RMK AO2 SLP160 T01110050
13976KLFT LFT20191223015511112/23/19 01:55:31  5-MIN KLFT 230755Z AUTO 32012KT 10SM OVC019 11/05 A3000 -30 66 -400 320/12 RMK AO2 T01110050
13976KLFT LFT20191223020011712/23/19 02:00:31  5-MIN KLFT 230800Z AUTO 32011G18KT 10SM OVC019 11/05 A3000 -30 66 -400 320/11G18 RMK AO2 T01110050
13976KLFT LFT20191223020511712/23/19 02:05:31  5-MIN KLFT 230805Z AUTO 32009G18KT 10SM OVC019 11/05 A3000 -30 66 -400 320/09G18 RMK AO2 T01110050
13976KLFT LFT20191223021011112/23/19 02:10:31  5-MIN KLFT 230810Z AUTO 32010KT 10SM OVC019 11/05 A3000 -30 66 -400 320/10 RMK AO2 T01110050
13976KLFT LFT20191223021511112/23/19 02:15:31  5-MIN KLFT 230815Z AUTO 32011KT 10SM OVC019 11/05 A3000 -30 66 -400 320/11 RMK AO2 T01110050
13976KLFT LFT20191223022011712/23/19 02:20:31  5-MIN KLFT 230820Z AUTO 32011G17KT 10SM OVC019 11/05 A3000 -20 66 -400 310/11G17 RMK AO2 T01110050
13976KLFT LFT20191223022511112/23/19 02:25:31  5-MIN KLFT 230825Z AUTO 32012KT 10SM OVC020 11/05 A3000 -20 66 -400 320/12 RMK AO2 T01110050
13976KLFT LFT20191223023011112/23/19 02:30:31  5-MIN KLFT 230830Z AUTO 32012KT 10SM OVC020 11/06 A3000 -20 68 -400 320/12 RMK AO2 T01110056
13976KLFT LFT20191223023511712/23/19 02:35:31  5-MIN KLFT 230835Z AUTO 32012G19KT 10SM OVC020 11/06 A3000 -20 68 -400 320/12G19 RMK AO2 T01110056
13976KLFT LFT20191223024011112/23/19 02:40:31  5-MIN KLFT 230840Z AUTO 32011KT 10SM OVC019 11/06 A3000 -20 68 -400 320/11 RMK AO2 T01110056
13976KLFT LFT20191223024511112/23/19 02:45:31  5-MIN KLFT 230845Z AUTO 32011KT 10SM OVC019 11/06 A3000 -20 68 -400 320/11 RMK AO2 T01110056
13976KLFT LFT20191223025012412/23/19 02:50:31  5-MIN KLFT 230850Z AUTO 33012KT 10SM OVC019 11/06 A3000 -20 68 -400 320/12 RMK AO2 SLP157 T01110056 58012
13976KLFT LFT20191223025511112/23/19 02:55:31  5-MIN KLFT 230855Z AUTO 32010KT 10SM OVC019 11/06 A2999 -20 68 -400 320/10 RMK AO2 T01110056
13976KLFT LFT20191223030011112/23/19 03:00:31  5-MIN KLFT 230900Z AUTO 32009KT 10SM OVC019 11/06 A2999 -20 68 -400 320/09 RMK AO2 T01110056
13976KLFT LFT20191223030511112/23/19 03:05:31  5-MIN KLFT 230905Z AUTO 32008KT 10SM OVC019 11/06 A2999 -20 68 -400 320/08 RMK AO2 T01110056
13976KLFT LFT20191223031011112/23/19 03:10:31  5-MIN KLFT 230910Z AUTO 32010KT 10SM OVC019 11/06 A2999 -20 68 -400 320/10 RMK AO2 T01110056
13976KLFT LFT20191223031511112/23/19 03:15:31  5-MIN KLFT 230915Z AUTO 32009KT 10SM OVC019 11/06 A2999 -20 68 -400 320/09 RMK AO2 T01110056
13976KLFT LFT20191223032011112/23/19 03:20:31  5-MIN KLFT 230920Z AUTO 33009KT 10SM OVC019 11/06 A2999 -20 68 -400 320/09 RMK AO2 T01110056
13976KLFT LFT20191223032511712/23/19 03:25:31  5-MIN KLFT 230925Z AUTO 32010G16KT 10SM OVC019 11/06 A2999 -20 68 -400 320/10G16 RMK AO2 T01110056
13976KLFT LFT20191223033011112/23/19 03:30:31  5-MIN KLFT 230930Z AUTO 33009KT 10SM OVC018 11/06 A2999 -20 71 -400 330/09 RMK AO2 T01110061
13976KLFT LFT20191223033511112/23/19 03:35:31  5-MIN KLFT 230935Z AUTO 33009KT 10SM OVC018 11/06 A3000 -20 71 -400 330/09 RMK AO2 T01110061
13976KLFT LFT20191223034011112/23/19 03:40:31  5-MIN KLFT 230940Z AUTO 34008KT 10SM OVC018 11/06 A3000 -20 71 -400 330/08 RMK AO2 T01110061
13976KLFT LFT20191223034511112/23/19 03:45:31  5-MIN KLFT 230945Z AUTO 34009KT 10SM OVC018 11/06 A3000 -20 71 -400 340/09 RMK AO2 T01110061
13976KLFT LFT20191223035011812/23/19 03:50:31  5-MIN KLFT 230950Z AUTO 34010KT 10SM OVC018 12/07 A3000 -20 71 -300 340/10 RMK AO2 SLP157 T01170067
13976KLFT LFT20191223035511112/23/19 03:55:31  5-MIN KLFT 230955Z AUTO 33012KT 10SM OVC018 11/07 A2999 -20 74 -400 330/12 RMK AO2 T01110067
13976KLFT LFT20191223040011112/23/19 04:00:31  5-MIN KLFT 231000Z AUTO 33012KT 10SM OVC018 12/07 A2999 -10 71 -300 320/12 RMK AO2 T01170067
13976KLFT LFT20191223040511112/23/19 04:05:31  5-MIN KLFT 231005Z AUTO 34012KT 10SM OVC018 12/07 A2999 -10 71 -300 330/12 RMK AO2 T01170067
13976KLFT LFT20191223041011112/23/19 04:10:31  5-MIN KLFT 231010Z AUTO 33013KT 10SM OVC017 12/07 A2999 -20 71 -300 330/13 RMK AO2 T01170067
13976KLFT LFT20191223041511112/23/19 04:15:31  5-MIN KLFT 231015Z AUTO 33011KT 10SM OVC017 12/07 A2999 -20 71 -300 330/11 RMK AO2 T01170067
13976KLFT LFT20191223042011112/23/19 04:20:31  5-MIN KLFT 231020Z AUTO 34012KT 10SM OVC016 12/07 A3000 -20 71 -300 340/12 RMK AO2 T01170067
13976KLFT LFT20191223042511712/23/19 04:25:31  5-MIN KLFT 231025Z AUTO 33011G19KT 10SM OVC016 12/07 A2999 -20 71 -300 330/11G19 RMK AO2 T01170067
13976KLFT LFT20191223043011112/23/19 04:30:31  5-MIN KLFT 231030Z AUTO 33010KT 10SM OVC016 12/07 A2999 -20 71 -300 330/10 RMK AO2 T01170067
13976KLFT LFT20191223043511112/23/19 04:35:31  5-MIN KLFT 231035Z AUTO 33009KT 10SM OVC017 12/07 A2999 -20 74 -300 330/09 RMK AO2 T01170072
13976KLFT LFT20191223044011112/23/19 04:40:31  5-MIN KLFT 231040Z AUTO 32011KT 10SM OVC017 12/07 A3000 -20 74 -300 320/11 RMK AO2 T01170072
13976KLFT LFT20191223044511112/23/19 04:45:31  5-MIN KLFT 231045Z AUTO 33009KT 10SM OVC017 12/07 A3000 -20 74 -300 330/09 RMK AO2 T01170072
13976KLFT LFT20191223045011812/23/19 04:50:31  5-MIN KLFT 231050Z AUTO 33010KT 10SM OVC017 12/07 A3000 -20 74 -300 330/10 RMK AO2 SLP156 T01170072
13976KLFT LFT20191223045511112/23/19 04:55:31  5-MIN KLFT 231055Z AUTO 33009KT 10SM OVC017 12/07 A3000 -20 74 -300 330/09 RMK AO2 T01170072
13976KLFT LFT20191223050011112/23/19 05:00:31  5-MIN KLFT 231100Z AUTO 33011KT 10SM OVC017 12/07 A3000 -20 74 -300 330/11 RMK AO2 T01170072
13976KLFT LFT20191223050511112/23/19 05:05:31  5-MIN KLFT 231105Z AUTO 34010KT 10SM OVC017 12/07 A3000 -20 74 -300 340/10 RMK AO2 T01170072
13976KLFT LFT20191223051011112/23/19 05:10:31  5-MIN KLFT 231110Z AUTO 33010KT 10SM OVC016 12/07 A3000 -20 74 -300 330/10 RMK AO2 T01170072
13976KLFT LFT20191223051511112/23/19 05:15:31  5-MIN KLFT 231115Z AUTO 34010KT 10SM OVC016 12/08 A2999 -20 77 -300 340/10 RMK AO2 T01170078
13976KLFT LFT20191223052011112/23/19 05:20:31  5-MIN KLFT 231120Z AUTO 35011KT 10SM OVC016 12/08 A2999 -20 77 -300 350/11 RMK AO2 T01170078
13976KLFT LFT20191223052511712/23/19 05:25:31  5-MIN KLFT 231125Z AUTO 35012G19KT 10SM OVC016 12/08 A3000 -20 80 -300 350/12G19 RMK AO2 T01170083
13976KLFT LFT20191223053011212/23/19 05:30:31  5-MIN KLFT 231130Z 35014G22KT 10SM OVC016 12/08 A3000 -20 77 -300 350/14G22 RMK AO2 T01220083
13976KLFT LFT20191223053511212/23/19 05:35:31  5-MIN KLFT 231135Z 35013G22KT 10SM OVC016 12/08 A3000 -20 77 -300 350/13G22 RMK AO2 T01220083
13976KLFT LFT20191223054010612/23/19 05:40:31  5-MIN KLFT 231140Z 33008KT 10SM OVC016 12/08 A3000 -30 80 -300 330/08 RMK AO2 T01170083
13976KLFT LFT20191223054510612/23/19 05:45:31  5-MIN KLFT 231145Z 33012KT 10SM OVC016 12/08 A3000 -30 77 -300 330/12 RMK AO2 T01220083
13976KLFT LFT20191223055013112/23/19 05:50:31  5-MIN KLFT 231150Z 34012KT 10SM OVC015 12/08 A3001 -30 80 -400 340/12 RMK AO2 SLP160 T01170083 10122 20106 56009
13976KLFT LFT20191223055510612/23/19 05:55:31  5-MIN KLFT 231155Z 33011KT 10SM OVC015 12/08 A3001 -30 80 -400 330/11 RMK AO2 T01170083
13976KLFT LFT20191223060010612/23/19 06:00:31  5-MIN KLFT 231200Z 33012KT 10SM OVC016 12/08 A3001 -30 80 -400 330/12 RMK AO2 T01170083
13976KLFT LFT20191223060511212/23/19 06:05:31  5-MIN KLFT 231205Z 33010G17KT 10SM OVC016 12/08 A3001 -30 80 -400 330/10G17 RMK AO2 T01170083
13976KLFT LFT20191223061011212/23/19 06:10:31  5-MIN KLFT 231210Z 34010G17KT 10SM OVC016 12/08 A3001 -30 80 -400 340/10G17 RMK AO2 T01170083
13976KLFT LFT20191223061511212/23/19 06:15:31  5-MIN KLFT 231215Z 34011G20KT 10SM OVC016 12/08 A3001 -40 80 -400 340/11G20 RMK AO2 T01170083
13976KLFT LFT20191223062011212/23/19 06:20:31  5-MIN KLFT 231220Z 33008G20KT 10SM OVC016 12/08 A3001 -40 80 -400 330/08G20 RMK AO2 T01170083
13976KLFT LFT20191223062511212/23/19 06:25:31  5-MIN KLFT 231225Z 33010G18KT 10SM OVC015 12/08 A3001 -40 77 -400 330/10G18 RMK AO2 T01170078
13976KLFT LFT20191223063010612/23/19 06:30:31  5-MIN KLFT 231230Z 33013KT 10SM OVC015 12/08 A3001 -40 77 -400 330/13 RMK AO2 T01170078
13976KLFT LFT20191223063511212/23/19 06:35:31  5-MIN KLFT 231235Z 32011G18KT 10SM OVC015 11/08 A3002 -40 80 -400 320/11G18 RMK AO2 T01110078
13976KLFT LFT20191223064010612/23/19 06:40:31  5-MIN KLFT 231240Z 31008KT 10SM OVC015 11/08 A3002 -40 80 -400 310/08 RMK AO2 T01110078
13976KLFT LFT20191223064510612/23/19 06:45:31  5-MIN KLFT 231245Z 33011KT 10SM OVC014 11/08 A3002 -40 80 -400 320/11 RMK AO2 T01110078
13976KLFT LFT20191223065011912/23/19 06:50:31  5-MIN KLFT 231250Z 32008G17KT 10SM OVC014 11/08 A3002 -40 80 -400 320/08G17 RMK AO2 SLP165 T01110078
13976KLFT LFT20191223065511212/23/19 06:55:31  5-MIN KLFT 231255Z 33009G17KT 10SM OVC014 11/08 A3002 -40 80 -400 320/09G17 RMK AO2 T01110078
13976KLFT LFT20191223070010612/23/19 07:00:31  5-MIN KLFT 231300Z 32009KT 10SM OVC014 11/08 A3003 -50 80 -400 320/09 RMK AO2 T01110078
13976KLFT LFT20191223070510612/23/19 07:05:31  5-MIN KLFT 231305Z 32010KT 10SM OVC013 11/08 A3003 -50 80 -400 320/10 RMK AO2 T01110078
13976KLFT LFT20191223071010612/23/19 07:10:31  5-MIN KLFT 231310Z 32010KT 10SM OVC013 11/08 A3004 -60 80 -500 320/10 RMK AO2 T01110078
13976KLFT LFT20191223071510612/23/19 07:15:31  5-MIN KLFT 231315Z 32009KT 10SM OVC013 11/08 A3004 -60 80 -500 320/09 RMK AO2 T01110078
13976KLFT LFT20191223072010612/23/19 07:20:31  5-MIN KLFT 231320Z 31009KT 10SM OVC014 11/08 A3004 -70 80 -500 310/09 RMK AO2 T01110078
13976KLFT LFT20191223072510612/23/19 07:25:31  5-MIN KLFT 231325Z 31009KT 10SM OVC014 11/08 A3005 -70 83 -500 310/09 RMK AO2 T01060078
13976KLFT LFT20191223073010612/23/19 07:30:31  5-MIN KLFT 231330Z 31009KT 10SM OVC014 11/07 A3005 -70 80 -500 310/09 RMK AO2 T01060072
13976KLFT LFT20191223073510612/23/19 07:35:31  5-MIN KLFT 231335Z 31007KT 10SM OVC014 11/07 A3005 -70 80 -500 310/07 RMK AO2 T01060072
13976KLFT LFT20191223074010612/23/19 07:40:31  5-MIN KLFT 231340Z 32009KT 10SM OVC013 11/07 A3005 -70 80 -500 310/09 RMK AO2 T01060072
13976KLFT LFT20191223074510612/23/19 07:45:31  5-MIN KLFT 231345Z 31007KT 10SM OVC013 11/07 A3006 -80 80 -500 310/07 RMK AO2 T01060072
13976KLFT LFT20191223075011312/23/19 07:50:31  5-MIN KLFT 231350Z 31009KT 10SM OVC013 11/07 A3006 -80 80 -500 300/09 RMK AO2 SLP177 T01060072
13976KLFT LFT20191223075510612/23/19 07:55:31  5-MIN KLFT 231355Z 31008KT 10SM OVC013 11/07 A3006 -80 80 -500 310/08 RMK AO2 T01060072
13976KLFT LFT20191223080010612/23/19 08:00:31  5-MIN KLFT 231400Z 32007KT 10SM OVC013 11/07 A3006 -80 80 -500 320/07 RMK AO2 T01060072
13976KLFT LFT20191223080510612/23/19 08:05:31  5-MIN KLFT 231405Z 32009KT 10SM OVC013 11/07 A3006 -80 80 -500 320/09 RMK AO2 T01060072
13976KLFT LFT20191223081010612/23/19 08:10:31  5-MIN KLFT 231410Z 32009KT 10SM OVC013 11/07 A3006 -80 80 -600 320/09 RMK AO2 T01060072
13976KLFT LFT20191223081510612/23/19 08:15:31  5-MIN KLFT 231415Z 32009KT 10SM OVC013 11/07 A3006 -80 80 -600 320/09 RMK AO2 T01060072
13976KLFT LFT20191223082010612/23/19 08:20:31  5-MIN KLFT 231420Z 32008KT 10SM OVC013 11/07 A3007 -90 80 -600 320/08 RMK AO2 T01060072
13976KLFT LFT20191223082510612/23/19 08:25:31  5-MIN KLFT 231425Z 32008KT 10SM OVC013 11/08 A3007 -90 83 -600 320/08 RMK AO2 T01060078
13976KLFT LFT20191223083010612/23/19 08:30:31  5-MIN KLFT 231430Z 32009KT 10SM OVC013 11/07 A3007 -90 80 -600 310/09 RMK AO2 T01060072
13976KLFT LFT20191223083510612/23/19 08:35:31  5-MIN KLFT 231435Z 32009KT 10SM OVC013 11/08 A3007 -90 80 -500 320/09 RMK AO2 T01110078
13976KLFT LFT20191223084010612/23/19 08:40:31  5-MIN KLFT 231440Z 31010KT 10SM OVC013 11/08 A3007 -90 80 -500 310/10 RMK AO2 T01110078
13976KLFT LFT20191223084510612/23/19 08:45:31  5-MIN KLFT 231445Z 32009KT 10SM OVC013 11/08 A3007 -90 80 -500 320/09 RMK AO2 T01110078
13976KLFT LFT20191223085011912/23/19 08:50:31  5-MIN KLFT 231450Z 33011KT 10SM OVC011 11/08 A3007 -90 80 -500 330/11 RMK AO2 SLP183 T01110078 53004
13976KLFT LFT20191223085510612/23/19 08:55:31  5-MIN KLFT 231455Z 32010KT 10SM OVC013 11/08 A3007 -90 80 -500 320/10 RMK AO2 T01110078
13976KLFT LFT20191223090011212/23/19 09:00:31  5-MIN KLFT 231500Z 33013G17KT 10SM OVC013 11/08 A3007 -90 80 -500 320/13G17 RMK AO2 T01110078
13976KLFT LFT20191223090511212/23/19 09:05:31  5-MIN KLFT 231505Z 32012G17KT 10SM OVC013 11/08 A3007 -90 80 -500 320/12G17 RMK AO2 T01110078
13976KLFT LFT20191223091010612/23/19 09:10:31  5-MIN KLFT 231510Z 33008KT 10SM OVC013 12/08 A3007 -90 77 -400 330/08 RMK AO2 T01170078
13976KLFT LFT20191223091510612/23/19 09:15:31  5-MIN KLFT 231515Z 33009KT 10SM OVC013 12/08 A3008 -90 77 -400 330/09 RMK AO2 T01170078
13976KLFT LFT20191223092010712/23/19 09:20:31  5-MIN KLFT 231520Z 33010KT 10SM OVC013 12/08 A3008 -100 77 -400 330/10 RMK AO2 T01170078
13976KLFT LFT20191223092510712/23/19 09:25:31  5-MIN KLFT 231525Z 33010KT 10SM OVC013 12/08 A3008 -100 77 -400 330/10 RMK AO2 T01170078
13976KLFT LFT20191223093010712/23/19 09:30:31  5-MIN KLFT 231530Z 33009KT 10SM OVC013 12/08 A3009 -100 77 -400 320/09 RMK AO2 T01170078
13976KLFT LFT20191223093510712/23/19 09:35:31  5-MIN KLFT 231535Z 34009KT 10SM OVC013 12/08 A3009 -110 80 -400 340/09 RMK AO2 T01170083
13976KLFT LFT20191223094010712/23/19 09:40:31  5-MIN KLFT 231540Z 34009KT 10SM OVC013 12/08 A3009 -110 77 -400 340/09 RMK AO2 T01220083
13976KLFT LFT20191223094510712/23/19 09:45:31  5-MIN KLFT 231545Z 34010KT 10SM OVC013 12/08 A3009 -110 77 -400 330/10 RMK AO2 T01220083
13976KLFT LFT20191223095012012/23/19 09:50:31  5-MIN KLFT 231550Z 33013G17KT 10SM OVC012 12/08 A3009 -110 77 -400 330/13G17 RMK AO2 SLP188 T01220083
13976KLFT LFT20191223095510712/23/19 09:55:31  5-MIN KLFT 231555Z 34010KT 10SM OVC014 12/08 A3009 -110 77 -400 340/10 RMK AO2 T01220083
13976KLFT LFT20191223100010712/23/19 10:00:31  5-MIN KLFT 231600Z 34011KT 10SM OVC014 12/08 A3009 -110 77 -400 340/11 RMK AO2 T01220083
13976KLFT LFT20191224184009212/24/19 18:40:31  5-MIN KLFT 250040Z 10SM CLR 17/11 A2999 -20 67 300 M /M RMK AO2 T01720111
13976KLFT LFT20191224184509212/24/19 18:45:31  5-MIN KLFT 250045Z 10SM CLR 18/11 A2999 -10 64 300 M /M RMK AO2 T01780111
13976KLFT LFT20191224185009912/24/19 18:50:31  5-MIN KLFT 250050Z 10SM CLR 18/12 A2999 -10 67 300 M /M RMK AO2 SLP155 T01780117
13976KLFT LFT20191224185510212/24/19 18:55:31  5-MIN KLFT 250055Z 00000KT 10SM CLR 18/12 A2999 -10 67 300 000/00 RMK AO2 T01780117
13976KLFT LFT20191224190010212/24/19 19:00:31  5-MIN KLFT 250100Z 00000KT 10SM CLR 18/12 A2999 -10 67 300 000/00 RMK AO2 T01780117
13976KLFT LFT20191224190510212/24/19 19:05:31  5-MIN KLFT 250105Z 00000KT 10SM CLR 17/12 A2999 -10 69 300 000/00 RMK AO2 T01720117
13976KLFT LFT20191224191010212/24/19 19:10:31  5-MIN KLFT 250110Z 00000KT 10SM CLR 17/12 A2999 -10 72 200 000/00 RMK AO2 T01670117
13976KLFT LFT20191224191510212/24/19 19:15:31  5-MIN KLFT 250115Z 00000KT 10SM CLR 16/12 A2999 -20 75 100 000/00 RMK AO2 T01610117
13976KLFT LFT20191224192010212/24/19 19:20:31  5-MIN KLFT 250120Z 00000KT 10SM CLR 17/12 A2999 -20 72 200 000/00 RMK AO2 T01670117
13976KLFT LFT20191224192510212/24/19 19:25:31  5-MIN KLFT 250125Z 00000KT 10SM CLR 16/11 A2999 -20 72 100 000/00 RMK AO2 T01610111
13976KLFT LFT20191224193010012/24/19 19:30:31  5-MIN KLFT 250130Z 00000KT 10SM CLR 15/11 A2999 -20 77 0 000/00 RMK AO2 T01500111
13976KLFT LFT20191224193510212/24/19 19:35:31  5-MIN KLFT 250135Z 00000KT 10SM CLR 16/11 A2999 -20 74 100 000/00 RMK AO2 T01560111
13976KLFT LFT20191224194010212/24/19 19:40:31  5-MIN KLFT 250140Z 00000KT 10SM CLR 16/11 A2999 -20 74 100 000/00 RMK AO2 T01560111
13976KLFT LFT20191224194510212/24/19 19:45:31  5-MIN KLFT 250145Z 00000KT 10SM CLR 16/11 A2999 -20 74 100 000/00 RMK AO2 T01560111
13976KLFT LFT20191224195010912/24/19 19:50:31  5-MIN KLFT 250150Z 00000KT 10SM CLR 16/11 A2999 -20 74 100 000/00 RMK AO2 SLP155 T01560111
13976KLFT LFT20191224195510212/24/19 19:55:31  5-MIN KLFT 250155Z 00000KT 10SM CLR 16/12 A2999 -20 77 100 000/00 RMK AO2 T01560117
13976KLFT LFT20191224200010212/24/19 20:00:31  5-MIN KLFT 250200Z 00000KT 10SM CLR 16/12 A2999 -20 77 100 000/00 RMK AO2 T01560117
13976KLFT LFT20191224200510012/24/19 20:05:31  5-MIN KLFT 250205Z 00000KT 10SM CLR 15/12 A2999 -20 80 0 000/00 RMK AO2 T01500117
13976KLFT LFT20191224201010012/24/19 20:10:31  5-MIN KLFT 250210Z 00000KT 10SM CLR 15/12 A2999 -20 80 0 000/00 RMK AO2 T01500117
13976KLFT LFT20191224201510012/24/19 20:15:31  5-MIN KLFT 250215Z 00000KT 10SM CLR 15/12 A2999 -20 80 0 000/00 RMK AO2 T01500117
13976KLFT LFT20191224202010012/24/19 20:20:31  5-MIN KLFT 250220Z 00000KT 10SM CLR 14/12 A2999 -20 83 0 000/00 RMK AO2 T01440117
13976KLFT LFT20191224202510012/24/19 20:25:31  5-MIN KLFT 250225Z 00000KT 10SM CLR 14/12 A2999 -20 83 0 000/00 RMK AO2 T01440117
13976KLFT LFT20191224203010312/24/19 20:30:31  5-MIN KLFT 250230Z 00000KT 10SM CLR 14/12 A2999 -20 86 -100 000/00 RMK AO2 T01390117
13976KLFT LFT20191224203510312/24/19 20:35:31  5-MIN KLFT 250235Z 00000KT 10SM CLR 14/12 A2999 -20 86 -100 000/00 RMK AO2 T01390117
13976KLFT LFT20191224204010312/24/19 20:40:31  5-MIN KLFT 250240Z 00000KT 10SM CLR 14/12 A2999 -20 86 -100 000/00 RMK AO2 T01390117
13976KLFT LFT20191224204510312/24/19 20:45:31  5-MIN KLFT 250245Z 00000KT 10SM CLR 14/12 A2999 -20 86 -100 000/00 RMK AO2 T01390117
13976KLFT LFT20191224205011612/24/19 20:50:31  5-MIN KLFT 250250Z 00000KT 10SM CLR 14/12 A2999 -20 86 -100 000/00 RMK AO2 SLP156 T01390117 53003
13976KLFT LFT20191224205509312/24/19 20:55:31  5-MIN KLFT 250255Z 10SM CLR 14/12 A3000 -20 86 -100 M /M RMK AO2 T01390117
13976KLFT LFT20191224210009312/24/19 21:00:31  5-MIN KLFT 250300Z 10SM CLR 14/12 A2999 -20 86 -100 M /M RMK AO2 T01390117
13976KLFT LFT20191224210509312/24/19 21:05:31  5-MIN KLFT 250305Z 10SM CLR 14/12 A2999 -20 90 -100 M /M RMK AO2 T01390122
13976KLFT LFT20191224211009312/24/19 21:10:31  5-MIN KLFT 250310Z 10SM CLR 14/12 A2999 -20 90 -100 M /M RMK AO2 T01390122
13976KLFT LFT20191224211509312/24/19 21:15:31  5-MIN KLFT 250315Z 10SM CLR 14/12 A2999 -20 86 -100 M /M RMK AO2 T01390117
13976KLFT LFT20191224212009312/24/19 21:20:31  5-MIN KLFT 250320Z 10SM CLR 13/12 A2999 -10 89 -100 M /M RMK AO2 T01330117
13976KLFT LFT20191224212510312/24/19 21:25:31  5-MIN KLFT 250325Z 00000KT 10SM CLR 13/12 A2999 -10 89 -100 000/00 RMK AO2 T01330117
13976KLFT LFT20191224213010312/24/19 21:30:31  5-MIN KLFT 250330Z 00000KT 10SM CLR 13/12 A2999 -10 89 -100 000/00 RMK AO2 T01330117
13976KLFT LFT20191224213510312/24/19 21:35:31  5-MIN KLFT 250335Z 00000KT 10SM CLR 13/12 A2999 -10 89 -100 000/00 RMK AO2 T01330117
13976KLFT LFT20191224214010312/24/19 21:40:31  5-MIN KLFT 250340Z 00000KT 10SM CLR 14/12 A2999 -10 86 -100 000/00 RMK AO2 T01390117
13976KLFT LFT20191224214510012/24/19 21:45:31  5-MIN KLFT 250345Z 00000KT 10SM CLR 14/12 A2999 -10 86 0 000/00 RMK AO2 T01440122
13976KLFT LFT20191224215010712/24/19 21:50:31  5-MIN KLFT 250350Z 00000KT 10SM CLR 14/12 A2999 -10 86 0 000/00 RMK AO2 SLP154 T01440122
13976KLFT LFT20191224215509312/24/19 21:55:31  5-MIN KLFT 250355Z 10SM CLR 14/12 A2999 -10 86 -100 M /M RMK AO2 T01390117
13976KLFT LFT20191224220010312/24/19 22:00:31  5-MIN KLFT 250400Z 00000KT 10SM CLR 14/11 A2999 -10 83 -100 000/00 RMK AO2 T01390111
13976KLFT LFT20191224220510312/24/19 22:05:31  5-MIN KLFT 250405Z 00000KT 10SM CLR 14/11 A2999 -10 83 -100 000/00 RMK AO2 T01390111
13976KLFT LFT20191224221010312/24/19 22:10:31  5-MIN KLFT 250410Z 00000KT 10SM CLR 14/11 A2999 -10 83 -100 000/00 RMK AO2 T01390111
13976KLFT LFT20191224221510312/24/19 22:15:31  5-MIN KLFT 250415Z 00000KT 10SM CLR 13/12 A2999 -10 89 -100 000/00 RMK AO2 T01330117
13976KLFT LFT20191224222010312/24/19 22:20:31  5-MIN KLFT 250420Z 00000KT 10SM CLR 13/12 A2999 -10 89 -100 000/00 RMK AO2 T01330117
13976KLFT LFT20191224222510812/24/19 22:25:31  5-MIN KLFT 250425Z AUTO 00000KT 10SM CLR 13/12 A2999 -10 89 -100 000/00 RMK AO2 T01330117
13976KLFT LFT20191224223010812/24/19 22:30:31  5-MIN KLFT 250430Z AUTO 00000KT 10SM CLR 13/11 A2999 -20 89 -200 000/00 RMK AO2 T01280111
13976KLFT LFT20191224223510812/24/19 22:35:31  5-MIN KLFT 250435Z AUTO 00000KT 10SM CLR 13/11 A2999 -20 89 -200 000/00 RMK AO2 T01280111
13976KLFT LFT20191224224010812/24/19 22:40:31  5-MIN KLFT 250440Z AUTO 00000KT 10SM CLR 12/11 A2999 -10 93 -300 000/00 RMK AO2 T01220111
13976KLFT LFT20191224224510812/24/19 22:45:31  5-MIN KLFT 250445Z AUTO 00000KT 10SM CLR 12/11 A2999 -10 93 -300 000/00 RMK AO2 T01220111
13976KLFT LFT20191224225011512/24/19 22:50:31  5-MIN KLFT 250450Z AUTO 00000KT 10SM CLR 12/11 A2999 -10 93 -300 000/00 RMK AO2 SLP154 T01220111
13976KLFT LFT20191224225509812/24/19 22:55:31  5-MIN KLFT 250455Z AUTO 10SM CLR 13/11 A2999 -10 89 -200 M /M RMK AO2 T01280111
13976KLFT LFT20191224230009812/24/19 23:00:31  5-MIN KLFT 250500Z AUTO 10SM CLR 13/11 A2999 -10 89 -200 M /M RMK AO2 T01280111
13976KLFT LFT20191224230509812/24/19 23:05:31  5-MIN KLFT 250505Z AUTO 10SM CLR 13/11 A2999 -10 89 -200 M /M RMK AO2 T01280111
13976KLFT LFT20191224231009812/24/19 23:10:31  5-MIN KLFT 250510Z AUTO 10SM CLR 13/12 A2999 -10 93 -200 M /M RMK AO2 T01280117
13976KLFT LFT20191224231509812/24/19 23:15:31  5-MIN KLFT 250515Z AUTO 10SM CLR 13/12 A2999 -10 89 -100 M /M RMK AO2 T01330117
13976KLFT LFT20191224232009812/24/19 23:20:31  5-MIN KLFT 250520Z AUTO 10SM CLR 13/12 A2999 -10 89 -100 M /M RMK AO2 T01330117
13976KLFT LFT20191224232509812/24/19 23:25:31  5-MIN KLFT 250525Z AUTO 10SM CLR 13/12 A2999 -20 93 -200 M /M RMK AO2 T01280117
13976KLFT LFT20191224233009812/24/19 23:30:31  5-MIN KLFT 250530Z AUTO 10SM CLR 13/12 A2999 -10 93 -200 M /M RMK AO2 T01280117
13976KLFT LFT20191224233509812/24/19 23:35:31  5-MIN KLFT 250535Z AUTO 10SM CLR 13/12 A2999 -10 93 -200 M /M RMK AO2 T01280117
13976KLFT LFT20191224234009812/24/19 23:40:31  5-MIN KLFT 250540Z AUTO 10SM CLR 12/11 A2999 -10 93 -300 M /M RMK AO2 T01220111
13976KLFT LFT20191224234509812/24/19 23:45:31  5-MIN KLFT 250545Z AUTO 10SM CLR 12/11 A2999 -10 93 -300 M /M RMK AO2 T01170106
13976KLFT LFT20191224235013312/24/19 23:50:31  5-MIN KLFT 250550Z AUTO 10SM CLR 12/11 A2999 -10 89 -300 M /M RMK AO2 SLP154 T01220106 10189 20117 402330106 51005
13976KLFT LFT20191224235509812/24/19 23:55:31  5-MIN KLFT 250555Z AUTO 10SM CLR 13/11 A2998 -10 89 -200 M /M RMK AO2 T01280111
13976KLFT LFT20191225000009812/25/19 00:00:31  5-MIN KLFT 250600Z AUTO 10SM CLR 13/11 A2998 -10 89 -200 M /M RMK AO2 T01280111
13976KLFT LFT20191225000509812/25/19 00:05:31  5-MIN KLFT 250605Z AUTO 10SM CLR 13/11 A2998 -10 89 -200 M /M RMK AO2 T01280111
13976KLFT LFT20191225001009812/25/19 00:10:31  5-MIN KLFT 250610Z AUTO 10SM CLR 12/11 A2998 -10 89 -300 M /M RMK AO2 T01220106
13976KLFT LFT20191225001509812/25/19 00:15:31  5-MIN KLFT 250615Z AUTO 10SM CLR 12/10 A2999 -10 86 -300 M /M RMK AO2 T01220100
13976KLFT LFT20191225002009812/25/19 00:20:31  5-MIN KLFT 250620Z AUTO 10SM CLR 12/11 A2999 -10 89 -300 M /M RMK AO2 T01220106
13976KLFT LFT20191225002509812/25/19 00:25:31  5-MIN KLFT 250625Z AUTO 10SM CLR 12/11 A2999 -10 89 -300 M /M RMK AO2 T01220106
13976KLFT LFT20191225003009812/25/19 00:30:31  5-MIN KLFT 250630Z AUTO 10SM CLR 12/11 A2999 -20 89 -300 M /M RMK AO2 T01220106
13976KLFT LFT20191225003509812/25/19 00:35:31  5-MIN KLFT 250635Z AUTO 10SM CLR 13/11 A2999 -20 86 -200 M /M RMK AO2 T01280106
13976KLFT LFT20191225004009812/25/19 00:40:31  5-MIN KLFT 250640Z AUTO 10SM CLR 12/11 A2999 -20 89 -300 M /M RMK AO2 T01220106
13976KLFT LFT20191225004509812/25/19 00:45:31  5-MIN KLFT 250645Z AUTO 10SM CLR 12/11 A2999 -20 89 -300 M /M RMK AO2 T01220106
13976KLFT LFT20191225005010512/25/19 00:50:31  5-MIN KLFT 250650Z AUTO 10SM CLR 13/11 A2999 -20 86 -200 M /M RMK AO2 SLP156 T01280106
13976KLFT LFT20191225005509812/25/19 00:55:31  5-MIN KLFT 250655Z AUTO 10SM CLR 12/11 A2999 -20 89 -300 M /M RMK AO2 T01220106
13976KLFT LFT20191225010009812/25/19 01:00:31  5-MIN KLFT 250700Z AUTO 10SM CLR 12/11 A2999 -20 89 -300 M /M RMK AO2 T01220106
13976KLFT LFT20191225010509812/25/19 01:05:31  5-MIN KLFT 250705Z AUTO 10SM CLR 12/11 A2999 -10 89 -300 M /M RMK AO2 T01220106
13976KLFT LFT20191225011009812/25/19 01:10:31  5-MIN KLFT 250710Z AUTO 10SM CLR 12/11 A2999 -20 93 -300 M /M RMK AO2 T01220111
13976KLFT LFT20191225011509812/25/19 01:15:31  5-MIN KLFT 250715Z AUTO 10SM CLR 12/11 A2999 -10 93 -300 M /M RMK AO2 T01220111
13976KLFT LFT20191225012009812/25/19 01:20:31  5-MIN KLFT 250720Z AUTO 10SM CLR 12/11 A2999 -10 93 -300 M /M RMK AO2 T01220111
13976KLFT LFT20191225012509812/25/19 01:25:31  5-MIN KLFT 250725Z AUTO 10SM CLR 12/11 A2999 -10 93 -300 M /M RMK AO2 T01170106
13976KLFT LFT20191225013009812/25/19 01:30:31  5-MIN KLFT 250730Z AUTO 10SM CLR 12/11 A2999 -20 93 -300 M /M RMK AO2 T01170106
13976KLFT LFT20191225013509812/25/19 01:35:31  5-MIN KLFT 250735Z AUTO 10SM CLR 12/10 A2999 -20 89 -300 M /M RMK AO2 T01170100
13976KLFT LFT20191225014009812/25/19 01:40:31  5-MIN KLFT 250740Z AUTO 10SM CLR 12/11 A2999 -20 93 -300 M /M RMK AO2 T01170106
13976KLFT LFT20191225014509812/25/19 01:45:31  5-MIN KLFT 250745Z AUTO 10SM CLR 11/10 A2999 -10 93 -400 M /M RMK AO2 T01110100
13976KLFT LFT20191225015010512/25/19 01:50:31  5-MIN KLFT 250750Z AUTO 10SM CLR 12/10 A2999 -10 89 -300 M /M RMK AO2 SLP154 T01170100
13976KLFT LFT20191225015509812/25/19 01:55:31  5-MIN KLFT 250755Z AUTO 10SM CLR 11/11 A2999 -10 96 -400 M /M RMK AO2 T01110106
13976KLFT LFT20191225020009812/25/19 02:00:31  5-MIN KLFT 250800Z AUTO 10SM CLR 11/10 A2999 -10 93 -400 M /M RMK AO2 T01110100
13976KLFT LFT20191225020509812/25/19 02:05:31  5-MIN KLFT 250805Z AUTO 10SM CLR 11/10 A2998 -10 93 -400 M /M RMK AO2 T01110100
13976KLFT LFT20191225021009812/25/19 02:10:31  5-MIN KLFT 250810Z AUTO 10SM CLR 11/10 A2998 -10 93 -400 M /M RMK AO2 T01110100
13976KLFT LFT20191225021509812/25/19 02:15:31  5-MIN KLFT 250815Z AUTO 10SM CLR 11/10 A2998 -10 93 -400 M /M RMK AO2 T01110100
13976KLFT LFT20191225022009812/25/19 02:20:31  5-MIN KLFT 250820Z AUTO 10SM CLR 11/10 A2998 -10 96 -500 M /M RMK AO2 T01060100
13976KLFT LFT20191225022509812/25/19 02:25:31  5-MIN KLFT 250825Z AUTO 10SM CLR 11/10 A2999 -10 96 -500 M /M RMK AO2 T01060100
13976KLFT LFT20191225023009812/25/19 02:30:31  5-MIN KLFT 250830Z AUTO 10SM CLR 11/09 A2998 -10 93 -500 M /M RMK AO2 T01060094
13976KLFT LFT20191225023509812/25/19 02:35:31  5-MIN KLFT 250835Z AUTO 10SM CLR 11/09 A2998 -10 89 -400 M /M RMK AO2 T01110094
13976KLFT LFT20191225024009812/25/19 02:40:31  5-MIN KLFT 250840Z AUTO 10SM CLR 11/09 A2999 -10 93 -500 M /M RMK AO2 T01060094
13976KLFT LFT20191225024509812/25/19 02:45:31  5-MIN KLFT 250845Z AUTO 10SM CLR 11/09 A2998 -10 89 -400 M /M RMK AO2 T01110094
13976KLFT LFT20191225025011112/25/19 02:50:31  5-MIN KLFT 250850Z AUTO 10SM CLR 11/10 A2998 -10 93 -400 M /M RMK AO2 SLP153 T01110100 56003
13976KLFT LFT20191225025509812/25/19 02:55:31  5-MIN KLFT 250855Z AUTO 10SM CLR 11/10 A2999 -10 93 -400 M /M RMK AO2 T01110100
13976KLFT LFT20191225030009812/25/19 03:00:31  5-MIN KLFT 250900Z AUTO 10SM CLR 11/10 A2999 -10 93 -400 M /M RMK AO2 T01110100
13976KLFT LFT20191225030509812/25/19 03:05:31  5-MIN KLFT 250905Z AUTO 10SM CLR 11/10 A2998 -10 93 -400 M /M RMK AO2 T01110100
13976KLFT LFT20191225031009812/25/19 03:10:31  5-MIN KLFT 250910Z AUTO 10SM CLR 11/10 A2999 -10 96 -500 M /M RMK AO2 T01060100
13976KLFT LFT20191225031509812/25/19 03:15:31  5-MIN KLFT 250915Z AUTO 10SM CLR 11/09 A2999 -10 93 -500 M /M RMK AO2 T01060094
13976KLFT LFT20191225032009812/25/19 03:20:31  5-MIN KLFT 250920Z AUTO 10SM CLR 11/09 A2999 -10 93 -500 M /M RMK AO2 T01060094
13976KLFT LFT20191225032509812/25/19 03:25:31  5-MIN KLFT 250925Z AUTO 10SM CLR 10/09 A2999 -10 93 -500 M /M RMK AO2 T01000089
13976KLFT LFT20191225033009812/25/19 03:30:31  5-MIN KLFT 250930Z AUTO 10SM CLR 11/09 A2999 -10 89 -500 M /M RMK AO2 T01060089
13976KLFT LFT20191225033509812/25/19 03:35:31  5-MIN KLFT 250935Z AUTO 10SM CLR 11/09 A2999 -10 93 -500 M /M RMK AO2 T01060094
13976KLFT LFT20191225034009812/25/19 03:40:31  5-MIN KLFT 250940Z AUTO 10SM CLR 11/09 A2999 -10 89 -400 M /M RMK AO2 T01110094
13976KLFT LFT20191225034509812/25/19 03:45:31  5-MIN KLFT 250945Z AUTO 10SM CLR 11/10 A2999 -10 96 -500 M /M RMK AO2 T01060100
13976KLFT LFT20191225035010712/25/19 03:50:31  5-MIN KLFT 250950Z AUTO 9SM FEW033 11/09 A2999 -20 93 -500 M /M RMK AO2 SLP155 T01060094
13976KLFT LFT20191225035510012/25/19 03:55:31  5-MIN KLFT 250955Z AUTO 9SM SCT033 11/10 A2999 -20 93 -400 M /M RMK AO2 T01110100
13976KLFT LFT20191225040010112/25/19 04:00:31  5-MIN KLFT 251000Z AUTO 10SM BKN033 12/10 A2999 -20 89 -300 M /M RMK AO2 T01170100
13976KLFT LFT20191225040510112/25/19 04:05:31  5-MIN KLFT 251005Z AUTO 10SM BKN031 12/11 A3000 -20 93 -300 M /M RMK AO2 T01220111
13976KLFT LFT20191225041010112/25/19 04:10:31  5-MIN KLFT 251010Z AUTO 10SM BKN031 12/11 A3000 -20 93 -300 M /M RMK AO2 T01170106
13976KLFT LFT20191225041510112/25/19 04:15:31  5-MIN KLFT 251015Z AUTO 10SM OVC031 12/11 A2999 -20 93 -300 M /M RMK AO2 T01220111
13976KLFT LFT20191225042010112/25/19 04:20:31  5-MIN KLFT 251020Z AUTO 10SM OVC031 12/11 A2999 -20 93 -300 M /M RMK AO2 T01220111
13976KLFT LFT20191225042509612/25/19 04:25:31  5-MIN KLFT 251025Z AUTO 10SM 12/11 A3000 -20 93 -300 M /M RMK AO2 T01220111 $
13976KLFT LFT20191225043011212/25/19 04:30:31  5-MIN KLFT 251030Z AUTO 00000KT 10SM 13/11 A3000 -20 89 -200 000/00 RMK AO2 T01280111 PWINO $
13976KLFT LFT20191225043510612/25/19 04:35:31  5-MIN KLFT 251035Z AUTO 00000KT 10SM 13/11 A2999 -20 89 -200 000/00 RMK AO2 T01280111 $
13976KLFT LFT20191225044010412/25/19 04:40:31  5-MIN KLFT 251040Z AUTO 00000KT 10SM 13/12 A3000 -20 93 -200 000/00 RMK AO2 T01280117
13976KLFT LFT20191225044510412/25/19 04:45:31  5-MIN KLFT 251045Z AUTO 00000KT 10SM 13/12 A3000 -20 93 -200 000/00 RMK AO2 T01280117
13976KLFT LFT20191225045011112/25/19 04:50:31  5-MIN KLFT 251050Z AUTO 00000KT 10SM 13/12 A3001 -30 93 -200 000/00 RMK AO2 SLP160 T01280117
13976KLFT LFT20191225045511112/25/19 04:55:31  5-MIN KLFT 251055Z AUTO 00000KT 10SM OVC031 13/12 A3001 -30 93 -200 000/00 RMK AO2 T01280117
13976KLFT LFT20191225050011112/25/19 05:00:31  5-MIN KLFT 251100Z AUTO 00000KT 10SM OVC031 13/12 A3001 -30 93 -200 000/00 RMK AO2 T01280117
13976KLFT LFT20191225050511112/25/19 05:05:31  5-MIN KLFT 251105Z AUTO 00000KT 10SM OVC031 13/12 A3001 -30 89 -200 000/00 RMK AO2 T01330117
13976KLFT LFT20191225051010612/25/19 05:10:31  5-MIN KLFT 251110Z 00000KT 10SM OVC030 13/12 A3001 -30 93 -200 000/00 RMK AO2 T01280117
13976KLFT LFT20191225051510612/25/19 05:15:31  5-MIN KLFT 251115Z 00000KT 10SM OVC030 13/12 A3001 -30 89 -200 000/00 RMK AO2 T01330117
13976KLFT LFT20191225052010612/25/19 05:20:31  5-MIN KLFT 251120Z 00000KT 10SM OVC030 13/12 A3001 -30 93 -200 000/00 RMK AO2 T01280117
13976KLFT LFT20191225052510612/25/19 05:25:31  5-MIN KLFT 251125Z 33003KT 10SM OVC028 13/12 A3001 -30 89 -200 330/03 RMK AO2 T01330117
13976KLFT LFT20191225053010612/25/19 05:30:31  5-MIN KLFT 251130Z 00000KT 10SM OVC028 13/12 A3001 -30 89 -200 000/00 RMK AO2 T01330117
13976KLFT LFT20191225053510612/25/19 05:35:31  5-MIN KLFT 251135Z 00000KT 10SM OVC028 13/12 A3001 -30 89 -200 000/00 RMK AO2 T01330117
13976KLFT LFT20191225054010612/25/19 05:40:31  5-MIN KLFT 251140Z 10003KT 10SM OVC028 13/12 A3000 -30 89 -100 090/03 RMK AO2 T01330117
13976KLFT LFT20191225054510612/25/19 05:45:31  5-MIN KLFT 251145Z 10003KT 10SM OVC028 13/12 A3000 -20 89 -100 100/03 RMK AO2 T01330117
13976KLFT LFT20191225055013112/25/19 05:50:31  5-MIN KLFT 251150Z 10003KT 10SM OVC028 13/12 A3000 -20 93 -200 100/03 RMK AO2 SLP158 T01280117 10133 20100 50000
13976KLFT LFT20191225055510612/25/19 05:55:31  5-MIN KLFT 251155Z 00000KT 10SM OVC028 13/12 A3000 -30 93 -200 000/00 RMK AO2 T01280117
13976KLFT LFT20191225060010612/25/19 06:00:31  5-MIN KLFT 251200Z 00000KT 10SM OVC026 13/12 A3000 -30 93 -200 000/00 RMK AO2 T01280117
13976KLFT LFT20191225060510612/25/19 06:05:31  5-MIN KLFT 251205Z 12003KT 10SM OVC026 13/12 A3000 -20 93 -200 120/03 RMK AO2 T01280117
13976KLFT LFT20191225061010612/25/19 06:10:31  5-MIN KLFT 251210Z 00000KT 10SM OVC026 13/12 A3000 -30 93 -200 000/00 RMK AO2 T01280117
13976KLFT LFT20191225061510612/25/19 06:15:31  5-MIN KLFT 251215Z 00000KT 10SM OVC024 13/12 A3000 -30 89 -100 000/00 RMK AO2 T01330117
13976KLFT LFT20191225062010612/25/19 06:20:31  5-MIN KLFT 251220Z 00000KT 10SM OVC024 13/12 A3000 -30 89 -100 000/00 RMK AO2 T01330117
13976KLFT LFT20191225062510612/25/19 06:25:31  5-MIN KLFT 251225Z 00000KT 10SM OVC023 13/12 A3000 -30 89 -100 000/00 RMK AO2 T01330117
13976KLFT LFT20191225063010612/25/19 06:30:31  5-MIN KLFT 251230Z VRB03KT 10SM OVC023 13/12 A3000 -30 89 -100 VRB/03 RMK AO2 T01330117
13976KLFT LFT20191225063510612/25/19 06:35:31  5-MIN KLFT 251235Z VRB03KT 10SM OVC023 13/12 A3000 -30 89 -100 VRB/03 RMK AO2 T01330117
13976KLFT LFT20191227181011912/27/19 18:10:31  5-MIN KLFT 280010Z 00000KT 10SM BKN027 BKN032 OVC043 21/17 A3002 -40 78 700 000/00 RMK AO2 T02110172
13976KLFT LFT20191227181511912/27/19 18:15:31  5-MIN KLFT 280015Z VRB03KT 10SM SCT027 BKN032 OVC060 21/17 A3002 -40 78 700 VRB/03 RMK AO2 T02110172
13976KLFT LFT20191227182011912/27/19 18:20:31  5-MIN KLFT 280020Z 00000KT 10SM SCT027 BKN032 OVC060 21/17 A3002 -40 78 700 000/00 RMK AO2 T02110172
13976KLFT LFT20191227182511912/27/19 18:25:31  5-MIN KLFT 280025Z VRB03KT 10SM SCT027 SCT032 OVC060 21/17 A3002 -40 78 700 VRB/03 RMK AO2 T02110172
13976KLFT LFT20191227183011912/27/19 18:30:31  5-MIN KLFT 280030Z 00000KT 10SM FEW027 SCT032 OVC060 21/17 A3002 -50 78 700 000/00 RMK AO2 T02110172
13976KLFT LFT20191227183511212/27/19 18:35:31  5-MIN KLFT 280035Z 09003KT 10SM FEW028 OVC060 21/17 A3002 -50 78 700 090/03 RMK AO2 T02110172
13976KLFT LFT20191227184011212/27/19 18:40:31  5-MIN KLFT 280040Z 08003KT 10SM SCT028 OVC060 21/17 A3002 -40 81 600 080/03 RMK AO2 T02060172
13976KLFT LFT20191227184511212/27/19 18:45:31  5-MIN KLFT 280045Z 09003KT 10SM SCT028 OVC060 21/17 A3002 -40 81 600 090/03 RMK AO2 T02060172
13976KLFT LFT20191227185011912/27/19 18:50:31  5-MIN KLFT 280050Z 08003KT 10SM FEW028 OVC065 21/17 A3002 -40 81 600 080/03 RMK AO2 SLP164 T02060172
13976KLFT LFT20191227185511212/27/19 18:55:31  5-MIN KLFT 280055Z 08004KT 10SM FEW028 OVC065 21/17 A3002 -40 81 600 080/04 RMK AO2 T02060172
13976KLFT LFT20191227190011212/27/19 19:00:31  5-MIN KLFT 280100Z 07005KT 10SM FEW028 OVC065 21/17 A3002 -40 81 600 070/05 RMK AO2 T02060172
13976KLFT LFT20191227190511212/27/19 19:05:31  5-MIN KLFT 280105Z 07004KT 10SM FEW028 OVC065 21/17 A3002 -40 81 600 070/04 RMK AO2 T02060172
13976KLFT LFT20191227191010512/27/19 19:10:31  5-MIN KLFT 280110Z 08004KT 10SM OVC065 21/17 A3002 -50 81 600 080/04 RMK AO2 T02060172
13976KLFT LFT20191227191510512/27/19 19:15:31  5-MIN KLFT 280115Z 08004KT 10SM OVC065 20/17 A3002 -50 84 600 080/04 RMK AO2 T02000172
13976KLFT LFT20191227192010512/27/19 19:20:31  5-MIN KLFT 280120Z VRB04KT 10SM OVC065 20/17 A3003 -50 84 600 VRB/04 RMK AO2 T02000172
13976KLFT LFT20191227192510512/27/19 19:25:31  5-MIN KLFT 280125Z VRB04KT 10SM OVC065 20/17 A3003 -50 84 600 VRB/04 RMK AO2 T02000172
13976KLFT LFT20191227193010512/27/19 19:30:31  5-MIN KLFT 280130Z VRB03KT 10SM OVC065 20/17 A3003 -50 84 600 VRB/03 RMK AO2 T02000172
13976KLFT LFT20191227193510512/27/19 19:35:31  5-MIN KLFT 280135Z 09003KT 10SM OVC065 20/17 A3003 -50 84 600 090/03 RMK AO2 T02000172
13976KLFT LFT20191227194010512/27/19 19:40:31  5-MIN KLFT 280140Z 09003KT 10SM OVC065 20/17 A3003 -50 84 600 090/03 RMK AO2 T02000172
13976KLFT LFT20191227194510512/27/19 19:45:31  5-MIN KLFT 280145Z 08004KT 10SM OVC065 20/17 A3003 -50 84 600 080/04 RMK AO2 T02000172
13976KLFT LFT20191227195011212/27/19 19:50:31  5-MIN KLFT 280150Z 08005KT 10SM OVC065 20/17 A3003 -50 84 600 080/05 RMK AO2 SLP169 T02000172
13976KLFT LFT20191227195510512/27/19 19:55:31  5-MIN KLFT 280155Z 09005KT 10SM OVC065 20/17 A3003 -50 84 600 090/05 RMK AO2 T02000172
13976KLFT LFT20191227200010512/27/19 20:00:31  5-MIN KLFT 280200Z 08003KT 10SM OVC065 20/17 A3003 -50 84 600 080/03 RMK AO2 T02000172
13976KLFT LFT20191227200510512/27/19 20:05:31  5-MIN KLFT 280205Z 09004KT 10SM OVC065 20/17 A3003 -50 84 600 090/04 RMK AO2 T02000172
13976KLFT LFT20191227201010412/27/19 20:10:31  5-MIN KLFT 280210Z VRB04KT 9SM OVC065 20/17 A3003 -50 84 600 VRB/04 RMK AO2 T02000172
13976KLFT LFT20191227201510412/27/19 20:15:31  5-MIN KLFT 280215Z 08004KT 9SM BKN065 20/17 A3003 -50 84 600 080/04 RMK AO2 T02000172
13976KLFT LFT20191227202010412/27/19 20:20:31  5-MIN KLFT 280220Z 09004KT 9SM BKN065 19/17 A3003 -50 87 500 090/04 RMK AO2 T01940172
13976KLFT LFT20191227202510412/27/19 20:25:31  5-MIN KLFT 280225Z 09004KT 9SM BKN065 19/17 A3003 -50 87 500 090/04 RMK AO2 T01940172
13976KLFT LFT20191227203010412/27/19 20:30:31  5-MIN KLFT 280230Z VRB03KT 9SM BKN065 19/17 A3003 -50 87 500 VRB/03 RMK AO2 T01940172
13976KLFT LFT20191227203510412/27/19 20:35:31  5-MIN KLFT 280235Z 10003KT 8SM BKN065 19/17 A3003 -50 87 500 100/03 RMK AO2 T01940172
13976KLFT LFT20191227204010412/27/19 20:40:31  5-MIN KLFT 280240Z VRB03KT 8SM BKN065 19/17 A3003 -50 87 500 VRB/03 RMK AO2 T01940172
13976KLFT LFT20191227204511112/27/19 20:45:31  5-MIN KLFT 280245Z 09003KT 8SM FEW011 BKN065 19/17 A3002 -50 87 500 090/03 RMK AO2 T01940172
13976KLFT LFT20191227205012412/27/19 20:50:31  5-MIN KLFT 280250Z 09004KT 8SM SCT011 BKN065 19/17 A3002 -50 87 500 090/04 RMK AO2 SLP166 T01940172 56000
13976KLFT LFT20191227205511112/27/19 20:55:31  5-MIN KLFT 280255Z 10003KT 8SM BKN009 BKN065 19/17 A3002 -40 87 500 100/03 RMK AO2 T01940172
13976KLFT LFT20191227210012312/27/19 21:00:31  5-MIN KLFT 280300Z VRB04KT 8SM BKN009 BKN065 19/17 A3002 -40 87 500 VRB/04 RMK AO2 CIG 007V011 T01940172
13976KLFT LFT20191227210513012/27/19 21:05:31  5-MIN KLFT 280305Z VRB03KT 7SM BKN009 BKN015 BKN065 19/17 A3002 -40 87 500 VRB/03 RMK AO2 CIG 007V011 T01940172
13976KLFT LFT20191227211012312/27/19 21:10:31  5-MIN KLFT 280310Z VRB03KT 7SM BKN009 BKN015 19/17 A3002 -40 87 500 VRB/03 RMK AO2 CIG 007V012 T01940172
13976KLFT LFT20191227211510112/27/19 21:15:31  5-MIN KLFT 280315Z 7SM BKN009 BKN015 19/17 A3002 -40 90 400 M /M RMK AO2 T01890172
13976KLFT LFT20191227212011412/27/19 21:20:31  5-MIN KLFT 280320Z 09004KT 6SM BR BKN009 BKN015 19/18 A3002 -40 90 500 090/04 RMK AO2 T01940178
13976KLFT LFT20191227212511412/27/19 21:25:31  5-MIN KLFT 280325Z VRB05KT 6SM BR BKN009 BKN015 19/18 A3002 -40 90 500 VRB/05 RMK AO2 T01940178
13976KLFT LFT20191227213011412/27/19 21:30:31  5-MIN KLFT 280330Z 11006KT 6SM BR BKN009 BKN015 19/18 A3002 -40 90 500 110/06 RMK AO2 T01940178
13976KLFT LFT20191227213511412/27/19 21:35:31  5-MIN KLFT 280335Z 10004KT 6SM BR BKN009 BKN015 19/18 A3002 -40 90 500 100/04 RMK AO2 T01940178
13976KLFT LFT20191227214011412/27/19 21:40:31  5-MIN KLFT 280340Z 09004KT 6SM BR BKN009 BKN015 19/18 A3002 -40 90 500 080/04 RMK AO2 T01940178
13976KLFT LFT20191227214511412/27/19 21:45:31  5-MIN KLFT 280345Z VRB04KT 6SM BR BKN009 BKN015 19/18 A3002 -40 90 500 VRB/04 RMK AO2 T01940178
13976KLFT LFT20191227215011412/27/19 21:50:31  5-MIN KLFT 280350Z VRB03KT 6SM BR OVC009 19/18 A3002 -40 90 500 VRB/03 RMK AO2 SLP165 T01940178
13976KLFT LFT20191227215510712/27/19 21:55:31  5-MIN KLFT 280355Z VRB03KT 4SM BR OVC009 19/18 A3002 -50 90 500 VRB/03 RMK AO2 T01940178
13976KLFT LFT20191227220010712/27/19 22:00:31  5-MIN KLFT 280400Z VRB03KT 4SM BR OVC009 19/18 A3002 -40 90 500 VRB/03 RMK AO2 T01940178
13976KLFT LFT20191227220510712/27/19 22:05:31  5-MIN KLFT 280405Z 10004KT 4SM BR OVC009 19/18 A3002 -40 90 500 100/04 RMK AO2 T01940178
13976KLFT LFT20191227221010712/27/19 22:10:31  5-MIN KLFT 280410Z VRB04KT 4SM BR OVC009 19/18 A3002 -40 90 500 VRB/04 RMK AO2 T01940178
13976KLFT LFT20191227221511212/27/19 22:15:31  5-MIN KLFT 280415Z AUTO 10004KT 4SM BR OVC009 19/18 A3001 -40 90 500 100/04 RMK AO2 T01940178
13976KLFT LFT20191227222011212/27/19 22:20:31  5-MIN KLFT 280420Z AUTO VRB03KT 4SM BR OVC009 19/18 A3001 -40 90 500 VRB/03 RMK AO2 T01940178
13976KLFT LFT20191227222511212/27/19 22:25:31  5-MIN KLFT 280425Z AUTO 10003KT 4SM BR OVC009 19/18 A3001 -30 90 500 100/03 RMK AO2 T01940178
13976KLFT LFT20191227223011212/27/19 22:30:31  5-MIN KLFT 280430Z AUTO 10004KT 4SM BR OVC009 19/18 A3001 -40 90 500 100/04 RMK AO2 T01940178
13976KLFT LFT20191227223511212/27/19 22:35:31  5-MIN KLFT 280435Z AUTO 10003KT 4SM BR OVC009 19/18 A3001 -40 90 500 100/03 RMK AO2 T01940178
13976KLFT LFT20191227224011212/27/19 22:40:31  5-MIN KLFT 280440Z AUTO 10005KT 4SM BR OVC009 19/18 A3001 -40 90 500 100/05 RMK AO2 T01940178
13976KLFT LFT20191227224511212/27/19 22:45:31  5-MIN KLFT 280445Z AUTO 10004KT 4SM BR OVC009 19/18 A3001 -40 90 500 100/04 RMK AO2 T01940178
13976KLFT LFT20191227225011912/27/19 22:50:31  5-MIN KLFT 280450Z AUTO 10005KT 4SM BR OVC009 19/18 A3001 -40 90 500 100/05 RMK AO2 SLP162 T01940178
13976KLFT LFT20191227225512812/27/19 22:55:31  5-MIN KLFT 280455Z AUTO VRB05KT 8SM BKN007 OVC015 19/18 A3001 -40 90 500 VRB/05 RMK AO2 CIG 005V010 T01940178
13976KLFT LFT20191227230012112/27/19 23:00:31  5-MIN KLFT 280500Z AUTO 11004KT 7SM OVC007 19/18 A3001 -30 90 500 110/04 RMK AO2 CIG 005V010 T01940178
13976KLFT LFT20191227230511212/27/19 23:05:31  5-MIN KLFT 280505Z AUTO 10004KT 6SM BR OVC005 19/18 A3001 -30 90 500 100/04 RMK AO2 T01940178
13976KLFT LFT20191227231010912/27/19 23:10:31  5-MIN KLFT 280510Z AUTO VRB04KT 7SM OVC005 19/18 A3001 -30 90 500 VRB/04 RMK AO2 T01940178
13976KLFT LFT20191227231510912/27/19 23:15:31  5-MIN KLFT 280515Z AUTO VRB04KT 8SM OVC005 19/18 A3000 -30 90 500 VRB/04 RMK AO2 T01940178
13976KLFT LFT20191227232010912/27/19 23:20:31  5-MIN KLFT 280520Z AUTO VRB04KT 9SM OVC005 19/18 A3000 -30 90 500 VRB/04 RMK AO2 T01940178
13976KLFT LFT20191227232511012/27/19 23:25:31  5-MIN KLFT 280525Z AUTO VRB03KT 10SM OVC005 19/18 A3000 -30 90 500 VRB/03 RMK AO2 T01940178
13976KLFT LFT20191227233011012/27/19 23:30:31  5-MIN KLFT 280530Z AUTO VRB04KT 10SM OVC005 19/18 A3000 -30 90 500 VRB/04 RMK AO2 T01940178
13976KLFT LFT20191227233511012/27/19 23:35:31  5-MIN KLFT 280535Z AUTO 09004KT 10SM OVC005 19/18 A3000 -20 90 500 090/04 RMK AO2 T01940178
13976KLFT LFT20191227234010912/27/19 23:40:31  5-MIN KLFT 280540Z AUTO 09003KT 9SM OVC005 19/18 A3000 -20 90 500 090/03 RMK AO2 T01940178
13976KLFT LFT20191227234510912/27/19 23:45:31  5-MIN KLFT 280545Z AUTO 09003KT 9SM OVC005 19/18 A3000 -30 90 500 090/03 RMK AO2 T01940178
13976KLFT LFT20191227235014412/27/19 23:50:31  5-MIN KLFT 280550Z AUTO 00000KT 8SM OVC005 19/18 A3000 -30 90 500 000/00 RMK AO2 SLP159 T01940178 10211 20189 402220167 50001
13976KLFT LFT20191227235510912/27/19 23:55:31  5-MIN KLFT 280555Z AUTO 09003KT 8SM OVC005 19/18 A3000 -30 90 500 090/03 RMK AO2 T01940178
13976KLFT LFT20191228000010912/28/19 00:00:31  5-MIN KLFT 280600Z AUTO VRB05KT 8SM OVC005 19/18 A3000 -20 90 500 VRB/05 RMK AO2 T01940178
13976KLFT LFT20191228000510912/28/19 00:05:31  5-MIN KLFT 280605Z AUTO VRB04KT 8SM OVC005 19/18 A3000 -20 90 500 VRB/04 RMK AO2 T01940178
13976KLFT LFT20191228001010912/28/19 00:10:31  5-MIN KLFT 280610Z AUTO 00000KT 8SM OVC005 19/18 A3000 -20 93 500 000/00 RMK AO2 T01940183
13976KLFT LFT20191228001510912/28/19 00:15:31  5-MIN KLFT 280615Z AUTO 00000KT 8SM OVC005 19/18 A3000 -20 93 500 000/00 RMK AO2 T01940183
13976KLFT LFT20191228002010912/28/19 00:20:31  5-MIN KLFT 280620Z AUTO 08003KT 8SM OVC005 19/18 A3000 -20 93 500 080/03 RMK AO2 T01940183
13976KLFT LFT20191228002510912/28/19 00:25:31  5-MIN KLFT 280625Z AUTO VRB03KT 7SM OVC004 19/18 A3000 -20 93 500 VRB/03 RMK AO2 T01940183
13976KLFT LFT20191228003010912/28/19 00:30:31  5-MIN KLFT 280630Z AUTO 09003KT 7SM OVC004 19/18 A2999 -20 93 500 090/03 RMK AO2 T01940183
13976KLFT LFT20191228003510912/28/19 00:35:31  5-MIN KLFT 280635Z AUTO 00000KT 7SM OVC004 19/18 A2999 -20 93 500 000/00 RMK AO2 T01940183
13976KLFT LFT20191228004010912/28/19 00:40:31  5-MIN KLFT 280640Z AUTO 09003KT 7SM OVC004 19/18 A2999 -20 93 500 090/03 RMK AO2 T01940183
13976KLFT LFT20191228004510912/28/19 00:45:31  5-MIN KLFT 280645Z AUTO 00000KT 7SM OVC004 19/18 A2999 -20 93 500 000/00 RMK AO2 T01940183
13976KLFT LFT20191228005011612/28/19 00:50:31  5-MIN KLFT 280650Z AUTO 10003KT 7SM OVC004 19/18 A2999 -10 93 500 100/03 RMK AO2 SLP154 T01940183
13976KLFT LFT20191228005510912/28/19 00:55:31  5-MIN KLFT 280655Z AUTO VRB03KT 7SM OVC004 19/18 A2999 -10 93 500 VRB/03 RMK AO2 T01940183
13976KLFT LFT20191228010010912/28/19 01:00:31  5-MIN KLFT 280700Z AUTO 08003KT 7SM OVC004 19/18 A2999 -10 93 500 080/03 RMK AO2 T01940183
13976KLFT LFT20191228010510912/28/19 01:05:31  5-MIN KLFT 280705Z AUTO 09003KT 7SM OVC004 19/18 A2999 -10 93 500 090/03 RMK AO2 T01940183
13976KLFT LFT20191228011010912/28/19 01:10:31  5-MIN KLFT 280710Z AUTO 00000KT 7SM OVC004 19/18 A2999 -10 93 500 000/00 RMK AO2 T01940183
13976KLFT LFT20191228011510912/28/19 01:15:31  5-MIN KLFT 280715Z AUTO 00000KT 7SM OVC004 19/18 A2999 -10 93 500 000/00 RMK AO2 T01940183
13976KLFT LFT20191228012011212/28/19 01:20:31  5-MIN KLFT 280720Z AUTO VRB03KT 6SM BR OVC004 19/18 A2998 -10 93 500 VRB/03 RMK AO2 T01940183
13976KLFT LFT20191228012511212/28/19 01:25:31  5-MIN KLFT 280725Z AUTO VRB03KT 5SM BR OVC004 19/18 A2998 -10 93 500 VRB/03 RMK AO2 T01940183
13976KLFT LFT20191228013011212/28/19 01:30:31  5-MIN KLFT 280730Z AUTO VRB04KT 4SM BR OVC004 19/18 A2998 -10 93 500 VRB/04 RMK AO2 T01940183
13976KLFT LFT20191228013511212/28/19 01:35:31  5-MIN KLFT 280735Z AUTO 09003KT 3SM BR OVC003 19/18 A2998 -10 97 500 090/03 RMK AO2 T01890183
13976KLFT LFT20191228014011012/28/19 01:40:31  5-MIN KLFT 280740Z AUTO 08004KT 3SM BR OVC003 19/18 A2998 0 97 500 080/04 RMK AO2 T01890183
13976KLFT LFT20191228014511012/28/19 01:45:31  5-MIN KLFT 280745Z AUTO VRB03KT 3SM BR OVC003 19/18 A2998 0 97 500 VRB/03 RMK AO2 T01890183
13976KLFT LFT20191228015010412/28/19 01:50:31  5-MIN KLFT 280750Z AUTO 07003KT 2 1/2SM BR OVC002 19/18 A2998 0 97 500 070/03 RMK AO2
13976KLFT LFT20191228015511412/28/19 01:55:31  5-MIN KLFT 280755Z AUTO 08003KT 2 1/2SM BR OVC002 19/18 A2997 0 97 500 080/03 RMK AO2 T01890183
13976KLFT LFT20191228020011412/28/19 02:00:31  5-MIN KLFT 280800Z AUTO 08003KT 2 1/2SM BR OVC002 19/18 A2998 0 97 500 080/03 RMK AO2 T01890183
13976KLFT LFT20191228020511412/28/19 02:05:31  5-MIN KLFT 280805Z AUTO 00000KT 2 1/2SM BR OVC002 19/18 A2998 0 97 500 000/00 RMK AO2 T01890183
13976KLFT LFT20191228021011412/28/19 02:10:31  5-MIN KLFT 280810Z AUTO VRB03KT 2 1/2SM BR OVC002 19/18 A2998 0 97 500 VRB/03 RMK AO2 T01890183
13976KLFT LFT20191228021511012/28/19 02:15:31  5-MIN KLFT 280815Z AUTO 09004KT 3SM BR OVC002 19/18 A2997 0 97 500 090/04 RMK AO2 T01890183
13976KLFT LFT20191228022011012/28/19 02:20:31  5-MIN KLFT 280820Z AUTO 00000KT 4SM BR OVC002 19/18 A2997 0 97 500 000/00 RMK AO2 T01890183
13976KLFT LFT20191228022511012/28/19 02:25:31  5-MIN KLFT 280825Z AUTO 08003KT 4SM BR OVC002 19/18 A2997 0 97 500 080/03 RMK AO2 T01890183
13976KLFT LFT20191228023012212/28/19 02:30:31  5-MIN KLFT 280830Z AUTO 10004KT 5SM BR OVC002 19/18 A2997 0 97 500 100/04 RMK AO2 CIG 002V007 T01890183
13976KLFT LFT20191228023512212/28/19 02:35:31  5-MIN KLFT 280835Z AUTO VRB04KT 6SM BR OVC002 19/18 A2997 0 93 600 VRB/04 RMK AO2 CIG 002V007 T01940183
13976KLFT LFT20191228024011012/28/19 02:40:31  5-MIN KLFT 280840Z AUTO 10003KT 6SM BR OVC004 19/18 A2997 0 93 600 100/03 RMK AO2 T01940183
13976KLFT LFT20191228024511012/28/19 02:45:31  5-MIN KLFT 280845Z AUTO 10003KT 4SM BR OVC004 19/18 A2997 0 93 600 100/03 RMK AO2 T01940183
13976KLFT LFT20191228025010512/28/19 02:50:31  5-MIN KLFT 280850Z AUTO 10004KT 2 1/2SM BR OVC004 19/18 A2996 10 93 600 090/04 RMK AO2
13976KLFT LFT20191228025511112/28/19 02:55:31  5-MIN KLFT 280855Z AUTO VRB03KT 2SM BR OVC004 19/18 A2996 10 97 500 VRB/03 RMK AO2 T01890183
13976KLFT LFT20191228030011112/28/19 03:00:31  5-MIN KLFT 280900Z AUTO 09005KT 2SM BR OVC004 19/18 A2996 10 97 500 090/05 RMK AO2 T01890183
13976KLFT LFT20191228030511112/28/19 03:05:31  5-MIN KLFT 280905Z AUTO VRB03KT 2SM BR OVC003 19/18 A2996 10 97 500 VRB/03 RMK AO2 T01890183
13976KLFT LFT20191228031011112/28/19 03:10:31  5-MIN KLFT 280910Z AUTO 09005KT 2SM BR OVC003 19/18 A2996 10 97 500 080/05 RMK AO2 T01890183
13976KLFT LFT20191228031511512/28/19 03:15:31  5-MIN KLFT 280915Z AUTO 09004KT 2 1/2SM BR OVC003 19/18 A2995 10 97 500 090/04 RMK AO2 T01890183
13976KLFT LFT20191228032011112/28/19 03:20:31  5-MIN KLFT 280920Z AUTO VRB04KT 3SM BR OVC003 19/18 A2995 10 97 500 VRB/04 RMK AO2 T01890183
13976KLFT LFT20191228032511112/28/19 03:25:31  5-MIN KLFT 280925Z AUTO 10003KT 3SM BR OVC003 19/18 A2995 10 97 500 100/03 RMK AO2 T01890183
13976KLFT LFT20191228033011112/28/19 03:30:31  5-MIN KLFT 280930Z AUTO 09004KT 3SM BR OVC003 19/18 A2995 10 97 500 090/04 RMK AO2 T01890183
13976KLFT LFT20191228033511112/28/19 03:35:31  5-MIN KLFT 280935Z AUTO 10005KT 3SM BR OVC003 19/18 A2995 20 97 500 100/05 RMK AO2 T01890183
13976KLFT LFT20191228034011112/28/19 03:40:31  5-MIN KLFT 280940Z AUTO VRB03KT 4SM BR OVC003 19/18 A2995 20 97 500 VRB/03 RMK AO2 T01890183
13976KLFT LFT20191228034511112/28/19 03:45:31  5-MIN KLFT 280945Z AUTO 10004KT 6SM BR OVC003 19/18 A2995 20 97 500 100/04 RMK AO2 T01890183
13976KLFT LFT20191228035011812/28/19 03:50:31  5-MIN KLFT 280950Z AUTO VRB03KT 6SM BR OVC004 19/18 A2995 20 97 500 VRB/03 RMK AO2 SLP141 T01890183
13976KLFT LFT20191228035511112/28/19 03:55:31  5-MIN KLFT 280955Z AUTO 10004KT 6SM BR OVC004 19/18 A2995 20 97 500 100/04 RMK AO2 T01890183
13976KLFT LFT20191228040011112/28/19 04:00:31  5-MIN KLFT 281000Z AUTO VRB03KT 6SM BR OVC004 19/18 A2995 20 97 500 VRB/03 RMK AO2 T01890183
13976KLFT LFT20191228040511112/28/19 04:05:31  5-MIN KLFT 281005Z AUTO 10004KT 5SM BR OVC004 19/18 A2995 20 93 600 100/04 RMK AO2 T01940183
13976KLFT LFT20191228041011112/28/19 04:10:31  5-MIN KLFT 281010Z AUTO 11004KT 5SM BR OVC004 19/18 A2995 20 93 600 110/04 RMK AO2 T01940183
13976KLFT LFT20191228041511112/28/19 04:15:31  5-MIN KLFT 281015Z AUTO 10004KT 5SM BR OVC004 19/18 A2994 20 93 600 090/04 RMK AO2 T01940183
13976KLFT LFT20191228042011112/28/19 04:20:31  5-MIN KLFT 281020Z AUTO 11003KT 4SM BR OVC004 19/18 A2994 20 97 500 100/03 RMK AO2 T01890183
13976KLFT LFT20191228042511112/28/19 04:25:31  5-MIN KLFT 281025Z AUTO 09003KT 3SM BR OVC004 19/18 A2994 20 97 500 090/03 RMK AO2 T01890183
13976KLFT LFT20191228043011112/28/19 04:30:31  5-MIN KLFT 281030Z AUTO 00000KT 3SM BR OVC004 19/18 A2994 20 97 500 000/00 RMK AO2 T01890183
13976KLFT LFT20191228043511112/28/19 04:35:31  5-MIN KLFT 281035Z AUTO 12003KT 3SM BR OVC004 19/18 A2994 20 97 500 120/03 RMK AO2 T01890183
13976KLFT LFT20191228044011112/28/19 04:40:31  5-MIN KLFT 281040Z AUTO VRB04KT 3SM BR OVC003 19/18 A2994 20 97 500 VRB/04 RMK AO2 T01890183
13976KLFT LFT20191228044511112/28/19 04:45:31  5-MIN KLFT 281045Z AUTO VRB03KT 4SM BR OVC003 19/18 A2995 20 97 500 VRB/03 RMK AO2 T01890183
13976KLFT LFT20191228045011812/28/19 04:50:31  5-MIN KLFT 281050Z AUTO 12004KT 4SM BR OVC003 19/18 A2994 20 97 500 120/04 RMK AO2 SLP139 T01890183
13976KLFT LFT20191228045511112/28/19 04:55:31  5-MIN KLFT 281055Z AUTO VRB05KT 3SM BR OVC003 19/18 A2994 20 97 500 VRB/05 RMK AO2 T01890183
13976KLFT LFT20191228050011112/28/19 05:00:31  5-MIN KLFT 281100Z AUTO 09004KT 3SM BR OVC003 19/18 A2994 20 97 500 090/04 RMK AO2 T01890183
13976KLFT LFT20191228050511112/28/19 05:05:31  5-MIN KLFT 281105Z AUTO VRB03KT 3SM BR OVC003 19/18 A2994 30 97 500 VRB/03 RMK AO2 T01890183
13976KLFT LFT20191228051011012/28/19 05:10:31  5-MIN KLFT 281110Z VRB03KT 2 1/2SM BR OVC003 19/18 A2994 30 97 500 VRB/03 RMK AO2 T01890183
13976KLFT LFT20191228051511012/28/19 05:15:31  5-MIN KLFT 281115Z VRB04KT 2 1/2SM BR OVC003 19/18 A2994 30 97 500 VRB/04 RMK AO2 T01890183
13976KLFT LFT20191228052011012/28/19 05:20:31  5-MIN KLFT 281120Z VRB04KT 2 1/2SM BR OVC003 19/18 A2994 30 97 500 VRB/04 RMK AO2 T01890183
13976KLFT LFT20191228052510612/28/19 05:25:31  5-MIN KLFT 281125Z 10004KT 2SM BR OVC003 19/18 A2994 30 97 500 100/04 RMK AO2 T01890183
13976KLFT LFT20191228053010612/28/19 05:30:31  5-MIN KLFT 281130Z 10005KT 2SM BR OVC003 19/18 A2993 30 97 500 100/05 RMK AO2 T01890183
13976KLFT LFT20191228053511012/28/19 05:35:31  5-MIN KLFT 281135Z 10004KT 1 3/4SM BR OVC002 19/18 A2993 30 97 500 100/04 RMK AO2 T01890183
13976KLFT LFT20191228054011012/28/19 05:40:31  5-MIN KLFT 281140Z 10005KT 1 3/4SM BR OVC002 19/18 A2993 40 97 500 100/05 RMK AO2 T01890183
13976KLFT LFT20191228054511012/28/19 05:45:31  5-MIN KLFT 281145Z VRB04KT 1 3/4SM BR OVC002 19/18 A2993 30 97 500 VRB/04 RMK AO2 T01890183
13976KLFT LFT20191228055013712/28/19 05:50:31  5-MIN KLFT 281150Z VRB04KT 1SM BR OVC002 19/18 A2993 30 97 500 VRB/04 RMK AO2 SLP135 70001 T01890183 10194 20189 58014
13976KLFT LFT20191228055510612/28/19 05:55:31  5-MIN KLFT 281155Z VRB03KT 1SM BR OVC002 19/18 A2993 30 97 500 VRB/03 RMK AO2 T01890183
13976KLFT LFT20191228060010612/28/19 06:00:31  5-MIN KLFT 281200Z 11004KT 1SM BR OVC002 19/18 A2993 30 97 500 110/04 RMK AO2 T01890183
13976KLFT LFT20191228060510612/28/19 06:05:31  5-MIN KLFT 281205Z VRB04KT 1SM BR OVC002 19/18 A2993 30 97 500 VRB/04 RMK AO2 T01890183
