53915KARA ARA20190501000012405/01/19 00:00:31  5-MIN KARA 010600Z AUTO 15007KT 10SM BKN011 BKN014 OVC021 23/22 A3002 -60 93 900 150/07 RMK AO2 T02330222
53915KARA ARA20190501000511705/01/19 00:05:31  5-MIN KARA 010605Z AUTO 15009KT 10SM BKN011 BKN016 23/22 A3002 -60 93 900 150/09 RMK AO2 T02330222
53915KARA ARA20190501001012905/01/19 00:10:31  5-MIN KARA 010610Z AUTO 15008KT 10SM BKN010 BKN016 23/22 A3002 -60 93 900 150/08 RMK AO2 CIG 009V013 T02330222
53915KARA ARA20190501001512205/01/19 00:15:31  5-MIN KARA 010615Z AUTO 15008KT 10SM OVC010 23/22 A3002 -60 93 900 140/08 RMK AO2 CIG 009V013 T02330222
53915KARA ARA20190501002012205/01/19 00:20:31  5-MIN KARA 010620Z AUTO 15008KT 10SM OVC010 23/22 A3002 -60 93 900 140/08 RMK AO2 CIG 009V013 T02330222
53915KARA ARA20190501002512905/01/19 00:25:31  5-MIN KARA 010625Z AUTO 14008KT 10SM BKN010 OVC019 23/22 A3002 -60 93 900 140/08 RMK AO2 CIG 008V013 T02330222
53915KARA ARA20190501003011705/01/19 00:30:31  5-MIN KARA 010630Z AUTO 15009KT 10SM BKN010 BKN019 23/22 A3002 -60 93 900 150/09 RMK AO2 T02330222
53915KARA ARA20190501003511705/01/19 00:35:31  5-MIN KARA 010635Z AUTO 15009KT 10SM BKN010 OVC018 23/22 A3002 -60 93 900 140/09 RMK AO2 T02330222
53915KARA ARA20190501004011705/01/19 00:40:31  5-MIN KARA 010640Z AUTO 15009KT 10SM BKN010 OVC018 23/22 A3002 -60 93 900 140/09 RMK AO2 T02330222
53915KARA ARA20190501004511705/01/19 00:45:31  5-MIN KARA 010645Z AUTO 15010KT 10SM BKN012 OVC021 23/22 A3002 -60 93 900 150/10 RMK AO2 T02330222
53915KARA ARA20190501005013105/01/19 00:50:31  5-MIN KARA 010650Z AUTO 15008KT 10SM SCT010 BKN014 OVC021 23/23 A3002 -60 97 900 150/08 RMK AO2 SLP164 T02330228
53915KARA ARA20190501005512405/01/19 00:55:31  5-MIN KARA 010655Z AUTO 15010KT 10SM SCT010 BKN017 OVC031 23/23 A3002 -60 97 900 150/10 RMK AO2 T02330228
53915KARA ARA20190501010012505/01/19 01:00:31  5-MIN KARA 010700Z AUTO 16008KT 10SM FEW010 BKN017 OVC038 24/23 A3002 -60 93 1000 160/08 RMK AO2 T02390228
53915KARA ARA20190501010512505/01/19 01:05:31  5-MIN KARA 010705Z AUTO 16011KT 10SM SCT012 BKN018 OVC037 24/23 A3002 -60 93 1000 160/11 RMK AO2 T02390228
53915KARA ARA20190501011012505/01/19 01:10:31  5-MIN KARA 010710Z AUTO 16010KT 10SM SCT012 BKN018 OVC034 24/23 A3002 -60 93 1000 160/10 RMK AO2 T02390228
53915KARA ARA20190501011512505/01/19 01:15:31  5-MIN KARA 010715Z AUTO 15008KT 10SM SCT012 BKN018 OVC034 24/23 A3003 -70 93 1000 150/08 RMK AO2 T02390228
53915KARA ARA20190501012012505/01/19 01:20:31  5-MIN KARA 010720Z AUTO 15009KT 10SM SCT012 BKN017 OVC031 24/23 A3003 -70 93 1000 150/09 RMK AO2 T02390228
53915KARA ARA20190501012512505/01/19 01:25:31  5-MIN KARA 010725Z AUTO 17009KT 10SM SCT012 BKN017 OVC035 24/23 A3003 -70 93 1000 170/09 RMK AO2 T02390228
53915KARA ARA20190501013012505/01/19 01:30:31  5-MIN KARA 010730Z AUTO 16008KT 10SM SCT012 BKN019 OVC035 24/23 A3003 -70 93 1000 160/08 RMK AO2 T02390228
53915KARA ARA20190501013512505/01/19 01:35:31  5-MIN KARA 010735Z AUTO 16007KT 10SM SCT012 BKN020 OVC035 24/23 A3003 -70 93 1000 160/07 RMK AO2 T02390228
53915KARA ARA20190501014012505/01/19 01:40:31  5-MIN KARA 010740Z AUTO 16009KT 10SM SCT012 BKN016 BKN022 24/23 A3003 -70 93 1000 160/09 RMK AO2 T02390228
53915KARA ARA20190501014512505/01/19 01:45:31  5-MIN KARA 010745Z AUTO 16009KT 10SM FEW010 BKN014 BKN020 24/23 A3003 -70 93 1000 150/09 RMK AO2 T02390228
53915KARA ARA20190501015011505/01/19 01:50:31  5-MIN KARA 010750Z AUTO 16012KT 10SM FEW010 SCT014 BKN020 24/22 A3003 -70 90 1000 150/12 RMK AO2
53915KARA ARA20190501015512505/01/19 01:55:31  5-MIN KARA 010755Z AUTO 16010KT 10SM SCT012 BKN018 BKN026 24/23 A3003 -70 93 1000 150/10 RMK AO2 T02390228
53915KARA ARA20190501020012505/01/19 02:00:31  5-MIN KARA 010800Z AUTO 15009KT 10SM SCT012 BKN021 BKN031 24/23 A3003 -70 93 1000 150/09 RMK AO2 T02390228
53915KARA ARA20190501020512505/01/19 02:05:31  5-MIN KARA 010805Z AUTO 16009KT 10SM SCT012 SCT027 BKN039 24/23 A3003 -70 93 1000 160/09 RMK AO2 T02390228
53915KARA ARA20190501021011805/01/19 02:10:31  5-MIN KARA 010810Z AUTO 16009KT 10SM FEW012 FEW041 24/23 A3003 -70 93 1000 160/09 RMK AO2 T02390228
53915KARA ARA20190501021511805/01/19 02:15:31  5-MIN KARA 010815Z AUTO 15012KT 10SM FEW012 FEW041 24/22 A3002 -60 90 1000 150/12 RMK AO2 T02390222
53915KARA ARA20190501022011705/01/19 02:20:31  5-MIN KARA 010820Z AUTO 15010KT 10SM FEW012 FEW040 23/22 A3003 -70 93 900 150/10 RMK AO2 T02330222
53915KARA ARA20190501022511705/01/19 02:25:31  5-MIN KARA 010825Z AUTO 15009KT 10SM FEW012 FEW040 23/22 A3003 -70 93 900 150/09 RMK AO2 T02330222
53915KARA ARA20190501023011005/01/19 02:30:31  5-MIN KARA 010830Z AUTO 15010KT 10SM FEW012 23/22 A3003 -70 93 900 150/10 RMK AO2 T02330222
53915KARA ARA20190501023511005/01/19 02:35:31  5-MIN KARA 010835Z AUTO 16009KT 10SM FEW012 23/22 A3003 -70 93 900 160/09 RMK AO2 T02330222
53915KARA ARA20190501024011005/01/19 02:40:31  5-MIN KARA 010840Z AUTO 16009KT 10SM FEW012 23/22 A3003 -70 93 900 160/09 RMK AO2 T02330222
53915KARA ARA20190501024511005/01/19 02:45:31  5-MIN KARA 010845Z AUTO 15009KT 10SM FEW012 23/22 A3002 -60 93 900 150/09 RMK AO2 T02330222
53915KARA ARA20190501025012305/01/19 02:50:31  5-MIN KARA 010850Z AUTO 15007KT 10SM SCT012 23/22 A3003 -70 93 900 150/07 RMK AO2 SLP167 T02330222 58003
53915KARA ARA20190501025511005/01/19 02:55:31  5-MIN KARA 010855Z AUTO 15008KT 10SM SCT012 23/22 A3002 -60 93 900 140/08 RMK AO2 T02330222
53915KARA ARA20190501030011005/01/19 03:00:31  5-MIN KARA 010900Z AUTO 15007KT 10SM BKN012 23/22 A3002 -70 93 900 150/07 RMK AO2 T02330222
53915KARA ARA20190501030511005/01/19 03:05:31  5-MIN KARA 010905Z AUTO 15008KT 10SM SCT012 23/22 A3003 -70 93 900 150/08 RMK AO2 T02330222
53915KARA ARA20190501031011005/01/19 03:10:31  5-MIN KARA 010910Z AUTO 15008KT 10SM BKN012 23/22 A3003 -70 93 900 150/08 RMK AO2 T02330222
53915KARA ARA20190501031511005/01/19 03:15:31  5-MIN KARA 010915Z AUTO 15006KT 10SM BKN010 23/22 A3003 -70 93 900 150/06 RMK AO2 T02330222
53915KARA ARA20190501032011005/01/19 03:20:31  5-MIN KARA 010920Z AUTO 15006KT 10SM BKN010 23/22 A3002 -70 97 900 150/06 RMK AO2 T02280222
53915KARA ARA20190501032511705/01/19 03:25:31  5-MIN KARA 010925Z AUTO 15006KT 10SM FEW010 SCT013 23/22 A3002 -60 97 900 150/06 RMK AO2 T02280222
53915KARA ARA20190501033011005/01/19 03:30:31  5-MIN KARA 010930Z AUTO 16006KT 10SM FEW010 23/22 A3002 -70 97 900 150/06 RMK AO2 T02280222
53915KARA ARA20190501033511005/01/19 03:35:31  5-MIN KARA 010935Z AUTO 15005KT 10SM FEW009 23/22 A3002 -60 97 900 150/05 RMK AO2 T02280222
53915KARA ARA20190501034011005/01/19 03:40:31  5-MIN KARA 010940Z AUTO 14006KT 10SM FEW009 23/22 A3002 -60 97 900 140/06 RMK AO2 T02280222
53915KARA ARA20190501034510705/01/19 03:45:31  5-MIN KARA 010945Z AUTO 15005KT 10SM CLR 22/22 A3002 -60 97 800 150/05 RMK AO2 T02220217
53915KARA ARA20190501035011405/01/19 03:50:31  5-MIN KARA 010950Z AUTO 15006KT 10SM CLR 22/22 A3002 -60 97 800 140/06 RMK AO2 SLP166 T02220217
53915KARA ARA20190501035511005/01/19 03:55:31  5-MIN KARA 010955Z AUTO 15005KT 10SM FEW018 22/22 A3002 -60 97 800 140/05 RMK AO2 T02220217
53915KARA ARA20190501040011005/01/19 04:00:31  5-MIN KARA 011000Z AUTO 15005KT 10SM FEW018 22/22 A3002 -60 97 800 150/05 RMK AO2 T02220217
53915KARA ARA20190501040511005/01/19 04:05:31  5-MIN KARA 011005Z AUTO 15005KT 10SM SCT018 22/22 A3003 -70 97 800 150/05 RMK AO2 T02220217
53915KARA ARA20190501041011005/01/19 04:10:31  5-MIN KARA 011010Z AUTO 14004KT 10SM SCT018 22/22 A3003 -70 97 800 140/04 RMK AO2 T02220217
53915KARA ARA20190501041511005/01/19 04:15:31  5-MIN KARA 011015Z AUTO 14005KT 10SM SCT018 22/22 A3003 -70 97 800 140/05 RMK AO2 T02220217
53915KARA ARA20190501042011105/01/19 04:20:31  5-MIN KARA 011020Z AUTO 13005KT 10SM FEW018 22/22 A3003 -70 100 700 130/05 RMK AO2 T02170217
53915KARA ARA20190501042511105/01/19 04:25:31  5-MIN KARA 011025Z AUTO 13005KT 10SM FEW018 22/22 A3003 -70 100 700 130/05 RMK AO2 T02170217
53915KARA ARA20190501043010605/01/19 04:30:31  5-MIN KARA 011030Z 13005KT 10SM FEW018 22/22 A3003 -70 100 700 130/05 RMK AO2 T02170217
53915KARA ARA20190501043510605/01/19 04:35:31  5-MIN KARA 011035Z 14005KT 10SM FEW018 22/22 A3003 -70 100 700 140/05 RMK AO2 T02170217
53915KARA ARA20190501044010305/01/19 04:40:31  5-MIN KARA 011040Z 14005KT 10SM CLR 22/22 A3003 -70 100 700 140/05 RMK AO2 T02170217
53915KARA ARA20190501044511305/01/19 04:45:31  5-MIN KARA 011045Z 13005KT 10SM FEW022 FEW029 22/22 A3003 -70 100 700 130/05 RMK AO2 T02170217
53915KARA ARA20190501045012005/01/19 04:50:31  5-MIN KARA 011050Z 13005KT 10SM FEW022 FEW029 22/22 A3003 -70 100 700 130/05 RMK AO2 SLP169 T02170217
53915KARA ARA20190501045511305/01/19 04:55:31  5-MIN KARA 011055Z 13005KT 10SM FEW024 FEW029 22/22 A3003 -70 100 700 130/05 RMK AO2 T02170217
53915KARA ARA20190501050010605/01/19 05:00:31  5-MIN KARA 011100Z 13004KT 10SM FEW026 22/22 A3003 -70 100 700 130/04 RMK AO2 T02170217
53915KARA ARA20190501050510505/01/19 05:05:31  5-MIN KARA 011105Z 11005KT 10SM FEW026 22/21 A3003 -70 97 700 110/05 RMK AO2 T02170211
53915KARA ARA20190501052010305/01/19 05:20:31  5-MIN KARA 011120Z 12007KT 10SM CLR 22/22 A3003 -70 100 700 120/07 RMK AO2 T02170217
53915KARA ARA20190501052510305/01/19 05:25:31  5-MIN KARA 011125Z 12006KT 10SM CLR 22/22 A3004 -80 100 700 120/06 RMK AO2 T02170217
53915KARA ARA20190501053010505/01/19 05:30:31  5-MIN KARA 011130Z 12006KT 10SM FEW018 22/22 A3004 -80 97 800 120/06 RMK AO2 T02220217
53915KARA ARA20190501053510505/01/19 05:35:31  5-MIN KARA 011135Z 12006KT 10SM SCT018 22/22 A3004 -80 97 800 120/06 RMK AO2 T02220217
53915KARA ARA20190501054010505/01/19 05:40:31  5-MIN KARA 011140Z 13006KT 10SM SCT018 22/22 A3004 -80 97 800 130/06 RMK AO2 T02220217
53915KARA ARA20190501054510505/01/19 05:45:31  5-MIN KARA 011145Z 13007KT 10SM SCT020 22/22 A3005 -80 97 800 130/07 RMK AO2 T02220217
53915KARA ARA20190501055009505/01/19 05:50:31  5-MIN KARA 011150Z 14006KT 10SM BKN020 22/22 A3005 -90 97 800 140/06 RMK AO2
53915KARA ARA20190501055510605/01/19 05:55:31  5-MIN KARA 011155Z 14007KT 10SM BKN018 22/22 A3005 -90 100 800 140/07 RMK AO2 T02220222
53915KARA ARA20190501060010605/01/19 06:00:31  5-MIN KARA 011200Z 14005KT 10SM BKN018 22/22 A3005 -90 100 800 140/05 RMK AO2 T02220222
53915KARA ARA20190501060510605/01/19 06:05:31  5-MIN KARA 011205Z 14005KT 10SM BKN018 22/22 A3005 -90 100 800 140/05 RMK AO2 T02220222
53915KARA ARA20190501061010605/01/19 06:10:31  5-MIN KARA 011210Z 14006KT 10SM BKN018 22/22 A3005 -90 100 800 140/06 RMK AO2 T02220222
53915KARA ARA20190501061510505/01/19 06:15:31  5-MIN KARA 011215Z 14007KT 10SM BKN018 23/22 A3006 -90 97 800 140/07 RMK AO2 T02280222
53915KARA ARA20190501062010605/01/19 06:20:31  5-MIN KARA 011220Z 14007KT 10SM BKN019 23/22 A3006 -100 97 800 140/07 RMK AO2 T02280222
53915KARA ARA20190501062510605/01/19 06:25:31  5-MIN KARA 011225Z 14007KT 10SM BKN019 23/22 A3006 -100 97 800 140/07 RMK AO2 T02280222
53915KARA ARA20190501063010605/01/19 06:30:31  5-MIN KARA 011230Z 14008KT 10SM SCT019 23/22 A3006 -100 97 800 140/08 RMK AO2 T02280222
53915KARA ARA20190501063513605/01/19 06:35:31  5-MIN KARA 011235Z 14008KT 10SM SCT019 23/22 A3006 -100 93 900 130/08 RMK AO2 T0233022271 1300 M /M RMK AO2 T02720217
53915KARA ARA20190501092010405/01/19 09:20:31  5-MIN KARA 011520Z 10SM SCT024 BKN029 27/22 A3010 -130 73 1200 M /M RMK AO2 T02670217
53915KARA ARA20190501092510405/01/19 09:25:31  5-MIN KARA 011525Z 10SM SCT023 BKN029 27/22 A3010 -130 71 1300 M /M RMK AO2 T02720217
53915KARA ARA20190501093009705/01/19 09:30:31  5-MIN KARA 011530Z 10SM SCT026 27/22 A3010 -130 73 1200 M /M RMK AO2 T02670217
53915KARA ARA20190501093509705/01/19 09:35:31  5-MIN KARA 011535Z 10SM SCT026 27/22 A3010 -130 71 1300 M /M RMK AO2 T02720217
53915KARA ARA20190501094009705/01/19 09:40:31  5-MIN KARA 011540Z 10SM SCT026 27/22 A3010 -130 73 1200 M /M RMK AO2 T02670217
53915KARA ARA20190501094509705/01/19 09:45:31  5-MIN KARA 011545Z 10SM FEW027 27/22 A3010 -130 71 1300 M /M RMK AO2 T02720217
53915KARA ARA20190501095012405/01/19 09:50:31  5-MIN KARA 011550Z 14014KT 10SM SCT027 27/22 A3010 -140 71 1300 140/14 RMK AO2 SLP192 T0272021705/01/19 0
53915KARA ARA20190501103011305/01/19 10:30:31  5-MIN KARA 011630Z 17019G24KT 10SM SCT026 28/22 A3010 -130 66 1400 170/19G24 RMK AO2 T02830217
53915KARA ARA20190501103511305/01/19 10:35:31  5-MIN KARA 011635Z 16017G24KT 10SM SCT028 28/22 A3010 -140 66 1400 160/17G24 RMK AO2 T02830217
53915KARA ARA20190501104011305/01/19 10:40:31  5-MIN KARA 011640Z 16015G23KT 10SM BKN028 28/22 A3010 -140 66 1400 160/15G23 RMK AO2 T02830217
53915KARA ARA20190501104513805/01/19 10:45:31  5-MIN KARA 011645Z 16019G26KT 10SM BKN028 BKN034 28/22 A3010 -140 66 1400 160/19G26 RMK AO2 PK WND 17026/1645 T02830217
53915KARA ARA20190501105015405/01/19 10:50:31  5-MIN KARA 011650Z 16019G26KT 10SM -RA BKN028 28/22 A3010 -140 66 1400 160/19G26 RMK AO2 PK WND 17026/1645 RAB47 SLP192 P0000 T02830217
53915KARA ARA20190501105513005/01/19 10:55:31  5-MIN KARA 011655Z 16018G25KT 10SM -RA BKN028 BKN038 28/22 A3010 -140 66 1400 160/18G25 RMK AO2 P0000 T02830217
53915KARA ARA20190501110012805/01/19 11:00:31  5-MIN KARA 011700Z 15018KT 10SM SCT028 BKN035 29/22 A3010 -140 64 1500 150/18 RMK AO2 RAE1657 P0000 T02890217
53915KARA ARA20190501110513405/01/19 11:05:31  5-MIN KARA 011705Z 17018G24KT 10SM BKN028 BKN035 29/22 A3010 -130 64 1500 160/18G24 RMK AO2 RAE1657 P0000 T02890217
53915KARA ARA20190501111013405/01/19 11:10:31  5-MIN KARA 011710Z 16018G23KT 10SM SCT028 BKN035 28/22 A3009 -130 66 1400 160/18G23 RMK AO2 RAE1657 P0000 T02830217
53915KARA ARA20190501111513405/01/19 11:15:31  5-MIN KARA 011715Z 16018G23KT 10SM SCT028 BKN035 28/22 A3010 -130 66 1400 160/18G23 RMK AO2 RAE1657 P0000 T02830217
53915KARA ARA20190501112013405/01/19 11:20:31  5-MIN KARA 011720Z 16018G24KT 10SM SCT028 BKN035 29/22 A3009 -130 64 1500 160/18G24 RMK AO2 RAE1657 P0000 T02890217
53915KARA ARA20190501112515205/01/19 11:25:31  5-MIN KARA 011725Z 15021G27KT 10SM SCT028 SCT036 29/21 A3009 -120 62 1500 150/21G27 RMK AO2 PK WND 15027/1725 RAE1657 P0000 T02890211
53915KARA ARA20190501113014605/01/19 11:30:31  5-MIN KARA 011730Z 16019KT 10SM FEW028 SCT034 29/22 A3009 -130 64 1500 160/19 RMK AO2 PK WND 15027/1725 RAE1657 P0000 T02890217
53915KARA ARA20190501113515205/01/19 11:35:31  5-MIN KARA 011735Z 17019G25KT 10SM FEW028 SCT034 29/22 A3009 -130 64 1500 160/19G25 RMK AO2 PK WND 15027/1725 RAE1657 P0000 T02890217
53915KARA ARA20190501114015205/01/19 11:40:31  5-MIN KARA 011740Z 16019G25KT 10SM FEW028 SCT036 29/22 A3009 -130 64 1500 160/19G25 RMK AO2 PK WND 15027/1725 RAE1657 P0000 T02890217
53915KARA ARA20190501114515205/01/19 11:45:31  5-MIN KARA 011745Z 17019G25KT 10SM FEW029 SCT037 29/21 A3009 -130 60 1500 170/19G25 RMK AO2 PK WND 15027/1725 RAE1657 P0000 T02940211
53915KARA ARA20190501115018305/01/19 11:50:31  5-MIN KARA 011750Z 16016G25KT 10SM FEW029 SCT037 29/22 A3009 -120 64 1500 160/16G25 RMK AO2 PK WND 15027/1725 RAE1657 SLP188 P0000 60000 T02890217 10294 20239 51014
53915KARA ARA20190501115512005/01/19 11:55:31  5-MIN KARA 011755Z 15020G23KT 10SM SCT029 SCT038 29/22 A3009 -120 62 1500 150/20G23 RMK AO2 T02940217
53915KARA ARA20190501120013205/01/19 12:00:31  5-MIN KARA 011800Z 15018KT 10SM -RA SCT029 BKN036 29/21 A3009 -120 62 1500 150/18 RMK AO2 RAB1758 P0000 T02890211
53915KARA ARA20190501120515605/01/19 12:05:31  5-MIN KARA 011805Z 16018G27KT 10SM -RA SCT029 BKN036 29/22 A3008 -120 62 1500 160/18G27 RMK AO2 PK WND 15027/1803 RAB1758 P0000 T02940217
53915KARA ARA20190501121015505/01/19 12:10:31  5-MIN KARA 011810Z 16017G27KT 10SM FEW030 BKN037 29/22 A3008 -120 64 1500 160/17G27 RMK AO2 PK WND 15027/1803 RAB1758E09 P0000 T02890217
53915KARA ARA20190501121515505/01/19 12:15:31  5-MIN KARA 011815Z 16019G24KT 10SM SCT030 BKN037 29/22 A3008 -120 62 1600 160/19G24 RMK AO2 PK WND 15027/1803 RAB1758E09 P0000 T02940217
53915KARA ARA20190501122015505/01/19 12:20:31  5-MIN KARA 011820Z 15020G24KT 10SM SCT030 BKN037 29/22 A3008 -120 62 1600 150/20G24 RMK AO2 PK WND 15027/1803 RAB1758E09 P0000 T02940217
53915KARA ARA20190501122515505/01/19 12:25:31  5-MIN KARA 011825Z 16018G25KT 10SM FEW030 SCT037 29/21 A3008 -120 60 1600 160/18G25 RMK AO2 PK WND 15027/1803 RAB1758E09 P0000 T02940211
53915KARA ARA20190501123015505/01/19 12:30:31  5-MIN KARA 011830Z 16016G25KT 10SM FEW028 SCT037 29/22 A3008 -120 62 1600 160/16G25 RMK AO2 PK WND 15027/1803 RAB1758E09 P0000 T02940217
53915KARA ARA20190501123515505/01/19 12:35:31  5-MIN KARA 011835Z 17018G25KT 10SM SCT030 SCT038 29/21 A3008 -120 60 1600 170/18G25 RMK AO2 PK WND 15027/1803 RAB1758E09 P0000 T02940211
53915KARA ARA20190501124015505/01/19 12:40:31  5-MIN KARA 011840Z 16019G25KT 10SM SCT032 BKN039 29/22 A3008 -120 62 1600 160/19G25 RMK AO2 PK WND 15027/1803 RAB1758E09 P0000 T02940217
53915KARA ARA20190501124515505/01/19 12:45:31  5-MIN KARA 011845Z 15015G24KT 10SM SCT032 BKN040 29/22 A3008 -120 62 1600 150/15G24 RMK AO2 PK WND 15027/1803 RAB1758E09 P0000 T02940217
53915KARA ARA20190501125015505/01/19 12:50:31  5-MIN KARA 011850Z 14019G26KT 10SM BKN032 29/21 A3008 -120 62 1500 140/19G26 RMK AO2 PK WND 15027/1803 RAB1758E09 SLP185 P0000 T02890211
53915KARA ARA20190501125511305/01/19 12:55:31  5-MIN KARA 011855Z 15020G26KT 10SM BKN032 29/21 A3008 -120 62 1500 150/20G26 RMK AO2 T02890211
53915KARA ARA20190501130011405/01/19 13:00:31  5-MIN KARA 011900Z 16018KT 10SM BKN034 BKN043 29/21 A3008 -120 60 1500 160/18 RMK AO2 T02890206
53915KARA ARA20190501130511405/01/19 13:05:31  5-MIN KARA 011905Z 16018KT 10SM BKN034 BKN043 29/21 A3008 -120 62 1500 160/18 RMK AO2 T02890211
53915KARA ARA20190501131012005/01/19 13:10:31  5-MIN KARA 011910Z 16017G25KT 10SM BKN034 BKN046 28/21 A3008 -120 64 1400 160/17G25 RMK AO2 T02830211
53915KARA ARA20190501131512005/01/19 13:15:31  5-MIN KARA 011915Z 16019G24KT 10SM SCT032 BKN046 29/21 A3008 -120 62 1500 160/19G24 RMK AO2 T02890211
53915KARA ARA20190501132012005/01/19 13:20:31  5-MIN KARA 011920Z 15018G24KT 10SM SCT034 BKN046 28/21 A3008 -120 62 1400 150/18G24 RMK AO2 T02830206
53915KARA ARA20190501132513605/01/19 13:25:31  5-MIN KARA 011925Z 15020G25KT 10SM -RA BKN034 BKN046 28/21 A3007 -110 62 1400 150/20G25 RMK AO2 RAB25 P0000 T02830206
53915KARA ARA20190501133013605/01/19 13:30:31  5-MIN KARA 011930Z 14018G25KT 10SM -RA SCT034 BKN046 28/21 A3007 -110 64 1400 140/18G25 RMK AO2 RAB25 P0000 T02830211
53915KARA ARA20190501133512905/01/19 13:35:31  5-MIN KARA 011935Z 16019KT 10SM FEW034 SCT044 28/21 A3007 -110 64 1400 160/19 RMK AO2 RAB25E34 P0000 T02830211
53915KARA ARA20190501134012905/01/19 13:40:31  5-MIN KARA 011940Z 16014KT 10SM SCT034 SCT042 28/21 A3007 -110 64 1400 150/14 RMK AO2 RAB25E34 P0000 T02830211
53915KARA ARA20190501134513505/01/19 13:45:31  5-MIN KARA 011945Z 16019G25KT 10SM SCT034 BKN042 29/21 A3007 -110 62 1500 150/19G25 RMK AO2 RAB25E34 P0000 T02890211
53915KARA ARA20190501135014305/01/19 13:50:31  5-MIN KARA 011950Z 15021KT 10SM -RA SCT034 SCT042 29/21 A3007 -110 60 1500 150/21 RMK AO2 RAB25E34B50 SLP182 P0000 T02890206
53915KARA ARA20190501135513005/01/19 13:55:31  5-MIN KARA 011955Z 16014G25KT 10SM -RA SCT034 SCT044 29/21 A3007 -110 60 1500 160/14G25 RMK AO2 P0000 T02890206
53915KARA ARA20190501140013205/01/19 14:00:31  5-MIN KARA 012000Z 16016G24KT 10SM SCT034 SCT043 29/21 A3007 -110 62 1500 160/16G24 RMK AO2 RAE00 P0000 T02890211
53915KARA ARA20190501140514305/01/19 14:05:31  5-MIN KARA 012005Z 16017G26KT 10SM BKN034 29/21 A3007 -110 62 1500 160/17G26 RMK AO2 PK WND 15026/2003 RAE00 P0000 T02890211
53915KARA ARA20190501141014305/01/19 14:10:31  5-MIN KARA 012010Z 16015G26KT 10SM SCT034 28/21 A3007 -110 62 1400 160/15G26 RMK AO2 PK WND 15026/2003 RAE00 P0000 T02830206
53915KARA ARA20190501141514305/01/19 14:15:31  5-MIN KARA 012015Z 15019G23KT 10SM SCT034 28/21 A3007 -110 62 1400 150/19G23 RMK AO2 PK WND 15026/2003 RAE00 P0000 T02830206
53915KARA ARA20190501142015105/01/19 14:20:31  5-MIN KARA 012020Z 16016KT 10SM SCT034 SCT040 SCT047 28/21 A3007 -110 64 1400 160/16 RMK AO2 PK WND 15026/2003 RAE00 P0000 T02830211
53915KARA ARA20190501142515005/01/19 14:25:31  5-MIN KARA 012025Z 16013G20KT 10SM SCT033 SCT043 28/21 A3006 -100 64 1400 160/13G20 RMK AO2 PK WND 15026/2003 RAE00 P0000 T02830211
53915KARA ARA20190501143015005/01/19 14:30:31  5-MIN KARA 012030Z 14018G22KT 10SM SCT033 SCT043 28/21 A3007 -100 64 1400 140/18G22 RMK AO2 PK WND 15026/2003 RAE00 P0000 T02830211
53915KARA ARA20190501143514405/01/19 14:35:31  5-MIN KARA 012035Z 16016KT 10SM FEW033 SCT045 28/21 A3007 -100 64 1400 160/16 RMK AO2 PK WND 15026/2003 RAE00 P0000 T02780206
53915KARA ARA20190501144014405/01/19 14:40:31  5-MIN KARA 012040Z 16015KT 10SM FEW033 SCT043 28/21 A3006 -100 66 1400 160/15 RMK AO2 PK WND 15026/2003 RAE00 P0000 T02780211
53915KARA ARA20190501144514405/01/19 14:45:31  5-MIN KARA 012045Z 17015KT 10SM FEW033 SCT043 28/21 A3006 -100 64 1400 160/15 RMK AO2 PK WND 15026/2003 RAE00 P0000 T02830211
53915KARA ARA20190501145016905/01/19 14:50:31  5-MIN KARA 012050Z 17014G20KT 10SM FEW033 SCT043 28/21 A3006 -100 62 1400 170/14G20 RMK AO2 PK WND 15026/2003 RAE00 SLP178 P0000 60000 T02830206 50000
53915KARA ARA20190501145512005/01/19 14:55:31  5-MIN KARA 012055Z 16016G21KT 10SM FEW033 SCT043 28/21 A3006 -100 64 1500 160/16G21 RMK AO2 T02830211
53915KARA ARA20190501150011905/01/19 15:00:31  5-MIN KARA 012100Z 16014G21KT 10SM FEW033 FEW043 28/21 A3005 -90 64 1400 160/14G21 RMK AO2 T02780206
53915KARA ARA20190501150512605/01/19 15:05:31  5-MIN KARA 012105Z 17015G23KT 10SM FEW033 FEW043 SCT075 28/21 A3006 -90 62 1500 170/15G23 RMK AO2 T02830206
53915KARA ARA20190501151011905/01/19 15:10:31  5-MIN KARA 012110Z 17018G23KT 10SM FEW033 FEW075 28/21 A3006 -90 62 1500 170/18G23 RMK AO2 T02830206
53915KARA ARA20190501151510905/01/19 15:15:31  5-MIN KARA 012115Z 16018G21KT 10SM CLR 28/21 A3006 -90 62 1500 160/18G21 RMK AO2 T02830206
53915KARA ARA20190501152010305/01/19 15:20:31  5-MIN KARA 012120Z 16018KT 10SM CLR 28/21 A3006 -90 62 1500 160/18 RMK AO2 T02830206
53915KARA ARA20190501152510605/01/19 15:25:31  5-MIN KARA 012125Z 16016KT 10SM FEW039 28/21 A3006 -90 64 1400 160/16 RMK AO2 T02780206
53915KARA ARA20190501153010605/01/19 15:30:31  5-MIN KARA 012130Z 16016KT 10SM FEW039 27/21 A3005 -90 66 1300 160/16 RMK AO2 T02720206
53915KARA ARA20190501153510905/01/19 15:35:31  5-MIN KARA 012135Z 16016G23KT 10SM CLR 28/21 A3005 -90 62 1500 160/16G23 RMK AO2 T02830206
53915KARA ARA20190501154010905/01/19 15:40:31  5-MIN KARA 012140Z 17016G23KT 10SM CLR 28/20 A3005 -90 62 1400 170/16G23 RMK AO2 T02780200
53915KARA ARA20190501154510305/01/19 15:45:31  5-MIN KARA 012145Z 16014KT 10SM CLR 28/21 A3005 -90 64 1400 160/14 RMK AO2 T02780206
53915KARA ARA20190501155011605/01/19 15:50:31  5-MIN KARA 012150Z 16016G22KT 10SM CLR 28/21 A3005 -90 62 1500 160/16G22 RMK AO2 SLP176 T02830206
53915KARA ARA20190501155511205/01/19 15:55:31  5-MIN KARA 012155Z 15017G22KT 10SM FEW033 28/21 A3005 -90 64 1500 150/17G22 RMK AO2 T02830211
53915KARA ARA20190501160011205/01/19 16:00:31  5-MIN KARA 012200Z 18014G21KT 10SM FEW033 29/21 A3005 -90 62 1500 180/14G21 RMK AO2 T02890211
53915KARA ARA20190501160511205/01/19 16:05:31  5-MIN KARA 012205Z 18014G21KT 10SM SCT033 28/21 A3005 -90 64 1500 180/14G21 RMK AO2 T02830211
53915KARA ARA20190501161010605/01/19 16:10:31  5-MIN KARA 012210Z 18014KT 10SM FEW032 29/21 A3005 -90 62 1500 170/14 RMK AO2 T02890211
53915KARA ARA20190501161510605/01/19 16:15:31  5-MIN KARA 012215Z 18015KT 10SM FEW032 28/21 A3005 -90 62 1500 180/15 RMK AO2 T02830206
53915KARA ARA20190501162010605/01/19 16:20:31  5-MIN KARA 012220Z 18016KT 10SM FEW032 28/21 A3005 -90 62 1500 180/16 RMK AO2 T02830206
53915KARA ARA20190501162510605/01/19 16:25:31  5-MIN KARA 012225Z 18015KT 10SM FEW032 28/21 A3005 -90 64 1400 180/15 RMK AO2 T02780206
53915KARA ARA20190501163010605/01/19 16:30:31  5-MIN KARA 012230Z 18016KT 10SM FEW032 28/21 A3005 -90 62 1500 180/16 RMK AO2 T02830206
53915KARA ARA20190501163510905/01/19 16:35:31  5-MIN KARA 012235Z 18015G20KT 10SM CLR 28/21 A3005 -90 62 1500 180/15G20 RMK AO2 T02830206
53915KARA ARA20190501164010905/01/19 16:40:31  5-MIN KARA 012240Z 17016G20KT 10SM CLR 28/21 A3005 -90 62 1500 170/16G20 RMK AO2 T02830206
53915KARA ARA20190501164510905/01/19 16:45:31  5-MIN KARA 012245Z 18012G20KT 10SM CLR 28/21 A3005 -90 62 1500 170/12G20 RMK AO2 T02830206
53915KARA ARA20190501165011005/01/19 16:50:31  5-MIN KARA 012250Z 17012KT 10SM CLR 28/21 A3005 -80 64 1500 170/12 RMK AO2 SLP173 T02830211
53915KARA ARA20190501165510305/01/19 16:55:31  5-MIN KARA 012255Z 18012KT 10SM CLR 28/21 A3005 -80 64 1500 180/12 RMK AO2 T02830211
53915KARA ARA20190501170010305/01/19 17:00:31  5-MIN KARA 012300Z 17013KT 10SM CLR 28/21 A3005 -90 66 1400 170/13 RMK AO2 T02780211
53915KARA ARA20190501170510305/01/19 17:05:31  5-MIN KARA 012305Z 18015KT 10SM CLR 28/21 A3005 -90 66 1400 180/15 RMK AO2 T02780211
53915KARA ARA20190501171010305/01/19 17:10:31  5-MIN KARA 012310Z 18014KT 10SM CLR 28/21 A3005 -90 66 1400 180/14 RMK AO2 T02780211
53915KARA ARA20190501171510305/01/19 17:15:31  5-MIN KARA 012315Z 17013KT 10SM CLR 28/21 A3005 -90 66 1400 170/13 RMK AO2 T02780211
53915KARA ARA20190502032011705/02/19 03:20:31  5-MIN KARA 020920Z AUTO 14008KT 10SM BKN014 OVC021 23/22 A3002 -60 93 900 140/08 RMK AO2 T02330222
53915KARA ARA20190502032511705/02/19 03:25:31  5-MIN KARA 020925Z AUTO 14011KT 10SM BKN014 OVC021 23/22 A3002 -60 93 900 140/11 RMK AO2 T02330222
53915KARA ARA20190502033012405/02/19 03:30:31  5-MIN KARA 020930Z AUTO 13009KT 10SM BKN014 BKN021 OVC025 23/22 A3002 -60 93 900 130/09 RMK AO2 T02330222
53915KARA ARA20190502033512405/02/19 03:35:31  5-MIN KARA 020935Z AUTO 14008KT 10SM BKN014 BKN020 OVC025 23/22 A3002 -60 93 900 130/08 RMK AO2 T02330222
53915KARA ARA20190502034012405/02/19 03:40:31  5-MIN KARA 020940Z AUTO 13010KT 10SM SCT014 BKN020 OVC030 23/22 A3002 -60 93 900 130/10 RMK AO2 T02330222
53915KARA ARA20190502034512405/02/19 03:45:31  5-MIN KARA 020945Z AUTO 13010KT 10SM SCT013 SCT020 BKN025 23/22 A3001 -50 93 900 130/10 RMK AO2 T02330222
53915KARA ARA20190502035013105/02/19 03:50:31  5-MIN KARA 020950Z AUTO 13010KT 10SM FEW013 SCT020 BKN025 23/22 A3001 -50 93 900 130/10 RMK AO2 SLP161 T02330222
53915KARA ARA20190502035512405/02/19 03:55:31  5-MIN KARA 020955Z AUTO 14010KT 10SM FEW013 SCT020 BKN025 23/22 A3001 -50 93 900 140/10 RMK AO2 T02330222
53915KARA ARA20190502040012405/02/19 04:00:31  5-MIN KARA 021000Z AUTO 14009KT 10SM FEW013 SCT020 BKN025 23/22 A3001 -50 93 900 130/09 RMK AO2 T02330222
53915KARA ARA20190502040512405/02/19 04:05:31  5-MIN KARA 021005Z AUTO 14010KT 10SM FEW013 SCT020 BKN025 23/22 A3001 -60 93 900 130/10 RMK AO2 T02330222
53915KARA ARA20190502041011705/02/19 04:10:31  5-MIN KARA 021010Z AUTO 14008KT 10SM SCT015 BKN023 23/22 A3002 -60 93 900 140/08 RMK AO2 T02330222
53915KARA ARA20190502041511705/02/19 04:15:31  5-MIN KARA 021015Z AUTO 14008KT 10SM SCT015 BKN023 23/22 A3002 -60 93 900 140/08 RMK AO2 T02330222
53915KARA ARA20190502042012405/02/19 04:20:31  5-MIN KARA 021020Z AUTO 13011KT 10SM FEW012 SCT017 BKN024 23/22 A3002 -60 93 900 130/11 RMK AO2 T02330222
53915KARA ARA20190502042511805/02/19 04:25:31  5-MIN KARA 021025Z 14009KT 10SM FEW012 SCT018 BKN024 23/22 A3002 -60 93 900 2 RAB34 P0000 T02330222
53915KARA ARA20190502044015505/02/19 04:40:31  5-MIN KARA 021040Z 14ARA 021050Z 14009KT 10SM SCT016 SCT022 BKN027 23/22 A3002 -60 93 900 140/09 RMK AO2 RAB34E43 SLP166 P0000 T02330222
53915KARA ARA20190502045511205/02/19 04:55:31  5-MIN KARA 021055Z 14009KT 10SM BKN016 BKN024 23/22 A3002 -60 93 900 140/09 RMK AO2 T02330222
53915KARA ARA20190502050011205/02/19 05:00:31  5-MIN KARA 021100Z 14010KT 10SM SCT014 BKN020 23/22 A3002 -60 93 900 140/10 RMK AO2 T02330222
53915KARA ARA20190502050510505/02/19 05:05:31  5-MIN KARA 021105Z 13011KT 10SM BKN016 23/22 A3002 -60 93 900 130/11 RMK AO2 T02330222
53915KARA ARA20190502051010505/02/19 05:10:31  5-MIN KARA 021110Z 13011KT 10SM SCT016 23/22 A3002 -60 93 900 130/11 RMK AO2 T02330222
53915KARA ARA20190502051511205/02/19 05:15:31  5-MIN KARA 021115Z 13009KT 10SM SCT014 SCT019 23/22 A3002 -60 93 900 130/09 RMK AO2 T02330222
53915KARA ARA20190502052010505/02/19 05:20:31  5-MIN KARA 021120Z 13011KT 10SM FEW014 23/22 A3002 -60 93 900 130/11 RMK AO2 T02330222
53915KARA ARA20190502052511205/02/19 05:25:31  5-MIN KARA 021125Z 14010KT 10SM FEW014 FEW027 23/22 A3002 -60 93 900 130/10 RMK AO2 T02330222
53915KARA ARA20190502053012805/02/19 05:30:31  5-MIN KARA 021130Z 13011KT 10SM -RA FEW016 FEW027 23/22 A3002 -60 97 900 130/11 RMK AO2 RAB27 P0000 T02280222
53915KARA ARA20190502053511805/02/19 05:35:31  5-MIN KARA 021135Z 14010KT 10SM -RA CLR 23/22 A3002 -60 93 900 140/10 RMK AO2 RAB27 P0000 T02280217
53915KARA ARA20190502054011705/02/19 05:40:31  5-MIN KARA 021140Z 14010KT 10SM CLR 23/22 A3002 -60 93 900 140/10 RMK AO2 RAB27E36 P0000 T02280217
53915KARA ARA20190502054511705/02/19 05:45:31  5-MIN KARA 021145Z 14010KT 10SM CLR 23/22 A3002 -60 93 900 140/10 RMK AO2 RAB27E36 P0000 T02280217
53915KARA ARA20190502055015105/02/19 05:50:31  5-MIN KARA 021150Z 14010KT 10SM FEW020 23/22 A3003 -70 93 900 140/10 RMK AO2 RAB27E36 SLP168 P0000 60000 T02280217 10239 20228 56006
53915KARA ARA20190502055511205/02/19 05:55:31  5-MIN KARA 021155Z 14009KT 10SM FEW012 FEW026 23/22 A3003 -70 90 900 140/09 RMK AO2 T02330217
53915KARA ARA20190502060011205/02/19 06:00:31  5-MIN KARA 021200Z 13011KT 10SM FEW012 SCT026 23/22 A3003 -70 97 900 130/11 RMK AO2 T02280222
53915KARA ARA20190502060511205/02/19 06:05:31  5-MIN KARA 021205Z 14010KT 10SM FEW014 SCT026 23/22 A3003 -70 93 900 140/10 RMK AO2 T02330222
53915KARA ARA20190502061011205/02/19 06:10:31  5-MIN KARA 021210Z 13010KT 10SM FEW014 SCT023 23/22 A3004 -80 93 900 130/10 RMK AO2 T02330222
53915KARA ARA20190502061511905/02/19 06:15:31  5-MIN KARA 021215Z 13011KT 10SM FEW014 FEW021 SCT026 23/22 A3004 -80 93 900 130/11 RMK AO2 T02330222
53915KARA ARA20190502062011205/02/19 06:20:31  5-MIN KARA 021220Z 13010KT 10SM FEW016 SCT026 23/22 A3004 -80 93 900 130/10 RMK AO2 T02330222
53915KARA ARA20190502062512005/02/19 06:25:31  5-MIN KARA 021225Z 14009KT 10SM SCT014 SCT020 BKN026 24/22 A3005 -90 90 1000 130/09 RMK AO2 T02390222
53915KARA ARA20190502063011305/02/19 06:30:31  5-MIN KARA 021230Z 14008KT 10SM BKN016 BKN022 24/22 A3005 -90 90 1000 140/08 RMK AO2 T02390222
53915KARA ARA20190502063511305/02/19 06:35:31  5-MIN KARA 021235Z 15009KT 10SM BKN014 BKN022 24/22 A3005 -90 90 1000 140/09 RMK AO2 T02390222
53915KARA ARA20190502064012005/02/19 06:40:31  5-MIN KARA 021240Z 15008KT 10SM BKN012 BKN018 BKN029 24/22 A3006 -100 90 900 140/08 RMK AO2 T02390222
53915KARA ARA20190502064512005/02/19 06:45:31  5-MIN KARA 021245Z 15010KT 10SM SCT010 BKN016 OVC027 24/22 A3006 -100 90 900 140/10 RMK AO2 T02390222
53915KARA ARA20190502065012705/02/19 06:50:31  5-MIN KARA 021250Z 14009KT 10SM BKN010 BKN016 OVC027 24/22 A3006 -100 90 900 140/09 RMK AO2 SLP180 T02390222
53915KARA ARA20190502065511305/02/19 06:55:31  5-MIN KARA 021255Z 14008KT 10SM BKN012 OVC028 24/22 A3007 -100 90 900 140/08 RMK AO2 T02390222
53915KARA ARA20190502070011305/02/19 07:00:31  5-MIN KARA 021300Z 14007KT 10SM SCT010 BKN028 24/22 A3007 -110 90 900 140/07 RMK AO2 T02390222
53915KARA ARA20190502070511305/02/19 07:05:31  5-MIN KARA 021305Z 15008KT 10SM BKN010 BKN027 23/22 A3007 -110 93 900 150/08 RMK AO2 T02330222
53915KARA ARA20190502071011305/02/19 07:10:31  5-MIN KARA 021310Z 13007KT 10SM BKN010 BKN027 24/22 A3007 -100 90 900 130/07 RMK AO2 T02390222
53915KARA ARA20190502071511405/02/19 07:15:31  5-MIN KARA 021315Z 14006KT 10SM SCT011 BKN027 24/22 A3007 -110 87 1000 140/06 RMK AO2 T02440222
53915KARA ARA20190502072011405/02/19 07:20:31  5-MIN KARA 021320Z 15009KT 10SM SCT011 BKN027 24/22 A3007 -110 87 1000 150/09 RMK AO2 T02440222
53915KARA ARA20190502072511405/02/19 07:25:31  5-MIN KARA 021325Z 15009KT 10SM SCT011 BKN027 24/22 A3008 -110 87 1000 140/09 RMK AO2 T02440222
53915KARA ARA20190502073011405/02/19 07:30:31  5-MIN KARA 021330Z 15009KT 10SM SCT011 BKN025 24/22 A3008 -120 87 1000 150/09 RMK AO2 T02440222
53915KARA ARA20190502073512105/02/19 07:35:31  5-MIN KARA 021335Z 16008KT 10SM SCT013 SCT022 BKN027 24/22 A3008 -120 87 1000 160/08 RMK AO2 T02440222
53915KARA ARA20190502074012105/02/19 07:40:31  5-MIN KARA 021340Z 15012KT 10SM FEW013 SCT022 BKN027 25/22 A3008 -120 84 1100 150/12 RMK AO2 T02500222
53915KARA ARA20190502074512105/02/19 07:45:31  5-MIN KARA 021345Z 15011KT 10SM FEW015 SCT022 SCT027 25/22 A3007 -110 84 1100 150/11 RMK AO2 T02500222
53915KARA ARA20190502075011105/02/19 07:50:31  5-MIN KARA 021350Z 16013KT 10SM FEW015 FEW022 SCT027 25/22 A3008 -110 84 1100 150/13 RMK AO2
53915KARA ARA20190502075512105/02/19 07:55:31  5-MIN KARA 021355Z 15011KT 10SM FEW015 SCT022 SCT027 26/22 A3008 -120 81 1100 150/11 RMK AO2 T02560222
53915KARA ARA20190502080010705/02/19 08:00:31  5-MIN KARA 021400Z 16010KT 10SM SCT015 26/22 A3009 -130 81 1100 160/10 RMK AO2 T02560222
53915KARA ARA20190502080511405/02/19 08:05:31  5-MIN KARA 021405Z 15009KT 10SM SCT015 25/22 A3010 -140 84 1000 150/09 RMK AO2 PRESRR T02500222
53915KARA ARA20190502081011405/02/19 08:10:31  5-MIN KARA 021410Z 16007KT 10SM SCT015 25/22 A3011 -140 81 1000 160/07 RMK AO2 PRESRR T02500217
53915KARA ARA20190502081511405/02/19 08:15:31  5-MIN KARA 021415Z 17008KT 10SM SCT015 25/22 A3012 -150 81 1000 170/08 RMK AO2 PRESRR T02500217
53915KARA ARA20190502082011405/02/19 08:20:31  5-MIN KARA 021420Z 18008KT 10SM SCT017 25/22 A3012 -160 81 1000 180/08 RMK AO2 PRESRR T02500217
53915KARA ARA20190502082512105/02/19 08:25:31  5-MIN KARA 021425Z 18008KT 10SM SCT017 SCT021 BKN026 25/22 A3012 -160 81 1000 180/08 RMK AO2 T02500217
53915KARA ARA20190502083012105/02/19 08:30:31  5-MIN KARA 021430Z 19005KT 10SM SCT017 BKN026 BKN033 26/22 A3013 -160 79 1100 190/05 RMK AO2 T02560217
53915KARA ARA20190502083512105/02/19 08:35:31  5-MIN KARA 021435Z 18004KT 10SM FEW017 SCT026 SCT036 25/22 A3013 -160 81 1000 180/04 RMK AO2 T02500217
53915KARA ARA20190502084012105/02/19 08:40:31  5-MIN KARA 021440Z 19006KT 10SM FEW018 SCT028 SCT033 26/22 A3013 -160 79 1100 180/06 RMK AO2 T02610222
53915KARA ARA20190502084512105/02/19 08:45:31  5-MIN KARA 021445Z 19006KT 10SM FEW018 FEW028 BKN037 26/22 A3013 -170 79 1100 190/06 RMK AO2 T02610222
53915KARA ARA20190502085013405/02/19 08:50:31  5-MIN KARA 021450Z 17007KT 10SM FEW020 FEW027 BKN037 26/22 A3014 -170 79 1100 170/07 RMK AO2 SLP204 T02610222 51006
53915KARA ARA20190502085511405/02/19 08:55:31  5-MIN KARA 021455Z 21008KT 10SM FEW020 FEW038 27/22 A3014 -170 73 1200 210/08 RMK AO2 T02670217
53915KARA ARA20190502090010705/02/19 09:00:31  5-MIN KARA 021500Z 21007KT 10SM FEW039 26/22 A3014 -170 76 1100 210/07 RMK AO2 T02610217
53915KARA ARA20190502090509705/02/19 09:05:31  5-MIN KARA 021505Z 10SM FEW039 26/22 A3014 -170 76 1100 M /M RMK AO2 T02610217
53915KARA ARA20190502091009705/02/19 09:10:31  5-MIN KARA 021510Z 10SM FEW039 27/22 A3015 -180 73 1200 M /M RMK AO2 T02670217
53915KARA ARA20190502091509705/02/19 09:15:31  5-MIN KARA 021515Z 10SM FEW039 26/22 A3015 -180 76 1100 M /M RMK AO2 T02610217
53915KARA ARA20190502092010705/02/19 09:20:31  5-MIN KARA 021520Z 19008KT 10SM FEW039 27/21 A3015 -180 71 1200 190/08 RMK AO2 T02670211
53915KARA ARA20190502092511405/02/19 09:25:31  5-MIN KARA 021525Z 21009KT 10SM FEW035 SCT042 27/21 A3015 -180 69 1200 210/09 RMK AO2 T02720211
53915KARA ARA20190502093013305/02/19 09:30:31  5-MIN KARA 021530Z 19010KT 10SM FEW027 SCT033 SCT042 28/21 A3015 -180 66 1300 190/10 RMK AO2 LTG DSNT NW T02780211
53915KARA ARA20190502093512605/02/19 09:35:31  5-MIN KARA 021535Z 20009KT 10SM FEW027 SCT038 27/21 A3014 -180 66 1200 200/09 RMK AO2 LTG DSNT NW T02720206
53915KARA ARA20190502094013305/02/19 09:40:31  5-MIN KARA 021540Z 20008KT 10SM FEW027 FEW033 SCT043 28/21 A3015 -180 64 1300 200/08 RMK AO2 LTG DSNT NW T02780206
53915KARA ARA20190502094513305/02/19 09:45:31  5-MIN KARA 021545Z 22009KT 10SM FEW027 SCT037 SCT045 28/20 A3015 -180 62 1300 220/09 RMK AO2 LTG DSNT NW T02780200
53915KARA ARA20190502095014605/02/19 09:50:31  5-MIN KARA 021550Z 20007KT 10SM FEW027 SCT037 BKN048 28/20 A3015 -180 62 1300 190/07 RMK AO2 LTG DSNT W AND NW SLP207 T02780200
53915KARA ARA20190502095513905/02/19 09:55:31  5-MIN KARA 021555Z 21009KT 10SM FEW027 SCT040 BKN048 28/21 A3015 -180 64 1300 210/09 RMK AO2 LTG DSNT W AND NW T02780206
53915KARA ARA20190502100013205/02/19 10:00:31  5-MIN KARA 021600Z 19007KT 10SM FEW038 SCT050 28/21 A3015 -180 62 1300 190/07 RMK AO2 LTG DSNT W AND NW T02830206
53915KARA ARA20190502100512605/02/19 10:05:31  5-MIN KARA 021605Z 19008KT 10SM SCT038 BKN050 28/21 A3015 -180 62 1300 190/08 RMK AO2 LTG DSNT NW T02830206
53915KARA ARA20190502101012705/02/19 10:10:31  5-MIN KARA 021610Z 21008KT 10SM BKN039 BKN050 28/20 A3015 -180 62 1300 210/08 RMK AO2 LTG DSNT W-N T02780200
53915KARA ARA20190502101512705/02/19 10:15:31  5-MIN KARA 021615Z 23009KT 10SM BKN037 BKN049 28/21 A3016 -190 62 1300 230/09 RMK AO2 LTG DSNT W-N T02830206
53915KARA ARA20190502102013805/02/19 10:20:31  5-MIN KARA 021620Z 25008KT 10SM FEW032 SCT039 BKN060 28/21 A3016 -190 62 1300 250/08 RMK AO2 LTG DSNT N AND W T02830206
53915KARA ARA20190502102513805/02/19 10:25:31  5-MIN KARA 021625Z 28020G25KT 10SM SCT034 SCT042 BKN100 28/20 A3017 -200 60 1300 280/20G25 RMK AO2 LTG DSNT N T02830200
53915KARA ARA20190502103017805/02/19 10:30:31  5-MIN KARA 021630Z 28016G25KT 10SM -RA SCT032 BKN042 BKN100 24/18 A3018 -210 71 800 280/16G25 RMK AO2 PK WND 28026/1626 LTG DSNT N RAB27 PRESRR P0000 T02390183
53915KARA ARA20190502103517105/02/19 10:35:31  5-MIN KARA 021635Z 30016G25KT 10SM -RA BKN032 BKN038 OVC100 23/18 A3018 -210 73 700 300/16G25 RMK AO2 PK WND 28026/1626 LTG DSNT N RAB27 P0000 T02330183
53915KARA ARA20190502104017005/02/19 10:40:31  5-MIN KARA 021640Z 30014G21KT 10SM RA FEW030 BKN035 OVC100 22/18 A3017 -200 78 600 300/14G21 RMK AO2 PK WND 28026/1626 WSHFT 1622 RAB27 P0002 T02220183
53915KARA ARA20190502104517605/02/19 10:45:31  5-MIN KARA 021645Z 31012KT 10SM +RA BKN033 BKN045 OVC100 22/19 A3016 -190 87 600 300/12 RMK AO2 PK WND 28026/1626 WSHFT 1622 LTG DSNT N RAB27 P0005 T02170194
53915KARA ARA20190502105019705/02/19 10:50:31  5-MIN KARA 021650Z 32011KT 10SM +RA BKN033 BKN048 OVC055 22/20 A3015 -180 90 600 320/11 RMK AO2 PK WND 28026/1626 WSHFT 1622 LTG DSNT N AND NE RAB27 PRESFR SLP208 P0007 T02170200
53915KARA ARA20190502105515505/02/19 10:55:31  5-MIN KARA 021655Z 32008KT 10SM -RA SCT033 BKN050 OVC060 23/21 A3014 -170 87 700 320/08 RMK AO2 LTG DSNT N AND NE PRESFR P0000 T02280206
53915KARA ARA20190502110014905/02/19 11:00:31  5-MIN KARA 021700Z 31004KT 10SM -RA FEW034 BKN050 OVC060 23/20 A3013 -160 84 700 310/04 RMK AO2 LTG DSNT NE PRESFR P0000 T02280200
53915KARA ARA20190502110514405/02/19 11:05:31  5-MIN KARA 021705Z 00000KT 10SM FEW036 SCT050 BKN060 23/20 A3013 -160 84 700 000/00 RMK AO2 LTG DSNT NE RAE04 P0000 T02280200
53915KARA ARA20190502111015105/02/19 11:10:31  5-MIN KARA 021710Z 00000KT 10SM FEW050 BKN060 BKN070 23/19 A3012 -150 78 800 000/00 RMK AO2 LTG DSNT NE RAE04 PRESFR P0000 T02330194
53915KARA ARA20190502111514405/02/19 11:15:31  5-MIN KARA 021715Z 00000KT 10SM SCT060 BKN070 24/20 A3011 -140 78 900 000/00 RMK AO2 LTG DSNT NE RAE04 PRESFR P0000 T02390200
53915KARA ARA20190502112014505/02/19 11:20:31  5-MIN KARA 021720Z 03003KT 10SM SCT060 SCT070 25/19 A3010 -140 71 1000 030/03 RMK AO2 LTG DSNT NE RAE04 PRESFR P0000 T02500194
53915KARA ARA20190502112512605/02/19 11:25:31  5-MIN KARA 021725Z 04003KT 10SM FEW060 FEW070 26/20 A3010 -140 68 1200 040/03 RMK AO2 RAE04 P0000 T02610200
53915KARA ARA20190502113011905/02/19 11:30:31  5-MIN KARA 021730Z 06005KT 10SM FEW070 26/20 A3010 -130 68 1200 060/05 RMK AO2 RAE04 P0000 T02610200
53915KARA ARA20190502113511605/02/19 11:35:31  5-MIN KARA 021735Z 08007KT 10SM CLR 27/19 A3009 -130 60 1300 070/07 RMK AO2 RAE04 P0000 T02720189
53915KARA ARA20190502114011605/02/19 11:40:31  5-MIN KARA 021740Z 08006KT 10SM CLR 27/18 A3009 -120 57 1200 070/06 RMK AO2 RAE04 P0000 T02670178
53915KARA ARA20190502114511605/02/19 11:45:31  5-MIN KARA 021745Z 08006KT 10SM CLR 28/17 A3008 -120 52 1400 080/06 RMK AO2 RAE04 P0000 T02780172
53915KARA ARA20190502115015405/02/19 11:50:31  5-MIN KARA 021750Z 08005KT 10SM CLR 28/17 A3007 -110 48 1400 080/05 RMK AO2 RAE04 PRESFR SLP182 P0000 60007 T02830167 10283 20217 53024
53915KARA ARA20190502115510405/02/19 11:55:31  5-MIN KARA 021755Z 13005KT 10SM CLR 28/18 A3007 -100 52 1400 130/05 RMK AO2 T02830178
53915KARA ARA20190502120011105/02/19 12:00:31  5-MIN KARA 021800Z 10008KT 10SM CLR 28/17 A3006 -100 50 1400 100/08 RMK AO2 PRESFR T02830172
53915KARA ARA20190502120510405/02/19 12:05:31  5-MIN KARA 021805Z 10008KT 10SM CLR 29/18 A3006 -100 52 1500 100/08 RMK AO2 T02890183
53915KARA ARA20190502121010305/02/19 12:10:31  5-MIN KARA 021810Z 11010KT 10SM CLR 29/18 A3005 -90 52 1600 120/14 RMK AO2 T02940194
53915KARA ARA20190502123010305/02/19 12:30:31  5-MIN KARA 021830Z 12011KT 10SM CLR 29/18 A3003 -70 50 1600 120/11 RMK AO2 T02940183
53915KARA ARA20190502123510305/02/19 12:35:31  5-MIN KARA 021835Z 13013KT 10SM CLR 30/19 A3003 -70 51 1700 130/13 RMK AO2 T03000189
53915KARA ARA20190502124010305/02/19 12:40:31  5-MIN KARA 021840Z 12011KT 10SM CLR 31/18 A3003 -70 47 1700 120/11 RMK AO2 T03060183
53915KARA ARA20190502124510305/02/19 12:45:31  5-MIN KARA 021845Z 12013KT 10SM CLR 31/18 A3003 -70 47 1700 120/13 RMK AO2 T03060183
53915KARA ARA20190502125011005/02/19 12:50:31  5-MIN KARA 021850Z 13015KT 10SM CLR 30/18 A3003 -70 49 1700 120/15 RMK AO2 SLP167 T03000183
53915KARA ARA20190502125510305/02/19 12:55:31  5-MIN KARA 021855Z 12013KT 10SM CLR 31/18 A3002 -60 46 1700 120/13 RMK AO2 T03060178
53915KARA ARA20190502130010305/02/19 13:00:31  5-MIN KARA 021900Z 13014KT 10SM CLR 31/18 A3002 -60 47 1700 130/14 RMK AO2 T03060183
53915KARA ARA20190502130510305/02/19 13:05:31  5-MIN KARA 021905Z 13013KT 10SM CLR 31/18 A3002 -60 47 1700 130/13 RMK AO2 T03060183
53915KARA ARA20190502131010905/02/19 13:10:31  5-MIN KARA 021910Z 12016G20KT 10SM CLR 31/18 A3002 -60 47 1700 120/16G20 RMK AO2 T03060183
53915KARA ARA20190502131510305/02/19 13:15:31  5-MIN KARA 021915Z 15017KT 10SM CLR 31/18 A3001 -50 47 1800 150/17 RMK AO2 T03060183
53915KARA ARA20190502132010905/02/19 13:20:31  5-MIN KARA 021920Z 15016G20KT 10SM CLR 30/18 A3001 -50 47 1700 150/16G20 RMK AO2 T03000178
53915KARA ARA20190502132510305/02/19 13:25:31  5-MIN KARA 021925Z 13014KT 10SM CLR 30/18 A3001 -50 49 1700 130/14 RMK AO2 T03000183
53915KARA ARA20190502133010905/02/19 13:30:31  5-MIN KARA 021930Z 16015G21KT 10SM CLR 30/18 A3001 -50 49 1700 160/15G21 RMK AO2 T03000183
53915KARA ARA20190502133510905/02/19 13:35:31  5-MIN KARA 021935Z 14014G21KT 10SM CLR 30/19 A3001 -50 51 1700 140/14G21 RMK AO2 T03000189
53915KARA ARA20190502134010305/02/19 13:40:31  5-MIN KARA 021940Z 14012KT 10SM CLR 30/18 A3001 -50 49 1700 140/12 RMK AO2 T03000183
53915KARA ARA20190502134510305/02/19 13:45:31  5-MIN KARA 021945Z 16016KT 10SM CLR 30/19 A3001 -50 51 1700 160/16 RMK AO2 T03000189
53915KARA ARA20190502135011005/02/19 13:50:31  5-MIN KARA 021950Z 15013KT 10SM CLR 29/18 A3000 -40 49 1600 150/13 RMK AO2 SLP158 T02940178
53915KARA ARA20190502135510905/02/19 13:55:31  5-MIN KARA 021955Z 15011G20KT 10SM CLR 30/18 A3000 -40 49 1700 150/11G20 RMK AO2 T03000183
53915KARA ARA20190502140010905/02/19 14:00:31  5-MIN KARA 022000Z 17013G20KT 10SM CLR 29/18 A3000 -40 50 1600 170/13G20 RMK AO2 T02940183
53915KARA ARA20190502140510305/02/19 14:05:31  5-MIN KARA 022005Z 16014KT 10SM CLR 30/19 A2999 -30 51 1700 160/14 RMK AO2 T03000189
53915KARA ARA20190502141010305/02/19 14:10:31  5-MIN KARA 022010Z 16014KT 10SM CLR 30/19 A2999 -30 51 1700 160/14 RMK AO2 T03000189
53915KARA ARA20190502141510905/02/19 14:15:31  5-MIN KARA 022015Z 14014G19KT 10SM CLR 29/19 A2999 -30 52 1700 140/14G19 RMK AO2 T02940189
53915KARA ARA20190502142010905/02/19 14:20:31  5-MIN KARA 022020Z 16015G18KT 10SM CLR 30/19 A2999 -30 52 1700 150/15G18 RMK AO2 T03000194
53915KARA ARA20190502142510305/02/19 14:25:31  5-MIN KARA 022025Z 18014KT 10SM CLR 29/20 A2998 -30 56 1700 180/14 RMK AO2 T02940200
53915KARA ARA20190502143010905/02/19 14:30:31  5-MIN KARA 022030Z 15013G20KT 10SM CLR 29/19 A2998 -30 54 1700 150/13G20 RMK AO2 T02940194
53915KARA ARA20190502143510905/02/19 14:35:31  5-MIN KARA 022035Z 17014G20KT 10SM CLR 30/20 A2998 -30 54 1700 160/14G20 RMK AO2 T03000200
53915KARA ARA20190502144010305/02/19 14:40:31  5-MIN KARA 022040Z 18013KT 10SM CLR 30/20 A2998 -20 54 1700 170/13 RMK AO2 T03000200
53915KARA ARA20190502144510305/02/19 14:45:31  5-MIN KARA 022045Z 15012KT 10SM CLR 30/19 A2998 -30 52 1700 150/12 RMK AO2 T03000194
53915KARA ARA20190502145012205/02/19 14:50:31  5-MIN KARA 022050Z 16010G20KT 10SM CLR 29/19 A2998 -30 54 1700 160/10G20 RMK AO2 SLP152 T02940194 58023
53915KARA ARA20190502145510905/02/19 14:55:31  5-MIN KARA 022055Z 17015G19KT 10SM CLR 30/19 A2998 -20 51 1700 170/15G19 RMK AO2 T03000189
53915KARA ARA20190502150010305/02/19 15:00:31  5-MIN KARA 022100Z 16016KT 10SM CLR 29/18 A2998 -30 50 1700 160/16 RMK AO2 T02940183
53915KARA ARA20190502150510305/02/19 15:05:31  5-MIN KARA 022105Z 17015KT 10SM CLR 29/17 A2998 -30 47 1700 170/15 RMK AO2 T02940172
53915KARA ARA20190502151010905/02/19 15:10:31  5-MIN KARA 022110Z 18011G19KT 10SM CLR 29/17 A2998 -30 45 1700 180/11G19 RMK AO2 T02940167
53915KARA ARA20190502151510905/02/19 15:15:31  5-MIN KARA 022115Z 17010G19KT 10SM CLR 30/16 A2998 -30 42 1700 170/10G19 RMK AO2 T03000161
53915KARA ARA20190502152010905/02/19 15:20:31  5-MIN KARA 022120Z 18014G19KT 10SM CLR 30/16 A2998 -20 42 1700 180/14G19 RMK AO2 T03000161
53915KARA ARA20190502152510905/02/19 15:25:31  5-MIN KARA 022125Z 17013G19KT 10SM CLR 29/16 A2998 -20 42 1700 170/13G19 RMK AO2 T02940156
53915KARA ARA20190502153010305/02/19 15:30:31  5-MIN KARA 022130Z 16013KT 10SM CLR 29/16 A2998 -20 42 1700 160/13 RMK AO2 T02940156
53915KARA ARA20190502153510305/02/19 15:35:31  5-MIN KARA 022135Z 18011KT 10SM CLR 29/16 A2998 -20 44 1700 180/11 RMK AO2 T02940161
53915KARA ARA20190502154010305/02/19 15:40:31  5-MIN KARA 022140Z 19012KT 10SM CLR 30/17 A2998 -20 44 1700 190/12 RMK AO2 T03000167
53915KARA ARA20190502154510305/02/19 15:45:31  5-MIN KARA 022145Z 17010KT 10SM CLR 29/17 A2997 -20 45 1700 170/10 RMK AO2 T02940167
53915KARA ARA20190502155011005/02/19 15:50:31  5-MIN KARA 022150Z 19012KT 10SM CLR 29/17 A2997 -10 47 1700 190/12 RMK AO2 SLP148 T02940172
53915KARA ARA20190502155510305/02/19 15:55:31  5-MIN KARA 022155Z 18012KT 10SM CLR 29/17 A2997 -20 47 1600 180/12 RMK AO2 T02890167
53915KARA ARA20190502160010305/02/19 16:00:31  5-MIN KARA 022200Z 19012KT 10SM CLR 29/17 A2997 -20 47 1700 180/12 RMK AO2 T02940172
53915KARA ARA20190502160510305/02/19 16:05:31  5-MIN KARA 022205Z 17013KT 10SM CLR 29/17 A2997 -20 48 1600 170/13 RMK AO2 T02890172
53915KARA ARA20190502161010305/02/19 16:10:31  5-MIN KARA 022210Z 18012KT 10SM CLR 29/18 A2997 -20 50 1600 170/12 RMK AO2 T02890178
53915KARA ARA20190502161510305/02/19 16:15:31  5-MIN KARA 022215Z 18010KT 10SM CLR 29/18 A2997 -20 50 1600 180/10 RMK AO2 T02890178
53915KARA ARA20190502162010305/02/19 16:20:31  5-MIN KARA 022220Z 19013KT 10SM CLR 29/19 A2998 -20 54 1600 190/13 RMK AO2 T02890189
53915KARA ARA20190502162510305/02/19 16:25:31  5-MIN KARA 022225Z 18012KT 10SM CLR 29/19 A2997 -20 54 1600 180/12 RMK AO2 T02890189
53915KARA ARA20190502163010305/02/19 16:30:31  5-MIN KARA 022230Z 17012KT 10SM CLR 28/18 A2997 -20 54 1500 170/12 RMK AO2 T02830183
53915KARA ARA20190502163510305/02/19 16:35:31  5-MIN KARA 022235Z 17012KT 10SM CLR 28/19 A2997 -10 56 1600 170/12 RMK AO2 T02830189
53915KARA ARA20190502164010305/02/19 16:40:31  5-MIN KARA 022240Z 19010KT 10SM CLR 28/19 A2997 -20 58 1500 180/10 RMK AO2 T02830194
53915KARA ARA20190502164510305/02/19 16:45:31  5-MIN KARA 022245Z 17011KT 10SM CLR 28/20 A2998 -20 60 1500 170/11 RMK AO2 T02830200
53915KARA ARA20190502165011005/02/19 16:50:31  5-MIN KARA 022250Z 18011KT 10SM CLR 28/19 A2998 -20 56 1500 180/11 RMK AO2 SLP152 T02830189
53915KARA ARA20190502165510305/02/19 16:55:31  5-MIN KARA 022255Z 18012KT 10SM CLR 28/19 A2998 -20 60 1500 170/12 RMK AO2 T02780194
53915KARA ARA20190502170010305/02/19 17:00:31  5-MIN KARA 022300Z 17010KT 10SM CLR 28/19 A2998 -20 58 1500 170/10 RMK AO2 T02780189
53915KARA ARA20190502170510305/02/19 17:05:31  5-MIN KARA 022305Z 19011KT 10SM CLR 27/19 A2998 -20 62 1400 190/11 RMK AO2 T02720194
53915KARA ARA20190502171010305/02/19 17:10:31  5-MIN KARA 022310Z 18013KT 10SM CLR 27/20 A2998 -20 64 1400 180/13 RMK AO2 T02720200
53915KARA ARA20190502171510305/02/19 17:15:31  5-MIN KARA 022315Z 17012KT 10SM CLR 27/20 A2998 -30 64 1400 170/12 RMK AO2 T02720200
53915KARA ARA20190502172010305/02/19 17:20:31  5-MIN KARA 022320Z 19009KT 10SM CLR 27/21 A2998 -30 66 1400 190/09 RMK AO2 T02720206
53915KARA ARA20190502172510305/02/19 17:25:31  5-MIN KARA 022325Z 19010KT 10SM CLR 27/21 A2998 -30 66 1400 180/10 RMK AO2 T02720206
53915KARA ARA20190502173010305/02/19 17:30:31  5-MIN KARA 022330Z 18011KT 10SM CLR 27/21 A2999 -30 69 1400 180/11 RMK AO2 T02720211
53915KARA ARA20190502173510305/02/19 17:35:31  5-MIN KARA 022335Z 19012KT 10SM CLR 27/21 A2999 -30 71 1300 180/12 RMK AO2 T02670211
53915KARA ARA20190502174010305/02/19 17:40:31  5-MIN KARA 022340Z 19012KT 10SM CLR 27/21 A2999 -30 71 1300 190/12 RMK AO2 T02670211
53915KARA ARA20190502174510305/02/19 17:45:31  5-MIN KARA 022345Z 19012KT 10SM CLR 27/21 A2999 -30 71 1300 190/12 RMK AO2 T02670211
53915KARA ARA20190502175012805/02/19 17:50:31  5-MIN KARA 022350Z 19013KT 10SM CLR 27/21 A2998 -20 69 1400 190/13 RMK AO2 SLP151 T02670206 10306 20267 56030
53915KARA ARA20190502175510305/02/19 17:55:31  5-MIN KARA 022355Z 18012KT 10SM CLR 26/21 A2998 -20 73 1200 180/12 RMK AO2 T02560206
53915KARA ARA20190502180010305/02/19 18:00:31  5-MIN KARA 030000Z 19011KT 10SM CLR 26/21 A2998 -20 73 1200 180/11 RMK AO2 T02560206
53915KARA ARA20190502180510305/02/19 18:05:31  5-MIN KARA 030005Z 18011KT 10SM CLR 26/21 A2998 -20 73 1200 180/11 RMK AO2 T02560206
53915KARA ARA20190502181010305/02/19 18:10:31  5-MIN KARA 030010Z 18011KT 10SM CLR 26/20 A2998 -20 68 1300 180/11 RMK AO2 T02610200
53915KARA ARA20190502181510305/02/19 18:15:31  5-MIN KARA 030015Z 18009KT 10SM CLR 26/21 A2998 -20 71 1300 180/09 RMK AO2 T02610206
53915KARA ARA20190502182010305/02/19 18:20:31  5-MIN KARA 030020Z 19010KT 10SM CLR 26/20 A2998 -20 68 1300 190/10 RMK AO2 T02610200
53915KARA ARA20190502182510305/02/19 18:25:31  5-MIN KARA 030025Z 19008KT 10SM CLR 26/19 A2998 -20 68 1200 190/08 RMK AO2 T02560194
53915KARA ARA20190502183010305/02/19 18:30:31  5-MIN KARA 030030Z 18009KT 10SM CLR 25/20 A2997 -20 73 1200 180/09 RMK AO2 T02500200
53915KARA ARA20190502183510305/02/19 18:35:31  5-MIN KARA 030035Z 18010KT 10SM CLR 23/20 A2997 -20 81 1000 180/10 RMK AO2 T02330200
53915KARA ARA20190502184010305/02/19 18:40:31  5-MIN KARA 030040Z 18007KT 10SM CLR 24/20 A2998 -20 78 1000 180/07 RMK AO2 T02390200
53915KARA ARA20190502184510305/02/19 18:45:31  5-MIN KARA 030045Z 18007KT 10SM CLR 25/21 A2997 -20 76 1200 180/07 RMK AO2 T02500206
53915KARA ARA20190502185011005/02/19 18:50:31  5-MIN KARA 030050Z 18009KT 10SM CLR 25/21 A2998 -20 76 1200 180/09 RMK AO2 SLP151 T02500206
53915KARA ARA20190502185510305/02/19 18:55:31  5-MIN KARA 030055Z 20008KT 10SM CLR 24/21 A2999 -30 78 1100 190/08 RMK AO2 T02440206
53915KARA ARA20190502190010305/02/19 19:00:31  5-MIN KARA 030100Z 19006KT 10SM CLR 24/21 A2998 -30 78 1100 190/06 RMK AO2 T02440206
53915KARA ARA20190502190510305/02/19 19:05:31  5-MIN KARA 030105Z 19007KT 10SM CLR 24/21 A2999 -30 81 1100 190/07 RMK AO2 T02440211
53915KARA ARA20190502191010305/02/19 19:10:31  5-MIN KARA 030110Z 19008KT 10SM CLR 24/21 A2999 -30 81 1100 190/08 RMK AO2 T02440211
53915KARA ARA20190502191510305/02/19 19:15:31  5-MIN KARA 030115Z 19007KT 10SM CLR 24/21 A2999 -30 81 1100 190/07 RMK AO2 T02440211
53915KARA ARA20190502192010305/02/19 19:20:31  5-MIN KARA 030120Z 18006KT 10SM CLR 24/21 A2998 -30 81 1100 180/06 RMK AO2 T02440211
53915KARA ARA20190502192510305/02/19 19:25:31  5-MIN KARA 030125Z 18007KT 10SM CLR 24/21 A2998 -30 81 1100 180/07 RMK AO2 T02440211
53915KARA ARA20190502193010805/02/19 19:30:31  5-MIN KARA 030130Z AUTO 17007KT 10SM CLR 24/21 A2998 -30 81 1100 170/07 RMK AO2 T02440211
53915KARA ARA20190502193510805/02/19 19:35:31  5-MIN KARA 030135Z AUTO 18005KT 10SM CLR 24/22 A2998 -30 87 1000 180/05 RMK AO2 T02390217
53915KARA ARA20190502194010805/02/19 19:40:31  5-MIN KARA 030140Z AUTO 19005KT 10SM CLR 24/22 A2999 -30 87 1000 190/05 RMK AO2 T02390217
53915KARA ARA20190502194510805/02/19 19:45:31  5-MIN KARA 030145Z AUTO 19005KT 10SM CLR 23/22 A2999 -30 90 1000 190/05 RMK AO2 T02330217
53915KARA ARA20190502195011505/02/19 19:50:31  5-MIN KARA 030150Z AUTO 19005KT 10SM CLR 23/22 A3000 -40 90 1000 190/05 RMK AO2 SLP157 T02330217
53915KARA ARA20190502195510805/02/19 19:55:31  5-MIN KARA 030155Z AUTO 19005KT 10SM CLR 23/22 A3000 -40 90 1000 190/05 RMK AO2 T02330217
53915KARA ARA20190502200010705/02/19 20:00:31  5-MIN KARA 030200Z AUTO 20004KT 10SM CLR 23/22 A3000 -50 90 900 190/04 RMK AO2 T02330217
53915KARA ARA20190502200510705/02/19 20:05:31  5-MIN KARA 030205Z AUTO 19004KT 10SM CLR 23/22 A3001 -50 90 900 190/04 RMK AO2 T02330217
53915KARA ARA20190502201010705/02/19 20:10:31  5-MIN KARA 030210Z AUTO 18004KT 10SM CLR 23/22 A3001 -50 90 900 180/04 RMK AO2 T02330217
53915KARA ARA20190502201510705/02/19 20:15:31  5-MIN KARA 030215Z AUTO 18005KT 10SM CLR 23/22 A3001 -50 90 900 180/05 RMK AO2 T02330217
53915KARA ARA20190502202010705/02/19 20:20:31  5-MIN KARA 030220Z AUTO 17004KT 10SM CLR 23/22 A3001 -50 90 900 170/04 RMK AO2 T02330217
53915KARA ARA20190502202510705/02/19 20:25:31  5-MIN KARA 030225Z AUTO 17004KT 10SM CLR 23/22 A3001 -50 93 900 170/04 RMK AO2 T02280217
53915KARA ARA20190502203010705/02/19 20:30:31  5-MIN KARA 030230Z AUTO 16004KT 10SM CLR 23/22 A3001 -50 93 900 160/04 RMK AO2 T02280217
53915KARA ARA20190502203510705/02/19 20:35:31  5-MIN KARA 030235Z AUTO 15003KT 10SM CLR 23/22 A3001 -60 93 900 150/03 RMK AO2 T02280217
53915KARA ARA20190502204010705/02/19 20:40:31  5-MIN KARA 030240Z AUTO 15003KT 10SM CLR 23/22 A3002 -60 93 900 150/03 RMK AO2 T02280217
53915KARA ARA20190502204510705/02/19 20:45:31  5-MIN KARA 030245Z AUTO 15004KT 10SM CLR 23/22 A3001 -60 93 900 140/04 RMK AO2 T02280217
53915KARA ARA20190502205012005/02/19 20:50:31  5-MIN KARA 030250Z AUTO 15004KT 10SM CLR 23/22 A3002 -60 93 900 150/04 RMK AO2 SLP163 T02280217 56001
53915KARA ARA20190502205510705/02/19 20:55:31  5-MIN KARA 030255Z AUTO 16004KT 10SM CLR 23/22 A3002 -60 93 900 160/04 RMK AO2 T02280217
53915KARA ARA20190502210010705/02/19 21:00:31  5-MIN KARA 030300Z AUTO 16003KT 10SM CLR 23/22 A3002 -60 93 900 160/03 RMK AO2 T02280217
53915KARA ARA20190502210510705/02/19 21:05:31  5-MIN KARA 030305Z AUTO 18003KT 10SM CLR 23/22 A3002 -60 93 900 180/03 RMK AO2 T02280217
53915KARA ARA20190502211010705/02/19 21:10:31  5-MIN KARA 030310Z AUTO 20003KT 10SM CLR 22/22 A3002 -60 97 800 200/03 RMK AO2 T02220217
53915KARA ARA20190502211510705/02/19 21:15:31  5-MIN KARA 030315Z AUTO 00000KT 10SM CLR 23/22 A3002 -60 93 900 000/00 RMK AO2 T02280217
53915KARA ARA20190502212010705/02/19 21:20:31  5-MIN KARA 030320Z AUTO 00000KT 10SM CLR 23/22 A3002 -60 93 900 000/00 RMK AO2 T02280217
53915KARA ARA20190502212510705/02/19 21:25:31  5-MIN KARA 030325Z AUTO 00000KT 10SM CLR 23/22 A3003 -70 93 900 000/00 RMK AO2 T02280217
53915KARA ARA20190502213010705/02/19 21:30:31  5-MIN KARA 030330Z AUTO 20003KT 10SM CLR 23/22 A3002 -70 93 900 200/03 RMK AO2 T02280217
53915KARA ARA20190502213510705/02/19 21:35:31  5-MIN KARA 030335Z AUTO 21003KT 10SM CLR 22/22 A3003 -70 97 800 210/03 RMK AO2 T02220217
53915KARA ARA20190502214010705/02/19 21:40:31  5-MIN KARA 030340Z AUTO 00000KT 10SM CLR 22/22 A3003 -70 97 800 000/00 RMK AO2 T02220217
53915KARA ARA20190502214510705/02/19 21:45:31  5-MIN KARA 030345Z AUTO 00000KT 10SM CLR 23/22 A3003 -70 93 900 000/00 RMK AO2 T02280217
53915KARA ARA20190502215011405/02/19 21:50:31  5-MIN KARA 030350Z AUTO 00000KT 10SM CLR 22/21 A3004 -70 93 800 000/00 RMK AO2 SLP170 T02220211
53915KARA ARA20190502215510705/02/19 21:55:31  5-MIN KARA 030355Z AUTO 00000KT 10SM CLR 23/22 A3004 -80 93 800 000/00 RMK AO2 T02280217
53915KARA ARA20190502220010705/02/19 22:00:31  5-MIN KARA 030400Z AUTO 00000KT 10SM CLR 22/22 A3004 -80 97 800 000/00 RMK AO2 T02220217
53915KARA ARA20190502220510705/02/19 22:05:31  5-MIN KARA 030405Z AUTO 00000KT 10SM CLR 22/22 A3004 -80 97 800 000/00 RMK AO2 T02220217
53915KARA ARA20190502221010705/02/19 22:10:31  5-MIN KARA 030410Z AUTO 00000KT 10SM CLR 22/22 A3004 -80 97 800 000/00 RMK AO2 T02220217
53915KARA ARA20190502221510705/02/19 22:15:31  5-MIN KARA 030415Z AUTO 00000KT 10SM CLR 22/21 A3004 -80 97 700 000/00 RMK AO2 T02170211
53915KARA ARA20190502222010705/02/19 22:20:31  5-MIN KARA 030420Z AUTO 00000KT 10SM CLR 22/22 A3004 -80 97 800 000/00 RMK AO2 T02220217
53915KARA ARA20190502222510705/02/19 22:25:31  5-MIN KARA 030425Z AUTO 00000KT 10SM CLR 22/21 A3005 -90 97 700 000/00 RMK AO2 T02170211
53915KARA ARA20190502223010705/02/19 22:30:31  5-MIN KARA 030430Z AUTO 00000KT 10SM CLR 22/22 A3005 -90 97 800 000/00 RMK AO2 T02220217
53915KARA ARA20190502223510705/02/19 22:35:31  5-MIN KARA 030435Z AUTO 00000KT 10SM CLR 22/22 A3005 -80 97 800 000/00 RMK AO2 T02220217
53915KARA ARA20190502224010705/02/19 22:40:31  5-MIN KARA 030440Z AUTO 00000KT 10SM CLR 22/22 A3004 -80 97 800 000/00 RMK AO2 T02220217
53915KARA ARA20190502224510805/02/19 22:45:31  5-MIN KARA 030445Z AUTO 00000KT 10SM CLR 22/22 A3005 -90 100 700 000/00 RMK AO2 T02170217
53915KARA ARA20190502225011405/02/19 22:50:31  5-MIN KARA 030450Z AUTO 00000KT 10SM CLR 22/21 A3005 -90 93 800 000/00 RMK AO2 SLP174 T02220211
53915KARA ARA20190502225510705/02/19 22:55:31  5-MIN KARA 030455Z AUTO 00000KT 10SM CLR 22/21 A3005 -90 97 700 000/00 RMK AO2 T02170211
53915KARA ARA20190502230010705/02/19 23:00:31  5-MIN KARA 030500Z AUTO 00000KT 10SM CLR 22/21 A3005 -90 93 800 000/00 RMK AO2 T02220211
53915KARA ARA20190502230510705/02/19 23:05:31  5-MIN KARA 030505Z AUTO 00000KT 10SM CLR 22/21 A3005 -90 97 700 000/00 RMK AO2 T02170211
53915KARA ARA20190502231007505/02/19 23:10:31  5-MIN KARA 030510Z AUTO 397 700 290/04 RMK AO2 T02170211
53915KARA ARA20190502232510805/02/19 23:25:31  5-MIN KARA 030525Z AUTO 29003KT 10SM CLR 22/22 A3005 -80 100 700 290/03 RMK AO2 T02170217
53915KARA ARA20190502233010805/02/19 23:30:31  5-MIN KARA 030530Z AUTO 29003KT 10SM CLR 22/22 A3004 -80 100 700 290/03 RMK AO2 T02170217
53915KARA ARA20190502233511005/02/19 23:35:31  5-MIN KARA 030535Z AUTO 28003KT 10SM FEW014 22/22 A3004 -80 97 800 280/03 RMK AO2 T02220217
53915KARA ARA20190502234011105/02/19 23:40:31  5-MIN KARA 030540Z AUTO 28003KT 10SM FEW014 22/22 A3004 -80 100 700 280/03 RMK AO2 T02170217
53915KARA ARA20190502234511105/02/19 23:45:31  5-MIN KARA 030545Z AUTO 00000KT 10SM FEW015 22/22 A3003 -70 100 700 000/00 RMK AO2 T02170217
53915KARA ARA20190502235014505/02/19 23:50:31  5-MIN KARA 030550Z AUTO 00000KT 10SM SCT015 22/21 A3003 -70 97 700 000/00 RMK AO2 SLP169 T02170211 10261 20217 403060217 53013
53915KARA ARA20190502235511005/02/19 23:55:31  5-MIN KARA 030555Z AUTO 29003KT 10SM BKN015 22/21 A3003 -70 97 700 290/03 RMK AO2 T02170211
53915KARA ARA20190503000011005/03/19 00:00:31  5-MIN KARA 030600Z AUTO 29003KT 10SM BKN015 22/22 A3003 -70 97 800 290/03 RMK AO2 T02220217
53915KARA ARA20190503000511005/03/19 00:05:31  5-MIN KARA 030605Z AUTO 29003KT 10SM BKN015 22/22 A3003 -70 97 800 290/03 RMK AO2 T02220217
53915KARA ARA20190503001011005/03/19 00:10:31  5-MIN KARA 030610Z AUTO 29003KT 10SM BKN016 22/22 A3003 -70 97 800 290/03 RMK AO2 T02220217
53915KARA ARA20190503001511105/03/19 00:15:31  5-MIN KARA 030615Z AUTO 00000KT 10SM BKN016 22/22 A3002 -70 100 700 000/00 RMK AO2 T02170217
53915KARA ARA20190503002011105/03/19 00:20:31  5-MIN KARA 030620Z AUTO 00000KT 10SM SCT016 22/22 A3002 -60 100 700 000/00 RMK AO2 T02170217
53915KARA ARA20190503002511005/03/19 00:25:31  5-MIN KARA 030625Z AUTO 00000KT 10SM SCT016 22/21 A3002 -60 97 700 000/00 RMK AO2 T02170211
53915KARA ARA20190503003011005/03/19 00:30:31  5-MIN KARA 030630Z AUTO 00000KT 10SM FEW016 22/21 A3002 -60 97 700 000/00 RMK AO2 T02170211
53915KARA ARA20190503003511105/03/19 00:35:31  5-MIN KARA 030635Z AUTO 00000KT 10SM SCT016 21/21 A3001 -60 100 700 000/00 RMK AO2 T02110211
53915KARA ARA20190503004011105/03/19 00:40:31  5-MIN KARA 030640Z AUTO 00000KT 10SM SCT016 21/21 A3001 -50 100 700 000/00 RMK AO2 T02110211
53915KARA ARA20190503004511005/03/19 00:45:31  5-MIN KARA 030645Z AUTO 00000KT 10SM SCT016 22/21 A3001 -50 97 800 000/00 RMK AO2 T02170211
53915KARA ARA20190503005012405/03/19 00:50:31  5-MIN KARA 030650Z AUTO 00000KT 10SM FEW015 SCT020 22/21 A3000 -40 97 800 000/00 RMK AO2 SLP158 T02170211
53915KARA ARA20190503005511105/03/19 00:55:31  5-MIN KARA 030655Z AUTO 11004KT 10SM SCT015 21/21 A3000 -40 100 700 110/04 RMK AO2 T02110211
53915KARA ARA20190503010011105/03/19 01:00:31  5-MIN KARA 030700Z AUTO 11004KT 10SM SCT017 21/21 A2999 -30 100 700 110/04 RMK AO2 T02110211
53915KARA ARA20190503010511105/03/19 01:05:31  5-MIN KARA 030705Z AUTO 11004KT 10SM FEW017 21/21 A2999 -30 100 700 110/04 RMK AO2 T02110211
53915KARA ARA20190503011011105/03/19 01:10:31  5-MIN KARA 030710Z AUTO 11004KT 10SM FEW017 21/21 A2998 -30 100 700 110/04 RMK AO2 T02110211
53915KARA ARA20190503011511005/03/19 01:15:31  5-MIN KARA 030715Z AUTO 11003KT 10SM SCT015 22/21 A2998 -20 97 800 110/03 RMK AO2 T02170211
53915KARA ARA20190503012011005/03/19 01:20:31  5-MIN KARA 030720Z AUTO 11003KT 10SM BKN015 22/21 A2998 -20 97 800 100/03 RMK AO2 T02170211
53915KARA ARA20190503012511005/03/19 01:25:31  5-MIN KARA 030725Z AUTO 08003KT 10SM SCT014 22/21 A2998 -20 97 800 080/03 RMK AO2 T02170211
53915KARA ARA20190503013011005/03/19 01:30:31  5-MIN KARA 030730Z AUTO 08005KT 10SM SCT014 22/21 A2997 -20 97 800 080/05 RMK AO2 T02170211
53915KARA ARA20190503013511005/03/19 01:35:31  5-MIN KARA 030735Z AUTO 08004KT 10SM SCT014 22/21 A2997 -20 97 800 070/04 RMK AO2 T02170211
53915KARA ARA20190503014011005/03/19 01:40:31  5-MIN KARA 030740Z AUTO 07004KT 10SM BKN014 22/21 A2997 -20 97 800 070/04 RMK AO2 T02170211
53915KARA ARA20190503014511005/03/19 01:45:31  5-MIN KARA 030745Z AUTO 07005KT 10SM BKN016 22/22 A2997 -10 97 900 070/05 RMK AO2 T02220217
53915KARA ARA20190503015009805/03/19 01:50:31  5-MIN KARA 030750Z AUTO 08007KT 10SM SCT016 22/22 A2996 0 97 900 080/07 RMK AO2
53915KARA ARA20190503015511505/03/19 01:55:31  5-MIN KARA 030755Z AUTO 08008KT 10SM SCT016 22/22 A2995 0 97 900 080/08 RMK AO2 PRESFR T02220217
53915KARA ARA20190503020010805/03/19 02:00:31  5-MIN KARA 030800Z AUTO 08008KT 10SM FEW016 22/22 A2995 0 97 900 080/08 RMK AO2 T02220217
53915KARA ARA20190503020510805/03/19 02:05:31  5-MIN KARA 030805Z AUTO 08008KT 10SM FEW016 22/22 A2995 0 97 900 080/08 RMK AO2 T02220217
53915KARA ARA20190503021010705/03/19 02:10:31  5-MIN KARA 030810Z AUTO 11004KT 10SM CLR 22/22 A2996 -10 97 900 110/04 RMK AO2 T02220217
53915KARA ARA20190503021511405/03/19 02:15:31  5-MIN KARA 030815Z AUTO 00000KT 10SM CLR 22/22 A2997 -20 97 900 000/00 RMK AO2 PRESRR T02220217
53915KARA ARA20190503022010705/03/19 02:20:31  5-MIN KARA 030820Z AUTO 00000KT 10SM CLR 22/22 A2997 -20 97 900 000/00 RMK AO2 T02220217
53915KARA ARA20190503022510705/03/19 02:25:31  5-MIN KARA 030825Z AUTO 00000KT 10SM CLR 22/21 A2997 -20 97 800 000/00 RMK AO2 T02170211
53915KARA ARA20190503023010705/03/19 02:30:31  5-MIN KARA 030830Z AUTO 00000KT 10SM CLR 22/21 A2997 -10 97 800 000/00 RMK AO2 T02170211
53915KARA ARA20190503023510705/03/19 02:35:31  5-MIN KARA 030835Z AUTO 00000KT 10SM CLR 22/21 A2997 -20 97 800 000/00 RMK AO2 T02170211
53915KARA ARA20190503024010705/03/19 02:40:31  5-MIN KARA 030840Z AUTO 00000KT 10SM CLR 22/21 A2997 -10 97 800 000/00 RMK AO2 T02170211
53915KARA ARA20190503024510705/03/19 02:45:31  5-MIN KARA 030845Z AUTO 00000KT 10SM CLR 22/21 A2997 -10 97 800 000/00 RMK AO2 T02170211
53915KARA ARA20190503025012005/03/19 02:50:31  5-MIN KARA 030850Z AUTO 10003KT 10SM CLR 22/21 A2996 -10 97 800 090/03 RMK AO2 SLP146 T02170211 50005
53915KARA ARA20190503025510805/03/19 02:55:31  5-MIN KARA 030855Z AUTO 10004KT 10SM CLR 21/21 A2996 -10 100 700 100/04 RMK AO2 T02110211
53915KARA ARA20190503030010605/03/19 03:00:31  5-MIN KARA 030900Z AUTO 09003KT 10SM CLR 21/21 A2996 0 100 700 080/03 RMK AO2 T02110211
53915KARA ARA20190503030510805/03/19 03:05:31  5-MIN KARA 030905Z AUTO 00000KT 10SM CLR 21/21 A2996 -10 100 700 000/00 RMK AO2 T02110211
53915KARA ARA20190503031010705/03/19 03:10:31  5-MIN KARA 030910Z AUTO 00000KT 10SM CLR 22/21 A2996 -10 97 800 000/00 RMK AO2 T02170211
53915KARA ARA20190503031510805/03/19 03:15:31  5-MIN KARA 030915Z AUTO 00000KT 10SM CLR 21/21 A2996 -10 100 700 000/00 RMK AO2 T02110211
53915KARA ARA20190503032011105/03/19 03:20:31  5-MIN KARA 030920Z AUTO 00000KT 10SM FEW010 21/21 A2996 -10 100 700 000/00 RMK AO2 T02110211
53915KARA ARA20190503032511005/03/19 03:25:31  5-MIN KARA 030925Z AUTO 00000KT 10SM FEW010 22/21 A2996 -10 97 800 000/00 RMK AO2 T02170211
53915KARA ARA20190503033010705/03/19 03:30:31  5-MIN KARA 030930Z AUTO 17003KT 10SM CLR 22/21 A2996 -10 97 800 170/03 RMK AO2 T02170211
53915KARA ARA20190503033510805/03/19 03:35:31  5-MIN KARA 030935Z AUTO 18004KT 10SM CLR 21/21 A2996 -10 100 700 180/04 RMK AO2 T02110211
53915KARA ARA20190503034011105/03/19 03:40:31  5-MIN KARA 030940Z AUTO 19003KT 10SM FEW014 21/21 A2997 -10 100 700 190/03 RMK AO2 T02060206
53915KARA ARA20190503034511105/03/19 03:45:31  5-MIN KARA 030945Z AUTO 18003KT 10SM FEW014 21/21 A2997 -10 100 700 180/03 RMK AO2 T02110211
53915KARA ARA20190503035011505/03/19 03:50:31  5-MIN KARA 030950Z AUTO 17003KT 10SM CLR 21/21 A2997 -10 100 700 170/03 RMK AO2 SLP146 T02110211
53915KARA ARA20190503035510805/03/19 03:55:31  5-MIN KARA 030955Z AUTO 17003KT 10SM CLR 21/21 A2997 -10 100 700 170/03 RMK AO2 T02110211
53915KARA ARA20190503040010705/03/19 04:00:31  5-MIN KARA 031000Z AUTO 16003KT 10SM CLR 21/21 A2996 -10 97 700 150/03 RMK AO2 T02110206
53915KARA ARA20190503040510805/03/19 04:05:31  5-MIN KARA 031005Z AUTO 15004KT 10SM CLR 21/21 A2996 -10 100 700 150/04 RMK AO2 T02060206
53915KARA ARA20190503041010805/03/19 04:10:31  5-MIN KARA 031010Z AUTO 14004KT 10SM CLR 21/21 A2996 -10 100 700 140/04 RMK AO2 T02060206
53915KARA ARA20190503041510805/03/19 04:15:31  5-MIN KARA 031015Z AUTO 14005KT 10SM CLR 21/21 A2996 -10 100 700 140/05 RMK AO2 T02060206
53915KARA ARA20190503042010805/03/19 04:20:31  5-MIN KARA 031020Z AUTO 13004KT 10SM CLR 21/21 A2996 -10 100 700 130/04 RMK AO2 T02060206
53915KARA ARA20190503042510805/03/19 04:25:31  5-MIN KARA 031025Z AUTO 12003KT 10SM CLR 21/21 A2996 -10 100 700 120/03 RMK AO2 T02110211
53915KARA ARA20190503043010305/03/19 04:30:31  5-MIN KARA 031030Z 00000KT 10SM CLR 21/21 A2997 -10 100 700 000/00 RMK AO2 T02110211
53915KARA ARA20190503043510305/03/19 04:35:31  5-MIN KARA 031035Z 10004KT 10SM CLR 21/21 A2996 -10 100 700 100/04 RMK AO2 T02110211
53915KARA ARA20190503044010005/03/19 04:40:31  5-MIN KARA 031040Z 09006KT 10SM CLR 21/21 A2996 0 97 700 090/06 RMK AO2 T02110206
53915KARA ARA20190503044510305/03/19 04:45:31  5-MIN KARA 031045Z 11005KT 10SM CLR 21/21 A2996 -10 100 700 110/05 RMK AO2 T02110211
53915KARA ARA20190503045010705/03/19 04:50:31  5-MIN KARA 031050Z 11006KT 10SM CLR 22/21 A2996 0 97 800 110/06 RMK AO2 SLP144 T02170211
53915KARA ARA20190503045510005/03/19 04:55:31  5-MIN KARA 031055Z 11007KT 10SM CLR 22/21 A2996 0 97 800 100/07 RMK AO2 T02170211
53915KARA ARA20190503050010105/03/19 05:00:31  5-MIN KARA 031100Z 10007KT 10SM CLR 22/22 A2996 0 100 800 100/07 RMK AO2 T02170217
53915KARA ARA20190503050510105/03/19 05:05:31  5-MIN KARA 031105Z 10005KT 10SM CLR 22/22 A2996 0 100 800 100/05 RMK AO2 T02170217
53915KARA ARA20190503051010305/03/19 05:10:31  5-MIN KARA 031110Z 10005KT 10SM CLR 22/22 A2996 -10 100 800 100/05 RMK AO2 T02170217
53915KARA ARA20190503051510305/03/19 05:15:31  5-MIN KARA 031115Z 10004KT 10SM CLR 22/22 A2996 -10 100 800 100/04 RMK AO2 T02170217
53915KARA ARA20190503052010305/03/19 05:20:31  5-MIN KARA 031120Z 11004KT 10SM CLR 22/22 A2997 -10 100 800 110/04 RMK AO2 T02170217
53915KARA ARA20190503052510305/03/19 05:25:31  5-MIN KARA 031125Z 10003KT 10SM CLR 22/22 A2997 -10 100 800 100/03 RMK AO2 T02170217
53915KARA ARA20190503053010305/03/19 05:30:31  5-MIN KARA 031130Z 09003KT 10SM CLR 22/22 A2997 -10 100 800 090/03 RMK AO2 T02170217
53915KARA ARA20190503053510305/03/19 05:35:31  5-MIN KARA 031135Z 00000KT 10SM CLR 22/22 A2998 -20 100 800 000/00 RMK AO2 T02170217
53915KARA ARA20190503054010205/03/19 05:40:31  5-MIN KARA 031140Z 07003KT 10SM CLR 22/21 A2998 -20 97 800 070/03 RMK AO2 T02170211
53915KARA ARA20190503054509205/03/19 05:45:31  5-MIN KARA 031145Z 10SM CLR 22/21 A2998 -20 97 800 M /M RMK AO2 T02170211
53915KARA ARA20190503055012305/03/19 05:50:31  5-MIN KARA 031150Z 10SM CLR 22/21 A2998 -30 97 800 M /M RMK AO2 SLP152 70007 T02170211 10222 20206 55024
53915KARA ARA20190503055509205/03/19 05:55:31  5-MIN KARA 031155Z 10SM CLR 22/21 A2998 -30 97 800 M /M RMK AO2 T02170211
53915KARA ARA20190503060009305/03/19 06:00:31  5-MIN KARA 031200Z 10SM CLR 22/22 A2998 -30 100 800 M /M RMK AO2 T02170217
53915KARA ARA20190503060509305/03/19 06:05:31  5-MIN KARA 031205Z 10SM CLR 22/22 A2998 -30 100 800 M /M RMK AO2 T02170217
53915KARA ARA20190503061010305/03/19 06:10:31  5-MIN KARA 031210Z 08005KT 10SM CLR 22/22 A2998 -30 100 800 080/05 RMK AO2 T02170217
53915KARA ARA20190503061510205/03/19 06:15:31  5-MIN KARA 031215Z 07005KT 10SM CLR 22/22 A2998 -30 97 800 070/05 RMK AO2 T02220217
53915KARA ARA20190503062010205/03/19 06:20:31  5-MIN KARA 031220Z 07005KT 10SM CLR 22/22 A2998 -20 97 800 060/05 RMK AO2 T02220217
53915KARA ARA20190503062510205/03/19 06:25:31  5-MIN KARA 031225Z 08006KT 10SM CLR 22/22 A2998 -20 97 900 080/06 RMK AO2 T02220217
53915KARA ARA20190503063010205/03/19 06:30:31  5-MIN KARA 031230Z 10006KT 10SM CLR 22/22 A2997 -20 97 900 100/06 RMK AO2 T02220217
53915KARA ARA20190503063507405/03/19 06:35:31  5-MIN KARA 031235Z 1T 10SM FEW016 25/21 K AO2 T02500211
53915KARA ARA20190503091510305/03/19 09:15:31  5-MIN KARA 031515Z 15006KT 10SM CLR 26/21 A3000 -50 71 1300 150/06 RMK AO2 T02610206
53915KARA ARA20190503092010305/03/19 09:20:31  5-MIN KARA 031520Z 15005KT 10SM CLR 26/21 A3001 -50 71 1300 150/05 RMK AO2 T02610206
53915KARA ARA20190503092510305/03/19 09:25:31  5-MIN KARA 031525Z 13007KT 10SM CLR 27/21 A3001 -50 71 1300 130/07 RMK AO2 T02670211
53915KARA ARA20190503093010305/03/19 09:30:31  5-MIN KARA 031530Z 13008KT 10SM CLR 27/21 A3001 -50 69 1300 130/08 RMK AO2 T02670206
53915KARA ARA20190503093510305/03/19 09:35:31  5-MIN KARA 031535Z 12005KT 10SM CLR 27/21 A3001 -50 69 1300 120/05 RMK AO2 T02670206
53915KARA ARA20190503094010605/03/19 09:40:31  5-MIN KARA 031540Z 16007KT 10SM FEW024 27/21 A3001 -50 69 1300 160/07 RMK AO2 T02670206
53915KARA ARA20190503094510605/03/19 09:45:31  5-MIN KARA 031545Z 14007KT 10SM FEW024 27/21 A3002 -60 69 1300 140/07 RMK AO2 T02670206
53915KARA ARA20190503095011005/03/19 09:50:31  5-MIN KARA 031550Z 14007KT 10SM CLR 26/20 A3002 -60 68 1200 140/07 RMK AO2 SLP163 T02610200
53915KARA ARA20190503095510605/03/19 09:55:31  5-MIN KARA 031555Z 14005KT 10SM FEW025 27/21 A3002 -60 69 1300 140/05 RMK AO2 T02670206
53915KARA ARA20190503100010605/03/19 10:00:31  5-MIN KARA 031600Z 12006KT 10SM FEW025 26/20 A3002 -60 68 1200 120/06 RMK AO2 T02610200
53915KARA ARA20190503100510305/03/19 10:05:31  5-MIN KARA 031605Z 17007KT 10SM CLR 27/20 A3001 -60 66 1300 160/07 RMK AO2 T02670200
53915KARA ARA20190503101010605/03/19 10:10:31  5-MIN KARA 031610Z 15005KT 10SM FEW029 26/20 A3001 -60 68 1300 150/05 RMK AO2 T02610200
53915KARA ARA20190503101510605/03/19 10:15:31  5-MIN KARA 031615Z 14006KT 10SM FEW029 27/21 A3001 -60 69 1300 140/06 RMK AO2 T02670206
53915KARA ARA20190503102010605/03/19 10:20:31  5-MIN KARA 031620Z 16007KT 10SM SCT029 28/20 A3002 -60 62 1400 160/07 RMK AO2 T02780200
53915KARA ARA20190503102510605/03/19 10:25:31  5-MIN KARA 031625Z 15007KT 10SM FEW029 27/20 A3002 -60 64 1400 140/07 RMK AO2 T02720200
53915KARA ARA20190503103011305/03/19 10:30:31  5-MIN KARA 031630Z 10006KT 10SM SCT031 SCT041 27/20 A3001 -60 64 1400 100/06 RMK AO2 T02720200
53915KARA ARA20190503103511305/03/19 10:35:31  5-MIN KARA 031635Z 15009KT 10SM SCT031 BKN041 27/19 A3001 -50 62 1400 150/09 RMK AO2 T02720194
53915KARA ARA20190503104010605/03/19 10:40:31  5-MIN KARA 031640Z 14009KT 10SM SCT031 28/20 A3001 -50 62 1400 140/09 RMK AO2 T02780200
53915KARA ARA20190503104510605/03/19 10:45:31  5-MIN KARA 031645Z 17007KT 10SM SCT035 28/19 A3001 -50 60 1400 170/07 RMK AO2 T02780194
53915KARA ARA20190503105011305/03/19 10:50:31  5-MIN KARA 031650Z 15009KT 10SM SCT035 27/19 A3001 -50 62 1400 140/09 RMK AO2 SLP162 T02720194
53915KARA ARA20190503105511305/03/19 10:55:31  5-MIN KARA 031655Z 15007KT 10SM SCT035 SCT044 28/20 A3001 -50 62 1400 150/07 RMK AO2 T02780200
53915KARA ARA20190503110010605/03/19 11:00:31  5-MIN KARA 031700Z 14007KT 10SM SCT035 28/19 A3001 -50 60 1400 140/07 RMK AO2 T02780194
53915KARA ARA20190503110510605/03/19 11:05:31  5-MIN KARA 031705Z 16009KT 10SM BKN035 28/20 A3001 -50 62 1400 160/09 RMK AO2 T02780200
53915KARA ARA20190503111010605/03/19 11:10:31  5-MIN KARA 031710Z 16007KT 10SM SCT035 28/20 A3001 -50 62 1400 160/07 RMK AO2 T02780200
53915KARA ARA20190503111510605/03/19 11:15:31  5-MIN KARA 031715Z 15005KT 10SM BKN037 28/20 A3001 -50 62 1400 150/05 RMK AO2 T02780200
53915KARA ARA20190503112012205/03/19 11:20:31  5-MIN KARA 031720Z 17007KT 120V200 10SM BKN037 28/20 A3001 -50 60 1500 170/07 120V200 RMK AO2 T02830200
53915KARA ARA20190503112511205/03/19 11:25:31  5-MIN KARA 031725Z 16009G14KT 10SM BKN035 29/20 A3001 -50 58 1600 160/09G14 RMK AO2 T02890200
53915KARA ARA20190503113011305/03/19 11:30:31  5-MIN KARA 031730Z 14008KT 10SM SCT035 BKN055 28/20 A3001 -60 60 1500 140/08 RMK AO2 T02830200
53915KARA ARA20190503113511305/03/19 11:35:31  5-MIN KARA 031735Z 16010KT 10SM SCT037 BKN055 28/19 A3001 -50 58 1500 160/10 RMK AO2 T02830194
53915KARA ARA20190503114011305/03/19 11:40:31  5-MIN KARA 031740Z 17008KT 10SM SCT037 BKN055 28/20 A3001 -50 60 1500 170/08 RMK AO2 T02830200
53915KARA ARA20190503114511305/03/19 11:45:31  5-MIN KARA 031745Z 13009KT 10SM FEW037 SCT055 29/20 A3001 -50 58 1600 130/09 RMK AO2 T02890200
53915KARA ARA20190503115015405/03/19 11:50:31  5-MIN KARA 031750Z 20008KT 180V240 10SM FEW037 SCT055 29/20 A3001 -50 58 1600 200/08 180V240 RMK AO2 SLP161 T02890200 10289 20217 53005
53915KARA ARA20190503115511305/03/19 11:55:31  5-MIN KARA 031755Z 17009KT 10SM FEW037 SCT055 28/20 A3000 -50 60 1500 170/09 RMK AO2 T02830200
53915KARA ARA20190503120010605/03/19 12:00:31  5-MIN KARA 031800Z 20008KT 10SM FEW037 28/20 A3000 -40 60 1500 190/08 RMK AO2 T02830200
53915KARA ARA20190503120512005/03/19 12:05:31  5-MIN KARA 031805Z 18010KT 10SM FEW037 FEW048 SCT060 28/19 A3000 -40 58 1500 180/10 RMK AO2 T02830194
53915KARA ARA20190503121011305/03/19 12:10:31  5-MIN KARA 031810Z 14007KT 10SM FEW048 FEW060 29/20 A3000 -40 58 1600 140/07 RMK AO2 T02890200
53915KARA ARA20190503121512005/03/19 12:15:31  5-MIN KARA 031815Z 17010KT 10SM FEW036 FEW046 SCT060 28/20 A3000 -40 60 1500 170/10 RMK AO2 T02830200
53915KARA ARA20190503122012005/03/19 12:20:31  5-MIN KARA 031820Z 17008KT 10SM FEW038 SCT046 SCT060 28/19 A2999 -40 58 1500 170/08 RMK AO2 T02830194
53915KARA ARA20190503122512005/03/19 12:25:31  5-MIN KARA 031825Z 16008KT 10SM FEW035 SCT050 BKN060 28/20 A2999 -30 60 1500 160/08 RMK AO2 T02830200
53915KARA ARA20190503123012005/03/19 12:30:31  5-MIN KARA 031830Z 20009KT 10SM FEW035 SCT050 SCT060 28/21 A2999 -30 62 1500 200/09 RMK AO2 T02830206
53915KARA ARA20190503123511305/03/19 12:35:31  5-MIN KARA 031835Z 16007KT 10SM FEW039 FEW050 29/21 A2998 -30 60 1600 150/07 RMK AO2 T02890206
53915KARA ARA20190503124012005/03/19 12:40:31  5-MIN KARA 031840Z 17009KT 10SM FEW035 FEW042 FEW050 28/21 A2998 -30 62 1500 170/09 RMK AO2 T02830206
53915KARA ARA20190503124511905/03/19 12:45:31  5-MIN KARA 031845Z 18011G15KT 10SM FEW035 FEW050 28/21 A2998 -20 62 1500 180/11G15 RMK AO2 T02830206
53915KARA ARA20190503125011605/03/19 12:50:31  5-MIN KARA 031850Z 20010G15KT 10SM CLR 28/21 A2998 -20 62 1500 200/10G15 RMK AO2 SLP150 T02830206
53915KARA ARA20190503125510605/03/19 12:55:31  5-MIN KARA 031855Z 18011KT 10SM FEW036 28/20 A2997 -20 60 1500 180/11 RMK AO2 T02830200
53915KARA ARA20190503130010605/03/19 13:00:31  5-MIN KARA 031900Z 17013KT 10SM FEW036 28/21 A2997 -20 62 1500 170/13 RMK AO2 T02830206
53915KARA ARA20190503130510605/03/19 13:05:31  5-MIN KARA 031905Z 18011KT 10SM FEW036 28/20 A2997 -20 60 1500 180/11 RMK AO2 T02830200
53915KARA ARA20190503131010605/03/19 13:10:31  5-MIN KARA 031910Z 17011KT 10SM FEW036 28/21 A2997 -20 62 1500 170/11 RMK AO2 T02830206
53915KARA ARA20190503131510605/03/19 13:15:31  5-MIN KARA 031915Z 17013KT 10SM FEW036 28/21 A2997 -20 64 1500 170/13 RMK AO2 T02780206
53915KARA ARA20190503132010605/03/19 13:20:31  5-MIN KARA 031920Z 19013KT 10SM FEW036 28/20 A2997 -10 62 1500 180/13 RMK AO2 T02780200
53915KARA ARA20190503132510305/03/19 13:25:31  5-MIN KARA 031925Z 19011KT 10SM CLR 27/20 A2997 -20 66 1400 190/11 RMK AO2 T02670200
53915KARA ARA20190503133010305/03/19 13:30:31  5-MIN KARA 031930Z 17012KT 10SM CLR 27/19 A2997 -10 64 1400 170/12 RMK AO2 T02670194
53915KARA ARA20190503133510305/03/19 13:35:31  5-MIN KARA 031935Z 18012KT 10SM CLR 27/19 A2997 -10 62 1400 180/12 RMK AO2 T02720194
53915KARA ARA20190503134010305/03/19 13:40:31  5-MIN KARA 031940Z 19012KT 10SM CLR 28/19 A2996 -10 60 1500 190/12 RMK AO2 T02780194
53915KARA ARA20190503134510305/03/19 13:45:31  5-MIN KARA 031945Z 17011KT 10SM CLR 28/19 A2996 -10 58 1600 170/11 RMK AO2 T02830194
53915KARA ARA20190503135010805/03/19 13:50:31  5-MIN KARA 031950Z 18012KT 10SM CLR 28/19 A2996 0 60 1500 180/12 RMK AO2 SLP144 T02780194
53915KARA ARA20190503135510105/03/19 13:55:31  5-MIN KARA 031955Z 18012KT 10SM CLR 28/19 A2996 0 60 1500 180/12 RMK AO2 T02780194
53915KARA ARA20190503140010105/03/19 14:00:31  5-MIN KARA 032000Z 19012KT 10SM CLR 28/19 A2995 0 60 1500 180/12 RMK AO2 T02780194
53915KARA ARA20190503140510105/03/19 14:05:31  5-MIN KARA 032005Z 17012KT 10SM CLR 28/19 A2995 0 60 1500 170/12 RMK AO2 T02780194
53915KARA ARA20190503141010105/03/19 14:10:31  5-MIN KARA 032010Z 17013KT 10SM CLR 28/19 A2995 0 58 1600 170/13 RMK AO2 T02830194
53915KARA ARA20190503141510205/03/19 14:15:31  5-MIN KARA 032015Z 17011KT 10SM CLR 28/20 A2994 10 62 1500 170/11 RMK AO2 T02780200
53915KARA ARA20190503142010205/03/19 14:20:31  5-MIN KARA 032020Z 17012KT 10SM CLR 28/20 A2994 10 62 1500 170/12 RMK AO2 T02780200
53915KARA ARA20190503142510205/03/19 14:25:31  5-MIN KARA 032025Z 18010KT 10SM CLR 28/20 A2993 10 60 1600 180/10 RMK AO2 T02830200
53915KARA ARA20190503143010205/03/19 14:30:31  5-MIN KARA 032030Z 16012KT 10SM CLR 28/19 A2993 10 60 1500 160/12 RMK AO2 T02780194
53915KARA ARA20190503143510205/03/19 14:35:31  5-MIN KARA 032035Z 16013KT 10SM CLR 28/18 A2993 10 56 1500 160/13 RMK AO2 T02780183
53915KARA ARA20190503144010205/03/19 14:40:31  5-MIN KARA 032040Z 16012KT 10SM CLR 28/19 A2993 20 58 1500 160/12 RMK AO2 T02780189
53915KARA ARA20190503144510205/03/19 14:45:31  5-MIN KARA 032045Z 16009KT 10SM CLR 28/19 A2992 20 60 1500 160/09 RMK AO2 T02780194
53915KARA ARA20190503145011505/03/19 14:50:31  5-MIN KARA 032050Z 16011KT 10SM CLR 28/19 A2992 30 60 1500 160/11 RMK AO2 SLP131 T02780194 50004
53915KARA ARA20190503145510205/03/19 14:55:31  5-MIN KARA 032055Z 15012KT 10SM CLR 28/19 A2992 30 60 1500 150/12 RMK AO2 T02780194
53915KARA ARA20190503150010205/03/19 15:00:31  5-MIN KARA 032100Z 16011KT 10SM CLR 28/19 A2991 30 60 1600 160/11 RMK AO2 T02780194
53915KARA ARA20190503150510205/03/19 15:05:31  5-MIN KARA 032105Z 16013KT 10SM CLR 28/19 A2991 30 60 1600 160/13 RMK AO2 T02780194
53915KARA ARA20190503151010205/03/19 15:10:31  5-MIN KARA 032110Z 15012KT 10SM CLR 28/20 A2991 40 62 1600 150/12 RMK AO2 T02780200
53915KARA ARA20190503151510205/03/19 15:15:31  5-MIN KARA 032115Z 16012KT 10SM CLR 28/20 A2991 40 62 1600 160/12 RMK AO2 T02780200
53915KARA ARA20190503152010205/03/19 15:20:31  5-MIN KARA 032120Z 16011KT 10SM CLR 28/20 A2990 40 62 1600 160/11 RMK AO2 T02780200
53915KARA ARA20190503152510205/03/19 15:25:31  5-MIN KARA 032125Z 16010KT 10SM CLR 28/19 A2990 50 60 1600 160/10 RMK AO2 T02780194
53915KARA ARA20190503153010205/03/19 15:30:31  5-MIN KARA 032130Z 14011KT 10SM CLR 28/20 A2989 50 62 1600 140/11 RMK AO2 T02780200
53915KARA ARA20190503153510205/03/19 15:35:31  5-MIN KARA 032135Z 15011KT 10SM CLR 28/20 A2990 50 62 1600 150/11 RMK AO2 T02780200
53915KARA ARA20190503154010205/03/19 15:40:31  5-MIN KARA 032140Z 16011KT 10SM CLR 27/20 A2989 50 64 1500 150/11 RMK AO2 T02720200
53915KARA ARA20190503154510205/03/19 15:45:31  5-MIN KARA 032145Z 16012KT 10SM CLR 27/19 A2989 50 62 1500 160/12 RMK AO2 T02720194
53915KARA ARA20190503155010905/03/19 15:50:31  5-MIN KARA 032150Z 15010KT 10SM CLR 27/20 A2989 50 64 1500 150/10 RMK AO2 SLP122 T02720200
53915KARA ARA20190503155510205/03/19 15:55:31  5-MIN KARA 032155Z 14011KT 10SM CLR 27/20 A2989 60 64 1500 140/11 RMK AO2 T02720200
53915KARA ARA20190503160010205/03/19 16:00:31  5-MIN KARA 032200Z 14011KT 10SM CLR 27/19 A2988 60 62 1500 130/11 RMK AO2 T02720194
53915KARA ARA20190503160510205/03/19 16:05:31  5-MIN KARA 032205Z 14013KT 10SM CLR 27/19 A2988 70 62 1500 140/13 RMK AO2 T02720194
53915KARA ARA20190503161010205/03/19 16:10:31  5-MIN KARA 032210Z 16011KT 10SM CLR 27/19 A2988 60 64 1500 160/11 RMK AO2 T02670194
53915KARA ARA20190503161510205/03/19 16:15:31  5-MIN KARA 032215Z 15011KT 10SM CLR 27/19 A2988 60 62 1500 150/11 RMK AO2 T02720194
53915KARA ARA20190503162010205/03/19 16:20:31  5-MIN KARA 032220Z 15008KT 10SM CLR 27/20 A2988 60 64 1500 150/08 RMK AO2 T02720200
53915KARA ARA20190503162510205/03/19 16:25:31  5-MIN KARA 032225Z 15011KT 10SM CLR 27/20 A2988 60 64 1500 150/11 RMK AO2 T02720200
53915KARA ARA20190503163010205/03/19 16:30:31  5-MIN KARA 032230Z 15010KT 10SM CLR 27/20 A2988 60 64 1500 150/10 RMK AO2 T02720200
53915KARA ARA20190503163510205/03/19 16:35:31  5-MIN KARA 032235Z 17011KT 10SM CLR 27/20 A2988 60 66 1500 170/11 RMK AO2 T02670200
53915KARA ARA20190503164010205/03/19 16:40:31  5-MIN KARA 032240Z 16010KT 10SM CLR 27/20 A2988 70 66 1500 160/10 RMK AO2 T02670200
53915KARA ARA20190503164510205/03/19 16:45:31  5-MIN KARA 032245Z 17010KT 10SM CLR 27/20 A2987 70 66 1500 170/10 RMK AO2 T02670200
53915KARA ARA20190503165010905/03/19 16:50:31  5-MIN KARA 032250Z 16010KT 10SM CLR 27/21 A2987 70 69 1500 160/10 RMK AO2 SLP115 T02670206
53915KARA ARA20190503165510205/03/19 16:55:31  5-MIN KARA 032255Z 17009KT 10SM CLR 27/21 A2988 70 69 1500 170/09 RMK AO2 T02670206
53915KARA ARA20190503170010205/03/19 17:00:31  5-MIN KARA 032300Z 16010KT 10SM CLR 26/21 A2987 70 71 1400 160/10 RMK AO2 T02610206
53915KARA ARA20190503170510205/03/19 17:05:31  5-MIN KARA 032305Z 16010KT 10SM CLR 26/20 A2988 70 68 1400 160/10 RMK AO2 T02610200
53915KARA ARA20190503171010205/03/19 17:10:31  5-MIN KARA 032310Z 16010KT 10SM CLR 26/20 A2987 70 68 1400 160/10 RMK AO2 T02610200
53915KARA ARA20190503171510205/03/19 17:15:31  5-MIN KARA 032315Z 16009KT 10SM CLR 26/20 A2987 70 68 1400 160/09 RMK AO2 T02610200
53915KARA ARA20190503172010205/03/19 17:20:31  5-MIN KARA 032320Z 17007KT 10SM CLR 26/20 A2987 70 68 1400 170/07 RMK AO2 T02610200
53915KARA ARA20190503172510205/03/19 17:25:31  5-MIN KARA 032325Z 17008KT 10SM CLR 26/20 A2988 70 68 1400 170/08 RMK AO2 T02610200
53915KARA ARA20190503173010205/03/19 17:30:31  5-MIN KARA 032330Z 17009KT 10SM CLR 26/20 A2988 70 68 1400 170/09 RMK AO2 T02610200
53915KARA ARA20190503173510205/03/19 17:35:31  5-MIN KARA 032335Z 17009KT 10SM CLR 26/19 A2987 70 66 1400 160/09 RMK AO2 T02610194
53915KARA ARA20190503174010205/03/19 17:40:31  5-MIN KARA 032340Z 16007KT 10SM CLR 26/20 A2988 70 71 1300 160/07 RMK AO2 T02560200
53915KARA ARA20190503174510205/03/19 17:45:31  5-MIN KARA 032345Z 16007KT 10SM CLR 26/20 A2987 70 71 1300 160/07 RMK AO2 T02560200
53915KARA ARA20190503175012705/03/19 17:50:31  5-MIN KARA 032350Z 16006KT 10SM CLR 26/20 A2987 70 71 1400 160/06 RMK AO2 SLP114 T02560200 10289 20256 58029
53915KARA ARA20190503175510205/03/19 17:55:31  5-MIN KARA 032355Z 16007KT 10SM CLR 26/20 A2987 70 71 1400 160/07 RMK AO2 T02560200
53915KARA ARA20190503180010205/03/19 18:00:31  5-MIN KARA 040000Z 16009KT 10SM CLR 26/20 A2987 80 71 1400 160/09 RMK AO2 T02560200
53915KARA ARA20190503180510205/03/19 18:05:31  5-MIN KARA 040005Z 15010KT 10SM CLR 26/20 A2986 80 71 1400 150/10 RMK AO2 T02560200
53915KARA ARA20190503181010205/03/19 18:10:31  5-MIN KARA 040010Z 15006KT 10SM CLR 25/20 A2986 80 73 1300 150/06 RMK AO2 T02500200
53915KARA ARA20190503181510205/03/19 18:15:31  5-MIN KARA 040015Z 18006KT 10SM CLR 25/20 A2987 70 73 1300 180/06 RMK AO2 T02500200
53915KARA ARA20190503182010205/03/19 18:20:31  5-MIN KARA 040020Z 18007KT 10SM CLR 25/20 A2987 70 73 1300 180/07 RMK AO2 T02500200
53915KARA ARA20190503182510205/03/19 18:25:31  5-MIN KARA 040025Z 18005KT 10SM CLR 25/20 A2987 70 73 1300 180/05 RMK AO2 T02500200
53915KARA ARA20190503183010205/03/19 18:30:31  5-MIN KARA 040030Z 19005KT 10SM CLR 25/20 A2987 70 73 1300 190/05 RMK AO2 T02500200
53915KARA ARA20190503183510205/03/19 18:35:31  5-MIN KARA 040035Z 19008KT 10SM CLR 25/21 A2987 70 76 1300 190/08 RMK AO2 T02500206
53915KARA ARA20190503184010205/03/19 18:40:31  5-MIN KARA 040040Z 18006KT 10SM CLR 25/21 A2987 70 76 1300 180/06 RMK AO2 T02500206
53915KARA ARA20190503184510205/03/19 18:45:31  5-MIN KARA 040045Z 18007KT 10SM CLR 24/21 A2987 70 78 1200 180/07 RMK AO2 T02440206
53915KARA ARA20190503185010905/03/19 18:50:31  5-MIN KARA 040050Z 19006KT 10SM CLR 24/21 A2987 70 81 1200 190/06 RMK AO2 SLP115 T02440211
53915KARA ARA20190503185510205/03/19 18:55:31  5-MIN KARA 040055Z 19005KT 10SM CLR 24/21 A2987 70 81 1200 190/05 RMK AO2 T02440211
53915KARA ARA20190503190010205/03/19 19:00:31  5-MIN KARA 040100Z 19005KT 10SM CLR 24/21 A2987 70 81 1200 190/05 RMK AO2 T02440211
53915KARA ARA20190503190510205/03/19 19:05:31  5-MIN KARA 040105Z 18006KT 10SM CLR 24/21 A2987 70 84 1200 170/06 RMK AO2 T02390211
53915KARA ARA20190503191010205/03/19 19:10:31  5-MIN KARA 040110Z 18006KT 10SM CLR 24/21 A2987 70 81 1200 170/06 RMK AO2 T02440211
53915KARA ARA20190503191510205/03/19 19:15:31  5-MIN KARA 040115Z 17006KT 10SM CLR 24/22 A2987 70 87 1200 170/06 RMK AO2 T02390217
53915KARA ARA20190503192010205/03/19 19:20:31  5-MIN KARA 040120Z 17006KT 10SM CLR 24/22 A2987 70 87 1200 170/06 RMK AO2 T02390217
53915KARA ARA20190503192510205/03/19 19:25:31  5-MIN KARA 040125Z 17005KT 10SM CLR 24/22 A2987 70 87 1200 170/05 RMK AO2 T02390217
53915KARA ARA20190503193010205/03/19 19:30:31  5-MIN KARA 040130Z 18005KT 10SM CLR 24/22 A2987 70 87 1200 170/05 RMK AO2 T02390217
53915KARA ARA20190503193510705/03/19 19:35:31  5-MIN KARA 040135Z AUTO 17005KT 10SM CLR 24/22 A2987 70 87 1200 170/05 RMK AO2 T02390217
53915KARA ARA20190503194010705/03/19 19:40:31  5-MIN KARA 040140Z AUTO 17003KT 10SM CLR 24/22 A2987 70 87 1200 170/03 RMK AO2 T02390217
53915KARA ARA20190503194516205/03/19 19:45:31  5-MIN KARA 040145Z AUTO 18003KT 19 50 90 1100 160/05 RMK AO2 T0239022205/0AUTO 14006KT 10SM CLR 23/22 A2989 50 93 1100 140/06 RMK AO2 T02330222
53915KARA ARA20190503205012005/03/19 20:50:31  5-MIN KARA 040250Z AUTO 14005KT 10SM CLR 23/22 A2989 50 93 1100 140/05 RMK AO2 SLP121 T02330222 56016
53915KARA ARA20190503205510705/03/19 20:55:31  5-MIN KARA 040255Z AUTO 14005KT 10SM CLR 23/22 A2989 50 93 1100 140/05 RMK AO2 T02330222
53915KARA ARA20190503210010705/03/19 21:00:31  5-MIN KARA 040300Z AUTO 15003KT 10SM CLR 23/22 A2990 50 93 1100 140/03 RMK AO2 T02330222
53915KARA ARA20190503210510705/03/19 21:05:31  5-MIN KARA 040305Z AUTO 17003KT 10SM CLR 23/22 A2990 40 93 1100 170/03 RMK AO2 T02330222
53915KARA ARA20190503211010705/03/19 21:10:31  5-MIN KARA 040310Z AUTO 18003KT 10SM CLR 23/22 A2991 40 93 1100 180/03 RMK AO2 T02330222
53915KARA ARA20190503211510705/03/19 21:15:31  5-MIN KARA 040315Z AUTO 18003KT 10SM CLR 23/22 A2991 40 93 1100 180/03 RMK AO2 T02330222
53915KARA ARA20190503212011005/03/19 21:20:31  5-MIN KARA 040320Z AUTO 17004KT 10SM FEW013 23/22 A2991 40 93 1100 170/04 RMK AO2 T02330222
53915KARA ARA20190503212511005/03/19 21:25:31  5-MIN KARA 040325Z AUTO 17005KT 10SM FEW013 23/22 A2991 40 93 1100 170/05 RMK AO2 T02330222
53915KARA ARA20190503213011005/03/19 21:30:31  5-MIN KARA 040330Z AUTO 17005KT 10SM FEW013 23/22 A2991 40 93 1100 170/05 RMK AO2 T02330222
53915KARA ARA20190503213511005/03/19 21:35:31  5-MIN KARA 040335Z AUTO 17004KT 10SM FEW013 23/22 A2991 40 93 1100 170/04 RMK AO2 T02330222
53915KARA ARA20190503214011005/03/19 21:40:31  5-MIN KARA 040340Z AUTO 16004KT 10SM FEW013 23/22 A2991 40 93 1100 160/04 RMK AO2 T02330222
53915KARA ARA20190503214511005/03/19 21:45:31  5-MIN KARA 040345Z AUTO 16004KT 10SM FEW013 23/22 A2991 40 93 1100 160/04 RMK AO2 T02330222
53915KARA ARA20190503215011405/03/19 21:50:31  5-MIN KARA 040350Z AUTO 16006KT 10SM CLR 23/22 A2991 40 93 1100 160/06 RMK AO2 SLP127 T02330222
53915KARA ARA20190503215510705/03/19 21:55:31  5-MIN KARA 040355Z AUTO 16005KT 10SM CLR 23/22 A2991 40 93 1000 180/04 RMK AO2 T02330222
53915KARA ARA20190503221511005/03/19 22:15:31  5-MIN KARA 040415Z AUTO 18003KT 10SM FEW055 23/22 A2992 30 93 1000 180/03 RMK AO2 T02330222
53915KARA ARA20190503222011005/03/19 22:20:31  5-MIN KARA 040420Z AUTO 16004KT 10SM SCT055 23/22 A2991 30 93 1000 160/04 RMK AO2 T02330222
53915KARA ARA20190503222511005/03/19 22:25:31  5-MIN KARA 040425Z AUTO 16005KT 10SM SCT055 23/22 A2991 30 93 1100 160/05 RMK AO2 T02330222
53915KARA ARA20190503223011005/03/19 22:30:31  5-MIN KARA 040430Z AUTO 16004KT 10SM SCT055 23/22 A2991 30 97 1000 160/04 RMK AO2 T02280222
53915KARA ARA20190503223511005/03/19 22:35:31  5-MIN KARA 040435Z AUTO 17003KT 10SM SCT055 23/22 A2992 30 97 1000 170/03 RMK AO2 T02280222
53915KARA ARA20190503224011005/03/19 22:40:31  5-MIN KARA 040440Z AUTO 18003KT 10SM SCT050 23/22 A2992 30 97 1000 180/03 RMK AO2 T02280222
53915KARA ARA20190503224511705/03/19 22:45:31  5-MIN KARA 040445Z AUTO 17004KT 10SM FEW038 SCT050 23/22 A2992 30 97 1000 170/04 RMK AO2 T02280222
53915KARA ARA20190503225012405/03/19 22:50:31  5-MIN KARA 040450Z AUTO 19004KT 10SM SCT033 BKN050 23/22 A2992 30 93 1000 190/04 RMK AO2 SLP131 T02330222
53915KARA ARA20190503225512405/03/19 22:55:31  5-MIN KARA 040455Z AUTO 19003KT 10SM SCT031 BKN038 BKN050 23/23 A2992 30 97 1000 190/03 RMK AO2 T02330228
53915KARA ARA20190503230011705/03/19 23:00:31  5-MIN KARA 040500Z AUTO 18004KT 10SM BKN031 BKN040 23/23 A2992 30 97 1000 180/04 RMK AO2 T02330228
53915KARA ARA20190503230511705/03/19 23:05:31  5-MIN KARA 040505Z AUTO 17005KT 10SM SCT031 BKN040 23/22 A2991 30 93 1000 170/05 RMK AO2 T02330222
53915KARA ARA20190503231011005/03/19 23:10:31  5-MIN KARA 040510Z AUTO 16005KT 10SM SCT033 23/22 A2991 40 93 1100 150/05 RMK AO2 T02330222
53915KARA ARA20190503231511005/03/19 23:15:31  5-MIN KARA 040515Z AUTO 15005KT 10SM SCT033 23/22 A2991 40 97 1000 150/05 RMK AO2 T02280222
53915KARA ARA20190503232011005/03/19 23:20:31  5-MIN KARA 040520Z AUTO 15005KT 10SM SCT032 23/22 A2991 40 97 1000 150/05 RMK AO2 T02280222
53915KARA ARA20190503232512405/03/19 23:25:31  5-MIN KARA 040525Z AUTO 15004KT 10SM FEW032 FEW040 SCT050 23/22 A2991 40 97 1000 150/04 RMK AO2 T02280222
53915KARA ARA20190503233011705/03/19 23:30:31  5-MIN KARA 040530Z AUTO 14005KT 10SM FEW032 FEW050 23/22 A2990 40 97 1000 140/05 RMK AO2 T02280222
53915KARA ARA20190503233511005/03/19 23:35:31  5-MIN KARA 040535Z AUTO 13003KT 10SM FEW030 23/22 A2990 40 97 1000 130/03 RMK AO2 T02280222
53915KARA ARA20190503234011705/03/19 23:40:31  5-MIN KARA 040540Z AUTO 12003KT 10SM FEW030 SCT038 23/22 A2990 40 97 1000 120/03 RMK AO2 T02280222
53915KARA ARA20190503234511005/03/19 23:45:31  5-MIN KARA 040545Z AUTO 12003KT 10SM SCT033 23/22 A2990 40 97 1000 120/03 RMK AO2 T02280222
53915KARA ARA20190503235015205/03/19 23:50:31  5-MIN KARA 040550Z AUTO 11003KT 10SM SCT027 BKN036 23/22 A2990 40 97 1000 110/03 RMK AO2 SLP125 T02280222 10256 20228 402890206 53006
53915KARA ARA20190503235511705/03/19 23:55:31  5-MIN KARA 040555Z AUTO 12003KT 10SM BKN027 BKN034 23/22 A2990 40 93 1100 120/03 RMK AO2 T02330222
53915KARA ARA20190504000011705/04/19 00:00:31  5-MIN KARA 040600Z AUTO 13003KT 10SM SCT027 BKN034 23/22 A2990 50 93 1100 130/03 RMK AO2 T02330222
53915KARA ARA20190504000512405/04/19 00:05:31  5-MIN KARA 040605Z AUTO 13004KT 10SM FEW011 SCT025 BKN032 23/22 A2990 50 93 1100 130/04 RMK AO2 T02330222
53915KARA ARA20190504001012405/04/19 00:10:31  5-MIN KARA 040610Z AUTO 14004KT 10SM FEW011 BKN025 BKN032 23/22 A2989 50 97 1000 130/04 RMK AO2 T02280222
53915KARA ARA20190504001512405/04/19 00:15:31  5-MIN KARA 040615Z AUTO 13004KT 10SM FEW011 BKN025 BKN034 23/22 A2989 50 97 1000 130/04 RMK AO2 T02280222
53915KARA ARA20190504002012405/04/19 00:20:31  5-MIN KARA 040620Z AUTO 13004KT 10SM FEW011 SCT025 BKN032 23/22 A2989 50 97 1000 130/04 RMK AO2 T02280222
53915KARA ARA20190504002512405/04/19 00:25:31  5-MIN KARA 040625Z AUTO 13003KT 10SM FEW011 SCT023 BKN032 23/22 A2989 50 97 1000 130/03 RMK AO2 T02280222
53915KARA ARA20190504003012405/04/19 00:30:31  5-MIN KARA 040630Z AUTO 13004KT 10SM FEW013 SCT019 BKN024 23/22 A2989 60 97 1000 130/04 RMK AO2 T02280222
53915KARA ARA20190504003512405/04/19 00:35:31  5-MIN KARA 040635Z AUTO 13004KT 10SM SCT013 BKN022 BKN032 23/22 A2989 60 93 1100 130/04 RMK AO2 T02330222
53915KARA ARA20190504004012405/04/19 00:40:31  5-MIN KARA 040640Z AUTO 13004KT 10SM FEW013 SCT022 BKN032 23/22 A2988 60 93 1100 130/04 RMK AO2 T02330222
53915KARA ARA20190504004512805/04/19 00:45:31  5-MIN KARA 040645Z AUTO 12003KT 10SM SCT017 BKN100 23/22 A2988 60 93 1100 120/03 RMK AO2 LTG DSNT S T02330222
53915KARA ARA20190504005014905/04/19 00:50:31  5-MIN KARA 040650Z AUTO 11004KT 10SM FEW012 SCT019 BKN100 23/22 A2988 70 93 1100 110/04 RMK AO2 LTG DSNT S AND SW SLP117 T02330222
53915KARA ARA20190504005513505/04/19 00:55:31  5-MIN KARA 040655Z AUTO 12004KT 10SM SCT016 BKN100 23/22 A2988 60 93 1100 120/04 RMK AO2 LTG DSNT S AND SW T02330222
53915KARA ARA20190504010013505/04/19 01:00:31  5-MIN KARA 040700Z AUTO 13005KT 10SM FEW016 BKN095 23/22 A2988 70 93 1100 120/05 RMK AO2 LTG DSNT S AND SW T02330222
53915KARA ARA20190504010513405/04/19 01:05:31  5-MIN KARA 040705Z AUTO 13006KT 10SM FEW036 BKN095 23/22 A2988 70 93 1100 130/06 RMK AO2 LTG DSNT S AND W T02330222
53915KARA ARA20190504011014105/04/19 01:10:31  5-MIN KARA 040710Z AUTO 12005KT 10SM FEW033 FEW044 BKN095 23/22 A2987 70 93 1100 120/05 RMK AO2 LTG DSNT S AND W T02330222
53915KARA ARA20190504011514105/04/19 01:15:31  5-MIN KARA 040715Z AUTO 13005KT 10SM FEW030 SCT041 BKN095 23/22 A2987 70 93 1100 120/05 RMK AO2 LTG DSNT S AND W T02330222
53915KARA ARA20190504012013505/04/19 01:20:31  5-MIN KARA 040720Z AUTO 12004KT 10SM FEW037 SCT060 BKN095 23/22 A2987 70 93 1100 120/04 RMK AO2 LTG DSNT S T02330222
53915KARA ARA20190504012513505/04/19 01:25:31  5-MIN KARA 040725Z AUTO 13007KT 10SM FEW037 SCT065 BKN095 23/22 A2986 80 93 1100 130/07 RMK AO2 LTG DSNT S T02330222
53915KARA ARA20190504013013805/04/19 01:30:31  5-MIN KARA 040730Z AUTO 13007KT 10SM FEW023 SCT041 BKN100 23/22 A2986 80 93 1100 130/07 RMK AO2 LTG DSNT S-NW T02330222
53915KARA ARA20190504013515605/04/19 01:35:31  5-MIN KARA 040735Z AUTO 14006KT 10SM -RA FEW023 BKN060 BKN075 23/23 A2986 80 100 1000 140/06 RMK AO2 LTG DSNT ALQDS RAB35 P0000 T02280228
53915KARA ARA20190504014015605/04/19 01:40:31  5-MIN KARA 040740Z AUTO 13006KT 10SM -RA FEW041 SCT055 BKN070 23/23 A2986 90 100 1100 130/06 RMK AO2 LTG DSNT ALQDS RAB35 P0000 T02280228
53915KARA ARA20190504014515405/04/19 01:45:31  5-MIN KARA 040745Z AUTO 14005KT 10SM FEW041 BKN060 BKN075 23/23 A2986 90 97 1100 140/05 RMK AO2 LTG DSNT ALQDS RAB35E45 P0000 T02330228
53915KARA ARA20190504015016605/04/19 01:50:31  5-MIN KARA 040750Z AUTO 12006KT 10SM -RA SCT041 BKN060 OVC100 23/23 A2985 90 97 1100 120/06 RMK AO2 LTG DSNT SE AND NW RAB35 SLP108 P0002 T02330228
53915KARA ARA20190504015515805/04/19 01:55:31  5-MIN KARA 040755Z AUTO 10008KT 10SM RA FEW019 BKN046 OVC080 23/23 A2985 90 97 1100 100/08 RMK AO2 LTG DSNT SE AND W AND NW P0000 T02330228
53915KARA ARA20190504020015905/04/19 02:00:31  5-MIN KARA 040800Z AUTO 13009KT 10SM -RA SCT016 BKN036 OVC060 23/23 A2985 90 97 1100 130/09 RMK AO2 LTG DSNT SE AND W AND NW P0000 T02330228
53915KARA ARA20190504020516005/04/19 02:05:31  5-MIN KARA 040805Z AUTO 17005KT 10SM -RA FEW007 BKN014 OVC070 23/23 A2984 100 97 1100 170/05 RMK AO2 LTG DSNT SE AND W AND NW P0001 T02330228
53915KARA ARA20190504021016005/04/19 02:10:31  5-MIN KARA 040810Z AUTO 16006KT 10SM -RA SCT007 BKN014 OVC046 23/23 A2984 100 97 1100 160/06 RMK AO2 LTG DSNT SE AND W AND NW P0001 T02330228
53915KARA ARA20190504021515105/04/19 02:15:31  5-MIN KARA 040815Z AUTO 15006KT 10SM -RA SCT007 BKN015 BKN037 23/23 A2984 100 100 1100 150/06 RMK AO2 LTG DSNT ALQDS P0001 T02280228
53915KARA ARA20190504022014705/04/19 02:20:31  5-MIN KARA 040820Z AUTO 14006KT 10SM VCTS -RA SCT010 BKN070 23/23 A2985 90 100 1100 140/06 RMK AO2 LTG DSNT S-NW P0001 T02280228
53915KARA ARA20190504022516505/04/19 02:25:31  5-MIN KARA 040825Z AUTO 15007KT 10SM VCTS -RA SCT008 SCT016 BKN029 23/23 A2985 90 100 1100 140/07 RMK AO2 LTG DSNT SE AND S AND NW P0001 T02280228
53915KARA ARA20190504023016005/04/19 02:30:31  5-MIN KARA 040830Z AUTO 14006KT 10SM VCTS -RA SCT008 BKN020 BKN031 23/23 A2984 100 100 1100 140/06 RMK AO2 LTG DSNT SE AND NW P0001 T02280228
53915KARA ARA20190504023516105/04/19 02:35:31  5-MIN KARA 040835Z AUTO 14006KT 10SM -RA FEW008 SCT021 BKN032 23/23 A2984 100 100 1100 140/06 RMK AO2 LTG DSNT N AND SE AND NW P0002 T02280228
53915KARA ARA20190504024015105/04/19 02:40:31  5-MIN KARA 040840Z AUTO 15007KT 10SM -RA FEW021 BKN031 BKN070 23/23 A2983 110 100 1100 150/07 RMK AO2 LTG DSNT ALQDS P0002 T02280228
53915KARA ARA20190504024515005/04/19 02:45:31  5-MIN KARA 040845Z AUTO 15008KT 10SM -RA SCT026 BKN070 OVC110 23/23 A2983 110 100 1100 150/08 RMK AO2 LTG DSNT SW-N P0004 T02280228
53915KARA ARA20190504025014905/04/19 02:50:31  5-MIN KARA 040850Z AUTO 17006KT 10SM +TSRA SCT026 BKN040 OVC085 23/23 A2983 110 100 1100 170/06 RMK AO2 LTG DSNT ALQDS TSB47 P0012
53915KARA ARA20190504025516005/04/19 02:55:31  5-MIN KARA 040855Z AUTO 00000KT 10SM +TSRA FEW022 BKN029 OVC085 23/23 A2981 120 100 1100 000/00 RMK AO2 LTG DSNT ALQDS PRESFR P0003 T02280228
53915KARA ARA20190504030015205/04/19 03:00:31  5-MIN KARA 040900Z AUTO 08005KT 10SM -TSRA FEW022 BKN027 OVC080 23/22 A2981 130 97 1100 070/05 RMK AO2 LTG DSNT ALQDS P0003 T02280222
53915KARA ARA20190504030515605/04/19 03:05:31  5-MIN KARA 040905Z AUTO 12007KT 10SM -RA FEW021 BKN030 OVC075 23/22 A2982 120 97 1100 120/07 RMK AO2 LTG DSNT ALQDS TSE02 P0004 T02280222
53915KARA ARA20190504031016105/04/19 03:10:31  5-MIN KARA 040910Z AUTO 16008KT 10SM VCTS -RA SCT019 BKN030 OVC075 23/22 A2982 120 97 1100 160/08 RMK AO2 LTG DSNT ALQDS TSE02 P0005 T02280222
53915KARA ARA20190504031516005/04/19 03:15:31  5-MIN KARA 040915Z AUTO 17004KT 10SM VCTS RA SCT017 BKN028 OVC070 23/22 A2982 110 97 1100 170/04 RMK AO2 LTG DSNT ALQDS TSE02 P0006 T02280222
53915KARA ARA20190504032016105/04/19 03:20:31  5-MIN KARA 040920Z AUTO 13010KT 10SM VCTS -RA SCT014 BKN020 OVC070 23/22 A2981 120 97 1100 130/10 RMK AO2 LTG DSNT ALQDS TSE02 P0006 T02280222
53915KARA ARA20190504032515305/04/19 03:25:31  5-MIN KARA 040925Z AUTO 16011KT 10SM VCTS -RA BKN014 BKN041 23/22 A2982 120 93 1200 160/11 RMK AO2 LTG DSNT S-NW TSE02 P0006 T02330222
53915KARA ARA20190504033016105/04/19 03:30:31  5-MIN KARA 040930Z AUTO 21012KT 10SM +TSRA SCT009 BKN016 OVC041 23/23 A2982 120 97 1200 210/12 RMK AO2 LTG DSNT ALQDS TSE02B30 P0012 T02330228
53915KARA ARA20190504033516105/04/19 03:35:31  5-MIN KARA 040935Z AUTO 19009KT 10SM +TSRA FEW009 BKN016 OVC041 22/21 A2983 110 93 1000 190/09 RMK AO2 LTG DSNT ALQDS TSE02B30 P0014 T02170206
53915KARA ARA20190504034016005/04/19 03:40:31  5-MIN KARA 040940Z AUTO 20009KT 10SM +TSRA SCT012 BKN046 OVC090 21/19 A2982 120 90 900 200/09 RMK AO2 LTG DSNT ALQDS TSE02B30 P0016 T02110194
53915KARA ARA20190504034516005/04/19 03:45:31  5-MIN KARA 040945Z AUTO 19005KT 10SM -TSRA SCT012 BKN046 OVC100 21/19 A2982 120 87 900 190/05 RMK AO2 LTG DSNT ALQDS TSE02B30 P0016 T02110189
53915KARA ARA20190504035016705/04/19 03:50:31  5-MIN KARA 040950Z AUTO 18004KT 10SM -TSRA FEW010 BKN046 OVC110 21/19 A2982 120 90 900 180/04 RMK AO2 LTG DSNT ALQDS TSE02B30 SLP096 P0016 T02110194
53915KARA ARA20190504035515505/04/19 03:55:31  5-MIN KARA 040955Z AUTO 18008KT 10SM TS FEW008 SCT046 BKN080 22/19 A2981 120 87 1000 180/08 RMK AO2 LTG DSNT ALQDS RAE54 P0000 T02170194
53915KARA ARA20190504040015705/04/19 04:00:31  5-MIN KARA 041000Z AUTO 18006KT 10SM TS FEW021 SCT100 BKN110 22/20 A2981 130 90 1000 180/06 RMK AO2 LTG DSNT ALQDS RAE0954 P0000 T02170200
53915KARA ARA20190504040515805/04/19 04:05:31  5-MIN KARA 041005Z AUTO 19005KT 10SM VCTS FEW021 BKN110 22/20 A2982 120 90 1000 190/05 RMK AO2 LTG DSNT ALQDS RAE0954 TSE02 P0000 T02170200
53915KARA ARA20190504041014605/04/19 04:10:31  5-MIN KARA 041010Z AUTO 16004KT 10SM BKN110 22/21 A2981 130 93 1000 160/04 RMK AO2 LTG DSNT ALQDS RAE0954 TSE02 P0000 T02170206
53915KARA ARA20190504041514605/04/19 04:15:31  5-MIN KARA 041015Z AUTO 17004KT 10SM SCT110 22/21 A2981 130 93 1000 170/04 RMK AO2 LTG DSNT ALQDS RAE0954 TSE02 P0000 T02170206
53915KARA ARA20190504042015305/04/19 04:20:31  5-MIN KARA 041020Z AUTO 16007KT 10SM -RA SCT110 22/21 A2980 140 93 1000 160/07 RMK AO2 LTG DSNT ALQDS RAE0954B17 TSE02 P0000 T02170206
53915KARA ARA20190504042515305/04/19 04:25:31  5-MIN KARA 041025Z AUTO 16006KT 10SM -RA SCT110 22/20 A2980 140 90 1000 160/06 RMK AO2 LTG DSNT ALQDS RAE0954B17 TSE02 P0000 T02170200
53915KARA ARA20190504043015105/04/19 04:30:31  5-MIN KARA 041030Z AUTO 16006KT 10SM SCT110 21/19 A2979 150 90 900 160/06 RMK AO2 LTG DSNT ALQDS RAE0954B17E26 TSE02 P0000 T02110194
53915KARA ARA20190504043514605/04/19 04:35:31  5-MIN KARA 041035Z 16005KT 10SM FEW110 21/19 A2980 140 90 900 160/05 RMK AO2 LTG DSNT ALQDS RAE0954B17E26 TSE02 P0000 T02110194
53915KARA ARA20190504044014605/04/19 04:40:31  5-MIN KARA 041040Z 16005KT 10SM FEW110 21/19 A2981 130 90 900 160/05 RMK AO2 LTG DSNT ALQDS RAE0954B17E26 TSE02 P0000 T02110194
53915KARA ARA20190504044520205/04/19 04:45:31  5-MIN KARA 041045Z 00000KT 10SM FEW110 21/19 A2982 120 90 900 000/00 RMK AO2 LTG DSNZ 11004KT 10SM FEW070 SCT090 SCT120 22/19 A2982 120 87 1000 110/04 RMK AO2 LTG DSNT ALQDS T02170194
53915KARA ARA20190504050015305/04/19 05:00:31  5-MIN KARA 041100Z 14005KT 10SM -RA FEW060 SCT090 BKN110 22/20 A2982 120 90 1000 140/05 RMK AO2 LTG DSNT ALQDS RAB1056 P0002 T02170200
53915KARA ARA20190504050515805/04/19 05:05:31  5-MIN KARA 041105Z 15005KT 10SM VCTS +RA FEW040 SCT070 BKN090 22/20 A2981 130 90 1000 150/05 RMK AO2 LTG DSNT ALQDS RAB1056 P0003 T02170200
53915KARA ARA20190504051015805/04/19 05:10:31  5-MIN KARA 041110Z 16007KT 10SM VCTS -RA FEW055 SCT070 BKN090 22/21 A2982 120 93 1000 160/07 RMK AO2 LTG DSNT ALQDS RAB1056 P0004 T02170206
53915KARA ARA20190504051515805/04/19 05:15:31  5-MIN KARA 041115Z 17010KT 10SM VCTS +RA FEW037 BKN060 OVC090 22/21 A2983 110 93 1000 170/10 RMK AO2 LTG DSNT ALQDS RAB1056 P0010 T02170206
53915KARA ARA20190504052016105/04/19 05:20:31  5-MIN KARA 041120Z 17011KT 10SM +TSRA SCT039 BKN060 OVC090 22/21 A2981 130 97 1000 160/11 RMK AO2 LTG DSNT ALQDS RAB1056 TSB16 P0019 T02170211
53915KARA ARA20190504052516005/04/19 05:25:31  5-MIN KARA 041125Z 22008KT 10SM TSRA BKN037 BKN050 OVC090 22/21 A2982 120 97 1000 220/08 RMK AO2 LTG DSNT ALQDS RAB1056 TSB16 P0019 T02170211
53915KARA ARA20190504053016005/04/19 05:30:31  5-MIN KARA 041130Z 27005KT 10SM TSRA BKN036 BKN043 OVC090 22/21 A2982 120 97 1000 270/05 RMK AO2 LTG DSNT ALQDS RAB1056 TSB16 P0025 T02170211
53915KARA ARA20190504053515405/04/19 05:35:31  5-MIN KARA 041135Z 28005KT 10SM +TSRA BKN038 OVC065 22/21 A2982 120 97 1000 280/05 RMK AO2 LTG DSNT ALQDS RAB1056 TSB16 P0029 T02170211
53915KARA ARA20190504054021505/04/19 05:40:31  5-MIN KARA 041140Z 28007KT 10SM +TSRA OVC036 22/20 A2982 120 90 1000 280/07 RMK AO2 LTG DSNT ALQDS RAB1056 TSB16 P0030 T0217020021/19 A2982 120 90 900 290/08 RMK AO2 LTG DSNT ALQDS P0008 T02110194
53915KARA ARA20190504060513905/04/19 06:05:31  5-MIN KARA 041205Z 27009KT 10SM +TSRA BKN025 OVC034 21/19 A2983 110 93 800 270/09 RMK AO2 LTG DSNT ALQDS P0024 T02060194
53915KARA ARA20190504061014605/04/19 06:10:31  5-MIN KARA 041210Z 28007KT 10SM +TSRA FEW011 BKN023 OVC032 21/20 A2982 120 93 900 280/07 RMK AO2 LTG DSNT ALQDS P0027 T02110200
53915KARA ARA20190504061516205/04/19 06:15:31  5-MIN KARA 041215Z 27009KT 230V330 10SM -TSRA FEW008 BKN023 OVC027 21/20 A2984 100 97 800 270/09 230V330 RMK AO2 LTG DSNT ALQDS P0028 T02060200
53915KARA ARA20190504062014605/04/19 06:20:31  5-MIN KARA 041220Z 28005KT 10SM -TSRA FEW008 BKN023 OVC030 21/19 A2984 100 93 800 280/05 RMK AO2 LTG DSNT ALQDS P0028 T02060194
53915KARA ARA20190504062515205/04/19 06:25:31  5-MIN KARA 041225Z 31013G18KT 10SM +TSRA FEW008 BKN023 OVC029 21/19 A2983 110 93 800 310/13G18 RMK AO2 LTG DSNT ALQDS P0039 T02060194
53915KARA ARA20190504063015205/04/19 06:30:31  5-MIN KARA 041230Z 30011G20KT 10SM -TSRA FEW008 BKN021 OVC035 21/19 A2982 120 93 800 300/11G20 RMK AO2 LTG DSNT ALQDS P0039 T02060194
53915KARA ARA20190504063515205/04/19 06:35:31  5-MIN KARA 041235Z 32011G20KT 10SM -TSRA FEW008 BKN023 OVC033 21/19 A2982 120 93 800 320/11G20 RMK AO2 LTG DSNT ALQDS P0039 T02060194
53915KARA ARA20190504064014605/04/19 06:40:31  5-MIN KARA 041240Z 32012KT 10SM -TSRA FEW011 SCT023 OVC033 21/19 A2982 120 93 800 320/12 RMK AO2 LTG DSNT ALQDS P0039 T02060194
53915KARA ARA20190504064514605/04/19 06:45:31  5-MIN KARA 041245Z 32009KT 10SM -TSRA SCT024 BKN029 OVC036 21/19 A2982 120 93 800 320/09 RMK AO2 LTG DSNT ALQDS P0041 T02060194
53915KARA ARA20190504065014505/04/19 06:50:31  5-MIN KARA 041250Z 32004KT 10SM VCTS -RA FEW024 BKN029 OVC036 20/19 A2982 120 97 800 310/04 RMK AO2 LTG DSNT ALQDS TSE48 P0041
53915KARA ARA20190504065514205/04/19 06:55:31  5-MIN KARA 041255Z 30008KT 10SM VCTS -RA BKN029 OVC036 20/19 A2981 130 97 800 300/08 RMK AO2 LTG DSNT ALQDS P0000 T02000194
53915KARA ARA20190504070014705/04/19 07:00:31  5-MIN KARA 041300Z 31008KT 10SM -TSRA BKN029 OVC036 20/19 A2981 130 97 800 310/08 RMK AO2 LTG DSNT ALQDS TSB1257 P0000 T02000194
53915KARA ARA20190504070515605/04/19 07:05:31  5-MIN KARA 041305Z 34009KT 10SM -TSRA BKN027 OVC036 20/19 A2980 140 97 800 330/09 RMK AO2 LTG DSNT ALQDS RAE02B05 TSB1257 P0000 T02000194
53915KARA ARA20190504071016205/04/19 07:10:31  5-MIN KARA 041310Z VRB03G14KT 10SM -TSRA BKN027 OVC036 21/19 A2981 130 93 800 VRB/03G14 RMK AO2 LTG DSNT ALQDS RAE02B05 TSB1257 P0000 T02060194
53915KARA ARA20190504071516905/04/19 07:15:31  5-MIN KARA 041315Z VRB04G14KT 10SM -TSRA FEW011 BKN029 OVC035 20/19 A2981 130 97 800 VRB/04G14 RMK AO2 LTG DSNT ALQDS RAE02B05 TSB1257 P0001 T02000194
53915KARA ARA20190504072015305/04/19 07:20:31  5-MIN KARA 041320Z 10SM +TSRA FEW009 FEW014 OVC029 21/19 A2981 120 93 800 M /M RMK AO2 LTG DSNT ALQDS RAE02B05 TSB1257 P0014 T02060194
53915KARA ARA20190504072517005/04/19 07:25:31  5-MIN KARA 041325Z 24007KT 10SM +TSRA SCT009 SCT014 OVC027 21/19 A2984 100 93 800 240/07 RMK AO2 LTG DSNT ALQDS RAE02B05 TSB1257 PRESRR P0016 T02060194
53915KARA ARA20190504073016305/04/19 07:30:31  5-MIN KARA 041330Z 23008KT 10SM +TSRA FEW005 BKN009 OVC027 20/19 A2984 100 97 800 230/08 RMK AO2 LTG DSNT ALQDS RAE02B05 TSB1257 P0034 T02000194
53915KARA ARA20190504073516305/04/19 07:35:31  5-MIN KARA 041335Z 00000KT 10SM +TSRA SCT007 BKN013 OVC026 20/19 A2982 120 97 800 000/00 RMK AO2 LTG DSNT ALQDS RAE02B05 TSB1257 P0046 T02000194
53915KARA ARA20190504074016305/04/19 07:40:31  5-MIN KARA 041340Z 00000KT 10SM +TSRA FEW005 BKN014 OVC027 20/19 A2982 120 97 800 000/00 RMK AO2 LTG DSNT ALQDS RAE02B05 TSB1257 P0048 T02000194
53915KARA ARA20190504074515505/04/19 07:45:31  5-MIN KARA 041345Z 00000KT 10SM TSRA SCT007 OVC017 20/19 A2982 120 97 800 000/00 RMK AO2 LTG DSNT ALQDS RAE02B05 TSB1257 P0050 T02000194
53915KARA ARA20190504075015305/04/19 07:50:31  5-MIN KARA 041350Z 00000KT 10SM +TSRA SCT007 SCT010 OVC021 20/19 A2982 120 97 800 000/00 RMK AO2 LTG DSNT ALQDS RAE02B05 TSB1257 P0052
53915KARA ARA20190504075515505/04/19 07:55:31  5-MIN KARA 041355Z 17003KT 10SM VCTS +RA SCT005 BKN023 OVC075 20/19 A2983 110 97 800 160/03 RMK AO2 LTG DSNT ALQDS TSE55 P0001 T02000194
53915KARA ARA20190504080015605/04/19 08:00:31  5-MIN KARA 041400Z 17006KT 10SM VCTS RA SCT005 BKN026 OVC041 20/19 A2983 110 97 800 170/06 RMK AO2 LTG DSNT ALQDS TSE1355 P0002 T02000194
53915KARA ARA20190504080515505/04/19 08:05:31  5-MIN KARA 041405Z 18006KT 10SM TSRA SCT006 BKN027 OVC041 20/19 A2984 100 97 700 180/06 RMK AO2 LTG DSNT NE-S TSE1355B05 P0003 T02000194
53915KARA ARA20190504081015605/04/19 08:10:31  5-MIN KARA 041410Z 18007KT 10SM TSRA SCT006 BKN025 OVC041 20/20 A2984 100 100 700 180/07 RMK AO2 LTG DSNT NE-S TSE1355B05 P0004 T02000200
53915KARA ARA20190504081515605/04/19 08:15:31  5-MIN KARA 041415Z 16007KT 10SM TSRA BKN007 BKN025 OVC037 20/20 A2983 110 100 800 160/07 RMK AO2 LTG DSNT NE-S TSE1355B05 P0005 T02000200
53915KARA ARA20190504082015705/04/19 08:20:31  5-MIN KARA 041420Z 16005KT 10SM -TSRA BKN009 BKN028 OVC044 20/20 A2983 110 100 800 160/05 RMK AO2 LTG DSNT NE-S TSE1355B05 P0005 T02000200
53915KARA ARA20190504082516805/04/19 08:25:31  5-MIN KARA 041425Z 19005KT 10SM TSRA BKN010 BKN024 OVC041 20/20 A2984 100 100 800 190/05 RMK AO2 LTG DSNT NE-S TSE1355B05 CIG 005V018 P0006 T02000200
53915KARA ARA20190504083015705/04/19 08:30:31  5-MIN KARA 041430Z 20004KT 10SM RA FEW006 BKN014 OVC024 20/20 A2983 110 100 800 200/04 RMK AO2 LTG DSNT NE-S TSE1355B05E29 P0007 T02000200
53915KARA ARA20190504083515505/04/19 08:35:31  5-MIN KARA 041435Z 22004KT 10SM RA FEW006 BKN012 OVC022 21/20 A2983 110 97 800 220/04 RMK AO2 LTG DSNT E-S TSE1355B05E29 P0008 T02060200
53915KARA ARA20190504084015705/04/19 08:40:31  5-MIN KARA 041440Z 22003KT 10SM -RA BKN012 BKN019 OVC026 21/20 A2984 100 97 800 220/03 RMK AO2 LTG DSNT NE-S TSE1355B05E29 P0008 T02060200
53915KARA ARA20190504084515705/04/19 08:45:31  5-MIN KARA 041445Z 00000KT 10SM -RA SCT012 BKN021 OVC100 21/20 A2983 110 97 800 000/00 RMK AO2 LTG DSNT NE-S TSE1355B05E29 P0008 T02060200
53915KARA ARA20190504085017605/04/19 08:50:31  5-MIN KARA 041450Z 00000KT 10SM -RA SCT012 BKN021 OVC110 21/20 A2982 110 97 800 000/00 RMK AO2 LTG DSNT NE-S TSE1355B05E29 SLP099 P0009 60103 T02060200 51004
53915KARA ARA20190504085514705/04/19 08:55:31  5-MIN KARA 041455Z 00000KT 10SM -RA SCT015 BKN060 OVC100 21/20 A2982 120 97 800 000/00 RMK AO2 LTG DSNT E AND SE P0000 T02060200
53915KARA ARA20190504090014705/04/19 09:00:31  5-MIN KARA 041500Z 00000KT 10SM -RA FEW015 SCT075 BKN100 21/20 A2982 120 97 800 000/00 RMK AO2 LTG DSNT E AND SE P0000 T02060200
53915KARA ARA20190504090514705/04/19 09:05:31  5-MIN KARA 041505Z 00000KT 10SM -RA FEW017 SCT090 BKN110 21/20 A2982 120 97 800 000/00 RMK AO2 LTG DSNT E AND SE P0000 T02060200
53915KARA ARA20190504091013505/04/19 09:10:31  5-MIN KARA 041510Z 00000KT 10SM SCT100 21/21 A2983 110 97 900 000/00 RMK AO2 LTG DSNT E AND SE RAE10 P0000 T02110206
53915KARA ARA20190504091514205/04/19 09:15:31  5-MIN KARA 041515Z 00000KT 10SM FEW090 SCT110 21/20 A2983 110 97 800 000/00 RMK AO2 LTG DSNT E AND SE RAE10 P0000 T02060200
53915KARA ARA20190504092013405/04/19 09:20:31  5-MIN KARA 041520Z 18003KT 10SM -RA FEW100 21/21 A2984 100 100 800 180/03 RMK AO2 LTG DSNT E PRESRR P0000 T02060206
53915KARA ARA20190504092512805/04/19 09:25:31  5-MIN KARA 041525Z 18004KT 10SM FEW090 21/21 A2984 100 97 900 180/04 RMK AO2 LTG DSNT E RAE22 P0000 T02110206
53915KARA ARA20190504093012405/04/19 09:30:31  5-MIN KARA 041530Z 18006KT 10SM CLR 21/21 A2985 90 97 900 180/06 RMK AO2 LTG DSNT E RAE22 P0000 T02110206
53915KARA ARA20190504093511605/04/19 09:35:31  5-MIN KARA 041535Z 18007KT 10SM FEW005 21/21 A2985 90 97 900 180/07 RMK AO2 RAE22 P0000 T02110206
53915KARA ARA20190504094012305/04/19 09:40:31  5-MIN KARA 041540Z 18008KT 10SM SCT005 SCT009 21/21 A2985 90 97 900 180/08 RMK AO2 RAE22 P0000 T02110206
53915KARA ARA20190504094511605/04/19 09:45:31  5-MIN KARA 041545Z 19006KT 10SM SCT007 21/21 A2985 90 97 900 190/06 RMK AO2 RAE22 P0000 T02110206
53915KARA ARA20190504095013005/04/19 09:50:31  5-MIN KARA 041550Z 20007KT 10SM SCT007 SCT029 22/21 A2985 90 93 900 200/07 RMK AO2 RAE22 SLP108 P0000 T02170206
53915KARA ARA20190504095511105/04/19 09:55:31  5-MIN KARA 041555Z 20005KT 10SM SCT007 BKN029 22/21 A2985 90 93 900 200/05 RMK AO2 T02170206
53915KARA ARA20190504100011105/04/19 10:00:31  5-MIN KARA 041600Z 20005KT 10SM SCT007 BKN029 22/21 A2985 90 93 900 200/05 RMK AO2 T02170206
53915KARA ARA20190504100511805/04/19 10:05:31  5-MIN KARA 041605Z 20006KT 10SM FEW007 FEW010 BKN027 22/21 A2985 90 93 900 200/06 RMK AO2 T02170206
53915KARA ARA20190504101011205/04/19 10:10:31  5-MIN KARA 041610Z 22005KT 10SM FEW010 BKN027 22/21 A2985 90 90 1000 220/05 RMK AO2 T02220206
53915KARA ARA20190504101511205/04/19 10:15:31  5-MIN KARA 041615Z 22006KT 10SM FEW010 BKN027 22/21 A2985 90 90 1000 210/06 RMK AO2 T02220206
53915KARA ARA20190504102011205/04/19 10:20:31  5-MIN KARA 041620Z 24005KT 10SM FEW010 SCT027 22/21 A2985 90 90 1000 240/05 RMK AO2 T02220206
53915KARA ARA20190504102511305/04/19 10:25:31  5-MIN KARA 041625Z 23006KT 10SM FEW010 SCT027 23/21 A2985 100 87 1100 230/06 RMK AO2 T02280206
53915KARA ARA20190504103011205/04/19 10:30:31  5-MIN KARA 041630Z 25006KT 10SM FEW012 SCT025 23/20 A2985 90 84 1100 250/06 RMK AO2 T02280200
53915KARA ARA20190504103512005/04/19 10:35:31  5-MIN KARA 041635Z 26006KT 10SM FEW012 SCT025 SCT030 23/21 A2985 100 84 1100 250/06 RMK AO2 T02330206
53915KARA ARA20190504104012005/04/19 10:40:31  5-MIN KARA 041640Z 24005KT 10SM FEW012 SCT018 BKN030 23/20 A2984 100 84 1100 240/05 RMK AO2 T02280200
53915KARA ARA20190504104511305/04/19 10:45:31  5-MIN KARA 041645Z 24006KT 10SM SCT018 BKN028 23/20 A2984 100 84 1100 240/06 RMK AO2 T02280200
53915KARA ARA20190504105012705/04/19 10:50:31  5-MIN KARA 041650Z 23006KT 10SM FEW014 BKN018 BKN028 23/20 A2984 100 84 1100 230/06 RMK AO2 SLP105 T02280200
53915KARA ARA20190504105512005/04/19 10:55:31  5-MIN KARA 041655Z 23005KT 10SM SCT014 BKN019 OVC030 23/20 A2984 100 84 1100 230/05 RMK AO2 T02280200
53915KARA ARA20190504110012005/04/19 11:00:31  5-MIN KARA 041700Z 24007KT 10SM BKN016 BKN024 OVC030 23/21 A2984 100 87 1100 230/07 RMK AO2 T02330211
53915KARA ARA20190504110512005/04/19 11:05:31  5-MIN KARA 041705Z 23006KT 10SM SCT016 BKN029 OVC038 23/21 A2984 100 87 1100 230/06 RMK AO2 T02280206
53915KARA ARA20190504111012005/04/19 11:10:31  5-MIN KARA 041710Z 23007KT 10SM FEW014 BKN027 OVC038 23/21 A2984 100 84 1100 230/07 RMK AO2 T02330206
53915KARA ARA20190504111512005/04/19 11:15:31  5-MIN KARA 041715Z 23005KT 10SM FEW014 BKN027 OVC040 23/21 A2983 110 84 1100 230/05 RMK AO2 T02330206
53915KARA ARA20190504112012005/04/19 11:20:31  5-MIN KARA 041720Z 22006KT 10SM FEW014 BKN027 OVC040 23/21 A2983 110 84 1100 220/06 RMK AO2 T02330206
53915KARA ARA20190504112512005/04/19 11:25:31  5-MIN KARA 041725Z 22006KT 10SM FEW014 BKN027 OVC040 23/21 A2983 110 84 1100 210/06 RMK AO2 T02330206
53915KARA ARA20190504113012005/04/19 11:30:31  5-MIN KARA 041730Z 23006KT 10SM FEW014 SCT027 OVC042 24/21 A2983 110 81 1200 230/06 RMK AO2 T02390206
53915KARA ARA20190504113512005/04/19 11:35:31  5-MIN KARA 041735Z 23006KT 10SM FEW026 BKN042 OVC050 24/21 A2983 110 81 1300 230/06 RMK AO2 T02440211
53915KARA ARA20190504114011305/04/19 11:40:31  5-MIN KARA 041740Z 23006KT 10SM FEW026 OVC044 24/21 A2982 120 81 1200 230/06 RMK AO2 T02390206
53915KARA ARA20190504114512005/04/19 11:45:31  5-MIN KARA 041745Z 19004KT 10SM FEW016 BKN042 OVC049 24/21 A2982 120 81 1200 190/04 RMK AO2 T02390206
53915KARA ARA20190504115014405/04/19 11:50:31  5-MIN KARA 041750Z 20007KT 10SM FEW016 OVC042 24/21 A2982 120 81 1300 190/07 RMK AO2 SLP098 60103 T02440211 10244 20200 50000
53915KARA ARA20190504115511305/04/19 11:55:31  5-MIN KARA 041755Z 20005KT 10SM BKN044 OVC050 24/21 A2982 120 81 1300 200/05 RMK AO2 T02440211
53915KARA ARA20190504120011305/04/19 12:00:31  5-MIN KARA 041800Z 21005KT 10SM FEW017 OVC044 24/21 A2982 110 81 1300 210/05 RMK AO2 T02440211
53915KARA ARA20190504120512005/04/19 12:05:31  5-MIN KARA 041805Z 20005KT 10SM FEW017 BKN041 OVC048 24/21 A2983 110 81 1300 200/05 RMK AO2 T02440211
53915KARA ARA20190504121012005/04/19 12:10:31  5-MIN KARA 041810Z VRB05KT 10SM FEW031 BKN041 OVC048 24/21 A2983 110 81 1300 VRB/05 RMK AO2 T02440211
53915KARA ARA20190504121512005/04/19 12:15:31  5-MIN KARA 041815Z 19003KT 10SM FEW026 SCT034 OVC045 24/21 A2982 110 81 1300 190/03 RMK AO2 T02440211
53915KARA ARA20190504122012005/04/19 12:20:31  5-MIN KARA 041820Z 19004KT 10SM FEW018 BKN034 OVC047 24/21 A2982 120 81 1300 190/04 RMK AO2 T02440211
53915KARA ARA20190504122512005/04/19 12:25:31  5-MIN KARA 041825Z 20005KT 10SM FEW018 BKN036 BKN047 25/21 A2982 120 79 1300 200/05 RMK AO2 T02500211
53915KARA ARA20190504123012005/04/19 12:30:31  5-MIN KARA 041830Z 00000KT 10SM FEW026 FEW034 BKN047 26/22 A2982 120 79 1400 000/00 RMK AO2 T02560217
53915KARA ARA20190504123512005/04/19 12:35:31  5-MIN KARA 041835Z VRB04KT 10SM FEW019 SCT034 SCT047 26/21 A2981 120 76 1400 VRB/04 RMK AO2 T02560211
53915KARA ARA20190504124012005/04/19 12:40:31  5-MIN KARA 041840Z VRB04KT 10SM FEW019 FEW032 SCT047 26/21 A2981 130 76 1400 VRB/04 RMK AO2 T02560211
53915KARA ARA20190504124512005/04/19 12:45:31  5-MIN KARA 041845Z VRB03KT 10SM FEW019 FEW025 SCT047 26/21 A2981 130 76 1400 VRB/03 RMK AO2 T02560211
53915KARA ARA20190504125012005/04/19 12:50:31  5-MIN KARA 041850Z VRB04KT 10SM FEW023 SCT047 26/21 A2980 130 76 1400 VRB/04 RMK AO2 SLP092 T02560211
53915KARA ARA20190504125512005/04/19 12:55:31  5-MIN KARA 041855Z 00000KT 10SM FEW023 SCT033 BKN047 26/22 A2980 140 79 1400 000/00 RMK AO2 T02560217
53915KARA ARA20190504130012005/04/19 13:00:31  5-MIN KARA 041900Z 21004KT 10SM FEW023 SCT033 BKN047 26/22 A2980 140 79 1400 210/04 RMK AO2 T02560217
53915KARA ARA20190504130512005/04/19 13:05:31  5-MIN KARA 041905Z 27004KT 10SM FEW024 SCT042 BKN049 26/21 A2980 140 76 1400 270/04 RMK AO2 T02560211
53915KARA ARA20190504131013605/04/19 13:10:31  5-MIN KARA 041910Z 25007KT 220V280 10SM FEW022 SCT032 BKN043 26/21 A2979 140 73 1500 250/07 220V280 RMK AO2 T02610211
53915KARA ARA20190504131512005/04/19 13:15:31  5-MIN KARA 041915Z 25006KT 10SM FEW022 SCT032 BKN044 26/21 A2979 140 76 1400 240/06 RMK AO2 T02560211
53915KARA ARA20190504132012005/04/19 13:20:31  5-MIN KARA 041920Z 23006KT 10SM FEW022 SCT035 BKN044 26/21 A2979 150 73 1500 230/06 RMK AO2 T02610211
53915KARA ARA20190504132513605/04/19 13:25:31  5-MIN KARA 041925Z 25007KT 210V280 10SM FEW024 SCT029 BKN050 26/21 A2979 150 73 1500 250/07 210V280 RMK AO2 T02610211
53915KARA ARA20190504133011305/04/19 13:30:31  5-MIN KARA 041930Z 24007KT 10SM FEW024 SCT047 27/21 A2979 150 71 1600 230/07 RMK AO2 T02670211
53915KARA ARA20190504133512005/04/19 13:35:31  5-MIN KARA 041935Z 26007KT 10SM FEW024 SCT028 BKN045 27/21 A2978 150 69 1600 260/07 RMK AO2 T02720211
53915KARA ARA20190504134012005/04/19 13:40:31  5-MIN KARA 041940Z 26007KT 10SM SCT028 SCT034 BKN044 27/22 A2978 150 71 1600 260/07 RMK AO2 T02720217
53915KARA ARA20190504134512005/04/19 13:45:31  5-MIN KARA 041945Z 27010KT 10SM SCT028 SCT034 BKN055 27/21 A2978 160 71 1600 260/10 RMK AO2 T02670211
53915KARA ARA20190504135012705/04/19 13:50:31  5-MIN KARA 041950Z 25011KT 10SM SCT029 BKN034 BKN055 26/21 A2978 160 71 1500 250/11 RMK AO2 SLP083 T02610206
53915KARA ARA20190504135512005/04/19 13:55:31  5-MIN KARA 041955Z 27009KT 10SM SCT029 BKN034 BKN055 27/21 A2978 160 69 1600 270/09 RMK AO2 T02720211
53915KARA ARA20190504140012005/04/19 14:00:31  5-MIN KARA 042000Z 24010KT 10SM SCT029 BKN036 BKN055 27/21 A2977 160 71 1600 240/10 RMK AO2 T02670211
53915KARA ARA20190504140512005/04/19 14:05:31  5-MIN KARA 042005Z 25010KT 10SM SCT028 BKN036 BKN055 27/21 A2977 160 69 1600 250/10 RMK AO2 T02670206
53915KARA ARA20190504141012005/04/19 14:10:31  5-MIN KARA 042010Z 25009KT 10SM SCT028 BKN036 BKN055 26/21 A2977 160 73 1500 250/09 RMK AO2 T02610211
53915KARA ARA20190504141512005/04/19 14:15:31  5-MIN KARA 042015Z 27009KT 10SM SCT028 BKN034 BKN044 27/21 A2977 160 71 1600 270/09 RMK AO2 T02670211
53915KARA ARA20190504142012005/04/19 14:20:31  5-MIN KARA 042020Z 24011KT 10SM FEW028 SCT034 BKN044 26/21 A2977 160 71 1500 240/11 RMK AO2 T02610206
53915KARA ARA20190504142512005/04/19 14:25:31  5-MIN KARA 042025Z 26011KT 10SM FEW028 SCT034 BKN044 27/21 A2977 160 69 1600 260/11 RMK AO2 T02670206
53915KARA ARA20190504143012005/04/19 14:30:31  5-MIN KARA 042030Z 25010KT 10SM FEW028 SCT034 BKN046 26/21 A2977 160 71 1500 250/10 RMK AO2 T02610206
53915KARA ARA20190504143512005/04/19 14:35:31  5-MIN KARA 042035Z 25009KT 10SM FEW028 SCT036 BKN046 27/21 A2977 160 69 1600 250/09 RMK AO2 T02670206
53915KARA ARA20190504144012005/04/19 14:40:31  5-MIN KARA 042040Z 27009KT 10SM FEW030 SCT036 BKN045 27/21 A2977 170 69 1600 270/09 RMK AO2 T02670206
53915KARA ARA20190504144512005/04/19 14:45:31  5-MIN KARA 042045Z 24011KT 10SM SCT030 SCT035 BKN045 27/21 A2977 170 66 1700 240/11 RMK AO2 T02720206
53915KARA ARA20190504145013305/04/19 14:50:31  5-MIN KARA 042050Z 27010KT 10SM SCT030 SCT036 BKN047 27/20 A2977 170 64 1700 260/10 RMK AO2 SLP079 T02720200 58010
53915KARA ARA20190504145512005/04/19 14:55:31  5-MIN KARA 042055Z 27012KT 10SM SCT030 SCT036 BKN047 27/20 A2977 170 64 1700 260/12 RMK AO2 T02720200
53915KARA ARA20190504150012005/04/19 15:00:31  5-MIN KARA 042100Z 27011KT 10SM FEW030 SCT036 SCT047 27/20 A2976 170 64 1700 270/11 RMK AO2 T02720200
53915KARA ARA20190504150510605/04/19 15:05:31  5-MIN KARA 042105Z 25012KT 10SM FEW030 27/19 A2976 170 62 1700 250/12 RMK AO2 T02720194
53915KARA ARA20190504151010605/04/19 15:10:31  5-MIN KARA 042110Z 27008KT 10SM FEW030 27/20 A2976 180 64 1700 270/08 RMK AO2 T02720200
53915KARA ARA20190504151510605/04/19 15:15:31  5-MIN KARA 042115Z 27009KT 10SM FEW033 27/20 A2976 180 64 1700 270/09 RMK AO2 T02720200
53915KARA ARA20190504152010605/04/19 15:20:31  5-MIN KARA 042120Z 26012KT 10SM FEW035 27/19 A2976 180 62 1700 260/12 RMK AO2 T02720194
53915KARA ARA20190504152510305/04/19 15:25:31  5-MIN KARA 042125Z 27009KT 10SM CLR 27/19 A2976 180 62 1700 270/09 RMK AO2 T02720194
53915KARA ARA20190504153010305/04/19 15:30:31  5-MIN KARA 042130Z 27010KT 10SM CLR 27/20 A2976 180 64 1700 270/10 RMK AO2 T02720200
53915KARA ARA20190504153510305/04/19 15:35:31  5-MIN KARA 042135Z 28010KT 10SM CLR 27/20 A2975 180 64 1700 280/10 RMK AO2 T02720200
53915KARA ARA20190504154010305/04/19 15:40:31  5-MIN KARA 042140Z 28012KT 10SM CLR 27/20 A2975 180 64 1700 280/12 RMK AO2 T02720200
53915KARA ARA20190504154510905/04/19 15:45:31  5-MIN KARA 042145Z 26010G18KT 10SM CLR 27/20 A2975 180 64 1700 260/10G18 RMK AO2 T02720200
53915KARA ARA20190504155011305/04/19 15:50:31  5-MIN KARA 042150Z 27012KT 10SM FEW036 27/19 A2975 190 64 1600 270/12 RMK AO2 SLP073 T02670194
53915KARA ARA20190504155510605/04/19 15:55:31  5-MIN KARA 042155Z 27009KT 10SM SCT039 27/20 A2975 190 66 1600 270/09 RMK AO2 T02670200
53915KARA ARA20190504160010605/04/19 16:00:31  5-MIN KARA 042200Z 27010KT 10SM SCT039 26/19 A2975 180 66 1600 270/10 RMK AO2 T02610194
53915KARA ARA20190504160511305/04/19 16:05:31  5-MIN KARA 042205Z 28012KT 10SM SCT036 BKN044 27/20 A2975 180 66 1600 280/12 RMK AO2 T02670200
53915KARA ARA20190504161011305/04/19 16:10:31  5-MIN KARA 042210Z 28011KT 10SM SCT036 BKN044 27/20 A2975 180 66 1600 270/11 RMK AO2 T02670200
53915KARA ARA20190504161511305/04/19 16:15:31  5-MIN KARA 042215Z 28008KT 10SM SCT036 BKN044 26/20 A2975 180 68 1500 280/08 RMK AO2 T02610200
53915KARA ARA20190504162011905/04/19 16:20:31  5-MIN KARA 042220Z 29013G17KT 10SM FEW034 BKN043 26/20 A2975 180 68 1500 290/13G17 RMK AO2 T02610200
53915KARA ARA20190504162511905/04/19 16:25:31  5-MIN KARA 042225Z 27012G17KT 10SM FEW034 BKN043 27/19 A2975 180 64 1600 270/12G17 RMK AO2 T02670194
53915KARA ARA20190504163011305/04/19 16:30:31  5-MIN KARA 042230Z 28011KT 10SM SCT034 BKN043 27/19 A2975 180 64 1600 280/11 RMK AO2 T02670194
53915KARA ARA20190504163511305/04/19 16:35:31  5-MIN KARA 042235Z 30013KT 10SM FEW034 BKN043 27/19 A2976 180 64 1600 290/13 RMK AO2 T02670194
53915KARA ARA20190504164011305/04/19 16:40:31  5-MIN KARA 042240Z 29014KT 10SM FEW034 SCT043 27/19 A2975 180 62 1600 290/14 RMK AO2 T02670189
53915KARA ARA20190504164511305/04/19 16:45:31  5-MIN KARA 042245Z 28012KT 10SM FEW033 SCT043 27/19 A2976 180 62 1600 280/12 RMK AO2 T02670189
53915KARA ARA20190504165011305/04/19 16:50:31  5-MIN KARA 042250Z 28012KT 10SM FEW033 26/18 A2976 180 62 1500 280/12 RMK AO2 SLP076 T02610183
53915KARA ARA20190504165511205/04/19 16:55:31  5-MIN KARA 042255Z 29014G19KT 10SM FEW033 26/18 A2976 170 62 1500 290/14G19 RMK AO2 T02610183
53915KARA ARA20190504170010905/04/19 17:00:31  5-MIN KARA 042300Z 29012G19KT 10SM CLR 26/18 A2976 170 62 1500 290/12G19 RMK AO2 T02610183
53915KARA ARA20190504170510305/04/19 17:05:31  5-MIN KARA 042305Z 28011KT 10SM CLR 26/18 A2977 170 62 1500 280/11 RMK AO2 T02610183
53915KARA ARA20190504171010305/04/19 17:10:31  5-MIN KARA 042310Z 28011KT 10SM CLR 26/18 A2977 170 62 1500 280/11 RMK AO2 T02610183
53915KARA ARA20190504171510305/04/19 17:15:31  5-MIN KARA 042315Z 29012KT 10SM CLR 26/19 A2977 170 64 1500 290/12 RMK AO2 T02610189
53915KARA ARA20190504172010305/04/19 17:20:31  5-MIN KARA 042320Z 28010KT 10SM CLR 26/18 A2977 170 62 1500 270/10 RMK AO2 T02610183
53915KARA ARA20190504172510305/04/19 17:25:31  5-MIN KARA 042325Z 27010KT 10SM CLR 26/18 A2977 170 62 1500 270/10 RMK AO2 T02610183
53915KARA ARA20190504173010605/04/19 17:30:31  5-MIN KARA 042330Z 27011KT 10SM FEW036 26/19 A2977 160 66 1500 270/11 RMK AO2 T02560189
53915KARA ARA20190504173510605/04/19 17:35:31  5-MIN KARA 042335Z 30011KT 10SM FEW036 25/19 A2977 160 68 1400 300/11 RMK AO2 T02500189
53915KARA ARA20190504174010605/04/19 17:40:31  5-MIN KARA 042340Z 29010KT 10SM FEW034 25/19 A2977 160 71 1400 290/10 RMK AO2 T02500194
53915KARA ARA20190504174511305/04/19 17:45:31  5-MIN KARA 042345Z 29008KT 10SM SCT032 SCT050 26/19 A2978 160 68 1500 290/08 RMK AO2 T02560194
53915KARA ARA20190504175014505/04/19 17:50:31  5-MIN KARA 042350Z 31008KT 10SM SCT030 SCT036 BKN050 26/20 A2978 160 71 1500 310/08 RMK AO2 SLP084 T02560200 10278 20239 56019
53915KARA ARA20190504175512005/04/19 17:55:31  5-MIN KARA 042355Z 31011KT 10SM SCT030 SCT036 BKN050 26/20 A2978 150 71 1500 310/11 RMK AO2 T02560200
53915KARA ARA20190504180011305/04/19 18:00:31  5-MIN KARA 050000Z 32011KT 10SM FEW030 SCT050 25/19 A2978 150 71 1400 320/11 RMK AO2 T02500194
53915KARA ARA20190504180511305/04/19 18:05:31  5-MIN KARA 050005Z 32007KT 10SM FEW030 SCT050 25/19 A2979 150 71 1400 320/07 RMK AO2 T02500194
53915KARA ARA20190504181011305/04/19 18:10:31  5-MIN KARA 050010Z 31010KT 10SM FEW030 SCT050 25/19 A2979 150 71 1400 310/10 RMK AO2 T02500194
53915KARA ARA20190504181511305/04/19 18:15:31  5-MIN KARA 050015Z 31009KT 10SM FEW030 FEW050 24/19 A2979 150 73 1300 310/09 RMK AO2 T02440194
53915KARA ARA20190504182010605/04/19 18:20:31  5-MIN KARA 050020Z 31008KT 10SM FEW050 24/19 A2979 150 73 1300 310/08 RMK AO2 T02440194
53915KARA ARA20190504182511305/04/19 18:25:31  5-MIN KARA 050025Z 31008KT 10SM FEW032 FEW050 24/19 A2979 140 73 1300 310/08 RMK AO2 T02440194
53915KARA ARA20190504183011305/04/19 18:30:31  5-MIN KARA 050030Z 31007KT 10SM FEW032 FEW050 24/19 A2980 140 73 1300 310/07 RMK AO2 T02440194
53915KARA ARA20190504183510605/04/19 18:35:31  5-MIN KARA 050035Z 32011KT 10SM SCT032 24/19 A2980 140 73 1300 320/11 RMK AO2 T02440194
53915KARA ARA20190504184010605/04/19 18:40:31  5-MIN KARA 050040Z 32011KT 10SM SCT033 24/19 A2980 140 71 1300 320/11 RMK AO2 T02440189
53915KARA ARA20190504184510605/04/19 18:45:31  5-MIN KARA 050045Z 32011KT 10SM SCT035 24/19 A2980 140 73 1200 320/11 RMK AO2 T02390189
53915KARA ARA20190504185011305/04/19 18:50:31  5-MIN KARA 050050Z 32009KT 10SM SCT035 24/19 A2980 140 73 1200 320/09 RMK AO2 SLP091 T02390189
53915KARA ARA20190504185510605/04/19 18:55:31  5-MIN KARA 050055Z 32009KT 10SM SCT035 24/19 A2980 130 73 1200 320/09 RMK AO2 T02390189
53915KARA ARA20190504190010605/04/19 19:00:31  5-MIN KARA 050100Z 32006KT 10SM FEW035 23/19 A2981 130 76 1200 320/06 RMK AO2 T02330189
53915KARA ARA20190504190510605/04/19 19:05:31  5-MIN KARA 050105Z 32006KT 10SM FEW037 23/19 A2981 130 81 1100 320/06 RMK AO2 T02280194
53915KARA ARA20190504191010605/04/19 19:10:31  5-MIN KARA 050110Z 32005KT 10SM FEW037 23/19 A2981 130 81 1100 320/05 RMK AO2 T02280194
53915KARA ARA20190504191510305/04/19 19:15:31  5-MIN KARA 050115Z 33006KT 10SM CLR 23/19 A2981 130 81 1100 330/06 RMK AO2 T02280194
53915KARA ARA20190504192010305/04/19 19:20:31  5-MIN KARA 050120Z 32005KT 10SM CLR 23/19 A2982 120 81 1100 320/05 RMK AO2 T02280194
53915KARA ARA20190504192510305/04/19 19:25:31  5-MIN KARA 050125Z 33005KT 10SM CLR 22/19 A2982 120 84 1000 320/05 RMK AO2 T02220194
53915KARA ARA20190504193010305/04/19 19:30:31  5-MIN KARA 050130Z 33004KT 10SM CLR 22/19 A2982 120 84 1000 330/04 RMK AO2 T02220194
53915KARA ARA20190504193510305/04/19 19:35:31  5-MIN KARA 050135Z 33004KT 10SM CLR 22/20 A2982 120 87 1000 330/04 RMK AO2 T02220200
53915KARA ARA20190504194010805/04/19 19:40:31  5-MIN KARA 050140Z AUTO 34005KT 10SM CLR 22/19 A2982 120 84 1000 340/05 RMK AO2 T02220194
53915KARA ARA20190504194510805/04/19 19:45:31  5-MIN KARA 050145Z AUTO 34004KT 10SM CLR 22/19 A2982 120 84 1000 340/04 RMK AO2 T02220194
53915KARA ARA20190504195011505/04/19 19:50:31  5-MIN KARA 050150Z AUTO 34004KT 10SM CLR 22/20 A2982 120 87 1000 340/04 RMK AO2 SLP097 T02220200
53915KARA ARA20190504195510805/04/19 19:55:31  5-MIN KARA 050155Z AUTO 35005KT 10SM CLR 22/19 A2982 120 84 1000 350/05 RMK AO2 T02220194
53915KARA ARA20190504200010805/04/19 20:00:31  5-MIN KARA 050200Z AUTO 35005KT 10SM CLR 22/19 A2982 120 84 1000 350/05 RMK AO2 T02220194
53915KARA ARA20190504200510805/04/19 20:05:31  5-MIN KARA 050205Z AUTO 34005KT 10SM CLR 22/19 A2983 110 81 1000 340/05 RMK AO2 T02220189
53915KARA ARA20190504201010805/04/19 20:10:31  5-MIN KARA 050210Z AUTO 34004KT 10SM CLR 22/19 A2983 110 84 1000 330/04 RMK AO2 T02170189
53915KARA ARA20190504201510805/04/19 20:15:31  5-MIN KARA 050215Z AUTO 33003KT 10SM CLR 22/19 A2983 110 87 1000 330/03 RMK AO2 T02170194
53915KARA ARA20190504202010805/04/19 20:20:31  5-MIN KARA 050220Z AUTO 33003KT 10SM CLR 22/20 A2983 110 90 1000 330/03 RMK AO2 T02170200
53915KARA ARA20190504202510805/04/19 20:25:31  5-MIN KARA 050225Z AUTO 00000KT 10SM CLR 22/20 A2983 110 90 1000 000/00 RMK AO2 T02170200
53915KARA ARA20190504203010705/04/19 20:30:31  5-MIN KARA 050230Z AUTO 00000KT 10SM CLR 22/20 A2983 110 90 900 000/00 RMK AO2 T02170200
53915KARA ARA20190504203510705/04/19 20:35:31  5-MIN KARA 050235Z AUTO 00000KT 10SM CLR 22/20 A2983 110 90 900 000/00 RMK AO2 T02170200
53915KARA ARA20190504204010705/04/19 20:40:31  5-MIN KARA 050240Z AUTO 00000KT 10SM CLR 21/20 A2984 100 93 900 000/00 RMK AO2 T02110200
53915KARA ARA20190504204510705/04/19 20:45:31  5-MIN KARA 050245Z AUTO 00000KT 10SM CLR 22/19 A2984 100 87 900 000/00 RMK AO2 T02170194
53915KARA ARA20190504205012005/04/19 20:50:31  5-MIN KARA 050250Z AUTO 00000KT 10SM CLR 21/19 A2984 100 90 900 000/00 RMK AO2 SLP105 T02110194 53005
53915KARA ARA20190504205510605/04/19 20:55:31  5-MIN KARA 050255Z AUTO 00000KT 10SM CLR 21/19 A2985 90 90 900 000/00 RMK AO2 T02110194
53915KARA ARA20190504210010605/04/19 21:00:31  5-MIN KARA 050300Z AUTO 00000KT 10SM CLR 21/19 A2985 90 90 900 000/00 RMK AO2 T02110194
53915KARA ARA20190504210510605/04/19 21:05:31  5-MIN KARA 050305Z AUTO 00000KT 10SM CLR 21/19 A2985 90 90 900 000/00 RMK AO2 T02110194
53915KARA ARA20190504211010605/04/19 21:10:31  5-MIN KARA 050310Z AUTO 00000KT 10SM CLR 21/19 A2985 90 90 900 000/00 RMK AO2 T02110194
53915KARA ARA20190504211510605/04/19 21:15:31  5-MIN KARA 050315Z AUTO 00000KT 10SM CLR 21/19 A2985 90 90 900 000/00 RMK AO2 T02110194
53915KARA ARA20190504212010605/04/19 21:20:31  5-MIN KARA 050320Z AUTO 00000KT 10SM CLR 21/19 A2986 90 90 900 000/00 RMK AO2 T02110194
53915KARA ARA20190504212510605/04/19 21:25:31  5-MIN KARA 050325Z AUTO 00000KT 10SM CLR 21/19 A2986 90 90 900 000/00 RMK AO2 T02110194
53915KARA ARA20190504213010605/04/19 21:30:31  5-MIN KARA 050330Z AUTO 00000KT 10SM CLR 21/19 A2986 80 90 900 000/00 RMK AO2 T02110194
53915KARA ARA20190504213510605/04/19 21:35:31  5-MIN KARA 050335Z AUTO 25003KT 10SM CLR 21/19 A2986 80 90 900 250/03 RMK AO2 T02110194
53915KARA ARA20190504214010605/04/19 21:40:31  5-MIN KARA 050340Z AUTO 27003KT 10SM CLR 21/19 A2986 80 90 900 270/03 RMK AO2 T02110194
53915KARA ARA20190504214510605/04/19 21:45:31  5-MIN KARA 050345Z AUTO 00000KT 10SM CLR 21/19 A2986 80 87 900 000/00 RMK AO2 T02110189
53915KARA ARA20190504215011605/04/19 21:50:31  5-MIN KARA 050350Z AUTO 26003KT 10SM FEW026 21/19 A2986 80 87 900 260/03 RMK AO2 SLP111 T02110189
53915KARA ARA20190504215510905/04/19 21:55:31  5-MIN KARA 050355Z AUTO 26003KT 10SM FEW026 21/19 A2986 80 90 800 250/03 RMK AO2 T02060189
53915KARA ARA20190504220010905/04/19 22:00:31  5-MIN KARA 050400Z AUTO 25003KT 10SM FEW026 21/19 A2986 80 90 800 250/03 RMK AO2 T02060189
53915KARA ARA20190504220510905/04/19 22:05:31  5-MIN KARA 050405Z AUTO 25003KT 10SM FEW026 21/19 A2986 80 93 800 250/03 RMK AO2 T02060194
53915KARA ARA20190504221010905/04/19 22:10:31  5-MIN KARA 050410Z AUTO 25003KT 10SM FEW026 21/19 A2986 80 93 800 250/03 RMK AO2 T02060194
53915KARA ARA20190504221510605/04/19 22:15:31  5-MIN KARA 050415Z AUTO 00000KT 10SM CLR 21/19 A2986 80 90 800 000/00 RMK AO2 T02060189
53915KARA ARA20190504222010605/04/19 22:20:31  5-MIN KARA 050420Z AUTO 00000KT 10SM CLR 21/19 A2986 80 90 800 000/00 RMK AO2 T02060189
53915KARA ARA20190504222510605/04/19 22:25:31  5-MIN KARA 050425Z AUTO 00000KT 10SM CLR 21/19 A2986 80 90 800 000/00 RMK AO2 T02060189
53915KARA ARA20190504223010605/04/19 22:30:31  5-MIN KARA 050430Z AUTO 00000KT 10SM CLR 21/19 A2987 80 90 800 000/00 RMK AO2 T02060189
53915KARA ARA20190504223510605/04/19 22:35:31  5-MIN KARA 050435Z AUTO 00000KT 10SM CLR 21/19 A2986 80 90 800 000/00 RMK AO2 T02060189
53915KARA ARA20190504224010605/04/19 22:40:31  5-MIN KARA 050440Z AUTO 00000KT 10SM CLR 21/19 A2986 80 90 800 000/00 RMK AO2 T02060189
53915KARA ARA20190504224510605/04/19 22:45:31  5-MIN KARA 050445Z AUTO 00000KT 10SM CLR 21/19 A2986 80 90 800 000/00 RMK AO2 T02060189
53915KARA ARA20190504225011305/04/19 22:50:31  5-MIN KARA 050450Z AUTO 30003KT 10SM CLR 21/19 A2986 80 90 800 300/03 RMK AO2 SLP112 T02060189
53915KARA ARA20190504225510605/04/19 22:55:31  5-MIN KARA 050455Z AUTO 30003KT 10SM CLR 21/19 A2986 80 90 800 300/03 RMK AO2 T02060189
53915KARA ARA20190504230010605/04/19 23:00:31  5-MIN KARA 050500Z AUTO 00000KT 10SM CLR 21/19 A2986 80 93 800 000/00 RMK AO2 T02060194
53915KARA ARA20190504230510605/04/19 23:05:31  5-MIN KARA 050505Z AUTO 31003KT 10SM CLR 21/19 A2987 80 93 800 310/03 RMK AO2 T02060194
53915KARA ARA20190504231010605/04/19 23:10:31  5-MIN KARA 050510Z AUTO 32003KT 10SM CLR 21/19 A2986 80 93 800 320/03 RMK AO2 T02060194
53915KARA ARA20190504231510605/04/19 23:15:31  5-MIN KARA 050515Z AUTO 32004KT 10SM CLR 20/19 A2986 80 97 700 320/04 RMK AO2 T02000194
53915KARA ARA20190504232010605/04/19 23:20:31  5-MIN KARA 050520Z AUTO 32004KT 10SM CLR 20/19 A2986 80 97 700 320/04 RMK AO2 T02000194
53915KARA ARA20190504232510605/04/19 23:25:31  5-MIN KARA 050525Z AUTO 32004KT 10SM CLR 20/19 A2986 80 97 700 320/04 RMK AO2 T02000194
53915KARA ARA20190504233010605/04/19 23:30:31  5-MIN KARA 050530Z AUTO 32004KT 10SM CLR 19/19 A2986 80 97 700 320/04 RMK AO2 T01940189
53915KARA ARA20190504233510605/04/19 23:35:31  5-MIN KARA 050535Z AUTO 32005KT 10SM CLR 19/19 A2986 80 97 700 320/05 RMK AO2 T01940189
53915KARA ARA20190504234010605/04/19 23:40:31  5-MIN KARA 050540Z AUTO 32005KT 10SM CLR 19/19 A2986 80 97 700 320/05 RMK AO2 T01940189
53915KARA ARA20190504234510605/04/19 23:45:31  5-MIN KARA 050545Z AUTO 32005KT 10SM CLR 19/19 A2986 80 97 700 320/05 RMK AO2 T01940189
53915KARA ARA20190504235014105/04/19 23:50:31  5-MIN KARA 050550Z AUTO 33004KT 10SM CLR 19/19 A2986 80 97 700 330/04 RMK AO2 SLP111 T01940189 10256 20194 402780194 53022
53915KARA ARA20190504235510605/04/19 23:55:31  5-MIN KARA 050555Z AUTO 32004KT 10SM CLR 20/19 A2986 80 93 700 320/04 RMK AO2 T02000189
53915KARA ARA20190505000010605/05/19 00:00:31  5-MIN KARA 050600Z AUTO 33003KT 10SM CLR 19/19 A2986 80 97 700 320/03 RMK AO2 T01940189
53915KARA ARA20190505000510605/05/19 00:05:31  5-MIN KARA 050605Z AUTO 34003KT 10SM CLR 20/19 A2986 80 93 700 340/03 RMK AO2 T02000189
53915KARA ARA20190505001010605/05/19 00:10:31  5-MIN KARA 050610Z AUTO 34004KT 10SM CLR 20/19 A2986 90 93 700 340/04 RMK AO2 T02000189
53915KARA ARA20190505001510605/05/19 00:15:31  5-MIN KARA 050615Z AUTO 34004KT 10SM CLR 19/19 A2986 80 97 700 330/04 RMK AO2 T01940189
53915KARA ARA20190505002010605/05/19 00:20:31  5-MIN KARA 050620Z AUTO 32004KT 10SM CLR 19/19 A2986 80 97 700 320/04 RMK AO2 T01940189
53915KARA ARA20190505002510605/05/19 00:25:31  5-MIN KARA 050625Z AUTO 33005KT 10SM CLR 19/19 A2986 80 97 700 330/05 RMK AO2 T01940189
53915KARA ARA20190505003010605/05/19 00:30:31  5-MIN KARA 050630Z AUTO 33005KT 10SM CLR 20/19 A2986 80 93 700 330/05 RMK AO2 T02000189
53915KARA ARA20190505003510605/05/19 00:35:31  5-MIN KARA 050635Z AUTO 34004KT 10SM CLR 20/19 A2986 80 93 700 340/04 RMK AO2 T02000189
53915KARA ARA20190505004010605/05/19 00:40:31  5-MIN KARA 050640Z AUTO 35004KT 10SM CLR 20/19 A2987 80 93 700 350/04 RMK AO2 T02000189
53915KARA ARA20190505004510605/05/19 00:45:31  5-MIN KARA 050645Z AUTO 35005KT 10SM CLR 20/19 A2987 70 93 700 350/05 RMK AO2 T02000189
53915KARA ARA20190505005011305/05/19 00:50:31  5-MIN KARA 050650Z AUTO 35005KT 10SM CLR 20/18 A2987 70 90 700 350/05 RMK AO2 SLP114 T02000183
53915KARA ARA20190505005510605/05/19 00:55:31  5-MIN KARA 050655Z AUTO 36005KT 10SM CLR 19/18 A2987 70 93 600 360/05 RMK AO2 T01940183
53915KARA ARA20190505010010605/05/19 01:00:31  5-MIN KARA 050700Z AUTO 36005KT 10SM CLR 19/18 A2987 70 93 600 360/05 RMK AO2 T01940183
53915KARA ARA20190505010510605/05/19 01:05:31  5-MIN KARA 050705Z AUTO 36006KT 10SM CLR 19/18 A2987 70 93 700 360/06 RMK AO2 T01940183
53915KARA ARA20190505011010605/05/19 01:10:31  5-MIN KARA 050710Z AUTO 36006KT 10SM CLR 19/18 A2987 70 93 600 350/06 RMK AO2 T01940183
53915KARA ARA20190505011510605/05/19 01:15:31  5-MIN KARA 050715Z AUTO 35005KT 10SM CLR 19/18 A2988 70 93 600 350/05 RMK AO2 T01940183
53915KARA ARA20190505012010605/05/19 01:20:31  5-MIN KARA 050720Z AUTO 35005KT 10SM CLR 19/18 A2988 70 93 600 350/05 RMK AO2 T01940183
53915KARA ARA20190505012510605/05/19 01:25:31  5-MIN KARA 050725Z AUTO 36005KT 10SM CLR 19/18 A2988 60 93 600 360/05 RMK AO2 T01940183
53915KARA ARA20190505013010605/05/19 01:30:31  5-MIN KARA 050730Z AUTO 36005KT 10SM CLR 19/18 A2988 60 97 600 360/05 RMK AO2 T01890183
53915KARA ARA20190505013510605/05/19 01:35:31  5-MIN KARA 050735Z AUTO 01005KT 10SM CLR 19/18 A2988 60 97 600 360/05 RMK AO2 T01890183
53915KARA ARA20190505014010605/05/19 01:40:31  5-MIN KARA 050740Z AUTO 02005KT 10SM CLR 19/18 A2988 60 97 600 020/05 RMK AO2 T01890183
53915KARA ARA20190505014510605/05/19 01:45:31  5-MIN KARA 050745Z AUTO 02005KT 10SM CLR 19/18 A2988 60 93 600 020/05 RMK AO2 T01890178
53915KARA ARA20190505015011305/05/19 01:50:31  5-MIN KARA 050750Z AUTO 01005KT 10SM CLR 19/18 A2988 70 97 600 010/05 RMK AO2 SLP117 T01890183
53915KARA ARA20190505015510605/05/19 01:55:31  5-MIN KARA 050755Z AUTO 01006KT 10SM CLR 19/18 A2988 60 97 600 010/06 RMK AO2 T01890183
53915KARA ARA20190505020010605/05/19 02:00:31  5-MIN KARA 050800Z AUTO 01006KT 10SM CLR 19/18 A2988 60 93 600 010/06 RMK AO2 T01940183
53915KARA ARA20190505020510605/05/19 02:05:31  5-MIN KARA 050805Z AUTO 01007KT 10SM CLR 19/18 A2988 60 93 600 010/07 RMK AO2 T01940183
53915KARA ARA20190505021010605/05/19 02:10:31  5-MIN KARA 050810Z AUTO 01006KT 10SM CLR 19/18 A2988 70 93 600 010/06 RMK AO2 T01940183
53915KARA ARA20190505021510605/05/19 02:15:31  5-MIN KARA 050815Z AUTO 01006KT 10SM CLR 19/18 A2988 70 93 600 010/06 RMK AO2 T01940183
53915KARA ARA20190505022010605/05/19 02:20:31  5-MIN KARA 050820Z AUTO 01006KT 10SM CLR 19/18 A2988 70 93 600 010/06 RMK AO2 T01940183
53915KARA ARA20190505022510605/05/19 02:25:31  5-MIN KARA 050825Z AUTO 01007KT 10SM CLR 19/18 A2988 60 93 600 010/07 RMK AO2 T01940183
53915KARA ARA20190505023010605/05/19 02:30:31  5-MIN KARA 050830Z AUTO 02006KT 10SM CLR 19/18 A2988 70 93 600 020/06 RMK AO2 T01940183
53915KARA ARA20190505023510605/05/19 02:35:31  5-MIN KARA 050835Z AUTO 02006KT 10SM CLR 19/18 A2988 70 93 600 020/06 RMK AO2 T01940183
53915KARA ARA20190505024010605/05/19 02:40:31  5-MIN KARA 050840Z AUTO 02006KT 10SM CLR 19/18 A2988 60 93 600 020/06 RMK AO2 T01940183
53915KARA ARA20190505024510605/05/19 02:45:31  5-MIN KARA 050845Z AUTO 02005KT 10SM CLR 19/18 A2988 60 93 600 020/05 RMK AO2 T01940183
53915KARA ARA20190505025011905/05/19 02:50:31  5-MIN KARA 050850Z AUTO 02005KT 10SM CLR 19/18 A2988 60 97 600 020/05 RMK AO2 SLP118 T01890183 50004
53915KARA ARA20190505025510605/05/19 02:55:31  5-MIN KARA 050855Z AUTO 02004KT 10SM CLR 19/18 A2988 60 97 600 020/04 RMK AO2 T01890183
53915KARA ARA20190505030010605/05/19 03:00:31  5-MIN KARA 050900Z AUTO 02003KT 10SM CLR 19/18 A2988 60 97 600 020/03 RMK AO2 T01890183
53915KARA ARA20190505030510605/05/19 03:05:31  5-MIN KARA 050905Z AUTO 36003KT 10SM CLR 19/18 A2989 60 97 600 360/03 RMK AO2 T01890183
53915KARA ARA20190505031010605/05/19 03:10:31  5-MIN KARA 050910Z AUTO 36004KT 10SM CLR 19/18 A2988 60 93 600 360/04 RMK AO2 T01890178
53915KARA ARA20190505031510605/05/19 03:15:31  5-MIN KARA 050915Z AUTO 36004KT 10SM CLR 18/18 A2989 60 96 500 360/04 RMK AO2 T01830178
53915KARA ARA20190505032010605/05/19 03:20:31  5-MIN KARA 050920Z AUTO 36005KT 10SM CLR 18/18 A2989 60 96 500 360/05 RMK AO2 T01830178
53915KARA ARA20190505032510905/05/19 03:25:31  5-MIN KARA 050925Z AUTO 36005KT 10SM FEW008 18/18 A2989 60 96 500 360/05 RMK AO2 T01830178
53915KARA ARA20190505033010905/05/19 03:30:31  5-MIN KARA 050930Z AUTO 36005KT 10SM FEW008 18/18 A2989 60 96 500 360/05 RMK AO2 T01830178
53915KARA ARA20190505033510905/05/19 03:35:31  5-MIN KARA 050935Z AUTO 36004KT 10SM FEW008 18/18 A2988 60 96 500 360/04 RMK AO2 T01830178
53915KARA ARA20190505034010905/05/19 03:40:31  5-MIN KARA 050940Z AUTO 36004KT 10SM FEW008 18/18 A2988 60 96 500 360/04 RMK AO2 T01830178
53915KARA ARA20190505034510905/05/19 03:45:31  5-MIN KARA 050945Z AUTO 36004KT 10SM FEW008 18/18 A2988 60 96 500 360/04 RMK AO2 T01830178
53915KARA ARA20190505035011605/05/19 03:50:31  5-MIN KARA 050950Z AUTO 35004KT 10SM FEW008 18/18 A2989 60 96 500 350/04 RMK AO2 SLP120 T01830178
53915KARA ARA20190505035510905/05/19 03:55:31  5-MIN KARA 050955Z AUTO 35004KT 10SM FEW008 18/18 A2989 60 96 500 340/04 RMK AO2 T01830178
53915KARA ARA20190505040010605/05/19 04:00:31  5-MIN KARA 051000Z AUTO 34004KT 10SM CLR 18/18 A2989 60 96 500 340/04 RMK AO2 T01830178
53915KARA ARA20190505040510605/05/19 04:05:31  5-MIN KARA 051005Z AUTO 34004KT 10SM CLR 18/18 A2988 60 96 500 340/04 RMK AO2 T01830178
53915KARA ARA20190505041004205/05/19 04:10:31  5-MIN KARA 051010Z AUTO
53915KARA ARA20190505041010605/05/19 04:10:31  5-MIN KARA 051010Z AUTO 35005KT 10SM CLR 18/18 A2988 60 96 500 340/05 RMK AO2 T01830178
53915KARA ARA20190505041510605/05/19 04:15:31  5-MIN KARA 051015Z AUTO 35005KT 10SM CLR 18/18 A2988 60 96 500 350/05 RMK AO2 T01830178
53915KARA ARA20190505042010605/05/19 04:20:31  5-MIN KARA 051020Z AUTO 35005KT 10SM CLR 18/18 A2988 70 96 500 350/05 RMK AO2 T01830178
53915KARA ARA20190505042510605/05/19 04:25:31  5-MIN KARA 051025Z AUTO 35005KT 10SM CLR 18/18 A2988 60 96 500 340/05 RMK AO2 T01830178
53915KARA ARA20190505043010605/05/19 04:30:31  5-MIN KARA 051030Z AUTO 35005KT 10SM CLR 18/18 A2988 70 96 500 350/05 RMK AO2 T01830178
53915KARA ARA20190505043510705/05/19 04:35:31  5-MIN KARA 051035Z AUTO 35005KT 10SM CLR 18/18 A2988 60 100 400 350/05 RMK AO2 T01780178
53915KARA ARA20190505044010705/05/19 04:40:31  5-MIN KARA 051040Z AUTO 35005KT 10SM CLR 18/18 A2988 60 100 400 350/05 RMK AO2 T01780178
53915KARA ARA20190505044510105/05/19 04:45:31  5-MIN KARA 051045Z 36005KT 10SM CLR 18/17 A2988 60 96 400 360/05 RMK AO2 T01780172
53915KARA ARA20190505045010805/05/19 04:50:31  5-MIN KARA 051050Z 36005KT 10SM CLR 18/17 A2989 60 96 400 360/05 RMK AO2 SLP119 T01780172
53915KARA ARA20190505045510105/05/19 04:55:31  5-MIN KARA 051055Z 35005KT 10SM CLR 18/17 A2989 50 96 400 350/05 RMK AO2 T01780172
53915KARA ARA20190505050010105/05/19 05:00:31  5-MIN KARA 051100Z 36005KT 10SM CLR 18/17 A2989 50 96 400 360/05 RMK AO2 T01780172
53915KARA ARA20190505050510105/05/19 05:05:31  5-MIN KARA 051105Z 36006KT 10SM CLR 18/17 A2989 50 96 400 360/06 RMK AO2 T01780172
53915KARA ARA20190505051010105/05/19 05:10:31  5-MIN KARA 051110Z 01006KT 10SM CLR 18/17 A2989 50 96 400 010/06 RMK AO2 T01780172
53915KARA ARA20190505051510105/05/19 05:15:31  5-MIN KARA 051115Z 01007KT 10SM CLR 18/17 A2989 50 96 400 010/07 RMK AO2 T01780172
53915KARA ARA20190505052010105/05/19 05:20:31  5-MIN KARA 051120Z 01007KT 10SM CLR 18/17 A2990 50 96 400 010/07 RMK AO2 T01780172
53915KARA ARA20190505052510105/05/19 05:25:31  5-MIN KARA 051125Z 01007KT 10SM CLR 18/17 A2990 50 96 400 010/07 RMK AO2 T01780172
53915KARA ARA20190505053010105/05/19 05:30:31  5-MIN KARA 051130Z 01006KT 10SM CLR 18/17 A2990 50 96 400 010/06 RMK AO2 T01780172
53915KARA ARA20190505053510105/05/19 05:35:31  5-MIN KARA 051135Z 01006KT 10SM CLR 18/17 A2990 50 96 400 010/06 RMK AO2 T01780172
53915KARA ARA20190505054010105/05/19 05:40:31  5-MIN KARA 051140Z 01006KT 10SM CLR 18/17 A2990 50 96 400 010/06 RMK AO2 T01780172
53915KARA ARA20190505054510105/05/19 05:45:31  5-MIN KARA 051145Z 01006KT 10SM CLR 18/17 A2990 40 93 500 010/06 RMK AO2 T01830172
53915KARA ARA20190505055013205/05/19 05:50:31  5-MIN KARA 051150Z 01007KT 10SM CLR 18/18 A2990 40 96 500 010/07 RMK AO2 SLP125 70103 T01830178 10200 20178 51008
53915KARA ARA20190505055510105/05/19 05:55:31  5-MIN KARA 051155Z 01006KT 10SM CLR 18/18 A2990 40 96 500 010/06 RMK AO2 T01830178
53915KARA ARA20190505060010105/05/19 06:00:31  5-MIN KARA 051200Z 02006KT 10SM CLR 18/18 A2990 50 96 500 010/06 RMK AO2 T01830178
53915KARA ARA20190505060510105/05/19 06:05:31  5-MIN KARA 051205Z 02006KT 10SM CLR 18/18 A2990 50 96 500 020/06 RMK AO2 T01830178
53915KARA ARA20190505061010105/05/19 06:10:31  5-MIN KARA 051210Z 03009KT 10SM CLR 18/18 A2990 40 96 500 030/09 RMK AO2 T01830178
53915KARA ARA20190505061510405/05/19 06:15:31  5-MIN KARA 051215Z 03008KT 10SM FEW006 18/18 A2990 40 96 500 030/08 RMK AO2 T01830178
53915KARA ARA20190505062010405/05/19 06:20:31  5-MIN KARA 051220Z 03008KT 10SM FEW006 19/18 A2990 40 93 600 030/08 RMK AO2 T01890178
53915KARA ARA20190505062510405/05/19 06:25:31  5-MIN KARA 051225Z 03008KT 10SM FEW006 19/18 A2990 40 93 600 030/08 RMK AO2 T01890178
53915KARA ARA20190505063010405/05/19 06:30:31  5-MIN KARA 051230Z 04008KT 10SM FEW006 19/18 A2990 40 93 500 030/08 RMK AO2 T01890178
53915KARA ARA20190505063510405/05/19 06:35:31  5-MIN KARA 051235Z 03007KT 10SM FEW006 19/18 A2991 40 93 500 030/07 RMK AO2 T01890178
53915KARA ARA20190505064010405/05/19 06:40:31  5-MIN KARA 051240Z 04008KT 10SM FEW006 19/18 A2991 40 93 500 040/08 RMK AO2 T01890178
53915KARA ARA20190505064510405/05/19 06:45:31  5-MIN KARA 051245Z 04008KT 10SM FEW007 19/18 A2991 40 93 500 040/08 RMK AO2 T01890178
53915KARA ARA20190505065011105/05/19 06:50:31  5-MIN KARA 051250Z 05008KT 10SM FEW007 19/18 A2991 30 93 500 040/08 RMK AO2 SLP128 T01890178
53915KARA ARA20190505065510105/05/19 06:55:31  5-MIN KARA 051255Z 05008KT 10SM CLR 19/18 A2991 30 90 600 040/08 RMK AO2 T01940178
53915KARA ARA20190505070010105/05/19 07:00:31  5-MIN KARA 051300Z 04007KT 10SM CLR 19/18 A2991 30 90 600 040/07 RMK AO2 T01940178
53915KARA ARA20190505070510105/05/19 07:05:31  5-MIN KARA 051305Z 05009KT 10SM CLR 19/18 A2991 30 90 600 050/09 RMK AO2 T01940178
53915KARA ARA20190505071010105/05/19 07:10:31  5-MIN KARA 051310Z 05008KT 10SM CLR 19/18 A2991 30 90 600 050/08 RMK AO2 T01940178
53915KARA ARA20190505071510105/05/19 07:15:31  5-MIN KARA 051315Z 05009KT 10SM CLR 19/17 A2992 30 87 600 050/09 RMK AO2 T01940172
53915KARA ARA20190505072010105/05/19 07:20:31  5-MIN KARA 051320Z 06008KT 10SM CLR 19/17 A2992 30 87 600 050/08 RMK AO2 T01940172
53915KARA ARA20190505072510105/05/19 07:25:31  5-MIN KARA 051325Z 04008KT 10SM CLR 19/18 A2992 30 90 600 040/08 RMK AO2 T01940178
53915KARA ARA20190505073010105/05/19 07:30:31  5-MIN KARA 051330Z 06008KT 10SM CLR 19/18 A2992 30 90 600 060/08 RMK AO2 T01940178
53915KARA ARA20190505073510105/05/19 07:35:31  5-MIN KARA 051335Z 04008KT 10SM CLR 20/18 A2992 30 87 700 040/08 RMK AO2 T02000178
53915KARA ARA20190505074010105/05/19 07:40:31  5-MIN KARA 051340Z 04006KT 10SM CLR 20/18 A2992 30 87 700 040/06 RMK AO2 T02000178
53915KARA ARA20190505074510105/05/19 07:45:31  5-MIN KARA 051345Z 05007KT 10SM CLR 20/18 A2992 20 87 700 050/07 RMK AO2 T02000178
53915KARA ARA20190505075010805/05/19 07:50:31  5-MIN KARA 051350Z 05007KT 10SM CLR 20/18 A2992 20 87 700 050/07 RMK AO2 SLP132 T02000178
53915KARA ARA20190505075510105/05/19 07:55:31  5-MIN KARA 051355Z 04008KT 10SM CLR 21/18 A2993 20 84 700 040/08 RMK AO2 T02060178
53915KARA ARA20190505080010105/05/19 08:00:31  5-MIN KARA 051400Z 04006KT 10SM CLR 21/18 A2993 20 84 700 040/06 RMK AO2 T02060178
53915KARA ARA20190505080510105/05/19 08:05:31  5-MIN KARA 051405Z 03007KT 10SM CLR 21/18 A2994 10 84 700 030/07 RMK AO2 T02060178
53915KARA ARA20190505081010105/05/19 08:10:31  5-MIN KARA 051410Z 05006KT 10SM CLR 21/18 A2993 10 81 800 040/06 RMK AO2 T02110178
53915KARA ARA20190505081510105/05/19 08:15:31  5-MIN KARA 051415Z 04006KT 10SM CLR 21/18 A2993 10 81 800 040/06 RMK AO2 T02110178
53915KARA ARA20190505082010105/05/19 08:20:31  5-MIN KARA 051420Z 04006KT 10SM CLR 22/18 A2994 10 78 800 040/06 RMK AO2 T02170178
53915KARA ARA20190505082510105/05/19 08:25:31  5-MIN KARA 051425Z 04005KT 10SM CLR 22/18 A2994 10 78 800 040/05 RMK AO2 T02170178
53915KARA ARA20190505083010105/05/19 08:30:31  5-MIN KARA 051430Z 08005KT 10SM CLR 22/18 A2994 10 78 800 080/05 RMK AO2 T02170178
53915KARA ARA20190505083510005/05/19 08:35:31  5-MIN KARA 051435Z 08004KT 10SM CLR 22/17 A2994 0 75 800 080/04 RMK AO2 T02170172
53915KARA ARA20190505084010105/05/19 08:40:31  5-MIN KARA 051440Z 05005KT 10SM CLR 22/18 A2994 10 78 800 050/05 RMK AO2 T02170178
53915KARA ARA20190505084510105/05/19 08:45:31  5-MIN KARA 051445Z 02005KT 10SM CLR 22/18 A2994 10 75 900 020/05 RMK AO2 T02220178
53915KARA ARA20190505085011405/05/19 08:50:31  5-MIN KARA 051450Z 01003KT 10SM CLR 22/18 A2994 10 75 900 010/03 RMK AO2 SLP138 T02220178 53006
53915KARA ARA20190505085510005/05/19 08:55:31  5-MIN KARA 051455Z VRB03KT 10SM CLR 22/18 A2994 0 75 900 VRB/03 RMK AO2 T02220178
53915KARA ARA20190505090010205/05/19 09:00:31  5-MIN KARA 051500Z 06004KT 10SM CLR 23/18 A2994 10 73 1000 060/04 RMK AO2 T02280178
53915KARA ARA20190505090510105/05/19 09:05:31  5-MIN KARA 051505Z 03006KT 10SM CLR 23/18 A2994 0 73 1000 030/06 RMK AO2 T02280178
53915KARA ARA20190505091010205/05/19 09:10:31  5-MIN KARA 051510Z 04007KT 10SM CLR 23/18 A2994 10 73 1000 040/07 RMK AO2 T02280178
53915KARA ARA20190505091510205/05/19 09:15:31  5-MIN KARA 051515Z 04007KT 10SM CLR 23/17 A2994 10 70 1000 040/07 RMK AO2 T02280172
53915KARA ARA20190505092010105/05/19 09:20:31  5-MIN KARA 051520Z 04006KT 10SM CLR 23/18 A2995 0 70 1000 040/06 RMK AO2 T02330178
53915KARA ARA20190505092510105/05/19 09:25:31  5-MIN KARA 051525Z 05006KT 10SM CLR 23/17 A2995 0 68 1000 050/06 RMK AO2 T02330172
53915KARA ARA20190505093010105/05/19 09:30:31  5-MIN KARA 051530Z 04005KT 10SM CLR 23/17 A2995 0 68 1000 040/05 RMK AO2 T02330172
53915KARA ARA20190505093510105/05/19 09:35:31  5-MIN KARA 051535Z 04005KT 10SM CLR 23/17 A2995 0 68 1000 040/05 RMK AO2 T02330172
53915KARA ARA20190505094010105/05/19 09:40:31  5-MIN KARA 051540Z 03004KT 10SM CLR 23/18 A2996 0 70 1000 030/04 RMK AO2 T02330178
53915KARA ARA20190505094510105/05/19 09:45:31  5-MIN KARA 051545Z 07006KT 10SM CLR 24/17 A2995 0 66 1100 070/06 RMK AO2 T02390172
53915KARA ARA20190505095010805/05/19 09:50:31  5-MIN KARA 051550Z 08006KT 10SM CLR 24/17 A2995 0 66 1100 080/06 RMK AO2 SLP141 T02390172
53915KARA ARA20190505095510105/05/19 09:55:31  5-MIN KARA 051555Z 03006KT 10SM CLR 24/17 A2995 0 66 1100 030/06 RMK AO2 T02390172
53915KARA ARA20190505100010105/05/19 10:00:31  5-MIN KARA 051600Z 06006KT 10SM CLR 24/18 A2995 0 68 1100 060/06 RMK AO2 T02390178
53915KARA ARA20190505100510105/05/19 10:05:31  5-MIN KARA 051605Z 07006KT 10SM CLR 24/17 A2995 0 66 1100 070/06 RMK AO2 T02390172
53915KARA ARA20190505101010105/05/19 10:10:31  5-MIN KARA 051610Z 04006KT 10SM CLR 24/17 A2995 0 66 1100 040/06 RMK AO2 T02390172
53915KARA ARA20190505101510105/05/19 10:15:31  5-MIN KARA 051615Z 02005KT 10SM CLR 24/18 A2994 0 66 1100 010/05 RMK AO2 T02440178
53915KARA ARA20190505102010205/05/19 10:20:31  5-MIN KARA 051620Z 04008KT 10SM CLR 24/18 A2994 10 66 1100 040/08 RMK AO2 T02440178
53915KARA ARA20190505102510105/05/19 10:25:31  5-MIN KARA 051625Z 36005KT 10SM CLR 24/18 A2994 0 66 1100 360/05 RMK AO2 T02440178
53915KARA ARA20190505103010105/05/19 10:30:31  5-MIN KARA 051630Z 04006KT 10SM CLR 24/18 A2994 0 66 1100 040/06 RMK AO2 T02440178
53915KARA ARA20190505103510105/05/19 10:35:31  5-MIN KARA 051635Z 05008KT 10SM CLR 25/17 A2994 0 61 1200 040/08 RMK AO2 T02500172
53915KARA ARA20190505104010205/05/19 10:40:31  5-MIN KARA 051640Z 04005KT 10SM CLR 24/17 A2994 10 63 1100 040/05 RMK AO2 T02440172
53915KARA ARA20190505104510205/05/19 10:45:31  5-MIN KARA 051645Z 07006KT 10SM CLR 25/18 A2994 10 64 1200 070/06 RMK AO2 T02500178
53915KARA ARA20190505105010905/05/19 10:50:31  5-MIN KARA 051650Z 04007KT 10SM CLR 26/18 A2994 10 61 1300 040/07 RMK AO2 SLP138 T02560178
53915KARA ARA20190505105510205/05/19 10:55:31  5-MIN KARA 051655Z 05007KT 10SM CLR 25/17 A2994 10 61 1200 050/07 RMK AO2 T02500172
53915KARA ARA20190505110010205/05/19 11:00:31  5-MIN KARA 051700Z 03006KT 10SM CLR 25/17 A2994 10 61 1200 030/06 RMK AO2 T02500172
53915KARA ARA20190505110510205/05/19 11:05:31  5-MIN KARA 051705Z 04007KT 10SM CLR 26/17 A2993 10 57 1300 040/07 RMK AO2 T02610172
53915KARA ARA20190505111010205/05/19 11:10:31  5-MIN KARA 051710Z 05009KT 10SM CLR 26/17 A2993 20 59 1300 050/09 RMK AO2 T02560172
53915KARA ARA20190505111510205/05/19 11:15:31  5-MIN KARA 051715Z 06007KT 10SM CLR 26/17 A2993 20 59 1300 050/07 RMK AO2 T02560172
53915KARA ARA20190505112010205/05/19 11:20:31  5-MIN KARA 051720Z 07005KT 10SM CLR 26/17 A2992 20 57 1300 060/05 RMK AO2 T02560167
53915KARA ARA20190505112510205/05/19 11:25:31  5-MIN KARA 051725Z 07007KT 10SM CLR 26/17 A2993 20 57 1400 060/07 RMK AO2 T02610172
53915KARA ARA20190505113010205/05/19 11:30:31  5-MIN KARA 051730Z 10004KT 10SM CLR 26/17 A2993 20 59 1300 100/04 RMK AO2 T02560172
53915KARA ARA20190505113510205/05/19 11:35:31  5-MIN KARA 051735Z 04006KT 10SM CLR 26/17 A2993 20 57 1300 040/06 RMK AO2 T02610172
53915KARA ARA20190505114010205/05/19 11:40:31  5-MIN KARA 051740Z 03006KT 10SM CLR 26/17 A2993 20 57 1300 030/06 RMK AO2 T02560167
53915KARA ARA20190505114510205/05/19 11:45:31  5-MIN KARA 051745Z 00000KT 10SM CLR 26/17 A2992 20 57 1400 000/00 RMK AO2 T02610172
53915KARA ARA20190505115011705/05/19 11:50:31  5-MIN KARA 051750Z 10SM CLR 26/17 A2992 20 57 1300 M /M RMK AO2 SLP132 T02560167 10261 20183 53014
53915KARA ARA20190505115510205/05/19 11:55:31  5-MIN KARA 051755Z 05007KT 10SM CLR 27/17 A2992 20 55 1400 050/07 RMK AO2 T02670172
53915KARA ARA20190505120010205/05/19 12:00:31  5-MIN KARA 051800Z 03005KT 10SM CLR 26/17 A2992 20 55 1400 030/05 RMK AO2 T02610167
53915KARA ARA20190505120510205/05/19 12:05:31  5-MIN KARA 051805Z 08005KT 10SM CLR 26/17 A2992 20 55 1400 080/05 RMK AO2 T02610167
53915KARA ARA20190505121010205/05/19 12:10:31  5-MIN KARA 051810Z VRB03KT 10SM CLR 27/17 A2993 20 53 1400 VRB/03 RMK AO2 T02670167
53915KARA ARA20190505121510205/05/19 12:15:31  5-MIN KARA 051815Z VRB04KT 10SM CLR 26/17 A2993 20 55 1400 VRB/04 RMK AO2 T02610167
53915KARA ARA20190505122010205/05/19 12:20:31  5-MIN KARA 051820Z VRB03KT 10SM CLR 25/17 A2993 20 59 1200 VRB/03 RMK AO2 T02500167
53915KARA ARA20190505122510205/05/19 12:25:31  5-MIN KARA 051825Z VRB03KT 10SM CLR 26/17 A2993 20 57 1400 VRB/03 RMK AO2 T02610172
53915KARA ARA20190505123010205/05/19 12:30:31  5-MIN KARA 051830Z VRB04KT 10SM CLR 27/17 A2992 20 53 1400 VRB/04 RMK AO2 T02670167
53915KARA ARA20190505123510205/05/19 12:35:31  5-MIN KARA 051835Z VRB05KT 10SM CLR 27/17 A2992 30 53 1400 VRB/05 RMK AO2 T02670167
53915KARA ARA20190505124010205/05/19 12:40:31  5-MIN KARA 051840Z 04005KT 10SM CLR 27/17 A2992 30 54 1500 040/05 RMK AO2 T02720172
53915KARA ARA20190505124510205/05/19 12:45:31  5-MIN KARA 051845Z 02007KT 10SM CLR 27/17 A2991 30 54 1500 020/07 RMK AO2 T02720172
53915KARA ARA20190505125010905/05/19 12:50:31  5-MIN KARA 051850Z 01006KT 10SM CLR 27/17 A2991 30 54 1500 010/06 RMK AO2 SLP128 T02720172
53915KARA ARA20190505125510205/05/19 12:55:31  5-MIN KARA 051855Z VRB04KT 10SM CLR 27/16 A2991 40 50 1500 VRB/04 RMK AO2 T02720161
53915KARA ARA20190505130010205/05/19 13:00:31  5-MIN KARA 051900Z VRB04KT 10SM CLR 27/17 A2991 40 54 1500 VRB/04 RMK AO2 T02720172
53915KARA ARA20190505130510205/05/19 13:05:31  5-MIN KARA 051905Z 05006KT 10SM CLR 27/17 A2991 40 52 1500 050/06 RMK AO2 T02720167
53915KARA ARA20190505131010205/05/19 13:10:31  5-MIN KARA 051910Z VRB04KT 10SM CLR 27/17 A2991 40 52 1500 VRB/04 RMK AO2 T02720167
53915KARA ARA20190505131510205/05/19 13:15:31  5-MIN KARA 051915Z VRB03KT 10SM CLR 28/17 A2991 40 50 1600 VRB/03 RMK AO2 T02780167
53915KARA ARA20190505132010205/05/19 13:20:31  5-MIN KARA 051920Z 05007KT 10SM CLR 28/17 A2991 40 50 1600 050/07 RMK AO2 T02780167
53915KARA ARA20190505132510205/05/19 13:25:31  5-MIN KARA 051925Z 07004KT 10SM CLR 28/17 A2991 40 50 1600 070/04 RMK AO2 T02780167
53915KARA ARA20190505133010205/05/19 13:30:31  5-MIN KARA 051930Z VRB04KT 10SM CLR 28/17 A2991 40 50 1600 VRB/04 RMK AO2 T02780167
53915KARA ARA20190505133510205/05/19 13:35:31  5-MIN KARA 051935Z VRB03KT 10SM CLR 27/17 A2991 40 52 1500 VRB/03 RMK AO2 T02720167
53915KARA ARA20190505134009205/05/19 13:40:31  5-MIN KARA 051940Z 10SM CLR 28/17 A2991 40 50 1600 M /M RMK AO2 T02780167
53915KARA ARA20190505134510205/05/19 13:45:31  5-MIN KARA 051945Z 06007KT 10SM CLR 28/17 A2991 40 52 1600 060/07 RMK AO2 T02780172
53915KARA ARA20190505135010905/05/19 13:50:31  5-MIN KARA 051950Z 00000KT 10SM CLR 27/17 A2990 40 52 1500 000/00 RMK AO2 SLP126 T02720167
53915KARA ARA20190505135510505/05/19 13:55:31  5-MIN KARA 051955Z VRB03KT 10SM FEW045 28/17 A2990 40 50 1600 VRB/03 RMK AO2 T02780167
53915KARA ARA20190505140010505/05/19 14:00:31  5-MIN KARA 052000Z 02006KT 10SM SCT045 28/17 A2990 40 52 1600 020/06 RMK AO2 T02780172
53915KARA ARA20190505140510505/05/19 14:05:31  5-MIN KARA 052005Z 04003KT 10SM BKN045 28/17 A2990 50 52 1600 040/03 RMK AO2 T02780172
53915KARA ARA20190505141010505/05/19 14:10:31  5-MIN KARA 052010Z 05005KT 10SM BKN045 28/17 A2990 50 50 1600 050/05 RMK AO2 T02780167
53915KARA ARA20190505141510505/05/19 14:15:31  5-MIN KARA 052015Z 11004KT 10SM BKN045 28/16 A2990 50 48 1600 110/04 RMK AO2 T02780161
53915KARA ARA20190505142010505/05/19 14:20:31  5-MIN KARA 052020Z 35005KT 10SM SCT045 28/16 A2989 50 48 1600 350/05 RMK AO2 T02780161
53915KARA ARA20190505142510505/05/19 14:25:31  5-MIN KARA 052025Z 30005KT 10SM SCT045 28/16 A2989 50 47 1600 300/05 RMK AO2 T02830161
53915KARA ARA20190505143010505/05/19 14:30:31  5-MIN KARA 052030Z 00000KT 10SM FEW045 28/16 A2989 50 48 1600 000/00 RMK AO2 T02780161
53915KARA ARA20190505143510505/05/19 14:35:31  5-MIN KARA 052035Z 34005KT 10SM FEW045 28/17 A2989 50 48 1600 340/05 RMK AO2 T02830167
53915KARA ARA20190505144010505/05/19 14:40:31  5-MIN KARA 052040Z VRB03KT 10SM SCT048 28/17 A2989 50 48 1600 VRB/03 RMK AO2 T02830167
53915KARA ARA20190505144510505/05/19 14:45:31  5-MIN KARA 052045Z VRB05KT 10SM SCT048 28/16 A2989 60 47 1600 VRB/05 RMK AO2 T02830161
53915KARA ARA20190505145011805/05/19 14:50:31  5-MIN KARA 052050Z 35006KT 10SM FEW049 28/16 A2989 60 47 1600 350/06 RMK AO2 SLP119 T02830161 58007
53915KARA ARA20190505145510505/05/19 14:55:31  5-MIN KARA 052055Z VRB03KT 10SM FEW049 28/16 A2989 60 45 1600 VRB/03 RMK AO2 T02830156
53915KARA ARA20190505150010505/05/19 15:00:31  5-MIN KARA 052100Z 04006KT 10SM FEW049 28/16 A2988 60 45 1600 040/06 RMK AO2 T02830156
53915KARA ARA20190505150510505/05/19 15:05:31  5-MIN KARA 052105Z VRB04KT 10SM FEW049 28/15 A2988 60 43 1600 VRB/04 RMK AO2 T02830150
53915KARA ARA20190505151010205/05/19 15:10:31  5-MIN KARA 052110Z 02005KT 10SM CLR 28/16 A2988 60 45 1700 020/05 RMK AO2 T02830156
53915KARA ARA20190505151510205/05/19 15:15:31  5-MIN KARA 052115Z VRB06KT 10SM CLR 28/16 A2988 60 46 1600 VRB/06 RMK AO2 T02780156
53915KARA ARA20190505152010205/05/19 15:20:31  5-MIN KARA 052120Z 33006KT 10SM CLR 28/16 A2988 60 45 1700 330/06 RMK AO2 T02830156
53915KARA ARA20190505152510205/05/19 15:25:31  5-MIN KARA 052125Z 03005KT 10SM CLR 28/16 A2988 70 45 1700 030/05 RMK AO2 T02830156
53915KARA ARA20190505153010205/05/19 15:30:31  5-MIN KARA 052130Z 04008KT 10SM CLR 28/16 A2988 70 47 1700 040/08 RMK AO2 T02830161
53915KARA ARA20190505153510205/05/19 15:35:31  5-MIN KARA 052135Z 34007KT 10SM CLR 28/16 A2987 70 47 1700 340/07 RMK AO2 T02830161
53915KARA ARA20190505154010205/05/19 15:40:31  5-MIN KARA 052140Z 36008KT 10SM CLR 28/16 A2987 70 47 1700 360/08 RMK AO2 T02830161
53915KARA ARA20190505154510205/05/19 15:45:31  5-MIN KARA 052145Z 35006KT 10SM CLR 28/17 A2987 70 48 1700 340/06 RMK AO2 T02830167
53915KARA ARA20190505155010905/05/19 15:50:31  5-MIN KARA 052150Z 04009KT 10SM CLR 28/17 A2987 70 48 1700 040/09 RMK AO2 SLP114 T02830167
53915KARA ARA20190505155510205/05/19 15:55:31  5-MIN KARA 052155Z 04009KT 10SM CLR 28/16 A2987 70 47 1700 030/09 RMK AO2 T02830161
53915KARA ARA20190505160010205/05/19 16:00:31  5-MIN KARA 052200Z 35008KT 10SM CLR 28/16 A2987 70 47 1700 350/08 RMK AO2 T02830161
53915KARA ARA20190505160510205/05/19 16:05:31  5-MIN KARA 052205Z 01006KT 10SM CLR 28/16 A2987 70 47 1700 010/06 RMK AO2 T02830161
53915KARA ARA20190505161010805/05/19 16:10:31  5-MIN KARA 052210Z 02010G15KT 10SM CLR 28/17 A2987 70 48 1700 020/10G15 RMK AO2 T02830167
53915KARA ARA20190505161510205/05/19 16:15:31  5-MIN KARA 052215Z 34008KT 10SM CLR 28/16 A2987 70 47 1700 340/08 RMK AO2 T02830161
53915KARA ARA20190505162010205/05/19 16:20:31  5-MIN KARA 052220Z 35009KT 10SM CLR 28/17 A2987 70 50 1600 350/09 RMK AO2 T02780167
53915KARA ARA20190505162510205/05/19 16:25:31  5-MIN KARA 052225Z 33007KT 10SM CLR 28/17 A2987 70 50 1600 330/07 RMK AO2 T02780167
53915KARA ARA20190505163010205/05/19 16:30:31  5-MIN KARA 052230Z 01008KT 10SM CLR 28/17 A2987 70 50 1600 010/08 RMK AO2 T02780167
53915KARA ARA20190505163510205/05/19 16:35:31  5-MIN KARA 052235Z 02008KT 10SM CLR 28/17 A2987 70 50 1600 020/08 RMK AO2 T02780167
53915KARA ARA20190505164010205/05/19 16:40:31  5-MIN KARA 052240Z 35010KT 10SM CLR 28/17 A2987 70 50 1600 350/10 RMK AO2 T02780167
53915KARA ARA20190505164510205/05/19 16:45:31  5-MIN KARA 052245Z 35009KT 10SM CLR 28/16 A2987 70 48 1600 350/09 RMK AO2 T02780161
53915KARA ARA20190505165010905/05/19 16:50:31  5-MIN KARA 052250Z 01009KT 10SM CLR 28/16 A2987 70 48 1600 010/09 RMK AO2 SLP114 T02780161
53915KARA ARA20190505165510205/05/19 16:55:31  5-MIN KARA 052255Z 36008KT 10SM CLR 28/16 A2987 70 48 1600 360/08 RMK AO2 T02780161
53915KARA ARA20190505170010205/05/19 17:00:31  5-MIN KARA 052300Z 35009KT 10SM CLR 27/16 A2987 70 50 1500 350/09 RMK AO2 T02720161
53915KARA ARA20190505170510205/05/19 17:05:31  5-MIN KARA 052305Z 35006KT 10SM CLR 27/16 A2987 70 50 1500 350/06 RMK AO2 T02720161
53915KARA ARA20190505171010205/05/19 17:10:31  5-MIN KARA 052310Z 02009KT 10SM CLR 27/17 A2987 70 52 1500 010/09 RMK AO2 T02720167
53915KARA ARA20190505171510205/05/19 17:15:31  5-MIN KARA 052315Z 03010KT 10SM CLR 27/17 A2987 70 52 1500 030/10 RMK AO2 T02720167
53915KARA ARA20190505172010205/05/19 17:20:31  5-MIN KARA 052320Z 02010KT 10SM CLR 27/17 A2987 70 52 1500 020/10 RMK AO2 T02720167
53915KARA ARA20190505172510205/05/19 17:25:31  5-MIN KARA 052325Z 02011KT 10SM CLR 27/17 A2987 80 53 1500 020/11 RMK AO2 T02670167
53915KARA ARA20190505173010205/05/19 17:30:31  5-MIN KARA 052330Z 02010KT 10SM CLR 27/17 A2987 80 53 1500 020/10 RMK AO2 T02670167
53915KARA ARA20190505173510205/05/19 17:35:31  5-MIN KARA 052335Z 01009KT 10SM CLR 27/16 A2987 70 52 1500 010/09 RMK AO2 T02670161
53915KARA ARA20190505174010205/05/19 17:40:31  5-MIN KARA 052340Z 01008KT 10SM CLR 27/16 A2987 70 52 1500 010/08 RMK AO2 T02670161
53915KARA ARA20190505174510205/05/19 17:45:31  5-MIN KARA 052345Z 03008KT 10SM CLR 27/16 A2987 70 50 1500 030/08 RMK AO2 T02670156
53915KARA ARA20190505175012705/05/19 17:50:31  5-MIN KARA 052350Z 02006KT 10SM CLR 27/16 A2987 70 52 1500 020/06 RMK AO2 SLP115 T02670161 10283 20250 58013
53915KARA ARA20190505175510205/05/19 17:55:31  5-MIN KARA 052355Z 01007KT 10SM CLR 27/16 A2988 70 52 1500 010/07 RMK AO2 T02670161
53915KARA ARA20190505180010205/05/19 18:00:31  5-MIN KARA 060000Z 03006KT 10SM CLR 27/16 A2988 70 52 1500 030/06 RMK AO2 T02670161
53915KARA ARA20190505180510205/05/19 18:05:31  5-MIN KARA 060005Z 03005KT 10SM CLR 26/16 A2988 60 51 1400 030/05 RMK AO2 T02610156
53915KARA ARA20190505181010205/05/19 18:10:31  5-MIN KARA 060010Z 02006KT 10SM CLR 26/16 A2988 60 53 1400 020/06 RMK AO2 T02610161
53915KARA ARA20190505181510205/05/19 18:15:31  5-MIN KARA 060015Z 03005KT 10SM CLR 26/16 A2988 60 53 1400 030/05 RMK AO2 T02610161
53915KARA ARA20190505182010205/05/19 18:20:31  5-MIN KARA 060020Z 05005KT 10SM CLR 26/17 A2988 60 55 1400 050/05 RMK AO2 T02610167
53915KARA ARA20190505182510205/05/19 18:25:31  5-MIN KARA 060025Z 05006KT 10SM CLR 26/17 A2988 60 59 1300 050/06 RMK AO2 T02560172
53915KARA ARA20190505183010205/05/19 18:30:31  5-MIN KARA 060030Z 05007KT 10SM CLR 26/17 A2988 60 57 1300 050/07 RMK AO2 T02560167
53915KARA ARA20190505183510205/05/19 18:35:31  5-MIN KARA 060035Z 05006KT 10SM CLR 25/17 A2988 60 59 1300 050/06 RMK AO2 T02500167
53915KARA ARA20190505184010205/05/19 18:40:31  5-MIN KARA 060040Z 05006KT 10SM CLR 25/17 A2989 60 59 1300 040/06 RMK AO2 T02500167
53915KARA ARA20190505184510205/05/19 18:45:31  5-MIN KARA 060045Z 05007KT 10SM CLR 24/17 A2989 60 61 1200 050/07 RMK AO2 T02440167
53915KARA ARA20190505185010905/05/19 18:50:31  5-MIN KARA 060050Z 05007KT 10SM CLR 24/17 A2989 50 61 1200 050/07 RMK AO2 SLP121 T02440167
53915KARA ARA20190505185510205/05/19 18:55:31  5-MIN KARA 060055Z 05006KT 10SM CLR 24/17 A2989 50 61 1200 050/06 RMK AO2 T02440167
53915KARA ARA20190505190010205/05/19 19:00:31  5-MIN KARA 060100Z 06005KT 10SM CLR 24/17 A2990 50 63 1100 060/05 RMK AO2 T02390167
53915KARA ARA20190505190510205/05/19 19:05:31  5-MIN KARA 060105Z 07005KT 10SM CLR 24/17 A2990 50 66 1100 070/05 RMK AO2 T02390172
53915KARA ARA20190505191010205/05/19 19:10:31  5-MIN KARA 060110Z 06004KT 10SM CLR 23/17 A2990 50 68 1100 060/04 RMK AO2 T02330172
53915KARA ARA20190505191510205/05/19 19:15:31  5-MIN KARA 060115Z 07004KT 10SM CLR 23/17 A2990 40 66 1100 070/04 RMK AO2 T02330167
53915KARA ARA20190505192010205/05/19 19:20:31  5-MIN KARA 060120Z 07005KT 10SM CLR 23/17 A2990 40 66 1100 070/05 RMK AO2 T02330167
53915KARA ARA20190505192510205/05/19 19:25:31  5-MIN KARA 060125Z 07005KT 10SM CLR 23/17 A2990 50 66 1100 060/05 RMK AO2 T02330167
53915KARA ARA20190505193010705/05/19 19:30:31  5-MIN KARA 060130Z AUTO 07006KT 10SM CLR 23/17 A2990 50 66 1100 070/06 RMK AO2 T02330167
53915KARA ARA20190505193510705/05/19 19:35:31  5-MIN KARA 060135Z AUTO 08005KT 10SM CLR 23/17 A2990 50 66 1100 080/05 RMK AO2 T02330167
53915KARA ARA20190505194010705/05/19 19:40:31  5-MIN KARA 060140Z AUTO 08005KT 10SM CLR 23/17 A2990 40 68 1000 080/05 RMK AO2 T02280167
53915KARA ARA20190505194510705/05/19 19:45:31  5-MIN KARA 060145Z AUTO 07006KT 10SM CLR 23/17 A2990 40 68 1000 070/06 RMK AO2 T02280167
53915KARA ARA20190505195011305/05/19 19:50:31  5-MIN KARA 060150Z AUTO 08006KT 10SM CLR 22/17 A2990 40 73 900 080/06 RMK AO2 SLP126 T02170167
53915KARA ARA20190505195510605/05/19 19:55:31  5-MIN KARA 060155Z AUTO 07007KT 10SM CLR 22/16 A2990 40 70 900 070/07 RMK AO2 T02170161
53915KARA ARA20190505200010705/05/19 20:00:31  5-MIN KARA 060200Z AUTO 07006KT 10SM CLR 23/16 A2990 40 65 1000 070/06 RMK AO2 T02280161
53915KARA ARA20190505200510705/05/19 20:05:31  5-MIN KARA 060205Z AUTO 07006KT 10SM CLR 23/16 A2990 40 65 1000 070/06 RMK AO2 T02280161
53915KARA ARA20190505201010705/05/19 20:10:31  5-MIN KARA 060210Z AUTO 07006KT 10SM CLR 23/16 A2991 40 65 1000 070/06 RMK AO2 T02280161
53915KARA ARA20190505201510605/05/19 20:15:31  5-MIN KARA 060215Z AUTO 08006KT 10SM CLR 22/16 A2991 40 68 900 080/06 RMK AO2 T02220161
53915KARA ARA20190505202010605/05/19 20:20:31  5-MIN KARA 060220Z AUTO 08006KT 10SM CLR 22/16 A2991 40 68 900 080/06 RMK AO2 T02220161
53915KARA ARA20190505202510605/05/19 20:25:31  5-MIN KARA 060225Z AUTO 07005KT 10SM CLR 22/16 A2991 30 68 900 070/05 RMK AO2 T02220161
53915KARA ARA20190505203010605/05/19 20:30:31  5-MIN KARA 060230Z AUTO 07005KT 10SM CLR 22/16 A2992 30 68 900 070/05 RMK AO2 T02220161
53915KARA ARA20190505203510605/05/19 20:35:31  5-MIN KARA 060235Z AUTO 06005KT 10SM CLR 22/16 A2992 30 68 900 060/05 RMK AO2 T02220161
53915KARA ARA20190506063510205/06/19 06:35:31  5-MIN KARA 061235Z 09004KT 10SM CLR 20/17 A3000 -50 84 600 090/04 RMK AO2 T02000172
53915KARA ARA20190506064010205/06/19 06:40:31  5-MIN KARA 061240Z 09003KT 10SM CLR 20/17 A3001 -50 84 600 090/03 RMK AO2 T02000172
53915KARA ARA20190506064510205/06/19 06:45:31  5-MIN KARA 061245Z 08004KT 10SM CLR 20/17 A3001 -50 84 600 070/04 RMK AO2 T02000172
53915KARA ARA20190506065010905/06/19 06:50:31  5-MIN KARA 061250Z 05005KT 10SM CLR 21/17 A3001 -50 81 600 040/05 RMK AO2 SLP161 T02060172
53915KARA ARA20190506065510205/06/19 06:55:31  5-MIN KARA 061255Z 04006KT 10SM CLR 21/17 A3001 -60 81 600 040/06 RMK AO2 T02060172
53915KARA ARA20190506070010205/06/19 07:00:31  5-MIN KARA 061300Z 06005KT 10SM CLR 21/18 A3002 -60 81 700 050/05 RMK AO2 T02110178
53915KARA ARA20190506070510205/06/19 07:05:31  5-MIN KARA 061305Z 05007KT 10SM CLR 21/18 A3002 -60 81 700 050/07 RMK AO2 T02110178
53915KARA ARA20190506071010205/06/19 07:10:31  5-MIN KARA 061310Z 06005KT 10SM CLR 21/18 A3002 -60 81 700 060/05 RMK AO2 T02110178
53915KARA ARA20190506071510205/06/19 07:15:31  5-MIN KARA 061315Z 07005KT 10SM CLR 21/18 A3002 -60 81 700 070/05 RMK AO2 T02110178
53915KARA ARA20190506072010205/06/19 07:20:31  5-MIN KARA 061320Z 09003KT 10SM CLR 22/18 A3002 -60 78 700 090/03 RMK AO2 T02170178
53915KARA ARA20190506072510205/06/19 07:25:31  5-MIN KARA 061325Z 07005KT 10SM CLR 22/18 A3002 -60 81 700 070/05 RMK AO2 T02170183
53915KARA ARA20190506073010205/06/19 07:30:31  5-MIN KARA 061330Z 07006KT 10SM CLR 22/18 A3002 -60 81 700 060/06 RMK AO2 T02170183
53915KARA ARA20190506073510205/06/19 07:35:31  5-MIN KARA 061335Z 09005KT 10SM CLR 22/18 A3002 -60 81 700 090/05 RMK AO2 T02170183
53915KARA ARA20190506074010205/06/19 07:40:31  5-MIN KARA 061340Z 09005KT 10SM CLR 22/18 A3002 -60 78 800 090/05 RMK AO2 T02220183
53915KARA ARA20190506074510205/06/19 07:45:31  5-MIN KARA 061345Z 08004KT 10SM CLR 22/19 A3002 -60 81 800 080/04 RMK AO2 T02220189
53915KARA ARA20190506075010905/06/19 07:50:31  5-MIN KARA 061350Z 08003KT 10SM CLR 22/18 A3002 -60 78 800 080/03 RMK AO2 SLP166 T02220183
53915KARA ARA20190506075510205/06/19 07:55:31  5-MIN KARA 061355Z 06004KT 10SM CLR 23/18 A3002 -60 76 900 060/04 RMK AO2 T02280183
53915KARA ARA20190506080010205/06/19 08:00:31  5-MIN KARA 061400Z VRB04KT 10SM CLR 23/19 A3002 -60 76 900 VRB/04 RMK AO2 T02330189
53915KARA ARA20190506080510205/06/19 08:05:31  5-MIN KARA 061405Z 06004KT 10SM CLR 23/19 A3002 -60 76 900 060/04 RMK AO2 T02330189
53915KARA ARA20190506081010305/06/19 08:10:31  5-MIN KARA 061410Z 07003KT 10SM CLR 24/19 A3002 -60 73 1000 070/03 RMK AO2 T02390189
53915KARA ARA20190506081510305/06/19 08:15:31  5-MIN KARA 061415Z 09004KT 10SM CLR 24/19 A3002 -60 73 1000 090/04 RMK AO2 T02390189
53915KARA ARA20190506082010305/06/19 08:20:31  5-MIN KARA 061420Z 08005KT 10SM CLR 24/19 A3002 -60 73 1100 080/05 RMK AO2 T02440194
53915KARA ARA20190506082510305/06/19 08:25:31  5-MIN KARA 061425Z VRB03KT 10SM CLR 24/19 A3002 -60 73 1100 VRB/03 RMK AO2 T02440194
53915KARA ARA20190506083010305/06/19 08:30:31  5-MIN KARA 061430Z 10004KT 10SM CLR 24/19 A3002 -60 73 1100 100/04 RMK AO2 T02440194
53915KARA ARA20190506083510305/06/19 08:35:31  5-MIN KARA 061435Z 10004KT 10SM CLR 24/19 A3002 -60 73 1100 100/04 RMK AO2 T02440194
53915KARA ARA20190506084010305/06/19 08:40:31  5-MIN KARA 061440Z 11003KT 10SM CLR 24/19 A3002 -60 73 1100 110/03 RMK AO2 T02440194
53915KARA ARA20190506084510305/06/19 08:45:31  5-MIN KARA 061445Z 10004KT 10SM CLR 25/20 A3002 -60 73 1100 100/04 RMK AO2 T02500200
53915KARA ARA20190506085011605/06/19 08:50:31  5-MIN KARA 061450Z 09004KT 10SM CLR 25/20 A3002 -60 73 1100 090/04 RMK AO2 SLP163 T02500200 53014
53915KARA ARA20190506085510305/06/19 08:55:31  5-MIN KARA 061455Z 05004KT 10SM CLR 26/20 A3002 -60 71 1200 050/04 RMK AO2 T02560200
53915KARA ARA20190506090010305/06/19 09:00:31  5-MIN KARA 061500Z VRB03KT 10SM CLR 26/20 A3002 -60 71 1200 VRB/03 RMK AO2 T02560200
53915KARA ARA20190506090510305/06/19 09:05:31  5-MIN KARA 061505Z 06004KT 10SM CLR 26/20 A3002 -60 71 1200 060/04 RMK AO2 T02560200
53915KARA ARA20190506091010305/06/19 09:10:31  5-MIN KARA 061510Z VRB03KT 10SM CLR 26/20 A3002 -60 71 1200 VRB/03 RMK AO2 T02560200
53915KARA ARA20190506091510605/06/19 09:15:31  5-MIN KARA 061515Z 08004KT 10SM FEW021 26/20 A3002 -60 68 1200 080/04 RMK AO2 T02610200
53915KARA ARA20190506092010605/06/19 09:20:31  5-MIN KARA 061520Z 04006KT 10SM FEW021 26/21 A3002 -60 71 1200 040/06 RMK AO2 T02610206
53915KARA ARA20190506092519605/06/19 09:25:31  5-MIN KARA 061525Z 02006KT 10SM CLR 26/20 A3002 -60 68 1200 020/06 RMK AO2 T026102001200 090/05 RMK AO2 T026101949KT 10SM SCT028 27/19 A3001 -60 64 1300 110/05 RMK AO2 T02670194
53915KARA ARA20190506101512205/06/19 10:15:31  5-MIN KARA 061615Z 12007KT 080V140 10SM SCT030 27/19 A3001 -50 64 1300 120/07 080V140 RMK AO2 T02670194
53915KARA ARA20190506102010605/06/19 10:20:31  5-MIN KARA 061620Z 13007KT 10SM SCT030 26/19 A3001 -60 64 1300 130/07 RMK AO2 T02610189
53915KARA ARA20190506102510605/06/19 10:25:31  5-MIN KARA 061625Z 12007KT 10SM SCT030 27/19 A3002 -60 64 1300 110/07 RMK AO2 T02670194
53915KARA ARA20190506103010605/06/19 10:30:31  5-MIN KARA 061630Z 11006KT 10SM BKN030 27/19 A3002 -60 62 1400 110/06 RMK AO2 T02720194
53915KARA ARA20190506103510605/06/19 10:35:31  5-MIN KARA 061635Z 09006KT 10SM SCT030 27/19 A3002 -60 62 1400 090/06 RMK AO2 T02720194
53915KARA ARA20190506104012205/06/19 10:40:31  5-MIN KARA 061640Z 09007KT 030V120 10SM SCT031 28/19 A3002 -60 60 1400 090/07 030V120 RMK AO2 T02780194
53915KARA ARA20190506104510605/06/19 10:45:31  5-MIN KARA 061645Z 13004KT 10SM SCT031 27/19 A3002 -60 62 1300 130/04 RMK AO2 T02670189
53915KARA ARA20190506105011305/06/19 10:50:31  5-MIN KARA 061650Z 10006KT 10SM SCT031 27/19 A3002 -60 60 1400 100/06 RMK AO2 SLP164 T02720189
53915KARA ARA20190506105510605/06/19 10:55:31  5-MIN KARA 061655Z 13006KT 10SM SCT033 27/19 A3001 -50 62 1400 130/06 RMK AO2 T02720194
53915KARA ARA20190506110010605/06/19 11:00:31  5-MIN KARA 061700Z VRB04KT 10SM FEW033 27/19 A3001 -50 62 1400 VRB/04 RMK AO2 T02720194
53915KARA ARA20190506110510605/06/19 11:05:31  5-MIN KARA 061705Z 08006KT 10SM FEW033 28/19 A3001 -50 58 1400 080/06 RMK AO2 T02780189
53915KARA ARA20190506111010605/06/19 11:10:31  5-MIN KARA 061710Z 10006KT 10SM FEW033 28/19 A3001 -50 60 1400 100/06 RMK AO2 T02780194
53915KARA ARA20190506111510605/06/19 11:15:31  5-MIN KARA 061715Z 08006KT 10SM FEW033 28/19 A3001 -50 60 1400 080/06 RMK AO2 T02780194
53915KARA ARA20190506112010605/06/19 11:20:31  5-MIN KARA 061720Z 10005KT 10SM SCT033 27/19 A3001 -60 62 1400 100/05 RMK AO2 T02720194
53915KARA ARA20190506112510605/06/19 11:25:31  5-MIN KARA 061725Z 11007KT 10SM SCT033 28/19 A3001 -50 60 1400 110/07 RMK AO2 T02780194
53915KARA ARA20190506113010605/06/19 11:30:31  5-MIN KARA 061730Z 11005KT 10SM SCT033 28/19 A3001 -50 60 1400 100/05 RMK AO2 T02780194
53915KARA ARA20190506113520105/06/19 11:35:31  5-MIN KARA 061735Z 12010KT 10SM SCT033 28/19 A3001 -50 60 1400 120/10 RMK AO2 T0278019405/06/19 11:40:31W033 28/19 A3001 -50 58 1500 100/07 RMK AO2 SLP161 T02830194 10283 20183 50013
53915KARA ARA20190506115510305/06/19 11:55:31  5-MIN KARA 061755Z 12005KT 10SM CLR 29/20 A3001 -50 58 1600 120/05 RMK AO2 T02890200
53915KARA ARA20190506120010305/06/19 12:00:31  5-MIN KARA 061800Z 10005KT 10SM CLR 28/19 A3001 -50 56 1500 100/05 RMK AO2 T02830189
53915KARA ARA20190506120510305/06/19 12:05:31  5-MIN KARA 061805Z 17008KT 10SM CLR 28/19 A3001 -50 58 1500 170/08 RMK AO2 T02830194
53915KARA ARA20190506121010305/06/19 12:10:31  5-MIN KARA 061810Z VRB05KT 10SM CLR 28/20 A3001 -50 62 1400 VRB/05 RMK AO2 T02780200
53915KARA ARA20190506121510605/06/19 12:15:31  5-MIN KARA 061815Z 16009KT 10SM FEW036 28/19 A3001 -50 60 1400 160/09 RMK AO2 T02780194
53915KARA ARA20190506122010605/06/19 12:20:31  5-MIN KARA 061820Z VRB05KT 10SM FEW036 28/19 A3000 -50 58 1500 VRB/05 RMK AO2 T02830194
53915KARA ARA20190506122510605/06/19 12:25:31  5-MIN KARA 061825Z 18006KT 10SM FEW036 28/19 A3001 -50 56 1500 180/06 RMK AO2 T02830189
53915KARA ARA20190506123010605/06/19 12:30:31  5-MIN KARA 061830Z 15008KT 10SM FEW036 28/19 A3001 -50 58 1500 150/08 RMK AO2 T02830194
53915KARA ARA20190506123510605/06/19 12:35:31  5-MIN KARA 061835Z 16008KT 10SM FEW036 28/20 A3001 -50 60 1500 160/08 RMK AO2 T02830200
53915KARA ARA20190506124010605/06/19 12:40:31  5-MIN KARA 061840Z 18006KT 10SM FEW036 29/20 A3001 -50 58 1600 180/06 RMK AO2 T02890200
53915KARA ARA20190506124510305/06/19 12:45:31  5-MIN KARA 061845Z 17006KT 10SM CLR 28/19 A3001 -50 58 1500 170/06 RMK AO2 T02830194
53915KARA ARA20190506125011305/06/19 12:50:31  5-MIN KARA 061850Z 14007KT 10SM FEW038 28/19 A3002 -60 58 1500 140/07 RMK AO2 SLP163 T02830194
53915KARA ARA20190506125510605/06/19 12:55:31  5-MIN KARA 061855Z 16007KT 10SM FEW038 28/19 A3001 -60 58 1500 160/07 RMK AO2 T02830194
53915KARA ARA20190506130010605/06/19 13:00:31  5-MIN KARA 061900Z VRB04KT 10SM FEW038 29/20 A3001 -50 58 1600 VRB/04 RMK AO2 T02890200
53915KARA ARA20190506130510605/06/19 13:05:31  5-MIN KARA 061905Z VRB05KT 10SM SCT038 28/19 A3001 -60 58 1500 VRB/05 RMK AO2 T02830194
53915KARA ARA20190506131010605/06/19 13:10:31  5-MIN KARA 061910Z 16007KT 10SM BKN038 28/19 A3001 -60 58 1500 150/07 RMK AO2 T02830194
53915KARA ARA20190506131510605/06/19 13:15:31  5-MIN KARA 061915Z 17007KT 10SM BKN040 29/19 A3001 -50 56 1600 170/07 RMK AO2 T02890194
53915KARA ARA20190506132010605/06/19 13:20:31  5-MIN KARA 061920Z 17006KT 10SM SCT040 29/19 A3001 -60 56 1600 160/06 RMK AO2 T02890194
53915KARA ARA20190506132510605/06/19 13:25:31  5-MIN KARA 061925Z VRB04KT 10SM SCT040 29/19 A3001 -50 54 1600 VRB/04 RMK AO2 T02890189
53915KARA ARA20190506133010605/06/19 13:30:31  5-MIN KARA 061930Z 20004KT 10SM SCT040 29/19 A3001 -50 54 1600 200/04 RMK AO2 T02940194
53915KARA ARA20190506133510605/06/19 13:35:31  5-MIN KARA 061935Z 15007KT 10SM SCT040 29/20 A3001 -50 58 1600 150/07 RMK AO2 T02890200
53915KARA ARA20190506134010605/06/19 13:40:31  5-MIN KARA 061940Z 16007KT 10SM SCT042 29/21 A3001 -50 58 1600 160/07 RMK AO2 T02940206
53915KARA ARA20190506134512205/06/19 13:45:31  5-MIN KARA 061945Z 19008KT 10SM -RA SCT042 28/20 A3001 -50 60 1500 190/08 RMK AO2 RAB43 P0000 T02830200
53915KARA ARA20190506135012905/06/19 13:50:31  5-MIN KARA 061950Z 20012KT 10SM -RA SCT040 28/21 A3001 -50 64 1400 200/12 RMK AO2 RAB43 SLP162 P0000 T02780206
53915KARA ARA20190506135512305/06/19 13:55:31  5-MIN KARA 061955Z 20010KT 10SM -RA SCT040 SCT049 28/21 A3001 -50 64 1400 200/10 RMK AO2 P0000 T02780206
53915KARA ARA20190506140012305/06/19 14:00:31  5-MIN KARA 062000Z 21008KT 10SM -RA BKN040 BKN049 28/21 A3001 -50 64 1400 210/08 RMK AO2 P0000 T02780206
53915KARA ARA20190506140511605/06/19 14:05:31  5-MIN KARA 062005Z 20007KT 10SM -RA SCT040 28/21 A3001 -50 64 1500 200/07 RMK AO2 P0000 T02830211
53915KARA ARA20190506141011805/06/19 14:10:31  5-MIN KARA 062010Z 20007KT 10SM FEW040 29/21 A3001 -50 62 1600 200/07 RMK AO2 RAE08 P0000 T02890211
53915KARA ARA20190506141511805/06/19 14:15:31  5-MIN KARA 062015Z 19005KT 10SM FEW040 29/21 A3001 -50 60 1600 190/05 RMK AO2 RAE08 P0000 T02890206
53915KARA ARA20190506142011805/06/19 14:20:31  5-MIN KARA 062020Z 21004KT 10SM FEW040 28/20 A3000 -50 60 1500 210/04 RMK AO2 RAE08 P0000 T02830200
53915KARA ARA20190506142511805/06/19 14:25:31  5-MIN KARA 062025Z 19008KT 10SM FEW040 29/21 A3000 -40 60 1600 190/08 RMK AO2 RAE08 P0000 T02890206
53915KARA ARA20190506143011505/06/19 14:30:31  5-MIN KARA 062030Z 16008KT 10SM CLR 29/21 A3000 -40 60 1600 160/08 RMK AO2 RAE08 P0000 T02890206
53915KARA ARA20190506143511505/06/19 14:35:31  5-MIN KARA 062035Z 17009KT 10SM CLR 29/21 A3000 -40 62 1600 170/09 RMK AO2 RAE08 P0000 T02890211
53915KARA ARA20190506144011505/06/19 14:40:31  5-MIN KARA 062040Z 18008KT 10SM CLR 29/21 A2999 -40 60 1600 180/08 RMK AO2 RAE08 P0000 T02890206
53915KARA ARA20190506144511505/06/19 14:45:31  5-MIN KARA 062045Z 17008KT 10SM CLR 29/21 A2999 -40 60 1600 170/08 RMK AO2 RAE08 P0000 T02890206
53915KARA ARA20190506145013405/06/19 14:50:31  5-MIN KARA 062050Z 19007KT 10SM CLR 28/21 A2999 -30 62 1500 180/07 RMK AO2 RAE08 SLP154 P0000 60000 T02830206 58003
53915KARA ARA20190506145510305/06/19 14:55:31  5-MIN KARA 062055Z 19005KT 10SM CLR 29/21 A2999 -30 62 1600 190/05 RMK AO2 T02890211
53915KARA ARA20190506150011905/06/19 15:00:31  5-MIN KARA 062100Z 17007KT 140V200 10SM CLR 29/21 A2999 -30 62 1600 170/07 140V200 RMK AO2 T02890211
53915KARA ARA20190506150510305/06/19 15:05:31  5-MIN KARA 062105Z 18005KT 10SM CLR 29/21 A2999 -30 60 1600 180/05 RMK AO2 T02890206
53915KARA ARA20190506151010305/06/19 15:10:31  5-MIN KARA 062110Z 19006KT 10SM CLR 29/21 A2999 -30 60 1600 190/06 RMK AO2 T02890206
53915KARA ARA20190506151510305/06/19 15:15:31  5-MIN KARA 062115Z 14006KT 10SM CLR 29/21 A2999 -30 58 1700 140/06 RMK AO2 T02940206
53915KARA ARA20190506152011905/06/19 15:20:31  5-MIN KARA 062120Z 18006KT 10SM -RA CLR 29/20 A2999 -30 58 1600 180/06 RMK AO2 RAB18 P0000 T02890200
53915KARA ARA20190506152511905/06/19 15:25:31  5-MIN KARA 062125Z 15008KT 10SM -RA CLR 29/20 A2999 -30 58 1600 150/08 RMK AO2 RAB18 P0000 T02890200
53915KARA ARA20190506153011805/06/19 15:30:31  5-MIN KARA 062130Z 18007KT 10SM CLR 29/21 A2999 -30 58 1700 180/07 RMK AO2 RAB18E30 P0000 T02940206
53915KARA ARA20190506153512205/06/19 15:35:31  5-MIN KARA 062135Z 18008KT 10SM -RA FEW040 29/20 A2999 -30 56 1700 180/08 RMK AO2 RAB18 P0000 T02940200
53915KARA ARA20190506154012205/06/19 15:40:31  5-MIN KARA 062140Z 18008KT 10SM -RA FEW040 29/20 A2999 -30 58 1600 180/08 RMK AO2 RAB18 P0000 T02890200
53915KARA ARA20190506154512205/06/19 15:45:31  5-MIN KARA 062145Z 17011KT 10SM -RA FEW040 28/21 A2999 -30 62 1500 170/11 RMK AO2 RAB18 P0000 T02830206
53915KARA ARA20190506155012905/06/19 15:50:31  5-MIN KARA 062150Z 19012KT 10SM -RA SCT041 28/21 A2999 -30 64 1500 190/12 RMK AO2 RAB18 SLP154 P0000 T02830211
53915KARA ARA20190506155512305/06/19 15:55:31  5-MIN KARA 062155Z 19011KT 10SM -RA FEW002 SCT041 28/21 A2999 -30 64 1500 180/11 RMK AO2 P0000 T02830211
53915KARA ARA20190506160012305/06/19 16:00:31  5-MIN KARA 062200Z 18010KT 10SM -RA FEW002 FEW041 28/21 A2999 -30 64 1500 180/10 RMK AO2 P0000 T02830211
53915KARA ARA20190506160511605/06/19 16:05:31  5-MIN KARA 062205Z 18010KT 10SM -RA FEW041 28/21 A2999 -30 66 1500 180/10 RMK AO2 P0000 T02780211
53915KARA ARA20190506161011605/06/19 16:10:31  5-MIN KARA 062210Z 19012KT 10SM -RA FEW041 28/21 A2999 -40 66 1500 190/12 RMK AO2 P0000 T02780211
53915KARA ARA20190506161511305/06/19 16:15:31  5-MIN KARA 062215Z 19010KT 10SM -RA CLR 28/21 A2999 -40 66 1500 190/10 RMK AO2 P0000 T02780211
53915KARA ARA20190506162011305/06/19 16:20:31  5-MIN KARA 062220Z 18011KT 10SM -RA CLR 28/21 A2999 -30 66 1500 180/11 RMK AO2 P0000 T02780211
53915KARA ARA20190506162511305/06/19 16:25:31  5-MIN KARA 062225Z 18010KT 10SM -RA CLR 28/21 A2999 -30 64 1500 180/10 RMK AO2 P0000 T02780206
53915KARA ARA20190506163011305/06/19 16:30:31  5-MIN KARA 062230Z 18010KT 10SM -RA CLR 28/21 A2999 -30 66 1500 180/10 RMK AO2 P0000 T02780211
53915KARA ARA20190506163511305/06/19 16:35:31  5-MIN KARA 062235Z 19011KT 10SM -RA CLR 28/21 A2999 -30 66 1500 190/11 RMK AO2 P0000 T02780211
53915KARA ARA20190506164011305/06/19 16:40:31  5-MIN KARA 062240Z 19010KT 10SM -RA CLR 28/21 A2999 -30 66 1500 190/10 RMK AO2 P0000 T02780211
53915KARA ARA20190506164511305/06/19 16:45:31  5-MIN KARA 062245Z 17010KT 10SM -RA CLR 27/21 A2999 -30 69 1400 170/10 RMK AO2 P0000 T02720211
53915KARA ARA20190506165012005/06/19 16:50:31  5-MIN KARA 062250Z 20011KT 10SM -RA CLR 27/21 A2999 -40 69 1400 190/11 RMK AO2 SLP156 P0000 T02720211
53915KARA ARA20190506165511305/06/19 16:55:31  5-MIN KARA 062255Z 19011KT 10SM -RA CLR 27/21 A2999 -40 69 1400 190/11 RMK AO2 P0000 T02720211
53915KARA ARA20190506170011305/06/19 17:00:31  5-MIN KARA 062300Z 19011KT 10SM -RA CLR 27/21 A2999 -40 69 1400 190/11 RMK AO2 P0000 T02720211
53915KARA ARA20190506170511305/06/19 17:05:31  5-MIN KARA 062305Z 17009KT 10SM -RA CLR 27/22 A2999 -40 71 1400 170/09 RMK AO2 P0000 T02720217
53915KARA ARA20190506171011305/06/19 17:10:31  5-MIN KARA 062310Z 18012KT 10SM -RA CLR 27/21 A2999 -40 69 1400 180/12 RMK AO2 P0000 T02720211
53915KARA ARA20190506171511305/06/19 17:15:31  5-MIN KARA 062315Z 19011KT 10SM -RA CLR 27/21 A2999 -40 71 1300 190/11 RMK AO2 P0000 T02670211
53915KARA ARA20190506172011305/06/19 17:20:31  5-MIN KARA 062320Z 19010KT 10SM -RA CLR 27/21 A2999 -40 71 1300 180/10 RMK AO2 P0000 T02670211
53915KARA ARA20190506172511305/06/19 17:25:31  5-MIN KARA 062325Z 19011KT 10SM -RA CLR 27/21 A3000 -40 71 1300 190/11 RMK AO2 P0000 T02670211
53915KARA ARA20190506173011305/06/19 17:30:31  5-MIN KARA 062330Z 18009KT 10SM -RA CLR 26/21 A3000 -40 73 1300 180/09 RMK AO2 P0000 T02610211
53915KARA ARA20190506173511305/06/19 17:35:31  5-MIN KARA 062335Z 18010KT 10SM -RA CLR 26/21 A3000 -40 73 1300 180/10 RMK AO2 P0000 T02610211
53915KARA ARA20190506174011305/06/19 17:40:31  5-MIN KARA 062340Z 18009KT 10SM -RA CLR 26/21 A3000 -40 73 1300 180/09 RMK AO2 P0000 T02610211
53915KARA ARA20190506174511305/06/19 17:45:31  5-MIN KARA 062345Z 18009KT 10SM -RA CLR 26/21 A3000 -40 73 1300 180/09 RMK AO2 P0000 T02610211
53915KARA ARA20190506175014405/06/19 17:50:31  5-MIN KARA 062350Z 18009KT 10SM -RA CLR 26/21 A3000 -40 76 1200 180/09 RMK AO2 SLP158 P0000 60000 T02560211 10294 20256 58007
53915KARA ARA20190506175511305/06/19 17:55:31  5-MIN KARA 062355Z 18010KT 10SM -RA CLR 26/21 A3000 -40 76 1200 180/10 RMK AO2 P0000 T02560211
53915KARA ARA20190506180011305/06/19 18:00:31  5-MIN KARA 070000Z 18008KT 10SM -RA CLR 26/21 A3000 -40 76 1200 180/08 RMK AO2 P0000 T02560211
53915KARA ARA20190506180511305/06/19 18:05:31  5-MIN KARA 070005Z 19008KT 10SM -RA CLR 26/21 A3000 -40 76 1200 190/08 RMK AO2 P0000 T02560211
53915KARA ARA20190506181011305/06/19 18:10:31  5-MIN KARA 070010Z 19008KT 10SM -RA CLR 25/21 A3000 -40 76 1100 180/08 RMK AO2 P0000 T02500206
53915KARA ARA20190506181511305/06/19 18:15:31  5-MIN KARA 070015Z 18008KT 10SM -RA CLR 25/21 A3000 -40 76 1100 180/08 RMK AO2 P0000 T02500206
53915KARA ARA20190506182011305/06/19 18:20:31  5-MIN KARA 070020Z 19006KT 10SM -RA CLR 25/21 A3000 -40 76 1100 190/06 RMK AO2 P0000 T02500206
53915KARA ARA20190506182511305/06/19 18:25:31  5-MIN KARA 070025Z 19006KT 10SM -RA CLR 24/21 A3000 -40 78 1100 190/06 RMK AO2 P0000 T02440206
53915KARA ARA20190506183011305/06/19 18:30:31  5-MIN KARA 070030Z 20006KT 10SM -RA CLR 24/21 A3000 -40 78 1100 200/06 RMK AO2 P0000 T02440206
53915KARA ARA20190506183511305/06/19 18:35:31  5-MIN KARA 070035Z 19005KT 10SM -RA CLR 24/21 A3000 -40 78 1100 190/05 RMK AO2 P0000 T02440206
53915KARA ARA20190506184011305/06/19 18:40:31  5-MIN KARA 070040Z 20006KT 10SM -RA CLR 24/21 A3000 -50 81 1000 200/06 RMK AO2 P0000 T02390206
53915KARA ARA20190506184511205/06/19 18:45:31  5-MIN KARA 070045Z 20005KT 10SM -RA CLR 23/21 A3000 -50 84 900 200/05 RMK AO2 P0000 T02330206
53915KARA ARA20190506185012105/06/19 18:50:31  5-MIN KARA 070050Z 20005KT 10SM CLR 23/21 A3000 -50 84 900 200/05 RMK AO2 RAE46 SLP159 P0000 T02330206
53915KARA ARA20190506185510205/06/19 18:55:31  5-MIN KARA 070055Z 20005KT 10SM CLR 23/21 A3001 -50 84 900 200/05 RMK AO2 T02330206
53915KARA ARA20190506190010205/06/19 19:00:31  5-MIN KARA 070100Z 20004KT 10SM CLR 23/21 A3001 -50 84 900 200/04 RMK AO2 T02330206
53915KARA ARA20190506190510205/06/19 19:05:31  5-MIN KARA 070105Z 20004KT 10SM CLR 23/21 A3001 -50 84 900 200/04 RMK AO2 T02330206
53915KARA ARA20190506191010205/06/19 19:10:31  5-MIN KARA 070110Z 20005KT 10SM CLR 23/21 A3001 -50 84 900 200/05 RMK AO2 T02330206
53915KARA ARA20190506191510205/06/19 19:15:31  5-MIN KARA 070115Z 20004KT 10SM CLR 23/21 A3001 -50 87 900 200/04 RMK AO2 T02280206
53915KARA ARA20190506192010205/06/19 19:20:31  5-MIN KARA 070120Z 19004KT 10SM CLR 23/21 A3001 -50 87 900 190/04 RMK AO2 T02280206
53915KARA ARA20190506192510205/06/19 19:25:31  5-MIN KARA 070125Z 20004KT 10SM CLR 23/21 A3001 -50 87 900 190/04 RMK AO2 T02280206
53915KARA ARA20190506193010705/06/19 19:30:31  5-MIN KARA 070130Z AUTO 20004KT 10SM CLR 23/21 A3001 -50 87 900 190/04 RMK AO2 T02280206
53915KARA ARA20190506193510705/06/19 19:35:31  5-MIN KARA 070135Z AUTO 19004KT 10SM CLR 23/21 A3001 -50 87 900 190/04 RMK AO2 T02280206
53915KARA ARA20190506194010705/06/19 19:40:31  5-MIN KARA 070140Z AUTO 19003KT 10SM CLR 23/21 A3001 -50 87 900 190/03 RMK AO2 T02280206
53915KARA ARA20190506194510705/06/19 19:45:31  5-MIN KARA 070145Z AUTO 20004KT 10SM CLR 23/21 A3001 -50 87 900 200/04 RMK AO2 T02280206
53915KARA ARA20190506195011405/06/19 19:50:31  5-MIN KARA 070150Z AUTO 20004KT 10SM CLR 23/21 A3001 -50 87 900 200/04 RMK AO2 SLP162 T02280206
53915KARA ARA20190506195510705/06/19 19:55:31  5-MIN KARA 070155Z AUTO 20004KT 10SM CLR 23/21 A3001 -60 87 900 200/04 RMK AO2 T02280206
53915KARA ARA20190506200010705/06/19 20:00:31  5-MIN KARA 070200Z AUTO 19003KT 10SM CLR 23/21 A3001 -50 87 900 190/03 RMK AO2 T02280206
53915KARA ARA20190506200510705/06/19 20:05:31  5-MIN KARA 070205Z AUTO 15003KT 10SM CLR 23/21 A3001 -50 87 900 150/03 RMK AO2 T02280206
53915KARA ARA20190506201010705/06/19 20:10:31  5-MIN KARA 070210Z AUTO 15003KT 10SM CLR 23/21 A3001 -50 87 900 150/03 RMK AO2 T02280206
53915KARA ARA20190506201510705/06/19 20:15:31  5-MIN KARA 070215Z AUTO 17003KT 10SM CLR 23/21 A3002 -60 87 900 160/03 RMK AO2 T02280206
53915KARA ARA20190506202010705/06/19 20:20:31  5-MIN KARA 070220Z AUTO 17003KT 10SM CLR 23/21 A3002 -60 87 900 170/03 RMK AO2 T02280206
53915KARA ARA20190506202510705/06/19 20:25:31  5-MIN KARA 070225Z AUTO 16003KT 10SM CLR 23/21 A3002 -60 87 900 160/03 RMK AO2 T02280206
53915KARA ARA20190506203010705/06/19 20:30:31  5-MIN KARA 070230Z AUTO 16004KT 10SM CLR 23/21 A3002 -60 87 900 150/04 RMK AO2 T02280206
53915KARA ARA20190506203510705/06/19 20:35:31  5-MIN KARA 070235Z AUTO 15004KT 10SM CLR 22/21 A3002 -60 90 800 150/04 RMK AO2 T02220206
53915KARA ARA20190506204010705/06/19 20:40:31  5-MIN KARA 070240Z AUTO 15004KT 10SM CLR 22/21 A3002 -60 93 700 150/04 RMK AO2 T02170206
53915KARA ARA20190506204510705/06/19 20:45:31  5-MIN KARA 070245Z AUTO 15004KT 10SM CLR 22/21 A3002 -60 93 700 150/04 RMK AO2 T02170206
53915KARA ARA20190506205012605/06/19 20:50:31  5-MIN KARA 070250Z AUTO 14004KT 10SM CLR 22/21 A3002 -60 90 800 140/04 RMK AO2 SLP164 60000 T02220206 53004
53915KARA ARA20190506205510705/06/19 20:55:31  5-MIN KARA 070255Z AUTO 15004KT 10SM CLR 22/21 A3002 -60 90 800 150/04 RMK AO2 T02220206
53915KARA ARA20190506210010705/06/19 21:00:31  5-MIN KARA 070300Z AUTO 14004KT 10SM CLR 22/21 A3002 -60 90 800 140/04 RMK AO2 T02220206
53915KARA ARA20190506210510705/06/19 21:05:31  5-MIN KARA 070305Z AUTO 14004KT 10SM CLR 22/21 A3002 -60 90 800 140/04 RMK AO2 T02220206
53915KARA ARA20190506211010705/06/19 21:10:31  5-MIN KARA 070310Z AUTO 13004KT 10SM CLR 22/21 A3002 -60 90 800 130/04 RMK AO2 T02220206
53915KARA ARA20190506211510705/06/19 21:15:31  5-MIN KARA 070315Z AUTO 13004KT 10SM CLR 22/21 A3002 -60 90 800 130/04 RMK AO2 T02220206
53915KARA ARA20190506212010705/06/19 21:20:31  5-MIN KARA 070320Z AUTO 13005KT 10SM CLR 22/21 A3002 -60 93 700 130/05 RMK AO2 T02170206
53915KARA ARA20190506212510705/06/19 21:25:31  5-MIN KARA 070325Z AUTO 14005KT 10SM CLR 21/20 A3002 -60 93 700 140/05 RMK AO2 T02110200
53915KARA ARA20190506213010705/06/19 21:30:31  5-MIN KARA 070330Z AUTO 13005KT 10SM CLR 21/20 A3002 -60 93 700 130/05 RMK AO2 T02110200
53915KARA ARA20190506213510705/06/19 21:35:31  5-MIN KARA 070335Z AUTO 14005KT 10SM CLR 21/20 A3002 -60 93 700 140/05 RMK AO2 T02110200
53915KARA ARA20190506214010705/06/19 21:40:31  5-MIN KARA 070340Z AUTO 14006KT 10SM CLR 21/20 A3002 -60 93 700 140/06 RMK AO2 T02110200
53915KARA ARA20190506214510705/06/19 21:45:31  5-MIN KARA 070345Z AUTO 15006KT 10SM CLR 21/20 A3002 -60 93 700 140/06 RMK AO2 T02110200
53915KARA ARA20190506215011405/06/19 21:50:31  5-MIN KARA 070350Z AUTO 14006KT 10SM CLR 21/20 A3002 -60 93 700 140/06 RMK AO2 SLP163 T02110200
53915KARA ARA20190506215510705/06/19 21:55:31  5-MIN KARA 070355Z AUTO 13005KT 10SM CLR 21/20 A3002 -60 93 700 130/05 RMK AO2 T02110200
53915KARA ARA20190506220010705/06/19 22:00:31  5-MIN KARA 070400Z AUTO 13005KT 10SM CLR 21/20 A3002 -60 93 700 130/05 RMK AO2 T02110200
53915KARA ARA20190506220510705/06/19 22:05:31  5-MIN KARA 070405Z AUTO 13005KT 10SM CLR 21/20 A3002 -60 93 700 130/05 RMK AO2 T02110200
53915KARA ARA20190506221010705/06/19 22:10:31  5-MIN KARA 070410Z AUTO 15005KT 10SM CLR 21/20 A3002 -60 93 700 150/05 RMK AO2 T02110200
53915KARA ARA20190506221510705/06/19 22:15:31  5-MIN KARA 070415Z AUTO 15004KT 10SM CLR 21/20 A3002 -60 93 700 150/04 RMK AO2 T02110200
53915KARA ARA20190506222010705/06/19 22:20:31  5-MIN KARA 070420Z AUTO 15005KT 10SM CLR 21/20 A3002 -60 93 700 150/05 RMK AO2 T02110200
53915KARA ARA20190506222510705/06/19 22:25:31  5-MIN KARA 070425Z AUTO 15005KT 10SM CLR 21/20 A3002 -60 93 700 150/05 RMK AO2 T02110200
53915KARA ARA20190506223010705/06/19 22:30:31  5-MIN KARA 070430Z AUTO 15005KT 10SM CLR 21/20 A3002 -60 93 700 150/05 RMK AO2 T02110200
53915KARA ARA20190506223510705/06/19 22:35:31  5-MIN KARA 070435Z AUTO 15005KT 10SM CLR 21/20 A3001 -50 93 700 150/05 RMK AO2 T02110200
53915KARA ARA20190506224010705/06/19 22:40:31  5-MIN KARA 070440Z AUTO 15005KT 10SM CLR 21/19 A3001 -50 90 700 150/05 RMK AO2 T02110194
53915KARA ARA20190506224510705/06/19 22:45:31  5-MIN KARA 070445Z AUTO 16005KT 10SM CLR 21/19 A3001 -50 90 700 150/05 RMK AO2 T02110194
53915KARA ARA20190506225011405/06/19 22:50:31  5-MIN KARA 070450Z AUTO 16005KT 10SM CLR 21/20 A3002 -60 97 600 160/05 RMK AO2 SLP163 T02060200
53915KARA ARA20190506225510705/06/19 22:55:31  5-MIN KARA 070455Z AUTO 15004KT 10SM CLR 21/19 A3002 -60 93 600 150/04 RMK AO2 T02060194
53915KARA ARA20190506230010705/06/19 23:00:31  5-MIN KARA 070500Z AUTO 15005KT 10SM CLR 21/19 A3002 -60 93 600 150/05 RMK AO2 T02060194
53915KARA ARA20190506230510705/06/19 23:05:31  5-MIN KARA 070505Z AUTO 16004KT 10SM CLR 21/20 A3001 -60 97 600 150/04 RMK AO2 T02060200
53915KARA ARA20190506231010705/06/19 23:10:31  5-MIN KARA 070510Z AUTO 18003KT 10SM CLR 21/20 A3002 -60 97 600 170/03 RMK AO2 T02060200
53915KARA ARA20190506231510705/06/19 23:15:31  5-MIN KARA 070515Z AUTO 17004KT 10SM CLR 21/20 A3002 -60 93 700 170/04 RMK AO2 T02110200
53915KARA ARA20190506232010705/06/19 23:20:31  5-MIN KARA 070520Z AUTO 16004KT 10SM CLR 21/20 A3001 -60 93 700 160/04 RMK AO2 T02110200
53915KARA ARA20190506232510705/06/19 23:25:31  5-MIN KARA 070525Z AUTO 15004KT 10SM CLR 20/19 A3001 -60 97 600 150/04 RMK AO2 T02000194
53915KARA ARA20190506233010705/06/19 23:30:31  5-MIN KARA 070530Z AUTO 14003KT 10SM CLR 21/19 A3001 -60 93 600 140/03 RMK AO2 T02060194
53915KARA ARA20190506233510705/06/19 23:35:31  5-MIN KARA 070535Z AUTO 16003KT 10SM CLR 21/20 A3002 -60 97 600 150/03 RMK AO2 T02060200
53915KARA ARA20190506234010705/06/19 23:40:31  5-MIN KARA 070540Z AUTO 16004KT 10SM CLR 21/20 A3002 -60 97 600 160/04 RMK AO2 T02060200
53915KARA ARA20190506234510705/06/19 23:45:31  5-MIN KARA 070545Z AUTO 16004KT 10SM CLR 21/20 A3002 -60 97 600 160/04 RMK AO2 T02060200
53915KARA ARA20190506235014805/06/19 23:50:31  5-MIN KARA 070550Z AUTO 15004KT 10SM CLR 21/19 A3002 -60 93 600 140/04 RMK AO2 SLP164 60000 T02060194 10256 20200 402940172 53006
53915KARA ARA20190506235510705/06/19 23:55:31  5-MIN KARA 070555Z AUTO 15005KT 10SM CLR 20/19 A3002 -60 97 500 140/05 RMK AO2 T02000194
53915KARA ARA20190507000010705/07/19 00:00:31  5-MIN KARA 070600Z AUTO 14005KT 10SM CLR 20/19 A3002 -60 97 500 140/05 RMK AO2 T02000194
53915KARA ARA20190507000510705/07/19 00:05:31  5-MIN KARA 070605Z AUTO 13005KT 10SM CLR 20/19 A3001 -50 97 600 130/05 RMK AO2 T02000194
53915KARA ARA20190507001010705/07/19 00:10:31  5-MIN KARA 070610Z AUTO 12004KT 10SM CLR 21/20 A3001 -60 97 600 120/04 RMK AO2 T02060200
53915KARA ARA20190507001510705/07/19 00:15:31  5-MIN KARA 070615Z AUTO 12004KT 10SM CLR 21/20 A3001 -50 97 600 120/04 RMK AO2 T02060200
53915KARA ARA20190507002010705/07/19 00:20:31  5-MIN KARA 070620Z AUTO 13004KT 10SM CLR 21/20 A3001 -60 97 600 120/04 RMK AO2 T02060200
53915KARA ARA20190507002510705/07/19 00:25:31  5-MIN KARA 070625Z AUTO 13004KT 10SM CLR 21/20 A3001 -60 97 600 130/04 RMK AO2 T02060200
53915KARA ARA20190507003010705/07/19 00:30:31  5-MIN KARA 070630Z AUTO 15003KT 10SM CLR 21/20 A3001 -60 97 600 150/03 RMK AO2 T02060200
53915KARA ARA20190507003510705/07/19 00:35:31  5-MIN KARA 070635Z AUTO 14004KT 10SM CLR 21/20 A3001 -50 97 600 140/04 RMK AO2 T02060200
53915KARA ARA20190507004010705/07/19 00:40:31  5-MIN KARA 070640Z AUTO 13005KT 10SM CLR 20/19 A3001 -50 97 600 130/05 RMK AO2 T02000194
53915KARA ARA20190507004510705/07/19 00:45:31  5-MIN KARA 070645Z AUTO 12005KT 10SM CLR 21/20 A3001 -50 97 600 120/05 RMK AO2 T02060200
53915KARA ARA20190507005011405/07/19 00:50:31  5-MIN KARA 070650Z AUTO 13005KT 10SM CLR 21/20 A3000 -50 97 600 130/05 RMK AO2 SLP160 T02060200
53915KARA ARA20190507005510705/07/19 00:55:31  5-MIN KARA 070655Z AUTO 13004KT 10SM CLR 21/20 A3000 -50 97 600 130/04 RMK AO2 T02060200
53915KARA ARA20190507010010705/07/19 01:00:31  5-MIN KARA 070700Z AUTO 12003KT 10SM CLR 21/20 A3000 -40 97 600 120/03 RMK AO2 T02060200
53915KARA ARA20190507010510705/07/19 01:05:31  5-MIN KARA 070705Z AUTO 00000KT 10SM CLR 21/20 A3000 -40 93 700 000/00 RMK AO2 T02110200
53915KARA ARA20190507011010705/07/19 01:10:31  5-MIN KARA 070710Z AUTO 00000KT 10SM CLR 21/20 A3000 -40 93 700 000/00 RMK AO2 T02110200
53915KARA ARA20190507011510705/07/19 01:15:31  5-MIN KARA 070715Z AUTO 13004KT 10SM CLR 21/20 A3000 -40 93 700 120/04 RMK AO2 T02110200
53915KARA ARA20190507012010705/07/19 01:20:31  5-MIN KARA 070720Z AUTO 13004KT 10SM CLR 21/20 A3000 -40 93 700 130/04 RMK AO2 T02110200
53915KARA ARA20190507012510705/07/19 01:25:31  5-MIN KARA 070725Z AUTO 13004KT 10SM CLR 21/20 A3000 -40 93 700 130/04 RMK AO2 T02110200
53915KARA ARA20190507013010705/07/19 01:30:31  5-MIN KARA 070730Z AUTO 13004KT 10SM CLR 21/20 A2999 -40 93 700 130/04 RMK AO2 T02110200
53915KARA ARA20190507013510705/07/19 01:35:31  5-MIN KARA 070735Z AUTO 15004KT 10SM CLR 21/20 A3000 -40 93 700 150/04 RMK AO2 T02110200
53915KARA ARA20190507014010705/07/19 01:40:31  5-MIN KARA 070740Z AUTO 17004KT 10SM CLR 21/21 A3000 -40 97 700 170/04 RMK AO2 T02110206
53915KARA ARA20190507014510705/07/19 01:45:31  5-MIN KARA 070745Z AUTO 18004KT 10SM CLR 21/21 A3000 -50 97 700 180/04 RMK AO2 T02110206
53915KARA ARA20190507015011405/07/19 01:50:31  5-MIN KARA 070750Z AUTO 19003KT 10SM CLR 21/21 A3001 -50 97 700 180/03 RMK AO2 SLP160 T02110206
53915KARA ARA20190507015510705/07/19 01:55:31  5-MIN KARA 070755Z AUTO 00000KT 10SM CLR 21/20 A3001 -50 93 700 000/00 RMK AO2 T02110200
53915KARA ARA20190507020010705/07/19 02:00:31  5-MIN KARA 070800Z AUTO 00000KT 10SM CLR 21/20 A3001 -50 93 700 000/00 RMK AO2 T02110200
53915KARA ARA20190507020510705/07/19 02:05:31  5-MIN KARA 070805Z AUTO 00000KT 10SM CLR 21/20 A3000 -50 93 700 000/00 RMK AO2 T02110200
53915KARA ARA20190507021010705/07/19 02:10:31  5-MIN KARA 070810Z AUTO 11004KT 10SM CLR 21/20 A3000 -40 93 700 110/04 RMK AO2 T02110200
53915KARA ARA20190507021510705/07/19 02:15:31  5-MIN KARA 070815Z AUTO 10004KT 10SM CLR 21/20 A3000 -40 93 700 100/04 RMK AO2 T02110200
53915KARA ARA20190507022010705/07/19 02:20:31  5-MIN KARA 070820Z AUTO 09003KT 10SM CLR 21/20 A3000 -40 93 700 090/03 RMK AO2 T02110200
53915KARA ARA20190507022510705/07/19 02:25:31  5-MIN KARA 070825Z AUTO 09003KT 10SM CLR 21/20 A3000 -40 93 700 090/03 RMK AO2 T02110200
53915KARA ARA20190507023010705/07/19 02:30:31  5-MIN KARA 070830Z AUTO 00000KT 10SM CLR 21/20 A3000 -40 93 700 000/00 RMK AO2 T02110200
53915KARA ARA20190507023510705/07/19 02:35:31  5-MIN KARA 070835Z AUTO 16003KT 10SM CLR 21/20 A3000 -50 93 700 150/03 RMK AO2 T02110200
53915KARA ARA20190507024010705/07/19 02:40:31  5-MIN KARA 070840Z AUTO 13005KT 10SM CLR 21/20 A3000 -40 97 600 130/05 RMK AO2 T02060200
53915KARA ARA20190507024510705/07/19 02:45:31  5-MIN KARA 070845Z AUTO 13007KT 10SM CLR 21/20 A2999 -40 97 600 130/07 RMK AO2 T02060200
53915KARA ARA20190507025012005/07/19 02:50:31  5-MIN KARA 070850Z AUTO 13008KT 10SM CLR 21/21 A2999 -30 97 700 130/08 RMK AO2 SLP154 T02110206 55000
53915KARA ARA20190507025510705/07/19 02:55:31  5-MIN KARA 070855Z AUTO 13008KT 10SM CLR 21/21 A2998 -30 97 700 130/08 RMK AO2 T02110206
53915KARA ARA20190507030010705/07/19 03:00:31  5-MIN KARA 070900Z AUTO 13006KT 10SM CLR 21/21 A2998 -20 97 700 130/06 RMK AO2 T02110206
53915KARA ARA20190507030510705/07/19 03:05:31  5-MIN KARA 070905Z AUTO 15004KT 10SM CLR 21/21 A2999 -30 97 700 150/04 RMK AO2 T02110206
53915KARA ARA20190507031010705/07/19 03:10:31  5-MIN KARA 070910Z AUTO 19003KT 10SM CLR 21/21 A3000 -40 97 700 190/03 RMK AO2 T02110206
53915KARA ARA20190507031510705/07/19 03:15:31  5-MIN KARA 070915Z AUTO 17003KT 10SM CLR 21/21 A2999 -40 97 700 170/03 RMK AO2 T02110206
53915KARA ARA20190507032010705/07/19 03:20:31  5-MIN KARA 070920Z AUTO 13004KT 10SM CLR 21/20 A2999 -30 93 700 120/04 RMK AO2 T02110200
53915KARA ARA20190507032510705/07/19 03:25:31  5-MIN KARA 070925Z AUTO 11007KT 10SM CLR 21/21 A2998 -20 97 700 110/07 RMK AO2 T02110206
53915KARA ARA20190507033011405/07/19 03:30:31  5-MIN KARA 070930Z AUTO 11009KT 10SM CLR 21/21 A2997 -20 97 700 110/09 RMK AO2 PRESFR T02110206
53915KARA ARA20190507033510705/07/19 03:35:31  5-MIN KARA 070935Z AUTO 12009KT 10SM CLR 22/21 A2997 -20 93 800 120/09 RMK AO2 T02170206
53915KARA ARA20190507034010705/07/19 03:40:31  5-MIN KARA 070940Z AUTO 12008KT 10SM CLR 22/21 A2997 -20 93 800 120/08 RMK AO2 T02170206
53915KARA ARA20190507034510705/07/19 03:45:31  5-MIN KARA 070945Z AUTO 13009KT 10SM CLR 22/21 A2997 -20 93 800 130/09 RMK AO2 T02170206
53915KARA ARA20190507035011405/07/19 03:50:31  5-MIN KARA 070950Z AUTO 14008KT 10SM CLR 22/21 A2997 -20 93 800 130/08 RMK AO2 SLP149 T02170206
53915KARA ARA20190507035510705/07/19 03:55:31  5-MIN KARA 070955Z AUTO 15007KT 10SM CLR 22/21 A2998 -20 93 800 150/07 RMK AO2 T02170206
53915KARA ARA20190507040010705/07/19 04:00:31  5-MIN KARA 071000Z AUTO 14005KT 10SM CLR 22/21 A2998 -20 93 800 140/05 RMK AO2 T02170206
53915KARA ARA20190507040510705/07/19 04:05:31  5-MIN KARA 071005Z AUTO 13006KT 10SM CLR 22/21 A2998 -20 93 800 130/06 RMK AO2 T02170206
53915KARA ARA20190507042010705/07/19 04:20:31  5-MIN KARA 071020Z AUTO 12007KT 10SM CLR 22/21 A2998 -20 93 800 110/07 RMK AO2 T02170206
53915KARA ARA20190507042510705/07/19 04:25:31  5-MIN KARA 071025Z AUTO 11007KT 10SM CLR 22/21 A2998 -30 93 800 110/07 RMK AO2 T02170206
53915KARA ARA20190507043010705/07/19 04:30:31  5-MIN KARA 071030Z AUTO 11006KT 10SM CLR 22/21 A2999 -30 93 800 110/06 RMK AO2 T02170206
53915KARA ARA20190507043510205/07/19 04:35:31  5-MIN KARA 071035Z 13006KT 10SM CLR 22/21 A3000 -40 93 800 130/06 RMK AO2 T02170206
53915KARA ARA20190507044010205/07/19 04:40:31  5-MIN KARA 071040Z 13004KT 10SM CLR 22/21 A3000 -40 93 800 130/04 RMK AO2 T02170206
53915KARA ARA20190507044510205/07/19 04:45:31  5-MIN KARA 071045Z 13004KT 10SM CLR 21/21 A3000 -40 97 700 130/04 RMK AO2 T02110206
53915KARA ARA20190507045010905/07/19 04:50:31  5-MIN KARA 071050Z 11005KT 10SM CLR 22/21 A3000 -40 93 800 110/05 RMK AO2 SLP159 T02170206
53915KARA ARA20190507045510205/07/19 04:55:31  5-MIN KARA 071055Z 10007KT 10SM CLR 22/21 A3000 -40 93 800 100/07 RMK AO2 T02170206
53915KARA ARA20190507050010205/07/19 05:00:31  5-MIN KARA 071100Z 10008KT 10SM CLR 22/21 A3000 -50 93 800 100/08 RMK AO2 T02170206
53915KARA ARA20190507050510205/07/19 05:05:31  5-MIN KARA 071105Z 11006KT 10SM CLR 22/21 A3001 -50 93 800 110/06 RMK AO2 T02170206
53915KARA ARA20190507051010205/07/19 05:10:31  5-MIN KARA 071110Z 13005KT 10SM CLR 22/21 A3001 -50 93 700 120/05 RMK AO2 T02170206
53915KARA ARA20190507051510205/07/19 05:15:31  5-MIN KARA 071115Z 11005KT 10SM CLR 22/21 A3002 -60 93 700 110/05 RMK AO2 T02170206
53915KARA ARA20190507052010205/07/19 05:20:31  5-MIN KARA 071120Z 11006KT 10SM CLR 22/21 A3002 -60 93 700 110/06 RMK AO2 T02170206
53915KARA ARA20190507052510205/07/19 05:25:31  5-MIN KARA 071125Z 12005KT 10SM CLR 22/21 A3003 -70 93 700 120/05 RMK AO2 T02170206
53915KARA ARA20190507053010205/07/19 05:30:31  5-MIN KARA 071130Z 12006KT 10SM CLR 22/21 A3003 -70 93 700 120/06 RMK AO2 T02170206
53915KARA ARA20190507053510205/07/19 05:35:31  5-MIN KARA 071135Z 11006KT 10SM CLR 22/21 A3004 -80 93 700 110/06 RMK AO2 T02170206
53915KARA ARA20190507054010205/07/19 05:40:31  5-MIN KARA 071140Z 09005KT 10SM CLR 22/21 A3004 -80 93 700 090/05 RMK AO2 T02170206
53915KARA ARA20190507054510205/07/19 05:45:31  5-MIN KARA 071145Z 07004KT 10SM CLR 22/21 A3004 -80 93 700 070/04 RMK AO2 T02170206
53915KARA ARA20190507055012705/07/19 05:50:31  5-MIN KARA 071150Z 08004KT 10SM CLR 22/21 A3004 -80 93 700 080/04 RMK AO2 SLP173 T02170206 10217 20200 58012
53915KARA ARA20190507055510205/07/19 05:55:31  5-MIN KARA 071155Z 09006KT 10SM CLR 22/21 A3004 -80 93 700 090/06 RMK AO2 T02170206
53915KARA ARA20190507060016505/07/19 06:00:31  5-MIN KARA 071200Z 08005KT 10SM CLR 22/21 A3004 -80 93 700 080/05 RMK AO2 T021702061000 160/09 RMK AO2 SLP181 T0244021705/07/19 07:552560217 53021
53915KARA ARA20190507085510305/07/19 08:55:31  5-MIN KARA 071455Z 14006KT 10SM CLR 26/22 A3005 -90 79 1200 140/06 RMK AO2 T02610222
53915KARA ARA20190507090010305/07/19 09:00:31  5-MIN KARA 071500Z 15006KT 10SM CLR 26/22 A3005 -90 79 1200 150/06 RMK AO2 T02610222
53915KARA ARA20190507090510605/07/19 09:05:31  5-MIN KARA 071505Z 14006KT 10SM FEW019 26/22 A3005 -90 79 1200 140/06 RMK AO2 T02610222
53915KARA ARA20190507091010605/07/19 09:10:31  5-MIN KARA 071510Z VRB06KT 10SM SCT019 26/22 A3005 -90 76 1200 VRB/06 RMK AO2 T02610217
53915KARA ARA20190507091510605/07/19 09:15:31  5-MIN KARA 071515Z 16008KT 10SM SCT019 26/22 A3005 -90 79 1200 160/08 RMK AO2 T02610222
53915KARA ARA20190507092010605/07/19 09:20:31  5-MIN KARA 071520Z 18007KT 10SM SCT019 27/22 A3005 -90 76 1300 180/07 RMK AO2 T02670222
53915KARA ARA20190507092510605/07/19 09:25:31  5-MIN KARA 071525Z 14006KT 10SM SCT021 27/22 A3006 -90 74 1300 140/06 RMK AO2 T02720222
53915KARA ARA20190507093010705/07/19 09:30:31  5-MIN KARA 071530Z 15008KT 10SM SCT021 27/22 A3006 -100 71 1300 150/08 RMK AO2 T02720217
53915KARA ARA20190507093510705/07/19 09:35:31  5-MIN KARA 071535Z 15010KT 10SM SCT021 27/22 A3006 -100 74 1300 140/10 RMK AO2 T02720222
53915KARA ARA20190507094010705/07/19 09:40:31  5-MIN KARA 071540Z 14009KT 10SM SCT020 27/22 A3006 -100 71 1300 140/09 RMK AO2 T02720217
53915KARA ARA20190507094510705/07/19 09:45:31  5-MIN KARA 071545Z 16008KT 10SM SCT022 28/22 A3006 -100 71 1400 160/08 RMK AO2 T02780222
53915KARA ARA20190507095011405/07/19 09:50:31  5-MIN KARA 071550Z 16007KT 10SM SCT022 27/22 A3006 -100 71 1300 160/07 RMK AO2 SLP179 T02720217
53915KARA ARA20190507095510705/07/19 09:55:31  5-MIN KARA 071555Z 13009KT 10SM SCT024 28/22 A3006 -100 71 1400 130/09 RMK AO2 T02780222
53915KARA ARA20190507100010705/07/19 10:00:31  5-MIN KARA 071600Z 16006KT 10SM SCT024 28/22 A3006 -100 66 1400 160/06 RMK AO2 T02830217
53915KARA ARA20190507100510705/07/19 10:05:31  5-MIN KARA 071605Z 16009KT 10SM SCT024 28/22 A3006 -100 69 1400 160/09 RMK AO2 T02780217
53915KARA ARA20190507101010705/07/19 10:10:31  5-MIN KARA 071610Z 16009KT 10SM SCT024 28/22 A3006 -100 69 1400 160/09 RMK AO2 T02830222
53915KARA ARA20190507101510705/07/19 10:15:31  5-MIN KARA 071615Z 18009KT 10SM FEW024 28/22 A3006 -100 69 1400 180/09 RMK AO2 T02830222
53915KARA ARA20190507102011405/07/19 10:20:31  5-MIN KARA 071620Z 14010KT 10SM FEW024 SCT034 28/22 A3006 -100 66 1400 130/10 RMK AO2 T02830217
53915KARA ARA20190507102511405/07/19 10:25:31  5-MIN KARA 071625Z 14009KT 10SM SCT026 SCT034 28/22 A3006 -100 66 1400 140/09 RMK AO2 T02830217
53915KARA ARA20190507103011405/07/19 10:30:31  5-MIN KARA 071630Z 17007KT 10SM FEW026 SCT034 28/22 A3006 -100 69 1400 170/07 RMK AO2 T02780217
53915KARA ARA20190507103513005/07/19 10:35:31  5-MIN KARA 071635Z 17009KT 140V210 10SM SCT029 BKN036 28/22 A3006 -100 69 1400 170/09 140V210 RMK AO2 T02780217
53915KARA ARA20190507104011405/07/19 10:40:31  5-MIN KARA 071640Z 17008KT 10SM BKN029 BKN036 28/22 A3006 -100 69 1400 170/08 RMK AO2 T02780217
53915KARA ARA20190507104511405/07/19 10:45:31  5-MIN KARA 071645Z 17009KT 10SM BKN029 BKN036 28/22 A3006 -100 69 1400 170/09 RMK AO2 T02780217
53915KARA ARA20190507105010405/07/19 10:50:31  5-MIN KARA 071650Z 16008KT 10SM SCT029 BKN035 28/22 A3006 -100 69 1400 160/08 RMK AO2
53915KARA ARA20190507105511405/07/19 10:55:31  5-MIN KARA 071655Z 16009KT 10SM BKN029 BKN037 28/22 A3006 -100 69 1400 160/09 RMK AO2 T02780217
53915KARA ARA20190507110011405/07/19 11:00:31  5-MIN KARA 071700Z 19010KT 10SM BKN030 BKN037 28/22 A3006 -100 69 1400 190/10 RMK AO2 T02830222
53915KARA ARA20190507110510705/07/19 11:05:31  5-MIN KARA 071705Z 18007KT 10SM BKN030 29/22 A3006 -100 67 1500 180/07 RMK AO2 T02890222
53915KARA ARA20190507111010605/07/19 11:10:31  5-MIN KARA 071710Z 16010KT 10SM BKN030 29/22 A3005 -90 67 1500 160/10 RMK AO2 T02890222
53915KARA ARA20190507111510605/07/19 11:15:31  5-MIN KARA 071715Z 18007KT 10SM SCT031 29/22 A3005 -90 64 1500 180/07 RMK AO2 T02890217
53915KARA ARA20190507112010605/07/19 11:20:31  5-MIN KARA 071720Z 19008KT 10SM SCT031 29/22 A3005 -90 67 1500 190/08 RMK AO2 T02890222
53915KARA ARA20190507112510605/07/19 11:25:31  5-MIN KARA 071725Z 17008KT 10SM FEW031 29/22 A3005 -90 67 1500 170/08 RMK AO2 T02890222
53915KARA ARA20190507113010605/07/19 11:30:31  5-MIN KARA 071730Z 17010KT 10SM FEW031 29/22 A3005 -90 64 1500 170/10 RMK AO2 T02890217
53915KARA ARA20190507113510305/07/19 11:35:31  5-MIN KARA 071735Z 18009KT 10SM CLR 29/22 A3005 -80 64 1500 180/09 RMK AO2 T02890217
53915KARA ARA20190507114010305/07/19 11:40:31  5-MIN KARA 071740Z 17006KT 10SM CLR 29/22 A3004 -80 64 1500 170/06 RMK AO2 T02890217
53915KARA ARA20190507114510305/07/19 11:45:31  5-MIN KARA 071745Z 18011KT 10SM CLR 29/22 A3004 -80 64 1500 180/11 RMK AO2 T02890217
53915KARA ARA20190507115012805/07/19 11:50:31  5-MIN KARA 071750Z 17009KT 10SM CLR 29/22 A3004 -80 62 1600 170/09 RMK AO2 SLP172 T02940217 10294 20217 50004
53915KARA ARA20190507115510605/07/19 11:55:31  5-MIN KARA 071755Z 18009KT 10SM FEW037 29/21 A3004 -80 62 1500 180/09 RMK AO2 T02890211
53915KARA ARA20190507120010605/07/19 12:00:31  5-MIN KARA 071800Z 17008KT 10SM SCT035 29/21 A3004 -80 62 1500 170/08 RMK AO2 T02890211
53915KARA ARA20190507120510605/07/19 12:05:31  5-MIN KARA 071805Z 18007KT 10SM SCT035 29/21 A3003 -70 62 1500 180/07 RMK AO2 T02890211
53915KARA ARA20190507121010605/07/19 12:10:31  5-MIN KARA 071810Z 15008KT 10SM SCT036 29/21 A3003 -70 62 1500 150/08 RMK AO2 T02890211
53915KARA ARA20190507121510605/07/19 12:15:31  5-MIN KARA 071815Z 14009KT 10SM BKN036 29/21 A3003 -70 60 1600 140/09 RMK AO2 T02940211
53915KARA ARA20190507122010605/07/19 12:20:31  5-MIN KARA 071820Z 16009KT 10SM BKN036 29/21 A3003 -70 60 1600 160/09 RMK AO2 T02940211
53915KARA ARA20190507122510605/07/19 12:25:31  5-MIN KARA 071825Z 13010KT 10SM BKN039 29/20 A3002 -60 58 1600 130/10 RMK AO2 T02890200
53915KARA ARA20190507123010605/07/19 12:30:31  5-MIN KARA 071830Z 14007KT 10SM SCT039 30/21 A3002 -60 58 1700 140/07 RMK AO2 T03000211
53915KARA ARA20190507123511205/07/19 12:35:31  5-MIN KARA 071835Z 16012G16KT 10SM SCT039 29/21 A3002 -60 58 1600 160/12G16 RMK AO2 T02940206
53915KARA ARA20190507124011205/07/19 12:40:31  5-MIN KARA 071840Z 16006G16KT 10SM SCT041 29/21 A3002 -60 60 1600 160/06G16 RMK AO2 T02940211
53915KARA ARA20190507124510605/07/19 12:45:31  5-MIN KARA 071845Z 15009KT 10SM FEW043 30/21 A3001 -50 56 1700 150/09 RMK AO2 T03000206
53915KARA ARA20190507125011305/07/19 12:50:31  5-MIN KARA 071850Z 14008KT 10SM FEW043 31/21 A3001 -50 54 1800 140/08 RMK AO2 SLP162 T03060206
53915KARA ARA20190507125510605/07/19 12:55:31  5-MIN KARA 071855Z 17010KT 10SM FEW043 30/21 A3001 -50 56 1700 170/10 RMK AO2 T03000206
53915KARA ARA20190507130010605/07/19 13:00:31  5-MIN KARA 071900Z 17011KT 10SM FEW043 30/20 A3000 -40 54 1700 170/11 RMK AO2 T03000200
53915KARA ARA20190507130510605/07/19 13:05:31  5-MIN KARA 071905Z 16012KT 10SM FEW045 30/20 A3000 -40 54 1700 160/12 RMK AO2 T03000200
53915KARA ARA20190507131010305/07/19 13:10:31  5-MIN KARA 071910Z 19008KT 10SM CLR 30/21 A3000 -40 56 1700 190/08 RMK AO2 T03000206
53915KARA ARA20190507131510305/07/19 13:15:31  5-MIN KARA 071915Z 17010KT 10SM CLR 30/21 A3000 -40 56 1700 170/10 RMK AO2 T03000206
53915KARA ARA20190507132010905/07/19 13:20:31  5-MIN KARA 071920Z 16007G15KT 10SM CLR 30/20 A3000 -40 54 1700 160/07G15 RMK AO2 T03000200
53915KARA ARA20190507132510305/07/19 13:25:31  5-MIN KARA 071925Z 17009KT 10SM CLR 31/21 A3000 -40 54 1800 160/09 RMK AO2 T03060206
53915KARA ARA20190507133011905/07/19 13:30:31  5-MIN KARA 071930Z 17008KT 140V210 10SM CLR 31/21 A3000 -40 54 1800 170/08 140V210 RMK AO2 T03060206
53915KARA ARA20190507133510305/07/19 13:35:31  5-MIN KARA 071935Z 15007KT 10SM CLR 30/21 A3000 -40 56 1700 150/07 RMK AO2 T03000206
53915KARA ARA20190507134010605/07/19 13:40:31  5-MIN KARA 071940Z 19009KT 10SM FEW041 31/21 A3000 -40 56 1800 190/09 RMK AO2 T03060211
53915KARA ARA20190507134510605/07/19 13:45:31  5-MIN KARA 071945Z 18011KT 10SM FEW041 31/21 A3001 -50 56 1800 180/11 RMK AO2 T03060211
53915KARA ARA20190507135012005/07/19 13:50:31  5-MIN KARA 071950Z 19009KT 10SM SCT041 SCT049 31/21 A3001 -50 56 1800 180/09 RMK AO2 SLP161 T03060211
53915KARA ARA20190507135511305/07/19 13:55:31  5-MIN KARA 071955Z 20007KT 10SM SCT044 BKN060 30/21 A3001 -50 58 1700 200/07 RMK AO2 T03000211
53915KARA ARA20190507140012005/07/19 14:00:31  5-MIN KARA 072000Z 18010KT 10SM SCT042 SCT049 BKN060 31/21 A3001 -50 56 1800 180/10 RMK AO2 T03060211
53915KARA ARA20190507140510605/07/19 14:05:31  5-MIN KARA 072005Z 18007KT 10SM SCT044 30/20 A3000 -40 54 1700 180/07 RMK AO2 T03000200
53915KARA ARA20190507141011305/07/19 14:10:31  5-MIN KARA 072010Z 17009KT 10SM BKN044 BKN060 31/21 A3000 -40 54 1800 170/09 RMK AO2 T03060206
53915KARA ARA20190507141511305/07/19 14:15:31  5-MIN KARA 072015Z 18006KT 10SM SCT045 BKN060 31/20 A3000 -40 52 1800 180/06 RMK AO2 T03060200
53915KARA ARA20190507142012905/07/19 14:20:31  5-MIN KARA 072020Z 15009KT 120V200 10SM SCT045 BKN055 31/21 A3000 -40 56 1800 150/09 120V200 RMK AO2 T03060211
53915KARA ARA20190507142511305/07/19 14:25:31  5-MIN KARA 072025Z 16006KT 10SM SCT043 SCT055 31/21 A2999 -40 54 1800 160/06 RMK AO2 T03060206
53915KARA ARA20190507143011305/07/19 14:30:31  5-MIN KARA 072030Z 16011KT 10SM SCT043 SCT055 31/21 A2999 -30 56 1800 160/11 RMK AO2 T03060211
53915KARA ARA20190507143511305/07/19 14:35:31  5-MIN KARA 072035Z 16010KT 10SM FEW043 SCT055 31/21 A2999 -30 56 1800 160/10 RMK AO2 T03060211
53915KARA ARA20190507144011305/07/19 14:40:31  5-MIN KARA 072040Z 19012KT 10SM SCT042 SCT055 30/22 A2999 -30 62 1700 190/12 RMK AO2 T03000222
53915KARA ARA20190507144510605/07/19 14:45:31  5-MIN KARA 072045Z 19009KT 10SM SCT042 30/22 A2999 -30 62 1700 180/09 RMK AO2 T03000222
53915KARA ARA20190507145011905/07/19 14:50:31  5-MIN KARA 072050Z 18010KT 10SM BKN042 29/22 A2998 -30 64 1700 180/10 RMK AO2 SLP152 T02940222 58005
53915KARA ARA20190507145511305/07/19 14:55:31  5-MIN KARA 072055Z 16009KT 10SM SCT039 SCT046 29/22 A2998 -20 64 1700 160/09 RMK AO2 T02940222
53915KARA ARA20190507150011305/07/19 15:00:31  5-MIN KARA 072100Z 19007KT 10SM SCT039 SCT046 30/22 A2998 -20 62 1700 190/07 RMK AO2 T03000222
53915KARA ARA20190507150511305/07/19 15:05:31  5-MIN KARA 072105Z 16010KT 10SM SCT037 BKN046 29/22 A2998 -20 64 1700 160/10 RMK AO2 T02940222
53915KARA ARA20190507151011305/07/19 15:10:31  5-MIN KARA 072110Z 17010KT 10SM SCT037 SCT046 29/22 A2998 -20 64 1700 170/10 RMK AO2 T02940222
53915KARA ARA20190507151510605/07/19 15:15:31  5-MIN KARA 072115Z 18012KT 10SM SCT035 29/22 A2998 -20 64 1700 180/12 RMK AO2 T02940222
53915KARA ARA20190507151519005/07/19 15:15:31  5-MIN KARA 072115Z 18012KT 10SM SCT035 29/22 A2998 -20 64 1700 180/12 RMK AO2 T029402 072215Z 19012KT 10SM CLR 28/22 A2998 -20 66 1500 190/12 RMK AO2 LTG DSNT NW T02830217
53915KARA ARA20190507152010605/07/19 15:20:31  5-MIN KARA 072120Z 17012KT 10SM SCT035 29/22 A2998 -20 64 1700 170/12 RMK AO2 T02940222
53915KARA ARA20190507152510605/07/19 15:25:31  5-MIN KARA 072125Z 19012KT 10SM SCT035 29/22 A2998 -20 64 1700 190/12 RMK AO2 T02940222
53915KARA ARA20190507153010605/07/19 15:30:31  5-MIN KARA 072130Z 19012KT 10SM FEW035 29/22 A2998 -20 67 1600 190/12 RMK AO2 T02890222
53915KARA ARA20190507153510605/07/19 15:35:31  5-MIN KARA 072135Z 18010KT 10SM FEW034 29/22 A2998 -20 67 1600 180/10 RMK AO2 T02890222
53915KARA ARA20190507154010605/07/19 15:40:31  5-MIN KARA 072140Z 17012KT 10SM FEW034 29/22 A2998 -20 67 1600 170/12 RMK AO2 T02890222
53915KARA ARA20190507154510305/07/19 15:45:31  5-MIN KARA 072145Z 18013KT 10SM CLR 29/22 A2998 -20 64 1600 180/13 RMK AO2 T02890217
53915KARA ARA20190507155011005/07/19 15:50:31  5-MIN KARA 072150Z 18012KT 10SM CLR 29/22 A2998 -20 64 1600 180/12 RMK AO2 SLP150 T02890217
53915KARA ARA20190507155511505/07/19 15:55:31  5-MIN KARA 072155Z 18011KT 10SM CLR 29/22 A2998 -20 64 1600 180/11 RMK AO2 LTG DSNT NW T02890217
53915KARA ARA20190507160011505/07/19 16:00:31  5-MIN KARA 072200Z 17012KT 10SM CLR 29/22 A2998 -20 64 1600 170/12 RMK AO2 LTG DSNT NW T02890217
53915KARA ARA20190507160511505/07/19 16:05:31  5-MIN KARA 072205Z 18010KT 10SM CLR 29/22 A2998 -20 67 1600 180/10 RMK AO2 LTG DSNT NW T02890222
53915KARA ARA20190507161011505/07/19 16:10:31  5-MIN KARA 072210Z 18011KT 10SM CLR 28/22 A2998 -20 66 1500 180/11 RMK AO2 LTG DSNT NW T02830217
53915KARA ARA20190507161511505/07/19 16:15:31  5-MIN KARA 072215Z 19012KT 10SM CLR 28/22 A2998 -20 66 1500 190/12 RMK AO2 LTG DSNT NW T02830217
53915KARA ARA20190507162012105/07/19 16:20:31  5-MIN KARA 072220Z 19012G18KT 10SM CLR 28/22 A2997 -20 66 1500 190/12G18 RMK AO2 LTG DSNT NW T02830217
53915KARA ARA20190507162511505/07/19 16:25:31  5-MIN KARA 072225Z 17012KT 10SM CLR 28/22 A2997 -20 69 1500 170/12 RMK AO2 LTG DSNT NW T02830222
53915KARA ARA20190507163011505/07/19 16:30:31  5-MIN KARA 072230Z 18012KT 10SM CLR 28/22 A2997 -20 66 1500 180/12 RMK AO2 LTG DSNT NW T02830217
53915KARA ARA20190507163511505/07/19 16:35:31  5-MIN KARA 072235Z 18012KT 10SM CLR 28/22 A2997 -20 71 1500 180/12 RMK AO2 LTG DSNT NW T02780222
53915KARA ARA20190507164011505/07/19 16:40:31  5-MIN KARA 072240Z 18013KT 10SM CLR 28/22 A2997 -20 71 1500 180/13 RMK AO2 LTG DSNT NW T02780222
53915KARA ARA20190507164511505/07/19 16:45:31  5-MIN KARA 072245Z 18013KT 10SM CLR 28/22 A2997 -20 71 1500 180/13 RMK AO2 LTG DSNT NW T02780222
53915KARA ARA20190507165012205/07/19 16:50:31  5-MIN KARA 072250Z 17011KT 10SM CLR 28/22 A2997 -20 71 1500 170/11 RMK AO2 LTG DSNT NW SLP148 T02780222
53915KARA ARA20190507165510305/07/19 16:55:31  5-MIN KARA 072255Z 18013KT 10SM CLR 28/22 A2997 -10 71 1500 180/13 RMK AO2 T02780222
53915KARA ARA20190507170010305/07/19 17:00:31  5-MIN KARA 072300Z 17012KT 10SM CLR 28/22 A2997 -10 71 1500 170/12 RMK AO2 T02780222
53915KARA ARA20190507170510305/07/19 17:05:31  5-MIN KARA 072305Z 18011KT 10SM CLR 27/22 A2997 -10 74 1400 180/11 RMK AO2 T02720222
53915KARA ARA20190507171010305/07/19 17:10:31  5-MIN KARA 072310Z 18012KT 10SM CLR 27/22 A2997 -10 74 1400 180/12 RMK AO2 T02720222
53915KARA ARA20190507171510305/07/19 17:15:31  5-MIN KARA 072315Z 18012KT 10SM CLR 27/22 A2997 -10 74 1400 180/12 RMK AO2 T02720222
53915KARA ARA20190507172010305/07/19 17:20:31  5-MIN KARA 072320Z 18010KT 10SM CLR 27/22 A2997 -10 74 1400 180/10 RMK AO2 T02720222
53915KARA ARA20190507172510305/07/19 17:25:31  5-MIN KARA 072325Z 17010KT 10SM CLR 27/22 A2997 -10 76 1400 170/10 RMK AO2 T02670222
53915KARA ARA20190507173010305/07/19 17:30:31  5-MIN KARA 072330Z 17011KT 10SM CLR 27/22 A2997 -10 76 1400 170/11 RMK AO2 T02670222
53915KARA ARA20190507173510305/07/19 17:35:31  5-MIN KARA 072335Z 17012KT 10SM CLR 27/22 A2997 -10 76 1400 170/12 RMK AO2 T02670222
53915KARA ARA20190507174010305/07/19 17:40:31  5-MIN KARA 072340Z 17012KT 10SM CLR 27/22 A2997 -20 76 1400 170/12 RMK AO2 T02670222
53915KARA ARA20190507174510905/07/19 17:45:31  5-MIN KARA 072345Z 18009G18KT 10SM CLR 27/22 A2997 -20 76 1400 170/09G18 RMK AO2 T02670222
53915KARA ARA20190507175012805/07/19 17:50:31  5-MIN KARA 072350Z 17009KT 10SM CLR 26/22 A2997 -20 79 1300 170/09 RMK AO2 SLP149 T02610222 10306 20261 56020
53915KARA ARA20190507175510305/07/19 17:55:31  5-MIN KARA 072355Z 17011KT 10SM CLR 26/22 A2998 -20 76 1300 170/11 RMK AO2 T02610217
53915KARA ARA20190507180010305/07/19 18:00:31  5-MIN KARA 080000Z 17009KT 10SM CLR 26/22 A2998 -20 76 1300 170/09 RMK AO2 T02610217
53915KARA ARA20190507180510305/07/19 18:05:31  5-MIN KARA 080005Z 16010KT 10SM CLR 26/22 A2998 -20 76 1300 160/10 RMK AO2 T02610217
53915KARA ARA20190507181010305/07/19 18:10:31  5-MIN KARA 080010Z 17010KT 10SM CLR 26/22 A2998 -20 76 1300 170/10 RMK AO2 T02610217
53915KARA ARA20190507181510305/07/19 18:15:31  5-MIN KARA 080015Z 17011KT 10SM CLR 26/22 A2998 -20 76 1300 170/11 RMK AO2 T02610217
53915KARA ARA20190507182010305/07/19 18:20:31  5-MIN KARA 080020Z 17010KT 10SM CLR 26/22 A2998 -20 76 1300 170/10 RMK AO2 T02610217
53915KARA ARA20190507182510305/07/19 18:25:31  5-MIN KARA 080025Z 16008KT 10SM CLR 26/22 A2998 -20 76 1300 160/08 RMK AO2 T02610217
53915KARA ARA20190507183010305/07/19 18:30:31  5-MIN KARA 080030Z 17011KT 10SM CLR 26/21 A2998 -20 73 1300 170/11 RMK AO2 T02610211
53915KARA ARA20190507183510305/07/19 18:35:31  5-MIN KARA 080035Z 17009KT 10SM CLR 26/21 A2998 -20 76 1200 170/09 RMK AO2 T02560211
53915KARA ARA20190507184010305/07/19 18:40:31  5-MIN KARA 080040Z 16008KT 10SM CLR 26/21 A2998 -20 76 1200 160/08 RMK AO2 T02560211
53915KARA ARA20190507184510305/07/19 18:45:31  5-MIN KARA 080045Z 16007KT 10SM CLR 26/21 A2998 -20 76 1200 160/07 RMK AO2 T02560211
53915KARA ARA20190507185011005/07/19 18:50:31  5-MIN KARA 080050Z 16008KT 10SM CLR 26/21 A2998 -20 76 1200 160/08 RMK AO2 SLP150 T02560211
53915KARA ARA20190507185510305/07/19 18:55:31  5-MIN KARA 080055Z 15008KT 10SM CLR 25/21 A2998 -20 79 1200 150/08 RMK AO2 T02500211
53915KARA ARA20190507190010305/07/19 19:00:31  5-MIN KARA 080100Z 14008KT 10SM CLR 25/21 A2997 -20 79 1200 140/08 RMK AO2 T02500211
53915KARA ARA20190507190510305/07/19 19:05:31  5-MIN KARA 080105Z 14008KT 10SM CLR 25/21 A2997 -20 79 1200 140/08 RMK AO2 T02500211
53915KARA ARA20190507191010305/07/19 19:10:31  5-MIN KARA 080110Z 14008KT 10SM CLR 25/21 A2997 -20 79 1200 140/08 RMK AO2 T02500211
53915KARA ARA20190507191510305/07/19 19:15:31  5-MIN KARA 080115Z 14007KT 10SM CLR 25/21 A2997 -20 79 1200 130/07 RMK AO2 T02500211
53915KARA ARA20190507192010305/07/19 19:20:31  5-MIN KARA 080120Z 14009KT 10SM CLR 25/21 A2997 -20 79 1200 140/09 RMK AO2 T02500211
53915KARA ARA20190507192510305/07/19 19:25:31  5-MIN KARA 080125Z 15008KT 10SM CLR 25/21 A2997 -20 79 1200 150/08 RMK AO2 T02500211
53915KARA ARA20190507193010305/07/19 19:30:31  5-MIN KARA 080130Z 14008KT 10SM CLR 25/21 A2998 -20 79 1200 140/08 RMK AO2 T02500211
53915KARA ARA20190507193510305/07/19 19:35:31  5-MIN KARA 080135Z 15009KT 10SM CLR 24/21 A2998 -20 81 1100 140/09 RMK AO2 T02440211
53915KARA ARA20190507194010305/07/19 19:40:31  5-MIN KARA 080140Z 14009KT 10SM CLR 24/21 A2998 -20 81 1100 140/09 RMK AO2 T02440211
53915KARA ARA20190507194510805/07/19 19:45:31  5-MIN KARA 080145Z AUTO 14009KT 10SM CLR 24/21 A2998 -20 81 1100 140/09 RMK AO2 T02440211
53915KARA ARA20190507195011505/07/19 19:50:31  5-MIN KARA 080150Z AUTO 14010KT 10SM CLR 25/21 A2998 -20 79 1200 140/10 RMK AO2 SLP151 T02500211
53915KARA ARA20190507195510805/07/19 19:55:31  5-MIN KARA 080155Z AUTO 14008KT 10SM CLR 25/21 A2998 -20 79 1200 140/08 RMK AO2 T02500211
53915KARA ARA20190507200010805/07/19 20:00:31  5-MIN KARA 080200Z AUTO 13008KT 10SM CLR 24/21 A2998 -20 81 1100 130/08 RMK AO2 T02440211
53915KARA ARA20190507200510805/07/19 20:05:31  5-MIN KARA 080205Z AUTO 13009KT 10SM CLR 25/21 A2997 -20 79 1200 130/09 RMK AO2 T02500211
53915KARA ARA20190507201010805/07/19 20:10:31  5-MIN KARA 080210Z AUTO 13007KT 10SM CLR 24/21 A2998 -20 81 1100 130/07 RMK AO2 T02440211
53915KARA ARA20190507201510805/07/19 20:15:31  5-MIN KARA 080215Z AUTO 12008KT 10SM CLR 24/21 A2998 -20 81 1100 120/08 RMK AO2 T02440211
53915KARA ARA20190507202010805/07/19 20:20:31  5-MIN KARA 080220Z AUTO 13009KT 10SM CLR 24/21 A2998 -20 81 1100 130/09 RMK AO2 T02440211
53915KARA ARA20190507202510805/07/19 20:25:31  5-MIN KARA 080225Z AUTO 13009KT 10SM CLR 24/21 A2998 -20 81 1100 130/09 RMK AO2 T02440211
53915KARA ARA20190507203010805/07/19 20:30:31  5-MIN KARA 080230Z AUTO 13009KT 10SM CLR 24/21 A2998 -20 81 1100 130/09 RMK AO2 T02440211
53915KARA ARA20190507203510805/07/19 20:35:31  5-MIN KARA 080235Z AUTO 13008KT 10SM CLR 24/21 A2998 -20 81 1100 130/08 RMK AO2 T02440211
53915KARA ARA20190507204010805/07/19 20:40:31  5-MIN KARA 080240Z AUTO 15008KT 10SM CLR 24/21 A2998 -20 81 1100 140/08 RMK AO2 T02440211
53915KARA ARA20190507204510805/07/19 20:45:31  5-MIN KARA 080245Z AUTO 15009KT 10SM CLR 24/21 A2998 -20 81 1100 150/09 RMK AO2 T02440211
53915KARA ARA20190507205012105/07/19 20:50:31  5-MIN KARA 080250Z AUTO 14007KT 10SM CLR 24/21 A2998 -20 84 1000 140/07 RMK AO2 SLP150 T02390211 55001
53915KARA ARA20190507205510805/07/19 20:55:31  5-MIN KARA 080255Z AUTO 13008KT 10SM CLR 24/21 A2997 -20 84 1000 130/08 RMK AO2 T02390211
53915KARA ARA20190507210010805/07/19 21:00:31  5-MIN KARA 080300Z AUTO 14007KT 10SM CLR 24/21 A2997 -20 84 1000 140/07 RMK AO2 T02390211
53915KARA ARA20190507210510805/07/19 21:05:31  5-MIN KARA 080305Z AUTO 14007KT 10SM CLR 24/21 A2997 -20 84 1000 140/07 RMK AO2 T02390211
53915KARA ARA20190507211010805/07/19 21:10:31  5-MIN KARA 080310Z AUTO 14008KT 10SM CLR 24/21 A2997 -20 84 1000 130/08 RMK AO2 T02390211
53915KARA ARA20190507211510805/07/19 21:15:31  5-MIN KARA 080315Z AUTO 14009KT 10SM CLR 24/21 A2997 -10 84 1000 130/09 RMK AO2 T02390211
53915KARA ARA20190507212010805/07/19 21:20:31  5-MIN KARA 080320Z AUTO 13009KT 10SM CLR 24/21 A2997 -10 84 1100 130/09 RMK AO2 T02390211
53915KARA ARA20190507212510805/07/19 21:25:31  5-MIN KARA 080325Z AUTO 13009KT 10SM CLR 24/21 A2997 -10 84 1100 130/09 RMK AO2 T02390211
53915KARA ARA20190507213010805/07/19 21:30:31  5-MIN KARA 080330Z AUTO 13007KT 10SM CLR 24/21 A2996 -10 84 1100 130/07 RMK AO2 T02390211
53915KARA ARA20190507213510805/07/19 21:35:31  5-MIN KARA 080335Z AUTO 13008KT 10SM CLR 24/21 A2996 -10 84 1100 130/08 RMK AO2 T02390211
53915KARA ARA20190507214010605/07/19 21:40:31  5-MIN KARA 080340Z AUTO 13010KT 10SM CLR 24/21 A2996 0 84 1100 130/10 RMK AO2 T02390211
53915KARA ARA20190507214510605/07/19 21:45:31  5-MIN KARA 080345Z AUTO 14009KT 10SM CLR 24/21 A2996 0 84 1100 130/09 RMK AO2 T02390211
53915KARA ARA20190507215011305/07/19 21:50:31  5-MIN KARA 080350Z AUTO 14009KT 10SM CLR 24/21 A2996 0 84 1100 140/09 RMK AO2 SLP144 T02390211
53915KARA ARA20190507215510605/07/19 21:55:31  5-MIN KARA 080355Z AUTO 14008KT 10SM CLR 24/21 A2996 0 84 1100 140/08 RMK AO2 T02390211
53915KARA ARA20190507220010605/07/19 22:00:31  5-MIN KARA 080400Z AUTO 14010KT 10SM CLR 24/21 A2995 0 84 1100 140/10 RMK AO2 T02390211
53915KARA ARA20190507220510605/07/19 22:05:31  5-MIN KARA 080405Z AUTO 13010KT 10SM CLR 24/21 A2995 0 84 1100 130/10 RMK AO2 T02390211
53915KARA ARA20190507221010605/07/19 22:10:31  5-MIN KARA 080410Z AUTO 14011KT 10SM CLR 24/21 A2995 0 84 1100 130/11 RMK AO2 T02390211
53915KARA ARA20190507221510605/07/19 22:15:31  5-MIN KARA 080415Z AUTO 13010KT 10SM CLR 24/21 A2995 0 84 1100 130/10 RMK AO2 T02390211
53915KARA ARA20190507222010605/07/19 22:20:31  5-MIN KARA 080420Z AUTO 13010KT 10SM CLR 24/21 A2994 0 84 1100 130/10 RMK AO2 T02390211
53915KARA ARA20190507222510605/07/19 22:25:31  5-MIN KARA 080425Z AUTO 13011KT 10SM CLR 24/21 A2994 0 84 1100 130/11 RMK AO2 T02390211
53915KARA ARA20190507223010605/07/19 22:30:31  5-MIN KARA 080430Z AUTO 13010KT 10SM CLR 24/21 A2994 0 84 1100 130/10 RMK AO2 T02390211
53915KARA ARA20190507223510605/07/19 22:35:31  5-MIN KARA 080435Z AUTO 13010KT 10SM CLR 23/21 A2995 0 87 1000 130/10 RMK AO2 T02330211
53915KARA ARA20190507224010705/07/19 22:40:31  5-MIN KARA 080440Z AUTO 13011KT 10SM CLR 23/21 A2994 10 87 1000 130/11 RMK AO2 T02330211
53915KARA ARA20190507224510605/07/19 22:45:31  5-MIN KARA 080445Z AUTO 13011KT 10SM CLR 23/21 A2994 0 87 1000 130/11 RMK AO2 T02330211
53915KARA ARA20190507225011405/07/19 22:50:31  5-MIN KARA 080450Z AUTO 13011KT 10SM CLR 23/21 A2994 10 87 1000 130/11 RMK AO2 SLP139 T02330211
53915KARA ARA20190507225510705/07/19 22:55:31  5-MIN KARA 080455Z AUTO 13011KT 10SM CLR 23/22 A2994 10 90 1000 130/11 RMK AO2 T02330217
53915KARA ARA20190507230010705/07/19 23:00:31  5-MIN KARA 080500Z AUTO 13010KT 10SM CLR 23/22 A2994 10 90 1000 130/10 RMK AO2 T02330217
53915KARA ARA20190507230510705/07/19 23:05:31  5-MIN KARA 080505Z AUTO 13009KT 10SM CLR 23/22 A2994 10 90 1000 130/09 RMK AO2 T02330217
53915KARA ARA20190507231010705/07/19 23:10:31  5-MIN KARA 080510Z AUTO 13009KT 10SM CLR 23/22 A2993 10 90 1000 130/09 RMK AO2 T02330217
53915KARA ARA20190507231510705/07/19 23:15:31  5-MIN KARA 080515Z AUTO 13009KT 10SM CLR 23/22 A2993 10 90 1000 130/09 RMK AO2 T02330217
53915KARA ARA20190507232010705/07/19 23:20:31  5-MIN KARA 080520Z AUTO 13010KT 10SM CLR 23/22 A2993 10 90 1000 130/10 RMK AO2 T02330217
53915KARA ARA20190507232510705/07/19 23:25:31  5-MIN KARA 080525Z AUTO 12008KT 10SM CLR 23/22 A2993 10 90 1000 120/08 RMK AO2 T02330217
53915KARA ARA20190507233010705/07/19 23:30:31  5-MIN KARA 080530Z AUTO 12008KT 10SM CLR 23/22 A2993 10 90 1000 120/08 RMK AO2 T02330217
53915KARA ARA20190507233510705/07/19 23:35:31  5-MIN KARA 080535Z AUTO 12009KT 10SM CLR 23/22 A2993 20 90 1000 120/09 RMK AO2 T02330217
53915KARA ARA20190507234010705/07/19 23:40:31  5-MIN KARA 080540Z AUTO 12008KT 10SM CLR 23/22 A2993 20 90 1000 120/08 RMK AO2 T02330217
53915KARA ARA20190507234510705/07/19 23:45:31  5-MIN KARA 080545Z AUTO 13009KT 10SM CLR 23/22 A2993 20 90 1000 120/09 RMK AO2 T02330217
53915KARA ARA20190507235014205/07/19 23:50:31  5-MIN KARA 080550Z AUTO 12010KT 10SM CLR 23/22 A2993 20 90 1000 120/10 RMK AO2 SLP134 T02330217 10261 20233 403060200 58001
53915KARA ARA20190507235510705/07/19 23:55:31  5-MIN KARA 080555Z AUTO 13007KT 10SM CLR 23/22 A2993 20 90 1000 130/07 RMK AO2 T02330217
53915KARA ARA20190508000010705/08/19 00:00:31  5-MIN KARA 080600Z AUTO 13007KT 10SM CLR 23/22 A2993 10 90 1000 130/07 RMK AO2 T02330217
53915KARA ARA20190508000510705/08/19 00:05:31  5-MIN KARA 080605Z AUTO 13006KT 10SM CLR 23/22 A2993 10 90 1000 120/06 RMK AO2 T02330217
53915KARA ARA20190508001010705/08/19 00:10:31  5-MIN KARA 080610Z AUTO 11007KT 10SM CLR 23/22 A2993 20 90 1000 110/07 RMK AO2 T02330217
53915KARA ARA20190508001510705/08/19 00:15:31  5-MIN KARA 080615Z AUTO 11007KT 10SM CLR 23/22 A2993 20 90 1000 110/07 RMK AO2 T02330217
53915KARA ARA20190508002010705/08/19 00:20:31  5-MIN KARA 080620Z AUTO 10006KT 10SM CLR 23/22 A2992 30 90 1000 100/06 RMK AO2 T02330217
53915KARA ARA20190508002510705/08/19 00:25:31  5-MIN KARA 080625Z AUTO 10006KT 10SM CLR 23/22 A2992 30 90 1000 100/06 RMK AO2 T02330217
53915KARA ARA20190508003010705/08/19 00:30:31  5-MIN KARA 080630Z AUTO 11005KT 10SM CLR 23/22 A2992 30 90 1000 110/05 RMK AO2 T02330217
53915KARA ARA20190508003510705/08/19 00:35:31  5-MIN KARA 080635Z AUTO 12005KT 10SM CLR 23/22 A2992 30 90 1000 120/05 RMK AO2 T02330217
53915KARA ARA20190508004010705/08/19 00:40:31  5-MIN KARA 080640Z AUTO 12003KT 10SM CLR 23/22 A2992 30 93 1000 120/03 RMK AO2 T02280217
53915KARA ARA20190508004510705/08/19 00:45:31  5-MIN KARA 080645Z AUTO 12005KT 10SM CLR 23/22 A2992 30 93 1000 120/05 RMK AO2 T02280217
53915KARA ARA20190508005011405/08/19 00:50:31  5-MIN KARA 080650Z AUTO 13006KT 10SM CLR 23/22 A2992 30 93 1000 130/06 RMK AO2 SLP131 T02280217
53915KARA ARA20190508005510705/08/19 00:55:31  5-MIN KARA 080655Z AUTO 13006KT 10SM CLR 23/22 A2992 30 93 1000 120/06 RMK AO2 T02280217
53915KARA ARA20190508010010705/08/19 01:00:31  5-MIN KARA 080700Z AUTO 12004KT 10SM CLR 23/22 A2992 30 93 1000 120/04 RMK AO2 T02280217
53915KARA ARA20190508010510705/08/19 01:05:31  5-MIN KARA 080705Z AUTO 12005KT 10SM CLR 23/22 A2991 30 93 1000 120/05 RMK AO2 T02280217
53915KARA ARA20190508011010705/08/19 01:10:31  5-MIN KARA 080710Z AUTO 12005KT 10SM CLR 23/22 A2991 30 93 1000 120/05 RMK AO2 T02280217
53915KARA ARA20190508011510705/08/19 01:15:31  5-MIN KARA 080715Z AUTO 12005KT 10SM CLR 23/22 A2991 40 93 1000 120/05 RMK AO2 T02280217
53915KARA ARA20190508012010705/08/19 01:20:31  5-MIN KARA 080720Z AUTO 13005KT 10SM CLR 23/22 A2991 40 93 1000 130/05 RMK AO2 T02280217
53915KARA ARA20190508012510705/08/19 01:25:31  5-MIN KARA 080725Z AUTO 14004KT 10SM CLR 23/22 A2991 40 93 1000 140/04 RMK AO2 T02280217
53915KARA ARA20190508013010705/08/19 01:30:31  5-MIN KARA 080730Z AUTO 12004KT 10SM CLR 23/22 A2990 40 93 1000 120/04 RMK AO2 T02280217
53915KARA ARA20190508013510705/08/19 01:35:31  5-MIN KARA 080735Z AUTO 13004KT 10SM CLR 23/22 A2990 40 93 1000 130/04 RMK AO2 T02280217
53915KARA ARA20190508014010705/08/19 01:40:31  5-MIN KARA 080740Z AUTO 15004KT 10SM CLR 23/22 A2990 40 93 1000 150/04 RMK AO2 T02280217
53915KARA ARA20190508014510905/08/19 01:45:31  5-MIN KARA 080745Z AUTO 13005KT 10SM FEW025 22/22 A2990 50 97 900 130/05 RMK AO2 T02220217
53915KARA ARA20190508015011605/08/19 01:50:31  5-MIN KARA 080750Z AUTO 12005KT 10SM SCT025 22/22 A2989 50 97 900 120/05 RMK AO2 SLP122 T02220217
53915KARA ARA20190508015511005/08/19 01:55:31  5-MIN KARA 080755Z AUTO 12006KT 10SM SCT026 23/22 A2989 50 93 1000 120/06 RMK AO2 T02280217
53915KARA ARA20190508020011005/08/19 02:00:31  5-MIN KARA 080800Z AUTO 12005KT 10SM SCT026 23/22 A2989 50 93 1000 120/05 RMK AO2 T02280217
53915KARA ARA20190508023011005/08/19 02:30:31  5-MIN KARA 080830Z AUTO 00000KT 10SM FEW023 22/22 A2989 60 97 1000 000/00 RMK AO2 T02220217
53915KARA ARA20190508023511005/08/19 02:35:31  5-MIN KARA 080835Z AUTO 13003KT 10SM FEW022 22/22 A2988 60 97 1000 130/03 RMK AO2 T02220217
53915KARA ARA20190508024011005/08/19 02:40:31  5-MIN KARA 080840Z AUTO 13004KT 10SM FEW022 22/22 A2988 60 97 1000 130/04 RMK AO2 T02220217
53915KARA ARA20190508024511005/08/19 02:45:31  5-MIN KARA 080845Z AUTO 13004KT 10SM FEW022 22/22 A2988 60 97 1000 130/04 RMK AO2 T02220217
53915KARA ARA20190508025013005/08/19 02:50:31  5-MIN KARA 080850Z AUTO 13004KT 10SM FEW014 FEW022 22/22 A2988 60 97 1000 120/04 RMK AO2 SLP118 T02220217 56016
53915KARA ARA20190508025511005/08/19 02:55:31  5-MIN KARA 080855Z AUTO 12004KT 10SM SCT014 22/22 A2988 60 97 1000 110/04 RMK AO2 T02220217
53915KARA ARA20190508030011005/08/19 03:00:31  5-MIN KARA 080900Z AUTO 11005KT 10SM BKN012 22/22 A2987 70 97 1000 110/05 RMK AO2 T02220217
53915KARA ARA20190508030511005/08/19 03:05:31  5-MIN KARA 080905Z AUTO 12005KT 10SM BKN012 23/22 A2988 70 97 1000 120/05 RMK AO2 T02280222
53915KARA ARA20190508031011005/08/19 03:10:31  5-MIN KARA 080910Z AUTO 13004KT 10SM BKN011 23/22 A2988 60 97 1000 130/04 RMK AO2 T02280222
53915KARA ARA20190508031511705/08/19 03:15:31  5-MIN KARA 080915Z AUTO 14004KT 10SM BKN011 OVC022 23/22 A2988 60 97 1000 140/04 RMK AO2 T02280222
53915KARA ARA20190508032011005/08/19 03:20:31  5-MIN KARA 080920Z AUTO 14005KT 10SM OVC011 23/22 A2989 60 97 1000 140/05 RMK AO2 T02280222
53915KARA ARA20190508032511005/08/19 03:25:31  5-MIN KARA 080925Z AUTO 15005KT 10SM OVC011 23/22 A2989 60 97 1000 140/05 RMK AO2 T02280222
53915KARA ARA20190508033011705/08/19 03:30:31  5-MIN KARA 080930Z AUTO 14005KT 10SM BKN011 OVC021 23/22 A2989 60 97 1000 140/05 RMK AO2 T02280222
53915KARA ARA20190508033512905/08/19 03:35:31  5-MIN KARA 080935Z AUTO 15008KT 10SM BKN011 OVC021 23/22 A2989 60 97 1000 150/08 RMK AO2 CIG 008V013 T02280222
53915KARA ARA20190508034012205/08/19 03:40:31  5-MIN KARA 080940Z AUTO 14008KT 10SM OVC011 23/22 A2989 60 97 1000 140/08 RMK AO2 CIG 008V013 T02280222
53915KARA ARA20190508034512905/08/19 03:45:31  5-MIN KARA 080945Z AUTO 13007KT 10SM BKN010 BKN034 23/22 A2988 70 97 1000 130/07 RMK AO2 CIG 008V013 T02280222
53915KARA ARA20190508035013605/08/19 03:50:31  5-MIN KARA 080950Z AUTO 12008KT 10SM BKN010 BKN034 23/22 A2987 70 97 1000 120/08 RMK AO2 CIG 008V014 SLP113 T02280222
53915KARA ARA20190508035511705/08/19 03:55:31  5-MIN KARA 080955Z AUTO 14007KT 10SM SCT010 BKN014 23/22 A2987 70 97 1000 130/07 RMK AO2 T02280222
53915KARA ARA20190508040011005/08/19 04:00:31  5-MIN KARA 081000Z AUTO 14008KT 10SM SCT010 23/22 A2987 70 97 1000 140/08 RMK AO2 T02280222
53915KARA ARA20190508040511005/08/19 04:05:31  5-MIN KARA 081005Z AUTO 14011KT 10SM SCT009 23/22 A2987 70 97 1000 140/11 RMK AO2 T02280222
53915KARA ARA20190508041011705/08/19 04:10:31  5-MIN KARA 081010Z AUTO 14009KT 10SM FEW007 FEW012 23/22 A2986 80 97 1000 140/09 RMK AO2 T02280222
53915KARA ARA20190508041511705/08/19 04:15:31  5-MIN KARA 081015Z AUTO 13010KT 10SM FEW007 FEW055 23/22 A2986 80 97 1000 130/10 RMK AO2 T02280222
53915KARA ARA20190508042011705/08/19 04:20:31  5-MIN KARA 081020Z AUTO 13013KT 10SM FEW007 FEW055 23/22 A2985 90 97 1100 130/13 RMK AO2 T02280222
53915KARA ARA20190508042513105/08/19 04:25:31  5-MIN KARA 081025Z AUTO 13012G19KT 10SM FEW007 FEW055 23/22 A2984 100 97 1100 120/12G19 RMK AO2 PRESFR T02280222
53915KARA ARA20190508043011805/08/19 04:30:31  5-MIN KARA 081030Z AUTO 13013KT 10SM FEW055 23/22 A2984 110 93 1100 130/13 RMK AO2 PRESFR T02330222
53915KARA ARA20190508043511105/08/19 04:35:31  5-MIN KARA 081035Z AUTO 12013KT 10SM FEW055 23/22 A2983 110 93 1100 120/13 RMK AO2 T02330222
53915KARA ARA20190508044010605/08/19 04:40:31  5-MIN KARA 081040Z 13012KT 10SM FEW055 23/22 A2984 100 93 1100 130/12 RMK AO2 T02330222
53915KARA ARA20190508044510305/08/19 04:45:31  5-MIN KARA 081045Z 12013KT 10SM CLR 23/22 A2983 110 93 1100 120/13 RMK AO2 T02330222
53915KARA ARA20190508045011005/08/19 04:50:31  5-MIN KARA 081050Z 13011KT 10SM CLR 23/22 A2984 100 90 1100 130/11 RMK AO2 SLP103 T02330217
53915KARA ARA20190508045510305/08/19 04:55:31  5-MIN KARA 081055Z 13012KT 10SM CLR 23/22 A2984 100 90 1100 130/12 RMK AO2 T02330217
53915KARA ARA20190508050010305/08/19 05:00:31  5-MIN KARA 081100Z 14010KT 10SM CLR 23/22 A2984 100 90 1100 140/10 RMK AO2 T02330217
53915KARA ARA20190508050510205/08/19 05:05:31  5-MIN KARA 081105Z 14012KT 10SM CLR 23/22 A2985 90 90 1100 140/12 RMK AO2 T02330217
53915KARA ARA20190508051010205/08/19 05:10:31  5-MIN KARA 081110Z 14012KT 10SM CLR 23/22 A2985 90 90 1100 140/12 RMK AO2 T02330217
53915KARA ARA20190508051510205/08/19 05:15:31  5-MIN KARA 081115Z 14011KT 10SM CLR 23/21 A2985 90 87 1100 140/11 RMK AO2 T02330211
53915KARA ARA20190508052010205/08/19 05:20:31  5-MIN KARA 081120Z 15013KT 10SM CLR 23/21 A2986 80 87 1100 150/13 RMK AO2 T02330211
53915KARA ARA20190508052510905/08/19 05:25:31  5-MIN KARA 081125Z 16011KT 10SM CLR 23/21 A2987 70 87 1100 160/11 RMK AO2 PRESRR T02330211
53915KARA ARA20190508053011305/08/19 05:30:31  5-MIN KARA 081130Z 16010KT 10SM CLR 23/21 A2987 70 87 1100 160/10 RMK AO2 LTG DSNT N T02330211
53915KARA ARA20190508053511305/08/19 05:35:31  5-MIN KARA 081135Z 16011KT 10SM CLR 23/21 A2987 70 87 1100 160/11 RMK AO2 LTG DSNT N T02330211
53915KARA ARA20190508054011305/08/19 05:40:31  5-MIN KARA 081140Z 16011KT 10SM CLR 23/21 A2988 70 87 1100 160/11 RMK AO2 LTG DSNT N T02330211
53915KARA ARA20190508054511305/08/19 05:45:31  5-MIN KARA 081145Z 17009KT 10SM CLR 23/21 A2988 70 87 1100 170/09 RMK AO2 LTG DSNT N T02330211
53915KARA ARA20190508055012705/08/19 05:50:31  5-MIN KARA 081150Z 17008KT 10SM CLR 23/22 A2988 60 90 1100 170/08 RMK AO2 SLP118 T02330217 10233 20222 58017
53915KARA ARA20190508055510205/08/19 05:55:31  5-MIN KARA 081155Z 17008KT 10SM CLR 23/22 A2988 60 90 1100 160/08 RMK AO2 T02330217
53915KARA ARA20190508060010205/08/19 06:00:31  5-MIN KARA 081200Z 17008KT 10SM CLR 23/22 A2988 60 90 1100 170/08 RMK AO2 T02330217
53915KARA ARA20190508060510205/08/19 06:05:31  5-MIN KARA 081205Z 17006KT 10SM CLR 23/22 A2988 60 90 1100 170/06 RMK AO2 T02330217
53915KARA ARA20190508061012705/08/19 06:10:31  5-MIN KARA 081210Z 17006KT 10SM CLR 24/22 A2989 60 87 1100 170/06 RMK AO2 LTG DSNT NE AND SW AND W T02390217
53915KARA ARA20190508061513005/08/19 06:15:31  5-MIN KARA 081215Z 19004KT 10SM FEW120 24/22 A2989 50 87 1100 190/04 RMK AO2 LTG DSNT NE AND SW AND W T02390217
53915KARA ARA20190508062012005/08/19 06:20:31  5-MIN KARA 081220Z 19003KT 10SM FEW110 23/22 A2990 50 90 1100 190/03 RMK AO2 LTG DSNT ALQDS T02330217
53915KARA ARA20190508062511905/08/19 06:25:31  5-MIN KARA 081225Z 20004KT 10SM FEW110 23/22 A2990 50 90 1100 200/04 RMK AO2 LTG DSNT W-NE T02330217
53915KARA ARA20190508063011905/08/19 06:30:31  5-MIN KARA 081230Z 18004KT 10SM SCT110 24/22 A2990 50 87 1100 180/04 RMK AO2 LTG DSNT W-NE T02390217
53915KARA ARA20190508063512005/08/19 06:35:31  5-MIN KARA 081235Z VRB03KT 10SM SCT110 24/22 A2990 40 87 1100 VRB/03 RMK AO2 LTG DSNT SW-NW T02390217
53915KARA ARA20190508064012005/08/19 06:40:31  5-MIN KARA 081240Z 18003KT 10SM BKN110 24/22 A2991 40 87 1100 180/03 RMK AO2 LTG DSNT SW-NW T02390217
53915KARA ARA20190508064513605/08/19 06:45:31  5-MIN KARA 081245Z 17006KT 10SM -RA BKN110 24/22 A2991 40 87 1100 170/06 RMK AO2 LTG DSNT SW-NW RAB43 P0000 T02390217
53915KARA ARA20190508065014205/08/19 06:50:31  5-MIN KARA 081250Z 19005KT 10SM RA BKN110 24/22 A2991 40 87 1100 180/05 RMK AO2 LTG DSNT SW-NW RAB43 SLP127 P0000 T02390217
53915KARA ARA20190508065513005/08/19 06:55:31  5-MIN KARA 081255Z 18005KT 10SM -RA BKN110 24/22 A2991 40 87 1100 180/05 RMK AO2 LTG DSNT SW-NW P0000 T02390217
53915KARA ARA20190508070014005/08/19 07:00:31  5-MIN KARA 081300Z 17007KT 10SM -RA FEW080 BKN110 24/22 A2991 40 87 1100 170/07 RMK AO2 LTG DSNT SW AND W P0001 T02390217
53915KARA ARA20190508070514405/08/19 07:05:31  5-MIN KARA 081305Z 16006KT 10SM -RA FEW055 SCT085 BKN110 24/22 A2991 40 90 1100 160/06 RMK AO2 LTG DSNT SW-NW P0001 T02390222
53915KARA ARA20190508071014405/08/19 07:10:31  5-MIN KARA 081310Z 18005KT 10SM -RA SCT040 BKN080 OVC110 24/22 A2991 30 90 1100 180/05 RMK AO2 LTG DSNT SW-NW P0001 T02390222
53915KARA ARA20190508071514405/08/19 07:15:31  5-MIN KARA 081315Z 20005KT 10SM -RA BKN038 BKN055 OVC120 24/23 A2992 30 93 1100 200/05 RMK AO2 LTG DSNT SW-NW P0001 T02390228
53915KARA ARA20190508072014705/08/19 07:20:31  5-MIN KARA 081320Z 19005KT 10SM -RA SCT036 BKN045 OVC110 24/22 A2992 20 90 1100 190/05 RMK AO2 LTG DSNT SW AND W P0001 T02390222
53915KARA ARA20190508072514405/08/19 07:25:31  5-MIN KARA 081325Z 19004KT 10SM -RA BKN036 BKN048 OVC100 24/22 A2992 20 90 1100 190/04 RMK AO2 LTG DSNT SW-NW P0001 T02390222
53915KARA ARA20190508073014405/08/19 07:30:31  5-MIN KARA 081330Z 20003KT 10SM -RA SCT036 BKN050 OVC095 24/22 A2992 20 90 1100 190/03 RMK AO2 LTG DSNT SW-NW P0001 T02390222
53915KARA ARA20190508073514305/08/19 07:35:31  5-MIN KARA 081335Z 21003KT 10SM RA SCT034 BKN085 OVC100 23/22 A2992 20 93 1000 200/03 RMK AO2 LTG DSNT SW-NW P0002 T02330222
53915KARA ARA20190508074014305/08/19 07:40:31  5-MIN KARA 081340Z 00000KT 10SM RA FEW033 BKN090 OVC110 23/22 A2992 20 93 1000 000/00 RMK AO2 LTG DSNT SW-NW P0003 T02330222
53915KARA ARA20190508074514405/08/19 07:45:31  5-MIN KARA 081345Z 17003KT 10SM -RA FEW033 BKN090 BKN120 23/22 A2992 30 93 1000 170/03 RMK AO2 LTG DSNT SW-NW P0003 T02330222
53915KARA ARA20190508075014405/08/19 07:50:31  5-MIN KARA 081350Z 17005KT 10SM -RA SCT090 BKN120 23/22 A2992 30 93 1000 170/05 RMK AO2 LTG DSNT ALQDS SLP131 P0003 T02330222
53915KARA ARA20190508075514405/08/19 07:55:31  5-MIN KARA 081355Z 19005KT 10SM -RA FEW080 SCT100 BKN120 23/23 A2992 30 97 1000 190/05 RMK AO2 LTG DSNT ALQDS P0001 T02330228
53915KARA ARA20190508080013605/08/19 08:00:31  5-MIN KARA 081400Z 17006KT 10SM RA SCT085 BKN110 23/23 A2992 30 97 1000 170/06 RMK AO2 LTG DSNT ALQDS P0001 T02330228
53915KARA ARA20190508080513505/08/19 08:05:31  5-MIN KARA 081405Z 16007KT 10SM RA SCT080 BKN110 23/23 A2992 30 97 1000 160/07 RMK AO2 LTG DSNT S-NW P0002 T02330228
53915KARA ARA20190508081014305/08/19 08:10:31  5-MIN KARA 081410Z 17008KT 10SM RA SCT075 BKN090 BKN110 23/23 A2992 30 97 1000 170/08 RMK AO2 LTG DSNT SW-NW P0004 T02330228
53915KARA ARA20190508081514405/08/19 08:15:31  5-MIN KARA 081415Z 16007KT 10SM +RA SCT075 BKN090 BKN110 23/23 A2992 30 97 1000 160/07 RMK AO2 LTG DSNT SW-NW P0005 T02330228
53915KARA ARA20190508082014305/08/19 08:20:31  5-MIN KARA 081420Z 16008KT 10SM RA SCT075 BKN090 OVC110 23/23 A2992 30 97 1000 150/08 RMK AO2 LTG DSNT SW-NW P0006 T02330228
53915KARA ARA20190508082514305/08/19 08:25:31  5-MIN KARA 081425Z 17007KT 10SM RA FEW075 BKN095 OVC120 23/23 A2992 30 97 1000 170/07 RMK AO2 LTG DSNT ALQDS P0008 T02330228
53915KARA ARA20190508083014205/08/19 08:30:31  5-MIN KARA 081430Z 16007KT 10SM RA FEW075 BKN100 OVC120 23/23 A2992 30 97 1000 160/07 RMK AO2 LTG DSNT W-NE P0009 T02330228
53915KARA ARA20190508083514805/08/19 08:35:31  5-MIN KARA 081435Z 17008KT 10SM VCTS -RA FEW075 BKN100 OVC120 23/23 A2992 30 97 1000 170/08 RMK AO2 LTG DSNT W-NE P0010 T02330228
53915KARA ARA20190508084014805/08/19 08:40:31  5-MIN KARA 081440Z 17008KT 10SM VCTS RA FEW075 BKN100 OVC120 23/23 A2992 30 97 1000 170/08 RMK AO2 LTG DSNT ALQDS P0010 T02330228
53915KARA ARA20190508084514805/08/19 08:45:31  5-MIN KARA 081445Z 17008KT 10SM VCTS RA FEW080 BKN100 OVC120 23/23 A2992 20 97 1000 170/08 RMK AO2 LTG DSNT ALQDS P0011 T02330228
53915KARA ARA20190508085015005/08/19 08:50:31  5-MIN KARA 081450Z 16006KT 10SM TSRA FEW080 BKN100 OVC120 23/23 A2992 20 97 1000 160/06 RMK AO2 LTG DSNT E AND SW AND W TSB50 P0012
53915KARA ARA20190508085514705/08/19 08:55:31  5-MIN KARA 081455Z 16005KT 10SM TSRA FEW080 BKN100 OVC120 23/23 A2992 30 97 1000 160/05 RMK AO2 LTG DSNT E AND W P0000 T02330228
53915KARA ARA20190508090014105/08/19 09:00:31  5-MIN KARA 081500Z 19006KT 10SM TSRA FEW070 OVC100 23/23 A2993 20 97 1000 190/06 RMK AO2 LTG DSNT W AND NW P0002 T02330228
53915KARA ARA20190508090514405/08/19 09:05:31  5-MIN KARA 081505Z 17006KT 10SM VCTS RA SCT080 OVC100 23/23 A2992 20 97 1000 170/06 RMK AO2 LTG DSNT NW TSE05 P0003 T02330228
53915KARA ARA20190508091015105/08/19 09:10:31  5-MIN KARA 081510Z 16007KT 10SM TSRA SCT080 OVC100 23/23 A2992 30 97 1000 160/07 RMK AO2 LTG DSNT SE AND NW TSE05B09 P0005 T02330228
53915KARA ARA20190508091516005/08/19 09:15:31  5-MIN KARA 081515Z 20004KT 10SM +TSRA SCT045 BKN080 OVC100 23/23 A2992 20 100 1000 200/04 RMK AO2 LTG DSNT SE AND NW TSE05B09 P0011 T02280228
53915KARA ARA20190508092015905/08/19 09:20:31  5-MIN KARA 081520Z 29003KT 10SM +TSRA SCT047 BKN075 OVC095 23/22 A2992 20 97 1000 290/03 RMK AO2 LTG DSNT SE AND NW TSE05B09 P0014 T02280222
53915KARA ARA20190508092516505/08/19 09:25:31  5-MIN KARA 081525Z 00000KT 10SM VCTS RA FEW047 SCT070 OVC090 23/23 A2992 30 100 1000 000/00 RMK AO2 LTG DSNT NE AND NW TSE05B09E25 P0015 T02280228
53915KARA ARA20190508093016505/08/19 09:30:31  5-MIN KARA 081530Z 07003KT 10SM VCTS -RA FEW047 SCT070 OVC090 23/22 A2991 30 97 1000 070/03 RMK AO2 LTG DSNT NE AND NW TSE05B09E25 P0015 T02280222
53915KARA ARA20190508093516505/08/19 09:35:31  5-MIN KARA 081535Z 11006KT 10SM VCTS -RA FEW047 SCT070 OVC085 23/22 A2991 30 97 1000 110/06 RMK AO2 LTG DSNT NE AND NW TSE05B09E25 P0015 T02280222
53915KARA ARA20190508094015705/08/19 09:40:31  5-MIN KARA 081540Z 09005KT 10SM VCTS -RA FEW045 OVC085 23/22 A2992 30 97 1000 090/05 RMK AO2 LTG DSNT E AND NW TSE05B09E25 P0015 T02280222
53915KARA ARA20190508094515305/08/19 09:45:31  5-MIN KARA 081545Z VRB05KT 10SM VCTS -RA FEW060 OVC085 23/22 A2991 30 93 1000 VRB/05 RMK AO2 LTG DSNT NW-E TSE05B09E25 P0015 T02280217
53915KARA ARA20190508095015305/08/19 09:50:31  5-MIN KARA 081550Z 36006KT 10SM VCTS -RA OVC080 23/22 A2992 30 90 1000 350/06 RMK AO2 LTG DSNT NW-E TSE05B09E25 SLP130 P0015 T02330217
53915KARA ARA20190508095514305/08/19 09:55:31  5-MIN KARA 081555Z 35006KT 10SM VCTS FEW060 OVC080 23/22 A2992 20 97 1000 350/06 RMK AO2 LTG DSNT NW-E RAE55 P0000 T02280222
53915KARA ARA20190508100014405/08/19 10:00:31  5-MIN KARA 081600Z 35006KT 10SM FEW013 SCT060 OVC080 23/22 A2993 20 97 1000 350/06 RMK AO2 LTG DSNT N RAE1555 P0000 T02280222
53915KARA ARA20190508100516605/08/19 10:05:31  5-MIN KARA 081605Z 36008KT 320V030 10SM FEW013 BKN060 OVC080 23/22 A2993 20 93 1000 360/08 320V030 RMK AO2 LTG DSNT N AND E RAE1555 P0000 T02280217
53915KARA ARA20190508101014605/08/19 10:10:31  5-MIN KARA 081610Z 05008KT 10SM FEW012 BKN060 OVC080 23/21 A2992 30 87 1000 050/08 RMK AO2 LTG DSNT N-E RAE1555 P0000 T02330211
53915KARA ARA20190508101514605/08/19 10:15:31  5-MIN KARA 081615Z 07006KT 10SM FEW012 BKN060 OVC095 23/21 A2992 30 87 1000 070/06 RMK AO2 LTG DSNT N-E RAE1555 P0000 T02330211
53915KARA ARA20190508102015105/08/19 10:20:31  5-MIN KARA 081620Z 09006KT 10SM FEW012 BKN075 OVC095 23/21 A2992 30 87 1000 090/06 RMK AO2 LTG DSNT N AND NE RAE1555 P0000 T02330211
53915KARA ARA20190508102515105/08/19 10:25:31  5-MIN KARA 081625Z 11006KT 10SM FEW012 SCT060 OVC095 23/21 A2992 30 84 1000 110/06 RMK AO2 LTG DSNT N AND NE RAE1555 P0000 T02330206
53915KARA ARA20190508103013805/08/19 10:30:31  5-MIN KARA 081630Z 09008KT 10SM BKN070 OVC095 23/21 A2992 30 87 1000 090/08 RMK AO2 LTG DSNT NE RAE1555 P0000 T02330211
53915KARA ARA20190508103513805/08/19 10:35:31  5-MIN KARA 081635Z 11007KT 10SM SCT070 OVC100 23/21 A2991 30 87 1100 110/07 RMK AO2 LTG DSNT NE RAE1555 P0000 T02330211
53915KARA ARA20190508104013805/08/19 10:40:31  5-MIN KARA 081640Z 10007KT 10SM FEW075 OVC100 23/21 A2991 30 84 1000 100/07 RMK AO2 LTG DSNT NE RAE1555 P0000 T02330206
53915KARA ARA20190508104513805/08/19 10:45:31  5-MIN KARA 081645Z 10010KT 10SM FEW070 OVC100 23/21 A2991 30 87 1100 100/10 RMK AO2 LTG DSNT NE RAE1555 P0000 T02330211
53915KARA ARA20190508105014505/08/19 10:50:31  5-MIN KARA 081650Z 07008KT 10SM FEW070 OVC100 24/21 A2990 40 84 1100 070/08 RMK AO2 LTG DSNT NE RAE1555 SLP125 P0000 T02390211
53915KARA ARA20190508105512405/08/19 10:55:31  5-MIN KARA 081655Z 07009KT 10SM FEW070 OVC100 24/21 A2990 40 84 1100 070/09 RMK AO2 LTG DSNT NE T02390211
53915KARA ARA20190508110011705/08/19 11:00:31  5-MIN KARA 081700Z 07011KT 10SM OVC100 24/21 A2990 50 84 1100 060/11 RMK AO2 LTG DSNT NE T02390211
53915KARA ARA20190508110511705/08/19 11:05:31  5-MIN KARA 081705Z 08011KT 10SM OVC100 24/22 A2989 50 87 1100 080/11 RMK AO2 LTG DSNT NE T02390217
53915KARA ARA20190508111011705/08/19 11:10:31  5-MIN KARA 081710Z 08011KT 10SM BKN100 24/22 A2989 50 87 1200 080/11 RMK AO2 LTG DSNT NE T02440222
53915KARA ARA20190508111511705/08/19 11:15:31  5-MIN KARA 081715Z 09011KT 10SM BKN100 25/22 A2989 60 84 1300 090/11 RMK AO2 LTG DSNT NE T02500222
53915KARA ARA20190508112011905/08/19 11:20:31  5-MIN KARA 081720Z 09011KT 10SM FEW044 FEW055 BKN100 25/22 A2988 60 84 1300 090/11 RMK AO2 T02500222
53915KARA ARA20190508112511905/08/19 11:25:31  5-MIN KARA 081725Z 10011KT 10SM FEW044 SCT055 BKN100 26/22 A2988 60 81 1300 090/11 RMK AO2 T02560222
53915KARA ARA20190508113011905/08/19 11:30:31  5-MIN KARA 081730Z 10013KT 10SM SCT046 SCT050 BKN100 26/22 A2988 70 81 1300 090/13 RMK AO2 T02560222
53915KARA ARA20190508113511205/08/19 11:35:31  5-MIN KARA 081735Z 10012KT 10SM BKN048 BKN100 26/23 A2987 70 84 1300 100/12 RMK AO2 T02560228
53915KARA ARA20190508114011205/08/19 11:40:31  5-MIN KARA 081740Z 10012KT 10SM BKN048 BKN060 26/23 A2987 70 81 1400 100/12 RMK AO2 T02610228
53915KARA ARA20190508114511805/08/19 11:45:31  5-MIN KARA 081745Z 11013G20KT 10SM BKN048 BKN060 27/23 A2986 80 82 1500 110/13G20 RMK AO2 T02670233
53915KARA ARA20190508115014905/08/19 11:50:31  5-MIN KARA 081750Z 12014G20KT 10SM SCT048 BKN060 27/23 A2986 80 79 1500 110/14G20 RMK AO2 SLP111 60031 T02720233 10272 20228 51012
53915KARA ARA20190508115510505/08/19 11:55:31  5-MIN KARA 081755Z 12015KT 10SM SCT050 27/23 A2986 80 76 1500 120/15 RMK AO2 T02720228
53915KARA ARA20190508120011105/08/19 12:00:31  5-MIN KARA 081800Z 12015G21KT 10SM SCT050 28/23 A2986 80 76 1600 120/15G21 RMK AO2 T02780233
53915KARA ARA20190508120511105/08/19 12:05:31  5-MIN KARA 081805Z 13015G21KT 10SM FEW050 28/23 A2986 90 76 1600 130/15G21 RMK AO2 T02780233
53915KARA ARA20190508121011805/08/19 12:10:31  5-MIN KARA 081810Z 13015G20KT 10SM FEW050 FEW060 28/24 A2986 90 76 1700 130/15G20 RMK AO2 T02830239
53915KARA ARA20190508121511205/08/19 12:15:31  5-MIN KARA 081815Z 13014KT 10SM FEW050 SCT055 28/24 A2986 90 79 1600 130/14 RMK AO2 T02780239
53915KARA ARA20190508122011905/08/19 12:20:31  5-MIN KARA 081820Z 14015KT 10SM FEW025 SCT045 SCT055 28/23 A2985 90 76 1600 140/15 RMK AO2 T02780233
53915KARA ARA20190508122511205/08/19 12:25:31  5-MIN KARA 081825Z 13013KT 10SM SCT027 BKN050 27/23 A2985 90 79 1600 130/13 RMK AO2 T02720233
53915KARA ARA20190508123012505/08/19 12:30:31  5-MIN KARA 081830Z 12012G20KT 10SM FEW025 BKN029 BKN045 28/24 A2985 90 79 1600 120/12G20 RMK AO2 T02780239
53915KARA ARA20190508123511905/08/19 12:35:31  5-MIN KARA 081835Z 12013KT 10SM FEW023 BKN030 BKN041 28/24 A2985 90 79 1600 120/13 RMK AO2 T02780239
53915KARA ARA20190508124012505/08/19 12:40:31  5-MIN KARA 081840Z 15017G20KT 10SM FEW020 BKN027 OVC048 27/23 A2985 90 79 1600 140/17G20 RMK AO2 T02720233
53915KARA ARA20190508124512505/08/19 12:45:31  5-MIN KARA 081845Z 15017G24KT 10SM FEW020 BKN026 OVC031 28/23 A2985 90 74 1600 150/17G24 RMK AO2 T02780228
53915KARA ARA20190508125013205/08/19 12:50:31  5-MIN KARA 081850Z 15016G24KT 10SM FEW020 BKN026 OVC031 28/23 A2985 90 74 1600 150/16G24 RMK AO2 SLP106 T02780228
53915KARA ARA20190508125512605/08/19 12:55:31  5-MIN KARA 081855Z 15019G24KT 10SM BKN026 BKN031 OVC050 28/23 A2985 100 74 1600 150/19G24 RMK AO2 T02780228
53915KARA ARA20190508130012605/08/19 13:00:31  5-MIN KARA 081900Z 14018G24KT 10SM FEW020 BKN032 OVC050 28/23 A2984 100 76 1600 140/18G24 RMK AO2 T02780233
53915KARA ARA20190508130512605/08/19 13:05:31  5-MIN KARA 081905Z 15013G24KT 10SM SCT024 BKN029 OVC050 28/23 A2984 100 76 1600 150/13G24 RMK AO2 T02780233
53915KARA ARA20190508131012005/08/19 13:10:31  5-MIN KARA 081910Z 14017KT 10SM BKN026 BKN033 OVC070 28/23 A2984 100 76 1600 140/17 RMK AO2 T02780233
53915KARA ARA20190508131512605/08/19 13:15:31  5-MIN KARA 081915Z 15015G21KT 10SM SCT026 BKN031 BKN050 28/24 A2984 100 76 1700 150/15G21 RMK AO2 T02830239
53915KARA ARA20190508132012605/08/19 13:20:31  5-MIN KARA 081920Z 14019G25KT 10SM SCT024 BKN031 BKN070 28/23 A2984 100 74 1700 140/19G25 RMK AO2 T02830233
53915KARA ARA20190508132514405/08/19 13:25:31  5-MIN KARA 081925Z 15019G26KT 10SM SCT024 BKN031 BKN060 28/23 A2984 100 74 1700 150/19G26 RMK AO2 PK WND 15026/1922 T02830233
53915KARA ARA20190508133014405/08/19 13:30:31  5-MIN KARA 081930Z 14016G26KT 10SM FEW024 SCT028 BKN065 28/23 A2984 100 74 1700 140/16G26 RMK AO2 PK WND 15026/1922 T02830233
53915KARA ARA20190508133514405/08/19 13:35:31  5-MIN KARA 081935Z 15016G23KT 10SM FEW024 SCT030 BKN060 28/24 A2984 100 76 1700 150/16G23 RMK AO2 PK WND 15026/1922 T02830239
53915KARA ARA20190508134013805/08/19 13:40:31  5-MIN KARA 081940Z 15017KT 10SM FEW024 SCT030 OVC060 28/23 A2984 100 74 1700 150/17 RMK AO2 PK WND 15026/1922 T02830233
53915KARA ARA20190508134513805/08/19 13:45:31  5-MIN KARA 081945Z 15016KT 10SM FEW024 FEW030 OVC060 28/23 A2983 110 74 1700 150/16 RMK AO2 PK WND 15026/1922 T02830233
53915KARA ARA20190508135015105/08/19 13:50:31  5-MIN KARA 081950Z 15017G23KT 10SM FEW024 FEW030 OVC060 28/23 A2983 110 74 1700 150/17G23 RMK AO2 PK WND 15026/1922 SLP101 T02830233
53915KARA ARA20190508135512605/08/19 13:55:31  5-MIN KARA 081955Z 15016G23KT 10SM FEW026 FEW031 OVC060 28/23 A2983 110 74 1700 150/16G23 RMK AO2 T02830233
53915KARA ARA20190508140012605/08/19 14:00:31  5-MIN KARA 082000Z 16018G24KT 10SM FEW030 BKN060 BKN080 29/24 A2983 110 74 1800 150/18G24 RMK AO2 T02890239
53915KARA ARA20190508140511905/08/19 14:05:31  5-MIN KARA 082005Z 15018G24KT 10SM BKN060 BKN080 29/23 A2983 110 71 1800 150/18G24 RMK AO2 T02890233
53915KARA ARA20190508141011905/08/19 14:10:31  5-MIN KARA 082010Z 15019G24KT 10SM BKN065 BKN080 29/23 A2983 110 71 1800 150/19G24 RMK AO2 T02890233
53915KARA ARA20190508141516005/08/19 14:15:31  5-MIN KARA 082015Z 15019G26KT 10SM -RA FEW028 BKN065 BKN080 28/23 A2983 110 74 1700 150/19G26 RMK AO2 PK WND 15026/2011 RAB14 P0000 T02830233
53915KARA ARA20190508142016005/08/19 14:20:31  5-MIN KARA 082020Z 15020G27KT 10SM -RA FEW028 BKN065 BKN080 28/23 A2983 110 74 1700 150/20G27 RMK AO2 PK WND 15027/2016 RAB14 P0000 T02830233
53915KARA ARA20190508142515905/08/19 14:25:31  5-MIN KARA 082025Z 16018G27KT 10SM FEW028 BKN070 BKN080 28/23 A2983 110 74 1600 160/18G27 RMK AO2 PK WND 15027/2016 RAB14E24 P0000 T02780228
53915KARA ARA20190508143015305/08/19 14:30:31  5-MIN KARA 082030Z 16015KT 10SM FEW028 BKN070 BKN080 28/23 A2984 100 76 1600 160/15 RMK AO2 PK WND 15027/2016 RAB14E24 P0000 T02780233
53915KARA ARA20190508143515905/08/19 14:35:31  5-MIN KARA 082035Z 15015G22KT 10SM FEW028 BKN070 OVC080 28/23 A2984 100 76 1600 150/15G22 RMK AO2 PK WND 15027/2016 RAB14E24 P0000 T02780233
53915KARA ARA20190508144015905/08/19 14:40:31  5-MIN KARA 082040Z 16013G22KT 10SM FEW028 BKN070 OVC085 28/23 A2984 100 76 1600 160/13G22 RMK AO2 PK WND 15027/2016 RAB14E24 P0000 T02780233
53915KARA ARA20190508144515905/08/19 14:45:31  5-MIN KARA 082045Z 16013G20KT 10SM FEW025 BKN070 OVC080 28/23 A2984 100 76 1600 160/13G20 RMK AO2 PK WND 15027/2016 RAB14E24 P0000 T02780233
53915KARA ARA20190508145016505/08/19 14:50:31  5-MIN KARA 082050Z 15018KT 10SM FEW025 OVC070 28/23 A2983 110 76 1600 150/18 RMK AO2 PK WND 15027/2016 RAB14E24 SLP101 P0000 60000 T02780233 58019
53915KARA ARA20190508145512605/08/19 14:55:31  5-MIN KARA 082055Z 16015G21KT 10SM FEW025 FEW031 BKN070 28/23 A2983 110 76 1600 160/15G21 RMK AO2 T02780233
53915KARA ARA20190508150012605/08/19 15:00:31  5-MIN KARA 082100Z 16016G21KT 10SM FEW025 BKN070 BKN085 28/23 A2983 110 74 1700 160/16G21 RMK AO2 T02830233
53915KARA ARA20190508150512605/08/19 15:05:31  5-MIN KARA 082105Z 16016G22KT 10SM FEW025 BKN070 BKN085 29/24 A2983 110 74 1800 160/16G22 RMK AO2 T02890239
53915KARA ARA20190508151012605/08/19 15:10:31  5-MIN KARA 082110Z 16017G25KT 10SM FEW024 BKN070 BKN085 29/24 A2982 120 74 1800 160/17G25 RMK AO2 T02890239
53915KARA ARA20190508151511905/08/19 15:15:31  5-MIN KARA 082115Z 16019G25KT 10SM FEW024 SCT070 28/23 A2982 120 74 1700 160/19G25 RMK AO2 T02830233
53915KARA ARA20190508152015305/08/19 15:20:31  5-MIN KARA 082120Z 16018G28KT 10SM -RA FEW024 BKN070 29/24 A2982 120 74 1800 150/18G28 RMK AO2 PK WND 15028/2116 RAB19 P0000 T02890239
53915KARA ARA20190508152515305/08/19 15:25:31  5-MIN KARA 082125Z 16019G28KT 10SM -RA SCT024 BKN075 28/24 A2983 110 76 1700 160/19G28 RMK AO2 PK WND 15028/2116 RAB19 P0000 T02830239
53915KARA ARA20190508153015205/08/19 15:30:31  5-MIN KARA 082130Z 16016G26KT 10SM SCT024 BKN080 28/24 A2983 110 79 1600 160/16G26 RMK AO2 PK WND 15028/2116 RAB19E28 P0000 T02780239
53915KARA ARA20190508153515305/08/19 15:35:31  5-MIN KARA 082135Z 16020G27KT 10SM -RA BKN024 BKN080 28/23 A2983 110 76 1600 160/20G27 RMK AO2 PK WND 15028/2116 RAB19 P0000 T02780233
53915KARA ARA20190508154015305/08/19 15:40:31  5-MIN KARA 082140Z 16019G27KT 10SM -RA BKN024 BKN075 28/23 A2983 110 76 1700 160/19G27 RMK AO2 PK WND 15028/2116 RAB19 P0000 T02780233
53915KARA ARA20190508154514705/08/19 15:45:31  5-MIN KARA 082145Z 16015KT 10SM -RA BKN024 BKN075 28/24 A2983 110 76 1700 150/15 RMK AO2 PK WND 15028/2116 RAB19 P0000 T02830239
53915KARA ARA20190508155016605/08/19 15:50:31  5-MIN KARA 082150Z 16016G23KT 10SM BKN024 BKN028 BKN080 28/24 A2983 110 76 1700 160/16G23 RMK AO2 PK WND 15028/2116 RAB19E47 SLP100 P0000 T02830239
53915KARA ARA20190508155512605/08/19 15:55:31  5-MIN KARA 082155Z 16019G24KT 10SM BKN022 BKN028 BKN075 28/24 A2983 110 76 1700 160/19G24 RMK AO2 T02830239
53915KARA ARA20190508160013705/08/19 16:00:31  5-MIN KARA 082200Z 15020G28KT 10SM BKN022 BKN028 28/24 A2982 120 76 1700 150/20G28 RMK AO2 PK WND 15028/2200 T02830239
53915KARA ARA20190508160515305/08/19 16:05:31  5-MIN KARA 082205Z 16018G30KT 10SM -RA BKN023 BKN028 28/24 A2982 120 76 1700 160/18G30 RMK AO2 PK WND 15030/2201 RAB03 P0000 T02830239
53915KARA ARA20190508161015305/08/19 16:10:31  5-MIN KARA 082210Z 16017G30KT 10SM -RA SCT023 SCT075 28/24 A2982 120 76 1700 160/17G30 RMK AO2 PK WND 15030/2201 RAB03 P0000 T02830239
53915KARA ARA20190508161515205/08/19 16:15:31  5-MIN KARA 082215Z 15018G24KT 10SM SCT023 BKN075 28/24 A2982 120 79 1700 150/18G24 RMK AO2 PK WND 15030/2201 RAB03E13 P0000 T02780239
53915KARA ARA20190508162020505/08/19 16:20:31  5-MIN KARA 082220Z 15022G26KT 10SM BKN023 BKN080 28/24 A2981 120 79 1700 150/22G26 RMK AO2 PK WND 15030/2201 RAB03E13 P0000 T0278023905/08O2 PK WND 15030/2201 RAB03E13B22 P0000 T02720239
53915KARA ARA20190508165016605/08/19 16:50:31  5-MIN KARA 082250Z 15020G29KT 10SM -RA SCT021 BKN080 27/23 A2980 140 79 1600 150/20G29 RMK AO2 PK WND 15030/2201 RAB03E13B22 SLP090 P0000 T02720233
53915KARA ARA20190508165512905/08/19 16:55:31  5-MIN KARA 082255Z 16016G27KT 10SM -RA FEW021 BKN080 27/24 A2980 140 82 1600 160/16G27 RMK AO2 P0000 T02720239
53915KARA ARA20190508170014905/08/19 17:00:31  5-MIN KARA 082300Z 15016G26KT 10SM FEW021 BKN080 27/24 A2979 140 82 1600 150/16G26 RMK AO2 PK WND 16026/2258 RAE00 P0000 T02720239
53915KARA ARA20190508170514905/08/19 17:05:31  5-MIN KARA 082305Z 16019G26KT 10SM FEW021 BKN080 27/24 A2979 140 82 1600 160/19G26 RMK AO2 PK WND 16026/2258 RAE00 P0000 T02720239
53915KARA ARA20190508171014705/08/19 17:10:31  5-MIN KARA 082310Z 16015G25KT 10SM -RA FEW021 BKN085 27/23 A2979 140 79 1600 160/15G25 RMK AO2 PK WND 16026/2258 P0000 T02720233
53915KARA ARA20190508171514705/08/19 17:15:31  5-MIN KARA 082315Z 16018G23KT 10SM -RA FEW020 BKN085 27/24 A2980 140 82 1600 160/18G23 RMK AO2 PK WND 16026/2258 P0000 T02720239
53915KARA ARA20190508172014905/08/19 17:20:31  5-MIN KARA 082320Z 16016G24KT 10SM BKN080 BKN095 27/24 A2980 140 84 1600 160/16G24 RMK AO2 PK WND 16026/2258 RAE17 P0000 T02670239
53915KARA ARA20190508172514905/08/19 17:25:31  5-MIN KARA 082325Z 16016G24KT 10SM FEW018 BKN085 27/24 A2980 140 84 1600 160/16G24 RMK AO2 PK WND 16026/2258 RAE17 P0000 T02670239
53915KARA ARA20190508173015605/08/19 17:30:31  5-MIN KARA 082330Z 16015G24KT 10SM FEW020 BKN080 BKN095 27/24 A2980 140 84 1600 160/15G24 RMK AO2 PK WND 16026/2258 RAE17 P0000 T02670239
53915KARA ARA20190508173515605/08/19 17:35:31  5-MIN KARA 082335Z 17015G23KT 10SM SCT020 BKN080 BKN095 27/24 A2980 140 84 1600 160/15G23 RMK AO2 PK WND 16026/2258 RAE17 P0000 T02670239
53915KARA ARA20190508174015605/08/19 17:40:31  5-MIN KARA 082340Z 16018G21KT 10SM SCT020 BKN026 BKN080 27/24 A2980 140 84 1600 150/18G21 RMK AO2 PK WND 16026/2258 RAE17 P0000 T02670239
53915KARA ARA20190508174515005/08/19 17:45:31  5-MIN KARA 082345Z 16017KT 10SM SCT019 SCT026 BKN075 27/24 A2979 150 84 1600 160/17 RMK AO2 PK WND 16026/2258 RAE17 P0000 T02670239
53915KARA ARA20190508175018705/08/19 17:50:31  5-MIN KARA 082350Z 16019G25KT 10SM SCT019 SCT026 OVC075 27/24 A2980 140 84 1600 160/19G25 RMK AO2 PK WND 16026/2258 RAE17 SLP090 P0000 60000 T02670239 10289 20267 55009
53915KARA ARA20190508175512605/08/19 17:55:31  5-MIN KARA 082355Z 16014G25KT 10SM SCT019 BKN026 OVC075 27/24 A2980 140 84 1600 150/14G25 RMK AO2 T02670239
53915KARA ARA20190508180012605/08/19 18:00:31  5-MIN KARA 090000Z 16016G25KT 10SM SCT019 BKN026 OVC075 27/24 A2980 140 84 1600 160/16G25 RMK AO2 T02670239
53915KARA ARA20190508180512605/08/19 18:05:31  5-MIN KARA 090005Z 16013G25KT 10SM SCT019 BKN027 OVC075 27/24 A2981 130 84 1600 160/13G25 RMK AO2 T02670239
53915KARA ARA20190508181012605/08/19 18:10:31  5-MIN KARA 090010Z 16015G24KT 10SM BKN019 BKN027 OVC075 27/24 A2980 130 84 1600 160/15G24 RMK AO2 T02670239
53915KARA ARA20190508181511905/08/19 18:15:31  5-MIN KARA 090015Z 15020G25KT 10SM BKN017 OVC027 27/24 A2980 140 84 1600 150/20G25 RMK AO2 T02670239
53915KARA ARA20190508182012605/08/19 18:20:31  5-MIN KARA 090020Z 15018G25KT 10SM BKN017 BKN024 OVC029 27/24 A2980 140 84 1600 150/18G25 RMK AO2 T02670239
53915KARA ARA20190508182512005/08/19 18:25:31  5-MIN KARA 090025Z 16018KT 10SM BKN017 BKN022 OVC029 26/24 A2980 140 87 1500 150/18 RMK AO2 T02610239
53915KARA ARA20190508183012605/08/19 18:30:31  5-MIN KARA 090030Z 15015G22KT 10SM BKN017 BKN023 OVC029 26/24 A2981 130 87 1500 150/15G22 RMK AO2 T02610239
53915KARA ARA20190508183512605/08/19 18:35:31  5-MIN KARA 090035Z 15015G25KT 10SM BKN017 BKN027 OVC075 27/24 A2982 120 84 1500 150/15G25 RMK AO2 T02670239
53915KARA ARA20190508184013305/08/19 18:40:31  5-MIN KARA 090040Z 15018G25KT 10SM SCT017 BKN023 OVC075 26/24 A2982 120 87 1500 150/18G25 RMK AO2 PRESRR T02610239
53915KARA ARA20190508184512605/08/19 18:45:31  5-MIN KARA 090045Z 15014G23KT 10SM SCT018 BKN027 OVC075 26/24 A2983 110 87 1500 150/14G23 RMK AO2 T02610239
53915KARA ARA20190508185012705/08/19 18:50:31  5-MIN KARA 090050Z 15017KT 10SM BKN020 BKN027 OVC075 26/24 A2982 120 87 1500 150/17 RMK AO2 SLP098 T02610239
53915KARA ARA20190508185512005/08/19 18:55:31  5-MIN KARA 090055Z 15017KT 10SM BKN018 BKN025 OVC075 26/24 A2983 110 87 1500 150/17 RMK AO2 T02610239
53915KARA ARA20190508190012605/08/19 19:00:31  5-MIN KARA 090100Z 15018G24KT 10SM FEW018 BKN027 OVC080 26/24 A2982 120 87 1500 150/18G24 RMK AO2 T02610239
53915KARA ARA20190508190512605/08/19 19:05:31  5-MIN KARA 090105Z 15016G24KT 10SM FEW018 BKN030 OVC080 26/24 A2982 120 87 1500 150/16G24 RMK AO2 T02610239
53915KARA ARA20190508191012005/08/19 19:10:31  5-MIN KARA 090110Z 15015KT 10SM SCT019 BKN032 OVC080 26/24 A2982 110 87 1500 150/15 RMK AO2 T02610239
53915KARA ARA20190508191512605/08/19 19:15:31  5-MIN KARA 090115Z 15014G22KT 10SM SCT019 BKN026 OVC080 26/24 A2982 120 87 1500 150/14G22 RMK AO2 T02610239
53915KARA ARA20190508192014405/08/19 19:20:31  5-MIN KARA 090120Z 15017G26KT 10SM SCT019 BKN026 OVC080 26/24 A2983 110 87 1500 150/17G26 RMK AO2 PK WND 17026/0118 T02610239
53915KARA ARA20190508192514405/08/19 19:25:31  5-MIN KARA 090125Z 15013G26KT 10SM SCT018 BKN026 OVC080 26/24 A2982 120 87 1500 150/13G26 RMK AO2 PK WND 17026/0118 T02610239
53915KARA ARA20190508193014405/08/19 19:30:31  5-MIN KARA 090130Z 15016G21KT 10SM BKN018 BKN024 OVC080 26/24 A2982 120 87 1500 150/16G21 RMK AO2 PK WND 17026/0118 T02610239
53915KARA ARA20190508193513705/08/19 19:35:31  5-MIN KARA 090135Z 15013G21KT 10SM BKN018 OVC024 26/24 A2983 110 87 1500 150/13G21 RMK AO2 PK WND 17026/0118 T02610239
53915KARA ARA20190508194013705/08/19 19:40:31  5-MIN KARA 090140Z 15015G21KT 10SM BKN018 OVC024 26/24 A2983 110 87 1500 150/15G21 RMK AO2 PK WND 17026/0118 T02610239
53915KARA ARA20190508194514205/08/19 19:45:31  5-MIN KARA 090145Z AUTO 15013G21KT 10SM BKN018 OVC027 26/24 A2983 110 87 1500 150/13G21 RMK AO2 PK WND 17026/0118 T02610239
53915KARA ARA20190508195013605/08/19 19:50:31  5-MIN KARA 090150Z AUTO 15013KT 10SM OVC018 26/24 A2983 110 87 1500 150/13 RMK AO2 PK WND 17026/0118 SLP100 T02610239
53915KARA ARA20190508195511105/08/19 19:55:31  5-MIN KARA 090155Z AUTO 14014KT 10SM OVC017 26/24 A2983 110 87 1500 140/14 RMK AO2 T02610239
53915KARA ARA20190508200011105/08/19 20:00:31  5-MIN KARA 090200Z AUTO 14014KT 10SM OVC017 26/24 A2983 110 87 1500 140/14 RMK AO2 T02610239
53915KARA ARA20190508200511105/08/19 20:05:31  5-MIN KARA 090205Z AUTO 14011KT 10SM OVC017 26/24 A2983 110 87 1500 140/11 RMK AO2 T02610239
53915KARA ARA20190508201011705/08/19 20:10:31  5-MIN KARA 090210Z AUTO 14015G18KT 10SM OVC017 26/24 A2984 100 87 1500 140/15G18 RMK AO2 T02610239
53915KARA ARA20190508201511705/08/19 20:15:31  5-MIN KARA 090215Z AUTO 14012G19KT 10SM OVC017 26/24 A2984 100 87 1500 140/12G19 RMK AO2 T02610239
53915KARA ARA20190508202011105/08/19 20:20:31  5-MIN KARA 090220Z AUTO 14012KT 10SM OVC017 26/24 A2984 100 87 1500 140/12 RMK AO2 T02610239
53915KARA ARA20190508202511105/08/19 20:25:31  5-MIN KARA 090225Z AUTO 14014KT 10SM OVC017 26/24 A2984 100 87 1400 140/14 RMK AO2 T02610239
53915KARA ARA20190508203011705/08/19 20:30:31  5-MIN KARA 090230Z AUTO 15014G20KT 10SM OVC017 26/24 A2984 100 87 1400 150/14G20 RMK AO2 T02610239
53915KARA ARA20190508203511105/08/19 20:35:31  5-MIN KARA 090235Z AUTO 15015KT 10SM OVC017 26/24 A2984 100 87 1400 150/15 RMK AO2 T02610239
53915KARA ARA20190508204011105/08/19 20:40:31  5-MIN KARA 090240Z AUTO 15015KT 10SM OVC017 26/24 A2984 100 87 1400 150/15 RMK AO2 T02610239
53915KARA ARA20190508204511105/08/19 20:45:31  5-MIN KARA 090245Z AUTO 14015KT 10SM OVC017 26/24 A2984 100 87 1400 140/15 RMK AO2 T02610239
53915KARA ARA20190508205013105/08/19 20:50:31  5-MIN KARA 090250Z AUTO 15014KT 10SM BKN017 OVC085 26/24 A2985 100 87 1400 140/14 RMK AO2 SLP106 T02610239 56013
53915KARA ARA20190508205512505/08/19 20:55:31  5-MIN KARA 090255Z AUTO 14013KT 10SM BKN017 BKN021 OVC085 26/24 A2984 100 87 1400 140/13 RMK AO2 T02610239
53915KARA ARA20190508210012505/08/19 21:00:31  5-MIN KARA 090300Z AUTO 15013KT 10SM SCT017 BKN021 OVC085 26/24 A2984 100 87 1400 140/13 RMK AO2 T02610239
53915KARA ARA20190508210513105/08/19 21:05:31  5-MIN KARA 090305Z AUTO 15013G21KT 10SM SCT016 BKN021 OVC085 26/24 A2984 100 90 1400 140/13G21 RMK AO2 T02560239
53915KARA ARA20190508211012505/08/19 21:10:31  5-MIN KARA 090310Z AUTO 15014KT 10SM SCT016 BKN021 OVC085 26/24 A2984 100 90 1400 150/14 RMK AO2 T02560239
53915KARA ARA20190508211513105/08/19 21:15:31  5-MIN KARA 090315Z AUTO 14015G20KT 10SM SCT016 BKN021 OVC085 26/24 A2984 100 87 1400 140/15G20 RMK AO2 T02610239
53915KARA ARA20190508212012405/08/19 21:20:31  5-MIN KARA 090320Z AUTO 14014G21KT 10SM BKN016 OVC021 26/24 A2984 100 87 1400 140/14G21 RMK AO2 T02610239
53915KARA ARA20190508212512405/08/19 21:25:31  5-MIN KARA 090325Z AUTO 15015G23KT 10SM BKN016 OVC021 26/24 A2984 100 87 1400 150/15G23 RMK AO2 T02610239
53915KARA ARA20190508213012405/08/19 21:30:31  5-MIN KARA 090330Z AUTO 15018G24KT 10SM BKN016 OVC022 26/24 A2984 100 90 1400 150/18G24 RMK AO2 T02560239
53915KARA ARA20190508213511705/08/19 21:35:31  5-MIN KARA 090335Z AUTO 15013G24KT 10SM OVC016 26/24 A2984 100 87 1400 140/13G24 RMK AO2 T02610239
53915KARA ARA20190508214012405/08/19 21:40:31  5-MIN KARA 090340Z AUTO 15015G22KT 10SM BKN016 OVC023 26/24 A2984 100 90 1400 150/15G22 RMK AO2 T02560239
53915KARA ARA20190508214512305/08/19 21:45:31  5-MIN KARA 090345Z AUTO 15016G21KT 10SM BKN016 OVC023 26/24 A2985 90 90 1400 150/16G21 RMK AO2 T02560239
53915KARA ARA20190508215012305/08/19 21:50:31  5-MIN KARA 090350Z AUTO 15016G23KT 10SM OVC016 26/24 A2985 90 87 1400 150/16G23 RMK AO2 SLP106 T02610239
53915KARA ARA20190508215511605/08/19 21:55:31  5-MIN KARA 090355Z AUTO 15014G23KT 10SM OVC016 26/24 A2985 90 87 1400 150/14G23 RMK AO2 T02610239
53915KARA ARA20190508220011605/08/19 22:00:31  5-MIN KARA 090400Z AUTO 15014G23KT 10SM OVC016 26/24 A2985 90 90 1400 150/14G23 RMK AO2 T02560239
53915KARA ARA20190508220511705/08/19 22:05:31  5-MIN KARA 090405Z AUTO 15016G23KT 10SM OVC016 26/24 A2984 100 90 1400 150/16G23 RMK AO2 T02560239
53915KARA ARA20190508221011105/08/19 22:10:31  5-MIN KARA 090410Z AUTO 15014KT 10SM OVC016 26/24 A2984 100 90 1400 140/14 RMK AO2 T02560239
53915KARA ARA20190508221511105/08/19 22:15:31  5-MIN KARA 090415Z AUTO 15013KT 10SM OVC016 26/24 A2984 100 90 1400 140/13 RMK AO2 T02560239
53915KARA ARA20190508222012405/08/19 22:20:31  5-MIN KARA 090420Z AUTO 14014G21KT 10SM BKN016 OVC023 26/24 A2984 100 90 1400 140/14G21 RMK AO2 T02560239
53915KARA ARA20190508222512405/08/19 22:25:31  5-MIN KARA 090425Z AUTO 14015G21KT 10SM BKN016 OVC023 26/24 A2984 100 90 1400 140/15G21 RMK AO2 T02560239
53915KARA ARA20190508223012405/08/19 22:30:31  5-MIN KARA 090430Z AUTO 14012G21KT 10SM BKN016 OVC023 26/24 A2983 110 90 1400 140/12G21 RMK AO2 T02560239
53915KARA ARA20190508223511805/08/19 22:35:31  5-MIN KARA 090435Z AUTO 15013KT 10SM BKN016 OVC023 26/24 A2983 110 90 1400 150/13 RMK AO2 T02560239
53915KARA ARA20190508224011105/08/19 22:40:31  5-MIN KARA 090440Z AUTO 15012KT 10SM OVC015 26/24 A2984 100 90 1400 140/12 RMK AO2 T02560239
53915KARA ARA20190508224511805/08/19 22:45:31  5-MIN KARA 090445Z AUTO 14014KT 10SM BKN015 OVC028 26/24 A2984 100 90 1400 140/14 RMK AO2 T02560239
53915KARA ARA20190508225011805/08/19 22:50:31  5-MIN KARA 090450Z AUTO 15012KT 10SM OVC015 26/24 A2984 100 90 1400 150/12 RMK AO2 SLP103 T02560239
53915KARA ARA20190508225512405/08/19 22:55:31  5-MIN KARA 090455Z AUTO 15013G20KT 10SM BKN015 OVC020 26/24 A2984 100 90 1400 140/13G20 RMK AO2 T02560239
53915KARA ARA20190508230011705/08/19 23:00:31  5-MIN KARA 090500Z AUTO 15014G20KT 10SM OVC015 26/24 A2983 110 90 1400 150/14G20 RMK AO2 T02560239
53915KARA ARA20190508230511105/08/19 23:05:31  5-MIN KARA 090505Z AUTO 15013KT 10SM OVC015 26/24 A2983 110 90 1400 150/13 RMK AO2 T02560239
53915KARA ARA20190508231012405/08/19 23:10:31  5-MIN KARA 090510Z AUTO 15014G19KT 10SM BKN015 OVC019 26/24 A2984 100 90 1400 150/14G19 RMK AO2 T02560239
53915KARA ARA20190508231512405/08/19 23:15:31  5-MIN KARA 090515Z AUTO 15011G21KT 10SM BKN015 OVC019 26/24 A2984 100 90 1400 150/11G21 RMK AO2 T02560239
53915KARA ARA20190508232012905/08/19 23:20:31  5-MIN KARA 090520Z AUTO 15017G24KT 10SM BKN015 OVC021 26/24 A2984 100 90 1400 150/17G24 RMK AO2 T02560239 TSNO
53915KARA ARA20190508232512905/08/19 23:25:31  5-MIN KARA 090525Z AUTO 15014G24KT 10SM BKN015 OVC021 26/24 A2984 100 90 1400 150/14G24 RMK AO2 T02560239 TSNO
53915KARA ARA20190508233012305/08/19 23:30:31  5-MIN KARA 090530Z AUTO 15015KT 10SM BKN015 OVC021 26/24 A2984 100 90 1400 150/15 RMK AO2 T02560239 TSNO
53915KARA ARA20190508233512305/08/19 23:35:31  5-MIN KARA 090535Z AUTO 15015KT 10SM BKN015 OVC023 26/24 A2984 100 90 1400 150/15 RMK AO2 T02560239 TSNO
53915KARA ARA20190508234012905/08/19 23:40:31  5-MIN KARA 090540Z AUTO 15012G19KT 10SM BKN014 OVC021 26/24 A2984 100 90 1400 150/12G19 RMK AO2 T02560239 TSNO
53915KARA ARA20190508234512905/08/19 23:45:31  5-MIN KARA 090545Z AUTO 15014G20KT 10SM BKN014 OVC021 26/24 A2984 100 90 1400 150/14G20 RMK AO2 T02560239 TSNO
53915KARA ARA20190508235011305/08/19 23:50:31  5-MIN KARA 090550Z AUTO 15013KT 10SM BKN016 OVC023 26/24 A2984 100 90 1400 150/13 RMK AO2 TSNO
53915KARA ARA20190508235512305/08/19 23:55:31  5-MIN KARA 090555Z AUTO 15015KT 10SM BKN016 OVC024 26/24 A2984 100 90 1400 150/15 RMK AO2 T02560239 TSNO
53915KARA ARA20190509000012305/09/19 00:00:31  5-MIN KARA 090600Z AUTO 15013KT 10SM BKN016 OVC024 26/24 A2984 100 90 1400 150/13 RMK AO2 T02560239 TSNO
53915KARA ARA20190509000512305/09/19 00:05:31  5-MIN KARA 090605Z AUTO 15013KT 10SM BKN014 OVC024 26/24 A2984 100 90 1400 150/13 RMK AO2 T02560239 TSNO
53915KARA ARA20190509001012305/09/19 00:10:31  5-MIN KARA 090610Z AUTO 15015KT 10SM BKN014 OVC019 26/24 A2983 110 93 1400 150/15 RMK AO2 T02560244 TSNO
53915KARA ARA20190509001511805/09/19 00:15:31  5-MIN KARA 090615Z AUTO 15014KT 10SM BKN014 OVC021 26/24 A2983 110 93 1400 150/14 RMK AO2 T02560244
53915KARA ARA20190509002011805/09/19 00:20:31  5-MIN KARA 090620Z AUTO 15015KT 10SM BKN014 OVC021 26/24 A2983 110 93 1400 150/15 RMK AO2 T02560244
53915KARA ARA20190509002512405/09/19 00:25:31  5-MIN KARA 090625Z AUTO 15015G21KT 10SM BKN014 OVC019 26/24 A2983 110 93 1400 150/15G21 RMK AO2 T02560244
53915KARA ARA20190509003012505/09/19 00:30:31  5-MIN KARA 090630Z AUTO 15018KT 10SM BKN014 BKN019 OVC025 26/24 A2983 110 93 1400 150/18 RMK AO2 T02560244
53915KARA ARA20190509003511805/09/19 00:35:31  5-MIN KARA 090635Z AUTO 15016KT 10SM BKN014 OVC022 26/24 A2983 110 93 1400 150/16 RMK AO2 T02560244
53915KARA ARA20190509004011805/09/19 00:40:31  5-MIN KARA 090640Z AUTO 15017KT 10SM BKN016 OVC022 26/24 A2982 120 93 1400 150/17 RMK AO2 T02560244
53915KARA ARA20190509004511805/09/19 00:45:31  5-MIN KARA 090645Z AUTO 15017KT 10SM BKN014 OVC022 26/24 A2982 120 93 1400 150/17 RMK AO2 T02560244
53915KARA ARA20190509005013105/09/19 00:50:31  5-MIN KARA 090650Z AUTO 15015G23KT 10SM BKN014 OVC022 26/24 A2982 120 93 1400 150/15G23 RMK AO2 SLP097 T02560244
53915KARA ARA20190509005512405/09/19 00:55:31  5-MIN KARA 090655Z AUTO 15016G26KT 10SM BKN015 BKN021 26/24 A2982 120 93 1400 150/16G26 RMK AO2 T02560244
53915KARA ARA20190509010012405/09/19 01:00:31  5-MIN KARA 090700Z AUTO 15016G26KT 10SM BKN015 BKN023 26/24 A2982 120 93 1400 150/16G26 RMK AO2 T02560244
53915KARA ARA20190509010512405/09/19 01:05:31  5-MIN KARA 090705Z AUTO 15016G22KT 10SM BKN015 OVC025 26/24 A2982 120 93 1400 150/16G22 RMK AO2 T02560244
53915KARA ARA20190509011013105/09/19 01:10:31  5-MIN KARA 090710Z AUTO 15016G22KT 10SM BKN013 BKN018 OVC027 26/24 A2982 120 93 1400 150/16G22 RMK AO2 T02560244
53915KARA ARA20190509011512405/09/19 01:15:31  5-MIN KARA 090715Z AUTO 15015G23KT 10SM BKN013 OVC018 26/24 A2981 120 93 1400 150/15G23 RMK AO2 T02560244
53915KARA ARA20190509012011705/09/19 01:20:31  5-MIN KARA 090720Z AUTO 16013G23KT 10SM OVC013 26/24 A2982 120 93 1400 150/13G23 RMK AO2 T02560244
53915KARA ARA20190509012511705/09/19 01:25:31  5-MIN KARA 090725Z AUTO 15016G21KT 10SM OVC014 26/24 A2982 120 93 1400 150/16G21 RMK AO2 T02560244
53915KARA ARA20190509013011705/09/19 01:30:31  5-MIN KARA 090730Z AUTO 15012G21KT 10SM OVC014 26/24 A2982 120 93 1400 150/12G21 RMK AO2 T02560244
53915KARA ARA20190509013511105/09/19 01:35:31  5-MIN KARA 090735Z AUTO 16013KT 10SM OVC014 26/24 A2982 120 93 1400 160/13 RMK AO2 T02560244
53915KARA ARA20190509014011105/09/19 01:40:31  5-MIN KARA 090740Z AUTO 15014KT 10SM OVC014 26/24 A2981 130 93 1400 150/14 RMK AO2 T02560244
53915KARA ARA20190509014511105/09/19 01:45:31  5-MIN KARA 090745Z AUTO 16011KT 10SM OVC012 26/24 A2981 120 93 1400 150/11 RMK AO2 T02560244
53915KARA ARA20190509015011805/09/19 01:50:31  5-MIN KARA 090750Z AUTO 16013KT 10SM OVC012 26/24 A2981 120 93 1400 150/13 RMK AO2 SLP095 T02560244
53915KARA ARA20190509015511105/09/19 01:55:31  5-MIN KARA 090755Z AUTO 15011KT 10SM OVC012 26/24 A2981 130 93 1400 150/11 RMK AO2 T02560244
53915KARA ARA20190509020011805/09/19 02:00:31  5-MIN KARA 090800Z AUTO 16013KT 10SM BKN012 OVC018 26/24 A2981 130 93 1400 150/13 RMK AO2 T02560244
53915KARA ARA20190509020511805/09/19 02:05:31  5-MIN KARA 090805Z AUTO 16014KT 10SM BKN012 OVC018 26/24 A2981 130 93 1400 160/14 RMK AO2 T02560244
53915KARA ARA20190509021011705/09/19 02:10:31  5-MIN KARA 090810Z AUTO 16013G22KT 10SM OVC012 26/24 A2980 130 90 1400 160/13G22 RMK AO2 T02560239
53915KARA ARA20190509021512405/09/19 02:15:31  5-MIN KARA 090815Z AUTO 15016G22KT 10SM BKN012 OVC019 26/24 A2980 140 90 1400 150/16G22 RMK AO2 T02560239
53915KARA ARA20190509022012405/09/19 02:20:31  5-MIN KARA 090820Z AUTO 15014G21KT 10SM BKN012 OVC019 26/24 A2980 140 90 1400 150/14G21 RMK AO2 T02560239
53915KARA ARA20190509022511805/09/19 02:25:31  5-MIN KARA 090825Z AUTO 16014KT 10SM BKN012 OVC017 26/24 A2980 140 90 1400 150/14 RMK AO2 T02560239
53915KARA ARA20190509023011805/09/19 02:30:31  5-MIN KARA 090830Z AUTO 16014KT 10SM BKN014 OVC019 26/24 A2980 140 90 1400 160/14 RMK AO2 T02560239
53915KARA ARA20190509023512405/09/19 02:35:31  5-MIN KARA 090835Z AUTO 15015G21KT 10SM BKN014 OVC019 26/24 A2979 140 90 1400 150/15G21 RMK AO2 T02560239
53915KARA ARA20190509024011805/09/19 02:40:31  5-MIN KARA 090840Z AUTO 15013KT 10SM BKN012 OVC018 26/24 A2979 140 90 1400 150/13 RMK AO2 T02560239
53915KARA ARA20190509024511705/09/19 02:45:31  5-MIN KARA 090845Z AUTO 16014G21KT 10SM OVC014 26/24 A2979 140 90 1400 150/14G21 RMK AO2 T02560239
53915KARA ARA20190509025013005/09/19 02:50:31  5-MIN KARA 090850Z AUTO 16014G21KT 10SM OVC014 26/24 A2980 140 90 1400 160/14G21 RMK AO2 SLP089 T02560239 55002
53915KARA ARA20190509025511805/09/19 02:55:31  5-MIN KARA 090855Z AUTO 16012KT 10SM BKN014 OVC025 26/24 A2980 140 90 1400 160/12 RMK AO2 T02560239
53915KARA ARA20190509030012405/09/19 03:00:31  5-MIN KARA 090900Z AUTO 16015G23KT 10SM BKN014 OVC027 26/24 A2980 140 90 1400 160/15G23 RMK AO2 T02560239
53915KARA ARA20190509030512405/09/19 03:05:31  5-MIN KARA 090905Z AUTO 16016G23KT 10SM BKN014 OVC025 26/24 A2979 140 90 1400 160/16G23 RMK AO2 T02560239
53915KARA ARA20190509031012405/09/19 03:10:31  5-MIN KARA 090910Z AUTO 15017G23KT 10SM BKN013 OVC027 26/24 A2979 140 90 1400 150/17G23 RMK AO2 T02560239
53915KARA ARA20190509031512405/09/19 03:15:31  5-MIN KARA 090915Z AUTO 16015G23KT 10SM BKN013 OVC027 26/24 A2980 140 90 1400 160/15G23 RMK AO2 T02560239
53915KARA ARA20190509032013105/09/19 03:20:31  5-MIN KARA 090920Z AUTO 16015G23KT 10SM BKN013 BKN021 OVC027 26/24 A2979 140 90 1400 160/15G23 RMK AO2 T02560239
53915KARA ARA20190509032513105/09/19 03:25:31  5-MIN KARA 090925Z AUTO 16016G24KT 10SM BKN013 BKN019 OVC027 26/24 A2980 140 90 1400 160/16G24 RMK AO2 T02560239
53915KARA ARA20190509033012405/09/19 03:30:31  5-MIN KARA 090930Z AUTO 16014G24KT 10SM BKN015 OVC019 26/24 A2980 140 90 1400 160/14G24 RMK AO2 T02560239
53915KARA ARA20190509033512405/09/19 03:35:31  5-MIN KARA 090935Z AUTO 16018G23KT 10SM BKN015 OVC021 26/24 A2979 150 90 1400 160/18G23 RMK AO2 T02560239
53915KARA ARA20190509034013105/09/19 03:40:31  5-MIN KARA 090940Z AUTO 16017G25KT 10SM BKN015 BKN021 OVC110 26/24 A2979 150 90 1400 160/17G25 RMK AO2 T02560239
53915KARA ARA20190509034513105/09/19 03:45:31  5-MIN KARA 090945Z AUTO 16014G25KT 10SM BKN015 BKN021 OVC110 26/24 A2979 140 90 1400 160/14G25 RMK AO2 T02560239
53915KARA ARA20190509035013805/09/19 03:50:31  5-MIN KARA 090950Z AUTO 16017G23KT 10SM BKN015 BKN021 BKN120 26/24 A2979 150 90 1400 160/17G23 RMK AO2 SLP086 T02560239
53915KARA ARA20190509035511805/09/19 03:55:31  5-MIN KARA 090955Z AUTO 16017KT 10SM BKN016 BKN120 26/24 A2979 150 90 1400 160/17 RMK AO2 T02560239
53915KARA ARA20190509040012405/09/19 04:00:31  5-MIN KARA 091000Z AUTO 16013G23KT 10SM BKN016 BKN022 26/24 A2979 150 90 1400 160/13G23 RMK AO2 T02560239
53915KARA ARA20190509040511705/09/19 04:05:31  5-MIN KARA 091005Z AUTO 16018G23KT 10SM BKN016 26/24 A2979 150 90 1400 160/18G23 RMK AO2 T02560239
53915KARA ARA20190509041012405/09/19 04:10:31  5-MIN KARA 091010Z AUTO 16018G23KT 10SM BKN016 BKN020 26/24 A2979 150 90 1400 160/18G23 RMK AO2 T02560239
53915KARA ARA20190509041512405/09/19 04:15:31  5-MIN KARA 091015Z AUTO 17017G22KT 10SM BKN016 BKN020 26/24 A2979 140 90 1400 160/17G22 RMK AO2 T02560239
53915KARA ARA20190509042012405/09/19 04:20:31  5-MIN KARA 091020Z AUTO 16016G22KT 10SM BKN016 OVC020 26/24 A2980 140 90 1400 160/16G22 RMK AO2 T02560239
53915KARA ARA20190509042512405/09/19 04:25:31  5-MIN KARA 091025Z AUTO 16015G22KT 10SM BKN015 OVC020 26/24 A2980 140 90 1400 160/15G22 RMK AO2 T02560239
53915KARA ARA20190509043012405/09/19 04:30:31  5-MIN KARA 091030Z AUTO 16016G24KT 10SM BKN015 OVC022 26/24 A2980 140 90 1400 160/16G24 RMK AO2 T02560239
53915KARA ARA20190509043511905/09/19 04:35:31  5-MIN KARA 091035Z 17016G25KT 10SM BKN015 OVC022 26/24 A2980 140 90 1400 170/16G25 RMK AO2 T02560239
53915KARA ARA20190509044011905/09/19 04:40:31  5-MIN KARA 091040Z 16013G25KT 10SM BKN014 OVC020 26/24 A2981 130 90 1400 160/13G25 RMK AO2 T02560239
53915KARA ARA20190509044512005/09/19 04:45:31  5-MIN KARA 091045Z 16014KT 10SM BKN014 BKN020 OVC028 26/24 A2981 130 90 1400 160/14 RMK AO2 T02560239
53915KARA ARA20190509045012605/09/19 04:50:31  5-MIN KARA 091050Z 17014G20KT 10SM BKN014 OVC020 26/24 A2982 120 90 1400 170/14G20 RMK AO2 SLP096 T02560239
53915KARA ARA20190509045511905/09/19 04:55:31  5-MIN KARA 091055Z 16014G21KT 10SM BKN014 OVC020 26/24 A2982 120 90 1400 160/14G21 RMK AO2 T02560239
53915KARA ARA20190509050012605/09/19 05:00:31  5-MIN KARA 091100Z 16012G21KT 10SM BKN014 BKN020 OVC027 26/24 A2982 120 90 1400 160/12G21 RMK AO2 T02560239
53915KARA ARA20190509050511905/09/19 05:05:31  5-MIN KARA 091105Z 16014G22KT 10SM BKN014 OVC020 26/24 A2982 120 90 1400 160/14G22 RMK AO2 T02560239
53915KARA ARA20190509051012605/09/19 05:10:31  5-MIN KARA 091110Z 17013G22KT 10SM BKN014 BKN020 OVC026 26/24 A2982 120 90 1400 170/13G22 RMK AO2 T02560239
53915KARA ARA20190509051511205/09/19 05:15:31  5-MIN KARA 091115Z 16014G21KT 10SM BKN016 26/24 A2982 120 90 1400 160/14G21 RMK AO2 T02560239
53915KARA ARA20190509052011205/09/19 05:20:31  5-MIN KARA 091120Z 16012G21KT 10SM OVC016 26/24 A2983 110 90 1400 160/12G21 RMK AO2 T02560239
53915KARA ARA20190509052511305/09/19 05:25:31  5-MIN KARA 091125Z 16012KT 10SM BKN016 OVC024 26/24 A2983 110 90 1400 160/12 RMK AO2 T02560239
53915KARA ARA20190509053012005/09/19 05:30:31  5-MIN KARA 091130Z 16012KT 10SM BKN016 BKN020 OVC024 26/24 A2983 110 90 1400 160/12 RMK AO2 T02560239
53915KARA ARA20190509053511305/09/19 05:35:31  5-MIN KARA 091135Z 16013KT 10SM BKN016 OVC024 26/24 A2983 110 90 1400 160/13 RMK AO2 T02560239
53915KARA ARA20190509054012005/09/19 05:40:31  5-MIN KARA 091140Z 17013KT 10SM BKN016 BKN021 OVC026 26/24 A2983 110 90 1400 160/13 RMK AO2 T02560239
53915KARA ARA20190509054512005/09/19 05:45:31  5-MIN KARA 091145Z 17013KT 10SM BKN016 BKN021 OVC027 26/24 A2984 100 90 1400 170/13 RMK AO2 T02560239
53915KARA ARA20190509055015705/09/19 05:50:31  5-MIN KARA 091150Z 17015G19KT 10SM BKN016 BKN021 OVC027 26/24 A2984 100 90 1400 160/15G19 RMK AO2 SLP102 70031 T02560239 10256 20256 56015
53915KARA ARA20190509055511905/09/19 05:55:31  5-MIN KARA 091155Z 17015G22KT 10SM BKN016 OVC026 26/24 A2984 100 90 1400 170/15G22 RMK AO2 T02560239
53915KARA ARA20190509060012605/09/19 06:00:31  5-MIN KARA 091200Z 17014G22KT 10SM BKN016 BKN024 BKN029 26/24 A2984 100 90 1400 170/14G22 RMK AO2 T02560239
53915KARA ARA20190509060512605/09/19 06:05:31  5-MIN KARA 091205Z 17012G21KT 10SM BKN016 BKN026 BKN031 26/24 A2984 100 90 1400 160/12G21 RMK AO2 T02560239
53915KARA ARA20190509061012505/09/19 06:10:31  5-MIN KARA 091210Z 17014G21KT 10SM SCT017 BKN023 OVC033 26/24 A2985 90 90 1400 170/14G21 RMK AO2 T02560239
53915KARA ARA20190509061511905/09/19 06:15:31  5-MIN KARA 091215Z 17010KT 10SM SCT015 BKN021 OVC034 26/24 A2985 90 90 1400 170/10 RMK AO2 T02560239
53915KARA ARA20190509062012505/09/19 06:20:31  5-MIN KARA 091220Z 17013G20KT 10SM SCT015 BKN021 OVC034 26/24 A2985 90 90 1400 170/13G20 RMK AO2 T02560239
53915KARA ARA20190509062512505/09/19 06:25:31  5-MIN KARA 091225Z 17015G20KT 10SM SCT015 BKN023 OVC032 26/24 A2985 90 90 1400 170/15G20 RMK AO2 T02560239
53915KARA ARA20190509063011805/09/19 06:30:31  5-MIN KARA 091230Z 16011G20KT 10SM BKN015 OVC023 26/24 A2985 90 87 1400 160/11G20 RMK AO2 T02610239
53915KARA ARA20190509063511905/09/19 06:35:31  5-MIN KARA 091235Z 17011KT 10SM SCT015 BKN020 OVC027 26/24 A2985 90 87 1400 170/11 RMK AO2 T02610239
53915KARA ARA20190509064011905/09/19 06:40:31  5-MIN KARA 091240Z 17012KT 10SM BKN015 BKN020 OVC027 26/24 A2985 90 90 1400 170/12 RMK AO2 T02560239
53915KARA ARA20190509064511205/09/19 06:45:31  5-MIN KARA 091245Z 18011KT 10SM BKN015 OVC026 26/24 A2985 90 87 1400 180/11 RMK AO2 T02610239
53915KARA ARA20190509065013205/09/19 06:50:31  5-MIN KARA 091250Z 17011G16KT 10SM BKN015 BKN021 OVC026 26/24 A2985 90 87 1400 170/11G16 RMK AO2 SLP108 T02610239
53915KARA ARA20190509065511905/09/19 06:55:31  5-MIN KARA 091255Z 17010KT 10SM BKN015 BKN021 OVC026 26/24 A2985 90 87 1400 170/10 RMK AO2 T02610239
53915KARA ARA20190509070011205/09/19 07:00:31  5-MIN KARA 091300Z 17012KT 10SM BKN015 OVC021 26/24 A2985 90 87 1400 170/12 RMK AO2 T02610239
53915KARA ARA20190509070511205/09/19 07:05:31  5-MIN KARA 091305Z 17010KT 10SM BKN015 OVC021 26/24 A2986 90 87 1400 170/10 RMK AO2 T02610239
53915KARA ARA20190509071011205/09/19 07:10:31  5-MIN KARA 091310Z 18011KT 10SM BKN015 OVC023 26/24 A2986 80 87 1400 180/11 RMK AO2 T02610239
53915KARA ARA20190509071511205/09/19 07:15:31  5-MIN KARA 091315Z 19011KT 10SM BKN015 OVC021 26/24 A2986 80 87 1400 190/11 RMK AO2 T02610239
53915KARA ARA20190509072010505/09/19 07:20:31  5-MIN KARA 091320Z 19010KT 10SM OVC014 26/24 A2986 80 87 1400 180/10 RMK AO2 T02610239
53915KARA ARA20190509072511205/09/19 07:25:31  5-MIN KARA 091325Z 18010KT 10SM BKN014 OVC021 26/24 A2987 80 87 1400 180/10 RMK AO2 T02610239
53915KARA ARA20190509073011205/09/19 07:30:31  5-MIN KARA 091330Z 19007KT 10SM BKN014 OVC021 26/24 A2987 80 87 1400 190/07 RMK AO2 T02610239
53915KARA ARA20190509073511205/09/19 07:35:31  5-MIN KARA 091335Z 19010KT 10SM BKN014 OVC021 26/24 A2987 70 90 1400 190/10 RMK AO2 T02610244
53915KARA ARA20190509074011805/09/19 07:40:31  5-MIN KARA 091340Z 18008G15KT 10SM BKN014 OVC021 26/24 A2987 70 90 1400 180/08G15 RMK AO2 T02610244
53915KARA ARA20190509074511205/09/19 07:45:31  5-MIN KARA 091345Z 18008KT 10SM BKN016 OVC021 26/24 A2987 80 90 1400 180/08 RMK AO2 T02610244
53915KARA ARA20190509075013505/09/19 07:50:31  5-MIN KARA 091350Z 20009KT 10SM -RA BKN016 OVC021 26/24 A2987 80 90 1400 190/09 RMK AO2 RAB48 SLP112 P0000 T02610244
53915KARA ARA20190509075512205/09/19 07:55:31  5-MIN KARA 091355Z 18010KT 10SM -RA BKN013 OVC019 26/24 A2987 80 90 1400 180/10 RMK AO2 P0000 T02610244
53915KARA ARA20190509080011905/09/19 08:00:31  5-MIN KARA 091400Z 18011KT 10SM OVC015 26/24 A2987 80 90 1400 180/11 RMK AO2 RAE1357 P0000 T02610244
53915KARA ARA20190509080511905/09/19 08:05:31  5-MIN KARA 091405Z 19012KT 10SM OVC015 26/24 A2987 80 90 1400 190/12 RMK AO2 RAE1357 P0000 T02610244
53915KARA ARA20190509081011905/09/19 08:10:31  5-MIN KARA 091410Z 19008KT 10SM OVC015 26/24 A2987 80 90 1400 190/08 RMK AO2 RAE1357 P0000 T02610244
53915KARA ARA20190509081511905/09/19 08:15:31  5-MIN KARA 091415Z 17008KT 10SM OVC015 27/24 A2987 80 87 1500 170/08 RMK AO2 RAE1357 P0000 T02670244
53915KARA ARA20190509082011905/09/19 08:20:31  5-MIN KARA 091420Z 17009KT 10SM OVC015 27/24 A2986 80 87 1500 170/09 RMK AO2 RAE1357 P0000 T02670244
53915KARA ARA20190509082511905/09/19 08:25:31  5-MIN KARA 091425Z 17010KT 10SM OVC015 27/24 A2987 80 87 1500 170/10 RMK AO2 RAE1357 P0000 T02670244
53915KARA ARA20190509083012605/09/19 08:30:31  5-MIN KARA 091430Z 18009KT 10SM BKN015 OVC023 27/24 A2987 80 87 1500 180/09 RMK AO2 RAE1357 P0000 T02670244
53915KARA ARA20190509083512605/09/19 08:35:31  5-MIN KARA 091435Z 18010KT 10SM BKN015 OVC030 27/24 A2987 70 87 1500 180/10 RMK AO2 RAE1357 P0000 T02670244
53915KARA ARA20190509084012605/09/19 08:40:31  5-MIN KARA 091440Z 19008KT 10SM BKN015 OVC020 27/24 A2987 70 87 1500 190/08 RMK AO2 RAE1357 P0000 T02670244
53915KARA ARA20190509084512605/09/19 08:45:31  5-MIN KARA 091445Z 19011KT 10SM BKN015 OVC020 27/24 A2987 80 87 1500 190/11 RMK AO2 RAE1357 P0000 T02670244
53915KARA ARA20190509085015205/09/19 08:50:31  5-MIN KARA 091450Z 17012KT 10SM BKN015 BKN023 OVC041 27/24 A2987 80 87 1500 170/12 RMK AO2 RAE1357 SLP113 P0000 60000 T02670244 53014
53915KARA ARA20190509085512905/09/19 08:55:31  5-MIN KARA 091455Z 19008KT 10SM -RA BKN015 BKN021 OVC041 27/24 A2987 80 87 1500 190/08 RMK AO2 P0000 T02670244
53915KARA ARA20190509090012905/09/19 09:00:31  5-MIN KARA 091500Z 19010KT 10SM -RA BKN015 BKN021 OVC038 27/24 A2987 80 87 1500 190/10 RMK AO2 P0000 T02670244
53915KARA ARA20190509090513105/09/19 09:05:31  5-MIN KARA 091505Z 18010KT 10SM SCT015 BKN021 OVC038 27/24 A2987 80 84 1500 180/10 RMK AO2 RAE02 P0000 T02720244
53915KARA ARA20190509091013105/09/19 09:10:31  5-MIN KARA 091510Z 18011KT 10SM SCT015 SCT021 OVC038 27/24 A2987 80 84 1500 180/11 RMK AO2 RAE02 P0000 T02720244
53915KARA ARA20190509091513105/09/19 09:15:31  5-MIN KARA 091515Z 18012KT 10SM SCT015 SCT021 OVC040 27/24 A2987 70 87 1500 180/12 RMK AO2 RAE02 P0000 T02670244
53915KARA ARA20190509092013105/09/19 09:20:31  5-MIN KARA 091520Z 19010KT 10SM SCT015 BKN030 OVC038 27/24 A2987 70 87 1500 190/10 RMK AO2 RAE02 P0000 T02670244
53915KARA ARA20190509092513105/09/19 09:25:31  5-MIN KARA 091525Z 19012KT 10SM FEW017 BKN036 OVC043 27/24 A2987 70 84 1500 190/12 RMK AO2 RAE02 P0000 T02720244
53915KARA ARA20190509093013105/09/19 09:30:31  5-MIN KARA 091530Z 18009KT 10SM FEW017 SCT030 OVC039 27/24 A2987 70 84 1500 180/09 RMK AO2 RAE02 P0000 T02720244
53915KARA ARA20190509093513105/09/19 09:35:31  5-MIN KARA 091535Z 18011KT 10SM FEW017 BKN033 OVC041 27/24 A2987 80 84 1500 180/11 RMK AO2 RAE02 P0000 T02720244
53915KARA ARA20190509094012405/09/19 09:40:31  5-MIN KARA 091540Z 19012KT 10SM FEW017 OVC037 27/24 A2987 70 84 1500 190/12 RMK AO2 RAE02 P0000 T02720244
53915KARA ARA20190509094513705/09/19 09:45:31  5-MIN KARA 091545Z 18013G18KT 10SM FEW017 BKN034 OVC044 28/24 A2987 70 82 1600 180/13G18 RMK AO2 RAE02 P0000 T02780244
53915KARA ARA20190509095013805/09/19 09:50:31  5-MIN KARA 091550Z 18012KT 10SM FEW017 BKN036 OVC044 28/24 A2986 80 82 1600 180/12 RMK AO2 RAE02 SLP112 P0000 T02780244
53915KARA ARA20190509095511905/09/19 09:55:31  5-MIN KARA 091555Z 18012KT 10SM FEW017 BKN036 OVC046 28/24 A2986 80 79 1700 180/12 RMK AO2 T02830244
53915KARA ARA20190509100011905/09/19 10:00:31  5-MIN KARA 091600Z 19013KT 10SM FEW017 BKN043 OVC050 28/25 A2986 80 82 1700 190/13 RMK AO2 T02830250
53915KARA ARA20190509100512505/09/19 10:05:31  5-MIN KARA 091605Z 20013G19KT 10SM FEW017 BKN040 OVC050 28/24 A2986 80 79 1600 190/13G19 RMK AO2 T02780239
53915KARA ARA20190509101011905/09/19 10:10:31  5-MIN KARA 091610Z 19011KT 10SM FEW018 BKN040 OVC050 28/24 A2986 80 82 1600 190/11 RMK AO2 T02780244
53915KARA ARA20190509101511905/09/19 10:15:31  5-MIN KARA 091615Z 19012KT 10SM FEW020 BKN040 OVC050 28/24 A2986 80 79 1700 190/12 RMK AO2 T02830244
53915KARA ARA20190509102011905/09/19 10:20:31  5-MIN KARA 091620Z 18013KT 10SM SCT020 SCT036 OVC043 28/24 A2986 80 79 1700 180/13 RMK AO2 T02830244
53915KARA ARA20190509102511905/09/19 10:25:31  5-MIN KARA 091625Z 19010KT 10SM FEW019 SCT036 BKN043 28/24 A2986 90 79 1700 180/10 RMK AO2 T02830244
53915KARA ARA20190509103011905/09/19 10:30:31  5-MIN KARA 091630Z 19010KT 10SM FEW019 SCT033 BKN044 28/24 A2986 80 82 1600 190/10 RMK AO2 T02780244
53915KARA ARA20190509103512505/09/19 10:35:31  5-MIN KARA 091635Z 20012G18KT 10SM FEW019 SCT031 BKN044 28/24 A2986 80 79 1700 200/12G18 RMK AO2 T02830244
53915KARA ARA20190509104011905/09/19 10:40:31  5-MIN KARA 091640Z 19014KT 10SM FEW019 SCT033 BKN044 28/24 A2987 80 79 1700 190/14 RMK AO2 T02830244
53915KARA ARA20190509104511905/09/19 10:45:31  5-MIN KARA 091645Z 19010KT 10SM FEW019 BKN033 BKN044 28/24 A2987 70 79 1700 190/10 RMK AO2 T02830244
53915KARA ARA20190509105012605/09/19 10:50:31  5-MIN KARA 091650Z 21008KT 10SM FEW020 BKN033 BKN044 28/24 A2987 70 79 1700 210/08 RMK AO2 SLP115 T02830244
53915KARA ARA20190509105512505/09/19 10:55:31  5-MIN KARA 091655Z 19013G17KT 10SM FEW020 SCT033 BKN041 28/24 A2988 70 76 1700 190/13G17 RMK AO2 T02830239
53915KARA ARA20190509110011905/09/19 11:00:31  5-MIN KARA 091700Z 19012KT 10SM FEW022 SCT031 BKN041 28/24 A2988 70 76 1700 190/12 RMK AO2 T02830239
53915KARA ARA20190509110511905/09/19 11:05:31  5-MIN KARA 091705Z 19012KT 10SM FEW022 BKN034 BKN044 28/24 A2987 70 79 1700 190/12 RMK AO2 T02830244
53915KARA ARA20190509111011905/09/19 11:10:31  5-MIN KARA 091710Z 19011KT 10SM SCT020 BKN031 BKN040 28/24 A2987 70 79 1700 190/11 RMK AO2 T02830244
53915KARA ARA20190509111513105/09/19 11:15:31  5-MIN KARA 091715Z 18013KT 10SM SCT020 BKN034 OVC044 28/24 A2986 80 79 1700 180/13 RMK AO2 LTG DSNT NW T02830244
53915KARA ARA20190509112013105/09/19 11:20:31  5-MIN KARA 091720Z 19012KT 10SM SCT020 BKN030 BKN040 28/24 A2986 80 79 1700 190/12 RMK AO2 LTG DSNT NW T02830244
53915KARA ARA20190509112513105/09/19 11:25:31  5-MIN KARA 091725Z 19013KT 10SM SCT020 BKN030 BKN038 29/24 A2986 80 76 1700 190/13 RMK AO2 LTG DSNT NW T02890244
53915KARA ARA20190509113013105/09/19 11:30:31  5-MIN KARA 091730Z 20013KT 10SM SCT019 BKN027 BKN033 28/24 A2986 80 79 1700 200/13 RMK AO2 LTG DSNT NW T02830244
53915KARA ARA20190509113513705/09/19 11:35:31  5-MIN KARA 091735Z 18014KT 10SM SCT019 BKN024 BKN039 28/24 A2986 80 79 1700 180/14 RMK AO2 LTG DSNT N AND NW T02830244
53915KARA ARA20190509114014305/09/19 11:40:31  5-MIN KARA 091740Z 18014G20KT 10SM SCT021 BKN039 BKN046 28/24 A2986 80 79 1700 180/14G20 RMK AO2 LTG DSNT N AND NW T02830244
53915KARA ARA20190509114514305/09/19 11:45:31  5-MIN KARA 091745Z 18014G20KT 10SM BKN021 BKN039 BKN047 28/24 A2987 80 79 1700 180/14G20 RMK AO2 LTG DSNT N AND NW T02830244
53915KARA ARA20190509115016105/09/19 11:50:31  5-MIN KARA 091750Z 18015KT 10SM BKN021 BKN043 28/24 A2986 80 79 1600 180/15 RMK AO2 LTG DSNT N AND NW SLP112 60000 T02780239 10289 20256 50005
53915KARA ARA20190509115513005/09/19 11:55:31  5-MIN KARA 091755Z 19014KT 10SM BKN021 BKN026 BKN046 28/24 A2986 80 79 1600 180/14 RMK AO2 LTG DSNT N T02780239
53915KARA ARA20190509120013705/09/19 12:00:31  5-MIN KARA 091800Z 19012KT 10SM SCT019 BKN028 BKN046 28/24 A2986 80 76 1700 190/12 RMK AO2 LTG DSNT N AND NW T02830239
53915KARA ARA20190509120513705/09/19 12:05:31  5-MIN KARA 091805Z 18012KT 10SM SCT021 BKN030 BKN046 28/24 A2985 90 82 1600 180/12 RMK AO2 LTG DSNT N AND NW T02780244
53915KARA ARA20190509121014305/09/19 12:10:31  5-MIN KARA 091810Z 18011G18KT 10SM SCT019 BKN028 BKN045 28/24 A2985 90 79 1700 180/11G18 RMK AO2 LTG DSNT N AND NW T02830244
53915KARA ARA20190509121513505/09/19 12:15:31  5-MIN KARA 091815Z 18012KT 10SM VCTS SCT021 BKN028 BKN041 28/24 A2985 90 82 1600 180/12 RMK AO2 LTG DSNT N T02780244
53915KARA ARA20190509122013505/09/19 12:20:31  5-MIN KARA 091820Z 19012KT 10SM VCTS SCT021 BKN028 BKN039 28/24 A2985 90 79 1600 190/12 RMK AO2 LTG DSNT N T02780239
53915KARA ARA20190509122514105/09/19 12:25:31  5-MIN KARA 091825Z 18012KT 10SM VCTS SCT021 BKN028 OVC039 28/24 A2985 90 82 1600 180/12 RMK AO2 LTG DSNT N AND W T02780244
53915KARA ARA20190509123012505/09/19 12:30:31  5-MIN KARA 091830Z 18013KT 10SM BKN021 OVC031 28/24 A2985 90 82 1600 180/13 RMK AO2 LTG DSNT W-N T02780244
53915KARA ARA20190509123513205/09/19 12:35:31  5-MIN KARA 091835Z 18015KT 10SM BKN021 BKN028 OVC036 28/24 A2985 90 82 1600 170/15 RMK AO2 LTG DSNT W-N T02780244
53915KARA ARA20190509124013705/09/19 12:40:31  5-MIN KARA 091840Z 18013KT 10SM BKN021 BKN028 OVC036 28/24 A2985 90 82 1600 180/13 RMK AO2 LTG DSNT N AND NW T02780244
53915KARA ARA20190509124513705/09/19 12:45:31  5-MIN KARA 091845Z 18013KT 10SM SCT017 BKN025 OVC036 27/24 A2985 90 84 1600 180/13 RMK AO2 LTG DSNT N AND NW T02720244
53915KARA ARA20190509125012705/09/19 12:50:31  5-MIN KARA 091850Z 18010KT 10SM SCT017 BKN035 OVC050 27/24 A2985 90 84 1600 180/10 RMK AO2 LTG DSNT N AND NW
53915KARA ARA20190509125513705/09/19 12:55:31  5-MIN KARA 091855Z 18011KT 10SM FEW017 BKN022 OVC035 27/24 A2985 90 84 1600 180/11 RMK AO2 LTG DSNT N AND NW T02720244
53915KARA ARA20190509130013705/09/19 13:00:31  5-MIN KARA 091900Z 18012KT 10SM SCT017 BKN022 OVC037 27/24 A2985 90 84 1600 180/12 RMK AO2 LTG DSNT N AND NW T02720244
53915KARA ARA20190509130513805/09/19 13:05:31  5-MIN KARA 091905Z 18012KT 10SM SCT016 BKN022 OVC037 27/24 A2985 100 84 1600 180/12 RMK AO2 LTG DSNT N AND NW T02720244
53915KARA ARA20190509131015105/09/19 13:10:31  5-MIN KARA 091910Z 18013KT 10SM -RA SCT016 BKN027 OVC037 27/24 A2984 100 84 1600 180/13 RMK AO2 LTG DSNT NW-NE RAB09 P0000 T02720244
53915KARA ARA20190509131515105/09/19 13:15:31  5-MIN KARA 091915Z 18009KT 10SM -RA SCT018 BKN027 OVC035 27/24 A2984 100 87 1500 180/09 RMK AO2 LTG DSNT NW-NE RAB09 P0000 T02670244
53915KARA ARA20190509132015105/09/19 13:20:31  5-MIN KARA 091920Z 18011KT 10SM -RA SCT018 BKN027 OVC038 27/24 A2984 100 87 1500 180/11 RMK AO2 LTG DSNT NW-NE RAB09 P0000 T02670244
53915KARA ARA20190509132514305/09/19 13:25:31  5-MIN KARA 091925Z 18010KT 10SM SCT018 OVC027 27/24 A2984 100 87 1500 170/10 RMK AO2 LTG DSNT NW-NE RAB09E25 P0000 T02670244
53915KARA ARA20190509133014305/09/19 13:30:31  5-MIN KARA 091930Z 18011KT 10SM SCT018 OVC027 27/24 A2984 100 87 1500 180/11 RMK AO2 LTG DSNT NW-NE RAB09E25 P0000 T02670244
53915KARA ARA20190509133514205/09/19 13:35:31  5-MIN KARA 091935Z 19010KT 10SM BKN018 OVC027 27/24 A2984 100 87 1500 190/10 RMK AO2 LTG DSNT W-NE RAB09E25 P0000 T02670244
53915KARA ARA20190509134014205/09/19 13:40:31  5-MIN KARA 091940Z 20009KT 10SM BKN017 OVC026 27/24 A2984 100 87 1500 200/09 RMK AO2 LTG DSNT W-NE RAB09E25 P0000 T02670244
53915KARA ARA20190509134514105/09/19 13:45:31  5-MIN KARA 091945Z 31011KT 10SM BKN017 OVC024 26/24 A2985 90 87 1400 310/11 RMK AO2 LTG DSNT W-NE RAB09E25 P0000 T02610239
53915KARA ARA20190509135013605/09/19 13:50:31  5-MIN KARA 091950Z 31012KT 10SM VCTS BKN015 OVC022 23/21 A2986 80 87 1100 310/12 RMK AO2 LTG DSNT W-NE RAB09E25 P0000
53915KARA ARA20190509135514105/09/19 13:55:31  5-MIN KARA 091955Z 33009KT 10SM VCTS -RA BKN013 OVC018 23/21 A2986 80 90 1100 330/09 RMK AO2 LTG DSNT W-NE P0000 T02280211
53915KARA ARA20190509140014105/09/19 14:00:31  5-MIN KARA 092000Z 33012KT 10SM VCTS -RA BKN013 OVC020 22/21 A2986 90 93 1000 330/12 RMK AO2 LTG DSNT NW-E P0000 T02220211
53915KARA ARA20190509140513805/09/19 14:05:31  5-MIN KARA 092005Z 35014KT 10SM SCT013 OVC018 22/21 A2985 90 93 1000 350/14 RMK AO2 LTG DSNT NW-E RAE02 P0000 T02220211
53915KARA ARA20190509141014305/09/19 14:10:31  5-MIN KARA 092010Z 34008KT 10SM VCTS SCT012 OVC018 22/21 A2986 80 93 1000 340/08 RMK AO2 LTG DSNT NW-E RAE02 P0000 T02220211
53915KARA ARA20190509141514305/09/19 14:15:31  5-MIN KARA 092015Z 36006KT 10SM VCTS SCT012 OVC017 22/21 A2986 80 93 1000 360/06 RMK AO2 LTG DSNT NW-E RAE02 P0000 T02220211
53915KARA ARA20190509142014705/09/19 14:20:31  5-MIN KARA 092020Z 33009KT 10SM TS SCT010 OVC017 22/21 A2986 80 93 1000 330/09 RMK AO2 LTG DSNT NW-E RAE02 TSB16 P0000 T02220211
53915KARA ARA20190509142515305/09/19 14:25:31  5-MIN KARA 092025Z 34008KT 10SM -TSRA FEW010 OVC019 22/21 A2985 90 93 1000 340/08 RMK AO2 LTG DSNT NW-E RAE02B21 TSB16 P0000 T02220211
53915KARA ARA20190509143015405/09/19 14:30:31  5-MIN KARA 092030Z 36008KT 10SM -TSRA FEW010 OVC019 22/21 A2985 90 93 1000 360/08 RMK AO2 LTG DSNT NW-NE RAE02B21 TSB16 P0000 T02220211
53915KARA ARA20190509143516005/09/19 14:35:31  5-MIN KARA 092035Z 34007KT 10SM VCTS -RA FEW009 OVC021 22/21 A2986 80 93 1000 340/07 RMK AO2 LTG DSNT NW-NE RAE02B21 TSB16E31 P0000 T02220211
53915KARA ARA20190509144016605/09/19 14:40:31  5-MIN KARA 092040Z 34006KT 10SM VCTS -RA FEW009 BKN023 OVC027 22/22 A2986 80 97 1000 340/06 RMK AO2 LTG DSNT W-NE RAE02B21 TSB16E31 P0001 T02220217
53915KARA ARA20190509144515205/09/19 14:45:31  5-MIN KARA 092045Z 35004KT 10SM VCTS +RA OVC024 22/21 A2987 80 97 900 350/04 RMK AO2 LTG DSNT ALQDS RAE02B21 TSB16E31 P0003 T02170211
53915KARA ARA20190509145017705/09/19 14:50:31  5-MIN KARA 092050Z 35003KT 10SM VCTS RA SCT022 OVC027 22/21 A2987 70 97 900 350/03 RMK AO2 LTG DSNT ALQDS RAE02B21 TSB16E31 SLP114 P0004 60004 T02170211 58001
53915KARA ARA20190509145514105/09/19 14:55:31  5-MIN KARA 092055Z 01004KT 10SM VCTS RA FEW022 OVC029 22/22 A2987 70 100 900 010/04 RMK AO2 LTG DSNT ALQDS P0001 T02170217
53915KARA ARA20190509150013605/09/19 15:00:31  5-MIN KARA 092100Z 02005KT 10SM RA FEW022 OVC029 22/22 A2986 80 100 900 020/05 RMK AO2 LTG DSNT ALQDS P0001 T02170217
53915KARA ARA20190509150513505/09/19 15:05:31  5-MIN KARA 092105Z 01006KT 10SM VCTS -RA OVC029 22/21 A2986 80 93 1000 010/06 RMK AO2 LTG DSNT ALQDS P0001 T02220211
53915KARA ARA20190509151013305/09/19 15:10:31  5-MIN KARA 092110Z 03006KT 10SM VCTS -RA OVC029 22/21 A2986 80 97 900 020/06 RMK AO2 LTG DSNT NW-E P0002 T02170211
53915KARA ARA20190509151513405/09/19 15:15:31  5-MIN KARA 092115Z 03005KT 10SM VCTS -RA OVC029 22/21 A2986 80 97 900 030/05 RMK AO2 LTG DSNT NW-NE P0002 T02170211
53915KARA ARA20190509152013805/09/19 15:20:31  5-MIN KARA 092120Z 00000KT 10SM -TSRA OVC029 22/21 A2987 70 93 1000 000/00 RMK AO2 LTG DSNT NW-NE TSB16 P0002 T02220211
53915KARA ARA20190509152513805/09/19 15:25:31  5-MIN KARA 092125Z 04004KT 10SM -TSRA OVC031 22/21 A2987 70 93 1000 040/04 RMK AO2 LTG DSNT NW-NE TSB16 P0002 T02220211
53915KARA ARA20190509153013805/09/19 15:30:31  5-MIN KARA 092130Z 05005KT 10SM -TSRA OVC031 22/21 A2987 80 93 1000 050/05 RMK AO2 LTG DSNT NW-NE TSB16 P0002 T02220211
53915KARA ARA20190509153514405/09/19 15:35:31  5-MIN KARA 092135Z 04006KT 10SM VCTS -RA OVC031 22/22 A2987 70 97 1000 040/06 RMK AO2 LTG DSNT NW-NE TSB16E31 P0002 T02220217
53915KARA ARA20190509154014005/09/19 15:40:31  5-MIN KARA 092140Z 06006KT 10SM OVC031 22/21 A2988 60 93 1000 060/06 RMK AO2 LTG DSNT NW-E RAE38 TSB16E31 P0002 T02220211
53915KARA ARA20190509154515305/09/19 15:45:31  5-MIN KARA 092145Z 05007KT 10SM TS FEW006 OVC031 22/22 A2988 60 97 1000 050/07 RMK AO2 LTG DSNT NW-E RAE38 TSB16E31B42 P0002 T02220217
53915KARA ARA20190509155016605/09/19 15:50:31  5-MIN KARA 092150Z 05008KT 10SM TS SCT006 OVC031 22/22 A2989 50 97 900 040/08 RMK AO2 LTG DSNT NW-E RAE38 TSB16E31B42 PRESRR SLP122 P0002 T02220217
53915KARA ARA20190509155514305/09/19 15:55:31  5-MIN KARA 092155Z 04008KT 10SM -TSRA SCT006 OVC031 22/22 A2989 50 97 900 040/08 RMK AO2 LTG DSNT NW-E RAB55 P0000 T02220217
53915KARA ARA20190509160015605/09/19 16:00:31  5-MIN KARA 092200Z 05009KT 10SM VCTS -RA BKN006 OVC031 22/22 A2989 50 97 900 050/09 RMK AO2 LTG DSNT NW-E RAB2155 TSE2157 P0000 T02220217
53915KARA ARA20190509160515605/09/19 16:05:31  5-MIN KARA 092205Z 05010KT 10SM VCTS -RA BKN006 OVC031 22/22 A2989 50 97 900 050/10 RMK AO2 LTG DSNT NW-E RAB2155 TSE2157 P0001 T02220217
53915KARA ARA20190509161015105/09/19 16:10:31  5-MIN KARA 092210Z 06010KT 10SM RA BKN006 OVC031 22/22 A2989 60 97 1000 060/10 RMK AO2 LTG DSNT NW-E RAB2155 TSE2157 P0001 T02220217
53915KARA ARA20190509161515205/09/19 16:15:31  5-MIN KARA 092215Z 05011KT 10SM -RA BKN006 OVC031 22/22 A2989 60 97 1000 050/11 RMK AO2 LTG DSNT NW-E RAB2155 TSE2157 P0001 T02220217
53915KARA ARA20190509162015205/09/19 16:20:31  5-MIN KARA 092220Z 05012KT 10SM -RA BKN006 OVC031 22/22 A2988 60 97 1000 050/12 RMK AO2 LTG DSNT NW-E RAB2155 TSE2157 P0002 T02220217
53915KARA ARA20190509162515205/09/19 16:25:31  5-MIN KARA 092225Z 06012KT 10SM -RA BKN006 OVC031 22/22 A2988 70 97 1000 060/12 RMK AO2 LTG DSNT NW-E RAB2155 TSE2157 P0002 T02220217
53915KARA ARA20190509163015105/09/19 16:30:31  5-MIN KARA 092230Z 06013KT 10SM BKN006 OVC031 22/21 A2988 60 93 1000 060/13 RMK AO2 LTG DSNT NW-E RAB2155E27 TSE2157 P0002 T02220211
53915KARA ARA20190509163515105/09/19 16:35:31  5-MIN KARA 092235Z 07008KT 10SM SCT006 OVC039 22/21 A2987 70 93 1000 070/08 RMK AO2 LTG DSNT NW-E RAB2155E27 TSE2157 P0002 T02220211
53915KARA ARA20190509164015205/09/19 16:40:31  5-MIN KARA 092240Z 08009KT 10SM FEW006 OVC039 22/22 A2987 70 97 1000 080/09 RMK AO2 LTG DSNT ALQDS RAB2155E27 TSE2157 P0002 T02220217
53915KARA ARA20190509164515105/09/19 16:45:31  5-MIN KARA 092245Z 08009KT 10SM FEW006 OVC039 22/21 A2987 70 97 900 080/09 RMK AO2 LTG DSNT ALQDS RAB2155E27 TSE2157 P0002 T02170211
53915KARA ARA20190509165016605/09/19 16:50:31  5-MIN KARA 092250Z 10012KT 10SM -RA FEW006 OVC039 22/21 A2987 70 93 1000 090/12 RMK AO2 LTG DSNT ALQDS RAB2155E27B47 TSE2157 SLP113 P0002 T02220211
53915KARA ARA20190509165513605/09/19 16:55:31  5-MIN KARA 092255Z 08011KT 10SM -RA FEW006 OVC039 22/21 A2987 80 97 900 080/11 RMK AO2 LTG DSNT ALQDS P0000 T02170211
53915KARA ARA20190509170014505/09/19 17:00:31  5-MIN KARA 092300Z 09012KT 10SM VCTS FEW006 OVC039 22/21 A2987 70 97 900 090/12 RMK AO2 LTG DSNT ALQDS RAE2257 P0000 T02170211
53915KARA ARA20190509170514505/09/19 17:05:31  5-MIN KARA 092305Z 09011KT 10SM VCTS FEW006 OVC039 22/21 A2987 80 97 900 090/11 RMK AO2 LTG DSNT ALQDS RAE2257 P0000 T02170211
53915KARA ARA20190509171014505/09/19 17:10:31  5-MIN KARA 092310Z 11012KT 10SM VCTS FEW006 OVC039 22/21 A2987 70 93 900 110/12 RMK AO2 LTG DSNT ALQDS RAE2257 P0000 T02170206
53915KARA ARA20190509171514505/09/19 17:15:31  5-MIN KARA 092315Z 12011KT 10SM VCTS SCT006 OVC039 22/21 A2987 70 93 900 110/11 RMK AO2 LTG DSNT ALQDS RAE2257 P0000 T02170206
53915KARA ARA20190509172014505/09/19 17:20:31  5-MIN KARA 092320Z 11014KT 10SM VCTS SCT007 OVC039 22/21 A2988 70 93 900 110/14 RMK AO2 LTG DSNT ALQDS RAE2257 P0000 T02170206
53915KARA ARA20190509172515505/09/19 17:25:31  5-MIN KARA 092325Z 11012KT 10SM -TSRA FEW007 OVC039 21/21 A2988 70 97 800 110/12 RMK AO2 LTG DSNT ALQDS RAE2257B21 TSB24 P0000 T02110206
53915KARA ARA20190509173015505/09/19 17:30:31  5-MIN KARA 092330Z 10011KT 10SM -TSRA FEW007 OVC041 21/21 A2989 60 97 800 100/11 RMK AO2 LTG DSNT ALQDS RAE2257B21 TSB24 P0000 T02110206
53915KARA ARA20190509173515505/09/19 17:35:31  5-MIN KARA 092335Z 10012KT 10SM -TSRA FEW007 OVC043 21/21 A2989 60 97 800 100/12 RMK AO2 LTG DSNT ALQDS RAE2257B21 TSB24 P0000 T02110206
53915KARA ARA20190509174016105/09/19 17:40:31  5-MIN KARA 092340Z 13012KT 10SM TSRA SCT007 OVC043 21/21 A2990 50 97 800 130/12 RMK AO2 LTG DSNT ALQDS RAE2257B21 TSB24 PRESRR P0002 T02110206
53915KARA ARA20190509174516205/09/19 17:45:31  5-MIN KARA 092345Z 13008KT 10SM -TSRA SCT007 BKN043 OVC050 20/19 A2990 50 97 700 130/08 RMK AO2 LTG DSNT ALQDS RAE2257B21 TSB24 P0002 T02000194
53915KARA ARA20190509175013405/09/19 17:50:31  5-MIN KARA 092350Z 11010KT -TSRA 20/19 A2990 50 93 700 110/10 RMK AO2 LTG DSNT ALQDS RAE2257B21B50 TSB24E48 P0011 $
53915KARA ARA20190509180012705/09/19 18:00:31  5-MIN KARA 100000Z 10007KT 10SM +TSRA 19/19 A2990 40 100 600 090/07 RMK AO2 LTG DSNT ALQDS P0014 T01940194 $
53915KARA ARA20190509180512705/09/19 18:05:31  5-MIN KARA 100005Z 13008KT 10SM +TSRA 19/19 A2991 30 100 600 130/08 RMK AO2 LTG DSNT ALQDS P0016 T01940194 $
53915KARA ARA20190509181012505/09/19 18:10:31  5-MIN KARA 100010Z 10009KT 10SM TSRA 20/19 A2990 50 97 700 100/09 RMK AO2 LTG DSNT ALQDS P0019 T02000194 $
53915KARA ARA20190509181512605/09/19 18:15:31  5-MIN KARA 100015Z 10006KT 10SM TSRA 19/19 A2991 40 100 600 100/06 RMK AO2 LTG DSNT NE-SE P0020 T01940194 $
53915KARA ARA20190509182014605/09/19 18:20:31  5-MIN KARA 100020Z 09009KT 10SM TSRA SCT004 BKN025 OVC060 19/19 A2991 40 100 600 090/09 RMK AO2 LTG DSNT NE-S P0021 T01940194 $
53915KARA ARA20190509182514605/09/19 18:25:31  5-MIN KARA 100025Z 10009KT 10SM +TSRA SCT004 BKN046 OVC060 20/19 A2991 40 97 700 090/09 RMK AO2 LTG DSNT NE-S P0023 T02000194 $
53915KARA ARA20190509183014505/09/19 18:30:31  5-MIN KARA 100030Z 10007KT 10SM TSRA SCT004 BKN046 OVC060 20/19 A2991 40 97 700 100/07 RMK AO2 LTG DSNT NE-S P0025 T02000194 $
53915KARA ARA20190509183514505/09/19 18:35:31  5-MIN KARA 100035Z 11007KT 10SM TSRA SCT004 BKN044 OVC060 20/19 A2992 30 97 700 110/07 RMK AO2 LTG DSNT N-SE P0026 T02000194 $
53915KARA ARA20190509184014505/09/19 18:40:31  5-MIN KARA 100040Z 10008KT 10SM TSRA SCT004 BKN044 OVC060 20/19 A2991 30 97 700 100/08 RMK AO2 LTG DSNT N-SE P0027 T02000194 $
53915KARA ARA20190509184514605/09/19 18:45:31  5-MIN KARA 100045Z 11008KT 10SM -TSRA SCT005 BKN044 OVC060 20/19 A2992 30 97 700 110/08 RMK AO2 LTG DSNT N-SE P0027 T02000194 $
53915KARA ARA20190509185015305/09/19 18:50:31  5-MIN KARA 100050Z 09008KT 10SM -TSRA SCT005 BKN042 OVC065 20/19 A2992 30 97 700 090/08 RMK AO2 LTG DSNT N-SE SLP129 P0027 T02000194 $
53915KARA ARA20190509185513905/09/19 18:55:31  5-MIN KARA 100055Z 10009KT 10SM -TSRA SCT006 OVC042 20/19 A2991 30 97 700 100/09 RMK AO2 LTG DSNT N-SE P0000 T02000194 $
53915KARA ARA20190509190014005/09/19 19:00:31  5-MIN KARA 100100Z 09010KT 10SM -TSRA SCT006 OVC042 20/19 A2991 30 97 700 090/10 RMK AO2 LTG DSNT ALQDS P0000 T02000194 $
53915KARA ARA20190509190514005/09/19 19:05:31  5-MIN KARA 100105Z 10009KT 10SM -TSRA SCT006 OVC042 20/19 A2991 40 97 700 100/09 RMK AO2 LTG DSNT ALQDS P0000 T02000194 $
53915KARA ARA20190509191014005/09/19 19:10:31  5-MIN KARA 100110Z 10012KT 10SM -TSRA FEW006 OVC043 20/19 A2991 40 97 700 100/12 RMK AO2 LTG DSNT ALQDS P0001 T02000194 $
53915KARA ARA20190509191514705/09/19 19:15:31  5-MIN KARA 100115Z 10012KT 10SM -TSRA FEW006 BKN043 OVC075 20/19 A2990 40 97 700 100/12 RMK AO2 LTG DSNT ALQDS P0001 T02000194 $
53915KARA ARA20190509192014805/09/19 19:20:31  5-MIN KARA 100120Z 11010KT 10SM -TSRA FEW006 BKN060 OVC075 20/20 A2991 40 100 700 110/10 RMK AO2 LTG DSNT ALQDS P0001 T02000200 $
53915KARA ARA20190509192514705/09/19 19:25:31  5-MIN KARA 100125Z 10010KT 10SM TSRA FEW005 SCT043 OVC060 20/20 A2991 30 100 700 100/10 RMK AO2 LTG DSNT ALQDS P0002 T02000200 $
53915KARA ARA20190509193015005/09/19 19:30:31  5-MIN KARA 100130Z AUTO 09011KT 10SM TSRA FEW005 SCT043 OVC065 20/20 A2991 40 100 700 090/11 RMK AO2 LTG DSNT N-E P0005 T02000200 $
53915KARA ARA20190509193515005/09/19 19:35:31  5-MIN KARA 100135Z AUTO 08010KT 10SM TSRA FEW005 SCT045 OVC070 20/20 A2992 30 100 700 080/10 RMK AO2 LTG DSNT N-E P0005 T02000200 $
53915KARA ARA20190509194015905/09/19 19:40:31  5-MIN KARA 100140Z AUTO 08007KT 10SM VCTS RA FEW005 SCT050 OVC060 20/20 A2992 30 100 700 080/07 RMK AO2 LTG DSNT N-E TSE36 P0009 T02000200 $
53915KARA ARA20190509194515705/09/19 19:45:31  5-MIN KARA 100145Z AUTO 07006KT 10SM +RA FEW007 FEW047 OVC060 20/20 A2992 30 100 700 070/06 RMK AO2 LTG DSNT ALQDS TSE36 P0011 T02000200 $
53915KARA ARA20190509195016305/09/19 19:50:31  5-MIN KARA 100150Z AUTO 08009KT 10SM RA FEW007 BKN055 OVC070 20/20 A2992 30 100 700 080/09 RMK AO2 LTG DSNT ALQDS TSE36 SLP129 P0012 T02000200 $
53915KARA ARA20190509195515105/09/19 19:55:31  5-MIN KARA 100155Z AUTO 10009KT 10SM -RA FEW006 BKN048 OVC070 20/20 A2992 30 100 700 090/09 RMK AO2 LTG DSNT ALQDS P0001 T02000200 $
53915KARA ARA20190509200015605/09/19 20:00:31  5-MIN KARA 100200Z AUTO 10011KT 10SM VCTS +RA FEW006 BKN048 OVC055 20/20 A2992 20 100 700 100/11 RMK AO2 LTG DSNT ALQDS P0007 T02000200 $
53915KARA ARA20190509200515905/09/19 20:05:31  5-MIN KARA 100205Z AUTO 09011KT 10SM +TSRA SCT040 BKN049 OVC055 20/20 A2992 20 100 700 080/11 RMK AO2 LTG DSNT ALQDS TSB05 P0015 T02000200 $
53915KARA ARA20190509201015105/09/19 20:10:31  5-MIN KARA 100210Z AUTO 10010KT 10SM +TSRA FEW033 OVC046 21/20 A2993 20 97 700 100/10 RMK AO2 LTG DSNT ALQDS TSB05 P0021 T02060200 $
53915KARA ARA20190509201515105/09/19 20:15:31  5-MIN KARA 100215Z AUTO 07012KT 10SM +TSRA SCT033 OVC046 21/20 A2992 20 97 700 070/12 RMK AO2 LTG DSNT ALQDS TSB05 P0029 T02060200 $
53915KARA ARA20190509202014805/09/19 20:20:31  5-MIN KARA 100220Z AUTO 07013KT 10SM +TSRA SCT033 OVC046 21/20 A2992 30 97 700 070/13 RMK AO2 LTG DSNT W-NE TSB05 P0032 T02060200
53915KARA ARA20190509202514805/09/19 20:25:31  5-MIN KARA 100225Z AUTO 08014KT 10SM -TSRA FEW033 OVC044 21/20 A2991 30 97 700 080/14 RMK AO2 LTG DSNT W-NE TSB05 P0032 T02060200
53915KARA ARA20190509203014805/09/19 20:30:31  5-MIN KARA 100230Z AUTO 08012KT 10SM -TSRA FEW033 OVC044 21/20 A2991 30 93 800 080/12 RMK AO2 LTG DSNT W-NE TSB05 P0032 T02110200
53915KARA ARA20190509203516205/09/19 20:35:31  5-MIN KARA 100235Z AUTO 08010KT 10SM VCTS -RA FEW035 BKN044 OVC055 21/20 A2992 30 93 800 080/10 RMK AO2 LTG DSNT ALQDS TSB05E32 P0032 T02110200
53915KARA ARA20190509204016405/09/19 20:40:31  5-MIN KARA 100240Z AUTO 08010KT 10SM VCTS FEW035 BKN044 OVC055 21/20 A2992 30 93 800 080/10 RMK AO2 LTG DSNT ALQDS RAE39 TSB05E32 P0032 T02110200
53915KARA ARA20190509204515705/09/19 20:45:31  5-MIN KARA 100245Z AUTO 09008KT 10SM VCTS BKN044 OVC055 21/20 A2992 30 93 800 090/08 RMK AO2 LTG DSNT ALQDS RAE39 TSB05E32 P0032 T02110200
53915KARA ARA20190509205017005/09/19 20:50:31  5-MIN KARA 100250Z AUTO 09007KT 10SM VCTS SCT042 OVC060 21/20 A2993 20 97 700 090/07 RMK AO2 LTG DSNT ALQDS RAE39 TSB05E32 SLP134 P0032 60071 T02060200
53915KARA ARA20190509205512905/09/19 20:55:31  5-MIN KARA 100255Z AUTO 10006KT 10SM SCT042 OVC060 21/20 A2993 20 97 700 100/06 RMK AO2 LTG DSNT N-E T02060200
53915KARA ARA20190509210012905/09/19 21:00:31  5-MIN KARA 100300Z AUTO 10006KT 10SM FEW042 BKN060 21/20 A2992 30 97 700 100/06 RMK AO2 LTG DSNT N-E T02060200
53915KARA ARA20190509210513005/09/19 21:05:31  5-MIN KARA 100305Z AUTO 11006KT 10SM FEW042 BKN060 21/20 A2992 30 97 700 110/06 RMK AO2 LTG DSNT NW-E T02060200
53915KARA ARA20190509211013005/09/19 21:10:31  5-MIN KARA 100310Z AUTO 11006KT 10SM FEW042 SCT060 21/20 A2993 20 97 700 110/06 RMK AO2 LTG DSNT NW-E T02060200
53915KARA ARA20190509211513005/09/19 21:15:31  5-MIN KARA 100315Z AUTO 09005KT 10SM FEW042 SCT060 21/20 A2993 10 97 700 090/05 RMK AO2 LTG DSNT NW-E T02060200
53915KARA ARA20190509212012305/09/19 21:20:31  5-MIN KARA 100320Z AUTO 09004KT 10SM FEW065 21/20 A2994 10 97 700 080/04 RMK AO2 LTG DSNT NW-E T02060200
53915KARA ARA20190509212512905/09/19 21:25:31  5-MIN KARA 100325Z AUTO 08004KT 10SM FEW070 21/20 A2995 0 97 700 080/04 RMK AO2 LTG DSNT NW-E PRESRR T02060200
53915KARA ARA20190509213012305/09/19 21:30:31  5-MIN KARA 100330Z AUTO 07005KT 10SM SCT070 21/20 A2994 10 97 700 070/05 RMK AO2 LTG DSNT NW-E T02060200
53915KARA ARA20190509213513005/09/19 21:35:31  5-MIN KARA 100335Z AUTO 08005KT 10SM SCT075 BKN090 21/20 A2994 10 93 800 080/05 RMK AO2 LTG DSNT NW-E T02110200
53915KARA ARA20190509214012205/09/19 21:40:31  5-MIN KARA 100340Z AUTO 10005KT 10SM BKN080 21/20 A2993 20 97 700 100/05 RMK AO2 LTG DSNT N-E T02060200
53915KARA ARA20190509214512305/09/19 21:45:31  5-MIN KARA 100345Z AUTO 10005KT 10SM BKN080 21/20 A2993 20 97 700 100/05 RMK AO2 LTG DSNT NW-E T02060200
53915KARA ARA20190509215013805/09/19 21:50:31  5-MIN KARA 100350Z AUTO 10005KT 10SM SCT070 BKN085 21/19 A2993 20 93 700 100/05 RMK AO2 LTG DSNT NW-NE SLP133 T02060194
53915KARA ARA20190509215512405/09/19 21:55:31  5-MIN KARA 100355Z AUTO 09006KT 10SM SCT080 21/19 A2992 30 93 700 090/06 RMK AO2 LTG DSNT NW-NE T02060194
53915KARA ARA20190509220012705/09/19 22:00:31  5-MIN KARA 100400Z AUTO 10006KT 10SM SCT085 21/19 A2992 30 93 700 090/06 RMK AO2 LTG DSNT N AND NE T02060194
53915KARA ARA20190509220512805/09/19 22:05:31  5-MIN KARA 100405Z AUTO 09006KT 10SM FEW085 FEW110 21/19 A2992 20 93 700 090/06 RMK AO2 LTG DSNT NE T02060194
53915KARA ARA20190509221012805/09/19 22:10:31  5-MIN KARA 100410Z AUTO 08005KT 10SM FEW085 SCT100 21/19 A2993 20 93 700 080/05 RMK AO2 LTG DSNT NE T02060194
53915KARA ARA20190509221512105/09/19 22:15:31  5-MIN KARA 100415Z AUTO 09005KT 10SM BKN100 21/19 A2992 20 93 700 090/05 RMK AO2 LTG DSNT NE T02060194
53915KARA ARA20190509222012105/09/19 22:20:31  5-MIN KARA 100420Z AUTO 08005KT 10SM SCT100 21/19 A2992 30 93 700 080/05 RMK AO2 LTG DSNT NE T02060194
53915KARA ARA20190509222512105/09/19 22:25:31  5-MIN KARA 100425Z AUTO 09006KT 10SM SCT100 21/19 A2992 20 93 700 090/06 RMK AO2 LTG DSNT NE T02060194
53915KARA ARA20190509223012105/09/19 22:30:31  5-MIN KARA 100430Z AUTO 10008KT 10SM BKN100 21/19 A2991 30 93 700 100/08 RMK AO2 LTG DSNT NE T02060194
53915KARA ARA20190509223512105/09/19 22:35:31  5-MIN KARA 100435Z AUTO 10006KT 10SM SCT100 21/19 A2991 30 93 700 100/06 RMK AO2 LTG DSNT NE T02060194
53915KARA ARA20190509224010905/09/19 22:40:31  5-MIN KARA 100440Z AUTO 11008KT 10SM FEW100 21/19 A2991 30 93 700 100/08 RMK AO2 T02060194
53915KARA ARA20190509224510905/09/19 22:45:31  5-MIN KARA 100445Z AUTO 10008KT 10SM FEW110 21/19 A2991 40 93 700 100/08 RMK AO2 T02060194
53915KARA ARA20190509225011605/09/19 22:50:31  5-MIN KARA 100450Z AUTO 11007KT 10SM SCT100 21/19 A2991 30 93 700 110/07 RMK AO2 SLP128 T02060194
53915KARA ARA20190509225510905/09/19 22:55:31  5-MIN KARA 100455Z AUTO 11007KT 10SM SCT100 21/19 A2991 40 93 700 110/07 RMK AO2 T02060194
53915KARA ARA20190509230010905/09/19 23:00:31  5-MIN KARA 100500Z AUTO 11008KT 10SM BKN100 21/19 A2990 40 93 700 110/08 RMK AO2 T02060194
53915KARA ARA20190509230510905/09/19 23:05:31  5-MIN KARA 100505Z AUTO 11009KT 10SM SCT100 21/19 A2990 40 93 700 110/09 RMK AO2 T02060194
53915KARA ARA20190509231010905/09/19 23:10:31  5-MIN KARA 100510Z AUTO 11009KT 10SM SCT100 21/19 A2990 40 93 700 110/09 RMK AO2 T02060194
53915KARA ARA20190509231510905/09/19 23:15:31  5-MIN KARA 100515Z AUTO 12010KT 10SM SCT100 21/19 A2990 50 93 700 120/10 RMK AO2 T02060194
53915KARA ARA20190509232010905/09/19 23:20:31  5-MIN KARA 100520Z AUTO 12008KT 10SM FEW100 21/19 A2990 40 93 700 120/08 RMK AO2 T02060194
53915KARA ARA20190509232510905/09/19 23:25:31  5-MIN KARA 100525Z AUTO 11009KT 10SM FEW100 21/19 A2990 40 93 700 110/09 RMK AO2 T02060194
53915KARA ARA20190509233010605/09/19 23:30:31  5-MIN KARA 100530Z AUTO 11009KT 10SM CLR 21/19 A2990 40 93 700 110/09 RMK AO2 T02060194
53915KARA ARA20190509233510605/09/19 23:35:31  5-MIN KARA 100535Z AUTO 11008KT 10SM CLR 21/19 A2991 40 93 700 110/08 RMK AO2 T02060194
53915KARA ARA20190509234010605/09/19 23:40:31  5-MIN KARA 100540Z AUTO 11008KT 10SM CLR 21/19 A2990 40 93 700 110/08 RMK AO2 T02060194
53915KARA ARA20190509234510605/09/19 23:45:31  5-MIN KARA 100545Z AUTO 12009KT 10SM CLR 21/19 A2990 40 93 700 120/09 RMK AO2 T02060194
53915KARA ARA20190509235014705/09/19 23:50:31  5-MIN KARA 100550Z AUTO 12010KT 10SM CLR 21/19 A2990 40 93 700 120/10 RMK AO2 SLP125 60071 T02060194 10211 20194 402890194 53006
53915KARA ARA20190509235510605/09/19 23:55:31  5-MIN KARA 100555Z AUTO 13010KT 10SM CLR 21/19 A2990 50 93 700 130/10 RMK AO2 T02060194
53915KARA ARA20190510000010605/10/19 00:00:31  5-MIN KARA 100600Z AUTO 13010KT 10SM CLR 21/19 A2989 50 93 800 130/10 RMK AO2 T02060194
53915KARA ARA20190510000510605/10/19 00:05:31  5-MIN KARA 100605Z AUTO 13009KT 10SM CLR 21/19 A2989 50 90 800 130/09 RMK AO2 T02110194
53915KARA ARA20190510001010605/10/19 00:10:31  5-MIN KARA 100610Z AUTO 13009KT 10SM CLR 21/19 A2989 50 90 800 120/09 RMK AO2 T02110194
53915KARA ARA20190510001510605/10/19 00:15:31  5-MIN KARA 100615Z AUTO 13009KT 10SM CLR 21/19 A2990 50 93 700 130/09 RMK AO2 T02060194
53915KARA ARA20190510002010605/10/19 00:20:31  5-MIN KARA 100620Z AUTO 12008KT 10SM CLR 21/19 A2989 50 90 800 120/08 RMK AO2 T02110194
53915KARA ARA20190510002510605/10/19 00:25:31  5-MIN KARA 100625Z AUTO 12008KT 10SM CLR 21/19 A2989 50 90 800 120/08 RMK AO2 T02110194
53915KARA ARA20190510003010605/10/19 00:30:31  5-MIN KARA 100630Z AUTO 12008KT 10SM CLR 21/19 A2989 60 90 800 120/08 RMK AO2 T02110194
53915KARA ARA20190510003510605/10/19 00:35:31  5-MIN KARA 100635Z AUTO 12010KT 10SM CLR 21/19 A2988 60 90 800 120/10 RMK AO2 T02110194
53915KARA ARA20190510004010605/10/19 00:40:31  5-MIN KARA 100640Z AUTO 12011KT 10SM CLR 21/19 A2987 70 90 800 120/11 RMK AO2 T02110194
53915KARA ARA20190510004510605/10/19 00:45:31  5-MIN KARA 100645Z AUTO 12011KT 10SM CLR 21/19 A2987 70 90 800 120/11 RMK AO2 T02110194
53915KARA ARA20190510005011305/10/19 00:50:31  5-MIN KARA 100650Z AUTO 12010KT 10SM CLR 21/19 A2987 70 90 800 120/10 RMK AO2 SLP113 T02110194
53915KARA ARA20190510005510605/10/19 00:55:31  5-MIN KARA 100655Z AUTO 12010KT 10SM CLR 21/19 A2987 70 90 800 110/10 RMK AO2 T02110194
53915KARA ARA20190510010010605/10/19 01:00:31  5-MIN KARA 100700Z AUTO 11009KT 10SM CLR 21/19 A2988 70 90 800 110/09 RMK AO2 T02110194
53915KARA ARA20190510010510605/10/19 01:05:31  5-MIN KARA 100705Z AUTO 11007KT 10SM CLR 21/19 A2987 70 90 800 110/07 RMK AO2 T02110194
53915KARA ARA20190510011010605/10/19 01:10:31  5-MIN KARA 100710Z AUTO 11007KT 10SM CLR 21/19 A2987 70 90 800 110/07 RMK AO2 T02110194
53915KARA ARA20190510011510605/10/19 01:15:31  5-MIN KARA 100715Z AUTO 11006KT 10SM CLR 21/19 A2987 70 90 800 110/06 RMK AO2 T02110194
53915KARA ARA20190510012010605/10/19 01:20:31  5-MIN KARA 100720Z AUTO 10004KT 10SM CLR 21/19 A2988 60 90 800 100/04 RMK AO2 T02110194
53915KARA ARA20190510012510605/10/19 01:25:31  5-MIN KARA 100725Z AUTO 10005KT 10SM CLR 21/19 A2988 60 90 800 100/05 RMK AO2 T02110194
53915KARA ARA20190510013010605/10/19 01:30:31  5-MIN KARA 100730Z AUTO 09004KT 10SM CLR 21/19 A2988 60 90 800 090/04 RMK AO2 T02110194
53915KARA ARA20190510013510605/10/19 01:35:31  5-MIN KARA 100735Z AUTO 08005KT 10SM CLR 21/19 A2988 60 90 800 080/05 RMK AO2 T02110194
53915KARA ARA20190510014011805/10/19 01:40:31  5-MIN KARA 100740Z AUTO 08007KT 10SM CLR 21/19 A2987 70 90 800 080/07 RMK AO2 LTG DSNT NW T02110194
53915KARA ARA20190510014511805/10/19 01:45:31  5-MIN KARA 100745Z AUTO 09007KT 10SM CLR 21/19 A2987 70 90 800 080/07 RMK AO2 LTG DSNT NW T02110194
53915KARA ARA20190510015012505/10/19 01:50:31  5-MIN KARA 100750Z AUTO 09008KT 10SM CLR 21/19 A2986 80 90 900 080/08 RMK AO2 LTG DSNT NW SLP112 T02110194
53915KARA ARA20190510015512405/10/19 01:55:31  5-MIN KARA 100755Z AUTO 09008KT 10SM CLR 21/19 A2986 80 90 900 080/08 RMK AO2 LTG DSNT W AND NW T02110194
53915KARA ARA20190510020012405/10/19 02:00:31  5-MIN KARA 100800Z AUTO 09007KT 10SM CLR 21/19 A2986 80 90 900 090/07 RMK AO2 LTG DSNT W AND NW T02110194
53915KARA ARA20190510020512405/10/19 02:05:31  5-MIN KARA 100805Z AUTO 09007KT 10SM CLR 21/19 A2986 80 90 900 090/07 RMK AO2 LTG DSNT W AND NW T02110194
53915KARA ARA20190510021011805/10/19 02:10:31  5-MIN KARA 100810Z AUTO 09006KT 10SM CLR 21/19 A2986 80 90 900 090/06 RMK AO2 LTG DSNT NW T02110194
53915KARA ARA20190510021511805/10/19 02:15:31  5-MIN KARA 100815Z AUTO 09006KT 10SM CLR 21/19 A2987 70 90 800 090/06 RMK AO2 LTG DSNT NW T02110194
53915KARA ARA20190510022013405/10/19 02:20:31  5-MIN KARA 100820Z AUTO 08006KT 10SM -RA CLR 21/19 A2987 70 90 800 080/06 RMK AO2 LTG DSNT NW RAB19 P0000 T02110194
53915KARA ARA20190510022513405/10/19 02:25:31  5-MIN KARA 100825Z AUTO 05005KT 10SM -RA CLR 21/20 A2988 70 93 800 050/05 RMK AO2 LTG DSNT NW RAB19 P0000 T02110200
53915KARA ARA20190510023013405/10/19 02:30:31  5-MIN KARA 100830Z AUTO 05005KT 10SM -RA CLR 21/20 A2988 60 93 800 050/05 RMK AO2 LTG DSNT NW RAB19 P0000 T02110200
53915KARA ARA20190510023513905/10/19 02:35:31  5-MIN KARA 100835Z AUTO 06006KT 10SM VCTS -RA CLR 21/20 A2988 60 93 800 060/06 RMK AO2 LTG DSNT NW RAB19 P0000 T02110200
53915KARA ARA20190510024013905/10/19 02:40:31  5-MIN KARA 100840Z AUTO 06008KT 10SM VCTS -RA CLR 21/20 A2988 70 93 800 060/08 RMK AO2 LTG DSNT NW RAB19 P0000 T02110200
53915KARA ARA20190510024514205/10/19 02:45:31  5-MIN KARA 100845Z AUTO 07008KT 10SM VCTS -RA FEW110 21/20 A2988 60 97 800 070/08 RMK AO2 LTG DSNT NW RAB19 P0000 T02060200
53915KARA ARA20190510025012805/10/19 02:50:31  5-MIN KARA 100850Z AUTO 07008KT 10SM -RA FEW100 21/20 A2988 70 97 800 070/08 RMK AO2 LTG DSNT W-N RAB19 P0000
53915KARA ARA20190510025513205/10/19 02:55:31  5-MIN KARA 100855Z AUTO 07008KT 10SM -RA FEW100 21/20 A2987 70 97 800 070/08 RMK AO2 LTG DSNT W-N P0000 T02060200
53915KARA ARA20190510030013205/10/19 03:00:31  5-MIN KARA 100900Z AUTO 07010KT 10SM -RA FEW100 21/20 A2986 80 97 800 060/10 RMK AO2 LTG DSNT W-N P0000 T02060200
53915KARA ARA20190510030513305/10/19 03:05:31  5-MIN KARA 100905Z AUTO 06007KT 10SM -RA SCT100 21/20 A2988 70 97 800 060/07 RMK AO2 LTG DSNT SW-N P0000 T02060200
53915KARA ARA20190510031014705/10/19 03:10:31  5-MIN KARA 100910Z AUTO VRB03KT 10SM -RA FEW075 BKN100 21/20 A2991 40 97 700 VRB/03 RMK AO2 LTG DSNT SW-N PRESRR P0000 T02060200
53915KARA ARA20190510031515405/10/19 03:15:31  5-MIN KARA 100915Z AUTO 28003KT 10SM -RA SCT070 SCT080 BKN100 21/20 A2993 10 97 700 280/03 RMK AO2 LTG DSNT SW-N PRESRR P0001 T02060200
53915KARA ARA20190510032014805/10/19 03:20:31  5-MIN KARA 100920Z AUTO 00000KT 10SM -RA SCT070 BKN080 BKN100 21/20 A2993 20 97 700 000/00 RMK AO2 LTG DSNT SW-NW P0001 T02060200
53915KARA ARA20190510032514805/10/19 03:25:31  5-MIN KARA 100925Z AUTO 35003KT 10SM -RA FEW060 SCT075 BKN100 21/20 A2993 20 97 700 350/03 RMK AO2 LTG DSNT ALQDS P0001 T02060200
53915KARA ARA20190510033014805/10/19 03:30:31  5-MIN KARA 100930Z AUTO 35005KT 10SM -RA FEW060 SCT075 BKN095 21/20 A2992 20 97 700 350/05 RMK AO2 LTG DSNT ALQDS P0001 T02060200
53915KARA ARA20190510033514805/10/19 03:35:31  5-MIN KARA 100935Z AUTO 32005KT 10SM -RA SCT065 SCT080 BKN095 21/20 A2994 10 97 700 320/05 RMK AO2 LTG DSNT ALQDS P0001 T02060200
53915KARA ARA20190510034014705/10/19 03:40:31  5-MIN KARA 100940Z AUTO 34005KT 10SM -RA SCT065 BKN080 BKN120 21/20 A2993 10 97 700 340/05 RMK AO2 LTG DSNT SW-N P0001 T02060200
53915KARA ARA20190510034514705/10/19 03:45:31  5-MIN KARA 100945Z AUTO 34005KT 10SM -RA SCT065 SCT080 BKN095 21/20 A2993 10 97 700 340/05 RMK AO2 LTG DSNT SW-N P0001 T02060200
53915KARA ARA20190510035014205/10/19 03:50:31  5-MIN KARA 100950Z AUTO 01006KT 10SM VCTS -RA FEW060 SCT075 BKN095 21/20 A2993 20 97 700 010/06 RMK AO2 LTG DSNT SW-N P0001
53915KARA ARA20190510035515205/10/19 03:55:31  5-MIN KARA 100955Z AUTO 36006KT 10SM VCTS -RA FEW060 SCT075 BKN120 21/20 A2993 20 97 700 360/06 RMK AO2 LTG DSNT SW-N P0001 T02060200
53915KARA ARA20190510040015105/10/19 04:00:31  5-MIN KARA 101000Z AUTO 32006KT 10SM VCTS RA FEW060 SCT075 BKN095 21/20 A2993 10 97 700 320/06 RMK AO2 LTG DSNT W-NE P0002 T02060200
53915KARA ARA20190510040515205/10/19 04:05:31  5-MIN KARA 101005Z AUTO 32006KT 10SM VCTS -RA FEW008 SCT060 BKN080 21/20 A2994 10 97 700 320/06 RMK AO2 LTG DSNT W-NE P0002 T02060200
53915KARA ARA20190510041015505/10/19 04:10:31  5-MIN KARA 101010Z AUTO 34005KT 10SM -TSRA SCT008 BKN055 OVC120 21/20 A2994 10 97 700 330/05 RMK AO2 LTG DSNT W-NE TSB08 P0003 T02060200
53915KARA ARA20190510041515405/10/19 04:15:31  5-MIN KARA 101015Z AUTO 01006KT 10SM -TSRA BKN010 BKN075 OVC110 21/20 A2994 10 97 700 010/06 RMK AO2 LTG DSNT W-N TSB08 P0003 T02060200
53915KARA ARA20190510042015305/10/19 04:20:31  5-MIN KARA 101020Z AUTO 01004KT 10SM -TSRA BKN010 BKN023 OVC110 21/20 A2995 0 97 700 010/04 RMK AO2 LTG DSNT W-N TSB08 P0014 T02060200
53915KARA ARA20190510042516105/10/19 04:25:31  5-MIN KARA 101025Z AUTO 36011G14KT 10SM +TSRA BKN008 BKN019 OVC036 20/20 A2992 20 100 700 360/11G14 RMK AO2 LTG DSNT W-N TSB08 P0040 T02000200
53915KARA ARA20190510043016105/10/19 04:30:31  5-MIN KARA 101030Z AUTO 02006G14KT 10SM TSRA BKN008 BKN014 OVC021 20/20 A2994 10 100 600 020/06G14 RMK AO2 LTG DSNT SW-N TSB08 P0041 T02000200
53915KARA ARA20190510043515105/10/19 04:35:31  5-MIN KARA 101035Z 34003KT 10SM -TSRA SCT008 BKN014 OVC021 21/20 A2994 10 97 700 330/03 RMK AO2 LTG DSNT ALQDS TSB08 P0041 T02060200
53915KARA ARA20190510044015005/10/19 04:40:31  5-MIN KARA 101040Z 00000KT 10SM -TSRA FEW006 BKN014 OVC021 21/20 A2995 0 97 700 000/00 RMK AO2 LTG DSNT ALQDS TSB08 P0041 T02060200
53915KARA ARA20190510044516405/10/19 04:45:31  5-MIN KARA 101045Z 00000KT 10SM VCTS RA SCT006 BKN010 OVC021 21/20 A2996 -10 97 700 000/00 RMK AO2 LTG DSNT ALQDS TSB08E45 PRESRR P0042 T02060200
53915KARA ARA20190510045015505/10/19 04:50:31  5-MIN KARA 101050Z 27006KT 10SM +TSRA BKN006 BKN010 OVC014 21/20 A2997 -20 97 700 270/06 RMK AO2 LTG DSNT ALQDS TSB08E45B50 PRESRR P0045
53915KARA ARA20190510045513905/10/19 04:55:31  5-MIN KARA 101055Z 29009KT 10SM +TSRA BKN006 OVC014 21/20 A2996 -10 97 700 290/09 RMK AO2 LTG DSNT ALQDS P0001 T02060200
53915KARA ARA20190510050015605/10/19 05:00:31  5-MIN KARA 101100Z 36010KT 10SM +TSRA BKN006 BKN014 OVC021 21/20 A2996 0 97 700 360/10 RMK AO2 LTG DSNT ALQDS CIG 004V008 P0003 T02060200
53915KARA ARA20190510050515305/10/19 05:05:31  5-MIN KARA 101105Z 34013KT 10SM VCTS RA SCT006 BKN012 OVC024 20/20 A2995 0 100 600 340/13 RMK AO2 LTG DSNT ALQDS TSE05 P0004 T02000200
53915KARA ARA20190510051015305/10/19 05:10:31  5-MIN KARA 101110Z 03009KT 10SM VCTS RA SCT006 BKN019 OVC026 20/20 A2995 0 100 600 030/09 RMK AO2 LTG DSNT ALQDS TSE05 P0005 T02000200
53915KARA ARA20190510051515205/10/19 05:15:31  5-MIN KARA 101115Z 35008KT 10SM VCTS RA SCT006 BKN019 OVC026 20/19 A2995 0 97 600 350/08 RMK AO2 LTG DSNT ALQDS TSE05 P0006 T02000194
53915KARA ARA20190510052015405/10/19 05:20:31  5-MIN KARA 101120Z 30006KT 10SM VCTS RA FEW006 BKN019 OVC025 20/19 A2997 -20 97 600 300/06 RMK AO2 LTG DSNT ALQDS TSE05 P0008 T02000194
53915KARA ARA20190510052516205/10/19 05:25:31  5-MIN KARA 101125Z 29009KT 10SM TSRA FEW006 BKN019 OVC025 20/20 A2999 -30 100 600 290/09 RMK AO2 LTG DSNT ALQDS TSE05B23 PRESRR P0010 T02000200
53915KARA ARA20190510053016805/10/19 05:30:31  5-MIN KARA 101130Z 30017G20KT 10SM +TSRA SCT006 BKN012 OVC025 20/19 A3000 -50 97 600 300/17G20 RMK AO2 LTG DSNT ALQDS TSE05B23 PRESRR P0013 T02000194
53915KARA ARA20190510053516105/10/19 05:35:31  5-MIN KARA 101135Z 29019G24KT 10SM +TSRA FEW006 BKN012 OVC025 20/19 A3000 -40 97 600 290/19G24 RMK AO2 LTG DSNT ALQDS TSE05B23 P0033 T02000194
53915KARA ARA20190510054018705/10/19 05:40:31  5-MIN KARA 101140Z 32015G28KT 10SM +TSRA FEW006 BKN012 OVC025 19/19 A3002 -60 100 400 310/15G28 RMK AO2 PK WND 30028/1136 LTG DSNT ALQDS TSE05B23 PRESRR P0051 T01890189
53915KARA ARA20190510054518605/10/19 05:45:31  5-MIN KARA 101145Z 24007G28KT 10SM +TSRA FEW006 SCT012 OVC018 19/18 A3005 -90 97 400 240/07G28 RMK AO2 PK WND 30028/1136 LTG DSNT ALQDS TSE05B23 PRESRR P0059 T01890183
53915KARA ARA20190510055021005/10/19 05:50:31  5-MIN KARA 101150Z VRB06KT 10SM +TSRA FEW006 SCT012 OVC018 19/18 A3002 -60 97 400 VRB/06 RMK AO2 PK WND 30028/1136 LTG DSNT ALQDS TSE05B23 SLP165 P0088 60135 70239 T01890183 10211 20189 53055
53915KARA ARA20190510055513905/10/19 05:55:31  5-MIN KARA 101155Z 34011KT 10SM +TSRA FEW006 OVC016 19/18 A3000 -40 97 400 340/11 RMK AO2 LTG DSNT ALQDS P0002 T01890183
53915KARA ARA20190510060013205/10/19 06:00:31  5-MIN KARA 101200Z 34011KT 10SM +TSRA OVC022 19/18 A2999 -40 97 400 340/11 RMK AO2 LTG DSNT ALQDS P0007 T01890183
53915KARA ARA20190510060513205/10/19 06:05:31  5-MIN KARA 101205Z 32005KT 10SM +TSRA OVC030 19/18 A3002 -60 97 400 320/05 RMK AO2 LTG DSNT ALQDS P0010 T01890183
53915KARA ARA20190510061013305/10/19 06:10:31  5-MIN KARA 101210Z 00000KT 10SM +TSRA OVC030 18/18 A3002 -60 100 300 000/00 RMK AO2 LTG DSNT ALQDS P0014 T01830183
53915KARA ARA20190510061514205/10/19 06:15:31  5-MIN KARA 101215Z 33004KT 1SM +TSRA BR FEW005 OVC025 18/18 A3001 -50 100 400 330/04 RMK AO2 LTG DSNT ALQDS P0019 T01830183
53915KARA ARA20190510062015105/10/19 06:20:31  5-MIN KARA 101220Z 35007KT 1SM VCTS +RA BR FEW005 OVC033 18/18 A2999 -40 100 400 350/07 RMK AO2 LTG DSNT ALQDS TSE20 P0022 T01830183
53915KARA ARA20190510062515705/10/19 06:25:31  5-MIN KARA 101225Z 35005KT 1SM VCTS +RA BR FEW004 BKN043 OVC070 19/18 A2999 -40 97 400 350/05 RMK AO2 LTG DSNT ALQDS TSE20 P0023 T01890183
53915KARA ARA20190510063022505/10/19 06:30:31  5-MIN KARA 101230Z 02005KT 3SM VCTS RA BR FEW004 BKN043 OVC085 19/19 A3000 -40 100 400 020/05 RMK AO2 LTG DSCT044 BKN090 OVC110 19/19 A3000 -40 100 400 020/05 RMK AO2 LTG DSNT ALQDS TSE20B33 P0026 T01890189
53915KARA ARA20190510064515705/10/19 06:45:31  5-MIN KARA 101245Z 36006KT 3SM TSRA BR FEW055 BKN075 OVC095 19/19 A3000 -40 100 500 360/06 RMK AO2 LTG DSNT ALQDS TSE20B33 P0027 T01940194
53915KARA ARA20190510065015305/10/19 06:50:31  5-MIN KARA 101250Z 01006KT 3SM VCTS RA BR FEW060 BKN075 OVC095 19/19 A2999 -40 100 500 010/06 RMK AO2 LTG DSNT ALQDS TSE20B33E48 P0027
53915KARA ARA20190510065514205/10/19 06:55:31  5-MIN KARA 101255Z 03006KT 10SM VCTS RA FEW070 OVC095 19/19 A2999 -40 100 500 020/06 RMK AO2 LTG DSNT ALQDS P0000 T01940194
53915KARA ARA20190510070014905/10/19 07:00:31  5-MIN KARA 101300Z 07006KT 10SM VCTS RA FEW070 BKN095 OVC110 19/19 A3000 -40 100 500 070/06 RMK AO2 LTG DSNT ALQDS P0001 T01940194
53915KARA ARA20190510070514805/10/19 07:05:31  5-MIN KARA 101305Z 07010KT 10SM VCTS RA FEW008 BKN095 OVC110 20/19 A3000 -40 97 600 070/10 RMK AO2 LTG DSNT ALQDS P0002 T02000194
53915KARA ARA20190510071014805/10/19 07:10:31  5-MIN KARA 101310Z 08012KT 10SM VCTS RA FEW008 BKN100 OVC120 20/19 A2999 -30 97 600 080/12 RMK AO2 LTG DSNT ALQDS P0003 T02000194
53915KARA ARA20190510071515505/10/19 07:15:31  5-MIN KARA 101315Z 07012KT 10SM VCTS RA FEW008 BKN095 OVC120 19/19 A2997 -20 100 500 070/12 RMK AO2 LTG DSNT N-SE PRESFR P0004 T01940194
53915KARA ARA20190510072016005/10/19 07:20:31  5-MIN KARA 101320Z 07012KT 10SM TSRA FEW008 BKN095 OVC120 19/19 A2996 0 100 600 070/12 RMK AO2 LTG DSNT E AND SE TSB19 PRESFR P0005 T01940194
53915KARA ARA20190510072516105/10/19 07:25:31  5-MIN KARA 101325Z 07015KT 10SM TSRA FEW006 SCT090 OVC110 19/19 A2994 10 100 600 060/15 RMK AO2 LTG DSNT E AND SE TSB19 PRESFR P0005 T01940194
53915KARA ARA20190510073015805/10/19 07:30:31  5-MIN KARA 101330Z 07015KT 10SM TSRA FEW006 BKN100 BKN120 19/19 A2993 20 100 600 070/15 RMK AO2 LTG DSNT NE-SE TSB19 PRESFR P0006 T01940194
53915KARA ARA20190510073515305/10/19 07:35:31  5-MIN KARA 101335Z 05010KT 10SM -RA FEW060 FEW090 BKN110 19/19 A2994 10 100 600 050/10 RMK AO2 LTG DSNT NE-SE TSB19E34 P0006 T01940194
53915KARA ARA20190510074015305/10/19 07:40:31  5-MIN KARA 101340Z 05012KT 10SM -RA FEW005 FEW080 BKN110 19/19 A2994 10 100 600 050/12 RMK AO2 LTG DSNT NE-SE TSB19E34 P0006 T01940194
53915KARA ARA20190510074515705/10/19 07:45:31  5-MIN KARA 101345Z 05009KT 10SM VCTS -RA SCT005 BKN100 BKN120 19/19 A2995 0 100 600 050/09 RMK AO2 LTG DSNT NE-SE TSB19E34 P0006 T01940194
53915KARA ARA20190510075013905/10/19 07:50:31  5-MIN KARA 101350Z 06009KT 10SM VCTS -RA SCT006 BKN100 20/19 A2995 0 97 600 060/09 RMK AO2 LTG DSNT NE-SE TSB19E34 P0006
53915KARA ARA20190510075514505/10/19 07:55:31  5-MIN KARA 101355Z 05010KT 10SM VCTS -RA BKN006 BKN100 20/19 A2993 10 97 600 050/10 RMK AO2 LTG DSNT NE AND SE P0000 T02000194
53915KARA ARA20190510080013305/10/19 08:00:31  5-MIN KARA 101400Z 05008KT 10SM -RA BKN006 20/19 A2994 10 97 600 050/08 RMK AO2 LTG DSNT NE AND SE P0000 T02000194
53915KARA ARA20190510080512805/10/19 08:05:31  5-MIN KARA 101405Z 07007KT 10SM BKN006 20/19 A2994 10 97 600 070/07 RMK AO2 LTG DSNT SE RAE03 P0000 T02000194
53915KARA ARA20190510081012705/10/19 08:10:31  5-MIN KARA 101410Z 07007KT 10SM SCT006 20/19 A2993 20 97 600 070/07 RMK AO2 LTG DSNT E RAE03 P0000 T02000194
53915KARA ARA20190510081512705/10/19 08:15:31  5-MIN KARA 101415Z 09007KT 10SM FEW006 20/19 A2992 20 97 700 080/07 RMK AO2 LTG DSNT E RAE03 P0000 T02000194
53915KARA ARA20190510082014105/10/19 08:20:31  5-MIN KARA 101420Z 10008KT 10SM FEW006 20/19 A2991 30 97 700 100/08 RMK AO2 LTG DSNT NE AND E RAE03 PRESFR P0000 T02000194
53915KARA ARA20190510082513505/10/19 08:25:31  5-MIN KARA 101425Z 10008KT 10SM FEW005 20/20 A2992 30 100 700 100/08 RMK AO2 LTG DSNT NE AND E RAE03 P0000 T02000200
53915KARA ARA20190510083012605/10/19 08:30:31  5-MIN KARA 101430Z 11008KT 10SM CLR 20/20 A2992 30 100 700 110/08 RMK AO2 LTG DSNT NE RAE03 P0000 T02000200
53915KARA ARA20190510083511405/10/19 08:35:31  5-MIN KARA 101435Z 11009KT 10SM CLR 20/20 A2992 30 100 700 110/09 RMK AO2 RAE03 P0000 T02000200
53915KARA ARA20190510084011405/10/19 08:40:31  5-MIN KARA 101440Z 13008KT 10SM CLR 20/20 A2993 20 100 700 120/08 RMK AO2 RAE03 P0000 T02000200
53915KARA ARA20190510084511405/10/19 08:45:31  5-MIN KARA 101445Z 13008KT 10SM CLR 20/20 A2993 20 100 600 130/08 RMK AO2 RAE03 P0000 T02000200
53915KARA ARA20190510085013205/10/19 08:50:31  5-MIN KARA 101450Z 13008KT 10SM CLR 21/20 A2994 10 97 700 130/08 RMK AO2 RAE03 SLP136 P0000 60035 T02060200 50023
53915KARA ARA20190510085510105/10/19 08:55:31  5-MIN KARA 101455Z 12008KT 10SM CLR 21/20 A2993 10 97 700 120/08 RMK AO2 T02060200
53915KARA ARA20190510090010105/10/19 09:00:31  5-MIN KARA 101500Z 12008KT 10SM CLR 21/20 A2993 10 97 700 120/08 RMK AO2 T02060200
53915KARA ARA20190510090510105/10/19 09:05:31  5-MIN KARA 101505Z 12010KT 10SM CLR 21/20 A2992 20 97 700 120/10 RMK AO2 T02060200
53915KARA ARA20190510091010105/10/19 09:10:31  5-MIN KARA 101510Z 11009KT 10SM CLR 21/20 A2992 20 93 800 110/09 RMK AO2 T02110200
53915KARA ARA20190510091510105/10/19 09:15:31  5-MIN KARA 101515Z 12009KT 10SM CLR 21/20 A2993 20 93 800 120/09 RMK AO2 T02110200
53915KARA ARA20190510092010105/10/19 09:20:31  5-MIN KARA 101520Z 13010KT 10SM CLR 21/20 A2994 10 93 800 130/10 RMK AO2 T02110200
53915KARA ARA20190510092510705/10/19 09:25:31  5-MIN KARA 101525Z 13009KT 10SM CLR 22/21 A2995 0 93 800 130/09 RMK AO2 PRESRR T02170206
53915KARA ARA20190510093010005/10/19 09:30:31  5-MIN KARA 101530Z 14010KT 10SM CLR 22/21 A2995 0 93 800 140/10 RMK AO2 T02170206
53915KARA ARA20190510093510005/10/19 09:35:31  5-MIN KARA 101535Z 15009KT 10SM CLR 22/21 A2995 0 93 800 150/09 RMK AO2 T02170206
53915KARA ARA20190510094010105/10/19 09:40:31  5-MIN KARA 101540Z 14008KT 10SM CLR 22/21 A2994 10 90 900 140/08 RMK AO2 T02220206
53915KARA ARA20190510094510105/10/19 09:45:31  5-MIN KARA 101545Z 15007KT 10SM CLR 22/20 A2994 10 90 800 150/07 RMK AO2 T02170200
53915KARA ARA20190510095010705/10/19 09:50:31  5-MIN KARA 101550Z 14007KT 10SM CLR 22/21 A2995 0 90 900 130/07 RMK AO2 SLP140 T02220206
53915KARA ARA20190510095510005/10/19 09:55:31  5-MIN KARA 101555Z 15007KT 10SM CLR 22/21 A2995 0 90 900 150/07 RMK AO2 T02220206
53915KARA ARA20190510100010005/10/19 10:00:31  5-MIN KARA 101600Z 14008KT 10SM CLR 22/21 A2995 0 90 900 140/08 RMK AO2 T02220206
53915KARA ARA20190510100510005/10/19 10:05:31  5-MIN KARA 101605Z 13007KT 10SM CLR 23/21 A2995 0 90 900 130/07 RMK AO2 T02280211
53915KARA ARA20190510101010005/10/19 10:10:31  5-MIN KARA 101610Z 14008KT 10SM CLR 23/21 A2995 0 90 900 130/08 RMK AO2 T02280211
53915KARA ARA20190510101510005/10/19 10:15:31  5-MIN KARA 101615Z 13009KT 10SM CLR 23/21 A2996 0 90 900 130/09 RMK AO2 T02280211
53915KARA ARA20190510102010005/10/19 10:20:31  5-MIN KARA 101620Z 13010KT 10SM CLR 23/21 A2996 0 87 900 130/10 RMK AO2 T02280206
53915KARA ARA20190510102510105/10/19 10:25:31  5-MIN KARA 101625Z 13009KT 10SM CLR 23/21 A2996 0 87 1000 130/09 RMK AO2 T02330211
53915KARA ARA20190510103010305/10/19 10:30:31  5-MIN KARA 101630Z 14010KT 10SM CLR 23/21 A2996 -10 87 1000 140/10 RMK AO2 T02330211
53915KARA ARA20190510103510005/10/19 10:35:31  5-MIN KARA 101635Z 14011KT 10SM CLR 23/21 A2996 0 87 900 140/11 RMK AO2 T02280206
53915KARA ARA20190510104010105/10/19 10:40:31  5-MIN KARA 101640Z 13012KT 10SM CLR 23/21 A2995 0 87 1000 130/12 RMK AO2 T02330211
53915KARA ARA20190510104510105/10/19 10:45:31  5-MIN KARA 101645Z 14009KT 10SM CLR 23/21 A2995 0 87 1000 140/09 RMK AO2 T02330211
53915KARA ARA20190510105010805/10/19 10:50:31  5-MIN KARA 101650Z 13010KT 10SM CLR 23/21 A2995 0 87 1000 130/10 RMK AO2 SLP142 T02330211
53915KARA ARA20190510105510105/10/19 10:55:31  5-MIN KARA 101655Z 15010KT 10SM CLR 23/21 A2996 0 87 1000 150/10 RMK AO2 T02330211
53915KARA ARA20190510110010105/10/19 11:00:31  5-MIN KARA 101700Z 14012KT 10SM CLR 23/21 A2996 0 84 1000 140/12 RMK AO2 T02330206
53915KARA ARA20190510110510405/10/19 11:05:31  5-MIN KARA 101705Z 14009KT 10SM FEW120 23/21 A2996 0 87 1000 140/09 RMK AO2 T02330211
53915KARA ARA20190510111010405/10/19 11:10:31  5-MIN KARA 101710Z 15009KT 10SM FEW120 23/21 A2995 0 84 1000 150/09 RMK AO2 T02330206
53915KARA ARA20190510111510405/10/19 11:15:31  5-MIN KARA 101715Z 14008KT 10SM FEW120 24/21 A2995 0 84 1100 130/08 RMK AO2 T02390211
53915KARA ARA20190510112010405/10/19 11:20:31  5-MIN KARA 101720Z 13008KT 10SM FEW120 24/21 A2995 0 84 1100 130/08 RMK AO2 T02390211
53915KARA ARA20190510112510405/10/19 11:25:31  5-MIN KARA 101725Z 13009KT 10SM FEW120 23/21 A2995 0 87 1000 130/09 RMK AO2 T02330211
53915KARA ARA20190510113010405/10/19 11:30:31  5-MIN KARA 101730Z 13008KT 10SM FEW120 24/21 A2994 0 84 1100 130/08 RMK AO2 T02390211
53915KARA ARA20190510113510205/10/19 11:35:31  5-MIN KARA 101735Z 13008KT 10SM CLR 24/21 A2994 10 84 1100 130/08 RMK AO2 T02390211
53915KARA ARA20190510114010505/10/19 11:40:31  5-MIN KARA 101740Z 11007KT 10SM FEW013 24/21 A2994 10 81 1200 110/07 RMK AO2 T02440211
53915KARA ARA20190510114510505/10/19 11:45:31  5-MIN KARA 101745Z 10007KT 10SM FEW013 24/21 A2994 10 84 1100 100/07 RMK AO2 T02390211
53915KARA ARA20190510115013305/10/19 11:50:31  5-MIN KARA 101750Z 14006KT 10SM CLR 24/21 A2993 10 81 1100 140/06 RMK AO2 SLP136 60035 T02390206 10244 20183 56019
53915KARA ARA20190510115510205/10/19 11:55:31  5-MIN KARA 101755Z 00000KT 10SM CLR 24/21 A2993 20 81 1100 000/00 RMK AO2 T02390206
53915KARA ARA20190510120010205/10/19 12:00:31  5-MIN KARA 101800Z 12004KT 10SM CLR 24/21 A2993 20 84 1100 120/04 RMK AO2 T02390211
53915KARA ARA20190510120510205/10/19 12:05:31  5-MIN KARA 101805Z 14004KT 10SM CLR 24/21 A2993 20 84 1100 140/04 RMK AO2 T02390211
53915KARA ARA20190510121010205/10/19 12:10:31  5-MIN KARA 101810Z VRB03KT 10SM CLR 24/21 A2993 20 78 1200 VRB/03 RMK AO2 T02440206
53915KARA ARA20190510121510205/10/19 12:15:31  5-MIN KARA 101815Z 15003KT 10SM CLR 24/21 A2993 20 78 1200 150/03 RMK AO2 T02440206
53915KARA ARA20190510122010505/10/19 12:20:31  5-MIN KARA 101820Z 17003KT 10SM FEW120 24/21 A2993 20 78 1200 170/03 RMK AO2 T02440206
53915KARA ARA20190510122510505/10/19 12:25:31  5-MIN KARA 101825Z 00000KT 10SM FEW120 24/21 A2993 20 78 1200 000/00 RMK AO2 T02440206
53915KARA ARA20190510123010505/10/19 12:30:31  5-MIN KARA 101830Z 00000KT 10SM FEW120 25/21 A2993 20 79 1200 000/00 RMK AO2 T02500211
53915KARA ARA20190510123510505/10/19 12:35:31  5-MIN KARA 101835Z 10003KT 10SM FEW120 25/21 A2992 20 79 1200 100/03 RMK AO2 T02500211
53915KARA ARA20190510124010505/10/19 12:40:31  5-MIN KARA 101840Z 00000KT 10SM FEW120 24/21 A2992 20 78 1200 000/00 RMK AO2 T02440206
53915KARA ARA20190510124510505/10/19 12:45:31  5-MIN KARA 101845Z 16003KT 10SM FEW120 26/21 A2992 20 76 1300 150/03 RMK AO2 T02560211
53915KARA ARA20190510125011205/10/19 12:50:31  5-MIN KARA 101850Z VRB04KT 10SM FEW120 25/21 A2992 20 79 1200 VRB/04 RMK AO2 SLP132 T02500211
53915KARA ARA20190510125510205/10/19 12:55:31  5-MIN KARA 101855Z 12004KT 10SM CLR 25/21 A2992 30 79 1200 120/04 RMK AO2 T02500211
53915KARA ARA20190510130010205/10/19 13:00:31  5-MIN KARA 101900Z 14006KT 10SM CLR 25/21 A2992 20 76 1200 140/06 RMK AO2 T02500206
53915KARA ARA20190510130510505/10/19 13:05:31  5-MIN KARA 101905Z 14005KT 10SM FEW095 25/21 A2992 20 76 1200 140/05 RMK AO2 T02500206
53915KARA ARA20190510131011205/10/19 13:10:31  5-MIN KARA 101910Z 00000KT 10SM FEW080 SCT095 24/21 A2992 30 78 1200 000/00 RMK AO2 T02440206
53915KARA ARA20190510131511905/10/19 13:15:31  5-MIN KARA 101915Z 00000KT 10SM FEW036 SCT065 BKN100 25/21 A2992 30 76 1200 000/00 RMK AO2 T02500206
53915KARA ARA20190510132013505/10/19 13:20:31  5-MIN KARA 101920Z 14003KT 10SM -RA SCT037 SCT065 BKN090 25/21 A2992 20 79 1200 140/03 RMK AO2 RAB16 P0000 T02500211
53915KARA ARA20190510132513505/10/19 13:25:31  5-MIN KARA 101925Z 16005KT 10SM -RA FEW033 FEW070 SCT090 25/21 A2993 20 79 1200 160/05 RMK AO2 RAB16 P0000 T02500211
53915KARA ARA20190510133013405/10/19 13:30:31  5-MIN KARA 101930Z 00000KT 10SM FEW036 SCT090 SCT120 25/21 A2993 20 79 1200 000/00 RMK AO2 RAB16E27 P0000 T02500211
53915KARA ARA20190510133513405/10/19 13:35:31  5-MIN KARA 101935Z 20003KT 10SM FEW036 FEW090 SCT120 25/21 A2993 20 79 1200 200/03 RMK AO2 RAB16E27 P0000 T02500211
53915KARA ARA20190510134012705/10/19 13:40:31  5-MIN KARA 101940Z 14004KT 10SM FEW037 SCT120 25/21 A2993 20 79 1200 140/04 RMK AO2 RAB16E27 P0000 T02500211
53915KARA ARA20190510134512005/10/19 13:45:31  5-MIN KARA 101945Z 00000KT 10SM BKN110 25/21 A2993 20 79 1200 000/00 RMK AO2 RAB16E27 P0000 T02500211
53915KARA ARA20190510135012705/10/19 13:50:31  5-MIN KARA 101950Z 00000KT 10SM BKN120 26/21 A2993 20 73 1300 000/00 RMK AO2 RAB16E27 SLP134 P0000 T02560206
53915KARA ARA20190510135512105/10/19 13:55:31  5-MIN KARA 101955Z 00000KT 10SM -RA BKN120 25/21 A2993 20 79 1200 000/00 RMK AO2 RAB54 P0000 T02500211
53915KARA ARA20190510140013005/10/19 14:00:31  5-MIN KARA 102000Z 00000KT 10SM -RA FEW046 BKN120 25/21 A2993 20 79 1200 000/00 RMK AO2 RAB1954 P0000 T02500211
53915KARA ARA20190510140513705/10/19 14:05:31  5-MIN KARA 102005Z 00000KT 10SM -RA FEW050 FEW100 BKN110 25/21 A2993 20 76 1200 000/00 RMK AO2 RAB1954 P0000 T02500206
53915KARA ARA20190510141012205/10/19 14:10:31  5-MIN KARA 102010Z 00000KT 10SM FEW110 25/21 A2993 20 79 1200 000/00 RMK AO2 RAB1954E06 P0000 T02500211
53915KARA ARA20190510141512205/10/19 14:15:31  5-MIN KARA 102015Z 00000KT 10SM FEW120 25/21 A2993 20 79 1200 000/00 RMK AO2 RAB1954E06 P0000 T02500211
53915KARA ARA20190510142011905/10/19 14:20:31  5-MIN KARA 102020Z 00000KT 10SM CLR 25/22 A2993 20 81 1200 000/00 RMK AO2 RAB1954E06 P0000 T02500217
53915KARA ARA20190510142511905/10/19 14:25:31  5-MIN KARA 102025Z 00000KT 10SM CLR 26/22 A2993 20 79 1300 000/00 RMK AO2 RAB1954E06 P0000 T02560217
53915KARA ARA20190510143011905/10/19 14:30:31  5-MIN KARA 102030Z 00000KT 10SM CLR 25/21 A2993 20 79 1200 000/00 RMK AO2 RAB1954E06 P0000 T02500211
53915KARA ARA20190510143511905/10/19 14:35:31  5-MIN KARA 102035Z 00000KT 10SM CLR 26/21 A2993 20 76 1300 000/00 RMK AO2 RAB1954E06 P0000 T02560211
53915KARA ARA20190510144011905/10/19 14:40:31  5-MIN KARA 102040Z 00000KT 10SM CLR 26/21 A2993 20 76 1300 000/00 RMK AO2 RAB1954E06 P0000 T02560211
53915KARA ARA20190510144511905/10/19 14:45:31  5-MIN KARA 102045Z 00000KT 10SM CLR 25/21 A2993 10 79 1200 000/00 RMK AO2 RAB1954E06 P0000 T02500211
53915KARA ARA20190510145013805/10/19 14:50:31  5-MIN KARA 102050Z 00000KT 10SM CLR 26/21 A2994 10 76 1300 000/00 RMK AO2 RAB1954E06 SLP137 P0000 60000 T02560211 58001
53915KARA ARA20190510145510205/10/19 14:55:31  5-MIN KARA 102055Z 20003KT 10SM CLR 25/22 A2994 10 81 1200 200/03 RMK AO2 T02500217
53915KARA ARA20190510150010505/10/19 15:00:31  5-MIN KARA 102100Z 23004KT 10SM FEW100 26/22 A2994 10 79 1300 230/04 RMK AO2 T02560217
53915KARA ARA20190510150510505/10/19 15:05:31  5-MIN KARA 102105Z 27003KT 10SM FEW100 25/21 A2994 10 79 1200 270/03 RMK AO2 T02500211
53915KARA ARA20190510151010505/10/19 15:10:31  5-MIN KARA 102110Z 32003KT 10SM FEW100 25/21 A2993 20 79 1200 320/03 RMK AO2 T02500211
53915KARA ARA20190510151510505/10/19 15:15:31  5-MIN KARA 102115Z 24003KT 10SM FEW100 25/21 A2993 20 79 1200 240/03 RMK AO2 T02500211
53915KARA ARA20190510152010505/10/19 15:20:31  5-MIN KARA 102120Z 29003KT 10SM FEW100 25/21 A2993 20 79 1200 290/03 RMK AO2 T02500211
53915KARA ARA20190510152510505/10/19 15:25:31  5-MIN KARA 102125Z 28004KT 10SM FEW100 25/21 A2993 20 79 1200 280/04 RMK AO2 T02500211
53915KARA ARA20190510153010205/10/19 15:30:31  5-MIN KARA 102130Z 25004KT 10SM CLR 25/22 A2994 10 81 1200 250/04 RMK AO2 T02500217
53915KARA ARA20190510153510205/10/19 15:35:31  5-MIN KARA 102135Z 24003KT 10SM CLR 25/22 A2994 10 81 1200 240/03 RMK AO2 T02500217
53915KARA ARA20190510154010105/10/19 15:40:31  5-MIN KARA 102140Z 20003KT 10SM CLR 25/22 A2995 0 81 1200 200/03 RMK AO2 T02500217
53915KARA ARA20190510154510205/10/19 15:45:31  5-MIN KARA 102145Z 23004KT 10SM CLR 25/22 A2994 10 81 1200 230/04 RMK AO2 T02500217
53915KARA ARA20190510155010805/10/19 15:50:31  5-MIN KARA 102150Z 24004KT 10SM CLR 25/22 A2994 0 81 1200 240/04 RMK AO2 SLP139 T02500217
53915KARA ARA20190510155510105/10/19 15:55:31  5-MIN KARA 102155Z 26003KT 10SM CLR 25/21 A2995 0 79 1200 250/03 RMK AO2 T02500211
53915KARA ARA20190510160010105/10/19 16:00:31  5-MIN KARA 102200Z 26003KT 10SM CLR 25/21 A2994 0 79 1200 260/03 RMK AO2 T02500211
53915KARA ARA20190510160510205/10/19 16:05:31  5-MIN KARA 102205Z 28003KT 10SM CLR 25/21 A2994 10 79 1200 280/03 RMK AO2 T02500211
53915KARA ARA20190510161010205/10/19 16:10:31  5-MIN KARA 102210Z 00000KT 10SM CLR 25/22 A2994 10 81 1200 000/00 RMK AO2 T02500217
53915KARA ARA20190510161510205/10/19 16:15:31  5-MIN KARA 102215Z 00000KT 10SM CLR 25/21 A2994 10 79 1200 000/00 RMK AO2 T02500211
53915KARA ARA20190510162010205/10/19 16:20:31  5-MIN KARA 102220Z 00000KT 10SM CLR 25/21 A2994 10 79 1200 000/00 RMK AO2 T02500211
53915KARA ARA20190510162510205/10/19 16:25:31  5-MIN KARA 102225Z 00000KT 10SM CLR 25/21 A2994 10 79 1200 000/00 RMK AO2 T02500211
53915KARA ARA20190510163010205/10/19 16:30:31  5-MIN KARA 102230Z 00000KT 10SM CLR 25/22 A2993 10 81 1200 000/00 RMK AO2 T02500217
53915KARA ARA20190510163510205/10/19 16:35:31  5-MIN KARA 102235Z 00000KT 10SM CLR 26/22 A2993 20 79 1300 000/00 RMK AO2 T02560217
53915KARA ARA20190510164010205/10/19 16:40:31  5-MIN KARA 102240Z 00000KT 10SM CLR 26/21 A2993 20 76 1300 000/00 RMK AO2 T02560211
53915KARA ARA20190510164510205/10/19 16:45:31  5-MIN KARA 102245Z 06003KT 10SM CLR 25/22 A2992 30 81 1200 060/03 RMK AO2 T02500217
53915KARA ARA20190510165010905/10/19 16:50:31  5-MIN KARA 102250Z 07003KT 10SM CLR 25/22 A2991 30 81 1200 070/03 RMK AO2 SLP129 T02500217
53915KARA ARA20190510165510205/10/19 16:55:31  5-MIN KARA 102255Z 05004KT 10SM CLR 25/22 A2991 30 81 1200 050/04 RMK AO2 T02500217
53915KARA ARA20190510170010505/10/19 17:00:31  5-MIN KARA 102300Z 05004KT 10SM FEW023 25/22 A2992 30 81 1200 050/04 RMK AO2 T02500217
53915KARA ARA20190510170510505/10/19 17:05:31  5-MIN KARA 102305Z 05004KT 10SM SCT023 25/22 A2992 20 81 1200 050/04 RMK AO2 T02500217
53915KARA ARA20190510171010505/10/19 17:10:31  5-MIN KARA 102310Z 04004KT 10SM BKN023 25/22 A2993 20 81 1200 040/04 RMK AO2 T02500217
53915KARA ARA20190510171511205/10/19 17:15:31  5-MIN KARA 102315Z 01005KT 10SM SCT018 BKN025 25/22 A2992 20 84 1200 360/05 RMK AO2 T02500222
53915KARA ARA20190510172011205/10/19 17:20:31  5-MIN KARA 102320Z 36005KT 10SM BKN018 BKN023 25/22 A2993 20 84 1200 360/05 RMK AO2 T02500222
53915KARA ARA20190510172511205/10/19 17:25:31  5-MIN KARA 102325Z 01005KT 10SM BKN018 BKN023 24/22 A2993 20 84 1200 360/05 RMK AO2 T02440217
53915KARA ARA20190510173011205/10/19 17:30:31  5-MIN KARA 102330Z 36008KT 10SM BKN018 OVC024 24/22 A2992 20 87 1200 360/08 RMK AO2 T02440222
53915KARA ARA20190510173511205/10/19 17:35:31  5-MIN KARA 102335Z 36007KT 10SM BKN018 OVC026 24/22 A2992 30 84 1200 360/07 RMK AO2 T02440217
53915KARA ARA20190510174011205/10/19 17:40:31  5-MIN KARA 102340Z 36006KT 10SM BKN018 OVC026 24/22 A2992 30 84 1200 360/06 RMK AO2 T02440217
53915KARA ARA20190510174511905/10/19 17:45:31  5-MIN KARA 102345Z 01005KT 10SM BKN019 BKN024 OVC029 24/22 A2992 30 84 1200 010/05 RMK AO2 T02440217
53915KARA ARA20190510175015005/10/19 17:50:31  5-MIN KARA 102350Z 01007KT 10SM BKN019 BKN027 OVC041 24/22 A2991 30 84 1200 010/07 RMK AO2 SLP129 60000 T02440217 10256 20239 53003
53915KARA ARA20190510175511905/10/19 17:55:31  5-MIN KARA 102355Z 36008KT 10SM SCT019 BKN026 OVC041 24/22 A2991 40 84 1200 360/08 RMK AO2 T02440217
53915KARA ARA20190510180011905/10/19 18:00:31  5-MIN KARA 110000Z 36008KT 10SM FEW017 BKN028 OVC039 24/22 A2990 40 87 1100 360/08 RMK AO2 T02390217
53915KARA ARA20190510180511905/10/19 18:05:31  5-MIN KARA 110005Z 36009KT 10SM SCT019 BKN027 OVC041 24/22 A2990 50 87 1100 360/09 RMK AO2 T02390217
53915KARA ARA20190510181011905/10/19 18:10:31  5-MIN KARA 110010Z 01008KT 10SM FEW019 BKN025 OVC039 24/22 A2990 50 87 1100 010/08 RMK AO2 T02390217
53915KARA ARA20190510181511905/10/19 18:15:31  5-MIN KARA 110015Z 01009KT 10SM BKN023 BKN032 OVC039 24/22 A2990 50 87 1100 010/09 RMK AO2 T02390217
53915KARA ARA20190510182012805/10/19 18:20:31  5-MIN KARA 110020Z 02009KT 10SM -RA BKN023 OVC034 24/22 A2990 50 87 1100 010/09 RMK AO2 RAB19 P0000 T02390217
53915KARA ARA20190510182512805/10/19 18:25:31  5-MIN KARA 110025Z 02010KT 10SM -RA BKN023 OVC032 24/22 A2990 50 87 1100 020/10 RMK AO2 RAB19 P0000 T02390217
53915KARA ARA20190510183013405/10/19 18:30:31  5-MIN KARA 110030Z 02011KT 10SM SCT023 BKN027 OVC036 24/22 A2990 50 87 1100 020/11 RMK AO2 RAB19E28 P0000 T02390217
53915KARA ARA20190510183512705/10/19 18:35:31  5-MIN KARA 110035Z 04009KT 10SM BKN025 OVC038 24/22 A2990 50 87 1100 040/09 RMK AO2 RAB19E28 P0000 T02390217
53915KARA ARA20190510184012805/10/19 18:40:31  5-MIN KARA 110040Z 04007KT 10SM -RA BKN025 OVC036 24/22 A2990 50 87 1100 040/07 RMK AO2 RAB19 P0000 T02390217
53915KARA ARA20190510184513505/10/19 18:45:31  5-MIN KARA 110045Z 05007KT 10SM -RA SCT025 BKN030 OVC038 23/22 A2989 60 93 1100 050/07 RMK AO2 RAB19 P0000 T02330222
53915KARA ARA20190510185014205/10/19 18:50:31  5-MIN KARA 110050Z 05007KT 10SM -RA SCT025 BKN030 OVC055 24/22 A2989 60 90 1100 050/07 RMK AO2 RAB19 SLP120 P0000 T02390222
53915KARA ARA20190510185512905/10/19 18:55:31  5-MIN KARA 110055Z 05008KT 10SM -RA FEW027 BKN032 OVC050 24/22 A2989 60 90 1100 050/08 RMK AO2 P0000 T02390222
53915KARA ARA20190510190012905/10/19 19:00:31  5-MIN KARA 110100Z 06007KT 10SM -RA FEW026 BKN031 OVC040 23/22 A2989 50 93 1100 060/07 RMK AO2 P0000 T02330222
53915KARA ARA20190510190513105/10/19 19:05:31  5-MIN KARA 110105Z 07005KT 10SM SCT024 BKN031 OVC040 23/22 A2989 60 93 1100 070/05 RMK AO2 RAE03 P0000 T02330222
53915KARA ARA20190510191012905/10/19 19:10:31  5-MIN KARA 110110Z 07006KT 10SM -RA BKN024 BKN031 OVC040 23/22 A2989 50 93 1100 070/06 RMK AO2 P0000 T02330222
53915KARA ARA20190510191512905/10/19 19:15:31  5-MIN KARA 110115Z 06008KT 10SM -RA BKN024 BKN031 OVC040 23/22 A2989 50 93 1100 060/08 RMK AO2 P0000 T02330222
53915KARA ARA20190510192012205/10/19 19:20:31  5-MIN KARA 110120Z 05008KT 10SM -RA BKN024 OVC031 23/22 A2989 50 93 1100 050/08 RMK AO2 P0000 T02330222
53915KARA ARA20190510192511505/10/19 19:25:31  5-MIN KARA 110125Z 04011KT 10SM -RA OVC024 23/22 A2989 50 90 1100 040/11 RMK AO2 P0000 T02330217
53915KARA ARA20190510193011705/10/19 19:30:31  5-MIN KARA 110130Z 05008KT 10SM OVC023 23/22 A2989 50 90 1100 040/08 RMK AO2 RAE26 P0000 T02330217
53915KARA ARA20190510193511705/10/19 19:35:31  5-MIN KARA 110135Z 05008KT 10SM OVC023 23/22 A2990 50 93 1100 050/08 RMK AO2 RAE26 P0000 T02330222
53915KARA ARA20190510194011705/10/19 19:40:31  5-MIN KARA 110140Z 05008KT 10SM OVC022 23/22 A2990 40 93 1100 050/08 RMK AO2 RAE26 P0000 T02330222
53915KARA ARA20190510194512205/10/19 19:45:31  5-MIN KARA 110145Z AUTO 07007KT 10SM OVC022 23/22 A2991 40 90 1100 070/07 RMK AO2 RAE26 P0000 T02330217
53915KARA ARA20190510195012905/10/19 19:50:31  5-MIN KARA 110150Z AUTO 07004KT 10SM OVC022 23/22 A2991 40 90 1100 070/04 RMK AO2 RAE26 SLP128 P0000 T02330217
53915KARA ARA20190510195511005/10/19 19:55:31  5-MIN KARA 110155Z AUTO 05004KT 10SM OVC022 23/22 A2991 30 90 1100 050/04 RMK AO2 T02330217
53915KARA ARA20190510200012605/10/19 20:00:31  5-MIN KARA 110200Z AUTO 03006KT 10SM -RA OVC023 24/22 A2991 30 87 1100 030/06 RMK AO2 RAB00 P0000 T02390217
53915KARA ARA20190510200512605/10/19 20:05:31  5-MIN KARA 110205Z AUTO 01006KT 10SM -RA OVC023 24/22 A2991 30 90 1100 010/06 RMK AO2 RAB00 P0000 T02390222
53915KARA ARA20190510201012605/10/19 20:10:31  5-MIN KARA 110210Z AUTO 02005KT 10SM -RA OVC023 23/22 A2991 30 93 1100 020/05 RMK AO2 RAB00 P0000 T02330222
53915KARA ARA20190510201512505/10/19 20:15:31  5-MIN KARA 110215Z AUTO 01006KT 10SM OVC023 23/22 A2991 40 93 1100 010/06 RMK AO2 RAB00E13 P0000 T02330222
53915KARA ARA20190510202012505/10/19 20:20:31  5-MIN KARA 110220Z AUTO 01007KT 10SM OVC023 23/22 A2991 40 93 1100 010/07 RMK AO2 RAB00E13 P0000 T02330222
53915KARA ARA20190510202512505/10/19 20:25:31  5-MIN KARA 110225Z AUTO 02008KT 10SM OVC022 23/22 A2991 40 93 1100 020/08 RMK AO2 RAB00E13 P0000 T02330222
53915KARA ARA20190510203013205/10/19 20:30:31  5-MIN KARA 110230Z AUTO 02008KT 10SM BKN022 OVC030 23/22 A2991 40 93 1100 020/08 RMK AO2 RAB00E13 P0000 T02330222
53915KARA ARA20190510203513905/10/19 20:35:31  5-MIN KARA 110235Z AUTO 01009KT 10SM SCT022 BKN028 OVC055 23/22 A2991 40 90 1100 010/09 RMK AO2 RAB00E13 P0000 T02330217
53915KARA ARA20190510204014605/10/19 20:40:31  5-MIN KARA 110240Z AUTO 01008KT 10SM -RA SCT022 BKN028 OVC050 23/22 A2991 30 90 1000 010/08 RMK AO2 RAB00E13B39 P0000 T02330217
53915KARA ARA20190510204514605/10/19 20:45:31  5-MIN KARA 110245Z AUTO 01007KT 10SM -RA SCT024 SCT037 OVC048 23/22 A2992 30 90 1000 010/07 RMK AO2 RAB00E13B39 P0000 T02330217
53915KARA ARA20190510205013605/10/19 20:50:31  5-MIN KARA 110250Z AUTO 36006KT 10SM -RA FEW024 BKN039 OVC047 23/22 A2992 20 90 1000 360/06 RMK AO2 RAB00E13B39 P0000
53915KARA ARA20190510205513405/10/19 20:55:31  5-MIN KARA 110255Z AUTO 02005KT 10SM -RA FEW024 BKN039 OVC047 23/22 A2993 20 90 1000 020/05 RMK AO2 P0000 T02330217
53915KARA ARA20190510210013405/10/19 21:00:31  5-MIN KARA 110300Z AUTO 05006KT 10SM -RA SCT024 BKN039 OVC047 23/22 A2992 20 93 1000 050/06 RMK AO2 P0000 T02330222
53915KARA ARA20190510210513405/10/19 21:05:31  5-MIN KARA 110305Z AUTO 05005KT 10SM -RA SCT024 BKN038 OVC055 23/22 A2992 20 90 1000 040/05 RMK AO2 P0000 T02330217
53915KARA ARA20190510211013405/10/19 21:10:31  5-MIN KARA 110310Z AUTO 05005KT 10SM -RA FEW023 BKN050 OVC070 23/22 A2992 30 90 1000 050/05 RMK AO2 P0000 T02330217
53915KARA ARA20190510211513605/10/19 21:15:31  5-MIN KARA 110315Z AUTO 06006KT 10SM FEW023 SCT037 BKN070 23/22 A2992 30 90 1000 060/06 RMK AO2 RAE11 P0000 T02330217
53915KARA ARA20190510212013605/10/19 21:20:31  5-MIN KARA 110320Z AUTO 03005KT 10SM FEW023 SCT060 BKN070 23/22 A2993 20 90 1000 030/05 RMK AO2 RAE11 P0000 T02330217
53915KARA ARA20190511032510905/11/19 03:25:31  5-MIN KARA 110925Z AUTO 00000KT 9SM SCT011 21/21 A2987 80 100 800 000/00 RMK AO2 T02060206
53915KARA ARA20190511033010905/11/19 03:30:31  5-MIN KARA 110930Z AUTO 00000KT 9SM BKN011 21/21 A2987 80 100 800 000/00 RMK AO2 T02060206
53915KARA ARA20190511033510805/11/19 03:35:31  5-MIN KARA 110935Z AUTO 00000KT 9SM BKN010 21/20 A2986 80 97 800 000/00 RMK AO2 T02060200
53915KARA ARA20190511034010905/11/19 03:40:31  5-MIN KARA 110940Z AUTO 00000KT 8SM OVC010 21/21 A2987 70 100 800 000/00 RMK AO2 T02060206
53915KARA ARA20190511034510905/11/19 03:45:31  5-MIN KARA 110945Z AUTO 00000KT 8SM OVC008 20/20 A2987 70 100 700 000/00 RMK AO2 T02000200
53915KARA ARA20190511035011605/11/19 03:50:31  5-MIN KARA 110950Z AUTO 00000KT 9SM OVC008 21/21 A2987 70 100 800 000/00 RMK AO2 SLP114 T02060206
53915KARA ARA20190511035510905/11/19 03:55:31  5-MIN KARA 110955Z AUTO 00000KT 8SM OVC006 21/21 A2987 70 100 800 000/00 RMK AO2 T02060206
53915KARA ARA20190511040011205/11/19 04:00:31  5-MIN KARA 111000Z AUTO 00000KT 6SM BR OVC006 21/21 A2986 80 100 800 000/00 RMK AO2 T02060206
53915KARA ARA20190511040511205/11/19 04:05:31  5-MIN KARA 111005Z AUTO 00000KT 6SM BR OVC004 21/21 A2986 80 100 800 000/00 RMK AO2 T02060206
53915KARA ARA20190511041010905/11/19 04:10:31  5-MIN KARA 111010Z AUTO 00000KT 7SM OVC004 20/20 A2986 80 100 700 000/00 RMK AO2 T02000200
53915KARA ARA20190511041510905/11/19 04:15:31  5-MIN KARA 111015Z AUTO 00000KT 8SM OVC002 20/20 A2986 90 100 700 000/00 RMK AO2 T02000200
53915KARA ARA20190511042010905/11/19 04:20:31  5-MIN KARA 111020Z AUTO 00000KT 8SM OVC002 19/19 A2986 90 100 700 000/00 RMK AO2 T01940194
53915KARA ARA20190511042510905/11/19 04:25:31  5-MIN KARA 111025Z AUTO 00000KT 8SM OVC002 20/20 A2986 90 100 700 000/00 RMK AO2 T02000200
53915KARA ARA20190511043011005/11/19 04:30:31  5-MIN KARA 111030Z AUTO 06003KT 10SM OVC002 20/20 A2986 90 100 700 060/03 RMK AO2 T02000200
53915KARA ARA20190511043511005/11/19 04:35:31  5-MIN KARA 111035Z AUTO 07003KT 10SM BKN002 19/19 A2986 80 100 700 060/03 RMK AO2 T01940194
53915KARA ARA20190511044007505/11/19 04:40:31  5-MIN KARA 111040Z AUTO 00000KT 10SM BKN002 20/20 A2986 
53915KARA ARA20190511051010805/11/19 05:10:31  5-MIN KARA 111110Z 00000KT 1/2SM FG VV002 20/20 A2988 60 100 700 000/00 RMK AO2 T02000200
53915KARA ARA20190511051510805/11/19 05:15:31  5-MIN KARA 111115Z 00000KT 1/2SM FG VV002 19/19 A2989 60 100 600 000/00 RMK AO2 T01940194
53915KARA ARA20190511052010805/11/19 05:20:31  5-MIN KARA 111120Z 00000KT 1/2SM FG VV002 20/20 A2989 50 100 700 000/00 RMK AO2 T02000200
53915KARA ARA20190511052510805/11/19 05:25:31  5-MIN KARA 111125Z 00000KT 1/2SM FG VV002 19/19 A2989 50 100 600 000/00 RMK AO2 T01940194
53915KARA ARA20190511053010805/11/19 05:30:31  5-MIN KARA 111130Z 00000KT 1/2SM FG VV002 20/20 A2989 50 100 700 000/00 RMK AO2 T02000200
53915KARA ARA20190511053510805/11/19 05:35:31  5-MIN KARA 111135Z 00000KT 1/2SM FG VV002 20/20 A2990 50 100 700 000/00 RMK AO2 T02000200
53915KARA ARA20190511054011605/11/19 05:40:31  5-MIN KARA 111140Z 00000KT 1/2SM FG BKN003 OVC035 20/20 A2990 50 100 700 000/00 RMK AO2 T02000200
53915KARA ARA20190511054513205/11/19 05:45:31  5-MIN KARA 111145Z 00000KT 1/2SM -RA FG BKN003 OVC035 20/20 A2990 40 100 700 000/00 RMK AO2 RAB44 P0000 T02000200
53915KARA ARA20190511055016905/11/19 05:50:31  5-MIN KARA 111150Z 00000KT 1/2SM -RA FG BKN003 OVC035 20/20 A2990 40 100 700 000/00 RMK AO2 RAB44 SLP125 P0000 60000 70035 T02000200 10217 20194 56012
53915KARA ARA20190511055512605/11/19 05:55:31  5-MIN KARA 111155Z 00000KT 1/2SM -RA FG BKN003 OVC035 20/20 A2990 40 100 700 000/00 RMK AO2 P0000 T02000200
53915KARA ARA20190511060012605/11/19 06:00:31  5-MIN KARA 111200Z 00000KT 1/2SM -RA FG BKN003 OVC035 20/20 A2991 40 100 700 000/00 RMK AO2 P0000 T02000200
53915KARA ARA20190511060512605/11/19 06:05:31  5-MIN KARA 111205Z 00000KT 1/2SM -RA FG BKN003 OVC037 21/21 A2990 40 100 700 000/00 RMK AO2 P0000 T02060206
53915KARA ARA20190511061012405/11/19 06:10:31  5-MIN KARA 111210Z 00000KT 1SM -RA BR BKN003 OVC037 21/21 A2991 40 100 700 000/00 RMK AO2 P0000 T02060206
53915KARA ARA20190511061512805/11/19 06:15:31  5-MIN KARA 111215Z 00000KT 1 1/2SM -RA BR SCT003 BKN037 21/21 A2991 40 100 700 000/00 RMK AO2 P0000 T02060206
53915KARA ARA20190511062012805/11/19 06:20:31  5-MIN KARA 111220Z 00000KT 1 1/2SM -RA BR FEW003 BKN037 21/21 A2991 40 100 700 000/00 RMK AO2 P0000 T02060206
53915KARA ARA20190511062513105/11/19 06:25:31  5-MIN KARA 111225Z 00000KT 2SM -RA BR FEW003 SCT035 SCT100 21/21 A2991 30 100 700 000/00 RMK AO2 P0000 T02060206
53915KARA ARA20190511063013105/11/19 06:30:31  5-MIN KARA 111230Z 00000KT 2SM -RA BR FEW003 SCT037 BKN100 21/21 A2991 30 100 800 000/00 RMK AO2 P0000 T02110211
53915KARA ARA20190511063513105/11/19 06:35:31  5-MIN KARA 111235Z 00000KT 2SM -RA BR FEW004 FEW032 BKN100 21/21 A2991 30 100 800 000/00 RMK AO2 P0000 T02110211
53915KARA ARA20190511064012405/11/19 06:40:31  5-MIN KARA 111240Z 00000KT 2SM -RA BR FEW032 BKN100 21/21 A2991 30 100 800 000/00 RMK AO2 P0000 T02110211
53915KARA ARA20190511064512405/11/19 06:45:31  5-MIN KARA 111245Z 00000KT 2SM -RA BR FEW032 BKN100 21/21 A2991 30 100 800 000/00 RMK AO2 P0000 T02110211
53915KARA ARA20190511065011405/11/19 06:50:31  5-MIN KARA 111250Z 00000KT 10SM FEW032 BKN100 22/22 A2991 30 100 900 000/00 RMK AO2 RAE46 P0000
53915KARA ARA20190511065511205/11/19 06:55:31  5-MIN KARA 111255Z 00000KT 10SM FEW032 OVC100 22/22 A2991 30 100 900 000/00 RMK AO2 T02170217
53915KARA ARA20190511070011905/11/19 07:00:31  5-MIN KARA 111300Z 00000KT 10SM FEW029 FEW036 OVC100 22/22 A2991 30 100 900 000/00 RMK AO2 T02170217
53915KARA ARA20190511070511905/11/19 07:05:31  5-MIN KARA 111305Z 00000KT 10SM SCT029 SCT038 OVC100 22/22 A2991 30 100 900 000/00 RMK AO2 T02170217
53915KARA ARA20190511071011905/11/19 07:10:31  5-MIN KARA 111310Z 00000KT 10SM FEW029 SCT036 BKN100 22/22 A2992 30 100 900 000/00 RMK AO2 T02220222
53915KARA ARA20190511071511905/11/19 07:15:31  5-MIN KARA 111315Z 00000KT 10SM FEW029 SCT040 BKN100 22/22 A2991 30 100 900 000/00 RMK AO2 T02220222
53915KARA ARA20190511072011905/11/19 07:20:31  5-MIN KARA 111320Z 00000KT 10SM FEW028 SCT044 SCT100 23/22 A2991 30 97 1000 000/00 RMK AO2 T02280222
53915KARA ARA20190511072511305/11/19 07:25:31  5-MIN KARA 111325Z 00000KT 10SM FEW028 FEW039 23/23 A2991 30 100 1000 000/00 RMK AO2 T02280228
53915KARA ARA20190511073011205/11/19 07:30:31  5-MIN KARA 111330Z 00000KT 10SM FEW028 FEW043 23/23 A2991 30 97 1100 000/00 RMK AO2 T02330228
53915KARA ARA20190511073510205/11/19 07:35:31  5-MIN KARA 111335Z 00000KT 10SM CLR 23/23 A2991 40 97 1100 000/00 RMK AO2 T02330228
53915KARA ARA20190511074010205/11/19 07:40:31  5-MIN KARA 111340Z 00000KT 10SM CLR 24/23 A2991 30 93 1100 000/00 RMK AO2 T02390228
53915KARA ARA20190511074510205/11/19 07:45:31  5-MIN KARA 111345Z 00000KT 10SM CLR 24/23 A2991 30 97 1100 000/00 RMK AO2 T02390233
53915KARA ARA20190511075011205/11/19 07:50:31  5-MIN KARA 111350Z 00000KT 10SM FEW110 24/23 A2991 30 97 1100 000/00 RMK AO2 SLP128 T02390233
53915KARA ARA20190511075510505/11/19 07:55:31  5-MIN KARA 111355Z 18003KT 10SM FEW110 24/23 A2991 30 93 1200 180/03 RMK AO2 T02440233
53915KARA ARA20190511080010505/11/19 08:00:31  5-MIN KARA 111400Z 00000KT 10SM SCT110 24/23 A2991 30 93 1200 000/00 RMK AO2 T02440233
53915KARA ARA20190511080510505/11/19 08:05:31  5-MIN KARA 111405Z 00000KT 10SM SCT100 24/23 A2991 30 93 1200 000/00 RMK AO2 T02440233
53915KARA ARA20190511081010505/11/19 08:10:31  5-MIN KARA 111410Z 00000KT 10SM SCT100 24/23 A2991 40 93 1200 000/00 RMK AO2 T02440233
53915KARA ARA20190511081510505/11/19 08:15:31  5-MIN KARA 111415Z 16003KT 10SM SCT100 25/23 A2991 40 90 1200 160/03 RMK AO2 T02500233
53915KARA ARA20190511082011605/11/19 08:20:31  5-MIN KARA 111420Z 23003KT 10SM SCT100 25/23 A2991 40 90 1200 230/03 RMK AO2 LTG DSNT E T02500233
53915KARA ARA20190511082511605/11/19 08:25:31  5-MIN KARA 111425Z 00000KT 10SM SCT100 26/23 A2991 40 87 1300 000/00 RMK AO2 LTG DSNT E T02560233
53915KARA ARA20190511083011605/11/19 08:30:31  5-MIN KARA 111430Z 22004KT 10SM BKN100 26/23 A2991 40 87 1300 220/04 RMK AO2 LTG DSNT E T02560233
53915KARA ARA20190511083510505/11/19 08:35:31  5-MIN KARA 111435Z 00000KT 10SM BKN100 26/23 A2991 40 87 1300 000/00 RMK AO2 T02560233
53915KARA ARA20190511084010705/11/19 08:40:31  5-MIN KARA 111440Z 00026/24 A2991 40 87 1400 140/03 RMK AO2 SLP126 60000 T02610239 53012
53915KARA ARA20190511085511205/11/19 08:55:31  5-MIN KARA 111455Z 16004KT 10SM FEW026 BKN100 27/24 A2990 40 84 1400 160/04 RMK AO2 T02670239
53915KARA ARA20190511090011205/11/19 09:00:31  5-MIN KARA 111500Z 18004KT 10SM SCT026 BKN100 27/24 A2991 40 84 1400 180/04 RMK AO2 T02670239
53915KARA ARA20190511090511205/11/19 09:05:31  5-MIN KARA 111505Z VRB03KT 10SM BKN024 BKN100 27/24 A2991 40 84 1400 VRB/03 RMK AO2 T02670239
53915KARA ARA20190511091011205/11/19 09:10:31  5-MIN KARA 111510Z 19008KT 10SM BKN022 BKN100 27/24 A2991 40 84 1400 190/08 RMK AO2 T02670239
53915KARA ARA20190511091511205/11/19 09:15:31  5-MIN KARA 111515Z 19008KT 10SM BKN022 BKN100 27/23 A2990 40 82 1400 190/08 RMK AO2 T02670233
53915KARA ARA20190511092011205/11/19 09:20:31  5-MIN KARA 111520Z 20009KT 10SM BKN022 BKN100 27/23 A2990 40 82 1400 200/09 RMK AO2 T02670233
53915KARA ARA20190511092511205/11/19 09:25:31  5-MIN KARA 111525Z 20007KT 10SM BKN022 BKN100 27/23 A2990 40 82 1400 200/07 RMK AO2 T02670233
53915KARA ARA20190511093011205/11/19 09:30:31  5-MIN KARA 111530Z 19007KT 10SM BKN022 BKN100 27/24 A2990 40 82 1500 190/07 RMK AO2 T02720239
53915KARA ARA20190511093511205/11/19 09:35:31  5-MIN KARA 111535Z 18007KT 10SM SCT022 BKN100 27/24 A2990 40 82 1500 180/07 RMK AO2 T02720239
53915KARA ARA20190511094011905/11/19 09:40:31  5-MIN KARA 111540Z 20008KT 10SM FEW018 SCT024 BKN100 27/24 A2989 50 82 1500 190/12 RMK AO2 T02720239
53915KARA ARA20190511101011905/11/19 10:10:31  5-MIN KARA 111610Z 20010KT 10SM BKN020 BKN024 BKN100 27/24 A2989 60 82 1500 200/10 RMK AO2 T02720239
53915KARA ARA20190511101511905/11/19 10:15:31  5-MIN KARA 111615Z 19009KT 10SM BKN020 BKN025 OVC100 27/24 A2989 60 84 1500 190/09 RMK AO2 T02720244
53915KARA ARA20190511102017205/11/19 10:20:31  5-MIN KARA 111620Z 19009KT /19 11:10:31  5-MIN KARA 111710Z 19012KT 10SM SCT019 BKN039 BKN046 28/24 A2986 80 82 1600 190/12 RMK AO2 LTG DSNT NE T02780244
53915KARA ARA20190511111513705/11/19 11:15:31  5-MIN KARA 111715Z 20015G19KT 10SM SCT019 BKN029 OVC046 28/24 A2986 80 79 1600 200/15G19 RMK AO2 LTG DSNT NE T02780239
53915KARA ARA20190511112013705/11/19 11:20:31  5-MIN KARA 111720Z 19014G20KT 10SM BKN019 BKN029 BKN041 27/24 A2985 90 82 1600 190/14G20 RMK AO2 LTG DSNT NE T02720239
53915KARA ARA20190511112513705/11/19 11:25:31  5-MIN KARA 111725Z 19010G20KT 10SM SCT019 BKN026 BKN039 28/25 A2985 90 82 1700 190/10G20 RMK AO2 LTG DSNT NE T02830250
53915KARA ARA20190511113011905/11/19 11:30:31  5-MIN KARA 111730Z 20013KT 10SM SCT019 BKN031 BKN039 28/24 A2985 90 82 1600 200/13 RMK AO2 T02780244
53915KARA ARA20190511113513805/11/19 11:35:31  5-MIN KARA 111735Z 19016G22KT 10SM SCT019 BKN028 BKN037 28/24 A2984 100 82 1600 190/16G22 RMK AO2 LTG DSNT NE T02780244
53915KARA ARA20190511114013805/11/19 11:40:31  5-MIN KARA 111740Z 19014G22KT 10SM FEW019 BKN028 BKN037 28/24 A2984 100 76 1700 190/14G22 RMK AO2 LTG DSNT NE T02830239
53915KARA ARA20190511114513805/11/19 11:45:31  5-MIN KARA 111745Z 19010G18KT 10SM FEW019 BKN026 BKN034 28/24 A2984 100 76 1700 190/10G18 RMK AO2 LTG DSNT NE T02830239
53915KARA ARA20190511115012905/11/19 11:50:31  5-MIN KARA 111750Z 19012KT 10SM SCT022 BKN034 BKN042 28/24 A2983 110 79 1700 190/12 RMK AO2 LTG DSNT NE PRESFR
53915KARA ARA20190511115513905/11/19 11:55:31  5-MIN KARA 111755Z 19011KT 10SM FEW020 SCT026 BKN032 28/24 A2983 110 79 1700 190/11 RMK AO2 LTG DSNT NE AND NW T02830244
53915KARA ARA20190511120013905/11/19 12:00:31  5-MIN KARA 111800Z 18012KT 10SM SCT022 SCT028 BKN038 28/24 A2983 110 79 1700 180/12 RMK AO2 LTG DSNT NE AND NW T02830244
53915KARA ARA20190511120513905/11/19 12:05:31  5-MIN KARA 111805Z 19011KT 10SM FEW019 SCT024 BKN037 28/24 A2983 110 79 1700 190/11 RMK AO2 LTG DSNT NE AND NW T02830244
53915KARA ARA20190511121014505/11/19 12:10:31  5-MIN KARA 111810Z 19012G17KT 10SM FEW020 SCT026 BKN034 28/24 A2983 110 79 1700 190/12G17 RMK AO2 LTG DSNT NE AND NW T02830244
53915KARA ARA20190511121513205/11/19 12:15:31  5-MIN KARA 111815Z 20012KT 10SM SCT023 BKN032 BKN040 28/24 A2983 110 76 1700 200/12 RMK AO2 LTG DSNT NE T02830239
53915KARA ARA20190511122013205/11/19 12:20:31  5-MIN KARA 111820Z 19013KT 10SM SCT023 BKN032 BKN040 28/24 A2983 110 79 1600 190/13 RMK AO2 LTG DSNT NE T02780239
53915KARA ARA20190511122513205/11/19 12:25:31  5-MIN KARA 111825Z 20012KT 10SM SCT021 BKN030 BKN040 28/24 A2983 110 79 1600 200/12 RMK AO2 LTG DSNT NE T02780239
53915KARA ARA20190511123012005/11/19 12:30:31  5-MIN KARA 111830Z 19014KT 10SM SCT023 BKN028 BKN038 28/24 A2984 100 79 1600 190/14 RMK AO2 T02780239
53915KARA ARA20190511123512005/11/19 12:35:31  5-MIN KARA 111835Z 20012KT 10SM SCT021 BKN028 BKN038 28/24 A2984 100 79 1600 200/12 RMK AO2 T02780239
53915KARA ARA20190511124012005/11/19 12:40:31  5-MIN KARA 111840Z 20010KT 10SM SCT021 BKN026 OVC038 28/24 A2984 100 79 1600 200/10 RMK AO2 T02780239
53915KARA ARA20190511124513105/11/19 12:45:31  5-MIN KARA 111845Z 20011KT 10SM SCT022 BKN030 OVC039 27/24 A2984 100 82 1600 200/11 RMK AO2 LTG DSNT W T02720239
53915KARA ARA20190511125013405/11/19 12:50:31  5-MIN KARA 111850Z 20012G20KT 10SM FEW020 BKN030 OVC041 27/24 A2985 100 82 1600 200/12G20 RMK AO2 LTG DSNT W AND NW
53915KARA ARA20190511125513705/11/19 12:55:31  5-MIN KARA 111855Z 20012KT 10SM SCT022 BKN033 OVC045 27/24 A2985 90 82 1600 200/12 RMK AO2 LTG DSNT W AND NW T02720239
53915KARA ARA20190511130013805/11/19 13:00:31  5-MIN KARA 111900Z 21012KT 10SM FEW020 BKN033 OVC055 27/24 A2985 100 82 1600 210/12 RMK AO2 LTG DSNT W AND NW T02720239
53915KARA ARA20190511130513405/11/19 13:05:31  5-MIN KARA 111905Z 20010KT 10SM FEW020 BKN030 BKN050 27/24 A2984 100 82 1600 200/10 RMK AO2 LTG DSNT W-NE T02720239
53915KARA ARA20190511131014005/11/19 13:10:31  5-MIN KARA 111910Z 21014G19KT 10SM FEW022 BKN030 BKN042 27/24 A2983 110 82 1600 210/14G19 RMK AO2 LTG DSNT W-NE T02720239
53915KARA ARA20190511131513405/11/19 13:15:31  5-MIN KARA 111915Z 20013G19KT 10SM SCT032 BKN042 27/24 A2983 110 82 1600 200/13G19 RMK AO2 LTG DSNT NW-NE T02720239
53915KARA ARA20190511132012805/11/19 13:20:31  5-MIN KARA 111920Z 20011KT 10SM SCT031 27/24 A2982 120 82 1600 200/11 RMK AO2 LTG DSNT NW-NE PRESFR T02720239
53915KARA ARA20190511132512705/11/19 13:25:31  5-MIN KARA 111925Z 20015G19KT 10SM FEW031 27/24 A2982 120 82 1600 190/15G19 RMK AO2 LTG DSNT NW-NE T02720239
53915KARA ARA20190511133013805/11/19 13:30:31  5-MIN KARA 111930Z 19015G19KT 10SM VCTS FEW031 SCT060 27/24 A2981 120 82 1600 190/15G19 RMK AO2 LTG DSNT NW-E T02720239
53915KARA ARA20190511133514605/11/19 13:35:31  5-MIN KARA 111935Z 19014G20KT 10SM VCTS FEW018 FEW037 SCT060 27/24 A2981 130 82 1600 190/14G20 RMK AO2 LTG DSNT ALQDS T02720239
53915KARA ARA20190511134013905/11/19 13:40:31  5-MIN KARA 111940Z 19012G20KT 10SM VCTS SCT020 BKN060 27/24 A2981 130 84 1600 190/12G20 RMK AO2 LTG DSNT ALQDS T02720244
53915KARA ARA20190511134514005/11/19 13:45:31  5-MIN KARA 111945Z 19012KT 10SM VCTS FEW018 SCT022 BKN033 27/24 A2981 130 84 1600 190/12 RMK AO2 LTG DSNT ALQDS T02720244
53915KARA ARA20190511135014705/11/19 13:50:31  5-MIN KARA 111950Z 18011KT 10SM VCTS SCT018 BKN034 BKN060 27/24 A2981 130 84 1600 180/11 RMK AO2 LTG DSNT ALQDS SLP092 T02720244
53915KARA ARA20190511135514505/11/19 13:55:31  5-MIN KARA 111955Z 19014G19KT 10SM VCTS SCT018 BKN034 OVC060 27/24 A2981 130 84 1600 190/14G19 RMK AO2 LTG DSNT W-NE T02720244
53915KARA ARA20190511140014605/11/19 14:00:31  5-MIN KARA 112000Z 19014G20KT 10SM VCTS SCT018 BKN036 OVC044 27/24 A2980 130 84 1600 190/14G20 RMK AO2 LTG DSNT ALQDS T02720244
53915KARA ARA20190511140514005/11/19 14:05:31  5-MIN KARA 112005Z 19013KT 10SM VCTS SCT017 SCT022 OVC042 27/24 A2980 140 87 1600 190/13 RMK AO2 LTG DSNT ALQDS T02670244
53915KARA ARA20190511141014105/11/19 14:10:31  5-MIN KARA 112010Z 18016G21KT 10SM SCT019 SCT032 OVC042 27/24 A2980 140 87 1600 180/16G21 RMK AO2 LTG DSNT ALQDS T02670244
53915KARA ARA20190511141514005/11/19 14:15:31  5-MIN KARA 112015Z 19015G21KT 10SM SCT017 BKN040 OVC055 27/24 A2980 130 87 1600 190/15G21 RMK AO2 LTG DSNT W-NE T02670244
53915KARA ARA20190511142013905/11/19 14:20:31  5-MIN KARA 112020Z 19015G21KT 10SM FEW015 BKN040 OVC055 27/24 A2980 140 87 1600 190/15G21 RMK AO2 LTG DSNT W-N T02670244
53915KARA ARA20190511142513905/11/19 14:25:31  5-MIN KARA 112025Z 19013G21KT 10SM SCT017 BKN042 OVC060 27/24 A2980 140 87 1600 190/13G21 RMK AO2 LTG DSNT W-N T02670244
53915KARA ARA20190511143014005/11/19 14:30:31  5-MIN KARA 112030Z 19015G19KT 10SM SCT015 BKN042 OVC060 27/24 A2980 140 87 1600 190/15G19 RMK AO2 LTG DSNT W-NE T02670244
53915KARA ARA20190511143514005/11/19 14:35:31  5-MIN KARA 112035Z 20014G19KT 10SM SCT015 BKN040 OVC060 27/24 A2981 130 87 1500 200/14G19 RMK AO2 LTG DSNT W-NE T02670244
53915KARA ARA20190511144014005/11/19 14:40:31  5-MIN KARA 112040Z 20015G22KT 10SM FEW015 BKN038 OVC060 27/24 A2981 130 87 1500 200/15G22 RMK AO2 LTG DSNT W-NE T02670244
53915KARA ARA20190511144514005/11/19 14:45:31  5-MIN KARA 112045Z 20013G22KT 10SM SCT015 SCT034 BKN042 27/24 A2981 130 87 1500 190/13G22 RMK AO2 LTG DSNT W-NE T02670244
53915KARA ARA20190511145013505/11/19 14:50:31  5-MIN KARA 112050Z 20016G22KT 10SM VCTS FEW015 SCT034 BKN042 27/24 A2982 120 87 1500 200/16G22 RMK AO2 LTG DSNT W-NE
53915KARA ARA20190511145514505/11/19 14:55:31  5-MIN KARA 112055Z 20012G22KT 10SM VCTS FEW015 BKN032 BKN042 26/24 A2982 120 90 1500 200/12G22 RMK AO2 LTG DSNT W-NE T02610244
53915KARA ARA20190511150014505/11/19 15:00:31  5-MIN KARA 112100Z 21014G20KT 10SM VCTS FEW014 BKN036 OVC043 26/24 A2982 120 90 1500 210/14G20 RMK AO2 LTG DSNT W-NE T02610244
53915KARA ARA20190511150514505/11/19 15:05:31  5-MIN KARA 112105Z 21012G21KT 10SM VCTS SCT016 BKN032 OVC042 26/24 A2983 110 90 1500 210/12G21 RMK AO2 LTG DSNT W-NE T02610244
53915KARA ARA20190511151014005/11/19 15:10:31  5-MIN KARA 112110Z 22010G21KT 10SM SCT013 BKN021 OVC033 26/24 A2983 110 90 1500 220/10G21 RMK AO2 LTG DSNT W-NE T02610244
53915KARA ARA20190511151513905/11/19 15:15:31  5-MIN KARA 112115Z 22010KT 10SM VCTS SCT013 BKN018 OVC033 26/24 A2983 110 90 1500 220/10 RMK AO2 LTG DSNT W-NE T02610244
53915KARA ARA20190511152013905/11/19 15:20:31  5-MIN KARA 112120Z 23010KT 10SM VCTS SCT012 BKN017 OVC033 26/24 A2983 110 90 1500 230/10 RMK AO2 LTG DSNT W-NE T02610244
53915KARA ARA20190511152514505/11/19 15:25:31  5-MIN KARA 112125Z 30012G18KT 10SM VCTS BKN014 BKN019 OVC024 26/24 A2984 100 90 1400 300/12G18 RMK AO2 LTG DSNT W-NE T02610244
53915KARA ARA20190511153013305/11/19 15:30:31  5-MIN KARA 112130Z 34012G18KT 10SM BKN014 OVC021 23/21 A2984 100 87 1100 340/12G18 RMK AO2 LTG DSNT W-NE T02330211
53915KARA ARA20190511153513305/11/19 15:35:31  5-MIN KARA 112135Z 32016G22KT 10SM BKN014 OVC018 23/21 A2984 100 87 1100 320/16G22 RMK AO2 LTG DSNT W-NE T02280206
53915KARA ARA20190511154014905/11/19 15:40:31  5-MIN KARA 112140Z 34012G22KT 10SM VCTS BKN014 OVC018 22/21 A2984 100 90 1000 340/12G22 RMK AO2 WSHFT 2125 LTG DSNT W-NE T02220206
53915KARA ARA20190511154513605/11/19 15:45:31  5-MIN KARA 112145Z 33012KT 10SM VCTS OVC016 22/21 A2984 100 90 1000 330/12 RMK AO2 WSHFT 2125 LTG DSNT W-NE T02220206
53915KARA ARA20190511155015005/11/19 15:50:31  5-MIN KARA 112150Z 35012KT 10SM VCTS BKN016 OVC024 22/21 A2983 110 90 1000 350/12 RMK AO2 WSHFT 2125 LTG DSNT W-NE SLP102 T02220206
53915KARA ARA20190511155514505/11/19 15:55:31  5-MIN KARA 112155Z 34011KT 10SM -RA FEW012 BKN017 OVC029 22/21 A2983 110 90 1000 340/11 RMK AO2 LTG DSNT ALQDS P0000 T02220206
53915KARA ARA20190511160014505/11/19 16:00:31  5-MIN KARA 112200Z 35008KT 10SM -RA FEW012 BKN024 OVC029 22/21 A2983 110 93 1000 350/08 RMK AO2 LTG DSNT ALQDS P0000 T02170206
53915KARA ARA20190511160514505/11/19 16:05:31  5-MIN KARA 112205Z 35007KT 10SM -RA FEW017 BKN024 OVC031 22/21 A2983 110 93 1000 350/07 RMK AO2 LTG DSNT ALQDS P0000 T02170206
53915KARA ARA20190511161014505/11/19 16:10:31  5-MIN KARA 112210Z 02006KT 10SM -RA SCT023 BKN031 OVC043 22/21 A2982 120 93 1000 010/06 RMK AO2 LTG DSNT ALQDS P0001 T02170206
53915KARA ARA20190511161514505/11/19 16:15:31  5-MIN KARA 112215Z 01003KT 10SM +RA BKN024 BKN032 OVC043 22/21 A2982 110 93 1000 010/03 RMK AO2 LTG DSNT ALQDS P0008 T02170206
53915KARA ARA20190511162015505/11/19 16:20:31  5-MIN KARA 112220Z 02004KT 10SM -RA FEW025 BKN032 OVC060 22/21 A2981 130 97 1000 020/04 RMK AO2 LTG DSNT NE AND E AND SW P0009 T02170211
53915KARA ARA20190511162019505/11/19 16:20:31  5-MIN KARA 112220Z 02004KT 10SM -RA FEW025 BKN032 OVC060 22/21 A2981 130 97 1000 020/04 RMK AO2 LTG DSNT NE AND EEW027 BKN065 22/22 97 1000 030/06 RMK AO2 LTG DSNT SW T02220217
53915KARA ARA20190511162515505/11/19 16:25:31  5-MIN KARA 112225Z 02004KT 10SM -RA SCT028 BKN043 BKN060 22/21 A2981 130 97 1000 020/04 RMK AO2 LTG DSNT NE AND E AND SW P0009 T02170211
53915KARA ARA20190511163016005/11/19 16:30:31  5-MIN KARA 112230Z 35003KT 10SM VCTS -RA FEW030 SCT040 BKN060 22/21 A2982 120 97 1000 340/03 RMK AO2 LTG DSNT NE AND E AND SW P0009 T02170211
53915KARA ARA20190511163516205/11/19 16:35:31  5-MIN KARA 112235Z 35003KT 10SM VCTS SCT038 SCT060 BKN070 22/21 A2981 130 97 1000 350/03 RMK AO2 LTG DSNT NE AND E AND SW RAE31 P0009 T02170211
53915KARA ARA20190511164016905/11/19 16:40:31  5-MIN KARA 112240Z 31003KT 10SM VCTS -RA SCT036 BKN070 BKN095 22/21 A2982 120 97 1000 310/03 RMK AO2 LTG DSNT NE AND E AND SW RAE31B37 P0014 T02170211
53915KARA ARA20190511164515605/11/19 16:45:31  5-MIN KARA 112245Z 32004KT 10SM RA SCT038 BKN070 BKN090 22/21 A2982 120 97 1000 320/04 RMK AO2 LTG DSNT E AND SW RAE31B37 P0014 T02170211
53915KARA ARA20190511165016405/11/19 16:50:31  5-MIN KARA 112250Z 35003KT 10SM -RA FEW034 SCT055 BKN080 22/21 A2982 120 97 1000 350/03 RMK AO2 LTG DSNT E AND SW RAE31B37 SLP096 P0014 T02170211
53915KARA ARA20190511165514805/11/19 16:55:31  5-MIN KARA 112255Z 00000KT 10SM -RA FEW039 SCT055 BKN080 22/21 A2982 120 97 1000 000/00 RMK AO2 LTG DSNT E AND SW P0000 T02170211
53915KARA ARA20190511170014805/11/19 17:00:31  5-MIN KARA 112300Z 00000KT 10SM -RA SCT039 SCT060 BKN090 22/21 A2982 120 93 1000 000/00 RMK AO2 LTG DSNT E AND SW P0001 T02220211
53915KARA ARA20190511170514205/11/19 17:05:31  5-MIN KARA 112305Z 00000KT 10SM -RA FEW033 SCT055 BKN110 22/21 A2981 130 90 1000 000/00 RMK AO2 LTG DSNT SW P0001 T02220206
53915KARA ARA20190511171014405/11/19 17:10:31  5-MIN KARA 112310Z 00000KT 10SM FEW035 SCT095 SCT110 22/21 A2981 130 93 1000 000/00 RMK AO2 LTG DSNT SW RAE08 P0001 T02220211
53915KARA ARA20190511171513705/11/19 17:15:31  5-MIN KARA 112315Z 00000KT 10SM FEW040 FEW110 22/21 A2982 120 93 1000 000/00 RMK AO2 LTG DSNT SW RAE08 P0001 T02170206
53915KARA ARA20190511172013505/11/19 17:20:31  5-MIN KARA 112320Z 00000KT 10SM -RA FEW044 FEW110 22/21 A2981 130 90 1000 000/00 RMK AO2 LTG DSNT SW P0001 T02220206
53915KARA ARA20190511172511305/11/19 17:25:31  5-MIN KARA 112325Z 00000KT 10SM -RA CLR 22/21 A2980 140 90 1000 000/00 RMK AO2 P0001 T02220206
53915KARA ARA20190511173011805/11/19 17:30:31  5-MIN KARA 112330Z 09004KT 10SM FEW045 22/21 A2979 140 93 1100 080/04 RMK AO2 RAE28 P0001 T02220211
53915KARA ARA20190511173511605/11/19 17:35:31  5-MIN KARA 112335Z 09003KT 10SM -RA FEW040 22/21 A2980 140 93 1100 090/03 RMK AO2 P0001 T02220211
53915KARA ARA20190511174011605/11/19 17:40:31  5-MIN KARA 112340Z 08003KT 10SM -RA FEW038 22/22 A2980 140 97 1100 080/03 RMK AO2 P0001 T02220217
53915KARA ARA20190511174512505/11/19 17:45:31  5-MIN KARA 112345Z 09003KT 10SM SCT030 SCT040 22/21 A2980 130 93 1000 090/03 RMK AO2 RAE43 P0001 T02220211
53915KARA ARA20190511175016305/11/19 17:50:31  5-MIN KARA 112350Z 08004KT 10SM SCT028 SCT033 BKN040 22/21 A2980 140 93 1100 080/04 RMK AO2 RAE43 SLP090 P0001 60015 T02220211 10283 20217 55008
53915KARA ARA20190511175511305/11/19 17:55:31  5-MIN KARA 112355Z 09004KT 10SM SCT028 SCT040 22/22 A2980 130 97 1000 090/04 RMK AO2 T02220217
53915KARA ARA20190511180011305/11/19 18:00:31  5-MIN KARA 120000Z 07003KT 10SM FEW028 SCT037 22/22 A2981 130 97 1000 070/03 RMK AO2 T02220217
53915KARA ARA20190511180512005/11/19 18:05:31  5-MIN KARA 120005Z 09003KT 10SM SCT028 SCT035 BKN065 22/22 A2981 130 97 1000 090/03 RMK AO2 T02220217
53915KARA ARA20190511181011305/11/19 18:10:31  5-MIN KARA 120010Z 08004KT 10SM SCT028 BKN065 22/21 A2981 120 93 1000 070/04 RMK AO2 T02220211
53915KARA ARA20190511181511305/11/19 18:15:31  5-MIN KARA 120015Z 08003KT 10SM FEW027 BKN065 22/22 A2982 120 97 1000 080/03 RMK AO2 T02220217
53915KARA ARA20190511182011305/11/19 18:20:31  5-MIN KARA 120020Z 00000KT 10SM FEW027 BKN065 22/22 A2982 120 97 1000 000/00 RMK AO2 T02220217
53915KARA ARA20190511182511305/11/19 18:25:31  5-MIN KARA 120025Z 05003KT 10SM FEW027 BKN065 22/21 A2982 120 93 1000 050/03 RMK AO2 T02220211
53915KARA ARA20190511183011305/11/19 18:30:31  5-MIN KARA 120030Z 04004KT 10SM FEW026 BKN065 22/21 A2982 120 93 1000 040/04 RMK AO2 T02220211
53915KARA ARA20190511183511805/11/19 18:35:31  5-MIN KARA 120035Z 05004KT 10SM SCT065 22/22 A2982 120 97 1000 050/04 RMK AO2 LTG DSNT SW T02220217
53915KARA ARA20190511184011805/11/19 18:40:31  5-MIN KARA 120040Z 01004KT 10SM SCT065 22/22 A2982 120 97 1000 010/04 RMK AO2 LTG DSNT SW T02220217
53915KARA ARA20190511184511805/11/19 18:45:31  5-MIN KARA 120045Z 04006KT 10SM FEW070 22/22 A2981 130 97 1000 030/06 RMK AO2 LTG DSNT SW T02220217
53915KARA ARA20190511185011305/11/19 18:50:31  5-MIN KARA 120050Z 02006KT 10SM SCT065 22/22 A2982 120 97 1000 020/06 RMK AO2 SLP097 T02220217
53915KARA ARA20190511185511805/11/19 18:55:31  5-MIN KARA 120055Z 36005KT 10SM SCT065 22/22 A2983 110 97 1000 360/05 RMK AO2 LTG DSNT SW T02220217
53915KARA ARA20190511190012805/11/19 19:00:31  5-MIN KARA 120100Z 02007KT 10SM FEW032 SCT065 22/21 A2983 110 97 1000 020/07 RMK AO2 LTG DSNT SE-SW T02170211
53915KARA ARA20190511190512705/11/19 19:05:31  5-MIN KARA 120105Z 03007KT 10SM SCT030 BKN065 22/21 A2983 110 97 1000 030/07 RMK AO2 LTG DSNT SE-W T02170211
53915KARA ARA20190511191012705/11/19 19:10:31  5-MIN KARA 120110Z 03006KT 10SM BKN030 BKN065 22/21 A2983 110 97 1000 030/06 RMK AO2 LTG DSNT SE-W T02170211
53915KARA ARA20190511191513105/11/19 19:15:31  5-MIN KARA 120115Z 02007KT 10SM FEW005 BKN030 BKN065 22/21 A2983 110 97 1000 020/07 RMK AO2 LTG DSNT W T02170211
53915KARA ARA20190511192012505/11/19 19:20:31  5-MIN KARA 120120Z AUTO 03007KT 10SM FEW005 BKN026 BKN031 22/21 A2982 110 97 1000 020/07 RMK AO2 T02170211
53915KARA ARA20190511192511805/11/19 19:25:31  5-MIN KARA 120125Z AUTO 03007KT 10SM BKN026 BKN031 22/21 A2983 110 97 1000 030/07 RMK AO2 T02170211
53915KARA ARA20190511193011105/11/19 19:30:31  5-MIN KARA 120130Z AUTO 05006KT 10SM OVC028 22/21 A2983 110 97 1000 050/06 RMK AO2 T02170211
53915KARA ARA20190511193511805/11/19 19:35:31  5-MIN KARA 120135Z AUTO 05007KT 10SM BKN025 OVC030 22/21 A2983 110 97 1000 050/07 RMK AO2 T02170211
53915KARA ARA20190511194011805/11/19 19:40:31  5-MIN KARA 120140Z AUTO 06008KT 10SM BKN025 BKN030 22/21 A2982 120 97 1000 060/08 RMK AO2 T02170211
53915KARA ARA20190511194511805/11/19 19:45:31  5-MIN KARA 120145Z AUTO 07006KT 10SM BKN025 OVC030 22/21 A2982 120 97 1000 070/06 RMK AO2 T02170211
53915KARA ARA20190511195011805/11/19 19:50:31  5-MIN KARA 120150Z AUTO 07006KT 10SM OVC023 22/21 A2982 120 97 1000 070/06 RMK AO2 SLP098 T02170211
53915KARA ARA20190511195512305/11/19 19:55:31  5-MIN KARA 120155Z AUTO 07006KT 10SM OVC023 22/21 A2982 120 97 1000 070/06 RMK AO2 LTG DSNT SE T02170211
53915KARA ARA20190511200012905/11/19 20:00:31  5-MIN KARA 120200Z AUTO 06006KT 10SM BKN023 OVC032 21/21 A2982 120 97 900 060/06 RMK AO2 LTG DSNT SE T02110206
53915KARA ARA20190511200512905/11/19 20:05:31  5-MIN KARA 120205Z AUTO 06005KT 10SM BKN023 OVC034 21/21 A2982 120 97 900 060/05 RMK AO2 LTG DSNT SE T02110206
53915KARA ARA20190511201012905/11/19 20:10:31  5-MIN KARA 120210Z AUTO 04004KT 10SM SCT023 BKN034 21/21 A2982 120 97 900 040/04 RMK AO2 LTG DSNT SE T02110206
53915KARA ARA20190511201513505/11/19 20:15:31  5-MIN KARA 120215Z AUTO 06004KT 10SM SCT023 BKN034 21/21 A2983 110 97 900 060/04 RMK AO2 LTG DSNT E AND SE T02110206
53915KARA ARA20190511202013505/11/19 20:20:31  5-MIN KARA 120220Z AUTO 06004KT 10SM BKN023 BKN034 21/21 A2983 110 97 900 060/04 RMK AO2 LTG DSNT E AND SE T02110206
53915KARA ARA20190511202513605/11/19 20:25:31  5-MIN KARA 120225Z AUTO 08004KT 10SM BKN023 BKN034 22/21 A2983 110 93 1000 080/04 RMK AO2 LTG DSNT E AND SE T02170206
53915KARA ARA20190511203013605/11/19 20:30:31  5-MIN KARA 120230Z AUTO 08004KT 10SM BKN024 BKN036 22/21 A2983 110 93 1000 080/04 RMK AO2 LTG DSNT E AND SE T02170206
53915KARA ARA20190511203513505/11/19 20:35:31  5-MIN KARA 120235Z AUTO 06005KT 10SM BKN024 BKN037 21/21 A2982 110 97 900 060/05 RMK AO2 LTG DSNT E AND SE T02110206
53915KARA ARA20190511204012805/11/19 20:40:31  5-MIN KARA 120240Z AUTO 07005KT 10SM OVC024 21/21 A2983 110 97 900 070/05 RMK AO2 LTG DSNT E AND SE T02110206
53915KARA ARA20190511204512805/11/19 20:45:31  5-MIN KARA 120245Z AUTO 09004KT 10SM OVC024 21/21 A2983 110 97 900 090/04 RMK AO2 LTG DSNT E AND SE T02110206
53915KARA ARA20190511205014105/11/19 20:50:31  5-MIN KARA 120250Z AUTO 09004KT 10SM OVC024 21/21 A2983 110 97 900 080/04 RMK AO2 LTG DSNT E AND SE SLP102 T02110206 58009
53915KARA ARA20190511205512805/11/19 20:55:31  5-MIN KARA 120255Z AUTO 09004KT 10SM OVC024 22/21 A2984 100 93 900 090/04 RMK AO2 LTG DSNT E AND SE T02170206
53915KARA ARA20190511210012805/11/19 21:00:31  5-MIN KARA 120300Z AUTO 10004KT 10SM OVC024 21/21 A2984 100 97 900 100/04 RMK AO2 LTG DSNT E AND SE T02110206
53915KARA ARA20190511210512905/11/19 21:05:31  5-MIN KARA 120305Z AUTO 09004KT 10SM OVC024 21/21 A2984 100 100 900 090/04 RMK AO2 LTG DSNT E AND SE T02110211
53915KARA ARA20190511211012105/11/19 21:10:31  5-MIN KARA 120310Z AUTO 09003KT 10SM OVC024 22/21 A2984 100 93 900 080/03 RMK AO2 LTG DSNT E T02170206
53915KARA ARA20190511211512005/11/19 21:15:31  5-MIN KARA 120315Z AUTO 00000KT 10SM OVC024 22/21 A2985 90 93 900 000/00 RMK AO2 LTG DSNT E T02170206
53915KARA ARA20190511212012105/11/19 21:20:31  5-MIN KARA 120320Z AUTO 10003KT 10SM OVC026 22/21 A2984 100 93 900 100/03 RMK AO2 LTG DSNT E T02170206
53915KARA ARA20190511212512105/11/19 21:25:31  5-MIN KARA 120325Z AUTO 10003KT 10SM OVC026 22/21 A2984 100 93 900 100/03 RMK AO2 LTG DSNT E T02170206
53915KARA ARA20190511213012805/11/19 21:30:31  5-MIN KARA 120330Z AUTO 06003KT 10SM BKN026 OVC030 22/21 A2984 100 93 900 060/03 RMK AO2 LTG DSNT E T02170206
53915KARA ARA20190511213511705/11/19 21:35:31  5-MIN KARA 120335Z AUTO 00000KT 10SM BKN026 OVC030 22/21 A2984 100 93 900 000/00 RMK AO2 T02170206
53915KARA ARA20190511214011005/11/19 21:40:31  5-MIN KARA 120340Z AUTO 00000KT 10SM OVC029 22/21 A2984 100 93 900 000/00 RMK AO2 T02170206
53915KARA ARA20190511214511705/11/19 21:45:31  5-MIN KARA 120345Z AUTO 00000KT 10SM BKN029 OVC034 22/21 A2984 100 93 900 000/00 RMK AO2 T02170206
53915KARA ARA20190511215012405/11/19 21:50:31  5-MIN KARA 120350Z AUTO 09003KT 10SM BKN029 OVC038 22/21 A2983 110 93 900 090/03 RMK AO2 SLP102 T02170206
53915KARA ARA20190511215512505/11/19 21:55:31  5-MIN KARA 120355Z AUTO 05003KT 10SM BKN030 BKN038 OVC045 22/21 A2983 110 93 1000 050/03 RMK AO2 T02170206
53915KARA ARA20190511220011705/11/19 22:00:31  5-MIN KARA 120400Z AUTO 02004KT 10SM BKN030 OVC043 22/21 A2983 110 93 900 020/04 RMK AO2 T02170206
53915KARA ARA20190511220012005/11/19 22:00:31  5-MIN KARA 120400Z AUTO 02004KT 10SM BKN030 OVC043 22/21 A2983 110 93 900 020/04 RMK AND NW T02170206
53915KARA ARA20190511220511805/11/19 22:05:31  5-MIN KARA 120405Z AUTO 02003KT 10SM BKN030 OVC041 22/21 A2983 110 93 1000 020/03 RMK AO2 T02170206
53915KARA ARA20190511221012505/11/19 22:10:31  5-MIN KARA 120410Z AUTO 03004KT 10SM BKN030 BKN041 OVC100 22/21 A2983 110 93 1000 030/04 RMK AO2 T02170206
53915KARA ARA20190511221512505/11/19 22:15:31  5-MIN KARA 120415Z AUTO 05004KT 10SM SCT030 BKN043 BKN110 22/21 A2983 110 93 1000 040/04 RMK AO2 T02170206
53915KARA ARA20190511222012505/11/19 22:20:31  5-MIN KARA 120420Z AUTO 07005KT 10SM FEW030 SCT043 OVC100 22/21 A2983 110 93 1000 070/05 RMK AO2 T02170206
53915KARA ARA20190511222512505/11/19 22:25:31  5-MIN KARA 120425Z AUTO 06003KT 10SM FEW028 FEW041 BKN110 22/21 A2983 110 93 1000 060/03 RMK AO2 T02170206
53915KARA ARA20190511223011805/11/19 22:30:31  5-MIN KARA 120430Z AUTO 05004KT 10SM FEW028 BKN110 22/21 A2983 110 93 1000 050/04 RMK AO2 T02170206
53915KARA ARA20190511223511105/11/19 22:35:31  5-MIN KARA 120435Z AUTO 06003KT 10SM BKN100 22/21 A2983 110 93 1000 060/03 RMK AO2 T02170206
53915KARA ARA20190511224012505/11/19 22:40:31  5-MIN KARA 120440Z AUTO 05004KT 10SM FEW026 FEW038 BKN100 22/21 A2983 110 93 1000 050/04 RMK AO2 T02170206
53915KARA ARA20190511224512505/11/19 22:45:31  5-MIN KARA 120445Z AUTO 06003KT 10SM FEW026 SCT036 OVC100 23/21 A2983 110 87 1100 060/03 RMK AO2 T02280206
53915KARA ARA20190511225012505/11/19 22:50:31  5-MIN KARA 120450Z AUTO 06005KT 10SM BKN036 BKN100 22/21 A2983 110 93 1000 060/05 RMK AO2 SLP100 T02170206
53915KARA ARA20190511225512505/11/19 22:55:31  5-MIN KARA 120455Z AUTO 06004KT 10SM FEW026 BKN036 OVC100 22/21 A2983 110 93 1000 060/04 RMK AO2 T02170206
53915KARA ARA20190511230012505/11/19 23:00:31  5-MIN KARA 120500Z AUTO 05003KT 10SM FEW026 BKN034 OVC100 22/21 A2983 110 93 1000 050/03 RMK AO2 T02170206
53915KARA ARA20190511230511805/11/19 23:05:31  5-MIN KARA 120505Z AUTO 06004KT 10SM FEW026 OVC034 22/21 A2983 110 93 1000 060/04 RMK AO2 T02170206
53915KARA ARA20190511231011805/11/19 23:10:31  5-MIN KARA 120510Z AUTO 07003KT 10SM SCT026 OVC034 22/21 A2983 110 93 1000 070/03 RMK AO2 T02170206
53915KARA ARA20190511231511805/11/19 23:15:31  5-MIN KARA 120515Z AUTO 06003KT 10SM BKN026 OVC035 22/21 A2983 110 93 1000 060/03 RMK AO2 T02170206
53915KARA ARA20190511232011805/11/19 23:20:31  5-MIN KARA 120520Z AUTO 06004KT 10SM BKN026 OVC035 22/21 A2983 110 93 1000 060/04 RMK AO2 T02170206
53915KARA ARA20190511232511805/11/19 23:25:31  5-MIN KARA 120525Z AUTO 08003KT 10SM BKN026 OVC035 22/21 A2983 110 93 1000 080/03 RMK AO2 T02170206
53915KARA ARA20190511233011805/11/19 23:30:31  5-MIN KARA 120530Z AUTO 08004KT 10SM BKN026 OVC035 22/21 A2982 120 93 1000 080/04 RMK AO2 T02170206
53915KARA ARA20190511233512905/11/19 23:35:31  5-MIN KARA 120535Z AUTO 08004KT 10SM BKN026 OVC035 22/21 A2982 120 93 1000 080/04 RMK AO2 LTG DSNT W T02170206
53915KARA ARA20190511234012905/11/19 23:40:31  5-MIN KARA 120540Z AUTO 08005KT 10SM BKN026 OVC040 22/21 A2982 120 93 1000 080/05 RMK AO2 LTG DSNT W T02170206
53915KARA ARA20190511234512905/11/19 23:45:31  5-MIN KARA 120545Z AUTO 08004KT 10SM BKN026 OVC040 22/21 A2982 120 93 1000 080/04 RMK AO2 LTG DSNT W T02170206
53915KARA ARA20190511235012605/11/19 23:50:31  5-MIN KARA 120550Z AUTO 10003KT 10SM SCT026 OVC040 22/21 A2982 120 97 1000 090/03 RMK AO2 LTG DSNT W AND NW
53915KARA ARA20190511235514305/11/19 23:55:31  5-MIN KARA 120555Z AUTO 07003KT 10SM FEW026 SCT037 OVC044 22/21 A2981 120 93 1000 070/03 RMK AO2 LTG DSNT W AND NW T02170206
53915KARA ARA20190512000014305/12/19 00:00:31  5-MIN KARA 120600Z AUTO 05004KT 10SM FEW026 SCT037 OVC044 22/21 A2981 130 93 1000 050/04 RMK AO2 LTG DSNT W AND NW T02170206
53915KARA ARA20190512000513605/12/19 00:05:31  5-MIN KARA 120605Z AUTO 05004KT 10SM FEW026 OVC044 22/21 A2981 130 93 1000 050/04 RMK AO2 LTG DSNT W AND NW T02170206
53915KARA ARA20190512000517405/12/19 00:05:31  5-MIN KARA 120605Z AUTO:15:31  5-MIN KARA 120615Z AUTO 03004KT 10SM BKN044 BKN080 OVC095 22/21 A2981 130 93 1000 030/04 RMK AO2 LTG DSNT W AND NW T02170206
53915KARA ARA20190512001014305/12/19 00:10:31  5-MIN KARA 120610Z AUTO 02004KT 10SM FEW038 BKN044 OVC095 22/21 A2981 130 93 1000 010/04 RMK AO2 LTG DSNT W AND NW T02170206
53915KARA ARA20190512001514305/12/19 00:15:31  5-MIN KARA 120615Z AUTO 03004KT 10SM BKN044 BKN080 OVC095 22/21 A2981 130 93 1000 030/04 RMK AO2 LTG DSNT W AND NW T02170206
53915KARA ARA20190512002013805/12/19 00:20:31  5-MIN KARA 120620Z AUTO 07003KT 10SM BKN044 BKN080 OVC095 22/21 A2981 130 93 1000 070/03 RMK AO2 LTG DSNT W-N T02170206
53915KARA ARA20190512002513905/12/19 00:25:31  5-MIN KARA 120625Z AUTO 09003KT 10SM BKN045 BKN080 OVC095 22/21 A2980 130 93 1000 090/03 RMK AO2 LTG DSNT W-NE T02170206
53915KARA ARA20190512003013905/12/19 00:30:31  5-MIN KARA 120630Z AUTO 07003KT 10SM SCT045 BKN070 OVC090 22/21 A2981 130 93 1000 070/03 RMK AO2 LTG DSNT W-NE T02170206
53915KARA ARA20190512003515505/12/19 00:35:31  5-MIN KARA 120635Z AUTO 06003KT 10SM -RA SCT045 BKN070 OVC090 22/21 A2981 130 93 1000 060/03 RMK AO2 LTG DSNT W-NE RAB35 P0000 T02170206
53915KARA ARA20190512004015405/12/19 00:40:31  5-MIN KARA 120640Z AUTO 06003KT 10SM RA FEW034 BKN070 OVC085 22/21 A2980 140 93 1000 060/03 RMK AO2 LTG DSNT W-NE RAB35 P0002 T02170206
53915KARA ARA20190512004515605/12/19 00:45:31  5-MIN KARA 120645Z AUTO 08003KT 10SM -RA FEW034 BKN044 OVC085 22/21 A2980 140 97 1000 080/03 RMK AO2 LTG DSNT ALQDS RAB35 P0002 T02170211
53915KARA ARA20190512005016305/12/19 00:50:31  5-MIN KARA 120650Z AUTO 00000KT 10SM -RA FEW033 BKN044 OVC085 22/21 A2980 130 97 1000 000/00 RMK AO2 LTG DSNT ALQDS RAB35 SLP091 P0002 T02170211
53915KARA ARA20190512005514005/12/19 00:55:31  5-MIN KARA 120655Z AUTO 00000KT 10SM SCT036 BKN044 OVC085 22/21 A2980 140 97 1000 000/00 RMK AO2 LTG DSNT ALQDS T02170211
53915KARA ARA20190512010014505/12/19 01:00:31  5-MIN KARA 120700Z AUTO 10003KT 10SM VCTS SCT036 BKN044 OVC065 21/21 A2980 140 100 900 100/03 RMK AO2 LTG DSNT ALQDS T02110211
53915KARA ARA20190512010514505/12/19 01:05:31  5-MIN KARA 120705Z AUTO 00000KT 10SM VCTS FEW036 SCT044 OVC060 22/21 A2979 150 97 1000 000/00 RMK AO2 LTG DSNT ALQDS T02170211
53915KARA ARA20190512011014505/12/19 01:10:31  5-MIN KARA 120710Z AUTO 06003KT 10SM VCTS FEW036 SCT044 OVC060 22/21 A2979 150 97 1000 060/03 RMK AO2 LTG DSNT ALQDS T02170211
53915KARA ARA20190512011514505/12/19 01:15:31  5-MIN KARA 120715Z AUTO 00000KT 10SM VCTS FEW038 SCT044 OVC060 22/21 A2979 150 97 1000 000/00 RMK AO2 LTG DSNT ALQDS T02170211
53915KARA ARA20190512012014505/12/19 01:20:31  5-MIN KARA 120720Z AUTO 00000KT 10SM VCTS FEW038 BKN060 OVC080 22/21 A2979 150 97 1000 000/00 RMK AO2 LTG DSNT ALQDS T02170211
53915KARA ARA20190512012514005/12/19 01:25:31  5-MIN KARA 120725Z AUTO 00000KT 10SM BKN060 BKN080 OVC095 22/21 A2979 150 97 1000 000/00 RMK AO2 LTG DSNT ALQDS T02170211
53915KARA ARA20190512013014005/12/19 01:30:31  5-MIN KARA 120730Z AUTO 00000KT 10SM BKN060 BKN080 OVC095 22/21 A2979 140 97 1000 000/00 RMK AO2 LTG DSNT ALQDS T02170211
53915KARA ARA20190512013513805/12/19 01:35:31  5-MIN KARA 120735Z AUTO 36003KT 10SM VCTS BKN065 OVC080 22/21 A2979 140 97 1000 360/03 RMK AO2 LTG DSNT ALQDS T02170211
53915KARA ARA20190512014013705/12/19 01:40:31  5-MIN KARA 120740Z AUTO 36003KT 10SM VCTS BKN065 OVC080 22/21 A2979 150 97 1000 360/03 RMK AO2 LTG DSNT NW-E T02170211
53915KARA ARA20190512014514305/12/19 01:45:31  5-MIN KARA 120745Z AUTO 01003KT 10SM VCTS BKN065 BKN080 OVC095 22/21 A2978 150 97 1000 010/03 RMK AO2 LTG DSNT N-E T02170211
53915KARA ARA20190512015015005/12/19 01:50:31  5-MIN KARA 120750Z AUTO 00000KT 10SM VCTS BKN065 BKN080 OVC095 22/21 A2978 150 97 1000 000/00 RMK AO2 LTG DSNT N-E SLP084 T02170211
53915KARA ARA20190512015514105/12/19 01:55:31  5-MIN KARA 120755Z AUTO 00000KT 10SM VCTS BKN065 OVC080 22/21 A2978 160 97 1000 000/00 RMK AO2 LTG DSNT NE AND E T02170211
53915KARA ARA20190512020013605/12/19 02:00:31  5-MIN KARA 120800Z AUTO 00000KT 10SM SCT065 BKN075 22/21 A2978 150 97 1000 000/00 RMK AO2 LTG DSNT NE AND E T02170211
53915KARA ARA20190512020513605/12/19 02:05:31  5-MIN KARA 120805Z AUTO 00000KT 10SM BKN060 OVC075 22/21 A2978 160 97 1000 000/00 RMK AO2 LTG DSNT NE AND E T02170211
53915KARA ARA20190512021012905/12/19 02:10:31  5-MIN KARA 120810Z AUTO 00000KT 10SM SCT060 BKN075 21/21 A2978 160 100 900 000/00 RMK AO2 LTG DSNT E T02110211
53915KARA ARA20190512021512905/12/19 02:15:31  5-MIN KARA 120815Z AUTO 00000KT 10SM FEW060 BKN075 21/21 A2978 160 100 900 000/00 RMK AO2 LTG DSNT E T02110211
53915KARA ARA20190512022013605/12/19 02:20:31  5-MIN KARA 120820Z AUTO 00000KT 10SM FEW060 BKN080 21/21 A2978 160 100 1000 000/00 RMK AO2 LTG DSNT E AND S T02110211
53915KARA ARA20190512022513605/12/19 02:25:31  5-MIN KARA 120825Z AUTO 00000KT 10SM FEW060 OVC080 22/21 A2977 160 97 1000 000/00 RMK AO2 LTG DSNT SE AND S T02170211
53915KARA ARA20190512023013605/12/19 02:30:31  5-MIN KARA 120830Z AUTO 00000KT 10SM FEW060 OVC075 22/21 A2977 160 97 1000 000/00 RMK AO2 LTG DSNT SE AND S T02170211
53915KARA ARA20190512023513705/12/19 02:35:31  5-MIN KARA 120835Z AUTO 33004KT 10SM FEW060 OVC075 21/21 A2977 170 100 1000 330/04 RMK AO2 LTG DSNT SE AND S T02110211
53915KARA ARA20190512024014305/12/19 02:40:31  5-MIN KARA 120840Z AUTO 34005KT 10SM FEW060 OVC075 22/21 A2976 180 97 1000 340/05 RMK AO2 LTG DSNT E AND SE PRESFR T02170211
53915KARA ARA20190512024513005/12/19 02:45:31  5-MIN KARA 120845Z AUTO 32005KT 10SM OVC070 21/21 A2976 180 100 1000 320/05 RMK AO2 LTG DSNT E AND SE T02110211
53915KARA ARA20190512025014405/12/19 02:50:31  5-MIN KARA 120850Z AUTO 33003KT 10SM BKN070 21/21 A2975 180 100 1000 330/03 RMK AO2 LTG DSNT E-S SLP075 60002 T02110211 58007
53915KARA ARA20190512025513205/12/19 02:55:31  5-MIN KARA 120855Z AUTO 34003KT 10SM SCT070 BKN090 21/21 A2975 180 100 1000 340/03 RMK AO2 LTG DSNT E-S T02110211
53915KARA ARA20190512030013705/12/19 03:00:31  5-MIN KARA 120900Z AUTO 34003KT 10SM SCT070 BKN085 21/21 A2975 180 100 1000 340/03 RMK AO2 LTG DSNT SE AND S T02110211
53915KARA ARA20190512030513105/12/19 03:05:31  5-MIN KARA 120905Z AUTO 33003KT 10SM FEW070 BKN085 21/21 A2976 180 100 1000 320/03 RMK AO2 LTG DSNT SE T02110211
53915KARA ARA20190512031013105/12/19 03:10:31  5-MIN KARA 120910Z AUTO 34003KT 10SM FEW070 BKN090 21/21 A2976 170 100 1000 340/03 RMK AO2 LTG DSNT SE T02110211
53915KARA ARA20190512031511205/12/19 03:15:31  5-MIN KARA 120915Z AUTO 34004KT 10SM BKN090 21/21 A2976 170 100 1000 340/04 RMK AO2 T02110211
53915KARA ARA20190512032011105/12/19 03:20:31  5-MIN KARA 120920Z AUTO 00000KT 10SM SCT090 21/21 A2977 170 97 1000 000/00 RMK AO2 T02110206
53915KARA ARA20190512032511105/12/19 03:25:31  5-MIN KARA 120925Z AUTO 00000KT 10SM SCT090 21/21 A2977 170 97 1000 000/00 RMK AO2 T02110206
53915KARA ARA20190512033011105/12/19 03:30:31  5-MIN KARA 120930Z AUTO 00000KT 10SM FEW090 21/21 A2977 170 97 1000 000/00 RMK AO2 T02110206
53915KARA ARA20190512033511105/12/19 03:35:31  5-MIN KARA 120935Z AUTO 04003KT 10SM FEW095 21/21 A2977 170 100 900 040/03 RMK AO2 T02060206
53915KARA ARA20190512034011105/12/19 03:40:31  5-MIN KARA 120940Z AUTO 04003KT 10SM FEW075 21/21 A2977 170 100 900 040/03 RMK AO2 T02060206
53915KARA ARA20190512034511105/12/19 03:45:31  5-MIN KARA 120945Z AUTO 05003KT 10SM SCT075 21/21 A2977 170 100 900 050/03 RMK AO2 T02060206
53915KARA ARA20190512035011805/12/19 03:50:31  5-MIN KARA 120950Z AUTO 00000KT 10SM SCT075 21/21 A2977 160 100 900 000/00 RMK AO2 SLP081 T02060206
53915KARA ARA20190512035511805/12/19 03:55:31  5-MIN KARA 120955Z AUTO 00000KT 10SM FEW005 SCT075 21/21 A2978 160 100 900 000/00 RMK AO2 T02060206
53915KARA ARA20190512040011805/12/19 04:00:31  5-MIN KARA 121000Z AUTO 00000KT 10SM SCT005 BKN075 21/21 A2978 160 100 900 000/00 RMK AO2 T02060206
53915KARA ARA20190512040511805/12/19 04:05:31  5-MIN KARA 121005Z AUTO 00000KT 10SM SCT005 BKN075 21/21 A2978 160 100 900 000/00 RMK AO2 T02060206
53915KARA ARA20190512041012505/12/19 04:10:31  5-MIN KARA 121010Z AUTO 00000KT 10SM FEW006 SCT035 BKN075 21/21 A2978 160 100 900 000/00 RMK AO2 T02060206
53915KARA ARA20190512041511805/12/19 04:15:31  5-MIN KARA 121015Z AUTO 14003KT 10SM FEW006 BKN035 21/21 A2977 160 100 900 140/03 RMK AO2 T02060206
53915KARA ARA20190512042011705/12/19 04:20:31  5-MIN KARA 121020Z AUTO 12003KT 10SM FEW006 BKN035 21/20 A2977 160 97 900 120/03 RMK AO2 T02060200
53915KARA ARA20190512042511705/12/19 04:25:31  5-MIN KARA 121025Z AUTO 00000KT 10SM FEW006 BKN035 21/20 A2977 160 97 900 000/00 RMK AO2 T02060200
53915KARA ARA20190512043011005/12/19 04:30:31  5-MIN KARA 121030Z AUTO 00000KT 10SM BKN035 21/20 A2977 160 97 900 000/00 RMK AO2 T02060200
53915KARA ARA20190512043511105/12/19 04:35:31  5-MIN KARA 121035Z AUTO 00000KT 10SM BKN035 21/21 A2977 160 100 900 000/00 RMK AO2 T02060206
53915KARA ARA20190512044010505/12/19 04:40:31  5-MIN KARA 121040Z 12004KT 10SM SCT035 21/20 A2976 170 97 900 120/04 RMK AO2 T02060200
53915KARA ARA20190512044510605/12/19 04:45:31  5-MIN KARA 121045Z 00000KT 10SM FEW035 20/20 A2976 170 100 800 000/00 RMK AO2 T02000200
53915KARA ARA20190512045011305/12/19 04:50:31  5-MIN KARA 121050Z 00000KT 10SM FEW035 20/20 A2977 170 100 800 000/00 RMK AO2 SLP080 T02000200
53915KARA ARA20190512045510305/12/19 04:55:31  5-MIN KARA 121055Z 00000KT 10SM CLR 20/20 A2977 170 100 800 000/00 RMK AO2 T02000200
53915KARA ARA20190512050010305/12/19 05:00:31  5-MIN KARA 121100Z 00000KT 10SM CLR 20/20 A2978 160 100 800 000/00 RMK AO2 T02000200
53915KARA ARA20190512050510305/12/19 05:05:31  5-MIN KARA 121105Z 00000KT 10SM CLR 20/20 A2978 160 100 800 000/00 RMK AO2 T02000200
53915KARA ARA20190512051010605/12/19 05:10:31  5-MIN KARA 121110Z 31005KT 10SM FEW035 20/20 A2979 150 100 800 310/05 RMK AO2 T02000200
53915KARA ARA20190512051512005/12/19 05:15:31  5-MIN KARA 121115Z 31005KT 10SM FEW005 SCT035 21/21 A2979 140 100 900 310/05 RMK AO2 PRESRR T02060206
53915KARA ARA20190512052011305/12/19 05:20:31  5-MIN KARA 121120Z 31006KT 10SM SCT005 BKN035 21/21 A2980 140 100 900 310/06 RMK AO2 T02060206
53915KARA ARA20190512052512005/12/19 05:25:31  5-MIN KARA 121125Z 32007KT 10SM BKN004 BKN035 21/21 A2981 130 100 900 320/07 RMK AO2 PRESRR T02060206
53915KARA ARA20190512053012505/12/19 05:30:31  5-MIN KARA 121130Z 32007KT 10SM BKN006 BKN035 21/21 A2981 130 100 800 320/07 RMK AO2 CIG 004V008 T02060206
53915KARA ARA20190512053512505/12/19 05:35:31  5-MIN KARA 121135Z 33007KT 10SM BKN006 OVC035 21/21 A2981 130 100 800 330/07 RMK AO2 CIG 003V008 T02060206
53915KARA ARA20190512054012005/12/19 05:40:31  5-MIN KARA 121140Z 33009KT 10SM BKN004 BKN008 OVC036 21/21 A2981 130 100 800 330/09 RMK AO2 T02060206
53915KARA ARA20190512054512005/12/19 05:45:31  5-MIN KARA 121145Z 34008KT 10SM BKN004 BKN008 OVC042 21/21 A2981 130 100 800 340/08 RMK AO2 T02060206
53915KARA ARA20190512055011505/12/19 05:50:31  5-MIN KARA 121150Z 34007KT 10SM BKN006 OVC042 21/21 A2981 120 100 800 340/07 RMK AO2 CIG 003V010
53915KARA ARA20190512055512005/12/19 05:55:31  5-MIN KARA 121155Z 34007KT 10SM FEW004 SCT008 OVC042 21/21 A2982 120 100 800 340/07 RMK AO2 T02060206
53915KARA ARA20190512060011305/12/19 06:00:31  5-MIN KARA 121200Z 34007KT 10SM FEW004 OVC042 21/21 A2982 120 100 800 340/07 RMK AO2 T02060206
53915KARA ARA20190512060511305/12/19 06:05:31  5-MIN KARA 121205Z 35008KT 10SM FEW004 OVC042 21/21 A2982 120 100 800 340/08 RMK AO2 T02060206
53915KARA ARA20190512061010605/12/19 06:10:31  5-MIN KARA 121210Z 35006KT 10SM OVC042 21/21 A2982 120 100 800 350/06 RMK AO2 T02060206
53915KARA ARA20190512061510605/12/19 06:15:31  5-MIN KARA 121215Z 35006KT 10SM OVC042 21/21 A2983 110 100 800 350/06 RMK AO2 T02060206
53915KARA ARA20190512062011305/12/19 06:20:31  5-MIN KARA 121220Z 35005KT 10SM FEW005 OVC042 21/21 A2983 110 100 800 350/05 RMK AO2 T02060206
53915KARA ARA20190512062511305/12/19 06:25:31  5-MIN KARA 121225Z 35005KT 10SM SCT005 OVC042 21/21 A2983 110 100 800 350/05 RMK AO2 T02060206
53915KARA ARA20190512063011305/12/19 06:30:31  5-MIN KARA 121230Z 35006KT 10SM BKN005 OVC042 21/21 A2983 110 100 800 350/06 RMK AO2 T02060206
53915KARA ARA20190512063511305/12/19 06:35:31  5-MIN KARA 121235Z 36007KT 10SM BKN006 OVC042 21/21 A2983 110 100 800 360/07 RMK AO2 T02060206
53915KARA ARA20190512064012905/12/19 06:40:31  5-MIN KARA 121240Z 35007KT 10SM -RA BKN006 OVC042 21/21 A2983 110 100 800 350/07 RMK AO2 RAB39 P0000 T02060206
53915KARA ARA20190512064512805/12/19 06:45:31  5-MIN KARA 121245Z 35006KT 10SM -RA BKN006 OVC042 21/21 A2983 110 97 900 350/06 RMK AO2 RAB39 P0000 T02110206
53915KARA ARA20190512065012805/12/19 06:50:31  5-MIN KARA 121250Z 36005KT 10SM -RA OVC006 21/21 A2983 110 97 900 360/05 RMK AO2 RAB39 SLP101 P0000 T02110206
53915KARA ARA20190512065511505/12/19 06:55:31  5-MIN KARA 121255Z 36007KT 10SM -RA OVC006 21/21 A2983 110 97 900 360/07 RMK AO2 P0000 T02110206
53915KARA ARA20190512070010305/12/19 07:00:31  5-MIN KARA 121300Z 90 90 1100 020/08 RMK AO2 T02280211 1100 350/07 RMK AO2 T02330206
53915KARA ARA20190512092511205/12/19 09:25:31  5-MIN KARA 121525Z 35007KT 10SM BKN014 OVC019 23/21 A2986 80 84 1100 350/07 RMK AO2 T02330206
53915KARA ARA20190512093011205/12/19 09:30:31  5-MIN KARA 121530Z 01008KT 10SM BKN014 OVC019 23/21 A2986 80 84 1100 010/08 RMK AO2 T02330206
53915KARA ARA20190512093511205/12/19 09:35:31  5-MIN KARA 121535Z 01010KT 10SM BKN014 OVC019 23/21 A2987 80 87 1100 010/10 RMK AO2 T02330211
53915KARA ARA20190512094011205/12/19 09:40:31  5-MIN KARA 121540Z 35006KT 10SM BKN014 OVC019 23/21 A2987 80 87 1100 350/06 RMK AO2 T02330211
53915KARA ARA20190512094511205/12/19 09:45:31  5-MIN KARA 121545Z 34008KT 10SM BKN015 OVC019 23/21 A2987 70 87 1100 340/08 RMK AO2 T02330211
53915KARA ARA20190512095012605/12/19 09:50:31  5-MIN KARA 121550Z 33007KT 10SM SCT013 BKN019 OVC025 23/21 A2987 70 84 1100 330/07 RMK AO2 SLP114 T02330206
53915KARA ARA20190512095511205/12/19 09:55:31  5-MIN KARA 121555Z 34007KT 10SM SCT013 OVC019 23/21 A2987 70 84 1100 340/07 RMK AO2 T02330206
53915KARA ARA20190512100011905/12/19 10:00:31  5-MIN KARA 121600Z 35007KT 10SM FEW011 BKN019 OVC025 23/21 A2987 70 84 1100 350/07 RMK AO2 T02330206
53915KARA ARA20190512100511905/12/19 10:05:31  5-MIN KARA 121605Z 36007KT 10SM FEW011 BKN019 OVC028 24/21 A2987 70 81 1200 360/07 RMK AO2 T02390206
53915KARA ARA20190512101011905/12/19 10:10:31  5-MIN KARA 121610Z 34008KT 10SM FEW013 BKN028 OVC034 24/21 A2987 70 78 1200 340/08 RMK AO2 T02440206
53915KARA ARA20190512101511905/12/19 10:15:31  5-MIN KARA 121615Z 36008KT 10SM FEW013 SCT020 BKN028 24/21 A2987 70 81 1200 350/08 RMK AO2 T02440211
53915KARA ARA20190512102011905/12/19 10:20:31  5-MIN KARA 121620Z 34007KT 10SM FEW014 SCT020 BKN030 24/21 A2987 70 78 1200 340/07 RMK AO2 T02440206
53915KARA ARA20190512102511205/12/19 10:25:31  5-MIN KARA 121625Z 35008KT 10SM FEW014 BKN030 24/21 A2987 70 81 1200 350/08 RMK AO2 T02440211
53915KARA ARA20190512103011205/12/19 10:30:31  5-MIN KARA 121630Z 36008KT 10SM SCT014 BKN030 24/21 A2987 70 81 1200 360/08 RMK AO2 T02390206
53915KARA ARA20190512103511205/12/19 10:35:31  5-MIN KARA 121635Z 36008KT 10SM SCT015 BKN030 24/21 A2987 70 78 1200 360/08 RMK AO2 T02440206
53915KARA ARA20190512104011205/12/19 10:40:31  5-MIN KARA 121640Z 36010KT 10SM SCT015 BKN029 24/21 A2987 70 81 1200 360/10 RMK AO2 T02390206
53915KARA ARA20190512104511905/12/19 10:45:31  5-MIN KARA 121645Z 02008KT 10SM SCT015 SCT019 BKN029 24/21 A2987 70 81 1200 020/08 RMK AO2 T02390206
53915KARA ARA20190512105012605/12/19 10:50:31  5-MIN KARA 121650Z 02008KT 10SM SCT015 SCT019 BKN026 25/21 A2987 70 79 1300 020/08 RMK AO2 SLP115 T02500211
53915KARA ARA20190512105511905/12/19 10:55:31  5-MIN KARA 121655Z 02007KT 10SM SCT014 SCT019 BKN028 24/21 A2987 70 78 1200 020/07 RMK AO2 T02440206
53915KARA ARA20190512110011205/12/19 11:00:31  5-MIN KARA 121700Z 01008KT 10SM SCT016 BKN026 25/21 A2987 70 76 1300 010/08 RMK AO2 T02500206
53915KARA ARA20190512110511905/12/19 11:05:31  5-MIN KARA 121705Z VRB05KT 10SM SCT015 SCT020 BKN026 25/21 A2986 80 76 1300 VRB/05 RMK AO2 T02500206
53915KARA ARA20190512111011905/12/19 11:10:31  5-MIN KARA 121710Z 01006KT 10SM SCT017 BKN021 BKN027 25/21 A2986 80 76 1300 010/06 RMK AO2 T02500206
53915KARA ARA20190512111510505/12/19 11:15:31  5-MIN KARA 121715Z 02006KT 10SM BKN017 24/21 A2986 80 78 1200 020/06 RMK AO2 T02440206
53915KARA ARA20190512112010505/12/19 11:20:31  5-MIN KARA 121720Z VRB06KT 10SM SCT017 25/21 A2986 80 76 1300 VRB/06 RMK AO2 T02500206
53915KARA ARA20190512112510505/12/19 11:25:31  5-MIN KARA 121725Z 04009KT 10SM SCT017 26/21 A2986 80 73 1400 040/09 RMK AO2 T02560206
53915KARA ARA20190512113010505/12/19 11:30:31  5-MIN KARA 121730Z VRB05KT 10SM BKN017 25/21 A2986 80 76 1300 VRB/05 RMK AO2 T02500206
53915KARA ARA20190512113510505/12/19 11:35:31  5-MIN KARA 121735Z 06006KT 10SM BKN017 26/21 A2986 80 73 1400 060/06 RMK AO2 T02560206
53915KARA ARA20190512114010505/12/19 11:40:31  5-MIN KARA 121740Z VRB03KT 10SM SCT017 26/21 A2986 80 73 1400 VRB/03 RMK AO2 T02560206
53915KARA ARA20190512114512105/12/19 11:45:31  5-MIN KARA 121745Z 03007KT 020V080 10SM FEW017 26/21 A2986 80 73 1400 030/07 020V080 RMK AO2 T02560206
53915KARA ARA20190512115013605/12/19 11:50:31  5-MIN KARA 121750Z 02004KT 10SM FEW017 26/21 A2985 90 73 1400 020/04 RMK AO2 SLP109 60000 T02560206 10256 20206 51010
53915KARA ARA20190512115510505/12/19 11:55:31  5-MIN KARA 121755Z 04006KT 10SM SCT019 26/21 A2985 90 73 1400 040/06 RMK AO2 T02560206
53915KARA ARA20190512120009505/12/19 12:00:31  5-MIN KARA 121800Z 10SM FEW019 26/21 A2985 90 73 1400 M /M RMK AO2 T02560206
53915KARA ARA20190512120510205/12/19 12:05:31  5-MIN KARA 121805Z 10SM FEW021 SCT026 26/21 A2985 90 73 1400 M /M RMK AO2 T02560206
53915KARA ARA20190512121010205/12/19 12:10:31  5-MIN KARA 121810Z 10SM SCT021 BKN026 26/20 A2985 90 71 1400 M /M RMK AO2 T02560200
53915KARA ARA20190512121509505/12/19 12:15:31  5-MIN KARA 121815Z 10SM BKN023 26/21 A2985 90 73 1400 M /M RMK AO2 T02560206
53915KARA ARA20190512122010605/12/19 12:20:31  5-MIN KARA 121820Z VRB04KT 10SM BKN023 26/21 A2984 100 71 1400 VRB/04 RMK AO2 T02610206
53915KARA ARA20190512122510605/12/19 12:25:31  5-MIN KARA 121825Z VRB06KT 10SM BKN023 26/21 A2984 100 73 1400 VRB/06 RMK AO2 T02560206
53915KARA ARA20190512123010605/12/19 12:30:31  5-MIN KARA 121830Z 00000KT 10SM OVC023 26/20 A2984 100 71 1400 000/00 RMK AO2 T02560200
53915KARA ARA20190512123511305/12/19 12:35:31  5-MIN KARA 121835Z 08004KT 10SM BKN022 OVC027 26/20 A2984 100 71 1400 070/04 RMK AO2 T02560200
53915KARA ARA20190512124010605/12/19 12:40:31  5-MIN KARA 121840Z 00000KT 10SM OVC024 26/20 A2984 100 71 1400 000/00 RMK AO2 T02560200
53915KARA ARA20190512124510605/12/19 12:45:31  5-MIN KARA 121845Z 00000KT 10SM OVC024 26/20 A2984 100 71 1400 000/00 RMK AO2 T02560200
53915KARA ARA20190512125012005/12/19 12:50:31  5-MIN KARA 121850Z 02006KT 10SM BKN024 OVC035 26/21 A2984 100 73 1400 020/06 RMK AO2 SLP104 T02560206
53915KARA ARA20190512125512005/12/19 12:55:31  5-MIN KARA 121855Z 00000KT 10SM BKN024 BKN029 OVC045 26/21 A2984 100 73 1400 000/00 RMK AO2 T02560206
53915KARA ARA20190512130011305/12/19 13:00:31  5-MIN KARA 121900Z 00000KT 10SM BKN024 OVC045 26/21 A2983 110 71 1500 000/00 RMK AO2 T02610206
53915KARA ARA20190512130512005/12/19 13:05:31  5-MIN KARA 121905Z 02007KT 10SM BKN024 BKN029 OVC045 27/21 A2983 110 71 1500 020/07 RMK AO2 T02670211
53915KARA ARA20190512131012005/12/19 13:10:31  5-MIN KARA 121910Z 01006KT 10SM SCT024 SCT029 BKN045 27/21 A2983 110 71 1500 010/06 RMK AO2 T02670211
53915KARA ARA20190512131512005/12/19 13:15:31  5-MIN KARA 121915Z 34006KT 10SM SCT022 SCT029 BKN045 27/21 A2983 110 71 1500 340/06 RMK AO2 T02670211
53915KARA ARA20190512132012005/12/19 13:20:31  5-MIN KARA 121920Z 02006KT 10SM SCT022 SCT029 BKN043 27/21 A2983 110 69 1500 020/06 RMK AO2 T02670206
53915KARA ARA20190513102510105/13/19 10:25:31  5-MIN KARA 131625Z 05012KT 10SM CLR 25/16 A2996 0 55 1200 040/12 RMK AO2 T02500156
53915KARA ARA20190513103010105/13/19 10:30:31  5-MIN KARA 131630Z 04010KT 10SM CLR 25/16 A2996 0 55 1200 040/10 RMK AO2 T02500156
53915KARA ARA20190513103510105/13/19 10:35:31  5-MIN KARA 131635Z 05009KT 10SM CLR 25/16 A2996 0 55 1200 050/09 RMK AO2 T02500156
53915KARA ARA20190513104010105/13/19 10:40:31  5-MIN KARA 131640Z 04012KT 10SM CLR 26/16 A2996 0 53 1300 040/12 RMK AO2 T02560156
53915KARA ARA20190513104510105/13/19 10:45:31  5-MIN KARA 131645Z 03010KT 10SM CLR 26/16 A2996 0 55 1300 030/10 RMK AO2 T02560161
53915KARA ARA20190513105010805/13/19 10:50:31  5-MIN KARA 131650Z 03009KT 10SM CLR 26/16 A2996 0 55 1300 030/09 RMK AO2 SLP143 T02560161
53915KARA ARA20190513105510105/13/19 10:55:31  5-MIN KARA 131655Z 03013KT 10SM CLR 26/16 A2995 0 55 1300 030/13 RMK AO2 T02560161
53915KARA ARA20190513110010105/13/19 11:00:31  5-MIN KARA 131700Z 04009KT 10SM CLR 26/16 A2995 0 53 1300 040/09 RMK AO2 T02610161
53915KARA ARA20190513110510105/13/19 11:05:31  5-MIN KARA 131705Z 03009KT 10SM CLR 26/16 A2995 0 55 1300 030/09 RMK AO2 T02560161
53915KARA ARA20190513111010105/13/19 11:10:31  5-MIN KARA 131710Z 05011KT 10SM CLR 27/16 A2995 0 52 1400 050/11 RMK AO2 T02670161
53915KARA ARA20190513111511705/13/19 11:15:31  5-MIN KARA 131715Z 04010KT 010V080 10SM CLR 26/15 A2995 0 50 1300 040/10 010V080 RMK AO2 T02610150
53915KARA ARA20190513112010705/13/19 11:20:31  5-MIN KARA 131720Z 03011G18KT 10SM CLR 26/16 A2995 0 51 1300 030/11G18 RMK AO2 T02610156
53915KARA ARA20190513112510705/13/19 11:25:31  5-MIN KARA 131725Z 04009G18KT 10SM CLR 26/15 A2995 0 50 1300 040/09G18 RMK AO2 T02610150
53915KARA ARA20190513113010105/13/19 11:30:31  5-MIN KARA 131730Z 04012KT 10SM CLR 27/15 A2995 0 48 1400 040/12 RMK AO2 T02670150
53915KARA ARA20190513113510105/13/19 11:35:31  5-MIN KARA 131735Z 03011KT 10SM CLR 27/15 A2995 0 48 1400 030/11 RMK AO2 T02670150
53915KARA ARA20190513114010105/13/19 11:40:31  5-MIN KARA 131740Z 04012KT 10SM CLR 27/15 A2995 0 48 1400 040/12 RMK AO2 T02670150
53915KARA ARA20190513114510105/13/19 11:45:31  5-MIN KARA 131745Z 04011KT 10SM CLR 27/15 A2995 0 48 1400 040/11 RMK AO2 T02670150
53915KARA ARA20190513115012705/13/19 11:50:31  5-MIN KARA 131750Z 03012KT 10SM CLR 26/15 A2994 10 50 1300 030/12 RMK AO2 SLP138 T02610150 10267 20178 51006
53915KARA ARA20190513115510205/13/19 11:55:31  5-MIN KARA 131755Z 03012KT 10SM CLR 27/16 A2994 10 50 1400 030/12 RMK AO2 T02670156
53915KARA ARA20190513120010205/13/19 12:00:31  5-MIN KARA 131800Z 06008KT 10SM CLR 26/15 A2994 10 50 1300 060/08 RMK AO2 T02610150
53915KARA ARA20190513120510105/13/19 12:05:31  5-MIN KARA 131805Z 03010KT 10SM CLR 27/16 A2994 0 50 1400 030/10 RMK AO2 T02670156
53915KARA ARA20190513121010105/13/19 12:10:31  5-MIN KARA 131810Z 07010KT 10SM CLR 27/15 A2995 0 48 1400 070/10 RMK AO2 T02670150
53915KARA ARA20190513121510105/13/19 12:15:31  5-MIN KARA 131815Z 04008KT 10SM CLR 27/15 A2995 0 48 1400 040/08 RMK AO2 T02670150
53915KARA ARA20190513122010105/13/19 12:20:31  5-MIN KARA 131820Z 07005KT 10SM CLR 27/15 A2995 0 48 1400 070/05 RMK AO2 T02670150
53915KARA ARA20190513122510105/13/19 12:25:31  5-MIN KARA 131825Z 06008KT 10SM CLR 27/16 A2995 0 48 1500 060/08 RMK AO2 T02720156
53915KARA ARA20190513123010205/13/19 12:30:31  5-MIN KARA 131830Z 06009KT 10SM CLR 27/16 A2994 10 50 1500 060/09 RMK AO2 T02720161
53915KARA ARA20190513123510205/13/19 12:35:31  5-MIN KARA 131835Z 06007KT 10SM CLR 27/16 A2994 10 48 1500 060/07 RMK AO2 T02720156
53915KARA ARA20190513124012405/13/19 12:40:31  5-MIN KARA 131840Z 04012G18KT 360V080 10SM CLR 28/16 A2994 10 46 1500 040/12G18 360V080 RMK AO2 T02780156
53915KARA ARA20190513124510805/13/19 12:45:31  5-MIN KARA 131845Z 01009G18KT 10SM CLR 27/16 A2993 10 48 1500 010/09G18 RMK AO2 T02720156
53915KARA ARA20190513125010905/13/19 12:50:31  5-MIN KARA 131850Z 05007KT 10SM CLR 27/16 A2993 20 48 1500 050/07 RMK AO2 SLP135 T02720156
53915KARA ARA20190513125510805/13/19 12:55:31  5-MIN KARA 131855Z 03012G15KT 10SM CLR 27/16 A2993 20 48 1500 030/12G15 RMK AO2 T02720156
53915KARA ARA20190513130010805/13/19 13:00:31  5-MIN KARA 131900Z 03009G15KT 10SM CLR 27/16 A2993 20 48 1500 030/09G15 RMK AO2 T02720156
53915KARA ARA20190513130510205/13/19 13:05:31  5-MIN KARA 131905Z 04009KT 10SM CLR 27/15 A2993 10 46 1500 040/09 RMK AO2 T02720150
53915KARA ARA20190513131010205/13/19 13:10:31  5-MIN KARA 131910Z 06008KT 10SM CLR 28/16 A2994 10 46 1500 050/08 RMK AO2 T02780156
53915KARA ARA20190513131510205/13/19 13:15:31  5-MIN KARA 131915Z 07009KT 10SM CLR 28/16 A2994 10 46 1500 070/09 RMK AO2 T02780156
53915KARA ARA20190513132010205/13/19 13:20:31  5-MIN KARA 131920Z 08006KT 10SM CLR 27/16 A2994 10 48 1500 080/06 RMK AO2 T02720156
53915KARA ARA20190513132510205/13/19 13:25:31  5-MIN KARA 131925Z 03007KT 10SM CLR 28/16 A2993 10 48 1500 030/07 RMK AO2 T02780161
53915KARA ARA20190513133010205/13/19 13:30:31  5-MIN KARA 131930Z 04011KT 10SM CLR 28/16 A2993 20 46 1500 040/11 RMK AO2 T02780156
53915KARA ARA20190513133510205/13/19 13:35:31  5-MIN KARA 131935Z 05010KT 10SM CLR 28/16 A2993 20 46 1500 050/10 RMK AO2 T02780156
53915KARA ARA20190513134010205/13/19 13:40:31  5-MIN KARA 131940Z 05008KT 10SM CLR 28/16 A2993 20 46 1500 050/08 RMK AO2 T02780156
53915KARA ARA20190513134510205/13/19 13:45:31  5-MIN KARA 131945Z 05008KT 10SM CLR 28/16 A2993 20 46 1500 050/08 RMK AO2 T02780156
53915KARA ARA20190513135010905/13/19 13:50:31  5-MIN KARA 131950Z 05007KT 10SM CLR 28/16 A2992 20 46 1500 040/07 RMK AO2 SLP132 T02780156
53915KARA ARA20190513135511805/13/19 13:55:31  5-MIN KARA 131955Z 01008KT 310V040 10SM CLR 28/16 A2992 30 46 1500 010/08 310V040 RMK AO2 T02780156
53915KARA ARA20190513140010805/13/19 14:00:31  5-MIN KARA 132000Z 02009G14KT 10SM CLR 28/16 A2992 30 46 1500 020/09G14 RMK AO2 T02780156
53915KARA ARA20190513140510205/13/19 14:05:31  5-MIN KARA 132005Z 04011KT 10SM CLR 28/16 A2992 30 46 1500 040/11 RMK AO2 T02780156
53915KARA ARA20190513141010205/13/19 14:10:31  5-MIN KARA 132010Z 01008KT 10SM CLR 28/16 A2992 30 46 1600 010/08 RMK AO2 T02780156
53915KARA ARA20190513141510205/13/19 14:15:31  5-MIN KARA 132015Z 02011KT 10SM CLR 28/16 A2991 30 45 1600 020/11 RMK AO2 T02830156
53915KARA ARA20190513142010205/13/19 14:20:31  5-MIN KARA 132020Z 35006KT 10SM CLR 28/15 A2991 30 45 1600 350/06 RMK AO2 T02780150
53915KARA ARA20190513142510205/13/19 14:25:31  5-MIN KARA 132025Z 03008KT 10SM CLR 28/16 A2991 30 46 1600 030/08 RMK AO2 T02780156
53915KARA ARA20190513143010205/13/19 14:30:31  5-MIN KARA 132030Z 01009KT 10SM CLR 28/16 A2991 40 46 1600 010/09 RMK AO2 T02780156
53915KARA ARA20190513143510205/13/19 14:35:31  5-MIN KARA 132035Z 02009KT 10SM CLR 28/16 A2991 30 47 1600 020/09 RMK AO2 T02830161
53915KARA ARA20190513144010205/13/19 14:40:31  5-MIN KARA 132040Z 03010KT 10SM CLR 28/14 A2991 40 43 1600 030/10 RMK AO2 T02780144
53915KARA ARA20190513144510205/13/19 14:45:31  5-MIN KARA 132045Z 02010KT 10SM CLR 28/15 A2991 40 45 1600 020/10 RMK AO2 T02780150
53915KARA ARA20190513145011505/13/19 14:50:31  5-MIN KARA 132050Z 03007KT 10SM CLR 28/16 A2991 40 46 1600 020/07 RMK AO2 SLP126 T02780156 58006
53915KARA ARA20190513145510805/13/19 14:55:31  5-MIN KARA 132055Z 02011G14KT 10SM CLR 28/16 A2991 40 45 1600 010/11G14 RMK AO2 T02830156
53915KARA ARA20190513150010205/13/19 15:00:31  5-MIN KARA 132100Z 35009KT 10SM CLR 28/15 A2991 40 45 1600 350/09 RMK AO2 T02780150
53915KARA ARA20190513150510205/13/19 15:05:31  5-MIN KARA 132105Z 01008KT 10SM CLR 28/15 A2991 40 45 1600 360/08 RMK AO2 T02780150
53915KARA ARA20190513151010205/13/19 15:10:31  5-MIN KARA 132110Z 02011KT 10SM CLR 28/16 A2990 40 46 1600 020/11 RMK AO2 T02780156
53915KARA ARA20190513151510205/13/19 15:15:31  5-MIN KARA 132115Z 04009KT 10SM CLR 28/16 A2990 40 46 1600 040/09 RMK AO2 T02780156
53915KARA ARA20190513152010205/13/19 15:20:31  5-MIN KARA 132120Z 03010KT 10SM CLR 28/15 A2990 40 43 1600 030/10 RMK AO2 T02830150
53915KARA ARA20190513152510205/13/19 15:25:31  5-MIN KARA 132125Z 02009KT 10SM CLR 28/16 A2990 40 45 1600 020/09 RMK AO2 T02830156
53915KARA ARA20190513153010205/13/19 15:30:31  5-MIN KARA 132130Z 03010KT 10SM CLR 28/15 A2990 40 45 1600 030/10 RMK AO2 T02780150
53915KARA ARA20190513153510205/13/19 15:35:31  5-MIN KARA 132135Z 02010KT 10SM CLR 28/15 A2990 50 45 1600 020/10 RMK AO2 T02780150
53915KARA ARA20190513154010205/13/19 15:40:31  5-MIN KARA 132140Z 02010KT 10SM CLR 28/15 A2990 50 45 1600 020/10 RMK AO2 T02780150
53915KARA ARA20190513154510205/13/19 15:45:31  5-MIN KARA 132145Z 04009KT 10SM CLR 28/15 A2989 50 45 1600 030/09 RMK AO2 T02780150
53915KARA ARA20190513155010905/13/19 15:50:31  5-MIN KARA 132150Z 01011KT 10SM CLR 28/15 A2989 50 45 1600 010/11 RMK AO2 SLP122 T02780150
53915KARA ARA20190513155510205/13/19 15:55:31  5-MIN KARA 132155Z 03013KT 10SM CLR 28/15 A2989 50 45 1600 030/13 RMK AO2 T02780150
53915KARA ARA20190513160010205/13/19 16:00:31  5-MIN KARA 132200Z 03012KT 10SM CLR 28/14 A2989 50 43 1600 030/12 RMK AO2 T02780144
53915KARA ARA20190513160510205/13/19 16:05:31  5-MIN KARA 132205Z 03012KT 10SM CLR 28/14 A2989 50 43 1600 030/12 RMK AO2 T02780144
53915KARA ARA20190513161010205/13/19 16:10:31  5-MIN KARA 132210Z 02010KT 10SM CLR 28/14 A2989 50 43 1600 020/10 RMK AO2 T02780144
53915KARA ARA20190513161510205/13/19 16:15:31  5-MIN KARA 132215Z 01011KT 10SM CLR 28/14 A2990 50 43 1600 010/11 RMK AO2 T02780144
53915KARA ARA20190513162010205/13/19 16:20:31  5-MIN KARA 132220Z 02010KT 10SM CLR 28/15 A2990 50 45 1600 020/10 RMK AO2 T02780150
53915KARA ARA20190513162510205/13/19 16:25:31  5-MIN KARA 132225Z 02011KT 10SM CLR 28/14 A2990 50 43 1600 020/11 RMK AO2 T02780144
53915KARA ARA20190513163010205/13/19 16:30:31  5-MIN KARA 132230Z 03010KT 10SM CLR 28/14 A2990 50 43 1600 030/10 RMK AO2 T02780144
53915KARA ARA20190513163510205/13/19 16:35:31  5-MIN KARA 132235Z 03011KT 10SM CLR 28/14 A2990 50 42 1600 030/11 RMK AO2 T02780139
53915KARA ARA20190513164010205/13/19 16:40:31  5-MIN KARA 132240Z 03011KT 10SM CLR 28/14 A2990 50 42 1600 030/11 RMK AO2 T02780139
53915KARA ARA20190513164510205/13/19 16:45:31  5-MIN KARA 132245Z 04011KT 10SM CLR 28/13 A2990 50 40 1600 030/11 RMK AO2 T02780133
53915KARA ARA20190513165010905/13/19 16:50:31  5-MIN KARA 132250Z 04010KT 10SM CLR 27/14 A2990 50 43 1500 040/10 RMK AO2 SLP123 T02720139
53915KARA ARA20190513165510205/13/19 16:55:31  5-MIN KARA 132255Z 04012KT 10SM CLR 27/13 A2990 50 42 1500 030/12 RMK AO2 T02720133
53915KARA ARA20190513170010205/13/19 17:00:31  5-MIN KARA 132300Z 03009KT 10SM CLR 27/13 A2990 40 40 1500 030/09 RMK AO2 T02720128
53915KARA ARA20190513170510205/13/19 17:05:31  5-MIN KARA 132305Z 04009KT 10SM CLR 27/13 A2990 40 40 1500 040/09 RMK AO2 T02720128
53915KARA ARA20190513171010205/13/19 17:10:31  5-MIN KARA 132310Z 04010KT 10SM CLR 27/12 A2991 40 39 1500 040/10 RMK AO2 T02720122
53915KARA ARA20190513171510205/13/19 17:15:31  5-MIN KARA 132315Z 03012KT 10SM CLR 27/12 A2991 40 39 1500 030/12 RMK AO2 T02720122
53915KARA ARA20190513172010205/13/19 17:20:31  5-MIN KARA 132320Z 02011KT 10SM CLR 27/12 A2991 40 38 1400 020/11 RMK AO2 T02670117
53915KARA ARA20190513172510205/13/19 17:25:31  5-MIN KARA 132325Z 03008KT 10SM CLR 27/12 A2991 40 38 1400 030/08 RMK AO2 T02670117
53915KARA ARA20190513173010205/13/19 17:30:31  5-MIN KARA 132330Z 03009KT 10SM CLR 27/12 A2991 30 40 1400 020/09 RMK AO2 T02670122
53915KARA ARA20190513173510205/13/19 17:35:31  5-MIN KARA 132335Z 03008KT 10SM CLR 27/12 A2991 30 38 1400 030/08 RMK AO2 T02670117
53915KARA ARA20190513174010205/13/19 17:40:31  5-MIN KARA 132340Z 03007KT 10SM CLR 27/12 A2991 30 40 1400 030/07 RMK AO2 T02670122
53915KARA ARA20190513174510205/13/19 17:45:31  5-MIN KARA 132345Z 03008KT 10SM CLR 27/12 A2991 30 38 1400 030/08 RMK AO2 T02670117
53915KARA ARA20190513175012705/13/19 17:50:31  5-MIN KARA 132350Z 03007KT 10SM CLR 26/13 A2992 30 43 1400 030/07 RMK AO2 SLP130 T02610128 10283 20261 58012
53915KARA ARA20190513175510205/13/19 17:55:31  5-MIN KARA 132355Z 02008KT 10SM CLR 26/12 A2992 30 41 1400 020/08 RMK AO2 T02610122
53915KARA ARA20190513180010205/13/19 18:00:31  5-MIN KARA 140000Z 01007KT 10SM CLR 26/12 A2992 30 41 1400 010/07 RMK AO2 T02610122
53915KARA ARA20190513180510205/13/19 18:05:31  5-MIN KARA 140005Z 01007KT 10SM CLR 26/13 A2992 30 44 1300 010/07 RMK AO2 T02560128
53915KARA ARA20190513181010205/13/19 18:10:31  5-MIN KARA 140010Z 02007KT 10SM CLR 25/13 A2992 30 46 1200 020/07 RMK AO2 T02500128
53915KARA ARA20190513181510205/13/19 18:15:31  5-MIN KARA 140015Z 02007KT 10SM CLR 25/13 A2992 20 46 1200 020/07 RMK AO2 T02500128
53915KARA ARA20190513182010205/13/19 18:20:31  5-MIN KARA 140020Z 02006KT 10SM CLR 24/13 A2992 20 47 1200 020/06 RMK AO2 T02440128
53915KARA ARA20190513182510205/13/19 18:25:31  5-MIN KARA 140025Z 02008KT 10SM CLR 24/12 A2993 20 46 1200 020/08 RMK AO2 T02440122
53915KARA ARA20190513183010205/13/19 18:30:31  5-MIN KARA 140030Z 02007KT 10SM CLR 24/12 A2993 20 44 1200 020/07 RMK AO2 T02440117
53915KARA ARA20190513183510205/13/19 18:35:31  5-MIN KARA 140035Z 03009KT 10SM CLR 24/12 A2993 20 46 1100 020/09 RMK AO2 T02390117
53915KARA ARA20190513184010205/13/19 18:40:31  5-MIN KARA 140040Z 02007KT 10SM CLR 24/12 A2993 20 46 1100 020/07 RMK AO2 T02390117
53915KARA ARA20190513184510205/13/19 18:45:31  5-MIN KARA 140045Z 02007KT 10SM CLR 23/12 A2993 20 47 1000 020/07 RMK AO2 T02330117
53915KARA ARA20190513185010905/13/19 18:50:31  5-MIN KARA 140050Z 02006KT 10SM CLR 23/12 A2993 10 47 1000 020/06 RMK AO2 SLP136 T02330117
53915KARA ARA20190513185510205/13/19 18:55:31  5-MIN KARA 140055Z 02006KT 10SM CLR 23/12 A2994 10 51 1000 020/06 RMK AO2 T02280122
53915KARA ARA20190513190010105/13/19 19:00:31  5-MIN KARA 140100Z 01006KT 10SM CLR 22/12 A2994 10 52 900 010/06 RMK AO2 T02220122
53915KARA ARA20190513190510105/13/19 19:05:31  5-MIN KARA 140105Z 36004KT 10SM CLR 22/12 A2994 10 52 900 360/04 RMK AO2 T02220122
53915KARA ARA20190513191010105/13/19 19:10:31  5-MIN KARA 140110Z 35005KT 10SM CLR 22/13 A2994 10 56 900 350/05 RMK AO2 T02220133
53915KARA ARA20190513191510105/13/19 19:15:31  5-MIN KARA 140115Z 36006KT 10SM CLR 22/13 A2994 10 56 900 360/06 RMK AO2 T02220133
53915KARA ARA20190513192010005/13/19 19:20:31  5-MIN KARA 140120Z 36005KT 10SM CLR 22/13 A2994 0 56 900 360/05 RMK AO2 T02220133
53915KARA ARA20190513192510005/13/19 19:25:31  5-MIN KARA 140125Z 01005KT 10SM CLR 22/14 A2994 0 61 800 010/05 RMK AO2 T02170139
53915KARA ARA20190513193010505/13/19 19:30:31  5-MIN KARA 140130Z AUTO 01005KT 10SM CLR 22/14 A2994 0 61 800 010/05 RMK AO2 T02170139
53915KARA ARA20190513193510505/13/19 19:35:31  5-MIN KARA 140135Z AUTO 02005KT 10SM CLR 22/13 A2995 0 58 800 020/05 RMK AO2 T02170133
53915KARA ARA20190513194010505/13/19 19:40:31  5-MIN KARA 140140Z AUTO 02006KT 10SM CLR 22/13 A2995 0 58 800 010/06 RMK AO2 T02170133
53915KARA ARA20190513194510505/13/19 19:45:31  5-MIN KARA 140145Z AUTO 01006KT 10SM CLR 22/13 A2995 0 56 800 010/06 RMK AO2 T02170128
53915KARA ARA20190513195011205/13/19 19:50:31  5-MIN KARA 140150Z AUTO 01006KT 10SM CLR 22/13 A2995 0 56 800 010/06 RMK AO2 SLP141 T02170128
53915KARA ARA20190513195510505/13/19 19:55:31  5-MIN KARA 140155Z AUTO 01006KT 10SM CLR 22/13 A2995 0 56 800 010/06 RMK AO2 T02170128
53915KARA ARA20190513200010505/13/19 20:00:31  5-MIN KARA 140200Z AUTO 01005KT 10SM CLR 21/13 A2995 0 58 700 010/05 RMK AO2 T02110128
53915KARA ARA20190513200510505/13/19 20:05:31  5-MIN KARA 140205Z AUTO 01006KT 10SM CLR 21/13 A2995 0 58 700 010/06 RMK AO2 T02110128
53915KARA ARA20190513201010505/13/19 20:10:31  5-MIN KARA 140210Z AUTO 02006KT 10SM CLR 21/13 A2995 0 58 700 020/06 RMK AO2 T02110128
53915KARA ARA20190513201510505/13/19 20:15:31  5-MIN KARA 140215Z AUTO 02006KT 10SM CLR 21/13 A2996 0 63 700 020/06 RMK AO2 T02060133
53915KARA ARA20190513202010705/13/19 20:20:31  5-MIN KARA 140220Z AUTO 02006KT 10SM CLR 20/13 A2996 -10 65 600 020/06 RMK AO2 T02000133
53915KARA ARA20190513202510705/13/19 20:25:31  5-MIN KARA 140225Z AUTO 02006KT 10SM CLR 20/13 A2996 -10 65 600 020/06 RMK AO2 T02000133
53915KARA ARA20190513203010705/13/19 20:30:31  5-MIN KARA 140230Z AUTO 02006KT 10SM CLR 21/13 A2996 -10 60 700 020/06 RMK AO2 T02060128
53915KARA ARA20190513203510705/13/19 20:35:31  5-MIN KARA 140235Z AUTO 02007KT 10SM CLR 21/13 A2996 -10 60 700 020/07 RMK AO2 T02060128
53915KARA ARA20190513204010705/13/19 20:40:31  5-MIN KARA 140240Z AUTO 02007KT 10SM CLR 21/13 A2997 -10 60 700 010/07 RMK AO2 T02060128
53915KARA ARA20190513204510705/13/19 20:45:31  5-MIN KARA 140245Z AUTO 02007KT 10SM CLR 21/13 A2997 -10 60 700 020/07 RMK AO2 T02060128
53915KARA ARA20190513205012005/13/19 20:50:31  5-MIN KARA 140250Z AUTO 02007KT 10SM CLR 21/13 A2997 -10 60 700 010/07 RMK AO2 SLP147 T02060128 53003
53915KARA ARA20190513205510705/13/19 20:55:31  5-MIN KARA 140255Z AUTO 02008KT 10SM CLR 21/13 A2997 -20 60 700 020/08 RMK AO2 T02060128
53915KARA ARA20190513210010705/13/19 21:00:31  5-MIN KARA 140300Z AUTO 02007KT 10SM CLR 21/13 A2997 -20 58 700 020/07 RMK AO2 T02110128
53915KARA ARA20190513210510705/13/19 21:05:31  5-MIN KARA 140305Z AUTO 02007KT 10SM CLR 21/13 A2997 -20 58 700 020/07 RMK AO2 T02110128
53915KARA ARA20190513211010705/13/19 21:10:31  5-MIN KARA 140310Z AUTO 02007KT 10SM CLR 21/13 A2997 -20 60 700 020/07 RMK AO2 T02060128
53915KARA ARA20190513211510705/13/19 21:15:31  5-MIN KARA 140315Z AUTO 02007KT 10SM CLR 21/13 A2997 -20 63 700 020/07 RMK AO2 T02060133
53915KARA ARA20190513212010705/13/19 21:20:31  5-MIN KARA 140320Z AUTO 03006KT 10SM CLR 21/13 A2998 -20 63 700 020/06 RMK AO2 T02060133
53915KARA ARA20190513212510705/13/19 21:25:31  5-MIN KARA 140325Z AUTO 03007KT 10SM CLR 21/13 A2998 -20 63 700 030/07 RMK AO2 T02060133
53915KARA ARA20190513213010705/13/19 21:30:31  5-MIN KARA 140330Z AUTO 03008KT 10SM CLR 21/13 A2998 -20 63 700 030/08 RMK AO2 T02060133
53915KARA ARA20190513213510705/13/19 21:35:31  5-MIN KARA 140335Z AUTO 03008KT 10SM CLR 21/13 A2998 -20 63 700 030/08 RMK AO2 T02060133
53915KARA ARA20190513214010705/13/19 21:40:31  5-MIN KARA 140340Z AUTO 03007KT 10SM CLR 21/13 A2998 -20 63 700 020/07 RMK AO2 T02060133
53915KARA ARA20190513214510705/13/19 21:45:31  5-MIN KARA 140345Z AUTO 03007KT 10SM CLR 21/13 A2998 -20 63 700 030/07 RMK AO2 T02060133
53915KARA ARA20190513215011405/13/19 21:50:31  5-MIN KARA 140350Z AUTO 03008KT 10SM CLR 21/13 A2998 -20 63 700 030/08 RMK AO2 SLP151 T02060133
53915KARA ARA20190513215510705/13/19 21:55:31  5-MIN KARA 140355Z AUTO 03007KT 10SM CLR 21/13 A2998 -20 60 700 030/07 RMK AO2 T02060128
53915KARA ARA20190513220010705/13/19 22:00:31  5-MIN KARA 140400Z AUTO 03008KT 10SM CLR 21/13 A2998 -30 60 700 030/08 RMK AO2 T02060128
53915KARA ARA20190513220510705/13/19 22:05:31  5-MIN KARA 140405Z AUTO 03008KT 10SM CLR 21/13 A2998 -30 60 700 030/08 RMK AO2 T02060128
53915KARA ARA20190513221010705/13/19 22:10:31  5-MIN KARA 140410Z AUTO 03008KT 10SM CLR 21/13 A2998 -30 60 700 030/08 RMK AO2 T02060128
53915KARA ARA20190513221510705/13/19 22:15:31  5-MIN KARA 140415Z AUTO 03007KT 10SM CLR 21/13 A2998 -30 60 700 030/07 RMK AO2 T02060128
53915KARA ARA20190513222010705/13/19 22:20:31  5-MIN KARA 140420Z AUTO 03006KT 10SM CLR 21/13 A2998 -30 60 700 030/06 RMK AO2 T02060128
53915KARA ARA20190514081510305/14/19 08:15:31  5-MIN KARA 141415Z 08009KT 10SM CLR 24/13 A3005 -90 51 1000 080/09 RMK AO2 T02390133
53915KARA ARA20190514082010305/14/19 08:20:31  5-MIN KARA 141420Z 07011KT 10SM CLR 24/13 A3005 -90 49 1000 070/11 RMK AO2 T02390128
53915KARA ARA20190514082510305/14/19 08:25:31  5-MIN KARA 141425Z 08009KT 10SM CLR 24/13 A3005 -90 49 1000 080/09 RMK AO2 T02390128
53915KARA ARA20190514083010305/14/19 08:30:31  5-MIN KARA 141430Z 08009KT 10SM CLR 24/13 A3005 -80 49 1000 080/09 RMK AO2 T02440133
53915KARA ARA20190514083510305/14/19 08:35:31  5-MIN KARA 141435Z 09009KT 10SM CLR 24/13 A3004 -80 49 1000 090/09 RMK AO2 T02440133
53915KARA ARA20190514084010305/14/19 08:40:31  5-MIN KARA 141440Z 08009KT 10SM CLR 24/14 A3004 -80 51 1000 080/09 RMK AO2 T02440139
53915KARA ARA20190514084510305/14/19 08:45:31  5-MIN KARA 141445Z 07009KT 10SM CLR 24/13 A3005 -90 47 1000 070/09 RMK AO2 T02440128
53915KARA ARA20190514085011605/14/19 08:50:31  5-MIN KARA 141450Z 07010KT 10SM CLR 25/13 A3005 -90 48 1100 070/10 RMK AO2 SLP175 T02500133 53013
53915KARA ARA20190514085510305/14/19 08:55:31  5-MIN KARA 141455Z 07009KT 10SM CLR 26/13 A3005 -90 46 1200 070/09 RMK AO2 T02560133
53915KARA ARA20190514090010305/14/19 09:00:31  5-MIN KARA 141500Z 07008KT 10SM CLR 25/13 A3005 -80 48 1100 070/08 RMK AO2 T02500133
53915KARA ARA20190514090510305/14/19 09:05:31  5-MIN KARA 141505Z 08008KT 10SM CLR 26/14 A3004 -80 48 1200 080/08 RMK AO2 T02560139
53915KARA ARA20190514091010305/14/19 09:10:31  5-MIN KARA 141510Z 07008KT 10SM CLR 26/13 A3005 -80 46 1200 070/08 RMK AO2 T02560133
53915KARA ARA20190514091510305/14/19 09:15:31  5-MIN KARA 141515Z 10009KT 10SM CLR 26/14 A3005 -90 46 1200 100/09 RMK AO2 T02610139
53915KARA ARA20190514092010305/14/19 09:20:31  5-MIN KARA 141520Z 08009KT 10SM CLR 26/13 A3005 -80 44 1200 080/09 RMK AO2 T02610133
53915KARA ARA20190514092510305/14/19 09:25:31  5-MIN KARA 141525Z 07008KT 10SM CLR 26/13 A3005 -80 43 1200 070/08 RMK AO2 T02610128
53915KARA ARA20190514093010305/14/19 09:30:31  5-MIN KARA 141530Z 07010KT 10SM CLR 26/13 A3004 -80 43 1200 070/10 RMK AO2 T02610128
53915KARA ARA20190514093510305/14/19 09:35:31  5-MIN KARA 141535Z 07008KT 10SM CLR 26/12 A3004 -80 41 1200 070/08 RMK AO2 T02610122
53915KARA ARA20190514094010305/14/19 09:40:31  5-MIN KARA 141540Z 09010KT 10SM CLR 26/13 A3004 -80 43 1200 090/10 RMK AO2 T02610128
53915KARA ARA20190514094510305/14/19 09:45:31  5-MIN KARA 141545Z 09007KT 10SM CLR 26/13 A3004 -80 43 1200 080/07 RMK AO2 T02610128
53915KARA ARA20190514095011005/14/19 09:50:31  5-MIN KARA 141550Z 10011KT 10SM CLR 27/13 A3004 -80 40 1300 100/11 RMK AO2 SLP172 T02720128
53915KARA ARA20190514095510305/14/19 09:55:31  5-MIN KARA 141555Z 11010KT 10SM CLR 27/12 A3004 -80 40 1300 110/10 RMK AO2 T02670122
53915KARA ARA20190514100010305/14/19 10:00:31  5-MIN KARA 141600Z 11008KT 10SM CLR 27/12 A3004 -80 40 1300 110/08 RMK AO2 T02670122
53915KARA ARA20190514100510305/14/19 10:05:31  5-MIN KARA 141605Z 10010KT 10SM CLR 27/13 A3004 -80 41 1300 100/10 RMK AO2 T02670128
53915KARA ARA20190514101010305/14/19 10:10:31  5-MIN KARA 141610Z 10010KT 10SM CLR 27/12 A3004 -70 39 1400 100/10 RMK AO2 T02720122
53915KARA ARA20190514101510305/14/19 10:15:31  5-MIN KARA 141615Z 08009KT 10SM CLR 27/12 A3004 -80 39 1400 080/09 RMK AO2 T02720122
53915KARA ARA20190514102010305/14/19 10:20:31  5-MIN KARA 141620Z 08008KT 10SM CLR 27/13 A3004 -80 40 1400 080/08 RMK AO2 T02720128
53915KARA ARA20190514102510305/14/19 10:25:31  5-MIN KARA 141625Z 09011KT 10SM CLR 27/12 A3004 -80 39 1400 090/11 RMK AO2 T02720122
53915KARA ARA20190514103010305/14/19 10:30:31  5-MIN KARA 141630Z 07010KT 10SM CLR 27/11 A3004 -80 36 1400 070/10 RMK AO2 T02720111
53915KARA ARA20190514103510305/14/19 10:35:31  5-MIN KARA 141635Z 08009KT 10SM CLR 28/12 A3004 -80 36 1400 080/09 RMK AO2 T02780117
53915KARA ARA20190514104010305/14/19 10:40:31  5-MIN KARA 141640Z 10010KT 10SM CLR 28/12 A3004 -70 37 1400 100/10 RMK AO2 T02780122
53915KARA ARA20190514104510305/14/19 10:45:31  5-MIN KARA 141645Z 10012KT 10SM CLR 28/12 A3003 -70 37 1400 100/12 RMK AO2 T02780122
53915KARA ARA20190514105011005/14/19 10:50:31  5-MIN KARA 141650Z 09009KT 10SM CLR 28/12 A3004 -80 37 1400 090/09 RMK AO2 SLP170 T02780122
53915KARA ARA20190514105510305/14/19 10:55:31  5-MIN KARA 141655Z 10012KT 10SM CLR 28/12 A3004 -80 37 1400 100/12 RMK AO2 T02780122
53915KARA ARA20190514110010305/14/19 11:00:31  5-MIN KARA 141700Z 07010KT 10SM CLR 28/12 A3003 -70 37 1400 070/10 RMK AO2 T02780122
53915KARA ARA20190514110510305/14/19 11:05:31  5-MIN KARA 141705Z 06012KT 10SM CLR 28/12 A3003 -70 37 1400 060/12 RMK AO2 T02780122
53915KARA ARA20190514111010905/14/19 11:10:31  5-MIN KARA 141710Z 05013G17KT 10SM CLR 28/12 A3003 -70 36 1500 050/13G17 RMK AO2 T02830122
53915KARA ARA20190514111510905/14/19 11:15:31  5-MIN KARA 141715Z 07011G17KT 10SM CLR 28/11 A3003 -70 35 1400 070/11G17 RMK AO2 T02780111
53915KARA ARA20190514112010305/14/19 11:20:31  5-MIN KARA 141720Z 07010KT 10SM CLR 28/11 A3003 -70 35 1400 070/10 RMK AO2 T02780111
53915KARA ARA20190514112510305/14/19 11:25:31  5-MIN KARA 141725Z 07009KT 10SM CLR 28/12 A3002 -60 35 1500 070/09 RMK AO2 T02830117
53915KARA ARA20190514113010305/14/19 11:30:31  5-MIN KARA 141730Z 03009KT 10SM CLR 28/12 A3002 -60 37 1400 030/09 RMK AO2 T02780122
53915KARA ARA20190514113510305/14/19 11:35:31  5-MIN KARA 141735Z 06012KT 10SM CLR 28/12 A3002 -60 36 1500 060/12 RMK AO2 T02830122
53915KARA ARA20190514114010305/14/19 11:40:31  5-MIN KARA 141740Z 07010KT 10SM CLR 28/12 A3002 -60 36 1500 070/10 RMK AO2 T02830122
53915KARA ARA20190514114510305/14/19 11:45:31  5-MIN KARA 141745Z 07007KT 10SM CLR 28/12 A3002 -60 35 1500 070/07 RMK AO2 T02830117
53915KARA ARA20190514115012805/14/19 11:50:31  5-MIN KARA 141750Z 08011KT 10SM CLR 28/12 A3001 -50 35 1500 070/11 RMK AO2 SLP162 T02830117 10283 20178 51013
53915KARA ARA20190514115510305/14/19 11:55:31  5-MIN KARA 141755Z 06011KT 10SM CLR 28/12 A3001 -50 35 1500 060/11 RMK AO2 T02830117
53915KARA ARA20190514120010905/14/19 12:00:31  5-MIN KARA 141800Z 06016G20KT 10SM CLR 29/11 A3001 -50 32 1600 060/16G20 RMK AO2 T02890111
53915KARA ARA20190514120510905/14/19 12:05:31  5-MIN KARA 141805Z 06014G20KT 10SM CLR 28/11 A3001 -50 32 1500 060/14G20 RMK AO2 T02830106
53915KARA ARA20190514121010305/14/19 12:10:31  5-MIN KARA 141810Z 05015KT 10SM CLR 28/11 A3001 -50 33 1500 040/15 RMK AO2 T02830111
53915KARA ARA20190514121510905/14/19 12:15:31  5-MIN KARA 141815Z 06011G22KT 10SM CLR 28/11 A3001 -50 33 1500 050/11G22 RMK AO2 T02830111
53915KARA ARA20190514122010905/14/19 12:20:31  5-MIN KARA 141820Z 05014G22KT 10SM CLR 28/12 A3000 -50 35 1500 050/14G22 RMK AO2 T02830117
53915KARA ARA20190514122510905/14/19 12:25:31  5-MIN KARA 141825Z 05011G19KT 10SM CLR 28/11 A3000 -40 33 1500 050/11G19 RMK AO2 T02830111
53915KARA ARA20190514123010905/14/19 12:30:31  5-MIN KARA 141830Z 05013G19KT 10SM CLR 29/12 A3000 -40 35 1600 050/13G19 RMK AO2 T02890122
53915KARA ARA20190514123510905/14/19 12:35:31  5-MIN KARA 141835Z 05013G19KT 10SM CLR 28/12 A3000 -40 35 1500 050/13G19 RMK AO2 T02830117
53915KARA ARA20190514124010305/14/19 12:40:31  5-MIN KARA 141840Z 07014KT 10SM CLR 29/12 A3000 -40 34 1600 070/14 RMK AO2 T02890117
53915KARA ARA20190514124510305/14/19 12:45:31  5-MIN KARA 141845Z 06012KT 10SM CLR 28/12 A3000 -40 35 1500 060/12 RMK AO2 T02830117
53915KARA ARA20190514125011005/14/19 12:50:31  5-MIN KARA 141850Z 08012KT 10SM CLR 28/12 A3000 -40 35 1500 080/12 RMK AO2 SLP158 T02830117
53915KARA ARA20190514125510905/14/19 12:55:31  5-MIN KARA 141855Z 07012G15KT 10SM CLR 29/12 A3000 -40 35 1600 070/12G15 RMK AO2 T02890122
53915KARA ARA20190514130010905/14/19 13:00:31  5-MIN KARA 141900Z 08010G15KT 10SM CLR 29/12 A3000 -40 35 1600 080/10G15 RMK AO2 T02890122
53915KARA ARA20190514130510305/14/19 13:05:31  5-MIN KARA 141905Z 08008KT 10SM CLR 28/12 A3000 -40 36 1500 080/08 RMK AO2 T02830122
53915KARA ARA20190514131010905/14/19 13:10:31  5-MIN KARA 141910Z 09009G15KT 10SM CLR 29/13 A3000 -40 36 1600 090/09G15 RMK AO2 T02890128
53915KARA ARA20190514131510905/14/19 13:15:31  5-MIN KARA 141915Z 06011G17KT 10SM CLR 29/13 A2999 -40 36 1600 060/11G17 RMK AO2 T02890128
53915KARA ARA20190514132010305/14/19 13:20:31  5-MIN KARA 141920Z 07012KT 10SM CLR 29/12 A3000 -40 35 1600 070/12 RMK AO2 T02890122
53915KARA ARA20190514132510305/14/19 13:25:31  5-MIN KARA 141925Z 09011KT 10SM CLR 29/12 A2999 -40 35 1600 090/11 RMK AO2 T02890122
53915KARA ARA20190514133010305/14/19 13:30:31  5-MIN KARA 141930Z 10011KT 10SM CLR 29/13 A2999 -40 38 1600 100/11 RMK AO2 T02890133
53915KARA ARA20190514133510305/14/19 13:35:31  5-MIN KARA 141935Z 08012KT 10SM CLR 29/13 A2999 -40 36 1600 080/12 RMK AO2 T02890128
53915KARA ARA20190514134010305/14/19 13:40:31  5-MIN KARA 141940Z 07009KT 10SM CLR 29/13 A2999 -40 36 1600 070/09 RMK AO2 T02890128
53915KARA ARA20190514134510905/14/19 13:45:31  5-MIN KARA 141945Z 08013G18KT 10SM CLR 29/13 A3000 -40 36 1600 080/13G18 RMK AO2 T02890128
53915KARA ARA20190514135011605/14/19 13:50:31  5-MIN KARA 141950Z 06011G18KT 10SM CLR 29/13 A3000 -40 36 1600 060/11G18 RMK AO2 SLP156 T02890128
53915KARA ARA20190514135510905/14/19 13:55:31  5-MIN KARA 141955Z 07010G17KT 10SM CLR 29/13 A3000 -40 36 1600 070/10G17 RMK AO2 T02890128
53915KARA ARA20190514140010905/14/19 14:00:31  5-MIN KARA 142000Z 07010G17KT 10SM CLR 29/13 A3000 -40 35 1600 070/10G17 RMK AO2 T02940128
53915KARA ARA20190514140510305/14/19 14:05:31  5-MIN KARA 142005Z 06007KT 10SM CLR 29/13 A3000 -40 36 1600 060/07 RMK AO2 T02890128
53915KARA ARA20190514141010905/14/19 14:10:31  5-MIN KARA 142010Z 10008G14KT 10SM CLR 29/13 A2999 -40 36 1600 100/08G14 RMK AO2 T02890128
53915KARA ARA20190514141510305/14/19 14:15:31  5-MIN KARA 142015Z 11009KT 10SM CLR 29/13 A2999 -30 36 1600 110/09 RMK AO2 T02890128
53915KARA ARA20190514142010305/14/19 14:20:31  5-MIN KARA 142020Z 11010KT 10SM CLR 29/13 A2999 -30 36 1600 100/10 RMK AO2 T02890128
53915KARA ARA20190514142510305/14/19 14:25:31  5-MIN KARA 142025Z 11009KT 10SM CLR 29/13 A2999 -30 36 1600 110/09 RMK AO2 T02890128
53915KARA ARA20190514143010305/14/19 14:30:31  5-MIN KARA 142030Z 12005KT 10SM CLR 29/13 A2999 -30 38 1600 110/05 RMK AO2 T02890133
53915KARA ARA20190514143510305/14/19 14:35:31  5-MIN KARA 142035Z 10012KT 10SM CLR 29/13 A2999 -30 36 1700 090/12 RMK AO2 T02940133
53915KARA ARA20190514144010905/14/19 14:40:31  5-MIN KARA 142040Z 10007G15KT 10SM CLR 29/13 A2999 -30 36 1600 100/07G15 RMK AO2 T02890128
53915KARA ARA20190514144510305/14/19 14:45:31  5-MIN KARA 142045Z 09006KT 10SM CLR 29/13 A2999 -30 36 1600 090/06 RMK AO2 T02890128
53915KARA ARA20190514145011605/14/19 14:50:31  5-MIN KARA 142050Z 09008KT 10SM CLR 29/13 A2999 -30 36 1600 090/08 RMK AO2 SLP154 T02890128 58012
53915KARA ARA20190514145510305/14/19 14:55:31  5-MIN KARA 142055Z 13011KT 10SM CLR 29/13 A2999 -30 36 1600 130/11 RMK AO2 T02890128
53915KARA ARA20190514150010305/14/19 15:00:31  5-MIN KARA 142100Z 12010KT 10SM CLR 28/12 A2999 -30 36 1500 120/10 RMK AO2 T02830122
53915KARA ARA20190514150510305/14/19 15:05:31  5-MIN KARA 142105Z 10009KT 10SM CLR 29/13 A2999 -30 36 1600 100/09 RMK AO2 T02890128
53915KARA ARA20190514151010305/14/19 15:10:31  5-MIN KARA 142110Z 12007KT 10SM CLR 28/12 A2999 -30 36 1500 120/07 RMK AO2 T02830122
53915KARA ARA20190514151510305/14/19 15:15:31  5-MIN KARA 142115Z 11010KT 10SM CLR 29/12 A2999 -30 35 1600 110/10 RMK AO2 T02890122
53915KARA ARA20190514152010305/14/19 15:20:31  5-MIN KARA 142120Z 10007KT 10SM CLR 29/12 A2999 -30 35 1600 100/07 RMK AO2 T02890122
53915KARA ARA20190514152510305/14/19 15:25:31  5-MIN KARA 142125Z 09009KT 10SM CLR 29/12 A2999 -30 35 1600 090/09 RMK AO2 T02890122
53915KARA ARA20190514153010905/14/19 15:30:31  5-MIN KARA 142130Z 11011G14KT 10SM CLR 29/12 A2999 -30 35 1600 110/11G14 RMK AO2 T02890122
53915KARA ARA20190514153510905/14/19 15:35:31  5-MIN KARA 142135Z 11009G14KT 10SM CLR 29/12 A2998 -30 35 1600 110/09G14 RMK AO2 T02890122
53915KARA ARA20190514154010305/14/19 15:40:31  5-MIN KARA 142140Z 12008KT 10SM CLR 29/12 A2998 -30 35 1600 120/08 RMK AO2 T02890122
53915KARA ARA20190514154510305/14/19 15:45:31  5-MIN KARA 142145Z 12010KT 10SM CLR 28/12 A2998 -30 36 1500 120/10 RMK AO2 T02830122
53915KARA ARA20190514155011005/14/19 15:50:31  5-MIN KARA 142150Z 11010KT 10SM CLR 29/12 A2998 -30 35 1600 110/10 RMK AO2 SLP152 T02890122
53915KARA ARA20190514155510305/14/19 15:55:31  5-MIN KARA 142155Z 12007KT 10SM CLR 28/12 A2998 -30 36 1500 120/07 RMK AO2 T02830122
53915KARA ARA20190514160010305/14/19 16:00:31  5-MIN KARA 142200Z 11009KT 10SM CLR 28/12 A2998 -30 35 1500 110/09 RMK AO2 T02830117
53915KARA ARA20190514160510305/14/19 16:05:31  5-MIN KARA 142205Z 11007KT 10SM CLR 28/12 A2998 -30 35 1500 110/07 RMK AO2 T02830117
53915KARA ARA20190514161010305/14/19 16:10:31  5-MIN KARA 142210Z 09008KT 10SM CLR 28/12 A2998 -30 35 1500 090/08 RMK AO2 T02830117
53915KARA ARA20190514161510305/14/19 16:15:31  5-MIN KARA 142215Z 10005KT 10SM CLR 28/12 A2998 -30 35 1500 100/05 RMK AO2 T02830117
53915KARA ARA20190514162009305/14/19 16:20:31  5-MIN KARA 142220Z 10SM CLR 28/12 A2998 -30 35 1500 M /M RMK AO2 T02830117
53915KARA ARA20190514162510305/14/19 16:25:31  5-MIN KARA 142225Z 11006KT 10SM CLR 28/12 A2998 -30 36 1500 110/06 RMK AO2 T02830122
53915KARA ARA20190514163010305/14/19 16:30:31  5-MIN KARA 142230Z 11008KT 10SM CLR 28/12 A2998 -20 36 1500 110/08 RMK AO2 T02830122
53915KARA ARA20190514163510305/14/19 16:35:31  5-MIN KARA 142235Z 13005KT 10SM CLR 28/12 A2998 -20 36 1500 130/05 RMK AO2 T02830122
53915KARA ARA20190514164010305/14/19 16:40:31  5-MIN KARA 142240Z 13005KT 10SM CLR 28/12 A2998 -30 36 1500 130/05 RMK AO2 T02830122
53915KARA ARA20190514164510305/14/19 16:45:31  5-MIN KARA 142245Z 12005KT 10SM CLR 28/12 A2998 -30 36 1500 120/05 RMK AO2 T02830122
53915KARA ARA20190514165011005/14/19 16:50:31  5-MIN KARA 142250Z 11005KT 10SM CLR 28/13 A2998 -30 37 1500 110/05 RMK AO2 SLP152 T02830128
53915KARA ARA20190514165510305/14/19 16:55:31  5-MIN KARA 142255Z 08005KT 10SM CLR 28/12 A2998 -20 36 1500 080/05 RMK AO2 T02830122
53915KARA ARA20190514170010305/14/19 17:00:31  5-MIN KARA 142300Z 10006KT 10SM CLR 28/12 A2998 -20 37 1500 100/06 RMK AO2 T02780122
53915KARA ARA20190514170510305/14/19 17:05:31  5-MIN KARA 142305Z 11007KT 10SM CLR 28/13 A2998 -20 39 1500 110/07 RMK AO2 T02780128
53915KARA ARA20190514171010305/14/19 17:10:31  5-MIN KARA 142310Z 12006KT 10SM CLR 28/13 A2998 -20 39 1500 120/06 RMK AO2 T02780128
53915KARA ARA20190514171517605/14/19 17:15:31  5-MIN KARA 142315Z 10008KT 10SM CLR 28/13 A2998 -20 39 1500 100/08 RMK AO2 T02780128005Z 13004KT 10SM FEW002 27/13 A2997 -20 48 1300 130/04 RMK AO2 T02610144
53915KARA ARA20190514182510605/14/19 18:25:31  5-MIN KARA 150025Z 12004KT 10SM FEW002 26/15 A2998 -30 51 1200 120/04 RMK AO2 T02560150
53915KARA ARA20190514183010305/14/19 18:30:31  5-MIN KARA 150030Z 14004KT 10SM CLR 26/15 A2998 -30 51 1200 140/04 RMK AO2 T02560150
53915KARA ARA20190514183510305/14/19 18:35:31  5-MIN KARA 150035Z 15005KT 10SM CLR 25/15 A2998 -30 53 1200 150/05 RMK AO2 T02500150
53915KARA ARA20190514184010305/14/19 18:40:31  5-MIN KARA 150040Z 17004KT 10SM CLR 24/16 A2999 -30 59 1100 160/04 RMK AO2 T02440161
53915KARA ARA20190514184510305/14/19 18:45:31  5-MIN KARA 150045Z 20007KT 10SM CLR 24/16 A2999 -30 61 1000 200/07 RMK AO2 T02390161
53915KARA ARA20190514185011005/14/19 18:50:31  5-MIN KARA 150050Z 20005KT 10SM CLR 23/16 A2999 -30 63 1000 200/05 RMK AO2 SLP155 T02330161
53915KARA ARA20190514185510305/14/19 18:55:31  5-MIN KARA 150055Z 20005KT 10SM CLR 23/17 A2999 -40 66 1000 200/05 RMK AO2 T02330167
53915KARA ARA20190514190010205/14/19 19:00:31  5-MIN KARA 150100Z 20006KT 10SM CLR 23/17 A3000 -40 68 900 200/06 RMK AO2 T02280167
53915KARA ARA20190514190510205/14/19 19:05:31  5-MIN KARA 150105Z 21006KT 10SM CLR 23/17 A3000 -40 68 900 210/06 RMK AO2 T02280167
53915KARA ARA20190514191010205/14/19 19:10:31  5-MIN KARA 150110Z 20006KT 10SM CLR 23/17 A3000 -40 68 900 200/06 RMK AO2 T02280167
53915KARA ARA20190514191510205/14/19 19:15:31  5-MIN KARA 150115Z 20005KT 10SM CLR 23/17 A3000 -40 68 900 200/05 RMK AO2 T02280167
53915KARA ARA20190514192010205/14/19 19:20:31  5-MIN KARA 150120Z 20005KT 10SM CLR 23/17 A3000 -40 68 900 200/05 RMK AO2 T02280167
53915KARA ARA20190514192510205/14/19 19:25:31  5-MIN KARA 150125Z 19005KT 10SM CLR 22/17 A3000 -50 70 800 190/05 RMK AO2 T02220167
53915KARA ARA20190514193016505/14/19 19:30:31  5-MIN KARA 150130Z 19005KT 10SM CLR 22/17 A3001 -50 73 800 190/05 RMK AO2 T0222017205/14/19 19 CLR 22/17 A3001 -50 75 800 190/04 RMK AO2 T02170172
53915KARA ARA20190514195011405/14/19 19:50:31  5-MIN KARA 150150Z AUTO 19004KT 10SM CLR 22/17 A3001 -50 75 700 190/04 RMK AO2 SLP162 T02170172
53915KARA ARA20190514195510705/14/19 19:55:31  5-MIN KARA 150155Z AUTO 19004KT 10SM CLR 22/17 A3001 -50 75 700 190/04 RMK AO2 T02170172
53915KARA ARA20190514200010705/14/19 20:00:31  5-MIN KARA 150200Z AUTO 19004KT 10SM CLR 22/17 A3001 -50 75 700 180/04 RMK AO2 T02170172
53915KARA ARA20190514200510705/14/19 20:05:31  5-MIN KARA 150205Z AUTO 18004KT 10SM CLR 22/17 A3001 -50 75 700 180/04 RMK AO2 T02170172
53915KARA ARA20190514201010705/14/19 20:10:31  5-MIN KARA 150210Z AUTO 17004KT 10SM CLR 22/17 A3001 -60 75 700 170/04 RMK AO2 T02170172
53915KARA ARA20190515062510205/15/19 06:25:31  5-MIN KARA 151225Z 01004KT 10SM CLR 20/18 A3005 -90 87 500 360/04 RMK AO2 T02000178
53915KARA ARA20190515063010205/15/19 06:30:31  5-MIN KARA 151230Z 36003KT 10SM CLR 20/18 A3005 -90 90 500 360/03 RMK AO2 T02000183
53915KARA ARA20190515063510205/15/19 06:35:31  5-MIN KARA 151235Z 01003KT 10SM CLR 21/18 A3005 -90 87 600 010/03 RMK AO2 T02060183
53915KARA ARA20190515064010205/15/19 06:40:31  5-MIN KARA 151240Z 01004KT 10SM CLR 21/18 A3005 -90 84 600 010/04 RMK AO2 T02110183
53915KARA ARA20190515064510205/15/19 06:45:31  5-MIN KARA 151245Z 02003KT 10SM CLR 21/18 A3005 -90 81 600 020/03 RMK AO2 T02110178
53915KARA ARA20190515065010905/15/19 06:50:31  5-MIN KARA 151250Z 02005KT 10SM CLR 21/18 A3006 -90 84 600 020/05 RMK AO2 SLP177 T02110183
53915KARA ARA20190515065510305/15/19 06:55:31  5-MIN KARA 151255Z 02005KT 10SM CLR 21/18 A3006 -100 81 600 020/05 RMK AO2 T02110178
53915KARA ARA20190515070010305/15/19 07:00:31  5-MIN KARA 151300Z 02005KT 10SM CLR 22/18 A3006 -100 81 700 020/05 RMK AO2 T02170183
53915KARA ARA20190515070510305/15/19 07:05:31  5-MIN KARA 151305Z 03005KT 10SM CLR 22/18 A3006 -100 78 700 030/05 RMK AO2 T02170178
53915KARA ARA20190515071010305/15/19 07:10:31  5-MIN KARA 151310Z 03004KT 10SM CLR 22/18 A3006 -100 78 800 020/04 RMK AO2 T02220183
53915KARA ARA20190515071510305/15/19 07:15:31  5-MIN KARA 151315Z 03004KT 10SM CLR 22/18 A3006 -100 78 800 030/04 RMK AO2 T02220183
53915KARA ARA20190515072010305/15/19 07:20:31  5-MIN KARA 151320Z 04004KT 10SM CLR 23/18 A3007 -100 76 800 030/04 RMK AO2 T02280183
53915KARA ARA20190515072510305/15/19 07:25:31  5-MIN KARA 151325Z 03004KT 10SM CLR 23/18 A3007 -100 76 800 020/04 RMK AO2 T02280183
53915KARA ARA20190515073010305/15/19 07:30:31  5-MIN KARA 151330Z 01004KT 10SM CLR 23/18 A3007 -110 76 800 360/04 RMK AO2 T02280183
53915KARA ARA20190515073510305/15/19 07:35:31  5-MIN KARA 151335Z 00000KT 10SM CLR 23/18 A3007 -110 73 900 000/00 RMK AO2 T02330183
53915KARA ARA20190515074010305/15/19 07:40:31  5-MIN KARA 151340Z 03003KT 10SM CLR 23/18 A3007 -110 73 900 030/03 RMK AO2 T02330183
53915KARA ARA20190515074510305/15/19 07:45:31  5-MIN KARA 151345Z 04003KT 10SM CLR 24/18 A3007 -110 71 900 040/03 RMK AO2 T02390183
53915KARA ARA20190515075011005/15/19 07:50:31  5-MIN KARA 151350Z 04004KT 10SM CLR 24/18 A3008 -110 71 900 040/04 RMK AO2 SLP183 T02390183
53915KARA ARA20190515075510405/15/19 07:55:31  5-MIN KARA 151355Z 04003KT 10SM CLR 24/18 A3007 -110 68 1000 040/03 RMK AO2 T02440183
53915KARA ARA20190515080010405/15/19 08:00:31  5-MIN KARA 151400Z 02004KT 10SM CLR 24/18 A3007 -110 68 1000 020/04 RMK AO2 T02440183
53915KARA ARA20190515080510405/15/19 08:05:31  5-MIN KARA 151405Z 04004KT 10SM CLR 24/18 A3007 -110 68 1000 040/04 RMK AO2 T02440183
53915KARA ARA20190515081010405/15/19 08:10:31  5-MIN KARA 151410Z 04004KT 10SM CLR 24/18 A3008 -110 66 1000 030/04 RMK AO2 T02440178
53915KARA ARA20190515081510405/15/19 08:15:31  5-MIN KARA 151415Z 03004KT 10SM CLR 24/18 A3008 -120 68 1000 030/04 RMK AO2 T02440183
53915KARA ARA20190515082010405/15/19 08:20:31  5-MIN KARA 151420Z 02004KT 10SM CLR 25/18 A3008 -120 66 1100 020/04 RMK AO2 T02500183
53915KARA ARA20190515082510405/15/19 08:25:31  5-MIN KARA 151425Z 07004KT 10SM CLR 25/18 A3008 -120 66 1100 070/04 RMK AO2 T02500183
53915KARA ARA20190515083010405/15/19 08:30:31  5-MIN KARA 151430Z 04004KT 10SM CLR 25/18 A3008 -110 64 1100 040/04 RMK AO2 T02500178
53915KARA ARA20190515083510405/15/19 08:35:31  5-MIN KARA 151435Z 07003KT 10SM CLR 25/17 A3008 -110 61 1100 070/03 RMK AO2 T02500172
53915KARA ARA20190515084010405/15/19 08:40:31  5-MIN KARA 151440Z 00000KT 10SM CLR 26/17 A3008 -120 59 1100 000/00 RMK AO2 T02560172
53915KARA ARA20190515084510405/15/19 08:45:31  5-MIN KARA 151445Z VRB03KT 10SM CLR 26/17 A3008 -120 59 1100 VRB/03 RMK AO2 T02560172
53915KARA ARA20190515085011705/15/19 08:50:31  5-MIN KARA 151450Z 11004KT 10SM CLR 26/17 A3008 -110 59 1100 110/04 RMK AO2 SLP184 T02560172 53013
53915KARA ARA20190515085510405/15/19 08:55:31  5-MIN KARA 151455Z 03004KT 10SM CLR 26/17 A3008 -110 57 1200 030/04 RMK AO2 T02610172
53915KARA ARA20190515090010405/15/19 09:00:31  5-MIN KARA 151500Z 06004KT 10SM CLR 27/17 A3008 -110 55 1200 060/04 RMK AO2 T02670172
53915KARA ARA20190515090510405/15/19 09:05:31  5-MIN KARA 151505Z 00000KT 10SM CLR 26/16 A3008 -110 53 1200 000/00 RMK AO2 T02610161
53915KARA ARA20190515091010405/15/19 09:10:31  5-MIN KARA 151510Z 04003KT 10SM CLR 27/17 A3008 -110 53 1200 040/03 RMK AO2 T02670167
53915KARA ARA20190515091510405/15/19 09:15:31  5-MIN KARA 151515Z VRB03KT 10SM CLR 26/16 A3008 -110 53 1200 VRB/03 RMK AO2 T02610161
53915KARA ARA20190515092010405/15/19 09:20:31  5-MIN KARA 151520Z 04006KT 10SM CLR 27/16 A3008 -110 52 1200 040/06 RMK AO2 T02670161
53915KARA ARA20190515092510405/15/19 09:25:31  5-MIN KARA 151525Z 05006KT 10SM CLR 27/16 A3008 -110 52 1200 040/06 RMK AO2 T02670161
53915KARA ARA20190515093010405/15/19 09:30:31  5-MIN KARA 151530Z 06004KT 10SM CLR 27/17 A3008 -110 53 1200 060/04 RMK AO2 T02670167
53915KARA ARA20190515093510405/15/19 09:35:31  5-MIN KARA 151535Z VRB03KT 10SM CLR 27/17 A3007 -110 52 1300 VRB/03 RMK AO2 T02720167
53915KARA ARA20190515094010405/15/19 09:40:31  5-MIN KARA 151540Z VRB03KT 10SM CLR 26/16 A3007 -110 53 1200 VRB/03 RMK AO2 T02610161
53915KARA ARA20190515094510405/15/19 09:45:31  5-MIN KARA 151545Z VRB04KT 10SM CLR 27/16 A3007 -110 52 1200 VRB/04 RMK AO2 T02670161
53915KARA ARA20190515095011105/15/19 09:50:31  5-MIN KARA 151550Z 11005KT 10SM CLR 27/16 A3007 -110 50 1300 110/05 RMK AO2 SLP182 T02670156
53915KARA ARA20190515095510405/15/19 09:55:31  5-MIN KARA 151555Z 00000KT 10SM CLR 27/16 A3007 -110 50 1300 000/00 RMK AO2 T02670156
53915KARA ARA20190515100010405/15/19 10:00:31  5-MIN KARA 151600Z 14006KT 10SM CLR 27/16 A3007 -110 52 1300 140/06 RMK AO2 T02670161
53915KARA ARA20190515100510405/15/19 10:05:31  5-MIN KARA 151605Z 11004KT 10SM CLR 27/16 A3007 -110 50 1300 110/04 RMK AO2 T02720161
53915KARA ARA20190515101010405/15/19 10:10:31  5-MIN KARA 151610Z 00000KT 10SM CLR 28/16 A3007 -110 48 1400 000/00 RMK AO2 T02780161
53915KARA ARA20190515101510405/15/19 10:15:31  5-MIN KARA 151615Z 10007KT 10SM CLR 28/17 A3007 -110 50 1400 100/07 RMK AO2 T02780167
53915KARA ARA20190515102010405/15/19 10:20:31  5-MIN KARA 151620Z 11006KT 10SM CLR 27/16 A3007 -110 48 1300 110/06 RMK AO2 T02720156
53915KARA ARA20190515102510405/15/19 10:25:31  5-MIN KARA 151625Z 00000KT 10SM CLR 27/15 A3007 -110 46 1300 000/00 RMK AO2 T02720150
53915KARA ARA20190515103010405/15/19 10:30:31  5-MIN KARA 151630Z 05003KT 10SM CLR 28/16 A3007 -110 45 1400 050/03 RMK AO2 T02830156
53915KARA ARA20190515103510405/15/19 10:35:31  5-MIN KARA 151635Z 08007KT 10SM CLR 28/16 A3007 -100 48 1400 070/07 RMK AO2 T02780161
53915KARA ARA20190515104010405/15/19 10:40:31  5-MIN KARA 151640Z 14004KT 10SM CLR 28/17 A3006 -100 50 1400 140/04 RMK AO2 T02780167
53915KARA ARA20190515104510405/15/19 10:45:31  5-MIN KARA 151645Z VRB03KT 10SM CLR 28/16 A3006 -100 48 1400 VRB/03 RMK AO2 T02780161
53915KARA ARA20190515105011105/15/19 10:50:31  5-MIN KARA 151650Z 08007KT 10SM CLR 28/16 A3006 -100 47 1400 080/07 RMK AO2 SLP179 T02830161
53915KARA ARA20190515105510405/15/19 10:55:31  5-MIN KARA 151655Z 00000KT 10SM CLR 28/15 A3006 -100 45 1400 000/00 RMK AO2 T02780150
53915KARA ARA20190515110010405/15/19 11:00:31  5-MIN KARA 151700Z 00000KT 10SM CLR 28/16 A3006 -100 45 1400 000/00 RMK AO2 T02830156
53915KARA ARA20190515110510405/15/19 11:05:31  5-MIN KARA 151705Z 11006KT 10SM CLR 28/16 A3006 -100 45 1400 110/06 RMK AO2 T02830156
53915KARA ARA20190515111010405/15/19 11:10:31  5-MIN KARA 151710Z VRB04KT 10SM CLR 28/15 A3006 -100 45 1400 VRB/04 RMK AO2 T02780150
53915KARA ARA20190515111510405/15/19 11:15:31  5-MIN KARA 151715Z VRB04KT 10SM CLR 28/16 A3006 -100 45 1500 VRB/04 RMK AO2 T02830156
53915KARA ARA20190515112010405/15/19 11:20:31  5-MIN KARA 151720Z VRB04KT 10SM CLR 28/16 A3006 -100 45 1500 VRB/04 RMK AO2 T02830156
53915KARA ARA20190515112510405/15/19 11:25:31  5-MIN KARA 151725Z 12003KT 10SM CLR 28/15 A3006 -100 43 1400 120/03 RMK AO2 T02830150
53915KARA ARA20190515113010405/15/19 11:30:31  5-MIN KARA 151730Z 09005KT 10SM CLR 29/16 A3006 -100 44 1500 090/05 RMK AO2 T02890156
53915KARA ARA20190515113510405/15/19 11:35:31  5-MIN KARA 151735Z VRB04KT 10SM CLR 28/16 A3006 -100 45 1500 VRB/04 RMK AO2 T02830156
53915KARA ARA20190515114010305/15/19 11:40:31  5-MIN KARA 151740Z 09003KT 10SM CLR 29/15 A3006 -90 42 1500 090/03 RMK AO2 T02890150
53915KARA ARA20190515114510305/15/19 11:45:31  5-MIN KARA 151745Z 00000KT 10SM CLR 28/15 A3006 -90 43 1500 000/00 RMK AO2 T02830150
53915KARA ARA20190515115012805/15/19 11:50:31  5-MIN KARA 151750Z 10005KT 10SM CLR 29/16 A3005 -90 44 1500 100/05 RMK AO2 SLP176 T02890156 10289 20189 51014
53915KARA ARA20190515115510305/15/19 11:55:31  5-MIN KARA 151755Z VRB05KT 10SM CLR 29/16 A3005 -90 44 1500 VRB/05 RMK AO2 T02890156
53915KARA ARA20190515120010305/15/19 12:00:31  5-MIN KARA 151800Z 04006KT 10SM CLR 29/16 A3005 -90 44 1600 040/06 RMK AO2 T02940161
53915KARA ARA20190515120510305/15/19 12:05:31  5-MIN KARA 151805Z VRB04KT 10SM CLR 27/16 A3005 -90 50 1300 VRB/04 RMK AO2 T02670156
53915KARA ARA20190515121009305/15/19 12:10:31  5-MIN KARA 151810Z 10SM CLR 29/16 A3005 -90 42 1600 M /M RMK AO2 T02940156
53915KARA ARA20190515121509305/15/19 12:15:31  5-MIN KARA 151815Z 10SM CLR 29/16 A3005 -90 42 1600 M /M RMK AO2 T02940156
53915KARA ARA20190515122009305/15/19 12:20:31  5-MIN KARA 151820Z 10SM CLR 29/16 A3005 -80 44 1500 M /M RMK AO2 T02890156
53915KARA ARA20190515122510305/15/19 12:25:31  5-MIN KARA 151825Z 05006KT 10SM CLR 29/16 A3004 -80 44 1600 050/06 RMK AO2 T02940161
53915KARA ARA20190515123012205/15/19 12:30:31  5-MIN KARA 151830Z VRB04KT 10SM -RA FEW055 29/16 A3004 -80 45 1500 VRB/04 RMK AO2 RAB30 P0000 T02890161
53915KARA ARA20190515123512105/15/19 12:35:31  5-MIN KARA 151835Z 00000KT 10SM FEW050 28/15 A3004 -80 43 1500 000/00 RMK AO2 RAB30E33 P0000 T02830150
53915KARA ARA20190515124012105/15/19 12:40:31  5-MIN KARA 151840Z VRB05KT 10SM FEW050 29/16 A3004 -80 45 1500 VRB/05 RMK AO2 RAB30E33 P0000 T02890161
53915KARA ARA20190515124512105/15/19 12:45:31  5-MIN KARA 151845Z 02007KT 10SM FEW050 29/16 A3004 -80 44 1600 020/07 RMK AO2 RAB30E33 P0000 T02940161
53915KARA ARA20190515125012805/15/19 12:50:31  5-MIN KARA 151850Z VRB04KT 10SM FEW050 28/16 A3004 -80 45 1500 VRB/04 RMK AO2 RAB30E33 SLP170 P0000 T02830156
53915KARA ARA20190515125510605/15/19 12:55:31  5-MIN KARA 151855Z 05005KT 10SM FEW050 29/17 A3003 -70 45 1600 050/05 RMK AO2 T02940167
53915KARA ARA20190515130010605/15/19 13:00:31  5-MIN KARA 151900Z 02005KT 10SM FEW055 29/16 A3003 -70 44 1600 020/05 RMK AO2 T02940161
53915KARA ARA20190515130511905/15/19 13:05:31  5-MIN KARA 151905Z 07007KT 010V090 10SM CLR 29/16 A3003 -70 44 1600 070/07 010V090 RMK AO2 T02940161
53915KARA ARA20190515131010305/15/19 13:10:31  5-MIN KARA 151910Z 00000KT 10SM CLR 29/16 A3003 -70 42 1600 000/00 RMK AO2 T02940156
53915KARA ARA20190515131509605/15/19 13:15:31  5-MIN KARA 151915Z 10SM FEW055 30/16 A3003 -70 42 1700 M /M RMK AO2 T03000161
53915KARA ARA20190515132010605/15/19 13:20:31  5-MIN KARA 151920Z 13005KT 10SM SCT055 30/17 A3003 -70 44 1700 130/05 RMK AO2 T03000167
53915KARA ARA20190515132510605/15/19 13:25:31  5-MIN KARA 151925Z 07009KT 10SM SCT055 29/16 A3003 -70 44 1600 070/09 RMK AO2 T02940161
53915KARA ARA20190515133010605/15/19 13:30:31  5-MIN KARA 151930Z 05006KT 10SM FEW055 29/16 A3003 -70 44 1600 050/06 RMK AO2 T02940161
53915KARA ARA20190515133510605/15/19 13:35:31  5-MIN KARA 151935Z VRB06KT 10SM FEW055 30/16 A3002 -60 42 1700 VRB/06 RMK AO2 T03000161
53915KARA ARA20190515134010605/15/19 13:40:31  5-MIN KARA 151940Z 04006KT 10SM FEW055 30/16 A3002 -60 42 1700 040/06 RMK AO2 T03000161
53915KARA ARA20190515134510605/15/19 13:45:31  5-MIN KARA 151945Z 08009KT 10SM FEW055 30/16 A3002 -60 42 1700 080/09 RMK AO2 T03000161
53915KARA ARA20190515135011005/15/19 13:50:31  5-MIN KARA 151950Z 08008KT 10SM CLR 31/16 A3002 -60 41 1700 070/08 RMK AO2 SLP164 T03060161
53915KARA ARA20190515135510305/15/19 13:55:31  5-MIN KARA 151955Z 08005KT 10SM CLR 30/16 A3002 -60 42 1700 080/05 RMK AO2 T03000161
53915KARA ARA20190515140010305/15/19 14:00:31  5-MIN KARA 152000Z 04006KT 10SM CLR 30/16 A3002 -60 42 1700 040/06 RMK AO2 T03000161
53915KARA ARA20190515140510305/15/19 14:05:31  5-MIN KARA 152005Z 06005KT 10SM CLR 29/16 A3001 -60 42 1600 060/05 RMK AO2 T02940156
53915KARA ARA20190515141010305/15/19 14:10:31  5-MIN KARA 152010Z VRB05KT 10SM CLR 30/16 A3001 -50 42 1700 VRB/05 RMK AO2 T03000161
53915KARA ARA20190515141510605/15/19 14:15:31  5-MIN KARA 152015Z 05006KT 10SM FEW060 30/16 A3001 -50 41 1700 050/06 RMK AO2 T03000156
53915KARA ARA20190515142010605/15/19 14:20:31  5-MIN KARA 152020Z 04008KT 10SM SCT055 30/17 A3001 -50 44 1700 030/08 RMK AO2 T03000167
53915KARA ARA20190515142510605/15/19 14:25:31  5-MIN KARA 152025Z 05007KT 10SM SCT055 29/17 A3001 -50 45 1600 050/07 RMK AO2 T02940167
53915KARA ARA20190515143010605/15/19 14:30:31  5-MIN KARA 152030Z 05007KT 10SM FEW055 29/16 A3000 -50 45 1600 050/07 RMK AO2 T02890161
53915KARA ARA20190515143510605/15/19 14:35:31  5-MIN KARA 152035Z 02003KT 10SM SCT060 30/17 A3000 -50 44 1700 020/03 RMK AO2 T03000167
53915KARA ARA20190515144010605/15/19 14:40:31  5-MIN KARA 152040Z VRB05KT 10SM SCT060 29/16 A3000 -40 45 1600 VRB/05 RMK AO2 T02890161
53915KARA ARA20190515144510605/15/19 14:45:31  5-MIN KARA 152045Z 04003KT 10SM FEW055 30/17 A3000 -40 44 1700 040/03 RMK AO2 T03000167
53915KARA ARA20190515145012505/15/19 14:50:31  5-MIN KARA 152050Z 00000KT 10SM FEW060 29/16 A3000 -40 44 1600 000/00 RMK AO2 SLP157 60000 T02940161 58008
53915KARA ARA20190515145510605/15/19 14:55:31  5-MIN KARA 152055Z VRB05KT 10SM FEW060 31/17 A3000 -40 42 1800 VRB/05 RMK AO2 T03060167
53915KARA ARA20190515150010605/15/19 15:00:31  5-MIN KARA 152100Z 08006KT 10SM SCT055 30/16 A2999 -40 42 1700 080/06 RMK AO2 T03000161
53915KARA ARA20190515150510605/15/19 15:05:31  5-MIN KARA 152105Z 09004KT 10SM FEW055 29/16 A2999 -40 44 1600 090/04 RMK AO2 T02940161
53915KARA ARA20190515151010605/15/19 15:10:31  5-MIN KARA 152110Z 10003KT 10SM FEW055 29/16 A2999 -30 44 1600 100/03 RMK AO2 T02890156
53915KARA ARA20190515151510605/15/19 15:15:31  5-MIN KARA 152115Z VRB05KT 10SM FEW055 29/16 A2999 -30 44 1700 VRB/05 RMK AO2 T02940161
53915KARA ARA20190515152010605/15/19 15:20:31  5-MIN KARA 152120Z VRB03KT 10SM SCT055 29/16 A2999 -30 44 1700 VRB/03 RMK AO2 T02940161
53915KARA ARA20190515152510605/15/19 15:25:31  5-MIN KARA 152125Z 12005KT 10SM SCT055 30/16 A2999 -30 42 1700 120/05 RMK AO2 T03000161
53915KARA ARA20190515153010605/15/19 15:30:31  5-MIN KARA 152130Z 10007KT 10SM SCT055 29/16 A2999 -30 42 1700 100/07 RMK AO2 T02940156
53915KARA ARA20190515153510605/15/19 15:35:31  5-MIN KARA 152135Z 11007KT 10SM SCT060 29/16 A2999 -30 45 1600 110/07 RMK AO2 T02890161
53915KARA ARA20190515154010605/15/19 15:40:31  5-MIN KARA 152140Z 08003KT 10SM BKN060 28/16 A2999 -30 47 1500 080/03 RMK AO2 T02830161
53915KARA ARA20190515154510605/15/19 15:45:31  5-MIN KARA 152145Z VRB03KT 10SM BKN060 29/16 A2999 -30 45 1600 VRB/03 RMK AO2 T02890161
53915KARA ARA20190515155012005/15/19 15:50:31  5-MIN KARA 152150Z 10005KT 10SM BKN055 BKN070 29/16 A2999 -30 44 1700 100/05 RMK AO2 SLP154 T02940161
53915KARA ARA20190515155511305/15/19 15:55:31  5-MIN KARA 152155Z 08006KT 10SM SCT055 BKN070 29/17 A2999 -30 47 1600 080/06 RMK AO2 T02890167
53915KARA ARA20190515160011305/15/19 16:00:31  5-MIN KARA 152200Z 05005KT 10SM FEW055 SCT070 29/16 A2999 -30 45 1600 050/05 RMK AO2 T02890161
53915KARA ARA20190515160511305/15/19 16:05:31  5-MIN KARA 152205Z 04004KT 10SM FEW055 SCT070 29/16 A2999 -30 44 1700 040/04 RMK AO2 T02940161
53915KARA ARA20190515161011305/15/19 16:10:31  5-MIN KARA 152210Z 07005KT 10SM FEW055 FEW070 30/16 A2999 -30 42 1700 070/05 RMK AO2 T03000161
53915KARA ARA20190515161510605/15/19 16:15:31  5-MIN KARA 152215Z VRB04KT 10SM FEW055 30/16 A2999 -30 42 1700 VRB/04 RMK AO2 T03000161
53915KARA ARA20190515162010605/15/19 16:20:31  5-MIN KARA 152220Z 10005KT 10SM SCT055 30/17 A2999 -30 44 1700 100/05 RMK AO2 T03000167
53915KARA ARA20190515162510605/15/19 16:25:31  5-MIN KARA 152225Z 11007KT 10SM SCT055 30/17 A2999 -30 44 1700 110/07 RMK AO2 T03000167
53915KARA ARA20190515163010605/15/19 16:30:31  5-MIN KARA 152230Z 06006KT 10SM BKN055 30/17 A2999 -30 44 1700 060/06 RMK AO2 T03000167
53915KARA ARA20190515163510605/15/19 16:35:31  5-MIN KARA 152235Z 07007KT 10SM SCT055 29/16 A2999 -30 44 1700 070/07 RMK AO2 T02940161
53915KARA ARA20190515164010605/15/19 16:40:31  5-MIN KARA 152240Z 09007KT 10SM SCT055 28/16 A2999 -30 47 1500 090/07 RMK AO2 T02830161
53915KARA ARA20190515164510605/15/19 16:45:31  5-MIN KARA 152245Z 11007KT 10SM SCT055 28/16 A2999 -30 47 1500 110/07 RMK AO2 T02830161
53915KARA ARA20190515165011305/15/19 16:50:31  5-MIN KARA 152250Z 10006KT 10SM FEW055 28/17 A2999 -30 48 1500 100/06 RMK AO2 SLP155 T02830167
53915KARA ARA20190515165510605/15/19 16:55:31  5-MIN KARA 152255Z 10007KT 10SM FEW060 28/16 A2999 -30 45 1500 100/07 RMK AO2 T02830156
53915KARA ARA20190515170010305/15/19 17:00:31  5-MIN KARA 152300Z 11004KT 10SM CLR 29/16 A2999 -30 45 1600 110/04 RMK AO2 T02890161
53915KARA ARA20190515170510605/15/19 17:05:31  5-MIN KARA 152305Z 13005KT 10SM FEW060 29/16 A2999 -30 44 1600 130/05 RMK AO2 T02890156
53915KARA ARA20190515171010605/15/19 17:10:31  5-MIN KARA 152310Z 10004KT 10SM FEW060 29/16 A2999 -30 45 1600 100/04 RMK AO2 T02890161
53915KARA ARA20190515171510605/15/19 17:15:31  5-MIN KARA 152315Z 10005KT 10SM SCT060 29/16 A2999 -30 45 1600 100/05 RMK AO2 T02890161
53915KARA ARA20190515172010605/15/19 17:20:31  5-MIN KARA 152320Z VRB04KT 10SM BKN060 29/16 A2999 -30 45 1600 VRB/04 RMK AO2 T02890161
53915KARA ARA20190515172510605/15/19 17:25:31  5-MIN KARA 152325Z 11006KT 10SM BKN060 29/16 A2999 -30 45 1600 110/06 RMK AO2 T02890161
53915KARA ARA20190515173010605/15/19 17:30:31  5-MIN KARA 152330Z 10006KT 10SM SCT060 28/16 A2999 -30 47 1500 090/06 RMK AO2 T02830161
53915KARA ARA20190515173510605/15/19 17:35:31  5-MIN KARA 152335Z 14005KT 10SM SCT060 28/16 A2999 -30 47 1500 130/05 RMK AO2 T02830161
53915KARA ARA20190515174010605/15/19 17:40:31  5-MIN KARA 152340Z 19005KT 10SM SCT060 28/18 A2999 -30 54 1500 190/05 RMK AO2 T02780178
53915KARA ARA20190515174510605/15/19 17:45:31  5-MIN KARA 152345Z 21006KT 10SM FEW060 28/18 A2999 -30 56 1500 210/06 RMK AO2 T02780183
53915KARA ARA20190515175013705/15/19 17:50:31  5-MIN KARA 152350Z 21006KT 10SM FEW060 27/19 A2999 -30 60 1400 200/06 RMK AO2 SLP154 60000 T02720189 10306 20267 58018
53915KARA ARA20190515175510305/15/19 17:55:31  5-MIN KARA 152355Z 21008KT 10SM CLR 27/18 A2999 -30 58 1400 200/08 RMK AO2 T02720183
53915KARA ARA20190515180010305/15/19 18:00:31  5-MIN KARA 160000Z 21008KT 10SM CLR 27/18 A2999 -40 58 1400 210/08 RMK AO2 T02720183
53915KARA ARA20190515180510305/15/19 18:05:31  5-MIN KARA 160005Z 20007KT 10SM CLR 27/18 A2999 -40 58 1400 200/07 RMK AO2 T02720183
53915KARA ARA20190515181010305/15/19 18:10:31  5-MIN KARA 160010Z 20008KT 10SM CLR 27/18 A2999 -40 60 1300 200/08 RMK AO2 T02670183
53915KARA ARA20190515181510305/15/19 18:15:31  5-MIN KARA 160015Z 20007KT 10SM CLR 27/18 A3000 -40 60 1300 200/07 RMK AO2 T02670183
53915KARA ARA20190515182010305/15/19 18:20:31  5-MIN KARA 160020Z 20006KT 10SM CLR 27/18 A2999 -40 60 1300 190/06 RMK AO2 T02670183
53915KARA ARA20190517133010105/17/19 13:30:31  5-MIN KARA 171930Z 19010KT 10SM CLR 29/21 A2995 0 60 1600 190/10 RMK AO2 T02890206
53915KARA ARA20190517133510105/17/19 13:35:31  5-MIN KARA 171935Z 19012KT 10SM CLR 29/21 A2995 0 60 1600 190/12 RMK AO2 T02890206
53915KARA ARA20190517134010705/17/19 13:40:31  5-MIN KARA 171940Z 15012G17KT 10SM CLR 29/21 A2995 0 58 1700 150/12G17 RMK AO2 T02940206
53915KARA ARA20190517134510705/17/19 13:45:31  5-MIN KARA 171945Z 15010G17KT 10SM CLR 29/20 A2995 0 56 1700 150/10G17 RMK AO2 T02940200
53915KARA ARA20190517135011405/17/19 13:50:31  5-MIN KARA 171950Z 16013G19KT 10SM CLR 29/20 A2995 0 56 1700 160/13G19 RMK AO2 SLP141 T02940200
53915KARA ARA20190517135510705/17/19 13:55:31  5-MIN KARA 171955Z 17012G19KT 10SM CLR 29/19 A2995 0 56 1600 170/12G19 RMK AO2 T02890194
53915KARA ARA20190517140010105/17/19 14:00:31  5-MIN KARA 172000Z 18012KT 10SM CLR 29/20 A2995 0 56 1700 170/12 RMK AO2 T02940200
53915KARA ARA20190517140510105/17/19 14:05:31  5-MIN KARA 172005Z 17010KT 10SM CLR 29/20 A2994 0 56 1700 170/10 RMK AO2 T02940200
53915KARA ARA20190517141010805/17/19 14:10:31  5-MIN KARA 172010Z 14011G16KT 10SM CLR 29/21 A2994 10 58 1700 140/11G16 RMK AO2 T02940206
53915KARA ARA20190517141510805/17/19 14:15:31  5-MIN KARA 172015Z 15011G16KT 10SM CLR 29/21 A2994 10 58 1700 150/11G16 RMK AO2 T02940206
53915KARA ARA20190517142010205/17/19 14:20:31  5-MIN KARA 172020Z 17010KT 10SM CLR 29/20 A2994 10 58 1600 170/10 RMK AO2 T02890200
53915KARA ARA20190517142510205/17/19 14:25:31  5-MIN KARA 172025Z 16011KT 10SM CLR 29/20 A2994 10 56 1700 160/11 RMK AO2 T02940200
53915KARA ARA20190517143010805/17/19 14:30:31  5-MIN KARA 172030Z 17013G18KT 10SM CLR 29/20 A2994 10 56 1700 170/13G18 RMK AO2 T02940200
53915KARA ARA20190517143510805/17/19 14:35:31  5-MIN KARA 172035Z 16011G18KT 10SM CLR 29/20 A2994 10 56 1700 160/11G18 RMK AO2 T02940200
53915KARA ARA20190517144010205/17/19 14:40:31  5-MIN KARA 172040Z 16012KT 10SM CLR 29/20 A2994 10 56 1700 160/12 RMK AO2 T02940200
53915KARA ARA20190517144510805/17/19 14:45:31  5-MIN KARA 172045Z 19008G17KT 10SM CLR 29/21 A2994 10 58 1700 190/08G17 RMK AO2 T02940206
53915KARA ARA20190517145012105/17/19 14:50:31  5-MIN KARA 172050Z 16012G17KT 10SM CLR 29/21 A2993 10 58 1700 160/12G17 RMK AO2 SLP135 T02940206 58007
53915KARA ARA20190517145510205/17/19 14:55:31  5-MIN KARA 172055Z 18011KT 10SM CLR 29/21 A2993 20 58 1700 170/11 RMK AO2 T02940206
53915KARA ARA20190517150010205/17/19 15:00:31  5-MIN KARA 172100Z 18012KT 10SM CLR 29/20 A2993 20 58 1700 180/12 RMK AO2 T02890200
53915KARA ARA20190517150510805/17/19 15:05:31  5-MIN KARA 172105Z 19014G18KT 10SM CLR 29/21 A2993 20 60 1700 190/14G18 RMK AO2 T02890206
53915KARA ARA20190517151010505/17/19 15:10:31  5-MIN KARA 172110Z 16012KT 10SM FEW033 29/21 A2993 20 60 1700 160/12 RMK AO2 T02890206
53915KARA ARA20190517151510505/17/19 15:15:31  5-MIN KARA 172115Z 17014KT 10SM FEW033 29/21 A2993 20 60 1700 170/14 RMK AO2 T02890206
53915KARA ARA20190517152010205/17/19 15:20:31  5-MIN KARA 172120Z 19012KT 10SM CLR 28/20 A2993 20 60 1600 190/12 RMK AO2 T02830200
53915KARA ARA20190517152510205/17/19 15:25:31  5-MIN KARA 172125Z 19012KT 10SM CLR 28/21 A2993 20 62 1600 190/12 RMK AO2 T02830206
53915KARA ARA20190517153010805/17/19 15:30:31  5-MIN KARA 172130Z 18009G18KT 10SM CLR 28/20 A2993 20 60 1600 180/09G18 RMK AO2 T02830200
53915KARA ARA20190517153510205/17/19 15:35:31  5-MIN KARA 172135Z 19011KT 10SM CLR 28/21 A2993 20 62 1600 190/11 RMK AO2 T02830206
53915KARA ARA20190517154010205/17/19 15:40:31  5-MIN KARA 172140Z 18011KT 10SM CLR 28/21 A2993 20 62 1600 180/11 RMK AO2 T02830206
53915KARA ARA20190517154510205/17/19 15:45:31  5-MIN KARA 172145Z 17013KT 10SM CLR 28/21 A2993 20 62 1600 160/13 RMK AO2 T02830206
53915KARA ARA20190517155010905/17/19 15:50:31  5-MIN KARA 172150Z 17012KT 10SM CLR 29/21 A2993 20 60 1700 170/12 RMK AO2 SLP133 T02890206
53915KARA ARA20190517155510205/17/19 15:55:31  5-MIN KARA 172155Z 17011KT 10SM CLR 28/21 A2992 20 62 1600 170/11 RMK AO2 T02830206
53915KARA ARA20190517160010205/17/19 16:00:31  5-MIN KARA 172200Z 18012KT 10SM CLR 28/21 A2992 20 62 1600 180/12 RMK AO2 T02830206
53915KARA ARA20190517160510205/17/19 16:05:31  5-MIN KARA 172205Z 17013KT 10SM CLR 28/21 A2992 20 62 1600 170/13 RMK AO2 T02830206
53915KARA ARA20190517161010205/17/19 16:10:31  5-MIN KARA 172210Z 17013KT 10SM CLR 28/21 A2992 20 62 1600 170/13 RMK AO2 T02830206
53915KARA ARA20190517161510205/17/19 16:15:31  5-MIN KARA 172215Z 18013KT 10SM CLR 28/20 A2992 20 60 1600 170/13 RMK AO2 T02830200
53915KARA ARA20190517162010205/17/19 16:20:31  5-MIN KARA 172220Z 18012KT 10SM CLR 28/21 A2992 30 62 1600 180/12 RMK AO2 T02830206
53915KARA ARA20190517162510205/17/19 16:25:31  5-MIN KARA 172225Z 19012KT 10SM CLR 28/21 A2992 30 62 1600 190/12 RMK AO2 T02830206
53915KARA ARA20190517163010205/17/19 16:30:31  5-MIN KARA 172230Z 18013KT 10SM CLR 28/21 A2992 30 62 1600 180/13 RMK AO2 T02830206
53915KARA ARA20190517163510205/17/19 16:35:31  5-MIN KARA 172235Z 18011KT 10SM CLR 28/21 A2992 20 62 1600 180/11 RMK AO2 T02830206
53915KARA ARA20190517164010205/17/19 16:40:31  5-MIN KARA 172240Z 17014KT 10SM CLR 28/21 A2992 20 62 1600 170/14 RMK AO2 T02830206
53915KARA ARA20190517164510205/17/19 16:45:31  5-MIN KARA 172245Z 18012KT 10SM CLR 28/21 A2992 30 62 1600 180/12 RMK AO2 T02830206
53915KARA ARA20190517165010905/17/19 16:50:31  5-MIN KARA 172250Z 17015KT 10SM CLR 28/20 A2992 30 62 1500 170/15 RMK AO2 SLP130 T02780200
53915KARA ARA20190517165510205/17/19 16:55:31  5-MIN KARA 172255Z 18011KT 10SM CLR 28/20 A2992 30 62 1500 180/11 RMK AO2 T02780200
53915KARA ARA20190517170010205/17/19 17:00:31  5-MIN KARA 172300Z 17012KT 10SM CLR 28/21 A2992 30 64 1600 170/12 RMK AO2 T02780206
53915KARA ARA20190517170510205/17/19 17:05:31  5-MIN KARA 172305Z 17013KT 10SM CLR 28/21 A2991 30 64 1600 170/13 RMK AO2 T02780206
53915KARA ARA20190517171010205/17/19 17:10:31  5-MIN KARA 172310Z 18013KT 10SM CLR 28/21 A2991 30 64 1600 180/13 RMK AO2 T02780206
53915KARA ARA20190517171510205/17/19 17:15:31  5-MIN KARA 172315Z 17015KT 10SM CLR 27/20 A2991 30 64 1500 170/15 RMK AO2 T02720200
53915KARA ARA20190517172010205/17/19 17:20:31  5-MIN KARA 172320Z 17012KT 10SM CLR 27/20 A2991 30 64 1500 170/12 RMK AO2 T02720200
53915KARA ARA20190517172510205/17/19 17:25:31  5-MIN KARA 172325Z 17010KT 10SM CLR 27/20 A2991 30 64 1500 170/10 RMK AO2 T02720200
53915KARA ARA20190517173010205/17/19 17:30:31  5-MIN KARA 172330Z 18013KT 10SM CLR 27/21 A2991 30 66 1500 180/13 RMK AO2 T02720206
53915KARA ARA20190517173510205/17/19 17:35:31  5-MIN KARA 172335Z 18012KT 10SM CLR 27/20 A2991 30 64 1500 180/12 RMK AO2 T02720200
53915KARA ARA20190517174010205/17/19 17:40:31  5-MIN KARA 172340Z 17013KT 10SM CLR 27/20 A2991 40 66 1400 170/13 RMK AO2 T02670200
53915KARA ARA20190517174510205/17/19 17:45:31  5-MIN KARA 172345Z 16011KT 10SM CLR 27/20 A2991 40 66 1400 160/11 RMK AO2 T02670200
53915KARA ARA20190517175012705/17/19 17:50:31  5-MIN KARA 172350Z 18011KT 10SM CLR 27/21 A2991 40 69 1400 170/11 RMK AO2 SLP127 T02670206 10294 20267 58013
53915KARA ARA20190517175510205/17/19 17:55:31  5-MIN KARA 172355Z 17011KT 10SM CLR 27/21 A2991 40 69 1400 170/11 RMK AO2 T02670206
53915KARA ARA20190517180010205/17/19 18:00:31  5-MIN KARA 180000Z 15015KT 10SM CLR 27/21 A2991 40 69 1400 150/15 RMK AO2 T02670206
53915KARA ARA20190517180510205/17/19 18:05:31  5-MIN KARA 180005Z 16011KT 10SM CLR 27/21 A2991 40 69 1400 160/11 RMK AO2 T02670206
53915KARA ARA20190517181010205/17/19 18:10:31  5-MIN KARA 180010Z 17011KT 10SM CLR 26/21 A2991 30 71 1400 170/11 RMK AO2 T02610206
53915KARA ARA20190517181510205/17/19 18:15:31  5-MIN KARA 180015Z 17013KT 10SM CLR 26/21 A2991 30 71 1400 170/13 RMK AO2 T02610206
53915KARA ARA20190517182010205/17/19 18:20:31  5-MIN KARA 180020Z 17012KT 10SM CLR 26/21 A2991 30 71 1400 170/12 RMK AO2 T02610206
53915KARA ARA20190517182510205/17/19 18:25:31  5-MIN KARA 180025Z 18010KT 10SM CLR 26/21 A2991 30 71 1400 170/10 RMK AO2 T02610206
53915KARA ARA20190517183010205/17/19 18:30:31  5-MIN KARA 180030Z 17008KT 10SM CLR 26/21 A2991 30 73 1300 170/08 RMK AO2 T02560206
53915KARA ARA20190517183510205/17/19 18:35:31  5-MIN KARA 180035Z 18011KT 10SM CLR 26/21 A2991 30 73 1300 170/11 RMK AO2 T02560206
53915KARA ARA20190517184010205/17/19 18:40:31  5-MIN KARA 180040Z 18011KT 10SM CLR 26/21 A2991 30 73 1300 170/11 RMK AO2 T02560206
53915KARA ARA20190517184510205/17/19 18:45:31  5-MIN KARA 180045Z 18009KT 10SM CLR 26/21 A2992 30 73 1300 180/09 RMK AO2 T02560206
53915KARA ARA20190517185010905/17/19 18:50:31  5-MIN KARA 180050Z 18008KT 10SM CLR 25/21 A2992 30 76 1200 170/08 RMK AO2 SLP130 T02500206
53915KARA ARA20190517185510205/17/19 18:55:31  5-MIN KARA 180055Z 17007KT 10SM CLR 25/21 A2992 30 76 1200 170/07 RMK AO2 T02500206
53915KARA ARA20190517190010205/17/19 19:00:31  5-MIN KARA 180100Z 18009KT 10SM CLR 25/21 A2992 30 76 1200 180/09 RMK AO2 T02500206
53915KARA ARA20190517190510205/17/19 19:05:31  5-MIN KARA 180105Z 18008KT 10SM CLR 25/21 A2992 30 79 1200 170/08 RMK AO2 T02500211
53915KARA ARA20190517191010205/17/19 19:10:31  5-MIN KARA 180110Z 18008KT 10SM CLR 25/21 A2992 30 79 1200 180/08 RMK AO2 T02500211
53915KARA ARA20190517191510205/17/19 19:15:31  5-MIN KARA 180115Z 18007KT 10SM CLR 24/21 A2992 30 81 1200 180/07 RMK AO2 T02440211
53915KARA ARA20190517192010205/17/19 19:20:31  5-MIN KARA 180120Z 18007KT 10SM CLR 24/21 A2992 30 81 1200 180/07 RMK AO2 T02440211
53915KARA ARA20190517192510505/17/19 19:25:31  5-MIN KARA 180125Z 17007KT 10SM FEW032 24/21 A2992 30 81 1200 170/07 RMK AO2 T02440211
53915KARA ARA20190517193010505/17/19 19:30:31  5-MIN KARA 180130Z 17007KT 10SM FEW032 24/21 A2992 30 81 1200 170/07 RMK AO2 T02440211
53915KARA ARA20190517193511005/17/19 19:35:31  5-MIN KARA 180135Z AUTO 17008KT 10SM SCT032 24/21 A2992 30 81 1200 170/08 RMK AO2 T02440211
53915KARA ARA20190517194011005/17/19 19:40:31  5-MIN KARA 180140Z AUTO 17006KT 10SM FEW033 24/21 A2992 30 81 1200 170/06 RMK AO2 T02440211
53915KARA ARA20190517194511005/17/19 19:45:31  5-MIN KARA 180145Z AUTO 16007KT 10SM FEW033 24/21 A2992 20 81 1200 160/07 RMK AO2 T02440211
53915KARA ARA20190517195012405/17/19 19:50:31  5-MIN KARA 180150Z AUTO 16008KT 10SM FEW027 FEW033 24/21 A2992 20 81 1200 160/08 RMK AO2 SLP132 T02440211
53915KARA ARA20190517195511705/17/19 19:55:31  5-MIN KARA 180155Z AUTO 16007KT 10SM FEW027 FEW033 24/21 A2992 20 84 1100 160/07 RMK AO2 T02390211
53915KARA ARA20190517200010705/17/19 20:00:31  5-MIN KARA 180200Z AUTO 16007KT 10SM CLR 24/21 A2992 20 84 1100 160/07 RMK AO2 T02390211
53915KARA ARA20190517200510705/17/19 20:05:31  5-MIN KARA 180205Z AUTO 16008KT 10SM CLR 24/21 A2992 20 84 1100 160/08 RMK AO2 T02390211
53915KARA ARA20190517201010705/17/19 20:10:31  5-MIN KARA 180210Z AUTO 16007KT 10SM CLR 24/21 A2992 20 84 1100 150/07 RMK AO2 T02390211
53915KARA ARA20190517201510705/17/19 20:15:31  5-MIN KARA 180215Z AUTO 15006KT 10SM CLR 24/21 A2992 20 84 1100 150/06 RMK AO2 T02390211
53915KARA ARA20190517202010705/17/19 20:20:31  5-MIN KARA 180220Z AUTO 15007KT 10SM CLR 23/21 A2993 20 87 1000 150/07 RMK AO2 T02330211
53915KARA ARA20190517202511005/17/19 20:25:31  5-MIN KARA 180225Z AUTO 15007KT 10SM FEW025 23/21 A2993 20 87 1000 150/07 RMK AO2 T02330211
53915KARA ARA20190517203011005/17/19 20:30:31  5-MIN KARA 180230Z AUTO 15007KT 10SM FEW025 24/21 A2993 20 84 1100 150/07 RMK AO2 T02390211
53915KARA ARA20190517203511005/17/19 20:35:31  5-MIN KARA 180235Z AUTO 15007KT 10SM FEW025 24/21 A2993 20 84 1100 150/07 RMK AO2 T02390211
53915KARA ARA20190517204011005/17/19 20:40:31  5-MIN KARA 180240Z AUTO 14006KT 10SM FEW025 23/21 A2993 20 87 1000 140/06 RMK AO2 T02330211
53915KARA ARA20190517204511005/17/19 20:45:31  5-MIN KARA 180245Z AUTO 14006KT 10SM FEW025 23/21 A2993 20 87 1000 140/06 RMK AO2 T02330211
53915KARA ARA20190517205012305/17/19 20:50:31  5-MIN KARA 180250Z AUTO 13007KT 10SM FEW025 23/21 A2993 20 87 1000 130/07 RMK AO2 SLP135 T02330211 56007
53915KARA ARA20190517205510705/17/19 20:55:31  5-MIN KARA 180255Z AUTO 14007KT 10SM CLR 23/21 A2993 20 87 1000 140/07 RMK AO2 T02330211
53915KARA ARA20190517210010705/17/19 21:00:31  5-MIN KARA 180300Z AUTO 14007KT 10SM CLR 23/21 A2993 20 87 1000 130/07 RMK AO2 T02330211
53915KARA ARA20190517210510705/17/19 21:05:31  5-MIN KARA 180305Z AUTO 14007KT 10SM CLR 23/21 A2993 20 87 1000 130/07 RMK AO2 T02330211
53915KARA ARA20190517211010705/17/19 21:10:31  5-MIN KARA 180310Z AUTO 13006KT 10SM CLR 23/21 A2993 10 87 1000 130/06 RMK AO2 T02330211
53915KARA ARA20190517211510705/17/19 21:15:31  5-MIN KARA 180315Z AUTO 13006KT 10SM CLR 23/21 A2993 10 90 1000 130/06 RMK AO2 T02280211
53915KARA ARA20190517212010705/17/19 21:20:31  5-MIN KARA 180320Z AUTO 13007KT 10SM CLR 23/21 A2994 10 90 1000 130/07 RMK AO2 T02280211
53915KARA ARA20190517212510705/17/19 21:25:31  5-MIN KARA 180325Z AUTO 13007KT 10SM CLR 23/21 A2993 10 87 1000 130/07 RMK AO2 T02330211
53915KARA ARA20190517213010705/17/19 21:30:31  5-MIN KARA 180330Z AUTO 13007KT 10SM CLR 23/21 A2993 10 87 1000 130/07 RMK AO2 T02330211
53915KARA ARA20190517213510705/17/19 21:35:31  5-MIN KARA 180335Z AUTO 13008KT 10SM CLR 23/21 A2994 10 87 1000 130/08 RMK AO2 T02330211
53915KARA ARA20190517214010705/17/19 21:40:31  5-MIN KARA 180340Z AUTO 13007KT 10SM CLR 23/21 A2993 10 90 1000 130/07 RMK AO2 T02280211
53915KARA ARA20190517214510705/17/19 21:45:31  5-MIN KARA 180345Z AUTO 13007KT 10SM CLR 23/21 A2993 10 90 1000 130/07 RMK AO2 T02280211
53915KARA ARA20190517215011405/17/19 21:50:31  5-MIN KARA 180350Z AUTO 13008KT 10SM CLR 23/21 A2994 10 87 1000 130/08 RMK AO2 SLP136 T02330211
53915KARA ARA20190517215510705/17/19 21:55:31  5-MIN KARA 180355Z AUTO 12008KT 10SM CLR 23/21 A2993 10 84 1000 120/08 RMK AO2 T02330206
53915KARA ARA20190517220010705/17/19 22:00:31  5-MIN KARA 180400Z AUTO 13006KT 10SM CLR 23/21 A2993 10 87 1000 130/06 RMK AO2 T02280206
53915KARA ARA20190517220510705/17/19 22:05:31  5-MIN KARA 180405Z AUTO 13007KT 10SM CLR 23/21 A2993 20 84 1000 130/07 RMK AO2 T02330206
53915KARA ARA20190517221010705/17/19 22:10:31  5-MIN KARA 180410Z AUTO 13007KT 10SM CLR 23/21 A2993 20 87 1000 130/07 RMK AO2 T02280206
53915KARA ARA20190517221510705/17/19 22:15:31  5-MIN KARA 180415Z AUTO 12008KT 10SM CLR 23/21 A2993 20 87 1000 120/08 RMK AO2 T02280206
53915KARA ARA20190517222010705/17/19 22:20:31  5-MIN KARA 180420Z AUTO 11008KT 10SM CLR 23/21 A2993 20 87 1000 110/08 RMK AO2 T02280206
53915KARA ARA20190517222510705/17/19 22:25:31  5-MIN KARA 180425Z AUTO 11007KT 10SM CLR 23/21 A2992 20 87 1000 110/07 RMK AO2 T02280206
53915KARA ARA20190517223010705/17/19 22:30:31  5-MIN KARA 180430Z AUTO 12009KT 10SM CLR 23/21 A2992 20 87 1000 120/09 RMK AO2 T02280206
53915KARA ARA20190517223510705/17/19 22:35:31  5-MIN KARA 180435Z AUTO 12007KT 10SM CLR 23/21 A2992 20 87 1000 120/07 RMK AO2 T02280206
53915KARA ARA20190517224010705/17/19 22:40:31  5-MIN KARA 180440Z AUTO 12008KT 10SM CLR 23/21 A2992 20 87 1000 120/08 RMK AO2 T02280206
53915KARA ARA20190517224510605/17/19 22:45:31  5-MIN KARA 180445Z AUTO 12008KT 10SM CLR 22/21 A2992 20 90 900 120/08 RMK AO2 T02220206
53915KARA ARA20190517225011405/17/19 22:50:31  5-MIN KARA 180450Z AUTO 13008KT 10SM CLR 23/21 A2992 20 87 1000 130/08 RMK AO2 SLP132 T02280206
53915KARA ARA20190517225510705/17/19 22:55:31  5-MIN KARA 180455Z AUTO 14007KT 10SM CLR 23/21 A2992 20 87 1000 130/07 RMK AO2 T02280206
53915KARA ARA20190517230010705/17/19 23:00:31  5-MIN KARA 180500Z AUTO 14007KT 10SM CLR 23/21 A2993 20 87 1000 140/07 RMK AO2 T02280206
53915KARA ARA20190517230510605/17/19 23:05:31  5-MIN KARA 180505Z AUTO 14007KT 10SM CLR 22/21 A2993 20 90 900 140/07 RMK AO2 T02220206
53915KARA ARA20190517231010605/17/19 23:10:31  5-MIN KARA 180510Z AUTO 13006KT 10SM CLR 22/21 A2993 20 90 900 130/06 RMK AO2 T02220206
53915KARA ARA20190517231510605/17/19 23:15:31  5-MIN KARA 180515Z AUTO 14007KT 10SM CLR 22/20 A2993 20 87 900 140/07 RMK AO2 T02220200
53915KARA ARA20190517232010605/17/19 23:20:31  5-MIN KARA 180520Z AUTO 14006KT 10SM CLR 22/20 A2993 20 87 900 140/06 RMK AO2 T02220200
53915KARA ARA20190517232510605/17/19 23:25:31  5-MIN KARA 180525Z AUTO 14007KT 10SM CLR 22/20 A2993 20 90 800 140/07 RMK AO2 T02170200
53915KARA ARA20190517233010605/17/19 23:30:31  5-MIN KARA 180530Z AUTO 14007KT 10SM CLR 22/20 A2993 20 90 800 130/07 RMK AO2 T02170200
53915KARA ARA20190517233510605/17/19 23:35:31  5-MIN KARA 180535Z AUTO 13007KT 10SM CLR 22/21 A2993 20 93 800 130/07 RMK AO2 T02170206
53915KARA ARA20190518003510605/18/19 00:35:31  5-MIN KARA 180635Z AUTO 14003KT 10SM CLR 21/20 A2991 30 93 800 140/03 RMK AO2 T02110200
53915KARA ARA20190518004010605/18/19 00:40:31  5-MIN KARA 180640Z AUTO 13004KT 10SM CLR 21/20 A2991 30 93 800 130/04 RMK AO2 T02110200
53915KARA ARA20190518004510605/18/19 00:45:31  5-MIN KARA 180645Z AUTO 14003KT 10SM CLR 21/20 A2991 40 97 700 140/03 RMK AO2 T02060200
53915KARA ARA20190518005011305/18/19 00:50:31  5-MIN KARA 180650Z AUTO 15005KT 10SM CLR 21/20 A2991 40 93 800 150/05 RMK AO2 SLP127 T02110200
53915KARA ARA20190518005510605/18/19 00:55:31  5-MIN KARA 180655Z AUTO 14005KT 10SM CLR 21/20 A2991 40 93 800 130/05 RMK AO2 T02110200
53915KARA ARA20190518010010605/18/19 01:00:31  5-MIN KARA 180700Z AUTO 13005KT 10SM CLR 21/20 A2991 40 93 800 130/05 RMK AO2 T02110200
53915KARA ARA20190518010510605/18/19 01:05:31  5-MIN KARA 180705Z AUTO 13004KT 10SM CLR 21/20 A2991 40 93 800 130/04 RMK AO2 T02110200
53915KARA ARA20190518011010605/18/19 01:10:31  5-MIN KARA 180710Z AUTO 14005KT 10SM CLR 21/21 A2991 40 97 800 140/05 RMK AO2 T02110206
53915KARA ARA20190518011510605/18/19 01:15:31  5-MIN KARA 180715Z AUTO 13005KT 10SM CLR 21/20 A2990 40 93 800 130/05 RMK AO2 T02110200
53915KARA ARA20190518012010605/18/19 01:20:31  5-MIN KARA 180720Z AUTO 12005KT 10SM CLR 21/21 A2990 40 97 800 120/05 RMK AO2 T02110206
53915KARA ARA20190518012510605/18/19 01:25:31  5-MIN KARA 180725Z AUTO 12006KT 10SM CLR 21/21 A2990 50 97 800 120/06 RMK AO2 T02110206
53915KARA ARA20190518013010605/18/19 01:30:31  5-MIN KARA 180730Z AUTO 13006KT 10SM CLR 22/21 A2990 50 93 900 120/06 RMK AO2 T02170206
53915KARA ARA20190518013510605/18/19 01:35:31  5-MIN KARA 180735Z AUTO 12006KT 10SM CLR 22/21 A2989 50 93 900 120/06 RMK AO2 T02170206
53915KARA ARA20190518014010605/18/19 01:40:31  5-MIN KARA 180740Z AUTO 13007KT 10SM CLR 22/21 A2989 50 93 900 120/07 RMK AO2 T02170206
53915KARA ARA20190518014510605/18/19 01:45:31  5-MIN KARA 180745Z AUTO 13006KT 10SM CLR 22/21 A2989 50 93 900 130/06 RMK AO2 T02170206
53915KARA ARA20190518015011305/18/19 01:50:31  5-MIN KARA 180750Z AUTO 13006KT 10SM CLR 22/21 A2990 50 93 900 130/06 RMK AO2 SLP123 T02170206
53915KARA ARA20190518015510605/18/19 01:55:31  5-MIN KARA 180755Z AUTO 13005KT 10SM CLR 22/21 A2990 50 93 900 130/05 RMK AO2 T02170206
53915KARA ARA20190518020010605/18/19 02:00:31  5-MIN KARA 180800Z AUTO 14006KT 10SM CLR 22/21 A2990 50 93 900 140/06 RMK AO2 T02170206
53915KARA ARA20190518020510605/18/19 02:05:31  5-MIN KARA 180805Z AUTO 14005KT 10SM CLR 22/21 A2989 50 93 900 130/05 RMK AO2 T02170206
53915KARA ARA20190518021010605/18/19 02:10:31  5-MIN KARA 180810Z AUTO 14006KT 10SM CLR 21/21 A2989 50 97 800 140/06 RMK AO2 T02110206
53915KARA ARA20190518021510605/18/19 02:15:31  5-MIN KARA 180815Z AUTO 14006KT 10SM CLR 21/21 A2989 50 97 800 140/06 RMK AO2 T02110206
53915KARA ARA20190518022010605/18/19 02:20:31  5-MIN KARA 180820Z AUTO 14006KT 10SM CLR 22/21 A2989 50 93 900 130/06 RMK AO2 T02170206
53915KARA ARA20190518022510605/18/19 02:25:31  5-MIN KARA 180825Z AUTO 13006KT 10SM CLR 21/21 A2989 50 97 800 130/06 RMK AO2 T02110206
53915KARA ARA20190518023010605/18/19 02:30:31  5-MIN KARA 180830Z AUTO 13007KT 10SM CLR 22/21 A2989 50 93 900 130/07 RMK AO2 T02170206
53915KARA ARA20190518023510605/18/19 02:35:31  5-MIN KARA 180835Z AUTO 14006KT 10SM CLR 22/21 A2989 50 93 900 130/06 RMK AO2 T02170206
53915KARA ARA20190518024010605/18/19 02:40:31  5-MIN KARA 180840Z AUTO 14007KT 10SM CLR 22/21 A2989 50 93 900 130/07 RMK AO2 T02170206
53915KARA ARA20190518024510605/18/19 02:45:31  5-MIN KARA 180845Z AUTO 14007KT 10SM CLR 22/21 A2989 50 93 900 140/07 RMK AO2 T02170206
53915KARA ARA20190518025011905/18/19 02:50:31  5-MIN KARA 180850Z AUTO 14006KT 10SM CLR 22/21 A2989 50 93 900 140/06 RMK AO2 SLP122 T02170206 55001
53915KARA ARA20190518025510605/18/19 02:55:31  5-MIN KARA 180855Z AUTO 14006KT 10SM CLR 21/21 A2989 50 97 800 140/06 RMK AO2 T02110206
53915KARA ARA20190518030010605/18/19 03:00:31  5-MIN KARA 180900Z AUTO 14006KT 10SM CLR 21/21 A2990 50 97 800 130/06 RMK AO2 T02110206
53915KARA ARA20190518030510605/18/19 03:05:31  5-MIN KARA 180905Z AUTO 13006KT 10SM CLR 22/21 A2989 50 93 900 130/06 RMK AO2 T02170206
53915KARA ARA20190518031010605/18/19 03:10:31  5-MIN KARA 180910Z AUTO 13006KT 10SM CLR 22/21 A2989 50 93 900 130/06 RMK AO2 T02170206
53915KARA ARA20190518031510605/18/19 03:15:31  5-MIN KARA 180915Z AUTO 13006KT 10SM CLR 22/21 A2989 50 93 900 130/06 RMK AO2 T02170206
53915KARA ARA20190518032010605/18/19 03:20:31  5-MIN KARA 180920Z AUTO 13006KT 10SM CLR 22/21 A2989 50 93 900 130/06 RMK AO2 T02170206
53915KARA ARA20190518032510605/18/19 03:25:31  5-MIN KARA 180925Z AUTO 12007KT 10SM CLR 22/21 A2989 60 97 900 120/07 RMK AO2 T02170211
53915KARA ARA20190518033010605/18/19 03:30:31  5-MIN KARA 180930Z AUTO 13006KT 10SM CLR 22/21 A2989 60 97 900 130/06 RMK AO2 T02170211
53915KARA ARA20190518033510605/18/19 03:35:31  5-MIN KARA 180935Z AUTO 13005KT 10SM CLR 22/21 A2989 60 97 900 130/05 RMK AO2 T02170211
53915KARA ARA20190518034010705/18/19 03:40:31  5-MIN KARA 180940Z AUTO 13005KT 10SM CLR 21/21 A2989 50 100 800 130/05 RMK AO2 T02110211
53915KARA ARA20190518034510605/18/19 03:45:31  5-MIN KARA 180945Z AUTO 12005KT 10SM CLR 21/21 A2989 50 97 800 120/05 RMK AO2 T02110206
53915KARA ARA20190518035011405/18/19 03:50:31  5-MIN KARA 180950Z AUTO 12005KT 10SM CLR 21/21 A2989 50 100 800 120/05 RMK AO2 SLP121 T02110211
53915KARA ARA20190518035510605/18/19 03:55:31  5-MIN KARA 180955Z AUTO 12006KT 10SM CLR 22/21 A2989 50 97 900 120/06 RMK AO2 T02170211
53915KARA ARA20190518040010605/18/19 04:00:31  5-MIN KARA 181000Z AUTO 13006KT 10SM CLR 22/21 A2989 50 97 900 130/06 RMK AO2 T02170211
53915KARA ARA20190518040510605/18/19 04:05:31  5-MIN KARA 181005Z AUTO 12005KT 10SM CLR 22/21 A2989 60 97 900 120/05 RMK AO2 T02170211
53915KARA ARA20190518041010605/18/19 04:10:31  5-MIN KARA 181010Z AUTO 12006KT 10SM CLR 22/21 A2989 50 97 900 120/06 RMK AO2 T02170211
53915KARA ARA20190518041510605/18/19 04:15:31  5-MIN KARA 181015Z AUTO 13005KT 10SM CLR 22/21 A2989 50 97 900 130/05 RMK AO2 T02170211
53915KARA ARA20190518042010605/18/19 04:20:31  5-MIN KARA 181020Z AUTO 13005KT 10SM CLR 22/21 A2989 50 97 900 130/05 RMK AO2 T02170211
53915KARA ARA20190518042510605/18/19 04:25:31  5-MIN KARA 181025Z AUTO 13005KT 10SM CLR 22/21 A2989 50 97 900 130/05 RMK AO2 T02170211
53915KARA ARA20190518043010905/18/19 04:30:31  5-MIN KARA 181030Z AUTO 14005KT 10SM FEW018 22/21 A2989 50 97 900 140/05 RMK AO2 T02170211
53915KARA ARA20190518043510505/18/19 04:35:31  5-MIN KARA 181035Z 13006KT 10SM SCT020 22/22 A2989 50 100 900 130/06 RMK AO2 T02170217
53915KARA ARA20190518044010405/18/19 04:40:31  5-MIN KARA 181040Z 13007KT 10SM BKN020 22/22 A2989 50 97 900 130/07 RMK AO2 T02220217
53915KARA ARA20190518044511105/18/19 04:45:31  5-MIN KARA 181045Z 13007KT 10SM SCT022 BKN026 22/22 A2989 50 97 900 130/07 RMK AO2 T02220217
53915KARA ARA20190518045009405/18/19 04:50:31  5-MIN KARA 181050Z 12007KT 10SM SCT022 22/22 A2989 50 97 900 120/07 RMK AO2
53915KARA ARA20190518045511105/18/19 04:55:31  5-MIN KARA 181055Z 13007KT 10SM FEW019 SCT024 22/22 A2990 50 97 900 130/07 RMK AO2 T02220217
53915KARA ARA20190518050011105/18/19 05:00:31  5-MIN KARA 181100Z 13008KT 10SM FEW018 SCT024 22/22 A2990 50 97 900 130/08 RMK AO2 T02220217
53915KARA ARA20190518050510405/18/19 05:05:31  5-MIN KARA 181105Z 13007KT 10SM BKN024 22/22 A2989 50 97 900 130/07 RMK AO2 T02220217
53915KARA ARA20190518051010405/18/19 05:10:31  5-MIN KARA 181110Z 13006KT 10SM SCT024 22/22 A2990 50 97 900 130/06 RMK AO2 T02220217
53915KARA ARA20190518051510405/18/19 05:15:31  5-MIN KARA 181115Z 14007KT 10SM SCT026 22/22 A2990 50 97 900 140/07 RMK AO2 T02220217
53915KARA ARA20190518052010405/18/19 05:20:31  5-MIN KARA 181120Z 14005KT 10SM SCT026 22/22 A2990 50 97 900 140/05 RMK AO2 T02220217
53915KARA ARA20190518052511105/18/19 05:25:31  5-MIN KARA 181125Z 14005KT 10SM FEW017 SCT026 22/22 A2990 40 97 900 140/05 RMK AO2 T02220217
53915KARA ARA20190518053011105/18/19 05:30:31  5-MIN KARA 181130Z 14006KT 10SM FEW017 SCT026 22/22 A2990 40 97 900 140/06 RMK AO2 T02220217
53915KARA ARA20190518053511105/18/19 05:35:31  5-MIN KARA 181135Z 13006KT 10SM FEW017 FEW028 22/22 A2990 40 97 900 130/06 RMK AO2 T02220217
53915KARA ARA20190518054011105/18/19 05:40:31  5-MIN KARA 181140Z 13007KT 10SM FEW017 FEW028 22/22 A2990 40 97 900 130/07 RMK AO2 T02220217
53915KARA ARA20190518054511205/18/19 05:45:31  5-MIN KARA 181145Z 13007KT 10SM FEW017 FEW028 23/22 A2990 50 97 1000 130/07 RMK AO2 T02280222
53915KARA ARA20190518055013705/18/19 05:50:31  5-MIN KARA 181150Z 13007KT 10SM FEW017 FEW028 23/22 A2990 50 97 1000 130/07 RMK AO2 SLP124 T02280222 10228 20206 56012
53915KARA ARA20190518055510205/18/19 05:55:31  5-MIN KARA 181155Z 13007KT 10SM CLR 23/22 A2990 40 97 1000 130/07 RMK AO2 T02280222
53915KARA ARA20190518060010205/18/19 06:00:31  5-MIN KARA 181200Z 13008KT 10SM CLR 23/22 A2990 40 97 1000 130/08 RMK AO2 T02280222
53915KARA ARA20190518060510205/18/19 06:05:31  5-MIN KARA 181205Z 13008KT 10SM CLR 23/22 A2990 40 97 1000 130/08 RMK AO2 T02280222
53915KARA ARA20190518061010205/18/19 06:10:31  5-MIN KARA 181210Z 13007KT 10SM CLR 23/23 A2991 40 97 1100 130/07 RMK AO2 T02330228
53915KARA ARA20190518061510205/18/19 06:15:31  5-MIN KARA 181215Z 13008KT 10SM CLR 23/23 A2991 40 97 1100 130/08 RMK AO2 T02330228
53915KARA ARA20190518062010505/18/19 06:20:31  5-MIN KARA 181220Z 13009KT 10SM FEW022 23/23 A2991 40 97 1100 130/09 RMK AO2 T02330228
53915KARA ARA20190518062510505/18/19 06:25:31  5-MIN KARA 181225Z 13008KT 10SM SCT022 23/23 A2991 40 97 1100 130/08 RMK AO2 T02330228
53915KARA ARA20190518063010505/18/19 06:30:31  5-MIN KARA 181230Z 14008KT 10SM SCT022 24/23 A2991 40 93 1100 140/08 RMK AO2 T02390228
53915KARA ARA20190518063510505/18/19 06:35:31  5-MIN KARA 181235Z 14008KT 10SM BKN022 24/23 A2991 40 93 1100 140/08 RMK AO2 T02390228
53915KARA ARA20190518064011205/18/19 06:40:31  5-MIN KARA 181240Z 14009KT 10SM SCT020 BKN027 24/23 A2991 40 97 1100 140/09 RMK AO2 T02390233
53915KARA ARA20190518064511205/18/19 06:45:31  5-MIN KARA 181245Z 14010KT 10SM SCT020 SCT027 24/23 A2991 40 97 1100 140/10 RMK AO2 T02390233
53915KARA ARA20190518065009505/18/19 06:50:31  5-MIN KARA 181250Z 14009KT 10SM SCT021 24/23 A2991 40 93 1200 140/09 RMK AO2
53915KARA ARA20190518065510505/18/19 06:55:31  5-MIN KARA 181255Z 14008KT 10SM FEW021 24/23 A2991 40 93 1200 140/08 RMK AO2 T02440233
53915KARA ARA20190518070011205/18/19 07:00:31  5-MIN KARA 181300Z 14010KT 10SM FEW019 FEW027 24/23 A2991 30 93 1200 140/10 RMK AO2 T02440233
53915KARA ARA20190518070511205/18/19 07:05:31  5-MIN KARA 181305Z 14010KT 10SM FEW020 FEW025 24/23 A2991 30 93 1200 140/10 RMK AO2 T02440233
53915KARA ARA20190518071011205/18/19 07:10:31  5-MIN KARA 181310Z 14009KT 10SM FEW020 SCT027 24/23 A2991 30 93 1200 140/09 RMK AO2 T02440233
53915KARA ARA20190518071511205/18/19 07:15:31  5-MIN KARA 181315Z 14011KT 10SM FEW018 SCT027 25/24 A2991 40 93 1200 140/11 RMK AO2 T02500239
53915KARA ARA20190518072011905/18/19 07:20:31  5-MIN KARA 181320Z 14010KT 10SM FEW009 SCT018 SCT027 25/24 A2991 30 93 1200 140/10 RMK AO2 T02500239
53915KARA ARA20190518072511905/18/19 07:25:31  5-MIN KARA 181325Z 14011KT 10SM SCT011 SCT018 BKN027 26/24 A2991 30 90 1300 140/11 RMK AO2 T02560239
53915KARA ARA20190518073011905/18/19 07:30:31  5-MIN KARA 181330Z 14011KT 10SM SCT011 SCT020 BKN027 26/24 A2991 30 90 1300 140/11 RMK AO2 T02560239
53915KARA ARA20190518073511905/18/19 07:35:31  5-MIN KARA 181335Z 14010KT 10SM FEW009 SCT014 BKN021 26/24 A2991 30 90 1300 140/10 RMK AO2 T02560239
53915KARA ARA20190518074011905/18/19 07:40:31  5-MIN KARA 181340Z 14010KT 10SM SCT011 SCT016 BKN021 26/24 A2991 30 87 1400 140/10 RMK AO2 T02610239
53915KARA ARA20190518074511905/18/19 07:45:31  5-MIN KARA 181345Z 15011KT 10SM FEW011 BKN014 OVC026 26/24 A2991 30 90 1300 150/11 RMK AO2 T02560239
53915KARA ARA20190518075010905/18/19 07:50:31  5-MIN KARA 181350Z 15010KT 10SM BKN013 BKN023 BKN027 26/24 A2991 30 90 1300 150/10 RMK AO2
53915KARA ARA20190518075511905/18/19 07:55:31  5-MIN KARA 181355Z 16011KT 10SM BKN013 BKN023 BKN030 26/24 A2991 30 87 1400 160/11 RMK AO2 T02610239
53915KARA ARA20190518080011905/18/19 08:00:31  5-MIN KARA 181400Z 16010KT 10SM BKN013 BKN022 BKN032 26/24 A2991 30 87 1400 160/10 RMK AO2 T02610239
53915KARA ARA20190518080511905/18/19 08:05:31  5-MIN KARA 181405Z 16011KT 10SM BKN014 BKN022 BKN029 26/24 A2991 30 87 1400 160/11 RMK AO2 T02610239
53915KARA ARA20190518081012505/18/19 08:10:31  5-MIN KARA 181410Z 16015G19KT 10SM FEW012 SCT017 BKN022 27/24 A2991 30 84 1400 150/15G19 RMK AO2 T02670239
53915KARA ARA20190518081511905/18/19 08:15:31  5-MIN KARA 181415Z 17013KT 10SM SCT017 BKN026 BKN030 27/24 A2992 30 82 1500 170/13 RMK AO2 T02720239
53915KARA ARA20190518082012505/18/19 08:20:31  5-MIN KARA 181420Z 17017G22KT 10SM SCT017 BKN024 BKN028 27/24 A2991 30 82 1500 160/17G22 RMK AO2 T02720239
53915KARA ARA20190518082512505/18/19 08:25:31  5-MIN KARA 181425Z 17012G22KT 10SM FEW017 SCT022 BKN028 27/23 A2991 30 82 1400 170/12G22 RMK AO2 T02670233
53915KARA ARA20190518083012505/18/19 08:30:31  5-MIN KARA 181430Z 16016G21KT 10SM FEW019 BKN024 BKN029 28/24 A2991 30 79 1600 160/16G21 RMK AO2 T02780239
53915KARA ARA20190518083512505/18/19 08:35:31  5-MIN KARA 181435Z 16016G21KT 10SM SCT019 BKN026 BKN041 27/23 A2991 30 79 1500 160/16G21 RMK AO2 T02720233
53915KARA ARA20190518084011905/18/19 08:40:31  5-MIN KARA 181440Z 16015KT 10SM SCT019 BKN024 BKN029 27/23 A2991 30 79 1500 160/15 RMK AO2 T02720233
53915KARA ARA20190518084512505/18/19 08:45:31  5-MIN KARA 181445Z 16015G22KT 10SM SCT019 BKN024 BKN029 27/23 A2991 30 79 1500 160/15G22 RMK AO2 T02720233
53915KARA ARA20190518085013805/18/19 08:50:31  5-MIN KARA 181450Z 16015G22KT 10SM FEW017 BKN022 BKN029 27/23 A2991 40 79 1500 160/15G22 RMK AO2 SLP128 T02720233 51003
53915KARA ARA20190518085511805/18/19 08:55:31  5-MIN KARA 181455Z 17014G21KT 10SM SCT021 BKN027 27/23 A2991 30 79 1500 170/14G21 RMK AO2 T02720233
53915KARA ARA20190518090011805/18/19 09:00:31  5-MIN KARA 181500Z 16015G21KT 10SM SCT021 BKN027 28/24 A2991 30 79 1600 160/15G21 RMK AO2 T02780239
53915KARA ARA20190518090512505/18/19 09:05:31  5-MIN KARA 181505Z 16019G25KT 10SM SCT021 BKN027 BKN033 28/23 A2991 30 74 1600 160/19G25 RMK AO2 T02830233
53915KARA ARA20190518091012505/18/19 09:10:31  5-MIN KARA 181510Z 16017G25KT 10SM SCT021 SCT027 BKN033 27/23 A2991 30 76 1500 160/17G25 RMK AO2 T02720228
53915KARA ARA20190518091512505/18/19 09:15:31  5-MIN KARA 181515Z 16018G24KT 10SM SCT021 SCT027 BKN033 27/23 A2992 30 79 1500 160/18G24 RMK AO2 T02720233
53915KARA ARA20190518092014305/18/19 09:20:31  5-MIN KARA 181520Z 16019G28KT 10SM SCT021 BKN027 BKN033 28/23 A2991 30 74 1600 160/19G28 RMK AO2 PK WND 16028/1520 T02830233
53915KARA ARA20190518092514305/18/19 09:25:31  5-MIN KARA 181525Z 17017G28KT 10SM FEW021 SCT027 BKN050 28/23 A2991 30 74 1600 160/17G28 RMK AO2 PK WND 16028/1520 T02830233
53915KARA ARA20190518093013605/18/19 09:30:31  5-MIN KARA 181530Z 17017G26KT 10SM FEW021 SCT026 28/23 A2992 30 74 1600 170/17G26 RMK AO2 PK WND 16028/1520 T02830233
53915KARA ARA20190518093513605/18/19 09:35:31  5-MIN KARA 181535Z 18013G26KT 10SM SCT021 SCT026 29/23 A2991 30 71 1700 170/13G26 RMK AO2 PK WND 16028/1520 T02890233
53915KARA ARA20190518094013005/18/19 09:40:31  5-MIN KARA 181540Z 17013KT 10SM SCT021 BKN026 28/23 A2992 30 74 1600 170/13 RMK AO2 PK WND 16028/1520 T02830233
53915KARA ARA20190518094513605/18/19 09:45:31  5-MIN KARA 181545Z 16017G24KT 10SM BKN023 BKN030 29/23 A2992 30 71 1700 160/17G24 RMK AO2 PK WND 16028/1520 T02890233
53915KARA ARA20190518095014305/18/19 09:50:31  5-MIN KARA 181550Z 16018G24KT 10SM BKN023 BKN030 29/23 A2992 30 71 1700 160/18G24 RMK AO2 PK WND 16028/1520 SLP130 T02890233
53915KARA ARA20190518095511105/18/19 09:55:31  5-MIN KARA 181555Z 18017G23KT 10SM BKN023 29/23 A2991 30 71 1700 170/17G23 RMK AO2 T02890233
53915KARA ARA20190518100011805/18/19 10:00:31  5-MIN KARA 181600Z 16016G23KT 10SM BKN023 BKN029 29/23 A2991 30 69 1700 160/16G23 RMK AO2 T02940233
53915KARA ARA20190518100511805/18/19 10:05:31  5-MIN KARA 181605Z 16018G23KT 10SM BKN025 BKN031 29/23 A2991 30 71 1700 160/18G23 RMK AO2 T02890233
53915KARA ARA20190518101011805/18/19 10:10:31  5-MIN KARA 181610Z 17016G23KT 10SM BKN025 BKN033 29/23 A2991 30 69 1700 170/16G23 RMK AO2 T02940233
53915KARA ARA20190518101511805/18/19 10:15:31  5-MIN KARA 181615Z 16018G24KT 10SM BKN025 BKN031 29/23 A2991 30 69 1700 160/18G24 RMK AO2 T02940233
53915KARA ARA20190518102013605/18/19 10:20:31  5-MIN KARA 181620Z 16017G26KT 10SM SCT025 SCT032 29/23 A2991 40 69 1700 160/17G26 RMK AO2 PK WND 15026/1617 T02940233
53915KARA ARA20190518102513605/18/19 10:25:31  5-MIN KARA 181625Z 16017G26KT 10SM SCT025 SCT031 29/23 A2991 30 69 1700 160/17G26 RMK AO2 PK WND 15026/1617 T02940233
53915KARA ARA20190518103014305/18/19 10:30:31  5-MIN KARA 181630Z 17016G23KT 10SM SCT025 SCT031 SCT042 29/23 A2991 30 69 1700 170/16G23 RMK AO2 PK WND 15026/1617 T02940233
53915KARA ARA20190518103513605/18/19 10:35:31  5-MIN KARA 181635Z 18014G23KT 10SM SCT025 BKN031 29/23 A2991 30 69 1700 170/14G23 RMK AO2 PK WND 15026/1617 T02940233
53915KARA ARA20190518104013005/18/19 10:40:31  5-MIN KARA 181640Z 15018KT 10SM BKN025 BKN031 29/23 A2991 30 69 1700 150/18 RMK AO2 PK WND 15026/1617 T02890228
53915KARA ARA20190518104513005/18/19 10:45:31  5-MIN KARA 181645Z 17016KT 10SM BKN025 BKN035 29/23 A2991 30 69 1700 170/16 RMK AO2 PK WND 15026/1617 T02940233
53915KARA ARA20190518105014305/18/19 10:50:31  5-MIN KARA 181650Z 16019G24KT 10SM SCT025 BKN035 29/23 A2991 40 67 1700 160/19G24 RMK AO2 PK WND 15026/1617 SLP126 T02940228
53915KARA ARA20190518105511805/18/19 10:55:31  5-MIN KARA 181655Z 15019G24KT 10SM SCT025 BKN033 29/23 A2991 40 67 1700 150/19G24 RMK AO2 T02940228
53915KARA ARA20190518110011805/18/19 11:00:31  5-MIN KARA 181700Z 18016G24KT 10SM SCT026 BKN033 29/23 A2990 40 69 1800 170/16G24 RMK AO2 T02940233
53915KARA ARA20190518110511805/18/19 11:05:31  5-MIN KARA 181705Z 16015G23KT 10SM SCT026 SCT034 30/23 A2990 40 65 1800 160/15G23 RMK AO2 T03000228
53915KARA ARA20190518111017105/18/19 11:10:31  5-MIN KARA 181710Z 16017G23KT 10SM FEW026 FEW034 31/23 A2990 40 62 1900 1029 SCT035 31/23 A2988 60 62 1900 170/20G27 RMK AO2 PK WND 17027/1754 T03060228
53915KARA ARA20190518223012405/18/19 22:30:31  5-MIN KARA 190430Z AUTO 15012KT 10SM SCT018 BKN028 BKN080 26/24 A2987 70 90 1400 150/12 RMK AO2 T02610244
53915KARA ARA20190518223512405/18/19 22:35:31  5-MIN KARA 190435Z AUTO 15015KT 10SM SCT018 BKN026 BKN040 26/24 A2987 70 90 1400 150/15 RMK AO2 T02610244
53915KARA ARA20190518224012405/18/19 22:40:31  5-MIN KARA 190440Z AUTO 15014KT 10SM SCT015 SCT025 BKN039 27/24 A2986 80 87 1500 150/14 RMK AO2 T02670244
53915KARA ARA20190518224512405/18/19 22:45:31  5-MIN KARA 190445Z AUTO 15015KT 10SM FEW017 SCT028 BKN044 26/24 A2986 80 90 1400 150/15 RMK AO2 T02610244
53915KARA ARA20190518225013705/18/19 22:50:31  5-MIN KARA 190450Z AUTO 15016G21KT 10SM FEW016 SCT029 BKN044 26/24 A2986 80 90 1400 150/16G21 RMK AO2 SLP112 T02610244
53915KARA ARA20190518225513005/18/19 22:55:31  5-MIN KARA 190455Z AUTO 14016G23KT 10SM FEW016 SCT029 BKN042 27/24 A2986 80 87 1500 140/16G23 RMK AO2 T02670244
53915KARA ARA20190518230013005/18/19 23:00:31  5-MIN KARA 190500Z AUTO 14016G23KT 10SM FEW015 SCT029 BKN042 27/24 A2986 80 87 1500 140/16G23 RMK AO2 T02670244
53915KARA ARA20190518230513005/18/19 23:05:31  5-MIN KARA 190505Z AUTO 14014G22KT 10SM FEW017 SCT032 BKN044 26/24 A2986 80 87 1400 140/14G22 RMK AO2 T02610239
53915KARA ARA20190518231012405/18/19 23:10:31  5-MIN KARA 190510Z AUTO 15013KT 10SM FEW017 SCT030 BKN044 26/24 A2986 80 90 1400 140/13 RMK AO2 T02610244
53915KARA ARA20190518231512405/18/19 23:15:31  5-MIN KARA 190515Z AUTO 15014KT 10SM FEW017 SCT032 BKN100 26/24 A2986 90 90 1400 150/14 RMK AO2 T02610244
53915KARA ARA20190518232012405/18/19 23:20:31  5-MIN KARA 190520Z AUTO 15014KT 10SM FEW017 SCT049 BKN080 26/24 A2985 90 87 1400 140/14 RMK AO2 T02610239
53915KARA ARA20190518232513005/18/19 23:25:31  5-MIN KARA 190525Z AUTO 16019G23KT 10SM FEW017 FEW039 SCT080 26/24 A2986 80 90 1400 160/19G23 RMK AO2 T02610244
53915KARA ARA20190518233013005/18/19 23:30:31  5-MIN KARA 190530Z AUTO 16015G23KT 10SM FEW017 SCT080 SCT095 26/24 A2986 80 90 1400 150/15G23 RMK AO2 T02610244
53915KARA ARA20190518233512305/18/19 23:35:31  5-MIN KARA 190535Z AUTO 15015G24KT 10SM SCT019 SCT085 27/24 A2987 80 84 1500 150/15G24 RMK AO2 T02670239
53915KARA ARA20190518234012305/18/19 23:40:31  5-MIN KARA 190540Z AUTO 15014G24KT 10SM SCT019 BKN085 26/24 A2987 70 90 1400 150/14G24 RMK AO2 T02610244
53915KARA ARA20190518234511705/18/19 23:45:31  5-MIN KARA 190545Z AUTO 15012KT 10SM SCT019 BKN085 26/24 A2987 70 90 1400 150/12 RMK AO2 T02610244
53915KARA ARA20190518235015905/18/19 23:50:31  5-MIN KARA 190550Z AUTO 15014KT 10SM FEW017 SCT022 SCT085 26/24 A2986 80 90 1400 150/14 RMK AO2 SLP110 T02610244 10278 20261 403110206 56004
53915KARA ARA20190518235511705/18/19 23:55:31  5-MIN KARA 190555Z AUTO 15014KT 10SM SCT019 BKN085 26/24 A2985 90 90 1400 140/14 RMK AO2 T02610244
53915KARA ARA20190519000012305/19/19 00:00:31  5-MIN KARA 190600Z AUTO 15016G24KT 10SM SCT019 BKN085 26/24 A2985 90 90 1400 150/16G24 RMK AO2 T02610244
53915KARA ARA20190519000512305/19/19 00:05:31  5-MIN KARA 190605Z AUTO 15014G24KT 10SM SCT019 BKN090 26/24 A2985 90 90 1400 150/14G24 RMK AO2 T02610244
53915KARA ARA20190519001013005/19/19 00:10:31  5-MIN KARA 190610Z AUTO 15016G22KT 10SM SCT016 BKN024 BKN085 26/24 A2985 90 90 1400 150/16G22 RMK AO2 T02610244
53915KARA ARA20190519001511705/19/19 00:15:31  5-MIN KARA 190615Z AUTO 15015KT 10SM BKN016 BKN085 26/24 A2986 90 90 1400 150/15 RMK AO2 T02610244
53915KARA ARA20190519002013005/19/19 00:20:31  5-MIN KARA 190620Z AUTO 15016G21KT 10SM FEW014 BKN018 BKN095 26/24 A2986 80 90 1400 150/16G21 RMK AO2 T02610244
53915KARA ARA20190519002512305/19/19 00:25:31  5-MIN KARA 190625Z AUTO 16012G23KT 10SM BKN018 OVC090 26/24 A2987 80 90 1400 160/12G23 RMK AO2 T02610244
53915KARA ARA20190519003012305/19/19 00:30:31  5-MIN KARA 190630Z AUTO 16011G23KT 10SM BKN016 OVC021 26/24 A2986 80 90 1400 160/11G23 RMK AO2 T02610244
53915KARA ARA20190519003511705/19/19 00:35:31  5-MIN KARA 190635Z AUTO 16010KT 10SM BKN016 OVC028 26/24 A2986 80 90 1400 160/10 RMK AO2 T02610244
53915KARA ARA20190519004012405/19/19 00:40:31  5-MIN KARA 190640Z AUTO 15013KT 10SM SCT014 BKN019 OVC033 26/24 A2986 80 90 1400 150/13 RMK AO2 T02610244
53915KARA ARA20190519004512405/19/19 00:45:31  5-MIN KARA 190645Z AUTO 16013KT 10SM BKN016 BKN020 OVC033 26/24 A2986 90 90 1400 160/13 RMK AO2 T02610244
53915KARA ARA20190519005013105/19/19 00:50:31  5-MIN KARA 190650Z AUTO 16014KT 10SM BKN016 BKN020 OVC033 26/24 A2985 90 90 1400 160/14 RMK AO2 SLP109 T02610244
53915KARA ARA20190519005512405/19/19 00:55:31  5-MIN KARA 190655Z AUTO 15012KT 10SM BKN015 BKN020 OVC055 26/24 A2985 90 90 1400 150/12 RMK AO2 T02610244
53915KARA ARA20190519010012405/19/19 01:00:31  5-MIN KARA 190700Z AUTO 15012KT 10SM BKN015 BKN022 OVC050 26/24 A2985 90 90 1400 150/12 RMK AO2 T02610244
53915KARA ARA20190519010512405/19/19 01:05:31  5-MIN KARA 190705Z AUTO 16015KT 10SM BKN015 BKN033 OVC095 26/24 A2985 90 90 1400 160/15 RMK AO2 T02610244
53915KARA ARA20190519011013005/19/19 01:10:31  5-MIN KARA 190710Z AUTO 15014G18KT 10SM BKN015 BKN026 OVC100 26/24 A2985 90 90 1400 150/14G18 RMK AO2 T02610244
53915KARA ARA20190519011513005/19/19 01:15:31  5-MIN KARA 190715Z AUTO 14015G20KT 10SM BKN015 BKN026 OVC050 26/24 A2985 90 90 1400 140/15G20 RMK AO2 T02610244
53915KARA ARA20190519012012305/19/19 01:20:31  5-MIN KARA 190720Z AUTO 15012G20KT 10SM BKN015 BKN100 26/24 A2986 90 90 1400 150/12G20 RMK AO2 T02610244
53915KARA ARA20190519012511705/19/19 01:25:31  5-MIN KARA 190725Z AUTO 15011KT 10SM BKN015 BKN100 26/24 A2986 90 90 1400 150/11 RMK AO2 T02610244
53915KARA ARA20190519013011705/19/19 01:30:31  5-MIN KARA 190730Z AUTO 16011KT 10SM BKN014 BKN100 26/24 A2986 80 90 1400 160/11 RMK AO2 T02610244
53915KARA ARA20190519013511705/19/19 01:35:31  5-MIN KARA 190735Z AUTO 16010KT 10SM BKN014 BKN100 26/24 A2986 80 90 1400 160/10 RMK AO2 T02610244
53915KARA ARA20190519014012405/19/19 01:40:31  5-MIN KARA 190740Z AUTO 15012KT 10SM BKN014 BKN022 BKN095 26/24 A2986 80 90 1400 150/12 RMK AO2 T02610244
53915KARA ARA20190519014512405/19/19 01:45:31  5-MIN KARA 190745Z AUTO 16012KT 10SM SCT014 BKN023 BKN035 26/24 A2985 90 90 1400 160/12 RMK AO2 T02610244
53915KARA ARA20190519015013105/19/19 01:50:31  5-MIN KARA 190750Z AUTO 16015KT 10SM SCT014 BKN023 BKN034 26/24 A2986 90 90 1400 160/15 RMK AO2 SLP109 T02610244
53915KARA ARA20190519015512405/19/19 01:55:31  5-MIN KARA 190755Z AUTO 16012KT 10SM SCT014 BKN023 BKN034 26/24 A2985 90 90 1400 160/12 RMK AO2 T02610244
53915KARA ARA20190519020012505/19/19 02:00:31  5-MIN KARA 190800Z AUTO 15014KT 10SM FEW013 BKN021 BKN034 26/24 A2985 100 90 1400 150/14 RMK AO2 T02610244
53915KARA ARA20190519020512505/19/19 02:05:31  5-MIN KARA 190805Z AUTO 16015KT 10SM FEW013 SCT021 BKN048 26/24 A2984 100 90 1400 160/15 RMK AO2 T02610244
53915KARA ARA20190519021013105/19/19 02:10:31  5-MIN KARA 190810Z AUTO 16016G23KT 10SM FEW015 SCT026 BKN047 26/24 A2984 100 90 1400 160/16G23 RMK AO2 T02610244
53915KARA ARA20190519021513105/19/19 02:15:31  5-MIN KARA 190815Z AUTO 16015G23KT 10SM FEW015 SCT026 BKN100 26/24 A2984 100 90 1400 160/15G23 RMK AO2 T02610244
53915KARA ARA20190519022013105/19/19 02:20:31  5-MIN KARA 190820Z AUTO 16014G21KT 10SM FEW015 SCT026 BKN100 26/24 A2984 100 90 1500 160/14G21 RMK AO2 T02610244
53915KARA ARA20190519022512505/19/19 02:25:31  5-MIN KARA 190825Z AUTO 15016KT 10SM FEW013 SCT026 BKN045 26/24 A2983 110 90 1500 150/16 RMK AO2 T02610244
53915KARA ARA20190519023012505/19/19 02:30:31  5-MIN KARA 190830Z AUTO 16015KT 10SM FEW013 SCT045 BKN070 26/24 A2984 100 90 1500 160/15 RMK AO2 T02610244
53915KARA ARA20190519023512505/19/19 02:35:31  5-MIN KARA 190835Z AUTO 16014KT 10SM FEW013 SCT045 BKN100 26/24 A2984 100 90 1400 160/14 RMK AO2 T02610244
53915KARA ARA20190519024013005/19/19 02:40:31  5-MIN KARA 190840Z AUTO 16014G20KT 10SM SCT013 SCT026 BKN045 26/24 A2985 90 90 1400 160/14G20 RMK AO2 T02610244
53915KARA ARA20190519024513705/19/19 02:45:31  5-MIN KARA 190845Z AUTO 16014G18KT 10SM SCT014 BKN024 BKN045 26/24 A2986 90 90 1400 160/14G18 RMK AO2 PRESRR T02610244
53915KARA ARA20190519025013705/19/19 02:50:31  5-MIN KARA 190850Z AUTO 16014KT 10SM SCT014 SCT024 BKN047 26/24 A2986 90 90 1400 150/14 RMK AO2 SLP109 T02610244 51002
53915KARA ARA20190519025511705/19/19 02:55:31  5-MIN KARA 190855Z AUTO 16013KT 10SM FEW014 SCT023 26/24 A2986 80 90 1400 160/13 RMK AO2 T02610244
53915KARA ARA20190519030011705/19/19 03:00:31  5-MIN KARA 190900Z AUTO 16015KT 10SM SCT014 SCT023 26/24 A2985 90 90 1400 160/15 RMK AO2 T02610244
53915KARA ARA20190519030511705/19/19 03:05:31  5-MIN KARA 190905Z AUTO 16016KT 10SM SCT014 SCT023 26/24 A2985 90 90 1400 160/16 RMK AO2 T02610244
53915KARA ARA20190519031012405/19/19 03:10:31  5-MIN KARA 190910Z AUTO 16012KT 10SM SCT016 SCT020 SCT035 26/24 A2985 90 90 1400 160/12 RMK AO2 T02610244
53915KARA ARA20190519031512405/19/19 03:15:31  5-MIN KARA 190915Z AUTO 16012KT 10SM FEW016 SCT035 BKN044 26/24 A2985 90 90 1400 160/12 RMK AO2 T02610244
53915KARA ARA20190519032011805/19/19 03:20:31  5-MIN KARA 190920Z AUTO 16014KT 10SM FEW016 BKN035 26/24 A2985 100 90 1400 160/14 RMK AO2 T02610244
53915KARA ARA20190519032512505/19/19 03:25:31  5-MIN KARA 190925Z AUTO 15012KT 10SM FEW016 SCT030 BKN037 26/24 A2984 100 90 1400 150/12 RMK AO2 T02610244
53915KARA ARA20190519033012505/19/19 03:30:31  5-MIN KARA 190930Z AUTO 16013KT 10SM FEW016 BKN031 BKN038 26/24 A2984 100 90 1400 160/13 RMK AO2 T02610244
53915KARA ARA20190519033512505/19/19 03:35:31  5-MIN KARA 190935Z AUTO 16013KT 10SM FEW016 FEW020 BKN034 26/24 A2984 100 90 1500 160/13 RMK AO2 T02610244
53915KARA ARA20190519034012505/19/19 03:40:31  5-MIN KARA 190940Z AUTO 16014KT 10SM FEW016 FEW021 BKN034 26/24 A2983 110 90 1500 160/14 RMK AO2 T02610244
53915KARA ARA20190519034513105/19/19 03:45:31  5-MIN KARA 190945Z AUTO 16016G22KT 10SM SCT016 SCT028 BKN036 26/24 A2983 110 90 1500 160/16G22 RMK AO2 T02610244
53915KARA ARA20190519035013805/19/19 03:50:31  5-MIN KARA 190950Z AUTO 16012G22KT 10SM SCT016 SCT030 BKN038 26/24 A2984 100 90 1500 160/12G22 RMK AO2 SLP103 T02610244
53915KARA ARA20190519035513105/19/19 03:55:31  5-MIN KARA 190955Z AUTO 16013G22KT 10SM FEW017 SCT030 BKN046 26/24 A2984 100 90 1400 160/13G22 RMK AO2 T02610244
53915KARA ARA20190519040013005/19/19 04:00:31  5-MIN KARA 191000Z AUTO 16012G20KT 10SM FEW017 SCT036 BKN046 26/24 A2985 90 90 1400 160/12G20 RMK AO2 T02610244
53915KARA ARA20190519040513105/19/19 04:05:31  5-MIN KARA 191005Z AUTO 16015G20KT 10SM FEW017 BKN043 BKN060 26/24 A2984 100 90 1400 150/15G20 RMK AO2 T02610244
53915KARA ARA20190519041012505/19/19 04:10:31  5-MIN KARA 191010Z AUTO 16016KT 10SM FEW015 BKN050 OVC100 26/24 A2984 100 90 1500 160/16 RMK AO2 T02610244
53915KARA ARA20190519041513105/19/19 04:15:31  5-MIN KARA 191015Z AUTO 16017G23KT 10SM FEW018 BKN048 OVC100 26/24 A2983 110 87 1500 160/17G23 RMK AO2 T02610239
53915KARA ARA20190519042013105/19/19 04:20:31  5-MIN KARA 191020Z AUTO 16018G25KT 10SM FEW016 SCT046 BKN060 26/24 A2982 120 87 1500 160/18G25 RMK AO2 T02610239
53915KARA ARA20190519042513105/19/19 04:25:31  5-MIN KARA 191025Z AUTO 16017G25KT 10SM FEW014 SCT044 SCT060 26/24 A2982 120 87 1500 150/17G25 RMK AO2 T02610239
53915KARA ARA20190519043012505/19/19 04:30:31  5-MIN KARA 191030Z AUTO 16017KT 10SM FEW018 SCT050 SCT085 26/24 A2983 110 87 1500 160/17 RMK AO2 T02610239
53915KARA ARA20190519043513705/19/19 04:35:31  5-MIN KARA 191035Z AUTO 16014KT 10SM FEW018 SCT029 BKN080 26/24 A2982 120 87 1500 160/14 RMK AO2 LTG DSNT NW T02610239
53915KARA ARA20190519044014305/19/19 04:40:31  5-MIN KARA 191040Z AUTO 16016G22KT 10SM SCT018 SCT029 BKN035 26/24 A2982 120 87 1500 160/16G22 RMK AO2 LTG DSNT NW T02610239
53915KARA ARA20190519044513805/19/19 04:45:31  5-MIN KARA 191045Z 17013G22KT 10SM FEW014 SCT020 BKN025 26/24 A2983 110 90 1500 170/13G22 RMK AO2 LTG DSNT NW T02610244
53915KARA ARA20190519045015105/19/19 04:50:31  5-MIN KARA 191050Z 16015G21KT 10SM SCT016 BKN022 BKN031 26/24 A2983 110 90 1500 160/15G21 RMK AO2 LTG DSNT W AND NW SLP102 T02610244
53915KARA ARA20190519045514405/19/19 04:55:31  5-MIN KARA 191055Z 16014G21KT 10SM FEW014 BKN019 BKN024 26/24 A2984 100 90 1500 160/14G21 RMK AO2 LTG DSNT W AND NW T02610244
53915KARA ARA20190519050014405/19/19 05:00:31  5-MIN KARA 191100Z 16012G20KT 10SM BKN016 BKN025 OVC032 26/24 A2984 100 90 1500 160/12G20 RMK AO2 LTG DSNT W AND NW T02610244
53915KARA ARA20190519050513905/19/19 05:05:31  5-MIN KARA 191105Z 16014G20KT 10SM SCT014 BKN019 OVC034 26/24 A2984 100 90 1500 160/14G20 RMK AO2 LTG DSNT W-N T02610244
53915KARA ARA20190519051013205/19/19 05:10:31  5-MIN KARA 191110Z 16015G20KT 10SM BKN016 OVC025 26/24 A2985 100 90 1400 160/15G20 RMK AO2 LTG DSNT W-N T02610244
53915KARA ARA20190519051513805/19/19 05:15:31  5-MIN KARA 191115Z 16015G22KT 10SM BKN016 BKN020 OVC025 26/24 A2986 90 90 1400 160/15G22 RMK AO2 LTG DSNT W-N T02610244
53915KARA ARA20190519052013805/19/19 05:20:31  5-MIN KARA 191120Z 16013G21KT 10SM SCT014 BKN020 OVC033 27/24 A2985 90 87 1500 160/13G21 RMK AO2 LTG DSNT W-N T02670244
53915KARA ARA20190519052513905/19/19 05:25:31  5-MIN KARA 191125Z 16014G21KT 10SM BKN016 BKN022 OVC031 26/24 A2984 100 90 1500 160/14G21 RMK AO2 LTG DSNT W-N T02610244
53915KARA ARA20190519053013905/19/19 05:30:31  5-MIN KARA 191130Z 16016G23KT 10SM SCT016 BKN020 OVC033 26/24 A2983 110 90 1500 160/16G23 RMK AO2 LTG DSNT W-N T02610244
53915KARA ARA20190519053513905/19/19 05:35:31  5-MIN KARA 191135Z 15016G24KT 10SM SCT016 BKN020 OVC030 26/24 A2984 100 90 1500 150/16G24 RMK AO2 LTG DSNT W-N T02610244
53915KARA ARA20190519054013905/19/19 05:40:31  5-MIN KARA 191140Z 15014G24KT 10SM SCT015 BKN022 OVC033 26/24 A2984 100 90 1400 150/14G24 RMK AO2 LTG DSNT W-N T02610244
53915KARA ARA20190519054513905/19/19 05:45:31  5-MIN KARA 191145Z 14014KT 10SM BKN015 BKN022 OVC033 26/24 A2986 80 90 1400 140/14 RMK AO2 LTG DSNT W-N PRESRR T02610244
53915KARA ARA20190519055016405/19/19 05:50:31  5-MIN KARA 191150Z 14011KT 10SM BKN016 BKN022 OVC030 26/24 A2987 70 90 1400 140/11 RMK AO2 LTG DSNT W-N PRESRR SLP114 T02610244 10267 20256 53001
53915KARA ARA20190519055513905/19/19 05:55:31  5-MIN KARA 191155Z 15013KT 10SM VCTS BKN016 BKN022 OVC030 26/24 A2987 70 90 1400 150/13 RMK AO2 LTG DSNT ALQDS T02610244
53915KARA ARA20190519060013105/19/19 06:00:31  5-MIN KARA 191200Z 16014G21KT 10SM VCTS OVC016 26/24 A2986 80 90 1400 160/14G21 RMK AO2 LTG DSNT ALQDS T02610244
53915KARA ARA20190519060513805/19/19 06:05:31  5-MIN KARA 191205Z 16015G21KT 10SM VCTS BKN016 OVC022 26/24 A2986 80 90 1400 160/15G21 RMK AO2 LTG DSNT ALQDS T02610244
53915KARA ARA20190519061014205/19/19 06:10:31  5-MIN KARA 191210Z 17012G19KT 10SM TS BKN016 OVC022 26/24 A2987 70 90 1400 170/12G19 RMK AO2 LTG DSNT ALQDS TSB10 T02610244
53915KARA ARA20190519061515605/19/19 06:15:31  5-MIN KARA 191215Z 24016G22KT 10SM TS BKN016 BKN022 OVC027 27/24 A2992 30 87 1400 240/16G22 RMK AO2 LTG DSNT ALQDS TSB10 PRESRR T02670244
53915KARA ARA20190519062017905/19/19 06:20:31  5-MIN KARA 191220Z 33028G49KT 10SM TS SQ BKN014 OVC020 22/21 A2991 40 93 900 330/28G49 RMK AO2 PK WND 28049/1216 WSHFT 1206 LTG DSNT ALQDS TSB10 P0017 T02170206
53915KARA ARA20190519062517805/19/19 06:25:31  5-MIN KARA 191225Z 35033G49KT 9SM TS SQ SCT007 OVC014 19/19 A2989 60 97 600 350/33G49 RMK AO2 PK WND 28049/1216 WSHFT 1209 LTG DSNT ALQDS TSB10 P0060 T01940189
53915KARA ARA20190519063017605/19/19 06:30:31  5-MIN KARA 191230Z 35023G44KT 9SM TS BKN007 OVC016 19/19 A2992 30 100 500 350/23G44 RMK AO2 PK WND 28049/1216 WSHFT 1215 LTG DSNT ALQDS TSB10 P0087 T01890189
53915KARA ARA20190519063517705/19/19 06:35:31  5-MIN KARA 191235Z 01023G44KT 10SM TS BKN007 OVC014 19/19 A2992 30 100 500 010/23G44 RMK AO2 PK WND 28049/1216 WSHFT 1215 LTG DSNT ALQDS TSB10 P0120 T01890189
53915KARA ARA20190519064017705/19/19 06:40:31  5-MIN KARA 191240Z 36021G29KT 10SM TS BKN009 OVC014 19/19 A2993 20 100 500 360/21G29 RMK AO2 PK WND 28049/1216 WSHFT 1215 LTG DSNT ALQDS TSB10 P0132 T01890189
53915KARA ARA20190519064516905/19/19 06:45:31  5-MIN KARA 191245Z 35011G29KT 10SM TS OVC011 19/19 A2995 0 100 600 350/11G29 RMK AO2 PK WND 28049/1216 WSHFT 1215 LTG DSNT ALQDS TSB10 P0144 T01940194
53915KARA ARA20190519065017105/19/19 06:50:31  5-MIN KARA 191250Z 01015KT 10SM TS OVC011 19/19 A2994 10 100 500 010/15 RMK AO2 PK WND 28049/1216 WSHFT 1215 LTG DSNT ALQDS TSB10 SLP137 P0162 T01890189
53915KARA ARA20190519065512905/19/19 06:55:31  5-MIN KARA 191255Z 01012KT 10SM TS OVC011 19/19 A2993 20 100 500 010/12 RMK AO2 LTG DSNT ALQDS P0006 T01890189
53915KARA ARA20190519070013105/19/19 07:00:31  5-MIN KARA 191300Z 03012KT 1SM TS BR OVC011 19/19 A2993 20 100 600 030/12 RMK AO2 LTG DSNT ALQDS P0015 T01940194
53915KARA ARA20190519070513805/19/19 07:05:31  5-MIN KARA 191305Z 03010KT 1SM TS BR OVC011 19/19 A2992 30 100 600 030/10 RMK AO2 LTG DSNT ALQDS PRESFR P0017 T01940194
53915KARA ARA20190519071013005/19/19 07:10:31  5-MIN KARA 191310Z 02009KT 1SM TS BR OVC011 20/19 A2993 20 97 600 020/09 RMK AO2 LTG DSNT ALQDS P0023 T02000194
53915KARA ARA20190519071513605/19/19 07:15:31  5-MIN KARA 191315Z 04006KT 1SM TS BR OVC011 20/19 A2996 0 97 600 040/06 RMK AO2 LTG DSNT ALQDS PRESRR P0026 T02000194
53915KARA ARA20190519072012905/19/19 07:20:31  5-MIN KARA 191320Z 02007KT 1SM TS BR OVC011 20/19 A2995 0 97 600 020/07 RMK AO2 LTG DSNT ALQDS P0032 T02000194
53915KARA ARA20190519072513005/19/19 07:25:31  5-MIN KARA 191325Z 07006KT 1SM TS BR OVC011 20/20 A2995 0 100 600 070/06 RMK AO2 LTG DSNT ALQDS P0044 T02000200
53915KARA ARA20190519073013005/19/19 07:30:31  5-MIN KARA 191330Z 11010KT 1SM TS BR OVC011 20/20 A2995 0 100 600 110/10 RMK AO2 LTG DSNT ALQDS P0050 T02000200
53915KARA ARA20190519073513105/19/19 07:35:31  5-MIN KARA 191335Z 09008KT 1SM TS BR OVC011 19/19 A2994 10 100 600 080/08 RMK AO2 LTG DSNT ALQDS P0056 T01940194
53915KARA ARA20190519074013205/19/19 07:40:31  5-MIN KARA 191340Z VRB03KT 1SM TS BR OVC011 19/19 A2996 -10 100 500 VRB/03 RMK AO2 LTG DSNT ALQDS P0058 T01940194
53915KARA ARA20190519074513905/19/19 07:45:31  5-MIN KARA 191345Z 23008KT 1SM TS BR OVC011 19/19 A3000 -40 100 500 230/08 RMK AO2 LTG DSNT ALQDS PRESRR P0059 T01940194
53915KARA ARA20190519075014005/19/19 07:50:31  5-MIN KARA 191350Z 00000KT 1 1/2SM TS BR FEW009 BKN031 OVC075 19/19 A2998 -20 100 500 000/00 RMK AO2 LTG DSNT ALQDS P0063
53915KARA ARA20190519075514805/19/19 07:55:31  5-MIN KARA 191355Z 06006KT 1 1/2SM TS BR FEW013 BKN035 OVC070 19/19 A2996 0 100 600 060/06 RMK AO2 LTG DSNT ALQDS P0003 T01940194
53915KARA ARA20190519080015005/19/19 08:00:31  5-MIN KARA 191400Z 07008KT 1 1/2SM TS BR FEW013 BKN035 OVC110 19/19 A2996 -10 100 500 070/08 RMK AO2 LTG DSNT ALQDS P0004 T01940194
53915KARA ARA20190519080515005/19/19 08:05:31  5-MIN KARA 191405Z 08007KT 1 1/2SM TS BR FEW014 SCT033 BKN075 19/19 A2996 -10 100 500 080/07 RMK AO2 LTG DSNT ALQDS P0004 T01940194
53915KARA ARA20190519081014705/19/19 08:10:31  5-MIN KARA 191410Z 12005KT 1 1/2SM TS BR FEW014 SCT033 BKN110 19/19 A2996 0 100 500 120/05 RMK AO2 LTG DSNT E-SW P0005 T01940194
53915KARA ARA20190519081514205/19/19 08:15:31  5-MIN KARA 191415Z 18007KT 1 1/2SM TS BR FEW033 BKN110 19/19 A2997 -20 100 500 180/07 RMK AO2 LTG DSNT E-SW P0005 T01940194
53915KARA ARA20190519082016105/19/19 08:20:31  5-MIN KARA 191420Z 18009KT 10SM VCTS -RA FEW029 BKN110 19/19 A2998 -30 100 500 170/09 RMK AO2 LTG DSNT E-SW RAB19 TSE17 PRESRR P0005 T01940194
53915KARA ARA20190519082514805/19/19 08:25:31  5-MIN KARA 191425Z 16007KT 10SM -RA FEW014 BKN110 20/19 A2998 -20 97 600 160/07 RMK AO2 LTG DSNT E-SW RAB19 TSE17 P0006 T02000194
53915KARA ARA20190519083015505/19/19 08:30:31  5-MIN KARA 191430Z 17006KT 10SM RA FEW014 BKN100 BKN120 20/20 A2998 -30 100 600 170/06 RMK AO2 LTG DSNT E-SW RAB19 TSE17 P0007 T02000200
53915KARA ARA20190519083515605/19/19 08:35:31  5-MIN KARA 191435Z 14006KT 10SM RA FEW075 BKN100 BKN120 20/20 A2998 -20 100 600 140/06 RMK AO2 LTG DSNT ALQDS RAB19 TSE17 P0008 T02000200
53915KARA ARA20190519084015605/19/19 08:40:31  5-MIN KARA 191440Z 11006KT 10SM -RA FEW075 SCT090 BKN110 20/20 A2997 -10 100 600 110/06 RMK AO2 LTG DSNT SE-W RAB19 TSE17 P0008 T02000200
53915KARA ARA20190519084516105/19/19 08:45:31  5-MIN KARA 191445Z 10004KT 10SM VCTS -RA FEW075 SCT095 BKN110 20/20 A2997 -10 100 600 100/04 RMK AO2 LTG DSNT SE-W RAB19 TSE17 P0009 T02000200
53915KARA ARA20190519085015005/19/19 08:50:31  5-MIN KARA 191450Z 08003KT 10SM VCTS RA FEW050 BKN100 BKN110 20/20 A2998 -20 100 600 080/03 RMK AO2 LTG DSNT SE-W RAB19 TSE17 P0009
53915KARA ARA20190519085514905/19/19 08:55:31  5-MIN KARA 191455Z 05005KT 10SM VCTS -RA FEW050 FEW075 OVC100 20/20 A2998 -20 100 600 040/05 RMK AO2 LTG DSNT SE-W P0000 T02000200
53915KARA ARA20190519090014405/19/19 09:00:31  5-MIN KARA 191500Z 00000KT 10SM -RA SCT080 BKN090 OVC110 20/20 A2999 -30 100 600 000/00 RMK AO2 LTG DSNT SE-W P0000 T02000200
53915KARA ARA20190519090513805/19/19 09:05:31  5-MIN KARA 191505Z 13006KT 10SM -RA BKN080 OVC100 20/20 A2999 -30 100 600 130/06 RMK AO2 LTG DSNT SE-SW P0000 T02000200
53915KARA ARA20190519091014405/19/19 09:10:31  5-MIN KARA 191510Z 14006KT 10SM -RA FEW004 BKN075 OVC110 20/20 A3000 -40 100 600 140/06 RMK AO2 LTG DSNT SE-W P0000 T02000200
53915KARA ARA20190519091515005/19/19 09:15:31  5-MIN KARA 191515Z 17006KT 10SM -RA SCT004 BKN075 OVC100 21/20 A3001 -50 97 600 170/06 RMK AO2 LTG DSNT SE-W PRESRR P0000 T02060200
53915KARA ARA20190519092014305/19/19 09:20:31  5-MIN KARA 191520Z 15008KT 10SM -RA SCT004 BKN075 OVC100 21/20 A3001 -50 97 600 150/08 RMK AO2 LTG DSNT SE-W P0000 T02060200
53915KARA ARA20190519092513705/19/19 09:25:31  5-MIN KARA 191525Z 13006KT 10SM -RA BKN004 OVC075 21/20 A3001 -50 97 600 130/06 RMK AO2 LTG DSNT SE-SW P0000 T02060200
53915KARA ARA20190519093014705/19/19 09:30:31  5-MIN KARA 191530Z 10004KT 10SM -RA BKN004 BKN060 OVC075 21/20 A3001 -50 97 600 100/04 RMK AO2 LTG DSNT SE AND S P0000 T02060200
53915KARA ARA20190519093513405/19/19 09:35:31  5-MIN KARA 191535Z 09004KT 10SM -RA BKN004 OVC060 21/21 A3001 -50 100 600 090/04 RMK AO2 LTG DSNT S P0001 T02060206
53915KARA ARA20190519094012905/19/19 09:40:31  5-MIN KARA 191540Z 09006KT 10SM -RA BKN005 BKN055 OVC075 21/20 A3000 -40 97 600 090/06 RMK AO2 P0001 T02060200
53915KARA ARA20190519094512905/19/19 09:45:31  5-MIN KARA 191545Z 11007KT 10SM RA SCT005 BKN055 OVC080 21/21 A2999 -40 100 600 110/07 RMK AO2 P0002 T02060206
53915KARA ARA20190519095012005/19/19 09:50:31  5-MIN KARA 191550Z 11006KT 10SM -RA SCT005 BKN060 OVC085 21/21 A3000 -40 100 600 110/06 RMK AO2 P0002
53915KARA ARA20190519095513005/19/19 09:55:31  5-MIN KARA 191555Z 13009KT 10SM -RA FEW005 BKN065 OVC100 21/21 A3000 -40 100 600 130/09 RMK AO2 P0000 T02060206
53915KARA ARA20190519100013005/19/19 10:00:31  5-MIN KARA 191600Z 12008KT 10SM -RA FEW005 BKN075 OVC100 21/21 A2999 -30 100 600 120/08 RMK AO2 P0000 T02060206
53915KARA ARA20190519100513005/19/19 10:05:31  5-MIN KARA 191605Z 12007KT 10SM -RA FEW050 BKN075 BKN100 21/21 A2999 -40 100 600 120/07 RMK AO2 P0000 T02060206
53915KARA ARA20190519101011805/19/19 10:10:31  5-MIN KARA 191610Z 10006KT 10SM BKN070 21/21 A2999 -40 100 600 100/06 RMK AO2 RAE06 P0000 T02060206
53915KARA ARA20190519101512905/19/19 10:15:31  5-MIN KARA 191615Z 11007KT 10SM -RA FEW050 SCT060 BKN075 21/21 A2999 -30 97 700 110/07 RMK AO2 P0000 T02110206
53915KARA ARA20190519102012905/19/19 10:20:31  5-MIN KARA 191620Z 10006KT 10SM -RA FEW048 BKN065 BKN080 21/21 A2999 -30 97 700 100/06 RMK AO2 P0000 T02110206
53915KARA ARA20190519102513005/19/19 10:25:31  5-MIN KARA 191625Z 12006KT 10SM -RA SCT046 BKN065 BKN080 21/21 A2999 -40 100 700 120/06 RMK AO2 P0000 T02110211
53915KARA ARA20190519103013005/19/19 10:30:31  5-MIN KARA 191630Z 12008KT 10SM -RA FEW041 BKN060 BKN075 21/21 A2999 -40 100 700 120/08 RMK AO2 P0000 T02110211
53915KARA ARA20190519103512905/19/19 10:35:31  5-MIN KARA 191635Z 14005KT 10SM -RA FEW046 SCT060 BKN075 22/21 A2999 -30 97 800 140/05 RMK AO2 P0000 T02170211
53915KARA ARA20190519104012405/19/19 10:40:31  5-MIN KARA 191640Z 12006KT 10SM FEW046 SCT060 22/21 A2999 -40 97 800 120/06 RMK AO2 RAE39 P0000 T02170211
53915KARA ARA20190519104511705/19/19 10:45:31  5-MIN KARA 191645Z 14008KT 10SM FEW043 22/21 A2999 -40 93 800 130/08 RMK AO2 RAE39 P0000 T02220211
53915KARA ARA20190519105012405/19/19 10:50:31  5-MIN KARA 191650Z 13007KT 10SM FEW005 22/21 A2999 -40 93 800 130/07 RMK AO2 RAE39 SLP155 P0000 T02220211
53915KARA ARA20190519105510505/19/19 10:55:31  5-MIN KARA 191655Z 15007KT 10SM FEW005 22/21 A2999 -40 93 800 150/07 RMK AO2 T02220211
53915KARA ARA20190519110010505/19/19 11:00:31  5-MIN KARA 191700Z 12006KT 10SM FEW005 22/21 A2999 -40 93 800 120/06 RMK AO2 T02220211
53915KARA ARA20190519110511205/19/19 11:05:31  5-MIN KARA 191705Z 11008KT 10SM FEW005 FEW060 23/22 A2999 -30 93 900 100/08 RMK AO2 T02280217
53915KARA ARA20190519111011205/19/19 11:10:31  5-MIN KARA 191710Z 12007KT 10SM FEW005 FEW060 23/22 A2999 -30 93 900 120/07 RMK AO2 T02280217
53915KARA ARA20190519111511205/19/19 11:15:31  5-MIN KARA 191715Z 10005KT 10SM FEW006 FEW060 23/21 A2999 -40 90 900 100/05 RMK AO2 T02280211
53915KARA ARA20190519112011305/19/19 11:20:31  5-MIN KARA 191720Z 10007KT 10SM FEW006 SCT060 23/22 A2999 -40 90 1000 100/07 RMK AO2 T02330217
53915KARA ARA20190519112511305/19/19 11:25:31  5-MIN KARA 191725Z 13008KT 10SM FEW008 BKN060 23/22 A2999 -30 90 1000 130/08 RMK AO2 T02330217
53915KARA ARA20190519113011305/19/19 11:30:31  5-MIN KARA 191730Z 13008KT 10SM FEW008 BKN060 23/22 A3000 -40 90 1000 130/08 RMK AO2 T02330217
53915KARA ARA20190519113515005/19/19 11:35:31  5-MIN KARA 191735Z 14006KT 10SM FEW008 BKN055 23/22 A2999 -40 90 1000 110SM SCT055 25/21 A2999 -30 79 1200 130/06 RMK AO2 T02500211
53915KARA ARA20190519122510605/19/19 12:25:31  5-MIN KARA 191825Z 13007KT 10SM BKN055 25/21 A2999 -30 79 1200 130/07 RMK AO2 T02500211
53915KARA ARA20190519123010605/19/19 12:30:31  5-MIN KARA 191830Z 15006KT 10SM BKN055 25/21 A2999 -30 79 1200 150/06 RMK AO2 T02500211
53915KARA ARA20190519123510605/19/19 12:35:31  5-MIN KARA 191835Z 13006KT 10SM BKN055 25/21 A2998 -30 79 1200 130/06 RMK AO2 T02500211
53915KARA ARA20190519124010605/19/19 12:40:31  5-MIN KARA 191840Z 13006KT 10SM BKN055 25/21 A2998 -30 79 1200 130/06 RMK AO2 T02500211
53915KARA ARA20190519124510605/19/19 12:45:31  5-MIN KARA 191845Z 11006KT 10SM OVC055 25/21 A2998 -20 79 1200 100/06 RMK AO2 T02500211
53915KARA ARA20190519125011305/19/19 12:50:31  5-MIN KARA 191850Z 11006KT 10SM OVC050 26/22 A2998 -20 79 1200 110/06 RMK AO2 SLP151 T02560217
53915KARA ARA20190519125510605/19/19 12:55:31  5-MIN KARA 191855Z 11007KT 10SM OVC050 26/22 A2998 -20 79 1200 110/07 RMK AO2 T02560217
53915KARA ARA20190519130010605/19/19 13:00:31  5-MIN KARA 191900Z 11007KT 10SM OVC050 26/21 A2997 -20 73 1300 110/07 RMK AO2 T02610211
53915KARA ARA20190519130510605/19/19 13:05:31  5-MIN KARA 191905Z 13007KT 10SM BKN055 26/21 A2997 -20 73 1300 130/07 RMK AO2 T02610211
53915KARA ARA20190519131010605/19/19 13:10:31  5-MIN KARA 191910Z 13008KT 10SM BKN055 26/22 A2997 -10 76 1300 130/08 RMK AO2 T02610217
53915KARA ARA20190519131510605/19/19 13:15:31  5-MIN KARA 191915Z 12007KT 10SM BKN055 27/22 A2997 -10 74 1400 120/07 RMK AO2 T02720222
53915KARA ARA20190519132010605/19/19 13:20:31  5-MIN KARA 191920Z 12009KT 10SM SCT060 27/22 A2996 -10 74 1400 120/09 RMK AO2 T02720222
53915KARA ARA20190519132510605/19/19 13:25:31  5-MIN KARA 191925Z 12008KT 10SM SCT060 27/22 A2996 -10 73 1400 120/08 RMK AO2 T02670217
53915KARA ARA20190519133010605/19/19 13:30:31  5-MIN KARA 191930Z 15010KT 10SM SCT065 27/22 A2996 -10 71 1400 140/10 RMK AO2 T02720217
53915KARA ARA20190519133510605/19/19 13:35:31  5-MIN KARA 191935Z 13010KT 10SM SCT065 27/22 A2996 -10 74 1400 130/10 RMK AO2 T02720222
53915KARA ARA20190519134010605/19/19 13:40:31  5-MIN KARA 191940Z 13009KT 10SM FEW070 27/22 A2996 -10 74 1400 130/09 RMK AO2 T02720222
53915KARA ARA20190519134510405/19/19 13:45:31  5-MIN KARA 191945Z 14010KT 10SM FEW070 27/23 A2996 0 76 1400 130/10 RMK AO2 T02720228
53915KARA ARA20190519135011105/19/19 13:50:31  5-MIN KARA 191950Z 14011KT 10SM FEW070 27/22 A2996 0 74 1400 140/11 RMK AO2 SLP143 T02720222
53915KARA ARA20190519135510405/19/19 13:55:31  5-MIN KARA 191955Z 15010KT 10SM FEW070 27/22 A2995 0 71 1400 150/10 RMK AO2 T02720217
53915KARA ARA20190519140010105/19/19 14:00:31  5-MIN KARA 192000Z 14010KT 10SM CLR 27/22 A2995 0 71 1500 140/10 RMK AO2 T02720217
53915KARA ARA20190519140510105/19/19 14:05:31  5-MIN KARA 192005Z 14009KT 10SM CLR 27/22 A2995 0 71 1400 140/09 RMK AO2 T02720217
53915KARA ARA20190519141010405/19/19 14:10:31  5-MIN KARA 192010Z 15009KT 10SM FEW070 28/22 A2995 0 69 1500 150/09 RMK AO2 T02780217
53915KARA ARA20190519141510405/19/19 14:15:31  5-MIN KARA 192015Z 15008KT 10SM FEW070 28/22 A2995 0 69 1500 140/08 RMK AO2 T02780217
53915KARA ARA20190519142010405/19/19 14:20:31  5-MIN KARA 192020Z 15011KT 10SM SCT070 27/22 A2995 0 71 1400 150/11 RMK AO2 T02720217
53915KARA ARA20190519142510405/19/19 14:25:31  5-MIN KARA 192025Z 14011KT 10SM SCT070 28/22 A2995 0 69 1500 140/11 RMK AO2 T02780217
53915KARA ARA20190519143010405/19/19 14:30:31  5-MIN KARA 192030Z 13011KT 10SM SCT070 27/22 A2995 0 71 1400 130/11 RMK AO2 T02720217
53915KARA ARA20190519143510405/19/19 14:35:31  5-MIN KARA 192035Z 14011KT 10SM SCT070 27/21 A2995 0 69 1400 140/11 RMK AO2 T02720211
53915KARA ARA20190519144011105/19/19 14:40:31  5-MIN KARA 192040Z 14010KT 10SM FEW046 BKN070 27/21 A2995 0 71 1400 140/10 RMK AO2 T02670211
53915KARA ARA20190519144511105/19/19 14:45:31  5-MIN KARA 192045Z 14009KT 10SM SCT046 BKN070 27/22 A2995 0 73 1400 140/09 RMK AO2 T02670217
53915KARA ARA20190519145012405/19/19 14:50:31  5-MIN KARA 192050Z 14011KT 10SM FEW048 BKN070 27/21 A2994 0 71 1400 140/11 RMK AO2 SLP139 T02670211 58003
53915KARA ARA20190519145511205/19/19 14:55:31  5-MIN KARA 192055Z 14011KT 10SM FEW048 BKN070 27/21 A2994 10 71 1400 140/11 RMK AO2 T02670211
53915KARA ARA20190519150011205/19/19 15:00:31  5-MIN KARA 192100Z 13011KT 10SM FEW047 BKN070 27/22 A2994 10 71 1500 130/11 RMK AO2 T02720217
53915KARA ARA20190519150511205/19/19 15:05:31  5-MIN KARA 192105Z 13010KT 10SM FEW047 BKN070 27/22 A2993 10 71 1500 130/10 RMK AO2 T02720217
53915KARA ARA20190519151010505/19/19 15:10:31  5-MIN KARA 192110Z 15010KT 10SM BKN070 27/22 A2994 10 71 1500 150/10 RMK AO2 T02720217
53915KARA ARA20190519151510505/19/19 15:15:31  5-MIN KARA 192115Z 14009KT 10SM BKN065 27/22 A2994 10 73 1400 140/09 RMK AO2 T02670217
53915KARA ARA20190519152011205/19/19 15:20:31  5-MIN KARA 192120Z 14010KT 10SM FEW048 BKN065 27/22 A2994 10 73 1400 140/10 RMK AO2 T02670217
53915KARA ARA20190519152511105/19/19 15:25:31  5-MIN KARA 192125Z 15010KT 10SM SCT048 BKN065 26/21 A2994 0 73 1300 150/10 RMK AO2 T02610211
53915KARA ARA20190519153011205/19/19 15:30:31  5-MIN KARA 192130Z 14010KT 10SM BKN048 OVC060 26/21 A2994 10 73 1300 140/10 RMK AO2 T02610211
53915KARA ARA20190519153511205/19/19 15:35:31  5-MIN KARA 192135Z 14009KT 10SM BKN050 OVC065 27/22 A2994 10 73 1400 140/09 RMK AO2 T02670217
53915KARA ARA20190519154011205/19/19 15:40:31  5-MIN KARA 192140Z 15010KT 10SM BKN055 OVC070 27/22 A2994 10 73 1400 150/10 RMK AO2 T02670217
53915KARA ARA20190519154511205/19/19 15:45:31  5-MIN KARA 192145Z 15009KT 10SM BKN055 OVC070 27/21 A2994 10 71 1400 150/09 RMK AO2 T02670211
53915KARA ARA20190519155017505/19/19 15:50:31  5-MIN KARA 192150Z 15008KT 10SM OVC055 26/21 A2994 1:31  5-MIN KARA 200000Z 1/05 RMK AO2 T0256021105/19/19 18:15:31  5-MI20 81 1200 150/05 RMK AO2 T02500217
53915KARA ARA20190519183010205/19/19 18:30:31  5-MIN KARA 200030Z 15005KT 10SM CLR 25/22 A2993 20 81 1200 150/05 RMK AO2 T02500217
53915KARA ARA20190519183510205/19/19 18:35:31  5-MIN KARA 200035Z 16006KT 10SM CLR 25/21 A2993 20 79 1200 160/06 RMK AO2 T02500211
53915KARA ARA20190519184010205/19/19 18:40:31  5-MIN KARA 200040Z 16006KT 10SM CLR 25/21 A2993 20 79 1200 150/06 RMK AO2 T02500211
53915KARA ARA20190519184510205/19/19 18:45:31  5-MIN KARA 200045Z 15005KT 10SM CLR 24/22 A2993 20 84 1200 150/05 RMK AO2 T02440217
53915KARA ARA20190519185010905/19/19 18:50:31  5-MIN KARA 200050Z 13004KT 10SM CLR 24/21 A2993 10 81 1200 130/04 RMK AO2 SLP136 T02440211
53915KARA ARA20190519185510205/19/19 18:55:31  5-MIN KARA 200055Z 13004KT 10SM CLR 24/21 A2993 20 81 1200 130/04 RMK AO2 T02440211
53915KARA ARA20190519190010505/19/19 19:00:31  5-MIN KARA 200100Z 13004KT 10SM FEW075 24/22 A2994 10 84 1200 130/04 RMK AO2 T02440217
53915KARA ARA20190519190510505/19/19 19:05:31  5-MIN KARA 200105Z 14004KT 10SM FEW075 24/21 A2994 10 81 1100 140/04 RMK AO2 T02440211
53915KARA ARA20190519191010505/19/19 19:10:31  5-MIN KARA 200110Z 14004KT 10SM FEW075 24/22 A2994 10 87 1100 140/04 RMK AO2 T02390217
53915KARA ARA20190519191510505/19/19 19:15:31  5-MIN KARA 200115Z 13004KT 10SM FEW075 24/22 A2994 10 87 1100 130/04 RMK AO2 T02390217
53915KARA ARA20190519192010505/19/19 19:20:31  5-MIN KARA 200120Z 13004KT 10SM FEW075 24/22 A2994 10 87 1100 120/04 RMK AO2 T02390217
53915KARA ARA20190519192510505/19/19 19:25:31  5-MIN KARA 200125Z 13004KT 10SM FEW075 24/22 A2994 10 87 1100 130/04 RMK AO2 T02390217
53915KARA ARA20190519193010705/19/19 19:30:31  5-MIN KARA 200130Z AUTO 13004KT 10SM CLR 24/22 A2994 10 90 1100 130/04 RMK AO2 T02390222
53915KARA ARA20190519193510705/19/19 19:35:31  5-MIN KARA 200135Z AUTO 14006KT 10SM CLR 23/22 A2994 10 93 1000 140/06 RMK AO2 T02330222
53915KARA ARA20190519194010705/19/19 19:40:31  5-MIN KARA 200140Z AUTO 14007KT 10SM CLR 23/22 A2994 10 90 1000 140/07 RMK AO2 T02330217
53915KARA ARA20190519194510705/19/19 19:45:31  5-MIN KARA 200145Z AUTO 14006KT 10SM CLR 23/22 A2994 10 90 1000 140/06 RMK AO2 T02330217
53915KARA ARA20190519195011405/19/19 19:50:31  5-MIN KARA 200150Z AUTO 15006KT 10SM CLR 23/22 A2993 10 93 1000 150/06 RMK AO2 SLP135 T02330222
53915KARA ARA20190519195510705/19/19 19:55:31  5-MIN KARA 200155Z AUTO 15005KT 10SM CLR 23/22 A2993 20 93 1000 150/05 RMK AO2 T02330222
53915KARA ARA20190519200010705/19/19 20:00:31  5-MIN KARA 200200Z AUTO 15005KT 10SM CLR 23/22 A2993 10 93 1000 150/05 RMK AO2 T02330222
53915KARA ARA20190519200510705/19/19 20:05:31  5-MIN KARA 200205Z AUTO 14005KT 10SM CLR 23/22 A2993 20 90 1000 140/05 RMK AO2 T02330217
53915KARA ARA20190519201010705/19/19 20:10:31  5-MIN KARA 200210Z AUTO 15006KT 10SM CLR 23/22 A2993 20 90 1000 150/06 RMK AO2 T02330217
53915KARA ARA20190519201510705/19/19 20:15:31  5-MIN KARA 200215Z AUTO 14006KT 10SM CLR 23/22 A2993 20 90 1000 140/06 RMK AO2 T02330217
53915KARA ARA20190519202010705/19/19 20:20:31  5-MIN KARA 200220Z AUTO 14005KT 10SM CLR 23/22 A2994 10 93 1000 140/05 RMK AO2 T02330222
53915KARA ARA20190519202510705/19/19 20:25:31  5-MIN KARA 200225Z AUTO 15006KT 10SM CLR 23/22 A2994 10 93 1000 150/06 RMK AO2 T02330222
53915KARA ARA20190519203012305/19/19 20:30:31  5-MIN KARA 200230Z AUTO 14007KT 100V160 10SM CLR 23/22 A2994 10 90 1000 140/07 100V160 RMK AO2 T02330217
53915KARA ARA20190519203509705/19/19 20:35:31  5-MIN KARA 200235Z AUTO 10SM CLR 23/22 A2994 10 93 1000 M /M RMK AO2 T02330222
53915KARA ARA20190519204009705/19/19 20:40:31  5-MIN KARA 200240Z AUTO 10SM CLR 23/22 A2994 10 93 1000 M /M RMK AO2 T02330222
53915KARA ARA20190519204510705/19/19 20:45:31  5-MIN KARA 200245Z AUTO 14006KT 10SM CLR 23/22 A2994 10 93 1000 140/06 RMK AO2 T02330222
53915KARA ARA20190519205011905/19/19 20:50:31  5-MIN KARA 200250Z AUTO 14006KT 10SM CLR 23/22 A2995 0 93 1000 130/06 RMK AO2 SLP140 T02330222 56010
53915KARA ARA20190519205510605/19/19 20:55:31  5-MIN KARA 200255Z AUTO 13006KT 10SM CLR 23/22 A2995 0 93 1000 130/06 RMK AO2 T02330222
53915KARA ARA20190519210010605/19/19 21:00:31  5-MIN KARA 200300Z AUTO 14006KT 10SM CLR 24/22 A2995 0 90 1100 140/06 RMK AO2 T02390222
53915KARA ARA20190519210510605/19/19 21:05:31  5-MIN KARA 200305Z AUTO 13005KT 10SM CLR 23/22 A2995 0 93 1000 130/05 RMK AO2 T02330222
53915KARA ARA20190519211010605/19/19 21:10:31  5-MIN KARA 200310Z AUTO 13005KT 10SM CLR 23/22 A2996 0 93 1000 130/05 RMK AO2 T02330222
53915KARA ARA20190519211510605/19/19 21:15:31  5-MIN KARA 200315Z AUTO 13004KT 10SM CLR 24/22 A2996 0 90 1100 130/04 RMK AO2 T02390222
53915KARA ARA20190519212010805/19/19 21:20:31  5-MIN KARA 200320Z AUTO 13005KT 10SM CLR 24/22 A2996 -10 90 1100 130/05 RMK AO2 T02390222
53915KARA ARA20190519212510805/19/19 21:25:31  5-MIN KARA 200325Z AUTO 13004KT 10SM CLR 23/22 A2996 -10 93 1000 120/04 RMK AO2 T02330222
53915KARA ARA20190519213010805/19/19 21:30:31  5-MIN KARA 200330Z AUTO 13005KT 10SM CLR 23/22 A2996 -10 93 1000 120/05 RMK AO2 T02330222
53915KARA ARA20190519213510805/19/19 21:35:31  5-MIN KARA 200335Z AUTO 13006KT 10SM CLR 23/22 A2996 -10 93 1000 120/06 RMK AO2 T02330222
53915KARA ARA20190519214010805/19/19 21:40:31  5-MIN KARA 200340Z AUTO 13006KT 10SM CLR 23/22 A2997 -10 93 1000 130/06 RMK AO2 T02330222
53915KARA ARA20190519214510805/19/19 21:45:31  5-MIN KARA 200345Z AUTO 12006KT 10SM CLR 23/22 A2997 -10 93 1000 120/06 RMK AO2 T02330222
53915KARA ARA20190519215011505/19/19 21:50:31  5-MIN KARA 200350Z AUTO 12006KT 10SM CLR 24/22 A2997 -10 90 1100 110/06 RMK AO2 SLP147 T02390222
53915KARA ARA20190519215510805/19/19 21:55:31  5-MIN KARA 200355Z AUTO 12007KT 10SM CLR 23/22 A2997 -10 93 1000 120/07 RMK AO2 T02330222
53915KARA ARA20190519220010805/19/19 22:00:31  5-MIN KARA 200400Z AUTO 11007KT 10SM CLR 24/22 A2997 -20 90 1000 110/07 RMK AO2 T02390222
53915KARA ARA20190519220510805/19/19 22:05:31  5-MIN KARA 200405Z AUTO 11006KT 10SM CLR 24/22 A2997 -20 90 1000 110/06 RMK AO2 T02390222
53915KARA ARA20190519221010805/19/19 22:10:31  5-MIN KARA 200410Z AUTO 12005KT 10SM CLR 23/22 A2997 -10 93 1000 120/05 RMK AO2 T02330222
53915KARA ARA20190519221510805/19/19 22:15:31  5-MIN KARA 200415Z AUTO 12006KT 10SM CLR 23/22 A2997 -10 93 1000 120/06 RMK AO2 T02330222
53915KARA ARA20190519222010805/19/19 22:20:31  5-MIN KARA 200420Z AUTO 13006KT 10SM CLR 23/22 A2996 -10 93 1000 120/06 RMK AO2 T02330222
53915KARA ARA20190519222510805/19/19 22:25:31  5-MIN KARA 200425Z AUTO 13006KT 10SM CLR 23/22 A2997 -10 93 1000 130/06 RMK AO2 T02330222
53915KARA ARA20190519223010805/19/19 22:30:31  5-MIN KARA 200430Z AUTO 13005KT 10SM CLR 23/22 A2997 -10 93 1000 130/05 RMK AO2 T02330222
53915KARA ARA20190519223510805/19/19 22:35:31  5-MIN KARA 200435Z AUTO 13007KT 10SM CLR 23/22 A2997 -10 93 1000 130/07 RMK AO2 T02330222
53915KARA ARA20190519224010805/19/19 22:40:31  5-MIN KARA 200440Z AUTO 13006KT 10SM CLR 23/22 A2997 -10 93 1000 130/06 RMK AO2 T02330222
53915KARA ARA20190519224510805/19/19 22:45:31  5-MIN KARA 200445Z AUTO 14005KT 10SM CLR 23/22 A2997 -20 93 1000 140/05 RMK AO2 T02330222
53915KARA ARA20190519225011505/19/19 22:50:31  5-MIN KARA 200450Z AUTO 14005KT 10SM CLR 23/22 A2997 -20 93 1000 140/05 RMK AO2 SLP149 T02330222
53915KARA ARA20190519225510805/19/19 22:55:31  5-MIN KARA 200455Z AUTO 12003KT 10SM CLR 23/22 A2997 -20 93 1000 120/03 RMK AO2 T02330222
53915KARA ARA20190519230010805/19/19 23:00:31  5-MIN KARA 200500Z AUTO 10003KT 10SM CLR 23/22 A2998 -20 93 1000 100/03 RMK AO2 T02330222
53915KARA ARA20190519230510805/19/19 23:05:31  5-MIN KARA 200505Z AUTO 00000KT 10SM CLR 23/22 A2998 -30 93 1000 000/00 RMK AO2 T02330222
53915KARA ARA20190519231010805/19/19 23:10:31  5-MIN KARA 200510Z AUTO 11003KT 10SM CLR 23/22 A2998 -20 93 1000 110/03 RMK AO2 T02330222
53915KARA ARA20190519231510805/19/19 23:15:31  5-MIN KARA 200515Z AUTO 12003KT 10SM CLR 23/22 A2998 -20 93 1000 120/03 RMK AO2 T02330222
53915KARA ARA20190519232010705/19/19 23:20:31  5-MIN KARA 200520Z AUTO 13005KT 10SM CLR 23/22 A2997 -20 97 900 120/05 RMK AO2 T02280222
53915KARA ARA20190519232510705/19/19 23:25:31  5-MIN KARA 200525Z AUTO 13005KT 10SM CLR 23/22 A2997 -20 97 900 120/05 RMK AO2 T02280222
53915KARA ARA20190519233010705/19/19 23:30:31  5-MIN KARA 200530Z AUTO 13005KT 10SM CLR 23/22 A2997 -20 97 900 130/05 RMK AO2 T02280222
53915KARA ARA20190519233510705/19/19 23:35:31  5-MIN KARA 200535Z AUTO 14005KT 10SM CLR 23/22 A2997 -20 97 900 140/05 RMK AO2 T02280222
53915KARA ARA20190519234010705/19/19 23:40:31  5-MIN KARA 200540Z AUTO 14004KT 10SM CLR 23/22 A2997 -20 97 900 140/04 RMK AO2 T02280222
53915KARA ARA20190519234510705/19/19 23:45:31  5-MIN KARA 200545Z AUTO 00000KT 10SM CLR 23/22 A2997 -20 97 900 000/00 RMK AO2 T02280222
53915KARA ARA20190519235014205/19/19 23:50:31  5-MIN KARA 200550Z AUTO 16003KT 10SM CLR 23/22 A2997 -20 97 900 160/03 RMK AO2 SLP149 T02280222 10261 20228 402780189 51011
53915KARA ARA20190519235510705/19/19 23:55:31  5-MIN KARA 200555Z AUTO 16004KT 10SM CLR 23/22 A2997 -20 97 900 160/04 RMK AO2 T02280222
53915KARA ARA20190520000010705/20/19 00:00:31  5-MIN KARA 200600Z AUTO 16004KT 10SM CLR 23/22 A2997 -20 97 900 160/04 RMK AO2 T02280222
53915KARA ARA20190520000510705/20/19 00:05:31  5-MIN KARA 200605Z AUTO 15004KT 10SM CLR 23/22 A2997 -20 97 900 150/04 RMK AO2 T02280222
53915KARA ARA20190520001010705/20/19 00:10:31  5-MIN KARA 200610Z AUTO 14005KT 10SM CLR 23/22 A2997 -10 97 900 140/05 RMK AO2 T02280222
53915KARA ARA20190520001510705/20/19 00:15:31  5-MIN KARA 200615Z AUTO 13006KT 10SM CLR 23/22 A2996 -10 97 900 130/06 RMK AO2 T02280222
53915KARA ARA20190520002010505/20/19 00:20:31  5-MIN KARA 200620Z AUTO 14005KT 10SM CLR 23/22 A2996 0 97 900 140/05 RMK AO2 T02280222
53915KARA ARA20190520002510805/20/19 00:25:31  5-MIN KARA 200625Z AUTO 15005KT 10SM FEW007 23/22 A2996 0 97 900 150/05 RMK AO2 T02280222
53915KARA ARA20190520003010905/20/19 00:30:31  5-MIN KARA 200630Z AUTO 16005KT 10SM FEW007 23/23 A2996 0 100 900 160/05 RMK AO2 T02280228
53915KARA ARA20190520003510905/20/19 00:35:31  5-MIN KARA 200635Z AUTO 16006KT 10SM FEW007 23/23 A2996 0 100 900 160/06 RMK AO2 T02280228
53915KARA ARA20190520004010905/20/19 00:40:31  5-MIN KARA 200640Z AUTO 16005KT 10SM SCT007 23/23 A2996 0 100 900 160/05 RMK AO2 T02280228
53915KARA ARA20190520004510905/20/19 00:45:31  5-MIN KARA 200645Z AUTO 15006KT 10SM SCT007 23/23 A2995 0 100 900 150/06 RMK AO2 T02280228
53915KARA ARA20190520005009905/20/19 00:50:31  5-MIN KARA 200650Z AUTO 15006KT 10SM BKN006 23/23 A2995 0 97 1000 150/06 RMK AO2
53915KARA ARA20190520005510905/20/19 00:55:31  5-MIN KARA 200655Z AUTO 15006KT 10SM SCT006 23/23 A2995 0 97 1000 150/06 RMK AO2 T02330228
53915KARA ARA20190520010010905/20/19 01:00:31  5-MIN KARA 200700Z AUTO 15006KT 10SM SCT005 23/23 A2995 0 97 1000 150/06 RMK AO2 T02330228
53915KARA ARA20190520010511005/20/19 01:05:31  5-MIN KARA 200705Z AUTO 15006KT 10SM SCT005 23/23 A2994 10 97 1000 150/06 RMK AO2 T02330228
53915KARA ARA20190520011010905/20/19 01:10:31  5-MIN KARA 200710Z AUTO 15006KT 10SM BKN005 23/23 A2995 0 97 1000 150/06 RMK AO2 T02330228
53915KARA ARA20190520011510905/20/19 01:15:31  5-MIN KARA 200715Z AUTO 15005KT 10SM BKN005 23/23 A2995 0 97 1000 150/05 RMK AO2 T02330228
53915KARA ARA20190520012010905/20/19 01:20:31  5-MIN KARA 200720Z AUTO 15004KT 10SM BKN005 23/23 A2995 0 97 1000 150/04 RMK AO2 T02330228
53915KARA ARA20190520012510905/20/19 01:25:31  5-MIN KARA 200725Z AUTO 15003KT 10SM OVC005 23/23 A2995 0 97 1000 140/03 RMK AO2 T02330228
53915KARA ARA20190520013010905/20/19 01:30:31  5-MIN KARA 200730Z AUTO 15004KT 10SM OVC005 23/23 A2995 0 97 1000 150/04 RMK AO2 T02330228
53915KARA ARA20190520013510905/20/19 01:35:31  5-MIN KARA 200735Z AUTO 15005KT 10SM OVC005 23/23 A2995 0 97 1000 150/05 RMK AO2 T02330228
53915KARA ARA20190520014011005/20/19 01:40:31  5-MIN KARA 200740Z AUTO 15004KT 10SM OVC005 23/23 A2995 0 100 1000 150/04 RMK AO2 T02330233
53915KARA ARA20190520014511005/20/19 01:45:31  5-MIN KARA 200745Z AUTO 15004KT 10SM OVC005 23/23 A2995 0 100 1000 140/04 RMK AO2 T02330233
53915KARA ARA20190520015019905/20/19 01:50:31  5-MIN KARA 200750Z AUTO 14006KT 10SM OVC005 23/23 A2995 0 100 1000 140/06 RMK AO2 SLP140 T0233023305/20805Z AUTO 12006KT 10SM OVC004 23/23 A2995 0 100 1000 120/06 RMK AO2 T02330233
53915KARA ARA20190520021011005/20/19 02:10:31  5-MIN KARA 200810Z AUTO 13006KT 10SM OVC004 23/23 A2995 0 100 1000 130/06 RMK AO2 T02330233
53915KARA ARA20190520021511005/20/19 02:15:31  5-MIN KARA 200815Z AUTO 13006KT 10SM OVC004 23/23 A2995 0 100 1000 130/06 RMK AO2 T02330233
53915KARA ARA20190520022011005/20/19 02:20:31  5-MIN KARA 200820Z AUTO 13006KT 10SM OVC003 23/23 A2995 0 100 1000 130/06 RMK AO2 T02330233
53915KARA ARA20190520022511005/20/19 02:25:31  5-MIN KARA 200825Z AUTO 14007KT 10SM OVC003 23/23 A2996 0 100 1000 140/07 RMK AO2 T02330233
53915KARA ARA20190520023011005/20/19 02:30:31  5-MIN KARA 200830Z AUTO 14006KT 10SM OVC003 23/23 A2996 0 100 1000 140/06 RMK AO2 T02330233
53915KARA ARA20190520023511205/20/19 02:35:31  5-MIN KARA 200835Z AUTO 13005KT 10SM OVC002 23/23 A2996 -10 100 1000 130/05 RMK AO2 T02330233
53915KARA ARA20190520024011205/20/19 02:40:31  5-MIN KARA 200840Z AUTO 14006KT 10SM OVC002 23/23 A2996 -10 100 1000 140/06 RMK AO2 T02330233
53915KARA ARA20190520024511005/20/19 02:45:31  5-MIN KARA 200845Z AUTO 14005KT 10SM OVC002 23/23 A2996 0 100 1000 140/05 RMK AO2 T02330233
53915KARA ARA20190520025012305/20/19 02:50:31  5-MIN KARA 200850Z AUTO 13006KT 10SM OVC002 23/23 A2996 0 100 1000 130/06 RMK AO2 SLP144 T02330233 51008
53915KARA ARA20190520025511005/20/19 02:55:31  5-MIN KARA 200855Z AUTO 13005KT 10SM OVC002 23/23 A2996 0 100 1000 130/05 RMK AO2 T02330233
53915KARA ARA20190520030011005/20/19 03:00:31  5-MIN KARA 200900Z AUTO 13007KT 10SM OVC002 23/23 A2996 0 100 1000 130/07 RMK AO2 T02330233
53915KARA ARA20190520030511005/20/19 03:05:31  5-MIN KARA 200905Z AUTO 13006KT 10SM OVC002 23/23 A2996 0 100 1000 130/06 RMK AO2 T02330233
53915KARA ARA20190520031011005/20/19 03:10:31  5-MIN KARA 200910Z AUTO 12006KT 10SM OVC002 23/23 A2996 0 100 1000 120/06 RMK AO2 T02330233
53915KARA ARA20190520031511005/20/19 03:15:31  5-MIN KARA 200915Z AUTO 13006KT 10SM OVC002 23/23 A2996 0 100 1000 130/06 RMK AO2 T02330233
53915KARA ARA20190520032011205/20/19 03:20:31  5-MIN KARA 200920Z AUTO 12007KT 10SM OVC003 23/23 A2996 -10 100 1000 120/07 RMK AO2 T02330233
53915KARA ARA20190520032511005/20/19 03:25:31  5-MIN KARA 200925Z AUTO 12006KT 10SM OVC003 23/23 A2996 0 100 1000 120/06 RMK AO2 T02330233
53915KARA ARA20190520033011005/20/19 03:30:31  5-MIN KARA 200930Z AUTO 12006KT 10SM OVC003 23/23 A2996 0 100 1000 120/06 RMK AO2 T02330233
53915KARA ARA20190520033511005/20/19 03:35:31  5-MIN KARA 200935Z AUTO 12006KT 10SM OVC003 23/23 A2996 0 100 1000 120/06 RMK AO2 T02330233
53915KARA ARA20190520034011205/20/19 03:40:31  5-MIN KARA 200940Z AUTO 11007KT 10SM OVC003 23/23 A2996 -10 100 1000 110/07 RMK AO2 T02330233
53915KARA ARA20190520034511205/20/19 03:45:31  5-MIN KARA 200945Z AUTO 12007KT 10SM OVC003 23/23 A2996 -10 100 1000 120/07 RMK AO2 T02330233
53915KARA ARA20190520035011905/20/19 03:50:31  5-MIN KARA 200950Z AUTO 12006KT 10SM OVC003 23/23 A2996 -10 100 1000 120/06 RMK AO2 SLP144 T02330233
53915KARA ARA20190520035510905/20/19 03:55:31  5-MIN KARA 200955Z AUTO 12007KT 10SM OVC003 24/23 A2996 0 97 1100 120/07 RMK AO2 T02390233
53915KARA ARA20190520040010905/20/19 04:00:31  5-MIN KARA 201000Z AUTO 12006KT 10SM OVC003 24/23 A2996 0 97 1100 120/06 RMK AO2 T02390233
53915KARA ARA20190520040510905/20/19 04:05:31  5-MIN KARA 201005Z AUTO 13006KT 10SM OVC004 24/23 A2996 0 97 1100 130/06 RMK AO2 T02390233
53915KARA ARA20190520041011205/20/19 04:10:31  5-MIN KARA 201010Z AUTO 13006KT 10SM OVC004 24/24 A2996 -10 100 1100 130/06 RMK AO2 T02390239
53915KARA ARA20190520041511205/20/19 04:15:31  5-MIN KARA 201015Z AUTO 13008KT 10SM OVC003 24/24 A2996 -10 100 1100 130/08 RMK AO2 T02390239
53915KARA ARA20190520042010705/20/19 04:20:31  5-MIN KARA 201020Z 13006KT 10SM OVC003 24/24 A2996 -10 100 1100 130/06 RMK AO2 T02390239
53915KARA ARA20190520042510705/20/19 04:25:31  5-MIN KARA 201025Z 13009KT 10SM OVC003 24/24 A2997 -10 100 1100 130/09 RMK AO2 T02390239
53915KARA ARA20190520043010705/20/19 04:30:31  5-MIN KARA 201030Z 12006KT 10SM OVC003 24/24 A2997 -10 100 1100 120/06 RMK AO2 T02390239
53915KARA ARA20190520043510705/20/19 04:35:31  5-MIN KARA 201035Z 12006KT 10SM OVC003 24/24 A2997 -10 100 1100 120/06 RMK AO2 T02390239
53915KARA ARA20190520044010705/20/19 04:40:31  5-MIN KARA 201040Z 13006KT 10SM OVC002 24/24 A2997 -10 100 1100 130/06 RMK AO2 T02390239
53915KARA ARA20190520044510705/20/19 04:45:31  5-MIN KARA 201045Z 13006KT 10SM OVC002 24/24 A2997 -10 100 1000 130/06 RMK AO2 T02390239
53915KARA ARA20190520045009905/20/19 04:50:31  5-MIN KARA 201050Z 12006KT 2SM BR OVC002 24/24 A2997 -10 100 1000 120/06 RMK AO2
53915KARA ARA20190520045511005/20/19 04:55:31  5-MIN KARA 201055Z 13007KT 10SM BR OVC002 24/24 A2997 -10 100 1000 130/07 RMK AO2 T02390239
53915KARA ARA20190520050010905/20/19 05:00:31  5-MIN KARA 201100Z 13007KT 2SM BR OVC002 24/24 A2997 -10 100 1000 120/07 RMK AO2 T02390239
53915KARA ARA20190520050510905/20/19 05:05:31  5-MIN KARA 201105Z 13007KT 2SM BR OVC002 24/24 A2997 -10 100 1100 130/07 RMK AO2 T02390239
53915KARA ARA20190520051010905/20/19 05:10:31  5-MIN KARA 201110Z 13006KT 2SM BR OVC002 24/24 A2997 -10 100 1000 130/06 RMK AO2 T02390239
53915KARA ARA20190520051510905/20/19 05:15:31  5-MIN KARA 201115Z 13005KT 2SM BR OVC002 24/24 A2997 -20 100 1000 130/05 RMK AO2 T02390239
53915KARA ARA20190520052010905/20/19 05:20:31  5-MIN KARA 201120Z 13006KT 2SM BR OVC002 24/24 A2997 -20 100 1000 130/06 RMK AO2 T02390239
53915KARA ARA20190520052510905/20/19 05:25:31  5-MIN KARA 201125Z 12006KT 2SM BR OVC002 24/24 A2998 -20 100 1000 120/06 RMK AO2 T02390239
53915KARA ARA20190520053010905/20/19 05:30:31  5-MIN KARA 201130Z 13006KT 2SM BR OVC002 24/24 A2998 -20 100 1000 130/06 RMK AO2 T02390239
53915KARA ARA20190520053510905/20/19 05:35:31  5-MIN KARA 201135Z 12006KT 2SM BR OVC002 24/24 A2998 -20 100 1000 120/06 RMK AO2 T02390239
53915KARA ARA20190520054010905/20/19 05:40:31  5-MIN KARA 201140Z 12005KT 2SM BR OVC002 24/24 A2998 -20 100 1000 120/05 RMK AO2 T02390239
53915KARA ARA20190520054510905/20/19 05:45:31  5-MIN KARA 201145Z 12004KT 1SM BR OVC002 24/24 A2998 -30 100 1000 120/04 RMK AO2 T02390239
53915KARA ARA20190520055010105/20/19 05:50:31  5-MIN KARA 201150Z 12005KT 1/2SM FG OVC002 24/24 A2998 -30 100 1000 120/05 RMK AO2
53915KARA ARA20190520055511105/20/19 05:55:31  5-MIN KARA 201155Z 13005KT 1/2SM FG OVC002 24/24 A2998 -30 100 1000 130/05 RMK AO2 T02390239
53915KARA ARA20190520060011105/20/19 06:00:31  5-MIN KARA 201200Z 13007KT 1/2SM FG OVC002 24/24 A2999 -30 100 1000 130/07 RMK AO2 T02390239
53915KARA ARA20190520060511105/20/19 06:05:31  5-MIN KARA 201205Z 13006KT 1/2SM FG OVC002 24/24 A2999 -30 100 1000 130/06 RMK AO2 T02390239
53915KARA ARA20190520061011105/20/19 06:10:31  5-MIN KARA 201210Z 13005KT 1/2SM FG OVC002 24/24 A2999 -30 100 1100 130/05 RMK AO2 T02440244
53915KARA ARA20190520061511105/20/19 06:15:31  5-MIN KARA 201215Z 13006KT 1/2SM FG OVC002 24/24 A2999 -30 100 1100 130/06 RMK AO2 T02440244
53915KARA ARA20190520062010905/20/19 06:20:31  5-MIN KARA 201220Z 13006KT 1SM BR OVC002 24/24 A2999 -30 100 1100 130/06 RMK AO2 T02440244
53915KARA ARA20190520062510905/20/19 06:25:31  5-MIN KARA 201225Z 13005KT 1SM BR OVC002 24/24 A2999 -30 100 1100 130/05 RMK AO2 T02440244
53915KARA ARA20190520063010905/20/19 06:30:31  5-MIN KARA 201230Z 13006KT 1SM BR OVC002 24/24 A2999 -40 100 1100 130/06 RMK AO2 T02440244
53915KARA ARA20190520063510905/20/19 06:35:31  5-MIN KARA 201235Z 13006KT 1SM BR OVC003 24/24 A3000 -40 100 1100 130/06 RMK AO2 T02440244
53915KARA ARA20190520064010905/20/19 06:40:31  5-MIN KARA 201240Z 12006KT 3SM BR OVC003 24/24 A2999 -40 100 1100 120/06 RMK AO2 T02440244
53915KARA ARA20190520064510905/20/19 06:45:31  5-MIN KARA 201245Z 13006KT 3SM BR OVC004 24/24 A2999 -40 100 1100 130/06 RMK AO2 T02440244
53915KARA ARA20190520065009905/20/19 06:50:31  5-MIN KARA 201250Z 12007KT 3SM BR OVC004 24/24 A3000 -40 100 1100 120/07 RMK AO2
53915KARA ARA20190520065510705/20/19 06:55:31  5-MIN KARA 201255Z 13007KT 10SM OVC004 24/24 A3000 -40 100 1100 130/07 RMK AO2 T02440244
53915KARA ARA20190520070010705/20/19 07:00:31  5-MIN KARA 201300Z 13007KT 10SM OVC004 24/24 A3000 -40 100 1100 130/07 RMK AO2 T02440244
53915KARA ARA20190520070510605/20/19 07:05:31  5-MIN KARA 201305Z 13007KT 10SM OVC004 25/24 A3000 -40 97 1100 120/07 RMK AO2 T02500244
53915KARA ARA20190520071010605/20/19 07:10:31  5-MIN KARA 201310Z 13006KT 10SM OVC004 25/24 A2999 -40 97 1100 130/06 RMK AO2 T02500244
53915KARA ARA20190520071511805/20/19 07:15:31  5-MIN KARA 201315Z 13007KT 10SM OVC004 25/24 A3000 -40 97 1100 130/07 RMK AO2 CIG 003V008 T02500244
53915KARA ARA20190520072011805/20/19 07:20:31  5-MIN KARA 201320Z 13009KT 10SM OVC004 25/24 A3000 -40 97 1100 120/09 RMK AO2 CIG 003V008 T02500244
53915KARA ARA20190520072512505/20/19 07:25:31  5-MIN KARA 201325Z 14008KT 10SM BKN004 OVC013 25/24 A3000 -40 97 1100 140/08 RMK AO2 CIG 003V008 T02500244
53915KARA ARA20190520073011305/20/19 07:30:31  5-MIN KARA 201330Z 14008KT 10SM BKN005 OVC013 25/24 A3000 -40 97 1100 130/08 RMK AO2 T02500244
53915KARA ARA20190520073512005/20/19 07:35:31  5-MIN KARA 201335Z 14008KT 10SM BKN005 BKN009 OVC014 25/24 A3000 -40 97 1100 140/08 RMK AO2 T02500244
53915KARA ARA20190520074012005/20/19 07:40:31  5-MIN KARA 201340Z 14007KT 10SM BKN007 BKN013 OVC020 26/24 A3000 -40 93 1200 140/07 RMK AO2 T02560244
53915KARA ARA20190520074511905/20/19 07:45:31  5-MIN KARA 201345Z 14007KT 7SM BKN007 BKN013 OVC020 26/24 A3000 -40 93 1200 140/07 RMK AO2 T02560244
53915KARA ARA20190520075010905/20/19 07:50:31  5-MIN KARA 201350Z 13007KT 7SM SCT007 BKN011 OVC018 26/24 A3000 -40 93 1200 130/07 RMK AO2
53915KARA ARA20190520075512005/20/19 07:55:31  5-MIN KARA 201355Z 13006KT 10SM SCT007 BKN011 OVC018 26/25 A3001 -50 93 1300 130/06 RMK AO2 T02610250
53915KARA ARA20190520080012005/20/19 08:00:31  5-MIN KARA 201400Z 14006KT 10SM FEW007 BKN012 OVC020 26/24 A3001 -50 90 1300 140/06 RMK AO2 T02610244
53915KARA ARA20190520080512005/20/19 08:05:31  5-MIN KARA 201405Z 13007KT 10SM BKN009 BKN014 OVC020 26/24 A3001 -50 90 1300 130/07 RMK AO2 T02610244
53915KARA ARA20190520081012005/20/19 08:10:31  5-MIN KARA 201410Z 13006KT 10SM SCT007 BKN012 OVC020 26/24 A3001 -50 90 1300 130/06 RMK AO2 T02610244
53915KARA ARA20190520081512005/20/19 08:15:31  5-MIN KARA 201415Z 13006KT 10SM SCT009 BKN015 OVC020 26/25 A3001 -50 93 1300 130/06 RMK AO2 T02610250
53915KARA ARA20190520082012005/20/19 08:20:31  5-MIN KARA 201420Z 13007KT 10SM BKN009 BKN015 OVC021 27/25 A3001 -50 90 1300 130/07 RMK AO2 T02670250
53915KARA ARA20190520082512005/20/19 08:25:31  5-MIN KARA 201425Z 14006KT 10SM BKN009 BKN015 OVC021 27/25 A3001 -50 90 1300 140/06 RMK AO2 T02670250
53915KARA ARA20190520083012005/20/19 08:30:31  5-MIN KARA 201430Z 16005KT 10SM BKN009 BKN015 OVC021 27/25 A3001 -50 87 1400 160/05 RMK AO2 T02720250
53915KARA ARA20190520083512005/20/19 08:35:31  5-MIN KARA 201435Z 15005KT 10SM BKN009 BKN015 OVC021 27/25 A3001 -50 87 1400 150/05 RMK AO2 T02720250
53915KARA ARA20190520084012005/20/19 08:40:31  5-MIN KARA 201440Z 16007KT 10SM BKN009 BKN015 OVC021 27/24 A3001 -50 84 1400 150/07 RMK AO2 T02720244
53915KARA ARA20190520084513605/20/19 08:45:31  5-MIN KARA 201445Z 17007KT 120V200 10SM FEW009 BKN013 OVC033 28/25 A3001 -50 84 1400 170/07 120V200 RMK AO2 T02780250
53915KARA ARA20190520085013905/20/19 08:50:31  5-MIN KARA 201450Z 17010G15KT 10SM BKN013 BKN023 OVC033 28/24 A3001 -50 79 1500 170/10G15 RMK AO2 SLP160 T02830244 51004
53915KARA ARA20190520085512005/20/19 08:55:31  5-MIN KARA 201455Z 17009KT 10SM BKN015 BKN023 OVC033 28/24 A3000 -50 79 1400 170/09 RMK AO2 T02780239
53915KARA ARA20190520090011305/20/19 09:00:31  5-MIN KARA 201500Z 17008KT 10SM BKN015 BKN021 28/24 A3000 -40 82 1500 170/08 RMK AO2 T02780244
53915KARA ARA20190520090512005/20/19 09:05:31  5-MIN KARA 201505Z 18010KT 10SM BKN015 BKN020 OVC027 28/24 A3000 -50 82 1500 180/10 RMK AO2 T02780244
53915KARA ARA20190520091012005/20/19 09:10:31  5-MIN KARA 201510Z 16009KT 10SM BKN015 BKN021 OVC027 28/24 A3001 -50 76 1500 160/09 RMK AO2 T02830239
53915KARA ARA20190520091511305/20/19 09:15:31  5-MIN KARA 201515Z 18009KT 10SM BKN018 BKN024 28/24 A3000 -50 79 1500 180/09 RMK AO2 T02830244
53915KARA ARA20190520092010605/20/19 09:20:31  5-MIN KARA 201520Z 18009KT 10SM BKN018 28/24 A3000 -50 79 1500 180/09 RMK AO2 T02780239
53915KARA ARA20190520092511305/20/19 09:25:31  5-MIN KARA 201525Z 17011KT 10SM BKN018 OVC025 28/24 A3000 -50 79 1500 170/11 RMK AO2 T02780239
53915KARA ARA20190520093011305/20/19 09:30:31  5-MIN KARA 201530Z 17010KT 10SM BKN018 BKN027 28/24 A3000 -50 79 1500 170/10 RMK AO2 T02830244
53915KARA ARA20190520093511305/20/19 09:35:31  5-MIN KARA 201535Z 18009KT 10SM BKN020 BKN027 28/24 A3000 -50 76 1500 180/09 RMK AO2 T02830239
53915KARA ARA20190520094011305/20/19 09:40:31  5-MIN KARA 201540Z 18010KT 10SM SCT020 BKN030 28/24 A3000 -50 76 1500 180/10 RMK AO2 T02830239
53915KARA ARA20190520094511305/20/19 09:45:31  5-MIN KARA 201545Z 16011KT 10SM SCT020 SCT026 29/24 A3000 -50 74 1600 160/11 RMK AO2 T02890239
53915KARA ARA20190520095010305/20/19 09:50:31  5-MIN KARA 201550Z 16012KT 10SM FEW020 SCT028 29/24 A3000 -50 74 1600 160/12 RMK AO2
53915KARA ARA20190520095511305/20/19 09:55:31  5-MIN KARA 201555Z 16010KT 10SM FEW022 FEW028 29/24 A3000 -50 71 1600 160/10 RMK AO2 T02940239
53915KARA ARA20190520100010605/20/19 10:00:31  5-MIN KARA 201600Z 17010KT 10SM FEW022 29/24 A3000 -50 74 1600 170/10 RMK AO2 T02890239
53915KARA ARA20190520100510605/20/19 10:05:31  5-MIN KARA 201605Z 19010KT 10SM FEW022 29/24 A3000 -40 74 1600 190/10 RMK AO2 T02940244
53915KARA ARA20190520101010605/20/19 10:10:31  5-MIN KARA 201610Z 19011KT 10SM FEW022 29/24 A3000 -40 76 1600 180/11 RMK AO2 T02890244
53915KARA ARA20190520101510605/20/19 10:15:31  5-MIN KARA 201615Z 19012KT 10SM SCT022 29/24 A3000 -40 71 1600 190/12 RMK AO2 T02940239
53915KARA ARA20190520102010605/20/19 10:20:31  5-MIN KARA 201620Z 17010KT 10SM SCT022 29/24 A3000 -50 71 1600 160/10 RMK AO2 T02940239
53915KARA ARA20190520102510605/20/19 10:25:31  5-MIN KARA 201625Z 16011KT 10SM FEW022 29/24 A3000 -40 71 1600 160/11 RMK AO2 T02940239
53915KARA ARA20190520103010605/20/19 10:30:31  5-MIN KARA 201630Z 17010KT 10SM FEW022 30/24 A3000 -40 72 1700 170/10 RMK AO2 T03000244
53915KARA ARA20190520103510605/20/19 10:35:31  5-MIN KARA 201635Z 16012KT 10SM FEW024 29/24 A3000 -40 71 1600 160/12 RMK AO2 T02940239
53915KARA ARA20190520104010605/20/19 10:40:31  5-MIN KARA 201640Z 16012KT 10SM FEW024 30/24 A3000 -40 69 1700 160/12 RMK AO2 T03000239
53915KARA ARA20190520104510605/20/19 10:45:31  5-MIN KARA 201645Z 18012KT 10SM FEW024 30/24 A3000 -40 69 1700 180/12 RMK AO2 T03000239
53915KARA ARA20190520105011305/20/19 10:50:31  5-MIN KARA 201650Z 17012KT 10SM FEW024 29/24 A3000 -40 71 1600 170/12 RMK AO2 SLP157 T02940239
53915KARA ARA20190520105510605/20/19 10:55:31  5-MIN KARA 201655Z 16012KT 10SM FEW024 30/23 A3000 -40 67 1700 160/12 RMK AO2 T03000233
53915KARA ARA20190520110010605/20/19 11:00:31  5-MIN KARA 201700Z 18012KT 10SM FEW024 30/23 A2999 -40 67 1700 180/12 RMK AO2 T03000233
53915KARA ARA20190520110510605/20/19 11:05:31  5-MIN KARA 201705Z 18014KT 10SM FEW026 30/23 A2999 -40 67 1700 170/14 RMK AO2 T03000233
53915KARA ARA20190520111010605/20/19 11:10:31  5-MIN KARA 201710Z 17012KT 10SM FEW032 30/24 A2999 -30 69 1700 170/12 RMK AO2 T03000239
53915KARA ARA20190520111510605/20/19 11:15:31  5-MIN KARA 201715Z 17014KT 10SM FEW027 30/23 A2999 -40 65 1700 170/14 RMK AO2 T03000228
53915KARA ARA20190520112010605/20/19 11:20:31  5-MIN KARA 201720Z 19014KT 10SM FEW027 30/24 A2999 -40 69 1700 180/14 RMK AO2 T03000239
53915KARA ARA20190520112511305/20/19 11:25:31  5-MIN KARA 201725Z 18014KT 10SM FEW027 FEW033 30/23 A2999 -30 67 1700 180/14 RMK AO2 T03000233
53915KARA ARA20190520113010605/20/19 11:30:31  5-MIN KARA 201730Z 16012KT 10SM FEW027 31/24 A2999 -30 67 1800 160/12 RMK AO2 T03060239
53915KARA ARA20190520113511305/20/19 11:35:31  5-MIN KARA 201735Z 17011KT 10SM FEW029 SCT037 30/24 A2999 -30 69 1700 170/11 RMK AO2 T03000239
53915KARA ARA20190520114011305/20/19 11:40:31  5-MIN KARA 201740Z 17013KT 10SM FEW029 SCT037 30/24 A2999 -30 69 1700 170/13 RMK AO2 T03000239
53915KARA ARA20190520114511305/20/19 11:45:31  5-MIN KARA 201745Z 16015KT 10SM FEW027 SCT036 31/24 A2998 -30 67 1800 160/15 RMK AO2 T03060239
53915KARA ARA20190520115013805/20/19 11:50:31  5-MIN KARA 201750Z 17014KT 10SM FEW027 FEW036 31/24 A2998 -30 67 1800 170/14 RMK AO2 SLP153 T03060239 10306 20239 50001
53915KARA ARA20190520115512905/20/19 11:55:31  5-MIN KARA 201755Z 16013KT 10SM -RA FEW027 FEW032 30/24 A2998 -30 69 1700 160/13 RMK AO2 RAB54 P0000 T03000239
53915KARA ARA20190520120013105/20/19 12:00:31  5-MIN KARA 201800Z 19014KT 10SM -RA FEW027 SCT038 31/24 A2998 -30 69 1800 190/14 RMK AO2 RAB1754 P0000 T03060244
53915KARA ARA20190520120513005/20/19 12:05:31  5-MIN KARA 201805Z 17012KT 10SM FEW027 SCT037 30/24 A2998 -30 69 1700 170/12 RMK AO2 RAB1754E03 P0000 T03000239
53915KARA ARA20190520121012305/20/19 12:10:31  5-MIN KARA 201810Z 16013KT 10SM FEW027 31/24 A2998 -30 69 1800 160/13 RMK AO2 RAB1754E03 P0000 T03060244
53915KARA ARA20190520121512305/20/19 12:15:31  5-MIN KARA 201815Z 18013KT 10SM FEW027 30/24 A2998 -20 72 1700 170/13 RMK AO2 RAB1754E03 P0000 T03000244
53915KARA ARA20190520122012305/20/19 12:20:31  5-MIN KARA 201820Z 17012KT 10SM FEW027 30/24 A2998 -20 72 1700 170/12 RMK AO2 RAB1754E03 P0000 T03000244
53915KARA ARA20190520122512305/20/19 12:25:31  5-MIN KARA 201825Z 18012KT 10SM FEW027 31/24 A2997 -20 67 1800 180/12 RMK AO2 RAB1754E03 P0000 T03060239
53915KARA ARA20190520123012305/20/19 12:30:31  5-MIN KARA 201830Z 18009KT 10SM FEW027 29/23 A2997 -20 69 1700 180/09 RMK AO2 RAB1754E03 P0000 T02940233
53915KARA ARA20190520123513605/20/19 12:35:31  5-MIN KARA 201835Z 18014G19KT 10SM SCT027 SCT038 30/23 A2997 -20 67 1700 180/14G19 RMK AO2 RAB1754E03 P0000 T03000233
53915KARA ARA20190520124013005/20/19 12:40:31  5-MIN KARA 201840Z 18015KT 10SM FEW027 SCT038 31/24 A2997 -10 67 1800 180/15 RMK AO2 RAB1754E03 P0000 T03060239
53915KARA ARA20190520124513005/20/19 12:45:31  5-MIN KARA 201845Z 18012KT 10SM FEW027 SCT034 31/24 A2997 -10 69 1800 180/12 RMK AO2 RAB1754E03 P0000 T03060244
53915KARA ARA20190520125013705/20/19 12:50:31  5-MIN KARA 201850Z 19014KT 10SM FEW026 FEW034 31/24 A2997 -10 67 1800 190/14 RMK AO2 RAB1754E03 SLP147 P0000 T03060239
53915KARA ARA20190520125510605/20/19 12:55:31  5-MIN KARA 201855Z 19014KT 10SM SCT028 30/24 A2996 -10 69 1700 190/14 RMK AO2 T03000239
53915KARA ARA20190520130010605/20/19 13:00:31  5-MIN KARA 201900Z 18014KT 10SM SCT028 31/24 A2996 -10 67 1800 180/14 RMK AO2 T03060239
53915KARA ARA20190520130510605/20/19 13:05:31  5-MIN KARA 201905Z 19012KT 10SM FEW028 31/24 A2996 -10 69 1800 190/12 RMK AO2 T03060244
53915KARA ARA20190520131010605/20/19 13:10:31  5-MIN KARA 201910Z 19015KT 10SM FEW026 30/24 A2996 -10 69 1700 180/15 RMK AO2 T03000239
53915KARA ARA20190520131510405/20/19 13:15:31  5-MIN KARA 201915Z 17013KT 10SM FEW026 30/24 A2996 0 69 1800 170/13 RMK AO2 T03000239
53915KARA ARA20190520132010405/20/19 13:20:31  5-MIN KARA 201920Z 18013KT 10SM FEW026 30/24 A2996 0 69 1800 170/13 RMK AO2 T03000239
53915KARA ARA20190520132510405/20/19 13:25:31  5-MIN KARA 201925Z 16014KT 10SM FEW026 31/24 A2996 0 67 1800 160/14 RMK AO2 T03060239
53915KARA ARA20190520133010105/20/19 13:30:31  5-MIN KARA 201930Z 18013KT 10SM CLR 31/23 A2996 0 65 1800 180/13 RMK AO2 T03060233
53915KARA ARA20190520133510105/20/19 13:35:31  5-MIN KARA 201935Z 19015KT 10SM CLR 31/23 A2995 0 62 1800 190/15 RMK AO2 T03060228
53915KARA ARA20190520134010105/20/19 13:40:31  5-MIN KARA 201940Z 17015KT 10SM CLR 31/23 A2995 0 62 1800 170/15 RMK AO2 T03060228
53915KARA ARA20190520134510105/20/19 13:45:31  5-MIN KARA 201945Z 17014KT 10SM CLR 31/23 A2995 0 62 1800 170/14 RMK AO2 T03060228
53915KARA ARA20190520135010805/20/19 13:50:31  5-MIN KARA 201950Z 17011KT 10SM CLR 31/23 A2995 0 62 1800 170/11 RMK AO2 SLP140 T03060228
53915KARA ARA20190520135510105/20/19 13:55:31  5-MIN KARA 201955Z 17016KT 10SM CLR 31/23 A2995 0 65 1800 170/16 RMK AO2 T03060233
53915KARA ARA20190520140010805/20/19 14:00:31  5-MIN KARA 202000Z 18013G19KT 10SM CLR 31/24 A2994 10 67 1800 180/13G19 RMK AO2 T03060239
53915KARA ARA20190520140510805/20/19 14:05:31  5-MIN KARA 202005Z 17014G19KT 10SM CLR 30/23 A2994 10 67 1800 170/14G19 RMK AO2 T03000233
53915KARA ARA20190520141010205/20/19 14:10:31  5-MIN KARA 202010Z 17015KT 10SM CLR 31/23 A2994 10 65 1800 170/15 RMK AO2 T03060233
53915KARA ARA20190520141510505/20/19 14:15:31  5-MIN KARA 202015Z 19014KT 10SM FEW027 30/23 A2994 10 67 1800 180/14 RMK AO2 T03000233
53915KARA ARA20190520142010505/20/19 14:20:31  5-MIN KARA 202020Z 19015KT 10SM FEW027 31/24 A2994 10 67 1800 190/15 RMK AO2 T03060239
53915KARA ARA20190520142510505/20/19 14:25:31  5-MIN KARA 202025Z 18014KT 10SM FEW027 30/23 A2994 10 67 1800 180/14 RMK AO2 T03000233
53915KARA ARA20190520143011105/20/19 14:30:31  5-MIN KARA 202030Z 18016G21KT 10SM FEW029 30/23 A2994 10 65 1800 180/16G21 RMK AO2 T03000228
53915KARA ARA20190520143511105/20/19 14:35:31  5-MIN KARA 202035Z 16013G21KT 10SM FEW029 30/23 A2994 10 67 1800 160/13G21 RMK AO2 T03000233
53915KARA ARA20190520144010505/20/19 14:40:31  5-MIN KARA 202040Z 17014KT 10SM FEW029 31/23 A2994 10 65 1800 170/14 RMK AO2 T03060233
53915KARA ARA20190520144510505/20/19 14:45:31  5-MIN KARA 202045Z 19014KT 10SM FEW028 30/23 A2993 10 67 1800 190/14 RMK AO2 T03000233
53915KARA ARA20190520145012105/20/19 14:50:31  5-MIN KARA 202050Z 17014KT 10SM CLR 30/23 A2993 20 67 1800 170/14 RMK AO2 SLP135 60000 T03000233 58007
53915KARA ARA20190520145510205/20/19 14:55:31  5-MIN KARA 202055Z 17014KT 10SM CLR 29/23 A2993 20 69 1700 170/14 RMK AO2 T02940233
53915KARA ARA20190520150010205/20/19 15:00:31  5-MIN KARA 202100Z 18013KT 10SM CLR 30/24 A2993 20 69 1800 180/13 RMK AO2 T03000239
53915KARA ARA20190520150510205/20/19 15:05:31  5-MIN KARA 202105Z 19013KT 10SM CLR 30/24 A2993 20 69 1800 190/13 RMK AO2 T03000239
53915KARA ARA20190520151010205/20/19 15:10:31  5-MIN KARA 202110Z 19013KT 10SM CLR 29/24 A2992 20 71 1700 180/13 RMK AO2 T02940239
53915KARA ARA20190520151510205/20/19 15:15:31  5-MIN KARA 202115Z 17013KT 10SM CLR 29/24 A2992 20 71 1700 170/13 RMK AO2 T02940239
53915KARA ARA20190520152010205/20/19 15:20:31  5-MIN KARA 202120Z 18011KT 10SM CLR 30/24 A2992 20 69 1800 180/11 RMK AO2 T03000239
53915KARA ARA20190520152511105/20/19 15:25:31  5-MIN KARA 202125Z 17011G20KT 10SM FEW026 30/24 A2992 20 72 1800 170/11G20 RMK AO2 T03000244
53915KARA ARA20190520153011105/20/19 15:30:31  5-MIN KARA 202130Z 18012G20KT 10SM FEW026 29/23 A2992 30 69 1700 180/12G20 RMK AO2 T02940233
53915KARA ARA20190520153507305/20/19 15:35:31  5-MIN KARA 202135Z AUTO 18015KT M M M 170/15 RMK AO2 $
53915KARA ARA20190520154010005/20/19 15:40:31  5-MIN KARA 202140Z AUTO 18014KT 29/23 A2992 30 69 1700 180/14 RMK AO2 T02940233 $
53915KARA ARA20190520154510005/20/19 15:45:31  5-MIN KARA 202145Z 19013KT 10SM 29/24 A2992 30 71 1700 190/13 RMK AO2 T02940239 $
53915KARA ARA20190520155011305/20/19 15:50:31  5-MIN KARA 202150Z 17015G21KT 10SM 29/23 A2991 30 69 1700 170/15G21 RMK AO2 SLP129 T02940233 $
53915KARA ARA20190520155510605/20/19 15:55:31  5-MIN KARA 202155Z 18013G21KT 10SM 29/24 A2992 30 71 1700 170/13G21 RMK AO2 T02940239 $
53915KARA ARA20190520160010005/20/19 16:00:31  5-MIN KARA 202200Z 17014KT 10SM 29/24 A2992 30 71 1700 170/14 RMK AO2 T02940239 $
53915KARA ARA20190520160511305/20/19 16:05:31  5-MIN KARA 202205Z 16014G18KT 10SM SCT024 30/24 A2991 30 72 1800 160/14G18 RMK AO2 T03000244 $
53915KARA ARA20190520161011305/20/19 16:10:31  5-MIN KARA 202210Z 16014G18KT 10SM SCT024 29/23 A2991 30 69 1700 160/14G18 RMK AO2 T02940233 $
53915KARA ARA20190520161510705/20/19 16:15:31  5-MIN KARA 202215Z 16012KT 10SM SCT024 29/23 A2991 30 69 1700 160/12 RMK AO2 T02940233 $
53915KARA ARA20190520162010705/20/19 16:20:31  5-MIN KARA 202220Z 17014KT 10SM SCT024 29/24 A2991 30 71 1700 160/14 RMK AO2 T02940239 $
53915KARA ARA20190520162510705/20/19 16:25:31  5-MIN KARA 202225Z 17014KT 10SM FEW024 29/23 A2991 30 69 1700 170/14 RMK AO2 T02940233 $
53915KARA ARA20190520163010705/20/19 16:30:31  5-MIN KARA 202230Z 17014KT 10SM FEW024 29/23 A2991 30 69 1700 170/14 RMK AO2 T02940233 $
53915KARA ARA20190520163510705/20/19 16:35:31  5-MIN KARA 202235Z 17015KT 10SM FEW024 29/23 A2992 30 71 1700 170/15 RMK AO2 T02890233 $
53915KARA ARA20190520164010405/20/19 16:40:31  5-MIN KARA 202240Z 17015KT 10SM CLR 29/23 A2992 20 71 1700 170/15 RMK AO2 T02890233 $
53915KARA ARA20190520164510405/20/19 16:45:31  5-MIN KARA 202245Z 18013KT 10SM CLR 29/23 A2992 30 71 1700 180/13 RMK AO2 T02890233 $
53915KARA ARA20190520165011405/20/19 16:50:31  5-MIN KARA 202250Z 17013KT 10SM FEW024 29/23 A2992 30 71 1700 170/13 RMK AO2 SLP131 T02890233 $
53915KARA ARA20190520165510405/20/19 16:55:31  5-MIN KARA 202255Z 18012KT 10SM CLR 28/23 A2992 20 74 1600 170/12 RMK AO2 T02830233 $
53915KARA ARA20190520170010405/20/19 17:00:31  5-MIN KARA 202300Z 17010KT 10SM CLR 29/24 A2992 30 74 1700 170/10 RMK AO2 T02890239 $
53915KARA ARA20190520170510705/20/19 17:05:31  5-MIN KARA 202305Z 16011KT 10SM FEW024 29/24 A2992 30 74 1700 160/11 RMK AO2 T02890239 $
53915KARA ARA20190520171010705/20/19 17:10:31  5-MIN KARA 202310Z 17011KT 10SM FEW024 29/24 A2992 30 74 1700 170/11 RMK AO2 T02890239 $
53915KARA ARA20190520171510705/20/19 17:15:31  5-MIN KARA 202315Z 17013KT 10SM FEW024 29/23 A2991 30 71 1700 170/13 RMK AO2 T02890233 $
53915KARA ARA20190520172011305/20/19 17:20:31  5-MIN KARA 202320Z 17011G19KT 10SM FEW024 28/24 A2991 30 76 1600 170/11G19 RMK AO2 T02830239 $
53915KARA ARA20190520172510705/20/19 17:25:31  5-MIN KARA 202325Z 16011KT 10SM FEW024 28/24 A2991 40 76 1600 160/11 RMK AO2 T02830239 $
53915KARA ARA20190520173010705/20/19 17:30:31  5-MIN KARA 202330Z 17011KT 10SM SCT024 28/24 A2991 40 76 1600 170/11 RMK AO2 T02830239 $
53915KARA ARA20190520173510705/20/19 17:35:31  5-MIN KARA 202335Z 17013KT 10SM FEW022 28/23 A2991 40 74 1600 160/13 RMK AO2 T02830233 $
53915KARA ARA20190520174010705/20/19 17:40:31  5-MIN KARA 202340Z 17011KT 10SM FEW022 28/23 A2991 40 74 1600 170/11 RMK AO2 T02830233 $
53915KARA ARA20190520174510705/20/19 17:45:31  5-MIN KARA 202345Z 18012KT 10SM FEW022 28/23 A2990 40 74 1600 170/12 RMK AO2 T02830233 $
53915KARA ARA20190520175013205/20/19 17:50:31  5-MIN KARA 202350Z 17011KT 10SM FEW022 28/23 A2990 40 76 1600 170/11 RMK AO2 SLP125 60000 T02780233 10306 20278 $
53915KARA ARA20190520175510405/20/19 17:55:31  5-MIN KARA 202355Z 17013KT 10SM CLR 28/23 A2990 50 76 1600 170/13 RMK AO2 T02780233 $
53915KARA ARA20190520180010405/20/19 18:00:31  5-MIN KARA 210000Z 18012KT 10SM CLR 28/23 A2990 50 74 1600 180/12 RMK AO2 T02780228 $
53915KARA ARA20190520180510405/20/19 18:05:31  5-MIN KARA 210005Z 17012KT 10SM CLR 28/23 A2989 50 76 1600 170/12 RMK AO2 T02780233 $
53915KARA ARA20190520181010405/20/19 18:10:31  5-MIN KARA 210010Z 17012KT 10SM CLR 28/23 A2990 50 76 1600 170/12 RMK AO2 T02780233 $
53915KARA ARA20190520181510405/20/19 18:15:31  5-MIN KARA 210015Z 17012KT 10SM CLR 27/23 A2989 50 79 1500 170/12 RMK AO2 T02720233 $
53915KARA ARA20190520182010405/20/19 18:20:31  5-MIN KARA 210020Z 17011KT 10SM CLR 27/23 A2990 50 79 1500 170/11 RMK AO2 T02720233 $
53915KARA ARA20190520182510405/20/19 18:25:31  5-MIN KARA 210025Z 17012KT 10SM CLR 27/24 A2989 50 82 1500 170/12 RMK AO2 T02720239 $
53915KARA ARA20190520183010405/20/19 18:30:31  5-MIN KARA 210030Z 16009KT 10SM CLR 27/24 A2989 50 82 1500 160/09 RMK AO2 T02720239 $
53915KARA ARA20190520183510405/20/19 18:35:31  5-MIN KARA 210035Z 16011KT 10SM CLR 27/24 A2989 50 84 1500 160/11 RMK AO2 T02670239 $
53915KARA ARA20190520184010405/20/19 18:40:31  5-MIN KARA 210040Z 17010KT 10SM CLR 27/24 A2989 50 84 1500 170/10 RMK AO2 T02670239 $
53915KARA ARA20190520184510405/20/19 18:45:31  5-MIN KARA 210045Z 17010KT 10SM CLR 27/24 A2989 50 84 1500 170/10 RMK AO2 T02670239 $
53915KARA ARA20190520185011105/20/19 18:50:31  5-MIN KARA 210050Z 16010KT 10SM CLR 27/24 A2989 60 84 1500 160/10 RMK AO2 SLP120 T02670239 $
53915KARA ARA20190520185510405/20/19 18:55:31  5-MIN KARA 210055Z 16010KT 10SM CLR 27/24 A2989 60 87 1500 160/10 RMK AO2 T02670244 $
53915KARA ARA20190520190010405/20/19 19:00:31  5-MIN KARA 210100Z 16011KT 10SM CLR 26/24 A2988 60 90 1400 160/11 RMK AO2 T02610244 $
53915KARA ARA20190520190510405/20/19 19:05:31  5-MIN KARA 210105Z 16011KT 10SM CLR 26/24 A2989 60 90 1400 160/11 RMK AO2 T02610244 $
53915KARA ARA20190520191010405/20/19 19:10:31  5-MIN KARA 210110Z 16011KT 10SM CLR 26/24 A2989 60 90 1400 160/11 RMK AO2 T02610244 $
53915KARA ARA20190520191510405/20/19 19:15:31  5-MIN KARA 210115Z 16010KT 10SM CLR 26/24 A2989 60 90 1400 160/10 RMK AO2 T02610244 $
53915KARA ARA20190520192010405/20/19 19:20:31  5-MIN KARA 210120Z 16010KT 10SM CLR 26/24 A2989 60 90 1400 160/10 RMK AO2 T02610244 $
53915KARA ARA20190520192510705/20/19 19:25:31  5-MIN KARA 210125Z 16009KT 10SM FEW012 26/24 A2988 60 90 1400 160/09 RMK AO2 T02610244 $
53915KARA ARA20190520193010705/20/19 19:30:31  5-MIN KARA 210130Z 16009KT 10SM FEW012 26/24 A2988 60 90 1400 150/09 RMK AO2 T02610244 $
53915KARA ARA20190520193516205/20/19 19:35:31  5-MIN KARA 210135Z 16010KT 10SM FEW012 26/24 A2989 60 9050Z 15011KT 10SM SCT014 SCT018 26/24 A2987 70 93 1400 150/11 RMK AO2 SLP113 T02560244 $
53915KARA ARA20190520205511405/20/19 20:55:31  5-MIN KARA 210255Z 15011KT 10SM FEW013 SCT018 26/24 A2987 80 93 1400 150/11 RMK AO2 T02560244 $
53915KARA ARA20190520210010705/20/19 21:00:31  5-MIN KARA 210300Z 15012KT 10SM SCT013 26/24 A2986 80 93 1400 150/12 RMK AO2 T02560244 $
53915KARA ARA20190520210510705/20/19 21:05:31  5-MIN KARA 210305Z 15010KT 10SM SCT013 26/24 A2987 70 93 1400 150/10 RMK AO2 T02560244 $
53915KARA ARA20190520211010705/20/19 21:10:31  5-MIN KARA 210310Z 15012KT 10SM BKN013 26/24 A2987 70 93 1400 150/12 RMK AO2 T02560244 $
53915KARA ARA20190520211510705/20/19 21:15:31  5-MIN KARA 210315Z 16011KT 10SM BKN014 26/24 A2987 80 93 1400 160/11 RMK AO2 T02560244 $
53915KARA ARA20190520212010705/20/19 21:20:31  5-MIN KARA 210320Z 15010KT 10SM BKN014 26/24 A2986 80 93 1400 150/10 RMK AO2 T02560244 $
53915KARA ARA20190520212510705/20/19 21:25:31  5-MIN KARA 210325Z 15010KT 10SM BKN014 26/24 A2986 80 93 1400 150/10 RMK AO2 T02560244 $
53915KARA ARA20190520213010705/20/19 21:30:31  5-MIN KARA 210330Z 15011KT 10SM BKN013 26/24 A2986 80 93 1400 150/11 RMK AO2 T02560244 $
53915KARA ARA20190520213510705/20/19 21:35:31  5-MIN KARA 210335Z 15011KT 10SM BKN013 26/24 A2986 80 93 1400 150/11 RMK AO2 T02560244 $
53915KARA ARA20190520214010705/20/19 21:40:31  5-MIN KARA 210340Z 15011KT 10SM BKN013 26/24 A2986 80 93 1400 150/11 RMK AO2 T02560244 $
53915KARA ARA20190520214510705/20/19 21:45:31  5-MIN KARA 210345Z 15009KT 10SM BKN013 26/24 A2986 80 93 1400 150/09 RMK AO2 T02560244 $
53915KARA ARA20190520215011405/20/19 21:50:31  5-MIN KARA 210350Z 15011KT 10SM BKN013 26/24 A2986 90 93 1400 150/11 RMK AO2 SLP109 T02560244 $
53915KARA ARA20190520215511405/20/19 21:55:31  5-MIN KARA 210355Z 16011KT 10SM FEW010 SCT015 26/24 A2986 80 93 1400 160/11 RMK AO2 T02560244 $
53915KARA ARA20190520220011405/20/19 22:00:31  5-MIN KARA 210400Z 16009KT 10SM FEW010 SCT015 26/24 A2986 80 93 1400 160/09 RMK AO2 T02560244 $
53915KARA ARA20190520220511405/20/19 22:05:31  5-MIN KARA 210405Z 16010KT 10SM FEW010 SCT015 26/24 A2986 80 93 1400 160/10 RMK AO2 T02560244 $
53915KARA ARA20190520221010705/20/19 22:10:31  5-MIN KARA 210410Z 16010KT 10SM SCT012 26/24 A2986 80 93 1400 160/10 RMK AO2 T02560244 $
53915KARA ARA20190520221510705/20/19 22:15:31  5-MIN KARA 210415Z 16010KT 10SM SCT012 26/24 A2986 90 93 1400 160/10 RMK AO2 T02560244 $
53915KARA ARA20190520222010705/20/19 22:20:31  5-MIN KARA 210420Z 16011KT 10SM SCT012 26/24 A2985 90 93 1400 150/11 RMK AO2 T02560244 $
53915KARA ARA20190520222510705/20/19 22:25:31  5-MIN KARA 210425Z 16012KT 10SM SCT013 26/24 A2985 90 93 1400 160/12 RMK AO2 T02560244 $
53915KARA ARA20190520223010705/20/19 22:30:31  5-MIN KARA 210430Z 15013KT 10SM SCT013 26/24 A2985 90 93 1400 150/13 RMK AO2 T02560244 $
53915KARA ARA20190520223510705/20/19 22:35:31  5-MIN KARA 210435Z 16012KT 10SM BKN015 26/24 A2985 90 93 1400 160/12 RMK AO2 T02560244 $
53915KARA ARA20190520224010705/20/19 22:40:31  5-MIN KARA 210440Z 16012KT 10SM BKN015 26/24 A2985 90 93 1400 160/12 RMK AO2 T02560244 $
53915KARA ARA20190520224510705/20/19 22:45:31  5-MIN KARA 210445Z 16011KT 10SM BKN015 26/24 A2985 90 93 1400 160/11 RMK AO2 T02560244 $
53915KARA ARA20190520225011505/20/19 22:50:31  5-MIN KARA 210450Z 16012KT 10SM BKN015 26/24 A2984 100 93 1400 160/12 RMK AO2 SLP105 T02560244 $
53915KARA ARA20190520225510805/20/19 22:55:31  5-MIN KARA 210455Z 15010KT 10SM BKN015 26/24 A2985 100 93 1400 150/10 RMK AO2 T02560244 $
53915KARA ARA20190520230010705/20/19 23:00:31  5-MIN KARA 210500Z 15010KT 10SM BKN015 26/24 A2985 90 93 1400 150/10 RMK AO2 T02560244 $
53915KARA ARA20190520230510705/20/19 23:05:31  5-MIN KARA 210505Z 16008KT 10SM BKN015 26/24 A2985 90 93 1400 160/08 RMK AO2 T02560244 $
53915KARA ARA20190520231010705/20/19 23:10:31  5-MIN KARA 210510Z 16009KT 10SM BKN015 25/24 A2985 90 97 1300 160/09 RMK AO2 T02500244 $
53915KARA ARA20190520231510705/20/19 23:15:31  5-MIN KARA 210515Z 16010KT 10SM BKN015 26/24 A2985 90 93 1400 150/10 RMK AO2 T02560244 $
53915KARA ARA20190520232010705/20/19 23:20:31  5-MIN KARA 210520Z 16008KT 10SM BKN015 26/24 A2985 90 93 1400 160/08 RMK AO2 T02560244 $
53915KARA ARA20190520232510705/20/19 23:25:31  5-MIN KARA 210525Z 16010KT 10SM BKN015 26/24 A2985 90 93 1400 160/10 RMK AO2 T02560244 $
53915KARA ARA20190520233010705/20/19 23:30:31  5-MIN KARA 210530Z 16012KT 10SM BKN013 26/24 A2985 90 93 1400 160/12 RMK AO2 T02560244 $
53915KARA ARA20190520233510705/20/19 23:35:31  5-MIN KARA 210535Z 15010KT 10SM BKN013 26/24 A2985 90 93 1400 150/10 RMK AO2 T02560244 $
53915KARA ARA20190520234011405/20/19 23:40:31  5-MIN KARA 210540Z 15009KT 10SM BKN013 BKN017 26/24 A2985 90 93 1400 150/09 RMK AO2 T02560244 $
53915KARA ARA20190520234510705/20/19 23:45:31  5-MIN KARA 210545Z 16010KT 10SM BKN013 26/24 A2985 90 93 1400 160/10 RMK AO2 T02560244 $
53915KARA ARA20190520235014205/20/19 23:50:31  5-MIN KARA 210550Z 16008KT 10SM OVC013 26/24 A2985 90 93 1400 160/08 RMK AO2 SLP107 T02560244 10278 20250 403060228 58011 $
53915KARA ARA20190520235510705/20/19 23:55:31  5-MIN KARA 210555Z 16009KT 10SM BKN013 26/24 A2985 90 93 1400 160/09 RMK AO2 T02560244 $
53915KARA ARA20190521000011405/21/19 00:00:31  5-MIN KARA 210600Z 16012KT 10SM BKN013 OVC019 26/24 A2985 90 93 1400 160/12 RMK AO2 T02560244 $
53915KARA ARA20190521000511405/21/19 00:05:31  5-MIN KARA 210605Z 16009KT 10SM BKN013 OVC019 26/24 A2985 90 93 1400 160/09 RMK AO2 T02560244 $
53915KARA ARA20190521001011405/21/19 00:10:31  5-MIN KARA 210610Z 16011KT 10SM BKN015 OVC019 26/24 A2985 90 93 1400 160/11 RMK AO2 T02560244 $
53915KARA ARA20190521001511405/21/19 00:15:31  5-MIN KARA 210615Z 16010KT 10SM BKN014 BKN019 26/24 A2985 90 90 1400 160/10 RMK AO2 T02560239 $
53915KARA ARA20190521002011505/21/19 00:20:31  5-MIN KARA 210620Z 16010KT 10SM BKN014 BKN019 26/24 A2985 100 90 1400 160/10 RMK AO2 T02560239 $
53915KARA ARA20190521002511505/21/19 00:25:31  5-MIN KARA 210625Z 16012KT 10SM BKN014 BKN020 26/24 A2984 100 90 1400 160/12 RMK AO2 T02560239 $
53915KARA ARA20190521003010805/21/19 00:30:31  5-MIN KARA 210630Z 16010KT 10SM BKN016 26/24 A2984 100 90 1400 160/10 RMK AO2 T02560239 $
53915KARA ARA20190521003510805/21/19 00:35:31  5-MIN KARA 210635Z 16010KT 10SM BKN016 26/24 A2984 100 90 1400 160/10 RMK AO2 T02560239 $
53915KARA ARA20190521004010805/21/19 00:40:31  5-MIN KARA 210640Z 16010KT 10SM BKN016 26/24 A2984 100 90 1400 160/10 RMK AO2 T02560239 $
53915KARA ARA20190521004510805/21/19 00:45:31  5-MIN KARA 210645Z 16011KT 10SM BKN016 25/24 A2983 110 93 1300 160/11 RMK AO2 T02500239 $
53915KARA ARA20190521005011505/21/19 00:50:31  5-MIN KARA 210650Z 16010KT 10SM BKN016 25/24 A2983 110 93 1300 160/10 RMK AO2 SLP102 T02500239 $
53915KARA ARA20190521005510805/21/19 00:55:31  5-MIN KARA 210655Z 16009KT 10SM BKN016 25/24 A2983 110 93 1300 160/09 RMK AO2 T02500239 $
53915KARA ARA20190521010010805/21/19 01:00:31  5-MIN KARA 210700Z 16011KT 10SM SCT016 25/24 A2983 110 93 1300 160/11 RMK AO2 T02500239 $
53915KARA ARA20190521010510805/21/19 01:05:31  5-MIN KARA 210705Z 15011KT 10SM SCT016 25/24 A2983 110 93 1300 150/11 RMK AO2 T02500239 $
53915KARA ARA20190521011010805/21/19 01:10:31  5-MIN KARA 210710Z 16010KT 10SM SCT016 25/24 A2983 110 93 1300 160/10 RMK AO2 T02500239 $
53915KARA ARA20190521011510805/21/19 01:15:31  5-MIN KARA 210715Z 16011KT 10SM SCT016 25/24 A2983 110 93 1300 160/11 RMK AO2 T02500239 $
53915KARA ARA20190521012010805/21/19 01:20:31  5-MIN KARA 210720Z 16009KT 10SM FEW016 25/24 A2983 110 93 1300 160/09 RMK AO2 T02500239 $
53915KARA ARA20190521012510805/21/19 01:25:31  5-MIN KARA 210725Z 16011KT 10SM FEW016 25/24 A2982 120 93 1300 160/11 RMK AO2 T02500239 $
53915KARA ARA20190521013010805/21/19 01:30:31  5-MIN KARA 210730Z 15009KT 10SM FEW016 25/24 A2982 120 93 1300 150/09 RMK AO2 T02500239 $
53915KARA ARA20190521013510805/21/19 01:35:31  5-MIN KARA 210735Z 16009KT 10SM FEW016 25/24 A2982 110 93 1300 160/09 RMK AO2 T02500239 $
53915KARA ARA20190521014010805/21/19 01:40:31  5-MIN KARA 210740Z 16011KT 10SM FEW016 25/24 A2983 110 93 1300 160/11 RMK AO2 T02500239 $
53915KARA ARA20190521014510805/21/19 01:45:31  5-MIN KARA 210745Z 16010KT 10SM SCT016 25/24 A2983 110 93 1300 150/10 RMK AO2 T02500239 $
53915KARA ARA20190521015011505/21/19 01:50:31  5-MIN KARA 210750Z 16010KT 10SM FEW015 25/24 A2983 110 93 1300 160/10 RMK AO2 SLP100 T02500239 $
53915KARA ARA20190521015510805/21/19 01:55:31  5-MIN KARA 210755Z 15011KT 10SM FEW015 25/24 A2983 110 93 1300 150/11 RMK AO2 T02500239 $
53915KARA ARA20190521020010805/21/19 02:00:31  5-MIN KARA 210800Z 15010KT 10SM SCT015 25/24 A2983 110 93 1300 150/10 RMK AO2 T02500239 $
53915KARA ARA20190521020510805/21/19 02:05:31  5-MIN KARA 210805Z 16012KT 10SM SCT015 25/24 A2983 110 93 1300 160/12 RMK AO2 T02500239 $
53915KARA ARA20190521021010805/21/19 02:10:31  5-MIN KARA 210810Z 16010KT 10SM SCT017 25/24 A2983 110 93 1300 160/10 RMK AO2 T02500239 $
53915KARA ARA20190521021511505/21/19 02:15:31  5-MIN KARA 210815Z 16008KT 10SM BKN017 BKN021 25/24 A2983 110 93 1300 160/08 RMK AO2 T02500239 $
53915KARA ARA20190521022011505/21/19 02:20:31  5-MIN KARA 210820Z 16010KT 10SM BKN017 BKN022 25/24 A2983 110 93 1300 160/10 RMK AO2 T02500239 $
53915KARA ARA20190521022510805/21/19 02:25:31  5-MIN KARA 210825Z 16010KT 10SM BKN018 25/24 A2983 110 93 1300 160/10 RMK AO2 T02500239 $
53915KARA ARA20190521023010805/21/19 02:30:31  5-MIN KARA 210830Z 16010KT 10SM BKN016 25/24 A2983 110 93 1300 150/10 RMK AO2 T02500239 $
53915KARA ARA20190521023510805/21/19 02:35:31  5-MIN KARA 210835Z 15009KT 10SM BKN016 25/24 A2983 110 93 1300 150/09 RMK AO2 T02500239 $
53915KARA ARA20190521024011505/21/19 02:40:31  5-MIN KARA 210840Z 16009KT 10SM BKN016 BKN023 25/24 A2983 110 93 1300 160/09 RMK AO2 T02500239 $
53915KARA ARA20190521024511505/21/19 02:45:31  5-MIN KARA 210845Z 15010KT 10SM SCT016 BKN023 25/24 A2983 110 93 1300 150/10 RMK AO2 T02500239 $
53915KARA ARA20190521025013505/21/19 02:50:31  5-MIN KARA 210850Z 15010KT 10SM SCT016 BKN024 BKN029 25/24 A2983 110 93 1300 150/10 RMK AO2 SLP100 T02500239 55006 $
53915KARA ARA20190521025511505/21/19 02:55:31  5-MIN KARA 210855Z 16009KT 10SM SCT016 BKN026 25/24 A2983 110 93 1300 150/09 RMK AO2 T02500239 $
53915KARA ARA20190521030012205/21/19 03:00:31  5-MIN KARA 210900Z 15011KT 10SM SCT016 BKN026 BKN032 25/24 A2983 110 93 1300 150/11 RMK AO2 T02500239 $
53915KARA ARA20190521030512205/21/19 03:05:31  5-MIN KARA 210905Z 15009KT 10SM FEW016 SCT021 BKN026 25/24 A2982 120 93 1300 150/09 RMK AO2 T02500239 $
53915KARA ARA20190521031012205/21/19 03:10:31  5-MIN KARA 210910Z 15009KT 10SM FEW016 SCT021 BKN026 25/24 A2982 120 93 1300 150/09 RMK AO2 T02500239 $
53915KARA ARA20190521031512205/21/19 03:15:31  5-MIN KARA 210915Z 15011KT 10SM SCT016 SCT021 BKN026 25/24 A2982 120 93 1300 150/11 RMK AO2 T02500239 $
53915KARA ARA20190521032012205/21/19 03:20:31  5-MIN KARA 210920Z 15010KT 10SM SCT016 BKN023 BKN032 25/24 A2982 120 93 1300 150/10 RMK AO2 T02500239 $
53915KARA ARA20190521032512205/21/19 03:25:31  5-MIN KARA 210925Z 15011KT 10SM SCT016 SCT023 BKN032 25/24 A2981 120 93 1400 150/11 RMK AO2 T02500239 $
53915KARA ARA20190521033011505/21/19 03:30:31  5-MIN KARA 210930Z 15012KT 10SM SCT016 SCT023 25/24 A2982 120 93 1300 150/12 RMK AO2 T02500239 $
53915KARA ARA20190521033510805/21/19 03:35:31  5-MIN KARA 210935Z 15009KT 10SM SCT017 25/24 A2982 120 93 1400 150/09 RMK AO2 T02500239 $
53915KARA ARA20190521034010805/21/19 03:40:31  5-MIN KARA 210940Z 15011KT 10SM SCT015 25/24 A2982 120 93 1300 150/11 RMK AO2 T02500239 $
53915KARA ARA20190521034510805/21/19 03:45:31  5-MIN KARA 210945Z 15012KT 10SM SCT015 25/24 A2982 120 93 1300 150/12 RMK AO2 T02500239 $
53915KARA ARA20190521035011505/21/19 03:50:31  5-MIN KARA 210950Z 15011KT 10SM SCT015 25/24 A2982 120 93 1300 150/11 RMK AO2 SLP096 T02500239 $
53915KARA ARA20190521035510805/21/19 03:55:31  5-MIN KARA 210955Z 15013KT 10SM SCT016 25/24 A2982 120 93 1300 150/13 RMK AO2 T02500239 $
53915KARA ARA20190521040010805/21/19 04:00:31  5-MIN KARA 211000Z 15013KT 10SM FEW016 25/23 A2981 120 90 1400 150/13 RMK AO2 T02500233 $
53915KARA ARA20190521040511405/21/19 04:05:31  5-MIN KARA 211005Z 15013G19KT 10SM FEW016 25/23 A2981 130 90 1400 150/13G19 RMK AO2 T02500233 $
53915KARA ARA20190521041011405/21/19 04:10:31  5-MIN KARA 211010Z 15012G19KT 10SM FEW016 25/23 A2981 130 90 1400 150/12G19 RMK AO2 T02500233 $
53915KARA ARA20190521041510805/21/19 04:15:31  5-MIN KARA 211015Z 14013KT 10SM FEW016 25/23 A2981 130 90 1400 140/13 RMK AO2 T02500233 $
53915KARA ARA20190521042010805/21/19 04:20:31  5-MIN KARA 211020Z 15012KT 10SM FEW019 24/23 A2981 130 93 1300 140/12 RMK AO2 T02440233 $
53915KARA ARA20190521042510805/21/19 04:25:31  5-MIN KARA 211025Z 15013KT 10SM FEW019 24/23 A2981 130 93 1300 140/13 RMK AO2 T02440233 $
53915KARA ARA20190521043010805/21/19 04:30:31  5-MIN KARA 211030Z 15012KT 10SM FEW019 25/23 A2981 130 90 1400 150/12 RMK AO2 T02500233 $
53915KARA ARA20190521043510805/21/19 04:35:31  5-MIN KARA 211035Z 14012KT 10SM FEW019 25/23 A2981 130 90 1400 140/12 RMK AO2 T02500233 $
53915KARA ARA20190521044010805/21/19 04:40:31  5-MIN KARA 211040Z 14011KT 10SM FEW018 24/23 A2981 130 93 1300 140/11 RMK AO2 T02440233 $
53915KARA ARA20190521044510805/21/19 04:45:31  5-MIN KARA 211045Z 13010KT 10SM SCT018 24/24 A2981 130 97 1300 130/10 RMK AO2 T02440239 $
53915KARA ARA20190521045011505/21/19 04:50:31  5-MIN KARA 211050Z 14012KT 10SM SCT017 24/24 A2981 130 97 1300 140/12 RMK AO2 SLP093 T02440239 $
53915KARA ARA20190521045511505/21/19 04:55:31  5-MIN KARA 211055Z 14012KT 10SM FEW015 SCT021 24/24 A2980 130 97 1300 140/12 RMK AO2 T02440239 $
53915KARA ARA20190521050011505/21/19 05:00:31  5-MIN KARA 211100Z 14011KT 10SM FEW015 FEW021 24/24 A2980 130 97 1300 140/11 RMK AO2 T02440239 $
53915KARA ARA20190521050511505/21/19 05:05:31  5-MIN KARA 211105Z 14011KT 10SM FEW013 FEW021 24/24 A2980 130 97 1300 140/11 RMK AO2 T02440239 $
53915KARA ARA20190521051010805/21/19 05:10:31  5-MIN KARA 211110Z 14010KT 10SM FEW013 24/24 A2981 130 97 1300 140/10 RMK AO2 T02440239 $
53915KARA ARA20190521051510805/21/19 05:15:31  5-MIN KARA 211115Z 14010KT 10SM FEW013 24/24 A2981 130 97 1300 140/10 RMK AO2 T02440239 $
53915KARA ARA20190521052010805/21/19 05:20:31  5-MIN KARA 211120Z 14009KT 10SM FEW010 24/24 A2981 130 97 1300 140/09 RMK AO2 T02440239 $
53915KARA ARA20190521052510805/21/19 05:25:31  5-MIN KARA 211125Z 14008KT 10SM FEW010 24/24 A2981 130 97 1300 140/08 RMK AO2 T02440239 $
53915KARA ARA20190521053010805/21/19 05:30:31  5-MIN KARA 211130Z 14009KT 10SM FEW010 24/24 A2981 130 97 1300 140/09 RMK AO2 T02440239 $
53915KARA ARA20190521053510805/21/19 05:35:31  5-MIN KARA 211135Z 15010KT 10SM FEW010 24/23 A2981 130 93 1300 150/10 RMK AO2 T02440233 $
53915KARA ARA20190521054010805/21/19 05:40:31  5-MIN KARA 211140Z 15009KT 10SM FEW011 24/23 A2981 130 93 1300 140/09 RMK AO2 T02440233 $
53915KARA ARA20190521054511405/21/19 05:45:31  5-MIN KARA 211145Z 15012G18KT 10SM FEW011 24/23 A2981 130 93 1300 150/12G18 RMK AO2 T02440233 $
53915KARA ARA20190521055013905/21/19 05:50:31  5-MIN KARA 211150Z 15010G18KT 10SM FEW011 24/23 A2981 130 93 1300 140/10G18 RMK AO2 SLP094 T02440233 10256 20244 55007 $
53915KARA ARA20190521055510805/21/19 05:55:31  5-MIN KARA 211155Z 14012KT 10SM FEW011 24/23 A2981 130 93 1300 140/12 RMK AO2 T02440233 $
53915KARA ARA20190521060010805/21/19 06:00:31  5-MIN KARA 211200Z 14011KT 10SM FEW011 24/24 A2981 130 97 1300 140/11 RMK AO2 T02440239 $
53915KARA ARA20190521060510805/21/19 06:05:31  5-MIN KARA 211205Z 14011KT 10SM FEW011 24/24 A2981 130 97 1300 140/11 RMK AO2 T02440239 $
53915KARA ARA20190521061011405/21/19 06:10:31  5-MIN KARA 211210Z 14011G20KT 10SM FEW011 25/24 A2981 130 93 1400 140/11G20 RMK AO2 T02500239 $
53915KARA ARA20190521061511405/21/19 06:15:31  5-MIN KARA 211215Z 14012G20KT 10SM FEW011 25/24 A2980 130 93 1400 140/12G20 RMK AO2 T02500239 $
53915KARA ARA20190521163511905/21/19 16:35:31  5-MIN KARA 212235Z 18017G24KT 10SM BKN023 BKN030 29/24 A2980 140 74 1800 180/17G24 RMK AO2 T02890239
53915KARA ARA20190521164010605/21/19 16:40:31  5-MIN KARA 212240Z 17015KT 10SM BKN023 29/24 A2980 140 74 1800 170/15 RMK AO2 T02890239
53915KARA ARA20190521164511205/21/19 16:45:31  5-MIN KARA 212245Z 17017G24KT 10SM BKN023 29/24 A2980 140 74 1800 170/17G24 RMK AO2 T02890239
53915KARA ARA20190521165011905/21/19 16:50:31  5-MIN KARA 212250Z 17015G24KT 10SM BKN025 28/24 A2980 140 76 1700 170/15G24 RMK AO2 SLP090 T02830239
53915KARA ARA20190521165511205/21/19 16:55:31  5-MIN KARA 212255Z 17014G22KT 10SM BKN025 28/24 A2980 140 76 1700 170/14G22 RMK AO2 T02830239
53915KARA ARA20190521170011905/21/19 17:00:31  5-MIN KARA 212300Z 16014G21KT 10SM BKN022 BKN027 28/24 A2979 140 76 1800 160/14G21 RMK AO2 T02830239
53915KARA ARA20190521170511905/21/19 17:05:31  5-MIN KARA 212305Z 16014G21KT 10SM BKN020 BKN027 28/24 A2980 140 76 1700 160/14G21 RMK AO2 T02830239
53915KARA ARA20190521171012605/21/19 17:10:31  5-MIN KARA 212310Z 17013G21KT 10SM SCT020 BKN027 BKN034 28/24 A2980 140 76 1700 170/13G21 RMK AO2 T02830239
53915KARA ARA20190521171512605/21/19 17:15:31  5-MIN KARA 212315Z 17016G20KT 10SM SCT020 BKN027 BKN034 28/24 A2979 140 79 1700 160/16G20 RMK AO2 T02780239
53915KARA ARA20190521172011905/21/19 17:20:31  5-MIN KARA 212320Z 16016G23KT 10SM BKN022 BKN029 28/24 A2979 150 79 1700 160/16G23 RMK AO2 T02780239
53915KARA ARA20190521172511905/21/19 17:25:31  5-MIN KARA 212325Z 16016G23KT 10SM BKN022 BKN029 28/24 A2979 150 79 1700 160/16G23 RMK AO2 T02780239
53915KARA ARA20190521173011905/21/19 17:30:31  5-MIN KARA 212330Z 17015G21KT 10SM BKN022 OVC029 28/24 A2979 150 79 1700 160/15G21 RMK AO2 T02780239
53915KARA ARA20190521173512605/21/19 17:35:31  5-MIN KARA 212335Z 17014G21KT 10SM FEW019 BKN025 BKN032 28/24 A2979 150 79 1700 160/14G21 RMK AO2 T02780239
53915KARA ARA20190521174011305/21/19 17:40:31  5-MIN KARA 212340Z 17014KT 10SM BKN022 BKN027 28/24 A2979 150 79 1700 170/14 RMK AO2 T02780239
53915KARA ARA20190521174512605/21/19 17:45:31  5-MIN KARA 212345Z 17014G21KT 10SM BKN022 BKN029 BKN035 28/24 A2979 150 79 1700 170/14G21 RMK AO2 T02780239
53915KARA ARA20190521175015705/21/19 17:50:31  5-MIN KARA 212350Z 16013G21KT 10SM SCT021 BKN026 OVC033 28/24 A2979 140 79 1700 160/13G21 RMK AO2 SLP088 60000 T02780239 10306 20278 56005
53915KARA ARA20190521175512005/21/19 17:55:31  5-MIN KARA 212355Z 16015KT 10SM SCT021 BKN029 BKN033 27/24 A2979 150 82 1600 160/15 RMK AO2 T02720239
53915KARA ARA20190521180012605/21/19 18:00:31  5-MIN KARA 220000Z 16015G20KT 10SM SCT021 BKN029 BKN035 27/24 A2979 150 82 1600 160/15G20 RMK AO2 T02720239
53915KARA ARA20190521180512605/21/19 18:05:31  5-MIN KARA 220005Z 17013G20KT 10SM SCT021 BKN029 BKN035 27/24 A2979 140 82 1600 170/13G20 RMK AO2 T02720239
53915KARA ARA20190521181012005/21/19 18:10:31  5-MIN KARA 220010Z 17012KT 10SM FEW021 SCT029 BKN035 27/24 A2980 140 82 1600 170/12 RMK AO2 T02720239
53915KARA ARA20190521181512005/21/19 18:15:31  5-MIN KARA 220015Z 17012KT 10SM FEW023 SCT029 BKN035 27/24 A2979 140 82 1600 160/12 RMK AO2 T02720239
53915KARA ARA20190521182012005/21/19 18:20:31  5-MIN KARA 220020Z 16013KT 10SM FEW023 SCT029 BKN036 27/24 A2979 140 82 1600 160/13 RMK AO2 T02720239
53915KARA ARA20190521182512005/21/19 18:25:31  5-MIN KARA 220025Z 16015KT 10SM FEW023 FEW029 SCT036 27/24 A2979 140 82 1600 160/15 RMK AO2 T02720239
53915KARA ARA20190521183011305/21/19 18:30:31  5-MIN KARA 220030Z 16012KT 10SM FEW029 SCT036 27/24 A2979 140 82 1600 160/12 RMK AO2 T02720239
53915KARA ARA20190521183512005/21/19 18:35:31  5-MIN KARA 220035Z 16013KT 10SM FEW022 FEW029 SCT035 27/24 A2980 140 82 1600 160/13 RMK AO2 T02720239
53915KARA ARA20190521184012005/21/19 18:40:31  5-MIN KARA 220040Z 16013KT 10SM FEW022 SCT029 BKN037 27/24 A2980 140 82 1600 160/13 RMK AO2 T02720239
53915KARA ARA20190521184512005/21/19 18:45:31  5-MIN KARA 220045Z 16013KT 10SM FEW020 SCT035 SCT042 27/24 A2980 140 84 1600 160/13 RMK AO2 T02670239
53915KARA ARA20190521185012705/21/19 18:50:31  5-MIN KARA 220050Z 16014KT 10SM FEW018 FEW024 BKN038 27/24 A2980 140 84 1600 160/14 RMK AO2 SLP090 T02670239
53915KARA ARA20190521185512005/21/19 18:55:31  5-MIN KARA 220055Z 16012KT 10SM FEW018 SCT024 BKN042 27/24 A2980 140 84 1600 160/12 RMK AO2 T02670239
53915KARA ARA20190521190012005/21/19 19:00:31  5-MIN KARA 220100Z 16009KT 10SM SCT020 SCT033 BKN042 27/24 A2980 140 84 1600 160/09 RMK AO2 T02670239
53915KARA ARA20190521190512005/21/19 19:05:31  5-MIN KARA 220105Z 16012KT 10SM FEW018 FEW024 BKN040 27/24 A2980 140 84 1600 160/12 RMK AO2 T02670239
53915KARA ARA20190521191011305/21/19 19:10:31  5-MIN KARA 220110Z 17013KT 10SM FEW018 BKN040 27/24 A2981 130 84 1600 170/13 RMK AO2 T02670239
53915KARA ARA20190521191511305/21/19 19:15:31  5-MIN KARA 220115Z 16011KT 10SM FEW020 BKN042 27/24 A2981 130 84 1500 160/11 RMK AO2 T02670239
53915KARA ARA20190521192011305/21/19 19:20:31  5-MIN KARA 220120Z 16012KT 10SM FEW020 BKN042 27/24 A2981 130 87 1500 160/12 RMK AO2 T02670244
53915KARA ARA20190521192511305/21/19 19:25:31  5-MIN KARA 220125Z 16009KT 10SM FEW020 BKN042 27/24 A2981 130 84 1500 160/09 RMK AO2 T02670239
53915KARA ARA20190521193012605/21/19 19:30:31  5-MIN KARA 220130Z 16011G16KT 10SM FEW020 SCT037 BKN045 27/24 A2981 130 84 1500 160/11G16 RMK AO2 T02670239
53915KARA ARA20190521193511305/21/19 19:35:31  5-MIN KARA 220135Z 16010KT 10SM BKN042 BKN049 27/24 A2981 130 87 1500 160/10 RMK AO2 T02670244
53915KARA ARA20190521194011305/21/19 19:40:31  5-MIN KARA 220140Z 16011KT 10SM BKN040 OVC049 27/24 A2981 130 87 1500 160/11 RMK AO2 T02670244
53915KARA ARA20190521194511105/21/19 19:45:31  5-MIN KARA 220145Z AUTO 16010KT 10SM OVC043 27/24 A2981 130 87 1500 160/10 RMK AO2 T02670244
53915KARA ARA20190521195013205/21/19 19:50:31  5-MIN KARA 220150Z AUTO 16010KT 10SM FEW022 FEW035 OVC045 27/24 A2982 120 87 1500 160/10 RMK AO2 SLP095 T02670244
53915KARA ARA20190521195512505/21/19 19:55:31  5-MIN KARA 220155Z AUTO 16012KT 10SM FEW038 BKN047 OVC060 27/24 A2982 120 87 1500 150/12 RMK AO2 T02670244
53915KARA ARA20190521200011805/21/19 20:00:31  5-MIN KARA 220200Z AUTO 16011KT 10SM FEW023 OVC045 27/24 A2982 120 87 1500 160/11 RMK AO2 T02670244
53915KARA ARA20190521200512505/21/19 20:05:31  5-MIN KARA 220205Z AUTO 16011KT 10SM FEW023 FEW034 BKN045 27/24 A2982 120 87 1500 160/11 RMK AO2 T02670244
53915KARA ARA20190521201012505/21/19 20:10:31  5-MIN KARA 220210Z AUTO 16011KT 10SM FEW021 SCT036 BKN045 27/24 A2982 120 87 1500 160/11 RMK AO2 T02670244
53915KARA ARA20190521201512505/21/19 20:15:31  5-MIN KARA 220215Z AUTO 15010KT 10SM FEW021 BKN044 OVC055 27/24 A2982 110 87 1500 150/10 RMK AO2 T02670244
53915KARA ARA20190521202012505/21/19 20:20:31  5-MIN KARA 220220Z AUTO 16010KT 10SM FEW025 BKN044 OVC055 27/24 A2983 110 87 1500 160/10 RMK AO2 T02670244
53915KARA ARA20190521202512505/21/19 20:25:31  5-MIN KARA 220225Z AUTO 16010KT 10SM SCT020 BKN037 OVC055 27/24 A2983 110 87 1500 160/10 RMK AO2 T02670244
53915KARA ARA20190521203012505/21/19 20:30:31  5-MIN KARA 220230Z AUTO 16011KT 10SM FEW017 BKN039 OVC049 27/24 A2983 110 87 1500 160/11 RMK AO2 T02670244
53915KARA ARA20190521203512505/21/19 20:35:31  5-MIN KARA 220235Z AUTO 16009KT 10SM FEW017 BKN039 OVC049 27/24 A2984 100 87 1500 160/09 RMK AO2 T02670244
53915KARA ARA20190521204012505/21/19 20:40:31  5-MIN KARA 220240Z AUTO 16010KT 10SM FEW017 BKN050 OVC070 27/24 A2984 100 87 1500 160/10 RMK AO2 T02670244
53915KARA ARA20190521204512505/21/19 20:45:31  5-MIN KARA 220245Z AUTO 16011KT 10SM FEW017 BKN050 OVC070 27/24 A2984 100 87 1500 160/11 RMK AO2 T02670244
53915KARA ARA20190521205013805/21/19 20:50:31  5-MIN KARA 220250Z AUTO 16012KT 10SM FEW017 BKN050 OVC070 27/24 A2984 100 87 1500 160/12 RMK AO2 SLP103 T02670244 56011
53915KARA ARA20190521205512505/21/19 20:55:31  5-MIN KARA 220255Z AUTO 15012KT 10SM FEW032 BKN050 OVC070 27/24 A2984 100 87 1500 150/12 RMK AO2 T02670244
53915KARA ARA20190521210014305/21/19 21:00:31  5-MIN KARA 220300Z AUTO 16009KT 10SM -RA FEW026 BKN050 OVC070 27/24 A2984 100 87 1500 160/09 RMK AO2 RAB0256 P0000 T02670244
53915KARA ARA20190521210514205/21/19 21:05:31  5-MIN KARA 220305Z AUTO 16009KT 10SM FEW025 BKN042 OVC049 27/24 A2984 100 87 1500 160/09 RMK AO2 RAB0256E05 P0000 T02670244
53915KARA ARA20190521211014805/21/19 21:10:31  5-MIN KARA 220310Z AUTO 17012G18KT 10SM SCT022 BKN040 OVC049 27/24 A2984 100 87 1500 160/12G18 RMK AO2 RAB0256E05 P0000 T02670244
53915KARA ARA20190521211514805/21/19 21:15:31  5-MIN KARA 220315Z AUTO 16011G18KT 10SM FEW022 BKN040 OVC070 27/24 A2984 100 87 1500 160/11G18 RMK AO2 RAB0256E05 P0000 T02670244
53915KARA ARA20190521212014105/21/19 21:20:31  5-MIN KARA 220320Z AUTO 16012KT 10SM FEW024 BKN038 OVC070 27/24 A2985 90 87 1500 160/12 RMK AO2 RAB0256E05 P0000 T02670244
53915KARA ARA20190521212514105/21/19 21:25:31  5-MIN KARA 220325Z AUTO 16012KT 10SM FEW022 BKN040 OVC070 27/24 A2985 90 87 1500 160/12 RMK AO2 RAB0256E05 P0000 T02670244
53915KARA ARA20190521213014105/21/19 21:30:31  5-MIN KARA 220330Z AUTO 16010KT 10SM FEW022 BKN040 OVC070 27/24 A2985 90 87 1500 160/10 RMK AO2 RAB0256E05 P0000 T02670244
53915KARA ARA20190521213514105/21/19 21:35:31  5-MIN KARA 220335Z AUTO 16011KT 10SM FEW020 BKN040 OVC075 27/24 A2985 90 87 1500 160/11 RMK AO2 RAB0256E05 P0000 T02670244
53915KARA ARA20190521214014105/21/19 21:40:31  5-MIN KARA 220340Z AUTO 16012KT 10SM FEW023 SCT038 BKN046 27/24 A2985 90 87 1500 160/12 RMK AO2 RAB0256E05 P0000 T02670244
53915KARA ARA20190521214514105/21/19 21:45:31  5-MIN KARA 220345Z AUTO 16014KT 10SM FEW024 BKN048 OVC075 27/24 A2985 90 87 1500 160/14 RMK AO2 RAB0256E05 P0000 T02670244
53915KARA ARA20190521215014805/21/19 21:50:31  5-MIN KARA 220350Z AUTO 16012KT 10SM FEW026 SCT041 BKN048 27/24 A2985 90 84 1500 160/12 RMK AO2 RAB0256E05 SLP109 P0000 T02670239
53915KARA ARA20190521215512405/21/19 21:55:31  5-MIN KARA 220355Z AUTO 17012KT 10SM FEW028 SCT040 BKN048 27/24 A2985 90 84 1500 170/12 RMK AO2 T02670239
53915KARA ARA20190521220012405/21/19 22:00:31  5-MIN KARA 220400Z AUTO 15013KT 10SM FEW023 BKN048 OVC070 27/24 A2985 90 87 1500 150/13 RMK AO2 T02670244
53915KARA ARA20190521220512405/21/19 22:05:31  5-MIN KARA 220405Z AUTO 17009KT 10SM FEW019 BKN048 OVC075 27/24 A2985 90 87 1500 170/09 RMK AO2 T02670244
53915KARA ARA20190521221011405/21/19 22:10:31  5-MIN KARA 220410Z AUTO 10SM SCT019 BKN048 OVC080 27/24 A2985 90 87 1500 M /M RMK AO2 T02670244
53915KARA ARA20190521221513205/21/19 22:15:31  5-MIN KARA 220415Z AUTO 10SM FEW019 BKN047 OVC080 27/24 A2985 90 87 1500 M /M RMK AO2 PK WND 16027/0415 T02670244
53915KARA ARA20190521222014805/21/19 22:20:31  5-MIN KARA 220420Z AUTO 16013G26KT 10SM SCT021 SCT038 BKN047 27/24 A2986 90 87 1500 160/13G26 RMK AO2 PK WND 16027/0415 T02670244
53915KARA ARA20190521222514805/21/19 22:25:31  5-MIN KARA 220425Z AUTO 16013G18KT 10SM SCT018 SCT041 BKN050 27/24 A2985 90 87 1500 160/13G18 RMK AO2 PK WND 16027/0415 T02670244
53915KARA ARA20190521223014205/21/19 22:30:31  5-MIN KARA 220430Z AUTO 16013KT 10SM FEW018 SCT041 BKN080 27/24 A2985 90 87 1500 150/13 RMK AO2 PK WND 16027/0415 T02670244
53915KARA ARA20190521223514205/21/19 22:35:31  5-MIN KARA 220435Z AUTO 16011KT 10SM FEW017 SCT039 BKN080 26/24 A2986 90 90 1400 160/11 RMK AO2 PK WND 16027/0415 T02610244
53915KARA ARA20190521224014205/21/19 22:40:31  5-MIN KARA 220440Z AUTO 17009KT 10SM FEW017 SCT038 BKN080 26/24 A2986 90 90 1400 170/09 RMK AO2 PK WND 16027/0415 T02610244
53915KARA ARA20190521224514205/21/19 22:45:31  5-MIN KARA 220445Z AUTO 17010KT 10SM SCT015 SCT021 BKN039 27/24 A2986 80 87 1500 170/10 RMK AO2 PK WND 16027/0415 T02670244
53915KARA ARA20190521225014905/21/19 22:50:31  5-MIN KARA 220450Z AUTO 16010KT 10SM FEW016 SCT022 BKN041 27/24 A2986 80 87 1500 160/10 RMK AO2 PK WND 16027/0415 SLP111 T02670244
53915KARA ARA20190521225512405/21/19 22:55:31  5-MIN KARA 220455Z AUTO 17007KT 10SM SCT016 BKN028 BKN036 27/24 A2986 80 87 1500 160/07 RMK AO2 T02670244
53915KARA ARA20190521230012405/21/19 23:00:31  5-MIN KARA 220500Z AUTO 17009KT 10SM SCT016 BKN021 BKN031 26/24 A2986 80 90 1400 160/09 RMK AO2 T02610244
53915KARA ARA20190521230512405/21/19 23:05:31  5-MIN KARA 220505Z AUTO 17009KT 10SM BKN016 BKN028 OVC075 27/24 A2986 80 87 1500 170/09 RMK AO2 T02670244
53915KARA ARA20190521231012405/21/19 23:10:31  5-MIN KARA 220510Z AUTO 17009KT 10SM BKN017 BKN029 OVC070 27/24 A2986 80 87 1500 170/09 RMK AO2 T02670244
53915KARA ARA20190521231512405/21/19 23:15:31  5-MIN KARA 220515Z AUTO 16009KT 10SM SCT015 BKN020 OVC032 26/24 A2986 80 90 1400 160/09 RMK AO2 T02610244
53915KARA ARA20190521232012405/21/19 23:20:31  5-MIN KARA 220520Z AUTO 17009KT 10SM BKN018 BKN024 OVC030 27/24 A2987 80 87 1500 170/09 RMK AO2 T02670244
53915KARA ARA20190521232512305/21/19 23:25:31  5-MIN KARA 220525Z AUTO 17010G17KT 10SM BKN018 OVC027 27/24 A2987 70 87 1500 160/10G17 RMK AO2 T02670244
53915KARA ARA20190521233013005/21/19 23:30:31  5-MIN KARA 220530Z AUTO 16007G17KT 10SM BKN018 BKN027 OVC070 26/24 A2987 70 90 1400 160/07G17 RMK AO2 T02610244
53915KARA ARA20190521233511705/21/19 23:35:31  5-MIN KARA 220535Z AUTO 16007KT 10SM BKN018 OVC026 26/24 A2987 70 90 1400 160/07 RMK AO2 T02610244
53915KARA ARA20190521234011705/21/19 23:40:31  5-MIN KARA 220540Z AUTO 17009KT 10SM BKN017 OVC026 27/24 A2987 70 87 1500 170/09 RMK AO2 T02670244
53915KARA ARA20190521234511705/21/19 23:45:31  5-MIN KARA 220545Z AUTO 17008KT 10SM BKN017 OVC026 26/24 A2987 70 90 1400 170/08 RMK AO2 T02610244
53915KARA ARA20190521235017105/21/19 23:50:31  5-MIN KARA 220550Z AUTO 17008G15KT 10SM BKN017 BKN025 OVC036 26/24 A2987 70 90 1400 170/08G15 RMK AO2 SLP114 60000 T02610244 10272 20261 403060244 53015
53915KARA ARA20190521235512405/21/19 23:55:31  5-MIN KARA 220555Z AUTO 17009KT 10SM BKN017 BKN021 OVC036 26/24 A2987 80 90 1400 170/09 RMK AO2 T02610244
53915KARA ARA20190522000012405/22/19 00:00:31  5-MIN KARA 220600Z AUTO 17007KT 10SM BKN017 BKN026 OVC035 26/24 A2987 80 90 1400 170/07 RMK AO2 T02610244
53915KARA ARA20190522000511705/22/19 00:05:31  5-MIN KARA 220605Z AUTO 18006KT 10SM BKN017 OVC024 26/24 A2987 70 87 1400 170/06 RMK AO2 T02610239
53915KARA ARA20190522001011705/22/19 00:10:31  5-MIN KARA 220610Z AUTO 18007KT 10SM BKN017 OVC027 26/24 A2987 70 90 1400 170/07 RMK AO2 T02610244
53915KARA ARA20190522001512405/22/19 00:15:31  5-MIN KARA 220615Z AUTO 18008KT 10SM BKN017 BKN025 OVC033 26/24 A2987 70 87 1400 180/08 RMK AO2 T02610239
53915KARA ARA20190522002011705/22/19 00:20:31  5-MIN KARA 220620Z AUTO 17006KT 10SM BKN017 OVC027 26/24 A2987 70 90 1400 170/06 RMK AO2 T02610244
53915KARA ARA20190522002512405/22/19 00:25:31  5-MIN KARA 220625Z AUTO 17007KT 10SM BKN017 BKN023 OVC027 26/24 A2987 70 90 1400 170/07 RMK AO2 T02610244
53915KARA ARA20190522003012405/22/19 00:30:31  5-MIN KARA 220630Z AUTO 17008KT 10SM SCT017 BKN021 OVC035 26/24 A2987 80 90 1400 170/08 RMK AO2 T02610244
53915KARA ARA20190522003512405/22/19 00:35:31  5-MIN KARA 220635Z AUTO 17009KT 10SM SCT017 BKN021 OVC040 26/24 A2986 80 87 1400 170/09 RMK AO2 T02610239
53915KARA ARA20190522004012405/22/19 00:40:31  5-MIN KARA 220640Z AUTO 16010KT 10SM SCT017 BKN022 OVC040 26/24 A2986 80 87 1400 160/10 RMK AO2 T02610239
53915KARA ARA20190522004512405/22/19 00:45:31  5-MIN KARA 220645Z AUTO 17010KT 10SM SCT017 BKN022 OVC040 26/24 A2986 80 87 1400 170/10 RMK AO2 T02610239
53915KARA ARA20190522005013105/22/19 00:50:31  5-MIN KARA 220650Z AUTO 16009KT 10SM SCT017 BKN022 OVC041 26/24 A2986 80 87 1400 160/09 RMK AO2 SLP111 T02610239
53915KARA ARA20190522005512405/22/19 00:55:31  5-MIN KARA 220655Z AUTO 16008KT 10SM SCT017 BKN026 BKN042 26/24 A2986 80 87 1400 160/08 RMK AO2 T02610239
53915KARA ARA20190522010012405/22/19 01:00:31  5-MIN KARA 220700Z AUTO 16010KT 10SM SCT017 BKN026 BKN042 26/24 A2986 80 87 1400 160/10 RMK AO2 T02610239
53915KARA ARA20190522010512405/22/19 01:05:31  5-MIN KARA 220705Z AUTO 16010KT 10SM FEW017 SCT026 BKN042 26/24 A2986 80 87 1400 160/10 RMK AO2 T02610239
53915KARA ARA20190522011012405/22/19 01:10:31  5-MIN KARA 220710Z AUTO 16009KT 10SM FEW017 SCT024 BKN044 26/24 A2986 80 87 1400 160/09 RMK AO2 T02610239
53915KARA ARA20190522011512405/22/19 01:15:31  5-MIN KARA 220715Z AUTO 16009KT 10SM FEW017 FEW024 SCT044 26/24 A2986 80 87 1400 160/09 RMK AO2 T02610239
53915KARA ARA20190522012012405/22/19 01:20:31  5-MIN KARA 220720Z AUTO 16009KT 10SM FEW017 FEW025 SCT044 26/24 A2986 80 87 1400 160/09 RMK AO2 T02610239
53915KARA ARA20190522012512405/22/19 01:25:31  5-MIN KARA 220725Z AUTO 16008KT 10SM FEW017 SCT031 BKN044 26/24 A2986 80 87 1400 160/08 RMK AO2 T02610239
53915KARA ARA20190522013011705/22/19 01:30:31  5-MIN KARA 220730Z AUTO 15010KT 10SM FEW016 BKN044 26/24 A2986 80 87 1400 150/10 RMK AO2 T02610239
53915KARA ARA20190522013512305/22/19 01:35:31  5-MIN KARA 220735Z AUTO 16009G18KT 10SM FEW017 SCT044 26/24 A2986 80 87 1400 160/09G18 RMK AO2 T02610239
53915KARA ARA20190522014013005/22/19 01:40:31  5-MIN KARA 220740Z AUTO 16009G18KT 10SM FEW017 SCT032 BKN048 26/24 A2986 80 87 1400 160/09G18 RMK AO2 T02610239
53915KARA ARA20190522014512405/22/19 01:45:31  5-MIN KARA 220745Z AUTO 16008KT 10SM FEW017 SCT032 BKN041 26/24 A2986 80 90 1400 160/08 RMK AO2 T02560239
53915KARA ARA20190522015013105/22/19 01:50:31  5-MIN KARA 220750Z AUTO 15012KT 10SM FEW016 FEW030 SCT041 26/24 A2986 80 90 1400 150/12 RMK AO2 SLP110 T02560239
53915KARA ARA20190522015512405/22/19 01:55:31  5-MIN KARA 220755Z AUTO 15009KT 10SM FEW016 FEW032 SCT043 26/24 A2986 90 87 1400 150/09 RMK AO2 T02610239
53915KARA ARA20190522020012405/22/19 02:00:31  5-MIN KARA 220800Z AUTO 16009KT 10SM FEW016 FEW030 SCT042 26/24 A2986 80 90 1400 160/09 RMK AO2 T02560239
53915KARA ARA20190522020511705/22/19 02:05:31  5-MIN KARA 220805Z AUTO 16011KT 10SM FEW016 SCT042 26/24 A2986 80 87 1400 160/11 RMK AO2 T02610239
53915KARA ARA20190522021011705/22/19 02:10:31  5-MIN KARA 220810Z AUTO 16010KT 10SM FEW018 SCT042 26/24 A2986 80 87 1400 160/10 RMK AO2 T02610239
53915KARA ARA20190522021511005/22/19 02:15:31  5-MIN KARA 220815Z AUTO 16008KT 10SM SCT042 26/24 A2986 80 90 1400 160/08 RMK AO2 T02560239
53915KARA ARA20190522022011705/22/19 02:20:31  5-MIN KARA 220820Z AUTO 15009KT 10SM FEW037 SCT044 26/24 A2986 80 90 1400 150/09 RMK AO2 T02560239
53915KARA ARA20190522022512405/22/19 02:25:31  5-MIN KARA 220825Z AUTO 16011KT 10SM FEW017 FEW035 SCT042 26/24 A2986 80 87 1400 160/11 RMK AO2 T02610239
53915KARA ARA20190522023012405/22/19 02:30:31  5-MIN KARA 220830Z AUTO 16008KT 10SM FEW019 SCT034 SCT042 26/24 A2986 80 87 1400 160/08 RMK AO2 T02610239
53915KARA ARA20190522023512405/22/19 02:35:31  5-MIN KARA 220835Z AUTO 16008KT 10SM FEW019 SCT043 BKN050 26/24 A2986 80 90 1400 160/08 RMK AO2 T02560239
53915KARA ARA20190522024012405/22/19 02:40:31  5-MIN KARA 220840Z AUTO 16009KT 10SM FEW019 FEW034 SCT043 26/24 A2986 80 90 1400 160/09 RMK AO2 T02560239
53915KARA ARA20190522024512405/22/19 02:45:31  5-MIN KARA 220845Z AUTO 16011KT 10SM FEW019 FEW033 SCT042 26/24 A2986 80 87 1400 160/11 RMK AO2 T02610239
53915KARA ARA20190522025013705/22/19 02:50:31  5-MIN KARA 220850Z AUTO 16008KT 10SM FEW019 SCT033 SCT042 26/24 A2987 80 87 1400 160/08 RMK AO2 SLP113 T02610239 51011
53915KARA ARA20190522025512405/22/19 02:55:31  5-MIN KARA 220855Z AUTO 16009KT 10SM FEW019 FEW033 SCT042 26/24 A2987 70 90 1400 160/09 RMK AO2 T02560239
53915KARA ARA20190522030012405/22/19 03:00:31  5-MIN KARA 220900Z AUTO 16009KT 10SM FEW021 FEW038 SCT049 26/24 A2987 70 90 1400 160/09 RMK AO2 T02560239
53915KARA ARA20190522030512405/22/19 03:05:31  5-MIN KARA 220905Z AUTO 16009KT 10SM FEW021 SCT043 BKN050 26/24 A2987 70 90 1400 150/09 RMK AO2 T02560239
53915KARA ARA20190522031012405/22/19 03:10:31  5-MIN KARA 220910Z AUTO 15008KT 10SM FEW021 SCT033 BKN055 26/24 A2987 70 87 1400 150/08 RMK AO2 T02610239
53915KARA ARA20190522031512405/22/19 03:15:31  5-MIN KARA 220915Z AUTO 16008KT 10SM FEW021 SCT033 BKN044 26/24 A2987 70 90 1400 160/08 RMK AO2 T02560239
53915KARA ARA20190522032012405/22/19 03:20:31  5-MIN KARA 220920Z AUTO 15007KT 10SM FEW021 BKN044 BKN055 26/24 A2987 70 90 1400 150/07 RMK AO2 T02560239
53915KARA ARA20190522032512405/22/19 03:25:31  5-MIN KARA 220925Z AUTO 15007KT 10SM FEW021 SCT034 BKN044 26/24 A2987 70 90 1400 150/07 RMK AO2 T02560239
53915KARA ARA20190522033012405/22/19 03:30:31  5-MIN KARA 220930Z AUTO 16007KT 10SM FEW016 SCT022 BKN042 26/24 A2987 70 90 1300 160/07 RMK AO2 T02560239
53915KARA ARA20190522033512405/22/19 03:35:31  5-MIN KARA 220935Z AUTO 15007KT 10SM FEW016 SCT024 BKN033 26/24 A2987 70 90 1300 150/07 RMK AO2 T02560239
53915KARA ARA20190522034012405/22/19 03:40:31  5-MIN KARA 220940Z AUTO 15007KT 10SM FEW016 BKN033 OVC045 26/24 A2987 70 90 1300 140/07 RMK AO2 T02560239
53915KARA ARA20190522034512405/22/19 03:45:31  5-MIN KARA 220945Z AUTO 15006KT 10SM SCT018 SCT026 BKN033 26/24 A2988 70 93 1300 150/06 RMK AO2 T02560244
53915KARA ARA20190522035011405/22/19 03:50:31  5-MIN KARA 220950Z AUTO 15006KT 10SM SCT018 BKN025 BKN033 26/24 A2988 70 93 1300 150/06 RMK AO2
53915KARA ARA20190522035512405/22/19 03:55:31  5-MIN KARA 220955Z AUTO 15005KT 10SM SCT018 SCT025 BKN037 26/24 A2988 60 93 1300 150/05 RMK AO2 T02560244
53915KARA ARA20190522040012405/22/19 04:00:31  5-MIN KARA 221000Z AUTO 15006KT 10SM FEW018 SCT025 BKN037 26/24 A2988 60 90 1300 150/06 RMK AO2 T02560239
53915KARA ARA20190522040512405/22/19 04:05:31  5-MIN KARA 221005Z AUTO 15006KT 10SM FEW018 BKN037 BKN047 26/24 A2988 60 90 1300 150/06 RMK AO2 T02560239
53915KARA ARA20190522041012405/22/19 04:10:31  5-MIN KARA 221010Z AUTO 15006KT 10SM SCT018 BKN037 BKN047 26/24 A2988 60 90 1300 150/06 RMK AO2 T02560239
53915KARA ARA20190522041512405/22/19 04:15:31  5-MIN KARA 221015Z AUTO VRB03KT 10SM FEW016 SCT037 BKN047 26/24 A2988 60 90 1300 VRB/03 RMK AO2 T02560239
53915KARA ARA20190522042012405/22/19 04:20:31  5-MIN KARA 221020Z AUTO 15004KT 10SM FEW022 FEW037 SCT047 26/24 A2989 60 90 1300 150/04 RMK AO2 T02560239
53915KARA ARA20190522042511405/22/19 04:25:31  5-MIN KARA 221025Z AUTO 10SM FEW020 SCT037 SCT047 26/24 A2989 60 90 1300 M /M RMK AO2 T02560239
53915KARA ARA20190522043012405/22/19 04:30:31  5-MIN KARA 221030Z AUTO 13004KT 10SM FEW020 BKN035 BKN048 26/24 A2989 60 93 1300 130/04 RMK AO2 T02560244
53915KARA ARA20190522043512405/22/19 04:35:31  5-MIN KARA 221035Z AUTO 13005KT 10SM FEW016 SCT024 BKN036 25/24 A2989 60 97 1300 130/05 RMK AO2 T02500244
53915KARA ARA20190522044011905/22/19 04:40:31  5-MIN KARA 221040Z 12005KT 10SM FEW016 SCT024 BKN036 25/24 A2989 50 97 1300 120/05 RMK AO2 T02500244
53915KARA ARA20190522044511905/22/19 04:45:31  5-MIN KARA 221045Z 12005KT 10SM SCT016 SCT024 BKN034 26/24 A2989 50 93 1300 120/05 RMK AO2 T02560244
53915KARA ARA20190522045012605/22/19 04:50:31  5-MIN KARA 221050Z 12006KT 10SM SCT016 SCT024 BKN036 26/24 A2989 50 93 1300 120/06 RMK AO2 SLP122 T02560244
53915KARA ARA20190522045511905/22/19 04:55:31  5-MIN KARA 221055Z 13006KT 10SM SCT016 SCT024 BKN034 26/24 A2989 50 93 1300 130/06 RMK AO2 T02560244
53915KARA ARA20190522050011205/22/19 05:00:31  5-MIN KARA 221100Z 12005KT 10SM SCT016 BKN024 26/24 A2990 50 93 1300 120/05 RMK AO2 T02560244
53915KARA ARA20190522050511905/22/19 05:05:31  5-MIN KARA 221105Z 14005KT 10SM SCT015 BKN020 BKN026 26/24 A2990 50 93 1300 140/05 RMK AO2 T02560244
53915KARA ARA20190522051011205/22/19 05:10:31  5-MIN KARA 221110Z 14005KT 10SM BKN013 BKN023 26/24 A2990 40 93 1300 140/05 RMK AO2 T02560244
53915KARA ARA20190522051511905/22/19 05:15:31  5-MIN KARA 221115Z 14006KT 10SM BKN013 BKN018 BKN024 26/24 A2991 40 93 1300 140/06 RMK AO2 T02560244
53915KARA ARA20190522052011205/22/19 05:20:31  5-MIN KARA 221120Z 13007KT 10SM BKN013 BKN020 26/24 A2991 40 93 1300 130/07 RMK AO2 T02560244
53915KARA ARA20190522052511205/22/19 05:25:31  5-MIN KARA 221125Z 14007KT 10SM BKN013 OVC020 26/24 A2991 40 93 1300 130/07 RMK AO2 T02560244
53915KARA ARA20190522053011905/22/19 05:30:31  5-MIN KARA 221130Z 13006KT 10SM BKN013 BKN020 OVC026 26/24 A2991 40 93 1300 130/06 RMK AO2 T02560244
53915KARA ARA20190522053511905/22/19 05:35:31  5-MIN KARA 221135Z 13007KT 10SM BKN013 BKN020 BKN026 26/24 A2991 40 93 1300 130/07 RMK AO2 T02560244
53915KARA ARA20190522054011905/22/19 05:40:31  5-MIN KARA 221140Z 14007KT 10SM BKN013 BKN020 BKN026 26/24 A2991 30 93 1300 140/07 RMK AO2 T02560244
53915KARA ARA20190522054511905/22/19 05:45:31  5-MIN KARA 221145Z 14007KT 10SM SCT011 BKN016 OVC032 26/24 A2991 30 93 1300 130/07 RMK AO2 T02560244
53915KARA ARA20190522055014405/22/19 05:50:31  5-MIN KARA 221150Z 14006KT 10SM BKN013 BKN020 OVC029 26/24 A2991 30 93 1300 130/06 RMK AO2 SLP129 T02560244 10261 20250 55000
53915KARA ARA20190522055511905/22/19 05:55:31  5-MIN KARA 221155Z 13007KT 10SM FEW010 BKN020 BKN027 26/24 A2991 30 93 1300 130/07 RMK AO2 T02560244
53915KARA ARA20190522060011905/22/19 06:00:31  5-MIN KARA 221200Z 13007KT 10SM SCT013 BKN021 BKN029 26/24 A2992 30 93 1300 130/07 RMK AO2 T02560244
53915KARA ARA20190522060511905/22/19 06:05:31  5-MIN KARA 221205Z 14009KT 10SM SCT013 BKN018 BKN029 26/24 A2992 30 93 1300 140/09 RMK AO2 T02560244
53915KARA ARA20190522061011905/22/19 06:10:31  5-MIN KARA 221210Z 14008KT 10SM FEW013 BKN018 BKN026 26/24 A2992 30 93 1300 140/08 RMK AO2 T02560244
53915KARA ARA20190522061511905/22/19 06:15:31  5-MIN KARA 221215Z 13008KT 10SM FEW010 SCT015 BKN026 26/24 A2992 30 90 1400 130/08 RMK AO2 T02610244
53915KARA ARA20190522062011905/22/19 06:20:31  5-MIN KARA 221220Z 13010KT 10SM SCT015 SCT020 BKN031 26/24 A2992 30 90 1400 130/10 RMK AO2 T02610244
53915KARA ARA20190522062511905/22/19 06:25:31  5-MIN KARA 221225Z 13010KT 10SM FEW015 SCT020 BKN031 26/24 A2992 30 90 1400 130/10 RMK AO2 T02610244
53915KARA ARA20190522063011905/22/19 06:30:31  5-MIN KARA 221230Z 13009KT 10SM FEW015 SCT019 BKN031 26/24 A2992 30 90 1400 130/09 RMK AO2 T02610244
53915KARA ARA20190522063511905/22/19 06:35:31  5-MIN KARA 221235Z 14008KT 10SM FEW015 SCT024 SCT031 26/24 A2992 30 90 1400 140/08 RMK AO2 T02610244
53915KARA ARA20190522064011205/22/19 06:40:31  5-MIN KARA 221240Z 14008KT 10SM SCT017 SCT031 26/24 A2992 20 90 1400 140/08 RMK AO2 T02610244
53915KARA ARA20190522064511205/22/19 06:45:31  5-MIN KARA 221245Z 14008KT 10SM SCT017 SCT027 26/25 A2992 20 93 1400 140/08 RMK AO2 T02610250
53915KARA ARA20190522065012605/22/19 06:50:31  5-MIN KARA 221250Z 14008KT 10SM SCT017 SCT022 SCT027 26/25 A2993 20 93 1400 140/08 RMK AO2 SLP133 T02610250
53915KARA ARA20190522065511905/22/19 06:55:31  5-MIN KARA 221255Z 14009KT 10SM SCT017 SCT022 BKN029 26/25 A2993 20 93 1300 140/09 RMK AO2 T02610250
53915KARA ARA20190522070011905/22/19 07:00:31  5-MIN KARA 221300Z 14008KT 10SM FEW013 SCT023 SCT029 26/24 A2993 20 90 1300 140/08 RMK AO2 T02610244
53915KARA ARA20190522070511905/22/19 07:05:31  5-MIN KARA 221305Z 15008KT 10SM SCT017 SCT027 BKN033 27/25 A2993 20 90 1400 150/08 RMK AO2 T02670250
53915KARA ARA20190522071011905/22/19 07:10:31  5-MIN KARA 221310Z 16009KT 10SM FEW013 SCT017 BKN025 27/25 A2993 20 90 1400 150/09 RMK AO2 T02670250
53915KARA ARA20190522071511905/22/19 07:15:31  5-MIN KARA 221315Z 15010KT 10SM FEW013 SCT018 BKN023 27/24 A2993 20 87 1400 150/10 RMK AO2 T02670244
53915KARA ARA20190522072011905/22/19 07:20:31  5-MIN KARA 221320Z 15011KT 10SM SCT015 SCT022 BKN028 27/24 A2993 20 87 1400 150/11 RMK AO2 T02670244
53915KARA ARA20190522072511905/22/19 07:25:31  5-MIN KARA 221325Z 15010KT 10SM SCT015 SCT025 BKN033 27/24 A2993 20 87 1400 150/10 RMK AO2 T02670244
53915KARA ARA20190522073011905/22/19 07:30:31  5-MIN KARA 221330Z 17011KT 10SM SCT015 SCT025 BKN033 27/24 A2993 10 87 1400 170/11 RMK AO2 T02670244
53915KARA ARA20190522073512505/22/19 07:35:31  5-MIN KARA 221335Z 17015G20KT 10SM FEW017 SCT025 SCT033 27/24 A2994 10 84 1500 160/15G20 RMK AO2 T02720244
53915KARA ARA20190522074012505/22/19 07:40:31  5-MIN KARA 221340Z 16018G23KT 10SM FEW015 SCT028 BKN035 27/24 A2994 10 82 1500 160/18G23 RMK AO2 T02720239
53915KARA ARA20190522074512505/22/19 07:45:31  5-MIN KARA 221345Z 16014G23KT 10SM FEW015 SCT028 BKN035 27/24 A2994 10 82 1500 160/14G23 RMK AO2 T02720239
53915KARA ARA20190522075013205/22/19 07:50:31  5-MIN KARA 221350Z 16019G23KT 10SM FEW018 SCT026 BKN033 28/24 A2994 10 82 1500 160/19G23 RMK AO2 SLP137 T02780244
53915KARA ARA20190522075512505/22/19 07:55:31  5-MIN KARA 221355Z 16014G23KT 10SM SCT020 BKN028 BKN035 28/24 A2994 10 82 1500 160/14G23 RMK AO2 T02780244
53915KARA ARA20190522080011805/22/19 08:00:31  5-MIN KARA 221400Z 16014G21KT 10SM SCT020 BKN031 28/24 A2993 10 79 1500 160/14G21 RMK AO2 T02780239
53915KARA ARA20190522080512505/22/19 08:05:31  5-MIN KARA 221405Z 16018G24KT 10SM FEW019 SCT024 BKN031 28/24 A2994 10 79 1500 160/18G24 RMK AO2 T02780239
53915KARA ARA20190522081012505/22/19 08:10:31  5-MIN KARA 221410Z 17015G24KT 10SM SCT019 SCT024 BKN031 28/24 A2994 10 79 1500 170/15G24 RMK AO2 T02780239
53915KARA ARA20190522081511805/22/19 08:15:31  5-MIN KARA 221415Z 17014KT 10SM SCT021 BKN028 BKN035 28/24 A2995 0 79 1600 160/14 RMK AO2 T02830244
53915KARA ARA20190522083511705/22/19 08:35:31  5-MIN KARA 221435Z 17015G20KT 10SM SCT020 BKN026 28/24 A2995 0 79 1500 170/15G20 RMK AO2 T02780239
53915KARA ARA20190522084012405/22/19 08:40:31  5-MIN KARA 221440Z 17015G20KT 10SM BKN020 BKN028 BKN037 29/24 A2995 0 74 1600 170/15G20 RMK AO2 T02890239
53915KARA ARA20190522084512405/22/19 08:45:31  5-MIN KARA 221445Z 15018G24KT 10SM BKN020 BKN028 BKN035 29/24 A2995 0 74 1600 150/18G24 RMK AO2 T02890239
53915KARA ARA20190522085015505/22/19 08:50:31  5-MIN KARA 221450Z 16020G26KT 10SM SCT020 BKN026 BKN037 29/24 A2995 0 74 1600 160/20G26 RMK AO2 PK WND 15026/1450 SLP140 T02890239 53012
53915KARA ARA20190522085513405/22/19 08:55:31  5-MIN KARA 221455Z 17019G26KT 10SM -RA SCT022 BKN028 BKN037 29/24 A2995 0 74 1600 170/19G26 RMK AO2 P0000 T02890239
53915KARA ARA20190522090013605/22/19 09:00:31  5-MIN KARA 221500Z 16016G24KT 10SM SCT022 SCT028 BKN037 29/24 A2995 0 74 1600 160/16G24 RMK AO2 RAE00 P0000 T02890239
53915KARA ARA20190522090513605/22/19 09:05:31  5-MIN KARA 221505Z 17016G23KT 10SM SCT022 SCT028 BKN037 29/24 A2995 0 74 1600 170/16G23 RMK AO2 RAE00 P0000 T02890239
53915KARA ARA20190522091013605/22/19 09:10:31  5-MIN KARA 221510Z 17013G23KT 10SM SCT022 BKN028 BKN036 29/24 A2996 0 74 1600 170/13G23 RMK AO2 RAE00 P0000 T02890239
53915KARA ARA20190522091513005/22/19 09:15:31  5-MIN KARA 221515Z 15016KT 10SM SCT022 BKN028 BKN036 29/24 A2996 0 74 1600 150/16 RMK AO2 RAE00 P0000 T02890239
53915KARA ARA20190522092013605/22/19 09:20:31  5-MIN KARA 221520Z 16017G23KT 10SM BKN022 BKN030 BKN036 29/24 A2996 0 71 1700 160/17G23 RMK AO2 RAE00 P0000 T02940239
53915KARA ARA20190522092513805/22/19 09:25:31  5-MIN KARA 221525Z 16015G23KT 10SM BKN023 BKN030 BKN036 29/24 A2996 -10 74 1700 150/15G23 RMK AO2 RAE00 P0000 T02940244
53915KARA ARA20190522093013805/22/19 09:30:31  5-MIN KARA 221530Z 16017G24KT 10SM SCT023 BKN030 BKN037 29/24 A2996 -10 71 1700 160/17G24 RMK AO2 RAE00 P0000 T02940239
53915KARA ARA20190522093513805/22/19 09:35:31  5-MIN KARA 221535Z 15018G24KT 10SM SCT023 BKN030 BKN037 29/24 A2996 -10 71 1700 150/18G24 RMK AO2 RAE00 P0000 T02940239
53915KARA ARA20190522094013105/22/19 09:40:31  5-MIN KARA 221540Z 15015G21KT 10SM BKN025 BKN034 29/24 A2996 -10 71 1700 150/15G21 RMK AO2 RAE00 P0000 T02940239
53915KARA ARA20190522094513805/22/19 09:45:31  5-MIN KARA 221545Z 16017G23KT 10SM SCT025 SCT030 BKN034 29/24 A2996 -10 74 1600 160/17G23 RMK AO2 RAE00 P0000 T02890239
53915KARA ARA20190522095013805/22/19 09:50:31  5-MIN KARA 221550Z 16015G23KT 10SM SCT025 BKN034 29/24 A2996 -10 74 1600 160/15G23 RMK AO2 RAE00 SLP146 P0000 T02890239
53915KARA ARA20190522095512005/22/19 09:55:31  5-MIN KARA 221555Z 15015KT 10SM SCT025 SCT029 BKN036 29/24 A2996 -10 71 1700 150/15 RMK AO2 T02940239
53915KARA ARA20190522100011305/22/19 10:00:31  5-MIN KARA 221600Z 16014KT 10SM FEW025 SCT029 29/24 A2996 -10 74 1700 150/14 RMK AO2 T02940244
53915KARA ARA20190522100511305/22/19 10:05:31  5-MIN KARA 221605Z 16013KT 10SM FEW024 SCT029 30/24 A2996 -10 69 1700 160/13 RMK AO2 T03000239
53915KARA ARA20190522101011305/22/19 10:10:31  5-MIN KARA 221610Z 15017KT 10SM SCT024 SCT031 30/24 A2997 -10 72 1700 150/17 RMK AO2 T03000244
53915KARA ARA20190522101511905/22/19 10:15:31  5-MIN KARA 221615Z 17014G21KT 10SM SCT024 BKN031 30/24 A2997 -10 72 1700 160/14G21 RMK AO2 T03000244
53915KARA ARA20190522102011905/22/19 10:20:31  5-MIN KARA 221620Z 16013G24KT 10SM SCT024 BKN029 29/24 A2997 -20 71 1700 160/13G24 RMK AO2 T02940239
53915KARA ARA20190522102511905/22/19 10:25:31  5-MIN KARA 221625Z 15015G24KT 10SM BKN026 BKN031 30/24 A2997 -20 69 1700 150/15G24 RMK AO2 T03000239
53915KARA ARA20190522103011305/22/19 10:30:31  5-MIN KARA 221630Z 16014KT 10SM BKN026 BKN031 30/24 A2997 -20 72 1700 160/14 RMK AO2 T03000244
53915KARA ARA20190522103511305/22/19 10:35:31  5-MIN KARA 221635Z 16013KT 10SM SCT025 BKN031 30/24 A2997 -20 69 1700 160/13 RMK AO2 T03000239
53915KARA ARA20190522104011905/22/19 10:40:31  5-MIN KARA 221640Z 16016G21KT 10SM SCT025 BKN033 30/24 A2997 -20 69 1700 160/16G21 RMK AO2 T03000239
53915KARA ARA20190522104511305/22/19 10:45:31  5-MIN KARA 221645Z 16015KT 10SM SCT025 BKN033 30/24 A2997 -20 69 1700 160/15 RMK AO2 T03000239
53915KARA ARA20190522105012705/22/19 10:50:31  5-MIN KARA 221650Z 15018KT 10SM SCT025 SCT030 BKN035 31/24 A2997 -20 67 1800 150/18 RMK AO2 SLP149 T03060239
53915KARA ARA20190522105511305/22/19 10:55:31  5-MIN KARA 221655Z 14016KT 10SM SCT025 BKN033 30/24 A2997 -20 69 1700 140/16 RMK AO2 T03000239
53915KARA ARA20190522110011305/22/19 11:00:31  5-MIN KARA 221700Z 15019KT 10SM SCT027 BKN035 30/24 A2998 -20 69 1700 150/19 RMK AO2 T03000239
53915KARA ARA20190522110511905/22/19 11:05:31  5-MIN KARA 221705Z 16015G22KT 10SM SCT027 BKN035 31/24 A2998 -20 67 1800 160/15G22 RMK AO2 T03060239
53915KARA ARA20190522111011905/22/19 11:10:31  5-MIN KARA 221710Z 16015G21KT 10SM SCT027 BKN035 30/24 A2998 -20 69 1700 160/15G21 RMK AO2 T03000239
53915KARA ARA20190522111511905/22/19 11:15:31  5-MIN KARA 221715Z 14016G21KT 10SM SCT028 BKN035 31/24 A2998 -30 67 1800 140/16G21 RMK AO2 T03060239
53915KARA ARA20190522112011905/22/19 11:20:31  5-MIN KARA 221720Z 15017G23KT 10SM SCT028 BKN035 31/24 A2998 -30 67 1800 150/17G23 RMK AO2 T03060239
53915KARA ARA20190522112512605/22/19 11:25:31  5-MIN KARA 221725Z 15017G23KT 10SM SCT026 BKN033 BKN040 30/24 A2998 -30 69 1700 150/17G23 RMK AO2 T03000239
53915KARA ARA20190522113011905/22/19 11:30:31  5-MIN KARA 221730Z 14017G23KT 10SM SCT028 BKN036 30/24 A2998 -30 69 1700 140/17G23 RMK AO2 T03000239
53915KARA ARA20190522113511905/22/19 11:35:31  5-MIN KARA 221735Z 15015G23KT 10SM BKN028 BKN038 30/24 A2998 -30 69 1700 150/15G23 RMK AO2 T03000239
53915KARA ARA20190522114011905/22/19 11:40:31  5-MIN KARA 221740Z 15018G23KT 10SM SCT028 BKN036 30/23 A2999 -30 67 1700 150/18G23 RMK AO2 T03000233
53915KARA ARA20190522114511305/22/19 11:45:31  5-MIN KARA 221745Z 17015KT 10SM SCT028 BKN036 30/23 A2999 -30 67 1700 170/15 RMK AO2 T03000233
53915KARA ARA20190522115010305/22/19 11:50:31  5-MIN KARA 221750Z 16016KT 10SM BKN028 BKN036 30/23 A2999 -30 67 1700 160/16 RMK AO2
53915KARA ARA20190522115511305/22/19 11:55:31  5-MIN KARA 221755Z 17015KT 10SM BKN028 BKN037 30/23 A2999 -30 67 1700 170/15 RMK AO2 T03000233
53915KARA ARA20190522120011305/22/19 12:00:31  5-MIN KARA 221800Z 16015KT 10SM BKN030 BKN037 30/24 A2998 -30 69 1700 160/15 RMK AO2 T03000239
53915KARA ARA20190522120511305/22/19 12:05:31  5-MIN KARA 221805Z 16017KT 10SM BKN030 BKN037 31/24 A2998 -30 67 1800 160/17 RMK AO2 T03060239
53915KARA ARA20190522121010605/22/19 12:10:31  5-MIN KARA 221810Z 16015KT 10SM BKN032 30/23 A2998 -30 67 1700 160/15 RMK AO2 T03000233
53915KARA ARA20190522121511905/22/19 12:15:31  5-MIN KARA 221815Z 16016G22KT 10SM BKN028 BKN034 30/23 A2998 -30 67 1700 160/16G22 RMK AO2 T03000233
53915KARA ARA20190522122011305/22/19 12:20:31  5-MIN KARA 221820Z 17015KT 10SM BKN028 BKN033 30/23 A2998 -30 67 1700 160/15 RMK AO2 T03000233
53915KARA ARA20190522122511905/22/19 12:25:31  5-MIN KARA 221825Z 16014G21KT 10SM BKN028 BKN035 30/24 A2998 -30 69 1700 160/14G21 RMK AO2 T03000239
53915KARA ARA20190522123011905/22/19 12:30:31  5-MIN KARA 221830Z 15015G21KT 10SM BKN028 OVC035 30/24 A2998 -30 69 1700 150/15G21 RMK AO2 T03000239
53915KARA ARA20190522123511905/22/19 12:35:31  5-MIN KARA 221835Z 17015G24KT 10SM BKN028 BKN035 30/24 A2998 -30 69 1700 170/15G24 RMK AO2 T03000239
53915KARA ARA20190522124011905/22/19 12:40:31  5-MIN KARA 221840Z 16017G24KT 10SM BKN028 BKN035 31/24 A2998 -30 67 1800 160/17G24 RMK AO2 T03060239
53915KARA ARA20190522124511305/22/19 12:45:31  5-MIN KARA 221845Z 16015KT 10SM SCT028 BKN035 31/24 A2998 -30 67 1800 160/15 RMK AO2 T03060239
53915KARA ARA20190522125012605/22/19 12:50:31  5-MIN KARA 221850Z 18018G23KT 10SM SCT028 BKN035 30/24 A2998 -30 69 1700 180/18G23 RMK AO2 SLP153 T03000239
53915KARA ARA20190522125511905/22/19 12:55:31  5-MIN KARA 221855Z 16014G23KT 10SM BKN028 BKN035 30/24 A2998 -30 69 1700 160/14G23 RMK AO2 T03000239
53915KARA ARA20190522130011305/22/19 13:00:31  5-MIN KARA 221900Z 15015KT 10SM BKN028 BKN035 31/24 A2998 -30 67 1800 150/15 RMK AO2 T03060239
53915KARA ARA20190522130511305/22/19 13:05:31  5-MIN KARA 221905Z 17014KT 10SM SCT028 BKN035 31/24 A2998 -30 67 1800 170/14 RMK AO2 T03110244
53915KARA ARA20190522131011905/22/19 13:10:31  5-MIN KARA 221910Z 17015G21KT 10SM BKN028 BKN036 31/24 A2998 -30 67 1800 170/15G21 RMK AO2 T03060239
53915KARA ARA20190522131511905/22/19 13:15:31  5-MIN KARA 221915Z 18017G21KT 10SM SCT026 BKN032 31/24 A2998 -30 67 1800 180/17G21 RMK AO2 T03060239
53915KARA ARA20190522132011905/22/19 13:20:31  5-MIN KARA 221920Z 17017G22KT 10SM FEW026 BKN032 31/24 A2998 -30 67 1800 170/17G22 RMK AO2 T03060239
53915KARA ARA20190522132511905/22/19 13:25:31  5-MIN KARA 221925Z 17018G22KT 10SM SCT028 BKN034 30/24 A2998 -20 69 1700 170/18G22 RMK AO2 T03000239
53915KARA ARA20190522133011905/22/19 13:30:31  5-MIN KARA 221930Z 17016G23KT 10SM SCT028 BKN036 31/24 A2998 -20 67 1800 170/16G23 RMK AO2 T03060239
53915KARA ARA20190522133511905/22/19 13:35:31  5-MIN KARA 221935Z 16015G23KT 10SM FEW028 BKN034 31/24 A2998 -20 67 1800 160/15G23 RMK AO2 T03060239
53915KARA ARA20190522134011905/22/19 13:40:31  5-MIN KARA 221940Z 17016G23KT 10SM FEW027 BKN034 31/24 A2998 -20 67 1800 170/16G23 RMK AO2 T03110244
53915KARA ARA20190522134513505/22/19 13:45:31  5-MIN KARA 221945Z 17017G23KT 10SM -RA SCT029 BKN034 30/24 A2998 -20 69 1700 170/17G23 RMK AO2 RAB41 P0000 T03000239
53915KARA ARA20190522135013505/22/19 13:50:31  5-MIN KARA 221950Z 17019KT 10SM SCT029 BKN035 31/24 A2997 -20 67 1800 170/19 RMK AO2 RAB41E46 SLP149 P0000 T03060239
53915KARA ARA20190522135511305/22/19 13:55:31  5-MIN KARA 221955Z 17015KT 10SM SCT029 BKN035 31/23 A2998 -20 65 1800 170/15 RMK AO2 T03060233
53915KARA ARA20190522140011905/22/19 14:00:31  5-MIN KARA 222000Z 17017G22KT 10SM SCT030 SCT035 31/24 A2998 -20 67 1800 170/17G22 RMK AO2 T03060239
53915KARA ARA20190522140512905/22/19 14:05:31  5-MIN KARA 222005Z 16017KT 10SM -RA SCT030 BKN035 31/24 A2998 -20 67 1900 150/17 RMK AO2 RAB04 P0000 T03110244
53915KARA ARA20190522141013505/22/19 14:10:31  5-MIN KARA 222010Z 16016G24KT 10SM -RA SCT028 BKN033 30/24 A2998 -20 69 1700 160/16G24 RMK AO2 RAB04 P0000 T03000239
53915KARA ARA20190522141513405/22/19 14:15:31  5-MIN KARA 222015Z 16015G24KT 10SM SCT028 BKN033 30/24 A2998 -20 69 1700 160/15G24 RMK AO2 RAB04E13 P0000 T03000239
53915KARA ARA20190522142013405/22/19 14:20:31  5-MIN KARA 222020Z 16017G23KT 10SM SCT028 SCT034 31/24 A2998 -20 67 1800 160/17G23 RMK AO2 RAB04E13 P0000 T03060239
53915KARA ARA20190522142513405/22/19 14:25:31  5-MIN KARA 222025Z 17014G23KT 10SM FEW028 SCT034 30/23 A2998 -20 67 1700 170/14G23 RMK AO2 RAB04E13 P0000 T03000233
53915KARA ARA20190522143013405/22/19 14:30:31  5-MIN KARA 222030Z 16013G22KT 10SM FEW026 SCT035 31/24 A2998 -20 67 1800 160/13G22 RMK AO2 RAB04E13 P0000 T03060239
53915KARA ARA20190522143513405/22/19 14:35:31  5-MIN KARA 222035Z 17014G22KT 10SM FEW028 SCT035 31/24 A2998 -20 67 1800 170/14G22 RMK AO2 RAB04E13 P0000 T03060239
53915KARA ARA20190522144013405/22/19 14:40:31  5-MIN KARA 222040Z 17015G22KT 10SM FEW028 SCT034 30/24 A2998 -20 69 1700 170/15G22 RMK AO2 RAB04E13 P0000 T03000239
53915KARA ARA20190522144512805/22/19 14:45:31  5-MIN KARA 222045Z 17014KT 10SM FEW027 SCT034 31/24 A2998 -20 67 1800 170/14 RMK AO2 RAB04E13 P0000 T03060239
53915KARA ARA20190522145015305/22/19 14:50:31  5-MIN KARA 222050Z 18016G21KT 10SM FEW025 SCT034 30/24 A2998 -20 69 1700 170/16G21 RMK AO2 RAB04E13 SLP151 P0000 60000 T03000239 51010
53915KARA ARA20190522145513505/22/19 14:55:31  5-MIN KARA 222055Z 16014G21KT 10SM -RA SCT025 BKN034 31/24 A2998 -20 67 1800 160/14G21 RMK AO2 RAB55 P0000 T03060239
53915KARA ARA20190522150013705/22/19 15:00:31  5-MIN KARA 222100Z 16017G21KT 10SM -RA SCT027 BKN034 31/24 A2998 -20 69 1800 160/17G21 RMK AO2 RAB2055 P0000 T03060244
53915KARA ARA20190522150513705/22/19 15:05:31  5-MIN KARA 222105Z 17015G21KT 10SM -RA SCT027 BKN034 30/23 A2998 -20 67 1700 160/15G21 RMK AO2 RAB2055 P0000 T03000233
53915KARA ARA20190522151013005/22/19 15:10:31  5-MIN KARA 222110Z 17014KT 10SM SCT027 BKN034 31/24 A2998 -20 67 1800 170/14 RMK AO2 RAB2055E07 P0000 T03060239
53915KARA ARA20190522151513005/22/19 15:15:31  5-MIN KARA 222115Z 16014KT 10SM BKN026 BKN032 31/24 A2998 -20 67 1800 160/14 RMK AO2 RAB2055E07 P0000 T03060239
53915KARA ARA20190522152013005/22/19 15:20:31  5-MIN KARA 222120Z 15015KT 10SM BKN026 BKN032 30/24 A2998 -20 69 1700 150/15 RMK AO2 RAB2055E07 P0000 T03000239
53915KARA ARA20190522152513005/22/19 15:25:31  5-MIN KARA 222125Z 15016KT 10SM BKN026 BKN032 30/24 A2998 -20 69 1700 150/16 RMK AO2 RAB2055E07 P0000 T03000239
53915KARA ARA20190522153013005/22/19 15:30:31  5-MIN KARA 222130Z 15015KT 10SM BKN026 BKN034 30/24 A2998 -20 69 1700 150/15 RMK AO2 RAB2055E07 P0000 T03000239
53915KARA ARA20190522153513605/22/19 15:35:31  5-MIN KARA 222135Z 15014G21KT 10SM BKN026 BKN032 30/24 A2998 -20 72 1700 150/14G21 RMK AO2 RAB2055E07 P0000 T03000244
53915KARA ARA20190522154013005/22/19 15:40:31  5-MIN KARA 222140Z 15016KT 10SM BKN026 BKN032 30/24 A2998 -20 69 1700 150/16 RMK AO2 RAB2055E07 P0000 T03000239
53915KARA ARA20190522154513605/22/19 15:45:31  5-MIN KARA 222145Z 15016G21KT 10SM BKN026 BKN032 30/24 A2997 -20 69 1700 150/16G21 RMK AO2 RAB2055E07 P0000 T03000239
53915KARA ARA20190522155014305/22/19 15:50:31  5-MIN KARA 222150Z 16018G22KT 10SM BKN027 BKN032 31/24 A2998 -20 67 1800 160/18G22 RMK AO2 RAB2055E07 SLP150 P0000 T03060239
53915KARA ARA20190522155511905/22/19 15:55:31  5-MIN KARA 222155Z 15017G22KT 10SM BKN027 BKN034 30/24 A2998 -20 69 1700 150/17G22 RMK AO2 T03000239
53915KARA ARA20190522160011905/22/19 16:00:31  5-MIN KARA 222200Z 16014G22KT 10SM BKN027 BKN032 30/24 A2998 -20 69 1700 160/14G22 RMK AO2 T03000239
53915KARA ARA20190522160511905/22/19 16:05:31  5-MIN KARA 222205Z 15017G22KT 10SM BKN025 OVC032 31/24 A2998 -20 67 1800 150/17G22 RMK AO2 T03060239
53915KARA ARA20190522161011905/22/19 16:10:31  5-MIN KARA 222210Z 16015G22KT 10SM BKN027 BKN036 31/24 A2998 -20 67 1800 160/15G22 RMK AO2 T03060239
53915KARA ARA20190522161512605/22/19 16:15:31  5-MIN KARA 222215Z 16015G21KT 10SM BKN025 BKN030 BKN036 30/24 A2997 -20 69 1700 160/15G21 RMK AO2 T03000239
53915KARA ARA20190522162011305/22/19 16:20:31  5-MIN KARA 222220Z 16015KT 10SM BKN027 OVC035 30/24 A2998 -20 69 1700 150/15 RMK AO2 T03000239
53915KARA ARA20190522162511905/22/19 16:25:31  5-MIN KARA 222225Z 15017G22KT 10SM BKN027 OVC035 29/24 A2998 -20 71 1700 150/17G22 RMK AO2 T02940239
53915KARA ARA20190522163011905/22/19 16:30:31  5-MIN KARA 222230Z 15016G21KT 10SM SCT025 BKN035 29/23 A2998 -20 69 1700 150/16G21 RMK AO2 T02940233
53915KARA ARA20190522163511905/22/19 16:35:31  5-MIN KARA 222235Z 15016G23KT 10SM FEW025 BKN033 29/23 A2998 -20 69 1700 150/16G23 RMK AO2 T02940233
53915KARA ARA20190522164011905/22/19 16:40:31  5-MIN KARA 222240Z 16016G23KT 10SM SCT027 BKN036 29/23 A2998 -20 71 1600 160/16G23 RMK AO2 T02890233
53915KARA ARA20190522164511305/22/19 16:45:31  5-MIN KARA 222245Z 15014KT 10SM SCT028 BKN036 29/24 A2998 -20 71 1700 150/14 RMK AO2 T02940239
53915KARA ARA20190522165012005/22/19 16:50:31  5-MIN KARA 222250Z 15016KT 10SM SCT028 BKN036 29/24 A2998 -20 71 1700 150/16 RMK AO2 SLP151 T02940239
53915KARA ARA20190522165511305/22/19 16:55:31  5-MIN KARA 222255Z 15017KT 10SM SCT028 BKN035 29/23 A2998 -20 71 1600 150/17 RMK AO2 T02890233
53915KARA ARA20190522170011305/22/19 17:00:31  5-MIN KARA 222300Z 16014KT 10SM SCT028 BKN035 28/23 A2998 -30 74 1500 160/14 RMK AO2 T02830233
53915KARA ARA20190522170510605/22/19 17:05:31  5-MIN KARA 222305Z 16016KT 10SM BKN031 29/23 A2998 -20 71 1600 160/16 RMK AO2 T02890233
53915KARA ARA20190522171011305/22/19 17:10:31  5-MIN KARA 222310Z 16016KT 10SM SCT029 SCT035 29/23 A2998 -30 69 1600 160/16 RMK AO2 T02890228
53915KARA ARA20190522171511905/22/19 17:15:31  5-MIN KARA 222315Z 16014G21KT 10SM FEW029 SCT034 29/23 A2998 -30 69 1600 160/14G21 RMK AO2 T02890228
53915KARA ARA20190522172011905/22/19 17:20:31  5-MIN KARA 222320Z 16014G21KT 10SM FEW027 SCT034 29/23 A2998 -30 71 1600 150/14G21 RMK AO2 T02890233
53915KARA ARA20190522172510605/22/19 17:25:31  5-MIN KARA 222325Z 16014KT 10SM FEW032 29/23 A2998 -30 69 1600 160/14 RMK AO2 T02890228
53915KARA ARA20190522173010605/22/19 17:30:31  5-MIN KARA 222330Z 16014KT 10SM FEW032 28/23 A2998 -30 71 1500 150/14 RMK AO2 T02830228
53915KARA ARA20190522173510605/22/19 17:35:31  5-MIN KARA 222335Z 17015KT 10SM FEW033 28/23 A2998 -30 71 1500 160/15 RMK AO2 T02830228
53915KARA ARA20190522174011205/22/19 17:40:31  5-MIN KARA 222340Z 16011G19KT 10SM FEW033 28/23 A2998 -30 71 1500 160/11G19 RMK AO2 T02830228
53915KARA ARA20190522174510305/22/19 17:45:31  5-MIN KARA 222345Z 16010KT 10SM CLR 28/23 A2998 -30 74 1500 160/10 RMK AO2 T02830233
53915KARA ARA20190522175014405/22/19 17:50:31  5-MIN KARA 222350Z 16012KT 10SM FEW028 FEW033 28/23 A2998 -30 74 1500 160/12 RMK AO2 SLP152 60000 T02830233 10311 20283 58003
53915KARA ARA20190522175510605/22/19 17:55:31  5-MIN KARA 222355Z 15014KT 10SM FEW030 28/23 A2998 -30 74 1500 150/14 RMK AO2 T02830233
53915KARA ARA20190522180011305/22/19 18:00:31  5-MIN KARA 230000Z 15012KT 10SM FEW025 SCT033 28/23 A2998 -20 74 1500 150/12 RMK AO2 T02830233
53915KARA ARA20190522180511305/22/19 18:05:31  5-MIN KARA 230005Z 16011KT 10SM FEW025 SCT033 28/24 A2998 -30 76 1500 150/11 RMK AO2 T02830239
53915KARA ARA20190522181011305/22/19 18:10:31  5-MIN KARA 230010Z 16013KT 10SM FEW025 FEW033 28/23 A2998 -30 74 1500 150/13 RMK AO2 T02830233
53915KARA ARA20190522181511905/22/19 18:15:31  5-MIN KARA 230015Z 16013G20KT 10SM FEW025 FEW033 28/23 A2998 -30 74 1500 160/13G20 RMK AO2 T02830233
53915KARA ARA20190522182011205/22/19 18:20:31  5-MIN KARA 230020Z 15012G20KT 10SM FEW025 28/23 A2998 -30 76 1500 150/12G20 RMK AO2 T02780233
53915KARA ARA20190522182510605/22/19 18:25:31  5-MIN KARA 230025Z 16013KT 10SM FEW025 28/23 A2998 -30 76 1500 160/13 RMK AO2 T02780233
53915KARA ARA20190522183010305/22/19 18:30:31  5-MIN KARA 230030Z 15010KT 10SM CLR 28/23 A2998 -30 76 1500 150/10 RMK AO2 T02780233
53915KARA ARA20190522183510305/22/19 18:35:31  5-MIN KARA 230035Z 15013KT 10SM CLR 28/23 A2998 -30 76 1500 150/13 RMK AO2 T02780233
53915KARA ARA20190522184010305/22/19 18:40:31  5-MIN KARA 230040Z 16012KT 10SM CLR 28/23 A2998 -30 76 1500 160/12 RMK AO2 T02780233
53915KARA ARA20190522184510305/22/19 18:45:31  5-MIN KARA 230045Z 15013KT 10SM CLR 28/23 A2999 -30 76 1500 150/13 RMK AO2 T02780233
53915KARA ARA20190522185011005/22/19 18:50:31  5-MIN KARA 230050Z 15012KT 10SM CLR 27/24 A2999 -30 82 1400 150/12 RMK AO2 SLP154 T02720239
53915KARA ARA20190522185510305/22/19 18:55:31  5-MIN KARA 230055Z 15011KT 10SM CLR 27/24 A2999 -30 82 1400 150/11 RMK AO2 T02720239
53915KARA ARA20190522190010305/22/19 19:00:31  5-MIN KARA 230100Z 15010KT 10SM CLR 27/24 A2999 -30 82 1400 150/10 RMK AO2 T02720239
53915KARA ARA20190522190510305/22/19 19:05:31  5-MIN KARA 230105Z 15009KT 10SM CLR 27/24 A2999 -30 82 1400 150/09 RMK AO2 T02720239
53915KARA ARA20190522191010305/22/19 19:10:31  5-MIN KARA 230110Z 15009KT 10SM CLR 27/24 A2999 -30 84 1300 140/09 RMK AO2 T02670239
53915KARA ARA20190522191510305/22/19 19:15:31  5-MIN KARA 230115Z 15010KT 10SM CLR 27/24 A2999 -30 84 1300 150/10 RMK AO2 T02670239
53915KARA ARA20190522192010305/22/19 19:20:31  5-MIN KARA 230120Z 15011KT 10SM CLR 27/24 A2999 -30 84 1300 150/11 RMK AO2 T02670239
53915KARA ARA20190522192510305/22/19 19:25:31  5-MIN KARA 230125Z 15011KT 10SM CLR 27/24 A2999 -40 84 1300 150/11 RMK AO2 T02670239
53915KARA ARA20190522193010305/22/19 19:30:31  5-MIN KARA 230130Z 15011KT 10SM CLR 27/24 A2999 -30 84 1300 150/11 RMK AO2 T02670239
53915KARA ARA20190522193510305/22/19 19:35:31  5-MIN KARA 230135Z 15011KT 10SM CLR 27/24 A2999 -40 84 1300 150/11 RMK AO2 T02670239
53915KARA ARA20190522194010305/22/19 19:40:31  5-MIN KARA 230140Z 15011KT 10SM CLR 27/24 A2999 -40 84 1300 150/11 RMK AO2 T02670239
53915KARA ARA20190522194510805/22/19 19:45:31  5-MIN KARA 230145Z AUTO 15009KT 10SM CLR 27/24 A2999 -40 84 1300 150/09 RMK AO2 T02670239
53915KARA ARA20190522195011505/22/19 19:50:31  5-MIN KARA 230150Z AUTO 14010KT 10SM CLR 27/24 A2999 -40 84 1300 140/10 RMK AO2 SLP156 T02670239
53915KARA ARA20190522195510805/22/19 19:55:31  5-MIN KARA 230155Z AUTO 14009KT 10SM CLR 27/24 A3000 -40 84 1300 140/09 RMK AO2 T02670239
53915KARA ARA20190522200010805/22/19 20:00:31  5-MIN KARA 230200Z AUTO 14008KT 10SM CLR 26/24 A3000 -40 87 1300 140/08 RMK AO2 T02610239
53915KARA ARA20190522200510805/22/19 20:05:31  5-MIN KARA 230205Z AUTO 14009KT 10SM CLR 26/24 A3000 -40 87 1300 140/09 RMK AO2 T02610239
53915KARA ARA20190522201010805/22/19 20:10:31  5-MIN KARA 230210Z AUTO 14008KT 10SM CLR 26/24 A3000 -40 87 1300 140/08 RMK AO2 T02610239
53915KARA ARA20190522201510805/22/19 20:15:31  5-MIN KARA 230215Z AUTO 14009KT 10SM CLR 26/24 A3000 -40 87 1300 140/09 RMK AO2 T02610239
53915KARA ARA20190522202010805/22/19 20:20:31  5-MIN KARA 230220Z AUTO 14010KT 10SM CLR 26/24 A3000 -40 87 1300 140/10 RMK AO2 T02610239
53915KARA ARA20190522202511405/22/19 20:25:31  5-MIN KARA 230225Z AUTO 14012G16KT 10SM CLR 26/24 A3000 -40 87 1300 140/12G16 RMK AO2 T02610239
53915KARA ARA20190522203010805/22/19 20:30:31  5-MIN KARA 230230Z AUTO 14012KT 10SM CLR 26/24 A3000 -50 87 1300 140/12 RMK AO2 T02610239
53915KARA ARA20190522203510805/22/19 20:35:31  5-MIN KARA 230235Z AUTO 14013KT 10SM CLR 26/24 A3001 -50 87 1300 140/13 RMK AO2 T02610239
53915KARA ARA20190522204010805/22/19 20:40:31  5-MIN KARA 230240Z AUTO 14010KT 10SM CLR 26/24 A3001 -50 87 1300 140/10 RMK AO2 T02610239
53915KARA ARA20190522204510805/22/19 20:45:31  5-MIN KARA 230245Z AUTO 14011KT 10SM CLR 26/24 A3001 -50 87 1300 140/11 RMK AO2 T02610239
53915KARA ARA20190522205012105/22/19 20:50:31  5-MIN KARA 230250Z AUTO 14011KT 10SM CLR 26/24 A3001 -50 87 1300 140/11 RMK AO2 SLP162 T02610239 53001
53915KARA ARA20190522205510805/22/19 20:55:31  5-MIN KARA 230255Z AUTO 14010KT 10SM CLR 26/24 A3001 -60 90 1300 140/10 RMK AO2 T02610244
53915KARA ARA20190522210010805/22/19 21:00:31  5-MIN KARA 230300Z AUTO 14010KT 10SM CLR 26/24 A3002 -60 93 1200 140/10 RMK AO2 T02560244
53915KARA ARA20190522210510805/22/19 21:05:31  5-MIN KARA 230305Z AUTO 14009KT 10SM CLR 26/24 A3002 -60 93 1200 140/09 RMK AO2 T02560244
53915KARA ARA20190522211010805/22/19 21:10:31  5-MIN KARA 230310Z AUTO 14010KT 10SM CLR 26/24 A3002 -60 93 1200 140/10 RMK AO2 T02560244
53915KARA ARA20190522211510805/22/19 21:15:31  5-MIN KARA 230315Z AUTO 14010KT 10SM CLR 26/24 A3002 -60 93 1200 140/10 RMK AO2 T02560244
53915KARA ARA20190522212010805/22/19 21:20:31  5-MIN KARA 230320Z AUTO 14011KT 10SM CLR 26/24 A3002 -60 93 1200 140/11 RMK AO2 T02560244
53915KARA ARA20190522212510805/22/19 21:25:31  5-MIN KARA 230325Z AUTO 14010KT 10SM CLR 26/24 A3002 -60 93 1200 140/10 RMK AO2 T02560244
53915KARA ARA20190522213010805/22/19 21:30:31  5-MIN KARA 230330Z AUTO 14009KT 10SM CLR 26/24 A3002 -60 93 1200 140/09 RMK AO2 T02560244
53915KARA ARA20190522213510805/22/19 21:35:31  5-MIN KARA 230335Z AUTO 14011KT 10SM CLR 26/24 A3003 -70 93 1200 140/11 RMK AO2 T02560244
53915KARA ARA20190522214010805/22/19 21:40:31  5-MIN KARA 230340Z AUTO 14010KT 10SM CLR 26/24 A3003 -70 90 1200 140/10 RMK AO2 T02560239
53915KARA ARA20190522214510805/22/19 21:45:31  5-MIN KARA 230345Z AUTO 14011KT 10SM CLR 26/24 A3003 -70 90 1200 140/11 RMK AO2 T02560239
53915KARA ARA20190522215011505/22/19 21:50:31  5-MIN KARA 230350Z AUTO 14010KT 10SM CLR 26/24 A3003 -70 90 1200 140/10 RMK AO2 SLP168 T02560239
53915KARA ARA20190522215510805/22/19 21:55:31  5-MIN KARA 230355Z AUTO 14010KT 10SM CLR 26/24 A3003 -70 90 1200 140/10 RMK AO2 T02560239
53915KARA ARA20190522220010805/22/19 22:00:31  5-MIN KARA 230400Z AUTO 14010KT 10SM CLR 26/24 A3003 -70 90 1200 140/10 RMK AO2 T02560239
53915KARA ARA20190522220510805/22/19 22:05:31  5-MIN KARA 230405Z AUTO 14009KT 10SM CLR 25/24 A3003 -70 93 1100 140/09 RMK AO2 T02500239
53915KARA ARA20190522221010805/22/19 22:10:31  5-MIN KARA 230410Z AUTO 14009KT 10SM CLR 25/24 A3003 -70 93 1100 140/09 RMK AO2 T02500239
53915KARA ARA20190522221510805/22/19 22:15:31  5-MIN KARA 230415Z AUTO 14009KT 10SM CLR 26/24 A3003 -70 90 1200 130/09 RMK AO2 T02560239
53915KARA ARA20190522222010805/22/19 22:20:31  5-MIN KARA 230420Z AUTO 14008KT 10SM CLR 25/24 A3003 -70 93 1100 140/08 RMK AO2 T02500239
53915KARA ARA20190522222510805/22/19 22:25:31  5-MIN KARA 230425Z AUTO 13011KT 10SM CLR 26/24 A3003 -70 90 1200 130/11 RMK AO2 T02560239
53915KARA ARA20190522223010805/22/19 22:30:31  5-MIN KARA 230430Z AUTO 14009KT 10SM CLR 26/24 A3003 -70 93 1200 140/09 RMK AO2 T02560244
53915KARA ARA20190522223510805/22/19 22:35:31  5-MIN KARA 230435Z AUTO 13009KT 10SM CLR 26/24 A3003 -70 93 1200 130/09 RMK AO2 T02560244
53915KARA ARA20190522224010805/22/19 22:40:31  5-MIN KARA 230440Z AUTO 14011KT 10SM CLR 25/24 A3003 -70 97 1100 130/11 RMK AO2 T02500244
53915KARA ARA20190522224510805/22/19 22:45:31  5-MIN KARA 230445Z AUTO 14009KT 10SM CLR 26/24 A3003 -70 90 1200 130/09 RMK AO2 T02610244
53915KARA ARA20190522225011505/22/19 22:50:31  5-MIN KARA 230450Z AUTO 14010KT 10SM CLR 25/24 A3003 -70 93 1100 140/10 RMK AO2 SLP168 T02500239
53915KARA ARA20190522225510805/22/19 22:55:31  5-MIN KARA 230455Z AUTO 14010KT 10SM CLR 25/24 A3003 -70 97 1100 140/10 RMK AO2 T02500244
53915KARA ARA20190522230010805/22/19 23:00:31  5-MIN KARA 230500Z AUTO 13010KT 10SM CLR 25/24 A3003 -70 93 1100 130/10 RMK AO2 T02500239
53915KARA ARA20190522230510805/22/19 23:05:31  5-MIN KARA 230505Z AUTO 13011KT 10SM CLR 25/24 A3003 -70 93 1100 130/11 RMK AO2 T02500239
53915KARA ARA20190522231010805/22/19 23:10:31  5-MIN KARA 230510Z AUTO 14009KT 10SM CLR 25/24 A3003 -70 93 1100 140/09 RMK AO2 T02500239
53915KARA ARA20190522231510805/22/19 23:15:31  5-MIN KARA 230515Z AUTO 14011KT 10SM CLR 25/24 A3003 -70 93 1100 130/11 RMK AO2 T02500239
53915KARA ARA20190522232010805/22/19 23:20:31  5-MIN KARA 230520Z AUTO 14010KT 10SM CLR 25/24 A3003 -70 93 1100 140/10 RMK AO2 T02500239
53915KARA ARA20190522232511105/22/19 23:25:31  5-MIN KARA 230525Z AUTO 13010KT 10SM FEW017 25/24 A3003 -70 93 1100 130/10 RMK AO2 T02500239
53915KARA ARA20190522233011105/22/19 23:30:31  5-MIN KARA 230530Z AUTO 14010KT 10SM FEW017 25/24 A3003 -70 93 1100 130/10 RMK AO2 T02500239
53915KARA ARA20190522233511105/22/19 23:35:31  5-MIN KARA 230535Z AUTO 13010KT 10SM FEW015 25/24 A3003 -70 93 1100 130/10 RMK AO2 T02500239
53915KARA ARA20190522234011105/22/19 23:40:31  5-MIN KARA 230540Z AUTO 13010KT 10SM FEW015 25/24 A3003 -70 93 1100 130/10 RMK AO2 T02500239
53915KARA ARA20190522234510805/22/19 23:45:31  5-MIN KARA 230545Z AUTO 13009KT 10SM CLR 25/24 A3003 -70 93 1100 130/09 RMK AO2 T02500239
53915KARA ARA20190522235014305/22/19 23:50:31  5-MIN KARA 230550Z AUTO 13009KT 10SM CLR 25/24 A3003 -70 93 1100 130/09 RMK AO2 SLP167 T02500239 10283 20250 403110250 53011
53915KARA ARA20190522235510805/22/19 23:55:31  5-MIN KARA 230555Z AUTO 13010KT 10SM CLR 25/24 A3002 -60 93 1100 130/10 RMK AO2 T02500239
53915KARA ARA20190523000010805/23/19 00:00:31  5-MIN KARA 230600Z AUTO 14009KT 10SM CLR 25/24 A3002 -60 93 1100 140/09 RMK AO2 T02500239
53915KARA ARA20190523000510805/23/19 00:05:31  5-MIN KARA 230605Z AUTO 13009KT 10SM CLR 25/24 A3002 -60 93 1100 130/09 RMK AO2 T02500239
53915KARA ARA20190523001010805/23/19 00:10:31  5-MIN KARA 230610Z AUTO 14009KT 10SM CLR 25/24 A3002 -60 93 1100 140/09 RMK AO2 T02500239
53915KARA ARA20190523001510805/23/19 00:15:31  5-MIN KARA 230615Z AUTO 14009KT 10SM CLR 25/24 A3002 -60 93 1100 140/09 RMK AO2 T02500239
53915KARA ARA20190523002010805/23/19 00:20:31  5-MIN KARA 230620Z AUTO 14008KT 10SM CLR 24/24 A3002 -70 97 1100 140/08 RMK AO2 T02440239
53915KARA ARA20190523002510805/23/19 00:25:31  5-MIN KARA 230625Z AUTO 14008KT 10SM CLR 24/24 A3002 -60 97 1100 140/08 RMK AO2 T02440239
53915KARA ARA20190523003010805/23/19 00:30:31  5-MIN KARA 230630Z AUTO 14008KT 10SM CLR 24/24 A3002 -60 97 1100 140/08 RMK AO2 T02440239
53915KARA ARA20190523003510805/23/19 00:35:31  5-MIN KARA 230635Z AUTO 14008KT 10SM CLR 24/24 A3002 -60 97 1100 140/08 RMK AO2 T02440239
53915KARA ARA20190523004010805/23/19 00:40:31  5-MIN KARA 230640Z AUTO 14008KT 10SM CLR 24/24 A3002 -60 97 1100 140/08 RMK AO2 T02440239
53915KARA ARA20190523004510805/23/19 00:45:31  5-MIN KARA 230645Z AUTO 14007KT 10SM CLR 24/24 A3002 -60 97 1100 140/07 RMK AO2 T02440239
53915KARA ARA20190523005011505/23/19 00:50:31  5-MIN KARA 230650Z AUTO 14008KT 10SM CLR 24/24 A3002 -60 97 1100 140/08 RMK AO2 SLP166 T02440239
53915KARA ARA20190523005510805/23/19 00:55:31  5-MIN KARA 230655Z AUTO 14007KT 10SM CLR 24/24 A3003 -70 97 1000 140/07 RMK AO2 T02440239
53915KARA ARA20190523010010805/23/19 01:00:31  5-MIN KARA 230700Z AUTO 14007KT 10SM CLR 24/24 A3003 -70 97 1000 140/07 RMK AO2 T02440239
53915KARA ARA20190523010511105/23/19 01:05:31  5-MIN KARA 230705Z AUTO 14006KT 10SM FEW013 24/24 A3002 -70 97 1100 140/06 RMK AO2 T02440239
53915KARA ARA20190523011011105/23/19 01:10:31  5-MIN KARA 230710Z AUTO 14007KT 10SM SCT013 24/24 A3003 -70 97 1000 140/07 RMK AO2 T02440239
53915KARA ARA20190523011511105/23/19 01:15:31  5-MIN KARA 230715Z AUTO 14006KT 10SM BKN012 24/24 A3003 -70 97 1000 140/06 RMK AO2 T02440239
53915KARA ARA20190523012011105/23/19 01:20:31  5-MIN KARA 230720Z AUTO 14006KT 10SM BKN012 24/24 A3003 -70 97 1000 140/06 RMK AO2 T02440239
53915KARA ARA20190523012511105/23/19 01:25:31  5-MIN KARA 230725Z AUTO 14006KT 10SM BKN012 24/24 A3003 -70 97 1000 140/06 RMK AO2 T02440239
53915KARA ARA20190523013011105/23/19 01:30:31  5-MIN KARA 230730Z AUTO 14006KT 10SM BKN012 24/24 A3003 -70 97 1000 140/06 RMK AO2 T02440239
53915KARA ARA20190523013511105/23/19 01:35:31  5-MIN KARA 230735Z AUTO 14005KT 10SM OVC012 24/24 A3003 -70 97 1000 140/05 RMK AO2 T02440239
53915KARA ARA20190523014011805/23/19 01:40:31  5-MIN KARA 230740Z AUTO 13005KT 10SM BKN012 OVC018 24/24 A3003 -70 97 1000 130/05 RMK AO2 T02440239
53915KARA ARA20190523014511805/23/19 01:45:31  5-MIN KARA 230745Z AUTO 13006KT 10SM BKN012 OVC018 24/24 A3003 -70 97 1000 130/06 RMK AO2 T02440239
53915KARA ARA20190523015012505/23/19 01:50:31  5-MIN KARA 230750Z AUTO 14007KT 10SM BKN012 OVC018 24/24 A3003 -70 97 1000 130/07 RMK AO2 SLP168 T02440239
53915KARA ARA20190523015512505/23/19 01:55:31  5-MIN KARA 230755Z AUTO 13006KT 10SM SCT010 BKN015 OVC021 24/24 A3003 -70 97 1000 130/06 RMK AO2 T02440239
53915KARA ARA20190523020012505/23/19 02:00:31  5-MIN KARA 230800Z AUTO 13006KT 10SM FEW010 BKN015 OVC021 24/24 A3003 -70 97 1000 130/06 RMK AO2 T02440239
53915KARA ARA20190523020512505/23/19 02:05:31  5-MIN KARA 230805Z AUTO 13007KT 10SM FEW008 BKN012 OVC021 24/24 A3003 -70 97 1000 130/07 RMK AO2 T02440239
53915KARA ARA20190523021011805/23/19 02:10:31  5-MIN KARA 230810Z AUTO 13006KT 10SM SCT012 BKN021 24/24 A3004 -80 97 1000 130/06 RMK AO2 T02440239
53915KARA ARA20190523021512505/23/19 02:15:31  5-MIN KARA 230815Z AUTO 13006KT 10SM FEW010 SCT015 BKN021 24/24 A3004 -80 97 1000 130/06 RMK AO2 T02440239
53915KARA ARA20190523022012505/23/19 02:20:31  5-MIN KARA 230820Z AUTO 13007KT 10SM FEW010 SCT017 BKN021 24/24 A3003 -70 97 1000 130/07 RMK AO2 T02440239
53915KARA ARA20190523022511805/23/19 02:25:31  5-MIN KARA 230825Z AUTO 13007KT 10SM FEW012 BKN021 24/24 A3003 -70 97 1000 130/07 RMK AO2 T02440239
53915KARA ARA20190523023011805/23/19 02:30:31  5-MIN KARA 230830Z AUTO 13006KT 10SM FEW010 BKN021 24/24 A3004 -80 97 1000 130/06 RMK AO2 T02440239
53915KARA ARA20190523023511105/23/19 02:35:31  5-MIN KARA 230835Z AUTO 13006KT 10SM SCT021 24/24 A3004 -80 97 1000 130/06 RMK AO2 T02440239
53915KARA ARA20190523024011105/23/19 02:40:31  5-MIN KARA 230840Z AUTO 13006KT 10SM SCT021 24/24 A3004 -80 97 1000 130/06 RMK AO2 T02440239
53915KARA ARA20190523024512705/23/19 02:45:31  5-MIN KARA 230845Z AUTO 13006KT 10SM -RA SCT022 24/24 A3004 -80 97 1000 130/06 RMK AO2 RAB44 P0000 T02440239
53915KARA ARA20190523025014605/23/19 02:50:31  5-MIN KARA 230850Z AUTO 13007KT 10SM -RA SCT022 24/24 A3004 -80 97 1000 130/07 RMK AO2 RAB44 SLP170 P0000 60000 T02440239 50004
53915KARA ARA20190523025512105/23/19 02:55:31  5-MIN KARA 230855Z AUTO 13007KT 10SM -RA SCT022 24/24 A3004 -80 97 1000 130/07 RMK AO2 P0000 T02440239
53915KARA ARA20190523030012505/23/19 03:00:31  5-MIN KARA 230900Z AUTO 12007KT 10SM SCT022 24/24 A3004 -80 97 1000 120/07 RMK AO2 RAE0856 P0000 T02440239
53915KARA ARA20190523030512505/23/19 03:05:31  5-MIN KARA 230905Z AUTO 12006KT 10SM BKN022 24/24 A3004 -80 97 1000 120/06 RMK AO2 RAE0856 P0000 T02440239
53915KARA ARA20190523031012605/23/19 03:10:31  5-MIN KARA 230910Z AUTO 12006KT 10SM SCT022 24/24 A3004 -80 100 1000 120/06 RMK AO2 RAE0856 P0000 T02390239
53915KARA ARA20190523031512605/23/19 03:15:31  5-MIN KARA 230915Z AUTO 12005KT 10SM BKN022 24/24 A3004 -80 100 1000 120/05 RMK AO2 RAE0856 P0000 T02390239
53915KARA ARA20190523032012605/23/19 03:20:31  5-MIN KARA 230920Z AUTO 12006KT 10SM BKN022 24/24 A3004 -80 100 1000 120/06 RMK AO2 RAE0856 P0000 T02390239
53915KARA ARA20190523032512605/23/19 03:25:31  5-MIN KARA 230925Z AUTO 12005KT 10SM SCT022 24/24 A3004 -80 100 1000 120/05 RMK AO2 RAE0856 P0000 T02390239
53915KARA ARA20190523033012605/23/19 03:30:31  5-MIN KARA 230930Z AUTO 12005KT 10SM SCT022 24/24 A3004 -80 100 1000 120/05 RMK AO2 RAE0856 P0000 T02390239
53915KARA ARA20190523033512605/23/19 03:35:31  5-MIN KARA 230935Z AUTO 12006KT 10SM SCT022 24/24 A3005 -80 100 1000 120/06 RMK AO2 RAE0856 P0000 T02390239
53915KARA ARA20190523034012505/23/19 03:40:31  5-MIN KARA 230940Z AUTO 12005KT 10SM SCT022 24/23 A3005 -90 97 1000 120/05 RMK AO2 RAE0856 P0000 T02390233
53915KARA ARA20190523034512505/23/19 03:45:31  5-MIN KARA 230945Z AUTO 12005KT 10SM SCT024 24/23 A3005 -90 97 1000 120/05 RMK AO2 RAE0856 P0000 T02390233
53915KARA ARA20190523035013205/23/19 03:50:31  5-MIN KARA 230950Z AUTO 12005KT 10SM SCT024 24/23 A3005 -90 97 1000 120/05 RMK AO2 RAE0856 SLP175 P0000 T02390233
53915KARA ARA20190523035511805/23/19 03:55:31  5-MIN KARA 230955Z AUTO 12005KT 10SM SCT022 SCT027 24/23 A3005 -90 97 1000 120/05 RMK AO2 T02390233
53915KARA ARA20190523040011805/23/19 04:00:31  5-MIN KARA 231000Z AUTO 12005KT 10SM FEW020 SCT025 24/23 A3005 -90 97 1000 120/05 RMK AO2 T02390233
53915KARA ARA20190523040516805/23/19 04:05:31  5-MIN KARA 231005Z AUTO 12005KT 10SM SCT023 24/23 A3005 -90 97 1000 120/05 RMKTO 12004KT 10SM FEW023 23/23 A3005 -90 100 900 120/04 RMK AO2 T02330233
53915KARA ARA20190523041511805/23/19 04:15:31  5-MIN KARA 231015Z AUTO 12004KT 10SM FEW020 FEW025 23/23 A3005 -90 100 900 110/04 RMK AO2 T02330233
53915KARA ARA20190523042011105/23/19 04:20:31  5-MIN KARA 231020Z AUTO 11004KT 10SM FEW022 23/23 A3005 -90 100 900 110/04 RMK AO2 T02330233
53915KARA ARA20190523042511105/23/19 04:25:31  5-MIN KARA 231025Z AUTO 11004KT 10SM FEW022 23/23 A3005 -90 100 900 100/04 RMK AO2 T02330233
53915KARA ARA20190523043010605/23/19 04:30:31  5-MIN KARA 231030Z 10004KT 10SM FEW022 23/23 A3005 -90 100 900 100/04 RMK AO2 T02330233
53915KARA ARA20190523043510305/23/19 04:35:31  5-MIN KARA 231035Z 10005KT 10SM CLR 23/23 A3005 -90 100 900 100/05 RMK AO2 T02330233
53915KARA ARA20190523044010305/23/19 04:40:31  5-MIN KARA 231040Z 12005KT 10SM CLR 23/23 A3006 -90 100 900 120/05 RMK AO2 T02330233
53915KARA ARA20190523044510405/23/19 04:45:31  5-MIN KARA 231045Z 11005KT 10SM CLR 23/23 A3006 -100 100 900 110/05 RMK AO2 T02330233
53915KARA ARA20190523045011105/23/19 04:50:31  5-MIN KARA 231050Z 10006KT 10SM CLR 23/23 A3006 -100 100 900 100/06 RMK AO2 SLP178 T02330233
53915KARA ARA20190523045510405/23/19 04:55:31  5-MIN KARA 231055Z 10006KT 10SM CLR 23/23 A3006 -100 100 900 100/06 RMK AO2 T02330233
53915KARA ARA20190523050010405/23/19 05:00:31  5-MIN KARA 231100Z 11006KT 10SM CLR 23/23 A3006 -100 100 900 110/06 RMK AO2 T02330233
53915KARA ARA20190523050510405/23/19 05:05:31  5-MIN KARA 231105Z 11006KT 10SM CLR 23/23 A3006 -100 100 900 110/06 RMK AO2 T02330233
53915KARA ARA20190523051010405/23/19 05:10:31  5-MIN KARA 231110Z 10006KT 10SM CLR 23/23 A3007 -100 100 900 100/06 RMK AO2 T02330233
53915KARA ARA20190523051519105/23/19 05:15:31  5-MIN KARA 231115Z 10006KT 10SM CLR 23/23 A3007 -110 100 900 100/06 RMK AO09 -120 93 1100 120/09 RMK AO2 SLP188 T0256024405/23 10SM CLR 26/24 40/11 RMK AO2 SLP192 T02780244
53915KARA ARA20190523075510705/23/19 07:55:31  5-MIN KARA 231355Z 14012KT 10SM BKN015 27/24 A3010 -130 84 1200 140/12 RMK AO2 T02670239
53915KARA ARA20190523080010705/23/19 08:00:31  5-MIN KARA 231400Z 14011KT 10SM BKN017 27/24 A3010 -130 84 1200 140/11 RMK AO2 T02670239
53915KARA ARA20190523080510705/23/19 08:05:31  5-MIN KARA 231405Z 14011KT 10SM BKN017 27/24 A3010 -130 84 1200 140/11 RMK AO2 T02670239
53915KARA ARA20190523081010705/23/19 08:10:31  5-MIN KARA 231410Z 14012KT 10SM BKN017 27/24 A3010 -140 82 1300 140/12 RMK AO2 T02720239
53915KARA ARA20190523081510705/23/19 08:15:31  5-MIN KARA 231415Z 15011KT 10SM BKN017 28/24 A3010 -140 82 1300 140/11 RMK AO2 T02780244
53915KARA ARA20190523082010705/23/19 08:20:31  5-MIN KARA 231420Z 14011KT 10SM BKN017 28/24 A3010 -140 82 1300 140/11 RMK AO2 T02780244
53915KARA ARA20190523082510705/23/19 08:25:31  5-MIN KARA 231425Z 14010KT 10SM BKN019 28/24 A3011 -140 79 1400 140/10 RMK AO2 T02830244
53915KARA ARA20190523083010705/23/19 08:30:31  5-MIN KARA 231430Z 16011KT 10SM BKN019 28/24 A3011 -140 76 1400 160/11 RMK AO2 T02830239
53915KARA ARA20190523083510705/23/19 08:35:31  5-MIN KARA 231435Z 15011KT 10SM SCT021 28/24 A3011 -140 76 1400 150/11 RMK AO2 T02830239
53915KARA ARA20190523084010705/23/19 08:40:31  5-MIN KARA 231440Z 16011KT 10SM SCT021 28/24 A3011 -140 76 1400 160/11 RMK AO2 T02830239
53915KARA ARA20190523084510705/23/19 08:45:31  5-MIN KARA 231445Z 16012KT 10SM SCT021 28/24 A3011 -140 76 1400 160/12 RMK AO2 T02830239
53915KARA ARA20190523085012005/23/19 08:50:31  5-MIN KARA 231450Z 17013KT 10SM SCT021 29/23 A3011 -140 71 1500 170/13 RMK AO2 SLP195 T02890233 53015
53915KARA ARA20190523085510705/23/19 08:55:31  5-MIN KARA 231455Z 16012KT 10SM SCT021 29/23 A3011 -140 71 1500 160/12 RMK AO2 T02890233
53915KARA ARA20190523090010705/23/19 09:00:31  5-MIN KARA 231500Z 15013KT 10SM FEW021 29/23 A3011 -140 71 1500 150/13 RMK AO2 T02890233
53915KARA ARA20190523090510705/23/19 09:05:31  5-MIN KARA 231505Z 16014KT 10SM FEW023 29/23 A3011 -140 71 1500 160/14 RMK AO2 T02890233
53915KARA ARA20190523091010705/23/19 09:10:31  5-MIN KARA 231510Z 16011KT 10SM FEW023 29/23 A3011 -150 71 1500 160/11 RMK AO2 T02890233
53915KARA ARA20190523091511305/23/19 09:15:31  5-MIN KARA 231515Z 17014G18KT 10SM FEW023 29/23 A3011 -150 71 1500 170/14G18 RMK AO2 T02890233
53915KARA ARA20190523092011305/23/19 09:20:31  5-MIN KARA 231520Z 16012G18KT 10SM FEW026 30/23 A3011 -150 67 1600 160/12G18 RMK AO2 T03000233
53915KARA ARA20190523092510705/23/19 09:25:31  5-MIN KARA 231525Z 15012KT 10SM FEW026 30/23 A3011 -140 67 1600 150/12 RMK AO2 T03000233
53915KARA ARA20190523093010705/23/19 09:30:31  5-MIN KARA 231530Z 15013KT 10SM FEW027 30/23 A3011 -150 65 1600 150/13 RMK AO2 T03000228
53915KARA ARA20190523093510705/23/19 09:35:31  5-MIN KARA 231535Z 16013KT 10SM FEW027 30/23 A3011 -150 65 1600 160/13 RMK AO2 T03000228
53915KARA ARA20190523094010705/23/19 09:40:31  5-MIN KARA 231540Z 15015KT 10SM FEW027 30/22 A3011 -150 62 1600 150/15 RMK AO2 T03000222
53915KARA ARA20190523094511305/23/19 09:45:31  5-MIN KARA 231545Z 16014G19KT 10SM FEW027 30/22 A3012 -150 62 1600 160/14G19 RMK AO2 T03000222
53915KARA ARA20190523095011705/23/19 09:50:31  5-MIN KARA 231550Z 14015G21KT 10SM CLR 31/22 A3012 -150 58 1600 140/15G21 RMK AO2 SLP198 T03060217
53915KARA ARA20190523095511005/23/19 09:55:31  5-MIN KARA 231555Z 14014G21KT 10SM CLR 31/22 A3012 -150 58 1600 140/14G21 RMK AO2 T03060217
53915KARA ARA20190523100011005/23/19 10:00:31  5-MIN KARA 231600Z 16013G19KT 10SM CLR 31/22 A3012 -150 58 1600 160/13G19 RMK AO2 T03060217
53915KARA ARA20190523100511005/23/19 10:05:31  5-MIN KARA 231605Z 16014G19KT 10SM CLR 31/22 A3012 -150 58 1600 160/14G19 RMK AO2 T03060217
53915KARA ARA20190523101010405/23/19 10:10:31  5-MIN KARA 231610Z 17011KT 10SM CLR 31/22 A3012 -150 58 1600 160/11 RMK AO2 T03060217
53915KARA ARA20190523101510405/23/19 10:15:31  5-MIN KARA 231615Z 16012KT 10SM CLR 31/22 A3012 -160 58 1700 150/12 RMK AO2 T03110222
53915KARA ARA20190523102010405/23/19 10:20:31  5-MIN KARA 231620Z 15014KT 10SM CLR 31/22 A3012 -150 58 1600 150/14 RMK AO2 T03060217
53915KARA ARA20190523102511005/23/19 10:25:31  5-MIN KARA 231625Z 15012G19KT 10SM CLR 31/21 A3012 -150 54 1700 150/12G19 RMK AO2 T03110211
53915KARA ARA20190523103011005/23/19 10:30:31  5-MIN KARA 231630Z 16014G19KT 10SM CLR 31/21 A3012 -150 54 1700 160/14G19 RMK AO2 T03110211
53915KARA ARA20190523103510405/23/19 10:35:31  5-MIN KARA 231635Z 16014KT 10SM CLR 31/21 A3012 -150 56 1600 160/14 RMK AO2 T03060211
53915KARA ARA20190523104010405/23/19 10:40:31  5-MIN KARA 231640Z 17012KT 10SM CLR 31/22 A3012 -150 56 1700 160/12 RMK AO2 T03110217
53915KARA ARA20190523104511005/23/19 10:45:31  5-MIN KARA 231645Z 16013G20KT 10SM CLR 32/21 A3012 -150 53 1800 160/13G20 RMK AO2 T03170211
53915KARA ARA20190523105011705/23/19 10:50:31  5-MIN KARA 231650Z 16015G20KT 10SM CLR 31/21 A3012 -160 53 1700 160/15G20 RMK AO2 SLP199 T03110206
53915KARA ARA20190523105511005/23/19 10:55:31  5-MIN KARA 231655Z 15012G20KT 10SM CLR 31/21 A3012 -150 53 1700 150/12G20 RMK AO2 T03110206
53915KARA ARA20190523110010405/23/19 11:00:31  5-MIN KARA 231700Z 15013KT 10SM CLR 31/21 A3012 -160 54 1700 150/13 RMK AO2 T03110211
53915KARA ARA20190523110511005/23/19 11:05:31  5-MIN KARA 231705Z 17014G18KT 10SM CLR 32/21 A3012 -160 53 1700 160/14G18 RMK AO2 T03170211
53915KARA ARA20190523111010405/23/19 11:10:31  5-MIN KARA 231710Z 16012KT 10SM CLR 32/21 A3013 -160 51 1700 160/12 RMK AO2 T03170206
53915KARA ARA20190523111510405/23/19 11:15:31  5-MIN KARA 231715Z 15014KT 10SM CLR 32/21 A3013 -160 51 1700 150/14 RMK AO2 T03170206
53915KARA ARA20190523112011005/23/19 11:20:31  5-MIN KARA 231720Z 18013G19KT 10SM CLR 31/21 A3012 -160 53 1700 170/13G19 RMK AO2 T03110206
53915KARA ARA20190523112510405/23/19 11:25:31  5-MIN KARA 231725Z 17012KT 10SM CLR 32/21 A3012 -160 53 1800 170/12 RMK AO2 T03170211
53915KARA ARA20190523113010405/23/19 11:30:31  5-MIN KARA 231730Z 15012KT 10SM CLR 32/21 A3012 -160 53 1700 150/12 RMK AO2 T03170211
53915KARA ARA20190523113511005/23/19 11:35:31  5-MIN KARA 231735Z 15009G18KT 10SM CLR 31/21 A3012 -160 54 1700 150/09G18 RMK AO2 T03110211
53915KARA ARA20190523114011305/23/19 11:40:31  5-MIN KARA 231740Z 16011G18KT 10SM FEW041 32/22 A3012 -150 55 1800 160/11G18 RMK AO2 T03170217
53915KARA ARA20190523114510705/23/19 11:45:31  5-MIN KARA 231745Z 15012KT 10SM FEW041 32/22 A3012 -150 55 1800 150/12 RMK AO2 T03170217
53915KARA ARA20190523115013205/23/19 11:50:31  5-MIN KARA 231750Z 15010KT 10SM FEW043 32/22 A3012 -150 56 1800 140/10 RMK AO2 SLP199 T03170222 10317 20239 52010
53915KARA ARA20190523115510705/23/19 11:55:31  5-MIN KARA 231755Z 16012KT 10SM FEW043 32/21 A3012 -150 53 1800 160/12 RMK AO2 T03170211
53915KARA ARA20190523120010705/23/19 12:00:31  5-MIN KARA 231800Z 15012KT 10SM FEW043 32/21 A3012 -150 51 1800 150/12 RMK AO2 T03220211
53915KARA ARA20190523120510705/23/19 12:05:31  5-MIN KARA 231805Z 15012KT 10SM FEW043 32/22 A3012 -150 53 1800 150/12 RMK AO2 T03220217
53915KARA ARA20190523121010705/23/19 12:10:31  5-MIN KARA 231810Z 16011KT 10SM FEW043 32/21 A3012 -150 51 1800 160/11 RMK AO2 T03220211
53915KARA ARA20190523121510705/23/19 12:15:31  5-MIN KARA 231815Z 16011KT 10SM FEW043 32/22 A3012 -150 53 1800 160/11 RMK AO2 T03220217
53915KARA ARA20190523122011005/23/19 12:20:31  5-MIN KARA 231820Z 16010G15KT 10SM CLR 32/22 A3011 -150 53 1800 160/10G15 RMK AO2 T03220217
53915KARA ARA20190523122511005/23/19 12:25:31  5-MIN KARA 231825Z 16011G19KT 10SM CLR 32/22 A3011 -140 53 1800 160/11G19 RMK AO2 T03220217
53915KARA ARA20190523123011005/23/19 12:30:31  5-MIN KARA 231830Z 15010G19KT 10SM CLR 32/22 A3011 -150 55 1800 150/10G19 RMK AO2 T03220222
53915KARA ARA20190523123510405/23/19 12:35:31  5-MIN KARA 231835Z 14011KT 10SM CLR 32/22 A3011 -140 53 1800 140/11 RMK AO2 T03220217
53915KARA ARA20190523124010405/23/19 12:40:31  5-MIN KARA 231840Z 16009KT 10SM CLR 32/22 A3011 -140 55 1800 160/09 RMK AO2 T03170217
53915KARA ARA20190523124511305/23/19 12:45:31  5-MIN KARA 231845Z 13012G18KT 10SM FEW045 32/22 A3011 -140 56 1800 130/12G18 RMK AO2 T03170222
53915KARA ARA20190523125012005/23/19 12:50:31  5-MIN KARA 231850Z 14011G18KT 10SM FEW045 32/22 A3010 -140 55 1800 140/11G18 RMK AO2 SLP193 T03220222
53915KARA ARA20190523125511305/23/19 12:55:31  5-MIN KARA 231855Z 15010G18KT 10SM SCT045 32/22 A3010 -140 56 1800 150/10G18 RMK AO2 T03170222
53915KARA ARA20190523130010705/23/19 13:00:31  5-MIN KARA 231900Z 16011KT 10SM SCT045 32/22 A3010 -140 56 1800 160/11 RMK AO2 T03170222
53915KARA ARA20190523130512005/23/19 13:05:31  5-MIN KARA 231905Z 12013G18KT 10SM SCT045 SCT060 32/22 A3010 -140 55 1800 120/13G18 RMK AO2 T03170217
53915KARA ARA20190523131012105/23/19 13:10:31  5-MIN KARA 231910Z 14012KT 10SM SCT043 BKN050 BKN060 31/21 A3010 -140 54 1700 140/12 RMK AO2 T03060206
53915KARA ARA20190523131511405/23/19 13:15:31  5-MIN KARA 231915Z 15009KT 10SM BKN043 BKN060 31/21 A3010 -140 56 1700 150/09 RMK AO2 T03060211
53915KARA ARA20190523132012105/23/19 13:20:31  5-MIN KARA 231920Z 16009KT 10SM SCT043 SCT050 BKN060 32/22 A3010 -130 55 1800 160/09 RMK AO2 T03220222
53915KARA ARA20190523132512005/23/19 13:25:31  5-MIN KARA 231925Z 15013G19KT 10SM SCT043 SCT055 32/22 A3010 -130 55 1800 150/13G19 RMK AO2 T03220222
53915KARA ARA20190523133012005/23/19 13:30:31  5-MIN KARA 231930Z 16010G19KT 10SM FEW043 SCT055 32/22 A3010 -130 55 1800 160/10G19 RMK AO2 T03220222
53915KARA ARA20190523133511405/23/19 13:35:31  5-MIN KARA 231935Z 18011KT 10SM FEW043 SCT050 32/22 A3010 -130 55 1800 170/11 RMK AO2 T03220222
53915KARA ARA20190523134010705/23/19 13:40:31  5-MIN KARA 231940Z 17014KT 10SM FEW043 32/23 A3009 -130 57 1800 170/14 RMK AO2 T03220228
53915KARA ARA20190523134511405/23/19 13:45:31  5-MIN KARA 231945Z 15013KT 10SM FEW043 FEW050 32/22 A3009 -130 55 1800 150/13 RMK AO2 T03220222
53915KARA ARA20190523135012105/23/19 13:50:31  5-MIN KARA 231950Z 15012KT 10SM FEW043 FEW050 32/22 A3009 -130 55 1800 150/12 RMK AO2 SLP189 T03220222
53915KARA ARA20190523135510705/23/19 13:55:31  5-MIN KARA 231955Z 16010KT 10SM FEW043 32/23 A3009 -130 58 1800 160/10 RMK AO2 T03170228
53915KARA ARA20190523140010705/23/19 14:00:31  5-MIN KARA 232000Z 17011KT 10SM FEW042 32/22 A3009 -120 55 1900 170/11 RMK AO2 T03220222
53915KARA ARA20190523140511005/23/19 14:05:31  5-MIN KARA 232005Z 16012G18KT 10SM CLR 32/22 A3009 -120 56 1800 160/12G18 RMK AO2 T03170222
53915KARA ARA20190523141011005/23/19 14:10:31  5-MIN KARA 232010Z 17009G18KT 10SM CLR 32/22 A3009 -120 55 1900 170/09G18 RMK AO2 T03220222
53915KARA ARA20190523141511305/23/19 14:15:31  5-MIN KARA 232015Z 17010G17KT 10SM FEW040 32/23 A3009 -120 59 1900 170/10G17 RMK AO2 T03220233
53915KARA ARA20190523142010705/23/19 14:20:31  5-MIN KARA 232020Z 15012KT 10SM FEW040 32/23 A3009 -120 58 1800 150/12 RMK AO2 T03170228
53915KARA ARA20190523142511305/23/19 14:25:31  5-MIN KARA 232025Z 15013G18KT 10SM SCT040 32/23 A3008 -120 58 1800 150/13G18 RMK AO2 T03170228
53915KARA ARA20190523143011305/23/19 14:30:31  5-MIN KARA 232030Z 17010G18KT 10SM FEW040 32/23 A3008 -120 61 1800 170/10G18 RMK AO2 T03170233
53915KARA ARA20190523143510705/23/19 14:35:31  5-MIN KARA 232035Z 17013KT 10SM FEW040 32/23 A3008 -120 58 1800 170/13 RMK AO2 T03170228
53915KARA ARA20190523144010705/23/19 14:40:31  5-MIN KARA 232040Z 17012KT 10SM FEW040 32/23 A3008 -120 58 1800 170/12 RMK AO2 T03170228
53915KARA ARA20190523144510705/23/19 14:45:31  5-MIN KARA 232045Z 17014KT 10SM FEW040 32/23 A3008 -120 61 1800 170/14 RMK AO2 T03170233
53915KARA ARA20190523145012005/23/19 14:50:31  5-MIN KARA 232050Z 15014KT 10SM FEW040 32/22 A3008 -120 56 1800 150/14 RMK AO2 SLP186 T03170222 50004
53915KARA ARA20190523145510405/23/19 14:55:31  5-MIN KARA 232055Z 18012KT 10SM CLR 32/22 A3008 -120 56 1800 180/12 RMK AO2 T03170222
53915KARA ARA20190523150010405/23/19 15:00:31  5-MIN KARA 232100Z 16015KT 10SM CLR 32/22 A3008 -120 56 1800 160/15 RMK AO2 T03170222
53915KARA ARA20190523150511305/23/19 15:05:31  5-MIN KARA 232105Z 17011G19KT 10SM FEW041 32/22 A3008 -120 56 1800 170/11G19 RMK AO2 T03170222
53915KARA ARA20190523151010705/23/19 15:10:31  5-MIN KARA 232110Z 17013KT 10SM FEW041 32/22 A3008 -120 56 1800 170/13 RMK AO2 T03170222
53915KARA ARA20190523151510705/23/19 15:15:31  5-MIN KARA 232115Z 16013KT 10SM FEW041 32/23 A3008 -120 58 1800 160/13 RMK AO2 T03170228
53915KARA ARA20190523152010705/23/19 15:20:31  5-MIN KARA 232120Z 16013KT 10SM FEW041 32/23 A3008 -110 58 1800 160/13 RMK AO2 T03170228
53915KARA ARA20190523152510705/23/19 15:25:31  5-MIN KARA 232125Z 19013KT 10SM FEW041 31/23 A3008 -110 60 1700 180/13 RMK AO2 T03110228
53915KARA ARA20190523153011305/23/19 15:30:31  5-MIN KARA 232130Z 17013G19KT 10SM FEW039 31/23 A3008 -110 63 1700 160/13G19 RMK AO2 T03110233
53915KARA ARA20190523153511305/23/19 15:35:31  5-MIN KARA 232135Z 17013G19KT 10SM FEW039 31/23 A3007 -110 63 1700 170/13G19 RMK AO2 T03110233
53915KARA ARA20190523154010705/23/19 15:40:31  5-MIN KARA 232140Z 18011KT 10SM FEW039 31/23 A3007 -110 63 1700 180/11 RMK AO2 T03110233
53915KARA ARA20190523154510705/23/19 15:45:31  5-MIN KARA 232145Z 18011KT 10SM FEW039 31/23 A3007 -110 60 1700 180/11 RMK AO2 T03110228
53915KARA ARA20190523155011405/23/19 15:50:31  5-MIN KARA 232150Z 18011KT 10SM FEW039 31/23 A3007 -110 63 1700 180/11 RMK AO2 SLP182 T03110233
53915KARA ARA20190523155510705/23/19 15:55:31  5-MIN KARA 232155Z 18012KT 10SM FEW039 31/24 A3007 -110 65 1700 180/12 RMK AO2 T03110239
53915KARA ARA20190523160010405/23/19 16:00:31  5-MIN KARA 232200Z 19011KT 10SM CLR 31/23 A3007 -110 63 1700 180/11 RMK AO2 T03110233
53915KARA ARA20190523160510405/23/19 16:05:31  5-MIN KARA 232205Z 18012KT 10SM CLR 31/23 A3007 -110 63 1700 180/12 RMK AO2 T03110233
53915KARA ARA20190523161010405/23/19 16:10:31  5-MIN KARA 232210Z 18013KT 10SM CLR 31/23 A3007 -110 63 1700 180/13 RMK AO2 T03110233
53915KARA ARA20190523161510405/23/19 16:15:31  5-MIN KARA 232215Z 18011KT 10SM CLR 31/23 A3007 -110 65 1700 180/11 RMK AO2 T03060233
53915KARA ARA20190523162010405/23/19 16:20:31  5-MIN KARA 232220Z 17012KT 10SM CLR 31/23 A3007 -110 65 1700 170/12 RMK AO2 T03060233
53915KARA ARA20190523162510405/23/19 16:25:31  5-MIN KARA 232225Z 17008KT 10SM CLR 31/23 A3007 -110 62 1700 170/08 RMK AO2 T03060228
53915KARA ARA20190523163010405/23/19 16:30:31  5-MIN KARA 232230Z 17011KT 10SM CLR 31/23 A3007 -110 65 1700 170/11 RMK AO2 T03060233
53915KARA ARA20190523163510405/23/19 16:35:31  5-MIN KARA 232235Z 17011KT 10SM CLR 31/23 A3007 -100 65 1700 170/11 RMK AO2 T03060233
53915KARA ARA20190523164010405/23/19 16:40:31  5-MIN KARA 232240Z 17010KT 10SM CLR 31/23 A3007 -100 65 1700 160/10 RMK AO2 T03060233
53915KARA ARA20190523164510405/23/19 16:45:31  5-MIN KARA 232245Z 19013KT 10SM CLR 31/23 A3007 -110 65 1700 190/13 RMK AO2 T03060233
53915KARA ARA20190523165011105/23/19 16:50:31  5-MIN KARA 232250Z 18011KT 10SM CLR 30/23 A3007 -100 67 1600 180/11 RMK AO2 SLP180 T03000233
53915KARA ARA20190523165510405/23/19 16:55:31  5-MIN KARA 232255Z 19013KT 10SM CLR 30/23 A3007 -100 67 1600 190/13 RMK AO2 T03000233
53915KARA ARA20190523170010405/23/19 17:00:31  5-MIN KARA 232300Z 17012KT 10SM CLR 30/23 A3007 -100 67 1600 170/12 RMK AO2 T03000233
53915KARA ARA20190523170510405/23/19 17:05:31  5-MIN KARA 232305Z 18012KT 10SM CLR 30/23 A3007 -100 67 1600 180/12 RMK AO2 T03000233
53915KARA ARA20190523171010405/23/19 17:10:31  5-MIN KARA 232310Z 17010KT 10SM CLR 30/23 A3007 -110 67 1600 170/10 RMK AO2 T03000233
53915KARA ARA20190523171510405/23/19 17:15:31  5-MIN KARA 232315Z 18010KT 10SM CLR 30/23 A3007 -100 67 1600 180/10 RMK AO2 T03000233
53915KARA ARA20190523172010405/23/19 17:20:31  5-MIN KARA 232320Z 18012KT 10SM CLR 30/23 A3007 -100 67 1600 180/12 RMK AO2 T03000233
53915KARA ARA20190523172510405/23/19 17:25:31  5-MIN KARA 232325Z 19011KT 10SM CLR 29/23 A3007 -100 67 1600 180/11 RMK AO2 T02940228
53915KARA ARA20190523173010405/23/19 17:30:31  5-MIN KARA 232330Z 17012KT 10SM CLR 29/23 A3007 -100 67 1600 170/12 RMK AO2 T02940228
53915KARA ARA20190523173510405/23/19 17:35:31  5-MIN KARA 232335Z 17009KT 10SM CLR 29/23 A3007 -100 67 1600 170/09 RMK AO2 T02940228
53915KARA ARA20190523174010405/23/19 17:40:31  5-MIN KARA 232340Z 18012KT 10SM CLR 29/23 A3007 -100 67 1600 180/12 RMK AO2 T02940228
53915KARA ARA20190523174510405/23/19 17:45:31  5-MIN KARA 232345Z 18010KT 10SM CLR 29/23 A3007 -100 67 1600 170/10 RMK AO2 T02940228
53915KARA ARA20190523175012905/23/19 17:50:31  5-MIN KARA 232350Z 18010KT 10SM CLR 29/23 A3007 -100 69 1500 180/10 RMK AO2 SLP180 T02890228 10322 20289 56013
53915KARA ARA20190523175510405/23/19 17:55:31  5-MIN KARA 232355Z 17009KT 10SM CLR 29/23 A3007 -100 69 1500 170/09 RMK AO2 T02890228
53915KARA ARA20190523180010405/23/19 18:00:31  5-MIN KARA 240000Z 17012KT 10SM CLR 29/23 A3007 -100 69 1500 170/12 RMK AO2 T02890228
53915KARA ARA20190523180510405/23/19 18:05:31  5-MIN KARA 240005Z 17011KT 10SM CLR 29/23 A3007 -110 69 1500 170/11 RMK AO2 T02890228
53915KARA ARA20190523181010405/23/19 18:10:31  5-MIN KARA 240010Z 18012KT 10SM CLR 29/23 A3007 -100 69 1500 180/12 RMK AO2 T02890228
53915KARA ARA20190523181510405/23/19 18:15:31  5-MIN KARA 240015Z 18011KT 10SM CLR 28/23 A3006 -100 71 1400 180/11 RMK AO2 T02830228
53915KARA ARA20190523182010405/23/19 18:20:31  5-MIN KARA 240020Z 18010KT 10SM CLR 28/23 A3006 -100 71 1400 180/10 RMK AO2 T02830228
53915KARA ARA20190523182510405/23/19 18:25:31  5-MIN KARA 240025Z 17009KT 10SM CLR 28/23 A3007 -110 71 1400 170/09 RMK AO2 T02830228
53915KARA ARA20190523183010405/23/19 18:30:31  5-MIN KARA 240030Z 18009KT 10SM CLR 28/23 A3007 -110 71 1400 170/09 RMK AO2 T02830228
53915KARA ARA20190523183510405/23/19 18:35:31  5-MIN KARA 240035Z 17010KT 10SM CLR 28/23 A3007 -110 74 1400 170/10 RMK AO2 T02780228
53915KARA ARA20190523184010405/23/19 18:40:31  5-MIN KARA 240040Z 18009KT 10SM CLR 28/23 A3007 -110 74 1400 170/09 RMK AO2 T02780228
53915KARA ARA20190523184510405/23/19 18:45:31  5-MIN KARA 240045Z 18007KT 10SM CLR 28/23 A3007 -110 74 1400 170/07 RMK AO2 T02780228
53915KARA ARA20190523185011105/23/19 18:50:31  5-MIN KARA 240050Z 17007KT 10SM CLR 28/23 A3007 -100 76 1400 170/07 RMK AO2 SLP181 T02780233
53915KARA ARA20190523185510405/23/19 18:55:31  5-MIN KARA 240055Z 17008KT 10SM CLR 27/23 A3007 -100 79 1300 170/08 RMK AO2 T02720233
53915KARA ARA20190523190010405/23/19 19:00:31  5-MIN KARA 240100Z 17008KT 10SM CLR 27/23 A3007 -110 79 1300 170/08 RMK AO2 T02720233
53915KARA ARA20190523190510405/23/19 19:05:31  5-MIN KARA 240105Z 17007KT 10SM CLR 27/23 A3007 -110 79 1300 170/07 RMK AO2 T02720233
53915KARA ARA20190523191010405/23/19 19:10:31  5-MIN KARA 240110Z 16007KT 10SM CLR 27/23 A3007 -110 79 1300 160/07 RMK AO2 T02720233
53915KARA ARA20190523191510405/23/19 19:15:31  5-MIN KARA 240115Z 16007KT 10SM CLR 27/23 A3007 -110 79 1300 160/07 RMK AO2 T02720233
53915KARA ARA20190523192010405/23/19 19:20:31  5-MIN KARA 240120Z 16007KT 10SM CLR 27/23 A3007 -110 82 1200 160/07 RMK AO2 T02670233
53915KARA ARA20190523192510405/23/19 19:25:31  5-MIN KARA 240125Z 16007KT 10SM CLR 27/23 A3007 -110 82 1200 160/07 RMK AO2 T02670233
53915KARA ARA20190523193010905/23/19 19:30:31  5-MIN KARA 240130Z AUTO 16006KT 10SM CLR 27/23 A3007 -110 82 1200 160/06 RMK AO2 T02670233
53915KARA ARA20190523193510905/23/19 19:35:31  5-MIN KARA 240135Z AUTO 16007KT 10SM CLR 26/24 A3007 -110 87 1200 160/07 RMK AO2 T02610239
53915KARA ARA20190523194010905/23/19 19:40:31  5-MIN KARA 240140Z AUTO 15006KT 10SM CLR 26/24 A3007 -110 87 1200 150/06 RMK AO2 T02610239
53915KARA ARA20190523194510905/23/19 19:45:31  5-MIN KARA 240145Z AUTO 15006KT 10SM CLR 26/24 A3007 -110 87 1200 150/06 RMK AO2 T02610239
53915KARA ARA20190523195011605/23/19 19:50:31  5-MIN KARA 240150Z AUTO 16006KT 10SM CLR 26/24 A3007 -110 87 1200 150/06 RMK AO2 SLP183 T02610239
53915KARA ARA20190523195510905/23/19 19:55:31  5-MIN KARA 240155Z AUTO 16006KT 10SM CLR 26/24 A3007 -110 87 1200 150/06 RMK AO2 T02610239
53915KARA ARA20190523200010905/23/19 20:00:31  5-MIN KARA 240200Z AUTO 15006KT 10SM CLR 26/24 A3007 -110 87 1200 150/06 RMK AO2 T02610239
53915KARA ARA20190523200510905/23/19 20:05:31  5-MIN KARA 240205Z AUTO 15005KT 10SM CLR 26/24 A3007 -110 90 1100 150/05 RMK AO2 T02560239
53915KARA ARA20190523201010905/23/19 20:10:31  5-MIN KARA 240210Z AUTO 15005KT 10SM CLR 26/24 A3008 -110 90 1100 150/05 RMK AO2 T02560239
53915KARA ARA20190523201510905/23/19 20:15:31  5-MIN KARA 240215Z AUTO 15005KT 10SM CLR 26/23 A3008 -110 87 1100 150/05 RMK AO2 T02560233
53915KARA ARA20190523202010905/23/19 20:20:31  5-MIN KARA 240220Z AUTO 15005KT 10SM CLR 26/23 A3008 -120 87 1100 150/05 RMK AO2 T02560233
53915KARA ARA20190523202510905/23/19 20:25:31  5-MIN KARA 240225Z AUTO 14005KT 10SM CLR 25/23 A3008 -120 90 1000 140/05 RMK AO2 T02500233
53915KARA ARA20190523203010905/23/19 20:30:31  5-MIN KARA 240230Z AUTO 14005KT 10SM CLR 25/23 A3008 -120 90 1000 140/05 RMK AO2 T02500233
53915KARA ARA20190523203510905/23/19 20:35:31  5-MIN KARA 240235Z AUTO 14005KT 10SM CLR 25/23 A3008 -120 90 1000 140/05 RMK AO2 T02500233
53915KARA ARA20190523204010905/23/19 20:40:31  5-MIN KARA 240240Z AUTO 14006KT 10SM CLR 25/23 A3009 -120 90 1000 140/06 RMK AO2 T02500233
53915KARA ARA20190523204510905/23/19 20:45:31  5-MIN KARA 240245Z AUTO 14006KT 10SM CLR 25/23 A3009 -120 90 1000 140/06 RMK AO2 T02500233
53915KARA ARA20190523205012205/23/19 20:50:31  5-MIN KARA 240250Z AUTO 13005KT 10SM CLR 25/23 A3009 -130 90 1000 130/05 RMK AO2 SLP188 T02500233 56005
53915KARA ARA20190523205510905/23/19 20:55:31  5-MIN KARA 240255Z AUTO 14006KT 10SM CLR 25/23 A3009 -120 87 1000 130/06 RMK AO2 T02500228
53915KARA ARA20190523210010905/23/19 21:00:31  5-MIN KARA 240300Z AUTO 13006KT 10SM CLR 25/23 A3009 -120 87 1000 130/06 RMK AO2 T02500228
53915KARA ARA20190523210510905/23/19 21:05:31  5-MIN KARA 240305Z AUTO 14006KT 10SM CLR 25/23 A3009 -120 87 1000 130/06 RMK AO2 T02500228
53915KARA ARA20190523211010905/23/19 21:10:31  5-MIN KARA 240310Z AUTO 13006KT 10SM CLR 25/23 A3009 -130 87 1000 130/06 RMK AO2 T02500228
53915KARA ARA20190523211510905/23/19 21:15:31  5-MIN KARA 240315Z AUTO 13006KT 10SM CLR 25/23 A3009 -130 87 1000 130/06 RMK AO2 T02500228
53915KARA ARA20190523212010905/23/19 21:20:31  5-MIN KARA 240320Z AUTO 13006KT 10SM CLR 25/23 A3009 -130 87 1000 130/06 RMK AO2 T02500228
53915KARA ARA20190523212510905/23/19 21:25:31  5-MIN KARA 240325Z AUTO 14006KT 10SM CLR 25/23 A3009 -130 87 1000 140/06 RMK AO2 T02500228
53915KARA ARA20190523213010905/23/19 21:30:31  5-MIN KARA 240330Z AUTO 14007KT 10SM CLR 24/23 A3009 -130 90 1000 140/07 RMK AO2 T02440228
53915KARA ARA20190523213510905/23/19 21:35:31  5-MIN KARA 240335Z AUTO 15006KT 10SM CLR 24/23 A3009 -130 90 1000 150/06 RMK AO2 T02440228
53915KARA ARA20190523214010905/23/19 21:40:31  5-MIN KARA 240340Z AUTO 15006KT 10SM CLR 24/23 A3010 -130 90 1000 150/06 RMK AO2 T02440228
53915KARA ARA20190523214510905/23/19 21:45:31  5-MIN KARA 240345Z AUTO 16005KT 10SM CLR 24/23 A3010 -130 90 1000 160/05 RMK AO2 T02440228
53915KARA ARA20190523215011605/23/19 21:50:31  5-MIN KARA 240350Z AUTO 16005KT 10SM CLR 24/23 A3010 -130 90 1000 150/05 RMK AO2 SLP191 T02440228
53915KARA ARA20190523215510905/23/19 21:55:31  5-MIN KARA 240355Z AUTO 15005KT 10SM CLR 24/23 A3010 -130 90 1000 150/05 RMK AO2 T02440228
53915KARA ARA20190523220010905/23/19 22:00:31  5-MIN KARA 240400Z AUTO 14005KT 10SM CLR 24/23 A3010 -130 90 1000 140/05 RMK AO2 T02440228
53915KARA ARA20190523220510805/23/19 22:05:31  5-MIN KARA 240405Z AUTO 14005KT 10SM CLR 24/23 A3010 -130 93 900 140/05 RMK AO2 T02390228
53915KARA ARA20190523221010805/23/19 22:10:31  5-MIN KARA 240410Z AUTO 14006KT 10SM CLR 24/23 A3010 -130 93 900 130/06 RMK AO2 T02390228
53915KARA ARA20190523221510805/23/19 22:15:31  5-MIN KARA 240415Z AUTO 13005KT 10SM CLR 24/23 A3009 -130 93 900 130/05 RMK AO2 T02390228
53915KARA ARA20190523222010805/23/19 22:20:31  5-MIN KARA 240420Z AUTO 14005KT 10SM CLR 24/23 A3009 -130 93 900 140/05 RMK AO2 T02390228
53915KARA ARA20190523222510805/23/19 22:25:31  5-MIN KARA 240425Z AUTO 14005KT 10SM CLR 24/23 A3009 -130 93 900 140/05 RMK AO2 T02390228
53915KARA ARA20190523223010805/23/19 22:30:31  5-MIN KARA 240430Z AUTO 14005KT 10SM CLR 24/23 A3009 -130 93 900 140/05 RMK AO2 T02390228
53915KARA ARA20190523223510805/23/19 22:35:31  5-MIN KARA 240435Z AUTO 14005KT 10SM CLR 24/23 A3009 -130 93 900 140/05 RMK AO2 T02390228
53915KARA ARA20190523224010805/23/19 22:40:31  5-MIN KARA 240440Z AUTO 14005KT 10SM CLR 24/23 A3009 -130 93 900 140/05 RMK AO2 T02390228
53915KARA ARA20190523224510805/23/19 22:45:31  5-MIN KARA 240445Z AUTO 15005KT 10SM CLR 24/23 A3009 -130 93 900 150/05 RMK AO2 T02390228
53915KARA ARA20190523225011505/23/19 22:50:31  5-MIN KARA 240450Z AUTO 15005KT 10SM CLR 24/23 A3009 -130 93 900 140/05 RMK AO2 SLP189 T02390228
53915KARA ARA20190523225510805/23/19 22:55:31  5-MIN KARA 240455Z AUTO 14005KT 10SM CLR 24/23 A3009 -130 93 900 140/05 RMK AO2 T02390228
53915KARA ARA20190523230010805/23/19 23:00:31  5-MIN KARA 240500Z AUTO 14005KT 10SM CLR 24/23 A3009 -130 93 900 140/05 RMK AO2 T02390228
53915KARA ARA20190523230510805/23/19 23:05:31  5-MIN KARA 240505Z AUTO 13005KT 10SM CLR 24/23 A3009 -120 93 900 130/05 RMK AO2 T02390228
53915KARA ARA20190523231010805/23/19 23:10:31  5-MIN KARA 240510Z AUTO 14005KT 10SM CLR 23/23 A3009 -120 97 900 130/05 RMK AO2 T02330228
53915KARA ARA20190523231510805/23/19 23:15:31  5-MIN KARA 240515Z AUTO 13005KT 10SM CLR 23/23 A3009 -120 97 900 130/05 RMK AO2 T02330228
53915KARA ARA20190523232010805/23/19 23:20:31  5-MIN KARA 240520Z AUTO 13005KT 10SM CLR 23/23 A3009 -120 97 900 130/05 RMK AO2 T02330228
53915KARA ARA20190523232510805/23/19 23:25:31  5-MIN KARA 240525Z AUTO 14005KT 10SM CLR 23/23 A3009 -120 97 900 140/05 RMK AO2 T02330228
53915KARA ARA20190523233010805/23/19 23:30:31  5-MIN KARA 240530Z AUTO 14005KT 10SM CLR 23/23 A3009 -120 97 900 140/05 RMK AO2 T02330228
53915KARA ARA20190523233510805/23/19 23:35:31  5-MIN KARA 240535Z AUTO 14005KT 10SM CLR 23/23 A3008 -120 97 900 140/05 RMK AO2 T02330228
53915KARA ARA20190523234010805/23/19 23:40:31  5-MIN KARA 240540Z AUTO 15005KT 10SM CLR 23/23 A3008 -120 97 900 150/05 RMK AO2 T02330228
53915KARA ARA20190523234510805/23/19 23:45:31  5-MIN KARA 240545Z AUTO 15004KT 10SM CLR 23/23 A3008 -120 97 900 150/04 RMK AO2 T02330228
53915KARA ARA20190523235014305/23/19 23:50:31  5-MIN KARA 240550Z AUTO 15004KT 10SM CLR 23/23 A3008 -120 97 900 150/04 RMK AO2 SLP185 T02330228 10289 20233 403220233 53008
53915KARA ARA20190523235510805/23/19 23:55:31  5-MIN KARA 240555Z AUTO 14005KT 10SM CLR 23/23 A3008 -110 97 900 140/05 RMK AO2 T02330228
53915KARA ARA20190524000010905/24/19 00:00:31  5-MIN KARA 240600Z AUTO 14005KT 10SM CLR 23/23 A3008 -110 100 800 140/05 RMK AO2 T02280228
53915KARA ARA20190524000510905/24/19 00:05:31  5-MIN KARA 240605Z AUTO 13005KT 10SM CLR 23/23 A3008 -110 100 800 130/05 RMK AO2 T02280228
53915KARA ARA20190524001010905/24/19 00:10:31  5-MIN KARA 240610Z AUTO 14005KT 10SM CLR 23/23 A3007 -110 100 800 140/05 RMK AO2 T02280228
53915KARA ARA20190524001510905/24/19 00:15:31  5-MIN KARA 240615Z AUTO 14004KT 10SM CLR 23/23 A3007 -110 100 800 140/04 RMK AO2 T02280228
53915KARA ARA20190524002010905/24/19 00:20:31  5-MIN KARA 240620Z AUTO 15004KT 10SM CLR 23/23 A3007 -110 100 800 150/04 RMK AO2 T02280228
53915KARA ARA20190524002510905/24/19 00:25:31  5-MIN KARA 240625Z AUTO 15003KT 10SM CLR 23/23 A3007 -110 100 800 150/03 RMK AO2 T02280228
53915KARA ARA20190524003010905/24/19 00:30:31  5-MIN KARA 240630Z AUTO 13003KT 10SM CLR 23/23 A3007 -110 100 800 130/03 RMK AO2 T02280228
53915KARA ARA20190524003510905/24/19 00:35:31  5-MIN KARA 240635Z AUTO 12004KT 10SM CLR 23/23 A3007 -110 100 800 120/04 RMK AO2 T02280228
53915KARA ARA20190524004010805/24/19 00:40:31  5-MIN KARA 240640Z AUTO 12004KT 10SM CLR 23/22 A3007 -110 97 800 120/04 RMK AO2 T02280222
53915KARA ARA20190524004510805/24/19 00:45:31  5-MIN KARA 240645Z AUTO 12004KT 10SM CLR 23/22 A3007 -100 97 800 120/04 RMK AO2 T02280222
53915KARA ARA20190524005011505/24/19 00:50:31  5-MIN KARA 240650Z AUTO 11004KT 10SM CLR 23/22 A3007 -100 97 800 110/04 RMK AO2 SLP180 T02280222
53915KARA ARA20190524005510805/24/19 00:55:31  5-MIN KARA 240655Z AUTO 11005KT 10SM CLR 23/22 A3006 -100 97 800 110/05 RMK AO2 T02280222
53915KARA ARA20190524010010905/24/19 01:00:31  5-MIN KARA 240700Z AUTO 11005KT 10SM CLR 23/23 A3006 -100 100 800 110/05 RMK AO2 T02280228
53915KARA ARA20190524010510905/24/19 01:05:31  5-MIN KARA 240705Z AUTO 11004KT 10SM CLR 23/23 A3007 -100 100 800 110/04 RMK AO2 T02280228
53915KARA ARA20190524011010905/24/19 01:10:31  5-MIN KARA 240710Z AUTO 11004KT 10SM CLR 23/23 A3007 -100 100 800 110/04 RMK AO2 T02280228
53915KARA ARA20190524011510905/24/19 01:15:31  5-MIN KARA 240715Z AUTO 10004KT 10SM CLR 23/23 A3006 -100 100 800 100/04 RMK AO2 T02280228
53915KARA ARA20190524012010905/24/19 01:20:31  5-MIN KARA 240720Z AUTO 11003KT 10SM CLR 23/23 A3007 -100 100 800 110/03 RMK AO2 T02280228
53915KARA ARA20190524012510905/24/19 01:25:31  5-MIN KARA 240725Z AUTO 11003KT 10SM CLR 23/23 A3006 -100 100 800 110/03 RMK AO2 T02280228
53915KARA ARA20190524013010905/24/19 01:30:31  5-MIN KARA 240730Z AUTO 11003KT 10SM CLR 23/23 A3006 -100 100 800 110/03 RMK AO2 T02280228
53915KARA ARA20190524013510905/24/19 01:35:31  5-MIN KARA 240735Z AUTO 11004KT 10SM CLR 23/23 A3006 -100 100 800 100/04 RMK AO2 T02280228
53915KARA ARA20190524014010905/24/19 01:40:31  5-MIN KARA 240740Z AUTO 11004KT 10SM CLR 23/23 A3006 -100 100 800 100/04 RMK AO2 T02280228
53915KARA ARA20190524014510905/24/19 01:45:31  5-MIN KARA 240745Z AUTO 11004KT 10SM CLR 23/23 A3006 -100 100 800 100/04 RMK AO2 T02280228
53915KARA ARA20190524015011605/24/19 01:50:31  5-MIN KARA 240750Z AUTO 11003KT 10SM CLR 23/23 A3006 -100 100 800 110/03 RMK AO2 SLP178 T02280228
53915KARA ARA20190524015510905/24/19 01:55:31  5-MIN KARA 240755Z AUTO 10004KT 10SM CLR 23/23 A3006 -100 100 800 100/04 RMK AO2 T02280228
53915KARA ARA20190524020010805/24/19 02:00:31  5-MIN KARA 240800Z AUTO 10003KT 10SM CLR 23/22 A3006 -100 97 800 100/03 RMK AO2 T02280222
53915KARA ARA20190524020510905/24/19 02:05:31  5-MIN KARA 240805Z AUTO 10003KT 10SM CLR 23/23 A3006 -100 100 800 100/03 RMK AO2 T02280228
53915KARA ARA20190524021010905/24/19 02:10:31  5-MIN KARA 240810Z AUTO 10003KT 10SM CLR 23/23 A3006 -100 100 800 100/03 RMK AO2 T02280228
53915KARA ARA20190524021510805/24/19 02:15:31  5-MIN KARA 240815Z AUTO 11003KT 10SM CLR 23/22 A3006 -100 97 800 110/03 RMK AO2 T02280222
53915KARA ARA20190524022010805/24/19 02:20:31  5-MIN KARA 240820Z AUTO 11003KT 10SM CLR 23/23 A3006 -90 100 800 100/03 RMK AO2 T02280228
53915KARA ARA20190524022510905/24/19 02:25:31  5-MIN KARA 240825Z AUTO 00000KT 10SM CLR 23/23 A3006 -100 100 800 000/00 RMK AO2 T02280228
53915KARA ARA20190524023010805/24/19 02:30:31  5-MIN KARA 240830Z AUTO 00000KT 10SM CLR 23/22 A3006 -100 97 800 000/00 RMK AO2 T02280222
53915KARA ARA20190524023510805/24/19 02:35:31  5-MIN KARA 240835Z AUTO 00000KT 10SM CLR 23/22 A3006 -100 97 800 000/00 RMK AO2 T02280222
53915KARA ARA20190524024010705/24/19 02:40:31  5-MIN KARA 240840Z AUTO 09003KT 8SM CLR 22/22 A3006 -90 100 800 090/03 RMK AO2 T02220222
53915KARA ARA20190524024511005/24/19 02:45:31  5-MIN KARA 240845Z AUTO 00000KT 4SM BR CLR 23/22 A3006 -100 97 800 000/00 RMK AO2 T02280222
53915KARA ARA20190524025012305/24/19 02:50:31  5-MIN KARA 240850Z AUTO 00000KT 4SM BR CLR 23/22 A3006 -100 97 800 000/00 RMK AO2 SLP178 T02280222 58003
53915KARA ARA20190524025510705/24/19 02:55:31  5-MIN KARA 240855Z AUTO 00000KT 7SM CLR 23/22 A3006 -100 97 800 000/00 RMK AO2 T02280222
53915KARA ARA20190524030010705/24/19 03:00:31  5-MIN KARA 240900Z AUTO 00000KT 7SM CLR 23/22 A3006 -100 97 800 000/00 RMK AO2 T02280222
53915KARA ARA20190524030510705/24/19 03:05:31  5-MIN KARA 240905Z AUTO 10003KT 8SM CLR 23/22 A3006 -100 97 800 100/03 RMK AO2 T02280222
53915KARA ARA20190524031010805/24/19 03:10:31  5-MIN KARA 240910Z AUTO 09003KT 7SM CLR 22/22 A3006 -100 100 800 090/03 RMK AO2 T02220222
53915KARA ARA20190524031510805/24/19 03:15:31  5-MIN KARA 240915Z AUTO 00000KT 7SM CLR 22/22 A3006 -100 100 800 000/00 RMK AO2 T02220222
53915KARA ARA20190524032010705/24/19 03:20:31  5-MIN KARA 240920Z AUTO 10003KT 7SM CLR 23/22 A3006 -100 97 800 100/03 RMK AO2 T02280222
53915KARA ARA20190524032510805/24/19 03:25:31  5-MIN KARA 240925Z AUTO 10003KT 7SM CLR 22/22 A3006 -100 100 800 100/03 RMK AO2 T02220222
53915KARA ARA20190524033010805/24/19 03:30:31  5-MIN KARA 240930Z AUTO 00000KT 7SM CLR 22/22 A3006 -100 100 800 000/00 RMK AO2 T02220222
53915KARA ARA20190524033510805/24/19 03:35:31  5-MIN KARA 240935Z AUTO 10003KT 7SM CLR 22/22 A3006 -100 100 800 100/03 RMK AO2 T02220222
53915KARA ARA20190524034010805/24/19 03:40:31  5-MIN KARA 240940Z AUTO 09004KT 7SM CLR 22/22 A3006 -100 100 800 090/04 RMK AO2 T02220222
53915KARA ARA20190524034511105/24/19 03:45:31  5-MIN KARA 240945Z AUTO 09005KT 8SM FEW016 22/22 A3006 -100 100 800 080/05 RMK AO2 T02220222
53915KARA ARA20190524035011705/24/19 03:50:31  5-MIN KARA 240950Z AUTO 09005KT 8SM SCT016 23/22 A3007 -100 97 800 090/05 RMK AO2 SLP180 T02280222
53915KARA ARA20190524035511105/24/19 03:55:31  5-MIN KARA 240955Z AUTO 09005KT 8SM SCT016 23/23 A3007 -100 100 800 090/05 RMK AO2 T02280228
53915KARA ARA20190524040011105/24/19 04:00:31  5-MIN KARA 241000Z AUTO 09004KT 8SM BKN016 23/23 A3007 -100 100 800 090/04 RMK AO2 T02280228
53915KARA ARA20190524040511105/24/19 04:05:31  5-MIN KARA 241005Z AUTO 09004KT 8SM BKN016 23/23 A3007 -100 100 800 090/04 RMK AO2 T02280228
53915KARA ARA20190524041011105/24/19 04:10:31  5-MIN KARA 241010Z AUTO 09004KT 8SM BKN016 23/23 A3007 -100 100 800 090/04 RMK AO2 T02280228
53915KARA ARA20190524041511105/24/19 04:15:31  5-MIN KARA 241015Z AUTO 10004KT 8SM SCT017 23/23 A3007 -100 100 800 090/04 RMK AO2 T02280228
53915KARA ARA20190524042011105/24/19 04:20:31  5-MIN KARA 241020Z AUTO 10004KT 7SM SCT017 23/23 A3007 -110 100 800 100/04 RMK AO2 T02280228
53915KARA ARA20190524042511105/24/19 04:25:31  5-MIN KARA 241025Z AUTO 10003KT 7SM FEW017 23/23 A3007 -110 100 800 100/03 RMK AO2 T02280228
53915KARA ARA20190524043011405/24/19 04:30:31  5-MIN KARA 241030Z AUTO 11004KT 6SM BR FEW017 22/22 A3007 -100 100 700 100/04 RMK AO2 T02220222
53915KARA ARA20190524043510605/24/19 04:35:31  5-MIN KARA 241035Z 11004KT 6SM BR CLR 22/22 A3007 -100 100 700 110/04 RMK AO2 T02220222
53915KARA ARA20190524044010305/24/19 04:40:31  5-MIN KARA 241040Z 11004KT 7SM CLR 22/22 A3007 -110 100 700 110/04 RMK AO2 T02220222
53915KARA ARA20190524044510205/24/19 04:45:31  5-MIN KARA 241045Z 12003KT 7SM CLR 23/22 A3007 -110 97 800 110/03 RMK AO2 T02280222
53915KARA ARA20190524045011005/24/19 04:50:31  5-MIN KARA 241050Z 11004KT 8SM CLR 22/22 A3007 -110 100 700 110/04 RMK AO2 SLP182 T02220222
53915KARA ARA20190524045510305/24/19 04:55:31  5-MIN KARA 241055Z 12005KT 8SM CLR 23/23 A3007 -110 100 800 120/05 RMK AO2 T02280228
53915KARA ARA20190524050010305/24/19 05:00:31  5-MIN KARA 241100Z 12005KT 8SM CLR 23/23 A3007 -110 100 800 120/05 RMK AO2 T02280228
53915KARA ARA20190524050510305/24/19 05:05:31  5-MIN KARA 241105Z 12006KT 8SM CLR 23/23 A3007 -110 100 900 120/06 RMK AO2 T02330233
53915KARA ARA20190524051010305/24/19 05:10:31  5-MIN KARA 241110Z 12006KT 8SM CLR 23/23 A3007 -110 100 900 120/06 RMK AO2 T02330233
53915KARA ARA20190524051510305/24/19 05:15:31  5-MIN KARA 241115Z 12007KT 8SM CLR 23/23 A3007 -110 100 900 120/07 RMK AO2 T02330233
53915KARA ARA20190524052010305/24/19 05:20:31  5-MIN KARA 241120Z 12006KT 8SM CLR 23/23 A3007 -110 100 900 120/06 RMK AO2 T02330233
53915KARA ARA20190524052510305/24/19 05:25:31  5-MIN KARA 241125Z 12005KT 8SM CLR 23/23 A3007 -110 100 900 120/05 RMK AO2 T02330233
53915KARA ARA20190524053010305/24/19 05:30:31  5-MIN KARA 241130Z 12005KT 8SM CLR 23/23 A3008 -110 100 900 120/05 RMK AO2 T02330233
53915KARA ARA20190524053510305/24/19 05:35:31  5-MIN KARA 241135Z 12005KT 8SM CLR 23/23 A3008 -120 100 900 120/05 RMK AO2 T02330233
53915KARA ARA20190524054010305/24/19 05:40:31  5-MIN KARA 241140Z 12006KT 8SM CLR 23/23 A3008 -110 100 900 120/06 RMK AO2 T02330233
53915KARA ARA20190524054510205/24/19 05:45:31  5-MIN KARA 241145Z 12005KT 9SM CLR 24/23 A3008 -120 97 900 120/05 RMK AO2 T02390233
53915KARA ARA20190524055012705/24/19 05:50:31  5-MIN KARA 241150Z 12006KT 9SM CLR 24/23 A3008 -120 97 900 120/06 RMK AO2 SLP185 T02390233 10239 20222 56007
53915KARA ARA20190524055510205/24/19 05:55:31  5-MIN KARA 241155Z 12006KT 9SM CLR 24/23 A3008 -120 97 900 120/06 RMK AO2 T02390233
53915KARA ARA20190524060010305/24/19 06:00:31  5-MIN KARA 241200Z 12006KT 10SM CLR 24/23 A3008 -120 97 900 110/06 RMK AO2 T02390233
53915KARA ARA20190524060510405/24/19 06:05:31  5-MIN KARA 241205Z 12006KT 10SM CLR 24/24 A3008 -120 100 900 120/06 RMK AO2 T02390239
53915KARA ARA20190524061010405/24/19 06:10:31  5-MIN KARA 241210Z 12006KT 10SM CLR 24/24 A3009 -120 100 900 120/06 RMK AO2 T02390239
53915KARA ARA20190524061510405/24/19 06:15:31  5-MIN KARA 241215Z 13005KT 10SM CLR 24/24 A3009 -120 97 1000 130/05 RMK AO2 T02440239
53915KARA ARA20190524062010405/24/19 06:20:31  5-MIN KARA 241220Z 13005KT 10SM CLR 24/24 A3009 -120 97 1000 130/05 RMK AO2 T02440239
53915KARA ARA20190524062510405/24/19 06:25:31  5-MIN KARA 241225Z 13005KT 10SM CLR 24/24 A3009 -130 97 1000 130/05 RMK AO2 T02440239
53915KARA ARA20190524063010405/24/19 06:30:31  5-MIN KARA 241230Z 13005KT 10SM CLR 24/24 A3009 -130 97 1000 130/05 RMK AO2 T02440239
53915KARA ARA20190524063510405/24/19 06:35:31  5-MIN KARA 241235Z 14005KT 10SM CLR 25/24 A3010 -130 93 1000 140/05 RMK AO2 T02500239
53915KARA ARA20190524064010405/24/19 06:40:31  5-MIN KARA 241240Z 13006KT 10SM CLR 25/24 A3010 -130 93 1000 130/06 RMK AO2 T02500239
53915KARA ARA20190524064510405/24/19 06:45:31  5-MIN KARA 241245Z 12006KT 10SM CLR 25/24 A3010 -130 93 1000 120/06 RMK AO2 T02500239
53915KARA ARA20190524065011105/24/19 06:50:31  5-MIN KARA 241250Z 13006KT 10SM CLR 26/24 A3010 -130 90 1100 130/06 RMK AO2 SLP192 T02560239
53915KARA ARA20190524065510405/24/19 06:55:31  5-MIN KARA 241255Z 13006KT 10SM CLR 26/24 A3010 -140 90 1100 130/06 RMK AO2 T02560239
53915KARA ARA20190524070010405/24/19 07:00:31  5-MIN KARA 241300Z 13006KT 10SM CLR 26/24 A3010 -140 90 1100 130/06 RMK AO2 T02560239
53915KARA ARA20190524070510405/24/19 07:05:31  5-MIN KARA 241305Z 13009KT 10SM CLR 26/24 A3010 -140 90 1100 130/09 RMK AO2 T02560239
53915KARA ARA20190524071010405/24/19 07:10:31  5-MIN KARA 241310Z 13007KT 10SM CLR 26/24 A3010 -140 90 1100 130/07 RMK AO2 T02560239
53915KARA ARA20190524071510405/24/19 07:15:31  5-MIN KARA 241315Z 13008KT 10SM CLR 26/24 A3011 -140 87 1100 130/08 RMK AO2 T02610239
53915KARA ARA20190524072010405/24/19 07:20:31  5-MIN KARA 241320Z 13007KT 10SM CLR 26/24 A3011 -140 87 1100 130/07 RMK AO2 T02610239
53915KARA ARA20190524072510405/24/19 07:25:31  5-MIN KARA 241325Z 13006KT 10SM CLR 26/24 A3011 -140 87 1100 130/06 RMK AO2 T02610239
53915KARA ARA20190524073010405/24/19 07:30:31  5-MIN KARA 241330Z 13007KT 10SM CLR 27/24 A3011 -150 84 1200 130/07 RMK AO2 T02670239
53915KARA ARA20190524073510405/24/19 07:35:31  5-MIN KARA 241335Z 14009KT 10SM CLR 27/24 A3011 -150 84 1200 140/09 RMK AO2 T02670239
53915KARA ARA20190524074010405/24/19 07:40:31  5-MIN KARA 241340Z 14009KT 10SM CLR 27/23 A3012 -150 82 1200 140/09 RMK AO2 T02670233
53915KARA ARA20190524074510405/24/19 07:45:31  5-MIN KARA 241345Z 14011KT 10SM CLR 27/23 A3012 -150 82 1200 140/11 RMK AO2 T02670233
53915KARA ARA20190524075011405/24/19 07:50:31  5-MIN KARA 241350Z 13011KT 10SM FEW019 27/23 A3012 -150 82 1200 130/11 RMK AO2 SLP198 T02670233
53915KARA ARA20190524075510705/24/19 07:55:31  5-MIN KARA 241355Z 13007KT 10SM FEW019 27/23 A3012 -150 79 1300 130/07 RMK AO2 T02720233
53915KARA ARA20190524080010705/24/19 08:00:31  5-MIN KARA 241400Z 14008KT 10SM FEW017 27/23 A3012 -150 79 1300 140/08 RMK AO2 T02720233
53915KARA ARA20190524080510705/24/19 08:05:31  5-MIN KARA 241405Z 14009KT 10SM FEW017 27/23 A3012 -150 79 1300 140/09 RMK AO2 T02720233
53915KARA ARA20190524081010705/24/19 08:10:31  5-MIN KARA 241410Z 13008KT 10SM FEW019 27/23 A3012 -150 79 1300 130/08 RMK AO2 T02720233
53915KARA ARA20190524081510705/24/19 08:15:31  5-MIN KARA 241415Z 13008KT 10SM FEW019 28/23 A3012 -160 76 1300 130/08 RMK AO2 T02780233
53915KARA ARA20190524082010705/24/19 08:20:31  5-MIN KARA 241420Z 13009KT 10SM FEW019 28/23 A3012 -160 74 1300 130/09 RMK AO2 T02780228
53915KARA ARA20190524082510705/24/19 08:25:31  5-MIN KARA 241425Z 13008KT 10SM FEW019 27/23 A3012 -160 76 1300 130/08 RMK AO2 T02720228
53915KARA ARA20190524083010705/24/19 08:30:31  5-MIN KARA 241430Z 13011KT 10SM FEW019 28/23 A3012 -160 74 1300 130/11 RMK AO2 T02780228
53915KARA ARA20190524083511405/24/19 08:35:31  5-MIN KARA 241435Z 14008KT 10SM SCT019 SCT026 28/23 A3012 -160 71 1400 140/08 RMK AO2 T02830228
53915KARA ARA20190524084010705/24/19 08:40:31  5-MIN KARA 241440Z 14008KT 10SM SCT022 28/23 A3012 -160 74 1300 130/08 RMK AO2 T02780228
53915KARA ARA20190524084510705/24/19 08:45:31  5-MIN KARA 241445Z 13008KT 10SM SCT022 28/23 A3012 -160 74 1300 130/08 RMK AO2 T02780228
53915KARA ARA20190524085012705/24/19 08:50:31  5-MIN KARA 241450Z 15008KT 10SM SCT020 SCT026 28/23 A3012 -160 74 1300 150/08 RMK AO2 SLP200 T02780228 53007
53915KARA ARA20190524085510705/24/19 08:55:31  5-MIN KARA 241455Z 14009KT 10SM SCT022 28/23 A3013 -160 71 1400 140/09 RMK AO2 T02830228
53915KARA ARA20190524090010705/24/19 09:00:31  5-MIN KARA 241500Z 15007KT 10SM SCT022 28/23 A3012 -160 74 1300 150/07 RMK AO2 T02780228
53915KARA ARA20190524090511405/24/19 09:05:31  5-MIN KARA 241505Z 15006KT 10SM FEW023 SCT032 28/23 A3013 -160 74 1300 150/06 RMK AO2 T02780228
53915KARA ARA20190524091011405/24/19 09:10:31  5-MIN KARA 241510Z 17008KT 10SM FEW023 SCT032 28/22 A3013 -160 71 1300 160/08 RMK AO2 T02780222
53915KARA ARA20190524091511405/24/19 09:15:31  5-MIN KARA 241515Z 15008KT 10SM FEW023 FEW031 29/23 A3013 -160 69 1400 150/08 RMK AO2 T02890228
53915KARA ARA20190524092011405/24/19 09:20:31  5-MIN KARA 241520Z 15010KT 10SM FEW023 FEW031 29/22 A3013 -160 67 1400 150/10 RMK AO2 T02890222
53915KARA ARA20190524092510705/24/19 09:25:31  5-MIN KARA 241525Z 15007KT 10SM FEW031 28/22 A3013 -160 66 1400 140/07 RMK AO2 T02830217
53915KARA ARA20190524093010705/24/19 09:30:31  5-MIN KARA 241530Z 15008KT 10SM FEW031 29/22 A3013 -160 67 1400 150/08 RMK AO2 T02890222
53915KARA ARA20190524093510705/24/19 09:35:31  5-MIN KARA 241535Z 15007KT 10SM FEW027 29/23 A3013 -160 67 1500 150/07 RMK AO2 T02940228
53915KARA ARA20190524094010705/24/19 09:40:31  5-MIN KARA 241540Z 14008KT 10SM FEW027 29/22 A3013 -160 64 1500 140/08 RMK AO2 T02940222
53915KARA ARA20190524094510705/24/19 09:45:31  5-MIN KARA 241545Z 14009KT 10SM FEW029 29/22 A3013 -160 64 1500 140/09 RMK AO2 T02940222
53915KARA ARA20190524095011405/24/19 09:50:31  5-MIN KARA 241550Z 14010KT 10SM FEW029 29/22 A3013 -160 62 1500 140/10 RMK AO2 SLP201 T02940217
53915KARA ARA20190524095510705/24/19 09:55:31  5-MIN KARA 241555Z 13010KT 10SM FEW029 29/22 A3013 -160 64 1500 130/10 RMK AO2 T02940222
53915KARA ARA20190524100010705/24/19 10:00:31  5-MIN KARA 241600Z 14007KT 10SM FEW029 29/22 A3013 -160 62 1500 130/07 RMK AO2 T02940217
53915KARA ARA20190524100510705/24/19 10:05:31  5-MIN KARA 241605Z 16007KT 10SM FEW029 29/22 A3013 -160 64 1500 160/07 RMK AO2 T02940222
53915KARA ARA20190524101010705/24/19 10:10:31  5-MIN KARA 241610Z 13010KT 10SM FEW029 29/22 A3013 -160 64 1500 130/10 RMK AO2 T02940222
53915KARA ARA20190524101510405/24/19 10:15:31  5-MIN KARA 241615Z 16009KT 10SM CLR 29/22 A3013 -160 62 1500 160/09 RMK AO2 T02940217
53915KARA ARA20190524102010405/24/19 10:20:31  5-MIN KARA 241620Z 15008KT 10SM CLR 29/22 A3013 -160 62 1500 150/08 RMK AO2 T02940217
53915KARA ARA20190524102510705/24/19 10:25:31  5-MIN KARA 241625Z 15008KT 10SM FEW041 29/21 A3013 -160 60 1500 150/08 RMK AO2 T02940211
53915KARA ARA20190524103010705/24/19 10:30:31  5-MIN KARA 241630Z 12008KT 10SM FEW041 30/22 A3013 -160 62 1600 120/08 RMK AO2 T03000222
53915KARA ARA20190524103510405/24/19 10:35:31  5-MIN KARA 241635Z 13008KT 10SM CLR 30/22 A3013 -160 60 1600 130/08 RMK AO2 T03000217
53915KARA ARA20190524104010405/24/19 10:40:31  5-MIN KARA 241640Z 16008KT 10SM CLR 30/22 A3013 -160 62 1600 160/08 RMK AO2 T03000222
53915KARA ARA20190524104510405/24/19 10:45:31  5-MIN KARA 241645Z 14006KT 10SM CLR 30/22 A3013 -160 60 1600 140/06 RMK AO2 T03000217
53915KARA ARA20190524105011405/24/19 10:50:31  5-MIN KARA 241650Z 15008KT 10SM FEW038 30/22 A3013 -160 62 1600 150/08 RMK AO2 SLP201 T03000222
53915KARA ARA20190524105510705/24/19 10:55:31  5-MIN KARA 241655Z 17008KT 10SM FEW035 30/22 A3013 -160 62 1600 160/08 RMK AO2 T03000222
53915KARA ARA20190524110012305/24/19 11:00:31  5-MIN KARA 241700Z 13008KT 100V180 10SM SCT035 30/22 A3013 -160 60 1600 130/08 100V180 RMK AO2 T03000217
53915KARA ARA20190524110510705/24/19 11:05:31  5-MIN KARA 241705Z 16010KT 10SM FEW035 31/22 A3013 -160 60 1600 150/10 RMK AO2 T03060222
53915KARA ARA20190524111010705/24/19 11:10:31  5-MIN KARA 241710Z 11006KT 10SM FEW035 31/22 A3013 -160 58 1600 100/06 RMK AO2 T03060217
53915KARA ARA20190524111511405/24/19 11:15:31  5-MIN KARA 241715Z VRB06KT 10SM SCT035 SCT049 30/22 A3013 -160 60 1600 VRB/06 RMK AO2 T03000217
53915KARA ARA20190524112011405/24/19 11:20:31  5-MIN KARA 241720Z 18008KT 10SM SCT035 SCT049 31/22 A3013 -160 58 1600 180/08 RMK AO2 T03060217
53915KARA ARA20190524112511405/24/19 11:25:31  5-MIN KARA 241725Z 16008KT 10SM FEW035 SCT046 31/22 A3013 -160 56 1700 160/08 RMK AO2 T03110217
53915KARA ARA20190524113011405/24/19 11:30:31  5-MIN KARA 241730Z 12005KT 10SM SCT039 SCT050 30/21 A3013 -160 58 1600 120/05 RMK AO2 T03000211
53915KARA ARA20190524113511405/24/19 11:35:31  5-MIN KARA 241735Z VRB05KT 10SM SCT036 BKN047 30/22 A3013 -160 60 1600 VRB/05 RMK AO2 T03000217
53915KARA ARA20190524114010705/24/19 11:40:31  5-MIN KARA 241740Z 13008KT 10SM BKN036 31/22 A3012 -160 58 1600 130/08 RMK AO2 T03060217
53915KARA ARA20190524114510705/24/19 11:45:31  5-MIN KARA 241745Z 17008KT 10SM SCT036 31/22 A3012 -160 58 1600 170/08 RMK AO2 T03060217
53915KARA ARA20190524115013905/24/19 11:50:31  5-MIN KARA 241750Z 16004KT 10SM SCT038 BKN046 29/21 A3012 -160 60 1500 160/04 RMK AO2 SLP199 T02940211 10311 20239 51015
53915KARA ARA20190524115511405/24/19 11:55:31  5-MIN KARA 241755Z VRB06KT 10SM SCT036 BKN046 31/22 A3012 -160 56 1700 VRB/06 RMK AO2 T03110217
53915KARA ARA20190524120011405/24/19 12:00:31  5-MIN KARA 241800Z 13006KT 10SM BKN037 BKN046 31/22 A3012 -150 58 1600 130/06 RMK AO2 T03060217
53915KARA ARA20190524120511405/24/19 12:05:31  5-MIN KARA 241805Z 19004KT 10SM BKN039 BKN048 30/21 A3012 -150 58 1600 190/04 RMK AO2 T03000211
53915KARA ARA20190524121011405/24/19 12:10:31  5-MIN KARA 241810Z 10008KT 10SM BKN039 BKN048 31/22 A3012 -150 58 1600 100/08 RMK AO2 T03060217
53915KARA ARA20190524121511405/24/19 12:15:31  5-MIN KARA 241815Z 13007KT 10SM BKN039 OVC048 31/22 A3012 -150 58 1600 120/07 RMK AO2 T03060217
53915KARA ARA20190524122010705/24/19 12:20:31  5-MIN KARA 241820Z 12006KT 10SM BKN039 31/22 A3012 -150 60 1600 120/06 RMK AO2 T03060222
53915KARA ARA20190524122511405/24/19 12:25:31  5-MIN KARA 241825Z 11006KT 10SM BKN039 OVC055 30/22 A3012 -150 60 1600 110/06 RMK AO2 T03000217
53915KARA ARA20190524123011405/24/19 12:30:31  5-MIN KARA 241830Z VRB04KT 10SM BKN039 OVC045 30/22 A3012 -150 60 1600 VRB/04 RMK AO2 T03000217
53915KARA ARA20190524123511405/24/19 12:35:31  5-MIN KARA 241835Z 18009KT 10SM BKN039 OVC048 31/22 A3011 -150 58 1700 180/09 RMK AO2 T03110222
53915KARA ARA20190524124012105/24/19 12:40:31  5-MIN KARA 241840Z 17008KT 10SM BKN039 BKN047 BKN060 31/22 A3011 -150 58 1600 170/08 RMK AO2 T03060217
53915KARA ARA20190524124511405/24/19 12:45:31  5-MIN KARA 241845Z 10007KT 10SM BKN039 BKN049 30/22 A3011 -140 60 1600 100/07 RMK AO2 T03000217
53915KARA ARA20190524125012105/24/19 12:50:31  5-MIN KARA 241850Z 09004KT 10SM BKN039 BKN049 30/22 A3011 -140 60 1600 090/04 RMK AO2 SLP195 T03000217
53915KARA ARA20190524125511105/24/19 12:55:31  5-MIN KARA 241855Z 10SM BKN041 BKN049 BKN060 30/22 A3011 -140 60 1600 M /M RMK AO2 T03000217
53915KARA ARA20190524130011405/24/19 13:00:31  5-MIN KARA 241900Z 10008KT 10SM BKN041 BKN055 31/22 A3010 -140 58 1600 100/08 RMK AO2 T03060217
53915KARA ARA20190524130511405/24/19 13:05:31  5-MIN KARA 241905Z 10006KT 10SM BKN043 BKN055 30/22 A3010 -140 60 1600 100/06 RMK AO2 T03000217
53915KARA ARA20190524131012105/24/19 13:10:31  5-MIN KARA 241910Z 11007KT 10SM BKN041 BKN050 OVC060 31/22 A3010 -140 58 1700 110/07 RMK AO2 T03060217
53915KARA ARA20190524131511405/24/19 13:15:31  5-MIN KARA 241915Z 10005KT 10SM BKN041 OVC060 30/22 A3010 -130 60 1600 100/05 RMK AO2 T03000217
53915KARA ARA20190524132012105/24/19 13:20:31  5-MIN KARA 241920Z 12006KT 10SM BKN041 BKN055 OVC070 30/22 A3010 -140 60 1600 120/06 RMK AO2 T03000217
53915KARA ARA20190524132512105/24/19 13:25:31  5-MIN KARA 241925Z 12005KT 10SM BKN042 BKN060 BKN075 30/21 A3010 -130 58 1600 120/05 RMK AO2 T03000211
53915KARA ARA20190524133011405/24/19 13:30:31  5-MIN KARA 241930Z 13004KT 10SM SCT042 BKN070 30/22 A3010 -130 60 1600 130/04 RMK AO2 T03000217
53915KARA ARA20190524133511405/24/19 13:35:31  5-MIN KARA 241935Z 11006KT 10SM SCT042 BKN070 31/22 A3010 -130 58 1700 110/06 RMK AO2 T03060217
53915KARA ARA20190524134012105/24/19 13:40:31  5-MIN KARA 241940Z 13006KT 10SM SCT042 SCT050 BKN070 31/22 A3010 -130 56 1700 130/06 RMK AO2 T03110217
53915KARA ARA20190524134512105/24/19 13:45:31  5-MIN KARA 241945Z VRB03KT 10SM SCT042 BKN055 BKN075 30/22 A3010 -130 60 1600 VRB/03 RMK AO2 T03000217
53915KARA ARA20190524135012805/24/19 13:50:31  5-MIN KARA 241950Z VRB04KT 10SM SCT042 BKN055 BKN075 31/22 A3010 -130 58 1700 VRB/04 RMK AO2 SLP190 T03060217
53915KARA ARA20190524135511405/24/19 13:55:31  5-MIN KARA 241955Z 10004KT 10SM BKN042 BKN050 31/22 A3009 -130 58 1700 100/04 RMK AO2 T03060217
53915KARA ARA20190524140011405/24/19 14:00:31  5-MIN KARA 242000Z 18007KT 10SM BKN044 BKN055 31/21 A3009 -120 54 1700 180/07 RMK AO2 T03110211
53915KARA ARA20190524140511405/24/19 14:05:31  5-MIN KARA 242005Z 13008KT 10SM BKN044 BKN055 31/21 A3009 -120 54 1700 120/08 RMK AO2 T03110211
53915KARA ARA20190524141012005/24/19 14:10:31  5-MIN KARA 242010Z 18008G16KT 10SM BKN044 BKN055 31/21 A3009 -120 53 1700 180/08G16 RMK AO2 T03110206
53915KARA ARA20190524141511305/24/19 14:15:31  5-MIN KARA 242015Z 18008G20KT 10SM BKN044 32/21 A3009 -120 51 1800 180/08G20 RMK AO2 T03170206
53915KARA ARA20190524142011305/24/19 14:20:31  5-MIN KARA 242020Z 21010G20KT 10SM SCT046 32/21 A3008 -120 51 1800 210/10G20 RMK AO2 T03170206
53915KARA ARA20190524142510705/24/19 14:25:31  5-MIN KARA 242025Z 20011KT 10SM SCT046 32/21 A3008 -120 53 1800 200/11 RMK AO2 T03170211
53915KARA ARA20190524143010705/24/19 14:30:31  5-MIN KARA 242030Z 18011KT 10SM SCT046 31/21 A3008 -120 53 1700 170/11 RMK AO2 T03110206
53915KARA ARA20190524143510705/24/19 14:35:31  5-MIN KARA 242035Z 19010KT 10SM SCT046 32/22 A3008 -120 55 1800 190/10 RMK AO2 T03170217
53915KARA ARA20190524144010705/24/19 14:40:31  5-MIN KARA 242040Z 20010KT 10SM SCT046 31/21 A3008 -120 54 1700 200/10 RMK AO2 T03110211
53915KARA ARA20190524144511405/24/19 14:45:31  5-MIN KARA 242045Z 21011KT 10SM SCT046 SCT055 31/21 A3008 -120 56 1700 210/11 RMK AO2 T03060211
53915KARA ARA20190524145012705/24/19 14:50:31  5-MIN KARA 242050Z 19011KT 10SM BKN046 BKN055 31/21 A3008 -110 54 1700 190/11 RMK AO2 SLP184 T03110211 58001
53915KARA ARA20190524145510705/24/19 14:55:31  5-MIN KARA 242055Z 18011KT 10SM BKN049 32/22 A3008 -110 55 1800 180/11 RMK AO2 T03170217
53915KARA ARA20190524150011405/24/19 15:00:31  5-MIN KARA 242100Z 19010KT 10SM SCT046 BKN055 31/21 A3008 -110 54 1700 190/10 RMK AO2 T03110211
53915KARA ARA20190524150513005/24/19 15:05:31  5-MIN KARA 242105Z 17008KT 130V190 10SM SCT046 SCT055 31/22 A3007 -110 56 1700 170/08 130V190 RMK AO2 T03110217
53915KARA ARA20190524151011405/24/19 15:10:31  5-MIN KARA 242110Z 20010KT 10SM SCT046 SCT055 31/22 A3007 -110 56 1700 200/10 RMK AO2 T03110217
53915KARA ARA20190524151510705/24/19 15:15:31  5-MIN KARA 242115Z 19010KT 10SM FEW047 32/22 A3007 -110 55 1800 190/10 RMK AO2 T03170217
53915KARA ARA20190524152011305/24/19 15:20:31  5-MIN KARA 242120Z 19007G16KT 10SM FEW047 31/22 A3007 -100 56 1800 190/07G16 RMK AO2 T03110217
53915KARA ARA20190524152510705/24/19 15:25:31  5-MIN KARA 242125Z 18012KT 10SM FEW043 32/22 A3007 -100 56 1800 180/12 RMK AO2 T03170222
53915KARA ARA20190524153011305/24/19 15:30:31  5-MIN KARA 242130Z 18009G14KT 10SM FEW043 31/22 A3006 -100 58 1700 180/09G14 RMK AO2 T03060217
53915KARA ARA20190524153510705/24/19 15:35:31  5-MIN KARA 242135Z 21008KT 10SM FEW043 31/22 A3006 -100 56 1800 200/08 RMK AO2 T03110217
53915KARA ARA20190524154010705/24/19 15:40:31  5-MIN KARA 242140Z 17009KT 10SM SCT045 31/22 A3006 -100 56 1800 170/09 RMK AO2 T03110217
53915KARA ARA20190524154510705/24/19 15:45:31  5-MIN KARA 242145Z 19010KT 10SM BKN045 31/21 A3006 -100 54 1800 190/10 RMK AO2 T03110211
53915KARA ARA20190524155012105/24/19 15:50:31  5-MIN KARA 242150Z 18009KT 10SM SCT043 SCT050 31/21 A3006 -100 56 1700 170/09 RMK AO2 SLP178 T03060211
53915KARA ARA20190524155511405/24/19 15:55:31  5-MIN KARA 242155Z 18011KT 10SM FEW043 SCT055 31/22 A3006 -100 56 1800 180/11 RMK AO2 T03110217
53915KARA ARA20190524160011405/24/19 16:00:31  5-MIN KARA 242200Z 19007KT 10SM FEW043 SCT050 31/22 A3006 -100 58 1700 190/07 RMK AO2 T03060217
53915KARA ARA20190524160511305/24/19 16:05:31  5-MIN KARA 242205Z 19012KT 10SM FEW044 SCT050 31/22 A3006 -90 58 1800 180/12 RMK AO2 T03110222
53915KARA ARA20190524161010605/24/19 16:10:31  5-MIN KARA 242210Z 19009KT 10SM SCT041 31/22 A3006 -90 58 1700 190/09 RMK AO2 T03060217
53915KARA ARA20190524161510605/24/19 16:15:31  5-MIN KARA 242215Z 19009KT 10SM BKN039 31/22 A3006 -90 60 1700 190/09 RMK AO2 T03060222
53915KARA ARA20190524162010605/24/19 16:20:31  5-MIN KARA 242220Z 19009KT 10SM BKN039 31/22 A3006 -90 60 1700 190/09 RMK AO2 T03060222
53915KARA ARA20190524162510605/24/19 16:25:31  5-MIN KARA 242225Z 18010KT 10SM BKN039 30/22 A3005 -90 62 1600 180/10 RMK AO2 T03000222
53915KARA ARA20190524163013505/24/19 16:30:31  5-MIN KARA 242230Z 16009G18KT 120V210 10SM BKN039 BKN055 30/22 A3005 -90 62 1600 160/09G18 120V210 RMK AO2 T03000222
53915KARA ARA20190524163511905/24/19 16:35:31  5-MIN KARA 242235Z 18011G18KT 10SM BKN039 BKN055 31/22 A3006 -90 60 1700 170/11G18 RMK AO2 T03060222
53915KARA ARA20190524164010605/24/19 16:40:31  5-MIN KARA 242240Z 17010KT 10SM BKN039 31/22 A3005 -90 60 1700 170/10 RMK AO2 T03060222
53915KARA ARA20190524164511305/24/19 16:45:31  5-MIN KARA 242245Z 16012KT 10SM SCT038 BKN045 30/22 A3005 -90 62 1600 160/12 RMK AO2 T03000222
53915KARA ARA20190524165012005/24/19 16:50:31  5-MIN KARA 242250Z 17009KT 10SM SCT038 SCT045 30/22 A3005 -90 62 1600 170/09 RMK AO2 SLP175 T03000222
53915KARA ARA20190524165510605/24/19 16:55:31  5-MIN KARA 242255Z 17008KT 10SM SCT041 30/22 A3005 -90 62 1600 170/08 RMK AO2 T03000222
53915KARA ARA20190524170011305/24/19 17:00:31  5-MIN KARA 242300Z 16010KT 10SM FEW038 FEW045 30/22 A3005 -90 62 1600 160/10 RMK AO2 T03000222
53915KARA ARA20190524170510605/24/19 17:05:31  5-MIN KARA 242305Z 19010KT 10SM FEW038 30/22 A3005 -90 62 1600 180/10 RMK AO2 T03000222
53915KARA ARA20190524171010305/24/19 17:10:31  5-MIN KARA 242310Z 19011KT 10SM CLR 30/22 A3004 -80 62 1700 190/11 RMK AO2 T03000222
53915KARA ARA20190524171510605/24/19 17:15:31  5-MIN KARA 242315Z 18009KT 10SM FEW041 30/23 A3004 -80 65 1700 180/09 RMK AO2 T03000228
53915KARA ARA20190524172010605/24/19 17:20:31  5-MIN KARA 242320Z 18010KT 10SM FEW042 30/22 A3004 -80 62 1700 180/10 RMK AO2 T03000222
53915KARA ARA20190524172510605/24/19 17:25:31  5-MIN KARA 242325Z 17009KT 10SM FEW042 29/22 A3005 -80 64 1600 170/09 RMK AO2 T02940222
53915KARA ARA20190524173010605/24/19 17:30:31  5-MIN KARA 242330Z 17009KT 10SM SCT040 29/22 A3004 -80 64 1600 170/09 RMK AO2 T02940222
53915KARA ARA20190524173510605/24/19 17:35:31  5-MIN KARA 242335Z 19010KT 10SM SCT038 29/23 A3004 -80 67 1600 190/10 RMK AO2 T02940228
53915KARA ARA20190524174011305/24/19 17:40:31  5-MIN KARA 242340Z 20009KT 10SM SCT038 BKN048 29/22 A3004 -80 67 1500 200/09 RMK AO2 T02890222
53915KARA ARA20190524174511305/24/19 17:45:31  5-MIN KARA 242345Z 19009KT 10SM SCT038 SCT048 29/22 A3004 -80 67 1500 190/09 RMK AO2 T02890222
53915KARA ARA20190524175013805/24/19 17:50:31  5-MIN KARA 242350Z 19009KT 10SM SCT038 SCT048 29/23 A3004 -80 69 1500 190/09 RMK AO2 SLP173 T02890228 10317 20289 58015
53915KARA ARA20190524175511305/24/19 17:55:31  5-MIN KARA 242355Z 19009KT 10SM BKN038 BKN048 29/23 A3004 -80 69 1500 190/09 RMK AO2 T02890228
53915KARA ARA20190524180011305/24/19 18:00:31  5-MIN KARA 250000Z 19009KT 10SM SCT038 SCT046 28/23 A3004 -80 71 1500 190/09 RMK AO2 T02830228
53915KARA ARA20190524180510605/24/19 18:05:31  5-MIN KARA 250005Z 19009KT 10SM FEW038 28/23 A3004 -80 71 1500 190/09 RMK AO2 T02830228
53915KARA ARA20190524181010605/24/19 18:10:31  5-MIN KARA 250010Z 19010KT 10SM FEW037 28/23 A3005 -80 71 1500 190/10 RMK AO2 T02830228
53915KARA ARA20190524181510605/24/19 18:15:31  5-MIN KARA 250015Z 19007KT 10SM FEW037 28/23 A3004 -80 71 1500 190/07 RMK AO2 T02830228
53915KARA ARA20190524182010605/24/19 18:20:31  5-MIN KARA 250020Z 19008KT 10SM FEW037 28/23 A3004 -80 71 1500 190/08 RMK AO2 T02830228
53915KARA ARA20190524182510305/24/19 18:25:31  5-MIN KARA 250025Z 18009KT 10SM CLR 28/23 A3004 -80 74 1400 180/09 RMK AO2 T02780228
53915KARA ARA20190524183010305/24/19 18:30:31  5-MIN KARA 250030Z 19010KT 10SM CLR 28/23 A3005 -80 74 1400 190/10 RMK AO2 T02780228
53915KARA ARA20190524183510305/24/19 18:35:31  5-MIN KARA 250035Z 19008KT 10SM CLR 28/23 A3005 -80 74 1400 190/08 RMK AO2 T02780228
53915KARA ARA20190524184010305/24/19 18:40:31  5-MIN KARA 250040Z 18008KT 10SM CLR 27/23 A3005 -80 76 1300 180/08 RMK AO2 T02720228
53915KARA ARA20190524184510305/24/19 18:45:31  5-MIN KARA 250045Z 18008KT 10SM CLR 27/23 A3005 -80 76 1300 180/08 RMK AO2 T02720228
53915KARA ARA20190524185011005/24/19 18:50:31  5-MIN KARA 250050Z 18007KT 10SM CLR 27/23 A3004 -80 76 1300 180/07 RMK AO2 SLP173 T02720228
53915KARA ARA20190524185510305/24/19 18:55:31  5-MIN KARA 250055Z 19006KT 10SM CLR 27/23 A3004 -80 79 1300 190/06 RMK AO2 T02670228
53915KARA ARA20190524190010305/24/19 19:00:31  5-MIN KARA 250100Z 19006KT 10SM CLR 27/23 A3005 -90 79 1300 190/06 RMK AO2 T02670228
53915KARA ARA20190524190510305/24/19 19:05:31  5-MIN KARA 250105Z 18006KT 10SM CLR 27/23 A3005 -80 79 1300 180/06 RMK AO2 T02670228
53915KARA ARA20190524191010305/24/19 19:10:31  5-MIN KARA 250110Z 19005KT 10SM CLR 27/23 A3004 -80 79 1300 190/05 RMK AO2 T02670228
53915KARA ARA20190524191510305/24/19 19:15:31  5-MIN KARA 250115Z 20004KT 10SM CLR 26/23 A3004 -80 81 1200 200/04 RMK AO2 T02610228
53915KARA ARA20190524192010305/24/19 19:20:31  5-MIN KARA 250120Z 19005KT 10SM CLR 26/23 A3004 -80 81 1200 190/05 RMK AO2 T02610228
53915KARA ARA20190524192510305/24/19 19:25:31  5-MIN KARA 250125Z 20004KT 10SM CLR 26/23 A3004 -80 81 1200 200/04 RMK AO2 T02610228
53915KARA ARA20190524193010305/24/19 19:30:31  5-MIN KARA 250130Z 20004KT 10SM CLR 26/23 A3004 -80 84 1200 200/04 RMK AO2 T02560228
53915KARA ARA20190524193510305/24/19 19:35:31  5-MIN KARA 250135Z 19005KT 10SM CLR 26/23 A3005 -80 84 1200 190/05 RMK AO2 T02560228
53915KARA ARA20190524194010805/24/19 19:40:31  5-MIN KARA 250140Z AUTO 19005KT 10SM CLR 26/23 A3005 -90 81 1200 190/05 RMK AO2 T02610228
53915KARA ARA20190524194510805/24/19 19:45:31  5-MIN KARA 250145Z AUTO 19004KT 10SM CLR 26/23 A3005 -90 84 1100 190/04 RMK AO2 T02560228
53915KARA ARA20190524195011505/24/19 19:50:31  5-MIN KARA 250150Z AUTO 19004KT 10SM CLR 26/23 A3005 -90 84 1100 190/04 RMK AO2 SLP176 T02560228
53915KARA ARA20190524195510805/24/19 19:55:31  5-MIN KARA 250155Z AUTO 19004KT 10SM CLR 26/23 A3005 -90 84 1100 190/04 RMK AO2 T02560228
53915KARA ARA20190524200010805/24/19 20:00:31  5-MIN KARA 250200Z AUTO 18004KT 10SM CLR 26/23 A3005 -90 84 1100 180/04 RMK AO2 T02560228
53915KARA ARA20190524200510805/24/19 20:05:31  5-MIN KARA 250205Z AUTO 18004KT 10SM CLR 26/23 A3005 -90 84 1100 180/04 RMK AO2 T02560228
53915KARA ARA20190524201010805/24/19 20:10:31  5-MIN KARA 250210Z AUTO 18004KT 10SM CLR 26/23 A3005 -90 84 1100 170/04 RMK AO2 T02560228
53915KARA ARA20190524201510805/24/19 20:15:31  5-MIN KARA 250215Z AUTO 17004KT 10SM CLR 26/23 A3005 -90 84 1100 170/04 RMK AO2 T02560228
53915KARA ARA20190524202010805/24/19 20:20:31  5-MIN KARA 250220Z AUTO 17004KT 10SM CLR 25/23 A3005 -90 87 1100 170/04 RMK AO2 T02500228
53915KARA ARA20190524202510805/24/19 20:25:31  5-MIN KARA 250225Z AUTO 17004KT 10SM CLR 25/23 A3005 -90 87 1100 170/04 RMK AO2 T02500228
53915KARA ARA20190524203010805/24/19 20:30:31  5-MIN KARA 250230Z AUTO 17004KT 10SM CLR 25/23 A3005 -90 87 1100 160/04 RMK AO2 T02500228
53915KARA ARA20190524203510805/24/19 20:35:31  5-MIN KARA 250235Z AUTO 17005KT 10SM CLR 25/23 A3005 -90 87 1100 160/05 RMK AO2 T02500228
53915KARA ARA20190524204010805/24/19 20:40:31  5-MIN KARA 250240Z AUTO 16005KT 10SM CLR 25/23 A3006 -90 87 1100 160/05 RMK AO2 T02500228
53915KARA ARA20190524204510905/24/19 20:45:31  5-MIN KARA 250245Z AUTO 16004KT 10SM CLR 24/23 A3006 -100 90 1000 160/04 RMK AO2 T02440228
53915KARA ARA20190524205012205/24/19 20:50:31  5-MIN KARA 250250Z AUTO 16004KT 10SM CLR 24/23 A3006 -100 90 1000 160/04 RMK AO2 SLP178 T02440228 56010
53915KARA ARA20190524205510905/24/19 20:55:31  5-MIN KARA 250255Z AUTO 16005KT 10SM CLR 24/23 A3006 -100 90 1000 160/05 RMK AO2 T02440228
53915KARA ARA20190524210010905/24/19 21:00:31  5-MIN KARA 250300Z AUTO 16005KT 10SM CLR 24/23 A3006 -100 90 1000 160/05 RMK AO2 T02440228
53915KARA ARA20190524210510905/24/19 21:05:31  5-MIN KARA 250305Z AUTO 17004KT 10SM CLR 24/23 A3006 -100 90 1000 160/04 RMK AO2 T02440228
53915KARA ARA20190524211010905/24/19 21:10:31  5-MIN KARA 250310Z AUTO 17004KT 10SM CLR 24/23 A3006 -100 90 1000 170/04 RMK AO2 T02440228
53915KARA ARA20190524211510905/24/19 21:15:31  5-MIN KARA 250315Z AUTO 18004KT 10SM CLR 24/23 A3006 -100 90 1000 180/04 RMK AO2 T02440228
53915KARA ARA20190524212010905/24/19 21:20:31  5-MIN KARA 250320Z AUTO 18004KT 10SM CLR 24/23 A3007 -100 90 1000 180/04 RMK AO2 T02440228
53915KARA ARA20190524212510905/24/19 21:25:31  5-MIN KARA 250325Z AUTO 18004KT 10SM CLR 24/23 A3007 -110 90 1000 180/04 RMK AO2 T02440228
53915KARA ARA20190524213010905/24/19 21:30:31  5-MIN KARA 250330Z AUTO 17005KT 10SM CLR 24/23 A3007 -110 90 1000 170/05 RMK AO2 T02440228
53915KARA ARA20190524213510905/24/19 21:35:31  5-MIN KARA 250335Z AUTO 17005KT 10SM CLR 24/23 A3007 -110 90 1000 170/05 RMK AO2 T02440228
53915KARA ARA20190524214010905/24/19 21:40:31  5-MIN KARA 250340Z AUTO 16005KT 10SM CLR 25/23 A3007 -110 87 1100 160/05 RMK AO2 T02500228
53915KARA ARA20190524214510905/24/19 21:45:31  5-MIN KARA 250345Z AUTO 16004KT 10SM CLR 24/23 A3007 -110 90 1000 160/04 RMK AO2 T02440228
53915KARA ARA20190524215011605/24/19 21:50:31  5-MIN KARA 250350Z AUTO 16004KT 10SM CLR 24/23 A3007 -110 90 1000 160/04 RMK AO2 SLP183 T02440228
53915KARA ARA20190524215510905/24/19 21:55:31  5-MIN KARA 250355Z AUTO 17004KT 10SM CLR 24/23 A3007 -110 90 1000 170/04 RMK AO2 T02440228
53915KARA ARA20190524220010905/24/19 22:00:31  5-MIN KARA 250400Z AUTO 17004KT 10SM CLR 24/23 A3007 -110 93 1000 170/04 RMK AO2 T02440233
53915KARA ARA20190524220510905/24/19 22:05:31  5-MIN KARA 250405Z AUTO 16004KT 10SM CLR 24/23 A3007 -110 93 1000 160/04 RMK AO2 T02440233
53915KARA ARA20190524221010805/24/19 22:10:31  5-MIN KARA 250410Z AUTO 15005KT 10SM CLR 24/23 A3007 -110 93 900 150/05 RMK AO2 T02390228
53915KARA ARA20190524221510805/24/19 22:15:31  5-MIN KARA 250415Z AUTO 14005KT 10SM CLR 24/23 A3007 -110 93 900 140/05 RMK AO2 T02390228
53915KARA ARA20190524222010805/24/19 22:20:31  5-MIN KARA 250420Z AUTO 13005KT 10SM CLR 24/23 A3007 -110 93 900 130/05 RMK AO2 T02390228
53915KARA ARA20190524222510805/24/19 22:25:31  5-MIN KARA 250425Z AUTO 13005KT 10SM CLR 24/23 A3007 -110 93 900 130/05 RMK AO2 T02390228
53915KARA ARA20190524223010805/24/19 22:30:31  5-MIN KARA 250430Z AUTO 13005KT 10SM CLR 24/23 A3007 -110 93 900 130/05 RMK AO2 T02390228
53915KARA ARA20190524223510805/24/19 22:35:31  5-MIN KARA 250435Z AUTO 14004KT 10SM CLR 24/23 A3007 -110 93 900 140/04 RMK AO2 T02390228
53915KARA ARA20190524224010805/24/19 22:40:31  5-MIN KARA 250440Z AUTO 15005KT 10SM CLR 24/23 A3007 -110 93 900 150/05 RMK AO2 T02390228
53915KARA ARA20190524224510805/24/19 22:45:31  5-MIN KARA 250445Z AUTO 15004KT 10SM CLR 24/23 A3007 -110 93 900 150/04 RMK AO2 T02390228
53915KARA ARA20190524225011505/24/19 22:50:31  5-MIN KARA 250450Z AUTO 16004KT 10SM CLR 24/23 A3007 -110 93 900 160/04 RMK AO2 SLP182 T02390228
53915KARA ARA20190524225510805/24/19 22:55:31  5-MIN KARA 250455Z AUTO 17003KT 10SM CLR 24/23 A3007 -110 93 900 160/03 RMK AO2 T02390228
53915KARA ARA20190524230010805/24/19 23:00:31  5-MIN KARA 250500Z AUTO 16004KT 10SM CLR 24/23 A3007 -110 93 900 160/04 RMK AO2 T02390228
53915KARA ARA20190524230510805/24/19 23:05:31  5-MIN KARA 250505Z AUTO 16004KT 10SM CLR 24/23 A3007 -110 93 900 160/04 RMK AO2 T02390228
53915KARA ARA20190524231010805/24/19 23:10:31  5-MIN KARA 250510Z AUTO 15004KT 10SM CLR 24/23 A3008 -110 93 900 150/04 RMK AO2 T02390228
53915KARA ARA20190524231510805/24/19 23:15:31  5-MIN KARA 250515Z AUTO 15004KT 10SM CLR 24/23 A3008 -110 93 900 150/04 RMK AO2 T02390228
53915KARA ARA20190524232010805/24/19 23:20:31  5-MIN KARA 250520Z AUTO 15004KT 10SM CLR 23/23 A3008 -110 97 900 150/04 RMK AO2 T02330228
53915KARA ARA20190524232510805/24/19 23:25:31  5-MIN KARA 250525Z AUTO 15004KT 10SM CLR 23/23 A3007 -110 97 900 150/04 RMK AO2 T02330228
53915KARA ARA20190524233010805/24/19 23:30:31  5-MIN KARA 250530Z AUTO 15004KT 10SM CLR 23/23 A3007 -110 97 900 150/04 RMK AO2 T02330228
53915KARA ARA20190524233510805/24/19 23:35:31  5-MIN KARA 250535Z AUTO 15004KT 10SM CLR 23/23 A3007 -110 97 900 150/04 RMK AO2 T02330228
53915KARA ARA20190524234010805/24/19 23:40:31  5-MIN KARA 250540Z AUTO 14004KT 10SM CLR 23/23 A3008 -120 97 900 140/04 RMK AO2 T02330228
53915KARA ARA20190524234510805/24/19 23:45:31  5-MIN KARA 250545Z AUTO 14003KT 10SM CLR 23/23 A3008 -120 97 900 140/03 RMK AO2 T02330228
53915KARA ARA20190524235014305/24/19 23:50:31  5-MIN KARA 250550Z AUTO 14003KT 10SM CLR 23/23 A3008 -120 97 900 140/03 RMK AO2 SLP187 T02330228 10289 20228 403170222 53004
53915KARA ARA20190524235510805/24/19 23:55:31  5-MIN KARA 250555Z AUTO 13003KT 10SM CLR 23/23 A3008 -120 97 900 130/03 RMK AO2 T02330228
53915KARA ARA20190525000010805/25/19 00:00:31  5-MIN KARA 250600Z AUTO 13003KT 10SM CLR 23/23 A3009 -120 97 900 130/03 RMK AO2 T02330228
53915KARA ARA20190525000510805/25/19 00:05:31  5-MIN KARA 250605Z AUTO 00000KT 10SM CLR 23/23 A3009 -120 97 900 000/00 RMK AO2 T02330228
53915KARA ARA20190525003510905/25/19 00:35:31  5-MIN KARA 250635Z AUTO 12005KT 10SM CLR 23/23 A3008 -110 100 800 120/05 RMK AO2 T02280228
53915KARA ARA20190525004010905/25/19 00:40:31  5-MIN KARA 250640Z AUTO 12005KT 10SM CLR 23/23 A3007 -110 100 800 120/05 RMK AO2 T02280228
53915KARA ARA20190525004510905/25/19 00:45:31  5-MIN KARA 250645Z AUTO 12004KT 10SM CLR 23/23 A3007 -110 100 800 120/04 RMK AO2 T02280228
53915KARA ARA20190525005011605/25/19 00:50:31  5-MIN KARA 250650Z AUTO 12004KT 10SM CLR 23/23 A3007 -110 100 800 120/04 RMK AO2 SLP182 T02280228
53915KARA ARA20190525005510905/25/19 00:55:31  5-MIN KARA 250655Z AUTO 12003KT 10SM CLR 23/23 A3007 -110 100 800 120/03 RMK AO2 T02280228
53915KARA ARA20190525010010905/25/19 01:00:31  5-MIN KARA 250700Z AUTO 12003KT 10SM CLR 23/23 A3007 -110 100 800 120/03 RMK AO2 T02280228
53915KARA ARA20190525010510905/25/19 01:05:31  5-MIN KARA 250705Z AUTO 12003KT 10SM CLR 23/23 A3007 -110 100 800 120/03 RMK AO2 T02280228
53915KARA ARA20190525011010905/25/19 01:10:31  5-MIN KARA 250710Z AUTO 12004KT 10SM CLR 23/23 A3007 -100 100 800 120/04 RMK AO2 T02280228
53915KARA ARA20190525011510805/25/19 01:15:31  5-MIN KARA 250715Z AUTO 13004KT 10SM CLR 23/22 A3007 -100 97 800 120/04 RMK AO2 T02280222
53915KARA ARA20190525012010905/25/19 01:20:31  5-MIN KARA 250720Z AUTO 12004KT 10SM CLR 23/23 A3007 -100 100 800 120/04 RMK AO2 T02280228
53915KARA ARA20190525012511905/25/19 01:25:31  5-MIN KARA 250725Z AUTO 12003KT 10SM -RAT 10SM CLR 23/23 A3007 -100 100 800 090/03 RMK AO2 T02280228
53915KARA ARA20190525020010905/25/19 02:00:31  5-MIN KARA 250800Z AUTO 09004KT 10SM CLR 23/23 A3007 -100 100 800 090/04 RMK AO2 T02280228
53915KARA ARA20190525020510905/25/19 02:05:31  5-MIN KARA 250805Z AUTO 09003KT 10SM CLR 23/23 A3007 -110 100 800 090/03 RMK AO2 T02280228
53915KARA ARA20190525021019505/25/19 02:10:31  5-MIN KARA 250810Z AUTO 10003KT 10SM CLR 23/23 A3007 -100 100 800 100/03 RMK AO2 T0228022805/25/19 0910Z AUTO 08003KT 10SM CLR 23/23 A3007 -110 100 800 080/03 RMK AO2 T02280228
53915KARA ARA20190525031511205/25/19 03:15:31  5-MIN KARA 250915Z AUTO 08003KT 10SM FEW005 23/23 A3007 -110 100 800 080/03 RMK AO2 T02280228
53915KARA ARA20190525032011205/25/19 03:20:31  5-MIN KARA 250920Z AUTO 07003KT 10SM FEW005 23/23 A3007 -110 100 800 070/03 RMK AO2 T02280228
53915KARA ARA20190525032510905/25/19 03:25:31  5-MIN KARA 250925Z AUTO 07003KT 10SM CLR 23/23 A3007 -110 100 800 070/03 RMK AO2 T02280228
53915KARA ARA20190525033010905/25/19 03:30:31  5-MIN KARA 250930Z AUTO 08004KT 10SM CLR 23/23 A3007 -110 100 800 080/04 RMK AO2 T02280228
53915KARA ARA20190525033510905/25/19 03:35:31  5-MIN KARA 250935Z AUTO 08004KT 10SM CLR 23/23 A3007 -110 100 800 080/04 RMK AO2 T02280228
53915KARA ARA20190525034010905/25/19 03:40:31  5-MIN KARA 250940Z AUTO 07003KT 10SM CLR 23/23 A3008 -110 100 800 070/03 RMK AO2 T02280228
53915KARA ARA20190525034510805/25/19 03:45:31  5-MIN KARA 250945Z AUTO 00000KT 10SM CLR 23/22 A3008 -120 97 800 000/00 RMK AO2 T02280222
53915KARA ARA20190525035011505/25/19 03:50:31  5-MIN KARA 250950Z AUTO 00000KT 10SM CLR 23/22 A3008 -110 97 800 000/00 RMK AO2 SLP184 T02280222
53915KARA ARA20190525035510805/25/19 03:55:31  5-MIN KARA 250955Z AUTO 00000KT 10SM CLR 23/22 A3008 -110 97 800 000/00 RMK AO2 T02280222
53915KARA ARA20190525040010805/25/19 04:00:31  5-MIN KARA 251000Z AUTO 00000KT 10SM CLR 23/22 A3008 -110 97 800 000/00 RMK AO2 T02280222
53915KARA ARA20190525040510805/25/19 04:05:31  5-MIN KARA 251005Z AUTO 00000KT 10SM CLR 23/22 A3007 -110 97 800 000/00 RMK AO2 T02280222
53915KARA ARA20190525041010905/25/19 04:10:31  5-MIN KARA 251010Z AUTO 00000KT 10SM CLR 22/22 A3007 -110 100 700 000/00 RMK AO2 T02220222
53915KARA ARA20190525041510905/25/19 04:15:31  5-MIN KARA 251015Z AUTO 00000KT 10SM CLR 22/22 A3008 -110 100 700 000/00 RMK AO2 T02220222
53915KARA ARA20190525042010905/25/19 04:20:31  5-MIN KARA 251020Z AUTO 00000KT 10SM CLR 22/22 A3008 -110 100 700 000/00 RMK AO2 T02220222
53915KARA ARA20190525042510805/25/19 04:25:31  5-MIN KARA 251025Z AUTO 00000KT 10SM CLR 23/22 A3008 -110 97 800 000/00 RMK AO2 T02280222
53915KARA ARA20190525043010805/25/19 04:30:31  5-MIN KARA 251030Z AUTO 00000KT 10SM CLR 23/22 A3008 -110 97 800 000/00 RMK AO2 T02280222
53915KARA ARA20190525043510805/25/19 04:35:31  5-MIN KARA 251035Z AUTO 00000KT 10SM CLR 23/22 A3008 -110 97 800 000/00 RMK AO2 T02280222
53915KARA ARA20190525044010905/25/19 04:40:31  5-MIN KARA 251040Z AUTO 00000KT 10SM CLR 22/22 A3008 -110 100 700 000/00 RMK AO2 T02220222
53915KARA ARA20190525044510905/25/19 04:45:31  5-MIN KARA 251045Z AUTO 00000KT 10SM CLR 22/22 A3008 -120 100 700 000/00 RMK AO2 T02220222
53915KARA ARA20190525045011105/25/19 04:50:31  5-MIN KARA 251050Z 00000KT 10SM CLR 22/22 A3008 -120 100 700 000/00 RMK AO2 SLP185 T02220222
53915KARA ARA20190525045512005/25/19 04:55:31  5-MIN KARA 251055Z 00000KT 10SM -RA CLR 22/22 A3008 -120 100 700 000/00 RMK AO2 RAB54 P0000 T02220222
53915KARA ARA20190525050012205/25/19 05:00:31  5-MIN KARA 251100Z 08003KT 10SM -RA CLR 22/22 A3008 -120 100 700 080/03 RMK AO2 RAB1054 P0000 T02220222
53915KARA ARA20190525050512205/25/19 05:05:31  5-MIN KARA 251105Z 09004KT 10SM -RA CLR 22/22 A3008 -120 100 700 080/04 RMK AO2 RAB1054 P0000 T02220222
53915KARA ARA20190525051012105/25/19 05:10:31  5-MIN KARA 251110Z 09004KT 10SM CLR 22/22 A3009 -120 100 700 080/04 RMK AO2 RAB1054E10 P0000 T02170217
53915KARA ARA20190525052012105/25/19 05:20:31  5-MIN KARA 251120Z 09004KT 10SM CLR 22/22 A3009 -120 100 700 090/04 RMK AO2 RAB1054E10 P0000 T02170217
53915KARA ARA20190525052512105/25/19 05:25:31  5-MIN KARA 251125Z 09004KT 10SM CLR 22/22 A3009 -120 100 700 090/04 RMK AO2 RAB1054E10 P0000 T02170217
53915KARA ARA20190525053012105/25/19 05:30:31  5-MIN KARA 251130Z 10005KT 10SM CLR 22/22 A3009 -130 100 700 100/05 RMK AO2 RAB1054E10 P0000 T02170217
53915KARA ARA20190525053512105/25/19 05:35:31  5-MIN KARA 251135Z 10005KT 10SM CLR 22/22 A3009 -130 100 700 100/05 RMK AO2 RAB1054E10 P0000 T02220222
53915KARA ARA20190525054012005/25/19 05:40:31  5-MIN KARA 251140Z 10005KT 9SM CLR 22/22 A3010 -130 100 700 100/05 RMK AO2 RAB1054E10 P0000 T02220222
53915KARA ARA20190525054512005/25/19 05:45:31  5-MIN KARA 251145Z 10005KT 9SM CLR 23/23 A3010 -130 100 800 100/05 RMK AO2 RAB1054E10 P0000 T02280228
53915KARA ARA20190525055015205/25/19 05:50:31  5-MIN KARA 251150Z 10005KT 10SM CLR 23/23 A3010 -130 100 800 100/05 RMK AO2 RAB1054E10 SLP191 P0000 60000 T02280228 10233 20217 55004
53915KARA ARA20190525055510405/25/19 05:55:31  5-MIN KARA 251155Z 11004KT 10SM CLR 23/23 A3010 -140 100 800 110/04 RMK AO2 T02280228
53915KARA ARA20190525060010405/25/19 06:00:31  5-MIN KARA 251200Z 10004KT 10SM CLR 23/23 A3010 -140 100 800 100/04 RMK AO2 T02280228
53915KARA ARA20190525060510405/25/19 06:05:31  5-MIN KARA 251205Z 10004KT 10SM CLR 23/23 A3010 -140 100 800 100/04 RMK AO2 T02330233
53915KARA ARA20190525061010405/25/19 06:10:31  5-MIN KARA 251210Z 11005KT 10SM CLR 23/23 A3010 -140 100 800 110/05 RMK AO2 T02330233
53915KARA ARA20190525061510405/25/19 06:15:31  5-MIN KARA 251215Z 11005KT 10SM CLR 23/23 A3011 -140 100 800 110/05 RMK AO2 T02330233
53915KARA ARA20190525062010305/25/19 06:20:31  5-MIN KARA 251220Z 11005KT 10SM CLR 24/23 A3011 -140 97 900 110/05 RMK AO2 T02390233
53915KARA ARA20190525062510405/25/19 06:25:31  5-MIN KARA 251225Z 11006KT 10SM CLR 24/24 A3011 -140 100 900 110/06 RMK AO2 T02390239
53915KARA ARA20190525063010405/25/19 06:30:31  5-MIN KARA 251230Z 11005KT 10SM CLR 24/24 A3011 -150 100 900 110/05 RMK AO2 T02390239
53915KARA ARA20190525063517605/25/19 06:35:31  5-MIN KARA 251235Z 11005KT 10SM CLR 24/24 A3011 -150 97 1000 110/05 RMK AOA 251250Z 11005KT 10SM CLR 25/24 A3012 -150 93 1000 110/05 RMK AO2 SLP198 T02500239
53915KARA ARA20190525065510405/25/19 06:55:31  5-MIN KARA 251255Z 11004KT 10SM CLR 26/24 A3012 -150 90 1100 110/04 RMK AO2 T02560239
53915KARA ARA20190525070010405/25/19 07:00:31  5-MIN KARA 251300Z 12005KT 10SM CLR 26/24 A3012 -150 90 1100 120/05 RMK AO2 T02560239
53915KARA ARA20190525070510405/25/19 07:05:31  5-MIN KARA 251305Z 10004KT 10SM CLR 26/24 A3012 -150 87 1100 100/04 RMK AO2 T02610239
53915KARA ARA20190525071010405/25/19 07:10:31  5-MIN KARA 251310Z 10005KT 10SM CLR 26/24 A3013 -160 87 1100 100/05 RMK AO2 T02610239
53915KARA ARA20190525071510405/25/19 07:15:31  5-MIN KARA 251315Z 11005KT 10SM CLR 26/24 A3013 -160 87 1100 110/05 RMK AO2 T02610239
53915KARA ARA20190525072010405/25/19 07:20:31  5-MIN KARA 251320Z 10006KT 10SM CLR 27/24 A3013 -160 87 1200 090/06 RMK AO2 T02670244
53915KARA ARA20190525072510405/25/19 07:25:31  5-MIN KARA 251325Z 10007KT 10SM CLR 27/24 A3013 -160 84 1200 100/07 RMK AO2 T02670239
53915KARA ARA20190525073010405/25/19 07:30:31  5-MIN KARA 251330Z 11007KT 10SM CLR 27/24 A3013 -160 84 1200 110/07 RMK AO2 T02670239
53915KARA ARA20190525073510405/25/19 07:35:31  5-MIN KARA 251335Z 11008KT 10SM CLR 27/24 A3013 -160 84 1200 110/08 RMK AO2 T02670239
53915KARA ARA20190525074010405/25/19 07:40:31  5-MIN KARA 251340Z 11007KT 10SM CLR 26/24 A3013 -160 87 1100 110/07 RMK AO2 T02610239
53915KARA ARA20190525074510405/25/19 07:45:31  5-MIN KARA 251345Z 13007KT 10SM CLR 26/24 A3013 -160 87 1100 130/07 RMK AO2 T02610239
53915KARA ARA20190525075011405/25/19 07:50:31  5-MIN KARA 251350Z 11007KT 10SM FEW013 26/24 A3013 -170 87 1100 110/07 RMK AO2 SLP203 T02610239
53915KARA ARA20190525075510705/25/19 07:55:31  5-MIN KARA 251355Z 10007KT 10SM FEW013 27/24 A3014 -170 82 1200 100/07 RMK AO2 T02720239
53915KARA ARA20190525080014805/25/19 08:00:31  5-MIN KARA 251400Z 10007KT 10SM SCT013 28/24 A3014 -170 79Z 13009KT 10SM SCT018 28/23 A3014 -180 76 1300 120/09 RMK AO2 T02780233
53915KARA ARA20190525083010705/25/19 08:30:31  5-MIN KARA 251430Z 13009KT 10SM FEW018 28/23 A3014 -180 74 1400 130/09 RMK AO2 T02830233
53915KARA ARA20190525083510705/25/19 08:35:31  5-MIN KARA 251435Z 13008KT 10SM FEW018 28/23 A3015 -180 76 1300 130/08 RMK AO2 T02780233
53915KARA ARA20190525084010705/25/19 08:40:31  5-MIN KARA 251440Z 13008KT 10SM FEW018 28/23 A3015 -180 76 1300 130/08 RMK AO2 T02780233
53915KARA ARA20190525084510705/25/19 08:45:31  5-MIN KARA 251445Z 14007KT 10SM FEW018 28/23 A3015 -180 74 1400 140/07 RMK AO2 T02830233
53915KARA ARA20190525085012005/25/19 08:50:31  5-MIN KARA 251450Z 14006KT 10SM FEW020 28/23 A3015 -180 74 1400 130/06 RMK AO2 SLP207 T02830233 53010
53915KARA ARA20190525085510705/25/19 08:55:31  5-MIN KARA 251455Z 13009KT 10SM FEW020 29/23 A3014 -180 71 1400 130/09 RMK AO2 T02890233
53915KARA ARA20190525090010705/25/19 09:00:31  5-MIN KARA 251500Z 14009KT 10SM FEW020 28/23 A3014 -170 71 1400 140/09 RMK AO2 T02830228
53915KARA ARA20190525090510705/25/19 09:05:31  5-MIN KARA 251505Z 14008KT 10SM FEW020 29/23 A3014 -170 69 1400 130/08 RMK AO2 T02890228
53915KARA ARA20190525091010705/25/19 09:10:31  5-MIN KARA 251510Z 15007KT 10SM FEW022 28/23 A3014 -170 74 1400 150/07 RMK AO2 T02830233
53915KARA ARA20190525091510705/25/19 09:15:31  5-MIN KARA 251515Z 14007KT 10SM FEW022 29/23 A3014 -170 71 1400 140/07 RMK AO2 T02890233
53915KARA ARA20190525092010705/25/19 09:20:31  5-MIN KARA 251520Z 11008KT 10SM FEW024 29/23 A3014 -170 67 1500 100/08 RMK AO2 T02940228
53915KARA ARA20190525092510705/25/19 09:25:31  5-MIN KARA 251525Z 11008KT 10SM FEW024 29/22 A3013 -170 64 1500 110/08 RMK AO2 T02940222
53915KARA ARA20190525093010705/25/19 09:30:31  5-MIN KARA 251530Z 12007KT 10SM SCT024 29/23 A3014 -170 67 1500 120/07 RMK AO2 T02940228
53915KARA ARA20190525093510705/25/19 09:35:31  5-MIN KARA 251535Z 13006KT 10SM SCT025 29/22 A3013 -170 64 1500 130/06 RMK AO2 T02940222
53915KARA ARA20190525094010705/25/19 09:40:31  5-MIN KARA 251540Z 10008KT 10SM FEW025 30/23 A3013 -160 65 1600 100/08 RMK AO2 T03000228
53915KARA ARA20190525094510705/25/19 09:45:31  5-MIN KARA 251545Z 12009KT 10SM FEW025 29/23 A3013 -160 67 1500 120/09 RMK AO2 T02940228
53915KARA ARA20190525095011405/25/19 09:50:31  5-MIN KARA 251550Z 13008KT 10SM FEW026 29/23 A3014 -170 67 1500 130/08 RMK AO2 SLP204 T02940228
53915KARA ARA20190525095510705/25/19 09:55:31  5-MIN KARA 251555Z 12006KT 10SM FEW026 29/22 A3013 -170 67 1400 120/06 RMK AO2 T02890222
53915KARA ARA20190525100010705/25/19 10:00:31  5-MIN KARA 251600Z 13007KT 10SM FEW028 29/22 A3014 -170 64 1500 130/07 RMK AO2 T02940222
53915KARA ARA20190525100510705/25/19 10:05:31  5-MIN KARA 251605Z 12007KT 10SM FEW030 29/23 A3014 -170 67 1500 120/07 RMK AO2 T02940228
53915KARA ARA20190525101010705/25/19 10:10:31  5-MIN KARA 251610Z 12008KT 10SM SCT032 30/22 A3014 -170 62 1500 120/08 RMK AO2 T03000222
53915KARA ARA20190525101512305/25/19 10:15:31  5-MIN KARA 251615Z 11008KT 080V140 10SM SCT032 30/22 A3014 -170 62 1500 110/08 080V140 RMK AO2 T03000222
53915KARA ARA20190525102010705/25/19 10:20:31  5-MIN KARA 251620Z 13009KT 10SM SCT030 30/22 A3014 -170 62 1500 130/09 RMK AO2 T03000222
53915KARA ARA20190525102510705/25/19 10:25:31  5-MIN KARA 251625Z VRB03KT 10SM SCT030 30/22 A3014 -170 62 1500 VRB/03 RMK AO2 T03000222
53915KARA ARA20190525103009705/25/19 10:30:31  5-MIN KARA 251630Z 10SM SCT031 31/22 A3014 -170 58 1600 M /M RMK AO2 T03060217
53915KARA ARA20190525103510705/25/19 10:35:31  5-MIN KARA 251635Z 12007KT 10SM FEW033 31/22 A3014 -170 60 1600 120/07 RMK AO2 T03060222
53915KARA ARA20190525104012305/25/19 10:40:31  5-MIN KARA 251640Z 13009KT 080V150 10SM FEW033 31/22 A3014 -170 58 1600 130/09 080V150 RMK AO2 T03060217
53915KARA ARA20190525104510705/25/19 10:45:31  5-MIN KARA 251645Z 13007KT 10SM FEW033 30/22 A3014 -170 60 1500 130/07 RMK AO2 T03000217
53915KARA ARA20190525105011405/25/19 10:50:31  5-MIN KARA 251650Z VRB05KT 10SM SCT033 30/22 A3014 -170 62 1500 VRB/05 RMK AO2 SLP204 T03000222
53915KARA ARA20190525105511405/25/19 10:55:31  5-MIN KARA 251655Z 13008KT 10SM SCT033 BKN041 31/23 A3014 -170 60 1700 130/08 RMK AO2 T03110228
53915KARA ARA20190525110010705/25/19 11:00:31  5-MIN KARA 251700Z 10008KT 10SM SCT035 31/22 A3014 -170 60 1600 100/08 RMK AO2 T03060222
53915KARA ARA20190525110510705/25/19 11:05:31  5-MIN KARA 251705Z 09005KT 10SM SCT035 30/22 A3014 -170 62 1600 090/05 RMK AO2 T03000222
53915KARA ARA20190525111010705/25/19 11:10:31  5-MIN KARA 251710Z VRB03KT 10SM BKN036 31/22 A3013 -160 60 1600 VRB/03 RMK AO2 T03060222
53915KARA ARA20190525111510705/25/19 11:15:31  5-MIN KARA 251715Z 08007KT 10SM BKN036 31/22 A3013 -170 58 1700 080/07 RMK AO2 T03110222
53915KARA ARA20190525112010705/25/19 11:20:31  5-MIN KARA 251720Z 04005KT 10SM SCT038 31/22 A3013 -160 58 1600 040/05 RMK AO2 T03060217
53915KARA ARA20190525112510705/25/19 11:25:31  5-MIN KARA 251725Z VRB06KT 10SM BKN038 31/21 A3013 -160 56 1600 VRB/06 RMK AO2 T03060211
53915KARA ARA20190525113010705/25/19 11:30:31  5-MIN KARA 251730Z 10003KT 10SM BKN040 30/21 A3013 -160 56 1600 100/03 RMK AO2 T03000206
53915KARA ARA20190525113511405/25/19 11:35:31  5-MIN KARA 251735Z 15007KT 10SM BKN040 BKN050 31/21 A3013 -160 54 1700 150/07 RMK AO2 T03110211
53915KARA ARA20190525114011405/25/19 11:40:31  5-MIN KARA 251740Z 18004KT 10SM SCT042 SCT050 31/21 A3013 -160 53 1700 180/04 RMK AO2 T03110206
53915KARA ARA20190525114511405/25/19 11:45:31  5-MIN KARA 251745Z 11007KT 10SM SCT042 BKN050 32/21 A3013 -160 51 1700 110/07 RMK AO2 T03170206
53915KARA ARA20190525115013205/25/19 11:50:31  5-MIN KARA 251750Z 12004KT 10SM BKN043 32/22 A3013 -160 55 1700 120/04 RMK AO2 SLP201 T03170217 10317 20228 51016
53915KARA ARA20190525115511405/25/19 11:55:31  5-MIN KARA 251755Z VRB06KT 10SM SCT043 SCT055 31/22 A3013 -160 56 1700 VRB/06 RMK AO2 T03110217
53915KARA ARA20190525120011405/25/19 12:00:31  5-MIN KARA 251800Z 00000KT 10SM SCT045 SCT055 31/21 A3012 -160 54 1700 000/00 RMK AO2 T03110211
53915KARA ARA20190525120510705/25/19 12:05:31  5-MIN KARA 251805Z VRB06KT 10SM SCT045 31/21 A3012 -160 54 1700 VRB/06 RMK AO2 T03110211
53915KARA ARA20190525121010705/25/19 12:10:31  5-MIN KARA 251810Z VRB05KT 10SM BKN043 31/21 A3012 -160 56 1600 VRB/05 RMK AO2 T03060211
53915KARA ARA20190525121511405/25/19 12:15:31  5-MIN KARA 251815Z VRB03KT 10SM BKN045 BKN055 31/21 A3012 -150 53 1700 VRB/03 RMK AO2 T03110206
53915KARA ARA20190525122011405/25/19 12:20:31  5-MIN KARA 251820Z VRB03KT 10SM BKN045 BKN055 32/21 A3012 -150 53 1800 VRB/03 RMK AO2 T03170211
53915KARA ARA20190525122510705/25/19 12:25:31  5-MIN KARA 251825Z 12005KT 10SM BKN045 32/21 A3012 -150 53 1800 120/05 RMK AO2 T03170211
53915KARA ARA20190525123010705/25/19 12:30:31  5-MIN KARA 251830Z 10008KT 10SM BKN045 32/22 A3012 -150 53 1800 100/08 RMK AO2 T03220217
53915KARA ARA20190525123510705/25/19 12:35:31  5-MIN KARA 251835Z 09007KT 10SM BKN045 32/22 A3012 -150 53 1800 090/07 RMK AO2 T03220217
53915KARA ARA20190525124012305/25/19 12:40:31  5-MIN KARA 251840Z 08007KT 050V120 10SM SCT045 32/21 A3011 -150 51 1800 080/07 050V120 RMK AO2 T03220211
53915KARA ARA20190525124510705/25/19 12:45:31  5-MIN KARA 251845Z VRB05KT 10SM SCT043 32/22 A3011 -150 53 1800 VRB/05 RMK AO2 T03220217
53915KARA ARA20190525125011405/25/19 12:50:31  5-MIN KARA 251850Z VRB05KT 10SM SCT045 31/21 A3011 -140 53 1700 VRB/05 RMK AO2 SLP196 T03110206
53915KARA ARA20190525125510705/25/19 12:55:31  5-MIN KARA 251855Z 13004KT 10SM BKN045 32/21 A3011 -140 51 1800 130/04 RMK AO2 T03170206
53915KARA ARA20190525130010705/25/19 13:00:31  5-MIN KARA 251900Z VRB05KT 10SM SCT045 32/22 A3011 -140 53 1800 VRB/05 RMK AO2 T03220217
53915KARA ARA20190525130510705/25/19 13:05:31  5-MIN KARA 251905Z 12009KT 10SM BKN045 32/21 A3011 -140 51 1800 120/09 RMK AO2 T03220211
53915KARA ARA20190525131010705/25/19 13:10:31  5-MIN KARA 251910Z VRB04KT 10SM BKN045 32/21 A3010 -140 51 1800 VRB/04 RMK AO2 T03170206
53915KARA ARA20190525131510705/25/19 13:15:31  5-MIN KARA 251915Z 12009KT 10SM BKN045 31/21 A3010 -140 54 1700 120/09 RMK AO2 T03110211
53915KARA ARA20190525132010705/25/19 13:20:31  5-MIN KARA 251920Z 11005KT 10SM BKN045 31/21 A3010 -140 53 1700 110/05 RMK AO2 T03110206
53915KARA ARA20190525132510705/25/19 13:25:31  5-MIN KARA 251925Z VRB03KT 10SM BKN047 31/21 A3010 -140 53 1700 VRB/03 RMK AO2 T03110206
53915KARA ARA20190525133010705/25/19 13:30:31  5-MIN KARA 251930Z 17007KT 10SM SCT047 32/21 A3010 -140 53 1800 160/07 RMK AO2 T03170211
53915KARA ARA20190525133510705/25/19 13:35:31  5-MIN KARA 251935Z 14005KT 10SM SCT047 31/21 A3010 -130 54 1700 140/05 RMK AO2 T03110211
53915KARA ARA20190525134010705/25/19 13:40:31  5-MIN KARA 251940Z 14006KT 10SM FEW047 31/21 A3010 -130 53 1700 140/06 RMK AO2 T03110206
53915KARA ARA20190525134510705/25/19 13:45:31  5-MIN KARA 251945Z 16007KT 10SM FEW047 32/22 A3010 -130 55 1800 160/07 RMK AO2 T03170217
53915KARA ARA20190525135013005/25/19 13:50:31  5-MIN KARA 251950Z 19010KT 150V210 10SM SCT045 32/24 A3010 -130 61 1800 190/10 150V210 RMK AO2 SLP191 T03220239
53915KARA ARA20190525135511405/25/19 13:55:31  5-MIN KARA 251955Z 18007KT 10SM SCT039 BKN047 32/24 A3010 -130 63 1800 170/07 RMK AO2 T03170239
53915KARA ARA20190525140011405/25/19 14:00:31  5-MIN KARA 252000Z 18009KT 10SM FEW035 BKN044 31/24 A3009 -130 65 1700 180/09 RMK AO2 T03110239
53915KARA ARA20190525140512005/25/19 14:05:31  5-MIN KARA 252005Z 19010G15KT 10SM SCT035 BKN044 32/24 A3009 -130 63 1800 190/10G15 RMK AO2 T03170239
53915KARA ARA20190525141011405/25/19 14:10:31  5-MIN KARA 252010Z 19010KT 10SM SCT035 BKN046 31/24 A3009 -130 65 1700 190/10 RMK AO2 T03110239
53915KARA ARA20190525141513005/25/19 14:15:31  5-MIN KARA 252015Z 18009KT 160V220 10SM FEW035 BKN046 32/24 A3009 -130 63 1800 180/09 160V220 RMK AO2 T03170239
53915KARA ARA20190525142011405/25/19 14:20:31  5-MIN KARA 252020Z 20009KT 10SM FEW035 SCT046 32/24 A3009 -130 63 1800 200/09 RMK AO2 T03170239
53915KARA ARA20190525142511405/25/19 14:25:31  5-MIN KARA 252025Z 22008KT 10SM FEW037 SCT044 31/23 A3009 -130 63 1700 220/08 RMK AO2 T03110233
53915KARA ARA20190525143011405/25/19 14:30:31  5-MIN KARA 252030Z 19010KT 10SM SCT038 BKN046 31/23 A3009 -120 63 1700 190/10 RMK AO2 T03110233
53915KARA ARA20190525143511405/25/19 14:35:31  5-MIN KARA 252035Z 17010KT 10SM SCT038 BKN046 31/23 A3008 -120 63 1700 170/10 RMK AO2 T03110233
53915KARA ARA20190525144010705/25/19 14:40:31  5-MIN KARA 252040Z 18008KT 10SM SCT040 32/23 A3008 -120 58 1800 180/08 RMK AO2 T03170228
53915KARA ARA20190525144510705/25/19 14:45:31  5-MIN KARA 252045Z 17010KT 10SM SCT040 31/23 A3009 -120 63 1700 170/10 RMK AO2 T03110233
53915KARA ARA20190525145012005/25/19 14:50:31  5-MIN KARA 252050Z 18009KT 10SM BKN040 31/23 A3008 -120 60 1700 180/09 RMK AO2 SLP186 T03110228 56006
53915KARA ARA20190525145510705/25/19 14:55:31  5-MIN KARA 252055Z 17008KT 10SM SCT040 32/23 A3008 -120 61 1800 170/08 RMK AO2 T03170233
53915KARA ARA20190525150010705/25/19 15:00:31  5-MIN KARA 252100Z 20010KT 10SM FEW042 31/23 A3008 -120 63 1700 200/10 RMK AO2 T03110233
53915KARA ARA20190525150510705/25/19 15:05:31  5-MIN KARA 252105Z 21009KT 10SM FEW042 31/23 A3008 -120 65 1700 210/09 RMK AO2 T03060233
53915KARA ARA20190525151011305/25/19 15:10:31  5-MIN KARA 252110Z 19010G15KT 10SM FEW042 31/23 A3008 -120 63 1700 180/10G15 RMK AO2 T03110233
53915KARA ARA20190525151511305/25/19 15:15:31  5-MIN KARA 252115Z 19008G15KT 10SM FEW039 31/23 A3008 -120 63 1700 190/08G15 RMK AO2 T03110233
53915KARA ARA20190525152010705/25/19 15:20:31  5-MIN KARA 252120Z 18010KT 10SM FEW036 31/23 A3008 -120 62 1700 180/10 RMK AO2 T03060228
53915KARA ARA20190525152510705/25/19 15:25:31  5-MIN KARA 252125Z 18009KT 10SM FEW036 31/23 A3008 -120 60 1700 180/09 RMK AO2 T03110228
53915KARA ARA20190525153010705/25/19 15:30:31  5-MIN KARA 252130Z 19011KT 10SM FEW035 31/23 A3008 -120 62 1700 180/11 RMK AO2 T03060228
53915KARA ARA20190525153510705/25/19 15:35:31  5-MIN KARA 252135Z 19008KT 10SM FEW035 31/23 A3008 -120 62 1700 190/08 RMK AO2 T03060228
53915KARA ARA20190525154010705/25/19 15:40:31  5-MIN KARA 252140Z 20011KT 10SM FEW038 31/23 A3008 -120 62 1700 200/11 RMK AO2 T03060228
53915KARA ARA20190525154510705/25/19 15:45:31  5-MIN KARA 252145Z 17008KT 10SM FEW038 31/23 A3008 -120 62 1700 170/08 RMK AO2 T03060228
53915KARA ARA20190525155011405/25/19 15:50:31  5-MIN KARA 252150Z 18010KT 10SM FEW040 31/23 A3008 -120 62 1700 180/10 RMK AO2 SLP185 T03060228
53915KARA ARA20190525155510705/25/19 15:55:31  5-MIN KARA 252155Z 19010KT 10SM FEW040 31/23 A3008 -120 62 1700 190/10 RMK AO2 T03060228
53915KARA ARA20190525160010705/25/19 16:00:31  5-MIN KARA 252200Z 17011KT 10SM FEW040 31/23 A3008 -120 62 1700 170/11 RMK AO2 T03060228
53915KARA ARA20190525160510405/25/19 16:05:31  5-MIN KARA 252205Z 19010KT 10SM CLR 31/23 A3008 -120 62 1700 190/10 RMK AO2 T03060228
53915KARA ARA20190525161010405/25/19 16:10:31  5-MIN KARA 252210Z 19010KT 10SM CLR 30/23 A3008 -120 65 1600 190/10 RMK AO2 T03000228
53915KARA ARA20190525161510405/25/19 16:15:31  5-MIN KARA 252215Z 19010KT 10SM CLR 30/23 A3008 -120 65 1600 190/10 RMK AO2 T03000228
53915KARA ARA20190525162010405/25/19 16:20:31  5-MIN KARA 252220Z 20010KT 10SM CLR 30/23 A3008 -120 65 1600 200/10 RMK AO2 T03000228
53915KARA ARA20190525162510405/25/19 16:25:31  5-MIN KARA 252225Z 19009KT 10SM CLR 31/23 A3008 -120 62 1700 190/09 RMK AO2 T03060228
53915KARA ARA20190525163010405/25/19 16:30:31  5-MIN KARA 252230Z 19009KT 10SM CLR 30/23 A3008 -120 65 1600 190/09 RMK AO2 T03000228
53915KARA ARA20190525163510405/25/19 16:35:31  5-MIN KARA 252235Z 19010KT 10SM CLR 30/23 A3008 -110 65 1600 180/10 RMK AO2 T03000228
53915KARA ARA20190525164010405/25/19 16:40:31  5-MIN KARA 252240Z 19008KT 10SM CLR 30/23 A3008 -110 65 1600 190/08 RMK AO2 T03000228
53915KARA ARA20190525164510405/25/19 16:45:31  5-MIN KARA 252245Z 18009KT 10SM CLR 30/23 A3008 -110 65 1600 170/09 RMK AO2 T03000228
53915KARA ARA20190525165011105/25/19 16:50:31  5-MIN KARA 252250Z 18010KT 10SM CLR 30/23 A3008 -110 65 1600 180/10 RMK AO2 SLP184 T03000228
53915KARA ARA20190525165510405/25/19 16:55:31  5-MIN KARA 252255Z 17009KT 10SM CLR 30/22 A3008 -110 62 1600 170/09 RMK AO2 T03000222
53915KARA ARA20190525170010405/25/19 17:00:31  5-MIN KARA 252300Z 20010KT 10SM CLR 30/23 A3008 -110 65 1600 200/10 RMK AO2 T03000228
53915KARA ARA20190525170510405/25/19 17:05:31  5-MIN KARA 252305Z 19010KT 10SM CLR 29/23 A3008 -110 67 1600 190/10 RMK AO2 T02940228
53915KARA ARA20190525171010405/25/19 17:10:31  5-MIN KARA 252310Z 19009KT 10SM CLR 29/22 A3007 -110 64 1600 190/09 RMK AO2 T02940222
53915KARA ARA20190525171510405/25/19 17:15:31  5-MIN KARA 252315Z 19010KT 10SM CLR 29/22 A3007 -110 64 1600 180/10 RMK AO2 T02940222
53915KARA ARA20190525172010405/25/19 17:20:31  5-MIN KARA 252320Z 18010KT 10SM CLR 29/22 A3007 -100 64 1600 180/10 RMK AO2 T02940222
53915KARA ARA20190525172510405/25/19 17:25:31  5-MIN KARA 252325Z 18010KT 10SM CLR 29/22 A3007 -100 64 1600 170/10 RMK AO2 T02940222
53915KARA ARA20190525173010405/25/19 17:30:31  5-MIN KARA 252330Z 17010KT 10SM CLR 29/22 A3006 -100 64 1600 170/10 RMK AO2 T02940222
53915KARA ARA20190525173510405/25/19 17:35:31  5-MIN KARA 252335Z 18010KT 10SM CLR 29/22 A3006 -100 67 1500 180/10 RMK AO2 T02890222
53915KARA ARA20190525174010405/25/19 17:40:31  5-MIN KARA 252340Z 17011KT 10SM CLR 29/22 A3006 -100 67 1500 170/11 RMK AO2 T02890222
53915KARA ARA20190525174510405/25/19 17:45:31  5-MIN KARA 252345Z 19011KT 10SM CLR 29/22 A3006 -100 67 1500 190/11 RMK AO2 T02890222
53915KARA ARA20190525175012905/25/19 17:50:31  5-MIN KARA 252350Z 19010KT 10SM CLR 28/22 A3006 -100 69 1400 190/10 RMK AO2 SLP179 T02830222 10328 20283 56015
53915KARA ARA20190525175510405/25/19 17:55:31  5-MIN KARA 252355Z 18008KT 10SM CLR 28/22 A3006 -100 69 1400 180/08 RMK AO2 T02830222
53915KARA ARA20190525180010405/25/19 18:00:31  5-MIN KARA 260000Z 17008KT 10SM CLR 28/22 A3006 -100 69 1400 170/08 RMK AO2 T02830222
53915KARA ARA20190525180510405/25/19 18:05:31  5-MIN KARA 260005Z 17009KT 10SM CLR 28/22 A3006 -100 69 1400 160/09 RMK AO2 T02830222
53915KARA ARA20190525181010405/25/19 18:10:31  5-MIN KARA 260010Z 19008KT 10SM CLR 28/23 A3006 -100 71 1400 190/08 RMK AO2 T02830228
53915KARA ARA20190525181510405/25/19 18:15:31  5-MIN KARA 260015Z 18009KT 10SM CLR 28/22 A3006 -100 71 1400 180/09 RMK AO2 T02780222
53915KARA ARA20190525182010405/25/19 18:20:31  5-MIN KARA 260020Z 18009KT 10SM CLR 28/22 A3006 -100 71 1400 180/09 RMK AO2 T02780222
53915KARA ARA20190525182510405/25/19 18:25:31  5-MIN KARA 260025Z 18008KT 10SM CLR 28/22 A3007 -100 71 1400 180/08 RMK AO2 T02780222
53915KARA ARA20190525183010405/25/19 18:30:31  5-MIN KARA 260030Z 18008KT 10SM CLR 28/22 A3007 -100 71 1400 180/08 RMK AO2 T02780222
53915KARA ARA20190525183510405/25/19 18:35:31  5-MIN KARA 260035Z 18007KT 10SM CLR 27/22 A3007 -100 74 1300 180/07 RMK AO2 T02720222
53915KARA ARA20190525184010405/25/19 18:40:31  5-MIN KARA 260040Z 17008KT 10SM CLR 27/22 A3007 -100 74 1300 170/08 RMK AO2 T02720222
53915KARA ARA20190525184510405/25/19 18:45:31  5-MIN KARA 260045Z 18008KT 10SM CLR 27/22 A3006 -100 71 1300 180/08 RMK AO2 T02720217
53915KARA ARA20190525185011105/25/19 18:50:31  5-MIN KARA 260050Z 17007KT 10SM CLR 27/22 A3007 -100 71 1300 170/07 RMK AO2 SLP181 T02720217
53915KARA ARA20190525185510405/25/19 18:55:31  5-MIN KARA 260055Z 18006KT 10SM CLR 27/22 A3007 -110 73 1300 180/06 RMK AO2 T02670217
53915KARA ARA20190525190010405/25/19 19:00:31  5-MIN KARA 260100Z 18006KT 10SM CLR 27/22 A3007 -110 73 1300 180/06 RMK AO2 T02670217
53915KARA ARA20190525190510405/25/19 19:05:31  5-MIN KARA 260105Z 18006KT 10SM CLR 27/22 A3007 -110 73 1300 180/06 RMK AO2 T02670217
53915KARA ARA20190525191010405/25/19 19:10:31  5-MIN KARA 260110Z 18005KT 10SM CLR 26/22 A3007 -110 79 1200 180/05 RMK AO2 T02610222
53915KARA ARA20190525191510405/25/19 19:15:31  5-MIN KARA 260115Z 17006KT 10SM CLR 26/22 A3007 -110 79 1200 170/06 RMK AO2 T02610222
53915KARA ARA20190525192010405/25/19 19:20:31  5-MIN KARA 260120Z 17006KT 10SM CLR 26/22 A3007 -110 79 1200 170/06 RMK AO2 T02610222
53915KARA ARA20190525192510405/25/19 19:25:31  5-MIN KARA 260125Z 16005KT 10SM CLR 26/22 A3007 -110 81 1100 160/05 RMK AO2 T02560222
53915KARA ARA20190525193010405/25/19 19:30:31  5-MIN KARA 260130Z 16005KT 10SM CLR 26/22 A3007 -110 81 1100 160/05 RMK AO2 T02560222
53915KARA ARA20190525193510405/25/19 19:35:31  5-MIN KARA 260135Z 17005KT 10SM CLR 26/22 A3007 -110 81 1100 170/05 RMK AO2 T02560222
53915KARA ARA20190525194010405/25/19 19:40:31  5-MIN KARA 260140Z 17005KT 10SM CLR 26/22 A3007 -110 81 1100 170/05 RMK AO2 T02560222
53915KARA ARA20190525194510905/25/19 19:45:31  5-MIN KARA 260145Z AUTO 17005KT 10SM CLR 26/22 A3007 -110 81 1100 170/05 RMK AO2 T02560222
53915KARA ARA20190525195011605/25/19 19:50:31  5-MIN KARA 260150Z AUTO 16006KT 10SM CLR 25/22 A3007 -110 84 1100 160/06 RMK AO2 SLP182 T02500222
53915KARA ARA20190525195510905/25/19 19:55:31  5-MIN KARA 260155Z AUTO 17006KT 10SM CLR 25/22 A3007 -110 84 1100 160/06 RMK AO2 T02500222
53915KARA ARA20190525200010905/25/19 20:00:31  5-MIN KARA 260200Z AUTO 16006KT 10SM CLR 25/22 A3008 -110 84 1100 160/06 RMK AO2 T02500222
53915KARA ARA20190525200510905/25/19 20:05:31  5-MIN KARA 260205Z AUTO 17005KT 10SM CLR 25/22 A3008 -110 84 1100 160/05 RMK AO2 T02500222
53915KARA ARA20190525201010905/25/19 20:10:31  5-MIN KARA 260210Z AUTO 16006KT 10SM CLR 25/22 A3008 -120 84 1000 160/06 RMK AO2 T02500222
53915KARA ARA20190525201510905/25/19 20:15:31  5-MIN KARA 260215Z AUTO 16005KT 10SM CLR 25/22 A3008 -120 84 1000 160/05 RMK AO2 T02500222
53915KARA ARA20190525202010905/25/19 20:20:31  5-MIN KARA 260220Z AUTO 17005KT 10SM CLR 24/22 A3009 -120 87 1000 170/05 RMK AO2 T02440222
53915KARA ARA20190525202510905/25/19 20:25:31  5-MIN KARA 260225Z AUTO 17005KT 10SM CLR 24/22 A3009 -120 87 1000 160/05 RMK AO2 T02440222
53915KARA ARA20190525203010905/25/19 20:30:31  5-MIN KARA 260230Z AUTO 17005KT 10SM CLR 24/22 A3009 -120 87 1000 160/05 RMK AO2 T02440222
53915KARA ARA20190525203510805/25/19 20:35:31  5-MIN KARA 260235Z AUTO 16005KT 10SM CLR 24/22 A3009 -120 90 900 160/05 RMK AO2 T02390222
53915KARA ARA20190525204010805/25/19 20:40:31  5-MIN KARA 260240Z AUTO 16005KT 10SM CLR 24/22 A3009 -120 90 900 160/05 RMK AO2 T02390222
53915KARA ARA20190525204510805/25/19 20:45:31  5-MIN KARA 260245Z AUTO 15005KT 10SM CLR 24/22 A3009 -120 90 900 150/05 RMK AO2 T02390222
53915KARA ARA20190525205012105/25/19 20:50:31  5-MIN KARA 260250Z AUTO 15006KT 10SM CLR 23/22 A3009 -120 93 900 150/06 RMK AO2 SLP187 T02330222 58007
53915KARA ARA20190525205510805/25/19 20:55:31  5-MIN KARA 260255Z AUTO 16005KT 10SM CLR 24/22 A3009 -130 90 900 160/05 RMK AO2 T02390222
53915KARA ARA20190525210010805/25/19 21:00:31  5-MIN KARA 260300Z AUTO 16004KT 10SM CLR 24/22 A3009 -130 90 900 150/04 RMK AO2 T02390222
53915KARA ARA20190525210510805/25/19 21:05:31  5-MIN KARA 260305Z AUTO 16003KT 10SM CLR 24/22 A3009 -130 90 900 160/03 RMK AO2 T02390222
53915KARA ARA20190525211010805/25/19 21:10:31  5-MIN KARA 260310Z AUTO 00000KT 10SM CLR 24/22 A3010 -130 90 900 000/00 RMK AO2 T02390222
53915KARA ARA20190525211510805/25/19 21:15:31  5-MIN KARA 260315Z AUTO 16003KT 10SM CLR 24/22 A3010 -130 90 900 160/03 RMK AO2 T02390222
53915KARA ARA20190525212010805/25/19 21:20:31  5-MIN KARA 260320Z AUTO 17003KT 10SM CLR 24/22 A3010 -130 90 900 170/03 RMK AO2 T02390222
53915KARA ARA20190525212510805/25/19 21:25:31  5-MIN KARA 260325Z AUTO 17004KT 10SM CLR 24/22 A3010 -130 90 900 170/04 RMK AO2 T02390222
53915KARA ARA20190525213010805/25/19 21:30:31  5-MIN KARA 260330Z AUTO 17004KT 10SM CLR 24/22 A3010 -130 90 900 170/04 RMK AO2 T02390222
53915KARA ARA20190525213516605/25/19 21:35:31  5-MIN KARA 260335Z AUTO 17005KT 10SM CLR 24/23 A3010 -140 93 900 170/05 RMK AO2 T0239022805/25/19 21:40:315KT 10SM CLR 24/23 A305 RMK AO2 T02440228
53915KARA ARA20190525220510805/25/19 22:05:31  5-MIN KARA 260405Z AUTO 17005KT 10SM CLR 24/23 A3011 -140 93 900 170/05 RMK AO2 T02390228
53915KARA ARA20190525221010805/25/19 22:10:31  5-MIN KARA 260410Z AUTO 17005KT 10SM CLR 24/23 A3011 -140 93 900 170/05 RMK AO2 T02390228
53915KARA ARA20190525221510805/25/19 22:15:31  5-MIN KARA 260415Z AUTO 16005KT 10SM CLR 24/23 A3011 -140 93 900 160/05 RMK AO2 T02390228
53915KARA ARA20190525222010805/25/19 22:20:31  5-MIN KARA 260420Z AUTO 16005KT 10SM CLR 23/23 A3011 -140 97 800 160/05 RMK AO2 T02330228
53915KARA ARA20190525222510805/25/19 22:25:31  5-MIN KARA 260425Z AUTO 15005KT 10SM CLR 23/22 A3011 -140 93 800 150/05 RMK AO2 T02330222
53915KARA ARA20190525223010805/25/19 22:30:31  5-MIN KARA 260430Z AUTO 15005KT 10SM CLR 23/22 A3011 -150 93 800 150/05 RMK AO2 T02330222
53915KARA ARA20190525223510805/25/19 22:35:31  5-MIN KARA 260435Z AUTO 14004KT 10SM CLR 23/22 A3011 -150 97 800 140/04 RMK AO2 T02280222
53915KARA ARA20190525224010805/25/19 22:40:31  5-MIN KARA 260440Z AUTO 14005KT 10SM CLR 23/22 A3011 -140 97 800 140/05 RMK AO2 T02280222
53915KARA ARA20190525224510805/25/19 22:45:31  5-MIN KARA 260445Z AUTO 14006KT 10SM CLR 23/22 A3011 -140 97 800 140/06 RMK AO2 T02280222
53915KARA ARA20190525225011505/25/19 22:50:31  5-MIN KARA 260450Z AUTO 15006KT 10SM CLR 23/22 A3011 -140 97 800 150/06 RMK AO2 SLP194 T02280222
53915KARA ARA20190525225510905/25/19 22:55:31  5-MIN KARA 260455Z AUTO 15005KT 10SM CLR 23/23 A3011 -140 100 800 150/05 RMK AO2 T02280228
53915KARA ARA20190525230010805/25/19 23:00:31  5-MIN KARA 260500Z AUTO 15005KT 10SM CLR 23/23 A3011 -140 97 800 150/05 RMK AO2 T02330228
53915KARA ARA20190525230510805/25/19 23:05:31  5-MIN KARA 260505Z AUTO 16005KT 10SM CLR 23/23 A3011 -140 97 800 160/05 RMK AO2 T02330228
53915KARA ARA20190525231010805/25/19 23:10:31  5-MIN KARA 260510Z AUTO 16005KT 10SM CLR 23/23 A3011 -140 97 800 160/05 RMK AO2 T02330228
53915KARA ARA20190525231510905/25/19 23:15:31  5-MIN KARA 260515Z AUTO 14005KT 10SM CLR 23/23 A3010 -140 100 800 140/05 RMK AO2 T02280228
53915KARA ARA20190525232010805/25/19 23:20:31  5-MIN KARA 260520Z AUTO 14005KT 10SM CLR 23/22 A3010 -140 97 800 140/05 RMK AO2 T02280222
53915KARA ARA20190525232510805/25/19 23:25:31  5-MIN KARA 260525Z AUTO 14005KT 10SM CLR 23/22 A3010 -140 97 800 140/05 RMK AO2 T02280222
53915KARA ARA20190525233010805/25/19 23:30:31  5-MIN KARA 260530Z AUTO 14005KT 10SM CLR 23/22 A3010 -140 97 800 140/05 RMK AO2 T02280222
53915KARA ARA20190525233510805/25/19 23:35:31  5-MIN KARA 260535Z AUTO 14005KT 10SM CLR 23/22 A3010 -140 97 800 140/05 RMK AO2 T02280222
53915KARA ARA20190525234010805/25/19 23:40:31  5-MIN KARA 260540Z AUTO 13004KT 10SM CLR 23/22 A3010 -130 97 800 130/04 RMK AO2 T02280222
53915KARA ARA20190525234510805/25/19 23:45:31  5-MIN KARA 260545Z AUTO 13004KT 10SM CLR 23/22 A3010 -130 97 800 130/04 RMK AO2 T02280222
53915KARA ARA20190525235014305/25/19 23:50:31  5-MIN KARA 260550Z AUTO 14004KT 10SM CLR 23/22 A3010 -130 97 800 140/04 RMK AO2 SLP191 T02280222 10283 20228 403280217 53009
53915KARA ARA20190525235510805/25/19 23:55:31  5-MIN KARA 260555Z AUTO 14005KT 10SM CLR 23/22 A3010 -130 97 800 140/05 RMK AO2 T02280222
53915KARA ARA20190526000010805/26/19 00:00:31  5-MIN KARA 260600Z AUTO 14005KT 10SM CLR 23/22 A3010 -130 97 800 140/05 RMK AO2 T02280222
53915KARA ARA20190526000510805/26/19 00:05:31  5-MIN KARA 260605Z AUTO 14005KT 10SM CLR 23/22 A3010 -130 97 800 140/05 RMK AO2 T02280222
53915KARA ARA20190526001010805/26/19 00:10:31  5-MIN KARA 260610Z AUTO 14004KT 10SM CLR 23/22 A3010 -130 97 800 140/04 RMK AO2 T02280222
53915KARA ARA20190526001510805/26/19 00:15:31  5-MIN KARA 260615Z AUTO 14004KT 10SM CLR 23/22 A3010 -130 97 800 140/04 RMK AO2 T02280222
53915KARA ARA20190526002010905/26/19 00:20:31  5-MIN KARA 260620Z AUTO 14004KT 10SM CLR 23/23 A3009 -130 100 800 140/04 RMK AO2 T02280228
53915KARA ARA20190526002510905/26/19 00:25:31  5-MIN KARA 260625Z AUTO 14004KT 10SM CLR 23/23 A3009 -130 100 800 140/04 RMK AO2 T02280228
53915KARA ARA20190526003010805/26/19 00:30:31  5-MIN KARA 260630Z AUTO 13005KT 10SM CLR 23/22 A3009 -120 97 800 130/05 RMK AO2 T02280222
53915KARA ARA20190526003510905/26/19 00:35:31  5-MIN KARA 260635Z AUTO 13005KT 10SM CLR 23/23 A3009 -120 100 800 130/05 RMK AO2 T02280228
53915KARA ARA20190526004020205/26/19 00:40:31  5-MIN KARA 260640Z AUTO 13005KT 10SM CLR 23/23 A3009 -120 100 800 130/05 RMK AO2 T0228022805/26/19 00:45:31  500 090/04 RMK AO2 RAB03E26 P0000 T0233022897 900 080/03 RMK AO2 T02390233
53915KARA ARA20190526061510605/26/19 06:15:31  5-MIN KARA 261215Z 08003KT 10SM SCT019 24/23 A3012 -150 93 900 080/03 RMK AO2 T02440233
53915KARA ARA20190526062010605/26/19 06:20:31  5-MIN KARA 261220Z 08003KT 10SM FEW019 24/23 A3012 -160 93 900 070/03 RMK AO2 T02440233
53915KARA ARA20190526062510605/26/19 06:25:31  5-MIN KARA 261225Z 07003KT 10SM FEW018 24/23 A3013 -160 93 900 070/03 RMK AO2 T02440233
53915KARA ARA20190526063010605/26/19 06:30:31  5-MIN KARA 261230Z 06003KT 10SM FEW018 24/23 A3013 -160 93 900 060/03 RMK AO2 T02440233
53915KARA ARA20190526063510605/26/19 06:35:31  5-MIN KARA 261235Z 06003KT 10SM FEW018 24/23 A3013 -170 93 900 060/03 RMK AO2 T02440233
53915KARA ARA20190526064010705/26/19 06:40:31  5-MIN KARA 261240Z 00000KT 10SM FEW018 25/23 A3013 -170 90 1000 000/00 RMK AO2 T02500233
53915KARA ARA20190526064510705/26/19 06:45:31  5-MIN KARA 261245Z 00000KT 10SM FEW018 25/23 A3014 -170 90 1000 000/00 RMK AO2 T02500233
53915KARA ARA20190526065011405/26/19 06:50:31  5-MIN KARA 261250Z 07003KT 10SM FEW018 25/23 A3013 -170 90 1000 070/03 RMK AO2 SLP203 T02500233
53915KARA ARA20190526065510705/26/19 06:55:31  5-MIN KARA 261255Z 09003KT 10SM FEW018 25/24 A3013 -160 93 1000 080/03 RMK AO2 T02500239
53915KARA ARA20190526070010705/26/19 07:00:31  5-MIN KARA 261300Z 09004KT 10SM FEW018 25/23 A3013 -170 90 1000 090/04 RMK AO2 T02500233
53915KARA ARA20190526070510705/26/19 07:05:31  5-MIN KARA 261305Z 09004KT 10SM FEW018 25/24 A3013 -160 93 1000 090/04 RMK AO2 T02500239
53915KARA ARA20190526071010705/26/19 07:10:31  5-MIN KARA 261310Z 10005KT 10SM SCT018 25/24 A3013 -160 93 1000 100/05 RMK AO2 T02500239
53915KARA ARA20190526071510705/26/19 07:15:31  5-MIN KARA 261315Z 10006KT 10SM FEW018 25/24 A3013 -160 93 1000 100/06 RMK AO2 T02500239
53915KARA ARA20190526072010705/26/19 07:20:31  5-MIN KARA 261320Z 10005KT 10SM FEW018 25/24 A3013 -160 93 1000 100/05 RMK AO2 T02500239
53915KARA ARA20190526072510705/26/19 07:25:31  5-MIN KARA 261325Z 10005KT 10SM FEW018 26/24 A3013 -160 90 1100 100/05 RMK AO2 T02560239
53915KARA ARA20190526073010705/26/19 07:30:31  5-MIN KARA 261330Z 10005KT 10SM FEW018 26/24 A3013 -170 90 1100 100/05 RMK AO2 T02560239
53915KARA ARA20190526073510705/26/19 07:35:31  5-MIN KARA 261335Z 08004KT 10SM SCT018 26/24 A3014 -170 90 1100 080/04 RMK AO2 T02560239
53915KARA ARA20190526074010705/26/19 07:40:31  5-MIN KARA 261340Z 10004KT 10SM SCT018 26/24 A3014 -170 87 1100 100/04 RMK AO2 T02610239
53915KARA ARA20190526074510705/26/19 07:45:31  5-MIN KARA 261345Z 09004KT 10SM BKN018 26/24 A3014 -170 87 1100 090/04 RMK AO2 T02610239
53915KARA ARA20190526075009705/26/19 07:50:31  5-MIN KARA 261350Z 09004KT 10SM BKN018 26/24 A3014 -170 87 1100 090/04 RMK AO2
53915KARA ARA20190526075510705/26/19 07:55:31  5-MIN KARA 261355Z 10004KT 10SM SCT018 27/24 A3014 -170 84 1200 100/04 RMK AO2 T02670239
53915KARA ARA20190526080010705/26/19 08:00:31  5-MIN KARA 261400Z 13003KT 10SM SCT018 27/24 A3014 -170 84 1200 130/03 RMK AO2 T02670239
53915KARA ARA20190526080510705/26/19 08:05:31  5-MIN KARA 261405Z 10004KT 10SM SCT018 27/24 A3015 -180 84 1200 100/04 RMK AO2 T02670239
53915KARA ARA20190526081010705/26/19 08:10:31  5-MIN KARA 261410Z 00000KT 10SM SCT018 27/24 A3014 -180 82 1200 000/00 RMK AO2 T02720239
53915KARA ARA20190526081510705/26/19 08:15:31  5-MIN KARA 261415Z 09003KT 10SM SCT018 27/24 A3014 -180 82 1200 090/03 RMK AO2 T02720239
53915KARA ARA20190526082011405/26/19 08:20:31  5-MIN KARA 261420Z 15003KT 10SM BKN016 BKN027 27/24 A3015 -180 82 1200 150/03 RMK AO2 T02720239
53915KARA ARA20190526082510705/26/19 08:25:31  5-MIN KARA 261425Z 11004KT 10SM BKN016 27/24 A3015 -180 82 1200 110/04 RMK AO2 T02720239
53915KARA ARA20190526083010705/26/19 08:30:31  5-MIN KARA 261430Z 00000KT 10SM BKN016 27/23 A3015 -180 79 1200 000/00 RMK AO2 T02720233
53915KARA ARA20190526083510705/26/19 08:35:31  5-MIN KARA 261435Z 00000KT 10SM BKN016 28/23 A3015 -180 76 1300 000/00 RMK AO2 T02780233
53915KARA ARA20190526084011405/26/19 08:40:31  5-MIN KARA 261440Z 12007KT 10SM BKN017 BKN025 28/23 A3015 -180 74 1300 120/07 RMK AO2 T02830233
53915KARA ARA20190526084511405/26/19 08:45:31  5-MIN KARA 261445Z VRB03KT 10SM BKN017 BKN025 28/23 A3015 -180 74 1300 VRB/03 RMK AO2 T02780228
53915KARA ARA20190526085012705/26/19 08:50:31  5-MIN KARA 261450Z 16005KT 10SM SCT020 BKN026 28/23 A3015 -180 74 1400 160/05 RMK AO2 SLP208 T02830233 53010
53915KARA ARA20190526085511405/26/19 08:55:31  5-MIN KARA 261455Z 00000KT 10SM FEW020 SCT026 28/23 A3015 -180 74 1300 000/00 RMK AO2 T02780228
53915KARA ARA20190526090011405/26/19 09:00:31  5-MIN KARA 261500Z 18004KT 10SM SCT020 SCT026 28/23 A3014 -170 74 1300 170/04 RMK AO2 T02780228
53915KARA ARA20190526090510705/26/19 09:05:31  5-MIN KARA 261505Z 14006KT 10SM SCT023 28/23 A3014 -170 71 1400 130/06 RMK AO2 T02830228
53915KARA ARA20190526091010705/26/19 09:10:31  5-MIN KARA 261510Z 14006KT 10SM SCT023 28/23 A3014 -170 74 1300 140/06 RMK AO2 T02780228
53915KARA ARA20190526091510705/26/19 09:15:31  5-MIN KARA 261515Z 00000KT 10SM FEW023 28/23 A3014 -170 74 1300 000/00 RMK AO2 T02780228
53915KARA ARA20190526092010705/26/19 09:20:31  5-MIN KARA 261520Z 15006KT 10SM FEW023 28/23 A3014 -170 71 1400 150/06 RMK AO2 T02830228
53915KARA ARA20190526092510705/26/19 09:25:31  5-MIN KARA 261525Z VRB05KT 10SM FEW022 29/23 A3014 -170 69 1400 VRB/05 RMK AO2 T02890228
53915KARA ARA20190526093010405/26/19 09:30:31  5-MIN KARA 261530Z VRB05KT 10SM CLR 29/22 A3014 -170 67 1400 VRB/05 RMK AO2 T02890222
53915KARA ARA20190526093510705/26/19 09:35:31  5-MIN KARA 261535Z 14004KT 10SM FEW030 28/22 A3014 -170 69 1400 140/04 RMK AO2 T02830222
53915KARA ARA20190526094010705/26/19 09:40:31  5-MIN KARA 261540Z 17009KT 10SM FEW028 29/22 A3014 -170 67 1400 170/09 RMK AO2 T02890222
53915KARA ARA20190526094510705/26/19 09:45:31  5-MIN KARA 261545Z 18006KT 10SM FEW028 29/22 A3014 -170 64 1400 180/06 RMK AO2 T02890217
53915KARA ARA20190526095011405/26/19 09:50:31  5-MIN KARA 261550Z 17005KT 10SM FEW030 28/22 A3014 -170 69 1400 170/05 RMK AO2 SLP205 T02830222
53915KARA ARA20190526095511405/26/19 09:55:31  5-MIN KARA 261555Z 18005KT 10SM SCT030 SCT038 29/22 A3014 -170 64 1400 180/05 RMK AO2 T02890217
53915KARA ARA20190526100011405/26/19 10:00:31  5-MIN KARA 261600Z 19005KT 10SM SCT029 BKN040 29/22 A3014 -170 67 1400 190/05 RMK AO2 T02890222
53915KARA ARA20190526100511405/26/19 10:05:31  5-MIN KARA 261605Z 17005KT 10SM BKN031 BKN042 29/22 A3014 -170 67 1400 170/05 RMK AO2 T02890222
53915KARA ARA20190526101011405/26/19 10:10:31  5-MIN KARA 261610Z VRB06KT 10SM SCT031 BKN042 30/22 A3014 -170 60 1500 VRB/06 RMK AO2 T03000217
53915KARA ARA20190526101511405/26/19 10:15:31  5-MIN KARA 261615Z 16005KT 10SM FEW030 BKN037 29/22 A3014 -170 64 1400 160/05 RMK AO2 T02890217
53915KARA ARA20190526102010705/26/19 10:20:31  5-MIN KARA 261620Z VRB04KT 10SM BKN034 29/22 A3014 -170 64 1400 VRB/04 RMK AO2 T02890217
53915KARA ARA20190526102511405/26/19 10:25:31  5-MIN KARA 261625Z VRB04KT 10SM BKN034 BKN043 30/21 A3014 -170 58 1500 VRB/04 RMK AO2 T03000211
53915KARA ARA20190526103011405/26/19 10:30:31  5-MIN KARA 261630Z 12006KT 10SM BKN036 BKN043 31/22 A3014 -170 58 1600 120/06 RMK AO2 T03060217
53915KARA ARA20190526103511405/26/19 10:35:31  5-MIN KARA 261635Z VRB03KT 10SM SCT036 BKN043 30/22 A3014 -170 62 1500 VRB/03 RMK AO2 T03000222
53915KARA ARA20190526104011405/26/19 10:40:31  5-MIN KARA 261640Z 19008KT 10SM SCT036 BKN043 31/22 A3014 -170 58 1600 190/08 RMK AO2 T03060217
53915KARA ARA20190526104511405/26/19 10:45:31  5-MIN KARA 261645Z VRB05KT 10SM SCT036 SCT044 31/22 A3014 -170 60 1600 VRB/05 RMK AO2 T03060222
53915KARA ARA20190526105012105/26/19 10:50:31  5-MIN KARA 261650Z VRB05KT 10SM FEW036 SCT044 31/21 A3014 -170 56 1600 VRB/05 RMK AO2 SLP204 T03060211
53915KARA ARA20190526105510705/26/19 10:55:31  5-MIN KARA 261655Z VRB05KT 10SM FEW039 30/21 A3014 -170 58 1600 VRB/05 RMK AO2 T03000211
53915KARA ARA20190526110010405/26/19 11:00:31  5-MIN KARA 261700Z 14007KT 10SM CLR 31/21 A3014 -170 56 1600 140/07 RMK AO2 T03060211
53915KARA ARA20190526110510405/26/19 11:05:31  5-MIN KARA 261705Z VRB06KT 10SM CLR 31/21 A3014 -170 54 1600 VRB/06 RMK AO2 T03060206
53915KARA ARA20190526111010405/26/19 11:10:31  5-MIN KARA 261710Z 17008KT 10SM CLR 31/21 A3013 -170 54 1600 160/08 RMK AO2 T03060206
53915KARA ARA20190526111510405/26/19 11:15:31  5-MIN KARA 261715Z 20007KT 10SM CLR 31/21 A3013 -170 53 1700 200/07 RMK AO2 T03110206
53915KARA ARA20190526112010405/26/19 11:20:31  5-MIN KARA 261720Z 13006KT 10SM CLR 31/21 A3014 -170 56 1600 130/06 RMK AO2 T03060211
53915KARA ARA20190526112510705/26/19 11:25:31  5-MIN KARA 261725Z 15006KT 10SM FEW044 31/21 A3014 -170 56 1600 150/06 RMK AO2 T03060211
53915KARA ARA20190526113010705/26/19 11:30:31  5-MIN KARA 261730Z 17008KT 10SM SCT044 30/21 A3014 -170 56 1500 170/08 RMK AO2 T03000206
53915KARA ARA20190526113512305/26/19 11:35:31  5-MIN KARA 261735Z 19009KT 140V230 10SM SCT044 31/21 A3014 -170 54 1700 190/09 140V230 RMK AO2 T03110211
53915KARA ARA20190526114011405/26/19 11:40:31  5-MIN KARA 261740Z 18008KT 10SM SCT043 BKN055 31/21 A3013 -170 56 1600 170/08 RMK AO2 T03060211
53915KARA ARA20190526114511405/26/19 11:45:31  5-MIN KARA 261745Z 21008KT 10SM SCT043 SCT055 31/21 A3013 -170 54 1700 210/08 RMK AO2 T03110211
53915KARA ARA20190526115013905/26/19 11:50:31  5-MIN KARA 261750Z 18010KT 10SM SCT043 SCT055 31/21 A3014 -170 56 1600 180/10 RMK AO2 SLP204 T03060211 10311 20239 51005
53915KARA ARA20190526115513005/26/19 11:55:31  5-MIN KARA 261755Z 17009KT 120V200 10SM SCT043 SCT055 31/21 A3013 -170 54 1700 170/09 120V200 RMK AO2 T03110211
53915KARA ARA20190526120011405/26/19 12:00:31  5-MIN KARA 261800Z 16007KT 10SM FEW043 FEW055 31/21 A3013 -170 56 1600 160/07 RMK AO2 T03060211
53915KARA ARA20190526120513605/26/19 12:05:31  5-MIN KARA 261805Z 21010G16KT 160V230 10SM FEW045 FEW055 31/21 A3013 -160 56 1600 210/10G16 160V230 RMK AO2 T03060211
53915KARA ARA20190526121012005/26/19 12:10:31  5-MIN KARA 261810Z VRB06G16KT 10SM FEW047 FEW055 32/20 A3013 -160 49 1700 VRB/06G16 RMK AO2 T03170200
53915KARA ARA20190526121511005/26/19 12:15:31  5-MIN KARA 261815Z 17011G15KT 10SM CLR 32/21 A3013 -160 51 1700 170/11G15 RMK AO2 T03170206
53915KARA ARA20190526122011005/26/19 12:20:31  5-MIN KARA 261820Z 18008G15KT 10SM CLR 31/21 A3013 -160 53 1700 170/08G15 RMK AO2 T03110206
53915KARA ARA20190526122510705/26/19 12:25:31  5-MIN KARA 261825Z 21009KT 10SM FEW050 31/21 A3013 -160 53 1700 210/09 RMK AO2 T03110206
53915KARA ARA20190526123011005/26/19 12:30:31  5-MIN KARA 261830Z 17010G15KT 10SM CLR 32/21 A3013 -160 51 1700 170/10G15 RMK AO2 T03170206
53915KARA ARA20190526123512005/26/19 12:35:31  5-MIN KARA 261835Z 19008KT 160V220 10SM CLR 32/21 A3012 -160 51 1800 190/08 160V220 RMK AO2 T03170206
53915KARA ARA20190526124010405/26/19 12:40:31  5-MIN KARA 261840Z 20010KT 10SM CLR 31/21 A3012 -160 53 1700 200/10 RMK AO2 T03110206
53915KARA ARA20190526124511005/26/19 12:45:31  5-MIN KARA 261845Z 21010G16KT 10SM CLR 32/21 A3012 -160 51 1800 210/10G16 RMK AO2 T03170206
53915KARA ARA20190526125011705/26/19 12:50:31  5-MIN KARA 261850Z 19009G16KT 10SM CLR 32/21 A3012 -150 51 1800 190/09G16 RMK AO2 SLP199 T03170206
53915KARA ARA20190526125510405/26/19 12:55:31  5-MIN KARA 261855Z 19008KT 10SM CLR 31/20 A3012 -150 51 1700 190/08 RMK AO2 T03110200
53915KARA ARA20190526130011005/26/19 13:00:31  5-MIN KARA 261900Z 18009G14KT 10SM CLR 31/20 A3012 -150 51 1700 180/09G14 RMK AO2 T03110200
53915KARA ARA20190526130511005/26/19 13:05:31  5-MIN KARA 261905Z 18008G14KT 10SM CLR 31/21 A3012 -150 53 1700 180/08G14 RMK AO2 T03110206
53915KARA ARA20190526131010405/26/19 13:10:31  5-MIN KARA 261910Z 21009KT 10SM CLR 32/21 A3012 -150 51 1800 210/09 RMK AO2 T03170206
53915KARA ARA20190526131510405/26/19 13:15:31  5-MIN KARA 261915Z 19008KT 10SM CLR 32/21 A3011 -150 51 1800 190/08 RMK AO2 T03170206
53915KARA ARA20190526132010405/26/19 13:20:31  5-MIN KARA 261920Z 18008KT 10SM CLR 31/21 A3012 -150 53 1700 180/08 RMK AO2 T03110206
53915KARA ARA20190526132512005/26/19 13:25:31  5-MIN KARA 261925Z 20008KT 150V230 10SM CLR 32/21 A3011 -150 51 1800 200/08 150V230 RMK AO2 T03170206
53915KARA ARA20190526133010405/26/19 13:30:31  5-MIN KARA 261930Z 20007KT 10SM CLR 32/21 A3011 -150 51 1800 200/07 RMK AO2 T03170206
53915KARA ARA20190526133512005/26/19 13:35:31  5-MIN KARA 261935Z 19008KT 160V230 10SM CLR 31/21 A3011 -140 53 1700 190/08 160V230 RMK AO2 T03110206
53915KARA ARA20190526134010405/26/19 13:40:31  5-MIN KARA 261940Z 18009KT 10SM CLR 31/21 A3011 -140 53 1700 180/09 RMK AO2 T03110206
53915KARA ARA20190526134510405/26/19 13:45:31  5-MIN KARA 261945Z VRB03KT 10SM CLR 32/21 A3011 -140 51 1800 VRB/03 RMK AO2 T03170206
53915KARA ARA20190526135011105/26/19 13:50:31  5-MIN KARA 261950Z 21008KT 10SM CLR 31/21 A3011 -140 53 1700 210/08 RMK AO2 SLP195 T03110206
53915KARA ARA20190526135510705/26/19 13:55:31  5-MIN KARA 261955Z 17010KT 10SM FEW045 31/21 A3011 -140 54 1700 170/10 RMK AO2 T03110211
53915KARA ARA20190526140010705/26/19 14:00:31  5-MIN KARA 262000Z VRB06KT 10SM FEW045 31/21 A3011 -140 53 1700 VRB/06 RMK AO2 T03110206
53915KARA ARA20190526140510705/26/19 14:05:31  5-MIN KARA 262005Z 21006KT 10SM FEW045 31/21 A3010 -140 54 1700 210/06 RMK AO2 T03110211
53915KARA ARA20190526141010705/26/19 14:10:31  5-MIN KARA 262010Z VRB03KT 10SM FEW045 31/21 A3010 -140 54 1700 VRB/03 RMK AO2 T03110211
53915KARA ARA20190526141510705/26/19 14:15:31  5-MIN KARA 262015Z 20006KT 10SM FEW045 31/21 A3010 -140 56 1700 200/06 RMK AO2 T03060211
53915KARA ARA20190526142010705/26/19 14:20:31  5-MIN KARA 262020Z 20007KT 10SM FEW045 31/21 A3010 -130 54 1700 200/07 RMK AO2 T03110211
53915KARA ARA20190526142510705/26/19 14:25:31  5-MIN KARA 262025Z 18008KT 10SM SCT045 31/21 A3010 -130 54 1700 170/08 RMK AO2 T03110211
53915KARA ARA20190526143010705/26/19 14:30:31  5-MIN KARA 262030Z 16006KT 10SM FEW045 31/21 A3009 -130 54 1700 160/06 RMK AO2 T03110211
53915KARA ARA20190526143510705/26/19 14:35:31  5-MIN KARA 262035Z 21005KT 10SM FEW045 32/22 A3009 -130 55 1800 210/05 RMK AO2 T03170217
53915KARA ARA20190526144010705/26/19 14:40:31  5-MIN KARA 262040Z 17006KT 10SM FEW045 31/22 A3009 -130 56 1700 170/06 RMK AO2 T03110217
53915KARA ARA20190526144510705/26/19 14:45:31  5-MIN KARA 262045Z 15008KT 10SM FEW045 31/21 A3009 -130 54 1700 150/08 RMK AO2 T03110211
53915KARA ARA20190526145012005/26/19 14:50:31  5-MIN KARA 262050Z 16006KT 10SM FEW045 32/22 A3009 -130 55 1800 160/06 RMK AO2 SLP188 T03170217 56004
53915KARA ARA20190526145510705/26/19 14:55:31  5-MIN KARA 262055Z VRB03KT 10SM FEW047 32/21 A3009 -120 53 1800 VRB/03 RMK AO2 T03170211
53915KARA ARA20190526150010705/26/19 15:00:31  5-MIN KARA 262100Z 18005KT 10SM FEW047 31/22 A3008 -120 56 1700 180/05 RMK AO2 T03110217
53915KARA ARA20190526150510705/26/19 15:05:31  5-MIN KARA 262105Z 00000KT 10SM SCT045 31/21 A3008 -120 54 1700 000/00 RMK AO2 T03110211
53915KARA ARA20190526151010705/26/19 15:10:31  5-MIN KARA 262110Z 21003KT 10SM SCT045 31/22 A3008 -120 56 1700 210/03 RMK AO2 T03110217
53915KARA ARA20190526151509705/26/19 15:15:31  5-MIN KARA 262115Z 10SM SCT045 31/22 A3008 -120 56 1700 M /M RMK AO2 T03110217
53915KARA ARA20190526152010705/26/19 15:20:31  5-MIN KARA 262120Z 17008KT 10SM SCT045 31/22 A3008 -120 56 1700 160/08 RMK AO2 T03110217
53915KARA ARA20190526152510705/26/19 15:25:31  5-MIN KARA 262125Z VRB06KT 10SM SCT045 31/22 A3008 -110 56 1700 VRB/06 RMK AO2 T03110217
53915KARA ARA20190526153010705/26/19 15:30:31  5-MIN KARA 262130Z VRB04KT 10SM SCT045 31/22 A3008 -110 56 1700 VRB/04 RMK AO2 T03110217
53915KARA ARA20190526153510705/26/19 15:35:31  5-MIN KARA 262135Z 17006KT 10SM BKN043 31/22 A3007 -110 56 1700 170/06 RMK AO2 T03110217
53915KARA ARA20190526154010705/26/19 15:40:31  5-MIN KARA 262140Z 17008KT 10SM BKN043 32/22 A3007 -110 56 1800 170/08 RMK AO2 T03170222
53915KARA ARA20190526154511405/26/19 15:45:31  5-MIN KARA 262145Z VRB03KT 10SM SCT043 SCT050 31/22 A3007 -110 56 1700 VRB/03 RMK AO2 T03110217
53915KARA ARA20190526155013705/26/19 15:50:31  5-MIN KARA 262150Z 19007KT 130V220 10SM SCT041 BKN049 31/22 A3007 -110 58 1700 190/07 130V220 RMK AO2 SLP181 T03110222
53915KARA ARA20190526155511405/26/19 15:55:31  5-MIN KARA 262155Z 20006KT 10SM SCT041 BKN049 31/22 A3007 -110 58 1700 200/06 RMK AO2 T03110222
53915KARA ARA20190526160011405/26/19 16:00:31  5-MIN KARA 262200Z 18006KT 10SM SCT041 SCT050 31/22 A3007 -100 60 1700 180/06 RMK AO2 T03060222
53915KARA ARA20190526160511405/26/19 16:05:31  5-MIN KARA 262205Z 21009KT 10SM SCT043 SCT050 31/22 A3007 -100 58 1800 210/09 RMK AO2 T03110222
53915KARA ARA20190526161011405/26/19 16:10:31  5-MIN KARA 262210Z 18008KT 10SM BKN043 BKN050 31/22 A3007 -100 60 1700 180/08 RMK AO2 T03060222
53915KARA ARA20190526161510705/26/19 16:15:31  5-MIN KARA 262215Z 19009KT 10SM BKN041 31/22 A3007 -110 58 1800 190/09 RMK AO2 T03110222
53915KARA ARA20190526162010705/26/19 16:20:31  5-MIN KARA 262220Z 22006KT 10SM SCT041 30/22 A3007 -100 60 1600 220/06 RMK AO2 T03000217
53915KARA ARA20190526162510705/26/19 16:25:31  5-MIN KARA 262225Z 18008KT 10SM SCT041 31/22 A3006 -100 60 1700 180/08 RMK AO2 T03060222
53915KARA ARA20190526163010705/26/19 16:30:31  5-MIN KARA 262230Z 19008KT 10SM SCT042 31/22 A3006 -100 58 1800 180/08 RMK AO2 T03110222
53915KARA ARA20190526163510705/26/19 16:35:31  5-MIN KARA 262235Z 18008KT 10SM FEW042 31/22 A3006 -100 60 1700 180/08 RMK AO2 T03060222
53915KARA ARA20190526164010605/26/19 16:40:31  5-MIN KARA 262240Z 18007KT 10SM FEW041 31/22 A3006 -90 58 1700 180/07 RMK AO2 T03060217
53915KARA ARA20190526164510605/26/19 16:45:31  5-MIN KARA 262245Z 18007KT 10SM FEW041 31/22 A3006 -90 58 1700 170/07 RMK AO2 T03060217
53915KARA ARA20190526165011005/26/19 16:50:31  5-MIN KARA 262250Z 20010KT 10SM CLR 31/22 A3005 -90 58 1700 190/10 RMK AO2 SLP176 T03060217
53915KARA ARA20190526165510305/26/19 16:55:31  5-MIN KARA 262255Z 18009KT 10SM CLR 31/22 A3005 -90 58 1700 180/09 RMK AO2 T03060217
53915KARA ARA20190526170010305/26/19 17:00:31  5-MIN KARA 262300Z 17010KT 10SM CLR 31/22 A3005 -90 58 1700 170/10 RMK AO2 T03060217
53915KARA ARA20190526170510305/26/19 17:05:31  5-MIN KARA 262305Z 17010KT 10SM CLR 31/22 A3005 -90 58 1700 170/10 RMK AO2 T03060217
53915KARA ARA20190526171010305/26/19 17:10:31  5-MIN KARA 262310Z 19009KT 10SM CLR 30/22 A3005 -90 60 1600 190/09 RMK AO2 T03000217
53915KARA ARA20190526171510305/26/19 17:15:31  5-MIN KARA 262315Z 17009KT 10SM CLR 30/22 A3005 -90 60 1600 170/09 RMK AO2 T03000217
53915KARA ARA20190526172010305/26/19 17:20:31  5-MIN KARA 262320Z 18009KT 10SM CLR 30/22 A3005 -90 60 1700 180/09 RMK AO2 T03000217
53915KARA ARA20190526172510305/26/19 17:25:31  5-MIN KARA 262325Z 19008KT 10SM CLR 30/22 A3005 -90 60 1700 180/08 RMK AO2 T03000217
53915KARA ARA20190526173010305/26/19 17:30:31  5-MIN KARA 262330Z 19009KT 10SM CLR 30/22 A3005 -90 60 1700 190/09 RMK AO2 T03000217
53915KARA ARA20190526173510305/26/19 17:35:31  5-MIN KARA 262335Z 18009KT 10SM CLR 30/22 A3005 -90 60 1700 180/09 RMK AO2 T03000217
53915KARA ARA20190526174010305/26/19 17:40:31  5-MIN KARA 262340Z 18010KT 10SM CLR 30/22 A3005 -90 60 1700 180/10 RMK AO2 T03000217
53915KARA ARA20190526174510305/26/19 17:45:31  5-MIN KARA 262345Z 18010KT 10SM CLR 29/22 A3005 -90 62 1600 180/10 RMK AO2 T02940217
53915KARA ARA20190526175012805/26/19 17:50:31  5-MIN KARA 262350Z 20009KT 10SM CLR 29/22 A3005 -90 62 1600 200/09 RMK AO2 SLP175 T02940217 10317 20294 58016
53915KARA ARA20190526175510305/26/19 17:55:31  5-MIN KARA 262355Z 20008KT 10SM CLR 29/22 A3005 -90 62 1600 200/08 RMK AO2 T02940217
53915KARA ARA20190526180010305/26/19 18:00:31  5-MIN KARA 270000Z 20010KT 10SM CLR 29/22 A3005 -90 62 1600 200/10 RMK AO2 T02940217
53915KARA ARA20190526180510305/26/19 18:05:31  5-MIN KARA 270005Z 19009KT 10SM CLR 29/22 A3005 -90 64 1500 190/09 RMK AO2 T02890217
53915KARA ARA20190526181010305/26/19 18:10:31  5-MIN KARA 270010Z 19008KT 10SM CLR 29/22 A3005 -90 64 1500 190/08 RMK AO2 T02890217
53915KARA ARA20190526181510305/26/19 18:15:31  5-MIN KARA 270015Z 19007KT 10SM CLR 29/22 A3005 -90 64 1500 190/07 RMK AO2 T02890217
53915KARA ARA20190526182010305/26/19 18:20:31  5-MIN KARA 270020Z 18009KT 10SM CLR 29/22 A3005 -90 64 1500 180/09 RMK AO2 T02890217
53915KARA ARA20190526182510305/26/19 18:25:31  5-MIN KARA 270025Z 19008KT 10SM CLR 28/22 A3005 -90 66 1500 190/08 RMK AO2 T02830217
53915KARA ARA20190526183010305/26/19 18:30:31  5-MIN KARA 270030Z 19007KT 10SM CLR 28/22 A3005 -90 66 1500 190/07 RMK AO2 T02830217
53915KARA ARA20190526183510305/26/19 18:35:31  5-MIN KARA 270035Z 19007KT 10SM CLR 28/22 A3005 -90 66 1500 190/07 RMK AO2 T02830217
53915KARA ARA20190526184010305/26/19 18:40:31  5-MIN KARA 270040Z 20004KT 10SM CLR 28/22 A3005 -90 69 1400 200/04 RMK AO2 T02780217
53915KARA ARA20190526184510305/26/19 18:45:31  5-MIN KARA 270045Z 19005KT 10SM CLR 28/22 A3005 -90 69 1400 190/05 RMK AO2 T02780217
53915KARA ARA20190526185011005/26/19 18:50:31  5-MIN KARA 270050Z 18006KT 10SM CLR 28/22 A3005 -90 69 1400 180/06 RMK AO2 SLP176 T02780217
53915KARA ARA20190526185510305/26/19 18:55:31  5-MIN KARA 270055Z 18004KT 10SM CLR 28/22 A3005 -90 69 1400 180/04 RMK AO2 T02780217
53915KARA ARA20190526190010405/26/19 19:00:31  5-MIN KARA 270100Z 19005KT 10SM CLR 28/22 A3006 -100 69 1400 190/05 RMK AO2 T02780217
53915KARA ARA20190526190510405/26/19 19:05:31  5-MIN KARA 270105Z 18004KT 10SM CLR 27/22 A3006 -100 71 1300 180/04 RMK AO2 T02720217
53915KARA ARA20190526191010405/26/19 19:10:31  5-MIN KARA 270110Z 18004KT 10SM CLR 27/22 A3006 -100 71 1300 170/04 RMK AO2 T02720217
53915KARA ARA20190526191510405/26/19 19:15:31  5-MIN KARA 270115Z 18004KT 10SM CLR 27/22 A3006 -100 71 1300 170/04 RMK AO2 T02720217
53915KARA ARA20190526192010405/26/19 19:20:31  5-MIN KARA 270120Z 17005KT 10SM CLR 27/22 A3006 -100 73 1300 170/05 RMK AO2 T02670217
53915KARA ARA20190526192510405/26/19 19:25:31  5-MIN KARA 270125Z 17004KT 10SM CLR 27/22 A3006 -100 76 1300 170/04 RMK AO2 T02670222
53915KARA ARA20190526193010905/26/19 19:30:31  5-MIN KARA 270130Z AUTO 18004KT 10SM CLR 27/22 A3006 -100 76 1300 180/04 RMK AO2 T02670222
53915KARA ARA20190526193510905/26/19 19:35:31  5-MIN KARA 270135Z AUTO 18004KT 10SM CLR 27/22 A3006 -100 76 1300 180/04 RMK AO2 T02670222
53915KARA ARA20190526194010905/26/19 19:40:31  5-MIN KARA 270140Z AUTO 17004KT 10SM CLR 26/22 A3006 -100 79 1200 170/04 RMK AO2 T02610222
53915KARA ARA20190526194510905/26/19 19:45:31  5-MIN KARA 270145Z AUTO 17003KT 10SM CLR 26/22 A3006 -100 81 1100 170/03 RMK AO2 T02560222
53915KARA ARA20190526195011605/26/19 19:50:31  5-MIN KARA 270150Z AUTO 17003KT 10SM CLR 26/22 A3006 -100 81 1100 170/03 RMK AO2 SLP178 T02560222
53915KARA ARA20190526195510805/26/19 19:55:31  5-MIN KARA 270155Z AUTO 17003KT 10SM CLR 26/22 A3006 -90 81 1100 160/03 RMK AO2 T02560222
53915KARA ARA20190526200010805/26/19 20:00:31  5-MIN KARA 270200Z AUTO 16004KT 10SM CLR 25/22 A3005 -90 84 1100 150/04 RMK AO2 T02500222
53915KARA ARA20190526200510805/26/19 20:05:31  5-MIN KARA 270205Z AUTO 16005KT 10SM CLR 25/22 A3005 -90 84 1100 160/05 RMK AO2 T02500222
53915KARA ARA20190526201010805/26/19 20:10:31  5-MIN KARA 270210Z AUTO 16006KT 10SM CLR 26/22 A3005 -90 81 1100 160/06 RMK AO2 T02560222
53915KARA ARA20190526201510805/26/19 20:15:31  5-MIN KARA 270215Z AUTO 16004KT 10SM CLR 25/22 A3005 -90 84 1100 160/04 RMK AO2 T02500222
53915KARA ARA20190526202010805/26/19 20:20:31  5-MIN KARA 270220Z AUTO 16005KT 10SM CLR 26/22 A3005 -90 81 1100 160/05 RMK AO2 T02560222
53915KARA ARA20190526202510805/26/19 20:25:31  5-MIN KARA 270225Z AUTO 16005KT 10SM CLR 25/22 A3006 -90 84 1100 160/05 RMK AO2 T02500222
53915KARA ARA20190526203010905/26/19 20:30:31  5-MIN KARA 270230Z AUTO 16005KT 10SM CLR 25/23 A3006 -100 87 1100 160/05 RMK AO2 T02500228
53915KARA ARA20190526203510905/26/19 20:35:31  5-MIN KARA 270235Z AUTO 16005KT 10SM CLR 25/23 A3006 -100 87 1100 160/05 RMK AO2 T02500228
53915KARA ARA20190526204010905/26/19 20:40:31  5-MIN KARA 270240Z AUTO 17005KT 10SM CLR 25/23 A3006 -100 87 1100 160/05 RMK AO2 T02500228
53915KARA ARA20190526204510905/26/19 20:45:31  5-MIN KARA 270245Z AUTO 16005KT 10SM CLR 25/23 A3006 -100 87 1100 160/05 RMK AO2 T02500228
53915KARA ARA20190526205012205/26/19 20:50:31  5-MIN KARA 270250Z AUTO 16005KT 10SM CLR 25/23 A3006 -100 87 1100 160/05 RMK AO2 SLP179 T02500228 56013
53915KARA ARA20190526205510905/26/19 20:55:31  5-MIN KARA 270255Z AUTO 16005KT 10SM CLR 25/23 A3006 -100 87 1100 160/05 RMK AO2 T02500228
53915KARA ARA20190526210010905/26/19 21:00:31  5-MIN KARA 270300Z AUTO 17005KT 10SM CLR 25/23 A3007 -100 87 1100 170/05 RMK AO2 T02500228
53915KARA ARA20190526210510905/26/19 21:05:31  5-MIN KARA 270305Z AUTO 17004KT 10SM CLR 25/23 A3007 -100 87 1100 170/04 RMK AO2 T02500228
53915KARA ARA20190526211010905/26/19 21:10:31  5-MIN KARA 270310Z AUTO 17004KT 10SM CLR 25/23 A3007 -100 87 1100 160/04 RMK AO2 T02500228
53915KARA ARA20190526211510905/26/19 21:15:31  5-MIN KARA 270315Z AUTO 17004KT 10SM CLR 25/23 A3007 -100 87 1100 160/04 RMK AO2 T02500228
53915KARA ARA20190526212010905/26/19 21:20:31  5-MIN KARA 270320Z AUTO 17004KT 10SM CLR 24/23 A3007 -110 90 1000 160/04 RMK AO2 T02440228
53915KARA ARA20190526212510905/26/19 21:25:31  5-MIN KARA 270325Z AUTO 16004KT 10SM CLR 24/23 A3007 -110 90 1000 160/04 RMK AO2 T02440228
53915KARA ARA20190526213010905/26/19 21:30:31  5-MIN KARA 270330Z AUTO 15003KT 10SM CLR 24/23 A3007 -110 90 1000 150/03 RMK AO2 T02440228
53915KARA ARA20190526213510905/26/19 21:35:31  5-MIN KARA 270335Z AUTO 15004KT 10SM CLR 24/23 A3007 -110 90 1000 150/04 RMK AO2 T02440228
53915KARA ARA20190526214010905/26/19 21:40:31  5-MIN KARA 270340Z AUTO 16003KT 10SM CLR 25/23 A3007 -110 87 1100 160/03 RMK AO2 T02500228
53915KARA ARA20190526214510905/26/19 21:45:31  5-MIN KARA 270345Z AUTO 00000KT 10SM CLR 24/23 A3008 -110 90 1000 000/00 RMK AO2 T02440228
53915KARA ARA20190526215011605/26/19 21:50:31  5-MIN KARA 270350Z AUTO 00000KT 10SM CLR 25/23 A3008 -110 87 1100 000/00 RMK AO2 SLP183 T02500228
53915KARA ARA20190526215510905/26/19 21:55:31  5-MIN KARA 270355Z AUTO 00000KT 10SM CLR 24/23 A3007 -110 90 1000 000/00 RMK AO2 T02440228
53915KARA ARA20190526220010905/26/19 22:00:31  5-MIN KARA 270400Z AUTO 00000KT 10SM CLR 24/23 A3007 -110 90 1000 000/00 RMK AO2 T02440228
53915KARA ARA20190526220510905/26/19 22:05:31  5-MIN KARA 270405Z AUTO 00000KT 10SM CLR 24/23 A3007 -110 90 1000 000/00 RMK AO2 T02440228
53915KARA ARA20190526221010805/26/19 22:10:31  5-MIN KARA 270410Z AUTO 17003KT 10SM CLR 24/23 A3007 -110 93 900 170/03 RMK AO2 T02390228
53915KARA ARA20190526221510905/26/19 22:15:31  5-MIN KARA 270415Z AUTO 00000KT 10SM CLR 24/23 A3007 -110 90 1000 000/00 RMK AO2 T02440228
53915KARA ARA20190526222010905/26/19 22:20:31  5-MIN KARA 270420Z AUTO 00000KT 10SM CLR 24/23 A3007 -110 90 1000 000/00 RMK AO2 T02440228
53915KARA ARA20190526222510905/26/19 22:25:31  5-MIN KARA 270425Z AUTO 19003KT 10SM CLR 24/23 A3007 -110 90 1000 190/03 RMK AO2 T02440228
53915KARA ARA20190526223010905/26/19 22:30:31  5-MIN KARA 270430Z AUTO 18003KT 10SM CLR 24/23 A3007 -110 90 1000 180/03 RMK AO2 T02440228
53915KARA ARA20190526223510805/26/19 22:35:31  5-MIN KARA 270435Z AUTO 17003KT 10SM CLR 24/23 A3007 -100 93 900 170/03 RMK AO2 T02390228
53915KARA ARA20190526224010805/26/19 22:40:31  5-MIN KARA 270440Z AUTO 15003KT 10SM CLR 24/23 A3006 -100 93 900 150/03 RMK AO2 T02390228
53915KARA ARA20190526224510805/26/19 22:45:31  5-MIN KARA 270445Z AUTO 15004KT 10SM CLR 24/23 A3006 -100 93 900 140/04 RMK AO2 T02390228
53915KARA ARA20190526225011505/26/19 22:50:31  5-MIN KARA 270450Z AUTO 14004KT 10SM CLR 24/23 A3006 -90 93 1000 140/04 RMK AO2 SLP177 T02390228
53915KARA ARA20190526225510805/26/19 22:55:31  5-MIN KARA 270455Z AUTO 13003KT 10SM CLR 24/23 A3006 -90 93 1000 130/03 RMK AO2 T02390228
53915KARA ARA20190526230010805/26/19 23:00:31  5-MIN KARA 270500Z AUTO 13004KT 10SM CLR 24/23 A3006 -90 93 1000 130/04 RMK AO2 T02390228
53915KARA ARA20190526230510805/26/19 23:05:31  5-MIN KARA 270505Z AUTO 15003KT 10SM CLR 24/23 A3005 -90 93 1000 140/03 RMK AO2 T02390228
53915KARA ARA20190526231010805/26/19 23:10:31  5-MIN KARA 270510Z AUTO 15003KT 10SM CLR 24/23 A3005 -90 93 1000 150/03 RMK AO2 T02390228
53915KARA ARA20190526231510805/26/19 23:15:31  5-MIN KARA 270515Z AUTO 15003KT 10SM CLR 24/23 A3005 -90 93 1000 150/03 RMK AO2 T02390228
53915KARA ARA20190526232010805/26/19 23:20:31  5-MIN KARA 270520Z AUTO 15004KT 10SM CLR 24/23 A3005 -90 93 1000 150/04 RMK AO2 T02390228
53915KARA ARA20190526232510705/26/19 23:25:31  5-MIN KARA 270525Z AUTO 15004KT 10SM CLR 23/23 A3005 -80 97 900 150/04 RMK AO2 T02330228
53915KARA ARA20190526233010805/26/19 23:30:31  5-MIN KARA 270530Z AUTO 14003KT 10SM CLR 24/23 A3004 -80 93 1000 140/03 RMK AO2 T02390228
53915KARA ARA20190526233510805/26/19 23:35:31  5-MIN KARA 270535Z AUTO 13004KT 10SM CLR 24/23 A3004 -80 93 1000 130/04 RMK AO2 T02390228
53915KARA ARA20190526234010805/26/19 23:40:31  5-MIN KARA 270540Z AUTO 13004KT 10SM CLR 24/23 A3004 -80 93 1000 130/04 RMK AO2 T02390228
53915KARA ARA20190526234510805/26/19 23:45:31  5-MIN KARA 270545Z AUTO 14003KT 10SM CLR 24/23 A3004 -80 93 1000 140/03 RMK AO2 T02390228
53915KARA ARA20190526235014305/26/19 23:50:31  5-MIN KARA 270550Z AUTO 15003KT 10SM CLR 24/23 A3004 -80 93 1000 140/03 RMK AO2 SLP173 T02390228 10294 20233 403170222 53004
53915KARA ARA20190526235510805/26/19 23:55:31  5-MIN KARA 270555Z AUTO 16003KT 10SM CLR 24/23 A3004 -80 93 1000 150/03 RMK AO2 T02390228
53915KARA ARA20190527000010805/27/19 00:00:31  5-MIN KARA 270600Z AUTO 00000KT 10SM CLR 24/23 A3004 -80 93 1000 000/00 RMK AO2 T02390228
53915KARA ARA20190527000510705/27/19 00:05:31  5-MIN KARA 270605Z AUTO 00000KT 10SM CLR 23/22 A3004 -80 93 900 000/00 RMK AO2 T02330222
53915KARA ARA20190527001010705/27/19 00:10:31  5-MIN KARA 270610Z AUTO 14003KT 10SM CLR 23/22 A3003 -70 93 900 140/03 RMK AO2 T02330222
53915KARA ARA20190527001510705/27/19 00:15:31  5-MIN KARA 270615Z AUTO 14003KT 10SM CLR 23/23 A3003 -70 97 900 140/03 RMK AO2 T02330228
53915KARA ARA20190527002010805/27/19 00:20:31  5-MIN KARA 270620Z AUTO 15003KT 10SM CLR 24/23 A3003 -70 93 1000 140/03 RMK AO2 T02390228
53915KARA ARA20190527002510805/27/19 00:25:31  5-MIN KARA 270625Z AUTO 14003KT 10SM CLR 24/23 A3002 -70 93 1000 140/03 RMK AO2 T02390228
53915KARA ARA20190527003010805/27/19 00:30:31  5-MIN KARA 270630Z AUTO 13004KT 10SM CLR 24/23 A3002 -60 93 1000 130/04 RMK AO2 T02390228
53915KARA ARA20190527003510705/27/19 00:35:31  5-MIN KARA 270635Z AUTO 12004KT 10SM CLR 23/22 A3002 -60 93 900 120/04 RMK AO2 T02330222
53915KARA ARA20190527004010705/27/19 00:40:31  5-MIN KARA 270640Z AUTO 11005KT 10SM CLR 23/22 A3001 -50 97 900 110/05 RMK AO2 T02280222
53915KARA ARA20190527004510705/27/19 00:45:31  5-MIN KARA 270645Z AUTO 12005KT 10SM CLR 23/22 A3001 -50 93 900 120/05 RMK AO2 T02330222
53915KARA ARA20190527005011405/27/19 00:50:31  5-MIN KARA 270650Z AUTO 13005KT 10SM CLR 23/22 A3000 -50 93 900 130/05 RMK AO2 SLP160 T02330222
53915KARA ARA20190527005510705/27/19 00:55:31  5-MIN KARA 270655Z AUTO 13005KT 10SM CLR 23/22 A3001 -50 93 900 130/05 RMK AO2 T02330222
53915KARA ARA20190527010010705/27/19 01:00:31  5-MIN KARA 270700Z AUTO 13005KT 10SM CLR 23/22 A3000 -40 97 900 130/05 RMK AO2 T02280222
53915KARA ARA20190527010510705/27/19 01:05:31  5-MIN KARA 270705Z AUTO 14004KT 10SM CLR 23/22 A3000 -40 97 900 140/04 RMK AO2 T02280222
53915KARA ARA20190527011010705/27/19 01:10:31  5-MIN KARA 270710Z AUTO 14004KT 10SM CLR 23/22 A3000 -40 97 900 140/04 RMK AO2 T02280222
53915KARA ARA20190527011510705/27/19 01:15:31  5-MIN KARA 270715Z AUTO 15004KT 10SM CLR 23/22 A3000 -40 97 900 150/04 RMK AO2 T02280222
53915KARA ARA20190527012010805/27/19 01:20:31  5-MIN KARA 270720Z AUTO 16003KT 10SM CLR 22/22 A3000 -40 100 800 160/03 RMK AO2 T02220222
53915KARA ARA20190527012510705/27/19 01:25:31  5-MIN KARA 270725Z AUTO 17003KT 10SM CLR 23/22 A3000 -50 97 900 170/03 RMK AO2 T02280222
53915KARA ARA20190527013010705/27/19 01:30:31  5-MIN KARA 270730Z AUTO 17003KT 10SM CLR 23/22 A3001 -50 97 900 170/03 RMK AO2 T02280222
53915KARA ARA20190527013510705/27/19 01:35:31  5-MIN KARA 270735Z AUTO 00000KT 10SM CLR 23/22 A3001 -50 97 900 000/00 RMK AO2 T02280222
53915KARA ARA20190527014010705/27/19 01:40:31  5-MIN KARA 270740Z AUTO 16003KT 10SM CLR 23/22 A3000 -50 93 900 160/03 RMK AO2 T02280217
53915KARA ARA20190527014510705/27/19 01:45:31  5-MIN KARA 270745Z AUTO 16004KT 10SM CLR 23/22 A3000 -50 97 900 160/04 RMK AO2 T02280222
53915KARA ARA20190527015011405/27/19 01:50:31  5-MIN KARA 270750Z AUTO 16003KT 10SM CLR 23/22 A3001 -50 97 900 160/03 RMK AO2 SLP160 T02280222
53915KARA ARA20190527015510705/27/19 01:55:31  5-MIN KARA 270755Z AUTO 15004KT 10SM CLR 22/22 A3000 -40 97 800 150/04 RMK AO2 T02220217
53915KARA ARA20190527020010705/27/19 02:00:31  5-MIN KARA 270800Z AUTO 15004KT 10SM CLR 22/22 A3000 -40 97 800 150/04 RMK AO2 T02220217
53915KARA ARA20190527020510705/27/19 02:05:31  5-MIN KARA 270805Z AUTO 15004KT 10SM CLR 22/22 A3000 -40 97 800 150/04 RMK AO2 T02220217
53915KARA ARA20190527021010705/27/19 02:10:31  5-MIN KARA 270810Z AUTO 14004KT 10SM CLR 22/22 A3000 -40 97 800 140/04 RMK AO2 T02220217
53915KARA ARA20190527021510605/27/19 02:15:31  5-MIN KARA 270815Z AUTO 15004KT 9SM CLR 22/22 A3000 -40 97 800 150/04 RMK AO2 T02220217
53915KARA ARA20190527022010605/27/19 02:20:31  5-MIN KARA 270820Z AUTO 15004KT 7SM CLR 22/22 A3000 -40 97 800 150/04 RMK AO2 T02220217
53915KARA ARA20190527022510905/27/19 02:25:31  5-MIN KARA 270825Z AUTO 14004KT 6SM BR CLR 22/22 A3000 -40 97 800 140/04 RMK AO2 T02220217
53915KARA ARA20190527023011005/27/19 02:30:31  5-MIN KARA 270830Z AUTO 14004KT 6SM BR CLR 22/22 A3000 -40 100 800 130/04 RMK AO2 T02170217
53915KARA ARA20190527023510705/27/19 02:35:31  5-MIN KARA 270835Z AUTO 15004KT 7SM CLR 22/22 A2999 -40 100 800 150/04 RMK AO2 T02170217
53915KARA ARA20190527024010605/27/19 02:40:31  5-MIN KARA 270840Z AUTO 14004KT 8SM CLR 22/22 A2999 -40 97 800 140/04 RMK AO2 T02220217
53915KARA ARA20190527024510605/27/19 02:45:31  5-MIN KARA 270845Z AUTO 12004KT 9SM CLR 22/22 A2999 -30 97 800 120/04 RMK AO2 T02220217
53915KARA ARA20190527025012005/27/19 02:50:31  5-MIN KARA 270850Z AUTO 13004KT 10SM CLR 22/22 A2999 -30 97 800 130/04 RMK AO2 SLP155 T02220217 58007
53915KARA ARA20190527025510705/27/19 02:55:31  5-MIN KARA 270855Z AUTO 13003KT 10SM CLR 22/22 A2999 -30 97 800 130/03 RMK AO2 T02220217
53915KARA ARA20190527030010705/27/19 03:00:31  5-MIN KARA 270900Z AUTO 13004KT 10SM CLR 22/22 A2999 -30 97 800 130/04 RMK AO2 T02220217
53915KARA ARA20190527030510805/27/19 03:05:31  5-MIN KARA 270905Z AUTO 15003KT 10SM CLR 22/22 A2999 -30 100 800 150/03 RMK AO2 T02170217
53915KARA ARA20190527031010705/27/19 03:10:31  5-MIN KARA 270910Z AUTO 15003KT 10SM CLR 22/22 A2999 -30 97 800 150/03 RMK AO2 T02220217
53915KARA ARA20190527031510805/27/19 03:15:31  5-MIN KARA 270915Z AUTO 14005KT 10SM CLR 22/22 A2999 -30 100 800 140/05 RMK AO2 T02170217
53915KARA ARA20190527032010805/27/19 03:20:31  5-MIN KARA 270920Z AUTO 14006KT 10SM CLR 22/22 A2998 -30 100 800 140/06 RMK AO2 T02170217
53915KARA ARA20190527032510705/27/19 03:25:31  5-MIN KARA 270925Z AUTO 14005KT 10SM CLR 22/21 A2998 -30 97 800 140/05 RMK AO2 T02170211
53915KARA ARA20190527033010805/27/19 03:30:31  5-MIN KARA 270930Z AUTO 15005KT 10SM CLR 22/22 A2999 -30 100 800 150/05 RMK AO2 T02170217
53915KARA ARA20190527033511105/27/19 03:35:31  5-MIN KARA 270935Z AUTO 18003KT 10SM FEW023 22/22 A2999 -30 100 800 180/03 RMK AO2 T02170217
53915KARA ARA20190527034011005/27/19 03:40:31  5-MIN KARA 270940Z AUTO 16004KT 10SM FEW023 22/22 A2999 -30 97 800 160/04 RMK AO2 T02220217
53915KARA ARA20190527034511005/27/19 03:45:31  5-MIN KARA 270945Z AUTO 16004KT 10SM FEW021 22/22 A2999 -30 97 800 150/04 RMK AO2 T02220217
53915KARA ARA20190527035011705/27/19 03:50:31  5-MIN KARA 270950Z AUTO 15004KT 10SM FEW021 22/22 A2999 -30 97 800 150/04 RMK AO2 SLP155 T02220217
53915KARA ARA20190527035511005/27/19 03:55:31  5-MIN KARA 270955Z AUTO 14004KT 10SM FEW022 22/22 A2999 -30 97 800 140/04 RMK AO2 T02220217
53915KARA ARA20190527040011005/27/19 04:00:31  5-MIN KARA 271000Z AUTO 14004KT 10SM FEW022 22/22 A2999 -30 97 800 140/04 RMK AO2 T02220217
53915KARA ARA20190527040510705/27/19 04:05:31  5-MIN KARA 271005Z AUTO 14003KT 10SM CLR 22/22 A2999 -40 97 800 140/03 RMK AO2 T02220217
53915KARA ARA20190527041010705/27/19 04:10:31  5-MIN KARA 271010Z AUTO 00000KT 10SM CLR 22/22 A3000 -40 97 800 000/00 RMK AO2 T02220217
53915KARA ARA20190527041510705/27/19 04:15:31  5-MIN KARA 271015Z AUTO 00000KT 9SM CLR 22/22 A3000 -40 100 800 000/00 RMK AO2 T02220222
53915KARA ARA20190527042010605/27/19 04:20:31  5-MIN KARA 271020Z AUTO 00000KT 9SM CLR 23/22 A3000 -40 97 900 000/00 RMK AO2 T02280222
53915KARA ARA20190527042510605/27/19 04:25:31  5-MIN KARA 271025Z AUTO 00000KT 9SM CLR 23/22 A3000 -40 97 900 000/00 RMK AO2 T02280222
53915KARA ARA20190527043010605/27/19 04:30:31  5-MIN KARA 271030Z AUTO 00000KT 9SM CLR 23/22 A3000 -40 97 900 000/00 RMK AO2 T02280222
53915KARA ARA20190527043510105/27/19 04:35:31  5-MIN KARA 271035Z 00000KT 9SM CLR 23/22 A3000 -50 97 900 000/00 RMK AO2 T02280222
53915KARA ARA20190527044010105/27/19 04:40:31  5-MIN KARA 271040Z 00000KT 9SM CLR 23/22 A3000 -50 97 900 000/00 RMK AO2 T02280222
53915KARA ARA20190527044510205/27/19 04:45:31  5-MIN KARA 271045Z 00000KT 10SM CLR 23/22 A3000 -40 97 900 000/00 RMK AO2 T02280222
53915KARA ARA20190527045010905/27/19 04:50:31  5-MIN KARA 271050Z 12004KT 10SM CLR 23/22 A3000 -40 97 900 120/04 RMK AO2 SLP157 T02280222
53915KARA ARA20190527045510305/27/19 04:55:31  5-MIN KARA 271055Z 12005KT 10SM CLR 22/22 A3000 -40 100 800 120/05 RMK AO2 T02220222
53915KARA ARA20190527050010305/27/19 05:00:31  5-MIN KARA 271100Z 13006KT 10SM CLR 22/22 A3000 -40 100 800 130/06 RMK AO2 T02220222
53915KARA ARA20190527050510105/27/19 05:05:31  5-MIN KARA 271105Z 13006KT 8SM CLR 22/22 A2999 -40 97 800 130/06 RMK AO2 T02220217
53915KARA ARA20190527051010205/27/19 05:10:31  5-MIN KARA 271110Z 13006KT 7SM CLR 22/22 A2999 -40 100 800 130/06 RMK AO2 T02220222
53915KARA ARA20190527051510205/27/19 05:15:31  5-MIN KARA 271115Z 13006KT 7SM CLR 22/22 A2999 -40 100 800 130/06 RMK AO2 T02220222
53915KARA ARA20190527052010105/27/19 05:20:31  5-MIN KARA 271120Z 13005KT 7SM CLR 23/22 A2999 -40 97 900 130/05 RMK AO2 T02280222
53915KARA ARA20190527052510205/27/19 05:25:31  5-MIN KARA 271125Z 13004KT 7SM CLR 22/22 A3000 -40 100 800 130/04 RMK AO2 T02220222
53915KARA ARA20190527053010205/27/19 05:30:31  5-MIN KARA 271130Z 13003KT 7SM CLR 22/22 A3000 -40 100 800 130/03 RMK AO2 T02220222
53915KARA ARA20190527053511705/27/19 05:35:31  5-MIN KARA 271135Z 13003KT 7SM -RA CLR 23/22 A3000 -50 97 900 130/03 RMK AO2 RAB34 P0000 T02280222
53915KARA ARA20190527054011705/27/19 05:40:31  5-MIN KARA 271140Z 00000KT 8SM -RA CLR 23/22 A3001 -50 97 900 000/00 RMK AO2 RAB34 P0000 T02280222
53915KARA ARA20190527054511805/27/19 05:45:31  5-MIN KARA 271145Z 00000KT 9SM -RA CLR 23/23 A3001 -50 100 900 000/00 RMK AO2 RAB34 P0000 T02280228
53915KARA ARA20190527055014905/27/19 05:50:31  5-MIN KARA 271150Z 00000KT 8SM -RA CLR 23/23 A3002 -60 100 900 000/00 RMK AO2 RAB34 SLP163 P0000 60000 T02280228 10239 20217 56018
53915KARA ARA20190527055511105/27/19 05:55:31  5-MIN KARA 271155Z 00000KT 8SM -RA CLR 23/23 A3002 -60 97 900 000/00 RMK AO2 P0000 T02330228
53915KARA ARA20190527060011105/27/19 06:00:31  5-MIN KARA 271200Z 00000KT 8SM -RA CLR 23/23 A3002 -60 97 900 000/00 RMK AO2 P0000 T02330228
53915KARA ARA20190527060511205/27/19 06:05:31  5-MIN KARA 271205Z 00000KT 9SM -RA CLR 23/23 A3002 -60 100 900 000/00 RMK AO2 P0000 T02330233
53915KARA ARA20190527061011305/27/19 06:10:31  5-MIN KARA 271210Z 00000KT 10SM -RA CLR 24/23 A3003 -70 97 1000 000/00 RMK AO2 P0000 T02390233
53915KARA ARA20190527061511305/27/19 06:15:31  5-MIN KARA 271215Z 00000KT 10SM -RA CLR 24/23 A3003 -70 97 1000 000/00 RMK AO2 P0000 T02390233
53915KARA ARA20190527062011505/27/19 06:20:31  5-MIN KARA 271220Z 00000KT 10SM CLR 24/23 A3003 -70 93 1000 000/00 RMK AO2 RAE19 P0000 T02440233
53915KARA ARA20190527062511505/27/19 06:25:31  5-MIN KARA 271225Z 00000KT 10SM CLR 24/23 A3003 -70 93 1000 000/00 RMK AO2 RAE19 P0000 T02440233
53915KARA ARA20190527063011505/27/19 06:30:31  5-MIN KARA 271230Z 00000KT 10SM CLR 25/23 A3003 -70 90 1100 000/00 RMK AO2 RAE19 P0000 T02500233
53915KARA ARA20190527063511505/27/19 06:35:31  5-MIN KARA 271235Z 00000KT 10SM CLR 25/23 A3003 -70 90 1100 000/00 RMK AO2 RAE19 P0000 T02500233
53915KARA ARA20190527064011505/27/19 06:40:31  5-MIN KARA 271240Z 12003KT 10SM CLR 25/23 A3003 -70 90 1100 120/03 RMK AO2 RAE19 P0000 T02500233
53915KARA ARA20190527064511505/27/19 06:45:31  5-MIN KARA 271245Z 13003KT 10SM CLR 25/23 A3004 -80 90 1100 130/03 RMK AO2 RAE19 P0000 T02500233
53915KARA ARA20190527065012205/27/19 06:50:31  5-MIN KARA 271250Z 13003KT 10SM CLR 26/23 A3004 -80 87 1200 130/03 RMK AO2 RAE19 SLP172 P0000 T02560233
53915KARA ARA20190527065510305/27/19 06:55:31  5-MIN KARA 271255Z 14003KT 10SM CLR 26/23 A3004 -80 87 1200 140/03 RMK AO2 T02560233
53915KARA ARA20190527070010605/27/19 07:00:31  5-MIN KARA 271300Z 14003KT 10SM FEW027 26/23 A3004 -80 87 1200 140/03 RMK AO2 T02560233
53915KARA ARA20190527070510605/27/19 07:05:31  5-MIN KARA 271305Z 00000KT 10SM FEW027 26/23 A3004 -80 84 1200 000/00 RMK AO2 T02610233
53915KARA ARA20190527071011305/27/19 07:10:31  5-MIN KARA 271310Z 15003KT 10SM FEW027 SCT035 26/23 A3004 -80 84 1200 150/03 RMK AO2 T02610233
53915KARA ARA20190527071511305/27/19 07:15:31  5-MIN KARA 271315Z VRB03KT 10SM SCT025 BKN035 27/23 A3005 -80 82 1300 VRB/03 RMK AO2 T02670233
53915KARA ARA20190527072011305/27/19 07:20:31  5-MIN KARA 271320Z 19003KT 10SM SCT025 BKN035 27/23 A3005 -90 82 1300 190/03 RMK AO2 T02670233
53915KARA ARA20190527072511305/27/19 07:25:31  5-MIN KARA 271325Z 15003KT 10SM FEW025 SCT035 26/23 A3005 -80 81 1200 150/03 RMK AO2 T02610228
53915KARA ARA20190527073011305/27/19 07:30:31  5-MIN KARA 271330Z 16003KT 10SM FEW025 SCT035 27/23 A3005 -90 79 1300 150/03 RMK AO2 T02670228
53915KARA ARA20190527073511305/27/19 07:35:31  5-MIN KARA 271335Z 19004KT 10SM FEW025 SCT035 27/23 A3005 -90 82 1300 190/04 RMK AO2 T02670233
53915KARA ARA20190527074010605/27/19 07:40:31  5-MIN KARA 271340Z 18004KT 10SM FEW025 27/23 A3005 -90 82 1300 170/04 RMK AO2 T02670233
53915KARA ARA20190527074510605/27/19 07:45:31  5-MIN KARA 271345Z 17007KT 10SM FEW024 27/23 A3005 -90 79 1300 170/07 RMK AO2 T02720233
53915KARA ARA20190527075011305/27/19 07:50:31  5-MIN KARA 271350Z 17007KT 10SM FEW024 28/23 A3005 -90 74 1400 170/07 RMK AO2 SLP175 T02780228
53915KARA ARA20190527075511305/27/19 07:55:31  5-MIN KARA 271355Z 18010KT 10SM FEW024 FEW036 28/23 A3005 -90 74 1400 180/10 RMK AO2 T02780228
53915KARA ARA20190527080011305/27/19 08:00:31  5-MIN KARA 271400Z 19009KT 10SM FEW025 SCT036 27/23 A3006 -90 76 1300 190/09 RMK AO2 T02720228
53915KARA ARA20190527080510605/27/19 08:05:31  5-MIN KARA 271405Z 18009KT 10SM SCT034 28/22 A3006 -90 71 1400 180/09 RMK AO2 T02780222
53915KARA ARA20190527081010605/27/19 08:10:31  5-MIN KARA 271410Z 18010KT 10SM SCT034 28/23 A3006 -90 71 1500 180/10 RMK AO2 T02830228
53915KARA ARA20190527081511305/27/19 08:15:31  5-MIN KARA 271415Z 18009KT 10SM FEW029 SCT036 28/23 A3006 -90 71 1500 180/09 RMK AO2 T02830228
53915KARA ARA20190527082011305/27/19 08:20:31  5-MIN KARA 271420Z 18010KT 10SM FEW026 BKN034 29/23 A3006 -90 69 1500 180/10 RMK AO2 T02890228
53915KARA ARA20190527082511305/27/19 08:25:31  5-MIN KARA 271425Z 16009KT 10SM FEW026 BKN034 28/23 A3005 -90 71 1500 160/09 RMK AO2 T02830228
53915KARA ARA20190527083011305/27/19 08:30:31  5-MIN KARA 271430Z 19008KT 10SM SCT029 SCT037 28/22 A3006 -90 69 1500 190/08 RMK AO2 T02830222
53915KARA ARA20190527083511405/27/19 08:35:31  5-MIN KARA 271435Z 18008KT 10SM FEW027 SCT037 29/22 A3006 -100 67 1500 180/08 RMK AO2 T02890222
53915KARA ARA20190527084012105/27/19 08:40:31  5-MIN KARA 271440Z 18008KT 10SM FEW027 SCT034 SCT055 29/22 A3006 -100 67 1500 180/08 RMK AO2 T02890222
53915KARA ARA20190527084511405/27/19 08:45:31  5-MIN KARA 271445Z 18010KT 10SM SCT027 BKN055 29/22 A3006 -100 67 1500 170/10 RMK AO2 T02890222
53915KARA ARA20190527085010305/27/19 08:50:31  5-MIN KARA 271450Z 21010KT 10SM BKN029 BKN055 29/22 A3006 -90 67 1500 200/10 RMK AO2
53915KARA ARA20190527085511405/27/19 08:55:31  5-MIN KARA 271455Z 21008KT 10SM SCT029 BKN055 29/22 A3006 -100 64 1500 210/08 RMK AO2 T02890217
53915KARA ARA20190527090011405/27/19 09:00:31  5-MIN KARA 271500Z 20008KT 10SM SCT028 BKN060 29/22 A3006 -100 64 1500 200/08 RMK AO2 T02890217
53915KARA ARA20190527090512105/27/19 09:05:31  5-MIN KARA 271505Z 21010KT 10SM SCT028 SCT049 BKN060 29/22 A3006 -100 64 1500 210/10 RMK AO2 T02890217
53915KARA ARA20190527091012105/27/19 09:10:31  5-MIN KARA 271510Z 21010KT 10SM SCT028 BKN046 BKN055 28/22 A3006 -100 66 1400 210/10 RMK AO2 T02830217
53915KARA ARA20190527091512105/27/19 09:15:31  5-MIN KARA 271515Z 21007KT 10SM FEW029 SCT037 BKN055 29/22 A3006 -100 67 1500 210/07 RMK AO2 T02890222
53915KARA ARA20190527092012105/27/19 09:20:31  5-MIN KARA 271520Z 19008KT 10SM FEW029 SCT040 SCT055 29/22 A3006 -100 64 1600 190/08 RMK AO2 T02940222
53915KARA ARA20190527092512705/27/19 09:25:31  5-MIN KARA 271525Z 20011G15KT 10SM SCT032 BKN046 BKN055 29/22 A3006 -100 64 1600 200/11G15 RMK AO2 T02940222
53915KARA ARA20190527093012105/27/19 09:30:31  5-MIN KARA 271530Z 20008KT 10SM SCT032 BKN046 BKN060 29/22 A3006 -100 62 1600 190/08 RMK AO2 T02940217
53915KARA ARA20190527093512105/27/19 09:35:31  5-MIN KARA 271535Z 20008KT 10SM SCT032 SCT042 BKN050 29/22 A3006 -100 64 1500 200/08 RMK AO2 T02890217
53915KARA ARA20190527094012105/27/19 09:40:31  5-MIN KARA 271540Z 18009KT 10SM FEW032 SCT042 BKN065 29/22 A3006 -100 64 1500 180/09 RMK AO2 T02890217
53915KARA ARA20190527094512905/27/19 09:45:31  5-MIN KARA 271545Z 19010KT 10SM FEW032 SCT050 SCT065 29/22 A3006 -100 64 1600 62 1600 170/10 RMK AO2 T03000222
53915KARA ARA20190527110010905/27/19 11:00:31  5-MIN KARA 271700Z 19011G15KT 10SM CLR 31/22 A3005 -90 58 1700 190/11G15 RMK AO2 T03060217
53915KARA ARA20190527110510905/27/19 11:05:31  5-MIN KARA 271705Z 21006G15KT 10SM CLR 31/22 A3005 -90 58 1700 210/06G15 RMK AO2 T03060217
53915KARA ARA20190527111011205/27/19 11:10:31  5-MIN KARA 271710Z 20008G14KT 10SM FEW038 30/22 A3005 -90 60 1600 190/08G14 RMK AO2 T03000217
53915KARA ARA20190527111510605/27/19 11:15:31  5-MIN KARA 271715Z 20008KT 10SM FEW038 31/22 A3005 -90 58 1700 200/08 RMK AO2 T03060217
53915KARA ARA20190527112010605/27/19 11:20:31  5-MIN KARA 271720Z 17009KT 10SM FEW038 31/22 A3005 -90 58 1700 170/09 RMK AO2 T03060217
53915KARA ARA20190527112510605/27/19 11:25:31  5-MIN KARA 271725Z 18009KT 10SM SCT038 31/22 A3005 -90 58 1700 180/09 RMK AO2 T03060217
53915KARA ARA20190527113010605/27/19 11:30:31  5-MIN KARA 271730Z 17009KT 10SM SCT038 31/22 A3005 -80 58 1700 170/09 RMK AO2 T03060217
53915KARA ARA20190527113510605/27/19 11:35:31  5-MIN KARA 271735Z 17014KT 10SM SCT038 31/21 A3004 -80 56 1700 170/14 RMK AO2 T03060211
53915KARA ARA20190527114011205/27/19 11:40:31  5-MIN KARA 271740Z 19010G16KT 10SM FEW038 31/21 A3004 -80 56 1700 190/10G16 RMK AO2 T03060211
53915KARA ARA20190527114511305/27/19 11:45:31  5-MIN KARA 271745Z 20010KT 10SM FEW038 SCT070 31/21 A3004 -80 54 1800 200/10 RMK AO2 T03110211
53915KARA ARA20190527115016005/27/19 11:50:31  5-MIN KARA 271750Z 17009KT 150V210 10SM FEW038 FEW070 31/22 A3004 -80 58 1700 170/09 150V210 RMK AO2 SLP171 60000 T03060217 10311 20233 51014
53915KARA ARA20190527115512205/27/19 11:55:31  5-MIN KARA 271755Z 18007KT 160V220 10SM FEW040 31/22 A3003 -70 58 1700 180/07 160V220 RMK AO2 T03060217
53915KARA ARA20190527120010605/27/19 12:00:31  5-MIN KARA 271800Z 22010KT 10SM FEW040 31/21 A3003 -70 54 1800 220/10 RMK AO2 T03110211
53915KARA ARA20190527120507605/27/19 12:05:31  5-MIN KARA 271805Z 20009KT 10SM CLR 31/22 A3003 -70 58 18
53915KARA ARA20190527122011205/27/19 12:20:31  5-MIN KARA 271820Z 22012G17KT 10SM FEW043 31/21 A3003 -70 54 1800 220/12G17 RMK AO2 T03110211
53915KARA ARA20190527122510605/27/19 12:25:31  5-MIN KARA 271825Z 20010KT 10SM FEW041 31/22 A3003 -70 56 1800 200/10 RMK AO2 T03110217
53915KARA ARA20190527123011205/27/19 12:30:31  5-MIN KARA 271830Z 22011G14KT 10SM FEW041 31/22 A3003 -70 56 1800 220/11G14 RMK AO2 T03110217
53915KARA ARA20190527123512805/27/19 12:35:31  5-MIN KARA 271835Z 20011G16KT 170V240 10SM SCT039 31/22 A3002 -60 56 1800 200/11G16 170V240 RMK AO2 T03110217
53915KARA ARA20190527124011205/27/19 12:40:31  5-MIN KARA 271840Z 18013G16KT 10SM SCT039 31/21 A3002 -60 54 1800 180/13G16 RMK AO2 T03110211
53915KARA ARA20190527124511205/27/19 12:45:31  5-MIN KARA 271845Z 17011G17KT 10SM FEW039 31/21 A3002 -60 56 1700 170/11G17 RMK AO2 T03060211
53915KARA ARA20190527125011905/27/19 12:50:31  5-MIN KARA 271850Z 20011G17KT 10SM SCT039 31/21 A3002 -60 54 1800 200/11G17 RMK AO2 SLP165 T03110211
53915KARA ARA20190527125510605/27/19 12:55:31  5-MIN KARA 271855Z 17009KT 10SM SCT041 31/21 A3002 -60 54 1800 170/09 RMK AO2 T03110211
53915KARA ARA20190527130010605/27/19 13:00:31  5-MIN KARA 271900Z 20007KT 10SM SCT041 32/22 A3001 -60 56 1900 200/07 RMK AO2 T03170222
53915KARA ARA20190527130510605/27/19 13:05:31  5-MIN KARA 271905Z 15008KT 10SM FEW041 31/22 A3001 -50 58 1800 150/08 RMK AO2 T03060217
53915KARA ARA20190527131010605/27/19 13:10:31  5-MIN KARA 271910Z 19010KT 10SM FEW041 31/22 A3001 -50 56 1800 190/10 RMK AO2 T03110217
53915KARA ARA20190527131510605/27/19 13:15:31  5-MIN KARA 271915Z 18010KT 10SM FEW041 31/22 A3001 -50 56 1800 180/10 RMK AO2 T03110217
53915KARA ARA20190527132010605/27/19 13:20:31  5-MIN KARA 271920Z 19013KT 10SM FEW041 31/21 A3001 -50 56 1800 180/13 RMK AO2 T03060211
53915KARA ARA20190527132511205/27/19 13:25:31  5-MIN KARA 271925Z 21006G15KT 10SM FEW041 31/21 A3001 -50 54 1800 210/06G15 RMK AO2 T03110211
53915KARA ARA20190527133010605/27/19 13:30:31  5-MIN KARA 271930Z 19012KT 10SM FEW041 31/22 A3001 -50 56 1800 190/12 RMK AO2 T03110217
53915KARA ARA20190527133511205/27/19 13:35:31  5-MIN KARA 271935Z 18008G15KT 10SM FEW039 31/21 A3001 -50 54 1800 180/08G15 RMK AO2 T03110211
53915KARA ARA20190527134010605/27/19 13:40:31  5-MIN KARA 271940Z 16010KT 10SM FEW039 31/22 A3000 -50 56 1800 160/10 RMK AO2 T03110217
53915KARA ARA20190527134510605/27/19 13:45:31  5-MIN KARA 271945Z 17011KT 10SM FEW039 31/22 A3000 -40 56 1800 160/11 RMK AO2 T03110217
53915KARA ARA20190527135011305/27/19 13:50:31  5-MIN KARA 271950Z 21011KT 10SM FEW039 31/21 A3000 -40 54 1800 210/11 RMK AO2 SLP158 T03110211
53915KARA ARA20190527135510605/27/19 13:55:31  5-MIN KARA 271955Z 18011KT 10SM FEW039 31/22 A3000 -40 56 1800 180/11 RMK AO2 T03110217
53915KARA ARA20190527140011205/27/19 14:00:31  5-MIN KARA 272000Z 17012G16KT 10SM SCT039 31/22 A3000 -40 58 1800 170/12G16 RMK AO2 T03110222
53915KARA ARA20190527140511205/27/19 14:05:31  5-MIN KARA 272005Z 20010G16KT 10SM FEW039 31/22 A3000 -40 56 1800 200/10G16 RMK AO2 T03110217
53915KARA ARA20190527141010605/27/19 14:10:31  5-MIN KARA 272010Z 18011KT 10SM FEW040 31/22 A3000 -40 56 1800 180/11 RMK AO2 T03110217
53915KARA ARA20190527141511205/27/19 14:15:31  5-MIN KARA 272015Z 18008G16KT 10SM FEW040 31/21 A3000 -40 54 1800 180/08G16 RMK AO2 T03110211
53915KARA ARA20190527142011205/27/19 14:20:31  5-MIN KARA 272020Z 21012G18KT 10SM FEW040 31/22 A3000 -40 56 1800 200/12G18 RMK AO2 T03110217
53915KARA ARA20190527142511205/27/19 14:25:31  5-MIN KARA 272025Z 17010G18KT 10SM FEW040 31/22 A3000 -40 56 1800 170/10G18 RMK AO2 T03110217
53915KARA ARA20190527143010605/27/19 14:30:31  5-MIN KARA 272030Z 19008KT 10SM SCT040 31/22 A2999 -40 58 1800 190/08 RMK AO2 T03110222
53915KARA ARA20190527143510605/27/19 14:35:31  5-MIN KARA 272035Z 21011KT 10SM SCT038 31/22 A2999 -30 58 1800 210/11 RMK AO2 T03110222
53915KARA ARA20190527144010605/27/19 14:40:31  5-MIN KARA 272040Z 18010KT 10SM SCT038 31/23 A2999 -30 60 1800 180/10 RMK AO2 T03110228
53915KARA ARA20190527144510605/27/19 14:45:31  5-MIN KARA 272045Z 17010KT 10SM FEW038 31/22 A2999 -30 60 1800 170/10 RMK AO2 T03060222
53915KARA ARA20190527145014105/27/19 14:50:31  5-MIN KARA 272050Z 17009G17KT 140V200 10SM FEW038 31/23 A2999 -30 60 1800 170/09G17 140V200 RMK AO2 SLP154 T03110228 58006
53915KARA ARA20190527145511205/27/19 14:55:31  5-MIN KARA 272055Z 19010G17KT 10SM SCT036 32/23 A2999 -30 58 1900 190/10G17 RMK AO2 T03170228
53915KARA ARA20190527150010605/27/19 15:00:31  5-MIN KARA 272100Z 20012KT 10SM SCT034 31/22 A2998 -30 58 1800 200/12 RMK AO2 T03110222
53915KARA ARA20190527150510605/27/19 15:05:31  5-MIN KARA 272105Z 20013KT 10SM FEW034 31/22 A2998 -30 58 1800 200/13 RMK AO2 T03110222
53915KARA ARA20190527151010605/27/19 15:10:31  5-MIN KARA 272110Z 18010KT 10SM FEW034 31/22 A2998 -30 60 1800 180/10 RMK AO2 T03060222
53915KARA ARA20190527151510605/27/19 15:15:31  5-MIN KARA 272115Z 15010KT 10SM SCT036 31/23 A2998 -20 62 1800 150/10 RMK AO2 T03060228
53915KARA ARA20190527152010605/27/19 15:20:31  5-MIN KARA 272120Z 17011KT 10SM SCT036 31/23 A2998 -20 60 1900 170/11 RMK AO2 T03110228
53915KARA ARA20190527152512205/27/19 15:25:31  5-MIN KARA 272125Z 17011KT 140V210 10SM FEW036 31/23 A2998 -20 60 1900 170/11 140V210 RMK AO2 T03110228
53915KARA ARA20190527153010605/27/19 15:30:31  5-MIN KARA 272130Z 18010KT 10SM FEW036 31/22 A2997 -20 58 1900 180/10 RMK AO2 T03110222
53915KARA ARA20190527153510605/27/19 15:35:31  5-MIN KARA 272135Z 17008KT 10SM FEW036 31/22 A2997 -20 60 1800 170/08 RMK AO2 T03060222
53915KARA ARA20190527154010605/27/19 15:40:31  5-MIN KARA 272140Z 18008KT 10SM FEW036 31/23 A2997 -20 62 1800 180/08 RMK AO2 T03060228
53915KARA ARA20190527154510305/27/19 15:45:31  5-MIN KARA 272145Z 18011KT 10SM CLR 31/23 A2997 -20 62 1800 180/11 RMK AO2 T03060228
53915KARA ARA20190527155011005/27/19 15:50:31  5-MIN KARA 272150Z 20010KT 10SM CLR 30/22 A2997 -10 62 1700 200/10 RMK AO2 SLP147 T03000222
53915KARA ARA20190527155510305/27/19 15:55:31  5-MIN KARA 272155Z 18012KT 10SM CLR 31/23 A2997 -10 62 1800 180/12 RMK AO2 T03060228
53915KARA ARA20190527160010605/27/19 16:00:31  5-MIN KARA 272200Z 18010KT 10SM FEW045 29/23 A2997 -10 67 1700 180/10 RMK AO2 T02940228
53915KARA ARA20190527160510605/27/19 16:05:31  5-MIN KARA 272205Z 18008KT 10SM FEW045 29/22 A2997 -10 64 1700 180/08 RMK AO2 T02940222
53915KARA ARA20190527161010305/27/19 16:10:31  5-MIN KARA 272210Z 19010KT 10SM CLR 29/23 A2997 -10 67 1700 190/10 RMK AO2 T02940228
53915KARA ARA20190527161510305/27/19 16:15:31  5-MIN KARA 272215Z 19009KT 10SM CLR 29/23 A2996 -10 67 1700 190/09 RMK AO2 T02940228
53915KARA ARA20190527162011305/27/19 16:20:31  5-MIN KARA 272220Z 18011KT 10SM FEW030 FEW046 29/23 A2996 -10 67 1700 180/11 RMK AO2 T02940228
53915KARA ARA20190527162511805/27/19 16:25:31  5-MIN KARA 272225Z 18010KT 10SM FEW030 FEW035 FEW046 30/23 A2996 0 65 1800 180/10 RMK AO2 T03000228
53915KARA ARA20190527163010405/27/19 16:30:31  5-MIN KARA 272230Z 19012KT 10SM FEW035 30/23 A2996 0 65 1800 190/12 RMK AO2 T03000228
53915KARA ARA20190527163510405/27/19 16:35:31  5-MIN KARA 272235Z 18009KT 10SM FEW033 29/23 A2996 0 67 1700 180/09 RMK AO2 T02940228
53915KARA ARA20190527164010405/27/19 16:40:31  5-MIN KARA 272240Z 19008KT 10SM FEW033 30/23 A2996 0 65 1800 190/08 RMK AO2 T03000228
53915KARA ARA20190527164510405/27/19 16:45:31  5-MIN KARA 272245Z 19009KT 10SM FEW033 30/23 A2996 0 67 1800 190/09 RMK AO2 T03000233
53915KARA ARA20190527165017505/27/19 16:50:31  5-MIN KARA 272250Z 17009KT 10SM CLR 31/2ARA 27234070/10 RMK AO2 SLP138 T02890228 10317 20289 56017T 10SM CLR 29/23 A2994 10 69 1600 170/11 RMK AO2 T02890228
53915KARA ARA20190527181010205/27/19 18:10:31  5-MIN KARA 280010Z 16009KT 10SM CLR 29/23 A2994 10 69 1600 160/09 RMK AO2 T02890228
53915KARA ARA20190527181510205/27/19 18:15:31  5-MIN KARA 280015Z 16011KT 10SM CLR 29/23 A2994 10 69 1700 160/11 RMK AO2 T02890228
53915KARA ARA20190527182010205/27/19 18:20:31  5-MIN KARA 280020Z 17010KT 10SM CLR 28/23 A2994 10 71 1600 170/10 RMK AO2 T02830228
53915KARA ARA20190527182510205/27/19 18:25:31  5-MIN KARA 280025Z 17010KT 10SM CLR 28/23 A2994 10 71 1600 170/10 RMK AO2 T02830228
53915KARA ARA20190527183010205/27/19 18:30:31  5-MIN KARA 280030Z 16012KT 10SM CLR 28/23 A2994 10 74 1600 160/12 RMK AO2 T02830233
53915KARA ARA20190527183510205/27/19 18:35:31  5-MIN KARA 280035Z 16010KT 10SM CLR 28/23 A2994 10 74 1600 160/10 RMK AO2 T02830233
53915KARA ARA20190527184010205/27/19 18:40:31  5-MIN KARA 280040Z 16012KT 10SM CLR 28/23 A2994 10 74 1600 160/12 RMK AO2 T02830233
53915KARA ARA20190527184510205/27/19 18:45:31  5-MIN KARA 280045Z 16010KT 10SM CLR 28/23 A2994 10 76 1500 160/10 RMK AO2 T02780233
53915KARA ARA20190527185010905/27/19 18:50:31  5-MIN KARA 280050Z 17010KT 10SM CLR 28/23 A2993 10 76 1500 170/10 RMK AO2 SLP136 T02780233
53915KARA ARA20190527185510205/27/19 18:55:31  5-MIN KARA 280055Z 16009KT 10SM CLR 28/23 A2994 10 76 1500 160/09 RMK AO2 T02780233
53915KARA ARA20190527190010205/27/19 19:00:31  5-MIN KARA 280100Z 17011KT 10SM CLR 27/23 A2993 10 79 1500 170/11 RMK AO2 T02720233
53915KARA ARA20190527190510205/27/19 19:05:31  5-MIN KARA 280105Z 16009KT 10SM CLR 27/23 A2993 10 79 1500 160/09 RMK AO2 T02720233
53915KARA ARA20190527191010205/27/19 19:10:31  5-MIN KARA 280110Z 17009KT 10SM CLR 27/24 A2993 20 82 1500 170/09 RMK AO2 T02720239
53915KARA ARA20190527191510205/27/19 19:15:31  5-MIN KARA 280115Z 17008KT 10SM CLR 27/24 A2993 10 82 1500 170/08 RMK AO2 T02720239
53915KARA ARA20190527192010205/27/19 19:20:31  5-MIN KARA 280120Z 17010KT 10SM CLR 27/24 A2994 10 82 1500 170/10 RMK AO2 T02720239
53915KARA ARA20190527192510205/27/19 19:25:31  5-MIN KARA 280125Z 17011KT 10SM CLR 27/24 A2994 10 82 1500 170/11 RMK AO2 T02720239
53915KARA ARA20190527193010705/27/19 19:30:31  5-MIN KARA 280130Z AUTO 17008KT 10SM CLR 27/24 A2994 10 82 1500 170/08 RMK AO2 T02720239
53915KARA ARA20190527193510705/27/19 19:35:31  5-MIN KARA 280135Z AUTO 17010KT 10SM CLR 27/24 A2994 10 84 1400 170/10 RMK AO2 T02670239
53915KARA ARA20190527194010705/27/19 19:40:31  5-MIN KARA 280140Z AUTO 17009KT 10SM CLR 27/23 A2994 10 82 1400 170/09 RMK AO2 T02670233
53915KARA ARA20190527194510705/27/19 19:45:31  5-MIN KARA 280145Z AUTO 17008KT 10SM CLR 27/23 A2993 10 82 1400 170/08 RMK AO2 T02670233
53915KARA ARA20190527195011405/27/19 19:50:31  5-MIN KARA 280150Z AUTO 17010KT 10SM CLR 27/23 A2994 10 82 1400 170/10 RMK AO2 SLP136 T02670233
53915KARA ARA20190527195510705/27/19 19:55:31  5-MIN KARA 280155Z AUTO 17008KT 10SM CLR 27/23 A2993 10 82 1400 170/08 RMK AO2 T02670233
53915KARA ARA20190527200010705/27/19 20:00:31  5-MIN KARA 280200Z AUTO 17009KT 10SM CLR 27/23 A2993 10 82 1400 170/09 RMK AO2 T02670233
53915KARA ARA20190527200510705/27/19 20:05:31  5-MIN KARA 280205Z AUTO 17008KT 10SM CLR 27/23 A2993 10 82 1400 170/08 RMK AO2 T02670233
53915KARA ARA20190527201010705/27/19 20:10:31  5-MIN KARA 280210Z AUTO 17008KT 10SM CLR 27/23 A2994 10 82 1400 170/08 RMK AO2 T02670233
53915KARA ARA20190527201510705/27/19 20:15:31  5-MIN KARA 280215Z AUTO 17007KT 10SM CLR 27/23 A2994 10 82 1400 170/07 RMK AO2 T02670233
53915KARA ARA20190527202010705/27/19 20:20:31  5-MIN KARA 280220Z AUTO 17006KT 10SM CLR 27/23 A2994 10 82 1400 170/06 RMK AO2 T02670233
53915KARA ARA20190527202510705/27/19 20:25:31  5-MIN KARA 280225Z AUTO 17008KT 10SM CLR 26/23 A2994 10 84 1300 170/08 RMK AO2 T02610233
53915KARA ARA20190527203010705/27/19 20:30:31  5-MIN KARA 280230Z AUTO 17007KT 10SM CLR 26/24 A2993 10 87 1300 170/07 RMK AO2 T02610239
53915KARA ARA20190527203510705/27/19 20:35:31  5-MIN KARA 280235Z AUTO 17009KT 10SM CLR 26/24 A2994 10 87 1300 170/09 RMK AO2 T02610239
53915KARA ARA20190527204010705/27/19 20:40:31  5-MIN KARA 280240Z AUTO 17009KT 10SM CLR 26/24 A2994 10 87 1300 170/09 RMK AO2 T02610239
53915KARA ARA20190527204510705/27/19 20:45:31  5-MIN KARA 280245Z AUTO 17009KT 10SM CLR 26/24 A2993 10 87 1300 170/09 RMK AO2 T02610239
53915KARA ARA20190527205012005/27/19 20:50:31  5-MIN KARA 280250Z AUTO 17008KT 10SM CLR 26/24 A2993 20 87 1300 170/08 RMK AO2 SLP135 T02610239 56016
53915KARA ARA20190527205510705/27/19 20:55:31  5-MIN KARA 280255Z AUTO 17009KT 10SM CLR 26/24 A2993 10 87 1300 170/09 RMK AO2 T02610239
53915KARA ARA20190527210010705/27/19 21:00:31  5-MIN KARA 280300Z AUTO 17008KT 10SM CLR 26/24 A2993 10 87 1300 170/08 RMK AO2 T02610239
53915KARA ARA20190527210510705/27/19 21:05:31  5-MIN KARA 280305Z AUTO 17008KT 10SM CLR 26/24 A2993 20 87 1300 170/08 RMK AO2 T02610239
53915KARA ARA20190527211010705/27/19 21:10:31  5-MIN KARA 280310Z AUTO 17009KT 10SM CLR 26/24 A2993 10 87 1300 170/09 RMK AO2 T02610239
53915KARA ARA20190527211511005/27/19 21:15:31  5-MIN KARA 280315Z AUTO 18009KT 10SM FEW018 26/24 A2994 10 87 1300 170/09 RMK AO2 T02610239
53915KARA ARA20190527212011005/27/19 21:20:31  5-MIN KARA 280320Z AUTO 18008KT 10SM FEW018 26/24 A2994 10 87 1300 170/08 RMK AO2 T02610239
53915KARA ARA20190527212511005/27/19 21:25:31  5-MIN KARA 280325Z AUTO 17008KT 10SM FEW018 26/24 A2994 10 87 1300 170/08 RMK AO2 T02610239
53915KARA ARA20190527213011005/27/19 21:30:31  5-MIN KARA 280330Z AUTO 17007KT 10SM FEW018 26/24 A2994 10 87 1300 170/07 RMK AO2 T02610239
53915KARA ARA20190527213511005/27/19 21:35:31  5-MIN KARA 280335Z AUTO 17008KT 10SM SCT018 26/24 A2994 10 87 1300 170/08 RMK AO2 T02610239
53915KARA ARA20190527214011005/27/19 21:40:31  5-MIN KARA 280340Z AUTO 17008KT 10SM FEW018 26/24 A2993 10 87 1300 170/08 RMK AO2 T02610239
53915KARA ARA20190527214511005/27/19 21:45:31  5-MIN KARA 280345Z AUTO 17008KT 10SM FEW018 26/24 A2994 10 87 1300 170/08 RMK AO2 T02610239
53915KARA ARA20190527215011705/27/19 21:50:31  5-MIN KARA 280350Z AUTO 17008KT 10SM FEW018 26/24 A2993 10 87 1300 170/08 RMK AO2 SLP136 T02610239
53915KARA ARA20190527215511005/27/19 21:55:31  5-MIN KARA 280355Z AUTO 17009KT 10SM FEW019 26/24 A2993 10 87 1300 170/09 RMK AO2 T02610239
53915KARA ARA20190527220011705/27/19 22:00:31  5-MIN KARA 280400Z AUTO 17008KT 10SM FEW019 FEW026 26/24 A2993 10 87 1300 170/08 RMK AO2 T02610239
53915KARA ARA20190527220511005/27/19 22:05:31  5-MIN KARA 280405Z AUTO 17009KT 10SM FEW026 26/24 A2993 10 87 1300 170/09 RMK AO2 T02610239
53915KARA ARA20190527221011005/27/19 22:10:31  5-MIN KARA 280410Z AUTO 17009KT 10SM FEW026 27/24 A2993 10 84 1400 170/09 RMK AO2 T02670239
53915KARA ARA20190527221511005/27/19 22:15:31  5-MIN KARA 280415Z AUTO 17010KT 10SM FEW026 27/24 A2993 10 84 1400 170/10 RMK AO2 T02670239
53915KARA ARA20190527222011005/27/19 22:20:31  5-MIN KARA 280420Z AUTO 17011KT 10SM FEW026 27/24 A2993 10 84 1400 170/11 RMK AO2 T02670239
53915KARA ARA20190527222511005/27/19 22:25:31  5-MIN KARA 280425Z AUTO 17010KT 10SM FEW026 27/24 A2993 20 84 1400 170/10 RMK AO2 T02670239
53915KARA ARA20190527223011005/27/19 22:30:31  5-MIN KARA 280430Z AUTO 17008KT 10SM FEW026 27/24 A2993 20 84 1400 170/08 RMK AO2 T02670239
53915KARA ARA20190527223511005/27/19 22:35:31  5-MIN KARA 280435Z AUTO 17009KT 10SM SCT026 27/24 A2993 20 84 1400 170/09 RMK AO2 T02670239
53915KARA ARA20190527224011005/27/19 22:40:31  5-MIN KARA 280440Z AUTO 17010KT 10SM FEW026 27/24 A2993 20 84 1400 170/10 RMK AO2 T02670239
53915KARA ARA20190527224511005/27/19 22:45:31  5-MIN KARA 280445Z AUTO 17011KT 10SM FEW026 27/24 A2993 20 84 1400 170/11 RMK AO2 T02670239
53915KARA ARA20190527225011705/27/19 22:50:31  5-MIN KARA 280450Z AUTO 17012KT 10SM SCT028 27/24 A2993 10 84 1400 170/12 RMK AO2 SLP135 T02670239
53915KARA ARA20190527225511005/27/19 22:55:31  5-MIN KARA 280455Z AUTO 17012KT 10SM SCT030 27/24 A2993 20 84 1400 170/12 RMK AO2 T02670239
53915KARA ARA20190527230011005/27/19 23:00:31  5-MIN KARA 280500Z AUTO 17009KT 10SM SCT030 27/24 A2993 20 84 1400 170/09 RMK AO2 T02670239
53915KARA ARA20190527230511705/27/19 23:05:31  5-MIN KARA 280505Z AUTO 17010KT 10SM FEW025 SCT030 27/24 A2992 20 84 1400 170/10 RMK AO2 T02670239
53915KARA ARA20190527231011705/27/19 23:10:31  5-MIN KARA 280510Z AUTO 17009KT 10SM FEW025 SCT030 27/24 A2992 20 84 1400 170/09 RMK AO2 T02670239
53915KARA ARA20190527231511005/27/19 23:15:31  5-MIN KARA 280515Z AUTO 17013KT 10SM FEW030 26/24 A2992 30 87 1400 170/13 RMK AO2 T02610239
53915KARA ARA20190527232011005/27/19 23:20:31  5-MIN KARA 280520Z AUTO 17011KT 10SM FEW030 26/24 A2992 30 87 1400 170/11 RMK AO2 T02610239
53915KARA ARA20190527232510705/27/19 23:25:31  5-MIN KARA 280525Z AUTO 17010KT 10SM CLR 26/24 A2992 30 87 1400 170/10 RMK AO2 T02610239
53915KARA ARA20190527233010705/27/19 23:30:31  5-MIN KARA 280530Z AUTO 17012KT 10SM CLR 27/24 A2992 30 84 1400 170/12 RMK AO2 T02670239
53915KARA ARA20190527233510705/27/19 23:35:31  5-MIN KARA 280535Z AUTO 17010KT 10SM CLR 27/24 A2992 30 84 1400 170/10 RMK AO2 T02670239
53915KARA ARA20190527234011005/27/19 23:40:31  5-MIN KARA 280540Z AUTO 17010KT 10SM FEW021 27/24 A2992 30 84 1400 170/10 RMK AO2 T02670239
53915KARA ARA20190527234511005/27/19 23:45:31  5-MIN KARA 280545Z AUTO 17010KT 10SM FEW021 26/24 A2991 30 87 1400 170/10 RMK AO2 T02610239
53915KARA ARA20190527235014505/27/19 23:50:31  5-MIN KARA 280550Z AUTO 17011KT 10SM FEW018 26/24 A2991 30 87 1400 170/11 RMK AO2 SLP128 T02610239 10289 20261 403170217 56002
53915KARA ARA20190527235511005/27/19 23:55:31  5-MIN KARA 280555Z AUTO 17010KT 10SM FEW018 26/24 A2991 30 87 1400 170/10 RMK AO2 T02610239
53915KARA ARA20190528000011005/28/19 00:00:31  5-MIN KARA 280600Z AUTO 17009KT 10SM FEW020 26/24 A2991 30 87 1400 170/09 RMK AO2 T02610239
53915KARA ARA20190528000511005/28/19 00:05:31  5-MIN KARA 280605Z AUTO 17010KT 10SM SCT022 26/24 A2991 40 87 1400 170/10 RMK AO2 T02610239
53915KARA ARA20190528001011005/28/19 00:10:31  5-MIN KARA 280610Z AUTO 17011KT 10SM SCT020 26/24 A2991 40 87 1400 170/11 RMK AO2 T02610239
53915KARA ARA20190528001511005/28/19 00:15:31  5-MIN KARA 280615Z AUTO 16009KT 10SM SCT020 26/24 A2991 40 87 1400 160/09 RMK AO2 T02610239
53915KARA ARA20190528002011005/28/19 00:20:31  5-MIN KARA 280620Z AUTO 17008KT 10SM BKN020 26/24 A2991 40 87 1400 170/08 RMK AO2 T02610239
53915KARA ARA20190528002511705/28/19 00:25:31  5-MIN KARA 280625Z AUTO 18008KT 10SM SCT020 BKN024 26/24 A2991 40 87 1400 180/08 RMK AO2 T02610239
53915KARA ARA20190528003011005/28/19 00:30:31  5-MIN KARA 280630Z AUTO 17008KT 10SM BKN021 26/24 A2991 40 87 1400 170/08 RMK AO2 T02610239
53915KARA ARA20190528003511705/28/19 00:35:31  5-MIN KARA 280635Z AUTO 18010KT 10SM SCT019 BKN024 26/24 A2991 40 87 1400 180/10 RMK AO2 T02610239
53915KARA ARA20190528004011705/28/19 00:40:31  5-MIN KARA 280640Z AUTO 17008KT 10SM BKN020 BKN025 26/24 A2991 40 87 1400 170/08 RMK AO2 T02610239
53915KARA ARA20190528004511705/28/19 00:45:31  5-MIN KARA 280645Z AUTO 17008KT 10SM SCT018 BKN025 26/24 A2991 40 87 1400 170/08 RMK AO2 T02610239
53915KARA ARA20190528005012405/28/19 00:50:31  5-MIN KARA 280650Z AUTO 17009KT 10SM SCT018 BKN024 26/24 A2991 40 87 1400 170/09 RMK AO2 SLP126 T02610239
53915KARA ARA20190528005511705/28/19 00:55:31  5-MIN KARA 280655Z AUTO 17010KT 10SM BKN020 BKN024 26/24 A2990 40 87 1400 170/10 RMK AO2 T02610239
53915KARA ARA20190528010011705/28/19 01:00:31  5-MIN KARA 280700Z AUTO 16010KT 10SM SCT018 BKN024 26/24 A2990 40 87 1400 160/10 RMK AO2 T02610239
53915KARA ARA20190528010511705/28/19 01:05:31  5-MIN KARA 280705Z AUTO 17011KT 10SM SCT018 BKN024 26/24 A2990 40 87 1400 160/11 RMK AO2 T02610239
53915KARA ARA20190528011011705/28/19 01:10:31  5-MIN KARA 280710Z AUTO 17010KT 10SM SCT020 BKN024 26/24 A2990 40 87 1400 160/10 RMK AO2 T02610239
53915KARA ARA20190528011511005/28/19 01:15:31  5-MIN KARA 280715Z AUTO 17008KT 10SM BKN023 26/24 A2990 40 87 1400 160/08 RMK AO2 T02610239
53915KARA ARA20190528012011705/28/19 01:20:31  5-MIN KARA 280720Z AUTO 16010KT 10SM FEW020 SCT025 26/24 A2990 40 87 1400 160/10 RMK AO2 T02610239
53915KARA ARA20190528012511005/28/19 01:25:31  5-MIN KARA 280725Z AUTO 16009KT 10SM SCT025 26/24 A2990 40 87 1400 160/09 RMK AO2 T02610239
53915KARA ARA20190528013011005/28/19 01:30:31  5-MIN KARA 280730Z AUTO 17010KT 10SM FEW023 26/24 A2990 50 87 1400 170/10 RMK AO2 T02610239
53915KARA ARA20190528013511705/28/19 01:35:31  5-MIN KARA 280735Z AUTO 17008KT 10SM FEW023 FEW030 26/24 A2990 50 87 1400 170/08 RMK AO2 T02610239
53915KARA ARA20190528014011705/28/19 01:40:31  5-MIN KARA 280740Z AUTO 17009KT 10SM FEW023 SCT032 26/24 A2990 50 87 1400 170/09 RMK AO2 T02610239
53915KARA ARA20190528014512405/28/19 01:45:31  5-MIN KARA 280745Z AUTO 16010KT 10SM FEW021 SCT026 SCT032 26/24 A2989 50 87 1400 160/10 RMK AO2 T02610239
53915KARA ARA20190528015013105/28/19 01:50:31  5-MIN KARA 280750Z AUTO 17009KT 10SM FEW018 SCT024 SCT032 26/24 A2990 50 87 1400 170/09 RMK AO2 SLP123 T02610239
53915KARA ARA20190528015512405/28/19 01:55:31  5-MIN KARA 280755Z AUTO 17009KT 10SM FEW018 SCT024 SCT032 26/24 A2989 50 87 1400 170/09 RMK AO2 T02610239
53915KARA ARA20190528020011705/28/19 02:00:31  5-MIN KARA 280800Z AUTO 17008KT 10SM BKN018 BKN032 26/24 A2990 50 87 1400 170/08 RMK AO2 T02610239
53915KARA ARA20190528020512405/28/19 02:05:31  5-MIN KARA 280805Z AUTO 17007KT 10SM BKN018 BKN025 BKN034 26/24 A2989 50 87 1400 170/07 RMK AO2 T02610239
53915KARA ARA20190528021012405/28/19 02:10:31  5-MIN KARA 280810Z AUTO 17008KT 10SM SCT018 BKN028 BKN034 26/24 A2989 50 87 1400 170/08 RMK AO2 T02610239
53915KARA ARA20190528021512405/28/19 02:15:31  5-MIN KARA 280815Z AUTO 17008KT 10SM SCT018 SCT026 BKN035 26/24 A2990 50 87 1400 170/08 RMK AO2 T02610239
53915KARA ARA20190528022012405/28/19 02:20:31  5-MIN KARA 280820Z AUTO 17008KT 10SM BKN020 BKN026 BKN037 26/24 A2989 50 87 1400 170/08 RMK AO2 T02610239
53915KARA ARA20190528022512405/28/19 02:25:31  5-MIN KARA 280825Z AUTO 17007KT 10SM SCT020 BKN035 OVC042 26/24 A2989 50 87 1400 170/07 RMK AO2 T02610239
53915KARA ARA20190528023012405/28/19 02:30:31  5-MIN KARA 280830Z AUTO 18007KT 10SM SCT020 BKN033 OVC042 26/24 A2989 50 87 1400 180/07 RMK AO2 T02610239
53915KARA ARA20190528023514005/28/19 02:35:31  5-MIN KARA 280835Z AUTO 17005KT 10SM -RA SCT018 BKN023 OVC042 26/24 A2989 50 87 1400 170/05 RMK AO2 RAB34 P0000 T02610239
53915KARA ARA20190528024014005/28/19 02:40:31  5-MIN KARA 280840Z AUTO 19007KT 10SM -RA BKN018 BKN023 OVC042 26/24 A2989 50 87 1400 190/07 RMK AO2 RAB34 P0000 T02610239
53915KARA ARA20190528024514005/28/19 02:45:31  5-MIN KARA 280845Z AUTO 18007KT 10SM -RA BKN018 BKN024 OVC036 26/24 A2989 50 87 1400 180/07 RMK AO2 RAB34 P0000 T02610239
53915KARA ARA20190528025015805/28/19 02:50:31  5-MIN KARA 280850Z AUTO 17006KT 10SM SCT018 BKN024 OVC042 26/24 A2989 50 87 1400 170/06 RMK AO2 RAB34E50 SLP122 P0000 60000 T02610239 58007
53915KARA ARA20190528025512405/28/19 02:55:31  5-MIN KARA 280855Z AUTO 17007KT 10SM SCT018 BKN024 OVC041 26/24 A2989 50 87 1400 170/07 RMK AO2 T02610239
53915KARA ARA20190528030012405/28/19 03:00:31  5-MIN KARA 280900Z AUTO 17007KT 10SM BKN018 BKN023 OVC048 26/24 A2990 50 87 1400 170/07 RMK AO2 T02610239
53915KARA ARA20190528030512405/28/19 03:05:31  5-MIN KARA 280905Z AUTO 16008KT 10SM BKN018 BKN029 OVC048 26/24 A2990 50 87 1400 160/08 RMK AO2 T02610239
53915KARA ARA20190528031012405/28/19 03:10:31  5-MIN KARA 280910Z AUTO 16008KT 10SM SCT018 BKN023 BKN040 26/24 A2990 50 87 1400 160/08 RMK AO2 T02610239
53915KARA ARA20190528031512405/28/19 03:15:31  5-MIN KARA 280915Z AUTO 16007KT 10SM SCT018 BKN023 BKN040 26/24 A2990 50 90 1300 160/07 RMK AO2 T02560239
53915KARA ARA20190528032012405/28/19 03:20:31  5-MIN KARA 280920Z AUTO 16008KT 10SM SCT017 SCT023 BKN049 26/24 A2990 50 90 1300 160/08 RMK AO2 T02560239
53915KARA ARA20190528032511705/28/19 03:25:31  5-MIN KARA 280925Z AUTO 17009KT 10SM SCT017 SCT049 26/24 A2990 50 87 1400 170/09 RMK AO2 T02610239
53915KARA ARA20190528033011005/28/19 03:30:31  5-MIN KARA 280930Z AUTO 17008KT 10SM FEW017 26/24 A2990 40 90 1300 170/08 RMK AO2 T02560239
53915KARA ARA20190528132511905/28/19 13:25:31  5-MIN KARA 281925Z 18015KT 10SM FEW029 FEW040 SCT050 31/23 A2992 20 62 1900 180/15 RMK AO2 T03060228
53915KARA ARA20190528133010505/28/19 13:30:31  5-MIN KARA 281930Z 17013KT 10SM FEW047 31/23 A2992 20 63 1900 170/13 RMK AO2 T03110233
53915KARA ARA20190528133514105/28/19 13:35:31  5-MIN KARA 281935Z 18015G19KT 10SM -RA FEW031 FEW042 SCT049 31/23 A2992 20 60 1900 180/15G19 RMK AO2 RAB33 P0000 T03110228
53915KARA ARA20190528134014105/28/19 13:40:31  5-MIN KARA 281940Z 19013G19KT 10SM -RA FEW031 FEW038 SCT047 31/23 A2992 20 62 1900 190/13G19 RMK AO2 RAB33 P0000 T03060228
53915KARA ARA20190528134513505/28/19 13:45:31  5-MIN KARA 281945Z 19013KT 10SM -RA FEW033 SCT045 SCT050 31/23 A2992 20 62 1900 190/13 RMK AO2 RAB33 P0000 T03060228
53915KARA ARA20190528135013405/28/19 13:50:31  5-MIN KARA 281950Z 17015KT 10SM FEW033 SCT047 31/23 A2992 20 62 1900 160/15 RMK AO2 RAB33E47 SLP132 P0000 T03060228
53915KARA ARA20190528135511205/28/19 13:55:31  5-MIN KARA 281955Z 16015KT 10SM FEW033 SCT047 31/22 A2992 30 60 1900 160/15 RMK AO2 T03060222
53915KARA ARA20190528140011205/28/19 14:00:31  5-MIN KARA 282000Z 17015KT 10SM SCT033 SCT047 31/22 A2992 30 58 1900 170/15 RMK AO2 T03110222
53915KARA ARA20190528140511205/28/19 14:05:31  5-MIN KARA 282005Z 19013KT 10SM FEW035 SCT045 31/23 A2992 30 62 1900 190/13 RMK AO2 T03060228
53915KARA ARA20190528141012505/28/19 14:10:31  5-MIN KARA 282010Z 16016G20KT 10SM FEW035 SCT043 SCT050 31/23 A2992 30 62 1900 160/16G20 RMK AO2 T03060228
53915KARA ARA20190528141511805/28/19 14:15:31  5-MIN KARA 282015Z 16015G20KT 10SM FEW036 SCT047 30/23 A2991 30 65 1800 160/15G20 RMK AO2 T03000228
53915KARA ARA20190528142011205/28/19 14:20:31  5-MIN KARA 282020Z 16015KT 10SM FEW034 SCT043 31/23 A2991 30 62 1900 160/15 RMK AO2 T03060228
53915KARA ARA20190528142510505/28/19 14:25:31  5-MIN KARA 282025Z 16015KT 10SM SCT034 31/23 A2991 30 62 1900 160/15 RMK AO2 T03060228
53915KARA ARA20190528143011805/28/19 14:30:31  5-MIN KARA 282030Z 16014G21KT 10SM SCT034 BKN042 31/23 A2991 30 62 1900 160/14G21 RMK AO2 T03060228
53915KARA ARA20190528143511205/28/19 14:35:31  5-MIN KARA 282035Z 17012KT 10SM BKN034 BKN042 30/22 A2991 30 62 1800 170/12 RMK AO2 T03000222
53915KARA ARA20190528144010505/28/19 14:40:31  5-MIN KARA 282040Z 16014KT 10SM BKN036 31/22 A2991 40 60 1900 160/14 RMK AO2 T03060222
53915KARA ARA20190528144511205/28/19 14:45:31  5-MIN KARA 282045Z 17013KT 10SM BKN036 BKN042 31/22 A2991 40 58 1900 170/13 RMK AO2 T03110222
53915KARA ARA20190528145013005/28/19 14:50:31  5-MIN KARA 282050Z 16013G19KT 10SM SCT036 31/22 A2991 40 60 1900 160/13G19 RMK AO2 SLP127 60000 T03060222 51001
53915KARA ARA20190528145511105/28/19 14:55:31  5-MIN KARA 282055Z 17012G19KT 10SM SCT036 31/22 A2991 40 58 1900 170/12G19 RMK AO2 T03060217
53915KARA ARA20190528150010505/28/19 15:00:31  5-MIN KARA 282100Z 19014KT 10SM FEW036 30/22 A2990 40 60 1800 190/14 RMK AO2 T03000217
53915KARA ARA20190528150510505/28/19 15:05:31  5-MIN KARA 282105Z 18013KT 10SM FEW036 30/21 A2990 40 58 1800 180/13 RMK AO2 T03000211
53915KARA ARA20190528151010505/28/19 15:10:31  5-MIN KARA 282110Z 18011KT 10SM FEW038 31/21 A2990 40 56 1900 180/11 RMK AO2 T03060211
53915KARA ARA20190528151510205/28/19 15:15:31  5-MIN KARA 282115Z 19012KT 10SM CLR 31/22 A2990 40 58 1900 190/12 RMK AO2 T03060217
53915KARA ARA20190528152010205/28/19 15:20:31  5-MIN KARA 282120Z 19011KT 10SM CLR 31/22 A2990 50 58 1900 190/11 RMK AO2 T03060217
53915KARA ARA20190528152510505/28/19 15:25:31  5-MIN KARA 282125Z 20013KT 10SM FEW035 31/21 A2990 50 56 1900 200/13 RMK AO2 T03060211
53915KARA ARA20190528153010505/28/19 15:30:31  5-MIN KARA 282130Z 20012KT 10SM FEW035 31/21 A2990 50 56 1900 190/12 RMK AO2 T03060211
53915KARA ARA20190528153510205/28/19 15:35:31  5-MIN KARA 282135Z 21012KT 10SM CLR 31/21 A2990 50 56 1900 210/12 RMK AO2 T03060211
53915KARA ARA20190528154010505/28/19 15:40:31  5-MIN KARA 282140Z 18011KT 10SM FEW035 31/22 A2990 50 56 1900 180/11 RMK AO2 T03110217
53915KARA ARA20190528154510505/28/19 15:45:31  5-MIN KARA 282145Z 16014KT 10SM SCT035 31/22 A2990 50 60 1900 160/14 RMK AO2 T03060222
53915KARA ARA20190528155011205/28/19 15:50:31  5-MIN KARA 282150Z 17011KT 10SM SCT036 31/22 A2990 50 60 1900 170/11 RMK AO2 SLP123 T03060222
53915KARA ARA20190528155510505/28/19 15:55:31  5-MIN KARA 282155Z 16013KT 10SM SCT036 31/22 A2989 50 60 1900 160/13 RMK AO2 T03060222
53915KARA ARA20190528160010505/28/19 16:00:31  5-MIN KARA 282200Z 17013KT 10SM SCT036 30/22 A2989 50 62 1800 170/13 RMK AO2 T03000222
53915KARA ARA20190528160510505/28/19 16:05:31  5-MIN KARA 282205Z 17011KT 10SM SCT035 29/22 A2989 50 62 1800 170/11 RMK AO2 T02940217
53915KARA ARA20190528161010505/28/19 16:10:31  5-MIN KARA 282210Z 18011KT 10SM FEW035 29/22 A2989 50 64 1800 180/11 RMK AO2 T02940222
53915KARA ARA20190528161510505/28/19 16:15:31  5-MIN KARA 282215Z 18012KT 10SM FEW037 30/22 A2989 50 60 1800 180/12 RMK AO2 T03000217
53915KARA ARA20190528162020705/28/19 16:20:31  5-MIN KARA 282220Z 18011KT 10SM FEW037 29/22 A2989 50 62 1800Z 16011KT 10SM CLR 29/22 A2989 60 62 1800 160/11 RMK AO2 T0294021705/28/19EW031 29/22 A2988 60 64 1800 180/11 RMK AO2 T02940222
53915KARA ARA20190528173010505/28/19 17:30:31  5-MIN KARA 282330Z 15014KT 10SM FEW031 29/22 A2988 60 64 1800 150/14 RMK AO2 T02940222
53915KARA ARA20190528173510505/28/19 17:35:31  5-MIN KARA 282335Z 16013KT 10SM FEW031 29/22 A2988 60 67 1700 160/13 RMK AO2 T02890222
53915KARA ARA20190528174010505/28/19 17:40:31  5-MIN KARA 282340Z 16012KT 10SM FEW031 29/22 A2988 60 64 1700 160/12 RMK AO2 T02890217
53915KARA ARA20190528174510505/28/19 17:45:31  5-MIN KARA 282345Z 17010KT 10SM FEW031 28/22 A2988 60 69 1600 170/10 RMK AO2 T02830222
53915KARA ARA20190528175013605/28/19 17:50:31  5-MIN KARA 282350Z 16010KT 10SM FEW031 28/22 A2988 60 69 1600 160/10 RMK AO2 SLP119 60000 T02830222 10311 20283 58012
53915KARA ARA20190528175510505/28/19 17:55:31  5-MIN KARA 282355Z 17010KT 10SM FEW029 28/22 A2988 60 69 1600 170/10 RMK AO2 T02830222
53915KARA ARA20190528180010205/28/19 18:00:31  5-MIN KARA 290000Z 15011KT 10SM CLR 28/22 A2988 60 69 1600 150/11 RMK AO2 T02830222
53915KARA ARA20190528180510205/28/19 18:05:31  5-MIN KARA 290005Z 15010KT 10SM CLR 28/22 A2988 60 69 1600 150/10 RMK AO2 T02830222
53915KARA ARA20190528181010205/28/19 18:10:31  5-MIN KARA 290010Z 16010KT 10SM CLR 28/22 A2988 60 66 1600 160/10 RMK AO2 T02830217
53915KARA ARA20190528181510205/28/19 18:15:31  5-MIN KARA 290015Z 17008KT 10SM CLR 28/22 A2988 60 69 1700 170/08 RMK AO2 T02830222
53915KARA ARA20190528182010205/28/19 18:20:31  5-MIN KARA 290020Z 17011KT 10SM CLR 28/22 A2988 60 66 1600 170/11 RMK AO2 T02830217
53915KARA ARA20190528182510205/28/19 18:25:31  5-MIN KARA 290025Z 17010KT 10SM CLR 28/22 A2988 60 69 1600 170/10 RMK AO2 T02780217
53915KARA ARA20190528183010205/28/19 18:30:31  5-MIN KARA 290030Z 16010KT 10SM CLR 28/22 A2988 60 69 1600 160/10 RMK AO2 T02780217
53915KARA ARA20190528183510205/28/19 18:35:31  5-MIN KARA 290035Z 16009KT 10SM CLR 27/22 A2988 60 74 1500 160/09 RMK AO2 T02720222
53915KARA ARA20190528184010205/28/19 18:40:31  5-MIN KARA 290040Z 16010KT 10SM CLR 28/22 A2989 60 71 1600 160/10 RMK AO2 T02780222
53915KARA ARA20190528184510205/28/19 18:45:31  5-MIN KARA 290045Z 17008KT 10SM CLR 27/22 A2989 60 74 1500 160/08 RMK AO2 T02720222
53915KARA ARA20190528185010905/28/19 18:50:31  5-MIN KARA 290050Z 17008KT 10SM CLR 27/22 A2989 50 74 1500 170/08 RMK AO2 SLP121 T02720222
53915KARA ARA20190528185516005/28/19 18:55:31  5-MIN KARA 290055Z 17008KT 10SM CLR 27/22 A2989 50 74 1500 160/08 RMK AO2 T0272022205/28/19 1927/22 A2989 50 76 1500 160/09 RMK AO2 T02670222
53915KARA ARA20190528191510205/28/19 19:15:31  5-MIN KARA 290115Z 17007KT 10SM CLR 27/22 A2989 50 76 1500 170/07 RMK AO2 T02670222
53915KARA ARA20190528192010705/28/19 19:20:31  5-MIN KARA 290120Z AUTO 16007KT 10SM CLR 27/22 A2989 50 76 1500 160/07 RMK AO2 T02670222
53915KARA ARA20190528192510705/28/19 19:25:31  5-MIN KARA 290125Z AUTO 16006KT 10SM CLR 26/22 A2989 50 79 1400 160/06 RMK AO2 T02610222
53915KARA ARA20190528193010705/28/19 19:30:31  5-MIN KARA 290130Z AUTO 16006KT 10SM CLR 26/22 A2990 50 79 1400 160/06 RMK AO2 T02610222
53915KARA ARA20190528193510705/28/19 19:35:31  5-MIN KARA 290135Z AUTO 17007KT 10SM CLR 26/22 A2990 50 79 1400 170/07 RMK AO2 T02610222
53915KARA ARA20190528194010705/28/19 19:40:31  5-MIN KARA 290140Z AUTO 16006KT 10SM CLR 26/22 A2990 50 79 1400 160/06 RMK AO2 T02610222
53915KARA ARA20190528194510705/28/19 19:45:31  5-MIN KARA 290145Z AUTO 16007KT 10SM CLR 26/22 A2990 50 79 1400 160/07 RMK AO2 T02610222
53915KARA ARA20190528195011405/28/19 19:50:31  5-MIN KARA 290150Z AUTO 16006KT 10SM CLR 26/22 A2990 50 81 1300 160/06 RMK AO2 SLP124 T02560222
53915KARA ARA20190528195510705/28/19 19:55:31  5-MIN KARA 290155Z AUTO 16005KT 10SM CLR 26/22 A2990 50 81 1300 160/05 RMK AO2 T02560222
53915KARA ARA20190528200010705/28/19 20:00:31  5-MIN KARA 290200Z AUTO 17004KT 10SM CLR 26/22 A2990 50 81 1300 170/04 RMK AO2 T02560222
53915KARA ARA20190528200510705/28/19 20:05:31  5-MIN KARA 290205Z AUTO 16006KT 10SM CLR 26/22 A2990 50 81 1300 160/06 RMK AO2 T02560222
53915KARA ARA20190528201010705/28/19 20:10:31  5-MIN KARA 290210Z AUTO 16006KT 10SM CLR 25/22 A2990 50 84 1300 160/06 RMK AO2 T02500222
53915KARA ARA20190528201510705/28/19 20:15:31  5-MIN KARA 290215Z AUTO 16006KT 10SM CLR 26/23 A2990 50 84 1300 160/06 RMK AO2 T02560228
53915KARA ARA20190528202010705/28/19 20:20:31  5-MIN KARA 290220Z AUTO 16007KT 10SM CLR 25/23 A2990 50 87 1300 160/07 RMK AO2 T02500228
53915KARA ARA20190528202510705/28/19 20:25:31  5-MIN KARA 290225Z AUTO 16007KT 10SM CLR 25/23 A2990 50 87 1300 160/07 RMK AO2 T02500228
53915KARA ARA20190528203010705/28/19 20:30:31  5-MIN KARA 290230Z AUTO 16007KT 10SM CLR 25/23 A2990 50 87 1300 160/07 RMK AO2 T02500228
53915KARA ARA20190528203510705/28/19 20:35:31  5-MIN KARA 290235Z AUTO 16006KT 10SM CLR 25/23 A2989 50 87 1300 160/06 RMK AO2 T02500228
53915KARA ARA20190528204010705/28/19 20:40:31  5-MIN KARA 290240Z AUTO 16006KT 10SM CLR 25/23 A2990 50 87 1300 160/06 RMK AO2 T02500228
53915KARA ARA20190528204510705/28/19 20:45:31  5-MIN KARA 290245Z AUTO 15006KT 10SM CLR 24/23 A2990 50 90 1200 150/06 RMK AO2 T02440228
53915KARA ARA20190528205012005/28/19 20:50:31  5-MIN KARA 290250Z AUTO 15005KT 10SM CLR 24/23 A2990 50 90 1200 150/05 RMK AO2 SLP123 T02440228 56008
53915KARA ARA20190528205510705/28/19 20:55:31  5-MIN KARA 290255Z AUTO 15005KT 10SM CLR 24/22 A2990 50 87 1200 150/05 RMK AO2 T02440222
53915KARA ARA20190528210010705/28/19 21:00:31  5-MIN KARA 290300Z AUTO 15005KT 10SM CLR 24/22 A2990 50 87 1200 150/05 RMK AO2 T02440222
53915KARA ARA20190528210510705/28/19 21:05:31  5-MIN KARA 290305Z AUTO 15004KT 10SM CLR 24/22 A2990 40 90 1100 150/04 RMK AO2 T02390222
53915KARA ARA20190528211010705/28/19 21:10:31  5-MIN KARA 290310Z AUTO 15004KT 10SM CLR 24/22 A2990 40 87 1200 150/04 RMK AO2 T02440222
53915KARA ARA20190528211511005/28/19 21:15:31  5-MIN KARA 290315Z AUTO 15004KT 10SM FEW023 24/22 A2990 40 87 1200 150/04 RMK AO2 T02440222
53915KARA ARA20190528212011705/28/19 21:20:31  5-MIN KARA 290320Z AUTO 15004KT 10SM FEW023 SCT033 24/22 A2990 40 90 1100 150/04 RMK AO2 T02390222
53915KARA ARA20190528212511705/28/19 21:25:31  5-MIN KARA 290325Z AUTO 14004KT 10SM FEW024 SCT033 24/22 A2991 40 90 1100 140/04 RMK AO2 T02390222
53915KARA ARA20190528213011705/28/19 21:30:31  5-MIN KARA 290330Z AUTO 14004KT 10SM SCT026 BKN033 24/23 A2991 40 93 1100 140/04 RMK AO2 T02390228
53915KARA ARA20190528213512405/28/19 21:35:31  5-MIN KARA 290335Z AUTO 14003KT 10SM SCT024 BKN029 BKN035 24/23 A2991 40 90 1200 140/03 RMK AO2 T02440228
53915KARA ARA20190528214012405/28/19 21:40:31  5-MIN KARA 290340Z AUTO 13003KT 10SM BKN024 BKN029 BKN035 24/23 A2991 40 90 1200 130/03 RMK AO2 T02440228
53915KARA ARA20190528214511705/28/19 21:45:31  5-MIN KARA 290345Z AUTO 14003KT 10SM SCT023 BKN032 24/23 A2991 40 90 1200 130/03 RMK AO2 T02440228
53915KARA ARA20190528215010705/28/19 21:50:31  5-MIN KARA 290350Z AUTO 13003KT 10SM SCT023 BKN032 24/23 A2991 40 90 1200 130/03 RMK AO2
53915KARA ARA20190528215512405/28/19 21:55:31  5-MIN KARA 290355Z AUTO 14004KT 10SM SCT023 BKN028 BKN036 24/23 A2991 40 90 1200 140/04 RMK AO2 T02440228
53915KARA ARA20190528220012405/28/19 22:00:31  5-MIN KARA 290400Z AUTO 14004KT 10SM BKN023 BKN030 BKN038 24/23 A2991 40 90 1200 140/04 RMK AO2 T02440228
53915KARA ARA20190528220511705/28/19 22:05:31  5-MIN KARA 290405Z AUTO 14004KT 10SM BKN022 BKN030 25/23 A2991 40 87 1200 140/04 RMK AO2 T02500228
53915KARA ARA20190528221011705/28/19 22:10:31  5-MIN KARA 290410Z AUTO 15004KT 10SM SCT022 BKN030 24/23 A2991 40 90 1200 150/04 RMK AO2 T02440228
53915KARA ARA20190528221511705/28/19 22:15:31  5-MIN KARA 290415Z AUTO 15004KT 10SM SCT022 SCT029 24/23 A2990 40 90 1200 150/04 RMK AO2 T02440228
53915KARA ARA20190528222011705/28/19 22:20:31  5-MIN KARA 290420Z AUTO 16004KT 10SM SCT022 SCT030 24/23 A2991 40 90 1200 160/04 RMK AO2 T02440228
53915KARA ARA20190528222511005/28/19 22:25:31  5-MIN KARA 290425Z AUTO 15005KT 10SM SCT022 24/23 A2991 40 90 1200 150/05 RMK AO2 T02440228
53915KARA ARA20190528223011005/28/19 22:30:31  5-MIN KARA 290430Z AUTO 15005KT 10SM FEW022 24/23 A2991 40 93 1100 150/05 RMK AO2 T02390228
53915KARA ARA20190528223511005/28/19 22:35:31  5-MIN KARA 290435Z AUTO 15006KT 10SM FEW024 24/23 A2990 40 93 1100 150/06 RMK AO2 T02390228
53915KARA ARA20190528224010705/28/19 22:40:31  5-MIN KARA 290440Z AUTO 15006KT 10SM CLR 23/23 A2990 40 97 1100 150/06 RMK AO2 T02330228
53915KARA ARA20190528224510705/28/19 22:45:31  5-MIN KARA 290445Z AUTO 15005KT 10SM CLR 23/23 A2990 40 97 1100 150/05 RMK AO2 T02330228
53915KARA ARA20190528225011405/28/19 22:50:31  5-MIN KARA 290450Z AUTO 15005KT 10SM CLR 23/23 A2990 40 97 1100 150/05 RMK AO2 SLP125 T02330228
53915KARA ARA20190528225510705/28/19 22:55:31  5-MIN KARA 290455Z AUTO 15005KT 10SM CLR 23/23 A2990 40 97 1100 150/05 RMK AO2 T02330228
53915KARA ARA20190528230010705/28/19 23:00:31  5-MIN KARA 290500Z AUTO 14005KT 10SM CLR 23/23 A2990 50 97 1100 140/05 RMK AO2 T02330228
53915KARA ARA20190528230510705/28/19 23:05:31  5-MIN KARA 290505Z AUTO 14004KT 10SM CLR 23/23 A2990 50 97 1100 140/04 RMK AO2 T02330228
53915KARA ARA20190528231010705/28/19 23:10:31  5-MIN KARA 290510Z AUTO 14004KT 10SM CLR 24/23 A2990 50 93 1100 140/04 RMK AO2 T02390228
53915KARA ARA20190528231510705/28/19 23:15:31  5-MIN KARA 290515Z AUTO 14004KT 10SM CLR 23/23 A2990 50 97 1100 140/04 RMK AO2 T02330228
53915KARA ARA20190528232010705/28/19 23:20:31  5-MIN KARA 290520Z AUTO 14005KT 10SM CLR 23/23 A2990 50 97 1100 140/05 RMK AO2 T02330228
53915KARA ARA20190528232510705/28/19 23:25:31  5-MIN KARA 290525Z AUTO 14005KT 10SM CLR 24/23 A2990 50 93 1100 140/05 RMK AO2 T02390228
53915KARA ARA20190528233010705/28/19 23:30:31  5-MIN KARA 290530Z AUTO 14006KT 10SM CLR 23/23 A2989 50 97 1100 140/06 RMK AO2 T02330228
53915KARA ARA20190528233510705/28/19 23:35:31  5-MIN KARA 290535Z AUTO 15006KT 10SM CLR 23/23 A2989 50 97 1100 150/06 RMK AO2 T02330228
53915KARA ARA20190528234010705/28/19 23:40:31  5-MIN KARA 290540Z AUTO 14006KT 10SM CLR 23/23 A2989 50 97 1100 140/06 RMK AO2 T02330228
53915KARA ARA20190528234510705/28/19 23:45:31  5-MIN KARA 290545Z AUTO 15007KT 10SM CLR 23/23 A2989 50 97 1100 140/07 RMK AO2 T02330228
53915KARA ARA20190528235014205/28/19 23:50:31  5-MIN KARA 290550Z AUTO 15006KT 10SM CLR 23/23 A2989 60 97 1100 150/06 RMK AO2 SLP120 T02330228 10283 20233 403110233 50005
53915KARA ARA20190528235510705/28/19 23:55:31  5-MIN KARA 290555Z AUTO 15007KT 10SM CLR 24/23 A2989 60 93 1100 150/07 RMK AO2 T02390228
53915KARA ARA20190529000010705/29/19 00:00:31  5-MIN KARA 290600Z AUTO 15006KT 10SM CLR 24/23 A2989 50 93 1100 150/06 RMK AO2 T02390228
53915KARA ARA20190529000510705/29/19 00:05:31  5-MIN KARA 290605Z AUTO 15005KT 10SM CLR 23/23 A2989 50 97 1100 150/05 RMK AO2 T02330228
53915KARA ARA20190529001010705/29/19 00:10:31  5-MIN KARA 290610Z AUTO 15006KT 10SM CLR 23/23 A2989 60 97 1100 150/06 RMK AO2 T02330228
53915KARA ARA20190529001510705/29/19 00:15:31  5-MIN KARA 290615Z AUTO 16005KT 10SM CLR 23/23 A2989 60 97 1100 160/05 RMK AO2 T02330228
53915KARA ARA20190529002010705/29/19 00:20:31  5-MIN KARA 290620Z AUTO 16005KT 10SM CLR 23/22 A2989 60 93 1100 160/05 RMK AO2 T02330222
53915KARA ARA20190529002510705/29/19 00:25:31  5-MIN KARA 290625Z AUTO 16006KT 10SM CLR 23/22 A2988 60 93 1100 160/06 RMK AO2 T02330222
53915KARA ARA20190529003010705/29/19 00:30:31  5-MIN KARA 290630Z AUTO 16006KT 10SM CLR 23/22 A2988 60 93 1100 160/06 RMK AO2 T02330222
53915KARA ARA20190529003510705/29/19 00:35:31  5-MIN KARA 290635Z AUTO 16006KT 10SM CLR 24/22 A2988 60 90 1100 160/06 RMK AO2 T02390222
53915KARA ARA20190529004010705/29/19 00:40:31  5-MIN KARA 290640Z AUTO 16007KT 10SM CLR 24/23 A2988 60 93 1200 160/07 RMK AO2 T02390228
53915KARA ARA20190529004510705/29/19 00:45:31  5-MIN KARA 290645Z AUTO 17007KT 10SM CLR 24/23 A2988 60 93 1200 170/07 RMK AO2 T02390228
53915KARA ARA20190529005011405/29/19 00:50:31  5-MIN KARA 290650Z AUTO 17008KT 10SM CLR 24/23 A2988 70 90 1200 170/08 RMK AO2 SLP116 T02440228
53915KARA ARA20190529005510705/29/19 00:55:31  5-MIN KARA 290655Z AUTO 16008KT 10SM CLR 24/22 A2988 70 87 1200 160/08 RMK AO2 T02440222
53915KARA ARA20190529010010705/29/19 01:00:31  5-MIN KARA 290700Z AUTO 17008KT 10SM CLR 24/22 A2988 70 87 1200 160/08 RMK AO2 T02440222
53915KARA ARA20190529010510705/29/19 01:05:31  5-MIN KARA 290705Z AUTO 16007KT 10SM CLR 24/23 A2987 70 90 1200 160/07 RMK AO2 T02440228
53915KARA ARA20190529011010705/29/19 01:10:31  5-MIN KARA 290710Z AUTO 16007KT 10SM CLR 24/23 A2987 70 90 1200 160/07 RMK AO2 T02440228
53915KARA ARA20190529011510705/29/19 01:15:31  5-MIN KARA 290715Z AUTO 15006KT 10SM CLR 24/22 A2987 80 90 1200 150/06 RMK AO2 T02390222
53915KARA ARA20190529012010705/29/19 01:20:31  5-MIN KARA 290720Z AUTO 15007KT 10SM CLR 23/22 A2986 80 93 1100 140/07 RMK AO2 T02330222
53915KARA ARA20190529012510705/29/19 01:25:31  5-MIN KARA 290725Z AUTO 15007KT 10SM CLR 23/22 A2986 80 93 1100 150/07 RMK AO2 T02330222
53915KARA ARA20190529013010705/29/19 01:30:31  5-MIN KARA 290730Z AUTO 16007KT 10SM CLR 24/23 A2986 80 93 1200 150/07 RMK AO2 T02390228
53915KARA ARA20190529013510705/29/19 01:35:31  5-MIN KARA 290735Z AUTO 16006KT 10SM CLR 24/23 A2986 80 93 1200 160/06 RMK AO2 T02390228
53915KARA ARA20190529014010705/29/19 01:40:31  5-MIN KARA 290740Z AUTO 16005KT 10SM CLR 24/22 A2986 80 90 1200 160/05 RMK AO2 T02390222
53915KARA ARA20190529014510705/29/19 01:45:31  5-MIN KARA 290745Z AUTO 17005KT 10SM CLR 24/22 A2986 80 90 1200 160/05 RMK AO2 T02390222
53915KARA ARA20190529015011405/29/19 01:50:31  5-MIN KARA 290750Z AUTO 17005KT 10SM CLR 24/22 A2986 80 90 1200 170/05 RMK AO2 SLP111 T02390222
53915KARA ARA20190529015510705/29/19 01:55:31  5-MIN KARA 290755Z AUTO 17006KT 10SM CLR 24/22 A2986 80 87 1200 170/06 RMK AO2 T02440222
53915KARA ARA20190529020010705/29/19 02:00:31  5-MIN KARA 290800Z AUTO 17006KT 10SM CLR 24/23 A2986 80 90 1200 170/06 RMK AO2 T02440228
53915KARA ARA20190529020510705/29/19 02:05:31  5-MIN KARA 290805Z AUTO 18006KT 10SM CLR 24/22 A2986 80 87 1200 170/06 RMK AO2 T02440222
53915KARA ARA20190529021010705/29/19 02:10:31  5-MIN KARA 290810Z AUTO 18006KT 10SM CLR 24/22 A2986 80 87 1200 180/06 RMK AO2 T02440222
53915KARA ARA20190529021510705/29/19 02:15:31  5-MIN KARA 290815Z AUTO 17007KT 10SM CLR 24/22 A2986 80 87 1200 170/07 RMK AO2 T02440222
53915KARA ARA20190529022010705/29/19 02:20:31  5-MIN KARA 290820Z AUTO 17007KT 10SM CLR 24/22 A2986 80 87 1200 170/07 RMK AO2 T02440222
53915KARA ARA20190529022510705/29/19 02:25:31  5-MIN KARA 290825Z AUTO 18006KT 10SM CLR 24/22 A2986 80 87 1200 180/06 RMK AO2 T02440222
53915KARA ARA20190529023010705/29/19 02:30:31  5-MIN KARA 290830Z AUTO 18007KT 10SM CLR 24/22 A2986 90 87 1200 170/07 RMK AO2 T02440222
53915KARA ARA20190529023510705/29/19 02:35:31  5-MIN KARA 290835Z AUTO 17007KT 10SM CLR 24/22 A2985 90 87 1200 170/07 RMK AO2 T02440222
53915KARA ARA20190529024010705/29/19 02:40:31  5-MIN KARA 290840Z AUTO 17008KT 10SM CLR 24/22 A2985 90 87 1200 170/08 RMK AO2 T02440222
53915KARA ARA20190529024510705/29/19 02:45:31  5-MIN KARA 290845Z AUTO 17008KT 10SM CLR 24/22 A2985 90 87 1200 170/08 RMK AO2 T02440222
53915KARA ARA20190529025012005/29/19 02:50:31  5-MIN KARA 290850Z AUTO 18008KT 10SM CLR 24/22 A2985 90 87 1200 170/08 RMK AO2 SLP108 T02440222 58007
53915KARA ARA20190529025510705/29/19 02:55:31  5-MIN KARA 290855Z AUTO 17008KT 10SM CLR 24/22 A2985 90 87 1200 170/08 RMK AO2 T02440222
53915KARA ARA20190529030010705/29/19 03:00:31  5-MIN KARA 290900Z AUTO 18009KT 10SM CLR 24/22 A2985 90 87 1200 180/09 RMK AO2 T02440222
53915KARA ARA20190529030510705/29/19 03:05:31  5-MIN KARA 290905Z AUTO 17009KT 10SM CLR 24/22 A2985 90 87 1200 170/09 RMK AO2 T02440222
53915KARA ARA20190529031010705/29/19 03:10:31  5-MIN KARA 290910Z AUTO 17009KT 10SM CLR 25/22 A2985 90 84 1300 170/09 RMK AO2 T02500222
53915KARA ARA20190529031510705/29/19 03:15:31  5-MIN KARA 290915Z AUTO 17010KT 10SM CLR 25/22 A2985 90 81 1300 170/10 RMK AO2 T02500217
53915KARA ARA20190529032010705/29/19 03:20:31  5-MIN KARA 290920Z AUTO 17009KT 10SM CLR 24/22 A2985 90 84 1200 170/09 RMK AO2 T02440217
53915KARA ARA20190529032510705/29/19 03:25:31  5-MIN KARA 290925Z AUTO 17011KT 10SM CLR 25/22 A2985 90 81 1300 170/11 RMK AO2 T02500217
53915KARA ARA20190529033010705/29/19 03:30:31  5-MIN KARA 290930Z AUTO 17010KT 10SM CLR 25/22 A2985 90 81 1300 170/10 RMK AO2 T02500217
53915KARA ARA20190529033510705/29/19 03:35:31  5-MIN KARA 290935Z AUTO 17010KT 10SM CLR 24/22 A2985 90 84 1200 170/10 RMK AO2 T02440217
53915KARA ARA20190529034010705/29/19 03:40:31  5-MIN KARA 290940Z AUTO 17010KT 10SM CLR 24/22 A2985 90 84 1300 170/10 RMK AO2 T02440217
53915KARA ARA20190529034510805/29/19 03:45:31  5-MIN KARA 290945Z AUTO 17010KT 10SM CLR 24/22 A2984 100 84 1300 170/10 RMK AO2 T02440217
53915KARA ARA20190529035011505/29/19 03:50:31  5-MIN KARA 290950Z AUTO 17011KT 10SM CLR 24/22 A2984 100 84 1300 170/11 RMK AO2 SLP105 T02440217
53915KARA ARA20190529035510805/29/19 03:55:31  5-MIN KARA 290955Z AUTO 17010KT 10SM CLR 24/22 A2984 100 84 1300 170/10 RMK AO2 T02440217
53915KARA ARA20190529040010805/29/19 04:00:31  5-MIN KARA 291000Z AUTO 17010KT 10SM CLR 24/22 A2984 100 84 1300 170/10 RMK AO2 T02440217
53915KARA ARA20190529040510805/29/19 04:05:31  5-MIN KARA 291005Z AUTO 17009KT 10SM CLR 24/22 A2984 100 84 1300 170/09 RMK AO2 T02440217
53915KARA ARA20190529041010805/29/19 04:10:31  5-MIN KARA 291010Z AUTO 17008KT 10SM CLR 24/22 A2984 100 84 1300 170/08 RMK AO2 T02440217
53915KARA ARA20190529041510805/29/19 04:15:31  5-MIN KARA 291015Z AUTO 17009KT 10SM CLR 24/22 A2984 100 84 1300 170/09 RMK AO2 T02440217
53915KARA ARA20190529042010805/29/19 04:20:31  5-MIN KARA 291020Z AUTO 17009KT 10SM CLR 24/22 A2984 100 84 1300 170/09 RMK AO2 T02440217
53915KARA ARA20190529042510805/29/19 04:25:31  5-MIN KARA 291025Z AUTO 18009KT 10SM CLR 24/22 A2984 100 84 1300 180/09 RMK AO2 T02440217
53915KARA ARA20190529043010305/29/19 04:30:31  5-MIN KARA 291030Z 18008KT 10SM CLR 24/22 A2984 100 84 1300 180/08 RMK AO2 T02440217
53915KARA ARA20190529043510305/29/19 04:35:31  5-MIN KARA 291035Z 18008KT 10SM CLR 24/22 A2984 100 84 1300 180/08 RMK AO2 T02440217
53915KARA ARA20190529044010305/29/19 04:40:31  5-MIN KARA 291040Z 17008KT 10SM CLR 24/22 A2984 100 84 1300 170/08 RMK AO2 T02440217
53915KARA ARA20190529044510305/29/19 04:45:31  5-MIN KARA 291045Z 17008KT 10SM CLR 24/22 A2984 100 84 1300 170/08 RMK AO2 T02440217
53915KARA ARA20190529045011005/29/19 04:50:31  5-MIN KARA 291050Z 17009KT 10SM CLR 24/22 A2984 100 87 1300 170/09 RMK AO2 SLP103 T02440222
53915KARA ARA20190529045510305/29/19 04:55:31  5-MIN KARA 291055Z 17008KT 10SM CLR 24/22 A2984 100 87 1300 170/08 RMK AO2 T02440222
53915KARA ARA20190529050010305/29/19 05:00:31  5-MIN KARA 291100Z 17008KT 10SM CLR 24/22 A2984 100 87 1300 170/08 RMK AO2 T02440222
53915KARA ARA20190529050510205/29/19 05:05:31  5-MIN KARA 291105Z 17006KT 10SM CLR 24/22 A2985 90 87 1200 170/06 RMK AO2 T02440222
53915KARA ARA20190529051010205/29/19 05:10:31  5-MIN KARA 291110Z 17007KT 10SM CLR 24/22 A2985 90 87 1200 170/07 RMK AO2 T02440222
53915KARA ARA20190529051510205/29/19 05:15:31  5-MIN KARA 291115Z 17006KT 10SM CLR 24/22 A2986 90 87 1200 170/06 RMK AO2 T02440222
53915KARA ARA20190529052010205/29/19 05:20:31  5-MIN KARA 291120Z 16006KT 10SM CLR 24/22 A2986 80 87 1200 160/06 RMK AO2 T02440222
53915KARA ARA20190529052510205/29/19 05:25:31  5-MIN KARA 291125Z 16007KT 10SM CLR 24/22 A2986 90 87 1200 160/07 RMK AO2 T02440222
53915KARA ARA20190529053010205/29/19 05:30:31  5-MIN KARA 291130Z 16009KT 10SM CLR 24/22 A2986 90 87 1200 160/09 RMK AO2 T02440222
53915KARA ARA20190529053510205/29/19 05:35:31  5-MIN KARA 291135Z 16008KT 10SM CLR 24/22 A2985 90 87 1200 150/08 RMK AO2 T02440222
53915KARA ARA20190529054010205/29/19 05:40:31  5-MIN KARA 291140Z 15007KT 10SM CLR 24/22 A2986 90 87 1200 150/07 RMK AO2 T02440222
53915KARA ARA20190529054510205/29/19 05:45:31  5-MIN KARA 291145Z 16006KT 10SM CLR 24/22 A2986 80 87 1200 160/06 RMK AO2 T02440222
53915KARA ARA20190529055012705/29/19 05:50:31  5-MIN KARA 291150Z 15007KT 10SM CLR 24/22 A2986 80 87 1200 150/07 RMK AO2 SLP110 T02440222 10250 20233 56012
53915KARA ARA20190529055510205/29/19 05:55:31  5-MIN KARA 291155Z 16006KT 10SM CLR 24/23 A2986 80 90 1200 160/06 RMK AO2 T02440228
53915KARA ARA20190529060010205/29/19 06:00:31  5-MIN KARA 291200Z 16006KT 10SM CLR 25/23 A2986 80 87 1300 160/06 RMK AO2 T02500228
53915KARA ARA20190529060510205/29/19 06:05:31  5-MIN KARA 291205Z 16007KT 10SM CLR 25/23 A2986 80 87 1300 160/07 RMK AO2 T02500228
53915KARA ARA20190529061010205/29/19 06:10:31  5-MIN KARA 291210Z 16007KT 10SM CLR 26/23 A2986 80 84 1400 160/07 RMK AO2 T02560228
53915KARA ARA20190529061510205/29/19 06:15:31  5-MIN KARA 291215Z 16007KT 10SM CLR 26/23 A2986 80 84 1400 160/07 RMK AO2 T02560228
53915KARA ARA20190529062010205/29/19 06:20:31  5-MIN KARA 291220Z 16008KT 10SM CLR 26/23 A2986 80 84 1400 160/08 RMK AO2 T02560228
53915KARA ARA20190529062510205/29/19 06:25:31  5-MIN KARA 291225Z 16007KT 10SM CLR 26/23 A2987 80 81 1400 160/07 RMK AO2 T02610228
53915KARA ARA20190529063010205/29/19 06:30:31  5-MIN KARA 291230Z 16009KT 10SM CLR 26/23 A2987 70 81 1400 160/09 RMK AO2 T02610228
53915KARA ARA20190529063510205/29/19 06:35:31  5-MIN KARA 291235Z 16007KT 10SM CLR 26/23 A2987 70 81 1400 160/07 RMK AO2 T02610228
53915KARA ARA20190529064010205/29/19 06:40:31  5-MIN KARA 291240Z 17006KT 10SM CLR 26/23 A2988 70 84 1400 170/06 RMK AO2 T02610233
53915KARA ARA20190529064510205/29/19 06:45:31  5-MIN KARA 291245Z 16007KT 10SM CLR 26/23 A2988 60 81 1400 160/07 RMK AO2 T02610228
53915KARA ARA20190529065011205/29/19 06:50:31  5-MIN KARA 291250Z 16007KT 10SM FEW025 26/23 A2989 60 81 1400 160/07 RMK AO2 SLP119 T02610228
53915KARA ARA20190529065510505/29/19 06:55:31  5-MIN KARA 291255Z 16005KT 10SM SCT027 26/23 A2989 60 84 1400 160/05 RMK AO2 T02610233
53915KARA ARA20190529070010505/29/19 07:00:31  5-MIN KARA 291300Z 17008KT 10SM BKN029 27/23 A2989 60 82 1500 170/08 RMK AO2 T02670233
53915KARA ARA20190529070510505/29/19 07:05:31  5-MIN KARA 291305Z 17008KT 10SM BKN031 27/23 A2989 60 79 1500 160/08 RMK AO2 T02670228
53915KARA ARA20190529071011205/29/19 07:10:31  5-MIN KARA 291310Z 17007KT 10SM SCT028 BKN034 27/23 A2989 60 79 1500 170/07 RMK AO2 T02670228
53915KARA ARA20190529071511205/29/19 07:15:31  5-MIN KARA 291315Z 16009KT 10SM FEW030 BKN036 27/23 A2989 60 82 1500 160/09 RMK AO2 T02670233
53915KARA ARA20190529072011205/29/19 07:20:31  5-MIN KARA 291320Z 16008KT 10SM FEW030 SCT034 27/23 A2989 60 79 1500 160/08 RMK AO2 T02670228
53915KARA ARA20190529072510505/29/19 07:25:31  5-MIN KARA 291325Z 16011KT 10SM FEW034 27/23 A2989 50 79 1500 160/11 RMK AO2 T02720233
53915KARA ARA20190529073010505/29/19 07:30:31  5-MIN KARA 291330Z 16009KT 10SM FEW034 27/23 A2989 50 76 1500 160/09 RMK AO2 T02720228
53915KARA ARA20190529073510505/29/19 07:35:31  5-MIN KARA 291335Z 17010KT 10SM FEW036 28/23 A2989 50 74 1600 170/10 RMK AO2 T02780228
53915KARA ARA20190529074010505/29/19 07:40:31  5-MIN KARA 291340Z 16011KT 10SM FEW025 28/23 A2989 50 74 1600 160/11 RMK AO2 T02830233
53915KARA ARA20190529074510505/29/19 07:45:31  5-MIN KARA 291345Z 17011KT 10SM FEW025 28/23 A2989 50 74 1600 170/11 RMK AO2 T02830233
53915KARA ARA20190529075011205/29/19 07:50:31  5-MIN KARA 291350Z 16012KT 10SM FEW025 28/23 A2990 50 74 1600 150/12 RMK AO2 SLP123 T02780228
53915KARA ARA20190529075510505/29/19 07:55:31  5-MIN KARA 291355Z 17009KT 10SM FEW027 27/23 A2989 50 76 1500 170/09 RMK AO2 T02720228
53915KARA ARA20190529080011205/29/19 08:00:31  5-MIN KARA 291400Z 17011KT 10SM SCT024 SCT039 28/23 A2990 50 74 1600 170/11 RMK AO2 T02780228
53915KARA ARA20190529080511205/29/19 08:05:31  5-MIN KARA 291405Z 19011KT 10SM SCT024 SCT028 28/23 A2990 50 74 1600 190/11 RMK AO2 T02780228
53915KARA ARA20190529081011205/29/19 08:10:31  5-MIN KARA 291410Z 19010KT 10SM FEW023 SCT028 27/23 A2990 50 76 1500 190/10 RMK AO2 T02720228
53915KARA ARA20190529081511205/29/19 08:15:31  5-MIN KARA 291415Z 18009KT 10SM FEW024 SCT029 27/23 A2990 50 76 1500 180/09 RMK AO2 T02720228
53915KARA ARA20190529082010505/29/19 08:20:31  5-MIN KARA 291420Z 17012KT 10SM FEW026 28/23 A2990 50 74 1600 170/12 RMK AO2 T02780228
53915KARA ARA20190529082511205/29/19 08:25:31  5-MIN KARA 291425Z 18011KT 10SM FEW023 FEW028 28/23 A2990 50 71 1600 180/11 RMK AO2 T02830228
53915KARA ARA20190529083011105/29/19 08:30:31  5-MIN KARA 291430Z 19013G19KT 10SM FEW028 28/22 A2990 50 69 1600 190/13G19 RMK AO2 T02830222
53915KARA ARA20190529083511105/29/19 08:35:31  5-MIN KARA 291435Z 18011G19KT 10SM FEW028 28/22 A2990 50 69 1600 180/11G19 RMK AO2 T02830222
53915KARA ARA20190529084010505/29/19 08:40:31  5-MIN KARA 291440Z 19012KT 10SM FEW028 29/23 A2990 50 69 1700 190/12 RMK AO2 T02890228
53915KARA ARA20190529084510505/29/19 08:45:31  5-MIN KARA 291445Z 18011KT 10SM FEW028 29/23 A2990 40 69 1700 180/11 RMK AO2 T02890228
53915KARA ARA20190529085011805/29/19 08:50:31  5-MIN KARA 291450Z 18010KT 10SM FEW028 29/23 A2990 40 69 1700 180/10 RMK AO2 SLP125 T02890228 53001
53915KARA ARA20190529085510505/29/19 08:55:31  5-MIN KARA 291455Z 19012KT 10SM SCT028 28/23 A2990 40 71 1600 190/12 RMK AO2 T02830228
53915KARA ARA20190529090011905/29/19 09:00:31  5-MIN KARA 291500Z 18012KT 10SM SCT028 BKN035 BKN060 28/22 A2991 40 69 1600 180/12 RMK AO2 T02830222
53915KARA ARA20190529090511905/29/19 09:05:31  5-MIN KARA 291505Z 19011KT 10SM SCT028 BKN037 BKN060 28/22 A2991 40 69 1600 190/11 RMK AO2 T02830222
53915KARA ARA20190529091011905/29/19 09:10:31  5-MIN KARA 291510Z 18010KT 10SM SCT028 BKN036 BKN060 28/22 A2991 40 69 1600 180/10 RMK AO2 T02830222
53915KARA ARA20190529091511905/29/19 09:15:31  5-MIN KARA 291515Z 17009KT 10SM SCT028 SCT033 SCT060 29/23 A2991 40 69 1700 170/09 RMK AO2 T02890228
53915KARA ARA20190529092011905/29/19 09:20:31  5-MIN KARA 291520Z 18011KT 10SM SCT028 SCT033 BKN060 29/23 A2991 30 69 1700 180/11 RMK AO2 T02940233
53915KARA ARA20190529092511205/29/19 09:25:31  5-MIN KARA 291525Z 16008KT 10SM BKN028 BKN038 29/23 A2991 40 69 1700 160/08 RMK AO2 T02890228
53915KARA ARA20190529093011205/29/19 09:30:31  5-MIN KARA 291530Z 19011KT 10SM SCT028 BKN038 29/22 A2991 40 67 1700 190/11 RMK AO2 T02890222
53915KARA ARA20190529093510505/29/19 09:35:31  5-MIN KARA 291535Z 18013KT 10SM FEW028 30/23 A2991 40 65 1800 180/13 RMK AO2 T03000228
53915KARA ARA20190529094010505/29/19 09:40:31  5-MIN KARA 291540Z 16012KT 10SM SCT028 30/23 A2991 40 65 1800 160/12 RMK AO2 T03000228
53915KARA ARA20190529094511205/29/19 09:45:31  5-MIN KARA 291545Z 16011KT 10SM FEW026 SCT032 29/23 A2991 40 67 1700 160/11 RMK AO2 T02940228
53915KARA ARA20190529095011205/29/19 09:50:31  5-MIN KARA 291550Z 17010KT 10SM FEW026 29/23 A2991 40 69 1700 170/10 RMK AO2 SLP126 T02890228
53915KARA ARA20190529095510205/29/19 09:55:31  5-MIN KARA 291555Z 16011KT 10SM CLR 29/23 A2991 40 69 1700 160/11 RMK AO2 T02940233
53915KARA ARA20190529100010505/29/19 10:00:31  5-MIN KARA 291600Z 15010KT 10SM FEW027 29/23 A2991 40 69 1700 150/10 RMK AO2 T02890228
53915KARA ARA20190529100510505/29/19 10:05:31  5-MIN KARA 291605Z 15016KT 10SM SCT027 29/23 A2991 40 67 1700 150/16 RMK AO2 T02940228
53915KARA ARA20190529101011805/29/19 10:10:31  5-MIN KARA 291610Z 17015G22KT 10SM SCT027 SCT036 29/23 A2990 40 67 1800 170/15G22 RMK AO2 T02940228
53915KARA ARA20190529101511805/29/19 10:15:31  5-MIN KARA 291615Z 16016G22KT 10SM SCT027 SCT036 30/23 A2990 40 65 1800 160/16G22 RMK AO2 T03000228
53915KARA ARA20190529102011205/29/19 10:20:31  5-MIN KARA 291620Z 16016KT 10SM FEW029 SCT036 31/23 A2990 40 62 1900 160/16 RMK AO2 T03060228
53915KARA ARA20190529102511205/29/19 10:25:31  5-MIN KARA 291625Z 16016KT 10SM FEW029 SCT036 31/23 A2990 40 62 1900 160/16 RMK AO2 T03060228
53915KARA ARA20190529102512305/29/19 10:25:31  5-MIN KARA 291625Z 160180/13 RMK AO2 T0311021105/29/19 17014G20KT 10SM FEW039 31/24G19 RMK AO2 T03110211
53915KARA ARA20190529103011205/29/19 10:30:31  5-MIN KARA 291630Z 16016KT 10SM FEW029 SCT038 31/22 A2990 40 60 1900 160/16 RMK AO2 T03060222
53915KARA ARA20190529103511205/29/19 10:35:31  5-MIN KARA 291635Z 17015KT 10SM FEW029 FEW038 31/22 A2991 40 60 1900 170/15 RMK AO2 T03060222
53915KARA ARA20190529104010205/29/19 10:40:31  5-MIN KARA 291640Z 18012KT 10SM CLR 31/22 A2991 40 60 1900 180/12 RMK AO2 T03060222
53915KARA ARA20190529104510205/29/19 10:45:31  5-MIN KARA 291645Z 17012KT 10SM CLR 31/22 A2991 40 60 1900 170/12 RMK AO2 T03060222
53915KARA ARA20190529105011505/29/19 10:50:31  5-MIN KARA 291650Z 16015G20KT 10SM CLR 31/22 A2991 40 60 1900 160/15G20 RMK AO2 SLP126 T03060222
53915KARA ARA20190529105511105/29/19 10:55:31  5-MIN KARA 291655Z 18015G20KT 10SM FEW033 31/22 A2991 40 60 1900 170/15G20 RMK AO2 T03060222
53915KARA ARA20190529110010505/29/19 11:00:31  5-MIN KARA 291700Z 17014KT 10SM FEW033 30/22 A2991 40 62 1800 170/14 RMK AO2 T03000222
53915KARA ARA20190529110510505/29/19 11:05:31  5-MIN KARA 291705Z 16015KT 10SM SCT033 31/22 A2991 40 60 1900 160/15 RMK AO2 T03060222
53915KARA ARA20190529111010505/29/19 11:10:31  5-MIN KARA 291710Z 18014KT 10SM SCT033 31/22 A2991 40 58 1900 170/14 RMK AO2 T03060217
53915KARA ARA20190529111510505/29/19 11:15:31  5-MIN KARA 291715Z 18014KT 10SM SCT035 31/22 A2991 40 58 1900 180/14 RMK AO2 T03060217
53915KARA ARA20190529112010505/29/19 11:20:31  5-MIN KARA 291720Z 17012KT 10SM SCT035 31/21 A2991 40 54 1900 170/12 RMK AO2 T03110211
53915KARA ARA20190529112510505/29/19 11:25:31  5-MIN KARA 291725Z 15012KT 10SM FEW035 31/21 A2991 40 56 1900 150/12 RMK AO2 T03060211
53915KARA ARA20190529113010505/29/19 11:30:31  5-MIN KARA 291730Z 15014KT 10SM FEW035 31/21 A2990 40 56 1900 150/14 RMK AO2 T03060211
53915KARA ARA20190529113510505/29/19 11:35:31  5-MIN KARA 291735Z 18014KT 10SM FEW035 31/21 A2990 40 54 1900 170/14 RMK AO2 T03060206
53915KARA ARA20190529114010205/29/19 11:40:31  5-MIN KARA 291740Z 16014KT 10SM CLR 31/21 A2991 40 54 1900 160/14 RMK AO2 T03060206
53915KARA ARA20190529114510205/29/19 11:45:31  5-MIN KARA 291745Z 16014KT 10SM CLR 31/21 A2990 40 54 1900 160/14 RMK AO2 T03110211
53915KARA ARA20190529115012705/29/19 11:50:31  5-MIN KARA 291750Z 17012KT 10SM CLR 31/21 A2990 40 53 1900 170/12 RMK AO2 SLP125 T03110206 10311 20244 51016
53915KARA ARA20190529115510205/29/19 11:55:31  5-MIN KARA 291755Z 18013KT 10SM CLR 31/21 A2990 40 54 1900 180/13 RMK AO2 T03110211
53915KARA ARA20190529120010805/29/19 12:00:31  5-MIN KARA 291800Z 17014G20KT 10SM CLR 31/21 A2990 40 53 1900 170/14G20 RMK AO2 T03110206
53915KARA ARA20190529120511105/29/19 12:05:31  5-MIN KARA 291805Z 15016G20KT 10SM FEW039 31/20 A2990 50 52 1900 150/16G20 RMK AO2 T03060200
53915KARA ARA20190529121011105/29/19 12:10:31  5-MIN KARA 291810Z 17014G20KT 10SM FEW039 31/21 A2990 40 53 1900 170/14G20 RMK AO2 T03110206
53915KARA ARA20190529121511105/29/19 12:15:31  5-MIN KARA 291815Z 16011G19KT 10SM FEW039 31/21 A2990 50 56 1900 160/11G19 RMK AO2 T03060211
53915KARA ARA20190529122011105/29/19 12:20:31  5-MIN KARA 291820Z 18014G19KT 10SM FEW039 31/21 A2989 50 54 1900 180/14G19 RMK AO2 T03110211
53915KARA ARA20190529122511105/29/19 12:25:31  5-MIN KARA 291825Z 16012G20KT 10SM FEW039 31/21 A2990 50 53 1900 160/12G20 RMK AO2 T03110206
53915KARA ARA20190529123010505/29/19 12:30:31  5-MIN KARA 291830Z 18012KT 10SM FEW039 31/21 A2990 50 54 1900 180/12 RMK AO2 T03110211
53915KARA ARA20190529123510505/29/19 12:35:31  5-MIN KARA 291835Z 18017KT 10SM FEW039 31/21 A2989 50 53 1900 180/17 RMK AO2 T03110206
53915KARA ARA20190529124010805/29/19 12:40:31  5-MIN KARA 291840Z 18015G21KT 10SM CLR 31/21 A2989 50 53 2000 180/15G21 RMK AO2 T03110206
53915KARA ARA20190529124510805/29/19 12:45:31  5-MIN KARA 291845Z 18015G21KT 10SM CLR 31/20 A2989 50 51 2000 180/15G21 RMK AO2 T03110200
53915KARA ARA20190529125010905/29/19 12:50:31  5-MIN KARA 291850Z 16014KT 10SM CLR 31/21 A2989 60 54 2000 160/14 RMK AO2 SLP120 T03110211
53915KARA ARA20190529125510505/29/19 12:55:31  5-MIN KARA 291855Z 17013KT 10SM FEW040 32/21 A2989 60 53 2000 170/13 RMK AO2 T03170211
53915KARA ARA20190529130010505/29/19 13:00:31  5-MIN KARA 291900Z 18012KT 10SM FEW040 31/21 A2988 60 54 2000 180/12 RMK AO2 T03110211
53915KARA ARA20190529130510505/29/19 13:05:31  5-MIN KARA 291905Z 18014KT 10SM FEW040 31/22 A2988 60 56 2000 180/14 RMK AO2 T03110217
53915KARA ARA20190529131010505/29/19 13:10:31  5-MIN KARA 291910Z 17013KT 10SM FEW041 31/21 A2988 70 54 2000 170/13 RMK AO2 T03110211
53915KARA ARA20190529131510505/29/19 13:15:31  5-MIN KARA 291915Z 19014KT 10SM FEW038 31/21 A2988 70 54 2000 190/14 RMK AO2 T03110211
53915KARA ARA20190529132010505/29/19 13:20:31  5-MIN KARA 291920Z 17015KT 10SM FEW038 31/21 A2987 70 56 1900 170/15 RMK AO2 T03060211
53915KARA ARA20190529132510505/29/19 13:25:31  5-MIN KARA 291925Z 16014KT 10SM FEW038 32/21 A2987 70 53 2000 160/14 RMK AO2 T03170211
53915KARA ARA20190529133010505/29/19 13:30:31  5-MIN KARA 291930Z 17012KT 10SM FEW038 31/21 A2987 70 53 2000 160/12 RMK AO2 T03110206
53915KARA ARA20190529133511105/29/19 13:35:31  5-MIN KARA 291935Z 18013G18KT 10SM FEW038 31/21 A2987 70 54 2000 180/13G18 RMK AO2 T03110211
53915KARA ARA20190529134011105/29/19 13:40:31  5-MIN KARA 291940Z 18012G18KT 10SM FEW038 31/22 A2987 70 56 2000 180/12G18 RMK AO2 T03110217
53915KARA ARA20190529134511105/29/19 13:45:31  5-MIN KARA 291945Z 18014G19KT 10SM SCT041 31/21 A2987 80 54 1900 180/14G19 RMK AO2 T03060206
53915KARA ARA20190529135011805/29/19 13:50:31  5-MIN KARA 291950Z 18011G19KT 10SM SCT041 31/19 A2986 80 49 2000 180/11G19 RMK AO2 SLP112 T03110194
53915KARA ARA20190529135510505/29/19 13:55:31  5-MIN KARA 291955Z 18012KT 10SM SCT041 31/21 A2986 80 53 2000 180/12 RMK AO2 T03110206
53915KARA ARA20190529140010505/29/19 14:00:31  5-MIN KARA 292000Z 19014KT 10SM SCT041 31/21 A2986 80 54 2000 180/14 RMK AO2 T03110211
53915KARA ARA20190529140510505/29/19 14:05:31  5-MIN KARA 292005Z 16014KT 10SM FEW040 31/21 A2985 90 54 2000 160/14 RMK AO2 T03110211
53915KARA ARA20190529141010505/29/19 14:10:31  5-MIN KARA 292010Z 15015KT 10SM FEW040 31/21 A2985 90 54 2000 150/15 RMK AO2 T03110211
53915KARA ARA20190529141511105/29/19 14:15:31  5-MIN KARA 292015Z 15011G19KT 10SM FEW040 31/21 A2985 90 54 2000 150/11G19 RMK AO2 T03110211
53915KARA ARA20190529142011105/29/19 14:20:31  5-MIN KARA 292020Z 17014G19KT 10SM FEW038 31/22 A2985 90 56 2000 170/14G19 RMK AO2 T03110217
53915KARA ARA20190529142510305/29/19 14:25:31  5-MIN KARA 292025Z 17014KT 10SM CLR 31/21 A2985 100 54 2000 170/14 RMK AO2 T03110211
53915KARA ARA20190529143010205/29/19 14:30:31  5-MIN KARA 292030Z 18015KT 10SM CLR 31/21 A2985 90 53 2000 180/15 RMK AO2 T03110206
53915KARA ARA20190529143510805/29/19 14:35:31  5-MIN KARA 292035Z 17016G22KT 10SM CLR 31/21 A2985 90 53 2000 170/16G22 RMK AO2 T03110206
53915KARA ARA20190529144010805/29/19 14:40:31  5-MIN KARA 292040Z 17014G22KT 10SM CLR 31/21 A2985 90 53 2000 170/14G22 RMK AO2 T03110206
53915KARA ARA20190529144510205/29/19 14:45:31  5-MIN KARA 292045Z 16015KT 10SM CLR 31/20 A2985 90 51 2000 160/15 RMK AO2 T03110200
53915KARA ARA20190529145011605/29/19 14:50:31  5-MIN KARA 292050Z 16014KT 10SM CLR 31/19 A2985 100 49 2000 160/14 RMK AO2 SLP106 T03110194 50001
53915KARA ARA20190529145510305/29/19 14:55:31  5-MIN KARA 292055Z 17014KT 10SM CLR 31/18 A2984 100 46 2000 170/14 RMK AO2 T03110183
53915KARA ARA20190529150010305/29/19 15:00:31  5-MIN KARA 292100Z 19013KT 10SM CLR 31/18 A2984 100 44 2000 190/13 RMK AO2 T03110178
53915KARA ARA20190529150510905/29/19 15:05:31  5-MIN KARA 292105Z 18014G20KT 10SM CLR 31/17 A2984 100 42 2000 180/14G20 RMK AO2 T03110172
53915KARA ARA20190529151010905/29/19 15:10:31  5-MIN KARA 292110Z 18012G18KT 10SM CLR 31/18 A2984 100 46 2000 180/12G18 RMK AO2 T03110183
53915KARA ARA20190529151510305/29/19 15:15:31  5-MIN KARA 292115Z 16012KT 10SM CLR 31/18 A2984 100 46 2000 160/12 RMK AO2 T03110183
53915KARA ARA20190529152010305/29/19 15:20:31  5-MIN KARA 292120Z 18013KT 10SM CLR 31/19 A2984 100 49 2000 180/13 RMK AO2 T03110194
53915KARA ARA20190529152510305/29/19 15:25:31  5-MIN KARA 292125Z 18015KT 10SM CLR 31/18 A2984 100 46 2000 180/15 RMK AO2 T03110183
53915KARA ARA20190529153010305/29/19 15:30:31  5-MIN KARA 292130Z 18012KT 10SM CLR 31/19 A2984 100 47 2000 180/12 RMK AO2 T03110189
53915KARA ARA20190529153510905/29/19 15:35:31  5-MIN KARA 292135Z 18016G21KT 10SM CLR 31/19 A2983 110 51 2000 180/16G21 RMK AO2 T03060194
53915KARA ARA20190529154010305/29/19 15:40:31  5-MIN KARA 292140Z 18016KT 10SM CLR 31/19 A2983 110 51 2000 180/16 RMK AO2 T03060194
53915KARA ARA20190529154510305/29/19 15:45:31  5-MIN KARA 292145Z 18015KT 10SM CLR 31/19 A2983 110 47 2000 180/15 RMK AO2 T03110189
53915KARA ARA20190529155011005/29/19 15:50:31  5-MIN KARA 292150Z 16016KT 10SM CLR 31/19 A2983 110 51 2000 160/16 RMK AO2 SLP100 T03060194
53915KARA ARA20190529155510305/29/19 15:55:31  5-MIN KARA 292155Z 16014KT 10SM CLR 31/19 A2983 110 49 2000 160/14 RMK AO2 T03060189
53915KARA ARA20190529160010305/29/19 16:00:31  5-MIN KARA 292200Z 16015KT 10SM CLR 31/18 A2983 110 46 2000 150/15 RMK AO2 T03060178
53915KARA ARA20190529160510305/29/19 16:05:31  5-MIN KARA 292205Z 18013KT 10SM CLR 31/19 A2983 110 49 2000 180/13 RMK AO2 T03060189
53915KARA ARA20190529161010305/29/19 16:10:31  5-MIN KARA 292210Z 19013KT 10SM CLR 31/19 A2983 110 51 2000 190/13 RMK AO2 T03060194
53915KARA ARA20190529161510905/29/19 16:15:31  5-MIN KARA 292215Z 18012G21KT 10SM CLR 31/19 A2983 110 49 2000 180/12G21 RMK AO2 T03060189
53915KARA ARA20190529162010905/29/19 16:20:31  5-MIN KARA 292220Z 19015G21KT 10SM CLR 31/19 A2983 110 51 2000 180/15G21 RMK AO2 T03060194
53915KARA ARA20190529162510905/29/19 16:25:31  5-MIN KARA 292225Z 17015G20KT 10SM CLR 31/19 A2983 110 51 2000 170/15G20 RMK AO2 T03060194
53915KARA ARA20190529163010905/29/19 16:30:31  5-MIN KARA 292230Z 16012G20KT 10SM CLR 30/19 A2982 120 52 1900 160/12G20 RMK AO2 T03000194
53915KARA ARA20190529163510305/29/19 16:35:31  5-MIN KARA 292235Z 18014KT 10SM CLR 31/20 A2983 110 52 2000 180/14 RMK AO2 T03060200
53915KARA ARA20190529164010905/29/19 16:40:31  5-MIN KARA 292240Z 18013G19KT 10SM CLR 30/20 A2983 110 54 1900 180/13G19 RMK AO2 T03000200
53915KARA ARA20190529164510905/29/19 16:45:31  5-MIN KARA 292245Z 17013G19KT 10SM CLR 29/21 A2983 110 58 1800 170/13G19 RMK AO2 T02940206
53915KARA ARA20190529165011305/29/19 16:50:31  5-MIN KARA 292250Z 18014KT 10SM FEW040 29/21 A2983 110 58 1800 180/14 RMK AO2 SLP100 T02940206
53915KARA ARA20190529165510605/29/19 16:55:31  5-MIN KARA 292255Z 18013KT 10SM FEW040 29/21 A2983 110 60 1800 180/13 RMK AO2 T02940211
53915KARA ARA20190529170010905/29/19 17:00:31  5-MIN KARA 292300Z 16013G18KT 10SM CLR 29/21 A2983 110 60 1800 150/13G18 RMK AO2 T02940211
53915KARA ARA20190529170510305/29/19 17:05:31  5-MIN KARA 292305Z 18013KT 10SM CLR 29/21 A2983 110 62 1800 180/13 RMK AO2 T02890211
53915KARA ARA20190529171010305/29/19 17:10:31  5-MIN KARA 292310Z 18013KT 10SM CLR 29/21 A2984 100 60 1800 170/13 RMK AO2 T02940211
53915KARA ARA20190529171510305/29/19 17:15:31  5-MIN KARA 292315Z 17013KT 10SM CLR 29/21 A2983 110 60 1800 170/13 RMK AO2 T02940211
53915KARA ARA20190529172010305/29/19 17:20:31  5-MIN KARA 292320Z 17013KT 10SM CLR 29/21 A2983 110 60 1800 160/13 RMK AO2 T02940211
53915KARA ARA20190529172510305/29/19 17:25:31  5-MIN KARA 292325Z 17010KT 10SM CLR 29/22 A2983 110 64 1800 170/10 RMK AO2 T02890217
53915KARA ARA20190529173010605/29/19 17:30:31  5-MIN KARA 292330Z 17011KT 10SM FEW032 29/21 A2983 110 62 1800 170/11 RMK AO2 T02890211
53915KARA ARA20190529173510605/29/19 17:35:31  5-MIN KARA 292335Z 16013KT 10SM FEW032 29/22 A2983 110 64 1800 160/13 RMK AO2 T02890217
53915KARA ARA20190529174010605/29/19 17:40:31  5-MIN KARA 292340Z 16010KT 10SM FEW033 29/22 A2983 110 64 1800 160/10 RMK AO2 T02890217
53915KARA ARA20190529174510605/29/19 17:45:31  5-MIN KARA 292345Z 16012KT 10SM FEW033 29/22 A2983 110 64 1800 160/12 RMK AO2 T02890217
53915KARA ARA20190529175013105/29/19 17:50:31  5-MIN KARA 292350Z 16011KT 10SM FEW033 28/22 A2984 110 66 1700 160/11 RMK AO2 SLP102 T02830217 10317 20283 57020
53915KARA ARA20190529175510605/29/19 17:55:31  5-MIN KARA 292355Z 16011KT 10SM FEW033 29/22 A2984 100 64 1800 160/11 RMK AO2 T02890217
53915KARA ARA20190529180010305/29/19 18:00:31  5-MIN KARA 300000Z 16011KT 10SM CLR 29/22 A2984 100 64 1800 160/11 RMK AO2 T02890217
53915KARA ARA20190529180510305/29/19 18:05:31  5-MIN KARA 300005Z 17010KT 10SM CLR 28/22 A2984 100 66 1700 170/10 RMK AO2 T02830217
53915KARA ARA20190529181010305/29/19 18:10:31  5-MIN KARA 300010Z 17011KT 10SM CLR 28/22 A2984 100 66 1700 170/11 RMK AO2 T02830217
53915KARA ARA20190529181510305/29/19 18:15:31  5-MIN KARA 300015Z 16010KT 10SM CLR 28/22 A2984 100 66 1700 160/10 RMK AO2 T02830217
53915KARA ARA20190529182010305/29/19 18:20:31  5-MIN KARA 300020Z 17011KT 10SM CLR 28/22 A2984 100 66 1700 170/11 RMK AO2 T02830217
53915KARA ARA20190529182510305/29/19 18:25:31  5-MIN KARA 300025Z 18010KT 10SM CLR 28/22 A2984 100 69 1600 170/10 RMK AO2 T02780217
53915KARA ARA20190529183010305/29/19 18:30:31  5-MIN KARA 300030Z 18009KT 10SM CLR 28/22 A2984 100 69 1600 170/09 RMK AO2 T02780217
53915KARA ARA20190529183510305/29/19 18:35:31  5-MIN KARA 300035Z 17011KT 10SM CLR 28/22 A2984 100 69 1600 170/11 RMK AO2 T02780217
53915KARA ARA20190529184010205/29/19 18:40:31  5-MIN KARA 300040Z 17009KT 10SM CLR 28/22 A2985 90 69 1600 170/09 RMK AO2 T02780217
53915KARA ARA20190529184510205/29/19 18:45:31  5-MIN KARA 300045Z 18009KT 10SM CLR 28/22 A2985 90 69 1600 180/09 RMK AO2 T02780217
53915KARA ARA20190529185010905/29/19 18:50:31  5-MIN KARA 300050Z 17008KT 10SM CLR 27/22 A2985 90 71 1600 170/08 RMK AO2 SLP106 T02720217
53915KARA ARA20190529185510205/29/19 18:55:31  5-MIN KARA 300055Z 17008KT 10SM CLR 27/22 A2985 90 71 1600 170/08 RMK AO2 T02720217
53915KARA ARA20190529190010205/29/19 19:00:31  5-MIN KARA 300100Z 16008KT 10SM CLR 27/22 A2985 90 71 1600 160/08 RMK AO2 T02720217
53915KARA ARA20190529190510205/29/19 19:05:31  5-MIN KARA 300105Z 15008KT 10SM CLR 27/22 A2985 90 73 1500 150/08 RMK AO2 T02670217
53915KARA ARA20190529191010205/29/19 19:10:31  5-MIN KARA 300110Z 15006KT 10SM CLR 26/22 A2985 90 76 1400 150/06 RMK AO2 T02610217
53915KARA ARA20190529191510205/29/19 19:15:31  5-MIN KARA 300115Z 16007KT 10SM CLR 26/22 A2985 90 76 1400 160/07 RMK AO2 T02610217
53915KARA ARA20190529192010205/29/19 19:20:31  5-MIN KARA 300120Z 16006KT 10SM CLR 26/22 A2985 90 76 1400 150/06 RMK AO2 T02610217
53915KARA ARA20190529192510705/29/19 19:25:31  5-MIN KARA 300125Z AUTO 15006KT 10SM CLR 26/22 A2985 90 79 1400 150/06 RMK AO2 T02560217
53915KARA ARA20190529193010705/29/19 19:30:31  5-MIN KARA 300130Z AUTO 16006KT 10SM CLR 26/22 A2985 90 79 1400 150/06 RMK AO2 T02560217
53915KARA ARA20190529193510705/29/19 19:35:31  5-MIN KARA 300135Z AUTO 16006KT 10SM CLR 25/22 A2985 90 81 1300 160/06 RMK AO2 T02500217
53915KARA ARA20190529194010705/29/19 19:40:31  5-MIN KARA 300140Z AUTO 16005KT 10SM CLR 25/22 A2985 90 81 1300 150/05 RMK AO2 T02500217
53915KARA ARA20190529194510705/29/19 19:45:31  5-MIN KARA 300145Z AUTO 16005KT 10SM CLR 25/22 A2986 90 81 1300 150/05 RMK AO2 T02500217
53915KARA ARA20190529195011405/29/19 19:50:31  5-MIN KARA 300150Z AUTO 15006KT 10SM CLR 24/22 A2986 80 84 1200 150/06 RMK AO2 SLP110 T02440217
53915KARA ARA20190529195510705/29/19 19:55:31  5-MIN KARA 300155Z AUTO 15007KT 10SM CLR 24/22 A2986 90 84 1200 150/07 RMK AO2 T02440217
53915KARA ARA20190529200010705/29/19 20:00:31  5-MIN KARA 300200Z AUTO 15007KT 10SM CLR 24/22 A2985 90 84 1200 150/07 RMK AO2 T02440217
53915KARA ARA20190529200510705/29/19 20:05:31  5-MIN KARA 300205Z AUTO 15007KT 10SM CLR 24/22 A2985 90 84 1200 150/07 RMK AO2 T02440217
53915KARA ARA20190529201010705/29/19 20:10:31  5-MIN KARA 300210Z AUTO 15007KT 10SM CLR 24/22 A2985 90 84 1200 150/07 RMK AO2 T02440217
53915KARA ARA20190529201510705/29/19 20:15:31  5-MIN KARA 300215Z AUTO 16007KT 10SM CLR 24/22 A2985 90 84 1200 160/07 RMK AO2 T02440217
53915KARA ARA20190529202010705/29/19 20:20:31  5-MIN KARA 300220Z AUTO 15008KT 10SM CLR 24/22 A2985 90 84 1200 150/08 RMK AO2 T02440217
53915KARA ARA20190529202510705/29/19 20:25:31  5-MIN KARA 300225Z AUTO 15007KT 10SM CLR 24/22 A2986 90 84 1200 150/07 RMK AO2 T02440217
53915KARA ARA20190529203010705/29/19 20:30:31  5-MIN KARA 300230Z AUTO 15007KT 10SM CLR 24/22 A2986 80 84 1200 140/07 RMK AO2 T02440217
53915KARA ARA20190529203510705/29/19 20:35:31  5-MIN KARA 300235Z AUTO 15007KT 10SM CLR 24/22 A2986 80 84 1200 140/07 RMK AO2 T02440217
53915KARA ARA20190529204010705/29/19 20:40:31  5-MIN KARA 300240Z AUTO 14007KT 10SM CLR 24/22 A2986 80 84 1200 140/07 RMK AO2 T02440217
53915KARA ARA20190529204510705/29/19 20:45:31  5-MIN KARA 300245Z AUTO 14007KT 10SM CLR 24/22 A2987 80 84 1200 140/07 RMK AO2 T02440217
53915KARA ARA20190529205012005/29/19 20:50:31  5-MIN KARA 300250Z AUTO 14006KT 10SM CLR 24/22 A2987 70 84 1200 140/06 RMK AO2 SLP114 T02440217 55002
53915KARA ARA20190529205510705/29/19 20:55:31  5-MIN KARA 300255Z AUTO 14006KT 10SM CLR 24/22 A2987 70 87 1200 140/06 RMK AO2 T02390217
53915KARA ARA20190529210010705/29/19 21:00:31  5-MIN KARA 300300Z AUTO 14006KT 10SM CLR 24/22 A2987 70 87 1200 140/06 RMK AO2 T02390217
53915KARA ARA20190529210510705/29/19 21:05:31  5-MIN KARA 300305Z AUTO 15006KT 10SM CLR 24/22 A2988 70 87 1200 150/06 RMK AO2 T02390217
53915KARA ARA20190529211010705/29/19 21:10:31  5-MIN KARA 300310Z AUTO 15006KT 10SM CLR 24/22 A2988 70 87 1200 150/06 RMK AO2 T02390217
53915KARA ARA20190529211510705/29/19 21:15:31  5-MIN KARA 300315Z AUTO 15006KT 10SM CLR 24/22 A2988 60 87 1200 150/06 RMK AO2 T02390217
53915KARA ARA20190529212010705/29/19 21:20:31  5-MIN KARA 300320Z AUTO 15006KT 10SM CLR 23/22 A2988 70 90 1100 150/06 RMK AO2 T02330217
53915KARA ARA20190529212510705/29/19 21:25:31  5-MIN KARA 300325Z AUTO 16005KT 10SM CLR 23/22 A2988 60 90 1100 160/05 RMK AO2 T02330217
53915KARA ARA20190529213010705/29/19 21:30:31  5-MIN KARA 300330Z AUTO 16004KT 10SM CLR 23/22 A2988 60 90 1100 160/04 RMK AO2 T02330217
53915KARA ARA20190529213510705/29/19 21:35:31  5-MIN KARA 300335Z AUTO 16005KT 10SM CLR 24/22 A2988 60 87 1100 160/05 RMK AO2 T02390217
53915KARA ARA20190529214010705/29/19 21:40:31  5-MIN KARA 300340Z AUTO 16005KT 10SM CLR 23/22 A2988 60 90 1100 150/05 RMK AO2 T02330217
53915KARA ARA20190529214510705/29/19 21:45:31  5-MIN KARA 300345Z AUTO 15006KT 10SM CLR 23/22 A2988 60 90 1100 150/06 RMK AO2 T02330217
53915KARA ARA20190529215011405/29/19 21:50:31  5-MIN KARA 300350Z AUTO 15006KT 10SM CLR 23/22 A2988 60 90 1100 150/06 RMK AO2 SLP118 T02330217
53915KARA ARA20190529215510705/29/19 21:55:31  5-MIN KARA 300355Z AUTO 15006KT 10SM CLR 23/22 A2988 60 93 1000 140/06 RMK AO2 T02280217
53915KARA ARA20190529220010705/29/19 22:00:31  5-MIN KARA 300400Z AUTO 14006KT 10SM CLR 23/22 A2988 60 90 1100 140/06 RMK AO2 T02330217
53915KARA ARA20190529220510705/29/19 22:05:31  5-MIN KARA 300405Z AUTO 14005KT 10SM CLR 23/22 A2988 70 93 1100 140/05 RMK AO2 T02330222
53915KARA ARA20190529223510705/29/19 22:35:31  5-MIN KARA 300435Z AUTO 14005KT 10SM CLR 23/22 A2987 70 93 1000 140/05 RMK AO2 T02280217
53915KARA ARA20190529224010705/29/19 22:40:31  5-MIN KARA 300440Z AUTO 15005KT 10SM CLR 23/22 A2987 70 93 1000 140/05 RMK AO2 T02280217
53915KARA ARA20190529224510705/29/19 22:45:31  5-MIN KARA 300445Z AUTO 14004KT 10SM CLR 23/22 A2987 70 93 1000 140/04 RMK AO2 T02280217
53915KARA ARA20190529225011405/29/19 22:50:31  5-MIN KARA 300450Z AUTO 15004KT 10SM CLR 23/22 A2987 70 93 1000 140/04 RMK AO2 SLP115 T02280217
53915KARA ARA20190529225510705/29/19 22:55:31  5-MIN KARA 300455Z AUTO 15005KT 10SM CLR 23/22 A2987 70 93 1000 140/05 RMK AO2 T02280217
53915KARA ARA20190529230010705/29/19 23:00:31  5-MIN KARA 300500Z AUTO 15005KT 10SM CLR 22/22 A2987 70 97 1000 150/05 RMK AO2 T02220217
53915KARA ARA20190529230510705/29/19 23:05:31  5-MIN KARA 300505Z AUTO 16004KT 10SM CLR 23/22 A2987 70 93 1000 160/04 RMK AO2 T02280217
53915KARA ARA20190529231010705/29/19 23:10:31  5-MIN KARA 300510Z AUTO 16006KT 10SM CLR 23/22 A2987 70 93 1000 160/06 RMK AO2 T02280217
53915KARA ARA20190529231510705/29/19 23:15:31  5-MIN KARA 300515Z AUTO 15006KT 10SM CLR 22/22 A2987 70 97 1000 150/06 RMK AO2 T02220217
53915KARA ARA20190529232010705/29/19 23:20:31  5-MIN KARA 300520Z AUTO 15005KT 10SM CLR 22/22 A2987 70 97 1000 150/05 RMK AO2 T02220217
53915KARA ARA20190529232510705/29/19 23:25:31  5-MIN KARA 300525Z AUTO 16005KT 10SM CLR 23/22 A2987 70 93 1000 160/05 RMK AO2 T02280217
53915KARA ARA20190529233010705/29/19 23:30:31  5-MIN KARA 300530Z AUTO 16004KT 10SM CLR 23/22 A2987 70 97 1000 160/04 RMK AO2 T02280222
53915KARA ARA20190529233510705/29/19 23:35:31  5-MIN KARA 300535Z AUTO 17004KT 10SM CLR 23/22 A2987 70 97 1000 170/04 RMK AO2 T02280222
53915KARA ARA20190529234010705/29/19 23:40:31  5-MIN KARA 300540Z AUTO 17005KT 10SM CLR 23/22 A2987 70 97 1000 170/05 RMK AO2 T02280222
53915KARA ARA20190529234511005/29/19 23:45:31  5-MIN KARA 300545Z AUTO 16006KT 10SM FEW027 23/22 A2987 80 97 1000 160/06 RMK AO2 T02280222
53915KARA ARA20190529235014505/29/19 23:50:31  5-MIN KARA 300550Z AUTO 16006KT 10SM FEW027 23/22 A2987 80 93 1100 160/06 RMK AO2 SLP112 T02330222 10289 20222 403170222 53011
53915KARA ARA20190529235511005/29/19 23:55:31  5-MIN KARA 300555Z AUTO 16004KT 10SM FEW027 23/22 A2987 70 97 1000 160/04 RMK AO2 T02280222
53915KARA ARA20190530000011005/30/19 00:00:31  5-MIN KARA 300600Z AUTO 16003KT 10SM FEW027 23/22 A2987 70 97 1000 160/03 RMK AO2 T02280222
53915KARA ARA20190530000511005/30/19 00:05:31  5-MIN KARA 300605Z AUTO 16004KT 10SM FEW027 23/22 A2987 70 97 1000 160/04 RMK AO2 T02280222
53915KARA ARA20190530001011005/30/19 00:10:31  5-MIN KARA 300610Z AUTO 00000KT 10SM FEW027 23/22 A2987 70 97 1000 000/00 RMK AO2 T02280222
53915KARA ARA20190530001511005/30/19 00:15:31  5-MIN KARA 300615Z AUTO 14003KT 10SM FEW027 23/22 A2987 70 93 1000 130/03 RMK AO2 T02280217
53915KARA ARA20190530002011005/30/19 00:20:31  5-MIN KARA 300620Z AUTO 00000KT 10SM FEW028 23/22 A2988 70 93 1000 000/00 RMK AO2 T02280217
53915KARA ARA20190530002510705/30/19 00:25:31  5-MIN KARA 300625Z AUTO 00000KT 10SM CLR 23/22 A2988 60 93 1000 000/00 RMK AO2 T02280217
53915KARA ARA20190530003010705/30/19 00:30:31  5-MIN KARA 300630Z AUTO 00000KT 10SM CLR 23/22 A2988 60 93 1000 000/00 RMK AO2 T02280217
53915KARA ARA20190530003510705/30/19 00:35:31  5-MIN KARA 300635Z AUTO 00000KT 10SM CLR 23/22 A2988 70 97 1000 000/00 RMK AO2 T02280222
53915KARA ARA20190530004010705/30/19 00:40:31  5-MIN KARA 300640Z AUTO 00000KT 10SM CLR 23/22 A2987 70 97 1000 000/00 RMK AO2 T02280222
53915KARA ARA20190530004510705/30/19 00:45:31  5-MIN KARA 300645Z AUTO 15003KT 10SM CLR 23/22 A2987 70 97 1000 150/03 RMK AO2 T02280222
53915KARA ARA20190530005011405/30/19 00:50:31  5-MIN KARA 300650Z AUTO 00000KT 10SM CLR 23/22 A2987 70 93 1000 000/00 RMK AO2 SLP115 T02280217
53915KARA ARA20190530005510705/30/19 00:55:31  5-MIN KARA 300655Z AUTO 13003KT 10SM CLR 23/22 A2987 70 97 1000 130/03 RMK AO2 T02280222
53915KARA ARA20190530010010705/30/19 01:00:31  5-MIN KARA 300700Z AUTO 11003KT 10SM CLR 23/22 A2987 70 93 1000 110/03 RMK AO2 T02280217
53915KARA ARA20190530010510705/30/19 01:05:31  5-MIN KARA 300705Z AUTO 11003KT 10SM CLR 23/22 A2988 70 93 1000 110/03 RMK AO2 T02280217
53915KARA ARA20190530011010705/30/19 01:10:31  5-MIN KARA 300710Z AUTO 00000KT 10SM CLR 23/22 A2988 70 93 1000 000/00 RMK AO2 T02280217
53915KARA ARA20190530011510705/30/19 01:15:31  5-MIN KARA 300715Z AUTO 11003KT 10SM CLR 23/22 A2988 60 93 1000 110/03 RMK AO2 T02280217
53915KARA ARA20190530012010705/30/19 01:20:31  5-MIN KARA 300720Z AUTO 12004KT 10SM CLR 23/22 A2988 70 93 1000 110/04 RMK AO2 T02280217
53915KARA ARA20190530012510705/30/19 01:25:31  5-MIN KARA 300725Z AUTO 13004KT 10SM CLR 23/22 A2988 70 93 1000 120/04 RMK AO2 T02280217
53915KARA ARA20190530013010705/30/19 01:30:31  5-MIN KARA 300730Z AUTO 12004KT 10SM CLR 23/22 A2988 70 93 1000 120/04 RMK AO2 T02280217
53915KARA ARA20190530013510705/30/19 01:35:31  5-MIN KARA 300735Z AUTO 11004KT 10SM CLR 23/22 A2988 60 93 1000 110/04 RMK AO2 T02280217
53915KARA ARA20190530014010705/30/19 01:40:31  5-MIN KARA 300740Z AUTO 00000KT 10SM CLR 23/22 A2989 60 93 1000 000/00 RMK AO2 T02280217
53915KARA ARA20190530014510705/30/19 01:45:31  5-MIN KARA 300745Z AUTO 00000KT 10SM CLR 22/21 A2989 60 93 1000 000/00 RMK AO2 T02220211
53915KARA ARA20190530015012305/30/19 01:50:31  5-MIN KARA 300750Z AUTO 00000KT 10SM FEW027 FEW032 22/21 A2989 50 93 900 000/00 RMK AO2 SLP122 T02220211
53915KARA ARA20190530015511605/30/19 01:55:31  5-MIN KARA 300755Z AUTO 00000KT 10SM FEW027 SCT034 22/22 A2990 50 97 900 000/00 RMK AO2 T02220217
53915KARA ARA20190530020011605/30/19 02:00:31  5-MIN KARA 300800Z AUTO 00000KT 10SM SCT027 SCT034 22/22 A2990 50 97 900 000/00 RMK AO2 T02220217
53915KARA ARA20190530020511705/30/19 02:05:31  5-MIN KARA 300805Z AUTO 00000KT 10SM SCT027 BKN036 23/22 A2989 50 97 1000 000/00 RMK AO2 T02280222
53915KARA ARA20190530021011605/30/19 02:10:31  5-MIN KARA 300810Z AUTO 00000KT 10SM SCT027 BKN036 22/22 A2990 50 97 900 000/00 RMK AO2 T02220217
53915KARA ARA20190530021511705/30/19 02:15:31  5-MIN KARA 300815Z AUTO 00000KT 10SM FEW028 BKN036 23/22 A2990 50 93 1000 000/00 RMK AO2 T02280217
53915KARA ARA20190530022011605/30/19 02:20:31  5-MIN KARA 300820Z AUTO 00000KT 10SM FEW028 SCT035 22/22 A2990 50 97 900 000/00 RMK AO2 T02220217
53915KARA ARA20190530022510905/30/19 02:25:31  5-MIN KARA 300825Z AUTO 00000KT 10SM SCT033 22/22 A2990 50 97 900 000/00 RMK AO2 T02220217
53915KARA ARA20190530023010905/30/19 02:30:31  5-MIN KARA 300830Z AUTO 00000KT 10SM FEW033 22/21 A2990 40 97 900 000/00 RMK AO2 T02170211
53915KARA ARA20190530023510905/30/19 02:35:31  5-MIN KARA 300835Z AUTO 35003KT 10SM FEW033 22/21 A2990 40 97 900 350/03 RMK AO2 T02170211
53915KARA ARA20190530024010905/30/19 02:40:31  5-MIN KARA 300840Z AUTO 01003KT 10SM FEW033 22/21 A2990 40 97 900 010/03 RMK AO2 T02170211
53915KARA ARA20190530024510605/30/19 02:45:31  5-MIN KARA 300845Z AUTO 03003KT 10SM CLR 21/21 A2990 40 97 800 020/03 RMK AO2 T02110206
53915KARA ARA20190530025011905/30/19 02:50:31  5-MIN KARA 300850Z AUTO 02004KT 10SM CLR 21/21 A2991 40 97 800 020/04 RMK AO2 SLP127 T02110206 58001
53915KARA ARA20190530025510605/30/19 02:55:31  5-MIN KARA 300855Z AUTO 04003KT 10SM CLR 22/21 A2991 40 97 900 030/03 RMK AO2 T02170211
53915KARA ARA20190530030010605/30/19 03:00:31  5-MIN KARA 300900Z AUTO 05003KT 10SM CLR 22/21 A2991 40 93 900 050/03 RMK AO2 T02220211
53915KARA ARA20190530030510605/30/19 03:05:31  5-MIN KARA 300905Z AUTO 00000KT 10SM CLR 22/21 A2991 40 97 900 000/00 RMK AO2 T02170211
53915KARA ARA20190530031010605/30/19 03:10:31  5-MIN KARA 300910Z AUTO 00000KT 10SM CLR 22/21 A2991 40 97 900 000/00 RMK AO2 T02170211
53915KARA ARA20190530031510605/30/19 03:15:31  5-MIN KARA 300915Z AUTO 00000KT 10SM CLR 22/21 A2991 40 93 900 000/00 RMK AO2 T02220211
53915KARA ARA20190530032010605/30/19 03:20:31  5-MIN KARA 300920Z AUTO 00000KT 10SM CLR 22/21 A2991 30 97 900 000/00 RMK AO2 T02170211
53915KARA ARA20190530032510605/30/19 03:25:31  5-MIN KARA 300925Z AUTO 00000KT 10SM CLR 22/21 A2991 40 97 900 000/00 RMK AO2 T02170211
53915KARA ARA20190530033010605/30/19 03:30:31  5-MIN KARA 300930Z AUTO 00000KT 10SM CLR 21/21 A2991 40 97 800 000/00 RMK AO2 T02110206
53915KARA ARA20190530033510605/30/19 03:35:31  5-MIN KARA 300935Z AUTO 00000KT 10SM CLR 21/21 A2991 40 97 800 000/00 RMK AO2 T02110206
53915KARA ARA20190530034010605/30/19 03:40:31  5-MIN KARA 300940Z AUTO 00000KT 10SM CLR 21/21 A2991 40 97 800 000/00 RMK AO2 T02110206
53915KARA ARA20190530034510605/30/19 03:45:31  5-MIN KARA 300945Z AUTO 00000KT 9SM CLR 21/21 A2991 40 100 800 000/00 RMK AO2 T02110211
53915KARA ARA20190530035011305/30/19 03:50:31  5-MIN KARA 300950Z AUTO 00000KT 9SM CLR 21/21 A2991 40 100 800 000/00 RMK AO2 SLP127 T02110211
53915KARA ARA20190530035510605/30/19 03:55:31  5-MIN KARA 300955Z AUTO 00000KT 9SM CLR 21/21 A2991 40 100 800 000/00 RMK AO2 T02110211
53915KARA ARA20190530040010605/30/19 04:00:31  5-MIN KARA 301000Z AUTO 00000KT 9SM CLR 21/21 A2991 40 100 700 000/00 RMK AO2 T02060206
53915KARA ARA20190530040510905/30/19 04:05:31  5-MIN KARA 301005Z AUTO 00000KT 3SM BR CLR 21/21 A2991 40 100 700 000/00 RMK AO2 T02060206
53915KARA ARA20190530041012305/30/19 04:10:31  5-MIN KARA 301010Z AUTO 00000KT 1 1/4SM BR CLR 21/21 A2991 40 100 700 000/00 RMK AO2 VIS 1/2V5 T02060206
53915KARA ARA20190530041511205/30/19 04:15:31  5-MIN KARA 301015Z AUTO 00000KT 1 3/4SM BR CLR 21/20 A2991 40 97 700 000/00 RMK AO2 T02060200
53915KARA ARA20190530042010805/30/19 04:20:31  5-MIN KARA 301020Z AUTO 00000KT 5SM BR CLR 21/20 A2991 40 97 700 000/00 RMK AO2 T02060200
53915KARA ARA20190530042510805/30/19 04:25:31  5-MIN KARA 301025Z AUTO 00000KT 6SM BR CLR 21/20 A2991 40 97 700 000/00 RMK AO2 T02060200
53915KARA ARA20190530043010105/30/19 04:30:31  5-MIN KARA 301030Z 00000KT 10SM CLR 21/20 A2991 40 97 700 000/00 RMK AO2 T02060200
53915KARA ARA20190530043510205/30/19 04:35:31  5-MIN KARA 301035Z 00000KT 10SM CLR 21/21 A2991 30 100 700 000/00 RMK AO2 T02060206
53915KARA ARA20190530044010205/30/19 04:40:31  5-MIN KARA 301040Z 00000KT 10SM CLR 21/21 A2991 30 100 700 000/00 RMK AO2 T02060206
53915KARA ARA20190530044510205/30/19 04:45:31  5-MIN KARA 301045Z 00000KT 10SM CLR 21/21 A2991 30 100 700 000/00 RMK AO2 T02060206
53915KARA ARA20190530045010905/30/19 04:50:31  5-MIN KARA 301050Z 10003KT 10SM CLR 21/21 A2991 40 100 700 100/03 RMK AO2 SLP128 T02060206
53915KARA ARA20190530045510205/30/19 04:55:31  5-MIN KARA 301055Z 00000KT 10SM CLR 21/21 A2991 30 100 700 000/00 RMK AO2 T02060206
53915KARA ARA20190530050010205/30/19 05:00:31  5-MIN KARA 301100Z 10003KT 10SM CLR 21/21 A2991 30 100 700 100/03 RMK AO2 T02060206
53915KARA ARA20190530050510205/30/19 05:05:31  5-MIN KARA 301105Z 10004KT 10SM CLR 21/21 A2991 30 100 700 100/04 RMK AO2 T02060206
53915KARA ARA20190530051010205/30/19 05:10:31  5-MIN KARA 301110Z 09003KT 10SM CLR 21/21 A2991 30 100 700 090/03 RMK AO2 T02060206
53915KARA ARA20190530051511805/30/19 05:15:31  5-MIN KARA 301115Z 00000KT 10SM -RA CLR 21/21 A2991 30 100 700 000/00 RMK AO2 RAB12 P0000 T02060206
53915KARA ARA20190530052011805/30/19 05:20:31  5-MIN KARA 301120Z 00000KT 10SM -RA CLR 21/21 A2992 30 100 700 000/00 RMK AO2 RAB12 P0000 T02060206
53915KARA ARA20190530052511805/30/19 05:25:31  5-MIN KARA 301125Z 00000KT 10SM -RA CLR 21/21 A2992 30 100 700 000/00 RMK AO2 RAB12 P0000 T02060206
53915KARA ARA20190530053011805/30/19 05:30:31  5-MIN KARA 301130Z 12003KT 10SM -RA CLR 21/21 A2991 30 100 700 110/03 RMK AO2 RAB12 P0000 T02060206
53915KARA ARA20190530053511705/30/19 05:35:31  5-MIN KARA 301135Z 11004KT 10SM -RA CLR 21/20 A2991 30 97 700 110/04 RMK AO2 RAB12 P0000 T02060200
53915KARA ARA20190530054011705/30/19 05:40:31  5-MIN KARA 301140Z 11004KT 10SM CLR 21/21 A2991 30 100 700 110/04 RMK AO2 RAB12E39 P0000 T02060206
53915KARA ARA20190530054511605/30/19 05:45:31  5-MIN KARA 301145Z 11004KT 10SM CLR 22/21 A2992 30 97 900 110/04 RMK AO2 RAB12E39 P0000 T02170211
53915KARA ARA20190530055014705/30/19 05:50:31  5-MIN KARA 301150Z 11004KT 10SM CLR 22/21 A2992 30 97 900 110/04 RMK AO2 RAB12E39 SLP130 P0000 60000 T02170211 10228 20200 53014
53915KARA ARA20190530055510105/30/19 05:55:31  5-MIN KARA 301155Z 11004KT 10SM CLR 22/22 A2992 30 97 900 110/04 RMK AO2 T02220217
53915KARA ARA20190530060010105/30/19 06:00:31  5-MIN KARA 301200Z 10003KT 10SM CLR 22/22 A2992 20 97 900 100/03 RMK AO2 T02220217
53915KARA ARA20190530060510205/30/19 06:05:31  5-MIN KARA 301205Z 11004KT 10SM CLR 23/22 A2993 20 93 1000 110/04 RMK AO2 T02280217
53915KARA ARA20190530061010205/30/19 06:10:31  5-MIN KARA 301210Z 10004KT 10SM CLR 23/22 A2993 20 97 1000 100/04 RMK AO2 T02280222
53915KARA ARA20190530061510205/30/19 06:15:31  5-MIN KARA 301215Z 09003KT 10SM CLR 23/22 A2993 10 93 1000 090/03 RMK AO2 T02330222
53915KARA ARA20190530062010505/30/19 06:20:31  5-MIN KARA 301220Z 10003KT 10SM FEW023 23/22 A2994 10 93 1000 090/03 RMK AO2 T02330222
53915KARA ARA20190530062510505/30/19 06:25:31  5-MIN KARA 301225Z 10003KT 10SM FEW023 24/22 A2994 10 90 1100 100/03 RMK AO2 T02390222
53915KARA ARA20190530063010505/30/19 06:30:31  5-MIN KARA 301230Z 11004KT 10SM SCT023 24/22 A2994 10 90 1100 110/04 RMK AO2 T02390222
53915KARA ARA20190530063510505/30/19 06:35:31  5-MIN KARA 301235Z 11004KT 10SM FEW024 24/22 A2994 10 90 1100 110/04 RMK AO2 T02390222
53915KARA ARA20190530064010505/30/19 06:40:31  5-MIN KARA 301240Z 11004KT 10SM FEW024 24/23 A2994 10 90 1100 110/04 RMK AO2 T02440228
53915KARA ARA20190530064510505/30/19 06:45:31  5-MIN KARA 301245Z 12003KT 10SM FEW024 24/23 A2994 10 90 1100 120/03 RMK AO2 T02440228
53915KARA ARA20190530065011105/30/19 06:50:31  5-MIN KARA 301250Z 11003KT 10SM FEW024 24/23 A2994 0 90 1100 110/03 RMK AO2 SLP139 T02440228
53915KARA ARA20190530065510405/30/19 06:55:31  5-MIN KARA 301255Z 12004KT 10SM FEW024 25/23 A2994 0 87 1200 120/04 RMK AO2 T02500228
53915KARA ARA20190530070010105/30/19 07:00:31  5-MIN KARA 301300Z 13005KT 10SM CLR 26/23 A2995 0 84 1300 130/05 RMK AO2 T02560228
53915KARA ARA20190530070510105/30/19 07:05:31  5-MIN KARA 301305Z 12003KT 10SM CLR 26/23 A2995 0 84 1300 120/03 RMK AO2 T02560228
53915KARA ARA20190530071010105/30/19 07:10:31  5-MIN KARA 301310Z 14005KT 10SM CLR 26/23 A2995 0 84 1300 130/05 RMK AO2 T02560228
53915KARA ARA20190530071510105/30/19 07:15:31  5-MIN KARA 301315Z 13005KT 10SM CLR 26/23 A2995 0 81 1300 130/05 RMK AO2 T02610228
53915KARA ARA20190530072010105/30/19 07:20:31  5-MIN KARA 301320Z 14004KT 10SM CLR 26/23 A2994 0 81 1300 140/04 RMK AO2 T02610228
53915KARA ARA20190530072510105/30/19 07:25:31  5-MIN KARA 301325Z 15006KT 10SM CLR 27/23 A2995 0 79 1400 140/06 RMK AO2 T02670228
53915KARA ARA20190530073010105/30/19 07:30:31  5-MIN KARA 301330Z 15007KT 10SM CLR 27/23 A2995 0 79 1400 150/07 RMK AO2 T02670228
53915KARA ARA20190530073510105/30/19 07:35:31  5-MIN KARA 301335Z 15007KT 10SM CLR 27/23 A2995 0 79 1500 150/07 RMK AO2 T02720233
53915KARA ARA20190530074010105/30/19 07:40:31  5-MIN KARA 301340Z 17006KT 10SM CLR 27/23 A2995 0 79 1400 160/06 RMK AO2 T02670228
53915KARA ARA20190530074510105/30/19 07:45:31  5-MIN KARA 301345Z 15008KT 10SM CLR 27/23 A2995 0 79 1500 150/08 RMK AO2 T02720233
53915KARA ARA20190530075010805/30/19 07:50:31  5-MIN KARA 301350Z 17009KT 10SM CLR 27/23 A2995 0 79 1500 170/09 RMK AO2 SLP139 T02720233
53915KARA ARA20190530075510105/30/19 07:55:31  5-MIN KARA 301355Z 17009KT 10SM CLR 27/23 A2995 0 76 1500 170/09 RMK AO2 T02720228
53915KARA ARA20190530080010105/30/19 08:00:31  5-MIN KARA 301400Z 16009KT 10SM CLR 28/23 A2995 0 76 1500 160/09 RMK AO2 T02780233
53915KARA ARA20190530080510105/30/19 08:05:31  5-MIN KARA 301405Z 17008KT 10SM CLR 28/23 A2994 0 76 1500 170/08 RMK AO2 T02780233
53915KARA ARA20190530081010105/30/19 08:10:31  5-MIN KARA 301410Z 17010KT 10SM CLR 28/23 A2994 0 71 1600 170/10 RMK AO2 T02830228
53915KARA ARA20190530081510105/30/19 08:15:31  5-MIN KARA 301415Z 16009KT 10SM CLR 28/23 A2995 0 71 1600 160/09 RMK AO2 T02830228
53915KARA ARA20190530082010405/30/19 08:20:31  5-MIN KARA 301420Z 16009KT 10SM FEW022 28/23 A2995 0 71 1600 160/09 RMK AO2 T02830228
53915KARA ARA20190530082510405/30/19 08:25:31  5-MIN KARA 301425Z 19010KT 10SM FEW022 28/23 A2994 0 71 1600 190/10 RMK AO2 T02830228
53915KARA ARA20190530083010505/30/19 08:30:31  5-MIN KARA 301430Z 19009KT 10SM FEW022 28/23 A2994 10 71 1600 190/09 RMK AO2 T02830228
53915KARA ARA20190530083510405/30/19 08:35:31  5-MIN KARA 301435Z 19005KT 10SM FEW023 28/23 A2994 0 71 1600 190/05 RMK AO2 T02830228
53915KARA ARA20190530084010405/30/19 08:40:31  5-MIN KARA 301440Z 17011KT 10SM SCT023 28/23 A2995 0 71 1600 170/11 RMK AO2 T02830228
53915KARA ARA20190530084510405/30/19 08:45:31  5-MIN KARA 301445Z 20007KT 10SM SCT024 28/22 A2994 0 71 1500 200/07 RMK AO2 T02780222
53915KARA ARA20190530085012405/30/19 08:50:31  5-MIN KARA 301450Z 18009KT 10SM SCT024 SCT030 29/23 A2994 0 69 1600 180/09 RMK AO2 SLP139 T02890228 53004
53915KARA ARA20190530085510505/30/19 08:55:31  5-MIN KARA 301455Z 19011KT 10SM SCT026 29/22 A2994 10 67 1600 190/11 RMK AO2 T02890222
53915KARA ARA20190530090010405/30/19 09:00:31  5-MIN KARA 301500Z 20010KT 10SM SCT026 29/22 A2994 0 67 1600 200/10 RMK AO2 T02890222
53915KARA ARA20190530090510405/30/19 09:05:31  5-MIN KARA 301505Z 17008KT 10SM SCT028 29/22 A2995 0 67 1600 170/08 RMK AO2 T02890222
53915KARA ARA20190530091010405/30/19 09:10:31  5-MIN KARA 301510Z 21008KT 10SM SCT028 29/22 A2995 0 64 1600 210/08 RMK AO2 T02890217
53915KARA ARA20190530091510405/30/19 09:15:31  5-MIN KARA 301515Z 21009KT 10SM SCT028 29/22 A2995 0 67 1600 210/09 RMK AO2 T02890222
53915KARA ARA20190530092010405/30/19 09:20:31  5-MIN KARA 301520Z 17008KT 10SM SCT029 29/22 A2995 0 64 1700 170/08 RMK AO2 T02940222
53915KARA ARA20190530092510405/30/19 09:25:31  5-MIN KARA 301525Z 21011KT 10SM SCT031 29/22 A2995 0 64 1700 200/11 RMK AO2 T02940222
53915KARA ARA20190530093010405/30/19 09:30:31  5-MIN KARA 301530Z 20009KT 10SM BKN031 29/22 A2995 0 64 1700 190/09 RMK AO2 T02940222
53915KARA ARA20190530093510505/30/19 09:35:31  5-MIN KARA 301535Z 17011KT 10SM SCT033 30/22 A2994 10 62 1800 170/11 RMK AO2 T03000222
53915KARA ARA20190530094010405/30/19 09:40:31  5-MIN KARA 301540Z 18011KT 10SM SCT033 30/23 A2994 0 65 1800 180/11 RMK AO2 T03000228
53915KARA ARA20190530094511005/30/19 09:45:31  5-MIN KARA 301545Z 20010G16KT 10SM SCT033 30/22 A2994 0 62 1800 200/10G16 RMK AO2 T03000222
53915KARA ARA20190530095011705/30/19 09:50:31  5-MIN KARA 301550Z 19010G16KT 10SM SCT033 29/22 A2994 0 64 1700 190/10G16 RMK AO2 SLP139 T02940222
53915KARA ARA20190530095510505/30/19 09:55:31  5-MIN KARA 301555Z 18012KT 10SM FEW033 30/23 A2994 10 65 1800 180/12 RMK AO2 T03000228
53915KARA ARA20190530100010505/30/19 10:00:31  5-MIN KARA 301600Z 19013KT 10SM FEW031 30/23 A2994 10 65 1800 190/13 RMK AO2 T03000228
53915KARA ARA20190530100510505/30/19 10:05:31  5-MIN KARA 301605Z 18013KT 10SM FEW031 30/23 A2994 10 65 1800 180/13 RMK AO2 T03000228
53915KARA ARA20190530101010405/30/19 10:10:31  5-MIN KARA 301610Z 18011KT 10SM FEW031 30/23 A2995 0 65 1800 180/11 RMK AO2 T03000228
53915KARA ARA20190530101510405/30/19 10:15:31  5-MIN KARA 301615Z 19012KT 10SM SCT031 30/23 A2995 0 65 1800 190/12 RMK AO2 T03000228
53915KARA ARA20190530102010405/30/19 10:20:31  5-MIN KARA 301620Z 19013KT 10SM SCT031 30/23 A2995 0 65 1800 190/13 RMK AO2 T03000228
53915KARA ARA20190530102511005/30/19 10:25:31  5-MIN KARA 301625Z 17014G19KT 10SM SCT031 31/23 A2994 0 62 1800 170/14G19 RMK AO2 T03060228
53915KARA ARA20190530103010405/30/19 10:30:31  5-MIN KARA 301630Z 21015KT 10SM FEW031 31/23 A2995 0 62 1800 210/15 RMK AO2 T03060228
53915KARA ARA20190530193510205/30/19 19:35:31  5-MIN KARA 310135Z 00000KT 10SM CLR 26/23 A2992 30 84 1400 000/00 RMK AO2 T02610233
53915KARA ARA20190530194010205/30/19 19:40:31  5-MIN KARA 310140Z 00000KT 10SM CLR 26/23 A2992 30 84 1400 000/00 RMK AO2 T02610233
53915KARA ARA20190530194510705/30/19 19:45:31  5-MIN KARA 310145Z AUTO 00000KT 10SM CLR 26/23 A2992 20 84 1400 000/00 RMK AO2 T02610233
53915KARA ARA20190530195011405/30/19 19:50:31  5-MIN KARA 310150Z AUTO 00000KT 10SM CLR 26/23 A2992 20 84 1400 000/00 RMK AO2 SLP132 T02610233
53915KARA ARA20190530195510705/30/19 19:55:31  5-MIN KARA 310155Z AUTO 00000KT 10SM CLR 26/24 A2992 20 87 1400 000/00 RMK AO2 T02610239
53915KARA ARA20190530200010705/30/19 20:00:31  5-MIN KARA 310200Z AUTO 00000KT 10SM CLR 26/24 A2993 20 87 1400 000/00 RMK AO2 T02610239
53915KARA ARA20190530200510705/30/19 20:05:31  5-MIN KARA 310205Z AUTO 00000KT 10SM CLR 26/24 A2993 20 87 1300 000/00 RMK AO2 T02610239
53915KARA ARA20190530201010705/30/19 20:10:31  5-MIN KARA 310210Z AUTO 30003KT 10SM CLR 26/24 A2993 10 87 1300 300/03 RMK AO2 T02610239
53915KARA ARA20190530201510705/30/19 20:15:31  5-MIN KARA 310215Z AUTO 00000KT 10SM CLR 26/24 A2993 20 90 1300 000/00 RMK AO2 T02560239
53915KARA ARA20190530202010705/30/19 20:20:31  5-MIN KARA 310220Z AUTO 00000KT 10SM CLR 26/24 A2993 10 87 1300 000/00 RMK AO2 T02610239
53915KARA ARA20190530202510705/30/19 20:25:31  5-MIN KARA 310225Z AUTO 00000KT 10SM CLR 26/24 A2994 10 87 1300 000/00 RMK AO2 T02610239
53915KARA ARA20190530203010705/30/19 20:30:31  5-MIN KARA 310230Z AUTO 00000KT 10SM CLR 26/24 A2994 10 87 1300 000/00 RMK AO2 T02610239
53915KARA ARA20190530203510705/30/19 20:35:31  5-MIN KARA 310235Z AUTO 00000KT 10SM CLR 26/24 A2994 10 87 1300 000/00 RMK AO2 T02610239
53915KARA ARA20190530204010705/30/19 20:40:31  5-MIN KARA 310240Z AUTO 00000KT 10SM CLR 26/24 A2994 10 90 1300 000/00 RMK AO2 T02560239
53915KARA ARA20190530204510705/30/19 20:45:31  5-MIN KARA 310245Z AUTO 00000KT 10SM CLR 25/23 A2994 10 90 1200 000/00 RMK AO2 T02500233
53915KARA ARA20190530205012005/30/19 20:50:31  5-MIN KARA 310250Z AUTO 00000KT 10SM CLR 25/24 A2994 10 93 1200 000/00 RMK AO2 SLP138 T02500239 51001
53915KARA ARA20190530205510705/30/19 20:55:31  5-MIN KARA 310255Z AUTO 00000KT 10SM CLR 25/23 A2994 10 90 1200 000/00 RMK AO2 T02500233
53915KARA ARA20190530210010705/30/19 21:00:31  5-MIN KARA 310300Z AUTO 00000KT 10SM CLR 25/24 A2994 10 93 1200 000/00 RMK AO2 T02500239
53915KARA ARA20190530210510605/30/19 21:05:31  5-MIN KARA 310305Z AUTO 00000KT 10SM CLR 25/24 A2995 0 93 1200 000/00 RMK AO2 T02500239
53915KARA ARA20190530211010605/30/19 21:10:31  5-MIN KARA 310310Z AUTO 00000KT 10SM CLR 25/24 A2995 0 93 1200 000/00 RMK AO2 T02500239
53915KARA ARA20190530211510605/30/19 21:15:31  5-MIN KARA 310315Z AUTO 00000KT 10SM CLR 25/24 A2995 0 93 1200 000/00 RMK AO2 T02500239
53915KARA ARA20190530212010605/30/19 21:20:31  5-MIN KARA 310320Z AUTO 00000KT 10SM CLR 25/24 A2995 0 93 1200 000/00 RMK AO2 T02500239
53915KARA ARA20190530212510605/30/19 21:25:31  5-MIN KARA 310325Z AUTO 00000KT 10SM CLR 24/23 A2995 0 93 1100 000/00 RMK AO2 T02440233
53915KARA ARA20190530213010605/30/19 21:30:31  5-MIN KARA 310330Z AUTO 00000KT 10SM CLR 25/23 A2995 0 90 1200 000/00 RMK AO2 T02500233
53915KARA ARA20190530213510605/30/19 21:35:31  5-MIN KARA 310335Z AUTO 00000KT 10SM CLR 25/23 A2995 0 87 1200 000/00 RMK AO2 T02500228
53915KARA ARA20190530214010605/30/19 21:40:31  5-MIN KARA 310340Z AUTO 00000KT 10SM CLR 25/23 A2995 0 90 1200 000/00 RMK AO2 T02500233
53915KARA ARA20190530214510605/30/19 21:45:31  5-MIN KARA 310345Z AUTO 00000KT 10SM CLR 25/23 A2995 0 90 1200 000/00 RMK AO2 T02500233
53915KARA ARA20190530215011305/30/19 21:50:31  5-MIN KARA 310350Z AUTO 00000KT 10SM CLR 25/23 A2995 0 90 1200 000/00 RMK AO2 SLP141 T02500233
53915KARA ARA20190530215510605/30/19 21:55:31  5-MIN KARA 310355Z AUTO 32003KT 10SM CLR 24/24 A2995 0 97 1100 320/03 RMK AO2 T02440239
53915KARA ARA20190530220010605/30/19 22:00:31  5-MIN KARA 310400Z AUTO 31003KT 10SM CLR 24/23 A2995 0 97 1100 310/03 RMK AO2 T02390233
53915KARA ARA20190530220510605/30/19 22:05:31  5-MIN KARA 310405Z AUTO 29003KT 10SM CLR 24/23 A2995 0 97 1100 290/03 RMK AO2 T02390233
53915KARA ARA20190530221010605/30/19 22:10:31  5-MIN KARA 310410Z AUTO 00000KT 10SM CLR 24/23 A2995 0 93 1100 000/00 RMK AO2 T02440233
53915KARA ARA20190530221510605/30/19 22:15:31  5-MIN KARA 310415Z AUTO 00000KT 10SM CLR 23/23 A2995 0 97 1000 000/00 RMK AO2 T02330228
53915KARA ARA20190530222010605/30/19 22:20:31  5-MIN KARA 310420Z AUTO 25003KT 10SM CLR 24/23 A2995 0 93 1100 240/03 RMK AO2 T02390228
53915KARA ARA20190530222510605/30/19 22:25:31  5-MIN KARA 310425Z AUTO 00000KT 10SM CLR 24/23 A2995 0 93 1100 000/00 RMK AO2 T02390228
53915KARA ARA20190530223010605/30/19 22:30:31  5-MIN KARA 310430Z AUTO 23003KT 10SM CLR 24/23 A2995 0 93 1100 230/03 RMK AO2 T02390228
53915KARA ARA20190530223510605/30/19 22:35:31  5-MIN KARA 310435Z AUTO 00000KT 10SM CLR 24/23 A2995 0 93 1100 000/00 RMK AO2 T02390228
53915KARA ARA20190530224010605/30/19 22:40:31  5-MIN KARA 310440Z AUTO 00000KT 10SM CLR 24/23 A2994 0 93 1100 000/00 RMK AO2 T02390228
53915KARA ARA20190530224510705/30/19 22:45:31  5-MIN KARA 310445Z AUTO 00000KT 10SM CLR 24/23 A2994 10 93 1100 000/00 RMK AO2 T02390228
53915KARA ARA20190530225011405/30/19 22:50:31  5-MIN KARA 310450Z AUTO 00000KT 10SM CLR 24/23 A2994 10 93 1100 000/00 RMK AO2 SLP138 T02390228
53915KARA ARA20190530225510705/30/19 22:55:31  5-MIN KARA 310455Z AUTO 21003KT 10SM CLR 23/23 A2994 10 97 1000 210/03 RMK AO2 T02330228
53915KARA ARA20190530230010705/30/19 23:00:31  5-MIN KARA 310500Z AUTO 23003KT 10SM CLR 23/23 A2994 10 97 1000 230/03 RMK AO2 T02330228
53915KARA ARA20190530230510705/30/19 23:05:31  5-MIN KARA 310505Z AUTO 27003KT 10SM CLR 24/23 A2994 10 93 1100 270/03 RMK AO2 T02390228
53915KARA ARA20190530231010705/30/19 23:10:31  5-MIN KARA 310510Z AUTO 00000KT 10SM CLR 24/23 A2994 10 93 1100 000/00 RMK AO2 T02440233
53915KARA ARA20190530231510705/30/19 23:15:31  5-MIN KARA 310515Z AUTO 00000KT 10SM CLR 23/23 A2994 10 97 1000 000/00 RMK AO2 T02330228
53915KARA ARA20190530232010705/30/19 23:20:31  5-MIN KARA 310520Z AUTO 00000KT 10SM CLR 23/23 A2994 10 97 1000 000/00 RMK AO2 T02330228
53915KARA ARA20190530232510705/30/19 23:25:31  5-MIN KARA 310525Z AUTO 00000KT 10SM CLR 23/23 A2994 10 97 1000 000/00 RMK AO2 T02330228
53915KARA ARA20190530233010605/30/19 23:30:31  5-MIN KARA 310530Z AUTO 00000KT 10SM CLR 23/23 A2995 0 97 1000 000/00 RMK AO2 T02330228
53915KARA ARA20190530233510605/30/19 23:35:31  5-MIN KARA 310535Z AUTO 24003KT 10SM CLR 23/23 A2995 0 97 1000 240/03 RMK AO2 T02330228
53915KARA ARA20190530234010605/30/19 23:40:31  5-MIN KARA 310540Z AUTO 00000KT 10SM CLR 23/23 A2995 0 97 1000 000/00 RMK AO2 T02330228
53915KARA ARA20190530234510605/30/19 23:45:31  5-MIN KARA 310545Z AUTO 00000KT 10SM CLR 23/23 A2995 0 97 1000 000/00 RMK AO2 T02330228
53915KARA ARA20190530235014205/30/19 23:50:31  5-MIN KARA 310550Z AUTO 00000KT 10SM CLR 23/22 A2994 10 97 1000 000/00 RMK AO2 SLP139 T02280222 10283 20228 403170200 53014
53915KARA ARA20190530235510705/30/19 23:55:31  5-MIN KARA 310555Z AUTO 00000KT 10SM CLR 23/23 A2994 10 97 1000 000/00 RMK AO2 T02330228
53915KARA ARA20190531000010705/31/19 00:00:31  5-MIN KARA 310600Z AUTO 00000KT 10SM CLR 24/23 A2994 10 93 1100 000/00 RMK AO2 T02390228
53915KARA ARA20190531000510705/31/19 00:05:31  5-MIN KARA 310605Z AUTO 00000KT 10SM CLR 24/23 A2994 10 93 1100 000/00 RMK AO2 T02390228
53915KARA ARA20190531001010605/31/19 00:10:31  5-MIN KARA 310610Z AUTO 00000KT 10SM CLR 24/23 A2994 0 93 1100 000/00 RMK AO2 T02390228
53915KARA ARA20190531001510605/31/19 00:15:31  5-MIN KARA 310615Z AUTO 00000KT 10SM CLR 24/23 A2994 0 93 1100 000/00 RMK AO2 T02390228
53915KARA ARA20190531002010605/31/19 00:20:31  5-MIN KARA 310620Z AUTO 00000KT 10SM CLR 24/23 A2995 0 93 1100 000/00 RMK AO2 T02390228
53915KARA ARA20190531002510605/31/19 00:25:31  5-MIN KARA 310625Z AUTO 00000KT 10SM CLR 24/23 A2995 0 93 1100 000/00 RMK AO2 T02390228
53915KARA ARA20190531003010605/31/19 00:30:31  5-MIN KARA 310630Z AUTO 32003KT 10SM CLR 24/23 A2995 0 93 1100 320/03 RMK AO2 T02390228
53915KARA ARA20190531003510605/31/19 00:35:31  5-MIN KARA 310635Z AUTO 33003KT 10SM CLR 24/23 A2995 0 93 1100 330/03 RMK AO2 T02390228
53915KARA ARA20190531004010605/31/19 00:40:31  5-MIN KARA 310640Z AUTO 33003KT 10SM CLR 23/23 A2995 0 97 1000 330/03 RMK AO2 T02330228
53915KARA ARA20190531004510605/31/19 00:45:31  5-MIN KARA 310645Z AUTO 32003KT 10SM CLR 23/23 A2994 0 97 1000 320/03 RMK AO2 T02330228
53915KARA ARA20190531005011305/31/19 00:50:31  5-MIN KARA 310650Z AUTO 32003KT 10SM CLR 23/23 A2994 0 97 1000 320/03 RMK AO2 SLP139 T02330228
53915KARA ARA20190531005510705/31/19 00:55:31  5-MIN KARA 310655Z AUTO 32003KT 10SM CLR 23/23 A2994 10 97 1000 310/03 RMK AO2 T02330228
53915KARA ARA20190531010010605/31/19 01:00:31  5-MIN KARA 310700Z AUTO 32003KT 10SM CLR 23/23 A2994 0 97 1000 320/03 RMK AO2 T02330228
53915KARA ARA20190531010510605/31/19 01:05:31  5-MIN KARA 310705Z AUTO 00000KT 10SM CLR 23/23 A2994 0 97 1000 000/00 RMK AO2 T02330228
53915KARA ARA20190531011010705/31/19 01:10:31  5-MIN KARA 310710Z AUTO 00000KT 10SM CLR 23/23 A2994 10 97 1000 000/00 RMK AO2 T02330228
53915KARA ARA20190531011510705/31/19 01:15:31  5-MIN KARA 310715Z AUTO 00000KT 10SM CLR 23/22 A2994 10 97 1000 000/00 RMK AO2 T02280222
53915KARA ARA20190531012010705/31/19 01:20:31  5-MIN KARA 310720Z AUTO 00000KT 10SM CLR 23/22 A2994 10 97 1000 000/00 RMK AO2 T02280222
53915KARA ARA20190531012510705/31/19 01:25:31  5-MIN KARA 310725Z AUTO 00000KT 10SM CLR 23/22 A2994 10 97 1000 000/00 RMK AO2 T02280222
53915KARA ARA20190531013010605/31/19 01:30:31  5-MIN KARA 310730Z AUTO 00000KT 10SM CLR 23/22 A2994 0 93 1000 000/00 RMK AO2 T02330222
53915KARA ARA20190531013510605/31/19 01:35:31  5-MIN KARA 310735Z AUTO 30003KT 10SM CLR 23/23 A2995 0 97 1000 300/03 RMK AO2 T02330228
53915KARA ARA20190531014010605/31/19 01:40:31  5-MIN KARA 310740Z AUTO 31003KT 10SM CLR 23/23 A2995 0 97 1000 310/03 RMK AO2 T02330228
53915KARA ARA20190531014510605/31/19 01:45:31  5-MIN KARA 310745Z AUTO 31003KT 10SM CLR 23/23 A2995 0 100 900 310/03 RMK AO2 T02280228
53915KARA ARA20190531015011305/31/19 01:50:31  5-MIN KARA 310750Z AUTO 00000KT 10SM CLR 23/23 A2995 0 100 900 000/00 RMK AO2 SLP140 T02280228
53915KARA ARA20190531015510505/31/19 01:55:31  5-MIN KARA 310755Z AUTO 00000KT 10SM CLR 23/22 A2995 0 97 900 000/00 RMK AO2 T02280222
53915KARA ARA20190531020010505/31/19 02:00:31  5-MIN KARA 310800Z AUTO 00000KT 10SM CLR 23/22 A2995 0 97 900 000/00 RMK AO2 T02280222
53915KARA ARA20190531020510505/31/19 02:05:31  5-MIN KARA 310805Z AUTO 00000KT 10SM CLR 23/22 A2995 0 97 900 000/00 RMK AO2 T02280222
53915KARA ARA20190531021010505/31/19 02:10:31  5-MIN KARA 310810Z AUTO 00000KT 10SM CLR 23/22 A2995 0 97 900 000/00 RMK AO2 T02280222
53915KARA ARA20190531021510505/31/19 02:15:31  5-MIN KARA 310815Z AUTO 18003KT 10SM CLR 23/22 A2995 0 97 900 180/03 RMK AO2 T02280222
53915KARA ARA20190531022010505/31/19 02:20:31  5-MIN KARA 310820Z AUTO 00000KT 10SM CLR 22/22 A2995 0 97 900 000/00 RMK AO2 T02220217
53915KARA ARA20190531022510505/31/19 02:25:31  5-MIN KARA 310825Z AUTO 00000KT 10SM CLR 22/22 A2995 0 97 900 000/00 RMK AO2 T02220217
53915KARA ARA20190531023010605/31/19 02:30:31  5-MIN KARA 310830Z AUTO 00000KT 10SM CLR 22/22 A2995 0 100 900 000/00 RMK AO2 T02220222
53915KARA ARA20190531023510505/31/19 02:35:31  5-MIN KARA 310835Z AUTO 00000KT 10SM CLR 23/22 A2995 0 97 900 000/00 RMK AO2 T02280222
53915KARA ARA20190531024010505/31/19 02:40:31  5-MIN KARA 310840Z AUTO 00000KT 10SM CLR 23/22 A2995 0 97 900 000/00 RMK AO2 T02280222
53915KARA ARA20190531024510505/31/19 02:45:31  5-MIN KARA 310845Z AUTO 00000KT 10SM CLR 23/22 A2995 0 97 900 000/00 RMK AO2 T02280222
53915KARA ARA20190531025011805/31/19 02:50:31  5-MIN KARA 310850Z AUTO 00000KT 10SM CLR 23/22 A2995 0 97 900 000/00 RMK AO2 SLP142 T02280222 50000
53915KARA ARA20190531025510505/31/19 02:55:31  5-MIN KARA 310855Z AUTO 00000KT 10SM CLR 23/22 A2995 0 97 900 000/00 RMK AO2 T02280222
53915KARA ARA20190531030010505/31/19 03:00:31  5-MIN KARA 310900Z AUTO 00000KT 10SM CLR 23/22 A2995 0 97 900 000/00 RMK AO2 T02280222
53915KARA ARA20190531030510505/31/19 03:05:31  5-MIN KARA 310905Z AUTO 00000KT 10SM CLR 23/22 A2996 0 97 900 000/00 RMK AO2 T02280222
53915KARA ARA20190531031010605/31/19 03:10:31  5-MIN KARA 310910Z AUTO 29003KT 10SM CLR 23/23 A2996 0 100 900 280/03 RMK AO2 T02280228
53915KARA ARA20190531031510805/31/19 03:15:31  5-MIN KARA 310915Z AUTO 00000KT 10SM CLR 23/23 A2996 -10 100 900 000/00 RMK AO2 T02280228
53915KARA ARA20190531032010705/31/19 03:20:31  5-MIN KARA 310920Z AUTO 00000KT 10SM CLR 23/22 A2996 -10 97 900 000/00 RMK AO2 T02280222
53915KARA ARA20190531032510705/31/19 03:25:31  5-MIN KARA 310925Z AUTO 00000KT 10SM CLR 23/22 A2996 -10 97 900 000/00 RMK AO2 T02280222
53915KARA ARA20190531033010705/31/19 03:30:31  5-MIN KARA 310930Z AUTO 00000KT 10SM CLR 23/22 A2997 -10 97 900 000/00 RMK AO2 T02280222
53915KARA ARA20190531033510805/31/19 03:35:31  5-MIN KARA 310935Z AUTO 00000KT 10SM CLR 23/23 A2997 -10 100 900 000/00 RMK AO2 T02280228
53915KARA ARA20190531034010805/31/19 03:40:31  5-MIN KARA 310940Z AUTO 00000KT 10SM CLR 23/23 A2997 -10 97 1000 000/00 RMK AO2 T02330228
53915KARA ARA20190531034510805/31/19 03:45:31  5-MIN KARA 310945Z AUTO 00000KT 10SM CLR 23/23 A2997 -20 100 900 000/00 RMK AO2 T02280228
53915KARA ARA20190531035011405/31/19 03:50:31  5-MIN KARA 310950Z AUTO 00000KT 10SM CLR 23/22 A2997 -20 97 900 000/00 RMK AO2 SLP149 T02280222
53915KARA ARA20190531035510805/31/19 03:55:31  5-MIN KARA 310955Z AUTO 00000KT 10SM CLR 22/22 A2997 -20 100 900 000/00 RMK AO2 T02220222
53915KARA ARA20190531040010805/31/19 04:00:31  5-MIN KARA 311000Z AUTO 00000KT 10SM CLR 22/22 A2997 -20 100 900 000/00 RMK AO2 T02220222
53915KARA ARA20190531040510805/31/19 04:05:31  5-MIN KARA 311005Z AUTO 00000KT 10SM CLR 22/22 A2998 -20 100 900 000/00 RMK AO2 T02220222
53915KARA ARA20190531041010705/31/19 04:10:31  5-MIN KARA 311010Z AUTO 00000KT 10SM CLR 23/22 A2997 -20 97 900 000/00 RMK AO2 T02280222
53915KARA ARA20190531041510705/31/19 04:15:31  5-MIN KARA 311015Z AUTO 00000KT 10SM CLR 23/22 A2997 -20 97 900 000/00 RMK AO2 T02280222
53915KARA ARA20190531042010605/31/19 04:20:31  5-MIN KARA 311020Z AUTO 00000KT 9SM CLR 22/22 A2998 -20 97 900 000/00 RMK AO2 T02220217
53915KARA ARA20190531042510705/31/19 04:25:31  5-MIN KARA 311025Z AUTO 00000KT 7SM CLR 22/22 A2998 -20 100 800 000/00 RMK AO2 T02220222
53915KARA ARA20190531043010705/31/19 04:30:31  5-MIN KARA 311030Z AUTO 00000KT 7SM CLR 22/22 A2998 -20 100 800 000/00 RMK AO2 T02220222
53915KARA ARA20190531043510805/31/19 04:35:31  5-MIN KARA 311035Z AUTO 00000KT 10SM CLR 22/22 A2998 -20 100 800 000/00 RMK AO2 T02220222
53915KARA ARA20190531044010205/31/19 04:40:31  5-MIN KARA 311040Z 00000KT 10SM CLR 22/22 A2998 -30 97 800 000/00 RMK AO2 T02220217
53915KARA ARA20190531044510205/31/19 04:45:31  5-MIN KARA 311045Z 00000KT 10SM CLR 22/22 A2998 -20 97 800 000/00 RMK AO2 T02220217
53915KARA ARA20190531045012505/31/19 04:50:31  5-MIN KARA 311050Z 00000KT 10SM CLR 22/22 A2998 -20 100 900 000/00 RMK AO2 RAB49E50 SLP150 P0000 T02220222
53915KARA ARA20190531045510205/31/19 04:55:31  5-MIN KARA 311055Z 35003KT 10SM CLR 23/22 A2998 -20 97 900 350/03 RMK AO2 T02280222
53915KARA ARA20190531050010205/31/19 05:00:31  5-MIN KARA 311100Z 00000KT 10SM CLR 23/22 A2998 -20 97 900 000/00 RMK AO2 T02280222
53915KARA ARA20190531050510205/31/19 05:05:31  5-MIN KARA 311105Z 00000KT 10SM CLR 23/22 A2998 -20 97 900 000/00 RMK AO2 T02280222
53915KARA ARA20190531051010205/31/19 05:10:31  5-MIN KARA 311110Z 00000KT 9SM CLR 23/23 A2998 -30 100 900 000/00 RMK AO2 T02280228
53915KARA ARA20190531051510205/31/19 05:15:31  5-MIN KARA 311115Z 00000KT 8SM CLR 22/22 A2998 -30 100 800 000/00 RMK AO2 T02220222
53915KARA ARA20190531052010205/31/19 05:20:31  5-MIN KARA 311120Z 00000KT 9SM CLR 22/22 A2998 -30 100 800 000/00 RMK AO2 T02220222
53915KARA ARA20190531052510305/31/19 05:25:31  5-MIN KARA 311125Z 00000KT 10SM CLR 22/22 A2998 -20 100 800 000/00 RMK AO2 T02170217
53915KARA ARA20190531053010205/31/19 05:30:31  5-MIN KARA 311130Z 00000KT 10SM CLR 22/22 A2998 -20 97 800 000/00 RMK AO2 T02220217
53915KARA ARA20190531053510205/31/19 05:35:31  5-MIN KARA 311135Z 00000KT 10SM CLR 22/22 A2998 -20 97 900 000/00 RMK AO2 T02220217
53915KARA ARA20190531054010305/31/19 05:40:31  5-MIN KARA 311140Z 00000KT 10SM CLR 22/22 A2998 -20 100 800 000/00 RMK AO2 T02220222
53915KARA ARA20190531054510305/31/19 05:45:31  5-MIN KARA 311145Z 00000KT 10SM CLR 22/22 A2998 -20 100 800 000/00 RMK AO2 T02220222
53915KARA ARA20190531055013305/31/19 05:50:31  5-MIN KARA 311150Z 00000KT 10SM CLR 23/22 A2998 -20 97 900 000/00 RMK AO2 SLP151 60000 T02280222 10239 20217 53004
53915KARA ARA20190531055510305/31/19 05:55:31  5-MIN KARA 311155Z 00000KT 10SM CLR 23/23 A2998 -30 100 900 000/00 RMK AO2 T02280228
53915KARA ARA20190531060010305/31/19 06:00:31  5-MIN KARA 311200Z 00000KT 10SM CLR 23/23 A2998 -30 97 1000 000/00 RMK AO2 T02330228
53915KARA ARA20190531060510305/31/19 06:05:31  5-MIN KARA 311205Z 00000KT 10SM CLR 23/23 A2998 -30 97 1000 000/00 RMK AO2 T02330228
53915KARA ARA20190531061010305/31/19 06:10:31  5-MIN KARA 311210Z 00000KT 10SM CLR 23/23 A2999 -30 97 1000 000/00 RMK AO2 T02330228
53915KARA ARA20190531061510305/31/19 06:15:31  5-MIN KARA 311215Z 00000KT 10SM CLR 23/23 A2999 -40 97 1000 000/00 RMK AO2 T02330228
53915KARA ARA20190531062010305/31/19 06:20:31  5-MIN KARA 311220Z 28003KT 10SM CLR 24/23 A2999 -40 93 1000 280/03 RMK AO2 T02390228
53915KARA ARA20190531062510305/31/19 06:25:31  5-MIN KARA 311225Z 00000KT 10SM CLR 24/23 A2999 -40 93 1000 000/00 RMK AO2 T02390228
53915KARA ARA20190531063010305/31/19 06:30:31  5-MIN KARA 311230Z 00000KT 10SM CLR 24/23 A2999 -30 93 1000 000/00 RMK AO2 T02390228
53915KARA ARA20190531063510305/31/19 06:35:31  5-MIN KARA 311235Z 00000KT 10SM CLR 24/23 A2999 -30 90 1100 000/00 RMK AO2 T02440228
53915KARA ARA20190531064010305/31/19 06:40:31  5-MIN KARA 311240Z 00000KT 10SM CLR 24/23 A2998 -30 90 1100 000/00 RMK AO2 T02440228
53915KARA ARA20190531064510305/31/19 06:45:31  5-MIN KARA 311245Z 00000KT 10SM CLR 25/23 A2998 -30 87 1200 000/00 RMK AO2 T02500228
53915KARA ARA20190531065011005/31/19 06:50:31  5-MIN KARA 311250Z 00000KT 10SM CLR 25/22 A2998 -30 84 1200 000/00 RMK AO2 SLP153 T02500222
53915KARA ARA20190531065510305/31/19 06:55:31  5-MIN KARA 311255Z 00000KT 10SM CLR 26/23 A2999 -40 84 1200 000/00 RMK AO2 T02560228
53915KARA ARA20190531070010305/31/19 07:00:31  5-MIN KARA 311300Z 31003KT 10SM CLR 25/23 A3000 -40 87 1100 310/03 RMK AO2 T02500228
53915KARA ARA20190531070510305/31/19 07:05:31  5-MIN KARA 311305Z 00000KT 10SM CLR 26/23 A3000 -40 84 1200 000/00 RMK AO2 T02560228
53915KARA ARA20190531071010305/31/19 07:10:31  5-MIN KARA 311310Z 31003KT 10SM CLR 26/23 A3000 -40 84 1200 310/03 RMK AO2 T02560228
53915KARA ARA20190531071510305/31/19 07:15:31  5-MIN KARA 311315Z 31003KT 10SM CLR 26/23 A3000 -40 84 1200 310/03 RMK AO2 T02560228
53915KARA ARA20190531072010305/31/19 07:20:31  5-MIN KARA 311320Z 32003KT 10SM CLR 26/22 A3000 -50 79 1300 320/03 RMK AO2 T02610222
53915KARA ARA20190531072510305/31/19 07:25:31  5-MIN KARA 311325Z 32003KT 10SM CLR 26/22 A3000 -50 79 1300 320/03 RMK AO2 T02610222
53915KARA ARA20190531073010305/31/19 07:30:31  5-MIN KARA 311330Z 33003KT 10SM CLR 27/23 A3000 -40 79 1300 330/03 RMK AO2 T02670228
53915KARA ARA20190531173512105/31/19 17:35:31  5-MIN KARA 312335Z 19011KT 10SM TS FEW060 SCT080 31/23 A2991 40 62 1900 190/11 RMK AO2 TSB30 T03060228
53915KARA ARA20190531174012105/31/19 17:40:31  5-MIN KARA 312340Z 19011KT 10SM TS SCT055 BKN080 30/23 A2991 40 65 1800 180/11 RMK AO2 TSB30 T03000228
53915KARA ARA20190531174512105/31/19 17:45:31  5-MIN KARA 312345Z 19013KT 10SM TS BKN050 BKN075 30/23 A2991 30 65 1800 180/13 RMK AO2 TSB30 T03000228
53915KARA ARA20190531175016405/31/19 17:50:31  5-MIN KARA 312350Z 19012KT 10SM TS BKN050 BKN075 29/23 A2992 30 67 1700 190/12 RMK AO2 LTG DSNT E TSB30 PRESRR SLP131 T02940228 10344 20294 56018
53915KARA ARA20190531175513305/31/19 17:55:31  5-MIN KARA 312355Z 19011KT 10SM TS BKN050 BKN075 29/23 A2993 20 67 1700 190/11 RMK AO2 LTG DSNT E PRESRR T02940228
53915KARA ARA20190531180012605/31/19 18:00:31  5-MIN KARA 010000Z 18009KT 10SM TS BKN050 OVC080 29/23 A2993 10 67 1700 180/09 RMK AO2 LTG DSNT E T02940228
53915KARA ARA20190531180514005/31/19 18:05:31  5-MIN KARA 010005Z 15007KT 10SM TS BKN050 OVC080 29/23 A2994 10 67 1700 150/07 RMK AO2 LTG DSNT NE AND E PRESRR T02940228
53915KARA ARA20190531181013905/31/19 18:10:31  5-MIN KARA 010010Z VRB05KT 10SM TS FEW035 OVC050 29/22 A2995 0 64 1700 VRB/05 RMK AO2 LTG DSNT NE AND E PRESRR T02940222
53915KARA ARA20190531181513305/31/19 18:15:31  5-MIN KARA 010015Z 05014G18KT 10SM TS BKN033 OVC050 28/19 A2995 0 58 1600 050/14G18 RMK AO2 LTG DSNT N-E T02830194
53915KARA ARA20190531182013305/31/19 18:20:31  5-MIN KARA 010020Z 03011G18KT 10SM TS BKN033 OVC050 27/20 A2995 0 64 1500 030/11G18 RMK AO2 LTG DSNT N-E T02720200
53915KARA ARA20190531182513405/31/19 18:25:31  5-MIN KARA 010025Z 05012G18KT 10SM TS BKN033 OVC050 27/21 A2995 0 69 1400 040/12G18 RMK AO2 LTG DSNT NW-E T02670206
53915KARA ARA20190531183012705/31/19 18:30:31  5-MIN KARA 010030Z 05019G24KT 10SM TS OVC033 26/19 A2996 0 66 1300 050/19G24 RMK AO2 LTG DSNT NW-E T02560189
53915KARA ARA20190531183512905/31/19 18:35:31  5-MIN KARA 010035Z 05019G24KT 10SM TS OVC033 26/18 A2996 -10 61 1200 050/19G24 RMK AO2 LTG DSNT NW-E T02560178
53915KARA ARA20190531184015505/31/19 18:40:31  5-MIN KARA 010040Z 05024G32KT 10SM VCTS OVC035 26/18 A2996 -10 61 1200 050/24G32 RMK AO2 PK WND 05032/0040 LTG DSNT NW-E TSE37 T02560178
53915KARA ARA20190531184515305/31/19 18:45:31  5-MIN KARA 010045Z 05020G32KT 10SM VCTS OVC035 24/18 A2995 0 66 1100 050/20G32 RMK AO2 PK WND 05032/0040 LTG DSNT NW-E TSE37 T02440178
53915KARA ARA20190531185016605/31/19 18:50:31  5-MIN KARA 010050Z 07023G30KT 10SM VCTS OVC037 25/18 A2996 -10 64 1200 070/23G30 RMK AO2 PK WND 05032/0040 LTG DSNT NE AND E TSE37 SLP145 T02500178
53915KARA ARA20190531185517005/31/19 18:55:31  5-MIN KARA 010055Z 05023G29KT 10SM TS BKN037 OVC049 24/18 A2996 -10 68 1100 050/23G29 RMK AO2 PK WND 05028/0054 LTG DSNT NE AND E AND W TSB55 T02440183
53915KARA ARA20190531190017905/31/19 19:00:31  5-MIN KARA 010100Z 03013G28KT 10SM TS BKN037 BKN049 OVC060 25/19 A2997 -10 71 1200 030/13G28 RMK AO2 PK WND 05028/0054 LTG DSNT NE AND E AND W TSB0055 T02500194
53915KARA ARA20190531190517805/31/19 19:05:31  5-MIN KARA 010105Z 06018G27KT 8SM TS SCT039 BKN049 OVC060 24/20 A2997 -10 78 1100 050/18G27 RMK AO2 PK WND 05028/0054 LTG DSNT NE AND E AND W TSB0055 T02390200
53915KARA ARA20190531191016905/31/19 19:10:31  5-MIN KARA 010110Z 08013G27KT 5SM TS HZ SCT039 OVC060 23/20 A2996 -10 84 900 080/13G27 RMK AO2 PK WND 05028/0054 LTG DSNT NW-E TSB0055 P0010 T02280200
53915KARA ARA20190531191517005/31/19 19:15:31  5-MIN KARA 010115Z 06012KT 5SM TS HZ FEW037 SCT049 OVC060 23/20 A2997 -10 84 900 060/12 RMK AO2 PK WND 05028/0054 LTG DSNT NW-E TSB0055 P0013 T02280200
53915KARA ARA20190531192016605/31/19 19:20:31  5-MIN KARA 010120Z 06014KT 7SM TS FEW049 OVC060 23/21 A2997 -20 87 900 060/14 RMK AO2 PK WND 05028/0054 LTG DSNT NW-E TSB0055E19B20 P0014 T02280206
53915KARA ARA20190531192515505/31/19 19:25:31  5-MIN KARA 010125Z 08010KT 5SM TS BR SCT040 OVC060 23/21 A2998 -20 87 900 080/10 RMK AO2 PK WND 05028/0054 TSB0055E19B20 P0023 T02280206
53915KARA ARA20190531193015505/31/19 19:30:31  5-MIN KARA 010130Z 07011KT 3SM TS BR BKN035 OVC060 22/21 A2998 -20 93 900 070/11 RMK AO2 PK WND 05028/0054 TSB0055E19B20 P0031 T02220211
53915KARA ARA20190531193515905/31/19 19:35:31  5-MIN KARA 010135Z 08010KT 2 1/2SM BR BKN035 OVC060 22/21 A2997 -10 93 900 080/10 RMK AO2 PK WND 05028/0054 TSB0055E19B20E35 P0041 T02220211
53915KARA ARA20190531194019405/31/19 19:40:31  5-MIN KARA 010140Z AUTO 07008KT 2 1/2SM VCTS BR BKN033 BKN060 OVC075 22/21 A2997 -10 93 900 070/08 RMK AO2 PK WND 05028/0054 LTG DSNT NE AND E TSB0055E19B20E35 P0046 T02220211
53915KARA ARA20190531194518905/31/19 19:45:31  5-MIN KARA 010145Z AUTO 07009KT 4SM TS BR BKN033 BKN065 OVC075 22/22 A2996 0 97 900 070/09 RMK AO2 PK WND 05028/0054 LTG DSNT NE AND E TSB0055E19B20E35B44 P0048 T02220217
53915KARA ARA20190531195019405/31/19 19:50:31  5-MIN KARA 010150Z AUTO 14006KT 7SM TS SCT029 OVC075 23/22 A2995 0 93 1000 140/06 RMK AO2 PK WND 05028/0054 LTG DSNT NE AND E TSB0055E19B20E35B44 PRESFR SLP140 P0048 T02330222
53915KARA ARA20190531195512405/31/19 19:55:31  5-MIN KARA 010155Z AUTO VRB05KT 9SM TS SCT032 BKN075 OVC085 23/22 A2995 0 97 900 VRB/05 RMK AO2 T02280222
53915KARA ARA20190531200013205/31/19 20:00:31  5-MIN KARA 010200Z AUTO 24003KT 10SM SCT036 BKN075 BKN090 23/22 A2994 10 97 1000 240/03 RMK AO2 TSE0159 T02280222
53915KARA ARA20190531200513905/31/19 20:05:31  5-MIN KARA 010205Z AUTO 00000KT 10SM FEW036 BKN075 BKN085 23/22 A2993 20 93 1000 000/00 RMK AO2 TSE0159 PRESFR T02280217
53915KARA ARA20190531201013905/31/19 20:10:31  5-MIN KARA 010210Z AUTO 09003KT 10SM FEW041 SCT075 SCT090 23/22 A2992 20 97 1000 090/03 RMK AO2 TSE0159 PRESFR T02280222
53915KARA ARA20190531201513905/31/19 20:15:31  5-MIN KARA 010215Z AUTO 10006KT 10SM FEW041 FEW070 SCT090 23/22 A2991 30 97 1000 100/06 RMK AO2 TSE0159 PRESFR T02280222
53915KARA ARA20190531202013205/31/19 20:20:31  5-MIN KARA 010220Z AUTO 13008KT 10SM FEW041 FEW080 23/22 A2991 40 93 1100 130/08 RMK AO2 TSE0159 PRESFR T02330222
53915KARA ARA20190531202511505/31/19 20:25:31  5-MIN KARA 010225Z AUTO 16005KT 10SM CLR 23/22 A2991 40 97 1000 160/05 RMK AO2 TSE0159 T02280222
53915KARA ARA20190531203011505/31/19 20:30:31  5-MIN KARA 010230Z AUTO 18003KT 10SM CLR 23/22 A2991 40 97 1000 180/03 RMK AO2 TSE0159 T02280222
53915KARA ARA20190531203511505/31/19 20:35:31  5-MIN KARA 010235Z AUTO 16004KT 10SM CLR 23/22 A2991 30 97 1000 160/04 RMK AO2 TSE0159 T02280222
53915KARA ARA20190531204011505/31/19 20:40:31  5-MIN KARA 010240Z AUTO 17003KT 10SM CLR 23/22 A2991 40 97 1000 170/03 RMK AO2 TSE0159 T02280222
53915KARA ARA20190531204511505/31/19 20:45:31  5-MIN KARA 010245Z AUTO 16003KT 10SM CLR 23/22 A2991 40 97 1000 160/03 RMK AO2 TSE0159 T02280222
53915KARA ARA20190531205013405/31/19 20:50:31  5-MIN KARA 010250Z AUTO 00000KT 10SM CLR 23/22 A2991 30 97 1000 000/00 RMK AO2 TSE0159 SLP129 60048 T02280222 53001
53915KARA ARA20190531205510705/31/19 20:55:31  5-MIN KARA 010255Z AUTO 31005KT 10SM CLR 23/22 A2992 20 93 1000 310/05 RMK AO2 T02330222
53915KARA ARA20190531210010705/31/19 21:00:31  5-MIN KARA 010300Z AUTO 00000KT 10SM CLR 23/22 A2992 20 97 1000 000/00 RMK AO2 T02280222
53915KARA ARA20190531210510705/31/19 21:05:31  5-MIN KARA 010305Z AUTO 32006KT 10SM CLR 23/22 A2993 20 97 1000 320/06 RMK AO2 T02280222
53915KARA ARA20190531211010705/31/19 21:10:31  5-MIN KARA 010310Z AUTO 31004KT 10SM CLR 23/23 A2993 20 97 1000 310/04 RMK AO2 T02330228
53915KARA ARA20190531211510705/31/19 21:15:31  5-MIN KARA 010315Z AUTO 35004KT 10SM CLR 23/23 A2993 10 97 1000 350/04 RMK AO2 T02330228
53915KARA ARA20190531212010705/31/19 21:20:31  5-MIN KARA 010320Z AUTO 32003KT 10SM CLR 23/23 A2994 10 97 1000 320/03 RMK AO2 T02330228
53915KARA ARA20190531212510605/31/19 21:25:31  5-MIN KARA 010325Z AUTO 00000KT 10SM CLR 23/23 A2994 0 97 1000 000/00 RMK AO2 T02330228
53915KARA ARA20190531213010605/31/19 21:30:31  5-MIN KARA 010330Z AUTO 30004KT 10SM CLR 23/23 A2995 0 97 1000 290/04 RMK AO2 T02330228
53915KARA ARA20190531213510605/31/19 21:35:31  5-MIN KARA 010335Z AUTO 28003KT 10SM CLR 23/23 A2995 0 97 1000 280/03 RMK AO2 T02330228
53915KARA ARA20190531214010605/31/19 21:40:31  5-MIN KARA 010340Z AUTO 26004KT 10SM CLR 23/23 A2995 0 97 1000 260/04 RMK AO2 T02330228
53915KARA ARA20190531214510605/31/19 21:45:31  5-MIN KARA 010345Z AUTO 25004KT 10SM CLR 23/23 A2995 0 97 1000 250/04 RMK AO2 T02330228
53915KARA ARA20190531215011305/31/19 21:50:31  5-MIN KARA 010350Z AUTO 23003KT 10SM CLR 23/23 A2995 0 97 1000 220/03 RMK AO2 SLP141 T02330228
53915KARA ARA20190531215510605/31/19 21:55:31  5-MIN KARA 010355Z AUTO 19004KT 10SM CLR 23/23 A2996 0 100 900 190/04 RMK AO2 T02280228
53915KARA ARA20190531220010605/31/19 22:00:31  5-MIN KARA 010400Z AUTO 20004KT 10SM CLR 23/23 A2996 0 100 900 200/04 RMK AO2 T02280228
53915KARA ARA20190531220510605/31/19 22:05:31  5-MIN KARA 010405Z AUTO 19004KT 10SM CLR 23/23 A2995 0 100 900 180/04 RMK AO2 T02280228
53915KARA ARA20190531221010605/31/19 22:10:31  5-MIN KARA 010410Z AUTO 20005KT 10SM CLR 23/23 A2995 0 97 1000 200/05 RMK AO2 T02330228
53915KARA ARA20190531221510605/31/19 22:15:31  5-MIN KARA 010415Z AUTO 22005KT 10SM CLR 23/23 A2996 0 97 1000 220/05 RMK AO2 T02330228
53915KARA ARA20190531222010605/31/19 22:20:31  5-MIN KARA 010420Z AUTO 20004KT 10SM CLR 23/23 A2996 0 100 900 200/04 RMK AO2 T02280228
53915KARA ARA20190531222510505/31/19 22:25:31  5-MIN KARA 010425Z AUTO 22004KT 10SM CLR 23/22 A2996 0 97 900 220/04 RMK AO2 T02280222
53915KARA ARA20190531223010505/31/19 22:30:31  5-MIN KARA 010430Z AUTO 20003KT 10SM CLR 23/22 A2995 0 97 900 200/03 RMK AO2 T02280222
53915KARA ARA20190531223510505/31/19 22:35:31  5-MIN KARA 010435Z AUTO 00000KT 10SM CLR 23/22 A2995 0 97 900 000/00 RMK AO2 T02280222
53915KARA ARA20190531224010605/31/19 22:40:31  5-MIN KARA 010440Z AUTO 00000KT 10SM CLR 23/22 A2996 0 93 1000 000/00 RMK AO2 T02330222
53915KARA ARA20190531224510605/31/19 22:45:31  5-MIN KARA 010445Z AUTO 00000KT 10SM CLR 23/22 A2996 0 93 1000 000/00 RMK AO2 T02330222
53915KARA ARA20190531225011305/31/19 22:50:31  5-MIN KARA 010450Z AUTO 00000KT 10SM CLR 23/22 A2996 0 93 1000 000/00 RMK AO2 SLP143 T02330222
53915KARA ARA20190531225510605/31/19 22:55:31  5-MIN KARA 010455Z AUTO 00000KT 10SM CLR 23/23 A2996 0 97 1000 000/00 RMK AO2 T02330228
53915KARA ARA20190531230010605/31/19 23:00:31  5-MIN KARA 010500Z AUTO 00000KT 10SM CLR 23/22 A2996 0 93 1000 000/00 RMK AO2 T02330222
53915KARA ARA20190531230510505/31/19 23:05:31  5-MIN KARA 010505Z AUTO 36004KT 10SM CLR 23/22 A2996 0 97 900 360/04 RMK AO2 T02280222
53915KARA ARA20190531231010505/31/19 23:10:31  5-MIN KARA 010510Z AUTO 36005KT 10SM CLR 23/22 A2996 0 97 900 360/05 RMK AO2 T02280222
53915KARA ARA20190531231510505/31/19 23:15:31  5-MIN KARA 010515Z AUTO 35005KT 10SM CLR 23/22 A2995 0 97 900 350/05 RMK AO2 T02280222
53915KARA ARA20190531232010505/31/19 23:20:31  5-MIN KARA 010520Z AUTO 35005KT 10SM CLR 23/22 A2995 0 97 900 350/05 RMK AO2 T02280222
53915KARA ARA20190531232510505/31/19 23:25:31  5-MIN KARA 010525Z AUTO 35005KT 10SM CLR 23/22 A2996 0 97 900 350/05 RMK AO2 T02280222
53915KARA ARA20190531233010505/31/19 23:30:31  5-MIN KARA 010530Z AUTO 35005KT 10SM CLR 23/22 A2996 0 97 900 350/05 RMK AO2 T02280222
53915KARA ARA20190531233510505/31/19 23:35:31  5-MIN KARA 010535Z AUTO 36003KT 10SM CLR 23/22 A2996 0 97 900 360/03 RMK AO2 T02280222
53915KARA ARA20190531234010505/31/19 23:40:31  5-MIN KARA 010540Z AUTO 35003KT 10SM CLR 23/22 A2996 0 97 900 350/03 RMK AO2 T02280222
53915KARA ARA20190531234510505/31/19 23:45:31  5-MIN KARA 010545Z AUTO 36003KT 10SM CLR 23/22 A2996 0 97 900 360/03 RMK AO2 T02280222
53915KARA ARA20190531235014605/31/19 23:50:31  5-MIN KARA 010550Z AUTO 00000KT 10SM CLR 23/22 A2995 0 97 900 000/00 RMK AO2 SLP143 60048 T02280222 10294 20222 403440217 58015
53915KARA ARA20190531235510505/31/19 23:55:31  5-MIN KARA 010555Z AUTO 00000KT 10SM CLR 23/22 A2996 0 97 900 000/00 RMK AO2 T02280222
