13976KLFT LFT20190701000010807/01/19 00:00:31  5-MIN KLFT 010600Z AUTO 20003KT 10SM CLR 25/23 A3005 -70 90 1100 200/03 RMK AO2 T02500233
13976KLFT LFT20190701000510807/01/19 00:05:31  5-MIN KLFT 010605Z AUTO 20004KT 10SM CLR 24/23 A3005 -70 90 1000 200/04 RMK AO2 T02440228
13976KLFT LFT20190701001010807/01/19 00:10:31  5-MIN KLFT 010610Z AUTO 00000KT 10SM CLR 25/23 A3005 -70 87 1100 000/00 RMK AO2 T02500228
13976KLFT LFT20190701001510707/01/19 00:15:31  5-MIN KLFT 010615Z AUTO 00000KT 9SM CLR 25/23 A3005 -70 87 1100 000/00 RMK AO2 T02500228
13976KLFT LFT20190701002010707/01/19 00:20:31  5-MIN KLFT 010620Z AUTO 00000KT 8SM CLR 25/23 A3005 -70 90 1100 000/00 RMK AO2 T02500233
13976KLFT LFT20190701002510707/01/19 00:25:31  5-MIN KLFT 010625Z AUTO 00000KT 7SM CLR 25/23 A3005 -70 90 1100 000/00 RMK AO2 T02500233
13976KLFT LFT20190701003010707/01/19 00:30:31  5-MIN KLFT 010630Z AUTO 00000KT 8SM CLR 24/23 A3005 -70 93 1000 000/00 RMK AO2 T02440233
13976KLFT LFT20190701003510707/01/19 00:35:31  5-MIN KLFT 010635Z AUTO 00000KT 7SM CLR 25/23 A3005 -70 90 1100 000/00 RMK AO2 T02500233
13976KLFT LFT20190701004010707/01/19 00:40:31  5-MIN KLFT 010640Z AUTO 00000KT 7SM CLR 24/23 A3005 -70 93 1000 000/00 RMK AO2 T02440233
13976KLFT LFT20190701004510707/01/19 00:45:31  5-MIN KLFT 010645Z AUTO 00000KT 8SM CLR 24/23 A3005 -70 93 1000 000/00 RMK AO2 T02440233
13976KLFT LFT20190701005011407/01/19 00:50:31  5-MIN KLFT 010650Z AUTO 00000KT 8SM CLR 24/23 A3005 -70 93 1000 000/00 RMK AO2 SLP174 T02440233
13976KLFT LFT20190701005510707/01/19 00:55:31  5-MIN KLFT 010655Z AUTO 00000KT 8SM CLR 24/23 A3005 -70 93 1000 000/00 RMK AO2 T02390228
13976KLFT LFT20190701010010707/01/19 01:00:31  5-MIN KLFT 010700Z AUTO 00000KT 8SM CLR 24/23 A3005 -70 93 1000 000/00 RMK AO2 T02440233
13976KLFT LFT20190701010510707/01/19 01:05:31  5-MIN KLFT 010705Z AUTO 00000KT 7SM CLR 24/23 A3005 -70 93 1000 000/00 RMK AO2 T02440233
13976KLFT LFT20190701011011007/01/19 01:10:31  5-MIN KLFT 010710Z AUTO 00000KT 6SM BR CLR 24/23 A3005 -70 93 1000 000/00 RMK AO2 T02440233
13976KLFT LFT20190701011511007/01/19 01:15:31  5-MIN KLFT 010715Z AUTO 00000KT 6SM BR CLR 24/24 A3005 -70 97 1000 000/00 RMK AO2 T02440239
13976KLFT LFT20190701012010707/01/19 01:20:31  5-MIN KLFT 010720Z AUTO 00000KT 7SM CLR 24/23 A3005 -70 93 1000 000/00 RMK AO2 T02440233
13976KLFT LFT20190701012510707/01/19 01:25:31  5-MIN KLFT 010725Z AUTO 00000KT 7SM CLR 24/23 A3005 -70 93 1000 000/00 RMK AO2 T02440233
13976KLFT LFT20190701013010707/01/19 01:30:31  5-MIN KLFT 010730Z AUTO 00000KT 9SM CLR 24/23 A3006 -80 97 1000 000/00 RMK AO2 T02390233
13976KLFT LFT20190701013510807/01/19 01:35:31  5-MIN KLFT 010735Z AUTO 00000KT 10SM CLR 24/23 A3006 -80 97 1000 000/00 RMK AO2 T02390233
13976KLFT LFT20190701014010807/01/19 01:40:31  5-MIN KLFT 010740Z AUTO 00000KT 10SM CLR 24/23 A3006 -80 97 1000 000/00 RMK AO2 T02390233
13976KLFT LFT20190701014510707/01/19 01:45:31  5-MIN KLFT 010745Z AUTO 00000KT 10SM CLR 23/23 A3005 -70 97 900 000/00 RMK AO2 T02330228
13976KLFT LFT20190701015011507/01/19 01:50:31  5-MIN KLFT 010750Z AUTO 00000KT 10SM CLR 24/23 A3005 -70 93 1000 000/00 RMK AO2 SLP176 T02390228
13976KLFT LFT20190701015510807/01/19 01:55:31  5-MIN KLFT 010755Z AUTO 00000KT 10SM CLR 24/23 A3005 -70 97 1000 000/00 RMK AO2 T02390233
13976KLFT LFT20190701020010707/01/19 02:00:31  5-MIN KLFT 010800Z AUTO 00000KT 9SM CLR 24/23 A3005 -70 97 1000 000/00 RMK AO2 T02390233
13976KLFT LFT20190701020510707/01/19 02:05:31  5-MIN KLFT 010805Z AUTO 00000KT 8SM CLR 24/23 A3005 -70 97 1000 000/00 RMK AO2 T02390233
13976KLFT LFT20190701021010707/01/19 02:10:31  5-MIN KLFT 010810Z AUTO 00000KT 7SM CLR 24/23 A3005 -70 97 1000 000/00 RMK AO2 T02390233
13976KLFT LFT20190701021510607/01/19 02:15:31  5-MIN KLFT 010815Z AUTO 04003KT 8SM CLR 23/23 A3005 -70 97 900 040/03 RMK AO2 T02330228
13976KLFT LFT20190701022010707/01/19 02:20:31  5-MIN KLFT 010820Z AUTO 03003KT 10SM CLR 23/22 A3005 -70 93 900 030/03 RMK AO2 T02330222
13976KLFT LFT20190701022510707/01/19 02:25:31  5-MIN KLFT 010825Z AUTO 04004KT 10SM CLR 23/22 A3005 -70 93 900 040/04 RMK AO2 T02330222
13976KLFT LFT20190701023010707/01/19 02:30:31  5-MIN KLFT 010830Z AUTO 03004KT 10SM CLR 23/22 A3005 -70 93 900 030/04 RMK AO2 T02330222
13976KLFT LFT20190701023510607/01/19 02:35:31  5-MIN KLFT 010835Z AUTO 04003KT 9SM CLR 23/22 A3005 -70 93 900 040/03 RMK AO2 T02330222
13976KLFT LFT20190701024010607/01/19 02:40:31  5-MIN KLFT 010840Z AUTO 00000KT 9SM CLR 23/22 A3005 -70 93 900 000/00 RMK AO2 T02330222
13976KLFT LFT20190701024510607/01/19 02:45:31  5-MIN KLFT 010845Z AUTO 00000KT 8SM CLR 23/23 A3006 -80 97 900 000/00 RMK AO2 T02330228
13976KLFT LFT20190701025011907/01/19 02:50:31  5-MIN KLFT 010850Z AUTO 00000KT 8SM CLR 23/23 A3006 -80 97 900 000/00 RMK AO2 SLP178 T02330228 50005
13976KLFT LFT20190701025510607/01/19 02:55:31  5-MIN KLFT 010855Z AUTO 00000KT 8SM CLR 23/23 A3006 -80 97 900 000/00 RMK AO2 T02330228
13976KLFT LFT20190701030010607/01/19 03:00:31  5-MIN KLFT 010900Z AUTO 00000KT 7SM CLR 23/23 A3006 -80 97 900 000/00 RMK AO2 T02330228
13976KLFT LFT20190701030510607/01/19 03:05:31  5-MIN KLFT 010905Z AUTO 00000KT 7SM CLR 23/23 A3006 -80 97 900 000/00 RMK AO2 T02330228
13976KLFT LFT20190701031010607/01/19 03:10:31  5-MIN KLFT 010910Z AUTO 00000KT 7SM CLR 23/23 A3006 -80 97 900 000/00 RMK AO2 T02330228
13976KLFT LFT20190701031510607/01/19 03:15:31  5-MIN KLFT 010915Z AUTO 00000KT 7SM CLR 23/23 A3006 -80 97 900 000/00 RMK AO2 T02330228
13976KLFT LFT20190701032010607/01/19 03:20:31  5-MIN KLFT 010920Z AUTO 00000KT 7SM CLR 23/23 A3006 -80 97 900 000/00 RMK AO2 T02330228
13976KLFT LFT20190701032510707/01/19 03:25:31  5-MIN KLFT 010925Z AUTO 00000KT 7SM CLR 23/23 A3006 -80 100 900 000/00 RMK AO2 T02330233
13976KLFT LFT20190701033010907/01/19 03:30:31  5-MIN KLFT 010930Z AUTO 00000KT 6SM BR CLR 23/23 A3006 -80 97 900 000/00 RMK AO2 T02330228
13976KLFT LFT20190701033510607/01/19 03:35:31  5-MIN KLFT 010935Z AUTO 00000KT 7SM CLR 23/23 A3006 -80 97 900 000/00 RMK AO2 T02330228
13976KLFT LFT20190701034010607/01/19 03:40:31  5-MIN KLFT 010940Z AUTO 00000KT 7SM CLR 23/23 A3006 -80 97 900 000/00 RMK AO2 T02330228
13976KLFT LFT20190701034510607/01/19 03:45:31  5-MIN KLFT 010945Z AUTO 00000KT 7SM CLR 23/23 A3006 -80 97 900 000/00 RMK AO2 T02330228
13976KLFT LFT20190701035011607/01/19 03:50:31  5-MIN KLFT 010950Z AUTO 00000KT 6SM BR CLR 23/23 A3006 -80 97 900 000/00 RMK AO2 SLP179 T02330228
13976KLFT LFT20190701035510907/01/19 03:55:31  5-MIN KLFT 010955Z AUTO 00000KT 6SM BR CLR 23/23 A3006 -80 97 900 000/00 RMK AO2 T02330228
13976KLFT LFT20190701040010907/01/19 04:00:31  5-MIN KLFT 011000Z AUTO 00000KT 6SM BR CLR 23/23 A3006 -80 97 900 000/00 RMK AO2 T02330228
13976KLFT LFT20190705051010607/05/19 05:10:31  5-MIN KLFT 051110Z 00000KT 4SM BR CLR 25/25 A3006 -80 100 1100 000/00 RMK AO2 T02500250
13976KLFT LFT20190705051510607/05/19 05:15:31  5-MIN KLFT 051115Z 00000KT 4SM BR CLR 25/25 A3006 -80 100 1100 000/00 RMK AO2 T02500250
13976KLFT LFT20190705052010507/05/19 05:20:31  5-MIN KLFT 051120Z 00000KT 3SM BR CLR 25/24 A3006 -80 97 1100 000/00 RMK AO2 T02500244
13976KLFT LFT20190705052511007/05/19 05:25:31  5-MIN KLFT 051125Z 00000KT 2 1/2SM BR CLR 25/25 A3006 -80 100 1100 000/00 RMK AO2 T02500250
13976KLFT LFT20190705053011007/05/19 05:30:31  5-MIN KLFT 051130Z 00000KT 2 1/2SM BR CLR 24/24 A3006 -80 100 1000 000/00 RMK AO2 T02440244
13976KLFT LFT20190705053510407/05/19 05:35:31  5-MIN KLFT 051135Z 00000KT 10SM CLR 24/24 A3006 -80 100 1000 000/00 RMK AO2 T02440244
13976KLFT LFT20190705054010307/05/19 05:40:31  5-MIN KLFT 051140Z 00000KT 10SM CLR 25/24 A3006 -80 97 1100 000/00 RMK AO2 T02500244
13976KLFT LFT20190705054510307/05/19 05:45:31  5-MIN KLFT 051145Z 00000KT 10SM CLR 25/24 A3007 -90 97 1100 000/00 RMK AO2 T02500244
13976KLFT LFT20190705055012807/05/19 05:50:31  5-MIN KLFT 051150Z 00000KT 10SM CLR 25/24 A3007 -90 97 1100 000/00 RMK AO2 SLP181 T02500244 10267 20244 58001
13976KLFT LFT20190705055510207/05/19 05:55:31  5-MIN KLFT 051155Z 00000KT 7SM CLR 25/24 A3007 -80 97 1100 000/00 RMK AO2 T02500244
13976KLFT LFT20190705060010507/05/19 06:00:31  5-MIN KLFT 051200Z 00000KT 6SM BR CLR 25/24 A3007 -80 97 1100 000/00 RMK AO2 T02500244
13976KLFT LFT20190705060510607/05/19 06:05:31  5-MIN KLFT 051205Z 00000KT 5SM BR CLR 25/25 A3007 -90 100 1100 000/00 RMK AO2 T02500250
13976KLFT LFT20190705061010507/05/19 06:10:31  5-MIN KLFT 051210Z 00000KT 5SM BR CLR 26/25 A3007 -90 97 1100 000/00 RMK AO2 T02560250
13976KLFT LFT20190705061510507/05/19 06:15:31  5-MIN KLFT 051215Z 00000KT 5SM BR CLR 26/25 A3007 -90 97 1100 000/00 RMK AO2 T02560250
13976KLFT LFT20190705062010607/05/19 06:20:31  5-MIN KLFT 051220Z 00000KT 5SM BR CLR 26/25 A3008 -100 97 1100 000/00 RMK AO2 T02560250
13976KLFT LFT20190705062510607/05/19 06:25:31  5-MIN KLFT 051225Z 00000KT 5SM BR CLR 26/25 A3008 -100 97 1100 000/00 RMK AO2 T02560250
13976KLFT LFT20190705063010707/05/19 06:30:31  5-MIN KLFT 051230Z 00000KT 5SM BR CLR 26/26 A3008 -100 100 1100 000/00 RMK AO2 T02560256
13976KLFT LFT20190705063510707/05/19 06:35:31  5-MIN KLFT 051235Z 00000KT 5SM BR CLR 26/26 A3008 -100 100 1100 000/00 RMK AO2 T02560256
13976KLFT LFT20190705064010607/05/19 06:40:31  5-MIN KLFT 051240Z 00000KT 6SM BR CLR 26/25 A3008 -100 93 1200 000/00 RMK AO2 T02610250
13976KLFT LFT20190705064510607/05/19 06:45:31  5-MIN KLFT 051245Z 00000KT 6SM BR CLR 26/26 A3009 -100 97 1200 000/00 RMK AO2 T02610256
13976KLFT LFT20190705065011007/05/19 06:50:31  5-MIN KLFT 051250Z 00000KT 7SM CLR 26/26 A3009 -100 97 1200 000/00 RMK AO2 SLP188 T02610256
13976KLFT LFT20190705065510307/05/19 06:55:31  5-MIN KLFT 051255Z 00000KT 7SM CLR 26/25 A3009 -110 93 1200 000/00 RMK AO2 T02610250
13976KLFT LFT20190705070010307/05/19 07:00:31  5-MIN KLFT 051300Z 33003KT 8SM CLR 27/25 A3009 -110 90 1300 330/03 RMK AO2 T02670250
13976KLFT LFT20190705070510307/05/19 07:05:31  5-MIN KLFT 051305Z 29004KT 9SM CLR 27/26 A3009 -110 90 1300 290/04 RMK AO2 T02720256
13976KLFT LFT20190705071010407/05/19 07:10:31  5-MIN KLFT 051310Z 31005KT 10SM CLR 27/26 A3009 -110 90 1300 300/05 RMK AO2 T02720256
13976KLFT LFT20190705071510407/05/19 07:15:31  5-MIN KLFT 051315Z 29005KT 10SM CLR 28/26 A3010 -110 87 1400 290/05 RMK AO2 T02780256
13976KLFT LFT20190705072010407/05/19 07:20:31  5-MIN KLFT 051320Z 28004KT 10SM CLR 28/26 A3009 -110 87 1400 280/04 RMK AO2 T02780256
13976KLFT LFT20190705072510407/05/19 07:25:31  5-MIN KLFT 051325Z 30005KT 10SM CLR 28/26 A3010 -120 85 1400 290/05 RMK AO2 T02830256
13976KLFT LFT20190705073010407/05/19 07:30:31  5-MIN KLFT 051330Z 29006KT 10SM CLR 28/26 A3010 -120 85 1400 290/06 RMK AO2 T02830256
13976KLFT LFT20190705073510407/05/19 07:35:31  5-MIN KLFT 051335Z 29006KT 10SM CLR 28/26 A3010 -120 85 1400 290/06 RMK AO2 T02830256
13976KLFT LFT20190705074010407/05/19 07:40:31  5-MIN KLFT 051340Z 28006KT 10SM CLR 29/26 A3010 -120 82 1500 280/06 RMK AO2 T02890256
13976KLFT LFT20190705074510407/05/19 07:45:31  5-MIN KLFT 051345Z 29009KT 10SM CLR 29/26 A3010 -120 82 1500 290/09 RMK AO2 T02890256
13976KLFT LFT20190705075011107/05/19 07:50:31  5-MIN KLFT 051350Z 27009KT 10SM CLR 28/26 A3010 -120 85 1400 270/09 RMK AO2 SLP192 T02830256
13976KLFT LFT20190705075510407/05/19 07:55:31  5-MIN KLFT 051355Z 28006KT 10SM CLR 29/26 A3010 -120 82 1500 280/06 RMK AO2 T02890256
13976KLFT LFT20190705080010407/05/19 08:00:31  5-MIN KLFT 051400Z 29006KT 10SM CLR 29/26 A3010 -120 82 1500 280/06 RMK AO2 T02890256
13976KLFT LFT20190705080510407/05/19 08:05:31  5-MIN KLFT 051405Z 27006KT 10SM CLR 29/26 A3010 -120 82 1500 270/06 RMK AO2 T02890256
13976KLFT LFT20190705081010407/05/19 08:10:31  5-MIN KLFT 051410Z 28005KT 10SM CLR 29/26 A3010 -120 82 1500 280/05 RMK AO2 T02890256
13976KLFT LFT20190705081510407/05/19 08:15:31  5-MIN KLFT 051415Z 28005KT 10SM CLR 29/26 A3010 -120 79 1600 280/05 RMK AO2 T02940256
13976KLFT LFT20190705082010407/05/19 08:20:31  5-MIN KLFT 051420Z 30007KT 10SM CLR 29/26 A3010 -110 79 1600 300/07 RMK AO2 T02940256
13976KLFT LFT20190705082510407/05/19 08:25:31  5-MIN KLFT 051425Z 29006KT 10SM CLR 29/25 A3010 -120 76 1600 290/06 RMK AO2 T02940250
13976KLFT LFT20190705083010407/05/19 08:30:31  5-MIN KLFT 051430Z 30006KT 10SM CLR 29/25 A3010 -120 76 1600 300/06 RMK AO2 T02940250
13976KLFT LFT20190705083510407/05/19 08:35:31  5-MIN KLFT 051435Z 32007KT 10SM CLR 30/25 A3010 -120 74 1600 310/07 RMK AO2 T03000250
13976KLFT LFT20190705084010407/05/19 08:40:31  5-MIN KLFT 051440Z 30007KT 10SM CLR 30/25 A3010 -120 74 1600 300/07 RMK AO2 T03000250
13976KLFT LFT20190705084510407/05/19 08:45:31  5-MIN KLFT 051445Z 32004KT 10SM CLR 30/25 A3010 -120 74 1600 320/04 RMK AO2 T03000250
13976KLFT LFT20190705085011707/05/19 08:50:31  5-MIN KLFT 051450Z 26004KT 10SM CLR 31/25 A3010 -120 72 1700 260/04 RMK AO2 SLP192 T03060250 53005
13976KLFT LFT20190705085510407/05/19 08:55:31  5-MIN KLFT 051455Z 32004KT 10SM CLR 31/24 A3010 -120 69 1700 320/04 RMK AO2 T03060244
13976KLFT LFT20190705090010407/05/19 09:00:31  5-MIN KLFT 051500Z VRB03KT 10SM CLR 30/25 A3010 -120 74 1600 VRB/03 RMK AO2 T03000250
13976KLFT LFT20190705090510407/05/19 09:05:31  5-MIN KLFT 051505Z 26005KT 10SM CLR 31/24 A3011 -120 69 1700 260/05 RMK AO2 T03060244
13976KLFT LFT20190705091010407/05/19 09:10:31  5-MIN KLFT 051510Z 33005KT 10SM CLR 31/25 A3011 -120 72 1700 330/05 RMK AO2 T03060250
13976KLFT LFT20190705091510407/05/19 09:15:31  5-MIN KLFT 051515Z VRB04KT 10SM CLR 31/25 A3011 -120 69 1700 VRB/04 RMK AO2 T03110250
13976KLFT LFT20190705092010407/05/19 09:20:31  5-MIN KLFT 051520Z 00000KT 10SM CLR 31/25 A3011 -120 69 1700 000/00 RMK AO2 T03110250
13976KLFT LFT20190705092510407/05/19 09:25:31  5-MIN KLFT 051525Z VRB03KT 10SM CLR 31/25 A3011 -130 69 1700 VRB/03 RMK AO2 T03110250
13976KLFT LFT20190705093010407/05/19 09:30:31  5-MIN KLFT 051530Z VRB03KT 10SM CLR 32/24 A3011 -130 65 1800 VRB/03 RMK AO2 T03170244
13976KLFT LFT20190705093510407/05/19 09:35:31  5-MIN KLFT 051535Z 32004KT 10SM CLR 32/25 A3011 -130 67 1800 320/04 RMK AO2 T03170250
13976KLFT LFT20190705094010407/05/19 09:40:31  5-MIN KLFT 051540Z 00000KT 10SM CLR 32/24 A3011 -130 65 1800 000/00 RMK AO2 T03170244
13976KLFT LFT20190705094510407/05/19 09:45:31  5-MIN KLFT 051545Z 30004KT 10SM CLR 32/24 A3011 -130 65 1800 300/04 RMK AO2 T03170244
13976KLFT LFT20190705095011107/05/19 09:50:31  5-MIN KLFT 051550Z 23003KT 10SM CLR 31/24 A3011 -130 67 1700 230/03 RMK AO2 SLP197 T03110244
13976KLFT LFT20190705095510407/05/19 09:55:31  5-MIN KLFT 051555Z 29003KT 10SM CLR 32/24 A3011 -130 65 1800 290/03 RMK AO2 T03170244
13976KLFT LFT20190705100010407/05/19 10:00:31  5-MIN KLFT 051600Z 00000KT 10SM CLR 32/24 A3012 -130 61 1800 000/00 RMK AO2 T03220239
13976KLFT LFT20190705100509407/05/19 10:05:31  5-MIN KLFT 051605Z 10SM CLR 32/24 A3012 -130 61 1800 M /M RMK AO2 T03220239
13976KLFT LFT20190705101010407/05/19 10:10:31  5-MIN KLFT 051610Z 29004KT 10SM CLR 32/23 A3012 -130 61 1800 290/04 RMK AO2 T03170233
13976KLFT LFT20190705101510407/05/19 10:15:31  5-MIN KLFT 051615Z 33005KT 10SM CLR 32/23 A3012 -130 59 1800 330/05 RMK AO2 T03220233
13976KLFT LFT20190705102010407/05/19 10:20:31  5-MIN KLFT 051620Z 00000KT 10SM CLR 32/23 A3012 -130 59 1800 000/00 RMK AO2 T03220233
13976KLFT LFT20190705102510407/05/19 10:25:31  5-MIN KLFT 051625Z 27005KT 10SM CLR 32/24 A3012 -130 61 1800 270/05 RMK AO2 T03220239
13976KLFT LFT20190705103010407/05/19 10:30:31  5-MIN KLFT 051630Z 00000KT 10SM CLR 32/23 A3012 -130 61 1800 000/00 RMK AO2 T03170233
13976KLFT LFT20190705103510407/05/19 10:35:31  5-MIN KLFT 051635Z VRB03KT 10SM CLR 32/24 A3012 -130 63 1800 VRB/03 RMK AO2 T03220244
13976KLFT LFT20190705104010407/05/19 10:40:31  5-MIN KLFT 051640Z 00000KT 10SM CLR 32/24 A3012 -130 63 1800 000/00 RMK AO2 T03220244
13976KLFT LFT20190705104510407/05/19 10:45:31  5-MIN KLFT 051645Z 00000KT 10SM CLR 32/24 A3012 -130 63 1800 000/00 RMK AO2 T03220244
13976KLFT LFT20190705105011107/05/19 10:50:31  5-MIN KLFT 051650Z 00000KT 10SM CLR 33/24 A3012 -130 61 1900 000/00 RMK AO2 SLP198 T03280244
13976KLFT LFT20190705105510707/05/19 10:55:31  5-MIN KLFT 051655Z 00000KT 10SM FEW033 33/24 A3012 -140 61 1900 000/00 RMK AO2 T03280244
13976KLFT LFT20190705110010707/05/19 11:00:31  5-MIN KLFT 051700Z VRB04KT 10SM FEW033 32/25 A3012 -140 65 1800 VRB/04 RMK AO2 T03220250
13976KLFT LFT20190705110510707/05/19 11:05:31  5-MIN KLFT 051705Z VRB03KT 10SM FEW033 32/24 A3012 -140 63 1800 VRB/03 RMK AO2 T03220244
13976KLFT LFT20190705111010707/05/19 11:10:31  5-MIN KLFT 051710Z 22003KT 10SM FEW033 32/24 A3012 -140 65 1800 220/03 RMK AO2 T03170244
13976KLFT LFT20190705111510707/05/19 11:15:31  5-MIN KLFT 051715Z 00000KT 10SM FEW033 32/24 A3012 -140 63 1800 000/00 RMK AO2 T03220244
13976KLFT LFT20190705112010707/05/19 11:20:31  5-MIN KLFT 051720Z 00000KT 10SM FEW033 32/24 A3012 -140 63 1800 000/00 RMK AO2 T03220244
13976KLFT LFT20190705112510707/05/19 11:25:31  5-MIN KLFT 051725Z 05004KT 10SM FEW033 33/25 A3012 -140 61 2000 050/04 RMK AO2 T03330250
13976KLFT LFT20190705113010707/05/19 11:30:31  5-MIN KLFT 051730Z VRB04KT 10SM FEW034 33/25 A3012 -140 61 2000 VRB/04 RMK AO2 T03330250
13976KLFT LFT20190705113510707/05/19 11:35:31  5-MIN KLFT 051735Z VRB04KT 10SM FEW034 33/25 A3012 -140 61 2000 VRB/04 RMK AO2 T03330250
13976KLFT LFT20190705114010707/05/19 11:40:31  5-MIN KLFT 051740Z 08004KT 10SM FEW034 33/25 A3012 -130 63 1900 080/04 RMK AO2 T03280250
13976KLFT LFT20190705114510707/05/19 11:45:31  5-MIN KLFT 051745Z VRB03KT 10SM FEW034 33/25 A3012 -130 61 2000 VRB/03 RMK AO2 T03330250
13976KLFT LFT20190705115013207/05/19 11:50:31  5-MIN KLFT 051750Z 00000KT 10SM FEW034 33/24 A3012 -130 59 2000 000/00 RMK AO2 SLP198 T03330244 10339 20250 50012
13976KLFT LFT20190705115510707/05/19 11:55:31  5-MIN KLFT 051755Z 00000KT 10SM FEW033 33/24 A3012 -130 61 1900 000/00 RMK AO2 T03280244
13976KLFT LFT20190705120010707/05/19 12:00:31  5-MIN KLFT 051800Z 15003KT 10SM FEW033 33/25 A3012 -130 61 2000 140/03 RMK AO2 T03330250
13976KLFT LFT20190705120510707/05/19 12:05:31  5-MIN KLFT 051805Z 07003KT 10SM FEW033 33/25 A3012 -130 61 2000 070/03 RMK AO2 T03330250
13976KLFT LFT20190705121010707/05/19 12:10:31  5-MIN KLFT 051810Z 00000KT 10SM FEW033 33/24 A3012 -130 59 2000 000/00 RMK AO2 T03330244
13976KLFT LFT20190705121510707/05/19 12:15:31  5-MIN KLFT 051815Z 00000KT 10SM FEW033 33/25 A3011 -130 61 2000 000/00 RMK AO2 T03330250
13976KLFT LFT20190705122010707/05/19 12:20:31  5-MIN KLFT 051820Z 00000KT 10SM FEW033 33/25 A3011 -130 61 2000 000/00 RMK AO2 T03330250
13976KLFT LFT20190705122510707/05/19 12:25:31  5-MIN KLFT 051825Z 00000KT 10SM FEW033 33/24 A3011 -130 59 2000 000/00 RMK AO2 T03330244
13976KLFT LFT20190705123010707/05/19 12:30:31  5-MIN KLFT 051830Z 00000KT 10SM FEW033 33/24 A3011 -120 59 1900 000/00 RMK AO2 T03280239
13976KLFT LFT20190705123510707/05/19 12:35:31  5-MIN KLFT 051835Z VRB03KT 10SM FEW033 34/25 A3011 -120 59 2000 VRB/03 RMK AO2 T03390250
13976KLFT LFT20190705124010707/05/19 12:40:31  5-MIN KLFT 051840Z 00000KT 10SM FEW033 34/24 A3011 -120 57 2000 000/00 RMK AO2 T03390244
13976KLFT LFT20190705124510707/05/19 12:45:31  5-MIN KLFT 051845Z 00000KT 10SM FEW033 34/25 A3010 -120 59 2000 000/00 RMK AO2 T03390250
13976KLFT LFT20190705125011407/05/19 12:50:31  5-MIN KLFT 051850Z 00000KT 10SM FEW050 33/25 A3010 -120 61 2000 000/00 RMK AO2 SLP193 T03330250
13976KLFT LFT20190705125510707/05/19 12:55:31  5-MIN KLFT 051855Z 00000KT 10SM FEW041 34/24 A3010 -120 55 2000 000/00 RMK AO2 T03390239
13976KLFT LFT20190705130010707/05/19 13:00:31  5-MIN KLFT 051900Z 30003KT 10SM FEW041 33/24 A3010 -110 57 2000 300/03 RMK AO2 T03330239
13976KLFT LFT20190705130510707/05/19 13:05:31  5-MIN KLFT 051905Z 00000KT 10SM FEW041 34/24 A3010 -110 55 2000 000/00 RMK AO2 T03390239
13976KLFT LFT20190705131010707/05/19 13:10:31  5-MIN KLFT 051910Z 00000KT 10SM FEW041 34/24 A3010 -120 55 2100 000/00 RMK AO2 T03440244
13976KLFT LFT20190705131511207/05/19 13:15:31  5-MIN KLFT 051915Z AUTO 19003KT 10SM FEW041 33/24 A3010 -110 57 2000 190/03 RMK AO2 T03330239
13976KLFT LFT20190705132011907/05/19 13:20:31  5-MIN KLFT 051920Z AUTO VRB03KT 10SM FEW041 FEW050 33/24 A3010 -110 59 2000 VRB/03 RMK AO2 T03330244
13976KLFT LFT20190705132511207/05/19 13:25:31  5-MIN KLFT 051925Z AUTO 00000KT 10SM FEW050 34/24 A3010 -110 57 2000 000/00 RMK AO2 T03390244
13976KLFT LFT20190705133010907/05/19 13:30:31  5-MIN KLFT 051930Z AUTO 00000KT 10SM CLR 34/24 A3009 -110 57 2000 000/00 RMK AO2 T03390244
13976KLFT LFT20190705133511207/05/19 13:35:31  5-MIN KLFT 051935Z AUTO 18003KT 10SM FEW050 33/24 A3009 -110 59 2000 180/03 RMK AO2 T03330244
13976KLFT LFT20190705134010707/05/19 13:40:31  5-MIN KLFT 051940Z VRB04KT 10SM SCT049 33/24 A3009 -110 59 2000 VRB/04 RMK AO2 T03330244
13976KLFT LFT20190705134510707/05/19 13:45:31  5-MIN KLFT 051945Z 00000KT 10SM SCT047 34/24 A3009 -110 57 2000 000/00 RMK AO2 T03390244
13976KLFT LFT20190705135011407/05/19 13:50:31  5-MIN KLFT 051950Z 22003KT 10SM SCT047 34/23 A3009 -110 53 2100 210/03 RMK AO2 SLP190 T03390233
13976KLFT LFT20190705135510707/05/19 13:55:31  5-MIN KLFT 051955Z 00000KT 10SM FEW047 34/23 A3009 -110 52 2100 000/00 RMK AO2 T03440233
13976KLFT LFT20190705140010707/05/19 14:00:31  5-MIN KLFT 052000Z 17005KT 10SM FEW047 34/23 A3009 -110 52 2100 170/05 RMK AO2 T03440233
13976KLFT LFT20190705140510707/05/19 14:05:31  5-MIN KLFT 052005Z 15004KT 10SM FEW047 34/24 A3009 -100 55 2100 150/04 RMK AO2 T03390239
13976KLFT LFT20190705141010707/05/19 14:10:31  5-MIN KLFT 052010Z 00000KT 10SM FEW047 34/24 A3009 -110 55 2100 000/00 RMK AO2 T03390239
13976KLFT LFT20190705141510407/05/19 14:15:31  5-MIN KLFT 052015Z 00000KT 10SM CLR 34/24 A3009 -100 55 2100 000/00 RMK AO2 T03390239
13976KLFT LFT20190705142010707/05/19 14:20:31  5-MIN KLFT 052020Z 00000KT 10SM FEW050 34/24 A3008 -100 53 2100 000/00 RMK AO2 T03440239
13976KLFT LFT20190705142510707/05/19 14:25:31  5-MIN KLFT 052025Z 00000KT 10SM FEW050 35/24 A3008 -100 53 2200 000/00 RMK AO2 T03500244
13976KLFT LFT20190705143011407/05/19 14:30:31  5-MIN KLFT 052030Z 00000KT 10SM FEW049 FEW060 34/24 A3008 -100 53 2100 000/00 RMK AO2 T03440239
13976KLFT LFT20190705143511407/05/19 14:35:31  5-MIN KLFT 052035Z VRB03KT 10SM FEW049 SCT065 34/24 A3008 -100 57 2100 VRB/03 RMK AO2 T03390244
13976KLFT LFT20190705144011407/05/19 14:40:31  5-MIN KLFT 052040Z 07003KT 10SM FEW049 FEW065 34/24 A3008 -100 55 2100 070/03 RMK AO2 T03390239
13976KLFT LFT20190705144511407/05/19 14:45:31  5-MIN KLFT 052045Z 00000KT 10SM FEW050 FEW065 34/23 A3008 -100 53 2100 000/00 RMK AO2 T03390233
13976KLFT LFT20190705145011907/05/19 14:50:31  5-MIN KLFT 052050Z 00000KT 10SM FEW065 34/23 A3008 -90 52 2100 000/00 RMK AO2 SLP184 T03440233 50006
13976KLFT LFT20190705145510607/05/19 14:55:31  5-MIN KLFT 052055Z VRB03KT 10SM FEW065 35/24 A3007 -90 53 2200 VRB/03 RMK AO2 T03500244
13976KLFT LFT20190705150010607/05/19 15:00:31  5-MIN KLFT 052100Z VRB03KT 10SM FEW050 35/25 A3007 -90 55 2200 VRB/03 RMK AO2 T03500250
13976KLFT LFT20190705150510607/05/19 15:05:31  5-MIN KLFT 052105Z 05004KT 10SM FEW050 34/25 A3007 -90 57 2100 050/04 RMK AO2 T03440250
13976KLFT LFT20190705151010607/05/19 15:10:31  5-MIN KLFT 052110Z 06005KT 10SM FEW050 34/24 A3007 -90 55 2100 060/05 RMK AO2 T03440244
13976KLFT LFT20190705151511307/05/19 15:15:31  5-MIN KLFT 052115Z 06004KT 10SM SCT050 SCT060 35/24 A3007 -90 53 2200 060/04 RMK AO2 T03500244
13976KLFT LFT20190705152010607/05/19 15:20:31  5-MIN KLFT 052120Z 08004KT 10SM BKN055 35/24 A3007 -90 53 2200 080/04 RMK AO2 T03500244
13976KLFT LFT20190705152510607/05/19 15:25:31  5-MIN KLFT 052125Z 00000KT 10SM BKN055 34/23 A3007 -90 53 2100 000/00 RMK AO2 T03390233
13976KLFT LFT20190705153011307/05/19 15:30:31  5-MIN KLFT 052130Z 10003KT 10SM BKN055 BKN070 34/24 A3007 -90 55 2100 100/03 RMK AO2 T03390239
13976KLFT LFT20190705153511307/05/19 15:35:31  5-MIN KLFT 052135Z 07004KT 10SM BKN055 BKN070 34/24 A3007 -90 55 2100 070/04 RMK AO2 T03390239
13976KLFT LFT20190705154010607/05/19 15:40:31  5-MIN KLFT 052140Z 00000KT 10SM SCT055 34/24 A3006 -80 55 2100 000/00 RMK AO2 T03390239
13976KLFT LFT20190705154511307/05/19 15:45:31  5-MIN KLFT 052145Z 07003KT 10SM SCT050 SCT065 34/24 A3006 -80 55 2100 070/03 RMK AO2 T03440244
13976KLFT LFT20190705155012007/05/19 15:50:31  5-MIN KLFT 052150Z VRB03KT 10SM FEW055 SCT070 34/24 A3006 -80 55 2100 VRB/03 RMK AO2 SLP179 T03440244
13976KLFT LFT20190705155511307/05/19 15:55:31  5-MIN KLFT 052155Z 00000KT 10SM SCT060 SCT070 34/24 A3006 -80 55 2100 000/00 RMK AO2 T03390239
13976KLFT LFT20190705160011307/05/19 16:00:31  5-MIN KLFT 052200Z VRB03KT 10SM FEW050 BKN060 34/24 A3006 -80 57 2100 VRB/03 RMK AO2 T03390244
13976KLFT LFT20190705160511307/05/19 16:05:31  5-MIN KLFT 052205Z VRB03KT 10SM SCT050 BKN060 34/24 A3006 -80 57 2100 VRB/03 RMK AO2 T03390244
13976KLFT LFT20190705161011307/05/19 16:10:31  5-MIN KLFT 052210Z VRB03KT 10SM BKN050 BKN060 33/24 A3006 -80 59 2000 VRB/03 RMK AO2 T03330244
13976KLFT LFT20190705161511307/05/19 16:15:31  5-MIN KLFT 052215Z VRB05KT 10SM BKN050 OVC060 33/23 A3005 -70 55 2000 VRB/05 RMK AO2 T03330233
13976KLFT LFT20190705162010607/05/19 16:20:31  5-MIN KLFT 052220Z 14004KT 10SM OVC050 33/22 A3005 -70 51 2000 130/04 RMK AO2 T03330222
13976KLFT LFT20190705162510607/05/19 16:25:31  5-MIN KLFT 052225Z 11004KT 10SM OVC050 33/22 A3005 -70 51 2000 110/04 RMK AO2 T03280217
13976KLFT LFT20190705163010607/05/19 16:30:31  5-MIN KLFT 052230Z VRB03KT 10SM OVC050 33/22 A3005 -70 51 2000 VRB/03 RMK AO2 T03280217
13976KLFT LFT20190705163510607/05/19 16:35:31  5-MIN KLFT 052235Z VRB03KT 10SM OVC050 33/22 A3005 -70 51 2000 VRB/03 RMK AO2 T03280217
13976KLFT LFT20190705164010607/05/19 16:40:31  5-MIN KLFT 052240Z VRB04KT 10SM OVC050 33/22 A3005 -70 50 2000 VRB/04 RMK AO2 T03330217
13976KLFT LFT20190705164510607/05/19 16:45:31  5-MIN KLFT 052245Z VRB03KT 10SM OVC050 33/22 A3005 -70 51 2000 VRB/03 RMK AO2 T03280217
13976KLFT LFT20190705165011307/05/19 16:50:31  5-MIN KLFT 052250Z 13003KT 10SM OVC050 33/22 A3004 -60 50 2000 130/03 RMK AO2 SLP173 T03330217
13976KLFT LFT20190705165511307/05/19 16:55:31  5-MIN KLFT 052255Z VRB04KT 10SM BKN050 BKN095 33/21 A3004 -70 48 2000 VRB/04 RMK AO2 T03330211
13976KLFT LFT20190705170011307/05/19 17:00:31  5-MIN KLFT 052300Z 19005KT 10SM BKN050 BKN100 33/21 A3004 -70 48 2000 190/05 RMK AO2 T03330211
13976KLFT LFT20190705170510607/05/19 17:05:31  5-MIN KLFT 052305Z 18007KT 10SM SCT050 34/21 A3004 -60 46 2100 180/07 RMK AO2 T03390211
13976KLFT LFT20190705171010607/05/19 17:10:31  5-MIN KLFT 052310Z 19007KT 10SM FEW050 34/21 A3004 -60 46 2100 190/07 RMK AO2 T03390211
13976KLFT LFT20190705171510607/05/19 17:15:31  5-MIN KLFT 052315Z 20008KT 10SM FEW055 34/21 A3004 -60 46 2100 200/08 RMK AO2 T03390211
13976KLFT LFT20190705172010307/05/19 17:20:31  5-MIN KLFT 052320Z 18007KT 10SM CLR 34/21 A3004 -60 45 2100 180/07 RMK AO2 T03390206
13976KLFT LFT20190705172510307/05/19 17:25:31  5-MIN KLFT 052325Z 18007KT 10SM CLR 34/20 A3004 -60 43 2100 180/07 RMK AO2 T03390200
13976KLFT LFT20190705173010307/05/19 17:30:31  5-MIN KLFT 052330Z 20007KT 10SM CLR 34/21 A3004 -60 45 2100 200/07 RMK AO2 T03390206
13976KLFT LFT20190705173510307/05/19 17:35:31  5-MIN KLFT 052335Z 20008KT 10SM CLR 33/21 A3004 -60 46 2000 200/08 RMK AO2 T03330206
13976KLFT LFT20190705174010307/05/19 17:40:31  5-MIN KLFT 052340Z 20007KT 10SM CLR 33/21 A3004 -60 46 2000 200/07 RMK AO2 T03330206
13976KLFT LFT20190705174510307/05/19 17:45:31  5-MIN KLFT 052345Z 20008KT 10SM CLR 33/21 A3004 -60 46 2100 200/08 RMK AO2 T03330206
13976KLFT LFT20190705175012807/05/19 17:50:31  5-MIN KLFT 052350Z 20008KT 10SM CLR 33/20 A3004 -60 46 2000 200/08 RMK AO2 SLP171 T03280200 10350 20328 56014
13976KLFT LFT20190705175510307/05/19 17:55:31  5-MIN KLFT 052355Z 20008KT 10SM CLR 33/21 A3004 -60 49 2000 190/08 RMK AO2 T03280211
13976KLFT LFT20190705180010307/05/19 18:00:31  5-MIN KLFT 060000Z 19008KT 10SM CLR 33/22 A3004 -60 51 2000 190/08 RMK AO2 T03280217
13976KLFT LFT20190705180510307/05/19 18:05:31  5-MIN KLFT 060005Z 20006KT 10SM CLR 33/22 A3004 -60 53 2000 200/06 RMK AO2 T03280222
13976KLFT LFT20190705181010307/05/19 18:10:31  5-MIN KLFT 060010Z 21008KT 10SM CLR 32/23 A3004 -60 57 1900 210/08 RMK AO2 T03220228
13976KLFT LFT20190705181510307/05/19 18:15:31  5-MIN KLFT 060015Z 22007KT 10SM CLR 32/23 A3004 -70 57 1900 220/07 RMK AO2 T03220228
13976KLFT LFT20190705182010307/05/19 18:20:31  5-MIN KLFT 060020Z 20007KT 10SM CLR 32/23 A3005 -70 59 1900 200/07 RMK AO2 T03220233
13976KLFT LFT20190705182510307/05/19 18:25:31  5-MIN KLFT 060025Z 19008KT 10SM CLR 32/24 A3005 -70 61 1900 190/08 RMK AO2 T03220239
13976KLFT LFT20190705183010307/05/19 18:30:31  5-MIN KLFT 060030Z 21006KT 10SM CLR 32/24 A3005 -70 65 1900 210/06 RMK AO2 T03170244
13976KLFT LFT20190705183510307/05/19 18:35:31  5-MIN KLFT 060035Z 21008KT 10SM CLR 32/24 A3005 -70 65 1900 210/08 RMK AO2 T03170244
13976KLFT LFT20190705184010307/05/19 18:40:31  5-MIN KLFT 060040Z 22006KT 10SM CLR 32/24 A3005 -70 65 1900 220/06 RMK AO2 T03170244
13976KLFT LFT20190705184510307/05/19 18:45:31  5-MIN KLFT 060045Z 23009KT 10SM CLR 32/24 A3005 -70 65 1900 220/09 RMK AO2 T03170244
13976KLFT LFT20190705185011007/05/19 18:50:31  5-MIN KLFT 060050Z 22006KT 10SM CLR 31/24 A3005 -70 65 1800 220/06 RMK AO2 SLP177 T03110239
13976KLFT LFT20190705185510307/05/19 18:55:31  5-MIN KLFT 060055Z 22007KT 10SM CLR 31/24 A3005 -70 65 1800 210/07 RMK AO2 T03110239
13976KLFT LFT20190705190010307/05/19 19:00:31  5-MIN KLFT 060100Z 22008KT 10SM CLR 31/24 A3005 -70 67 1700 220/08 RMK AO2 T03060239
13976KLFT LFT20190705190510307/05/19 19:05:31  5-MIN KLFT 060105Z 22008KT 10SM CLR 31/23 A3005 -70 63 1800 220/08 RMK AO2 T03110233
13976KLFT LFT20190705191010307/05/19 19:10:31  5-MIN KLFT 060110Z 23008KT 10SM CLR 31/23 A3005 -70 65 1700 220/08 RMK AO2 T03060233
13976KLFT LFT20190705191510307/05/19 19:15:31  5-MIN KLFT 060115Z 23006KT 10SM CLR 31/23 A3005 -70 65 1700 220/06 RMK AO2 T03060233
13976KLFT LFT20190705192010307/05/19 19:20:31  5-MIN KLFT 060120Z 22007KT 10SM CLR 30/23 A3005 -70 67 1700 220/07 RMK AO2 T03000233
13976KLFT LFT20190705192510307/05/19 19:25:31  5-MIN KLFT 060125Z 22006KT 10SM CLR 30/23 A3005 -70 67 1700 220/06 RMK AO2 T03000233
13976KLFT LFT20190705193010307/05/19 19:30:31  5-MIN KLFT 060130Z 22006KT 10SM CLR 30/23 A3005 -70 67 1700 220/06 RMK AO2 T03000233
13976KLFT LFT20190705193510307/05/19 19:35:31  5-MIN KLFT 060135Z 23006KT 10SM CLR 29/23 A3005 -70 69 1600 230/06 RMK AO2 T02940233
13976KLFT LFT20190705194010307/05/19 19:40:31  5-MIN KLFT 060140Z 24004KT 10SM CLR 29/23 A3006 -80 69 1600 240/04 RMK AO2 T02940233
13976KLFT LFT20190705194510307/05/19 19:45:31  5-MIN KLFT 060145Z 24005KT 10SM CLR 29/23 A3006 -80 69 1600 240/05 RMK AO2 T02940233
13976KLFT LFT20190705195011007/05/19 19:50:31  5-MIN KLFT 060150Z 25006KT 10SM CLR 31/23 A3006 -80 65 1700 250/06 RMK AO2 SLP179 T03060233
13976KLFT LFT20190705195510307/05/19 19:55:31  5-MIN KLFT 060155Z 24005KT 10SM CLR 30/23 A3006 -80 67 1700 240/05 RMK AO2 T03000233
13976KLFT LFT20190705200010307/05/19 20:00:31  5-MIN KLFT 060200Z 24005KT 10SM CLR 29/23 A3006 -80 69 1600 230/05 RMK AO2 T02940233
13976KLFT LFT20190705200510307/05/19 20:05:31  5-MIN KLFT 060205Z 23004KT 10SM CLR 29/23 A3006 -80 69 1600 230/04 RMK AO2 T02940233
13976KLFT LFT20190705201010307/05/19 20:10:31  5-MIN KLFT 060210Z 23006KT 10SM CLR 29/23 A3006 -80 69 1600 230/06 RMK AO2 T02940233
13976KLFT LFT20190705201510307/05/19 20:15:31  5-MIN KLFT 060215Z 24005KT 10SM CLR 29/23 A3006 -80 67 1600 240/05 RMK AO2 T02940228
13976KLFT LFT20190705202010307/05/19 20:20:31  5-MIN KLFT 060220Z 25005KT 10SM CLR 29/23 A3006 -80 67 1600 240/05 RMK AO2 T02940228
13976KLFT LFT20190705202510307/05/19 20:25:31  5-MIN KLFT 060225Z 24006KT 10SM CLR 29/23 A3007 -90 67 1600 240/06 RMK AO2 T02940228
13976KLFT LFT20190705203010307/05/19 20:30:31  5-MIN KLFT 060230Z 24005KT 10SM CLR 29/23 A3007 -90 67 1600 240/05 RMK AO2 T02940228
13976KLFT LFT20190705203510307/05/19 20:35:31  5-MIN KLFT 060235Z 23004KT 10SM CLR 29/23 A3007 -90 69 1500 230/04 RMK AO2 T02890228
13976KLFT LFT20190705204010307/05/19 20:40:31  5-MIN KLFT 060240Z 23004KT 10SM CLR 29/23 A3007 -90 69 1500 230/04 RMK AO2 T02890228
13976KLFT LFT20190705204510307/05/19 20:45:31  5-MIN KLFT 060245Z 23004KT 10SM CLR 29/23 A3007 -90 69 1500 230/04 RMK AO2 T02890228
13976KLFT LFT20190705205011607/05/19 20:50:31  5-MIN KLFT 060250Z 24005KT 10SM CLR 29/23 A3007 -90 69 1500 240/05 RMK AO2 SLP183 T02890228 56013
13976KLFT LFT20190705205510307/05/19 20:55:31  5-MIN KLFT 060255Z 23004KT 10SM CLR 28/23 A3007 -90 71 1500 230/04 RMK AO2 T02830228
13976KLFT LFT20190705210010307/05/19 21:00:31  5-MIN KLFT 060300Z 22003KT 10SM CLR 29/23 A3008 -90 69 1500 220/03 RMK AO2 T02890228
13976KLFT LFT20190705210510307/05/19 21:05:31  5-MIN KLFT 060305Z 22003KT 10SM CLR 29/23 A3007 -90 69 1500 220/03 RMK AO2 T02890228
13976KLFT LFT20190705211010307/05/19 21:10:31  5-MIN KLFT 060310Z 22003KT 10SM CLR 29/23 A3008 -90 69 1500 220/03 RMK AO2 T02890228
13976KLFT LFT20190705211510807/05/19 21:15:31  5-MIN KLFT 060315Z AUTO 22003KT 10SM CLR 29/22 A3008 -90 67 1500 220/03 RMK AO2 T02890222
13976KLFT LFT20190705212010907/05/19 21:20:31  5-MIN KLFT 060320Z AUTO 22003KT 10SM CLR 29/22 A3008 -100 67 1500 220/03 RMK AO2 T02890222
13976KLFT LFT20190705212510907/05/19 21:25:31  5-MIN KLFT 060325Z AUTO 21003KT 10SM CLR 29/22 A3008 -100 67 1500 210/03 RMK AO2 T02890222
13976KLFT LFT20190705213010907/05/19 21:30:31  5-MIN KLFT 060330Z AUTO 21003KT 10SM CLR 29/23 A3008 -100 71 1500 210/03 RMK AO2 T02890233
13976KLFT LFT20190705213510907/05/19 21:35:31  5-MIN KLFT 060335Z AUTO 00000KT 10SM CLR 29/23 A3008 -100 69 1500 000/00 RMK AO2 T02890228
13976KLFT LFT20190705214010907/05/19 21:40:31  5-MIN KLFT 060340Z AUTO 25003KT 10SM CLR 28/22 A3008 -100 69 1400 240/03 RMK AO2 T02830222
13976KLFT LFT20190705214510907/05/19 21:45:31  5-MIN KLFT 060345Z AUTO 26003KT 10SM CLR 28/22 A3008 -100 69 1400 260/03 RMK AO2 T02830222
13976KLFT LFT20190705215011607/05/19 21:50:31  5-MIN KLFT 060350Z AUTO 30003KT 10SM CLR 28/23 A3008 -100 71 1400 300/03 RMK AO2 SLP186 T02830228
13976KLFT LFT20190705215510907/05/19 21:55:31  5-MIN KLFT 060355Z AUTO 30003KT 10SM CLR 29/23 A3008 -100 69 1500 290/03 RMK AO2 T02890228
13976KLFT LFT20190705220010907/05/19 22:00:31  5-MIN KLFT 060400Z AUTO 29003KT 10SM CLR 29/23 A3008 -100 69 1500 290/03 RMK AO2 T02890228
13976KLFT LFT20190705220510907/05/19 22:05:31  5-MIN KLFT 060405Z AUTO 28003KT 10SM CLR 29/23 A3009 -100 69 1500 280/03 RMK AO2 T02890228
13976KLFT LFT20190705221010907/05/19 22:10:31  5-MIN KLFT 060410Z AUTO 28003KT 10SM CLR 29/23 A3009 -110 69 1500 280/03 RMK AO2 T02890228
13976KLFT LFT20190705221510907/05/19 22:15:31  5-MIN KLFT 060415Z AUTO 00000KT 10SM CLR 29/23 A3009 -110 69 1500 000/00 RMK AO2 T02890228
13976KLFT LFT20190705222010907/05/19 22:20:31  5-MIN KLFT 060420Z AUTO 24003KT 10SM CLR 28/23 A3009 -110 74 1400 240/03 RMK AO2 T02780228
13976KLFT LFT20190705222510907/05/19 22:25:31  5-MIN KLFT 060425Z AUTO 00000KT 10SM CLR 28/23 A3009 -110 74 1400 000/00 RMK AO2 T02780228
13976KLFT LFT20190705223010907/05/19 22:30:31  5-MIN KLFT 060430Z AUTO 00000KT 10SM CLR 28/23 A3009 -110 74 1400 000/00 RMK AO2 T02780228
13976KLFT LFT20190705223510907/05/19 22:35:31  5-MIN KLFT 060435Z AUTO 23003KT 10SM CLR 28/23 A3009 -110 71 1400 230/03 RMK AO2 T02830228
13976KLFT LFT20190705224010907/05/19 22:40:31  5-MIN KLFT 060440Z AUTO 23003KT 10SM CLR 28/23 A3009 -110 71 1400 230/03 RMK AO2 T02830228
13976KLFT LFT20190705224510907/05/19 22:45:31  5-MIN KLFT 060445Z AUTO 21003KT 10SM CLR 28/23 A3009 -110 71 1400 200/03 RMK AO2 T02830228
13976KLFT LFT20190705225011607/05/19 22:50:31  5-MIN KLFT 060450Z AUTO 21003KT 10SM CLR 28/23 A3009 -100 71 1400 210/03 RMK AO2 SLP188 T02830228
13976KLFT LFT20190705225510907/05/19 22:55:31  5-MIN KLFT 060455Z AUTO 00000KT 10SM CLR 28/23 A3009 -100 74 1400 000/00 RMK AO2 T02780228
13976KLFT LFT20190705230010907/05/19 23:00:31  5-MIN KLFT 060500Z AUTO 23003KT 10SM CLR 28/23 A3009 -100 74 1400 220/03 RMK AO2 T02780228
13976KLFT LFT20190705230510907/05/19 23:05:31  5-MIN KLFT 060505Z AUTO 24003KT 10SM CLR 27/23 A3009 -100 76 1300 240/03 RMK AO2 T02720228
13976KLFT LFT20190705231010907/05/19 23:10:31  5-MIN KLFT 060510Z AUTO 28003KT 10SM CLR 27/23 A3009 -110 76 1300 280/03 RMK AO2 T02720228
13976KLFT LFT20190705231510907/05/19 23:15:31  5-MIN KLFT 060515Z AUTO 27004KT 10SM CLR 28/23 A3009 -110 74 1400 270/04 RMK AO2 T02830233
13976KLFT LFT20190705232010907/05/19 23:20:31  5-MIN KLFT 060520Z AUTO 26003KT 10SM CLR 28/23 A3009 -110 74 1400 260/03 RMK AO2 T02830233
13976KLFT LFT20190705232510907/05/19 23:25:31  5-MIN KLFT 060525Z AUTO 24003KT 10SM CLR 28/23 A3009 -100 76 1400 240/03 RMK AO2 T02780233
13976KLFT LFT20190705233010907/05/19 23:30:31  5-MIN KLFT 060530Z AUTO 22003KT 10SM CLR 27/23 A3009 -100 79 1300 220/03 RMK AO2 T02720233
13976KLFT LFT20190705233510907/05/19 23:35:31  5-MIN KLFT 060535Z AUTO 23003KT 10SM CLR 28/23 A3008 -100 76 1400 230/03 RMK AO2 T02780233
13976KLFT LFT20190705234010907/05/19 23:40:31  5-MIN KLFT 060540Z AUTO 23003KT 10SM CLR 27/23 A3008 -100 79 1300 230/03 RMK AO2 T02720233
13976KLFT LFT20190705234510907/05/19 23:45:31  5-MIN KLFT 060545Z AUTO 26003KT 10SM CLR 27/23 A3008 -100 82 1300 260/03 RMK AO2 T02670233
13976KLFT LFT20190705235014407/05/19 23:50:31  5-MIN KLFT 060550Z AUTO 28003KT 10SM CLR 27/23 A3008 -100 82 1300 280/03 RMK AO2 SLP185 T02670233 10328 20267 403500244 51012
13976KLFT LFT20190705235510807/05/19 23:55:31  5-MIN KLFT 060555Z AUTO 26003KT 10SM CLR 27/24 A3008 -90 82 1300 260/03 RMK AO2 T02720239
13976KLFT LFT20190706000010807/06/19 00:00:31  5-MIN KLFT 060600Z AUTO 22003KT 10SM CLR 27/24 A3007 -90 82 1300 220/03 RMK AO2 T02720239
13976KLFT LFT20190706000510807/06/19 00:05:31  5-MIN KLFT 060605Z AUTO 21003KT 10SM CLR 28/24 A3007 -90 79 1400 210/03 RMK AO2 T02780239
13976KLFT LFT20190706001010807/06/19 00:10:31  5-MIN KLFT 060610Z AUTO 21003KT 10SM CLR 27/24 A3007 -90 82 1300 200/03 RMK AO2 T02720239
13976KLFT LFT20190706001510807/06/19 00:15:31  5-MIN KLFT 060615Z AUTO 21003KT 10SM CLR 27/24 A3007 -90 82 1300 210/03 RMK AO2 T02720239
13976KLFT LFT20190706002010807/06/19 00:20:31  5-MIN KLFT 060620Z AUTO 21004KT 10SM CLR 27/24 A3007 -90 82 1300 210/04 RMK AO2 T02720239
13976KLFT LFT20190706002510807/06/19 00:25:31  5-MIN KLFT 060625Z AUTO 20004KT 10SM CLR 27/24 A3007 -90 84 1300 200/04 RMK AO2 T02670239
13976KLFT LFT20190706003010807/06/19 00:30:31  5-MIN KLFT 060630Z AUTO 21003KT 10SM CLR 26/24 A3007 -90 87 1200 210/03 RMK AO2 T02610239
13976KLFT LFT20190706003510807/06/19 00:35:31  5-MIN KLFT 060635Z AUTO 00000KT 10SM CLR 26/24 A3007 -90 87 1200 000/00 RMK AO2 T02610239
13976KLFT LFT20190706004010807/06/19 00:40:31  5-MIN KLFT 060640Z AUTO 00000KT 10SM CLR 26/24 A3007 -90 87 1200 000/00 RMK AO2 T02610239
13976KLFT LFT20190706004510807/06/19 00:45:31  5-MIN KLFT 060645Z AUTO 00000KT 10SM CLR 27/24 A3007 -90 84 1300 000/00 RMK AO2 T02670239
13976KLFT LFT20190706005011507/06/19 00:50:31  5-MIN KLFT 060650Z AUTO 00000KT 10SM CLR 27/24 A3007 -90 84 1300 000/00 RMK AO2 SLP181 T02720244
13976KLFT LFT20190706005510807/06/19 00:55:31  5-MIN KLFT 060655Z AUTO 00000KT 10SM CLR 27/24 A3007 -80 84 1300 000/00 RMK AO2 T02720244
13976KLFT LFT20190706010010807/06/19 01:00:31  5-MIN KLFT 060700Z AUTO 23003KT 10SM CLR 27/24 A3006 -80 84 1300 220/03 RMK AO2 T02670239
13976KLFT LFT20190706010510807/06/19 01:05:31  5-MIN KLFT 060705Z AUTO 24003KT 10SM CLR 27/24 A3006 -80 87 1300 230/03 RMK AO2 T02670244
13976KLFT LFT20190706011010807/06/19 01:10:31  5-MIN KLFT 060710Z AUTO 00000KT 10SM CLR 27/24 A3006 -80 84 1300 000/00 RMK AO2 T02670239
13976KLFT LFT20190706011510807/06/19 01:15:31  5-MIN KLFT 060715Z AUTO 31003KT 10SM CLR 27/24 A3006 -80 84 1300 300/03 RMK AO2 T02670239
13976KLFT LFT20190706012010807/06/19 01:20:31  5-MIN KLFT 060720Z AUTO 27003KT 10SM CLR 27/24 A3006 -80 87 1300 270/03 RMK AO2 T02670244
13976KLFT LFT20190706012510807/06/19 01:25:31  5-MIN KLFT 060725Z AUTO 24004KT 10SM CLR 26/24 A3006 -80 87 1200 240/04 RMK AO2 T02610239
13976KLFT LFT20190706013010807/06/19 01:30:31  5-MIN KLFT 060730Z AUTO 00000KT 10SM CLR 26/24 A3006 -80 87 1200 000/00 RMK AO2 T02610239
13976KLFT LFT20190706013510807/06/19 01:35:31  5-MIN KLFT 060735Z AUTO 22003KT 10SM CLR 26/24 A3006 -80 87 1200 220/03 RMK AO2 T02610239
13976KLFT LFT20190706014010807/06/19 01:40:31  5-MIN KLFT 060740Z AUTO 24003KT 10SM CLR 26/24 A3006 -80 87 1200 240/03 RMK AO2 T02610239
13976KLFT LFT20190706014510807/06/19 01:45:31  5-MIN KLFT 060745Z AUTO 24003KT 10SM CLR 26/24 A3006 -80 87 1200 240/03 RMK AO2 T02610239
13976KLFT LFT20190706015011507/06/19 01:50:31  5-MIN KLFT 060750Z AUTO 26003KT 10SM CLR 26/24 A3006 -80 90 1200 260/03 RMK AO2 SLP178 T02560239
13976KLFT LFT20190706015510807/06/19 01:55:31  5-MIN KLFT 060755Z AUTO 25005KT 10SM CLR 26/24 A3006 -80 87 1200 250/05 RMK AO2 T02610239
13976KLFT LFT20190706020010807/06/19 02:00:31  5-MIN KLFT 060800Z AUTO 25004KT 10SM CLR 26/24 A3006 -80 90 1200 250/04 RMK AO2 T02560239
13976KLFT LFT20190706020510807/06/19 02:05:31  5-MIN KLFT 060805Z AUTO 24003KT 10SM CLR 26/24 A3006 -80 90 1200 230/03 RMK AO2 T02560239
13976KLFT LFT20190706021010807/06/19 02:10:31  5-MIN KLFT 060810Z AUTO 23003KT 10SM CLR 26/24 A3006 -80 90 1200 230/03 RMK AO2 T02560239
13976KLFT LFT20190706021510807/06/19 02:15:31  5-MIN KLFT 060815Z AUTO 23003KT 10SM CLR 26/24 A3006 -80 87 1200 230/03 RMK AO2 T02610239
13976KLFT LFT20190706022010807/06/19 02:20:31  5-MIN KLFT 060820Z AUTO 24003KT 10SM CLR 26/24 A3006 -80 90 1200 240/03 RMK AO2 T02610244
13976KLFT LFT20190706022510807/06/19 02:25:31  5-MIN KLFT 060825Z AUTO 00000KT 10SM CLR 26/24 A3006 -80 87 1200 000/00 RMK AO2 T02610239
13976KLFT LFT20190706023010807/06/19 02:30:31  5-MIN KLFT 060830Z AUTO 00000KT 10SM CLR 26/24 A3006 -80 90 1200 000/00 RMK AO2 T02610244
13976KLFT LFT20190706023510807/06/19 02:35:31  5-MIN KLFT 060835Z AUTO 23003KT 10SM CLR 26/24 A3006 -80 90 1200 230/03 RMK AO2 T02560239
13976KLFT LFT20190706024010807/06/19 02:40:31  5-MIN KLFT 060840Z AUTO 23003KT 10SM CLR 26/24 A3006 -80 87 1200 230/03 RMK AO2 T02610239
13976KLFT LFT20190706024510807/06/19 02:45:31  5-MIN KLFT 060845Z AUTO 24004KT 10SM CLR 26/24 A3006 -80 87 1200 240/04 RMK AO2 T02610239
13976KLFT LFT20190706025012107/06/19 02:50:31  5-MIN KLFT 060850Z AUTO 26004KT 10SM CLR 26/24 A3006 -80 90 1200 260/04 RMK AO2 SLP179 T02560239 50001
13976KLFT LFT20190706025510807/06/19 02:55:31  5-MIN KLFT 060855Z AUTO 26003KT 10SM CLR 26/24 A3006 -80 90 1200 260/03 RMK AO2 T02560239
13976KLFT LFT20190706030010807/06/19 03:00:31  5-MIN KLFT 060900Z AUTO 26004KT 10SM CLR 26/24 A3006 -80 90 1200 260/04 RMK AO2 T02560239
13976KLFT LFT20190706030510807/06/19 03:05:31  5-MIN KLFT 060905Z AUTO 26004KT 10SM CLR 27/24 A3006 -80 87 1300 260/04 RMK AO2 T02670244
13976KLFT LFT20190706031010807/06/19 03:10:31  5-MIN KLFT 060910Z AUTO 26003KT 10SM CLR 26/24 A3006 -80 90 1200 260/03 RMK AO2 T02610244
13976KLFT LFT20190706031510807/06/19 03:15:31  5-MIN KLFT 060915Z AUTO 00000KT 10SM CLR 26/24 A3007 -90 90 1200 000/00 RMK AO2 T02610244
13976KLFT LFT20190706032010807/06/19 03:20:31  5-MIN KLFT 060920Z AUTO 28004KT 10SM CLR 26/24 A3007 -90 90 1200 280/04 RMK AO2 T02610244
13976KLFT LFT20190706032510807/06/19 03:25:31  5-MIN KLFT 060925Z AUTO 29004KT 10SM CLR 26/24 A3007 -90 90 1200 290/04 RMK AO2 T02610244
13976KLFT LFT20190706033010807/06/19 03:30:31  5-MIN KLFT 060930Z AUTO 29003KT 10SM CLR 26/24 A3007 -90 90 1200 290/03 RMK AO2 T02610244
13976KLFT LFT20190706033510807/06/19 03:35:31  5-MIN KLFT 060935Z AUTO 30003KT 10SM CLR 26/24 A3007 -90 90 1200 300/03 RMK AO2 T02610244
13976KLFT LFT20190706034010807/06/19 03:40:31  5-MIN KLFT 060940Z AUTO 00000KT 10SM CLR 26/24 A3007 -90 90 1200 000/00 RMK AO2 T02610244
13976KLFT LFT20190706034510807/06/19 03:45:31  5-MIN KLFT 060945Z AUTO 00000KT 10SM CLR 26/24 A3007 -90 90 1200 000/00 RMK AO2 T02610244
13976KLFT LFT20190706035011507/06/19 03:50:31  5-MIN KLFT 060950Z AUTO 29003KT 10SM CLR 26/24 A3007 -90 90 1200 290/03 RMK AO2 SLP183 T02610244
13976KLFT LFT20190706035510807/06/19 03:55:31  5-MIN KLFT 060955Z AUTO 00000KT 10SM CLR 26/24 A3007 -90 90 1200 000/00 RMK AO2 T02610244
13976KLFT LFT20190706040010807/06/19 04:00:31  5-MIN KLFT 061000Z AUTO 29004KT 10SM CLR 27/24 A3008 -90 87 1300 290/04 RMK AO2 T02670244
13976KLFT LFT20190706040510907/06/19 04:05:31  5-MIN KLFT 061005Z AUTO 30003KT 10SM CLR 26/24 A3008 -100 90 1200 300/03 RMK AO2 T02610244
13976KLFT LFT20190720021010807/20/19 02:10:31  5-MIN KLFT 200810Z AUTO 00000KT 9SM CLR 25/25 A2999 -20 100 1200 000/00 RMK AO2 T02500250
13976KLFT LFT20190720021510907/20/19 02:15:31  5-MIN KLFT 200815Z AUTO 00000KT 10SM CLR 24/24 A2999 -20 100 1100 000/00 RMK AO2 T02440244
13976KLFT LFT20190720022010807/20/19 02:20:31  5-MIN KLFT 200820Z AUTO 00000KT 9SM CLR 25/25 A2999 -20 100 1200 000/00 RMK AO2 T02500250
13976KLFT LFT20190720022510807/20/19 02:25:31  5-MIN KLFT 200825Z AUTO 00000KT 9SM CLR 25/25 A2999 -20 100 1200 000/00 RMK AO2 T02500250
13976KLFT LFT20190720023010807/20/19 02:30:31  5-MIN KLFT 200830Z AUTO 00000KT 9SM CLR 25/25 A2999 -20 100 1200 000/00 RMK AO2 T02500250
13976KLFT LFT20190720023510707/20/19 02:35:31  5-MIN KLFT 200835Z AUTO 00000KT 9SM CLR 25/24 A2999 -20 97 1200 000/00 RMK AO2 T02500244
13976KLFT LFT20190720024011107/20/19 02:40:31  5-MIN KLFT 200840Z AUTO 00000KT 6SM BR CLR 25/25 A2999 -20 100 1200 000/00 RMK AO2 T02500250
13976KLFT LFT20190720024511007/20/19 02:45:31  5-MIN KLFT 200845Z AUTO 00000KT 6SM BR CLR 25/24 A2999 -20 97 1200 000/00 RMK AO2 T02500244
13976KLFT LFT20190720025012107/20/19 02:50:31  5-MIN KLFT 200850Z AUTO 00000KT 8SM CLR 24/24 A2999 -20 100 1100 000/00 RMK AO2 SLP156 T02440244 58005
13976KLFT LFT20190720025510807/20/19 02:55:31  5-MIN KLFT 200855Z AUTO 00000KT 8SM CLR 24/24 A2999 -20 100 1100 000/00 RMK AO2 T02440244
13976KLFT LFT20190720030010807/20/19 03:00:31  5-MIN KLFT 200900Z AUTO 00000KT 9SM CLR 24/24 A2999 -20 100 1100 000/00 RMK AO2 T02440244
13976KLFT LFT20190720030510907/20/19 03:05:31  5-MIN KLFT 200905Z AUTO 00000KT 10SM CLR 24/24 A2999 -20 100 1100 000/00 RMK AO2 T02440244
13976KLFT LFT20190720031010707/20/19 03:10:31  5-MIN KLFT 200910Z AUTO 00000KT 9SM CLR 25/24 A3000 -20 97 1200 000/00 RMK AO2 T02500244
13976KLFT LFT20190720031510807/20/19 03:15:31  5-MIN KLFT 200915Z AUTO 00000KT 9SM CLR 24/24 A3000 -20 100 1100 000/00 RMK AO2 T02440244
13976KLFT LFT20190720032011107/20/19 03:20:31  5-MIN KLFT 200920Z AUTO 00000KT 9SM FEW019 24/24 A3000 -20 100 1100 000/00 RMK AO2 T02440244
13976KLFT LFT20190720032511107/20/19 03:25:31  5-MIN KLFT 200925Z AUTO 00000KT 7SM FEW019 25/25 A3000 -30 100 1200 000/00 RMK AO2 T02500250
13976KLFT LFT20190720033011107/20/19 03:30:31  5-MIN KLFT 200930Z AUTO 00000KT 7SM FEW019 25/25 A3000 -20 100 1200 000/00 RMK AO2 T02500250
13976KLFT LFT20190720033511107/20/19 03:35:31  5-MIN KLFT 200935Z AUTO 00000KT 7SM FEW019 25/25 A3000 -30 100 1200 000/00 RMK AO2 T02500250
13976KLFT LFT20190720034011407/20/19 03:40:31  5-MIN KLFT 200940Z AUTO 00000KT 6SM BR FEW021 24/24 A3000 -30 100 1100 000/00 RMK AO2 T02440244
13976KLFT LFT20190720034511107/20/19 03:45:31  5-MIN KLFT 200945Z AUTO 00000KT 8SM FEW021 25/25 A3000 -30 100 1200 000/00 RMK AO2 T02500250
13976KLFT LFT20190720035011807/20/19 03:50:31  5-MIN KLFT 200950Z AUTO 00000KT 9SM FEW021 25/25 A3000 -30 100 1200 000/00 RMK AO2 SLP159 T02500250
13976KLFT LFT20190720035510807/20/19 03:55:31  5-MIN KLFT 200955Z AUTO 00000KT 9SM CLR 25/25 A3001 -30 100 1200 000/00 RMK AO2 T02500250
13976KLFT LFT20190720040010807/20/19 04:00:31  5-MIN KLFT 201000Z AUTO 00000KT 9SM CLR 25/25 A3001 -30 100 1200 000/00 RMK AO2 T02500250
13976KLFT LFT20190720040510907/20/19 04:05:31  5-MIN KLFT 201005Z AUTO 00000KT 10SM CLR 25/25 A3001 -30 100 1200 000/00 RMK AO2 T02500250
13976KLFT LFT20190720041010907/20/19 04:10:31  5-MIN KLFT 201010Z AUTO 00000KT 10SM CLR 25/25 A3001 -40 100 1100 000/00 RMK AO2 T02500250
13976KLFT LFT20190720041510807/20/19 04:15:31  5-MIN KLFT 201015Z AUTO 00000KT 9SM CLR 25/25 A3002 -40 100 1100 000/00 RMK AO2 T02500250
13976KLFT LFT20190720042010807/20/19 04:20:31  5-MIN KLFT 201020Z AUTO 00000KT 9SM CLR 24/24 A3002 -40 100 1100 000/00 RMK AO2 T02440244
13976KLFT LFT20190720042510807/20/19 04:25:31  5-MIN KLFT 201025Z AUTO 00000KT 9SM CLR 24/24 A3002 -40 100 1100 000/00 RMK AO2 T02440244
13976KLFT LFT20190720043010307/20/19 04:30:31  5-MIN KLFT 201030Z 00000KT 9SM CLR 24/24 A3002 -40 100 1100 000/00 RMK AO2 T02440244
13976KLFT LFT20190720043510307/20/19 04:35:31  5-MIN KLFT 201035Z 00000KT 9SM CLR 24/24 A3002 -40 100 1100 000/00 RMK AO2 T02440244
13976KLFT LFT20190720044010407/20/19 04:40:31  5-MIN KLFT 201040Z 00000KT 10SM CLR 24/24 A3002 -40 100 1100 000/00 RMK AO2 T02440244
13976KLFT LFT20190720044510407/20/19 04:45:31  5-MIN KLFT 201045Z 00000KT 10SM CLR 24/24 A3002 -40 100 1100 000/00 RMK AO2 T02440244
13976KLFT LFT20190720045011107/20/19 04:50:31  5-MIN KLFT 201050Z 00000KT 10SM CLR 24/24 A3002 -40 100 1100 000/00 RMK AO2 SLP165 T02440244
13976KLFT LFT20190720045510307/20/19 04:55:31  5-MIN KLFT 201055Z 00000KT 9SM CLR 24/24 A3002 -40 100 1100 000/00 RMK AO2 T02440244
13976KLFT LFT20190720050010307/20/19 05:00:31  5-MIN KLFT 201100Z 00000KT 9SM CLR 24/24 A3002 -50 100 1100 000/00 RMK AO2 T02440244
13976KLFT LFT20190720050510307/20/19 05:05:31  5-MIN KLFT 201105Z 00000KT 9SM CLR 24/24 A3002 -50 100 1100 000/00 RMK AO2 T02440244
13976KLFT LFT20190720051010307/20/19 05:10:31  5-MIN KLFT 201110Z 00000KT 8SM CLR 24/24 A3002 -50 100 1000 000/00 RMK AO2 T02390239
13976KLFT LFT20190720051510607/20/19 05:15:31  5-MIN KLFT 201115Z 00000KT 6SM BR CLR 24/24 A3002 -50 100 1000 000/00 RMK AO2 T02390239
13976KLFT LFT20190720052010607/20/19 05:20:31  5-MIN KLFT 201120Z 00000KT 5SM BR CLR 24/24 A3003 -50 100 1000 000/00 RMK AO2 T02390239
13976KLFT LFT20190720052510607/20/19 05:25:31  5-MIN KLFT 201125Z 00000KT 5SM BR CLR 24/24 A3003 -50 100 1100 000/00 RMK AO2 T02440244
13976KLFT LFT20190720053010607/20/19 05:30:31  5-MIN KLFT 201130Z 00000KT 6SM BR CLR 24/24 A3003 -50 100 1100 000/00 RMK AO2 T02440244
13976KLFT LFT20190720053510307/20/19 05:35:31  5-MIN KLFT 201135Z 00000KT 8SM CLR 24/24 A3003 -50 100 1100 000/00 RMK AO2 T02440244
13976KLFT LFT20190720054010307/20/19 05:40:31  5-MIN KLFT 201140Z 00000KT 8SM CLR 24/24 A3003 -50 100 1100 000/00 RMK AO2 T02440244
13976KLFT LFT20190720054510307/20/19 05:45:31  5-MIN KLFT 201145Z 00000KT 7SM CLR 24/24 A3003 -50 100 1100 000/00 RMK AO2 T02440244
13976KLFT LFT20190720055012807/20/19 05:50:31  5-MIN KLFT 201150Z 00000KT 8SM CLR 24/24 A3003 -50 100 1100 000/00 RMK AO2 SLP169 T02440244 10261 20239 56006
13976KLFT LFT20190720055510307/20/19 05:55:31  5-MIN KLFT 201155Z 00000KT 9SM CLR 24/24 A3003 -60 100 1100 000/00 RMK AO2 T02440244
13976KLFT LFT20190720060010307/20/19 06:00:31  5-MIN KLFT 201200Z 00000KT 8SM CLR 24/24 A3003 -60 100 1100 000/00 RMK AO2 T02440244
13976KLFT LFT20190720060510307/20/19 06:05:31  5-MIN KLFT 201205Z 00000KT 9SM CLR 24/24 A3004 -60 100 1100 000/00 RMK AO2 T02440244
13976KLFT LFT20190720061010407/20/19 06:10:31  5-MIN KLFT 201210Z 00000KT 10SM CLR 24/24 A3004 -60 100 1100 000/00 RMK AO2 T02440244
13976KLFT LFT20190720061510407/20/19 06:15:31  5-MIN KLFT 201215Z 00000KT 10SM CLR 24/24 A3004 -60 100 1100 000/00 RMK AO2 T02440244
13976KLFT LFT20190720062010407/20/19 06:20:31  5-MIN KLFT 201220Z 00000KT 10SM CLR 25/25 A3004 -70 100 1100 000/00 RMK AO2 T02500250
13976KLFT LFT20190720062510407/20/19 06:25:31  5-MIN KLFT 201225Z 00000KT 10SM CLR 25/25 A3005 -70 100 1100 000/00 RMK AO2 T02500250
13976KLFT LFT20190720063010307/20/19 06:30:31  5-MIN KLFT 201230Z 00000KT 9SM CLR 25/25 A3005 -70 100 1100 000/00 RMK AO2 T02500250
13976KLFT LFT20190720063510307/20/19 06:35:31  5-MIN KLFT 201235Z 00000KT 9SM CLR 25/25 A3005 -70 100 1100 000/00 RMK AO2 T02500250
13976KLFT LFT20190720064010307/20/19 06:40:31  5-MIN KLFT 201240Z 00000KT 9SM CLR 25/25 A3005 -70 100 1100 000/00 RMK AO2 T02500250
13976KLFT LFT20190720064510407/20/19 06:45:31  5-MIN KLFT 201245Z 00000KT 10SM CLR 26/26 A3005 -70 100 1200 000/00 RMK AO2 T02560256
13976KLFT LFT20190720065011107/20/19 06:50:31  5-MIN KLFT 201250Z 00000KT 10SM CLR 26/26 A3005 -70 100 1200 000/00 RMK AO2 SLP174 T02560256
13976KLFT LFT20190720065510407/20/19 06:55:31  5-MIN KLFT 201255Z 00000KT 10SM CLR 26/26 A3005 -70 100 1200 000/00 RMK AO2 T02560256
13976KLFT LFT20190720070010307/20/19 07:00:31  5-MIN KLFT 201300Z 00000KT 10SM CLR 26/26 A3005 -70 97 1200 000/00 RMK AO2 T02610256
13976KLFT LFT20190720070510407/20/19 07:05:31  5-MIN KLFT 201305Z 00000KT 10SM CLR 26/26 A3005 -70 100 1200 000/00 RMK AO2 T02610261
13976KLFT LFT20190720071010307/20/19 07:10:31  5-MIN KLFT 201310Z 00000KT 10SM CLR 27/26 A3005 -70 97 1300 000/00 RMK AO2 T02670261
13976KLFT LFT20190720071510307/20/19 07:15:31  5-MIN KLFT 201315Z 00000KT 10SM CLR 27/26 A3005 -70 93 1400 000/00 RMK AO2 T02720261
13976KLFT LFT20190720072010307/20/19 07:20:31  5-MIN KLFT 201320Z 00000KT 10SM CLR 27/26 A3005 -70 93 1400 000/00 RMK AO2 T02720261
13976KLFT LFT20190720072510307/20/19 07:25:31  5-MIN KLFT 201325Z 00000KT 10SM CLR 28/26 A3005 -70 90 1400 000/00 RMK AO2 T02780261
13976KLFT LFT20190720073010307/20/19 07:30:31  5-MIN KLFT 201330Z 00000KT 10SM CLR 28/26 A3005 -70 90 1400 000/00 RMK AO2 T02780261
13976KLFT LFT20190720073510307/20/19 07:35:31  5-MIN KLFT 201335Z 00000KT 10SM CLR 28/27 A3006 -80 90 1500 000/00 RMK AO2 T02830267
13976KLFT LFT20190720074010307/20/19 07:40:31  5-MIN KLFT 201340Z 00000KT 10SM CLR 28/26 A3006 -80 87 1500 000/00 RMK AO2 T02830261
13976KLFT LFT20190720074510307/20/19 07:45:31  5-MIN KLFT 201345Z 00000KT 10SM CLR 29/26 A3006 -80 85 1500 000/00 RMK AO2 T02890261
13976KLFT LFT20190720075011007/20/19 07:50:31  5-MIN KLFT 201350Z 00000KT 10SM CLR 29/26 A3006 -80 85 1500 000/00 RMK AO2 SLP178 T02890261
13976KLFT LFT20190720075510307/20/19 07:55:31  5-MIN KLFT 201355Z 00000KT 10SM CLR 29/26 A3006 -80 85 1500 000/00 RMK AO2 T02890261
13976KLFT LFT20190720080010307/20/19 08:00:31  5-MIN KLFT 201400Z 00000KT 10SM CLR 29/26 A3006 -80 85 1500 000/00 RMK AO2 T02890261
13976KLFT LFT20190720080510307/20/19 08:05:31  5-MIN KLFT 201405Z 00000KT 10SM CLR 29/26 A3005 -80 82 1500 000/00 RMK AO2 T02890256
13976KLFT LFT20190720081010307/20/19 08:10:31  5-MIN KLFT 201410Z 18004KT 10SM CLR 29/26 A3005 -70 79 1600 180/04 RMK AO2 T02940256
13976KLFT LFT20190720081511307/20/19 08:15:31  5-MIN KLFT 201415Z 20003KT 10SM FEW022 FEW029 29/26 A3005 -70 79 1600 190/03 RMK AO2 T02940256
13976KLFT LFT20190720082011307/20/19 08:20:31  5-MIN KLFT 201420Z 00000KT 10SM SCT022 SCT029 29/26 A3005 -70 79 1600 000/00 RMK AO2 T02940256
13976KLFT LFT20190720082510607/20/19 08:25:31  5-MIN KLFT 201425Z 23005KT 10SM SCT022 29/25 A3005 -70 76 1600 230/05 RMK AO2 T02940250
13976KLFT LFT20190720083011307/20/19 08:30:31  5-MIN KLFT 201430Z VRB03KT 10SM SCT022 SCT028 30/26 A3005 -70 77 1700 VRB/03 RMK AO2 T03000256
13976KLFT LFT20190720083511307/20/19 08:35:31  5-MIN KLFT 201435Z VRB03KT 10SM SCT024 SCT029 30/26 A3005 -70 77 1700 VRB/03 RMK AO2 T03000256
13976KLFT LFT20190720084012007/20/19 08:40:31  5-MIN KLFT 201440Z VRB04KT 10SM SCT024 BKN029 BKN036 31/26 A3005 -70 74 1700 VRB/04 RMK AO2 T03060256
13976KLFT LFT20190720084511307/20/19 08:45:31  5-MIN KLFT 201445Z 21004KT 10SM SCT024 SCT036 31/25 A3005 -70 72 1700 210/04 RMK AO2 T03060250
13976KLFT LFT20190720085010307/20/19 08:50:31  5-MIN KLFT 201450Z 00000KT 10SM SCT018 BKN024 31/25 A3005 -70 72 1700 000/00 RMK AO2
13976KLFT LFT20190720085511307/20/19 08:55:31  5-MIN KLFT 201455Z 21004KT 10SM SCT024 BKN037 31/25 A3005 -70 72 1700 210/04 RMK AO2 T03060250
13976KLFT LFT20190720090011307/20/19 09:00:31  5-MIN KLFT 201500Z VRB03KT 10SM BKN024 BKN035 30/24 A3005 -70 72 1700 VRB/03 RMK AO2 T03000244
13976KLFT LFT20190720090511307/20/19 09:05:31  5-MIN KLFT 201505Z 00000KT 10SM BKN026 BKN033 30/25 A3005 -70 74 1700 000/00 RMK AO2 T03000250
13976KLFT LFT20190720091011307/20/19 09:10:31  5-MIN KLFT 201510Z 16003KT 10SM SCT026 BKN032 30/25 A3005 -70 74 1700 160/03 RMK AO2 T03000250
13976KLFT LFT20190720091510607/20/19 09:15:31  5-MIN KLFT 201515Z 00000KT 10SM BKN026 31/25 A3005 -70 72 1700 000/00 RMK AO2 T03060250
13976KLFT LFT20190720092010607/20/19 09:20:31  5-MIN KLFT 201520Z 14004KT 10SM BKN026 31/26 A3005 -70 74 1700 140/04 RMK AO2 T03060256
13976KLFT LFT20190720092510607/20/19 09:25:31  5-MIN KLFT 201525Z 00000KT 10SM BKN027 31/25 A3005 -70 72 1700 000/00 RMK AO2 T03060250
13976KLFT LFT20190720093010607/20/19 09:30:31  5-MIN KLFT 201530Z 00000KT 10SM BKN027 31/25 A3005 -70 72 1700 000/00 RMK AO2 T03060250
13976KLFT LFT20190720093510607/20/19 09:35:31  5-MIN KLFT 201535Z VRB03KT 10SM BKN027 31/25 A3004 -60 72 1700 VRB/03 RMK AO2 T03060250
13976KLFT LFT20190720094010607/20/19 09:40:31  5-MIN KLFT 201540Z VRB03KT 10SM BKN027 31/25 A3004 -70 69 1800 VRB/03 RMK AO2 T03110250
13976KLFT LFT20190720094510607/20/19 09:45:31  5-MIN KLFT 201545Z 19005KT 10SM BKN027 31/24 A3004 -70 67 1800 190/05 RMK AO2 T03110244
13976KLFT LFT20190720095013207/20/19 09:50:31  5-MIN KLFT 201550Z 21005KT 10SM BKN020 BKN032 31/24 A3004 -60 69 1700 210/05 RMK AO2 LTG DSNT SE SLP173 T03060244
13976KLFT LFT20190720095512507/20/19 09:55:31  5-MIN KLFT 201555Z 00000KT 10SM FEW029 FEW047 31/24 A3005 -70 69 1700 000/00 RMK AO2 LTG DSNT SE T03060244
13976KLFT LFT20190720100012507/20/19 10:00:31  5-MIN KLFT 201600Z 00000KT 10SM FEW029 SCT047 31/24 A3004 -70 67 1800 000/00 RMK AO2 LTG DSNT SE T03110244
13976KLFT LFT20190720100511307/20/19 10:05:31  5-MIN KLFT 201605Z 18006KT 10SM SCT031 SCT047 31/25 A3004 -60 69 1800 180/06 RMK AO2 T03110250
13976KLFT LFT20190720101010607/20/19 10:10:31  5-MIN KLFT 201610Z 17007KT 10SM SCT031 31/26 A3004 -60 74 1700 170/07 RMK AO2 T03060256
13976KLFT LFT20190720101510607/20/19 10:15:31  5-MIN KLFT 201615Z 17007KT 10SM SCT032 31/26 A3004 -60 74 1700 170/07 RMK AO2 T03060256
13976KLFT LFT20190720102010607/20/19 10:20:31  5-MIN KLFT 201620Z VRB04KT 10SM SCT032 31/26 A3004 -60 74 1700 VRB/04 RMK AO2 T03060256
13976KLFT LFT20190720102511307/20/19 10:25:31  5-MIN KLFT 201625Z VRB04KT 10SM SCT032 SCT055 31/26 A3004 -60 77 1700 VRB/04 RMK AO2 T03060261
13976KLFT LFT20190720103011307/20/19 10:30:31  5-MIN KLFT 201630Z 16004KT 10SM FEW032 SCT055 31/26 A3004 -60 77 1700 160/04 RMK AO2 T03060261
13976KLFT LFT20190720103512007/20/19 10:35:31  5-MIN KLFT 201635Z 17005KT 10SM FEW033 SCT060 SCT070 31/26 A3004 -60 74 1700 170/05 RMK AO2 T03060256
13976KLFT LFT20190720104012007/20/19 10:40:31  5-MIN KLFT 201640Z 16005KT 10SM FEW033 SCT070 SCT085 31/25 A3004 -60 72 1700 160/05 RMK AO2 T03060250
13976KLFT LFT20190720104511307/20/19 10:45:31  5-MIN KLFT 201645Z VRB04KT 10SM FEW055 FEW085 31/25 A3003 -60 69 1800 VRB/04 RMK AO2 T03110250
13976KLFT LFT20190720105012007/20/19 10:50:31  5-MIN KLFT 201650Z 15004KT 10SM FEW055 FEW085 31/25 A3003 -50 72 1800 150/04 RMK AO2 SLP168 T03060250
13976KLFT LFT20190720105511707/20/19 10:55:31  5-MIN KLFT 201655Z 19006KT 10SM FEW085 31/24 A3003 -50 67 1800 190/06 RMK AO2 LTG DSNT S T03110244
13976KLFT LFT20190720110013307/20/19 11:00:31  5-MIN KLFT 201700Z 20007KT 160V230 10SM FEW085 32/24 A3003 -50 65 1900 200/07 160V230 RMK AO2 LTG DSNT S T03170244
13976KLFT LFT20190720110511707/20/19 11:05:31  5-MIN KLFT 201705Z 19005KT 10SM FEW085 32/24 A3003 -50 65 1900 190/05 RMK AO2 LTG DSNT S T03170244
13976KLFT LFT20190720111011407/20/19 11:10:31  5-MIN KLFT 201710Z VRB04KT 10SM CLR 32/24 A3003 -50 65 1900 VRB/04 RMK AO2 LTG DSNT E T03170244
13976KLFT LFT20190720111512107/20/19 11:15:31  5-MIN KLFT 201715Z 16004KT 10SM CLR 32/24 A3003 -50 65 1900 160/04 RMK AO2 LTG DSNT E AND SW T03170244
13976KLFT LFT20190720112012107/20/19 11:20:31  5-MIN KLFT 201720Z VRB04KT 10SM CLR 32/24 A3003 -50 65 1900 VRB/04 RMK AO2 LTG DSNT E AND SW T03170244
13976KLFT LFT20190720112511507/20/19 11:25:31  5-MIN KLFT 201725Z 22006KT 10SM CLR 32/24 A3003 -50 61 1900 220/06 RMK AO2 LTG DSNT SW T03220239
13976KLFT LFT20190720113011407/20/19 11:30:31  5-MIN KLFT 201730Z VRB03KT 10SM CLR 32/25 A3003 -50 65 1900 VRB/03 RMK AO2 LTG DSNT E T03220250
13976KLFT LFT20190720113511707/20/19 11:35:31  5-MIN KLFT 201735Z VRB03KT 10SM FEW038 32/24 A3003 -50 63 1900 VRB/03 RMK AO2 LTG DSNT E T03220244
13976KLFT LFT20190720114011707/20/19 11:40:31  5-MIN KLFT 201740Z 15005KT 10SM FEW038 32/24 A3002 -50 63 1900 150/05 RMK AO2 LTG DSNT E T03220244
13976KLFT LFT20190720114513307/20/19 11:45:31  5-MIN KLFT 201745Z 19007KT 130V210 10SM FEW038 32/24 A3002 -40 61 2000 190/07 130V210 RMK AO2 LTG DSNT E T03220239
13976KLFT LFT20190720115014207/20/19 11:50:31  5-MIN KLFT 201750Z VRB03KT 10SM FEW038 33/24 A3002 -40 59 2000 VRB/03 RMK AO2 LTG DSNT E SLP164 T03280239 10328 20244 50004
13976KLFT LFT20190720115511707/20/19 11:55:31  5-MIN KLFT 201755Z VRB05KT 10SM FEW038 33/25 A3002 -40 63 2000 VRB/05 RMK AO2 LTG DSNT E T03280250
13976KLFT LFT20190720120011707/20/19 12:00:31  5-MIN KLFT 201800Z VRB03KT 10SM SCT038 32/24 A3002 -40 65 1900 VRB/03 RMK AO2 LTG DSNT E T03170244
13976KLFT LFT20190720120511707/20/19 12:05:31  5-MIN KLFT 201805Z 11003KT 10SM SCT038 31/24 A3002 -40 67 1800 110/03 RMK AO2 LTG DSNT E T03110244
13976KLFT LFT20190720121011707/20/19 12:10:31  5-MIN KLFT 201810Z 12003KT 10SM BKN038 31/24 A3002 -40 65 1800 110/03 RMK AO2 LTG DSNT E T03110239
13976KLFT LFT20190720121511307/20/19 12:15:31  5-MIN KLFT 201815Z 00000KT 10SM BKN038 BKN070 32/24 A3002 -40 65 1900 000/00 RMK AO2 T03170244
13976KLFT LFT20190720122011307/20/19 12:20:31  5-MIN KLFT 201820Z 00000KT 10SM SCT038 BKN070 32/24 A3002 -40 65 1900 000/00 RMK AO2 T03170244
13976KLFT LFT20190720122511307/20/19 12:25:31  5-MIN KLFT 201825Z 06004KT 10SM SCT038 BKN070 32/25 A3002 -40 65 2000 050/04 RMK AO2 T03220250
13976KLFT LFT20190720123012007/20/19 12:30:31  5-MIN KLFT 201830Z VRB03KT 10SM SCT038 BKN055 BKN070 32/25 A3001 -40 65 2000 VRB/03 RMK AO2 T03220250
13976KLFT LFT20190720123512007/20/19 12:35:31  5-MIN KLFT 201835Z VRB03KT 10SM BKN042 BKN055 BKN070 33/26 A3001 -30 65 2000 VRB/03 RMK AO2 T03280256
13976KLFT LFT20190720124012007/20/19 12:40:31  5-MIN KLFT 201840Z 07004KT 10SM BKN040 BKN049 BKN070 32/24 A3001 -30 65 1900 070/04 RMK AO2 T03170244
13976KLFT LFT20190720124511307/20/19 12:45:31  5-MIN KLFT 201845Z 00000KT 10SM BKN038 BKN045 32/25 A3001 -30 67 1900 000/00 RMK AO2 T03170250
13976KLFT LFT20190720125011307/20/19 12:50:31  5-MIN KLFT 201850Z VRB03KT 10SM BKN030 31/25 A3001 -30 69 1800 VRB/03 RMK AO2 SLP161 T03110250
13976KLFT LFT20190720125511307/20/19 12:55:31  5-MIN KLFT 201855Z 06005KT 10SM BKN039 BKN045 31/24 A3001 -30 67 1800 060/05 RMK AO2 T03110244
13976KLFT LFT20190720130011307/20/19 13:00:31  5-MIN KLFT 201900Z 09004KT 10SM SCT039 SCT048 31/25 A3001 -30 69 1800 090/04 RMK AO2 T03110250
13976KLFT LFT20190720130511307/20/19 13:05:31  5-MIN KLFT 201905Z VRB03KT 10SM BKN037 BKN044 31/25 A3000 -30 72 1800 VRB/03 RMK AO2 T03060250
13976KLFT LFT20190720131011307/20/19 13:10:31  5-MIN KLFT 201910Z VRB03KT 10SM BKN039 BKN070 31/24 A3000 -20 69 1800 VRB/03 RMK AO2 T03060244
13976KLFT LFT20190720131512007/20/19 13:15:31  5-MIN KLFT 201915Z VRB04KT 10SM SCT036 BKN045 BKN070 30/25 A3000 -20 74 1700 VRB/04 RMK AO2 T03000250
13976KLFT LFT20190720132012507/20/19 13:20:31  5-MIN KLFT 201920Z VRB03KT 10SM SCT036 BKN045 30/25 A3000 -20 74 1700 VRB/03 RMK AO2 LTG DSNT SE T03000250
13976KLFT LFT20190720132512507/20/19 13:25:31  5-MIN KLFT 201925Z 10004KT 10SM SCT038 BKN045 30/24 A3000 -20 69 1700 100/04 RMK AO2 LTG DSNT SE T03000239
13976KLFT LFT20190720133013207/20/19 13:30:31  5-MIN KLFT 201930Z 10004KT 10SM FEW035 BKN043 BKN050 30/24 A2999 -20 69 1700 100/04 RMK AO2 LTG DSNT SE T03000239
13976KLFT LFT20190720133513207/20/19 13:35:31  5-MIN KLFT 201935Z VRB03KT 10SM SCT043 SCT050 BKN070 31/24 A2999 -20 67 1900 VRB/03 RMK AO2 LTG DSNT SE T03110244
13976KLFT LFT20190720134011807/20/19 13:40:31  5-MIN KLFT 201940Z 00000KT 10SM SCT043 31/24 A2999 -10 67 1900 000/00 RMK AO2 LTG DSNT SE T03110244
13976KLFT LFT20190720134512707/20/19 13:45:31  5-MIN KLFT 201945Z 00000KT 10SM TS FEW043 32/25 A2999 -10 67 1900 000/00 RMK AO2 LTG DSNT SE TSB42 T03170250
13976KLFT LFT20190720135013407/20/19 13:50:31  5-MIN KLFT 201950Z VRB04KT 10SM TS FEW043 32/25 A2999 -10 67 1900 VRB/04 RMK AO2 LTG DSNT SE TSB42 SLP155 T03170250
13976KLFT LFT20190720135511807/20/19 13:55:31  5-MIN KLFT 201955Z 00000KT 10SM TS CLR 31/26 A2999 -20 72 1900 000/00 RMK AO2 LTG DSNT SE T03110256
13976KLFT LFT20190720140012307/20/19 14:00:31  5-MIN KLFT 202000Z 00000KT 10SM CLR 31/25 A2999 -20 69 1900 000/00 RMK AO2 LTG DSNT SE TSE1957 T03110250
13976KLFT LFT20190720140512307/20/19 14:05:31  5-MIN KLFT 202005Z 18003KT 10SM CLR 31/25 A2999 -20 69 1900 180/03 RMK AO2 LTG DSNT SE TSE1957 T03110250
13976KLFT LFT20190728051010307/28/19 05:10:31  5-MIN KLFT 281110Z 00000KT 4SM HZ OVC002 21/ A3015 -160 M 500 000/00 RMK AO2 T0206 $
13976KLFT LFT20190728051511107/28/19 05:15:31  5-MIN KLFT 281115Z 00000KT 5SM BR OVC002 23/23 A3015 -160 100 700 000/00 RMK AO2 T02280228 $
13976KLFT LFT20190728052011107/28/19 05:20:31  5-MIN KLFT 281120Z 00000KT 5SM BR BKN002 23/23 A3015 -160 100 700 000/00 RMK AO2 T02280228 $
13976KLFT LFT20190728052511507/28/19 05:25:31  5-MIN KLFT 281125Z 00000KT 2 1/2SM BR OVC002 23/23 A3015 -160 100 700 000/00 RMK AO2 T02280228 $
13976KLFT LFT20190728053011107/28/19 05:30:31  5-MIN KLFT 281130Z 00000KT 4SM BR OVC002 23/23 A3015 -160 100 700 000/00 RMK AO2 T02280228 $
13976KLFT LFT20190728053511107/28/19 05:35:31  5-MIN KLFT 281135Z 00000KT 4SM BR OVC002 23/23 A3015 -160 100 700 000/00 RMK AO2 T02280228 $
13976KLFT LFT20190728054010907/28/19 05:40:31  5-MIN KLFT 281140Z 00000KT 10SM OVC002 22/22 A3015 -160 100 700 000/00 RMK AO2 T02220222 $
13976KLFT LFT20190728054510907/28/19 05:45:31  5-MIN KLFT 281145Z 00000KT 10SM FEW001 22/22 A3015 -160 100 700 000/00 RMK AO2 T02220222 $
13976KLFT LFT20190728055014007/28/19 05:50:31  5-MIN KLFT 281150Z 00000KT 10SM FEW001 22/22 A3015 -170 100 700 000/00 RMK AO2 SLP210 70084 T02220222 10239 20200 53009 $
13976KLFT LFT20190728055510407/28/19 05:55:31  5-MIN KLFT 281155Z 00000KT 2 1/2SM OVC001 20/ A3015 -170 M 400 000/00 RMK AO2 T0200 $
13976KLFT LFT20190728060010907/28/19 06:00:31  5-MIN KLFT 281200Z 00000KT 10SM FEW001 23/23 A3015 -170 100 700 000/00 RMK AO2 T02280228 $
13976KLFT LFT20190728060510907/28/19 06:05:31  5-MIN KLFT 281205Z 00000KT 10SM FEW001 23/23 A3016 -170 100 700 000/00 RMK AO2 T02280228 $
13976KLFT LFT20190728061010907/28/19 06:10:31  5-MIN KLFT 281210Z 00000KT 10SM FEW001 23/23 A3016 -170 100 700 000/00 RMK AO2 T02280228 $
13976KLFT LFT20190728061510907/28/19 06:15:31  5-MIN KLFT 281215Z 00000KT 10SM FEW001 23/23 A3016 -170 100 700 000/00 RMK AO2 T02280228 $
13976KLFT LFT20190728062010907/28/19 06:20:31  5-MIN KLFT 281220Z 00000KT 10SM FEW001 23/23 A3016 -170 100 700 000/00 RMK AO2 T02280228 $
13976KLFT LFT20190728062510907/28/19 06:25:31  5-MIN KLFT 281225Z 00000KT 10SM FEW001 23/23 A3016 -170 100 700 000/00 RMK AO2 T02280228 $
13976KLFT LFT20190728063010907/28/19 06:30:31  5-MIN KLFT 281230Z 00000KT 10SM FEW001 23/23 A3016 -170 100 700 000/00 RMK AO2 T02280228 $
13976KLFT LFT20190728063510907/28/19 06:35:31  5-MIN KLFT 281235Z 00000KT 10SM FEW001 23/23 A3016 -170 100 700 000/00 RMK AO2 T02280228 $
13976KLFT LFT20190728064010907/28/19 06:40:31  5-MIN KLFT 281240Z 00000KT 10SM FEW001 23/23 A3016 -170 100 700 000/00 RMK AO2 T02280228 $
13976KLFT LFT20190728064510907/28/19 06:45:31  5-MIN KLFT 281245Z 18003KT 10SM FEW001 23/23 A3017 -180 100 700 180/03 RMK AO2 T02280228 $
13976KLFT LFT20190728065012307/28/19 06:50:31  5-MIN KLFT 281250Z 16003KT 10SM SCT020 BKN090 23/23 A3017 -180 100 700 160/03 RMK AO2 SLP214 T02280228 $
13976KLFT LFT20190728065510107/28/19 06:55:31  5-MIN KLFT 281255Z 00000KT 10SM BKN090 22/ A3017 -180 M 600 000/00 RMK AO2 T0217 $
13976KLFT LFT20190728070010107/28/19 07:00:31  5-MIN KLFT 281300Z 00000KT 10SM BKN090 21/ A3017 -180 M 500 000/00 RMK AO2 T0211 $
13976KLFT LFT20190728070510107/28/19 07:05:31  5-MIN KLFT 281305Z 00000KT 10SM BKN090 22/ A3017 -180 M 600 000/00 RMK AO2 T0217 $
13976KLFT LFT20190728071010107/28/19 07:10:31  5-MIN KLFT 281310Z 00000KT 10SM BKN090 22/ A3017 -180 M 600 000/00 RMK AO2 T0217 $
13976KLFT LFT20190728071510107/28/19 07:15:31  5-MIN KLFT 281315Z 00000KT 10SM BKN090 22/ A3017 -180 M 600 000/00 RMK AO2 T0217 $
13976KLFT LFT20190728072010107/28/19 07:20:31  5-MIN KLFT 281320Z 00000KT 10SM BKN090 22/ A3017 -180 M 700 000/00 RMK AO2 T0222 $
13976KLFT LFT20190728072510107/28/19 07:25:31  5-MIN KLFT 281325Z 00000KT 10SM BKN090 22/ A3017 -190 M 600 000/00 RMK AO2 T0222 $
13976KLFT LFT20190728073010107/28/19 07:30:31  5-MIN KLFT 281330Z 00000KT 10SM BKN090 22/ A3018 -190 M 600 000/00 RMK AO2 T0222 $
13976KLFT LFT20190728073510107/28/19 07:35:31  5-MIN KLFT 281335Z 00000KT 10SM BKN090 22/ A3018 -190 M 600 000/00 RMK AO2 T0222 $
13976KLFT LFT20190728074010107/28/19 07:40:31  5-MIN KLFT 281340Z 13003KT 10SM BKN090 22/ A3018 -190 M 600 130/03 RMK AO2 T0222 $
13976KLFT LFT20190728074510107/28/19 07:45:31  5-MIN KLFT 281345Z 00000KT 10SM BKN090 22/ A3018 -190 M 600 000/00 RMK AO2 T0222 $
13976KLFT LFT20190728075010807/28/19 07:50:31  5-MIN KLFT 281350Z 00000KT 10SM BKN090 23/ A3018 -190 M 800 000/00 RMK AO2 SLP218 T0233 $
13976KLFT LFT20190728075510107/28/19 07:55:31  5-MIN KLFT 281355Z 00000KT 10SM BKN090 23/ A3018 -190 M 800 000/00 RMK AO2 T0233 $
13976KLFT LFT20190728080010107/28/19 08:00:31  5-MIN KLFT 281400Z 00000KT 10SM BKN090 23/ A3018 -190 M 800 000/00 RMK AO2 T0233 $
13976KLFT LFT20190728080510907/28/19 08:05:31  5-MIN KLFT 281405Z 00000KT 10SM BKN090 24/24 A3018 -190 100 800 000/00 RMK AO2 T02390239 $
13976KLFT LFT20190728081010907/28/19 08:10:31  5-MIN KLFT 281410Z 00000KT 10SM BKN090 24/24 A3018 -190 100 900 000/00 RMK AO2 T02440244 $
13976KLFT LFT20190728081511007/28/19 08:15:31  5-MIN KLFT 281415Z 00000KT 10SM BKN095 25/25 A3018 -190 100 1000 000/00 RMK AO2 T02500250 $
13976KLFT LFT20190728082011007/28/19 08:20:31  5-MIN KLFT 281420Z 00000KT 10SM BKN095 26/26 A3017 -180 100 1000 000/00 RMK AO2 T02560256 $
13976KLFT LFT20190728082511707/28/19 08:25:31  5-MIN KLFT 281425Z 00000KT 10SM FEW015 BKN095 25/25 A3017 -180 100 1000 000/00 RMK AO2 T02500250 $
13976KLFT LFT20190728083011707/28/19 08:30:31  5-MIN KLFT 281430Z 00000KT 10SM FEW015 BKN095 26/26 A3017 -180 100 1000 000/00 RMK AO2 T02560256 $
13976KLFT LFT20190728083511707/28/19 08:35:31  5-MIN KLFT 281435Z VRB03KT 10SM FEW015 BKN095 26/26 A3017 -180 100 1000 VRB/03 RMK AO2 T02560256 $
13976KLFT LFT20190728084011707/28/19 08:40:31  5-MIN KLFT 281440Z 00000KT 10SM FEW015 BKN095 25/25 A3017 -180 100 1000 000/00 RMK AO2 T02500250 $
13976KLFT LFT20190728084511607/28/19 08:45:31  5-MIN KLFT 281445Z 19003KT 10SM FEW015 BKN095 26/25 A3017 -180 97 1000 190/03 RMK AO2 T02560250 $
13976KLFT LFT20190728085012907/28/19 08:50:31  5-MIN KLFT 281450Z 22005KT 10SM FEW016 BKN095 26/24 A3017 -180 93 1000 220/05 RMK AO2 SLP216 T02560244 51008 $
13976KLFT LFT20190728085511607/28/19 08:55:31  5-MIN KLFT 281455Z 19003KT 10SM FEW018 SCT095 26/24 A3017 -180 90 1100 180/03 RMK AO2 T02610244 $
13976KLFT LFT20190728090011607/28/19 09:00:31  5-MIN KLFT 281500Z 00000KT 10SM FEW022 FEW095 26/24 A3017 -180 90 1100 000/00 RMK AO2 T02610244 $
13976KLFT LFT20190728090510907/28/19 09:05:31  5-MIN KLFT 281505Z 18005KT 10SM FEW095 26/25 A3017 -180 93 1100 180/05 RMK AO2 T02610250 $
13976KLFT LFT20190728091010907/28/19 09:10:31  5-MIN KLFT 281510Z 00000KT 10SM FEW095 26/24 A3017 -180 90 1100 000/00 RMK AO2 T02610244 $
13976KLFT LFT20190728091510907/28/19 09:15:31  5-MIN KLFT 281515Z 21006KT 10SM FEW090 27/25 A3017 -180 90 1200 200/06 RMK AO2 T02670250 $
13976KLFT LFT20190728092010907/28/19 09:20:31  5-MIN KLFT 281520Z 19006KT 10SM FEW090 26/24 A3017 -180 90 1100 190/06 RMK AO2 T02610244 $
13976KLFT LFT20190728092510907/28/19 09:25:31  5-MIN KLFT 281525Z 17005KT 10SM FEW090 26/24 A3017 -180 87 1100 170/05 RMK AO2 T02610239 $
13976KLFT LFT20190728093010907/28/19 09:30:31  5-MIN KLFT 281530Z 17005KT 10SM BKN020 27/24 A3017 -180 82 1200 170/05 RMK AO2 T02720239 $
13976KLFT LFT20190728093510907/28/19 09:35:31  5-MIN KLFT 281535Z 16004KT 10SM BKN020 27/24 A3016 -180 82 1200 160/04 RMK AO2 T02720239 $
13976KLFT LFT20190728094010907/28/19 09:40:31  5-MIN KLFT 281540Z 18005KT 10SM BKN020 27/24 A3016 -170 82 1200 180/05 RMK AO2 T02720239 $
13976KLFT LFT20190728094510907/28/19 09:45:31  5-MIN KLFT 281545Z 00000KT 10SM BKN020 27/24 A3016 -170 84 1200 000/00 RMK AO2 T02720244 $
13976KLFT LFT20190728095011607/28/19 09:50:31  5-MIN KLFT 281550Z VRB03KT 10SM BKN021 28/24 A3016 -170 82 1300 VRB/03 RMK AO2 SLP212 T02780244 $
13976KLFT LFT20190728095510907/28/19 09:55:31  5-MIN KLFT 281555Z VRB03KT 10SM BKN021 28/24 A3016 -170 82 1300 VRB/03 RMK AO2 T02780244 $
13976KLFT LFT20190728100010907/28/19 10:00:31  5-MIN KLFT 281600Z VRB03KT 10SM BKN021 28/24 A3016 -170 79 1400 VRB/03 RMK AO2 T02830244 $
13976KLFT LFT20190728100510907/28/19 10:05:31  5-MIN KLFT 281605Z VRB04KT 10SM BKN021 28/24 A3016 -170 79 1300 VRB/04 RMK AO2 T02780239 $
13976KLFT LFT20190728101010907/28/19 10:10:31  5-MIN KLFT 281610Z 00000KT 10SM BKN021 28/24 A3016 -170 79 1300 000/00 RMK AO2 T02780239 $
13976KLFT LFT20190728101510907/28/19 10:15:31  5-MIN KLFT 281615Z 00000KT 10SM BKN021 29/24 A3016 -170 76 1400 000/00 RMK AO2 T02890244 $
13976KLFT LFT20190728102010907/28/19 10:20:31  5-MIN KLFT 281620Z 21006KT 10SM BKN021 29/24 A3016 -170 74 1400 210/06 RMK AO2 T02890239 $
13976KLFT LFT20190728102510907/28/19 10:25:31  5-MIN KLFT 281625Z VRB03KT 10SM BKN021 29/23 A3016 -170 69 1400 VRB/03 RMK AO2 T02890228 $
13976KLFT LFT20190728103010907/28/19 10:30:31  5-MIN KLFT 281630Z 22004KT 10SM BKN021 29/23 A3016 -170 71 1400 220/04 RMK AO2 T02890233 $
13976KLFT LFT20190728103510907/28/19 10:35:31  5-MIN KLFT 281635Z 24006KT 10SM BKN021 28/23 A3016 -170 74 1400 240/06 RMK AO2 T02830233 $
13976KLFT LFT20190728104011607/28/19 10:40:31  5-MIN KLFT 281640Z 23004KT 10SM BKN033 BKN100 28/23 A3015 -170 74 1400 230/04 RMK AO2 T02830233 $
13976KLFT LFT20190728104511607/28/19 10:45:31  5-MIN KLFT 281645Z 28003KT 10SM BKN030 BKN100 29/24 A3015 -170 74 1400 280/03 RMK AO2 T02890239 $
13976KLFT LFT20190728105012307/28/19 10:50:31  5-MIN KLFT 281650Z 21005KT 10SM BKN030 BKN100 29/24 A3015 -170 74 1400 210/05 RMK AO2 SLP210 T02890239 $
13976KLFT LFT20190728105512307/28/19 10:55:31  5-MIN KLFT 281655Z 25004KT 10SM BKN034 BKN045 BKN110 28/23 A3015 -160 71 1400 250/04 RMK AO2 T02830228 $
13976KLFT LFT20190728110012307/28/19 11:00:31  5-MIN KLFT 281700Z 32004KT 10SM BKN034 BKN045 BKN110 29/23 A3015 -160 69 1400 320/04 RMK AO2 T02890228 $
13976KLFT LFT20190728110512307/28/19 11:05:31  5-MIN KLFT 281705Z 00000KT 10SM BKN034 BKN045 BKN110 28/23 A3015 -160 74 1400 000/00 RMK AO2 T02830233 $
13976KLFT LFT20190728111012307/28/19 11:10:31  5-MIN KLFT 281710Z 21004KT 10SM BKN034 BKN045 BKN110 29/23 A3015 -160 69 1400 200/04 RMK AO2 T02890228 $
13976KLFT LFT20190728111512307/28/19 11:15:31  5-MIN KLFT 281715Z 18003KT 10SM BKN034 BKN045 BKN110 29/22 A3015 -160 67 1400 180/03 RMK AO2 T02890222 $
13976KLFT LFT20190728112012307/28/19 11:20:31  5-MIN KLFT 281720Z VRB04KT 10SM BKN034 BKN045 BKN110 29/23 A3014 -160 69 1400 VRB/04 RMK AO2 T02890228 $
13976KLFT LFT20190728112512307/28/19 11:25:31  5-MIN KLFT 281725Z 25008KT 10SM BKN034 BKN045 BKN110 29/23 A3014 -160 69 1400 250/08 RMK AO2 T02890228 $
13976KLFT LFT20190728113012307/28/19 11:30:31  5-MIN KLFT 281730Z 27007KT 10SM BKN034 BKN045 BKN110 29/22 A3014 -150 64 1500 270/07 RMK AO2 T02940222 $
13976KLFT LFT20190728113513507/28/19 11:35:31  5-MIN KLFT 281735Z 28007KT 10SM BKN034 BKN045 BKN110 30/22 A3014 -150 62 1600 280/07 RMK AO2 LTG DSNT SW T03000222 $
13976KLFT LFT20190728114013507/28/19 11:40:31  5-MIN KLFT 281740Z 26005KT 10SM BKN034 BKN045 BKN110 30/23 A3014 -150 65 1600 260/05 RMK AO2 LTG DSNT SW T03000228 $
13976KLFT LFT20190728114514107/28/19 11:45:31  5-MIN KLFT 281745Z 28013G18KT 10SM BKN034 BKN045 BKN110 29/23 A3014 -150 71 1400 270/13G18 RMK AO2 LTG DSNT SW T02890233 $
13976KLFT LFT20190728115015207/28/19 11:50:31  5-MIN KLFT 281750Z 28012G18KT 10SM BKN039 27/23 A3014 -150 79 1300 280/12G18 RMK AO2 LTG DSNT SW SLP206 T02720233 10300 20200 50006 $
13976KLFT LFT20190728115513407/28/19 11:55:31  5-MIN KLFT 281755Z 29012KT 10SM BKN041 BKN055 28/23 A3014 -150 76 1300 290/12 RMK AO2 LTG DSNT S AND SW T02780233 $
13976KLFT LFT20190728120014107/28/19 12:00:31  5-MIN KLFT 281800Z 27011KT 10SM SCT041 BKN055 BKN110 28/24 A3014 -150 76 1400 270/11 RMK AO2 LTG DSNT S AND SW T02830239 $
13976KLFT LFT20190728120513407/28/19 12:05:31  5-MIN KLFT 281805Z 28010KT 10SM SCT041 SCT055 BKN110 28/24 A3014 -150 76 1400 280/10 RMK AO2 LTG DSNT S T02830239 $
13976KLFT LFT20190728121013407/28/19 12:10:31  5-MIN KLFT 281810Z 27011KT 10SM SCT041 SCT055 BKN110 28/24 A3013 -150 76 1400 260/11 RMK AO2 LTG DSNT S T02830239 $
13976KLFT LFT20190728121513907/28/19 12:15:31  5-MIN KLFT 281815Z 27009KT 10SM VCTS FEW041 FEW055 SCT100 28/23 A3013 -150 74 1400 270/09 RMK AO2 LTG DSNT S T02830233 $
13976KLFT LFT20190728122013207/28/19 12:20:31  5-MIN KLFT 281820Z 22008KT 10SM VCTS FEW055 FEW100 29/24 A3013 -140 74 1500 220/08 RMK AO2 LTG DSNT S T02890239 $
13976KLFT LFT20190728122512507/28/19 12:25:31  5-MIN KLFT 281825Z 22009KT 10SM VCTS FEW110 29/24 A3013 -140 74 1500 220/09 RMK AO2 LTG DSNT S T02890239 $
13976KLFT LFT20190728123011707/28/19 12:30:31  5-MIN KLFT 281830Z VRB06KT 10SM CLR 28/24 A3012 -140 76 1400 VRB/06 RMK AO2 LTG DSNT S T02830239 $
13976KLFT LFT20190728123512007/28/19 12:35:31  5-MIN KLFT 281835Z 18007KT 10SM SCT065 29/24 A3012 -130 74 1500 180/07 RMK AO2 LTG DSNT S T02890239 $
13976KLFT LFT20190728124012107/28/19 12:40:31  5-MIN KLFT 281840Z 18007KT 10SM SCT065 28/24 A3012 -130 82 1300 180/07 RMK AO2 LTG DSNT SE T02780244 $
13976KLFT LFT20190728124512107/28/19 12:45:31  5-MIN KLFT 281845Z 18009KT 10SM SCT048 27/24 A3012 -130 82 1300 180/09 RMK AO2 LTG DSNT SE T02720239 $
13976KLFT LFT20190728125012807/28/19 12:50:31  5-MIN KLFT 281850Z 18008KT 10SM SCT048 27/23 A3012 -140 79 1300 180/08 RMK AO2 LTG DSNT SE SLP199 T02720233 $
13976KLFT LFT20190728125512807/28/19 12:55:31  5-MIN KLFT 281855Z 18009KT 10SM SCT034 SCT043 28/24 A3012 -140 82 1300 180/09 RMK AO2 LTG DSNT SE T02780244 $
13976KLFT LFT20190728130015007/28/19 13:00:31  5-MIN KLFT 281900Z 19007KT 150V230 10SM SCT034 BKN047 27/23 A3012 -140 82 1200 190/07 150V230 RMK AO2 LTG DSNT E AND SE T02670233 $
13976KLFT LFT20190728130514107/28/19 13:05:31  5-MIN KLFT 281905Z 20007KT 10SM SCT034 BKN047 BKN060 27/24 A3012 -130 82 1300 200/07 RMK AO2 LTG DSNT E AND SE T02720239 $
13976KLFT LFT20190728131014107/28/19 13:10:31  5-MIN KLFT 281910Z 21005KT 10SM SCT034 BKN047 BKN060 28/24 A3012 -130 79 1300 210/05 RMK AO2 LTG DSNT E AND SE T02780239 $
13976KLFT LFT20190728131514107/28/19 13:15:31  5-MIN KLFT 281915Z 20006KT 10SM FEW034 SCT047 BKN060 28/24 A3012 -130 79 1400 200/06 RMK AO2 LTG DSNT E AND SE T02830244 $
13976KLFT LFT20190728132014707/28/19 13:20:31  5-MIN KLFT 281920Z 27006G17KT 10SM FEW034 SCT047 BKN070 29/24 A3011 -130 74 1500 270/06G17 RMK AO2 LTG DSNT E AND SE T02890239 $
13976KLFT LFT20190728132514707/28/19 13:25:31  5-MIN KLFT 281925Z 27006G17KT 10SM FEW034 FEW049 SCT060 29/24 A3012 -130 74 1500 270/06G17 RMK AO2 LTG DSNT E AND SE T02890239 $
13976KLFT LFT20190728133013407/28/19 13:30:31  5-MIN KLFT 281930Z VRB05KT 10SM FEW034 SCT060 28/23 A3012 -130 71 1400 VRB/05 RMK AO2 LTG DSNT E AND SE T02830228 $
13976KLFT LFT20190728133514607/28/19 13:35:31  5-MIN KLFT 281935Z AUTO 27008KT 10SM FEW035 SCT042 SCT060 29/23 A3012 -130 71 1500 270/08 RMK AO2 LTG DSNT E AND SE T02890233 $
13976KLFT LFT20190728134013607/28/19 13:40:31  5-MIN KLFT 281940Z AUTO 25010KT 10SM SCT039 SCT065 29/23 A3012 -130 67 1500 250/10 RMK AO2 LTG DSNT NE-SE T02940228 $
13976KLFT LFT20190728134512907/28/19 13:45:31  5-MIN KLFT 281945Z AUTO 26007KT 10SM SCT039 29/23 A3012 -130 69 1500 260/07 RMK AO2 LTG DSNT NE-SE T02890228 $
13976KLFT LFT20190728135013607/28/19 13:50:31  5-MIN KLFT 281950Z AUTO 25007KT 10SM FEW039 29/23 A3011 -130 67 1500 250/07 RMK AO2 LTG DSNT NE-SE SLP197 T02940228 $
13976KLFT LFT20190728135512907/28/19 13:55:31  5-MIN KLFT 281955Z AUTO 24006KT 10SM SCT039 29/23 A3011 -130 71 1500 240/06 RMK AO2 LTG DSNT NE-SE T02890233 $
13976KLFT LFT20190728140013507/28/19 14:00:31  5-MIN KLFT 282000Z AUTO 23009G21KT 10SM SCT039 28/23 A3012 -130 71 1400 230/09G21 RMK AO2 LTG DSNT NE-SE T02830228 $
13976KLFT LFT20190728140513507/28/19 14:05:31  5-MIN KLFT 282005Z AUTO 23009G21KT 10SM BKN039 29/23 A3011 -130 69 1500 220/09G21 RMK AO2 LTG DSNT NE-SE T02890228 $
13976KLFT LFT20190728141014607/28/19 14:10:31  5-MIN KLFT 282010Z AUTO 24008KT 10SM SCT039 BKN065 BKN100 30/23 A3011 -130 67 1600 240/08 RMK AO2 LTG DSNT NE AND E T03000233 $
13976KLFT LFT20190728141515107/28/19 14:15:31  5-MIN KLFT 282015Z AUTO 25008KT 10SM VCTS FEW039 SCT065 BKN100 29/23 A3012 -130 69 1500 250/08 RMK AO2 LTG DSNT NE AND E T02890228 $
13976KLFT LFT20190728142015107/28/19 14:20:31  5-MIN KLFT 282020Z AUTO 21006KT 10SM VCTS FEW039 SCT065 BKN100 29/23 A3011 -130 69 1500 210/06 RMK AO2 LTG DSNT NE AND E T02940233 $
13976KLFT LFT20190728142514807/28/19 14:25:31  5-MIN KLFT 282025Z AUTO 21007KT 10SM VCTS SCT038 SCT065 BKN100 29/23 A3011 -130 71 1500 210/07 RMK AO2 LTG DSNT NE-SE T02890233 $
13976KLFT LFT20190728143014307/28/19 14:30:31  5-MIN KLFT 282030Z AUTO 23004KT 10SM SCT038 BKN065 BKN100 29/23 A3011 -120 71 1500 230/04 RMK AO2 LTG DSNT NE-SE T02890233 $
13976KLFT LFT20190728143513607/28/19 14:35:31  5-MIN KLFT 282035Z AUTO 21005KT 10SM SCT038 BKN100 29/23 A3011 -120 69 1500 210/05 RMK AO2 LTG DSNT NE-SE T02940233 $
13976KLFT LFT20190728144014307/28/19 14:40:31  5-MIN KLFT 282040Z AUTO 21008KT 10SM VCTS FEW037 BKN100 30/23 A3011 -120 67 1600 210/08 RMK AO2 LTG DSNT E AND S T03000233 $
13976KLFT LFT20190728144514307/28/19 14:45:31  5-MIN KLFT 282045Z AUTO 19005KT 10SM VCTS FEW037 SCT100 29/22 A3011 -120 64 1500 190/05 RMK AO2 LTG DSNT E AND S T02940222 $
13976KLFT LFT20190728145015607/28/19 14:50:31  5-MIN KLFT 282050Z AUTO 09004KT 10SM VCTS FEW037 SCT100 29/22 A3011 -130 64 1500 090/04 RMK AO2 LTG DSNT E AND S SLP196 T02940222 58010 $
13976KLFT LFT20190728145513607/28/19 14:55:31  5-MIN KLFT 282055Z 10010G15KT 10SM FEW037 SCT100 27/23 A3010 -120 79 1300 100/10G15 RMK AO2 LTG DSNT NE-S T02720233 $
13976KLFT LFT20190728150015607/28/19 15:00:31  5-MIN KLFT 282100Z 09008G17KT 070V130 10SM SCT039 SCT100 25/22 A3011 -130 84 1000 090/08G17 070V130 RMK AO2 LTG DSNT NE AND E T02500222 $
13976KLFT LFT20190728150514707/28/19 15:05:31  5-MIN KLFT 282105Z VRB06G17KT 10SM SCT042 SCT060 BKN100 24/22 A3011 -130 87 1000 VRB/06G17 RMK AO2 LTG DSNT NE AND E T02440222 $
13976KLFT LFT20190728151014107/28/19 15:10:31  5-MIN KLFT 282110Z 08010G15KT 10SM SCT042 SCT060 BKN100 24/22 A3011 -130 87 1000 080/10G15 RMK AO2 LTG DSNT NE T02440222 $
13976KLFT LFT20190728151514007/28/19 15:15:31  5-MIN KLFT 282115Z VRB05G15KT 10SM SCT042 SCT060 BKN100 24/22 A3011 -120 90 900 VRB/05G15 RMK AO2 LTG DSNT NE T02390222 $
13976KLFT LFT20190728152015107/28/19 15:20:31  5-MIN KLFT 282120Z 12007KT 3SM RA BR SCT042 SCT060 BKN100 24/22 A3011 -120 90 900 120/07 RMK AO2 LTG DSNT NE RAB20 P0009 T02390222 $
13976KLFT LFT20190728152514207/28/19 15:25:31  5-MIN KLFT 282125Z 10005KT 3/4SM +RA BR BKN024 BKN039 BKN055 23/22 A3010 -120 97 800 100/05 RMK AO2 RAB20 P0042 T02280222 $
13976KLFT LFT20190728153014807/28/19 15:30:31  5-MIN KLFT 282130Z 06004KT 3/4SM VCTS +RA BR BKN024 BKN039 BKN055 22/22 A3010 -110 100 700 050/04 RMK AO2 RAB20 P0059 T02220222 $
13976KLFT LFT20190728153514807/28/19 15:35:31  5-MIN KLFT 282135Z VRB04KT 3/4SM VCTS +RA BR BKN014 BKN037 OVC050 22/22 A3011 -120 100 700 VRB/04 RMK AO2 RAB20 P0063 T02220222 $
13976KLFT LFT20190728154014907/28/19 15:40:31  5-MIN KLFT 282140Z 19008KT 2SM +TSRA BR SCT014 BKN035 OVC070 22/22 A3011 -130 100 700 190/08 RMK AO2 RAB20 TSB38 P0064 T02220222 $
13976KLFT LFT20190728154514907/28/19 15:45:31  5-MIN KLFT 282145Z 22009KT 3SM +TSRA BR SCT016 BKN055 OVC070 23/23 A3012 -130 100 800 220/09 RMK AO2 RAB20 TSB38 P0066 T02280228 $
13976KLFT LFT20190728155014507/28/19 15:50:31  5-MIN KLFT 282150Z 22012G18KT 2SM +TSRA BR BKN016 BKN055 BKN070 23/23 A3011 -130 100 800 220/12G18 RMK AO2 RAB20 TSB38 P0067 $
13976KLFT LFT20190728155514707/28/19 15:55:31  5-MIN KLFT 282155Z 26015G19KT 1 1/4SM +TSRA BR SCT021 SCT055 OVC070 22/22 A3011 -130 100 700 250/15G19 RMK AO2 P0005 T02220222 $
13976KLFT LFT20190728160014507/28/19 16:00:31  5-MIN KLFT 282200Z 27012KT 3/4SM +RA BR BKN021 BKN055 OVC070 23/23 A3011 -130 100 800 260/12 RMK AO2 TSE2158 P0018 T02280228 $
13976KLFT LFT20190728160515607/28/19 16:05:31  5-MIN KLFT 282205Z 26012KT 3/4SM +RA BR BKN021 BKN055 OVC070 22/22 A3010 -120 100 700 260/12 RMK AO2 WSHFT 2150 TSE2158 P0022 T02220222 $
13976KLFT LFT20190728161015407/28/19 16:10:31  5-MIN KLFT 282210Z 27007KT 2SM +RA BR BKN021 BKN055 OVC070 22/22 A3010 -110 100 700 270/07 RMK AO2 WSHFT 2150 TSE2158 P0028 T02220222 $
13976KLFT LFT20190728161515407/28/19 16:15:31  5-MIN KLFT 282215Z 25005KT 2SM +RA BR BKN021 BKN055 OVC070 23/23 A3009 -110 100 800 250/05 RMK AO2 WSHFT 2150 TSE2158 P0032 T02280228 $
13976KLFT LFT20190728162015407/28/19 16:20:31  5-MIN KLFT 282220Z 24005KT 2SM +RA BR BKN021 BKN055 OVC070 23/23 A3009 -110 100 800 240/05 RMK AO2 WSHFT 2150 TSE2158 P0033 T02280228 $
13976KLFT LFT20190728162515407/28/19 16:25:31  5-MIN KLFT 282225Z 22004KT 2SM -RA BR BKN021 BKN055 OVC070 23/23 A3008 -100 100 900 220/04 RMK AO2 WSHFT 2150 TSE2158 P0033 T02330233 $
13976KLFT LFT20190728163015307/28/19 16:30:31  5-MIN KLFT 282230Z 21005KT 2SM RA BR BKN021 BKN055 OVC070 24/24 A3008 -100 100 900 210/05 RMK AO2 WSHFT 2150 TSE2158 P0033 T02390239 $
13976KLFT LFT20190728163515207/28/19 16:35:31  5-MIN KLFT 282235Z 16006KT 10SM -RA SCT045 BKN075 OVC090 24/24 A3007 -90 100 1000 160/06 RMK AO2 WSHFT 2150 TSE2158 P0033 T02390239 $
13976KLFT LFT20190728164015307/28/19 16:40:31  5-MIN KLFT 282240Z 18005KT 10SM FEW045 BKN075 BKN090 23/23 A3007 -90 100 900 180/05 RMK AO2 WSHFT 2150 RAE38 TSE2158 P0033 T02330233 $
13976KLFT LFT20190728164516507/28/19 16:45:31  5-MIN KLFT 282245Z 20006KT 10SM FEW045 SCT075 BKN090 24/24 A3007 -90 100 1000 200/06 RMK AO2 WSHFT 2150 LTG DSNT W RAE38 TSE2158 P0033 T02390239 $
13976KLFT LFT20190728165017207/28/19 16:50:31  5-MIN KLFT 282250Z 17003KT 10SM FEW075 SCT090 BKN120 24/24 A3008 -90 100 1000 170/03 RMK AO2 WSHFT 2150 LTG DSNT W RAE38 TSE2158 SLP184 P0033 T02390239 $
13976KLFT LFT20190728165512707/28/19 16:55:31  5-MIN KLFT 282255Z 18003KT 10SM FEW070 SCT090 24/24 A3008 -90 100 1000 170/03 RMK AO2 LTG DSNT W T02390239 $
13976KLFT LFT20190728170012707/28/19 17:00:31  5-MIN KLFT 282300Z 17003KT 10SM FEW070 FEW095 24/24 A3008 -90 100 1000 170/03 RMK AO2 LTG DSNT W T02390239 $
13976KLFT LFT20190728170511707/28/19 17:05:31  5-MIN KLFT 282305Z 00000KT 10SM CLR 24/24 A3008 -90 100 1000 000/00 RMK AO2 LTG DSNT W T02390239 $
