13976KLFT LFT20190101000010801/01/19 00:00:31  5-MIN KLFT 010600Z AUTO 00000KT 10SM OVC060 16/14 A3005 -70 90 0 000/00 RMK AO2 T01560139
13976KLFT LFT20190101000510801/01/19 00:05:31  5-MIN KLFT 010605Z AUTO 00000KT 10SM OVC060 16/14 A3004 -60 90 0 000/00 RMK AO2 T01560139
13976KLFT LFT20190101001010801/01/19 00:10:31  5-MIN KLFT 010610Z AUTO 00000KT 10SM OVC060 16/14 A3004 -60 90 0 000/00 RMK AO2 T01560139
13976KLFT LFT20190101001510801/01/19 00:15:31  5-MIN KLFT 010615Z AUTO 00000KT 10SM OVC060 16/14 A3004 -60 90 0 000/00 RMK AO2 T01560139
13976KLFT LFT20190101002010801/01/19 00:20:31  5-MIN KLFT 010620Z AUTO 00000KT 10SM OVC060 16/14 A3004 -60 90 0 000/00 RMK AO2 T01560139
13976KLFT LFT20190101002510801/01/19 00:25:31  5-MIN KLFT 010625Z AUTO 00000KT 10SM OVC060 16/14 A3004 -60 90 0 000/00 RMK AO2 T01560139
13976KLFT LFT20190101003010801/01/19 00:30:31  5-MIN KLFT 010630Z AUTO 00000KT 10SM OVC060 16/14 A3004 -60 90 0 000/00 RMK AO2 T01560139
13976KLFT LFT20190101003510801/01/19 00:35:31  5-MIN KLFT 010635Z AUTO 00000KT 10SM BKN060 15/14 A3004 -60 93 0 000/00 RMK AO2 T01500139
13976KLFT LFT20190101004010801/01/19 00:40:31  5-MIN KLFT 010640Z AUTO 00000KT 10SM BKN060 15/14 A3004 -60 93 0 000/00 RMK AO2 T01500139
13976KLFT LFT20190101004510801/01/19 00:45:31  5-MIN KLFT 010645Z AUTO 00000KT 10SM BKN060 15/14 A3004 -60 93 0 000/00 RMK AO2 T01500139
13976KLFT LFT20190101005011501/01/19 00:50:31  5-MIN KLFT 010650Z AUTO 00000KT 10SM BKN060 15/14 A3004 -60 93 0 000/00 RMK AO2 SLP172 T01500139
13976KLFT LFT20190101005510801/01/19 00:55:31  5-MIN KLFT 010655Z AUTO 33003KT 10SM BKN060 15/14 A3004 -70 93 0 330/03 RMK AO2 T01500139
13976KLFT LFT20190101010010801/01/19 01:00:31  5-MIN KLFT 010700Z AUTO 31003KT 10SM BKN060 15/14 A3005 -70 93 0 310/03 RMK AO2 T01500139
13976KLFT LFT20190101010510801/01/19 01:05:31  5-MIN KLFT 010705Z AUTO 31003KT 10SM BKN060 15/14 A3005 -70 93 0 310/03 RMK AO2 T01500139
13976KLFT LFT20190101011010801/01/19 01:10:31  5-MIN KLFT 010710Z AUTO 00000KT 10SM OVC060 15/14 A3006 -80 93 0 000/00 RMK AO2 T01500139
13976KLFT LFT20190101011510701/01/19 01:15:31  5-MIN KLFT 010715Z AUTO 00000KT 9SM OVC060 15/14 A3005 -70 93 0 000/00 RMK AO2 T01500139
13976KLFT LFT20190101012010701/01/19 01:20:31  5-MIN KLFT 010720Z AUTO 00000KT 7SM OVC060 15/14 A3005 -70 93 0 000/00 RMK AO2 T01500139
13976KLFT LFT20190101012511001/01/19 01:25:31  5-MIN KLFT 010725Z AUTO 00000KT 6SM BR OVC060 16/14 A3005 -70 93 0 000/00 RMK AO2 T01560144
13976KLFT LFT20190101013011001/01/19 01:30:31  5-MIN KLFT 010730Z AUTO 00000KT 6SM BR OVC060 16/14 A3005 -70 93 0 000/00 RMK AO2 T01560144
13976KLFT LFT20190101013511001/01/19 01:35:31  5-MIN KLFT 010735Z AUTO 00000KT 6SM BR OVC060 16/14 A3005 -70 93 0 000/00 RMK AO2 T01560144
13976KLFT LFT20190101014011001/01/19 01:40:31  5-MIN KLFT 010740Z AUTO 00000KT 5SM BR OVC060 16/14 A3005 -70 93 0 000/00 RMK AO2 T01560144
13976KLFT LFT20190101014511001/01/19 01:45:31  5-MIN KLFT 010745Z AUTO 00000KT 5SM BR OVC060 16/14 A3004 -70 93 0 000/00 RMK AO2 T01560144
13976KLFT LFT20190101015011701/01/19 01:50:31  5-MIN KLFT 010750Z AUTO 00000KT 5SM BR OVC060 16/14 A3005 -70 93 0 000/00 RMK AO2 SLP174 T01560144
13976KLFT LFT20190101015511001/01/19 01:55:31  5-MIN KLFT 010755Z AUTO 00000KT 5SM BR OVC060 16/14 A3005 -70 93 0 000/00 RMK AO2 T01560144
13976KLFT LFT20190101020011001/01/19 02:00:31  5-MIN KLFT 010800Z AUTO 36003KT 4SM BR OVC060 16/14 A3005 -70 93 0 360/03 RMK AO2 T01560144
13976KLFT LFT20190101020511001/01/19 02:05:31  5-MIN KLFT 010805Z AUTO 01003KT 4SM BR OVC060 16/14 A3004 -60 90 0 360/03 RMK AO2 T01560139
13976KLFT LFT20190101021011001/01/19 02:10:31  5-MIN KLFT 010810Z AUTO 35005KT 5SM BR OVC060 16/14 A3005 -70 93 0 350/05 RMK AO2 T01560144
13976KLFT LFT20190101021511001/01/19 02:15:31  5-MIN KLFT 010815Z AUTO 34004KT 5SM BR OVC060 16/14 A3005 -70 93 0 340/04 RMK AO2 T01560144
13976KLFT LFT20190101022011001/01/19 02:20:31  5-MIN KLFT 010820Z AUTO 34006KT 5SM BR OVC060 16/14 A3005 -70 93 0 340/06 RMK AO2 T01560144
13976KLFT LFT20190101022510701/01/19 02:25:31  5-MIN KLFT 010825Z AUTO 33005KT 7SM OVC060 16/14 A3005 -70 90 0 330/05 RMK AO2 T01560139
13976KLFT LFT20190101023010701/01/19 02:30:31  5-MIN KLFT 010830Z AUTO 33005KT 7SM OVC060 16/14 A3005 -70 90 0 330/05 RMK AO2 T01560139
13976KLFT LFT20190101023510701/01/19 02:35:31  5-MIN KLFT 010835Z AUTO 34006KT 8SM OVC060 16/14 A3005 -70 90 0 340/06 RMK AO2 T01560139
13976KLFT LFT20190101024010701/01/19 02:40:31  5-MIN KLFT 010840Z AUTO 34005KT 8SM OVC060 16/14 A3005 -70 90 0 340/05 RMK AO2 T01560139
13976KLFT LFT20190101024510701/01/19 02:45:31  5-MIN KLFT 010845Z AUTO 34006KT 9SM OVC060 16/14 A3005 -70 90 0 340/06 RMK AO2 T01560139
13976KLFT LFT20190101025012001/01/19 02:50:31  5-MIN KLFT 010850Z AUTO 34006KT 9SM OVC060 16/14 A3005 -70 90 0 340/06 RMK AO2 SLP175 T01560139 51011
13976KLFT LFT20190101025510701/01/19 02:55:31  5-MIN KLFT 010855Z AUTO 35008KT 9SM OVC060 16/14 A3005 -70 90 0 350/08 RMK AO2 T01560139
13976KLFT LFT20190101030010801/01/19 03:00:31  5-MIN KLFT 010900Z AUTO 34007KT 10SM OVC060 15/14 A3005 -70 93 0 340/07 RMK AO2 T01500139
13976KLFT LFT20190101030511501/01/19 03:05:31  5-MIN KLFT 010905Z AUTO 35008KT 10SM BKN060 OVC080 15/14 A3005 -70 93 0 350/08 RMK AO2 T01500139
13976KLFT LFT20190101031011501/01/19 03:10:31  5-MIN KLFT 010910Z AUTO 34008KT 10SM BKN065 OVC080 15/13 A3006 -80 90 0 340/08 RMK AO2 T01500133
13976KLFT LFT20190101031511501/01/19 03:15:31  5-MIN KLFT 010915Z AUTO 36007KT 10SM BKN065 OVC080 15/13 A3005 -70 90 0 360/07 RMK AO2 T01500133
13976KLFT LFT20190101032011501/01/19 03:20:31  5-MIN KLFT 010920Z AUTO 35006KT 10SM BKN065 OVC080 15/13 A3006 -80 90 0 350/06 RMK AO2 T01500133
13976KLFT LFT20190101032511501/01/19 03:25:31  5-MIN KLFT 010925Z AUTO 35007KT 10SM BKN065 OVC080 15/13 A3006 -80 90 0 350/07 RMK AO2 T01500133
13976KLFT LFT20190101033011501/01/19 03:30:31  5-MIN KLFT 010930Z AUTO 35005KT 10SM BKN065 OVC085 15/13 A3006 -80 90 0 350/05 RMK AO2 T01500133
13976KLFT LFT20190101033511801/01/19 03:35:31  5-MIN KLFT 010935Z AUTO 36007KT 10SM BKN065 OVC085 14/13 A3006 -80 93 -100 360/07 RMK AO2 T01440133
13976KLFT LFT20190101034011801/01/19 03:40:31  5-MIN KLFT 010940Z AUTO 36008KT 10SM SCT065 OVC090 14/13 A3005 -70 93 -100 350/08 RMK AO2 T01440133
13976KLFT LFT20190101034511801/01/19 03:45:31  5-MIN KLFT 010945Z AUTO 36005KT 10SM SCT065 OVC090 14/13 A3005 -70 93 -100 360/05 RMK AO2 T01440133
13976KLFT LFT20190101035012501/01/19 03:50:31  5-MIN KLFT 010950Z AUTO 36007KT 10SM SCT070 OVC090 14/13 A3005 -70 93 -100 360/07 RMK AO2 SLP177 T01440133
13976KLFT LFT20190101035511801/01/19 03:55:31  5-MIN KLFT 010955Z AUTO 36006KT 10SM SCT070 OVC090 14/13 A3006 -80 90 -100 360/06 RMK AO2 T01440128
13976KLFT LFT20190101040011801/01/19 04:00:31  5-MIN KLFT 011000Z AUTO 36007KT 10SM SCT070 OVC090 14/13 A3006 -80 90 -100 360/07 RMK AO2 T01440128
13976KLFT LFT20190101040511801/01/19 04:05:31  5-MIN KLFT 011005Z AUTO 35006KT 10SM BKN070 OVC095 14/13 A3006 -80 93 -100 350/06 RMK AO2 T01440133
13976KLFT LFT20190101041011801/01/19 04:10:31  5-MIN KLFT 011010Z AUTO 36005KT 10SM BKN070 OVC090 14/13 A3006 -80 93 -100 360/05 RMK AO2 T01440133
13976KLFT LFT20190101041511801/01/19 04:15:31  5-MIN KLFT 011015Z AUTO 01007KT 10SM BKN070 OVC090 14/13 A3006 -80 93 -100 360/07 RMK AO2 T01440133
13976KLFT LFT20190101042011801/01/19 04:20:31  5-MIN KLFT 011020Z AUTO 01006KT 10SM BKN070 OVC090 14/13 A3006 -80 90 -100 010/06 RMK AO2 T01440128
13976KLFT LFT20190101042511801/01/19 04:25:31  5-MIN KLFT 011025Z AUTO 02006KT 10SM BKN070 OVC090 14/13 A3006 -80 90 -100 020/06 RMK AO2 T01440128
13976KLFT LFT20190101043011801/01/19 04:30:31  5-MIN KLFT 011030Z AUTO 02007KT 10SM BKN070 OVC090 14/13 A3006 -80 90 -100 020/07 RMK AO2 T01440128
13976KLFT LFT20190101043511801/01/19 04:35:31  5-MIN KLFT 011035Z AUTO 01007KT 10SM SCT070 OVC090 14/13 A3006 -80 93 -100 010/07 RMK AO2 T01390128
13976KLFT LFT20190101044011801/01/19 04:40:31  5-MIN KLFT 011040Z AUTO 01007KT 10SM BKN070 OVC090 14/13 A3007 -90 93 -200 010/07 RMK AO2 T01390128
13976KLFT LFT20190101044511801/01/19 04:45:31  5-MIN KLFT 011045Z AUTO 36006KT 10SM BKN070 OVC090 14/13 A3006 -80 93 -200 360/06 RMK AO2 T01390128
13976KLFT LFT20190101045012501/01/19 04:50:31  5-MIN KLFT 011050Z AUTO 02006KT 10SM BKN070 OVC090 14/13 A3007 -90 93 -200 020/06 RMK AO2 SLP181 T01390128
13976KLFT LFT20190101045511801/01/19 04:55:31  5-MIN KLFT 011055Z AUTO 02006KT 10SM BKN075 OVC090 14/13 A3006 -80 93 -100 020/06 RMK AO2 T01390128
13976KLFT LFT20190101050011801/01/19 05:00:31  5-MIN KLFT 011100Z AUTO 01006KT 10SM BKN070 OVC095 14/12 A3007 -90 90 -200 010/06 RMK AO2 T01390122
13976KLFT LFT20190101050511801/01/19 05:05:31  5-MIN KLFT 011105Z AUTO 02007KT 10SM BKN070 OVC095 14/12 A3006 -80 90 -200 020/07 RMK AO2 T01390122
13976KLFT LFT20190101051011301/01/19 05:10:31  5-MIN KLFT 011110Z 01007KT 10SM BKN070 BKN095 14/12 A3007 -90 90 -200 010/07 RMK AO2 T01390122
13976KLFT LFT20190101051512001/01/19 05:15:31  5-MIN KLFT 011115Z 02006KT 10SM FEW060 BKN070 BKN095 14/12 A3007 -90 90 -200 020/06 RMK AO2 T01390122
13976KLFT LFT20190101052011401/01/19 05:20:31  5-MIN KLFT 011120Z 01007KT 10SM BKN065 BKN090 14/12 A3008 -100 90 -200 360/07 RMK AO2 T01390122
13976KLFT LFT20190101052510601/01/19 05:25:31  5-MIN KLFT 011125Z 03006KT 10SM BKN070 14/12 A3007 -90 90 -200 020/06 RMK AO2 T01390122
13976KLFT LFT20190101053010601/01/19 05:30:31  5-MIN KLFT 011130Z 02006KT 10SM SCT065 13/12 A3008 -90 93 -200 020/06 RMK AO2 T01330122
13976KLFT LFT20190101053510701/01/19 05:35:31  5-MIN KLFT 011135Z 01005KT 10SM BKN060 13/12 A3008 -100 93 -200 010/05 RMK AO2 T01330122
13976KLFT LFT20190101054010601/01/19 05:40:31  5-MIN KLFT 011140Z 02006KT 10SM BKN060 13/12 A3007 -90 93 -200 020/06 RMK AO2 T01330122
13976KLFT LFT20190101054510601/01/19 05:45:31  5-MIN KLFT 011145Z 03006KT 10SM BKN060 13/12 A3007 -90 93 -200 030/06 RMK AO2 T01330122
13976KLFT LFT20190101055013701/01/19 05:50:31  5-MIN KLFT 011150Z 03005KT 10SM SCT060 13/12 A3007 -90 93 -200 030/05 RMK AO2 SLP183 70013 T01330122 10156 20133 55000
13976KLFT LFT20190101055510601/01/19 05:55:31  5-MIN KLFT 011155Z 01006KT 10SM SCT060 13/12 A3007 -90 93 -200 010/06 RMK AO2 T01330122
13976KLFT LFT20190101060010601/01/19 06:00:31  5-MIN KLFT 011200Z 01006KT 10SM FEW060 13/12 A3008 -90 93 -200 010/06 RMK AO2 T01330122
13976KLFT LFT20190101060510601/01/19 06:05:31  5-MIN KLFT 011205Z 02007KT 10SM FEW060 13/12 A3007 -90 93 -200 020/07 RMK AO2 T01330122
13976KLFT LFT20190101061010701/01/19 06:10:31  5-MIN KLFT 011210Z 01007KT 10SM FEW060 13/12 A3008 -100 93 -200 010/07 RMK AO2 T01330122
13976KLFT LFT20190101061510401/01/19 06:15:31  5-MIN KLFT 011215Z 01006KT 10SM CLR 13/12 A3009 -100 93 -200 010/06 RMK AO2 T01330122
13976KLFT LFT20190101062010701/01/19 06:20:31  5-MIN KLFT 011220Z 01005KT 10SM FEW060 13/12 A3009 -110 93 -200 010/05 RMK AO2 T01330122
13976KLFT LFT20190101062510701/01/19 06:25:31  5-MIN KLFT 011225Z 01006KT 10SM SCT060 14/12 A3009 -110 90 -200 010/06 RMK AO2 T01390122
13976KLFT LFT20190101063010701/01/19 06:30:31  5-MIN KLFT 011230Z 01006KT 10SM BKN060 14/12 A3009 -110 90 -200 010/06 RMK AO2 T01390122
13976KLFT LFT20190101063510701/01/19 06:35:31  5-MIN KLFT 011235Z 01007KT 10SM BKN060 14/12 A3009 -110 90 -200 360/07 RMK AO2 T01390122
13976KLFT LFT20190101064010701/01/19 06:40:31  5-MIN KLFT 011240Z 36007KT 10SM BKN060 13/12 A3010 -110 93 -300 360/07 RMK AO2 T01330122
13976KLFT LFT20190101064510701/01/19 06:45:31  5-MIN KLFT 011245Z 01006KT 10SM BKN060 13/12 A3010 -120 93 -300 010/06 RMK AO2 T01330122
13976KLFT LFT20190101065011401/01/19 06:50:31  5-MIN KLFT 011250Z 02007KT 10SM SCT060 13/12 A3010 -110 93 -300 020/07 RMK AO2 SLP190 T01330122
13976KLFT LFT20190101065510701/01/19 06:55:31  5-MIN KLFT 011255Z 02007KT 10SM SCT060 13/12 A3009 -110 93 -200 020/07 RMK AO2 T01330122
13976KLFT LFT20190101070010701/01/19 07:00:31  5-MIN KLFT 011300Z 03006KT 10SM SCT060 13/12 A3009 -110 93 -300 030/06 RMK AO2 T01330122
13976KLFT LFT20190101070510701/01/19 07:05:31  5-MIN KLFT 011305Z 02006KT 10SM FEW060 13/12 A3010 -120 93 -300 010/06 RMK AO2 T01330122
13976KLFT LFT20190101071010701/01/19 07:10:31  5-MIN KLFT 011310Z 01007KT 10SM FEW060 13/12 A3011 -120 93 -300 360/07 RMK AO2 T01330122
13976KLFT LFT20190101071510401/01/19 07:15:31  5-MIN KLFT 011315Z 35006KT 10SM CLR 13/12 A3011 -130 93 -300 350/06 RMK AO2 T01330122
13976KLFT LFT20190101072010401/01/19 07:20:31  5-MIN KLFT 011320Z 36006KT 10SM CLR 13/12 A3011 -130 93 -300 360/06 RMK AO2 T01330122
13976KLFT LFT20190101072510401/01/19 07:25:31  5-MIN KLFT 011325Z 01007KT 10SM CLR 13/12 A3011 -130 93 -300 010/07 RMK AO2 T01330122
13976KLFT LFT20190101073010401/01/19 07:30:31  5-MIN KLFT 011330Z 02007KT 10SM CLR 13/12 A3011 -130 93 -300 020/07 RMK AO2 T01330122
13976KLFT LFT20190101073510401/01/19 07:35:31  5-MIN KLFT 011335Z 02009KT 10SM CLR 13/12 A3011 -130 93 -300 020/09 RMK AO2 T01330122
13976KLFT LFT20190101074010401/01/19 07:40:31  5-MIN KLFT 011340Z 02007KT 10SM CLR 13/12 A3012 -140 93 -300 020/07 RMK AO2 T01330122
13976KLFT LFT20190101074510401/01/19 07:45:31  5-MIN KLFT 011345Z 01008KT 10SM CLR 13/12 A3012 -140 93 -300 010/08 RMK AO2 T01330122
13976KLFT LFT20190101075011101/01/19 07:50:31  5-MIN KLFT 011350Z 02008KT 10SM CLR 13/12 A3012 -140 93 -300 020/08 RMK AO2 SLP200 T01330122
13976KLFT LFT20190101075510401/01/19 07:55:31  5-MIN KLFT 011355Z 01007KT 10SM CLR 14/12 A3013 -150 90 -200 010/07 RMK AO2 T01390122
13976KLFT LFT20190101080010401/01/19 08:00:31  5-MIN KLFT 011400Z 02007KT 10SM CLR 14/12 A3013 -150 90 -200 020/07 RMK AO2 T01390122
13976KLFT LFT20190101080510401/01/19 08:05:31  5-MIN KLFT 011405Z 02008KT 10SM CLR 14/12 A3013 -140 90 -200 020/08 RMK AO2 T01390122
13976KLFT LFT20190101081010401/01/19 08:10:31  5-MIN KLFT 011410Z 02010KT 10SM CLR 14/12 A3013 -150 90 -200 020/10 RMK AO2 T01390122
13976KLFT LFT20190103140513201/03/19 14:05:31  5-MIN KLFT 032005Z 11003KT 3SM +RA BR BKN005 BKN022 OVC030 16/16 A2982 140 100 300 110/03 RMK AO2 P0005 T01560156
13976KLFT LFT20190103141013601/03/19 14:10:31  5-MIN KLFT 032010Z VRB04KT 1 3/4SM +RA BR BKN005 BKN022 OVC030 16/16 A2982 140 100 300 VRB/04 RMK AO2 P0010 T01560156
13976KLFT LFT20190103141513201/03/19 14:15:31  5-MIN KLFT 032015Z VRB06KT 1SM +RA BR BKN005 BKN022 OVC030 16/16 A2981 140 100 300 VRB/06 RMK AO2 P0022 T01560156
13976KLFT LFT20190103142013301/03/19 14:20:31  5-MIN KLFT 032020Z VRB03KT 3/4SM +RA BR BKN005 BKN022 OVC030 16/16 A2982 140 96 300 VRB/03 RMK AO2 P0029 T01610156
13976KLFT LFT20190103142513501/03/19 14:25:31  5-MIN KLFT 032025Z VRB03KT 1 1/4SM RA BR BKN005 BKN022 OVC030 16/16 A2982 130 100 300 VRB/03 RMK AO2 P0031 T01610161
13976KLFT LFT20190103143014401/03/19 14:30:31  5-MIN KLFT 032030Z 16003KT 2SM +RA BR BKN005 BKN022 OVC030 16/16 A2982 140 100 300 150/03 RMK AO2 VIS 1 1/4V4 P0032 T01610161
13976KLFT LFT20190103143513101/03/19 14:35:31  5-MIN KLFT 032035Z 14004KT 2SM RA BR BKN005 BKN022 OVC030 16/16 A2982 130 100 300 140/04 RMK AO2 P0034 T01610161
13976KLFT LFT20190103144013101/03/19 14:40:31  5-MIN KLFT 032040Z VRB04KT 2SM +RA BR BKN005 BKN022 OVC030 16/16 A2982 140 96 300 VRB/04 RMK AO2 P0038 T01610156
13976KLFT LFT20190103144513001/03/19 14:45:31  5-MIN KLFT 032045Z VRB03KT 2SM RA BR BKN005 BKN022 OVC030 16/16 A2982 140 96 300 VRB/03 RMK AO2 P0039 T01610156
13976KLFT LFT20190103145012201/03/19 14:50:31  5-MIN KLFT 032050Z 16003KT 6SM -RA BR BKN005 BKN022 OVC030 16/16 A2982 140 100 300 160/03 RMK AO2 P0039
13976KLFT LFT20190103145512901/03/19 14:55:31  5-MIN KLFT 032055Z 14003KT 9SM -RA FEW005 BKN032 OVC043 16/16 A2982 140 100 300 130/03 RMK AO2 P0000 T01610161
13976KLFT LFT20190103150013301/03/19 15:00:31  5-MIN KLFT 032100Z 16004KT 10SM FEW003 BKN031 OVC055 17/16 A2982 140 96 400 160/04 RMK AO2 RAE2059 P0000 T01670161
13976KLFT LFT20190103150513101/03/19 15:05:31  5-MIN KLFT 032105Z 13003KT 3SM +RA BR FEW009 SCT028 OVC038 17/16 A2982 140 96 400 130/03 RMK AO2 P0003 T01670161
13976KLFT LFT20190103151013601/03/19 15:10:31  5-MIN KLFT 032110Z VRB03KT 2 1/2SM -RA BR FEW009 BKN033 OVC055 17/17 A2982 140 100 400 VRB/03 RMK AO2 P0003 T01670167
13976KLFT LFT20190103151512901/03/19 15:15:31  5-MIN KLFT 032115Z 00000KT 8SM -RA FEW008 BKN043 OVC055 17/17 A2982 140 100 400 000/00 RMK AO2 P0003 T01670167
13976KLFT LFT20190103152013001/03/19 15:20:31  5-MIN KLFT 032120Z 13003KT 10SM -RA FEW028 BKN037 OVC055 17/17 A2981 140 100 400 130/03 RMK AO2 P0003 T01670167
13976KLFT LFT20190103152513001/03/19 15:25:31  5-MIN KLFT 032125Z 00000KT 10SM -RA FEW025 BKN043 OVC055 17/17 A2981 150 100 400 000/00 RMK AO2 P0004 T01670167
13976KLFT LFT20190103153012901/03/19 15:30:31  5-MIN KLFT 032130Z 00000KT 7SM -RA SCT022 BKN037 OVC046 17/17 A2981 150 100 400 000/00 RMK AO2 P0004 T01670167
13976KLFT LFT20190103153512901/03/19 15:35:31  5-MIN KLFT 032135Z 00000KT 7SM -RA SCT018 BKN023 OVC043 17/17 A2981 150 100 400 000/00 RMK AO2 P0004 T01670167
13976KLFT LFT20190103154012901/03/19 15:40:31  5-MIN KLFT 032140Z 00000KT 8SM -RA FEW003 BKN018 OVC048 17/17 A2981 140 100 400 000/00 RMK AO2 P0004 T01670167
13976KLFT LFT20190103154512901/03/19 15:45:31  5-MIN KLFT 032145Z 00000KT 8SM -RA FEW003 BKN018 OVC035 17/17 A2981 140 100 400 000/00 RMK AO2 P0005 T01670167
13976KLFT LFT20190103155013601/03/19 15:50:31  5-MIN KLFT 032150Z 00000KT 7SM -RA FEW003 BKN018 OVC023 17/17 A2981 150 100 400 000/00 RMK AO2 SLP093 P0005 T01670167
13976KLFT LFT20190103155513101/03/19 15:55:31  5-MIN KLFT 032155Z 16004KT 6SM RA BR FEW003 SCT013 OVC019 17/17 A2980 150 100 400 160/04 RMK AO2 P0000 T01670167
13976KLFT LFT20190103160013001/03/19 16:00:31  5-MIN KLFT 032200Z 17004KT 4SM RA BR FEW003 BKN013 OVC019 17/17 A2981 150 96 500 170/04 RMK AO2 P0002 T01720167
13976KLFT LFT20190103160514501/03/19 16:05:31  5-MIN KLFT 032205Z 18004KT 1 1/2SM +RA BR FEW003 BKN011 OVC020 17/17 A2981 150 96 500 180/04 RMK AO2 VIS 3/4V5 P0008 T01720167
13976KLFT LFT20190103161014501/03/19 16:10:31  5-MIN KLFT 032210Z 19006KT 1 1/2SM +RA BR BKN008 BKN013 OVC020 17/17 A2981 140 96 500 190/06 RMK AO2 VIS 3/4V3 P0011 T01720167
13976KLFT LFT20190103161514701/03/19 16:15:31  5-MIN KLFT 032215Z 19005KT 2 1/2SM +RA BR BKN008 BKN013 OVC020 17/17 A2981 150 96 500 190/05 RMK AO2 VIS 1 3/4V5 P0013 T01720167
13976KLFT LFT20190103162012401/03/19 16:20:31  5-MIN KLFT 032220Z 18007KT 4SM -RA BR BKN011 OVC027 18/17 A2980 150 96 600 180/07 RMK AO2 P0013 T01780172
13976KLFT LFT20190103162513001/03/19 16:25:31  5-MIN KLFT 032225Z 18006KT 6SM RA BR BKN009 BKN013 OVC027 18/17 A2981 150 96 600 180/06 RMK AO2 P0014 T01780172
13976KLFT LFT20190103163012401/03/19 16:30:31  5-MIN KLFT 032230Z 19006KT 5SM RA BR BKN011 OVC027 18/18 A2980 150 100 600 190/06 RMK AO2 P0014 T01780178
13976KLFT LFT20190103163512301/03/19 16:35:31  5-MIN KLFT 032235Z 19006KT 4SM RA BR BKN004 OVC027 18/18 A2980 160 96 600 190/06 RMK AO2 P0016 T01830178
13976KLFT LFT20190103164012301/03/19 16:40:31  5-MIN KLFT 032240Z 18005KT 4SM RA BR BKN004 OVC027 18/18 A2979 160 96 600 170/05 RMK AO2 P0016 T01830178
13976KLFT LFT20190103164512401/03/19 16:45:31  5-MIN KLFT 032245Z 19006KT 5SM RA BR BKN004 OVC027 18/18 A2980 160 100 600 190/06 RMK AO2 P0017 T01830183
13976KLFT LFT20190103165013201/03/19 16:50:31  5-MIN KLFT 032250Z 19008KT 6SM -RA BR BKN004 OVC027 18/18 A2980 160 100 600 190/08 RMK AO2 SLP090 P0017 T01830183
13976KLFT LFT20190103165512301/03/19 16:55:31  5-MIN KLFT 032255Z 21009KT 6SM RA BR SCT009 OVC034 18/18 A2980 160 96 600 210/09 RMK AO2 P0000 T01830178
13976KLFT LFT20190103170013001/03/19 17:00:31  5-MIN KLFT 032300Z 21008KT 5SM RA BR BKN007 BKN034 OVC041 18/18 A2979 160 96 600 210/08 RMK AO2 P0001 T01830178
13976KLFT LFT20190103170513001/03/19 17:05:31  5-MIN KLFT 032305Z 21008KT 5SM RA BR BKN007 BKN034 OVC041 18/18 A2979 170 96 600 210/08 RMK AO2 P0002 T01830178
13976KLFT LFT20190103171012801/03/19 17:10:31  5-MIN KLFT 032310Z 22009KT 7SM -RA BKN007 BKN034 OVC041 18/18 A2979 170 96 600 220/09 RMK AO2 P0002 T01830178
13976KLFT LFT20190103171512901/03/19 17:15:31  5-MIN KLFT 032315Z 22009KT 10SM -RA BKN007 BKN034 OVC041 18/18 A2979 160 96 600 220/09 RMK AO2 P0002 T01830178
13976KLFT LFT20190103172012901/03/19 17:20:31  5-MIN KLFT 032320Z 22008KT 10SM -RA BKN007 BKN034 OVC041 18/18 A2980 160 96 600 220/08 RMK AO2 P0002 T01830178
13976KLFT LFT20190103172513101/03/19 17:25:31  5-MIN KLFT 032325Z 24007KT 10SM BKN007 BKN034 OVC041 18/18 A2980 160 96 600 240/07 RMK AO2 RAE24 P0002 T01830178
13976KLFT LFT20190103173013201/03/19 17:30:31  5-MIN KLFT 032330Z 24008KT 10SM BKN007 BKN034 OVC041 18/18 A2980 160 100 600 240/08 RMK AO2 RAE24 P0002 T01780178
13976KLFT LFT20190103173513201/03/19 17:35:31  5-MIN KLFT 032335Z 24008KT 10SM BKN007 BKN034 OVC041 18/18 A2980 160 100 600 240/08 RMK AO2 RAE24 P0002 T01780178
13976KLFT LFT20190103174013101/03/19 17:40:31  5-MIN KLFT 032340Z 24008KT 10SM BKN007 BKN034 OVC041 18/17 A2980 160 96 600 240/08 RMK AO2 RAE24 P0002 T01780172
13976KLFT LFT20190103174513101/03/19 17:45:31  5-MIN KLFT 032345Z 24007KT 10SM BKN007 BKN034 OVC041 18/17 A2980 160 96 600 240/07 RMK AO2 RAE24 P0002 T01780172
13976KLFT LFT20190103175016701/03/19 17:50:31  5-MIN KLFT 032350Z 25007KT 10SM BKN009 OVC012 18/17 A2980 150 96 600 250/07 RMK AO2 RAE24 CIG 006V011 SLP092 P0002 60126 T01780172 10183 20144 56024
13976KLFT LFT20190103175512401/03/19 17:55:31  5-MIN KLFT 032355Z 27008KT 10SM BKN009 OVC012 18/17 A2981 150 96 600 270/08 RMK AO2 CIG 006V011 T01780172
13976KLFT LFT20190103180012401/03/19 18:00:31  5-MIN KLFT 040000Z 27009KT 10SM BKN007 OVC013 18/17 A2981 150 96 600 270/09 RMK AO2 CIG 006V010 T01780172
13976KLFT LFT20190103180513001/03/19 18:05:31  5-MIN KLFT 040005Z 28014G17KT 10SM BKN006 OVC013 17/17 A2982 140 96 500 280/14G17 RMK AO2 CIG 003V010 T01720167
13976KLFT LFT20190103181013101/03/19 18:10:31  5-MIN KLFT 040010Z 29010KT 10SM BKN004 BKN009 OVC012 17/16 A2982 140 96 400 290/10 RMK AO2 CIG 003V007 T01670161
13976KLFT LFT20190103181513101/03/19 18:15:31  5-MIN KLFT 040015Z 30013G18KT 10SM BKN004 OVC009 16/16 A2982 140 100 300 290/13G18 RMK AO2 CIG 003V007 T01560156
13976KLFT LFT20190103182012301/03/19 18:20:31  5-MIN KLFT 040020Z 28012G18KT 10SM OVC004 16/15 A2982 140 96 300 280/12G18 RMK AO2 CIG 003V008 T01560150
13976KLFT LFT20190103182511701/03/19 18:25:31  5-MIN KLFT 040025Z 29014KT 10SM OVC004 15/14 A2982 140 96 200 290/14 RMK AO2 CIG 003V008 T01500144
13976KLFT LFT20190103183011701/03/19 18:30:31  5-MIN KLFT 040030Z 29011KT 10SM OVC004 15/14 A2983 130 96 200 290/11 RMK AO2 CIG 003V008 T01500144
13976KLFT LFT20190103183512401/03/19 18:35:31  5-MIN KLFT 040035Z 29011KT 10SM BKN004 OVC008 15/14 A2984 120 96 200 280/11 RMK AO2 CIG 003V007 T01500144
13976KLFT LFT20190103184011701/03/19 18:40:31  5-MIN KLFT 040040Z 29012KT 10SM OVC006 14/14 A2984 120 96 100 290/12 RMK AO2 CIG 004V009 T01440139
13976KLFT LFT20190103184511701/03/19 18:45:31  5-MIN KLFT 040045Z 28014KT 10SM OVC006 14/14 A2984 120 96 100 280/14 RMK AO2 CIG 004V009 T01440139
13976KLFT LFT20190103185012401/03/19 18:50:31  5-MIN KLFT 040050Z 29012KT 10SM OVC007 14/13 A2984 120 93 100 290/12 RMK AO2 CIG 004V009 SLP105 T01440133
13976KLFT LFT20190103185511601/03/19 18:55:31  5-MIN KLFT 040055Z 30010KT 9SM OVC007 14/13 A2984 110 93 100 300/10 RMK AO2 CIG 004V009 T01440133
13976KLFT LFT20190103190011001/03/19 19:00:31  5-MIN KLFT 040100Z 29012G19KT 8SM OVC007 14/13 A2984 120 96 100 280/12G19 RMK AO2 T01390133
13976KLFT LFT20190103190511101/03/19 19:05:31  5-MIN KLFT 040105Z 30008G19KT 6SM BR OVC007 14/13 A2985 110 96 0 300/08G19 RMK AO2 T01390133
13976KLFT LFT20190103191010501/03/19 19:10:31  5-MIN KLFT 040110Z 29008KT 6SM BR OVC007 14/13 A2985 110 96 0 290/08 RMK AO2 T01390133
13976KLFT LFT20190103191510501/03/19 19:15:31  5-MIN KLFT 040115Z 31010KT 5SM BR OVC007 14/13 A2985 110 96 0 310/10 RMK AO2 T01390133
13976KLFT LFT20190103192010501/03/19 19:20:31  5-MIN KLFT 040120Z 30008KT 5SM BR OVC007 13/13 A2985 110 96 0 300/08 RMK AO2 T01330128
13976KLFT LFT20190103192510201/03/19 19:25:31  5-MIN KLFT 040125Z 30008KT 7SM OVC007 13/13 A2985 110 96 0 300/08 RMK AO2 T01330128
13976KLFT LFT20190103193010301/03/19 19:30:31  5-MIN KLFT 040130Z 31007KT 10SM OVC007 13/13 A2984 110 96 0 310/07 RMK AO2 T01330128
13976KLFT LFT20190103193510401/03/19 19:35:31  5-MIN KLFT 040135Z 32007KT 10SM OVC007 13/13 A2984 120 100 0 320/07 RMK AO2 T01280128
13976KLFT LFT20190103194010401/03/19 19:40:31  5-MIN KLFT 040140Z 31006KT 10SM OVC007 13/13 A2984 110 100 0 310/06 RMK AO2 T01280128
13976KLFT LFT20190103194510401/03/19 19:45:31  5-MIN KLFT 040145Z 32005KT 10SM OVC007 13/13 A2985 110 100 0 310/05 RMK AO2 T01280128
13976KLFT LFT20190103195011701/03/19 19:50:31  5-MIN KLFT 040150Z 30006KT 10SM BKN007 OVC012 13/12 A2986 100 96 0 300/06 RMK AO2 SLP109 T01280122
13976KLFT LFT20190103195510301/03/19 19:55:31  5-MIN KLFT 040155Z 30006KT 10SM OVC006 13/12 A2986 100 96 0 300/06 RMK AO2 T01280122
13976KLFT LFT20190103200010601/03/19 20:00:31  5-MIN KLFT 040200Z 28006KT 10SM OVC006 13/12 A2986 100 96 -100 280/06 RMK AO2 T01280122
13976KLFT LFT20190103200510601/03/19 20:05:31  5-MIN KLFT 040205Z 29006KT 10SM OVC006 13/12 A2986 100 96 -100 290/06 RMK AO2 T01280122
13976KLFT LFT20190103201010601/03/19 20:10:31  5-MIN KLFT 040210Z 28006KT 10SM OVC006 13/12 A2986 100 96 -100 280/06 RMK AO2 T01280122
13976KLFT LFT20190103201510601/03/19 20:15:31  5-MIN KLFT 040215Z 28006KT 10SM OVC006 13/12 A2986 100 96 -100 280/06 RMK AO2 T01280122
13976KLFT LFT20190103202010501/03/19 20:20:31  5-MIN KLFT 040220Z 28006KT 10SM OVC006 13/12 A2987 90 96 -100 280/06 RMK AO2 T01280122
13976KLFT LFT20190103202510501/03/19 20:25:31  5-MIN KLFT 040225Z 28008KT 10SM OVC006 13/12 A2987 90 96 -100 280/08 RMK AO2 T01280122
13976KLFT LFT20190103203010501/03/19 20:30:31  5-MIN KLFT 040230Z 27010KT 10SM OVC006 13/12 A2988 80 96 -100 270/10 RMK AO2 T01280122
13976KLFT LFT20190103203510501/03/19 20:35:31  5-MIN KLFT 040235Z 27010KT 10SM OVC006 13/12 A2988 80 96 -100 270/10 RMK AO2 T01280122
13976KLFT LFT20190103204010501/03/19 20:40:31  5-MIN KLFT 040240Z 27011KT 10SM OVC006 13/12 A2988 80 96 -100 270/11 RMK AO2 T01280122
13976KLFT LFT20190103204511101/03/19 20:45:31  5-MIN KLFT 040245Z 28012G16KT 10SM OVC006 13/12 A2989 80 96 -100 280/12G16 RMK AO2 T01280122
13976KLFT LFT20190103205012401/03/19 20:50:31  5-MIN KLFT 040250Z 28011G16KT 10SM OVC006 13/12 A2989 80 93 -100 280/11G16 RMK AO2 SLP120 T01280117 55006
13976KLFT LFT20190103205512301/03/19 20:55:31  5-MIN KLFT 040255Z 27013G20KT 10SM OVC006 12/12 A2989 70 96 -100 270/13G20 RMK AO2 CIG 006V010 T01220117
13976KLFT LFT20190103210013001/03/19 21:00:31  5-MIN KLFT 040300Z 28009G20KT 10SM BKN008 OVC012 12/12 A2989 70 96 -200 280/09G20 RMK AO2 CIG 006V011 T01220117
13976KLFT LFT20190103210512401/03/19 21:05:31  5-MIN KLFT 040305Z 28010KT 10SM BKN008 OVC012 12/12 A2989 70 96 -200 280/10 RMK AO2 CIG 006V010 T01220117
13976KLFT LFT20190103211012301/03/19 21:10:31  5-MIN KLFT 040310Z 28013G22KT 10SM OVC008 12/12 A2989 70 96 -200 280/13G22 RMK AO2 CIG 006V010 T01220117
13976KLFT LFT20190103211511101/03/19 21:15:31  5-MIN KLFT 040315Z 28015G22KT 10SM OVC008 12/11 A2989 70 93 -200 270/15G22 RMK AO2 T01220111
13976KLFT LFT20190103212011101/03/19 21:20:31  5-MIN KLFT 040320Z 28012G20KT 10SM OVC008 12/11 A2989 70 93 -200 280/12G20 RMK AO2 T01220111
13976KLFT LFT20190103212511701/03/19 21:25:31  5-MIN KLFT 040325Z 28008KT 10SM OVC008 12/11 A2990 70 93 -200 280/08 RMK AO2 CIG 006V013 T01220111
13976KLFT LFT20190103213011701/03/19 21:30:31  5-MIN KLFT 040330Z 28013KT 10SM OVC008 12/11 A2990 60 96 -200 280/13 RMK AO2 CIG 006V012 T01170111
13976KLFT LFT20190103213511701/03/19 21:35:31  5-MIN KLFT 040335Z 29012KT 10SM OVC009 12/11 A2990 60 93 -200 280/12 RMK AO2 CIG 006V012 T01170106
13976KLFT LFT20190103214011101/03/19 21:40:31  5-MIN KLFT 040340Z 29012G18KT 10SM OVC009 12/11 A2990 60 93 -200 280/12G18 RMK AO2 T01170106
13976KLFT LFT20190103214511801/03/19 21:45:31  5-MIN KLFT 040345Z 29010G19KT 10SM BKN009 OVC013 12/11 A2990 60 93 -200 290/10G19 RMK AO2 T01170106
13976KLFT LFT20190103215009501/03/19 21:50:31  5-MIN KLFT 040350Z 28012KT 10SM OVC011 12/11 A2990 60 93 -200 280/12 RMK AO2
13976KLFT LFT20190103215512301/03/19 21:55:31  5-MIN KLFT 040355Z 30014G20KT 10SM OVC011 12/10 A2990 60 89 -200 290/14G20 RMK AO2 CIG 009V013 T01170100
13976KLFT LFT20190103220011801/03/19 22:00:31  5-MIN KLFT 040400Z 29013G20KT 10SM BKN009 OVC013 11/10 A2990 60 93 -300 280/13G20 RMK AO2 T01110100
13976KLFT LFT20190103220511101/03/19 22:05:31  5-MIN KLFT 040405Z 28015G20KT 10SM OVC011 11/10 A2990 60 93 -300 280/15G20 RMK AO2 T01110100
13976KLFT LFT20190103221010501/03/19 22:10:31  5-MIN KLFT 040410Z 28010KT 10SM OVC012 11/10 A2990 60 93 -300 280/10 RMK AO2 T01110100
13976KLFT LFT20190103221511701/03/19 22:15:31  5-MIN KLFT 040415Z AUTO 28012KT 10SM BKN009 OVC014 11/10 A2991 50 93 -300 280/12 RMK AO2 T01110100
13976KLFT LFT20190103222012301/03/19 22:20:31  5-MIN KLFT 040420Z AUTO 29010G18KT 10SM BKN009 OVC014 11/10 A2991 60 93 -300 290/10G18 RMK AO2 T01110100
13976KLFT LFT20190103222512701/03/19 22:25:31  5-MIN KLFT 040425Z AUTO 28014G19KT 9SM OVC009 11/10 A2991 60 93 -300 280/14G19 RMK AO2 CIG 007V013 T01110100
13976KLFT LFT20190103223011601/03/19 22:30:31  5-MIN KLFT 040430Z AUTO 28012G21KT 10SM OVC011 11/09 A2991 50 89 -300 280/12G21 RMK AO2 T01110094
13976KLFT LFT20190103223511601/03/19 22:35:31  5-MIN KLFT 040435Z AUTO 28012G21KT 10SM OVC011 11/09 A2991 50 89 -300 280/12G21 RMK AO2 T01110094
13976KLFT LFT20190103224011601/03/19 22:40:31  5-MIN KLFT 040440Z AUTO 27010G18KT 10SM OVC011 11/09 A2991 50 89 -300 270/10G18 RMK AO2 T01110094
13976KLFT LFT20190103224511001/03/19 22:45:31  5-MIN KLFT 040445Z AUTO 27011KT 10SM OVC011 11/09 A2991 50 89 -300 270/11 RMK AO2 T01110094
13976KLFT LFT20190103225012301/03/19 22:50:31  5-MIN KLFT 040450Z AUTO 29011G19KT 10SM OVC011 11/09 A2992 50 93 -400 280/11G19 RMK AO2 SLP130 T01060094
13976KLFT LFT20190103225511601/03/19 22:55:31  5-MIN KLFT 040455Z AUTO 29010G19KT 10SM OVC011 11/09 A2992 40 93 -400 290/10G19 RMK AO2 T01060094
13976KLFT LFT20190103230011601/03/19 23:00:31  5-MIN KLFT 040500Z AUTO 27013G18KT 10SM OVC012 11/09 A2992 40 93 -400 270/13G18 RMK AO2 T01060094
13976KLFT LFT20190103230511601/03/19 23:05:31  5-MIN KLFT 040505Z AUTO 28011G18KT 10SM OVC012 11/09 A2992 40 93 -400 280/11G18 RMK AO2 T01060094
13976KLFT LFT20190103231011601/03/19 23:10:31  5-MIN KLFT 040510Z AUTO 27015G19KT 10SM OVC010 11/09 A2993 40 93 -400 270/15G19 RMK AO2 T01060094
13976KLFT LFT20190103231511601/03/19 23:15:31  5-MIN KLFT 040515Z AUTO 28010G19KT 10SM OVC012 11/09 A2992 40 89 -400 270/10G19 RMK AO2 T01060089
13976KLFT LFT20190103232011701/03/19 23:20:31  5-MIN KLFT 040520Z AUTO 27012KT 10SM BKN012 OVC017 11/09 A2992 40 89 -400 260/12 RMK AO2 T01060089
13976KLFT LFT20190103232511701/03/19 23:25:31  5-MIN KLFT 040525Z AUTO 28012KT 10SM SCT010 OVC015 11/09 A2993 40 89 -400 270/12 RMK AO2 T01060089
13976KLFT LFT20190103233011701/03/19 23:30:31  5-MIN KLFT 040530Z AUTO 28011KT 10SM FEW010 OVC018 11/08 A2993 40 86 -400 280/11 RMK AO2 T01060083
13976KLFT LFT20190103233512901/03/19 23:35:31  5-MIN KLFT 040535Z AUTO 28009KT 10SM BKN016 OVC021 11/08 A2992 40 86 -400 280/09 RMK AO2 CIG 008V020 T01060083
13976KLFT LFT20190103234011001/03/19 23:40:31  5-MIN KLFT 040540Z AUTO 28009KT 10SM OVC019 11/08 A2993 40 86 -400 280/09 RMK AO2 T01060083
13976KLFT LFT20190103234511001/03/19 23:45:31  5-MIN KLFT 040545Z AUTO 27008KT 10SM OVC019 11/08 A2993 40 83 -400 270/08 RMK AO2 T01060078
13976KLFT LFT20190103235015101/03/19 23:50:31  5-MIN KLFT 040550Z AUTO 28007G16KT 10SM OVC019 11/08 A2993 40 83 -400 280/07G16 RMK AO2 SLP133 T01060078 10178 20106 401830106 51028
13976KLFT LFT20190103235511601/03/19 23:55:31  5-MIN KLFT 040555Z AUTO 28012G16KT 10SM OVC019 11/08 A2992 40 83 -400 280/12G16 RMK AO2 T01060078
13976KLFT LFT20190104000011001/04/19 00:00:31  5-MIN KLFT 040600Z AUTO 27012KT 10SM OVC019 11/08 A2993 40 83 -400 270/12 RMK AO2 T01060078
13976KLFT LFT20190104000511001/04/19 00:05:31  5-MIN KLFT 040605Z AUTO 27010KT 10SM OVC019 11/08 A2993 40 83 -400 270/10 RMK AO2 T01060078
13976KLFT LFT20190104001011001/04/19 00:10:31  5-MIN KLFT 040610Z AUTO 26011KT 10SM OVC019 11/08 A2992 40 83 -400 260/11 RMK AO2 T01060078
13976KLFT LFT20190104001511001/04/19 00:15:31  5-MIN KLFT 040615Z AUTO 27010KT 10SM OVC020 11/08 A2992 40 83 -400 270/10 RMK AO2 T01060078
13976KLFT LFT20190104002011001/04/19 00:20:31  5-MIN KLFT 040620Z AUTO 27009KT 10SM OVC020 10/08 A2992 40 86 -500 270/09 RMK AO2 T01000078
13976KLFT LFT20190104002511001/04/19 00:25:31  5-MIN KLFT 040625Z AUTO 28010KT 10SM OVC020 10/08 A2992 50 86 -400 280/10 RMK AO2 T01000078
13976KLFT LFT20190104003011001/04/19 00:30:31  5-MIN KLFT 040630Z AUTO 28009KT 10SM OVC020 10/07 A2991 50 83 -400 280/09 RMK AO2 T01000072
13976KLFT LFT20190104003511601/04/19 00:35:31  5-MIN KLFT 040635Z AUTO 27012G17KT 10SM OVC020 10/07 A2991 50 83 -400 270/12G17 RMK AO2 T01000072
13976KLFT LFT20190104004011001/04/19 00:40:31  5-MIN KLFT 040640Z AUTO 27010KT 10SM OVC021 10/07 A2991 50 80 -400 270/10 RMK AO2 T01000067
13976KLFT LFT20190104004511001/04/19 00:45:31  5-MIN KLFT 040645Z AUTO 27012KT 10SM OVC021 10/07 A2991 50 80 -400 270/12 RMK AO2 T01000067
13976KLFT LFT20190104005012401/04/19 00:50:31  5-MIN KLFT 040650Z AUTO 26010KT 10SM BKN018 OVC023 10/07 A2991 50 80 -400 260/10 RMK AO2 SLP128 T01000067
13976KLFT LFT20190104005511001/04/19 00:55:31  5-MIN KLFT 040655Z AUTO 26012KT 10SM OVC018 10/07 A2991 50 83 -400 260/12 RMK AO2 T01000072
13976KLFT LFT20190104010011001/04/19 01:00:31  5-MIN KLFT 040700Z AUTO 27009KT 10SM OVC018 09/07 A2992 50 83 -500 260/09 RMK AO2 T00940067
13976KLFT LFT20190104010511001/04/19 01:05:31  5-MIN KLFT 040705Z AUTO 27010KT 10SM OVC017 09/07 A2992 50 83 -500 270/10 RMK AO2 T00940067
13976KLFT LFT20190104011011001/04/19 01:10:31  5-MIN KLFT 040710Z AUTO 26013KT 10SM OVC017 09/07 A2992 50 83 -500 260/13 RMK AO2 T00940067
13976KLFT LFT20190104011511001/04/19 01:15:31  5-MIN KLFT 040715Z AUTO 26009KT 10SM OVC017 09/06 A2992 40 79 -500 260/09 RMK AO2 T00940061
13976KLFT LFT20190104012011001/04/19 01:20:31  5-MIN KLFT 040720Z AUTO 26009KT 10SM OVC017 09/06 A2992 40 83 -600 260/09 RMK AO2 T00890061
13976KLFT LFT20190104012511601/04/19 01:25:31  5-MIN KLFT 040725Z AUTO 26010G16KT 10SM OVC018 09/06 A2992 40 79 -600 260/10G16 RMK AO2 T00890056
13976KLFT LFT20190104013011601/04/19 01:30:31  5-MIN KLFT 040730Z AUTO 27009G16KT 10SM BKN018 08/06 A2992 40 82 -700 270/09G16 RMK AO2 T00830056
13976KLFT LFT20190104013511601/04/19 01:35:31  5-MIN KLFT 040735Z AUTO 27012G18KT 10SM BKN018 08/06 A2993 40 82 -700 270/12G18 RMK AO2 T00830056
13976KLFT LFT20190104014011601/04/19 01:40:31  5-MIN KLFT 040740Z AUTO 27012G18KT 10SM SCT018 08/06 A2993 30 82 -700 270/12G18 RMK AO2 T00830056
13976KLFT LFT20190104014511001/04/19 01:45:31  5-MIN KLFT 040745Z AUTO 27008KT 10SM FEW019 08/06 A2993 30 82 -700 270/08 RMK AO2 T00830056
13976KLFT LFT20190104015011701/04/19 01:50:31  5-MIN KLFT 040750Z AUTO 27009KT 10SM FEW019 08/06 A2993 30 82 -700 270/09 RMK AO2 SLP136 T00830056
13976KLFT LFT20190104015510701/04/19 01:55:31  5-MIN KLFT 040755Z AUTO 27009KT 10SM CLR 08/06 A2994 30 82 -700 270/09 RMK AO2 T00830056
13976KLFT LFT20190104020011001/04/19 02:00:31  5-MIN KLFT 040800Z AUTO 27008KT 10SM FEW022 08/06 A2994 30 86 -700 270/08 RMK AO2 T00780056
13976KLFT LFT20190104020511001/04/19 02:05:31  5-MIN KLFT 040805Z AUTO 28007KT 10SM FEW022 08/06 A2994 30 86 -700 280/07 RMK AO2 T00780056
13976KLFT LFT20190104021011001/04/19 02:10:31  5-MIN KLFT 040810Z AUTO 27009KT 10SM FEW021 08/06 A2994 30 86 -700 270/09 RMK AO2 T00780056
13976KLFT LFT20190104021511001/04/19 02:15:31  5-MIN KLFT 040815Z AUTO 27009KT 10SM SCT021 08/06 A2994 30 86 -700 270/09 RMK AO2 T00780056
13976KLFT LFT20190104022011001/04/19 02:20:31  5-MIN KLFT 040820Z AUTO 28008KT 10SM SCT019 08/06 A2994 30 86 -700 270/08 RMK AO2 T00780056
13976KLFT LFT20190104022511001/04/19 02:25:31  5-MIN KLFT 040825Z AUTO 27008KT 10SM SCT019 08/06 A2994 30 86 -700 270/08 RMK AO2 T00780056
13976KLFT LFT20190104023011001/04/19 02:30:31  5-MIN KLFT 040830Z AUTO 26009KT 10SM SCT019 08/06 A2995 20 86 -800 260/09 RMK AO2 T00780056
13976KLFT LFT20190104023511001/04/19 02:35:31  5-MIN KLFT 040835Z AUTO 27010KT 10SM SCT019 08/06 A2995 20 86 -800 270/10 RMK AO2 T00780056
13976KLFT LFT20190104024011001/04/19 02:40:31  5-MIN KLFT 040840Z AUTO 27013KT 10SM BKN017 08/06 A2995 20 86 -800 270/13 RMK AO2 T00780056
13976KLFT LFT20190104024511001/04/19 02:45:31  5-MIN KLFT 040845Z AUTO 28012KT 10SM SCT017 08/05 A2995 20 82 -800 280/12 RMK AO2 T00780050
13976KLFT LFT20190104025012301/04/19 02:50:31  5-MIN KLFT 040850Z AUTO 27008KT 10SM FEW017 08/05 A2995 20 82 -800 270/08 RMK AO2 SLP141 T00780050 51012
13976KLFT LFT20190104025511001/04/19 02:55:31  5-MIN KLFT 040855Z AUTO 28009KT 10SM FEW017 07/05 A2995 20 86 -800 280/09 RMK AO2 T00720050
13976KLFT LFT20190104030011001/04/19 03:00:31  5-MIN KLFT 040900Z AUTO 27007KT 10SM FEW016 07/05 A2995 20 86 -800 270/07 RMK AO2 T00720050
13976KLFT LFT20190104030510701/04/19 03:05:31  5-MIN KLFT 040905Z AUTO 27008KT 10SM CLR 07/05 A2995 20 86 -800 270/08 RMK AO2 T00720050
13976KLFT LFT20190104031010701/04/19 03:10:31  5-MIN KLFT 040910Z AUTO 26008KT 10SM CLR 07/05 A2995 20 86 -800 260/08 RMK AO2 T00720050
13976KLFT LFT20190104031510701/04/19 03:15:31  5-MIN KLFT 040915Z AUTO 28008KT 10SM CLR 07/05 A2995 20 86 -800 280/08 RMK AO2 T00720050
13976KLFT LFT20190104032010701/04/19 03:20:31  5-MIN KLFT 040920Z AUTO 27008KT 10SM CLR 07/05 A2995 20 86 -800 270/08 RMK AO2 T00720050
13976KLFT LFT20190104032510701/04/19 03:25:31  5-MIN KLFT 040925Z AUTO 27006KT 10SM CLR 07/05 A2995 20 86 -800 270/06 RMK AO2 T00720050
13976KLFT LFT20190104033010701/04/19 03:30:31  5-MIN KLFT 040930Z AUTO 25005KT 10SM CLR 07/05 A2994 20 89 -900 250/05 RMK AO2 T00670050
13976KLFT LFT20190104033510701/04/19 03:35:31  5-MIN KLFT 040935Z AUTO 26008KT 10SM CLR 07/05 A2994 20 89 -900 260/08 RMK AO2 T00670050
13976KLFT LFT20190104034010701/04/19 03:40:31  5-MIN KLFT 040940Z AUTO 26008KT 10SM CLR 07/05 A2994 30 89 -900 250/08 RMK AO2 T00670050
13976KLFT LFT20190104034510701/04/19 03:45:31  5-MIN KLFT 040945Z AUTO 26008KT 10SM CLR 07/04 A2994 30 86 -900 260/08 RMK AO2 T00670044
13976KLFT LFT20190104035011401/04/19 03:50:31  5-MIN KLFT 040950Z AUTO 26006KT 10SM CLR 07/04 A2994 30 86 -900 260/06 RMK AO2 SLP137 T00670044
13976KLFT LFT20190104035510701/04/19 03:55:31  5-MIN KLFT 040955Z AUTO 25007KT 10SM CLR 07/04 A2993 30 86 -900 250/07 RMK AO2 T00670044
13976KLFT LFT20190104040010701/04/19 04:00:31  5-MIN KLFT 041000Z AUTO 26010KT 10SM CLR 07/04 A2994 30 86 -900 260/10 RMK AO2 T00670044
13976KLFT LFT20190104040510701/04/19 04:05:31  5-MIN KLFT 041005Z AUTO 27008KT 10SM CLR 07/04 A2994 30 86 -900 270/08 RMK AO2 T00670044
13976KLFT LFT20190104041010701/04/19 04:10:31  5-MIN KLFT 041010Z AUTO 26007KT 10SM CLR 07/04 A2994 30 86 -900 260/07 RMK AO2 T00670044
13976KLFT LFT20190104041510701/04/19 04:15:31  5-MIN KLFT 041015Z AUTO 27006KT 10SM CLR 07/04 A2994 30 86 -900 270/06 RMK AO2 T00670044
13976KLFT LFT20190104042010801/04/19 04:20:31  5-MIN KLFT 041020Z AUTO 26006KT 10SM CLR 06/04 A2994 30 89 -1000 260/06 RMK AO2 T00610044
13976KLFT LFT20190104042510801/04/19 04:25:31  5-MIN KLFT 041025Z AUTO 24005KT 10SM CLR 06/04 A2994 30 86 -1000 240/05 RMK AO2 T00610039
13976KLFT LFT20190104043010701/04/19 04:30:31  5-MIN KLFT 041030Z AUTO 24006KT 10SM CLR 06/04 A2994 30 89 -900 240/06 RMK AO2 T00610044
13976KLFT LFT20190104043510701/04/19 04:35:31  5-MIN KLFT 041035Z AUTO 25006KT 10SM CLR 06/04 A2993 30 89 -900 240/06 RMK AO2 T00610044
13976KLFT LFT20190104044010701/04/19 04:40:31  5-MIN KLFT 041040Z AUTO 25006KT 10SM CLR 06/04 A2994 30 89 -900 240/06 RMK AO2 T00610044
13976KLFT LFT20190104044510701/04/19 04:45:31  5-MIN KLFT 041045Z AUTO 24007KT 10SM CLR 06/04 A2994 30 89 -900 240/07 RMK AO2 T00610044
13976KLFT LFT20190104045011401/04/19 04:50:31  5-MIN KLFT 041050Z AUTO 25006KT 10SM CLR 06/04 A2994 30 89 -900 240/06 RMK AO2 SLP137 T00610044
13976KLFT LFT20190104045510701/04/19 04:55:31  5-MIN KLFT 041055Z AUTO 24005KT 10SM CLR 06/04 A2994 30 89 -900 240/05 RMK AO2 T00610044
13976KLFT LFT20190104050010301/04/19 05:00:31  5-MIN KLFT 041100Z 24007KT 10SM CLR 06/04 A2994 30 89 -1000 240/07 RMK AO2 T00610044
13976KLFT LFT20190104050510301/04/19 05:05:31  5-MIN KLFT 041105Z 24006KT 10SM CLR 06/04 A2994 30 89 -1000 240/06 RMK AO2 T00610044
13976KLFT LFT20190104051010301/04/19 05:10:31  5-MIN KLFT 041110Z 24007KT 10SM CLR 06/04 A2994 20 89 -1000 230/07 RMK AO2 T00610044
13976KLFT LFT20190104051510301/04/19 05:15:31  5-MIN KLFT 041115Z 24008KT 10SM CLR 06/04 A2994 20 89 -1000 240/08 RMK AO2 T00610044
13976KLFT LFT20190104052010301/04/19 05:20:31  5-MIN KLFT 041120Z 24008KT 10SM CLR 06/04 A2995 20 89 -1000 240/08 RMK AO2 T00610044
13976KLFT LFT20190104052510301/04/19 05:25:31  5-MIN KLFT 041125Z 25008KT 10SM CLR 06/04 A2995 20 89 -1000 250/08 RMK AO2 T00610044
13976KLFT LFT20190104053010301/04/19 05:30:31  5-MIN KLFT 041130Z 25007KT 10SM CLR 06/04 A2995 20 89 -1000 250/07 RMK AO2 T00610044
13976KLFT LFT20190104053510301/04/19 05:35:31  5-MIN KLFT 041135Z 25007KT 10SM CLR 06/04 A2995 20 89 -1000 250/07 RMK AO2 T00610044
13976KLFT LFT20190104054010301/04/19 05:40:31  5-MIN KLFT 041140Z 25008KT 10SM CLR 06/04 A2995 20 89 -1000 250/08 RMK AO2 T00610044
13976KLFT LFT20190104054510301/04/19 05:45:31  5-MIN KLFT 041145Z 24007KT 10SM CLR 06/04 A2995 10 86 -1000 240/07 RMK AO2 T00610039
13976KLFT LFT20190104055013401/04/19 05:50:31  5-MIN KLFT 041150Z 25006KT 10SM CLR 06/04 A2995 10 89 -1000 250/06 RMK AO2 SLP142 70216 T00560039 10106 20056 53009
13976KLFT LFT20190104055510301/04/19 05:55:31  5-MIN KLFT 041155Z 25007KT 10SM CLR 06/04 A2995 10 89 -1000 240/07 RMK AO2 T00560039
13976KLFT LFT20190104060010301/04/19 06:00:31  5-MIN KLFT 041200Z 25008KT 10SM CLR 06/04 A2995 10 89 -1000 250/08 RMK AO2 T00560039
13976KLFT LFT20190104060510301/04/19 06:05:31  5-MIN KLFT 041205Z 25008KT 10SM CLR 06/04 A2996 10 89 -1000 240/08 RMK AO2 T00560039
13976KLFT LFT20190104061010301/04/19 06:10:31  5-MIN KLFT 041210Z 25007KT 10SM CLR 06/04 A2996 10 89 -1000 240/07 RMK AO2 T00560039
13976KLFT LFT20190104061510301/04/19 06:15:31  5-MIN KLFT 041215Z 25009KT 10SM CLR 06/04 A2996 10 89 -1000 250/09 RMK AO2 T00560039
13976KLFT LFT20190104062010301/04/19 06:20:31  5-MIN KLFT 041220Z 26010KT 10SM CLR 06/04 A2996 10 89 -1000 250/10 RMK AO2 T00560039
13976KLFT LFT20190104062510901/04/19 06:25:31  5-MIN KLFT 041225Z 25006G14KT 10SM CLR 06/04 A2996 10 89 -1000 250/06G14 RMK AO2 T00560039
13976KLFT LFT20190104063010201/04/19 06:30:31  5-MIN KLFT 041230Z 26010KT 10SM CLR 06/04 A2996 0 89 -1000 260/10 RMK AO2 T00560039
13976KLFT LFT20190104063510201/04/19 06:35:31  5-MIN KLFT 041235Z 25011KT 10SM CLR 06/03 A2997 0 85 -1000 250/11 RMK AO2 T00560033
13976KLFT LFT20190104064010201/04/19 06:40:31  5-MIN KLFT 041240Z 25009KT 10SM CLR 06/03 A2997 0 85 -1000 250/09 RMK AO2 T00560033
13976KLFT LFT20190104064510201/04/19 06:45:31  5-MIN KLFT 041245Z 26008KT 10SM CLR 06/03 A2997 0 85 -1100 260/08 RMK AO2 T00560033
13976KLFT LFT20190104065010901/04/19 06:50:31  5-MIN KLFT 041250Z 26009KT 10SM CLR 06/03 A2997 0 85 -1100 260/09 RMK AO2 SLP148 T00560033
13976KLFT LFT20190104065510201/04/19 06:55:31  5-MIN KLFT 041255Z 26009KT 10SM CLR 06/03 A2997 0 82 -1000 260/09 RMK AO2 T00610033
13976KLFT LFT20190104070010201/04/19 07:00:31  5-MIN KLFT 041300Z 26008KT 10SM CLR 06/03 A2998 0 85 -1100 260/08 RMK AO2 T00560033
13976KLFT LFT20190104070510201/04/19 07:05:31  5-MIN KLFT 041305Z 26010KT 10SM CLR 06/03 A2998 0 85 -1100 260/10 RMK AO2 T00560033
13976KLFT LFT20190104071010201/04/19 07:10:31  5-MIN KLFT 041310Z 26009KT 10SM CLR 06/03 A2998 0 82 -1000 260/09 RMK AO2 T00610033
13976KLFT LFT20190104071510201/04/19 07:15:31  5-MIN KLFT 041315Z 27009KT 10SM CLR 06/03 A2997 0 82 -1000 270/09 RMK AO2 T00610033
13976KLFT LFT20190104072010201/04/19 07:20:31  5-MIN KLFT 041320Z 26008KT 10SM CLR 06/03 A2998 0 85 -1100 260/08 RMK AO2 T00560033
13976KLFT LFT20190104072510201/04/19 07:25:31  5-MIN KLFT 041325Z 27008KT 10SM CLR 06/03 A2998 0 85 -1100 260/08 RMK AO2 T00560033
13976KLFT LFT20190104073010401/04/19 07:30:31  5-MIN KLFT 041330Z 26008KT 10SM CLR 06/03 A2998 -10 82 -1000 260/08 RMK AO2 T00610033
13976KLFT LFT20190104073511001/04/19 07:35:31  5-MIN KLFT 041335Z 26008G15KT 10SM CLR 06/03 A2998 -10 82 -1000 260/08G15 RMK AO2 T00610033
13976KLFT LFT20190104074011001/04/19 07:40:31  5-MIN KLFT 041340Z 27010G15KT 10SM CLR 06/03 A2999 -10 82 -1000 270/10G15 RMK AO2 T00610033
13976KLFT LFT20190104074510401/04/19 07:45:31  5-MIN KLFT 041345Z 26008KT 10SM CLR 06/03 A2999 -10 82 -1000 260/08 RMK AO2 T00610033
13976KLFT LFT20190104075011101/04/19 07:50:31  5-MIN KLFT 041350Z 26009KT 10SM CLR 06/03 A2999 -10 82 -1000 260/09 RMK AO2 SLP154 T00610033
13976KLFT LFT20190104075510401/04/19 07:55:31  5-MIN KLFT 041355Z 26009KT 10SM CLR 06/03 A2999 -10 82 -1000 260/09 RMK AO2 T00610033
13976KLFT LFT20190104080010301/04/19 08:00:31  5-MIN KLFT 041400Z 27008KT 10SM CLR 07/03 A2999 -10 79 -900 270/08 RMK AO2 T00670033
13976KLFT LFT20190104080510301/04/19 08:05:31  5-MIN KLFT 041405Z 26009KT 10SM CLR 07/04 A2999 -20 82 -900 260/09 RMK AO2 T00670039
13976KLFT LFT20190104081010301/04/19 08:10:31  5-MIN KLFT 041410Z 27008KT 10SM CLR 07/04 A2999 -20 82 -900 260/08 RMK AO2 T00670039
13976KLFT LFT20190104081510301/04/19 08:15:31  5-MIN KLFT 041415Z 26009KT 10SM CLR 07/04 A2999 -20 82 -900 260/09 RMK AO2 T00670039
13976KLFT LFT20190104082010301/04/19 08:20:31  5-MIN KLFT 041420Z 26010KT 10SM CLR 07/04 A3000 -20 79 -900 260/10 RMK AO2 T00720039
13976KLFT LFT20190104082510301/04/19 08:25:31  5-MIN KLFT 041425Z 28010KT 10SM CLR 07/04 A3000 -20 79 -900 280/10 RMK AO2 T00720039
13976KLFT LFT20190104083010301/04/19 08:30:31  5-MIN KLFT 041430Z 27011KT 10SM CLR 07/03 A3000 -30 76 -900 270/11 RMK AO2 T00720033
13976KLFT LFT20190104083510301/04/19 08:35:31  5-MIN KLFT 041435Z 27009KT 10SM CLR 07/03 A3000 -30 76 -900 270/09 RMK AO2 T00720033
13976KLFT LFT20190104084010301/04/19 08:40:31  5-MIN KLFT 041440Z 27011KT 10SM CLR 08/03 A3001 -30 73 -800 270/11 RMK AO2 T00780033
13976KLFT LFT20190104084510901/04/19 08:45:31  5-MIN KLFT 041445Z 27014G21KT 10SM CLR 08/03 A3001 -40 73 -800 260/14G21 RMK AO2 T00780033
13976KLFT LFT20190104085012201/04/19 08:50:31  5-MIN KLFT 041450Z 27010G21KT 10SM CLR 08/04 A3001 -40 76 -800 270/10G21 RMK AO2 SLP162 T00780039 53000
13976KLFT LFT20190104085510901/04/19 08:55:31  5-MIN KLFT 041455Z 28012G19KT 10SM CLR 08/04 A3002 -40 76 -800 280/12G19 RMK AO2 T00780039
13976KLFT LFT20190104090010901/04/19 09:00:31  5-MIN KLFT 041500Z 27012G19KT 10SM CLR 08/03 A3002 -40 73 -800 270/12G19 RMK AO2 T00780033
13976KLFT LFT20190104090510901/04/19 09:05:31  5-MIN KLFT 041505Z 27012G19KT 10SM CLR 08/04 A3002 -40 73 -800 270/12G19 RMK AO2 T00830039
13976KLFT LFT20190104091010901/04/19 09:10:31  5-MIN KLFT 041510Z 27010G18KT 10SM CLR 08/04 A3002 -40 73 -800 270/10G18 RMK AO2 T00830039
13976KLFT LFT20190104091510301/04/19 09:15:31  5-MIN KLFT 041515Z 27012KT 10SM CLR 08/04 A3002 -40 73 -800 270/12 RMK AO2 T00830039
13976KLFT LFT20190104092010301/04/19 09:20:31  5-MIN KLFT 041520Z 28013KT 10SM CLR 08/04 A3002 -40 73 -800 280/13 RMK AO2 T00830039
13976KLFT LFT20190104092510301/04/19 09:25:31  5-MIN KLFT 041525Z 28013KT 10SM CLR 09/04 A3003 -50 71 -700 280/13 RMK AO2 T00890039
13976KLFT LFT20190104093010301/04/19 09:30:31  5-MIN KLFT 041530Z 28012KT 10SM CLR 09/04 A3003 -50 71 -700 280/12 RMK AO2 T00890039
13976KLFT LFT20190104093510901/04/19 09:35:31  5-MIN KLFT 041535Z 30014G20KT 10SM CLR 09/04 A3003 -50 71 -700 290/14G20 RMK AO2 T00890039
13976KLFT LFT20190104094010901/04/19 09:40:31  5-MIN KLFT 041540Z 29011G20KT 10SM CLR 09/04 A3003 -50 68 -600 290/11G20 RMK AO2 T00940039
13976KLFT LFT20190104094510901/04/19 09:45:31  5-MIN KLFT 041545Z 30015G19KT 10SM CLR 09/04 A3003 -50 68 -600 290/15G19 RMK AO2 T00940039
13976KLFT LFT20190104095011601/04/19 09:50:31  5-MIN KLFT 041550Z 30012G19KT 10SM CLR 09/04 A3003 -50 68 -600 300/12G19 RMK AO2 SLP167 T00940039
13976KLFT LFT20190104095510901/04/19 09:55:31  5-MIN KLFT 041555Z 29016G20KT 10SM CLR 09/04 A3003 -50 68 -600 290/16G20 RMK AO2 T00940039
13976KLFT LFT20190104100010901/04/19 10:00:31  5-MIN KLFT 041600Z 29014G20KT 10SM CLR 09/04 A3003 -50 68 -600 290/14G20 RMK AO2 T00940039
13976KLFT LFT20190104100510901/04/19 10:05:31  5-MIN KLFT 041605Z 29016G20KT 10SM CLR 09/04 A3003 -50 68 -600 290/16G20 RMK AO2 T00940039
13976KLFT LFT20190104101010301/04/19 10:10:31  5-MIN KLFT 041610Z 30014KT 10SM CLR 09/04 A3003 -50 68 -600 290/14 RMK AO2 T00940039
13976KLFT LFT20190104101510301/04/19 10:15:31  5-MIN KLFT 041615Z 29011KT 10SM CLR 10/04 A3003 -50 65 -600 290/11 RMK AO2 T01000039
13976KLFT LFT20190104102010301/04/19 10:20:31  5-MIN KLFT 041620Z 29014KT 10SM CLR 10/04 A3003 -50 65 -600 290/14 RMK AO2 T01000039
13976KLFT LFT20190104102510301/04/19 10:25:31  5-MIN KLFT 041625Z 28012KT 10SM CLR 10/04 A3002 -50 65 -600 280/12 RMK AO2 T01000039
13976KLFT LFT20190104103010901/04/19 10:30:31  5-MIN KLFT 041630Z 29012G18KT 10SM CLR 10/04 A3002 -50 65 -600 290/12G18 RMK AO2 T01000039
13976KLFT LFT20190104103510901/04/19 10:35:31  5-MIN KLFT 041635Z 30012G18KT 10SM CLR 10/04 A3002 -40 65 -600 300/12G18 RMK AO2 T01000039
13976KLFT LFT20190104104010301/04/19 10:40:31  5-MIN KLFT 041640Z 30009KT 10SM CLR 11/04 A3002 -40 66 -500 290/09 RMK AO2 T01060044
13976KLFT LFT20190104104510901/04/19 10:45:31  5-MIN KLFT 041645Z 30012G18KT 10SM CLR 11/04 A3002 -40 66 -500 300/12G18 RMK AO2 T01060044
13976KLFT LFT20190104105011601/04/19 10:50:31  5-MIN KLFT 041650Z 30011G18KT 10SM CLR 11/04 A3001 -40 63 -400 300/11G18 RMK AO2 SLP163 T01110044
13976KLFT LFT20190104105510901/04/19 10:55:31  5-MIN KLFT 041655Z 28016G20KT 10SM CLR 11/04 A3001 -30 61 -400 280/16G20 RMK AO2 T01110039
13976KLFT LFT20190104110010901/04/19 11:00:31  5-MIN KLFT 041700Z 28012G20KT 10SM CLR 11/04 A3001 -30 61 -400 280/12G20 RMK AO2 T01110039
13976KLFT LFT20190104110510301/04/19 11:05:31  5-MIN KLFT 041705Z 30012KT 10SM CLR 12/04 A3000 -30 61 -300 300/12 RMK AO2 T01170044
13976KLFT LFT20190104111010901/04/19 11:10:31  5-MIN KLFT 041710Z 29015G21KT 10SM CLR 12/04 A3000 -20 61 -300 290/15G21 RMK AO2 T01170044
13976KLFT LFT20190104111510901/04/19 11:15:31  5-MIN KLFT 041715Z 29013G21KT 10SM CLR 12/04 A3000 -20 61 -300 290/13G21 RMK AO2 T01170044
13976KLFT LFT20190104112010301/04/19 11:20:31  5-MIN KLFT 041720Z 28012KT 10SM CLR 12/04 A2999 -20 61 -300 280/12 RMK AO2 T01170044
13976KLFT LFT20190104112510301/04/19 11:25:31  5-MIN KLFT 041725Z 30011KT 10SM CLR 12/04 A2999 -20 61 -300 300/11 RMK AO2 T01170044
13976KLFT LFT20190104113010301/04/19 11:30:31  5-MIN KLFT 041730Z 30013KT 10SM CLR 12/04 A2999 -10 61 -300 300/13 RMK AO2 T01170044
13976KLFT LFT20190104113510301/04/19 11:35:31  5-MIN KLFT 041735Z 30011KT 10SM CLR 11/04 A2998 -10 63 -400 300/11 RMK AO2 T01110044
13976KLFT LFT20190104114010901/04/19 11:40:31  5-MIN KLFT 041740Z 28013G17KT 10SM CLR 12/04 A2998 -10 61 -300 280/13G17 RMK AO2 T01170044
13976KLFT LFT20190104114510701/04/19 11:45:31  5-MIN KLFT 041745Z 27012G17KT 10SM CLR 12/04 A2997 0 61 -300 270/12G17 RMK AO2 T01170044
13976KLFT LFT20190104115012601/04/19 11:50:31  5-MIN KLFT 041750Z 28008KT 10SM CLR 12/04 A2997 0 61 -300 280/08 RMK AO2 SLP148 T01170044 10117 20056 53021
13976KLFT LFT20190104115510101/04/19 11:55:31  5-MIN KLFT 041755Z 28010KT 10SM CLR 12/04 A2997 0 61 -300 280/10 RMK AO2 T01170044
13976KLFT LFT20190104120010801/04/19 12:00:31  5-MIN KLFT 041800Z 28012G18KT 10SM CLR 12/05 A2996 10 61 -200 270/12G18 RMK AO2 T01220050
13976KLFT LFT20190104120510801/04/19 12:05:31  5-MIN KLFT 041805Z 26014G19KT 10SM CLR 12/04 A2996 10 59 -200 260/14G19 RMK AO2 T01220044
13976KLFT LFT20190104121010201/04/19 12:10:31  5-MIN KLFT 041810Z 26015KT 10SM CLR 12/04 A2996 10 59 -200 260/15 RMK AO2 T01220044
13976KLFT LFT20190104121510201/04/19 12:15:31  5-MIN KLFT 041815Z 27012KT 10SM CLR 12/04 A2996 10 59 -200 270/12 RMK AO2 T01220044
13976KLFT LFT20190104122010201/04/19 12:20:31  5-MIN KLFT 041820Z 28009KT 10SM CLR 13/05 A2996 10 59 -200 280/09 RMK AO2 T01280050
13976KLFT LFT20190104122510201/04/19 12:25:31  5-MIN KLFT 041825Z 29011KT 10SM CLR 13/06 A2995 10 61 -200 290/11 RMK AO2 T01280056
13976KLFT LFT20190104123010201/04/19 12:30:31  5-MIN KLFT 041830Z 28015KT 10SM CLR 13/05 A2995 10 59 -200 270/15 RMK AO2 T01280050
13976KLFT LFT20190104123510201/04/19 12:35:31  5-MIN KLFT 041835Z 27013KT 10SM CLR 12/05 A2995 20 61 -200 270/13 RMK AO2 T01220050
13976KLFT LFT20190104124010201/04/19 12:40:31  5-MIN KLFT 041840Z 28010KT 10SM CLR 13/05 A2995 20 59 -200 280/10 RMK AO2 T01280050
13976KLFT LFT20190104124510201/04/19 12:45:31  5-MIN KLFT 041845Z 28013KT 10SM CLR 13/05 A2995 20 59 -200 280/13 RMK AO2 T01280050
13976KLFT LFT20190104125010901/04/19 12:50:31  5-MIN KLFT 041850Z 31014KT 10SM CLR 13/05 A2995 20 59 -200 310/14 RMK AO2 SLP141 T01280050
13976KLFT LFT20190104125510801/04/19 12:55:31  5-MIN KLFT 041855Z 30012G20KT 10SM CLR 13/05 A2995 20 59 -200 300/12G20 RMK AO2 T01280050
13976KLFT LFT20190104130010801/04/19 13:00:31  5-MIN KLFT 041900Z 30013G20KT 10SM CLR 13/06 A2995 10 61 -200 300/13G20 RMK AO2 T01280056
13976KLFT LFT20190104231010501/04/19 23:10:31  5-MIN KLFT 050510Z 00000KT 10SM CLR 06/06 A3008 -100 96 -1100 000/00 RMK AO2 T00610056
13976KLFT LFT20190104231510501/04/19 23:15:31  5-MIN KLFT 050515Z 00000KT 10SM CLR 06/06 A3008 -100 96 -1100 000/00 RMK AO2 T00610056
13976KLFT LFT20190104232010501/04/19 23:20:31  5-MIN KLFT 050520Z 00000KT 10SM CLR 06/06 A3008 -100 96 -1100 000/00 RMK AO2 T00610056
13976KLFT LFT20190104232510501/04/19 23:25:31  5-MIN KLFT 050525Z 00000KT 10SM CLR 06/06 A3008 -100 96 -1100 000/00 RMK AO2 T00610056
13976KLFT LFT20190104233010501/04/19 23:30:31  5-MIN KLFT 050530Z 00000KT 10SM CLR 07/06 A3009 -110 93 -1100 000/00 RMK AO2 T00670056
13976KLFT LFT20190104233510501/04/19 23:35:31  5-MIN KLFT 050535Z 00000KT 10SM CLR 07/06 A3009 -110 96 -1100 000/00 RMK AO2 T00670061
13976KLFT LFT20190104234010501/04/19 23:40:31  5-MIN KLFT 050540Z 00000KT 10SM CLR 07/06 A3009 -110 93 -1100 000/00 RMK AO2 T00670056
13976KLFT LFT20190104234510501/04/19 23:45:31  5-MIN KLFT 050545Z 00000KT 10SM CLR 06/05 A3009 -110 93 -1100 000/00 RMK AO2 T00610050
13976KLFT LFT20190104235014001/04/19 23:50:31  5-MIN KLFT 050550Z 00000KT 10SM CLR 06/05 A3009 -110 93 -1100 000/00 RMK AO2 SLP190 T00610050 10083 20056 401280056 51019
13976KLFT LFT20190104235510501/04/19 23:55:31  5-MIN KLFT 050555Z 00000KT 10SM CLR 06/05 A3009 -110 93 -1100 000/00 RMK AO2 T00610050
13976KLFT LFT20190105000010501/05/19 00:00:31  5-MIN KLFT 050600Z 00000KT 10SM CLR 06/05 A3010 -110 93 -1100 000/00 RMK AO2 T00610050
13976KLFT LFT20190105000510501/05/19 00:05:31  5-MIN KLFT 050605Z 00000KT 10SM CLR 06/05 A3010 -120 93 -1100 000/00 RMK AO2 T00610050
13976KLFT LFT20190105001010501/05/19 00:10:31  5-MIN KLFT 050610Z 00000KT 10SM CLR 07/06 A3010 -120 93 -1100 000/00 RMK AO2 T00670056
13976KLFT LFT20190105001510501/05/19 00:15:31  5-MIN KLFT 050615Z 00000KT 10SM CLR 06/06 A3010 -120 96 -1100 000/00 RMK AO2 T00610056
13976KLFT LFT20190105002010501/05/19 00:20:31  5-MIN KLFT 050620Z 00000KT 10SM CLR 06/05 A3010 -120 93 -1100 000/00 RMK AO2 T00610050
13976KLFT LFT20190105002510501/05/19 00:25:31  5-MIN KLFT 050625Z 00000KT 10SM CLR 06/05 A3011 -120 96 -1200 000/00 RMK AO2 T00560050
13976KLFT LFT20190105003010501/05/19 00:30:31  5-MIN KLFT 050630Z 00000KT 10SM CLR 06/05 A3011 -120 96 -1200 000/00 RMK AO2 T00560050
13976KLFT LFT20190105003510501/05/19 00:35:31  5-MIN KLFT 050635Z 00000KT 10SM CLR 06/05 A3011 -130 96 -1200 000/00 RMK AO2 T00560050
13976KLFT LFT20190105004010501/05/19 00:40:31  5-MIN KLFT 050640Z 20003KT 10SM CLR 06/05 A3011 -130 96 -1200 200/03 RMK AO2 T00560050
13976KLFT LFT20190105004510501/05/19 00:45:31  5-MIN KLFT 050645Z 21003KT 10SM CLR 06/05 A3012 -130 96 -1200 200/03 RMK AO2 T00560050
13976KLFT LFT20190105005011201/05/19 00:50:31  5-MIN KLFT 050650Z 00000KT 9SM CLR 04/04 A3012 -130 100 -1400 000/00 RMK AO2 SLP198 T00440044
13976KLFT LFT20190105005510401/05/19 00:55:31  5-MIN KLFT 050655Z 22003KT 9SM CLR 04/04 A3012 -140 96 -1400 220/03 RMK AO2 T00440039
13976KLFT LFT20190105010010501/05/19 01:00:31  5-MIN KLFT 050700Z 22003KT 10SM CLR 05/04 A3012 -140 96 -1300 220/03 RMK AO2 T00500044
13976KLFT LFT20190105010510601/05/19 01:05:31  5-MIN KLFT 050705Z 22003KT 10SM CLR 05/05 A3012 -140 100 -1300 220/03 RMK AO2 T00500050
13976KLFT LFT20190105011010601/05/19 01:10:31  5-MIN KLFT 050710Z 21003KT 10SM CLR 05/05 A3012 -140 100 -1300 210/03 RMK AO2 T00500050
13976KLFT LFT20190105011510601/05/19 01:15:31  5-MIN KLFT 050715Z 20003KT 10SM CLR 05/05 A3012 -140 100 -1300 200/03 RMK AO2 T00500050
13976KLFT LFT20190105012010501/05/19 01:20:31  5-MIN KLFT 050720Z 00000KT 9SM CLR 06/06 A3012 -140 100 -1200 000/00 RMK AO2 T00560056
13976KLFT LFT20190105012510601/05/19 01:25:31  5-MIN KLFT 050725Z 00000KT 10SM CLR 06/06 A3012 -140 100 -1200 000/00 RMK AO2 T00560056
13976KLFT LFT20190105013010601/05/19 01:30:31  5-MIN KLFT 050730Z 00000KT 10SM CLR 06/06 A3012 -140 100 -1200 000/00 RMK AO2 T00560056
13976KLFT LFT20190105013510501/05/19 01:35:31  5-MIN KLFT 050735Z 00000KT 10SM CLR 06/05 A3012 -140 96 -1200 000/00 RMK AO2 T00560050
13976KLFT LFT20190105014010501/05/19 01:40:31  5-MIN KLFT 050740Z 00000KT 10SM CLR 06/04 A3013 -140 89 -1200 000/00 RMK AO2 T00610044
13976KLFT LFT20190105014510501/05/19 01:45:31  5-MIN KLFT 050745Z 00000KT 10SM CLR 06/05 A3013 -140 96 -1200 000/00 RMK AO2 T00560050
13976KLFT LFT20190105015011101/05/19 01:50:31  5-MIN KLFT 050750Z 00000KT 9SM CLR 06/04 A3013 -140 92 -1200 000/00 RMK AO2 SLP202 T00560044
13976KLFT LFT20190105015510401/05/19 01:55:31  5-MIN KLFT 050755Z 00000KT 9SM CLR 04/04 A3013 -150 96 -1400 000/00 RMK AO2 T00440039
13976KLFT LFT20190105020010601/05/19 02:00:31  5-MIN KLFT 050800Z 00000KT 10SM CLR 04/04 A3013 -150 100 -1400 000/00 RMK AO2 T00440044
13976KLFT LFT20190105020510501/05/19 02:05:31  5-MIN KLFT 050805Z 00000KT 10SM CLR 05/04 A3013 -140 96 -1300 000/00 RMK AO2 T00500044
13976KLFT LFT20190105021010501/05/19 02:10:31  5-MIN KLFT 050810Z 00000KT 10SM CLR 06/05 A3013 -150 96 -1200 000/00 RMK AO2 T00560050
13976KLFT LFT20190105021510601/05/19 02:15:31  5-MIN KLFT 050815Z 20003KT 10SM CLR 06/06 A3013 -150 100 -1200 200/03 RMK AO2 T00560056
13976KLFT LFT20190105022010501/05/19 02:20:31  5-MIN KLFT 050820Z 00000KT 9SM CLR 05/05 A3013 -150 100 -1300 000/00 RMK AO2 T00500050
13976KLFT LFT20190105022510501/05/19 02:25:31  5-MIN KLFT 050825Z 00000KT 9SM CLR 06/06 A3014 -150 100 -1200 000/00 RMK AO2 T00560056
13976KLFT LFT20190105023010501/05/19 02:30:31  5-MIN KLFT 050830Z 00000KT 10SM CLR 06/06 A3014 -150 96 -1200 000/00 RMK AO2 T00610056
13976KLFT LFT20190105023510501/05/19 02:35:31  5-MIN KLFT 050835Z 00000KT 10SM CLR 06/06 A3014 -150 96 -1200 000/00 RMK AO2 T00610056
13976KLFT LFT20190105024010501/05/19 02:40:31  5-MIN KLFT 050840Z 00000KT 10SM CLR 07/06 A3014 -150 96 -1100 000/00 RMK AO2 T00670061
13976KLFT LFT20190105024510501/05/19 02:45:31  5-MIN KLFT 050845Z 00000KT 10SM CLR 06/06 A3014 -150 96 -1200 000/00 RMK AO2 T00610056
13976KLFT LFT20190105025011701/05/19 02:50:31  5-MIN KLFT 050850Z 00000KT 9SM CLR 06/05 A3014 -150 93 -1200 000/00 RMK AO2 SLP204 T00610050 53008
13976KLFT LFT20190105025510401/05/19 02:55:31  5-MIN KLFT 050855Z 00000KT 9SM CLR 07/06 A3014 -150 93 -1100 000/00 RMK AO2 T00670056
13976KLFT LFT20190105030010401/05/19 03:00:31  5-MIN KLFT 050900Z 00000KT 8SM CLR 06/05 A3014 -150 96 -1200 000/00 RMK AO2 T00560050
13976KLFT LFT20190105030510701/05/19 03:05:31  5-MIN KLFT 050905Z 00000KT 6SM BR CLR 05/04 A3014 -150 96 -1300 000/00 RMK AO2 T00500044
13976KLFT LFT20190105031010501/05/19 03:10:31  5-MIN KLFT 050910Z 00000KT 7SM CLR 04/04 A3014 -150 100 -1400 000/00 RMK AO2 T00440044
13976KLFT LFT20190105031510401/05/19 03:15:31  5-MIN KLFT 050915Z 00000KT 9SM CLR 04/04 A3014 -150 96 -1400 000/00 RMK AO2 T00440039
13976KLFT LFT20190105032010401/05/19 03:20:31  5-MIN KLFT 050920Z 00000KT 8SM CLR 05/04 A3014 -150 96 -1300 000/00 RMK AO2 T00500044
13976KLFT LFT20190105032510501/05/19 03:25:31  5-MIN KLFT 050925Z 00000KT 8SM CLR 05/05 A3014 -150 100 -1300 000/00 RMK AO2 T00500050
13976KLFT LFT20190105033010501/05/19 03:30:31  5-MIN KLFT 050930Z 00000KT 8SM CLR 05/05 A3014 -150 100 -1300 000/00 RMK AO2 T00500050
13976KLFT LFT20190105033510501/05/19 03:35:31  5-MIN KLFT 050935Z 00000KT 9SM CLR 05/05 A3014 -150 100 -1300 000/00 RMK AO2 T00500050
13976KLFT LFT20190105034010501/05/19 03:40:31  5-MIN KLFT 050940Z 00000KT 9SM CLR 04/04 A3014 -150 100 -1400 000/00 RMK AO2 T00440044
13976KLFT LFT20190105034510401/05/19 03:45:31  5-MIN KLFT 050945Z 00000KT 9SM CLR 05/04 A3014 -150 96 -1300 000/00 RMK AO2 T00500044
13976KLFT LFT20190105035011201/05/19 03:50:31  5-MIN KLFT 050950Z 00000KT 9SM CLR 05/05 A3014 -150 100 -1300 000/00 RMK AO2 SLP205 T00500050
13976KLFT LFT20190105035510501/05/19 03:55:31  5-MIN KLFT 050955Z 00000KT 10SM CLR 06/05 A3014 -150 96 -1200 000/00 RMK AO2 T00560050
13976KLFT LFT20190105040010601/05/19 04:00:31  5-MIN KLFT 051000Z 00000KT 10SM CLR 06/06 A3014 -150 100 -1200 000/00 RMK AO2 T00560056
13976KLFT LFT20190105040510601/05/19 04:05:31  5-MIN KLFT 051005Z 00000KT 10SM CLR 06/06 A3014 -150 100 -1200 000/00 RMK AO2 T00560056
13976KLFT LFT20190105041010501/05/19 04:10:31  5-MIN KLFT 051010Z 00000KT 10SM CLR 06/04 A3013 -150 92 -1200 000/00 RMK AO2 T00560044
13976KLFT LFT20190105041510501/05/19 04:15:31  5-MIN KLFT 051015Z 00000KT 10SM CLR 06/04 A3013 -150 89 -1200 000/00 RMK AO2 T00560039
13976KLFT LFT20190105042010501/05/19 04:20:31  5-MIN KLFT 051020Z 00000KT 10SM CLR 06/04 A3014 -150 89 -1200 000/00 RMK AO2 T00560039
13976KLFT LFT20190105042510501/05/19 04:25:31  5-MIN KLFT 051025Z 00000KT 10SM CLR 06/04 A3014 -150 89 -1200 000/00 RMK AO2 T00560039
13976KLFT LFT20190105043010401/05/19 04:30:31  5-MIN KLFT 051030Z 00000KT 9SM CLR 06/04 A3014 -150 92 -1200 000/00 RMK AO2 T00560044
13976KLFT LFT20190105043510401/05/19 04:35:31  5-MIN KLFT 051035Z 00000KT 9SM CLR 06/05 A3014 -150 96 -1200 000/00 RMK AO2 T00560050
13976KLFT LFT20190105044010501/05/19 04:40:31  5-MIN KLFT 051040Z 00000KT 10SM CLR 06/05 A3014 -150 96 -1200 000/00 RMK AO2 T00560050
13976KLFT LFT20190105044510401/05/19 04:45:31  5-MIN KLFT 051045Z 00000KT 9SM CLR 05/04 A3014 -150 96 -1300 000/00 RMK AO2 T00500044
13976KLFT LFT20190105045011101/05/19 04:50:31  5-MIN KLFT 051050Z 00000KT 8SM CLR 04/04 A3014 -150 96 -1400 000/00 RMK AO2 SLP205 T00440039
13976KLFT LFT20190105045510401/05/19 04:55:31  5-MIN KLFT 051055Z 00000KT 7SM CLR 05/04 A3014 -150 96 -1300 000/00 RMK AO2 T00500044
13976KLFT LFT20190105050010401/05/19 05:00:31  5-MIN KLFT 051100Z 00000KT 7SM CLR 05/04 A3014 -150 96 -1300 000/00 RMK AO2 T00500044
13976KLFT LFT20190105050510401/05/19 05:05:31  5-MIN KLFT 051105Z 00000KT 7SM CLR 05/04 A3014 -150 96 -1300 000/00 RMK AO2 T00500044
13976KLFT LFT20190105051010501/05/19 05:10:31  5-MIN KLFT 051110Z 00000KT 7SM CLR 05/05 A3014 -150 100 -1300 000/00 RMK AO2 T00500050
13976KLFT LFT20190105051510401/05/19 05:15:31  5-MIN KLFT 051115Z 22003KT 7SM CLR 04/04 A3014 -160 96 -1400 220/03 RMK AO2 T00440039
13976KLFT LFT20190105052010501/05/19 05:20:31  5-MIN KLFT 051120Z 22004KT 7SM CLR 03/03 A3014 -160 100 -1500 220/04 RMK AO2 T00330033
13976KLFT LFT20190105052510501/05/19 05:25:31  5-MIN KLFT 051125Z 22003KT 8SM CLR 03/03 A3015 -160 100 -1500 220/03 RMK AO2 T00330033
13976KLFT LFT20190105053010501/05/19 05:30:31  5-MIN KLFT 051130Z 00000KT 8SM CLR 04/04 A3015 -160 100 -1500 000/00 RMK AO2 T00390039
13976KLFT LFT20190105053510501/05/19 05:35:31  5-MIN KLFT 051135Z 00000KT 9SM CLR 04/04 A3015 -160 100 -1400 000/00 RMK AO2 T00440044
13976KLFT LFT20190105054010601/05/19 05:40:31  5-MIN KLFT 051140Z 00000KT 10SM CLR 04/04 A3015 -160 100 -1400 000/00 RMK AO2 T00440044
13976KLFT LFT20190105054510601/05/19 05:45:31  5-MIN KLFT 051145Z 00000KT 10SM CLR 04/04 A3015 -160 100 -1400 000/00 RMK AO2 T00440044
13976KLFT LFT20190105055013001/05/19 05:50:31  5-MIN KLFT 051150Z 00000KT 8SM CLR 04/04 A3015 -160 100 -1400 000/00 RMK AO2 SLP209 T00440044 10067 20033 51015
13976KLFT LFT20190105055510501/05/19 05:55:31  5-MIN KLFT 051155Z 00000KT 8SM CLR 04/04 A3015 -160 100 -1400 000/00 RMK AO2 T00440044
13976KLFT LFT20190105060010401/05/19 06:00:31  5-MIN KLFT 051200Z 00000KT 9SM CLR 04/04 A3015 -160 96 -1400 000/00 RMK AO2 T00440039
13976KLFT LFT20190105060510501/05/19 06:05:31  5-MIN KLFT 051205Z 00000KT 9SM CLR 04/04 A3015 -170 100 -1400 000/00 RMK AO2 T00440044
13976KLFT LFT20190105061010501/05/19 06:10:31  5-MIN KLFT 051210Z 00000KT 9SM CLR 04/04 A3015 -170 100 -1400 000/00 RMK AO2 T00440044
13976KLFT LFT20190105061510501/05/19 06:15:31  5-MIN KLFT 051215Z 00000KT 9SM CLR 04/04 A3015 -160 100 -1400 000/00 RMK AO2 T00440044
13976KLFT LFT20190105062010501/05/19 06:20:31  5-MIN KLFT 051220Z 00000KT 8SM CLR 04/04 A3015 -160 100 -1400 000/00 RMK AO2 T00440044
13976KLFT LFT20190105062510401/05/19 06:25:31  5-MIN KLFT 051225Z 00000KT 8SM CLR 05/04 A3015 -160 92 -1300 000/00 RMK AO2 T00500039
13976KLFT LFT20190105063010401/05/19 06:30:31  5-MIN KLFT 051230Z 00000KT 9SM CLR 05/04 A3015 -160 96 -1300 000/00 RMK AO2 T00500044
13976KLFT LFT20190105063510401/05/19 06:35:31  5-MIN KLFT 051235Z 00000KT 9SM CLR 05/04 A3015 -160 96 -1300 000/00 RMK AO2 T00500044
13976KLFT LFT20190105064010401/05/19 06:40:31  5-MIN KLFT 051240Z 00000KT 9SM CLR 06/04 A3015 -160 92 -1300 000/00 RMK AO2 T00560044
13976KLFT LFT20190105064510401/05/19 06:45:31  5-MIN KLFT 051245Z 00000KT 9SM CLR 06/04 A3015 -160 89 -1200 000/00 RMK AO2 T00610044
13976KLFT LFT20190105065011101/05/19 06:50:31  5-MIN KLFT 051250Z 00000KT 9SM CLR 05/04 A3015 -160 96 -1300 000/00 RMK AO2 SLP209 T00500044
13976KLFT LFT20190105065510401/05/19 06:55:31  5-MIN KLFT 051255Z 00000KT 9SM CLR 05/04 A3015 -170 96 -1300 000/00 RMK AO2 T00500044
13976KLFT LFT20190105070010401/05/19 07:00:31  5-MIN KLFT 051300Z 00000KT 9SM CLR 04/04 A3015 -170 96 -1400 000/00 RMK AO2 T00440039
13976KLFT LFT20190105070510401/05/19 07:05:31  5-MIN KLFT 051305Z 20003KT 9SM CLR 05/04 A3016 -170 92 -1300 200/03 RMK AO2 T00500039
13976KLFT LFT20190105071010501/05/19 07:10:31  5-MIN KLFT 051310Z 00000KT 9SM CLR 04/04 A3016 -170 100 -1500 000/00 RMK AO2 T00390039
13976KLFT LFT20190105071510501/05/19 07:15:31  5-MIN KLFT 051315Z 00000KT 9SM CLR 04/04 A3016 -170 100 -1500 000/00 RMK AO2 T00390039
13976KLFT LFT20190105072010501/05/19 07:20:31  5-MIN KLFT 051320Z 00000KT 9SM CLR 04/04 A3016 -180 100 -1400 000/00 RMK AO2 T00440044
13976KLFT LFT20190105072510401/05/19 07:25:31  5-MIN KLFT 051325Z 00000KT 9SM CLR 05/04 A3017 -180 96 -1300 000/00 RMK AO2 T00500044
13976KLFT LFT20190105073010401/05/19 07:30:31  5-MIN KLFT 051330Z 00000KT 8SM CLR 05/04 A3017 -180 96 -1300 000/00 RMK AO2 T00500044
13976KLFT LFT20190105073510501/05/19 07:35:31  5-MIN KLFT 051335Z 00000KT 9SM CLR 04/04 A3017 -180 100 -1400 000/00 RMK AO2 T00440044
13976KLFT LFT20190105074010501/05/19 07:40:31  5-MIN KLFT 051340Z 00000KT 9SM CLR 04/04 A3017 -180 100 -1400 000/00 RMK AO2 T00440044
13976KLFT LFT20190105074510501/05/19 07:45:31  5-MIN KLFT 051345Z 00000KT 9SM CLR 05/05 A3018 -190 100 -1400 000/00 RMK AO2 T00500050
13976KLFT LFT20190105075011201/05/19 07:50:31  5-MIN KLFT 051350Z 00000KT 9SM CLR 06/06 A3018 -190 100 -1300 000/00 RMK AO2 SLP218 T00560056
13976KLFT LFT20190105075510501/05/19 07:55:31  5-MIN KLFT 051355Z 00000KT 8SM CLR 06/06 A3018 -190 100 -1300 000/00 RMK AO2 T00560056
13976KLFT LFT20190105080010501/05/19 08:00:31  5-MIN KLFT 051400Z 00000KT 8SM CLR 06/06 A3018 -190 100 -1200 000/00 RMK AO2 T00610061
13976KLFT LFT20190105080510501/05/19 08:05:31  5-MIN KLFT 051405Z 00000KT 8SM CLR 07/07 A3018 -190 100 -1200 000/00 RMK AO2 T00670067
13976KLFT LFT20190105081010401/05/19 08:10:31  5-MIN KLFT 051410Z 22003KT 9SM CLR 07/07 A3019 -200 96 -1100 220/03 RMK AO2 T00720067
13976KLFT LFT20190105081510501/05/19 08:15:31  5-MIN KLFT 051415Z 21003KT 10SM CLR 08/07 A3019 -200 96 -1000 210/03 RMK AO2 T00780072
13976KLFT LFT20190105082010501/05/19 08:20:31  5-MIN KLFT 051420Z 21003KT 10SM CLR 08/07 A3019 -200 96 -1000 210/03 RMK AO2 T00780072
13976KLFT LFT20190105082510501/05/19 08:25:31  5-MIN KLFT 051425Z 21004KT 10SM CLR 08/07 A3019 -200 93 -1000 210/04 RMK AO2 T00830072
13976KLFT LFT20190105083010501/05/19 08:30:31  5-MIN KLFT 051430Z 20003KT 10SM CLR 08/08 A3019 -200 96 -1000 200/03 RMK AO2 T00830078
13976KLFT LFT20190105083510401/05/19 08:35:31  5-MIN KLFT 051435Z 19003KT 10SM CLR 09/08 A3019 -200 96 -900 190/03 RMK AO2 T00890083
13976KLFT LFT20190105084010401/05/19 08:40:31  5-MIN KLFT 051440Z 21004KT 10SM CLR 09/07 A3019 -200 89 -900 210/04 RMK AO2 T00890072
13976KLFT LFT20190105084510401/05/19 08:45:31  5-MIN KLFT 051445Z 21003KT 10SM CLR 09/07 A3020 -200 86 -800 200/03 RMK AO2 T00940072
13976KLFT LFT20190105085011701/05/19 08:50:31  5-MIN KLFT 051450Z 21003KT 10SM CLR 10/08 A3020 -210 86 -800 210/03 RMK AO2 SLP225 T01000078 53005
13976KLFT LFT20190105085510401/05/19 08:55:31  5-MIN KLFT 051455Z 00000KT 10SM CLR 10/08 A3020 -210 86 -800 000/00 RMK AO2 T01000078
13976KLFT LFT20190105090010401/05/19 09:00:31  5-MIN KLFT 051500Z 16003KT 10SM CLR 11/08 A3020 -210 86 -700 160/03 RMK AO2 T01060083
13976KLFT LFT20190105090510401/05/19 09:05:31  5-MIN KLFT 051505Z 00000KT 10SM CLR 11/08 A3021 -220 86 -700 000/00 RMK AO2 T01060083
13976KLFT LFT20190105091010401/05/19 09:10:31  5-MIN KLFT 051510Z 00000KT 10SM CLR 11/08 A3021 -220 83 -600 000/00 RMK AO2 T01110083
13976KLFT LFT20190105091510401/05/19 09:15:31  5-MIN KLFT 051515Z 00000KT 10SM CLR 11/08 A3021 -220 83 -700 000/00 RMK AO2 T01110083
13976KLFT LFT20190105092010401/05/19 09:20:31  5-MIN KLFT 051520Z 00000KT 10SM CLR 12/08 A3021 -220 80 -600 000/00 RMK AO2 T01170083
13976KLFT LFT20190105092510401/05/19 09:25:31  5-MIN KLFT 051525Z 00000KT 10SM CLR 12/08 A3022 -220 80 -600 000/00 RMK AO2 T01170083
13976KLFT LFT20190105093010401/05/19 09:30:31  5-MIN KLFT 051530Z 00000KT 10SM CLR 12/08 A3022 -230 80 -600 000/00 RMK AO2 T01170083
13976KLFT LFT20190105093510401/05/19 09:35:31  5-MIN KLFT 051535Z 00000KT 10SM CLR 12/08 A3022 -230 77 -500 000/00 RMK AO2 T01220083
13976KLFT LFT20190105094010401/05/19 09:40:31  5-MIN KLFT 051540Z 00000KT 10SM CLR 12/08 A3023 -230 77 -500 000/00 RMK AO2 T01220083
13976KLFT LFT20190105094510401/05/19 09:45:31  5-MIN KLFT 051545Z 00000KT 10SM CLR 13/08 A3023 -240 74 -500 000/00 RMK AO2 T01280083
13976KLFT LFT20190105095011101/05/19 09:50:31  5-MIN KLFT 051550Z 00000KT 10SM CLR 13/08 A3023 -240 74 -500 000/00 RMK AO2 SLP236 T01280083
13976KLFT LFT20190105095510401/05/19 09:55:31  5-MIN KLFT 051555Z 00000KT 10SM CLR 13/08 A3023 -240 74 -500 000/00 RMK AO2 T01280083
13976KLFT LFT20190105100010401/05/19 10:00:31  5-MIN KLFT 051600Z 00000KT 10SM CLR 13/09 A3023 -240 74 -400 000/00 RMK AO2 T01330089
13976KLFT LFT20190105100510401/05/19 10:05:31  5-MIN KLFT 051605Z 00000KT 10SM CLR 13/08 A3024 -240 74 -500 000/00 RMK AO2 T01280083
13976KLFT LFT20190105101010401/05/19 10:10:31  5-MIN KLFT 051610Z 00000KT 10SM CLR 13/08 A3024 -240 71 -400 000/00 RMK AO2 T01330083
13976KLFT LFT20190105101510401/05/19 10:15:31  5-MIN KLFT 051615Z 00000KT 10SM CLR 14/09 A3023 -240 71 -300 000/00 RMK AO2 T01390089
13976KLFT LFT20190105102010401/05/19 10:20:31  5-MIN KLFT 051620Z 00000KT 10SM CLR 14/09 A3023 -240 71 -300 000/00 RMK AO2 T01390089
13976KLFT LFT20190105102510401/05/19 10:25:31  5-MIN KLFT 051625Z 00000KT 10SM CLR 14/08 A3023 -240 69 -300 000/00 RMK AO2 T01390083
13976KLFT LFT20190105103010401/05/19 10:30:31  5-MIN KLFT 051630Z 21003KT 10SM CLR 14/08 A3023 -240 69 -300 210/03 RMK AO2 T01390083
13976KLFT LFT20190105103510401/05/19 10:35:31  5-MIN KLFT 051635Z 00000KT 10SM CLR 14/08 A3023 -240 69 -300 000/00 RMK AO2 T01390083
13976KLFT LFT20190105104010401/05/19 10:40:31  5-MIN KLFT 051640Z 00000KT 10SM CLR 14/08 A3023 -230 69 -300 000/00 RMK AO2 T01390083
13976KLFT LFT20190105104510401/05/19 10:45:31  5-MIN KLFT 051645Z 00000KT 10SM CLR 16/08 A3023 -230 59 -100 000/00 RMK AO2 T01560078
13976KLFT LFT20190105105011101/05/19 10:50:31  5-MIN KLFT 051650Z 00000KT 10SM CLR 15/08 A3022 -230 64 -200 000/00 RMK AO2 SLP234 T01500083
13976KLFT LFT20190105105510401/05/19 10:55:31  5-MIN KLFT 051655Z 00000KT 10SM CLR 15/08 A3022 -230 64 -200 000/00 RMK AO2 T01500083
13976KLFT LFT20190105110010401/05/19 11:00:31  5-MIN KLFT 051700Z 00000KT 10SM CLR 15/08 A3022 -230 62 -200 000/00 RMK AO2 T01500078
13976KLFT LFT20190105110510401/05/19 11:05:31  5-MIN KLFT 051705Z 00000KT 10SM CLR 15/07 A3022 -230 59 -200 000/00 RMK AO2 T01500072
13976KLFT LFT20190109210510601/09/19 21:05:31  5-MIN KLFT 100305Z 36004KT 10SM CLR 09/M02 A3037 -360 45 -1100 360/04 RMK AO2 T00891022
13976KLFT LFT20190109211010601/09/19 21:10:31  5-MIN KLFT 100310Z 36005KT 10SM CLR 09/M02 A3037 -360 45 -1100 360/05 RMK AO2 T00891022
13976KLFT LFT20190109211510601/09/19 21:15:31  5-MIN KLFT 100315Z 36006KT 10SM CLR 09/M02 A3037 -360 45 -1100 360/06 RMK AO2 T00891022
13976KLFT LFT20190109212010601/09/19 21:20:31  5-MIN KLFT 100320Z 35005KT 10SM CLR 09/M02 A3037 -360 45 -1100 350/05 RMK AO2 T00891022
13976KLFT LFT20190109212510601/09/19 21:25:31  5-MIN KLFT 100325Z 35005KT 10SM CLR 09/M02 A3037 -360 47 -1100 350/05 RMK AO2 T00891017
13976KLFT LFT20190109213010601/09/19 21:30:31  5-MIN KLFT 100330Z 35005KT 10SM CLR 09/M02 A3037 -370 45 -1100 350/05 RMK AO2 T00891022
13976KLFT LFT20190109213510601/09/19 21:35:31  5-MIN KLFT 100335Z 35006KT 10SM CLR 09/M02 A3037 -370 45 -1100 350/06 RMK AO2 T00891022
13976KLFT LFT20190109214010601/09/19 21:40:31  5-MIN KLFT 100340Z 34006KT 10SM CLR 09/M02 A3038 -370 45 -1100 340/06 RMK AO2 T00891022
13976KLFT LFT20190109214510601/09/19 21:45:31  5-MIN KLFT 100345Z 34006KT 10SM CLR 08/M02 A3038 -370 49 -1200 340/06 RMK AO2 T00831017
13976KLFT LFT20190109215011301/09/19 21:50:31  5-MIN KLFT 100350Z 34006KT 10SM CLR 08/M02 A3037 -370 49 -1200 340/06 RMK AO2 SLP285 T00831017
13976KLFT LFT20190109215510601/09/19 21:55:31  5-MIN KLFT 100355Z 35005KT 10SM CLR 08/M02 A3037 -370 49 -1200 340/05 RMK AO2 T00831017
13976KLFT LFT20190109220010601/09/19 22:00:31  5-MIN KLFT 100400Z 35005KT 10SM CLR 08/M02 A3037 -370 49 -1200 350/05 RMK AO2 T00831017
13976KLFT LFT20190109220510601/09/19 22:05:31  5-MIN KLFT 100405Z 35004KT 10SM CLR 08/M02 A3037 -370 47 -1200 350/04 RMK AO2 T00831022
13976KLFT LFT20190109221010601/09/19 22:10:31  5-MIN KLFT 100410Z 35003KT 10SM CLR 09/M02 A3037 -370 45 -1100 350/03 RMK AO2 T00891022
13976KLFT LFT20190109221510601/09/19 22:15:31  5-MIN KLFT 100415Z 36003KT 10SM CLR 09/M02 A3037 -360 45 -1100 360/03 RMK AO2 T00891022
13976KLFT LFT20190109222010601/09/19 22:20:31  5-MIN KLFT 100420Z 36004KT 10SM CLR 08/M02 A3037 -360 49 -1200 360/04 RMK AO2 T00831017
13976KLFT LFT20190109222510601/09/19 22:25:31  5-MIN KLFT 100425Z 35004KT 10SM CLR 09/M02 A3037 -360 45 -1100 350/04 RMK AO2 T00891022
13976KLFT LFT20190109223010601/09/19 22:30:31  5-MIN KLFT 100430Z 34004KT 10SM CLR 08/M02 A3037 -360 49 -1200 340/04 RMK AO2 T00831017
13976KLFT LFT20190109223510601/09/19 22:35:31  5-MIN KLFT 100435Z 34005KT 10SM CLR 08/M02 A3037 -360 49 -1200 340/05 RMK AO2 T00831017
13976KLFT LFT20190109224010601/09/19 22:40:31  5-MIN KLFT 100440Z 35006KT 10SM CLR 08/M02 A3037 -360 49 -1200 350/06 RMK AO2 T00831017
13976KLFT LFT20190109224510601/09/19 22:45:31  5-MIN KLFT 100445Z 36005KT 10SM CLR 08/M02 A3036 -360 49 -1200 360/05 RMK AO2 T00831017
13976KLFT LFT20190109225011301/09/19 22:50:31  5-MIN KLFT 100450Z 35006KT 10SM CLR 08/M02 A3036 -360 49 -1200 350/06 RMK AO2 SLP281 T00831017
13976KLFT LFT20190109225510601/09/19 22:55:31  5-MIN KLFT 100455Z 35006KT 10SM CLR 08/M02 A3036 -360 51 -1200 350/06 RMK AO2 T00781017
13976KLFT LFT20190109230010601/09/19 23:00:31  5-MIN KLFT 100500Z 35005KT 10SM CLR 08/M02 A3037 -360 51 -1200 350/05 RMK AO2 T00781017
13976KLFT LFT20190109230510601/09/19 23:05:31  5-MIN KLFT 100505Z 34005KT 10SM CLR 08/M02 A3037 -360 51 -1200 340/05 RMK AO2 T00781017
13976KLFT LFT20190109231010601/09/19 23:10:31  5-MIN KLFT 100510Z 35005KT 10SM CLR 08/M02 A3037 -360 51 -1200 350/05 RMK AO2 T00781017
13976KLFT LFT20190109231510601/09/19 23:15:31  5-MIN KLFT 100515Z 35005KT 10SM CLR 08/M02 A3037 -360 51 -1200 350/05 RMK AO2 T00781017
13976KLFT LFT20190109232010601/09/19 23:20:31  5-MIN KLFT 100520Z 35005KT 10SM CLR 08/M02 A3037 -360 51 -1200 350/05 RMK AO2 T00781017
13976KLFT LFT20190109232510601/09/19 23:25:31  5-MIN KLFT 100525Z 35005KT 10SM CLR 08/M02 A3037 -360 51 -1200 350/05 RMK AO2 T00781017
13976KLFT LFT20190109233010601/09/19 23:30:31  5-MIN KLFT 100530Z 35004KT 10SM CLR 08/M02 A3036 -360 51 -1200 350/04 RMK AO2 T00781017
13976KLFT LFT20190109233510601/09/19 23:35:31  5-MIN KLFT 100535Z 34005KT 10SM CLR 08/M01 A3036 -360 53 -1200 340/05 RMK AO2 T00781011
13976KLFT LFT20190109234010601/09/19 23:40:31  5-MIN KLFT 100540Z 34005KT 10SM CLR 08/M01 A3036 -360 53 -1200 340/05 RMK AO2 T00781011
13976KLFT LFT20190109234510601/09/19 23:45:31  5-MIN KLFT 100545Z 34005KT 10SM CLR 08/M01 A3036 -360 53 -1200 340/05 RMK AO2 T00781011
13976KLFT LFT20190109235014101/09/19 23:50:31  5-MIN KLFT 100550Z 35005KT 10SM CLR 07/M01 A3036 -350 55 -1300 340/05 RMK AO2 SLP280 T00721011 10122 20072 401670072 53001
13976KLFT LFT20190109235510601/09/19 23:55:31  5-MIN KLFT 100555Z 35004KT 10SM CLR 07/M01 A3036 -350 55 -1300 350/04 RMK AO2 T00721011
13976KLFT LFT20190110000010601/10/19 00:00:31  5-MIN KLFT 100600Z 35004KT 10SM CLR 07/M01 A3036 -350 55 -1300 350/04 RMK AO2 T00721011
13976KLFT LFT20190110000510601/10/19 00:05:31  5-MIN KLFT 100605Z 36004KT 10SM CLR 07/M01 A3035 -350 57 -1300 360/04 RMK AO2 T00721006
13976KLFT LFT20190110001010601/10/19 00:10:31  5-MIN KLFT 100610Z 36004KT 10SM CLR 07/M01 A3035 -350 60 -1400 360/04 RMK AO2 T00671006
13976KLFT LFT20190110001510601/10/19 00:15:31  5-MIN KLFT 100615Z 36004KT 10SM CLR 07/M01 A3035 -340 57 -1300 360/04 RMK AO2 T00721006
13976KLFT LFT20190110002010601/10/19 00:20:31  5-MIN KLFT 100620Z 00000KT 10SM CLR 07/M01 A3035 -340 57 -1300 000/00 RMK AO2 T00721006
13976KLFT LFT20190110002510601/10/19 00:25:31  5-MIN KLFT 100625Z 00000KT 10SM CLR 07/M01 A3035 -340 60 -1300 000/00 RMK AO2 T00671006
13976KLFT LFT20190110003010601/10/19 00:30:31  5-MIN KLFT 100630Z 00000KT 10SM CLR 07/M01 A3035 -340 60 -1300 000/00 RMK AO2 T00671006
13976KLFT LFT20190110003510601/10/19 00:35:31  5-MIN KLFT 100635Z 00000KT 10SM CLR 06/M01 A3035 -350 62 -1400 000/00 RMK AO2 T00611006
13976KLFT LFT20190110004010601/10/19 00:40:31  5-MIN KLFT 100640Z 00000KT 10SM CLR 06/M01 A3035 -350 62 -1400 000/00 RMK AO2 T00611006
13976KLFT LFT20190110004510601/10/19 00:45:31  5-MIN KLFT 100645Z 00000KT 10SM CLR 07/M01 A3035 -350 57 -1400 000/00 RMK AO2 T00671011
13976KLFT LFT20190110005011301/10/19 00:50:31  5-MIN KLFT 100650Z 00000KT 10SM CLR 07/M01 A3035 -350 57 -1400 000/00 RMK AO2 SLP276 T00671011
13976KLFT LFT20190110005510601/10/19 00:55:31  5-MIN KLFT 100655Z 00000KT 10SM CLR 07/M01 A3035 -350 57 -1400 000/00 RMK AO2 T00671011
13976KLFT LFT20190110010010601/10/19 01:00:31  5-MIN KLFT 100700Z 00000KT 10SM CLR 07/M01 A3035 -340 57 -1300 000/00 RMK AO2 T00671011
13976KLFT LFT20190110010510601/10/19 01:05:31  5-MIN KLFT 100705Z 00000KT 10SM CLR 07/M01 A3035 -340 60 -1300 000/00 RMK AO2 T00671006
13976KLFT LFT20190110011010601/10/19 01:10:31  5-MIN KLFT 100710Z 00000KT 10SM CLR 07/M01 A3035 -350 60 -1400 000/00 RMK AO2 T00671006
13976KLFT LFT20190110011510601/10/19 01:15:31  5-MIN KLFT 100715Z 00000KT 10SM CLR 07/M01 A3035 -350 60 -1400 000/00 RMK AO2 T00671006
13976KLFT LFT20190110012010601/10/19 01:20:31  5-MIN KLFT 100720Z 00000KT 10SM CLR 07/M01 A3035 -350 60 -1400 000/00 RMK AO2 T00671006
13976KLFT LFT20190110012510601/10/19 01:25:31  5-MIN KLFT 100725Z 00000KT 10SM CLR 07/M01 A3035 -350 60 -1400 000/00 RMK AO2 T00671006
13976KLFT LFT20190110013010601/10/19 01:30:31  5-MIN KLFT 100730Z 00000KT 10SM CLR 07/M01 A3035 -350 60 -1400 000/00 RMK AO2 T00671006
13976KLFT LFT20190110013510601/10/19 01:35:31  5-MIN KLFT 100735Z 00000KT 10SM CLR 07/M01 A3035 -350 60 -1400 000/00 RMK AO2 T00671006
13976KLFT LFT20190110014010601/10/19 01:40:31  5-MIN KLFT 100740Z 00000KT 10SM CLR 07/M01 A3035 -350 60 -1400 000/00 RMK AO2 T00671006
13976KLFT LFT20190110014510601/10/19 01:45:31  5-MIN KLFT 100745Z 00000KT 10SM CLR 07/M01 A3035 -340 60 -1300 000/00 RMK AO2 T00671006
13976KLFT LFT20190110015011301/10/19 01:50:31  5-MIN KLFT 100750Z 00000KT 10SM CLR 07/M01 A3035 -340 60 -1300 000/00 RMK AO2 SLP275 T00671006
13976KLFT LFT20190110015510501/10/19 01:55:31  5-MIN KLFT 100755Z 01003KT 10SM CLR 07/00 A3034 -340 62 -1300 010/03 RMK AO2 T00670000
13976KLFT LFT20190110020010501/10/19 02:00:31  5-MIN KLFT 100800Z 36004KT 10SM CLR 06/01 A3034 -340 67 -1400 360/04 RMK AO2 T00610006
13976KLFT LFT20190110020510501/10/19 02:05:31  5-MIN KLFT 100805Z 01004KT 10SM CLR 06/01 A3034 -340 73 -1500 010/04 RMK AO2 T00560011
13976KLFT LFT20190110021010501/10/19 02:10:31  5-MIN KLFT 100810Z 36004KT 10SM CLR 06/02 A3034 -340 76 -1500 350/04 RMK AO2 T00560017
13976KLFT LFT20190110021510501/10/19 02:15:31  5-MIN KLFT 100815Z 36005KT 10SM CLR 05/02 A3034 -340 79 -1600 360/05 RMK AO2 T00500017
13976KLFT LFT20190110022010501/10/19 02:20:31  5-MIN KLFT 100820Z 01005KT 10SM CLR 05/01 A3034 -340 76 -1500 010/05 RMK AO2 T00500011
13976KLFT LFT20190110022510501/10/19 02:25:31  5-MIN KLFT 100825Z 01005KT 10SM CLR 05/01 A3034 -340 76 -1500 010/05 RMK AO2 T00500011
13976KLFT LFT20190110023010501/10/19 02:30:31  5-MIN KLFT 100830Z 02005KT 10SM CLR 04/01 A3034 -340 79 -1700 020/05 RMK AO2 T00390006
13976KLFT LFT20190110023510501/10/19 02:35:31  5-MIN KLFT 100835Z 02004KT 10SM CLR 04/01 A3034 -340 79 -1700 010/04 RMK AO2 T00390006
13976KLFT LFT20190110024010501/10/19 02:40:31  5-MIN KLFT 100840Z 02003KT 10SM CLR 04/01 A3034 -340 76 -1600 020/03 RMK AO2 T00440006
13976KLFT LFT20190110024510501/10/19 02:45:31  5-MIN KLFT 100845Z 01004KT 10SM CLR 05/01 A3034 -330 73 -1500 010/04 RMK AO2 T00500006
13976KLFT LFT20190110025011801/10/19 02:50:31  5-MIN KLFT 100850Z 03004KT 10SM CLR 05/00 A3033 -330 70 -1500 030/04 RMK AO2 SLP271 T00500000 58002
13976KLFT LFT20190110025510501/10/19 02:55:31  5-MIN KLFT 100855Z 03005KT 10SM CLR 05/00 A3033 -330 70 -1500 030/05 RMK AO2 T00500000
13976KLFT LFT20190110030010501/10/19 03:00:31  5-MIN KLFT 100900Z 04005KT 10SM CLR 04/00 A3033 -330 73 -1600 030/05 RMK AO2 T00440000
13976KLFT LFT20190110030510501/10/19 03:05:31  5-MIN KLFT 100905Z 02004KT 10SM CLR 04/00 A3033 -330 73 -1600 020/04 RMK AO2 T00440000
13976KLFT LFT20190110031010501/10/19 03:10:31  5-MIN KLFT 100910Z 36005KT 10SM CLR 05/00 A3033 -330 70 -1500 360/05 RMK AO2 T00500000
13976KLFT LFT20190110031510501/10/19 03:15:31  5-MIN KLFT 100915Z 35004KT 10SM CLR 04/00 A3033 -330 73 -1600 350/04 RMK AO2 T00440000
13976KLFT LFT20190110032010501/10/19 03:20:31  5-MIN KLFT 100920Z 35004KT 10SM CLR 04/00 A3033 -330 73 -1600 350/04 RMK AO2 T00440000
13976KLFT LFT20190110032510501/10/19 03:25:31  5-MIN KLFT 100925Z 01003KT 10SM CLR 05/00 A3033 -330 70 -1500 010/03 RMK AO2 T00500000
13976KLFT LFT20190110033010501/10/19 03:30:31  5-MIN KLFT 100930Z 02004KT 10SM CLR 05/00 A3033 -320 70 -1500 020/04 RMK AO2 T00500000
13976KLFT LFT20190110033510601/10/19 03:35:31  5-MIN KLFT 100935Z 02005KT 10SM CLR 06/M01 A3032 -320 65 -1500 020/05 RMK AO2 T00561006
13976KLFT LFT20190110034010601/10/19 03:40:31  5-MIN KLFT 100940Z 02004KT 10SM CLR 06/M01 A3032 -320 65 -1500 020/04 RMK AO2 T00561006
13976KLFT LFT20190110034510501/10/19 03:45:31  5-MIN KLFT 100945Z 03004KT 10SM CLR 06/00 A3032 -320 67 -1500 030/04 RMK AO2 T00560000
13976KLFT LFT20190110035011201/10/19 03:50:31  5-MIN KLFT 100950Z 03003KT 10SM CLR 06/00 A3032 -320 67 -1500 030/03 RMK AO2 SLP267 T00560000
13976KLFT LFT20190110035510501/10/19 03:55:31  5-MIN KLFT 100955Z 03003KT 10SM CLR 06/00 A3032 -320 67 -1500 030/03 RMK AO2 T00560000
13976KLFT LFT20190110040010601/10/19 04:00:31  5-MIN KLFT 101000Z 03003KT 10SM CLR 06/M01 A3032 -320 65 -1500 030/03 RMK AO2 T00561006
13976KLFT LFT20190110040510601/10/19 04:05:31  5-MIN KLFT 101005Z 00000KT 10SM CLR 06/M01 A3032 -320 65 -1500 000/00 RMK AO2 T00561006
13976KLFT LFT20190110041010601/10/19 04:10:31  5-MIN KLFT 101010Z 00000KT 10SM CLR 06/M01 A3032 -320 65 -1500 000/00 RMK AO2 T00561006
13976KLFT LFT20190110041510501/10/19 04:15:31  5-MIN KLFT 101015Z 36003KT 10SM CLR 06/00 A3032 -320 67 -1500 360/03 RMK AO2 T00560000
13976KLFT LFT20190110042010501/10/19 04:20:31  5-MIN KLFT 101020Z 00000KT 10SM CLR 06/00 A3032 -320 67 -1500 000/00 RMK AO2 T00560000
13976KLFT LFT20190110042510501/10/19 04:25:31  5-MIN KLFT 101025Z 00000KT 10SM CLR 05/00 A3032 -320 70 -1500 000/00 RMK AO2 T00500000
13976KLFT LFT20190110043010501/10/19 04:30:31  5-MIN KLFT 101030Z 00000KT 10SM CLR 05/00 A3032 -320 70 -1500 000/00 RMK AO2 T00500000
13976KLFT LFT20190110043510501/10/19 04:35:31  5-MIN KLFT 101035Z 02003KT 10SM CLR 06/00 A3032 -320 67 -1500 020/03 RMK AO2 T00560000
13976KLFT LFT20190110044010501/10/19 04:40:31  5-MIN KLFT 101040Z 02003KT 10SM CLR 06/00 A3032 -320 67 -1500 020/03 RMK AO2 T00560000
13976KLFT LFT20190110044510501/10/19 04:45:31  5-MIN KLFT 101045Z 00000KT 10SM CLR 06/00 A3032 -320 67 -1500 000/00 RMK AO2 T00560000
13976KLFT LFT20190110045011201/10/19 04:50:31  5-MIN KLFT 101050Z 00000KT 10SM CLR 05/00 A3032 -320 70 -1500 000/00 RMK AO2 SLP267 T00500000
13976KLFT LFT20190110045510501/10/19 04:55:31  5-MIN KLFT 101055Z 00000KT 10SM CLR 05/00 A3033 -320 70 -1500 000/00 RMK AO2 T00500000
13976KLFT LFT20190110050010501/10/19 05:00:31  5-MIN KLFT 101100Z 33003KT 10SM CLR 05/00 A3033 -330 70 -1500 330/03 RMK AO2 T00500000
13976KLFT LFT20190110050510501/10/19 05:05:31  5-MIN KLFT 101105Z 34003KT 10SM CLR 05/00 A3033 -330 70 -1500 330/03 RMK AO2 T00500000
13976KLFT LFT20190110051010501/10/19 05:10:31  5-MIN KLFT 101110Z 35003KT 10SM CLR 05/00 A3033 -330 70 -1500 350/03 RMK AO2 T00500000
13976KLFT LFT20190110051510501/10/19 05:15:31  5-MIN KLFT 101115Z 35003KT 10SM CLR 05/00 A3033 -330 70 -1500 350/03 RMK AO2 T00500000
13976KLFT LFT20190110052010501/10/19 05:20:31  5-MIN KLFT 101120Z 36003KT 10SM CLR 05/00 A3033 -330 70 -1500 360/03 RMK AO2 T00500000
13976KLFT LFT20190110052510501/10/19 05:25:31  5-MIN KLFT 101125Z 36003KT 10SM CLR 05/00 A3033 -330 70 -1500 360/03 RMK AO2 T00500000
13976KLFT LFT20190110053010501/10/19 05:30:31  5-MIN KLFT 101130Z 36003KT 10SM CLR 05/00 A3033 -330 70 -1500 360/03 RMK AO2 T00500000
13976KLFT LFT20190110053510501/10/19 05:35:31  5-MIN KLFT 101135Z 35004KT 10SM CLR 05/00 A3034 -340 70 -1500 350/04 RMK AO2 T00500000
13976KLFT LFT20190110054010501/10/19 05:40:31  5-MIN KLFT 101140Z 35004KT 10SM CLR 04/00 A3034 -340 73 -1600 350/04 RMK AO2 T00440000
13976KLFT LFT20190110054510501/10/19 05:45:31  5-MIN KLFT 101145Z 01005KT 10SM CLR 04/00 A3034 -340 73 -1600 010/05 RMK AO2 T00440000
13976KLFT LFT20190110055013001/10/19 05:50:31  5-MIN KLFT 101150Z 02005KT 10SM CLR 04/00 A3034 -340 73 -1600 020/05 RMK AO2 SLP274 T00440000 10072 20039 58007
13976KLFT LFT20190110055510501/10/19 05:55:31  5-MIN KLFT 101155Z 02004KT 10SM CLR 04/00 A3035 -340 76 -1700 020/04 RMK AO2 T00390000
13976KLFT LFT20190110060010501/10/19 06:00:31  5-MIN KLFT 101200Z 02004KT 10SM CLR 04/01 A3035 -350 79 -1700 020/04 RMK AO2 T00390006
13976KLFT LFT20190110060510501/10/19 06:05:31  5-MIN KLFT 101205Z 02004KT 10SM CLR 04/01 A3036 -350 79 -1700 020/04 RMK AO2 T00390006
13976KLFT LFT20190110061010501/10/19 06:10:31  5-MIN KLFT 101210Z 02004KT 10SM CLR 03/00 A3036 -350 79 -1800 020/04 RMK AO2 T00330000
13976KLFT LFT20190110061510501/10/19 06:15:31  5-MIN KLFT 101215Z 02004KT 10SM CLR 03/00 A3036 -350 79 -1800 020/04 RMK AO2 T00330000
13976KLFT LFT20190110062010501/10/19 06:20:31  5-MIN KLFT 101220Z 03004KT 10SM CLR 03/00 A3036 -350 79 -1800 030/04 RMK AO2 T00330000
13976KLFT LFT20190110062510501/10/19 06:25:31  5-MIN KLFT 101225Z 04004KT 10SM CLR 04/01 A3035 -350 79 -1700 040/04 RMK AO2 T00390006
13976KLFT LFT20190110063010501/10/19 06:30:31  5-MIN KLFT 101230Z 06003KT 10SM CLR 04/01 A3035 -350 79 -1700 060/03 RMK AO2 T00390006
13976KLFT LFT20190110063510501/10/19 06:35:31  5-MIN KLFT 101235Z 05004KT 10SM CLR 04/01 A3035 -350 76 -1600 050/04 RMK AO2 T00440006
13976KLFT LFT20190110064010501/10/19 06:40:31  5-MIN KLFT 101240Z 05004KT 10SM CLR 04/01 A3035 -340 79 -1700 050/04 RMK AO2 T00390006
13976KLFT LFT20190110064510501/10/19 06:45:31  5-MIN KLFT 101245Z 06003KT 10SM CLR 04/01 A3034 -340 76 -1600 060/03 RMK AO2 T00440006
13976KLFT LFT20190110065011201/10/19 06:50:31  5-MIN KLFT 101250Z 04004KT 10SM CLR 04/01 A3035 -340 79 -1600 040/04 RMK AO2 SLP276 T00440011
13976KLFT LFT20190110065510501/10/19 06:55:31  5-MIN KLFT 101255Z 04003KT 10SM CLR 04/01 A3035 -350 76 -1600 040/03 RMK AO2 T00440006
13976KLFT LFT20190110070010501/10/19 07:00:31  5-MIN KLFT 101300Z 02003KT 10SM CLR 04/01 A3035 -350 79 -1700 020/03 RMK AO2 T00390006
13976KLFT LFT20190110070510501/10/19 07:05:31  5-MIN KLFT 101305Z 00000KT 10SM CLR 04/01 A3035 -350 79 -1700 000/00 RMK AO2 T00390006
13976KLFT LFT20190110071010501/10/19 07:10:31  5-MIN KLFT 101310Z 00000KT 10SM CLR 04/01 A3035 -350 79 -1700 000/00 RMK AO2 T00390006
13976KLFT LFT20190110071510501/10/19 07:15:31  5-MIN KLFT 101315Z 00000KT 10SM CLR 04/01 A3035 -340 79 -1700 000/00 RMK AO2 T00390006
13976KLFT LFT20190110072010501/10/19 07:20:31  5-MIN KLFT 101320Z 02003KT 10SM CLR 04/01 A3035 -350 79 -1700 020/03 RMK AO2 T00390006
13976KLFT LFT20190110072510501/10/19 07:25:31  5-MIN KLFT 101325Z 36003KT 10SM CLR 04/01 A3036 -350 76 -1600 360/03 RMK AO2 T00440006
13976KLFT LFT20190110073010501/10/19 07:30:31  5-MIN KLFT 101330Z 36003KT 10SM CLR 04/01 A3036 -350 76 -1600 360/03 RMK AO2 T00440006
13976KLFT LFT20190110073510501/10/19 07:35:31  5-MIN KLFT 101335Z 36004KT 10SM CLR 04/01 A3036 -360 76 -1600 360/04 RMK AO2 T00440006
13976KLFT LFT20190110074010501/10/19 07:40:31  5-MIN KLFT 101340Z 01003KT 10SM CLR 04/01 A3036 -360 79 -1600 010/03 RMK AO2 T00440011
13976KLFT LFT20190110074510501/10/19 07:45:31  5-MIN KLFT 101345Z 01003KT 10SM CLR 05/01 A3036 -360 76 -1600 010/03 RMK AO2 T00500011
13976KLFT LFT20190110075011201/10/19 07:50:31  5-MIN KLFT 101350Z 01003KT 10SM CLR 05/02 A3036 -360 79 -1600 010/03 RMK AO2 SLP281 T00500017
13976KLFT LFT20190110075510501/10/19 07:55:31  5-MIN KLFT 101355Z 03003KT 10SM CLR 06/02 A3036 -360 79 -1500 020/03 RMK AO2 T00560022
13976KLFT LFT20190110080010501/10/19 08:00:31  5-MIN KLFT 101400Z 03003KT 10SM CLR 06/02 A3036 -360 79 -1500 030/03 RMK AO2 T00560022
13976KLFT LFT20190110080510501/10/19 08:05:31  5-MIN KLFT 101405Z 03004KT 10SM CLR 06/02 A3036 -360 73 -1400 030/04 RMK AO2 T00610017
13976KLFT LFT20190110081010501/10/19 08:10:31  5-MIN KLFT 101410Z 03004KT 10SM CLR 06/02 A3037 -360 76 -1400 030/04 RMK AO2 T00610022
13976KLFT LFT20190110081510501/10/19 08:15:31  5-MIN KLFT 101415Z 03004KT 10SM CLR 07/03 A3037 -360 76 -1400 030/04 RMK AO2 T00670028
13976KLFT LFT20190110082010501/10/19 08:20:31  5-MIN KLFT 101420Z 03005KT 10SM CLR 07/02 A3037 -360 73 -1400 030/05 RMK AO2 T00670022
13976KLFT LFT20190110082510501/10/19 08:25:31  5-MIN KLFT 101425Z 03004KT 10SM CLR 07/02 A3037 -360 70 -1300 030/04 RMK AO2 T00720022
13976KLFT LFT20190110083010501/10/19 08:30:31  5-MIN KLFT 101430Z 03004KT 10SM CLR 07/02 A3037 -360 70 -1300 030/04 RMK AO2 T00720022
13976KLFT LFT20190110083510501/10/19 08:35:31  5-MIN KLFT 101435Z 03005KT 10SM CLR 08/02 A3037 -370 68 -1200 020/05 RMK AO2 T00780022
13976KLFT LFT20190110084010501/10/19 08:40:31  5-MIN KLFT 101440Z 03005KT 10SM CLR 08/02 A3037 -370 63 -1200 030/05 RMK AO2 T00830017
13976KLFT LFT20190110084510501/10/19 08:45:31  5-MIN KLFT 101445Z 02005KT 10SM CLR 08/01 A3037 -370 60 -1200 020/05 RMK AO2 T00830011
13976KLFT LFT20190110085011801/10/19 08:50:31  5-MIN KLFT 101450Z VRB06KT 10SM CLR 09/01 A3037 -370 58 -1100 VRB/06 RMK AO2 SLP284 T00890011 53004
13976KLFT LFT20190110085510601/10/19 08:55:31  5-MIN KLFT 101455Z 06008KT 10SM CLR 09/M01 A3037 -370 49 -1100 060/08 RMK AO2 T00891011
13976KLFT LFT20190110090010601/10/19 09:00:31  5-MIN KLFT 101500Z 06006KT 10SM CLR 09/M02 A3038 -370 45 -1100 060/06 RMK AO2 T00891022
13976KLFT LFT20190113130510401/13/19 13:05:31  5-MIN KLFT 131905Z 36010KT 10SM CLR 12/03 A3029 -290 56 -700 360/10 RMK AO2 T01170033
13976KLFT LFT20190113131010401/13/19 13:10:31  5-MIN KLFT 131910Z 01007KT 10SM CLR 12/03 A3029 -290 56 -700 010/07 RMK AO2 T01170033
13976KLFT LFT20190113131511001/13/19 13:15:31  5-MIN KLFT 131915Z 35011G18KT 10SM CLR 12/03 A3029 -290 56 -700 340/11G18 RMK AO2 T01170033
13976KLFT LFT20190113132011001/13/19 13:20:31  5-MIN KLFT 131920Z 02011G18KT 10SM CLR 12/03 A3029 -290 56 -700 020/11G18 RMK AO2 T01170033
13976KLFT LFT20190113132511001/13/19 13:25:31  5-MIN KLFT 131925Z 36012G18KT 10SM CLR 12/03 A3029 -290 56 -700 350/12G18 RMK AO2 T01170033
13976KLFT LFT20190113133010401/13/19 13:30:31  5-MIN KLFT 131930Z 36012KT 10SM CLR 12/03 A3029 -290 54 -600 360/12 RMK AO2 T01220033
13976KLFT LFT20190113133510401/13/19 13:35:31  5-MIN KLFT 131935Z 35011KT 10SM CLR 12/03 A3029 -290 54 -700 350/11 RMK AO2 T01170028
13976KLFT LFT20190113134010401/13/19 13:40:31  5-MIN KLFT 131940Z 36012KT 10SM CLR 12/03 A3029 -290 54 -600 360/12 RMK AO2 T01220033
13976KLFT LFT20190113134511001/13/19 13:45:31  5-MIN KLFT 131945Z 01013G19KT 10SM CLR 12/03 A3029 -290 56 -700 360/13G19 RMK AO2 T01170033
13976KLFT LFT20190113135011701/13/19 13:50:31  5-MIN KLFT 131950Z 34011G19KT 10SM CLR 12/03 A3029 -290 56 -700 340/11G19 RMK AO2 SLP257 T01170033
13976KLFT LFT20190113135510401/13/19 13:55:31  5-MIN KLFT 131955Z 33012KT 10SM CLR 12/03 A3029 -290 54 -600 330/12 RMK AO2 T01220033
13976KLFT LFT20190113140010401/13/19 14:00:31  5-MIN KLFT 132000Z 02012KT 10SM CLR 12/03 A3029 -290 54 -600 020/12 RMK AO2 T01220033
13976KLFT LFT20190113140510401/13/19 14:05:31  5-MIN KLFT 132005Z 35009KT 10SM CLR 12/03 A3029 -290 56 -700 350/09 RMK AO2 T01170033
13976KLFT LFT20190113141010401/13/19 14:10:31  5-MIN KLFT 132010Z 35011KT 10SM CLR 12/03 A3029 -290 54 -600 350/11 RMK AO2 T01220033
13976KLFT LFT20190113141510401/13/19 14:15:31  5-MIN KLFT 132015Z 36008KT 10SM CLR 12/03 A3029 -290 54 -600 360/08 RMK AO2 T01220033
13976KLFT LFT20190113142011001/13/19 14:20:31  5-MIN KLFT 132020Z 01011G17KT 10SM CLR 12/03 A3029 -290 54 -600 010/11G17 RMK AO2 T01220033
13976KLFT LFT20190113142511001/13/19 14:25:31  5-MIN KLFT 132025Z 36011G17KT 10SM CLR 12/03 A3029 -290 54 -600 360/11G17 RMK AO2 T01220033
13976KLFT LFT20190113143010401/13/19 14:30:31  5-MIN KLFT 132030Z 01011KT 10SM CLR 12/03 A3028 -290 56 -700 360/11 RMK AO2 T01170033
13976KLFT LFT20190113143511001/13/19 14:35:31  5-MIN KLFT 132035Z 35014G18KT 10SM CLR 12/03 A3028 -290 54 -600 350/14G18 RMK AO2 T01220033
13976KLFT LFT20190113144011001/13/19 14:40:31  5-MIN KLFT 132040Z 35012G18KT 10SM CLR 12/03 A3028 -290 56 -700 350/12G18 RMK AO2 T01170033
13976KLFT LFT20190113144510401/13/19 14:45:31  5-MIN KLFT 132045Z 35012KT 10SM CLR 12/03 A3028 -290 56 -700 350/12 RMK AO2 T01170033
13976KLFT LFT20190113145011701/13/19 14:50:31  5-MIN KLFT 132050Z 36011KT 10SM CLR 12/03 A3029 -290 56 -700 360/11 RMK AO2 SLP255 T01170033 50004
13976KLFT LFT20190113145510401/13/19 14:55:31  5-MIN KLFT 132055Z 34011KT 10SM CLR 12/03 A3029 -290 56 -700 340/11 RMK AO2 T01170033
13976KLFT LFT20190113150010401/13/19 15:00:31  5-MIN KLFT 132100Z 36011KT 10SM CLR 12/03 A3029 -290 56 -700 350/11 RMK AO2 T01170033
13976KLFT LFT20190113150510401/13/19 15:05:31  5-MIN KLFT 132105Z 35010KT 10SM CLR 12/03 A3029 -290 56 -700 350/10 RMK AO2 T01170033
13976KLFT LFT20190113151010401/13/19 15:10:31  5-MIN KLFT 132110Z 36013KT 10SM CLR 12/03 A3029 -290 56 -700 360/13 RMK AO2 T01170033
13976KLFT LFT20190113151510401/13/19 15:15:31  5-MIN KLFT 132115Z 36013KT 10SM CLR 12/03 A3029 -290 56 -700 350/13 RMK AO2 T01170033
13976KLFT LFT20190113152010401/13/19 15:20:31  5-MIN KLFT 132120Z 01012KT 10SM CLR 12/03 A3029 -290 56 -700 010/12 RMK AO2 T01170033
13976KLFT LFT20190113152510401/13/19 15:25:31  5-MIN KLFT 132125Z 34011KT 10SM CLR 11/03 A3029 -290 58 -700 340/11 RMK AO2 T01110033
13976KLFT LFT20190113153010401/13/19 15:30:31  5-MIN KLFT 132130Z 35011KT 10SM CLR 12/03 A3029 -290 56 -700 350/11 RMK AO2 T01170033
13976KLFT LFT20190113153510401/13/19 15:35:31  5-MIN KLFT 132135Z 35012KT 10SM CLR 12/03 A3029 -290 56 -700 350/12 RMK AO2 T01170033
13976KLFT LFT20190113154010401/13/19 15:40:31  5-MIN KLFT 132140Z 34012KT 10SM CLR 12/03 A3029 -290 56 -700 330/12 RMK AO2 T01170033
13976KLFT LFT20190113154510401/13/19 15:45:31  5-MIN KLFT 132145Z 35010KT 10SM CLR 11/03 A3029 -300 56 -700 350/10 RMK AO2 T01110028
13976KLFT LFT20190113155011101/13/19 15:50:31  5-MIN KLFT 132150Z 34013KT 10SM CLR 12/03 A3029 -300 54 -700 340/13 RMK AO2 SLP258 T01170028
13976KLFT LFT20190113155510401/13/19 15:55:31  5-MIN KLFT 132155Z 35011KT 10SM CLR 11/03 A3029 -290 56 -700 340/11 RMK AO2 T01110028
13976KLFT LFT20190113160010401/13/19 16:00:31  5-MIN KLFT 132200Z 36011KT 10SM CLR 11/03 A3029 -290 56 -700 360/11 RMK AO2 T01110028
13976KLFT LFT20190113160510401/13/19 16:05:31  5-MIN KLFT 132205Z 35009KT 10SM CLR 11/03 A3029 -290 56 -700 350/09 RMK AO2 T01110028
13976KLFT LFT20190113161010401/13/19 16:10:31  5-MIN KLFT 132210Z 36011KT 10SM CLR 11/03 A3029 -300 58 -700 360/11 RMK AO2 T01110033
13976KLFT LFT20190113161510401/13/19 16:15:31  5-MIN KLFT 132215Z 02010KT 10SM CLR 11/03 A3030 -300 56 -700 020/10 RMK AO2 T01110028
13976KLFT LFT20190113162010401/13/19 16:20:31  5-MIN KLFT 132220Z 03010KT 10SM CLR 11/03 A3030 -300 58 -700 020/10 RMK AO2 T01110033
13976KLFT LFT20190113162510401/13/19 16:25:31  5-MIN KLFT 132225Z 02011KT 10SM CLR 11/03 A3030 -300 61 -800 020/11 RMK AO2 T01060033
13976KLFT LFT20190113163010401/13/19 16:30:31  5-MIN KLFT 132230Z 01009KT 10SM CLR 11/03 A3030 -300 61 -800 010/09 RMK AO2 T01060033
13976KLFT LFT20190113163510401/13/19 16:35:31  5-MIN KLFT 132235Z 03014KT 10SM CLR 11/03 A3030 -300 61 -800 030/14 RMK AO2 T01060033
13976KLFT LFT20190113164010401/13/19 16:40:31  5-MIN KLFT 132240Z 02014KT 10SM CLR 10/03 A3030 -300 63 -900 020/14 RMK AO2 T01000033
13976KLFT LFT20190113164510401/13/19 16:45:31  5-MIN KLFT 132245Z 03011KT 10SM CLR 10/03 A3030 -300 63 -900 020/11 RMK AO2 T01000033
13976KLFT LFT20190113165011101/13/19 16:50:31  5-MIN KLFT 132250Z 04010KT 10SM CLR 10/03 A3030 -300 63 -900 040/10 RMK AO2 SLP261 T01000033
13976KLFT LFT20190113165510501/13/19 16:55:31  5-MIN KLFT 132255Z 03010KT 10SM CLR 09/03 A3030 -300 65 -1000 030/10 RMK AO2 T00940033
13976KLFT LFT20190113170010501/13/19 17:00:31  5-MIN KLFT 132300Z 04009KT 10SM CLR 09/03 A3031 -310 65 -1000 040/09 RMK AO2 T00940033
13976KLFT LFT20190113170510501/13/19 17:05:31  5-MIN KLFT 132305Z 02012KT 10SM CLR 09/03 A3031 -310 68 -1000 020/12 RMK AO2 T00890033
13976KLFT LFT20190113171010501/13/19 17:10:31  5-MIN KLFT 132310Z 02010KT 10SM CLR 09/03 A3031 -310 65 -1000 020/10 RMK AO2 T00890028
13976KLFT LFT20190113171510501/13/19 17:15:31  5-MIN KLFT 132315Z 03011KT 10SM CLR 09/03 A3031 -310 65 -1000 030/11 RMK AO2 T00890028
13976KLFT LFT20190113172010501/13/19 17:20:31  5-MIN KLFT 132320Z 03009KT 10SM CLR 08/03 A3031 -310 68 -1100 030/09 RMK AO2 T00830028
13976KLFT LFT20190113172510501/13/19 17:25:31  5-MIN KLFT 132325Z 03009KT 10SM CLR 08/03 A3031 -310 68 -1100 030/09 RMK AO2 T00830028
13976KLFT LFT20190113173010501/13/19 17:30:31  5-MIN KLFT 132330Z 03010KT 10SM CLR 08/03 A3031 -310 70 -1200 030/10 RMK AO2 T00780028
13976KLFT LFT20190113173510501/13/19 17:35:31  5-MIN KLFT 132335Z 02011KT 10SM CLR 08/03 A3031 -310 70 -1200 020/11 RMK AO2 T00780028
13976KLFT LFT20190113174010501/13/19 17:40:31  5-MIN KLFT 132340Z 02011KT 10SM CLR 08/02 A3032 -320 68 -1200 020/11 RMK AO2 T00780022
13976KLFT LFT20190113174510501/13/19 17:45:31  5-MIN KLFT 132345Z 03010KT 10SM CLR 08/02 A3032 -320 68 -1200 030/10 RMK AO2 T00780022
13976KLFT LFT20190113175013001/13/19 17:50:31  5-MIN KLFT 132350Z 02011KT 10SM CLR 07/02 A3032 -320 70 -1200 020/11 RMK AO2 SLP266 T00720022 10122 20072 56012
13976KLFT LFT20190113175510501/13/19 17:55:31  5-MIN KLFT 132355Z 03011KT 10SM CLR 07/02 A3032 -320 70 -1200 020/11 RMK AO2 T00720022
13976KLFT LFT20190113180010501/13/19 18:00:31  5-MIN KLFT 140000Z 02012KT 10SM CLR 07/02 A3032 -320 70 -1200 020/12 RMK AO2 T00720022
13976KLFT LFT20190113180510501/13/19 18:05:31  5-MIN KLFT 140005Z 02011KT 10SM CLR 07/02 A3032 -320 70 -1300 020/11 RMK AO2 T00720022
13976KLFT LFT20190113181010501/13/19 18:10:31  5-MIN KLFT 140010Z 02011KT 10SM CLR 07/02 A3032 -320 70 -1300 020/11 RMK AO2 T00720022
13976KLFT LFT20190113181510501/13/19 18:15:31  5-MIN KLFT 140015Z 02009KT 10SM CLR 07/02 A3032 -320 70 -1300 020/09 RMK AO2 T00720022
13976KLFT LFT20190113182010501/13/19 18:20:31  5-MIN KLFT 140020Z 02009KT 10SM CLR 07/02 A3033 -320 73 -1300 010/09 RMK AO2 T00670022
13976KLFT LFT20190113182510501/13/19 18:25:31  5-MIN KLFT 140025Z 02010KT 10SM CLR 07/02 A3033 -330 73 -1300 020/10 RMK AO2 T00670022
13976KLFT LFT20190113183010501/13/19 18:30:31  5-MIN KLFT 140030Z 02007KT 10SM CLR 07/02 A3033 -330 73 -1300 020/07 RMK AO2 T00670022
13976KLFT LFT20190113183510501/13/19 18:35:31  5-MIN KLFT 140035Z 02007KT 10SM CLR 06/02 A3033 -330 76 -1400 020/07 RMK AO2 T00610022
13976KLFT LFT20190113184010501/13/19 18:40:31  5-MIN KLFT 140040Z 02007KT 10SM CLR 07/02 A3033 -330 73 -1300 020/07 RMK AO2 T00670022
13976KLFT LFT20190113184510501/13/19 18:45:31  5-MIN KLFT 140045Z 02008KT 10SM CLR 06/02 A3034 -330 76 -1400 020/08 RMK AO2 T00610022
13976KLFT LFT20190113185011201/13/19 18:50:31  5-MIN KLFT 140050Z 01007KT 10SM CLR 06/02 A3034 -340 76 -1400 010/07 RMK AO2 SLP273 T00610022
13976KLFT LFT20190113185510501/13/19 18:55:31  5-MIN KLFT 140055Z 01009KT 10SM CLR 07/02 A3034 -340 73 -1300 010/09 RMK AO2 T00670022
13976KLFT LFT20190113190010501/13/19 19:00:31  5-MIN KLFT 140100Z 01008KT 10SM CLR 06/02 A3034 -340 76 -1400 010/08 RMK AO2 T00610022
13976KLFT LFT20190113190510501/13/19 19:05:31  5-MIN KLFT 140105Z 02009KT 10SM CLR 06/02 A3034 -340 76 -1400 010/09 RMK AO2 T00610022
13976KLFT LFT20190113191010501/13/19 19:10:31  5-MIN KLFT 140110Z 01007KT 10SM CLR 06/02 A3034 -340 76 -1400 010/07 RMK AO2 T00610022
13976KLFT LFT20190113191510501/13/19 19:15:31  5-MIN KLFT 140115Z 36006KT 10SM CLR 06/02 A3034 -340 76 -1400 360/06 RMK AO2 T00610022
13976KLFT LFT20190113192010501/13/19 19:20:31  5-MIN KLFT 140120Z 36009KT 10SM CLR 06/02 A3034 -340 76 -1400 360/09 RMK AO2 T00610022
13976KLFT LFT20190113192510501/13/19 19:25:31  5-MIN KLFT 140125Z 36009KT 10SM CLR 06/02 A3035 -340 76 -1400 360/09 RMK AO2 T00610022
13976KLFT LFT20190113193010501/13/19 19:30:31  5-MIN KLFT 140130Z 36008KT 10SM CLR 06/02 A3035 -340 76 -1400 360/08 RMK AO2 T00610022
13976KLFT LFT20190113193510801/13/19 19:35:31  5-MIN KLFT 140135Z 36008KT 10SM FEW023 06/02 A3035 -350 76 -1400 360/08 RMK AO2 T00610022
13976KLFT LFT20190113194010801/13/19 19:40:31  5-MIN KLFT 140140Z 36008KT 10SM SCT023 06/02 A3035 -350 76 -1400 360/08 RMK AO2 T00610022
13976KLFT LFT20190113194510801/13/19 19:45:31  5-MIN KLFT 140145Z 36009KT 10SM BKN023 06/02 A3035 -350 76 -1400 360/09 RMK AO2 T00610022
13976KLFT LFT20190113195011501/13/19 19:50:31  5-MIN KLFT 140150Z 36009KT 10SM BKN023 07/02 A3035 -350 73 -1400 360/09 RMK AO2 SLP278 T00670022
13976KLFT LFT20190113195510801/13/19 19:55:31  5-MIN KLFT 140155Z 01007KT 10SM BKN023 07/02 A3036 -350 73 -1400 010/07 RMK AO2 T00670022
13976KLFT LFT20190113200010801/13/19 20:00:31  5-MIN KLFT 140200Z 01008KT 10SM OVC022 07/02 A3036 -350 73 -1400 010/08 RMK AO2 T00670022
13976KLFT LFT20190113200510801/13/19 20:05:31  5-MIN KLFT 140205Z 02008KT 10SM OVC022 07/02 A3036 -350 73 -1400 020/08 RMK AO2 T00670022
13976KLFT LFT20190113201011401/13/19 20:10:31  5-MIN KLFT 140210Z 03011G17KT 10SM OVC022 07/02 A3036 -350 73 -1400 030/11G17 RMK AO2 T00670022
13976KLFT LFT20190113201510801/13/19 20:15:31  5-MIN KLFT 140215Z 02011KT 10SM OVC022 07/02 A3036 -350 73 -1400 020/11 RMK AO2 T00670022
13976KLFT LFT20190113202010801/13/19 20:20:31  5-MIN KLFT 140220Z 04010KT 10SM OVC022 07/02 A3036 -350 73 -1400 040/10 RMK AO2 T00670022
13976KLFT LFT20190113202510801/13/19 20:25:31  5-MIN KLFT 140225Z 04013KT 10SM OVC022 06/02 A3036 -350 76 -1400 030/13 RMK AO2 T00610022
13976KLFT LFT20190113203010801/13/19 20:30:31  5-MIN KLFT 140230Z 02014KT 10SM OVC022 06/02 A3036 -360 73 -1400 020/14 RMK AO2 T00610017
13976KLFT LFT20190113203510801/13/19 20:35:31  5-MIN KLFT 140235Z 03012KT 10SM OVC022 06/02 A3036 -360 73 -1400 020/12 RMK AO2 T00610017
13976KLFT LFT20190113204010801/13/19 20:40:31  5-MIN KLFT 140240Z 02010KT 10SM OVC022 06/02 A3036 -360 73 -1400 020/10 RMK AO2 T00610017
13976KLFT LFT20190113204510801/13/19 20:45:31  5-MIN KLFT 140245Z 01011KT 10SM OVC022 06/02 A3036 -360 73 -1400 010/11 RMK AO2 T00610017
13976KLFT LFT20190113205012101/13/19 20:50:31  5-MIN KLFT 140250Z 02009KT 10SM OVC022 06/02 A3037 -360 73 -1400 020/09 RMK AO2 SLP282 T00610017 53011
13976KLFT LFT20190113205510801/13/19 20:55:31  5-MIN KLFT 140255Z 02010KT 10SM OVC022 06/02 A3037 -360 73 -1400 020/10 RMK AO2 T00610017
13976KLFT LFT20190113210010801/13/19 21:00:31  5-MIN KLFT 140300Z 01008KT 10SM OVC022 06/02 A3037 -370 73 -1400 010/08 RMK AO2 T00610017
13976KLFT LFT20190113210510801/13/19 21:05:31  5-MIN KLFT 140305Z 36011KT 10SM OVC022 06/02 A3037 -370 73 -1400 360/11 RMK AO2 T00610017
13976KLFT LFT20190113211010801/13/19 21:10:31  5-MIN KLFT 140310Z 02010KT 10SM OVC022 06/02 A3038 -370 73 -1400 010/10 RMK AO2 T00610017
13976KLFT LFT20190113211510801/13/19 21:15:31  5-MIN KLFT 140315Z 02012KT 10SM OVC022 06/02 A3038 -370 73 -1400 010/12 RMK AO2 T00610017
13976KLFT LFT20190113212010801/13/19 21:20:31  5-MIN KLFT 140320Z 02009KT 10SM OVC022 06/02 A3038 -370 73 -1500 010/09 RMK AO2 T00610017
13976KLFT LFT20190113212510801/13/19 21:25:31  5-MIN KLFT 140325Z 01008KT 10SM OVC022 06/02 A3038 -370 73 -1500 010/08 RMK AO2 T00610017
13976KLFT LFT20190113213010801/13/19 21:30:31  5-MIN KLFT 140330Z 02009KT 10SM OVC022 06/02 A3038 -370 73 -1500 020/09 RMK AO2 T00610017
13976KLFT LFT20190113213510801/13/19 21:35:31  5-MIN KLFT 140335Z 01011KT 10SM OVC022 07/02 A3038 -380 70 -1400 010/11 RMK AO2 T00670017
13976KLFT LFT20190113214010801/13/19 21:40:31  5-MIN KLFT 140340Z 02008KT 10SM OVC022 06/02 A3038 -380 73 -1500 020/08 RMK AO2 T00610017
13976KLFT LFT20190113214510801/13/19 21:45:31  5-MIN KLFT 140345Z 02009KT 10SM OVC022 06/02 A3038 -380 73 -1500 020/09 RMK AO2 T00610017
13976KLFT LFT20190113215011501/13/19 21:50:31  5-MIN KLFT 140350Z 02010KT 10SM OVC022 06/02 A3038 -380 73 -1500 010/10 RMK AO2 SLP288 T00610017
13976KLFT LFT20190113215511401/13/19 21:55:31  5-MIN KLFT 140355Z 01010G17KT 10SM OVC022 06/02 A3039 -380 73 -1500 010/10G17 RMK AO2 T00610017
13976KLFT LFT20190113220011401/13/19 22:00:31  5-MIN KLFT 140400Z 02010G17KT 10SM OVC022 06/02 A3039 -380 73 -1500 020/10G17 RMK AO2 T00610017
13976KLFT LFT20190113220510801/13/19 22:05:31  5-MIN KLFT 140405Z 02008KT 10SM OVC022 06/02 A3039 -380 73 -1500 010/08 RMK AO2 T00610017
13976KLFT LFT20190113221010801/13/19 22:10:31  5-MIN KLFT 140410Z 02009KT 10SM OVC022 06/02 A3039 -380 73 -1500 020/09 RMK AO2 T00610017
13976KLFT LFT20190113221510801/13/19 22:15:31  5-MIN KLFT 140415Z 02008KT 10SM OVC021 06/02 A3039 -380 73 -1500 020/08 RMK AO2 T00610017
13976KLFT LFT20190113222010801/13/19 22:20:31  5-MIN KLFT 140420Z 03008KT 10SM OVC021 06/02 A3039 -380 76 -1500 030/08 RMK AO2 T00610022
13976KLFT LFT20190113222511301/13/19 22:25:31  5-MIN KLFT 140425Z AUTO 02007KT 10SM OVC021 06/02 A3039 -380 76 -1500 010/07 RMK AO2 T00610022
13976KLFT LFT20190113223011301/13/19 22:30:31  5-MIN KLFT 140430Z AUTO 03008KT 10SM OVC021 06/02 A3039 -380 76 -1500 020/08 RMK AO2 T00610022
13976KLFT LFT20190113223511301/13/19 22:35:31  5-MIN KLFT 140435Z AUTO 02009KT 10SM OVC021 06/02 A3039 -380 76 -1500 010/09 RMK AO2 T00610022
13976KLFT LFT20190113224011301/13/19 22:40:31  5-MIN KLFT 140440Z AUTO 01006KT 10SM OVC021 07/02 A3039 -380 73 -1400 010/06 RMK AO2 T00670022
13976KLFT LFT20190113224511301/13/19 22:45:31  5-MIN KLFT 140445Z AUTO 02007KT 10SM OVC021 07/02 A3039 -380 73 -1400 020/07 RMK AO2 T00670022
13976KLFT LFT20190113225012001/13/19 22:50:31  5-MIN KLFT 140450Z AUTO 01008KT 10SM OVC021 07/02 A3039 -380 73 -1400 360/08 RMK AO2 SLP291 T00670022
13976KLFT LFT20190113225511301/13/19 22:55:31  5-MIN KLFT 140455Z AUTO 01009KT 10SM OVC021 07/02 A3039 -380 73 -1400 010/09 RMK AO2 T00670022
13976KLFT LFT20190113230011301/13/19 23:00:31  5-MIN KLFT 140500Z AUTO 02008KT 10SM OVC021 06/02 A3039 -380 73 -1500 020/08 RMK AO2 T00610017
13976KLFT LFT20190113230511301/13/19 23:05:31  5-MIN KLFT 140505Z AUTO 01007KT 10SM OVC021 06/02 A3039 -380 73 -1500 010/07 RMK AO2 T00610017
13976KLFT LFT20190113231011301/13/19 23:10:31  5-MIN KLFT 140510Z AUTO 36009KT 10SM OVC021 06/02 A3039 -380 73 -1500 360/09 RMK AO2 T00610017
13976KLFT LFT20190113231511301/13/19 23:15:31  5-MIN KLFT 140515Z AUTO 01010KT 10SM OVC021 06/02 A3039 -380 73 -1500 010/10 RMK AO2 T00610017
13976KLFT LFT20190113232011301/13/19 23:20:31  5-MIN KLFT 140520Z AUTO 01010KT 10SM OVC021 06/02 A3039 -380 73 -1500 010/10 RMK AO2 T00610017
13976KLFT LFT20190113232511301/13/19 23:25:31  5-MIN KLFT 140525Z AUTO 02010KT 10SM OVC021 06/02 A3039 -380 73 -1500 020/10 RMK AO2 T00610017
13976KLFT LFT20190113233011301/13/19 23:30:31  5-MIN KLFT 140530Z AUTO 03011KT 10SM OVC021 06/02 A3039 -380 73 -1500 030/11 RMK AO2 T00610017
13976KLFT LFT20190113233511301/13/19 23:35:31  5-MIN KLFT 140535Z AUTO 03009KT 10SM OVC021 06/02 A3039 -380 73 -1500 030/09 RMK AO2 T00610017
13976KLFT LFT20190113234011301/13/19 23:40:31  5-MIN KLFT 140540Z AUTO 02007KT 10SM OVC021 06/02 A3038 -380 73 -1500 020/07 RMK AO2 T00610017
13976KLFT LFT20190113234511301/13/19 23:45:31  5-MIN KLFT 140545Z AUTO 02006KT 10SM OVC021 06/02 A3039 -380 73 -1500 020/06 RMK AO2 T00610017
13976KLFT LFT20190113235014801/13/19 23:50:31  5-MIN KLFT 140550Z AUTO 03006KT 10SM OVC021 06/02 A3039 -380 76 -1500 030/06 RMK AO2 SLP289 T00610022 10072 20061 401220056 51009
13976KLFT LFT20190113235511301/13/19 23:55:31  5-MIN KLFT 140555Z AUTO 01009KT 10SM OVC021 06/02 A3038 -380 76 -1500 010/09 RMK AO2 T00610022
13976KLFT LFT20190114000011301/14/19 00:00:31  5-MIN KLFT 140600Z AUTO 01009KT 10SM OVC021 06/02 A3038 -380 73 -1500 010/09 RMK AO2 T00610017
13976KLFT LFT20190114000511301/14/19 00:05:31  5-MIN KLFT 140605Z AUTO 01008KT 10SM OVC021 06/02 A3039 -380 73 -1500 010/08 RMK AO2 T00610017
13976KLFT LFT20190114001011301/14/19 00:10:31  5-MIN KLFT 140610Z AUTO 02009KT 10SM OVC021 06/02 A3039 -380 73 -1500 010/09 RMK AO2 T00610017
13976KLFT LFT20190114001511301/14/19 00:15:31  5-MIN KLFT 140615Z AUTO 36011KT 10SM OVC021 06/02 A3039 -380 73 -1500 360/11 RMK AO2 T00610017
13976KLFT LFT20190114002011301/14/19 00:20:31  5-MIN KLFT 140620Z AUTO 01013KT 10SM OVC021 06/02 A3039 -380 73 -1500 010/13 RMK AO2 T00610017
13976KLFT LFT20190114002511301/14/19 00:25:31  5-MIN KLFT 140625Z AUTO 03010KT 10SM OVC021 06/02 A3039 -380 76 -1500 030/10 RMK AO2 T00560017
13976KLFT LFT20190114003011301/14/19 00:30:31  5-MIN KLFT 140630Z AUTO 02011KT 10SM OVC021 06/02 A3039 -380 76 -1500 020/11 RMK AO2 T00560017
13976KLFT LFT20190114003511301/14/19 00:35:31  5-MIN KLFT 140635Z AUTO 03011KT 10SM OVC021 06/02 A3039 -380 76 -1500 030/11 RMK AO2 T00560017
13976KLFT LFT20190114004011301/14/19 00:40:31  5-MIN KLFT 140640Z AUTO 04010KT 10SM OVC021 06/02 A3038 -380 76 -1500 040/10 RMK AO2 T00560017
13976KLFT LFT20190114004511301/14/19 00:45:31  5-MIN KLFT 140645Z AUTO 02011KT 10SM OVC021 06/02 A3038 -380 76 -1500 020/11 RMK AO2 T00560017
13976KLFT LFT20190114005012001/14/19 00:50:31  5-MIN KLFT 140650Z AUTO 03011KT 10SM OVC021 06/02 A3038 -380 76 -1500 030/11 RMK AO2 SLP288 T00560017
13976KLFT LFT20190114005511301/14/19 00:55:31  5-MIN KLFT 140655Z AUTO 03011KT 10SM OVC021 06/02 A3038 -380 76 -1500 030/11 RMK AO2 T00560017
13976KLFT LFT20190114010011301/14/19 01:00:31  5-MIN KLFT 140700Z AUTO 03012KT 10SM OVC021 06/01 A3038 -370 73 -1500 030/12 RMK AO2 T00560011
13976KLFT LFT20190117050512301/17/19 05:05:31  5-MIN KLFT 171105Z AUTO 16004KT 8SM OVC034 12/12 A3018 -190 96 -500 160/04 RMK AO2 RAE05 P0000 T01220117
13976KLFT LFT20190117051013001/17/19 05:10:31  5-MIN KLFT 171110Z AUTO 15004KT 8SM BKN030 OVC037 12/12 A3018 -190 96 -500 150/04 RMK AO2 RAE05 P0000 T01220117
13976KLFT LFT20190117051513001/17/19 05:15:31  5-MIN KLFT 171115Z AUTO 16004KT 9SM BKN030 OVC037 12/12 A3018 -190 96 -500 160/04 RMK AO2 RAE05 P0000 T01220117
13976KLFT LFT20190117052013001/17/19 05:20:31  5-MIN KLFT 171120Z AUTO 17005KT 9SM BKN028 OVC039 12/12 A3018 -190 96 -500 170/05 RMK AO2 RAE05 P0000 T01220117
13976KLFT LFT20190117052513001/17/19 05:25:31  5-MIN KLFT 171125Z AUTO 16004KT 8SM BKN028 OVC039 12/12 A3018 -190 96 -500 160/04 RMK AO2 RAE05 P0000 T01220117
13976KLFT LFT20190117053013001/17/19 05:30:31  5-MIN KLFT 171130Z AUTO 15004KT 9SM BKN028 OVC040 12/12 A3018 -190 96 -500 150/04 RMK AO2 RAE05 P0000 T01220117
13976KLFT LFT20190117053513101/17/19 05:35:31  5-MIN KLFT 171135Z AUTO 15005KT 10SM BKN028 OVC040 12/12 A3018 -190 96 -500 150/05 RMK AO2 RAE05 P0000 T01220117
13976KLFT LFT20190117054013101/17/19 05:40:31  5-MIN KLFT 171140Z AUTO 16003KT 10SM BKN028 OVC040 12/12 A3017 -180 96 -500 160/03 RMK AO2 RAE05 P0000 T01220117
13976KLFT LFT20190117054513101/17/19 05:45:31  5-MIN KLFT 171145Z AUTO VRB04KT 10SM BKN030 OVC040 12/12 A3017 -180 96 -500 VRB/04 RMK AO2 RAE05 P0000 T01220117
13976KLFT LFT20190117055012101/17/19 05:50:31  5-MIN KLFT 171150Z AUTO 16005KT 10SM BKN030 OVC040 12/12 A3017 -180 96 -500 160/05 RMK AO2 RAE05 P0000
13976KLFT LFT20190117055512101/17/19 05:55:31  5-MIN KLFT 171155Z 17004KT 10SM BKN027 BKN032 OVC040 12/12 A3017 -180 96 -500 170/04 RMK AO2 T01220117
13976KLFT LFT20190117060011401/17/19 06:00:31  5-MIN KLFT 171200Z 17004KT 10SM BKN029 OVC040 12/12 A3017 -180 96 -500 170/04 RMK AO2 T01220117
13976KLFT LFT20190117060511401/17/19 06:05:31  5-MIN KLFT 171205Z 16004KT 10SM BKN026 OVC031 12/12 A3017 -180 96 -500 160/04 RMK AO2 T01220117
13976KLFT LFT20190117061012101/17/19 06:10:31  5-MIN KLFT 171210Z 17005KT 10SM BKN026 BKN033 OVC041 12/12 A3017 -180 96 -500 170/05 RMK AO2 T01220117
13976KLFT LFT20190117061511401/17/19 06:15:31  5-MIN KLFT 171215Z 16005KT 10SM BKN028 OVC041 12/12 A3017 -180 96 -500 160/05 RMK AO2 T01220117
13976KLFT LFT20190117062011401/17/19 06:20:31  5-MIN KLFT 171220Z 17005KT 10SM BKN028 OVC041 12/12 A3017 -180 96 -500 170/05 RMK AO2 T01220117
13976KLFT LFT20190117062511401/17/19 06:25:31  5-MIN KLFT 171225Z 16005KT 10SM BKN026 OVC041 12/12 A3017 -180 96 -500 160/05 RMK AO2 T01220117
13976KLFT LFT20190117063011401/17/19 06:30:31  5-MIN KLFT 171230Z 16006KT 10SM BKN026 OVC041 12/12 A3017 -180 96 -500 160/06 RMK AO2 T01220117
13976KLFT LFT20190117063511401/17/19 06:35:31  5-MIN KLFT 171235Z 16005KT 10SM BKN026 OVC041 12/12 A3017 -180 96 -500 160/05 RMK AO2 T01220117
13976KLFT LFT20190117064010701/17/19 06:40:31  5-MIN KLFT 171240Z 16005KT 10SM OVC025 12/12 A3017 -180 96 -500 160/05 RMK AO2 T01220117
13976KLFT LFT20190117064511401/17/19 06:45:31  5-MIN KLFT 171245Z VRB04KT 10SM BKN025 OVC040 12/12 A3017 -180 96 -500 VRB/04 RMK AO2 T01220117
13976KLFT LFT20190117065012101/17/19 06:50:31  5-MIN KLFT 171250Z 16005KT 10SM BKN025 OVC038 12/12 A3017 -180 96 -500 160/05 RMK AO2 SLP216 T01220117
13976KLFT LFT20190117065511401/17/19 06:55:31  5-MIN KLFT 171255Z 16003KT 10SM BKN024 OVC038 13/12 A3017 -180 93 -400 160/03 RMK AO2 T01280117
13976KLFT LFT20190117070012101/17/19 07:00:31  5-MIN KLFT 171300Z 16005KT 10SM BKN024 BKN038 OVC080 13/12 A3017 -180 96 -400 150/05 RMK AO2 T01280122
13976KLFT LFT20190117070512101/17/19 07:05:31  5-MIN KLFT 171305Z 15005KT 10SM BKN025 BKN038 OVC080 13/12 A3017 -180 96 -400 150/05 RMK AO2 T01280122
13976KLFT LFT20190117071012101/17/19 07:10:31  5-MIN KLFT 171310Z VRB04KT 10SM FEW025 BKN049 OVC075 13/12 A3017 -180 96 -400 VRB/04 RMK AO2 T01280122
13976KLFT LFT20190117071512101/17/19 07:15:31  5-MIN KLFT 171315Z 16005KT 10SM FEW025 BKN049 OVC075 13/12 A3018 -190 96 -400 160/05 RMK AO2 T01280122
13976KLFT LFT20190117072011401/17/19 07:20:31  5-MIN KLFT 171320Z VRB04KT 10SM FEW026 OVC049 13/12 A3018 -190 96 -400 VRB/04 RMK AO2 T01280122
13976KLFT LFT20190117072511401/17/19 07:25:31  5-MIN KLFT 171325Z 16005KT 10SM FEW026 OVC049 13/12 A3018 -190 96 -400 160/05 RMK AO2 T01280122
13976KLFT LFT20190117073010701/17/19 07:30:31  5-MIN KLFT 171330Z 16005KT 10SM OVC049 13/12 A3018 -190 93 -300 160/05 RMK AO2 T01330122
13976KLFT LFT20190117073510701/17/19 07:35:31  5-MIN KLFT 171335Z 16005KT 10SM OVC047 13/12 A3017 -190 93 -300 160/05 RMK AO2 T01330122
13976KLFT LFT20190117074010701/17/19 07:40:31  5-MIN KLFT 171340Z 16006KT 10SM OVC047 13/12 A3017 -180 93 -300 160/06 RMK AO2 T01330122
13976KLFT LFT20190117074510701/17/19 07:45:31  5-MIN KLFT 171345Z 16005KT 10SM OVC047 13/12 A3017 -180 93 -300 160/05 RMK AO2 T01330122
13976KLFT LFT20190117075011401/17/19 07:50:31  5-MIN KLFT 171350Z 16004KT 10SM OVC047 13/12 A3018 -190 93 -300 160/04 RMK AO2 SLP217 T01330122
13976KLFT LFT20190117075511401/17/19 07:55:31  5-MIN KLFT 171355Z 16005KT 10SM BKN042 OVC049 13/12 A3017 -180 93 -300 160/05 RMK AO2 T01330122
13976KLFT LFT20190117080011401/17/19 08:00:31  5-MIN KLFT 171400Z 17006KT 10SM BKN042 OVC049 13/12 A3017 -190 93 -300 170/06 RMK AO2 T01330122
13976KLFT LFT20190117080512101/17/19 08:05:31  5-MIN KLFT 171405Z 16006KT 10SM FEW021 BKN040 OVC049 13/12 A3018 -190 93 -300 160/06 RMK AO2 T01330122
13976KLFT LFT20190117081012101/17/19 08:10:31  5-MIN KLFT 171410Z 17005KT 10SM FEW021 BKN038 OVC047 13/12 A3018 -190 93 -300 170/05 RMK AO2 T01330122
13976KLFT LFT20190117081511401/17/19 08:15:31  5-MIN KLFT 171415Z 16005KT 10SM SCT021 OVC038 14/13 A3018 -190 93 -300 160/05 RMK AO2 T01390128
13976KLFT LFT20190117082012101/17/19 08:20:31  5-MIN KLFT 171420Z 17005KT 10SM SCT021 SCT031 OVC038 14/13 A3018 -190 93 -300 170/05 RMK AO2 T01390128
13976KLFT LFT20190117082512001/17/19 08:25:31  5-MIN KLFT 171425Z 17006KT 7SM SCT021 BKN034 OVC043 14/13 A3018 -190 93 -300 170/06 RMK AO2 T01390128
13976KLFT LFT20190117083012301/17/19 08:30:31  5-MIN KLFT 171430Z 17006KT 6SM BR SCT022 SCT029 OVC039 14/13 A3018 -190 93 -300 170/06 RMK AO2 T01390128
13976KLFT LFT20190117083512001/17/19 08:35:31  5-MIN KLFT 171435Z 16005KT 9SM FEW022 SCT030 OVC038 14/13 A3018 -190 93 -300 160/05 RMK AO2 T01390128
13976KLFT LFT20190117084012101/17/19 08:40:31  5-MIN KLFT 171440Z 17004KT 10SM SCT022 BKN030 OVC044 14/13 A3018 -190 93 -300 170/04 RMK AO2 T01390128
13976KLFT LFT20190117084512101/17/19 08:45:31  5-MIN KLFT 171445Z 18005KT 10SM BKN022 BKN027 OVC041 14/13 A3018 -190 96 -300 170/05 RMK AO2 T01390133
13976KLFT LFT20190117085011101/17/19 08:50:31  5-MIN KLFT 171450Z 17006KT 10SM BKN022 BKN027 OVC041 14/13 A3019 -200 93 -200 170/06 RMK AO2
13976KLFT LFT20190117085512001/17/19 08:55:31  5-MIN KLFT 171455Z 17005KT 8SM BKN024 BKN029 OVC035 14/13 A3019 -200 93 -200 170/05 RMK AO2 T01440133
13976KLFT LFT20190117090012301/17/19 09:00:31  5-MIN KLFT 171500Z 18006KT 6SM BR BKN024 BKN029 OVC035 14/13 A3019 -200 93 -200 180/06 RMK AO2 T01440133
13976KLFT LFT20190117090512301/17/19 09:05:31  5-MIN KLFT 171505Z 17007KT 6SM BR BKN024 BKN029 OVC035 14/13 A3020 -200 93 -200 170/07 RMK AO2 T01440133
13976KLFT LFT20190117091012301/17/19 09:10:31  5-MIN KLFT 171510Z 17005KT 6SM BR BKN024 BKN029 OVC035 14/14 A3020 -210 96 -200 170/05 RMK AO2 T01440139
13976KLFT LFT20190117091512301/17/19 09:15:31  5-MIN KLFT 171515Z 17005KT 6SM BR BKN024 BKN029 OVC035 15/14 A3020 -210 93 -200 170/05 RMK AO2 T01500139
13976KLFT LFT20190117092012301/17/19 09:20:31  5-MIN KLFT 171520Z 17005KT 6SM BR BKN024 BKN029 OVC035 15/14 A3020 -210 93 -200 170/05 RMK AO2 T01500139
13976KLFT LFT20190117092512301/17/19 09:25:31  5-MIN KLFT 171525Z 17006KT 6SM BR BKN024 BKN029 OVC035 15/14 A3020 -210 93 -200 160/06 RMK AO2 T01500139
13976KLFT LFT20190117093012301/17/19 09:30:31  5-MIN KLFT 171530Z 17006KT 6SM BR BKN024 BKN029 OVC035 16/15 A3020 -210 96 -100 170/06 RMK AO2 T01560150
13976KLFT LFT20190117093512001/17/19 09:35:31  5-MIN KLFT 171535Z 17008KT 6SM BR BKN024 BKN029 OVC035 16/14 A3020 -210 90 0 170/08 RMK AO2 T01610144
13976KLFT LFT20190117094012001/17/19 09:40:31  5-MIN KLFT 171540Z 17007KT 6SM BR BKN024 BKN029 OVC035 16/14 A3020 -210 86 0 170/07 RMK AO2 T01610139
13976KLFT LFT20190117094512001/17/19 09:45:31  5-MIN KLFT 171545Z 17006KT 6SM BR BKN024 BKN029 OVC035 16/14 A3020 -210 90 0 170/06 RMK AO2 T01610144
13976KLFT LFT20190117095012701/17/19 09:50:31  5-MIN KLFT 171550Z 18006KT 6SM BR BKN024 BKN029 OVC035 16/14 A3020 -210 90 0 170/06 RMK AO2 SLP227 T01610144
13976KLFT LFT20190117095511801/17/19 09:55:31  5-MIN KLFT 171555Z 17007KT 10SM FEW020 BKN031 OVC040 16/14 A3020 -210 90 0 170/07 RMK AO2 T01610144
13976KLFT LFT20190117100011101/17/19 10:00:31  5-MIN KLFT 171600Z 17006KT 10SM FEW018 OVC031 16/15 A3020 -210 93 0 170/06 RMK AO2 T01610150
13976KLFT LFT20190117100511101/17/19 10:05:31  5-MIN KLFT 171605Z 17007KT 10SM SCT022 OVC031 17/15 A3020 -210 90 0 170/07 RMK AO2 T01670150
13976KLFT LFT20190117101011101/17/19 10:10:31  5-MIN KLFT 171610Z 18008KT 10SM SCT022 OVC033 17/15 A3020 -210 90 0 170/08 RMK AO2 T01670150
13976KLFT LFT20190117101511801/17/19 10:15:31  5-MIN KLFT 171615Z 17006KT 10SM FEW022 BKN033 OVC045 17/15 A3020 -210 90 0 170/06 RMK AO2 T01670150
13976KLFT LFT20190117102011701/17/19 10:20:31  5-MIN KLFT 171620Z 17008KT 8SM FEW022 BKN031 OVC045 17/15 A3020 -210 90 0 170/08 RMK AO2 T01670150
13976KLFT LFT20190117102511701/17/19 10:25:31  5-MIN KLFT 171625Z 17006KT 7SM FEW024 BKN031 OVC045 17/16 A3020 -210 90 0 170/06 RMK AO2 T01720156
13976KLFT LFT20190117103011701/17/19 10:30:31  5-MIN KLFT 171630Z 17007KT 9SM FEW022 BKN031 OVC045 17/16 A3020 -210 90 0 170/07 RMK AO2 T01720156
13976KLFT LFT20190117103511301/17/19 10:35:31  5-MIN KLFT 171635Z 17007KT 10SM BKN033 OVC043 18/16 A3020 -210 87 100 170/07 RMK AO2 T01780156
13976KLFT LFT20190117104012001/17/19 10:40:31  5-MIN KLFT 171640Z 17006KT 10SM FEW025 SCT029 OVC036 18/16 A3020 -210 87 100 170/06 RMK AO2 T01780156
13976KLFT LFT20190117104511301/17/19 10:45:31  5-MIN KLFT 171645Z 17006KT 10SM BKN029 OVC036 18/16 A3020 -210 87 100 170/06 RMK AO2 T01780156
13976KLFT LFT20190117105010301/17/19 10:50:31  5-MIN KLFT 171650Z 18007KT 10SM BKN029 OVC038 18/17 A3020 -210 90 200 180/07 RMK AO2
13976KLFT LFT20190117105511301/17/19 10:55:31  5-MIN KLFT 171655Z 18008KT 10SM BKN029 OVC036 19/16 A3020 -200 84 200 180/08 RMK AO2 T01890161
13976KLFT LFT20190117110012001/17/19 11:00:31  5-MIN KLFT 171700Z 18008KT 10SM BKN029 BKN035 OVC050 19/16 A3019 -200 84 200 180/08 RMK AO2 T01890161
13976KLFT LFT20190117110512001/17/19 11:05:31  5-MIN KLFT 171705Z 19010KT 10SM BKN027 BKN033 BKN048 19/17 A3019 -200 87 200 190/10 RMK AO2 T01890167
13976KLFT LFT20190117111012001/17/19 11:10:31  5-MIN KLFT 171710Z 19010KT 10SM BKN027 BKN033 OVC050 20/17 A3019 -200 81 400 190/10 RMK AO2 T02000167
13976KLFT LFT20190117111511301/17/19 11:15:31  5-MIN KLFT 171715Z 18011KT 10SM SCT011 OVC021 19/17 A3018 -190 84 300 180/11 RMK AO2 T01940167
13976KLFT LFT20190117112011301/17/19 11:20:31  5-MIN KLFT 171720Z 18012KT 10SM SCT011 OVC021 20/17 A3019 -200 81 400 180/12 RMK AO2 T02000167
13976KLFT LFT20190117112511901/17/19 11:25:31  5-MIN KLFT 171725Z 19012G19KT 10SM SCT011 OVC021 20/17 A3018 -190 81 400 180/12G19 RMK AO2 T02000167
13976KLFT LFT20190117113011901/17/19 11:30:31  5-MIN KLFT 171730Z 20011G19KT 10SM SCT011 OVC021 20/17 A3018 -190 81 400 200/11G19 RMK AO2 T02000167
13976KLFT LFT20190117113511301/17/19 11:35:31  5-MIN KLFT 171735Z 19011KT 10SM SCT011 OVC021 20/17 A3018 -190 84 400 190/11 RMK AO2 T02000172
13976KLFT LFT20190117114011301/17/19 11:40:31  5-MIN KLFT 171740Z 19012KT 10SM SCT011 OVC021 20/17 A3017 -180 84 400 190/12 RMK AO2 T02000172
13976KLFT LFT20190117114511301/17/19 11:45:31  5-MIN KLFT 171745Z 20011KT 10SM SCT011 OVC021 20/17 A3017 -180 84 400 200/11 RMK AO2 T02000172
13976KLFT LFT20190117115013801/17/19 11:50:31  5-MIN KLFT 171750Z 20010KT 10SM SCT011 OVC021 21/18 A3017 -180 81 500 200/10 RMK AO2 SLP214 T02110178 10211 20128 53005
13976KLFT LFT20190117115512601/17/19 11:55:31  5-MIN KLFT 171755Z 20012G17KT 10SM FEW014 BKN028 OVC043 21/17 A3016 -170 81 500 200/12G17 RMK AO2 T02060172
13976KLFT LFT20190117120012601/17/19 12:00:31  5-MIN KLFT 171800Z 19008G17KT 10SM FEW016 BKN028 OVC043 21/17 A3016 -170 81 500 190/08G17 RMK AO2 T02060172
13976KLFT LFT20190117120512001/17/19 12:05:31  5-MIN KLFT 171805Z 20009KT 10SM SCT018 BKN022 OVC034 21/17 A3015 -170 81 500 200/09 RMK AO2 T02060172
13976KLFT LFT20190117121012001/17/19 12:10:31  5-MIN KLFT 171810Z 21011KT 10SM BKN018 BKN022 OVC030 21/17 A3015 -160 81 500 210/11 RMK AO2 T02060172
13976KLFT LFT20190117121511301/17/19 12:15:31  5-MIN KLFT 171815Z 21011KT 10SM BKN018 OVC022 21/17 A3015 -160 81 500 200/11 RMK AO2 T02060172
13976KLFT LFT20190117122011301/17/19 12:20:31  5-MIN KLFT 171820Z 21011KT 10SM BKN018 OVC022 21/17 A3015 -160 81 500 210/11 RMK AO2 T02060172
13976KLFT LFT20190117122510601/17/19 12:25:31  5-MIN KLFT 171825Z 20012KT 10SM OVC018 21/17 A3014 -160 81 500 200/12 RMK AO2 T02060172
13976KLFT LFT20190117123011201/17/19 12:30:31  5-MIN KLFT 171830Z 21010G17KT 10SM OVC016 21/18 A3014 -150 84 500 210/10G17 RMK AO2 T02060178
13976KLFT LFT20190117123511201/17/19 12:35:31  5-MIN KLFT 171835Z 21010G17KT 10SM OVC016 21/18 A3014 -150 84 500 210/10G17 RMK AO2 T02060178
13976KLFT LFT20190117124010601/17/19 12:40:31  5-MIN KLFT 171840Z 22010KT 10SM OVC016 21/18 A3013 -150 84 500 220/10 RMK AO2 T02060178
13976KLFT LFT20190117124510601/17/19 12:45:31  5-MIN KLFT 171845Z 22011KT 10SM OVC016 21/18 A3013 -150 84 500 220/11 RMK AO2 T02060178
13976KLFT LFT20190117125011101/17/19 12:50:31  5-MIN KLFT 171850Z 22010KT 7SM -RA OVC014 21/18 A3013 -140 84 500 220/10 RMK AO2 RAB49 P0000
13976KLFT LFT20190117125511501/17/19 12:55:31  5-MIN KLFT 171855Z 23009KT 8SM -RA OVC014 21/18 A3013 -140 87 500 230/09 RMK AO2 P0000 T02060183
13976KLFT LFT20190117130012001/17/19 13:00:31  5-MIN KLFT 171900Z 23012KT 10SM OVC014 21/18 A3013 -140 87 500 230/12 RMK AO2 RAE1859 P0000 T02060183
13976KLFT LFT20190117130512001/17/19 13:05:31  5-MIN KLFT 171905Z 23015KT 10SM OVC014 21/18 A3012 -140 87 500 230/15 RMK AO2 RAE1859 P0000 T02060183
13976KLFT LFT20190117131012601/17/19 13:10:31  5-MIN KLFT 171910Z 23017G22KT 10SM OVC014 21/18 A3012 -140 84 500 230/17G22 RMK AO2 RAE1859 P0000 T02060178
13976KLFT LFT20190117131512001/17/19 13:15:31  5-MIN KLFT 171915Z 23014KT 10SM OVC014 21/18 A3012 -130 87 500 230/14 RMK AO2 RAE1859 P0000 T02060183
13976KLFT LFT20190117132012001/17/19 13:20:31  5-MIN KLFT 171920Z 24013KT 10SM OVC014 21/18 A3011 -130 87 500 240/13 RMK AO2 RAE1859 P0000 T02060183
13976KLFT LFT20190117132512001/17/19 13:25:31  5-MIN KLFT 171925Z 23012KT 10SM OVC014 21/18 A3011 -130 87 500 230/12 RMK AO2 RAE1859 P0000 T02060183
13976KLFT LFT20190117133012001/17/19 13:30:31  5-MIN KLFT 171930Z 23014KT 10SM OVC014 21/18 A3011 -120 87 500 230/14 RMK AO2 RAE1859 P0000 T02060183
13976KLFT LFT20190117133512001/17/19 13:35:31  5-MIN KLFT 171935Z 23015KT 10SM OVC014 21/18 A3010 -120 84 600 230/15 RMK AO2 RAE1859 P0000 T02110183
13976KLFT LFT20190117134012001/17/19 13:40:31  5-MIN KLFT 171940Z 23011KT 10SM OVC014 21/18 A3010 -120 84 600 230/11 RMK AO2 RAE1859 P0000 T02110183
13976KLFT LFT20190117134512001/17/19 13:45:31  5-MIN KLFT 171945Z 23011KT 10SM OVC014 21/18 A3010 -120 84 600 230/11 RMK AO2 RAE1859 P0000 T02110183
13976KLFT LFT20190117135012701/17/19 13:50:31  5-MIN KLFT 171950Z 23011KT 10SM OVC014 21/18 A3010 -120 84 500 230/11 RMK AO2 RAE1859 SLP193 P0000 T02060178
13976KLFT LFT20190117135511901/17/19 13:55:31  5-MIN KLFT 171955Z 23015G23KT 10SM BKN014 OVC025 21/18 A3010 -120 87 500 230/15G23 RMK AO2 T02060183
13976KLFT LFT20190117140011901/17/19 14:00:31  5-MIN KLFT 172000Z 24017G23KT 10SM BKN014 OVC025 21/18 A3010 -110 84 500 240/17G23 RMK AO2 T02060178
13976KLFT LFT20190117140511901/17/19 14:05:31  5-MIN KLFT 172005Z 23010G20KT 10SM BKN014 OVC023 21/18 A3010 -110 84 600 230/10G20 RMK AO2 T02110183
13976KLFT LFT20190117141011301/17/19 14:10:31  5-MIN KLFT 172010Z 23010KT 10SM BKN014 OVC023 21/18 A3009 -110 84 600 230/10 RMK AO2 T02110183
13976KLFT LFT20190117141510601/17/19 14:15:31  5-MIN KLFT 172015Z 22012KT 10SM OVC011 21/18 A3009 -110 84 600 220/12 RMK AO2 T02110183
13976KLFT LFT20190117142010601/17/19 14:20:31  5-MIN KLFT 172020Z 23010KT 10SM OVC011 21/18 A3009 -110 84 600 230/10 RMK AO2 T02110183
13976KLFT LFT20190117142510601/17/19 14:25:31  5-MIN KLFT 172025Z 22010KT 10SM OVC011 21/18 A3009 -110 84 600 220/10 RMK AO2 T02110183
13976KLFT LFT20190117143010601/17/19 14:30:31  5-MIN KLFT 172030Z 22014KT 10SM OVC011 21/18 A3009 -110 81 600 220/14 RMK AO2 T02110178
13976KLFT LFT20190117143511201/17/19 14:35:31  5-MIN KLFT 172035Z 22014G20KT 10SM OVC011 21/18 A3009 -110 81 600 220/14G20 RMK AO2 T02110178
13976KLFT LFT20190117144011201/17/19 14:40:31  5-MIN KLFT 172040Z 22018G22KT 10SM OVC011 21/18 A3009 -100 81 600 220/18G22 RMK AO2 T02110178
13976KLFT LFT20190117144511201/17/19 14:45:31  5-MIN KLFT 172045Z 23014G22KT 10SM OVC011 22/18 A3008 -100 78 700 230/14G22 RMK AO2 T02170178
13976KLFT LFT20190117145012501/17/19 14:50:31  5-MIN KLFT 172050Z 23015KT 10SM OVC011 22/18 A3009 -100 78 700 230/15 RMK AO2 SLP187 60000 T02170178 58013
13976KLFT LFT20190117145511201/17/19 14:55:31  5-MIN KLFT 172055Z 23018G23KT 10SM OVC020 21/18 A3008 -100 81 600 230/18G23 RMK AO2 T02110178
13976KLFT LFT20190117150011201/17/19 15:00:31  5-MIN KLFT 172100Z 22015G25KT 10SM OVC014 21/18 A3008 -100 81 600 220/15G25 RMK AO2 T02110178
13976KLFT LFT20190117150511201/17/19 15:05:31  5-MIN KLFT 172105Z 23016G25KT 10SM OVC014 21/18 A3008 -100 81 600 230/16G25 RMK AO2 T02110178
13976KLFT LFT20190117151010601/17/19 15:10:31  5-MIN KLFT 172110Z 23014KT 10SM OVC014 21/18 A3008 -100 81 600 230/14 RMK AO2 T02110178
13976KLFT LFT20190117151511201/17/19 15:15:31  5-MIN KLFT 172115Z 23015G23KT 10SM OVC014 21/17 A3008 -100 78 600 230/15G23 RMK AO2 T02110172
13976KLFT LFT20190117152011101/17/19 15:20:31  5-MIN KLFT 172120Z 22017G23KT 10SM OVC014 21/17 A3007 -90 81 600 220/17G23 RMK AO2 T02060172
13976KLFT LFT20190117152511101/17/19 15:25:31  5-MIN KLFT 172125Z 22015G23KT 10SM OVC014 21/17 A3007 -90 81 600 220/15G23 RMK AO2 T02060172
13976KLFT LFT20190117153011101/17/19 15:30:31  5-MIN KLFT 172130Z 23015G23KT 10SM OVC014 21/17 A3007 -90 81 600 230/15G23 RMK AO2 T02060172
13976KLFT LFT20190117153512901/17/19 15:35:31  5-MIN KLFT 172135Z 23018G27KT 10SM OVC014 21/17 A3007 -90 81 600 230/18G27 RMK AO2 PK WND 22027/2133 T02060172
13976KLFT LFT20190117154013001/17/19 15:40:31  5-MIN KLFT 172140Z 23014G27KT 10SM OVC014 21/17 A3008 -100 81 600 230/14G27 RMK AO2 PK WND 22027/2133 T02060172
13976KLFT LFT20190117154512901/17/19 15:45:31  5-MIN KLFT 172145Z 23017G24KT 10SM OVC014 20/17 A3008 -90 84 500 230/17G24 RMK AO2 PK WND 22027/2133 T02000172
13976KLFT LFT20190117155011901/17/19 15:50:31  5-MIN KLFT 172150Z 23016G24KT 10SM OVC016 20/17 A3008 -90 84 500 230/16G24 RMK AO2 PK WND 22027/2133
13976KLFT LFT20190117155511201/17/19 15:55:31  5-MIN KLFT 172155Z 23016G24KT 10SM OVC016 20/17 A3008 -100 84 500 230/16G24 RMK AO2 T02000172
13976KLFT LFT20190117160011201/17/19 16:00:31  5-MIN KLFT 172200Z 23015G24KT 10SM OVC016 20/17 A3008 -100 84 500 230/15G24 RMK AO2 T02000172
13976KLFT LFT20190117160511201/17/19 16:05:31  5-MIN KLFT 172205Z 25010G19KT 10SM OVC016 20/17 A3008 -100 84 500 250/10G19 RMK AO2 T02000172
13976KLFT LFT20190117161011201/17/19 16:10:31  5-MIN KLFT 172210Z 25011G16KT 10SM OVC016 20/17 A3009 -100 84 500 250/11G16 RMK AO2 T02000172
13976KLFT LFT20190117161510601/17/19 16:15:31  5-MIN KLFT 172215Z 26011KT 10SM OVC015 19/17 A3009 -100 87 400 260/11 RMK AO2 T01940172
13976KLFT LFT20190117162010601/17/19 16:20:31  5-MIN KLFT 172220Z 27011KT 10SM OVC015 19/17 A3009 -100 84 400 270/11 RMK AO2 T01940167
13976KLFT LFT20190117162510601/17/19 16:25:31  5-MIN KLFT 172225Z 25015KT 10SM OVC013 19/17 A3009 -110 84 400 250/15 RMK AO2 T01940167
13976KLFT LFT20190117163010601/17/19 16:30:31  5-MIN KLFT 172230Z 26012KT 10SM OVC013 19/17 A3009 -110 87 400 260/12 RMK AO2 T01890167
13976KLFT LFT20190117163510601/17/19 16:35:31  5-MIN KLFT 172235Z 25013KT 10SM OVC013 19/17 A3009 -110 87 400 250/13 RMK AO2 T01890167
13976KLFT LFT20190117164011201/17/19 16:40:31  5-MIN KLFT 172240Z 25016G21KT 10SM OVC011 19/16 A3009 -110 84 400 250/16G21 RMK AO2 T01890161
13976KLFT LFT20190117164511201/17/19 16:45:31  5-MIN KLFT 172245Z 25014G21KT 10SM OVC011 18/16 A3009 -110 87 300 240/14G21 RMK AO2 T01830161
13976KLFT LFT20190117165011901/17/19 16:50:31  5-MIN KLFT 172250Z 24013G21KT 10SM OVC011 18/16 A3009 -110 87 300 240/13G21 RMK AO2 SLP189 T01830161
13976KLFT LFT20190117165510601/17/19 16:55:31  5-MIN KLFT 172255Z 24014KT 10SM OVC012 18/16 A3009 -100 87 300 240/14 RMK AO2 T01830161
13976KLFT LFT20190117170010601/17/19 17:00:31  5-MIN KLFT 172300Z 24013KT 10SM OVC012 18/16 A3009 -100 87 300 240/13 RMK AO2 T01830161
13976KLFT LFT20190122001011201/22/19 00:10:31  5-MIN KLFT 220610Z AUTO 11005KT 10SM OVC048 11/07 A3018 -190 77 -600 110/05 RMK AO2 T01110072
13976KLFT LFT20190122001511201/22/19 00:15:31  5-MIN KLFT 220615Z AUTO VRB05KT 10SM OVC046 11/07 A3018 -190 77 -600 VRB/05 RMK AO2 T01110072
13976KLFT LFT20190122002011201/22/19 00:20:31  5-MIN KLFT 220620Z AUTO VRB05KT 10SM OVC046 11/08 A3018 -190 80 -600 VRB/05 RMK AO2 T01110078
13976KLFT LFT20190122002511201/22/19 00:25:31  5-MIN KLFT 220625Z AUTO 11005KT 10SM OVC046 11/08 A3017 -180 80 -600 110/05 RMK AO2 T01110078
13976KLFT LFT20190122003011201/22/19 00:30:31  5-MIN KLFT 220630Z AUTO VRB05KT 10SM OVC046 11/08 A3017 -180 80 -600 VRB/05 RMK AO2 T01110078
13976KLFT LFT20190122003511201/22/19 00:35:31  5-MIN KLFT 220635Z AUTO 12004KT 10SM OVC046 11/08 A3017 -180 80 -600 120/04 RMK AO2 T01110078
13976KLFT LFT20190122004011201/22/19 00:40:31  5-MIN KLFT 220640Z AUTO 11006KT 10SM OVC046 11/08 A3017 -180 80 -600 110/06 RMK AO2 T01110078
13976KLFT LFT20190122004511201/22/19 00:45:31  5-MIN KLFT 220645Z AUTO VRB04KT 10SM OVC048 11/08 A3016 -180 80 -600 VRB/04 RMK AO2 T01110078
13976KLFT LFT20190122005011901/22/19 00:50:31  5-MIN KLFT 220650Z AUTO 13005KT 10SM OVC048 12/08 A3016 -180 77 -500 130/05 RMK AO2 SLP214 T01170078
13976KLFT LFT20190122005511201/22/19 00:55:31  5-MIN KLFT 220655Z AUTO VRB05KT 10SM OVC048 12/08 A3016 -170 77 -500 VRB/05 RMK AO2 T01170078
13976KLFT LFT20190122010011201/22/19 01:00:31  5-MIN KLFT 220700Z AUTO 12007KT 10SM OVC048 12/08 A3016 -170 77 -500 120/07 RMK AO2 T01170078
13976KLFT LFT20190122010511201/22/19 01:05:31  5-MIN KLFT 220705Z AUTO 12006KT 10SM OVC049 12/08 A3016 -170 77 -500 110/06 RMK AO2 T01170078
13976KLFT LFT20190122011011201/22/19 01:10:31  5-MIN KLFT 220710Z AUTO VRB05KT 10SM OVC049 12/08 A3015 -160 77 -500 VRB/05 RMK AO2 T01170078
13976KLFT LFT20190122011511201/22/19 01:15:31  5-MIN KLFT 220715Z AUTO VRB06KT 10SM OVC049 12/08 A3015 -160 80 -500 VRB/06 RMK AO2 T01170083
13976KLFT LFT20190122012011201/22/19 01:20:31  5-MIN KLFT 220720Z AUTO VRB06KT 10SM OVC049 12/08 A3015 -160 77 -400 VRB/06 RMK AO2 T01220083
13976KLFT LFT20190122012513401/22/19 01:25:31  5-MIN KLFT 220725Z AUTO 13007G16KT 080V150 10SM OVC049 12/08 A3015 -160 77 -400 120/07G16 080V150 RMK AO2 T01220083
13976KLFT LFT20190122013011801/22/19 01:30:31  5-MIN KLFT 220730Z AUTO VRB06G16KT 10SM OVC049 12/08 A3015 -160 77 -400 VRB/06G16 RMK AO2 T01220083
13976KLFT LFT20190122013511201/22/19 01:35:31  5-MIN KLFT 220735Z AUTO VRB06KT 10SM OVC047 12/08 A3014 -150 77 -400 VRB/06 RMK AO2 T01220083
13976KLFT LFT20190122014011201/22/19 01:40:31  5-MIN KLFT 220740Z AUTO VRB06KT 10SM OVC047 12/08 A3014 -150 77 -400 VRB/06 RMK AO2 T01220083
13976KLFT LFT20190122014511201/22/19 01:45:31  5-MIN KLFT 220745Z AUTO 12007KT 10SM OVC047 12/08 A3014 -150 77 -400 120/07 RMK AO2 T01220083
13976KLFT LFT20190122015013501/22/19 01:50:31  5-MIN KLFT 220750Z AUTO 12007KT 080V150 10SM OVC047 12/08 A3014 -150 77 -400 120/07 080V150 RMK AO2 SLP204 T01220083
13976KLFT LFT20190122015511201/22/19 01:55:31  5-MIN KLFT 220755Z AUTO 12007KT 10SM OVC047 12/08 A3013 -150 77 -400 120/07 RMK AO2 T01220083
13976KLFT LFT20190122020011201/22/19 02:00:31  5-MIN KLFT 220800Z AUTO 12006KT 10SM OVC046 12/08 A3013 -150 77 -400 120/06 RMK AO2 T01220083
13976KLFT LFT20190122020511201/22/19 02:05:31  5-MIN KLFT 220805Z AUTO VRB04KT 10SM OVC046 12/08 A3013 -140 77 -400 VRB/04 RMK AO2 T01220083
13976KLFT LFT20190122021011201/22/19 02:10:31  5-MIN KLFT 220810Z AUTO VRB05KT 10SM OVC046 12/08 A3013 -140 77 -400 VRB/05 RMK AO2 T01220083
13976KLFT LFT20190122021511201/22/19 02:15:31  5-MIN KLFT 220815Z AUTO 13005KT 10SM OVC046 12/08 A3013 -140 77 -400 130/05 RMK AO2 T01220083
13976KLFT LFT20190122022011201/22/19 02:20:31  5-MIN KLFT 220820Z AUTO VRB05KT 10SM OVC047 12/08 A3013 -140 77 -400 VRB/05 RMK AO2 T01220083
13976KLFT LFT20190122022511201/22/19 02:25:31  5-MIN KLFT 220825Z AUTO VRB04KT 10SM OVC047 12/08 A3012 -140 77 -400 VRB/04 RMK AO2 T01220083
13976KLFT LFT20190122023011201/22/19 02:30:31  5-MIN KLFT 220830Z AUTO 13005KT 10SM OVC047 12/08 A3012 -140 77 -400 130/05 RMK AO2 T01220083
13976KLFT LFT20190122023511201/22/19 02:35:31  5-MIN KLFT 220835Z AUTO 12004KT 10SM OVC049 12/08 A3012 -140 77 -400 120/04 RMK AO2 T01220083
13976KLFT LFT20190122024011201/22/19 02:40:31  5-MIN KLFT 220840Z AUTO VRB05KT 10SM OVC049 12/09 A3012 -130 80 -400 VRB/05 RMK AO2 T01220089
13976KLFT LFT20190122024511201/22/19 02:45:31  5-MIN KLFT 220845Z AUTO 12004KT 10SM OVC049 12/09 A3012 -140 80 -400 120/04 RMK AO2 T01220089
13976KLFT LFT20190122025012501/22/19 02:50:31  5-MIN KLFT 220850Z AUTO VRB05KT 10SM OVC049 12/09 A3012 -130 80 -400 VRB/05 RMK AO2 SLP198 T01220089 56012
13976KLFT LFT20190122025511201/22/19 02:55:31  5-MIN KLFT 220855Z AUTO 13004KT 10SM OVC049 12/09 A3012 -130 80 -400 130/04 RMK AO2 T01220089
13976KLFT LFT20190122030011201/22/19 03:00:31  5-MIN KLFT 220900Z AUTO VRB05KT 10SM OVC049 12/09 A3011 -130 80 -400 VRB/05 RMK AO2 T01220089
13976KLFT LFT20190122030511201/22/19 03:05:31  5-MIN KLFT 220905Z AUTO VRB06KT 10SM OVC049 12/09 A3011 -130 80 -400 VRB/06 RMK AO2 T01220089
13976KLFT LFT20190122031011201/22/19 03:10:31  5-MIN KLFT 220910Z AUTO 12005KT 10SM OVC049 12/09 A3011 -130 80 -400 120/05 RMK AO2 T01220089
13976KLFT LFT20190122031511201/22/19 03:15:31  5-MIN KLFT 220915Z AUTO 12004KT 10SM OVC049 12/09 A3011 -130 80 -400 110/04 RMK AO2 T01220089
13976KLFT LFT20190122032011201/22/19 03:20:31  5-MIN KLFT 220920Z AUTO 12006KT 10SM OVC049 12/09 A3011 -130 80 -400 110/06 RMK AO2 T01220089
13976KLFT LFT20190122032511201/22/19 03:25:31  5-MIN KLFT 220925Z AUTO 12006KT 10SM OVC049 12/09 A3011 -130 80 -400 120/06 RMK AO2 T01220089
13976KLFT LFT20190122033011201/22/19 03:30:31  5-MIN KLFT 220930Z AUTO VRB04KT 10SM OVC050 12/09 A3011 -120 80 -400 VRB/04 RMK AO2 T01220089
13976KLFT LFT20190122033511201/22/19 03:35:31  5-MIN KLFT 220935Z AUTO VRB06KT 10SM OVC050 12/09 A3011 -120 80 -400 VRB/06 RMK AO2 T01220089
13976KLFT LFT20190122034011201/22/19 03:40:31  5-MIN KLFT 220940Z AUTO 12005KT 10SM OVC050 12/09 A3011 -130 83 -400 120/05 RMK AO2 T01220094
13976KLFT LFT20190122034511201/22/19 03:45:31  5-MIN KLFT 220945Z AUTO 11004KT 10SM OVC050 12/09 A3011 -120 83 -400 110/04 RMK AO2 T01220094
13976KLFT LFT20190122035011901/22/19 03:50:31  5-MIN KLFT 220950Z AUTO 11004KT 10SM OVC050 12/09 A3010 -120 83 -400 110/04 RMK AO2 SLP194 T01220094
13976KLFT LFT20190122035511201/22/19 03:55:31  5-MIN KLFT 220955Z AUTO 11005KT 10SM OVC050 12/09 A3010 -120 83 -400 110/05 RMK AO2 T01220094
13976KLFT LFT20190122040011201/22/19 04:00:31  5-MIN KLFT 221000Z AUTO VRB05KT 10SM OVC050 12/09 A3010 -120 83 -400 VRB/05 RMK AO2 T01220094
13976KLFT LFT20190122040511201/22/19 04:05:31  5-MIN KLFT 221005Z AUTO VRB04KT 10SM OVC050 13/09 A3010 -120 80 -300 VRB/04 RMK AO2 T01280094
13976KLFT LFT20190122041011201/22/19 04:10:31  5-MIN KLFT 221010Z AUTO 12005KT 10SM OVC050 13/09 A3010 -120 80 -300 120/05 RMK AO2 T01280094
13976KLFT LFT20190122041511201/22/19 04:15:31  5-MIN KLFT 221015Z AUTO 11005KT 10SM OVC050 13/09 A3010 -120 80 -300 110/05 RMK AO2 T01280094
13976KLFT LFT20190122042011201/22/19 04:20:31  5-MIN KLFT 221020Z AUTO VRB04KT 10SM OVC050 13/09 A3010 -120 80 -300 VRB/04 RMK AO2 T01280094
13976KLFT LFT20190122042511201/22/19 04:25:31  5-MIN KLFT 221025Z AUTO VRB04KT 10SM OVC050 13/10 A3010 -120 83 -300 VRB/04 RMK AO2 T01280100
13976KLFT LFT20190122043011901/22/19 04:30:31  5-MIN KLFT 221030Z AUTO VRB04KT 10SM FEW036 OVC050 13/10 A3010 -120 83 -300 VRB/04 RMK AO2 T01280100
13976KLFT LFT20190122043511901/22/19 04:35:31  5-MIN KLFT 221035Z AUTO 12005KT 10SM FEW036 OVC050 13/10 A3010 -120 83 -300 120/05 RMK AO2 T01280100
13976KLFT LFT20190122044011901/22/19 04:40:31  5-MIN KLFT 221040Z AUTO VRB05KT 10SM SCT036 OVC050 13/10 A3010 -120 83 -300 VRB/05 RMK AO2 T01280100
13976KLFT LFT20190122044511901/22/19 04:45:31  5-MIN KLFT 221045Z AUTO 11005KT 10SM SCT036 OVC050 13/10 A3010 -120 83 -300 110/05 RMK AO2 T01280100
13976KLFT LFT20190122045012601/22/19 04:50:31  5-MIN KLFT 221050Z AUTO VRB06KT 10SM SCT036 OVC050 13/10 A3010 -120 83 -300 VRB/06 RMK AO2 SLP192 T01280100
13976KLFT LFT20190122045511901/22/19 04:55:31  5-MIN KLFT 221055Z AUTO 12005KT 10SM SCT036 OVC050 13/10 A3010 -120 83 -300 120/05 RMK AO2 T01280100
13976KLFT LFT20190122050012601/22/19 05:00:31  5-MIN KLFT 221100Z AUTO 12004KT 10SM FEW030 SCT036 OVC050 13/10 A3010 -120 83 -300 120/04 RMK AO2 T01280100
13976KLFT LFT20190122050512601/22/19 05:05:31  5-MIN KLFT 221105Z AUTO 11004KT 10SM FEW030 SCT038 OVC050 13/10 A3010 -120 83 -300 110/04 RMK AO2 T01280100
13976KLFT LFT20190122051011901/22/19 05:10:31  5-MIN KLFT 221110Z AUTO VRB05KT 10SM FEW033 OVC050 13/10 A3010 -120 83 -300 VRB/05 RMK AO2 T01280100
13976KLFT LFT20190122051511401/22/19 05:15:31  5-MIN KLFT 221115Z 11005KT 10SM FEW033 OVC050 13/10 A3010 -120 83 -300 110/05 RMK AO2 T01280100
13976KLFT LFT20190122052011401/22/19 05:20:31  5-MIN KLFT 221120Z VRB04KT 10SM FEW030 OVC050 13/10 A3010 -120 83 -300 VRB/04 RMK AO2 T01280100
13976KLFT LFT20190122052511401/22/19 05:25:31  5-MIN KLFT 221125Z VRB03KT 10SM FEW028 OVC050 13/11 A3010 -120 86 -300 VRB/03 RMK AO2 T01280106
13976KLFT LFT20190122053011401/22/19 05:30:31  5-MIN KLFT 221130Z VRB03KT 10SM FEW030 OVC050 13/11 A3010 -120 86 -300 VRB/03 RMK AO2 T01280106
13976KLFT LFT20190122053511401/22/19 05:35:31  5-MIN KLFT 221135Z VRB06KT 10SM SCT030 OVC050 13/11 A3010 -120 86 -300 VRB/06 RMK AO2 T01280106
13976KLFT LFT20190122054012101/22/19 05:40:31  5-MIN KLFT 221140Z 12005KT 10SM SCT030 SCT034 OVC050 13/11 A3010 -110 86 -300 120/05 RMK AO2 T01280106
13976KLFT LFT20190122054511401/22/19 05:45:31  5-MIN KLFT 221145Z VRB04KT 10SM SCT030 OVC050 13/11 A3010 -110 83 -300 VRB/04 RMK AO2 T01330106
13976KLFT LFT20190122055013901/22/19 05:50:31  5-MIN KLFT 221150Z VRB05KT 10SM FEW030 OVC050 13/11 A3010 -110 83 -300 VRB/05 RMK AO2 SLP191 T01330106 10133 20111 56024
13976KLFT LFT20190122055512101/22/19 05:55:31  5-MIN KLFT 221155Z 11004KT 10SM FEW026 SCT030 OVC050 13/11 A3010 -110 83 -300 110/04 RMK AO2 T01330106
13976KLFT LFT20190122060012101/22/19 06:00:31  5-MIN KLFT 221200Z 12004KT 10SM SCT026 SCT030 OVC050 13/11 A3010 -110 83 -300 120/04 RMK AO2 T01330106
13976KLFT LFT20190122060512101/22/19 06:05:31  5-MIN KLFT 221205Z 12005KT 10SM SCT026 SCT033 OVC050 13/11 A3010 -120 86 -300 120/05 RMK AO2 T01330111
13976KLFT LFT20190122061012101/22/19 06:10:31  5-MIN KLFT 221210Z VRB05KT 10SM SCT026 BKN031 OVC050 13/11 A3010 -120 86 -300 VRB/05 RMK AO2 T01330111
13976KLFT LFT20190122061512101/22/19 06:15:31  5-MIN KLFT 221215Z 12005KT 10SM FEW026 SCT031 OVC055 13/11 A3010 -120 86 -300 120/05 RMK AO2 T01330111
13976KLFT LFT20190122062012101/22/19 06:20:31  5-MIN KLFT 221220Z 12006KT 10SM FEW026 SCT032 OVC055 13/11 A3010 -120 86 -300 120/06 RMK AO2 T01330111
13976KLFT LFT20190122062512101/22/19 06:25:31  5-MIN KLFT 221225Z VRB05KT 10SM FEW026 FEW032 OVC055 13/11 A3010 -110 86 -300 VRB/05 RMK AO2 T01330111
13976KLFT LFT20190122063012101/22/19 06:30:31  5-MIN KLFT 221230Z 12005KT 10SM FEW026 FEW032 OVC050 13/11 A3010 -110 86 -300 120/05 RMK AO2 T01330111
13976KLFT LFT20190122063511401/22/19 06:35:31  5-MIN KLFT 221235Z VRB04KT 10SM FEW032 OVC050 13/11 A3010 -120 86 -300 VRB/04 RMK AO2 T01330111
13976KLFT LFT20190122064010701/22/19 06:40:31  5-MIN KLFT 221240Z 12006KT 10SM OVC050 13/11 A3010 -120 86 -300 120/06 RMK AO2 T01330111
13976KLFT LFT20190122064510701/22/19 06:45:31  5-MIN KLFT 221245Z 11005KT 10SM OVC050 13/11 A3010 -120 86 -300 110/05 RMK AO2 T01330111
13976KLFT LFT20190122065011401/22/19 06:50:31  5-MIN KLFT 221250Z VRB04KT 10SM OVC050 13/11 A3010 -120 86 -300 VRB/04 RMK AO2 SLP193 T01330111
13976KLFT LFT20190122065510701/22/19 06:55:31  5-MIN KLFT 221255Z 12006KT 10SM OVC050 14/11 A3010 -120 83 -200 120/06 RMK AO2 T01390111
13976KLFT LFT20190122070010701/22/19 07:00:31  5-MIN KLFT 221300Z 12004KT 10SM OVC050 14/11 A3010 -110 83 -200 120/04 RMK AO2 T01390111
13976KLFT LFT20190122070510701/22/19 07:05:31  5-MIN KLFT 221305Z 12007KT 10SM BKN055 13/12 A3010 -110 89 -300 120/07 RMK AO2 T01330117
13976KLFT LFT20190122071010701/22/19 07:10:31  5-MIN KLFT 221310Z 12005KT 10SM BKN055 14/12 A3010 -120 86 -200 120/05 RMK AO2 T01390117
13976KLFT LFT20190122071510701/22/19 07:15:31  5-MIN KLFT 221315Z VRB05KT 10SM BKN050 14/12 A3010 -120 86 -200 VRB/05 RMK AO2 T01390117
13976KLFT LFT20190122072010701/22/19 07:20:31  5-MIN KLFT 221320Z VRB05KT 10SM BKN055 14/12 A3010 -110 86 -200 VRB/05 RMK AO2 T01390117
13976KLFT LFT20190122072510701/22/19 07:25:31  5-MIN KLFT 221325Z VRB06KT 10SM BKN055 14/12 A3009 -110 86 -200 VRB/06 RMK AO2 T01390117
13976KLFT LFT20190122073010701/22/19 07:30:31  5-MIN KLFT 221330Z 12006KT 10SM BKN055 14/12 A3009 -110 86 -200 120/06 RMK AO2 T01390117
13976KLFT LFT20190122073510701/22/19 07:35:31  5-MIN KLFT 221335Z 12006KT 10SM BKN055 14/12 A3009 -110 86 -200 120/06 RMK AO2 T01390117
13976KLFT LFT20190122074010701/22/19 07:40:31  5-MIN KLFT 221340Z VRB05KT 10SM SCT055 14/12 A3009 -100 90 -200 VRB/05 RMK AO2 T01390122
13976KLFT LFT20190122074512301/22/19 07:45:31  5-MIN KLFT 221345Z 12008KT 090V150 10SM SCT055 14/12 A3009 -110 90 -200 120/08 090V150 RMK AO2 T01390122
13976KLFT LFT20190122075011401/22/19 07:50:31  5-MIN KLFT 221350Z VRB05KT 10SM FEW055 14/12 A3009 -110 86 -100 VRB/05 RMK AO2 SLP189 T01440122
13976KLFT LFT20190122075510701/22/19 07:55:31  5-MIN KLFT 221355Z 13007KT 10SM FEW050 14/12 A3009 -110 86 -100 130/07 RMK AO2 T01440122
13976KLFT LFT20190122080010401/22/19 08:00:31  5-MIN KLFT 221400Z VRB05KT 10SM CLR 14/12 A3009 -110 86 -100 VRB/05 RMK AO2 T01440122
13976KLFT LFT20190122080510401/22/19 08:05:31  5-MIN KLFT 221405Z VRB06KT 10SM CLR 14/12 A3009 -110 86 -100 VRB/06 RMK AO2 T01440122
13976KLFT LFT20190122081010401/22/19 08:10:31  5-MIN KLFT 221410Z 13006KT 10SM FEW050 15/13 A3009 -110 86 0 130/06 RMK AO2 T01500128
13976KLFT LFT20190122081510401/22/19 08:15:31  5-MIN KLFT 221415Z 13006KT 10SM FEW050 16/13 A3009 -110 83 0 130/06 RMK AO2 T01560128
13976KLFT LFT20190122082010401/22/19 08:20:31  5-MIN KLFT 221420Z VRB06KT 10SM FEW050 16/13 A3009 -110 83 0 VRB/06 RMK AO2 T01560128
13976KLFT LFT20190122082510401/22/19 08:25:31  5-MIN KLFT 221425Z VRB06KT 10SM FEW050 16/13 A3010 -110 83 0 VRB/06 RMK AO2 T01610133
13976KLFT LFT20190122083010401/22/19 08:30:31  5-MIN KLFT 221430Z VRB06KT 10SM FEW050 16/13 A3010 -110 83 0 VRB/06 RMK AO2 T01610133
13976KLFT LFT20190122083511201/22/19 08:35:31  5-MIN KLFT 221435Z 13006G16KT 10SM FEW050 17/13 A3010 -120 80 100 130/06G16 RMK AO2 T01670133
13976KLFT LFT20190122084011201/22/19 08:40:31  5-MIN KLFT 221440Z VRB05G16KT 10SM FEW050 17/13 A3010 -120 80 100 VRB/05G16 RMK AO2 T01670133
13976KLFT LFT20190122084510301/22/19 08:45:31  5-MIN KLFT 221445Z VRB06KT 10SM CLR 17/13 A3010 -120 80 100 VRB/06 RMK AO2 T01670133
13976KLFT LFT20190122085011601/22/19 08:50:31  5-MIN KLFT 221450Z VRB06KT 10SM CLR 17/13 A3010 -120 80 100 VRB/06 RMK AO2 SLP191 T01670133 56007
13976KLFT LFT20190122085511901/22/19 08:55:31  5-MIN KLFT 221455Z 12007KT 100V160 10SM CLR 17/13 A3009 -110 78 200 120/07 100V160 RMK AO2 T01720133
13976KLFT LFT20190122090012201/22/19 09:00:31  5-MIN KLFT 221500Z 14008KT 100V170 10SM FEW050 17/13 A3009 -110 78 200 140/08 100V170 RMK AO2 T01720133
13976KLFT LFT20190122090510601/22/19 09:05:31  5-MIN KLFT 221505Z VRB05KT 10SM FEW050 17/14 A3009 -110 80 200 VRB/05 RMK AO2 T01720139
13976KLFT LFT20190122091011201/22/19 09:10:31  5-MIN KLFT 221510Z 13009G15KT 10SM SCT055 18/14 A3009 -110 78 200 120/09G15 RMK AO2 T01780139
13976KLFT LFT20190122091512801/22/19 09:15:31  5-MIN KLFT 221515Z 13009G17KT 110V170 10SM SCT055 18/14 A3009 -110 75 300 130/09G17 110V170 RMK AO2 T01830139
13976KLFT LFT20190122092012801/22/19 09:20:31  5-MIN KLFT 221520Z 14008G17KT 120V180 10SM BKN055 18/14 A3009 -110 75 300 140/08G17 120V180 RMK AO2 T01830139
13976KLFT LFT20190122092512801/22/19 09:25:31  5-MIN KLFT 221525Z 14007G15KT 090V170 10SM BKN055 18/14 A3009 -110 75 300 140/07G15 090V170 RMK AO2 T01830139
13976KLFT LFT20190122093012201/22/19 09:30:31  5-MIN KLFT 221530Z 14008KT 110V170 10SM BKN055 19/14 A3009 -110 72 400 140/08 110V170 RMK AO2 T01890139
13976KLFT LFT20190122093512201/22/19 09:35:31  5-MIN KLFT 221535Z 13007KT 100V180 10SM BKN055 19/14 A3009 -110 72 400 130/07 100V180 RMK AO2 T01890139
13976KLFT LFT20190122094012201/22/19 09:40:31  5-MIN KLFT 221540Z 13007KT 100V190 10SM SCT055 19/14 A3009 -110 75 400 130/07 100V190 RMK AO2 T01890144
13976KLFT LFT20190122094512201/22/19 09:45:31  5-MIN KLFT 221545Z 14007KT 090V170 10SM SCT055 19/14 A3009 -110 75 400 140/07 090V170 RMK AO2 T01890144
13976KLFT LFT20190122095011901/22/19 09:50:31  5-MIN KLFT 221550Z VRB06G19KT 10SM SCT055 19/14 A3009 -110 75 400 VRB/06G19 RMK AO2 SLP188 T01890144
13976KLFT LFT20190122095512801/22/19 09:55:31  5-MIN KLFT 221555Z 15008G15KT 120V180 10SM BKN055 19/14 A3009 -100 75 400 150/08G15 120V180 RMK AO2 T01890144
13976KLFT LFT20190122100013501/22/19 10:00:31  5-MIN KLFT 221600Z 15007G15KT 100V180 10SM FEW032 BKN055 19/14 A3009 -100 75 400 150/07G15 100V180 RMK AO2 T01890144
13976KLFT LFT20190122100513501/22/19 10:05:31  5-MIN KLFT 221605Z 16008G17KT 110V320 10SM FEW032 BKN055 19/14 A3008 -100 72 400 160/08G17 110V320 RMK AO2 T01940144
13976KLFT LFT20190122101011901/22/19 10:10:31  5-MIN KLFT 221610Z 14008G18KT 10SM FEW032 BKN055 20/15 A3008 -100 72 500 140/08G18 RMK AO2 T02000150
13976KLFT LFT20190122101512601/22/19 10:15:31  5-MIN KLFT 221615Z VRB06G18KT 10SM FEW032 FEW048 BKN055 20/15 A3008 -100 72 500 VRB/06G18 RMK AO2 T02000150
13976KLFT LFT20190122102014201/22/19 10:20:31  5-MIN KLFT 221620Z 15011G21KT 110V180 10SM FEW024 SCT046 OVC055 20/15 A3008 -100 72 500 150/11G21 110V180 RMK AO2 T02000150
13976KLFT LFT20190122102514201/22/19 10:25:31  5-MIN KLFT 221625Z 17016G26KT 9SM FEW024 SCT044 OVC055 21/15 A3008 -90 70 600 170/16G26 RMK AO2 PK WND 18026/1624 T02060150
13976KLFT LFT20190122103014201/22/19 10:30:31  5-MIN KLFT 221630Z 16010G26KT 9SM FEW026 BKN047 BKN060 21/15 A3008 -90 70 600 160/10G26 RMK AO2 PK WND 18026/1624 T02060150
13976KLFT LFT20190122103516001/22/19 10:35:31  5-MIN KLFT 221635Z 15013G24KT 110V190 10SM SCT026 BKN047 OVC060 21/15 A3008 -100 70 600 150/13G24 110V190 RMK AO2 PK WND 18026/1624 T02060150
13976KLFT LFT20190122104014401/22/19 10:40:31  5-MIN KLFT 221640Z 17013G26KT 10SM SCT026 BKN047 OVC060 21/14 A3008 -100 67 600 170/13G26 RMK AO2 PK WND 18026/1624 T02060144
13976KLFT LFT20190122104514401/22/19 10:45:31  5-MIN KLFT 221645Z 16017G26KT 10SM FEW027 BKN047 OVC060 21/14 A3008 -100 67 600 160/17G26 RMK AO2 PK WND 18026/1624 T02060144
13976KLFT LFT20190122105015001/22/19 10:50:31  5-MIN KLFT 221650Z 16010G25KT 10SM FEW027 BKN047 OVC060 21/14 A3008 -90 67 600 160/10G25 RMK AO2 PK WND 18026/1624 SLP184 T02060144
13976KLFT LFT20190122105514201/22/19 10:55:31  5-MIN KLFT 221655Z 16010G21KT 130V190 10SM FEW027 SCT046 OVC060 21/14 A3008 -100 67 600 160/10G21 130V190 RMK AO2 T02060144
13976KLFT LFT20190122110012601/22/19 11:00:31  5-MIN KLFT 221700Z 15012G23KT 10SM FEW029 SCT045 OVC060 21/14 A3008 -100 65 600 150/12G23 RMK AO2 T02110144
13976KLFT LFT20190122110512601/22/19 11:05:31  5-MIN KLFT 221705Z 16014G24KT 10SM FEW029 BKN049 OVC060 21/14 A3008 -100 65 600 160/14G24 RMK AO2 T02110144
13976KLFT LFT20190122111012601/22/19 11:10:31  5-MIN KLFT 221710Z 17015G24KT 10SM FEW029 BKN049 OVC060 21/14 A3008 -100 65 600 160/15G24 RMK AO2 T02110144
13976KLFT LFT20190122111514401/22/19 11:15:31  5-MIN KLFT 221715Z 16009G28KT 10SM FEW043 BKN049 OVC065 21/14 A3008 -100 65 600 160/09G28 RMK AO2 PK WND 17028/1711 T02110144
13976KLFT LFT20190122112014401/22/19 11:20:31  5-MIN KLFT 221720Z 16012G28KT 10SM SCT043 BKN050 OVC065 21/14 A3008 -100 65 600 160/12G28 RMK AO2 PK WND 17028/1711 T02110144
13976KLFT LFT20190122112514301/22/19 11:25:31  5-MIN KLFT 221725Z 16014G26KT 10SM BKN041 BKN050 OVC065 21/14 A3008 -90 65 600 160/14G26 RMK AO2 PK WND 17028/1711 T02110144
13976KLFT LFT20190122113014301/22/19 11:30:31  5-MIN KLFT 221730Z 16013G25KT 10SM BKN041 BKN050 OVC060 21/14 A3007 -90 65 600 160/13G25 RMK AO2 PK WND 17028/1711 T02110144
13976KLFT LFT20190122113513601/22/19 11:35:31  5-MIN KLFT 221735Z 15014G23KT 10SM BKN039 OVC060 21/14 A3007 -90 65 600 150/14G23 RMK AO2 PK WND 17028/1711 T02110144
13976KLFT LFT20190122114013601/22/19 11:40:31  5-MIN KLFT 221740Z 16013G25KT 10SM BKN039 OVC060 21/14 A3007 -90 63 600 160/13G25 RMK AO2 PK WND 17028/1711 T02110139
13976KLFT LFT20190122114514301/22/19 11:45:31  5-MIN KLFT 221745Z 16014G25KT 10SM BKN039 BKN048 OVC060 21/14 A3007 -90 63 600 160/14G25 RMK AO2 PK WND 17028/1711 T02110139
13976KLFT LFT20190122115016101/22/19 11:50:31  5-MIN KLFT 221750Z 15012G24KT 10SM BKN039 OVC048 21/14 A3007 -90 63 600 150/12G24 RMK AO2 PK WND 17028/1711 SLP181 T02110139 10211 20133 57001
13976KLFT LFT20190122115511801/22/19 11:55:31  5-MIN KLFT 221755Z 16010G24KT 10SM BKN039 OVC048 21/14 A3007 -90 63 600 160/10G24 RMK AO2 T02110139
13976KLFT LFT20190122120011801/22/19 12:00:31  5-MIN KLFT 221800Z 16011G21KT 10SM BKN039 OVC047 21/14 A3007 -90 63 600 160/11G21 RMK AO2 T02110139
13976KLFT LFT20190122120511801/22/19 12:05:31  5-MIN KLFT 221805Z 16008G19KT 10SM BKN039 OVC047 21/14 A3006 -80 63 600 160/08G19 RMK AO2 T02110139
13976KLFT LFT20190125161510501/25/19 16:15:31  5-MIN KLFT 252215Z 00000KT 10SM CLR 16/M01 A3028 -280 31 -200 000/00 RMK AO2 T01561011
13976KLFT LFT20190125162010501/25/19 16:20:31  5-MIN KLFT 252220Z 00000KT 10SM CLR 15/M01 A3028 -280 33 -300 000/00 RMK AO2 T01501011
13976KLFT LFT20190125162510501/25/19 16:25:31  5-MIN KLFT 252225Z 00000KT 10SM CLR 15/M01 A3028 -280 33 -300 000/00 RMK AO2 T01501011
13976KLFT LFT20190125163010501/25/19 16:30:31  5-MIN KLFT 252230Z 06003KT 10SM CLR 15/M01 A3028 -280 33 -300 060/03 RMK AO2 T01501011
13976KLFT LFT20190125163510501/25/19 16:35:31  5-MIN KLFT 252235Z 06004KT 10SM CLR 15/M01 A3028 -280 34 -300 060/04 RMK AO2 T01501006
13976KLFT LFT20190125164010501/25/19 16:40:31  5-MIN KLFT 252240Z 05003KT 10SM CLR 14/M01 A3028 -280 34 -300 050/03 RMK AO2 T01441011
13976KLFT LFT20190125164510501/25/19 16:45:31  5-MIN KLFT 252245Z 05003KT 10SM CLR 14/M01 A3028 -280 35 -300 050/03 RMK AO2 T01441006
13976KLFT LFT20190125165011201/25/19 16:50:31  5-MIN KLFT 252250Z 05003KT 10SM CLR 14/M01 A3028 -280 35 -300 050/03 RMK AO2 SLP253 T01441006
13976KLFT LFT20190125165510501/25/19 16:55:31  5-MIN KLFT 252255Z 00000KT 10SM CLR 14/M01 A3028 -280 34 -300 000/00 RMK AO2 T01441011
13976KLFT LFT20190125170010501/25/19 17:00:31  5-MIN KLFT 252300Z 00000KT 10SM CLR 15/M01 A3028 -280 33 -300 000/00 RMK AO2 T01501011
13976KLFT LFT20190125170510501/25/19 17:05:31  5-MIN KLFT 252305Z 00000KT 10SM CLR 14/M01 A3028 -280 34 -300 000/00 RMK AO2 T01441011
13976KLFT LFT20190125171010501/25/19 17:10:31  5-MIN KLFT 252310Z 04003KT 10SM CLR 15/M02 A3028 -290 31 -300 040/03 RMK AO2 T01501017
13976KLFT LFT20190125171510501/25/19 17:15:31  5-MIN KLFT 252315Z 05003KT 10SM CLR 14/M01 A3029 -290 37 -400 050/03 RMK AO2 T01391006
13976KLFT LFT20190125172010501/25/19 17:20:31  5-MIN KLFT 252320Z 04003KT 10SM CLR 13/M01 A3029 -290 38 -500 040/03 RMK AO2 T01331006
13976KLFT LFT20190125172510501/25/19 17:25:31  5-MIN KLFT 252325Z 03005KT 10SM CLR 13/M01 A3029 -290 38 -500 030/05 RMK AO2 T01331006
13976KLFT LFT20190125173010501/25/19 17:30:31  5-MIN KLFT 252330Z 04004KT 10SM CLR 13/M01 A3029 -290 38 -500 040/04 RMK AO2 T01281011
13976KLFT LFT20190125173510501/25/19 17:35:31  5-MIN KLFT 252335Z 04003KT 10SM CLR 13/M02 A3029 -290 36 -500 040/03 RMK AO2 T01281017
13976KLFT LFT20190125174010501/25/19 17:40:31  5-MIN KLFT 252340Z 00000KT 10SM CLR 13/M02 A3029 -290 36 -500 000/00 RMK AO2 T01281017
13976KLFT LFT20190125174510501/25/19 17:45:31  5-MIN KLFT 252345Z 00000KT 10SM CLR 13/M02 A3029 -290 36 -500 000/00 RMK AO2 T01281017
13976KLFT LFT20190125175013001/25/19 17:50:31  5-MIN KLFT 252350Z 00000KT 10SM CLR 12/M02 A3029 -290 38 -600 000/00 RMK AO2 SLP257 T01221017 10161 20122 56028
13976KLFT LFT20190125175510501/25/19 17:55:31  5-MIN KLFT 252355Z 00000KT 10SM CLR 12/M02 A3029 -290 38 -600 000/00 RMK AO2 T01221017
13976KLFT LFT20190125180010501/25/19 18:00:31  5-MIN KLFT 260000Z 00000KT 10SM CLR 12/M01 A3029 -290 41 -700 000/00 RMK AO2 T01171011
13976KLFT LFT20190125180510401/25/19 18:05:31  5-MIN KLFT 260005Z 00000KT 10SM CLR 11/01 A3029 -290 48 -700 000/00 RMK AO2 T01110006
13976KLFT LFT20190125181010501/25/19 18:10:31  5-MIN KLFT 260010Z 00000KT 10SM CLR 12/M01 A3030 -300 42 -700 000/00 RMK AO2 T01171006
13976KLFT LFT20190125181510401/25/19 18:15:31  5-MIN KLFT 260015Z 00000KT 10SM CLR 11/00 A3030 -300 46 -700 000/00 RMK AO2 T01110000
13976KLFT LFT20190125182010401/25/19 18:20:31  5-MIN KLFT 260020Z 00000KT 10SM CLR 11/03 A3030 -300 58 -800 000/00 RMK AO2 T01060028
13976KLFT LFT20190125182510401/25/19 18:25:31  5-MIN KLFT 260025Z 00000KT 10SM CLR 10/03 A3030 -300 63 -900 000/00 RMK AO2 T01000033
13976KLFT LFT20190125183010401/25/19 18:30:31  5-MIN KLFT 260030Z 00000KT 10SM CLR 10/02 A3030 -300 56 -900 000/00 RMK AO2 T01000017
13976KLFT LFT20190125183510501/25/19 18:35:31  5-MIN KLFT 260035Z 00000KT 10SM CLR 10/M01 A3030 -300 47 -900 000/00 RMK AO2 T01001006
13976KLFT LFT20190125184010501/25/19 18:40:31  5-MIN KLFT 260040Z 00000KT 10SM CLR 09/00 A3030 -300 51 -1000 000/00 RMK AO2 T00940000
13976KLFT LFT20190125184510501/25/19 18:45:31  5-MIN KLFT 260045Z 00000KT 10SM CLR 09/03 A3030 -300 63 -1000 000/00 RMK AO2 T00940028
13976KLFT LFT20190125185011201/25/19 18:50:31  5-MIN KLFT 260050Z 00000KT 10SM CLR 09/03 A3030 -300 65 -1000 000/00 RMK AO2 SLP260 T00890028
13976KLFT LFT20190125185510501/25/19 18:55:31  5-MIN KLFT 260055Z 00000KT 10SM CLR 09/03 A3030 -300 63 -1000 000/00 RMK AO2 T00940028
13976KLFT LFT20190125190010501/25/19 19:00:31  5-MIN KLFT 260100Z 23003KT 10SM CLR 08/02 A3030 -300 63 -1100 230/03 RMK AO2 T00830017
13976KLFT LFT20190125190510501/25/19 19:05:31  5-MIN KLFT 260105Z 25003KT 10SM CLR 08/01 A3031 -310 58 -1100 250/03 RMK AO2 T00830006
13976KLFT LFT20190125191010501/25/19 19:10:31  5-MIN KLFT 260110Z 00000KT 10SM CLR 07/01 A3031 -310 62 -1200 000/00 RMK AO2 T00720006
13976KLFT LFT20190125191510501/25/19 19:15:31  5-MIN KLFT 260115Z 00000KT 10SM CLR 09/01 A3031 -310 56 -1000 000/00 RMK AO2 T00890006
13976KLFT LFT20190125192010501/25/19 19:20:31  5-MIN KLFT 260120Z 22003KT 10SM CLR 09/01 A3031 -310 53 -1000 210/03 RMK AO2 T00940006
13976KLFT LFT20190125192510401/25/19 19:25:31  5-MIN KLFT 260125Z 00000KT 10SM CLR 10/01 A3031 -310 52 -900 000/00 RMK AO2 T01000006
13976KLFT LFT20190125193010501/25/19 19:30:31  5-MIN KLFT 260130Z 00000KT 10SM CLR 09/01 A3031 -310 56 -1000 000/00 RMK AO2 T00890006
13976KLFT LFT20190125193510501/25/19 19:35:31  5-MIN KLFT 260135Z 00000KT 10SM CLR 09/01 A3031 -310 56 -1000 000/00 RMK AO2 T00890006
13976KLFT LFT20190125194010501/25/19 19:40:31  5-MIN KLFT 260140Z 00000KT 10SM CLR 09/03 A3032 -310 68 -1000 000/00 RMK AO2 T00890033
13976KLFT LFT20190125194510501/25/19 19:45:31  5-MIN KLFT 260145Z 00000KT 10SM CLR 08/04 A3032 -310 73 -1100 000/00 RMK AO2 T00830039
13976KLFT LFT20190125195011201/25/19 19:50:31  5-MIN KLFT 260150Z 16003KT 10SM CLR 08/04 A3032 -310 73 -1100 160/03 RMK AO2 SLP265 T00830039
13976KLFT LFT20190125195510501/25/19 19:55:31  5-MIN KLFT 260155Z 15003KT 10SM CLR 08/04 A3032 -310 73 -1100 150/03 RMK AO2 T00830039
13976KLFT LFT20190125200010501/25/19 20:00:31  5-MIN KLFT 260200Z 15003KT 10SM CLR 08/03 A3031 -310 70 -1100 150/03 RMK AO2 T00830033
13976KLFT LFT20190125200510501/25/19 20:05:31  5-MIN KLFT 260205Z 12003KT 10SM CLR 08/03 A3032 -320 70 -1100 120/03 RMK AO2 T00830033
13976KLFT LFT20190125201010501/25/19 20:10:31  5-MIN KLFT 260210Z 00000KT 10SM CLR 08/04 A3032 -320 76 -1200 000/00 RMK AO2 T00780039
13976KLFT LFT20190125201510501/25/19 20:15:31  5-MIN KLFT 260215Z 12003KT 10SM CLR 08/04 A3031 -310 76 -1200 120/03 RMK AO2 T00780039
13976KLFT LFT20190125202010501/25/19 20:20:31  5-MIN KLFT 260220Z 14003KT 10SM CLR 08/04 A3031 -310 76 -1200 140/03 RMK AO2 T00780039
13976KLFT LFT20190125202510501/25/19 20:25:31  5-MIN KLFT 260225Z 15003KT 10SM CLR 08/04 A3031 -310 76 -1200 150/03 RMK AO2 T00780039
13976KLFT LFT20190125203010501/25/19 20:30:31  5-MIN KLFT 260230Z 15003KT 10SM CLR 08/04 A3031 -310 76 -1200 150/03 RMK AO2 T00780039
13976KLFT LFT20190125203510501/25/19 20:35:31  5-MIN KLFT 260235Z 00000KT 10SM CLR 08/04 A3031 -310 76 -1200 000/00 RMK AO2 T00780039
13976KLFT LFT20190125204010501/25/19 20:40:31  5-MIN KLFT 260240Z 00000KT 10SM CLR 08/04 A3030 -300 79 -1200 000/00 RMK AO2 T00780044
13976KLFT LFT20190125204510501/25/19 20:45:31  5-MIN KLFT 260245Z 00000KT 10SM CLR 08/04 A3030 -300 79 -1200 000/00 RMK AO2 T00780044
13976KLFT LFT20190125205011801/25/19 20:50:31  5-MIN KLFT 260250Z 15003KT 10SM CLR 08/05 A3030 -300 82 -1200 150/03 RMK AO2 SLP261 T00780050 53005
13976KLFT LFT20190125205510501/25/19 20:55:31  5-MIN KLFT 260255Z 00000KT 10SM CLR 08/05 A3031 -310 82 -1200 000/00 RMK AO2 T00780050
13976KLFT LFT20190125210010501/25/19 21:00:31  5-MIN KLFT 260300Z 00000KT 10SM CLR 08/05 A3031 -310 82 -1200 000/00 RMK AO2 T00780050
13976KLFT LFT20190125210510501/25/19 21:05:31  5-MIN KLFT 260305Z 00000KT 10SM CLR 07/05 A3031 -310 86 -1200 000/00 RMK AO2 T00720050
13976KLFT LFT20190125211010501/25/19 21:10:31  5-MIN KLFT 260310Z 00000KT 10SM CLR 07/04 A3031 -310 86 -1300 000/00 RMK AO2 T00670044
13976KLFT LFT20190125211510501/25/19 21:15:31  5-MIN KLFT 260315Z 00000KT 10SM CLR 07/04 A3031 -310 82 -1200 000/00 RMK AO2 T00720044
13976KLFT LFT20190125212010501/25/19 21:20:31  5-MIN KLFT 260320Z 00000KT 10SM CLR 07/04 A3031 -310 82 -1200 000/00 RMK AO2 T00720044
13976KLFT LFT20190125212510501/25/19 21:25:31  5-MIN KLFT 260325Z 17003KT 10SM CLR 07/04 A3031 -310 82 -1300 170/03 RMK AO2 T00670039
13976KLFT LFT20190125213010501/25/19 21:30:31  5-MIN KLFT 260330Z 00000KT 10SM CLR 07/03 A3031 -310 79 -1300 000/00 RMK AO2 T00670033
13976KLFT LFT20190125213510501/25/19 21:35:31  5-MIN KLFT 260335Z 00000KT 10SM CLR 07/03 A3031 -310 73 -1200 000/00 RMK AO2 T00720028
13976KLFT LFT20190125214010501/25/19 21:40:31  5-MIN KLFT 260340Z 00000KT 10SM CLR 07/02 A3032 -310 70 -1200 000/00 RMK AO2 T00720022
13976KLFT LFT20190125214510501/25/19 21:45:31  5-MIN KLFT 260345Z 00000KT 10SM CLR 06/02 A3032 -320 76 -1400 000/00 RMK AO2 T00610022
13976KLFT LFT20190125215011201/25/19 21:50:31  5-MIN KLFT 260350Z 00000KT 10SM CLR 07/02 A3032 -320 73 -1300 000/00 RMK AO2 SLP267 T00670022
13976KLFT LFT20190125215510501/25/19 21:55:31  5-MIN KLFT 260355Z 00000KT 10SM CLR 07/02 A3032 -320 73 -1300 000/00 RMK AO2 T00670022
13976KLFT LFT20190125220010501/25/19 22:00:31  5-MIN KLFT 260400Z 00000KT 10SM CLR 07/02 A3032 -320 73 -1300 000/00 RMK AO2 T00670022
13976KLFT LFT20190125220510501/25/19 22:05:31  5-MIN KLFT 260405Z 00000KT 10SM CLR 06/02 A3032 -320 76 -1500 000/00 RMK AO2 T00560017
13976KLFT LFT20190125221010501/25/19 22:10:31  5-MIN KLFT 260410Z 00000KT 10SM CLR 06/02 A3032 -320 73 -1400 000/00 RMK AO2 T00610017
13976KLFT LFT20190125221510501/25/19 22:15:31  5-MIN KLFT 260415Z 00000KT 10SM CLR 07/02 A3032 -320 73 -1300 000/00 RMK AO2 T00670022
13976KLFT LFT20190125222010501/25/19 22:20:31  5-MIN KLFT 260420Z 00000KT 10SM CLR 07/02 A3032 -320 73 -1300 000/00 RMK AO2 T00670022
13976KLFT LFT20190125222510501/25/19 22:25:31  5-MIN KLFT 260425Z 00000KT 10SM CLR 06/02 A3033 -320 73 -1400 000/00 RMK AO2 T00610017
13976KLFT LFT20190125223011001/25/19 22:30:31  5-MIN KLFT 260430Z AUTO 00000KT 10SM CLR 06/02 A3033 -320 76 -1400 000/00 RMK AO2 T00610022
13976KLFT LFT20190125223511001/25/19 22:35:31  5-MIN KLFT 260435Z AUTO 00000KT 10SM CLR 07/02 A3032 -320 73 -1300 000/00 RMK AO2 T00670022
13976KLFT LFT20190125224011001/25/19 22:40:31  5-MIN KLFT 260440Z AUTO 00000KT 10SM CLR 06/03 A3032 -320 82 -1400 000/00 RMK AO2 T00610033
13976KLFT LFT20190125224511001/25/19 22:45:31  5-MIN KLFT 260445Z AUTO 00000KT 10SM CLR 06/03 A3032 -320 82 -1400 000/00 RMK AO2 T00610033
13976KLFT LFT20190125225011701/25/19 22:50:31  5-MIN KLFT 260450Z AUTO 00000KT 10SM CLR 06/03 A3032 -320 85 -1500 000/00 RMK AO2 SLP267 T00560033
13976KLFT LFT20190125225511001/25/19 22:55:31  5-MIN KLFT 260455Z AUTO 00000KT 10SM CLR 06/04 A3032 -320 92 -1500 000/00 RMK AO2 T00560044
13976KLFT LFT20190125230011001/25/19 23:00:31  5-MIN KLFT 260500Z AUTO 00000KT 10SM CLR 05/04 A3032 -320 92 -1500 000/00 RMK AO2 T00500039
13976KLFT LFT20190125230511001/25/19 23:05:31  5-MIN KLFT 260505Z AUTO 00000KT 10SM CLR 05/04 A3032 -320 92 -1500 000/00 RMK AO2 T00500039
13976KLFT LFT20190125231011001/25/19 23:10:31  5-MIN KLFT 260510Z AUTO 00000KT 10SM CLR 05/04 A3032 -320 96 -1500 000/00 RMK AO2 T00500044
13976KLFT LFT20190125231511001/25/19 23:15:31  5-MIN KLFT 260515Z AUTO 00000KT 10SM CLR 04/04 A3032 -320 96 -1600 000/00 RMK AO2 T00440039
13976KLFT LFT20190125232011001/25/19 23:20:31  5-MIN KLFT 260520Z AUTO 00000KT 10SM CLR 04/04 A3032 -310 96 -1600 000/00 RMK AO2 T00440039
13976KLFT LFT20190125232511001/25/19 23:25:31  5-MIN KLFT 260525Z AUTO 00000KT 10SM CLR 05/04 A3031 -310 92 -1500 000/00 RMK AO2 T00500039
13976KLFT LFT20190125233011001/25/19 23:30:31  5-MIN KLFT 260530Z AUTO 00000KT 10SM CLR 04/04 A3031 -310 96 -1600 000/00 RMK AO2 T00440039
13976KLFT LFT20190125233511001/25/19 23:35:31  5-MIN KLFT 260535Z AUTO 00000KT 10SM CLR 04/03 A3031 -310 92 -1600 000/00 RMK AO2 T00440033
13976KLFT LFT20190125234011001/25/19 23:40:31  5-MIN KLFT 260540Z AUTO 00000KT 10SM CLR 05/04 A3031 -310 92 -1500 000/00 RMK AO2 T00500039
13976KLFT LFT20190125234511001/25/19 23:45:31  5-MIN KLFT 260545Z AUTO 00000KT 10SM CLR 05/04 A3031 -310 92 -1500 000/00 RMK AO2 T00500039
13976KLFT LFT20190125235014501/25/19 23:50:31  5-MIN KLFT 260550Z AUTO 00000KT 10SM CLR 05/03 A3030 -300 89 -1500 000/00 RMK AO2 SLP261 T00500033 10122 20044 401611006 50004
13976KLFT LFT20190125235511001/25/19 23:55:31  5-MIN KLFT 260555Z AUTO 00000KT 10SM CLR 04/03 A3030 -300 92 -1600 000/00 RMK AO2 T00440033
13976KLFT LFT20190126000011001/26/19 00:00:31  5-MIN KLFT 260600Z AUTO 00000KT 10SM CLR 04/03 A3030 -300 92 -1600 000/00 RMK AO2 T00440033
13976KLFT LFT20190126000511001/26/19 00:05:31  5-MIN KLFT 260605Z AUTO 00000KT 10SM CLR 04/03 A3030 -300 92 -1600 000/00 RMK AO2 T00440033
13976KLFT LFT20190126001011001/26/19 00:10:31  5-MIN KLFT 260610Z AUTO 00000KT 10SM CLR 04/03 A3030 -300 92 -1600 000/00 RMK AO2 T00440033
13976KLFT LFT20190126001511001/26/19 00:15:31  5-MIN KLFT 260615Z AUTO 00000KT 10SM CLR 04/03 A3030 -300 89 -1600 000/00 RMK AO2 T00440028
13976KLFT LFT20190126002011001/26/19 00:20:31  5-MIN KLFT 260620Z AUTO 00000KT 10SM CLR 04/03 A3030 -300 89 -1600 000/00 RMK AO2 T00440028
13976KLFT LFT20190126002511001/26/19 00:25:31  5-MIN KLFT 260625Z AUTO 00000KT 10SM CLR 04/03 A3030 -300 92 -1600 000/00 RMK AO2 T00440033
13976KLFT LFT20190126003011001/26/19 00:30:31  5-MIN KLFT 260630Z AUTO 00000KT 10SM CLR 04/03 A3030 -300 92 -1600 000/00 RMK AO2 T00440033
13976KLFT LFT20190126003511001/26/19 00:35:31  5-MIN KLFT 260635Z AUTO 00000KT 10SM CLR 04/03 A3030 -300 92 -1600 000/00 RMK AO2 T00440033
13976KLFT LFT20190126004011001/26/19 00:40:31  5-MIN KLFT 260640Z AUTO 00000KT 10SM CLR 04/03 A3030 -300 89 -1600 000/00 RMK AO2 T00440028
13976KLFT LFT20190126004511001/26/19 00:45:31  5-MIN KLFT 260645Z AUTO 00000KT 10SM CLR 04/03 A3030 -300 89 -1600 000/00 RMK AO2 T00440028
13976KLFT LFT20190126005011701/26/19 00:50:31  5-MIN KLFT 260650Z AUTO 00000KT 10SM CLR 04/03 A3030 -300 89 -1600 000/00 RMK AO2 SLP259 T00440028
13976KLFT LFT20190126005510901/26/19 00:55:31  5-MIN KLFT 260655Z AUTO 00000KT 7SM CLR 04/03 A3030 -300 89 -1600 000/00 RMK AO2 T00440028
13976KLFT LFT20190126010010901/26/19 01:00:31  5-MIN KLFT 260700Z AUTO 00000KT 7SM CLR 04/03 A3030 -300 96 -1600 000/00 RMK AO2 T00390033
13976KLFT LFT20190126010510901/26/19 01:05:31  5-MIN KLFT 260705Z AUTO 00000KT 9SM CLR 04/03 A3030 -300 92 -1600 000/00 RMK AO2 T00390028
13976KLFT LFT20190126011011001/26/19 01:10:31  5-MIN KLFT 260710Z AUTO 05003KT 10SM CLR 03/02 A3029 -290 92 -1700 050/03 RMK AO2 T00330022
13976KLFT LFT20190126011511001/26/19 01:15:31  5-MIN KLFT 260715Z AUTO 00000KT 10SM CLR 03/02 A3029 -290 92 -1700 000/00 RMK AO2 T00330022
13976KLFT LFT20190126012011001/26/19 01:20:31  5-MIN KLFT 260720Z AUTO 00000KT 10SM CLR 03/02 A3029 -290 92 -1700 000/00 RMK AO2 T00330022
13976KLFT LFT20190126012511001/26/19 01:25:31  5-MIN KLFT 260725Z AUTO 00000KT 10SM CLR 03/03 A3029 -290 96 -1700 000/00 RMK AO2 T00330028
13976KLFT LFT20190126013011001/26/19 01:30:31  5-MIN KLFT 260730Z AUTO 00000KT 10SM CLR 03/03 A3029 -290 96 -1700 000/00 RMK AO2 T00330028
13976KLFT LFT20190126013511001/26/19 01:35:31  5-MIN KLFT 260735Z AUTO 00000KT 10SM CLR 03/02 A3029 -290 96 -1800 000/00 RMK AO2 T00280022
13976KLFT LFT20190126014011001/26/19 01:40:31  5-MIN KLFT 260740Z AUTO 00000KT 10SM CLR 03/03 A3029 -290 96 -1700 000/00 RMK AO2 T00330028
13976KLFT LFT20190126014511101/26/19 01:45:31  5-MIN KLFT 260745Z AUTO 00000KT 10SM CLR 03/03 A3029 -290 100 -1800 000/00 RMK AO2 T00280028
13976KLFT LFT20190126015011701/26/19 01:50:31  5-MIN KLFT 260750Z AUTO 00000KT 10SM CLR 03/03 A3029 -290 96 -1700 000/00 RMK AO2 SLP257 T00330028
13976KLFT LFT20190126015511001/26/19 01:55:31  5-MIN KLFT 260755Z AUTO 00000KT 10SM CLR 03/03 A3029 -290 96 -1700 000/00 RMK AO2 T00330028
13976KLFT LFT20190126020011001/26/19 02:00:31  5-MIN KLFT 260800Z AUTO 00000KT 10SM CLR 03/03 A3029 -290 96 -1700 000/00 RMK AO2 T00330028
13976KLFT LFT20190126020511001/26/19 02:05:31  5-MIN KLFT 260805Z AUTO 00000KT 10SM CLR 03/03 A3029 -290 96 -1700 000/00 RMK AO2 T00330028
13976KLFT LFT20190126021011001/26/19 02:10:31  5-MIN KLFT 260810Z AUTO 00000KT 10SM CLR 03/02 A3029 -290 92 -1700 000/00 RMK AO2 T00330022
13976KLFT LFT20190126021511001/26/19 02:15:31  5-MIN KLFT 260815Z AUTO 00000KT 10SM CLR 03/02 A3029 -290 92 -1700 000/00 RMK AO2 T00330022
13976KLFT LFT20190126022010901/26/19 02:20:31  5-MIN KLFT 260820Z AUTO 00000KT 9SM CLR 03/02 A3029 -290 96 -1800 000/00 RMK AO2 T00280022
13976KLFT LFT20190126022511001/26/19 02:25:31  5-MIN KLFT 260825Z AUTO 00000KT 8SM CLR 03/03 A3030 -300 100 -1800 000/00 RMK AO2 T00280028
13976KLFT LFT20190126023010901/26/19 02:30:31  5-MIN KLFT 260830Z AUTO 00000KT 8SM CLR 03/02 A3030 -300 96 -1800 000/00 RMK AO2 T00280022
13976KLFT LFT20190126023511001/26/19 02:35:31  5-MIN KLFT 260835Z AUTO 00000KT 10SM CLR 03/02 A3030 -300 92 -1800 000/00 RMK AO2 T00280017
13976KLFT LFT20190126024011001/26/19 02:40:31  5-MIN KLFT 260840Z AUTO 00000KT 10SM CLR 03/02 A3030 -300 92 -1800 000/00 RMK AO2 T00280017
13976KLFT LFT20190126024511001/26/19 02:45:31  5-MIN KLFT 260845Z AUTO 35003KT 10SM CLR 03/02 A3030 -300 92 -1800 350/03 RMK AO2 T00280017
13976KLFT LFT20190126025012301/26/19 02:50:31  5-MIN KLFT 260850Z AUTO 00000KT 10SM CLR 03/02 A3030 -300 92 -1800 000/00 RMK AO2 SLP259 T00280017 58001
13976KLFT LFT20190126025511001/26/19 02:55:31  5-MIN KLFT 260855Z AUTO 00000KT 10SM CLR 03/02 A3029 -300 92 -1800 000/00 RMK AO2 T00280017
13976KLFT LFT20190126030011001/26/19 03:00:31  5-MIN KLFT 260900Z AUTO 00000KT 10SM CLR 03/02 A3029 -300 92 -1800 000/00 RMK AO2 T00280017
13976KLFT LFT20190126030511001/26/19 03:05:31  5-MIN KLFT 260905Z AUTO 00000KT 10SM CLR 03/02 A3029 -290 92 -1800 000/00 RMK AO2 T00280017
13976KLFT LFT20190126031011001/26/19 03:10:31  5-MIN KLFT 260910Z AUTO 00000KT 10SM CLR 03/02 A3029 -290 92 -1800 000/00 RMK AO2 T00280017
13976KLFT LFT20190126031511001/26/19 03:15:31  5-MIN KLFT 260915Z AUTO 03003KT 10SM CLR 02/01 A3029 -290 92 -1800 030/03 RMK AO2 T00220011
13976KLFT LFT20190126032011001/26/19 03:20:31  5-MIN KLFT 260920Z AUTO 00000KT 10SM CLR 03/02 A3029 -290 92 -1800 000/00 RMK AO2 T00280017
13976KLFT LFT20190126032511301/26/19 03:25:31  5-MIN KLFT 260925Z AUTO 02003KT 10SM FEW080 02/02 A3030 -300 96 -1800 020/03 RMK AO2 T00220017
13976KLFT LFT20190126033011301/26/19 03:30:31  5-MIN KLFT 260930Z AUTO 02003KT 10SM SCT080 02/01 A3030 -300 92 -1800 020/03 RMK AO2 T00220011
13976KLFT LFT20190126033511301/26/19 03:35:31  5-MIN KLFT 260935Z AUTO 04004KT 10SM SCT085 02/01 A3029 -290 92 -1800 030/04 RMK AO2 T00220011
13976KLFT LFT20190126034011301/26/19 03:40:31  5-MIN KLFT 260940Z AUTO 03004KT 10SM FEW085 02/01 A3030 -300 92 -1800 030/04 RMK AO2 T00220011
13976KLFT LFT20190126034511301/26/19 03:45:31  5-MIN KLFT 260945Z AUTO 01003KT 10SM SCT085 02/01 A3030 -300 96 -1900 010/03 RMK AO2 T00170011
13976KLFT LFT20190126035012001/26/19 03:50:31  5-MIN KLFT 260950Z AUTO 36003KT 10SM SCT085 02/01 A3030 -300 92 -1900 360/03 RMK AO2 SLP259 T00170006
13976KLFT LFT20190126035511301/26/19 03:55:31  5-MIN KLFT 260955Z AUTO 01003KT 10SM BKN085 02/01 A3030 -300 92 -1900 010/03 RMK AO2 T00170006
13976KLFT LFT20190126040011301/26/19 04:00:31  5-MIN KLFT 261000Z AUTO 02003KT 10SM BKN085 02/01 A3030 -300 92 -1900 020/03 RMK AO2 T00170006
13976KLFT LFT20190126040511301/26/19 04:05:31  5-MIN KLFT 261005Z AUTO 00000KT 10SM BKN085 02/02 A3030 -300 96 -1800 000/00 RMK AO2 T00220017
13976KLFT LFT20190126041011301/26/19 04:10:31  5-MIN KLFT 261010Z AUTO 00000KT 10SM OVC085 02/02 A3030 -300 96 -1800 000/00 RMK AO2 T00220017
13976KLFT LFT20190128211010201/28/19 21:10:31  5-MIN KLFT 290310Z 17005KT 10SM CLR 13/10 A2996 10 80 -100 170/05 RMK AO2 T01330100
13976KLFT LFT20190128211510201/28/19 21:15:31  5-MIN KLFT 290315Z 17004KT 10SM CLR 13/10 A2996 10 80 -100 170/04 RMK AO2 T01330100
13976KLFT LFT20190128212010201/28/19 21:20:31  5-MIN KLFT 290320Z 17004KT 10SM CLR 13/10 A2996 10 80 -100 170/04 RMK AO2 T01330100
13976KLFT LFT20190128212510201/28/19 21:25:31  5-MIN KLFT 290325Z 17004KT 10SM CLR 13/10 A2996 10 80 -100 170/04 RMK AO2 T01330100
13976KLFT LFT20190128213010201/28/19 21:30:31  5-MIN KLFT 290330Z 17003KT 10SM CLR 13/10 A2996 10 83 -200 170/03 RMK AO2 T01280100
13976KLFT LFT20190128213510201/28/19 21:35:31  5-MIN KLFT 290335Z 17004KT 10SM CLR 13/10 A2996 10 83 -200 170/04 RMK AO2 T01280100
13976KLFT LFT20190128214010201/28/19 21:40:31  5-MIN KLFT 290340Z 17004KT 10SM CLR 13/10 A2996 10 83 -200 170/04 RMK AO2 T01280100
13976KLFT LFT20190128214510201/28/19 21:45:31  5-MIN KLFT 290345Z 17004KT 10SM CLR 13/10 A2996 10 83 -200 170/04 RMK AO2 T01280100
13976KLFT LFT20190128215010901/28/19 21:50:31  5-MIN KLFT 290350Z 17004KT 10SM CLR 13/11 A2996 10 86 -200 170/04 RMK AO2 SLP143 T01280106
13976KLFT LFT20190128215510501/28/19 21:55:31  5-MIN KLFT 290355Z 17004KT 10SM FEW041 13/11 A2996 10 86 -200 170/04 RMK AO2 T01280106
13976KLFT LFT20190128220010501/28/19 22:00:31  5-MIN KLFT 290400Z 16004KT 10SM FEW041 13/11 A2996 10 86 -200 160/04 RMK AO2 T01280106
13976KLFT LFT20190128220510501/28/19 22:05:31  5-MIN KLFT 290405Z 17004KT 10SM FEW041 13/11 A2995 10 86 -200 170/04 RMK AO2 T01280106
13976KLFT LFT20190128221010501/28/19 22:10:31  5-MIN KLFT 290410Z 17004KT 10SM FEW041 13/11 A2996 10 86 -200 170/04 RMK AO2 T01280106
13976KLFT LFT20190128221510501/28/19 22:15:31  5-MIN KLFT 290415Z 17004KT 10SM FEW041 13/11 A2996 10 86 -200 170/04 RMK AO2 T01280106
13976KLFT LFT20190128222010501/28/19 22:20:31  5-MIN KLFT 290420Z 17003KT 10SM FEW041 13/11 A2995 10 86 -200 160/03 RMK AO2 T01280106
13976KLFT LFT20190128222510201/28/19 22:25:31  5-MIN KLFT 290425Z 17004KT 10SM CLR 13/11 A2995 10 86 -200 170/04 RMK AO2 T01280106
13976KLFT LFT20190128223010201/28/19 22:30:31  5-MIN KLFT 290430Z 18004KT 10SM CLR 12/11 A2995 10 89 -200 180/04 RMK AO2 T01220106
13976KLFT LFT20190128223510701/28/19 22:35:31  5-MIN KLFT 290435Z AUTO 17004KT 10SM CLR 12/11 A2995 10 89 -200 160/04 RMK AO2 T01220106
13976KLFT LFT20190128224010701/28/19 22:40:31  5-MIN KLFT 290440Z AUTO 17004KT 10SM CLR 12/11 A2995 20 89 -200 170/04 RMK AO2 T01220106
13976KLFT LFT20190128224510701/28/19 22:45:31  5-MIN KLFT 290445Z AUTO 17005KT 10SM CLR 12/11 A2995 20 89 -200 170/05 RMK AO2 T01220106
13976KLFT LFT20190128225011401/28/19 22:50:31  5-MIN KLFT 290450Z AUTO 18004KT 10SM CLR 12/11 A2995 20 89 -200 180/04 RMK AO2 SLP141 T01220106
13976KLFT LFT20190128225510701/28/19 22:55:31  5-MIN KLFT 290455Z AUTO 18004KT 10SM CLR 12/11 A2995 20 89 -200 170/04 RMK AO2 T01220106
13976KLFT LFT20190128230010701/28/19 23:00:31  5-MIN KLFT 290500Z AUTO 17004KT 10SM CLR 12/11 A2995 20 89 -200 170/04 RMK AO2 T01220106
13976KLFT LFT20190128230510701/28/19 23:05:31  5-MIN KLFT 290505Z AUTO 17004KT 10SM CLR 12/11 A2995 20 89 -200 170/04 RMK AO2 T01220106
13976KLFT LFT20190128231010701/28/19 23:10:31  5-MIN KLFT 290510Z AUTO 17004KT 10SM CLR 12/11 A2995 20 89 -200 170/04 RMK AO2 T01220106
13976KLFT LFT20190128231510701/28/19 23:15:31  5-MIN KLFT 290515Z AUTO 17004KT 10SM CLR 12/11 A2995 20 89 -200 170/04 RMK AO2 T01220106
13976KLFT LFT20190128232010701/28/19 23:20:31  5-MIN KLFT 290520Z AUTO 17005KT 10SM CLR 12/11 A2995 20 89 -200 170/05 RMK AO2 T01220106
13976KLFT LFT20190128232510701/28/19 23:25:31  5-MIN KLFT 290525Z AUTO 17004KT 10SM CLR 12/11 A2995 20 89 -200 170/04 RMK AO2 T01220106
13976KLFT LFT20190128233010701/28/19 23:30:31  5-MIN KLFT 290530Z AUTO 17005KT 10SM CLR 12/11 A2995 20 93 -200 170/05 RMK AO2 T01220111
13976KLFT LFT20190128233510701/28/19 23:35:31  5-MIN KLFT 290535Z AUTO 17004KT 10SM CLR 12/11 A2995 20 93 -200 170/04 RMK AO2 T01220111
13976KLFT LFT20190128234010701/28/19 23:40:31  5-MIN KLFT 290540Z AUTO 17004KT 10SM CLR 12/11 A2995 20 93 -200 170/04 RMK AO2 T01220111
13976KLFT LFT20190128234510701/28/19 23:45:31  5-MIN KLFT 290545Z AUTO 17004KT 10SM CLR 12/11 A2995 20 93 -200 170/04 RMK AO2 T01220111
13976KLFT LFT20190128235014201/28/19 23:50:31  5-MIN KLFT 290550Z AUTO 18004KT 10SM CLR 12/11 A2995 20 93 -200 170/04 RMK AO2 SLP141 T01220111 10167 20122 402000044 51012
13976KLFT LFT20190128235510701/28/19 23:55:31  5-MIN KLFT 290555Z AUTO 18004KT 10SM CLR 12/11 A2995 20 93 -200 180/04 RMK AO2 T01220111
13976KLFT LFT20190129000010701/29/19 00:00:31  5-MIN KLFT 290600Z AUTO 17004KT 10SM CLR 12/11 A2995 20 93 -200 170/04 RMK AO2 T01220111
13976KLFT LFT20190129000510701/29/19 00:05:31  5-MIN KLFT 290605Z AUTO 17003KT 10SM CLR 12/11 A2995 20 93 -200 170/03 RMK AO2 T01220111
13976KLFT LFT20190129001010701/29/19 00:10:31  5-MIN KLFT 290610Z AUTO 17003KT 10SM CLR 12/11 A2995 20 93 -200 170/03 RMK AO2 T01220111
13976KLFT LFT20190129001510701/29/19 00:15:31  5-MIN KLFT 290615Z AUTO 18003KT 10SM CLR 12/11 A2995 20 93 -200 180/03 RMK AO2 T01220111
13976KLFT LFT20190129002010701/29/19 00:20:31  5-MIN KLFT 290620Z AUTO 18003KT 10SM CLR 12/11 A2995 20 96 -300 180/03 RMK AO2 T01170111
13976KLFT LFT20190129002510701/29/19 00:25:31  5-MIN KLFT 290625Z AUTO 18003KT 10SM CLR 11/11 A2995 20 96 -400 180/03 RMK AO2 T01110106
13976KLFT LFT20190129003010701/29/19 00:30:31  5-MIN KLFT 290630Z AUTO 00000KT 10SM CLR 11/10 A2995 20 93 -400 000/00 RMK AO2 T01110100
13976KLFT LFT20190129003510701/29/19 00:35:31  5-MIN KLFT 290635Z AUTO 00000KT 10SM CLR 11/10 A2995 20 96 -400 000/00 RMK AO2 T01060100
13976KLFT LFT20190129004010701/29/19 00:40:31  5-MIN KLFT 290640Z AUTO 00000KT 10SM CLR 11/10 A2995 20 96 -400 000/00 RMK AO2 T01060100
13976KLFT LFT20190129004510601/29/19 00:45:31  5-MIN KLFT 290645Z AUTO 00000KT 9SM CLR 11/11 A2995 20 96 -400 000/00 RMK AO2 T01110106
13976KLFT LFT20190129005011301/29/19 00:50:31  5-MIN KLFT 290650Z AUTO 00000KT 9SM CLR 11/11 A2995 20 96 -400 000/00 RMK AO2 SLP141 T01110106
13976KLFT LFT20190129005510701/29/19 00:55:31  5-MIN KLFT 290655Z AUTO 00000KT 10SM CLR 11/11 A2995 10 96 -400 000/00 RMK AO2 T01110106
13976KLFT LFT20190129010010601/29/19 01:00:31  5-MIN KLFT 290700Z AUTO 00000KT 9SM CLR 11/11 A2995 10 96 -400 000/00 RMK AO2 T01110106
13976KLFT LFT20190129010511501/29/19 01:05:31  5-MIN KLFT 290705Z AUTO 00000KT 8SM FEW070 11/11 A2997 0 96 -400 000/00 RMK AO2 PRESRR T01110106
13976KLFT LFT20190129011012101/29/19 01:10:31  5-MIN KLFT 290710Z AUTO 8SM FEW007 SCT049 SCT070 12/11 A2998 -10 93 -300 M /M RMK AO2 PRESRR T01170106
13976KLFT LFT20190129011513101/29/19 01:15:31  5-MIN KLFT 290715Z AUTO 34017G22KT 10SM SCT007 SCT016 BKN049 12/11 A2999 -10 93 -300 340/17G22 RMK AO2 T01220111
13976KLFT LFT20190129012014901/29/19 01:20:31  5-MIN KLFT 290720Z AUTO 35016G26KT 10SM FEW009 FEW014 BKN019 13/11 A2999 -10 89 -200 350/16G26 RMK AO2 PK WND 34026/0718 T01280111
13976KLFT LFT20190129012514901/29/19 01:25:31  5-MIN KLFT 290725Z AUTO 35015G26KT 10SM FEW009 SCT014 BKN019 13/11 A2999 -10 89 -200 350/15G26 RMK AO2 PK WND 34026/0718 T01280111
13976KLFT LFT20190129013014901/29/19 01:30:31  5-MIN KLFT 290730Z AUTO 36018G24KT 10SM FEW009 BKN014 BKN019 13/11 A2999 -20 89 -200 360/18G24 RMK AO2 PK WND 34026/0718 T01280111
13976KLFT LFT20190129013514901/29/19 01:35:31  5-MIN KLFT 290735Z AUTO 01020G27KT 10SM FEW008 BKN014 OVC019 12/11 A3000 -20 89 -300 010/20G27 RMK AO2 PK WND 01027/0733 T01220106
13976KLFT LFT20190129014014201/29/19 01:40:31  5-MIN KLFT 290740Z AUTO 01018G29KT 10SM BKN014 OVC023 12/09 A3001 -30 86 -400 010/18G29 RMK AO2 PK WND 01029/0737 T01170094
13976KLFT LFT20190129014514901/29/19 01:45:31  5-MIN KLFT 290745Z AUTO 36021G29KT 10SM SCT014 BKN021 OVC027 12/09 A3002 -40 86 -400 360/21G29 RMK AO2 PK WND 01029/0737 T01170094
13976KLFT LFT20190129015015601/29/19 01:50:31  5-MIN KLFT 290750Z AUTO 02018G28KT 10SM BKN014 BKN024 OVC030 12/09 A3002 -40 83 -400 020/18G28 RMK AO2 PK WND 01029/0737 SLP163 T01170089
13976KLFT LFT20190129015514101/29/19 01:55:31  5-MIN KLFT 290755Z AUTO 01016G28KT 10SM -RA BKN014 BKN025 OVC032 11/09 A3001 -40 86 -400 010/16G28 RMK AO2 P0000 T01110089
13976KLFT LFT20190129020014101/29/19 02:00:31  5-MIN KLFT 290800Z AUTO 01019G25KT 10SM -RA SCT014 BKN025 OVC034 11/09 A3002 -40 86 -400 010/19G25 RMK AO2 P0000 T01110089
13976KLFT LFT20190129020514301/29/19 02:05:31  5-MIN KLFT 290805Z AUTO 36018G25KT 10SM SCT014 BKN025 OVC034 11/09 A3003 -60 89 -500 360/18G25 RMK AO2 RAE02 P0000 T01060089
13976KLFT LFT20190129021016101/29/19 02:10:31  5-MIN KLFT 290810Z AUTO 36020G27KT 10SM SCT014 BKN025 OVC034 11/09 A3003 -60 89 -500 360/20G27 RMK AO2 PK WND 01027/0810 RAE02 P0000 T01060089
13976KLFT LFT20190129021516101/29/19 02:15:31  5-MIN KLFT 290815Z AUTO 02021G27KT 10SM SCT013 BKN022 OVC034 11/09 A3003 -50 89 -500 010/21G27 RMK AO2 PK WND 01027/0810 RAE02 P0000 T01060089
13976KLFT LFT20190129022016101/29/19 02:20:31  5-MIN KLFT 290820Z AUTO 01022G28KT 10SM FEW013 BKN019 OVC034 11/09 A3004 -60 89 -500 010/22G28 RMK AO2 PK WND 02028/0820 RAE02 P0000 T01060089
13976KLFT LFT20190129022516101/29/19 02:25:31  5-MIN KLFT 290825Z AUTO 02019G28KT 10SM SCT010 BKN016 OVC036 10/09 A3003 -50 93 -600 010/19G28 RMK AO2 PK WND 02028/0820 RAE02 P0000 T01000089
13976KLFT LFT20190129023015401/29/19 02:30:31  5-MIN KLFT 290830Z AUTO 02014G25KT 10SM BKN010 OVC020 10/09 A3003 -50 93 -600 020/14G25 RMK AO2 PK WND 02028/0820 RAE02 P0000 T01000089
13976KLFT LFT20190129023516101/29/19 02:35:31  5-MIN KLFT 290835Z AUTO 36014G22KT 10SM -RA BKN011 OVC020 10/09 A3005 -70 93 -600 360/14G22 RMK AO2 PK WND 02028/0820 RAE02B31 P0000 T01000089
13976KLFT LFT20190129024017901/29/19 02:40:31  5-MIN KLFT 290840Z AUTO 35018G23KT 10SM BKN011 OVC020 10/08 A3006 -80 89 -600 350/18G23 RMK AO2 PK WND 02028/0820 RAE02B31E40 CIG 009V013 PRESRR P0000 T01000083
13976KLFT LFT20190129024516001/29/19 02:45:31  5-MIN KLFT 290845Z AUTO 35014G23KT 10SM OVC011 10/08 A3007 -90 89 -600 350/14G23 RMK AO2 PK WND 02028/0820 RAE02B31E40 PRESRR P0000 T01000083
13976KLFT LFT20190129025017901/29/19 02:50:31  5-MIN KLFT 290850Z AUTO 36018G23KT 10SM OVC011 09/08 A3007 -90 93 -700 360/18G23 RMK AO2 PK WND 02028/0820 RAE02B31E40 PRESRR SLP183 P0000 60000 T00940083 56004
13976KLFT LFT20190129025512501/29/19 02:55:31  5-MIN KLFT 290855Z AUTO 35014G24KT 10SM BKN011 OVC028 09/08 A3008 -100 89 -700 350/14G24 RMK AO2 T00940078
13976KLFT LFT20190129030014301/29/19 03:00:31  5-MIN KLFT 290900Z AUTO 35013G24KT 10SM -RA BKN011 OVC028 09/07 A3008 -100 86 -700 350/13G24 RMK AO2 RAB0859 P0000 T00940072
13976KLFT LFT20190129030514301/29/19 03:05:31  5-MIN KLFT 290905Z AUTO 35015G21KT 10SM -RA BKN014 OVC028 09/07 A3009 -100 86 -700 350/15G21 RMK AO2 RAB0859 P0000 T00940072
13976KLFT LFT20190129031014301/29/19 03:10:31  5-MIN KLFT 290910Z AUTO 36018G23KT 10SM -RA BKN014 OVC027 09/07 A3009 -110 89 -800 360/18G23 RMK AO2 RAB0859 P0000 T00890072
13976KLFT LFT20190129031514201/29/19 03:15:31  5-MIN KLFT 290915Z AUTO 01017G24KT 10SM RA BKN014 OVC027 09/07 A3008 -100 89 -800 010/17G24 RMK AO2 RAB0859 P0001 T00890072
13976KLFT LFT20190129032014101/29/19 03:20:31  5-MIN KLFT 290920Z AUTO 36016G24KT 9SM RA BKN016 OVC027 09/07 A3009 -100 89 -800 360/16G24 RMK AO2 RAB0859 P0001 T00890072
13976KLFT LFT20190129032514301/29/19 03:25:31  5-MIN KLFT 290925Z AUTO 36015G24KT 10SM -RA BKN014 OVC027 09/07 A3008 -100 89 -800 360/15G24 RMK AO2 RAB0859 P0002 T00890072
13976KLFT LFT20190129033015401/29/19 03:30:31  5-MIN KLFT 290930Z AUTO 36018G26KT 10SM -RA OVC014 09/07 A3009 -100 89 -800 360/18G26 RMK AO2 PK WND 35026/0930 RAB0859 P0002 T00890072
13976KLFT LFT20190129033515401/29/19 03:35:31  5-MIN KLFT 290935Z AUTO 36016G26KT 10SM -RA OVC014 08/07 A3009 -100 93 -800 360/16G26 RMK AO2 PK WND 35026/0930 RAB0859 P0002 T00830072
13976KLFT LFT20190129034016101/29/19 03:40:31  5-MIN KLFT 290940Z AUTO 36020G25KT 10SM -RA BKN014 OVC018 08/07 A3009 -110 89 -900 360/20G25 RMK AO2 PK WND 35026/0930 RAB0859 P0002 T00830067
13976KLFT LFT20190129034516101/29/19 03:45:31  5-MIN KLFT 290945Z AUTO 36017G26KT 10SM -RA BKN014 OVC018 08/07 A3009 -110 93 -900 360/17G26 RMK AO2 PK WND 35026/0930 RAB0859 P0002 T00780067
13976KLFT LFT20190129035016801/29/19 03:50:31  5-MIN KLFT 290950Z AUTO 36020G26KT 10SM -RA BKN012 OVC020 08/06 A3009 -110 89 -900 360/20G26 RMK AO2 PK WND 35026/0930 RAB0859 SLP189 P0002 T00780061
13976KLFT LFT20190129035514201/29/19 03:55:31  5-MIN KLFT 290955Z AUTO 36020G26KT 10SM -RA BKN012 BKN020 OVC070 08/06 A3009 -110 89 -900 360/20G26 RMK AO2 P0000 T00780061
13976KLFT LFT20190129040014401/29/19 04:00:31  5-MIN KLFT 291000Z AUTO 36015G24KT 10SM SCT012 BKN018 OVC070 08/06 A3010 -110 89 -900 360/15G24 RMK AO2 RAE00 P0000 T00780061
13976KLFT LFT20190129040516301/29/19 04:05:31  5-MIN KLFT 291005Z AUTO 36019G28KT 10SM SCT012 BKN018 OVC070 07/06 A3010 -120 93 -1000 360/19G28 RMK AO2 PK WND 36028/1005 RAE00 P0000 T00720061
13976KLFT LFT20190129041015401/29/19 04:10:31  5-MIN KLFT 291010Z AUTO 36018G28KT 10SM -RA BKN016 OVC075 07/06 A3010 -120 89 -1000 360/18G28 RMK AO2 PK WND 36028/1005 P0000 T00720056
13976KLFT LFT20190129041516101/29/19 04:15:31  5-MIN KLFT 291015Z AUTO 01018G28KT 10SM -RA SCT014 BKN020 OVC075 07/06 A3010 -120 89 -1000 010/18G28 RMK AO2 PK WND 36028/1005 P0001 T00720056
13976KLFT LFT20190129042016101/29/19 04:20:31  5-MIN KLFT 291020Z AUTO 01019G28KT 10SM -RA FEW012 SCT017 OVC070 07/06 A3010 -120 89 -1000 010/19G28 RMK AO2 PK WND 36028/1005 P0001 T00720056
13976KLFT LFT20190129042516101/29/19 04:25:31  5-MIN KLFT 291025Z AUTO 02019G28KT 10SM -RA SCT012 BKN017 OVC075 07/06 A3009 -110 93 -1100 020/19G28 RMK AO2 PK WND 36028/1005 P0001 T00670056
13976KLFT LFT20190129043016001/29/19 04:30:31  5-MIN KLFT 291030Z AUTO 02018G28KT 9SM -RA BKN012 BKN017 OVC065 07/06 A3010 -120 93 -1100 020/18G28 RMK AO2 PK WND 03028/1028 P0001 T00670056
13976KLFT LFT20190129043516101/29/19 04:35:31  5-MIN KLFT 291035Z AUTO 03017G28KT 10SM -RA BKN012 BKN017 OVC070 06/05 A3011 -120 93 -1100 030/17G28 RMK AO2 PK WND 03028/1028 P0001 T00610050
13976KLFT LFT20190129044016301/29/19 04:40:31  5-MIN KLFT 291040Z AUTO 03019G26KT 10SM BKN012 BKN018 OVC070 06/04 A3011 -120 92 -1200 030/19G26 RMK AO2 PK WND 03028/1028 RAE37 P0002 T00560044
13976KLFT LFT20190129044515601/29/19 04:45:31  5-MIN KLFT 291045Z AUTO 02022G30KT 10SM BKN012 OVC070 05/04 A3011 -130 92 -1300 020/22G30 RMK AO2 PK WND 02030/1044 RAE37 P0002 T00500039
13976KLFT LFT20190129045017001/29/19 04:50:31  5-MIN KLFT 291050Z AUTO 01017G30KT 10SM BKN012 OVC075 05/03 A3012 -140 89 -1300 010/17G30 RMK AO2 PK WND 02030/1044 RAE37 PRESRR SLP200 P0002 T00500033
13976KLFT LFT20190129045512601/29/19 04:55:31  5-MIN KLFT 291055Z AUTO 01017G25KT 10SM BKN012 OVC075 05/03 A3012 -140 89 -1300 010/17G25 RMK AO2 T00500033
13976KLFT LFT20190129050014401/29/19 05:00:31  5-MIN KLFT 291100Z AUTO 02019G25KT 10SM -RA BKN012 OVC075 04/03 A3012 -140 92 -1400 020/19G25 RMK AO2 RAB1058 P0000 T00440033
13976KLFT LFT20190129050514401/29/19 05:05:31  5-MIN KLFT 291105Z AUTO 01013G24KT 10SM -RA BKN012 OVC075 04/03 A3013 -150 92 -1400 010/13G24 RMK AO2 RAB1058 P0000 T00440033
13976KLFT LFT20190129051015701/29/19 05:10:31  5-MIN KLFT 291110Z 01023G29KT 10SM -RA BKN012 OVC070 04/03 A3014 -150 92 -1400 010/23G29 RMK AO2 PK WND 02029/1109 RAB1058 P0000 T00440033
13976KLFT LFT20190129051514901/29/19 05:15:31  5-MIN KLFT 291115Z 01019G29KT 10SM OVC012 04/03 A3014 -150 92 -1500 010/19G29 RMK AO2 PK WND 02029/1109 RAB1058E13 P0000 T00390028
13976KLFT LFT20190129052014901/29/19 05:20:31  5-MIN KLFT 291120Z 02019G26KT 10SM OVC012 04/02 A3014 -150 89 -1500 020/19G26 RMK AO2 PK WND 02029/1109 RAB1058E13 P0000 T00390022
13976KLFT LFT20190129052515601/29/19 05:25:31  5-MIN KLFT 291125Z 01015G24KT 10SM BKN012 OVC017 04/02 A3014 -150 89 -1500 010/15G24 RMK AO2 PK WND 02029/1109 RAB1058E13 P0000 T00390022
13976KLFT LFT20190129053014901/29/19 05:30:31  5-MIN KLFT 291130Z 01019G27KT 10SM OVC014 04/02 A3014 -160 89 -1500 360/19G27 RMK AO2 PK WND 02029/1109 RAB1058E13 P0000 T00390022
13976KLFT LFT20190129053514901/29/19 05:35:31  5-MIN KLFT 291135Z 36020G28KT 10SM OVC014 04/02 A3015 -160 89 -1500 360/20G28 RMK AO2 PK WND 02029/1109 RAB1058E13 P0000 T00390022
13976KLFT LFT20190129054014901/29/19 05:40:31  5-MIN KLFT 291140Z 01015G28KT 10SM OVC014 04/02 A3015 -160 85 -1500 010/15G28 RMK AO2 PK WND 02029/1109 RAB1058E13 P0000 T00390017
13976KLFT LFT20190129054514901/29/19 05:45:31  5-MIN KLFT 291145Z 01019G25KT 10SM OVC016 04/02 A3015 -160 85 -1500 010/19G25 RMK AO2 PK WND 02029/1109 RAB1058E13 P0000 T00390017
13976KLFT LFT20190129055018601/29/19 05:50:31  5-MIN KLFT 291150Z 01018G26KT 10SM OVC016 04/02 A3016 -170 85 -1500 010/18G26 RMK AO2 PK WND 02029/1109 RAB1058E13 SLP211 P0000 60004 70004 T00390017 10128 20039 53026
13976KLFT LFT20190129055513201/29/19 05:55:31  5-MIN KLFT 291155Z 01021G27KT 10SM OVC016 04/02 A3015 -170 85 -1500 010/21G27 RMK AO2 PK WND 01027/1155 T00390017
13976KLFT LFT20190129060013201/29/19 06:00:31  5-MIN KLFT 291200Z 01019G27KT 10SM OVC018 04/01 A3016 -170 82 -1500 010/19G27 RMK AO2 PK WND 01027/1155 T00390011
13976KLFT LFT20190129060513901/29/19 06:05:31  5-MIN KLFT 291205Z 01017G26KT 10SM BKN018 OVC024 03/01 A3016 -170 85 -1500 010/17G26 RMK AO2 PK WND 01027/1155 T00330011
13976KLFT LFT20190129061013301/29/19 06:10:31  5-MIN KLFT 291210Z 02017KT 10SM BKN018 OVC024 03/01 A3016 -170 85 -1500 020/17 RMK AO2 PK WND 01027/1155 T00330011
13976KLFT LFT20190129061513201/29/19 06:15:31  5-MIN KLFT 291215Z 02013G22KT 10SM BKN021 03/01 A3016 -170 85 -1500 020/13G22 RMK AO2 PK WND 01027/1155 T00330011
13976KLFT LFT20190129062013201/29/19 06:20:31  5-MIN KLFT 291220Z 02016G22KT 10SM BKN021 03/01 A3016 -170 85 -1600 010/16G22 RMK AO2 PK WND 01027/1155 T00330011
13976KLFT LFT20190129062513201/29/19 06:25:31  5-MIN KLFT 291225Z 01013G21KT 10SM SCT023 03/01 A3017 -180 85 -1600 010/13G21 RMK AO2 PK WND 01027/1155 T00330011
13976KLFT LFT20190129063013201/29/19 06:30:31  5-MIN KLFT 291230Z 02013G21KT 10SM FEW023 03/01 A3017 -180 89 -1600 020/13G21 RMK AO2 PK WND 01027/1155 T00280011
13976KLFT LFT20190129063513201/29/19 06:35:31  5-MIN KLFT 291235Z 01015G21KT 10SM FEW023 03/01 A3017 -180 89 -1600 010/15G21 RMK AO2 PK WND 01027/1155 T00280011
13976KLFT LFT20190129064012301/29/19 06:40:31  5-MIN KLFT 291240Z 02012KT 10SM CLR 03/01 A3017 -190 89 -1600 020/12 RMK AO2 PK WND 01027/1155 T00280011
13976KLFT LFT20190129064512901/29/19 06:45:31  5-MIN KLFT 291245Z 01013G20KT 10SM CLR 03/01 A3018 -190 89 -1600 010/13G20 RMK AO2 PK WND 01027/1155 T00280011
13976KLFT LFT20190129065013601/29/19 06:50:31  5-MIN KLFT 291250Z 01014G21KT 10SM CLR 03/01 A3018 -190 85 -1600 010/14G21 RMK AO2 PK WND 01027/1155 SLP219 T00280006
13976KLFT LFT20190129065511101/29/19 06:55:31  5-MIN KLFT 291255Z 01017G23KT 10SM CLR 03/01 A3019 -200 85 -1600 010/17G23 RMK AO2 T00280006
13976KLFT LFT20190129070011101/29/19 07:00:31  5-MIN KLFT 291300Z 01016G23KT 10SM CLR 03/01 A3019 -200 85 -1600 010/16G23 RMK AO2 T00280006
13976KLFT LFT20190129070511101/29/19 07:05:31  5-MIN KLFT 291305Z 01015G23KT 10SM CLR 03/01 A3019 -200 85 -1700 010/15G23 RMK AO2 T00280006
13976KLFT LFT20190129071010501/29/19 07:10:31  5-MIN KLFT 291310Z 01015KT 10SM CLR 03/01 A3019 -200 85 -1700 010/15 RMK AO2 T00280006
13976KLFT LFT20190129071510501/29/19 07:15:31  5-MIN KLFT 291315Z 02012KT 10SM CLR 03/01 A3019 -200 85 -1700 010/12 RMK AO2 T00280006
13976KLFT LFT20190129072011101/29/19 07:20:31  5-MIN KLFT 291320Z 01016G21KT 10SM CLR 03/00 A3020 -200 82 -1700 010/16G21 RMK AO2 T00280000
13976KLFT LFT20190129072511101/29/19 07:25:31  5-MIN KLFT 291325Z 01015G21KT 10SM CLR 03/00 A3020 -210 82 -1700 010/15G21 RMK AO2 T00280000
13976KLFT LFT20190129073011101/29/19 07:30:31  5-MIN KLFT 291330Z 01012G21KT 10SM CLR 03/01 A3020 -210 82 -1600 010/12G21 RMK AO2 T00330006
13976KLFT LFT20190129073511101/29/19 07:35:31  5-MIN KLFT 291335Z 01015G20KT 10SM CLR 03/01 A3021 -210 82 -1600 010/15G20 RMK AO2 T00330006
13976KLFT LFT20190129074010501/29/19 07:40:31  5-MIN KLFT 291340Z 01014KT 10SM CLR 03/01 A3021 -220 82 -1600 010/14 RMK AO2 T00330006
13976KLFT LFT20190129074510501/29/19 07:45:31  5-MIN KLFT 291345Z 01013KT 10SM CLR 03/01 A3021 -220 82 -1600 010/13 RMK AO2 T00330006
13976KLFT LFT20190129075011201/29/19 07:50:31  5-MIN KLFT 291350Z 01013KT 10SM CLR 03/01 A3021 -220 82 -1600 010/13 RMK AO2 SLP230 T00330006
13976KLFT LFT20190129075511101/29/19 07:55:31  5-MIN KLFT 291355Z 02011G20KT 10SM CLR 04/01 A3021 -220 79 -1500 010/11G20 RMK AO2 T00390006
13976KLFT LFT20190129080011101/29/19 08:00:31  5-MIN KLFT 291400Z 01012G19KT 10SM CLR 04/01 A3021 -220 82 -1500 010/12G19 RMK AO2 T00390011
13976KLFT LFT20190129080510501/29/19 08:05:31  5-MIN KLFT 291405Z 01014KT 10SM CLR 04/01 A3022 -230 79 -1500 010/14 RMK AO2 T00390006
13976KLFT LFT20190129081011401/29/19 08:10:31  5-MIN KLFT 291410Z 01012G20KT 10SM FEW018 04/01 A3022 -230 79 -1600 010/12G20 RMK AO2 T00390006
13976KLFT LFT20190129081510801/29/19 08:15:31  5-MIN KLFT 291415Z 02013KT 10SM FEW018 04/01 A3023 -240 82 -1600 020/13 RMK AO2 T00390011
13976KLFT LFT20190129082011401/29/19 08:20:31  5-MIN KLFT 291420Z 02014G22KT 10SM FEW018 04/01 A3023 -240 79 -1600 010/14G22 RMK AO2 T00390006
13976KLFT LFT20190129082511401/29/19 08:25:31  5-MIN KLFT 291425Z 01016G22KT 10SM SCT019 04/01 A3023 -240 79 -1600 010/16G22 RMK AO2 T00390006
13976KLFT LFT20190129083011401/29/19 08:30:31  5-MIN KLFT 291430Z 01015G22KT 10SM BKN019 04/01 A3023 -240 79 -1600 010/15G22 RMK AO2 T00390006
13976KLFT LFT20190129083511401/29/19 08:35:31  5-MIN KLFT 291435Z 02015G22KT 10SM BKN019 04/01 A3023 -240 79 -1600 020/15G22 RMK AO2 T00390006
13976KLFT LFT20190129084010801/29/19 08:40:31  5-MIN KLFT 291440Z 02016KT 10SM BKN019 04/01 A3024 -240 79 -1600 010/16 RMK AO2 T00390006
13976KLFT LFT20190129084511401/29/19 08:45:31  5-MIN KLFT 291445Z 02017G24KT 10SM BKN019 04/00 A3024 -240 76 -1600 020/17G24 RMK AO2 T00390000
13976KLFT LFT20190129085012701/29/19 08:50:31  5-MIN KLFT 291450Z 02015G24KT 10SM BKN019 04/01 A3024 -250 76 -1500 020/15G24 RMK AO2 SLP240 T00440006 51021
13976KLFT LFT20190129085511401/29/19 08:55:31  5-MIN KLFT 291455Z 02016G21KT 10SM SCT019 04/00 A3025 -250 76 -1600 020/16G21 RMK AO2 T00390000
13976KLFT LFT20190129090011401/29/19 09:00:31  5-MIN KLFT 291500Z 02019G23KT 10SM SCT020 04/00 A3024 -250 76 -1600 020/19G23 RMK AO2 T00390000
13976KLFT LFT20190129090510801/29/19 09:05:31  5-MIN KLFT 291505Z 01016KT 10SM FEW020 04/01 A3024 -250 76 -1500 360/16 RMK AO2 T00440006
13976KLFT LFT20190129191010601/29/19 19:10:31  5-MIN KLFT 300110Z 02008KT 10SM CLR 04/M05 A3024 -250 50 -1500 020/08 RMK AO2 T00441050
13976KLFT LFT20190129191510601/29/19 19:15:31  5-MIN KLFT 300115Z 01009KT 10SM CLR 05/M05 A3024 -250 48 -1400 010/09 RMK AO2 T00501050
13976KLFT LFT20190129192010601/29/19 19:20:31  5-MIN KLFT 300120Z 01008KT 10SM CLR 04/M05 A3024 -250 50 -1500 010/08 RMK AO2 T00441050
13976KLFT LFT20190129192510601/29/19 19:25:31  5-MIN KLFT 300125Z 01008KT 10SM CLR 05/M05 A3025 -250 48 -1400 010/08 RMK AO2 T00501050
13976KLFT LFT20190129193010601/29/19 19:30:31  5-MIN KLFT 300130Z 01007KT 10SM CLR 05/M05 A3025 -250 48 -1400 010/07 RMK AO2 T00501050
13976KLFT LFT20190129193510601/29/19 19:35:31  5-MIN KLFT 300135Z 01009KT 10SM CLR 05/M05 A3025 -250 48 -1400 010/09 RMK AO2 T00501050
13976KLFT LFT20190129194010601/29/19 19:40:31  5-MIN KLFT 300140Z 01009KT 10SM CLR 05/M05 A3025 -260 48 -1400 010/09 RMK AO2 T00501050
13976KLFT LFT20190129194510601/29/19 19:45:31  5-MIN KLFT 300145Z 01010KT 10SM CLR 05/M05 A3025 -260 48 -1400 010/10 RMK AO2 T00501050
13976KLFT LFT20190129195011301/29/19 19:50:31  5-MIN KLFT 300150Z 01009KT 10SM CLR 05/M05 A3026 -260 48 -1500 010/09 RMK AO2 SLP245 T00501050
13976KLFT LFT20190129195510601/29/19 19:55:31  5-MIN KLFT 300155Z 01009KT 10SM CLR 05/M04 A3026 -270 50 -1500 010/09 RMK AO2 T00501044
13976KLFT LFT20190129200010601/29/19 20:00:31  5-MIN KLFT 300200Z 01010KT 10SM CLR 05/M05 A3026 -260 48 -1500 010/10 RMK AO2 T00501050
13976KLFT LFT20190129200510601/29/19 20:05:31  5-MIN KLFT 300205Z 01008KT 10SM CLR 05/M04 A3026 -260 50 -1500 010/08 RMK AO2 T00501044
13976KLFT LFT20190129201010601/29/19 20:10:31  5-MIN KLFT 300210Z 01009KT 10SM CLR 05/M05 A3026 -260 48 -1500 010/09 RMK AO2 T00501050
13976KLFT LFT20190129201510601/29/19 20:15:31  5-MIN KLFT 300215Z 01010KT 10SM CLR 05/M05 A3026 -260 48 -1500 010/10 RMK AO2 T00501050
13976KLFT LFT20190129202010601/29/19 20:20:31  5-MIN KLFT 300220Z 01010KT 10SM CLR 05/M05 A3026 -260 48 -1500 010/10 RMK AO2 T00501050
13976KLFT LFT20190129202510601/29/19 20:25:31  5-MIN KLFT 300225Z 02009KT 10SM CLR 04/M04 A3026 -260 52 -1500 020/09 RMK AO2 T00441044
13976KLFT LFT20190129203010601/29/19 20:30:31  5-MIN KLFT 300230Z 01008KT 10SM CLR 04/M04 A3026 -270 52 -1500 010/08 RMK AO2 T00441044
13976KLFT LFT20190129203510601/29/19 20:35:31  5-MIN KLFT 300235Z 02008KT 10SM CLR 04/M04 A3027 -270 52 -1500 020/08 RMK AO2 T00441044
13976KLFT LFT20190129204010601/29/19 20:40:31  5-MIN KLFT 300240Z 02008KT 10SM CLR 04/M04 A3027 -270 52 -1500 020/08 RMK AO2 T00441044
13976KLFT LFT20190129204510601/29/19 20:45:31  5-MIN KLFT 300245Z 01008KT 10SM CLR 04/M04 A3028 -280 52 -1500 010/08 RMK AO2 T00441044
13976KLFT LFT20190129205011901/29/19 20:50:31  5-MIN KLFT 300250Z 02010KT 10SM CLR 04/M04 A3028 -280 52 -1500 020/10 RMK AO2 SLP252 T00441044 53008
13976KLFT LFT20190129205510601/29/19 20:55:31  5-MIN KLFT 300255Z 02009KT 10SM CLR 04/M05 A3027 -280 50 -1500 020/09 RMK AO2 T00441050
13976KLFT LFT20190129210010601/29/19 21:00:31  5-MIN KLFT 300300Z 02009KT 10SM CLR 04/M05 A3028 -280 50 -1500 020/09 RMK AO2 T00441050
13976KLFT LFT20190129210510601/29/19 21:05:31  5-MIN KLFT 300305Z 02010KT 10SM CLR 04/M05 A3028 -280 50 -1500 020/10 RMK AO2 T00441050
13976KLFT LFT20190129211010601/29/19 21:10:31  5-MIN KLFT 300310Z 02009KT 10SM CLR 04/M04 A3028 -290 52 -1600 020/09 RMK AO2 T00441044
13976KLFT LFT20190129211510601/29/19 21:15:31  5-MIN KLFT 300315Z 02007KT 10SM CLR 04/M05 A3028 -290 50 -1600 020/07 RMK AO2 T00441050
13976KLFT LFT20190129212010601/29/19 21:20:31  5-MIN KLFT 300320Z 02007KT 10SM CLR 04/M04 A3029 -290 52 -1600 020/07 RMK AO2 T00441044
13976KLFT LFT20190129212510601/29/19 21:25:31  5-MIN KLFT 300325Z 02008KT 10SM CLR 04/M05 A3029 -290 50 -1600 020/08 RMK AO2 T00441050
13976KLFT LFT20190129213010601/29/19 21:30:31  5-MIN KLFT 300330Z 03008KT 10SM CLR 04/M05 A3029 -290 52 -1600 030/08 RMK AO2 T00391050
13976KLFT LFT20190129213510601/29/19 21:35:31  5-MIN KLFT 300335Z 02007KT 10SM CLR 04/M05 A3029 -290 52 -1600 020/07 RMK AO2 T00391050
13976KLFT LFT20190129214010601/29/19 21:40:31  5-MIN KLFT 300340Z 02006KT 10SM CLR 04/M05 A3029 -290 52 -1600 020/06 RMK AO2 T00391050
13976KLFT LFT20190129214510601/29/19 21:45:31  5-MIN KLFT 300345Z 03006KT 10SM CLR 04/M04 A3029 -290 54 -1600 030/06 RMK AO2 T00391044
13976KLFT LFT20190129215011301/29/19 21:50:31  5-MIN KLFT 300350Z 03006KT 10SM CLR 03/M05 A3029 -290 54 -1700 020/06 RMK AO2 SLP257 T00331050
13976KLFT LFT20190129215510601/29/19 21:55:31  5-MIN KLFT 300355Z 03006KT 10SM CLR 03/M05 A3029 -290 54 -1700 030/06 RMK AO2 T00331050
13976KLFT LFT20190129220010601/29/19 22:00:31  5-MIN KLFT 300400Z 04005KT 10SM CLR 03/M05 A3029 -290 56 -1800 030/05 RMK AO2 T00281050
13976KLFT LFT20190129220510601/29/19 22:05:31  5-MIN KLFT 300405Z 04004KT 10SM CLR 03/M05 A3030 -300 56 -1800 040/04 RMK AO2 T00281050
13976KLFT LFT20190129221010601/29/19 22:10:31  5-MIN KLFT 300410Z 03003KT 10SM CLR 03/M05 A3030 -300 54 -1700 030/03 RMK AO2 T00331050
13976KLFT LFT20190129221510601/29/19 22:15:31  5-MIN KLFT 300415Z 02003KT 10SM CLR 03/M05 A3031 -310 54 -1700 020/03 RMK AO2 T00331050
13976KLFT LFT20190129222010601/29/19 22:20:31  5-MIN KLFT 300420Z 02003KT 10SM CLR 03/M05 A3031 -310 54 -1700 010/03 RMK AO2 T00331050
13976KLFT LFT20190129222510601/29/19 22:25:31  5-MIN KLFT 300425Z 02004KT 10SM CLR 03/M05 A3031 -310 56 -1800 020/04 RMK AO2 T00281050
13976KLFT LFT20190129223010601/29/19 22:30:31  5-MIN KLFT 300430Z 02005KT 10SM CLR 03/M05 A3030 -300 56 -1800 020/05 RMK AO2 T00281050
13976KLFT LFT20190129223510601/29/19 22:35:31  5-MIN KLFT 300435Z 02004KT 10SM CLR 03/M05 A3031 -310 56 -1800 020/04 RMK AO2 T00281050
13976KLFT LFT20190129224010601/29/19 22:40:31  5-MIN KLFT 300440Z 02003KT 10SM CLR 03/M05 A3031 -310 56 -1800 020/03 RMK AO2 T00281050
13976KLFT LFT20190129224510601/29/19 22:45:31  5-MIN KLFT 300445Z 03004KT 10SM CLR 03/M05 A3030 -300 54 -1700 020/04 RMK AO2 T00331050
13976KLFT LFT20190129225011301/29/19 22:50:31  5-MIN KLFT 300450Z 03006KT 10SM CLR 03/M05 A3030 -300 56 -1800 030/06 RMK AO2 SLP261 T00281050
13976KLFT LFT20190129225510601/29/19 22:55:31  5-MIN KLFT 300455Z 03003KT 10SM CLR 03/M05 A3030 -300 56 -1800 030/03 RMK AO2 T00281050
13976KLFT LFT20190129230010601/29/19 23:00:31  5-MIN KLFT 300500Z 01003KT 10SM CLR 03/M05 A3031 -310 56 -1800 010/03 RMK AO2 T00281050
13976KLFT LFT20190129230510601/29/19 23:05:31  5-MIN KLFT 300505Z 01003KT 10SM CLR 03/M05 A3030 -300 56 -1800 010/03 RMK AO2 T00281050
13976KLFT LFT20190129231010601/29/19 23:10:31  5-MIN KLFT 300510Z 01003KT 10SM CLR 03/M05 A3031 -310 56 -1800 010/03 RMK AO2 T00281050
13976KLFT LFT20190129231510601/29/19 23:15:31  5-MIN KLFT 300515Z 36003KT 10SM CLR 03/M05 A3031 -310 56 -1800 360/03 RMK AO2 T00281050
13976KLFT LFT20190129232010601/29/19 23:20:31  5-MIN KLFT 300520Z 01003KT 10SM CLR 03/M05 A3030 -300 56 -1800 010/03 RMK AO2 T00281050
13976KLFT LFT20190129232510601/29/19 23:25:31  5-MIN KLFT 300525Z 01004KT 10SM CLR 03/M05 A3031 -300 56 -1800 360/04 RMK AO2 T00281050
13976KLFT LFT20190129233010601/29/19 23:30:31  5-MIN KLFT 300530Z 01004KT 10SM CLR 03/M05 A3030 -300 56 -1800 010/04 RMK AO2 T00281050
13976KLFT LFT20190129233510601/29/19 23:35:31  5-MIN KLFT 300535Z 02005KT 10SM CLR 02/M05 A3029 -300 59 -1800 020/05 RMK AO2 T00221050
13976KLFT LFT20190129234010601/29/19 23:40:31  5-MIN KLFT 300540Z 03005KT 10SM CLR 02/M05 A3029 -290 59 -1800 030/05 RMK AO2 T00221050
13976KLFT LFT20190129234510601/29/19 23:45:31  5-MIN KLFT 300545Z 03004KT 10SM CLR 02/M05 A3029 -290 61 -1900 030/04 RMK AO2 T00171050
13976KLFT LFT20190129235014101/29/19 23:50:31  5-MIN KLFT 300550Z 03004KT 10SM CLR 02/M04 A3029 -290 61 -1800 030/04 RMK AO2 SLP255 T00221044 10056 20017 401280017 53018
13976KLFT LFT20190129235510601/29/19 23:55:31  5-MIN KLFT 300555Z 03004KT 10SM CLR 02/M04 A3028 -290 61 -1800 030/04 RMK AO2 T00221044
13976KLFT LFT20190130000010601/30/19 00:00:31  5-MIN KLFT 300600Z 03004KT 10SM CLR 02/M04 A3028 -280 61 -1800 030/04 RMK AO2 T00221044
13976KLFT LFT20190130000510601/30/19 00:05:31  5-MIN KLFT 300605Z 02004KT 10SM CLR 02/M04 A3028 -290 64 -1900 020/04 RMK AO2 T00171044
13976KLFT LFT20190130001010601/30/19 00:10:31  5-MIN KLFT 300610Z 01004KT 10SM CLR 02/M04 A3029 -290 66 -1900 010/04 RMK AO2 T00171039
13976KLFT LFT20190130001510601/30/19 00:15:31  5-MIN KLFT 300615Z 02004KT 10SM CLR 02/M04 A3028 -280 66 -1900 020/04 RMK AO2 T00171039
13976KLFT LFT20190130002010601/30/19 00:20:31  5-MIN KLFT 300620Z 02004KT 10SM CLR 02/M04 A3028 -280 64 -1800 020/04 RMK AO2 T00221039
13976KLFT LFT20190130002510601/30/19 00:25:31  5-MIN KLFT 300625Z 06003KT 10SM CLR 02/M04 A3028 -280 66 -1900 060/03 RMK AO2 T00171039
13976KLFT LFT20190130003010601/30/19 00:30:31  5-MIN KLFT 300630Z 00000KT 10SM CLR 02/M04 A3027 -280 61 -1800 000/00 RMK AO2 T00221044
13976KLFT LFT20190130003510601/30/19 00:35:31  5-MIN KLFT 300635Z 05003KT 10SM CLR 02/M04 A3028 -280 61 -1800 040/03 RMK AO2 T00221044
13976KLFT LFT20190130004010601/30/19 00:40:31  5-MIN KLFT 300640Z 04004KT 10SM CLR 02/M05 A3028 -280 59 -1800 040/04 RMK AO2 T00221050
13976KLFT LFT20190130004510601/30/19 00:45:31  5-MIN KLFT 300645Z 04004KT 10SM CLR 02/M05 A3028 -280 61 -1900 040/04 RMK AO2 T00171050
13976KLFT LFT20190130005011301/30/19 00:50:31  5-MIN KLFT 300650Z 03004KT 10SM CLR 02/M04 A3028 -280 64 -1900 030/04 RMK AO2 SLP252 T00171044
13976KLFT LFT20190130005510601/30/19 00:55:31  5-MIN KLFT 300655Z 05003KT 10SM CLR 02/M04 A3027 -280 64 -1900 050/03 RMK AO2 T00171044
13976KLFT LFT20190130010010601/30/19 01:00:31  5-MIN KLFT 300700Z 00000KT 10SM CLR 02/M04 A3028 -280 61 -1800 000/00 RMK AO2 T00221044
13976KLFT LFT20190130010510601/30/19 01:05:31  5-MIN KLFT 300705Z 00000KT 10SM CLR 02/M05 A3028 -280 59 -1800 000/00 RMK AO2 T00221050
13976KLFT LFT20190130011010601/30/19 01:10:31  5-MIN KLFT 300710Z 00000KT 10SM CLR 02/M05 A3028 -280 59 -1800 000/00 RMK AO2 T00221050
13976KLFT LFT20190130011510601/30/19 01:15:31  5-MIN KLFT 300715Z 00000KT 10SM CLR 02/M04 A3028 -280 61 -1800 000/00 RMK AO2 T00221044
13976KLFT LFT20190130012010601/30/19 01:20:31  5-MIN KLFT 300720Z 07003KT 10SM CLR 02/M04 A3027 -280 61 -1800 070/03 RMK AO2 T00221044
13976KLFT LFT20190130012510601/30/19 01:25:31  5-MIN KLFT 300725Z 00000KT 10SM CLR 02/M04 A3027 -270 61 -1800 000/00 RMK AO2 T00221044
13976KLFT LFT20190130013010601/30/19 01:30:31  5-MIN KLFT 300730Z 11003KT 10SM CLR 02/M04 A3027 -270 61 -1800 110/03 RMK AO2 T00221044
13976KLFT LFT20190130013510601/30/19 01:35:31  5-MIN KLFT 300735Z 00000KT 10SM CLR 02/M04 A3027 -270 61 -1800 000/00 RMK AO2 T00221044
13976KLFT LFT20190130014010601/30/19 01:40:31  5-MIN KLFT 300740Z 08003KT 10SM CLR 03/M04 A3027 -270 59 -1700 080/03 RMK AO2 T00281044
13976KLFT LFT20190130014510601/30/19 01:45:31  5-MIN KLFT 300745Z 00000KT 10SM CLR 03/M04 A3027 -270 59 -1700 000/00 RMK AO2 T00281044
13976KLFT LFT20190130015011301/30/19 01:50:31  5-MIN KLFT 300750Z 12003KT 10SM CLR 03/M04 A3027 -270 59 -1700 120/03 RMK AO2 SLP249 T00281044
13976KLFT LFT20190130015510601/30/19 01:55:31  5-MIN KLFT 300755Z VRB04KT 10SM CLR 03/M04 A3026 -270 59 -1700 VRB/04 RMK AO2 T00281044
13976KLFT LFT20190130020010601/30/19 02:00:31  5-MIN KLFT 300800Z 10003KT 10SM CLR 03/M04 A3027 -270 59 -1700 100/03 RMK AO2 T00281044
13976KLFT LFT20190130020510601/30/19 02:05:31  5-MIN KLFT 300805Z 09003KT 10SM CLR 03/M04 A3027 -270 59 -1700 080/03 RMK AO2 T00281044
13976KLFT LFT20190130021010601/30/19 02:10:31  5-MIN KLFT 300810Z VRB03KT 10SM CLR 03/M04 A3027 -270 59 -1700 VRB/03 RMK AO2 T00281044
13976KLFT LFT20190130021510601/30/19 02:15:31  5-MIN KLFT 300815Z 08003KT 10SM CLR 03/M04 A3027 -270 59 -1700 080/03 RMK AO2 T00281044
13976KLFT LFT20190130022010601/30/19 02:20:31  5-MIN KLFT 300820Z 06004KT 10SM CLR 03/M04 A3027 -270 59 -1700 060/04 RMK AO2 T00281044
13976KLFT LFT20190130022510601/30/19 02:25:31  5-MIN KLFT 300825Z 04003KT 10SM CLR 03/M05 A3027 -280 56 -1700 040/03 RMK AO2 T00281050
13976KLFT LFT20190130023010601/30/19 02:30:31  5-MIN KLFT 300830Z 01004KT 10SM CLR 02/M05 A3028 -280 59 -1800 010/04 RMK AO2 T00221050
13976KLFT LFT20190130023510601/30/19 02:35:31  5-MIN KLFT 300835Z 01005KT 10SM CLR 02/M04 A3028 -280 61 -1800 010/05 RMK AO2 T00221044
13976KLFT LFT20190130024010601/30/19 02:40:31  5-MIN KLFT 300840Z 36004KT 10SM CLR 02/M04 A3028 -280 61 -1800 360/04 RMK AO2 T00221044
13976KLFT LFT20190130024510601/30/19 02:45:31  5-MIN KLFT 300845Z 01004KT 10SM CLR 02/M04 A3027 -280 61 -1800 010/04 RMK AO2 T00221044
13976KLFT LFT20190130025011901/30/19 02:50:31  5-MIN KLFT 300850Z 02005KT 10SM CLR 02/M04 A3027 -270 61 -1800 020/05 RMK AO2 SLP250 T00221044 50004
13976KLFT LFT20190130025510601/30/19 02:55:31  5-MIN KLFT 300855Z 05004KT 10SM CLR 02/M04 A3026 -270 61 -1800 050/04 RMK AO2 T00221044
13976KLFT LFT20190130030010601/30/19 03:00:31  5-MIN KLFT 300900Z 06003KT 10SM CLR 02/M04 A3027 -270 61 -1800 060/03 RMK AO2 T00221044
13976KLFT LFT20190130030510601/30/19 03:05:31  5-MIN KLFT 300905Z 04005KT 10SM CLR 02/M04 A3026 -270 61 -1800 040/05 RMK AO2 T00221044
13976KLFT LFT20190130031010601/30/19 03:10:31  5-MIN KLFT 300910Z 02005KT 10SM CLR 02/M04 A3027 -270 64 -1900 020/05 RMK AO2 T00171044
13976KLFT LFT20190130031510601/30/19 03:15:31  5-MIN KLFT 300915Z 02004KT 10SM CLR 02/M04 A3027 -270 64 -1900 020/04 RMK AO2 T00171044
13976KLFT LFT20190130032010601/30/19 03:20:31  5-MIN KLFT 300920Z 00000KT 10SM CLR 02/M04 A3027 -270 66 -1900 000/00 RMK AO2 T00171039
13976KLFT LFT20190130032510601/30/19 03:25:31  5-MIN KLFT 300925Z 01003KT 10SM CLR 02/M04 A3028 -280 66 -1900 010/03 RMK AO2 T00171039
13976KLFT LFT20190130033010601/30/19 03:30:31  5-MIN KLFT 300930Z 01004KT 10SM CLR 02/M04 A3028 -280 64 -1800 010/04 RMK AO2 T00221039
13976KLFT LFT20190130033510601/30/19 03:35:31  5-MIN KLFT 300935Z 02004KT 10SM CLR 02/M04 A3027 -280 64 -1800 020/04 RMK AO2 T00221039
13976KLFT LFT20190130034010601/30/19 03:40:31  5-MIN KLFT 300940Z 02004KT 10SM CLR 02/M04 A3027 -270 66 -1900 010/04 RMK AO2 T00171039
13976KLFT LFT20190130034510601/30/19 03:45:31  5-MIN KLFT 300945Z 02004KT 10SM CLR 02/M04 A3027 -280 64 -1800 020/04 RMK AO2 T00221039
13976KLFT LFT20190130035011301/30/19 03:50:31  5-MIN KLFT 300950Z 02004KT 10SM CLR 02/M04 A3027 -280 66 -1900 020/04 RMK AO2 SLP251 T00171039
13976KLFT LFT20190130035510601/30/19 03:55:31  5-MIN KLFT 300955Z 02005KT 10SM CLR 02/M04 A3028 -280 66 -1900 020/05 RMK AO2 T00171039
13976KLFT LFT20190130040010601/30/19 04:00:31  5-MIN KLFT 301000Z 03005KT 10SM CLR 02/M04 A3028 -280 66 -1900 030/05 RMK AO2 T00171039
13976KLFT LFT20190130040510601/30/19 04:05:31  5-MIN KLFT 301005Z 03005KT 10SM CLR 02/M04 A3027 -280 66 -1900 030/05 RMK AO2 T00171039
13976KLFT LFT20190130041010601/30/19 04:10:31  5-MIN KLFT 301010Z 04005KT 10SM CLR 02/M03 A3027 -280 69 -1900 040/05 RMK AO2 T00171033
13976KLFT LFT20190130041510601/30/19 04:15:31  5-MIN KLFT 301015Z 04004KT 10SM CLR 02/M03 A3028 -280 69 -1900 040/04 RMK AO2 T00171033
13976KLFT LFT20190130042010601/30/19 04:20:31  5-MIN KLFT 301020Z 03005KT 10SM CLR 02/M04 A3028 -280 66 -1900 030/05 RMK AO2 T00171039
13976KLFT LFT20190130042510601/30/19 04:25:31  5-MIN KLFT 301025Z 02005KT 10SM CLR 02/M03 A3028 -280 69 -1900 020/05 RMK AO2 T00171033
13976KLFT LFT20190130043010601/30/19 04:30:31  5-MIN KLFT 301030Z 03005KT 10SM CLR 02/M04 A3028 -280 66 -1900 020/05 RMK AO2 T00171039
13976KLFT LFT20190130043510601/30/19 04:35:31  5-MIN KLFT 301035Z 03005KT 10SM CLR 02/M04 A3028 -280 66 -1900 020/05 RMK AO2 T00171039
13976KLFT LFT20190130044010601/30/19 04:40:31  5-MIN KLFT 301040Z 03005KT 10SM CLR 02/M04 A3028 -280 66 -1900 020/05 RMK AO2 T00171039
13976KLFT LFT20190130044510601/30/19 04:45:31  5-MIN KLFT 301045Z 03005KT 10SM CLR 02/M03 A3028 -280 69 -1900 030/05 RMK AO2 T00171033
13976KLFT LFT20190130045011301/30/19 04:50:31  5-MIN KLFT 301050Z 04004KT 10SM CLR 02/M03 A3028 -280 69 -1900 040/04 RMK AO2 SLP252 T00171033
13976KLFT LFT20190130045510601/30/19 04:55:31  5-MIN KLFT 301055Z 05005KT 10SM CLR 02/M04 A3028 -280 64 -1800 050/05 RMK AO2 T00221039
13976KLFT LFT20190130050010601/30/19 05:00:31  5-MIN KLFT 301100Z 06004KT 10SM CLR 02/M04 A3028 -280 61 -1800 060/04 RMK AO2 T00221044
13976KLFT LFT20190130050510601/30/19 05:05:31  5-MIN KLFT 301105Z 06003KT 10SM CLR 02/M04 A3028 -280 64 -1800 060/03 RMK AO2 T00221039
13976KLFT LFT20190130051010601/30/19 05:10:31  5-MIN KLFT 301110Z 05004KT 10SM CLR 02/M04 A3028 -280 61 -1800 050/04 RMK AO2 T00221044
13976KLFT LFT20190130051510601/30/19 05:15:31  5-MIN KLFT 301115Z 08003KT 10SM CLR 02/M04 A3028 -290 61 -1800 080/03 RMK AO2 T00221044
13976KLFT LFT20190130052010601/30/19 05:20:31  5-MIN KLFT 301120Z 00000KT 10SM CLR 02/M04 A3029 -290 61 -1800 000/00 RMK AO2 T00221044
13976KLFT LFT20190130052510601/30/19 05:25:31  5-MIN KLFT 301125Z 00000KT 10SM CLR 02/M04 A3029 -290 61 -1800 000/00 RMK AO2 T00221044
13976KLFT LFT20190130053010601/30/19 05:30:31  5-MIN KLFT 301130Z 00000KT 10SM CLR 02/M04 A3029 -290 61 -1800 000/00 RMK AO2 T00221044
13976KLFT LFT20190130053510601/30/19 05:35:31  5-MIN KLFT 301135Z 06003KT 10SM CLR 02/M04 A3029 -300 61 -1800 060/03 RMK AO2 T00221044
13976KLFT LFT20190130054010601/30/19 05:40:31  5-MIN KLFT 301140Z 04003KT 10SM CLR 02/M04 A3030 -300 61 -1800 040/03 RMK AO2 T00221044
13976KLFT LFT20190130054510601/30/19 05:45:31  5-MIN KLFT 301145Z 05003KT 10SM CLR 02/M04 A3030 -300 61 -1800 050/03 RMK AO2 T00221044
13976KLFT LFT20190130055013101/30/19 05:50:31  5-MIN KLFT 301150Z 00000KT 10SM CLR 02/M04 A3030 -300 61 -1800 000/00 RMK AO2 SLP260 T00221044 10028 20017 55006
13976KLFT LFT20190130055510601/30/19 05:55:31  5-MIN KLFT 301155Z 00000KT 10SM CLR 02/M04 A3030 -300 61 -1800 000/00 RMK AO2 T00221044
13976KLFT LFT20190130060010601/30/19 06:00:31  5-MIN KLFT 301200Z 00000KT 10SM CLR 02/M04 A3030 -300 64 -1800 000/00 RMK AO2 T00221039
13976KLFT LFT20190130060511101/30/19 06:05:31  5-MIN KLFT 301205Z AUTO 00000KT 10SM CLR 02/M04 A3030 -300 61 -1900 000/00 RMK AO2 T00221044
13976KLFT LFT20190130061010601/30/19 06:10:31  5-MIN KLFT 301210Z 04003KT 10SM CLR 02/M04 A3031 -310 64 -1900 040/03 RMK AO2 T00221039
13976KLFT LFT20190130061510601/30/19 06:15:31  5-MIN KLFT 301215Z 04003KT 10SM CLR 02/M04 A3031 -310 64 -1900 040/03 RMK AO2 T00221039
13976KLFT LFT20190130062010601/30/19 06:20:31  5-MIN KLFT 301220Z 04003KT 10SM CLR 02/M04 A3031 -310 64 -1900 040/03 RMK AO2 T00221039
13976KLFT LFT20190130062510601/30/19 06:25:31  5-MIN KLFT 301225Z 04003KT 10SM CLR 02/M04 A3031 -310 64 -1900 040/03 RMK AO2 T00221039
13976KLFT LFT20190130063010601/30/19 06:30:31  5-MIN KLFT 301230Z 05003KT 10SM CLR 02/M04 A3031 -310 64 -1900 040/03 RMK AO2 T00221039
13976KLFT LFT20190130063510601/30/19 06:35:31  5-MIN KLFT 301235Z 04003KT 10SM CLR 02/M04 A3032 -310 64 -1900 040/03 RMK AO2 T00221039
13976KLFT LFT20190130064010601/30/19 06:40:31  5-MIN KLFT 301240Z 04003KT 10SM CLR 02/M03 A3032 -320 67 -1900 040/03 RMK AO2 T00221033
13976KLFT LFT20190130064510601/30/19 06:45:31  5-MIN KLFT 301245Z 04003KT 10SM CLR 02/M03 A3032 -320 67 -1900 040/03 RMK AO2 T00221033
13976KLFT LFT20190130065011301/30/19 06:50:31  5-MIN KLFT 301250Z 04004KT 10SM CLR 02/M03 A3032 -320 67 -1900 040/04 RMK AO2 SLP267 T00221033
13976KLFT LFT20190130065510601/30/19 06:55:31  5-MIN KLFT 301255Z 04004KT 10SM CLR 02/M03 A3032 -320 67 -1900 040/04 RMK AO2 T00221033
13976KLFT LFT20190130070010601/30/19 07:00:31  5-MIN KLFT 301300Z 04004KT 10SM CLR 02/M03 A3032 -320 69 -1900 040/04 RMK AO2 T00171033
13976KLFT LFT20190130070510601/30/19 07:05:31  5-MIN KLFT 301305Z 04004KT 10SM CLR 02/M03 A3032 -320 69 -1900 040/04 RMK AO2 T00171033
