03949KAQV AQV20191201000011012/01/19 00:00:31  5-MIN KAQV 010600Z AUTO VRB03KT 10SM OVC045 17/10 A2987 420 62 800 VRB/03 RMK AO2 T01720100
03949KAQV AQV20191201000511012/01/19 00:05:31  5-MIN KAQV 010605Z AUTO VRB05KT 10SM OVC045 17/09 A2986 430 57 800 VRB/05 RMK AO2 T01720089
03949KAQV AQV20191201001011012/01/19 00:10:31  5-MIN KAQV 010610Z AUTO VRB03KT 10SM OVC046 17/08 A2987 430 55 800 VRB/03 RMK AO2 T01720083
03949KAQV AQV20191201001510012/01/19 00:15:31  5-MIN KAQV 010615Z AUTO 10SM OVC046 17/08 A2987 430 53 800 M /M RMK AO2 T01720078
03949KAQV AQV20191201002010012/01/19 00:20:31  5-MIN KAQV 010620Z AUTO 10SM OVC046 17/07 A2987 430 49 800 M /M RMK AO2 T01720067
03949KAQV AQV20191201002511012/01/19 00:25:31  5-MIN KAQV 010625Z AUTO VRB06KT 10SM OVC048 17/06 A2986 430 47 800 VRB/06 RMK AO2 T01720061
03949KAQV AQV20191201003011712/01/19 00:30:31  5-MIN KAQV 010630Z AUTO VRB05KT 10SM BKN048 OVC055 17/06 A2987 430 46 800 VRB/05 RMK AO2 T01720056
03949KAQV AQV20191201003511712/01/19 00:35:31  5-MIN KAQV 010635Z AUTO VRB05KT 10SM BKN048 OVC055 17/06 A2987 430 47 800 VRB/05 RMK AO2 T01670056
03949KAQV AQV20191201004011712/01/19 00:40:31  5-MIN KAQV 010640Z AUTO VRB05KT 10SM SCT048 BKN060 17/04 A2986 430 44 800 VRB/05 RMK AO2 T01670044
03949KAQV AQV20191201004511712/01/19 00:45:31  5-MIN KAQV 010645Z AUTO VRB04KT 10SM FEW049 BKN060 17/04 A2986 430 44 800 VRB/04 RMK AO2 T01670044
03949KAQV AQV20191201005011012/01/19 00:50:31  5-MIN KAQV 010650Z AUTO 00000KT 10SM SCT060 17/04 A2986 430 42 800 000/00 RMK AO2 T01670039
03949KAQV AQV20191201005511712/01/19 00:55:31  5-MIN KAQV 010655Z AUTO 00000KT 10SM SCT060 16/04 A2986 430 44 700 000/00 RMK AO2 SLP110 T01610039
03949KAQV AQV20191201010011012/01/19 01:00:31  5-MIN KAQV 010700Z AUTO VRB03KT 10SM SCT065 16/04 A2986 430 45 700 VRB/03 RMK AO2 T01610044
03949KAQV AQV20191201010511012/01/19 01:05:31  5-MIN KAQV 010705Z AUTO 00000KT 10SM BKN065 16/04 A2986 430 45 700 000/00 RMK AO2 T01610044
03949KAQV AQV20191201011011012/01/19 01:10:31  5-MIN KAQV 010710Z AUTO 00000KT 10SM BKN070 16/05 A2986 430 49 600 000/00 RMK AO2 T01560050
03949KAQV AQV20191201011511012/01/19 01:15:31  5-MIN KAQV 010715Z AUTO 00000KT 10SM BKN070 16/05 A2986 430 49 600 000/00 RMK AO2 T01560050
03949KAQV AQV20191201012011012/01/19 01:20:31  5-MIN KAQV 010720Z AUTO 00000KT 10SM OVC070 16/06 A2987 430 53 600 000/00 RMK AO2 T01560061
03949KAQV AQV20191201012511012/01/19 01:25:31  5-MIN KAQV 010725Z AUTO 00000KT 10SM OVC065 15/07 A2987 430 59 600 000/00 RMK AO2 T01500072
03949KAQV AQV20191201013011012/01/19 01:30:31  5-MIN KAQV 010730Z AUTO 00000KT 10SM OVC070 14/09 A2987 430 69 500 000/00 RMK AO2 T01440089
03949KAQV AQV20191201013511012/01/19 01:35:31  5-MIN KAQV 010735Z AUTO VRB03KT 10SM OVC070 16/07 A2987 430 55 600 VRB/03 RMK AO2 T01560067
03949KAQV AQV20191201014011012/01/19 01:40:31  5-MIN KAQV 010740Z AUTO 00000KT 10SM OVC070 16/06 A2987 420 53 600 000/00 RMK AO2 T01560061
03949KAQV AQV20191201014511012/01/19 01:45:31  5-MIN KAQV 010745Z AUTO VRB03KT 10SM OVC070 16/06 A2987 420 53 600 VRB/03 RMK AO2 T01560061
03949KAQV AQV20191201015011012/01/19 01:50:31  5-MIN KAQV 010750Z AUTO VRB03KT 10SM BKN070 17/06 A2987 420 49 800 VRB/03 RMK AO2 T01670061
03949KAQV AQV20191201015511712/01/19 01:55:31  5-MIN KAQV 010755Z AUTO VRB03KT 10SM BKN070 16/06 A2987 420 51 600 VRB/03 RMK AO2 SLP113 T01560056
03949KAQV AQV20191201020011012/01/19 02:00:31  5-MIN KAQV 010800Z AUTO VRB03KT 10SM BKN070 16/05 A2987 420 49 600 VRB/03 RMK AO2 T01560050
03949KAQV AQV20191201020511012/01/19 02:05:31  5-MIN KAQV 010805Z AUTO VRB03KT 10SM BKN070 16/04 A2987 420 47 600 VRB/03 RMK AO2 T01560044
03949KAQV AQV20191201021011012/01/19 02:10:31  5-MIN KAQV 010810Z AUTO 00000KT 10SM SCT075 15/04 A2987 420 49 600 000/00 RMK AO2 T01500044
03949KAQV AQV20191201021511012/01/19 02:15:31  5-MIN KAQV 010815Z AUTO 00000KT 10SM SCT075 15/04 A2987 420 49 600 000/00 RMK AO2 T01500044
03949KAQV AQV20191201022011012/01/19 02:20:31  5-MIN KAQV 010820Z AUTO 00000KT 10SM SCT075 15/05 A2988 410 51 600 000/00 RMK AO2 T01500050
03949KAQV AQV20191201022511012/01/19 02:25:31  5-MIN KAQV 010825Z AUTO 00000KT 10SM SCT075 14/05 A2988 420 53 500 000/00 RMK AO2 T01440050
03949KAQV AQV20191201023011012/01/19 02:30:31  5-MIN KAQV 010830Z AUTO 00000KT 10SM SCT075 14/05 A2988 420 53 500 000/00 RMK AO2 T01440050
03949KAQV AQV20191201023511012/01/19 02:35:31  5-MIN KAQV 010835Z AUTO 00000KT 10SM BKN075 14/06 A2988 420 59 400 000/00 RMK AO2 T01390061
03949KAQV AQV20191201024011012/01/19 02:40:31  5-MIN KAQV 010840Z AUTO 00000KT 10SM BKN080 13/06 A2988 410 61 400 000/00 RMK AO2 T01330061
03949KAQV AQV20191201024511012/01/19 02:45:31  5-MIN KAQV 010845Z AUTO 00000KT 10SM SCT080 13/06 A2988 410 63 300 000/00 RMK AO2 T01280061
03949KAQV AQV20191201025011012/01/19 02:50:31  5-MIN KAQV 010850Z AUTO 00000KT 10SM SCT075 13/06 A2988 410 59 400 000/00 RMK AO2 T01330056
03949KAQV AQV20191201025512312/01/19 02:55:31  5-MIN KAQV 010855Z AUTO 00000KT 10SM SCT075 13/06 A2988 410 59 400 000/00 RMK AO2 SLP117 T01330056 51025
03949KAQV AQV20191201030011012/01/19 03:00:31  5-MIN KAQV 010900Z AUTO 00000KT 10SM FEW080 13/05 A2988 410 57 300 000/00 RMK AO2 T01330050
03949KAQV AQV20191201030511012/01/19 03:05:31  5-MIN KAQV 010905Z AUTO VRB03KT 10SM FEW075 14/04 A2988 410 50 400 VRB/03 RMK AO2 T01390039
03949KAQV AQV20191201031011012/01/19 03:10:31  5-MIN KAQV 010910Z AUTO 00000KT 10SM FEW075 13/04 A2988 410 54 400 000/00 RMK AO2 T01330044
03949KAQV AQV20191201031511012/01/19 03:15:31  5-MIN KAQV 010915Z AUTO 00000KT 10SM FEW075 13/04 A2988 410 56 300 000/00 RMK AO2 T01280044
03949KAQV AQV20191201032010712/01/19 03:20:31  5-MIN KAQV 010920Z AUTO 00000KT 10SM CLR 12/05 A2988 410 61 200 000/00 RMK AO2 T01220050
03949KAQV AQV20191201032510712/01/19 03:25:31  5-MIN KAQV 010925Z AUTO 00000KT 10SM CLR 12/06 A2989 410 66 100 000/00 RMK AO2 T01170056
03949KAQV AQV20191201033010712/01/19 03:30:31  5-MIN KAQV 010930Z AUTO 00000KT 10SM CLR 12/06 A2988 410 66 100 000/00 RMK AO2 T01170056
03949KAQV AQV20191201033510712/01/19 03:35:31  5-MIN KAQV 010935Z AUTO 00000KT 10SM CLR 11/06 A2989 410 71 100 000/00 RMK AO2 T01110061
03949KAQV AQV20191201034010512/01/19 03:40:31  5-MIN KAQV 010940Z AUTO 00000KT 10SM CLR 11/07 A2989 410 77 0 000/00 RMK AO2 T01060067
03949KAQV AQV20191201034510512/01/19 03:45:31  5-MIN KAQV 010945Z AUTO 00000KT 10SM CLR 11/07 A2989 400 77 0 000/00 RMK AO2 T01060067
03949KAQV AQV20191201035010712/01/19 03:50:31  5-MIN KAQV 010950Z AUTO 00000KT 10SM CLR 11/06 A2989 400 68 100 000/00 RMK AO2 T01110056
03949KAQV AQV20191201035511412/01/19 03:55:31  5-MIN KAQV 010955Z AUTO 00000KT 10SM CLR 12/04 A2989 400 61 100 000/00 RMK AO2 SLP120 T01170044
03949KAQV AQV20191201040010712/01/19 04:00:31  5-MIN KAQV 011000Z AUTO VRB03KT 10SM CLR 12/04 A2989 410 61 100 VRB/03 RMK AO2 T01170044
03949KAQV AQV20191201040510712/01/19 04:05:31  5-MIN KAQV 011005Z AUTO VRB03KT 10SM CLR 12/04 A2989 400 58 100 VRB/03 RMK AO2 T01170039
03949KAQV AQV20191201041010712/01/19 04:10:31  5-MIN KAQV 011010Z AUTO 00000KT 10SM CLR 12/03 A2989 400 54 200 000/00 RMK AO2 T01220033
03949KAQV AQV20191201041510712/01/19 04:15:31  5-MIN KAQV 011015Z AUTO 00000KT 10SM CLR 12/03 A2989 400 52 200 000/00 RMK AO2 T01220028
03949KAQV AQV20191201042010712/01/19 04:20:31  5-MIN KAQV 011020Z AUTO 00000KT 10SM CLR 12/03 A2990 400 54 200 000/00 RMK AO2 T01220033
03949KAQV AQV20191201042510712/01/19 04:25:31  5-MIN KAQV 011025Z AUTO 00000KT 10SM CLR 12/03 A2990 400 56 100 000/00 RMK AO2 T01170033
03949KAQV AQV20191201043010512/01/19 04:30:31  5-MIN KAQV 011030Z AUTO 00000KT 10SM CLR 11/04 A2990 390 63 0 000/00 RMK AO2 T01060039
03949KAQV AQV20191201043510512/01/19 04:35:31  5-MIN KAQV 011035Z AUTO 00000KT 10SM CLR 11/04 A2990 390 63 0 000/00 RMK AO2 T01060039
03949KAQV AQV20191201044010512/01/19 04:40:31  5-MIN KAQV 011040Z AUTO 00000KT 10SM CLR 10/04 A2990 400 68 0 000/00 RMK AO2 T01000044
03949KAQV AQV20191201044510512/01/19 04:45:31  5-MIN KAQV 011045Z AUTO 00000KT 10SM CLR 10/04 A2990 390 68 0 000/00 RMK AO2 T01000044
03949KAQV AQV20191201045010512/01/19 04:50:31  5-MIN KAQV 011050Z AUTO VRB03KT 10SM CLR 10/04 A2990 390 68 0 VRB/03 RMK AO2 T01000044
03949KAQV AQV20191201045511412/01/19 04:55:31  5-MIN KAQV 011055Z AUTO VRB03KT 10SM CLR 11/03 A2991 390 58 100 VRB/03 RMK AO2 SLP125 T01110033
03949KAQV AQV20191201050010712/01/19 05:00:31  5-MIN KAQV 011100Z AUTO VRB03KT 10SM CLR 11/03 A2991 390 56 100 VRB/03 RMK AO2 T01110028
03949KAQV AQV20191201050510712/01/19 05:05:31  5-MIN KAQV 011105Z AUTO 00000KT 10SM CLR 12/02 A2991 390 52 100 000/00 RMK AO2 T01170022
03949KAQV AQV20191201051010712/01/19 05:10:31  5-MIN KAQV 011110Z AUTO VRB03KT 10SM CLR 12/02 A2991 390 50 100 VRB/03 RMK AO2 T01170017
03949KAQV AQV20191201051510712/01/19 05:15:31  5-MIN KAQV 011115Z AUTO VRB03KT 10SM CLR 12/01 A2991 380 48 100 VRB/03 RMK AO2 T01170011
03949KAQV AQV20191201052009712/01/19 05:20:31  5-MIN KAQV 011120Z AUTO 10SM CLR 12/01 A2991 380 46 100 M /M RMK AO2 T01170006
03949KAQV AQV20191201052510712/01/19 05:25:31  5-MIN KAQV 011125Z AUTO VRB03KT 10SM CLR 12/01 A2991 380 44 200 VRB/03 RMK AO2 T01220006
03949KAQV AQV20191201053009712/01/19 05:30:31  5-MIN KAQV 011130Z AUTO 10SM CLR 12/01 A2992 380 46 100 M /M RMK AO2 T01170006
03949KAQV AQV20191201053509712/01/19 05:35:31  5-MIN KAQV 011135Z AUTO 10SM CLR 12/00 A2992 380 44 100 M /M RMK AO2 T01170000
03949KAQV AQV20191201054009712/01/19 05:40:31  5-MIN KAQV 011140Z AUTO 10SM CLR 12/00 A2993 370 44 100 M /M RMK AO2 T01170000
03949KAQV AQV20191201054510712/01/19 05:45:31  5-MIN KAQV 011145Z AUTO 00000KT 10SM CLR 12/00 A2993 370 44 100 000/00 RMK AO2 T01170000
03949KAQV AQV20191201055010712/01/19 05:50:31  5-MIN KAQV 011150Z AUTO 00000KT 10SM CLR 12/00 A2993 370 44 100 000/00 RMK AO2 T01170000
03949KAQV AQV20191201055513612/01/19 05:55:31  5-MIN KAQV 011155Z AUTO VRB03KT 10SM CLR 11/00 A2993 360 46 0 VRB/03 RMK AO2 SLP135 70022 T01110000 10172 20100 53005
03949KAQV AQV20191201060010512/01/19 06:00:31  5-MIN KAQV 011200Z AUTO VRB03KT 10SM CLR 11/00 A2994 360 46 0 VRB/03 RMK AO2 T01110000
03949KAQV AQV20191201060510512/01/19 06:05:31  5-MIN KAQV 011205Z AUTO VRB03KT 10SM CLR 11/00 A2994 360 46 0 VRB/03 RMK AO2 T01110000
03949KAQV AQV20191201061010512/01/19 06:10:31  5-MIN KAQV 011210Z AUTO VRB03KT 10SM CLR 11/00 A2994 350 46 0 VRB/03 RMK AO2 T01110000
03949KAQV AQV20191201061510512/01/19 06:15:31  5-MIN KAQV 011215Z AUTO 00000KT 10SM CLR 11/00 A2995 350 46 0 000/00 RMK AO2 T01110000
03949KAQV AQV20191201062010612/01/19 06:20:31  5-MIN KAQV 011220Z AUTO 00000KT 10SM CLR 11/M01 A2995 350 44 0 000/00 RMK AO2 T01111006
03949KAQV AQV20191201062510612/01/19 06:25:31  5-MIN KAQV 011225Z AUTO 00000KT 10SM CLR 11/M01 A2995 350 44 0 000/00 RMK AO2 T01111006
03949KAQV AQV20191201063010612/01/19 06:30:31  5-MIN KAQV 011230Z AUTO 00000KT 10SM CLR 11/M01 A2995 350 44 0 000/00 RMK AO2 T01111006
03949KAQV AQV20191201063510512/01/19 06:35:31  5-MIN KAQV 011235Z AUTO 00000KT 10SM CLR 11/00 A2996 340 48 0 000/00 RMK AO2 T01060000
03949KAQV AQV20191201064010512/01/19 06:40:31  5-MIN KAQV 011240Z AUTO 00000KT 10SM CLR 11/00 A2996 340 48 0 000/00 RMK AO2 T01060000
03949KAQV AQV20191201064510812/01/19 06:45:31  5-MIN KAQV 011245Z AUTO 00000KT 10SM CLR 10/00 A2996 340 49 -100 000/00 RMK AO2 T01000000
03949KAQV AQV20191201065010812/01/19 06:50:31  5-MIN KAQV 011250Z AUTO 00000KT 10SM CLR 10/00 A2996 340 49 -100 000/00 RMK AO2 T01000000
03949KAQV AQV20191201065511512/01/19 06:55:31  5-MIN KAQV 011255Z AUTO 00000KT 10SM CLR 09/01 A2996 340 56 -200 000/00 RMK AO2 SLP144 T00890006
03949KAQV AQV20191201070010812/01/19 07:00:31  5-MIN KAQV 011300Z AUTO 00000KT 10SM CLR 09/02 A2996 340 60 -200 000/00 RMK AO2 T00890017
03949KAQV AQV20191201070510812/01/19 07:05:31  5-MIN KAQV 011305Z AUTO 00000KT 10SM CLR 09/02 A2996 340 60 -200 000/00 RMK AO2 T00890017
03949KAQV AQV20191201071010812/01/19 07:10:31  5-MIN KAQV 011310Z AUTO 00000KT 10SM CLR 09/01 A2996 340 58 -200 000/00 RMK AO2 T00890011
03949KAQV AQV20191201071510812/01/19 07:15:31  5-MIN KAQV 011315Z AUTO 00000KT 10SM CLR 09/01 A2996 340 58 -200 000/00 RMK AO2 T00890011
03949KAQV AQV20191201072010812/01/19 07:20:31  5-MIN KAQV 011320Z AUTO 00000KT 10SM CLR 08/02 A2997 330 63 -300 000/00 RMK AO2 T00830017
03949KAQV AQV20191201072510812/01/19 07:25:31  5-MIN KAQV 011325Z AUTO VRB03KT 10SM CLR 08/02 A2997 330 65 -300 VRB/03 RMK AO2 T00830022
03949KAQV AQV20191201073010812/01/19 07:30:31  5-MIN KAQV 011330Z AUTO 00000KT 10SM CLR 09/02 A2998 320 63 -200 000/00 RMK AO2 T00890022
03949KAQV AQV20191201073510812/01/19 07:35:31  5-MIN KAQV 011335Z AUTO VRB03KT 10SM CLR 09/01 A2998 320 56 -200 VRB/03 RMK AO2 T00940011
03949KAQV AQV20191201074010812/01/19 07:40:31  5-MIN KAQV 011340Z AUTO 00000KT 10SM CLR 09/01 A2998 320 56 -200 000/00 RMK AO2 T00940011
03949KAQV AQV20191201074510812/01/19 07:45:31  5-MIN KAQV 011345Z AUTO VRB03KT 10SM CLR 10/01 A2999 310 54 -100 VRB/03 RMK AO2 T01000011
03949KAQV AQV20191201075010812/01/19 07:50:31  5-MIN KAQV 011350Z AUTO 00000KT 10SM CLR 10/01 A2999 310 52 -100 000/00 RMK AO2 T01000006
03949KAQV AQV20191201075510512/01/19 07:55:31  5-MIN KAQV 011355Z AUTO 10SM CLR 11/01 A3000 310 50 -100 M /M RMK AO2 SLP157 T01060006
03949KAQV AQV20191201080009812/01/19 08:00:31  5-MIN KAQV 011400Z AUTO 10SM CLR 11/01 A3000 310 50 -100 M /M RMK AO2 T01060006
03949KAQV AQV20191201080510812/01/19 08:05:31  5-MIN KAQV 011405Z AUTO VRB03KT 10SM CLR 11/01 A3000 300 50 -100 VRB/03 RMK AO2 T01060006
03949KAQV AQV20191201081010812/01/19 08:10:31  5-MIN KAQV 011410Z AUTO VRB03KT 10SM CLR 11/01 A3000 310 50 -100 VRB/03 RMK AO2 T01060006
03949KAQV AQV20191201081510512/01/19 08:15:31  5-MIN KAQV 011415Z AUTO 00000KT 10SM CLR 11/01 A3000 300 48 0 000/00 RMK AO2 T01110006
03949KAQV AQV20191201082010512/01/19 08:20:31  5-MIN KAQV 011420Z AUTO VRB03KT 10SM CLR 12/01 A3000 300 46 0 VRB/03 RMK AO2 T01170006
03949KAQV AQV20191201082510512/01/19 08:25:31  5-MIN KAQV 011425Z AUTO 00000KT 10SM CLR 11/01 A3001 300 48 0 000/00 RMK AO2 T01110006
03949KAQV AQV20191201083010512/01/19 08:30:31  5-MIN KAQV 011430Z AUTO VRB05KT 10SM CLR 12/01 A3001 300 46 0 VRB/05 RMK AO2 T01170006
03949KAQV AQV20191201083510512/01/19 08:35:31  5-MIN KAQV 011435Z AUTO VRB03KT 10SM CLR 12/01 A3001 290 46 0 VRB/03 RMK AO2 T01170006
03949KAQV AQV20191201084010512/01/19 08:40:31  5-MIN KAQV 011440Z AUTO 00000KT 10SM CLR 12/01 A3001 290 46 0 000/00 RMK AO2 T01170006
03949KAQV AQV20191201084510712/01/19 08:45:31  5-MIN KAQV 011445Z AUTO VRB04KT 10SM CLR 12/01 A3001 290 44 100 VRB/04 RMK AO2 T01220006
03949KAQV AQV20191201085010512/01/19 08:50:31  5-MIN KAQV 011450Z AUTO VRB03KT 10SM CLR 12/01 A3001 290 46 0 VRB/03 RMK AO2 T01170006
03949KAQV AQV20191201085511012/01/19 08:55:31  5-MIN KAQV 011455Z AUTO 10SM CLR 12/01 A3001 290 44 100 M /M RMK AO2 SLP163 T01220006 53017
03949KAQV AQV20191201090010712/01/19 09:00:31  5-MIN KAQV 011500Z AUTO VRB03KT 10SM CLR 12/01 A3001 290 44 100 VRB/03 RMK AO2 T01220006
03949KAQV AQV20191201090509712/01/19 09:05:31  5-MIN KAQV 011505Z AUTO 10SM CLR 13/00 A3002 290 41 100 M /M RMK AO2 T01280000
03949KAQV AQV20191201091010712/01/19 09:10:31  5-MIN KAQV 011510Z AUTO VRB04KT 10SM CLR 13/01 A3002 290 43 100 VRB/04 RMK AO2 T01280006
03949KAQV AQV20191201091510712/01/19 09:15:31  5-MIN KAQV 011515Z AUTO VRB04KT 10SM CLR 13/01 A3002 290 41 200 VRB/04 RMK AO2 T01330006
03949KAQV AQV20191201092010712/01/19 09:20:31  5-MIN KAQV 011520Z AUTO VRB04KT 10SM CLR 13/00 A3002 280 40 200 VRB/04 RMK AO2 T01330000
03949KAQV AQV20191201092510712/01/19 09:25:31  5-MIN KAQV 011525Z AUTO VRB05KT 10SM CLR 13/01 A3002 280 41 200 VRB/05 RMK AO2 T01330006
03949KAQV AQV20191201093010712/01/19 09:30:31  5-MIN KAQV 011530Z AUTO VRB05KT 10SM CLR 13/00 A3002 280 40 200 VRB/05 RMK AO2 T01330000
03949KAQV AQV20191201093510712/01/19 09:35:31  5-MIN KAQV 011535Z AUTO VRB04KT 10SM CLR 13/00 A3002 280 40 200 VRB/04 RMK AO2 T01330000
03949KAQV AQV20191201094010712/01/19 09:40:31  5-MIN KAQV 011540Z AUTO VRB03KT 10SM CLR 13/00 A3002 280 40 200 VRB/03 RMK AO2 T01330000
03949KAQV AQV20191201094509712/01/19 09:45:31  5-MIN KAQV 011545Z AUTO 10SM CLR 14/01 A3002 280 40 300 M /M RMK AO2 T01390006
03949KAQV AQV20191201095010712/01/19 09:50:31  5-MIN KAQV 011550Z AUTO VRB05KT 10SM CLR 14/00 A3002 290 38 300 VRB/05 RMK AO2 T01390000
03949KAQV AQV20191201095511412/01/19 09:55:31  5-MIN KAQV 011555Z AUTO VRB06KT 10SM CLR 14/00 A3002 280 38 300 VRB/06 RMK AO2 SLP165 T01390000
03949KAQV AQV20191201100010812/01/19 10:00:31  5-MIN KAQV 011600Z AUTO VRB05KT 10SM CLR 14/M01 A3002 290 37 300 VRB/05 RMK AO2 T01391006
03949KAQV AQV20191201100510812/01/19 10:05:31  5-MIN KAQV 011605Z AUTO VRB06KT 10SM CLR 14/M01 A3002 290 35 300 VRB/06 RMK AO2 T01391011
03949KAQV AQV20191201101012412/01/19 10:10:31  5-MIN KAQV 011610Z AUTO 32007KT 270V020 10SM CLR 14/M02 A3002 290 34 300 320/07 270V020 RMK AO2 T01391017
03949KAQV AQV20191201101510812/01/19 10:15:31  5-MIN KAQV 011615Z AUTO VRB04KT 10SM CLR 14/M01 A3002 290 35 300 VRB/04 RMK AO2 T01391011
03949KAQV AQV20191201102010812/01/19 10:20:31  5-MIN KAQV 011620Z AUTO VRB03KT 10SM CLR 14/M01 A3002 290 35 300 VRB/03 RMK AO2 T01441006
03949KAQV AQV20191201102510812/01/19 10:25:31  5-MIN KAQV 011625Z AUTO 30005KT 10SM CLR 14/M01 A3002 290 35 300 300/05 RMK AO2 T01441006
03949KAQV AQV20191201103012412/01/19 10:30:31  5-MIN KAQV 011630Z AUTO 28007KT 240V330 10SM CLR 14/M01 A3002 280 37 300 270/07 240V330 RMK AO2 T01391006
03949KAQV AQV20191201103510812/01/19 10:35:31  5-MIN KAQV 011635Z AUTO VRB04KT 10SM CLR 14/M01 A3002 290 34 300 VRB/04 RMK AO2 T01441011
03949KAQV AQV20191201104010812/01/19 10:40:31  5-MIN KAQV 011640Z AUTO VRB03KT 10SM CLR 14/M01 A3002 290 34 300 VRB/03 RMK AO2 T01441011
03949KAQV AQV20191201104509812/01/19 10:45:31  5-MIN KAQV 011645Z AUTO 10SM CLR 14/M01 A3002 290 35 300 M /M RMK AO2 T01441006
03949KAQV AQV20191201105010812/01/19 10:50:31  5-MIN KAQV 011650Z AUTO VRB06KT 10SM CLR 14/M02 A3002 290 33 300 VRB/06 RMK AO2 T01441017
03949KAQV AQV20191201105510512/01/19 10:55:31  5-MIN KAQV 011655Z AUTO 10SM CLR 15/M02 A3002 290 31 400 M /M RMK AO2 SLP163 T01501017
03949KAQV AQV20191201110010812/01/19 11:00:31  5-MIN KAQV 011700Z AUTO VRB03KT 10SM CLR 14/M02 A3001 290 31 300 VRB/03 RMK AO2 T01441022
03949KAQV AQV20191201110509812/01/19 11:05:31  5-MIN KAQV 011705Z AUTO 10SM CLR 15/M02 A3001 290 30 400 M /M RMK AO2 T01501022
03949KAQV AQV20191201111010812/01/19 11:10:31  5-MIN KAQV 011710Z AUTO VRB05KT 10SM CLR 14/M02 A3001 300 33 300 VRB/05 RMK AO2 T01441017
03949KAQV AQV20191201111510812/01/19 11:15:31  5-MIN KAQV 011715Z AUTO VRB05KT 10SM CLR 15/M02 A3001 300 30 400 VRB/05 RMK AO2 T01501022
03949KAQV AQV20191201112012412/01/19 11:20:31  5-MIN KAQV 011720Z AUTO 27007KT 220V300 10SM CLR 16/M01 A3001 300 31 500 260/07 220V300 RMK AO2 T01561011
03949KAQV AQV20191201112510812/01/19 11:25:31  5-MIN KAQV 011725Z AUTO VRB04KT 10SM CLR 16/M01 A3000 300 31 500 VRB/04 RMK AO2 T01561011
03949KAQV AQV20191201113010812/01/19 11:30:31  5-MIN KAQV 011730Z AUTO VRB05KT 10SM CLR 16/M01 A3000 300 31 500 VRB/05 RMK AO2 T01561011
03949KAQV AQV20191201113510812/01/19 11:35:31  5-MIN KAQV 011735Z AUTO VRB06KT 10SM CLR 16/M01 A3000 300 31 500 VRB/06 RMK AO2 T01561011
03949KAQV AQV20191201114010812/01/19 11:40:31  5-MIN KAQV 011740Z AUTO VRB04KT 10SM CLR 16/M02 A3000 300 30 500 VRB/04 RMK AO2 T01561017
03949KAQV AQV20191201114509812/01/19 11:45:31  5-MIN KAQV 011745Z AUTO 10SM CLR 16/M02 A3000 300 29 500 M /M RMK AO2 T01611017
03949KAQV AQV20191201115010812/01/19 11:50:31  5-MIN KAQV 011750Z AUTO 30005KT 10SM CLR 16/M01 A3000 300 32 500 290/05 RMK AO2 T01611006
03949KAQV AQV20191201115513312/01/19 11:55:31  5-MIN KAQV 011755Z AUTO VRB04KT 10SM CLR 16/M01 A3000 310 30 500 VRB/04 RMK AO2 SLP157 T01611011 10161 20083 51026
03949KAQV AQV20191201120010812/01/19 12:00:31  5-MIN KAQV 011800Z AUTO 27007KT 10SM CLR 16/M01 A3000 310 30 500 260/07 RMK AO2 T01611011
03949KAQV AQV20191201120512412/01/19 12:05:31  5-MIN KAQV 011805Z AUTO 27007KT 200V300 10SM CLR 16/M01 A2999 310 30 600 270/07 200V300 RMK AO2 T01611011
03949KAQV AQV20191201121009812/01/19 12:10:31  5-MIN KAQV 011810Z AUTO 10SM CLR 16/M01 A2999 310 30 600 M /M RMK AO2 T01611011
03949KAQV AQV20191201121510812/01/19 12:15:31  5-MIN KAQV 011815Z AUTO VRB06KT 10SM CLR 16/M02 A2999 310 29 600 VRB/06 RMK AO2 T01611017
03949KAQV AQV20191201122009812/01/19 12:20:31  5-MIN KAQV 011820Z AUTO 10SM CLR 17/M01 A2999 310 31 600 M /M RMK AO2 T01671006
03949KAQV AQV20191201122511412/01/19 12:25:31  5-MIN KAQV 011825Z AUTO 30009G19KT 10SM CLR 16/M01 A2999 310 30 600 300/09G19 RMK AO2 T01611011
03949KAQV AQV20191201123013012/01/19 12:30:31  5-MIN KAQV 011830Z AUTO 30007G19KT 190V360 10SM CLR 16/M02 A2998 320 30 500 290/07G19 190V360 RMK AO2 T01561017
03949KAQV AQV20191201123509812/01/19 12:35:31  5-MIN KAQV 011835Z AUTO 10SM CLR 16/M01 A2998 320 30 600 M /M RMK AO2 T01611011
03949KAQV AQV20191201124010812/01/19 12:40:31  5-MIN KAQV 011840Z AUTO VRB06KT 10SM CLR 17/M02 A2998 320 28 600 VRB/06 RMK AO2 T01671017
03949KAQV AQV20191201124510812/01/19 12:45:31  5-MIN KAQV 011845Z AUTO VRB06KT 10SM CLR 16/M02 A2998 320 29 600 VRB/06 RMK AO2 T01611017
03949KAQV AQV20191201125010812/01/19 12:50:31  5-MIN KAQV 011850Z AUTO VRB05KT 10SM CLR 16/M02 A2998 320 29 600 VRB/05 RMK AO2 T01611017
03949KAQV AQV20191201125513112/01/19 12:55:31  5-MIN KAQV 011855Z AUTO 26007KT 220V300 10SM CLR 17/M01 A2998 320 29 700 250/07 220V300 RMK AO2 SLP151 T01721006
03949KAQV AQV20191201130012412/01/19 13:00:31  5-MIN KAQV 011900Z AUTO 26008KT 230V300 10SM CLR 16/M01 A2998 320 30 600 260/08 230V300 RMK AO2 T01611011
03949KAQV AQV20191201130512412/01/19 13:05:31  5-MIN KAQV 011905Z AUTO 27007KT 220V310 10SM CLR 16/M01 A2998 320 30 600 270/07 220V310 RMK AO2 T01611011
03949KAQV AQV20191201131013012/01/19 13:10:31  5-MIN KAQV 011910Z AUTO 31007G22KT 250V360 10SM CLR 16/M01 A2998 320 30 600 310/07G22 250V360 RMK AO2 T01611011
03949KAQV AQV20191201131511412/01/19 13:15:31  5-MIN KAQV 011915Z AUTO 27009G22KT 10SM CLR 16/M01 A2999 320 30 600 270/09G22 RMK AO2 T01611011
03949KAQV AQV20191201132013012/01/19 13:20:31  5-MIN KAQV 011920Z AUTO 26007G17KT 210V310 10SM CLR 17/M01 A2998 320 31 600 250/07G17 210V310 RMK AO2 T01671006
03949KAQV AQV20191201132512412/01/19 13:25:31  5-MIN KAQV 011925Z AUTO 27007KT 240V310 10SM CLR 16/M01 A2999 320 32 600 270/07 240V310 RMK AO2 T01611006
03949KAQV AQV20191201133012412/01/19 13:30:31  5-MIN KAQV 011930Z AUTO 26008KT 230V300 10SM CLR 16/M02 A2999 320 29 600 260/08 230V300 RMK AO2 T01611017
03949KAQV AQV20191201133511412/01/19 13:35:31  5-MIN KAQV 011935Z AUTO VRB06G15KT 10SM CLR 16/M02 A2998 320 28 600 VRB/06G15 RMK AO2 T01611022
03949KAQV AQV20191201134011412/01/19 13:40:31  5-MIN KAQV 011940Z AUTO VRB06G15KT 10SM CLR 16/M02 A2998 320 28 600 VRB/06G15 RMK AO2 T01611022
03949KAQV AQV20191201134512412/01/19 13:45:31  5-MIN KAQV 011945Z AUTO 26008KT 220V310 10SM CLR 17/M02 A2998 320 28 600 260/08 220V310 RMK AO2 T01671017
03949KAQV AQV20191201135011412/01/19 13:50:31  5-MIN KAQV 011950Z AUTO VRB05G17KT 10SM CLR 16/M02 A2998 320 29 600 VRB/05G17 RMK AO2 T01611017
03949KAQV AQV20191201135512112/01/19 13:55:31  5-MIN KAQV 011955Z AUTO VRB06G14KT 10SM CLR 16/M02 A2998 320 29 600 VRB/06G14 RMK AO2 SLP151 T01611017
03949KAQV AQV20191201140010812/01/19 14:00:31  5-MIN KAQV 012000Z AUTO VRB05KT 10SM CLR 16/M02 A2998 320 29 600 VRB/05 RMK AO2 T01611017
03949KAQV AQV20191201140510812/01/19 14:05:31  5-MIN KAQV 012005Z AUTO VRB03KT 10SM CLR 17/M01 A2998 320 29 600 VRB/03 RMK AO2 T01671011
03949KAQV AQV20191201141010812/01/19 14:10:31  5-MIN KAQV 012010Z AUTO VRB05KT 10SM CLR 17/M01 A2998 320 29 600 VRB/05 RMK AO2 T01671011
03949KAQV AQV20191201141509812/01/19 14:15:31  5-MIN KAQV 012015Z AUTO 10SM CLR 17/M01 A2998 320 29 600 M /M RMK AO2 T01671011
03949KAQV AQV20191201142010812/01/19 14:20:31  5-MIN KAQV 012020Z AUTO VRB06KT 10SM CLR 16/M02 A2998 320 28 600 VRB/06 RMK AO2 T01611022
03949KAQV AQV20191201142509812/01/19 14:25:31  5-MIN KAQV 012025Z AUTO 10SM CLR 16/M03 A2998 320 27 600 M /M RMK AO2 T01611028
03949KAQV AQV20191201143013012/01/19 14:30:31  5-MIN KAQV 012030Z AUTO 29007G14KT 250V330 10SM CLR 16/M03 A2998 320 27 600 290/07G14 250V330 RMK AO2 T01611028
03949KAQV AQV20191201143509812/01/19 14:35:31  5-MIN KAQV 012035Z AUTO 10SM CLR 16/M03 A2998 320 27 600 M /M RMK AO2 T01611028
03949KAQV AQV20191201144010812/01/19 14:40:31  5-MIN KAQV 012040Z AUTO VRB04KT 10SM CLR 16/M03 A2998 320 27 600 VRB/04 RMK AO2 T01611028
03949KAQV AQV20191201144510812/01/19 14:45:31  5-MIN KAQV 012045Z AUTO 29004KT 10SM CLR 17/M02 A2998 320 28 600 280/04 RMK AO2 T01671017
03949KAQV AQV20191201145009812/01/19 14:50:31  5-MIN KAQV 012050Z AUTO 10SM CLR 17/M01 A2998 320 29 600 M /M RMK AO2 T01671011
03949KAQV AQV20191201145511112/01/19 14:55:31  5-MIN KAQV 012055Z AUTO 10SM CLR 16/M01 A2999 320 30 600 M /M RMK AO2 SLP153 T01611011 58006
03949KAQV AQV20191201150010812/01/19 15:00:31  5-MIN KAQV 012100Z AUTO VRB06KT 10SM CLR 16/M02 A2999 320 30 500 VRB/06 RMK AO2 T01561017
03949KAQV AQV20191201150512412/01/19 15:05:31  5-MIN KAQV 012105Z AUTO 27007KT 240V310 10SM CLR 16/M01 A2999 320 31 500 270/07 240V310 RMK AO2 T01561011
03949KAQV AQV20191201151009812/01/19 15:10:31  5-MIN KAQV 012110Z AUTO 10SM CLR 16/M01 A2999 310 30 600 M /M RMK AO2 T01611011
03949KAQV AQV20191201151512412/01/19 15:15:31  5-MIN KAQV 012115Z AUTO 28007KT 250V320 10SM CLR 16/M01 A2999 310 30 600 270/07 250V320 RMK AO2 T01611011
03949KAQV AQV20191201152012412/01/19 15:20:31  5-MIN KAQV 012120Z AUTO 28007KT 250V340 10SM CLR 16/M01 A2999 310 31 500 280/07 250V340 RMK AO2 T01561011
03949KAQV AQV20191201152512412/01/19 15:25:31  5-MIN KAQV 012125Z AUTO 29007KT 250V360 10SM CLR 16/M02 A2999 310 30 500 280/07 250V360 RMK AO2 T01561017
03949KAQV AQV20191201153010812/01/19 15:30:31  5-MIN KAQV 012130Z AUTO VRB05KT 10SM CLR 16/M01 A2999 310 31 500 VRB/05 RMK AO2 T01561011
03949KAQV AQV20191201153510812/01/19 15:35:31  5-MIN KAQV 012135Z AUTO VRB05KT 10SM CLR 16/M01 A3000 310 31 500 VRB/05 RMK AO2 T01561011
03949KAQV AQV20191201154010812/01/19 15:40:31  5-MIN KAQV 012140Z AUTO VRB05KT 10SM CLR 16/M02 A3000 300 30 500 VRB/05 RMK AO2 T01561017
03949KAQV AQV20191201154509812/01/19 15:45:31  5-MIN KAQV 012145Z AUTO 10SM CLR 16/M01 A3000 300 31 500 M /M RMK AO2 T01561011
03949KAQV AQV20191201155010812/01/19 15:50:31  5-MIN KAQV 012150Z AUTO VRB03KT 10SM CLR 16/M01 A3000 300 31 500 VRB/03 RMK AO2 T01561011
03949KAQV AQV20191201155511512/01/19 15:55:31  5-MIN KAQV 012155Z AUTO 27006KT 10SM CLR 16/M01 A3000 300 31 500 270/06 RMK AO2 SLP158 T01561011
03949KAQV AQV20191201160010812/01/19 16:00:31  5-MIN KAQV 012200Z AUTO VRB05KT 10SM CLR 15/M01 A3000 300 33 400 VRB/05 RMK AO2 T01501011
03949KAQV AQV20191201160510812/01/19 16:05:31  5-MIN KAQV 012205Z AUTO VRB05KT 10SM CLR 15/M01 A3000 300 33 400 VRB/05 RMK AO2 T01501011
03949KAQV AQV20191201161010812/01/19 16:10:31  5-MIN KAQV 012210Z AUTO VRB03KT 10SM CLR 14/M01 A3000 300 34 300 VRB/03 RMK AO2 T01441011
03949KAQV AQV20191201161510812/01/19 16:15:31  5-MIN KAQV 012215Z AUTO VRB03KT 10SM CLR 14/M01 A3000 300 34 300 VRB/03 RMK AO2 T01441011
03949KAQV AQV20191201162009812/01/19 16:20:31  5-MIN KAQV 012220Z AUTO 10SM CLR 14/M01 A3000 300 34 300 M /M RMK AO2 T01441011
03949KAQV AQV20191201162510812/01/19 16:25:31  5-MIN KAQV 012225Z AUTO VRB06KT 10SM CLR 14/M02 A3001 300 33 300 VRB/06 RMK AO2 T01441017
03949KAQV AQV20191201163010812/01/19 16:30:31  5-MIN KAQV 012230Z AUTO VRB05KT 10SM CLR 14/M02 A3001 300 34 300 VRB/05 RMK AO2 T01391017
03949KAQV AQV20191201163510812/01/19 16:35:31  5-MIN KAQV 012235Z AUTO VRB05KT 10SM CLR 14/M02 A3001 300 34 300 VRB/05 RMK AO2 T01391017
03949KAQV AQV20191201164010812/01/19 16:40:31  5-MIN KAQV 012240Z AUTO VRB03KT 10SM CLR 14/M02 A3001 300 34 300 VRB/03 RMK AO2 T01391017
03949KAQV AQV20191201164510812/01/19 16:45:31  5-MIN KAQV 012245Z AUTO 00000KT 10SM CLR 13/M02 A3001 300 35 200 000/00 RMK AO2 T01331017
03949KAQV AQV20191201165009812/01/19 16:50:31  5-MIN KAQV 012250Z AUTO 10SM CLR 13/M02 A3001 290 35 200 M /M RMK AO2 T01331017
03949KAQV AQV20191201165511512/01/19 16:55:31  5-MIN KAQV 012255Z AUTO VRB04KT 10SM CLR 13/M02 A3001 290 35 200 VRB/04 RMK AO2 SLP163 T01331017
03949KAQV AQV20191201170010812/01/19 17:00:31  5-MIN KAQV 012300Z AUTO VRB03KT 10SM CLR 13/M02 A3001 290 36 100 VRB/03 RMK AO2 T01281017
03949KAQV AQV20191201170510812/01/19 17:05:31  5-MIN KAQV 012305Z AUTO 00000KT 10SM CLR 13/M01 A3001 290 38 100 000/00 RMK AO2 T01281011
03949KAQV AQV20191201171010812/01/19 17:10:31  5-MIN KAQV 012310Z AUTO VRB03KT 10SM CLR 13/M01 A3001 290 38 100 VRB/03 RMK AO2 T01281011
03949KAQV AQV20191201171510812/01/19 17:15:31  5-MIN KAQV 012315Z AUTO VRB03KT 10SM CLR 13/M01 A3001 290 38 100 VRB/03 RMK AO2 T01281011
03949KAQV AQV20191201172010812/01/19 17:20:31  5-MIN KAQV 012320Z AUTO VRB03KT 10SM CLR 12/M01 A3001 290 39 100 VRB/03 RMK AO2 T01221011
03949KAQV AQV20191201172510812/01/19 17:25:31  5-MIN KAQV 012325Z AUTO 00000KT 10SM CLR 12/M01 A3001 290 39 100 000/00 RMK AO2 T01221011
03949KAQV AQV20191201173010812/01/19 17:30:31  5-MIN KAQV 012330Z AUTO 00000KT 10SM CLR 12/M01 A3002 290 39 100 000/00 RMK AO2 T01221011
03949KAQV AQV20191201173510612/01/19 17:35:31  5-MIN KAQV 012335Z AUTO 00000KT 10SM CLR 12/M01 A3002 290 41 0 000/00 RMK AO2 T01171011
03949KAQV AQV20191201174010612/01/19 17:40:31  5-MIN KAQV 012340Z AUTO VRB03KT 10SM CLR 12/M01 A3002 290 41 0 VRB/03 RMK AO2 T01171011
03949KAQV AQV20191201174510612/01/19 17:45:31  5-MIN KAQV 012345Z AUTO VRB03KT 10SM CLR 12/M01 A3002 280 41 0 VRB/03 RMK AO2 T01171011
03949KAQV AQV20191201175010612/01/19 17:50:31  5-MIN KAQV 012350Z AUTO VRB03KT 10SM CLR 12/M01 A3002 280 42 0 VRB/03 RMK AO2 T01171006
03949KAQV AQV20191201175513112/01/19 17:55:31  5-MIN KAQV 012355Z AUTO VRB03KT 10SM CLR 12/M01 A3002 280 41 0 VRB/03 RMK AO2 SLP167 T01171011 10172 20111 55003
03949KAQV AQV20191201180010612/01/19 18:00:31  5-MIN KAQV 020000Z AUTO VRB03KT 10SM CLR 11/M01 A3002 280 44 0 VRB/03 RMK AO2 T01111006
03949KAQV AQV20191202040510912/02/19 04:05:31  5-MIN KAQV 021005Z AUTO 00000KT 10SM CLR 05/M01 A3016 160 67 -900 000/00 RMK AO2 T00501006
03949KAQV AQV20191202041010912/02/19 04:10:31  5-MIN KAQV 021010Z AUTO 00000KT 10SM CLR 05/M01 A3016 150 67 -900 000/00 RMK AO2 T00501006
03949KAQV AQV20191202041510912/02/19 04:15:31  5-MIN KAQV 021015Z AUTO VRB03KT 10SM CLR 05/M01 A3016 150 67 -900 VRB/03 RMK AO2 T00501006
03949KAQV AQV20191202042010912/02/19 04:20:31  5-MIN KAQV 021020Z AUTO 00000KT 10SM CLR 05/M01 A3016 160 67 -900 000/00 RMK AO2 T00501006
03949KAQV AQV20191202042510912/02/19 04:25:31  5-MIN KAQV 021025Z AUTO 00000KT 10SM CLR 05/M01 A3016 160 67 -900 000/00 RMK AO2 T00501006
03949KAQV AQV20191202043010912/02/19 04:30:31  5-MIN KAQV 021030Z AUTO VRB03KT 10SM CLR 05/M01 A3016 160 67 -900 VRB/03 RMK AO2 T00501006
03949KAQV AQV20191202043510912/02/19 04:35:31  5-MIN KAQV 021035Z AUTO VRB03KT 10SM CLR 05/M01 A3016 150 67 -900 VRB/03 RMK AO2 T00501006
03949KAQV AQV20191202044010912/02/19 04:40:31  5-MIN KAQV 021040Z AUTO VRB04KT 10SM CLR 05/M01 A3016 150 67 -900 VRB/04 RMK AO2 T00501006
03949KAQV AQV20191202044510912/02/19 04:45:31  5-MIN KAQV 021045Z AUTO VRB03KT 10SM CLR 05/M01 A3016 150 67 -900 VRB/03 RMK AO2 T00501006
03949KAQV AQV20191202045010912/02/19 04:50:31  5-MIN KAQV 021050Z AUTO VRB03KT 10SM CLR 05/M01 A3016 150 67 -900 VRB/03 RMK AO2 T00501006
03949KAQV AQV20191202045511612/02/19 04:55:31  5-MIN KAQV 021055Z AUTO VRB03KT 10SM CLR 05/M01 A3017 150 67 -900 VRB/03 RMK AO2 SLP216 T00501006
03949KAQV AQV20191202050009912/02/19 05:00:31  5-MIN KAQV 021100Z AUTO 10SM CLR 05/M01 A3017 150 67 -900 M /M RMK AO2 T00501006
03949KAQV AQV20191202050510912/02/19 05:05:31  5-MIN KAQV 021105Z AUTO 00000KT 10SM CLR 05/M01 A3017 150 67 -900 000/00 RMK AO2 T00501006
03949KAQV AQV20191202051009912/02/19 05:10:31  5-MIN KAQV 021110Z AUTO 10SM CLR 05/M01 A3017 150 64 -900 M /M RMK AO2 T00501011
03949KAQV AQV20191202051511012/02/19 05:15:31  5-MIN KAQV 021115Z AUTO VRB03KT 10SM CLR 04/M01 A3017 150 67 -1000 VRB/03 RMK AO2 T00441011
03949KAQV AQV20191202052011012/02/19 05:20:31  5-MIN KAQV 021120Z AUTO VRB03KT 10SM CLR 04/M01 A3017 150 67 -1000 VRB/03 RMK AO2 T00441011
03949KAQV AQV20191202052510012/02/19 05:25:31  5-MIN KAQV 021125Z AUTO 10SM CLR 04/M01 A3017 140 67 -1000 M /M RMK AO2 T00441011
03949KAQV AQV20191202053011012/02/19 05:30:31  5-MIN KAQV 021130Z AUTO VRB03KT 10SM CLR 04/M01 A3017 140 67 -1000 VRB/03 RMK AO2 T00441011
03949KAQV AQV20191202053511012/02/19 05:35:31  5-MIN KAQV 021135Z AUTO VRB03KT 10SM CLR 04/M01 A3017 140 67 -1000 VRB/03 RMK AO2 T00441011
03949KAQV AQV20191202054010912/02/19 05:40:31  5-MIN KAQV 021140Z AUTO VRB03KT 10SM CLR 05/M01 A3017 140 64 -900 VRB/03 RMK AO2 T00501011
03949KAQV AQV20191202054510912/02/19 05:45:31  5-MIN KAQV 021145Z AUTO VRB03KT 10SM CLR 05/M01 A3017 140 64 -900 VRB/03 RMK AO2 T00501011
03949KAQV AQV20191202055011012/02/19 05:50:31  5-MIN KAQV 021150Z AUTO VRB03KT 10SM CLR 04/M02 A3018 140 64 -1000 VRB/03 RMK AO2 T00441017
03949KAQV AQV20191202055513412/02/19 05:55:31  5-MIN KAQV 021155Z AUTO VRB03KT 10SM CLR 05/M02 A3018 140 62 -900 VRB/03 RMK AO2 SLP221 T00501017 10061 20044 53001
03949KAQV AQV20191202060011012/02/19 06:00:31  5-MIN KAQV 021200Z AUTO 00000KT 10SM CLR 04/M02 A3018 130 64 -1000 000/00 RMK AO2 T00441017
03949KAQV AQV20191202060511012/02/19 06:05:31  5-MIN KAQV 021205Z AUTO 00000KT 10SM CLR 04/M02 A3018 130 64 -1000 000/00 RMK AO2 T00441017
03949KAQV AQV20191202061011012/02/19 06:10:31  5-MIN KAQV 021210Z AUTO 00000KT 10SM CLR 04/M02 A3019 130 64 -1000 000/00 RMK AO2 T00441017
03949KAQV AQV20191202061511012/02/19 06:15:31  5-MIN KAQV 021215Z AUTO VRB03KT 10SM CLR 04/M02 A3019 130 64 -1000 VRB/03 RMK AO2 T00441017
03949KAQV AQV20191202062011012/02/19 06:20:31  5-MIN KAQV 021220Z AUTO VRB04KT 10SM CLR 04/M02 A3019 130 64 -1000 VRB/04 RMK AO2 T00441017
03949KAQV AQV20191202062511012/02/19 06:25:31  5-MIN KAQV 021225Z AUTO VRB03KT 10SM CLR 04/M02 A3020 120 64 -1000 VRB/03 RMK AO2 T00441017
03949KAQV AQV20191202063011012/02/19 06:30:31  5-MIN KAQV 021230Z AUTO 00000KT 10SM CLR 04/M02 A3020 120 64 -1000 000/00 RMK AO2 T00441017
03949KAQV AQV20191202063511012/02/19 06:35:31  5-MIN KAQV 021235Z AUTO VRB04KT 10SM CLR 04/M02 A3020 120 64 -1000 VRB/04 RMK AO2 T00441017
03949KAQV AQV20191202064011012/02/19 06:40:31  5-MIN KAQV 021240Z AUTO VRB03KT 10SM CLR 04/M02 A3020 120 64 -1000 VRB/03 RMK AO2 T00441017
03949KAQV AQV20191202064511012/02/19 06:45:31  5-MIN KAQV 021245Z AUTO 00000KT 10SM CLR 04/M02 A3020 120 64 -1000 000/00 RMK AO2 T00441017
03949KAQV AQV20191202065011012/02/19 06:50:31  5-MIN KAQV 021250Z AUTO VRB03KT 10SM CLR 04/M02 A3021 110 67 -1100 VRB/03 RMK AO2 T00391017
03949KAQV AQV20191202065511712/02/19 06:55:31  5-MIN KAQV 021255Z AUTO VRB03KT 10SM CLR 04/M02 A3021 110 64 -1100 VRB/03 RMK AO2 SLP231 T00441017
03949KAQV AQV20191202070011012/02/19 07:00:31  5-MIN KAQV 021300Z AUTO VRB03KT 10SM CLR 04/M02 A3021 110 64 -1100 VRB/03 RMK AO2 T00441017
03949KAQV AQV20191202070511012/02/19 07:05:31  5-MIN KAQV 021305Z AUTO 00000KT 10SM CLR 04/M02 A3022 100 64 -1100 000/00 RMK AO2 T00441017
03949KAQV AQV20191202071010012/02/19 07:10:31  5-MIN KAQV 021310Z AUTO 10SM CLR 04/M02 A3022 100 67 -1100 M /M RMK AO2 T00391017
03949KAQV AQV20191202071511012/02/19 07:15:31  5-MIN KAQV 021315Z AUTO VRB04KT 10SM CLR 04/M02 A3022 100 64 -1100 VRB/04 RMK AO2 T00441017
03949KAQV AQV20191202072010012/02/19 07:20:31  5-MIN KAQV 021320Z AUTO 10SM CLR 04/M02 A3022 100 64 -1100 M /M RMK AO2 T00441017
03949KAQV AQV20191202072511012/02/19 07:25:31  5-MIN KAQV 021325Z AUTO VRB04KT 10SM CLR 04/M02 A3022 100 64 -1100 VRB/04 RMK AO2 T00441017
03949KAQV AQV20191202073011012/02/19 07:30:31  5-MIN KAQV 021330Z AUTO VRB04KT 10SM CLR 04/M02 A3022 100 64 -1100 VRB/04 RMK AO2 T00441017
03949KAQV AQV20191202073511012/02/19 07:35:31  5-MIN KAQV 021335Z AUTO VRB03KT 10SM CLR 04/M02 A3022 100 64 -1100 VRB/03 RMK AO2 T00441017
03949KAQV AQV20191202074011012/02/19 07:40:31  5-MIN KAQV 021340Z AUTO VRB03KT 10SM CLR 04/M02 A3022 100 64 -1100 VRB/03 RMK AO2 T00441017
03949KAQV AQV20191202074511012/02/19 07:45:31  5-MIN KAQV 021345Z AUTO VRB04KT 10SM CLR 05/M02 A3022 100 62 -1000 VRB/04 RMK AO2 T00501017
03949KAQV AQV20191202075010012/02/19 07:50:31  5-MIN KAQV 021350Z AUTO 10SM CLR 05/M01 A3022 100 64 -1000 M /M RMK AO2 T00501011
03949KAQV AQV20191202075511712/02/19 07:55:31  5-MIN KAQV 021355Z AUTO VRB03KT 10SM CLR 05/M01 A3022 100 64 -1000 VRB/03 RMK AO2 SLP236 T00501011
03949KAQV AQV20191202080009912/02/19 08:00:31  5-MIN KAQV 021400Z AUTO 10SM CLR 06/M02 A3022 100 59 -900 M /M RMK AO2 T00561017
03949KAQV AQV20191202080510812/02/19 08:05:31  5-MIN KAQV 021405Z AUTO VRB05KT 10SM CLR 06/M02 A3023 90 59 -900 VRB/05 RMK AO2 T00561017
03949KAQV AQV20191202081010812/02/19 08:10:31  5-MIN KAQV 021410Z AUTO VRB04KT 10SM CLR 06/M02 A3023 90 57 -900 VRB/04 RMK AO2 T00611017
03949KAQV AQV20191202081510812/02/19 08:15:31  5-MIN KAQV 021415Z AUTO VRB04KT 10SM CLR 06/M01 A3023 90 60 -900 VRB/04 RMK AO2 T00611011
03949KAQV AQV20191202082010812/02/19 08:20:31  5-MIN KAQV 021420Z AUTO VRB04KT 10SM CLR 06/M01 A3023 90 60 -900 VRB/04 RMK AO2 T00611011
03949KAQV AQV20191202082509812/02/19 08:25:31  5-MIN KAQV 021425Z AUTO 10SM CLR 06/M02 A3023 90 57 -900 M /M RMK AO2 T00611017
03949KAQV AQV20191202083012412/02/19 08:30:31  5-MIN KAQV 021430Z AUTO 35008KT 310V030 10SM CLR 07/M02 A3023 90 55 -800 350/08 310V030 RMK AO2 T00671017
03949KAQV AQV20191202083510812/02/19 08:35:31  5-MIN KAQV 021435Z AUTO VRB05KT 10SM CLR 07/M02 A3023 90 55 -800 VRB/05 RMK AO2 T00671017
03949KAQV AQV20191202084012412/02/19 08:40:31  5-MIN KAQV 021440Z AUTO 32007KT 200V010 10SM CLR 07/M01 A3024 90 57 -800 310/07 200V010 RMK AO2 T00671011
03949KAQV AQV20191202084509812/02/19 08:45:31  5-MIN KAQV 021445Z AUTO 10SM CLR 07/M01 A3024 80 57 -800 M /M RMK AO2 T00671011
03949KAQV AQV20191202085010812/02/19 08:50:31  5-MIN KAQV 021450Z AUTO VRB04KT 10SM CLR 07/M02 A3024 80 53 -700 VRB/04 RMK AO2 T00721017
03949KAQV AQV20191202085512112/02/19 08:55:31  5-MIN KAQV 021455Z AUTO VRB06KT 10SM CLR 07/M02 A3024 80 53 -700 VRB/06 RMK AO2 SLP243 T00721017 53010
03949KAQV AQV20191202090010812/02/19 09:00:31  5-MIN KAQV 021500Z AUTO VRB06KT 10SM CLR 07/M02 A3024 80 53 -700 VRB/06 RMK AO2 T00721017
03949KAQV AQV20191202090510812/02/19 09:05:31  5-MIN KAQV 021505Z AUTO VRB05KT 10SM CLR 07/M01 A3024 80 55 -800 VRB/05 RMK AO2 T00721011
03949KAQV AQV20191202091012412/02/19 09:10:31  5-MIN KAQV 021510Z AUTO 35007KT 250V080 10SM CLR 08/M01 A3025 70 53 -700 340/07 250V080 RMK AO2 T00781011
03949KAQV AQV20191202091513012/02/19 09:15:31  5-MIN KAQV 021515Z AUTO 36009G18KT 310V020 10SM CLR 07/M02 A3025 70 53 -800 350/09G18 310V020 RMK AO2 T00721017
03949KAQV AQV20191202092011412/02/19 09:20:31  5-MIN KAQV 021520Z AUTO 01007G18KT 10SM CLR 08/M02 A3025 70 51 -700 010/07G18 RMK AO2 T00781017
03949KAQV AQV20191202092511412/02/19 09:25:31  5-MIN KAQV 021525Z AUTO 36010G16KT 10SM CLR 08/M01 A3025 70 53 -700 360/10G16 RMK AO2 T00781011
03949KAQV AQV20191202093011412/02/19 09:30:31  5-MIN KAQV 021530Z AUTO VRB06G17KT 10SM CLR 08/M02 A3025 70 51 -700 VRB/06G17 RMK AO2 T00781017
03949KAQV AQV20191202093513012/02/19 09:35:31  5-MIN KAQV 021535Z AUTO 35009G17KT 290V020 10SM CLR 08/M02 A3025 70 51 -700 340/09G17 290V020 RMK AO2 T00781017
03949KAQV AQV20191202094011412/02/19 09:40:31  5-MIN KAQV 021540Z AUTO 01006G16KT 10SM CLR 08/M02 A3025 70 51 -700 360/06G16 RMK AO2 T00781017
03949KAQV AQV20191202094511412/02/19 09:45:31  5-MIN KAQV 021545Z AUTO 01007G16KT 10SM CLR 08/M01 A3025 70 51 -600 360/07G16 RMK AO2 T00831011
03949KAQV AQV20191202095009812/02/19 09:50:31  5-MIN KAQV 021550Z AUTO 10SM CLR 08/M01 A3026 70 51 -600 M /M RMK AO2 T00831011
03949KAQV AQV20191202095512112/02/19 09:55:31  5-MIN KAQV 021555Z AUTO VRB06G16KT 10SM CLR 08/M02 A3026 60 49 -600 VRB/06G16 RMK AO2 SLP248 T00831017
03949KAQV AQV20191202100011412/02/19 10:00:31  5-MIN KAQV 021600Z AUTO 01010G17KT 10SM CLR 08/M02 A3026 70 49 -600 360/10G17 RMK AO2 T00831017
03949KAQV AQV20191202100511412/02/19 10:05:31  5-MIN KAQV 021605Z AUTO 36006G17KT 10SM CLR 08/M02 A3026 70 49 -600 350/06G17 RMK AO2 T00831017
03949KAQV AQV20191202101010812/02/19 10:10:31  5-MIN KAQV 021610Z AUTO VRB06KT 10SM CLR 09/M01 A3026 70 49 -600 VRB/06 RMK AO2 T00891011
03949KAQV AQV20191202101510812/02/19 10:15:31  5-MIN KAQV 021615Z AUTO VRB06KT 10SM CLR 09/M02 A3026 70 47 -600 VRB/06 RMK AO2 T00891017
03949KAQV AQV20191202102009812/02/19 10:20:31  5-MIN KAQV 021620Z AUTO 10SM CLR 09/M01 A3025 70 47 -500 M /M RMK AO2 T00941011
03949KAQV AQV20191202102510812/02/19 10:25:31  5-MIN KAQV 021625Z AUTO 36007KT 10SM CLR 09/M02 A3026 70 47 -600 350/07 RMK AO2 T00891017
03949KAQV AQV20191202103010812/02/19 10:30:31  5-MIN KAQV 021630Z AUTO 02008KT 10SM CLR 09/M01 A3026 70 49 -600 020/08 RMK AO2 T00891011
03949KAQV AQV20191202103512412/02/19 10:35:31  5-MIN KAQV 021635Z AUTO 01007KT 320V040 10SM CLR 09/M01 A3025 70 47 -500 010/07 320V040 RMK AO2 T00941011
03949KAQV AQV20191202104011412/02/19 10:40:31  5-MIN KAQV 021640Z AUTO 01008G17KT 10SM CLR 09/M02 A3025 70 47 -600 010/08G17 RMK AO2 T00891017
03949KAQV AQV20191202104511412/02/19 10:45:31  5-MIN KAQV 021645Z AUTO 02007G17KT 10SM CLR 09/M02 A3025 70 45 -500 020/07G17 RMK AO2 T00941017
03949KAQV AQV20191202105009812/02/19 10:50:31  5-MIN KAQV 021650Z AUTO 10SM CLR 09/M01 A3025 70 47 -500 M /M RMK AO2 T00941011
03949KAQV AQV20191202105512112/02/19 10:55:31  5-MIN KAQV 021655Z AUTO 31005G15KT 10SM CLR 09/M02 A3025 70 45 -500 300/05G15 RMK AO2 SLP245 T00941017
03949KAQV AQV20191202110012412/02/19 11:00:31  5-MIN KAQV 021700Z AUTO 34007KT 270V030 10SM CLR 09/M01 A3025 70 47 -500 330/07 270V030 RMK AO2 T00941011
03949KAQV AQV20191202110510812/02/19 11:05:31  5-MIN KAQV 021705Z AUTO VRB04KT 10SM CLR 10/M01 A3025 70 46 -400 VRB/04 RMK AO2 T01001011
03949KAQV AQV20191202111010812/02/19 11:10:31  5-MIN KAQV 021710Z AUTO VRB06KT 10SM CLR 10/M01 A3024 80 46 -400 VRB/06 RMK AO2 T01001011
03949KAQV AQV20191202111510812/02/19 11:15:31  5-MIN KAQV 021715Z AUTO 36008KT 10SM CLR 10/M01 A3024 80 46 -400 360/08 RMK AO2 T01001011
03949KAQV AQV20191202112010812/02/19 11:20:31  5-MIN KAQV 021720Z AUTO 01007KT 10SM CLR 10/M01 A3024 80 46 -400 010/07 RMK AO2 T01001011
03949KAQV AQV20191202112510812/02/19 11:25:31  5-MIN KAQV 021725Z AUTO VRB06KT 10SM CLR 10/M01 A3024 80 46 -400 VRB/06 RMK AO2 T01001011
03949KAQV AQV20191202113010812/02/19 11:30:31  5-MIN KAQV 021730Z AUTO 01006KT 10SM CLR 10/M01 A3023 90 46 -400 010/06 RMK AO2 T01001011
03949KAQV AQV20191202113510812/02/19 11:35:31  5-MIN KAQV 021735Z AUTO VRB04KT 10SM CLR 10/M01 A3023 90 46 -400 VRB/04 RMK AO2 T01001011
03949KAQV AQV20191202114010812/02/19 11:40:31  5-MIN KAQV 021740Z AUTO VRB05KT 10SM CLR 10/M02 A3023 90 44 -400 VRB/05 RMK AO2 T01001017
03949KAQV AQV20191202114510812/02/19 11:45:31  5-MIN KAQV 021745Z AUTO VRB04KT 10SM CLR 10/M01 A3023 90 46 -400 VRB/04 RMK AO2 T01001011
03949KAQV AQV20191202115010812/02/19 11:50:31  5-MIN KAQV 021750Z AUTO 36006KT 10SM CLR 11/M01 A3023 90 44 -300 350/06 RMK AO2 T01111006
03949KAQV AQV20191202115513412/02/19 11:55:31  5-MIN KAQV 021755Z AUTO VRB03KT 10SM CLR 11/M01 A3022 100 44 -300 VRB/03 RMK AO2 SLP236 T01061011 10111 20039 51021
03949KAQV AQV20191202120010912/02/19 12:00:31  5-MIN KAQV 021800Z AUTO 32006KT 10SM CLR 11/M01 A3022 100 44 -300 320/06 RMK AO2 T01061011
03949KAQV AQV20191202120510912/02/19 12:05:31  5-MIN KAQV 021805Z AUTO VRB04KT 10SM CLR 11/M01 A3022 100 42 -200 VRB/04 RMK AO2 T01111011
03949KAQV AQV20191202121010912/02/19 12:10:31  5-MIN KAQV 021810Z AUTO VRB06KT 10SM CLR 11/M01 A3022 100 42 -200 VRB/06 RMK AO2 T01111011
03949KAQV AQV20191202121510912/02/19 12:15:31  5-MIN KAQV 021815Z AUTO 36006KT 10SM CLR 11/M01 A3021 110 42 -200 360/06 RMK AO2 T01111011
03949KAQV AQV20191202122010912/02/19 12:20:31  5-MIN KAQV 021820Z AUTO VRB04KT 10SM CLR 11/M01 A3021 110 44 -200 VRB/04 RMK AO2 T01111006
03949KAQV AQV20191202122510912/02/19 12:25:31  5-MIN KAQV 021825Z AUTO VRB06KT 10SM CLR 12/M01 A3020 110 42 -200 VRB/06 RMK AO2 T01171006
03949KAQV AQV20191202123010912/02/19 12:30:31  5-MIN KAQV 021830Z AUTO VRB05KT 10SM CLR 11/M01 A3020 120 44 -300 VRB/05 RMK AO2 T01061011
03949KAQV AQV20191202123510912/02/19 12:35:31  5-MIN KAQV 021835Z AUTO 01008KT 10SM CLR 12/M01 A3020 120 42 -200 010/08 RMK AO2 T01171006
03949KAQV AQV20191202124010912/02/19 12:40:31  5-MIN KAQV 021840Z AUTO 01008KT 10SM CLR 12/M01 A3020 120 42 -200 010/08 RMK AO2 T01171006
03949KAQV AQV20191202124511512/02/19 12:45:31  5-MIN KAQV 021845Z AUTO 36010G15KT 10SM CLR 12/M01 A3019 120 42 -200 360/10G15 RMK AO2 T01171006
03949KAQV AQV20191202125011512/02/19 12:50:31  5-MIN KAQV 021850Z AUTO VRB06G15KT 10SM CLR 12/M01 A3019 130 42 -200 VRB/06G15 RMK AO2 T01171006
03949KAQV AQV20191202125511612/02/19 12:55:31  5-MIN KAQV 021855Z AUTO VRB04KT 10SM CLR 12/M01 A3019 130 42 -200 VRB/04 RMK AO2 SLP225 T01171006
03949KAQV AQV20191202130010812/02/19 13:00:31  5-MIN KAQV 021900Z AUTO VRB04KT 10SM CLR 12/00 A3019 130 43 -100 VRB/04 RMK AO2 T01220000
03949KAQV AQV20191202130510812/02/19 13:05:31  5-MIN KAQV 021905Z AUTO VRB05KT 10SM CLR 12/00 A3019 130 43 -100 VRB/05 RMK AO2 T01220000
03949KAQV AQV20191202131010912/02/19 13:10:31  5-MIN KAQV 021910Z AUTO VRB04KT 10SM CLR 12/M01 A3018 130 41 -100 VRB/04 RMK AO2 T01221006
03949KAQV AQV20191202131510812/02/19 13:15:31  5-MIN KAQV 021915Z AUTO VRB04KT 10SM CLR 12/00 A3018 140 43 -100 VRB/04 RMK AO2 T01220000
03949KAQV AQV20191202132010912/02/19 13:20:31  5-MIN KAQV 021920Z AUTO VRB03KT 10SM CLR 12/M01 A3018 140 42 -100 VRB/03 RMK AO2 T01171006
03949KAQV AQV20191202132512512/02/19 13:25:31  5-MIN KAQV 021925Z AUTO 36008KT 320V020 10SM CLR 12/M01 A3018 140 41 -100 360/08 320V020 RMK AO2 T01221006
03949KAQV AQV20191202133010812/02/19 13:30:31  5-MIN KAQV 021930Z AUTO VRB05KT 10SM CLR 12/00 A3018 140 43 -100 VRB/05 RMK AO2 T01220000
03949KAQV AQV20191202133510812/02/19 13:35:31  5-MIN KAQV 021935Z AUTO VRB05KT 10SM CLR 12/00 A3018 140 43 -100 VRB/05 RMK AO2 T01220000
03949KAQV AQV20191202134010912/02/19 13:40:31  5-MIN KAQV 021940Z AUTO VRB05KT 10SM CLR 12/M01 A3017 140 41 -100 VRB/05 RMK AO2 T01221006
03949KAQV AQV20191202134510812/02/19 13:45:31  5-MIN KAQV 021945Z AUTO VRB05KT 10SM CLR 12/00 A3017 140 43 -100 VRB/05 RMK AO2 T01220000
03949KAQV AQV20191202135010912/02/19 13:50:31  5-MIN KAQV 021950Z AUTO VRB04KT 10SM CLR 12/M01 A3017 140 41 -100 VRB/04 RMK AO2 T01221006
03949KAQV AQV20191202135510512/02/19 13:55:31  5-MIN KAQV 021955Z AUTO 10SM CLR 12/00 A3017 150 43 -100 M /M RMK AO2 SLP217 T01220000
03949KAQV AQV20191202140010512/02/19 14:00:31  5-MIN KAQV 022000Z AUTO VRB05KT 10SM CLR 13/00 A3017 150 41 0 VRB/05 RMK AO2 T01280000
03949KAQV AQV20191202140510512/02/19 14:05:31  5-MIN KAQV 022005Z AUTO 36008KT 10SM CLR 13/00 A3017 150 41 0 360/08 RMK AO2 T01280000
03949KAQV AQV20191202141010912/02/19 14:10:31  5-MIN KAQV 022010Z AUTO VRB03KT 10SM CLR 12/M01 A3017 150 41 -100 VRB/03 RMK AO2 T01221006
03949KAQV AQV20191202141510512/02/19 14:15:31  5-MIN KAQV 022015Z AUTO 01005KT 10SM CLR 13/00 A3017 150 41 0 010/05 RMK AO2 T01280000
03949KAQV AQV20191202142010812/02/19 14:20:31  5-MIN KAQV 022020Z AUTO VRB06KT 10SM CLR 12/00 A3017 150 43 -100 VRB/06 RMK AO2 T01220000
03949KAQV AQV20191202142510512/02/19 14:25:31  5-MIN KAQV 022025Z AUTO VRB05KT 10SM CLR 13/00 A3017 150 40 0 VRB/05 RMK AO2 T01330000
03949KAQV AQV20191202143010612/02/19 14:30:31  5-MIN KAQV 022030Z AUTO 35005KT 10SM CLR 13/M01 A3017 150 39 0 350/05 RMK AO2 T01281006
03949KAQV AQV20191202143510612/02/19 14:35:31  5-MIN KAQV 022035Z AUTO VRB06KT 10SM CLR 13/M01 A3017 150 39 0 VRB/06 RMK AO2 T01281006
03949KAQV AQV20191202144010612/02/19 14:40:31  5-MIN KAQV 022040Z AUTO VRB03KT 10SM CLR 13/M01 A3017 150 39 0 VRB/03 RMK AO2 T01281006
03949KAQV AQV20191202144510612/02/19 14:45:31  5-MIN KAQV 022045Z AUTO VRB04KT 10SM CLR 13/M01 A3016 150 39 0 VRB/04 RMK AO2 T01281006
03949KAQV AQV20191202145010612/02/19 14:50:31  5-MIN KAQV 022050Z AUTO 36007KT 10SM CLR 13/M01 A3017 150 39 0 360/07 RMK AO2 T01281006
03949KAQV AQV20191202145511912/02/19 14:55:31  5-MIN KAQV 022055Z AUTO 36005KT 10SM CLR 13/M01 A3017 150 39 0 350/05 RMK AO2 SLP217 T01281006 58006
03949KAQV AQV20191202150010612/02/19 15:00:31  5-MIN KAQV 022100Z AUTO VRB04KT 10SM CLR 13/M01 A3017 150 39 0 VRB/04 RMK AO2 T01281006
03949KAQV AQV20191202150510612/02/19 15:05:31  5-MIN KAQV 022105Z AUTO 36006KT 10SM CLR 13/M01 A3017 150 39 0 360/06 RMK AO2 T01281006
03949KAQV AQV20191202151010512/02/19 15:10:31  5-MIN KAQV 022110Z AUTO 02005KT 10SM CLR 13/00 A3017 150 40 0 010/05 RMK AO2 T01330000
03949KAQV AQV20191202151510512/02/19 15:15:31  5-MIN KAQV 022115Z AUTO VRB04KT 10SM CLR 13/00 A3017 150 40 0 VRB/04 RMK AO2 T01330000
03949KAQV AQV20191202152010512/02/19 15:20:31  5-MIN KAQV 022120Z AUTO VRB03KT 10SM CLR 13/00 A3016 150 41 0 VRB/03 RMK AO2 T01280000
03949KAQV AQV20191202152510512/02/19 15:25:31  5-MIN KAQV 022125Z AUTO 01005KT 10SM CLR 13/00 A3016 150 40 0 010/05 RMK AO2 T01330000
03949KAQV AQV20191202153010512/02/19 15:30:31  5-MIN KAQV 022130Z AUTO 03005KT 10SM CLR 13/00 A3016 150 41 0 030/05 RMK AO2 T01280000
03949KAQV AQV20191202153510512/02/19 15:35:31  5-MIN KAQV 022135Z AUTO VRB04KT 10SM CLR 13/00 A3016 150 41 0 VRB/04 RMK AO2 T01280000
03949KAQV AQV20191202154010512/02/19 15:40:31  5-MIN KAQV 022140Z AUTO 02005KT 10SM CLR 13/00 A3016 150 41 0 010/05 RMK AO2 T01280000
03949KAQV AQV20191202154510512/02/19 15:45:31  5-MIN KAQV 022145Z AUTO VRB04KT 10SM CLR 13/00 A3016 160 41 0 VRB/04 RMK AO2 T01280000
03949KAQV AQV20191202155010512/02/19 15:50:31  5-MIN KAQV 022150Z AUTO 36006KT 10SM CLR 13/00 A3016 150 41 0 360/06 RMK AO2 T01280000
03949KAQV AQV20191202155511512/02/19 15:55:31  5-MIN KAQV 022155Z AUTO 01005KT 10SM CLR 12/00 A3016 150 43 -100 010/05 RMK AO2 SLP215 T01220000
03949KAQV AQV20191202160010812/02/19 16:00:31  5-MIN KAQV 022200Z AUTO 35005KT 10SM CLR 12/00 A3016 150 43 -100 340/05 RMK AO2 T01220000
03949KAQV AQV20191202160510812/02/19 16:05:31  5-MIN KAQV 022205Z AUTO 36003KT 10SM CLR 12/00 A3017 150 43 -100 360/03 RMK AO2 T01220000
03949KAQV AQV20191202161010812/02/19 16:10:31  5-MIN KAQV 022210Z AUTO 01005KT 10SM CLR 12/00 A3017 150 43 -100 010/05 RMK AO2 T01220000
03949KAQV AQV20191202161510812/02/19 16:15:31  5-MIN KAQV 022215Z AUTO VRB03KT 10SM CLR 12/00 A3017 150 43 -100 VRB/03 RMK AO2 T01220000
03949KAQV AQV20191202162010712/02/19 16:20:31  5-MIN KAQV 022220Z AUTO 36004KT 9SM CLR 12/00 A3017 150 43 -100 360/04 RMK AO2 T01220000
03949KAQV AQV20191202162510712/02/19 16:25:31  5-MIN KAQV 022225Z AUTO 00000KT 9SM CLR 12/01 A3017 150 46 -100 000/00 RMK AO2 T01170006
03949KAQV AQV20191202163010812/02/19 16:30:31  5-MIN KAQV 022230Z AUTO 00000KT 10SM CLR 11/00 A3017 150 46 -200 000/00 RMK AO2 T01110000
03949KAQV AQV20191202163510812/02/19 16:35:31  5-MIN KAQV 022235Z AUTO 36003KT 10SM CLR 11/01 A3017 150 48 -200 360/03 RMK AO2 T01110006
03949KAQV AQV20191202164010812/02/19 16:40:31  5-MIN KAQV 022240Z AUTO 36003KT 10SM CLR 11/01 A3016 150 52 -300 360/03 RMK AO2 T01060011
03949KAQV AQV20191202164510812/02/19 16:45:31  5-MIN KAQV 022245Z AUTO 36003KT 10SM CLR 11/01 A3017 150 52 -300 360/03 RMK AO2 T01060011
03949KAQV AQV20191202165010812/02/19 16:50:31  5-MIN KAQV 022250Z AUTO 00000KT 10SM CLR 10/01 A3017 150 54 -300 000/00 RMK AO2 T01000011
03949KAQV AQV20191202165511512/02/19 16:55:31  5-MIN KAQV 022255Z AUTO 00000KT 10SM CLR 09/02 A3017 150 58 -400 000/00 RMK AO2 SLP217 T00940017
03949KAQV AQV20191202170010812/02/19 17:00:31  5-MIN KAQV 022300Z AUTO 00000KT 10SM CLR 09/02 A3017 150 63 -500 000/00 RMK AO2 T00890022
03949KAQV AQV20191202170510812/02/19 17:05:31  5-MIN KAQV 022305Z AUTO 00000KT 10SM CLR 08/02 A3017 150 65 -500 000/00 RMK AO2 T00830022
03949KAQV AQV20191202171010812/02/19 17:10:31  5-MIN KAQV 022310Z AUTO 00000KT 10SM CLR 08/03 A3017 150 68 -500 000/00 RMK AO2 T00830028
03949KAQV AQV20191202171510812/02/19 17:15:31  5-MIN KAQV 022315Z AUTO 00000KT 10SM CLR 08/02 A3017 150 68 -600 000/00 RMK AO2 T00780022
03949KAQV AQV20191202172010812/02/19 17:20:31  5-MIN KAQV 022320Z AUTO 00000KT 10SM CLR 07/03 A3017 150 73 -700 000/00 RMK AO2 T00720028
03949KAQV AQV20191202172510812/02/19 17:25:31  5-MIN KAQV 022325Z AUTO 00000KT 10SM CLR 07/03 A3017 150 76 -700 000/00 RMK AO2 T00670028
03949KAQV AQV20191202173010812/02/19 17:30:31  5-MIN KAQV 022330Z AUTO 00000KT 10SM CLR 07/03 A3017 150 76 -700 000/00 RMK AO2 T00670028
03949KAQV AQV20191202173510812/02/19 17:35:31  5-MIN KAQV 022335Z AUTO 00000KT 10SM CLR 07/03 A3017 150 76 -700 000/00 RMK AO2 T00670028
03949KAQV AQV20191202174010812/02/19 17:40:31  5-MIN KAQV 022340Z AUTO 00000KT 10SM CLR 06/03 A3016 150 79 -800 000/00 RMK AO2 T00610028
03949KAQV AQV20191202174510812/02/19 17:45:31  5-MIN KAQV 022345Z AUTO 00000KT 10SM CLR 06/03 A3016 150 79 -800 000/00 RMK AO2 T00610028
03949KAQV AQV20191202175010812/02/19 17:50:31  5-MIN KAQV 022350Z AUTO 00000KT 10SM CLR 06/03 A3016 150 79 -800 000/00 RMK AO2 T00610028
03949KAQV AQV20191202175513312/02/19 17:55:31  5-MIN KAQV 022355Z AUTO 00000KT 10SM CLR 06/03 A3017 150 82 -900 000/00 RMK AO2 SLP218 T00560028 10133 20056 56019
03949KAQV AQV20191202180010812/02/19 18:00:31  5-MIN KAQV 030000Z AUTO 00000KT 10SM CLR 06/03 A3017 150 82 -900 000/00 RMK AO2 T00560028
03949KAQV AQV20191202180510812/02/19 18:05:31  5-MIN KAQV 030005Z AUTO 00000KT 10SM CLR 06/02 A3017 150 79 -900 000/00 RMK AO2 T00560022
03949KAQV AQV20191202181010812/02/19 18:10:31  5-MIN KAQV 030010Z AUTO 00000KT 10SM CLR 05/03 A3017 150 85 -900 000/00 RMK AO2 T00500028
03949KAQV AQV20191202181510812/02/19 18:15:31  5-MIN KAQV 030015Z AUTO 00000KT 10SM CLR 05/02 A3017 150 82 -900 000/00 RMK AO2 T00500022
03949KAQV AQV20191202182010812/02/19 18:20:31  5-MIN KAQV 030020Z AUTO 00000KT 10SM CLR 05/02 A3017 150 82 -900 000/00 RMK AO2 T00500022
03949KAQV AQV20191202182510812/02/19 18:25:31  5-MIN KAQV 030025Z AUTO 00000KT 10SM CLR 05/02 A3017 150 82 -900 000/00 RMK AO2 T00500022
03949KAQV AQV20191202183010912/02/19 18:30:31  5-MIN KAQV 030030Z AUTO 00000KT 10SM CLR 04/02 A3016 150 85 -1000 000/00 RMK AO2 T00440022
03949KAQV AQV20191202183510912/02/19 18:35:31  5-MIN KAQV 030035Z AUTO 00000KT 10SM CLR 04/02 A3016 150 85 -1000 000/00 RMK AO2 T00440022
03949KAQV AQV20191202184010912/02/19 18:40:31  5-MIN KAQV 030040Z AUTO 00000KT 10SM CLR 04/03 A3016 150 89 -1000 000/00 RMK AO2 T00440028
03949KAQV AQV20191202184510912/02/19 18:45:31  5-MIN KAQV 030045Z AUTO 00000KT 10SM CLR 04/02 A3016 150 85 -1000 000/00 RMK AO2 T00440022
03949KAQV AQV20191202185010912/02/19 18:50:31  5-MIN KAQV 030050Z AUTO 00000KT 10SM CLR 04/03 A3016 150 89 -1000 000/00 RMK AO2 T00440028
03949KAQV AQV20191202185511612/02/19 18:55:31  5-MIN KAQV 030055Z AUTO 00000KT 10SM CLR 04/02 A3016 160 89 -1100 000/00 RMK AO2 SLP215 T00390022
03949KAQV AQV20191202190010912/02/19 19:00:31  5-MIN KAQV 030100Z AUTO 00000KT 10SM CLR 04/02 A3016 150 89 -1100 000/00 RMK AO2 T00390022
03949KAQV AQV20191202190510912/02/19 19:05:31  5-MIN KAQV 030105Z AUTO 00000KT 10SM CLR 04/02 A3016 150 89 -1100 000/00 RMK AO2 T00390022
03949KAQV AQV20191202191010912/02/19 19:10:31  5-MIN KAQV 030110Z AUTO 00000KT 10SM CLR 03/02 A3016 150 92 -1100 000/00 RMK AO2 T00330022
03949KAQV AQV20191202191510912/02/19 19:15:31  5-MIN KAQV 030115Z AUTO 00000KT 10SM CLR 03/02 A3017 150 92 -1100 000/00 RMK AO2 T00330022
03949KAQV AQV20191202192010912/02/19 19:20:31  5-MIN KAQV 030120Z AUTO 00000KT 10SM CLR 03/02 A3016 150 92 -1100 000/00 RMK AO2 T00330022
03949KAQV AQV20191202192510912/02/19 19:25:31  5-MIN KAQV 030125Z AUTO 00000KT 10SM CLR 03/02 A3016 150 89 -1100 000/00 RMK AO2 T00330017
03949KAQV AQV20191202193010912/02/19 19:30:31  5-MIN KAQV 030130Z AUTO 00000KT 10SM CLR 03/02 A3016 150 89 -1100 000/00 RMK AO2 T00330017
03949KAQV AQV20191202193510912/02/19 19:35:31  5-MIN KAQV 030135Z AUTO 00000KT 10SM CLR 03/02 A3017 150 89 -1100 000/00 RMK AO2 T00330017
03949KAQV AQV20191202194010912/02/19 19:40:31  5-MIN KAQV 030140Z AUTO 00000KT 10SM CLR 03/02 A3017 150 89 -1100 000/00 RMK AO2 T00330017
03949KAQV AQV20191202194510912/02/19 19:45:31  5-MIN KAQV 030145Z AUTO 00000KT 10SM CLR 03/02 A3017 150 92 -1200 000/00 RMK AO2 T00280017
03949KAQV AQV20191202195010912/02/19 19:50:31  5-MIN KAQV 030150Z AUTO 00000KT 10SM CLR 03/01 A3017 150 89 -1200 000/00 RMK AO2 T00280011
03949KAQV AQV20191202195511612/02/19 19:55:31  5-MIN KAQV 030155Z AUTO 00000KT 10SM CLR 03/01 A3017 150 89 -1200 000/00 RMK AO2 SLP219 T00280011
03949KAQV AQV20191202200010912/02/19 20:00:31  5-MIN KAQV 030200Z AUTO 00000KT 10SM CLR 03/01 A3017 150 89 -1200 000/00 RMK AO2 T00280011
03949KAQV AQV20191202200510912/02/19 20:05:31  5-MIN KAQV 030205Z AUTO 00000KT 10SM CLR 03/01 A3017 150 89 -1200 000/00 RMK AO2 T00280011
03949KAQV AQV20191202201010912/02/19 20:10:31  5-MIN KAQV 030210Z AUTO 00000KT 10SM CLR 03/01 A3017 150 89 -1200 000/00 RMK AO2 T00280011
03949KAQV AQV20191202201510912/02/19 20:15:31  5-MIN KAQV 030215Z AUTO 00000KT 10SM CLR 03/01 A3017 140 89 -1200 000/00 RMK AO2 T00280011
03949KAQV AQV20191202202010912/02/19 20:20:31  5-MIN KAQV 030220Z AUTO 00000KT 10SM CLR 03/01 A3017 140 89 -1200 000/00 RMK AO2 T00280011
03949KAQV AQV20191202202510912/02/19 20:25:31  5-MIN KAQV 030225Z AUTO 00000KT 10SM CLR 02/01 A3017 140 92 -1300 000/00 RMK AO2 T00220011
03949KAQV AQV20191202203010912/02/19 20:30:31  5-MIN KAQV 030230Z AUTO 00000KT 10SM CLR 02/01 A3017 140 92 -1300 000/00 RMK AO2 T00220011
03949KAQV AQV20191202203510912/02/19 20:35:31  5-MIN KAQV 030235Z AUTO 00000KT 10SM CLR 02/01 A3017 140 92 -1300 000/00 RMK AO2 T00220011
03949KAQV AQV20191202204010912/02/19 20:40:31  5-MIN KAQV 030240Z AUTO 00000KT 10SM CLR 02/01 A3017 140 92 -1300 000/00 RMK AO2 T00220011
03949KAQV AQV20191202204510912/02/19 20:45:31  5-MIN KAQV 030245Z AUTO 00000KT 10SM CLR 02/01 A3017 140 92 -1300 000/00 RMK AO2 T00220011
03949KAQV AQV20191202205010912/02/19 20:50:31  5-MIN KAQV 030250Z AUTO 00000KT 10SM CLR 02/01 A3017 140 92 -1300 000/00 RMK AO2 T00220011
03949KAQV AQV20191202205512212/02/19 20:55:31  5-MIN KAQV 030255Z AUTO 00000KT 10SM CLR 02/01 A3017 140 92 -1300 000/00 RMK AO2 SLP219 T00220011 56000
03949KAQV AQV20191202210010912/02/19 21:00:31  5-MIN KAQV 030300Z AUTO 00000KT 10SM CLR 02/01 A3017 140 92 -1300 000/00 RMK AO2 T00220011
03949KAQV AQV20191202210510912/02/19 21:05:31  5-MIN KAQV 030305Z AUTO 00000KT 10SM CLR 02/01 A3017 150 89 -1300 000/00 RMK AO2 T00220006
03949KAQV AQV20191202211010912/02/19 21:10:31  5-MIN KAQV 030310Z AUTO 00000KT 10SM CLR 02/01 A3017 150 89 -1300 000/00 RMK AO2 T00220006
03949KAQV AQV20191202211510912/02/19 21:15:31  5-MIN KAQV 030315Z AUTO 00000KT 10SM CLR 02/01 A3017 150 89 -1300 000/00 RMK AO2 T00220006
03949KAQV AQV20191202212010912/02/19 21:20:31  5-MIN KAQV 030320Z AUTO 00000KT 10SM CLR 02/01 A3017 150 89 -1300 000/00 RMK AO2 T00220006
03949KAQV AQV20191202212510912/02/19 21:25:31  5-MIN KAQV 030325Z AUTO 00000KT 10SM CLR 02/01 A3017 150 92 -1300 000/00 RMK AO2 T00170006
03949KAQV AQV20191202213010912/02/19 21:30:31  5-MIN KAQV 030330Z AUTO 00000KT 10SM CLR 02/01 A3016 150 92 -1300 000/00 RMK AO2 T00170006
03949KAQV AQV20191202213510912/02/19 21:35:31  5-MIN KAQV 030335Z AUTO 00000KT 10SM CLR 02/01 A3017 150 92 -1300 000/00 RMK AO2 T00170006
03949KAQV AQV20191202214010912/02/19 21:40:31  5-MIN KAQV 030340Z AUTO 00000KT 10SM CLR 02/01 A3016 150 92 -1300 000/00 RMK AO2 T00170006
03949KAQV AQV20191202214510912/02/19 21:45:31  5-MIN KAQV 030345Z AUTO 00000KT 10SM CLR 02/01 A3016 150 92 -1300 000/00 RMK AO2 T00170006
03949KAQV AQV20191202215010912/02/19 21:50:31  5-MIN KAQV 030350Z AUTO 00000KT 10SM CLR 02/01 A3016 150 92 -1300 000/00 RMK AO2 T00170006
03949KAQV AQV20191202215511612/02/19 21:55:31  5-MIN KAQV 030355Z AUTO 00000KT 10SM CLR 02/01 A3016 150 92 -1300 000/00 RMK AO2 SLP216 T00170006
03949KAQV AQV20191202220010912/02/19 22:00:31  5-MIN KAQV 030400Z AUTO 00000KT 10SM CLR 02/01 A3016 150 92 -1300 000/00 RMK AO2 T00170006
03949KAQV AQV20191202220510912/02/19 22:05:31  5-MIN KAQV 030405Z AUTO 00000KT 10SM CLR 02/00 A3016 160 89 -1300 000/00 RMK AO2 T00170000
03949KAQV AQV20191202221010912/02/19 22:10:31  5-MIN KAQV 030410Z AUTO 00000KT 10SM CLR 02/00 A3016 160 89 -1300 000/00 RMK AO2 T00170000
03949KAQV AQV20191202221510912/02/19 22:15:31  5-MIN KAQV 030415Z AUTO 00000KT 10SM CLR 02/00 A3016 160 89 -1300 000/00 RMK AO2 T00170000
03949KAQV AQV20191202222010912/02/19 22:20:31  5-MIN KAQV 030420Z AUTO 00000KT 10SM CLR 02/00 A3016 160 89 -1300 000/00 RMK AO2 T00170000
03949KAQV AQV20191202222510912/02/19 22:25:31  5-MIN KAQV 030425Z AUTO 00000KT 10SM CLR 01/00 A3016 160 92 -1400 000/00 RMK AO2 T00110000
03949KAQV AQV20191202223010912/02/19 22:30:31  5-MIN KAQV 030430Z AUTO 00000KT 10SM CLR 02/00 A3016 160 89 -1300 000/00 RMK AO2 T00170000
03949KAQV AQV20191202223510912/02/19 22:35:31  5-MIN KAQV 030435Z AUTO 00000KT 10SM CLR 01/00 A3016 160 92 -1400 000/00 RMK AO2 T00110000
03949KAQV AQV20191202224010912/02/19 22:40:31  5-MIN KAQV 030440Z AUTO 00000KT 10SM CLR 01/00 A3016 160 92 -1400 000/00 RMK AO2 T00110000
03949KAQV AQV20191202224510912/02/19 22:45:31  5-MIN KAQV 030445Z AUTO 00000KT 10SM CLR 01/00 A3016 160 92 -1400 000/00 RMK AO2 T00110000
03949KAQV AQV20191202225010912/02/19 22:50:31  5-MIN KAQV 030450Z AUTO 00000KT 10SM CLR 01/00 A3015 160 92 -1400 000/00 RMK AO2 T00110000
03949KAQV AQV20191202225511612/02/19 22:55:31  5-MIN KAQV 030455Z AUTO 00000KT 10SM CLR 01/00 A3015 160 92 -1400 000/00 RMK AO2 SLP213 T00110000
03949KAQV AQV20191202230010912/02/19 23:00:31  5-MIN KAQV 030500Z AUTO 00000KT 10SM CLR 01/00 A3015 170 92 -1400 000/00 RMK AO2 T00110000
03949KAQV AQV20191202230510912/02/19 23:05:31  5-MIN KAQV 030505Z AUTO 00000KT 10SM CLR 01/00 A3015 170 92 -1400 000/00 RMK AO2 T00110000
03949KAQV AQV20191202231010912/02/19 23:10:31  5-MIN KAQV 030510Z AUTO 00000KT 10SM CLR 01/00 A3015 170 92 -1400 000/00 RMK AO2 T00110000
03949KAQV AQV20191202231510912/02/19 23:15:31  5-MIN KAQV 030515Z AUTO 00000KT 10SM CLR 01/00 A3015 170 92 -1400 000/00 RMK AO2 T00110000
03949KAQV AQV20191202232010912/02/19 23:20:31  5-MIN KAQV 030520Z AUTO 00000KT 10SM CLR 01/00 A3014 170 92 -1400 000/00 RMK AO2 T00110000
03949KAQV AQV20191202232511012/02/19 23:25:31  5-MIN KAQV 030525Z AUTO 00000KT 10SM CLR 01/M01 A3014 170 89 -1400 000/00 RMK AO2 T00111006
03949KAQV AQV20191202233011012/02/19 23:30:31  5-MIN KAQV 030530Z AUTO 00000KT 10SM CLR 01/M01 A3014 170 92 -1500 000/00 RMK AO2 T00061006
03949KAQV AQV20191202233511012/02/19 23:35:31  5-MIN KAQV 030535Z AUTO 00000KT 10SM CLR 01/M01 A3014 170 92 -1500 000/00 RMK AO2 T00061006
03949KAQV AQV20191202234011012/02/19 23:40:31  5-MIN KAQV 030540Z AUTO 00000KT 10SM CLR 01/M01 A3014 170 92 -1500 000/00 RMK AO2 T00061006
03949KAQV AQV20191202234511012/02/19 23:45:31  5-MIN KAQV 030545Z AUTO 00000KT 10SM CLR 01/M01 A3014 170 92 -1500 000/00 RMK AO2 T00061006
03949KAQV AQV20191202235011012/02/19 23:50:31  5-MIN KAQV 030550Z AUTO 00000KT 10SM CLR 01/M01 A3014 180 92 -1500 000/00 RMK AO2 T00061006
03949KAQV AQV20191202235514512/02/19 23:55:31  5-MIN KAQV 030555Z AUTO 00000KT 10SM CLR 01/M01 A3014 180 92 -1500 000/00 RMK AO2 SLP208 T00061006 10056 20006 401330006 53002
03949KAQV AQV20191203000011012/03/19 00:00:31  5-MIN KAQV 030600Z AUTO 00000KT 10SM CLR 01/M01 A3014 170 92 -1500 000/00 RMK AO2 T00061006
03949KAQV AQV20191203000511012/03/19 00:05:31  5-MIN KAQV 030605Z AUTO 00000KT 10SM CLR 01/M01 A3014 170 92 -1500 000/00 RMK AO2 T00061006
03949KAQV AQV20191203001011012/03/19 00:10:31  5-MIN KAQV 030610Z AUTO 00000KT 10SM CLR 01/M01 A3014 180 92 -1500 000/00 RMK AO2 T00061006
03949KAQV AQV20191203001510912/03/19 00:15:31  5-MIN KAQV 030615Z AUTO 00000KT 9SM CLR 01/M01 A3014 180 92 -1500 000/00 RMK AO2 T00061006
03949KAQV AQV20191203002010912/03/19 00:20:31  5-MIN KAQV 030620Z AUTO 00000KT 8SM CLR 01/M01 A3013 180 92 -1400 000/00 RMK AO2 T00061006
03949KAQV AQV20191203002510912/03/19 00:25:31  5-MIN KAQV 030625Z AUTO 00000KT 9SM CLR 01/M01 A3013 180 92 -1500 000/00 RMK AO2 T00061006
03949KAQV AQV20191203003011012/03/19 00:30:31  5-MIN KAQV 030630Z AUTO 00000KT 10SM CLR 01/M01 A3013 180 92 -1400 000/00 RMK AO2 T00061006
03949KAQV AQV20191203003511012/03/19 00:35:31  5-MIN KAQV 030635Z AUTO 00000KT 10SM CLR 01/M01 A3013 180 92 -1400 000/00 RMK AO2 T00061006
03949KAQV AQV20191203004011012/03/19 00:40:31  5-MIN KAQV 030640Z AUTO 00000KT 10SM CLR 01/M01 A3013 180 92 -1400 000/00 RMK AO2 T00061006
03949KAQV AQV20191203004511012/03/19 00:45:31  5-MIN KAQV 030645Z AUTO 00000KT 10SM CLR 01/M01 A3013 180 92 -1400 000/00 RMK AO2 T00061006
03949KAQV AQV20191203005011012/03/19 00:50:31  5-MIN KAQV 030650Z AUTO 00000KT 10SM CLR 01/M01 A3013 180 92 -1400 000/00 RMK AO2 T00061006
03949KAQV AQV20191203005511712/03/19 00:55:31  5-MIN KAQV 030655Z AUTO 00000KT 10SM CLR 01/M01 A3013 180 92 -1500 000/00 RMK AO2 SLP206 T00061006
03949KAQV AQV20191203010011012/03/19 01:00:31  5-MIN KAQV 030700Z AUTO 00000KT 10SM CLR 01/M01 A3013 180 92 -1400 000/00 RMK AO2 T00061006
03949KAQV AQV20191203010511012/03/19 01:05:31  5-MIN KAQV 030705Z AUTO 00000KT 10SM CLR 01/M01 A3013 180 92 -1400 000/00 RMK AO2 T00061006
03949KAQV AQV20191203011011012/03/19 01:10:31  5-MIN KAQV 030710Z AUTO 00000KT 10SM CLR 01/M01 A3013 180 92 -1400 000/00 RMK AO2 T00061006
03949KAQV AQV20191203011511012/03/19 01:15:31  5-MIN KAQV 030715Z AUTO 00000KT 10SM CLR 01/M01 A3013 180 92 -1400 000/00 RMK AO2 T00061006
03949KAQV AQV20191203012011012/03/19 01:20:31  5-MIN KAQV 030720Z AUTO 00000KT 10SM CLR 01/M01 A3013 180 92 -1400 000/00 RMK AO2 T00061006
03949KAQV AQV20191203012511012/03/19 01:25:31  5-MIN KAQV 030725Z AUTO 00000KT 10SM CLR 01/M01 A3013 180 92 -1400 000/00 RMK AO2 T00061006
03949KAQV AQV20191203013011012/03/19 01:30:31  5-MIN KAQV 030730Z AUTO 00000KT 10SM CLR 01/M01 A3013 190 92 -1400 000/00 RMK AO2 T00061006
03949KAQV AQV20191203013511012/03/19 01:35:31  5-MIN KAQV 030735Z AUTO 00000KT 10SM CLR 01/M01 A3013 190 92 -1400 000/00 RMK AO2 T00061006
03949KAQV AQV20191203014011012/03/19 01:40:31  5-MIN KAQV 030740Z AUTO 00000KT 10SM CLR 01/M01 A3013 190 92 -1400 000/00 RMK AO2 T00061006
03949KAQV AQV20191203014511012/03/19 01:45:31  5-MIN KAQV 030745Z AUTO 00000KT 10SM CLR 01/M01 A3012 190 92 -1400 000/00 RMK AO2 T00061006
03949KAQV AQV20191203015011012/03/19 01:50:31  5-MIN KAQV 030750Z AUTO 00000KT 10SM CLR 01/M01 A3012 190 92 -1400 000/00 RMK AO2 T00061006
03949KAQV AQV20191203015511712/03/19 01:55:31  5-MIN KAQV 030755Z AUTO 00000KT 10SM CLR 01/M01 A3012 190 92 -1400 000/00 RMK AO2 SLP202 T00061006
03949KAQV AQV20191203020011012/03/19 02:00:31  5-MIN KAQV 030800Z AUTO 00000KT 10SM CLR 01/M01 A3012 190 92 -1400 000/00 RMK AO2 T00061006
03949KAQV AQV20191203020511012/03/19 02:05:31  5-MIN KAQV 030805Z AUTO 00000KT 10SM CLR 00/M01 A3012 190 96 -1500 000/00 RMK AO2 T00001006
03949KAQV AQV20191203021011012/03/19 02:10:31  5-MIN KAQV 030810Z AUTO 00000KT 10SM CLR 00/M01 A3012 190 92 -1500 000/00 RMK AO2 T00001011
03949KAQV AQV20191203021511012/03/19 02:15:31  5-MIN KAQV 030815Z AUTO 00000KT 10SM CLR 00/M01 A3012 190 92 -1500 000/00 RMK AO2 T00001011
03949KAQV AQV20191203022011012/03/19 02:20:31  5-MIN KAQV 030820Z AUTO 00000KT 10SM CLR 00/M01 A3012 190 92 -1500 000/00 RMK AO2 T00001011
03949KAQV AQV20191203022511012/03/19 02:25:31  5-MIN KAQV 030825Z AUTO 00000KT 10SM CLR 00/M01 A3012 190 92 -1500 000/00 RMK AO2 T00001011
03949KAQV AQV20191203023011012/03/19 02:30:31  5-MIN KAQV 030830Z AUTO 00000KT 10SM CLR 00/M01 A3012 190 92 -1500 000/00 RMK AO2 T00001011
03949KAQV AQV20191203023511012/03/19 02:35:31  5-MIN KAQV 030835Z AUTO 00000KT 10SM CLR 00/M01 A3012 190 96 -1500 000/00 RMK AO2 T00001006
03949KAQV AQV20191203024011012/03/19 02:40:31  5-MIN KAQV 030840Z AUTO 00000KT 10SM CLR 00/M01 A3012 190 96 -1500 000/00 RMK AO2 T00001006
03949KAQV AQV20191203024511012/03/19 02:45:31  5-MIN KAQV 030845Z AUTO 00000KT 10SM CLR 00/M01 A3012 190 96 -1500 000/00 RMK AO2 T00001006
03949KAQV AQV20191203025011012/03/19 02:50:31  5-MIN KAQV 030850Z AUTO 00000KT 10SM CLR 00/M01 A3012 190 92 -1500 000/00 RMK AO2 T00001011
03949KAQV AQV20191203025512312/03/19 02:55:31  5-MIN KAQV 030855Z AUTO 00000KT 10SM CLR 00/M01 A3012 190 92 -1500 000/00 RMK AO2 SLP200 T00001011 58010
03949KAQV AQV20191203030011012/03/19 03:00:31  5-MIN KAQV 030900Z AUTO 00000KT 10SM CLR 01/M01 A3012 190 92 -1400 000/00 RMK AO2 T00061006
03949KAQV AQV20191203030511012/03/19 03:05:31  5-MIN KAQV 030905Z AUTO 00000KT 10SM CLR 01/M01 A3012 190 92 -1400 000/00 RMK AO2 T00061006
03949KAQV AQV20191203031011012/03/19 03:10:31  5-MIN KAQV 030910Z AUTO 00000KT 10SM CLR 01/M01 A3013 190 92 -1400 000/00 RMK AO2 T00061006
03949KAQV AQV20191203031511012/03/19 03:15:31  5-MIN KAQV 030915Z AUTO 00000KT 10SM CLR 01/M01 A3013 190 92 -1400 000/00 RMK AO2 T00061006
03949KAQV AQV20191203032011012/03/19 03:20:31  5-MIN KAQV 030920Z AUTO 00000KT 10SM CLR 01/M01 A3012 190 92 -1400 000/00 RMK AO2 T00061006
03949KAQV AQV20191203032511012/03/19 03:25:31  5-MIN KAQV 030925Z AUTO 00000KT 10SM CLR 01/M01 A3012 190 92 -1400 000/00 RMK AO2 T00061006
03949KAQV AQV20191203033011012/03/19 03:30:31  5-MIN KAQV 030930Z AUTO 00000KT 10SM CLR 01/M01 A3012 190 92 -1400 000/00 RMK AO2 T00061006
03949KAQV AQV20191203033511012/03/19 03:35:31  5-MIN KAQV 030935Z AUTO 00000KT 10SM CLR 01/M01 A3012 200 92 -1400 000/00 RMK AO2 T00061006
03949KAQV AQV20191203034011012/03/19 03:40:31  5-MIN KAQV 030940Z AUTO 00000KT 10SM CLR 01/M01 A3011 200 92 -1400 000/00 RMK AO2 T00061006
03949KAQV AQV20191203034511012/03/19 03:45:31  5-MIN KAQV 030945Z AUTO 00000KT 10SM CLR 00/M01 A3011 200 92 -1500 000/00 RMK AO2 T00001011
03949KAQV AQV20191203035011012/03/19 03:50:31  5-MIN KAQV 030950Z AUTO 00000KT 10SM CLR 00/M01 A3011 200 92 -1500 000/00 RMK AO2 T00001011
03949KAQV AQV20191203035511712/03/19 03:55:31  5-MIN KAQV 030955Z AUTO 00000KT 10SM CLR 00/M01 A3010 210 92 -1500 000/00 RMK AO2 SLP196 T00001011
03949KAQV AQV20191203040011012/03/19 04:00:31  5-MIN KAQV 031000Z AUTO 00000KT 10SM CLR 00/M01 A3010 210 92 -1500 000/00 RMK AO2 T00001011
03949KAQV AQV20191203040511012/03/19 04:05:31  5-MIN KAQV 031005Z AUTO 00000KT 10SM CLR 00/M01 A3010 210 92 -1500 000/00 RMK AO2 T00001011
03949KAQV AQV20191203041011012/03/19 04:10:31  5-MIN KAQV 031010Z AUTO 00000KT 10SM CLR 00/M01 A3010 210 92 -1500 000/00 RMK AO2 T00001011
03949KAQV AQV20191203041511012/03/19 04:15:31  5-MIN KAQV 031015Z AUTO 00000KT 10SM CLR 00/M01 A3010 210 92 -1500 000/00 RMK AO2 T00001011
03949KAQV AQV20191203042011012/03/19 04:20:31  5-MIN KAQV 031020Z AUTO 00000KT 10SM CLR 00/M01 A3010 210 92 -1500 000/00 RMK AO2 T00001011
03949KAQV AQV20191203042511012/03/19 04:25:31  5-MIN KAQV 031025Z AUTO 00000KT 10SM CLR 01/M01 A3010 210 89 -1400 000/00 RMK AO2 T00061011
03949KAQV AQV20191203043011012/03/19 04:30:31  5-MIN KAQV 031030Z AUTO 00000KT 10SM CLR 01/M01 A3010 210 92 -1400 000/00 RMK AO2 T00061006
03949KAQV AQV20191203043511012/03/19 04:35:31  5-MIN KAQV 031035Z AUTO 00000KT 10SM CLR 00/M01 A3011 210 92 -1500 000/00 RMK AO2 T00001011
03949KAQV AQV20191203044011012/03/19 04:40:31  5-MIN KAQV 031040Z AUTO 00000KT 10SM CLR 01/M01 A3011 210 89 -1400 000/00 RMK AO2 T00061011
03949KAQV AQV20191203044511012/03/19 04:45:31  5-MIN KAQV 031045Z AUTO 00000KT 10SM CLR 01/M01 A3010 210 92 -1400 000/00 RMK AO2 T00061006
03949KAQV AQV20191203045010912/03/19 04:50:31  5-MIN KAQV 031050Z AUTO 00000KT 9SM CLR 01/M01 A3010 210 92 -1400 000/00 RMK AO2 T00061006
03949KAQV AQV20191203045511612/03/19 04:55:31  5-MIN KAQV 031055Z AUTO 00000KT 9SM CLR 01/M01 A3010 210 92 -1400 000/00 RMK AO2 SLP193 T00061006
03949KAQV AQV20191203050010912/03/19 05:00:31  5-MIN KAQV 031100Z AUTO 00000KT 9SM CLR 01/M01 A3009 220 92 -1400 000/00 RMK AO2 T00061006
03949KAQV AQV20191203050510912/03/19 05:05:31  5-MIN KAQV 031105Z AUTO 00000KT 9SM CLR 01/M01 A3009 220 92 -1400 000/00 RMK AO2 T00061006
03949KAQV AQV20191203051010912/03/19 05:10:31  5-MIN KAQV 031110Z AUTO 00000KT 9SM CLR 01/M01 A3009 220 92 -1400 000/00 RMK AO2 T00061006
03949KAQV AQV20191203051510912/03/19 05:15:31  5-MIN KAQV 031115Z AUTO 00000KT 9SM CLR 01/M01 A3009 220 92 -1400 000/00 RMK AO2 T00061006
03949KAQV AQV20191203052011012/03/19 05:20:31  5-MIN KAQV 031120Z AUTO 00000KT 10SM CLR 01/M01 A3009 220 92 -1400 000/00 RMK AO2 T00061006
03949KAQV AQV20191203052511012/03/19 05:25:31  5-MIN KAQV 031125Z AUTO 00000KT 10SM CLR 01/M01 A3010 210 92 -1400 000/00 RMK AO2 T00061006
03949KAQV AQV20191203053011012/03/19 05:30:31  5-MIN KAQV 031130Z AUTO 00000KT 10SM CLR 01/M01 A3010 210 92 -1400 000/00 RMK AO2 T00061006
03949KAQV AQV20191203053511012/03/19 05:35:31  5-MIN KAQV 031135Z AUTO 00000KT 10SM CLR 01/M01 A3009 220 92 -1400 000/00 RMK AO2 T00061006
03949KAQV AQV20191203054011012/03/19 05:40:31  5-MIN KAQV 031140Z AUTO 00000KT 10SM CLR 01/M01 A3009 220 92 -1400 000/00 RMK AO2 T00061006
03949KAQV AQV20191203054510912/03/19 05:45:31  5-MIN KAQV 031145Z AUTO 00000KT 9SM CLR 01/M01 A3009 220 89 -1400 000/00 RMK AO2 T00061011
03949KAQV AQV20191203055010912/03/19 05:50:31  5-MIN KAQV 031150Z AUTO 00000KT 9SM CLR 01/M01 A3009 220 92 -1400 000/00 RMK AO2 T00061006
03949KAQV AQV20191203055513412/03/19 05:55:31  5-MIN KAQV 031155Z AUTO 00000KT 9SM CLR 01/M01 A3010 210 89 -1400 000/00 RMK AO2 SLP194 T00061011 10011 20000 56007
03949KAQV AQV20191203060011012/03/19 06:00:31  5-MIN KAQV 031200Z AUTO 00000KT 10SM CLR 01/M01 A3010 210 92 -1400 000/00 RMK AO2 T00061006
03949KAQV AQV20191203060511012/03/19 06:05:31  5-MIN KAQV 031205Z AUTO 00000KT 10SM CLR 01/M01 A3010 210 92 -1400 000/00 RMK AO2 T00061006
03949KAQV AQV20191203061011012/03/19 06:10:31  5-MIN KAQV 031210Z AUTO 00000KT 10SM CLR 01/M01 A3010 210 89 -1400 000/00 RMK AO2 T00061011
03949KAQV AQV20191203061511012/03/19 06:15:31  5-MIN KAQV 031215Z AUTO 00000KT 10SM CLR 01/M01 A3009 220 92 -1400 000/00 RMK AO2 T00061006
03949KAQV AQV20191203062010912/03/19 06:20:31  5-MIN KAQV 031220Z AUTO 00000KT 9SM CLR 01/M01 A3009 220 89 -1400 000/00 RMK AO2 T00061011
03949KAQV AQV20191203062511012/03/19 06:25:31  5-MIN KAQV 031225Z AUTO 00000KT 10SM CLR 01/M01 A3009 220 89 -1400 000/00 RMK AO2 T00061011
03949KAQV AQV20191203063011012/03/19 06:30:31  5-MIN KAQV 031230Z AUTO 00000KT 10SM CLR 01/M01 A3010 210 89 -1400 000/00 RMK AO2 T00061011
03949KAQV AQV20191203063511012/03/19 06:35:31  5-MIN KAQV 031235Z AUTO 00000KT 10SM CLR 00/M01 A3010 210 92 -1500 000/00 RMK AO2 T00001011
03949KAQV AQV20191203064011012/03/19 06:40:31  5-MIN KAQV 031240Z AUTO 00000KT 10SM CLR 00/M01 A3010 210 92 -1500 000/00 RMK AO2 T00001011
03949KAQV AQV20191203064511012/03/19 06:45:31  5-MIN KAQV 031245Z AUTO 00000KT 10SM CLR 00/M01 A3010 210 92 -1500 000/00 RMK AO2 T00001011
03949KAQV AQV20191203065010912/03/19 06:50:31  5-MIN KAQV 031250Z AUTO 00000KT 9SM CLR 00/M01 A3010 210 92 -1500 000/00 RMK AO2 T00001011
03949KAQV AQV20191203065511712/03/19 06:55:31  5-MIN KAQV 031255Z AUTO 00000KT 10SM CLR 00/M01 A3010 210 92 -1500 000/00 RMK AO2 SLP196 T00001011
03949KAQV AQV20191203070011012/03/19 07:00:31  5-MIN KAQV 031300Z AUTO 00000KT 10SM CLR 00/M01 A3009 220 92 -1500 000/00 RMK AO2 T00001011
03949KAQV AQV20191203070511012/03/19 07:05:31  5-MIN KAQV 031305Z AUTO 00000KT 10SM CLR 00/M01 A3009 220 92 -1500 000/00 RMK AO2 T00001011
03949KAQV AQV20191203071011012/03/19 07:10:31  5-MIN KAQV 031310Z AUTO 16003KT 10SM CLR 01/M01 A3008 220 89 -1400 150/03 RMK AO2 T00061011
03949KAQV AQV20191203071511012/03/19 07:15:31  5-MIN KAQV 031315Z AUTO 00000KT 10SM CLR 01/M01 A3008 230 89 -1400 000/00 RMK AO2 T00061011
03949KAQV AQV20191203072011012/03/19 07:20:31  5-MIN KAQV 031320Z AUTO 00000KT 10SM CLR 01/M01 A3008 230 92 -1400 000/00 RMK AO2 T00061006
03949KAQV AQV20191203072511012/03/19 07:25:31  5-MIN KAQV 031325Z AUTO 00000KT 10SM CLR 01/M01 A3008 230 89 -1300 000/00 RMK AO2 T00111006
03949KAQV AQV20191203073010912/03/19 07:30:31  5-MIN KAQV 031330Z AUTO 00000KT 10SM CLR 01/00 A3008 230 92 -1300 000/00 RMK AO2 T00110000
03949KAQV AQV20191203073510912/03/19 07:35:31  5-MIN KAQV 031335Z AUTO 00000KT 10SM CLR 01/00 A3008 230 92 -1300 000/00 RMK AO2 T00110000
03949KAQV AQV20191203074010912/03/19 07:40:31  5-MIN KAQV 031340Z AUTO 00000KT 10SM CLR 01/00 A3008 230 92 -1300 000/00 RMK AO2 T00110000
03949KAQV AQV20191203074510912/03/19 07:45:31  5-MIN KAQV 031345Z AUTO 17003KT 10SM CLR 02/00 A3008 230 89 -1300 170/03 RMK AO2 T00170000
03949KAQV AQV20191203075010912/03/19 07:50:31  5-MIN KAQV 031350Z AUTO 00000KT 10SM CLR 02/01 A3009 220 89 -1200 000/00 RMK AO2 T00220006
03949KAQV AQV20191203075511612/03/19 07:55:31  5-MIN KAQV 031355Z AUTO VRB03KT 10SM CLR 03/01 A3008 220 85 -1100 VRB/03 RMK AO2 SLP191 T00280006
03949KAQV AQV20191203080010912/03/19 08:00:31  5-MIN KAQV 031400Z AUTO 00000KT 10SM CLR 03/01 A3008 230 89 -1100 000/00 RMK AO2 T00280011
03949KAQV AQV20191203080510912/03/19 08:05:31  5-MIN KAQV 031405Z AUTO 17003KT 10SM CLR 03/01 A3008 230 85 -1000 160/03 RMK AO2 T00330011
03949KAQV AQV20191203081010912/03/19 08:10:31  5-MIN KAQV 031410Z AUTO 18003KT 10SM CLR 03/02 A3008 230 89 -1000 170/03 RMK AO2 T00330017
03949KAQV AQV20191203081510812/03/19 08:15:31  5-MIN KAQV 031415Z AUTO 00000KT 10SM CLR 04/02 A3008 230 82 -900 000/00 RMK AO2 T00440017
03949KAQV AQV20191203082010812/03/19 08:20:31  5-MIN KAQV 031420Z AUTO VRB03KT 10SM CLR 04/02 A3008 230 82 -900 VRB/03 RMK AO2 T00440017
03949KAQV AQV20191203082510812/03/19 08:25:31  5-MIN KAQV 031425Z AUTO 18003KT 10SM CLR 05/02 A3009 220 79 -800 180/03 RMK AO2 T00500017
03949KAQV AQV20191203083010812/03/19 08:30:31  5-MIN KAQV 031430Z AUTO 18004KT 10SM CLR 06/02 A3009 220 76 -800 180/04 RMK AO2 T00560017
03949KAQV AQV20191203083510812/03/19 08:35:31  5-MIN KAQV 031435Z AUTO 19004KT 10SM CLR 06/02 A3009 220 76 -800 180/04 RMK AO2 T00560017
03949KAQV AQV20191203084010812/03/19 08:40:31  5-MIN KAQV 031440Z AUTO 19004KT 10SM CLR 06/02 A3008 220 79 -800 180/04 RMK AO2 T00560022
03949KAQV AQV20191203084510812/03/19 08:45:31  5-MIN KAQV 031445Z AUTO 18003KT 10SM CLR 06/02 A3008 220 76 -700 180/03 RMK AO2 T00610022
03949KAQV AQV20191203085010812/03/19 08:50:31  5-MIN KAQV 031450Z AUTO 18004KT 10SM CLR 06/02 A3008 230 76 -700 170/04 RMK AO2 T00610022
03949KAQV AQV20191203085512112/03/19 08:55:31  5-MIN KAQV 031455Z AUTO VRB04KT 10SM CLR 06/02 A3008 230 73 -700 VRB/04 RMK AO2 SLP188 T00610017 55006
03949KAQV AQV20191203090010812/03/19 09:00:31  5-MIN KAQV 031500Z AUTO 00000KT 10SM CLR 07/02 A3008 230 73 -600 000/00 RMK AO2 T00670022
03949KAQV AQV20191203090510812/03/19 09:05:31  5-MIN KAQV 031505Z AUTO 18004KT 10SM CLR 07/02 A3008 230 70 -600 180/04 RMK AO2 T00670017
03949KAQV AQV20191203091010812/03/19 09:10:31  5-MIN KAQV 031510Z AUTO 18005KT 10SM CLR 07/02 A3008 230 68 -600 170/05 RMK AO2 T00720017
03949KAQV AQV20191203091510812/03/19 09:15:31  5-MIN KAQV 031515Z AUTO VRB04KT 10SM CLR 07/02 A3007 230 68 -600 VRB/04 RMK AO2 T00720017
03949KAQV AQV20191203092010812/03/19 09:20:31  5-MIN KAQV 031520Z AUTO 18003KT 10SM CLR 08/02 A3007 230 68 -500 180/03 RMK AO2 T00780022
03949KAQV AQV20191203092510812/03/19 09:25:31  5-MIN KAQV 031525Z AUTO VRB04KT 10SM CLR 08/02 A3008 230 65 -400 VRB/04 RMK AO2 T00830022
03949KAQV AQV20191203093010812/03/19 09:30:31  5-MIN KAQV 031530Z AUTO 18004KT 10SM CLR 08/02 A3008 230 65 -400 180/04 RMK AO2 T00830022
03949KAQV AQV20191203093510812/03/19 09:35:31  5-MIN KAQV 031535Z AUTO 19004KT 10SM CLR 08/02 A3008 230 65 -400 190/04 RMK AO2 T00830022
03949KAQV AQV20191203094010812/03/19 09:40:31  5-MIN KAQV 031540Z AUTO VRB03KT 10SM CLR 08/02 A3008 230 65 -400 VRB/03 RMK AO2 T00830022
03949KAQV AQV20191203094510812/03/19 09:45:31  5-MIN KAQV 031545Z AUTO 18005KT 10SM CLR 09/03 A3008 230 65 -400 170/05 RMK AO2 T00890028
03949KAQV AQV20191203095010812/03/19 09:50:31  5-MIN KAQV 031550Z AUTO 17003KT 10SM CLR 09/03 A3008 230 63 -300 170/03 RMK AO2 T00940028
03949KAQV AQV20191203095511512/03/19 09:55:31  5-MIN KAQV 031555Z AUTO VRB04KT 10SM CLR 09/03 A3008 230 63 -300 VRB/04 RMK AO2 SLP188 T00940028
03949KAQV AQV20191203100010812/03/19 10:00:31  5-MIN KAQV 031600Z AUTO VRB04KT 10SM CLR 09/02 A3008 230 60 -300 VRB/04 RMK AO2 T00940022
03949KAQV AQV20191203100510812/03/19 10:05:31  5-MIN KAQV 031605Z AUTO 21005KT 10SM CLR 10/02 A3008 230 58 -200 200/05 RMK AO2 T01000022
03949KAQV AQV20191203101010812/03/19 10:10:31  5-MIN KAQV 031610Z AUTO VRB04KT 10SM CLR 11/03 A3007 230 58 -200 VRB/04 RMK AO2 T01060028
03949KAQV AQV20191203101509812/03/19 10:15:31  5-MIN KAQV 031615Z AUTO 10SM CLR 11/02 A3007 240 56 -100 M /M RMK AO2 T01060022
03949KAQV AQV20191203102010812/03/19 10:20:31  5-MIN KAQV 031620Z AUTO VRB05KT 10SM CLR 11/02 A3007 240 56 -100 VRB/05 RMK AO2 T01060022
03949KAQV AQV20191203102510812/03/19 10:25:31  5-MIN KAQV 031625Z AUTO VRB05KT 10SM CLR 11/02 A3007 240 54 -100 VRB/05 RMK AO2 T01110022
03949KAQV AQV20191203103010812/03/19 10:30:31  5-MIN KAQV 031630Z AUTO VRB05KT 10SM CLR 11/02 A3007 240 54 -100 VRB/05 RMK AO2 T01110022
03949KAQV AQV20191203103510512/03/19 10:35:31  5-MIN KAQV 031635Z AUTO VRB04KT 10SM CLR 12/02 A3006 250 52 0 VRB/04 RMK AO2 T01170022
03949KAQV AQV20191203104010512/03/19 10:40:31  5-MIN KAQV 031640Z AUTO VRB06KT 10SM CLR 12/02 A3006 250 52 0 VRB/06 RMK AO2 T01170022
03949KAQV AQV20191203104510512/03/19 10:45:31  5-MIN KAQV 031645Z AUTO 17004KT 10SM CLR 12/02 A3006 250 52 0 170/04 RMK AO2 T01170022
03949KAQV AQV20191203105010712/03/19 10:50:31  5-MIN KAQV 031650Z AUTO VRB04KT 10SM CLR 13/02 A3006 250 48 100 VRB/04 RMK AO2 T01280022
03949KAQV AQV20191203105511412/03/19 10:55:31  5-MIN KAQV 031655Z AUTO VRB03KT 10SM CLR 13/02 A3005 250 48 100 VRB/03 RMK AO2 SLP179 T01280022
03949KAQV AQV20191203110010712/03/19 11:00:31  5-MIN KAQV 031700Z AUTO 17005KT 10SM CLR 13/02 A3005 250 48 100 160/05 RMK AO2 T01280022
03949KAQV AQV20191203110510712/03/19 11:05:31  5-MIN KAQV 031705Z AUTO VRB04KT 10SM CLR 14/03 A3006 250 47 200 VRB/04 RMK AO2 T01390028
03949KAQV AQV20191203111010712/03/19 11:10:31  5-MIN KAQV 031710Z AUTO VRB03KT 10SM CLR 13/02 A3006 250 46 100 VRB/03 RMK AO2 T01330022
03949KAQV AQV20191203111510712/03/19 11:15:31  5-MIN KAQV 031715Z AUTO 19004KT 10SM CLR 14/02 A3005 250 45 200 190/04 RMK AO2 T01390022
03949KAQV AQV20191203112010712/03/19 11:20:31  5-MIN KAQV 031720Z AUTO VRB04KT 10SM CLR 14/02 A3005 260 45 200 VRB/04 RMK AO2 T01390022
03949KAQV AQV20191203112510712/03/19 11:25:31  5-MIN KAQV 031725Z AUTO VRB04KT 10SM CLR 14/02 A3004 260 45 200 VRB/04 RMK AO2 T01390022
03949KAQV AQV20191203113010712/03/19 11:30:31  5-MIN KAQV 031730Z AUTO VRB04KT 10SM CLR 14/02 A3004 270 41 300 VRB/04 RMK AO2 T01440017
03949KAQV AQV20191203113510712/03/19 11:35:31  5-MIN KAQV 031735Z AUTO VRB05KT 10SM CLR 14/02 A3003 270 43 300 VRB/05 RMK AO2 T01440022
03949KAQV AQV20191203114011412/03/19 11:40:31  5-MIN KAQV 031740Z AUTO VRB06KT 10SM CLR 14/02 A3002 280 43 300 VRB/06 RMK AO2 PRESFR T01440022
03949KAQV AQV20191203114511412/03/19 11:45:31  5-MIN KAQV 031745Z AUTO 00000KT 10SM CLR 14/02 A3002 280 43 300 000/00 RMK AO2 PRESFR T01440022
03949KAQV AQV20191203115009712/03/19 11:50:31  5-MIN KAQV 031750Z AUTO 10SM CLR 15/02 A3001 290 42 400 M /M RMK AO2 T01500022
03949KAQV AQV20191203115513212/03/19 11:55:31  5-MIN KAQV 031755Z AUTO VRB04KT 10SM CLR 14/02 A3001 290 41 300 VRB/04 RMK AO2 SLP164 T01440017 10156 20000 58008
03949KAQV AQV20191203120009712/03/19 12:00:31  5-MIN KAQV 031800Z AUTO 10SM CLR 15/02 A3000 300 42 400 M /M RMK AO2 T01500022
03949KAQV AQV20191203120511412/03/19 12:05:31  5-MIN KAQV 031805Z AUTO 22005KT 10SM CLR 15/02 A3000 300 42 400 220/05 RMK AO2 PRESFR T01500022
03949KAQV AQV20191203121010712/03/19 12:10:31  5-MIN KAQV 031810Z AUTO VRB05KT 10SM CLR 16/02 A2999 310 40 500 VRB/05 RMK AO2 T01560022
03949KAQV AQV20191203121511412/03/19 12:15:31  5-MIN KAQV 031815Z AUTO VRB05KT 10SM CLR 16/02 A2999 320 40 500 VRB/05 RMK AO2 PRESFR T01560022
03949KAQV AQV20191203122010712/03/19 12:20:31  5-MIN KAQV 031820Z AUTO VRB06KT 10SM CLR 16/02 A2999 310 40 500 VRB/06 RMK AO2 T01560022
03949KAQV AQV20191203122510712/03/19 12:25:31  5-MIN KAQV 031825Z AUTO 24005KT 10SM CLR 15/02 A2999 310 42 400 230/05 RMK AO2 T01500022
03949KAQV AQV20191203123010712/03/19 12:30:31  5-MIN KAQV 031830Z AUTO VRB03KT 10SM CLR 16/02 A2999 310 40 500 VRB/03 RMK AO2 T01560022
03949KAQV AQV20191203123510712/03/19 12:35:31  5-MIN KAQV 031835Z AUTO VRB04KT 10SM CLR 16/02 A2999 310 39 600 VRB/04 RMK AO2 T01610022
03949KAQV AQV20191203124010712/03/19 12:40:31  5-MIN KAQV 031840Z AUTO 00000KT 10SM CLR 16/02 A2999 320 39 600 000/00 RMK AO2 T01610022
03949KAQV AQV20191203124509712/03/19 12:45:31  5-MIN KAQV 031845Z AUTO 10SM CLR 16/02 A2998 320 39 600 M /M RMK AO2 T01610022
03949KAQV AQV20191203125010712/03/19 12:50:31  5-MIN KAQV 031850Z AUTO 25004KT 10SM CLR 16/02 A2998 320 39 600 250/04 RMK AO2 T01610022
03949KAQV AQV20191203125510412/03/19 12:55:31  5-MIN KAQV 031855Z AUTO 10SM CLR 17/02 A2998 320 37 600 M /M RMK AO2 SLP154 T01670022
03949KAQV AQV20191203130010712/03/19 13:00:31  5-MIN KAQV 031900Z AUTO 25005KT 10SM CLR 16/02 A2997 330 37 600 250/05 RMK AO2 T01610017
03949KAQV AQV20191203130510712/03/19 13:05:31  5-MIN KAQV 031905Z AUTO VRB03KT 10SM CLR 17/02 A2997 330 37 600 VRB/03 RMK AO2 T01670022
03949KAQV AQV20191203131010712/03/19 13:10:31  5-MIN KAQV 031910Z AUTO 23005KT 10SM CLR 16/02 A2997 330 39 600 220/05 RMK AO2 T01610022
03949KAQV AQV20191203131510712/03/19 13:15:31  5-MIN KAQV 031915Z AUTO 23005KT 10SM CLR 16/02 A2997 330 39 600 220/05 RMK AO2 T01610022
03949KAQV AQV20191203132010712/03/19 13:20:31  5-MIN KAQV 031920Z AUTO VRB05KT 10SM CLR 16/02 A2996 340 39 600 VRB/05 RMK AO2 T01610022
03949KAQV AQV20191203132510712/03/19 13:25:31  5-MIN KAQV 031925Z AUTO VRB04KT 10SM CLR 17/02 A2996 340 37 700 VRB/04 RMK AO2 T01670022
03949KAQV AQV20191203133010712/03/19 13:30:31  5-MIN KAQV 031930Z AUTO VRB06KT 10SM CLR 16/02 A2996 340 39 600 VRB/06 RMK AO2 T01610022
03949KAQV AQV20191203133510712/03/19 13:35:31  5-MIN KAQV 031935Z AUTO VRB03KT 10SM CLR 17/03 A2996 340 39 700 VRB/03 RMK AO2 T01670028
03949KAQV AQV20191203134009712/03/19 13:40:31  5-MIN KAQV 031940Z AUTO 10SM CLR 17/03 A2995 350 37 700 M /M RMK AO2 T01720028
03949KAQV AQV20191203134510712/03/19 13:45:31  5-MIN KAQV 031945Z AUTO VRB05KT 10SM CLR 17/03 A2995 350 39 700 VRB/05 RMK AO2 T01670028
03949KAQV AQV20191203135010712/03/19 13:50:31  5-MIN KAQV 031950Z AUTO VRB06KT 10SM CLR 17/03 A2995 350 39 700 VRB/06 RMK AO2 T01670028
03949KAQV AQV20191203135511412/03/19 13:55:31  5-MIN KAQV 031955Z AUTO VRB04KT 10SM CLR 17/03 A2994 360 37 700 VRB/04 RMK AO2 SLP139 T01720028
03949KAQV AQV20191203140010712/03/19 14:00:31  5-MIN KAQV 032000Z AUTO VRB05KT 10SM CLR 17/03 A2994 360 37 700 VRB/05 RMK AO2 T01720028
03949KAQV AQV20191203140510712/03/19 14:05:31  5-MIN KAQV 032005Z AUTO VRB04KT 10SM CLR 17/03 A2993 360 37 800 VRB/04 RMK AO2 T01720028
03949KAQV AQV20191203141010712/03/19 14:10:31  5-MIN KAQV 032010Z AUTO VRB04KT 10SM CLR 17/03 A2993 360 37 800 VRB/04 RMK AO2 T01720028
03949KAQV AQV20191203141510712/03/19 14:15:31  5-MIN KAQV 032015Z AUTO 21005KT 10SM CLR 17/03 A2993 370 37 800 210/05 RMK AO2 T01720028
03949KAQV AQV20191203142010712/03/19 14:20:31  5-MIN KAQV 032020Z AUTO VRB04KT 10SM CLR 18/03 A2993 360 36 800 VRB/04 RMK AO2 T01780028
03949KAQV AQV20191203142510712/03/19 14:25:31  5-MIN KAQV 032025Z AUTO 20005KT 10SM CLR 17/03 A2994 360 37 700 200/05 RMK AO2 T01720028
03949KAQV AQV20191203143010712/03/19 14:30:31  5-MIN KAQV 032030Z AUTO VRB05KT 10SM CLR 17/03 A2994 360 37 700 VRB/05 RMK AO2 T01720028
03949KAQV AQV20191203143510712/03/19 14:35:31  5-MIN KAQV 032035Z AUTO VRB04KT 10SM CLR 17/02 A2993 370 36 800 VRB/04 RMK AO2 T01720022
03949KAQV AQV20191203144010712/03/19 14:40:31  5-MIN KAQV 032040Z AUTO VRB05KT 10SM CLR 17/03 A2993 370 37 800 VRB/05 RMK AO2 T01720028
03949KAQV AQV20191203144510712/03/19 14:45:31  5-MIN KAQV 032045Z AUTO VRB04KT 10SM CLR 18/03 A2993 370 38 800 VRB/04 RMK AO2 T01780033
03949KAQV AQV20191203145010712/03/19 14:50:31  5-MIN KAQV 032050Z AUTO VRB06KT 10SM CLR 17/03 A2992 370 37 800 VRB/06 RMK AO2 T01720028
03949KAQV AQV20191203145512012/03/19 14:55:31  5-MIN KAQV 032055Z AUTO VRB05KT 10SM CLR 17/03 A2992 380 37 800 VRB/05 RMK AO2 SLP133 T01720028 58023
03949KAQV AQV20191203150010712/03/19 15:00:31  5-MIN KAQV 032100Z AUTO VRB03KT 10SM CLR 17/03 A2992 380 37 800 VRB/03 RMK AO2 T01720028
03949KAQV AQV20191203150510712/03/19 15:05:31  5-MIN KAQV 032105Z AUTO VRB03KT 10SM CLR 17/03 A2992 380 37 800 VRB/03 RMK AO2 T01720028
03949KAQV AQV20191203151010712/03/19 15:10:31  5-MIN KAQV 032110Z AUTO VRB05KT 10SM CLR 18/03 A2992 380 36 800 VRB/05 RMK AO2 T01780028
03949KAQV AQV20191203151510712/03/19 15:15:31  5-MIN KAQV 032115Z AUTO 23005KT 10SM CLR 17/03 A2993 370 37 800 230/05 RMK AO2 T01720028
03949KAQV AQV20191203152010612/03/19 15:20:31  5-MIN KAQV 032120Z AUTO 20004KT 9SM CLR 17/03 A2993 370 37 800 200/04 RMK AO2 T01720028
03949KAQV AQV20191203152510612/03/19 15:25:31  5-MIN KAQV 032125Z AUTO VRB04KT 9SM CLR 17/03 A2993 370 39 800 VRB/04 RMK AO2 T01720033
03949KAQV AQV20191203153010712/03/19 15:30:31  5-MIN KAQV 032130Z AUTO VRB03KT 10SM CLR 17/03 A2993 360 37 800 VRB/03 RMK AO2 T01720028
03949KAQV AQV20191203153510712/03/19 15:35:31  5-MIN KAQV 032135Z AUTO 00000KT 10SM CLR 17/03 A2993 360 39 800 000/00 RMK AO2 T01720033
03949KAQV AQV20191203154010712/03/19 15:40:31  5-MIN KAQV 032140Z AUTO VRB03KT 10SM CLR 17/03 A2993 360 39 700 VRB/03 RMK AO2 T01720033
03949KAQV AQV20191203154510712/03/19 15:45:31  5-MIN KAQV 032145Z AUTO VRB03KT 10SM CLR 17/03 A2993 360 39 800 VRB/03 RMK AO2 T01720033
03949KAQV AQV20191203155010712/03/19 15:50:31  5-MIN KAQV 032150Z AUTO 23004KT 10SM CLR 17/03 A2994 360 39 700 230/04 RMK AO2 T01720033
03949KAQV AQV20191203155511412/03/19 15:55:31  5-MIN KAQV 032155Z AUTO 00000KT 10SM CLR 17/03 A2994 360 40 700 000/00 RMK AO2 SLP140 T01670033
03949KAQV AQV20191203160010712/03/19 16:00:31  5-MIN KAQV 032200Z AUTO VRB03KT 10SM CLR 17/03 A2994 360 40 700 VRB/03 RMK AO2 T01670033
03949KAQV AQV20191203160510712/03/19 16:05:31  5-MIN KAQV 032205Z AUTO VRB03KT 10SM CLR 17/03 A2994 360 40 700 VRB/03 RMK AO2 T01670033
03949KAQV AQV20191203161010712/03/19 16:10:31  5-MIN KAQV 032210Z AUTO VRB03KT 10SM CLR 17/04 A2993 360 42 700 VRB/03 RMK AO2 T01670039
03949KAQV AQV20191203161510712/03/19 16:15:31  5-MIN KAQV 032215Z AUTO VRB04KT 10SM CLR 16/04 A2993 360 44 600 VRB/04 RMK AO2 T01610039
03949KAQV AQV20191203162010712/03/19 16:20:31  5-MIN KAQV 032220Z AUTO VRB04KT 10SM CLR 16/04 A2993 360 44 600 VRB/04 RMK AO2 T01610039
03949KAQV AQV20191203162510712/03/19 16:25:31  5-MIN KAQV 032225Z AUTO 00000KT 10SM CLR 16/04 A2993 360 45 600 000/00 RMK AO2 T01560039
03949KAQV AQV20191203163010712/03/19 16:30:31  5-MIN KAQV 032230Z AUTO 00000KT 10SM CLR 16/04 A2993 360 45 600 000/00 RMK AO2 T01560039
03949KAQV AQV20191203163510712/03/19 16:35:31  5-MIN KAQV 032235Z AUTO 00000KT 10SM CLR 15/04 A2994 360 49 500 000/00 RMK AO2 T01500044
03949KAQV AQV20191203164010712/03/19 16:40:31  5-MIN KAQV 032240Z AUTO 00000KT 10SM CLR 15/04 A2994 360 47 500 000/00 RMK AO2 T01500039
03949KAQV AQV20191203164510612/03/19 16:45:31  5-MIN KAQV 032245Z AUTO 00000KT 9SM CLR 14/04 A2994 360 51 400 000/00 RMK AO2 T01440044
03949KAQV AQV20191203165010612/03/19 16:50:31  5-MIN KAQV 032250Z AUTO 00000KT 9SM CLR 14/04 A2993 360 52 400 000/00 RMK AO2 T01390044
03949KAQV AQV20191203165511412/03/19 16:55:31  5-MIN KAQV 032255Z AUTO 00000KT 10SM CLR 13/05 A2993 360 57 300 000/00 RMK AO2 SLP138 T01330050
03949KAQV AQV20191203170010712/03/19 17:00:31  5-MIN KAQV 032300Z AUTO 00000KT 10SM CLR 13/05 A2993 360 59 200 000/00 RMK AO2 T01280050
03949KAQV AQV20191203170510712/03/19 17:05:31  5-MIN KAQV 032305Z AUTO 00000KT 10SM CLR 13/05 A2993 370 59 200 000/00 RMK AO2 T01280050
03949KAQV AQV20191203171010712/03/19 17:10:31  5-MIN KAQV 032310Z AUTO 00000KT 10SM CLR 12/06 A2993 370 66 100 000/00 RMK AO2 T01170056
03949KAQV AQV20191203171510712/03/19 17:15:31  5-MIN KAQV 032315Z AUTO 00000KT 10SM CLR 12/06 A2993 370 66 100 000/00 RMK AO2 T01170056
03949KAQV AQV20191203172010512/03/19 17:20:31  5-MIN KAQV 032320Z AUTO 00000KT 10SM CLR 11/05 A2993 360 66 0 000/00 RMK AO2 T01110050
03949KAQV AQV20191203172510512/03/19 17:25:31  5-MIN KAQV 032325Z AUTO 00000KT 10SM CLR 11/06 A2994 360 68 0 000/00 RMK AO2 T01110056
03949KAQV AQV20191203173010512/03/19 17:30:31  5-MIN KAQV 032330Z AUTO 00000KT 10SM CLR 11/06 A2994 360 71 0 000/00 RMK AO2 T01060056
03949KAQV AQV20191203173510512/03/19 17:35:31  5-MIN KAQV 032335Z AUTO 00000KT 10SM CLR 11/06 A2994 360 71 0 000/00 RMK AO2 T01060056
03949KAQV AQV20191203174010812/03/19 17:40:31  5-MIN KAQV 032340Z AUTO 00000KT 10SM CLR 10/06 A2994 360 74 -100 000/00 RMK AO2 T01000056
03949KAQV AQV20191203174510812/03/19 17:45:31  5-MIN KAQV 032345Z AUTO 00000KT 10SM CLR 10/06 A2995 350 74 -100 000/00 RMK AO2 T01000056
03949KAQV AQV20191203175010812/03/19 17:50:31  5-MIN KAQV 032350Z AUTO 00000KT 10SM CLR 10/06 A2995 350 74 -100 000/00 RMK AO2 T01000056
03949KAQV AQV20191203175513312/03/19 17:55:31  5-MIN KAQV 032355Z AUTO 00000KT 10SM CLR 10/06 A2994 360 74 -100 000/00 RMK AO2 SLP142 T01000056 10178 20100 56030
03949KAQV AQV20191203180010812/03/19 18:00:31  5-MIN KAQV 040000Z AUTO 00000KT 10SM CLR 09/06 A2995 350 79 -200 000/00 RMK AO2 T00890056
03949KAQV AQV20191203180510812/03/19 18:05:31  5-MIN KAQV 040005Z AUTO 00000KT 10SM CLR 09/05 A2995 350 76 -200 000/00 RMK AO2 T00890050
03949KAQV AQV20191203181010812/03/19 18:10:31  5-MIN KAQV 040010Z AUTO 00000KT 10SM CLR 09/05 A2995 350 76 -200 000/00 RMK AO2 T00890050
03949KAQV AQV20191203181510812/03/19 18:15:31  5-MIN KAQV 040015Z AUTO 00000KT 10SM CLR 09/05 A2995 340 74 -100 000/00 RMK AO2 T00940050
03949KAQV AQV20191203182010812/03/19 18:20:31  5-MIN KAQV 040020Z AUTO 00000KT 10SM CLR 09/05 A2995 350 74 -100 000/00 RMK AO2 T00940050
03949KAQV AQV20191203182510812/03/19 18:25:31  5-MIN KAQV 040025Z AUTO 00000KT 10SM CLR 09/06 A2995 350 79 -200 000/00 RMK AO2 T00890056
03949KAQV AQV20191203183010812/03/19 18:30:31  5-MIN KAQV 040030Z AUTO 00000KT 10SM CLR 08/06 A2995 350 82 -300 000/00 RMK AO2 T00830056
03949KAQV AQV20191203183510812/03/19 18:35:31  5-MIN KAQV 040035Z AUTO 00000KT 10SM CLR 09/06 A2996 340 79 -200 000/00 RMK AO2 T00890056
03949KAQV AQV20191203184010812/03/19 18:40:31  5-MIN KAQV 040040Z AUTO 00000KT 10SM CLR 08/06 A2996 340 82 -300 000/00 RMK AO2 T00830056
03949KAQV AQV20191203184510812/03/19 18:45:31  5-MIN KAQV 040045Z AUTO 00000KT 10SM CLR 08/05 A2996 340 79 -300 000/00 RMK AO2 T00830050
03949KAQV AQV20191203185010812/03/19 18:50:31  5-MIN KAQV 040050Z AUTO 00000KT 10SM CLR 08/05 A2996 340 82 -400 000/00 RMK AO2 T00780050
03949KAQV AQV20191203185511512/03/19 18:55:31  5-MIN KAQV 040055Z AUTO 00000KT 10SM CLR 08/05 A2996 340 82 -400 000/00 RMK AO2 SLP148 T00780050
03949KAQV AQV20191203190010812/03/19 19:00:31  5-MIN KAQV 040100Z AUTO 00000KT 10SM CLR 08/05 A2996 340 82 -400 000/00 RMK AO2 T00780050
03949KAQV AQV20191203190510812/03/19 19:05:31  5-MIN KAQV 040105Z AUTO 00000KT 10SM CLR 08/05 A2996 340 82 -400 000/00 RMK AO2 T00780050
03949KAQV AQV20191203191010812/03/19 19:10:31  5-MIN KAQV 040110Z AUTO 00000KT 10SM CLR 08/05 A2995 350 82 -300 000/00 RMK AO2 T00780050
03949KAQV AQV20191203191510812/03/19 19:15:31  5-MIN KAQV 040115Z AUTO 00000KT 10SM CLR 08/05 A2995 350 82 -400 000/00 RMK AO2 T00780050
03949KAQV AQV20191203192010812/03/19 19:20:31  5-MIN KAQV 040120Z AUTO 00000KT 10SM CLR 08/05 A2996 340 82 -400 000/00 RMK AO2 T00780050
03949KAQV AQV20191203192510812/03/19 19:25:31  5-MIN KAQV 040125Z AUTO 00000KT 10SM CLR 08/05 A2996 340 82 -400 000/00 RMK AO2 T00780050
03949KAQV AQV20191203193010812/03/19 19:30:31  5-MIN KAQV 040130Z AUTO 00000KT 10SM CLR 08/05 A2996 340 82 -400 000/00 RMK AO2 T00780050
03949KAQV AQV20191203193510812/03/19 19:35:31  5-MIN KAQV 040135Z AUTO 00000KT 10SM CLR 07/05 A2996 340 86 -400 000/00 RMK AO2 T00720050
03949KAQV AQV20191203194010812/03/19 19:40:31  5-MIN KAQV 040140Z AUTO 00000KT 10SM CLR 07/05 A2996 340 86 -400 000/00 RMK AO2 T00720050
03949KAQV AQV20191203194510812/03/19 19:45:31  5-MIN KAQV 040145Z AUTO 00000KT 10SM CLR 07/05 A2996 340 86 -400 000/00 RMK AO2 T00720050
03949KAQV AQV20191203195010812/03/19 19:50:31  5-MIN KAQV 040150Z AUTO 00000KT 10SM CLR 07/05 A2996 340 86 -400 000/00 RMK AO2 T00720050
03949KAQV AQV20191203195511512/03/19 19:55:31  5-MIN KAQV 040155Z AUTO 00000KT 10SM CLR 07/05 A2997 330 86 -400 000/00 RMK AO2 SLP150 T00720050
03949KAQV AQV20191203200010812/03/19 20:00:31  5-MIN KAQV 040200Z AUTO 00000KT 10SM CLR 07/05 A2997 330 86 -400 000/00 RMK AO2 T00720050
03949KAQV AQV20191203200510812/03/19 20:05:31  5-MIN KAQV 040205Z AUTO 00000KT 10SM CLR 07/05 A2997 330 86 -400 000/00 RMK AO2 T00720050
03949KAQV AQV20191203201010812/03/19 20:10:31  5-MIN KAQV 040210Z AUTO 00000KT 10SM CLR 07/05 A2997 330 89 -500 000/00 RMK AO2 T00670050
03949KAQV AQV20191203201510812/03/19 20:15:31  5-MIN KAQV 040215Z AUTO 00000KT 10SM CLR 07/05 A2997 330 89 -500 000/00 RMK AO2 T00670050
03949KAQV AQV20191203202010812/03/19 20:20:31  5-MIN KAQV 040220Z AUTO 00000KT 10SM CLR 07/05 A2997 330 89 -500 000/00 RMK AO2 T00670050
03949KAQV AQV20191203202510812/03/19 20:25:31  5-MIN KAQV 040225Z AUTO 00000KT 10SM CLR 07/05 A2996 340 89 -500 000/00 RMK AO2 T00670050
03949KAQV AQV20191203203010812/03/19 20:30:31  5-MIN KAQV 040230Z AUTO 00000KT 10SM CLR 07/05 A2997 330 89 -500 000/00 RMK AO2 T00670050
03949KAQV AQV20191203203510812/03/19 20:35:31  5-MIN KAQV 040235Z AUTO 00000KT 10SM CLR 07/05 A2997 330 89 -500 000/00 RMK AO2 T00670050
03949KAQV AQV20191203204010812/03/19 20:40:31  5-MIN KAQV 040240Z AUTO 00000KT 10SM CLR 07/05 A2997 330 89 -500 000/00 RMK AO2 T00670050
03949KAQV AQV20191203204510812/03/19 20:45:31  5-MIN KAQV 040245Z AUTO 20003KT 10SM CLR 07/05 A2997 330 86 -400 200/03 RMK AO2 T00720050
03949KAQV AQV20191203205010812/03/19 20:50:31  5-MIN KAQV 040250Z AUTO 20003KT 10SM CLR 07/05 A2996 340 86 -400 200/03 RMK AO2 T00720050
03949KAQV AQV20191203205512112/03/19 20:55:31  5-MIN KAQV 040255Z AUTO VRB03KT 10SM CLR 07/05 A2997 330 86 -400 VRB/03 RMK AO2 SLP148 T00720050 51008
03949KAQV AQV20191203210010812/03/19 21:00:31  5-MIN KAQV 040300Z AUTO VRB03KT 10SM CLR 09/06 A2996 340 79 -200 VRB/03 RMK AO2 T00890056
03949KAQV AQV20191203210510812/03/19 21:05:31  5-MIN KAQV 040305Z AUTO 21004KT 10SM CLR 09/06 A2996 340 79 -200 200/04 RMK AO2 T00890056
03949KAQV AQV20191203211010812/03/19 21:10:31  5-MIN KAQV 040310Z AUTO VRB03KT 10SM CLR 10/06 A2996 340 77 -100 VRB/03 RMK AO2 T01000061
03949KAQV AQV20191203211510812/03/19 21:15:31  5-MIN KAQV 040315Z AUTO VRB03KT 10SM CLR 09/06 A2995 340 79 -100 VRB/03 RMK AO2 T00940061
03949KAQV AQV20191203212010812/03/19 21:20:31  5-MIN KAQV 040320Z AUTO 19003KT 10SM CLR 10/06 A2996 340 77 -100 190/03 RMK AO2 T01000061
03949KAQV AQV20191203212510812/03/19 21:25:31  5-MIN KAQV 040325Z AUTO 00000KT 10SM CLR 10/07 A2996 340 80 -100 000/00 RMK AO2 T01000067
03949KAQV AQV20191203213010812/03/19 21:30:31  5-MIN KAQV 040330Z AUTO 21003KT 10SM CLR 10/07 A2997 330 80 -100 210/03 RMK AO2 T01000067
03949KAQV AQV20191203213510512/03/19 21:35:31  5-MIN KAQV 040335Z AUTO 21003KT 10SM CLR 11/07 A2997 330 77 0 200/03 RMK AO2 T01060067
03949KAQV AQV20191203214010512/03/19 21:40:31  5-MIN KAQV 040340Z AUTO VRB03KT 10SM CLR 11/07 A2997 330 77 0 VRB/03 RMK AO2 T01060067
03949KAQV AQV20191203214510812/03/19 21:45:31  5-MIN KAQV 040345Z AUTO VRB04KT 10SM CLR 10/07 A2997 330 80 -100 VRB/04 RMK AO2 T01000067
03949KAQV AQV20191203215010812/03/19 21:50:31  5-MIN KAQV 040350Z AUTO VRB03KT 10SM CLR 10/07 A2997 330 80 -100 VRB/03 RMK AO2 T01000067
03949KAQV AQV20191203215511512/03/19 21:55:31  5-MIN KAQV 040355Z AUTO VRB03KT 10SM CLR 10/07 A2997 330 80 -100 VRB/03 RMK AO2 SLP150 T01000067
03949KAQV AQV20191203220010812/03/19 22:00:31  5-MIN KAQV 040400Z AUTO 00000KT 10SM CLR 09/07 A2998 320 83 -200 000/00 RMK AO2 T00940067
03949KAQV AQV20191203220510812/03/19 22:05:31  5-MIN KAQV 040405Z AUTO 00000KT 10SM CLR 09/07 A2998 320 83 -200 000/00 RMK AO2 T00940067
03949KAQV AQV20191203221010812/03/19 22:10:31  5-MIN KAQV 040410Z AUTO 00000KT 10SM CLR 10/07 A2998 320 80 -100 000/00 RMK AO2 T01000067
03949KAQV AQV20191203221510812/03/19 22:15:31  5-MIN KAQV 040415Z AUTO 00000KT 10SM CLR 09/07 A2998 320 83 -200 000/00 RMK AO2 T00940067
03949KAQV AQV20191203222010812/03/19 22:20:31  5-MIN KAQV 040420Z AUTO 00000KT 10SM CLR 09/07 A2998 320 83 -200 000/00 RMK AO2 T00940067
03949KAQV AQV20191203222510812/03/19 22:25:31  5-MIN KAQV 040425Z AUTO VRB03KT 10SM CLR 09/07 A2998 320 86 -200 VRB/03 RMK AO2 T00940072
03949KAQV AQV20191203223010812/03/19 22:30:31  5-MIN KAQV 040430Z AUTO 00000KT 10SM CLR 09/07 A2998 320 83 -200 000/00 RMK AO2 T00940067
03949KAQV AQV20191203223510812/03/19 22:35:31  5-MIN KAQV 040435Z AUTO 00000KT 10SM CLR 09/07 A2998 320 86 -200 000/00 RMK AO2 T00940072
03949KAQV AQV20191203224010812/03/19 22:40:31  5-MIN KAQV 040440Z AUTO 00000KT 10SM CLR 09/07 A2999 320 86 -200 000/00 RMK AO2 T00940072
03949KAQV AQV20191203224510812/03/19 22:45:31  5-MIN KAQV 040445Z AUTO VRB03KT 10SM CLR 09/07 A2999 310 86 -200 VRB/03 RMK AO2 T00940072
03949KAQV AQV20191203225010812/03/19 22:50:31  5-MIN KAQV 040450Z AUTO VRB03KT 10SM CLR 09/07 A2999 310 86 -300 VRB/03 RMK AO2 T00890067
03949KAQV AQV20191203225511512/03/19 22:55:31  5-MIN KAQV 040455Z AUTO VRB03KT 10SM CLR 09/07 A2999 310 89 -300 VRB/03 RMK AO2 SLP157 T00890072
03949KAQV AQV20191203230010812/03/19 23:00:31  5-MIN KAQV 040500Z AUTO 20003KT 10SM CLR 09/07 A2999 310 89 -300 190/03 RMK AO2 T00890072
03949KAQV AQV20191203230510812/03/19 23:05:31  5-MIN KAQV 040505Z AUTO 00000KT 10SM CLR 09/07 A2999 310 89 -300 000/00 RMK AO2 T00890072
03949KAQV AQV20191203231010812/03/19 23:10:31  5-MIN KAQV 040510Z AUTO 00000KT 10SM CLR 09/07 A2999 310 89 -300 000/00 RMK AO2 T00890072
03949KAQV AQV20191203231510812/03/19 23:15:31  5-MIN KAQV 040515Z AUTO 00000KT 10SM CLR 09/07 A2999 310 86 -200 000/00 RMK AO2 T00940072
03949KAQV AQV20191203232010812/03/19 23:20:31  5-MIN KAQV 040520Z AUTO VRB03KT 10SM CLR 09/07 A2999 320 86 -200 VRB/03 RMK AO2 T00940072
03949KAQV AQV20191203232510812/03/19 23:25:31  5-MIN KAQV 040525Z AUTO 00000KT 10SM CLR 09/07 A2999 320 86 -200 000/00 RMK AO2 T00940072
03949KAQV AQV20191203233010812/03/19 23:30:31  5-MIN KAQV 040530Z AUTO 00000KT 10SM CLR 09/07 A2998 320 89 -200 000/00 RMK AO2 T00890072
03949KAQV AQV20191203233510812/03/19 23:35:31  5-MIN KAQV 040535Z AUTO 00000KT 10SM CLR 09/07 A2998 320 89 -200 000/00 RMK AO2 T00890072
03949KAQV AQV20191203234010712/03/19 23:40:31  5-MIN KAQV 040540Z AUTO 00000KT 9SM CLR 09/07 A2998 320 89 -200 000/00 RMK AO2 T00890072
03949KAQV AQV20191203234510712/03/19 23:45:31  5-MIN KAQV 040545Z AUTO 00000KT 9SM CLR 09/07 A2998 320 89 -200 000/00 RMK AO2 T00890072
03949KAQV AQV20191203235010812/03/19 23:50:31  5-MIN KAQV 040550Z AUTO 00000KT 10SM CLR 08/07 A2998 320 89 -300 000/00 RMK AO2 T00830067
03949KAQV AQV20191203235514312/03/19 23:55:31  5-MIN KAQV 040555Z AUTO 00000KT 10SM CLR 08/07 A2998 320 89 -300 000/00 RMK AO2 SLP152 T00830067 10106 20067 401780000 50007
03949KAQV AQV20191204000010712/04/19 00:00:31  5-MIN KAQV 040600Z AUTO 00000KT 9SM CLR 08/07 A2998 320 89 -300 000/00 RMK AO2 T00830067
03949KAQV AQV20191204000510712/04/19 00:05:31  5-MIN KAQV 040605Z AUTO 00000KT 8SM CLR 08/07 A2998 320 93 -400 000/00 RMK AO2 T00780067
03949KAQV AQV20191204001010712/04/19 00:10:31  5-MIN KAQV 040610Z AUTO VRB03KT 7SM CLR 08/07 A2998 320 93 -400 VRB/03 RMK AO2 T00780067
03949KAQV AQV20191204001510712/04/19 00:15:31  5-MIN KAQV 040615Z AUTO 00000KT 8SM CLR 08/07 A2998 320 89 -300 000/00 RMK AO2 T00830067
03949KAQV AQV20191204002010712/04/19 00:20:31  5-MIN KAQV 040620Z AUTO 00000KT 8SM CLR 08/07 A2998 320 89 -300 000/00 RMK AO2 T00830067
03949KAQV AQV20191204002510712/04/19 00:25:31  5-MIN KAQV 040625Z AUTO VRB03KT 8SM CLR 08/07 A2998 320 93 -300 VRB/03 RMK AO2 T00830072
03949KAQV AQV20191204003010712/04/19 00:30:31  5-MIN KAQV 040630Z AUTO 20003KT 8SM CLR 08/07 A2998 320 96 -400 200/03 RMK AO2 T00780072
03949KAQV AQV20191204003510712/04/19 00:35:31  5-MIN KAQV 040635Z AUTO 00000KT 8SM CLR 08/07 A2998 320 93 -300 000/00 RMK AO2 T00830072
03949KAQV AQV20191204004010712/04/19 00:40:31  5-MIN KAQV 040640Z AUTO 00000KT 9SM CLR 08/07 A2998 320 93 -300 000/00 RMK AO2 T00830072
03949KAQV AQV20191204004510712/04/19 00:45:31  5-MIN KAQV 040645Z AUTO VRB03KT 9SM CLR 09/07 A2997 330 89 -200 VRB/03 RMK AO2 T00890072
03949KAQV AQV20191204005010712/04/19 00:50:31  5-MIN KAQV 040650Z AUTO 20003KT 9SM CLR 09/07 A2997 330 89 -200 200/03 RMK AO2 T00890072
03949KAQV AQV20191204005511412/04/19 00:55:31  5-MIN KAQV 040655Z AUTO 00000KT 8SM CLR 08/07 A2997 330 93 -300 000/00 RMK AO2 SLP148 T00830072
03949KAQV AQV20191204010010712/04/19 01:00:31  5-MIN KAQV 040700Z AUTO 00000KT 8SM CLR 08/07 A2997 330 93 -300 000/00 RMK AO2 T00830072
03949KAQV AQV20191204010510712/04/19 01:05:31  5-MIN KAQV 040705Z AUTO 00000KT 7SM CLR 08/07 A2997 330 89 -300 000/00 RMK AO2 T00830067
03949KAQV AQV20191204011010712/04/19 01:10:31  5-MIN KAQV 040710Z AUTO 00000KT 7SM CLR 08/07 A2997 330 93 -300 000/00 RMK AO2 T00830072
03949KAQV AQV20191204011510712/04/19 01:15:31  5-MIN KAQV 040715Z AUTO 00000KT 7SM CLR 08/07 A2997 330 93 -300 000/00 RMK AO2 T00830072
03949KAQV AQV20191204012010712/04/19 01:20:31  5-MIN KAQV 040720Z AUTO 00000KT 7SM CLR 08/07 A2997 330 93 -300 000/00 RMK AO2 T00830072
03949KAQV AQV20191204012510712/04/19 01:25:31  5-MIN KAQV 040725Z AUTO 00000KT 8SM CLR 08/07 A2997 330 93 -400 000/00 RMK AO2 T00780067
03949KAQV AQV20191204013010712/04/19 01:30:31  5-MIN KAQV 040730Z AUTO 00000KT 7SM CLR 08/07 A2997 330 89 -300 000/00 RMK AO2 T00830067
03949KAQV AQV20191204013511012/04/19 01:35:31  5-MIN KAQV 040735Z AUTO 00000KT 6SM BR CLR 08/07 A2997 330 93 -400 000/00 RMK AO2 T00780067
03949KAQV AQV20191204014011012/04/19 01:40:31  5-MIN KAQV 040740Z AUTO 00000KT 6SM BR CLR 08/07 A2997 330 93 -400 000/00 RMK AO2 T00780067
03949KAQV AQV20191204014511012/04/19 01:45:31  5-MIN KAQV 040745Z AUTO 00000KT 4SM BR CLR 08/07 A2996 340 93 -400 000/00 RMK AO2 T00780067
03949KAQV AQV20191204015011012/04/19 01:50:31  5-MIN KAQV 040750Z AUTO 00000KT 3SM BR CLR 07/06 A2996 340 93 -400 000/00 RMK AO2 T00720061
03949KAQV AQV20191204015511712/04/19 01:55:31  5-MIN KAQV 040755Z AUTO 00000KT 3SM BR CLR 07/06 A2997 330 93 -400 000/00 RMK AO2 SLP148 T00720061
03949KAQV AQV20191204020011412/04/19 02:00:31  5-MIN KAQV 040800Z AUTO 00000KT 2 1/2SM BR CLR 07/06 A2997 330 93 -400 000/00 RMK AO2 T00720061
03949KAQV AQV20191204020511412/04/19 02:05:31  5-MIN KAQV 040805Z AUTO 00000KT 1 3/4SM BR CLR 07/06 A2997 330 93 -400 000/00 RMK AO2 T00720061
03949KAQV AQV20191204021011412/04/19 02:10:31  5-MIN KAQV 040810Z AUTO 00000KT 1 1/2SM BR CLR 07/06 A2997 330 93 -400 000/00 RMK AO2 T00720061
03949KAQV AQV20191204021511412/04/19 02:15:31  5-MIN KAQV 040815Z AUTO 00000KT 1 1/4SM BR CLR 07/06 A2997 330 93 -400 000/00 RMK AO2 T00720061
03949KAQV AQV20191204022011012/04/19 02:20:31  5-MIN KAQV 040820Z AUTO 00000KT 1SM BR CLR 07/06 A2997 330 93 -400 000/00 RMK AO2 T00720061
03949KAQV AQV20191204022511412/04/19 02:25:31  5-MIN KAQV 040825Z AUTO 00000KT 1 1/4SM BR CLR 07/06 A2997 330 93 -400 000/00 RMK AO2 T00720061
03949KAQV AQV20191204023011012/04/19 02:30:31  5-MIN KAQV 040830Z AUTO 00000KT 2SM BR CLR 07/06 A2998 320 93 -400 000/00 RMK AO2 T00720061
03949KAQV AQV20191204023511012/04/19 02:35:31  5-MIN KAQV 040835Z AUTO 00000KT 3SM BR CLR 07/06 A2998 320 93 -400 000/00 RMK AO2 T00720061
03949KAQV AQV20191204024011012/04/19 02:40:31  5-MIN KAQV 040840Z AUTO 00000KT 5SM BR CLR 07/06 A2998 320 93 -400 000/00 RMK AO2 T00720061
03949KAQV AQV20191204024510712/04/19 02:45:31  5-MIN KAQV 040845Z AUTO 00000KT 7SM CLR 07/06 A2998 320 93 -500 000/00 RMK AO2 T00720061
03949KAQV AQV20191204025010712/04/19 02:50:31  5-MIN KAQV 040850Z AUTO 00000KT 7SM CLR 07/06 A2998 320 93 -400 000/00 RMK AO2 T00720061
03949KAQV AQV20191204025512012/04/19 02:55:31  5-MIN KAQV 040855Z AUTO 00000KT 8SM CLR 08/06 A2998 320 89 -400 000/00 RMK AO2 SLP152 T00780061 50005
03949KAQV AQV20191204030010712/04/19 03:00:31  5-MIN KAQV 040900Z AUTO 00000KT 8SM CLR 08/07 A2998 320 93 -400 000/00 RMK AO2 T00780067
03949KAQV AQV20191204030510712/04/19 03:05:31  5-MIN KAQV 040905Z AUTO 00000KT 7SM CLR 07/07 A2998 330 96 -400 000/00 RMK AO2 T00720067
03949KAQV AQV20191204031011012/04/19 03:10:31  5-MIN KAQV 040910Z AUTO 00000KT 5SM BR CLR 07/06 A2997 330 93 -400 000/00 RMK AO2 T00720061
03949KAQV AQV20191204031511012/04/19 03:15:31  5-MIN KAQV 040915Z AUTO 00000KT 4SM BR CLR 07/06 A2997 330 93 -500 000/00 RMK AO2 T00670056
03949KAQV AQV20191204032011012/04/19 03:20:31  5-MIN KAQV 040920Z AUTO 00000KT 4SM BR CLR 07/06 A2998 330 89 -400 000/00 RMK AO2 T00720056
03949KAQV AQV20191204032512612/04/19 03:25:31  5-MIN KAQV 040925Z AUTO 00000KT 2 1/2SM BR CLR 07/06 A2998 320 93 -500 000/00 RMK AO2 VIS 1 1/2V5 T00670056
03949KAQV AQV20191204033011412/04/19 03:30:31  5-MIN KAQV 040930Z AUTO 00000KT 2 1/2SM BR CLR 07/06 A2998 320 93 -500 000/00 RMK AO2 T00670056
03949KAQV AQV20191204033511012/04/19 03:35:31  5-MIN KAQV 040935Z AUTO 00000KT 3SM BR CLR 07/06 A2998 320 93 -500 000/00 RMK AO2 T00670056
03949KAQV AQV20191204034011012/04/19 03:40:31  5-MIN KAQV 040940Z AUTO 00000KT 4SM BR CLR 07/06 A2998 320 93 -500 000/00 RMK AO2 T00670056
03949KAQV AQV20191204034511012/04/19 03:45:31  5-MIN KAQV 040945Z AUTO 00000KT 5SM BR CLR 07/06 A2998 320 93 -500 000/00 RMK AO2 T00670056
03949KAQV AQV20191204035011012/04/19 03:50:31  5-MIN KAQV 040950Z AUTO 00000KT 5SM BR CLR 07/06 A2998 320 93 -500 000/00 RMK AO2 T00670056
03949KAQV AQV20191204035511712/04/19 03:55:31  5-MIN KAQV 040955Z AUTO 00000KT 5SM BR CLR 07/06 A2998 320 93 -500 000/00 RMK AO2 SLP152 T00670056
03949KAQV AQV20191204040011012/04/19 04:00:31  5-MIN KAQV 041000Z AUTO 00000KT 6SM BR CLR 07/06 A2998 320 93 -500 000/00 RMK AO2 T00670056
03949KAQV AQV20191204040510712/04/19 04:05:31  5-MIN KAQV 041005Z AUTO 00000KT 7SM CLR 07/06 A2998 320 93 -500 000/00 RMK AO2 T00670056
03949KAQV AQV20191204041010712/04/19 04:10:31  5-MIN KAQV 041010Z AUTO 00000KT 8SM CLR 07/06 A2998 320 93 -500 000/00 RMK AO2 T00670056
03949KAQV AQV20191204041510712/04/19 04:15:31  5-MIN KAQV 041015Z AUTO 00000KT 8SM CLR 07/06 A2998 320 89 -500 000/00 RMK AO2 T00720056
03949KAQV AQV20191204042010712/04/19 04:20:31  5-MIN KAQV 041020Z AUTO 00000KT 8SM CLR 07/06 A2998 320 93 -500 000/00 RMK AO2 T00670056
03949KAQV AQV20191204042511012/04/19 04:25:31  5-MIN KAQV 041025Z AUTO 00000KT 6SM BR CLR 07/06 A2998 320 93 -500 000/00 RMK AO2 T00670056
03949KAQV AQV20191204043011012/04/19 04:30:31  5-MIN KAQV 041030Z AUTO 00000KT 6SM BR CLR 07/06 A2998 320 93 -500 000/00 RMK AO2 T00670056
03949KAQV AQV20191204043510712/04/19 04:35:31  5-MIN KAQV 041035Z AUTO 00000KT 7SM CLR 07/06 A2999 320 93 -500 000/00 RMK AO2 T00670056
03949KAQV AQV20191204044011012/04/19 04:40:31  5-MIN KAQV 041040Z AUTO 00000KT 6SM BR CLR 07/06 A2998 320 93 -500 000/00 RMK AO2 T00670056
03949KAQV AQV20191204044511012/04/19 04:45:31  5-MIN KAQV 041045Z AUTO 00000KT 5SM BR CLR 07/06 A2999 320 93 -500 000/00 RMK AO2 T00670056
03949KAQV AQV20191204045011012/04/19 04:50:31  5-MIN KAQV 041050Z AUTO 00000KT 4SM BR CLR 07/05 A2999 310 89 -500 000/00 RMK AO2 T00670050
03949KAQV AQV20191204045511712/04/19 04:55:31  5-MIN KAQV 041055Z AUTO 00000KT 5SM BR CLR 06/05 A2999 310 93 -600 000/00 RMK AO2 SLP155 T00610050
03949KAQV AQV20191204050011012/04/19 05:00:31  5-MIN KAQV 041100Z AUTO 00000KT 6SM BR CLR 06/05 A2999 310 93 -600 000/00 RMK AO2 T00610050
03949KAQV AQV20191204050511012/04/19 05:05:31  5-MIN KAQV 041105Z AUTO 00000KT 5SM BR CLR 06/05 A2999 310 93 -600 000/00 RMK AO2 T00610050
03949KAQV AQV20191204051011012/04/19 05:10:31  5-MIN KAQV 041110Z AUTO 00000KT 4SM BR CLR 06/05 A3000 310 93 -600 000/00 RMK AO2 T00610050
03949KAQV AQV20191204051511012/04/19 05:15:31  5-MIN KAQV 041115Z AUTO 00000KT 4SM BR CLR 06/04 A3000 310 89 -600 000/00 RMK AO2 T00610044
03949KAQV AQV20191204052011012/04/19 05:20:31  5-MIN KAQV 041120Z AUTO 00000KT 4SM BR CLR 06/04 A3000 300 92 -700 000/00 RMK AO2 T00560044
03949KAQV AQV20191204052511012/04/19 05:25:31  5-MIN KAQV 041125Z AUTO 00000KT 5SM BR CLR 06/04 A3000 300 89 -600 000/00 RMK AO2 T00610044
03949KAQV AQV20191204053011012/04/19 05:30:31  5-MIN KAQV 041130Z AUTO 00000KT 6SM BR CLR 06/05 A3000 300 93 -600 000/00 RMK AO2 T00610050
03949KAQV AQV20191204053510712/04/19 05:35:31  5-MIN KAQV 041135Z AUTO 00000KT 7SM CLR 06/05 A3000 300 93 -600 000/00 RMK AO2 T00610050
03949KAQV AQV20191204054010712/04/19 05:40:31  5-MIN KAQV 041140Z AUTO 00000KT 7SM CLR 06/05 A3001 290 93 -600 000/00 RMK AO2 T00610050
03949KAQV AQV20191204054511012/04/19 05:45:31  5-MIN KAQV 041145Z AUTO 00000KT 6SM BR CLR 06/05 A3001 290 93 -600 000/00 RMK AO2 T00610050
03949KAQV AQV20191204055011012/04/19 05:50:31  5-MIN KAQV 041150Z AUTO 00000KT 6SM BR CLR 06/05 A3001 290 93 -600 000/00 RMK AO2 T00610050
03949KAQV AQV20191204055513512/04/19 05:55:31  5-MIN KAQV 041155Z AUTO 00000KT 6SM BR CLR 06/04 A3001 290 92 -700 000/00 RMK AO2 SLP163 T00560044 10089 20056 55000
03949KAQV AQV20191204060011012/04/19 06:00:31  5-MIN KAQV 041200Z AUTO 00000KT 5SM BR CLR 06/04 A3001 290 92 -700 000/00 RMK AO2 T00560044
03949KAQV AQV20191204060511012/04/19 06:05:31  5-MIN KAQV 041205Z AUTO 00000KT 5SM BR CLR 06/04 A3002 290 92 -700 000/00 RMK AO2 T00560044
03949KAQV AQV20191204061011012/04/19 06:10:31  5-MIN KAQV 041210Z AUTO 33003KT 6SM BR CLR 06/04 A3002 290 92 -700 330/03 RMK AO2 T00560044
03949KAQV AQV20191204061511012/04/19 06:15:31  5-MIN KAQV 041215Z AUTO 00000KT 6SM BR CLR 06/04 A3002 280 92 -700 000/00 RMK AO2 T00560044
03949KAQV AQV20191204062011012/04/19 06:20:31  5-MIN KAQV 041220Z AUTO 00000KT 6SM BR CLR 06/04 A3002 280 92 -700 000/00 RMK AO2 T00560044
03949KAQV AQV20191204062511012/04/19 06:25:31  5-MIN KAQV 041225Z AUTO 00000KT 6SM BR CLR 05/04 A3002 290 92 -800 000/00 RMK AO2 T00500039
03949KAQV AQV20191204063011012/04/19 06:30:31  5-MIN KAQV 041230Z AUTO 00000KT 6SM BR CLR 06/04 A3002 290 89 -700 000/00 RMK AO2 T00560039
03949KAQV AQV20191204063511012/04/19 06:35:31  5-MIN KAQV 041235Z AUTO 00000KT 6SM BR CLR 05/04 A3002 280 92 -800 000/00 RMK AO2 T00500039
03949KAQV AQV20191204064011012/04/19 06:40:31  5-MIN KAQV 041240Z AUTO VRB03KT 6SM BR CLR 05/04 A3002 280 92 -800 VRB/03 RMK AO2 T00500039
03949KAQV AQV20191204064511012/04/19 06:45:31  5-MIN KAQV 041245Z AUTO 00000KT 6SM BR CLR 05/04 A3002 280 92 -800 000/00 RMK AO2 T00500039
03949KAQV AQV20191204065010712/04/19 06:50:31  5-MIN KAQV 041250Z AUTO 00000KT 7SM CLR 05/04 A3003 280 92 -800 000/00 RMK AO2 T00500039
03949KAQV AQV20191204065511412/04/19 06:55:31  5-MIN KAQV 041255Z AUTO 00000KT 8SM CLR 05/04 A3003 270 92 -800 000/00 RMK AO2 SLP170 T00500039
03949KAQV AQV20191204070010712/04/19 07:00:31  5-MIN KAQV 041300Z AUTO 00000KT 7SM CLR 05/04 A3003 270 92 -800 000/00 RMK AO2 T00500039
03949KAQV AQV20191204070511012/04/19 07:05:31  5-MIN KAQV 041305Z AUTO 00000KT 6SM BR CLR 05/04 A3003 270 92 -800 000/00 RMK AO2 T00500039
03949KAQV AQV20191204071011012/04/19 07:10:31  5-MIN KAQV 041310Z AUTO 00000KT 4SM BR CLR 05/03 A3003 270 89 -800 000/00 RMK AO2 T00500033
03949KAQV AQV20191204071511012/04/19 07:15:31  5-MIN KAQV 041315Z AUTO 00000KT 3SM BR CLR 05/03 A3004 270 89 -800 000/00 RMK AO2 T00500033
03949KAQV AQV20191204072011012/04/19 07:20:31  5-MIN KAQV 041320Z AUTO 00000KT 3SM BR CLR 04/03 A3004 260 92 -900 000/00 RMK AO2 T00440033
03949KAQV AQV20191204072511012/04/19 07:25:31  5-MIN KAQV 041325Z AUTO 00000KT 3SM BR CLR 04/03 A3004 260 92 -900 000/00 RMK AO2 T00440033
03949KAQV AQV20191204073011012/04/19 07:30:31  5-MIN KAQV 041330Z AUTO 00000KT 3SM BR CLR 04/03 A3005 260 92 -900 000/00 RMK AO2 T00440033
03949KAQV AQV20191204073511012/04/19 07:35:31  5-MIN KAQV 041335Z AUTO 00000KT 4SM BR CLR 05/03 A3005 260 89 -800 000/00 RMK AO2 T00500033
03949KAQV AQV20191204074011012/04/19 07:40:31  5-MIN KAQV 041340Z AUTO 00000KT 3SM BR CLR 05/03 A3005 260 89 -800 000/00 RMK AO2 T00500033
03949KAQV AQV20191204074511012/04/19 07:45:31  5-MIN KAQV 041345Z AUTO 00000KT 4SM BR CLR 05/04 A3005 260 92 -800 000/00 RMK AO2 T00500039
03949KAQV AQV20191204075011012/04/19 07:50:31  5-MIN KAQV 041350Z AUTO 00000KT 6SM BR CLR 06/04 A3006 250 92 -700 000/00 RMK AO2 T00560044
03949KAQV AQV20191204075511412/04/19 07:55:31  5-MIN KAQV 041355Z AUTO 00000KT 7SM CLR 06/05 A3006 250 93 -700 000/00 RMK AO2 SLP180 T00610050
03949KAQV AQV20191204080010812/04/19 08:00:31  5-MIN KAQV 041400Z AUTO 00000KT 10SM CLR 07/06 A3006 250 93 -600 000/00 RMK AO2 T00670056
03949KAQV AQV20191204080510812/04/19 08:05:31  5-MIN KAQV 041405Z AUTO 00000KT 10SM CLR 07/06 A3006 250 89 -500 000/00 RMK AO2 T00720056
03949KAQV AQV20191204081010812/04/19 08:10:31  5-MIN KAQV 041410Z AUTO 00000KT 10SM CLR 08/06 A3006 250 86 -500 000/00 RMK AO2 T00780056
03949KAQV AQV20191204081510812/04/19 08:15:31  5-MIN KAQV 041415Z AUTO 00000KT 10SM CLR 08/06 A3006 240 86 -400 000/00 RMK AO2 T00830061
03949KAQV AQV20191204082010812/04/19 08:20:31  5-MIN KAQV 041420Z AUTO 36004KT 10SM CLR 09/06 A3007 240 83 -300 350/04 RMK AO2 T00890061
03949KAQV AQV20191204082510812/04/19 08:25:31  5-MIN KAQV 041425Z AUTO 00000KT 10SM CLR 09/06 A3007 240 79 -300 000/00 RMK AO2 T00890056
03949KAQV AQV20191204083010812/04/19 08:30:31  5-MIN KAQV 041430Z AUTO 00000KT 10SM CLR 09/06 A3007 240 79 -300 000/00 RMK AO2 T00890056
03949KAQV AQV20191204083510812/04/19 08:35:31  5-MIN KAQV 041435Z AUTO VRB04KT 10SM CLR 09/06 A3007 240 76 -300 VRB/04 RMK AO2 T00940056
03949KAQV AQV20191204084010812/04/19 08:40:31  5-MIN KAQV 041440Z AUTO 00000KT 10SM CLR 09/06 A3007 230 76 -300 000/00 RMK AO2 T00940056
03949KAQV AQV20191204084510812/04/19 08:45:31  5-MIN KAQV 041445Z AUTO 01004KT 10SM CLR 10/06 A3007 240 74 -200 360/04 RMK AO2 T01000056
03949KAQV AQV20191204085010812/04/19 08:50:31  5-MIN KAQV 041450Z AUTO 01003KT 10SM CLR 11/06 A3007 230 71 -200 360/03 RMK AO2 T01060056
03949KAQV AQV20191204085512112/04/19 08:55:31  5-MIN KAQV 041455Z AUTO 00000KT 10SM CLR 11/05 A3007 230 68 -200 000/00 RMK AO2 SLP185 T01060050 53011
03949KAQV AQV20191204090010812/04/19 09:00:31  5-MIN KAQV 041500Z AUTO 00000KT 10SM CLR 11/05 A3008 230 66 -100 000/00 RMK AO2 T01110050
03949KAQV AQV20191204090510512/04/19 09:05:31  5-MIN KAQV 041505Z AUTO 35003KT 10SM CLR 12/05 A3008 230 63 0 350/03 RMK AO2 T01170050
03949KAQV AQV20191204091010512/04/19 09:10:31  5-MIN KAQV 041510Z AUTO 01004KT 10SM CLR 12/05 A3008 230 63 0 010/04 RMK AO2 T01170050
03949KAQV AQV20191204091510512/04/19 09:15:31  5-MIN KAQV 041515Z AUTO 00000KT 10SM CLR 12/06 A3008 230 63 0 000/00 RMK AO2 T01220056
03949KAQV AQV20191204092010512/04/19 09:20:31  5-MIN KAQV 041520Z AUTO VRB03KT 10SM CLR 12/05 A3008 220 61 0 VRB/03 RMK AO2 T01220050
03949KAQV AQV20191204092510712/04/19 09:25:31  5-MIN KAQV 041525Z AUTO VRB03KT 10SM CLR 13/04 A3009 220 56 100 VRB/03 RMK AO2 T01280044
03949KAQV AQV20191204093010712/04/19 09:30:31  5-MIN KAQV 041530Z AUTO VRB04KT 10SM CLR 13/05 A3009 220 57 100 VRB/04 RMK AO2 T01330050
03949KAQV AQV20191204093510512/04/19 09:35:31  5-MIN KAQV 041535Z AUTO 04005KT 10SM CLR 13/04 A3009 220 56 0 040/05 RMK AO2 T01280044
03949KAQV AQV20191204094010512/04/19 09:40:31  5-MIN KAQV 041540Z AUTO VRB04KT 10SM CLR 13/04 A3009 220 54 0 VRB/04 RMK AO2 T01280039
03949KAQV AQV20191204094510712/04/19 09:45:31  5-MIN KAQV 041545Z AUTO 03004KT 10SM CLR 13/04 A3009 220 54 100 030/04 RMK AO2 T01330044
03949KAQV AQV20191204095010712/04/19 09:50:31  5-MIN KAQV 041550Z AUTO VRB03KT 10SM CLR 13/04 A3009 220 52 100 VRB/03 RMK AO2 T01330039
03949KAQV AQV20191204095511412/04/19 09:55:31  5-MIN KAQV 041555Z AUTO VRB04KT 10SM CLR 14/04 A3009 220 50 200 VRB/04 RMK AO2 SLP190 T01390039
03949KAQV AQV20191204100010712/04/19 10:00:31  5-MIN KAQV 041600Z AUTO VRB03KT 10SM CLR 14/04 A3009 220 52 200 VRB/03 RMK AO2 T01390044
03949KAQV AQV20191204100510712/04/19 10:05:31  5-MIN KAQV 041605Z AUTO 02004KT 10SM CLR 14/04 A3009 220 50 200 010/04 RMK AO2 T01390039
03949KAQV AQV20191204101010712/04/19 10:10:31  5-MIN KAQV 041610Z AUTO 36004KT 10SM CLR 14/04 A3009 220 49 200 360/04 RMK AO2 T01440039
03949KAQV AQV20191204101510712/04/19 10:15:31  5-MIN KAQV 041615Z AUTO VRB03KT 10SM CLR 14/04 A3009 220 49 200 VRB/03 RMK AO2 T01440039
03949KAQV AQV20191204102010712/04/19 10:20:31  5-MIN KAQV 041620Z AUTO VRB03KT 10SM CLR 15/04 A3010 210 47 300 VRB/03 RMK AO2 T01500039
03949KAQV AQV20191204102510712/04/19 10:25:31  5-MIN KAQV 041625Z AUTO VRB03KT 10SM CLR 15/04 A3010 210 47 300 VRB/03 RMK AO2 T01500039
03949KAQV AQV20191204103010712/04/19 10:30:31  5-MIN KAQV 041630Z AUTO VRB03KT 10SM CLR 15/04 A3010 210 47 300 VRB/03 RMK AO2 T01500039
03949KAQV AQV20191204103510712/04/19 10:35:31  5-MIN KAQV 041635Z AUTO VRB04KT 10SM CLR 16/04 A3010 210 45 400 VRB/04 RMK AO2 T01560039
03949KAQV AQV20191204104010712/04/19 10:40:31  5-MIN KAQV 041640Z AUTO VRB03KT 10SM CLR 16/04 A3009 220 44 400 VRB/03 RMK AO2 T01610039
03949KAQV AQV20191204104510712/04/19 10:45:31  5-MIN KAQV 041645Z AUTO 04003KT 10SM CLR 16/04 A3009 220 44 400 040/03 RMK AO2 T01610039
03949KAQV AQV20191204105010712/04/19 10:50:31  5-MIN KAQV 041650Z AUTO VRB04KT 10SM CLR 16/04 A3009 220 44 400 VRB/04 RMK AO2 T01610039
03949KAQV AQV20191204105511412/04/19 10:55:31  5-MIN KAQV 041655Z AUTO 09003KT 10SM CLR 16/04 A3008 220 44 400 080/03 RMK AO2 SLP188 T01610039
03949KAQV AQV20191204110010712/04/19 11:00:31  5-MIN KAQV 041700Z AUTO 00000KT 10SM CLR 16/03 A3008 230 43 400 000/00 RMK AO2 T01560033
03949KAQV AQV20191204110510712/04/19 11:05:31  5-MIN KAQV 041705Z AUTO 05004KT 10SM CLR 16/04 A3008 230 44 500 040/04 RMK AO2 T01610039
03949KAQV AQV20191204111010712/04/19 11:10:31  5-MIN KAQV 041710Z AUTO VRB04KT 10SM CLR 17/04 A3007 230 42 500 VRB/04 RMK AO2 T01670039
03949KAQV AQV20191204111510712/04/19 11:15:31  5-MIN KAQV 041715Z AUTO VRB04KT 10SM CLR 17/04 A3007 240 42 500 VRB/04 RMK AO2 T01670039
03949KAQV AQV20191204112010712/04/19 11:20:31  5-MIN KAQV 041720Z AUTO VRB04KT 10SM CLR 17/04 A3007 240 42 500 VRB/04 RMK AO2 T01670039
03949KAQV AQV20191204112510712/04/19 11:25:31  5-MIN KAQV 041725Z AUTO 00000KT 10SM CLR 17/03 A3007 240 40 500 000/00 RMK AO2 T01670033
03949KAQV AQV20191204113009712/04/19 11:30:31  5-MIN KAQV 041730Z AUTO 10SM CLR 17/03 A3006 240 40 500 M /M RMK AO2 T01670033
03949KAQV AQV20191204113510712/04/19 11:35:31  5-MIN KAQV 041735Z AUTO 00000KT 10SM CLR 17/04 A3006 250 41 600 000/00 RMK AO2 T01720039
03949KAQV AQV20191204114009712/04/19 11:40:31  5-MIN KAQV 041740Z AUTO 10SM CLR 17/03 A3006 250 39 600 M /M RMK AO2 T01720033
03949KAQV AQV20191204114510712/04/19 11:45:31  5-MIN KAQV 041745Z AUTO 00000KT 10SM CLR 18/03 A3006 250 38 700 000/00 RMK AO2 T01780033
03949KAQV AQV20191204115010712/04/19 11:50:31  5-MIN KAQV 041750Z AUTO VRB04KT 10SM CLR 18/04 A3006 250 39 700 VRB/04 RMK AO2 T01780039
03949KAQV AQV20191204115513212/04/19 11:55:31  5-MIN KAQV 041755Z AUTO 14003KT 10SM CLR 18/04 A3005 250 38 700 140/03 RMK AO2 SLP178 T01830039 10183 20044 51021
03949KAQV AQV20191204120010712/04/19 12:00:31  5-MIN KAQV 041800Z AUTO 01003KT 10SM CLR 18/04 A3005 250 38 700 360/03 RMK AO2 T01830039
03949KAQV AQV20191204120510712/04/19 12:05:31  5-MIN KAQV 041805Z AUTO VRB03KT 10SM CLR 18/03 A3005 250 38 700 VRB/03 RMK AO2 T01780033
03949KAQV AQV20191204121010712/04/19 12:10:31  5-MIN KAQV 041810Z AUTO VRB03KT 10SM CLR 18/03 A3005 260 38 700 VRB/03 RMK AO2 T01780033
03949KAQV AQV20191204121510712/04/19 12:15:31  5-MIN KAQV 041815Z AUTO 00000KT 10SM CLR 18/03 A3005 260 36 700 000/00 RMK AO2 T01830033
03949KAQV AQV20191204122010712/04/19 12:20:31  5-MIN KAQV 041820Z AUTO VRB05KT 10SM CLR 19/03 A3005 260 34 800 VRB/05 RMK AO2 T01890028
03949KAQV AQV20191204122510712/04/19 12:25:31  5-MIN KAQV 041825Z AUTO 02003KT 10SM CLR 19/02 A3005 260 32 800 010/03 RMK AO2 T01890022
03949KAQV AQV20191204123010712/04/19 12:30:31  5-MIN KAQV 041830Z AUTO VRB04KT 10SM CLR 19/02 A3004 260 32 800 VRB/04 RMK AO2 T01890022
03949KAQV AQV20191204123510712/04/19 12:35:31  5-MIN KAQV 041835Z AUTO VRB04KT 10SM CLR 19/02 A3004 260 32 800 VRB/04 RMK AO2 T01890022
03949KAQV AQV20191204124010712/04/19 12:40:31  5-MIN KAQV 041840Z AUTO 05005KT 10SM CLR 19/02 A3004 270 32 800 040/05 RMK AO2 T01890022
03949KAQV AQV20191204124510712/04/19 12:45:31  5-MIN KAQV 041845Z AUTO VRB04KT 10SM CLR 19/02 A3004 270 32 800 VRB/04 RMK AO2 T01890022
03949KAQV AQV20191204125009712/04/19 12:50:31  5-MIN KAQV 041850Z AUTO 10SM CLR 19/02 A3004 270 32 800 M /M RMK AO2 T01890022
03949KAQV AQV20191204125511412/04/19 12:55:31  5-MIN KAQV 041855Z AUTO VRB05KT 10SM CLR 19/02 A3004 270 30 900 VRB/05 RMK AO2 SLP171 T01940017
03949KAQV AQV20191204130010812/04/19 13:00:31  5-MIN KAQV 041900Z AUTO 36004KT 10SM CLR 20/02 A3004 270 30 1000 360/04 RMK AO2 T02000022
03949KAQV AQV20191204130510712/04/19 13:05:31  5-MIN KAQV 041905Z AUTO 02005KT 10SM CLR 19/02 A3003 270 31 900 020/05 RMK AO2 T01940022
03949KAQV AQV20191204131010712/04/19 13:10:31  5-MIN KAQV 041910Z AUTO VRB04KT 10SM CLR 19/02 A3003 270 31 900 VRB/04 RMK AO2 T01940022
03949KAQV AQV20191204131510812/04/19 13:15:31  5-MIN KAQV 041915Z AUTO VRB03KT 10SM CLR 20/02 A3003 270 30 1000 VRB/03 RMK AO2 T02000022
03949KAQV AQV20191204132010812/04/19 13:20:31  5-MIN KAQV 041920Z AUTO VRB04KT 10SM CLR 20/02 A3003 270 30 1000 VRB/04 RMK AO2 T02000022
03949KAQV AQV20191204132510812/04/19 13:25:31  5-MIN KAQV 041925Z AUTO VRB05KT 10SM CLR 20/02 A3003 280 29 1000 VRB/05 RMK AO2 T02000017
03949KAQV AQV20191204133010812/04/19 13:30:31  5-MIN KAQV 041930Z AUTO 01004KT 10SM CLR 20/01 A3003 280 28 1000 360/04 RMK AO2 T02000011
03949KAQV AQV20191204133509812/04/19 13:35:31  5-MIN KAQV 041935Z AUTO 10SM CLR 20/01 A3002 280 28 1000 M /M RMK AO2 T02000011
03949KAQV AQV20191204134010812/04/19 13:40:31  5-MIN KAQV 041940Z AUTO 01004KT 10SM CLR 20/01 A3002 280 28 1000 360/04 RMK AO2 T02000011
03949KAQV AQV20191204134510812/04/19 13:45:31  5-MIN KAQV 041945Z AUTO VRB04KT 10SM CLR 20/01 A3002 280 27 1000 VRB/04 RMK AO2 T02000006
03949KAQV AQV20191204135010812/04/19 13:50:31  5-MIN KAQV 041950Z AUTO VRB04KT 10SM CLR 20/01 A3002 280 28 1000 VRB/04 RMK AO2 T02000011
03949KAQV AQV20191204135511512/04/19 13:55:31  5-MIN KAQV 041955Z AUTO VRB04KT 10SM CLR 20/02 A3002 280 29 1000 VRB/04 RMK AO2 SLP166 T02000017
03949KAQV AQV20191204140010812/04/19 14:00:31  5-MIN KAQV 042000Z AUTO 03004KT 10SM CLR 20/01 A3002 280 28 1000 020/04 RMK AO2 T02000011
03949KAQV AQV20191204140510812/04/19 14:05:31  5-MIN KAQV 042005Z AUTO 04003KT 10SM CLR 20/02 A3002 290 29 1000 040/03 RMK AO2 T02000017
03949KAQV AQV20191204141010812/04/19 14:10:31  5-MIN KAQV 042010Z AUTO VRB03KT 10SM CLR 20/01 A3002 290 28 1000 VRB/03 RMK AO2 T02000011
03949KAQV AQV20191204141510712/04/19 14:15:31  5-MIN KAQV 042015Z AUTO 07005KT 10SM CLR 19/02 A3002 290 30 900 070/05 RMK AO2 T01940017
03949KAQV AQV20191204142010812/04/19 14:20:31  5-MIN KAQV 042020Z AUTO 00000KT 10SM CLR 20/01 A3002 290 28 1000 000/00 RMK AO2 T02000011
03949KAQV AQV20191204142510812/04/19 14:25:31  5-MIN KAQV 042025Z AUTO VRB03KT 10SM CLR 20/02 A3002 290 29 1000 VRB/03 RMK AO2 T02000017
03949KAQV AQV20191204143010812/04/19 14:30:31  5-MIN KAQV 042030Z AUTO 04005KT 10SM CLR 20/02 A3001 290 29 1000 030/05 RMK AO2 T02000017
03949KAQV AQV20191204143510812/04/19 14:35:31  5-MIN KAQV 042035Z AUTO 35003KT 10SM CLR 20/02 A3002 290 29 1000 340/03 RMK AO2 T02000017
03949KAQV AQV20191204144010812/04/19 14:40:31  5-MIN KAQV 042040Z AUTO VRB03KT 10SM CLR 20/01 A3002 290 28 1000 VRB/03 RMK AO2 T02000011
03949KAQV AQV20191204144510812/04/19 14:45:31  5-MIN KAQV 042045Z AUTO 00000KT 10SM CLR 21/02 A3002 280 28 1000 000/00 RMK AO2 T02060017
03949KAQV AQV20191204145009812/04/19 14:50:31  5-MIN KAQV 042050Z AUTO 10SM CLR 20/02 A3002 280 29 1000 M /M RMK AO2 T02000017
03949KAQV AQV20191204145512112/04/19 14:55:31  5-MIN KAQV 042055Z AUTO 04005KT 10SM CLR 20/02 A3003 280 29 1000 040/05 RMK AO2 SLP168 T02000017 58007
03949KAQV AQV20191204150010712/04/19 15:00:31  5-MIN KAQV 042100Z AUTO 36004KT 10SM CLR 19/01 A3003 270 29 900 350/04 RMK AO2 T01940011
03949KAQV AQV20191204150510712/04/19 15:05:31  5-MIN KAQV 042105Z AUTO 04005KT 10SM CLR 19/02 A3003 270 31 800 040/05 RMK AO2 T01890017
03949KAQV AQV20191204151010712/04/19 15:10:31  5-MIN KAQV 042110Z AUTO 01005KT 10SM CLR 18/02 A3003 270 32 800 360/05 RMK AO2 T01830017
03949KAQV AQV20191204151510712/04/19 15:15:31  5-MIN KAQV 042115Z AUTO 03005KT 10SM CLR 19/02 A3004 270 31 800 020/05 RMK AO2 T01890017
03949KAQV AQV20191204152010812/04/19 15:20:31  5-MIN KAQV 042120Z AUTO 01003KT 10SM CLR 21/02 A3003 270 29 1000 360/03 RMK AO2 T02060022
03949KAQV AQV20191204152510812/04/19 15:25:31  5-MIN KAQV 042125Z AUTO 00000KT 10SM CLR 20/02 A3003 270 30 1000 000/00 RMK AO2 T02000022
03949KAQV AQV20191204153010812/04/19 15:30:31  5-MIN KAQV 042130Z AUTO 32003KT 10SM CLR 20/01 A3003 270 28 1000 320/03 RMK AO2 T02000011
03949KAQV AQV20191204153510812/04/19 15:35:31  5-MIN KAQV 042135Z AUTO VRB03KT 10SM CLR 20/01 A3003 280 28 1000 VRB/03 RMK AO2 T02000011
03949KAQV AQV20191204154010812/04/19 15:40:31  5-MIN KAQV 042140Z AUTO 35003KT 10SM CLR 20/02 A3003 280 29 1000 350/03 RMK AO2 T02000017
03949KAQV AQV20191204154510812/04/19 15:45:31  5-MIN KAQV 042145Z AUTO 00000KT 10SM CLR 20/01 A3003 280 27 1000 000/00 RMK AO2 T02000006
03949KAQV AQV20191204155010812/04/19 15:50:31  5-MIN KAQV 042150Z AUTO VRB03KT 10SM CLR 20/01 A3003 280 28 1000 VRB/03 RMK AO2 T02000011
03949KAQV AQV20191204155511512/04/19 15:55:31  5-MIN KAQV 042155Z AUTO 36003KT 10SM CLR 20/02 A3003 270 29 1000 360/03 RMK AO2 SLP170 T02000017
03949KAQV AQV20191204160010712/04/19 16:00:31  5-MIN KAQV 042200Z AUTO 00000KT 10SM CLR 19/02 A3002 280 30 900 000/00 RMK AO2 T01940017
03949KAQV AQV20191204160510712/04/19 16:05:31  5-MIN KAQV 042205Z AUTO 00000KT 10SM CLR 19/02 A3002 280 31 900 000/00 RMK AO2 T01940022
03949KAQV AQV20191204161010712/04/19 16:10:31  5-MIN KAQV 042210Z AUTO 00000KT 10SM CLR 19/02 A3003 280 31 900 000/00 RMK AO2 T01940022
03949KAQV AQV20191204161510712/04/19 16:15:31  5-MIN KAQV 042215Z AUTO 00000KT 10SM CLR 19/03 A3003 280 34 800 000/00 RMK AO2 T01890028
03949KAQV AQV20191204162010712/04/19 16:20:31  5-MIN KAQV 042220Z AUTO 34003KT 10SM CLR 19/03 A3003 280 34 800 330/03 RMK AO2 T01890028
03949KAQV AQV20191204162510712/04/19 16:25:31  5-MIN KAQV 042225Z AUTO 00000KT 10SM CLR 18/03 A3003 280 35 800 000/00 RMK AO2 T01830028
03949KAQV AQV20191204163010712/04/19 16:30:31  5-MIN KAQV 042230Z AUTO 00000KT 10SM CLR 17/03 A3003 280 39 600 000/00 RMK AO2 T01720033
03949KAQV AQV20191204163510712/04/19 16:35:31  5-MIN KAQV 042235Z AUTO 00000KT 10SM CLR 16/04 A3002 280 44 500 000/00 RMK AO2 T01610039
03949KAQV AQV20191204164010712/04/19 16:40:31  5-MIN KAQV 042240Z AUTO 00000KT 10SM CLR 16/04 A3002 280 47 500 000/00 RMK AO2 T01560044
03949KAQV AQV20191204164510712/04/19 16:45:31  5-MIN KAQV 042245Z AUTO 00000KT 10SM CLR 15/04 A3002 280 49 400 000/00 RMK AO2 T01500044
03949KAQV AQV20191204165010712/04/19 16:50:31  5-MIN KAQV 042250Z AUTO 00000KT 10SM CLR 14/06 A3002 290 55 300 000/00 RMK AO2 T01440056
03949KAQV AQV20191204165511412/04/19 16:55:31  5-MIN KAQV 042255Z AUTO 00000KT 10SM CLR 14/07 A3002 290 61 300 000/00 RMK AO2 SLP165 T01390067
03949KAQV AQV20191204170010712/04/19 17:00:31  5-MIN KAQV 042300Z AUTO 00000KT 10SM CLR 14/06 A3002 280 59 300 000/00 RMK AO2 T01390061
03949KAQV AQV20191204170510712/04/19 17:05:31  5-MIN KAQV 042305Z AUTO 00000KT 10SM CLR 13/06 A3002 280 61 200 000/00 RMK AO2 T01330061
03949KAQV AQV20191204171010712/04/19 17:10:31  5-MIN KAQV 042310Z AUTO 00000KT 10SM CLR 13/06 A3002 280 63 100 000/00 RMK AO2 T01280061
03949KAQV AQV20191204171510712/04/19 17:15:31  5-MIN KAQV 042315Z AUTO 00000KT 10SM CLR 12/07 A3003 280 68 100 000/00 RMK AO2 T01220067
03949KAQV AQV20191204172010712/04/19 17:20:31  5-MIN KAQV 042320Z AUTO 00000KT 10SM CLR 12/06 A3003 280 66 100 000/00 RMK AO2 T01220061
03949KAQV AQV20191204172510512/04/19 17:25:31  5-MIN KAQV 042325Z AUTO 00000KT 10SM CLR 12/06 A3003 270 68 0 000/00 RMK AO2 T01170061
03949KAQV AQV20191204173010512/04/19 17:30:31  5-MIN KAQV 042330Z AUTO 00000KT 10SM CLR 12/06 A3003 270 68 0 000/00 RMK AO2 T01170061
03949KAQV AQV20191204173510512/04/19 17:35:31  5-MIN KAQV 042335Z AUTO 00000KT 10SM CLR 11/06 A3003 270 71 0 000/00 RMK AO2 T01110061
03949KAQV AQV20191204174010512/04/19 17:40:31  5-MIN KAQV 042340Z AUTO 00000KT 10SM CLR 11/06 A3003 270 68 0 000/00 RMK AO2 T01110056
03949KAQV AQV20191204174510512/04/19 17:45:31  5-MIN KAQV 042345Z AUTO 00000KT 10SM CLR 11/06 A3004 270 68 0 000/00 RMK AO2 T01110056
03949KAQV AQV20191204175010812/04/19 17:50:31  5-MIN KAQV 042350Z AUTO 00000KT 10SM CLR 11/06 A3004 270 71 -100 000/00 RMK AO2 T01060056
03949KAQV AQV20191204175513312/04/19 17:55:31  5-MIN KAQV 042355Z AUTO 00000KT 10SM CLR 11/06 A3004 270 71 -100 000/00 RMK AO2 SLP173 T01060056 10206 20106 55008
03949KAQV AQV20191204180010812/04/19 18:00:31  5-MIN KAQV 050000Z AUTO 00000KT 10SM CLR 10/06 A3004 270 74 -200 000/00 RMK AO2 T01000056
03949KAQV AQV20191204180510812/04/19 18:05:31  5-MIN KAQV 050005Z AUTO 00000KT 10SM CLR 10/06 A3004 270 74 -200 000/00 RMK AO2 T01000056
03949KAQV AQV20191204181010812/04/19 18:10:31  5-MIN KAQV 050010Z AUTO 00000KT 10SM CLR 09/06 A3004 270 76 -200 000/00 RMK AO2 T00940056
03949KAQV AQV20191204181510812/04/19 18:15:31  5-MIN KAQV 050015Z AUTO 00000KT 10SM CLR 09/06 A3004 260 76 -200 000/00 RMK AO2 T00940056
03949KAQV AQV20191204182010812/04/19 18:20:31  5-MIN KAQV 050020Z AUTO 00000KT 10SM CLR 09/06 A3004 270 79 -300 000/00 RMK AO2 T00890056
03949KAQV AQV20191204182510812/04/19 18:25:31  5-MIN KAQV 050025Z AUTO 00000KT 10SM CLR 09/06 A3004 260 76 -200 000/00 RMK AO2 T00940056
03949KAQV AQV20191204183010812/04/19 18:30:31  5-MIN KAQV 050030Z AUTO 00000KT 10SM CLR 09/06 A3004 260 79 -300 000/00 RMK AO2 T00890056
03949KAQV AQV20191204183510812/04/19 18:35:31  5-MIN KAQV 050035Z AUTO 00000KT 10SM CLR 09/06 A3004 260 79 -300 000/00 RMK AO2 T00890056
03949KAQV AQV20191204184010812/04/19 18:40:31  5-MIN KAQV 050040Z AUTO 00000KT 10SM CLR 09/06 A3005 260 79 -300 000/00 RMK AO2 T00890056
03949KAQV AQV20191204184510812/04/19 18:45:31  5-MIN KAQV 050045Z AUTO 00000KT 10SM CLR 08/06 A3005 260 82 -400 000/00 RMK AO2 T00830056
03949KAQV AQV20191204185010812/04/19 18:50:31  5-MIN KAQV 050050Z AUTO 00000KT 10SM CLR 08/05 A3005 250 79 -400 000/00 RMK AO2 T00830050
03949KAQV AQV20191204185511512/04/19 18:55:31  5-MIN KAQV 050055Z AUTO 00000KT 10SM CLR 08/05 A3005 260 79 -400 000/00 RMK AO2 SLP177 T00830050
03949KAQV AQV20191204190010812/04/19 19:00:31  5-MIN KAQV 050100Z AUTO 00000KT 10SM CLR 08/05 A3005 260 79 -400 000/00 RMK AO2 T00830050
03949KAQV AQV20191204190510812/04/19 19:05:31  5-MIN KAQV 050105Z AUTO 00000KT 10SM CLR 08/05 A3005 260 79 -400 000/00 RMK AO2 T00830050
03949KAQV AQV20191204191010812/04/19 19:10:31  5-MIN KAQV 050110Z AUTO 00000KT 10SM CLR 08/05 A3005 260 79 -400 000/00 RMK AO2 T00830050
03949KAQV AQV20191204191510812/04/19 19:15:31  5-MIN KAQV 050115Z AUTO 00000KT 10SM CLR 08/05 A3005 260 79 -400 000/00 RMK AO2 T00830050
03949KAQV AQV20191204192010812/04/19 19:20:31  5-MIN KAQV 050120Z AUTO 00000KT 10SM CLR 08/05 A3005 260 79 -400 000/00 RMK AO2 T00830050
03949KAQV AQV20191204192510812/04/19 19:25:31  5-MIN KAQV 050125Z AUTO 00000KT 10SM CLR 08/05 A3005 260 79 -400 000/00 RMK AO2 T00830050
03949KAQV AQV20191204193010812/04/19 19:30:31  5-MIN KAQV 050130Z AUTO 00000KT 10SM CLR 08/04 A3005 260 79 -500 000/00 RMK AO2 T00780044
03949KAQV AQV20191204193510812/04/19 19:35:31  5-MIN KAQV 050135Z AUTO 00000KT 10SM CLR 08/04 A3005 260 79 -500 000/00 RMK AO2 T00780044
03949KAQV AQV20191204194010812/04/19 19:40:31  5-MIN KAQV 050140Z AUTO 00000KT 10SM CLR 08/04 A3005 250 79 -500 000/00 RMK AO2 T00780044
03949KAQV AQV20191204194510812/04/19 19:45:31  5-MIN KAQV 050145Z AUTO 00000KT 10SM CLR 08/04 A3005 260 79 -500 000/00 RMK AO2 T00780044
03949KAQV AQV20191204195010812/04/19 19:50:31  5-MIN KAQV 050150Z AUTO 00000KT 10SM CLR 08/04 A3005 250 79 -500 000/00 RMK AO2 T00780044
03949KAQV AQV20191204195511512/04/19 19:55:31  5-MIN KAQV 050155Z AUTO 00000KT 10SM CLR 08/04 A3006 250 79 -500 000/00 RMK AO2 SLP179 T00780044
03949KAQV AQV20191204200010812/04/19 20:00:31  5-MIN KAQV 050200Z AUTO 00000KT 10SM CLR 08/05 A3006 250 82 -500 000/00 RMK AO2 T00780050
03949KAQV AQV20191204200510812/04/19 20:05:31  5-MIN KAQV 050205Z AUTO 00000KT 10SM CLR 08/05 A3006 250 82 -500 000/00 RMK AO2 T00780050
03949KAQV AQV20191204201010812/04/19 20:10:31  5-MIN KAQV 050210Z AUTO 00000KT 10SM CLR 08/05 A3005 250 82 -500 000/00 RMK AO2 T00780050
03949KAQV AQV20191204201510812/04/19 20:15:31  5-MIN KAQV 050215Z AUTO 00000KT 10SM CLR 07/05 A3005 250 86 -500 000/00 RMK AO2 T00720050
03949KAQV AQV20191204202010812/04/19 20:20:31  5-MIN KAQV 050220Z AUTO 00000KT 10SM CLR 07/05 A3005 260 86 -500 000/00 RMK AO2 T00720050
03949KAQV AQV20191204202510812/04/19 20:25:31  5-MIN KAQV 050225Z AUTO 00000KT 10SM CLR 07/04 A3005 260 82 -500 000/00 RMK AO2 T00720044
03949KAQV AQV20191204203010812/04/19 20:30:31  5-MIN KAQV 050230Z AUTO 00000KT 10SM CLR 07/04 A3005 260 82 -500 000/00 RMK AO2 T00720044
03949KAQV AQV20191204203510812/04/19 20:35:31  5-MIN KAQV 050235Z AUTO 00000KT 10SM CLR 07/04 A3005 260 82 -500 000/00 RMK AO2 T00720044
03949KAQV AQV20191204204010812/04/19 20:40:31  5-MIN KAQV 050240Z AUTO 00000KT 10SM CLR 07/04 A3005 260 86 -600 000/00 RMK AO2 T00670044
03949KAQV AQV20191204204510812/04/19 20:45:31  5-MIN KAQV 050245Z AUTO 00000KT 10SM CLR 07/04 A3005 260 86 -600 000/00 RMK AO2 T00670044
03949KAQV AQV20191204205010812/04/19 20:50:31  5-MIN KAQV 050250Z AUTO 00000KT 10SM CLR 07/04 A3005 260 86 -600 000/00 RMK AO2 T00670044
03949KAQV AQV20191204205512112/04/19 20:55:31  5-MIN KAQV 050255Z AUTO 00000KT 10SM CLR 07/05 A3005 250 89 -600 000/00 RMK AO2 SLP178 T00670050 53002
03949KAQV AQV20191204210010812/04/19 21:00:31  5-MIN KAQV 050300Z AUTO 00000KT 10SM CLR 07/05 A3005 260 89 -600 000/00 RMK AO2 T00670050
03949KAQV AQV20191204210510812/04/19 21:05:31  5-MIN KAQV 050305Z AUTO 00000KT 10SM CLR 07/05 A3005 260 89 -600 000/00 RMK AO2 T00670050
03949KAQV AQV20191204211010812/04/19 21:10:31  5-MIN KAQV 050310Z AUTO 00000KT 10SM CLR 07/05 A3005 260 89 -600 000/00 RMK AO2 T00670050
03949KAQV AQV20191204211510812/04/19 21:15:31  5-MIN KAQV 050315Z AUTO 00000KT 10SM CLR 07/05 A3005 260 89 -600 000/00 RMK AO2 T00670050
03949KAQV AQV20191204212010812/04/19 21:20:31  5-MIN KAQV 050320Z AUTO 00000KT 10SM CLR 07/05 A3005 260 89 -600 000/00 RMK AO2 T00670050
03949KAQV AQV20191204212510812/04/19 21:25:31  5-MIN KAQV 050325Z AUTO 00000KT 10SM CLR 07/04 A3005 260 82 -500 000/00 RMK AO2 T00720044
03949KAQV AQV20191204213010812/04/19 21:30:31  5-MIN KAQV 050330Z AUTO 00000KT 10SM CLR 07/05 A3005 260 86 -500 000/00 RMK AO2 T00720050
03949KAQV AQV20191204213510812/04/19 21:35:31  5-MIN KAQV 050335Z AUTO 00000KT 10SM CLR 07/05 A3005 260 86 -500 000/00 RMK AO2 T00720050
03949KAQV AQV20191204214010812/04/19 21:40:31  5-MIN KAQV 050340Z AUTO 00000KT 10SM CLR 07/05 A3005 250 86 -500 000/00 RMK AO2 T00720050
03949KAQV AQV20191204214510812/04/19 21:45:31  5-MIN KAQV 050345Z AUTO 00000KT 10SM CLR 07/05 A3006 250 86 -500 000/00 RMK AO2 T00720050
03949KAQV AQV20191204215010812/04/19 21:50:31  5-MIN KAQV 050350Z AUTO 00000KT 10SM CLR 07/05 A3006 250 86 -500 000/00 RMK AO2 T00720050
03949KAQV AQV20191204215511512/04/19 21:55:31  5-MIN KAQV 050355Z AUTO 00000KT 10SM CLR 07/05 A3005 250 86 -500 000/00 RMK AO2 SLP178 T00720050
03949KAQV AQV20191204220010812/04/19 22:00:31  5-MIN KAQV 050400Z AUTO 00000KT 10SM CLR 07/04 A3005 250 82 -500 000/00 RMK AO2 T00720044
03949KAQV AQV20191204220510812/04/19 22:05:31  5-MIN KAQV 050405Z AUTO 00000KT 10SM CLR 07/04 A3006 250 86 -600 000/00 RMK AO2 T00670044
03949KAQV AQV20191204221010812/04/19 22:10:31  5-MIN KAQV 050410Z AUTO 00000KT 10SM CLR 07/05 A3005 250 89 -600 000/00 RMK AO2 T00670050
03949KAQV AQV20191204221510812/04/19 22:15:31  5-MIN KAQV 050415Z AUTO 00000KT 10SM CLR 07/05 A3005 260 89 -600 000/00 RMK AO2 T00670050
03949KAQV AQV20191204222010812/04/19 22:20:31  5-MIN KAQV 050420Z AUTO 00000KT 10SM CLR 07/05 A3005 250 89 -600 000/00 RMK AO2 T00670050
03949KAQV AQV20191204222510812/04/19 22:25:31  5-MIN KAQV 050425Z AUTO 00000KT 10SM CLR 07/05 A3005 260 89 -600 000/00 RMK AO2 T00670050
03949KAQV AQV20191204223010812/04/19 22:30:31  5-MIN KAQV 050430Z AUTO 00000KT 10SM CLR 07/04 A3005 250 82 -500 000/00 RMK AO2 T00720044
03949KAQV AQV20191204223510812/04/19 22:35:31  5-MIN KAQV 050435Z AUTO 00000KT 10SM CLR 07/04 A3005 250 82 -500 000/00 RMK AO2 T00720044
03949KAQV AQV20191204224010812/04/19 22:40:31  5-MIN KAQV 050440Z AUTO 00000KT 10SM CLR 07/05 A3006 250 86 -500 000/00 RMK AO2 T00720050
03949KAQV AQV20191204224510812/04/19 22:45:31  5-MIN KAQV 050445Z AUTO 00000KT 10SM CLR 07/05 A3006 240 86 -500 000/00 RMK AO2 T00720050
03949KAQV AQV20191204225010812/04/19 22:50:31  5-MIN KAQV 050450Z AUTO 00000KT 10SM CLR 07/04 A3006 240 82 -500 000/00 RMK AO2 T00720044
03949KAQV AQV20191204225511512/04/19 22:55:31  5-MIN KAQV 050455Z AUTO 00000KT 10SM CLR 07/04 A3007 240 82 -500 000/00 RMK AO2 SLP182 T00720044
03949KAQV AQV20191204230010812/04/19 23:00:31  5-MIN KAQV 050500Z AUTO 00000KT 10SM CLR 07/05 A3006 240 89 -600 000/00 RMK AO2 T00670050
03949KAQV AQV20191204230510812/04/19 23:05:31  5-MIN KAQV 050505Z AUTO 00000KT 10SM CLR 06/04 A3006 250 89 -700 000/00 RMK AO2 T00610044
03949KAQV AQV20191204231010812/04/19 23:10:31  5-MIN KAQV 050510Z AUTO 00000KT 10SM CLR 07/04 A3006 250 86 -600 000/00 RMK AO2 T00670044
03949KAQV AQV20191204231510812/04/19 23:15:31  5-MIN KAQV 050515Z AUTO 00000KT 10SM CLR 07/04 A3006 250 86 -600 000/00 RMK AO2 T00670044
03949KAQV AQV20191204232010812/04/19 23:20:31  5-MIN KAQV 050520Z AUTO 00000KT 10SM CLR 07/04 A3006 250 86 -600 000/00 RMK AO2 T00670044
03949KAQV AQV20191204232510812/04/19 23:25:31  5-MIN KAQV 050525Z AUTO 00000KT 10SM CLR 07/04 A3007 240 86 -600 000/00 RMK AO2 T00670044
03949KAQV AQV20191204233010812/04/19 23:30:31  5-MIN KAQV 050530Z AUTO 00000KT 10SM CLR 07/04 A3007 240 86 -600 000/00 RMK AO2 T00670044
03949KAQV AQV20191204233510812/04/19 23:35:31  5-MIN KAQV 050535Z AUTO 00000KT 10SM CLR 07/04 A3007 240 86 -600 000/00 RMK AO2 T00670044
03949KAQV AQV20191204234010812/04/19 23:40:31  5-MIN KAQV 050540Z AUTO 00000KT 10SM CLR 06/04 A3007 240 89 -700 000/00 RMK AO2 T00610044
03949KAQV AQV20191204234510812/04/19 23:45:31  5-MIN KAQV 050545Z AUTO 00000KT 10SM CLR 06/04 A3007 240 89 -700 000/00 RMK AO2 T00610044
03949KAQV AQV20191204235010812/04/19 23:50:31  5-MIN KAQV 050550Z AUTO 00000KT 10SM CLR 06/04 A3006 240 89 -700 000/00 RMK AO2 T00610044
03949KAQV AQV20191204235514312/04/19 23:55:31  5-MIN KAQV 050555Z AUTO 00000KT 10SM CLR 07/04 A3006 240 86 -600 000/00 RMK AO2 SLP180 T00670044 10106 20061 402060044 50005
03949KAQV AQV20191205000010812/05/19 00:00:31  5-MIN KAQV 050600Z AUTO 00000KT 10SM CLR 07/04 A3006 250 86 -600 000/00 RMK AO2 T00670044
03949KAQV AQV20191205000510812/05/19 00:05:31  5-MIN KAQV 050605Z AUTO 00000KT 10SM CLR 07/04 A3006 250 86 -600 000/00 RMK AO2 T00670044
03949KAQV AQV20191205001010812/05/19 00:10:31  5-MIN KAQV 050610Z AUTO 00000KT 10SM CLR 06/04 A3006 250 89 -700 000/00 RMK AO2 T00610044
03949KAQV AQV20191205001510812/05/19 00:15:31  5-MIN KAQV 050615Z AUTO 00000KT 10SM CLR 06/04 A3006 250 89 -700 000/00 RMK AO2 T00610044
03949KAQV AQV20191205002010812/05/19 00:20:31  5-MIN KAQV 050620Z AUTO 00000KT 10SM CLR 06/04 A3005 250 89 -700 000/00 RMK AO2 T00610044
03949KAQV AQV20191205002510812/05/19 00:25:31  5-MIN KAQV 050625Z AUTO 00000KT 10SM CLR 06/04 A3005 260 86 -700 000/00 RMK AO2 T00610039
03949KAQV AQV20191205003010812/05/19 00:30:31  5-MIN KAQV 050630Z AUTO 00000KT 10SM CLR 06/04 A3005 250 86 -700 000/00 RMK AO2 T00610039
03949KAQV AQV20191205003510812/05/19 00:35:31  5-MIN KAQV 050635Z AUTO 00000KT 10SM CLR 06/04 A3005 260 86 -700 000/00 RMK AO2 T00610039
03949KAQV AQV20191205004010812/05/19 00:40:31  5-MIN KAQV 050640Z AUTO 00000KT 10SM CLR 06/04 A3005 260 86 -700 000/00 RMK AO2 T00610039
03949KAQV AQV20191205004510812/05/19 00:45:31  5-MIN KAQV 050645Z AUTO 00000KT 10SM CLR 06/04 A3004 260 86 -700 000/00 RMK AO2 T00610039
03949KAQV AQV20191205005010812/05/19 00:50:31  5-MIN KAQV 050650Z AUTO 00000KT 10SM CLR 06/04 A3004 260 86 -700 000/00 RMK AO2 T00610039
03949KAQV AQV20191205005511512/05/19 00:55:31  5-MIN KAQV 050655Z AUTO 00000KT 10SM CLR 06/04 A3004 260 86 -700 000/00 RMK AO2 SLP174 T00610039
03949KAQV AQV20191205010010812/05/19 01:00:31  5-MIN KAQV 050700Z AUTO 00000KT 10SM CLR 06/04 A3004 260 86 -700 000/00 RMK AO2 T00610039
03949KAQV AQV20191205010510812/05/19 01:05:31  5-MIN KAQV 050705Z AUTO 00000KT 10SM CLR 06/04 A3004 270 89 -700 000/00 RMK AO2 T00560039
03949KAQV AQV20191205011010812/05/19 01:10:31  5-MIN KAQV 050710Z AUTO 00000KT 10SM CLR 06/04 A3004 260 86 -700 000/00 RMK AO2 T00610039
03949KAQV AQV20191205011510812/05/19 01:15:31  5-MIN KAQV 050715Z AUTO 00000KT 10SM CLR 06/04 A3004 270 86 -700 000/00 RMK AO2 T00610039
03949KAQV AQV20191205012010812/05/19 01:20:31  5-MIN KAQV 050720Z AUTO 00000KT 10SM CLR 06/04 A3004 270 86 -700 000/00 RMK AO2 T00610039
03949KAQV AQV20191205012510812/05/19 01:25:31  5-MIN KAQV 050725Z AUTO 00000KT 10SM CLR 06/04 A3004 270 86 -700 000/00 RMK AO2 T00610039
03949KAQV AQV20191205013010812/05/19 01:30:31  5-MIN KAQV 050730Z AUTO 00000KT 10SM CLR 06/04 A3004 260 89 -700 000/00 RMK AO2 T00560039
03949KAQV AQV20191205013510812/05/19 01:35:31  5-MIN KAQV 050735Z AUTO 00000KT 10SM CLR 06/04 A3005 260 89 -700 000/00 RMK AO2 T00560039
03949KAQV AQV20191205014010812/05/19 01:40:31  5-MIN KAQV 050740Z AUTO 00000KT 10SM CLR 06/04 A3005 260 89 -700 000/00 RMK AO2 T00560039
03949KAQV AQV20191205014510812/05/19 01:45:31  5-MIN KAQV 050745Z AUTO 00000KT 10SM CLR 06/04 A3005 260 89 -700 000/00 RMK AO2 T00560039
03949KAQV AQV20191205015010812/05/19 01:50:31  5-MIN KAQV 050750Z AUTO 00000KT 10SM CLR 06/04 A3005 260 89 -700 000/00 RMK AO2 T00560039
03949KAQV AQV20191205015511512/05/19 01:55:31  5-MIN KAQV 050755Z AUTO 00000KT 10SM CLR 05/04 A3004 260 92 -800 000/00 RMK AO2 SLP173 T00500039
03949KAQV AQV20191205020010812/05/19 02:00:31  5-MIN KAQV 050800Z AUTO 00000KT 10SM CLR 06/04 A3004 260 89 -700 000/00 RMK AO2 T00560039
03949KAQV AQV20191205020510812/05/19 02:05:31  5-MIN KAQV 050805Z AUTO 00000KT 10SM CLR 06/04 A3004 260 89 -700 000/00 RMK AO2 T00560039
03949KAQV AQV20191205021010812/05/19 02:10:31  5-MIN KAQV 050810Z AUTO 00000KT 10SM CLR 05/04 A3005 260 92 -800 000/00 RMK AO2 T00500039
03949KAQV AQV20191205021510812/05/19 02:15:31  5-MIN KAQV 050815Z AUTO 00000KT 10SM CLR 05/04 A3005 260 92 -800 000/00 RMK AO2 T00500039
03949KAQV AQV20191205022010812/05/19 02:20:31  5-MIN KAQV 050820Z AUTO 00000KT 10SM CLR 05/04 A3005 260 92 -800 000/00 RMK AO2 T00500039
03949KAQV AQV20191205022510812/05/19 02:25:31  5-MIN KAQV 050825Z AUTO 00000KT 10SM CLR 05/03 A3005 260 89 -800 000/00 RMK AO2 T00500033
03949KAQV AQV20191205023010812/05/19 02:30:31  5-MIN KAQV 050830Z AUTO 00000KT 10SM CLR 05/04 A3005 260 92 -800 000/00 RMK AO2 T00500039
03949KAQV AQV20191205023510812/05/19 02:35:31  5-MIN KAQV 050835Z AUTO 00000KT 10SM CLR 06/03 A3005 260 85 -700 000/00 RMK AO2 T00560033
03949KAQV AQV20191205024010812/05/19 02:40:31  5-MIN KAQV 050840Z AUTO 00000KT 10SM CLR 05/04 A3004 260 92 -800 000/00 RMK AO2 T00500039
03949KAQV AQV20191205024510812/05/19 02:45:31  5-MIN KAQV 050845Z AUTO 00000KT 10SM CLR 05/04 A3004 260 92 -800 000/00 RMK AO2 T00500039
03949KAQV AQV20191205025010812/05/19 02:50:31  5-MIN KAQV 050850Z AUTO 00000KT 10SM CLR 05/03 A3005 260 89 -800 000/00 RMK AO2 T00500033
03949KAQV AQV20191205025512112/05/19 02:55:31  5-MIN KAQV 050855Z AUTO 00000KT 10SM CLR 05/03 A3005 260 89 -800 000/00 RMK AO2 SLP176 T00500033 50004
03949KAQV AQV20191205030010812/05/19 03:00:31  5-MIN KAQV 050900Z AUTO 00000KT 10SM CLR 05/03 A3005 260 89 -800 000/00 RMK AO2 T00500033
03949KAQV AQV20191205030510812/05/19 03:05:31  5-MIN KAQV 050905Z AUTO 00000KT 10SM CLR 05/03 A3005 260 89 -800 000/00 RMK AO2 T00500033
03949KAQV AQV20191205031010812/05/19 03:10:31  5-MIN KAQV 050910Z AUTO 00000KT 10SM CLR 05/03 A3005 260 89 -800 000/00 RMK AO2 T00500033
03949KAQV AQV20191205031510812/05/19 03:15:31  5-MIN KAQV 050915Z AUTO 00000KT 10SM CLR 05/03 A3004 260 89 -800 000/00 RMK AO2 T00500033
03949KAQV AQV20191205032010812/05/19 03:20:31  5-MIN KAQV 050920Z AUTO 00000KT 10SM CLR 05/03 A3005 260 89 -800 000/00 RMK AO2 T00500033
03949KAQV AQV20191205032510812/05/19 03:25:31  5-MIN KAQV 050925Z AUTO 00000KT 10SM CLR 05/03 A3005 260 89 -800 000/00 RMK AO2 T00500033
03949KAQV AQV20191205033010812/05/19 03:30:31  5-MIN KAQV 050930Z AUTO 00000KT 10SM CLR 05/04 A3005 260 92 -800 000/00 RMK AO2 T00500039
03949KAQV AQV20191205033510812/05/19 03:35:31  5-MIN KAQV 050935Z AUTO 00000KT 10SM CLR 06/04 A3006 250 89 -700 000/00 RMK AO2 T00560039
03949KAQV AQV20191205034010812/05/19 03:40:31  5-MIN KAQV 050940Z AUTO 00000KT 10SM CLR 06/04 A3005 250 92 -700 000/00 RMK AO2 T00560044
03949KAQV AQV20191205034510812/05/19 03:45:31  5-MIN KAQV 050945Z AUTO 00000KT 10SM CLR 06/04 A3005 250 92 -700 000/00 RMK AO2 T00560044
03949KAQV AQV20191205035010812/05/19 03:50:31  5-MIN KAQV 050950Z AUTO 00000KT 10SM CLR 06/04 A3006 250 89 -700 000/00 RMK AO2 T00610044
03949KAQV AQV20191205035511512/05/19 03:55:31  5-MIN KAQV 050955Z AUTO 00000KT 10SM CLR 07/05 A3006 250 89 -600 000/00 RMK AO2 SLP179 T00670050
03949KAQV AQV20191205040010812/05/19 04:00:31  5-MIN KAQV 051000Z AUTO 00000KT 10SM CLR 07/05 A3006 250 89 -600 000/00 RMK AO2 T00670050
03949KAQV AQV20191205040510812/05/19 04:05:31  5-MIN KAQV 051005Z AUTO 00000KT 10SM CLR 07/05 A3005 260 89 -600 000/00 RMK AO2 T00670050
03949KAQV AQV20191205041010812/05/19 04:10:31  5-MIN KAQV 051010Z AUTO 00000KT 10SM CLR 07/06 A3005 250 93 -600 000/00 RMK AO2 T00670056
03949KAQV AQV20191205041510812/05/19 04:15:31  5-MIN KAQV 051015Z AUTO 00000KT 10SM CLR 07/06 A3005 250 93 -600 000/00 RMK AO2 T00670056
03949KAQV AQV20191205042010812/05/19 04:20:31  5-MIN KAQV 051020Z AUTO 00000KT 10SM CLR 07/06 A3005 260 93 -600 000/00 RMK AO2 T00670056
03949KAQV AQV20191205042510812/05/19 04:25:31  5-MIN KAQV 051025Z AUTO 00000KT 10SM CLR 07/06 A3005 250 93 -600 000/00 RMK AO2 T00670056
03949KAQV AQV20191205043010812/05/19 04:30:31  5-MIN KAQV 051030Z AUTO 00000KT 10SM CLR 07/06 A3005 250 93 -600 000/00 RMK AO2 T00670056
03949KAQV AQV20191205043510812/05/19 04:35:31  5-MIN KAQV 051035Z AUTO 00000KT 10SM CLR 07/06 A3005 260 93 -600 000/00 RMK AO2 T00670056
03949KAQV AQV20191205044010812/05/19 04:40:31  5-MIN KAQV 051040Z AUTO 00000KT 10SM CLR 07/05 A3005 260 89 -600 000/00 RMK AO2 T00670050
03949KAQV AQV20191205044510812/05/19 04:45:31  5-MIN KAQV 051045Z AUTO 00000KT 10SM CLR 07/05 A3005 260 89 -600 000/00 RMK AO2 T00670050
03949KAQV AQV20191205045010812/05/19 04:50:31  5-MIN KAQV 051050Z AUTO 00000KT 10SM CLR 07/05 A3005 260 89 -600 000/00 RMK AO2 T00670050
03949KAQV AQV20191205045511512/05/19 04:55:31  5-MIN KAQV 051055Z AUTO 00000KT 10SM CLR 07/05 A3006 250 89 -600 000/00 RMK AO2 SLP178 T00670050
03949KAQV AQV20191205050010812/05/19 05:00:31  5-MIN KAQV 051100Z AUTO 00000KT 10SM CLR 07/05 A3005 250 86 -500 000/00 RMK AO2 T00720050
03949KAQV AQV20191205050510812/05/19 05:05:31  5-MIN KAQV 051105Z AUTO 00000KT 10SM CLR 07/06 A3005 250 89 -500 000/00 RMK AO2 T00720056
03949KAQV AQV20191205051010812/05/19 05:10:31  5-MIN KAQV 051110Z AUTO 00000KT 10SM CLR 07/06 A3006 250 89 -500 000/00 RMK AO2 T00720056
03949KAQV AQV20191205051510812/05/19 05:15:31  5-MIN KAQV 051115Z AUTO 00000KT 10SM CLR 07/06 A3006 250 89 -500 000/00 RMK AO2 T00720056
03949KAQV AQV20191205052010812/05/19 05:20:31  5-MIN KAQV 051120Z AUTO 00000KT 10SM CLR 07/06 A3006 250 89 -500 000/00 RMK AO2 T00720056
03949KAQV AQV20191205052510812/05/19 05:25:31  5-MIN KAQV 051125Z AUTO 00000KT 10SM CLR 07/06 A3006 250 89 -500 000/00 RMK AO2 T00720056
03949KAQV AQV20191205053010812/05/19 05:30:31  5-MIN KAQV 051130Z AUTO 00000KT 10SM CLR 07/06 A3006 250 89 -500 000/00 RMK AO2 T00720056
03949KAQV AQV20191205053510812/05/19 05:35:31  5-MIN KAQV 051135Z AUTO 00000KT 10SM CLR 07/06 A3006 250 89 -500 000/00 RMK AO2 T00720056
03949KAQV AQV20191205054010812/05/19 05:40:31  5-MIN KAQV 051140Z AUTO 00000KT 10SM CLR 07/06 A3006 240 89 -500 000/00 RMK AO2 T00720056
03949KAQV AQV20191205054510812/05/19 05:45:31  5-MIN KAQV 051145Z AUTO 00000KT 10SM CLR 07/06 A3007 240 93 -500 000/00 RMK AO2 T00720061
03949KAQV AQV20191205055010812/05/19 05:50:31  5-MIN KAQV 051150Z AUTO 00000KT 10SM CLR 08/06 A3007 240 89 -500 000/00 RMK AO2 T00780061
03949KAQV AQV20191205055513312/05/19 05:55:31  5-MIN KAQV 051155Z AUTO 00000KT 10SM CLR 08/06 A3007 240 86 -500 000/00 RMK AO2 SLP184 T00780056 10078 20050 55004
03949KAQV AQV20191205060010812/05/19 06:00:31  5-MIN KAQV 051200Z AUTO 00000KT 10SM CLR 08/06 A3007 240 89 -500 000/00 RMK AO2 T00780061
03949KAQV AQV20191205060510812/05/19 06:05:31  5-MIN KAQV 051205Z AUTO 00000KT 10SM CLR 08/06 A3007 240 89 -500 000/00 RMK AO2 T00780061
03949KAQV AQV20191205061010812/05/19 06:10:31  5-MIN KAQV 051210Z AUTO 00000KT 10SM CLR 08/06 A3007 240 89 -500 000/00 RMK AO2 T00780061
03949KAQV AQV20191205061510812/05/19 06:15:31  5-MIN KAQV 051215Z AUTO 00000KT 10SM CLR 08/06 A3007 230 89 -500 000/00 RMK AO2 T00780061
03949KAQV AQV20191205062010812/05/19 06:20:31  5-MIN KAQV 051220Z AUTO 00000KT 10SM CLR 08/06 A3008 230 89 -500 000/00 RMK AO2 T00780061
03949KAQV AQV20191205062510812/05/19 06:25:31  5-MIN KAQV 051225Z AUTO 00000KT 10SM CLR 08/06 A3008 230 86 -500 000/00 RMK AO2 T00780056
03949KAQV AQV20191205063010812/05/19 06:30:31  5-MIN KAQV 051230Z AUTO 00000KT 10SM CLR 08/06 A3008 230 86 -500 000/00 RMK AO2 T00780056
03949KAQV AQV20191205063510812/05/19 06:35:31  5-MIN KAQV 051235Z AUTO 00000KT 10SM CLR 08/06 A3008 230 89 -500 000/00 RMK AO2 T00780061
03949KAQV AQV20191205064010812/05/19 06:40:31  5-MIN KAQV 051240Z AUTO 00000KT 10SM CLR 08/06 A3008 230 89 -500 000/00 RMK AO2 T00780061
03949KAQV AQV20191205064510812/05/19 06:45:31  5-MIN KAQV 051245Z AUTO 00000KT 10SM CLR 08/06 A3008 230 89 -500 000/00 RMK AO2 T00780061
03949KAQV AQV20191205065010812/05/19 06:50:31  5-MIN KAQV 051250Z AUTO 00000KT 10SM CLR 08/06 A3008 230 89 -500 000/00 RMK AO2 T00780061
03949KAQV AQV20191205065511512/05/19 06:55:31  5-MIN KAQV 051255Z AUTO 00000KT 10SM CLR 08/06 A3008 230 89 -500 000/00 RMK AO2 SLP189 T00780061
03949KAQV AQV20191205070010812/05/19 07:00:31  5-MIN KAQV 051300Z AUTO 00000KT 10SM CLR 08/06 A3009 220 89 -500 000/00 RMK AO2 T00780061
03949KAQV AQV20191205070510812/05/19 07:05:31  5-MIN KAQV 051305Z AUTO 00000KT 10SM CLR 08/06 A3009 220 89 -500 000/00 RMK AO2 T00780061
03949KAQV AQV20191205071010812/05/19 07:10:31  5-MIN KAQV 051310Z AUTO 00000KT 10SM CLR 08/06 A3009 220 89 -500 000/00 RMK AO2 T00780061
03949KAQV AQV20191205071510812/05/19 07:15:31  5-MIN KAQV 051315Z AUTO 00000KT 10SM CLR 08/06 A3009 220 89 -500 000/00 RMK AO2 T00780061
03949KAQV AQV20191205072010812/05/19 07:20:31  5-MIN KAQV 051320Z AUTO 00000KT 10SM CLR 08/06 A3009 220 89 -500 000/00 RMK AO2 T00780061
03949KAQV AQV20191205072510812/05/19 07:25:31  5-MIN KAQV 051325Z AUTO 00000KT 10SM CLR 08/06 A3009 220 89 -500 000/00 RMK AO2 T00780061
03949KAQV AQV20191205073010812/05/19 07:30:31  5-MIN KAQV 051330Z AUTO 00000KT 10SM CLR 08/06 A3010 210 89 -500 000/00 RMK AO2 T00780061
03949KAQV AQV20191205073510812/05/19 07:35:31  5-MIN KAQV 051335Z AUTO 00000KT 10SM CLR 08/06 A3010 210 89 -500 000/00 RMK AO2 T00780061
03949KAQV AQV20191205074010812/05/19 07:40:31  5-MIN KAQV 051340Z AUTO 00000KT 10SM CLR 08/06 A3010 210 86 -500 000/00 RMK AO2 T00830061
03949KAQV AQV20191205074510812/05/19 07:45:31  5-MIN KAQV 051345Z AUTO 00000KT 10SM CLR 08/07 A3010 210 89 -500 000/00 RMK AO2 T00830067
03949KAQV AQV20191205075010812/05/19 07:50:31  5-MIN KAQV 051350Z AUTO 00000KT 10SM CLR 08/07 A3010 210 89 -400 000/00 RMK AO2 T00830067
03949KAQV AQV20191205075511512/05/19 07:55:31  5-MIN KAQV 051355Z AUTO 00000KT 10SM CLR 09/07 A3010 210 89 -400 000/00 RMK AO2 SLP194 T00890072
03949KAQV AQV20191205080010812/05/19 08:00:31  5-MIN KAQV 051400Z AUTO 00000KT 10SM CLR 09/07 A3010 210 86 -300 000/00 RMK AO2 T00940072
03949KAQV AQV20191205080510812/05/19 08:05:31  5-MIN KAQV 051405Z AUTO 00000KT 10SM CLR 10/08 A3010 210 86 -200 000/00 RMK AO2 T01000078
03949KAQV AQV20191205081010812/05/19 08:10:31  5-MIN KAQV 051410Z AUTO 00000KT 10SM CLR 10/08 A3010 210 86 -200 000/00 RMK AO2 T01000078
03949KAQV AQV20191205081510812/05/19 08:15:31  5-MIN KAQV 051415Z AUTO 00000KT 10SM CLR 11/08 A3010 210 86 -200 000/00 RMK AO2 T01060083
03949KAQV AQV20191205082010812/05/19 08:20:31  5-MIN KAQV 051420Z AUTO 00000KT 10SM CLR 11/07 A3010 210 80 -200 000/00 RMK AO2 T01060072
03949KAQV AQV20191205082510812/05/19 08:25:31  5-MIN KAQV 051425Z AUTO 00000KT 10SM CLR 11/06 A3010 210 71 -100 000/00 RMK AO2 T01110061
03949KAQV AQV20191205083010812/05/19 08:30:31  5-MIN KAQV 051430Z AUTO 00000KT 10SM CLR 11/07 A3010 210 74 -100 000/00 RMK AO2 T01110067
03949KAQV AQV20191205083510812/05/19 08:35:31  5-MIN KAQV 051435Z AUTO 00000KT 10SM CLR 12/07 A3011 200 71 -100 000/00 RMK AO2 T01170067
03949KAQV AQV20191205084010812/05/19 08:40:31  5-MIN KAQV 051440Z AUTO 00000KT 10SM CLR 12/07 A3011 200 71 -100 000/00 RMK AO2 T01170067
03949KAQV AQV20191205084510512/05/19 08:45:31  5-MIN KAQV 051445Z AUTO 00000KT 10SM CLR 12/07 A3011 200 68 0 000/00 RMK AO2 T01220067
03949KAQV AQV20191205085010512/05/19 08:50:31  5-MIN KAQV 051450Z AUTO 00000KT 10SM CLR 12/07 A3011 200 68 0 000/00 RMK AO2 T01220067
03949KAQV AQV20191205085511812/05/19 08:55:31  5-MIN KAQV 051455Z AUTO VRB03KT 10SM CLR 13/07 A3011 200 66 0 VRB/03 RMK AO2 SLP196 T01280067 53006
03949KAQV AQV20191205090010812/05/19 09:00:31  5-MIN KAQV 051500Z AUTO 00000KT 10SM CLR 12/06 A3011 200 68 -100 000/00 RMK AO2 T01170061
03949KAQV AQV20191205090510512/05/19 09:05:31  5-MIN KAQV 051505Z AUTO VRB03KT 10SM CLR 13/07 A3011 200 66 0 VRB/03 RMK AO2 T01280067
03949KAQV AQV20191205091010512/05/19 09:10:31  5-MIN KAQV 051510Z AUTO 14003KT 10SM CLR 13/06 A3011 200 63 0 140/03 RMK AO2 T01280061
03949KAQV AQV20191205091510712/05/19 09:15:31  5-MIN KAQV 051515Z AUTO 14003KT 10SM CLR 13/06 A3012 190 61 100 140/03 RMK AO2 T01330061
03949KAQV AQV20191205092010712/05/19 09:20:31  5-MIN KAQV 051520Z AUTO 17003KT 10SM CLR 13/06 A3012 190 61 100 170/03 RMK AO2 T01330061
03949KAQV AQV20191205092510712/05/19 09:25:31  5-MIN KAQV 051525Z AUTO VRB04KT 10SM CLR 13/06 A3012 190 61 100 VRB/04 RMK AO2 T01330061
03949KAQV AQV20191205093010712/05/19 09:30:31  5-MIN KAQV 051530Z AUTO VRB04KT 10SM CLR 15/05 A3012 190 51 300 VRB/04 RMK AO2 T01500050
03949KAQV AQV20191205093510712/05/19 09:35:31  5-MIN KAQV 051535Z AUTO 17004KT 10SM CLR 15/04 A3012 190 49 300 170/04 RMK AO2 T01500044
03949KAQV AQV20191205094010712/05/19 09:40:31  5-MIN KAQV 051540Z AUTO VRB06KT 10SM CLR 16/04 A3012 190 47 300 VRB/06 RMK AO2 T01560044
03949KAQV AQV20191205094510712/05/19 09:45:31  5-MIN KAQV 051545Z AUTO 18005KT 10SM CLR 16/04 A3012 190 45 300 180/05 RMK AO2 T01560039
03949KAQV AQV20191205095010612/05/19 09:50:31  5-MIN KAQV 051550Z AUTO VRB06KT 8SM CLR 16/04 A3012 190 44 400 VRB/06 RMK AO2 T01610039
03949KAQV AQV20191205095511312/05/19 09:55:31  5-MIN KAQV 051555Z AUTO 16004KT 8SM CLR 16/03 A3012 190 42 400 160/04 RMK AO2 SLP200 T01610033
03949KAQV AQV20191205100010712/05/19 10:00:31  5-MIN KAQV 051600Z AUTO 16005KT 10SM CLR 17/04 A3012 200 42 500 160/05 RMK AO2 T01670039
03949KAQV AQV20191205200510712/05/19 20:05:31  5-MIN KAQV 060205Z AUTO 17004KT 10SM CLR 14/08 A3001 290 66 300 170/04 RMK AO2 T01390078
03949KAQV AQV20191205201010712/05/19 20:10:31  5-MIN KAQV 060210Z AUTO 17004KT 10SM CLR 14/08 A3001 290 66 300 170/04 RMK AO2 T01390078
03949KAQV AQV20191205201510712/05/19 20:15:31  5-MIN KAQV 060215Z AUTO 17004KT 10SM CLR 14/08 A3001 290 69 300 170/04 RMK AO2 T01390083
03949KAQV AQV20191205202010712/05/19 20:20:31  5-MIN KAQV 060220Z AUTO 17005KT 10SM CLR 14/08 A3001 290 69 300 160/05 RMK AO2 T01390083
03949KAQV AQV20191205202510712/05/19 20:25:31  5-MIN KAQV 060225Z AUTO VRB04KT 10SM CLR 14/08 A3001 290 69 300 VRB/04 RMK AO2 T01390083
03949KAQV AQV20191205203010712/05/19 20:30:31  5-MIN KAQV 060230Z AUTO 17004KT 10SM CLR 14/08 A3001 290 66 300 170/04 RMK AO2 T01440083
03949KAQV AQV20191205203510712/05/19 20:35:31  5-MIN KAQV 060235Z AUTO 16003KT 10SM CLR 14/08 A3001 290 66 300 160/03 RMK AO2 T01440083
03949KAQV AQV20191205204010712/05/19 20:40:31  5-MIN KAQV 060240Z AUTO 17003KT 10SM CLR 14/08 A3002 290 66 300 160/03 RMK AO2 T01440083
03949KAQV AQV20191205204510712/05/19 20:45:31  5-MIN KAQV 060245Z AUTO VRB03KT 10SM CLR 14/08 A3002 280 66 300 VRB/03 RMK AO2 T01440083
03949KAQV AQV20191205205010712/05/19 20:50:31  5-MIN KAQV 060250Z AUTO 16004KT 10SM CLR 14/08 A3002 280 69 300 160/04 RMK AO2 T01390083
03949KAQV AQV20191205205512012/05/19 20:55:31  5-MIN KAQV 060255Z AUTO VRB03KT 10SM CLR 14/08 A3002 280 66 300 VRB/03 RMK AO2 SLP165 T01440083 53003
03949KAQV AQV20191205210010712/05/19 21:00:31  5-MIN KAQV 060300Z AUTO 17004KT 10SM CLR 14/08 A3002 290 69 300 160/04 RMK AO2 T01390083
03949KAQV AQV20191205210510712/05/19 21:05:31  5-MIN KAQV 060305Z AUTO 17004KT 10SM CLR 14/08 A3002 290 69 300 160/04 RMK AO2 T01390083
03949KAQV AQV20191205211010712/05/19 21:10:31  5-MIN KAQV 060310Z AUTO VRB03KT 10SM CLR 14/08 A3002 280 69 300 VRB/03 RMK AO2 T01390083
03949KAQV AQV20191205211510712/05/19 21:15:31  5-MIN KAQV 060315Z AUTO 17004KT 10SM CLR 14/08 A3002 280 66 300 160/04 RMK AO2 T01440083
03949KAQV AQV20191205212010712/05/19 21:20:31  5-MIN KAQV 060320Z AUTO 17003KT 10SM CLR 14/08 A3002 280 66 300 170/03 RMK AO2 T01440083
03949KAQV AQV20191205212510712/05/19 21:25:31  5-MIN KAQV 060325Z AUTO 17003KT 10SM CLR 14/08 A3002 280 69 300 170/03 RMK AO2 T01390083
03949KAQV AQV20191205213010712/05/19 21:30:31  5-MIN KAQV 060330Z AUTO 17004KT 10SM CLR 14/08 A3002 280 69 300 170/04 RMK AO2 T01390083
03949KAQV AQV20191205213510712/05/19 21:35:31  5-MIN KAQV 060335Z AUTO 17003KT 10SM CLR 14/08 A3002 280 69 300 160/03 RMK AO2 T01390083
03949KAQV AQV20191205214010712/05/19 21:40:31  5-MIN KAQV 060340Z AUTO VRB04KT 10SM CLR 14/08 A3003 280 69 300 VRB/04 RMK AO2 T01390083
03949KAQV AQV20191205214510712/05/19 21:45:31  5-MIN KAQV 060345Z AUTO 17003KT 10SM CLR 14/09 A3003 280 71 300 170/03 RMK AO2 T01390089
03949KAQV AQV20191205215010712/05/19 21:50:31  5-MIN KAQV 060350Z AUTO 17003KT 10SM CLR 14/09 A3003 280 71 300 160/03 RMK AO2 T01390089
03949KAQV AQV20191205215511412/05/19 21:55:31  5-MIN KAQV 060355Z AUTO VRB03KT 10SM CLR 14/09 A3003 280 69 300 VRB/03 RMK AO2 SLP167 T01440089
03949KAQV AQV20191205220010712/05/19 22:00:31  5-MIN KAQV 060400Z AUTO 16004KT 10SM CLR 14/09 A3003 280 71 300 160/04 RMK AO2 T01390089
03949KAQV AQV20191205220510712/05/19 22:05:31  5-MIN KAQV 060405Z AUTO 16004KT 10SM CLR 14/09 A3003 280 69 300 160/04 RMK AO2 T01440089
03949KAQV AQV20191205221010712/05/19 22:10:31  5-MIN KAQV 060410Z AUTO 17004KT 10SM CLR 14/09 A3002 280 69 300 160/04 RMK AO2 T01440089
03949KAQV AQV20191205221510712/05/19 22:15:31  5-MIN KAQV 060415Z AUTO 16003KT 10SM CLR 14/09 A3002 280 72 300 160/03 RMK AO2 T01440094
03949KAQV AQV20191205222010712/05/19 22:20:31  5-MIN KAQV 060420Z AUTO 17004KT 10SM CLR 14/09 A3002 280 72 300 160/04 RMK AO2 T01440094
03949KAQV AQV20191205222510712/05/19 22:25:31  5-MIN KAQV 060425Z AUTO 17004KT 10SM CLR 14/09 A3002 290 74 300 160/04 RMK AO2 T01390094
03949KAQV AQV20191205223010712/05/19 22:30:31  5-MIN KAQV 060430Z AUTO 17004KT 10SM CLR 14/09 A3002 290 74 300 170/04 RMK AO2 T01390094
03949KAQV AQV20191205223510712/05/19 22:35:31  5-MIN KAQV 060435Z AUTO 18004KT 10SM CLR 14/09 A3002 290 72 300 170/04 RMK AO2 T01440094
03949KAQV AQV20191205224010712/05/19 22:40:31  5-MIN KAQV 060440Z AUTO 17005KT 10SM CLR 14/09 A3002 290 72 300 170/05 RMK AO2 T01440094
03949KAQV AQV20191205224510712/05/19 22:45:31  5-MIN KAQV 060445Z AUTO 17004KT 10SM CLR 14/09 A3001 290 72 300 160/04 RMK AO2 T01440094
03949KAQV AQV20191205225010712/05/19 22:50:31  5-MIN KAQV 060450Z AUTO 17005KT 10SM CLR 14/09 A3002 290 72 300 170/05 RMK AO2 T01440094
03949KAQV AQV20191205225511412/05/19 22:55:31  5-MIN KAQV 060455Z AUTO 18005KT 10SM CLR 14/09 A3002 290 72 300 170/05 RMK AO2 SLP164 T01440094
03949KAQV AQV20191205230010712/05/19 23:00:31  5-MIN KAQV 060500Z AUTO 17004KT 10SM CLR 14/09 A3002 290 72 300 170/04 RMK AO2 T01440094
03949KAQV AQV20191205230510712/05/19 23:05:31  5-MIN KAQV 060505Z AUTO 18003KT 10SM CLR 14/09 A3002 280 72 300 170/03 RMK AO2 T01440094
03949KAQV AQV20191205231010712/05/19 23:10:31  5-MIN KAQV 060510Z AUTO VRB04KT 10SM CLR 14/09 A3002 280 72 300 VRB/04 RMK AO2 T01440094
03949KAQV AQV20191205231510712/05/19 23:15:31  5-MIN KAQV 060515Z AUTO VRB03KT 10SM CLR 14/09 A3002 280 72 300 VRB/03 RMK AO2 T01440094
03949KAQV AQV20191205232010712/05/19 23:20:31  5-MIN KAQV 060520Z AUTO VRB04KT 10SM CLR 14/10 A3002 280 74 300 VRB/04 RMK AO2 T01440100
03949KAQV AQV20191205232510712/05/19 23:25:31  5-MIN KAQV 060525Z AUTO 18005KT 10SM CLR 14/10 A3002 280 74 300 170/05 RMK AO2 T01440100
03949KAQV AQV20191205233010712/05/19 23:30:31  5-MIN KAQV 060530Z AUTO 17003KT 10SM CLR 14/10 A3002 290 74 300 170/03 RMK AO2 T01440100
03949KAQV AQV20191205233510712/05/19 23:35:31  5-MIN KAQV 060535Z AUTO VRB04KT 10SM CLR 14/10 A3001 290 74 300 VRB/04 RMK AO2 T01440100
03949KAQV AQV20191205234010712/05/19 23:40:31  5-MIN KAQV 060540Z AUTO 17005KT 10SM CLR 15/11 A3001 290 74 400 160/05 RMK AO2 T01500106
03949KAQV AQV20191205234510712/05/19 23:45:31  5-MIN KAQV 060545Z AUTO 18005KT 10SM CLR 15/11 A3001 290 74 400 170/05 RMK AO2 T01500106
03949KAQV AQV20191205235010712/05/19 23:50:31  5-MIN KAQV 060550Z AUTO VRB04KT 10SM CLR 15/11 A3002 290 74 400 VRB/04 RMK AO2 T01500106
03949KAQV AQV20191205235514212/05/19 23:55:31  5-MIN KAQV 060555Z AUTO VRB03KT 10SM CLR 15/11 A3002 290 77 400 VRB/03 RMK AO2 SLP163 T01500111 10150 20133 402220050 51006
03949KAQV AQV20191206000010712/06/19 00:00:31  5-MIN KAQV 060600Z AUTO 18004KT 10SM CLR 15/11 A3002 290 77 400 170/04 RMK AO2 T01500111
03949KAQV AQV20191206000510712/06/19 00:05:31  5-MIN KAQV 060605Z AUTO 17004KT 10SM CLR 15/11 A3002 290 77 400 170/04 RMK AO2 T01500111
03949KAQV AQV20191206001010712/06/19 00:10:31  5-MIN KAQV 060610Z AUTO 17004KT 10SM CLR 15/12 A3001 290 80 400 170/04 RMK AO2 T01500117
03949KAQV AQV20191206001510712/06/19 00:15:31  5-MIN KAQV 060615Z AUTO 18005KT 10SM CLR 15/12 A3001 290 80 400 180/05 RMK AO2 T01500117
03949KAQV AQV20191206002010712/06/19 00:20:31  5-MIN KAQV 060620Z AUTO VRB04KT 10SM CLR 15/12 A3001 290 80 400 VRB/04 RMK AO2 T01500117
03949KAQV AQV20191206002510712/06/19 00:25:31  5-MIN KAQV 060625Z AUTO VRB05KT 10SM CLR 15/12 A3001 290 80 400 VRB/05 RMK AO2 T01500117
03949KAQV AQV20191206003010712/06/19 00:30:31  5-MIN KAQV 060630Z AUTO 18004KT 10SM CLR 15/12 A3001 290 80 400 180/04 RMK AO2 T01500117
03949KAQV AQV20191206003510712/06/19 00:35:31  5-MIN KAQV 060635Z AUTO 17004KT 10SM CLR 15/12 A3001 300 80 400 170/04 RMK AO2 T01500117
03949KAQV AQV20191206004010712/06/19 00:40:31  5-MIN KAQV 060640Z AUTO 17006KT 10SM CLR 14/12 A3001 300 83 300 170/06 RMK AO2 T01440117
03949KAQV AQV20191206004510712/06/19 00:45:31  5-MIN KAQV 060645Z AUTO 17003KT 10SM CLR 14/12 A3001 300 86 300 160/03 RMK AO2 T01440122
03949KAQV AQV20191206005011012/06/19 00:50:31  5-MIN KAQV 060650Z AUTO 00000KT 10SM FEW120 14/12 A3001 300 86 300 000/00 RMK AO2 T01440122
03949KAQV AQV20191206005511712/06/19 00:55:31  5-MIN KAQV 060655Z AUTO 17004KT 10SM FEW110 14/12 A3001 300 86 300 170/04 RMK AO2 SLP159 T01440122
03949KAQV AQV20191206010011012/06/19 01:00:31  5-MIN KAQV 060700Z AUTO VRB04KT 10SM SCT110 14/12 A3001 290 86 300 VRB/04 RMK AO2 T01440122
03949KAQV AQV20191206010511012/06/19 01:05:31  5-MIN KAQV 060705Z AUTO VRB03KT 10SM FEW110 14/12 A3001 300 86 300 VRB/03 RMK AO2 T01440122
03949KAQV AQV20191206011011012/06/19 01:10:31  5-MIN KAQV 060710Z AUTO 17004KT 10SM SCT110 14/13 A3000 300 90 300 160/04 RMK AO2 T01440128
03949KAQV AQV20191206011511012/06/19 01:15:31  5-MIN KAQV 060715Z AUTO 18005KT 10SM SCT110 14/13 A3000 300 90 300 170/05 RMK AO2 T01440128
03949KAQV AQV20191206012011012/06/19 01:20:31  5-MIN KAQV 060720Z AUTO 18006KT 10SM FEW110 14/13 A3000 300 90 400 170/06 RMK AO2 T01440128
03949KAQV AQV20191206012511012/06/19 01:25:31  5-MIN KAQV 060725Z AUTO 17005KT 10SM FEW110 15/13 A3000 310 86 400 160/05 RMK AO2 T01500128
03949KAQV AQV20191206013011012/06/19 01:30:31  5-MIN KAQV 060730Z AUTO 17004KT 10SM FEW110 14/13 A3000 310 90 400 160/04 RMK AO2 T01440128
03949KAQV AQV20191206013511012/06/19 01:35:31  5-MIN KAQV 060735Z AUTO 18004KT 10SM FEW110 15/13 A3000 310 86 400 170/04 RMK AO2 T01500128
03949KAQV AQV20191206014011012/06/19 01:40:31  5-MIN KAQV 060740Z AUTO 17005KT 10SM FEW110 15/13 A3000 310 86 400 170/05 RMK AO2 T01500128
03949KAQV AQV20191206014511012/06/19 01:45:31  5-MIN KAQV 060745Z AUTO 17005KT 10SM FEW120 15/13 A2999 310 86 400 170/05 RMK AO2 T01500128
03949KAQV AQV20191206015011012/06/19 01:50:31  5-MIN KAQV 060750Z AUTO 18004KT 10SM FEW120 15/13 A2999 310 86 400 180/04 RMK AO2 T01500128
03949KAQV AQV20191206015511712/06/19 01:55:31  5-MIN KAQV 060755Z AUTO VRB03KT 10SM FEW120 15/13 A2999 310 86 400 VRB/03 RMK AO2 SLP155 T01500128
03949KAQV AQV20191206020011012/06/19 02:00:31  5-MIN KAQV 060800Z AUTO VRB05KT 10SM FEW120 15/13 A2999 310 86 400 VRB/05 RMK AO2 T01500128
03949KAQV AQV20191206020511012/06/19 02:05:31  5-MIN KAQV 060805Z AUTO 18005KT 10SM FEW120 14/13 A2999 310 90 400 180/05 RMK AO2 T01440128
03949KAQV AQV20191206021011012/06/19 02:10:31  5-MIN KAQV 060810Z AUTO VRB05KT 10SM FEW120 15/13 A2999 310 86 400 VRB/05 RMK AO2 T01500128
03949KAQV AQV20191206021511712/06/19 02:15:31  5-MIN KAQV 060815Z AUTO VRB04KT 10SM FEW010 FEW120 15/13 A2999 310 86 400 VRB/04 RMK AO2 T01500128
03949KAQV AQV20191206022011712/06/19 02:20:31  5-MIN KAQV 060820Z AUTO VRB04KT 10SM FEW010 SCT120 14/13 A2999 310 90 400 VRB/04 RMK AO2 T01440128
03949KAQV AQV20191206022511712/06/19 02:25:31  5-MIN KAQV 060825Z AUTO 17004KT 10SM FEW010 SCT120 15/13 A3000 310 86 400 170/04 RMK AO2 T01500128
03949KAQV AQV20191206023011712/06/19 02:30:31  5-MIN KAQV 060830Z AUTO 18004KT 10SM SCT009 SCT120 15/13 A3000 310 86 400 170/04 RMK AO2 T01500128
03949KAQV AQV20191206023511712/06/19 02:35:31  5-MIN KAQV 060835Z AUTO 18004KT 10SM SCT009 BKN120 14/13 A3000 300 90 300 170/04 RMK AO2 T01440128
03949KAQV AQV20191206024011712/06/19 02:40:31  5-MIN KAQV 060840Z AUTO VRB06KT 10SM SCT009 BKN120 14/13 A3000 310 93 400 VRB/06 RMK AO2 T01440133
03949KAQV AQV20191206024511712/06/19 02:45:31  5-MIN KAQV 060845Z AUTO 17005KT 10SM SCT009 SCT120 15/13 A2999 310 90 400 170/05 RMK AO2 T01500133
03949KAQV AQV20191206025011012/06/19 02:50:31  5-MIN KAQV 060850Z AUTO 18003KT 10SM SCT009 14/13 A3000 310 93 400 180/03 RMK AO2 T01440133
03949KAQV AQV20191206025513012/06/19 02:55:31  5-MIN KAQV 060855Z AUTO VRB04KT 10SM SCT008 BKN120 14/13 A2999 310 93 400 VRB/04 RMK AO2 SLP155 T01440133 58001
03949KAQV AQV20191206030011712/06/19 03:00:31  5-MIN KAQV 060900Z AUTO VRB03KT 10SM BKN008 BKN120 15/13 A2999 310 90 400 VRB/03 RMK AO2 T01500133
03949KAQV AQV20191206030511012/06/19 03:05:31  5-MIN KAQV 060905Z AUTO VRB04KT 10SM BKN008 15/13 A2999 310 90 400 VRB/04 RMK AO2 T01500133
03949KAQV AQV20191206031011012/06/19 03:10:31  5-MIN KAQV 060910Z AUTO 17004KT 10SM BKN008 14/13 A2999 310 93 400 170/04 RMK AO2 T01440133
03949KAQV AQV20191206031511012/06/19 03:15:31  5-MIN KAQV 060915Z AUTO 17003KT 10SM BKN008 14/13 A2999 310 93 400 170/03 RMK AO2 T01440133
03949KAQV AQV20191206032011012/06/19 03:20:31  5-MIN KAQV 060920Z AUTO VRB04KT 10SM BKN008 14/13 A2999 310 93 400 VRB/04 RMK AO2 T01440133
03949KAQV AQV20191206032511012/06/19 03:25:31  5-MIN KAQV 060925Z AUTO 17004KT 10SM OVC007 14/13 A2999 310 93 400 170/04 RMK AO2 T01440133
03949KAQV AQV20191206033011012/06/19 03:30:31  5-MIN KAQV 060930Z AUTO VRB03KT 10SM OVC007 14/13 A3000 300 93 300 VRB/03 RMK AO2 T01440133
03949KAQV AQV20191206033511012/06/19 03:35:31  5-MIN KAQV 060935Z AUTO 18003KT 10SM OVC007 14/13 A3000 310 93 400 180/03 RMK AO2 T01440133
03949KAQV AQV20191206034011012/06/19 03:40:31  5-MIN KAQV 060940Z AUTO 19003KT 10SM OVC007 15/13 A2999 310 90 400 180/03 RMK AO2 T01500133
03949KAQV AQV20191206034511012/06/19 03:45:31  5-MIN KAQV 060945Z AUTO 18003KT 10SM OVC007 15/14 A2999 310 93 400 180/03 RMK AO2 T01500139
03949KAQV AQV20191206035011012/06/19 03:50:31  5-MIN KAQV 060950Z AUTO 19003KT 10SM OVC006 15/14 A2999 310 93 400 180/03 RMK AO2 T01500139
03949KAQV AQV20191206035511712/06/19 03:55:31  5-MIN KAQV 060955Z AUTO 19003KT 10SM OVC006 15/14 A2999 310 93 400 180/03 RMK AO2 SLP154 T01500139
03949KAQV AQV20191206040011012/06/19 04:00:31  5-MIN KAQV 061000Z AUTO 18004KT 10SM OVC006 15/14 A2999 320 93 400 170/04 RMK AO2 T01500139
03949KAQV AQV20191206040510912/06/19 04:05:31  5-MIN KAQV 061005Z AUTO VRB05KT 9SM OVC005 16/14 A2999 320 90 500 VRB/05 RMK AO2 T01560139
03949KAQV AQV20191206041010912/06/19 04:10:31  5-MIN KAQV 061010Z AUTO 18004KT 9SM OVC005 16/14 A2998 320 90 500 180/04 RMK AO2 T01560139
03949KAQV AQV20191206041510912/06/19 04:15:31  5-MIN KAQV 061015Z AUTO 18005KT 8SM OVC005 16/14 A2998 320 90 500 180/05 RMK AO2 T01560139
03949KAQV AQV20191206042010912/06/19 04:20:31  5-MIN KAQV 061020Z AUTO VRB03KT 8SM OVC005 16/14 A2999 320 93 500 VRB/03 RMK AO2 T01560144
03949KAQV AQV20191206042509912/06/19 04:25:31  5-MIN KAQV 061025Z AUTO 8SM OVC004 16/14 A2999 310 93 500 M /M RMK AO2 T01560144
03949KAQV AQV20191206043010912/06/19 04:30:31  5-MIN KAQV 061030Z AUTO VRB05KT 7SM OVC004 16/14 A2999 310 93 500 VRB/05 RMK AO2 T01560144
03949KAQV AQV20191206043511212/06/19 04:35:31  5-MIN KAQV 061035Z AUTO 19004KT 6SM BR OVC004 16/14 A2999 310 93 500 190/04 RMK AO2 T01560144
03949KAQV AQV20191206044011212/06/19 04:40:31  5-MIN KAQV 061040Z AUTO VRB03KT 6SM BR OVC004 16/14 A3000 300 93 500 VRB/03 RMK AO2 T01560144
03949KAQV AQV20191206044511212/06/19 04:45:31  5-MIN KAQV 061045Z AUTO VRB03KT 6SM BR OVC004 16/14 A3000 300 93 500 VRB/03 RMK AO2 T01560144
03949KAQV AQV20191206045011212/06/19 04:50:31  5-MIN KAQV 061050Z AUTO VRB04KT 6SM BR OVC004 16/14 A3000 300 93 500 VRB/04 RMK AO2 T01560144
03949KAQV AQV20191206045511912/06/19 04:55:31  5-MIN KAQV 061055Z AUTO VRB05KT 5SM BR OVC003 16/14 A3000 300 93 500 VRB/05 RMK AO2 SLP158 T01560144
03949KAQV AQV20191206050011212/06/19 05:00:31  5-MIN KAQV 061100Z AUTO VRB04KT 5SM BR OVC003 16/14 A3000 300 93 500 VRB/04 RMK AO2 T01560144
03949KAQV AQV20191206050511212/06/19 05:05:31  5-MIN KAQV 061105Z AUTO 00000KT 5SM BR OVC003 16/14 A3000 300 93 500 000/00 RMK AO2 T01560144
03949KAQV AQV20191206051011212/06/19 05:10:31  5-MIN KAQV 061110Z AUTO 20005KT 4SM BR OVC003 16/14 A3000 300 93 500 200/05 RMK AO2 T01560144
03949KAQV AQV20191206051511212/06/19 05:15:31  5-MIN KAQV 061115Z AUTO VRB04KT 4SM BR OVC003 16/14 A3000 300 93 500 VRB/04 RMK AO2 T01560144
03949KAQV AQV20191206052011212/06/19 05:20:31  5-MIN KAQV 061120Z AUTO 20005KT 3SM BR OVC003 16/14 A3000 310 93 500 200/05 RMK AO2 T01560144
03949KAQV AQV20191206052511612/06/19 05:25:31  5-MIN KAQV 061125Z AUTO 19005KT 2 1/2SM BR OVC003 16/14 A3000 310 93 500 180/05 RMK AO2 T01560144
03949KAQV AQV20191206053011212/06/19 05:30:31  5-MIN KAQV 061130Z AUTO VRB05KT 2SM BR OVC002 16/14 A3000 310 93 500 VRB/05 RMK AO2 T01560144
03949KAQV AQV20191206053511612/06/19 05:35:31  5-MIN KAQV 061135Z AUTO 19007KT 2 1/2SM BR OVC002 16/14 A2999 310 93 500 180/07 RMK AO2 T01560144
03949KAQV AQV20191206054011612/06/19 05:40:31  5-MIN KAQV 061140Z AUTO VRB04KT 2 1/2SM BR OVC002 16/14 A2999 310 93 500 VRB/04 RMK AO2 T01560144
03949KAQV AQV20191206054511612/06/19 05:45:31  5-MIN KAQV 061145Z AUTO 21003KT 2 1/2SM BR OVC002 16/14 A2999 310 93 500 210/03 RMK AO2 T01560144
03949KAQV AQV20191206055011612/06/19 05:50:31  5-MIN KAQV 061150Z AUTO VRB03KT 2 1/2SM BR OVC002 16/14 A2999 310 93 500 VRB/03 RMK AO2 T01560144
03949KAQV AQV20191206055514112/06/19 05:55:31  5-MIN KAQV 061155Z AUTO 19005KT 2 1/2SM BR OVC002 16/14 A2999 310 93 500 190/05 RMK AO2 SLP156 T01560144 10156 20144 55007
03949KAQV AQV20191206060011212/06/19 06:00:31  5-MIN KAQV 061200Z AUTO 19006KT 3SM BR OVC002 16/15 A2999 310 96 500 180/06 RMK AO2 T01560150
03949KAQV AQV20191206060511212/06/19 06:05:31  5-MIN KAQV 061205Z AUTO VRB04KT 3SM BR OVC002 16/15 A2999 310 96 500 VRB/04 RMK AO2 T01560150
03949KAQV AQV20191206061011612/06/19 06:10:31  5-MIN KAQV 061210Z AUTO VRB04KT 2 1/2SM BR OVC002 16/15 A2999 310 96 500 VRB/04 RMK AO2 T01560150
03949KAQV AQV20191206061511612/06/19 06:15:31  5-MIN KAQV 061215Z AUTO VRB04KT 2 1/2SM BR OVC002 16/15 A2999 310 96 500 VRB/04 RMK AO2 T01560150
03949KAQV AQV20191206062011612/06/19 06:20:31  5-MIN KAQV 061220Z AUTO 19005KT 2 1/2SM BR OVC002 16/15 A2999 310 93 600 180/05 RMK AO2 T01610150
03949KAQV AQV20191206062511612/06/19 06:25:31  5-MIN KAQV 061225Z AUTO VRB05KT 2 1/2SM BR OVC002 16/15 A2999 310 93 600 VRB/05 RMK AO2 T01610150
03949KAQV AQV20191206063011612/06/19 06:30:31  5-MIN KAQV 061230Z AUTO VRB03KT 2 1/2SM BR OVC002 16/15 A3000 310 93 500 VRB/03 RMK AO2 T01610150
03949KAQV AQV20191206063511612/06/19 06:35:31  5-MIN KAQV 061235Z AUTO VRB04KT 2 1/2SM BR OVC002 16/15 A3000 310 93 500 VRB/04 RMK AO2 T01610150
03949KAQV AQV20191206064011612/06/19 06:40:31  5-MIN KAQV 061240Z AUTO VRB04KT 2 1/2SM BR OVC002 16/15 A3000 300 93 500 VRB/04 RMK AO2 T01610150
03949KAQV AQV20191206064511212/06/19 06:45:31  5-MIN KAQV 061245Z AUTO VRB03KT 3SM BR OVC002 16/15 A3000 300 93 500 VRB/03 RMK AO2 T01610150
03949KAQV AQV20191206065011212/06/19 06:50:31  5-MIN KAQV 061250Z AUTO VRB03KT 3SM BR OVC002 16/16 A3001 300 96 500 VRB/03 RMK AO2 T01610156
03949KAQV AQV20191206065511912/06/19 06:55:31  5-MIN KAQV 061255Z AUTO VRB04KT 3SM BR OVC002 17/16 A3001 290 93 600 VRB/04 RMK AO2 SLP162 T01670156
03949KAQV AQV20191206070011212/06/19 07:00:31  5-MIN KAQV 061300Z AUTO VRB04KT 3SM BR OVC002 17/16 A3001 290 93 600 VRB/04 RMK AO2 T01670156
03949KAQV AQV20191206070511212/06/19 07:05:31  5-MIN KAQV 061305Z AUTO VRB03KT 3SM BR OVC002 17/16 A3001 290 93 600 VRB/03 RMK AO2 T01670156
03949KAQV AQV20191206071011212/06/19 07:10:31  5-MIN KAQV 061310Z AUTO 21003KT 3SM BR OVC002 17/16 A3001 290 93 600 210/03 RMK AO2 T01670156
03949KAQV AQV20191206071511612/06/19 07:15:31  5-MIN KAQV 061315Z AUTO VRB04KT 2 1/2SM BR OVC002 17/16 A3001 300 93 600 VRB/04 RMK AO2 T01670156
03949KAQV AQV20191206072011612/06/19 07:20:31  5-MIN KAQV 061320Z AUTO VRB05KT 2 1/2SM BR OVC002 17/16 A3001 300 96 600 VRB/05 RMK AO2 T01670161
03949KAQV AQV20191206072511612/06/19 07:25:31  5-MIN KAQV 061325Z AUTO VRB04KT 2 1/2SM BR OVC002 17/16 A3001 300 96 600 VRB/04 RMK AO2 T01670161
03949KAQV AQV20191206073011612/06/19 07:30:31  5-MIN KAQV 061330Z AUTO VRB03KT 2 1/2SM BR OVC002 17/16 A3001 300 93 700 VRB/03 RMK AO2 T01720161
03949KAQV AQV20191206073511612/06/19 07:35:31  5-MIN KAQV 061335Z AUTO 22004KT 2 1/2SM BR OVC002 17/16 A3001 290 93 700 220/04 RMK AO2 T01720161
03949KAQV AQV20191206074010212/06/19 07:40:31  5-MIN KAQV 061340Z AUTO 3SM BR OVC002 17/16 A3001 300 93 700 M /M RMK AO2 T01720161
03949KAQV AQV20191206074511212/06/19 07:45:31  5-MIN KAQV 061345Z AUTO VRB05KT 3SM BR OVC003 17/16 A3001 300 93 700 VRB/05 RMK AO2 T01720161
03949KAQV AQV20191206075011212/06/19 07:50:31  5-MIN KAQV 061350Z AUTO VRB05KT 4SM BR OVC003 17/16 A3001 290 93 700 VRB/05 RMK AO2 T01720161
03949KAQV AQV20191206075511912/06/19 07:55:31  5-MIN KAQV 061355Z AUTO VRB05KT 4SM BR OVC003 18/17 A3001 290 93 700 VRB/05 RMK AO2 SLP163 T01780167
03949KAQV AQV20191206080011212/06/19 08:00:31  5-MIN KAQV 061400Z AUTO VRB05KT 5SM BR OVC003 18/17 A3001 290 93 700 VRB/05 RMK AO2 T01780167
03949KAQV AQV20191206080510212/06/19 08:05:31  5-MIN KAQV 061405Z AUTO 5SM BR OVC003 18/17 A3002 290 93 700 M /M RMK AO2 T01780167
03949KAQV AQV20191206081012412/06/19 08:10:31  5-MIN KAQV 061410Z AUTO VRB04KT 6SM BR OVC003 18/17 A3002 280 93 700 VRB/04 RMK AO2 CIG 003V007 T01780167
03949KAQV AQV20191206081512112/06/19 08:15:31  5-MIN KAQV 061415Z AUTO VRB03KT 7SM OVC003 18/17 A3002 280 93 700 VRB/03 RMK AO2 CIG 003V007 T01780167
03949KAQV AQV20191206082011112/06/19 08:20:31  5-MIN KAQV 061420Z AUTO 8SM OVC005 18/17 A3002 280 90 800 M /M RMK AO2 CIG 003V007 T01830167
03949KAQV AQV20191206082512112/06/19 08:25:31  5-MIN KAQV 061425Z AUTO VRB04KT 8SM OVC005 18/17 A3002 280 90 800 VRB/04 RMK AO2 CIG 003V007 T01830167
03949KAQV AQV20191206083010912/06/19 08:30:31  5-MIN KAQV 061430Z AUTO 24006KT 9SM OVC005 18/17 A3003 280 90 800 240/06 RMK AO2 T01830167
03949KAQV AQV20191206083512112/06/19 08:35:31  5-MIN KAQV 061435Z AUTO 25004KT 9SM OVC005 18/17 A3003 270 90 800 240/04 RMK AO2 CIG 005V011 T01830167
03949KAQV AQV20191206084012112/06/19 08:40:31  5-MIN KAQV 061440Z AUTO VRB04KT 9SM OVC006 18/17 A3004 270 90 800 VRB/04 RMK AO2 CIG 005V011 T01830167
03949KAQV AQV20191206084512212/06/19 08:45:31  5-MIN KAQV 061445Z AUTO VRB05KT 10SM OVC006 18/17 A3004 260 90 800 VRB/05 RMK AO2 CIG 005V009 T01830167
03949KAQV AQV20191206085012912/06/19 08:50:31  5-MIN KAQV 061450Z AUTO VRB05KT 10SM BKN006 OVC012 18/17 A3004 270 90 800 VRB/05 RMK AO2 CIG 005V009 T01830167
03949KAQV AQV20191206085514912/06/19 08:55:31  5-MIN KAQV 061455Z AUTO VRB04KT 10SM BKN007 BKN012 OVC021 18/17 A3004 270 90 800 VRB/04 RMK AO2 CIG 006V009 SLP171 T01830167 58001
03949KAQV AQV20191206090012912/06/19 09:00:31  5-MIN KAQV 061500Z AUTO 24006KT 10SM BKN007 OVC021 19/17 A3004 270 87 800 230/06 RMK AO2 CIG 006V011 T01890167
03949KAQV AQV20191206090511712/06/19 09:05:31  5-MIN KAQV 061505Z AUTO VRB05KT 10SM SCT009 OVC021 19/17 A3003 270 87 800 VRB/05 RMK AO2 T01890167
03949KAQV AQV20191206091012412/06/19 09:10:31  5-MIN KAQV 061510Z AUTO 25004KT 10SM SCT009 SCT015 BKN021 19/16 A3003 270 84 800 240/04 RMK AO2 T01890161
03949KAQV AQV20191206091510712/06/19 09:15:31  5-MIN KAQV 061515Z AUTO 10SM SCT011 BKN021 19/17 A3003 270 84 900 M /M RMK AO2 T01940167
03949KAQV AQV20191206092011812/06/19 09:20:31  5-MIN KAQV 061520Z AUTO VRB04KT 10SM SCT013 BKN021 20/17 A3004 270 81 1000 VRB/04 RMK AO2 T02000167
03949KAQV AQV20191206092511812/06/19 09:25:31  5-MIN KAQV 061525Z AUTO VRB04KT 10SM BKN013 BKN021 20/16 A3004 270 78 1000 VRB/04 RMK AO2 T02000161
03949KAQV AQV20191206093011812/06/19 09:30:31  5-MIN KAQV 061530Z AUTO VRB05KT 10SM BKN013 BKN019 20/16 A3004 270 78 1000 VRB/05 RMK AO2 T02000161
03949KAQV AQV20191206093511812/06/19 09:35:31  5-MIN KAQV 061535Z AUTO VRB03KT 10SM BKN015 BKN019 20/16 A3004 270 78 1000 VRB/03 RMK AO2 T02000161
03949KAQV AQV20191206094011012/06/19 09:40:31  5-MIN KAQV 061540Z AUTO 00000KT 10SM BKN015 20/16 A3005 260 78 900 000/00 RMK AO2 T02000161
03949KAQV AQV20191206094510012/06/19 09:45:31  5-MIN KAQV 061545Z AUTO 10SM OVC015 20/16 A3005 250 78 900 M /M RMK AO2 T02000161
03949KAQV AQV20191206095011012/06/19 09:50:31  5-MIN KAQV 061550Z AUTO VRB03KT 10SM OVC015 20/16 A3006 250 75 900 VRB/03 RMK AO2 T02000156
03949KAQV AQV20191206095511412/06/19 09:55:31  5-MIN KAQV 061555Z AUTO 10SM BKN015 OVC023 20/16 A3006 250 75 900 M /M RMK AO2 SLP177 T02000156
03949KAQV AQV20191206100010712/06/19 10:00:31  5-MIN KAQV 061600Z AUTO 10SM BKN015 OVC023 20/15 A3006 250 72 900 M /M RMK AO2 T02000150
03949KAQV AQV20191206100511712/06/19 10:05:31  5-MIN KAQV 061605Z AUTO VRB03KT 10SM SCT015 OVC025 20/15 A3006 250 72 900 VRB/03 RMK AO2 T02000150
03949KAQV AQV20191206101010812/06/19 10:10:31  5-MIN KAQV 061610Z AUTO 10SM FEW016 OVC025 21/15 A3006 250 70 1000 M /M RMK AO2 T02060150
03949KAQV AQV20191206101511812/06/19 10:15:31  5-MIN KAQV 061615Z AUTO VRB05KT 10SM FEW016 OVC025 21/15 A3006 250 70 1000 VRB/05 RMK AO2 T02060150
03949KAQV AQV20191206102011112/06/19 10:20:31  5-MIN KAQV 061620Z AUTO VRB05KT 10SM OVC025 21/14 A3006 240 67 1000 VRB/05 RMK AO2 T02060144
03949KAQV AQV20191206102511112/06/19 10:25:31  5-MIN KAQV 061625Z AUTO VRB05KT 10SM OVC025 21/15 A3006 240 70 1000 VRB/05 RMK AO2 T02060150
03949KAQV AQV20191206103011112/06/19 10:30:31  5-MIN KAQV 061630Z AUTO VRB04KT 10SM OVC025 21/15 A3007 240 70 1000 VRB/04 RMK AO2 T02060150
03949KAQV AQV20191206103511112/06/19 10:35:31  5-MIN KAQV 061635Z AUTO VRB05KT 10SM OVC025 21/15 A3007 240 68 1100 VRB/05 RMK AO2 T02110150
03949KAQV AQV20191206104011112/06/19 10:40:31  5-MIN KAQV 061640Z AUTO VRB04KT 10SM OVC025 21/14 A3007 240 67 1000 VRB/04 RMK AO2 T02060144
03949KAQV AQV20191206104511112/06/19 10:45:31  5-MIN KAQV 061645Z AUTO 00000KT 10SM OVC025 21/15 A3007 240 68 1000 000/00 RMK AO2 T02110150
03949KAQV AQV20191206105011112/06/19 10:50:31  5-MIN KAQV 061650Z AUTO 29004KT 10SM OVC025 22/15 A3007 240 65 1100 290/04 RMK AO2 T02170150
03949KAQV AQV20191206105511812/06/19 10:55:31  5-MIN KAQV 061655Z AUTO VRB05KT 10SM OVC025 22/14 A3006 240 61 1200 VRB/05 RMK AO2 SLP178 T02220144
03949KAQV AQV20191206110011112/06/19 11:00:31  5-MIN KAQV 061700Z AUTO VRB04KT 10SM OVC025 21/14 A3006 250 63 1100 VRB/04 RMK AO2 T02110139
03949KAQV AQV20191206110511112/06/19 11:05:31  5-MIN KAQV 061705Z AUTO 00000KT 10SM BKN023 21/14 A3006 250 65 1100 000/00 RMK AO2 T02110144
03949KAQV AQV20191206111011112/06/19 11:10:31  5-MIN KAQV 061710Z AUTO VRB06KT 10SM BKN023 21/14 A3006 250 67 1000 VRB/06 RMK AO2 T02060144
03949KAQV AQV20191206111510112/06/19 11:15:31  5-MIN KAQV 061715Z AUTO 10SM SCT023 22/14 A3006 250 63 1100 M /M RMK AO2 T02170144
03949KAQV AQV20191206112011112/06/19 11:20:31  5-MIN KAQV 061720Z AUTO 27003KT 10SM BKN025 22/14 A3006 250 61 1100 270/03 RMK AO2 T02170139
03949KAQV AQV20191206112511112/06/19 11:25:31  5-MIN KAQV 061725Z AUTO VRB03KT 10SM SCT025 22/14 A3005 250 59 1200 VRB/03 RMK AO2 T02220139
03949KAQV AQV20191206113011112/06/19 11:30:31  5-MIN KAQV 061730Z AUTO VRB04KT 10SM FEW025 22/14 A3005 260 59 1200 VRB/04 RMK AO2 T02220139
03949KAQV AQV20191206113511112/06/19 11:35:31  5-MIN KAQV 061735Z AUTO VRB05KT 10SM FEW027 22/14 A3005 260 61 1200 VRB/05 RMK AO2 T02220144
03949KAQV AQV20191206114011112/06/19 11:40:31  5-MIN KAQV 061740Z AUTO 29005KT 10SM FEW027 22/14 A3005 250 59 1200 290/05 RMK AO2 T02220139
03949KAQV AQV20191206114511112/06/19 11:45:31  5-MIN KAQV 061745Z AUTO 26006KT 10SM SCT027 23/14 A3005 260 59 1300 260/06 RMK AO2 T02280144
03949KAQV AQV20191206115011112/06/19 11:50:31  5-MIN KAQV 061750Z AUTO VRB05KT 10SM SCT027 22/14 A3005 260 61 1100 VRB/05 RMK AO2 T02170139
03949KAQV AQV20191206115510112/06/19 11:55:31  5-MIN KAQV 061755Z AUTO VRB03KT 10SM BKN027 22/14 A3005 260 61 1100 VRB/03 RMK AO2
03949KAQV AQV20191206120011812/06/19 12:00:31  5-MIN KAQV 061800Z AUTO VRB03KT 10SM BKN027 BKN032 22/14 A3005 260 59 1200 VRB/03 RMK AO2 T02220139
03949KAQV AQV20191206120510812/06/19 12:05:31  5-MIN KAQV 061805Z AUTO 10SM BKN027 BKN032 22/14 A3005 260 59 1200 M /M RMK AO2 T02220139
03949KAQV AQV20191206121011112/06/19 12:10:31  5-MIN KAQV 061810Z AUTO VRB03KT 10SM BKN027 23/14 A3004 260 57 1300 VRB/03 RMK AO2 T02280139
03949KAQV AQV20191206121511112/06/19 12:15:31  5-MIN KAQV 061815Z AUTO VRB04KT 10SM BKN029 23/14 A3004 270 55 1300 VRB/04 RMK AO2 T02330139
03949KAQV AQV20191206122011112/06/19 12:20:31  5-MIN KAQV 061820Z AUTO VRB06KT 10SM BKN029 23/14 A3004 270 55 1300 VRB/06 RMK AO2 T02330139
03949KAQV AQV20191206122510112/06/19 12:25:31  5-MIN KAQV 061825Z AUTO 10SM BKN029 23/13 A3004 270 55 1300 M /M RMK AO2 T02280133
03949KAQV AQV20191206123011112/06/19 12:30:31  5-MIN KAQV 061830Z AUTO 28008KT 10SM BKN029 22/13 A3004 270 58 1100 280/08 RMK AO2 T02170133
03949KAQV AQV20191206123511112/06/19 12:35:31  5-MIN KAQV 061835Z AUTO 00000KT 10SM BKN029 22/13 A3004 270 56 1200 000/00 RMK AO2 T02220133
03949KAQV AQV20191206124011112/06/19 12:40:31  5-MIN KAQV 061840Z AUTO VRB04KT 10SM BKN029 22/13 A3003 270 56 1200 VRB/04 RMK AO2 T02220133
03949KAQV AQV20191206124511112/06/19 12:45:31  5-MIN KAQV 061845Z AUTO 00000KT 10SM BKN029 23/13 A3003 270 55 1300 000/00 RMK AO2 T02280133
03949KAQV AQV20191206125011112/06/19 12:50:31  5-MIN KAQV 061850Z AUTO 36003KT 10SM BKN031 23/13 A3003 270 53 1300 350/03 RMK AO2 T02330133
03949KAQV AQV20191206125511812/06/19 12:55:31  5-MIN KAQV 061855Z AUTO VRB03KT 10SM BKN031 23/14 A3003 280 55 1300 VRB/03 RMK AO2 SLP167 T02330139
03949KAQV AQV20191206130011112/06/19 13:00:31  5-MIN KAQV 061900Z AUTO 28006KT 10SM BKN031 23/13 A3003 280 53 1300 270/06 RMK AO2 T02330133
03949KAQV AQV20191206130511112/06/19 13:05:31  5-MIN KAQV 061905Z AUTO 24005KT 10SM BKN031 23/13 A3003 280 53 1300 240/05 RMK AO2 T02280128
03949KAQV AQV20191206131011112/06/19 13:10:31  5-MIN KAQV 061910Z AUTO VRB03KT 10SM BKN033 23/13 A3003 270 55 1300 VRB/03 RMK AO2 T02280133
03949KAQV AQV20191206131511112/06/19 13:15:31  5-MIN KAQV 061915Z AUTO VRB05KT 10SM BKN033 23/14 A3003 270 55 1300 VRB/05 RMK AO2 T02330139
03949KAQV AQV20191206132011112/06/19 13:20:31  5-MIN KAQV 061920Z AUTO VRB04KT 10SM BKN033 22/13 A3004 270 56 1200 VRB/04 RMK AO2 T02220133
03949KAQV AQV20191206132511112/06/19 13:25:31  5-MIN KAQV 061925Z AUTO VRB04KT 10SM SCT033 22/14 A3003 270 59 1200 VRB/04 RMK AO2 T02220139
03949KAQV AQV20191206133011112/06/19 13:30:31  5-MIN KAQV 061930Z AUTO VRB05KT 10SM SCT033 23/14 A3003 270 57 1300 VRB/05 RMK AO2 T02280139
03949KAQV AQV20191206133511112/06/19 13:35:31  5-MIN KAQV 061935Z AUTO VRB05KT 10SM SCT033 23/13 A3003 270 55 1300 VRB/05 RMK AO2 T02280133
03949KAQV AQV20191206134011112/06/19 13:40:31  5-MIN KAQV 061940Z AUTO VRB04KT 10SM SCT033 23/14 A3003 270 55 1300 VRB/04 RMK AO2 T02330139
03949KAQV AQV20191206134510112/06/19 13:45:31  5-MIN KAQV 061945Z AUTO 10SM BKN033 23/13 A3003 270 55 1300 M /M RMK AO2 T02280133
03949KAQV AQV20191206135011112/06/19 13:50:31  5-MIN KAQV 061950Z AUTO 35004KT 10SM BKN033 22/13 A3004 270 58 1100 340/04 RMK AO2 T02170133
03949KAQV AQV20191206135510812/06/19 13:55:31  5-MIN KAQV 061955Z AUTO 10SM BKN033 22/13 A3004 270 58 1100 M /M RMK AO2 SLP170 T02170133
03949KAQV AQV20191206140011112/06/19 14:00:31  5-MIN KAQV 062000Z AUTO 02004KT 10SM BKN033 22/13 A3004 270 58 1100 020/04 RMK AO2 T02170133
03949KAQV AQV20191206140511112/06/19 14:05:31  5-MIN KAQV 062005Z AUTO 00000KT 10SM SCT033 23/13 A3004 260 55 1300 000/00 RMK AO2 T02280133
03949KAQV AQV20191206141011112/06/19 14:10:31  5-MIN KAQV 062010Z AUTO VRB03KT 10SM SCT033 23/13 A3004 260 55 1300 VRB/03 RMK AO2 T02280133
03949KAQV AQV20191206141511112/06/19 14:15:31  5-MIN KAQV 062015Z AUTO 00000KT 10SM SCT035 23/13 A3004 260 53 1300 000/00 RMK AO2 T02280128
03949KAQV AQV20191206142011112/06/19 14:20:31  5-MIN KAQV 062020Z AUTO 31005KT 10SM BKN035 23/13 A3004 260 53 1300 310/05 RMK AO2 T02330133
03949KAQV AQV20191206142511112/06/19 14:25:31  5-MIN KAQV 062025Z AUTO 00000KT 10SM BKN033 22/13 A3004 260 56 1200 000/00 RMK AO2 T02220133
03949KAQV AQV20191206143011112/06/19 14:30:31  5-MIN KAQV 062030Z AUTO 35005KT 10SM BKN033 22/13 A3005 260 58 1100 340/05 RMK AO2 T02170133
03949KAQV AQV20191206143511112/06/19 14:35:31  5-MIN KAQV 062035Z AUTO 00000KT 10SM BKN035 22/13 A3005 260 58 1100 000/00 RMK AO2 T02170133
03949KAQV AQV20191206144011112/06/19 14:40:31  5-MIN KAQV 062040Z AUTO VRB03KT 10SM BKN035 22/13 A3005 260 56 1200 VRB/03 RMK AO2 T02220133
03949KAQV AQV20191206144511112/06/19 14:45:31  5-MIN KAQV 062045Z AUTO 00000KT 10SM BKN035 23/13 A3005 260 53 1300 000/00 RMK AO2 T02280128
03949KAQV AQV20191206145011112/06/19 14:50:31  5-MIN KAQV 062050Z AUTO VRB06KT 10SM BKN035 22/13 A3005 250 54 1200 VRB/06 RMK AO2 T02220128
03949KAQV AQV20191206145512412/06/19 14:55:31  5-MIN KAQV 062055Z AUTO VRB04KT 10SM BKN037 22/13 A3006 250 58 1100 VRB/04 RMK AO2 SLP176 T02170133 50003
03949KAQV AQV20191206150010112/06/19 15:00:31  5-MIN KAQV 062100Z AUTO 10SM BKN039 22/13 A3006 250 56 1200 M /M RMK AO2 T02220133
03949KAQV AQV20191206150511112/06/19 15:05:31  5-MIN KAQV 062105Z AUTO 34004KT 10SM BKN039 22/13 A3006 250 54 1200 340/04 RMK AO2 T02220128
03949KAQV AQV20191206151011112/06/19 15:10:31  5-MIN KAQV 062110Z AUTO VRB03KT 10SM OVC039 22/13 A3006 250 56 1100 VRB/03 RMK AO2 T02170128
03949KAQV AQV20191206151511112/06/19 15:15:31  5-MIN KAQV 062115Z AUTO VRB04KT 10SM OVC039 22/13 A3006 250 56 1100 VRB/04 RMK AO2 T02170128
03949KAQV AQV20191206152011112/06/19 15:20:31  5-MIN KAQV 062120Z AUTO 35004KT 10SM OVC041 22/13 A3006 240 58 1100 350/04 RMK AO2 T02170133
03949KAQV AQV20191206152511112/06/19 15:25:31  5-MIN KAQV 062125Z AUTO 00000KT 10SM OVC043 22/13 A3007 240 58 1100 000/00 RMK AO2 T02170133
03949KAQV AQV20191206153011112/06/19 15:30:31  5-MIN KAQV 062130Z AUTO 35004KT 10SM OVC043 21/13 A3007 240 61 1000 350/04 RMK AO2 T02110133
03949KAQV AQV20191206153511112/06/19 15:35:31  5-MIN KAQV 062135Z AUTO 35003KT 10SM OVC043 21/13 A3007 240 61 1000 350/03 RMK AO2 T02110133
03949KAQV AQV20191206154011112/06/19 15:40:31  5-MIN KAQV 062140Z AUTO VRB03KT 10SM OVC043 21/13 A3007 240 61 1000 VRB/03 RMK AO2 T02110133
03949KAQV AQV20191206154511112/06/19 15:45:31  5-MIN KAQV 062145Z AUTO 00000KT 10SM OVC041 21/13 A3007 240 61 1000 000/00 RMK AO2 T02110133
03949KAQV AQV20191206155011812/06/19 15:50:31  5-MIN KAQV 062150Z AUTO 36003KT 10SM BKN037 OVC044 21/13 A3007 240 61 1000 350/03 RMK AO2 T02110133
03949KAQV AQV20191206155511812/06/19 15:55:31  5-MIN KAQV 062155Z AUTO 00000KT 10SM OVC039 21/13 A3007 240 61 1000 000/00 RMK AO2 SLP181 T02110133
03949KAQV AQV20191206160011112/06/19 16:00:31  5-MIN KAQV 062200Z AUTO 00000KT 10SM OVC039 21/13 A3007 240 61 1000 000/00 RMK AO2 T02110133
03949KAQV AQV20191206160511112/06/19 16:05:31  5-MIN KAQV 062205Z AUTO VRB03KT 10SM OVC041 21/14 A3007 240 65 1000 VRB/03 RMK AO2 T02060139
03949KAQV AQV20191206161011112/06/19 16:10:31  5-MIN KAQV 062210Z AUTO 36003KT 10SM OVC042 21/13 A3008 230 63 1000 360/03 RMK AO2 T02060133
03949KAQV AQV20191206161511812/06/19 16:15:31  5-MIN KAQV 062215Z AUTO 00000KT 10SM FEW034 OVC044 21/13 A3008 230 63 1000 000/00 RMK AO2 T02060133
03949KAQV AQV20191206162011112/06/19 16:20:31  5-MIN KAQV 062220Z AUTO 00000KT 10SM OVC044 21/14 A3008 230 65 1000 000/00 RMK AO2 T02060139
03949KAQV AQV20191206162511112/06/19 16:25:31  5-MIN KAQV 062225Z AUTO 00000KT 10SM OVC044 21/14 A3008 230 65 1000 000/00 RMK AO2 T02060139
03949KAQV AQV20191206163011112/06/19 16:30:31  5-MIN KAQV 062230Z AUTO 00000KT 10SM OVC046 21/14 A3008 230 65 1000 000/00 RMK AO2 T02060139
03949KAQV AQV20191206163511012/06/19 16:35:31  5-MIN KAQV 062235Z AUTO 00000KT 10SM OVC046 20/14 A3009 220 67 900 000/00 RMK AO2 T02000139
03949KAQV AQV20191206164011012/06/19 16:40:31  5-MIN KAQV 062240Z AUTO 00000KT 10SM OVC046 19/14 A3009 220 70 800 000/00 RMK AO2 T01940139
03949KAQV AQV20191206164511012/06/19 16:45:31  5-MIN KAQV 062245Z AUTO 00000KT 10SM OVC047 19/14 A3009 220 70 800 000/00 RMK AO2 T01940139
03949KAQV AQV20191206165011012/06/19 16:50:31  5-MIN KAQV 062250Z AUTO 00000KT 10SM OVC047 19/14 A3009 220 70 800 000/00 RMK AO2 T01940139
03949KAQV AQV20191206165511712/06/19 16:55:31  5-MIN KAQV 062255Z AUTO 00000KT 10SM OVC048 20/14 A3009 220 67 900 000/00 RMK AO2 SLP188 T02000139
03949KAQV AQV20191206170011012/06/19 17:00:31  5-MIN KAQV 062300Z AUTO 00000KT 10SM OVC048 19/14 A3009 220 70 800 000/00 RMK AO2 T01940139
03949KAQV AQV20191206170511012/06/19 17:05:31  5-MIN KAQV 062305Z AUTO 00000KT 10SM OVC048 19/14 A3009 220 72 800 000/00 RMK AO2 T01890139
03949KAQV AQV20191206171011012/06/19 17:10:31  5-MIN KAQV 062310Z AUTO 00000KT 10SM OVC048 19/14 A3009 220 72 800 000/00 RMK AO2 T01890139
03949KAQV AQV20191206171511012/06/19 17:15:31  5-MIN KAQV 062315Z AUTO 00000KT 10SM OVC049 19/14 A3010 210 70 800 000/00 RMK AO2 T01940139
03949KAQV AQV20191206172011012/06/19 17:20:31  5-MIN KAQV 062320Z AUTO 00000KT 10SM OVC049 19/14 A3010 210 72 800 000/00 RMK AO2 T01890139
03949KAQV AQV20191206172511012/06/19 17:25:31  5-MIN KAQV 062325Z AUTO 00000KT 10SM OVC049 19/14 A3010 210 72 800 000/00 RMK AO2 T01890139
03949KAQV AQV20191206173011012/06/19 17:30:31  5-MIN KAQV 062330Z AUTO 00000KT 10SM OVC049 19/14 A3010 210 72 800 000/00 RMK AO2 T01890139
03949KAQV AQV20191206173511012/06/19 17:35:31  5-MIN KAQV 062335Z AUTO 00000KT 10SM OVC049 18/14 A3010 210 75 700 000/00 RMK AO2 T01830139
03949KAQV AQV20191206174011012/06/19 17:40:31  5-MIN KAQV 062340Z AUTO 00000KT 10SM OVC049 18/14 A3010 210 75 700 000/00 RMK AO2 T01830139
03949KAQV AQV20191206174511012/06/19 17:45:31  5-MIN KAQV 062345Z AUTO 00000KT 10SM OVC049 18/14 A3010 210 75 700 000/00 RMK AO2 T01830139
03949KAQV AQV20191206175011012/06/19 17:50:31  5-MIN KAQV 062350Z AUTO 00000KT 10SM OVC050 18/14 A3011 210 75 700 000/00 RMK AO2 T01830139
03949KAQV AQV20191206175513512/06/19 17:55:31  5-MIN KAQV 062355Z AUTO 00000KT 10SM OVC050 18/14 A3011 200 75 700 000/00 RMK AO2 SLP194 T01830139 10239 20178 53009
03949KAQV AQV20191206180011012/06/19 18:00:31  5-MIN KAQV 070000Z AUTO 00000KT 10SM OVC050 18/14 A3011 200 75 700 000/00 RMK AO2 T01830139
03949KAQV AQV20191206180511012/06/19 18:05:31  5-MIN KAQV 070005Z AUTO 00000KT 10SM OVC050 17/14 A3011 200 80 500 000/00 RMK AO2 T01720139
03949KAQV AQV20191206181011012/06/19 18:10:31  5-MIN KAQV 070010Z AUTO 00000KT 10SM OVC050 17/14 A3011 200 80 500 000/00 RMK AO2 T01720139
03949KAQV AQV20191206181511012/06/19 18:15:31  5-MIN KAQV 070015Z AUTO 00000KT 10SM OVC050 17/14 A3012 190 80 500 000/00 RMK AO2 T01720139
03949KAQV AQV20191206182011012/06/19 18:20:31  5-MIN KAQV 070020Z AUTO 00000KT 10SM BKN050 17/14 A3012 190 80 500 000/00 RMK AO2 T01720139
03949KAQV AQV20191206182511712/06/19 18:25:31  5-MIN KAQV 070025Z AUTO 00000KT 10SM FEW036 OVC050 17/14 A3012 190 83 500 000/00 RMK AO2 T01670139
03949KAQV AQV20191206183012412/06/19 18:30:31  5-MIN KAQV 070030Z AUTO 00000KT 10SM SCT034 SCT043 OVC050 17/14 A3012 190 83 500 000/00 RMK AO2 T01670139
03949KAQV AQV20191206183512412/06/19 18:35:31  5-MIN KAQV 070035Z AUTO 00000KT 10SM FEW034 SCT042 OVC050 17/14 A3013 190 80 500 000/00 RMK AO2 T01720139
03949KAQV AQV20191206184012412/06/19 18:40:31  5-MIN KAQV 070040Z AUTO 00000KT 10SM SCT034 SCT042 OVC050 17/14 A3013 190 80 500 000/00 RMK AO2 T01720139
03949KAQV AQV20191206184512412/06/19 18:45:31  5-MIN KAQV 070045Z AUTO 34003KT 10SM FEW034 SCT042 OVC050 17/14 A3013 180 83 500 330/03 RMK AO2 T01670139
03949KAQV AQV20191206185012412/06/19 18:50:31  5-MIN KAQV 070050Z AUTO 00000KT 10SM FEW030 SCT039 BKN050 17/14 A3013 180 83 500 000/00 RMK AO2 T01670139
03949KAQV AQV20191206185512412/06/19 18:55:31  5-MIN KAQV 070055Z AUTO 00000KT 10SM FEW039 SCT050 17/14 A3013 180 83 500 000/00 RMK AO2 SLP203 T01670139
03949KAQV AQV20191206190012412/06/19 19:00:31  5-MIN KAQV 070100Z AUTO 00000KT 10SM FEW028 FEW039 SCT050 17/14 A3013 180 83 500 000/00 RMK AO2 T01670139
03949KAQV AQV20191206190511712/06/19 19:05:31  5-MIN KAQV 070105Z AUTO 00000KT 10SM FEW028 SCT050 16/14 A3014 180 86 400 000/00 RMK AO2 T01610139
03949KAQV AQV20191206191011712/06/19 19:10:31  5-MIN KAQV 070110Z AUTO 00000KT 10SM SCT028 BKN050 16/14 A3014 170 86 400 000/00 RMK AO2 T01610139
03949KAQV AQV20191206191511712/06/19 19:15:31  5-MIN KAQV 070115Z AUTO 00000KT 10SM BKN028 BKN033 16/14 A3014 170 86 400 000/00 RMK AO2 T01610139
03949KAQV AQV20191206192011712/06/19 19:20:31  5-MIN KAQV 070120Z AUTO 00000KT 10SM SCT028 BKN035 17/14 A3014 170 83 400 000/00 RMK AO2 T01670139
03949KAQV AQV20191206192512412/06/19 19:25:31  5-MIN KAQV 070125Z AUTO 00000KT 10SM SCT029 BKN035 OVC055 17/14 A3014 170 83 400 000/00 RMK AO2 T01670139
03949KAQV AQV20191206193012412/06/19 19:30:31  5-MIN KAQV 070130Z AUTO 00000KT 10SM SCT029 BKN035 OVC050 17/14 A3014 170 83 400 000/00 RMK AO2 T01670139
03949KAQV AQV20191206193512412/06/19 19:35:31  5-MIN KAQV 070135Z AUTO 00000KT 10SM FEW029 BKN036 OVC050 17/14 A3015 170 83 400 000/00 RMK AO2 T01670139
03949KAQV AQV20191206194012412/06/19 19:40:31  5-MIN KAQV 070140Z AUTO 00000KT 10SM SCT029 BKN036 OVC050 17/14 A3015 160 83 400 000/00 RMK AO2 T01670139
03949KAQV AQV20191206194512412/06/19 19:45:31  5-MIN KAQV 070145Z AUTO 00000KT 10SM BKN027 BKN036 OVC050 17/14 A3015 160 83 400 000/00 RMK AO2 T01670139
03949KAQV AQV20191206195012412/06/19 19:50:31  5-MIN KAQV 070150Z AUTO 36006KT 10SM BKN027 BKN036 OVC050 17/14 A3015 160 80 500 350/06 RMK AO2 T01720139
03949KAQV AQV20191206195511412/06/19 19:55:31  5-MIN KAQV 070155Z AUTO 36005KT 10SM SCT027 BKN034 OVC050 18/14 A3015 160 78 600 360/05 RMK AO2
03949KAQV AQV20191206200012412/06/19 20:00:31  5-MIN KAQV 070200Z AUTO 36004KT 10SM SCT027 BKN034 OVC050 17/14 A3016 160 80 500 360/04 RMK AO2 T01720139
03949KAQV AQV20191206200511712/06/19 20:05:31  5-MIN KAQV 070205Z AUTO 01006KT 10SM BKN027 OVC034 18/14 A3016 160 78 600 010/06 RMK AO2 T01780139
03949KAQV AQV20191206201011712/06/19 20:10:31  5-MIN KAQV 070210Z AUTO 01005KT 10SM BKN028 OVC034 18/14 A3016 150 78 600 010/05 RMK AO2 T01780139
03949KAQV AQV20191206201511712/06/19 20:15:31  5-MIN KAQV 070215Z AUTO 01005KT 10SM BKN028 OVC034 18/14 A3016 150 78 600 010/05 RMK AO2 T01780139
03949KAQV AQV20191206202012412/06/19 20:20:31  5-MIN KAQV 070220Z AUTO 36005KT 10SM BKN028 BKN035 OVC049 18/14 A3017 150 78 600 360/05 RMK AO2 T01780139
03949KAQV AQV20191206202511712/06/19 20:25:31  5-MIN KAQV 070225Z AUTO 01005KT 10SM BKN028 OVC035 18/14 A3017 150 78 500 010/05 RMK AO2 T01780139
03949KAQV AQV20191206203013912/06/19 20:30:31  5-MIN KAQV 070230Z AUTO 03009G14KT 350V060 10SM BKN028 OVC035 18/14 A3017 150 78 500 020/09G14 350V060 RMK AO2 T01780139
03949KAQV AQV20191206203513012/06/19 20:35:31  5-MIN KAQV 070235Z AUTO 03007G14KT 10SM SCT028 BKN035 OVC049 18/13 A3017 140 75 500 020/07G14 RMK AO2 T01780133
03949KAQV AQV20191206204013012/06/19 20:40:31  5-MIN KAQV 070240Z AUTO 03007G17KT 10SM FEW028 BKN036 BKN047 18/13 A3017 140 75 500 030/07G17 RMK AO2 T01780133
03949KAQV AQV20191206204513012/06/19 20:45:31  5-MIN KAQV 070245Z AUTO 02006G17KT 10SM FEW028 BKN036 BKN047 17/13 A3018 140 78 500 020/06G17 RMK AO2 T01720133
03949KAQV AQV20191206205012412/06/19 20:50:31  5-MIN KAQV 070250Z AUTO 02006KT 10SM FEW028 BKN036 BKN049 17/13 A3018 140 75 500 020/06 RMK AO2 T01720128
03949KAQV AQV20191206205513612/06/19 20:55:31  5-MIN KAQV 070255Z AUTO 03009G15KT 10SM FEW036 BKN049 17/13 A3018 140 75 500 030/09G15 RMK AO2 SLP218 T01720128 53017
03949KAQV AQV20191206210013912/06/19 21:00:31  5-MIN KAQV 070300Z AUTO 02007G15KT 340V050 10SM FEW036 BKN049 17/12 A3018 140 72 500 020/07G15 340V050 RMK AO2 T01720122
03949KAQV AQV20191206210511712/06/19 21:05:31  5-MIN KAQV 070305Z AUTO VRB06KT 10SM FEW036 OVC049 17/12 A3018 140 72 500 VRB/06 RMK AO2 T01720122
03949KAQV AQV20191206211011712/06/19 21:10:31  5-MIN KAQV 070310Z AUTO 02006KT 10SM FEW035 OVC049 17/12 A3018 140 72 500 010/06 RMK AO2 T01720122
03949KAQV AQV20191206211513312/06/19 21:15:31  5-MIN KAQV 070315Z AUTO 02007KT 350V060 10SM FEW037 OVC050 17/12 A3018 130 69 500 020/07 350V060 RMK AO2 T01720117
03949KAQV AQV20191206212011712/06/19 21:20:31  5-MIN KAQV 070320Z AUTO VRB06KT 10SM FEW037 OVC050 17/12 A3018 130 69 500 VRB/06 RMK AO2 T01720117
03949KAQV AQV20191206212512312/06/19 21:25:31  5-MIN KAQV 070325Z AUTO 02007G15KT 10SM FEW038 OVC050 17/12 A3018 130 69 500 010/07G15 RMK AO2 T01720117
03949KAQV AQV20191206213012312/06/19 21:30:31  5-MIN KAQV 070330Z AUTO 01007G15KT 10SM FEW038 OVC050 17/12 A3019 130 69 500 010/07G15 RMK AO2 T01720117
03949KAQV AQV20191206213511712/06/19 21:35:31  5-MIN KAQV 070335Z AUTO 01007KT 10SM FEW038 OVC050 17/12 A3019 130 69 500 010/07 RMK AO2 T01720117
03949KAQV AQV20191206214011012/06/19 21:40:31  5-MIN KAQV 070340Z AUTO 01007KT 10SM OVC050 17/12 A3019 130 69 500 010/07 RMK AO2 T01720117
03949KAQV AQV20191206214512612/06/19 21:45:31  5-MIN KAQV 070345Z AUTO 02007KT 350V060 10SM OVC050 17/12 A3019 130 72 400 010/07 350V060 RMK AO2 T01670117
03949KAQV AQV20191206215011012/06/19 21:50:31  5-MIN KAQV 070350Z AUTO 01007KT 10SM OVC050 17/12 A3019 130 72 400 010/07 RMK AO2 T01670117
03949KAQV AQV20191206215511712/06/19 21:55:31  5-MIN KAQV 070355Z AUTO 02008KT 10SM OVC050 17/12 A3019 120 72 400 020/08 RMK AO2 SLP223 T01670117
03949KAQV AQV20191206220011712/06/19 22:00:31  5-MIN KAQV 070400Z AUTO 02007KT 10SM FEW034 OVC050 17/11 A3019 120 69 400 010/07 RMK AO2 T01670111
03949KAQV AQV20191206220511712/06/19 22:05:31  5-MIN KAQV 070405Z AUTO 01006KT 10SM FEW034 OVC050 17/11 A3020 120 69 400 010/06 RMK AO2 T01670111
03949KAQV AQV20191206221011712/06/19 22:10:31  5-MIN KAQV 070410Z AUTO 03008KT 10SM FEW034 OVC050 17/11 A3020 120 69 400 030/08 RMK AO2 T01670111
03949KAQV AQV20191206221511712/06/19 22:15:31  5-MIN KAQV 070415Z AUTO 03008KT 10SM FEW034 OVC050 17/11 A3020 120 69 400 020/08 RMK AO2 T01670111
03949KAQV AQV20191206222011712/06/19 22:20:31  5-MIN KAQV 070420Z AUTO 02007KT 10SM FEW034 OVC050 17/11 A3020 120 69 400 010/07 RMK AO2 T01670111
03949KAQV AQV20191206222511012/06/19 22:25:31  5-MIN KAQV 070425Z AUTO 02006KT 10SM BKN050 17/11 A3020 120 69 400 020/06 RMK AO2 T01670111
03949KAQV AQV20191206223011012/06/19 22:30:31  5-MIN KAQV 070430Z AUTO 02007KT 10SM BKN050 16/11 A3020 120 72 300 010/07 RMK AO2 T01610111
03949KAQV AQV20191206223511012/06/19 22:35:31  5-MIN KAQV 070435Z AUTO 01007KT 10SM BKN050 16/11 A3020 120 72 300 010/07 RMK AO2 T01610111
03949KAQV AQV20191206224011012/06/19 22:40:31  5-MIN KAQV 070440Z AUTO 01007KT 10SM BKN050 16/11 A3020 120 72 300 010/07 RMK AO2 T01610111
03949KAQV AQV20191206224511012/06/19 22:45:31  5-MIN KAQV 070445Z AUTO 01006KT 10SM BKN050 16/11 A3020 120 72 300 010/06 RMK AO2 T01610111
03949KAQV AQV20191206225011012/06/19 22:50:31  5-MIN KAQV 070450Z AUTO 01006KT 10SM SCT050 16/11 A3020 120 72 300 010/06 RMK AO2 T01610111
03949KAQV AQV20191206225511712/06/19 22:55:31  5-MIN KAQV 070455Z AUTO 02006KT 10SM SCT050 16/11 A3020 120 69 300 010/06 RMK AO2 SLP226 T01610106
03949KAQV AQV20191206230011012/06/19 23:00:31  5-MIN KAQV 070500Z AUTO 03005KT 10SM SCT050 16/11 A3020 120 72 200 020/05 RMK AO2 T01560106
03949KAQV AQV20191206230511012/06/19 23:05:31  5-MIN KAQV 070505Z AUTO 03005KT 10SM FEW050 16/11 A3020 120 72 200 020/05 RMK AO2 T01560106
03949KAQV AQV20191206231011012/06/19 23:10:31  5-MIN KAQV 070510Z AUTO 03006KT 10SM FEW050 16/11 A3021 110 72 200 020/06 RMK AO2 T01560106
03949KAQV AQV20191206231511012/06/19 23:15:31  5-MIN KAQV 070515Z AUTO 02005KT 10SM SCT050 16/11 A3021 110 72 200 020/05 RMK AO2 T01560106
03949KAQV AQV20191206232011012/06/19 23:20:31  5-MIN KAQV 070520Z AUTO 02005KT 10SM SCT050 16/11 A3021 110 72 200 020/05 RMK AO2 T01560106
03949KAQV AQV20191206232511012/06/19 23:25:31  5-MIN KAQV 070525Z AUTO 02005KT 10SM BKN048 16/11 A3021 110 72 200 020/05 RMK AO2 T01560106
03949KAQV AQV20191206233011012/06/19 23:30:31  5-MIN KAQV 070530Z AUTO 03005KT 10SM SCT048 16/11 A3021 110 72 200 020/05 RMK AO2 T01560106
03949KAQV AQV20191206233511012/06/19 23:35:31  5-MIN KAQV 070535Z AUTO 02005KT 10SM SCT048 16/11 A3021 110 72 200 010/05 RMK AO2 T01560106
03949KAQV AQV20191206234011012/06/19 23:40:31  5-MIN KAQV 070540Z AUTO 02005KT 10SM SCT048 15/11 A3021 110 74 200 020/05 RMK AO2 T01500106
03949KAQV AQV20191206234511012/06/19 23:45:31  5-MIN KAQV 070545Z AUTO VRB05KT 10SM FEW048 15/11 A3021 110 74 200 VRB/05 RMK AO2 T01500106
03949KAQV AQV20191206235011012/06/19 23:50:31  5-MIN KAQV 070550Z AUTO 02006KT 10SM FEW048 15/10 A3021 110 72 200 020/06 RMK AO2 T01500100
03949KAQV AQV20191206235514212/06/19 23:55:31  5-MIN KAQV 070555Z AUTO VRB05KT 10SM CLR 15/10 A3021 110 72 200 VRB/05 RMK AO2 SLP228 T01500100 10183 20150 402390144 51024
03949KAQV AQV20191207000010712/07/19 00:00:31  5-MIN KAQV 070600Z AUTO 02004KT 10SM CLR 14/10 A3021 110 74 100 010/04 RMK AO2 T01440100
03949KAQV AQV20191207000510712/07/19 00:05:31  5-MIN KAQV 070605Z AUTO 02006KT 10SM CLR 14/10 A3021 110 74 100 020/06 RMK AO2 T01440100
03949KAQV AQV20191207001010712/07/19 00:10:31  5-MIN KAQV 070610Z AUTO 01004KT 10SM CLR 14/10 A3021 110 74 100 010/04 RMK AO2 T01440100
03949KAQV AQV20191207001510712/07/19 00:15:31  5-MIN KAQV 070615Z AUTO 03004KT 10SM CLR 14/10 A3021 110 74 100 020/04 RMK AO2 T01440100
03949KAQV AQV20191207002010512/07/19 00:20:31  5-MIN KAQV 070620Z AUTO 02006KT 10SM CLR 14/10 A3021 110 77 0 020/06 RMK AO2 T01390100
03949KAQV AQV20191207002510712/07/19 00:25:31  5-MIN KAQV 070625Z AUTO VRB03KT 10SM CLR 14/10 A3021 110 74 100 VRB/03 RMK AO2 T01440100
03949KAQV AQV20191207003010712/07/19 00:30:31  5-MIN KAQV 070630Z AUTO 03004KT 10SM CLR 14/10 A3020 120 74 100 030/04 RMK AO2 T01440100
03949KAQV AQV20191207003510712/07/19 00:35:31  5-MIN KAQV 070635Z AUTO 04004KT 10SM CLR 14/10 A3020 120 77 100 030/04 RMK AO2 T01390100
03949KAQV AQV20191207004010712/07/19 00:40:31  5-MIN KAQV 070640Z AUTO 03003KT 10SM CLR 14/10 A3020 120 77 100 030/03 RMK AO2 T01390100
03949KAQV AQV20191207004510512/07/19 00:45:31  5-MIN KAQV 070645Z AUTO 03005KT 10SM CLR 14/10 A3021 110 77 0 030/05 RMK AO2 T01390100
03949KAQV AQV20191207005010512/07/19 00:50:31  5-MIN KAQV 070650Z AUTO VRB04KT 10SM CLR 14/10 A3020 110 77 0 VRB/04 RMK AO2 T01390100
03949KAQV AQV20191207005511212/07/19 00:55:31  5-MIN KAQV 070655Z AUTO 03005KT 10SM CLR 14/10 A3020 110 77 0 020/05 RMK AO2 SLP226 T01390100
03949KAQV AQV20191207010010512/07/19 01:00:31  5-MIN KAQV 070700Z AUTO 03003KT 10SM CLR 13/10 A3021 110 80 0 020/03 RMK AO2 T01330100
03949KAQV AQV20191207010510512/07/19 01:05:31  5-MIN KAQV 070705Z AUTO 03004KT 10SM CLR 13/10 A3021 110 80 0 020/04 RMK AO2 T01330100
03949KAQV AQV20191207011010512/07/19 01:10:31  5-MIN KAQV 070710Z AUTO 04004KT 10SM CLR 13/10 A3020 110 80 0 040/04 RMK AO2 T01330100
03949KAQV AQV20191207011510512/07/19 01:15:31  5-MIN KAQV 070715Z AUTO 03004KT 10SM CLR 13/09 A3020 120 77 0 020/04 RMK AO2 T01330094
03949KAQV AQV20191207012010512/07/19 01:20:31  5-MIN KAQV 070720Z AUTO 04004KT 10SM CLR 13/09 A3020 120 80 0 040/04 RMK AO2 T01280094
03949KAQV AQV20191207012510512/07/19 01:25:31  5-MIN KAQV 070725Z AUTO 03003KT 10SM CLR 13/09 A3020 120 80 0 030/03 RMK AO2 T01280094
03949KAQV AQV20191207013010512/07/19 01:30:31  5-MIN KAQV 070730Z AUTO 00000KT 10SM CLR 13/09 A3020 120 80 0 000/00 RMK AO2 T01280094
03949KAQV AQV20191207013510512/07/19 01:35:31  5-MIN KAQV 070735Z AUTO 03003KT 10SM CLR 13/09 A3020 110 80 0 020/03 RMK AO2 T01280094
03949KAQV AQV20191207014010512/07/19 01:40:31  5-MIN KAQV 070740Z AUTO 02003KT 10SM CLR 13/09 A3021 110 80 0 020/03 RMK AO2 T01280094
03949KAQV AQV20191207014510812/07/19 01:45:31  5-MIN KAQV 070745Z AUTO 03003KT 10SM CLR 12/09 A3021 110 83 -100 030/03 RMK AO2 T01220094
03949KAQV AQV20191207015010512/07/19 01:50:31  5-MIN KAQV 070750Z AUTO 03003KT 10SM CLR 13/09 A3021 110 80 0 030/03 RMK AO2 T01280094
03949KAQV AQV20191207015511212/07/19 01:55:31  5-MIN KAQV 070755Z AUTO VRB03KT 10SM CLR 13/09 A3021 110 80 0 VRB/03 RMK AO2 SLP230 T01280094
03949KAQV AQV20191207020010512/07/19 02:00:31  5-MIN KAQV 070800Z AUTO 02003KT 10SM CLR 13/09 A3022 100 80 0 010/03 RMK AO2 T01280094
03949KAQV AQV20191207020510512/07/19 02:05:31  5-MIN KAQV 070805Z AUTO 03003KT 10SM CLR 13/10 A3022 100 83 0 020/03 RMK AO2 T01280100
03949KAQV AQV20191207021010812/07/19 02:10:31  5-MIN KAQV 070810Z AUTO 00000KT 10SM CLR 12/09 A3022 100 83 -100 000/00 RMK AO2 T01220094
03949KAQV AQV20191207021510812/07/19 02:15:31  5-MIN KAQV 070815Z AUTO 00000KT 10SM CLR 12/09 A3022 100 86 -200 000/00 RMK AO2 T01170094
03949KAQV AQV20191207022010812/07/19 02:20:31  5-MIN KAQV 070820Z AUTO 00000KT 10SM CLR 12/09 A3022 100 86 -200 000/00 RMK AO2 T01170094
03949KAQV AQV20191207022510812/07/19 02:25:31  5-MIN KAQV 070825Z AUTO 00000KT 10SM CLR 11/09 A3022 100 89 -200 000/00 RMK AO2 T01110094
03949KAQV AQV20191207023010812/07/19 02:30:31  5-MIN KAQV 070830Z AUTO 00000KT 10SM CLR 11/09 A3022 100 89 -200 000/00 RMK AO2 T01110094
03949KAQV AQV20191207023510812/07/19 02:35:31  5-MIN KAQV 070835Z AUTO 00000KT 10SM CLR 11/09 A3022 100 89 -200 000/00 RMK AO2 T01110094
03949KAQV AQV20191207024010812/07/19 02:40:31  5-MIN KAQV 070840Z AUTO 00000KT 10SM CLR 11/09 A3022 100 89 -300 000/00 RMK AO2 T01060089
03949KAQV AQV20191207024510812/07/19 02:45:31  5-MIN KAQV 070845Z AUTO 00000KT 10SM CLR 11/09 A3021 110 89 -300 000/00 RMK AO2 T01060089
03949KAQV AQV20191207025010812/07/19 02:50:31  5-MIN KAQV 070850Z AUTO 00000KT 10SM CLR 11/09 A3021 110 89 -300 000/00 RMK AO2 T01060089
03949KAQV AQV20191207025512112/07/19 02:55:31  5-MIN KAQV 070855Z AUTO 00000KT 10SM CLR 11/09 A3021 110 89 -300 000/00 RMK AO2 SLP229 T01060089 51010
03949KAQV AQV20191207030010812/07/19 03:00:31  5-MIN KAQV 070900Z AUTO 02003KT 10SM CLR 10/09 A3021 110 93 -400 020/03 RMK AO2 T01000089
03949KAQV AQV20191207030510812/07/19 03:05:31  5-MIN KAQV 070905Z AUTO 01003KT 10SM CLR 10/09 A3021 110 93 -400 010/03 RMK AO2 T01000089
03949KAQV AQV20191207031010812/07/19 03:10:31  5-MIN KAQV 070910Z AUTO 00000KT 10SM CLR 11/09 A3021 110 89 -300 000/00 RMK AO2 T01060089
03949KAQV AQV20191207031510812/07/19 03:15:31  5-MIN KAQV 070915Z AUTO 00000KT 10SM CLR 11/09 A3021 110 89 -300 000/00 RMK AO2 T01060089
03949KAQV AQV20191207032010812/07/19 03:20:31  5-MIN KAQV 070920Z AUTO 01003KT 10SM CLR 10/09 A3021 110 93 -400 010/03 RMK AO2 T01000089
03949KAQV AQV20191207032510812/07/19 03:25:31  5-MIN KAQV 070925Z AUTO 00000KT 10SM CLR 10/09 A3021 110 93 -400 000/00 RMK AO2 T01000089
03949KAQV AQV20191207033010812/07/19 03:30:31  5-MIN KAQV 070930Z AUTO 02003KT 10SM CLR 10/09 A3021 110 93 -400 010/03 RMK AO2 T01000089
03949KAQV AQV20191207033510812/07/19 03:35:31  5-MIN KAQV 070935Z AUTO 01003KT 10SM CLR 10/09 A3021 110 93 -400 010/03 RMK AO2 T01000089
03949KAQV AQV20191207034010812/07/19 03:40:31  5-MIN KAQV 070940Z AUTO 00000KT 10SM CLR 10/09 A3021 110 93 -400 000/00 RMK AO2 T01000089
03949KAQV AQV20191207034510712/07/19 03:45:31  5-MIN KAQV 070945Z AUTO 00000KT 9SM CLR 10/08 A3021 110 89 -400 000/00 RMK AO2 T01000083
03949KAQV AQV20191207035010712/07/19 03:50:31  5-MIN KAQV 070950Z AUTO 01003KT 9SM CLR 10/08 A3021 110 89 -400 360/03 RMK AO2 T01000083
03949KAQV AQV20191207035511512/07/19 03:55:31  5-MIN KAQV 070955Z AUTO 02003KT 10SM CLR 10/09 A3021 110 93 -400 010/03 RMK AO2 SLP228 T01000089
03949KAQV AQV20191207040010812/07/19 04:00:31  5-MIN KAQV 071000Z AUTO 02003KT 10SM CLR 11/09 A3021 110 89 -300 010/03 RMK AO2 T01060089
03949KAQV AQV20191207040510812/07/19 04:05:31  5-MIN KAQV 071005Z AUTO 02003KT 10SM CLR 11/09 A3021 110 89 -300 020/03 RMK AO2 T01060089
03949KAQV AQV20191207041010812/07/19 04:10:31  5-MIN KAQV 071010Z AUTO 00000KT 10SM CLR 11/09 A3021 110 89 -300 000/00 RMK AO2 T01060089
03949KAQV AQV20191207041510812/07/19 04:15:31  5-MIN KAQV 071015Z AUTO 01003KT 10SM CLR 10/09 A3021 110 93 -400 360/03 RMK AO2 T01000089
03949KAQV AQV20191207042010712/07/19 04:20:31  5-MIN KAQV 071020Z AUTO 01004KT 9SM CLR 10/08 A3021 110 89 -400 360/04 RMK AO2 T01000083
03949KAQV AQV20191207042510712/07/19 04:25:31  5-MIN KAQV 071025Z AUTO 01003KT 9SM CLR 10/09 A3021 110 93 -400 010/03 RMK AO2 T01000089
03949KAQV AQV20191207043010712/07/19 04:30:31  5-MIN KAQV 071030Z AUTO VRB03KT 9SM CLR 10/08 A3021 110 89 -400 VRB/03 RMK AO2 T01000083
03949KAQV AQV20191207043510712/07/19 04:35:31  5-MIN KAQV 071035Z AUTO 01003KT 9SM CLR 10/09 A3021 110 93 -400 360/03 RMK AO2 T01000089
03949KAQV AQV20191207044010712/07/19 04:40:31  5-MIN KAQV 071040Z AUTO 00000KT 9SM CLR 10/08 A3021 110 89 -400 000/00 RMK AO2 T01000083
03949KAQV AQV20191207044510712/07/19 04:45:31  5-MIN KAQV 071045Z AUTO 36004KT 9SM CLR 10/08 A3021 110 89 -400 360/04 RMK AO2 T01000083
03949KAQV AQV20191207045010812/07/19 04:50:31  5-MIN KAQV 071050Z AUTO 01003KT 10SM CLR 10/08 A3022 100 89 -400 360/03 RMK AO2 T01000083
03949KAQV AQV20191207045511512/07/19 04:55:31  5-MIN KAQV 071055Z AUTO 01004KT 10SM CLR 11/09 A3022 100 89 -300 010/04 RMK AO2 SLP232 T01060089
03949KAQV AQV20191207050010812/07/19 05:00:31  5-MIN KAQV 071100Z AUTO 01003KT 10SM CLR 10/09 A3022 100 93 -400 010/03 RMK AO2 T01000089
03949KAQV AQV20191207050510812/07/19 05:05:31  5-MIN KAQV 071105Z AUTO 01005KT 10SM CLR 10/09 A3022 100 93 -400 010/05 RMK AO2 T01000089
03949KAQV AQV20191207051010812/07/19 05:10:31  5-MIN KAQV 071110Z AUTO 01004KT 10SM CLR 10/09 A3022 100 93 -400 360/04 RMK AO2 T01000089
03949KAQV AQV20191207051510812/07/19 05:15:31  5-MIN KAQV 071115Z AUTO 01003KT 10SM CLR 10/08 A3022 100 89 -400 010/03 RMK AO2 T01000083
03949KAQV AQV20191207052010712/07/19 05:20:31  5-MIN KAQV 071120Z AUTO 36004KT 10SM CLR 10/09 A3023 90 93 -400 360/04 RMK AO2 T01000089
03949KAQV AQV20191207052510712/07/19 05:25:31  5-MIN KAQV 071125Z AUTO 01004KT 10SM CLR 10/09 A3023 90 93 -400 010/04 RMK AO2 T01000089
03949KAQV AQV20191207053010712/07/19 05:30:31  5-MIN KAQV 071130Z AUTO 01004KT 10SM CLR 10/09 A3023 90 93 -400 360/04 RMK AO2 T01000089
03949KAQV AQV20191207053510712/07/19 05:35:31  5-MIN KAQV 071135Z AUTO 01003KT 10SM CLR 10/08 A3023 90 89 -400 010/03 RMK AO2 T01000083
03949KAQV AQV20191207054010712/07/19 05:40:31  5-MIN KAQV 071140Z AUTO 01003KT 10SM CLR 10/08 A3023 90 89 -400 360/03 RMK AO2 T01000083
03949KAQV AQV20191207054510712/07/19 05:45:31  5-MIN KAQV 071145Z AUTO 01004KT 10SM CLR 10/08 A3023 90 89 -400 360/04 RMK AO2 T01000083
03949KAQV AQV20191207055010612/07/19 05:50:31  5-MIN KAQV 071150Z AUTO 01003KT 9SM CLR 10/08 A3024 90 89 -400 010/03 RMK AO2 T01000083
03949KAQV AQV20191207055513112/07/19 05:55:31  5-MIN KAQV 071155Z AUTO 02003KT 9SM CLR 10/08 A3023 90 89 -400 020/03 RMK AO2 SLP238 T01000083 10150 20100 50000
03949KAQV AQV20191207060010712/07/19 06:00:31  5-MIN KAQV 071200Z AUTO 02004KT 10SM CLR 10/08 A3023 90 89 -400 010/04 RMK AO2 T01000083
03949KAQV AQV20191207060510712/07/19 06:05:31  5-MIN KAQV 071205Z AUTO 02004KT 10SM CLR 10/08 A3023 90 89 -400 010/04 RMK AO2 T01000083
03949KAQV AQV20191207160510712/07/19 16:05:31  5-MIN KAQV 072205Z AUTO VRB03KT 10SM CLR 16/09 A3020 120 62 300 VRB/03 RMK AO2 T01610089
03949KAQV AQV20191207161010712/07/19 16:10:31  5-MIN KAQV 072210Z AUTO 07004KT 10SM CLR 16/09 A3020 120 62 300 070/04 RMK AO2 T01610089
03949KAQV AQV20191207161510712/07/19 16:15:31  5-MIN KAQV 072215Z AUTO 06004KT 10SM CLR 16/08 A3020 120 62 300 050/04 RMK AO2 T01560083
03949KAQV AQV20191207162010712/07/19 16:20:31  5-MIN KAQV 072220Z AUTO 00000KT 10SM CLR 15/08 A3020 120 64 200 000/00 RMK AO2 T01500083
03949KAQV AQV20191207162510712/07/19 16:25:31  5-MIN KAQV 072225Z AUTO 06004KT 10SM CLR 16/08 A3020 120 62 300 050/04 RMK AO2 T01560083
03949KAQV AQV20191207163010712/07/19 16:30:31  5-MIN KAQV 072230Z AUTO 00000KT 10SM CLR 15/08 A3020 120 64 200 000/00 RMK AO2 T01500083
03949KAQV AQV20191207163510712/07/19 16:35:31  5-MIN KAQV 072235Z AUTO 07003KT 10SM CLR 15/08 A3020 120 64 200 060/03 RMK AO2 T01500083
03949KAQV AQV20191207164010712/07/19 16:40:31  5-MIN KAQV 072240Z AUTO 07003KT 10SM CLR 14/08 A3020 120 66 100 070/03 RMK AO2 T01440083
03949KAQV AQV20191207164510712/07/19 16:45:31  5-MIN KAQV 072245Z AUTO VRB03KT 10SM CLR 14/09 A3020 120 69 100 VRB/03 RMK AO2 T01440089
03949KAQV AQV20191207165010712/07/19 16:50:31  5-MIN KAQV 072250Z AUTO 07003KT 10SM CLR 14/09 A3020 120 69 100 060/03 RMK AO2 T01440089
03949KAQV AQV20191207165511412/07/19 16:55:31  5-MIN KAQV 072255Z AUTO 06003KT 10SM CLR 14/09 A3020 120 71 100 060/03 RMK AO2 SLP225 T01390089
03949KAQV AQV20191207170010712/07/19 17:00:31  5-MIN KAQV 072300Z AUTO 00000KT 10SM CLR 14/09 A3019 120 71 100 000/00 RMK AO2 T01390089
03949KAQV AQV20191207170510512/07/19 17:05:31  5-MIN KAQV 072305Z AUTO 00000KT 10SM CLR 13/09 A3020 120 74 0 000/00 RMK AO2 T01330089
03949KAQV AQV20191207171010812/07/19 17:10:31  5-MIN KAQV 072310Z AUTO 00000KT 10SM CLR 12/09 A3020 120 80 -100 000/00 RMK AO2 T01220089
03949KAQV AQV20191207171510812/07/19 17:15:31  5-MIN KAQV 072315Z AUTO 00000KT 10SM CLR 12/09 A3019 120 80 -100 000/00 RMK AO2 T01220089
03949KAQV AQV20191207172010812/07/19 17:20:31  5-MIN KAQV 072320Z AUTO 00000KT 10SM CLR 12/09 A3019 120 80 -100 000/00 RMK AO2 T01220089
03949KAQV AQV20191207172510812/07/19 17:25:31  5-MIN KAQV 072325Z AUTO 00000KT 10SM CLR 12/09 A3019 120 83 -200 000/00 RMK AO2 T01170089
03949KAQV AQV20191207173010812/07/19 17:30:31  5-MIN KAQV 072330Z AUTO 00000KT 10SM CLR 12/09 A3019 130 83 -200 000/00 RMK AO2 T01170089
03949KAQV AQV20191207173510812/07/19 17:35:31  5-MIN KAQV 072335Z AUTO 00000KT 10SM CLR 11/09 A3019 130 86 -200 000/00 RMK AO2 T01110089
03949KAQV AQV20191207174010812/07/19 17:40:31  5-MIN KAQV 072340Z AUTO 00000KT 10SM CLR 11/08 A3019 120 83 -200 000/00 RMK AO2 T01110083
03949KAQV AQV20191207174510812/07/19 17:45:31  5-MIN KAQV 072345Z AUTO 00000KT 10SM CLR 11/08 A3019 130 83 -200 000/00 RMK AO2 T01110083
03949KAQV AQV20191207175010812/07/19 17:50:31  5-MIN KAQV 072350Z AUTO 00000KT 10SM CLR 11/08 A3019 130 86 -300 000/00 RMK AO2 T01060083
03949KAQV AQV20191207175513312/07/19 17:55:31  5-MIN KAQV 072355Z AUTO 00000KT 10SM CLR 11/08 A3019 130 86 -300 000/00 RMK AO2 SLP224 T01060083 10178 20106 56013
03949KAQV AQV20191207180010812/07/19 18:00:31  5-MIN KAQV 080000Z AUTO 00000KT 10SM CLR 11/08 A3019 130 86 -300 000/00 RMK AO2 T01060083
03949KAQV AQV20191207180510812/07/19 18:05:31  5-MIN KAQV 080005Z AUTO 00000KT 10SM CLR 11/08 A3019 120 86 -300 000/00 RMK AO2 T01060083
03949KAQV AQV20191207181010812/07/19 18:10:31  5-MIN KAQV 080010Z AUTO 00000KT 10SM CLR 11/08 A3019 120 86 -300 000/00 RMK AO2 T01060083
03949KAQV AQV20191207181510812/07/19 18:15:31  5-MIN KAQV 080015Z AUTO 00000KT 10SM CLR 10/08 A3019 120 89 -400 000/00 RMK AO2 T01000083
03949KAQV AQV20191207182010812/07/19 18:20:31  5-MIN KAQV 080020Z AUTO 05004KT 10SM CLR 10/08 A3019 120 89 -400 050/04 RMK AO2 T01000083
03949KAQV AQV20191207182510812/07/19 18:25:31  5-MIN KAQV 080025Z AUTO 06004KT 10SM CLR 11/08 A3019 120 83 -200 050/04 RMK AO2 T01110083
03949KAQV AQV20191207183010812/07/19 18:30:31  5-MIN KAQV 080030Z AUTO 06003KT 10SM CLR 11/08 A3019 120 83 -200 060/03 RMK AO2 T01110083
03949KAQV AQV20191207183510812/07/19 18:35:31  5-MIN KAQV 080035Z AUTO 07003KT 10SM CLR 11/08 A3020 120 83 -200 070/03 RMK AO2 T01110083
03949KAQV AQV20191207184010812/07/19 18:40:31  5-MIN KAQV 080040Z AUTO VRB04KT 10SM CLR 11/08 A3020 120 83 -200 VRB/04 RMK AO2 T01110083
03949KAQV AQV20191207184510812/07/19 18:45:31  5-MIN KAQV 080045Z AUTO VRB03KT 10SM CLR 11/08 A3020 120 86 -300 VRB/03 RMK AO2 T01060083
03949KAQV AQV20191207185010812/07/19 18:50:31  5-MIN KAQV 080050Z AUTO 00000KT 10SM CLR 11/08 A3020 120 86 -300 000/00 RMK AO2 T01060083
03949KAQV AQV20191207185511512/07/19 18:55:31  5-MIN KAQV 080055Z AUTO 07004KT 10SM CLR 11/08 A3020 120 86 -300 070/04 RMK AO2 SLP227 T01060083
03949KAQV AQV20191207190010812/07/19 19:00:31  5-MIN KAQV 080100Z AUTO 07003KT 10SM CLR 11/08 A3020 120 86 -300 070/03 RMK AO2 T01060083
03949KAQV AQV20191207190510812/07/19 19:05:31  5-MIN KAQV 080105Z AUTO 00000KT 10SM CLR 10/08 A3020 120 89 -400 000/00 RMK AO2 T01000083
03949KAQV AQV20191207191010812/07/19 19:10:31  5-MIN KAQV 080110Z AUTO 00000KT 10SM CLR 10/08 A3020 120 89 -400 000/00 RMK AO2 T01000083
03949KAQV AQV20191207191510812/07/19 19:15:31  5-MIN KAQV 080115Z AUTO 00000KT 10SM CLR 10/08 A3020 120 89 -400 000/00 RMK AO2 T01000083
03949KAQV AQV20191207192010812/07/19 19:20:31  5-MIN KAQV 080120Z AUTO 08003KT 10SM CLR 10/08 A3020 120 89 -400 070/03 RMK AO2 T01000083
03949KAQV AQV20191207192510812/07/19 19:25:31  5-MIN KAQV 080125Z AUTO 00000KT 10SM CLR 10/08 A3020 110 89 -400 000/00 RMK AO2 T01000083
03949KAQV AQV20191207193010812/07/19 19:30:31  5-MIN KAQV 080130Z AUTO 00000KT 10SM CLR 09/08 A3020 110 89 -400 000/00 RMK AO2 T00940078
03949KAQV AQV20191207193511112/07/19 19:35:31  5-MIN KAQV 080135Z AUTO 00000KT 10SM FEW006 09/08 A3020 110 89 -400 000/00 RMK AO2 T00940078
03949KAQV AQV20191207194011112/07/19 19:40:31  5-MIN KAQV 080140Z AUTO 00000KT 10SM SCT006 09/08 A3020 120 89 -400 000/00 RMK AO2 T00940078
03949KAQV AQV20191207194511112/07/19 19:45:31  5-MIN KAQV 080145Z AUTO 00000KT 10SM BKN006 09/08 A3020 110 89 -400 000/00 RMK AO2 T00940078
03949KAQV AQV20191207195011112/07/19 19:50:31  5-MIN KAQV 080150Z AUTO 00000KT 10SM BKN006 09/08 A3020 110 89 -400 000/00 RMK AO2 T00940078
03949KAQV AQV20191207195511212/07/19 19:55:31  5-MIN KAQV 080155Z AUTO VRB03KT 9SM BKN004 09/08 A3020 110 93 -400 VRB/03 RMK AO2 CIG 003V006
03949KAQV AQV20191207200012212/07/19 20:00:31  5-MIN KAQV 080200Z AUTO VRB03KT 8SM OVC004 09/08 A3021 110 89 -400 VRB/03 RMK AO2 CIG 002V006 T00940078
03949KAQV AQV20191207200512212/07/19 20:05:31  5-MIN KAQV 080205Z AUTO 00000KT 7SM OVC004 09/08 A3021 110 89 -400 000/00 RMK AO2 CIG 002V006 T00940078
03949KAQV AQV20191207201011312/07/19 20:10:31  5-MIN KAQV 080210Z AUTO VRB03KT 6SM BR OVC004 09/08 A3021 110 89 -400 VRB/03 RMK AO2 T00940078
03949KAQV AQV20191207201511312/07/19 20:15:31  5-MIN KAQV 080215Z AUTO 00000KT 6SM BR OVC003 09/08 A3020 110 89 -400 000/00 RMK AO2 T00940078
03949KAQV AQV20191207202011312/07/19 20:20:31  5-MIN KAQV 080220Z AUTO 00000KT 6SM BR OVC003 09/08 A3021 110 93 -500 000/00 RMK AO2 T00890078
03949KAQV AQV20191207202511312/07/19 20:25:31  5-MIN KAQV 080225Z AUTO 00000KT 6SM BR OVC003 09/08 A3021 110 93 -500 000/00 RMK AO2 T00890078
03949KAQV AQV20191207203011312/07/19 20:30:31  5-MIN KAQV 080230Z AUTO VRB03KT 6SM BR OVC003 09/08 A3021 110 93 -500 VRB/03 RMK AO2 T00890078
03949KAQV AQV20191207203511312/07/19 20:35:31  5-MIN KAQV 080235Z AUTO VRB03KT 6SM BR OVC003 09/08 A3021 110 93 -500 VRB/03 RMK AO2 T00890078
03949KAQV AQV20191207204011312/07/19 20:40:31  5-MIN KAQV 080240Z AUTO 00000KT 6SM BR OVC003 09/08 A3021 110 89 -400 000/00 RMK AO2 T00940078
03949KAQV AQV20191207204511312/07/19 20:45:31  5-MIN KAQV 080245Z AUTO VRB04KT 6SM BR OVC003 09/08 A3021 110 89 -400 VRB/04 RMK AO2 T00940078
03949KAQV AQV20191207205011312/07/19 20:50:31  5-MIN KAQV 080250Z AUTO VRB04KT 5SM BR OVC003 09/08 A3020 110 93 -500 VRB/04 RMK AO2 T00890078
03949KAQV AQV20191207205512612/07/19 20:55:31  5-MIN KAQV 080255Z AUTO 00000KT 5SM BR OVC003 09/08 A3020 110 93 -500 000/00 RMK AO2 SLP228 T00890078 56008
03949KAQV AQV20191207210011312/07/19 21:00:31  5-MIN KAQV 080300Z AUTO 00000KT 5SM BR OVC003 09/08 A3021 110 93 -500 000/00 RMK AO2 T00890078
03949KAQV AQV20191207210511312/07/19 21:05:31  5-MIN KAQV 080305Z AUTO 00000KT 6SM BR OVC002 09/08 A3021 110 93 -500 000/00 RMK AO2 T00890078
03949KAQV AQV20191207211011312/07/19 21:10:31  5-MIN KAQV 080310Z AUTO VRB04KT 6SM BR OVC002 09/08 A3021 110 93 -500 VRB/04 RMK AO2 T00890078
03949KAQV AQV20191207211511312/07/19 21:15:31  5-MIN KAQV 080315Z AUTO 00000KT 5SM BR OVC002 09/08 A3021 110 93 -500 000/00 RMK AO2 T00890078
03949KAQV AQV20191207212011312/07/19 21:20:31  5-MIN KAQV 080320Z AUTO 00000KT 5SM BR OVC002 09/08 A3021 110 93 -500 000/00 RMK AO2 T00890078
03949KAQV AQV20191207212511312/07/19 21:25:31  5-MIN KAQV 080325Z AUTO VRB04KT 4SM BR OVC002 09/08 A3021 110 93 -500 VRB/04 RMK AO2 T00890078
03949KAQV AQV20191207213011312/07/19 21:30:31  5-MIN KAQV 080330Z AUTO 00000KT 3SM BR OVC002 09/08 A3021 110 93 -500 000/00 RMK AO2 T00890078
03949KAQV AQV20191207213511312/07/19 21:35:31  5-MIN KAQV 080335Z AUTO VRB03KT 4SM BR OVC002 09/08 A3020 120 93 -500 VRB/03 RMK AO2 T00890078
03949KAQV AQV20191207214011312/07/19 21:40:31  5-MIN KAQV 080340Z AUTO VRB03KT 4SM BR OVC002 09/08 A3020 110 93 -500 VRB/03 RMK AO2 T00890078
03949KAQV AQV20191207214511312/07/19 21:45:31  5-MIN KAQV 080345Z AUTO 00000KT 4SM BR OVC002 09/08 A3020 120 93 -500 000/00 RMK AO2 T00890078
03949KAQV AQV20191207215011312/07/19 21:50:31  5-MIN KAQV 080350Z AUTO VRB03KT 5SM BR OVC002 09/08 A3020 120 93 -500 VRB/03 RMK AO2 T00890078
03949KAQV AQV20191207215512012/07/19 21:55:31  5-MIN KAQV 080355Z AUTO 07004KT 4SM BR OVC002 09/08 A3020 120 93 -500 070/04 RMK AO2 SLP228 T00890078
03949KAQV AQV20191207220011312/07/19 22:00:31  5-MIN KAQV 080400Z AUTO VRB03KT 4SM BR OVC002 09/08 A3020 110 93 -500 VRB/03 RMK AO2 T00890078
03949KAQV AQV20191207220511312/07/19 22:05:31  5-MIN KAQV 080405Z AUTO VRB03KT 4SM BR OVC002 09/08 A3021 110 93 -500 VRB/03 RMK AO2 T00890078
03949KAQV AQV20191207221011312/07/19 22:10:31  5-MIN KAQV 080410Z AUTO VRB03KT 4SM BR OVC002 09/08 A3020 110 93 -500 VRB/03 RMK AO2 T00890078
03949KAQV AQV20191207221511312/07/19 22:15:31  5-MIN KAQV 080415Z AUTO 00000KT 5SM BR OVC002 09/08 A3020 120 93 -500 000/00 RMK AO2 T00890078
03949KAQV AQV20191207222011312/07/19 22:20:31  5-MIN KAQV 080420Z AUTO 00000KT 5SM BR OVC002 09/08 A3020 110 93 -500 000/00 RMK AO2 T00890078
03949KAQV AQV20191207222511312/07/19 22:25:31  5-MIN KAQV 080425Z AUTO 00000KT 5SM BR OVC002 09/08 A3021 110 93 -500 000/00 RMK AO2 T00890078
03949KAQV AQV20191207223011312/07/19 22:30:31  5-MIN KAQV 080430Z AUTO VRB03KT 4SM BR OVC002 09/08 A3021 110 93 -500 VRB/03 RMK AO2 T00890078
03949KAQV AQV20191207223511312/07/19 22:35:31  5-MIN KAQV 080435Z AUTO 00000KT 4SM BR OVC002 09/08 A3021 110 93 -500 000/00 RMK AO2 T00890078
03949KAQV AQV20191207224011312/07/19 22:40:31  5-MIN KAQV 080440Z AUTO 00000KT 4SM BR OVC002 09/08 A3021 110 93 -500 000/00 RMK AO2 T00890078
03949KAQV AQV20191207224511312/07/19 22:45:31  5-MIN KAQV 080445Z AUTO 00000KT 4SM BR OVC002 09/08 A3020 120 93 -500 000/00 RMK AO2 T00890078
03949KAQV AQV20191207225011312/07/19 22:50:31  5-MIN KAQV 080450Z AUTO VRB03KT 6SM BR OVC002 09/08 A3020 120 93 -500 VRB/03 RMK AO2 T00890078
03949KAQV AQV20191207225512012/07/19 22:55:31  5-MIN KAQV 080455Z AUTO VRB03KT 6SM BR OVC002 09/08 A3020 120 93 -500 VRB/03 RMK AO2 SLP228 T00890078
03949KAQV AQV20191207230011312/07/19 23:00:31  5-MIN KAQV 080500Z AUTO 00000KT 6SM BR OVC003 09/08 A3021 110 93 -500 000/00 RMK AO2 T00890078
03949KAQV AQV20191207230510312/07/19 23:05:31  5-MIN KAQV 080505Z AUTO 6SM BR OVC003 09/08 A3021 110 93 -500 M /M RMK AO2 T00890078
03949KAQV AQV20191207231011312/07/19 23:10:31  5-MIN KAQV 080510Z AUTO 00000KT 6SM BR OVC003 09/08 A3020 120 93 -500 000/00 RMK AO2 T00890078
03949KAQV AQV20191207231511312/07/19 23:15:31  5-MIN KAQV 080515Z AUTO 00000KT 6SM BR OVC003 09/08 A3020 120 93 -500 000/00 RMK AO2 T00890078
03949KAQV AQV20191207232011312/07/19 23:20:31  5-MIN KAQV 080520Z AUTO VRB03KT 6SM BR OVC003 09/08 A3020 120 93 -500 VRB/03 RMK AO2 T00890078
03949KAQV AQV20191207232511312/07/19 23:25:31  5-MIN KAQV 080525Z AUTO 00000KT 6SM BR OVC003 09/08 A3020 120 93 -500 000/00 RMK AO2 T00890078
03949KAQV AQV20191207233011312/07/19 23:30:31  5-MIN KAQV 080530Z AUTO 00000KT 6SM BR OVC003 09/08 A3020 120 93 -500 000/00 RMK AO2 T00890078
03949KAQV AQV20191207233511312/07/19 23:35:31  5-MIN KAQV 080535Z AUTO 00000KT 6SM BR OVC003 09/08 A3019 120 93 -500 000/00 RMK AO2 T00890078
03949KAQV AQV20191207234011312/07/19 23:40:31  5-MIN KAQV 080540Z AUTO 00000KT 6SM BR OVC003 09/08 A3020 120 93 -500 000/00 RMK AO2 T00890078
03949KAQV AQV20191207234511312/07/19 23:45:31  5-MIN KAQV 080545Z AUTO 00000KT 5SM BR OVC003 09/08 A3020 120 93 -500 000/00 RMK AO2 T00890078
03949KAQV AQV20191207235011312/07/19 23:50:31  5-MIN KAQV 080550Z AUTO VRB03KT 5SM BR OVC003 09/08 A3020 120 93 -500 VRB/03 RMK AO2 T00890078
03949KAQV AQV20191207235514812/07/19 23:55:31  5-MIN KAQV 080555Z AUTO VRB03KT 5SM BR OVC003 09/08 A3020 120 93 -500 VRB/03 RMK AO2 SLP225 T00890078 10111 20089 401780089 51004
03949KAQV AQV20191208000011312/08/19 00:00:31  5-MIN KAQV 080600Z AUTO 00000KT 5SM BR OVC003 09/08 A3019 120 93 -500 000/00 RMK AO2 T00890078
03949KAQV AQV20191208000511312/08/19 00:05:31  5-MIN KAQV 080605Z AUTO 00000KT 5SM BR OVC003 09/08 A3019 130 93 -500 000/00 RMK AO2 T00890078
03949KAQV AQV20191208001011312/08/19 00:10:31  5-MIN KAQV 080610Z AUTO VRB03KT 5SM BR OVC003 09/08 A3019 130 93 -500 VRB/03 RMK AO2 T00890078
03949KAQV AQV20191208001511312/08/19 00:15:31  5-MIN KAQV 080615Z AUTO VRB03KT 6SM BR OVC003 09/08 A3019 130 93 -500 VRB/03 RMK AO2 T00890078
03949KAQV AQV20191208002011312/08/19 00:20:31  5-MIN KAQV 080620Z AUTO 00000KT 6SM BR OVC003 09/08 A3018 130 93 -500 000/00 RMK AO2 T00890078
03949KAQV AQV20191208002511312/08/19 00:25:31  5-MIN KAQV 080625Z AUTO 00000KT 6SM BR OVC003 09/08 A3018 140 93 -500 000/00 RMK AO2 T00890078
03949KAQV AQV20191208003011312/08/19 00:30:31  5-MIN KAQV 080630Z AUTO VRB03KT 5SM BR OVC003 09/08 A3018 140 93 -500 VRB/03 RMK AO2 T00890078
03949KAQV AQV20191208003511312/08/19 00:35:31  5-MIN KAQV 080635Z AUTO 00000KT 5SM BR OVC003 09/08 A3018 140 93 -500 000/00 RMK AO2 T00890078
03949KAQV AQV20191208004011312/08/19 00:40:31  5-MIN KAQV 080640Z AUTO 00000KT 5SM BR OVC003 09/08 A3017 140 93 -500 000/00 RMK AO2 T00890078
03949KAQV AQV20191208004511312/08/19 00:45:31  5-MIN KAQV 080645Z AUTO VRB03KT 5SM BR OVC003 09/08 A3017 140 93 -500 VRB/03 RMK AO2 T00890078
03949KAQV AQV20191208005011312/08/19 00:50:31  5-MIN KAQV 080650Z AUTO 00000KT 5SM BR OVC003 09/08 A3017 140 93 -500 000/00 RMK AO2 T00890078
03949KAQV AQV20191208005512012/08/19 00:55:31  5-MIN KAQV 080655Z AUTO 00000KT 4SM BR OVC003 09/08 A3017 140 93 -500 000/00 RMK AO2 SLP218 T00890078
03949KAQV AQV20191208010011312/08/19 01:00:31  5-MIN KAQV 080700Z AUTO 00000KT 4SM BR OVC003 09/08 A3017 150 93 -500 000/00 RMK AO2 T00890078
03949KAQV AQV20191208010511312/08/19 01:05:31  5-MIN KAQV 080705Z AUTO 00000KT 4SM BR OVC003 09/08 A3017 150 93 -500 000/00 RMK AO2 T00890078
03949KAQV AQV20191208011011312/08/19 01:10:31  5-MIN KAQV 080710Z AUTO 00000KT 4SM BR OVC003 09/08 A3017 150 93 -500 000/00 RMK AO2 T00890078
03949KAQV AQV20191208011511312/08/19 01:15:31  5-MIN KAQV 080715Z AUTO VRB03KT 4SM BR OVC003 09/08 A3017 150 93 -500 VRB/03 RMK AO2 T00890078
03949KAQV AQV20191208012011312/08/19 01:20:31  5-MIN KAQV 080720Z AUTO 00000KT 4SM BR OVC003 09/08 A3016 150 93 -500 000/00 RMK AO2 T00890078
03949KAQV AQV20191208012511312/08/19 01:25:31  5-MIN KAQV 080725Z AUTO 00000KT 4SM BR OVC003 09/08 A3017 150 93 -400 000/00 RMK AO2 T00940083
03949KAQV AQV20191208013011312/08/19 01:30:31  5-MIN KAQV 080730Z AUTO 00000KT 4SM BR OVC003 09/08 A3017 150 93 -400 000/00 RMK AO2 T00940083
03949KAQV AQV20191208013511312/08/19 01:35:31  5-MIN KAQV 080735Z AUTO 12003KT 5SM BR OVC003 09/08 A3016 150 93 -400 120/03 RMK AO2 T00940083
03949KAQV AQV20191208014011312/08/19 01:40:31  5-MIN KAQV 080740Z AUTO 00000KT 5SM BR OVC003 09/08 A3017 150 93 -400 000/00 RMK AO2 T00940083
03949KAQV AQV20191208014511312/08/19 01:45:31  5-MIN KAQV 080745Z AUTO 00000KT 5SM BR OVC003 09/08 A3016 150 93 -400 000/00 RMK AO2 T00940083
03949KAQV AQV20191208015011312/08/19 01:50:31  5-MIN KAQV 080750Z AUTO 00000KT 5SM BR OVC003 09/08 A3016 160 93 -400 000/00 RMK AO2 T00940083
03949KAQV AQV20191208015512012/08/19 01:55:31  5-MIN KAQV 080755Z AUTO 00000KT 4SM BR OVC003 09/08 A3016 160 93 -400 000/00 RMK AO2 SLP212 T00940083
03949KAQV AQV20191208020011312/08/19 02:00:31  5-MIN KAQV 080800Z AUTO 00000KT 4SM BR OVC003 09/08 A3016 160 93 -400 000/00 RMK AO2 T00940083
03949KAQV AQV20191208020511312/08/19 02:05:31  5-MIN KAQV 080805Z AUTO 00000KT 4SM BR OVC003 09/08 A3016 160 93 -400 000/00 RMK AO2 T00940083
03949KAQV AQV20191208021011312/08/19 02:10:31  5-MIN KAQV 080810Z AUTO 00000KT 5SM BR OVC003 09/08 A3015 160 93 -400 000/00 RMK AO2 T00940083
03949KAQV AQV20191208021512512/08/19 02:15:31  5-MIN KAQV 080815Z AUTO 00000KT 6SM BR OVC005 09/08 A3015 160 93 -400 000/00 RMK AO2 CIG 003V008 T00940083
03949KAQV AQV20191208022012512/08/19 02:20:31  5-MIN KAQV 080820Z AUTO 00000KT 6SM BR OVC005 09/08 A3015 160 93 -400 000/00 RMK AO2 CIG 003V008 T00940083
03949KAQV AQV20191208022512512/08/19 02:25:31  5-MIN KAQV 080825Z AUTO 00000KT 6SM BR OVC005 09/08 A3015 160 93 -400 000/00 RMK AO2 CIG 003V008 T00940083
03949KAQV AQV20191208023012212/08/19 02:30:31  5-MIN KAQV 080830Z AUTO 00000KT 7SM OVC005 09/08 A3015 170 93 -400 000/00 RMK AO2 CIG 003V008 T00940083
03949KAQV AQV20191208023512212/08/19 02:35:31  5-MIN KAQV 080835Z AUTO 00000KT 7SM OVC005 09/08 A3015 160 93 -400 000/00 RMK AO2 CIG 003V008 T00940083
03949KAQV AQV20191208024011012/08/19 02:40:31  5-MIN KAQV 080840Z AUTO 00000KT 7SM OVC005 09/08 A3015 160 93 -400 000/00 RMK AO2 T00940083
03949KAQV AQV20191208024511012/08/19 02:45:31  5-MIN KAQV 080845Z AUTO 00000KT 7SM OVC005 09/08 A3015 170 93 -400 000/00 RMK AO2 T00940083
03949KAQV AQV20191208025011012/08/19 02:50:31  5-MIN KAQV 080850Z AUTO 00000KT 7SM OVC006 09/08 A3015 170 93 -400 000/00 RMK AO2 T00890078
03949KAQV AQV20191208025512312/08/19 02:55:31  5-MIN KAQV 080855Z AUTO 00000KT 7SM OVC006 09/08 A3014 170 93 -400 000/00 RMK AO2 SLP208 T00890078 58003
03949KAQV AQV20191208030011012/08/19 03:00:31  5-MIN KAQV 080900Z AUTO 00000KT 7SM OVC005 09/08 A3014 170 93 -400 000/00 RMK AO2 T00890078
03949KAQV AQV20191208030511012/08/19 03:05:31  5-MIN KAQV 080905Z AUTO 00000KT 7SM OVC005 09/08 A3014 170 93 -400 000/00 RMK AO2 T00890078
03949KAQV AQV20191208031011312/08/19 03:10:31  5-MIN KAQV 080910Z AUTO 00000KT 6SM BR OVC005 09/08 A3014 170 93 -400 000/00 RMK AO2 T00890078
03949KAQV AQV20191208031511312/08/19 03:15:31  5-MIN KAQV 080915Z AUTO 00000KT 6SM BR OVC005 09/08 A3015 170 93 -400 000/00 RMK AO2 T00890078
03949KAQV AQV20191208032011312/08/19 03:20:31  5-MIN KAQV 080920Z AUTO 00000KT 6SM BR OVC004 09/08 A3015 170 93 -400 000/00 RMK AO2 T00890078
03949KAQV AQV20191208032511312/08/19 03:25:31  5-MIN KAQV 080925Z AUTO 00000KT 5SM BR OVC004 09/08 A3014 170 93 -400 000/00 RMK AO2 T00890078
03949KAQV AQV20191208033011312/08/19 03:30:31  5-MIN KAQV 080930Z AUTO 00000KT 5SM BR OVC004 09/08 A3014 170 93 -400 000/00 RMK AO2 T00890078
03949KAQV AQV20191208033511312/08/19 03:35:31  5-MIN KAQV 080935Z AUTO 00000KT 5SM BR OVC004 09/08 A3014 170 93 -400 000/00 RMK AO2 T00890078
03949KAQV AQV20191208034011312/08/19 03:40:31  5-MIN KAQV 080940Z AUTO 00000KT 5SM BR OVC003 09/08 A3014 180 93 -400 000/00 RMK AO2 T00890078
03949KAQV AQV20191208034511312/08/19 03:45:31  5-MIN KAQV 080945Z AUTO 00000KT 3SM BR OVC003 09/08 A3013 180 93 -400 000/00 RMK AO2 T00890078
03949KAQV AQV20191208035011712/08/19 03:50:31  5-MIN KAQV 080950Z AUTO 00000KT 1 1/4SM BR OVC003 09/08 A3013 190 93 -400 000/00 RMK AO2 T00890078
03949KAQV AQV20191208035510512/08/19 03:55:31  5-MIN KAQV 080955Z AUTO 00000KT 3/4SM BR OVC002 09/08 A3012 190 93 -400 000/00 RMK AO2
03949KAQV AQV20191208040011312/08/19 04:00:31  5-MIN KAQV 081000Z AUTO 00000KT 1SM BR OVC002 08/08 A3012 190 96 -500 000/00 RMK AO2 T00830078
03949KAQV AQV20191208040511412/08/19 04:05:31  5-MIN KAQV 081005Z AUTO 00000KT 3/4SM BR VV002 08/08 A3012 190 96 -500 000/00 RMK AO2 T00830078
03949KAQV AQV20191208041011412/08/19 04:10:31  5-MIN KAQV 081010Z AUTO 00000KT 1/2SM FG VV002 08/08 A3011 200 96 -500 000/00 RMK AO2 T00830078
03949KAQV AQV20191208041511412/08/19 04:15:31  5-MIN KAQV 081015Z AUTO 00000KT 1/4SM FG VV002 08/07 A3011 200 93 -500 000/00 RMK AO2 T00830072
03949KAQV AQV20191208042011412/08/19 04:20:31  5-MIN KAQV 081020Z AUTO 00000KT 1/4SM FG VV002 08/07 A3011 200 93 -500 000/00 RMK AO2 T00830072
03949KAQV AQV20191208042511412/08/19 04:25:31  5-MIN KAQV 081025Z AUTO 00000KT 1/4SM FG VV002 08/07 A3012 200 93 -500 000/00 RMK AO2 T00830072
03949KAQV AQV20191208043011412/08/19 04:30:31  5-MIN KAQV 081030Z AUTO 00000KT 1/4SM FG VV002 08/07 A3011 200 93 -500 000/00 RMK AO2 T00830072
03949KAQV AQV20191208043511412/08/19 04:35:31  5-MIN KAQV 081035Z AUTO 00000KT 1/4SM FG VV002 08/07 A3011 200 93 -500 000/00 RMK AO2 T00830072
03949KAQV AQV20191208044011412/08/19 04:40:31  5-MIN KAQV 081040Z AUTO 00000KT 1/4SM FG VV002 08/07 A3011 200 93 -500 000/00 RMK AO2 T00830072
03949KAQV AQV20191208044511412/08/19 04:45:31  5-MIN KAQV 081045Z AUTO 00000KT 1/4SM FG VV002 08/07 A3011 200 93 -500 000/00 RMK AO2 T00830072
03949KAQV AQV20191208045011412/08/19 04:50:31  5-MIN KAQV 081050Z AUTO 00000KT 1/4SM FG VV002 08/07 A3011 200 93 -500 000/00 RMK AO2 T00830072
03949KAQV AQV20191208045512112/08/19 04:55:31  5-MIN KAQV 081055Z AUTO 00000KT 1/4SM FG VV002 08/07 A3012 200 93 -500 000/00 RMK AO2 SLP199 T00830072
03949KAQV AQV20191208050011412/08/19 05:00:31  5-MIN KAQV 081100Z AUTO 00000KT 1/4SM FG VV002 08/07 A3012 190 93 -500 000/00 RMK AO2 T00830072
03949KAQV AQV20191208050511412/08/19 05:05:31  5-MIN KAQV 081105Z AUTO 00000KT 1/4SM FG VV002 08/07 A3013 190 96 -500 000/00 RMK AO2 T00780072
03949KAQV AQV20191208051011412/08/19 05:10:31  5-MIN KAQV 081110Z AUTO 00000KT 1/4SM FG VV002 08/07 A3012 190 93 -500 000/00 RMK AO2 T00830072
03949KAQV AQV20191208051511412/08/19 05:15:31  5-MIN KAQV 081115Z AUTO 00000KT 1/4SM FG VV002 08/07 A3012 190 93 -500 000/00 RMK AO2 T00830072
03949KAQV AQV20191208052011412/08/19 05:20:31  5-MIN KAQV 081120Z AUTO 00000KT 1/4SM FG VV002 08/07 A3012 190 93 -500 000/00 RMK AO2 T00830072
03949KAQV AQV20191208052511412/08/19 05:25:31  5-MIN KAQV 081125Z AUTO 00000KT 1/4SM FG VV002 08/07 A3013 190 93 -500 000/00 RMK AO2 T00830072
03949KAQV AQV20191208053011412/08/19 05:30:31  5-MIN KAQV 081130Z AUTO 00000KT 1/4SM FG VV002 08/07 A3012 190 93 -500 000/00 RMK AO2 T00830072
03949KAQV AQV20191208053511412/08/19 05:35:31  5-MIN KAQV 081135Z AUTO 00000KT 1/4SM FG VV002 08/07 A3012 190 93 -500 000/00 RMK AO2 T00830072
03949KAQV AQV20191208054011412/08/19 05:40:31  5-MIN KAQV 081140Z AUTO 00000KT 1/4SM FG VV002 08/07 A3012 190 93 -500 000/00 RMK AO2 T00830072
03949KAQV AQV20191208054511412/08/19 05:45:31  5-MIN KAQV 081145Z AUTO 00000KT 1/4SM FG VV002 08/07 A3012 190 93 -500 000/00 RMK AO2 T00830072
03949KAQV AQV20191208055011412/08/19 05:50:31  5-MIN KAQV 081150Z AUTO 08003KT 1/4SM FG VV002 08/07 A3012 190 93 -500 080/03 RMK AO2 T00830072
03949KAQV AQV20191208055513912/08/19 05:55:31  5-MIN KAQV 081155Z AUTO 00000KT 1/4SM FG VV002 08/07 A3012 190 96 -500 000/00 RMK AO2 SLP202 T00780072 10094 20078 56018
03949KAQV AQV20191208060011412/08/19 06:00:31  5-MIN KAQV 081200Z AUTO 00000KT 1/4SM FG VV002 08/07 A3012 190 96 -500 000/00 RMK AO2 T00780072
03949KAQV AQV20191208060511412/08/19 06:05:31  5-MIN KAQV 081205Z AUTO 00000KT 1/4SM FG VV002 08/07 A3012 190 96 -500 000/00 RMK AO2 T00780072
03949KAQV AQV20191208061011412/08/19 06:10:31  5-MIN KAQV 081210Z AUTO 00000KT 1/4SM FG VV002 08/07 A3012 190 93 -500 000/00 RMK AO2 T00780067
03949KAQV AQV20191208061511412/08/19 06:15:31  5-MIN KAQV 081215Z AUTO 00000KT 1/4SM FG VV002 08/07 A3012 190 93 -500 000/00 RMK AO2 T00780067
03949KAQV AQV20191208062011412/08/19 06:20:31  5-MIN KAQV 081220Z AUTO 00000KT 1/4SM FG VV002 08/07 A3012 200 96 -500 000/00 RMK AO2 T00780072
03949KAQV AQV20191208062511412/08/19 06:25:31  5-MIN KAQV 081225Z AUTO 00000KT 1/4SM FG VV002 08/07 A3012 190 96 -500 000/00 RMK AO2 T00780072
03949KAQV AQV20191208063011412/08/19 06:30:31  5-MIN KAQV 081230Z AUTO 00000KT 1/4SM FG VV002 08/07 A3012 190 93 -500 000/00 RMK AO2 T00780067
03949KAQV AQV20191208063511412/08/19 06:35:31  5-MIN KAQV 081235Z AUTO 00000KT 1/4SM FG VV002 08/07 A3012 190 93 -500 000/00 RMK AO2 T00780067
03949KAQV AQV20191208064011412/08/19 06:40:31  5-MIN KAQV 081240Z AUTO 00000KT 1/4SM FG VV002 08/07 A3012 190 93 -500 000/00 RMK AO2 T00780067
03949KAQV AQV20191208064511412/08/19 06:45:31  5-MIN KAQV 081245Z AUTO 00000KT 1/4SM FG VV002 08/07 A3012 190 93 -500 000/00 RMK AO2 T00780067
03949KAQV AQV20191208065011412/08/19 06:50:31  5-MIN KAQV 081250Z AUTO 00000KT 1/4SM FG VV002 08/07 A3012 190 93 -500 000/00 RMK AO2 T00780067
03949KAQV AQV20191208065512112/08/19 06:55:31  5-MIN KAQV 081255Z AUTO 00000KT 1/4SM FG VV002 07/07 A3012 200 96 -600 000/00 RMK AO2 SLP200 T00720067
03949KAQV AQV20191208070011412/08/19 07:00:31  5-MIN KAQV 081300Z AUTO 00000KT 1/4SM FG VV002 07/06 A3012 190 93 -600 000/00 RMK AO2 T00720061
03949KAQV AQV20191208070511412/08/19 07:05:31  5-MIN KAQV 081305Z AUTO 00000KT 1/4SM FG VV002 07/06 A3012 190 93 -600 000/00 RMK AO2 T00720061
03949KAQV AQV20191208071011512/08/19 07:10:31  5-MIN KAQV 081310Z AUTO 00000KT M1/4SM FG VV002 07/06 A3012 190 93 -600 000/00 RMK AO2 T00720061
03949KAQV AQV20191208071511412/08/19 07:15:31  5-MIN KAQV 081315Z AUTO 00000KT 1/4SM FG VV002 07/06 A3013 190 96 -700 000/00 RMK AO2 T00670061
03949KAQV AQV20191208072011412/08/19 07:20:31  5-MIN KAQV 081320Z AUTO 12003KT 1/4SM FG VV002 07/06 A3012 190 96 -700 110/03 RMK AO2 T00670061
03949KAQV AQV20191208072511412/08/19 07:25:31  5-MIN KAQV 081325Z AUTO 00000KT 1/4SM FG VV002 07/06 A3012 190 93 -700 000/00 RMK AO2 T00670056
03949KAQV AQV20191208073011412/08/19 07:30:31  5-MIN KAQV 081330Z AUTO 00000KT 1/4SM FG VV002 07/06 A3012 190 93 -700 000/00 RMK AO2 T00670056
03949KAQV AQV20191208073511412/08/19 07:35:31  5-MIN KAQV 081335Z AUTO VRB03KT 1/4SM FG VV002 07/06 A3012 190 93 -700 VRB/03 RMK AO2 T00670056
03949KAQV AQV20191208074011412/08/19 07:40:31  5-MIN KAQV 081340Z AUTO VRB03KT 1/4SM FG VV002 07/06 A3012 190 93 -700 VRB/03 RMK AO2 T00670056
03949KAQV AQV20191208074511412/08/19 07:45:31  5-MIN KAQV 081345Z AUTO 00000KT 1/4SM FG VV002 07/06 A3013 190 96 -700 000/00 RMK AO2 T00670061
03949KAQV AQV20191208075011412/08/19 07:50:31  5-MIN KAQV 081350Z AUTO 00000KT 1/4SM FG VV002 07/06 A3012 190 96 -700 000/00 RMK AO2 T00670061
03949KAQV AQV20191208075512112/08/19 07:55:31  5-MIN KAQV 081355Z AUTO 00000KT 1/4SM FG VV002 07/06 A3013 190 93 -700 000/00 RMK AO2 SLP203 T00670056
03949KAQV AQV20191208080011412/08/19 08:00:31  5-MIN KAQV 081400Z AUTO 00000KT 1/4SM FG VV002 07/06 A3013 180 96 -700 000/00 RMK AO2 T00670061
03949KAQV AQV20191208080511412/08/19 08:05:31  5-MIN KAQV 081405Z AUTO 00000KT 1/4SM FG VV002 07/06 A3013 180 96 -700 000/00 RMK AO2 T00670061
03949KAQV AQV20191208081011412/08/19 08:10:31  5-MIN KAQV 081410Z AUTO 00000KT 1/4SM FG VV002 07/06 A3013 180 96 -700 000/00 RMK AO2 T00670061
03949KAQV AQV20191208081511412/08/19 08:15:31  5-MIN KAQV 081415Z AUTO 14003KT 1/4SM FG VV002 07/07 A3013 180 96 -600 140/03 RMK AO2 T00720067
03949KAQV AQV20191208082011412/08/19 08:20:31  5-MIN KAQV 081420Z AUTO VRB03KT 1/4SM FG VV002 07/06 A3013 180 96 -700 VRB/03 RMK AO2 T00670061
03949KAQV AQV20191208082511412/08/19 08:25:31  5-MIN KAQV 081425Z AUTO 00000KT 1/4SM FG VV002 07/06 A3013 180 93 -600 000/00 RMK AO2 T00720061
03949KAQV AQV20191208083011412/08/19 08:30:31  5-MIN KAQV 081430Z AUTO 00000KT 1/4SM FG VV002 07/07 A3014 180 96 -600 000/00 RMK AO2 T00720067
03949KAQV AQV20191208083511412/08/19 08:35:31  5-MIN KAQV 081435Z AUTO 00000KT 1/4SM FG VV002 07/07 A3014 180 96 -600 000/00 RMK AO2 T00720067
03949KAQV AQV20191208084011412/08/19 08:40:31  5-MIN KAQV 081440Z AUTO 15003KT 1/4SM FG VV002 07/07 A3013 180 96 -600 150/03 RMK AO2 T00720067
03949KAQV AQV20191208084511412/08/19 08:45:31  5-MIN KAQV 081445Z AUTO 15003KT 1/4SM FG VV002 07/07 A3014 180 96 -600 150/03 RMK AO2 T00720067
03949KAQV AQV20191208085011412/08/19 08:50:31  5-MIN KAQV 081450Z AUTO 00000KT 1/4SM FG VV002 07/07 A3014 180 96 -600 000/00 RMK AO2 T00720067
03949KAQV AQV20191208085512712/08/19 08:55:31  5-MIN KAQV 081455Z AUTO 00000KT 1/4SM FG VV002 08/07 A3014 180 93 -600 000/00 RMK AO2 SLP206 T00780067 55006
03949KAQV AQV20191208090011412/08/19 09:00:31  5-MIN KAQV 081500Z AUTO 00000KT 1/4SM FG VV002 08/07 A3014 180 96 -600 000/00 RMK AO2 T00780072
03949KAQV AQV20191208090511412/08/19 09:05:31  5-MIN KAQV 081505Z AUTO 00000KT 1/4SM FG VV002 08/07 A3014 170 96 -600 000/00 RMK AO2 T00780072
03949KAQV AQV20191208091011412/08/19 09:10:31  5-MIN KAQV 081510Z AUTO 00000KT 1/4SM FG VV002 08/07 A3014 170 96 -600 000/00 RMK AO2 T00780072
03949KAQV AQV20191208091511412/08/19 09:15:31  5-MIN KAQV 081515Z AUTO 00000KT 1/2SM FG VV002 08/07 A3015 170 96 -600 000/00 RMK AO2 T00780072
03949KAQV AQV20191208092011512/08/19 09:20:31  5-MIN KAQV 081520Z AUTO 00000KT 1/2SM FG OVC002 08/07 A3015 170 93 -500 000/00 RMK AO2 T00830072
03949KAQV AQV20191208092511512/08/19 09:25:31  5-MIN KAQV 081525Z AUTO 00000KT 3/4SM BR OVC002 08/07 A3015 170 93 -500 000/00 RMK AO2 T00830072
03949KAQV AQV20191208093011312/08/19 09:30:31  5-MIN KAQV 081530Z AUTO 19003KT 1SM BR OVC002 08/08 A3015 170 96 -500 190/03 RMK AO2 T00830078
03949KAQV AQV20191208093511712/08/19 09:35:31  5-MIN KAQV 081535Z AUTO 19003KT 1 1/4SM BR OVC002 08/08 A3015 170 96 -500 180/03 RMK AO2 T00830078
03949KAQV AQV20191208094011712/08/19 09:40:31  5-MIN KAQV 081540Z AUTO 00000KT 1 3/4SM BR OVC002 09/08 A3014 170 93 -400 000/00 RMK AO2 T00890078
03949KAQV AQV20191208094512912/08/19 09:45:31  5-MIN KAQV 081545Z AUTO 00000KT 2 1/2SM BR OVC002 09/08 A3015 170 93 -400 000/00 RMK AO2 VIS 1 1/2V4 T00890078
03949KAQV AQV20191208095011312/08/19 09:50:31  5-MIN KAQV 081550Z AUTO VRB03KT 3SM BR OVC002 09/08 A3015 170 93 -400 VRB/03 RMK AO2 T00890078
03949KAQV AQV20191208095512012/08/19 09:55:31  5-MIN KAQV 081555Z AUTO 00000KT 4SM BR OVC002 09/08 A3014 170 93 -400 000/00 RMK AO2 SLP208 T00890078
03949KAQV AQV20191208100011312/08/19 10:00:31  5-MIN KAQV 081600Z AUTO 00000KT 5SM BR OVC002 09/08 A3014 170 93 -400 000/00 RMK AO2 T00890078
03949KAQV AQV20191208100511312/08/19 10:05:31  5-MIN KAQV 081605Z AUTO VRB03KT 6SM BR OVC002 09/08 A3015 170 93 -400 VRB/03 RMK AO2 T00890078
03949KAQV AQV20191208101011312/08/19 10:10:31  5-MIN KAQV 081610Z AUTO VRB03KT 6SM BR OVC003 09/08 A3016 160 93 -400 VRB/03 RMK AO2 T00890078
03949KAQV AQV20191208101511012/08/19 10:15:31  5-MIN KAQV 081615Z AUTO VRB03KT 7SM OVC003 09/08 A3015 160 93 -400 VRB/03 RMK AO2 T00940083
03949KAQV AQV20191208102011012/08/19 10:20:31  5-MIN KAQV 081620Z AUTO VRB04KT 7SM OVC003 09/08 A3014 170 93 -400 VRB/04 RMK AO2 T00940083
03949KAQV AQV20191208102511012/08/19 10:25:31  5-MIN KAQV 081625Z AUTO VRB04KT 8SM OVC003 09/08 A3014 180 93 -400 VRB/04 RMK AO2 T00940083
03949KAQV AQV20191208103011012/08/19 10:30:31  5-MIN KAQV 081630Z AUTO 15005KT 8SM OVC004 09/08 A3013 180 93 -400 140/05 RMK AO2 T00940083
03949KAQV AQV20191208103511012/08/19 10:35:31  5-MIN KAQV 081635Z AUTO VRB04KT 8SM OVC004 10/08 A3013 180 89 -300 VRB/04 RMK AO2 T01000083
03949KAQV AQV20191208104011712/08/19 10:40:31  5-MIN KAQV 081640Z AUTO VRB04KT 8SM OVC004 10/08 A3012 190 89 -300 VRB/04 RMK AO2 PRESFR T01000083
03949KAQV AQV20191208104511712/08/19 10:45:31  5-MIN KAQV 081645Z AUTO VRB05KT 9SM OVC005 10/08 A3011 200 89 -300 VRB/05 RMK AO2 PRESFR T01000083
03949KAQV AQV20191208105011012/08/19 10:50:31  5-MIN KAQV 081650Z AUTO 15006KT 9SM OVC005 10/08 A3011 200 89 -300 150/06 RMK AO2 T01000083
03949KAQV AQV20191208105513312/08/19 10:55:31  5-MIN KAQV 081655Z AUTO 16007KT 130V200 8SM OVC005 10/08 A3011 200 89 -300 160/07 130V200 RMK AO2 SLP198 T01000083
03949KAQV AQV20191208110011012/08/19 11:00:31  5-MIN KAQV 081700Z AUTO 15006KT 8SM OVC005 10/08 A3011 200 89 -300 150/06 RMK AO2 T01000083
03949KAQV AQV20191208110511012/08/19 11:05:31  5-MIN KAQV 081705Z AUTO VRB05KT 9SM OVC005 11/08 A3010 210 86 -200 VRB/05 RMK AO2 T01060083
03949KAQV AQV20191208111011012/08/19 11:10:31  5-MIN KAQV 081710Z AUTO VRB04KT 9SM OVC006 11/08 A3010 210 83 -100 VRB/04 RMK AO2 T01110083
03949KAQV AQV20191208111511012/08/19 11:15:31  5-MIN KAQV 081715Z AUTO VRB04KT 9SM OVC006 11/08 A3010 210 83 -100 VRB/04 RMK AO2 T01110083
03949KAQV AQV20191208112011012/08/19 11:20:31  5-MIN KAQV 081720Z AUTO 17005KT 9SM OVC006 11/09 A3010 210 86 -100 170/05 RMK AO2 T01110089
03949KAQV AQV20191208112511912/08/19 11:25:31  5-MIN KAQV 081725Z AUTO 17004KT 9SM OVC007 12/09 A3010 210 83 0 170/04 RMK AO2 CIG 006V011 T01170089
03949KAQV AQV20191208113011912/08/19 11:30:31  5-MIN KAQV 081730Z AUTO VRB03KT 9SM OVC007 12/09 A3009 220 83 0 VRB/03 RMK AO2 CIG 006V011 T01170089
03949KAQV AQV20191208113510712/08/19 11:35:31  5-MIN KAQV 081735Z AUTO VRB03KT 9SM OVC009 12/09 A3009 220 83 0 VRB/03 RMK AO2 T01170089
03949KAQV AQV20191208114010712/08/19 11:40:31  5-MIN KAQV 081740Z AUTO VRB03KT 9SM OVC009 13/09 A3009 220 77 0 VRB/03 RMK AO2 T01280089
03949KAQV AQV20191208114511912/08/19 11:45:31  5-MIN KAQV 081745Z AUTO VRB03KT 9SM OVC009 13/09 A3009 220 77 0 VRB/03 RMK AO2 CIG 008V011 T01280089
03949KAQV AQV20191208115011012/08/19 11:50:31  5-MIN KAQV 081750Z AUTO 00000KT 10SM OVC009 13/09 A3008 230 77 100 000/00 RMK AO2 T01330094
03949KAQV AQV20191208115509012/08/19 11:55:31  5-MIN KAQV 081755Z AUTO 10SM OVC010 13/09 A3008 230 77 100 M /M RMK AO2
03949KAQV AQV20191208120011012/08/19 12:00:31  5-MIN KAQV 081800Z AUTO VRB05KT 10SM OVC010 13/09 A3008 230 77 100 VRB/05 RMK AO2 T01330094
03949KAQV AQV20191208120511012/08/19 12:05:31  5-MIN KAQV 081805Z AUTO VRB03KT 10SM OVC010 14/10 A3008 230 77 200 VRB/03 RMK AO2 T01390100
03949KAQV AQV20191208121011012/08/19 12:10:31  5-MIN KAQV 081810Z AUTO VRB03KT 10SM OVC011 14/10 A3007 230 77 200 VRB/03 RMK AO2 T01390100
03949KAQV AQV20191208121511012/08/19 12:15:31  5-MIN KAQV 081815Z AUTO VRB05KT 10SM OVC011 14/10 A3007 240 74 300 VRB/05 RMK AO2 T01440100
03949KAQV AQV20191208122011012/08/19 12:20:31  5-MIN KAQV 081820Z AUTO VRB06KT 10SM OVC011 15/10 A3007 240 72 300 VRB/06 RMK AO2 T01500100
03949KAQV AQV20191208122511012/08/19 12:25:31  5-MIN KAQV 081825Z AUTO VRB05KT 10SM BKN012 15/10 A3007 240 72 300 VRB/05 RMK AO2 T01500100
03949KAQV AQV20191208123011012/08/19 12:30:31  5-MIN KAQV 081830Z AUTO VRB06KT 10SM BKN012 15/10 A3006 240 72 300 VRB/06 RMK AO2 T01500100
03949KAQV AQV20191208123510012/08/19 12:35:31  5-MIN KAQV 081835Z AUTO 10SM BKN014 15/10 A3006 250 72 300 M /M RMK AO2 T01500100
03949KAQV AQV20191208124011012/08/19 12:40:31  5-MIN KAQV 081840Z AUTO VRB04KT 10SM BKN014 15/10 A3005 250 72 400 VRB/04 RMK AO2 T01500100
03949KAQV AQV20191208124511012/08/19 12:45:31  5-MIN KAQV 081845Z AUTO VRB04KT 10SM SCT014 15/10 A3005 260 72 400 VRB/04 RMK AO2 T01500100
03949KAQV AQV20191208125011012/08/19 12:50:31  5-MIN KAQV 081850Z AUTO 00000KT 10SM FEW014 16/10 A3005 250 69 400 000/00 RMK AO2 T01560100
03949KAQV AQV20191208125511712/08/19 12:55:31  5-MIN KAQV 081855Z AUTO VRB03KT 10SM FEW014 16/10 A3005 260 69 400 VRB/03 RMK AO2 SLP175 T01560100
03949KAQV AQV20191208130011012/08/19 13:00:31  5-MIN KAQV 081900Z AUTO VRB04KT 10SM FEW014 16/10 A3004 270 69 400 VRB/04 RMK AO2 T01560100
03949KAQV AQV20191208130510712/08/19 13:05:31  5-MIN KAQV 081905Z AUTO VRB04KT 10SM CLR 16/10 A3004 270 67 500 VRB/04 RMK AO2 T01610100
03949KAQV AQV20191208131010712/08/19 13:10:31  5-MIN KAQV 081910Z AUTO VRB03KT 10SM CLR 16/09 A3003 270 64 500 VRB/03 RMK AO2 T01610094
03949KAQV AQV20191208131510712/08/19 13:15:31  5-MIN KAQV 081915Z AUTO 18005KT 10SM CLR 16/10 A3003 280 67 500 180/05 RMK AO2 T01610100
03949KAQV AQV20191208132010712/08/19 13:20:31  5-MIN KAQV 081920Z AUTO VRB05KT 10SM CLR 16/10 A3002 280 67 500 VRB/05 RMK AO2 T01610100
03949KAQV AQV20191208132510712/08/19 13:25:31  5-MIN KAQV 081925Z AUTO VRB03KT 10SM CLR 17/10 A3002 280 64 600 VRB/03 RMK AO2 T01670100
03949KAQV AQV20191208133010712/08/19 13:30:31  5-MIN KAQV 081930Z AUTO VRB04KT 10SM CLR 17/10 A3002 290 64 600 VRB/04 RMK AO2 T01670100
03949KAQV AQV20191208133510712/08/19 13:35:31  5-MIN KAQV 081935Z AUTO VRB04KT 10SM CLR 17/10 A3002 290 64 600 VRB/04 RMK AO2 T01670100
03949KAQV AQV20191208134010712/08/19 13:40:31  5-MIN KAQV 081940Z AUTO VRB05KT 10SM CLR 17/11 A3002 290 64 700 VRB/05 RMK AO2 T01720106
03949KAQV AQV20191208134510712/08/19 13:45:31  5-MIN KAQV 081945Z AUTO 19005KT 10SM CLR 17/11 A3001 290 64 700 190/05 RMK AO2 T01720106
03949KAQV AQV20191208135010712/08/19 13:50:31  5-MIN KAQV 081950Z AUTO VRB04KT 10SM CLR 17/11 A3000 300 64 700 VRB/04 RMK AO2 T01720106
03949KAQV AQV20191208135511412/08/19 13:55:31  5-MIN KAQV 081955Z AUTO VRB06KT 10SM CLR 17/11 A3000 300 64 700 VRB/06 RMK AO2 SLP159 T01720106
03949KAQV AQV20191208140010712/08/19 14:00:31  5-MIN KAQV 082000Z AUTO 19005KT 10SM CLR 17/11 A3000 300 64 700 180/05 RMK AO2 T01720106
03949KAQV AQV20191208140511012/08/19 14:05:31  5-MIN KAQV 082005Z AUTO VRB04KT 10SM FEW021 17/11 A3000 310 67 700 VRB/04 RMK AO2 T01720111
03949KAQV AQV20191208141012612/08/19 14:10:31  5-MIN KAQV 082010Z AUTO 20007KT 160V290 10SM FEW021 17/11 A2999 310 67 700 200/07 160V290 RMK AO2 T01720111
03949KAQV AQV20191208141511012/08/19 14:15:31  5-MIN KAQV 082015Z AUTO VRB03KT 10SM FEW020 17/11 A2998 320 67 700 VRB/03 RMK AO2 T01720111
03949KAQV AQV20191208142011012/08/19 14:20:31  5-MIN KAQV 082020Z AUTO VRB04KT 10SM FEW020 17/11 A2998 320 67 700 VRB/04 RMK AO2 T01720111
03949KAQV AQV20191208142510012/08/19 14:25:31  5-MIN KAQV 082025Z AUTO 10SM FEW020 17/12 A2999 310 69 700 M /M RMK AO2 T01720117
03949KAQV AQV20191208143011012/08/19 14:30:31  5-MIN KAQV 082030Z AUTO 19005KT 10SM FEW020 17/11 A2999 310 69 600 180/05 RMK AO2 T01670111
03949KAQV AQV20191208143511012/08/19 14:35:31  5-MIN KAQV 082035Z AUTO 17004KT 10SM SCT020 17/11 A2999 310 69 600 170/04 RMK AO2 T01670111
03949KAQV AQV20191208144011012/08/19 14:40:31  5-MIN KAQV 082040Z AUTO 19005KT 10SM FEW019 16/11 A2999 310 72 600 190/05 RMK AO2 T01610111
03949KAQV AQV20191208144511012/08/19 14:45:31  5-MIN KAQV 082045Z AUTO VRB04KT 10SM FEW019 17/11 A2999 310 69 600 VRB/04 RMK AO2 T01670111
03949KAQV AQV20191208145011012/08/19 14:50:31  5-MIN KAQV 082050Z AUTO VRB06KT 10SM SCT019 17/12 A2999 310 72 600 VRB/06 RMK AO2 T01670117
03949KAQV AQV20191208145512312/08/19 14:55:31  5-MIN KAQV 082055Z AUTO 19005KT 10SM SCT019 16/11 A2999 320 72 600 180/05 RMK AO2 SLP154 T01610111 58018
03949KAQV AQV20191208150011012/08/19 15:00:31  5-MIN KAQV 082100Z AUTO VRB05KT 10SM SCT019 17/12 A2999 310 72 600 VRB/05 RMK AO2 T01670117
03949KAQV AQV20191208150511012/08/19 15:05:31  5-MIN KAQV 082105Z AUTO VRB05KT 10SM SCT019 16/12 A2999 310 75 600 VRB/05 RMK AO2 T01610117
03949KAQV AQV20191208151011012/08/19 15:10:31  5-MIN KAQV 082110Z AUTO 18006KT 10SM SCT019 17/12 A2998 320 72 600 170/06 RMK AO2 T01670117
03949KAQV AQV20191208151511012/08/19 15:15:31  5-MIN KAQV 082115Z AUTO VRB04KT 10SM SCT019 16/12 A2998 320 75 600 VRB/04 RMK AO2 T01610117
03949KAQV AQV20191208152011012/08/19 15:20:31  5-MIN KAQV 082120Z AUTO 19004KT 10SM SCT019 16/12 A2998 320 75 600 190/04 RMK AO2 T01610117
03949KAQV AQV20191208152511012/08/19 15:25:31  5-MIN KAQV 082125Z AUTO VRB05KT 10SM SCT019 17/12 A2998 320 72 600 VRB/05 RMK AO2 T01670117
03949KAQV AQV20191208153011012/08/19 15:30:31  5-MIN KAQV 082130Z AUTO VRB05KT 10SM SCT019 17/12 A2997 330 72 600 VRB/05 RMK AO2 T01670117
03949KAQV AQV20191208153511012/08/19 15:35:31  5-MIN KAQV 082135Z AUTO VRB03KT 10SM FEW019 17/12 A2997 330 72 600 VRB/03 RMK AO2 T01670117
03949KAQV AQV20191208154010012/08/19 15:40:31  5-MIN KAQV 082140Z AUTO 10SM FEW019 17/12 A2997 330 72 600 M /M RMK AO2 T01670117
03949KAQV AQV20191208154511012/08/19 15:45:31  5-MIN KAQV 082145Z AUTO 16006KT 10SM FEW019 17/12 A2996 340 72 700 160/06 RMK AO2 T01670117
03949KAQV AQV20191208155011012/08/19 15:50:31  5-MIN KAQV 082150Z AUTO 19003KT 10SM FEW019 17/12 A2997 330 72 600 190/03 RMK AO2 T01670117
03949KAQV AQV20191208155511412/08/19 15:55:31  5-MIN KAQV 082155Z AUTO VRB03KT 10SM CLR 17/12 A2997 330 72 600 VRB/03 RMK AO2 SLP148 T01670117
03949KAQV AQV20191208160010712/08/19 16:00:31  5-MIN KAQV 082200Z AUTO VRB04KT 10SM CLR 17/12 A2996 340 72 700 VRB/04 RMK AO2 T01670117
03949KAQV AQV20191208160510712/08/19 16:05:31  5-MIN KAQV 082205Z AUTO VRB03KT 10SM CLR 17/12 A2996 340 72 700 VRB/03 RMK AO2 T01670117
03949KAQV AQV20191208161010712/08/19 16:10:31  5-MIN KAQV 082210Z AUTO 00000KT 10SM CLR 17/12 A2997 330 72 600 000/00 RMK AO2 T01670117
03949KAQV AQV20191208161510712/08/19 16:15:31  5-MIN KAQV 082215Z AUTO 16003KT 10SM CLR 17/12 A2996 340 72 700 160/03 RMK AO2 T01670117
03949KAQV AQV20191208162010712/08/19 16:20:31  5-MIN KAQV 082220Z AUTO 00000KT 10SM CLR 16/12 A2997 330 75 600 000/00 RMK AO2 T01610117
03949KAQV AQV20191208162510712/08/19 16:25:31  5-MIN KAQV 082225Z AUTO 18003KT 10SM CLR 16/12 A2997 330 75 600 180/03 RMK AO2 T01610117
03949KAQV AQV20191208163010712/08/19 16:30:31  5-MIN KAQV 082230Z AUTO VRB03KT 10SM CLR 16/12 A2997 330 75 600 VRB/03 RMK AO2 T01610117
03949KAQV AQV20191208163510712/08/19 16:35:31  5-MIN KAQV 082235Z AUTO 00000KT 10SM CLR 16/12 A2997 330 77 600 000/00 RMK AO2 T01610122
03949KAQV AQV20191208164010712/08/19 16:40:31  5-MIN KAQV 082240Z AUTO 00000KT 10SM CLR 16/12 A2996 340 77 600 000/00 RMK AO2 T01610122
03949KAQV AQV20191208164510712/08/19 16:45:31  5-MIN KAQV 082245Z AUTO 00000KT 10SM CLR 16/12 A2996 340 80 500 000/00 RMK AO2 T01560122
03949KAQV AQV20191208165010712/08/19 16:50:31  5-MIN KAQV 082250Z AUTO 15003KT 10SM CLR 16/12 A2996 340 80 500 150/03 RMK AO2 T01560122
03949KAQV AQV20191208165511412/08/19 16:55:31  5-MIN KAQV 082255Z AUTO VRB03KT 10SM CLR 15/12 A2995 350 83 500 VRB/03 RMK AO2 SLP143 T01500122
03949KAQV AQV20191208170010712/08/19 17:00:31  5-MIN KAQV 082300Z AUTO 00000KT 10SM CLR 15/12 A2995 350 83 500 000/00 RMK AO2 T01500122
03949KAQV AQV20191208170510712/08/19 17:05:31  5-MIN KAQV 082305Z AUTO 00000KT 10SM CLR 15/12 A2995 350 80 500 000/00 RMK AO2 T01500117
03949KAQV AQV20191208171010712/08/19 17:10:31  5-MIN KAQV 082310Z AUTO 00000KT 10SM CLR 14/12 A2995 350 83 400 000/00 RMK AO2 T01440117
03949KAQV AQV20191208171510712/08/19 17:15:31  5-MIN KAQV 082315Z AUTO 00000KT 10SM CLR 14/12 A2994 350 83 400 000/00 RMK AO2 T01440117
03949KAQV AQV20191208172010712/08/19 17:20:31  5-MIN KAQV 082320Z AUTO 00000KT 10SM CLR 14/12 A2994 350 83 400 000/00 RMK AO2 T01440117
03949KAQV AQV20191208172510712/08/19 17:25:31  5-MIN KAQV 082325Z AUTO 00000KT 10SM CLR 14/12 A2995 350 86 400 000/00 RMK AO2 T01440122
03949KAQV AQV20191208173010712/08/19 17:30:31  5-MIN KAQV 082330Z AUTO 00000KT 10SM CLR 14/12 A2995 350 86 400 000/00 RMK AO2 T01440122
03949KAQV AQV20191208173510712/08/19 17:35:31  5-MIN KAQV 082335Z AUTO 00000KT 10SM CLR 14/12 A2995 350 86 400 000/00 RMK AO2 T01440122
03949KAQV AQV20191208174010712/08/19 17:40:31  5-MIN KAQV 082340Z AUTO 00000KT 10SM CLR 14/12 A2995 350 86 300 000/00 RMK AO2 T01390117
03949KAQV AQV20191208174510712/08/19 17:45:31  5-MIN KAQV 082345Z AUTO 00000KT 10SM CLR 14/12 A2995 350 86 300 000/00 RMK AO2 T01390117
03949KAQV AQV20191208175010712/08/19 17:50:31  5-MIN KAQV 082350Z AUTO 16003KT 10SM CLR 14/12 A2995 350 86 300 150/03 RMK AO2 T01390117
03949KAQV AQV20191208175513212/08/19 17:55:31  5-MIN KAQV 082355Z AUTO 16003KT 10SM CLR 14/12 A2995 350 86 300 160/03 RMK AO2 SLP140 T01390117 10178 20133 56032
03949KAQV AQV20191208180010712/08/19 18:00:31  5-MIN KAQV 090000Z AUTO 15003KT 10SM CLR 14/12 A2994 360 86 300 150/03 RMK AO2 T01390117
03949KAQV AQV20191208180510712/08/19 18:05:31  5-MIN KAQV 090005Z AUTO 16003KT 10SM CLR 14/12 A2994 360 86 400 160/03 RMK AO2 T01390117
03949KAQV AQV20191208181010712/08/19 18:10:31  5-MIN KAQV 090010Z AUTO 16003KT 10SM CLR 14/12 A2994 360 86 400 160/03 RMK AO2 T01440122
03949KAQV AQV20191208181510712/08/19 18:15:31  5-MIN KAQV 090015Z AUTO VRB03KT 10SM CLR 14/12 A2994 360 86 400 VRB/03 RMK AO2 T01440122
03949KAQV AQV20191208182010712/08/19 18:20:31  5-MIN KAQV 090020Z AUTO VRB03KT 10SM CLR 14/12 A2995 350 86 400 VRB/03 RMK AO2 T01440122
03949KAQV AQV20191208182510712/08/19 18:25:31  5-MIN KAQV 090025Z AUTO 16003KT 10SM CLR 14/12 A2994 360 86 400 150/03 RMK AO2 T01440122
03949KAQV AQV20191208183010712/08/19 18:30:31  5-MIN KAQV 090030Z AUTO 16003KT 10SM CLR 14/12 A2994 360 86 400 160/03 RMK AO2 T01440122
03949KAQV AQV20191208183510712/08/19 18:35:31  5-MIN KAQV 090035Z AUTO 16003KT 10SM CLR 14/12 A2994 360 86 400 150/03 RMK AO2 T01440122
03949KAQV AQV20191208184010712/08/19 18:40:31  5-MIN KAQV 090040Z AUTO 16003KT 10SM CLR 14/12 A2994 360 86 400 160/03 RMK AO2 T01440122
03949KAQV AQV20191208184510712/08/19 18:45:31  5-MIN KAQV 090045Z AUTO 17003KT 10SM CLR 14/12 A2994 360 86 400 160/03 RMK AO2 T01440122
03949KAQV AQV20191208185010712/08/19 18:50:31  5-MIN KAQV 090050Z AUTO 16003KT 10SM CLR 14/12 A2994 360 86 400 160/03 RMK AO2 T01440122
03949KAQV AQV20191208185511412/08/19 18:55:31  5-MIN KAQV 090055Z AUTO 16004KT 10SM CLR 14/12 A2993 360 86 400 160/04 RMK AO2 SLP137 T01440122
03949KAQV AQV20191208190010712/08/19 19:00:31  5-MIN KAQV 090100Z AUTO VRB05KT 10SM CLR 14/12 A2993 360 86 400 VRB/05 RMK AO2 T01440122
03949KAQV AQV20191208190510712/08/19 19:05:31  5-MIN KAQV 090105Z AUTO 16004KT 10SM CLR 14/12 A2994 360 86 400 160/04 RMK AO2 T01440122
03949KAQV AQV20191208191010712/08/19 19:10:31  5-MIN KAQV 090110Z AUTO VRB03KT 10SM CLR 14/12 A2993 360 86 400 VRB/03 RMK AO2 T01440122
03949KAQV AQV20191208191510712/08/19 19:15:31  5-MIN KAQV 090115Z AUTO 17005KT 10SM CLR 14/12 A2993 360 86 400 160/05 RMK AO2 T01440122
03949KAQV AQV20191208192010712/08/19 19:20:31  5-MIN KAQV 090120Z AUTO VRB04KT 10SM CLR 14/12 A2993 370 86 400 VRB/04 RMK AO2 T01440122
03949KAQV AQV20191208192510712/08/19 19:25:31  5-MIN KAQV 090125Z AUTO 18004KT 10SM CLR 14/12 A2993 370 86 400 170/04 RMK AO2 T01440122
03949KAQV AQV20191208193010712/08/19 19:30:31  5-MIN KAQV 090130Z AUTO VRB05KT 10SM CLR 14/12 A2993 370 86 400 VRB/05 RMK AO2 T01440122
03949KAQV AQV20191208193510712/08/19 19:35:31  5-MIN KAQV 090135Z AUTO VRB04KT 10SM CLR 14/12 A2993 370 86 400 VRB/04 RMK AO2 T01440122
03949KAQV AQV20191208194010712/08/19 19:40:31  5-MIN KAQV 090140Z AUTO VRB03KT 10SM CLR 14/12 A2993 370 86 400 VRB/03 RMK AO2 T01440122
03949KAQV AQV20191208194510712/08/19 19:45:31  5-MIN KAQV 090145Z AUTO 18004KT 10SM CLR 14/12 A2993 360 90 400 170/04 RMK AO2 T01390122
03949KAQV AQV20191208195010712/08/19 19:50:31  5-MIN KAQV 090150Z AUTO 16004KT 10SM CLR 14/12 A2993 370 90 400 160/04 RMK AO2 T01390122
03949KAQV AQV20191208195511412/08/19 19:55:31  5-MIN KAQV 090155Z AUTO 15003KT 10SM CLR 14/12 A2993 370 86 400 150/03 RMK AO2 SLP136 T01440122
03949KAQV AQV20191208200010712/08/19 20:00:31  5-MIN KAQV 090200Z AUTO 16003KT 10SM CLR 14/12 A2993 370 90 400 160/03 RMK AO2 T01390122
03949KAQV AQV20191208200510712/08/19 20:05:31  5-MIN KAQV 090205Z AUTO 17003KT 10SM CLR 14/12 A2993 370 90 400 160/03 RMK AO2 T01390122
03949KAQV AQV20191208201010712/08/19 20:10:31  5-MIN KAQV 090210Z AUTO 18003KT 10SM CLR 14/12 A2993 360 86 400 180/03 RMK AO2 T01440122
03949KAQV AQV20191208201510712/08/19 20:15:31  5-MIN KAQV 090215Z AUTO 16004KT 10SM CLR 14/12 A2993 370 90 400 160/04 RMK AO2 T01390122
03949KAQV AQV20191208202010712/08/19 20:20:31  5-MIN KAQV 090220Z AUTO 18003KT 10SM CLR 14/12 A2993 370 90 400 180/03 RMK AO2 T01390122
03949KAQV AQV20191208202510712/08/19 20:25:31  5-MIN KAQV 090225Z AUTO 17003KT 10SM CLR 14/12 A2993 370 90 400 170/03 RMK AO2 T01390122
03949KAQV AQV20191208203010712/08/19 20:30:31  5-MIN KAQV 090230Z AUTO 17003KT 10SM CLR 14/12 A2993 370 90 400 170/03 RMK AO2 T01390122
03949KAQV AQV20191208203510712/08/19 20:35:31  5-MIN KAQV 090235Z AUTO 18003KT 10SM CLR 14/12 A2993 370 90 400 170/03 RMK AO2 T01390122
03949KAQV AQV20191208204010712/08/19 20:40:31  5-MIN KAQV 090240Z AUTO 17004KT 10SM CLR 14/12 A2993 370 86 400 170/04 RMK AO2 T01440122
03949KAQV AQV20191208204510712/08/19 20:45:31  5-MIN KAQV 090245Z AUTO 17004KT 10SM CLR 14/12 A2992 370 90 400 160/04 RMK AO2 T01390122
03949KAQV AQV20191208205010712/08/19 20:50:31  5-MIN KAQV 090250Z AUTO 17004KT 10SM CLR 14/12 A2992 380 86 400 170/04 RMK AO2 T01440122
03949KAQV AQV20191208205512012/08/19 20:55:31  5-MIN KAQV 090255Z AUTO VRB04KT 10SM CLR 14/13 A2991 380 90 400 VRB/04 RMK AO2 SLP129 T01440128 56013
03949KAQV AQV20191208210010712/08/19 21:00:31  5-MIN KAQV 090300Z AUTO 17006KT 10SM CLR 14/13 A2991 390 90 500 170/06 RMK AO2 T01440128
03949KAQV AQV20191208210510712/08/19 21:05:31  5-MIN KAQV 090305Z AUTO 17004KT 10SM CLR 14/13 A2991 390 90 500 170/04 RMK AO2 T01440128
03949KAQV AQV20191208211010712/08/19 21:10:31  5-MIN KAQV 090310Z AUTO 18005KT 10SM CLR 14/13 A2991 390 90 500 170/05 RMK AO2 T01440128
03949KAQV AQV20191208211510712/08/19 21:15:31  5-MIN KAQV 090315Z AUTO 18006KT 10SM CLR 15/13 A2991 390 90 500 180/06 RMK AO2 T01500133
03949KAQV AQV20191208212010712/08/19 21:20:31  5-MIN KAQV 090320Z AUTO 18006KT 10SM CLR 15/13 A2991 390 90 500 180/06 RMK AO2 T01500133
03949KAQV AQV20191208212510712/08/19 21:25:31  5-MIN KAQV 090325Z AUTO 19006KT 10SM CLR 15/13 A2991 380 90 500 180/06 RMK AO2 T01500133
03949KAQV AQV20191208213011012/08/19 21:30:31  5-MIN KAQV 090330Z AUTO 17007KT 10SM FEW009 15/13 A2991 380 90 500 170/07 RMK AO2 T01500133
03949KAQV AQV20191208213510912/08/19 21:35:31  5-MIN KAQV 090335Z AUTO VRB05KT 9SM SCT009 16/13 A2991 380 86 600 VRB/05 RMK AO2 T01560133
03949KAQV AQV20191208214010912/08/19 21:40:31  5-MIN KAQV 090340Z AUTO 18005KT 9SM SCT009 16/14 A2991 380 90 600 180/05 RMK AO2 T01560139
03949KAQV AQV20191208214510912/08/19 21:45:31  5-MIN KAQV 090345Z AUTO VRB05KT 9SM SCT009 16/14 A2992 380 90 600 VRB/05 RMK AO2 T01560139
03949KAQV AQV20191208215010912/08/19 21:50:31  5-MIN KAQV 090350Z AUTO 19007KT 9SM BKN009 16/14 A2992 380 90 600 180/07 RMK AO2 T01560139
03949KAQV AQV20191208215511612/08/19 21:55:31  5-MIN KAQV 090355Z AUTO 18005KT 9SM BKN009 16/14 A2991 380 90 600 180/05 RMK AO2 SLP130 T01560139
03949KAQV AQV20191208220010912/08/19 22:00:31  5-MIN KAQV 090400Z AUTO VRB04KT 9SM BKN009 16/14 A2991 390 90 600 VRB/04 RMK AO2 T01560139
03949KAQV AQV20191208220511112/08/19 22:05:31  5-MIN KAQV 090405Z AUTO 9SM BKN009 16/14 A2991 390 90 600 M /M RMK AO2 CIG 007V011 T01560139
03949KAQV AQV20191208221012112/08/19 22:10:31  5-MIN KAQV 090410Z AUTO 17005KT 9SM OVC009 16/14 A2991 390 86 600 170/05 RMK AO2 CIG 007V011 T01610139
03949KAQV AQV20191208221511012/08/19 22:15:31  5-MIN KAQV 090415Z AUTO 18007KT 10SM OVC008 16/14 A2991 390 90 600 170/07 RMK AO2 T01610144
03949KAQV AQV20191208222010912/08/19 22:20:31  5-MIN KAQV 090420Z AUTO VRB06KT 9SM OVC008 16/14 A2990 390 90 700 VRB/06 RMK AO2 T01610144
03949KAQV AQV20191208222510912/08/19 22:25:31  5-MIN KAQV 090425Z AUTO VRB05KT 9SM OVC008 16/14 A2990 390 90 700 VRB/05 RMK AO2 T01610144
03949KAQV AQV20191208223009912/08/19 22:30:31  5-MIN KAQV 090430Z AUTO 9SM OVC008 16/14 A2990 390 90 700 M /M RMK AO2 T01610144
03949KAQV AQV20191208223510912/08/19 22:35:31  5-MIN KAQV 090435Z AUTO VRB04KT 8SM OVC007 16/14 A2990 390 90 700 VRB/04 RMK AO2 T01610144
03949KAQV AQV20191208224010912/08/19 22:40:31  5-MIN KAQV 090440Z AUTO 19007KT 8SM OVC007 16/14 A2991 390 90 700 180/07 RMK AO2 T01610144
03949KAQV AQV20191208224510912/08/19 22:45:31  5-MIN KAQV 090445Z AUTO VRB06KT 8SM OVC007 16/14 A2991 380 90 600 VRB/06 RMK AO2 T01610144
03949KAQV AQV20191208225010912/08/19 22:50:31  5-MIN KAQV 090450Z AUTO 18007KT 8SM OVC007 16/14 A2991 380 90 600 180/07 RMK AO2 T01610144
03949KAQV AQV20191208225510612/08/19 22:55:31  5-MIN KAQV 090455Z AUTO 8SM OVC007 16/14 A2990 390 90 700 M /M RMK AO2 SLP127 T01610144
03949KAQV AQV20191208230010912/08/19 23:00:31  5-MIN KAQV 090500Z AUTO 19006KT 7SM OVC007 16/14 A2990 390 90 700 180/06 RMK AO2 T01610144
03949KAQV AQV20191208230510912/08/19 23:05:31  5-MIN KAQV 090505Z AUTO 18006KT 7SM OVC007 17/14 A2991 390 86 700 180/06 RMK AO2 T01670144
03949KAQV AQV20191208231010912/08/19 23:10:31  5-MIN KAQV 090510Z AUTO VRB06KT 7SM OVC007 17/14 A2990 390 86 700 VRB/06 RMK AO2 T01670144
03949KAQV AQV20191208231510912/08/19 23:15:31  5-MIN KAQV 090515Z AUTO 18007KT 7SM OVC007 16/14 A2989 400 90 700 170/07 RMK AO2 T01610144
03949KAQV AQV20191208232012512/08/19 23:20:31  5-MIN KAQV 090520Z AUTO 18007KT 120V260 7SM OVC006 17/14 A2989 410 86 700 170/07 120V260 RMK AO2 T01670144
03949KAQV AQV20191208232512512/08/19 23:25:31  5-MIN KAQV 090525Z AUTO 18007KT 150V220 7SM OVC006 17/14 A2989 410 86 700 170/07 150V220 RMK AO2 T01670144
03949KAQV AQV20191208233012512/08/19 23:30:31  5-MIN KAQV 090530Z AUTO 18007KT 130V240 7SM OVC006 17/14 A2989 400 86 700 180/07 130V240 RMK AO2 T01670144
03949KAQV AQV20191208233510912/08/19 23:35:31  5-MIN KAQV 090535Z AUTO VRB03KT 7SM OVC006 17/15 A2989 400 90 700 VRB/03 RMK AO2 T01670150
03949KAQV AQV20191208234010912/08/19 23:40:31  5-MIN KAQV 090540Z AUTO VRB04KT 7SM OVC006 17/15 A2989 410 90 700 VRB/04 RMK AO2 T01670150
03949KAQV AQV20191208234511512/08/19 23:45:31  5-MIN KAQV 090545Z AUTO VRB05G15KT 7SM OVC006 17/15 A2989 400 90 700 VRB/05G15 RMK AO2 T01670150
03949KAQV AQV20191208235009912/08/19 23:50:31  5-MIN KAQV 090550Z AUTO 7SM OVC006 17/15 A2989 400 90 700 M /M RMK AO2 T01670150
03949KAQV AQV20191208235514412/08/19 23:55:31  5-MIN KAQV 090555Z AUTO 18007KT 7SM OVC006 17/15 A2989 400 90 700 180/07 RMK AO2 SLP122 T01670150 10167 20139 401780067 58013
03949KAQV AQV20191209000010912/09/19 00:00:31  5-MIN KAQV 090600Z AUTO VRB05KT 7SM OVC006 17/15 A2989 400 90 700 VRB/05 RMK AO2 T01670150
03949KAQV AQV20191209000510912/09/19 00:05:31  5-MIN KAQV 090605Z AUTO 19004KT 7SM OVC006 17/15 A2990 400 90 700 180/04 RMK AO2 T01670150
03949KAQV AQV20191209001010912/09/19 00:10:31  5-MIN KAQV 090610Z AUTO 19005KT 7SM OVC006 17/15 A2990 400 90 700 180/05 RMK AO2 T01670150
03949KAQV AQV20191209001510912/09/19 00:15:31  5-MIN KAQV 090615Z AUTO VRB06KT 7SM OVC006 17/15 A2990 390 90 700 VRB/06 RMK AO2 T01670150
03949KAQV AQV20191209002010912/09/19 00:20:31  5-MIN KAQV 090620Z AUTO 19007KT 7SM OVC006 17/15 A2990 390 90 700 190/07 RMK AO2 T01670150
03949KAQV AQV20191209002510912/09/19 00:25:31  5-MIN KAQV 090625Z AUTO 18006KT 7SM OVC006 17/15 A2990 400 90 700 180/06 RMK AO2 T01670150
03949KAQV AQV20191209003009912/09/19 00:30:31  5-MIN KAQV 090630Z AUTO 7SM OVC006 17/15 A2990 400 90 700 M /M RMK AO2 T01670150
03949KAQV AQV20191209003510912/09/19 00:35:31  5-MIN KAQV 090635Z AUTO 19006KT 7SM OVC006 17/15 A2990 400 90 700 190/06 RMK AO2 T01670150
03949KAQV AQV20191209004010912/09/19 00:40:31  5-MIN KAQV 090640Z AUTO VRB05KT 7SM OVC006 17/15 A2990 400 90 700 VRB/05 RMK AO2 T01670150
03949KAQV AQV20191209004510912/09/19 00:45:31  5-MIN KAQV 090645Z AUTO VRB06KT 7SM OVC006 17/15 A2990 400 90 700 VRB/06 RMK AO2 T01670150
03949KAQV AQV20191209005010912/09/19 00:50:31  5-MIN KAQV 090650Z AUTO 18005KT 7SM OVC006 17/15 A2989 400 90 700 170/05 RMK AO2 T01670150
03949KAQV AQV20191209005511612/09/19 00:55:31  5-MIN KAQV 090655Z AUTO 18007KT 7SM OVC006 17/15 A2989 400 90 700 180/07 RMK AO2 SLP121 T01670150
03949KAQV AQV20191209010010912/09/19 01:00:31  5-MIN KAQV 090700Z AUTO 18005KT 7SM OVC006 17/15 A2989 400 87 800 170/05 RMK AO2 T01720150
03949KAQV AQV20191209010511212/09/19 01:05:31  5-MIN KAQV 090705Z AUTO VRB06KT 6SM BR OVC006 17/15 A2989 410 87 800 VRB/06 RMK AO2 T01720150
03949KAQV AQV20191209011011212/09/19 01:10:31  5-MIN KAQV 090710Z AUTO VRB06KT 6SM BR OVC006 17/16 A2989 410 90 800 VRB/06 RMK AO2 T01720156
03949KAQV AQV20191209011511212/09/19 01:15:31  5-MIN KAQV 090715Z AUTO 19005KT 6SM BR OVC006 17/16 A2989 410 90 800 180/05 RMK AO2 T01720156
03949KAQV AQV20191209012011212/09/19 01:20:31  5-MIN KAQV 090720Z AUTO 19007KT 6SM BR OVC006 17/16 A2988 410 90 800 180/07 RMK AO2 T01720156
03949KAQV AQV20191209012511212/09/19 01:25:31  5-MIN KAQV 090725Z AUTO 18005KT 6SM BR OVC006 17/16 A2988 410 90 800 180/05 RMK AO2 T01720156
03949KAQV AQV20191209013011212/09/19 01:30:31  5-MIN KAQV 090730Z AUTO 19007KT 6SM BR OVC006 17/16 A2988 410 90 800 190/07 RMK AO2 T01720156
03949KAQV AQV20191209013511212/09/19 01:35:31  5-MIN KAQV 090735Z AUTO VRB05KT 6SM BR OVC006 17/16 A2988 420 90 800 VRB/05 RMK AO2 T01720156
03949KAQV AQV20191209014011212/09/19 01:40:31  5-MIN KAQV 090740Z AUTO VRB04KT 6SM BR OVC006 17/16 A2987 420 90 800 VRB/04 RMK AO2 T01720156
03949KAQV AQV20191209014510212/09/19 01:45:31  5-MIN KAQV 090745Z AUTO 6SM BR OVC005 17/16 A2987 420 90 800 M /M RMK AO2 T01720156
03949KAQV AQV20191209015011212/09/19 01:50:31  5-MIN KAQV 090750Z AUTO VRB05KT 6SM BR OVC005 17/16 A2987 420 90 800 VRB/05 RMK AO2 T01720156
03949KAQV AQV20191209015511912/09/19 01:55:31  5-MIN KAQV 090755Z AUTO VRB05KT 6SM BR OVC005 17/16 A2987 420 90 800 VRB/05 RMK AO2 SLP113 T01720156
03949KAQV AQV20191209020012812/09/19 02:00:31  5-MIN KAQV 090800Z AUTO 19007KT 160V250 6SM BR OVC005 17/16 A2987 430 90 800 190/07 160V250 RMK AO2 T01720156
03949KAQV AQV20191209020511212/09/19 02:05:31  5-MIN KAQV 090805Z AUTO VRB04KT 6SM BR OVC005 17/16 A2986 430 90 800 VRB/04 RMK AO2 T01720156
03949KAQV AQV20191210120514212/10/19 12:05:31  5-MIN KAQV 101805Z AUTO 01008G21KT 5SM RA BR BKN010 BKN023 OVC070 09/07 A3018 130 89 -500 010/08G21 RMK AO2 P0002 T00890072
03949KAQV AQV20191210121014312/10/19 12:10:31  5-MIN KAQV 101810Z AUTO 02010G19KT 5SM -RA BR BKN008 BKN023 OVC070 09/07 A3018 140 89 -500 010/10G19 RMK AO2 P0002 T00890072
03949KAQV AQV20191210121514012/10/19 12:15:31  5-MIN KAQV 101815Z AUTO 02010G19KT 7SM -RA BKN010 BKN024 OVC075 08/07 A3018 130 93 -500 020/10G19 RMK AO2 P0002 T00830072
03949KAQV AQV20191210122013312/10/19 12:20:31  5-MIN KAQV 101820Z AUTO 01010G18KT 9SM -RA BKN010 OVC075 08/07 A3018 130 89 -500 010/10G18 RMK AO2 P0002 T00830067
03949KAQV AQV20191210122513312/10/19 12:25:31  5-MIN KAQV 101825Z AUTO 02010G17KT 8SM -RA BKN008 OVC012 08/07 A3019 130 89 -600 020/10G17 RMK AO2 P0003 T00830067
03949KAQV AQV20191210123014312/10/19 12:30:31  5-MIN KAQV 101830Z AUTO 02008G17KT 6SM -RA BR BKN008 OVC014 08/07 A3020 120 89 -600 010/08G17 RMK AO2 PRESRR P0003 T00830067
03949KAQV AQV20191210123515912/10/19 12:35:31  5-MIN KAQV 101835Z AUTO 02007G16KT 360V060 5SM -RA BR BKN008 OVC014 08/07 A3021 110 89 -600 020/07G16 360V060 RMK AO2 PRESRR P0003 T00830067
03949KAQV AQV20191210124013612/10/19 12:40:31  5-MIN KAQV 101840Z AUTO 02008G14KT 5SM -RA BR BKN009 OVC014 08/07 A3021 110 93 -600 020/08G14 RMK AO2 P0003 T00830072
03949KAQV AQV20191210124513012/10/19 12:45:31  5-MIN KAQV 101845Z AUTO 36008KT 4SM -RA BR BKN009 OVC014 08/07 A3020 110 93 -600 360/08 RMK AO2 P0004 T00830072
03949KAQV AQV20191210125013612/10/19 12:50:31  5-MIN KAQV 101850Z AUTO 01010G19KT 3SM -RA BR BKN009 OVC014 08/07 A3021 110 89 -600 360/10G19 RMK AO2 P0004 T00830067
03949KAQV AQV20191210125513012/10/19 12:55:31  5-MIN KAQV 101855Z AUTO 01010G19KT 2 1/2SM -RA BR BKN009 OVC014 08/07 A3020 120 89 -600 010/10G19 RMK AO2 P0005
03949KAQV AQV20191210130014012/10/19 13:00:31  5-MIN KAQV 101900Z AUTO 01009G19KT 2 1/2SM -RA BR BKN007 OVC011 08/07 A3020 120 93 -600 360/09G19 RMK AO2 P0000 T00780067
03949KAQV AQV20191210130514012/10/19 13:05:31  5-MIN KAQV 101905Z AUTO 02010G19KT 2 1/2SM -RA BR BKN007 OVC011 08/07 A3020 120 93 -600 020/10G19 RMK AO2 P0001 T00780067
03949KAQV AQV20191210131013612/10/19 13:10:31  5-MIN KAQV 101910Z AUTO 02009G20KT 3SM -RA BR FEW007 OVC011 08/06 A3020 120 89 -600 010/09G20 RMK AO2 P0001 T00780061
03949KAQV AQV20191210131513612/10/19 13:15:31  5-MIN KAQV 101915Z AUTO 01007G23KT 4SM -RA BR BKN008 OVC070 08/06 A3021 110 89 -600 010/07G23 RMK AO2 P0001 T00780061
03949KAQV AQV20191210132013612/10/19 13:20:31  5-MIN KAQV 101920Z AUTO 02009G23KT 4SM -RA BR BKN010 OVC070 08/06 A3021 110 89 -600 020/09G23 RMK AO2 P0001 T00780061
03949KAQV AQV20191210132514312/10/19 13:25:31  5-MIN KAQV 101925Z AUTO 03010G17KT 4SM -RA BR BKN008 BKN012 OVC070 07/06 A3020 120 93 -700 020/10G17 RMK AO2 P0002 T00720061
03949KAQV AQV20191210133014212/10/19 13:30:31  5-MIN KAQV 101930Z AUTO 02006G18KT 3SM RA BR BKN008 BKN014 OVC070 07/06 A3022 100 93 -700 020/06G18 RMK AO2 P0003 T00720061
03949KAQV AQV20191210133514212/10/19 13:35:31  5-MIN KAQV 101935Z AUTO 03007G18KT 3SM RA BR BKN008 BKN016 OVC050 08/06 A3021 110 89 -600 030/07G18 RMK AO2 P0004 T00780061
03949KAQV AQV20191210134014212/10/19 13:40:31  5-MIN KAQV 101940Z AUTO 02009G18KT 3SM RA BR BKN008 BKN012 OVC070 07/06 A3020 120 93 -700 010/09G18 RMK AO2 P0005 T00720061
03949KAQV AQV20191210134513512/10/19 13:45:31  5-MIN KAQV 101945Z AUTO 02008G18KT 3SM RA BR BKN007 OVC014 07/06 A3020 120 93 -700 020/08G18 RMK AO2 P0006 T00720061
03949KAQV AQV20191210135014812/10/19 13:50:31  5-MIN KAQV 101950Z AUTO 01006G15KT 4SM -RA BR BKN007 OVC014 07/06 A3021 110 93 -700 010/06G15 RMK AO2 CIG 005V009 P0006 T00720061
03949KAQV AQV20191210135515512/10/19 13:55:31  5-MIN KAQV 101955Z AUTO 02008G14KT 6SM -RA BR BKN005 OVC011 07/06 A3020 120 93 -700 020/08G14 RMK AO2 CIG 004V009 SLP228 P0007 T00720061
03949KAQV AQV20191210140014812/10/19 14:00:31  5-MIN KAQV 102000Z AUTO 01009G19KT 6SM -RA BR BKN007 OVC014 07/06 A3021 110 89 -700 010/09G19 RMK AO2 CIG 004V009 P0000 T00720056
03949KAQV AQV20191210140514812/10/19 14:05:31  5-MIN KAQV 102005Z AUTO 36010G19KT 5SM -RA BR BKN007 OVC014 07/06 A3021 110 93 -700 360/10G19 RMK AO2 CIG 004V009 P0000 T00720061
03949KAQV AQV20191210141014112/10/19 14:10:31  5-MIN KAQV 102010Z AUTO 02007G15KT 5SM -RA BR OVC007 07/06 A3021 100 89 -700 010/07G15 RMK AO2 CIG 004V012 P0001 T00720056
03949KAQV AQV20191210141515712/10/19 14:15:31  5-MIN KAQV 102015Z AUTO 02007G17KT 350V060 5SM -RA BR OVC007 07/06 A3021 110 89 -700 010/07G17 350V060 RMK AO2 CIG 004V010 P0001 T00720056
03949KAQV AQV20191210142014812/10/19 14:20:31  5-MIN KAQV 102020Z AUTO 02011G21KT 4SM -RA BR BKN007 OVC011 07/06 A3020 110 93 -800 020/11G21 RMK AO2 CIG 004V010 P0002 T00670056
03949KAQV AQV20191210142514312/10/19 14:25:31  5-MIN KAQV 102025Z AUTO 02011G21KT 5SM -RA BR SCT007 BKN011 OVC080 07/05 A3020 120 89 -800 020/11G21 RMK AO2 P0002 T00670050
03949KAQV AQV20191210143014012/10/19 14:30:31  5-MIN KAQV 102030Z AUTO 03012G21KT 7SM -RA SCT007 BKN011 OVC080 07/05 A3020 110 89 -800 020/12G21 RMK AO2 P0002 T00670050
03949KAQV AQV20191210143513312/10/19 14:35:31  5-MIN KAQV 102035Z AUTO 03011G21KT 9SM -RA BKN009 OVC080 07/05 A3021 110 89 -800 020/11G21 RMK AO2 P0002 T00670050
03949KAQV AQV20191210144014612/10/19 14:40:31  5-MIN KAQV 102040Z AUTO 01006G21KT 9SM -RA BKN009 BKN019 OVC080 07/05 A3023 90 89 -800 010/06G21 RMK AO2 PRESRR P0002 T00670050
03949KAQV AQV20191210144511712/10/19 14:45:31  5-MIN KAQV 102045Z AUTO 10SM -RA BKN009 OVC016 07/05 A3023 90 89 -800 M /M RMK AO2 P0002 T00670050
03949KAQV AQV20191210145014012/10/19 14:50:31  5-MIN KAQV 102050Z AUTO 36010G17KT 10SM -RA BKN009 BKN016 OVC080 07/05 A3024 80 89 -800 360/10G17 RMK AO2 P0002 T00670050
03949KAQV AQV20191210145518712/10/19 14:55:31  5-MIN KAQV 102055Z AUTO 02010G17KT 350V060 10SM -RA BKN009 BKN016 OVC075 07/05 A3023 90 89 -800 020/10G17 350V060 RMK AO2 CIG 007V012 SLP237 P0002 60014 T00670050 50001
03949KAQV AQV20191210150014012/10/19 15:00:31  5-MIN KAQV 102100Z AUTO 03010G20KT 10SM -RA SCT009 BKN014 OVC075 07/04 A3023 90 86 -800 020/10G20 RMK AO2 P0000 T00670044
03949KAQV AQV20191210150514012/10/19 15:05:31  5-MIN KAQV 102105Z AUTO 01009G20KT 10SM -RA SCT011 BKN046 OVC080 07/04 A3024 80 86 -800 010/09G20 RMK AO2 P0000 T00670044
03949KAQV AQV20191210151013912/10/19 15:10:31  5-MIN KAQV 102110Z AUTO 02008G19KT 9SM -RA SCT011 SCT049 OVC080 07/04 A3026 70 86 -800 010/08G19 RMK AO2 P0001 T00670044
03949KAQV AQV20191210151513912/10/19 15:15:31  5-MIN KAQV 102115Z AUTO 03008G19KT 7SM -RA FEW011 SCT047 OVC080 06/05 A3023 90 93 -900 020/08G19 RMK AO2 P0001 T00610050
03949KAQV AQV20191210152014212/10/19 15:20:31  5-MIN KAQV 102120Z AUTO 03007G17KT 5SM -RA BR FEW011 SCT055 OVC075 06/05 A3025 80 93 -900 030/07G17 RMK AO2 P0002 T00610050
03949KAQV AQV20191210152514212/10/19 15:25:31  5-MIN KAQV 102125Z AUTO 02007G14KT 4SM -RA BR FEW011 BKN070 OVC080 06/04 A3027 60 89 -900 010/07G14 RMK AO2 P0002 T00610044
03949KAQV AQV20191210153014212/10/19 15:30:31  5-MIN KAQV 102130Z AUTO 02009G16KT 4SM -RA BR SCT009 BKN043 OVC080 06/05 A3023 90 93 -900 020/09G16 RMK AO2 P0003 T00610050
03949KAQV AQV20191210153514212/10/19 15:35:31  5-MIN KAQV 102135Z AUTO 01009G16KT 4SM -RA BR SCT009 BKN043 OVC080 06/05 A3023 90 93 -900 010/09G16 RMK AO2 P0003 T00610050
03949KAQV AQV20191210154014212/10/19 15:40:31  5-MIN KAQV 102140Z AUTO 02006G16KT 5SM -RA BR SCT007 BKN013 OVC065 06/05 A3023 90 93 -900 020/06G16 RMK AO2 P0003 T00610050
03949KAQV AQV20191210154514212/10/19 15:45:31  5-MIN KAQV 102145Z AUTO 02006G16KT 6SM -RA BR BKN009 BKN033 OVC070 06/05 A3023 90 93 -900 010/06G16 RMK AO2 P0003 T00610050
03949KAQV AQV20191210155013212/10/19 15:50:31  5-MIN KAQV 102150Z AUTO 02009G16KT 7SM -RA BKN009 OVC033 06/05 A3024 80 93 -900 010/09G16 RMK AO2 P0003 T00610050
03949KAQV AQV20191210155512612/10/19 15:55:31  5-MIN KAQV 102155Z AUTO 02007KT 9SM -RA OVC009 06/05 A3024 80 93 -900 020/07 RMK AO2 SLP241 P0003 T00610050
03949KAQV AQV20191210160012612/10/19 16:00:31  5-MIN KAQV 102200Z AUTO 02011G16KT 10SM -RA OVC008 06/04 A3023 90 89 -900 010/11G16 RMK AO2 P0000 T00610044
03949KAQV AQV20191210160513912/10/19 16:05:31  5-MIN KAQV 102205Z AUTO 01009G17KT 10SM -RA OVC008 06/04 A3022 100 89 -900 010/09G17 RMK AO2 CIG 005V012 P0000 T00610044
03949KAQV AQV20191210161014112/10/19 16:10:31  5-MIN KAQV 102210Z AUTO 02009G18KT 10SM OVC008 06/04 A3022 100 89 -900 020/09G18 RMK AO2 RAE09 CIG 005V011 P0000 T00610044
03949KAQV AQV20191210161514012/10/19 16:15:31  5-MIN KAQV 102215Z AUTO 02008G18KT 10SM OVC008 06/04 A3023 90 89 -900 020/08G18 RMK AO2 RAE09 CIG 005V012 P0000 T00610044
03949KAQV AQV20191210162012812/10/19 16:20:31  5-MIN KAQV 102220Z AUTO 03009G18KT 10SM OVC007 06/04 A3023 90 89 -900 020/09G18 RMK AO2 RAE09 P0000 T00610044
03949KAQV AQV20191210162514712/10/19 16:25:31  5-MIN KAQV 102225Z AUTO 02007G18KT 10SM OVC007 06/04 A3025 80 89 -900 020/07G18 RMK AO2 RAE09 CIG 006V010 PRESRR P0000 T00610044
03949KAQV AQV20191210163013412/10/19 16:30:31  5-MIN KAQV 102230Z AUTO 02009KT 10SM OVC007 06/05 A3024 80 93 -900 020/09 RMK AO2 RAE09 CIG 006V010 P0000 T00610050
03949KAQV AQV20191210163514712/10/19 16:35:31  5-MIN KAQV 102235Z AUTO 01007KT 8SM -RA OVC007 06/05 A3026 60 93 -900 010/07 RMK AO2 RAE09B32 CIG 006V010 PRESRR P0001 T00610050
03949KAQV AQV20191210164013012/10/19 16:40:31  5-MIN KAQV 102240Z AUTO 03007KT 5SM RA BR OVC007 06/04 A3026 70 89 -900 020/07 RMK AO2 RAE09B32 P0003 T00610044
03949KAQV AQV20191210164513012/10/19 16:45:31  5-MIN KAQV 102245Z AUTO VRB05KT 3SM RA BR OVC007 06/05 A3025 70 93 -900 VRB/05 RMK AO2 RAE09B32 P0005 T00610050
03949KAQV AQV20191210165013012/10/19 16:50:31  5-MIN KAQV 102250Z AUTO 02007KT 4SM RA BR OVC007 06/05 A3025 70 93 -900 020/07 RMK AO2 RAE09B32 P0007 T00610050
03949KAQV AQV20191210165515112/10/19 16:55:31  5-MIN KAQV 102255Z AUTO 02006KT 4SM RA BR BKN007 OVC012 06/04 A3024 80 89 -900 020/06 RMK AO2 RAE09B32 PRESFR SLP242 P0008 T00610044
03949KAQV AQV20191210170013512/10/19 17:00:31  5-MIN KAQV 102300Z AUTO 03008KT 4SM RA BR BKN007 BKN012 OVC050 06/05 A3025 80 93 -900 020/08 RMK AO2 P0000 T00610050
03949KAQV AQV20191210170512812/10/19 17:05:31  5-MIN KAQV 102305Z AUTO 03007KT 3SM RA BR BKN007 OVC045 06/04 A3025 70 89 -900 020/07 RMK AO2 P0002 T00610044
03949KAQV AQV20191210171015012/10/19 17:10:31  5-MIN KAQV 102310Z AUTO 03009G14KT 360V060 4SM RA BR BKN007 OVC037 06/04 A3025 80 89 -900 020/09G14 360V060 RMK AO2 P0002 T00610044
03949KAQV AQV20191210171515212/10/19 17:15:31  5-MIN KAQV 102315Z AUTO 02007KT 350V060 5SM -RA BR BKN007 BKN011 OVC032 06/04 A3024 80 89 -900 020/07 350V060 RMK AO2 P0003 T00610044
03949KAQV AQV20191210172015712/10/19 17:20:31  5-MIN KAQV 102320Z AUTO 01009G19KT 350V060 4SM RA BR BKN007 BKN011 OVC029 06/04 A3025 70 89 -900 010/09G19 350V060 RMK AO2 P0004 T00610044
03949KAQV AQV20191210172513612/10/19 17:25:31  5-MIN KAQV 102325Z AUTO 03010G19KT 5SM -RA BR BKN007 OVC026 06/04 A3025 70 92 -1000 020/10G19 RMK AO2 P0005 T00560044
03949KAQV AQV20191210173012612/10/19 17:30:31  5-MIN KAQV 102330Z AUTO 02007G16KT 9SM -RA OVC009 06/04 A3024 80 92 -1000 010/07G16 RMK AO2 P0005 T00560044
03949KAQV AQV20191210173512812/10/19 17:35:31  5-MIN KAQV 102335Z AUTO 03007KT 10SM -RA BKN007 OVC011 06/04 A3026 70 92 -1000 030/07 RMK AO2 P0005 T00560044
03949KAQV AQV20191210174013812/10/19 17:40:31  5-MIN KAQV 102340Z AUTO 02007KT 360V060 10SM OVC009 06/04 A3025 70 89 -900 020/07 360V060 RMK AO2 RAE39 P0005 T00610044
03949KAQV AQV20191210174512312/10/19 17:45:31  5-MIN KAQV 102345Z AUTO 02007KT 10SM OVC009 06/04 A3026 60 92 -1000 020/07 RMK AO2 RAE39 P0005 T00560044
03949KAQV AQV20191210175013412/10/19 17:50:31  5-MIN KAQV 102350Z AUTO 03006KT 10SM OVC009 06/04 A3027 50 89 -900 020/06 RMK AO2 RAE39 CIG 006V012 P0005 T00610044
03949KAQV AQV20191210175517212/10/19 17:55:31  5-MIN KAQV 102355Z AUTO VRB05KT 10SM OVC009 06/04 A3030 30 89 -900 VRB/05 RMK AO2 RAE39 CIG 006V012 PRESRR SLP260 P0005 60031 T00610044 10089 20056 53015
03949KAQV AQV20191210180013712/10/19 18:00:31  5-MIN KAQV 110000Z AUTO VRB04KT 10SM BKN009 OVC012 06/04 A3031 20 89 -1000 VRB/04 RMK AO2 CIG 006V010 PRESRR T00610044
03949KAQV AQV20191210180513312/10/19 18:05:31  5-MIN KAQV 110005Z AUTO 03007KT 10SM -RA BKN009 OVC012 06/04 A3030 30 89 -900 020/07 RMK AO2 RAB03 P0000 T00610044
03949KAQV AQV20191210181014612/10/19 18:10:31  5-MIN KAQV 110010Z AUTO VRB06KT 10SM -RA BKN009 OVC012 06/04 A3030 30 89 -1000 VRB/06 RMK AO2 RAB03 CIG 007V011 P0000 T00610044
03949KAQV AQV20191210181514612/10/19 18:15:31  5-MIN KAQV 110015Z AUTO 03007KT 10SM -RA BKN008 OVC012 06/04 A3030 20 89 -1000 020/07 RMK AO2 RAB03 CIG 007V011 P0000 T00610044
03949KAQV AQV20191210182013812/10/19 18:20:31  5-MIN KAQV 110020Z AUTO 02007KT 10SM -RA OVC008 06/04 A3030 30 89 -900 010/07 RMK AO2 RAB03 CIG 007V013 P0000 T00610044
03949KAQV AQV20191210182513812/10/19 18:25:31  5-MIN KAQV 110025Z AUTO 03005KT 10SM -RA OVC008 06/04 A3030 30 89 -900 020/05 RMK AO2 RAB03 CIG 007V011 P0000 T00610044
03949KAQV AQV20191210183014912/10/19 18:30:31  5-MIN KAQV 110030Z AUTO 01007KT 330V040 10SM -RA BKN008 OVC012 06/04 A3030 30 89 -900 010/07 330V040 RMK AO2 RAB03 P0000 T00610044
03949KAQV AQV20191210183514512/10/19 18:35:31  5-MIN KAQV 110035Z AUTO 01009G16KT 10SM -RA OVC008 06/04 A3030 30 92 -1000 010/09G16 RMK AO2 RAB03 CIG 007V011 P0000 T00560044
03949KAQV AQV20191210184014412/10/19 18:40:31  5-MIN KAQV 110040Z AUTO 02008G16KT 10SM OVC008 06/04 A3029 40 92 -1000 010/08G16 RMK AO2 RAB03E40 CIG 006V011 P0000 T00560044
03949KAQV AQV20191210184514412/10/19 18:45:31  5-MIN KAQV 110045Z AUTO VRB05G15KT 10SM OVC009 06/04 A3030 30 92 -1000 VRB/05G15 RMK AO2 RAB03E40 CIG 006V011 P0000 T00560044
03949KAQV AQV20191210185014512/10/19 18:50:31  5-MIN KAQV 110050Z AUTO 01009G18KT 10SM -RA OVC009 06/04 A3029 40 92 -1000 010/09G18 RMK AO2 RAB03 CIG 006V011 P0000 T00560044
03949KAQV AQV20191210185515212/10/19 18:55:31  5-MIN KAQV 110055Z AUTO 01005G18KT 10SM -RA OVC009 06/04 A3030 30 92 -1000 010/05G18 RMK AO2 RAB03 CIG 006V011 SLP262 P0000 T00560044
03949KAQV AQV20191210190015512/10/19 19:00:31  5-MIN KAQV 110100Z AUTO 01007G15KT 330V040 10SM -RA OVC009 06/04 A3030 20 92 -1000 010/07G15 330V040 RMK AO2 CIG 006V011 P0000 T00560044
03949KAQV AQV20191210190514212/10/19 19:05:31  5-MIN KAQV 110105Z AUTO 01007KT 10SM OVC008 06/04 A3032 10 92 -1000 360/07 RMK AO2 RAE01 CIG 006V013 PRESRR P0000 T00560044
03949KAQV AQV20191210191014112/10/19 19:10:31  5-MIN KAQV 110110Z AUTO 02007G15KT 10SM OVC008 06/04 A3032 10 92 -1000 020/07G15 RMK AO2 RAE01 CIG 006V013 P0000 T00560044
03949KAQV AQV20191210191515712/10/19 19:15:31  5-MIN KAQV 110115Z AUTO 01009G15KT 330V030 10SM OVC008 06/04 A3032 10 92 -1000 010/09G15 330V030 RMK AO2 RAE01 CIG 006V012 P0000 T00560044
03949KAQV AQV20191210192015712/10/19 19:20:31  5-MIN KAQV 110120Z AUTO 01008G19KT 340V050 10SM OVC009 06/04 A3032 10 89 -1000 010/08G19 340V050 RMK AO2 RAE01 CIG 006V012 P0000 T00560039
03949KAQV AQV20191210192513512/10/19 19:25:31  5-MIN KAQV 110125Z AUTO 01010G19KT 10SM BKN007 OVC011 06/04 A3033 0 89 -1000 010/10G19 RMK AO2 RAE01 P0000 T00560039
03949KAQV AQV20191210193014712/10/19 19:30:31  5-MIN KAQV 110130Z AUTO 03007G16KT 10SM BKN007 OVC011 06/04 A3033 0 89 -1100 020/07G16 RMK AO2 RAE01 CIG 006V010 P0000 T00560039
03949KAQV AQV20191210193514112/10/19 19:35:31  5-MIN KAQV 110135Z AUTO 02007KT 10SM BKN007 OVC011 06/04 A3033 0 92 -1100 010/07 RMK AO2 RAE01 CIG 005V010 P0000 T00560044
03949KAQV AQV20191210194013412/10/19 19:40:31  5-MIN KAQV 110140Z AUTO 01009KT 10SM OVC007 06/04 A3033 0 92 -1100 010/09 RMK AO2 RAE01 CIG 005V010 P0000 T00560044
03949KAQV AQV20191210194514012/10/19 19:45:31  5-MIN KAQV 110145Z AUTO 36009G16KT 10SM OVC007 06/04 A3032 0 89 -1000 360/09G16 RMK AO2 RAE01 CIG 005V010 P0000 T00560039
03949KAQV AQV20191210195014112/10/19 19:50:31  5-MIN KAQV 110150Z AUTO 01010G18KT 10SM OVC005 06/04 A3032 10 89 -1000 010/10G18 RMK AO2 RAE01 CIG 005V008 P0000 T00560039
03949KAQV AQV20191210195513612/10/19 19:55:31  5-MIN KAQV 110155Z AUTO 01008G18KT 10SM OVC005 06/04 A3032 10 89 -1000 010/08G18 RMK AO2 RAE01 SLP270 P0000 T00560039
03949KAQV AQV20191210200013212/10/19 20:00:31  5-MIN KAQV 110200Z AUTO 03011G20KT 350V060 10SM OVC005 05/04 A3033 0 92 -1100 020/11G20 350V060 RMK AO2 T00500039
03949KAQV AQV20191210200512812/10/19 20:05:31  5-MIN KAQV 110205Z AUTO 02009G20KT 10SM OVC005 05/03 A3033 0 89 -1100 020/09G20 RMK AO2 CIG 005V009 T00500033
03949KAQV AQV20191210201012812/10/19 20:10:31  5-MIN KAQV 110210Z AUTO 01008G18KT 10SM OVC006 05/04 A3033 0 92 -1100 010/08G18 RMK AO2 CIG 005V009 T00500039
03949KAQV AQV20191210201514412/10/19 20:15:31  5-MIN KAQV 110215Z AUTO 02009G19KT 350V050 10SM OVC006 05/04 A3034 0 92 -1100 020/09G19 350V050 RMK AO2 CIG 005V010 T00500039
03949KAQV AQV20191210202011612/10/19 20:20:31  5-MIN KAQV 110220Z AUTO 02009G19KT 10SM OVC006 05/03 A3034 0 89 -1100 020/09G19 RMK AO2 T00500033
03949KAQV AQV20191210202511212/10/19 20:25:31  5-MIN KAQV 110225Z AUTO 01006KT 10SM OVC007 05/04 A3034 -10 92 -1100 360/06 RMK AO2 T00500039
03949KAQV AQV20191210203011812/10/19 20:30:31  5-MIN KAQV 110230Z AUTO 02009G14KT 10SM OVC007 05/04 A3035 -10 92 -1100 010/09G14 RMK AO2 T00500039
03949KAQV AQV20191210203511212/10/19 20:35:31  5-MIN KAQV 110235Z AUTO 01008KT 10SM OVC007 05/03 A3034 -10 89 -1100 010/08 RMK AO2 T00500033
03949KAQV AQV20191210204011212/10/19 20:40:31  5-MIN KAQV 110240Z AUTO 01006KT 10SM OVC007 05/03 A3035 -10 89 -1100 010/06 RMK AO2 T00500033
03949KAQV AQV20191210204511212/10/19 20:45:31  5-MIN KAQV 110245Z AUTO 02008KT 10SM OVC007 05/03 A3035 -20 89 -1100 010/08 RMK AO2 T00500033
03949KAQV AQV20191210205011212/10/19 20:50:31  5-MIN KAQV 110250Z AUTO 36010KT 10SM OVC007 05/03 A3035 -20 89 -1100 360/10 RMK AO2 T00500033
03949KAQV AQV20191210205513712/10/19 20:55:31  5-MIN KAQV 110255Z AUTO 01010G17KT 10SM OVC007 05/03 A3035 -10 89 -1100 010/10G17 RMK AO2 SLP279 60000 T00500033 53025
03949KAQV AQV20191210210011812/10/19 21:00:31  5-MIN KAQV 110300Z AUTO 02010G17KT 10SM OVC007 05/03 A3035 -10 89 -1100 010/10G17 RMK AO2 T00500033
03949KAQV AQV20191210210511812/10/19 21:05:31  5-MIN KAQV 110305Z AUTO 01011G19KT 10SM OVC007 05/03 A3035 -10 89 -1100 010/11G19 RMK AO2 T00500033
03949KAQV AQV20191210211011812/10/19 21:10:31  5-MIN KAQV 110310Z AUTO 03008G19KT 10SM OVC007 05/03 A3036 -20 89 -1200 020/08G19 RMK AO2 T00500033
03949KAQV AQV20191210211511812/10/19 21:15:31  5-MIN KAQV 110315Z AUTO 02009G16KT 10SM OVC007 05/03 A3036 -20 89 -1200 020/09G16 RMK AO2 T00500033
03949KAQV AQV20191210212013412/10/19 21:20:31  5-MIN KAQV 110320Z AUTO 02010G22KT 360V060 10SM OVC007 05/03 A3036 -20 85 -1200 020/10G22 360V060 RMK AO2 T00500028
03949KAQV AQV20191210212511812/10/19 21:25:31  5-MIN KAQV 110325Z AUTO 03010G22KT 10SM OVC007 05/03 A3036 -20 85 -1200 020/10G22 RMK AO2 T00500028
03949KAQV AQV20191210213011812/10/19 21:30:31  5-MIN KAQV 110330Z AUTO 02008G19KT 10SM OVC008 05/03 A3036 -30 85 -1200 020/08G19 RMK AO2 T00500028
03949KAQV AQV20191210213511212/10/19 21:35:31  5-MIN KAQV 110335Z AUTO 02008KT 10SM OVC008 05/03 A3036 -30 85 -1200 020/08 RMK AO2 T00500028
03949KAQV AQV20191210214011212/10/19 21:40:31  5-MIN KAQV 110340Z AUTO 03006KT 10SM OVC008 05/03 A3037 -30 85 -1200 020/06 RMK AO2 T00500028
03949KAQV AQV20191210214512812/10/19 21:45:31  5-MIN KAQV 110345Z AUTO 01008KT 340V040 10SM OVC008 05/03 A3037 -30 89 -1200 360/08 340V040 RMK AO2 T00500033
03949KAQV AQV20191210215011812/10/19 21:50:31  5-MIN KAQV 110350Z AUTO 02007G17KT 10SM OVC008 05/03 A3037 -40 85 -1200 010/07G17 RMK AO2 T00500028
03949KAQV AQV20191210215512512/10/19 21:55:31  5-MIN KAQV 110355Z AUTO 03009G17KT 10SM OVC008 04/03 A3038 -40 89 -1200 030/09G17 RMK AO2 SLP288 T00440028
03949KAQV AQV20191210220013412/10/19 22:00:31  5-MIN KAQV 110400Z AUTO 01009G15KT 340V050 10SM OVC008 04/03 A3038 -40 89 -1200 010/09G15 340V050 RMK AO2 T00440028
03949KAQV AQV20191210220513412/10/19 22:05:31  5-MIN KAQV 110405Z AUTO 03007G15KT 360V070 10SM OVC008 04/03 A3038 -40 89 -1300 030/07G15 360V070 RMK AO2 T00440028
03949KAQV AQV20191210221011212/10/19 22:10:31  5-MIN KAQV 110410Z AUTO 03005KT 10SM OVC008 05/03 A3039 -50 85 -1200 020/05 RMK AO2 T00500028
03949KAQV AQV20191210221511212/10/19 22:15:31  5-MIN KAQV 110415Z AUTO 02007KT 10SM OVC008 04/03 A3039 -50 92 -1300 010/07 RMK AO2 T00440033
03949KAQV AQV20191210222011212/10/19 22:20:31  5-MIN KAQV 110420Z AUTO 01006KT 10SM OVC008 05/03 A3039 -50 89 -1200 010/06 RMK AO2 T00500033
03949KAQV AQV20191210222511212/10/19 22:25:31  5-MIN KAQV 110425Z AUTO 01006KT 10SM OVC007 05/03 A3039 -50 89 -1200 360/06 RMK AO2 T00500033
03949KAQV AQV20191210223011212/10/19 22:30:31  5-MIN KAQV 110430Z AUTO 02007KT 10SM OVC007 05/03 A3039 -50 89 -1200 020/07 RMK AO2 T00500033
03949KAQV AQV20191210223511212/10/19 22:35:31  5-MIN KAQV 110435Z AUTO VRB06KT 10SM OVC007 04/03 A3039 -50 92 -1300 VRB/06 RMK AO2 T00440033
03949KAQV AQV20191210224011212/10/19 22:40:31  5-MIN KAQV 110440Z AUTO 02006KT 10SM OVC007 04/03 A3039 -50 92 -1300 020/06 RMK AO2 T00440033
03949KAQV AQV20191210224511812/10/19 22:45:31  5-MIN KAQV 110445Z AUTO 03010G18KT 10SM OVC007 04/03 A3039 -50 89 -1300 030/10G18 RMK AO2 T00440028
03949KAQV AQV20191210225011812/10/19 22:50:31  5-MIN KAQV 110450Z AUTO 03007G18KT 10SM OVC006 04/03 A3039 -50 89 -1300 020/07G18 RMK AO2 T00440028
03949KAQV AQV20191210225511912/10/19 22:55:31  5-MIN KAQV 110455Z AUTO 02005KT 10SM OVC006 04/03 A3039 -50 89 -1300 020/05 RMK AO2 SLP292 T00440028
03949KAQV AQV20191210230012812/10/19 23:00:31  5-MIN KAQV 110500Z AUTO 02007KT 350V050 10SM OVC006 04/03 A3039 -50 92 -1300 010/07 350V050 RMK AO2 T00440033
03949KAQV AQV20191210230511812/10/19 23:05:31  5-MIN KAQV 110505Z AUTO 01009G16KT 10SM OVC006 04/03 A3039 -50 89 -1300 010/09G16 RMK AO2 T00440028
03949KAQV AQV20191210231013412/10/19 23:10:31  5-MIN KAQV 110510Z AUTO 02007G16KT 330V050 10SM OVC005 04/03 A3038 -50 89 -1300 020/07G16 330V050 RMK AO2 T00440028
03949KAQV AQV20191210231511212/10/19 23:15:31  5-MIN KAQV 110515Z AUTO 01007KT 10SM OVC005 04/03 A3038 -50 89 -1300 010/07 RMK AO2 T00440028
03949KAQV AQV20191210232012812/10/19 23:20:31  5-MIN KAQV 110520Z AUTO 02007KT 350V060 10SM OVC005 04/03 A3038 -40 89 -1300 010/07 350V060 RMK AO2 T00440028
03949KAQV AQV20191210232511812/10/19 23:25:31  5-MIN KAQV 110525Z AUTO 03008G15KT 10SM OVC005 04/03 A3038 -40 92 -1300 030/08G15 RMK AO2 T00390028
03949KAQV AQV20191210233013412/10/19 23:30:31  5-MIN KAQV 110530Z AUTO 02007G15KT 350V060 10SM OVC005 04/03 A3038 -50 89 -1300 010/07G15 350V060 RMK AO2 T00440028
03949KAQV AQV20191210233511212/10/19 23:35:31  5-MIN KAQV 110535Z AUTO 02007KT 10SM OVC005 04/03 A3038 -50 89 -1300 010/07 RMK AO2 T00440028
03949KAQV AQV20191210234011212/10/19 23:40:31  5-MIN KAQV 110540Z AUTO 02007KT 10SM OVC005 04/03 A3039 -50 89 -1300 020/07 RMK AO2 T00440028
03949KAQV AQV20191210234511212/10/19 23:45:31  5-MIN KAQV 110545Z AUTO 02007KT 10SM OVC005 04/03 A3039 -50 89 -1300 020/07 RMK AO2 T00440028
03949KAQV AQV20191210235011812/10/19 23:50:31  5-MIN KAQV 110550Z AUTO 02009G17KT 10SM OVC005 04/03 A3039 -50 92 -1300 010/09G17 RMK AO2 T00390028
03949KAQV AQV20191210235515912/10/19 23:55:31  5-MIN KAQV 110555Z AUTO 02007G17KT 10SM OVC005 04/03 A3039 -50 92 -1300 020/07G17 RMK AO2 SLP291 60000 T00390028 10061 20039 402110039 53016
03949KAQV AQV20191211000012412/11/19 00:00:31  5-MIN KAQV 110600Z AUTO VRB06KT 10SM OVC006 04/03 A3039 -50 92 -1300 VRB/06 RMK AO2 CIG 004V010 T00390028
03949KAQV AQV20191211060511312/11/19 06:05:31  5-MIN KAQV 111205Z AUTO VRB06KT 10SM OVC010 03/01 A3046 -120 85 -1500 VRB/06 RMK AO2 T00280006
03949KAQV AQV20191211061011312/11/19 06:10:31  5-MIN KAQV 111210Z AUTO 02006KT 10SM OVC010 03/01 A3047 -120 89 -1600 010/06 RMK AO2 T00280011
03949KAQV AQV20191211061511912/11/19 06:15:31  5-MIN KAQV 111215Z AUTO 01006G16KT 10SM OVC010 03/01 A3047 -120 85 -1600 010/06G16 RMK AO2 T00280006
03949KAQV AQV20191211062011912/11/19 06:20:31  5-MIN KAQV 111220Z AUTO 03006G16KT 10SM OVC010 03/01 A3047 -130 85 -1600 020/06G16 RMK AO2 T00280006
03949KAQV AQV20191211062511312/11/19 06:25:31  5-MIN KAQV 111225Z AUTO 02009KT 10SM OVC010 03/01 A3047 -130 85 -1600 010/09 RMK AO2 T00280006
03949KAQV AQV20191211063012912/11/19 06:30:31  5-MIN KAQV 111230Z AUTO 02007KT 350V060 10SM OVC010 03/01 A3048 -130 85 -1600 020/07 350V060 RMK AO2 T00280006
03949KAQV AQV20191211063511312/11/19 06:35:31  5-MIN KAQV 111235Z AUTO 02008KT 10SM OVC010 03/01 A3048 -130 85 -1600 010/08 RMK AO2 T00280006
03949KAQV AQV20191211064011912/11/19 06:40:31  5-MIN KAQV 111240Z AUTO 02010G15KT 10SM OVC010 03/01 A3048 -130 85 -1600 020/10G15 RMK AO2 T00280006
03949KAQV AQV20191211064511912/11/19 06:45:31  5-MIN KAQV 111245Z AUTO 05007G15KT 10SM OVC010 03/01 A3048 -130 85 -1600 040/07G15 RMK AO2 T00280006
03949KAQV AQV20191211065013512/11/19 06:50:31  5-MIN KAQV 111250Z AUTO 04007G14KT 360V060 10SM OVC010 03/01 A3048 -130 85 -1600 030/07G14 360V060 RMK AO2 T00280006
03949KAQV AQV20191211065512012/11/19 06:55:31  5-MIN KAQV 111255Z AUTO 03007KT 10SM OVC010 03/01 A3048 -130 85 -1600 020/07 RMK AO2 SLP325 T00280006
03949KAQV AQV20191211070011312/11/19 07:00:31  5-MIN KAQV 111300Z AUTO 02007KT 10SM OVC010 03/01 A3048 -130 85 -1600 020/07 RMK AO2 T00280006
03949KAQV AQV20191211070511312/11/19 07:05:31  5-MIN KAQV 111305Z AUTO VRB06KT 10SM OVC010 03/01 A3048 -140 85 -1600 VRB/06 RMK AO2 T00280006
03949KAQV AQV20191211071011312/11/19 07:10:31  5-MIN KAQV 111310Z AUTO 03008KT 10SM OVC010 03/01 A3048 -140 85 -1600 030/08 RMK AO2 T00280006
03949KAQV AQV20191211071511312/11/19 07:15:31  5-MIN KAQV 111315Z AUTO 01005KT 10SM OVC010 03/01 A3049 -140 85 -1600 010/05 RMK AO2 T00280006
03949KAQV AQV20191211072011312/11/19 07:20:31  5-MIN KAQV 111320Z AUTO VRB04KT 10SM OVC010 03/01 A3048 -140 85 -1600 VRB/04 RMK AO2 T00280006
03949KAQV AQV20191211072511312/11/19 07:25:31  5-MIN KAQV 111325Z AUTO VRB06KT 10SM OVC010 03/01 A3049 -140 85 -1600 VRB/06 RMK AO2 T00280006
03949KAQV AQV20191211073011312/11/19 07:30:31  5-MIN KAQV 111330Z AUTO 03008KT 10SM OVC010 03/01 A3049 -140 85 -1600 030/08 RMK AO2 T00280006
03949KAQV AQV20191211073511312/11/19 07:35:31  5-MIN KAQV 111335Z AUTO 02006KT 10SM OVC010 03/01 A3049 -140 89 -1600 020/06 RMK AO2 T00280011
03949KAQV AQV20191211074011312/11/19 07:40:31  5-MIN KAQV 111340Z AUTO 02006KT 10SM OVC010 03/01 A3050 -150 89 -1600 010/06 RMK AO2 T00280011
03949KAQV AQV20191211074511312/11/19 07:45:31  5-MIN KAQV 111345Z AUTO 02008KT 10SM OVC010 03/01 A3050 -150 85 -1500 020/08 RMK AO2 T00330011
03949KAQV AQV20191211075012512/11/19 07:50:31  5-MIN KAQV 111350Z AUTO 02004KT 10SM OVC010 03/01 A3050 -150 85 -1600 020/04 RMK AO2 CIG 009V013 T00280006
03949KAQV AQV20191211075513212/11/19 07:55:31  5-MIN KAQV 111355Z AUTO VRB04KT 10SM BKN010 03/01 A3050 -150 85 -1600 VRB/04 RMK AO2 CIG 009V013 SLP332 T00280006
03949KAQV AQV20191211080012512/11/19 08:00:31  5-MIN KAQV 111400Z AUTO 02007KT 10SM BKN010 03/01 A3050 -160 85 -1600 010/07 RMK AO2 CIG 009V013 T00280006
03949KAQV AQV20191211080511312/11/19 08:05:31  5-MIN KAQV 111405Z AUTO 03006KT 10SM SCT010 03/01 A3051 -160 85 -1600 020/06 RMK AO2 T00280006
03949KAQV AQV20191211081011312/11/19 08:10:31  5-MIN KAQV 111410Z AUTO 01007KT 10SM SCT010 03/01 A3051 -160 82 -1500 010/07 RMK AO2 T00330006
03949KAQV AQV20191211081512912/11/19 08:15:31  5-MIN KAQV 111415Z AUTO VRB06KT 10SM -RA FEW012 03/00 A3051 -160 79 -1500 VRB/06 RMK AO2 RAB14 P0000 T00330000
03949KAQV AQV20191211082012912/11/19 08:20:31  5-MIN KAQV 111420Z AUTO 03006KT 10SM -RA FEW012 03/00 A3051 -160 79 -1500 020/06 RMK AO2 RAB14 P0000 T00330000
03949KAQV AQV20191211082512812/11/19 08:25:31  5-MIN KAQV 111425Z AUTO 03006KT 10SM FEW012 04/00 A3051 -160 76 -1500 030/06 RMK AO2 RAB14E23 P0000 T00390000
03949KAQV AQV20191211083012612/11/19 08:30:31  5-MIN KAQV 111430Z AUTO VRB06KT 10SM CLR 04/M01 A3052 -170 73 -1500 VRB/06 RMK AO2 RAB14E23 P0000 T00391006
03949KAQV AQV20191211083512512/11/19 08:35:31  5-MIN KAQV 111435Z AUTO 02006KT 10SM CLR 04/00 A3052 -170 76 -1500 010/06 RMK AO2 RAB14E23 P0000 T00390000
03949KAQV AQV20191211084012512/11/19 08:40:31  5-MIN KAQV 111440Z AUTO 02008KT 10SM CLR 04/00 A3053 -170 73 -1400 020/08 RMK AO2 RAB14E23 P0000 T00440000
03949KAQV AQV20191211084512512/11/19 08:45:31  5-MIN KAQV 111445Z AUTO 03005KT 10SM CLR 04/00 A3053 -170 76 -1500 030/05 RMK AO2 RAB14E23 P0000 T00390000
03949KAQV AQV20191211085012612/11/19 08:50:31  5-MIN KAQV 111450Z AUTO 02007KT 10SM CLR 04/M01 A3053 -180 73 -1500 020/07 RMK AO2 RAB14E23 P0000 T00391006
03949KAQV AQV20191211085514512/11/19 08:55:31  5-MIN KAQV 111455Z AUTO 01006KT 10SM CLR 04/M01 A3053 -170 70 -1400 010/06 RMK AO2 RAB14E23 SLP340 P0000 60000 T00441006 53011
03949KAQV AQV20191211090011112/11/19 09:00:31  5-MIN KAQV 111500Z AUTO 02006KT 10SM CLR 04/M01 A3052 -170 70 -1400 020/06 RMK AO2 T00441006
03949KAQV AQV20191211090511012/11/19 09:05:31  5-MIN KAQV 111505Z AUTO 02007KT 10SM CLR 04/00 A3053 -180 73 -1400 020/07 RMK AO2 T00440000
03949KAQV AQV20191211091011012/11/19 09:10:31  5-MIN KAQV 111510Z AUTO 01005KT 10SM CLR 04/00 A3053 -180 73 -1400 360/05 RMK AO2 T00440000
03949KAQV AQV20191211091511012/11/19 09:15:31  5-MIN KAQV 111515Z AUTO VRB06KT 10SM CLR 05/00 A3053 -180 70 -1300 VRB/06 RMK AO2 T00500000
03949KAQV AQV20191211092012612/11/19 09:20:31  5-MIN KAQV 111520Z AUTO 02008KT 340V040 10SM CLR 05/00 A3053 -180 70 -1400 010/08 340V040 RMK AO2 T00500000
03949KAQV AQV20191211092511712/11/19 09:25:31  5-MIN KAQV 111525Z AUTO 04008G15KT 10SM CLR 05/M01 A3053 -180 67 -1400 040/08G15 RMK AO2 T00501006
03949KAQV AQV20191211093012712/11/19 09:30:31  5-MIN KAQV 111530Z AUTO 02009KT 350V060 10SM CLR 05/M01 A3053 -180 67 -1400 020/09 350V060 RMK AO2 T00501006
03949KAQV AQV20191211093511712/11/19 09:35:31  5-MIN KAQV 111535Z AUTO 03006G15KT 10SM CLR 06/M01 A3053 -180 65 -1300 030/06G15 RMK AO2 T00561006
03949KAQV AQV20191211094011012/11/19 09:40:31  5-MIN KAQV 111540Z AUTO 02007KT 10SM CLR 06/00 A3053 -180 65 -1200 010/07 RMK AO2 T00610000
03949KAQV AQV20191211094511112/11/19 09:45:31  5-MIN KAQV 111545Z AUTO 03006KT 10SM CLR 06/M01 A3054 -180 65 -1300 030/06 RMK AO2 T00561006
03949KAQV AQV20191211095011112/11/19 09:50:31  5-MIN KAQV 111550Z AUTO 01007KT 10SM CLR 06/M01 A3054 -180 62 -1200 010/07 RMK AO2 T00611006
03949KAQV AQV20191211095511812/11/19 09:55:31  5-MIN KAQV 111555Z AUTO VRB06KT 10SM CLR 06/M01 A3054 -190 62 -1200 VRB/06 RMK AO2 SLP344 T00611006
03949KAQV AQV20191211100012712/11/19 10:00:31  5-MIN KAQV 111600Z AUTO 03007KT 360V070 10SM CLR 06/M01 A3054 -190 60 -1200 030/07 360V070 RMK AO2 T00611011
03949KAQV AQV20191211100512712/11/19 10:05:31  5-MIN KAQV 111605Z AUTO 04008KT 360V070 10SM CLR 06/M01 A3054 -180 60 -1200 040/08 360V070 RMK AO2 T00611011
03949KAQV AQV20191211101011712/11/19 10:10:31  5-MIN KAQV 111610Z AUTO 04009G15KT 10SM CLR 06/M02 A3053 -180 57 -1200 030/09G15 RMK AO2 T00611017
03949KAQV AQV20191211101511712/11/19 10:15:31  5-MIN KAQV 111615Z AUTO 04008G15KT 10SM CLR 06/M02 A3053 -180 57 -1200 030/08G15 RMK AO2 T00611017
03949KAQV AQV20191211102011712/11/19 10:20:31  5-MIN KAQV 111620Z AUTO VRB06G15KT 10SM CLR 07/M02 A3054 -180 55 -1100 VRB/06G15 RMK AO2 T00671017
03949KAQV AQV20191211102511112/11/19 10:25:31  5-MIN KAQV 111625Z AUTO 05009KT 10SM CLR 07/M01 A3053 -180 57 -1100 040/09 RMK AO2 T00671011
03949KAQV AQV20191211103011112/11/19 10:30:31  5-MIN KAQV 111630Z AUTO 04008KT 10SM CLR 07/M02 A3053 -180 55 -1100 040/08 RMK AO2 T00671017
03949KAQV AQV20191211103511112/11/19 10:35:31  5-MIN KAQV 111635Z AUTO VRB05KT 10SM CLR 07/M01 A3053 -180 55 -1100 VRB/05 RMK AO2 T00721011
03949KAQV AQV20191211104012712/11/19 10:40:31  5-MIN KAQV 111640Z AUTO 02008KT 340V050 10SM CLR 08/M01 A3053 -180 53 -1000 020/08 340V050 RMK AO2 T00781011
03949KAQV AQV20191211104511112/11/19 10:45:31  5-MIN KAQV 111645Z AUTO 04007KT 10SM CLR 08/M01 A3053 -180 53 -1000 040/07 RMK AO2 T00781011
03949KAQV AQV20191211105011112/11/19 10:50:31  5-MIN KAQV 111650Z AUTO 05007KT 10SM CLR 08/M02 A3052 -170 51 -1000 050/07 RMK AO2 T00781017
03949KAQV AQV20191211105513412/11/19 10:55:31  5-MIN KAQV 111655Z AUTO 04008KT 360V070 10SM CLR 08/M02 A3052 -170 51 -1000 030/08 360V070 RMK AO2 SLP339 T00781017
03949KAQV AQV20191211110011112/11/19 11:00:31  5-MIN KAQV 111700Z AUTO 04007KT 10SM CLR 08/M02 A3052 -170 51 -1000 040/07 RMK AO2 T00781017
03949KAQV AQV20191211110511112/11/19 11:05:31  5-MIN KAQV 111705Z AUTO VRB06KT 10SM CLR 08/M02 A3052 -170 51 -1000 VRB/06 RMK AO2 T00781017
03949KAQV AQV20191211111011012/11/19 11:10:31  5-MIN KAQV 111710Z AUTO VRB06KT 10SM CLR 08/M01 A3052 -160 53 -900 VRB/06 RMK AO2 T00831006
03949KAQV AQV20191211111511012/11/19 11:15:31  5-MIN KAQV 111715Z AUTO 03006KT 10SM CLR 08/M01 A3051 -160 51 -900 030/06 RMK AO2 T00831011
03949KAQV AQV20191211112011012/11/19 11:20:31  5-MIN KAQV 111720Z AUTO VRB06KT 10SM CLR 08/M01 A3051 -160 51 -900 VRB/06 RMK AO2 T00831011
03949KAQV AQV20191211112512612/11/19 11:25:31  5-MIN KAQV 111725Z AUTO 01007KT 320V050 10SM CLR 09/M01 A3051 -160 51 -800 360/07 320V050 RMK AO2 T00891006
03949KAQV AQV20191211113012612/11/19 11:30:31  5-MIN KAQV 111730Z AUTO 03007KT 010V070 10SM CLR 09/M01 A3050 -160 51 -800 030/07 010V070 RMK AO2 T00891006
03949KAQV AQV20191211113511012/11/19 11:35:31  5-MIN KAQV 111735Z AUTO VRB06KT 10SM CLR 09/M01 A3050 -150 51 -800 VRB/06 RMK AO2 T00891006
03949KAQV AQV20191211114012612/11/19 11:40:31  5-MIN KAQV 111740Z AUTO 04007KT 360V090 10SM CLR 09/M01 A3050 -150 51 -800 030/07 360V090 RMK AO2 T00891006
03949KAQV AQV20191211114511012/11/19 11:45:31  5-MIN KAQV 111745Z AUTO 05005KT 10SM CLR 09/M01 A3050 -150 51 -800 050/05 RMK AO2 T00891006
03949KAQV AQV20191211115011012/11/19 11:50:31  5-MIN KAQV 111750Z AUTO VRB05KT 10SM CLR 09/M01 A3050 -150 49 -800 VRB/05 RMK AO2 T00891011
03949KAQV AQV20191211115514012/11/19 11:55:31  5-MIN KAQV 111755Z AUTO 01005KT 10SM CLR 10/00 A3050 -150 49 -700 010/05 RMK AO2 SLP329 60000 T01000000 10100 20028 51023
03949KAQV AQV20191211120011012/11/19 12:00:31  5-MIN KAQV 111800Z AUTO 07006KT 10SM CLR 09/M01 A3049 -150 49 -800 060/06 RMK AO2 T00941006
03949KAQV AQV20191211120511012/11/19 12:05:31  5-MIN KAQV 111805Z AUTO VRB06KT 10SM CLR 09/M01 A3049 -140 47 -800 VRB/06 RMK AO2 T00941011
03949KAQV AQV20191211121011012/11/19 12:10:31  5-MIN KAQV 111810Z AUTO 36007KT 10SM CLR 10/M01 A3048 -140 47 -700 360/07 RMK AO2 T01001006
03949KAQV AQV20191211121511012/11/19 12:15:31  5-MIN KAQV 111815Z AUTO 03008KT 10SM CLR 09/M01 A3048 -140 49 -800 030/08 RMK AO2 T00941006
03949KAQV AQV20191211122011012/11/19 12:20:31  5-MIN KAQV 111820Z AUTO 05006KT 10SM CLR 09/M01 A3048 -130 49 -700 040/06 RMK AO2 T00941006
03949KAQV AQV20191211122511012/11/19 12:25:31  5-MIN KAQV 111825Z AUTO VRB05KT 10SM CLR 10/M01 A3048 -130 47 -700 VRB/05 RMK AO2 T01001006
03949KAQV AQV20191211123010012/11/19 12:30:31  5-MIN KAQV 111830Z AUTO 10SM CLR 10/M01 A3048 -130 47 -700 M /M RMK AO2 T01001006
03949KAQV AQV20191211123511012/11/19 12:35:31  5-MIN KAQV 111835Z AUTO 02006KT 10SM CLR 10/M01 A3048 -130 47 -700 020/06 RMK AO2 T01001006
03949KAQV AQV20191211124011012/11/19 12:40:31  5-MIN KAQV 111840Z AUTO VRB05KT 10SM CLR 10/M01 A3048 -130 47 -700 VRB/05 RMK AO2 T01001006
03949KAQV AQV20191211124511012/11/19 12:45:31  5-MIN KAQV 111845Z AUTO 04003KT 10SM CLR 10/M01 A3047 -120 47 -700 040/03 RMK AO2 T01001006
03949KAQV AQV20191211125009912/11/19 12:50:31  5-MIN KAQV 111850Z AUTO 10SM CLR 11/00 A3047 -120 48 -600 M /M RMK AO2 T01060000
03949KAQV AQV20191211125511612/11/19 12:55:31  5-MIN KAQV 111855Z AUTO VRB05KT 10SM CLR 11/00 A3046 -120 48 -600 VRB/05 RMK AO2 SLP317 T01060000
03949KAQV AQV20191211130010912/11/19 13:00:31  5-MIN KAQV 111900Z AUTO 03008KT 10SM CLR 11/00 A3046 -120 48 -600 030/08 RMK AO2 T01060000
03949KAQV AQV20191211130510912/11/19 13:05:31  5-MIN KAQV 111905Z AUTO 01006KT 10SM CLR 11/00 A3046 -110 48 -600 010/06 RMK AO2 T01060000
03949KAQV AQV20191211131010912/11/19 13:10:31  5-MIN KAQV 111910Z AUTO VRB05KT 10SM CLR 11/00 A3046 -110 48 -600 VRB/05 RMK AO2 T01060000
03949KAQV AQV20191211131511012/11/19 13:15:31  5-MIN KAQV 111915Z AUTO 07005KT 10SM CLR 11/M01 A3046 -110 46 -600 060/05 RMK AO2 T01061006
03949KAQV AQV20191211132010912/11/19 13:20:31  5-MIN KAQV 111920Z AUTO VRB05KT 10SM CLR 11/00 A3045 -110 48 -600 VRB/05 RMK AO2 T01060000
03949KAQV AQV20191211132510912/11/19 13:25:31  5-MIN KAQV 111925Z AUTO VRB06KT 10SM CLR 11/00 A3045 -110 46 -500 VRB/06 RMK AO2 T01110000
03949KAQV AQV20191211133011012/11/19 13:30:31  5-MIN KAQV 111930Z AUTO 02004KT 10SM CLR 11/M01 A3045 -100 44 -500 010/04 RMK AO2 T01111006
03949KAQV AQV20191211133510912/11/19 13:35:31  5-MIN KAQV 111935Z AUTO VRB04KT 10SM CLR 12/00 A3045 -100 44 -400 VRB/04 RMK AO2 T01170000
03949KAQV AQV20191211134010912/11/19 13:40:31  5-MIN KAQV 111940Z AUTO VRB05KT 10SM CLR 11/00 A3044 -100 46 -500 VRB/05 RMK AO2 T01110000
03949KAQV AQV20191211134511012/11/19 13:45:31  5-MIN KAQV 111945Z AUTO VRB05KT 10SM CLR 12/M01 A3044 -100 42 -400 VRB/05 RMK AO2 T01171006
03949KAQV AQV20191211135010912/11/19 13:50:31  5-MIN KAQV 111950Z AUTO VRB05KT 10SM CLR 12/00 A3044 -100 44 -400 VRB/05 RMK AO2 T01170000
03949KAQV AQV20191211135513212/11/19 13:55:31  5-MIN KAQV 111955Z AUTO 02007KT 350V060 10SM CLR 12/00 A3044 -100 44 -400 020/07 350V060 RMK AO2 SLP309 T01170000
03949KAQV AQV20191211140010912/11/19 14:00:31  5-MIN KAQV 112000Z AUTO VRB06KT 10SM CLR 12/00 A3044 -100 44 -400 VRB/06 RMK AO2 T01170000
03949KAQV AQV20191211140510912/11/19 14:05:31  5-MIN KAQV 112005Z AUTO 03005KT 10SM CLR 12/M01 A3044 -90 42 -400 020/05 RMK AO2 T01171006
03949KAQV AQV20191211141010812/11/19 14:10:31  5-MIN KAQV 112010Z AUTO VRB06KT 10SM CLR 12/00 A3044 -90 44 -400 VRB/06 RMK AO2 T01170000
03949KAQV AQV20191211141510812/11/19 14:15:31  5-MIN KAQV 112015Z AUTO 04007KT 10SM CLR 12/00 A3044 -90 44 -400 040/07 RMK AO2 T01170000
03949KAQV AQV20191211142010812/11/19 14:20:31  5-MIN KAQV 112020Z AUTO 05005KT 10SM CLR 12/00 A3043 -90 44 -400 050/05 RMK AO2 T01170000
03949KAQV AQV20191211142510812/11/19 14:25:31  5-MIN KAQV 112025Z AUTO 03005KT 10SM CLR 12/00 A3043 -90 43 -400 030/05 RMK AO2 T01220000
03949KAQV AQV20191211143010812/11/19 14:30:31  5-MIN KAQV 112030Z AUTO 03006KT 10SM CLR 12/01 A3043 -90 44 -400 020/06 RMK AO2 T01220006
03949KAQV AQV20191211143510812/11/19 14:35:31  5-MIN KAQV 112035Z AUTO VRB05KT 10SM CLR 12/00 A3043 -90 43 -400 VRB/05 RMK AO2 T01220000
03949KAQV AQV20191211144010812/11/19 14:40:31  5-MIN KAQV 112040Z AUTO 01006KT 10SM CLR 12/00 A3044 -90 43 -400 360/06 RMK AO2 T01220000
03949KAQV AQV20191211144510812/11/19 14:45:31  5-MIN KAQV 112045Z AUTO VRB06KT 10SM CLR 12/00 A3044 -90 43 -400 VRB/06 RMK AO2 T01220000
03949KAQV AQV20191211145010812/11/19 14:50:31  5-MIN KAQV 112050Z AUTO 07006KT 10SM CLR 12/00 A3044 -90 43 -400 070/06 RMK AO2 T01220000
03949KAQV AQV20191211145512112/11/19 14:55:31  5-MIN KAQV 112055Z AUTO 05007KT 10SM CLR 12/00 A3043 -90 44 -400 050/07 RMK AO2 SLP307 T01170000 58009
03949KAQV AQV20191211150010912/11/19 15:00:31  5-MIN KAQV 112100Z AUTO VRB06KT 10SM CLR 12/M01 A3043 -90 42 -400 VRB/06 RMK AO2 T01171006
03949KAQV AQV20191211150510812/11/19 15:05:31  5-MIN KAQV 112105Z AUTO VRB05KT 10SM CLR 12/00 A3043 -80 43 -400 VRB/05 RMK AO2 T01220000
03949KAQV AQV20191211151010812/11/19 15:10:31  5-MIN KAQV 112110Z AUTO 03005KT 10SM CLR 12/00 A3043 -80 43 -400 020/05 RMK AO2 T01220000
03949KAQV AQV20191211151510812/11/19 15:15:31  5-MIN KAQV 112115Z AUTO 02006KT 10SM CLR 12/01 A3043 -90 44 -400 020/06 RMK AO2 T01220006
03949KAQV AQV20191211152010812/11/19 15:20:31  5-MIN KAQV 112120Z AUTO 03005KT 10SM CLR 12/00 A3043 -90 43 -400 020/05 RMK AO2 T01220000
03949KAQV AQV20191211152510812/11/19 15:25:31  5-MIN KAQV 112125Z AUTO VRB04KT 10SM CLR 12/00 A3043 -90 43 -400 VRB/04 RMK AO2 T01220000
03949KAQV AQV20191211153012412/11/19 15:30:31  5-MIN KAQV 112130Z AUTO 03007KT 010V080 10SM CLR 12/00 A3043 -90 43 -400 030/07 010V080 RMK AO2 T01220000
03949KAQV AQV20191211153510812/11/19 15:35:31  5-MIN KAQV 112135Z AUTO 02007KT 10SM CLR 12/00 A3043 -90 43 -400 020/07 RMK AO2 T01220000
03949KAQV AQV20191211154010812/11/19 15:40:31  5-MIN KAQV 112140Z AUTO VRB04KT 10SM CLR 12/00 A3043 -90 43 -400 VRB/04 RMK AO2 T01220000
03949KAQV AQV20191211154510812/11/19 15:45:31  5-MIN KAQV 112145Z AUTO 05005KT 10SM CLR 12/00 A3043 -80 44 -400 040/05 RMK AO2 T01170000
03949KAQV AQV20191211155010812/11/19 15:50:31  5-MIN KAQV 112150Z AUTO VRB04KT 10SM CLR 12/00 A3043 -80 44 -400 VRB/04 RMK AO2 T01170000
03949KAQV AQV20191211155511512/11/19 15:55:31  5-MIN KAQV 112155Z AUTO 02006KT 10SM CLR 12/00 A3042 -80 43 -300 020/06 RMK AO2 SLP304 T01220000
03949KAQV AQV20191211160010812/11/19 16:00:31  5-MIN KAQV 112200Z AUTO VRB06KT 10SM CLR 12/00 A3042 -80 44 -400 VRB/06 RMK AO2 T01170000
03949KAQV AQV20191211160510812/11/19 16:05:31  5-MIN KAQV 112205Z AUTO VRB05KT 10SM CLR 12/00 A3042 -80 44 -400 VRB/05 RMK AO2 T01170000
03949KAQV AQV20191211161010812/11/19 16:10:31  5-MIN KAQV 112210Z AUTO VRB05KT 10SM CLR 12/00 A3042 -80 44 -400 VRB/05 RMK AO2 T01170000
03949KAQV AQV20191211161510812/11/19 16:15:31  5-MIN KAQV 112215Z AUTO VRB04KT 10SM CLR 12/01 A3042 -80 46 -400 VRB/04 RMK AO2 T01170006
03949KAQV AQV20191211162010812/11/19 16:20:31  5-MIN KAQV 112220Z AUTO 02003KT 10SM CLR 12/01 A3043 -80 48 -400 020/03 RMK AO2 T01170011
03949KAQV AQV20191211162510812/11/19 16:25:31  5-MIN KAQV 112225Z AUTO VRB03KT 10SM CLR 12/01 A3043 -80 48 -400 VRB/03 RMK AO2 T01170011
03949KAQV AQV20191211163010812/11/19 16:30:31  5-MIN KAQV 112230Z AUTO 01003KT 10SM CLR 11/01 A3043 -80 50 -500 010/03 RMK AO2 T01110011
03949KAQV AQV20191211163510812/11/19 16:35:31  5-MIN KAQV 112235Z AUTO 00000KT 10SM CLR 11/02 A3043 -80 54 -600 000/00 RMK AO2 T01060017
03949KAQV AQV20191211164010812/11/19 16:40:31  5-MIN KAQV 112240Z AUTO 00000KT 10SM CLR 11/01 A3043 -80 52 -500 000/00 RMK AO2 T01060011
03949KAQV AQV20191211164510812/11/19 16:45:31  5-MIN KAQV 112245Z AUTO 00000KT 10SM CLR 10/02 A3043 -80 56 -600 000/00 RMK AO2 T01000017
03949KAQV AQV20191211165010812/11/19 16:50:31  5-MIN KAQV 112250Z AUTO 00000KT 10SM CLR 09/02 A3042 -80 60 -700 000/00 RMK AO2 T00940022
03949KAQV AQV20191211165511512/11/19 16:55:31  5-MIN KAQV 112255Z AUTO 00000KT 10SM CLR 09/02 A3043 -80 63 -800 000/00 RMK AO2 SLP305 T00890022
03949KAQV AQV20191211170010812/11/19 17:00:31  5-MIN KAQV 112300Z AUTO 00000KT 10SM CLR 08/03 A3043 -80 70 -800 000/00 RMK AO2 T00830033
03949KAQV AQV20191211170510812/11/19 17:05:31  5-MIN KAQV 112305Z AUTO 00000KT 10SM CLR 08/03 A3043 -80 70 -900 000/00 RMK AO2 T00780028
03949KAQV AQV20191211171010912/11/19 17:10:31  5-MIN KAQV 112310Z AUTO 00000KT 10SM CLR 07/03 A3043 -80 76 -1000 000/00 RMK AO2 T00720033
03949KAQV AQV20191211171510912/11/19 17:15:31  5-MIN KAQV 112315Z AUTO 00000KT 10SM CLR 07/03 A3043 -80 76 -1000 000/00 RMK AO2 T00720033
03949KAQV AQV20191211172010912/11/19 17:20:31  5-MIN KAQV 112320Z AUTO 00000KT 10SM CLR 07/04 A3043 -80 79 -1000 000/00 RMK AO2 T00720039
03949KAQV AQV20191211172510912/11/19 17:25:31  5-MIN KAQV 112325Z AUTO 00000KT 10SM CLR 07/04 A3043 -90 82 -1000 000/00 RMK AO2 T00670039
03949KAQV AQV20191211173010912/11/19 17:30:31  5-MIN KAQV 112330Z AUTO 00000KT 10SM CLR 06/03 A3043 -90 82 -1100 000/00 RMK AO2 T00610033
03949KAQV AQV20191211173510912/11/19 17:35:31  5-MIN KAQV 112335Z AUTO 00000KT 10SM CLR 06/03 A3043 -90 82 -1100 000/00 RMK AO2 T00610033
03949KAQV AQV20191211174010912/11/19 17:40:31  5-MIN KAQV 112340Z AUTO 00000KT 10SM CLR 06/03 A3043 -90 85 -1200 000/00 RMK AO2 T00560033
03949KAQV AQV20191211174510912/11/19 17:45:31  5-MIN KAQV 112345Z AUTO 00000KT 10SM CLR 06/03 A3043 -80 85 -1200 000/00 RMK AO2 T00560033
03949KAQV AQV20191211175010912/11/19 17:50:31  5-MIN KAQV 112350Z AUTO 00000KT 10SM CLR 05/03 A3043 -80 89 -1200 000/00 RMK AO2 T00500033
03949KAQV AQV20191211175513412/11/19 17:55:31  5-MIN KAQV 112355Z AUTO 02003KT 10SM CLR 06/03 A3043 -90 85 -1200 020/03 RMK AO2 SLP307 T00560033 10122 20050 56022
03949KAQV AQV20191211180010912/11/19 18:00:31  5-MIN KAQV 120000Z AUTO 02003KT 10SM CLR 06/03 A3043 -90 82 -1200 020/03 RMK AO2 T00560028
03949KAQV AQV20191211185511612/11/19 18:55:31  5-MIN KAQV 120055Z AUTO 00000KT 10SM CLR 06/02 A3044 -90 73 -1100 000/00 RMK AO2 SLP309 T00610017
03949KAQV AQV20191211190010912/11/19 19:00:31  5-MIN KAQV 120100Z AUTO 00000KT 10SM CLR 06/02 A3043 -90 73 -1100 000/00 RMK AO2 T00610017
03949KAQV AQV20191211190510912/11/19 19:05:31  5-MIN KAQV 120105Z AUTO 00000KT 10SM CLR 06/02 A3043 -90 73 -1100 000/00 RMK AO2 T00610017
03949KAQV AQV20191211191010912/11/19 19:10:31  5-MIN KAQV 120110Z AUTO 00000KT 10SM CLR 06/02 A3043 -90 76 -1200 000/00 RMK AO2 T00560017
03949KAQV AQV20191211191510912/11/19 19:15:31  5-MIN KAQV 120115Z AUTO 03003KT 10SM CLR 06/02 A3043 -90 76 -1200 020/03 RMK AO2 T00560017
03949KAQV AQV20191211192010912/11/19 19:20:31  5-MIN KAQV 120120Z AUTO 02003KT 10SM CLR 06/02 A3043 -90 76 -1200 020/03 RMK AO2 T00560017
03949KAQV AQV20191211192510912/11/19 19:25:31  5-MIN KAQV 120125Z AUTO 03003KT 10SM CLR 06/01 A3043 -90 70 -1100 030/03 RMK AO2 T00610011
03949KAQV AQV20191211193010912/11/19 19:30:31  5-MIN KAQV 120130Z AUTO 03004KT 10SM CLR 06/01 A3043 -80 70 -1100 030/04 RMK AO2 T00610011
03949KAQV AQV20191211193510912/11/19 19:35:31  5-MIN KAQV 120135Z AUTO 03004KT 10SM CLR 06/01 A3042 -80 70 -1100 030/04 RMK AO2 T00610011
03949KAQV AQV20191211194010912/11/19 19:40:31  5-MIN KAQV 120140Z AUTO VRB03KT 10SM CLR 06/01 A3042 -80 70 -1100 VRB/03 RMK AO2 T00610011
03949KAQV AQV20191211194510912/11/19 19:45:31  5-MIN KAQV 120145Z AUTO 00000KT 10SM CLR 06/01 A3042 -80 67 -1100 000/00 RMK AO2 T00610006
03949KAQV AQV20191211195010912/11/19 19:50:31  5-MIN KAQV 120150Z AUTO 00000KT 10SM CLR 06/01 A3042 -80 67 -1100 000/00 RMK AO2 T00610006
03949KAQV AQV20191211195511612/11/19 19:55:31  5-MIN KAQV 120155Z AUTO 04004KT 10SM CLR 06/01 A3042 -80 67 -1100 030/04 RMK AO2 SLP305 T00610006
03949KAQV AQV20191211200010912/11/19 20:00:31  5-MIN KAQV 120200Z AUTO 02003KT 10SM CLR 06/01 A3043 -80 67 -1100 020/03 RMK AO2 T00610006
03949KAQV AQV20191211200510912/11/19 20:05:31  5-MIN KAQV 120205Z AUTO VRB03KT 10SM CLR 06/01 A3042 -80 70 -1200 VRB/03 RMK AO2 T00560006
03949KAQV AQV20191211201010912/11/19 20:10:31  5-MIN KAQV 120210Z AUTO 00000KT 10SM CLR 06/01 A3042 -80 70 -1200 000/00 RMK AO2 T00560006
03949KAQV AQV20191211201510912/11/19 20:15:31  5-MIN KAQV 120215Z AUTO 00000KT 10SM CLR 05/01 A3042 -80 76 -1200 000/00 RMK AO2 T00500011
03949KAQV AQV20191211202010912/11/19 20:20:31  5-MIN KAQV 120220Z AUTO 00000KT 10SM CLR 04/01 A3042 -80 79 -1300 000/00 RMK AO2 T00440011
03949KAQV AQV20191211202510912/11/19 20:25:31  5-MIN KAQV 120225Z AUTO 00000KT 10SM CLR 04/01 A3042 -80 79 -1300 000/00 RMK AO2 T00440011
03949KAQV AQV20191211203010912/11/19 20:30:31  5-MIN KAQV 120230Z AUTO 00000KT 10SM CLR 04/01 A3042 -80 79 -1300 000/00 RMK AO2 T00440011
03949KAQV AQV20191211203510912/11/19 20:35:31  5-MIN KAQV 120235Z AUTO 00000KT 10SM CLR 04/01 A3043 -80 82 -1400 000/00 RMK AO2 T00390011
03949KAQV AQV20191211204010912/11/19 20:40:31  5-MIN KAQV 120240Z AUTO 00000KT 10SM CLR 04/01 A3043 -80 82 -1400 000/00 RMK AO2 T00390011
03949KAQV AQV20191211204510912/11/19 20:45:31  5-MIN KAQV 120245Z AUTO 00000KT 10SM CLR 04/01 A3043 -90 79 -1400 000/00 RMK AO2 T00390006
03949KAQV AQV20191211205010912/11/19 20:50:31  5-MIN KAQV 120250Z AUTO 00000KT 10SM CLR 04/01 A3043 -90 79 -1400 000/00 RMK AO2 T00390006
03949KAQV AQV20191211205512212/11/19 20:55:31  5-MIN KAQV 120255Z AUTO 00000KT 10SM CLR 04/01 A3043 -90 79 -1400 000/00 RMK AO2 SLP307 T00390006 55001
03949KAQV AQV20191211210010912/11/19 21:00:31  5-MIN KAQV 120300Z AUTO 00000KT 10SM CLR 03/01 A3043 -90 82 -1400 000/00 RMK AO2 T00330006
03949KAQV AQV20191211210510912/11/19 21:05:31  5-MIN KAQV 120305Z AUTO 00000KT 10SM CLR 03/01 A3043 -90 85 -1400 000/00 RMK AO2 T00330011
03949KAQV AQV20191211211010912/11/19 21:10:31  5-MIN KAQV 120310Z AUTO 00000KT 10SM CLR 03/01 A3043 -90 82 -1400 000/00 RMK AO2 T00330006
03949KAQV AQV20191211211510912/11/19 21:15:31  5-MIN KAQV 120315Z AUTO 00000KT 10SM CLR 03/01 A3043 -90 85 -1500 000/00 RMK AO2 T00280006
03949KAQV AQV20191211212010912/11/19 21:20:31  5-MIN KAQV 120320Z AUTO 00000KT 10SM CLR 03/01 A3043 -90 85 -1500 000/00 RMK AO2 T00280006
03949KAQV AQV20191211212510912/11/19 21:25:31  5-MIN KAQV 120325Z AUTO 00000KT 10SM CLR 03/01 A3043 -90 85 -1500 000/00 RMK AO2 T00280006
03949KAQV AQV20191211213010912/11/19 21:30:31  5-MIN KAQV 120330Z AUTO 00000KT 10SM CLR 03/01 A3043 -90 89 -1500 000/00 RMK AO2 T00280011
03949KAQV AQV20191211213510912/11/19 21:35:31  5-MIN KAQV 120335Z AUTO 00000KT 10SM CLR 03/01 A3043 -90 89 -1500 000/00 RMK AO2 T00280011
03949KAQV AQV20191211214010912/11/19 21:40:31  5-MIN KAQV 120340Z AUTO 00000KT 10SM CLR 03/01 A3043 -90 89 -1500 000/00 RMK AO2 T00280011
03949KAQV AQV20191211214510912/11/19 21:45:31  5-MIN KAQV 120345Z AUTO 00000KT 10SM CLR 03/01 A3043 -90 89 -1500 000/00 RMK AO2 T00280011
03949KAQV AQV20191211215010912/11/19 21:50:31  5-MIN KAQV 120350Z AUTO 00000KT 10SM CLR 02/01 A3043 -90 92 -1600 000/00 RMK AO2 T00220011
03949KAQV AQV20191211215511612/11/19 21:55:31  5-MIN KAQV 120355Z AUTO 00000KT 10SM CLR 02/01 A3043 -90 92 -1600 000/00 RMK AO2 SLP306 T00220011
03949KAQV AQV20191211220010912/11/19 22:00:31  5-MIN KAQV 120400Z AUTO 00000KT 10SM CLR 02/01 A3043 -80 92 -1600 000/00 RMK AO2 T00220011
03949KAQV AQV20191211220510912/11/19 22:05:31  5-MIN KAQV 120405Z AUTO 00000KT 10SM CLR 02/01 A3043 -80 92 -1600 000/00 RMK AO2 T00220011
03949KAQV AQV20191211221010912/11/19 22:10:31  5-MIN KAQV 120410Z AUTO 00000KT 10SM CLR 02/01 A3042 -80 92 -1600 000/00 RMK AO2 T00220011
03949KAQV AQV20191211221510912/11/19 22:15:31  5-MIN KAQV 120415Z AUTO 00000KT 10SM CLR 02/01 A3042 -80 92 -1600 000/00 RMK AO2 T00220011
03949KAQV AQV20191211222010912/11/19 22:20:31  5-MIN KAQV 120420Z AUTO 00000KT 10SM CLR 02/01 A3042 -80 92 -1600 000/00 RMK AO2 T00220011
03949KAQV AQV20191211222510912/11/19 22:25:31  5-MIN KAQV 120425Z AUTO 00000KT 10SM CLR 02/01 A3042 -80 92 -1600 000/00 RMK AO2 T00220011
03949KAQV AQV20191211223010912/11/19 22:30:31  5-MIN KAQV 120430Z AUTO 00000KT 10SM CLR 03/01 A3042 -80 89 -1500 000/00 RMK AO2 T00280011
03949KAQV AQV20191211223510912/11/19 22:35:31  5-MIN KAQV 120435Z AUTO 00000KT 10SM CLR 03/01 A3042 -80 85 -1500 000/00 RMK AO2 T00280006
03949KAQV AQV20191211224010912/11/19 22:40:31  5-MIN KAQV 120440Z AUTO 03003KT 10SM CLR 03/01 A3042 -80 82 -1400 030/03 RMK AO2 T00330006
03949KAQV AQV20191211224510912/11/19 22:45:31  5-MIN KAQV 120445Z AUTO 00000KT 10SM CLR 03/01 A3042 -80 82 -1400 000/00 RMK AO2 T00330006
03949KAQV AQV20191211225010912/11/19 22:50:31  5-MIN KAQV 120450Z AUTO 03003KT 10SM CLR 03/01 A3042 -80 85 -1500 020/03 RMK AO2 T00280006
03949KAQV AQV20191211225511612/11/19 22:55:31  5-MIN KAQV 120455Z AUTO 00000KT 10SM CLR 03/01 A3042 -80 85 -1500 000/00 RMK AO2 SLP304 T00280006
03949KAQV AQV20191211230010912/11/19 23:00:31  5-MIN KAQV 120500Z AUTO 00000KT 10SM CLR 02/01 A3042 -80 89 -1600 000/00 RMK AO2 T00220006
03949KAQV AQV20191211230510912/11/19 23:05:31  5-MIN KAQV 120505Z AUTO 00000KT 10SM CLR 03/01 A3042 -80 85 -1500 000/00 RMK AO2 T00280006
03949KAQV AQV20191211231010912/11/19 23:10:31  5-MIN KAQV 120510Z AUTO 00000KT 10SM CLR 02/01 A3042 -80 89 -1600 000/00 RMK AO2 T00220006
03949KAQV AQV20191211231510912/11/19 23:15:31  5-MIN KAQV 120515Z AUTO 00000KT 10SM CLR 02/01 A3042 -80 89 -1600 000/00 RMK AO2 T00220006
03949KAQV AQV20191211232010912/11/19 23:20:31  5-MIN KAQV 120520Z AUTO 00000KT 10SM CLR 02/01 A3042 -70 89 -1600 000/00 RMK AO2 T00220006
03949KAQV AQV20191211232510912/11/19 23:25:31  5-MIN KAQV 120525Z AUTO 00000KT 10SM CLR 02/01 A3041 -70 89 -1600 000/00 RMK AO2 T00220006
03949KAQV AQV20191211233010912/11/19 23:30:31  5-MIN KAQV 120530Z AUTO 00000KT 10SM CLR 02/01 A3041 -70 89 -1600 000/00 RMK AO2 T00220006
03949KAQV AQV20191211233510912/11/19 23:35:31  5-MIN KAQV 120535Z AUTO 00000KT 10SM CLR 02/00 A3041 -70 89 -1600 000/00 RMK AO2 T00170000
03949KAQV AQV20191211234010912/11/19 23:40:31  5-MIN KAQV 120540Z AUTO 00000KT 10SM CLR 02/00 A3041 -70 89 -1600 000/00 RMK AO2 T00170000
03949KAQV AQV20191211234510912/11/19 23:45:31  5-MIN KAQV 120545Z AUTO 00000KT 10SM CLR 02/00 A3041 -70 89 -1600 000/00 RMK AO2 T00170000
03949KAQV AQV20191211235010912/11/19 23:50:31  5-MIN KAQV 120550Z AUTO 00000KT 10SM CLR 02/00 A3040 -60 89 -1600 000/00 RMK AO2 T00170000
03949KAQV AQV20191211235514412/11/19 23:55:31  5-MIN KAQV 120555Z AUTO 00000KT 10SM CLR 02/00 A3040 -60 89 -1600 000/00 RMK AO2 SLP298 T00170000 10072 20017 401220017 52000
03949KAQV AQV20191212000010912/12/19 00:00:31  5-MIN KAQV 120600Z AUTO 00000KT 10SM CLR 02/00 A3040 -60 89 -1600 000/00 RMK AO2 T00170000
03949KAQV AQV20191212000510912/12/19 00:05:31  5-MIN KAQV 120605Z AUTO 00000KT 10SM CLR 02/00 A3040 -60 89 -1600 000/00 RMK AO2 T00170000
03949KAQV AQV20191212001010912/12/19 00:10:31  5-MIN KAQV 120610Z AUTO 00000KT 10SM CLR 02/00 A3040 -60 89 -1600 000/00 RMK AO2 T00170000
03949KAQV AQV20191212001510912/12/19 00:15:31  5-MIN KAQV 120615Z AUTO 02003KT 10SM CLR 02/00 A3040 -60 89 -1600 020/03 RMK AO2 T00170000
03949KAQV AQV20191212002010912/12/19 00:20:31  5-MIN KAQV 120620Z AUTO 00000KT 10SM CLR 02/00 A3040 -60 89 -1600 000/00 RMK AO2 T00170000
03949KAQV AQV20191212002510912/12/19 00:25:31  5-MIN KAQV 120625Z AUTO 00000KT 10SM CLR 01/00 A3040 -60 92 -1700 000/00 RMK AO2 T00110000
03949KAQV AQV20191212003010912/12/19 00:30:31  5-MIN KAQV 120630Z AUTO 02003KT 10SM CLR 01/00 A3040 -60 92 -1700 020/03 RMK AO2 T00110000
03949KAQV AQV20191212003510912/12/19 00:35:31  5-MIN KAQV 120635Z AUTO 00000KT 10SM CLR 01/00 A3040 -60 92 -1700 000/00 RMK AO2 T00110000
03949KAQV AQV20191212004010912/12/19 00:40:31  5-MIN KAQV 120640Z AUTO 00000KT 10SM CLR 01/00 A3040 -60 92 -1700 000/00 RMK AO2 T00110000
03949KAQV AQV20191212004510912/12/19 00:45:31  5-MIN KAQV 120645Z AUTO 00000KT 10SM CLR 01/00 A3039 -50 92 -1700 000/00 RMK AO2 T00110000
03949KAQV AQV20191212005010912/12/19 00:50:31  5-MIN KAQV 120650Z AUTO 00000KT 10SM CLR 01/00 A3039 -50 92 -1700 000/00 RMK AO2 T00110000
03949KAQV AQV20191212005511712/12/19 00:55:31  5-MIN KAQV 120655Z AUTO 00000KT 10SM CLR 01/M01 A3039 -50 89 -1700 000/00 RMK AO2 SLP292 T00111006
03949KAQV AQV20191212010011012/12/19 01:00:31  5-MIN KAQV 120700Z AUTO 00000KT 10SM CLR 01/M01 A3038 -40 89 -1700 000/00 RMK AO2 T00111006
03949KAQV AQV20191212010511012/12/19 01:05:31  5-MIN KAQV 120705Z AUTO 00000KT 10SM CLR 02/M01 A3038 -40 85 -1600 000/00 RMK AO2 T00171006
03949KAQV AQV20191212011011012/12/19 01:10:31  5-MIN KAQV 120710Z AUTO 00000KT 10SM CLR 01/M01 A3038 -40 89 -1700 000/00 RMK AO2 T00111006
03949KAQV AQV20191212011510912/12/19 01:15:31  5-MIN KAQV 120715Z AUTO 00000KT 10SM CLR 01/00 A3038 -40 92 -1700 000/00 RMK AO2 T00110000
03949KAQV AQV20191212012011012/12/19 01:20:31  5-MIN KAQV 120720Z AUTO VRB03KT 10SM CLR 01/M01 A3038 -40 89 -1700 VRB/03 RMK AO2 T00111006
03949KAQV AQV20191212012511012/12/19 01:25:31  5-MIN KAQV 120725Z AUTO 00000KT 10SM CLR 01/M01 A3038 -40 89 -1700 000/00 RMK AO2 T00111006
03949KAQV AQV20191212013011012/12/19 01:30:31  5-MIN KAQV 120730Z AUTO 00000KT 10SM CLR 01/M01 A3038 -40 89 -1700 000/00 RMK AO2 T00111006
03949KAQV AQV20191212013511012/12/19 01:35:31  5-MIN KAQV 120735Z AUTO 03003KT 10SM CLR 02/M01 A3038 -40 85 -1600 020/03 RMK AO2 T00171006
03949KAQV AQV20191212014011012/12/19 01:40:31  5-MIN KAQV 120740Z AUTO 02003KT 10SM CLR 02/M01 A3038 -40 85 -1600 010/03 RMK AO2 T00171006
03949KAQV AQV20191212014511012/12/19 01:45:31  5-MIN KAQV 120745Z AUTO 00000KT 10SM CLR 01/M01 A3038 -40 89 -1700 000/00 RMK AO2 T00111006
03949KAQV AQV20191212015011012/12/19 01:50:31  5-MIN KAQV 120750Z AUTO 00000KT 10SM CLR 01/M01 A3038 -40 89 -1700 000/00 RMK AO2 T00111006
03949KAQV AQV20191212015511712/12/19 01:55:31  5-MIN KAQV 120755Z AUTO 00000KT 10SM CLR 01/M01 A3037 -40 89 -1700 000/00 RMK AO2 SLP287 T00111006
03949KAQV AQV20191212020011012/12/19 02:00:31  5-MIN KAQV 120800Z AUTO 00000KT 10SM CLR 01/M01 A3037 -30 89 -1700 000/00 RMK AO2 T00111006
03949KAQV AQV20191212020511012/12/19 02:05:31  5-MIN KAQV 120805Z AUTO 00000KT 10SM CLR 01/M01 A3037 -30 89 -1700 000/00 RMK AO2 T00111006
03949KAQV AQV20191212021011012/12/19 02:10:31  5-MIN KAQV 120810Z AUTO 00000KT 10SM CLR 01/M01 A3037 -30 89 -1700 000/00 RMK AO2 T00111006
03949KAQV AQV20191212021511012/12/19 02:15:31  5-MIN KAQV 120815Z AUTO 00000KT 10SM CLR 01/M01 A3037 -30 89 -1700 000/00 RMK AO2 T00111006
03949KAQV AQV20191212022011012/12/19 02:20:31  5-MIN KAQV 120820Z AUTO 00000KT 10SM CLR 01/M01 A3037 -30 89 -1700 000/00 RMK AO2 T00111006
03949KAQV AQV20191212022511012/12/19 02:25:31  5-MIN KAQV 120825Z AUTO 00000KT 10SM CLR 01/M01 A3037 -30 89 -1700 000/00 RMK AO2 T00111006
03949KAQV AQV20191212023011012/12/19 02:30:31  5-MIN KAQV 120830Z AUTO 00000KT 10SM CLR 01/M01 A3037 -30 89 -1600 000/00 RMK AO2 T00111006
03949KAQV AQV20191212023511012/12/19 02:35:31  5-MIN KAQV 120835Z AUTO 07003KT 10SM CLR 02/M01 A3037 -30 82 -1500 070/03 RMK AO2 T00221006
03949KAQV AQV20191212024011012/12/19 02:40:31  5-MIN KAQV 120840Z AUTO 00000KT 10SM CLR 02/M01 A3036 -30 82 -1500 000/00 RMK AO2 T00221006
03949KAQV AQV20191212024511012/12/19 02:45:31  5-MIN KAQV 120845Z AUTO 00000KT 10SM CLR 02/M01 A3036 -20 82 -1500 000/00 RMK AO2 T00221006
03949KAQV AQV20191212025011012/12/19 02:50:31  5-MIN KAQV 120850Z AUTO 06003KT 10SM CLR 02/M01 A3036 -20 82 -1500 060/03 RMK AO2 T00221006
03949KAQV AQV20191212025512312/12/19 02:55:31  5-MIN KAQV 120855Z AUTO 00000KT 10SM CLR 02/M01 A3035 -20 82 -1500 000/00 RMK AO2 SLP280 T00221006 58009
03949KAQV AQV20191212030011012/12/19 03:00:31  5-MIN KAQV 120900Z AUTO 00000KT 10SM CLR 02/M01 A3035 -20 82 -1500 000/00 RMK AO2 T00221006
03949KAQV AQV20191212030511012/12/19 03:05:31  5-MIN KAQV 120905Z AUTO VRB03KT 10SM CLR 03/M01 A3035 -20 79 -1400 VRB/03 RMK AO2 T00281006
03949KAQV AQV20191212031011012/12/19 03:10:31  5-MIN KAQV 120910Z AUTO 00000KT 10SM CLR 03/M01 A3035 -20 79 -1400 000/00 RMK AO2 T00281006
03949KAQV AQV20191212031511012/12/19 03:15:31  5-MIN KAQV 120915Z AUTO 08003KT 10SM CLR 03/M01 A3035 -20 79 -1400 070/03 RMK AO2 T00281006
03949KAQV AQV20191212032011012/12/19 03:20:31  5-MIN KAQV 120920Z AUTO 00000KT 10SM CLR 02/M01 A3035 -10 82 -1500 000/00 RMK AO2 T00221006
03949KAQV AQV20191212032511012/12/19 03:25:31  5-MIN KAQV 120925Z AUTO VRB03KT 10SM CLR 02/M01 A3035 -10 82 -1500 VRB/03 RMK AO2 T00221006
03949KAQV AQV20191212033011012/12/19 03:30:31  5-MIN KAQV 120930Z AUTO VRB03KT 10SM CLR 02/M01 A3035 -10 82 -1500 VRB/03 RMK AO2 T00221006
03949KAQV AQV20191212033511012/12/19 03:35:31  5-MIN KAQV 120935Z AUTO 00000KT 10SM CLR 02/M01 A3035 -10 82 -1500 000/00 RMK AO2 T00221006
03949KAQV AQV20191212034011012/12/19 03:40:31  5-MIN KAQV 120940Z AUTO 00000KT 10SM CLR 02/M01 A3035 -10 82 -1500 000/00 RMK AO2 T00221006
03949KAQV AQV20191212034511012/12/19 03:45:31  5-MIN KAQV 120945Z AUTO 00000KT 10SM CLR 03/M01 A3035 -10 79 -1400 000/00 RMK AO2 T00281006
03949KAQV AQV20191212035011012/12/19 03:50:31  5-MIN KAQV 120950Z AUTO 00000KT 10SM CLR 03/M01 A3035 -10 79 -1400 000/00 RMK AO2 T00281006
03949KAQV AQV20191212035511712/12/19 03:55:31  5-MIN KAQV 120955Z AUTO VRB03KT 10SM CLR 02/M01 A3034 -10 82 -1500 VRB/03 RMK AO2 SLP277 T00221006
03949KAQV AQV20191212040011012/12/19 04:00:31  5-MIN KAQV 121000Z AUTO 00000KT 10SM CLR 02/M01 A3034 -10 82 -1500 000/00 RMK AO2 T00221006
03949KAQV AQV20191212040511012/12/19 04:05:31  5-MIN KAQV 121005Z AUTO 00000KT 10SM CLR 02/M01 A3034 -10 82 -1500 000/00 RMK AO2 T00221006
03949KAQV AQV20191212041010812/12/19 04:10:31  5-MIN KAQV 121010Z AUTO 00000KT 10SM CLR 02/M01 A3034 0 82 -1500 000/00 RMK AO2 T00221006
03949KAQV AQV20191212041510812/12/19 04:15:31  5-MIN KAQV 121015Z AUTO 00000KT 10SM CLR 02/M01 A3034 0 82 -1500 000/00 RMK AO2 T00221006
03949KAQV AQV20191212042010812/12/19 04:20:31  5-MIN KAQV 121020Z AUTO 00000KT 10SM CLR 02/M01 A3034 0 82 -1500 000/00 RMK AO2 T00221006
03949KAQV AQV20191212042510812/12/19 04:25:31  5-MIN KAQV 121025Z AUTO 00000KT 10SM CLR 02/M01 A3034 0 82 -1500 000/00 RMK AO2 T00221006
03949KAQV AQV20191212043010812/12/19 04:30:31  5-MIN KAQV 121030Z AUTO 00000KT 10SM CLR 02/M01 A3034 0 82 -1500 000/00 RMK AO2 T00221006
03949KAQV AQV20191212043510812/12/19 04:35:31  5-MIN KAQV 121035Z AUTO 00000KT 10SM CLR 02/M01 A3034 0 85 -1500 000/00 RMK AO2 T00171006
03949KAQV AQV20191212044010812/12/19 04:40:31  5-MIN KAQV 121040Z AUTO 00000KT 10SM CLR 02/M01 A3034 0 85 -1500 000/00 RMK AO2 T00171006
03949KAQV AQV20191212044510812/12/19 04:45:31  5-MIN KAQV 121045Z AUTO 00000KT 10SM CLR 01/M01 A3034 0 89 -1600 000/00 RMK AO2 T00111006
03949KAQV AQV20191212045010812/12/19 04:50:31  5-MIN KAQV 121050Z AUTO 00000KT 10SM CLR 01/M01 A3033 0 89 -1600 000/00 RMK AO2 T00111006
03949KAQV AQV20191212045511512/12/19 04:55:31  5-MIN KAQV 121055Z AUTO 00000KT 10SM CLR 01/M01 A3033 0 85 -1600 000/00 RMK AO2 SLP275 T00111011
03949KAQV AQV20191212050010812/12/19 05:00:31  5-MIN KAQV 121100Z AUTO 00000KT 10SM CLR 01/M01 A3033 0 85 -1600 000/00 RMK AO2 T00111011
03949KAQV AQV20191212050510812/12/19 05:05:31  5-MIN KAQV 121105Z AUTO 00000KT 10SM CLR 01/M01 A3033 0 89 -1700 000/00 RMK AO2 T00061011
03949KAQV AQV20191212051010812/12/19 05:10:31  5-MIN KAQV 121110Z AUTO 00000KT 10SM CLR 01/M01 A3033 0 89 -1700 000/00 RMK AO2 T00061011
03949KAQV AQV20191212051510812/12/19 05:15:31  5-MIN KAQV 121115Z AUTO 00000KT 10SM CLR 01/M01 A3033 0 89 -1700 000/00 RMK AO2 T00061011
03949KAQV AQV20191212052010812/12/19 05:20:31  5-MIN KAQV 121120Z AUTO 00000KT 10SM CLR 01/M01 A3033 0 85 -1600 000/00 RMK AO2 T00111011
03949KAQV AQV20191212052510812/12/19 05:25:31  5-MIN KAQV 121125Z AUTO 00000KT 10SM CLR 01/M01 A3033 0 85 -1600 000/00 RMK AO2 T00111011
03949KAQV AQV20191212053010812/12/19 05:30:31  5-MIN KAQV 121130Z AUTO 00000KT 10SM CLR 02/M01 A3033 0 82 -1500 000/00 RMK AO2 T00171011
03949KAQV AQV20191212053510812/12/19 05:35:31  5-MIN KAQV 121135Z AUTO 00000KT 10SM CLR 02/M01 A3033 0 82 -1500 000/00 RMK AO2 T00171011
03949KAQV AQV20191212054010812/12/19 05:40:31  5-MIN KAQV 121140Z AUTO 00000KT 10SM CLR 01/M01 A3033 0 85 -1600 000/00 RMK AO2 T00111011
03949KAQV AQV20191212054510812/12/19 05:45:31  5-MIN KAQV 121145Z AUTO 00000KT 10SM CLR 01/M01 A3032 0 85 -1600 000/00 RMK AO2 T00111011
03949KAQV AQV20191212055010812/12/19 05:50:31  5-MIN KAQV 121150Z AUTO 00000KT 10SM CLR 02/M01 A3033 0 82 -1500 000/00 RMK AO2 T00171011
03949KAQV AQV20191212055513312/12/19 05:55:31  5-MIN KAQV 121155Z AUTO 00000KT 10SM CLR 02/M01 A3033 0 82 -1500 000/00 RMK AO2 SLP272 T00171011 10028 20006 57017
03949KAQV AQV20191212060010812/12/19 06:00:31  5-MIN KAQV 121200Z AUTO 00000KT 10SM CLR 02/M01 A3033 0 82 -1500 000/00 RMK AO2 T00171011
03949KAQV AQV20191212060510812/12/19 06:05:31  5-MIN KAQV 121205Z AUTO 00000KT 10SM CLR 02/M01 A3033 0 82 -1500 000/00 RMK AO2 T00171011
03949KAQV AQV20191212061010912/12/19 06:10:31  5-MIN KAQV 121210Z AUTO 00000KT 10SM CLR 02/M01 A3032 10 82 -1500 000/00 RMK AO2 T00171011
03949KAQV AQV20191212061510912/12/19 06:15:31  5-MIN KAQV 121215Z AUTO VRB03KT 10SM CLR 02/M01 A3032 10 82 -1500 VRB/03 RMK AO2 T00171011
03949KAQV AQV20191212062010912/12/19 06:20:31  5-MIN KAQV 121220Z AUTO 00000KT 10SM CLR 02/M01 A3032 10 82 -1500 000/00 RMK AO2 T00171011
03949KAQV AQV20191212062510912/12/19 06:25:31  5-MIN KAQV 121225Z AUTO 00000KT 10SM CLR 02/M01 A3032 10 82 -1500 000/00 RMK AO2 T00171011
03949KAQV AQV20191212063010912/12/19 06:30:31  5-MIN KAQV 121230Z AUTO VRB03KT 10SM CLR 02/M01 A3032 10 78 -1500 VRB/03 RMK AO2 T00221011
03949KAQV AQV20191212063510912/12/19 06:35:31  5-MIN KAQV 121235Z AUTO 00000KT 10SM CLR 02/M01 A3032 10 78 -1500 000/00 RMK AO2 T00221011
03949KAQV AQV20191212064010912/12/19 06:40:31  5-MIN KAQV 121240Z AUTO 00000KT 10SM CLR 02/M01 A3032 10 78 -1500 000/00 RMK AO2 T00221011
03949KAQV AQV20191212064510912/12/19 06:45:31  5-MIN KAQV 121245Z AUTO 00000KT 10SM CLR 02/M01 A3032 10 78 -1500 000/00 RMK AO2 T00221011
03949KAQV AQV20191212065010812/12/19 06:50:31  5-MIN KAQV 121250Z AUTO 00000KT 10SM CLR 02/M01 A3032 0 78 -1500 000/00 RMK AO2 T00221011
03949KAQV AQV20191212065511512/12/19 06:55:31  5-MIN KAQV 121255Z AUTO 00000KT 10SM CLR 02/M01 A3033 0 78 -1500 000/00 RMK AO2 SLP272 T00221011
03949KAQV AQV20191212070010812/12/19 07:00:31  5-MIN KAQV 121300Z AUTO 00000KT 10SM CLR 02/M01 A3033 0 78 -1500 000/00 RMK AO2 T00221011
03949KAQV AQV20191212070510812/12/19 07:05:31  5-MIN KAQV 121305Z AUTO 06003KT 10SM CLR 02/M01 A3033 0 78 -1500 050/03 RMK AO2 T00221011
03949KAQV AQV20191212071010812/12/19 07:10:31  5-MIN KAQV 121310Z AUTO 00000KT 10SM CLR 02/M01 A3033 0 85 -1500 000/00 RMK AO2 T00171006
03949KAQV AQV20191212071510812/12/19 07:15:31  5-MIN KAQV 121315Z AUTO 00000KT 10SM CLR 02/M01 A3033 0 85 -1500 000/00 RMK AO2 T00171006
03949KAQV AQV20191212072010812/12/19 07:20:31  5-MIN KAQV 121320Z AUTO 00000KT 10SM CLR 02/M01 A3033 0 85 -1500 000/00 RMK AO2 T00171006
03949KAQV AQV20191212072510812/12/19 07:25:31  5-MIN KAQV 121325Z AUTO 00000KT 10SM CLR 02/M01 A3033 0 85 -1500 000/00 RMK AO2 T00171006
03949KAQV AQV20191212073010812/12/19 07:30:31  5-MIN KAQV 121330Z AUTO 05003KT 10SM CLR 02/M01 A3033 0 85 -1500 050/03 RMK AO2 T00171006
03949KAQV AQV20191212073510812/12/19 07:35:31  5-MIN KAQV 121335Z AUTO 00000KT 10SM CLR 02/M01 A3032 0 85 -1500 000/00 RMK AO2 T00171006
03949KAQV AQV20191212074010912/12/19 07:40:31  5-MIN KAQV 121340Z AUTO 00000KT 10SM CLR 02/M01 A3032 10 82 -1500 000/00 RMK AO2 T00221006
03949KAQV AQV20191212074510912/12/19 07:45:31  5-MIN KAQV 121345Z AUTO VRB03KT 10SM CLR 02/M01 A3032 10 82 -1500 VRB/03 RMK AO2 T00221006
03949KAQV AQV20191212075010912/12/19 07:50:31  5-MIN KAQV 121350Z AUTO 00000KT 10SM CLR 03/M01 A3032 10 79 -1400 000/00 RMK AO2 T00281006
03949KAQV AQV20191212075511612/12/19 07:55:31  5-MIN KAQV 121355Z AUTO 00000KT 10SM CLR 03/M01 A3032 10 79 -1400 000/00 RMK AO2 SLP270 T00281006
03949KAQV AQV20191212080010912/12/19 08:00:31  5-MIN KAQV 121400Z AUTO 00000KT 10SM CLR 03/M01 A3032 10 76 -1300 000/00 RMK AO2 T00331006
03949KAQV AQV20191212080510812/12/19 08:05:31  5-MIN KAQV 121405Z AUTO VRB03KT 10SM CLR 03/00 A3032 10 79 -1300 VRB/03 RMK AO2 T00330000
03949KAQV AQV20191212081010812/12/19 08:10:31  5-MIN KAQV 121410Z AUTO VRB03KT 10SM CLR 04/00 A3032 10 76 -1200 VRB/03 RMK AO2 T00390000
03949KAQV AQV20191212081510812/12/19 08:15:31  5-MIN KAQV 121415Z AUTO VRB03KT 10SM CLR 04/00 A3032 10 73 -1200 VRB/03 RMK AO2 T00440000
03949KAQV AQV20191212082010812/12/19 08:20:31  5-MIN KAQV 121420Z AUTO VRB03KT 10SM CLR 04/00 A3032 10 73 -1200 VRB/03 RMK AO2 T00440000
03949KAQV AQV20191212082510812/12/19 08:25:31  5-MIN KAQV 121425Z AUTO 07004KT 10SM CLR 04/00 A3032 10 73 -1200 070/04 RMK AO2 T00440000
03949KAQV AQV20191212083010812/12/19 08:30:31  5-MIN KAQV 121430Z AUTO VRB03KT 10SM CLR 05/00 A3032 10 70 -1100 VRB/03 RMK AO2 T00500000
03949KAQV AQV20191212083509812/12/19 08:35:31  5-MIN KAQV 121435Z AUTO 10SM CLR 05/00 A3032 10 70 -1100 M /M RMK AO2 T00500000
03949KAQV AQV20191212084010812/12/19 08:40:31  5-MIN KAQV 121440Z AUTO 07004KT 10SM CLR 06/00 A3032 10 67 -1000 070/04 RMK AO2 T00560000
03949KAQV AQV20191212084510812/12/19 08:45:31  5-MIN KAQV 121445Z AUTO VRB03KT 10SM CLR 06/00 A3032 10 67 -1000 VRB/03 RMK AO2 T00560000
03949KAQV AQV20191212085010812/12/19 08:50:31  5-MIN KAQV 121450Z AUTO VRB04KT 10SM CLR 06/00 A3032 10 67 -1000 VRB/04 RMK AO2 T00560000
03949KAQV AQV20191212085512112/12/19 08:55:31  5-MIN KAQV 121455Z AUTO VRB05KT 10SM CLR 06/00 A3032 10 65 -1000 VRB/05 RMK AO2 SLP270 T00610000 56009
03949KAQV AQV20191212090010812/12/19 09:00:31  5-MIN KAQV 121500Z AUTO 06005KT 10SM CLR 06/00 A3032 10 65 -1000 060/05 RMK AO2 T00610000
03949KAQV AQV20191212090510812/12/19 09:05:31  5-MIN KAQV 121505Z AUTO VRB04KT 10SM CLR 06/00 A3032 10 65 -1000 VRB/04 RMK AO2 T00610000
03949KAQV AQV20191212091010712/12/19 09:10:31  5-MIN KAQV 121510Z AUTO VRB03KT 10SM CLR 07/00 A3032 10 62 -900 VRB/03 RMK AO2 T00670000
03949KAQV AQV20191212091510712/12/19 09:15:31  5-MIN KAQV 121515Z AUTO 00000KT 10SM CLR 07/00 A3032 10 62 -900 000/00 RMK AO2 T00670000
03949KAQV AQV20191212092009712/12/19 09:20:31  5-MIN KAQV 121520Z AUTO 10SM CLR 07/00 A3032 10 62 -900 M /M RMK AO2 T00670000
03949KAQV AQV20191212092510712/12/19 09:25:31  5-MIN KAQV 121525Z AUTO VRB03KT 10SM CLR 07/01 A3032 10 62 -800 VRB/03 RMK AO2 T00720006
03949KAQV AQV20191212093010712/12/19 09:30:31  5-MIN KAQV 121530Z AUTO 08006KT 10SM CLR 07/00 A3032 10 60 -800 070/06 RMK AO2 T00720000
03949KAQV AQV20191212093510712/12/19 09:35:31  5-MIN KAQV 121535Z AUTO VRB04KT 10SM CLR 08/00 A3032 10 58 -800 VRB/04 RMK AO2 T00780000
03949KAQV AQV20191212094010712/12/19 09:40:31  5-MIN KAQV 121540Z AUTO 09004KT 10SM CLR 08/00 A3031 10 58 -800 080/04 RMK AO2 T00780000
03949KAQV AQV20191212094510712/12/19 09:45:31  5-MIN KAQV 121545Z AUTO VRB04KT 10SM CLR 08/00 A3031 10 55 -700 VRB/04 RMK AO2 T00830000
03949KAQV AQV20191212095010712/12/19 09:50:31  5-MIN KAQV 121550Z AUTO VRB03KT 10SM CLR 08/00 A3031 10 58 -800 VRB/03 RMK AO2 T00780000
03949KAQV AQV20191212095511412/12/19 09:55:31  5-MIN KAQV 121555Z AUTO VRB03KT 10SM CLR 08/00 A3031 20 55 -700 VRB/03 RMK AO2 SLP267 T00830000
03949KAQV AQV20191212100010712/12/19 10:00:31  5-MIN KAQV 121600Z AUTO 00000KT 10SM CLR 08/00 A3031 20 55 -700 000/00 RMK AO2 T00830000
03949KAQV AQV20191212100510712/12/19 10:05:31  5-MIN KAQV 121605Z AUTO 00000KT 10SM CLR 09/00 A3031 20 53 -600 000/00 RMK AO2 T00890000
03949KAQV AQV20191212101010712/12/19 10:10:31  5-MIN KAQV 121610Z AUTO VRB03KT 10SM CLR 09/00 A3031 20 51 -600 VRB/03 RMK AO2 T00940000
03949KAQV AQV20191212101510712/12/19 10:15:31  5-MIN KAQV 121615Z AUTO 00000KT 10SM CLR 09/00 A3031 20 53 -600 000/00 RMK AO2 T00890000
03949KAQV AQV20191212102010712/12/19 10:20:31  5-MIN KAQV 121620Z AUTO 00000KT 10SM CLR 09/00 A3031 20 51 -600 000/00 RMK AO2 T00940000
03949KAQV AQV20191212102510712/12/19 10:25:31  5-MIN KAQV 121625Z AUTO 00000KT 10SM CLR 10/00 A3031 20 49 -500 000/00 RMK AO2 T01000000
03949KAQV AQV20191212103010712/12/19 10:30:31  5-MIN KAQV 121630Z AUTO 00000KT 10SM CLR 10/00 A3031 20 49 -500 000/00 RMK AO2 T01000000
03949KAQV AQV20191212103510712/12/19 10:35:31  5-MIN KAQV 121635Z AUTO VRB04KT 10SM CLR 10/00 A3031 20 49 -500 VRB/04 RMK AO2 T01000000
03949KAQV AQV20191212104010712/12/19 10:40:31  5-MIN KAQV 121640Z AUTO VRB03KT 10SM CLR 10/00 A3031 20 49 -500 VRB/03 RMK AO2 T01000000
03949KAQV AQV20191212104510712/12/19 10:45:31  5-MIN KAQV 121645Z AUTO 00000KT 10SM CLR 10/00 A3031 20 49 -500 000/00 RMK AO2 T01000000
03949KAQV AQV20191212105010712/12/19 10:50:31  5-MIN KAQV 121650Z AUTO 00000KT 10SM CLR 11/00 A3030 20 46 -300 000/00 RMK AO2 T01110000
03949KAQV AQV20191212105511412/12/19 10:55:31  5-MIN KAQV 121655Z AUTO 00000KT 10SM CLR 11/00 A3030 30 46 -300 000/00 RMK AO2 SLP261 T01110000
03949KAQV AQV20191212110010712/12/19 11:00:31  5-MIN KAQV 121700Z AUTO 00000KT 10SM CLR 12/01 A3029 40 46 -300 000/00 RMK AO2 T01170006
03949KAQV AQV20191212110510412/12/19 11:05:31  5-MIN KAQV 121705Z AUTO 10SM CLR 11/01 A3028 50 50 -300 M /M RMK AO2 PRESFR T01110011
03949KAQV AQV20191212111010712/12/19 11:10:31  5-MIN KAQV 121710Z AUTO 07004KT 10SM CLR 12/01 A3027 50 48 -200 070/04 RMK AO2 T01170011
03949KAQV AQV20191212111510712/12/19 11:15:31  5-MIN KAQV 121715Z AUTO VRB03KT 10SM CLR 12/01 A3027 50 48 -200 VRB/03 RMK AO2 T01170011
03949KAQV AQV20191212112010712/12/19 11:20:31  5-MIN KAQV 121720Z AUTO VRB03KT 10SM CLR 12/01 A3027 50 48 -200 VRB/03 RMK AO2 T01170011
03949KAQV AQV20191212112510712/12/19 11:25:31  5-MIN KAQV 121725Z AUTO 00000KT 10SM CLR 12/02 A3027 60 50 -200 000/00 RMK AO2 T01170017
03949KAQV AQV20191212113010712/12/19 11:30:31  5-MIN KAQV 121730Z AUTO 00000KT 10SM CLR 13/02 A3026 70 48 -100 000/00 RMK AO2 T01280022
03949KAQV AQV20191212113511412/12/19 11:35:31  5-MIN KAQV 121735Z AUTO VRB03KT 10SM CLR 12/02 A3025 70 48 -200 VRB/03 RMK AO2 PRESFR T01220017
03949KAQV AQV20191212114011412/12/19 11:40:31  5-MIN KAQV 121740Z AUTO 18003KT 10SM CLR 13/02 A3025 80 46 -100 180/03 RMK AO2 PRESFR T01280017
03949KAQV AQV20191212114511112/12/19 11:45:31  5-MIN KAQV 121745Z AUTO VRB03KT 10SM CLR 13/02 A3024 80 46 0 VRB/03 RMK AO2 PRESFR T01330022
03949KAQV AQV20191212115011112/12/19 11:50:31  5-MIN KAQV 121750Z AUTO 12003KT 10SM CLR 13/02 A3024 90 46 0 120/03 RMK AO2 PRESFR T01330022
03949KAQV AQV20191212115513212/12/19 11:55:31  5-MIN KAQV 121755Z AUTO 00000KT 10SM CLR 13/02 A3023 90 48 -100 000/00 RMK AO2 SLP239 T01280022 10133 20017 56002
03949KAQV AQV20191212120010412/12/19 12:00:31  5-MIN KAQV 121800Z AUTO 00000KT 10SM CLR 13/03 A3023 90 48 0 000/00 RMK AO2 T01330028
03949KAQV AQV20191212120510512/12/19 12:05:31  5-MIN KAQV 121805Z AUTO VRB03KT 10SM CLR 14/03 A3022 100 47 0 VRB/03 RMK AO2 T01390028
03949KAQV AQV20191212121010512/12/19 12:10:31  5-MIN KAQV 121810Z AUTO VRB03KT 10SM CLR 13/03 A3022 100 48 0 VRB/03 RMK AO2 T01330028
03949KAQV AQV20191212121511212/12/19 12:15:31  5-MIN KAQV 121815Z AUTO 00000KT 10SM CLR 13/03 A3021 110 48 0 000/00 RMK AO2 PRESFR T01330028
03949KAQV AQV20191212122010512/12/19 12:20:31  5-MIN KAQV 121820Z AUTO 17004KT 10SM CLR 14/03 A3021 110 48 0 170/04 RMK AO2 T01390033
03949KAQV AQV20191212122510512/12/19 12:25:31  5-MIN KAQV 121825Z AUTO 00000KT 10SM CLR 14/03 A3020 110 48 0 000/00 RMK AO2 T01390033
03949KAQV AQV20191212123010712/12/19 12:30:31  5-MIN KAQV 121830Z AUTO 00000KT 10SM CLR 14/03 A3020 120 47 100 000/00 RMK AO2 T01440033
03949KAQV AQV20191212123510712/12/19 12:35:31  5-MIN KAQV 121835Z AUTO 00000KT 10SM CLR 14/03 A3020 120 47 100 000/00 RMK AO2 T01440033
03949KAQV AQV20191212124010712/12/19 12:40:31  5-MIN KAQV 121840Z AUTO VRB03KT 10SM CLR 14/03 A3020 120 47 100 VRB/03 RMK AO2 T01440033
03949KAQV AQV20191212124510712/12/19 12:45:31  5-MIN KAQV 121845Z AUTO VRB04KT 10SM CLR 14/03 A3020 120 47 100 VRB/04 RMK AO2 T01440033
03949KAQV AQV20191212125010712/12/19 12:50:31  5-MIN KAQV 121850Z AUTO VRB03KT 10SM CLR 14/04 A3020 120 49 100 VRB/03 RMK AO2 T01440039
03949KAQV AQV20191212125511412/12/19 12:55:31  5-MIN KAQV 121855Z AUTO VRB03KT 10SM CLR 14/04 A3020 120 49 100 VRB/03 RMK AO2 SLP227 T01440039
03949KAQV AQV20191212130010712/12/19 13:00:31  5-MIN KAQV 121900Z AUTO 00000KT 10SM CLR 14/04 A3020 120 49 100 000/00 RMK AO2 T01440039
03949KAQV AQV20191212130510712/12/19 13:05:31  5-MIN KAQV 121905Z AUTO 00000KT 10SM CLR 15/04 A3020 120 47 200 000/00 RMK AO2 T01500039
03949KAQV AQV20191212131010712/12/19 13:10:31  5-MIN KAQV 121910Z AUTO 00000KT 10SM CLR 15/04 A3019 130 47 200 000/00 RMK AO2 T01500039
03949KAQV AQV20191212131510712/12/19 13:15:31  5-MIN KAQV 121915Z AUTO 36003KT 10SM CLR 15/04 A3019 130 47 200 360/03 RMK AO2 T01500039
03949KAQV AQV20191212132010712/12/19 13:20:31  5-MIN KAQV 121920Z AUTO 00000KT 10SM CLR 15/04 A3018 130 47 200 000/00 RMK AO2 T01500039
03949KAQV AQV20191212132510712/12/19 13:25:31  5-MIN KAQV 121925Z AUTO 00000KT 10SM CLR 15/04 A3018 140 47 200 000/00 RMK AO2 T01500039
03949KAQV AQV20191212133010712/12/19 13:30:31  5-MIN KAQV 121930Z AUTO 00000KT 10SM CLR 16/04 A3018 140 47 300 000/00 RMK AO2 T01560044
03949KAQV AQV20191212133510712/12/19 13:35:31  5-MIN KAQV 121935Z AUTO 00000KT 10SM CLR 15/04 A3018 140 47 200 000/00 RMK AO2 T01500039
03949KAQV AQV20191212134010712/12/19 13:40:31  5-MIN KAQV 121940Z AUTO 18003KT 10SM CLR 15/04 A3018 140 49 200 180/03 RMK AO2 T01500044
03949KAQV AQV20191212134510712/12/19 13:45:31  5-MIN KAQV 121945Z AUTO 00000KT 10SM CLR 15/04 A3018 140 49 200 000/00 RMK AO2 T01500044
03949KAQV AQV20191212135010712/12/19 13:50:31  5-MIN KAQV 121950Z AUTO 00000KT 10SM CLR 16/05 A3017 140 49 300 000/00 RMK AO2 T01560050
03949KAQV AQV20191212135511412/12/19 13:55:31  5-MIN KAQV 121955Z AUTO 00000KT 10SM CLR 16/04 A3017 140 47 300 000/00 RMK AO2 SLP219 T01560044
03949KAQV AQV20191212140010712/12/19 14:00:31  5-MIN KAQV 122000Z AUTO 00000KT 10SM CLR 15/04 A3017 140 49 200 000/00 RMK AO2 T01500044
03949KAQV AQV20191212140510712/12/19 14:05:31  5-MIN KAQV 122005Z AUTO 00000KT 10SM CLR 15/04 A3017 140 49 200 000/00 RMK AO2 T01500044
03949KAQV AQV20191212141010712/12/19 14:10:31  5-MIN KAQV 122010Z AUTO VRB03KT 10SM CLR 16/05 A3016 150 49 300 VRB/03 RMK AO2 T01560050
03949KAQV AQV20191212141510712/12/19 14:15:31  5-MIN KAQV 122015Z AUTO 00000KT 10SM CLR 15/04 A3016 150 49 200 000/00 RMK AO2 T01500044
03949KAQV AQV20191212142010712/12/19 14:20:31  5-MIN KAQV 122020Z AUTO 17003KT 10SM CLR 15/04 A3017 150 49 200 160/03 RMK AO2 T01500044
03949KAQV AQV20191212142510712/12/19 14:25:31  5-MIN KAQV 122025Z AUTO 00000KT 10SM CLR 15/04 A3016 160 49 200 000/00 RMK AO2 T01500044
03949KAQV AQV20191212143010712/12/19 14:30:31  5-MIN KAQV 122030Z AUTO 00000KT 10SM CLR 15/05 A3016 150 51 200 000/00 RMK AO2 T01500050
03949KAQV AQV20191212143510712/12/19 14:35:31  5-MIN KAQV 122035Z AUTO VRB03KT 10SM CLR 15/05 A3016 150 51 200 VRB/03 RMK AO2 T01500050
03949KAQV AQV20191212144012312/12/19 14:40:31  5-MIN KAQV 122040Z AUTO 00000KT 10SM -RA CLR 15/05 A3016 160 51 200 000/00 RMK AO2 RAB39 P0000 T01500050
03949KAQV AQV20191212144512312/12/19 14:45:31  5-MIN KAQV 122045Z AUTO 00000KT 10SM -RA CLR 16/05 A3016 160 49 300 000/00 RMK AO2 RAB39 P0000 T01560050
03949KAQV AQV20191212145012212/12/19 14:50:31  5-MIN KAQV 122050Z AUTO VRB03KT 10SM CLR 16/05 A3016 150 49 300 VRB/03 RMK AO2 RAB39E49 P0000 T01560050
03949KAQV AQV20191212145514112/12/19 14:55:31  5-MIN KAQV 122055Z AUTO 00000KT 10SM CLR 16/05 A3016 150 49 300 000/00 RMK AO2 RAB39E49 SLP215 P0000 60000 T01560050 58030
03949KAQV AQV20191212150012112/12/19 15:00:31  5-MIN KAQV 122100Z AUTO VRB04KT 10SM CLR 16/05 A3016 150 49 300 VRB/04 RMK AO2 RAE2058 P0000 T01560050
03949KAQV AQV20191212150512112/12/19 15:05:31  5-MIN KAQV 122105Z AUTO VRB04KT 10SM CLR 16/06 A3017 150 51 300 VRB/04 RMK AO2 RAE2058 P0000 T01560056
03949KAQV AQV20191212151012112/12/19 15:10:31  5-MIN KAQV 122110Z AUTO 00000KT 10SM CLR 15/05 A3016 150 51 200 000/00 RMK AO2 RAE2058 P0000 T01500050
03949KAQV AQV20191212151512112/12/19 15:15:31  5-MIN KAQV 122115Z AUTO 00000KT 10SM CLR 15/05 A3016 150 51 200 000/00 RMK AO2 RAE2058 P0000 T01500050
03949KAQV AQV20191212152012112/12/19 15:20:31  5-MIN KAQV 122120Z AUTO 00000KT 10SM CLR 15/06 A3016 160 53 200 000/00 RMK AO2 RAE2058 P0000 T01500056
03949KAQV AQV20191212152512112/12/19 15:25:31  5-MIN KAQV 122125Z AUTO 00000KT 10SM CLR 15/05 A3016 160 51 200 000/00 RMK AO2 RAE2058 P0000 T01500050
03949KAQV AQV20191212153012112/12/19 15:30:31  5-MIN KAQV 122130Z AUTO 17003KT 10SM CLR 15/06 A3016 160 53 200 160/03 RMK AO2 RAE2058 P0000 T01500056
03949KAQV AQV20191212153512112/12/19 15:35:31  5-MIN KAQV 122135Z AUTO 00000KT 10SM CLR 15/06 A3016 160 53 200 000/00 RMK AO2 RAE2058 P0000 T01500056
03949KAQV AQV20191212154012112/12/19 15:40:31  5-MIN KAQV 122140Z AUTO 00000KT 10SM CLR 14/06 A3015 160 55 200 000/00 RMK AO2 RAE2058 P0000 T01440056
03949KAQV AQV20191212154512112/12/19 15:45:31  5-MIN KAQV 122145Z AUTO 00000KT 10SM CLR 14/06 A3015 170 57 200 000/00 RMK AO2 RAE2058 P0000 T01440061
03949KAQV AQV20191212155012112/12/19 15:50:31  5-MIN KAQV 122150Z AUTO 00000KT 10SM CLR 14/06 A3015 160 57 200 000/00 RMK AO2 RAE2058 P0000 T01440061
03949KAQV AQV20191212155513512/12/19 15:55:31  5-MIN KAQV 122155Z AUTO 00000KT 10SM -RA CLR 14/07 A3015 160 59 200 000/00 RMK AO2 RAE2058B55 SLP212 P0000 T01440067
03949KAQV AQV20191212160011712/12/19 16:00:31  5-MIN KAQV 122200Z AUTO 00000KT 10SM -RA CLR 14/07 A3015 170 61 200 000/00 RMK AO2 P0000 T01440072
03949KAQV AQV20191212160511912/12/19 16:05:31  5-MIN KAQV 122205Z AUTO 00000KT 10SM CLR 14/07 A3015 160 64 100 000/00 RMK AO2 RAE03 P0000 T01390072
03949KAQV AQV20191212161011912/12/19 16:10:31  5-MIN KAQV 122210Z AUTO 00000KT 10SM CLR 14/07 A3016 160 64 100 000/00 RMK AO2 RAE03 P0000 T01390072
03949KAQV AQV20191212161511712/12/19 16:15:31  5-MIN KAQV 122215Z AUTO 00000KT 10SM CLR 13/08 A3016 160 69 0 000/00 RMK AO2 RAE03 P0000 T01330078
03949KAQV AQV20191212162011712/12/19 16:20:31  5-MIN KAQV 122220Z AUTO 00000KT 10SM CLR 13/08 A3015 160 69 0 000/00 RMK AO2 RAE03 P0000 T01330078
03949KAQV AQV20191212162511712/12/19 16:25:31  5-MIN KAQV 122225Z AUTO 00000KT 10SM CLR 13/08 A3015 160 71 0 000/00 RMK AO2 RAE03 P0000 T01330083
03949KAQV AQV20191212163011712/12/19 16:30:31  5-MIN KAQV 122230Z AUTO 00000KT 10SM CLR 13/08 A3015 160 74 0 000/00 RMK AO2 RAE03 P0000 T01280083
03949KAQV AQV20191212163511712/12/19 16:35:31  5-MIN KAQV 122235Z AUTO 00000KT 10SM CLR 12/08 A3015 170 77 0 000/00 RMK AO2 RAE03 P0000 T01220083
03949KAQV AQV20191212164011712/12/19 16:40:31  5-MIN KAQV 122240Z AUTO 00000KT 10SM CLR 12/08 A3015 170 77 0 000/00 RMK AO2 RAE03 P0000 T01220083
03949KAQV AQV20191212164511712/12/19 16:45:31  5-MIN KAQV 122245Z AUTO 00000KT 10SM CLR 12/08 A3015 170 77 0 000/00 RMK AO2 RAE03 P0000 T01220083
03949KAQV AQV20191212165012012/12/19 16:50:31  5-MIN KAQV 122250Z AUTO 00000KT 10SM CLR 12/08 A3015 170 80 -100 000/00 RMK AO2 RAE03 P0000 T01170083
03949KAQV AQV20191212165512712/12/19 16:55:31  5-MIN KAQV 122255Z AUTO 00000KT 10SM CLR 12/08 A3015 170 80 -100 000/00 RMK AO2 RAE03 SLP210 P0000 T01170083
03949KAQV AQV20191212170011112/12/19 17:00:31  5-MIN KAQV 122300Z AUTO 00000KT 10SM FEW120 11/08 A3014 170 83 -200 000/00 RMK AO2 T01110083
03949KAQV AQV20191212170511112/12/19 17:05:31  5-MIN KAQV 122305Z AUTO 00000KT 10SM SCT120 12/08 A3014 170 80 -100 000/00 RMK AO2 T01170083
03949KAQV AQV20191212171011112/12/19 17:10:31  5-MIN KAQV 122310Z AUTO 00000KT 10SM BKN120 11/08 A3014 170 80 -200 000/00 RMK AO2 T01110078
03949KAQV AQV20191212171511112/12/19 17:15:31  5-MIN KAQV 122315Z AUTO 00000KT 10SM BKN120 11/08 A3015 170 80 -200 000/00 RMK AO2 T01110078
03949KAQV AQV20191212172011112/12/19 17:20:31  5-MIN KAQV 122320Z AUTO 00000KT 10SM SCT120 11/08 A3015 170 83 -200 000/00 RMK AO2 T01060078
03949KAQV AQV20191212172511112/12/19 17:25:31  5-MIN KAQV 122325Z AUTO 00000KT 10SM SCT120 11/08 A3015 170 83 -200 000/00 RMK AO2 T01060078
03949KAQV AQV20191212173012712/12/19 17:30:31  5-MIN KAQV 122330Z AUTO 00000KT 10SM -RA BKN110 11/08 A3015 170 83 -200 000/00 RMK AO2 RAB30 P0000 T01060078
03949KAQV AQV20191212173512612/12/19 17:35:31  5-MIN KAQV 122335Z AUTO 00000KT 10SM BKN110 11/08 A3014 170 83 -200 000/00 RMK AO2 RAB30E35 P0000 T01060078
03949KAQV AQV20191212174012612/12/19 17:40:31  5-MIN KAQV 122340Z AUTO 00000KT 10SM SCT110 11/08 A3014 170 83 -200 000/00 RMK AO2 RAB30E35 P0000 T01060078
03949KAQV AQV20191212174512612/12/19 17:45:31  5-MIN KAQV 122345Z AUTO 00000KT 10SM FEW110 10/08 A3014 170 86 -300 000/00 RMK AO2 RAB30E35 P0000 T01000078
03949KAQV AQV20191212175012612/12/19 17:50:31  5-MIN KAQV 122350Z AUTO 00000KT 10SM FEW110 10/07 A3014 170 83 -300 000/00 RMK AO2 RAB30E35 P0000 T01000072
03949KAQV AQV20191212175515712/12/19 17:55:31  5-MIN KAQV 122355Z AUTO 00000KT 10SM FEW110 09/07 A3014 180 86 -400 000/00 RMK AO2 RAB30E35 SLP208 P0000 60000 T00940072 10161 20094 56023
03949KAQV AQV20191212180011112/12/19 18:00:31  5-MIN KAQV 130000Z AUTO 00000KT 10SM FEW110 09/07 A3014 180 86 -400 000/00 RMK AO2 T00940072
03949KAQV AQV20191212180510812/12/19 18:05:31  5-MIN KAQV 130005Z AUTO 00000KT 10SM CLR 09/07 A3014 180 86 -400 000/00 RMK AO2 T00940072
03949KAQV AQV20191212181010812/12/19 18:10:31  5-MIN KAQV 130010Z AUTO 00000KT 10SM CLR 09/07 A3013 180 89 -400 000/00 RMK AO2 T00890072
03949KAQV AQV20191212181510812/12/19 18:15:31  5-MIN KAQV 130015Z AUTO 00000KT 10SM CLR 09/07 A3013 180 89 -400 000/00 RMK AO2 T00890072
03949KAQV AQV20191212182010812/12/19 18:20:31  5-MIN KAQV 130020Z AUTO 00000KT 10SM CLR 09/07 A3013 180 89 -400 000/00 RMK AO2 T00890072
03949KAQV AQV20191212182511112/12/19 18:25:31  5-MIN KAQV 130025Z AUTO 00000KT 10SM FEW120 08/07 A3013 180 93 -500 000/00 RMK AO2 T00830072
03949KAQV AQV20191212183011112/12/19 18:30:31  5-MIN KAQV 130030Z AUTO 00000KT 10SM SCT110 08/07 A3013 180 93 -500 000/00 RMK AO2 T00830072
03949KAQV AQV20191212183511112/12/19 18:35:31  5-MIN KAQV 130035Z AUTO 00000KT 10SM BKN110 08/07 A3013 180 93 -500 000/00 RMK AO2 T00830072
03949KAQV AQV20191212184011112/12/19 18:40:31  5-MIN KAQV 130040Z AUTO 00000KT 10SM BKN120 08/07 A3013 180 93 -500 000/00 RMK AO2 T00830072
03949KAQV AQV20191212184511112/12/19 18:45:31  5-MIN KAQV 130045Z AUTO 00000KT 10SM BKN110 08/07 A3012 190 93 -500 000/00 RMK AO2 T00830072
03949KAQV AQV20191212185011112/12/19 18:50:31  5-MIN KAQV 130050Z AUTO 00000KT 10SM BKN110 08/07 A3012 190 93 -500 000/00 RMK AO2 T00830072
03949KAQV AQV20191212185511812/12/19 18:55:31  5-MIN KAQV 130055Z AUTO 00000KT 10SM OVC110 09/07 A3012 190 89 -400 000/00 RMK AO2 SLP202 T00890072
03949KAQV AQV20191212190011112/12/19 19:00:31  5-MIN KAQV 130100Z AUTO 00000KT 10SM OVC110 09/07 A3012 190 89 -400 000/00 RMK AO2 T00890072
03949KAQV AQV20191212190511112/12/19 19:05:31  5-MIN KAQV 130105Z AUTO 00000KT 10SM OVC110 09/07 A3012 190 89 -400 000/00 RMK AO2 T00890072
03949KAQV AQV20191212191011112/12/19 19:10:31  5-MIN KAQV 130110Z AUTO 00000KT 10SM OVC110 09/07 A3013 190 89 -400 000/00 RMK AO2 T00890072
03949KAQV AQV20191212191511812/12/19 19:15:31  5-MIN KAQV 130115Z AUTO 00000KT 10SM BKN100 BKN120 08/07 A3012 190 93 -500 000/00 RMK AO2 T00830072
03949KAQV AQV20191212192011112/12/19 19:20:31  5-MIN KAQV 130120Z AUTO 00000KT 10SM BKN110 08/07 A3012 190 93 -500 000/00 RMK AO2 T00830072
03949KAQV AQV20191212192511112/12/19 19:25:31  5-MIN KAQV 130125Z AUTO 00000KT 10SM BKN110 08/07 A3012 190 89 -500 000/00 RMK AO2 T00830067
03949KAQV AQV20191212193011812/12/19 19:30:31  5-MIN KAQV 130130Z AUTO 00000KT 10SM FEW100 BKN120 08/07 A3012 190 89 -500 000/00 RMK AO2 T00830067
03949KAQV AQV20191212193511812/12/19 19:35:31  5-MIN KAQV 130135Z AUTO 00000KT 10SM FEW100 BKN120 08/07 A3012 190 89 -500 000/00 RMK AO2 T00830067
03949KAQV AQV20191212194011112/12/19 19:40:31  5-MIN KAQV 130140Z AUTO 00000KT 10SM BKN110 08/07 A3012 190 93 -500 000/00 RMK AO2 T00830072
03949KAQV AQV20191212194511112/12/19 19:45:31  5-MIN KAQV 130145Z AUTO 00000KT 10SM BKN120 08/07 A3012 190 89 -500 000/00 RMK AO2 T00830067
03949KAQV AQV20191212195011112/12/19 19:50:31  5-MIN KAQV 130150Z AUTO 00000KT 10SM BKN120 08/07 A3012 190 89 -500 000/00 RMK AO2 T00830067
03949KAQV AQV20191212195511812/12/19 19:55:31  5-MIN KAQV 130155Z AUTO 00000KT 10SM BKN120 08/07 A3012 190 89 -500 000/00 RMK AO2 SLP201 T00830067
03949KAQV AQV20191212200011112/12/19 20:00:31  5-MIN KAQV 130200Z AUTO 00000KT 10SM BKN110 08/07 A3012 190 89 -500 000/00 RMK AO2 T00830067
03949KAQV AQV20191212200511112/12/19 20:05:31  5-MIN KAQV 130205Z AUTO 00000KT 10SM BKN110 08/07 A3012 190 89 -500 000/00 RMK AO2 T00830067
03949KAQV AQV20191212201011112/12/19 20:10:31  5-MIN KAQV 130210Z AUTO 00000KT 10SM BKN110 08/07 A3012 200 93 -500 000/00 RMK AO2 T00780067
03949KAQV AQV20191212201511112/12/19 20:15:31  5-MIN KAQV 130215Z AUTO 00000KT 10SM BKN110 08/07 A3011 200 93 -500 000/00 RMK AO2 T00780067
03949KAQV AQV20191212202011112/12/19 20:20:31  5-MIN KAQV 130220Z AUTO 00000KT 10SM OVC110 08/07 A3011 200 93 -500 000/00 RMK AO2 T00780067
03949KAQV AQV20191212202511112/12/19 20:25:31  5-MIN KAQV 130225Z AUTO 00000KT 10SM OVC110 08/07 A3011 200 93 -500 000/00 RMK AO2 T00780067
03949KAQV AQV20191212203011112/12/19 20:30:31  5-MIN KAQV 130230Z AUTO 00000KT 10SM OVC110 08/07 A3011 200 93 -500 000/00 RMK AO2 T00780067
03949KAQV AQV20191212203511112/12/19 20:35:31  5-MIN KAQV 130235Z AUTO 00000KT 10SM OVC110 08/06 A3011 200 89 -500 000/00 RMK AO2 T00780061
03949KAQV AQV20191212204011112/12/19 20:40:31  5-MIN KAQV 130240Z AUTO 00000KT 10SM BKN110 08/06 A3010 210 89 -500 000/00 RMK AO2 T00780061
03949KAQV AQV20191212204511112/12/19 20:45:31  5-MIN KAQV 130245Z AUTO 00000KT 10SM BKN110 08/06 A3010 210 89 -500 000/00 RMK AO2 T00780061
03949KAQV AQV20191212205011112/12/19 20:50:31  5-MIN KAQV 130250Z AUTO 00000KT 10SM BKN110 07/06 A3010 210 93 -600 000/00 RMK AO2 T00720061
03949KAQV AQV20191212205512412/12/19 20:55:31  5-MIN KAQV 130255Z AUTO 00000KT 10SM SCT110 07/06 A3010 210 93 -600 000/00 RMK AO2 SLP194 T00720061 56008
03949KAQV AQV20191212210011112/12/19 21:00:31  5-MIN KAQV 130300Z AUTO 00000KT 10SM FEW110 07/06 A3010 210 93 -600 000/00 RMK AO2 T00720061
03949KAQV AQV20191212210511112/12/19 21:05:31  5-MIN KAQV 130305Z AUTO 00000KT 10SM FEW110 07/06 A3010 210 89 -600 000/00 RMK AO2 T00720056
03949KAQV AQV20191212211011112/12/19 21:10:31  5-MIN KAQV 130310Z AUTO 00000KT 10SM FEW110 07/06 A3010 210 89 -600 000/00 RMK AO2 T00720056
03949KAQV AQV20191212211510812/12/19 21:15:31  5-MIN KAQV 130315Z AUTO 00000KT 10SM CLR 07/06 A3010 220 89 -600 000/00 RMK AO2 T00720056
03949KAQV AQV20191212212010812/12/19 21:20:31  5-MIN KAQV 130320Z AUTO 00000KT 10SM CLR 07/06 A3009 220 93 -600 000/00 RMK AO2 T00670056
03949KAQV AQV20191212212510812/12/19 21:25:31  5-MIN KAQV 130325Z AUTO 00000KT 10SM CLR 07/06 A3009 220 93 -600 000/00 RMK AO2 T00670056
03949KAQV AQV20191212213010812/12/19 21:30:31  5-MIN KAQV 130330Z AUTO 00000KT 10SM CLR 07/06 A3009 220 93 -600 000/00 RMK AO2 T00670056
03949KAQV AQV20191212213510812/12/19 21:35:31  5-MIN KAQV 130335Z AUTO 00000KT 10SM CLR 07/06 A3009 220 93 -600 000/00 RMK AO2 T00670056
03949KAQV AQV20191212214010812/12/19 21:40:31  5-MIN KAQV 130340Z AUTO 00000KT 10SM CLR 07/06 A3009 220 93 -600 000/00 RMK AO2 T00670056
03949KAQV AQV20191212214510812/12/19 21:45:31  5-MIN KAQV 130345Z AUTO 00000KT 10SM CLR 07/05 A3009 220 89 -600 000/00 RMK AO2 T00670050
03949KAQV AQV20191212215010812/12/19 21:50:31  5-MIN KAQV 130350Z AUTO 00000KT 10SM CLR 07/05 A3009 220 89 -600 000/00 RMK AO2 T00670050
03949KAQV AQV20191212215511512/12/19 21:55:31  5-MIN KAQV 130355Z AUTO 00000KT 10SM CLR 06/05 A3009 220 93 -700 000/00 RMK AO2 SLP189 T00610050
03949KAQV AQV20191212220010812/12/19 22:00:31  5-MIN KAQV 130400Z AUTO 00000KT 10SM CLR 07/05 A3008 230 89 -600 000/00 RMK AO2 T00670050
03949KAQV AQV20191212220510812/12/19 22:05:31  5-MIN KAQV 130405Z AUTO 00000KT 10SM CLR 07/05 A3008 230 89 -600 000/00 RMK AO2 T00670050
03949KAQV AQV20191212221010812/12/19 22:10:31  5-MIN KAQV 130410Z AUTO 00000KT 10SM CLR 07/05 A3008 230 89 -600 000/00 RMK AO2 T00670050
03949KAQV AQV20191212221510812/12/19 22:15:31  5-MIN KAQV 130415Z AUTO 00000KT 10SM CLR 07/05 A3007 230 89 -600 000/00 RMK AO2 T00670050
03949KAQV AQV20191212222010812/12/19 22:20:31  5-MIN KAQV 130420Z AUTO 00000KT 10SM CLR 07/05 A3008 230 89 -600 000/00 RMK AO2 T00670050
03949KAQV AQV20191212222510812/12/19 22:25:31  5-MIN KAQV 130425Z AUTO 00000KT 10SM CLR 06/05 A3008 230 93 -700 000/00 RMK AO2 T00610050
03949KAQV AQV20191212223010812/12/19 22:30:31  5-MIN KAQV 130430Z AUTO 00000KT 10SM CLR 06/05 A3008 230 93 -700 000/00 RMK AO2 T00610050
03949KAQV AQV20191212223510812/12/19 22:35:31  5-MIN KAQV 130435Z AUTO 00000KT 10SM CLR 06/05 A3008 230 93 -700 000/00 RMK AO2 T00610050
03949KAQV AQV20191212224010812/12/19 22:40:31  5-MIN KAQV 130440Z AUTO 00000KT 10SM CLR 06/05 A3008 230 93 -700 000/00 RMK AO2 T00610050
03949KAQV AQV20191212224510812/12/19 22:45:31  5-MIN KAQV 130445Z AUTO 00000KT 10SM CLR 06/05 A3008 230 93 -700 000/00 RMK AO2 T00610050
03949KAQV AQV20191212225010812/12/19 22:50:31  5-MIN KAQV 130450Z AUTO 00000KT 10SM CLR 06/04 A3008 230 92 -800 000/00 RMK AO2 T00560044
03949KAQV AQV20191212225511512/12/19 22:55:31  5-MIN KAQV 130455Z AUTO 00000KT 10SM CLR 06/04 A3008 230 92 -800 000/00 RMK AO2 SLP187 T00560044
03949KAQV AQV20191212230010812/12/19 23:00:31  5-MIN KAQV 130500Z AUTO 00000KT 10SM CLR 06/04 A3008 230 92 -800 000/00 RMK AO2 T00560044
03949KAQV AQV20191212230510812/12/19 23:05:31  5-MIN KAQV 130505Z AUTO 00000KT 10SM CLR 06/04 A3008 230 89 -700 000/00 RMK AO2 T00610044
03949KAQV AQV20191212231010812/12/19 23:10:31  5-MIN KAQV 130510Z AUTO 00000KT 10SM CLR 06/04 A3008 230 92 -800 000/00 RMK AO2 T00560044
03949KAQV AQV20191212231510812/12/19 23:15:31  5-MIN KAQV 130515Z AUTO 00000KT 10SM CLR 06/04 A3007 240 92 -800 000/00 RMK AO2 T00560044
03949KAQV AQV20191212232010812/12/19 23:20:31  5-MIN KAQV 130520Z AUTO 00000KT 10SM CLR 06/04 A3007 240 92 -800 000/00 RMK AO2 T00560044
03949KAQV AQV20191212232510812/12/19 23:25:31  5-MIN KAQV 130525Z AUTO 00000KT 10SM CLR 06/04 A3007 240 92 -800 000/00 RMK AO2 T00560044
03949KAQV AQV20191212233010812/12/19 23:30:31  5-MIN KAQV 130530Z AUTO 00000KT 10SM CLR 06/04 A3007 240 92 -800 000/00 RMK AO2 T00560044
03949KAQV AQV20191212233510812/12/19 23:35:31  5-MIN KAQV 130535Z AUTO 00000KT 10SM CLR 06/04 A3007 240 92 -800 000/00 RMK AO2 T00560044
03949KAQV AQV20191212234010812/12/19 23:40:31  5-MIN KAQV 130540Z AUTO 00000KT 10SM CLR 06/04 A3007 240 92 -800 000/00 RMK AO2 T00560044
03949KAQV AQV20191212234510812/12/19 23:45:31  5-MIN KAQV 130545Z AUTO 00000KT 10SM CLR 06/04 A3006 240 89 -700 000/00 RMK AO2 T00610044
03949KAQV AQV20191212235010812/12/19 23:50:31  5-MIN KAQV 130550Z AUTO 00000KT 10SM CLR 06/04 A3006 250 89 -700 000/00 RMK AO2 T00610044
03949KAQV AQV20191212235514312/12/19 23:55:31  5-MIN KAQV 130555Z AUTO 00000KT 10SM CLR 06/04 A3006 250 92 -700 000/00 RMK AO2 SLP180 T00560044 10094 20056 401610006 58013
03949KAQV AQV20191213000010812/13/19 00:00:31  5-MIN KAQV 130600Z AUTO 00000KT 10SM CLR 06/04 A3006 250 89 -700 000/00 RMK AO2 T00610044
03949KAQV AQV20191213000511112/13/19 00:05:31  5-MIN KAQV 130605Z AUTO 00000KT 10SM FEW100 06/05 A3006 250 93 -700 000/00 RMK AO2 T00610050
03949KAQV AQV20191213001011112/13/19 00:10:31  5-MIN KAQV 130610Z AUTO 00000KT 10SM FEW100 06/05 A3006 250 93 -700 000/00 RMK AO2 T00610050
03949KAQV AQV20191213001511112/13/19 00:15:31  5-MIN KAQV 130615Z AUTO 00000KT 10SM SCT100 06/05 A3006 250 93 -700 000/00 RMK AO2 T00610050
03949KAQV AQV20191213002011112/13/19 00:20:31  5-MIN KAQV 130620Z AUTO 00000KT 10SM BKN100 06/05 A3006 250 93 -700 000/00 RMK AO2 T00610050
03949KAQV AQV20191213002511112/13/19 00:25:31  5-MIN KAQV 130625Z AUTO 00000KT 10SM BKN100 06/05 A3006 250 93 -700 000/00 RMK AO2 T00610050
03949KAQV AQV20191213003011112/13/19 00:30:31  5-MIN KAQV 130630Z AUTO 00000KT 10SM BKN100 06/05 A3006 250 93 -700 000/00 RMK AO2 T00610050
03949KAQV AQV20191213003511112/13/19 00:35:31  5-MIN KAQV 130635Z AUTO 00000KT 10SM BKN100 07/05 A3005 250 89 -600 000/00 RMK AO2 T00670050
03949KAQV AQV20191213004011112/13/19 00:40:31  5-MIN KAQV 130640Z AUTO 00000KT 10SM OVC100 07/06 A3005 250 93 -600 000/00 RMK AO2 T00670056
03949KAQV AQV20191213004511112/13/19 00:45:31  5-MIN KAQV 130645Z AUTO 00000KT 10SM OVC100 07/06 A3005 250 93 -600 000/00 RMK AO2 T00670056
03949KAQV AQV20191213005011112/13/19 00:50:31  5-MIN KAQV 130650Z AUTO 00000KT 10SM BKN100 07/06 A3005 250 93 -600 000/00 RMK AO2 T00670056
03949KAQV AQV20191213005511812/13/19 00:55:31  5-MIN KAQV 130655Z AUTO 00000KT 10SM BKN100 06/05 A3005 260 93 -700 000/00 RMK AO2 SLP176 T00610050
03949KAQV AQV20191213010011112/13/19 01:00:31  5-MIN KAQV 130700Z AUTO 00000KT 10SM BKN100 06/05 A3005 260 93 -700 000/00 RMK AO2 T00610050
03949KAQV AQV20191213010511112/13/19 01:05:31  5-MIN KAQV 130705Z AUTO 00000KT 10SM BKN100 07/05 A3005 260 89 -600 000/00 RMK AO2 T00670050
03949KAQV AQV20191213011011112/13/19 01:10:31  5-MIN KAQV 130710Z AUTO 00000KT 10SM BKN100 07/06 A3005 260 93 -600 000/00 RMK AO2 T00670056
03949KAQV AQV20191213011511112/13/19 01:15:31  5-MIN KAQV 130715Z AUTO 00000KT 10SM BKN100 07/06 A3005 260 93 -600 000/00 RMK AO2 T00670056
03949KAQV AQV20191213012011112/13/19 01:20:31  5-MIN KAQV 130720Z AUTO 00000KT 10SM BKN100 07/06 A3005 260 93 -600 000/00 RMK AO2 T00670056
03949KAQV AQV20191213012511112/13/19 01:25:31  5-MIN KAQV 130725Z AUTO 00000KT 10SM OVC100 07/06 A3004 260 93 -600 000/00 RMK AO2 T00670056
03949KAQV AQV20191213013011112/13/19 01:30:31  5-MIN KAQV 130730Z AUTO 00000KT 10SM BKN100 07/06 A3004 260 93 -600 000/00 RMK AO2 T00670056
03949KAQV AQV20191213013511112/13/19 01:35:31  5-MIN KAQV 130735Z AUTO 00000KT 10SM BKN100 07/06 A3005 260 93 -600 000/00 RMK AO2 T00670056
03949KAQV AQV20191213014011112/13/19 01:40:31  5-MIN KAQV 130740Z AUTO 00000KT 10SM BKN100 07/06 A3005 260 93 -600 000/00 RMK AO2 T00670056
03949KAQV AQV20191213014511112/13/19 01:45:31  5-MIN KAQV 130745Z AUTO 00000KT 10SM BKN100 07/06 A3005 260 89 -500 000/00 RMK AO2 T00720056
03949KAQV AQV20191213015011812/13/19 01:50:31  5-MIN KAQV 130750Z AUTO 00000KT 10SM FEW030 OVC100 07/06 A3005 260 93 -500 000/00 RMK AO2 T00720061
03949KAQV AQV20191213015512512/13/19 01:55:31  5-MIN KAQV 130755Z AUTO 00000KT 10SM FEW030 OVC100 07/06 A3005 260 93 -600 000/00 RMK AO2 SLP175 T00670056
03949KAQV AQV20191213020011812/13/19 02:00:31  5-MIN KAQV 130800Z AUTO 00000KT 10SM FEW030 OVC100 07/06 A3004 260 93 -600 000/00 RMK AO2 T00670056
03949KAQV AQV20191213020511812/13/19 02:05:31  5-MIN KAQV 130805Z AUTO 00000KT 10SM FEW029 BKN100 07/06 A3004 260 93 -600 000/00 RMK AO2 T00670056
03949KAQV AQV20191213021011812/13/19 02:10:31  5-MIN KAQV 130810Z AUTO 00000KT 10SM FEW029 BKN100 07/06 A3004 270 93 -600 000/00 RMK AO2 T00670056
03949KAQV AQV20191213021511812/13/19 02:15:31  5-MIN KAQV 130815Z AUTO 00000KT 10SM FEW029 OVC100 07/06 A3003 270 93 -600 000/00 RMK AO2 T00670056
03949KAQV AQV20191213022011112/13/19 02:20:31  5-MIN KAQV 130820Z AUTO 00000KT 10SM BKN100 07/06 A3003 270 93 -600 000/00 RMK AO2 T00670056
03949KAQV AQV20191213022511812/13/19 02:25:31  5-MIN KAQV 130825Z AUTO 00000KT 10SM SCT030 OVC100 07/06 A3003 270 93 -600 000/00 RMK AO2 T00670056
03949KAQV AQV20191213023011812/13/19 02:30:31  5-MIN KAQV 130830Z AUTO 00000KT 10SM BKN030 OVC100 07/06 A3003 280 93 -600 000/00 RMK AO2 T00670056
03949KAQV AQV20191213023511812/13/19 02:35:31  5-MIN KAQV 130835Z AUTO 00000KT 10SM BKN029 OVC100 07/06 A3003 280 93 -500 000/00 RMK AO2 T00720061
03949KAQV AQV20191213024011812/13/19 02:40:31  5-MIN KAQV 130840Z AUTO 00000KT 10SM BKN029 OVC100 07/06 A3003 280 93 -500 000/00 RMK AO2 T00720061
03949KAQV AQV20191213024511112/13/19 02:45:31  5-MIN KAQV 130845Z AUTO 00000KT 10SM OVC029 08/07 A3002 280 93 -400 000/00 RMK AO2 T00780067
03949KAQV AQV20191213025011112/13/19 02:50:31  5-MIN KAQV 130850Z AUTO 00000KT 10SM OVC029 08/07 A3002 280 93 -400 000/00 RMK AO2 T00780067
03949KAQV AQV20191213025512412/13/19 02:55:31  5-MIN KAQV 130855Z AUTO 00000KT 10SM OVC029 08/07 A3002 280 93 -400 000/00 RMK AO2 SLP166 T00780067 58014
03949KAQV AQV20191213030011112/13/19 03:00:31  5-MIN KAQV 130900Z AUTO 00000KT 10SM OVC029 08/07 A3002 290 89 -400 000/00 RMK AO2 T00830067
03949KAQV AQV20191213030511112/13/19 03:05:31  5-MIN KAQV 130905Z AUTO 00000KT 10SM OVC029 08/07 A3002 280 93 -400 000/00 RMK AO2 T00830072
03949KAQV AQV20191213031011112/13/19 03:10:31  5-MIN KAQV 130910Z AUTO 00000KT 10SM OVC029 08/07 A3002 280 93 -400 000/00 RMK AO2 T00830072
03949KAQV AQV20191213031511112/13/19 03:15:31  5-MIN KAQV 130915Z AUTO 00000KT 10SM OVC028 08/07 A3002 280 93 -400 000/00 RMK AO2 T00830072
03949KAQV AQV20191213032011112/13/19 03:20:31  5-MIN KAQV 130920Z AUTO 00000KT 10SM OVC028 08/07 A3002 280 93 -400 000/00 RMK AO2 T00830072
03949KAQV AQV20191213032511112/13/19 03:25:31  5-MIN KAQV 130925Z AUTO 00000KT 10SM OVC028 08/07 A3002 280 93 -400 000/00 RMK AO2 T00830072
03949KAQV AQV20191213033011112/13/19 03:30:31  5-MIN KAQV 130930Z AUTO 00000KT 10SM OVC028 09/07 A3002 290 89 -300 000/00 RMK AO2 T00890072
03949KAQV AQV20191213033511112/13/19 03:35:31  5-MIN KAQV 130935Z AUTO 00000KT 10SM OVC028 09/08 A3002 290 93 -300 000/00 RMK AO2 T00890078
03949KAQV AQV20191213034011112/13/19 03:40:31  5-MIN KAQV 130940Z AUTO 00000KT 10SM OVC028 09/08 A3001 290 93 -300 000/00 RMK AO2 T00890078
03949KAQV AQV20191213034511112/13/19 03:45:31  5-MIN KAQV 130945Z AUTO 00000KT 10SM OVC028 09/08 A3000 300 93 -300 000/00 RMK AO2 T00890078
03949KAQV AQV20191213035011112/13/19 03:50:31  5-MIN KAQV 130950Z AUTO 00000KT 10SM OVC028 09/08 A3000 300 93 -300 000/00 RMK AO2 T00890078
03949KAQV AQV20191213035511812/13/19 03:55:31  5-MIN KAQV 130955Z AUTO 00000KT 10SM OVC028 09/08 A3000 300 93 -300 000/00 RMK AO2 SLP158 T00890078
03949KAQV AQV20191213040011112/13/19 04:00:31  5-MIN KAQV 131000Z AUTO 00000KT 10SM OVC028 09/08 A2999 310 93 -300 000/00 RMK AO2 T00890078
03949KAQV AQV20191213040511112/13/19 04:05:31  5-MIN KAQV 131005Z AUTO 00000KT 10SM OVC028 09/08 A2999 310 93 -300 000/00 RMK AO2 T00890078
03949KAQV AQV20191213041011112/13/19 04:10:31  5-MIN KAQV 131010Z AUTO 00000KT 10SM OVC028 09/08 A2999 320 89 -200 000/00 RMK AO2 T00940078
03949KAQV AQV20191213041511112/13/19 04:15:31  5-MIN KAQV 131015Z AUTO 00000KT 10SM OVC028 09/08 A2998 320 89 -200 000/00 RMK AO2 T00940078
03949KAQV AQV20191213042011112/13/19 04:20:31  5-MIN KAQV 131020Z AUTO 00000KT 10SM OVC027 09/08 A2998 320 89 -200 000/00 RMK AO2 T00940078
03949KAQV AQV20191213042511112/13/19 04:25:31  5-MIN KAQV 131025Z AUTO 00000KT 10SM OVC027 09/08 A2998 320 89 -200 000/00 RMK AO2 T00940078
03949KAQV AQV20191213043011112/13/19 04:30:31  5-MIN KAQV 131030Z AUTO 00000KT 10SM OVC027 09/08 A2998 320 93 -200 000/00 RMK AO2 T00940083
03949KAQV AQV20191213043511112/13/19 04:35:31  5-MIN KAQV 131035Z AUTO 00000KT 10SM OVC027 09/08 A2998 320 93 -200 000/00 RMK AO2 T00940083
03949KAQV AQV20191213044011112/13/19 04:40:31  5-MIN KAQV 131040Z AUTO 00000KT 10SM OVC027 09/08 A2998 320 93 -200 000/00 RMK AO2 T00940083
03949KAQV AQV20191213044511112/13/19 04:45:31  5-MIN KAQV 131045Z AUTO 00000KT 10SM OVC027 09/08 A2998 320 89 -200 000/00 RMK AO2 T00940078
03949KAQV AQV20191213045011112/13/19 04:50:31  5-MIN KAQV 131050Z AUTO 00000KT 10SM OVC027 09/08 A2998 320 93 -200 000/00 RMK AO2 T00940083
03949KAQV AQV20191213045511812/13/19 04:55:31  5-MIN KAQV 131055Z AUTO 00000KT 10SM OVC029 09/08 A2998 320 93 -200 000/00 RMK AO2 SLP153 T00940083
03949KAQV AQV20191213050011112/13/19 05:00:31  5-MIN KAQV 131100Z AUTO 00000KT 10SM OVC029 09/08 A2998 320 93 -200 000/00 RMK AO2 T00940083
03949KAQV AQV20191213050511112/13/19 05:05:31  5-MIN KAQV 131105Z AUTO 00000KT 10SM OVC029 09/08 A2998 320 93 -200 000/00 RMK AO2 T00940083
03949KAQV AQV20191213051011112/13/19 05:10:31  5-MIN KAQV 131110Z AUTO 00000KT 10SM OVC029 09/08 A2998 320 93 -200 000/00 RMK AO2 T00940083
03949KAQV AQV20191213051511112/13/19 05:15:31  5-MIN KAQV 131115Z AUTO 00000KT 10SM OVC031 09/08 A2998 320 93 -200 000/00 RMK AO2 T00940083
03949KAQV AQV20191213052011112/13/19 05:20:31  5-MIN KAQV 131120Z AUTO 00000KT 10SM OVC031 09/08 A2998 320 93 -200 000/00 RMK AO2 T00940083
03949KAQV AQV20191213052511112/13/19 05:25:31  5-MIN KAQV 131125Z AUTO 00000KT 10SM OVC031 10/08 A2998 330 89 -100 000/00 RMK AO2 T01000083
03949KAQV AQV20191213053011112/13/19 05:30:31  5-MIN KAQV 131130Z AUTO 00000KT 10SM OVC031 10/08 A2998 320 89 -100 000/00 RMK AO2 T01000083
03949KAQV AQV20191213053511112/13/19 05:35:31  5-MIN KAQV 131135Z AUTO 00000KT 10SM OVC031 10/08 A2998 330 89 -100 000/00 RMK AO2 T01000083
03949KAQV AQV20191213054011112/13/19 05:40:31  5-MIN KAQV 131140Z AUTO 00000KT 10SM OVC031 10/08 A2997 330 89 -100 000/00 RMK AO2 T01000083
03949KAQV AQV20191213054511112/13/19 05:45:31  5-MIN KAQV 131145Z AUTO 00000KT 10SM OVC031 10/08 A2997 330 89 -100 000/00 RMK AO2 T01000083
03949KAQV AQV20191213055011112/13/19 05:50:31  5-MIN KAQV 131150Z AUTO 00000KT 10SM OVC033 10/08 A2997 330 86 -100 000/00 RMK AO2 T01000078
03949KAQV AQV20191213055513612/13/19 05:55:31  5-MIN KAQV 131155Z AUTO 00000KT 10SM OVC035 10/08 A2997 330 89 -100 000/00 RMK AO2 SLP147 T01000083 10100 20056 58013
03949KAQV AQV20191213060011112/13/19 06:00:31  5-MIN KAQV 131200Z AUTO 00000KT 10SM OVC035 10/08 A2997 330 89 -100 000/00 RMK AO2 T01000083
03949KAQV AQV20191213060511112/13/19 06:05:31  5-MIN KAQV 131205Z AUTO 00000KT 10SM OVC037 10/08 A2997 330 89 -100 000/00 RMK AO2 T01000083
03949KAQV AQV20191213061011812/13/19 06:10:31  5-MIN KAQV 131210Z AUTO 00000KT 10SM BKN037 OVC046 10/08 A2996 340 89 -100 000/00 RMK AO2 T01000083
03949KAQV AQV20191213061511812/13/19 06:15:31  5-MIN KAQV 131215Z AUTO 00000KT 10SM BKN039 OVC046 10/08 A2996 340 89 -100 000/00 RMK AO2 T01000083
03949KAQV AQV20191213062011112/13/19 06:20:31  5-MIN KAQV 131220Z AUTO 00000KT 10SM OVC042 10/08 A2996 340 89 -100 000/00 RMK AO2 T01000083
03949KAQV AQV20191213062511112/13/19 06:25:31  5-MIN KAQV 131225Z AUTO 00000KT 10SM OVC042 10/08 A2996 340 89 -100 000/00 RMK AO2 T01000083
03949KAQV AQV20191213063011812/13/19 06:30:31  5-MIN KAQV 131230Z AUTO 00000KT 10SM FEW036 OVC044 10/08 A2996 340 89 -100 000/00 RMK AO2 T01000083
03949KAQV AQV20191213063511112/13/19 06:35:31  5-MIN KAQV 131235Z AUTO 00000KT 10SM OVC044 10/08 A2997 330 89 -100 000/00 RMK AO2 T01000083
03949KAQV AQV20191213064011112/13/19 06:40:31  5-MIN KAQV 131240Z AUTO 00000KT 10SM OVC042 10/08 A2996 340 89 -100 000/00 RMK AO2 T01000083
03949KAQV AQV20191213064511112/13/19 06:45:31  5-MIN KAQV 131245Z AUTO 00000KT 10SM OVC042 10/08 A2996 340 89 -100 000/00 RMK AO2 T01000083
03949KAQV AQV20191213065011112/13/19 06:50:31  5-MIN KAQV 131250Z AUTO 00000KT 10SM OVC042 10/08 A2997 330 89 -100 000/00 RMK AO2 T01000083
03949KAQV AQV20191213065512512/13/19 06:55:31  5-MIN KAQV 131255Z AUTO 00000KT 10SM FEW029 OVC044 10/08 A2997 330 89 -100 000/00 RMK AO2 SLP149 T01000083
03949KAQV AQV20191213070011812/13/19 07:00:31  5-MIN KAQV 131300Z AUTO 00000KT 10SM SCT029 OVC044 10/09 A2997 330 93 -100 000/00 RMK AO2 T01000089
03949KAQV AQV20191213070512512/13/19 07:05:31  5-MIN KAQV 131305Z AUTO 00000KT 10SM FEW029 SCT034 OVC044 10/09 A2997 330 93 -100 000/00 RMK AO2 T01000089
03949KAQV AQV20191213071012512/13/19 07:10:31  5-MIN KAQV 131310Z AUTO 00000KT 10SM FEW029 SCT036 OVC045 10/08 A2997 330 89 -100 000/00 RMK AO2 T01000083
03949KAQV AQV20191213071512512/13/19 07:15:31  5-MIN KAQV 131315Z AUTO 00000KT 10SM FEW029 SCT040 OVC050 10/08 A2997 330 89 -100 000/00 RMK AO2 T01000083
03949KAQV AQV20191213072012512/13/19 07:20:31  5-MIN KAQV 131320Z AUTO 00000KT 10SM FEW030 BKN048 OVC055 10/08 A2997 330 89 -100 000/00 RMK AO2 T01000083
03949KAQV AQV20191213072512512/13/19 07:25:31  5-MIN KAQV 131325Z AUTO 00000KT 10SM FEW030 BKN048 OVC060 10/09 A2997 330 93 -100 000/00 RMK AO2 T01000089
03949KAQV AQV20191213073012512/13/19 07:30:31  5-MIN KAQV 131330Z AUTO 00000KT 10SM FEW035 BKN049 OVC060 10/09 A2997 330 93 -100 000/00 RMK AO2 T01000089
03949KAQV AQV20191213073511812/13/19 07:35:31  5-MIN KAQV 131335Z AUTO 00000KT 10SM FEW040 OVC055 10/09 A2997 330 93 -100 000/00 RMK AO2 T01000089
03949KAQV AQV20191213074010812/13/19 07:40:31  5-MIN KAQV 131340Z AUTO 00000KT 10SM OVC055 11/09 A2997 330 89 0 000/00 RMK AO2 T01060089
03949KAQV AQV20191213074511512/13/19 07:45:31  5-MIN KAQV 131345Z AUTO 00000KT 10SM FEW048 OVC060 11/09 A2997 330 89 0 000/00 RMK AO2 T01060089
03949KAQV AQV20191213075011512/13/19 07:50:31  5-MIN KAQV 131350Z AUTO 00000KT 10SM FEW050 OVC060 11/09 A2997 330 89 0 000/00 RMK AO2 T01060089
03949KAQV AQV20191213075511512/13/19 07:55:31  5-MIN KAQV 131355Z AUTO 17003KT 10SM OVC060 11/09 A2996 340 89 0 170/03 RMK AO2 SLP148 T01060089
03949KAQV AQV20191213080010812/13/19 08:00:31  5-MIN KAQV 131400Z AUTO 00000KT 10SM BKN060 11/09 A2996 340 89 0 000/00 RMK AO2 T01060089
03949KAQV AQV20191213080511512/13/19 08:05:31  5-MIN KAQV 131405Z AUTO 00000KT 10SM SCT025 BKN060 11/09 A2996 340 89 0 000/00 RMK AO2 T01060089
03949KAQV AQV20191213081011512/13/19 08:10:31  5-MIN KAQV 131410Z AUTO 00000KT 10SM SCT025 OVC060 11/09 A2996 340 89 0 000/00 RMK AO2 T01060089
03949KAQV AQV20191213081511512/13/19 08:15:31  5-MIN KAQV 131415Z AUTO 00000KT 10SM SCT025 OVC060 11/09 A2996 340 86 0 000/00 RMK AO2 T01110089
03949KAQV AQV20191213082011512/13/19 08:20:31  5-MIN KAQV 131420Z AUTO 17003KT 10SM FEW025 BKN055 11/09 A2996 340 89 0 170/03 RMK AO2 T01110094
03949KAQV AQV20191213082511712/13/19 08:25:31  5-MIN KAQV 131425Z AUTO VRB03KT 10SM SCT025 BKN055 12/09 A2996 340 86 100 VRB/03 RMK AO2 T01170094
03949KAQV AQV20191213083011712/13/19 08:30:31  5-MIN KAQV 131430Z AUTO VRB04KT 10SM SCT025 BKN055 12/09 A2996 340 83 100 VRB/04 RMK AO2 T01220094
03949KAQV AQV20191213083511712/13/19 08:35:31  5-MIN KAQV 131435Z AUTO VRB03KT 10SM SCT025 BKN055 12/09 A2996 340 86 100 VRB/03 RMK AO2 T01170094
03949KAQV AQV20191213084011712/13/19 08:40:31  5-MIN KAQV 131440Z AUTO VRB03KT 10SM FEW025 BKN055 12/09 A2996 340 83 100 VRB/03 RMK AO2 T01220094
03949KAQV AQV20191213084511712/13/19 08:45:31  5-MIN KAQV 131445Z AUTO VRB05KT 10SM SCT025 BKN055 13/09 A2996 340 80 200 VRB/05 RMK AO2 T01280094
03949KAQV AQV20191213085011712/13/19 08:50:31  5-MIN KAQV 131450Z AUTO 00000KT 10SM BKN025 BKN055 12/09 A2996 340 83 100 000/00 RMK AO2 T01220094
03949KAQV AQV20191213085512312/13/19 08:55:31  5-MIN KAQV 131455Z AUTO 00000KT 10SM BKN025 13/10 A2996 340 83 200 000/00 RMK AO2 SLP144 T01280100 58003
03949KAQV AQV20191213090011012/13/19 09:00:31  5-MIN KAQV 131500Z AUTO 16004KT 10SM BKN025 13/10 A2995 350 83 200 160/04 RMK AO2 T01280100
03949KAQV AQV20191213090511012/13/19 09:05:31  5-MIN KAQV 131505Z AUTO 18004KT 10SM SCT025 13/09 A2995 350 80 200 180/04 RMK AO2 T01280094
03949KAQV AQV20191213091011012/13/19 09:10:31  5-MIN KAQV 131510Z AUTO 18004KT 10SM SCT025 13/09 A2995 350 77 300 170/04 RMK AO2 T01330094
03949KAQV AQV20191213091511012/13/19 09:15:31  5-MIN KAQV 131515Z AUTO 18004KT 10SM SCT025 14/09 A2995 350 74 300 170/04 RMK AO2 T01390094
03949KAQV AQV20191213092011012/13/19 09:20:31  5-MIN KAQV 131520Z AUTO 19004KT 10SM FEW025 14/09 A2995 350 74 300 190/04 RMK AO2 T01390094
03949KAQV AQV20191213092512312/13/19 09:25:31  5-MIN KAQV 131525Z AUTO 18003KT 10SM -RA CLR 14/09 A2995 350 69 400 180/03 RMK AO2 RAB25 P0000 T01440089
03949KAQV AQV20191213093012312/13/19 09:30:31  5-MIN KAQV 131530Z AUTO 18003KT 10SM -RA CLR 15/09 A2995 350 69 500 180/03 RMK AO2 RAB25 P0000 T01500094
03949KAQV AQV20191213093512312/13/19 09:35:31  5-MIN KAQV 131535Z AUTO 16004KT 10SM -RA CLR 16/09 A2995 350 67 500 160/04 RMK AO2 RAB25 P0000 T01560094
03949KAQV AQV20191213094012212/13/19 09:40:31  5-MIN KAQV 131540Z AUTO 18004KT 10SM CLR 16/09 A2995 350 67 500 170/04 RMK AO2 RAB25E39 P0000 T01560094
03949KAQV AQV20191213094512512/13/19 09:45:31  5-MIN KAQV 131545Z AUTO 16003KT 10SM FEW040 16/09 A2995 350 67 500 160/03 RMK AO2 RAB25E39 P0000 T01560094
03949KAQV AQV20191213095012612/13/19 09:50:31  5-MIN KAQV 131550Z AUTO VRB04KT 10SM -RA SCT040 16/09 A2995 350 67 500 VRB/04 RMK AO2 RAB25 P0000 T01560094
03949KAQV AQV20191213095513312/13/19 09:55:31  5-MIN KAQV 131555Z AUTO 00000KT 10SM -RA BKN038 16/10 A2995 350 69 500 000/00 RMK AO2 RAB25 SLP143 P0000 T01560100
03949KAQV AQV20191213100012012/13/19 10:00:31  5-MIN KAQV 131600Z AUTO 19004KT 10SM -RA BKN038 16/10 A2995 350 69 500 180/04 RMK AO2 P0000 T01560100
03949KAQV AQV20191213100512012/13/19 10:05:31  5-MIN KAQV 131605Z AUTO 18003KT 10SM -RA BKN038 16/10 A2995 350 69 500 180/03 RMK AO2 P0000 T01560100
03949KAQV AQV20191213101012012/13/19 10:10:31  5-MIN KAQV 131610Z AUTO 00000KT 10SM -RA OVC037 16/10 A2995 350 69 500 000/00 RMK AO2 P0000 T01560100
03949KAQV AQV20191213101512012/13/19 10:15:31  5-MIN KAQV 131615Z AUTO 00000KT 10SM -RA OVC037 16/10 A2994 360 69 500 000/00 RMK AO2 P0000 T01560100
03949KAQV AQV20191213102012712/13/19 10:20:31  5-MIN KAQV 131620Z AUTO 00000KT 10SM -RA BKN035 OVC044 16/11 A2994 360 72 500 000/00 RMK AO2 P0000 T01560106
03949KAQV AQV20191213102512912/13/19 10:25:31  5-MIN KAQV 131625Z AUTO 00000KT 10SM BKN035 OVC044 16/11 A2995 350 69 600 000/00 RMK AO2 RAE21 P0000 T01610106
03949KAQV AQV20191213103012912/13/19 10:30:31  5-MIN KAQV 131630Z AUTO 21003KT 10SM BKN035 OVC045 16/10 A2995 350 67 600 210/03 RMK AO2 RAE21 P0000 T01610100
03949KAQV AQV20191213103513612/13/19 10:35:31  5-MIN KAQV 131635Z AUTO 00000KT 10SM FEW024 BKN033 OVC045 16/10 A2994 360 67 600 000/00 RMK AO2 RAE21 P0000 T01610100
03949KAQV AQV20191213104014312/13/19 10:40:31  5-MIN KAQV 131640Z AUTO 00000KT 10SM -RA SCT024 BKN033 OVC045 17/11 A2994 360 67 700 000/00 RMK AO2 RAE21B40 P0000 T01670106
03949KAQV AQV20191213104514312/13/19 10:45:31  5-MIN KAQV 131645Z AUTO 17003KT 10SM -RA BKN024 BKN032 OVC045 16/11 A2993 360 69 600 170/03 RMK AO2 RAE21B40 P0000 T01610106
03949KAQV AQV20191213105013612/13/19 10:50:31  5-MIN KAQV 131650Z AUTO 17003KT 10SM -RA BKN026 OVC032 16/11 A2993 370 69 600 170/03 RMK AO2 RAE21B40 P0000 T01610106
03949KAQV AQV20191213105512512/13/19 10:55:31  5-MIN KAQV 131655Z AUTO 00000KT 10SM BKN023 OVC030 16/11 A2993 370 69 600 000/00 RMK AO2 RAE21B40E52 P0000
03949KAQV AQV20191213110011012/13/19 11:00:31  5-MIN KAQV 131700Z AUTO 20003KT 10SM OVC025 16/11 A2993 370 69 600 200/03 RMK AO2 T01610106
03949KAQV AQV20191213110511012/13/19 11:05:31  5-MIN KAQV 131705Z AUTO VRB03KT 10SM OVC023 16/11 A2993 370 69 600 VRB/03 RMK AO2 T01610106
03949KAQV AQV20191213111012612/13/19 11:10:31  5-MIN KAQV 131710Z AUTO 00000KT 10SM -RA OVC023 16/11 A2992 380 69 600 000/00 RMK AO2 RAB08 P0000 T01610106
03949KAQV AQV20191213111512612/13/19 11:15:31  5-MIN KAQV 131715Z AUTO 00000KT 10SM -RA OVC023 16/11 A2992 380 69 600 000/00 RMK AO2 RAB08 P0000 T01610106
03949KAQV AQV20191213112012612/13/19 11:20:31  5-MIN KAQV 131720Z AUTO 00000KT 10SM -RA OVC023 16/11 A2992 380 72 600 000/00 RMK AO2 RAB08 P0000 T01610111
03949KAQV AQV20191213112513212/13/19 11:25:31  5-MIN KAQV 131725Z AUTO 00000KT 10SM BKN023 OVC033 16/11 A2991 390 72 700 000/00 RMK AO2 RAB08E23 P0000 T01610111
03949KAQV AQV20191213113013212/13/19 11:30:31  5-MIN KAQV 131730Z AUTO 00000KT 10SM BKN023 OVC033 16/11 A2990 390 72 700 000/00 RMK AO2 RAB08E23 P0000 T01610111
03949KAQV AQV20191213113513212/13/19 11:35:31  5-MIN KAQV 131735Z AUTO 00000KT 10SM SCT023 OVC031 16/11 A2990 390 72 700 000/00 RMK AO2 RAB08E23 P0000 T01610111
03949KAQV AQV20191213114013912/13/19 11:40:31  5-MIN KAQV 131740Z AUTO 00000KT 10SM SCT025 BKN031 OVC042 16/11 A2990 400 72 700 000/00 RMK AO2 RAB08E23 P0000 T01610111
03949KAQV AQV20191213114513912/13/19 11:45:31  5-MIN KAQV 131745Z AUTO 00000KT 10SM FEW025 BKN031 OVC042 17/11 A2990 400 69 700 000/00 RMK AO2 RAB08E23 P0000 T01670111
03949KAQV AQV20191213115013912/13/19 11:50:31  5-MIN KAQV 131750Z AUTO 00000KT 10SM FEW027 SCT032 OVC042 17/11 A2989 400 69 700 000/00 RMK AO2 RAB08E23 P0000 T01670111
03949KAQV AQV20191213115516312/13/19 11:55:31  5-MIN KAQV 131755Z AUTO 00000KT 10SM SCT030 OVC040 17/11 A2989 400 69 700 000/00 RMK AO2 RAB08E23 SLP122 P0000 60000 T01670111 10167 20100 56004
03949KAQV AQV20191213120011712/13/19 12:00:31  5-MIN KAQV 131800Z AUTO 00000KT 10SM SCT028 OVC040 16/11 A2989 410 69 700 000/00 RMK AO2 T01610106
03949KAQV AQV20191213120511712/13/19 12:05:31  5-MIN KAQV 131805Z AUTO 00000KT 10SM SCT028 OVC040 17/11 A2988 410 69 700 000/00 RMK AO2 T01670111
03949KAQV AQV20191213121011712/13/19 12:10:31  5-MIN KAQV 131810Z AUTO VRB03KT 10SM FEW028 OVC040 17/11 A2988 420 69 700 VRB/03 RMK AO2 T01670111
03949KAQV AQV20191213121511712/13/19 12:15:31  5-MIN KAQV 131815Z AUTO 00000KT 10SM FEW028 OVC040 17/11 A2987 420 69 800 000/00 RMK AO2 T01670111
03949KAQV AQV20191213122011712/13/19 12:20:31  5-MIN KAQV 131820Z AUTO 15003KT 10SM SCT028 OVC042 17/11 A2987 420 69 800 140/03 RMK AO2 T01670111
03949KAQV AQV20191213122511712/13/19 12:25:31  5-MIN KAQV 131825Z AUTO 15004KT 10SM FEW028 OVC042 17/11 A2987 430 67 800 150/04 RMK AO2 T01720111
03949KAQV AQV20191213123011712/13/19 12:30:31  5-MIN KAQV 131830Z AUTO VRB03KT 10SM FEW028 OVC043 18/12 A2986 430 67 900 VRB/03 RMK AO2 T01780117
03949KAQV AQV20191213123511712/13/19 12:35:31  5-MIN KAQV 131835Z AUTO VRB03KT 10SM SCT026 OVC043 17/11 A2985 440 67 800 VRB/03 RMK AO2 T01720111
03949KAQV AQV20191213124011712/13/19 12:40:31  5-MIN KAQV 131840Z AUTO VRB04KT 10SM SCT026 OVC045 18/12 A2985 440 67 900 VRB/04 RMK AO2 T01780117
03949KAQV AQV20191213124511812/13/19 12:45:31  5-MIN KAQV 131845Z AUTO VRB04KT 10SM SCT026 BKN045 18/12 A2985 440 65 1000 VRB/04 RMK AO2 T01830117
03949KAQV AQV20191213125011712/13/19 12:50:31  5-MIN KAQV 131850Z AUTO 00000KT 10SM BKN028 BKN045 17/12 A2984 450 69 900 000/00 RMK AO2 T01720117
03949KAQV AQV20191213125512412/13/19 12:55:31  5-MIN KAQV 131855Z AUTO VRB03KT 10SM SCT028 BKN047 17/11 A2984 450 67 900 VRB/03 RMK AO2 SLP106 T01720111
03949KAQV AQV20191213130011812/13/19 13:00:31  5-MIN KAQV 131900Z AUTO VRB03KT 10SM BKN028 BKN047 18/12 A2984 450 65 1000 VRB/03 RMK AO2 T01830117
03949KAQV AQV20191213130512512/13/19 13:05:31  5-MIN KAQV 131905Z AUTO VRB04KT 10SM BKN026 BKN031 BKN047 18/12 A2983 460 65 1000 VRB/04 RMK AO2 T01830117
03949KAQV AQV20191213131011112/13/19 13:10:31  5-MIN KAQV 131910Z AUTO VRB04KT 10SM BKN026 18/12 A2983 460 65 1000 VRB/04 RMK AO2 T01830117
03949KAQV AQV20191213131511112/13/19 13:15:31  5-MIN KAQV 131915Z AUTO 00000KT 10SM BKN026 19/12 A2983 460 62 1100 000/00 RMK AO2 T01890117
03949KAQV AQV20191213132011112/13/19 13:20:31  5-MIN KAQV 131920Z AUTO 22005KT 10SM BKN027 19/12 A2982 470 62 1100 210/05 RMK AO2 T01890117
03949KAQV AQV20191213132511112/13/19 13:25:31  5-MIN KAQV 131925Z AUTO VRB06KT 10SM BKN027 18/12 A2982 470 65 1000 VRB/06 RMK AO2 T01830117
03949KAQV AQV20191213133011812/13/19 13:30:31  5-MIN KAQV 131930Z AUTO VRB04KT 10SM SCT027 19/12 A2981 480 62 1100 VRB/04 RMK AO2 PRESFR T01890117
03949KAQV AQV20191213133511112/13/19 13:35:31  5-MIN KAQV 131935Z AUTO 19006KT 10SM FEW026 19/12 A2981 480 60 1100 180/06 RMK AO2 T01940117
03949KAQV AQV20191213134011112/13/19 13:40:31  5-MIN KAQV 131940Z AUTO 21007KT 10SM FEW026 19/12 A2981 480 62 1100 200/07 RMK AO2 T01890117
03949KAQV AQV20191213134511112/13/19 13:45:31  5-MIN KAQV 131945Z AUTO VRB03KT 10SM FEW028 18/12 A2981 480 65 1000 VRB/03 RMK AO2 T01830117
03949KAQV AQV20191213135011112/13/19 13:50:31  5-MIN KAQV 131950Z AUTO 23006KT 10SM SCT028 18/12 A2980 480 65 1000 220/06 RMK AO2 T01830117
03949KAQV AQV20191213135511812/13/19 13:55:31  5-MIN KAQV 131955Z AUTO 18005KT 10SM SCT028 19/12 A2980 490 62 1100 180/05 RMK AO2 SLP091 T01890117
03949KAQV AQV20191213140012712/13/19 14:00:31  5-MIN KAQV 132000Z AUTO 20007KT 150V230 10SM SCT028 19/12 A2980 490 60 1200 190/07 150V230 RMK AO2 T01940117
03949KAQV AQV20191213140512712/13/19 14:05:31  5-MIN KAQV 132005Z AUTO 21007KT 160V250 10SM SCT028 18/12 A2979 490 65 1000 210/07 160V250 RMK AO2 T01830117
03949KAQV AQV20191214001011012/14/19 00:10:31  5-MIN KAQV 140610Z AUTO 00000KT 2SM BR CLR 08/07 A2982 470 93 -100 000/00 RMK AO2 T00830072
03949KAQV AQV20191214001511412/14/19 00:15:31  5-MIN KAQV 140615Z AUTO 00000KT 2 1/2SM BR CLR 08/07 A2982 470 93 -100 000/00 RMK AO2 T00830072
03949KAQV AQV20191214002011012/14/19 00:20:31  5-MIN KAQV 140620Z AUTO 00000KT 4SM BR CLR 08/07 A2982 470 93 -100 000/00 RMK AO2 T00830072
03949KAQV AQV20191214002511012/14/19 00:25:31  5-MIN KAQV 140625Z AUTO 00000KT 4SM BR CLR 08/07 A2982 470 93 -100 000/00 RMK AO2 T00830072
03949KAQV AQV20191214003011012/14/19 00:30:31  5-MIN KAQV 140630Z AUTO 00000KT 5SM BR CLR 08/07 A2982 470 93 -100 000/00 RMK AO2 T00830072
03949KAQV AQV20191214003511012/14/19 00:35:31  5-MIN KAQV 140635Z AUTO 00000KT 6SM BR CLR 08/07 A2981 480 93 -100 000/00 RMK AO2 T00830072
03949KAQV AQV20191214004010712/14/19 00:40:31  5-MIN KAQV 140640Z AUTO 00000KT 7SM CLR 08/07 A2981 480 93 -100 000/00 RMK AO2 T00830072
03949KAQV AQV20191214004510712/14/19 00:45:31  5-MIN KAQV 140645Z AUTO 00000KT 8SM CLR 08/07 A2981 480 93 -100 000/00 RMK AO2 T00830072
03949KAQV AQV20191214005010712/14/19 00:50:31  5-MIN KAQV 140650Z AUTO 00000KT 8SM CLR 08/07 A2981 480 89 -100 000/00 RMK AO2 T00830067
03949KAQV AQV20191214005511412/14/19 00:55:31  5-MIN KAQV 140655Z AUTO 00000KT 7SM CLR 08/07 A2981 480 89 -100 000/00 RMK AO2 SLP095 T00830067
03949KAQV AQV20191214010011012/14/19 01:00:31  5-MIN KAQV 140700Z AUTO 00000KT 5SM BR CLR 08/07 A2981 480 89 -100 000/00 RMK AO2 T00830067
03949KAQV AQV20191214010511012/14/19 01:05:31  5-MIN KAQV 140705Z AUTO 00000KT 3SM BR CLR 08/07 A2981 480 89 -100 000/00 RMK AO2 T00830067
03949KAQV AQV20191214011012212/14/19 01:10:31  5-MIN KAQV 140710Z AUTO 00000KT 2SM BR CLR 08/07 A2981 480 89 -100 000/00 RMK AO2 VIS 1 1/4V3 T00830067
03949KAQV AQV20191214011511412/14/19 01:15:31  5-MIN KAQV 140715Z AUTO 00000KT 1 1/2SM BR CLR 08/07 A2981 480 93 -200 000/00 RMK AO2 T00780067
03949KAQV AQV20191214012011012/14/19 01:20:31  5-MIN KAQV 140720Z AUTO 00000KT 1SM BR CLR 08/07 A2981 480 93 -200 000/00 RMK AO2 T00780067
03949KAQV AQV20191214012511412/14/19 01:25:31  5-MIN KAQV 140725Z AUTO 00000KT 1 1/4SM BR CLR 07/07 A2981 480 96 -300 000/00 RMK AO2 T00720067
03949KAQV AQV20191214013011012/14/19 01:30:31  5-MIN KAQV 140730Z AUTO 00000KT 3SM BR CLR 07/07 A2982 470 96 -300 000/00 RMK AO2 T00720067
03949KAQV AQV20191214013511012/14/19 01:35:31  5-MIN KAQV 140735Z AUTO 00000KT 4SM BR CLR 08/06 A2982 470 89 -200 000/00 RMK AO2 T00780061
03949KAQV AQV20191214014011012/14/19 01:40:31  5-MIN KAQV 140740Z AUTO 00000KT 4SM BR CLR 08/07 A2982 470 93 -200 000/00 RMK AO2 T00780067
03949KAQV AQV20191214014511012/14/19 01:45:31  5-MIN KAQV 140745Z AUTO 00000KT 4SM BR CLR 08/07 A2981 470 93 -200 000/00 RMK AO2 T00780067
03949KAQV AQV20191214015011012/14/19 01:50:31  5-MIN KAQV 140750Z AUTO 00000KT 3SM BR CLR 07/07 A2981 480 96 -300 000/00 RMK AO2 T00720067
03949KAQV AQV20191214015511712/14/19 01:55:31  5-MIN KAQV 140755Z AUTO 00000KT 3SM BR CLR 07/06 A2982 470 93 -300 000/00 RMK AO2 SLP097 T00720061
03949KAQV AQV20191214020011012/14/19 02:00:31  5-MIN KAQV 140800Z AUTO 00000KT 4SM BR CLR 07/06 A2982 470 93 -300 000/00 RMK AO2 T00720061
03949KAQV AQV20191214020511012/14/19 02:05:31  5-MIN KAQV 140805Z AUTO 00000KT 5SM BR CLR 07/06 A2982 470 93 -300 000/00 RMK AO2 T00720061
03949KAQV AQV20191214021011012/14/19 02:10:31  5-MIN KAQV 140810Z AUTO 00000KT 5SM BR CLR 08/06 A2982 470 89 -200 000/00 RMK AO2 T00780061
03949KAQV AQV20191214021511012/14/19 02:15:31  5-MIN KAQV 140815Z AUTO 00000KT 5SM BR CLR 07/06 A2981 480 93 -300 000/00 RMK AO2 T00720061
03949KAQV AQV20191214022011012/14/19 02:20:31  5-MIN KAQV 140820Z AUTO 00000KT 6SM BR CLR 07/06 A2981 480 93 -300 000/00 RMK AO2 T00720061
03949KAQV AQV20191214022511012/14/19 02:25:31  5-MIN KAQV 140825Z AUTO 00000KT 5SM BR CLR 07/06 A2981 480 93 -300 000/00 RMK AO2 T00720061
03949KAQV AQV20191214023011012/14/19 02:30:31  5-MIN KAQV 140830Z AUTO 00000KT 4SM BR CLR 07/06 A2981 480 93 -300 000/00 RMK AO2 T00720061
03949KAQV AQV20191214023511012/14/19 02:35:31  5-MIN KAQV 140835Z AUTO 00000KT 4SM BR CLR 07/06 A2982 470 93 -300 000/00 RMK AO2 T00720061
03949KAQV AQV20191214024011012/14/19 02:40:31  5-MIN KAQV 140840Z AUTO 00000KT 4SM BR CLR 07/06 A2982 470 93 -300 000/00 RMK AO2 T00720061
03949KAQV AQV20191214024511012/14/19 02:45:31  5-MIN KAQV 140845Z AUTO 00000KT 4SM BR CLR 07/06 A2982 470 93 -300 000/00 RMK AO2 T00720061
03949KAQV AQV20191214025011012/14/19 02:50:31  5-MIN KAQV 140850Z AUTO 00000KT 3SM BR CLR 07/06 A2983 460 93 -300 000/00 RMK AO2 T00720061
03949KAQV AQV20191214025511212/14/19 02:55:31  5-MIN KAQV 140855Z AUTO 00000KT 2 1/2SM BR CLR 07/06 A2983 460 89 -300 000/00 RMK AO2 VIS 2V3
03949KAQV AQV20191214030011012/14/19 03:00:31  5-MIN KAQV 140900Z AUTO 00000KT 3SM BR CLR 07/06 A2983 460 93 -300 000/00 RMK AO2 T00670056
03949KAQV AQV20191214030511412/14/19 03:05:31  5-MIN KAQV 140905Z AUTO 00000KT 1 3/4SM BR CLR 07/06 A2982 460 93 -300 000/00 RMK AO2 T00720061
03949KAQV AQV20191214031011412/14/19 03:10:31  5-MIN KAQV 140910Z AUTO 00000KT 1 1/4SM BR CLR 07/06 A2983 460 93 -300 000/00 RMK AO2 T00720061
03949KAQV AQV20191214031511412/14/19 03:15:31  5-MIN KAQV 140915Z AUTO 00000KT 1 3/4SM BR CLR 07/06 A2984 450 93 -300 000/00 RMK AO2 T00720061
03949KAQV AQV20191214032011012/14/19 03:20:31  5-MIN KAQV 140920Z AUTO 00000KT 3SM BR CLR 07/06 A2984 450 93 -300 000/00 RMK AO2 T00720061
03949KAQV AQV20191214032511012/14/19 03:25:31  5-MIN KAQV 140925Z AUTO 00000KT 4SM BR CLR 07/06 A2983 460 93 -300 000/00 RMK AO2 T00720061
03949KAQV AQV20191214033011012/14/19 03:30:31  5-MIN KAQV 140930Z AUTO 00000KT 6SM BR CLR 07/06 A2983 460 93 -300 000/00 RMK AO2 T00720061
03949KAQV AQV20191214033511012/14/19 03:35:31  5-MIN KAQV 140935Z AUTO 00000KT 5SM BR CLR 07/06 A2982 470 93 -300 000/00 RMK AO2 T00720061
03949KAQV AQV20191214034011012/14/19 03:40:31  5-MIN KAQV 140940Z AUTO 00000KT 4SM BR CLR 07/06 A2982 470 96 -300 000/00 RMK AO2 T00670061
03949KAQV AQV20191214034511012/14/19 03:45:31  5-MIN KAQV 140945Z AUTO 00000KT 5SM BR CLR 07/06 A2982 470 93 -300 000/00 RMK AO2 T00670056
03949KAQV AQV20191214035011012/14/19 03:50:31  5-MIN KAQV 140950Z AUTO 00000KT 5SM BR CLR 07/06 A2982 470 89 -300 000/00 RMK AO2 T00720056
03949KAQV AQV20191214035511712/14/19 03:55:31  5-MIN KAQV 140955Z AUTO 00000KT 5SM BR CLR 07/06 A2981 480 89 -300 000/00 RMK AO2 SLP096 T00720056
03949KAQV AQV20191214040011012/14/19 04:00:31  5-MIN KAQV 141000Z AUTO 00000KT 3SM BR CLR 07/06 A2981 480 89 -300 000/00 RMK AO2 T00720056
03949KAQV AQV20191214040511312/14/19 04:05:31  5-MIN KAQV 141005Z AUTO 00000KT 2SM BR FEW004 07/06 A2981 480 93 -300 000/00 RMK AO2 T00670056
03949KAQV AQV20191214041011712/14/19 04:10:31  5-MIN KAQV 141010Z AUTO 00000KT 1 1/4SM BR SCT004 07/06 A2981 480 93 -300 000/00 RMK AO2 T00670056
03949KAQV AQV20191214041511412/14/19 04:15:31  5-MIN KAQV 141015Z AUTO 00000KT 3/4SM BR VV003 07/06 A2981 480 93 -300 000/00 RMK AO2 T00670056
03949KAQV AQV20191214042011412/14/19 04:20:31  5-MIN KAQV 141020Z AUTO 00000KT 1/2SM FG VV003 06/06 A2981 480 96 -400 000/00 RMK AO2 T00610056
03949KAQV AQV20191214042511412/14/19 04:25:31  5-MIN KAQV 141025Z AUTO 00000KT 1/2SM FG VV003 06/05 A2981 480 96 -500 000/00 RMK AO2 T00560050
03949KAQV AQV20191214043011412/14/19 04:30:31  5-MIN KAQV 141030Z AUTO 00000KT 3/4SM BR VV003 06/05 A2982 470 96 -500 000/00 RMK AO2 T00560050
03949KAQV AQV20191214043511712/14/19 04:35:31  5-MIN KAQV 141035Z AUTO 00000KT 1 3/4SM BR BKN003 06/05 A2982 470 93 -400 000/00 RMK AO2 T00610050
03949KAQV AQV20191214044011312/14/19 04:40:31  5-MIN KAQV 141040Z AUTO 00000KT 4SM BR SCT003 06/05 A2982 470 93 -400 000/00 RMK AO2 T00610050
03949KAQV AQV20191214044511312/14/19 04:45:31  5-MIN KAQV 141045Z AUTO 00000KT 4SM BR SCT003 06/05 A2982 470 93 -400 000/00 RMK AO2 T00610050
03949KAQV AQV20191214045011312/14/19 04:50:31  5-MIN KAQV 141050Z AUTO 00000KT 5SM BR FEW003 06/05 A2981 470 93 -400 000/00 RMK AO2 T00610050
03949KAQV AQV20191214045511712/14/19 04:55:31  5-MIN KAQV 141055Z AUTO 00000KT 5SM BR CLR 06/05 A2982 470 93 -400 000/00 RMK AO2 SLP097 T00610050
03949KAQV AQV20191214050011012/14/19 05:00:31  5-MIN KAQV 141100Z AUTO 00000KT 4SM BR CLR 06/05 A2982 470 93 -400 000/00 RMK AO2 T00610050
03949KAQV AQV20191214050511012/14/19 05:05:31  5-MIN KAQV 141105Z AUTO 28003KT 4SM BR CLR 06/05 A2983 460 93 -400 270/03 RMK AO2 T00610050
03949KAQV AQV20191214051011012/14/19 05:10:31  5-MIN KAQV 141110Z AUTO VRB03KT 3SM BR CLR 06/05 A2983 460 93 -400 VRB/03 RMK AO2 T00610050
03949KAQV AQV20191214051511012/14/19 05:15:31  5-MIN KAQV 141115Z AUTO 00000KT 3SM BR CLR 06/05 A2983 460 93 -400 000/00 RMK AO2 T00610050
03949KAQV AQV20191214052011012/14/19 05:20:31  5-MIN KAQV 141120Z AUTO 00000KT 3SM BR CLR 06/05 A2984 450 96 -500 000/00 RMK AO2 T00560050
03949KAQV AQV20191214052511012/14/19 05:25:31  5-MIN KAQV 141125Z AUTO 00000KT 3SM BR CLR 06/04 A2984 450 92 -500 000/00 RMK AO2 T00560044
03949KAQV AQV20191214053011012/14/19 05:30:31  5-MIN KAQV 141130Z AUTO 00000KT 3SM BR CLR 06/04 A2984 450 92 -500 000/00 RMK AO2 T00560044
03949KAQV AQV20191214053511412/14/19 05:35:31  5-MIN KAQV 141135Z AUTO 00000KT 2 1/2SM BR CLR 06/04 A2984 450 92 -500 000/00 RMK AO2 T00560044
03949KAQV AQV20191214054011412/14/19 05:40:31  5-MIN KAQV 141140Z AUTO 00000KT 2 1/2SM BR CLR 06/04 A2984 450 92 -500 000/00 RMK AO2 T00560044
03949KAQV AQV20191214054511412/14/19 05:45:31  5-MIN KAQV 141145Z AUTO 00000KT 2 1/2SM BR CLR 06/04 A2984 450 92 -500 000/00 RMK AO2 T00560044
03949KAQV AQV20191214055011012/14/19 05:50:31  5-MIN KAQV 141150Z AUTO 00000KT 3SM BR CLR 06/04 A2985 440 92 -500 000/00 RMK AO2 T00560044
03949KAQV AQV20191214055510012/14/19 05:55:31  5-MIN KAQV 141155Z AUTO 00000KT 3SM BR CLR 06/05 A2985 440 93 -400 000/00 RMK AO2
03949KAQV AQV20191214060012212/14/19 06:00:31  5-MIN KAQV 141200Z AUTO 00000KT 2 1/2SM BR CLR 07/06 A2985 440 93 -400 000/00 RMK AO2 VIS 2V4 T00670056
03949KAQV AQV20191214060511412/14/19 06:05:31  5-MIN KAQV 141205Z AUTO 00000KT 2 1/2SM BR CLR 07/06 A2985 440 93 -400 000/00 RMK AO2 T00670056
03949KAQV AQV20191214061011012/14/19 06:10:31  5-MIN KAQV 141210Z AUTO 00000KT 3SM BR CLR 07/06 A2985 450 93 -400 000/00 RMK AO2 T00670056
03949KAQV AQV20191214061511012/14/19 06:15:31  5-MIN KAQV 141215Z AUTO 00000KT 3SM BR CLR 07/06 A2985 440 93 -400 000/00 RMK AO2 T00670056
03949KAQV AQV20191214062011012/14/19 06:20:31  5-MIN KAQV 141220Z AUTO 00000KT 3SM BR CLR 07/06 A2985 440 93 -300 000/00 RMK AO2 T00720061
03949KAQV AQV20191214062511312/14/19 06:25:31  5-MIN KAQV 141225Z AUTO 00000KT 3SM BR FEW002 07/06 A2985 440 93 -300 000/00 RMK AO2 T00720061
03949KAQV AQV20191214063011712/14/19 06:30:31  5-MIN KAQV 141230Z AUTO 00000KT 2 1/2SM BR SCT002 07/06 A2985 440 93 -400 000/00 RMK AO2 T00670056
03949KAQV AQV20191214063511312/14/19 06:35:31  5-MIN KAQV 141235Z AUTO 00000KT 2SM BR BKN002 06/06 A2986 440 96 -400 000/00 RMK AO2 T00610056
03949KAQV AQV20191214064012412/14/19 06:40:31  5-MIN KAQV 141240Z AUTO 00000KT 3/4SM BR VV002 07/06 A2985 440 93 -400 000/00 RMK AO2 VIS 1/4V2 T00670056
03949KAQV AQV20191214064511412/14/19 06:45:31  5-MIN KAQV 141245Z AUTO 00000KT 1/2SM FG VV002 07/06 A2985 440 93 -400 000/00 RMK AO2 T00670056
03949KAQV AQV20191214065011412/14/19 06:50:31  5-MIN KAQV 141250Z AUTO 00000KT 1/4SM FG VV002 07/06 A2986 440 96 -400 000/00 RMK AO2 T00670061
03949KAQV AQV20191214065512112/14/19 06:55:31  5-MIN KAQV 141255Z AUTO 00000KT 1/4SM FG VV002 07/06 A2986 430 93 -300 000/00 RMK AO2 SLP111 T00720061
03949KAQV AQV20191214070011412/14/19 07:00:31  5-MIN KAQV 141300Z AUTO 00000KT 1/4SM FG VV002 07/06 A2986 430 93 -300 000/00 RMK AO2 T00720061
03949KAQV AQV20191214070511412/14/19 07:05:31  5-MIN KAQV 141305Z AUTO 00000KT 1/4SM FG VV002 07/06 A2986 430 93 -300 000/00 RMK AO2 T00720061
03949KAQV AQV20191214071011512/14/19 07:10:31  5-MIN KAQV 141310Z AUTO 00000KT M1/4SM FG VV002 07/07 A2986 440 96 -300 000/00 RMK AO2 T00720067
03949KAQV AQV20191214071511512/14/19 07:15:31  5-MIN KAQV 141315Z AUTO 00000KT M1/4SM FG VV002 07/06 A2986 430 96 -400 000/00 RMK AO2 T00670061
03949KAQV AQV20191214072011512/14/19 07:20:31  5-MIN KAQV 141320Z AUTO 00000KT M1/4SM FG VV002 07/06 A2986 430 96 -400 000/00 RMK AO2 T00670061
03949KAQV AQV20191214072511512/14/19 07:25:31  5-MIN KAQV 141325Z AUTO 00000KT M1/4SM FG VV002 07/06 A2986 430 96 -400 000/00 RMK AO2 T00670061
03949KAQV AQV20191214073011512/14/19 07:30:31  5-MIN KAQV 141330Z AUTO 00000KT M1/4SM FG VV002 07/06 A2987 430 96 -400 000/00 RMK AO2 T00670061
03949KAQV AQV20191214073511512/14/19 07:35:31  5-MIN KAQV 141335Z AUTO 00000KT M1/4SM FG VV001 07/06 A2987 420 93 -300 000/00 RMK AO2 T00720061
03949KAQV AQV20191214074011512/14/19 07:40:31  5-MIN KAQV 141340Z AUTO 00000KT M1/4SM FG VV001 07/06 A2987 420 93 -300 000/00 RMK AO2 T00720061
03949KAQV AQV20191214074511512/14/19 07:45:31  5-MIN KAQV 141345Z AUTO 00000KT M1/4SM FG VV001 07/07 A2987 420 96 -300 000/00 RMK AO2 T00720067
03949KAQV AQV20191214075011412/14/19 07:50:31  5-MIN KAQV 141350Z AUTO 00000KT 1/4SM FG VV002 07/07 A2988 410 96 -300 000/00 RMK AO2 T00720067
03949KAQV AQV20191214075512112/14/19 07:55:31  5-MIN KAQV 141355Z AUTO 00000KT 1/4SM FG VV002 07/07 A2988 410 96 -300 000/00 RMK AO2 SLP119 T00720067
03949KAQV AQV20191214080011412/14/19 08:00:31  5-MIN KAQV 141400Z AUTO 00000KT 1/4SM FG VV002 07/07 A2988 410 96 -300 000/00 RMK AO2 T00720067
03949KAQV AQV20191214080511412/14/19 08:05:31  5-MIN KAQV 141405Z AUTO 00000KT 1/2SM FG VV003 07/07 A2988 410 96 -300 000/00 RMK AO2 T00720067
03949KAQV AQV20191214081011412/14/19 08:10:31  5-MIN KAQV 141410Z AUTO 00000KT 3/4SM BR VV004 08/07 A2988 410 96 -300 000/00 RMK AO2 T00780072
03949KAQV AQV20191214081511712/14/19 08:15:31  5-MIN KAQV 141415Z AUTO 00000KT 1 1/2SM BR BKN003 08/08 A2988 410 96 -200 000/00 RMK AO2 T00830078
03949KAQV AQV20191214082011812/14/19 08:20:31  5-MIN KAQV 141420Z AUTO 00000KT 2 1/2SM BR BKN003 08/08 A2988 410 100 -200 000/00 RMK AO2 T00830083
03949KAQV AQV20191214082512012/14/19 08:25:31  5-MIN KAQV 141425Z AUTO 00000KT 3SM BR FEW001 SCT005 09/08 A2988 410 96 -100 000/00 RMK AO2 T00890083
03949KAQV AQV20191214083012012/14/19 08:30:31  5-MIN KAQV 141430Z AUTO 00000KT 4SM BR FEW001 SCT007 09/09 A2988 410 96 -100 000/00 RMK AO2 T00940089
03949KAQV AQV20191214083511712/14/19 08:35:31  5-MIN KAQV 141435Z AUTO 00000KT 4SM BR FEW001 FEW009 10/09 A2988 410 96 0 000/00 RMK AO2 T01000094
03949KAQV AQV20191214084010712/14/19 08:40:31  5-MIN KAQV 141440Z AUTO 00000KT 5SM BR CLR 10/09 A2988 410 96 0 000/00 RMK AO2 T01000094
03949KAQV AQV20191214084510712/14/19 08:45:31  5-MIN KAQV 141445Z AUTO 00000KT 6SM BR CLR 10/09 A2988 410 96 0 000/00 RMK AO2 T01000094
03949KAQV AQV20191214085010412/14/19 08:50:31  5-MIN KAQV 141450Z AUTO 00000KT 7SM CLR 10/09 A2987 420 96 0 000/00 RMK AO2 T01000094
03949KAQV AQV20191214085511712/14/19 08:55:31  5-MIN KAQV 141455Z AUTO 00000KT 8SM CLR 11/09 A2987 420 93 0 000/00 RMK AO2 SLP116 T01060094 51012
03949KAQV AQV20191214090011412/14/19 09:00:31  5-MIN KAQV 141500Z AUTO 00000KT 9SM -RA CLR 11/09 A2988 420 93 0 000/00 RMK AO2 P0000 T01060094
03949KAQV AQV20191214090511712/14/19 09:05:31  5-MIN KAQV 141505Z AUTO 00000KT 10SM -RA CLR 11/10 A2988 420 93 100 000/00 RMK AO2 P0000 T01110100
03949KAQV AQV20191214091011712/14/19 09:10:31  5-MIN KAQV 141510Z AUTO VRB03KT 10SM -RA CLR 11/10 A2988 410 93 100 VRB/03 RMK AO2 P0000 T01110100
03949KAQV AQV20191214091511912/14/19 09:15:31  5-MIN KAQV 141515Z AUTO 00000KT 10SM CLR 11/10 A2989 400 93 100 000/00 RMK AO2 RAE11 P0000 T01110100
03949KAQV AQV20191214092011912/14/19 09:20:31  5-MIN KAQV 141520Z AUTO VRB03KT 10SM CLR 11/10 A2990 400 93 100 VRB/03 RMK AO2 RAE11 P0000 T01110100
03949KAQV AQV20191214092511912/14/19 09:25:31  5-MIN KAQV 141525Z AUTO VRB03KT 10SM CLR 12/11 A2990 400 93 100 VRB/03 RMK AO2 RAE11 P0000 T01170106
03949KAQV AQV20191214093011912/14/19 09:30:31  5-MIN KAQV 141530Z AUTO VRB03KT 10SM CLR 12/10 A2990 400 89 100 VRB/03 RMK AO2 RAE11 P0000 T01170100
03949KAQV AQV20191214093511912/14/19 09:35:31  5-MIN KAQV 141535Z AUTO 26004KT 10SM CLR 12/10 A2990 400 89 100 250/04 RMK AO2 RAE11 P0000 T01170100
03949KAQV AQV20191214094011912/14/19 09:40:31  5-MIN KAQV 141540Z AUTO 00000KT 10SM CLR 12/10 A2990 400 89 100 000/00 RMK AO2 RAE11 P0000 T01170100
03949KAQV AQV20191214094511912/14/19 09:45:31  5-MIN KAQV 141545Z AUTO 00000KT 10SM CLR 12/11 A2989 400 89 200 000/00 RMK AO2 RAE11 P0000 T01220106
03949KAQV AQV20191214095011912/14/19 09:50:31  5-MIN KAQV 141550Z AUTO 00000KT 10SM CLR 13/11 A2989 400 86 300 000/00 RMK AO2 RAE11 P0000 T01280106
03949KAQV AQV20191214095512612/14/19 09:55:31  5-MIN KAQV 141555Z AUTO 00000KT 10SM CLR 14/11 A2990 400 80 400 000/00 RMK AO2 RAE11 SLP124 P0000 T01390106
03949KAQV AQV20191214100010712/14/19 10:00:31  5-MIN KAQV 141600Z AUTO 00000KT 10SM CLR 14/11 A2990 400 80 400 000/00 RMK AO2 T01390106
03949KAQV AQV20191214100512312/14/19 10:05:31  5-MIN KAQV 141605Z AUTO 00000KT 10SM -RA CLR 13/11 A2990 400 83 300 000/00 RMK AO2 RAB04 P0000 T01330106
03949KAQV AQV20191214101012312/14/19 10:10:31  5-MIN KAQV 141610Z AUTO VRB03KT 10SM -RA CLR 13/11 A2990 400 83 300 VRB/03 RMK AO2 RAB04 P0000 T01330106
03949KAQV AQV20191214101512212/14/19 10:15:31  5-MIN KAQV 141615Z AUTO VRB03KT 10SM CLR 13/11 A2990 400 83 300 VRB/03 RMK AO2 RAB04E15 P0000 T01330106
03949KAQV AQV20191214102012212/14/19 10:20:31  5-MIN KAQV 141620Z AUTO VRB04KT 10SM CLR 13/11 A2989 400 83 300 VRB/04 RMK AO2 RAB04E15 P0000 T01330106
03949KAQV AQV20191214102512212/14/19 10:25:31  5-MIN KAQV 141625Z AUTO VRB03KT 10SM CLR 13/11 A2989 400 83 300 VRB/03 RMK AO2 RAB04E15 P0000 T01330106
03949KAQV AQV20191214103012212/14/19 10:30:31  5-MIN KAQV 141630Z AUTO VRB03KT 10SM CLR 15/10 A2989 410 72 500 VRB/03 RMK AO2 RAB04E15 P0000 T01500100
03949KAQV AQV20191214103512212/14/19 10:35:31  5-MIN KAQV 141635Z AUTO VRB03KT 10SM CLR 16/10 A2989 410 69 600 VRB/03 RMK AO2 RAB04E15 P0000 T01560100
03949KAQV AQV20191214104012212/14/19 10:40:31  5-MIN KAQV 141640Z AUTO VRB03KT 10SM CLR 16/10 A2989 410 69 600 VRB/03 RMK AO2 RAB04E15 P0000 T01560100
03949KAQV AQV20191214104512212/14/19 10:45:31  5-MIN KAQV 141645Z AUTO 31003KT 10SM CLR 16/10 A2989 400 69 600 310/03 RMK AO2 RAB04E15 P0000 T01560100
03949KAQV AQV20191214105012212/14/19 10:50:31  5-MIN KAQV 141650Z AUTO 35003KT 10SM CLR 16/09 A2989 410 64 700 340/03 RMK AO2 RAB04E15 P0000 T01610094
03949KAQV AQV20191214105512912/14/19 10:55:31  5-MIN KAQV 141655Z AUTO VRB04KT 10SM CLR 16/09 A2989 400 64 700 VRB/04 RMK AO2 RAB04E15 SLP122 P0000 T01610094
03949KAQV AQV20191214110010712/14/19 11:00:31  5-MIN KAQV 141700Z AUTO 00000KT 10SM CLR 16/10 A2989 410 67 700 000/00 RMK AO2 T01610100
03949KAQV AQV20191214110510712/14/19 11:05:31  5-MIN KAQV 141705Z AUTO VRB04KT 10SM CLR 17/09 A2989 410 60 700 VRB/04 RMK AO2 T01670089
03949KAQV AQV20191214111010712/14/19 11:10:31  5-MIN KAQV 141710Z AUTO VRB03KT 10SM CLR 17/09 A2988 410 62 700 VRB/03 RMK AO2 T01670094
03949KAQV AQV20191214111510712/14/19 11:15:31  5-MIN KAQV 141715Z AUTO 00000KT 10SM CLR 17/10 A2988 410 64 700 000/00 RMK AO2 T01670100
03949KAQV AQV20191214112010712/14/19 11:20:31  5-MIN KAQV 141720Z AUTO 36004KT 10SM CLR 17/09 A2988 410 60 800 350/04 RMK AO2 T01720094
03949KAQV AQV20191214112510712/14/19 11:25:31  5-MIN KAQV 141725Z AUTO 00000KT 10SM CLR 17/09 A2988 410 57 800 000/00 RMK AO2 T01720089
03949KAQV AQV20191214113010712/14/19 11:30:31  5-MIN KAQV 141730Z AUTO 00000KT 10SM CLR 17/09 A2988 410 57 800 000/00 RMK AO2 T01720089
03949KAQV AQV20191214113510712/14/19 11:35:31  5-MIN KAQV 141735Z AUTO 00000KT 10SM CLR 17/08 A2988 410 57 700 000/00 RMK AO2 T01670083
03949KAQV AQV20191214114010712/14/19 11:40:31  5-MIN KAQV 141740Z AUTO VRB03KT 10SM CLR 17/08 A2988 410 55 800 VRB/03 RMK AO2 T01720083
03949KAQV AQV20191214114510712/14/19 11:45:31  5-MIN KAQV 141745Z AUTO 00000KT 10SM CLR 17/08 A2988 420 55 800 000/00 RMK AO2 T01720083
03949KAQV AQV20191214115010712/14/19 11:50:31  5-MIN KAQV 141750Z AUTO 00000KT 10SM CLR 18/08 A2987 420 53 900 000/00 RMK AO2 T01780083
03949KAQV AQV20191214115513812/14/19 11:55:31  5-MIN KAQV 141755Z AUTO 01003KT 10SM CLR 18/09 A2987 420 55 900 360/03 RMK AO2 SLP116 60000 T01780089 10178 20061 50008
03949KAQV AQV20191214120010812/14/19 12:00:31  5-MIN KAQV 141800Z AUTO 00000KT 10SM CLR 18/09 A2987 420 54 1000 000/00 RMK AO2 T01830089
03949KAQV AQV20191214120510712/14/19 12:05:31  5-MIN KAQV 141805Z AUTO 33003KT 10SM CLR 18/09 A2987 420 55 900 330/03 RMK AO2 T01780089
03949KAQV AQV20191214124510712/14/19 12:45:31  5-MIN KAQV 141845Z AUTO 00000KT 10SM CLR 18/08 A2986 440 53 900 000/00 RMK AO2 T01780083
03949KAQV AQV20191214125010712/14/19 12:50:31  5-MIN KAQV 141850Z AUTO 00000KT 10SM CLR 17/08 A2985 440 55 800 000/00 RMK AO2 T01720083
03949KAQV AQV20191214125511412/14/19 12:55:31  5-MIN KAQV 141855Z AUTO 24003KT 10SM CLR 18/08 A2985 440 53 900 230/03 RMK AO2 SLP109 T01780083
03949KAQV AQV20191214130010812/14/19 13:00:31  5-MIN KAQV 141900Z AUTO 00000KT 10SM CLR 18/08 A2985 440 52 1000 000/00 RMK AO2 T01830083
03949KAQV AQV20191214130510812/14/19 13:05:31  5-MIN KAQV 141905Z AUTO 00000KT 10SM CLR 19/08 A2985 440 50 1000 000/00 RMK AO2 T01890083
03949KAQV AQV20191214131010812/14/19 13:10:31  5-MIN KAQV 141910Z AUTO 00000KT 10SM CLR 19/08 A2984 450 50 1000 000/00 RMK AO2 T01890083
03949KAQV AQV20191214131510812/14/19 13:15:31  5-MIN KAQV 141915Z AUTO 00000KT 10SM CLR 19/08 A2984 450 50 1100 000/00 RMK AO2 T01890083
03949KAQV AQV20191214132010812/14/19 13:20:31  5-MIN KAQV 141920Z AUTO 00000KT 10SM CLR 19/08 A2984 450 50 1100 000/00 RMK AO2 T01890083
03949KAQV AQV20191214132510812/14/19 13:25:31  5-MIN KAQV 141925Z AUTO 00000KT 10SM CLR 18/08 A2984 450 50 1000 000/00 RMK AO2 T01830078
03949KAQV AQV20191214133010812/14/19 13:30:31  5-MIN KAQV 141930Z AUTO 00000KT 10SM CLR 19/08 A2984 450 48 1100 000/00 RMK AO2 T01890078
03949KAQV AQV20191214133510812/14/19 13:35:31  5-MIN KAQV 141935Z AUTO 00000KT 10SM CLR 19/08 A2983 460 48 1100 000/00 RMK AO2 T01940083
03949KAQV AQV20191214134010812/14/19 13:40:31  5-MIN KAQV 141940Z AUTO 00000KT 10SM CLR 20/08 A2983 460 46 1200 000/00 RMK AO2 T02000083
03949KAQV AQV20191214134510812/14/19 13:45:31  5-MIN KAQV 141945Z AUTO 00000KT 10SM CLR 19/08 A2983 460 48 1100 000/00 RMK AO2 T01940083
03949KAQV AQV20191214135010812/14/19 13:50:31  5-MIN KAQV 141950Z AUTO 00000KT 10SM CLR 20/08 A2982 470 46 1200 000/00 RMK AO2 T02000083
03949KAQV AQV20191214135513112/14/19 13:55:31  5-MIN KAQV 141955Z AUTO 00000KT 10SM -RA CLR 20/08 A2982 470 46 1200 000/00 RMK AO2 RAB55 SLP097 P0000 T02000083
03949KAQV AQV20191214140011812/14/19 14:00:31  5-MIN KAQV 142000Z AUTO 00000KT 10SM -RA CLR 20/08 A2982 470 46 1200 000/00 RMK AO2 P0000 T02000083
03949KAQV AQV20191214140512012/14/19 14:05:31  5-MIN KAQV 142005Z AUTO VRB03KT 10SM CLR 20/09 A2981 480 48 1200 VRB/03 RMK AO2 RAE03 P0000 T02000089
03949KAQV AQV20191214141012012/14/19 14:10:31  5-MIN KAQV 142010Z AUTO 00000KT 10SM CLR 20/09 A2981 480 48 1200 000/00 RMK AO2 RAE03 P0000 T02000089
03949KAQV AQV20191214141512012/14/19 14:15:31  5-MIN KAQV 142015Z AUTO 03004KT 10SM CLR 20/08 A2981 480 46 1200 030/04 RMK AO2 RAE03 P0000 T02000083
03949KAQV AQV20191214142012012/14/19 14:20:31  5-MIN KAQV 142020Z AUTO VRB03KT 10SM CLR 21/08 A2981 480 45 1300 VRB/03 RMK AO2 RAE03 P0000 T02060083
03949KAQV AQV20191214142512012/14/19 14:25:31  5-MIN KAQV 142025Z AUTO 07003KT 10SM CLR 19/08 A2981 480 48 1200 060/03 RMK AO2 RAE03 P0000 T01940083
03949KAQV AQV20191214143012012/14/19 14:30:31  5-MIN KAQV 142030Z AUTO VRB03KT 10SM CLR 20/08 A2980 480 46 1200 VRB/03 RMK AO2 RAE03 P0000 T02000083
03949KAQV AQV20191214143512012/14/19 14:35:31  5-MIN KAQV 142035Z AUTO VRB04KT 10SM CLR 21/08 A2980 480 45 1300 VRB/04 RMK AO2 RAE03 P0000 T02060083
03949KAQV AQV20191214144012012/14/19 14:40:31  5-MIN KAQV 142040Z AUTO 00000KT 10SM CLR 21/08 A2980 480 45 1300 000/00 RMK AO2 RAE03 P0000 T02060083
03949KAQV AQV20191214144512012/14/19 14:45:31  5-MIN KAQV 142045Z AUTO 00000KT 10SM CLR 20/08 A2980 480 46 1200 000/00 RMK AO2 RAE03 P0000 T02000083
03949KAQV AQV20191214145012012/14/19 14:50:31  5-MIN KAQV 142050Z AUTO VRB04KT 10SM CLR 21/08 A2981 480 45 1300 VRB/04 RMK AO2 RAE03 P0000 T02060083
03949KAQV AQV20191214145513912/14/19 14:55:31  5-MIN KAQV 142055Z AUTO 08003KT 10SM CLR 21/08 A2981 480 45 1300 080/03 RMK AO2 RAE03 SLP093 P0000 60000 T02060083 50000
03949KAQV AQV20191214150010812/14/19 15:00:31  5-MIN KAQV 142100Z AUTO VRB03KT 10SM CLR 20/08 A2981 480 46 1200 VRB/03 RMK AO2 T02000083
03949KAQV AQV20191214150510812/14/19 15:05:31  5-MIN KAQV 142105Z AUTO VRB04KT 10SM CLR 20/08 A2981 480 46 1200 VRB/04 RMK AO2 T02000083
03949KAQV AQV20191214151010812/14/19 15:10:31  5-MIN KAQV 142110Z AUTO VRB03KT 10SM CLR 20/08 A2981 480 46 1200 VRB/03 RMK AO2 T02000083
03949KAQV AQV20191214151510812/14/19 15:15:31  5-MIN KAQV 142115Z AUTO VRB03KT 10SM CLR 20/08 A2981 480 46 1200 VRB/03 RMK AO2 T02000083
03949KAQV AQV20191214152010812/14/19 15:20:31  5-MIN KAQV 142120Z AUTO 00000KT 10SM CLR 20/08 A2981 470 45 1200 000/00 RMK AO2 T02000078
03949KAQV AQV20191214152510812/14/19 15:25:31  5-MIN KAQV 142125Z AUTO VRB03KT 10SM CLR 20/08 A2982 470 45 1200 VRB/03 RMK AO2 T02000078
03949KAQV AQV20191214153010812/14/19 15:30:31  5-MIN KAQV 142130Z AUTO 00000KT 10SM CLR 20/08 A2982 470 46 1200 000/00 RMK AO2 T02000083
03949KAQV AQV20191214153510812/14/19 15:35:31  5-MIN KAQV 142135Z AUTO 00000KT 10SM CLR 21/08 A2982 470 43 1300 000/00 RMK AO2 T02060078
03949KAQV AQV20191214154010812/14/19 15:40:31  5-MIN KAQV 142140Z AUTO 00000KT 10SM CLR 21/08 A2982 470 45 1300 000/00 RMK AO2 T02060083
03949KAQV AQV20191214154510812/14/19 15:45:31  5-MIN KAQV 142145Z AUTO VRB03KT 10SM CLR 20/09 A2982 470 48 1200 VRB/03 RMK AO2 T02000089
03949KAQV AQV20191214155010812/14/19 15:50:31  5-MIN KAQV 142150Z AUTO 00000KT 10SM CLR 20/09 A2982 470 48 1200 000/00 RMK AO2 T02000089
03949KAQV AQV20191214155511512/14/19 15:55:31  5-MIN KAQV 142155Z AUTO 00000KT 10SM CLR 20/09 A2982 470 48 1200 000/00 RMK AO2 SLP098 T02000089
03949KAQV AQV20191214160010812/14/19 16:00:31  5-MIN KAQV 142200Z AUTO 00000KT 10SM CLR 20/09 A2983 460 50 1200 000/00 RMK AO2 T02000094
03949KAQV AQV20191214160510812/14/19 16:05:31  5-MIN KAQV 142205Z AUTO VRB03KT 10SM CLR 19/09 A2983 460 52 1100 VRB/03 RMK AO2 T01940094
03949KAQV AQV20191214161010812/14/19 16:10:31  5-MIN KAQV 142210Z AUTO 07003KT 10SM CLR 19/09 A2982 470 52 1100 070/03 RMK AO2 T01940094
03949KAQV AQV20191214161510812/14/19 16:15:31  5-MIN KAQV 142215Z AUTO 07004KT 10SM CLR 19/10 A2982 470 54 1100 070/04 RMK AO2 T01940100
03949KAQV AQV20191214162010812/14/19 16:20:31  5-MIN KAQV 142220Z AUTO 00000KT 10SM CLR 19/10 A2982 470 54 1100 000/00 RMK AO2 T01940100
03949KAQV AQV20191214162510812/14/19 16:25:31  5-MIN KAQV 142225Z AUTO 00000KT 10SM CLR 19/10 A2982 470 56 1100 000/00 RMK AO2 T01890100
03949KAQV AQV20191214163012412/14/19 16:30:31  5-MIN KAQV 142230Z AUTO 00000KT 10SM -RA CLR 18/10 A2982 470 58 1000 000/00 RMK AO2 RAB30 P0000 T01830100
03949KAQV AQV20191214163512312/14/19 16:35:31  5-MIN KAQV 142235Z AUTO 00000KT 10SM -RA CLR 18/10 A2982 470 60 900 000/00 RMK AO2 RAB30 P0000 T01780100
03949KAQV AQV20191214164012212/14/19 16:40:31  5-MIN KAQV 142240Z AUTO 00000KT 10SM CLR 17/11 A2982 470 64 900 000/00 RMK AO2 RAB30E39 P0000 T01720106
03949KAQV AQV20191214164512212/14/19 16:45:31  5-MIN KAQV 142245Z AUTO 00000KT 10SM CLR 17/11 A2982 470 67 800 000/00 RMK AO2 RAB30E39 P0000 T01670106
03949KAQV AQV20191214165012312/14/19 16:50:31  5-MIN KAQV 142250Z AUTO 00000KT 10SM -RA CLR 17/12 A2982 460 72 800 000/00 RMK AO2 RAB30 P0000 T01670117
03949KAQV AQV20191214165513012/14/19 16:55:31  5-MIN KAQV 142255Z AUTO 00000KT 10SM -RA CLR 16/12 A2982 460 77 700 000/00 RMK AO2 RAB30 SLP100 P0000 T01560117
03949KAQV AQV20191214170011712/14/19 17:00:31  5-MIN KAQV 142300Z AUTO 00000KT 10SM -RA CLR 16/11 A2983 460 74 700 000/00 RMK AO2 P0000 T01560111
03949KAQV AQV20191214170511712/14/19 17:05:31  5-MIN KAQV 142305Z AUTO 00000KT 10SM -RA CLR 15/11 A2983 460 77 600 000/00 RMK AO2 P0000 T01500111
03949KAQV AQV20191214171011712/14/19 17:10:31  5-MIN KAQV 142310Z AUTO 00000KT 10SM -RA CLR 14/11 A2983 460 80 500 000/00 RMK AO2 P0000 T01440111
03949KAQV AQV20191214171511912/14/19 17:15:31  5-MIN KAQV 142315Z AUTO 00000KT 10SM CLR 14/11 A2983 460 80 500 000/00 RMK AO2 RAE14 P0000 T01440111
03949KAQV AQV20191214172011912/14/19 17:20:31  5-MIN KAQV 142320Z AUTO 00000KT 10SM CLR 14/11 A2983 460 83 500 000/00 RMK AO2 RAE14 P0000 T01390111
03949KAQV AQV20191214172511912/14/19 17:25:31  5-MIN KAQV 142325Z AUTO 00000KT 10SM CLR 13/11 A2983 460 83 400 000/00 RMK AO2 RAE14 P0000 T01330106
03949KAQV AQV20191214173007512/14/19 17:30:31  5-MIN KAQV 142330Z AUTO 00000KT 10SM CLR 13/11 A2983 460
03949KAQV AQV20191214235011012/14/19 23:50:31  5-MIN KAQV 150550Z AUTO 00000KT 3SM BR CLR 09/08 A2986 430 93 -100 000/00 RMK AO2 T00890078
03949KAQV AQV20191214235514512/14/19 23:55:31  5-MIN KAQV 150555Z AUTO 00000KT 3SM BR CLR 09/08 A2986 430 93 -100 000/00 RMK AO2 SLP113 T00890078 10122 20089 402060056 53010
03949KAQV AQV20191215000011012/15/19 00:00:31  5-MIN KAQV 150600Z AUTO 00000KT 3SM BR CLR 09/08 A2986 430 93 -100 000/00 RMK AO2 T00890078
03949KAQV AQV20191215000511012/15/19 00:05:31  5-MIN KAQV 150605Z AUTO 00000KT 4SM BR CLR 09/08 A2987 430 93 -100 000/00 RMK AO2 T00890078
03949KAQV AQV20191215001011012/15/19 00:10:31  5-MIN KAQV 150610Z AUTO 00000KT 6SM BR CLR 09/08 A2987 430 93 -100 000/00 RMK AO2 T00890078
03949KAQV AQV20191215001511012/15/19 00:15:31  5-MIN KAQV 150615Z AUTO 00000KT 6SM BR CLR 09/08 A2987 420 93 -100 000/00 RMK AO2 T00890078
03949KAQV AQV20191215002011012/15/19 00:20:31  5-MIN KAQV 150620Z AUTO 00000KT 5SM BR CLR 09/08 A2987 420 93 -100 000/00 RMK AO2 T00890078
03949KAQV AQV20191215002511312/15/19 00:25:31  5-MIN KAQV 150625Z AUTO 00000KT 4SM BR FEW024 09/08 A2987 420 93 -100 000/00 RMK AO2 T00890078
03949KAQV AQV20191215003011312/15/19 00:30:31  5-MIN KAQV 150630Z AUTO 00000KT 3SM BR SCT024 09/08 A2987 420 93 -100 000/00 RMK AO2 T00890078
03949KAQV AQV20191215003511312/15/19 00:35:31  5-MIN KAQV 150635Z AUTO 00000KT 3SM BR SCT024 09/08 A2987 420 93 -100 000/00 RMK AO2 T00890078
03949KAQV AQV20191215004011312/15/19 00:40:31  5-MIN KAQV 150640Z AUTO 00000KT 4SM BR BKN022 09/08 A2987 420 93 -100 000/00 RMK AO2 T00890078
03949KAQV AQV20191215004511312/15/19 00:45:31  5-MIN KAQV 150645Z AUTO 00000KT 4SM BR BKN022 09/08 A2987 420 96 -100 000/00 RMK AO2 T00890083
03949KAQV AQV20191215005011312/15/19 00:50:31  5-MIN KAQV 150650Z AUTO 00000KT 4SM BR BKN022 09/08 A2987 420 93 -100 000/00 RMK AO2 T00940083
03949KAQV AQV20191215005511712/15/19 00:55:31  5-MIN KAQV 150655Z AUTO 00000KT 5SM BR OVC022 10/09 A2987 420 93 0 000/00 RMK AO2 SLP114 T01000089
03949KAQV AQV20191215010011012/15/19 01:00:31  5-MIN KAQV 150700Z AUTO 00000KT 6SM BR OVC022 11/09 A2987 420 93 0 000/00 RMK AO2 T01060094
03949KAQV AQV20191215010511012/15/19 01:05:31  5-MIN KAQV 150705Z AUTO 00000KT 5SM BR OVC021 10/09 A2987 420 96 0 000/00 RMK AO2 T01000094
03949KAQV AQV20191215011011012/15/19 01:10:31  5-MIN KAQV 150710Z AUTO 00000KT 6SM BR OVC021 11/09 A2987 420 93 0 000/00 RMK AO2 T01060094
03949KAQV AQV20191215011511712/15/19 01:15:31  5-MIN KAQV 150715Z AUTO 00000KT 6SM BR FEW014 OVC022 11/09 A2987 420 93 0 000/00 RMK AO2 T01060094
03949KAQV AQV20191215012011412/15/19 01:20:31  5-MIN KAQV 150720Z AUTO 00000KT 7SM SCT016 OVC022 11/10 A2987 430 96 0 000/00 RMK AO2 T01060100
03949KAQV AQV20191215012511412/15/19 01:25:31  5-MIN KAQV 150725Z AUTO 00000KT 7SM SCT014 OVC022 11/10 A2986 430 96 0 000/00 RMK AO2 T01060100
03949KAQV AQV20191215013011712/15/19 01:30:31  5-MIN KAQV 150730Z AUTO VRB03KT 6SM BR SCT014 OVC023 11/10 A2986 430 96 0 VRB/03 RMK AO2 T01060100
03949KAQV AQV20191215013511712/15/19 01:35:31  5-MIN KAQV 150735Z AUTO 00000KT 6SM BR BKN014 OVC023 11/10 A2986 430 96 0 000/00 RMK AO2 T01060100
03949KAQV AQV20191215014011612/15/19 01:40:31  5-MIN KAQV 150740Z AUTO 00000KT 7SM BKN014 OVC023 11/10 A2986 430 93 100 000/00 RMK AO2 T01110100
03949KAQV AQV20191215014511612/15/19 01:45:31  5-MIN KAQV 150745Z AUTO 00000KT 7SM BKN013 OVC023 11/10 A2986 430 93 100 000/00 RMK AO2 T01110100
03949KAQV AQV20191215015011612/15/19 01:50:31  5-MIN KAQV 150750Z AUTO 00000KT 7SM SCT013 OVC023 11/10 A2986 430 93 100 000/00 RMK AO2 T01110100
03949KAQV AQV20191215015512312/15/19 01:55:31  5-MIN KAQV 150755Z AUTO 00000KT 8SM SCT013 OVC023 11/10 A2986 430 93 100 000/00 RMK AO2 SLP110 T01110100
03949KAQV AQV20191215020011612/15/19 02:00:31  5-MIN KAQV 150800Z AUTO 00000KT 9SM FEW013 OVC023 11/10 A2986 430 93 100 000/00 RMK AO2 T01110100
03949KAQV AQV20191215020511612/15/19 02:05:31  5-MIN KAQV 150805Z AUTO 00000KT 9SM FEW012 OVC023 11/10 A2986 430 93 100 000/00 RMK AO2 T01110100
03949KAQV AQV20191215021010912/15/19 02:10:31  5-MIN KAQV 150810Z AUTO 00000KT 8SM OVC023 11/10 A2986 430 93 100 000/00 RMK AO2 T01110100
03949KAQV AQV20191215021511612/15/19 02:15:31  5-MIN KAQV 150815Z AUTO 00000KT 8SM FEW010 OVC023 11/10 A2986 430 93 100 000/00 RMK AO2 T01110100
03949KAQV AQV20191215022011612/15/19 02:20:31  5-MIN KAQV 150820Z AUTO 00000KT 7SM FEW010 OVC023 11/10 A2986 430 93 100 000/00 RMK AO2 T01110100
03949KAQV AQV20191215022511612/15/19 02:25:31  5-MIN KAQV 150825Z AUTO 00000KT 8SM FEW008 OVC023 11/10 A2986 430 93 100 000/00 RMK AO2 T01110100
03949KAQV AQV20191215023011612/15/19 02:30:31  5-MIN KAQV 150830Z AUTO 00000KT 8SM FEW008 OVC023 11/10 A2986 430 93 100 000/00 RMK AO2 T01110100
03949KAQV AQV20191215023511612/15/19 02:35:31  5-MIN KAQV 150835Z AUTO 00000KT 8SM SCT008 OVC023 11/10 A2986 430 93 100 000/00 RMK AO2 T01110100
03949KAQV AQV20191215024011612/15/19 02:40:31  5-MIN KAQV 150840Z AUTO 00000KT 8SM SCT008 OVC023 11/10 A2986 430 93 100 000/00 RMK AO2 T01110100
03949KAQV AQV20191215024511612/15/19 02:45:31  5-MIN KAQV 150845Z AUTO 00000KT 7SM SCT009 OVC022 11/10 A2986 430 93 100 000/00 RMK AO2 T01110100
03949KAQV AQV20191215025011612/15/19 02:50:31  5-MIN KAQV 150850Z AUTO 00000KT 7SM SCT009 OVC022 11/10 A2986 430 93 100 000/00 RMK AO2 T01110100
03949KAQV AQV20191215025511812/15/19 02:55:31  5-MIN KAQV 150855Z AUTO 00000KT 7SM BKN008 OVC022 11/10 A2986 430 93 100 000/00 RMK AO2 CIG 006V010
03949KAQV AQV20191215030013512/15/19 03:00:31  5-MIN KAQV 150900Z AUTO 00000KT 7SM BKN008 BKN016 OVC022 11/10 A2986 430 93 100 000/00 RMK AO2 CIG 006V010 T01110100
03949KAQV AQV20191215030512312/15/19 03:05:31  5-MIN KAQV 150905Z AUTO 00000KT 7SM SCT008 BKN016 OVC022 11/10 A2986 430 93 100 000/00 RMK AO2 T01110100
03949KAQV AQV20191215031013512/15/19 03:10:31  5-MIN KAQV 150910Z AUTO 00000KT 7SM BKN008 BKN016 OVC023 11/10 A2986 430 93 100 000/00 RMK AO2 CIG 006V011 T01110100
03949KAQV AQV20191215031512812/15/19 03:15:31  5-MIN KAQV 150915Z AUTO 00000KT 7SM BKN008 OVC023 12/10 A2986 430 89 200 000/00 RMK AO2 CIG 006V011 T01170100
03949KAQV AQV20191215032011612/15/19 03:20:31  5-MIN KAQV 150920Z AUTO 00000KT 7SM BKN008 OVC023 12/11 A2986 430 93 200 000/00 RMK AO2 T01170106
03949KAQV AQV20191215032512812/15/19 03:25:31  5-MIN KAQV 150925Z AUTO 00000KT 7SM BKN008 OVC023 12/11 A2986 430 93 200 000/00 RMK AO2 CIG 006V011 T01170106
03949KAQV AQV20191215033012112/15/19 03:30:31  5-MIN KAQV 150930Z AUTO 00000KT 7SM OVC008 12/11 A2986 430 93 200 000/00 RMK AO2 CIG 006V011 T01170106
03949KAQV AQV20191215033512112/15/19 03:35:31  5-MIN KAQV 150935Z AUTO 00000KT 8SM OVC008 12/11 A2986 430 93 200 000/00 RMK AO2 CIG 006V010 T01170106
03949KAQV AQV20191215034010912/15/19 03:40:31  5-MIN KAQV 150940Z AUTO 00000KT 8SM OVC008 12/11 A2986 430 93 200 000/00 RMK AO2 T01170106
03949KAQV AQV20191215034510912/15/19 03:45:31  5-MIN KAQV 150945Z AUTO 00000KT 8SM OVC007 12/11 A2986 430 93 200 000/00 RMK AO2 T01170106
03949KAQV AQV20191215035010912/15/19 03:50:31  5-MIN KAQV 150950Z AUTO 00000KT 8SM OVC007 12/11 A2986 440 93 200 000/00 RMK AO2 T01170106
03949KAQV AQV20191215035511612/15/19 03:55:31  5-MIN KAQV 150955Z AUTO 00000KT 8SM OVC007 12/11 A2986 440 89 200 000/00 RMK AO2 SLP109 T01220106
03949KAQV AQV20191215040010912/15/19 04:00:31  5-MIN KAQV 151000Z AUTO 00000KT 9SM OVC007 12/11 A2985 440 89 200 000/00 RMK AO2 T01220106
03949KAQV AQV20191215040510912/15/19 04:05:31  5-MIN KAQV 151005Z AUTO VRB03KT 8SM OVC006 12/11 A2985 440 89 200 VRB/03 RMK AO2 T01220106
03949KAQV AQV20191215041010912/15/19 04:10:31  5-MIN KAQV 151010Z AUTO 00000KT 8SM OVC006 12/11 A2985 440 89 200 000/00 RMK AO2 T01220106
03949KAQV AQV20191215041510912/15/19 04:15:31  5-MIN KAQV 151015Z AUTO 00000KT 8SM OVC005 12/11 A2985 440 89 200 000/00 RMK AO2 T01220106
03949KAQV AQV20191215042010912/15/19 04:20:31  5-MIN KAQV 151020Z AUTO 00000KT 9SM OVC005 12/11 A2985 440 89 200 000/00 RMK AO2 T01220106
03949KAQV AQV20191215042510912/15/19 04:25:31  5-MIN KAQV 151025Z AUTO 00000KT 9SM OVC005 12/11 A2986 440 89 200 000/00 RMK AO2 T01220106
03949KAQV AQV20191215043012512/15/19 04:30:31  5-MIN KAQV 151030Z AUTO 00000KT 9SM -RA OVC005 12/11 A2986 440 89 200 000/00 RMK AO2 RAB27 P0000 T01220106
03949KAQV AQV20191215043512512/15/19 04:35:31  5-MIN KAQV 151035Z AUTO VRB03KT 8SM -RA OVC005 12/11 A2986 440 89 200 VRB/03 RMK AO2 RAB27 P0000 T01220106
03949KAQV AQV20191215044012712/15/19 04:40:31  5-MIN KAQV 151040Z AUTO VRB04KT 6SM BR OVC005 12/11 A2985 440 89 200 VRB/04 RMK AO2 RAB27E36 P0000 T01220106
03949KAQV AQV20191215044512712/15/19 04:45:31  5-MIN KAQV 151045Z AUTO 00000KT 5SM BR OVC005 12/11 A2986 440 89 200 000/00 RMK AO2 RAB27E36 P0000 T01220106
03949KAQV AQV20191215045012712/15/19 04:50:31  5-MIN KAQV 151050Z AUTO 00000KT 5SM BR OVC004 12/11 A2986 440 89 200 000/00 RMK AO2 RAB27E36 P0000 T01220106
03949KAQV AQV20191215045513412/15/19 04:55:31  5-MIN KAQV 151055Z AUTO 12004KT 5SM BR OVC004 12/11 A2986 440 89 200 120/04 RMK AO2 RAB27E36 SLP109 P0000 T01220106
03949KAQV AQV20191215050011212/15/19 05:00:31  5-MIN KAQV 151100Z AUTO 00000KT 4SM BR OVC004 12/11 A2986 430 93 200 000/00 RMK AO2 T01170106
03949KAQV AQV20191215050512812/15/19 05:05:31  5-MIN KAQV 151105Z AUTO 00000KT 4SM -RA BR OVC004 12/11 A2986 430 93 200 000/00 RMK AO2 RAB04 P0000 T01170106
03949KAQV AQV20191215051012712/15/19 05:10:31  5-MIN KAQV 151110Z AUTO 00000KT 3SM BR OVC004 12/11 A2986 440 96 200 000/00 RMK AO2 RAB04E10 P0000 T01170111
03949KAQV AQV20191215051512712/15/19 05:15:31  5-MIN KAQV 151115Z AUTO 00000KT 2SM BR OVC004 12/11 A2986 440 96 200 000/00 RMK AO2 RAB04E10 P0000 T01170111
03949KAQV AQV20191215052012712/15/19 05:20:31  5-MIN KAQV 151120Z AUTO VRB03KT 2SM BR OVC003 12/11 A2986 440 96 200 VRB/03 RMK AO2 RAB04E10 P0000 T01170111
03949KAQV AQV20191215052512712/15/19 05:25:31  5-MIN KAQV 151125Z AUTO VRB04KT 2SM BR OVC003 12/11 A2986 440 96 200 VRB/04 RMK AO2 RAB04E10 P0000 T01170111
03949KAQV AQV20191215053013112/15/19 05:30:31  5-MIN KAQV 151130Z AUTO VRB03KT 1 3/4SM BR OVC003 12/11 A2986 430 96 200 VRB/03 RMK AO2 RAB04E10 P0000 T01170111
03949KAQV AQV20191215053513112/15/19 05:35:31  5-MIN KAQV 151135Z AUTO VRB03KT 1 1/2SM BR OVC003 12/11 A2986 440 96 200 VRB/03 RMK AO2 RAB04E10 P0000 T01170111
03949KAQV AQV20191215054013112/15/19 05:40:31  5-MIN KAQV 151140Z AUTO VRB03KT 1 1/4SM BR OVC002 12/11 A2986 440 96 200 VRB/03 RMK AO2 RAB04E10 P0000 T01170111
03949KAQV AQV20191215054512712/15/19 05:45:31  5-MIN KAQV 151145Z AUTO 00000KT 1SM BR OVC002 12/11 A2986 440 96 200 000/00 RMK AO2 RAB04E10 P0001 T01170111
03949KAQV AQV20191215055012912/15/19 05:50:31  5-MIN KAQV 151150Z AUTO VRB03KT 3/4SM BR OVC002 12/11 A2986 440 96 200 VRB/03 RMK AO2 RAB04E10 P0001 T01170111
03949KAQV AQV20191215055516612/15/19 05:55:31  5-MIN KAQV 151155Z AUTO VRB03KT 3/4SM BR OVC002 12/11 A2986 440 96 200 VRB/03 RMK AO2 RAB04E10 SLP110 P0001 60001 70001 T01170111 10122 20089 51000
03949KAQV AQV20191215060011312/15/19 06:00:31  5-MIN KAQV 151200Z AUTO 00000KT 3/4SM BR VV002 12/11 A2986 440 96 200 000/00 RMK AO2 T01170111
03949KAQV AQV20191215060511312/15/19 06:05:31  5-MIN KAQV 151205Z AUTO VRB03KT 1/2SM FG VV002 12/11 A2986 440 93 200 VRB/03 RMK AO2 T01220111
03949KAQV AQV20191215061011312/15/19 06:10:31  5-MIN KAQV 151210Z AUTO 00000KT 1/2SM FG VV002 12/11 A2985 440 93 300 000/00 RMK AO2 T01220111
03949KAQV AQV20191215061511312/15/19 06:15:31  5-MIN KAQV 151215Z AUTO 00000KT 1/2SM FG VV002 12/11 A2986 440 93 200 000/00 RMK AO2 T01220111
03949KAQV AQV20191215062011312/15/19 06:20:31  5-MIN KAQV 151220Z AUTO VRB03KT 1/2SM FG VV002 12/12 A2986 430 96 200 VRB/03 RMK AO2 T01220117
03949KAQV AQV20191215062511312/15/19 06:25:31  5-MIN KAQV 151225Z AUTO VRB03KT 1/2SM FG VV002 12/12 A2986 430 96 200 VRB/03 RMK AO2 T01220117
03949KAQV AQV20191215063011312/15/19 06:30:31  5-MIN KAQV 151230Z AUTO 00000KT 1/2SM FG VV002 12/12 A2986 430 96 200 000/00 RMK AO2 T01220117
03949KAQV AQV20191215063511312/15/19 06:35:31  5-MIN KAQV 151235Z AUTO VRB03KT 1/2SM FG VV002 12/12 A2986 430 96 200 VRB/03 RMK AO2 T01220117
03949KAQV AQV20191215064011312/15/19 06:40:31  5-MIN KAQV 151240Z AUTO 14004KT 1/2SM FG VV002 13/12 A2986 430 93 300 130/04 RMK AO2 T01280117
03949KAQV AQV20191215064511312/15/19 06:45:31  5-MIN KAQV 151245Z AUTO VRB03KT 1/2SM FG VV002 13/12 A2986 430 93 300 VRB/03 RMK AO2 T01280117
03949KAQV AQV20191215065011312/15/19 06:50:31  5-MIN KAQV 151250Z AUTO 00000KT 1/2SM FG VV002 13/12 A2986 430 93 300 000/00 RMK AO2 T01280117
03949KAQV AQV20191215065512012/15/19 06:55:31  5-MIN KAQV 151255Z AUTO 15003KT 1/2SM FG VV002 13/12 A2986 430 93 300 150/03 RMK AO2 SLP113 T01280117
03949KAQV AQV20191215070011312/15/19 07:00:31  5-MIN KAQV 151300Z AUTO VRB04KT 1/2SM FG VV002 13/12 A2986 430 93 300 VRB/04 RMK AO2 T01280117
03949KAQV AQV20191215070510312/15/19 07:05:31  5-MIN KAQV 151305Z AUTO 1/2SM FG VV002 13/12 A2986 430 96 300 M /M RMK AO2 T01280122
03949KAQV AQV20191215071011312/15/19 07:10:31  5-MIN KAQV 151310Z AUTO 00000KT 1/2SM FG VV002 13/12 A2987 430 96 300 000/00 RMK AO2 T01280122
03949KAQV AQV20191215071511312/15/19 07:15:31  5-MIN KAQV 151315Z AUTO VRB03KT 1/2SM FG VV002 13/12 A2987 430 96 300 VRB/03 RMK AO2 T01280122
03949KAQV AQV20191215072011312/15/19 07:20:31  5-MIN KAQV 151320Z AUTO VRB03KT 1/4SM FG VV002 13/12 A2987 430 96 300 VRB/03 RMK AO2 T01280122
03949KAQV AQV20191215072511312/15/19 07:25:31  5-MIN KAQV 151325Z AUTO VRB03KT 1/4SM FG VV002 13/12 A2987 430 93 400 VRB/03 RMK AO2 T01330122
03949KAQV AQV20191215073011312/15/19 07:30:31  5-MIN KAQV 151330Z AUTO VRB04KT 1/4SM FG VV002 13/12 A2987 430 93 400 VRB/04 RMK AO2 T01330122
03949KAQV AQV20191215073511312/15/19 07:35:31  5-MIN KAQV 151335Z AUTO VRB04KT 1/4SM FG VV002 13/12 A2987 430 93 400 VRB/04 RMK AO2 T01330122
03949KAQV AQV20191215074011312/15/19 07:40:31  5-MIN KAQV 151340Z AUTO 00000KT 1/4SM FG VV002 13/13 A2986 430 96 400 000/00 RMK AO2 T01330128
03949KAQV AQV20191215074510312/15/19 07:45:31  5-MIN KAQV 151345Z AUTO 1/4SM FG VV002 13/13 A2987 430 96 400 M /M RMK AO2 T01330128
03949KAQV AQV20191215075011312/15/19 07:50:31  5-MIN KAQV 151350Z AUTO VRB03KT 1/4SM FG VV002 13/13 A2987 430 96 400 VRB/03 RMK AO2 T01330128
03949KAQV AQV20191215075512012/15/19 07:55:31  5-MIN KAQV 151355Z AUTO VRB04KT 1/4SM FG VV002 13/13 A2987 420 96 400 VRB/04 RMK AO2 SLP114 T01330128
03949KAQV AQV20191215080011312/15/19 08:00:31  5-MIN KAQV 151400Z AUTO VRB04KT 1/4SM FG VV002 13/13 A2987 420 96 400 VRB/04 RMK AO2 T01330128
03949KAQV AQV20191215080511312/15/19 08:05:31  5-MIN KAQV 151405Z AUTO VRB04KT 1/4SM FG VV002 13/13 A2987 420 96 400 VRB/04 RMK AO2 T01330128
03949KAQV AQV20191215081011312/15/19 08:10:31  5-MIN KAQV 151410Z AUTO VRB03KT 1/4SM FG VV002 14/13 A2987 420 93 400 VRB/03 RMK AO2 T01390128
03949KAQV AQV20191215081511312/15/19 08:15:31  5-MIN KAQV 151415Z AUTO VRB04KT 1/4SM FG VV002 14/13 A2987 420 96 400 VRB/04 RMK AO2 T01390133
03949KAQV AQV20191215082010312/15/19 08:20:31  5-MIN KAQV 151420Z AUTO 1/4SM FG VV002 14/13 A2987 420 96 400 M /M RMK AO2 T01390133
03949KAQV AQV20191215082511312/15/19 08:25:31  5-MIN KAQV 151425Z AUTO VRB03KT 1/4SM FG VV002 14/13 A2987 420 93 500 VRB/03 RMK AO2 T01440133
03949KAQV AQV20191215083011312/15/19 08:30:31  5-MIN KAQV 151430Z AUTO 16004KT 1/2SM FG VV002 14/14 A2987 420 96 500 150/04 RMK AO2 T01440139
03949KAQV AQV20191215083511312/15/19 08:35:31  5-MIN KAQV 151435Z AUTO VRB03KT 1/2SM FG VV002 14/14 A2987 420 96 500 VRB/03 RMK AO2 T01440139
03949KAQV AQV20191215084011312/15/19 08:40:31  5-MIN KAQV 151440Z AUTO VRB04KT 1/2SM FG VV002 15/14 A2987 420 96 600 VRB/04 RMK AO2 T01500144
03949KAQV AQV20191215084511412/15/19 08:45:31  5-MIN KAQV 151445Z AUTO 17005KT 3/4SM BR OVC002 15/14 A2987 420 96 600 160/05 RMK AO2 T01500144
03949KAQV AQV20191215085011412/15/19 08:50:31  5-MIN KAQV 151450Z AUTO 17005KT 3/4SM BR OVC002 16/14 A2987 420 93 600 160/05 RMK AO2 T01560144
03949KAQV AQV20191215085512712/15/19 08:55:31  5-MIN KAQV 151455Z AUTO VRB05KT 3/4SM BR OVC002 16/15 A2988 420 96 600 VRB/05 RMK AO2 SLP117 T01560150 54000
03949KAQV AQV20191215090011412/15/19 09:00:31  5-MIN KAQV 151500Z AUTO 17005KT 3/4SM BR OVC002 16/15 A2988 420 96 600 160/05 RMK AO2 T01560150
03949KAQV AQV20191215090511212/15/19 09:05:31  5-MIN KAQV 151505Z AUTO 17005KT 1SM BR OVC002 16/15 A2988 410 96 600 160/05 RMK AO2 T01560150
03949KAQV AQV20191215091011212/15/19 09:10:31  5-MIN KAQV 151510Z AUTO 17004KT 1SM BR OVC002 16/15 A2988 410 93 700 170/04 RMK AO2 T01610150
03949KAQV AQV20191215091511612/15/19 09:15:31  5-MIN KAQV 151515Z AUTO 18005KT 1 1/4SM BR OVC002 16/16 A2988 410 96 700 170/05 RMK AO2 T01610156
03949KAQV AQV20191215092011612/15/19 09:20:31  5-MIN KAQV 151520Z AUTO VRB03KT 1 1/2SM BR OVC002 16/16 A2988 410 96 700 VRB/03 RMK AO2 T01610156
03949KAQV AQV20191215092511212/15/19 09:25:31  5-MIN KAQV 151525Z AUTO VRB05KT 2SM BR OVC002 17/16 A2988 410 96 700 VRB/05 RMK AO2 T01670161
03949KAQV AQV20191215093011212/15/19 09:30:31  5-MIN KAQV 151530Z AUTO VRB05KT 3SM BR OVC002 17/16 A2989 410 93 800 VRB/05 RMK AO2 T01720161
03949KAQV AQV20191215093511212/15/19 09:35:31  5-MIN KAQV 151535Z AUTO 18005KT 4SM BR OVC002 18/17 A2989 410 93 900 180/05 RMK AO2 T01780167
03949KAQV AQV20191215094014012/15/19 09:40:31  5-MIN KAQV 151540Z AUTO 18007KT 130V220 5SM BR OVC002 18/17 A2989 410 96 900 180/07 130V220 RMK AO2 CIG 002V005 T01780172
03949KAQV AQV20191215094514612/15/19 09:45:31  5-MIN KAQV 151545Z AUTO 17009G16KT 150V210 6SM BR OVC003 18/17 A2989 410 93 900 170/09G16 150V210 RMK AO2 CIG 002V005 T01830172
03949KAQV AQV20191215095013012/15/19 09:50:31  5-MIN KAQV 151550Z AUTO VRB05G16KT 6SM BR OVC003 18/17 A2989 410 93 900 VRB/05G16 RMK AO2 CIG 002V007 T01830172
03949KAQV AQV20191215095511912/15/19 09:55:31  5-MIN KAQV 151555Z AUTO 17007KT 6SM BR OVC003 18/17 A2989 400 93 900 170/07 RMK AO2 SLP121 T01830172
03949KAQV AQV20191215100013412/15/19 10:00:31  5-MIN KAQV 151600Z AUTO 18008G15KT 130V200 6SM BR OVC004 18/18 A2989 400 96 900 170/08G15 130V200 RMK AO2 T01830178
03949KAQV AQV20191215100510212/15/19 10:05:31  5-MIN KAQV 151605Z AUTO 6SM BR OVC004 18/17 A2989 400 93 900 M /M RMK AO2 T01830172
03949KAQV AQV20191215101013412/15/19 10:10:31  5-MIN KAQV 151610Z AUTO 17008G17KT 130V190 6SM BR OVC004 18/17 A2989 400 93 900 170/08G17 130V190 RMK AO2 T01830172
03949KAQV AQV20191215101511912/15/19 10:15:31  5-MIN KAQV 151615Z AUTO VRB03G17KT 6SM BR OVC004 19/18 A2989 400 93 1000 VRB/03G17 RMK AO2 T01890178
03949KAQV AQV20191215102010912/15/19 10:20:31  5-MIN KAQV 151620Z AUTO VRB06KT 7SM OVC004 18/18 A2989 400 96 900 VRB/06 RMK AO2 T01830178
03949KAQV AQV20191215102512512/15/19 10:25:31  5-MIN KAQV 151625Z AUTO 17008KT 130V200 7SM OVC004 18/18 A2989 400 96 900 170/08 130V200 RMK AO2 T01830178
03949KAQV AQV20191215103012512/15/19 10:30:31  5-MIN KAQV 151630Z AUTO 18007KT 150V230 7SM OVC005 18/18 A2989 400 96 900 180/07 150V230 RMK AO2 T01830178
03949KAQV AQV20191215103510912/15/19 10:35:31  5-MIN KAQV 151635Z AUTO 19006KT 7SM OVC005 18/18 A2989 400 96 900 180/06 RMK AO2 T01830178
03949KAQV AQV20191215104011012/15/19 10:40:31  5-MIN KAQV 151640Z AUTO 18007KT 8SM OVC005 19/18 A2989 400 93 1000 170/07 RMK AO2 T01890178
03949KAQV AQV20191215104512612/15/19 10:45:31  5-MIN KAQV 151645Z AUTO 18008KT 140V210 8SM OVC005 19/18 A2989 410 93 1000 180/08 140V210 RMK AO2 T01890178
03949KAQV AQV20191215105013812/15/19 10:50:31  5-MIN KAQV 151650Z AUTO 17007KT 110V190 9SM OVC005 19/18 A2989 410 93 1000 170/07 110V190 RMK AO2 CIG 004V008 T01890178
03949KAQV AQV20191215105512912/15/19 10:55:31  5-MIN KAQV 151655Z AUTO VRB04KT 9SM OVC005 19/18 A2988 410 93 1000 VRB/04 RMK AO2 CIG 004V009 SLP119 T01890178
03949KAQV AQV20191215110011312/15/19 11:00:31  5-MIN KAQV 151700Z AUTO 10SM OVC006 19/18 A2988 410 90 1100 M /M RMK AO2 CIG 005V009 T01940178
03949KAQV AQV20191215110512312/15/19 11:05:31  5-MIN KAQV 151705Z AUTO VRB05KT 10SM OVC008 19/18 A2988 410 90 1100 VRB/05 RMK AO2 CIG 005V012 T01940178
03949KAQV AQV20191215111013912/15/19 11:10:31  5-MIN KAQV 151710Z AUTO 17007KT 140V210 10SM OVC008 20/18 A2988 420 87 1100 170/07 140V210 RMK AO2 CIG 006V013 T02000178
03949KAQV AQV20191215111512312/15/19 11:15:31  5-MIN KAQV 151715Z AUTO 18005KT 10SM OVC008 21/18 A2987 420 84 1200 180/05 RMK AO2 CIG 006V012 T02060178
03949KAQV AQV20191215112013012/15/19 11:20:31  5-MIN KAQV 151720Z AUTO 17005KT 10SM BKN008 OVC013 21/18 A2987 420 84 1200 160/05 RMK AO2 CIG 006V013 T02060178
03949KAQV AQV20191215112513012/15/19 11:25:31  5-MIN KAQV 151725Z AUTO 18005KT 10SM BKN010 OVC013 21/18 A2987 430 81 1300 180/05 RMK AO2 CIG 007V013 T02110178
03949KAQV AQV20191215113015312/15/19 11:30:31  5-MIN KAQV 151730Z AUTO 19007KT 130V210 10SM BKN010 BKN015 OVC021 21/18 A2986 430 84 1300 180/07 130V210 RMK AO2 CIG 007V013 T02110183
03949KAQV AQV20191215113510812/15/19 11:35:31  5-MIN KAQV 151735Z AUTO 10SM BKN012 OVC021 21/18 A2986 430 84 1300 M /M RMK AO2 T02110183
03949KAQV AQV20191215114012512/15/19 11:40:31  5-MIN KAQV 151740Z AUTO 18005KT 10SM FEW010 BKN014 OVC021 21/18 A2986 440 84 1300 180/05 RMK AO2 T02110183
03949KAQV AQV20191215114511812/15/19 11:45:31  5-MIN KAQV 151745Z AUTO 17005KT 10SM BKN014 OVC022 22/18 A2985 440 81 1400 170/05 RMK AO2 T02170183
03949KAQV AQV20191215115011812/15/19 11:50:31  5-MIN KAQV 151750Z AUTO 18008KT 10SM BKN014 OVC022 22/18 A2985 440 78 1400 180/08 RMK AO2 T02220183
03949KAQV AQV20191215115512112/15/19 11:55:31  5-MIN KAQV 151755Z AUTO VRB06G16KT 10SM FEW012 BKN018 OVC024 22/18 A2984 450 78 1400 VRB/06G16 RMK AO2
03949KAQV AQV20191215120013112/15/19 12:00:31  5-MIN KAQV 151800Z AUTO VRB06G16KT 10SM SCT018 BKN024 OVC028 23/18 A2984 450 76 1500 VRB/06G16 RMK AO2 T02280183
03949KAQV AQV20191215120512512/15/19 12:05:31  5-MIN KAQV 151805Z AUTO VRB04KT 10SM SCT016 BKN024 OVC031 23/18 A2984 450 73 1600 VRB/04 RMK AO2 T02330183
03949KAQV AQV20191215121011512/15/19 12:10:31  5-MIN KAQV 151810Z AUTO 10SM BKN021 BKN026 OVC032 23/18 A2983 460 73 1600 M /M RMK AO2 T02330183
03949KAQV AQV20191215121514712/15/19 12:15:31  5-MIN KAQV 151815Z AUTO 20008G14KT 160V240 10SM BKN021 BKN025 OVC032 23/18 A2983 460 73 1600 190/08G14 160V240 RMK AO2 T02330183
03949KAQV AQV20191215122013112/15/19 12:20:31  5-MIN KAQV 151820Z AUTO 18011G20KT 10SM FEW018 BKN022 OVC032 24/18 A2983 460 71 1600 180/11G20 RMK AO2 T02390183
03949KAQV AQV20191215122513112/15/19 12:25:31  5-MIN KAQV 151825Z AUTO VRB06G20KT 10SM SCT020 BKN027 BKN032 24/18 A2983 460 71 1600 VRB/06G20 RMK AO2 T02390183
03949KAQV AQV20191215123012412/15/19 12:30:31  5-MIN KAQV 151830Z AUTO 20009G20KT 10SM BKN023 OVC030 23/18 A2982 470 73 1600 190/09G20 RMK AO2 T02330183
03949KAQV AQV20191215123514012/15/19 12:35:31  5-MIN KAQV 151835Z AUTO 20007G19KT 160V230 10SM BKN023 OVC030 23/18 A2982 470 73 1600 190/07G19 160V230 RMK AO2 T02330183
03949KAQV AQV20191215124012412/15/19 12:40:31  5-MIN KAQV 151840Z AUTO VRB06G17KT 10SM BKN023 BKN030 23/18 A2982 470 73 1600 VRB/06G17 RMK AO2 T02330183
03949KAQV AQV20191215124511812/15/19 12:45:31  5-MIN KAQV 151845Z AUTO VRB06KT 10SM BKN026 OVC033 23/18 A2982 470 73 1600 VRB/06 RMK AO2 T02330183
03949KAQV AQV20191215125011812/15/19 12:50:31  5-MIN KAQV 151850Z AUTO 19007KT 10SM BKN027 OVC035 23/18 A2982 470 73 1600 190/07 RMK AO2 T02330183
03949KAQV AQV20191215125514112/15/19 12:55:31  5-MIN KAQV 151855Z AUTO 20008KT 170V230 10SM BKN027 OVC035 23/18 A2981 470 73 1600 200/08 170V230 RMK AO2 SLP095 T02330183
03949KAQV AQV20191215130014012/15/19 13:00:31  5-MIN KAQV 151900Z AUTO 21007G16KT 170V260 10SM BKN027 OVC035 23/18 A2981 480 73 1600 210/07G16 170V260 RMK AO2 T02330183
03949KAQV AQV20191215130512412/15/19 13:05:31  5-MIN KAQV 151905Z AUTO VRB06G16KT 10SM BKN027 OVC035 23/18 A2981 480 70 1600 VRB/06G16 RMK AO2 T02330178
03949KAQV AQV20191215131014112/15/19 13:10:31  5-MIN KAQV 151910Z AUTO 19007KT 150V230 10SM BKN027 BKN035 OVC043 24/18 A2981 480 68 1700 190/07 150V230 RMK AO2 T02390178
03949KAQV AQV20191215131512512/15/19 13:15:31  5-MIN KAQV 151915Z AUTO VRB06KT 10SM BKN029 BKN035 BKN043 24/18 A2981 480 66 1700 VRB/06 RMK AO2 T02440178
03949KAQV AQV20191215132013412/15/19 13:20:31  5-MIN KAQV 151920Z AUTO 20007KT 160V240 10SM BKN031 BKN040 24/18 A2980 480 66 1700 190/07 160V240 RMK AO2 T02440178
03949KAQV AQV20191215132513412/15/19 13:25:31  5-MIN KAQV 151925Z AUTO 19007KT 170V250 10SM BKN031 BKN040 24/17 A2980 480 63 1700 190/07 170V250 RMK AO2 T02440172
03949KAQV AQV20191215133011812/15/19 13:30:31  5-MIN KAQV 151930Z AUTO VRB05KT 10SM SCT031 BKN039 26/18 A2980 480 61 1900 VRB/05 RMK AO2 T02560178
03949KAQV AQV20191215133511112/15/19 13:35:31  5-MIN KAQV 151935Z AUTO 20008KT 10SM BKN037 25/17 A2981 480 61 1800 190/08 RMK AO2 T02500172
03949KAQV AQV20191215134012712/15/19 13:40:31  5-MIN KAQV 151940Z AUTO 21008KT 160V260 10SM BKN037 26/17 A2980 480 59 1900 200/08 160V260 RMK AO2 T02560172
03949KAQV AQV20191215134512412/15/19 13:45:31  5-MIN KAQV 151945Z AUTO VRB05G20KT 10SM SCT035 BKN042 25/17 A2981 480 61 1800 VRB/05G20 RMK AO2 T02500172
03949KAQV AQV20191215135011812/15/19 13:50:31  5-MIN KAQV 151950Z AUTO VRB05KT 10SM BKN035 BKN042 25/17 A2981 480 61 1800 VRB/05 RMK AO2 T02500172
03949KAQV AQV20191215135514712/15/19 13:55:31  5-MIN KAQV 151955Z AUTO 19009G18KT 160V230 10SM BKN035 BKN045 26/17 A2980 480 59 1900 190/09G18 160V230 RMK AO2 SLP091 T02560172
03949KAQV AQV20191215140012412/15/19 14:00:31  5-MIN KAQV 152000Z AUTO VRB06G21KT 10SM SCT035 BKN043 26/17 A2980 480 57 1900 VRB/06G21 RMK AO2 T02560167
03949KAQV AQV20191215140512412/15/19 14:05:31  5-MIN KAQV 152005Z AUTO 19007G21KT 10SM SCT035 BKN043 26/17 A2980 480 59 1900 190/07G21 RMK AO2 T02560172
03949KAQV AQV20191215141010812/15/19 14:10:31  5-MIN KAQV 152010Z AUTO 10SM BKN035 BKN045 26/17 A2980 490 57 1900 M /M RMK AO2 T02560167
03949KAQV AQV20191215141512412/15/19 14:15:31  5-MIN KAQV 152015Z AUTO 19008G18KT 10SM SCT035 BKN045 26/17 A2980 490 55 1900 190/08G18 RMK AO2 T02610167
03949KAQV AQV20191215142012412/15/19 14:20:31  5-MIN KAQV 152020Z AUTO VRB06G20KT 10SM FEW037 SCT045 26/17 A2980 480 55 1900 VRB/06G20 RMK AO2 T02610167
03949KAQV AQV20191215142512412/15/19 14:25:31  5-MIN KAQV 152025Z AUTO 20010G20KT 10SM SCT040 SCT048 26/17 A2980 480 55 1900 190/10G20 RMK AO2 T02610167
03949KAQV AQV20191215143010812/15/19 14:30:31  5-MIN KAQV 152030Z AUTO 10SM SCT040 SCT048 26/16 A2980 480 55 1900 M /M RMK AO2 T02560161
03949KAQV AQV20191215143513312/15/19 14:35:31  5-MIN KAQV 152035Z AUTO 20007G18KT 170V250 10SM SCT044 26/16 A2980 490 55 1900 200/07G18 170V250 RMK AO2 T02560161
03949KAQV AQV20191215144011812/15/19 14:40:31  5-MIN KAQV 152040Z AUTO 19007KT 10SM FEW038 SCT048 26/17 A2980 480 57 1900 190/07 RMK AO2 T02560167
03949KAQV AQV20191215144514012/15/19 14:45:31  5-MIN KAQV 152045Z AUTO 20010G21KT 160V230 10SM FEW038 SCT048 26/17 A2980 480 57 1900 190/10G21 160V230 RMK AO2 T02560167
03949KAQV AQV20191215145012412/15/19 14:50:31  5-MIN KAQV 152050Z AUTO 19010G21KT 10SM SCT038 BKN048 25/17 A2981 480 59 1800 190/10G21 RMK AO2 T02500167
03949KAQV AQV20191215145513712/15/19 14:55:31  5-MIN KAQV 152055Z AUTO 19009G20KT 10SM SCT038 BKN048 25/17 A2981 480 59 1800 190/09G20 RMK AO2 SLP092 T02500167 58011
03949KAQV AQV20191215150012412/15/19 15:00:31  5-MIN KAQV 152100Z AUTO 19011G20KT 10SM SCT041 BKN048 25/17 A2981 480 59 1800 180/11G20 RMK AO2 T02500167
03949KAQV AQV20191215150512412/15/19 15:05:31  5-MIN KAQV 152105Z AUTO VRB06G19KT 10SM FEW041 BKN050 25/17 A2981 480 59 1800 VRB/06G19 RMK AO2 T02500167
03949KAQV AQV20191215151014012/15/19 15:10:31  5-MIN KAQV 152110Z AUTO 21007G19KT 180V250 10SM FEW041 BKN050 26/17 A2981 480 57 1800 210/07G19 180V250 RMK AO2 T02560167
03949KAQV AQV20191215151512412/15/19 15:15:31  5-MIN KAQV 152115Z AUTO VRB05G20KT 10SM FEW041 BKN050 25/17 A2981 480 59 1800 VRB/05G20 RMK AO2 T02500167
03949KAQV AQV20191215152014012/15/19 15:20:31  5-MIN KAQV 152120Z AUTO 19008G20KT 160V230 10SM FEW041 BKN048 25/17 A2981 480 59 1800 190/08G20 160V230 RMK AO2 T02500167
03949KAQV AQV20191215152511812/15/19 15:25:31  5-MIN KAQV 152125Z AUTO 17006KT 10SM FEW039 BKN050 25/17 A2981 480 59 1800 170/06 RMK AO2 T02500167
03949KAQV AQV20191215153013312/15/19 15:30:31  5-MIN KAQV 152130Z AUTO 19008G18KT 160V240 10SM BKN050 25/17 A2981 480 59 1800 190/08G18 160V240 RMK AO2 T02500167
03949KAQV AQV20191215153511712/15/19 15:35:31  5-MIN KAQV 152135Z AUTO VRB05G18KT 10SM BKN050 25/17 A2981 480 59 1800 VRB/05G18 RMK AO2 T02500167
03949KAQV AQV20191215154013312/15/19 15:40:31  5-MIN KAQV 152140Z AUTO 19008G16KT 150V220 10SM BKN050 25/17 A2981 480 59 1800 180/08G16 150V220 RMK AO2 T02500167
03949KAQV AQV20191215154512412/15/19 15:45:31  5-MIN KAQV 152145Z AUTO 19008G18KT 10SM FEW036 BKN050 24/17 A2981 470 61 1700 190/08G18 RMK AO2 T02440167
03949KAQV AQV20191215155012412/15/19 15:50:31  5-MIN KAQV 152150Z AUTO 19007G18KT 10SM FEW039 BKN050 24/17 A2981 470 61 1700 180/07G18 RMK AO2 T02440167
03949KAQV AQV20191215155514112/15/19 15:55:31  5-MIN KAQV 152155Z AUTO 18007KT 140V230 10SM FEW039 BKN050 24/17 A2981 470 61 1700 180/07 140V230 RMK AO2 SLP094 T02440167
03949KAQV AQV20191215160011812/15/19 16:00:31  5-MIN KAQV 152200Z AUTO VRB06KT 10SM FEW039 BKN050 24/17 A2981 470 61 1700 VRB/06 RMK AO2 T02440167
03949KAQV AQV20191215160513412/15/19 16:05:31  5-MIN KAQV 152205Z AUTO 19007KT 140V240 10SM FEW037 BKN050 24/17 A2981 470 61 1700 180/07 140V240 RMK AO2 T02440167
03949KAQV AQV20191215161011812/15/19 16:10:31  5-MIN KAQV 152210Z AUTO VRB04KT 10SM FEW037 BKN050 24/17 A2981 470 63 1700 VRB/04 RMK AO2 T02440172
03949KAQV AQV20191215161511812/15/19 16:15:31  5-MIN KAQV 152215Z AUTO VRB06KT 10SM FEW038 BKN050 24/17 A2982 470 63 1700 VRB/06 RMK AO2 T02440172
03949KAQV AQV20191215162011812/15/19 16:20:31  5-MIN KAQV 152220Z AUTO VRB05KT 10SM FEW039 BKN050 24/17 A2982 470 66 1700 VRB/05 RMK AO2 T02390172
03949KAQV AQV20191215162511812/15/19 16:25:31  5-MIN KAQV 152225Z AUTO VRB06KT 10SM FEW037 SCT050 24/17 A2982 470 66 1700 VRB/06 RMK AO2 T02390172
03949KAQV AQV20191215163011812/15/19 16:30:31  5-MIN KAQV 152230Z AUTO VRB03KT 10SM FEW037 SCT050 24/17 A2982 470 66 1600 VRB/03 RMK AO2 T02390172
03949KAQV AQV20191215163512412/15/19 16:35:31  5-MIN KAQV 152235Z AUTO 10SM -RA FEW035 SCT050 24/17 A2982 470 66 1600 M /M RMK AO2 RAB33 P0000 T02390172
03949KAQV AQV20191215164015012/15/19 16:40:31  5-MIN KAQV 152240Z AUTO 18007KT 140V210 10SM -RA FEW037 SCT050 23/17 A2982 470 68 1600 180/07 140V210 RMK AO2 RAB33 P0000 T02330172
03949KAQV AQV20191215164514912/15/19 16:45:31  5-MIN KAQV 152245Z AUTO 18007KT 140V220 10SM FEW035 SCT050 23/17 A2982 470 68 1600 180/07 140V220 RMK AO2 RAB33E43 P0000 T02330172
03949KAQV AQV20191215165013912/15/19 16:50:31  5-MIN KAQV 152250Z AUTO 18007G16KT 10SM FEW035 SCT048 23/18 A2982 470 70 1600 170/07G16 RMK AO2 RAB33E43 P0000 T02330178
03949KAQV AQV20191215165515312/15/19 16:55:31  5-MIN KAQV 152255Z AUTO VRB06G16KT 10SM FEW029 FEW035 SCT048 23/18 A2982 470 70 1600 VRB/06G16 RMK AO2 RAB33E43 SLP096 P0000 T02330178
03949KAQV AQV20191215170012512/15/19 17:00:31  5-MIN KAQV 152300Z AUTO 18006KT 10SM SCT029 SCT039 BKN050 23/18 A2982 470 73 1500 170/06 RMK AO2 T02280178
03949KAQV AQV20191216204011112/16/19 20:40:31  5-MIN KAQV 170240Z AUTO VRB05KT 10SM OVC010 08/06 A3002 290 86 -400 VRB/05 RMK AO2 T00830061
03949KAQV AQV20191216204511112/16/19 20:45:31  5-MIN KAQV 170245Z AUTO VRB04KT 10SM OVC010 08/06 A3002 280 86 -400 VRB/04 RMK AO2 T00780056
03949KAQV AQV20191216205011112/16/19 20:50:31  5-MIN KAQV 170250Z AUTO VRB06KT 10SM OVC010 08/06 A3002 280 86 -400 VRB/06 RMK AO2 T00780056
03949KAQV AQV20191216205512412/16/19 20:55:31  5-MIN KAQV 170255Z AUTO VRB05KT 10SM OVC010 08/06 A3003 280 86 -400 VRB/05 RMK AO2 SLP167 T00780056 51039
03949KAQV AQV20191216210011112/16/19 21:00:31  5-MIN KAQV 170300Z AUTO VRB04KT 10SM OVC010 08/06 A3003 280 86 -400 VRB/04 RMK AO2 T00780056
03949KAQV AQV20191216210511112/16/19 21:05:31  5-MIN KAQV 170305Z AUTO VRB06KT 10SM OVC010 08/05 A3003 280 82 -400 VRB/06 RMK AO2 T00780050
03949KAQV AQV20191216211011112/16/19 21:10:31  5-MIN KAQV 170310Z AUTO VRB04KT 10SM OVC010 08/05 A3003 280 82 -400 VRB/04 RMK AO2 T00780050
03949KAQV AQV20191216211511112/16/19 21:15:31  5-MIN KAQV 170315Z AUTO VRB04KT 10SM OVC010 08/05 A3003 280 82 -400 VRB/04 RMK AO2 T00780050
03949KAQV AQV20191216212012712/16/19 21:20:31  5-MIN KAQV 170320Z AUTO 35008KT 310V040 10SM OVC010 08/05 A3003 280 82 -400 350/08 310V040 RMK AO2 T00780050
03949KAQV AQV20191216212511712/16/19 21:25:31  5-MIN KAQV 170325Z AUTO 34006G14KT 10SM OVC010 07/05 A3003 280 86 -500 330/06G14 RMK AO2 T00720050
03949KAQV AQV20191216213011112/16/19 21:30:31  5-MIN KAQV 170330Z AUTO VRB04KT 10SM OVC010 07/05 A3004 270 86 -500 VRB/04 RMK AO2 T00720050
03949KAQV AQV20191216213510112/16/19 21:35:31  5-MIN KAQV 170335Z AUTO 10SM OVC009 07/06 A3004 270 89 -500 M /M RMK AO2 T00720056
03949KAQV AQV20191216214011112/16/19 21:40:31  5-MIN KAQV 170340Z AUTO VRB04KT 10SM OVC009 07/05 A3004 270 86 -500 VRB/04 RMK AO2 T00720050
03949KAQV AQV20191216214511112/16/19 21:45:31  5-MIN KAQV 170345Z AUTO VRB06KT 10SM OVC009 07/05 A3004 270 86 -500 VRB/06 RMK AO2 T00720050
03949KAQV AQV20191216215011112/16/19 21:50:31  5-MIN KAQV 170350Z AUTO VRB03KT 10SM OVC009 07/05 A3004 260 86 -500 VRB/03 RMK AO2 T00720050
03949KAQV AQV20191216215511812/16/19 21:55:31  5-MIN KAQV 170355Z AUTO VRB05KT 10SM OVC009 07/05 A3003 270 86 -500 VRB/05 RMK AO2 SLP169 T00720050
03949KAQV AQV20191216220011112/16/19 22:00:31  5-MIN KAQV 170400Z AUTO VRB05KT 10SM OVC009 07/05 A3004 270 86 -500 VRB/05 RMK AO2 T00720050
03949KAQV AQV20191216220510112/16/19 22:05:31  5-MIN KAQV 170405Z AUTO 10SM OVC009 07/05 A3004 260 86 -500 M /M RMK AO2 T00720050
03949KAQV AQV20191216221011112/16/19 22:10:31  5-MIN KAQV 170410Z AUTO VRB03KT 10SM OVC009 07/04 A3004 260 82 -500 VRB/03 RMK AO2 T00720044
03949KAQV AQV20191216221511112/16/19 22:15:31  5-MIN KAQV 170415Z AUTO VRB06KT 10SM OVC010 07/04 A3005 260 82 -500 VRB/06 RMK AO2 T00720044
03949KAQV AQV20191216222011112/16/19 22:20:31  5-MIN KAQV 170420Z AUTO VRB05KT 10SM OVC010 07/04 A3005 260 82 -500 VRB/05 RMK AO2 T00720044
03949KAQV AQV20191216222511112/16/19 22:25:31  5-MIN KAQV 170425Z AUTO VRB05KT 10SM OVC010 07/04 A3005 250 82 -500 VRB/05 RMK AO2 T00720044
03949KAQV AQV20191216223010112/16/19 22:30:31  5-MIN KAQV 170430Z AUTO 10SM OVC011 07/04 A3005 250 82 -500 M /M RMK AO2 T00720044
03949KAQV AQV20191216223511112/16/19 22:35:31  5-MIN KAQV 170435Z AUTO VRB04KT 10SM OVC011 07/04 A3005 250 82 -500 VRB/04 RMK AO2 T00720044
03949KAQV AQV20191216224011112/16/19 22:40:31  5-MIN KAQV 170440Z AUTO VRB06KT 10SM OVC011 07/04 A3005 250 82 -500 VRB/06 RMK AO2 T00720044
03949KAQV AQV20191216224511112/16/19 22:45:31  5-MIN KAQV 170445Z AUTO VRB06KT 10SM OVC011 07/04 A3005 250 82 -500 VRB/06 RMK AO2 T00720044
03949KAQV AQV20191216225011112/16/19 22:50:31  5-MIN KAQV 170450Z AUTO VRB04KT 10SM OVC011 07/04 A3005 250 86 -600 VRB/04 RMK AO2 T00670044
03949KAQV AQV20191216225513012/16/19 22:55:31  5-MIN KAQV 170455Z AUTO VRB05KT 10SM OVC011 07/04 A3006 250 86 -600 VRB/05 RMK AO2 CIG 009V013 SLP179 T00670044
03949KAQV AQV20191216230011112/16/19 23:00:31  5-MIN KAQV 170500Z AUTO VRB04KT 10SM OVC011 07/04 A3006 250 86 -600 VRB/04 RMK AO2 T00670044
03949KAQV AQV20191216230511112/16/19 23:05:31  5-MIN KAQV 170505Z AUTO VRB05KT 10SM OVC010 07/04 A3006 250 86 -600 VRB/05 RMK AO2 T00670044
03949KAQV AQV20191216231011112/16/19 23:10:31  5-MIN KAQV 170510Z AUTO VRB05KT 10SM OVC010 07/04 A3007 240 82 -600 VRB/05 RMK AO2 T00670039
03949KAQV AQV20191216231511112/16/19 23:15:31  5-MIN KAQV 170515Z AUTO VRB05KT 10SM OVC010 07/04 A3007 240 82 -600 VRB/05 RMK AO2 T00670039
03949KAQV AQV20191216232010112/16/19 23:20:31  5-MIN KAQV 170520Z AUTO 10SM OVC010 07/04 A3007 240 82 -600 M /M RMK AO2 T00670039
03949KAQV AQV20191216232511112/16/19 23:25:31  5-MIN KAQV 170525Z AUTO VRB05KT 10SM OVC010 07/04 A3006 240 82 -600 VRB/05 RMK AO2 T00670039
03949KAQV AQV20191216233011112/16/19 23:30:31  5-MIN KAQV 170530Z AUTO VRB05KT 10SM OVC011 06/04 A3007 240 86 -700 VRB/05 RMK AO2 T00610039
03949KAQV AQV20191216233511112/16/19 23:35:31  5-MIN KAQV 170535Z AUTO VRB04KT 10SM OVC011 06/04 A3007 240 86 -700 VRB/04 RMK AO2 T00610039
03949KAQV AQV20191216234011112/16/19 23:40:31  5-MIN KAQV 170540Z AUTO VRB06KT 10SM OVC010 06/04 A3007 240 86 -700 VRB/06 RMK AO2 T00610039
03949KAQV AQV20191216234511112/16/19 23:45:31  5-MIN KAQV 170545Z AUTO VRB05KT 10SM OVC010 06/04 A3008 230 86 -700 VRB/05 RMK AO2 T00610039
03949KAQV AQV20191216235011112/16/19 23:50:31  5-MIN KAQV 170550Z AUTO VRB05KT 10SM OVC010 06/04 A3008 230 86 -700 VRB/05 RMK AO2 T00610039
03949KAQV AQV20191216235514612/16/19 23:55:31  5-MIN KAQV 170555Z AUTO VRB04KT 10SM OVC010 06/04 A3008 230 86 -700 VRB/04 RMK AO2 SLP185 T00610039 10106 20061 402330061 51036
03949KAQV AQV20191217000011112/17/19 00:00:31  5-MIN KAQV 170600Z AUTO VRB04KT 10SM OVC010 06/04 A3008 230 86 -700 VRB/04 RMK AO2 T00610039
03949KAQV AQV20191217000511112/17/19 00:05:31  5-MIN KAQV 170605Z AUTO VRB06KT 10SM OVC009 06/04 A3008 230 86 -700 VRB/06 RMK AO2 T00610039
03949KAQV AQV20191217001015212/17/19 00:10:31  5-MIN KAQV 170610Z AUTO 35007G15KT 320V040 10SM BKN009 OVC013 06/03 A3008 230 82 -700 350/07G15 320V040 RMK AO2 CIG 009V012 T00610033
03949KAQV AQV20191217001512912/17/19 00:15:31  5-MIN KAQV 170615Z AUTO 36008G15KT 10SM OVC009 06/03 A3008 230 85 -800 350/08G15 RMK AO2 CIG 009V014 T00560033
03949KAQV AQV20191217002012312/17/19 00:20:31  5-MIN KAQV 170620Z AUTO VRB05KT 10SM OVC009 06/03 A3008 230 85 -800 VRB/05 RMK AO2 CIG 009V014 T00560033
03949KAQV AQV20191217002512712/17/19 00:25:31  5-MIN KAQV 170625Z AUTO 34007KT 310V040 10SM OVC010 06/03 A3008 230 85 -800 340/07 310V040 RMK AO2 T00560033
03949KAQV AQV20191217003011112/17/19 00:30:31  5-MIN KAQV 170630Z AUTO VRB03KT 10SM OVC010 06/03 A3008 230 85 -800 VRB/03 RMK AO2 T00560033
03949KAQV AQV20191217003511312/17/19 00:35:31  5-MIN KAQV 170635Z AUTO 10SM OVC010 06/03 A3008 230 85 -800 M /M RMK AO2 CIG 009V014 T00560033
03949KAQV AQV20191217004013912/17/19 00:40:31  5-MIN KAQV 170640Z AUTO 33007KT 300V020 10SM OVC010 06/03 A3008 230 85 -800 330/07 300V020 RMK AO2 CIG 009V014 T00560033
03949KAQV AQV20191217004511112/17/19 00:45:31  5-MIN KAQV 170645Z AUTO 34007KT 10SM OVC010 06/03 A3008 230 82 -800 340/07 RMK AO2 T00560028
03949KAQV AQV20191217183510812/17/19 18:35:31  5-MIN KAQV 180035Z AUTO 00000KT 10SM CLR 02/00 A3031 20 85 -1400 000/00 RMK AO2 T00220000
03949KAQV AQV20191217184010812/17/19 18:40:31  5-MIN KAQV 180040Z AUTO 00000KT 10SM CLR 02/00 A3031 20 89 -1500 000/00 RMK AO2 T00170000
03949KAQV AQV20191217184510812/17/19 18:45:31  5-MIN KAQV 180045Z AUTO 00000KT 10SM CLR 02/00 A3031 20 85 -1400 000/00 RMK AO2 T00220000
03949KAQV AQV20191217185010812/17/19 18:50:31  5-MIN KAQV 180050Z AUTO 00000KT 10SM CLR 02/00 A3031 10 89 -1500 000/00 RMK AO2 T00170000
03949KAQV AQV20191217185511512/17/19 18:55:31  5-MIN KAQV 180055Z AUTO 00000KT 10SM CLR 02/00 A3032 10 89 -1500 000/00 RMK AO2 SLP270 T00170000
03949KAQV AQV20191217190010812/17/19 19:00:31  5-MIN KAQV 180100Z AUTO 00000KT 10SM CLR 02/00 A3032 10 89 -1500 000/00 RMK AO2 T00170000
03949KAQV AQV20191217190510812/17/19 19:05:31  5-MIN KAQV 180105Z AUTO 00000KT 10SM CLR 02/00 A3032 10 89 -1500 000/00 RMK AO2 T00170000
03949KAQV AQV20191217191010812/17/19 19:10:31  5-MIN KAQV 180110Z AUTO 00000KT 10SM CLR 02/00 A3032 10 89 -1500 000/00 RMK AO2 T00170000
03949KAQV AQV20191217191510812/17/19 19:15:31  5-MIN KAQV 180115Z AUTO 00000KT 10SM CLR 02/00 A3032 10 89 -1500 000/00 RMK AO2 T00170000
03949KAQV AQV20191217192010812/17/19 19:20:31  5-MIN KAQV 180120Z AUTO 00000KT 10SM CLR 01/00 A3032 10 92 -1600 000/00 RMK AO2 T00110000
03949KAQV AQV20191217192510812/17/19 19:25:31  5-MIN KAQV 180125Z AUTO 00000KT 10SM CLR 01/00 A3032 10 92 -1600 000/00 RMK AO2 T00110000
03949KAQV AQV20191217193010812/17/19 19:30:31  5-MIN KAQV 180130Z AUTO 00000KT 10SM CLR 01/M01 A3033 0 89 -1600 000/00 RMK AO2 T00111006
03949KAQV AQV20191217193510812/17/19 19:35:31  5-MIN KAQV 180135Z AUTO 00000KT 10SM CLR 01/M01 A3033 0 89 -1600 000/00 RMK AO2 T00111006
03949KAQV AQV20191217194010812/17/19 19:40:31  5-MIN KAQV 180140Z AUTO 00000KT 10SM CLR 01/M01 A3033 0 89 -1600 000/00 RMK AO2 T00111006
03949KAQV AQV20191217194510812/17/19 19:45:31  5-MIN KAQV 180145Z AUTO 00000KT 10SM CLR 01/M01 A3033 0 89 -1600 000/00 RMK AO2 T00111006
03949KAQV AQV20191217195010812/17/19 19:50:31  5-MIN KAQV 180150Z AUTO 00000KT 10SM CLR 01/M01 A3033 0 89 -1600 000/00 RMK AO2 T00111006
03949KAQV AQV20191217195511512/17/19 19:55:31  5-MIN KAQV 180155Z AUTO 00000KT 10SM CLR 01/M01 A3033 0 89 -1600 000/00 RMK AO2 SLP274 T00111006
03949KAQV AQV20191217200010812/17/19 20:00:31  5-MIN KAQV 180200Z AUTO 00000KT 10SM CLR 01/M01 A3033 0 89 -1600 000/00 RMK AO2 T00111006
03949KAQV AQV20191217200510812/17/19 20:05:31  5-MIN KAQV 180205Z AUTO 00000KT 10SM CLR 01/M01 A3034 0 89 -1600 000/00 RMK AO2 T00111006
03949KAQV AQV20191217201010812/17/19 20:10:31  5-MIN KAQV 180210Z AUTO 00000KT 10SM CLR 02/M01 A3034 0 85 -1500 000/00 RMK AO2 T00171006
03949KAQV AQV20191217201510812/17/19 20:15:31  5-MIN KAQV 180215Z AUTO 00000KT 10SM CLR 01/M01 A3034 0 89 -1600 000/00 RMK AO2 T00111006
03949KAQV AQV20191217202010812/17/19 20:20:31  5-MIN KAQV 180220Z AUTO 00000KT 10SM CLR 01/M01 A3034 0 89 -1600 000/00 RMK AO2 T00111006
03949KAQV AQV20191217202510812/17/19 20:25:31  5-MIN KAQV 180225Z AUTO 00000KT 10SM CLR 01/M01 A3034 0 89 -1600 000/00 RMK AO2 T00111006
03949KAQV AQV20191217203011012/17/19 20:30:31  5-MIN KAQV 180230Z AUTO 00000KT 10SM CLR 02/M01 A3034 -10 85 -1500 000/00 RMK AO2 T00171006
03949KAQV AQV20191217203510812/17/19 20:35:31  5-MIN KAQV 180235Z AUTO 00000KT 10SM CLR 01/M01 A3034 0 89 -1600 000/00 RMK AO2 T00111006
03949KAQV AQV20191217204010812/17/19 20:40:31  5-MIN KAQV 180240Z AUTO 00000KT 10SM CLR 01/M01 A3034 0 89 -1600 000/00 RMK AO2 T00111006
03949KAQV AQV20191217204510812/17/19 20:45:31  5-MIN KAQV 180245Z AUTO 34003KT 10SM CLR 01/M01 A3034 0 89 -1600 330/03 RMK AO2 T00111006
03949KAQV AQV20191217205010812/17/19 20:50:31  5-MIN KAQV 180250Z AUTO 00000KT 10SM CLR 01/M01 A3034 0 89 -1600 000/00 RMK AO2 T00111006
03949KAQV AQV20191217205512312/17/19 20:55:31  5-MIN KAQV 180255Z AUTO 00000KT 10SM CLR 01/M01 A3034 -10 89 -1600 000/00 RMK AO2 SLP278 T00111006 53014
03949KAQV AQV20191217210011012/17/19 21:00:31  5-MIN KAQV 180300Z AUTO 00000KT 10SM CLR 01/M01 A3034 -10 89 -1700 000/00 RMK AO2 T00061011
03949KAQV AQV20191217210511012/17/19 21:05:31  5-MIN KAQV 180305Z AUTO 00000KT 10SM CLR 01/M01 A3034 -10 89 -1700 000/00 RMK AO2 T00061011
03949KAQV AQV20191217211011012/17/19 21:10:31  5-MIN KAQV 180310Z AUTO 00000KT 10SM CLR 01/M01 A3034 -10 89 -1700 000/00 RMK AO2 T00061011
03949KAQV AQV20191217211511012/17/19 21:15:31  5-MIN KAQV 180315Z AUTO 00000KT 10SM CLR 01/M01 A3034 -10 89 -1700 000/00 RMK AO2 T00061011
03949KAQV AQV20191217212011012/17/19 21:20:31  5-MIN KAQV 180320Z AUTO 00000KT 10SM CLR 01/M01 A3034 -10 89 -1700 000/00 RMK AO2 T00061011
03949KAQV AQV20191217212511012/17/19 21:25:31  5-MIN KAQV 180325Z AUTO 00000KT 10SM CLR 00/M01 A3034 -10 92 -1800 000/00 RMK AO2 T00001011
03949KAQV AQV20191217213011012/17/19 21:30:31  5-MIN KAQV 180330Z AUTO 00000KT 10SM CLR 01/M01 A3034 -10 89 -1700 000/00 RMK AO2 T00061011
03949KAQV AQV20191217213511012/17/19 21:35:31  5-MIN KAQV 180335Z AUTO 00000KT 10SM CLR 01/M01 A3035 -10 89 -1700 000/00 RMK AO2 T00061011
03949KAQV AQV20191217214011012/17/19 21:40:31  5-MIN KAQV 180340Z AUTO 00000KT 10SM CLR 01/M01 A3035 -10 89 -1700 000/00 RMK AO2 T00061011
03949KAQV AQV20191217214511012/17/19 21:45:31  5-MIN KAQV 180345Z AUTO 00000KT 10SM CLR 01/M01 A3035 -10 89 -1700 000/00 RMK AO2 T00061011
03949KAQV AQV20191217215011012/17/19 21:50:31  5-MIN KAQV 180350Z AUTO 00000KT 10SM CLR 01/M01 A3035 -10 89 -1700 000/00 RMK AO2 T00061011
03949KAQV AQV20191217215511712/17/19 21:55:31  5-MIN KAQV 180355Z AUTO 00000KT 10SM CLR 01/M01 A3035 -10 89 -1700 000/00 RMK AO2 SLP281 T00061011
03949KAQV AQV20191217220011012/17/19 22:00:31  5-MIN KAQV 180400Z AUTO 00000KT 10SM CLR 00/M01 A3035 -10 92 -1800 000/00 RMK AO2 T00001011
03949KAQV AQV20191217220511012/17/19 22:05:31  5-MIN KAQV 180405Z AUTO 00000KT 10SM CLR 00/M02 A3035 -10 88 -1800 000/00 RMK AO2 T00001017
03949KAQV AQV20191217221011012/17/19 22:10:31  5-MIN KAQV 180410Z AUTO 00000KT 10SM CLR 00/M02 A3035 -10 88 -1800 000/00 RMK AO2 T00001017
03949KAQV AQV20191217221511012/17/19 22:15:31  5-MIN KAQV 180415Z AUTO 00000KT 10SM CLR 00/M02 A3035 -10 88 -1800 000/00 RMK AO2 T00001017
03949KAQV AQV20191217222011012/17/19 22:20:31  5-MIN KAQV 180420Z AUTO 00000KT 10SM CLR 00/M02 A3035 -10 88 -1800 000/00 RMK AO2 T00001017
03949KAQV AQV20191217222511012/17/19 22:25:31  5-MIN KAQV 180425Z AUTO 00000KT 10SM CLR 00/M02 A3035 -10 88 -1800 000/00 RMK AO2 T00001017
03949KAQV AQV20191217223011012/17/19 22:30:31  5-MIN KAQV 180430Z AUTO 00000KT 10SM CLR 00/M01 A3035 -10 92 -1800 000/00 RMK AO2 T00001011
03949KAQV AQV20191217223511012/17/19 22:35:31  5-MIN KAQV 180435Z AUTO 00000KT 10SM CLR 00/M02 A3035 -10 88 -1800 000/00 RMK AO2 T00001017
03949KAQV AQV20191217224011012/17/19 22:40:31  5-MIN KAQV 180440Z AUTO 00000KT 10SM CLR 00/M02 A3035 -10 88 -1800 000/00 RMK AO2 T00001017
03949KAQV AQV20191217224511012/17/19 22:45:31  5-MIN KAQV 180445Z AUTO 00000KT 10SM CLR 00/M02 A3035 -10 88 -1800 000/00 RMK AO2 T00001017
03949KAQV AQV20191217225011012/17/19 22:50:31  5-MIN KAQV 180450Z AUTO 00000KT 10SM CLR 00/M02 A3035 -10 88 -1800 000/00 RMK AO2 T00001017
03949KAQV AQV20191217225511712/17/19 22:55:31  5-MIN KAQV 180455Z AUTO 00000KT 10SM CLR 00/M02 A3035 -20 88 -1800 000/00 RMK AO2 SLP281 T00001017
03949KAQV AQV20191218041011112/18/19 04:10:31  5-MIN KAQV 181010Z AUTO 00000KT 10SM CLR M02/M03 A3037 -30 88 -2000 000/00 RMK AO2 T10171033
03949KAQV AQV20191218041511112/18/19 04:15:31  5-MIN KAQV 181015Z AUTO 00000KT 10SM CLR M02/M03 A3037 -30 88 -2000 000/00 RMK AO2 T10171033
03949KAQV AQV20191218042011112/18/19 04:20:31  5-MIN KAQV 181020Z AUTO 00000KT 10SM CLR M01/M03 A3037 -30 85 -1900 000/00 RMK AO2 T10111033
03949KAQV AQV20191218042511112/18/19 04:25:31  5-MIN KAQV 181025Z AUTO 00000KT 10SM CLR M01/M03 A3037 -30 85 -1900 000/00 RMK AO2 T10111033
03949KAQV AQV20191218043011112/18/19 04:30:31  5-MIN KAQV 181030Z AUTO 00000KT 10SM CLR M02/M03 A3037 -40 88 -2000 000/00 RMK AO2 T10171033
03949KAQV AQV20191218043511112/18/19 04:35:31  5-MIN KAQV 181035Z AUTO 00000KT 10SM CLR M02/M03 A3037 -40 88 -2000 000/00 RMK AO2 T10171033
03949KAQV AQV20191218044011112/18/19 04:40:31  5-MIN KAQV 181040Z AUTO 00000KT 10SM CLR M02/M03 A3038 -40 88 -2000 000/00 RMK AO2 T10171033
03949KAQV AQV20191218044511112/18/19 04:45:31  5-MIN KAQV 181045Z AUTO 00000KT 10SM CLR M02/M03 A3038 -40 88 -2000 000/00 RMK AO2 T10171033
03949KAQV AQV20191218045011112/18/19 04:50:31  5-MIN KAQV 181050Z AUTO 00000KT 10SM CLR M01/M03 A3038 -40 85 -1900 000/00 RMK AO2 T10111033
03949KAQV AQV20191218045511812/18/19 04:55:31  5-MIN KAQV 181055Z AUTO 00000KT 10SM CLR M02/M03 A3038 -40 88 -2000 000/00 RMK AO2 SLP292 T10171033
03949KAQV AQV20191218050011112/18/19 05:00:31  5-MIN KAQV 181100Z AUTO 00000KT 10SM CLR M02/M03 A3038 -40 88 -2000 000/00 RMK AO2 T10171033
03949KAQV AQV20191218050511112/18/19 05:05:31  5-MIN KAQV 181105Z AUTO 00000KT 10SM CLR M02/M03 A3038 -40 88 -2000 000/00 RMK AO2 T10171033
03949KAQV AQV20191218051011112/18/19 05:10:31  5-MIN KAQV 181110Z AUTO 00000KT 10SM CLR M02/M03 A3038 -40 88 -2000 000/00 RMK AO2 T10171033
03949KAQV AQV20191218051511112/18/19 05:15:31  5-MIN KAQV 181115Z AUTO 00000KT 10SM CLR M02/M03 A3038 -40 88 -2000 000/00 RMK AO2 T10171033
03949KAQV AQV20191218052011112/18/19 05:20:31  5-MIN KAQV 181120Z AUTO 00000KT 10SM CLR M02/M03 A3038 -50 88 -2000 000/00 RMK AO2 T10171033
03949KAQV AQV20191218052511112/18/19 05:25:31  5-MIN KAQV 181125Z AUTO 00000KT 10SM CLR M02/M03 A3038 -50 88 -2000 000/00 RMK AO2 T10171033
03949KAQV AQV20191218053011112/18/19 05:30:31  5-MIN KAQV 181130Z AUTO 00000KT 10SM CLR M02/M03 A3039 -50 92 -2100 000/00 RMK AO2 T10221033
03949KAQV AQV20191218053511112/18/19 05:35:31  5-MIN KAQV 181135Z AUTO 00000KT 10SM CLR M02/M03 A3039 -50 92 -2100 000/00 RMK AO2 T10221033
03949KAQV AQV20191218054011112/18/19 05:40:31  5-MIN KAQV 181140Z AUTO 00000KT 10SM CLR M02/M04 A3039 -50 88 -2100 000/00 RMK AO2 T10221039
03949KAQV AQV20191218054511112/18/19 05:45:31  5-MIN KAQV 181145Z AUTO 00000KT 10SM CLR M02/M04 A3039 -50 88 -2100 000/00 RMK AO2 T10221039
03949KAQV AQV20191218055011112/18/19 05:50:31  5-MIN KAQV 181150Z AUTO 00000KT 10SM CLR M02/M04 A3039 -50 88 -2100 000/00 RMK AO2 T10221039
03949KAQV AQV20191218055513612/18/19 05:55:31  5-MIN KAQV 181155Z AUTO 00000KT 10SM CLR M02/M04 A3039 -50 88 -2100 000/00 RMK AO2 SLP294 T10221039 10000 21022 53006
03949KAQV AQV20191218060011112/18/19 06:00:31  5-MIN KAQV 181200Z AUTO 00000KT 10SM CLR M02/M04 A3039 -50 88 -2100 000/00 RMK AO2 T10221039
03949KAQV AQV20191218060511112/18/19 06:05:31  5-MIN KAQV 181205Z AUTO 00000KT 10SM CLR M02/M04 A3039 -50 88 -2100 000/00 RMK AO2 T10221039
03949KAQV AQV20191218061011112/18/19 06:10:31  5-MIN KAQV 181210Z AUTO 00000KT 10SM CLR M02/M04 A3039 -50 88 -2100 000/00 RMK AO2 T10221039
03949KAQV AQV20191218061511112/18/19 06:15:31  5-MIN KAQV 181215Z AUTO 00000KT 10SM CLR M02/M04 A3039 -50 88 -2100 000/00 RMK AO2 T10221039
03949KAQV AQV20191218062011112/18/19 06:20:31  5-MIN KAQV 181220Z AUTO 00000KT 10SM CLR M02/M04 A3039 -50 88 -2100 000/00 RMK AO2 T10221039
03949KAQV AQV20191218062511112/18/19 06:25:31  5-MIN KAQV 181225Z AUTO 00000KT 10SM CLR M02/M04 A3039 -50 88 -2100 000/00 RMK AO2 T10221039
03949KAQV AQV20191218063011112/18/19 06:30:31  5-MIN KAQV 181230Z AUTO 00000KT 10SM CLR M02/M04 A3039 -50 88 -2100 000/00 RMK AO2 T10221039
03949KAQV AQV20191218063511112/18/19 06:35:31  5-MIN KAQV 181235Z AUTO 00000KT 10SM CLR M02/M03 A3040 -60 92 -2100 000/00 RMK AO2 T10221033
03949KAQV AQV20191218064011112/18/19 06:40:31  5-MIN KAQV 181240Z AUTO 00000KT 10SM CLR M02/M03 A3040 -60 92 -2100 000/00 RMK AO2 T10221033
03949KAQV AQV20191218064511112/18/19 06:45:31  5-MIN KAQV 181245Z AUTO 00000KT 10SM CLR M02/M04 A3040 -60 88 -2100 000/00 RMK AO2 T10221039
03949KAQV AQV20191218065011112/18/19 06:50:31  5-MIN KAQV 181250Z AUTO 00000KT 10SM CLR M02/M04 A3040 -60 88 -2100 000/00 RMK AO2 T10221039
03949KAQV AQV20191218065511812/18/19 06:55:31  5-MIN KAQV 181255Z AUTO 00000KT 10SM CLR M02/M04 A3040 -60 88 -2100 000/00 RMK AO2 SLP299 T10221039
03949KAQV AQV20191218070011112/18/19 07:00:31  5-MIN KAQV 181300Z AUTO 00000KT 10SM CLR M02/M04 A3040 -60 88 -2100 000/00 RMK AO2 T10221039
03949KAQV AQV20191218070511112/18/19 07:05:31  5-MIN KAQV 181305Z AUTO 00000KT 10SM CLR M02/M04 A3041 -70 88 -2100 000/00 RMK AO2 T10221039
03949KAQV AQV20191218071011112/18/19 07:10:31  5-MIN KAQV 181310Z AUTO 00000KT 10SM CLR M02/M04 A3041 -70 88 -2100 000/00 RMK AO2 T10221039
03949KAQV AQV20191218071511112/18/19 07:15:31  5-MIN KAQV 181315Z AUTO 00000KT 10SM CLR M02/M04 A3041 -70 88 -2100 000/00 RMK AO2 T10221039
03949KAQV AQV20191218072011112/18/19 07:20:31  5-MIN KAQV 181320Z AUTO 00000KT 10SM CLR M02/M04 A3041 -70 88 -2100 000/00 RMK AO2 T10221039
03949KAQV AQV20191218072511112/18/19 07:25:31  5-MIN KAQV 181325Z AUTO 00000KT 10SM CLR M02/M03 A3041 -70 92 -2100 000/00 RMK AO2 T10221033
03949KAQV AQV20191218073011112/18/19 07:30:31  5-MIN KAQV 181330Z AUTO 00000KT 10SM CLR M02/M03 A3041 -70 88 -2100 000/00 RMK AO2 T10171033
03949KAQV AQV20191218073511112/18/19 07:35:31  5-MIN KAQV 181335Z AUTO 00000KT 10SM CLR M02/M03 A3042 -70 88 -2100 000/00 RMK AO2 T10171033
03949KAQV AQV20191218074011112/18/19 07:40:31  5-MIN KAQV 181340Z AUTO 00000KT 10SM CLR M02/M03 A3042 -80 88 -2100 000/00 RMK AO2 T10171033
03949KAQV AQV20191218074511112/18/19 07:45:31  5-MIN KAQV 181345Z AUTO 00000KT 10SM CLR M02/M03 A3042 -80 92 -2100 000/00 RMK AO2 T10171028
03949KAQV AQV20191218075011112/18/19 07:50:31  5-MIN KAQV 181350Z AUTO 00000KT 10SM CLR M01/M03 A3042 -80 88 -2000 000/00 RMK AO2 T10111028
03949KAQV AQV20191218075511812/18/19 07:55:31  5-MIN KAQV 181355Z AUTO 00000KT 10SM CLR M01/M03 A3042 -80 88 -2000 000/00 RMK AO2 SLP306 T10111028
03949KAQV AQV20191218080011112/18/19 08:00:31  5-MIN KAQV 181400Z AUTO 00000KT 10SM CLR M01/M02 A3043 -80 88 -1900 000/00 RMK AO2 T10061022
03949KAQV AQV20191218080511012/18/19 08:05:31  5-MIN KAQV 181405Z AUTO 00000KT 10SM CLR 00/M02 A3043 -80 88 -1900 000/00 RMK AO2 T00001017
03949KAQV AQV20191218081011012/18/19 08:10:31  5-MIN KAQV 181410Z AUTO 00000KT 10SM CLR 01/M01 A3043 -80 89 -1800 000/00 RMK AO2 T00061011
03949KAQV AQV20191218081511012/18/19 08:15:31  5-MIN KAQV 181415Z AUTO 00000KT 10SM CLR 01/M01 A3043 -90 85 -1700 000/00 RMK AO2 T00111011
03949KAQV AQV20191218082011012/18/19 08:20:31  5-MIN KAQV 181420Z AUTO 00000KT 10SM CLR 01/M01 A3043 -90 89 -1700 000/00 RMK AO2 T00111006
03949KAQV AQV20191218082511012/18/19 08:25:31  5-MIN KAQV 181425Z AUTO 00000KT 10SM CLR 02/M01 A3043 -90 85 -1700 000/00 RMK AO2 T00171006
03949KAQV AQV20191218083011012/18/19 08:30:31  5-MIN KAQV 181430Z AUTO 00000KT 10SM CLR 02/M01 A3044 -90 82 -1600 000/00 RMK AO2 T00221006
03949KAQV AQV20191218083511012/18/19 08:35:31  5-MIN KAQV 181435Z AUTO 00000KT 10SM CLR 03/M01 A3044 -90 79 -1500 000/00 RMK AO2 T00281006
03949KAQV AQV20191218084011112/18/19 08:40:31  5-MIN KAQV 181440Z AUTO 00000KT 10SM CLR 03/M01 A3044 -100 79 -1500 000/00 RMK AO2 T00281006
03949KAQV AQV20191218084511112/18/19 08:45:31  5-MIN KAQV 181445Z AUTO 00000KT 10SM CLR 03/M01 A3044 -100 76 -1500 000/00 RMK AO2 T00331006
03949KAQV AQV20191218085011112/18/19 08:50:31  5-MIN KAQV 181450Z AUTO 00000KT 10SM CLR 04/M01 A3044 -100 73 -1400 000/00 RMK AO2 T00391006
03949KAQV AQV20191218085512412/18/19 08:55:31  5-MIN KAQV 181455Z AUTO 00000KT 10SM CLR 04/M01 A3044 -100 70 -1300 000/00 RMK AO2 SLP312 T00441006 53007
03949KAQV AQV20191218090011112/18/19 09:00:31  5-MIN KAQV 181500Z AUTO 00000KT 10SM CLR 04/M01 A3044 -100 70 -1300 000/00 RMK AO2 T00441006
03949KAQV AQV20191218090511112/18/19 09:05:31  5-MIN KAQV 181505Z AUTO 00000KT 10SM CLR 05/M01 A3045 -100 67 -1300 000/00 RMK AO2 T00501006
03949KAQV AQV20191218091011112/18/19 09:10:31  5-MIN KAQV 181510Z AUTO 00000KT 10SM CLR 06/M01 A3045 -100 65 -1200 000/00 RMK AO2 T00561006
03949KAQV AQV20191218091511112/18/19 09:15:31  5-MIN KAQV 181515Z AUTO 00000KT 10SM CLR 05/M01 A3045 -110 64 -1300 000/00 RMK AO2 T00501011
03949KAQV AQV20191218092011112/18/19 09:20:31  5-MIN KAQV 181520Z AUTO VRB03KT 10SM CLR 06/M01 A3045 -110 65 -1200 VRB/03 RMK AO2 T00561006
03949KAQV AQV20191218092511112/18/19 09:25:31  5-MIN KAQV 181525Z AUTO 00000KT 10SM CLR 06/M01 A3045 -110 62 -1200 000/00 RMK AO2 T00561011
03949KAQV AQV20191218093011112/18/19 09:30:31  5-MIN KAQV 181530Z AUTO VRB03KT 10SM CLR 06/M01 A3046 -110 60 -1100 VRB/03 RMK AO2 T00611011
03949KAQV AQV20191218093511112/18/19 09:35:31  5-MIN KAQV 181535Z AUTO VRB03KT 10SM CLR 06/M01 A3046 -110 62 -1100 VRB/03 RMK AO2 T00611006
03949KAQV AQV20191218094011112/18/19 09:40:31  5-MIN KAQV 181540Z AUTO 00000KT 10SM CLR 07/M01 A3046 -110 57 -1100 000/00 RMK AO2 T00671011
03949KAQV AQV20191218094511112/18/19 09:45:31  5-MIN KAQV 181545Z AUTO 00000KT 10SM CLR 07/M01 A3046 -120 57 -1100 000/00 RMK AO2 T00671011
03949KAQV AQV20191218095011112/18/19 09:50:31  5-MIN KAQV 181550Z AUTO VRB03KT 10SM CLR 07/M01 A3046 -120 57 -1100 VRB/03 RMK AO2 T00671011
03949KAQV AQV20191218095511812/18/19 09:55:31  5-MIN KAQV 181555Z AUTO 00000KT 10SM CLR 07/M01 A3046 -120 55 -1000 000/00 RMK AO2 SLP318 T00721011
03949KAQV AQV20191218100011112/18/19 10:00:31  5-MIN KAQV 181600Z AUTO 00000KT 10SM CLR 07/M01 A3046 -120 55 -1000 000/00 RMK AO2 T00721011
03949KAQV AQV20191218100511012/18/19 10:05:31  5-MIN KAQV 181605Z AUTO 00000KT 10SM CLR 08/M02 A3046 -120 49 -900 000/00 RMK AO2 T00831017
03949KAQV AQV20191218101011012/18/19 10:10:31  5-MIN KAQV 181610Z AUTO 00000KT 10SM CLR 08/M02 A3046 -120 49 -900 000/00 RMK AO2 T00781022
03949KAQV AQV20191218101511012/18/19 10:15:31  5-MIN KAQV 181615Z AUTO 00000KT 10SM CLR 08/M03 A3046 -120 45 -900 000/00 RMK AO2 T00831028
03949KAQV AQV20191218102011012/18/19 10:20:31  5-MIN KAQV 181620Z AUTO VRB03KT 10SM CLR 08/M02 A3046 -120 47 -900 VRB/03 RMK AO2 T00831022
03949KAQV AQV20191218102511012/18/19 10:25:31  5-MIN KAQV 181625Z AUTO 00000KT 10SM CLR 08/M02 A3046 -110 49 -900 000/00 RMK AO2 T00781022
03949KAQV AQV20191218103011012/18/19 10:30:31  5-MIN KAQV 181630Z AUTO VRB03KT 10SM CLR 09/M02 A3046 -110 47 -800 VRB/03 RMK AO2 T00891017
03949KAQV AQV20191218103511012/18/19 10:35:31  5-MIN KAQV 181635Z AUTO 00000KT 10SM CLR 09/M02 A3046 -110 47 -800 000/00 RMK AO2 T00891017
03949KAQV AQV20191218104011012/18/19 10:40:31  5-MIN KAQV 181640Z AUTO VRB03KT 10SM CLR 09/M02 A3046 -110 47 -800 VRB/03 RMK AO2 T00891017
03949KAQV AQV20191218104511012/18/19 10:45:31  5-MIN KAQV 181645Z AUTO 01004KT 10SM CLR 09/M02 A3046 -110 47 -800 360/04 RMK AO2 T00891017
03949KAQV AQV20191218105011012/18/19 10:50:31  5-MIN KAQV 181650Z AUTO 00000KT 10SM CLR 09/M02 A3046 -110 47 -800 000/00 RMK AO2 T00891017
03949KAQV AQV20191218105510712/18/19 10:55:31  5-MIN KAQV 181655Z AUTO 10SM CLR 09/M02 A3045 -110 45 -700 M /M RMK AO2 SLP315 T00941017
03949KAQV AQV20191218110011012/18/19 11:00:31  5-MIN KAQV 181700Z AUTO 28004KT 10SM CLR 09/M02 A3045 -110 45 -700 280/04 RMK AO2 T00941017
03949KAQV AQV20191218110511012/18/19 11:05:31  5-MIN KAQV 181705Z AUTO VRB03KT 10SM CLR 09/M02 A3045 -100 45 -800 VRB/03 RMK AO2 T00891022
03949KAQV AQV20191218111011012/18/19 11:10:31  5-MIN KAQV 181710Z AUTO VRB03KT 10SM CLR 09/M02 A3045 -100 44 -700 VRB/03 RMK AO2 T00941022
03949KAQV AQV20191218111511012/18/19 11:15:31  5-MIN KAQV 181715Z AUTO 00000KT 10SM CLR 09/M02 A3045 -100 44 -700 000/00 RMK AO2 T00941022
03949KAQV AQV20191218112011012/18/19 11:20:31  5-MIN KAQV 181720Z AUTO VRB04KT 10SM CLR 09/M03 A3045 -100 42 -700 VRB/04 RMK AO2 T00941028
03949KAQV AQV20191218112511012/18/19 11:25:31  5-MIN KAQV 181725Z AUTO 00000KT 10SM CLR 10/M02 A3044 -100 42 -600 000/00 RMK AO2 T01001022
03949KAQV AQV20191218113010912/18/19 11:30:31  5-MIN KAQV 181730Z AUTO VRB03KT 10SM CLR 10/M02 A3044 -90 42 -600 VRB/03 RMK AO2 T01001022
03949KAQV AQV20191218113510912/18/19 11:35:31  5-MIN KAQV 181735Z AUTO 30005KT 10SM CLR 10/M02 A3043 -90 42 -600 290/05 RMK AO2 T01001022
03949KAQV AQV20191218114010912/18/19 11:40:31  5-MIN KAQV 181740Z AUTO VRB03KT 10SM CLR 10/M03 A3043 -90 40 -600 VRB/03 RMK AO2 T01001028
03949KAQV AQV20191218114510912/18/19 11:45:31  5-MIN KAQV 181745Z AUTO 00000KT 10SM CLR 11/M03 A3042 -80 39 -500 000/00 RMK AO2 T01061028
03949KAQV AQV20191218115010912/18/19 11:50:31  5-MIN KAQV 181750Z AUTO VRB04KT 10SM CLR 11/M03 A3042 -80 39 -500 VRB/04 RMK AO2 T01061028
03949KAQV AQV20191218115513412/18/19 11:55:31  5-MIN KAQV 181755Z AUTO 00000KT 10SM CLR 11/M03 A3042 -80 37 -500 000/00 RMK AO2 SLP305 T01061033 10106 21022 53018
03949KAQV AQV20191218120010912/18/19 12:00:31  5-MIN KAQV 181800Z AUTO VRB04KT 10SM CLR 11/M03 A3042 -80 36 -500 VRB/04 RMK AO2 T01111033
03949KAQV AQV20191218120510912/18/19 12:05:31  5-MIN KAQV 181805Z AUTO VRB03KT 10SM CLR 12/M03 A3042 -70 36 -400 VRB/03 RMK AO2 T01171028
03949KAQV AQV20191218121010912/18/19 12:10:31  5-MIN KAQV 181810Z AUTO VRB03KT 10SM CLR 11/M03 A3041 -70 36 -500 VRB/03 RMK AO2 T01111033
03949KAQV AQV20191218121509912/18/19 12:15:31  5-MIN KAQV 181815Z AUTO 10SM CLR 11/M04 A3041 -70 36 -500 M /M RMK AO2 T01061039
03949KAQV AQV20191218122010912/18/19 12:20:31  5-MIN KAQV 181820Z AUTO 00000KT 10SM CLR 11/M03 A3041 -60 37 -500 000/00 RMK AO2 T01111028
03949KAQV AQV20191218122510912/18/19 12:25:31  5-MIN KAQV 181825Z AUTO VRB03KT 10SM CLR 11/M03 A3040 -60 36 -500 VRB/03 RMK AO2 T01111033
03949KAQV AQV20191218123009912/18/19 12:30:31  5-MIN KAQV 181830Z AUTO 10SM CLR 11/M03 A3040 -60 37 -500 M /M RMK AO2 T01111028
03949KAQV AQV20191218123510912/18/19 12:35:31  5-MIN KAQV 181835Z AUTO VRB03KT 10SM CLR 11/M03 A3040 -60 36 -500 VRB/03 RMK AO2 T01111033
03949KAQV AQV20191218124009912/18/19 12:40:31  5-MIN KAQV 181840Z AUTO 10SM CLR 11/M04 A3040 -60 33 -500 M /M RMK AO2 T01111044
03949KAQV AQV20191218124510912/18/19 12:45:31  5-MIN KAQV 181845Z AUTO VRB04KT 10SM CLR 12/M03 A3039 -50 35 -400 VRB/04 RMK AO2 T01171033
03949KAQV AQV20191218125010912/18/19 12:50:31  5-MIN KAQV 181850Z AUTO 00000KT 10SM CLR 12/M03 A3039 -50 35 -400 000/00 RMK AO2 T01171033
03949KAQV AQV20191218125510612/18/19 12:55:31  5-MIN KAQV 181855Z AUTO 10SM CLR 12/M03 A3039 -50 35 -400 M /M RMK AO2 SLP293 T01171033
03949KAQV AQV20191218130010912/18/19 13:00:31  5-MIN KAQV 181900Z AUTO VRB03KT 10SM CLR 12/M04 A3039 -50 32 -400 VRB/03 RMK AO2 T01171044
03949KAQV AQV20191218130510912/18/19 13:05:31  5-MIN KAQV 181905Z AUTO VRB05KT 10SM CLR 12/M04 A3038 -40 33 -400 VRB/05 RMK AO2 T01171039
03949KAQV AQV20191218131010912/18/19 13:10:31  5-MIN KAQV 181910Z AUTO 00000KT 10SM CLR 12/M04 A3038 -40 32 -300 000/00 RMK AO2 T01221039
03949KAQV AQV20191218131510912/18/19 13:15:31  5-MIN KAQV 181915Z AUTO VRB04KT 10SM CLR 12/M04 A3038 -40 32 -400 VRB/04 RMK AO2 T01171044
03949KAQV AQV20191218132010912/18/19 13:20:31  5-MIN KAQV 181920Z AUTO VRB04KT 10SM CLR 12/M04 A3038 -40 32 -400 VRB/04 RMK AO2 T01171044
03949KAQV AQV20191218132510912/18/19 13:25:31  5-MIN KAQV 181925Z AUTO 01007KT 10SM CLR 12/M04 A3037 -40 31 -300 360/07 RMK AO2 T01221044
03949KAQV AQV20191218133010912/18/19 13:30:31  5-MIN KAQV 181930Z AUTO 33005KT 10SM CLR 12/M05 A3037 -30 30 -400 330/05 RMK AO2 T01171050
03949KAQV AQV20191218133510912/18/19 13:35:31  5-MIN KAQV 181935Z AUTO VRB03KT 10SM CLR 12/M04 A3037 -30 32 -300 VRB/03 RMK AO2 T01221039
03949KAQV AQV20191218134010912/18/19 13:40:31  5-MIN KAQV 181940Z AUTO VRB05KT 10SM CLR 12/M04 A3037 -30 32 -300 VRB/05 RMK AO2 T01221039
03949KAQV AQV20191218134510912/18/19 13:45:31  5-MIN KAQV 181945Z AUTO VRB03KT 10SM CLR 12/M04 A3037 -30 31 -300 VRB/03 RMK AO2 T01221044
03949KAQV AQV20191218135010912/18/19 13:50:31  5-MIN KAQV 181950Z AUTO VRB05KT 10SM CLR 12/M04 A3036 -30 31 -300 VRB/05 RMK AO2 T01221044
03949KAQV AQV20191218135511612/18/19 13:55:31  5-MIN KAQV 181955Z AUTO 36006KT 10SM CLR 12/M04 A3036 -30 31 -300 360/06 RMK AO2 SLP285 T01221044
03949KAQV AQV20191218140010912/18/19 14:00:31  5-MIN KAQV 182000Z AUTO 02007KT 10SM CLR 12/M04 A3036 -30 31 -300 010/07 RMK AO2 T01221044
03949KAQV AQV20191218140510912/18/19 14:05:31  5-MIN KAQV 182005Z AUTO VRB05KT 10SM CLR 12/M05 A3036 -20 29 -300 VRB/05 RMK AO2 T01221050
03949KAQV AQV20191218141010912/18/19 14:10:31  5-MIN KAQV 182010Z AUTO VRB04KT 10SM CLR 13/M03 A3036 -20 32 -200 VRB/04 RMK AO2 T01281033
03949KAQV AQV20191218141509912/18/19 14:15:31  5-MIN KAQV 182015Z AUTO 10SM CLR 13/M04 A3036 -30 30 -200 M /M RMK AO2 T01281044
03949KAQV AQV20191218142010912/18/19 14:20:31  5-MIN KAQV 182020Z AUTO VRB04KT 10SM CLR 13/M04 A3036 -30 30 -200 VRB/04 RMK AO2 T01281044
03949KAQV AQV20191218142510912/18/19 14:25:31  5-MIN KAQV 182025Z AUTO 32004KT 10SM CLR 12/M05 A3036 -30 29 -300 310/04 RMK AO2 T01221050
03949KAQV AQV20191218143010912/18/19 14:30:31  5-MIN KAQV 182030Z AUTO 36005KT 10SM CLR 12/M05 A3036 -30 29 -300 360/05 RMK AO2 T01221050
03949KAQV AQV20191218143510912/18/19 14:35:31  5-MIN KAQV 182035Z AUTO 01006KT 10SM CLR 13/M04 A3036 -20 30 -200 010/06 RMK AO2 T01281044
03949KAQV AQV20191218144010912/18/19 14:40:31  5-MIN KAQV 182040Z AUTO VRB06KT 10SM CLR 12/M05 A3036 -20 29 -300 VRB/06 RMK AO2 T01221050
03949KAQV AQV20191218144510912/18/19 14:45:31  5-MIN KAQV 182045Z AUTO VRB04KT 10SM CLR 12/M05 A3036 -20 29 -300 VRB/04 RMK AO2 T01221050
03949KAQV AQV20191218145010912/18/19 14:50:31  5-MIN KAQV 182050Z AUTO VRB04KT 10SM CLR 13/M04 A3036 -20 30 -200 VRB/04 RMK AO2 T01281044
03949KAQV AQV20191218145512212/18/19 14:55:31  5-MIN KAQV 182055Z AUTO VRB06KT 10SM CLR 12/M05 A3036 -20 29 -300 VRB/06 RMK AO2 SLP283 T01221050 58007
03949KAQV AQV20191218150010912/18/19 15:00:31  5-MIN KAQV 182100Z AUTO VRB05KT 10SM CLR 12/M05 A3036 -20 29 -300 VRB/05 RMK AO2 T01221050
03949KAQV AQV20191218150510912/18/19 15:05:31  5-MIN KAQV 182105Z AUTO 36007KT 10SM CLR 12/M04 A3036 -20 31 -300 360/07 RMK AO2 T01221044
03949KAQV AQV20191218151010912/18/19 15:10:31  5-MIN KAQV 182110Z AUTO VRB04KT 10SM CLR 12/M05 A3036 -20 29 -300 VRB/04 RMK AO2 T01221050
03949KAQV AQV20191218151510912/18/19 15:15:31  5-MIN KAQV 182115Z AUTO VRB05KT 10SM CLR 12/M05 A3036 -20 29 -300 VRB/05 RMK AO2 T01221050
03949KAQV AQV20191218152010912/18/19 15:20:31  5-MIN KAQV 182120Z AUTO 36004KT 10SM CLR 12/M04 A3036 -20 31 -300 350/04 RMK AO2 T01221044
03949KAQV AQV20191218152510912/18/19 15:25:31  5-MIN KAQV 182125Z AUTO VRB04KT 10SM CLR 12/M04 A3036 -20 31 -300 VRB/04 RMK AO2 T01221044
03949KAQV AQV20191218153010912/18/19 15:30:31  5-MIN KAQV 182130Z AUTO VRB04KT 10SM CLR 12/M04 A3036 -20 31 -300 VRB/04 RMK AO2 T01221044
03949KAQV AQV20191218153510912/18/19 15:35:31  5-MIN KAQV 182135Z AUTO 36005KT 10SM CLR 12/M05 A3036 -20 29 -300 360/05 RMK AO2 T01221050
03949KAQV AQV20191218154010912/18/19 15:40:31  5-MIN KAQV 182140Z AUTO VRB05KT 10SM CLR 12/M05 A3036 -30 29 -300 VRB/05 RMK AO2 T01221050
03949KAQV AQV20191218154510912/18/19 15:45:31  5-MIN KAQV 182145Z AUTO VRB03KT 10SM CLR 12/M06 A3036 -30 28 -300 VRB/03 RMK AO2 T01221056
03949KAQV AQV20191218155010912/18/19 15:50:31  5-MIN KAQV 182150Z AUTO 36005KT 10SM CLR 12/M06 A3036 -30 28 -300 350/05 RMK AO2 T01221056
03949KAQV AQV20191218155511612/18/19 15:55:31  5-MIN KAQV 182155Z AUTO 36007KT 10SM CLR 12/M05 A3036 -30 30 -300 350/07 RMK AO2 SLP284 T01171050
03949KAQV AQV20191218160010912/18/19 16:00:31  5-MIN KAQV 182200Z AUTO VRB03KT 10SM CLR 12/M04 A3036 -20 32 -300 VRB/03 RMK AO2 T01171044
03949KAQV AQV20191218160510912/18/19 16:05:31  5-MIN KAQV 182205Z AUTO 00000KT 10SM CLR 12/M05 A3036 -20 30 -300 000/00 RMK AO2 T01171050
03949KAQV AQV20191218165010912/18/19 16:50:31  5-MIN KAQV 182250Z AUTO 00000KT 10SM CLR 09/M03 A3036 -20 43 -700 000/00 RMK AO2 T00891028
03949KAQV AQV20191218165511612/18/19 16:55:31  5-MIN KAQV 182255Z AUTO 00000KT 10SM CLR 08/M02 A3036 -30 47 -800 000/00 RMK AO2 SLP285 T00831022
03949KAQV AQV20191218170010912/18/19 17:00:31  5-MIN KAQV 182300Z AUTO 00000KT 10SM CLR 08/M02 A3036 -30 51 -800 000/00 RMK AO2 T00781017
03949KAQV AQV20191218170510912/18/19 17:05:31  5-MIN KAQV 182305Z AUTO 00000KT 10SM CLR 08/M01 A3036 -30 53 -800 000/00 RMK AO2 T00781011
03949KAQV AQV20191218171010912/18/19 17:10:31  5-MIN KAQV 182310Z AUTO 00000KT 10SM CLR 07/M02 A3037 -30 51 -900 000/00 RMK AO2 T00721022
03949KAQV AQV20191218171511012/18/19 17:15:31  5-MIN KAQV 182315Z AUTO 00000KT 10SM CLR 07/M02 A3037 -30 55 -1000 000/00 RMK AO2 T00671017
03949KAQV AQV20191218172011012/18/19 17:20:31  5-MIN KAQV 182320Z AUTO 00000KT 10SM CLR 06/M01 A3037 -30 60 -1000 000/00 RMK AO2 T00611011
03949KAQV AQV20191218172511012/18/19 17:25:31  5-MIN KAQV 182325Z AUTO 00000KT 10SM CLR 06/M01 A3037 -30 62 -1000 000/00 RMK AO2 T00611006
03949KAQV AQV20191218173011012/18/19 17:30:31  5-MIN KAQV 182330Z AUTO 00000KT 10SM CLR 06/M01 A3037 -30 65 -1100 000/00 RMK AO2 T00561006
03949KAQV AQV20191218173511012/18/19 17:35:31  5-MIN KAQV 182335Z AUTO 00000KT 10SM CLR 05/M01 A3037 -30 64 -1200 000/00 RMK AO2 T00501011
03949KAQV AQV20191218174011012/18/19 17:40:31  5-MIN KAQV 182340Z AUTO 00000KT 10SM CLR 04/M01 A3037 -30 70 -1200 000/00 RMK AO2 T00441006
03949KAQV AQV20191218174511012/18/19 17:45:31  5-MIN KAQV 182345Z AUTO 00000KT 10SM CLR 04/M01 A3037 -30 67 -1200 000/00 RMK AO2 T00441011
03949KAQV AQV20191218175011012/18/19 17:50:31  5-MIN KAQV 182350Z AUTO 00000KT 10SM CLR 04/M01 A3037 -40 70 -1200 000/00 RMK AO2 T00441006
03949KAQV AQV20191218175513512/18/19 17:55:31  5-MIN KAQV 182355Z AUTO 00000KT 10SM CLR 04/M01 A3037 -40 73 -1300 000/00 RMK AO2 SLP289 T00391006 10128 20039 56021
03949KAQV AQV20191218180011012/18/19 18:00:31  5-MIN KAQV 190000Z AUTO 00000KT 10SM CLR 04/M01 A3037 -30 73 -1300 000/00 RMK AO2 T00391006
03949KAQV AQV20191218180511012/18/19 18:05:31  5-MIN KAQV 190005Z AUTO 00000KT 10SM CLR 03/M01 A3037 -40 76 -1400 000/00 RMK AO2 T00331006
03949KAQV AQV20191218181011012/18/19 18:10:31  5-MIN KAQV 190010Z AUTO 00000KT 10SM CLR 03/M01 A3037 -40 72 -1400 000/00 RMK AO2 T00331011
03949KAQV AQV20191218181511012/18/19 18:15:31  5-MIN KAQV 190015Z AUTO 00000KT 10SM CLR 03/M01 A3038 -40 79 -1500 000/00 RMK AO2 T00281006
03949KAQV AQV20191218182011012/18/19 18:20:31  5-MIN KAQV 190020Z AUTO 00000KT 10SM CLR 03/M01 A3038 -40 79 -1500 000/00 RMK AO2 T00281006
03949KAQV AQV20191218182511012/18/19 18:25:31  5-MIN KAQV 190025Z AUTO 00000KT 10SM CLR 03/M01 A3038 -40 79 -1500 000/00 RMK AO2 T00281006
03949KAQV AQV20191218183011012/18/19 18:30:31  5-MIN KAQV 190030Z AUTO 00000KT 10SM CLR 02/M01 A3038 -40 82 -1500 000/00 RMK AO2 T00221006
03949KAQV AQV20191218183511012/18/19 18:35:31  5-MIN KAQV 190035Z AUTO 00000KT 10SM CLR 02/M01 A3038 -40 82 -1500 000/00 RMK AO2 T00221006
03949KAQV AQV20191218184011012/18/19 18:40:31  5-MIN KAQV 190040Z AUTO 00000KT 10SM CLR 02/M01 A3038 -40 82 -1500 000/00 RMK AO2 T00221006
03949KAQV AQV20191218184511012/18/19 18:45:31  5-MIN KAQV 190045Z AUTO 00000KT 10SM CLR 02/M01 A3038 -50 82 -1600 000/00 RMK AO2 T00171011
03949KAQV AQV20191218185011012/18/19 18:50:31  5-MIN KAQV 190050Z AUTO 00000KT 10SM CLR 02/M01 A3039 -50 82 -1600 000/00 RMK AO2 T00171011
03949KAQV AQV20191218185511712/18/19 18:55:31  5-MIN KAQV 190055Z AUTO 00000KT 10SM CLR 02/M01 A3039 -50 82 -1600 000/00 RMK AO2 SLP293 T00171011
03949KAQV AQV20191218190011012/18/19 19:00:31  5-MIN KAQV 190100Z AUTO 00000KT 10SM CLR 02/M01 A3039 -50 82 -1600 000/00 RMK AO2 T00171011
03949KAQV AQV20191218190511012/18/19 19:05:31  5-MIN KAQV 190105Z AUTO 00000KT 10SM CLR 01/M01 A3039 -50 85 -1700 000/00 RMK AO2 T00111011
03949KAQV AQV20191218191011012/18/19 19:10:31  5-MIN KAQV 190110Z AUTO 00000KT 10SM CLR 01/M01 A3039 -50 85 -1700 000/00 RMK AO2 T00111011
03949KAQV AQV20191218191511012/18/19 19:15:31  5-MIN KAQV 190115Z AUTO 00000KT 10SM CLR 01/M01 A3039 -50 85 -1700 000/00 RMK AO2 T00111011
03949KAQV AQV20191218192011012/18/19 19:20:31  5-MIN KAQV 190120Z AUTO 00000KT 10SM CLR 01/M02 A3039 -50 82 -1700 000/00 RMK AO2 T00111017
03949KAQV AQV20191218192511012/18/19 19:25:31  5-MIN KAQV 190125Z AUTO 00000KT 10SM CLR 01/M02 A3039 -50 82 -1700 000/00 RMK AO2 T00111017
03949KAQV AQV20191218193011012/18/19 19:30:31  5-MIN KAQV 190130Z AUTO 00000KT 10SM CLR 01/M02 A3039 -50 82 -1700 000/00 RMK AO2 T00111017
03949KAQV AQV20191218193511012/18/19 19:35:31  5-MIN KAQV 190135Z AUTO 00000KT 10SM CLR 01/M02 A3039 -50 82 -1700 000/00 RMK AO2 T00111017
03949KAQV AQV20191218194011012/18/19 19:40:31  5-MIN KAQV 190140Z AUTO 00000KT 10SM CLR 01/M02 A3039 -50 82 -1700 000/00 RMK AO2 T00111017
03949KAQV AQV20191218194511012/18/19 19:45:31  5-MIN KAQV 190145Z AUTO 00000KT 10SM CLR 01/M02 A3039 -50 85 -1700 000/00 RMK AO2 T00061017
03949KAQV AQV20191218195011012/18/19 19:50:31  5-MIN KAQV 190150Z AUTO 00000KT 10SM CLR 01/M02 A3039 -50 85 -1700 000/00 RMK AO2 T00061017
03949KAQV AQV20191218195511712/18/19 19:55:31  5-MIN KAQV 190155Z AUTO 00000KT 10SM CLR 01/M02 A3039 -50 85 -1800 000/00 RMK AO2 SLP296 T00061017
03949KAQV AQV20191218200011012/18/19 20:00:31  5-MIN KAQV 190200Z AUTO 00000KT 10SM CLR 01/M02 A3039 -50 85 -1700 000/00 RMK AO2 T00061017
03949KAQV AQV20191218200511012/18/19 20:05:31  5-MIN KAQV 190205Z AUTO 00000KT 10SM CLR 01/M02 A3039 -50 85 -1700 000/00 RMK AO2 T00061017
03949KAQV AQV20191218201011012/18/19 20:10:31  5-MIN KAQV 190210Z AUTO 00000KT 10SM CLR 01/M01 A3039 -60 89 -1800 000/00 RMK AO2 T00061011
03949KAQV AQV20191218201511012/18/19 20:15:31  5-MIN KAQV 190215Z AUTO 00000KT 10SM CLR 00/M02 A3040 -60 88 -1800 000/00 RMK AO2 T00001017
03949KAQV AQV20191218202011012/18/19 20:20:31  5-MIN KAQV 190220Z AUTO 00000KT 10SM CLR 00/M02 A3040 -60 88 -1800 000/00 RMK AO2 T00001017
03949KAQV AQV20191218202511012/18/19 20:25:31  5-MIN KAQV 190225Z AUTO 00000KT 10SM CLR 00/M02 A3040 -60 88 -1800 000/00 RMK AO2 T00001017
03949KAQV AQV20191218203011012/18/19 20:30:31  5-MIN KAQV 190230Z AUTO 00000KT 10SM CLR 00/M02 A3040 -60 88 -1800 000/00 RMK AO2 T00001017
03949KAQV AQV20191218203511012/18/19 20:35:31  5-MIN KAQV 190235Z AUTO 00000KT 10SM CLR 00/M02 A3040 -60 88 -1800 000/00 RMK AO2 T00001017
03949KAQV AQV20191218204011012/18/19 20:40:31  5-MIN KAQV 190240Z AUTO 00000KT 10SM CLR 00/M02 A3040 -60 88 -1800 000/00 RMK AO2 T00001017
03949KAQV AQV20191218204511012/18/19 20:45:31  5-MIN KAQV 190245Z AUTO 00000KT 10SM CLR 00/M02 A3040 -60 88 -1800 000/00 RMK AO2 T00001017
03949KAQV AQV20191218205011012/18/19 20:50:31  5-MIN KAQV 190250Z AUTO 00000KT 10SM CLR 00/M02 A3040 -60 88 -1800 000/00 RMK AO2 T00001017
03949KAQV AQV20191218205512312/18/19 20:55:31  5-MIN KAQV 190255Z AUTO 00000KT 10SM CLR 00/M02 A3040 -60 88 -1800 000/00 RMK AO2 SLP298 T00001017 53006
03949KAQV AQV20191218210011012/18/19 21:00:31  5-MIN KAQV 190300Z AUTO 00000KT 10SM CLR 00/M02 A3040 -60 88 -1800 000/00 RMK AO2 T00001017
03949KAQV AQV20191218210511012/18/19 21:05:31  5-MIN KAQV 190305Z AUTO 00000KT 10SM CLR 00/M02 A3040 -60 88 -1800 000/00 RMK AO2 T00001017
03949KAQV AQV20191218211011112/18/19 21:10:31  5-MIN KAQV 190310Z AUTO 00000KT 10SM CLR M01/M02 A3040 -60 88 -1900 000/00 RMK AO2 T10061022
03949KAQV AQV20191218211511012/18/19 21:15:31  5-MIN KAQV 190315Z AUTO 00000KT 10SM CLR 00/M02 A3040 -60 88 -1800 000/00 RMK AO2 T00001017
03949KAQV AQV20191218212011112/18/19 21:20:31  5-MIN KAQV 190320Z AUTO 00000KT 10SM CLR M01/M02 A3040 -60 92 -1900 000/00 RMK AO2 T10061017
03949KAQV AQV20191218212511012/18/19 21:25:31  5-MIN KAQV 190325Z AUTO 00000KT 10SM CLR 00/M02 A3040 -60 88 -1800 000/00 RMK AO2 T00001017
03949KAQV AQV20191218213011012/18/19 21:30:31  5-MIN KAQV 190330Z AUTO 00000KT 10SM CLR 00/M02 A3040 -60 85 -1800 000/00 RMK AO2 T00001022
03949KAQV AQV20191218213511012/18/19 21:35:31  5-MIN KAQV 190335Z AUTO 00000KT 10SM CLR 00/M02 A3040 -60 85 -1800 000/00 RMK AO2 T00001022
03949KAQV AQV20191218214011012/18/19 21:40:31  5-MIN KAQV 190340Z AUTO 00000KT 10SM CLR 00/M02 A3039 -50 88 -1800 000/00 RMK AO2 T00001017
03949KAQV AQV20191218214511012/18/19 21:45:31  5-MIN KAQV 190345Z AUTO 00000KT 10SM CLR 00/M02 A3039 -50 88 -1800 000/00 RMK AO2 T00001017
03949KAQV AQV20191218215011012/18/19 21:50:31  5-MIN KAQV 190350Z AUTO 00000KT 10SM CLR 00/M02 A3039 -50 88 -1800 000/00 RMK AO2 T00001017
03949KAQV AQV20191218215511712/18/19 21:55:31  5-MIN KAQV 190355Z AUTO 00000KT 10SM CLR 00/M02 A3039 -50 88 -1800 000/00 RMK AO2 SLP295 T00001017
03949KAQV AQV20191218220011012/18/19 22:00:31  5-MIN KAQV 190400Z AUTO 00000KT 10SM CLR 00/M02 A3039 -50 85 -1800 000/00 RMK AO2 T00001022
03949KAQV AQV20191218220511012/18/19 22:05:31  5-MIN KAQV 190405Z AUTO 00000KT 10SM CLR 00/M02 A3040 -60 85 -1800 000/00 RMK AO2 T00001022
03949KAQV AQV20191218221011012/18/19 22:10:31  5-MIN KAQV 190410Z AUTO 00000KT 10SM CLR 00/M02 A3040 -60 85 -1800 000/00 RMK AO2 T00001022
03949KAQV AQV20191218221511012/18/19 22:15:31  5-MIN KAQV 190415Z AUTO 00000KT 10SM CLR 00/M02 A3039 -50 85 -1800 000/00 RMK AO2 T00001022
03949KAQV AQV20191218222011012/18/19 22:20:31  5-MIN KAQV 190420Z AUTO 00000KT 10SM CLR 00/M02 A3039 -50 85 -1800 000/00 RMK AO2 T00001022
03949KAQV AQV20191218222511012/18/19 22:25:31  5-MIN KAQV 190425Z AUTO 00000KT 10SM CLR 00/M02 A3039 -50 88 -1800 000/00 RMK AO2 T00001017
03949KAQV AQV20191218223011012/18/19 22:30:31  5-MIN KAQV 190430Z AUTO 00000KT 10SM CLR 00/M02 A3039 -50 85 -1800 000/00 RMK AO2 T00001022
03949KAQV AQV20191218223511112/18/19 22:35:31  5-MIN KAQV 190435Z AUTO 00000KT 10SM CLR M01/M02 A3039 -50 88 -1900 000/00 RMK AO2 T10061022
03949KAQV AQV20191218224011112/18/19 22:40:31  5-MIN KAQV 190440Z AUTO 00000KT 10SM CLR M01/M02 A3039 -50 88 -1900 000/00 RMK AO2 T10061022
03949KAQV AQV20191218224511112/18/19 22:45:31  5-MIN KAQV 190445Z AUTO 00000KT 10SM CLR M01/M02 A3039 -50 88 -1900 000/00 RMK AO2 T10061022
03949KAQV AQV20191218225011112/18/19 22:50:31  5-MIN KAQV 190450Z AUTO 00000KT 10SM CLR M01/M02 A3039 -50 88 -1900 000/00 RMK AO2 T10061022
03949KAQV AQV20191218225511812/18/19 22:55:31  5-MIN KAQV 190455Z AUTO 00000KT 10SM CLR M01/M02 A3039 -50 88 -1900 000/00 RMK AO2 SLP294 T10061022
03949KAQV AQV20191218230011112/18/19 23:00:31  5-MIN KAQV 190500Z AUTO 00000KT 10SM CLR M01/M02 A3039 -50 88 -1900 000/00 RMK AO2 T10061022
03949KAQV AQV20191218230511112/18/19 23:05:31  5-MIN KAQV 190505Z AUTO 00000KT 10SM CLR M01/M02 A3039 -50 88 -1900 000/00 RMK AO2 T10061022
03949KAQV AQV20191218231011112/18/19 23:10:31  5-MIN KAQV 190510Z AUTO 00000KT 10SM CLR M01/M02 A3039 -50 88 -1900 000/00 RMK AO2 T10061022
03949KAQV AQV20191218231511112/18/19 23:15:31  5-MIN KAQV 190515Z AUTO 00000KT 10SM CLR M01/M02 A3038 -50 88 -1900 000/00 RMK AO2 T10061022
03949KAQV AQV20191218232011112/18/19 23:20:31  5-MIN KAQV 190520Z AUTO 00000KT 10SM CLR M01/M02 A3038 -50 88 -1900 000/00 RMK AO2 T10061022
03949KAQV AQV20191218232511112/18/19 23:25:31  5-MIN KAQV 190525Z AUTO 00000KT 10SM CLR M01/M02 A3039 -50 88 -1900 000/00 RMK AO2 T10061022
03949KAQV AQV20191218233011112/18/19 23:30:31  5-MIN KAQV 190530Z AUTO 00000KT 10SM CLR M01/M02 A3039 -50 88 -1900 000/00 RMK AO2 T10061022
03949KAQV AQV20191218233511112/18/19 23:35:31  5-MIN KAQV 190535Z AUTO 00000KT 10SM CLR M01/M02 A3039 -50 92 -2000 000/00 RMK AO2 T10111022
03949KAQV AQV20191218234011112/18/19 23:40:31  5-MIN KAQV 190540Z AUTO 00000KT 10SM CLR M01/M02 A3039 -50 92 -2000 000/00 RMK AO2 T10111022
03949KAQV AQV20191218234511112/18/19 23:45:31  5-MIN KAQV 190545Z AUTO 00000KT 10SM CLR M01/M02 A3039 -50 92 -2000 000/00 RMK AO2 T10111022
03949KAQV AQV20191218235011112/18/19 23:50:31  5-MIN KAQV 190550Z AUTO 00000KT 10SM CLR M01/M02 A3039 -50 92 -2000 000/00 RMK AO2 T10111022
03949KAQV AQV20191218235514612/18/19 23:55:31  5-MIN KAQV 190555Z AUTO 00000KT 10SM CLR M01/M03 A3039 -50 88 -2000 000/00 RMK AO2 SLP293 T10111028 10039 21011 401281022 51009
03949KAQV AQV20191219000011112/19/19 00:00:31  5-MIN KAQV 190600Z AUTO 00000KT 10SM CLR M01/M03 A3039 -50 88 -2000 000/00 RMK AO2 T10111028
03949KAQV AQV20191219000511112/19/19 00:05:31  5-MIN KAQV 190605Z AUTO 00000KT 10SM CLR M01/M03 A3039 -50 88 -2000 000/00 RMK AO2 T10111028
03949KAQV AQV20191219001011112/19/19 00:10:31  5-MIN KAQV 190610Z AUTO 00000KT 10SM CLR M01/M03 A3039 -50 88 -2000 000/00 RMK AO2 T10111028
03949KAQV AQV20191219001511112/19/19 00:15:31  5-MIN KAQV 190615Z AUTO 00000KT 10SM CLR M01/M03 A3038 -40 88 -1900 000/00 RMK AO2 T10111028
03949KAQV AQV20191219002011112/19/19 00:20:31  5-MIN KAQV 190620Z AUTO 00000KT 10SM CLR M01/M03 A3038 -40 88 -1900 000/00 RMK AO2 T10111028
03949KAQV AQV20191219002511112/19/19 00:25:31  5-MIN KAQV 190625Z AUTO 00000KT 10SM CLR M01/M03 A3038 -50 88 -2000 000/00 RMK AO2 T10111028
03949KAQV AQV20191219003011112/19/19 00:30:31  5-MIN KAQV 190630Z AUTO 00000KT 10SM CLR M02/M03 A3039 -50 92 -2000 000/00 RMK AO2 T10171028
03949KAQV AQV20191219003511112/19/19 00:35:31  5-MIN KAQV 190635Z AUTO 00000KT 10SM CLR M02/M03 A3038 -50 92 -2000 000/00 RMK AO2 T10171028
03949KAQV AQV20191219004011112/19/19 00:40:31  5-MIN KAQV 190640Z AUTO 00000KT 10SM CLR M02/M03 A3038 -50 92 -2000 000/00 RMK AO2 T10171028
03949KAQV AQV20191219004511112/19/19 00:45:31  5-MIN KAQV 190645Z AUTO 00000KT 10SM CLR M02/M03 A3038 -50 92 -2000 000/00 RMK AO2 T10171028
03949KAQV AQV20191219005011112/19/19 00:50:31  5-MIN KAQV 190650Z AUTO 00000KT 10SM CLR M02/M03 A3039 -50 92 -2000 000/00 RMK AO2 T10171028
03949KAQV AQV20191219005511812/19/19 00:55:31  5-MIN KAQV 190655Z AUTO 00000KT 10SM CLR M02/M03 A3039 -50 92 -2000 000/00 RMK AO2 SLP293 T10171028
03949KAQV AQV20191219010011112/19/19 01:00:31  5-MIN KAQV 190700Z AUTO 00000KT 10SM CLR M02/M03 A3039 -50 92 -2000 000/00 RMK AO2 T10171028
03949KAQV AQV20191219010511112/19/19 01:05:31  5-MIN KAQV 190705Z AUTO 00000KT 10SM CLR M02/M03 A3039 -50 92 -2000 000/00 RMK AO2 T10171028
03949KAQV AQV20191219011011112/19/19 01:10:31  5-MIN KAQV 190710Z AUTO 00000KT 10SM CLR M02/M03 A3039 -50 88 -2000 000/00 RMK AO2 T10171033
03949KAQV AQV20191219011511112/19/19 01:15:31  5-MIN KAQV 190715Z AUTO 00000KT 10SM CLR M02/M03 A3040 -60 88 -2000 000/00 RMK AO2 T10171033
03949KAQV AQV20191219012011112/19/19 01:20:31  5-MIN KAQV 190720Z AUTO 00000KT 10SM CLR M02/M03 A3040 -60 88 -2000 000/00 RMK AO2 T10171033
03949KAQV AQV20191219012511112/19/19 01:25:31  5-MIN KAQV 190725Z AUTO 00000KT 10SM CLR M02/M03 A3040 -60 88 -2000 000/00 RMK AO2 T10171033
03949KAQV AQV20191219013011112/19/19 01:30:31  5-MIN KAQV 190730Z AUTO 00000KT 10SM CLR M02/M03 A3040 -60 88 -2000 000/00 RMK AO2 T10171033
03949KAQV AQV20191219013511112/19/19 01:35:31  5-MIN KAQV 190735Z AUTO 00000KT 10SM CLR M02/M03 A3040 -60 88 -2000 000/00 RMK AO2 T10171033
03949KAQV AQV20191219014011112/19/19 01:40:31  5-MIN KAQV 190740Z AUTO 00000KT 10SM CLR M02/M03 A3040 -60 88 -2000 000/00 RMK AO2 T10171033
03949KAQV AQV20191219014511112/19/19 01:45:31  5-MIN KAQV 190745Z AUTO 00000KT 10SM CLR M02/M03 A3040 -60 88 -2000 000/00 RMK AO2 T10171033
03949KAQV AQV20191219015011112/19/19 01:50:31  5-MIN KAQV 190750Z AUTO 00000KT 10SM CLR M02/M03 A3040 -60 88 -2000 000/00 RMK AO2 T10171033
03949KAQV AQV20191219015511812/19/19 01:55:31  5-MIN KAQV 190755Z AUTO 00000KT 10SM CLR M02/M03 A3040 -60 88 -2000 000/00 RMK AO2 SLP298 T10171033
03949KAQV AQV20191219020011112/19/19 02:00:31  5-MIN KAQV 190800Z AUTO 00000KT 10SM CLR M02/M03 A3040 -60 88 -2000 000/00 RMK AO2 T10171033
03949KAQV AQV20191219020511112/19/19 02:05:31  5-MIN KAQV 190805Z AUTO 00000KT 10SM CLR M02/M03 A3040 -60 88 -2000 000/00 RMK AO2 T10171033
03949KAQV AQV20191219021011112/19/19 02:10:31  5-MIN KAQV 190810Z AUTO 00000KT 10SM CLR M02/M03 A3040 -60 88 -2000 000/00 RMK AO2 T10171033
03949KAQV AQV20191219021511112/19/19 02:15:31  5-MIN KAQV 190815Z AUTO 00000KT 10SM CLR M02/M03 A3040 -60 88 -2000 000/00 RMK AO2 T10171033
03949KAQV AQV20191219022011112/19/19 02:20:31  5-MIN KAQV 190820Z AUTO 00000KT 10SM CLR M02/M03 A3040 -60 88 -2000 000/00 RMK AO2 T10171033
03949KAQV AQV20191219022511112/19/19 02:25:31  5-MIN KAQV 190825Z AUTO 00000KT 10SM CLR M02/M03 A3040 -60 88 -2000 000/00 RMK AO2 T10171033
03949KAQV AQV20191219023011112/19/19 02:30:31  5-MIN KAQV 190830Z AUTO 00000KT 10SM CLR M02/M03 A3040 -60 88 -2000 000/00 RMK AO2 T10171033
03949KAQV AQV20191219023511112/19/19 02:35:31  5-MIN KAQV 190835Z AUTO 00000KT 10SM CLR M02/M03 A3040 -60 88 -2000 000/00 RMK AO2 T10171033
03949KAQV AQV20191219024011112/19/19 02:40:31  5-MIN KAQV 190840Z AUTO 00000KT 10SM CLR M02/M03 A3040 -60 88 -2000 000/00 RMK AO2 T10171033
03949KAQV AQV20191219024511112/19/19 02:45:31  5-MIN KAQV 190845Z AUTO 00000KT 10SM CLR M02/M03 A3039 -50 88 -2000 000/00 RMK AO2 T10171033
03949KAQV AQV20191219025011112/19/19 02:50:31  5-MIN KAQV 190850Z AUTO 00000KT 10SM CLR M02/M03 A3039 -50 88 -2000 000/00 RMK AO2 T10171033
03949KAQV AQV20191219025512412/19/19 02:55:31  5-MIN KAQV 190855Z AUTO 00000KT 10SM CLR M02/M03 A3040 -60 88 -2000 000/00 RMK AO2 SLP295 T10171033 56004
03949KAQV AQV20191219030011112/19/19 03:00:31  5-MIN KAQV 190900Z AUTO 00000KT 10SM CLR M02/M03 A3039 -50 88 -2000 000/00 RMK AO2 T10171033
03949KAQV AQV20191219030511112/19/19 03:05:31  5-MIN KAQV 190905Z AUTO 00000KT 10SM CLR M02/M03 A3040 -60 88 -2000 000/00 RMK AO2 T10171033
03949KAQV AQV20191219031011112/19/19 03:10:31  5-MIN KAQV 190910Z AUTO 00000KT 10SM CLR M02/M03 A3040 -60 88 -2000 000/00 RMK AO2 T10171033
03949KAQV AQV20191219031511112/19/19 03:15:31  5-MIN KAQV 190915Z AUTO 00000KT 10SM CLR M02/M03 A3040 -60 88 -2000 000/00 RMK AO2 T10171033
03949KAQV AQV20191219032011112/19/19 03:20:31  5-MIN KAQV 190920Z AUTO 00000KT 10SM CLR M02/M03 A3040 -60 88 -2000 000/00 RMK AO2 T10171033
03949KAQV AQV20191219032511112/19/19 03:25:31  5-MIN KAQV 190925Z AUTO 00000KT 10SM CLR M02/M03 A3040 -60 88 -2000 000/00 RMK AO2 T10171033
03949KAQV AQV20191219033011112/19/19 03:30:31  5-MIN KAQV 190930Z AUTO 00000KT 10SM CLR M02/M03 A3040 -60 88 -2000 000/00 RMK AO2 T10171033
03949KAQV AQV20191219033511112/19/19 03:35:31  5-MIN KAQV 190935Z AUTO 00000KT 10SM CLR M02/M03 A3040 -60 88 -2000 000/00 RMK AO2 T10171033
03949KAQV AQV20191219034011112/19/19 03:40:31  5-MIN KAQV 190940Z AUTO 00000KT 10SM CLR M02/M03 A3039 -50 88 -2000 000/00 RMK AO2 T10171033
03949KAQV AQV20191219034511112/19/19 03:45:31  5-MIN KAQV 190945Z AUTO 00000KT 10SM CLR M02/M03 A3039 -50 88 -2000 000/00 RMK AO2 T10171033
03949KAQV AQV20191219035011112/19/19 03:50:31  5-MIN KAQV 190950Z AUTO 00000KT 10SM CLR M02/M03 A3039 -50 88 -2000 000/00 RMK AO2 T10171033
03949KAQV AQV20191219035511812/19/19 03:55:31  5-MIN KAQV 190955Z AUTO 00000KT 10SM CLR M02/M03 A3039 -50 88 -2000 000/00 RMK AO2 SLP294 T10171033
03949KAQV AQV20191219040011112/19/19 04:00:31  5-MIN KAQV 191000Z AUTO 00000KT 10SM CLR M02/M03 A3039 -50 88 -2000 000/00 RMK AO2 T10171033
03949KAQV AQV20191219040511112/19/19 04:05:31  5-MIN KAQV 191005Z AUTO 00000KT 10SM CLR M02/M03 A3039 -50 88 -2000 000/00 RMK AO2 T10171033
03949KAQV AQV20191219041011112/19/19 04:10:31  5-MIN KAQV 191010Z AUTO 00000KT 10SM CLR M02/M03 A3039 -50 92 -2100 000/00 RMK AO2 T10221033
03949KAQV AQV20191219041511112/19/19 04:15:31  5-MIN KAQV 191015Z AUTO 00000KT 10SM CLR M02/M04 A3039 -50 88 -2100 000/00 RMK AO2 T10221039
03949KAQV AQV20191219042011112/19/19 04:20:31  5-MIN KAQV 191020Z AUTO 00000KT 10SM CLR M02/M04 A3039 -50 88 -2100 000/00 RMK AO2 T10221039
03949KAQV AQV20191219042511112/19/19 04:25:31  5-MIN KAQV 191025Z AUTO 00000KT 10SM CLR M02/M03 A3039 -50 92 -2100 000/00 RMK AO2 T10221033
03949KAQV AQV20191219043011112/19/19 04:30:31  5-MIN KAQV 191030Z AUTO 00000KT 10SM CLR M02/M03 A3039 -50 88 -2000 000/00 RMK AO2 T10171033
03949KAQV AQV20191219043511112/19/19 04:35:31  5-MIN KAQV 191035Z AUTO 00000KT 10SM CLR M02/M03 A3040 -60 92 -2100 000/00 RMK AO2 T10221033
03949KAQV AQV20191219044011112/19/19 04:40:31  5-MIN KAQV 191040Z AUTO 00000KT 10SM CLR M02/M03 A3040 -60 92 -2100 000/00 RMK AO2 T10221033
03949KAQV AQV20191219044511112/19/19 04:45:31  5-MIN KAQV 191045Z AUTO 00000KT 10SM CLR M02/M03 A3040 -60 92 -2100 000/00 RMK AO2 T10221033
03949KAQV AQV20191219045011112/19/19 04:50:31  5-MIN KAQV 191050Z AUTO 00000KT 10SM CLR M02/M03 A3040 -60 92 -2100 000/00 RMK AO2 T10221033
03949KAQV AQV20191219045511812/19/19 04:55:31  5-MIN KAQV 191055Z AUTO 00000KT 10SM CLR M02/M03 A3039 -50 92 -2100 000/00 RMK AO2 SLP295 T10221033
03949KAQV AQV20191219050011112/19/19 05:00:31  5-MIN KAQV 191100Z AUTO 00000KT 10SM CLR M02/M04 A3040 -60 88 -2100 000/00 RMK AO2 T10221039
03949KAQV AQV20191219050511112/19/19 05:05:31  5-MIN KAQV 191105Z AUTO 00000KT 10SM CLR M02/M03 A3040 -60 92 -2100 000/00 RMK AO2 T10221033
03949KAQV AQV20191219051011112/19/19 05:10:31  5-MIN KAQV 191110Z AUTO 00000KT 10SM CLR M02/M04 A3039 -50 88 -2100 000/00 RMK AO2 T10221039
03949KAQV AQV20191219051511112/19/19 05:15:31  5-MIN KAQV 191115Z AUTO 00000KT 10SM CLR M02/M04 A3039 -50 88 -2100 000/00 RMK AO2 T10221039
03949KAQV AQV20191219052011112/19/19 05:20:31  5-MIN KAQV 191120Z AUTO 00000KT 10SM CLR M02/M04 A3040 -60 88 -2100 000/00 RMK AO2 T10221039
03949KAQV AQV20191219052511112/19/19 05:25:31  5-MIN KAQV 191125Z AUTO 00000KT 10SM CLR M02/M04 A3040 -60 88 -2100 000/00 RMK AO2 T10221039
03949KAQV AQV20191219053011112/19/19 05:30:31  5-MIN KAQV 191130Z AUTO 00000KT 10SM CLR M02/M04 A3040 -60 88 -2100 000/00 RMK AO2 T10221039
03949KAQV AQV20191219053511112/19/19 05:35:31  5-MIN KAQV 191135Z AUTO 00000KT 10SM CLR M02/M04 A3040 -60 88 -2100 000/00 RMK AO2 T10221039
03949KAQV AQV20191219054011112/19/19 05:40:31  5-MIN KAQV 191140Z AUTO 00000KT 10SM CLR M02/M04 A3040 -60 88 -2100 000/00 RMK AO2 T10221039
03949KAQV AQV20191219054511112/19/19 05:45:31  5-MIN KAQV 191145Z AUTO 00000KT 10SM CLR M02/M04 A3040 -60 88 -2100 000/00 RMK AO2 T10221039
03949KAQV AQV20191219055011112/19/19 05:50:31  5-MIN KAQV 191150Z AUTO 00000KT 10SM CLR M02/M04 A3040 -60 88 -2100 000/00 RMK AO2 T10221039
03949KAQV AQV20191219055513612/19/19 05:55:31  5-MIN KAQV 191155Z AUTO 00000KT 10SM CLR M02/M04 A3041 -60 88 -2100 000/00 RMK AO2 SLP300 T10221039 11011 21022 50002
03949KAQV AQV20191219060011112/19/19 06:00:31  5-MIN KAQV 191200Z AUTO 00000KT 10SM CLR M02/M04 A3041 -70 88 -2100 000/00 RMK AO2 T10221039
03949KAQV AQV20191219060511112/19/19 06:05:31  5-MIN KAQV 191205Z AUTO 00000KT 10SM CLR M02/M04 A3041 -70 88 -2100 000/00 RMK AO2 T10221039
03949KAQV AQV20191219061011112/19/19 06:10:31  5-MIN KAQV 191210Z AUTO 00000KT 10SM CLR M02/M04 A3041 -70 88 -2100 000/00 RMK AO2 T10221039
03949KAQV AQV20191219061511112/19/19 06:15:31  5-MIN KAQV 191215Z AUTO 00000KT 10SM CLR M02/M04 A3041 -70 88 -2100 000/00 RMK AO2 T10221039
03949KAQV AQV20191219062011112/19/19 06:20:31  5-MIN KAQV 191220Z AUTO 00000KT 10SM CLR M02/M04 A3041 -70 88 -2100 000/00 RMK AO2 T10221039
03949KAQV AQV20191219062511112/19/19 06:25:31  5-MIN KAQV 191225Z AUTO 00000KT 10SM CLR M02/M04 A3041 -70 88 -2100 000/00 RMK AO2 T10221039
03949KAQV AQV20191219063011112/19/19 06:30:31  5-MIN KAQV 191230Z AUTO 00000KT 10SM CLR M02/M04 A3041 -70 88 -2100 000/00 RMK AO2 T10221039
03949KAQV AQV20191219063511112/19/19 06:35:31  5-MIN KAQV 191235Z AUTO 00000KT 10SM CLR M02/M04 A3041 -70 88 -2100 000/00 RMK AO2 T10221039
03949KAQV AQV20191219064011112/19/19 06:40:31  5-MIN KAQV 191240Z AUTO 00000KT 10SM CLR M02/M04 A3041 -70 88 -2100 000/00 RMK AO2 T10221039
03949KAQV AQV20191219064511112/19/19 06:45:31  5-MIN KAQV 191245Z AUTO 00000KT 10SM CLR M02/M04 A3041 -70 88 -2100 000/00 RMK AO2 T10221039
03949KAQV AQV20191219065011112/19/19 06:50:31  5-MIN KAQV 191250Z AUTO 00000KT 10SM CLR M02/M04 A3041 -70 88 -2100 000/00 RMK AO2 T10221039
03949KAQV AQV20191219065511812/19/19 06:55:31  5-MIN KAQV 191255Z AUTO 00000KT 10SM CLR M02/M04 A3041 -70 88 -2100 000/00 RMK AO2 SLP303 T10221039
03949KAQV AQV20191219070011112/19/19 07:00:31  5-MIN KAQV 191300Z AUTO 00000KT 10SM CLR M02/M04 A3041 -70 88 -2100 000/00 RMK AO2 T10221039
03949KAQV AQV20191219070511112/19/19 07:05:31  5-MIN KAQV 191305Z AUTO 00000KT 10SM CLR M02/M04 A3042 -80 88 -2100 000/00 RMK AO2 T10221039
03949KAQV AQV20191219071011112/19/19 07:10:31  5-MIN KAQV 191310Z AUTO 00000KT 10SM CLR M02/M04 A3042 -80 88 -2100 000/00 RMK AO2 T10221039
03949KAQV AQV20191219071511112/19/19 07:15:31  5-MIN KAQV 191315Z AUTO 00000KT 10SM CLR M02/M04 A3042 -80 88 -2100 000/00 RMK AO2 T10221039
03949KAQV AQV20191219072011112/19/19 07:20:31  5-MIN KAQV 191320Z AUTO 00000KT 10SM CLR M02/M04 A3042 -80 88 -2100 000/00 RMK AO2 T10221039
03949KAQV AQV20191219072511112/19/19 07:25:31  5-MIN KAQV 191325Z AUTO 00000KT 10SM CLR M02/M04 A3042 -80 88 -2100 000/00 RMK AO2 T10221039
03949KAQV AQV20191219073011112/19/19 07:30:31  5-MIN KAQV 191330Z AUTO 00000KT 10SM CLR M02/M04 A3043 -80 88 -2100 000/00 RMK AO2 T10221039
03949KAQV AQV20191219073511112/19/19 07:35:31  5-MIN KAQV 191335Z AUTO 00000KT 10SM CLR M02/M04 A3043 -90 88 -2100 000/00 RMK AO2 T10221039
03949KAQV AQV20191219074011112/19/19 07:40:31  5-MIN KAQV 191340Z AUTO 00000KT 10SM CLR M02/M04 A3043 -90 88 -2100 000/00 RMK AO2 T10221039
03949KAQV AQV20191219074511112/19/19 07:45:31  5-MIN KAQV 191345Z AUTO 00000KT 10SM CLR M02/M03 A3043 -90 92 -2100 000/00 RMK AO2 T10221033
03949KAQV AQV20191219075011112/19/19 07:50:31  5-MIN KAQV 191350Z AUTO 00000KT 10SM CLR M02/M03 A3043 -90 88 -2100 000/00 RMK AO2 T10171033
03949KAQV AQV20191219075511812/19/19 07:55:31  5-MIN KAQV 191355Z AUTO 00000KT 10SM CLR M02/M03 A3043 -90 88 -2100 000/00 RMK AO2 SLP309 T10171033
03949KAQV AQV20191219080011112/19/19 08:00:31  5-MIN KAQV 191400Z AUTO 00000KT 10SM CLR M02/M03 A3043 -90 88 -2100 000/00 RMK AO2 T10171033
03949KAQV AQV20191219080511112/19/19 08:05:31  5-MIN KAQV 191405Z AUTO 00000KT 10SM CLR M02/M03 A3043 -90 92 -2100 000/00 RMK AO2 T10171028
03949KAQV AQV20191219081011112/19/19 08:10:31  5-MIN KAQV 191410Z AUTO 00000KT 10SM CLR M01/M02 A3044 -90 92 -2000 000/00 RMK AO2 T10111022
03949KAQV AQV20191219081511012/19/19 08:15:31  5-MIN KAQV 191415Z AUTO 00000KT 10SM CLR 00/M02 A3044 -90 88 -1900 000/00 RMK AO2 T00001017
03949KAQV AQV20191219082011012/19/19 08:20:31  5-MIN KAQV 191420Z AUTO 00000KT 10SM CLR 00/M01 A3044 -90 92 -1900 000/00 RMK AO2 T00001011
03949KAQV AQV20191219082511112/19/19 08:25:31  5-MIN KAQV 191425Z AUTO 00000KT 10SM CLR 01/M01 A3044 -100 89 -1700 000/00 RMK AO2 T00111006
03949KAQV AQV20191219083011212/19/19 08:30:31  5-MIN KAQV 191430Z AUTO 00000KT 10SM FEW002 02/00 A3044 -90 89 -1700 000/00 RMK AO2 T00170000
03949KAQV AQV20191219083511312/19/19 08:35:31  5-MIN KAQV 191435Z AUTO 00000KT 10SM FEW002 02/00 A3044 -100 85 -1600 000/00 RMK AO2 T00220000
03949KAQV AQV20191219084011012/19/19 08:40:31  5-MIN KAQV 191440Z AUTO 17003KT 10SM CLR 03/01 A3044 -100 85 -1500 160/03 RMK AO2 T00330011
03949KAQV AQV20191219084510912/19/19 08:45:31  5-MIN KAQV 191445Z AUTO 00000KT 10SM CLR 04/01 A3044 -90 79 -1400 000/00 RMK AO2 T00390006
03949KAQV AQV20191219085011012/19/19 08:50:31  5-MIN KAQV 191450Z AUTO VRB04KT 10SM CLR 05/00 A3044 -100 70 -1200 VRB/04 RMK AO2 T00500000
03949KAQV AQV20191219085512412/19/19 08:55:31  5-MIN KAQV 191455Z AUTO VRB03KT 10SM CLR 05/M01 A3044 -100 67 -1200 VRB/03 RMK AO2 SLP312 T00501006 53003
03949KAQV AQV20191219090011112/19/19 09:00:31  5-MIN KAQV 191500Z AUTO VRB03KT 10SM CLR 06/M02 A3044 -100 57 -1100 VRB/03 RMK AO2 T00611017
03949KAQV AQV20191219090511112/19/19 09:05:31  5-MIN KAQV 191505Z AUTO 17003KT 10SM CLR 06/M01 A3044 -100 60 -1100 160/03 RMK AO2 T00611011
03949KAQV AQV20191219091011112/19/19 09:10:31  5-MIN KAQV 191510Z AUTO VRB03KT 10SM CLR 06/M02 A3044 -100 57 -1100 VRB/03 RMK AO2 T00611017
03949KAQV AQV20191219091511112/19/19 09:15:31  5-MIN KAQV 191515Z AUTO 00000KT 10SM CLR 07/M02 A3044 -100 55 -1000 000/00 RMK AO2 T00671017
03949KAQV AQV20191219092011112/19/19 09:20:31  5-MIN KAQV 191520Z AUTO 00000KT 10SM CLR 07/M01 A3044 -100 55 -1000 000/00 RMK AO2 T00721011
03949KAQV AQV20191219092511012/19/19 09:25:31  5-MIN KAQV 191525Z AUTO VRB04KT 10SM CLR 08/M01 A3044 -100 53 -900 VRB/04 RMK AO2 T00781011
03949KAQV AQV20191219093011112/19/19 09:30:31  5-MIN KAQV 191530Z AUTO 00000KT 10SM CLR 07/M02 A3044 -100 53 -1000 000/00 RMK AO2 T00721017
03949KAQV AQV20191219093511012/19/19 09:35:31  5-MIN KAQV 191535Z AUTO 00000KT 10SM CLR 08/M02 A3045 -100 49 -800 000/00 RMK AO2 T00831017
03949KAQV AQV20191219094011012/19/19 09:40:31  5-MIN KAQV 191540Z AUTO 00000KT 10SM CLR 08/M01 A3045 -100 51 -800 000/00 RMK AO2 T00831011
03949KAQV AQV20191219094511012/19/19 09:45:31  5-MIN KAQV 191545Z AUTO 00000KT 10SM CLR 09/M01 A3045 -100 49 -800 000/00 RMK AO2 T00891011
03949KAQV AQV20191219095011012/19/19 09:50:31  5-MIN KAQV 191550Z AUTO 00000KT 10SM CLR 09/M02 A3045 -100 47 -800 000/00 RMK AO2 T00891017
03949KAQV AQV20191219095511712/19/19 09:55:31  5-MIN KAQV 191555Z AUTO 00000KT 10SM CLR 09/M02 A3045 -110 45 -800 000/00 RMK AO2 SLP314 T00891022
03949KAQV AQV20191219100011012/19/19 10:00:31  5-MIN KAQV 191600Z AUTO 00000KT 10SM CLR 09/M02 A3045 -110 45 -800 000/00 RMK AO2 T00891022
03949KAQV AQV20191219100511012/19/19 10:05:31  5-MIN KAQV 191605Z AUTO 17004KT 10SM CLR 09/M02 A3045 -110 45 -800 160/04 RMK AO2 T00891022
03949KAQV AQV20191219101011012/19/19 10:10:31  5-MIN KAQV 191610Z AUTO 00000KT 10SM CLR 09/M02 A3045 -110 44 -700 000/00 RMK AO2 T00941022
03949KAQV AQV20191219101511012/19/19 10:15:31  5-MIN KAQV 191615Z AUTO VRB04KT 10SM CLR 09/M02 A3045 -110 44 -700 VRB/04 RMK AO2 T00941022
03949KAQV AQV20191219102011012/19/19 10:20:31  5-MIN KAQV 191620Z AUTO 18004KT 10SM CLR 09/M03 A3045 -100 42 -700 170/04 RMK AO2 T00941028
03949KAQV AQV20191219102511012/19/19 10:25:31  5-MIN KAQV 191625Z AUTO 17004KT 10SM CLR 09/M03 A3045 -100 42 -700 170/04 RMK AO2 T00941028
03949KAQV AQV20191219103011012/19/19 10:30:31  5-MIN KAQV 191630Z AUTO 17005KT 10SM CLR 10/M03 A3044 -100 40 -600 160/05 RMK AO2 T01001028
03949KAQV AQV20191219103511012/19/19 10:35:31  5-MIN KAQV 191635Z AUTO VRB04KT 10SM CLR 10/M03 A3044 -100 40 -600 VRB/04 RMK AO2 T01001028
03949KAQV AQV20191219104011012/19/19 10:40:31  5-MIN KAQV 191640Z AUTO VRB04KT 10SM CLR 10/M03 A3044 -100 40 -600 VRB/04 RMK AO2 T01001028
03949KAQV AQV20191219104510912/19/19 10:45:31  5-MIN KAQV 191645Z AUTO 00000KT 10SM CLR 11/M03 A3044 -90 39 -600 000/00 RMK AO2 T01061028
03949KAQV AQV20191219105010912/19/19 10:50:31  5-MIN KAQV 191650Z AUTO VRB03KT 10SM CLR 11/M03 A3044 -90 37 -600 VRB/03 RMK AO2 T01061033
03949KAQV AQV20191219105511612/19/19 10:55:31  5-MIN KAQV 191655Z AUTO VRB04KT 10SM CLR 11/M04 A3044 -90 36 -600 VRB/04 RMK AO2 SLP309 T01061039
03949KAQV AQV20191219110010912/19/19 11:00:31  5-MIN KAQV 191700Z AUTO VRB04KT 10SM CLR 11/M03 A3044 -90 36 -500 VRB/04 RMK AO2 T01111033
03949KAQV AQV20191219110510912/19/19 11:05:31  5-MIN KAQV 191705Z AUTO VRB03KT 10SM CLR 11/M04 A3043 -90 34 -500 VRB/03 RMK AO2 T01111039
03949KAQV AQV20191219111010912/19/19 11:10:31  5-MIN KAQV 191710Z AUTO VRB03KT 10SM CLR 11/M04 A3043 -90 36 -600 VRB/03 RMK AO2 T01061039
03949KAQV AQV20191219111510912/19/19 11:15:31  5-MIN KAQV 191715Z AUTO 00000KT 10SM CLR 11/M04 A3043 -90 34 -500 000/00 RMK AO2 T01111039
03949KAQV AQV20191219112010912/19/19 11:20:31  5-MIN KAQV 191720Z AUTO VRB03KT 10SM CLR 12/M03 A3043 -80 35 -400 VRB/03 RMK AO2 T01171033
03949KAQV AQV20191219112510912/19/19 11:25:31  5-MIN KAQV 191725Z AUTO VRB04KT 10SM CLR 12/M04 A3043 -80 33 -400 VRB/04 RMK AO2 T01171039
03949KAQV AQV20191219113010912/19/19 11:30:31  5-MIN KAQV 191730Z AUTO VRB05KT 10SM CLR 11/M04 A3042 -80 33 -500 VRB/05 RMK AO2 T01111044
03949KAQV AQV20191219113510912/19/19 11:35:31  5-MIN KAQV 191735Z AUTO 00000KT 10SM CLR 12/M04 A3042 -80 33 -400 000/00 RMK AO2 T01171039
03949KAQV AQV20191219114010912/19/19 11:40:31  5-MIN KAQV 191740Z AUTO 13004KT 10SM CLR 12/M04 A3041 -70 33 -400 130/04 RMK AO2 T01171039
03949KAQV AQV20191219114510912/19/19 11:45:31  5-MIN KAQV 191745Z AUTO VRB04KT 10SM CLR 12/M04 A3041 -70 33 -400 VRB/04 RMK AO2 T01171039
03949KAQV AQV20191219115010912/19/19 11:50:31  5-MIN KAQV 191750Z AUTO 00000KT 10SM CLR 12/M04 A3041 -70 33 -400 000/00 RMK AO2 T01171039
03949KAQV AQV20191219115512412/19/19 11:55:31  5-MIN KAQV 191755Z AUTO 10SM CLR 12/M04 A3040 -60 32 -300 M /M RMK AO2 SLP298 T01221039 10122 21022 53012
03949KAQV AQV20191219120010912/19/19 12:00:31  5-MIN KAQV 191800Z AUTO 00000KT 10SM CLR 12/M04 A3040 -60 32 -300 000/00 RMK AO2 T01221039
03949KAQV AQV20191219120510912/19/19 12:05:31  5-MIN KAQV 191805Z AUTO 00000KT 10SM CLR 12/M04 A3040 -60 32 -300 000/00 RMK AO2 T01221039
03949KAQV AQV20191219121010912/19/19 12:10:31  5-MIN KAQV 191810Z AUTO VRB04KT 10SM CLR 12/M04 A3039 -50 31 -300 VRB/04 RMK AO2 T01221044
03949KAQV AQV20191219121510912/19/19 12:15:31  5-MIN KAQV 191815Z AUTO 00000KT 10SM CLR 13/M03 A3039 -50 32 -200 000/00 RMK AO2 T01281033
03949KAQV AQV20191219122009912/19/19 12:20:31  5-MIN KAQV 191820Z AUTO 10SM CLR 13/M04 A3039 -50 31 -200 M /M RMK AO2 T01281039
03949KAQV AQV20191219122510912/19/19 12:25:31  5-MIN KAQV 191825Z AUTO 14004KT 10SM CLR 12/M04 A3039 -50 31 -300 140/04 RMK AO2 T01221044
03949KAQV AQV20191219123010912/19/19 12:30:31  5-MIN KAQV 191830Z AUTO 00000KT 10SM CLR 12/M04 A3039 -50 32 -300 000/00 RMK AO2 T01221039
03949KAQV AQV20191219123509912/19/19 12:35:31  5-MIN KAQV 191835Z AUTO 10SM CLR 12/M03 A3038 -40 33 -300 M /M RMK AO2 T01221033
03949KAQV AQV20191219124009912/19/19 12:40:31  5-MIN KAQV 191840Z AUTO 10SM CLR 13/M04 A3038 -40 31 -200 M /M RMK AO2 T01281039
03949KAQV AQV20191219124510912/19/19 12:45:31  5-MIN KAQV 191845Z AUTO 14004KT 10SM CLR 13/M04 A3038 -40 30 -200 140/04 RMK AO2 T01281044
03949KAQV AQV20191219125010912/19/19 12:50:31  5-MIN KAQV 191850Z AUTO 00000KT 10SM CLR 12/M04 A3038 -40 31 -300 000/00 RMK AO2 T01221044
03949KAQV AQV20191219125511612/19/19 12:55:31  5-MIN KAQV 191855Z AUTO 36004KT 10SM CLR 13/M04 A3038 -40 28 -200 360/04 RMK AO2 SLP289 T01331044
03949KAQV AQV20191219130010912/19/19 13:00:31  5-MIN KAQV 191900Z AUTO VRB05KT 10SM CLR 13/M04 A3037 -40 30 -200 VRB/05 RMK AO2 T01331039
03949KAQV AQV20191219130510912/19/19 13:05:31  5-MIN KAQV 191905Z AUTO VRB03KT 10SM CLR 13/M04 A3037 -30 30 -200 VRB/03 RMK AO2 T01281044
03949KAQV AQV20191219131010912/19/19 13:10:31  5-MIN KAQV 191910Z AUTO 00000KT 10SM CLR 13/M04 A3036 -30 30 -200 000/00 RMK AO2 T01281044
03949KAQV AQV20191219131509912/19/19 13:15:31  5-MIN KAQV 191915Z AUTO 10SM CLR 13/M04 A3036 -20 30 -100 M /M RMK AO2 T01331039
03949KAQV AQV20191219132010912/19/19 13:20:31  5-MIN KAQV 191920Z AUTO 04004KT 10SM CLR 13/M04 A3036 -20 28 -100 040/04 RMK AO2 T01331044
03949KAQV AQV20191219132510912/19/19 13:25:31  5-MIN KAQV 191925Z AUTO VRB03KT 10SM CLR 13/M04 A3036 -20 28 -100 VRB/03 RMK AO2 T01331044
03949KAQV AQV20191219133010912/19/19 13:30:31  5-MIN KAQV 191930Z AUTO 00000KT 10SM CLR 14/M05 A3036 -20 26 -100 000/00 RMK AO2 T01391050
03949KAQV AQV20191219133509912/19/19 13:35:31  5-MIN KAQV 191935Z AUTO 10SM CLR 14/M04 A3036 -20 27 -100 M /M RMK AO2 T01391044
03949KAQV AQV20191219134010912/19/19 13:40:31  5-MIN KAQV 191940Z AUTO VRB03KT 10SM CLR 14/M04 A3035 -20 27 -100 VRB/03 RMK AO2 T01391044
03949KAQV AQV20191219134510912/19/19 13:45:31  5-MIN KAQV 191945Z AUTO 00000KT 10SM CLR 14/M04 A3035 -20 27 -100 000/00 RMK AO2 T01391044
03949KAQV AQV20191219135010912/19/19 13:50:31  5-MIN KAQV 191950Z AUTO VRB03KT 10SM CLR 13/M05 A3035 -10 27 -100 VRB/03 RMK AO2 T01331050
03949KAQV AQV20191219135511612/19/19 13:55:31  5-MIN KAQV 191955Z AUTO VRB03KT 10SM CLR 14/M05 A3035 -10 26 -100 VRB/03 RMK AO2 SLP279 T01391050
03949KAQV AQV20191219140010912/19/19 14:00:31  5-MIN KAQV 192000Z AUTO VRB03KT 10SM CLR 14/M05 A3035 -10 26 -100 VRB/03 RMK AO2 T01391050
03949KAQV AQV20191219140510912/19/19 14:05:31  5-MIN KAQV 192005Z AUTO VRB04KT 10SM CLR 14/M04 A3035 -10 27 -100 VRB/04 RMK AO2 T01391044
03949KAQV AQV20191219141009912/19/19 14:10:31  5-MIN KAQV 192010Z AUTO 10SM CLR 13/M05 A3035 -20 27 -100 M /M RMK AO2 T01331050
03949KAQV AQV20191219141510912/19/19 14:15:31  5-MIN KAQV 192015Z AUTO 00000KT 10SM CLR 13/M05 A3035 -10 28 -200 000/00 RMK AO2 T01281050
03949KAQV AQV20191219142010912/19/19 14:20:31  5-MIN KAQV 192020Z AUTO VRB04KT 10SM CLR 13/M04 A3035 -10 28 -100 VRB/04 RMK AO2 T01331044
03949KAQV AQV20191219142510912/19/19 14:25:31  5-MIN KAQV 192025Z AUTO 00000KT 10SM CLR 13/M05 A3035 -10 27 -100 000/00 RMK AO2 T01331050
03949KAQV AQV20191219143010912/19/19 14:30:31  5-MIN KAQV 192030Z AUTO 17004KT 10SM CLR 14/M04 A3035 -10 29 -100 170/04 RMK AO2 T01391039
03949KAQV AQV20191219143510912/19/19 14:35:31  5-MIN KAQV 192035Z AUTO 00000KT 10SM CLR 14/M04 A3035 -10 27 -100 000/00 RMK AO2 T01391044
03949KAQV AQV20191219144010912/19/19 14:40:31  5-MIN KAQV 192040Z AUTO 00000KT 10SM CLR 14/M04 A3034 -10 27 -100 000/00 RMK AO2 T01391044
03949KAQV AQV20191219144510912/19/19 14:45:31  5-MIN KAQV 192045Z AUTO 00000KT 10SM CLR 14/M05 A3034 -10 26 -100 000/00 RMK AO2 T01391050
03949KAQV AQV20191219145010712/19/19 14:50:31  5-MIN KAQV 192050Z AUTO 00000KT 10SM CLR 13/M05 A3034 0 27 -100 000/00 RMK AO2 T01331050
03949KAQV AQV20191219145512212/19/19 14:55:31  5-MIN KAQV 192055Z AUTO 00000KT 10SM CLR 14/M04 A3034 -10 29 -100 000/00 RMK AO2 SLP277 T01391039 58013
03949KAQV AQV20191219150010912/19/19 15:00:31  5-MIN KAQV 192100Z AUTO 00000KT 10SM CLR 14/M04 A3034 -10 29 -100 000/00 RMK AO2 T01391039
03949KAQV AQV20191219150510912/19/19 15:05:31  5-MIN KAQV 192105Z AUTO VRB03KT 10SM CLR 13/M04 A3034 -10 28 -100 VRB/03 RMK AO2 T01331044
03949KAQV AQV20191219151010712/19/19 15:10:31  5-MIN KAQV 192110Z AUTO 00000KT 10SM CLR 13/M04 A3034 0 28 -100 000/00 RMK AO2 T01331044
03949KAQV AQV20191219151510912/19/19 15:15:31  5-MIN KAQV 192115Z AUTO 00000KT 10SM CLR 13/M04 A3034 -10 28 -100 000/00 RMK AO2 T01331044
03949KAQV AQV20191219152010912/19/19 15:20:31  5-MIN KAQV 192120Z AUTO 00000KT 10SM CLR 13/M04 A3034 -10 28 -100 000/00 RMK AO2 T01331044
03949KAQV AQV20191219152510912/19/19 15:25:31  5-MIN KAQV 192125Z AUTO 00000KT 10SM CLR 13/M04 A3034 -10 30 -100 000/00 RMK AO2 T01331039
03949KAQV AQV20191220012010912/20/19 01:20:31  5-MIN KAQV 200720Z AUTO 00000KT 10SM CLR 02/00 A3034 -10 85 -1500 000/00 RMK AO2 T00220000
03949KAQV AQV20191220012511012/20/19 01:25:31  5-MIN KAQV 200725Z AUTO 00000KT 10SM CLR 02/M01 A3034 -10 82 -1500 000/00 RMK AO2 T00221006
03949KAQV AQV20191220013010912/20/19 01:30:31  5-MIN KAQV 200730Z AUTO 00000KT 10SM CLR 02/00 A3035 -20 89 -1600 000/00 RMK AO2 T00170000
03949KAQV AQV20191220013510912/20/19 01:35:31  5-MIN KAQV 200735Z AUTO 00000KT 10SM CLR 02/00 A3035 -20 89 -1600 000/00 RMK AO2 T00170000
03949KAQV AQV20191220014010912/20/19 01:40:31  5-MIN KAQV 200740Z AUTO 00000KT 10SM CLR 02/00 A3035 -10 89 -1600 000/00 RMK AO2 T00170000
03949KAQV AQV20191220014510912/20/19 01:45:31  5-MIN KAQV 200745Z AUTO 00000KT 10SM CLR 02/00 A3035 -10 89 -1600 000/00 RMK AO2 T00170000
03949KAQV AQV20191220015010912/20/19 01:50:31  5-MIN KAQV 200750Z AUTO 00000KT 10SM CLR 02/00 A3035 -10 89 -1600 000/00 RMK AO2 T00170000
03949KAQV AQV20191220015511612/20/19 01:55:31  5-MIN KAQV 200755Z AUTO 00000KT 10SM CLR 02/00 A3035 -10 89 -1600 000/00 RMK AO2 SLP278 T00170000
03949KAQV AQV20191220020011012/20/19 02:00:31  5-MIN KAQV 200800Z AUTO 00000KT 10SM CLR 02/M01 A3035 -10 85 -1600 000/00 RMK AO2 T00171006
03949KAQV AQV20191220020511012/20/19 02:05:31  5-MIN KAQV 200805Z AUTO 00000KT 10SM CLR 01/M01 A3035 -20 89 -1600 000/00 RMK AO2 T00111006
03949KAQV AQV20191220021011012/20/19 02:10:31  5-MIN KAQV 200810Z AUTO 00000KT 10SM CLR 01/M01 A3035 -20 89 -1600 000/00 RMK AO2 T00111006
03949KAQV AQV20191220021511012/20/19 02:15:31  5-MIN KAQV 200815Z AUTO 00000KT 10SM CLR 01/M01 A3035 -10 85 -1600 000/00 RMK AO2 T00111011
03949KAQV AQV20191220022011012/20/19 02:20:31  5-MIN KAQV 200820Z AUTO 00000KT 10SM CLR 01/M01 A3034 -10 85 -1600 000/00 RMK AO2 T00111011
03949KAQV AQV20191220022511012/20/19 02:25:31  5-MIN KAQV 200825Z AUTO 00000KT 10SM CLR 01/M01 A3034 -10 85 -1600 000/00 RMK AO2 T00111011
03949KAQV AQV20191220023010812/20/19 02:30:31  5-MIN KAQV 200830Z AUTO 00000KT 10SM CLR 01/M01 A3034 0 89 -1700 000/00 RMK AO2 T00061011
03949KAQV AQV20191220023510812/20/19 02:35:31  5-MIN KAQV 200835Z AUTO 00000KT 10SM CLR 01/M01 A3033 0 85 -1600 000/00 RMK AO2 T00111011
03949KAQV AQV20191220024010812/20/19 02:40:31  5-MIN KAQV 200840Z AUTO 00000KT 10SM CLR 01/M01 A3033 0 85 -1600 000/00 RMK AO2 T00111011
03949KAQV AQV20191220024510812/20/19 02:45:31  5-MIN KAQV 200845Z AUTO 00000KT 10SM CLR 01/M01 A3034 0 89 -1700 000/00 RMK AO2 T00061011
03949KAQV AQV20191220025010812/20/19 02:50:31  5-MIN KAQV 200850Z AUTO 00000KT 10SM CLR 01/M01 A3034 0 89 -1700 000/00 RMK AO2 T00061011
03949KAQV AQV20191220025512312/20/19 02:55:31  5-MIN KAQV 200855Z AUTO 00000KT 10SM CLR 01/M01 A3034 -10 89 -1700 000/00 RMK AO2 SLP276 T00061011 50000
03949KAQV AQV20191220030011012/20/19 03:00:31  5-MIN KAQV 200900Z AUTO 00000KT 10SM CLR 01/M01 A3035 -10 89 -1700 000/00 RMK AO2 T00061011
03949KAQV AQV20191220030511012/20/19 03:05:31  5-MIN KAQV 200905Z AUTO 00000KT 10SM CLR 01/M01 A3035 -10 89 -1700 000/00 RMK AO2 T00061011
03949KAQV AQV20191220031011012/20/19 03:10:31  5-MIN KAQV 200910Z AUTO 00000KT 10SM CLR 01/M01 A3035 -10 89 -1700 000/00 RMK AO2 T00061011
03949KAQV AQV20191220031511012/20/19 03:15:31  5-MIN KAQV 200915Z AUTO 00000KT 10SM CLR 01/M01 A3035 -10 89 -1700 000/00 RMK AO2 T00061011
03949KAQV AQV20191220032011012/20/19 03:20:31  5-MIN KAQV 200920Z AUTO 00000KT 10SM CLR 01/M01 A3035 -10 89 -1700 000/00 RMK AO2 T00061011
03949KAQV AQV20191220032511012/20/19 03:25:31  5-MIN KAQV 200925Z AUTO 00000KT 10SM CLR 01/M01 A3035 -20 89 -1700 000/00 RMK AO2 T00061011
03949KAQV AQV20191220033011012/20/19 03:30:31  5-MIN KAQV 200930Z AUTO 00000KT 10SM CLR 01/M01 A3034 -10 89 -1700 000/00 RMK AO2 T00061011
03949KAQV AQV20191220033511012/20/19 03:35:31  5-MIN KAQV 200935Z AUTO 00000KT 10SM CLR 01/M01 A3035 -10 89 -1700 000/00 RMK AO2 T00061011
03949KAQV AQV20191220034011012/20/19 03:40:31  5-MIN KAQV 200940Z AUTO 00000KT 10SM CLR 00/M01 A3035 -10 92 -1800 000/00 RMK AO2 T00001011
03949KAQV AQV20191220034511012/20/19 03:45:31  5-MIN KAQV 200945Z AUTO 00000KT 10SM CLR 00/M01 A3035 -10 92 -1800 000/00 RMK AO2 T00001011
03949KAQV AQV20191220035011012/20/19 03:50:31  5-MIN KAQV 200950Z AUTO 00000KT 10SM CLR 00/M02 A3035 -10 88 -1800 000/00 RMK AO2 T00001017
03949KAQV AQV20191220035511712/20/19 03:55:31  5-MIN KAQV 200955Z AUTO 00000KT 10SM CLR 00/M02 A3035 -20 88 -1800 000/00 RMK AO2 SLP280 T00001017
03949KAQV AQV20191220040011012/20/19 04:00:31  5-MIN KAQV 201000Z AUTO 00000KT 10SM CLR 00/M01 A3035 -20 92 -1800 000/00 RMK AO2 T00001011
03949KAQV AQV20191220040511112/20/19 04:05:31  5-MIN KAQV 201005Z AUTO 00000KT 10SM CLR M01/M02 A3035 -20 92 -1800 000/00 RMK AO2 T10061017
03949KAQV AQV20191220041011112/20/19 04:10:31  5-MIN KAQV 201010Z AUTO 00000KT 10SM CLR M01/M02 A3035 -20 92 -1800 000/00 RMK AO2 T10061017
03949KAQV AQV20191220041511112/20/19 04:15:31  5-MIN KAQV 201015Z AUTO 00000KT 10SM CLR M01/M02 A3035 -10 92 -1800 000/00 RMK AO2 T10061017
03949KAQV AQV20191220042011112/20/19 04:20:31  5-MIN KAQV 201020Z AUTO 00000KT 10SM CLR M01/M02 A3035 -10 92 -1800 000/00 RMK AO2 T10061017
03949KAQV AQV20191220042511112/20/19 04:25:31  5-MIN KAQV 201025Z AUTO 00000KT 10SM CLR M01/M02 A3035 -10 92 -1800 000/00 RMK AO2 T10061017
03949KAQV AQV20191220043011012/20/19 04:30:31  5-MIN KAQV 201030Z AUTO 00000KT 10SM CLR 00/M02 A3035 -10 88 -1800 000/00 RMK AO2 T00001017
03949KAQV AQV20191220043511012/20/19 04:35:31  5-MIN KAQV 201035Z AUTO 00000KT 10SM CLR 00/M02 A3035 -20 88 -1800 000/00 RMK AO2 T00001017
03949KAQV AQV20191220044011012/20/19 04:40:31  5-MIN KAQV 201040Z AUTO 00000KT 10SM CLR 00/M01 A3036 -20 92 -1800 000/00 RMK AO2 T00001011
03949KAQV AQV20191220044507312/20/19 04:45:31  5-MIN KAQV 201045Z AUTO 00000KT 10SM CLR 00/M01 A3035 
03949KAQV AQV20191220122010812/20/19 12:20:31  5-MIN KAQV 201820Z AUTO 00000KT 10SM CLR 12/M01 A3032 10 41 -300 000/00 RMK AO2 T01171011
03949KAQV AQV20191220122510812/20/19 12:25:31  5-MIN KAQV 201825Z AUTO VRB03KT 10SM CLR 12/M01 A3032 10 41 -200 VRB/03 RMK AO2 T01221006
03949KAQV AQV20191220123010812/20/19 12:30:31  5-MIN KAQV 201830Z AUTO 00000KT 10SM CLR 12/M01 A3032 10 42 -300 000/00 RMK AO2 T01171006
03949KAQV AQV20191220123510812/20/19 12:35:31  5-MIN KAQV 201835Z AUTO 00000KT 10SM CLR 12/M01 A3032 10 42 -300 000/00 RMK AO2 T01171006
03949KAQV AQV20191220124010812/20/19 12:40:31  5-MIN KAQV 201840Z AUTO 00000KT 10SM CLR 12/M01 A3031 10 42 -300 000/00 RMK AO2 T01171006
03949KAQV AQV20191220124510812/20/19 12:45:31  5-MIN KAQV 201845Z AUTO VRB03KT 10SM CLR 12/M01 A3031 20 42 -300 VRB/03 RMK AO2 T01171006
03949KAQV AQV20191220125010812/20/19 12:50:31  5-MIN KAQV 201850Z AUTO 00000KT 10SM CLR 12/M01 A3030 20 41 -200 000/00 RMK AO2 T01221006
03949KAQV AQV20191220125510512/20/19 12:55:31  5-MIN KAQV 201855Z AUTO 10SM CLR 12/M01 A3030 30 42 -300 M /M RMK AO2 SLP261 T01171006
03949KAQV AQV20191220130010812/20/19 13:00:31  5-MIN KAQV 201900Z AUTO VRB03KT 10SM CLR 12/M01 A3029 30 42 -300 VRB/03 RMK AO2 T01171006
03949KAQV AQV20191220130510812/20/19 13:05:31  5-MIN KAQV 201905Z AUTO VRB05KT 10SM CLR 12/M01 A3029 40 41 -300 VRB/05 RMK AO2 T01171011
03949KAQV AQV20191220131010812/20/19 13:10:31  5-MIN KAQV 201910Z AUTO VRB04KT 10SM CLR 12/M01 A3028 40 42 -300 VRB/04 RMK AO2 T01171006
03949KAQV AQV20191220131510812/20/19 13:15:31  5-MIN KAQV 201915Z AUTO 00000KT 10SM CLR 12/M01 A3028 50 42 -300 000/00 RMK AO2 T01171006
03949KAQV AQV20191220132010712/20/19 13:20:31  5-MIN KAQV 201920Z AUTO VRB04KT 10SM CLR 11/00 A3028 50 46 -300 VRB/04 RMK AO2 T01110000
03949KAQV AQV20191220132510712/20/19 13:25:31  5-MIN KAQV 201925Z AUTO 00000KT 10SM CLR 11/01 A3028 50 48 -300 000/00 RMK AO2 T01110006
03949KAQV AQV20191220133009712/20/19 13:30:31  5-MIN KAQV 201930Z AUTO 10SM CLR 11/01 A3028 50 48 -300 M /M RMK AO2 T01110006
03949KAQV AQV20191220133510712/20/19 13:35:31  5-MIN KAQV 201935Z AUTO 00000KT 10SM CLR 11/00 A3027 50 46 -300 000/00 RMK AO2 T01110000
03949KAQV AQV20191220134010712/20/19 13:40:31  5-MIN KAQV 201940Z AUTO VRB03KT 10SM CLR 12/00 A3027 50 44 -200 VRB/03 RMK AO2 T01170000
03949KAQV AQV20191220134510712/20/19 13:45:31  5-MIN KAQV 201945Z AUTO VRB04KT 10SM CLR 12/00 A3027 50 44 -200 VRB/04 RMK AO2 T01170000
03949KAQV AQV20191220135010712/20/19 13:50:31  5-MIN KAQV 201950Z AUTO VRB03KT 10SM CLR 12/00 A3027 60 44 -200 VRB/03 RMK AO2 T01170000
03949KAQV AQV20191220135511412/20/19 13:55:31  5-MIN KAQV 201955Z AUTO VRB05KT 10SM CLR 12/01 A3026 60 46 -200 VRB/05 RMK AO2 SLP248 T01170006
03949KAQV AQV20191220140010712/20/19 14:00:31  5-MIN KAQV 202000Z AUTO VRB05KT 10SM CLR 12/01 A3026 70 46 -200 VRB/05 RMK AO2 T01170006
03949KAQV AQV20191220140510712/20/19 14:05:31  5-MIN KAQV 202005Z AUTO 00000KT 10SM CLR 12/01 A3026 60 46 -200 000/00 RMK AO2 T01170006
03949KAQV AQV20191220141010712/20/19 14:10:31  5-MIN KAQV 202010Z AUTO 00000KT 10SM CLR 12/00 A3027 60 44 -200 000/00 RMK AO2 T01170000
03949KAQV AQV20191220141510712/20/19 14:15:31  5-MIN KAQV 202015Z AUTO VRB05KT 10SM CLR 12/00 A3026 60 44 -200 VRB/05 RMK AO2 T01170000
03949KAQV AQV20191220142011412/20/19 14:20:31  5-MIN KAQV 202020Z AUTO 00000KT 10SM CLR 12/00 A3028 50 44 -300 000/00 RMK AO2 PRESRR T01170000
03949KAQV AQV20191220142511512/20/19 14:25:31  5-MIN KAQV 202025Z AUTO 00000KT 10SM CLR 12/M01 A3029 40 41 -200 000/00 RMK AO2 PRESRR T01221006
03949KAQV AQV20191220143010712/20/19 14:30:31  5-MIN KAQV 202030Z AUTO 00000KT 10SM CLR 12/00 A3029 40 43 -200 000/00 RMK AO2 T01220000
03949KAQV AQV20191220143510812/20/19 14:35:31  5-MIN KAQV 202035Z AUTO 00000KT 10SM CLR 12/M01 A3029 30 41 -200 000/00 RMK AO2 T01221006
03949KAQV AQV20191220144010712/20/19 14:40:31  5-MIN KAQV 202040Z AUTO VRB04KT 10SM CLR 13/00 A3029 40 41 -100 VRB/04 RMK AO2 T01280000
03949KAQV AQV20191220144510812/20/19 14:45:31  5-MIN KAQV 202045Z AUTO 00000KT 10SM CLR 12/M01 A3029 40 41 -200 000/00 RMK AO2 T01221006
03949KAQV AQV20191220145010812/20/19 14:50:31  5-MIN KAQV 202050Z AUTO 18004KT 10SM CLR 12/M01 A3028 40 41 -200 170/04 RMK AO2 T01221006
03949KAQV AQV20191220145512112/20/19 14:55:31  5-MIN KAQV 202055Z AUTO 00000KT 10SM CLR 12/M01 A3028 40 42 -300 000/00 RMK AO2 SLP257 T01171006 58027
03949KAQV AQV20191220150010812/20/19 15:00:31  5-MIN KAQV 202100Z AUTO VRB03KT 10SM CLR 12/M01 A3027 50 42 -200 VRB/03 RMK AO2 T01171006
03949KAQV AQV20191220150510812/20/19 15:05:31  5-MIN KAQV 202105Z AUTO 07003KT 10SM CLR 12/M01 A3027 50 42 -200 060/03 RMK AO2 T01171006
03949KAQV AQV20191220151010712/20/19 15:10:31  5-MIN KAQV 202110Z AUTO 00000KT 10SM CLR 12/00 A3028 50 43 -200 000/00 RMK AO2 T01220000
03949KAQV AQV20191220151510712/20/19 15:15:31  5-MIN KAQV 202115Z AUTO 00000KT 10SM CLR 12/00 A3028 40 44 -300 000/00 RMK AO2 T01170000
03949KAQV AQV20191220152010712/20/19 15:20:31  5-MIN KAQV 202120Z AUTO 00000KT 10SM CLR 12/01 A3028 50 46 -300 000/00 RMK AO2 T01170006
03949KAQV AQV20191220152510712/20/19 15:25:31  5-MIN KAQV 202125Z AUTO 08003KT 10SM CLR 12/01 A3027 50 46 -200 070/03 RMK AO2 T01170006
03949KAQV AQV20191220153010712/20/19 15:30:31  5-MIN KAQV 202130Z AUTO 00000KT 10SM CLR 12/01 A3028 50 46 -200 000/00 RMK AO2 T01170006
03949KAQV AQV20191220153510712/20/19 15:35:31  5-MIN KAQV 202135Z AUTO 00000KT 10SM CLR 12/01 A3029 40 46 -300 000/00 RMK AO2 T01170006
03949KAQV AQV20191220154010712/20/19 15:40:31  5-MIN KAQV 202140Z AUTO 00000KT 10SM CLR 11/01 A3029 40 50 -300 000/00 RMK AO2 T01110011
03949KAQV AQV20191220154510712/20/19 15:45:31  5-MIN KAQV 202145Z AUTO 00000KT 10SM CLR 11/01 A3029 40 50 -300 000/00 RMK AO2 T01110011
03949KAQV AQV20191220155010712/20/19 15:50:31  5-MIN KAQV 202150Z AUTO 00000KT 10SM CLR 11/01 A3029 40 50 -300 000/00 RMK AO2 T01110011
03949KAQV AQV20191220155511412/20/19 15:55:31  5-MIN KAQV 202155Z AUTO 00000KT 10SM CLR 11/02 A3029 40 52 -300 000/00 RMK AO2 SLP259 T01110017
03949KAQV AQV20191220160010712/20/19 16:00:31  5-MIN KAQV 202200Z AUTO 00000KT 10SM CLR 11/02 A3029 40 52 -300 000/00 RMK AO2 T01110017
03949KAQV AQV20191220160510712/20/19 16:05:31  5-MIN KAQV 202205Z AUTO 00000KT 10SM CLR 10/02 A3029 40 58 -500 000/00 RMK AO2 T01000022
03949KAQV AQV20191220161010712/20/19 16:10:31  5-MIN KAQV 202210Z AUTO 00000KT 10SM CLR 10/03 A3028 40 60 -500 000/00 RMK AO2 T01000028
03949KAQV AQV20191220161510712/20/19 16:15:31  5-MIN KAQV 202215Z AUTO 00000KT 10SM CLR 10/02 A3028 40 58 -500 000/00 RMK AO2 T01000022
03949KAQV AQV20191220162010712/20/19 16:20:31  5-MIN KAQV 202220Z AUTO 00000KT 10SM CLR 10/02 A3029 40 58 -500 000/00 RMK AO2 T01000022
03949KAQV AQV20191220162510712/20/19 16:25:31  5-MIN KAQV 202225Z AUTO 00000KT 10SM CLR 10/02 A3029 30 58 -500 000/00 RMK AO2 T01000022
03949KAQV AQV20191220163010712/20/19 16:30:31  5-MIN KAQV 202230Z AUTO 00000KT 10SM CLR 10/03 A3029 40 60 -500 000/00 RMK AO2 T01000028
03949KAQV AQV20191220163510712/20/19 16:35:31  5-MIN KAQV 202235Z AUTO 00000KT 10SM CLR 10/02 A3030 20 58 -500 000/00 RMK AO2 T01000022
03949KAQV AQV20191220164010712/20/19 16:40:31  5-MIN KAQV 202240Z AUTO 00000KT 10SM CLR 09/02 A3031 20 60 -600 000/00 RMK AO2 T00940022
03949KAQV AQV20191220164511012/20/19 16:45:31  5-MIN KAQV 202245Z AUTO 00000KT 10SM FEW110 09/03 A3031 20 63 -600 000/00 RMK AO2 T00940028
03949KAQV AQV20191220165011012/20/19 16:50:31  5-MIN KAQV 202250Z AUTO 00000KT 10SM FEW110 09/03 A3031 20 63 -600 000/00 RMK AO2 T00940028
03949KAQV AQV20191220165511712/20/19 16:55:31  5-MIN KAQV 202255Z AUTO 00000KT 10SM FEW110 09/03 A3031 20 65 -600 000/00 RMK AO2 SLP267 T00940033
03949KAQV AQV20191220170010712/20/19 17:00:31  5-MIN KAQV 202300Z AUTO 00000KT 10SM CLR 09/03 A3031 10 68 -600 000/00 RMK AO2 T00890033
03949KAQV AQV20191220170510712/20/19 17:05:31  5-MIN KAQV 202305Z AUTO 00000KT 10SM CLR 09/03 A3032 10 68 -600 000/00 RMK AO2 T00890033
03949KAQV AQV20191220171010712/20/19 17:10:31  5-MIN KAQV 202310Z AUTO 00000KT 10SM CLR 09/03 A3032 10 68 -600 000/00 RMK AO2 T00890033
03949KAQV AQV20191220171510712/20/19 17:15:31  5-MIN KAQV 202315Z AUTO 00000KT 10SM CLR 09/03 A3032 10 68 -600 000/00 RMK AO2 T00890033
03949KAQV AQV20191220172010712/20/19 17:20:31  5-MIN KAQV 202320Z AUTO 00000KT 10SM CLR 09/04 A3031 10 71 -600 000/00 RMK AO2 T00890039
03949KAQV AQV20191220172510712/20/19 17:25:31  5-MIN KAQV 202325Z AUTO 00000KT 10SM CLR 08/04 A3031 10 73 -700 000/00 RMK AO2 T00830039
03949KAQV AQV20191220173010712/20/19 17:30:31  5-MIN KAQV 202330Z AUTO 00000KT 10SM CLR 08/04 A3032 10 73 -700 000/00 RMK AO2 T00830039
03949KAQV AQV20191220173510712/20/19 17:35:31  5-MIN KAQV 202335Z AUTO 00000KT 10SM CLR 08/04 A3032 10 73 -700 000/00 RMK AO2 T00830039
03949KAQV AQV20191220174010612/20/19 17:40:31  5-MIN KAQV 202340Z AUTO 00000KT 10SM CLR 08/04 A3033 0 76 -800 000/00 RMK AO2 T00780039
03949KAQV AQV20191220174510612/20/19 17:45:31  5-MIN KAQV 202345Z AUTO 00000KT 10SM CLR 08/04 A3033 0 76 -800 000/00 RMK AO2 T00780039
03949KAQV AQV20191220175010712/20/19 17:50:31  5-MIN KAQV 202350Z AUTO 00000KT 10SM CLR 08/04 A3032 10 73 -700 000/00 RMK AO2 T00830039
03949KAQV AQV20191220175513112/20/19 17:55:31  5-MIN KAQV 202355Z AUTO 00000KT 10SM CLR 08/04 A3032 0 76 -700 000/00 RMK AO2 SLP271 T00830044 10128 20078 55011
03949KAQV AQV20191220180010612/20/19 18:00:31  5-MIN KAQV 210000Z AUTO 00000KT 10SM CLR 08/04 A3032 0 76 -700 000/00 RMK AO2 T00830044
03949KAQV AQV20191220180510712/20/19 18:05:31  5-MIN KAQV 210005Z AUTO 00000KT 10SM CLR 08/04 A3032 10 76 -700 000/00 RMK AO2 T00830044
03949KAQV AQV20191220181010712/20/19 18:10:31  5-MIN KAQV 210010Z AUTO 00000KT 10SM CLR 08/04 A3032 10 76 -700 000/00 RMK AO2 T00830044
03949KAQV AQV20191220181510712/20/19 18:15:31  5-MIN KAQV 210015Z AUTO 00000KT 10SM CLR 08/04 A3032 10 76 -700 000/00 RMK AO2 T00830044
03949KAQV AQV20191220182010712/20/19 18:20:31  5-MIN KAQV 210020Z AUTO 00000KT 10SM CLR 08/04 A3032 10 79 -800 000/00 RMK AO2 T00780044
03949KAQV AQV20191220182510712/20/19 18:25:31  5-MIN KAQV 210025Z AUTO 00000KT 10SM CLR 08/04 A3032 10 79 -800 000/00 RMK AO2 T00780044
03949KAQV AQV20191220183010712/20/19 18:30:31  5-MIN KAQV 210030Z AUTO 00000KT 10SM CLR 08/04 A3032 10 79 -800 000/00 RMK AO2 T00780044
03949KAQV AQV20191220183510712/20/19 18:35:31  5-MIN KAQV 210035Z AUTO 00000KT 10SM CLR 08/04 A3031 10 79 -800 000/00 RMK AO2 T00780044
03949KAQV AQV20191220184010712/20/19 18:40:31  5-MIN KAQV 210040Z AUTO 00000KT 10SM CLR 08/04 A3031 10 79 -800 000/00 RMK AO2 T00780044
03949KAQV AQV20191220184510712/20/19 18:45:31  5-MIN KAQV 210045Z AUTO 00000KT 10SM CLR 08/04 A3031 10 76 -800 000/00 RMK AO2 T00780039
03949KAQV AQV20191220185010712/20/19 18:50:31  5-MIN KAQV 210050Z AUTO 00000KT 10SM CLR 08/04 A3031 10 76 -800 000/00 RMK AO2 T00780039
03949KAQV AQV20191220233010912/20/19 23:30:31  5-MIN KAQV 210530Z AUTO 00000KT 10SM OVC090 07/04 A3033 0 82 -900 000/00 RMK AO2 T00720044
03949KAQV AQV20191220233510912/20/19 23:35:31  5-MIN KAQV 210535Z AUTO 00000KT 10SM OVC090 07/04 A3034 0 82 -900 000/00 RMK AO2 T00720044
03949KAQV AQV20191220234010912/20/19 23:40:31  5-MIN KAQV 210540Z AUTO 00000KT 10SM OVC090 07/04 A3034 0 82 -900 000/00 RMK AO2 T00720044
03949KAQV AQV20191220234507512/20/19 23:45:31  5-MIN KAQV 210545Z AUTO 00000KT 10SM OVC090 07/04 A3034 
03949KAQV AQV20191221090510912/21/19 09:05:31  5-MIN KAQV 211505Z AUTO 00000KT 10SM OVC034 08/05 A3033 0 82 -800 000/00 RMK AO2 T00780050
03949KAQV AQV20191221091011612/21/19 09:10:31  5-MIN KAQV 211510Z AUTO 00000KT 10SM SCT028 OVC035 08/05 A3033 0 82 -800 000/00 RMK AO2 T00780050
03949KAQV AQV20191221091511612/21/19 09:15:31  5-MIN KAQV 211515Z AUTO 36003KT 10SM BKN028 OVC036 08/05 A3033 0 82 -800 360/03 RMK AO2 T00780050
03949KAQV AQV20191221092011612/21/19 09:20:31  5-MIN KAQV 211520Z AUTO 00000KT 10SM SCT028 OVC036 08/05 A3033 0 82 -800 000/00 RMK AO2 T00780050
03949KAQV AQV20191221092512312/21/19 09:25:31  5-MIN KAQV 211525Z AUTO 00000KT 10SM FEW025 SCT030 OVC036 08/05 A3034 0 82 -800 000/00 RMK AO2 T00780050
03949KAQV AQV20191221093011612/21/19 09:30:31  5-MIN KAQV 211530Z AUTO 00000KT 10SM SCT028 OVC036 08/05 A3034 0 82 -800 000/00 RMK AO2 T00780050
03949KAQV AQV20191221093511612/21/19 09:35:31  5-MIN KAQV 211535Z AUTO 00000KT 10SM FEW028 OVC036 08/05 A3034 0 79 -700 000/00 RMK AO2 T00830050
03949KAQV AQV20191221094011612/21/19 09:40:31  5-MIN KAQV 211540Z AUTO 34003KT 10SM FEW028 OVC036 08/05 A3034 0 82 -800 340/03 RMK AO2 T00780050
03949KAQV AQV20191221094510912/21/19 09:45:31  5-MIN KAQV 211545Z AUTO 35003KT 10SM OVC036 08/05 A3033 0 79 -700 350/03 RMK AO2 T00830050
03949KAQV AQV20191221095010912/21/19 09:50:31  5-MIN KAQV 211550Z AUTO VRB03KT 10SM OVC036 08/05 A3033 0 79 -700 VRB/03 RMK AO2 T00830050
03949KAQV AQV20191221095511612/21/19 09:55:31  5-MIN KAQV 211555Z AUTO 36003KT 10SM OVC036 08/05 A3033 0 79 -700 360/03 RMK AO2 SLP272 T00830050
03949KAQV AQV20191221100010912/21/19 10:00:31  5-MIN KAQV 211600Z AUTO 01003KT 10SM OVC036 08/05 A3033 0 79 -700 010/03 RMK AO2 T00830050
03949KAQV AQV20191221100510912/21/19 10:05:31  5-MIN KAQV 211605Z AUTO 00000KT 10SM OVC036 08/05 A3033 0 79 -700 000/00 RMK AO2 T00830050
03949KAQV AQV20191221101010912/21/19 10:10:31  5-MIN KAQV 211610Z AUTO 00000KT 10SM OVC035 09/05 A3033 0 76 -600 000/00 RMK AO2 T00890050
03949KAQV AQV20191221101511612/21/19 10:15:31  5-MIN KAQV 211615Z AUTO 00000KT 10SM SCT025 OVC035 09/06 A3033 0 79 -600 000/00 RMK AO2 T00890056
03949KAQV AQV20191221102011612/21/19 10:20:31  5-MIN KAQV 211620Z AUTO 00000KT 10SM BKN025 OVC035 09/06 A3033 0 79 -600 000/00 RMK AO2 T00890056
03949KAQV AQV20191221102511612/21/19 10:25:31  5-MIN KAQV 211625Z AUTO VRB03KT 10SM BKN025 OVC035 09/06 A3033 0 79 -600 VRB/03 RMK AO2 T00890056
03949KAQV AQV20191221103011612/21/19 10:30:31  5-MIN KAQV 211630Z AUTO VRB03KT 10SM BKN025 OVC034 08/05 A3033 0 79 -700 VRB/03 RMK AO2 T00830050
03949KAQV AQV20191221103510912/21/19 10:35:31  5-MIN KAQV 211635Z AUTO 35003KT 10SM OVC025 08/06 A3032 0 82 -700 350/03 RMK AO2 T00830056
03949KAQV AQV20191221104011012/21/19 10:40:31  5-MIN KAQV 211640Z AUTO 35003KT 10SM OVC025 09/06 A3032 10 79 -600 350/03 RMK AO2 T00890056
03949KAQV AQV20191221104511012/21/19 10:45:31  5-MIN KAQV 211645Z AUTO 36004KT 10SM OVC025 09/05 A3032 10 76 -600 350/04 RMK AO2 T00890050
03949KAQV AQV20191221105011012/21/19 10:50:31  5-MIN KAQV 211650Z AUTO 00000KT 10SM OVC025 09/05 A3032 10 76 -600 000/00 RMK AO2 T00890050
03949KAQV AQV20191221105511712/21/19 10:55:31  5-MIN KAQV 211655Z AUTO VRB03KT 10SM OVC025 09/05 A3032 10 76 -600 VRB/03 RMK AO2 SLP270 T00890050
03949KAQV AQV20191221110011012/21/19 11:00:31  5-MIN KAQV 211700Z AUTO VRB03KT 10SM OVC025 09/06 A3032 10 79 -600 VRB/03 RMK AO2 T00890056
03949KAQV AQV20191221110511012/21/19 11:05:31  5-MIN KAQV 211705Z AUTO 01004KT 10SM OVC026 09/05 A3032 10 76 -600 010/04 RMK AO2 T00890050
03949KAQV AQV20191221111011012/21/19 11:10:31  5-MIN KAQV 211710Z AUTO VRB03KT 10SM OVC026 09/06 A3031 10 79 -600 VRB/03 RMK AO2 T00890056
03949KAQV AQV20191221111511012/21/19 11:15:31  5-MIN KAQV 211715Z AUTO 00000KT 10SM OVC026 09/06 A3032 10 79 -600 000/00 RMK AO2 T00890056
03949KAQV AQV20191221112011012/21/19 11:20:31  5-MIN KAQV 211720Z AUTO 02003KT 10SM OVC026 09/06 A3032 10 79 -600 020/03 RMK AO2 T00890056
03949KAQV AQV20191221112511012/21/19 11:25:31  5-MIN KAQV 211725Z AUTO 36003KT 10SM OVC026 09/06 A3031 10 79 -600 360/03 RMK AO2 T00890056
03949KAQV AQV20191221113011012/21/19 11:30:31  5-MIN KAQV 211730Z AUTO VRB03KT 10SM OVC027 09/05 A3031 20 76 -600 VRB/03 RMK AO2 T00890050
03949KAQV AQV20191221113511012/21/19 11:35:31  5-MIN KAQV 211735Z AUTO VRB03KT 10SM OVC027 09/06 A3031 20 76 -600 VRB/03 RMK AO2 T00940056
03949KAQV AQV20191221114011012/21/19 11:40:31  5-MIN KAQV 211740Z AUTO VRB04KT 10SM OVC029 09/05 A3031 20 76 -600 VRB/04 RMK AO2 T00890050
03949KAQV AQV20191221114511012/21/19 11:45:31  5-MIN KAQV 211745Z AUTO 01003KT 10SM OVC029 09/05 A3031 20 76 -600 360/03 RMK AO2 T00890050
03949KAQV AQV20191221115011012/21/19 11:50:31  5-MIN KAQV 211750Z AUTO VRB04KT 10SM OVC029 09/06 A3030 20 79 -600 VRB/04 RMK AO2 T00890056
03949KAQV AQV20191221115514112/21/19 11:55:31  5-MIN KAQV 211755Z AUTO 00000KT 10SM OVC029 09/06 A3030 20 79 -600 000/00 RMK AO2 SLP263 60001 T00890056 10094 20067 53011
03949KAQV AQV20191221120011012/21/19 12:00:31  5-MIN KAQV 211800Z AUTO 00000KT 10SM OVC030 09/06 A3030 20 76 -500 000/00 RMK AO2 T00940056
03949KAQV AQV20191221120511012/21/19 12:05:31  5-MIN KAQV 211805Z AUTO 00000KT 10SM OVC030 09/05 A3030 30 74 -500 000/00 RMK AO2 T00940050
03949KAQV AQV20191221121011012/21/19 12:10:31  5-MIN KAQV 211810Z AUTO 00000KT 10SM OVC030 09/06 A3030 30 76 -500 000/00 RMK AO2 T00940056
03949KAQV AQV20191221121511012/21/19 12:15:31  5-MIN KAQV 211815Z AUTO 00000KT 10SM OVC030 09/05 A3029 30 74 -500 000/00 RMK AO2 T00940050
03949KAQV AQV20191221122011012/21/19 12:20:31  5-MIN KAQV 211820Z AUTO 00000KT 10SM OVC030 09/05 A3029 40 74 -500 000/00 RMK AO2 T00940050
03949KAQV AQV20191221122511012/21/19 12:25:31  5-MIN KAQV 211825Z AUTO 00000KT 10SM OVC030 10/05 A3029 40 71 -500 000/00 RMK AO2 T01000050
03949KAQV AQV20191221123011012/21/19 12:30:31  5-MIN KAQV 211830Z AUTO 02003KT 10SM OVC030 10/05 A3028 40 71 -500 020/03 RMK AO2 T01000050
03949KAQV AQV20191221123511012/21/19 12:35:31  5-MIN KAQV 211835Z AUTO 36003KT 10SM OVC031 10/04 A3028 40 68 -500 350/03 RMK AO2 T01000044
03949KAQV AQV20191221124011012/21/19 12:40:31  5-MIN KAQV 211840Z AUTO 01004KT 10SM OVC031 10/04 A3028 40 68 -500 010/04 RMK AO2 T01000044
03949KAQV AQV20191221124511012/21/19 12:45:31  5-MIN KAQV 211845Z AUTO 36003KT 10SM OVC031 10/04 A3028 50 68 -500 360/03 RMK AO2 T01000044
03949KAQV AQV20191221125011012/21/19 12:50:31  5-MIN KAQV 211850Z AUTO VRB03KT 10SM OVC031 10/05 A3028 50 71 -500 VRB/03 RMK AO2 T01000050
03949KAQV AQV20191221125511712/21/19 12:55:31  5-MIN KAQV 211855Z AUTO 36005KT 10SM OVC031 10/04 A3028 50 68 -400 350/05 RMK AO2 SLP254 T01000044
03949KAQV AQV20191221130011712/21/19 13:00:31  5-MIN KAQV 211900Z AUTO VRB04KT 10SM BKN031 OVC045 10/04 A3027 50 68 -400 VRB/04 RMK AO2 T01000044
03949KAQV AQV20191221130511712/21/19 13:05:31  5-MIN KAQV 211905Z AUTO 36005KT 10SM BKN031 OVC045 10/04 A3027 60 68 -400 360/05 RMK AO2 T01000044
03949KAQV AQV20191221131011712/21/19 13:10:31  5-MIN KAQV 211910Z AUTO VRB03KT 10SM BKN032 OVC045 11/05 A3027 60 68 -400 VRB/03 RMK AO2 T01060050
03949KAQV AQV20191221131511712/21/19 13:15:31  5-MIN KAQV 211915Z AUTO 35006KT 10SM BKN032 OVC045 10/04 A3026 60 68 -400 350/06 RMK AO2 T01000044
03949KAQV AQV20191221132011712/21/19 13:20:31  5-MIN KAQV 211920Z AUTO VRB05KT 10SM BKN032 OVC047 10/04 A3026 60 68 -400 VRB/05 RMK AO2 T01000044
03949KAQV AQV20191221132511712/21/19 13:25:31  5-MIN KAQV 211925Z AUTO VRB05KT 10SM BKN032 OVC047 11/04 A3025 70 66 -400 VRB/05 RMK AO2 T01060044
03949KAQV AQV20191221133011712/21/19 13:30:31  5-MIN KAQV 211930Z AUTO VRB04KT 10SM BKN032 OVC049 11/04 A3025 70 63 -400 VRB/04 RMK AO2 T01060039
03949KAQV AQV20191221133511712/21/19 13:35:31  5-MIN KAQV 211935Z AUTO 35005KT 10SM BKN032 OVC049 11/04 A3026 70 63 -400 350/05 RMK AO2 T01060039
03949KAQV AQV20191221134011712/21/19 13:40:31  5-MIN KAQV 211940Z AUTO VRB03KT 10SM BKN032 OVC049 11/04 A3025 70 66 -400 VRB/03 RMK AO2 T01060044
03949KAQV AQV20191221134511712/21/19 13:45:31  5-MIN KAQV 211945Z AUTO 35004KT 10SM BKN031 OVC050 11/04 A3025 70 63 -400 350/04 RMK AO2 T01060039
03949KAQV AQV20191221135011712/21/19 13:50:31  5-MIN KAQV 211950Z AUTO 36004KT 10SM BKN031 OVC050 11/04 A3025 70 63 -400 360/04 RMK AO2 T01060039
03949KAQV AQV20191221135511712/21/19 13:55:31  5-MIN KAQV 211955Z AUTO 00000KT 10SM OVC031 11/04 A3026 70 63 -400 000/00 RMK AO2 SLP247 T01060039
03949KAQV AQV20191221140011012/21/19 14:00:31  5-MIN KAQV 212000Z AUTO VRB03KT 10SM OVC031 11/04 A3026 70 63 -400 VRB/03 RMK AO2 T01060039
03949KAQV AQV20191221140511012/21/19 14:05:31  5-MIN KAQV 212005Z AUTO 01004KT 10SM OVC031 11/04 A3026 70 63 -400 360/04 RMK AO2 T01060039
03949KAQV AQV20191221141011012/21/19 14:10:31  5-MIN KAQV 212010Z AUTO 00000KT 10SM OVC031 11/04 A3025 70 63 -400 000/00 RMK AO2 T01060039
03949KAQV AQV20191221141511012/21/19 14:15:31  5-MIN KAQV 212015Z AUTO VRB04KT 10SM OVC032 11/04 A3025 70 63 -400 VRB/04 RMK AO2 T01060039
03949KAQV AQV20191221142011012/21/19 14:20:31  5-MIN KAQV 212020Z AUTO 01003KT 10SM OVC032 11/04 A3026 70 63 -400 010/03 RMK AO2 T01060039
03949KAQV AQV20191221142511012/21/19 14:25:31  5-MIN KAQV 212025Z AUTO 00000KT 10SM OVC032 11/04 A3026 70 63 -400 000/00 RMK AO2 T01060039
03949KAQV AQV20191221143011012/21/19 14:30:31  5-MIN KAQV 212030Z AUTO 03004KT 10SM OVC032 11/04 A3025 70 63 -400 020/04 RMK AO2 T01060039
03949KAQV AQV20191221143511012/21/19 14:35:31  5-MIN KAQV 212035Z AUTO VRB03KT 10SM OVC032 11/04 A3025 70 63 -400 VRB/03 RMK AO2 T01060039
03949KAQV AQV20191221144011012/21/19 14:40:31  5-MIN KAQV 212040Z AUTO 01004KT 10SM OVC032 11/04 A3025 80 63 -300 010/04 RMK AO2 T01060039
03949KAQV AQV20191221144511012/21/19 14:45:31  5-MIN KAQV 212045Z AUTO 02005KT 10SM OVC031 11/04 A3025 80 63 -300 020/05 RMK AO2 T01060039
03949KAQV AQV20191221145011012/21/19 14:50:31  5-MIN KAQV 212050Z AUTO 01004KT 10SM OVC031 11/04 A3025 70 63 -300 360/04 RMK AO2 T01060039
03949KAQV AQV20191221145512312/21/19 14:55:31  5-MIN KAQV 212055Z AUTO 35003KT 10SM OVC031 11/04 A3024 80 63 -300 350/03 RMK AO2 SLP243 T01060039 58009
03949KAQV AQV20191221150011012/21/19 15:00:31  5-MIN KAQV 212100Z AUTO 00000KT 10SM OVC031 11/04 A3025 80 61 -300 000/00 RMK AO2 T01110039
03949KAQV AQV20191221150511012/21/19 15:05:31  5-MIN KAQV 212105Z AUTO VRB04KT 10SM OVC031 11/04 A3024 80 61 -300 VRB/04 RMK AO2 T01110039
03949KAQV AQV20191221151011012/21/19 15:10:31  5-MIN KAQV 212110Z AUTO 36005KT 10SM OVC031 11/04 A3024 80 61 -300 350/05 RMK AO2 T01110039
03949KAQV AQV20191221151511712/21/19 15:15:31  5-MIN KAQV 212115Z AUTO VRB03KT 10SM BKN032 OVC060 11/04 A3024 80 63 -300 VRB/03 RMK AO2 T01060039
03949KAQV AQV20191221152011712/21/19 15:20:31  5-MIN KAQV 212120Z AUTO VRB04KT 10SM BKN032 OVC060 11/04 A3025 80 63 -300 VRB/04 RMK AO2 T01060039
03949KAQV AQV20191221152511712/21/19 15:25:31  5-MIN KAQV 212125Z AUTO 36004KT 10SM BKN034 OVC060 11/04 A3025 70 63 -400 360/04 RMK AO2 T01060039
03949KAQV AQV20191221153011712/21/19 15:30:31  5-MIN KAQV 212130Z AUTO 00000KT 10SM BKN034 OVC060 11/04 A3025 70 63 -400 000/00 RMK AO2 T01060039
03949KAQV AQV20191221153511712/21/19 15:35:31  5-MIN KAQV 212135Z AUTO VRB03KT 10SM BKN034 OVC060 11/04 A3025 70 63 -400 VRB/03 RMK AO2 T01060039
03949KAQV AQV20191221154011712/21/19 15:40:31  5-MIN KAQV 212140Z AUTO 01003KT 10SM BKN035 OVC060 11/04 A3025 70 66 -400 360/03 RMK AO2 T01060044
03949KAQV AQV20191221154511012/21/19 15:45:31  5-MIN KAQV 212145Z AUTO 36004KT 10SM OVC035 11/04 A3025 70 63 -400 350/04 RMK AO2 T01060039
03949KAQV AQV20191221155011012/21/19 15:50:31  5-MIN KAQV 212150Z AUTO VRB03KT 10SM OVC035 11/04 A3025 70 63 -400 VRB/03 RMK AO2 T01060039
03949KAQV AQV20191221155511712/21/19 15:55:31  5-MIN KAQV 212155Z AUTO 36004KT 10SM OVC035 11/04 A3025 70 66 -400 350/04 RMK AO2 SLP246 T01060044
03949KAQV AQV20191221160011712/21/19 16:00:31  5-MIN KAQV 212200Z AUTO 36003KT 10SM BKN035 OVC050 11/04 A3026 70 63 -400 360/03 RMK AO2 T01060039
03949KAQV AQV20191221160511712/21/19 16:05:31  5-MIN KAQV 212205Z AUTO VRB05KT 10SM BKN035 OVC050 11/04 A3026 70 66 -400 VRB/05 RMK AO2 T01060044
03949KAQV AQV20191221161011712/21/19 16:10:31  5-MIN KAQV 212210Z AUTO VRB03KT 10SM BKN035 OVC050 10/04 A3025 70 68 -400 VRB/03 RMK AO2 T01000044
03949KAQV AQV20191221161511712/21/19 16:15:31  5-MIN KAQV 212215Z AUTO 35004KT 10SM SCT035 OVC050 10/04 A3025 70 68 -400 340/04 RMK AO2 T01000044
03949KAQV AQV20191221162011712/21/19 16:20:31  5-MIN KAQV 212220Z AUTO VRB03KT 10SM SCT036 OVC050 10/04 A3026 70 68 -400 VRB/03 RMK AO2 T01000044
03949KAQV AQV20191221162511712/21/19 16:25:31  5-MIN KAQV 212225Z AUTO 35003KT 10SM SCT036 OVC050 10/04 A3026 70 68 -400 350/03 RMK AO2 T01000044
03949KAQV AQV20191221163011712/21/19 16:30:31  5-MIN KAQV 212230Z AUTO 34003KT 10SM BKN037 OVC055 10/04 A3026 70 68 -400 340/03 RMK AO2 T01000044
03949KAQV AQV20191221163511712/21/19 16:35:31  5-MIN KAQV 212235Z AUTO 01004KT 10SM SCT037 OVC055 10/04 A3025 70 68 -400 360/04 RMK AO2 T01000044
03949KAQV AQV20191221164011712/21/19 16:40:31  5-MIN KAQV 212240Z AUTO 36003KT 10SM FEW037 OVC055 10/04 A3026 70 68 -400 360/03 RMK AO2 T01000044
03949KAQV AQV20191221164511712/21/19 16:45:31  5-MIN KAQV 212245Z AUTO 35004KT 10SM FEW037 OVC055 10/04 A3025 70 68 -400 350/04 RMK AO2 T01000044
03949KAQV AQV20191221165011712/21/19 16:50:31  5-MIN KAQV 212250Z AUTO VRB04KT 10SM FEW037 OVC055 10/04 A3026 70 68 -400 VRB/04 RMK AO2 T01000044
03949KAQV AQV20191221165512412/21/19 16:55:31  5-MIN KAQV 212255Z AUTO 35005KT 10SM FEW037 OVC055 10/04 A3025 70 68 -400 350/05 RMK AO2 SLP247 T01000044
03949KAQV AQV20191221170011012/21/19 17:00:31  5-MIN KAQV 212300Z AUTO 36003KT 10SM OVC055 10/04 A3025 70 68 -400 350/03 RMK AO2 T01000044
03949KAQV AQV20191221170511012/21/19 17:05:31  5-MIN KAQV 212305Z AUTO VRB04KT 10SM OVC055 10/04 A3026 70 68 -400 VRB/04 RMK AO2 T01000044
03949KAQV AQV20191221171011712/21/19 17:10:31  5-MIN KAQV 212310Z AUTO 36004KT 10SM FEW039 OVC055 10/05 A3026 60 71 -400 360/04 RMK AO2 T01000050
03949KAQV AQV20191221171511712/21/19 17:15:31  5-MIN KAQV 212315Z AUTO 01004KT 10SM SCT039 OVC050 10/05 A3026 60 71 -400 010/04 RMK AO2 T01000050
03949KAQV AQV20191221172011712/21/19 17:20:31  5-MIN KAQV 212320Z AUTO 36003KT 10SM FEW039 OVC050 10/05 A3026 60 71 -400 360/03 RMK AO2 T01000050
03949KAQV AQV20191221172511712/21/19 17:25:31  5-MIN KAQV 212325Z AUTO 02003KT 10SM SCT039 OVC050 10/05 A3026 70 71 -400 010/03 RMK AO2 T01000050
03949KAQV AQV20191221173011712/21/19 17:30:31  5-MIN KAQV 212330Z AUTO VRB03KT 10SM SCT039 OVC050 10/05 A3026 60 71 -400 VRB/03 RMK AO2 T01000050
03949KAQV AQV20191221173511712/21/19 17:35:31  5-MIN KAQV 212335Z AUTO VRB04KT 10SM FEW039 OVC050 10/05 A3026 60 71 -400 VRB/04 RMK AO2 T01000050
03949KAQV AQV20191221174011712/21/19 17:40:31  5-MIN KAQV 212340Z AUTO VRB03KT 10SM FEW039 OVC050 09/05 A3026 60 74 -500 VRB/03 RMK AO2 T00940050
03949KAQV AQV20191221174511712/21/19 17:45:31  5-MIN KAQV 212345Z AUTO VRB04KT 10SM SCT039 OVC050 09/05 A3026 60 74 -500 VRB/04 RMK AO2 T00940050
03949KAQV AQV20191221175011712/21/19 17:50:31  5-MIN KAQV 212350Z AUTO 01005KT 10SM BKN039 OVC050 09/05 A3026 60 74 -500 010/05 RMK AO2 T00940050
03949KAQV AQV20191221175514212/21/19 17:55:31  5-MIN KAQV 212355Z AUTO 01003KT 10SM SCT039 OVC050 09/05 A3026 70 74 -500 010/03 RMK AO2 SLP248 T00940050 10111 20094 56019
03949KAQV AQV20191221180011712/21/19 18:00:31  5-MIN KAQV 220000Z AUTO 01005KT 10SM SCT039 OVC050 09/05 A3026 70 74 -500 360/05 RMK AO2 T00940050
03949KAQV AQV20191221180511712/21/19 18:05:31  5-MIN KAQV 220005Z AUTO 01004KT 10SM BKN039 OVC050 09/05 A3026 60 74 -500 360/04 RMK AO2 T00940050
03949KAQV AQV20191221181011712/21/19 18:10:31  5-MIN KAQV 220010Z AUTO VRB03KT 10SM BKN039 OVC050 09/05 A3026 60 74 -500 VRB/03 RMK AO2 T00940050
03949KAQV AQV20191221181511712/21/19 18:15:31  5-MIN KAQV 220015Z AUTO VRB03KT 10SM BKN039 OVC050 09/05 A3026 60 74 -500 VRB/03 RMK AO2 T00940050
03949KAQV AQV20191221182011712/21/19 18:20:31  5-MIN KAQV 220020Z AUTO 01004KT 10SM BKN039 OVC050 09/05 A3026 60 74 -500 010/04 RMK AO2 T00940050
03949KAQV AQV20191221182511712/21/19 18:25:31  5-MIN KAQV 220025Z AUTO 36005KT 10SM SCT039 OVC050 09/05 A3026 60 74 -500 360/05 RMK AO2 T00940050
03949KAQV AQV20191221183011712/21/19 18:30:31  5-MIN KAQV 220030Z AUTO 01003KT 10SM SCT040 OVC050 09/05 A3026 60 74 -500 010/03 RMK AO2 T00940050
03949KAQV AQV20191221183511712/21/19 18:35:31  5-MIN KAQV 220035Z AUTO 01003KT 10SM FEW040 OVC050 09/05 A3027 60 74 -500 360/03 RMK AO2 T00940050
03949KAQV AQV20191221184011012/21/19 18:40:31  5-MIN KAQV 220040Z AUTO VRB04KT 10SM OVC050 09/05 A3027 60 74 -500 VRB/04 RMK AO2 T00940050
03949KAQV AQV20191221184511012/21/19 18:45:31  5-MIN KAQV 220045Z AUTO 01003KT 10SM OVC050 09/05 A3027 60 74 -500 360/03 RMK AO2 T00940050
03949KAQV AQV20191221185011012/21/19 18:50:31  5-MIN KAQV 220050Z AUTO VRB03KT 10SM OVC050 09/05 A3026 60 74 -500 VRB/03 RMK AO2 T00940050
03949KAQV AQV20191221185511712/21/19 18:55:31  5-MIN KAQV 220055Z AUTO VRB03KT 10SM OVC048 09/05 A3027 60 74 -500 VRB/03 RMK AO2 SLP251 T00940050
03949KAQV AQV20191221190011012/21/19 19:00:31  5-MIN KAQV 220100Z AUTO 36003KT 10SM OVC046 09/05 A3027 50 74 -500 360/03 RMK AO2 T00940050
03949KAQV AQV20191221190511012/21/19 19:05:31  5-MIN KAQV 220105Z AUTO 36003KT 10SM OVC046 09/05 A3027 50 74 -500 360/03 RMK AO2 T00940050
03949KAQV AQV20191221191011012/21/19 19:10:31  5-MIN KAQV 220110Z AUTO VRB03KT 10SM OVC046 09/05 A3027 50 74 -500 VRB/03 RMK AO2 T00940050
03949KAQV AQV20191221191511012/21/19 19:15:31  5-MIN KAQV 220115Z AUTO 36004KT 10SM OVC046 09/05 A3027 50 74 -500 360/04 RMK AO2 T00940050
03949KAQV AQV20191221192011712/21/19 19:20:31  5-MIN KAQV 220120Z AUTO 36006KT 10SM BKN043 OVC050 09/05 A3027 50 74 -500 360/06 RMK AO2 T00940050
03949KAQV AQV20191221192512412/21/19 19:25:31  5-MIN KAQV 220125Z AUTO 01004KT 10SM FEW034 BKN043 OVC055 09/05 A3027 50 74 -500 360/04 RMK AO2 T00940050
03949KAQV AQV20191221193012412/21/19 19:30:31  5-MIN KAQV 220130Z AUTO 36003KT 10SM FEW034 BKN045 OVC055 09/05 A3027 50 74 -500 360/03 RMK AO2 T00940050
03949KAQV AQV20191221193512412/21/19 19:35:31  5-MIN KAQV 220135Z AUTO VRB03KT 10SM SCT034 BKN045 OVC055 09/05 A3027 50 74 -500 VRB/03 RMK AO2 T00940050
03949KAQV AQV20191221194012412/21/19 19:40:31  5-MIN KAQV 220140Z AUTO 01004KT 10SM SCT034 BKN055 OVC070 09/05 A3027 60 76 -600 010/04 RMK AO2 T00890050
03949KAQV AQV20191221194512412/21/19 19:45:31  5-MIN KAQV 220145Z AUTO 00000KT 10SM FEW033 BKN055 OVC070 09/05 A3027 60 76 -600 000/00 RMK AO2 T00890050
03949KAQV AQV20191221195012412/21/19 19:50:31  5-MIN KAQV 220150Z AUTO 03003KT 10SM FEW033 BKN055 OVC070 09/05 A3027 60 76 -600 030/03 RMK AO2 T00890050
03949KAQV AQV20191221195513112/21/19 19:55:31  5-MIN KAQV 220155Z AUTO 00000KT 10SM FEW033 BKN055 OVC070 09/05 A3027 50 76 -600 000/00 RMK AO2 SLP252 T00890050
03949KAQV AQV20191221200011712/21/19 20:00:31  5-MIN KAQV 220200Z AUTO 01004KT 10SM FEW033 OVC065 09/06 A3027 50 79 -600 010/04 RMK AO2 T00890056
03949KAQV AQV20191221200511712/21/19 20:05:31  5-MIN KAQV 220205Z AUTO 01005KT 10SM SCT055 OVC070 09/06 A3027 50 79 -600 360/05 RMK AO2 T00890056
03949KAQV AQV20191221201011712/21/19 20:10:31  5-MIN KAQV 220210Z AUTO VRB03KT 10SM SCT050 OVC070 09/06 A3028 50 79 -600 VRB/03 RMK AO2 T00890056
03949KAQV AQV20191221201511712/21/19 20:15:31  5-MIN KAQV 220215Z AUTO 00000KT 10SM BKN050 OVC070 09/06 A3028 50 79 -600 000/00 RMK AO2 T00890056
03949KAQV AQV20191221202011712/21/19 20:20:31  5-MIN KAQV 220220Z AUTO 00000KT 10SM BKN050 OVC075 09/06 A3028 50 79 -600 000/00 RMK AO2 T00890056
03949KAQV AQV20191221202511712/21/19 20:25:31  5-MIN KAQV 220225Z AUTO 00000KT 10SM BKN050 OVC075 09/06 A3028 50 79 -600 000/00 RMK AO2 T00890056
03949KAQV AQV20191221203011712/21/19 20:30:31  5-MIN KAQV 220230Z AUTO 36004KT 10SM SCT050 BKN075 08/06 A3028 50 82 -700 360/04 RMK AO2 T00830056
03949KAQV AQV20191221203511712/21/19 20:35:31  5-MIN KAQV 220235Z AUTO 01004KT 10SM SCT050 BKN075 08/06 A3028 50 82 -600 360/04 RMK AO2 T00830056
03949KAQV AQV20191221204011712/21/19 20:40:31  5-MIN KAQV 220240Z AUTO 01004KT 10SM FEW050 BKN075 08/06 A3027 60 82 -600 360/04 RMK AO2 T00830056
03949KAQV AQV20191221204511712/21/19 20:45:31  5-MIN KAQV 220245Z AUTO 00000KT 10SM FEW050 BKN075 08/06 A3027 50 82 -600 000/00 RMK AO2 T00830056
03949KAQV AQV20191221205011712/21/19 20:50:31  5-MIN KAQV 220250Z AUTO 35003KT 10SM SCT050 BKN075 08/06 A3027 50 86 -700 350/03 RMK AO2 T00780056
03949KAQV AQV20191221205513012/21/19 20:55:31  5-MIN KAQV 220255Z AUTO 00000KT 10SM BKN050 BKN075 08/06 A3027 60 86 -700 000/00 RMK AO2 SLP251 T00780056 51004
03949KAQV AQV20191221210011712/21/19 21:00:31  5-MIN KAQV 220300Z AUTO 00000KT 10SM BKN050 BKN075 08/06 A3027 60 86 -700 000/00 RMK AO2 T00780056
03949KAQV AQV20191222071012512/22/19 07:10:31  5-MIN KAQV 221310Z AUTO 34004KT 10SM FEW012 BKN034 OVC042 07/05 A3021 110 86 -700 340/04 RMK AO2 T00720050
03949KAQV AQV20191222071512512/22/19 07:15:31  5-MIN KAQV 221315Z AUTO 35003KT 10SM FEW012 SCT034 OVC042 07/05 A3021 110 86 -700 350/03 RMK AO2 T00720050
03949KAQV AQV20191222072011812/22/19 07:20:31  5-MIN KAQV 221320Z AUTO 35003KT 10SM SCT034 OVC043 07/05 A3021 110 86 -700 350/03 RMK AO2 T00720050
03949KAQV AQV20191222072511812/22/19 07:25:31  5-MIN KAQV 221325Z AUTO 00000KT 10SM FEW036 OVC045 07/05 A3022 100 86 -700 000/00 RMK AO2 T00720050
03949KAQV AQV20191222073011112/22/19 07:30:31  5-MIN KAQV 221330Z AUTO VRB03KT 10SM OVC045 07/05 A3022 100 86 -700 VRB/03 RMK AO2 T00720050
03949KAQV AQV20191222073511112/22/19 07:35:31  5-MIN KAQV 221335Z AUTO 36003KT 10SM BKN045 07/05 A3022 100 86 -700 360/03 RMK AO2 T00720050
03949KAQV AQV20191222074011112/22/19 07:40:31  5-MIN KAQV 221340Z AUTO 00000KT 10SM BKN045 07/05 A3022 100 86 -700 000/00 RMK AO2 T00720050
03949KAQV AQV20191222074511112/22/19 07:45:31  5-MIN KAQV 221345Z AUTO 36003KT 10SM SCT045 07/05 A3022 100 86 -700 350/03 RMK AO2 T00720050
03949KAQV AQV20191222075011812/22/19 07:50:31  5-MIN KAQV 221350Z AUTO 00000KT 10SM SCT046 SCT080 07/05 A3022 100 86 -700 000/00 RMK AO2 T00720050
03949KAQV AQV20191222075512512/22/19 07:55:31  5-MIN KAQV 221355Z AUTO 00000KT 10SM FEW046 SCT080 07/05 A3022 100 89 -800 000/00 RMK AO2 SLP235 T00670050
03949KAQV AQV20191222080011712/22/19 08:00:31  5-MIN KAQV 221400Z AUTO 00000KT 10SM FEW046 FEW080 07/05 A3023 90 86 -700 000/00 RMK AO2 T00720050
03949KAQV AQV20191222080511112/22/19 08:05:31  5-MIN KAQV 221405Z AUTO 00000KT 10SM FEW080 07/05 A3023 100 86 -700 000/00 RMK AO2 T00720050
03949KAQV AQV20191222081011012/22/19 08:10:31  5-MIN KAQV 221410Z AUTO 34003KT 10SM SCT080 08/05 A3023 90 82 -700 340/03 RMK AO2 T00780050
03949KAQV AQV20191222081511012/22/19 08:15:31  5-MIN KAQV 221415Z AUTO 00000KT 10SM SCT080 08/05 A3023 90 82 -700 000/00 RMK AO2 T00780050
03949KAQV AQV20191222082011012/22/19 08:20:31  5-MIN KAQV 221420Z AUTO VRB05KT 10SM FEW080 08/05 A3023 90 82 -700 VRB/05 RMK AO2 T00780050
03949KAQV AQV20191222082511012/22/19 08:25:31  5-MIN KAQV 221425Z AUTO 00000KT 10SM FEW080 08/04 A3023 90 79 -700 000/00 RMK AO2 T00780044
03949KAQV AQV20191222083011712/22/19 08:30:31  5-MIN KAQV 221430Z AUTO VRB03KT 10SM FEW010 FEW080 08/05 A3023 90 82 -700 VRB/03 RMK AO2 T00780050
03949KAQV AQV20191222083511712/22/19 08:35:31  5-MIN KAQV 221435Z AUTO VRB03KT 10SM FEW010 FEW080 07/04 A3023 90 82 -700 VRB/03 RMK AO2 T00720044
03949KAQV AQV20191222084011712/22/19 08:40:31  5-MIN KAQV 221440Z AUTO VRB04KT 10SM FEW012 SCT017 07/04 A3023 90 82 -700 VRB/04 RMK AO2 T00720044
03949KAQV AQV20191222084511712/22/19 08:45:31  5-MIN KAQV 221445Z AUTO 36005KT 10SM FEW012 FEW017 08/04 A3023 90 79 -700 350/05 RMK AO2 T00780044
03949KAQV AQV20191222085011712/22/19 08:50:31  5-MIN KAQV 221450Z AUTO 00000KT 10SM FEW017 SCT045 08/04 A3023 90 79 -700 000/00 RMK AO2 T00780044
03949KAQV AQV20191222085512712/22/19 08:55:31  5-MIN KAQV 221455Z AUTO 10SM FEW017 SCT045 BKN080 08/04 A3023 90 79 -700 M /M RMK AO2 SLP238 T00780044 56006
03949KAQV AQV20191222090012412/22/19 09:00:31  5-MIN KAQV 221500Z AUTO 32003KT 10SM FEW017 SCT045 BKN080 08/04 A3023 90 79 -700 320/03 RMK AO2 T00780044
03949KAQV AQV20191222090512412/22/19 09:05:31  5-MIN KAQV 221505Z AUTO VRB04KT 10SM FEW017 BKN047 BKN080 08/04 A3023 90 76 -700 VRB/04 RMK AO2 T00780039
03949KAQV AQV20191222091011712/22/19 09:10:31  5-MIN KAQV 221510Z AUTO 00000KT 10SM BKN047 OVC080 08/04 A3023 90 76 -600 000/00 RMK AO2 T00830044
03949KAQV AQV20191222091511712/22/19 09:15:31  5-MIN KAQV 221515Z AUTO VRB03KT 10SM BKN047 OVC080 08/04 A3023 90 76 -600 VRB/03 RMK AO2 T00830044
03949KAQV AQV20191222092011712/22/19 09:20:31  5-MIN KAQV 221520Z AUTO 36005KT 10SM BKN049 OVC080 09/04 A3023 90 73 -500 360/05 RMK AO2 T00890044
03949KAQV AQV20191222092511012/22/19 09:25:31  5-MIN KAQV 221525Z AUTO VRB05KT 10SM OVC047 08/04 A3023 90 76 -600 VRB/05 RMK AO2 T00830044
03949KAQV AQV20191222093011012/22/19 09:30:31  5-MIN KAQV 221530Z AUTO 01006KT 10SM BKN047 08/04 A3023 90 76 -600 010/06 RMK AO2 T00830044
03949KAQV AQV20191222093511012/22/19 09:35:31  5-MIN KAQV 221535Z AUTO VRB03KT 10SM BKN047 08/04 A3023 90 76 -600 VRB/03 RMK AO2 T00830044
03949KAQV AQV20191222094011012/22/19 09:40:31  5-MIN KAQV 221540Z AUTO 35004KT 10SM BKN047 09/04 A3023 90 73 -500 350/04 RMK AO2 T00890044
03949KAQV AQV20191222094511012/22/19 09:45:31  5-MIN KAQV 221545Z AUTO VRB04KT 10SM BKN047 09/04 A3023 90 73 -500 VRB/04 RMK AO2 T00890044
03949KAQV AQV20191222095011012/22/19 09:50:31  5-MIN KAQV 221550Z AUTO VRB03KT 10SM BKN047 09/05 A3023 90 74 -500 VRB/03 RMK AO2 T00940050
03949KAQV AQV20191222095510712/22/19 09:55:31  5-MIN KAQV 221555Z AUTO 10SM SCT047 10/05 A3023 90 71 -400 M /M RMK AO2 SLP237 T01000050
03949KAQV AQV20191222100011112/22/19 10:00:31  5-MIN KAQV 221600Z AUTO VRB04KT 10SM FEW047 11/05 A3022 100 68 -300 VRB/04 RMK AO2 T01060050
03949KAQV AQV20191222100511812/22/19 10:05:31  5-MIN KAQV 221605Z AUTO VRB04KT 10SM FEW017 SCT047 11/05 A3022 100 68 -300 VRB/04 RMK AO2 T01060050
03949KAQV AQV20191222101011812/22/19 10:10:31  5-MIN KAQV 221610Z AUTO 36007KT 10SM FEW017 FEW047 11/05 A3022 100 68 -300 360/07 RMK AO2 T01060050
03949KAQV AQV20191222101511112/22/19 10:15:31  5-MIN KAQV 221615Z AUTO VRB05KT 10SM FEW017 11/05 A3022 100 68 -300 VRB/05 RMK AO2 T01060050
03949KAQV AQV20191222102011112/22/19 10:20:31  5-MIN KAQV 221620Z AUTO 36006KT 10SM FEW017 11/06 A3022 100 68 -200 360/06 RMK AO2 T01110056
03949KAQV AQV20191222102511112/22/19 10:25:31  5-MIN KAQV 221625Z AUTO 01006KT 10SM FEW017 11/05 A3022 100 66 -200 010/06 RMK AO2 T01110050
03949KAQV AQV20191222103011112/22/19 10:30:31  5-MIN KAQV 221630Z AUTO 01008KT 10SM FEW019 12/06 A3022 100 66 -200 360/08 RMK AO2 T01170056
03949KAQV AQV20191222103511112/22/19 10:35:31  5-MIN KAQV 221635Z AUTO VRB04KT 10SM FEW019 11/06 A3021 110 68 -200 VRB/04 RMK AO2 T01110056
03949KAQV AQV20191222104011112/22/19 10:40:31  5-MIN KAQV 221640Z AUTO 33006KT 10SM FEW019 12/06 A3021 110 66 -200 320/06 RMK AO2 T01170056
03949KAQV AQV20191222104511112/22/19 10:45:31  5-MIN KAQV 221645Z AUTO VRB05KT 10SM FEW020 12/06 A3021 110 66 -200 VRB/05 RMK AO2 T01170056
03949KAQV AQV20191222105011812/22/19 10:50:31  5-MIN KAQV 221650Z AUTO VRB04KT 10SM FEW020 FEW050 12/06 A3021 110 63 -100 VRB/04 RMK AO2 T01220056
03949KAQV AQV20191222105512512/22/19 10:55:31  5-MIN KAQV 221655Z AUTO VRB04KT 10SM FEW020 FEW050 12/06 A3020 120 63 -100 VRB/04 RMK AO2 SLP228 T01220056
03949KAQV AQV20191222110011112/22/19 11:00:31  5-MIN KAQV 221700Z AUTO VRB05KT 10SM FEW050 12/06 A3020 120 63 -100 VRB/05 RMK AO2 T01220056
03949KAQV AQV20191222110510812/22/19 11:05:31  5-MIN KAQV 221705Z AUTO VRB06KT 10SM FEW050 13/06 A3020 120 61 0 VRB/06 RMK AO2 T01280056
03949KAQV AQV20191222111010812/22/19 11:10:31  5-MIN KAQV 221710Z AUTO VRB05KT 10SM FEW050 13/06 A3019 130 61 0 VRB/05 RMK AO2 T01280056
03949KAQV AQV20191222111510812/22/19 11:15:31  5-MIN KAQV 221715Z AUTO VRB05KT 10SM FEW050 13/06 A3019 130 61 0 VRB/05 RMK AO2 T01330061
03949KAQV AQV20191222112012112/22/19 11:20:31  5-MIN KAQV 221720Z AUTO 34007KT 290V030 10SM CLR 13/06 A3019 130 61 0 340/07 290V030 RMK AO2 T01280056
03949KAQV AQV20191222112510812/22/19 11:25:31  5-MIN KAQV 221725Z AUTO VRB05KT 10SM FEW060 13/06 A3019 130 61 0 VRB/05 RMK AO2 T01330061
03949KAQV AQV20191222113010812/22/19 11:30:31  5-MIN KAQV 221730Z AUTO VRB06KT 10SM FEW060 13/06 A3018 140 61 0 VRB/06 RMK AO2 T01330061
03949KAQV AQV20191222113511512/22/19 11:35:31  5-MIN KAQV 221735Z AUTO VRB06KT 10SM FEW024 FEW060 13/06 A3018 140 61 0 VRB/06 RMK AO2 T01280056
03949KAQV AQV20191222114010812/22/19 11:40:31  5-MIN KAQV 221740Z AUTO VRB04KT 10SM FEW060 13/06 A3017 150 61 0 VRB/04 RMK AO2 T01280056
03949KAQV AQV20191222114510812/22/19 11:45:31  5-MIN KAQV 221745Z AUTO 00000KT 10SM FEW060 13/06 A3017 150 61 0 000/00 RMK AO2 T01330061
03949KAQV AQV20191222115010812/22/19 11:50:31  5-MIN KAQV 221750Z AUTO 00000KT 10SM FEW060 13/06 A3016 150 61 0 000/00 RMK AO2 T01330061
03949KAQV AQV20191222115513212/22/19 11:55:31  5-MIN KAQV 221755Z AUTO 31004KT 10SM CLR 14/06 A3016 160 59 100 310/04 RMK AO2 SLP213 T01390061 10139 20067 51009
03949KAQV AQV20191222120010712/22/19 12:00:31  5-MIN KAQV 221800Z AUTO VRB03KT 10SM CLR 14/06 A3015 160 59 100 VRB/03 RMK AO2 T01390061
03949KAQV AQV20191222120510712/22/19 12:05:31  5-MIN KAQV 221805Z AUTO 36008KT 10SM CLR 14/06 A3015 160 59 100 350/08 RMK AO2 T01390061
03949KAQV AQV20191222121010712/22/19 12:10:31  5-MIN KAQV 221810Z AUTO VRB04KT 10SM CLR 14/06 A3015 160 59 100 VRB/04 RMK AO2 T01390061
03949KAQV AQV20191222121510712/22/19 12:15:31  5-MIN KAQV 221815Z AUTO VRB05KT 10SM CLR 14/06 A3015 170 59 100 VRB/05 RMK AO2 T01390061
03949KAQV AQV20191222122010712/22/19 12:20:31  5-MIN KAQV 221820Z AUTO VRB05KT 10SM CLR 14/06 A3015 170 57 200 VRB/05 RMK AO2 T01440061
03949KAQV AQV20191222122510712/22/19 12:25:31  5-MIN KAQV 221825Z AUTO VRB05KT 10SM CLR 14/06 A3014 170 59 100 VRB/05 RMK AO2 T01390061
03949KAQV AQV20191222123010712/22/19 12:30:31  5-MIN KAQV 221830Z AUTO 36007KT 10SM CLR 14/06 A3014 180 57 200 360/07 RMK AO2 T01440061
03949KAQV AQV20191222123511012/22/19 12:35:31  5-MIN KAQV 221835Z AUTO VRB03KT 10SM SCT055 14/06 A3014 180 57 200 VRB/03 RMK AO2 T01440061
03949KAQV AQV20191222124010012/22/19 12:40:31  5-MIN KAQV 221840Z AUTO 10SM SCT055 14/06 A3013 180 57 100 M /M RMK AO2 T01390056
03949KAQV AQV20191222124511012/22/19 12:45:31  5-MIN KAQV 221845Z AUTO VRB04KT 10SM FEW055 14/06 A3013 190 57 200 VRB/04 RMK AO2 T01440061
03949KAQV AQV20191222125011012/22/19 12:50:31  5-MIN KAQV 221850Z AUTO VRB03KT 10SM FEW055 15/06 A3013 190 55 300 VRB/03 RMK AO2 T01500061
03949KAQV AQV20191222125510712/22/19 12:55:31  5-MIN KAQV 221855Z AUTO 10SM FEW055 15/06 A3012 190 55 300 M /M RMK AO2 SLP200 T01500061
03949KAQV AQV20191222130011012/22/19 13:00:31  5-MIN KAQV 221900Z AUTO VRB06KT 10SM FEW055 16/06 A3012 190 53 300 VRB/06 RMK AO2 T01560061
03949KAQV AQV20191222130510712/22/19 13:05:31  5-MIN KAQV 221905Z AUTO VRB06KT 10SM CLR 16/06 A3012 200 53 300 VRB/06 RMK AO2 T01560061
03949KAQV AQV20191222131011012/22/19 13:10:31  5-MIN KAQV 221910Z AUTO VRB05KT 10SM FEW048 15/06 A3012 200 55 300 VRB/05 RMK AO2 T01500061
03949KAQV AQV20191222131511012/22/19 13:15:31  5-MIN KAQV 221915Z AUTO 36008KT 10SM SCT046 14/06 A3012 200 55 200 360/08 RMK AO2 T01440056
03949KAQV AQV20191222132011012/22/19 13:20:31  5-MIN KAQV 221920Z AUTO 00000KT 10SM BKN046 14/06 A3011 200 59 200 000/00 RMK AO2 T01390061
03949KAQV AQV20191222132510012/22/19 13:25:31  5-MIN KAQV 221925Z AUTO 10SM BKN046 14/06 A3012 200 59 100 M /M RMK AO2 T01390061
03949KAQV AQV20191222133011012/22/19 13:30:31  5-MIN KAQV 221930Z AUTO VRB06KT 10SM BKN046 14/06 A3011 200 59 200 VRB/06 RMK AO2 T01390061
03949KAQV AQV20191222133511712/22/19 13:35:31  5-MIN KAQV 221935Z AUTO VRB03KT 10SM BKN046 OVC060 14/06 A3011 200 59 200 VRB/03 RMK AO2 T01390061
03949KAQV AQV20191222134011712/22/19 13:40:31  5-MIN KAQV 221940Z AUTO VRB05KT 10SM BKN046 OVC055 13/06 A3011 200 61 100 VRB/05 RMK AO2 T01330061
03949KAQV AQV20191222134511712/22/19 13:45:31  5-MIN KAQV 221945Z AUTO VRB04KT 10SM BKN046 OVC055 14/06 A3011 200 59 200 VRB/04 RMK AO2 T01390061
03949KAQV AQV20191222135011712/22/19 13:50:31  5-MIN KAQV 221950Z AUTO VRB03KT 10SM BKN046 OVC055 14/06 A3011 200 59 200 VRB/03 RMK AO2 T01390061
03949KAQV AQV20191222135511412/22/19 13:55:31  5-MIN KAQV 221955Z AUTO 10SM BKN043 OVC050 14/06 A3011 200 59 200 M /M RMK AO2 SLP195 T01390061
03949KAQV AQV20191222140012412/22/19 14:00:31  5-MIN KAQV 222000Z AUTO 33005KT 10SM FEW035 BKN042 OVC050 13/06 A3011 200 61 100 330/05 RMK AO2 T01330061
03949KAQV AQV20191222140512412/22/19 14:05:31  5-MIN KAQV 222005Z AUTO 36007KT 10SM FEW035 BKN042 OVC050 13/06 A3011 210 61 100 360/07 RMK AO2 T01330061
03949KAQV AQV20191222141011012/22/19 14:10:31  5-MIN KAQV 222010Z AUTO 00000KT 10SM OVC042 14/06 A3010 210 59 200 000/00 RMK AO2 T01390061
03949KAQV AQV20191222141511012/22/19 14:15:31  5-MIN KAQV 222015Z AUTO 01004KT 10SM OVC042 14/06 A3010 210 59 200 360/04 RMK AO2 T01390061
03949KAQV AQV20191222142011012/22/19 14:20:31  5-MIN KAQV 222020Z AUTO 36007KT 10SM OVC042 13/06 A3010 210 61 100 360/07 RMK AO2 T01330061
03949KAQV AQV20191222142511012/22/19 14:25:31  5-MIN KAQV 222025Z AUTO VRB04KT 10SM OVC042 14/06 A3010 210 59 200 VRB/04 RMK AO2 T01390061
03949KAQV AQV20191222143011012/22/19 14:30:31  5-MIN KAQV 222030Z AUTO 35005KT 10SM OVC044 14/06 A3010 210 59 200 350/05 RMK AO2 T01390061
03949KAQV AQV20191222143511012/22/19 14:35:31  5-MIN KAQV 222035Z AUTO VRB03KT 10SM OVC044 13/06 A3009 220 59 100 VRB/03 RMK AO2 T01330056
03949KAQV AQV20191222144011012/22/19 14:40:31  5-MIN KAQV 222040Z AUTO 36005KT 10SM OVC044 14/06 A3010 210 57 200 360/05 RMK AO2 T01390056
03949KAQV AQV20191222144511012/22/19 14:45:31  5-MIN KAQV 222045Z AUTO VRB06KT 10SM OVC044 14/06 A3010 210 57 200 VRB/06 RMK AO2 T01390056
03949KAQV AQV20191222145011012/22/19 14:50:31  5-MIN KAQV 222050Z AUTO 36005KT 10SM OVC045 14/06 A3009 220 57 200 350/05 RMK AO2 T01390056
03949KAQV AQV20191222145513012/22/19 14:55:31  5-MIN KAQV 222055Z AUTO VRB03KT 10SM SCT038 OVC046 14/06 A3009 220 59 200 VRB/03 RMK AO2 SLP189 T01390061 58025
03949KAQV AQV20191222150011712/22/19 15:00:31  5-MIN KAQV 222100Z AUTO VRB03KT 10SM FEW038 OVC046 14/06 A3009 220 59 200 VRB/03 RMK AO2 T01390061
03949KAQV AQV20191222150511712/22/19 15:05:31  5-MIN KAQV 222105Z AUTO 00000KT 10SM FEW036 BKN046 14/06 A3009 220 59 200 000/00 RMK AO2 T01390061
03949KAQV AQV20191222151011712/22/19 15:10:31  5-MIN KAQV 222110Z AUTO 35003KT 10SM SCT038 BKN046 15/07 A3009 220 57 300 340/03 RMK AO2 T01500067
03949KAQV AQV20191222151511712/22/19 15:15:31  5-MIN KAQV 222115Z AUTO VRB03KT 10SM BKN038 BKN047 14/06 A3008 230 57 300 VRB/03 RMK AO2 T01440061
03949KAQV AQV20191222152011712/22/19 15:20:31  5-MIN KAQV 222120Z AUTO VRB05KT 10SM SCT038 BKN047 14/07 A3008 230 59 300 VRB/05 RMK AO2 T01440067
03949KAQV AQV20191222152511712/22/19 15:25:31  5-MIN KAQV 222125Z AUTO 01007KT 10SM SCT036 BKN047 15/07 A3009 220 57 300 360/07 RMK AO2 T01500067
03949KAQV AQV20191222153011012/22/19 15:30:31  5-MIN KAQV 222130Z AUTO VRB04KT 10SM BKN034 15/07 A3009 220 57 300 VRB/04 RMK AO2 T01500067
03949KAQV AQV20191222153510012/22/19 15:35:31  5-MIN KAQV 222135Z AUTO 10SM BKN034 15/07 A3009 220 57 300 M /M RMK AO2 T01500067
03949KAQV AQV20191222154011012/22/19 15:40:31  5-MIN KAQV 222140Z AUTO 01006KT 10SM BKN034 14/07 A3008 230 59 300 360/06 RMK AO2 T01440067
03949KAQV AQV20191222154511012/22/19 15:45:31  5-MIN KAQV 222145Z AUTO VRB05KT 10SM BKN034 14/07 A3009 220 59 200 VRB/05 RMK AO2 T01440067
03949KAQV AQV20191222155011012/22/19 15:50:31  5-MIN KAQV 222150Z AUTO VRB05KT 10SM BKN034 14/07 A3009 220 59 200 VRB/05 RMK AO2 T01440067
03949KAQV AQV20191222155511712/22/19 15:55:31  5-MIN KAQV 222155Z AUTO VRB04KT 10SM OVC036 14/07 A3009 220 59 200 VRB/04 RMK AO2 SLP189 T01440067
03949KAQV AQV20191222160011712/22/19 16:00:31  5-MIN KAQV 222200Z AUTO 35004KT 10SM BKN036 BKN045 14/06 A3009 220 57 200 350/04 RMK AO2 T01440061
03949KAQV AQV20191222160511712/22/19 16:05:31  5-MIN KAQV 222205Z AUTO VRB04KT 10SM BKN038 BKN045 15/07 A3009 220 57 300 VRB/04 RMK AO2 T01500067
03949KAQV AQV20191222161011012/22/19 16:10:31  5-MIN KAQV 222210Z AUTO VRB05KT 10SM OVC041 14/06 A3009 220 57 200 VRB/05 RMK AO2 T01440061
03949KAQV AQV20191222161511012/22/19 16:15:31  5-MIN KAQV 222215Z AUTO 36006KT 10SM OVC041 14/06 A3009 220 57 200 360/06 RMK AO2 T01440061
03949KAQV AQV20191222162011012/22/19 16:20:31  5-MIN KAQV 222220Z AUTO VRB04KT 10SM OVC041 14/06 A3009 220 57 200 VRB/04 RMK AO2 T01440061
03949KAQV AQV20191222162511712/22/19 16:25:31  5-MIN KAQV 222225Z AUTO 00000KT 10SM FEW031 OVC041 14/06 A3009 220 59 200 000/00 RMK AO2 T01390061
03949KAQV AQV20191222163010712/22/19 16:30:31  5-MIN KAQV 222230Z AUTO 10SM FEW031 OVC043 14/06 A3009 220 59 200 M /M RMK AO2 T01390061
03949KAQV AQV20191222163511712/22/19 16:35:31  5-MIN KAQV 222235Z AUTO VRB03KT 10SM FEW031 OVC043 14/06 A3009 220 57 200 VRB/03 RMK AO2 T01390056
03949KAQV AQV20191222164010712/22/19 16:40:31  5-MIN KAQV 222240Z AUTO 10SM FEW033 BKN043 14/05 A3009 220 55 200 M /M RMK AO2 T01390050
03949KAQV AQV20191222164511712/22/19 16:45:31  5-MIN KAQV 222245Z AUTO VRB04KT 10SM SCT034 BKN042 14/05 A3009 220 55 200 VRB/04 RMK AO2 T01390050
03949KAQV AQV20191222165011712/22/19 16:50:31  5-MIN KAQV 222250Z AUTO VRB04KT 10SM SCT034 BKN042 13/06 A3008 230 59 100 VRB/04 RMK AO2 T01330056
03949KAQV AQV20191222165512412/22/19 16:55:31  5-MIN KAQV 222255Z AUTO 00000KT 10SM FEW034 BKN042 13/06 A3008 230 59 100 000/00 RMK AO2 SLP187 T01330056
03949KAQV AQV20191222170010012/22/19 17:00:31  5-MIN KAQV 222300Z AUTO 10SM SCT038 13/05 A3008 230 59 100 M /M RMK AO2 T01280050
03949KAQV AQV20191222170511012/22/19 17:05:31  5-MIN KAQV 222305Z AUTO VRB03KT 10SM FEW035 13/05 A3008 230 59 100 VRB/03 RMK AO2 T01280050
03949KAQV AQV20191222171011012/22/19 17:10:31  5-MIN KAQV 222310Z AUTO VRB03KT 10SM FEW035 13/06 A3008 230 61 100 VRB/03 RMK AO2 T01280056
03949KAQV AQV20191222171510712/22/19 17:15:31  5-MIN KAQV 222315Z AUTO 00000KT 10SM CLR 13/05 A3008 230 59 100 000/00 RMK AO2 T01280050
03949KAQV AQV20191222172010812/22/19 17:20:31  5-MIN KAQV 222320Z AUTO 00000KT 10SM FEW050 12/05 A3008 230 61 0 000/00 RMK AO2 T01220050
03949KAQV AQV20191222172510812/22/19 17:25:31  5-MIN KAQV 222325Z AUTO VRB03KT 10SM FEW050 12/05 A3008 230 61 0 VRB/03 RMK AO2 T01220050
03949KAQV AQV20191222173010812/22/19 17:30:31  5-MIN KAQV 222330Z AUTO 00000KT 10SM SCT085 12/05 A3008 230 61 0 000/00 RMK AO2 T01220050
03949KAQV AQV20191222173511512/22/19 17:35:31  5-MIN KAQV 222335Z AUTO VRB03KT 10SM FEW049 BKN090 12/05 A3008 220 61 0 VRB/03 RMK AO2 T01220050
03949KAQV AQV20191222174011512/22/19 17:40:31  5-MIN KAQV 222340Z AUTO 00000KT 10SM FEW049 BKN090 12/05 A3008 230 63 0 000/00 RMK AO2 T01170050
03949KAQV AQV20191222174510812/22/19 17:45:31  5-MIN KAQV 222345Z AUTO VRB03KT 10SM SCT085 12/05 A3008 230 63 0 VRB/03 RMK AO2 T01170050
03949KAQV AQV20191222175010812/22/19 17:50:31  5-MIN KAQV 222350Z AUTO 00000KT 10SM SCT085 12/05 A3008 230 63 0 000/00 RMK AO2 T01170050
03949KAQV AQV20191222175513612/22/19 17:55:31  5-MIN KAQV 222355Z AUTO 00000KT 10SM SCT090 11/05 A3009 220 66 -100 000/00 RMK AO2 SLP190 T01110050 10156 20111 56023
03949KAQV AQV20191222180011112/22/19 18:00:31  5-MIN KAQV 230000Z AUTO 00000KT 10SM FEW090 11/05 A3009 220 66 -100 000/00 RMK AO2 T01110050
03949KAQV AQV20191222180511112/22/19 18:05:31  5-MIN KAQV 230005Z AUTO 00000KT 10SM FEW085 11/05 A3009 220 66 -100 000/00 RMK AO2 T01110050
03949KAQV AQV20191222181010812/22/19 18:10:31  5-MIN KAQV 230010Z AUTO 00000KT 10SM CLR 11/05 A3009 220 66 -100 000/00 RMK AO2 T01110050
03949KAQV AQV20191222181510812/22/19 18:15:31  5-MIN KAQV 230015Z AUTO 00000KT 10SM CLR 11/05 A3009 220 68 -200 000/00 RMK AO2 T01060050
03949KAQV AQV20191222182010812/22/19 18:20:31  5-MIN KAQV 230020Z AUTO VRB03KT 10SM CLR 11/05 A3009 220 66 -100 VRB/03 RMK AO2 T01110050
03949KAQV AQV20191222182510812/22/19 18:25:31  5-MIN KAQV 230025Z AUTO 00000KT 10SM CLR 11/05 A3009 220 68 -200 000/00 RMK AO2 T01060050
03949KAQV AQV20191222183010812/22/19 18:30:31  5-MIN KAQV 230030Z AUTO 00000KT 10SM CLR 11/05 A3009 220 68 -200 000/00 RMK AO2 T01060050
03949KAQV AQV20191222183510812/22/19 18:35:31  5-MIN KAQV 230035Z AUTO 00000KT 10SM CLR 11/05 A3009 220 68 -200 000/00 RMK AO2 T01060050
03949KAQV AQV20191222184011112/22/19 18:40:31  5-MIN KAQV 230040Z AUTO VRB03KT 10SM FEW040 11/05 A3009 220 68 -200 VRB/03 RMK AO2 T01060050
03949KAQV AQV20191222184511112/22/19 18:45:31  5-MIN KAQV 230045Z AUTO 00000KT 10SM SCT040 11/06 A3009 220 71 -200 000/00 RMK AO2 T01060056
03949KAQV AQV20191222185011112/22/19 18:50:31  5-MIN KAQV 230050Z AUTO VRB03KT 10SM BKN038 11/05 A3009 220 68 -200 VRB/03 RMK AO2 T01060050
03949KAQV AQV20191222185511812/22/19 18:55:31  5-MIN KAQV 230055Z AUTO 00000KT 10SM BKN038 11/05 A3009 220 68 -200 000/00 RMK AO2 SLP191 T01060050
03949KAQV AQV20191222190011112/22/19 19:00:31  5-MIN KAQV 230100Z AUTO 00000KT 10SM BKN036 11/05 A3009 220 68 -200 000/00 RMK AO2 T01060050
03949KAQV AQV20191222190511812/22/19 19:05:31  5-MIN KAQV 230105Z AUTO VRB03KT 10SM BKN032 OVC039 11/05 A3009 220 68 -200 VRB/03 RMK AO2 T01060050
03949KAQV AQV20191222191011812/22/19 19:10:31  5-MIN KAQV 230110Z AUTO VRB03KT 10SM BKN032 OVC039 11/05 A3009 220 68 -200 VRB/03 RMK AO2 T01060050
03949KAQV AQV20191222191511112/22/19 19:15:31  5-MIN KAQV 230115Z AUTO 36003KT 10SM BKN032 11/05 A3009 220 68 -200 350/03 RMK AO2 T01060050
03949KAQV AQV20191222192011112/22/19 19:20:31  5-MIN KAQV 230120Z AUTO 35003KT 10SM SCT032 11/05 A3010 210 68 -200 350/03 RMK AO2 T01060050
03949KAQV AQV20191222192511112/22/19 19:25:31  5-MIN KAQV 230125Z AUTO VRB03KT 10SM SCT032 11/05 A3010 210 68 -200 VRB/03 RMK AO2 T01060050
03949KAQV AQV20191222193011112/22/19 19:30:31  5-MIN KAQV 230130Z AUTO VRB03KT 10SM FEW032 11/05 A3009 220 68 -200 VRB/03 RMK AO2 T01060050
03949KAQV AQV20191222193511112/22/19 19:35:31  5-MIN KAQV 230135Z AUTO VRB03KT 10SM FEW031 11/05 A3009 220 68 -200 VRB/03 RMK AO2 T01060050
03949KAQV AQV20191222194010812/22/19 19:40:31  5-MIN KAQV 230140Z AUTO VRB03KT 10SM CLR 11/04 A3009 220 66 -200 VRB/03 RMK AO2 T01060044
03949KAQV AQV20191222194511112/22/19 19:45:31  5-MIN KAQV 230145Z AUTO 00000KT 10SM FEW090 11/05 A3010 210 68 -200 000/00 RMK AO2 T01060050
03949KAQV AQV20191222195011112/22/19 19:50:31  5-MIN KAQV 230150Z AUTO 00000KT 10SM SCT090 10/05 A3010 210 71 -200 000/00 RMK AO2 T01000050
03949KAQV AQV20191222195511812/22/19 19:55:31  5-MIN KAQV 230155Z AUTO 00000KT 10SM BKN090 10/05 A3010 210 71 -200 000/00 RMK AO2 SLP193 T01000050
03949KAQV AQV20191222200011112/22/19 20:00:31  5-MIN KAQV 230200Z AUTO 00000KT 10SM BKN090 10/05 A3010 210 71 -200 000/00 RMK AO2 T01000050
03949KAQV AQV20191222200511112/22/19 20:05:31  5-MIN KAQV 230205Z AUTO 00000KT 10SM BKN090 10/05 A3010 210 71 -200 000/00 RMK AO2 T01000050
03949KAQV AQV20191222201011112/22/19 20:10:31  5-MIN KAQV 230210Z AUTO 00000KT 10SM BKN090 10/05 A3010 210 71 -200 000/00 RMK AO2 T01000050
03949KAQV AQV20191222201511112/22/19 20:15:31  5-MIN KAQV 230215Z AUTO 00000KT 10SM BKN090 10/05 A3009 220 71 -200 000/00 RMK AO2 T01000050
03949KAQV AQV20191222202011812/22/19 20:20:31  5-MIN KAQV 230220Z AUTO VRB03KT 10SM BKN090 OVC120 10/05 A3009 220 71 -200 VRB/03 RMK AO2 T01000050
03949KAQV AQV20191222202511812/22/19 20:25:31  5-MIN KAQV 230225Z AUTO 00000KT 10SM BKN090 OVC120 10/05 A3009 220 71 -200 000/00 RMK AO2 T01000050
03949KAQV AQV20191222203011812/22/19 20:30:31  5-MIN KAQV 230230Z AUTO VRB03KT 10SM BKN090 BKN120 10/04 A3009 220 68 -200 VRB/03 RMK AO2 T01000044
03949KAQV AQV20191222203511812/22/19 20:35:31  5-MIN KAQV 230235Z AUTO VRB03KT 10SM SCT090 SCT120 09/04 A3009 220 71 -300 VRB/03 RMK AO2 T00940044
03949KAQV AQV20191222204011812/22/19 20:40:31  5-MIN KAQV 230240Z AUTO VRB03KT 10SM SCT090 SCT120 09/04 A3009 220 71 -300 VRB/03 RMK AO2 T00940044
03949KAQV AQV20191222204511812/22/19 20:45:31  5-MIN KAQV 230245Z AUTO 00000KT 10SM FEW085 SCT120 09/04 A3009 220 71 -300 000/00 RMK AO2 T00940044
03949KAQV AQV20191222205011812/22/19 20:50:31  5-MIN KAQV 230250Z AUTO 34004KT 10SM FEW085 SCT120 09/04 A3009 220 71 -300 340/04 RMK AO2 T00940044
03949KAQV AQV20191222205512412/22/19 20:55:31  5-MIN KAQV 230255Z AUTO VRB03KT 10SM SCT120 10/04 A3009 220 68 -200 VRB/03 RMK AO2 SLP191 T01000044 53000
03949KAQV AQV20191222210011112/22/19 21:00:31  5-MIN KAQV 230300Z AUTO 35004KT 10SM SCT120 09/04 A3009 220 71 -300 350/04 RMK AO2 T00940044
03949KAQV AQV20191222210511112/22/19 21:05:31  5-MIN KAQV 230305Z AUTO VRB04KT 10SM SCT120 09/04 A3009 220 71 -300 VRB/04 RMK AO2 T00940044
03949KAQV AQV20191222211011112/22/19 21:10:31  5-MIN KAQV 230310Z AUTO VRB03KT 10SM FEW120 09/04 A3009 220 71 -300 VRB/03 RMK AO2 T00940044
03949KAQV AQV20191222211511112/22/19 21:15:31  5-MIN KAQV 230315Z AUTO VRB03KT 10SM FEW120 09/04 A3009 220 71 -300 VRB/03 RMK AO2 T00940044
03949KAQV AQV20191222212011112/22/19 21:20:31  5-MIN KAQV 230320Z AUTO 00000KT 10SM FEW120 09/04 A3009 220 71 -300 000/00 RMK AO2 T00940044
03949KAQV AQV20191222212511112/22/19 21:25:31  5-MIN KAQV 230325Z AUTO VRB03KT 10SM FEW120 09/04 A3009 220 71 -300 VRB/03 RMK AO2 T00940044
03949KAQV AQV20191222213010812/22/19 21:30:31  5-MIN KAQV 230330Z AUTO 00000KT 10SM CLR 09/04 A3009 220 71 -300 000/00 RMK AO2 T00940044
03949KAQV AQV20191222213510812/22/19 21:35:31  5-MIN KAQV 230335Z AUTO 00000KT 10SM CLR 09/04 A3009 220 73 -400 000/00 RMK AO2 T00890044
03949KAQV AQV20191222214010812/22/19 21:40:31  5-MIN KAQV 230340Z AUTO 00000KT 10SM CLR 09/04 A3009 220 73 -400 000/00 RMK AO2 T00890044
03949KAQV AQV20191222214510812/22/19 21:45:31  5-MIN KAQV 230345Z AUTO 00000KT 10SM CLR 09/04 A3009 220 73 -400 000/00 RMK AO2 T00890044
03949KAQV AQV20191222215010812/22/19 21:50:31  5-MIN KAQV 230350Z AUTO VRB03KT 10SM CLR 09/04 A3009 220 73 -400 VRB/03 RMK AO2 T00890044
03949KAQV AQV20191222215511512/22/19 21:55:31  5-MIN KAQV 230355Z AUTO 00000KT 10SM CLR 09/04 A3008 230 73 -400 000/00 RMK AO2 SLP188 T00890044
03949KAQV AQV20191222220010812/22/19 22:00:31  5-MIN KAQV 230400Z AUTO VRB03KT 10SM CLR 09/04 A3008 230 73 -400 VRB/03 RMK AO2 T00890044
03949KAQV AQV20191222220510812/22/19 22:05:31  5-MIN KAQV 230405Z AUTO 00000KT 10SM CLR 09/04 A3008 230 73 -400 000/00 RMK AO2 T00890044
03949KAQV AQV20191222221010812/22/19 22:10:31  5-MIN KAQV 230410Z AUTO 00000KT 10SM CLR 09/04 A3008 230 73 -400 000/00 RMK AO2 T00890044
03949KAQV AQV20191222221510812/22/19 22:15:31  5-MIN KAQV 230415Z AUTO VRB03KT 10SM CLR 09/04 A3008 230 73 -400 VRB/03 RMK AO2 T00890044
03949KAQV AQV20191222222010812/22/19 22:20:31  5-MIN KAQV 230420Z AUTO VRB03KT 10SM CLR 09/04 A3008 230 73 -400 VRB/03 RMK AO2 T00890044
03949KAQV AQV20191222222510812/22/19 22:25:31  5-MIN KAQV 230425Z AUTO VRB03KT 10SM CLR 09/04 A3008 230 73 -400 VRB/03 RMK AO2 T00890044
03949KAQV AQV20191222223010812/22/19 22:30:31  5-MIN KAQV 230430Z AUTO VRB03KT 10SM CLR 09/04 A3008 230 71 -400 VRB/03 RMK AO2 T00890039
03949KAQV AQV20191222223510812/22/19 22:35:31  5-MIN KAQV 230435Z AUTO 00000KT 10SM CLR 09/04 A3008 230 71 -400 000/00 RMK AO2 T00890039
03949KAQV AQV20191222224010812/22/19 22:40:31  5-MIN KAQV 230440Z AUTO VRB05KT 10SM CLR 09/04 A3008 230 71 -400 VRB/05 RMK AO2 T00890039
03949KAQV AQV20191222224510812/22/19 22:45:31  5-MIN KAQV 230445Z AUTO VRB03KT 10SM CLR 09/04 A3008 220 68 -300 VRB/03 RMK AO2 T00940039
03949KAQV AQV20191222225009812/22/19 22:50:31  5-MIN KAQV 230450Z AUTO 10SM CLR 09/04 A3008 220 68 -300 M /M RMK AO2 T00940039
03949KAQV AQV20191222225511512/22/19 22:55:31  5-MIN KAQV 230455Z AUTO VRB03KT 10SM CLR 09/04 A3009 220 71 -400 VRB/03 RMK AO2 SLP189 T00890039
03949KAQV AQV20191222230010812/22/19 23:00:31  5-MIN KAQV 230500Z AUTO VRB03KT 10SM CLR 09/04 A3009 220 71 -400 VRB/03 RMK AO2 T00890039
03949KAQV AQV20191222230511112/22/19 23:05:31  5-MIN KAQV 230505Z AUTO VRB03KT 10SM FEW027 09/04 A3009 220 71 -400 VRB/03 RMK AO2 T00890039
03949KAQV AQV20191222231011112/22/19 23:10:31  5-MIN KAQV 230510Z AUTO 34003KT 10SM SCT027 09/04 A3008 220 71 -400 340/03 RMK AO2 T00890039
03949KAQV AQV20191222231511112/22/19 23:15:31  5-MIN KAQV 230515Z AUTO 00000KT 10SM BKN028 09/04 A3008 230 68 -300 000/00 RMK AO2 T00940039
03949KAQV AQV20191222232011112/22/19 23:20:31  5-MIN KAQV 230520Z AUTO 00000KT 10SM BKN028 09/04 A3008 230 68 -300 000/00 RMK AO2 T00940039
03949KAQV AQV20191222232511112/22/19 23:25:31  5-MIN KAQV 230525Z AUTO VRB03KT 10SM BKN028 09/04 A3008 230 68 -300 VRB/03 RMK AO2 T00940039
03949KAQV AQV20191222233011112/22/19 23:30:31  5-MIN KAQV 230530Z AUTO 00000KT 10SM OVC028 09/04 A3008 230 68 -300 000/00 RMK AO2 T00940039
03949KAQV AQV20191222233511112/22/19 23:35:31  5-MIN KAQV 230535Z AUTO 00000KT 10SM OVC028 09/04 A3008 230 68 -300 000/00 RMK AO2 T00940039
03949KAQV AQV20191222234011112/22/19 23:40:31  5-MIN KAQV 230540Z AUTO VRB04KT 10SM OVC028 09/04 A3008 230 68 -300 VRB/04 RMK AO2 T00940039
03949KAQV AQV20191222234511112/22/19 23:45:31  5-MIN KAQV 230545Z AUTO VRB03KT 10SM OVC028 09/04 A3007 230 68 -300 VRB/03 RMK AO2 T00940039
03949KAQV AQV20191222235011112/22/19 23:50:31  5-MIN KAQV 230550Z AUTO 00000KT 10SM OVC028 09/04 A3007 240 68 -300 000/00 RMK AO2 T00940039
03949KAQV AQV20191222235514612/22/19 23:55:31  5-MIN KAQV 230555Z AUTO 00000KT 10SM OVC028 09/04 A3007 240 68 -300 000/00 RMK AO2 SLP183 T00940039 10111 20083 401560050 50001
03949KAQV AQV20191223000011112/23/19 00:00:31  5-MIN KAQV 230600Z AUTO VRB03KT 10SM OVC027 09/04 A3007 240 68 -300 VRB/03 RMK AO2 T00940039
03949KAQV AQV20191223000511112/23/19 00:05:31  5-MIN KAQV 230605Z AUTO VRB03KT 10SM BKN027 09/04 A3007 240 68 -300 VRB/03 RMK AO2 T00940039
03949KAQV AQV20191223001011112/23/19 00:10:31  5-MIN KAQV 230610Z AUTO VRB04KT 10SM BKN027 09/04 A3006 240 71 -300 VRB/04 RMK AO2 T00890039
03949KAQV AQV20191223001511112/23/19 00:15:31  5-MIN KAQV 230615Z AUTO VRB03KT 10SM SCT026 09/03 A3006 240 65 -300 VRB/03 RMK AO2 T00940033
03949KAQV AQV20191223002011112/23/19 00:20:31  5-MIN KAQV 230620Z AUTO VRB03KT 10SM FEW026 09/03 A3006 250 65 -300 VRB/03 RMK AO2 T00940033
03949KAQV AQV20191223002511112/23/19 00:25:31  5-MIN KAQV 230625Z AUTO VRB03KT 10SM FEW024 09/03 A3006 250 65 -300 VRB/03 RMK AO2 T00940033
03949KAQV AQV20191223003010812/23/19 00:30:31  5-MIN KAQV 230630Z AUTO VRB03KT 10SM CLR 09/03 A3006 250 65 -300 VRB/03 RMK AO2 T00940033
03949KAQV AQV20191223003510812/23/19 00:35:31  5-MIN KAQV 230635Z AUTO VRB03KT 10SM CLR 09/03 A3006 250 68 -300 VRB/03 RMK AO2 T00890033
03949KAQV AQV20191223004010812/23/19 00:40:31  5-MIN KAQV 230640Z AUTO VRB03KT 10SM CLR 09/03 A3006 250 68 -300 VRB/03 RMK AO2 T00890033
03949KAQV AQV20191223004510812/23/19 00:45:31  5-MIN KAQV 230645Z AUTO 00000KT 10SM CLR 09/03 A3006 250 68 -300 000/00 RMK AO2 T00890033
03949KAQV AQV20191223005010812/23/19 00:50:31  5-MIN KAQV 230650Z AUTO VRB03KT 10SM CLR 09/03 A3006 250 68 -300 VRB/03 RMK AO2 T00890033
03949KAQV AQV20191223005511512/23/19 00:55:31  5-MIN KAQV 230655Z AUTO VRB03KT 10SM CLR 09/03 A3006 250 68 -300 VRB/03 RMK AO2 SLP178 T00890033
03949KAQV AQV20191223010010812/23/19 01:00:31  5-MIN KAQV 230700Z AUTO VRB03KT 10SM CLR 09/03 A3005 250 68 -300 VRB/03 RMK AO2 T00890033
03949KAQV AQV20191223010510812/23/19 01:05:31  5-MIN KAQV 230705Z AUTO VRB03KT 10SM CLR 09/03 A3005 250 68 -300 VRB/03 RMK AO2 T00890033
03949KAQV AQV20191223011010812/23/19 01:10:31  5-MIN KAQV 230710Z AUTO VRB03KT 10SM CLR 09/03 A3005 260 68 -300 VRB/03 RMK AO2 T00890033
03949KAQV AQV20191223011509812/23/19 01:15:31  5-MIN KAQV 230715Z AUTO 10SM CLR 09/03 A3005 250 68 -300 M /M RMK AO2 T00890033
03949KAQV AQV20191223012010812/23/19 01:20:31  5-MIN KAQV 230720Z AUTO 34003KT 10SM CLR 09/03 A3005 250 63 -300 330/03 RMK AO2 T00940028
03949KAQV AQV20191223012510812/23/19 01:25:31  5-MIN KAQV 230725Z AUTO VRB04KT 10SM CLR 09/03 A3006 250 65 -300 VRB/04 RMK AO2 T00890028
03949KAQV AQV20191223013010812/23/19 01:30:31  5-MIN KAQV 230730Z AUTO 34004KT 10SM CLR 09/03 A3006 250 63 -300 340/04 RMK AO2 T00940028
03949KAQV AQV20191223013510812/23/19 01:35:31  5-MIN KAQV 230735Z AUTO VRB03KT 10SM CLR 09/03 A3005 250 65 -300 VRB/03 RMK AO2 T00890028
03949KAQV AQV20191223014010812/23/19 01:40:31  5-MIN KAQV 230740Z AUTO VRB03KT 10SM CLR 09/03 A3005 250 65 -300 VRB/03 RMK AO2 T00890028
03949KAQV AQV20191223014510812/23/19 01:45:31  5-MIN KAQV 230745Z AUTO VRB03KT 10SM CLR 09/03 A3005 250 65 -300 VRB/03 RMK AO2 T00890028
03949KAQV AQV20191223015010812/23/19 01:50:31  5-MIN KAQV 230750Z AUTO VRB03KT 10SM CLR 09/03 A3005 250 68 -300 VRB/03 RMK AO2 T00890033
03949KAQV AQV20191223015511512/23/19 01:55:31  5-MIN KAQV 230755Z AUTO VRB03KT 10SM CLR 09/03 A3005 250 68 -300 VRB/03 RMK AO2 SLP177 T00890033
03949KAQV AQV20191223020010812/23/19 02:00:31  5-MIN KAQV 230800Z AUTO VRB03KT 10SM CLR 09/03 A3005 260 68 -300 VRB/03 RMK AO2 T00890033
03949KAQV AQV20191223020510812/23/19 02:05:31  5-MIN KAQV 230805Z AUTO VRB04KT 10SM CLR 09/03 A3005 260 68 -300 VRB/04 RMK AO2 T00890033
03949KAQV AQV20191223021010812/23/19 02:10:31  5-MIN KAQV 230810Z AUTO 34005KT 10SM CLR 09/03 A3005 260 68 -300 340/05 RMK AO2 T00890033
03949KAQV AQV20191223021510812/23/19 02:15:31  5-MIN KAQV 230815Z AUTO VRB03KT 10SM CLR 09/03 A3005 260 68 -300 VRB/03 RMK AO2 T00890033
03949KAQV AQV20191223022010812/23/19 02:20:31  5-MIN KAQV 230820Z AUTO VRB03KT 10SM CLR 09/03 A3005 260 68 -300 VRB/03 RMK AO2 T00890033
03949KAQV AQV20191223022510812/23/19 02:25:31  5-MIN KAQV 230825Z AUTO 35004KT 10SM CLR 09/03 A3005 260 68 -300 340/04 RMK AO2 T00890033
03949KAQV AQV20191223023010812/23/19 02:30:31  5-MIN KAQV 230830Z AUTO VRB04KT 10SM CLR 09/03 A3004 260 68 -300 VRB/04 RMK AO2 T00890033
03949KAQV AQV20191223023510812/23/19 02:35:31  5-MIN KAQV 230835Z AUTO VRB03KT 10SM CLR 09/03 A3004 260 68 -300 VRB/03 RMK AO2 T00890033
03949KAQV AQV20191223024010812/23/19 02:40:31  5-MIN KAQV 230840Z AUTO VRB05KT 10SM CLR 09/03 A3004 260 68 -300 VRB/05 RMK AO2 T00890033
03949KAQV AQV20191223024510812/23/19 02:45:31  5-MIN KAQV 230845Z AUTO VRB04KT 10SM CLR 09/04 A3004 260 71 -300 VRB/04 RMK AO2 T00890039
03949KAQV AQV20191223025010812/23/19 02:50:31  5-MIN KAQV 230850Z AUTO 35003KT 10SM CLR 09/04 A3004 260 71 -300 340/03 RMK AO2 T00890039
03949KAQV AQV20191223025512112/23/19 02:55:31  5-MIN KAQV 230855Z AUTO 00000KT 10SM CLR 09/04 A3005 260 71 -300 000/00 RMK AO2 SLP175 T00890039 58007
03949KAQV AQV20191223030010812/23/19 03:00:31  5-MIN KAQV 230900Z AUTO VRB04KT 10SM CLR 09/04 A3005 260 71 -300 VRB/04 RMK AO2 T00890039
03949KAQV AQV20191223030510812/23/19 03:05:31  5-MIN KAQV 230905Z AUTO 36004KT 10SM CLR 09/04 A3005 260 71 -300 360/04 RMK AO2 T00890039
03949KAQV AQV20191223031010812/23/19 03:10:31  5-MIN KAQV 230910Z AUTO 36006KT 10SM CLR 09/04 A3005 260 71 -300 360/06 RMK AO2 T00890039
03949KAQV AQV20191223031510812/23/19 03:15:31  5-MIN KAQV 230915Z AUTO 36006KT 10SM CLR 09/04 A3005 260 71 -300 360/06 RMK AO2 T00890039
03949KAQV AQV20191223032010812/23/19 03:20:31  5-MIN KAQV 230920Z AUTO 36006KT 10SM CLR 09/04 A3005 260 73 -300 360/06 RMK AO2 T00890044
03949KAQV AQV20191223032512412/23/19 03:25:31  5-MIN KAQV 230925Z AUTO 36007KT 310V030 10SM CLR 09/04 A3005 260 73 -300 360/07 310V030 RMK AO2 T00890044
03949KAQV AQV20191223033010812/23/19 03:30:31  5-MIN KAQV 230930Z AUTO 36006KT 10SM CLR 09/04 A3005 260 73 -300 350/06 RMK AO2 T00890044
03949KAQV AQV20191223033510812/23/19 03:35:31  5-MIN KAQV 230935Z AUTO 36007KT 10SM CLR 09/04 A3005 260 73 -300 350/07 RMK AO2 T00890044
03949KAQV AQV20191223034010812/23/19 03:40:31  5-MIN KAQV 230940Z AUTO VRB05KT 10SM CLR 08/04 A3005 260 73 -400 VRB/05 RMK AO2 T00830039
03949KAQV AQV20191223034510812/23/19 03:45:31  5-MIN KAQV 230945Z AUTO 36006KT 10SM CLR 08/04 A3005 260 73 -400 360/06 RMK AO2 T00830039
03949KAQV AQV20191223035010812/23/19 03:50:31  5-MIN KAQV 230950Z AUTO 36004KT 10SM CLR 08/04 A3005 260 76 -400 350/04 RMK AO2 T00830044
03949KAQV AQV20191223035511512/23/19 03:55:31  5-MIN KAQV 230955Z AUTO 35004KT 10SM CLR 08/04 A3005 260 76 -400 350/04 RMK AO2 SLP176 T00830044
03949KAQV AQV20191223040010812/23/19 04:00:31  5-MIN KAQV 231000Z AUTO 35004KT 10SM CLR 08/04 A3005 260 76 -400 350/04 RMK AO2 T00830044
03949KAQV AQV20191223040510812/23/19 04:05:31  5-MIN KAQV 231005Z AUTO VRB03KT 10SM CLR 08/04 A3005 260 76 -400 VRB/03 RMK AO2 T00830044
03949KAQV AQV20191223041010812/23/19 04:10:31  5-MIN KAQV 231010Z AUTO VRB05KT 10SM CLR 08/04 A3005 260 76 -400 VRB/05 RMK AO2 T00830044
03949KAQV AQV20191223041510812/23/19 04:15:31  5-MIN KAQV 231015Z AUTO 35003KT 10SM CLR 08/04 A3005 260 76 -400 350/03 RMK AO2 T00830044
03949KAQV AQV20191223042010812/23/19 04:20:31  5-MIN KAQV 231020Z AUTO 00000KT 10SM CLR 08/04 A3005 260 76 -400 000/00 RMK AO2 T00830044
03949KAQV AQV20191223042510812/23/19 04:25:31  5-MIN KAQV 231025Z AUTO VRB03KT 10SM CLR 08/04 A3005 260 76 -400 VRB/03 RMK AO2 T00830044
03949KAQV AQV20191223043010812/23/19 04:30:31  5-MIN KAQV 231030Z AUTO VRB03KT 10SM CLR 08/04 A3005 250 76 -400 VRB/03 RMK AO2 T00830044
03949KAQV AQV20191223043510812/23/19 04:35:31  5-MIN KAQV 231035Z AUTO VRB03KT 10SM CLR 08/04 A3005 250 76 -400 VRB/03 RMK AO2 T00830044
03949KAQV AQV20191223044010812/23/19 04:40:31  5-MIN KAQV 231040Z AUTO VRB03KT 10SM CLR 08/04 A3005 250 76 -400 VRB/03 RMK AO2 T00830044
03949KAQV AQV20191223044510812/23/19 04:45:31  5-MIN KAQV 231045Z AUTO VRB03KT 10SM CLR 08/04 A3005 250 76 -400 VRB/03 RMK AO2 T00830044
03949KAQV AQV20191223045010812/23/19 04:50:31  5-MIN KAQV 231050Z AUTO VRB04KT 10SM CLR 08/04 A3005 250 76 -400 VRB/04 RMK AO2 T00830044
03949KAQV AQV20191223045511512/23/19 04:55:31  5-MIN KAQV 231055Z AUTO VRB05KT 10SM CLR 08/04 A3005 250 79 -500 VRB/05 RMK AO2 SLP177 T00780044
03949KAQV AQV20191223050010812/23/19 05:00:31  5-MIN KAQV 231100Z AUTO VRB06KT 10SM CLR 08/04 A3005 250 76 -400 VRB/06 RMK AO2 T00830044
03949KAQV AQV20191223050510812/23/19 05:05:31  5-MIN KAQV 231105Z AUTO 36007KT 10SM CLR 08/05 A3005 250 79 -400 350/07 RMK AO2 T00830050
03949KAQV AQV20191223051010812/23/19 05:10:31  5-MIN KAQV 231110Z AUTO VRB04KT 10SM CLR 08/05 A3005 250 79 -400 VRB/04 RMK AO2 T00830050
03949KAQV AQV20191223051509812/23/19 05:15:31  5-MIN KAQV 231115Z AUTO 10SM CLR 08/05 A3005 250 79 -400 M /M RMK AO2 T00830050
03949KAQV AQV20191223052010812/23/19 05:20:31  5-MIN KAQV 231120Z AUTO VRB05KT 10SM CLR 08/05 A3006 250 79 -400 VRB/05 RMK AO2 T00830050
03949KAQV AQV20191223052510812/23/19 05:25:31  5-MIN KAQV 231125Z AUTO VRB04KT 10SM CLR 08/05 A3006 250 79 -400 VRB/04 RMK AO2 T00830050
03949KAQV AQV20191223053010812/23/19 05:30:31  5-MIN KAQV 231130Z AUTO VRB04KT 10SM CLR 08/05 A3006 250 79 -400 VRB/04 RMK AO2 T00830050
03949KAQV AQV20191223053510812/23/19 05:35:31  5-MIN KAQV 231135Z AUTO 36004KT 10SM CLR 08/05 A3006 250 79 -400 350/04 RMK AO2 T00830050
03949KAQV AQV20191223054010812/23/19 05:40:31  5-MIN KAQV 231140Z AUTO VRB05KT 10SM CLR 08/05 A3006 250 79 -400 VRB/05 RMK AO2 T00830050
03949KAQV AQV20191223054510812/23/19 05:45:31  5-MIN KAQV 231145Z AUTO VRB04KT 10SM CLR 08/05 A3006 250 79 -400 VRB/04 RMK AO2 T00830050
03949KAQV AQV20191223055010812/23/19 05:50:31  5-MIN KAQV 231150Z AUTO VRB05KT 10SM CLR 08/05 A3006 250 79 -400 VRB/05 RMK AO2 T00830050
03949KAQV AQV20191223055513312/23/19 05:55:31  5-MIN KAQV 231155Z AUTO VRB04KT 10SM CLR 08/05 A3006 240 79 -400 VRB/04 RMK AO2 SLP181 T00830050 10094 20078 56008
03949KAQV AQV20191223060010812/23/19 06:00:31  5-MIN KAQV 231200Z AUTO 00000KT 10SM CLR 08/05 A3007 240 79 -400 000/00 RMK AO2 T00830050
03949KAQV AQV20191223060510812/23/19 06:05:31  5-MIN KAQV 231205Z AUTO VRB03KT 10SM CLR 08/05 A3007 240 82 -500 VRB/03 RMK AO2 T00780050
03949KAQV AQV20191223061010812/23/19 06:10:31  5-MIN KAQV 231210Z AUTO 00000KT 10SM CLR 08/05 A3007 240 82 -500 000/00 RMK AO2 T00780050
03949KAQV AQV20191223061510812/23/19 06:15:31  5-MIN KAQV 231215Z AUTO VRB03KT 10SM CLR 07/04 A3007 240 82 -600 VRB/03 RMK AO2 T00720044
03949KAQV AQV20191223062010812/23/19 06:20:31  5-MIN KAQV 231220Z AUTO 00000KT 10SM CLR 07/04 A3007 240 82 -600 000/00 RMK AO2 T00720044
03949KAQV AQV20191223062510812/23/19 06:25:31  5-MIN KAQV 231225Z AUTO 00000KT 10SM CLR 07/04 A3007 240 82 -600 000/00 RMK AO2 T00720044
03949KAQV AQV20191223063010812/23/19 06:30:31  5-MIN KAQV 231230Z AUTO VRB03KT 10SM CLR 07/05 A3008 230 86 -600 VRB/03 RMK AO2 T00720050
03949KAQV AQV20191223063509812/23/19 06:35:31  5-MIN KAQV 231235Z AUTO 10SM CLR 07/04 A3008 230 82 -600 M /M RMK AO2 T00720044
03949KAQV AQV20191223064010812/23/19 06:40:31  5-MIN KAQV 231240Z AUTO VRB04KT 10SM CLR 07/05 A3008 230 86 -600 VRB/04 RMK AO2 T00720050
03949KAQV AQV20191223064510812/23/19 06:45:31  5-MIN KAQV 231245Z AUTO VRB03KT 10SM CLR 07/04 A3008 230 82 -600 VRB/03 RMK AO2 T00720044
03949KAQV AQV20191223065010812/23/19 06:50:31  5-MIN KAQV 231250Z AUTO VRB03KT 10SM CLR 07/04 A3008 230 82 -600 VRB/03 RMK AO2 T00720044
03949KAQV AQV20191223065511512/23/19 06:55:31  5-MIN KAQV 231255Z AUTO VRB04KT 10SM CLR 07/04 A3008 230 82 -600 VRB/04 RMK AO2 SLP186 T00720044
03949KAQV AQV20191223070010812/23/19 07:00:31  5-MIN KAQV 231300Z AUTO VRB03KT 10SM CLR 07/04 A3008 230 82 -600 VRB/03 RMK AO2 T00720044
03949KAQV AQV20191223070510812/23/19 07:05:31  5-MIN KAQV 231305Z AUTO 00000KT 10SM CLR 07/04 A3008 230 82 -600 000/00 RMK AO2 T00720044
03949KAQV AQV20191223071010812/23/19 07:10:31  5-MIN KAQV 231310Z AUTO 00000KT 10SM CLR 07/04 A3008 230 82 -600 000/00 RMK AO2 T00720044
03949KAQV AQV20191223071510812/23/19 07:15:31  5-MIN KAQV 231315Z AUTO 00000KT 10SM CLR 07/04 A3008 230 86 -600 000/00 RMK AO2 T00670044
03949KAQV AQV20191223072010812/23/19 07:20:31  5-MIN KAQV 231320Z AUTO VRB03KT 10SM CLR 07/04 A3008 230 82 -600 VRB/03 RMK AO2 T00720044
03949KAQV AQV20191223072510812/23/19 07:25:31  5-MIN KAQV 231325Z AUTO VRB03KT 10SM CLR 07/04 A3008 230 82 -600 VRB/03 RMK AO2 T00720044
03949KAQV AQV20191223073010812/23/19 07:30:31  5-MIN KAQV 231330Z AUTO 00000KT 10SM CLR 07/04 A3008 230 82 -600 000/00 RMK AO2 T00720044
03949KAQV AQV20191223073510812/23/19 07:35:31  5-MIN KAQV 231335Z AUTO VRB03KT 10SM CLR 07/04 A3009 220 82 -600 VRB/03 RMK AO2 T00720044
03949KAQV AQV20191223074010812/23/19 07:40:31  5-MIN KAQV 231340Z AUTO 00000KT 10SM CLR 07/04 A3009 220 82 -600 000/00 RMK AO2 T00720044
03949KAQV AQV20191223074510812/23/19 07:45:31  5-MIN KAQV 231345Z AUTO VRB03KT 10SM CLR 07/04 A3009 220 82 -600 VRB/03 RMK AO2 T00720044
03949KAQV AQV20191223075010812/23/19 07:50:31  5-MIN KAQV 231350Z AUTO VRB03KT 10SM CLR 07/04 A3010 210 82 -600 VRB/03 RMK AO2 T00720044
03949KAQV AQV20191223075511512/23/19 07:55:31  5-MIN KAQV 231355Z AUTO VRB03KT 10SM CLR 07/04 A3010 210 82 -600 VRB/03 RMK AO2 SLP193 T00720044
03949KAQV AQV20191223080010812/23/19 08:00:31  5-MIN KAQV 231400Z AUTO VRB03KT 10SM CLR 08/04 A3010 210 79 -500 VRB/03 RMK AO2 T00780044
03949KAQV AQV20191223080510812/23/19 08:05:31  5-MIN KAQV 231405Z AUTO VRB04KT 10SM CLR 08/04 A3010 210 79 -500 VRB/04 RMK AO2 T00780044
03949KAQV AQV20191223081010812/23/19 08:10:31  5-MIN KAQV 231410Z AUTO VRB03KT 10SM CLR 08/04 A3010 210 76 -500 VRB/03 RMK AO2 T00830044
03949KAQV AQV20191223081510812/23/19 08:15:31  5-MIN KAQV 231415Z AUTO 35004KT 10SM CLR 09/04 A3010 210 73 -400 350/04 RMK AO2 T00890044
03949KAQV AQV20191223082010812/23/19 08:20:31  5-MIN KAQV 231420Z AUTO 35007KT 10SM CLR 09/04 A3010 220 73 -400 350/07 RMK AO2 T00890044
03949KAQV AQV20191223082512412/23/19 08:25:31  5-MIN KAQV 231425Z AUTO 35007KT 300V020 10SM CLR 09/04 A3009 220 71 -300 350/07 300V020 RMK AO2 T00940044
03949KAQV AQV20191223083010812/23/19 08:30:31  5-MIN KAQV 231430Z AUTO 36006KT 10SM CLR 09/04 A3009 220 71 -300 350/06 RMK AO2 T00940044
03949KAQV AQV20191223083510812/23/19 08:35:31  5-MIN KAQV 231435Z AUTO 36005KT 10SM CLR 10/05 A3009 220 71 -200 360/05 RMK AO2 T01000050
03949KAQV AQV20191223084010812/23/19 08:40:31  5-MIN KAQV 231440Z AUTO 35006KT 10SM CLR 10/05 A3009 220 71 -200 350/06 RMK AO2 T01000050
03949KAQV AQV20191223084510812/23/19 08:45:31  5-MIN KAQV 231445Z AUTO VRB06KT 10SM CLR 10/05 A3010 210 71 -200 VRB/06 RMK AO2 T01000050
03949KAQV AQV20191223085010812/23/19 08:50:31  5-MIN KAQV 231450Z AUTO VRB03KT 10SM CLR 11/05 A3010 210 68 -200 VRB/03 RMK AO2 T01060050
03949KAQV AQV20191223085511112/23/19 08:55:31  5-MIN KAQV 231455Z AUTO 10SM CLR 11/05 A3009 220 68 -200 M /M RMK AO2 SLP191 T01060050 53006
03949KAQV AQV20191223090010812/23/19 09:00:31  5-MIN KAQV 231500Z AUTO VRB05KT 10SM CLR 11/05 A3009 220 66 -100 VRB/05 RMK AO2 T01110050
03949KAQV AQV20191223090510812/23/19 09:05:31  5-MIN KAQV 231505Z AUTO 35007KT 10SM CLR 11/05 A3010 210 66 -100 350/07 RMK AO2 T01110050
03949KAQV AQV20191223091012112/23/19 09:10:31  5-MIN KAQV 231510Z AUTO 36007KT 320V030 10SM CLR 12/05 A3010 210 63 0 350/07 320V030 RMK AO2 T01170050
03949KAQV AQV20191223091510512/23/19 09:15:31  5-MIN KAQV 231515Z AUTO VRB06KT 10SM CLR 12/05 A3010 210 63 0 VRB/06 RMK AO2 T01170050
03949KAQV AQV20191223092012112/23/19 09:20:31  5-MIN KAQV 231520Z AUTO 36007KT 340V040 10SM CLR 12/05 A3010 210 63 0 360/07 340V040 RMK AO2 T01170050
03949KAQV AQV20191223092510512/23/19 09:25:31  5-MIN KAQV 231525Z AUTO VRB06KT 10SM CLR 12/05 A3010 210 61 0 VRB/06 RMK AO2 T01220050
03949KAQV AQV20191223093010512/23/19 09:30:31  5-MIN KAQV 231530Z AUTO VRB04KT 10SM CLR 12/05 A3011 200 61 0 VRB/04 RMK AO2 T01220050
03949KAQV AQV20191223093509512/23/19 09:35:31  5-MIN KAQV 231535Z AUTO 10SM CLR 12/06 A3011 200 63 0 M /M RMK AO2 T01220056
03949KAQV AQV20191223094010512/23/19 09:40:31  5-MIN KAQV 231540Z AUTO VRB05KT 10SM CLR 13/06 A3011 200 61 0 VRB/05 RMK AO2 T01280056
03949KAQV AQV20191223094510712/23/19 09:45:31  5-MIN KAQV 231545Z AUTO VRB05KT 10SM CLR 13/06 A3011 200 59 100 VRB/05 RMK AO2 T01330056
03949KAQV AQV20191223095010512/23/19 09:50:31  5-MIN KAQV 231550Z AUTO VRB04KT 10SM CLR 13/06 A3011 200 61 0 VRB/04 RMK AO2 T01280056
03949KAQV AQV20191223095511412/23/19 09:55:31  5-MIN KAQV 231555Z AUTO VRB04KT 10SM CLR 13/06 A3011 200 59 100 VRB/04 RMK AO2 SLP197 T01330056
03949KAQV AQV20191223100010712/23/19 10:00:31  5-MIN KAQV 231600Z AUTO 36006KT 10SM CLR 13/06 A3011 200 59 100 360/06 RMK AO2 T01330056
03949KAQV AQV20191223100510712/23/19 10:05:31  5-MIN KAQV 231605Z AUTO VRB05KT 10SM CLR 13/06 A3011 200 59 100 VRB/05 RMK AO2 T01330056
03949KAQV AQV20191223101010712/23/19 10:10:31  5-MIN KAQV 231610Z AUTO VRB04KT 10SM CLR 14/06 A3011 200 57 200 VRB/04 RMK AO2 T01390056
03949KAQV AQV20191223101510712/23/19 10:15:31  5-MIN KAQV 231615Z AUTO VRB06KT 10SM CLR 14/06 A3011 200 59 200 VRB/06 RMK AO2 T01390061
03949KAQV AQV20191223102010712/23/19 10:20:31  5-MIN KAQV 231620Z AUTO 36008KT 10SM CLR 14/06 A3011 200 57 200 350/08 RMK AO2 T01440061
03949KAQV AQV20191223102510712/23/19 10:25:31  5-MIN KAQV 231625Z AUTO VRB06KT 10SM CLR 14/06 A3011 200 57 200 VRB/06 RMK AO2 T01440061
03949KAQV AQV20191223103012312/23/19 10:30:31  5-MIN KAQV 231630Z AUTO 36007KT 310V020 10SM CLR 15/06 A3011 210 55 300 360/07 310V020 RMK AO2 T01500061
03949KAQV AQV20191223103510712/23/19 10:35:31  5-MIN KAQV 231635Z AUTO VRB05KT 10SM CLR 15/06 A3010 210 55 300 VRB/05 RMK AO2 T01500061
03949KAQV AQV20191223104010712/23/19 10:40:31  5-MIN KAQV 231640Z AUTO VRB05KT 10SM CLR 15/06 A3010 210 55 300 VRB/05 RMK AO2 T01500061
03949KAQV AQV20191223104510712/23/19 10:45:31  5-MIN KAQV 231645Z AUTO VRB05KT 10SM CLR 16/06 A3010 210 53 400 VRB/05 RMK AO2 T01560061
03949KAQV AQV20191223105012312/23/19 10:50:31  5-MIN KAQV 231650Z AUTO 01007KT 340V050 10SM CLR 16/06 A3010 210 53 400 010/07 340V050 RMK AO2 T01560061
03949KAQV AQV20191223105513012/23/19 10:55:31  5-MIN KAQV 231655Z AUTO 36007KT 320V020 10SM CLR 16/07 A3010 210 55 400 350/07 320V020 RMK AO2 SLP193 T01560067
03949KAQV AQV20191223110010712/23/19 11:00:31  5-MIN KAQV 231700Z AUTO VRB04KT 10SM CLR 16/07 A3010 210 55 400 VRB/04 RMK AO2 T01560067
03949KAQV AQV20191223110510712/23/19 11:05:31  5-MIN KAQV 231705Z AUTO 01009KT 10SM CLR 17/07 A3010 210 51 500 360/09 RMK AO2 T01670067
03949KAQV AQV20191223111010712/23/19 11:10:31  5-MIN KAQV 231710Z AUTO 35005KT 10SM CLR 16/07 A3010 210 53 400 350/05 RMK AO2 T01610067
03949KAQV AQV20191223111510712/23/19 11:15:31  5-MIN KAQV 231715Z AUTO VRB05KT 10SM CLR 17/07 A3009 220 51 500 VRB/05 RMK AO2 T01670067
03949KAQV AQV20191223112010712/23/19 11:20:31  5-MIN KAQV 231720Z AUTO VRB06KT 10SM CLR 17/07 A3009 220 51 500 VRB/06 RMK AO2 T01670067
03949KAQV AQV20191223112510712/23/19 11:25:31  5-MIN KAQV 231725Z AUTO VRB06KT 10SM CLR 17/07 A3009 220 51 500 VRB/06 RMK AO2 T01670067
03949KAQV AQV20191223113010712/23/19 11:30:31  5-MIN KAQV 231730Z AUTO 35008KT 10SM CLR 17/07 A3008 220 51 500 350/08 RMK AO2 T01670067
03949KAQV AQV20191223113511312/23/19 11:35:31  5-MIN KAQV 231735Z AUTO VRB06G15KT 10SM CLR 17/07 A3008 230 49 600 VRB/06G15 RMK AO2 T01720067
03949KAQV AQV20191223114010712/23/19 11:40:31  5-MIN KAQV 231740Z AUTO VRB04KT 10SM CLR 17/07 A3008 230 49 600 VRB/04 RMK AO2 T01720067
03949KAQV AQV20191223114510712/23/19 11:45:31  5-MIN KAQV 231745Z AUTO VRB05KT 10SM CLR 17/07 A3008 230 49 600 VRB/05 RMK AO2 T01720067
03949KAQV AQV20191223115010712/23/19 11:50:31  5-MIN KAQV 231750Z AUTO VRB05KT 10SM CLR 17/07 A3007 230 51 600 VRB/05 RMK AO2 T01720072
03949KAQV AQV20191223115513212/23/19 11:55:31  5-MIN KAQV 231755Z AUTO VRB03KT 10SM CLR 17/07 A3007 240 53 500 VRB/03 RMK AO2 SLP184 T01670072 10172 20067 50009
03949KAQV AQV20191223120009712/23/19 12:00:31  5-MIN KAQV 231800Z AUTO 10SM CLR 17/07 A3007 240 51 600 M /M RMK AO2 T01720072
03949KAQV AQV20191223120510712/23/19 12:05:31  5-MIN KAQV 231805Z AUTO 36008KT 10SM CLR 18/07 A3007 240 49 700 360/08 RMK AO2 T01780072
03949KAQV AQV20191223121011312/23/19 12:10:31  5-MIN KAQV 231810Z AUTO VRB04G16KT 10SM CLR 18/07 A3006 240 49 700 VRB/04G16 RMK AO2 T01780072
03949KAQV AQV20191223121511312/23/19 12:15:31  5-MIN KAQV 231815Z AUTO 01007G16KT 10SM CLR 18/07 A3006 250 48 700 360/07G16 RMK AO2 T01830072
03949KAQV AQV20191223122010712/23/19 12:20:31  5-MIN KAQV 231820Z AUTO VRB04KT 10SM CLR 18/07 A3006 250 49 700 VRB/04 RMK AO2 T01780072
03949KAQV AQV20191223122510712/23/19 12:25:31  5-MIN KAQV 231825Z AUTO 36008KT 10SM CLR 18/07 A3005 250 48 700 360/08 RMK AO2 T01830072
03949KAQV AQV20191223123012312/23/19 12:30:31  5-MIN KAQV 231830Z AUTO 36008KT 330V050 10SM CLR 18/07 A3005 260 48 700 360/08 330V050 RMK AO2 T01830072
03949KAQV AQV20191223123512312/23/19 12:35:31  5-MIN KAQV 231835Z AUTO 36007KT 320V030 10SM CLR 18/07 A3005 260 48 700 360/07 320V030 RMK AO2 T01830072
03949KAQV AQV20191223124012912/23/19 12:40:31  5-MIN KAQV 231840Z AUTO 34007G18KT 250V020 10SM CLR 18/07 A3005 260 48 700 340/07G18 250V020 RMK AO2 T01830072
03949KAQV AQV20191223124511312/23/19 12:45:31  5-MIN KAQV 231845Z AUTO 36007G18KT 10SM CLR 18/07 A3005 260 48 800 360/07G18 RMK AO2 T01830072
03949KAQV AQV20191223125011312/23/19 12:50:31  5-MIN KAQV 231850Z AUTO 36009G15KT 10SM CLR 18/07 A3005 260 48 800 360/09G15 RMK AO2 T01830072
03949KAQV AQV20191223125512012/23/19 12:55:31  5-MIN KAQV 231855Z AUTO 02006G15KT 10SM CLR 19/07 A3004 260 46 800 010/06G15 RMK AO2 SLP173 T01890072
03949KAQV AQV20191223130012912/23/19 13:00:31  5-MIN KAQV 231900Z AUTO 36007G16KT 330V030 10SM CLR 19/07 A3004 260 46 800 360/07G16 330V030 RMK AO2 T01890072
03949KAQV AQV20191223130511312/23/19 13:05:31  5-MIN KAQV 231905Z AUTO VRB05G16KT 10SM CLR 19/07 A3004 270 44 900 VRB/05G16 RMK AO2 T01940072
03949KAQV AQV20191223131009712/23/19 13:10:31  5-MIN KAQV 231910Z AUTO 10SM CLR 19/07 A3004 270 44 900 M /M RMK AO2 T01940072
03949KAQV AQV20191223131510712/23/19 13:15:31  5-MIN KAQV 231915Z AUTO 35007KT 10SM CLR 19/07 A3004 270 46 800 350/07 RMK AO2 T01890072
03949KAQV AQV20191223132010712/23/19 13:20:31  5-MIN KAQV 231920Z AUTO VRB05KT 10SM CLR 19/07 A3003 270 44 900 VRB/05 RMK AO2 T01940072
03949KAQV AQV20191223132509812/23/19 13:25:31  5-MIN KAQV 231925Z AUTO 10SM CLR 20/08 A3003 270 45 1000 M /M RMK AO2 T02000078
03949KAQV AQV20191223133011312/23/19 13:30:31  5-MIN KAQV 231930Z AUTO 02010G15KT 10SM CLR 19/07 A3003 280 44 900 020/10G15 RMK AO2 T01940072
03949KAQV AQV20191223133511312/23/19 13:35:31  5-MIN KAQV 231935Z AUTO 36007G15KT 10SM CLR 19/07 A3003 280 44 900 350/07G15 RMK AO2 T01940072
03949KAQV AQV20191223134012312/23/19 13:40:31  5-MIN KAQV 231940Z AUTO 34007KT 300V010 10SM CLR 19/07 A3003 280 44 900 340/07 300V010 RMK AO2 T01940072
03949KAQV AQV20191223134510712/23/19 13:45:31  5-MIN KAQV 231945Z AUTO 36008KT 10SM CLR 19/07 A3002 280 44 900 360/08 RMK AO2 T01940072
03949KAQV AQV20191223135010712/23/19 13:50:31  5-MIN KAQV 231950Z AUTO VRB06KT 10SM CLR 19/07 A3002 280 44 900 VRB/06 RMK AO2 T01940072
03949KAQV AQV20191223135511512/23/19 13:55:31  5-MIN KAQV 231955Z AUTO 01005KT 10SM CLR 20/07 A3002 280 43 1000 010/05 RMK AO2 SLP166 T02000072
03949KAQV AQV20191223140010812/23/19 14:00:31  5-MIN KAQV 232000Z AUTO 01009KT 10SM CLR 20/08 A3002 280 45 1000 360/09 RMK AO2 T02000078
03949KAQV AQV20191223140510812/23/19 14:05:31  5-MIN KAQV 232005Z AUTO 36007KT 10SM CLR 20/07 A3002 280 43 1000 360/07 RMK AO2 T02000072
03949KAQV AQV20191223141010812/23/19 14:10:31  5-MIN KAQV 232010Z AUTO 36007KT 10SM CLR 20/07 A3002 280 43 1000 350/07 RMK AO2 T02000072
03949KAQV AQV20191223141510712/23/19 14:15:31  5-MIN KAQV 232015Z AUTO 02009KT 10SM CLR 19/07 A3002 290 44 900 010/09 RMK AO2 T01940072
03949KAQV AQV20191223142011412/23/19 14:20:31  5-MIN KAQV 232020Z AUTO VRB04G14KT 10SM CLR 20/08 A3002 290 45 1000 VRB/04G14 RMK AO2 T02000078
03949KAQV AQV20191223142510712/23/19 14:25:31  5-MIN KAQV 232025Z AUTO 01006KT 10SM CLR 19/07 A3002 280 44 900 360/06 RMK AO2 T01940072
03949KAQV AQV20191223143010712/23/19 14:30:31  5-MIN KAQV 232030Z AUTO 01006KT 10SM CLR 19/08 A3002 290 46 900 360/06 RMK AO2 T01940078
03949KAQV AQV20191223143512412/23/19 14:35:31  5-MIN KAQV 232035Z AUTO 36007KT 330V030 10SM CLR 20/07 A3002 280 43 1000 360/07 330V030 RMK AO2 T02000072
03949KAQV AQV20191223144012912/23/19 14:40:31  5-MIN KAQV 232040Z AUTO 36008G15KT 320V040 10SM CLR 19/07 A3002 280 44 900 360/08G15 320V040 RMK AO2 T01940072
03949KAQV AQV20191223144511412/23/19 14:45:31  5-MIN KAQV 232045Z AUTO 01007G16KT 10SM CLR 20/07 A3002 290 43 1000 360/07G16 RMK AO2 T02000072
03949KAQV AQV20191223145011412/23/19 14:50:31  5-MIN KAQV 232050Z AUTO 01008G16KT 10SM CLR 20/07 A3002 280 43 1000 360/08G16 RMK AO2 T02000072
03949KAQV AQV20191223145512712/23/19 14:55:31  5-MIN KAQV 232055Z AUTO 01006G14KT 10SM CLR 20/08 A3002 290 45 1000 010/06G14 RMK AO2 SLP164 T02000078 58008
03949KAQV AQV20191223150011312/23/19 15:00:31  5-MIN KAQV 232100Z AUTO 01007G15KT 10SM CLR 19/07 A3002 290 44 900 010/07G15 RMK AO2 T01940072
03949KAQV AQV20191223150511412/23/19 15:05:31  5-MIN KAQV 232105Z AUTO 01006G15KT 10SM CLR 20/08 A3002 290 45 1000 010/06G15 RMK AO2 T02000078
03949KAQV AQV20191223151012412/23/19 15:10:31  5-MIN KAQV 232110Z AUTO 35007KT 300V040 10SM CLR 20/07 A3002 280 43 1000 350/07 300V040 RMK AO2 T02000072
03949KAQV AQV20191223151510812/23/19 15:15:31  5-MIN KAQV 232115Z AUTO 36007KT 10SM CLR 20/07 A3002 280 43 1000 360/07 RMK AO2 T02000072
03949KAQV AQV20191223152010812/23/19 15:20:31  5-MIN KAQV 232120Z AUTO VRB06KT 10SM CLR 20/08 A3002 280 45 1000 VRB/06 RMK AO2 T02000078
03949KAQV AQV20191223152510712/23/19 15:25:31  5-MIN KAQV 232125Z AUTO VRB05KT 10SM CLR 19/08 A3002 280 46 900 VRB/05 RMK AO2 T01940078
03949KAQV AQV20191223153010812/23/19 15:30:31  5-MIN KAQV 232130Z AUTO VRB05KT 10SM CLR 20/08 A3002 280 45 1000 VRB/05 RMK AO2 T02000078
03949KAQV AQV20191223153510712/23/19 15:35:31  5-MIN KAQV 232135Z AUTO VRB04KT 10SM CLR 19/08 A3002 280 46 900 VRB/04 RMK AO2 T01940078
03949KAQV AQV20191223154010812/23/19 15:40:31  5-MIN KAQV 232140Z AUTO 36004KT 10SM CLR 20/08 A3002 280 45 1000 360/04 RMK AO2 T02000078
03949KAQV AQV20191223154510712/23/19 15:45:31  5-MIN KAQV 232145Z AUTO VRB04KT 10SM CLR 19/08 A3002 280 46 900 VRB/04 RMK AO2 T01940078
03949KAQV AQV20191223155010712/23/19 15:50:31  5-MIN KAQV 232150Z AUTO VRB04KT 10SM CLR 19/08 A3002 280 46 900 VRB/04 RMK AO2 T01940078
03949KAQV AQV20191223155510412/23/19 15:55:31  5-MIN KAQV 232155Z AUTO 10SM CLR 19/08 A3003 280 48 800 M /M RMK AO2 SLP167 T01890078
03949KAQV AQV20191223160010712/23/19 16:00:31  5-MIN KAQV 232200Z AUTO 36006KT 10SM CLR 19/08 A3003 280 48 800 350/06 RMK AO2 T01890078
03949KAQV AQV20191223160510712/23/19 16:05:31  5-MIN KAQV 232205Z AUTO 01007KT 10SM CLR 19/08 A3003 280 46 900 010/07 RMK AO2 T01940078
03949KAQV AQV20191223161010712/23/19 16:10:31  5-MIN KAQV 232210Z AUTO 36007KT 10SM CLR 19/08 A3003 280 48 800 350/07 RMK AO2 T01890078
03949KAQV AQV20191223161510712/23/19 16:15:31  5-MIN KAQV 232215Z AUTO 36005KT 10SM CLR 19/08 A3003 280 48 800 350/05 RMK AO2 T01890078
03949KAQV AQV20191223162010712/23/19 16:20:31  5-MIN KAQV 232220Z AUTO VRB04KT 10SM CLR 19/08 A3003 270 48 800 VRB/04 RMK AO2 T01890078
03949KAQV AQV20191223162510712/23/19 16:25:31  5-MIN KAQV 232225Z AUTO VRB05KT 10SM CLR 19/08 A3003 270 48 800 VRB/05 RMK AO2 T01890078
03949KAQV AQV20191223163010712/23/19 16:30:31  5-MIN KAQV 232230Z AUTO 35005KT 10SM CLR 18/08 A3003 280 50 800 350/05 RMK AO2 T01830078
03949KAQV AQV20191223163510712/23/19 16:35:31  5-MIN KAQV 232235Z AUTO VRB03KT 10SM CLR 18/08 A3003 270 50 800 VRB/03 RMK AO2 T01830078
03949KAQV AQV20191223164010712/23/19 16:40:31  5-MIN KAQV 232240Z AUTO 36005KT 10SM CLR 18/08 A3003 270 51 700 350/05 RMK AO2 T01780078
03949KAQV AQV20191223164510712/23/19 16:45:31  5-MIN KAQV 232245Z AUTO 36004KT 10SM CLR 18/08 A3003 270 51 700 350/04 RMK AO2 T01780078
03949KAQV AQV20191223165010712/23/19 16:50:31  5-MIN KAQV 232250Z AUTO 00000KT 10SM CLR 18/08 A3003 270 51 700 000/00 RMK AO2 T01780078
03949KAQV AQV20191223165511412/23/19 16:55:31  5-MIN KAQV 232255Z AUTO 35003KT 10SM CLR 17/08 A3003 270 53 600 350/03 RMK AO2 SLP170 T01720078
03949KAQV AQV20191223170010712/23/19 17:00:31  5-MIN KAQV 232300Z AUTO VRB03KT 10SM CLR 17/08 A3003 270 55 600 VRB/03 RMK AO2 T01670078
03949KAQV AQV20191223170510712/23/19 17:05:31  5-MIN KAQV 232305Z AUTO 35003KT 10SM CLR 17/08 A3003 270 55 600 350/03 RMK AO2 T01670078
03949KAQV AQV20191223171010712/23/19 17:10:31  5-MIN KAQV 232310Z AUTO 00000KT 10SM CLR 17/08 A3003 270 57 600 000/00 RMK AO2 T01670083
03949KAQV AQV20191223171510712/23/19 17:15:31  5-MIN KAQV 232315Z AUTO 00000KT 10SM CLR 16/08 A3004 270 62 400 000/00 RMK AO2 T01560083
03949KAQV AQV20191223172010712/23/19 17:20:31  5-MIN KAQV 232320Z AUTO 00000KT 10SM CLR 15/08 A3004 270 64 400 000/00 RMK AO2 T01500083
03949KAQV AQV20191223172510712/23/19 17:25:31  5-MIN KAQV 232325Z AUTO 00000KT 10SM CLR 16/08 A3004 270 62 400 000/00 RMK AO2 T01560083
03949KAQV AQV20191223173010712/23/19 17:30:31  5-MIN KAQV 232330Z AUTO 00000KT 10SM CLR 15/08 A3004 270 64 400 000/00 RMK AO2 T01500083
03949KAQV AQV20191223173510712/23/19 17:35:31  5-MIN KAQV 232335Z AUTO 00000KT 10SM CLR 14/08 A3004 270 66 300 000/00 RMK AO2 T01440083
03949KAQV AQV20191223174010712/23/19 17:40:31  5-MIN KAQV 232340Z AUTO 00000KT 10SM CLR 14/08 A3004 270 69 200 000/00 RMK AO2 T01390083
03949KAQV AQV20191223174510712/23/19 17:45:31  5-MIN KAQV 232345Z AUTO 00000KT 10SM CLR 13/08 A3004 270 71 200 000/00 RMK AO2 T01330083
03949KAQV AQV20191223175010712/23/19 17:50:31  5-MIN KAQV 232350Z AUTO 00000KT 10SM CLR 13/09 A3004 270 74 200 000/00 RMK AO2 T01330089
03949KAQV AQV20191223175513212/23/19 17:55:31  5-MIN KAQV 232355Z AUTO 00000KT 10SM CLR 13/08 A3004 270 74 100 000/00 RMK AO2 SLP173 T01280083 10200 20128 56018
03949KAQV AQV20191223180010712/23/19 18:00:31  5-MIN KAQV 240000Z AUTO 00000KT 10SM CLR 13/08 A3004 260 74 100 000/00 RMK AO2 T01280083
03949KAQV AQV20191223180510512/23/19 18:05:31  5-MIN KAQV 240005Z AUTO 00000KT 10SM CLR 12/08 A3004 260 77 0 000/00 RMK AO2 T01220083
03949KAQV AQV20191223181010512/23/19 18:10:31  5-MIN KAQV 240010Z AUTO 00000KT 10SM CLR 12/08 A3005 260 77 0 000/00 RMK AO2 T01220083
03949KAQV AQV20191223181510512/23/19 18:15:31  5-MIN KAQV 240015Z AUTO 00000KT 10SM CLR 12/08 A3005 260 77 0 000/00 RMK AO2 T01220083
03949KAQV AQV20191223182010512/23/19 18:20:31  5-MIN KAQV 240020Z AUTO 00000KT 10SM CLR 12/08 A3005 260 80 0 000/00 RMK AO2 T01170083
03949KAQV AQV20191223182510512/23/19 18:25:31  5-MIN KAQV 240025Z AUTO 00000KT 10SM CLR 12/08 A3005 250 80 0 000/00 RMK AO2 T01170083
03949KAQV AQV20191223183010512/23/19 18:30:31  5-MIN KAQV 240030Z AUTO 00000KT 10SM CLR 12/08 A3006 250 80 0 000/00 RMK AO2 T01170083
03949KAQV AQV20191223183510812/23/19 18:35:31  5-MIN KAQV 240035Z AUTO 00000KT 10SM CLR 11/08 A3006 250 80 -100 000/00 RMK AO2 T01110078
03949KAQV AQV20191223184010812/23/19 18:40:31  5-MIN KAQV 240040Z AUTO 00000KT 10SM CLR 11/08 A3006 250 80 -100 000/00 RMK AO2 T01110078
03949KAQV AQV20191223184510812/23/19 18:45:31  5-MIN KAQV 240045Z AUTO 00000KT 10SM CLR 11/08 A3006 250 80 -100 000/00 RMK AO2 T01110078
03949KAQV AQV20191223185010812/23/19 18:50:31  5-MIN KAQV 240050Z AUTO 00000KT 10SM CLR 11/08 A3006 250 80 -100 000/00 RMK AO2 T01110078
03949KAQV AQV20191223185511512/23/19 18:55:31  5-MIN KAQV 240055Z AUTO 00000KT 10SM CLR 11/08 A3006 250 83 -100 000/00 RMK AO2 SLP181 T01060078
03949KAQV AQV20191223190010812/23/19 19:00:31  5-MIN KAQV 240100Z AUTO 00000KT 10SM CLR 11/08 A3006 250 83 -100 000/00 RMK AO2 T01060078
03949KAQV AQV20191223190510812/23/19 19:05:31  5-MIN KAQV 240105Z AUTO 00000KT 10SM CLR 11/08 A3006 250 83 -100 000/00 RMK AO2 T01060078
03949KAQV AQV20191223191010812/23/19 19:10:31  5-MIN KAQV 240110Z AUTO 00000KT 10SM CLR 11/08 A3006 250 83 -100 000/00 RMK AO2 T01060078
03949KAQV AQV20191223191510812/23/19 19:15:31  5-MIN KAQV 240115Z AUTO 00000KT 10SM CLR 11/08 A3006 250 83 -100 000/00 RMK AO2 T01060078
03949KAQV AQV20191223192010812/23/19 19:20:31  5-MIN KAQV 240120Z AUTO 00000KT 10SM CLR 10/08 A3006 240 86 -200 000/00 RMK AO2 T01000078
03949KAQV AQV20191223192510812/23/19 19:25:31  5-MIN KAQV 240125Z AUTO 00000KT 10SM CLR 10/07 A3006 240 83 -200 000/00 RMK AO2 T01000072
03949KAQV AQV20191223193010812/23/19 19:30:31  5-MIN KAQV 240130Z AUTO 00000KT 10SM CLR 10/07 A3006 240 83 -200 000/00 RMK AO2 T01000072
03949KAQV AQV20191223193510812/23/19 19:35:31  5-MIN KAQV 240135Z AUTO 00000KT 10SM CLR 10/07 A3006 240 83 -200 000/00 RMK AO2 T01000072
03949KAQV AQV20191223194010812/23/19 19:40:31  5-MIN KAQV 240140Z AUTO 00000KT 10SM CLR 09/07 A3006 240 86 -300 000/00 RMK AO2 T00940072
03949KAQV AQV20191223194510812/23/19 19:45:31  5-MIN KAQV 240145Z AUTO 00000KT 10SM CLR 09/07 A3006 240 86 -300 000/00 RMK AO2 T00940072
03949KAQV AQV20191223195010812/23/19 19:50:31  5-MIN KAQV 240150Z AUTO 00000KT 10SM CLR 09/07 A3006 250 86 -300 000/00 RMK AO2 T00940072
03949KAQV AQV20191223195511512/23/19 19:55:31  5-MIN KAQV 240155Z AUTO 00000KT 10SM CLR 09/07 A3006 250 86 -300 000/00 RMK AO2 SLP181 T00940072
03949KAQV AQV20191223200010812/23/19 20:00:31  5-MIN KAQV 240200Z AUTO 00000KT 10SM CLR 09/07 A3006 250 86 -300 000/00 RMK AO2 T00940072
03949KAQV AQV20191223200510812/23/19 20:05:31  5-MIN KAQV 240205Z AUTO 00000KT 10SM CLR 09/07 A3006 250 86 -300 000/00 RMK AO2 T00940072
03949KAQV AQV20191223201010812/23/19 20:10:31  5-MIN KAQV 240210Z AUTO 00000KT 10SM CLR 09/07 A3006 240 89 -300 000/00 RMK AO2 T00890072
03949KAQV AQV20191223201510812/23/19 20:15:31  5-MIN KAQV 240215Z AUTO 00000KT 10SM CLR 09/07 A3006 240 89 -300 000/00 RMK AO2 T00890072
03949KAQV AQV20191223202010812/23/19 20:20:31  5-MIN KAQV 240220Z AUTO 00000KT 10SM CLR 09/07 A3007 240 89 -300 000/00 RMK AO2 T00890072
03949KAQV AQV20191223202510812/23/19 20:25:31  5-MIN KAQV 240225Z AUTO 00000KT 10SM CLR 09/07 A3007 240 86 -300 000/00 RMK AO2 T00890067
03949KAQV AQV20191223203010812/23/19 20:30:31  5-MIN KAQV 240230Z AUTO 00000KT 10SM CLR 08/07 A3007 240 89 -400 000/00 RMK AO2 T00830067
03949KAQV AQV20191223203510812/23/19 20:35:31  5-MIN KAQV 240235Z AUTO 00000KT 10SM CLR 09/07 A3007 240 89 -400 000/00 RMK AO2 T00890072
03949KAQV AQV20191223204010812/23/19 20:40:31  5-MIN KAQV 240240Z AUTO 00000KT 10SM CLR 09/07 A3007 230 89 -400 000/00 RMK AO2 T00890072
03949KAQV AQV20191223204510812/23/19 20:45:31  5-MIN KAQV 240245Z AUTO 00000KT 10SM CLR 09/07 A3007 240 89 -400 000/00 RMK AO2 T00890072
03949KAQV AQV20191223205010812/23/19 20:50:31  5-MIN KAQV 240250Z AUTO 00000KT 10SM CLR 09/07 A3007 240 89 -400 000/00 RMK AO2 T00890072
03949KAQV AQV20191223205512112/23/19 20:55:31  5-MIN KAQV 240255Z AUTO 00000KT 10SM CLR 09/07 A3007 240 89 -400 000/00 RMK AO2 SLP184 T00890072 52008
03949KAQV AQV20191223210010812/23/19 21:00:31  5-MIN KAQV 240300Z AUTO 00000KT 10SM CLR 08/07 A3007 240 93 -400 000/00 RMK AO2 T00830072
03949KAQV AQV20191223210510812/23/19 21:05:31  5-MIN KAQV 240305Z AUTO 00000KT 10SM CLR 09/07 A3007 240 89 -400 000/00 RMK AO2 T00890072
03949KAQV AQV20191223211010812/23/19 21:10:31  5-MIN KAQV 240310Z AUTO 00000KT 10SM CLR 09/07 A3007 240 89 -300 000/00 RMK AO2 T00890072
03949KAQV AQV20191223211510812/23/19 21:15:31  5-MIN KAQV 240315Z AUTO 00000KT 10SM CLR 09/07 A3007 240 89 -300 000/00 RMK AO2 T00890072
03949KAQV AQV20191223212010812/23/19 21:20:31  5-MIN KAQV 240320Z AUTO 00000KT 10SM CLR 08/07 A3007 240 93 -400 000/00 RMK AO2 T00830072
03949KAQV AQV20191223212510812/23/19 21:25:31  5-MIN KAQV 240325Z AUTO 00000KT 10SM CLR 08/07 A3007 230 93 -400 000/00 RMK AO2 T00830072
03949KAQV AQV20191223213010812/23/19 21:30:31  5-MIN KAQV 240330Z AUTO 00000KT 10SM CLR 08/07 A3007 240 93 -400 000/00 RMK AO2 T00830072
03949KAQV AQV20191223213510812/23/19 21:35:31  5-MIN KAQV 240335Z AUTO 00000KT 10SM CLR 09/07 A3007 230 89 -400 000/00 RMK AO2 T00890072
03949KAQV AQV20191223214010812/23/19 21:40:31  5-MIN KAQV 240340Z AUTO 00000KT 10SM CLR 08/07 A3008 230 93 -400 000/00 RMK AO2 T00830072
03949KAQV AQV20191223214510812/23/19 21:45:31  5-MIN KAQV 240345Z AUTO 00000KT 10SM CLR 08/07 A3008 230 89 -400 000/00 RMK AO2 T00830067
03949KAQV AQV20191223215010812/23/19 21:50:31  5-MIN KAQV 240350Z AUTO 00000KT 10SM CLR 08/07 A3008 230 89 -400 000/00 RMK AO2 T00830067
03949KAQV AQV20191223215511512/23/19 21:55:31  5-MIN KAQV 240355Z AUTO 00000KT 10SM CLR 08/07 A3008 230 89 -400 000/00 RMK AO2 SLP187 T00830067
03949KAQV AQV20191223220010812/23/19 22:00:31  5-MIN KAQV 240400Z AUTO 00000KT 10SM CLR 08/07 A3008 230 89 -400 000/00 RMK AO2 T00830067
03949KAQV AQV20191223220510812/23/19 22:05:31  5-MIN KAQV 240405Z AUTO 00000KT 10SM CLR 08/07 A3008 230 93 -400 000/00 RMK AO2 T00830072
03949KAQV AQV20191223221010812/23/19 22:10:31  5-MIN KAQV 240410Z AUTO 00000KT 10SM CLR 09/07 A3008 230 89 -400 000/00 RMK AO2 T00890072
03949KAQV AQV20191223221510812/23/19 22:15:31  5-MIN KAQV 240415Z AUTO 00000KT 10SM CLR 08/07 A3008 230 93 -400 000/00 RMK AO2 T00830072
03949KAQV AQV20191223222010812/23/19 22:20:31  5-MIN KAQV 240420Z AUTO 00000KT 10SM CLR 08/07 A3008 230 93 -400 000/00 RMK AO2 T00830072
03949KAQV AQV20191223222510812/23/19 22:25:31  5-MIN KAQV 240425Z AUTO 00000KT 10SM CLR 09/07 A3007 230 89 -400 000/00 RMK AO2 T00890072
03949KAQV AQV20191223223010812/23/19 22:30:31  5-MIN KAQV 240430Z AUTO 00000KT 10SM CLR 08/07 A3008 230 93 -400 000/00 RMK AO2 T00830072
03949KAQV AQV20191223223510812/23/19 22:35:31  5-MIN KAQV 240435Z AUTO 00000KT 10SM CLR 08/07 A3007 230 93 -400 000/00 RMK AO2 T00830072
03949KAQV AQV20191223224010812/23/19 22:40:31  5-MIN KAQV 240440Z AUTO 00000KT 10SM CLR 08/07 A3008 230 93 -400 000/00 RMK AO2 T00830072
03949KAQV AQV20191223224510812/23/19 22:45:31  5-MIN KAQV 240445Z AUTO 00000KT 10SM CLR 08/07 A3007 230 93 -400 000/00 RMK AO2 T00830072
03949KAQV AQV20191223225010812/23/19 22:50:31  5-MIN KAQV 240450Z AUTO 00000KT 10SM CLR 08/07 A3007 240 89 -400 000/00 RMK AO2 T00830067
03949KAQV AQV20191223225511512/23/19 22:55:31  5-MIN KAQV 240455Z AUTO 00000KT 10SM CLR 08/07 A3007 240 89 -400 000/00 RMK AO2 SLP184 T00830067
03949KAQV AQV20191223230010812/23/19 23:00:31  5-MIN KAQV 240500Z AUTO 00000KT 10SM CLR 08/07 A3007 240 89 -400 000/00 RMK AO2 T00830067
03949KAQV AQV20191223230510812/23/19 23:05:31  5-MIN KAQV 240505Z AUTO 00000KT 10SM CLR 08/07 A3007 240 89 -400 000/00 RMK AO2 T00830067
03949KAQV AQV20191223231010812/23/19 23:10:31  5-MIN KAQV 240510Z AUTO 00000KT 10SM CLR 08/07 A3007 240 89 -400 000/00 RMK AO2 T00830067
03949KAQV AQV20191223231510812/23/19 23:15:31  5-MIN KAQV 240515Z AUTO 00000KT 10SM CLR 08/07 A3007 240 89 -400 000/00 RMK AO2 T00830067
03949KAQV AQV20191223232010812/23/19 23:20:31  5-MIN KAQV 240520Z AUTO 00000KT 10SM CLR 08/07 A3007 240 93 -500 000/00 RMK AO2 T00780067
03949KAQV AQV20191223232510812/23/19 23:25:31  5-MIN KAQV 240525Z AUTO 00000KT 10SM CLR 08/07 A3007 240 89 -400 000/00 RMK AO2 T00830067
03949KAQV AQV20191223233010812/23/19 23:30:31  5-MIN KAQV 240530Z AUTO 00000KT 10SM CLR 08/07 A3007 240 89 -400 000/00 RMK AO2 T00830067
03949KAQV AQV20191223233510812/23/19 23:35:31  5-MIN KAQV 240535Z AUTO 00000KT 10SM CLR 08/07 A3006 240 89 -400 000/00 RMK AO2 T00830067
03949KAQV AQV20191223234010812/23/19 23:40:31  5-MIN KAQV 240540Z AUTO 00000KT 10SM CLR 08/07 A3006 240 89 -400 000/00 RMK AO2 T00830067
03949KAQV AQV20191223234510812/23/19 23:45:31  5-MIN KAQV 240545Z AUTO 00000KT 10SM CLR 08/07 A3006 240 89 -400 000/00 RMK AO2 T00830067
03949KAQV AQV20191223235010812/23/19 23:50:31  5-MIN KAQV 240550Z AUTO 00000KT 10SM CLR 08/07 A3007 240 89 -400 000/00 RMK AO2 T00830067
03949KAQV AQV20191223235514312/23/19 23:55:31  5-MIN KAQV 240555Z AUTO 00000KT 10SM CLR 08/07 A3007 240 89 -400 000/00 RMK AO2 SLP181 T00830067 10128 20078 402000067 51010
03949KAQV AQV20191224000010812/24/19 00:00:31  5-MIN KAQV 240600Z AUTO 00000KT 10SM CLR 08/07 A3006 240 89 -400 000/00 RMK AO2 T00830067
03949KAQV AQV20191224000510812/24/19 00:05:31  5-MIN KAQV 240605Z AUTO 00000KT 10SM CLR 08/07 A3006 240 89 -400 000/00 RMK AO2 T00830067
03949KAQV AQV20191224001010812/24/19 00:10:31  5-MIN KAQV 240610Z AUTO 00000KT 10SM CLR 08/07 A3006 250 93 -500 000/00 RMK AO2 T00780067
03949KAQV AQV20191224001510812/24/19 00:15:31  5-MIN KAQV 240615Z AUTO 00000KT 10SM CLR 08/07 A3006 250 93 -500 000/00 RMK AO2 T00780067
03949KAQV AQV20191224002010812/24/19 00:20:31  5-MIN KAQV 240620Z AUTO 00000KT 10SM CLR 08/07 A3006 250 93 -500 000/00 RMK AO2 T00780067
03949KAQV AQV20191224002510812/24/19 00:25:31  5-MIN KAQV 240625Z AUTO 00000KT 10SM CLR 08/07 A3006 250 93 -500 000/00 RMK AO2 T00780067
03949KAQV AQV20191224003010812/24/19 00:30:31  5-MIN KAQV 240630Z AUTO 00000KT 10SM CLR 08/07 A3006 250 93 -500 000/00 RMK AO2 T00780067
03949KAQV AQV20191224003510812/24/19 00:35:31  5-MIN KAQV 240635Z AUTO 00000KT 10SM CLR 08/07 A3006 250 93 -500 000/00 RMK AO2 T00780067
03949KAQV AQV20191224004010812/24/19 00:40:31  5-MIN KAQV 240640Z AUTO 00000KT 10SM CLR 08/07 A3005 250 93 -500 000/00 RMK AO2 T00780067
03949KAQV AQV20191224004510812/24/19 00:45:31  5-MIN KAQV 240645Z AUTO 00000KT 10SM CLR 08/07 A3005 250 93 -500 000/00 RMK AO2 T00780067
03949KAQV AQV20191224005010812/24/19 00:50:31  5-MIN KAQV 240650Z AUTO 00000KT 10SM CLR 08/07 A3005 250 93 -500 000/00 RMK AO2 T00780067
03949KAQV AQV20191224005511512/24/19 00:55:31  5-MIN KAQV 240655Z AUTO 00000KT 10SM CLR 08/07 A3005 250 93 -500 000/00 RMK AO2 SLP178 T00780067
03949KAQV AQV20191224010010812/24/19 01:00:31  5-MIN KAQV 240700Z AUTO 00000KT 10SM CLR 08/06 A3006 250 89 -500 000/00 RMK AO2 T00780061
03949KAQV AQV20191224010510812/24/19 01:05:31  5-MIN KAQV 240705Z AUTO 00000KT 10SM CLR 08/07 A3006 250 93 -500 000/00 RMK AO2 T00780067
03949KAQV AQV20191224011010812/24/19 01:10:31  5-MIN KAQV 240710Z AUTO 00000KT 10SM CLR 08/07 A3006 250 93 -500 000/00 RMK AO2 T00780067
03949KAQV AQV20191224011510812/24/19 01:15:31  5-MIN KAQV 240715Z AUTO 00000KT 10SM CLR 08/07 A3005 250 93 -500 000/00 RMK AO2 T00780067
03949KAQV AQV20191224012010812/24/19 01:20:31  5-MIN KAQV 240720Z AUTO 00000KT 10SM CLR 08/07 A3005 250 93 -500 000/00 RMK AO2 T00780067
03949KAQV AQV20191224012510812/24/19 01:25:31  5-MIN KAQV 240725Z AUTO 00000KT 10SM CLR 08/07 A3006 250 93 -500 000/00 RMK AO2 T00780067
03949KAQV AQV20191224013010812/24/19 01:30:31  5-MIN KAQV 240730Z AUTO 00000KT 10SM CLR 08/07 A3006 250 93 -500 000/00 RMK AO2 T00780067
03949KAQV AQV20191224013510812/24/19 01:35:31  5-MIN KAQV 240735Z AUTO 00000KT 10SM CLR 08/06 A3005 250 89 -500 000/00 RMK AO2 T00780061
03949KAQV AQV20191224014010812/24/19 01:40:31  5-MIN KAQV 240740Z AUTO 00000KT 10SM CLR 08/06 A3006 250 89 -500 000/00 RMK AO2 T00780061
03949KAQV AQV20191224014510812/24/19 01:45:31  5-MIN KAQV 240745Z AUTO 00000KT 10SM CLR 08/06 A3006 250 89 -500 000/00 RMK AO2 T00780061
03949KAQV AQV20191224015010812/24/19 01:50:31  5-MIN KAQV 240750Z AUTO 00000KT 10SM CLR 07/06 A3005 250 93 -500 000/00 RMK AO2 T00720061
03949KAQV AQV20191224015511512/24/19 01:55:31  5-MIN KAQV 240755Z AUTO 00000KT 10SM CLR 07/06 A3005 250 93 -500 000/00 RMK AO2 SLP176 T00720061
03949KAQV AQV20191224020010812/24/19 02:00:31  5-MIN KAQV 240800Z AUTO 00000KT 10SM CLR 07/06 A3005 250 93 -500 000/00 RMK AO2 T00720061
03949KAQV AQV20191224020510812/24/19 02:05:31  5-MIN KAQV 240805Z AUTO 00000KT 10SM CLR 07/06 A3005 260 93 -500 000/00 RMK AO2 T00720061
03949KAQV AQV20191224021010812/24/19 02:10:31  5-MIN KAQV 240810Z AUTO 00000KT 10SM CLR 07/06 A3005 260 93 -500 000/00 RMK AO2 T00720061
03949KAQV AQV20191224021510812/24/19 02:15:31  5-MIN KAQV 240815Z AUTO 00000KT 10SM CLR 07/06 A3005 260 93 -500 000/00 RMK AO2 T00720061
03949KAQV AQV20191224022010812/24/19 02:20:31  5-MIN KAQV 240820Z AUTO 00000KT 10SM CLR 07/06 A3005 260 93 -500 000/00 RMK AO2 T00720061
03949KAQV AQV20191224022510812/24/19 02:25:31  5-MIN KAQV 240825Z AUTO 00000KT 10SM CLR 07/06 A3005 260 93 -500 000/00 RMK AO2 T00720061
03949KAQV AQV20191224023010812/24/19 02:30:31  5-MIN KAQV 240830Z AUTO 00000KT 10SM CLR 07/06 A3005 260 93 -500 000/00 RMK AO2 T00720061
03949KAQV AQV20191224023510812/24/19 02:35:31  5-MIN KAQV 240835Z AUTO 00000KT 10SM CLR 07/06 A3005 260 89 -500 000/00 RMK AO2 T00720056
03949KAQV AQV20191224024010812/24/19 02:40:31  5-MIN KAQV 240840Z AUTO 00000KT 10SM CLR 07/06 A3005 260 89 -500 000/00 RMK AO2 T00720056
03949KAQV AQV20191224024510812/24/19 02:45:31  5-MIN KAQV 240845Z AUTO 00000KT 10SM CLR 07/06 A3005 260 89 -500 000/00 RMK AO2 T00720056
03949KAQV AQV20191224025010812/24/19 02:50:31  5-MIN KAQV 240850Z AUTO 00000KT 10SM CLR 07/06 A3005 260 89 -500 000/00 RMK AO2 T00720056
03949KAQV AQV20191224025512112/24/19 02:55:31  5-MIN KAQV 240855Z AUTO 00000KT 10SM CLR 07/06 A3005 260 89 -500 000/00 RMK AO2 SLP175 T00720056 58003
03949KAQV AQV20191224030010812/24/19 03:00:31  5-MIN KAQV 240900Z AUTO 00000KT 10SM CLR 07/06 A3005 260 89 -500 000/00 RMK AO2 T00720056
03949KAQV AQV20191224030510812/24/19 03:05:31  5-MIN KAQV 240905Z AUTO 00000KT 10SM CLR 07/06 A3005 260 89 -500 000/00 RMK AO2 T00720056
03949KAQV AQV20191224031010812/24/19 03:10:31  5-MIN KAQV 240910Z AUTO 00000KT 10SM CLR 07/06 A3005 260 93 -600 000/00 RMK AO2 T00670056
03949KAQV AQV20191224031510812/24/19 03:15:31  5-MIN KAQV 240915Z AUTO 00000KT 10SM CLR 07/06 A3005 250 93 -600 000/00 RMK AO2 T00670056
03949KAQV AQV20191224032010812/24/19 03:20:31  5-MIN KAQV 240920Z AUTO 00000KT 10SM CLR 07/06 A3005 250 93 -600 000/00 RMK AO2 T00670056
03949KAQV AQV20191224032510812/24/19 03:25:31  5-MIN KAQV 240925Z AUTO 00000KT 10SM CLR 07/06 A3005 250 93 -600 000/00 RMK AO2 T00670056
03949KAQV AQV20191224033010812/24/19 03:30:31  5-MIN KAQV 240930Z AUTO 00000KT 10SM CLR 07/06 A3006 250 93 -600 000/00 RMK AO2 T00670056
03949KAQV AQV20191224033510812/24/19 03:35:31  5-MIN KAQV 240935Z AUTO 00000KT 10SM CLR 07/06 A3006 250 93 -600 000/00 RMK AO2 T00670056
03949KAQV AQV20191224034010812/24/19 03:40:31  5-MIN KAQV 240940Z AUTO VRB03KT 10SM CLR 07/06 A3006 250 93 -600 VRB/03 RMK AO2 T00670056
03949KAQV AQV20191224034510812/24/19 03:45:31  5-MIN KAQV 240945Z AUTO 00000KT 10SM CLR 07/06 A3006 250 89 -500 000/00 RMK AO2 T00720056
03949KAQV AQV20191224035010812/24/19 03:50:31  5-MIN KAQV 240950Z AUTO 00000KT 10SM CLR 07/06 A3006 250 93 -600 000/00 RMK AO2 T00670056
03949KAQV AQV20191224035511512/24/19 03:55:31  5-MIN KAQV 240955Z AUTO 00000KT 10SM CLR 07/06 A3006 250 93 -500 000/00 RMK AO2 SLP178 T00720061
03949KAQV AQV20191224040010812/24/19 04:00:31  5-MIN KAQV 241000Z AUTO 00000KT 10SM CLR 07/06 A3006 250 93 -500 000/00 RMK AO2 T00720061
03949KAQV AQV20191224040510812/24/19 04:05:31  5-MIN KAQV 241005Z AUTO 00000KT 10SM CLR 07/06 A3005 250 93 -500 000/00 RMK AO2 T00720061
03949KAQV AQV20191224041010812/24/19 04:10:31  5-MIN KAQV 241010Z AUTO 00000KT 10SM CLR 07/06 A3005 250 93 -500 000/00 RMK AO2 T00720061
03949KAQV AQV20191224041510812/24/19 04:15:31  5-MIN KAQV 241015Z AUTO 00000KT 10SM CLR 07/06 A3005 250 93 -500 000/00 RMK AO2 T00720061
03949KAQV AQV20191224042010812/24/19 04:20:31  5-MIN KAQV 241020Z AUTO 00000KT 10SM CLR 07/06 A3006 250 93 -500 000/00 RMK AO2 T00720061
03949KAQV AQV20191224042510812/24/19 04:25:31  5-MIN KAQV 241025Z AUTO 00000KT 10SM CLR 07/06 A3005 250 93 -600 000/00 RMK AO2 T00670056
03949KAQV AQV20191224043010812/24/19 04:30:31  5-MIN KAQV 241030Z AUTO 00000KT 10SM CLR 07/06 A3005 260 93 -600 000/00 RMK AO2 T00670056
03949KAQV AQV20191224043510812/24/19 04:35:31  5-MIN KAQV 241035Z AUTO 00000KT 10SM CLR 07/06 A3005 260 93 -600 000/00 RMK AO2 T00670056
03949KAQV AQV20191224044010812/24/19 04:40:31  5-MIN KAQV 241040Z AUTO 00000KT 10SM CLR 07/06 A3005 260 93 -600 000/00 RMK AO2 T00670056
03949KAQV AQV20191224044510812/24/19 04:45:31  5-MIN KAQV 241045Z AUTO 00000KT 10SM CLR 07/06 A3005 260 93 -600 000/00 RMK AO2 T00670056
03949KAQV AQV20191224045010812/24/19 04:50:31  5-MIN KAQV 241050Z AUTO 00000KT 10SM CLR 07/06 A3005 260 93 -600 000/00 RMK AO2 T00670056
03949KAQV AQV20191224045511512/24/19 04:55:31  5-MIN KAQV 241055Z AUTO 00000KT 10SM CLR 07/06 A3005 260 93 -600 000/00 RMK AO2 SLP175 T00670056
03949KAQV AQV20191224050010812/24/19 05:00:31  5-MIN KAQV 241100Z AUTO 00000KT 10SM CLR 07/06 A3005 260 93 -600 000/00 RMK AO2 T00670056
03949KAQV AQV20191224050510812/24/19 05:05:31  5-MIN KAQV 241105Z AUTO 00000KT 10SM CLR 07/06 A3005 260 93 -600 000/00 RMK AO2 T00670056
03949KAQV AQV20191224051010812/24/19 05:10:31  5-MIN KAQV 241110Z AUTO 00000KT 10SM CLR 07/06 A3005 250 93 -600 000/00 RMK AO2 T00670056
03949KAQV AQV20191224051510812/24/19 05:15:31  5-MIN KAQV 241115Z AUTO 00000KT 10SM CLR 07/06 A3005 250 93 -600 000/00 RMK AO2 T00670056
03949KAQV AQV20191224052010812/24/19 05:20:31  5-MIN KAQV 241120Z AUTO 00000KT 10SM CLR 07/06 A3006 250 93 -600 000/00 RMK AO2 T00670056
03949KAQV AQV20191224052510812/24/19 05:25:31  5-MIN KAQV 241125Z AUTO 00000KT 10SM CLR 07/06 A3006 250 93 -600 000/00 RMK AO2 T00670056
03949KAQV AQV20191224053010812/24/19 05:30:31  5-MIN KAQV 241130Z AUTO 00000KT 10SM CLR 07/06 A3005 250 93 -600 000/00 RMK AO2 T00670056
03949KAQV AQV20191224053510712/24/19 05:35:31  5-MIN KAQV 241135Z AUTO 00000KT 9SM CLR 07/06 A3006 250 93 -600 000/00 RMK AO2 T00670056
03949KAQV AQV20191224054010712/24/19 05:40:31  5-MIN KAQV 241140Z AUTO 00000KT 9SM CLR 07/06 A3005 250 93 -600 000/00 RMK AO2 T00670056
03949KAQV AQV20191224054510812/24/19 05:45:31  5-MIN KAQV 241145Z AUTO 00000KT 10SM CLR 07/06 A3005 250 93 -600 000/00 RMK AO2 T00670056
03949KAQV AQV20191224055010812/24/19 05:50:31  5-MIN KAQV 241150Z AUTO 00000KT 10SM CLR 07/06 A3005 250 93 -600 000/00 RMK AO2 T00670056
03949KAQV AQV20191224055513312/24/19 05:55:31  5-MIN KAQV 241155Z AUTO 00000KT 10SM CLR 07/06 A3006 250 93 -600 000/00 RMK AO2 SLP178 T00670056 10083 20067 56005
03949KAQV AQV20191224060010812/24/19 06:00:31  5-MIN KAQV 241200Z AUTO 00000KT 10SM CLR 07/06 A3005 250 93 -600 000/00 RMK AO2 T00670056
03949KAQV AQV20191224060510712/24/19 06:05:31  5-MIN KAQV 241205Z AUTO 00000KT 8SM CLR 07/06 A3005 250 93 -600 000/00 RMK AO2 T00670056
03949KAQV AQV20191224061010712/24/19 06:10:31  5-MIN KAQV 241210Z AUTO 00000KT 7SM CLR 07/06 A3005 250 93 -600 000/00 RMK AO2 T00670056
03949KAQV AQV20191224061510712/24/19 06:15:31  5-MIN KAQV 241215Z AUTO 00000KT 7SM CLR 07/06 A3005 250 93 -600 000/00 RMK AO2 T00670056
03949KAQV AQV20191224062010712/24/19 06:20:31  5-MIN KAQV 241220Z AUTO 00000KT 8SM CLR 07/06 A3005 250 93 -600 000/00 RMK AO2 T00670056
03949KAQV AQV20191224062510712/24/19 06:25:31  5-MIN KAQV 241225Z AUTO 00000KT 8SM CLR 07/06 A3006 250 93 -600 000/00 RMK AO2 T00670056
03949KAQV AQV20191224063010712/24/19 06:30:31  5-MIN KAQV 241230Z AUTO 00000KT 8SM CLR 07/06 A3005 250 93 -600 000/00 RMK AO2 T00670056
03949KAQV AQV20191224063510712/24/19 06:35:31  5-MIN KAQV 241235Z AUTO 00000KT 8SM CLR 07/06 A3005 250 93 -600 000/00 RMK AO2 T00670056
03949KAQV AQV20191224064010712/24/19 06:40:31  5-MIN KAQV 241240Z AUTO 00000KT 8SM CLR 07/05 A3006 250 89 -600 000/00 RMK AO2 T00670050
03949KAQV AQV20191224064510712/24/19 06:45:31  5-MIN KAQV 241245Z AUTO 00000KT 7SM CLR 07/06 A3006 250 93 -600 000/00 RMK AO2 T00670056
03949KAQV AQV20191224065011012/24/19 06:50:31  5-MIN KAQV 241250Z AUTO 00000KT 6SM BR CLR 06/05 A3006 250 93 -700 000/00 RMK AO2 T00610050
03949KAQV AQV20191224065511412/24/19 06:55:31  5-MIN KAQV 241255Z AUTO 00000KT 7SM CLR 06/05 A3006 250 93 -700 000/00 RMK AO2 SLP180 T00610050
03949KAQV AQV20191224070010712/24/19 07:00:31  5-MIN KAQV 241300Z AUTO 00000KT 8SM CLR 06/05 A3006 250 93 -700 000/00 RMK AO2 T00610050
03949KAQV AQV20191224070510712/24/19 07:05:31  5-MIN KAQV 241305Z AUTO 00000KT 7SM CLR 06/05 A3006 250 93 -700 000/00 RMK AO2 T00610050
03949KAQV AQV20191224071010712/24/19 07:10:31  5-MIN KAQV 241310Z AUTO 00000KT 8SM CLR 06/05 A3006 250 93 -700 000/00 RMK AO2 T00610050
03949KAQV AQV20191224071510712/24/19 07:15:31  5-MIN KAQV 241315Z AUTO 00000KT 9SM CLR 06/05 A3006 250 93 -700 000/00 RMK AO2 T00610050
03949KAQV AQV20191224072010712/24/19 07:20:31  5-MIN KAQV 241320Z AUTO 00000KT 9SM CLR 06/05 A3006 250 93 -700 000/00 RMK AO2 T00610050
03949KAQV AQV20191224072510712/24/19 07:25:31  5-MIN KAQV 241325Z AUTO 00000KT 8SM CLR 06/05 A3006 240 93 -700 000/00 RMK AO2 T00610050
03949KAQV AQV20191224073010712/24/19 07:30:31  5-MIN KAQV 241330Z AUTO 00000KT 8SM CLR 06/05 A3006 240 93 -700 000/00 RMK AO2 T00610050
03949KAQV AQV20191224073510712/24/19 07:35:31  5-MIN KAQV 241335Z AUTO 00000KT 9SM CLR 06/05 A3006 240 93 -700 000/00 RMK AO2 T00610050
03949KAQV AQV20191224074010712/24/19 07:40:31  5-MIN KAQV 241340Z AUTO 00000KT 9SM CLR 06/05 A3007 240 93 -700 000/00 RMK AO2 T00610050
03949KAQV AQV20191224074510712/24/19 07:45:31  5-MIN KAQV 241345Z AUTO 00000KT 8SM CLR 06/05 A3007 240 93 -700 000/00 RMK AO2 T00610050
03949KAQV AQV20191224075010712/24/19 07:50:31  5-MIN KAQV 241350Z AUTO 00000KT 9SM CLR 07/06 A3007 240 93 -600 000/00 RMK AO2 T00670056
03949KAQV AQV20191224075511512/24/19 07:55:31  5-MIN KAQV 241355Z AUTO 00000KT 10SM CLR 07/06 A3007 240 93 -600 000/00 RMK AO2 SLP183 T00670056
03949KAQV AQV20191224080010812/24/19 08:00:31  5-MIN KAQV 241400Z AUTO 00000KT 10SM CLR 07/06 A3007 240 93 -500 000/00 RMK AO2 T00720061
03949KAQV AQV20191224080510812/24/19 08:05:31  5-MIN KAQV 241405Z AUTO 00000KT 10SM CLR 07/06 A3007 240 93 -500 000/00 RMK AO2 T00720061
03949KAQV AQV20191224081010812/24/19 08:10:31  5-MIN KAQV 241410Z AUTO 00000KT 10SM CLR 08/07 A3007 240 93 -500 000/00 RMK AO2 T00780067
03949KAQV AQV20191224081510812/24/19 08:15:31  5-MIN KAQV 241415Z AUTO 00000KT 10SM CLR 08/07 A3007 240 93 -400 000/00 RMK AO2 T00830072
03949KAQV AQV20191224082010812/24/19 08:20:31  5-MIN KAQV 241420Z AUTO 00000KT 10SM CLR 08/07 A3007 240 93 -400 000/00 RMK AO2 T00830072
03949KAQV AQV20191224082510812/24/19 08:25:31  5-MIN KAQV 241425Z AUTO 00000KT 10SM CLR 08/07 A3007 240 93 -400 000/00 RMK AO2 T00830072
03949KAQV AQV20191224083010812/24/19 08:30:31  5-MIN KAQV 241430Z AUTO 00000KT 10SM CLR 09/08 A3007 230 96 -400 000/00 RMK AO2 T00890083
03949KAQV AQV20191224083510812/24/19 08:35:31  5-MIN KAQV 241435Z AUTO 00000KT 10SM CLR 09/08 A3008 230 93 -300 000/00 RMK AO2 T00940083
03949KAQV AQV20191224084010812/24/19 08:40:31  5-MIN KAQV 241440Z AUTO 00000KT 10SM CLR 11/09 A3008 230 89 -200 000/00 RMK AO2 T01060089
03949KAQV AQV20191224084510812/24/19 08:45:31  5-MIN KAQV 241445Z AUTO 00000KT 10SM CLR 11/09 A3008 230 86 -100 000/00 RMK AO2 T01110089
03949KAQV AQV20191224085010512/24/19 08:50:31  5-MIN KAQV 241450Z AUTO 00000KT 10SM CLR 12/09 A3008 230 83 0 000/00 RMK AO2 T01170089
03949KAQV AQV20191224085511812/24/19 08:55:31  5-MIN KAQV 241455Z AUTO 00000KT 10SM CLR 12/09 A3008 230 83 0 000/00 RMK AO2 SLP186 T01170089 53003
03949KAQV AQV20191224090010712/24/19 09:00:31  5-MIN KAQV 241500Z AUTO 00000KT 10SM CLR 13/09 A3008 230 77 100 000/00 RMK AO2 T01280089
03949KAQV AQV20191224090510712/24/19 09:05:31  5-MIN KAQV 241505Z AUTO 00000KT 10SM CLR 13/09 A3008 230 77 100 000/00 RMK AO2 T01280089
03949KAQV AQV20191224091010712/24/19 09:10:31  5-MIN KAQV 241510Z AUTO 00000KT 10SM CLR 13/09 A3008 230 74 100 000/00 RMK AO2 T01330089
03949KAQV AQV20191224091510712/24/19 09:15:31  5-MIN KAQV 241515Z AUTO 00000KT 10SM CLR 13/09 A3008 230 74 100 000/00 RMK AO2 T01330089
03949KAQV AQV20191224092010712/24/19 09:20:31  5-MIN KAQV 241520Z AUTO 00000KT 10SM CLR 14/09 A3008 220 71 200 000/00 RMK AO2 T01390089
03949KAQV AQV20191224092510712/24/19 09:25:31  5-MIN KAQV 241525Z AUTO 00000KT 10SM CLR 14/09 A3009 220 69 300 000/00 RMK AO2 T01440089
03949KAQV AQV20191224093010712/24/19 09:30:31  5-MIN KAQV 241530Z AUTO 00000KT 10SM CLR 15/09 A3009 220 66 300 000/00 RMK AO2 T01500089
03949KAQV AQV20191224093510712/24/19 09:35:31  5-MIN KAQV 241535Z AUTO 00000KT 10SM CLR 15/09 A3009 220 66 300 000/00 RMK AO2 T01500089
03949KAQV AQV20191224094010712/24/19 09:40:31  5-MIN KAQV 241540Z AUTO 00000KT 10SM CLR 15/09 A3009 220 66 300 000/00 RMK AO2 T01500089
03949KAQV AQV20191224094509712/24/19 09:45:31  5-MIN KAQV 241545Z AUTO 10SM CLR 16/09 A3009 220 64 400 M /M RMK AO2 T01560089
03949KAQV AQV20191224095010712/24/19 09:50:31  5-MIN KAQV 241550Z AUTO 00000KT 10SM CLR 16/09 A3009 220 64 400 000/00 RMK AO2 T01560089
03949KAQV AQV20191224095511412/24/19 09:55:31  5-MIN KAQV 241555Z AUTO 00000KT 10SM CLR 16/09 A3009 220 62 400 000/00 RMK AO2 SLP191 T01610089
03949KAQV AQV20191224100010712/24/19 10:00:31  5-MIN KAQV 241600Z AUTO 00000KT 10SM CLR 16/09 A3009 220 62 400 000/00 RMK AO2 T01610089
03949KAQV AQV20191224100510712/24/19 10:05:31  5-MIN KAQV 241605Z AUTO 00000KT 10SM CLR 16/08 A3009 220 57 400 000/00 RMK AO2 T01610078
03949KAQV AQV20191224101010712/24/19 10:10:31  5-MIN KAQV 241610Z AUTO 00000KT 10SM CLR 17/08 A3009 220 57 500 000/00 RMK AO2 T01670083
03949KAQV AQV20191224101510712/24/19 10:15:31  5-MIN KAQV 241615Z AUTO 00000KT 10SM CLR 17/08 A3009 220 57 500 000/00 RMK AO2 T01670083
03949KAQV AQV20191224102010712/24/19 10:20:31  5-MIN KAQV 241620Z AUTO 00000KT 10SM CLR 18/08 A3009 220 51 600 000/00 RMK AO2 T01780078
03949KAQV AQV20191224102510712/24/19 10:25:31  5-MIN KAQV 241625Z AUTO 36003KT 10SM CLR 18/07 A3009 220 49 600 360/03 RMK AO2 T01780072
03949KAQV AQV20191224103010712/24/19 10:30:31  5-MIN KAQV 241630Z AUTO 04003KT 10SM CLR 18/07 A3009 220 49 600 040/03 RMK AO2 T01780072
03949KAQV AQV20191224103510712/24/19 10:35:31  5-MIN KAQV 241635Z AUTO 33003KT 10SM CLR 18/07 A3009 220 49 600 320/03 RMK AO2 T01780072
03949KAQV AQV20191224104010712/24/19 10:40:31  5-MIN KAQV 241640Z AUTO VRB03KT 10SM CLR 18/07 A3009 220 49 600 VRB/03 RMK AO2 T01780072
03949KAQV AQV20191224104510712/24/19 10:45:31  5-MIN KAQV 241645Z AUTO 03003KT 10SM CLR 18/08 A3008 230 50 700 020/03 RMK AO2 T01830078
03949KAQV AQV20191224105010712/24/19 10:50:31  5-MIN KAQV 241650Z AUTO 03003KT 10SM CLR 18/07 A3008 230 46 700 020/03 RMK AO2 T01830067
03949KAQV AQV20191224105511412/24/19 10:55:31  5-MIN KAQV 241655Z AUTO 00000KT 10SM CLR 18/07 A3008 230 46 700 000/00 RMK AO2 SLP185 T01830067
03949KAQV AQV20191224110010712/24/19 11:00:31  5-MIN KAQV 241700Z AUTO 00000KT 10SM CLR 18/07 A3008 230 48 700 000/00 RMK AO2 T01830072
03949KAQV AQV20191224110510712/24/19 11:05:31  5-MIN KAQV 241705Z AUTO 01003KT 10SM CLR 19/07 A3007 230 44 800 010/03 RMK AO2 T01890067
03949KAQV AQV20191224111010712/24/19 11:10:31  5-MIN KAQV 241710Z AUTO 00000KT 10SM CLR 18/07 A3007 240 46 700 000/00 RMK AO2 T01830067
03949KAQV AQV20191224111510712/24/19 11:15:31  5-MIN KAQV 241715Z AUTO 00000KT 10SM CLR 19/07 A3007 240 44 800 000/00 RMK AO2 T01890067
03949KAQV AQV20191224112010712/24/19 11:20:31  5-MIN KAQV 241720Z AUTO 00000KT 10SM CLR 19/06 A3007 240 41 900 000/00 RMK AO2 T01940061
03949KAQV AQV20191224112510712/24/19 11:25:31  5-MIN KAQV 241725Z AUTO 01005KT 10SM CLR 19/06 A3006 240 41 900 010/05 RMK AO2 T01940061
03949KAQV AQV20191224113010712/24/19 11:30:31  5-MIN KAQV 241730Z AUTO VRB03KT 10SM CLR 20/06 A3006 250 40 900 VRB/03 RMK AO2 T02000061
03949KAQV AQV20191224113510712/24/19 11:35:31  5-MIN KAQV 241735Z AUTO VRB03KT 10SM CLR 19/06 A3006 250 41 800 VRB/03 RMK AO2 T01890056
03949KAQV AQV20191224114010712/24/19 11:40:31  5-MIN KAQV 241740Z AUTO 00000KT 10SM CLR 19/06 A3006 250 40 900 000/00 RMK AO2 T01940056
03949KAQV AQV20191224114510712/24/19 11:45:31  5-MIN KAQV 241745Z AUTO VRB04KT 10SM CLR 20/06 A3005 250 38 900 VRB/04 RMK AO2 T02000056
03949KAQV AQV20191224115010712/24/19 11:50:31  5-MIN KAQV 241750Z AUTO 00000KT 10SM CLR 19/06 A3005 260 40 900 000/00 RMK AO2 T01940056
03949KAQV AQV20191224115513212/24/19 11:55:31  5-MIN KAQV 241755Z AUTO VRB03KT 10SM CLR 20/06 A3005 260 38 900 VRB/03 RMK AO2 SLP174 T02000056 10200 20056 53008
03949KAQV AQV20191224120010812/24/19 12:00:31  5-MIN KAQV 241800Z AUTO VRB03KT 10SM CLR 21/06 A3005 260 38 1000 VRB/03 RMK AO2 T02060061
03949KAQV AQV20191224120510812/24/19 12:05:31  5-MIN KAQV 241805Z AUTO VRB03KT 10SM CLR 21/06 A3004 260 38 1000 VRB/03 RMK AO2 T02060061
03949KAQV AQV20191224121010812/24/19 12:10:31  5-MIN KAQV 241810Z AUTO 00000KT 10SM CLR 21/06 A3004 270 38 1000 000/00 RMK AO2 T02060061
03949KAQV AQV20191224121510812/24/19 12:15:31  5-MIN KAQV 241815Z AUTO VRB04KT 10SM CLR 21/06 A3004 270 38 1000 VRB/04 RMK AO2 T02060061
03949KAQV AQV20191224122010812/24/19 12:20:31  5-MIN KAQV 241820Z AUTO VRB03KT 10SM CLR 21/07 A3003 270 38 1100 VRB/03 RMK AO2 T02110067
03949KAQV AQV20191224122510812/24/19 12:25:31  5-MIN KAQV 241825Z AUTO 06003KT 10SM CLR 21/07 A3003 270 38 1100 060/03 RMK AO2 T02110067
03949KAQV AQV20191224123010812/24/19 12:30:31  5-MIN KAQV 241830Z AUTO 07003KT 10SM CLR 21/07 A3003 280 40 1000 060/03 RMK AO2 T02060067
03949KAQV AQV20191224123510812/24/19 12:35:31  5-MIN KAQV 241835Z AUTO VRB03KT 10SM CLR 21/07 A3002 280 40 1000 VRB/03 RMK AO2 T02060067
03949KAQV AQV20191224124010812/24/19 12:40:31  5-MIN KAQV 241840Z AUTO 00000KT 10SM CLR 21/07 A3002 280 40 1000 000/00 RMK AO2 T02060067
03949KAQV AQV20191224124510812/24/19 12:45:31  5-MIN KAQV 241845Z AUTO VRB03KT 10SM CLR 21/07 A3002 290 40 1100 VRB/03 RMK AO2 T02110072
03949KAQV AQV20191224125010812/24/19 12:50:31  5-MIN KAQV 241850Z AUTO 00000KT 10SM CLR 21/07 A3001 290 41 1000 000/00 RMK AO2 T02060072
03949KAQV AQV20191224125511512/24/19 12:55:31  5-MIN KAQV 241855Z AUTO 07003KT 10SM CLR 21/07 A3001 290 40 1100 060/03 RMK AO2 SLP161 T02110072
03949KAQV AQV20191224130009812/24/19 13:00:31  5-MIN KAQV 241900Z AUTO 10SM CLR 22/08 A3001 300 40 1200 M /M RMK AO2 T02170078
03949KAQV AQV20191224130510812/24/19 13:05:31  5-MIN KAQV 241905Z AUTO 00000KT 10SM CLR 21/07 A3000 300 41 1100 000/00 RMK AO2 T02060072
03949KAQV AQV20191224131010812/24/19 13:10:31  5-MIN KAQV 241910Z AUTO 00000KT 10SM CLR 21/08 A3000 300 42 1100 000/00 RMK AO2 T02110078
03949KAQV AQV20191224131510812/24/19 13:15:31  5-MIN KAQV 241915Z AUTO 03005KT 10SM CLR 22/08 A2999 310 40 1200 030/05 RMK AO2 T02170078
03949KAQV AQV20191224132010812/24/19 13:20:31  5-MIN KAQV 241920Z AUTO 00000KT 10SM CLR 22/08 A2999 310 40 1200 000/00 RMK AO2 T02170078
03949KAQV AQV20191224132510812/24/19 13:25:31  5-MIN KAQV 241925Z AUTO 00000KT 10SM CLR 22/08 A2999 310 40 1200 000/00 RMK AO2 T02170078
03949KAQV AQV20191224133010812/24/19 13:30:31  5-MIN KAQV 241930Z AUTO 00000KT 10SM CLR 22/08 A2999 310 42 1200 000/00 RMK AO2 T02170083
03949KAQV AQV20191224133510812/24/19 13:35:31  5-MIN KAQV 241935Z AUTO VRB04KT 10SM CLR 22/08 A2999 310 40 1200 VRB/04 RMK AO2 T02170078
03949KAQV AQV20191224134010812/24/19 13:40:31  5-MIN KAQV 241940Z AUTO 00000KT 10SM CLR 22/08 A2999 320 42 1200 000/00 RMK AO2 T02170083
03949KAQV AQV20191224134510812/24/19 13:45:31  5-MIN KAQV 241945Z AUTO VRB03KT 10SM CLR 22/08 A2999 320 40 1300 VRB/03 RMK AO2 T02220083
03949KAQV AQV20191224135010812/24/19 13:50:31  5-MIN KAQV 241950Z AUTO 02003KT 10SM CLR 22/08 A2999 320 40 1300 010/03 RMK AO2 T02220083
03949KAQV AQV20191224135511512/24/19 13:55:31  5-MIN KAQV 241955Z AUTO VRB03KT 10SM CLR 22/08 A2998 320 40 1300 VRB/03 RMK AO2 SLP153 T02220083
03949KAQV AQV20191224140010812/24/19 14:00:31  5-MIN KAQV 242000Z AUTO 01004KT 10SM CLR 22/08 A2998 320 40 1300 010/04 RMK AO2 T02220083
03949KAQV AQV20191224140510812/24/19 14:05:31  5-MIN KAQV 242005Z AUTO VRB03KT 10SM CLR 22/08 A2998 320 40 1300 VRB/03 RMK AO2 T02220083
03949KAQV AQV20191224141010812/24/19 14:10:31  5-MIN KAQV 242010Z AUTO 00000KT 10SM CLR 22/08 A2998 320 40 1300 000/00 RMK AO2 T02220083
03949KAQV AQV20191224141510812/24/19 14:15:31  5-MIN KAQV 242015Z AUTO VRB06KT 10SM CLR 22/08 A2998 320 40 1300 VRB/06 RMK AO2 T02220083
03949KAQV AQV20191224142010812/24/19 14:20:31  5-MIN KAQV 242020Z AUTO 00000KT 10SM CLR 22/08 A2998 320 40 1300 000/00 RMK AO2 T02220083
03949KAQV AQV20191224142510812/24/19 14:25:31  5-MIN KAQV 242025Z AUTO VRB04KT 10SM CLR 22/08 A2998 320 40 1300 VRB/04 RMK AO2 T02220083
03949KAQV AQV20191224143010812/24/19 14:30:31  5-MIN KAQV 242030Z AUTO 04003KT 10SM CLR 23/08 A2998 320 39 1300 030/03 RMK AO2 T02280083
03949KAQV AQV20191224143510812/24/19 14:35:31  5-MIN KAQV 242035Z AUTO 00000KT 10SM CLR 23/08 A2998 330 39 1300 000/00 RMK AO2 T02280083
03949KAQV AQV20191224144010812/24/19 14:40:31  5-MIN KAQV 242040Z AUTO 00000KT 10SM CLR 22/08 A2997 330 40 1300 000/00 RMK AO2 T02220083
03949KAQV AQV20191224144510812/24/19 14:45:31  5-MIN KAQV 242045Z AUTO VRB03KT 10SM CLR 22/08 A2997 330 40 1300 VRB/03 RMK AO2 T02220083
03949KAQV AQV20191224145010812/24/19 14:50:31  5-MIN KAQV 242050Z AUTO 00000KT 10SM CLR 23/08 A2997 330 39 1300 000/00 RMK AO2 T02280083
03949KAQV AQV20191224145512112/24/19 14:55:31  5-MIN KAQV 242055Z AUTO 00000KT 10SM CLR 23/08 A2997 330 38 1400 000/00 RMK AO2 SLP149 T02330083 58011
03949KAQV AQV20191224150010812/24/19 15:00:31  5-MIN KAQV 242100Z AUTO 02003KT 10SM CLR 23/08 A2997 330 39 1300 020/03 RMK AO2 T02280083
03949KAQV AQV20191224150510812/24/19 15:05:31  5-MIN KAQV 242105Z AUTO VRB03KT 10SM CLR 23/08 A2997 330 39 1300 VRB/03 RMK AO2 T02280083
03949KAQV AQV20191224151010812/24/19 15:10:31  5-MIN KAQV 242110Z AUTO VRB03KT 10SM CLR 23/08 A2997 330 39 1400 VRB/03 RMK AO2 T02280083
03949KAQV AQV20191224151510812/24/19 15:15:31  5-MIN KAQV 242115Z AUTO 04005KT 10SM CLR 23/08 A2997 330 39 1400 030/05 RMK AO2 T02280083
03949KAQV AQV20191224152010812/24/19 15:20:31  5-MIN KAQV 242120Z AUTO 01004KT 10SM CLR 23/09 A2997 330 40 1400 010/04 RMK AO2 T02280089
03949KAQV AQV20191224152510812/24/19 15:25:31  5-MIN KAQV 242125Z AUTO 02004KT 10SM CLR 23/08 A2997 330 39 1300 010/04 RMK AO2 T02280083
03949KAQV AQV20191224153010812/24/19 15:30:31  5-MIN KAQV 242130Z AUTO 04003KT 10SM CLR 23/09 A2997 330 40 1300 040/03 RMK AO2 T02280089
03949KAQV AQV20191224153510812/24/19 15:35:31  5-MIN KAQV 242135Z AUTO 00000KT 10SM CLR 23/08 A2997 330 39 1300 000/00 RMK AO2 T02280083
03949KAQV AQV20191224154010812/24/19 15:40:31  5-MIN KAQV 242140Z AUTO 07003KT 10SM CLR 22/08 A2998 330 40 1300 070/03 RMK AO2 T02220083
03949KAQV AQV20191224154510812/24/19 15:45:31  5-MIN KAQV 242145Z AUTO VRB03KT 10SM CLR 22/09 A2998 320 42 1300 VRB/03 RMK AO2 T02220089
03949KAQV AQV20191224155010812/24/19 15:50:31  5-MIN KAQV 242150Z AUTO 00000KT 10SM CLR 23/09 A2998 320 40 1300 000/00 RMK AO2 T02280089
03949KAQV AQV20191224155511512/24/19 15:55:31  5-MIN KAQV 242155Z AUTO 00000KT 10SM CLR 22/09 A2998 320 42 1300 000/00 RMK AO2 SLP151 T02220089
03949KAQV AQV20191224160010812/24/19 16:00:31  5-MIN KAQV 242200Z AUTO VRB03KT 10SM CLR 23/09 A2998 320 40 1300 VRB/03 RMK AO2 T02280089
03949KAQV AQV20191224160510812/24/19 16:05:31  5-MIN KAQV 242205Z AUTO 03003KT 10SM CLR 22/09 A2998 320 42 1300 030/03 RMK AO2 T02220089
03949KAQV AQV20191224161010812/24/19 16:10:31  5-MIN KAQV 242210Z AUTO VRB03KT 10SM CLR 22/09 A2998 320 42 1300 VRB/03 RMK AO2 T02220089
03949KAQV AQV20191224161510812/24/19 16:15:31  5-MIN KAQV 242215Z AUTO VRB03KT 10SM CLR 22/09 A2998 320 43 1200 VRB/03 RMK AO2 T02170089
03949KAQV AQV20191224162010812/24/19 16:20:31  5-MIN KAQV 242220Z AUTO 00000KT 10SM CLR 22/09 A2998 320 43 1200 000/00 RMK AO2 T02170089
03949KAQV AQV20191224162510812/24/19 16:25:31  5-MIN KAQV 242225Z AUTO 05003KT 10SM CLR 22/09 A2998 320 43 1200 050/03 RMK AO2 T02170089
03949KAQV AQV20191224163010812/24/19 16:30:31  5-MIN KAQV 242230Z AUTO 07003KT 10SM CLR 21/09 A2998 320 47 1200 060/03 RMK AO2 T02110094
03949KAQV AQV20191224163510812/24/19 16:35:31  5-MIN KAQV 242235Z AUTO 00000KT 10SM CLR 21/09 A2998 320 48 1100 000/00 RMK AO2 T02060094
03949KAQV AQV20191224164010812/24/19 16:40:31  5-MIN KAQV 242240Z AUTO 00000KT 10SM CLR 19/10 A2998 320 54 1000 000/00 RMK AO2 T01940100
03949KAQV AQV20191224164510712/24/19 16:45:31  5-MIN KAQV 242245Z AUTO 00000KT 10SM CLR 19/10 A2998 320 56 900 000/00 RMK AO2 T01890100
03949KAQV AQV20191224165010712/24/19 16:50:31  5-MIN KAQV 242250Z AUTO 00000KT 10SM CLR 19/10 A2998 320 56 900 000/00 RMK AO2 T01890100
03949KAQV AQV20191224165511412/24/19 16:55:31  5-MIN KAQV 242255Z AUTO 00000KT 10SM CLR 18/11 A2998 320 62 800 000/00 RMK AO2 SLP152 T01780106
03949KAQV AQV20191224170010712/24/19 17:00:31  5-MIN KAQV 242300Z AUTO 00000KT 10SM CLR 18/11 A2998 320 64 800 000/00 RMK AO2 T01780111
03949KAQV AQV20191224170510712/24/19 17:05:31  5-MIN KAQV 242305Z AUTO 00000KT 10SM CLR 17/11 A2998 320 67 700 000/00 RMK AO2 T01720111
03949KAQV AQV20191224171010712/24/19 17:10:31  5-MIN KAQV 242310Z AUTO 00000KT 10SM CLR 17/11 A2998 320 69 600 000/00 RMK AO2 T01670111
03949KAQV AQV20191224171510712/24/19 17:15:31  5-MIN KAQV 242315Z AUTO 00000KT 10SM CLR 17/11 A2998 320 69 600 000/00 RMK AO2 T01670111
03949KAQV AQV20191224172010712/24/19 17:20:31  5-MIN KAQV 242320Z AUTO 00000KT 10SM CLR 16/11 A2998 320 72 600 000/00 RMK AO2 T01610111
03949KAQV AQV20191224172510712/24/19 17:25:31  5-MIN KAQV 242325Z AUTO 00000KT 10SM CLR 16/11 A2998 320 69 600 000/00 RMK AO2 T01610106
03949KAQV AQV20191224173010712/24/19 17:30:31  5-MIN KAQV 242330Z AUTO 00000KT 10SM CLR 16/11 A2998 320 72 500 000/00 RMK AO2 T01560106
03949KAQV AQV20191224173510712/24/19 17:35:31  5-MIN KAQV 242335Z AUTO 00000KT 10SM CLR 16/11 A2998 320 72 500 000/00 RMK AO2 T01560106
03949KAQV AQV20191224174010712/24/19 17:40:31  5-MIN KAQV 242340Z AUTO 00000KT 10SM CLR 15/11 A2998 320 74 400 000/00 RMK AO2 T01500106
03949KAQV AQV20191224174510712/24/19 17:45:31  5-MIN KAQV 242345Z AUTO 00000KT 10SM CLR 14/11 A2998 320 77 400 000/00 RMK AO2 T01440106
03949KAQV AQV20191224175010712/24/19 17:50:31  5-MIN KAQV 242350Z AUTO 00000KT 10SM CLR 14/11 A2998 320 77 400 000/00 RMK AO2 T01440106
03949KAQV AQV20191224175513212/24/19 17:55:31  5-MIN KAQV 242355Z AUTO 00000KT 10SM CLR 14/10 A2998 320 74 400 000/00 RMK AO2 SLP154 T01440100 10233 20144 56025
03949KAQV AQV20191224180010712/24/19 18:00:31  5-MIN KAQV 250000Z AUTO 00000KT 10SM CLR 14/10 A2999 320 77 300 000/00 RMK AO2 T01390100
03949KAQV AQV20191224180510712/24/19 18:05:31  5-MIN KAQV 250005Z AUTO 00000KT 10SM CLR 14/10 A2999 320 77 300 000/00 RMK AO2 T01390100
03949KAQV AQV20191224181010712/24/19 18:10:31  5-MIN KAQV 250010Z AUTO 00000KT 10SM CLR 14/10 A2999 310 77 300 000/00 RMK AO2 T01390100
03949KAQV AQV20191224181510712/24/19 18:15:31  5-MIN KAQV 250015Z AUTO 00000KT 10SM CLR 14/10 A2999 310 77 300 000/00 RMK AO2 T01390100
03949KAQV AQV20191224182010712/24/19 18:20:31  5-MIN KAQV 250020Z AUTO 00000KT 10SM CLR 13/10 A2999 310 80 200 000/00 RMK AO2 T01330100
03949KAQV AQV20191224182510712/24/19 18:25:31  5-MIN KAQV 250025Z AUTO 00000KT 10SM CLR 13/10 A2999 310 80 200 000/00 RMK AO2 T01330100
03949KAQV AQV20191224183010712/24/19 18:30:31  5-MIN KAQV 250030Z AUTO 00000KT 10SM CLR 13/10 A2999 320 80 200 000/00 RMK AO2 T01330100
03949KAQV AQV20191224183510712/24/19 18:35:31  5-MIN KAQV 250035Z AUTO 00000KT 10SM CLR 13/10 A2998 320 83 200 000/00 RMK AO2 T01280100
03949KAQV AQV20191224184010712/24/19 18:40:31  5-MIN KAQV 250040Z AUTO 00000KT 10SM CLR 13/10 A2998 320 83 200 000/00 RMK AO2 T01280100
03949KAQV AQV20191224184510712/24/19 18:45:31  5-MIN KAQV 250045Z AUTO 00000KT 10SM CLR 13/10 A2999 310 83 200 000/00 RMK AO2 T01280100
03949KAQV AQV20191224185010712/24/19 18:50:31  5-MIN KAQV 250050Z AUTO 00000KT 10SM CLR 13/10 A2999 310 83 200 000/00 RMK AO2 T01280100
03949KAQV AQV20191224185511412/24/19 18:55:31  5-MIN KAQV 250055Z AUTO 00000KT 10SM CLR 12/09 A2999 310 83 100 000/00 RMK AO2 SLP156 T01220094
03949KAQV AQV20191224190010712/24/19 19:00:31  5-MIN KAQV 250100Z AUTO 00000KT 10SM CLR 12/09 A2999 310 83 100 000/00 RMK AO2 T01220094
03949KAQV AQV20191224190510712/24/19 19:05:31  5-MIN KAQV 250105Z AUTO 00000KT 10SM CLR 12/09 A2999 310 83 100 000/00 RMK AO2 T01220094
03949KAQV AQV20191224191010512/24/19 19:10:31  5-MIN KAQV 250110Z AUTO 00000KT 10SM CLR 12/09 A2999 310 86 0 000/00 RMK AO2 T01170094
03949KAQV AQV20191224191510512/24/19 19:15:31  5-MIN KAQV 250115Z AUTO 00000KT 10SM CLR 12/09 A2999 320 86 0 000/00 RMK AO2 T01170094
03949KAQV AQV20191224192010512/24/19 19:20:31  5-MIN KAQV 250120Z AUTO 00000KT 10SM CLR 12/09 A2999 320 86 0 000/00 RMK AO2 T01170094
03949KAQV AQV20191224192510512/24/19 19:25:31  5-MIN KAQV 250125Z AUTO 00000KT 10SM CLR 12/09 A2999 320 86 0 000/00 RMK AO2 T01170094
03949KAQV AQV20191224193010512/24/19 19:30:31  5-MIN KAQV 250130Z AUTO 00000KT 10SM CLR 12/09 A2999 320 86 0 000/00 RMK AO2 T01170094
03949KAQV AQV20191224193510512/24/19 19:35:31  5-MIN KAQV 250135Z AUTO 00000KT 10SM CLR 11/09 A2998 320 86 0 000/00 RMK AO2 T01110089
03949KAQV AQV20191224194010512/24/19 19:40:31  5-MIN KAQV 250140Z AUTO 00000KT 10SM CLR 11/09 A2998 320 86 0 000/00 RMK AO2 T01110089
03949KAQV AQV20191224194510512/24/19 19:45:31  5-MIN KAQV 250145Z AUTO 00000KT 10SM CLR 11/09 A2998 320 89 0 000/00 RMK AO2 T01110094
03949KAQV AQV20191224195010512/24/19 19:50:31  5-MIN KAQV 250150Z AUTO 00000KT 10SM CLR 11/09 A2998 320 89 0 000/00 RMK AO2 T01110094
03949KAQV AQV20191224195511212/24/19 19:55:31  5-MIN KAQV 250155Z AUTO 00000KT 10SM CLR 11/09 A2998 320 89 0 000/00 RMK AO2 SLP154 T01110094
03949KAQV AQV20191224200010512/24/19 20:00:31  5-MIN KAQV 250200Z AUTO 00000KT 10SM CLR 11/09 A2998 320 86 0 000/00 RMK AO2 T01110089
03949KAQV AQV20191224200510512/24/19 20:05:31  5-MIN KAQV 250205Z AUTO 00000KT 10SM CLR 11/09 A2998 320 89 0 000/00 RMK AO2 T01110094
03949KAQV AQV20191224201010512/24/19 20:10:31  5-MIN KAQV 250210Z AUTO 00000KT 10SM CLR 11/09 A2998 320 89 0 000/00 RMK AO2 T01060089
03949KAQV AQV20191224201510512/24/19 20:15:31  5-MIN KAQV 250215Z AUTO 00000KT 10SM CLR 11/09 A2998 320 89 0 000/00 RMK AO2 T01060089
03949KAQV AQV20191224202010512/24/19 20:20:31  5-MIN KAQV 250220Z AUTO 00000KT 10SM CLR 11/09 A2998 320 89 0 000/00 RMK AO2 T01060089
03949KAQV AQV20191224202510512/24/19 20:25:31  5-MIN KAQV 250225Z AUTO 00000KT 10SM CLR 11/09 A2998 320 89 0 000/00 RMK AO2 T01060089
03949KAQV AQV20191224203010512/24/19 20:30:31  5-MIN KAQV 250230Z AUTO 00000KT 10SM CLR 11/09 A2998 320 89 0 000/00 RMK AO2 T01060089
03949KAQV AQV20191224203510512/24/19 20:35:31  5-MIN KAQV 250235Z AUTO 00000KT 10SM CLR 11/09 A2998 320 89 0 000/00 RMK AO2 T01060089
03949KAQV AQV20191224204010812/24/19 20:40:31  5-MIN KAQV 250240Z AUTO 00000KT 10SM CLR 10/09 A2998 320 93 -100 000/00 RMK AO2 T01000089
03949KAQV AQV20191224204510812/24/19 20:45:31  5-MIN KAQV 250245Z AUTO 00000KT 10SM CLR 10/08 A2998 320 89 -100 000/00 RMK AO2 T01000083
03949KAQV AQV20191224205010812/24/19 20:50:31  5-MIN KAQV 250250Z AUTO 00000KT 10SM CLR 10/09 A2998 320 93 -100 000/00 RMK AO2 T01000089
03949KAQV AQV20191224205512112/24/19 20:55:31  5-MIN KAQV 250255Z AUTO 00000KT 10SM CLR 10/08 A2998 320 89 -100 000/00 RMK AO2 SLP154 T01000083 51004
03949KAQV AQV20191224210010812/24/19 21:00:31  5-MIN KAQV 250300Z AUTO 00000KT 10SM CLR 10/08 A2999 320 89 -100 000/00 RMK AO2 T01000083
03949KAQV AQV20191224210510812/24/19 21:05:31  5-MIN KAQV 250305Z AUTO 00000KT 10SM CLR 10/08 A2998 320 89 -100 000/00 RMK AO2 T01000083
03949KAQV AQV20191224211010812/24/19 21:10:31  5-MIN KAQV 250310Z AUTO 00000KT 10SM CLR 10/09 A2998 320 93 -100 000/00 RMK AO2 T01000089
03949KAQV AQV20191224211510812/24/19 21:15:31  5-MIN KAQV 250315Z AUTO 00000KT 10SM CLR 10/08 A2999 320 89 -100 000/00 RMK AO2 T01000083
03949KAQV AQV20191224212010812/24/19 21:20:31  5-MIN KAQV 250320Z AUTO 00000KT 10SM CLR 10/08 A2999 310 89 -100 000/00 RMK AO2 T01000083
03949KAQV AQV20191224212510812/24/19 21:25:31  5-MIN KAQV 250325Z AUTO 00000KT 10SM CLR 10/08 A2999 310 89 -100 000/00 RMK AO2 T01000083
03949KAQV AQV20191224213010812/24/19 21:30:31  5-MIN KAQV 250330Z AUTO 00000KT 10SM CLR 10/08 A2999 310 89 -100 000/00 RMK AO2 T01000083
03949KAQV AQV20191224213510812/24/19 21:35:31  5-MIN KAQV 250335Z AUTO 00000KT 10SM CLR 10/08 A2999 310 89 -100 000/00 RMK AO2 T01000083
03949KAQV AQV20191224214010812/24/19 21:40:31  5-MIN KAQV 250340Z AUTO 00000KT 10SM CLR 10/08 A2999 310 89 -100 000/00 RMK AO2 T01000083
03949KAQV AQV20191224214510812/24/19 21:45:31  5-MIN KAQV 250345Z AUTO 00000KT 10SM CLR 10/08 A2999 310 89 -100 000/00 RMK AO2 T01000083
03949KAQV AQV20191224215010812/24/19 21:50:31  5-MIN KAQV 250350Z AUTO 00000KT 10SM CLR 10/08 A2999 310 89 -100 000/00 RMK AO2 T01000083
03949KAQV AQV20191224215511512/24/19 21:55:31  5-MIN KAQV 250355Z AUTO 00000KT 10SM CLR 10/08 A3000 310 89 -100 000/00 RMK AO2 SLP158 T01000083
03949KAQV AQV20191224220010812/24/19 22:00:31  5-MIN KAQV 250400Z AUTO 00000KT 10SM CLR 10/08 A3000 310 89 -100 000/00 RMK AO2 T01000083
03949KAQV AQV20191224220510812/24/19 22:05:31  5-MIN KAQV 250405Z AUTO 00000KT 10SM CLR 09/08 A3000 300 93 -200 000/00 RMK AO2 T00940083
03949KAQV AQV20191224221010812/24/19 22:10:31  5-MIN KAQV 250410Z AUTO 00000KT 10SM CLR 10/08 A3000 310 89 -100 000/00 RMK AO2 T01000083
03949KAQV AQV20191224221510812/24/19 22:15:31  5-MIN KAQV 250415Z AUTO 00000KT 10SM CLR 09/08 A3000 300 93 -200 000/00 RMK AO2 T00940083
03949KAQV AQV20191224222010812/24/19 22:20:31  5-MIN KAQV 250420Z AUTO 00000KT 10SM CLR 09/08 A3000 300 89 -200 000/00 RMK AO2 T00940078
03949KAQV AQV20191224222510812/24/19 22:25:31  5-MIN KAQV 250425Z AUTO 00000KT 10SM CLR 09/08 A3000 300 89 -200 000/00 RMK AO2 T00940078
03949KAQV AQV20191224223010812/24/19 22:30:31  5-MIN KAQV 250430Z AUTO 00000KT 10SM CLR 09/08 A3000 300 93 -200 000/00 RMK AO2 T00940083
03949KAQV AQV20191224223510812/24/19 22:35:31  5-MIN KAQV 250435Z AUTO 00000KT 10SM CLR 09/08 A3000 300 93 -200 000/00 RMK AO2 T00940083
03949KAQV AQV20191224224010812/24/19 22:40:31  5-MIN KAQV 250440Z AUTO 00000KT 10SM CLR 09/08 A3000 300 93 -200 000/00 RMK AO2 T00940083
03949KAQV AQV20191224224510812/24/19 22:45:31  5-MIN KAQV 250445Z AUTO 00000KT 10SM CLR 10/08 A3000 300 89 -100 000/00 RMK AO2 T01000083
03949KAQV AQV20191224225010812/24/19 22:50:31  5-MIN KAQV 250450Z AUTO 00000KT 10SM CLR 09/08 A3000 310 93 -200 000/00 RMK AO2 T00940083
03949KAQV AQV20191224225511512/24/19 22:55:31  5-MIN KAQV 250455Z AUTO 00000KT 10SM CLR 09/08 A3000 310 93 -200 000/00 RMK AO2 SLP156 T00940083
03949KAQV AQV20191224230010812/24/19 23:00:31  5-MIN KAQV 250500Z AUTO 00000KT 10SM CLR 09/08 A2999 310 89 -200 000/00 RMK AO2 T00940078
03949KAQV AQV20191224230510812/24/19 23:05:31  5-MIN KAQV 250505Z AUTO 00000KT 10SM CLR 09/08 A2999 310 93 -300 000/00 RMK AO2 T00890078
03949KAQV AQV20191224231010812/24/19 23:10:31  5-MIN KAQV 250510Z AUTO 00000KT 10SM CLR 09/08 A2999 310 93 -300 000/00 RMK AO2 T00890078
03949KAQV AQV20191224231510812/24/19 23:15:31  5-MIN KAQV 250515Z AUTO 00000KT 10SM CLR 09/08 A2999 310 93 -300 000/00 RMK AO2 T00890078
03949KAQV AQV20191224232010812/24/19 23:20:31  5-MIN KAQV 250520Z AUTO 00000KT 10SM CLR 09/08 A2999 310 93 -300 000/00 RMK AO2 T00890078
03949KAQV AQV20191224232510812/24/19 23:25:31  5-MIN KAQV 250525Z AUTO 00000KT 10SM CLR 09/08 A2999 310 93 -300 000/00 RMK AO2 T00890078
03949KAQV AQV20191224233010812/24/19 23:30:31  5-MIN KAQV 250530Z AUTO 00000KT 10SM CLR 09/08 A2999 310 93 -300 000/00 RMK AO2 T00890078
03949KAQV AQV20191224233510812/24/19 23:35:31  5-MIN KAQV 250535Z AUTO 00000KT 10SM CLR 09/07 A2999 310 89 -300 000/00 RMK AO2 T00890072
03949KAQV AQV20191224234010812/24/19 23:40:31  5-MIN KAQV 250540Z AUTO 00000KT 10SM CLR 09/08 A2999 310 93 -300 000/00 RMK AO2 T00890078
03949KAQV AQV20191224234510812/24/19 23:45:31  5-MIN KAQV 250545Z AUTO 00000KT 10SM CLR 09/08 A2999 310 93 -300 000/00 RMK AO2 T00890078
03949KAQV AQV20191224235010812/24/19 23:50:31  5-MIN KAQV 250550Z AUTO 00000KT 10SM CLR 09/08 A2999 320 93 -300 000/00 RMK AO2 T00890078
03949KAQV AQV20191224235514312/24/19 23:55:31  5-MIN KAQV 250555Z AUTO 00000KT 10SM CLR 09/07 A2999 320 89 -300 000/00 RMK AO2 SLP153 T00890072 10144 20089 402330056 53000
03949KAQV AQV20191225000010812/25/19 00:00:31  5-MIN KAQV 250600Z AUTO 00000KT 10SM CLR 09/07 A2998 320 89 -200 000/00 RMK AO2 T00890072
03949KAQV AQV20191225000510812/25/19 00:05:31  5-MIN KAQV 250605Z AUTO 00000KT 10SM CLR 09/07 A2998 320 89 -200 000/00 RMK AO2 T00890072
03949KAQV AQV20191225001010812/25/19 00:10:31  5-MIN KAQV 250610Z AUTO 00000KT 10SM CLR 08/07 A2997 330 93 -300 000/00 RMK AO2 T00830072
03949KAQV AQV20191225001510812/25/19 00:15:31  5-MIN KAQV 250615Z AUTO 00000KT 10SM CLR 09/07 A2997 330 89 -200 000/00 RMK AO2 T00890072
03949KAQV AQV20191225002010812/25/19 00:20:31  5-MIN KAQV 250620Z AUTO 00000KT 10SM CLR 08/07 A2997 330 93 -300 000/00 RMK AO2 T00830072
03949KAQV AQV20191225002510812/25/19 00:25:31  5-MIN KAQV 250625Z AUTO 00000KT 10SM CLR 08/07 A2997 330 93 -300 000/00 RMK AO2 T00830072
03949KAQV AQV20191225003010812/25/19 00:30:31  5-MIN KAQV 250630Z AUTO 00000KT 10SM CLR 09/07 A2997 330 89 -200 000/00 RMK AO2 T00890072
03949KAQV AQV20191225003510812/25/19 00:35:31  5-MIN KAQV 250635Z AUTO 00000KT 10SM CLR 09/07 A2997 330 89 -200 000/00 RMK AO2 T00890072
03949KAQV AQV20191225004010812/25/19 00:40:31  5-MIN KAQV 250640Z AUTO 00000KT 10SM CLR 09/07 A2997 330 89 -200 000/00 RMK AO2 T00890072
03949KAQV AQV20191225004510812/25/19 00:45:31  5-MIN KAQV 250645Z AUTO 00000KT 10SM CLR 09/07 A2997 330 89 -200 000/00 RMK AO2 T00890072
03949KAQV AQV20191225005010812/25/19 00:50:31  5-MIN KAQV 250650Z AUTO 00000KT 10SM CLR 09/07 A2997 330 89 -200 000/00 RMK AO2 T00890072
03949KAQV AQV20191225005511512/25/19 00:55:31  5-MIN KAQV 250655Z AUTO 00000KT 10SM CLR 08/07 A2997 330 93 -300 000/00 RMK AO2 SLP148 T00830072
03949KAQV AQV20191225010010812/25/19 01:00:31  5-MIN KAQV 250700Z AUTO 00000KT 10SM CLR 08/07 A2997 330 93 -300 000/00 RMK AO2 T00830072
03949KAQV AQV20191225010510812/25/19 01:05:31  5-MIN KAQV 250705Z AUTO 00000KT 10SM CLR 08/07 A2997 330 93 -300 000/00 RMK AO2 T00830072
03949KAQV AQV20191225011010812/25/19 01:10:31  5-MIN KAQV 250710Z AUTO 00000KT 10SM CLR 08/07 A2997 330 93 -300 000/00 RMK AO2 T00830072
03949KAQV AQV20191225011510812/25/19 01:15:31  5-MIN KAQV 250715Z AUTO 00000KT 10SM CLR 08/07 A2997 330 93 -300 000/00 RMK AO2 T00830072
03949KAQV AQV20191225012010812/25/19 01:20:31  5-MIN KAQV 250720Z AUTO 00000KT 10SM CLR 08/07 A2997 330 93 -300 000/00 RMK AO2 T00830072
03949KAQV AQV20191225012510812/25/19 01:25:31  5-MIN KAQV 250725Z AUTO 00000KT 10SM CLR 08/07 A2998 330 93 -300 000/00 RMK AO2 T00830072
03949KAQV AQV20191225013010812/25/19 01:30:31  5-MIN KAQV 250730Z AUTO 00000KT 10SM CLR 08/07 A2997 330 93 -300 000/00 RMK AO2 T00830072
03949KAQV AQV20191225013510812/25/19 01:35:31  5-MIN KAQV 250735Z AUTO 00000KT 10SM CLR 08/07 A2997 330 93 -300 000/00 RMK AO2 T00830072
03949KAQV AQV20191225014010812/25/19 01:40:31  5-MIN KAQV 250740Z AUTO 00000KT 10SM CLR 08/07 A2998 320 93 -300 000/00 RMK AO2 T00830072
03949KAQV AQV20191225014510812/25/19 01:45:31  5-MIN KAQV 250745Z AUTO 00000KT 10SM CLR 08/07 A2999 320 93 -300 000/00 RMK AO2 T00830072
03949KAQV AQV20191225015010812/25/19 01:50:31  5-MIN KAQV 250750Z AUTO 00000KT 10SM CLR 08/07 A2998 320 93 -300 000/00 RMK AO2 T00830072
03949KAQV AQV20191225015511512/25/19 01:55:31  5-MIN KAQV 250755Z AUTO 00000KT 10SM CLR 09/07 A2998 320 89 -200 000/00 RMK AO2 SLP151 T00890072
03949KAQV AQV20191225020010812/25/19 02:00:31  5-MIN KAQV 250800Z AUTO 00000KT 10SM CLR 08/07 A2997 330 93 -300 000/00 RMK AO2 T00830072
03949KAQV AQV20191225020510812/25/19 02:05:31  5-MIN KAQV 250805Z AUTO 00000KT 10SM CLR 08/07 A2997 330 93 -300 000/00 RMK AO2 T00830072
03949KAQV AQV20191225021010812/25/19 02:10:31  5-MIN KAQV 250810Z AUTO 00000KT 10SM CLR 08/07 A2997 330 93 -300 000/00 RMK AO2 T00830072
03949KAQV AQV20191225021510812/25/19 02:15:31  5-MIN KAQV 250815Z AUTO 00000KT 10SM CLR 08/07 A2996 340 93 -300 000/00 RMK AO2 T00830072
03949KAQV AQV20191225022010812/25/19 02:20:31  5-MIN KAQV 250820Z AUTO 00000KT 10SM CLR 08/07 A2996 340 93 -300 000/00 RMK AO2 T00830072
03949KAQV AQV20191225022510812/25/19 02:25:31  5-MIN KAQV 250825Z AUTO 00000KT 10SM CLR 08/07 A2996 340 93 -300 000/00 RMK AO2 T00830072
03949KAQV AQV20191225023010812/25/19 02:30:31  5-MIN KAQV 250830Z AUTO 00000KT 10SM CLR 08/07 A2997 330 93 -300 000/00 RMK AO2 T00830072
03949KAQV AQV20191225023510812/25/19 02:35:31  5-MIN KAQV 250835Z AUTO 00000KT 10SM CLR 08/07 A2996 340 93 -300 000/00 RMK AO2 T00830072
03949KAQV AQV20191225024010812/25/19 02:40:31  5-MIN KAQV 250840Z AUTO 00000KT 10SM CLR 08/07 A2997 330 93 -300 000/00 RMK AO2 T00830072
03949KAQV AQV20191225024510812/25/19 02:45:31  5-MIN KAQV 250845Z AUTO 00000KT 10SM CLR 08/07 A2996 340 93 -300 000/00 RMK AO2 T00830072
03949KAQV AQV20191225025010812/25/19 02:50:31  5-MIN KAQV 250850Z AUTO 00000KT 10SM CLR 08/07 A2997 330 93 -300 000/00 RMK AO2 T00830072
03949KAQV AQV20191225025512112/25/19 02:55:31  5-MIN KAQV 250855Z AUTO 00000KT 10SM CLR 08/07 A2997 330 96 -400 000/00 RMK AO2 SLP147 T00780072 50000
03949KAQV AQV20191225030010812/25/19 03:00:31  5-MIN KAQV 250900Z AUTO 00000KT 10SM CLR 08/07 A2997 330 93 -400 000/00 RMK AO2 T00780067
03949KAQV AQV20191225030510812/25/19 03:05:31  5-MIN KAQV 250905Z AUTO 00000KT 10SM CLR 08/07 A2997 330 93 -400 000/00 RMK AO2 T00780067
03949KAQV AQV20191225031010812/25/19 03:10:31  5-MIN KAQV 250910Z AUTO 00000KT 10SM CLR 08/07 A2997 330 93 -400 000/00 RMK AO2 T00780067
03949KAQV AQV20191225031510812/25/19 03:15:31  5-MIN KAQV 250915Z AUTO 00000KT 10SM CLR 08/07 A2997 330 93 -400 000/00 RMK AO2 T00780067
03949KAQV AQV20191225032010812/25/19 03:20:31  5-MIN KAQV 250920Z AUTO 00000KT 10SM CLR 08/07 A2997 330 89 -300 000/00 RMK AO2 T00830067
03949KAQV AQV20191225032510812/25/19 03:25:31  5-MIN KAQV 250925Z AUTO 00000KT 10SM CLR 08/07 A2997 330 93 -400 000/00 RMK AO2 T00780067
03949KAQV AQV20191225033010812/25/19 03:30:31  5-MIN KAQV 250930Z AUTO 00000KT 10SM CLR 08/07 A2996 340 93 -400 000/00 RMK AO2 T00780067
03949KAQV AQV20191225033510812/25/19 03:35:31  5-MIN KAQV 250935Z AUTO 00000KT 10SM CLR 08/07 A2996 340 89 -300 000/00 RMK AO2 T00830067
03949KAQV AQV20191225034010812/25/19 03:40:31  5-MIN KAQV 250940Z AUTO 00000KT 10SM CLR 08/07 A2997 330 93 -300 000/00 RMK AO2 T00830072
03949KAQV AQV20191225034510812/25/19 03:45:31  5-MIN KAQV 250945Z AUTO 00000KT 10SM CLR 08/07 A2997 330 89 -300 000/00 RMK AO2 T00830067
03949KAQV AQV20191225035010812/25/19 03:50:31  5-MIN KAQV 250950Z AUTO 00000KT 10SM CLR 08/07 A2997 330 93 -300 000/00 RMK AO2 T00830072
03949KAQV AQV20191225035511512/25/19 03:55:31  5-MIN KAQV 250955Z AUTO 00000KT 10SM CLR 08/07 A2997 330 93 -300 000/00 RMK AO2 SLP147 T00830072
03949KAQV AQV20191225040010812/25/19 04:00:31  5-MIN KAQV 251000Z AUTO 00000KT 10SM CLR 08/07 A2997 330 93 -300 000/00 RMK AO2 T00830072
03949KAQV AQV20191225040510812/25/19 04:05:31  5-MIN KAQV 251005Z AUTO 00000KT 10SM CLR 08/07 A2997 330 93 -300 000/00 RMK AO2 T00830072
03949KAQV AQV20191225041010812/25/19 04:10:31  5-MIN KAQV 251010Z AUTO 00000KT 10SM CLR 08/07 A2996 340 93 -300 000/00 RMK AO2 T00830072
03949KAQV AQV20191225041510812/25/19 04:15:31  5-MIN KAQV 251015Z AUTO 00000KT 10SM CLR 08/07 A2996 340 93 -400 000/00 RMK AO2 T00780067
03949KAQV AQV20191225042010812/25/19 04:20:31  5-MIN KAQV 251020Z AUTO 00000KT 10SM CLR 08/07 A2996 340 93 -400 000/00 RMK AO2 T00780067
03949KAQV AQV20191225042510812/25/19 04:25:31  5-MIN KAQV 251025Z AUTO 00000KT 10SM CLR 08/07 A2996 340 89 -300 000/00 RMK AO2 T00830067
03949KAQV AQV20191225043010812/25/19 04:30:31  5-MIN KAQV 251030Z AUTO 00000KT 10SM CLR 08/07 A2996 340 96 -400 000/00 RMK AO2 T00780072
03949KAQV AQV20191225043510812/25/19 04:35:31  5-MIN KAQV 251035Z AUTO 00000KT 10SM CLR 08/07 A2996 340 93 -400 000/00 RMK AO2 T00780067
03949KAQV AQV20191225044010812/25/19 04:40:31  5-MIN KAQV 251040Z AUTO 00000KT 10SM CLR 08/07 A2996 340 93 -400 000/00 RMK AO2 T00780067
03949KAQV AQV20191225044510812/25/19 04:45:31  5-MIN KAQV 251045Z AUTO 00000KT 10SM CLR 08/07 A2996 340 93 -400 000/00 RMK AO2 T00780067
03949KAQV AQV20191225045010812/25/19 04:50:31  5-MIN KAQV 251050Z AUTO 00000KT 10SM CLR 08/07 A2996 340 93 -400 000/00 RMK AO2 T00780067
03949KAQV AQV20191225045511512/25/19 04:55:31  5-MIN KAQV 251055Z AUTO 00000KT 10SM CLR 08/07 A2996 340 93 -400 000/00 RMK AO2 SLP146 T00780067
03949KAQV AQV20191225050010812/25/19 05:00:31  5-MIN KAQV 251100Z AUTO 00000KT 10SM CLR 08/07 A2996 340 89 -300 000/00 RMK AO2 T00830067
03949KAQV AQV20191225050510812/25/19 05:05:31  5-MIN KAQV 251105Z AUTO 00000KT 10SM CLR 08/07 A2997 330 93 -400 000/00 RMK AO2 T00780067
03949KAQV AQV20191225051010812/25/19 05:10:31  5-MIN KAQV 251110Z AUTO 00000KT 10SM CLR 08/07 A2997 330 93 -400 000/00 RMK AO2 T00780067
03949KAQV AQV20191225051510812/25/19 05:15:31  5-MIN KAQV 251115Z AUTO 00000KT 10SM CLR 08/07 A2997 330 89 -300 000/00 RMK AO2 T00830067
03949KAQV AQV20191225052010812/25/19 05:20:31  5-MIN KAQV 251120Z AUTO 00000KT 10SM CLR 08/07 A2997 330 93 -400 000/00 RMK AO2 T00780067
03949KAQV AQV20191225052510812/25/19 05:25:31  5-MIN KAQV 251125Z AUTO 00000KT 10SM CLR 08/07 A2996 340 93 -400 000/00 RMK AO2 T00780067
03949KAQV AQV20191225053010812/25/19 05:30:31  5-MIN KAQV 251130Z AUTO 00000KT 10SM CLR 08/07 A2996 340 93 -400 000/00 RMK AO2 T00780067
03949KAQV AQV20191225053510812/25/19 05:35:31  5-MIN KAQV 251135Z AUTO 00000KT 10SM CLR 08/07 A2996 340 89 -300 000/00 RMK AO2 T00830067
03949KAQV AQV20191225054010812/25/19 05:40:31  5-MIN KAQV 251140Z AUTO 00000KT 10SM CLR 08/07 A2996 340 89 -300 000/00 RMK AO2 T00830067
03949KAQV AQV20191225054510812/25/19 05:45:31  5-MIN KAQV 251145Z AUTO 00000KT 10SM CLR 08/07 A2996 340 93 -300 000/00 RMK AO2 T00830072
03949KAQV AQV20191225055010812/25/19 05:50:31  5-MIN KAQV 251150Z AUTO 00000KT 10SM CLR 09/07 A2996 340 89 -200 000/00 RMK AO2 T00890072
03949KAQV AQV20191225055513312/25/19 05:55:31  5-MIN KAQV 251155Z AUTO 00000KT 10SM CLR 08/08 A2996 340 96 -300 000/00 RMK AO2 SLP146 T00830078 10089 20072 56005
03949KAQV AQV20191225060010812/25/19 06:00:31  5-MIN KAQV 251200Z AUTO 00000KT 10SM CLR 08/07 A2996 340 93 -400 000/00 RMK AO2 T00780067
03949KAQV AQV20191225060510812/25/19 06:05:31  5-MIN KAQV 251205Z AUTO 00000KT 10SM CLR 08/07 A2996 340 93 -400 000/00 RMK AO2 T00780067
03949KAQV AQV20191225061010812/25/19 06:10:31  5-MIN KAQV 251210Z AUTO 00000KT 10SM CLR 08/07 A2996 340 89 -300 000/00 RMK AO2 T00830067
03949KAQV AQV20191225061510812/25/19 06:15:31  5-MIN KAQV 251215Z AUTO 00000KT 10SM CLR 08/07 A2996 340 89 -300 000/00 RMK AO2 T00830067
03949KAQV AQV20191225062010812/25/19 06:20:31  5-MIN KAQV 251220Z AUTO 00000KT 10SM CLR 08/07 A2997 330 93 -400 000/00 RMK AO2 T00780067
03949KAQV AQV20191225062510812/25/19 06:25:31  5-MIN KAQV 251225Z AUTO 00000KT 10SM CLR 08/07 A2997 330 93 -400 000/00 RMK AO2 T00780067
03949KAQV AQV20191225063010812/25/19 06:30:31  5-MIN KAQV 251230Z AUTO 00000KT 10SM CLR 08/07 A2997 330 93 -400 000/00 RMK AO2 T00780067
03949KAQV AQV20191225063510812/25/19 06:35:31  5-MIN KAQV 251235Z AUTO 00000KT 10SM CLR 08/07 A2997 330 93 -400 000/00 RMK AO2 T00780067
03949KAQV AQV20191225064010812/25/19 06:40:31  5-MIN KAQV 251240Z AUTO 00000KT 10SM CLR 08/07 A2998 330 93 -400 000/00 RMK AO2 T00780067
03949KAQV AQV20191225064510812/25/19 06:45:31  5-MIN KAQV 251245Z AUTO 00000KT 10SM CLR 08/07 A2997 330 93 -400 000/00 RMK AO2 T00780067
03949KAQV AQV20191225065010812/25/19 06:50:31  5-MIN KAQV 251250Z AUTO 00000KT 10SM CLR 08/07 A2998 330 93 -400 000/00 RMK AO2 T00780067
03949KAQV AQV20191225065511512/25/19 06:55:31  5-MIN KAQV 251255Z AUTO 00000KT 10SM CLR 08/07 A2997 330 93 -400 000/00 RMK AO2 SLP150 T00780067
03949KAQV AQV20191225070010712/25/19 07:00:31  5-MIN KAQV 251300Z AUTO 00000KT 9SM CLR 08/07 A2998 330 93 -400 000/00 RMK AO2 T00780067
03949KAQV AQV20191225070510712/25/19 07:05:31  5-MIN KAQV 251305Z AUTO 00000KT 8SM CLR 07/07 A2997 330 96 -400 000/00 RMK AO2 T00720067
03949KAQV AQV20191225071010712/25/19 07:10:31  5-MIN KAQV 251310Z AUTO 00000KT 8SM CLR 07/07 A2998 320 96 -400 000/00 RMK AO2 T00720067
03949KAQV AQV20191225071511012/25/19 07:15:31  5-MIN KAQV 251315Z AUTO 00000KT 9SM FEW031 07/07 A2998 320 96 -400 000/00 RMK AO2 T00720067
03949KAQV AQV20191225072011012/25/19 07:20:31  5-MIN KAQV 251320Z AUTO 00000KT 8SM SCT031 08/07 A2998 320 93 -400 000/00 RMK AO2 T00780067
03949KAQV AQV20191225072511012/25/19 07:25:31  5-MIN KAQV 251325Z AUTO 00000KT 8SM BKN031 08/07 A2998 320 93 -400 000/00 RMK AO2 T00780067
03949KAQV AQV20191225073011112/25/19 07:30:31  5-MIN KAQV 251330Z AUTO 00000KT 10SM BKN031 08/07 A2998 320 93 -300 000/00 RMK AO2 T00830072
03949KAQV AQV20191225073511112/25/19 07:35:31  5-MIN KAQV 251335Z AUTO 00000KT 10SM BKN030 08/07 A2998 320 93 -300 000/00 RMK AO2 T00830072
03949KAQV AQV20191225074011112/25/19 07:40:31  5-MIN KAQV 251340Z AUTO 00000KT 10SM BKN030 08/07 A2998 320 93 -300 000/00 RMK AO2 T00830072
03949KAQV AQV20191225074511112/25/19 07:45:31  5-MIN KAQV 251345Z AUTO 00000KT 10SM BKN030 08/07 A2999 320 93 -300 000/00 RMK AO2 T00830072
03949KAQV AQV20191225075011112/25/19 07:50:31  5-MIN KAQV 251350Z AUTO 00000KT 10SM BKN030 09/08 A2999 320 93 -300 000/00 RMK AO2 T00890078
03949KAQV AQV20191225075511812/25/19 07:55:31  5-MIN KAQV 251355Z AUTO 00000KT 10SM OVC031 09/08 A2999 310 93 -200 000/00 RMK AO2 SLP155 T00940083
03949KAQV AQV20191225080011112/25/19 08:00:31  5-MIN KAQV 251400Z AUTO 00000KT 10SM OVC031 10/09 A2999 310 93 -100 000/00 RMK AO2 T01000089
03949KAQV AQV20191225080511112/25/19 08:05:31  5-MIN KAQV 251405Z AUTO 00000KT 10SM BKN031 10/09 A2999 310 93 -100 000/00 RMK AO2 T01000089
03949KAQV AQV20191225081011112/25/19 08:10:31  5-MIN KAQV 251410Z AUTO 00000KT 10SM BKN031 11/09 A2999 310 93 -100 000/00 RMK AO2 T01060094
03949KAQV AQV20191225081511112/25/19 08:15:31  5-MIN KAQV 251415Z AUTO 00000KT 10SM BKN031 11/09 A2999 310 93 -100 000/00 RMK AO2 T01060094
03949KAQV AQV20191225082010812/25/19 08:20:31  5-MIN KAQV 251420Z AUTO 00000KT 10SM SCT031 11/09 A2999 310 89 0 000/00 RMK AO2 T01110094
03949KAQV AQV20191225082510812/25/19 08:25:31  5-MIN KAQV 251425Z AUTO VRB03KT 10SM FEW030 12/10 A3000 310 89 0 VRB/03 RMK AO2 T01170100
03949KAQV AQV20191225083011012/25/19 08:30:31  5-MIN KAQV 251430Z AUTO 00000KT 10SM FEW030 12/10 A3000 300 86 100 000/00 RMK AO2 T01220100
03949KAQV AQV20191225083510712/25/19 08:35:31  5-MIN KAQV 251435Z AUTO 00000KT 10SM CLR 12/10 A3000 300 86 100 000/00 RMK AO2 T01220100
03949KAQV AQV20191225084010712/25/19 08:40:31  5-MIN KAQV 251440Z AUTO 00000KT 10SM CLR 12/10 A3000 300 86 100 000/00 RMK AO2 T01220100
03949KAQV AQV20191225084510712/25/19 08:45:31  5-MIN KAQV 251445Z AUTO 00000KT 10SM CLR 12/10 A3000 300 86 100 000/00 RMK AO2 T01220100
03949KAQV AQV20191225085011012/25/19 08:50:31  5-MIN KAQV 251450Z AUTO 00000KT 10SM FEW031 12/11 A3000 300 89 100 000/00 RMK AO2 T01220106
03949KAQV AQV20191225085512312/25/19 08:55:31  5-MIN KAQV 251455Z AUTO VRB03KT 10SM FEW031 12/11 A3000 300 89 100 VRB/03 RMK AO2 SLP160 T01220106 56002
03949KAQV AQV20191225090011012/25/19 09:00:31  5-MIN KAQV 251500Z AUTO 00000KT 10SM SCT031 12/11 A3001 300 89 100 000/00 RMK AO2 T01220106
03949KAQV AQV20191225090511012/25/19 09:05:31  5-MIN KAQV 251505Z AUTO 00000KT 10SM BKN030 13/11 A3001 300 86 100 000/00 RMK AO2 T01280106
03949KAQV AQV20191225091011012/25/19 09:10:31  5-MIN KAQV 251510Z AUTO 00000KT 10SM BKN030 13/11 A3001 300 86 100 000/00 RMK AO2 T01280106
03949KAQV AQV20191225091511012/25/19 09:15:31  5-MIN KAQV 251515Z AUTO 00000KT 10SM BKN030 13/11 A3001 290 86 200 000/00 RMK AO2 T01330111
03949KAQV AQV20191225092011012/25/19 09:20:31  5-MIN KAQV 251520Z AUTO 00000KT 10SM BKN030 13/11 A3001 290 86 200 000/00 RMK AO2 T01330111
03949KAQV AQV20191225092511012/25/19 09:25:31  5-MIN KAQV 251525Z AUTO 13003KT 10SM OVC030 13/11 A3001 290 86 200 130/03 RMK AO2 T01330111
03949KAQV AQV20191225093011012/25/19 09:30:31  5-MIN KAQV 251530Z AUTO 00000KT 10SM OVC030 13/11 A3001 290 86 200 000/00 RMK AO2 T01330111
03949KAQV AQV20191225093511012/25/19 09:35:31  5-MIN KAQV 251535Z AUTO 00000KT 10SM OVC030 14/11 A3001 290 83 300 000/00 RMK AO2 T01390111
03949KAQV AQV20191225094011012/25/19 09:40:31  5-MIN KAQV 251540Z AUTO 00000KT 10SM OVC030 14/11 A3002 290 83 300 000/00 RMK AO2 T01390111
03949KAQV AQV20191225094511012/25/19 09:45:31  5-MIN KAQV 251545Z AUTO 00000KT 10SM OVC030 13/11 A3002 290 86 200 000/00 RMK AO2 T01330111
03949KAQV AQV20191225095011012/25/19 09:50:31  5-MIN KAQV 251550Z AUTO 00000KT 10SM OVC030 14/12 A3002 290 86 300 000/00 RMK AO2 T01390117
03949KAQV AQV20191225095511712/25/19 09:55:31  5-MIN KAQV 251555Z AUTO 00000KT 10SM OVC030 14/12 A3002 290 83 300 000/00 RMK AO2 SLP166 T01440117
03949KAQV AQV20191225100011012/25/19 10:00:31  5-MIN KAQV 251600Z AUTO 00000KT 10SM OVC030 14/12 A3002 290 83 300 000/00 RMK AO2 T01440117
03949KAQV AQV20191225100511012/25/19 10:05:31  5-MIN KAQV 251605Z AUTO 00000KT 10SM OVC030 14/12 A3002 290 83 300 000/00 RMK AO2 T01440117
03949KAQV AQV20191225101011012/25/19 10:10:31  5-MIN KAQV 251610Z AUTO 00000KT 10SM OVC030 15/12 A3002 290 80 400 000/00 RMK AO2 T01500117
03949KAQV AQV20191225101511012/25/19 10:15:31  5-MIN KAQV 251615Z AUTO 00000KT 10SM OVC030 15/12 A3002 290 83 400 000/00 RMK AO2 T01500122
03949KAQV AQV20191225102011012/25/19 10:20:31  5-MIN KAQV 251620Z AUTO VRB03KT 10SM OVC030 15/12 A3001 290 83 400 VRB/03 RMK AO2 T01500122
03949KAQV AQV20191225102511012/25/19 10:25:31  5-MIN KAQV 251625Z AUTO VRB03KT 10SM OVC030 15/12 A3001 290 83 400 VRB/03 RMK AO2 T01500122
03949KAQV AQV20191225103011012/25/19 10:30:31  5-MIN KAQV 251630Z AUTO VRB04KT 10SM OVC030 16/12 A3001 290 80 500 VRB/04 RMK AO2 T01560122
03949KAQV AQV20191225103511012/25/19 10:35:31  5-MIN KAQV 251635Z AUTO 00000KT 10SM OVC030 16/12 A3002 290 80 500 000/00 RMK AO2 T01560122
03949KAQV AQV20191225104011012/25/19 10:40:31  5-MIN KAQV 251640Z AUTO 00000KT 10SM OVC030 16/12 A3002 290 77 500 000/00 RMK AO2 T01610122
03949KAQV AQV20191225104511012/25/19 10:45:31  5-MIN KAQV 251645Z AUTO VRB04KT 10SM OVC030 16/12 A3002 290 77 500 VRB/04 RMK AO2 T01610122
03949KAQV AQV20191225105011012/25/19 10:50:31  5-MIN KAQV 251650Z AUTO VRB03KT 10SM OVC030 17/12 A3001 290 75 600 VRB/03 RMK AO2 T01670122
03949KAQV AQV20191225105511712/25/19 10:55:31  5-MIN KAQV 251655Z AUTO 00000KT 10SM OVC030 17/13 A3001 290 77 600 000/00 RMK AO2 SLP163 T01670128
03949KAQV AQV20191225110011012/25/19 11:00:31  5-MIN KAQV 251700Z AUTO VRB04KT 10SM OVC030 17/12 A3001 290 75 600 VRB/04 RMK AO2 T01670122
03949KAQV AQV20191225110511012/25/19 11:05:31  5-MIN KAQV 251705Z AUTO VRB03KT 10SM OVC030 17/13 A3001 290 75 700 VRB/03 RMK AO2 T01720128
03949KAQV AQV20191225111011012/25/19 11:10:31  5-MIN KAQV 251710Z AUTO VRB04KT 10SM OVC030 17/13 A3001 290 75 700 VRB/04 RMK AO2 T01720128
03949KAQV AQV20191225111511012/25/19 11:15:31  5-MIN KAQV 251715Z AUTO VRB04KT 10SM OVC030 17/13 A3001 290 75 700 VRB/04 RMK AO2 T01720128
03949KAQV AQV20191225112011012/25/19 11:20:31  5-MIN KAQV 251720Z AUTO VRB03KT 10SM OVC030 18/13 A3001 300 72 700 VRB/03 RMK AO2 T01780128
03949KAQV AQV20191225112511012/25/19 11:25:31  5-MIN KAQV 251725Z AUTO VRB05KT 10SM OVC030 18/13 A3001 300 72 700 VRB/05 RMK AO2 T01780128
03949KAQV AQV20191225113011012/25/19 11:30:31  5-MIN KAQV 251730Z AUTO 17005KT 10SM OVC030 18/13 A3001 300 72 700 170/05 RMK AO2 T01780128
03949KAQV AQV20191225113511012/25/19 11:35:31  5-MIN KAQV 251735Z AUTO 18004KT 10SM OVC030 18/13 A3001 300 72 700 170/04 RMK AO2 T01780128
03949KAQV AQV20191225114011012/25/19 11:40:31  5-MIN KAQV 251740Z AUTO 16003KT 10SM OVC030 18/13 A3000 300 72 700 160/03 RMK AO2 T01780128
03949KAQV AQV20191225114511012/25/19 11:45:31  5-MIN KAQV 251745Z AUTO 17006KT 10SM OVC030 18/13 A3000 300 72 700 160/06 RMK AO2 T01780128
03949KAQV AQV20191225115011012/25/19 11:50:31  5-MIN KAQV 251750Z AUTO VRB04KT 10SM OVC030 18/13 A3000 300 72 700 VRB/04 RMK AO2 T01780128
03949KAQV AQV20191225115513512/25/19 11:55:31  5-MIN KAQV 251755Z AUTO 00000KT 10SM OVC030 18/13 A3000 300 72 700 000/00 RMK AO2 SLP159 T01780128 10178 20072 53015
03949KAQV AQV20191225120011012/25/19 12:00:31  5-MIN KAQV 251800Z AUTO 00000KT 10SM OVC030 18/13 A3000 310 72 700 000/00 RMK AO2 T01780128
03949KAQV AQV20191225120511012/25/19 12:05:31  5-MIN KAQV 251805Z AUTO VRB03KT 10SM OVC030 18/13 A2999 310 70 800 VRB/03 RMK AO2 T01830128
03949KAQV AQV20191225121011012/25/19 12:10:31  5-MIN KAQV 251810Z AUTO VRB04KT 10SM OVC030 18/13 A2999 310 70 800 VRB/04 RMK AO2 T01830128
03949KAQV AQV20191225121511012/25/19 12:15:31  5-MIN KAQV 251815Z AUTO VRB03KT 10SM OVC030 18/13 A2999 310 70 800 VRB/03 RMK AO2 T01830128
03949KAQV AQV20191225122011012/25/19 12:20:31  5-MIN KAQV 251820Z AUTO 16003KT 10SM OVC030 18/13 A2999 310 70 800 160/03 RMK AO2 T01830128
03949KAQV AQV20191225122511012/25/19 12:25:31  5-MIN KAQV 251825Z AUTO 18004KT 10SM OVC030 18/13 A2999 320 70 800 180/04 RMK AO2 T01830128
03949KAQV AQV20191225123011012/25/19 12:30:31  5-MIN KAQV 251830Z AUTO VRB04KT 10SM OVC030 18/13 A2998 320 70 800 VRB/04 RMK AO2 T01830128
03949KAQV AQV20191225123511012/25/19 12:35:31  5-MIN KAQV 251835Z AUTO 14005KT 10SM OVC030 18/13 A2998 320 70 800 140/05 RMK AO2 T01830128
03949KAQV AQV20191225124011012/25/19 12:40:31  5-MIN KAQV 251840Z AUTO 14003KT 10SM OVC030 18/13 A2998 320 70 800 140/03 RMK AO2 T01830128
03949KAQV AQV20191225124511012/25/19 12:45:31  5-MIN KAQV 251845Z AUTO VRB03KT 10SM OVC030 19/13 A2998 320 70 900 VRB/03 RMK AO2 T01890133
03949KAQV AQV20191225125011012/25/19 12:50:31  5-MIN KAQV 251850Z AUTO VRB04KT 10SM OVC030 18/13 A2998 320 72 800 VRB/04 RMK AO2 T01830133
03949KAQV AQV20191225125511712/25/19 12:55:31  5-MIN KAQV 251855Z AUTO VRB03KT 10SM OVC030 19/13 A2997 330 70 900 VRB/03 RMK AO2 SLP150 T01890133
03949KAQV AQV20191225130011012/25/19 13:00:31  5-MIN KAQV 251900Z AUTO VRB04KT 10SM OVC030 19/13 A2997 330 70 900 VRB/04 RMK AO2 T01890133
03949KAQV AQV20191225130511012/25/19 13:05:31  5-MIN KAQV 251905Z AUTO VRB03KT 10SM OVC030 19/13 A2997 330 70 900 VRB/03 RMK AO2 T01890133
03949KAQV AQV20191225131010012/25/19 13:10:31  5-MIN KAQV 251910Z AUTO 10SM OVC030 19/13 A2997 330 70 900 M /M RMK AO2 T01890133
03949KAQV AQV20191225131511012/25/19 13:15:31  5-MIN KAQV 251915Z AUTO VRB03KT 10SM OVC030 19/13 A2996 340 70 900 VRB/03 RMK AO2 T01890133
03949KAQV AQV20191225132011012/25/19 13:20:31  5-MIN KAQV 251920Z AUTO VRB03KT 10SM OVC031 19/13 A2996 340 70 900 VRB/03 RMK AO2 T01890133
03949KAQV AQV20191225132511112/25/19 13:25:31  5-MIN KAQV 251925Z AUTO VRB03KT 10SM OVC031 19/13 A2996 340 67 1000 VRB/03 RMK AO2 T01940133
03949KAQV AQV20191225133011112/25/19 13:30:31  5-MIN KAQV 251930Z AUTO 16004KT 10SM OVC031 19/13 A2996 340 67 1000 160/04 RMK AO2 T01940133
03949KAQV AQV20191225133511112/25/19 13:35:31  5-MIN KAQV 251935Z AUTO VRB03KT 10SM OVC031 19/13 A2996 340 67 1000 VRB/03 RMK AO2 T01940133
03949KAQV AQV20191225134011112/25/19 13:40:31  5-MIN KAQV 251940Z AUTO VRB03KT 10SM OVC031 20/13 A2996 340 65 1000 VRB/03 RMK AO2 T02000133
03949KAQV AQV20191225134511112/25/19 13:45:31  5-MIN KAQV 251945Z AUTO 00000KT 10SM OVC031 20/13 A2995 340 65 1000 000/00 RMK AO2 T02000133
03949KAQV AQV20191225135011112/25/19 13:50:31  5-MIN KAQV 251950Z AUTO VRB04KT 10SM OVC031 20/13 A2996 340 65 1000 VRB/04 RMK AO2 T02000133
03949KAQV AQV20191225135511812/25/19 13:55:31  5-MIN KAQV 251955Z AUTO VRB04KT 10SM OVC031 19/13 A2996 340 65 1000 VRB/04 RMK AO2 SLP143 T01940128
03949KAQV AQV20191225140011112/25/19 14:00:31  5-MIN KAQV 252000Z AUTO 00000KT 10SM OVC031 19/13 A2996 340 65 1000 000/00 RMK AO2 T01940128
03949KAQV AQV20191225140511112/25/19 14:05:31  5-MIN KAQV 252005Z AUTO 16003KT 10SM OVC031 19/13 A2995 340 67 1000 150/03 RMK AO2 T01940133
03949KAQV AQV20191225141011112/25/19 14:10:31  5-MIN KAQV 252010Z AUTO 00000KT 10SM OVC031 19/13 A2995 340 67 1000 000/00 RMK AO2 T01940133
03949KAQV AQV20191225141511112/25/19 14:15:31  5-MIN KAQV 252015Z AUTO 00000KT 10SM OVC031 19/13 A2996 340 67 1000 000/00 RMK AO2 T01940133
03949KAQV AQV20191225142011112/25/19 14:20:31  5-MIN KAQV 252020Z AUTO 18004KT 10SM OVC031 19/13 A2996 340 65 1000 170/04 RMK AO2 T01940128
03949KAQV AQV20191225142511112/25/19 14:25:31  5-MIN KAQV 252025Z AUTO 16003KT 10SM OVC031 19/13 A2995 340 67 1000 160/03 RMK AO2 T01940133
03949KAQV AQV20191225143011112/25/19 14:30:31  5-MIN KAQV 252030Z AUTO 14004KT 10SM OVC030 19/13 A2995 350 67 1000 130/04 RMK AO2 T01940133
03949KAQV AQV20191225143511112/25/19 14:35:31  5-MIN KAQV 252035Z AUTO VRB03KT 10SM OVC030 19/13 A2995 350 67 1000 VRB/03 RMK AO2 T01940133
03949KAQV AQV20191225144011112/25/19 14:40:31  5-MIN KAQV 252040Z AUTO VRB04KT 10SM OVC030 19/13 A2995 350 67 1000 VRB/04 RMK AO2 T01940133
03949KAQV AQV20191225144511112/25/19 14:45:31  5-MIN KAQV 252045Z AUTO 18004KT 10SM OVC030 19/13 A2995 350 65 1000 180/04 RMK AO2 T01940128
03949KAQV AQV20191225145011112/25/19 14:50:31  5-MIN KAQV 252050Z AUTO 18003KT 10SM OVC030 19/13 A2995 350 67 1000 180/03 RMK AO2 T01940133
03949KAQV AQV20191225145512412/25/19 14:55:31  5-MIN KAQV 252055Z AUTO 00000KT 10SM OVC030 19/13 A2995 340 67 1000 000/00 RMK AO2 SLP143 T01940133 58002
03949KAQV AQV20191225150011112/25/19 15:00:31  5-MIN KAQV 252100Z AUTO VRB03KT 10SM OVC029 19/13 A2996 340 67 1000 VRB/03 RMK AO2 T01940133
03949KAQV AQV20191225150511112/25/19 15:05:31  5-MIN KAQV 252105Z AUTO 00000KT 10SM OVC029 19/13 A2996 340 67 1000 000/00 RMK AO2 T01940133
03949KAQV AQV20191225151011112/25/19 15:10:31  5-MIN KAQV 252110Z AUTO 00000KT 10SM OVC028 19/13 A2996 340 67 1000 000/00 RMK AO2 T01940133
03949KAQV AQV20191225151511112/25/19 15:15:31  5-MIN KAQV 252115Z AUTO VRB03KT 10SM OVC028 19/13 A2996 340 67 1000 VRB/03 RMK AO2 T01940133
03949KAQV AQV20191225152011012/25/19 15:20:31  5-MIN KAQV 252120Z AUTO 00000KT 10SM OVC028 19/13 A2996 340 70 900 000/00 RMK AO2 T01890133
03949KAQV AQV20191225152511012/25/19 15:25:31  5-MIN KAQV 252125Z AUTO VRB03KT 10SM OVC027 19/13 A2996 340 70 900 VRB/03 RMK AO2 T01890133
03949KAQV AQV20191225153011012/25/19 15:30:31  5-MIN KAQV 252130Z AUTO 00000KT 10SM OVC027 19/13 A2996 340 70 900 000/00 RMK AO2 T01890133
03949KAQV AQV20191225153511012/25/19 15:35:31  5-MIN KAQV 252135Z AUTO 00000KT 10SM OVC027 19/13 A2996 340 70 900 000/00 RMK AO2 T01890133
03949KAQV AQV20191225154011012/25/19 15:40:31  5-MIN KAQV 252140Z AUTO VRB04KT 10SM OVC027 19/13 A2996 340 70 900 VRB/04 RMK AO2 T01890133
03949KAQV AQV20191225154511012/25/19 15:45:31  5-MIN KAQV 252145Z AUTO VRB03KT 10SM OVC027 19/13 A2997 330 70 900 VRB/03 RMK AO2 T01890133
03949KAQV AQV20191225155011012/25/19 15:50:31  5-MIN KAQV 252150Z AUTO 00000KT 10SM OVC026 19/13 A2997 330 70 900 000/00 RMK AO2 T01890133
03949KAQV AQV20191225155511712/25/19 15:55:31  5-MIN KAQV 252155Z AUTO VRB03KT 10SM OVC026 18/13 A2997 330 72 800 VRB/03 RMK AO2 SLP148 T01830133
03949KAQV AQV20191225160011012/25/19 16:00:31  5-MIN KAQV 252200Z AUTO 00000KT 10SM OVC026 18/13 A2997 330 72 800 000/00 RMK AO2 T01830133
03949KAQV AQV20191225160511012/25/19 16:05:31  5-MIN KAQV 252205Z AUTO 13003KT 10SM OVC026 18/13 A2997 330 72 800 130/03 RMK AO2 T01830133
03949KAQV AQV20191225161011012/25/19 16:10:31  5-MIN KAQV 252210Z AUTO 00000KT 10SM OVC026 18/13 A2997 330 72 800 000/00 RMK AO2 T01830133
03949KAQV AQV20191225161511012/25/19 16:15:31  5-MIN KAQV 252215Z AUTO 00000KT 10SM OVC026 18/13 A2996 340 72 800 000/00 RMK AO2 T01830133
03949KAQV AQV20191225162011012/25/19 16:20:31  5-MIN KAQV 252220Z AUTO 00000KT 10SM OVC026 18/13 A2997 330 72 800 000/00 RMK AO2 T01830133
03949KAQV AQV20191225162511012/25/19 16:25:31  5-MIN KAQV 252225Z AUTO 00000KT 10SM OVC026 18/13 A2997 330 72 800 000/00 RMK AO2 T01830133
03949KAQV AQV20191225163011012/25/19 16:30:31  5-MIN KAQV 252230Z AUTO 00000KT 10SM OVC026 18/13 A2997 330 72 800 000/00 RMK AO2 T01830133
03949KAQV AQV20191225163511012/25/19 16:35:31  5-MIN KAQV 252235Z AUTO 00000KT 10SM OVC026 18/13 A2997 330 72 800 000/00 RMK AO2 T01830133
03949KAQV AQV20191225164011012/25/19 16:40:31  5-MIN KAQV 252240Z AUTO 00000KT 10SM OVC026 18/13 A2997 330 75 800 000/00 RMK AO2 T01780133
03949KAQV AQV20191225164511012/25/19 16:45:31  5-MIN KAQV 252245Z AUTO 00000KT 10SM OVC025 18/13 A2997 330 75 800 000/00 RMK AO2 T01780133
03949KAQV AQV20191225165011012/25/19 16:50:31  5-MIN KAQV 252250Z AUTO VRB03KT 10SM OVC025 18/13 A2997 330 75 800 VRB/03 RMK AO2 T01780133
03949KAQV AQV20191225165511712/25/19 16:55:31  5-MIN KAQV 252255Z AUTO 00000KT 10SM OVC025 18/13 A2997 330 75 800 000/00 RMK AO2 SLP147 T01780133
03949KAQV AQV20191225170011012/25/19 17:00:31  5-MIN KAQV 252300Z AUTO 00000KT 10SM OVC025 18/13 A2997 330 75 800 000/00 RMK AO2 T01780133
03949KAQV AQV20191225170511012/25/19 17:05:31  5-MIN KAQV 252305Z AUTO 00000KT 10SM OVC024 17/13 A2997 330 78 700 000/00 RMK AO2 T01720133
03949KAQV AQV20191225171011012/25/19 17:10:31  5-MIN KAQV 252310Z AUTO 00000KT 10SM OVC024 17/13 A2997 330 78 700 000/00 RMK AO2 T01720133
03949KAQV AQV20191225171511012/25/19 17:15:31  5-MIN KAQV 252315Z AUTO 00000KT 10SM OVC024 17/13 A2997 330 78 700 000/00 RMK AO2 T01720133
03949KAQV AQV20191225172011012/25/19 17:20:31  5-MIN KAQV 252320Z AUTO 00000KT 10SM OVC022 17/13 A2997 330 78 700 000/00 RMK AO2 T01720133
03949KAQV AQV20191225172511012/25/19 17:25:31  5-MIN KAQV 252325Z AUTO 00000KT 10SM OVC022 17/13 A2997 330 78 700 000/00 RMK AO2 T01720133
03949KAQV AQV20191225173011012/25/19 17:30:31  5-MIN KAQV 252330Z AUTO 00000KT 10SM OVC022 17/13 A2997 330 78 700 000/00 RMK AO2 T01720133
03949KAQV AQV20191225173511012/25/19 17:35:31  5-MIN KAQV 252335Z AUTO 00000KT 10SM OVC022 17/13 A2997 330 78 700 000/00 RMK AO2 T01720133
03949KAQV AQV20191225174011012/25/19 17:40:31  5-MIN KAQV 252340Z AUTO 00000KT 10SM OVC022 17/13 A2997 330 78 700 000/00 RMK AO2 T01720133
03949KAQV AQV20191225174511012/25/19 17:45:31  5-MIN KAQV 252345Z AUTO 00000KT 10SM OVC022 17/13 A2997 330 78 700 000/00 RMK AO2 T01720133
03949KAQV AQV20191225175011012/25/19 17:50:31  5-MIN KAQV 252350Z AUTO 00000KT 10SM OVC022 17/13 A2997 330 78 700 000/00 RMK AO2 T01720133
03949KAQV AQV20191225175513512/25/19 17:55:31  5-MIN KAQV 252355Z AUTO 00000KT 10SM OVC022 17/13 A2998 320 78 700 000/00 RMK AO2 SLP151 T01720133 10200 20172 56014
03949KAQV AQV20191225180011012/25/19 18:00:31  5-MIN KAQV 260000Z AUTO 00000KT 10SM OVC022 17/13 A2998 320 78 700 000/00 RMK AO2 T01720133
03949KAQV AQV20191225180511012/25/19 18:05:31  5-MIN KAQV 260005Z AUTO 00000KT 10SM OVC022 17/13 A2998 320 80 600 000/00 RMK AO2 T01670133
03949KAQV AQV20191225181011012/25/19 18:10:31  5-MIN KAQV 260010Z AUTO 00000KT 10SM OVC022 17/13 A2998 320 80 600 000/00 RMK AO2 T01670133
03949KAQV AQV20191225181511012/25/19 18:15:31  5-MIN KAQV 260015Z AUTO 00000KT 10SM OVC024 17/13 A2998 320 80 600 000/00 RMK AO2 T01670133
03949KAQV AQV20191225182011012/25/19 18:20:31  5-MIN KAQV 260020Z AUTO 00000KT 10SM OVC024 17/13 A2998 320 80 600 000/00 RMK AO2 T01670133
03949KAQV AQV20191225182511012/25/19 18:25:31  5-MIN KAQV 260025Z AUTO 00000KT 10SM OVC024 16/13 A2998 320 83 600 000/00 RMK AO2 T01610133
03949KAQV AQV20191225183011012/25/19 18:30:31  5-MIN KAQV 260030Z AUTO 00000KT 10SM OVC024 16/13 A2998 320 83 600 000/00 RMK AO2 T01610133
03949KAQV AQV20191225183511012/25/19 18:35:31  5-MIN KAQV 260035Z AUTO 00000KT 10SM OVC024 16/13 A2999 320 83 600 000/00 RMK AO2 T01610133
03949KAQV AQV20191225184011012/25/19 18:40:31  5-MIN KAQV 260040Z AUTO 00000KT 10SM OVC025 16/13 A2998 320 83 600 000/00 RMK AO2 T01610133
03949KAQV AQV20191225184511012/25/19 18:45:31  5-MIN KAQV 260045Z AUTO 00000KT 10SM OVC025 16/13 A2999 320 83 600 000/00 RMK AO2 T01610133
03949KAQV AQV20191225185011012/25/19 18:50:31  5-MIN KAQV 260050Z AUTO 00000KT 10SM OVC026 16/13 A2999 310 83 600 000/00 RMK AO2 T01610133
03949KAQV AQV20191225185511712/25/19 18:55:31  5-MIN KAQV 260055Z AUTO 00000KT 10SM OVC026 16/13 A2999 310 83 600 000/00 RMK AO2 SLP155 T01610133
03949KAQV AQV20191225190011012/25/19 19:00:31  5-MIN KAQV 260100Z AUTO 00000KT 10SM OVC026 16/13 A2999 310 83 600 000/00 RMK AO2 T01610133
03949KAQV AQV20191225190511012/25/19 19:05:31  5-MIN KAQV 260105Z AUTO 00000KT 10SM OVC026 16/13 A2999 310 83 600 000/00 RMK AO2 T01610133
03949KAQV AQV20191225191011012/25/19 19:10:31  5-MIN KAQV 260110Z AUTO 00000KT 10SM OVC026 16/13 A2999 310 83 600 000/00 RMK AO2 T01610133
03949KAQV AQV20191225191511012/25/19 19:15:31  5-MIN KAQV 260115Z AUTO 00000KT 10SM OVC026 16/13 A2999 310 83 600 000/00 RMK AO2 T01610133
03949KAQV AQV20191225192011012/25/19 19:20:31  5-MIN KAQV 260120Z AUTO 00000KT 10SM OVC026 16/13 A2999 310 83 600 000/00 RMK AO2 T01610133
03949KAQV AQV20191225192511012/25/19 19:25:31  5-MIN KAQV 260125Z AUTO 00000KT 10SM OVC025 16/13 A2999 310 83 600 000/00 RMK AO2 T01610133
03949KAQV AQV20191225193011012/25/19 19:30:31  5-MIN KAQV 260130Z AUTO 00000KT 10SM OVC025 16/13 A2999 310 83 600 000/00 RMK AO2 T01610133
03949KAQV AQV20191225193511012/25/19 19:35:31  5-MIN KAQV 260135Z AUTO VRB03KT 10SM OVC025 17/13 A2999 310 80 600 VRB/03 RMK AO2 T01670133
03949KAQV AQV20191225194011012/25/19 19:40:31  5-MIN KAQV 260140Z AUTO 00000KT 10SM OVC026 17/13 A2999 310 80 600 000/00 RMK AO2 T01670133
03949KAQV AQV20191225194511012/25/19 19:45:31  5-MIN KAQV 260145Z AUTO 00000KT 10SM OVC026 16/13 A2999 310 83 600 000/00 RMK AO2 T01610133
03949KAQV AQV20191225195011012/25/19 19:50:31  5-MIN KAQV 260150Z AUTO 00000KT 10SM OVC026 16/13 A2999 310 83 600 000/00 RMK AO2 T01610133
03949KAQV AQV20191225195511712/25/19 19:55:31  5-MIN KAQV 260155Z AUTO 00000KT 10SM OVC026 17/13 A2999 310 80 600 000/00 RMK AO2 SLP157 T01670133
03949KAQV AQV20191225200011012/25/19 20:00:31  5-MIN KAQV 260200Z AUTO 00000KT 10SM OVC027 16/13 A2999 310 83 600 000/00 RMK AO2 T01610133
03949KAQV AQV20191225200511012/25/19 20:05:31  5-MIN KAQV 260205Z AUTO 00000KT 10SM OVC027 16/13 A2999 310 83 600 000/00 RMK AO2 T01610133
03949KAQV AQV20191225201011012/25/19 20:10:31  5-MIN KAQV 260210Z AUTO 00000KT 10SM OVC027 16/13 A2999 310 83 600 000/00 RMK AO2 T01610133
03949KAQV AQV20191225201511012/25/19 20:15:31  5-MIN KAQV 260215Z AUTO VRB03KT 10SM OVC027 16/13 A2999 310 83 600 VRB/03 RMK AO2 T01610133
03949KAQV AQV20191225202011012/25/19 20:20:31  5-MIN KAQV 260220Z AUTO 00000KT 10SM OVC027 16/14 A2999 310 86 600 000/00 RMK AO2 T01610139
03949KAQV AQV20191225202511012/25/19 20:25:31  5-MIN KAQV 260225Z AUTO 00000KT 10SM OVC027 16/14 A2999 310 86 600 000/00 RMK AO2 T01610139
03949KAQV AQV20191225203011012/25/19 20:30:31  5-MIN KAQV 260230Z AUTO 00000KT 10SM OVC027 17/14 A3000 310 83 600 000/00 RMK AO2 T01670139
03949KAQV AQV20191225203511012/25/19 20:35:31  5-MIN KAQV 260235Z AUTO 00000KT 10SM OVC027 16/14 A2999 310 86 600 000/00 RMK AO2 T01610139
03949KAQV AQV20191225204011012/25/19 20:40:31  5-MIN KAQV 260240Z AUTO 00000KT 10SM OVC027 16/14 A3000 310 86 500 000/00 RMK AO2 T01610139
03949KAQV AQV20191225204511012/25/19 20:45:31  5-MIN KAQV 260245Z AUTO 00000KT 10SM OVC027 16/13 A3000 310 83 500 000/00 RMK AO2 T01610133
03949KAQV AQV20191225205011012/25/19 20:50:31  5-MIN KAQV 260250Z AUTO 00000KT 10SM OVC027 16/13 A3000 300 86 500 000/00 RMK AO2 T01560133
03949KAQV AQV20191225205512312/25/19 20:55:31  5-MIN KAQV 260255Z AUTO 00000KT 10SM OVC026 16/13 A3000 310 83 500 000/00 RMK AO2 SLP157 T01610133 52007
03949KAQV AQV20191225210011012/25/19 21:00:31  5-MIN KAQV 260300Z AUTO 00000KT 10SM OVC026 16/13 A3000 300 83 500 000/00 RMK AO2 T01610133
03949KAQV AQV20191225210511012/25/19 21:05:31  5-MIN KAQV 260305Z AUTO 00000KT 10SM OVC026 16/14 A3000 300 86 500 000/00 RMK AO2 T01610139
03949KAQV AQV20191225211011012/25/19 21:10:31  5-MIN KAQV 260310Z AUTO 00000KT 10SM OVC026 16/13 A3000 300 83 500 000/00 RMK AO2 T01610133
03949KAQV AQV20191225211511012/25/19 21:15:31  5-MIN KAQV 260315Z AUTO 00000KT 10SM OVC026 16/14 A3000 300 90 500 000/00 RMK AO2 T01560139
03949KAQV AQV20191225212011012/25/19 21:20:31  5-MIN KAQV 260320Z AUTO 00000KT 10SM OVC027 16/14 A3001 300 90 500 000/00 RMK AO2 T01560139
03949KAQV AQV20191225212511012/25/19 21:25:31  5-MIN KAQV 260325Z AUTO 00000KT 10SM OVC027 16/13 A3001 290 86 500 000/00 RMK AO2 T01560133
03949KAQV AQV20191225213011012/25/19 21:30:31  5-MIN KAQV 260330Z AUTO 00000KT 10SM OVC026 16/13 A3001 300 86 500 000/00 RMK AO2 T01560133
03949KAQV AQV20191225213511012/25/19 21:35:31  5-MIN KAQV 260335Z AUTO 00000KT 10SM BKN026 15/13 A3001 300 90 400 000/00 RMK AO2 T01500133
03949KAQV AQV20191225214011012/25/19 21:40:31  5-MIN KAQV 260340Z AUTO 00000KT 10SM BKN025 15/13 A3001 300 90 400 000/00 RMK AO2 T01500133
03949KAQV AQV20191225214511012/25/19 21:45:31  5-MIN KAQV 260345Z AUTO 00000KT 10SM SCT025 14/13 A3001 290 90 300 000/00 RMK AO2 T01440128
03949KAQV AQV20191225215011012/25/19 21:50:31  5-MIN KAQV 260350Z AUTO 00000KT 10SM FEW025 14/13 A3001 290 90 300 000/00 RMK AO2 T01440128
03949KAQV AQV20191225215511712/25/19 21:55:31  5-MIN KAQV 260355Z AUTO 00000KT 10SM FEW025 14/13 A3001 300 93 300 000/00 RMK AO2 SLP161 T01390128
03949KAQV AQV20191225220010712/25/19 22:00:31  5-MIN KAQV 260400Z AUTO 00000KT 10SM CLR 14/13 A3001 290 90 300 000/00 RMK AO2 T01440128
03949KAQV AQV20191225220510712/25/19 22:05:31  5-MIN KAQV 260405Z AUTO 00000KT 10SM CLR 14/13 A3001 290 90 300 000/00 RMK AO2 T01440128
03949KAQV AQV20191225221010712/25/19 22:10:31  5-MIN KAQV 260410Z AUTO 00000KT 10SM CLR 14/13 A3001 290 90 300 000/00 RMK AO2 T01440128
03949KAQV AQV20191225221510712/25/19 22:15:31  5-MIN KAQV 260415Z AUTO 00000KT 10SM CLR 14/13 A3001 290 90 300 000/00 RMK AO2 T01440128
03949KAQV AQV20191225222010612/25/19 22:20:31  5-MIN KAQV 260420Z AUTO 00000KT 9SM CLR 14/13 A3001 290 93 300 000/00 RMK AO2 T01390128
03949KAQV AQV20191225222510612/25/19 22:25:31  5-MIN KAQV 260425Z AUTO 00000KT 9SM CLR 13/12 A3001 290 93 200 000/00 RMK AO2 T01330122
03949KAQV AQV20191225223010612/25/19 22:30:31  5-MIN KAQV 260430Z AUTO 00000KT 8SM CLR 13/12 A3001 290 93 200 000/00 RMK AO2 T01330122
03949KAQV AQV20191225223510612/25/19 22:35:31  5-MIN KAQV 260435Z AUTO 00000KT 7SM CLR 13/12 A3001 290 93 200 000/00 RMK AO2 T01330122
03949KAQV AQV20191225224012112/25/19 22:40:31  5-MIN KAQV 260440Z AUTO 00000KT 2 1/2SM BR CLR 13/12 A3001 290 93 200 000/00 RMK AO2 VIS 1V5 T01330122
03949KAQV AQV20191225224510912/25/19 22:45:31  5-MIN KAQV 260445Z AUTO 00000KT 1SM BR CLR 13/12 A3002 290 89 200 000/00 RMK AO2 T01330117
03949KAQV AQV20191225225011312/25/19 22:50:31  5-MIN KAQV 260450Z AUTO 00000KT 1 1/4SM BR CLR 13/12 A3002 290 93 100 000/00 RMK AO2 T01280117
03949KAQV AQV20191225225511612/25/19 22:55:31  5-MIN KAQV 260455Z AUTO 00000KT 4SM BR CLR 13/12 A3002 290 93 100 000/00 RMK AO2 SLP164 T01280117
03949KAQV AQV20191225230010912/25/19 23:00:31  5-MIN KAQV 260500Z AUTO 00000KT 1SM BR CLR 13/12 A3001 290 93 100 000/00 RMK AO2 T01280117
03949KAQV AQV20191225230511112/25/19 23:05:31  5-MIN KAQV 260505Z AUTO 00000KT 3/4SM BR CLR 12/11 A3001 290 93 100 000/00 RMK AO2 T01220111
03949KAQV AQV20191225231010912/25/19 23:10:31  5-MIN KAQV 260510Z AUTO 00000KT 2SM BR CLR 12/11 A3001 290 93 100 000/00 RMK AO2 T01220111
03949KAQV AQV20191225231510912/25/19 23:15:31  5-MIN KAQV 260515Z AUTO 00000KT 3SM BR CLR 12/11 A3001 290 93 100 000/00 RMK AO2 T01220111
03949KAQV AQV20191225232010712/25/19 23:20:31  5-MIN KAQV 260520Z AUTO 00000KT 5SM BR CLR 12/11 A3001 290 96 0 000/00 RMK AO2 T01170111
03949KAQV AQV20191225232510712/25/19 23:25:31  5-MIN KAQV 260525Z AUTO 00000KT 5SM BR CLR 12/11 A3001 300 93 0 000/00 RMK AO2 T01170106
03949KAQV AQV20191225233010712/25/19 23:30:31  5-MIN KAQV 260530Z AUTO 00000KT 5SM BR CLR 12/11 A3000 300 93 0 000/00 RMK AO2 T01170106
03949KAQV AQV20191225233510712/25/19 23:35:31  5-MIN KAQV 260535Z AUTO 00000KT 5SM BR CLR 12/11 A3001 300 93 0 000/00 RMK AO2 T01170106
03949KAQV AQV20191225234010412/25/19 23:40:31  5-MIN KAQV 260540Z AUTO 00000KT 7SM CLR 12/11 A3001 300 93 0 000/00 RMK AO2 T01170106
03949KAQV AQV20191225234510712/25/19 23:45:31  5-MIN KAQV 260545Z AUTO 00000KT 6SM BR CLR 12/10 A3001 300 89 0 000/00 RMK AO2 T01170100
03949KAQV AQV20191225235010712/25/19 23:50:31  5-MIN KAQV 260550Z AUTO 00000KT 6SM BR CLR 11/10 A3001 300 93 0 000/00 RMK AO2 T01110100
03949KAQV AQV20191225235514212/25/19 23:55:31  5-MIN KAQV 260555Z AUTO 00000KT 6SM BR CLR 11/10 A3000 300 93 0 000/00 RMK AO2 SLP160 T01110100 10172 20111 402000072 51006
03949KAQV AQV20191226000010712/26/19 00:00:31  5-MIN KAQV 260600Z AUTO 00000KT 6SM BR CLR 11/10 A3000 300 93 0 000/00 RMK AO2 T01110100
03949KAQV AQV20191226000510712/26/19 00:05:31  5-MIN KAQV 260605Z AUTO 00000KT 4SM BR CLR 11/10 A3000 300 93 0 000/00 RMK AO2 T01110100
03949KAQV AQV20191226001010712/26/19 00:10:31  5-MIN KAQV 260610Z AUTO 15003KT 4SM BR CLR 12/10 A3000 300 89 0 140/03 RMK AO2 T01170100
03949KAQV AQV20191226001510712/26/19 00:15:31  5-MIN KAQV 260615Z AUTO 00000KT 5SM BR CLR 12/11 A3000 300 93 0 000/00 RMK AO2 T01170106
03949KAQV AQV20191226002011012/26/19 00:20:31  5-MIN KAQV 260620Z AUTO 00000KT 5SM BR CLR 11/10 A3000 300 96 -100 000/00 RMK AO2 T01060100
03949KAQV AQV20191226002510712/26/19 00:25:31  5-MIN KAQV 260625Z AUTO 00000KT 5SM BR CLR 11/10 A3000 300 93 0 000/00 RMK AO2 T01110100
03949KAQV AQV20191226003010412/26/19 00:30:31  5-MIN KAQV 260630Z AUTO 00000KT 7SM CLR 11/10 A3000 300 93 0 000/00 RMK AO2 T01110100
03949KAQV AQV20191226003511712/26/19 00:35:31  5-MIN KAQV 260635Z AUTO 00000KT 1 1/2SM BR FEW003 11/09 A3000 300 93 -100 000/00 RMK AO2 T01060094
03949KAQV AQV20191226004011112/26/19 00:40:31  5-MIN KAQV 260640Z AUTO 00000KT 3/4SM BR VV003 11/10 A3000 300 93 0 000/00 RMK AO2 T01110100
03949KAQV AQV20191226004511112/26/19 00:45:31  5-MIN KAQV 260645Z AUTO 00000KT 1/2SM FG VV003 11/09 A3000 300 89 0 000/00 RMK AO2 T01110094
03949KAQV AQV20191226005011412/26/19 00:50:31  5-MIN KAQV 260650Z AUTO 00000KT 1/2SM FG VV002 11/09 A3000 300 93 -100 000/00 RMK AO2 T01060094
03949KAQV AQV20191226005512112/26/19 00:55:31  5-MIN KAQV 260655Z AUTO 00000KT 3/4SM BR VV002 11/09 A3000 300 93 -100 000/00 RMK AO2 SLP159 T01060094
03949KAQV AQV20191226010011212/26/19 01:00:31  5-MIN KAQV 260700Z AUTO 00000KT 1SM BR VV002 11/09 A3000 300 93 -100 000/00 RMK AO2 T01060094
03949KAQV AQV20191226010511412/26/19 01:05:31  5-MIN KAQV 260705Z AUTO 00000KT 1/2SM FG VV002 11/09 A3000 300 93 -100 000/00 RMK AO2 T01060094
03949KAQV AQV20191226011011412/26/19 01:10:31  5-MIN KAQV 260710Z AUTO 00000KT 1/2SM FG VV002 11/09 A3001 300 93 -100 000/00 RMK AO2 T01060094
03949KAQV AQV20191226011511412/26/19 01:15:31  5-MIN KAQV 260715Z AUTO 00000KT 1/2SM FG VV002 11/09 A3001 300 93 -100 000/00 RMK AO2 T01060094
03949KAQV AQV20191226012011412/26/19 01:20:31  5-MIN KAQV 260720Z AUTO 00000KT 1/2SM FG VV002 11/09 A3001 300 93 -100 000/00 RMK AO2 T01060094
03949KAQV AQV20191226012511412/26/19 01:25:31  5-MIN KAQV 260725Z AUTO 00000KT 1/2SM FG VV003 10/09 A3001 300 96 -100 000/00 RMK AO2 T01000094
03949KAQV AQV20191226013011412/26/19 01:30:31  5-MIN KAQV 260730Z AUTO 00000KT 1/2SM FG VV003 11/09 A3001 300 93 -100 000/00 RMK AO2 T01060094
03949KAQV AQV20191226013511212/26/19 01:35:31  5-MIN KAQV 260735Z AUTO 00000KT 1SM BR VV003 10/09 A3001 300 93 -100 000/00 RMK AO2 T01000089
03949KAQV AQV20191226014012412/26/19 01:40:31  5-MIN KAQV 260740Z AUTO 00000KT 2 1/2SM BR SCT003 BKN022 10/09 A3001 300 93 -100 000/00 RMK AO2 T01000089
03949KAQV AQV20191226014512012/26/19 01:45:31  5-MIN KAQV 260745Z AUTO 00000KT 4SM BR FEW003 BKN022 10/09 A3001 290 96 -100 000/00 RMK AO2 T01000094
03949KAQV AQV20191226015012012/26/19 01:50:31  5-MIN KAQV 260750Z AUTO 00000KT 4SM BR FEW003 BKN022 10/09 A3001 290 96 -100 000/00 RMK AO2 T01000094
03949KAQV AQV20191226015511712/26/19 01:55:31  5-MIN KAQV 260755Z AUTO 00000KT 7SM BKN022 10/09 A3001 290 96 -100 000/00 RMK AO2 SLP162 T01000094
03949KAQV AQV20191226020011012/26/19 02:00:31  5-MIN KAQV 260800Z AUTO 00000KT 7SM BKN021 10/09 A3001 290 96 -100 000/00 RMK AO2 T01000094
03949KAQV AQV20191226020511012/26/19 02:05:31  5-MIN KAQV 260805Z AUTO 00000KT 7SM OVC021 10/09 A3002 290 96 -200 000/00 RMK AO2 T01000094
03949KAQV AQV20191226021011012/26/19 02:10:31  5-MIN KAQV 260810Z AUTO 00000KT 7SM OVC021 10/09 A3002 290 96 -200 000/00 RMK AO2 T01000094
03949KAQV AQV20191226021511012/26/19 02:15:31  5-MIN KAQV 260815Z AUTO 00000KT 7SM OVC021 10/09 A3002 280 96 -200 000/00 RMK AO2 T01000094
03949KAQV AQV20191226022011012/26/19 02:20:31  5-MIN KAQV 260820Z AUTO 00000KT 7SM OVC021 10/09 A3002 280 96 -200 000/00 RMK AO2 T01000094
03949KAQV AQV20191226022511012/26/19 02:25:31  5-MIN KAQV 260825Z AUTO 00000KT 7SM OVC021 10/09 A3002 280 96 -200 000/00 RMK AO2 T01000094
03949KAQV AQV20191226023011312/26/19 02:30:31  5-MIN KAQV 260830Z AUTO 00000KT 5SM BR OVC020 10/09 A3002 280 96 -200 000/00 RMK AO2 T01000094
03949KAQV AQV20191226023512012/26/19 02:35:31  5-MIN KAQV 260835Z AUTO 00000KT 4SM BR FEW002 OVC020 10/09 A3002 280 96 -200 000/00 RMK AO2 T01000094
03949KAQV AQV20191226024012012/26/19 02:40:31  5-MIN KAQV 260840Z AUTO 00000KT 4SM BR SCT002 OVC020 10/09 A3002 280 96 -200 000/00 RMK AO2 T01000094
03949KAQV AQV20191226024513412/26/19 02:45:31  5-MIN KAQV 260845Z AUTO 00000KT 1 1/4SM BR BKN002 OVC020 11/09 A3002 280 93 -100 000/00 RMK AO2 VIS 1/2V5 T01060094
03949KAQV AQV20191226025012212/26/19 02:50:31  5-MIN KAQV 260850Z AUTO 00000KT 1/2SM FG BKN002 OVC020 10/09 A3002 280 96 -200 000/00 RMK AO2 T01000094
03949KAQV AQV20191226025513512/26/19 02:55:31  5-MIN KAQV 260855Z AUTO 00000KT 1/4SM FG BKN002 OVC020 10/09 A3002 280 96 -200 000/00 RMK AO2 SLP165 T01000094 50002
03949KAQV AQV20191226030011412/26/19 03:00:31  5-MIN KAQV 260900Z AUTO 00000KT 1/4SM FG VV001 10/09 A3002 280 96 -200 000/00 RMK AO2 T01000094
03949KAQV AQV20191226030511412/26/19 03:05:31  5-MIN KAQV 260905Z AUTO 00000KT 1/4SM FG VV001 10/09 A3002 280 93 -200 000/00 RMK AO2 T01000089
03949KAQV AQV20191226031011412/26/19 03:10:31  5-MIN KAQV 260910Z AUTO 00000KT 1/4SM FG VV001 10/09 A3002 280 93 -200 000/00 RMK AO2 T01000089
03949KAQV AQV20191226031511412/26/19 03:15:31  5-MIN KAQV 260915Z AUTO 00000KT 1/4SM FG VV001 10/09 A3003 280 93 -200 000/00 RMK AO2 T01000089
03949KAQV AQV20191226032011412/26/19 03:20:31  5-MIN KAQV 260920Z AUTO 00000KT 1/4SM FG VV001 10/09 A3002 280 93 -200 000/00 RMK AO2 T01000089
03949KAQV AQV20191226032511412/26/19 03:25:31  5-MIN KAQV 260925Z AUTO 00000KT 1/2SM FG VV002 09/09 A3002 280 96 -200 000/00 RMK AO2 T00940089
03949KAQV AQV20191226033011412/26/19 03:30:31  5-MIN KAQV 260930Z AUTO 00000KT 1/2SM FG VV002 09/09 A3002 280 96 -200 000/00 RMK AO2 T00940089
03949KAQV AQV20191226033511412/26/19 03:35:31  5-MIN KAQV 260935Z AUTO 00000KT 1/2SM FG VV001 09/09 A3002 280 96 -200 000/00 RMK AO2 T00940089
03949KAQV AQV20191226034011412/26/19 03:40:31  5-MIN KAQV 260940Z AUTO 00000KT 1/2SM FG VV001 09/09 A3002 290 96 -200 000/00 RMK AO2 T00940089
03949KAQV AQV20191226034511412/26/19 03:45:31  5-MIN KAQV 260945Z AUTO 00000KT 1/2SM FG VV001 09/08 A3002 290 93 -200 000/00 RMK AO2 T00940083
03949KAQV AQV20191226035011412/26/19 03:50:31  5-MIN KAQV 260950Z AUTO 00000KT 1/2SM FG VV001 09/08 A3002 280 93 -200 000/00 RMK AO2 T00940083
03949KAQV AQV20191226035512112/26/19 03:55:31  5-MIN KAQV 260955Z AUTO 00000KT 3/4SM BR VV001 09/08 A3002 280 93 -200 000/00 RMK AO2 SLP166 T00940083
03949KAQV AQV20191226040011412/26/19 04:00:31  5-MIN KAQV 261000Z AUTO 00000KT 1/2SM FG VV001 09/08 A3002 280 93 -200 000/00 RMK AO2 T00940083
03949KAQV AQV20191226040511412/26/19 04:05:31  5-MIN KAQV 261005Z AUTO 00000KT 3/4SM BR VV002 09/08 A3002 280 93 -200 000/00 RMK AO2 T00940083
03949KAQV AQV20191226041011412/26/19 04:10:31  5-MIN KAQV 261010Z AUTO 00000KT 3/4SM BR VV002 09/08 A3002 280 93 -200 000/00 RMK AO2 T00940083
03949KAQV AQV20191226041511412/26/19 04:15:31  5-MIN KAQV 261015Z AUTO 00000KT 3/4SM BR VV002 09/08 A3002 280 96 -300 000/00 RMK AO2 T00890083
03949KAQV AQV20191226042011212/26/19 04:20:31  5-MIN KAQV 261020Z AUTO 00000KT 1SM BR VV002 09/08 A3003 280 93 -300 000/00 RMK AO2 T00890078
03949KAQV AQV20191226042511212/26/19 04:25:31  5-MIN KAQV 261025Z AUTO 00000KT 1SM BR VV002 09/08 A3003 280 93 -300 000/00 RMK AO2 T00890078
03949KAQV AQV20191226043011412/26/19 04:30:31  5-MIN KAQV 261030Z AUTO 00000KT 1/2SM FG VV001 09/08 A3003 280 93 -300 000/00 RMK AO2 T00890078
03949KAQV AQV20191226043511412/26/19 04:35:31  5-MIN KAQV 261035Z AUTO 00000KT 1/4SM FG VV001 09/08 A3003 280 96 -300 000/00 RMK AO2 T00890083
03949KAQV AQV20191226044011412/26/19 04:40:31  5-MIN KAQV 261040Z AUTO 00000KT 1/4SM FG VV001 09/08 A3003 280 93 -300 000/00 RMK AO2 T00890078
03949KAQV AQV20191226044511412/26/19 04:45:31  5-MIN KAQV 261045Z AUTO 00000KT 1/4SM FG VV001 09/08 A3003 280 93 -300 000/00 RMK AO2 T00890078
03949KAQV AQV20191226045011412/26/19 04:50:31  5-MIN KAQV 261050Z AUTO 00000KT 1/4SM FG VV002 09/08 A3003 270 93 -300 000/00 RMK AO2 T00890078
03949KAQV AQV20191226045512112/26/19 04:55:31  5-MIN KAQV 261055Z AUTO 00000KT 3/4SM BR VV002 08/08 A3003 270 96 -400 000/00 RMK AO2 SLP170 T00830078
03949KAQV AQV20191226050011712/26/19 05:00:31  5-MIN KAQV 261100Z AUTO 00000KT 1 1/4SM BR BKN002 08/08 A3003 270 96 -400 000/00 RMK AO2 T00830078
03949KAQV AQV20191226050511712/26/19 05:05:31  5-MIN KAQV 261105Z AUTO 00000KT 1 3/4SM BR SCT002 08/08 A3003 270 96 -400 000/00 RMK AO2 T00830078
03949KAQV AQV20191226051011712/26/19 05:10:31  5-MIN KAQV 261110Z AUTO 00000KT 2 1/2SM BR SCT002 08/08 A3004 270 96 -400 000/00 RMK AO2 T00830078
03949KAQV AQV20191226051511312/26/19 05:15:31  5-MIN KAQV 261115Z AUTO 00000KT 5SM BR FEW002 08/07 A3004 270 93 -400 000/00 RMK AO2 T00830072
03949KAQV AQV20191226052011312/26/19 05:20:31  5-MIN KAQV 261120Z AUTO 00000KT 6SM BR FEW002 08/07 A3004 260 93 -400 000/00 RMK AO2 T00830072
03949KAQV AQV20191226052511312/26/19 05:25:31  5-MIN KAQV 261125Z AUTO 00000KT 3SM BR SCT002 08/07 A3004 260 93 -400 000/00 RMK AO2 T00830072
03949KAQV AQV20191226053012512/26/19 05:30:31  5-MIN KAQV 261130Z AUTO 00000KT 2SM BR BKN002 08/07 A3004 260 93 -400 000/00 RMK AO2 VIS 1 3/4V3 T00830072
03949KAQV AQV20191226053511712/26/19 05:35:31  5-MIN KAQV 261135Z AUTO 00000KT 1 1/4SM BR BKN002 08/07 A3005 260 93 -400 000/00 RMK AO2 T00830072
03949KAQV AQV20191226054011412/26/19 05:40:31  5-MIN KAQV 261140Z AUTO 00000KT 3/4SM BR VV002 08/07 A3005 260 93 -400 000/00 RMK AO2 T00830072
03949KAQV AQV20191226054511412/26/19 05:45:31  5-MIN KAQV 261145Z AUTO 00000KT 3/4SM BR VV002 08/07 A3005 260 93 -400 000/00 RMK AO2 T00830072
03949KAQV AQV20191226055011212/26/19 05:50:31  5-MIN KAQV 261150Z AUTO 00000KT 1SM BR VV002 08/07 A3005 260 93 -400 000/00 RMK AO2 T00830072
03949KAQV AQV20191226055513812/26/19 05:55:31  5-MIN KAQV 261155Z AUTO 00000KT 2SM BR OVC002 08/07 A3005 260 93 -400 000/00 RMK AO2 SLP175 T00830072 10117 20083 53006
03949KAQV AQV20191226060012912/26/19 06:00:31  5-MIN KAQV 261200Z AUTO 00000KT 2 1/2SM BR OVC002 08/07 A3005 260 93 -400 000/00 RMK AO2 VIS 1 1/2V5 T00830072
03949KAQV AQV20191226060511712/26/19 06:05:31  5-MIN KAQV 261205Z AUTO 00000KT 2 1/2SM BR OVC002 08/07 A3005 260 93 -400 000/00 RMK AO2 T00830072
03949KAQV AQV20191226061011312/26/19 06:10:31  5-MIN KAQV 261210Z AUTO 00000KT 5SM BR OVC002 08/07 A3005 260 93 -400 000/00 RMK AO2 T00830072
03949KAQV AQV20191226061511312/26/19 06:15:31  5-MIN KAQV 261215Z AUTO 00000KT 3SM BR OVC002 08/07 A3005 250 93 -400 000/00 RMK AO2 T00830072
03949KAQV AQV20191226062011312/26/19 06:20:31  5-MIN KAQV 261220Z AUTO 00000KT 3SM BR OVC002 08/07 A3005 250 96 -500 000/00 RMK AO2 T00780072
03949KAQV AQV20191226062511312/26/19 06:25:31  5-MIN KAQV 261225Z AUTO 00000KT 6SM BR OVC001 08/07 A3005 260 96 -500 000/00 RMK AO2 T00780072
03949KAQV AQV20191226063011012/26/19 06:30:31  5-MIN KAQV 261230Z AUTO 00000KT 8SM OVC001 08/07 A3005 260 96 -500 000/00 RMK AO2 T00780072
03949KAQV AQV20191226063511312/26/19 06:35:31  5-MIN KAQV 261235Z AUTO 00000KT 3SM BR OVC002 08/07 A3005 250 96 -500 000/00 RMK AO2 T00780072
03949KAQV AQV20191226064011412/26/19 06:40:31  5-MIN KAQV 261240Z AUTO 00000KT 3/4SM BR VV001 08/07 A3005 250 96 -500 000/00 RMK AO2 T00780072
03949KAQV AQV20191226064511412/26/19 06:45:31  5-MIN KAQV 261245Z AUTO 00000KT 1/2SM FG VV001 08/07 A3006 250 96 -500 000/00 RMK AO2 T00780072
03949KAQV AQV20191226065011412/26/19 06:50:31  5-MIN KAQV 261250Z AUTO 00000KT 3/4SM BR VV001 08/07 A3006 250 96 -500 000/00 RMK AO2 T00780072
03949KAQV AQV20191226065510712/26/19 06:55:31  5-MIN KAQV 261255Z AUTO 00000KT 1 1/2SM BR OVC001 08/07 A3006 250 96 -500 000/00 RMK AO2
03949KAQV AQV20191226070011212/26/19 07:00:31  5-MIN KAQV 261300Z AUTO 00000KT 1SM BR VV002 08/07 A3006 250 96 -500 000/00 RMK AO2 T00780072
03949KAQV AQV20191226070511412/26/19 07:05:31  5-MIN KAQV 261305Z AUTO 00000KT 3/4SM BR VV002 08/07 A3006 250 96 -500 000/00 RMK AO2 T00780072
03949KAQV AQV20191226071011412/26/19 07:10:31  5-MIN KAQV 261310Z AUTO 00000KT 3/4SM BR VV002 08/07 A3006 240 96 -500 000/00 RMK AO2 T00780072
03949KAQV AQV20191226071511412/26/19 07:15:31  5-MIN KAQV 261315Z AUTO 00000KT 1/2SM FG VV002 08/07 A3006 240 96 -500 000/00 RMK AO2 T00780072
03949KAQV AQV20191226072011412/26/19 07:20:31  5-MIN KAQV 261320Z AUTO 00000KT 1/4SM FG VV002 08/07 A3007 240 96 -500 000/00 RMK AO2 T00780072
03949KAQV AQV20191226072511412/26/19 07:25:31  5-MIN KAQV 261325Z AUTO 00000KT 1/4SM FG VV002 08/07 A3007 240 96 -500 000/00 RMK AO2 T00780072
03949KAQV AQV20191226073011412/26/19 07:30:31  5-MIN KAQV 261330Z AUTO 00000KT 1/2SM FG VV002 08/07 A3007 240 96 -500 000/00 RMK AO2 T00780072
03949KAQV AQV20191226073511412/26/19 07:35:31  5-MIN KAQV 261335Z AUTO 00000KT 1/2SM FG VV002 08/07 A3007 230 96 -500 000/00 RMK AO2 T00780072
03949KAQV AQV20191226074011412/26/19 07:40:31  5-MIN KAQV 261340Z AUTO 00000KT 1/4SM FG VV002 08/07 A3008 230 96 -500 000/00 RMK AO2 T00780072
03949KAQV AQV20191226074511412/26/19 07:45:31  5-MIN KAQV 261345Z AUTO 00000KT 1/4SM FG VV002 08/07 A3008 230 96 -500 000/00 RMK AO2 T00780072
03949KAQV AQV20191226075011412/26/19 07:50:31  5-MIN KAQV 261350Z AUTO 00000KT 1/4SM FG VV002 08/07 A3008 230 96 -500 000/00 RMK AO2 T00780072
03949KAQV AQV20191226075512112/26/19 07:55:31  5-MIN KAQV 261355Z AUTO 00000KT 1/4SM FG VV002 08/07 A3008 230 96 -500 000/00 RMK AO2 SLP186 T00780072
03949KAQV AQV20191226080011412/26/19 08:00:31  5-MIN KAQV 261400Z AUTO 00000KT 1/4SM FG VV002 08/07 A3008 230 93 -400 000/00 RMK AO2 T00830072
03949KAQV AQV20191226080511412/26/19 08:05:31  5-MIN KAQV 261405Z AUTO 00000KT 1/4SM FG VV002 08/08 A3008 230 96 -400 000/00 RMK AO2 T00830078
03949KAQV AQV20191226081011412/26/19 08:10:31  5-MIN KAQV 261410Z AUTO 00000KT 1/2SM FG VV002 08/08 A3008 230 96 -400 000/00 RMK AO2 T00830078
03949KAQV AQV20191226081511412/26/19 08:15:31  5-MIN KAQV 261415Z AUTO 00000KT 1/2SM FG VV002 09/08 A3008 220 96 -400 000/00 RMK AO2 T00890083
03949KAQV AQV20191226082011412/26/19 08:20:31  5-MIN KAQV 261420Z AUTO 00000KT 3/4SM BR VV002 09/09 A3009 220 96 -300 000/00 RMK AO2 T00940089
03949KAQV AQV20191226082511412/26/19 08:25:31  5-MIN KAQV 261425Z AUTO 00000KT 3/4SM BR VV002 09/09 A3009 220 96 -300 000/00 RMK AO2 T00940089
03949KAQV AQV20191226083011412/26/19 08:30:31  5-MIN KAQV 261430Z AUTO 00000KT 3/4SM BR VV002 10/09 A3009 220 96 -200 000/00 RMK AO2 T01000094
03949KAQV AQV20191226083511212/26/19 08:35:31  5-MIN KAQV 261435Z AUTO 00000KT 1SM BR VV002 11/10 A3010 210 96 -200 000/00 RMK AO2 T01060100
03949KAQV AQV20191226084011712/26/19 08:40:31  5-MIN KAQV 261440Z AUTO 00000KT 1 1/4SM BR OVC002 11/11 A3010 210 96 -100 000/00 RMK AO2 T01110106
03949KAQV AQV20191226084511412/26/19 08:45:31  5-MIN KAQV 261445Z AUTO 00000KT 3SM BR BKN002 11/11 A3010 210 100 -100 000/00 RMK AO2 T01110111
03949KAQV AQV20191226085011012/26/19 08:50:31  5-MIN KAQV 261450Z AUTO 00000KT 6SM BR BKN002 12/11 A3010 210 96 0 000/00 RMK AO2 T01170111
03949KAQV AQV20191226085509812/26/19 08:55:31  5-MIN KAQV 261455Z AUTO 00000KT 10SM SCT002 12/12 A3010 210 96 0 000/00 RMK AO2
03949KAQV AQV20191226090011012/26/19 09:00:31  5-MIN KAQV 261500Z AUTO 16003KT 10SM SCT002 13/12 A3010 210 93 100 160/03 RMK AO2 T01330122
03949KAQV AQV20191226090511012/26/19 09:05:31  5-MIN KAQV 261505Z AUTO 16003KT 10SM FEW002 13/12 A3010 210 93 100 160/03 RMK AO2 T01330122
03949KAQV AQV20191226091010712/26/19 09:10:31  5-MIN KAQV 261510Z AUTO 16003KT 10SM CLR 13/12 A3010 210 93 100 150/03 RMK AO2 T01330122
03949KAQV AQV20191226091510712/26/19 09:15:31  5-MIN KAQV 261515Z AUTO 00000KT 10SM CLR 14/13 A3010 210 93 200 000/00 RMK AO2 T01390128
03949KAQV AQV20191226092010712/26/19 09:20:31  5-MIN KAQV 261520Z AUTO VRB03KT 10SM CLR 14/13 A3010 210 90 200 VRB/03 RMK AO2 T01440128
03949KAQV AQV20191226092510712/26/19 09:25:31  5-MIN KAQV 261525Z AUTO 00000KT 10SM CLR 14/13 A3011 200 90 200 000/00 RMK AO2 T01440128
03949KAQV AQV20191226093010712/26/19 09:30:31  5-MIN KAQV 261530Z AUTO 00000KT 10SM CLR 15/13 A3011 200 86 300 000/00 RMK AO2 T01500128
03949KAQV AQV20191226093510712/26/19 09:35:31  5-MIN KAQV 261535Z AUTO 16004KT 10SM CLR 16/13 A3011 200 83 400 160/04 RMK AO2 T01560128
03949KAQV AQV20191226094010712/26/19 09:40:31  5-MIN KAQV 261540Z AUTO 15004KT 10SM CLR 16/13 A3011 200 83 400 150/04 RMK AO2 T01560128
03949KAQV AQV20191226094510712/26/19 09:45:31  5-MIN KAQV 261545Z AUTO 14003KT 10SM CLR 16/13 A3011 200 80 400 140/03 RMK AO2 T01610128
03949KAQV AQV20191226095010712/26/19 09:50:31  5-MIN KAQV 261550Z AUTO 00000KT 10SM CLR 17/13 A3011 200 80 500 000/00 RMK AO2 T01670133
03949KAQV AQV20191226095511412/26/19 09:55:31  5-MIN KAQV 261555Z AUTO VRB03KT 10SM CLR 17/13 A3011 200 78 500 VRB/03 RMK AO2 SLP197 T01720133
03949KAQV AQV20191226100010712/26/19 10:00:31  5-MIN KAQV 261600Z AUTO 00000KT 10SM CLR 17/13 A3011 200 78 500 000/00 RMK AO2 T01720133
03949KAQV AQV20191226100510712/26/19 10:05:31  5-MIN KAQV 261605Z AUTO 00000KT 10SM CLR 18/13 A3011 200 75 600 000/00 RMK AO2 T01780133
03949KAQV AQV20191226101010712/26/19 10:10:31  5-MIN KAQV 261610Z AUTO 00000KT 10SM CLR 18/13 A3011 200 75 600 000/00 RMK AO2 T01780133
03949KAQV AQV20191226101510712/26/19 10:15:31  5-MIN KAQV 261615Z AUTO 15003KT 10SM CLR 18/13 A3011 200 72 700 140/03 RMK AO2 T01830133
03949KAQV AQV20191226102010712/26/19 10:20:31  5-MIN KAQV 261620Z AUTO VRB03KT 10SM CLR 18/13 A3011 200 72 700 VRB/03 RMK AO2 T01830133
03949KAQV AQV20191226102510712/26/19 10:25:31  5-MIN KAQV 261625Z AUTO 00000KT 10SM CLR 19/13 A3011 200 70 700 000/00 RMK AO2 T01890133
03949KAQV AQV20191226103010712/26/19 10:30:31  5-MIN KAQV 261630Z AUTO 15003KT 10SM CLR 19/13 A3011 200 70 700 140/03 RMK AO2 T01890133
03949KAQV AQV20191226103510712/26/19 10:35:31  5-MIN KAQV 261635Z AUTO 00000KT 10SM CLR 19/13 A3011 210 70 700 000/00 RMK AO2 T01890133
03949KAQV AQV20191226104010712/26/19 10:40:31  5-MIN KAQV 261640Z AUTO 00000KT 10SM CLR 19/13 A3010 210 67 800 000/00 RMK AO2 T01940133
03949KAQV AQV20191226104510712/26/19 10:45:31  5-MIN KAQV 261645Z AUTO 00000KT 10SM CLR 20/13 A3010 210 65 900 000/00 RMK AO2 T02000133
03949KAQV AQV20191226105010712/26/19 10:50:31  5-MIN KAQV 261650Z AUTO 00000KT 10SM CLR 21/13 A3010 210 60 900 000/00 RMK AO2 T02060128
03949KAQV AQV20191226105511412/26/19 10:55:31  5-MIN KAQV 261655Z AUTO VRB03KT 10SM CLR 20/12 A3010 210 60 900 VRB/03 RMK AO2 SLP192 T02000122
03949KAQV AQV20191226110010712/26/19 11:00:31  5-MIN KAQV 261700Z AUTO 00000KT 10SM CLR 20/12 A3009 220 60 900 000/00 RMK AO2 T02000122
03949KAQV AQV20191226110511012/26/19 11:05:31  5-MIN KAQV 261705Z AUTO 00000KT 10SM FEW027 20/13 A3009 220 63 900 000/00 RMK AO2 T02000128
03949KAQV AQV20191226111011112/26/19 11:10:31  5-MIN KAQV 261710Z AUTO 00000KT 10SM FEW027 21/13 A3009 220 60 1000 000/00 RMK AO2 T02060128
03949KAQV AQV20191226111511112/26/19 11:15:31  5-MIN KAQV 261715Z AUTO 00000KT 10SM FEW027 21/13 A3009 220 58 1000 000/00 RMK AO2 T02110128
03949KAQV AQV20191226112011112/26/19 11:20:31  5-MIN KAQV 261720Z AUTO 00000KT 10SM SCT029 22/13 A3008 220 56 1100 000/00 RMK AO2 T02170128
03949KAQV AQV20191226112510112/26/19 11:25:31  5-MIN KAQV 261725Z AUTO 10SM BKN029 21/13 A3008 230 58 1000 M /M RMK AO2 T02110128
03949KAQV AQV20191226113011812/26/19 11:30:31  5-MIN KAQV 261730Z AUTO VRB04KT 10SM BKN029 BKN035 22/13 A3008 230 54 1200 VRB/04 RMK AO2 T02220128
03949KAQV AQV20191226113511112/26/19 11:35:31  5-MIN KAQV 261735Z AUTO VRB03KT 10SM BKN031 22/13 A3008 230 54 1200 VRB/03 RMK AO2 T02220128
03949KAQV AQV20191226114011112/26/19 11:40:31  5-MIN KAQV 261740Z AUTO VRB03KT 10SM BKN031 21/12 A3007 230 56 1000 VRB/03 RMK AO2 T02110122
03949KAQV AQV20191226114511112/26/19 11:45:31  5-MIN KAQV 261745Z AUTO 00000KT 10SM OVC033 21/12 A3007 240 58 1000 000/00 RMK AO2 T02060122
03949KAQV AQV20191226115011112/26/19 11:50:31  5-MIN KAQV 261750Z AUTO 00000KT 10SM OVC033 21/12 A3007 240 58 1000 000/00 RMK AO2 T02060122
03949KAQV AQV20191226115513512/26/19 11:55:31  5-MIN KAQV 261755Z AUTO 00000KT 10SM OVC033 20/12 A3007 240 60 900 000/00 RMK AO2 SLP181 T02000122 10228 20078 53018
03949KAQV AQV20191226120011012/26/19 12:00:31  5-MIN KAQV 261800Z AUTO 26003KT 10SM OVC033 20/12 A3007 240 60 900 260/03 RMK AO2 T02000122
03949KAQV AQV20191226120511112/26/19 12:05:31  5-MIN KAQV 261805Z AUTO 00000KT 10SM OVC033 21/12 A3006 240 58 1000 000/00 RMK AO2 T02060122
03949KAQV AQV20191226121011112/26/19 12:10:31  5-MIN KAQV 261810Z AUTO 00000KT 10SM OVC033 21/12 A3006 250 58 1000 000/00 RMK AO2 T02060122
03949KAQV AQV20191226121511112/26/19 12:15:31  5-MIN KAQV 261815Z AUTO 00000KT 10SM OVC033 21/12 A3006 250 56 1000 000/00 RMK AO2 T02060117
03949KAQV AQV20191226122011112/26/19 12:20:31  5-MIN KAQV 261820Z AUTO 00000KT 10SM BKN033 21/12 A3006 250 56 1000 000/00 RMK AO2 T02060117
03949KAQV AQV20191226122511012/26/19 12:25:31  5-MIN KAQV 261825Z AUTO 00000KT 10SM BKN033 20/12 A3006 250 58 900 000/00 RMK AO2 T02000117
03949KAQV AQV20191226123011012/26/19 12:30:31  5-MIN KAQV 261830Z AUTO 00000KT 10SM BKN033 20/12 A3006 250 58 900 000/00 RMK AO2 T02000117
03949KAQV AQV20191226123511012/26/19 12:35:31  5-MIN KAQV 261835Z AUTO 00000KT 10SM BKN035 20/12 A3005 250 60 900 000/00 RMK AO2 T02000122
03949KAQV AQV20191226124011012/26/19 12:40:31  5-MIN KAQV 261840Z AUTO 00000KT 10SM BKN035 20/12 A3005 250 60 900 000/00 RMK AO2 T02000122
03949KAQV AQV20191226124511112/26/19 12:45:31  5-MIN KAQV 261845Z AUTO 00000KT 10SM SCT035 21/12 A3005 260 58 1000 000/00 RMK AO2 T02060122
03949KAQV AQV20191226125011112/26/19 12:50:31  5-MIN KAQV 261850Z AUTO 00000KT 10SM SCT035 21/12 A3005 260 56 1100 000/00 RMK AO2 T02110122
03949KAQV AQV20191226125511812/26/19 12:55:31  5-MIN KAQV 261855Z AUTO 17003KT 10SM FEW037 21/12 A3005 260 56 1100 170/03 RMK AO2 SLP174 T02110122
03949KAQV AQV20191226130011112/26/19 13:00:31  5-MIN KAQV 261900Z AUTO 17003KT 10SM FEW037 21/12 A3004 260 56 1100 170/03 RMK AO2 T02110122
03949KAQV AQV20191226130510812/26/19 13:05:31  5-MIN KAQV 261905Z AUTO 00000KT 10SM CLR 21/12 A3004 260 58 1000 000/00 RMK AO2 T02060122
03949KAQV AQV20191226131010812/26/19 13:10:31  5-MIN KAQV 261910Z AUTO VRB03KT 10SM CLR 21/12 A3004 260 56 1100 VRB/03 RMK AO2 T02110122
03949KAQV AQV20191226131510812/26/19 13:15:31  5-MIN KAQV 261915Z AUTO 18003KT 10SM CLR 21/12 A3004 270 56 1100 170/03 RMK AO2 T02110122
03949KAQV AQV20191226132011112/26/19 13:20:31  5-MIN KAQV 261920Z AUTO 00000KT 10SM FEW037 21/12 A3004 270 56 1100 000/00 RMK AO2 T02110122
03949KAQV AQV20191226132511112/26/19 13:25:31  5-MIN KAQV 261925Z AUTO 00000KT 10SM FEW037 21/13 A3004 270 58 1100 000/00 RMK AO2 T02110128
03949KAQV AQV20191226133010812/26/19 13:30:31  5-MIN KAQV 261930Z AUTO 00000KT 10SM CLR 21/13 A3004 270 58 1100 000/00 RMK AO2 T02110128
03949KAQV AQV20191226133510812/26/19 13:35:31  5-MIN KAQV 261935Z AUTO 14003KT 10SM CLR 22/13 A3004 270 56 1100 130/03 RMK AO2 T02170128
03949KAQV AQV20191226134010812/26/19 13:40:31  5-MIN KAQV 261940Z AUTO 19003KT 10SM CLR 22/12 A3003 270 54 1200 180/03 RMK AO2 T02170122
03949KAQV AQV20191226134510812/26/19 13:45:31  5-MIN KAQV 261945Z AUTO 16003KT 10SM CLR 21/13 A3003 270 58 1100 150/03 RMK AO2 T02110128
03949KAQV AQV20191226135010812/26/19 13:50:31  5-MIN KAQV 261950Z AUTO 00000KT 10SM CLR 21/13 A3003 270 60 1000 000/00 RMK AO2 T02060128
03949KAQV AQV20191226135511512/26/19 13:55:31  5-MIN KAQV 261955Z AUTO 00000KT 10SM CLR 20/13 A3003 270 65 1000 000/00 RMK AO2 SLP170 T02000133
03949KAQV AQV20191226140010812/26/19 14:00:31  5-MIN KAQV 262000Z AUTO 00000KT 10SM CLR 20/13 A3003 270 65 1000 000/00 RMK AO2 T02000133
03949KAQV AQV20191226140510712/26/19 14:05:31  5-MIN KAQV 262005Z AUTO 00000KT 10SM CLR 19/13 A3003 270 67 900 000/00 RMK AO2 T01940133
03949KAQV AQV20191226141010712/26/19 14:10:31  5-MIN KAQV 262010Z AUTO 00000KT 10SM CLR 19/14 A3003 270 70 900 000/00 RMK AO2 T01940139
03949KAQV AQV20191226141510712/26/19 14:15:31  5-MIN KAQV 262015Z AUTO 00000KT 10SM CLR 19/14 A3003 270 70 900 000/00 RMK AO2 T01940139
03949KAQV AQV20191226142010712/26/19 14:20:31  5-MIN KAQV 262020Z AUTO 00000KT 10SM CLR 19/14 A3003 270 72 900 000/00 RMK AO2 T01940144
03949KAQV AQV20191226142511112/26/19 14:25:31  5-MIN KAQV 262025Z AUTO 00000KT 10SM FEW038 20/14 A3003 270 67 1000 000/00 RMK AO2 T02000139
03949KAQV AQV20191226143011112/26/19 14:30:31  5-MIN KAQV 262030Z AUTO 00000KT 10SM SCT038 21/13 A3003 270 63 1000 000/00 RMK AO2 T02060133
03949KAQV AQV20191226143511112/26/19 14:35:31  5-MIN KAQV 262035Z AUTO 00000KT 10SM SCT038 22/13 A3003 270 58 1200 000/00 RMK AO2 T02170133
03949KAQV AQV20191226144011112/26/19 14:40:31  5-MIN KAQV 262040Z AUTO 00000KT 10SM BKN038 22/13 A3003 270 54 1200 000/00 RMK AO2 T02220128
03949KAQV AQV20191226144511112/26/19 14:45:31  5-MIN KAQV 262045Z AUTO 00000KT 10SM BKN038 23/12 A3003 280 51 1300 000/00 RMK AO2 T02280122
03949KAQV AQV20191226145011112/26/19 14:50:31  5-MIN KAQV 262050Z AUTO 00000KT 10SM BKN039 22/12 A3003 280 52 1200 000/00 RMK AO2 T02220122
03949KAQV AQV20191226145512412/26/19 14:55:31  5-MIN KAQV 262055Z AUTO 00000KT 10SM OVC039 22/12 A3003 270 54 1200 000/00 RMK AO2 SLP168 T02170122 58010
03949KAQV AQV20191226150011112/26/19 15:00:31  5-MIN KAQV 262100Z AUTO 00000KT 10SM OVC039 22/12 A3003 270 52 1200 000/00 RMK AO2 T02220122
03949KAQV AQV20191226150511112/26/19 15:05:31  5-MIN KAQV 262105Z AUTO 00000KT 10SM OVC039 22/13 A3003 270 54 1200 000/00 RMK AO2 T02220128
03949KAQV AQV20191226151011112/26/19 15:10:31  5-MIN KAQV 262110Z AUTO 00000KT 10SM OVC039 23/12 A3003 270 51 1300 000/00 RMK AO2 T02280122
03949KAQV AQV20191226151511112/26/19 15:15:31  5-MIN KAQV 262115Z AUTO 00000KT 10SM OVC039 23/12 A3003 280 49 1300 000/00 RMK AO2 T02330122
03949KAQV AQV20191226152011112/26/19 15:20:31  5-MIN KAQV 262120Z AUTO 01003KT 10SM BKN039 23/12 A3003 280 49 1300 010/03 RMK AO2 T02330122
03949KAQV AQV20191226152511112/26/19 15:25:31  5-MIN KAQV 262125Z AUTO VRB03KT 10SM BKN039 23/12 A3003 270 51 1300 VRB/03 RMK AO2 T02280122
03949KAQV AQV20191226153011112/26/19 15:30:31  5-MIN KAQV 262130Z AUTO VRB03KT 10SM BKN039 22/12 A3003 280 52 1200 VRB/03 RMK AO2 T02220122
03949KAQV AQV20191226153511112/26/19 15:35:31  5-MIN KAQV 262135Z AUTO VRB03KT 10SM SCT039 23/12 A3003 280 51 1300 VRB/03 RMK AO2 T02280122
03949KAQV AQV20191226154011112/26/19 15:40:31  5-MIN KAQV 262140Z AUTO 14003KT 10SM SCT039 22/12 A3003 270 52 1200 130/03 RMK AO2 T02220122
03949KAQV AQV20191226154511112/26/19 15:45:31  5-MIN KAQV 262145Z AUTO VRB03KT 10SM FEW039 22/12 A3003 270 52 1200 VRB/03 RMK AO2 T02220122
03949KAQV AQV20191226155011112/26/19 15:50:31  5-MIN KAQV 262150Z AUTO 00000KT 10SM FEW038 22/12 A3003 270 52 1200 000/00 RMK AO2 T02220122
03949KAQV AQV20191226155511512/26/19 15:55:31  5-MIN KAQV 262155Z AUTO 00000KT 10SM CLR 22/12 A3003 270 54 1200 000/00 RMK AO2 SLP170 T02170122
03949KAQV AQV20191226160010812/26/19 16:00:31  5-MIN KAQV 262200Z AUTO 00000KT 10SM CLR 22/12 A3004 270 54 1100 000/00 RMK AO2 T02170122
03949KAQV AQV20191226160510812/26/19 16:05:31  5-MIN KAQV 262205Z AUTO 00000KT 10SM CLR 22/12 A3004 270 54 1100 000/00 RMK AO2 T02170122
03949KAQV AQV20191226161010812/26/19 16:10:31  5-MIN KAQV 262210Z AUTO 00000KT 10SM CLR 22/12 A3004 260 52 1200 000/00 RMK AO2 T02220122
03949KAQV AQV20191226161510812/26/19 16:15:31  5-MIN KAQV 262215Z AUTO 00000KT 10SM CLR 22/12 A3004 260 52 1200 000/00 RMK AO2 T02220122
03949KAQV AQV20191226162010812/26/19 16:20:31  5-MIN KAQV 262220Z AUTO 00000KT 10SM CLR 22/13 A3004 260 56 1100 000/00 RMK AO2 T02170128
03949KAQV AQV20191226162510812/26/19 16:25:31  5-MIN KAQV 262225Z AUTO 00000KT 10SM CLR 21/13 A3004 260 61 1100 000/00 RMK AO2 T02110133
03949KAQV AQV20191226163010812/26/19 16:30:31  5-MIN KAQV 262230Z AUTO 00000KT 10SM CLR 21/13 A3004 260 63 1000 000/00 RMK AO2 T02060133
03949KAQV AQV20191226163510712/26/19 16:35:31  5-MIN KAQV 262235Z AUTO 00000KT 10SM CLR 20/13 A3004 260 65 900 000/00 RMK AO2 T02000133
03949KAQV AQV20191226164010712/26/19 16:40:31  5-MIN KAQV 262240Z AUTO 00000KT 10SM CLR 19/13 A3005 260 67 900 000/00 RMK AO2 T01940133
03949KAQV AQV20191226164510712/26/19 16:45:31  5-MIN KAQV 262245Z AUTO 00000KT 10SM CLR 19/13 A3005 260 70 800 000/00 RMK AO2 T01890133
03949KAQV AQV20191226165010712/26/19 16:50:31  5-MIN KAQV 262250Z AUTO 00000KT 10SM CLR 19/14 A3005 260 72 800 000/00 RMK AO2 T01890139
03949KAQV AQV20191226165511712/26/19 16:55:31  5-MIN KAQV 262255Z AUTO 00000KT 10SM FEW041 19/14 A3005 260 72 800 000/00 RMK AO2 SLP175 T01890139
03949KAQV AQV20191226170011012/26/19 17:00:31  5-MIN KAQV 262300Z AUTO 00000KT 10SM SCT041 18/14 A3005 250 78 700 000/00 RMK AO2 T01780139
03949KAQV AQV20191226170511012/26/19 17:05:31  5-MIN KAQV 262305Z AUTO 00000KT 10SM SCT041 18/14 A3005 250 78 700 000/00 RMK AO2 T01780139
03949KAQV AQV20191226171011012/26/19 17:10:31  5-MIN KAQV 262310Z AUTO 00000KT 10SM BKN041 18/14 A3005 250 81 700 000/00 RMK AO2 T01780144
03949KAQV AQV20191226171511012/26/19 17:15:31  5-MIN KAQV 262315Z AUTO 00000KT 10SM BKN041 17/14 A3006 250 83 600 000/00 RMK AO2 T01720144
03949KAQV AQV20191226172011012/26/19 17:20:31  5-MIN KAQV 262320Z AUTO 00000KT 10SM OVC041 17/14 A3006 250 80 600 000/00 RMK AO2 T01720139
03949KAQV AQV20191226172511012/26/19 17:25:31  5-MIN KAQV 262325Z AUTO 00000KT 10SM OVC041 18/14 A3006 250 81 700 000/00 RMK AO2 T01780144
03949KAQV AQV20191226173011012/26/19 17:30:31  5-MIN KAQV 262330Z AUTO 00000KT 10SM OVC041 17/14 A3006 240 80 600 000/00 RMK AO2 T01720139
03949KAQV AQV20191226173511012/26/19 17:35:31  5-MIN KAQV 262335Z AUTO 00000KT 10SM OVC041 17/14 A3006 240 83 600 000/00 RMK AO2 T01720144
03949KAQV AQV20191226174011012/26/19 17:40:31  5-MIN KAQV 262340Z AUTO 00000KT 10SM OVC041 17/14 A3006 240 83 600 000/00 RMK AO2 T01720144
03949KAQV AQV20191226174511012/26/19 17:45:31  5-MIN KAQV 262345Z AUTO 00000KT 10SM OVC041 17/14 A3007 240 80 600 000/00 RMK AO2 T01720139
03949KAQV AQV20191226175011012/26/19 17:50:31  5-MIN KAQV 262350Z AUTO 00000KT 10SM OVC041 17/14 A3007 240 83 500 000/00 RMK AO2 T01670139
03949KAQV AQV20191226175513512/26/19 17:55:31  5-MIN KAQV 262355Z AUTO 00000KT 10SM OVC041 17/14 A3007 240 83 500 000/00 RMK AO2 SLP183 T01670139 10233 20167 56013
03949KAQV AQV20191226180011012/26/19 18:00:31  5-MIN KAQV 270000Z AUTO 00000KT 10SM OVC041 17/14 A3007 240 83 500 000/00 RMK AO2 T01670139
03949KAQV AQV20191226180511012/26/19 18:05:31  5-MIN KAQV 270005Z AUTO 00000KT 10SM OVC041 17/14 A3007 230 83 500 000/00 RMK AO2 T01670139
03949KAQV AQV20191226181011012/26/19 18:10:31  5-MIN KAQV 270010Z AUTO 00000KT 10SM OVC041 17/14 A3008 230 83 500 000/00 RMK AO2 T01670139
03949KAQV AQV20191226181511012/26/19 18:15:31  5-MIN KAQV 270015Z AUTO 00000KT 10SM OVC040 17/14 A3008 230 83 500 000/00 RMK AO2 T01670139
03949KAQV AQV20191226182011012/26/19 18:20:31  5-MIN KAQV 270020Z AUTO 00000KT 10SM OVC042 17/14 A3008 230 83 500 000/00 RMK AO2 T01670139
03949KAQV AQV20191226182511012/26/19 18:25:31  5-MIN KAQV 270025Z AUTO 00000KT 10SM OVC042 17/14 A3008 230 83 500 000/00 RMK AO2 T01670139
03949KAQV AQV20191226183011012/26/19 18:30:31  5-MIN KAQV 270030Z AUTO 00000KT 10SM OVC042 17/14 A3008 230 83 500 000/00 RMK AO2 T01670139
03949KAQV AQV20191226183511012/26/19 18:35:31  5-MIN KAQV 270035Z AUTO 00000KT 10SM OVC042 17/14 A3008 230 83 500 000/00 RMK AO2 T01670139
03949KAQV AQV20191226184011012/26/19 18:40:31  5-MIN KAQV 270040Z AUTO 00000KT 10SM OVC042 17/14 A3008 230 83 500 000/00 RMK AO2 T01670139
03949KAQV AQV20191226184511012/26/19 18:45:31  5-MIN KAQV 270045Z AUTO 00000KT 10SM OVC042 17/14 A3008 230 83 500 000/00 RMK AO2 T01670139
03949KAQV AQV20191226185011012/26/19 18:50:31  5-MIN KAQV 270050Z AUTO 00000KT 10SM OVC042 17/14 A3008 230 83 500 000/00 RMK AO2 T01670139
03949KAQV AQV20191226185511712/26/19 18:55:31  5-MIN KAQV 270055Z AUTO 00000KT 10SM OVC042 17/14 A3008 230 83 500 000/00 RMK AO2 SLP187 T01670139
03949KAQV AQV20191226190011012/26/19 19:00:31  5-MIN KAQV 270100Z AUTO 00000KT 10SM OVC044 17/14 A3008 230 83 500 000/00 RMK AO2 T01670139
03949KAQV AQV20191226190511012/26/19 19:05:31  5-MIN KAQV 270105Z AUTO 00000KT 10SM OVC044 17/14 A3008 220 83 500 000/00 RMK AO2 T01670139
03949KAQV AQV20191226191011012/26/19 19:10:31  5-MIN KAQV 270110Z AUTO 00000KT 10SM OVC044 17/14 A3009 220 83 500 000/00 RMK AO2 T01670139
03949KAQV AQV20191226191511012/26/19 19:15:31  5-MIN KAQV 270115Z AUTO 00000KT 10SM OVC044 17/14 A3009 220 83 500 000/00 RMK AO2 T01670139
03949KAQV AQV20191226192011012/26/19 19:20:31  5-MIN KAQV 270120Z AUTO 00000KT 10SM OVC044 17/14 A3009 220 83 500 000/00 RMK AO2 T01670139
03949KAQV AQV20191226192511012/26/19 19:25:31  5-MIN KAQV 270125Z AUTO 00000KT 10SM OVC042 17/14 A3009 220 83 500 000/00 RMK AO2 T01670139
03949KAQV AQV20191226193011012/26/19 19:30:31  5-MIN KAQV 270130Z AUTO 00000KT 10SM OVC042 17/14 A3009 220 83 500 000/00 RMK AO2 T01670139
03949KAQV AQV20191226193511012/26/19 19:35:31  5-MIN KAQV 270135Z AUTO 00000KT 10SM OVC044 17/14 A3009 220 83 500 000/00 RMK AO2 T01670139
03949KAQV AQV20191226194011012/26/19 19:40:31  5-MIN KAQV 270140Z AUTO 00000KT 10SM OVC044 17/14 A3009 220 80 600 000/00 RMK AO2 T01720139
03949KAQV AQV20191226194511012/26/19 19:45:31  5-MIN KAQV 270145Z AUTO 00000KT 10SM OVC044 17/14 A3010 210 83 500 000/00 RMK AO2 T01670139
03949KAQV AQV20191226195011012/26/19 19:50:31  5-MIN KAQV 270150Z AUTO 00000KT 10SM OVC044 17/14 A3010 210 80 600 000/00 RMK AO2 T01720139
03949KAQV AQV20191226195511712/26/19 19:55:31  5-MIN KAQV 270155Z AUTO 00000KT 10SM OVC046 17/14 A3010 210 80 600 000/00 RMK AO2 SLP194 T01720139
03949KAQV AQV20191226200011012/26/19 20:00:31  5-MIN KAQV 270200Z AUTO 00000KT 10SM OVC046 17/14 A3010 210 80 600 000/00 RMK AO2 T01720139
03949KAQV AQV20191226204011012/26/19 20:40:31  5-MIN KAQV 270240Z AUTO 00000KT 10SM BKN048 16/14 A3010 210 86 400 000/00 RMK AO2 T01610139
03949KAQV AQV20191226204511012/26/19 20:45:31  5-MIN KAQV 270245Z AUTO 00000KT 10SM BKN048 16/14 A3010 210 86 400 000/00 RMK AO2 T01610139
03949KAQV AQV20191226205011012/26/19 20:50:31  5-MIN KAQV 270250Z AUTO 00000KT 10SM BKN048 16/14 A3011 210 86 400 000/00 RMK AO2 T01610139
03949KAQV AQV20191226205512312/26/19 20:55:31  5-MIN KAQV 270255Z AUTO 00000KT 10SM BKN048 16/14 A3011 200 86 400 000/00 RMK AO2 SLP195 T01610139 53014
03949KAQV AQV20191226210011012/26/19 21:00:31  5-MIN KAQV 270300Z AUTO 00000KT 10SM OVC049 16/14 A3011 200 90 400 000/00 RMK AO2 T01560139
03949KAQV AQV20191226210511012/26/19 21:05:31  5-MIN KAQV 270305Z AUTO 00000KT 10SM OVC049 16/14 A3011 200 90 400 000/00 RMK AO2 T01560139
03949KAQV AQV20191226211011012/26/19 21:10:31  5-MIN KAQV 270310Z AUTO 00000KT 10SM OVC049 16/13 A3011 200 86 400 000/00 RMK AO2 T01560133
03949KAQV AQV20191226211511012/26/19 21:15:31  5-MIN KAQV 270315Z AUTO 00000KT 10SM OVC049 16/13 A3011 200 86 400 000/00 RMK AO2 T01560133
03949KAQV AQV20191226212011012/26/19 21:20:31  5-MIN KAQV 270320Z AUTO 00000KT 10SM OVC049 16/13 A3011 200 86 400 000/00 RMK AO2 T01560133
03949KAQV AQV20191226212511012/26/19 21:25:31  5-MIN KAQV 270325Z AUTO 00000KT 10SM OVC049 16/13 A3011 200 86 400 000/00 RMK AO2 T01560133
03949KAQV AQV20191226213011012/26/19 21:30:31  5-MIN KAQV 270330Z AUTO 00000KT 10SM BKN049 15/13 A3011 200 90 300 000/00 RMK AO2 T01500133
03949KAQV AQV20191226213511012/26/19 21:35:31  5-MIN KAQV 270335Z AUTO 00000KT 10SM BKN049 16/13 A3011 200 86 400 000/00 RMK AO2 T01560133
03949KAQV AQV20191226214011012/26/19 21:40:31  5-MIN KAQV 270340Z AUTO 00000KT 10SM BKN049 16/14 A3011 200 90 400 000/00 RMK AO2 T01560139
03949KAQV AQV20191226214511012/26/19 21:45:31  5-MIN KAQV 270345Z AUTO 00000KT 10SM SCT049 15/13 A3010 210 90 300 000/00 RMK AO2 T01500133
03949KAQV AQV20191226215011012/26/19 21:50:31  5-MIN KAQV 270350Z AUTO 00000KT 10SM FEW049 15/13 A3010 210 90 300 000/00 RMK AO2 T01500133
03949KAQV AQV20191226215511712/26/19 21:55:31  5-MIN KAQV 270355Z AUTO 00000KT 10SM FEW049 15/13 A3010 210 90 300 000/00 RMK AO2 SLP192 T01500133
03949KAQV AQV20191226220011012/26/19 22:00:31  5-MIN KAQV 270400Z AUTO 00000KT 10SM FEW049 15/13 A3010 210 90 300 000/00 RMK AO2 T01500133
03949KAQV AQV20191226220510712/26/19 22:05:31  5-MIN KAQV 270405Z AUTO 00000KT 10SM CLR 16/13 A3010 210 86 400 000/00 RMK AO2 T01560133
03949KAQV AQV20191226221010712/26/19 22:10:31  5-MIN KAQV 270410Z AUTO 00000KT 10SM CLR 15/13 A3010 210 90 300 000/00 RMK AO2 T01500133
03949KAQV AQV20191226221510712/26/19 22:15:31  5-MIN KAQV 270415Z AUTO 00000KT 10SM CLR 15/13 A3010 210 90 300 000/00 RMK AO2 T01500133
03949KAQV AQV20191226222010712/26/19 22:20:31  5-MIN KAQV 270420Z AUTO 00000KT 10SM CLR 14/13 A3010 210 93 200 000/00 RMK AO2 T01440133
03949KAQV AQV20191226222510612/26/19 22:25:31  5-MIN KAQV 270425Z AUTO 00000KT 9SM CLR 14/13 A3010 210 93 200 000/00 RMK AO2 T01440133
03949KAQV AQV20191226223010612/26/19 22:30:31  5-MIN KAQV 270430Z AUTO 00000KT 9SM CLR 14/13 A3010 210 93 200 000/00 RMK AO2 T01440133
03949KAQV AQV20191226223510712/26/19 22:35:31  5-MIN KAQV 270435Z AUTO 00000KT 10SM CLR 14/13 A3010 210 93 200 000/00 RMK AO2 T01440133
03949KAQV AQV20191226224010612/26/19 22:40:31  5-MIN KAQV 270440Z AUTO 00000KT 9SM CLR 14/13 A3010 210 93 200 000/00 RMK AO2 T01440133
03949KAQV AQV20191226224510912/26/19 22:45:31  5-MIN KAQV 270445Z AUTO 00000KT 8SM FEW050 14/13 A3010 210 93 200 000/00 RMK AO2 T01440133
03949KAQV AQV20191226225010912/26/19 22:50:31  5-MIN KAQV 270450Z AUTO 00000KT 8SM FEW050 14/13 A3010 210 96 200 000/00 RMK AO2 T01390133
03949KAQV AQV20191226225511612/26/19 22:55:31  5-MIN KAQV 270455Z AUTO 00000KT 8SM SCT050 14/13 A3010 210 93 200 000/00 RMK AO2 SLP191 T01440133
03949KAQV AQV20191226230010912/26/19 23:00:31  5-MIN KAQV 270500Z AUTO 00000KT 7SM SCT050 14/13 A3010 210 93 200 000/00 RMK AO2 T01390128
03949KAQV AQV20191226230510912/26/19 23:05:31  5-MIN KAQV 270505Z AUTO 00000KT 8SM BKN049 14/13 A3010 210 93 200 000/00 RMK AO2 T01440133
03949KAQV AQV20191226231011012/26/19 23:10:31  5-MIN KAQV 270510Z AUTO 00000KT 10SM BKN049 16/14 A3010 210 90 400 000/00 RMK AO2 T01560139
03949KAQV AQV20191226231511012/26/19 23:15:31  5-MIN KAQV 270515Z AUTO 00000KT 10SM SCT049 15/14 A3010 210 93 300 000/00 RMK AO2 T01500139
03949KAQV AQV20191226232010912/26/19 23:20:31  5-MIN KAQV 270520Z AUTO 00000KT 9SM SCT049 14/13 A3010 210 93 200 000/00 RMK AO2 T01440133
03949KAQV AQV20191226232510912/26/19 23:25:31  5-MIN KAQV 270525Z AUTO 00000KT 7SM FEW049 14/13 A3009 220 93 200 000/00 RMK AO2 T01440133
03949KAQV AQV20191226233010912/26/19 23:30:31  5-MIN KAQV 270530Z AUTO 00000KT 7SM FEW049 14/13 A3009 220 93 200 000/00 RMK AO2 T01390128
03949KAQV AQV20191226233510912/26/19 23:35:31  5-MIN KAQV 270535Z AUTO 00000KT 8SM FEW049 14/13 A3009 220 93 200 000/00 RMK AO2 T01440133
03949KAQV AQV20191226234010612/26/19 23:40:31  5-MIN KAQV 270540Z AUTO 00000KT 9SM CLR 14/13 A3009 220 90 200 000/00 RMK AO2 T01440128
03949KAQV AQV20191226234510612/26/19 23:45:31  5-MIN KAQV 270545Z AUTO 00000KT 9SM CLR 15/13 A3009 220 90 300 000/00 RMK AO2 T01500133
03949KAQV AQV20191226235010712/26/19 23:50:31  5-MIN KAQV 270550Z AUTO 00000KT 10SM CLR 15/14 A3009 220 93 300 000/00 RMK AO2 T01500139
03949KAQV AQV20191226235514212/26/19 23:55:31  5-MIN KAQV 270555Z AUTO 00000KT 10SM CLR 15/14 A3009 220 93 300 000/00 RMK AO2 SLP187 T01500139 10172 20139 402330078 51012
03949KAQV AQV20191227000010712/27/19 00:00:31  5-MIN KAQV 270600Z AUTO 00000KT 10SM CLR 16/14 A3008 230 90 400 000/00 RMK AO2 T01560139
03949KAQV AQV20191227000510712/27/19 00:05:31  5-MIN KAQV 270605Z AUTO VRB03KT 10SM CLR 16/14 A3008 230 90 400 VRB/03 RMK AO2 T01560139
03949KAQV AQV20191227001011012/27/19 00:10:31  5-MIN KAQV 270610Z AUTO 00000KT 10SM FEW014 16/14 A3008 230 90 400 000/00 RMK AO2 T01560139
03949KAQV AQV20191227001511012/27/19 00:15:31  5-MIN KAQV 270615Z AUTO 00000KT 10SM SCT014 16/14 A3008 230 93 400 000/00 RMK AO2 T01560144
03949KAQV AQV20191227002011012/27/19 00:20:31  5-MIN KAQV 270620Z AUTO 00000KT 10SM SCT014 16/14 A3008 220 90 400 000/00 RMK AO2 T01560139
03949KAQV AQV20191227002511012/27/19 00:25:31  5-MIN KAQV 270625Z AUTO 00000KT 10SM SCT014 16/14 A3009 220 93 400 000/00 RMK AO2 T01560144
03949KAQV AQV20191227003010912/27/19 00:30:31  5-MIN KAQV 270630Z AUTO 00000KT 9SM SCT015 15/14 A3009 220 93 300 000/00 RMK AO2 T01500139
03949KAQV AQV20191227003511212/27/19 00:35:31  5-MIN KAQV 270635Z AUTO 00000KT 4SM BR SCT015 14/13 A3009 220 93 200 000/00 RMK AO2 T01440133
03949KAQV AQV20191227004012612/27/19 00:40:31  5-MIN KAQV 270640Z AUTO 00000KT 1 1/2SM BR SCT015 14/13 A3009 220 93 200 000/00 RMK AO2 VIS 3/4V5 T01440133
03949KAQV AQV20191227004511112/27/19 00:45:31  5-MIN KAQV 270645Z AUTO 00000KT 1SM BR VV015 14/13 A3009 220 93 200 000/00 RMK AO2 T01440133
03949KAQV AQV20191227005011312/27/19 00:50:31  5-MIN KAQV 270650Z AUTO 00000KT 3/4SM BR VV015 14/13 A3008 230 96 200 000/00 RMK AO2 T01390133
03949KAQV AQV20191227005512012/27/19 00:55:31  5-MIN KAQV 270655Z AUTO 00000KT 3/4SM BR VV015 14/13 A3008 230 93 200 000/00 RMK AO2 SLP185 T01390128
03949KAQV AQV20191227010011912/27/19 01:00:31  5-MIN KAQV 270700Z AUTO 00000KT 1SM BR FEW014 SCT019 14/13 A3008 230 93 200 000/00 RMK AO2 T01390128
03949KAQV AQV20191227010511912/27/19 01:05:31  5-MIN KAQV 270705Z AUTO 00000KT 1SM BR FEW014 SCT019 14/13 A3009 220 93 200 000/00 RMK AO2 T01390128
03949KAQV AQV20191227011011912/27/19 01:10:31  5-MIN KAQV 270710Z AUTO 00000KT 1SM BR FEW014 BKN019 14/13 A3009 220 93 200 000/00 RMK AO2 T01390128
03949KAQV AQV20191227011511612/27/19 01:15:31  5-MIN KAQV 270715Z AUTO 00000KT 1 3/4SM BR BKN021 14/13 A3009 220 93 200 000/00 RMK AO2 T01390128
03949KAQV AQV20191227012011212/27/19 01:20:31  5-MIN KAQV 270720Z AUTO 00000KT 5SM BR BKN021 14/13 A3009 220 93 200 000/00 RMK AO2 T01390128
03949KAQV AQV20191227012511212/27/19 01:25:31  5-MIN KAQV 270725Z AUTO 00000KT 5SM BR BKN021 13/13 A3009 220 96 100 000/00 RMK AO2 T01330128
03949KAQV AQV20191227013011212/27/19 01:30:31  5-MIN KAQV 270730Z AUTO 00000KT 5SM BR SCT021 13/12 A3009 220 93 100 000/00 RMK AO2 T01330122
03949KAQV AQV20191227013512312/27/19 01:35:31  5-MIN KAQV 270735Z AUTO 00000KT 1 1/4SM BR FEW003 SCT021 13/12 A3008 230 93 100 000/00 RMK AO2 T01330122
03949KAQV AQV20191227014012112/27/19 01:40:31  5-MIN KAQV 270740Z AUTO 00000KT 1/2SM FG SCT003 BKN023 13/12 A3008 230 93 100 000/00 RMK AO2 T01330122
03949KAQV AQV20191227014512112/27/19 01:45:31  5-MIN KAQV 270745Z AUTO 00000KT 1/2SM FG BKN003 BKN023 13/12 A3008 230 96 100 000/00 RMK AO2 T01280122
03949KAQV AQV20191227015011312/27/19 01:50:31  5-MIN KAQV 270750Z AUTO 00000KT 1/4SM FG VV003 13/12 A3008 230 93 100 000/00 RMK AO2 T01280117
03949KAQV AQV20191227060511612/27/19 06:05:31  5-MIN KAQV 271205Z AUTO 00000KT 1 1/2SM BR OVC002 14/13 A3009 220 93 200 000/00 RMK AO2 T01440133
03949KAQV AQV20191227061011612/27/19 06:10:31  5-MIN KAQV 271210Z AUTO 00000KT 1 3/4SM BR OVC002 14/13 A3009 220 93 200 000/00 RMK AO2 T01440133
03949KAQV AQV20191227061511212/27/19 06:15:31  5-MIN KAQV 271215Z AUTO 00000KT 2SM BR OVC002 14/13 A3009 220 93 200 000/00 RMK AO2 T01440133
03949KAQV AQV20191227062011212/27/19 06:20:31  5-MIN KAQV 271220Z AUTO 00000KT 2SM BR OVC002 14/13 A3009 220 93 200 000/00 RMK AO2 T01440133
03949KAQV AQV20191227062511612/27/19 06:25:31  5-MIN KAQV 271225Z AUTO 00000KT 2 1/2SM BR OVC002 14/13 A3010 210 93 200 000/00 RMK AO2 T01440133
03949KAQV AQV20191227063011212/27/19 06:30:31  5-MIN KAQV 271230Z AUTO 00000KT 3SM BR OVC002 14/13 A3009 220 93 200 000/00 RMK AO2 T01440133
03949KAQV AQV20191227063511212/27/19 06:35:31  5-MIN KAQV 271235Z AUTO 00000KT 4SM BR OVC002 14/13 A3009 220 93 200 000/00 RMK AO2 T01440133
03949KAQV AQV20191227064011212/27/19 06:40:31  5-MIN KAQV 271240Z AUTO 00000KT 4SM BR OVC002 14/13 A3009 220 93 200 000/00 RMK AO2 T01440133
03949KAQV AQV20191227064511212/27/19 06:45:31  5-MIN KAQV 271245Z AUTO 00000KT 3SM BR OVC002 14/13 A3009 220 93 200 000/00 RMK AO2 T01440133
03949KAQV AQV20191227065011212/27/19 06:50:31  5-MIN KAQV 271250Z AUTO 00000KT 3SM BR OVC002 14/13 A3009 220 93 200 000/00 RMK AO2 T01440133
03949KAQV AQV20191227065511412/27/19 06:55:31  5-MIN KAQV 271255Z AUTO 00000KT 2SM BR OVC002 14/13 A3009 220 93 200 000/00 RMK AO2 VIS 1 1/4V4
03949KAQV AQV20191227070012812/27/19 07:00:31  5-MIN KAQV 271300Z AUTO 00000KT 1 1/2SM BR OVC002 14/13 A3009 220 93 200 000/00 RMK AO2 VIS 1V2 1/2 T01440133
03949KAQV AQV20191227070511112/27/19 07:05:31  5-MIN KAQV 271305Z AUTO 00000KT 1SM BR VV003 14/13 A3009 220 93 200 000/00 RMK AO2 T01440133
03949KAQV AQV20191227071011312/27/19 07:10:31  5-MIN KAQV 271310Z AUTO 00000KT 3/4SM BR VV003 14/13 A3009 220 93 200 000/00 RMK AO2 T01440133
03949KAQV AQV20191227071511312/27/19 07:15:31  5-MIN KAQV 271315Z AUTO 00000KT 3/4SM BR VV003 14/13 A3009 220 93 200 000/00 RMK AO2 T01440133
03949KAQV AQV20191227072011112/27/19 07:20:31  5-MIN KAQV 271320Z AUTO 00000KT 1SM BR VV003 14/13 A3009 220 93 200 000/00 RMK AO2 T01440133
03949KAQV AQV20191227072511612/27/19 07:25:31  5-MIN KAQV 271325Z AUTO 00000KT 1 1/4SM BR OVC002 14/14 A3010 210 96 200 000/00 RMK AO2 T01440139
03949KAQV AQV20191227073013212/27/19 07:30:31  5-MIN KAQV 271330Z AUTO 00000KT 1 1/2SM -RA BR OVC002 14/14 A3010 210 96 200 000/00 RMK AO2 RAB29 P0000 T01440139
03949KAQV AQV20191227073513212/27/19 07:35:31  5-MIN KAQV 271335Z AUTO 00000KT 1 3/4SM -RA BR OVC002 14/14 A3010 210 96 200 000/00 RMK AO2 RAB29 P0001 T01440139
03949KAQV AQV20191227074012712/27/19 07:40:31  5-MIN KAQV 271340Z AUTO 00000KT 1SM RA BR OVC002 14/14 A3010 210 96 200 000/00 RMK AO2 RAB29 P0002 T01440139
03949KAQV AQV20191227074513012/27/19 07:45:31  5-MIN KAQV 271345Z AUTO 00000KT 3/4SM -RA BR OVC002 14/14 A3010 210 96 200 000/00 RMK AO2 RAB29 P0003 T01440139
03949KAQV AQV20191227075012912/27/19 07:50:31  5-MIN KAQV 271350Z AUTO 00000KT 3/4SM RA BR OVC003 15/14 A3010 220 93 300 000/00 RMK AO2 RAB29 P0004 T01500139
03949KAQV AQV20191227075513712/27/19 07:55:31  5-MIN KAQV 271355Z AUTO 00000KT 3/4SM -RA BR OVC003 15/14 A3010 210 93 300 000/00 RMK AO2 RAB29 SLP192 P0005 T01500139
03949KAQV AQV20191227080012212/27/19 08:00:31  5-MIN KAQV 271400Z AUTO 00000KT 1SM -RA BR OVC003 15/14 A3010 210 96 300 000/00 RMK AO2 P0000 T01500144
03949KAQV AQV20191227080512612/27/19 08:05:31  5-MIN KAQV 271405Z AUTO 00000KT 1 1/2SM -RA BR OVC003 16/14 A3010 210 93 400 000/00 RMK AO2 P0000 T01560144
03949KAQV AQV20191227081012612/27/19 08:10:31  5-MIN KAQV 271410Z AUTO 00000KT 1 1/2SM -RA BR OVC003 16/15 A3009 220 93 400 000/00 RMK AO2 P0000 T01610150
03949KAQV AQV20191227081512612/27/19 08:15:31  5-MIN KAQV 271415Z AUTO VRB03KT 1 1/2SM -RA BR OVC002 16/15 A3010 210 93 400 VRB/03 RMK AO2 P0000 T01610150
03949KAQV AQV20191227082012212/27/19 08:20:31  5-MIN KAQV 271420Z AUTO 00000KT 2SM -RA BR OVC002 16/15 A3010 210 93 400 000/00 RMK AO2 P0000 T01610150
03949KAQV AQV20191227082512412/27/19 08:25:31  5-MIN KAQV 271425Z AUTO 00000KT 3SM BR OVC002 16/15 A3011 210 93 400 000/00 RMK AO2 RAE24 P0000 T01610150
03949KAQV AQV20191227083012412/27/19 08:30:31  5-MIN KAQV 271430Z AUTO 00000KT 5SM BR OVC002 16/15 A3011 200 93 400 000/00 RMK AO2 RAE24 P0000 T01610150
03949KAQV AQV20191227083512412/27/19 08:35:31  5-MIN KAQV 271435Z AUTO 00000KT 5SM BR OVC002 16/15 A3011 200 93 400 000/00 RMK AO2 RAE24 P0000 T01610150
03949KAQV AQV20191227084012412/27/19 08:40:31  5-MIN KAQV 271440Z AUTO 00000KT 4SM BR OVC002 16/15 A3011 200 93 400 000/00 RMK AO2 RAE24 P0001 T01610150
03949KAQV AQV20191227084513512/27/19 08:45:31  5-MIN KAQV 271445Z AUTO 00000KT 1 1/2SM -RA BR OVC002 16/16 A3011 200 96 400 000/00 RMK AO2 RAE24B41 P0002 T01610156
03949KAQV AQV20191227085013012/27/19 08:50:31  5-MIN KAQV 271450Z AUTO 00000KT 1SM RA BR OVC004 16/16 A3011 200 96 400 000/00 RMK AO2 RAE24B41 P0003 T01610156
03949KAQV AQV20191227085515612/27/19 08:55:31  5-MIN KAQV 271455Z AUTO 00000KT 1SM RA BR BKN002 OVC007 16/16 A3012 200 96 400 000/00 RMK AO2 RAE24B41 SLP198 P0004 60009 T01610156 52003
03949KAQV AQV20191227090013612/27/19 09:00:31  5-MIN KAQV 271500Z AUTO 00000KT 1SM -RA BR SCT002 BKN007 OVC014 17/16 A3012 190 93 500 000/00 RMK AO2 P0001 T01670156
03949KAQV AQV20191227090513512/27/19 09:05:31  5-MIN KAQV 271505Z AUTO 00000KT 1SM RA BR SCT003 BKN010 OVC014 17/16 A3012 190 93 500 000/00 RMK AO2 P0003 T01670156
03949KAQV AQV20191227091013312/27/19 09:10:31  5-MIN KAQV 271510Z AUTO 00000KT 1 1/4SM -RA BR SCT003 OVC010 17/16 A3012 190 93 500 000/00 RMK AO2 P0003 T01670156
03949KAQV AQV20191227091514012/27/19 09:15:31  5-MIN KAQV 271515Z AUTO 00000KT 1 1/4SM -RA BR FEW005 BKN010 OVC014 17/16 A3012 190 93 500 000/00 RMK AO2 P0004 T01670156
03949KAQV AQV20191227092014012/27/19 09:20:31  5-MIN KAQV 271520Z AUTO 00000KT 1 1/4SM -RA BR FEW005 BKN010 OVC014 17/16 A3012 190 93 500 000/00 RMK AO2 P0005 T01670156
03949KAQV AQV20191227092513312/27/19 09:25:31  5-MIN KAQV 271525Z AUTO 00000KT 1 3/4SM -RA BR FEW005 OVC012 17/16 A3012 190 93 500 000/00 RMK AO2 P0005 T01670156
03949KAQV AQV20191227093012912/27/19 09:30:31  5-MIN KAQV 271530Z AUTO 00000KT 2SM -RA BR SCT005 OVC010 17/16 A3012 200 93 500 000/00 RMK AO2 P0005 T01670156
03949KAQV AQV20191227093513312/27/19 09:35:31  5-MIN KAQV 271535Z AUTO 00000KT 2 1/2SM -RA BR BKN005 OVC010 17/16 A3012 190 96 500 000/00 RMK AO2 P0005 T01670161
03949KAQV AQV20191227094012912/27/19 09:40:31  5-MIN KAQV 271540Z AUTO 00000KT 3SM -RA BR BKN005 OVC010 17/16 A3012 190 93 500 000/00 RMK AO2 P0005 T01720161
03949KAQV AQV20191227094513112/27/19 09:45:31  5-MIN KAQV 271545Z AUTO 00000KT 4SM BR BKN005 OVC010 17/16 A3012 190 93 500 000/00 RMK AO2 RAE43 P0005 T01720161
03949KAQV AQV20191227095013512/27/19 09:50:31  5-MIN KAQV 271550Z AUTO 00000KT 2 1/2SM BR BKN003 OVC010 17/16 A3012 190 93 500 000/00 RMK AO2 RAE43 P0005 T01720161
03949KAQV AQV20191227095513812/27/19 09:55:31  5-MIN KAQV 271555Z AUTO 00000KT 2SM BR BKN003 OVC008 17/17 A3012 190 96 500 000/00 RMK AO2 RAE43 SLP201 P0005 T01720167
03949KAQV AQV20191227100011212/27/19 10:00:31  5-MIN KAQV 271600Z AUTO 00000KT 2SM BR OVC003 17/17 A3013 190 96 500 000/00 RMK AO2 T01720167
03949KAQV AQV20191227100511212/27/19 10:05:31  5-MIN KAQV 271605Z AUTO 00000KT 2SM BR OVC003 17/17 A3013 190 96 500 000/00 RMK AO2 T01720167
03949KAQV AQV20191227101011212/27/19 10:10:31  5-MIN KAQV 271610Z AUTO 00000KT 2SM BR OVC003 17/17 A3013 180 96 500 000/00 RMK AO2 T01720167
03949KAQV AQV20191227101511612/27/19 10:15:31  5-MIN KAQV 271615Z AUTO 00000KT 2 1/2SM BR OVC003 17/17 A3013 180 96 500 000/00 RMK AO2 T01720167
03949KAQV AQV20191227102011212/27/19 10:20:31  5-MIN KAQV 271620Z AUTO 00000KT 3SM BR OVC003 18/17 A3013 190 93 600 000/00 RMK AO2 T01780167
03949KAQV AQV20191227102511212/27/19 10:25:31  5-MIN KAQV 271625Z AUTO 00000KT 4SM BR OVC003 18/17 A3012 190 93 600 000/00 RMK AO2 T01780167
03949KAQV AQV20191227103011212/27/19 10:30:31  5-MIN KAQV 271630Z AUTO 00000KT 4SM BR OVC003 18/17 A3012 190 93 600 000/00 RMK AO2 T01780167
03949KAQV AQV20191227103511212/27/19 10:35:31  5-MIN KAQV 271635Z AUTO VRB04KT 4SM BR OVC003 18/17 A3012 190 93 600 VRB/04 RMK AO2 T01780167
03949KAQV AQV20191227104011212/27/19 10:40:31  5-MIN KAQV 271640Z AUTO VRB03KT 4SM BR OVC003 18/17 A3012 190 93 600 VRB/03 RMK AO2 T01780167
03949KAQV AQV20191227104511212/27/19 10:45:31  5-MIN KAQV 271645Z AUTO 00000KT 4SM BR OVC003 18/17 A3012 190 93 600 000/00 RMK AO2 T01780167
03949KAQV AQV20191227105011212/27/19 10:50:31  5-MIN KAQV 271650Z AUTO 00000KT 4SM BR OVC003 18/17 A3011 200 93 600 000/00 RMK AO2 T01780167
03949KAQV AQV20191227105511912/27/19 10:55:31  5-MIN KAQV 271655Z AUTO VRB03KT 3SM BR OVC003 18/17 A3011 200 93 600 VRB/03 RMK AO2 SLP195 T01780167
03949KAQV AQV20191227110011212/27/19 11:00:31  5-MIN KAQV 271700Z AUTO 00000KT 4SM BR OVC003 18/17 A3011 200 96 600 000/00 RMK AO2 T01780172
03949KAQV AQV20191227110511212/27/19 11:05:31  5-MIN KAQV 271705Z AUTO 00000KT 4SM BR OVC003 18/17 A3011 200 93 600 000/00 RMK AO2 T01780167
03949KAQV AQV20191227111011212/27/19 11:10:31  5-MIN KAQV 271710Z AUTO VRB03KT 4SM BR OVC003 18/17 A3011 210 96 600 VRB/03 RMK AO2 T01780172
03949KAQV AQV20191227111511212/27/19 11:15:31  5-MIN KAQV 271715Z AUTO 00000KT 5SM BR OVC003 18/17 A3011 200 93 700 000/00 RMK AO2 T01830172
03949KAQV AQV20191227112010912/27/19 11:20:31  5-MIN KAQV 271720Z AUTO 00000KT 7SM OVC003 18/17 A3010 210 93 700 000/00 RMK AO2 T01830172
03949KAQV AQV20191227112510912/27/19 11:25:31  5-MIN KAQV 271725Z AUTO 00000KT 9SM OVC003 18/17 A3010 210 93 700 000/00 RMK AO2 T01830172
03949KAQV AQV20191227113011012/27/19 11:30:31  5-MIN KAQV 271730Z AUTO 00000KT 10SM OVC003 18/17 A3009 220 93 700 000/00 RMK AO2 T01830172
03949KAQV AQV20191227113511012/27/19 11:35:31  5-MIN KAQV 271735Z AUTO 00000KT 10SM OVC003 18/17 A3009 220 93 700 000/00 RMK AO2 T01830172
03949KAQV AQV20191227114011012/27/19 11:40:31  5-MIN KAQV 271740Z AUTO VRB03KT 10SM OVC004 18/17 A3008 230 93 700 VRB/03 RMK AO2 T01830172
03949KAQV AQV20191227114511012/27/19 11:45:31  5-MIN KAQV 271745Z AUTO 11003KT 10SM OVC004 18/17 A3008 230 93 700 110/03 RMK AO2 T01830172
03949KAQV AQV20191227115012812/27/19 11:50:31  5-MIN KAQV 271750Z AUTO 00000KT 6SM -RA BR OVC004 18/17 A3008 230 93 700 000/00 RMK AO2 RAB49 P0000 T01830172
03949KAQV AQV20191227115515912/27/19 11:55:31  5-MIN KAQV 271755Z AUTO 00000KT 3SM -RA BR OVC004 18/17 A3007 240 93 700 000/00 RMK AO2 RAB49 SLP183 P0001 60015 T01830172 10183 20139 53010
03949KAQV AQV20191227120012212/27/19 12:00:31  5-MIN KAQV 271800Z AUTO 00000KT 3SM -RA BR OVC004 18/17 A3007 240 93 700 000/00 RMK AO2 P0000 T01830172
03949KAQV AQV20191227120514512/27/19 12:05:31  5-MIN KAQV 271805Z AUTO 00000KT 2 1/2SM -RA BR BKN004 OVC011 18/17 A3007 240 93 700 000/00 RMK AO2 CIG 003V008 P0000 T01830172
03949KAQV AQV20191227121014512/27/19 12:10:31  5-MIN KAQV 271810Z AUTO VRB03KT 1 3/4SM -RA BR BKN004 OVC013 19/17 A3007 240 90 800 VRB/03 RMK AO2 CIG 003V010 P0000 T01890172
03949KAQV AQV20191227121514112/27/19 12:15:31  5-MIN KAQV 271815Z AUTO 00000KT 2SM -RA BR BKN004 OVC013 18/17 A3006 250 93 700 000/00 RMK AO2 CIG 003V010 P0001 T01830172
03949KAQV AQV20191227122013412/27/19 12:20:31  5-MIN KAQV 271820Z AUTO 07003KT 3SM -RA BR OVC004 19/17 A3006 250 90 800 060/03 RMK AO2 CIG 003V010 P0001 T01890172
03949KAQV AQV20191227122513412/27/19 12:25:31  5-MIN KAQV 271825Z AUTO 00000KT 3SM -RA BR OVC005 18/17 A3005 250 93 700 000/00 RMK AO2 CIG 003V010 P0001 T01830172
03949KAQV AQV20191227123014512/27/19 12:30:31  5-MIN KAQV 271830Z AUTO VRB03KT 1 1/2SM -RA BR BKN005 OVC009 18/17 A3005 250 93 700 VRB/03 RMK AO2 CIG 003V007 P0001 T01830172
03949KAQV AQV20191227123513812/27/19 12:35:31  5-MIN KAQV 271835Z AUTO 00000KT 1 3/4SM -RA BR OVC005 18/17 A3006 250 93 700 000/00 RMK AO2 CIG 003V010 P0001 T01830172
03949KAQV AQV20191227124013412/27/19 12:40:31  5-MIN KAQV 271840Z AUTO 00000KT 4SM -RA BR OVC005 18/17 A3005 250 93 700 000/00 RMK AO2 CIG 003V010 P0001 T01830172
03949KAQV AQV20191227124513612/27/19 12:45:31  5-MIN KAQV 271845Z AUTO 00000KT 4SM BR OVC005 18/17 A3005 260 93 700 000/00 RMK AO2 RAE44 CIG 003V010 P0001 T01830172
03949KAQV AQV20191227125013612/27/19 12:50:31  5-MIN KAQV 271850Z AUTO VRB03KT 3SM BR OVC005 18/17 A3004 260 93 800 VRB/03 RMK AO2 RAE44 CIG 003V007 P0001 T01830172
03949KAQV AQV20191227125512612/27/19 12:55:31  5-MIN KAQV 271855Z AUTO 00000KT 3SM BR OVC004 18/17 A3004 270 93 800 000/00 RMK AO2 RAE44 CIG 003V007 P0001
03949KAQV AQV20191227130012412/27/19 13:00:31  5-MIN KAQV 271900Z AUTO VRB03KT 3SM BR OVC004 18/17 A3003 270 93 800 VRB/03 RMK AO2 CIG 002V006 T01830172
03949KAQV AQV20191227130512412/27/19 13:05:31  5-MIN KAQV 271905Z AUTO 00000KT 4SM BR OVC004 18/18 A3003 280 96 800 000/00 RMK AO2 CIG 002V008 T01830178
03949KAQV AQV20191227131012412/27/19 13:10:31  5-MIN KAQV 271910Z AUTO 10003KT 4SM BR OVC003 18/18 A3003 280 96 800 100/03 RMK AO2 CIG 002V007 T01830178
03949KAQV AQV20191227131511212/27/19 13:15:31  5-MIN KAQV 271915Z AUTO VRB03KT 6SM BR OVC003 19/17 A3002 280 90 800 VRB/03 RMK AO2 T01890172
03949KAQV AQV20191227132011912/27/19 13:20:31  5-MIN KAQV 271920Z AUTO 00000KT 6SM BR BKN003 OVC010 19/17 A3002 280 90 800 000/00 RMK AO2 T01890172
03949KAQV AQV20191227132514712/27/19 13:25:31  5-MIN KAQV 271925Z AUTO 00000KT 5SM -RA BR BKN003 OVC010 19/18 A3002 280 93 800 000/00 RMK AO2 RAB21 CIG 002V007 P0000 T01890178
03949KAQV AQV20191227133014712/27/19 13:30:31  5-MIN KAQV 271930Z AUTO VRB03KT 6SM -RA BR BKN003 OVC009 19/18 A3002 290 93 800 VRB/03 RMK AO2 RAB21 CIG 002V006 P0000 T01890178
03949KAQV AQV20191227133514312/27/19 13:35:31  5-MIN KAQV 271935Z AUTO VRB03KT 9SM SCT005 OVC009 19/18 A3002 290 93 800 VRB/03 RMK AO2 RAB21E31 CIG 007V012 P0000 T01890178
03949KAQV AQV20191227134014412/27/19 13:40:31  5-MIN KAQV 271940Z AUTO 16004KT 10SM FEW005 OVC009 19/18 A3002 290 93 900 150/04 RMK AO2 RAB21E31 CIG 007V012 P0000 T01890178
03949KAQV AQV20191227134514412/27/19 13:45:31  5-MIN KAQV 271945Z AUTO 00000KT 10SM BKN010 OVC015 19/18 A3001 290 93 900 000/00 RMK AO2 RAB21E31 CIG 005V012 P0000 T01890178
03949KAQV AQV20191227135013212/27/19 13:50:31  5-MIN KAQV 271950Z AUTO VRB03KT 10SM FEW006 OVC013 19/18 A3001 290 90 900 VRB/03 RMK AO2 RAB21E31 P0000 T01940178
03949KAQV AQV20191227135512212/27/19 13:55:31  5-MIN KAQV 271955Z AUTO VRB03KT 10SM FEW006 OVC013 19/18 A3001 290 90 900 VRB/03 RMK AO2 RAB21E31 P0000
03949KAQV AQV20191227140012912/27/19 14:00:31  5-MIN KAQV 272000Z AUTO VRB03KT 10SM BKN010 OVC015 19/18 A3001 290 93 900 VRB/03 RMK AO2 CIG 006V012 T01890178
03949KAQV AQV20191227140511712/27/19 14:05:31  5-MIN KAQV 272005Z AUTO 00000KT 10SM FEW008 OVC015 19/18 A3001 290 90 900 000/00 RMK AO2 T01940178
03949KAQV AQV20191227141012412/27/19 14:10:31  5-MIN KAQV 272010Z AUTO VRB03KT 10SM SCT010 BKN015 OVC026 19/18 A3002 290 90 900 VRB/03 RMK AO2 T01940178
03949KAQV AQV20191227141512412/27/19 14:15:31  5-MIN KAQV 272015Z AUTO 00000KT 10SM FEW008 BKN015 OVC026 19/18 A3002 290 90 900 000/00 RMK AO2 T01940178
03949KAQV AQV20191227142011712/27/19 14:20:31  5-MIN KAQV 272020Z AUTO 14003KT 10SM SCT010 OVC018 19/18 A3001 290 90 900 130/03 RMK AO2 T01940178
03949KAQV AQV20191227142512412/27/19 14:25:31  5-MIN KAQV 272025Z AUTO 00000KT 10SM SCT010 BKN016 OVC025 19/17 A3001 290 90 900 000/00 RMK AO2 T01890172
03949KAQV AQV20191227143012412/27/19 14:30:31  5-MIN KAQV 272030Z AUTO 00000KT 10SM SCT010 BKN016 OVC023 19/18 A3001 290 90 900 000/00 RMK AO2 T01940178
03949KAQV AQV20191227143512412/27/19 14:35:31  5-MIN KAQV 272035Z AUTO 00000KT 10SM FEW010 SCT013 OVC023 19/18 A3001 290 90 900 000/00 RMK AO2 T01940178
03949KAQV AQV20191227144012412/27/19 14:40:31  5-MIN KAQV 272040Z AUTO 00000KT 10SM FEW010 SCT016 OVC021 19/18 A3001 290 90 900 000/00 RMK AO2 T01940178
03949KAQV AQV20191227144511712/27/19 14:45:31  5-MIN KAQV 272045Z AUTO 00000KT 10SM FEW011 OVC021 19/18 A3002 290 90 900 000/00 RMK AO2 T01940178
03949KAQV AQV20191227145012412/27/19 14:50:31  5-MIN KAQV 272050Z AUTO VRB04KT 10SM FEW014 BKN021 OVC031 19/18 A3001 290 90 900 VRB/04 RMK AO2 T01940178
03949KAQV AQV20191227145515812/27/19 14:55:31  5-MIN KAQV 272055Z AUTO 00000KT 9SM -RA BKN021 BKN026 OVC034 19/18 A3002 290 90 900 000/00 RMK AO2 RAB54 SLP163 P0000 60001 T01940178 58015
03949KAQV AQV20191227150012612/27/19 15:00:31  5-MIN KAQV 272100Z AUTO 00000KT 9SM -RA BKN021 OVC026 19/18 A3001 290 90 900 000/00 RMK AO2 P0000 T01940178
03949KAQV AQV20191227150513712/27/19 15:05:31  5-MIN KAQV 272105Z AUTO 00000KT 10SM FEW009 BKN019 OVC026 20/18 A3001 290 87 1000 000/00 RMK AO2 RAE04 P0000 T02000178
03949KAQV AQV20191227151014412/27/19 15:10:31  5-MIN KAQV 272110Z AUTO 00000KT 10SM -RA SCT009 BKN019 OVC026 20/18 A3001 290 87 1000 000/00 RMK AO2 RAE04B10 P0000 T02000178
03949KAQV AQV20191227151515512/27/19 15:15:31  5-MIN KAQV 272115Z AUTO 00000KT 9SM -RA SCT007 BKN017 OVC026 20/18 A3001 300 87 1000 000/00 RMK AO2 RAE04B10 CIG 011V022 P0000 T02000178
03949KAQV AQV20191227152014312/27/19 15:20:31  5-MIN KAQV 272120Z AUTO 00000KT 9SM -RA FEW007 BKN015 OVC024 20/18 A3000 300 87 1000 000/00 RMK AO2 RAE04B10 P0000 T02000178
03949KAQV AQV20191227152514312/27/19 15:25:31  5-MIN KAQV 272125Z AUTO 11003KT 10SM SCT009 BKN017 BKN022 20/18 A3000 300 87 1000 110/03 RMK AO2 RAE04B10E22 P0000 T02000178
03949KAQV AQV20191227153014312/27/19 15:30:31  5-MIN KAQV 272130Z AUTO 00000KT 10SM FEW007 SCT012 BKN020 20/18 A3000 300 87 1000 000/00 RMK AO2 RAE04B10E22 P0000 T02000178
03949KAQV AQV20191227153514312/27/19 15:35:31  5-MIN KAQV 272135Z AUTO 00000KT 10SM FEW007 SCT012 OVC020 20/18 A3000 300 87 1000 000/00 RMK AO2 RAE04B10E22 P0000 T02000178
03949KAQV AQV20191227154013512/27/19 15:40:31  5-MIN KAQV 272140Z AUTO 12003KT 10SM FEW011 OVC020 19/18 A3001 300 90 900 110/03 RMK AO2 RAE04B10E22 P0000 T01940178
03949KAQV AQV20191227154513512/27/19 15:45:31  5-MIN KAQV 272145Z AUTO 15003KT 10SM BKN022 OVC029 19/18 A3001 300 90 900 140/03 RMK AO2 RAE04B10E22 P0000 T01940178
03949KAQV AQV20191227155014212/27/19 15:50:31  5-MIN KAQV 272150Z AUTO 00000KT 10SM FEW012 BKN021 OVC026 19/18 A3001 300 90 900 000/00 RMK AO2 RAE04B10E22 P0000 T01940178
03949KAQV AQV20191227155515012/27/19 15:55:31  5-MIN KAQV 272155Z AUTO 00000KT 10SM FEW012 SCT019 OVC026 20/18 A3001 290 87 1000 000/00 RMK AO2 RAE04B10E22 SLP162 P0000 T02000178
03949KAQV AQV20191227160011712/27/19 16:00:31  5-MIN KAQV 272200Z AUTO 00000KT 10SM BKN023 OVC028 19/18 A3001 290 90 900 000/00 RMK AO2 T01940178
03949KAQV AQV20191227160511712/27/19 16:05:31  5-MIN KAQV 272205Z AUTO 00000KT 10SM BKN023 OVC028 19/18 A3001 290 90 900 000/00 RMK AO2 T01940178
03949KAQV AQV20191227161011012/27/19 16:10:31  5-MIN KAQV 272210Z AUTO 00000KT 10SM OVC025 19/18 A3000 300 90 900 000/00 RMK AO2 T01940178
03949KAQV AQV20191227161511012/27/19 16:15:31  5-MIN KAQV 272215Z AUTO 00000KT 10SM OVC025 19/18 A3001 300 90 900 000/00 RMK AO2 T01940178
03949KAQV AQV20191227162010912/27/19 16:20:31  5-MIN KAQV 272220Z AUTO 00000KT 9SM OVC025 19/18 A3001 290 90 900 000/00 RMK AO2 T01940178
03949KAQV AQV20191227162510912/27/19 16:25:31  5-MIN KAQV 272225Z AUTO 00000KT 9SM OVC023 19/18 A3001 290 90 900 000/00 RMK AO2 T01940178
03949KAQV AQV20191227163010912/27/19 16:30:31  5-MIN KAQV 272230Z AUTO 00000KT 8SM OVC025 19/18 A3001 290 90 900 000/00 RMK AO2 T01940178
03949KAQV AQV20191227163510912/27/19 16:35:31  5-MIN KAQV 272235Z AUTO 00000KT 8SM OVC025 19/18 A3001 300 90 900 000/00 RMK AO2 T01940178
03949KAQV AQV20191227164010912/27/19 16:40:31  5-MIN KAQV 272240Z AUTO 00000KT 8SM OVC025 19/18 A3001 290 90 900 000/00 RMK AO2 T01940178
03949KAQV AQV20191227164510912/27/19 16:45:31  5-MIN KAQV 272245Z AUTO 00000KT 8SM OVC026 19/18 A3001 290 90 900 000/00 RMK AO2 T01940178
03949KAQV AQV20191227165012312/27/19 16:50:31  5-MIN KAQV 272250Z AUTO 00000KT 8SM BKN024 BKN029 OVC035 19/18 A3001 290 90 900 000/00 RMK AO2 T01940178
03949KAQV AQV20191227165513012/27/19 16:55:31  5-MIN KAQV 272255Z AUTO 00000KT 8SM BKN024 BKN029 OVC035 19/18 A3001 290 90 900 000/00 RMK AO2 SLP161 T01940178
03949KAQV AQV20191227170011612/27/19 17:00:31  5-MIN KAQV 272300Z AUTO 00000KT 7SM SCT026 OVC034 19/18 A3001 290 90 900 000/00 RMK AO2 T01940178
03949KAQV AQV20191227170511912/27/19 17:05:31  5-MIN KAQV 272305Z AUTO 00000KT 6SM BR SCT026 OVC034 19/18 A3001 290 93 900 000/00 RMK AO2 T01890178
03949KAQV AQV20191227171011912/27/19 17:10:31  5-MIN KAQV 272310Z AUTO 00000KT 5SM BR SCT024 OVC034 19/18 A3001 290 93 900 000/00 RMK AO2 T01890178
03949KAQV AQV20191227171511912/27/19 17:15:31  5-MIN KAQV 272315Z AUTO 00000KT 5SM BR SCT026 OVC034 19/18 A3001 300 93 900 000/00 RMK AO2 T01890178
03949KAQV AQV20191227172012612/27/19 17:20:31  5-MIN KAQV 272320Z AUTO 00000KT 3SM BR FEW022 BKN034 OVC040 19/18 A3001 300 93 900 000/00 RMK AO2 T01890178
03949KAQV AQV20191227172513012/27/19 17:25:31  5-MIN KAQV 272325Z AUTO 00000KT 2 1/2SM BR FEW024 BKN031 BKN040 19/18 A3001 300 93 900 000/00 RMK AO2 T01890178
03949KAQV AQV20191227173012612/27/19 17:30:31  5-MIN KAQV 272330Z AUTO 00000KT 3SM BR SCT024 BKN031 BKN038 19/18 A3001 300 93 900 000/00 RMK AO2 T01890178
03949KAQV AQV20191227173512612/27/19 17:35:31  5-MIN KAQV 272335Z AUTO 00000KT 3SM BR BKN021 BKN031 OVC038 19/17 A3001 300 90 900 000/00 RMK AO2 T01890172
03949KAQV AQV20191227174013312/27/19 17:40:31  5-MIN KAQV 272340Z AUTO 00000KT 1 1/2SM BR BKN021 BKN031 18/18 A3001 300 96 800 000/00 RMK AO2 VIS 3/4V5 T01830178
03949KAQV AQV20191227174512312/27/19 17:45:31  5-MIN KAQV 272345Z AUTO 00000KT 1 1/2SM BR BKN021 BKN029 18/17 A3000 300 93 800 000/00 RMK AO2 T01830172
03949KAQV AQV20191227175011912/27/19 17:50:31  5-MIN KAQV 272350Z AUTO 00000KT 3SM BR BKN021 OVC032 18/17 A3000 300 93 800 000/00 RMK AO2 T01830172
03949KAQV AQV20191227175515012/27/19 17:55:31  5-MIN KAQV 272355Z AUTO 00000KT 5SM BR BKN021 BKN032 18/17 A3000 300 93 800 000/00 RMK AO2 SLP159 60001 T01830172 10200 20183 55019
03949KAQV AQV20191227180011612/27/19 18:00:31  5-MIN KAQV 280000Z AUTO 00000KT 7SM SCT022 BKN029 18/17 A3000 300 93 800 000/00 RMK AO2 T01830172
03949KAQV AQV20191227180511912/27/19 18:05:31  5-MIN KAQV 280005Z AUTO 00000KT 4SM BR SCT022 SCT029 18/17 A3000 300 90 800 000/00 RMK AO2 T01830167
03949KAQV AQV20191227181011912/27/19 18:10:31  5-MIN KAQV 280010Z AUTO 00000KT 1SM BR SCT022 SCT029 18/17 A3000 300 93 700 000/00 RMK AO2 T01780167
03949KAQV AQV20191227181511612/27/19 18:15:31  5-MIN KAQV 280015Z AUTO 00000KT 1 1/4SM BR SCT022 18/17 A3000 300 93 700 000/00 RMK AO2 T01780167
03949KAQV AQV20191227182011212/27/19 18:20:31  5-MIN KAQV 280020Z AUTO 00000KT 3SM BR FEW022 18/17 A3000 300 93 700 000/00 RMK AO2 T01780167
03949KAQV AQV20191227182512612/27/19 18:25:31  5-MIN KAQV 280025Z AUTO 00000KT 1 3/4SM BR FEW024 18/17 A3000 300 93 700 000/00 RMK AO2 VIS 3/4V4 T01780167
03949KAQV AQV20191227183013012/27/19 18:30:31  5-MIN KAQV 280030Z AUTO 00000KT 1 1/4SM BR SCT024 17/16 A3000 300 93 700 000/00 RMK AO2 VIS 3/4V2 1/2 T01720161
03949KAQV AQV20191227183512812/27/19 18:35:31  5-MIN KAQV 280035Z AUTO 00000KT 1/2SM FG SCT024 17/16 A3000 300 93 700 000/00 RMK AO2 VIS 1/4V2 1/2 T01720161
03949KAQV AQV20191227184011412/27/19 18:40:31  5-MIN KAQV 280040Z AUTO 00000KT 1/4SM FG BKN024 17/16 A3001 300 93 700 000/00 RMK AO2 T01720161
03949KAQV AQV20191227184511412/27/19 18:45:31  5-MIN KAQV 280045Z AUTO 00000KT 1/4SM FG BKN026 17/16 A3001 300 93 700 000/00 RMK AO2 T01720161
03949KAQV AQV20191227185011412/27/19 18:50:31  5-MIN KAQV 280050Z AUTO 00000KT 1/4SM FG BKN026 17/16 A3001 290 93 700 000/00 RMK AO2 T01720161
03949KAQV AQV20191227185512112/27/19 18:55:31  5-MIN KAQV 280055Z AUTO 00000KT 1/4SM FG OVC026 17/16 A3001 290 93 700 000/00 RMK AO2 SLP163 T01720161
03949KAQV AQV20191227190012112/27/19 19:00:31  5-MIN KAQV 280100Z AUTO 00000KT 1/4SM FG SCT020 OVC027 17/16 A3001 290 96 600 000/00 RMK AO2 T01670161
03949KAQV AQV20191227190512112/27/19 19:05:31  5-MIN KAQV 280105Z AUTO 00000KT 1/4SM FG BKN020 OVC027 17/16 A3002 290 96 600 000/00 RMK AO2 T01670161
03949KAQV AQV20191227191012112/27/19 19:10:31  5-MIN KAQV 280110Z AUTO 00000KT 1/4SM FG BKN018 OVC024 17/16 A3002 290 96 600 000/00 RMK AO2 T01670161
03949KAQV AQV20191227191512112/27/19 19:15:31  5-MIN KAQV 280115Z AUTO 00000KT 1/2SM FG BKN021 OVC027 17/16 A3002 290 96 600 000/00 RMK AO2 T01670161
03949KAQV AQV20191227192012312/27/19 19:20:31  5-MIN KAQV 280120Z AUTO 00000KT 1 1/4SM BR SCT018 OVC024 17/16 A3002 290 96 600 000/00 RMK AO2 T01670161
03949KAQV AQV20191227192512712/27/19 19:25:31  5-MIN KAQV 280125Z AUTO 00000KT 2SM BR BKN018 OVC024 17/16 A3002 290 96 600 000/00 RMK AO2 VIS 1V4 T01670161
03949KAQV AQV20191227193012612/27/19 19:30:31  5-MIN KAQV 280130Z AUTO 00000KT 2SM BR SCT018 BKN024 OVC034 17/16 A3002 280 96 600 000/00 RMK AO2 T01670161
03949KAQV AQV20191227193512612/27/19 19:35:31  5-MIN KAQV 280135Z AUTO 00000KT 4SM BR FEW018 BKN024 OVC034 17/16 A3002 290 96 600 000/00 RMK AO2 T01670161
03949KAQV AQV20191227194014012/27/19 19:40:31  5-MIN KAQV 280140Z AUTO 00000KT 1 3/4SM BR FEW017 BKN024 OVC032 17/16 A3002 290 93 600 000/00 RMK AO2 VIS 3/4V4 T01670156
03949KAQV AQV20191227194513012/27/19 19:45:31  5-MIN KAQV 280145Z AUTO 00000KT 1 1/2SM BR FEW017 BKN029 OVC034 17/16 A3002 290 93 600 000/00 RMK AO2 T01670156
03949KAQV AQV20191227195013012/27/19 19:50:31  5-MIN KAQV 280150Z AUTO 00000KT 1 1/4SM BR SCT020 BKN029 OVC034 17/16 A3002 290 93 600 000/00 RMK AO2 T01670156
03949KAQV AQV20191227195511812/27/19 19:55:31  5-MIN KAQV 280155Z AUTO 00000KT 3/4SM BR SCT020 BKN029 BKN034 17/16 A3002 290 93 600 000/00 RMK AO2
03949KAQV AQV20191227200012612/27/19 20:00:31  5-MIN KAQV 280200Z AUTO 00000KT 1SM BR SCT020 BKN029 BKN034 17/16 A3002 290 93 600 000/00 RMK AO2 T01670156
03949KAQV AQV20191227200512812/27/19 20:05:31  5-MIN KAQV 280205Z AUTO 00000KT 3/4SM BR BKN020 BKN029 BKN034 17/16 A3001 290 93 600 000/00 RMK AO2 T01670156
03949KAQV AQV20191227201012612/27/19 20:10:31  5-MIN KAQV 280210Z AUTO 00000KT 1SM BR SCT020 BKN029 BKN034 16/15 A3001 290 93 500 000/00 RMK AO2 T01610150
03949KAQV AQV20191227201511912/27/19 20:15:31  5-MIN KAQV 280215Z AUTO 00000KT 1SM BR SCT021 SCT034 16/15 A3001 290 93 500 000/00 RMK AO2 T01610150
03949KAQV AQV20191227202012612/27/19 20:20:31  5-MIN KAQV 280220Z AUTO 00000KT 1SM BR SCT021 SCT027 SCT034 16/15 A3001 290 93 500 000/00 RMK AO2 T01610150
03949KAQV AQV20191227202512612/27/19 20:25:31  5-MIN KAQV 280225Z AUTO 00000KT 1SM BR BKN024 17/16 A3001 290 93 600 000/00 RMK AO2 VIS 3/4V2 1/2 T01670156
03949KAQV AQV20191227203011612/27/19 20:30:31  5-MIN KAQV 280230Z AUTO 00000KT 1 1/4SM BR BKN024 17/16 A3001 290 93 600 000/00 RMK AO2 T01670156
03949KAQV AQV20191227203511212/27/19 20:35:31  5-MIN KAQV 280235Z AUTO 00000KT 5SM BR BKN024 17/16 A3001 290 93 600 000/00 RMK AO2 T01670156
03949KAQV AQV20191227204011912/27/19 20:40:31  5-MIN KAQV 280240Z AUTO 00000KT 6SM BR BKN022 BKN027 17/16 A3001 300 93 600 000/00 RMK AO2 T01670156
03949KAQV AQV20191227204511912/27/19 20:45:31  5-MIN KAQV 280245Z AUTO 00000KT 6SM BR BKN022 BKN027 17/16 A3000 300 96 600 000/00 RMK AO2 T01670161
03949KAQV AQV20191227205011212/27/19 20:50:31  5-MIN KAQV 280250Z AUTO 00000KT 6SM BR BKN022 17/16 A3000 300 93 700 000/00 RMK AO2 T01720161
03949KAQV AQV20191227205512512/27/19 20:55:31  5-MIN KAQV 280255Z AUTO 00000KT 4SM BR BKN022 17/16 A3000 300 93 600 000/00 RMK AO2 SLP160 T01670156 58005
03949KAQV AQV20191227210012812/27/19 21:00:31  5-MIN KAQV 280300Z AUTO 00000KT 2 1/2SM BR BKN022 17/16 A3001 300 93 700 000/00 RMK AO2 VIS 1 1/4V5 T01720161
03949KAQV AQV20191227210512812/27/19 21:05:31  5-MIN KAQV 280305Z AUTO 00000KT 2 1/2SM BR BKN022 17/16 A3000 300 96 600 000/00 RMK AO2 VIS 1 1/4V4 T01670161
03949KAQV AQV20191227211012612/27/19 21:10:31  5-MIN KAQV 280310Z AUTO 00000KT 1 1/4SM BR BKN022 17/16 A3001 300 93 600 000/00 RMK AO2 VIS 1/2V3 T01670156
03949KAQV AQV20191227211512812/27/19 21:15:31  5-MIN KAQV 280315Z AUTO 00000KT 3/4SM BR BKN022 17/16 A3000 300 93 600 000/00 RMK AO2 VIS 1/2V1 3/4 T01670156
03949KAQV AQV20191227212011412/27/19 21:20:31  5-MIN KAQV 280320Z AUTO 00000KT 3/4SM BR BKN022 16/16 A3001 300 96 500 000/00 RMK AO2 T01610156
03949KAQV AQV20191227212512112/27/19 21:25:31  5-MIN KAQV 280325Z AUTO 00000KT 1/2SM FG BKN022 BKN031 16/15 A3001 290 93 500 000/00 RMK AO2 T01610150
03949KAQV AQV20191227213012112/27/19 21:30:31  5-MIN KAQV 280330Z AUTO 00000KT 1/2SM FG SCT022 BKN031 16/15 A3001 290 96 500 000/00 RMK AO2 T01560150
03949KAQV AQV20191227213512112/27/19 21:35:31  5-MIN KAQV 280335Z AUTO 00000KT 1/4SM FG FEW022 BKN031 16/15 A3001 290 93 500 000/00 RMK AO2 T01610150
03949KAQV AQV20191227214012112/27/19 21:40:31  5-MIN KAQV 280340Z AUTO 00000KT 1/2SM FG FEW022 BKN032 16/15 A3001 290 93 500 000/00 RMK AO2 T01610150
03949KAQV AQV20191227214512112/27/19 21:45:31  5-MIN KAQV 280345Z AUTO 00000KT 1/2SM FG FEW022 OVC032 16/15 A3001 300 93 500 000/00 RMK AO2 T01610150
03949KAQV AQV20191227215011912/27/19 21:50:31  5-MIN KAQV 280350Z AUTO 00000KT 1SM BR FEW024 OVC032 16/16 A3001 300 96 500 000/00 RMK AO2 T01610156
03949KAQV AQV20191227215513512/27/19 21:55:31  5-MIN KAQV 280355Z AUTO 00000KT 2 1/2SM BR FEW024 OVC032 17/16 A3001 300 93 600 000/00 RMK AO2 VIS 1 1/2V5 T01670156
03949KAQV AQV20191227220013112/27/19 22:00:31  5-MIN KAQV 280400Z AUTO 00000KT 2 1/2SM BR FEW022 BKN034 17/16 A3001 300 93 600 000/00 RMK AO2 VIS 1V5 T01670156
03949KAQV AQV20191227220512712/27/19 22:05:31  5-MIN KAQV 280405Z AUTO 00000KT 2SM BR SCT022 BKN034 16/16 A3001 300 96 500 000/00 RMK AO2 VIS 1V5 T01610156
03949KAQV AQV20191227221012612/27/19 22:10:31  5-MIN KAQV 280410Z AUTO 00000KT 1SM BR FEW018 SCT024 BKN033 16/15 A3001 290 96 500 000/00 RMK AO2 T01560150
03949KAQV AQV20191227221512612/27/19 22:15:31  5-MIN KAQV 280415Z AUTO 00000KT 1SM BR FEW003 BKN024 BKN035 16/16 A3001 300 96 500 000/00 RMK AO2 T01610156
03949KAQV AQV20191227222013812/27/19 22:20:31  5-MIN KAQV 280420Z AUTO 00000KT 2 1/2SM BR SCT017 BKN024 BKN031 17/16 A3001 290 93 600 000/00 RMK AO2 VIS 1V5 T01670156
03949KAQV AQV20191227222512612/27/19 22:25:31  5-MIN KAQV 280425Z AUTO 00000KT 4SM BR FEW002 SCT017 BKN024 17/16 A3001 300 93 600 000/00 RMK AO2 T01670156
03949KAQV AQV20191227223012612/27/19 22:30:31  5-MIN KAQV 280430Z AUTO 00000KT 3SM BR FEW002 SCT015 BKN024 17/16 A3001 300 93 600 000/00 RMK AO2 T01670156
03949KAQV AQV20191227223512612/27/19 22:35:31  5-MIN KAQV 280435Z AUTO 00000KT 3SM BR FEW002 SCT015 BKN024 17/16 A3001 300 93 600 000/00 RMK AO2 T01670156
03949KAQV AQV20191227224013312/27/19 22:40:31  5-MIN KAQV 280440Z AUTO 00000KT 2 1/2SM BR FEW015 FEW033 16/16 A3001 290 96 500 000/00 RMK AO2 VIS 3/4V5 T01610156
03949KAQV AQV20191227224511112/27/19 22:45:31  5-MIN KAQV 280445Z AUTO 00000KT 1SM BR VV016 16/15 A3000 300 93 500 000/00 RMK AO2 T01610150
03949KAQV AQV20191227225012112/27/19 22:50:31  5-MIN KAQV 280450Z AUTO 00000KT 3/4SM BR SCT016 SCT034 16/15 A3001 300 93 500 000/00 RMK AO2 T01610150
03949KAQV AQV20191227225511312/27/19 22:55:31  5-MIN KAQV 280455Z AUTO 00000KT 1 1/4SM BR FEW016 SCT032 17/16 A3001 300 93 600 000/00 RMK AO2
03949KAQV AQV20191227230013312/27/19 23:00:31  5-MIN KAQV 280500Z AUTO 00000KT 2 1/2SM BR FEW016 SCT032 17/16 A3001 300 93 600 000/00 RMK AO2 VIS 3/4V5 T01670156
03949KAQV AQV20191227230511912/27/19 23:05:31  5-MIN KAQV 280505Z AUTO 00000KT 3SM BR FEW016 BKN030 17/16 A3000 300 93 600 000/00 RMK AO2 T01670156
03949KAQV AQV20191227231011912/27/19 23:10:31  5-MIN KAQV 280510Z AUTO 00000KT 4SM BR FEW016 BKN030 17/16 A3000 300 93 600 000/00 RMK AO2 T01670156
03949KAQV AQV20191227231511212/27/19 23:15:31  5-MIN KAQV 280515Z AUTO 00000KT 3SM BR BKN030 17/16 A3000 300 93 600 000/00 RMK AO2 T01670156
03949KAQV AQV20191227232011212/27/19 23:20:31  5-MIN KAQV 280520Z AUTO 00000KT 4SM BR BKN029 17/16 A3000 300 93 600 000/00 RMK AO2 T01670156
03949KAQV AQV20191227232511212/27/19 23:25:31  5-MIN KAQV 280525Z AUTO 00000KT 5SM BR BKN029 17/16 A3000 310 93 600 000/00 RMK AO2 T01670156
03949KAQV AQV20191227233011212/27/19 23:30:31  5-MIN KAQV 280530Z AUTO 00000KT 3SM BR SCT028 16/16 A2999 310 96 600 000/00 RMK AO2 T01610156
03949KAQV AQV20191227233513112/27/19 23:35:31  5-MIN KAQV 280535Z AUTO 00000KT 1 3/4SM BR FEW012 BKN028 16/16 A2999 310 96 600 000/00 RMK AO2 VIS 1V4 T01610156
03949KAQV AQV20191227234013812/27/19 23:40:31  5-MIN KAQV 280540Z AUTO 00000KT 1 3/4SM BR FEW010 SCT017 BKN028 16/16 A2999 310 96 600 000/00 RMK AO2 VIS 1V4 T01610156
03949KAQV AQV20191227234512612/27/19 23:45:31  5-MIN KAQV 280545Z AUTO 00000KT 2SM BR FEW010 BKN019 BKN027 17/16 A2998 320 93 600 000/00 RMK AO2 T01670156
03949KAQV AQV20191227235013812/27/19 23:50:31  5-MIN KAQV 280550Z AUTO 12003KT 2 1/2SM BR FEW010 SCT021 BKN027 17/16 A2998 320 93 600 120/03 RMK AO2 VIS 2V5 T01670156
03949KAQV AQV20191227235516112/27/19 23:55:31  5-MIN KAQV 280555Z AUTO 00000KT 4SM BR FEW008 BKN019 BKN029 17/16 A2998 320 93 600 000/00 RMK AO2 SLP151 T01670156 10183 20156 402000122 50001
03949KAQV AQV20191228000012612/28/19 00:00:31  5-MIN KAQV 280600Z AUTO 00000KT 5SM BR SCT008 BKN019 OVC029 17/16 A2998 320 93 600 000/00 RMK AO2 T01670156
03949KAQV AQV20191228000512612/28/19 00:05:31  5-MIN KAQV 280605Z AUTO VRB03KT 6SM BR BKN008 BKN022 OVC029 17/16 A2998 320 93 600 VRB/03 RMK AO2 T01670156
03949KAQV AQV20191228001012612/28/19 00:10:31  5-MIN KAQV 280610Z AUTO 00000KT 6SM BR BKN008 BKN022 OVC029 17/16 A2998 320 93 600 000/00 RMK AO2 T01670156
03949KAQV AQV20191228001512312/28/19 00:15:31  5-MIN KAQV 280615Z AUTO 00000KT 7SM BKN008 BKN020 OVC029 17/16 A2998 320 93 600 000/00 RMK AO2 T01670156
03949KAQV AQV20191228002010912/28/19 00:20:31  5-MIN KAQV 280620Z AUTO 00000KT 7SM OVC008 17/16 A2998 320 96 600 000/00 RMK AO2 T01670161
03949KAQV AQV20191228002510912/28/19 00:25:31  5-MIN KAQV 280625Z AUTO 00000KT 7SM OVC008 17/16 A2998 320 96 600 000/00 RMK AO2 T01670161
03949KAQV AQV20191228003012112/28/19 00:30:31  5-MIN KAQV 280630Z AUTO 00000KT 7SM OVC006 17/16 A2997 330 93 700 000/00 RMK AO2 CIG 003V008 T01720161
03949KAQV AQV20191228003512412/28/19 00:35:31  5-MIN KAQV 280635Z AUTO VRB03KT 6SM BR OVC006 17/16 A2997 330 96 600 VRB/03 RMK AO2 CIG 003V008 T01670161
03949KAQV AQV20191228004011212/28/19 00:40:31  5-MIN KAQV 280640Z AUTO 00000KT 6SM BR OVC006 17/16 A2997 330 93 700 000/00 RMK AO2 T01720161
03949KAQV AQV20191228004510912/28/19 00:45:31  5-MIN KAQV 280645Z AUTO VRB03KT 7SM OVC006 17/16 A2996 340 93 700 VRB/03 RMK AO2 T01720161
03949KAQV AQV20191228005010912/28/19 00:50:31  5-MIN KAQV 280650Z AUTO VRB03KT 7SM OVC006 17/16 A2996 340 93 700 VRB/03 RMK AO2 T01720161
03949KAQV AQV20191228005511612/28/19 00:55:31  5-MIN KAQV 280655Z AUTO VRB03KT 7SM OVC005 17/16 A2996 340 93 700 VRB/03 RMK AO2 SLP144 T01720161
03949KAQV AQV20191228010009912/28/19 01:00:31  5-MIN KAQV 280700Z AUTO 7SM OVC005 17/16 A2996 340 93 700 M /M RMK AO2 T01720161
03949KAQV AQV20191228010511212/28/19 01:05:31  5-MIN KAQV 280705Z AUTO VRB03KT 6SM BR OVC005 17/17 A2996 340 96 700 VRB/03 RMK AO2 T01720167
03949KAQV AQV20191228011011212/28/19 01:10:31  5-MIN KAQV 280710Z AUTO VRB04KT 6SM BR OVC004 17/17 A2996 340 96 700 VRB/04 RMK AO2 T01720167
03949KAQV AQV20191228011511212/28/19 01:15:31  5-MIN KAQV 280715Z AUTO VRB03KT 5SM BR OVC004 18/17 A2996 340 93 800 VRB/03 RMK AO2 T01780167
03949KAQV AQV20191228012011212/28/19 01:20:31  5-MIN KAQV 280720Z AUTO VRB04KT 5SM BR OVC004 18/17 A2996 340 93 800 VRB/04 RMK AO2 T01780167
03949KAQV AQV20191228012511212/28/19 01:25:31  5-MIN KAQV 280725Z AUTO VRB05KT 4SM BR OVC004 18/17 A2996 340 93 800 VRB/05 RMK AO2 T01780167
03949KAQV AQV20191228013011212/28/19 01:30:31  5-MIN KAQV 280730Z AUTO VRB04KT 3SM BR OVC004 18/17 A2996 340 93 800 VRB/04 RMK AO2 T01780167
03949KAQV AQV20191228013511612/28/19 01:35:31  5-MIN KAQV 280735Z AUTO VRB04KT 2 1/2SM BR OVC003 18/17 A2995 350 93 800 VRB/04 RMK AO2 T01780167
03949KAQV AQV20191228014011612/28/19 01:40:31  5-MIN KAQV 280740Z AUTO VRB06KT 2 1/2SM BR OVC003 18/17 A2995 350 93 800 VRB/06 RMK AO2 T01780167
03949KAQV AQV20191228014511212/28/19 01:45:31  5-MIN KAQV 280745Z AUTO VRB05KT 2SM BR OVC002 18/17 A2995 350 93 800 VRB/05 RMK AO2 T01780167
03949KAQV AQV20191228015011612/28/19 01:50:31  5-MIN KAQV 280750Z AUTO 00000KT 1 3/4SM BR OVC002 18/17 A2995 350 93 800 000/00 RMK AO2 T01780167
03949KAQV AQV20191228015512312/28/19 01:55:31  5-MIN KAQV 280755Z AUTO 15004KT 1 3/4SM BR OVC002 18/17 A2995 350 93 800 150/04 RMK AO2 SLP140 T01780167
03949KAQV AQV20191228020011612/28/19 02:00:31  5-MIN KAQV 280800Z AUTO VRB04KT 1 3/4SM BR OVC002 18/17 A2995 350 93 800 VRB/04 RMK AO2 T01780167
03949KAQV AQV20191228020510612/28/19 02:05:31  5-MIN KAQV 280805Z AUTO 1 3/4SM BR OVC002 18/17 A2994 350 96 800 M /M RMK AO2 T01780172
03949KAQV AQV20191228021011612/28/19 02:10:31  5-MIN KAQV 280810Z AUTO VRB04KT 1 1/2SM BR OVC002 18/17 A2994 350 93 800 VRB/04 RMK AO2 T01780167
03949KAQV AQV20191228021511612/28/19 02:15:31  5-MIN KAQV 280815Z AUTO VRB05KT 1 3/4SM BR OVC002 18/17 A2994 350 96 800 VRB/05 RMK AO2 T01780172
03949KAQV AQV20191228022011212/28/19 02:20:31  5-MIN KAQV 280820Z AUTO VRB03KT 2SM BR OVC002 18/17 A2994 360 96 800 VRB/03 RMK AO2 T01780172
03949KAQV AQV20191228022511212/28/19 02:25:31  5-MIN KAQV 280825Z AUTO 00000KT 2SM BR OVC002 18/17 A2994 360 96 800 000/00 RMK AO2 T01780172
03949KAQV AQV20191228023011612/28/19 02:30:31  5-MIN KAQV 280830Z AUTO VRB03KT 2 1/2SM BR OVC002 18/17 A2994 360 96 800 VRB/03 RMK AO2 T01780172
03949KAQV AQV20191228023511212/28/19 02:35:31  5-MIN KAQV 280835Z AUTO VRB04KT 3SM BR OVC002 18/17 A2994 360 96 800 VRB/04 RMK AO2 T01780172
03949KAQV AQV20191228024011212/28/19 02:40:31  5-MIN KAQV 280840Z AUTO VRB04KT 3SM BR OVC002 18/17 A2994 360 96 800 VRB/04 RMK AO2 T01780172
03949KAQV AQV20191228024511212/28/19 02:45:31  5-MIN KAQV 280845Z AUTO VRB03KT 4SM BR OVC002 18/17 A2994 360 96 800 VRB/03 RMK AO2 T01780172
03949KAQV AQV20191228025011212/28/19 02:50:31  5-MIN KAQV 280850Z AUTO 00000KT 4SM BR OVC002 18/17 A2994 360 96 800 000/00 RMK AO2 T01780172
03949KAQV AQV20191228025512512/28/19 02:55:31  5-MIN KAQV 280855Z AUTO 15003KT 4SM BR OVC003 18/17 A2994 360 93 900 150/03 RMK AO2 SLP137 T01830172 58007
03949KAQV AQV20191228030011212/28/19 03:00:31  5-MIN KAQV 280900Z AUTO VRB03KT 4SM BR OVC003 18/17 A2994 360 93 900 VRB/03 RMK AO2 T01830172
03949KAQV AQV20191228030511212/28/19 03:05:31  5-MIN KAQV 280905Z AUTO VRB03KT 3SM BR OVC003 18/17 A2994 360 93 900 VRB/03 RMK AO2 T01830172
03949KAQV AQV20191228031011212/28/19 03:10:31  5-MIN KAQV 280910Z AUTO VRB03KT 3SM BR OVC003 18/17 A2994 360 93 900 VRB/03 RMK AO2 T01830172
03949KAQV AQV20191228031511212/28/19 03:15:31  5-MIN KAQV 280915Z AUTO 14003KT 3SM BR OVC003 18/17 A2994 360 93 900 130/03 RMK AO2 T01830172
03949KAQV AQV20191228032011212/28/19 03:20:31  5-MIN KAQV 280920Z AUTO VRB03KT 3SM BR OVC003 18/17 A2993 360 93 900 VRB/03 RMK AO2 T01830172
03949KAQV AQV20191228032510612/28/19 03:25:31  5-MIN KAQV 280925Z AUTO 2 1/2SM BR OVC003 18/17 A2993 370 93 900 M /M RMK AO2 T01830172
03949KAQV AQV20191228033011212/28/19 03:30:31  5-MIN KAQV 280930Z AUTO VRB04KT 3SM BR OVC003 18/17 A2993 370 93 900 VRB/04 RMK AO2 T01830172
03949KAQV AQV20191228033511212/28/19 03:35:31  5-MIN KAQV 280935Z AUTO VRB04KT 3SM BR OVC003 18/17 A2993 370 93 900 VRB/04 RMK AO2 T01830172
03949KAQV AQV20191228034010212/28/19 03:40:31  5-MIN KAQV 280940Z AUTO 3SM BR OVC003 18/17 A2992 370 93 900 M /M RMK AO2 T01830172
03949KAQV AQV20191228034511212/28/19 03:45:31  5-MIN KAQV 280945Z AUTO VRB05KT 4SM BR OVC003 18/17 A2992 370 93 900 VRB/05 RMK AO2 T01830172
03949KAQV AQV20191228035011212/28/19 03:50:31  5-MIN KAQV 280950Z AUTO VRB04KT 5SM BR OVC003 18/17 A2992 370 93 900 VRB/04 RMK AO2 T01830172
03949KAQV AQV20191228035511912/28/19 03:55:31  5-MIN KAQV 280955Z AUTO VRB03KT 6SM BR OVC003 18/17 A2992 370 93 900 VRB/03 RMK AO2 SLP131 T01830172
03949KAQV AQV20191228040010912/28/19 04:00:31  5-MIN KAQV 281000Z AUTO 00000KT 7SM OVC003 18/17 A2992 380 93 900 000/00 RMK AO2 T01830172
03949KAQV AQV20191228040510912/28/19 04:05:31  5-MIN KAQV 281005Z AUTO VRB03KT 8SM OVC004 18/17 A2992 380 93 900 VRB/03 RMK AO2 T01830172
03949KAQV AQV20191228041010912/28/19 04:10:31  5-MIN KAQV 281010Z AUTO 12003KT 8SM OVC004 18/17 A2992 380 93 900 120/03 RMK AO2 T01830172
03949KAQV AQV20191228041510912/28/19 04:15:31  5-MIN KAQV 281015Z AUTO VRB03KT 8SM OVC004 18/18 A2992 380 96 900 VRB/03 RMK AO2 T01830178
03949KAQV AQV20191228042010912/28/19 04:20:31  5-MIN KAQV 281020Z AUTO 00000KT 8SM OVC004 18/17 A2992 380 93 900 000/00 RMK AO2 T01830172
03949KAQV AQV20191228042510912/28/19 04:25:31  5-MIN KAQV 281025Z AUTO 00000KT 8SM OVC004 18/18 A2992 380 96 900 000/00 RMK AO2 T01830178
03949KAQV AQV20191228043010912/28/19 04:30:31  5-MIN KAQV 281030Z AUTO VRB04KT 7SM OVC004 18/17 A2992 380 93 900 VRB/04 RMK AO2 T01830172
03949KAQV AQV20191228043510912/28/19 04:35:31  5-MIN KAQV 281035Z AUTO VRB03KT 7SM OVC004 18/18 A2992 380 96 900 VRB/03 RMK AO2 T01830178
03949KAQV AQV20191228044011212/28/19 04:40:31  5-MIN KAQV 281040Z AUTO VRB03KT 6SM BR OVC004 18/17 A2992 380 93 900 VRB/03 RMK AO2 T01830172
03949KAQV AQV20191228044511212/28/19 04:45:31  5-MIN KAQV 281045Z AUTO 00000KT 5SM BR OVC004 18/17 A2992 380 93 900 000/00 RMK AO2 T01830172
03949KAQV AQV20191228045011212/28/19 04:50:31  5-MIN KAQV 281050Z AUTO 00000KT 5SM BR OVC003 18/17 A2991 380 93 900 000/00 RMK AO2 T01830172
03949KAQV AQV20191228045511912/28/19 04:55:31  5-MIN KAQV 281055Z AUTO VRB03KT 5SM BR OVC003 18/18 A2991 380 96 900 VRB/03 RMK AO2 SLP127 T01830178
03949KAQV AQV20191228050011212/28/19 05:00:31  5-MIN KAQV 281100Z AUTO VRB04KT 4SM BR OVC003 18/17 A2991 390 93 900 VRB/04 RMK AO2 T01830172
03949KAQV AQV20191228050512412/28/19 05:05:31  5-MIN KAQV 281105Z AUTO 00000KT 5SM BR OVC003 18/17 A2991 390 93 900 000/00 RMK AO2 CIG 002V007 T01830172
03949KAQV AQV20191228051012412/28/19 05:10:31  5-MIN KAQV 281110Z AUTO 13004KT 6SM BR OVC003 18/17 A2990 390 93 900 130/04 RMK AO2 CIG 002V007 T01830172
03949KAQV AQV20191228051512412/28/19 05:15:31  5-MIN KAQV 281115Z AUTO VRB03KT 4SM BR OVC004 18/17 A2990 390 93 900 VRB/03 RMK AO2 CIG 003V007 T01830172
03949KAQV AQV20191228052012812/28/19 05:20:31  5-MIN KAQV 281120Z AUTO VRB03KT 2 1/2SM BR OVC004 18/18 A2990 390 96 900 VRB/03 RMK AO2 CIG 002V007 T01830178
03949KAQV AQV20191228052512812/28/19 05:25:31  5-MIN KAQV 281125Z AUTO VRB03KT 2 1/2SM BR OVC004 18/18 A2990 400 96 900 VRB/03 RMK AO2 CIG 002V007 T01830178
03949KAQV AQV20191228053012412/28/19 05:30:31  5-MIN KAQV 281130Z AUTO VRB03KT 3SM BR OVC004 18/17 A2990 400 93 900 VRB/03 RMK AO2 CIG 002V007 T01830172
03949KAQV AQV20191228053512412/28/19 05:35:31  5-MIN KAQV 281135Z AUTO VRB04KT 5SM BR OVC004 18/17 A2989 400 93 900 VRB/04 RMK AO2 CIG 002V007 T01830172
03949KAQV AQV20191228054012412/28/19 05:40:31  5-MIN KAQV 281140Z AUTO VRB04KT 5SM BR OVC004 18/18 A2989 400 96 900 VRB/04 RMK AO2 CIG 002V007 T01830178
03949KAQV AQV20191228054512412/28/19 05:45:31  5-MIN KAQV 281145Z AUTO 00000KT 3SM BR OVC004 18/18 A2989 400 96 900 000/00 RMK AO2 CIG 002V007 T01830178
03949KAQV AQV20191228055012412/28/19 05:50:31  5-MIN KAQV 281150Z AUTO VRB03KT 3SM BR OVC004 18/18 A2989 400 96 900 VRB/03 RMK AO2 CIG 002V007 T01830178
03949KAQV AQV20191228055514312/28/19 05:55:31  5-MIN KAQV 281155Z AUTO VRB03KT 3SM BR OVC003 18/18 A2990 400 96 900 VRB/03 RMK AO2 SLP122 70016 T01830178 10183 20167 56007
03949KAQV AQV20191228060011212/28/19 06:00:31  5-MIN KAQV 281200Z AUTO 00000KT 3SM BR OVC003 18/18 A2990 400 96 900 000/00 RMK AO2 T01830178
03949KAQV AQV20191228060511212/28/19 06:05:31  5-MIN KAQV 281205Z AUTO VRB03KT 3SM BR OVC003 18/18 A2990 400 96 900 VRB/03 RMK AO2 T01830178
03949KAQV AQV20191228061011212/28/19 06:10:31  5-MIN KAQV 281210Z AUTO VRB03KT 3SM BR OVC003 18/18 A2990 400 96 900 VRB/03 RMK AO2 T01830178
03949KAQV AQV20191228061511212/28/19 06:15:31  5-MIN KAQV 281215Z AUTO VRB03KT 3SM BR OVC003 18/18 A2990 400 96 900 VRB/03 RMK AO2 T01830178
03949KAQV AQV20191228062011612/28/19 06:20:31  5-MIN KAQV 281220Z AUTO VRB04KT 2 1/2SM BR OVC003 18/18 A2990 400 96 900 VRB/04 RMK AO2 T01830178
03949KAQV AQV20191228062511612/28/19 06:25:31  5-MIN KAQV 281225Z AUTO VRB03KT 2 1/2SM BR OVC003 18/18 A2990 400 96 900 VRB/03 RMK AO2 T01830178
03949KAQV AQV20191228063011212/28/19 06:30:31  5-MIN KAQV 281230Z AUTO 00000KT 2SM BR OVC003 18/18 A2990 400 96 900 000/00 RMK AO2 T01830178
03949KAQV AQV20191228063511212/28/19 06:35:31  5-MIN KAQV 281235Z AUTO 00000KT 2SM BR OVC003 18/18 A2990 400 96 900 000/00 RMK AO2 T01830178
03949KAQV AQV20191228064010612/28/19 06:40:31  5-MIN KAQV 281240Z AUTO 2 1/2SM BR OVC003 18/18 A2990 400 96 900 M /M RMK AO2 T01830178
03949KAQV AQV20191228064511612/28/19 06:45:31  5-MIN KAQV 281245Z AUTO VRB03KT 2 1/2SM BR OVC003 18/18 A2990 390 96 900 VRB/03 RMK AO2 T01830178
03949KAQV AQV20191228065011212/28/19 06:50:31  5-MIN KAQV 281250Z AUTO 15003KT 2SM BR OVC003 18/18 A2990 390 96 900 140/03 RMK AO2 T01830178
03949KAQV AQV20191228065511912/28/19 06:55:31  5-MIN KAQV 281255Z AUTO VRB04KT 2SM BR OVC003 18/18 A2990 390 96 900 VRB/04 RMK AO2 SLP124 T01830178
03949KAQV AQV20191228070011612/28/19 07:00:31  5-MIN KAQV 281300Z AUTO VRB03KT 2 1/2SM BR OVC003 18/18 A2990 390 96 900 VRB/03 RMK AO2 T01830178
03949KAQV AQV20191228070511612/28/19 07:05:31  5-MIN KAQV 281305Z AUTO VRB03KT 2 1/2SM BR OVC003 18/18 A2991 390 96 900 VRB/03 RMK AO2 T01830178
03949KAQV AQV20191228071011212/28/19 07:10:31  5-MIN KAQV 281310Z AUTO 16003KT 3SM BR OVC003 18/18 A2991 390 96 900 160/03 RMK AO2 T01830178
03949KAQV AQV20191228071512412/28/19 07:15:31  5-MIN KAQV 281315Z AUTO 00000KT 4SM BR OVC003 18/18 A2991 390 96 900 000/00 RMK AO2 CIG 002V006 T01830178
03949KAQV AQV20191228072012412/28/19 07:20:31  5-MIN KAQV 281320Z AUTO VRB03KT 4SM BR OVC003 18/18 A2991 390 96 900 VRB/03 RMK AO2 CIG 003V007 T01830178
03949KAQV AQV20191228072511612/28/19 07:25:31  5-MIN KAQV 281325Z AUTO 00000KT 2 1/2SM BR OVC004 18/18 A2991 390 96 900 000/00 RMK AO2 T01830178
03949KAQV AQV20191228073012812/28/19 07:30:31  5-MIN KAQV 281330Z AUTO VRB04KT 1 3/4SM BR OVC004 18/18 A2991 390 96 900 VRB/04 RMK AO2 CIG 003V007 T01830178
03949KAQV AQV20191228073512812/28/19 07:35:31  5-MIN KAQV 281335Z AUTO 00000KT 2 1/2SM BR OVC004 18/18 A2991 390 96 900 000/00 RMK AO2 CIG 003V007 T01830178
03949KAQV AQV20191228074011212/28/19 07:40:31  5-MIN KAQV 281340Z AUTO VRB05KT 3SM BR OVC004 18/18 A2991 390 96 900 VRB/05 RMK AO2 T01830178
03949KAQV AQV20191228074511612/28/19 07:45:31  5-MIN KAQV 281345Z AUTO VRB03KT 2 1/2SM BR OVC004 18/18 A2991 390 96 900 VRB/03 RMK AO2 T01830178
03949KAQV AQV20191228075011212/28/19 07:50:31  5-MIN KAQV 281350Z AUTO 16003KT 2SM BR OVC004 18/18 A2991 390 96 900 160/03 RMK AO2 T01830178
03949KAQV AQV20191228075512012/28/19 07:55:31  5-MIN KAQV 281355Z AUTO VRB03KT 2SM BR OVC004 19/18 A2991 390 93 1000 VRB/03 RMK AO2 SLP126 T01890178
03949KAQV AQV20191228080011312/28/19 08:00:31  5-MIN KAQV 281400Z AUTO VRB03KT 2SM BR OVC004 19/18 A2991 390 93 1000 VRB/03 RMK AO2 T01890178
03949KAQV AQV20191228080511712/28/19 08:05:31  5-MIN KAQV 281405Z AUTO 00000KT 1 1/2SM BR OVC004 19/18 A2991 390 93 1000 000/00 RMK AO2 T01890178
03949KAQV AQV20191228081011712/28/19 08:10:31  5-MIN KAQV 281410Z AUTO 15004KT 1 3/4SM BR OVC004 19/18 A2991 380 93 1000 140/04 RMK AO2 T01890178
03949KAQV AQV20191228081511312/28/19 08:15:31  5-MIN KAQV 281415Z AUTO VRB03KT 2SM BR OVC004 19/18 A2991 390 93 1000 VRB/03 RMK AO2 T01890178
03949KAQV AQV20191228082011312/28/19 08:20:31  5-MIN KAQV 281420Z AUTO VRB03KT 2SM BR OVC004 19/18 A2991 380 93 1000 VRB/03 RMK AO2 T01890178
03949KAQV AQV20191228082510312/28/19 08:25:31  5-MIN KAQV 281425Z AUTO 3SM BR OVC004 19/18 A2991 380 93 1000 M /M RMK AO2 T01890178
03949KAQV AQV20191228083011312/28/19 08:30:31  5-MIN KAQV 281430Z AUTO VRB03KT 3SM BR OVC004 19/18 A2991 380 93 1000 VRB/03 RMK AO2 T01890178
03949KAQV AQV20191228083511712/28/19 08:35:31  5-MIN KAQV 281435Z AUTO VRB03KT 2 1/2SM BR OVC004 19/18 A2991 380 93 1000 VRB/03 RMK AO2 T01890178
03949KAQV AQV20191228084011312/28/19 08:40:31  5-MIN KAQV 281440Z AUTO VRB06KT 3SM BR OVC004 19/18 A2991 380 93 1000 VRB/06 RMK AO2 T01890178
03949KAQV AQV20191228084511312/28/19 08:45:31  5-MIN KAQV 281445Z AUTO VRB03KT 3SM BR OVC004 19/18 A2991 390 93 1000 VRB/03 RMK AO2 T01890178
03949KAQV AQV20191228085011312/28/19 08:50:31  5-MIN KAQV 281450Z AUTO VRB05KT 4SM BR OVC004 19/18 A2991 380 93 1000 VRB/05 RMK AO2 T01890178
03949KAQV AQV20191228085510312/28/19 08:55:31  5-MIN KAQV 281455Z AUTO VRB05KT 4SM BR OVC005 19/18 A2991 380 97 1000 VRB/05 RMK AO2
03949KAQV AQV20191228090010312/28/19 09:00:31  5-MIN KAQV 281500Z AUTO 4SM BR OVC005 19/18 A2991 380 97 1000 M /M RMK AO2 T01890183
03949KAQV AQV20191228090511312/28/19 09:05:31  5-MIN KAQV 281505Z AUTO VRB04KT 3SM BR OVC005 19/18 A2991 380 97 1000 VRB/04 RMK AO2 T01890183
03949KAQV AQV20191228091012512/28/19 09:10:31  5-MIN KAQV 281510Z AUTO 16004KT 5SM BR OVC005 19/18 A2992 380 93 1000 160/04 RMK AO2 CIG 004V008 T01940183
03949KAQV AQV20191228091512912/28/19 09:15:31  5-MIN KAQV 281515Z AUTO VRB04KT 9SM BKN005 OVC010 19/18 A2992 380 93 1000 VRB/04 RMK AO2 CIG 004V008 T01940183
03949KAQV AQV20191228092012212/28/19 09:20:31  5-MIN KAQV 281520Z AUTO 17004KT 9SM OVC005 19/18 A2992 380 93 1000 160/04 RMK AO2 CIG 004V008 T01940183
03949KAQV AQV20191228092512512/28/19 09:25:31  5-MIN KAQV 281525Z AUTO VRB05KT 6SM BR OVC006 19/18 A2992 380 93 1000 VRB/05 RMK AO2 CIG 004V011 T01940183
03949KAQV AQV20191228093012512/28/19 09:30:31  5-MIN KAQV 281530Z AUTO VRB04KT 5SM BR OVC006 19/18 A2992 380 93 1000 VRB/04 RMK AO2 CIG 004V011 T01940183
03949KAQV AQV20191228093513212/28/19 09:35:31  5-MIN KAQV 281535Z AUTO 17005KT 6SM BR BKN006 OVC010 19/18 A2992 380 93 1000 160/05 RMK AO2 CIG 004V008 T01940183
03949KAQV AQV20191228094012212/28/19 09:40:31  5-MIN KAQV 281540Z AUTO 16005KT 8SM OVC006 19/18 A2992 380 93 1000 160/05 RMK AO2 CIG 004V008 T01940183
03949KAQV AQV20191228094512312/28/19 09:45:31  5-MIN KAQV 281545Z AUTO 16006KT 10SM OVC006 19/18 A2992 380 93 1000 160/06 RMK AO2 CIG 004V009 T01940183
03949KAQV AQV20191228095013012/28/19 09:50:31  5-MIN KAQV 281550Z AUTO VRB05KT 10SM BKN006 OVC011 19/18 A2992 380 93 1000 VRB/05 RMK AO2 CIG 004V010 T01940183
03949KAQV AQV20191228095512712/28/19 09:55:31  5-MIN KAQV 281555Z AUTO 10SM BKN007 OVC011 19/18 A2992 380 93 1000 M /M RMK AO2 CIG 004V010 SLP129 T01940183
03949KAQV AQV20191228100013012/28/19 10:00:31  5-MIN KAQV 281600Z AUTO VRB06KT 10SM BKN007 OVC011 19/18 A2992 380 93 1000 VRB/06 RMK AO2 CIG 005V010 T01940183
03949KAQV AQV20191228100512212/28/19 10:05:31  5-MIN KAQV 281605Z AUTO VRB04KT 9SM OVC007 20/18 A2992 380 90 1100 VRB/04 RMK AO2 CIG 005V009 T02000183
03949KAQV AQV20191228101012912/28/19 10:10:31  5-MIN KAQV 281610Z AUTO VRB06KT 8SM BKN007 OVC011 20/18 A2991 380 90 1100 VRB/06 RMK AO2 CIG 005V010 T02000183
03949KAQV AQV20191228101512212/28/19 10:15:31  5-MIN KAQV 281615Z AUTO VRB05KT 7SM OVC007 20/18 A2991 380 90 1100 VRB/05 RMK AO2 CIG 005V010 T02000183
03949KAQV AQV20191228102012512/28/19 10:20:31  5-MIN KAQV 281620Z AUTO VRB05KT 6SM BR OVC006 20/18 A2991 380 90 1100 VRB/05 RMK AO2 CIG 005V009 T02000183
03949KAQV AQV20191228102511512/28/19 10:25:31  5-MIN KAQV 281625Z AUTO 6SM BR OVC006 20/18 A2991 390 90 1100 M /M RMK AO2 CIG 005V009 T02000183
03949KAQV AQV20191228103011012/28/19 10:30:31  5-MIN KAQV 281630Z AUTO 17004KT 8SM OVC006 20/18 A2991 390 90 1100 160/04 RMK AO2 T02000183
03949KAQV AQV20191228103512212/28/19 10:35:31  5-MIN KAQV 281635Z AUTO 17006KT 9SM OVC006 20/18 A2990 390 90 1100 160/06 RMK AO2 CIG 005V009 T02000183
03949KAQV AQV20191228104012312/28/19 10:40:31  5-MIN KAQV 281640Z AUTO VRB06KT 10SM OVC006 20/18 A2990 400 90 1100 VRB/06 RMK AO2 CIG 005V009 T02000183
03949KAQV AQV20191228104512312/28/19 10:45:31  5-MIN KAQV 281645Z AUTO VRB05KT 10SM OVC006 20/18 A2990 400 90 1100 VRB/05 RMK AO2 CIG 005V009 T02000183
03949KAQV AQV20191228105012312/28/19 10:50:31  5-MIN KAQV 281650Z AUTO 17005KT 10SM OVC006 20/18 A2990 400 90 1100 160/05 RMK AO2 CIG 005V010 T02000183
03949KAQV AQV20191228105513012/28/19 10:55:31  5-MIN KAQV 281655Z AUTO VRB04KT 10SM OVC006 20/19 A2990 400 93 1100 VRB/04 RMK AO2 CIG 005V010 SLP122 T02000189
03949KAQV AQV20191228110012312/28/19 11:00:31  5-MIN KAQV 281700Z AUTO VRB04KT 10SM OVC006 20/19 A2990 400 93 1100 VRB/04 RMK AO2 CIG 005V010 T02000189
03949KAQV AQV20191228110512312/28/19 11:05:31  5-MIN KAQV 281705Z AUTO VRB05KT 10SM OVC006 21/19 A2989 400 90 1200 VRB/05 RMK AO2 CIG 006V010 T02060189
03949KAQV AQV20191228111012312/28/19 11:10:31  5-MIN KAQV 281710Z AUTO VRB03KT 10SM OVC007 21/18 A2988 410 87 1200 VRB/03 RMK AO2 CIG 006V012 T02060183
03949KAQV AQV20191228111511312/28/19 11:15:31  5-MIN KAQV 281715Z AUTO 10SM OVC007 21/19 A2988 410 90 1200 M /M RMK AO2 CIG 006V012 T02060189
03949KAQV AQV20191228112011312/28/19 11:20:31  5-MIN KAQV 281720Z AUTO 10SM OVC007 21/19 A2988 410 90 1200 M /M RMK AO2 CIG 006V012 T02060189
03949KAQV AQV20191228112512312/28/19 11:25:31  5-MIN KAQV 281725Z AUTO VRB06KT 10SM OVC007 21/19 A2988 410 90 1200 VRB/06 RMK AO2 CIG 006V011 T02060189
03949KAQV AQV20191228113012312/28/19 11:30:31  5-MIN KAQV 281730Z AUTO 17007KT 10SM OVC007 21/19 A2988 410 90 1200 170/07 RMK AO2 CIG 006V011 T02060189
03949KAQV AQV20191228113512312/28/19 11:35:31  5-MIN KAQV 281735Z AUTO VRB06KT 10SM OVC007 21/19 A2988 420 90 1200 VRB/06 RMK AO2 CIG 006V013 T02060189
03949KAQV AQV20191228114012312/28/19 11:40:31  5-MIN KAQV 281740Z AUTO VRB05KT 10SM OVC007 21/19 A2987 420 90 1200 VRB/05 RMK AO2 CIG 006V011 T02060189
03949KAQV AQV20191228114512312/28/19 11:45:31  5-MIN KAQV 281745Z AUTO 17006KT 10SM OVC008 21/19 A2987 420 90 1200 170/06 RMK AO2 CIG 006V011 T02060189
03949KAQV AQV20191228115012312/28/19 11:50:31  5-MIN KAQV 281750Z AUTO 17003KT 10SM OVC008 21/19 A2986 430 90 1200 170/03 RMK AO2 CIG 006V011 T02060189
03949KAQV AQV20191228115514812/28/19 11:55:31  5-MIN KAQV 281755Z AUTO 17005KT 10SM OVC008 21/19 A2986 430 90 1200 160/05 RMK AO2 CIG 006V014 SLP110 T02060189 10206 20183 51006
03949KAQV AQV20191228120012312/28/19 12:00:31  5-MIN KAQV 281800Z AUTO VRB05KT 10SM OVC010 21/19 A2985 440 90 1200 VRB/05 RMK AO2 CIG 007V014 T02060189
03949KAQV AQV20191228120513012/28/19 12:05:31  5-MIN KAQV 281805Z AUTO 17006KT 10SM BKN010 OVC014 21/19 A2985 440 90 1200 170/06 RMK AO2 CIG 007V011 T02060189
03949KAQV AQV20191228121012312/28/19 12:10:31  5-MIN KAQV 281810Z AUTO VRB05KT 10SM OVC010 21/19 A2985 450 87 1300 VRB/05 RMK AO2 CIG 007V013 T02110189
03949KAQV AQV20191228121511112/28/19 12:15:31  5-MIN KAQV 281815Z AUTO VRB03KT 10SM OVC010 21/19 A2984 450 87 1300 VRB/03 RMK AO2 T02110189
03949KAQV AQV20191228122011112/28/19 12:20:31  5-MIN KAQV 281820Z AUTO 17004KT 10SM OVC010 21/19 A2983 460 87 1300 160/04 RMK AO2 T02110189
03949KAQV AQV20191228122512312/28/19 12:25:31  5-MIN KAQV 281825Z AUTO VRB04KT 10SM OVC010 21/19 A2983 460 87 1300 VRB/04 RMK AO2 CIG 007V013 T02110189
03949KAQV AQV20191228123012312/28/19 12:30:31  5-MIN KAQV 281830Z AUTO VRB05KT 10SM OVC010 21/19 A2983 460 87 1300 VRB/05 RMK AO2 CIG 007V013 T02110189
03949KAQV AQV20191228123512312/28/19 12:35:31  5-MIN KAQV 281835Z AUTO 17006KT 10SM OVC010 21/19 A2983 460 87 1300 170/06 RMK AO2 CIG 007V013 T02110189
03949KAQV AQV20191228124011312/28/19 12:40:31  5-MIN KAQV 281840Z AUTO 10SM OVC010 21/19 A2983 460 87 1300 M /M RMK AO2 CIG 007V013 T02110189
03949KAQV AQV20191228124513012/28/19 12:45:31  5-MIN KAQV 281845Z AUTO VRB03KT 10SM BKN010 OVC014 21/19 A2983 460 87 1300 VRB/03 RMK AO2 CIG 007V012 T02110189
03949KAQV AQV20191228125012312/28/19 12:50:31  5-MIN KAQV 281850Z AUTO VRB06KT 10SM OVC010 22/19 A2983 460 84 1400 VRB/06 RMK AO2 CIG 007V014 T02170189
03949KAQV AQV20191228125513412/28/19 12:55:31  5-MIN KAQV 281855Z AUTO 16007KT 120V190 10SM OVC010 22/19 A2982 470 84 1400 150/07 120V190 RMK AO2 SLP097 T02170189
03949KAQV AQV20191228130011112/28/19 13:00:31  5-MIN KAQV 281900Z AUTO VRB06KT 10SM OVC010 21/19 A2982 470 87 1300 VRB/06 RMK AO2 T02110189
03949KAQV AQV20191228130511112/28/19 13:05:31  5-MIN KAQV 281905Z AUTO VRB06KT 10SM OVC011 22/19 A2981 470 84 1400 VRB/06 RMK AO2 T02170189
03949KAQV AQV20191228131014612/28/19 13:10:31  5-MIN KAQV 281910Z AUTO 16004KT 10SM -RA BKN011 OVC015 21/19 A2981 480 87 1300 150/04 RMK AO2 RAB07 CIG 009V012 P0000 T02110189
03949KAQV AQV20191228131513412/28/19 13:15:31  5-MIN KAQV 281915Z AUTO VRB05KT 10SM -RA BKN011 OVC017 21/19 A2981 480 87 1300 VRB/05 RMK AO2 RAB07 P0000 T02110189
03949KAQV AQV20191228132013312/28/19 13:20:31  5-MIN KAQV 281920Z AUTO 16006KT 10SM BKN011 OVC017 21/19 A2981 480 87 1300 160/06 RMK AO2 RAB07E19 P0000 T02110189
03949KAQV AQV20191228132513312/28/19 13:25:31  5-MIN KAQV 281925Z AUTO VRB04KT 10SM BKN011 OVC017 22/19 A2980 480 84 1400 VRB/04 RMK AO2 RAB07E19 P0000 T02170189
03949KAQV AQV20191228133013312/28/19 13:30:31  5-MIN KAQV 281930Z AUTO VRB05KT 10SM BKN011 OVC019 22/19 A2980 490 84 1400 VRB/05 RMK AO2 RAB07E19 P0000 T02170189
03949KAQV AQV20191228133513312/28/19 13:35:31  5-MIN KAQV 281935Z AUTO 16006KT 10SM BKN011 OVC016 22/19 A2980 490 87 1400 150/06 RMK AO2 RAB07E19 P0000 T02170194
03949KAQV AQV20191228134012612/28/19 13:40:31  5-MIN KAQV 281940Z AUTO VRB04KT 10SM OVC011 22/19 A2979 490 84 1500 VRB/04 RMK AO2 RAB07E19 P0000 T02220194
03949KAQV AQV20191228134513312/28/19 13:45:31  5-MIN KAQV 281945Z AUTO 18006KT 10SM BKN011 OVC018 22/19 A2979 490 84 1400 170/06 RMK AO2 RAB07E19 P0000 T02170189
03949KAQV AQV20191228135014912/28/19 13:50:31  5-MIN KAQV 281950Z AUTO 17008KT 130V200 10SM BKN013 OVC021 22/19 A2979 490 84 1400 170/08 130V200 RMK AO2 RAB07E19 P0000 T02170189
03949KAQV AQV20191228135514712/28/19 13:55:31  5-MIN KAQV 281955Z AUTO VRB06KT 10SM BKN013 BKN021 OVC050 22/19 A2980 490 81 1500 VRB/06 RMK AO2 RAB07E19 SLP089 P0000 T02220189
03949KAQV AQV20191228140011812/28/19 14:00:31  5-MIN KAQV 282000Z AUTO 17006KT 10SM BKN013 OVC019 22/19 A2980 490 81 1500 170/06 RMK AO2 T02220189
03949KAQV AQV20191228140512512/28/19 14:05:31  5-MIN KAQV 282005Z AUTO 16007KT 10SM FEW011 BKN016 OVC021 22/19 A2980 490 81 1500 160/07 RMK AO2 T02220189
03949KAQV AQV20191228141014112/28/19 14:10:31  5-MIN KAQV 282010Z AUTO 17007KT 130V200 10SM BKN015 BKN020 OVC060 22/19 A2980 490 81 1500 170/07 130V200 RMK AO2 T02220189
03949KAQV AQV20191228141514112/28/19 14:15:31  5-MIN KAQV 282015Z AUTO 17007KT 150V210 10SM BKN015 BKN020 OVC060 22/19 A2980 490 81 1500 170/07 150V210 RMK AO2 T02220189
03949KAQV AQV20191228142010812/28/19 14:20:31  5-MIN KAQV 282020Z AUTO 10SM BKN017 BKN060 22/19 A2979 490 81 1500 M /M RMK AO2 T02220189
03949KAQV AQV20191228142512512/28/19 14:25:31  5-MIN KAQV 282025Z AUTO 17007KT 10SM BKN017 BKN023 OVC060 22/19 A2979 500 81 1500 170/07 RMK AO2 T02220189
03949KAQV AQV20191228143012512/28/19 14:30:31  5-MIN KAQV 282030Z AUTO VRB04KT 10SM BKN017 BKN023 BKN060 23/19 A2979 500 78 1600 VRB/04 RMK AO2 T02280189
03949KAQV AQV20191228143512512/28/19 14:35:31  5-MIN KAQV 282035Z AUTO VRB05KT 10SM SCT017 BKN023 BKN060 22/19 A2979 500 81 1500 VRB/05 RMK AO2 T02220189
03949KAQV AQV20191228144012512/28/19 14:40:31  5-MIN KAQV 282040Z AUTO 19006KT 10SM SCT016 SCT023 BKN030 22/19 A2979 500 81 1500 190/06 RMK AO2 T02220189
03949KAQV AQV20191228144512512/28/19 14:45:31  5-MIN KAQV 282045Z AUTO VRB04KT 10SM SCT016 SCT023 BKN030 22/19 A2979 500 81 1500 VRB/04 RMK AO2 T02220189
03949KAQV AQV20191228145012512/28/19 14:50:31  5-MIN KAQV 282050Z AUTO VRB06KT 10SM SCT016 SCT023 BKN030 23/19 A2979 500 78 1600 VRB/06 RMK AO2 T02280189
03949KAQV AQV20191228145514412/28/19 14:55:31  5-MIN KAQV 282055Z AUTO VRB05KT 10SM FEW016 SCT031 BKN055 22/19 A2979 500 81 1500 VRB/05 RMK AO2 SLP085 60000 T02220189 58019
03949KAQV AQV20191228150012512/28/19 15:00:31  5-MIN KAQV 282100Z AUTO 17003KT 10SM FEW016 SCT031 BKN055 22/19 A2979 500 81 1500 170/03 RMK AO2 T02220189
03949KAQV AQV20191228150511512/28/19 15:05:31  5-MIN KAQV 282105Z AUTO 10SM FEW016 SCT029 BKN055 22/19 A2979 500 81 1500 M /M RMK AO2 T02220189
03949KAQV AQV20191228151012512/28/19 15:10:31  5-MIN KAQV 282110Z AUTO 15003KT 10SM FEW016 BKN025 BKN031 22/19 A2979 500 81 1500 150/03 RMK AO2 T02220189
03949KAQV AQV20191228151512512/28/19 15:15:31  5-MIN KAQV 282115Z AUTO VRB04KT 10SM FEW016 BKN025 OVC055 22/19 A2979 500 81 1500 VRB/04 RMK AO2 T02220189
03949KAQV AQV20191228152011512/28/19 15:20:31  5-MIN KAQV 282120Z AUTO 10SM FEW016 BKN025 OVC055 22/19 A2979 500 81 1500 M /M RMK AO2 T02220189
03949KAQV AQV20191228152512512/28/19 15:25:31  5-MIN KAQV 282125Z AUTO VRB03KT 10SM FEW017 SCT023 BKN030 22/19 A2979 500 81 1500 VRB/03 RMK AO2 T02220189
03949KAQV AQV20191228153012512/28/19 15:30:31  5-MIN KAQV 282130Z AUTO 17004KT 10SM FEW017 BKN024 BKN033 22/19 A2979 500 81 1500 170/04 RMK AO2 T02220189
03949KAQV AQV20191228153512512/28/19 15:35:31  5-MIN KAQV 282135Z AUTO 16005KT 10SM SCT019 BKN026 BKN033 22/19 A2979 500 81 1500 160/05 RMK AO2 T02220189
03949KAQV AQV20191228154012512/28/19 15:40:31  5-MIN KAQV 282140Z AUTO 18004KT 10SM SCT019 BKN028 BKN033 22/19 A2979 500 81 1500 170/04 RMK AO2 T02220189
03949KAQV AQV20191228154512512/28/19 15:45:31  5-MIN KAQV 282145Z AUTO VRB04KT 10SM FEW020 SCT026 BKN033 22/19 A2978 500 81 1500 VRB/04 RMK AO2 T02220189
03949KAQV AQV20191228155012512/28/19 15:50:31  5-MIN KAQV 282150Z AUTO 17004KT 10SM SCT023 BKN027 OVC060 22/19 A2978 500 81 1500 170/04 RMK AO2 T02220189
03949KAQV AQV20191228155513212/28/19 15:55:31  5-MIN KAQV 282155Z AUTO 16005KT 10SM FEW016 BKN023 OVC060 22/19 A2978 500 81 1500 160/05 RMK AO2 SLP083 T02220189
03949KAQV AQV20191228160012512/28/19 16:00:31  5-MIN KAQV 282200Z AUTO VRB04KT 10SM FEW016 BKN022 OVC060 22/19 A2978 510 81 1500 VRB/04 RMK AO2 T02220189
03949KAQV AQV20191228160512512/28/19 16:05:31  5-MIN KAQV 282205Z AUTO 16004KT 10SM FEW014 BKN030 OVC055 22/19 A2977 510 81 1500 150/04 RMK AO2 T02220189
03949KAQV AQV20191228161012512/28/19 16:10:31  5-MIN KAQV 282210Z AUTO VRB03KT 10SM FEW014 SCT022 OVC055 22/19 A2978 510 81 1500 VRB/03 RMK AO2 T02220189
03949KAQV AQV20191228161512512/28/19 16:15:31  5-MIN KAQV 282215Z AUTO 14005KT 10SM FEW014 SCT022 OVC050 22/19 A2978 510 84 1400 140/05 RMK AO2 T02170189
03949KAQV AQV20191228162012512/28/19 16:20:31  5-MIN KAQV 282220Z AUTO VRB04KT 10SM FEW015 BKN049 OVC055 22/19 A2977 510 84 1400 VRB/04 RMK AO2 T02170189
03949KAQV AQV20191228162511812/28/19 16:25:31  5-MIN KAQV 282225Z AUTO 16003KT 10SM FEW018 OVC049 22/19 A2977 510 87 1400 160/03 RMK AO2 T02170194
03949KAQV AQV20191228163012512/28/19 16:30:31  5-MIN KAQV 282230Z AUTO VRB04KT 10SM FEW015 BKN047 BKN055 22/19 A2977 510 87 1400 VRB/04 RMK AO2 T02170194
03949KAQV AQV20191228163512512/28/19 16:35:31  5-MIN KAQV 282235Z AUTO 00000KT 10SM FEW018 SCT034 BKN047 22/19 A2977 510 87 1400 000/00 RMK AO2 T02170194
03949KAQV AQV20191228164012512/28/19 16:40:31  5-MIN KAQV 282240Z AUTO VRB04KT 10SM FEW018 SCT026 BKN047 22/19 A2977 510 87 1400 VRB/04 RMK AO2 T02170194
03949KAQV AQV20191228164512512/28/19 16:45:31  5-MIN KAQV 282245Z AUTO VRB03KT 10SM FEW016 SCT024 BKN047 22/19 A2977 520 87 1500 VRB/03 RMK AO2 T02170194
03949KAQV AQV20191228165011812/28/19 16:50:31  5-MIN KAQV 282250Z AUTO VRB03KT 10SM FEW016 BKN047 22/19 A2977 510 87 1500 VRB/03 RMK AO2 T02170194
03949KAQV AQV20191228165512512/28/19 16:55:31  5-MIN KAQV 282255Z AUTO VRB03KT 10SM FEW016 SCT048 22/19 A2977 520 87 1500 VRB/03 RMK AO2 SLP079 T02170194
03949KAQV AQV20191228170011812/28/19 17:00:31  5-MIN KAQV 282300Z AUTO VRB03KT 10SM FEW016 SCT048 22/19 A2977 510 87 1400 VRB/03 RMK AO2 T02170194
03949KAQV AQV20191228170511812/28/19 17:05:31  5-MIN KAQV 282305Z AUTO VRB03KT 10SM FEW016 SCT048 21/19 A2977 510 90 1400 VRB/03 RMK AO2 T02110194
03949KAQV AQV20191228171011112/28/19 17:10:31  5-MIN KAQV 282310Z AUTO 17003KT 10SM FEW048 21/19 A2978 510 87 1400 170/03 RMK AO2 T02110189
03949KAQV AQV20191228171510812/28/19 17:15:31  5-MIN KAQV 282315Z AUTO 17004KT 10SM CLR 21/19 A2977 510 87 1400 170/04 RMK AO2 T02110189
03949KAQV AQV20191228172010812/28/19 17:20:31  5-MIN KAQV 282320Z AUTO 18004KT 10SM CLR 21/19 A2977 510 87 1400 170/04 RMK AO2 T02110189
03949KAQV AQV20191228172510812/28/19 17:25:31  5-MIN KAQV 282325Z AUTO VRB04KT 10SM CLR 21/19 A2977 520 87 1400 VRB/04 RMK AO2 T02110189
03949KAQV AQV20191228173011112/28/19 17:30:31  5-MIN KAQV 282330Z AUTO 16004KT 10SM FEW042 21/19 A2977 520 87 1400 150/04 RMK AO2 T02110189
03949KAQV AQV20191228173511112/28/19 17:35:31  5-MIN KAQV 282335Z AUTO 16004KT 10SM SCT042 21/19 A2977 520 87 1400 150/04 RMK AO2 T02110189
03949KAQV AQV20191228174011112/28/19 17:40:31  5-MIN KAQV 282340Z AUTO VRB04KT 10SM SCT042 21/19 A2977 520 87 1400 VRB/04 RMK AO2 T02110189
03949KAQV AQV20191228174511112/28/19 17:45:31  5-MIN KAQV 282345Z AUTO 17006KT 10SM SCT041 21/19 A2977 510 87 1400 170/06 RMK AO2 T02110189
03949KAQV AQV20191228175011112/28/19 17:50:31  5-MIN KAQV 282350Z AUTO 17004KT 10SM FEW041 21/19 A2977 510 87 1400 160/04 RMK AO2 T02110189
03949KAQV AQV20191228175514212/28/19 17:55:31  5-MIN KAQV 282355Z AUTO 17006KT 10SM FEW041 21/19 A2977 510 87 1400 170/06 RMK AO2 SLP080 60000 T02110189 10228 20206 56023
03949KAQV AQV20191228180011112/28/19 18:00:31  5-MIN KAQV 290000Z AUTO 17004KT 10SM FEW041 21/19 A2977 510 87 1400 160/04 RMK AO2 T02110189
03949KAQV AQV20191228180510812/28/19 18:05:31  5-MIN KAQV 290005Z AUTO 17006KT 10SM CLR 21/19 A2977 520 87 1400 170/06 RMK AO2 T02110189
03949KAQV AQV20191228181010812/28/19 18:10:31  5-MIN KAQV 290010Z AUTO VRB04KT 10SM CLR 21/19 A2977 520 87 1400 VRB/04 RMK AO2 T02110189
03949KAQV AQV20191228181510812/28/19 18:15:31  5-MIN KAQV 290015Z AUTO 17004KT 10SM CLR 21/19 A2977 520 90 1300 170/04 RMK AO2 T02060189
03949KAQV AQV20191228182010812/28/19 18:20:31  5-MIN KAQV 290020Z AUTO 17003KT 10SM CLR 21/19 A2977 520 90 1300 160/03 RMK AO2 T02060189
03949KAQV AQV20191228182510812/28/19 18:25:31  5-MIN KAQV 290025Z AUTO 17006KT 10SM CLR 21/19 A2977 520 90 1300 160/06 RMK AO2 T02060189
03949KAQV AQV20191228183010812/28/19 18:30:31  5-MIN KAQV 290030Z AUTO 16005KT 10SM CLR 21/19 A2977 520 90 1300 160/05 RMK AO2 T02060189
03949KAQV AQV20191228183510812/28/19 18:35:31  5-MIN KAQV 290035Z AUTO 16006KT 10SM CLR 21/19 A2977 520 90 1300 150/06 RMK AO2 T02060189
03949KAQV AQV20191228184010812/28/19 18:40:31  5-MIN KAQV 290040Z AUTO VRB05KT 10SM CLR 21/19 A2977 520 90 1300 VRB/05 RMK AO2 T02060189
03949KAQV AQV20191228184510812/28/19 18:45:31  5-MIN KAQV 290045Z AUTO 16005KT 10SM CLR 21/19 A2977 520 90 1300 160/05 RMK AO2 T02060189
03949KAQV AQV20191228185010812/28/19 18:50:31  5-MIN KAQV 290050Z AUTO 16005KT 10SM CLR 21/19 A2977 520 90 1300 160/05 RMK AO2 T02060189
03949KAQV AQV20191228185511512/28/19 18:55:31  5-MIN KAQV 290055Z AUTO 17005KT 10SM CLR 21/19 A2977 520 90 1300 170/05 RMK AO2 SLP078 T02060189
03949KAQV AQV20191228190010812/28/19 19:00:31  5-MIN KAQV 290100Z AUTO VRB04KT 10SM CLR 21/19 A2977 520 90 1300 VRB/04 RMK AO2 T02060189
03949KAQV AQV20191228190511112/28/19 19:05:31  5-MIN KAQV 290105Z AUTO 17006KT 10SM FEW012 21/19 A2977 520 90 1300 170/06 RMK AO2 T02060189
03949KAQV AQV20191228191011112/28/19 19:10:31  5-MIN KAQV 290110Z AUTO VRB04KT 10SM FEW012 21/19 A2977 520 90 1300 VRB/04 RMK AO2 T02060189
03949KAQV AQV20191228191511112/28/19 19:15:31  5-MIN KAQV 290115Z AUTO 17005KT 10SM SCT011 21/19 A2977 520 90 1300 170/05 RMK AO2 T02060189
03949KAQV AQV20191228192011112/28/19 19:20:31  5-MIN KAQV 290120Z AUTO VRB04KT 10SM SCT011 21/19 A2977 510 90 1300 VRB/04 RMK AO2 T02060189
03949KAQV AQV20191228192511112/28/19 19:25:31  5-MIN KAQV 290125Z AUTO 17004KT 10SM BKN011 21/19 A2978 510 90 1300 170/04 RMK AO2 T02060189
03949KAQV AQV20191228193011112/28/19 19:30:31  5-MIN KAQV 290130Z AUTO 17006KT 10SM BKN011 21/19 A2978 510 90 1300 170/06 RMK AO2 T02060189
03949KAQV AQV20191228193511112/28/19 19:35:31  5-MIN KAQV 290135Z AUTO VRB05KT 10SM BKN011 21/19 A2978 510 90 1300 VRB/05 RMK AO2 T02060189
03949KAQV AQV20191228194011112/28/19 19:40:31  5-MIN KAQV 290140Z AUTO 17006KT 10SM BKN011 21/19 A2978 510 90 1300 160/06 RMK AO2 T02060189
03949KAQV AQV20191228194511812/28/19 19:45:31  5-MIN KAQV 290145Z AUTO VRB03KT 10SM BKN011 BKN017 21/19 A2978 500 90 1300 VRB/03 RMK AO2 T02060189
03949KAQV AQV20191228195011812/28/19 19:50:31  5-MIN KAQV 290150Z AUTO VRB04KT 10SM BKN013 BKN018 21/19 A2980 490 90 1300 VRB/04 RMK AO2 T02060189
03949KAQV AQV20191228195513212/28/19 19:55:31  5-MIN KAQV 290155Z AUTO VRB04KT 10SM BKN013 OVC018 21/19 A2980 490 90 1300 VRB/04 RMK AO2 PRESRR SLP090 T02060189
03949KAQV AQV20191228200011112/28/19 20:00:31  5-MIN KAQV 290200Z AUTO VRB03KT 10SM BKN014 21/19 A2980 490 90 1300 VRB/03 RMK AO2 T02060189
03949KAQV AQV20191228200511812/28/19 20:05:31  5-MIN KAQV 290205Z AUTO VRB05KT 10SM BKN014 OVC024 21/19 A2981 480 90 1300 VRB/05 RMK AO2 T02060189
03949KAQV AQV20191228201011812/28/19 20:10:31  5-MIN KAQV 290210Z AUTO VRB03KT 10SM BKN014 OVC024 21/19 A2981 480 87 1300 VRB/03 RMK AO2 T02110189
03949KAQV AQV20191228201511812/28/19 20:15:31  5-MIN KAQV 290215Z AUTO VRB05KT 10SM BKN014 OVC021 21/19 A2980 480 87 1300 VRB/05 RMK AO2 T02110189
03949KAQV AQV20191228202011812/28/19 20:20:31  5-MIN KAQV 290220Z AUTO VRB04KT 10SM BKN014 OVC020 21/19 A2981 480 87 1300 VRB/04 RMK AO2 T02110189
03949KAQV AQV20191228202512512/28/19 20:25:31  5-MIN KAQV 290225Z AUTO 19004KT 10SM BKN014 BKN021 OVC025 21/19 A2981 480 87 1300 190/04 RMK AO2 T02110189
03949KAQV AQV20191228203012512/28/19 20:30:31  5-MIN KAQV 290230Z AUTO 19007KT 10SM BKN014 BKN021 OVC025 21/19 A2981 480 90 1300 190/07 RMK AO2 T02060189
03949KAQV AQV20191228203511812/28/19 20:35:31  5-MIN KAQV 290235Z AUTO 18004KT 10SM BKN014 OVC023 21/19 A2981 480 87 1300 170/04 RMK AO2 T02110189
03949KAQV AQV20191228204011812/28/19 20:40:31  5-MIN KAQV 290240Z AUTO VRB05KT 10SM BKN015 OVC023 21/19 A2981 480 87 1300 VRB/05 RMK AO2 T02110189
03949KAQV AQV20191228204511812/28/19 20:45:31  5-MIN KAQV 290245Z AUTO 18004KT 10SM BKN015 OVC022 21/19 A2980 480 90 1300 180/04 RMK AO2 T02060189
03949KAQV AQV20191228205011512/28/19 20:50:31  5-MIN KAQV 290250Z AUTO 10SM BKN015 BKN023 OVC120 21/18 A2980 490 87 1300 M /M RMK AO2 T02060183
03949KAQV AQV20191228205513812/28/19 20:55:31  5-MIN KAQV 290255Z AUTO VRB05KT 10SM BKN015 BKN023 OVC120 21/18 A2980 490 87 1300 VRB/05 RMK AO2 SLP088 T02060183 55005
03949KAQV AQV20191228210012512/28/19 21:00:31  5-MIN KAQV 290300Z AUTO 17005KT 10SM FEW013 SCT018 BKN120 21/18 A2980 490 87 1300 170/05 RMK AO2 T02060183
03949KAQV AQV20191228210512512/28/19 21:05:31  5-MIN KAQV 290305Z AUTO 18006KT 10SM SCT013 SCT018 BKN120 21/18 A2980 490 87 1300 180/06 RMK AO2 T02060183
03949KAQV AQV20191228211011812/28/19 21:10:31  5-MIN KAQV 290310Z AUTO 19006KT 10SM SCT015 BKN120 21/18 A2980 480 87 1300 180/06 RMK AO2 T02060183
03949KAQV AQV20191228211512512/28/19 21:15:31  5-MIN KAQV 290315Z AUTO 18003KT 10SM SCT015 BKN020 BKN120 21/18 A2981 480 87 1300 180/03 RMK AO2 T02060183
03949KAQV AQV20191228212012512/28/19 21:20:31  5-MIN KAQV 290320Z AUTO 19004KT 10SM SCT015 BKN020 BKN120 21/18 A2981 480 87 1300 190/04 RMK AO2 T02060183
03949KAQV AQV20191228212512512/28/19 21:25:31  5-MIN KAQV 290325Z AUTO 19004KT 10SM BKN015 BKN022 OVC120 21/18 A2981 480 87 1300 190/04 RMK AO2 T02060183
03949KAQV AQV20191228213011812/28/19 21:30:31  5-MIN KAQV 290330Z AUTO 18004KT 10SM BKN015 BKN020 21/18 A2981 480 87 1300 180/04 RMK AO2 T02060183
03949KAQV AQV20191228213512512/28/19 21:35:31  5-MIN KAQV 290335Z AUTO VRB05KT 10SM BKN015 BKN021 OVC026 21/18 A2981 480 87 1300 VRB/05 RMK AO2 T02060183
03949KAQV AQV20191228214011812/28/19 21:40:31  5-MIN KAQV 290340Z AUTO 18005KT 10SM BKN015 OVC021 21/18 A2981 480 87 1300 180/05 RMK AO2 T02060183
03949KAQV AQV20191228214513412/28/19 21:45:31  5-MIN KAQV 290345Z AUTO VRB04KT 10SM -RA BKN015 OVC023 21/18 A2981 480 87 1300 VRB/04 RMK AO2 RAB42 P0000 T02060183
03949KAQV AQV20191228215013412/28/19 21:50:31  5-MIN KAQV 290350Z AUTO 19003KT 10SM -RA BKN015 OVC021 21/18 A2981 480 87 1300 180/03 RMK AO2 RAB42 P0000 T02060183
03949KAQV AQV20191228215513012/28/19 21:55:31  5-MIN KAQV 290355Z AUTO VRB06KT 10SM BKN013 BKN018 OVC023 21/19 A2981 480 90 1300 VRB/06 RMK AO2 RAB42E55 P0000
03949KAQV AQV20191228220012512/28/19 22:00:31  5-MIN KAQV 290400Z AUTO 18005KT 10SM BKN013 BKN020 OVC033 21/19 A2981 480 90 1300 170/05 RMK AO2 T02060189
03949KAQV AQV20191228220511512/28/19 22:05:31  5-MIN KAQV 290405Z AUTO 10SM SCT013 BKN020 OVC120 21/18 A2981 480 87 1300 M /M RMK AO2 T02060183
03949KAQV AQV20191228221012512/28/19 22:10:31  5-MIN KAQV 290410Z AUTO VRB04KT 10SM SCT013 BKN020 OVC120 21/18 A2981 480 87 1300 VRB/04 RMK AO2 T02060183
03949KAQV AQV20191228221512512/28/19 22:15:31  5-MIN KAQV 290415Z AUTO 19005KT 10SM SCT013 BKN018 OVC120 21/18 A2981 480 87 1300 180/05 RMK AO2 T02060183
03949KAQV AQV20191228222012512/28/19 22:20:31  5-MIN KAQV 290420Z AUTO VRB05KT 10SM FEW013 SCT018 OVC120 21/18 A2981 480 87 1300 VRB/05 RMK AO2 T02060183
03949KAQV AQV20191228222511812/28/19 22:25:31  5-MIN KAQV 290425Z AUTO VRB05KT 10SM SCT013 OVC120 21/18 A2981 480 87 1300 VRB/05 RMK AO2 T02060183
03949KAQV AQV20191228223011812/28/19 22:30:31  5-MIN KAQV 290430Z AUTO 18004KT 10SM SCT013 OVC120 21/18 A2982 470 87 1300 180/04 RMK AO2 T02060183
03949KAQV AQV20191228223513412/28/19 22:35:31  5-MIN KAQV 290435Z AUTO 18005KT 10SM -RA FEW013 OVC110 21/18 A2982 470 87 1300 180/05 RMK AO2 RAB33 P0000 T02060183
03949KAQV AQV20191228224014012/28/19 22:40:31  5-MIN KAQV 290440Z AUTO 19005KT 9SM -RA FEW013 FEW043 OVC110 21/19 A2982 470 90 1300 180/05 RMK AO2 RAB33 P0000 T02060189
03949KAQV AQV20191228224514012/28/19 22:45:31  5-MIN KAQV 290445Z AUTO 18005KT 8SM -RA FEW013 FEW043 OVC120 21/19 A2981 470 90 1300 180/05 RMK AO2 RAB33 P0000 T02060189
03949KAQV AQV20191228225013312/28/19 22:50:31  5-MIN KAQV 290450Z AUTO 18004KT 8SM -RA FEW013 OVC110 20/19 A2981 470 93 1200 170/04 RMK AO2 RAB33 P0000 T02000189
03949KAQV AQV20191228225513312/28/19 22:55:31  5-MIN KAQV 290455Z AUTO 17005KT 9SM -RA OVC110 20/19 A2981 480 93 1200 170/05 RMK AO2 RAB33 SLP093 P0001 T02000189
03949KAQV AQV20191228230012012/28/19 23:00:31  5-MIN KAQV 290500Z AUTO VRB05KT 8SM -RA OVC110 20/19 A2980 480 93 1200 VRB/05 RMK AO2 P0000 T02000189
03949KAQV AQV20191228230512312/28/19 23:05:31  5-MIN KAQV 290505Z AUTO VRB04KT 6SM -RA BR OVC110 20/19 A2980 490 93 1200 VRB/04 RMK AO2 P0000 T02000189
03949KAQV AQV20191228231013012/28/19 23:10:31  5-MIN KAQV 290510Z AUTO 18004KT 6SM -RA BR FEW085 OVC110 20/19 A2981 480 93 1200 180/04 RMK AO2 P0000 T02000189
03949KAQV AQV20191228231513412/28/19 23:15:31  5-MIN KAQV 290515Z AUTO VRB04KT 7SM -RA FEW034 FEW085 BKN110 20/19 A2980 490 93 1200 VRB/04 RMK AO2 P0001 T02000189
03949KAQV AQV20191228232013412/28/19 23:20:31  5-MIN KAQV 290520Z AUTO 17004KT 8SM -RA FEW034 SCT085 BKN110 20/19 A2980 490 93 1200 170/04 RMK AO2 P0001 T02000189
03949KAQV AQV20191228232513612/28/19 23:25:31  5-MIN KAQV 290525Z AUTO 19004KT 9SM FEW036 SCT048 BKN110 20/19 A2981 480 93 1200 180/04 RMK AO2 RAE23 P0001 T02000189
03949KAQV AQV20191228233013612/28/19 23:30:31  5-MIN KAQV 290530Z AUTO 00000KT 9SM FEW041 SCT048 BKN060 20/19 A2981 480 93 1200 000/00 RMK AO2 RAE23 P0001 T02000189
03949KAQV AQV20191228233513612/28/19 23:35:31  5-MIN KAQV 290535Z AUTO VRB03KT 9SM FEW044 BKN055 BKN080 20/19 A2981 480 93 1200 VRB/03 RMK AO2 RAE23 P0001 T02000189
03949KAQV AQV20191228234013612/28/19 23:40:31  5-MIN KAQV 290540Z AUTO 17005KT 8SM FEW039 SCT048 BKN060 20/19 A2980 490 93 1200 170/05 RMK AO2 RAE23 P0001 T02000189
03949KAQV AQV20191228234512912/28/19 23:45:31  5-MIN KAQV 290545Z AUTO 18003KT 8SM SCT048 SCT060 20/19 A2980 490 93 1200 170/03 RMK AO2 RAE23 P0001 T02000189
03949KAQV AQV20191228235012212/28/19 23:50:31  5-MIN KAQV 290550Z AUTO VRB03KT 8SM SCT050 20/19 A2979 490 93 1200 VRB/03 RMK AO2 RAE23 P0001 T02000189
03949KAQV AQV20191228235517012/28/19 23:55:31  5-MIN KAQV 290555Z AUTO 17004KT 8SM FEW050 FEW060 20/18 A2980 490 90 1200 170/04 RMK AO2 RAE23 SLP089 P0001 60002 T02000183 10211 20200 402280167 53008
03949KAQV AQV20191229000011012/29/19 00:00:31  5-MIN KAQV 290600Z AUTO 17004KT 9SM FEW050 20/18 A2980 490 90 1200 160/04 RMK AO2 T02000183
03949KAQV AQV20191229000510712/29/19 00:05:31  5-MIN KAQV 290605Z AUTO 17003KT 8SM CLR 20/18 A2980 490 90 1200 170/03 RMK AO2 T02000183
03949KAQV AQV20191229001011012/29/19 00:10:31  5-MIN KAQV 290610Z AUTO 17004KT 7SM FEW008 19/19 A2980 490 97 1200 160/04 RMK AO2 T01940189
03949KAQV AQV20191229001510712/29/19 00:15:31  5-MIN KAQV 290615Z AUTO VRB05KT 7SM CLR 20/18 A2979 490 90 1200 VRB/05 RMK AO2 T02000183
03949KAQV AQV20191229002010712/29/19 00:20:31  5-MIN KAQV 290620Z AUTO 16005KT 7SM CLR 20/18 A2979 500 90 1200 160/05 RMK AO2 T02000183
03949KAQV AQV20191229002510712/29/19 00:25:31  5-MIN KAQV 290625Z AUTO VRB05KT 8SM CLR 20/19 A2978 500 93 1200 VRB/05 RMK AO2 T02000189
03949KAQV AQV20191229003011012/29/19 00:30:31  5-MIN KAQV 290630Z AUTO VRB06KT 9SM FEW007 20/19 A2978 500 93 1200 VRB/06 RMK AO2 T02000189
03949KAQV AQV20191229003511012/29/19 00:35:31  5-MIN KAQV 290635Z AUTO VRB04KT 9SM FEW007 20/19 A2978 500 93 1200 VRB/04 RMK AO2 T02000189
03949KAQV AQV20191229004009712/29/19 00:40:31  5-MIN KAQV 290640Z AUTO 9SM CLR 20/19 A2978 500 93 1200 M /M RMK AO2 T02000189
03949KAQV AQV20191229004510712/29/19 00:45:31  5-MIN KAQV 290645Z AUTO 17005KT 8SM CLR 20/19 A2978 500 93 1200 170/05 RMK AO2 T02000189
03949KAQV AQV20191229005011012/29/19 00:50:31  5-MIN KAQV 290650Z AUTO 17004KT 9SM FEW012 20/19 A2978 500 93 1200 170/04 RMK AO2 T02000189
03949KAQV AQV20191229005511712/29/19 00:55:31  5-MIN KAQV 290655Z AUTO 18004KT 9SM FEW012 20/19 A2978 500 93 1200 180/04 RMK AO2 SLP082 T02000189
03949KAQV AQV20191229010011712/29/19 01:00:31  5-MIN KAQV 290700Z AUTO 18005KT 8SM FEW005 FEW012 20/18 A2978 510 90 1200 170/05 RMK AO2 T02000183
03949KAQV AQV20191229010512412/29/19 01:05:31  5-MIN KAQV 290705Z AUTO 17003KT 8SM FEW006 SCT014 SCT019 20/19 A2978 510 93 1300 170/03 RMK AO2 T02000189
03949KAQV AQV20191229011011712/29/19 01:10:31  5-MIN KAQV 290710Z AUTO 18003KT 8SM SCT014 BKN019 20/18 A2978 510 90 1300 180/03 RMK AO2 T02000183
03949KAQV AQV20191229011511712/29/19 01:15:31  5-MIN KAQV 290715Z AUTO 17006KT 9SM SCT014 BKN019 20/19 A2977 510 93 1300 160/06 RMK AO2 T02000189
03949KAQV AQV20191229012011812/29/19 01:20:31  5-MIN KAQV 290720Z AUTO 19004KT 10SM SCT014 BKN021 20/19 A2977 510 93 1300 180/04 RMK AO2 T02000189
03949KAQV AQV20191229012511812/29/19 01:25:31  5-MIN KAQV 290725Z AUTO 19003KT 10SM SCT014 OVC021 20/19 A2977 520 93 1300 180/03 RMK AO2 T02000189
03949KAQV AQV20191229013011812/29/19 01:30:31  5-MIN KAQV 290730Z AUTO VRB04KT 10SM BKN014 OVC021 20/19 A2977 520 93 1300 VRB/04 RMK AO2 T02000189
03949KAQV AQV20191229013511812/29/19 01:35:31  5-MIN KAQV 290735Z AUTO VRB05KT 10SM BKN014 OVC021 21/19 A2977 510 90 1300 VRB/05 RMK AO2 T02060189
03949KAQV AQV20191229014011812/29/19 01:40:31  5-MIN KAQV 290740Z AUTO 17006KT 10SM BKN014 OVC021 19/19 A2977 510 97 1200 170/06 RMK AO2 T01940189
03949KAQV AQV20191229014511812/29/19 01:45:31  5-MIN KAQV 290745Z AUTO 18005KT 10SM BKN014 OVC021 21/19 A2978 510 90 1300 180/05 RMK AO2 T02060189
03949KAQV AQV20191229015011812/29/19 01:50:31  5-MIN KAQV 290750Z AUTO 18006KT 10SM BKN014 OVC021 20/19 A2978 510 93 1300 170/06 RMK AO2 T02000189
03949KAQV AQV20191229015513212/29/19 01:55:31  5-MIN KAQV 290755Z AUTO 17008KT 10SM BKN013 BKN021 OVC060 21/19 A2977 510 90 1300 170/08 RMK AO2 SLP079 T02060189
03949KAQV AQV20191229020012512/29/19 02:00:31  5-MIN KAQV 290800Z AUTO 18006KT 10SM SCT014 BKN021 OVC060 21/19 A2977 510 90 1300 170/06 RMK AO2 T02060189
03949KAQV AQV20191229020512512/29/19 02:05:31  5-MIN KAQV 290805Z AUTO 18006KT 10SM FEW012 SCT019 OVC060 21/19 A2977 510 90 1300 170/06 RMK AO2 T02060189
03949KAQV AQV20191229021012512/29/19 02:10:31  5-MIN KAQV 290810Z AUTO 20004KT 10SM FEW014 BKN060 OVC075 21/19 A2978 510 90 1300 200/04 RMK AO2 T02060189
03949KAQV AQV20191229021516612/29/19 02:15:31  5-MIN KAQV 290815Z AUTO 31008G17KT 220V350 10SM FEW008 BKN017 OVC060 20/18 A2980 490 90 1200 310/08G17 220V350 RMK AO2 CIG 012V024 PRESRR T02000183
03949KAQV AQV20191229022013712/29/19 02:20:31  5-MIN KAQV 290820Z AUTO 28008G17KT 10SM SCT008 BKN017 OVC060 17/14 A2982 470 86 800 270/08G17 RMK AO2 PRESRR T01670144
03949KAQV AQV20191229022517312/29/19 02:25:31  5-MIN KAQV 290825Z AUTO 35009G18KT 300V020 8SM -RA BKN010 BKN017 OVC060 16/13 A2980 490 86 700 340/09G18 300V020 RMK AO2 RAB24 CIG 007V013 P0000 T01560133
03949KAQV AQV20191229023016312/29/19 02:30:31  5-MIN KAQV 290830Z AUTO 33007G19KT 280V010 4SM RA BR SCT010 BKN014 OVC060 15/13 A2981 480 90 600 330/07G19 280V010 RMK AO2 RAB24 P0002 T01500133
03949KAQV AQV20191229023514112/29/19 02:35:31  5-MIN KAQV 290835Z AUTO VRB03G19KT 3SM -RA BR SCT010 OVC014 14/13 A2981 480 93 600 VRB/03G19 RMK AO2 RAB24 P0002 T01440133
03949KAQV AQV20191229024014112/29/19 02:40:31  5-MIN KAQV 290840Z AUTO VRB04KT 3SM RA BR SCT009 BKN014 OVC020 14/13 A2982 470 93 600 VRB/04 RMK AO2 RAB24 P0004 T01440133
03949KAQV AQV20191229024515412/29/19 02:45:31  5-MIN KAQV 290845Z AUTO 36007KT 2SM +RA BR FEW007 BKN012 OVC025 14/13 A2981 480 93 600 350/07 RMK AO2 VIS 1 1/2V3 RAB24 P0010 T01440133
03949KAQV AQV20191229025014612/29/19 02:50:31  5-MIN KAQV 290850Z AUTO VRB03KT 2 1/2SM -RA BR FEW007 BKN012 OVC023 14/13 A2981 480 93 600 VRB/03 RMK AO2 RAB24 P0010 T01440133
03949KAQV AQV20191229025513112/29/19 02:55:31  5-MIN KAQV 290855Z AUTO 35006KT 4SM RA BR FEW007 BKN019 OVC023 14/13 A2981 480 93 600 350/06 RMK AO2 RAB24 P0012
03949KAQV AQV20191229030015212/29/19 03:00:31  5-MIN KAQV 290900Z AUTO 36005KT 2 1/2SM +RA BR SCT005 BKN019 OVC025 14/13 A2981 480 93 600 360/05 RMK AO2 VIS 1 3/4V3 P0002 T01440133
03949KAQV AQV20191229030512912/29/19 03:05:31  5-MIN KAQV 290905Z AUTO VRB04KT 3SM -RA BR SCT005 OVC023 14/13 A2981 480 96 500 VRB/04 RMK AO2 P0003 T01390133
03949KAQV AQV20191229031013512/29/19 03:10:31  5-MIN KAQV 290910Z AUTO VRB05KT 3SM RA BR SCT005 BKN020 OVC025 14/13 A2981 480 96 500 VRB/05 RMK AO2 P0004 T01390133
03949KAQV AQV20191229031513612/29/19 03:15:31  5-MIN KAQV 290915Z AUTO 35005KT 3SM -RA BR FEW005 SCT020 OVC025 14/13 A2981 480 96 500 340/05 RMK AO2 P0005 T01390133
03949KAQV AQV20191229032013612/29/19 03:20:31  5-MIN KAQV 290920Z AUTO 36005KT 4SM -RA BR FEW005 SCT020 OVC025 14/13 A2981 480 93 500 360/05 RMK AO2 P0006 T01390128
03949KAQV AQV20191229032511912/29/19 03:25:31  5-MIN KAQV 290925Z AUTO 5SM -RA BR FEW005 OVC025 14/13 A2981 480 93 500 M /M RMK AO2 P0006 T01390128
03949KAQV AQV20191229033012612/29/19 03:30:31  5-MIN KAQV 290930Z AUTO VRB03KT 7SM -RA FEW005 OVC026 14/13 A2981 480 93 500 VRB/03 RMK AO2 P0006 T01390128
03949KAQV AQV20191229033512212/29/19 03:35:31  5-MIN KAQV 290935Z AUTO VRB04KT 6SM -RA BR OVC026 14/13 A2982 470 96 500 VRB/04 RMK AO2 P0006 T01390133
03949KAQV AQV20191229034012912/29/19 03:40:31  5-MIN KAQV 290940Z AUTO VRB03KT 5SM -RA BR FEW004 OVC025 14/13 A2982 470 93 500 VRB/03 RMK AO2 P0007 T01390128
03949KAQV AQV20191229034512912/29/19 03:45:31  5-MIN KAQV 290945Z AUTO VRB03KT 4SM -RA BR SCT004 OVC025 14/13 A2982 470 96 500 VRB/03 RMK AO2 P0007 T01390133
03949KAQV AQV20191229035013512/29/19 03:50:31  5-MIN KAQV 290950Z AUTO 00000KT 4SM RA BR BKN004 BKN020 OVC025 14/13 A2982 470 93 500 000/00 RMK AO2 P0008 T01390128
03949KAQV AQV20191229035514312/29/19 03:55:31  5-MIN KAQV 290955Z AUTO VRB06KT 4SM -RA BR BKN004 BKN009 OVC027 14/13 A2981 480 93 500 VRB/06 RMK AO2 SLP091 P0009 T01390128
03949KAQV AQV20191229040013612/29/19 04:00:31  5-MIN KAQV 291000Z AUTO VRB03KT 6SM -RA BR BKN004 BKN009 OVC027 14/13 A2981 480 93 500 VRB/03 RMK AO2 P0000 T01390128
03949KAQV AQV20191229040513312/29/19 04:05:31  5-MIN KAQV 291005Z AUTO 36003KT 7SM -RA BKN004 BKN009 OVC029 14/13 A2981 480 93 500 360/03 RMK AO2 P0000 T01390128
03949KAQV AQV20191229041013312/29/19 04:10:31  5-MIN KAQV 291010Z AUTO VRB03KT 7SM -RA SCT004 BKN009 OVC029 14/13 A2980 480 93 500 VRB/03 RMK AO2 P0000 T01390128
03949KAQV AQV20191229041513312/29/19 04:15:31  5-MIN KAQV 291015Z AUTO 00000KT 7SM -RA FEW004 SCT009 OVC029 14/13 A2981 480 93 500 000/00 RMK AO2 P0000 T01390128
03949KAQV AQV20191229042013612/29/19 04:20:31  5-MIN KAQV 291020Z AUTO 01004KT 6SM -RA BR FEW004 FEW009 OVC029 14/13 A2980 490 93 500 360/04 RMK AO2 P0000 T01390128
03949KAQV AQV20191229042512912/29/19 04:25:31  5-MIN KAQV 291025Z AUTO 00000KT 6SM -RA BR FEW004 OVC029 14/13 A2980 490 93 500 000/00 RMK AO2 P0001 T01390128
03949KAQV AQV20191229043011912/29/19 04:30:31  5-MIN KAQV 291030Z AUTO 00000KT 8SM -RA OVC029 14/13 A2980 490 93 500 000/00 RMK AO2 P0001 T01390128
03949KAQV AQV20191229043512012/29/19 04:35:31  5-MIN KAQV 291035Z AUTO 00000KT 10SM -RA OVC029 14/13 A2981 480 93 500 000/00 RMK AO2 P0001 T01390128
03949KAQV AQV20191229044011912/29/19 04:40:31  5-MIN KAQV 291040Z AUTO 00000KT 8SM -RA OVC029 14/13 A2980 490 93 500 000/00 RMK AO2 P0001 T01390128
03949KAQV AQV20191229044512912/29/19 04:45:31  5-MIN KAQV 291045Z AUTO 00000KT 5SM -RA BR FEW004 OVC029 14/13 A2980 480 93 500 000/00 RMK AO2 P0001 T01390128
03949KAQV AQV20191229045012912/29/19 04:50:31  5-MIN KAQV 291050Z AUTO 05004KT 4SM -RA BR FEW004 OVC029 14/13 A2979 500 93 500 050/04 RMK AO2 P0002 T01390128
03949KAQV AQV20191229045514312/29/19 04:55:31  5-MIN KAQV 291055Z AUTO VRB03KT 5SM -RA BR FEW004 BKN029 OVC039 14/13 A2979 500 93 500 VRB/03 RMK AO2 SLP085 P0002 T01390128
03949KAQV AQV20191229050013312/29/19 05:00:31  5-MIN KAQV 291100Z AUTO VRB03KT 7SM -RA FEW004 BKN029 OVC039 14/13 A2980 490 93 500 VRB/03 RMK AO2 P0000 T01390128
03949KAQV AQV20191229050513312/29/19 05:05:31  5-MIN KAQV 291105Z AUTO 00000KT 9SM -RA FEW004 BKN031 OVC038 14/13 A2978 500 93 500 000/00 RMK AO2 P0000 T01390128
03949KAQV AQV20191229051013512/29/19 05:10:31  5-MIN KAQV 291110Z AUTO 00000KT 6SM RA BR FEW004 FEW026 OVC033 14/13 A2979 500 93 500 000/00 RMK AO2 P0002 T01390128
03949KAQV AQV20191229051512912/29/19 05:15:31  5-MIN KAQV 291115Z AUTO VRB04KT 5SM -RA BR FEW026 OVC033 14/12 A2978 510 90 500 VRB/04 RMK AO2 P0002 T01390122
03949KAQV AQV20191229052011912/29/19 05:20:31  5-MIN KAQV 291120Z AUTO VRB03KT 9SM -RA OVC033 13/12 A2978 500 93 500 VRB/03 RMK AO2 P0002 T01330122
03949KAQV AQV20191229052512212/29/19 05:25:31  5-MIN KAQV 291125Z AUTO 00000KT 10SM OVC032 13/12 A2978 500 89 500 000/00 RMK AO2 RAE21 P0002 T01330117
03949KAQV AQV20191229053012912/29/19 05:30:31  5-MIN KAQV 291130Z AUTO 00000KT 10SM BKN030 OVC037 13/12 A2978 510 89 500 000/00 RMK AO2 RAE21 P0002 T01330117
03949KAQV AQV20191229053512212/29/19 05:35:31  5-MIN KAQV 291135Z AUTO 00000KT 10SM OVC030 13/12 A2978 500 89 500 000/00 RMK AO2 RAE21 P0002 T01330117
03949KAQV AQV20191229054012912/29/19 05:40:31  5-MIN KAQV 291140Z AUTO 00000KT 10SM -RA OVC030 13/12 A2979 490 89 500 000/00 RMK AO2 RAE21B37 P0002 T01330117
03949KAQV AQV20191229054512912/29/19 05:45:31  5-MIN KAQV 291145Z AUTO 00000KT 10SM -RA OVC028 13/12 A2979 500 93 500 000/00 RMK AO2 RAE21B37 P0002 T01330122
03949KAQV AQV20191229055012912/29/19 05:50:31  5-MIN KAQV 291150Z AUTO 00000KT 10SM -RA OVC028 13/12 A2979 500 93 500 000/00 RMK AO2 RAE21B37 P0002 T01330122
03949KAQV AQV20191229055516512/29/19 05:55:31  5-MIN KAQV 291155Z AUTO 07003KT 10SM OVC028 13/12 A2978 510 93 500 070/03 RMK AO2 RAE21B37E52 SLP083 P0002 60026 70028 T01330122 10206 20133 53004
03949KAQV AQV20191229060012412/29/19 06:00:31  5-MIN KAQV 291200Z AUTO VRB03KT 10SM BKN028 OVC033 13/12 A2977 510 93 500 VRB/03 RMK AO2 PRESFR T01330122
03949KAQV AQV20191229060512412/29/19 06:05:31  5-MIN KAQV 291205Z AUTO VRB04KT 10SM BKN028 OVC036 13/12 A2976 530 93 500 VRB/04 RMK AO2 PRESFR T01330122
03949KAQV AQV20191229061013312/29/19 06:10:31  5-MIN KAQV 291210Z AUTO 00000KT 10SM -RA BKN030 OVC036 13/12 A2977 520 89 500 000/00 RMK AO2 RAB08 P0000 T01330117
03949KAQV AQV20191229061512612/29/19 06:15:31  5-MIN KAQV 291215Z AUTO 00000KT 10SM -RA OVC030 13/12 A2977 510 89 500 000/00 RMK AO2 RAB08 P0000 T01330117
03949KAQV AQV20191229062012612/29/19 06:20:31  5-MIN KAQV 291220Z AUTO 00000KT 10SM -RA OVC030 13/12 A2977 510 93 500 000/00 RMK AO2 RAB08 P0000 T01330122
03949KAQV AQV20191229062512612/29/19 06:25:31  5-MIN KAQV 291225Z AUTO 00000KT 10SM -RA OVC030 13/12 A2977 520 89 500 000/00 RMK AO2 RAB08 P0000 T01330117
03949KAQV AQV20191229063012512/29/19 06:30:31  5-MIN KAQV 291230Z AUTO 00000KT 10SM OVC030 13/12 A2976 520 89 500 000/00 RMK AO2 RAB08E27 P0000 T01330117
03949KAQV AQV20191229063512512/29/19 06:35:31  5-MIN KAQV 291235Z AUTO VRB03KT 10SM OVC030 13/12 A2976 530 89 500 VRB/03 RMK AO2 RAB08E27 P0000 T01330117
03949KAQV AQV20191229064012512/29/19 06:40:31  5-MIN KAQV 291240Z AUTO VRB03KT 10SM OVC030 13/12 A2976 530 93 500 VRB/03 RMK AO2 RAB08E27 P0000 T01330122
03949KAQV AQV20191229064512512/29/19 06:45:31  5-MIN KAQV 291245Z AUTO 15003KT 10SM OVC028 13/12 A2977 520 93 500 150/03 RMK AO2 RAB08E27 P0000 T01330122
03949KAQV AQV20191229065012512/29/19 06:50:31  5-MIN KAQV 291250Z AUTO 00000KT 10SM OVC028 13/12 A2978 510 93 500 000/00 RMK AO2 RAB08E27 P0000 T01330122
03949KAQV AQV20191229065512212/29/19 06:55:31  5-MIN KAQV 291255Z AUTO 00000KT 10SM OVC029 13/12 A2979 500 93 500 000/00 RMK AO2 RAB08E27 PRESRR P0000
03949KAQV AQV20191229070012412/29/19 07:00:31  5-MIN KAQV 291300Z AUTO VRB05KT 10SM FEW006 OVC029 13/12 A2980 490 93 400 VRB/05 RMK AO2 PRESRR T01330122
03949KAQV AQV20191229070513212/29/19 07:05:31  5-MIN KAQV 291305Z AUTO 5SM -RA BR SCT006 OVC029 13/12 A2981 470 93 400 M /M RMK AO2 RAB01 PRESRR P0000 T01330122
03949KAQV AQV20191229071014312/29/19 07:10:31  5-MIN KAQV 291310Z AUTO 00000KT 4SM -TSRA BR SCT006 OVC031 13/12 A2982 470 93 400 000/00 RMK AO2 RAB01 TSB10 P0001 T01330122
03949KAQV AQV20191229071515012/29/19 07:15:31  5-MIN KAQV 291315Z AUTO 02005KT 5SM -TSRA BR FEW006 BKN031 OVC035 13/12 A2979 490 89 500 020/05 RMK AO2 RAB01 TSB10 P0001 T01330117
03949KAQV AQV20191229072015012/29/19 07:20:31  5-MIN KAQV 291320Z AUTO 07003KT 5SM -TSRA BR FEW006 BKN032 OVC039 13/12 A2979 500 89 500 060/03 RMK AO2 RAB01 TSB10 P0001 T01330117
03949KAQV AQV20191229072515412/29/19 07:25:31  5-MIN KAQV 291325Z AUTO 10003KT 7SM -TSRA FEW006 BKN041 OVC048 13/12 A2978 510 93 500 090/03 RMK AO2 RAB01 TSB10 PRESFR P0001 T01330122
03949KAQV AQV20191229073015112/29/19 07:30:31  5-MIN KAQV 291330Z AUTO 00000KT 10SM TS FEW006 BKN039 OVC048 13/12 A2979 500 93 500 000/00 RMK AO2 RAB01E29 TSB10B29 P0001 T01330122
03949KAQV AQV20191229073513712/29/19 07:35:31  5-MIN KAQV 291335Z AUTO 00000KT 10SM TS OVC037 13/12 A2980 490 89 400 000/00 RMK AO2 RAB01E29 TSB10B29 P0001 T01330117
03949KAQV AQV20191229074015312/29/19 07:40:31  5-MIN KAQV 291340Z AUTO VRB03KT 3SM -TSRA BR BKN035 OVC048 13/12 A2982 470 93 400 VRB/03 RMK AO2 RAB01 TSB10B29 PRESRR P0010 T01280117
03949KAQV AQV20191229074516212/29/19 07:45:31  5-MIN KAQV 291345Z AUTO VRB04KT 3/4SM +TSRA BR SCT028 BKN035 OVC048 12/12 A2976 530 96 400 VRB/04 RMK AO2 RAB01 TSB10B29 PRESFR P0025 T01220117
03949KAQV AQV20191229075015412/29/19 07:50:31  5-MIN KAQV 291350Z AUTO VRB04KT 3/4SM TSRA BR SCT022 BKN035 OVC100 12/11 A2977 520 93 300 VRB/04 RMK AO2 RAB01 TSB10B29 P0027 T01220111
03949KAQV AQV20191229075514312/29/19 07:55:31  5-MIN KAQV 291355Z AUTO 00000KT 3SM -TSRA BR FEW018 BKN035 OVC100 12/11 A2977 520 89 300 000/00 RMK AO2 RAB01 TSB10B29 P0027
03949KAQV AQV20191229080013612/29/19 08:00:31  5-MIN KAQV 291400Z AUTO VRB03KT 10SM -TSRA FEW018 SCT035 OVC100 12/11 A2978 510 89 300 VRB/03 RMK AO2 P0000 T01220106
03949KAQV AQV20191229080514312/29/19 08:05:31  5-MIN KAQV 291405Z AUTO 30004KT 10SM -TSRA FEW018 SCT080 OVC100 12/11 A2979 500 93 300 290/04 RMK AO2 PRESRR P0000 T01220111
03949KAQV AQV20191229081013612/29/19 08:10:31  5-MIN KAQV 291410Z AUTO 00000KT 10SM -TSRA FEW025 SCT070 OVC090 12/11 A2978 510 93 300 000/00 RMK AO2 P0000 T01220111
03949KAQV AQV20191229081513912/29/19 08:15:31  5-MIN KAQV 291415Z AUTO 36003KT 8SM -RA FEW046 BKN070 OVC095 12/11 A2978 510 93 300 360/03 RMK AO2 TSE14 P0000 T01220111
03949KAQV AQV20191229082014112/29/19 08:20:31  5-MIN KAQV 291420Z AUTO 00000KT 4SM RA BR SCT048 BKN060 OVC095 12/11 A2978 510 93 300 000/00 RMK AO2 TSE14 P0001 T01220111
03949KAQV AQV20191229082514112/29/19 08:25:31  5-MIN KAQV 291425Z AUTO 00000KT 3SM RA BR BKN044 BKN060 OVC090 12/11 A2978 500 93 300 000/00 RMK AO2 TSE14 P0002 T01220111
03949KAQV AQV20191229083014212/29/19 08:30:31  5-MIN KAQV 291430Z AUTO 00000KT 3SM -RA BR SCT037 BKN046 OVC075 12/12 A2978 510 96 300 000/00 RMK AO2 TSE14 P0002 T01220117
03949KAQV AQV20191229083514212/29/19 08:35:31  5-MIN KAQV 291435Z AUTO 03003KT 6SM -RA BR BKN035 BKN046 OVC060 13/12 A2977 510 93 400 020/03 RMK AO2 TSE14 P0002 T01280117
03949KAQV AQV20191229084013912/29/19 08:40:31  5-MIN KAQV 291440Z AUTO 00000KT 7SM -RA BKN031 BKN038 OVC046 13/11 A2978 510 89 400 000/00 RMK AO2 TSE14 P0003 T01280111
03949KAQV AQV20191229084513212/29/19 08:45:31  5-MIN KAQV 291445Z AUTO 00000KT 8SM -RA BKN029 OVC041 13/11 A2978 510 89 400 000/00 RMK AO2 TSE14 P0003 T01280111
03949KAQV AQV20191229085013512/29/19 08:50:31  5-MIN KAQV 291450Z AUTO 00000KT 10SM BKN029 OVC037 13/12 A2977 510 93 400 000/00 RMK AO2 RAE49 TSE14 P0003 T01280117
03949KAQV AQV20191229085516012/29/19 08:55:31  5-MIN KAQV 291455Z AUTO 00000KT 7SM -RA BKN027 OVC035 13/12 A2977 510 93 400 000/00 RMK AO2 RAE49B54 TSE14 SLP081 P0003 60030 T01280117 58011
03949KAQV AQV20191229090012612/29/19 09:00:31  5-MIN KAQV 291500Z AUTO 09003KT 7SM -RA BKN025 OVC030 13/12 A2977 520 93 400 080/03 RMK AO2 P0000 T01280117
03949KAQV AQV20191229090512812/29/19 09:05:31  5-MIN KAQV 291505Z AUTO 00000KT 8SM BKN025 OVC030 13/12 A2977 520 93 400 000/00 RMK AO2 RAE05 P0000 T01280117
03949KAQV AQV20191229091012112/29/19 09:10:31  5-MIN KAQV 291510Z AUTO 00000KT 8SM OVC025 13/12 A2976 520 93 400 000/00 RMK AO2 RAE05 P0000 T01280117
03949KAQV AQV20191229091511912/29/19 09:15:31  5-MIN KAQV 291515Z AUTO 00000KT 8SM -RA OVC025 13/12 A2976 520 93 400 000/00 RMK AO2 P0000 T01280117
03949KAQV AQV20191229092011912/29/19 09:20:31  5-MIN KAQV 291520Z AUTO VRB03KT 9SM -RA OVC023 13/12 A2975 530 93 400 VRB/03 RMK AO2 P0000 T01280117
03949KAQV AQV20191229092512212/29/19 09:25:31  5-MIN KAQV 291525Z AUTO 00000KT 10SM OVC023 13/12 A2976 520 89 500 000/00 RMK AO2 RAE23 P0000 T01330117
03949KAQV AQV20191229093012912/29/19 09:30:31  5-MIN KAQV 291530Z AUTO 00000KT 10SM BKN020 OVC025 13/12 A2977 520 89 500 000/00 RMK AO2 RAE23 P0000 T01330117
03949KAQV AQV20191229093512912/29/19 09:35:31  5-MIN KAQV 291535Z AUTO 00000KT 10SM FEW006 OVC020 13/12 A2977 520 89 500 000/00 RMK AO2 RAE23 P0000 T01330117
03949KAQV AQV20191229094012912/29/19 09:40:31  5-MIN KAQV 291540Z AUTO 00000KT 10SM SCT006 OVC019 13/12 A2977 520 89 500 000/00 RMK AO2 RAE23 P0000 T01330117
03949KAQV AQV20191229094513612/29/19 09:45:31  5-MIN KAQV 291545Z AUTO 00000KT 10SM -RA SCT006 OVC019 13/12 A2977 520 89 500 000/00 RMK AO2 RAE23B44 P0000 T01330117
03949KAQV AQV20191229095013812/29/19 09:50:31  5-MIN KAQV 291550Z AUTO 00000KT 5SM -RA BR SCT006 OVC017 13/12 A2977 510 93 500 000/00 RMK AO2 RAE23B44 P0001 T01330122
03949KAQV AQV20191229095513112/29/19 09:55:31  5-MIN KAQV 291555Z AUTO 00000KT 2 1/2SM RA BR SCT006 OVC017 13/12 A2978 510 93 500 000/00 RMK AO2 RAE23B44 P0003
03949KAQV AQV20191229100012912/29/19 10:00:31  5-MIN KAQV 291600Z AUTO 00000KT 2SM -RA BR BKN006 OVC017 13/12 A2978 510 93 500 000/00 RMK AO2 P0000 T01330122
03949KAQV AQV20191229100512912/29/19 10:05:31  5-MIN KAQV 291605Z AUTO 00000KT 3SM -RA BR BKN006 OVC017 13/12 A2978 500 93 500 000/00 RMK AO2 P0001 T01330122
03949KAQV AQV20191229101014112/29/19 10:10:31  5-MIN KAQV 291610Z AUTO VRB03KT 4SM -RA BR BKN006 OVC016 13/12 A2979 500 93 500 VRB/03 RMK AO2 CIG 003V008 P0001 T01330122
03949KAQV AQV20191229101513412/29/19 10:15:31  5-MIN KAQV 291615Z AUTO VRB03KT 4SM -RA BR OVC004 13/12 A2979 490 93 500 VRB/03 RMK AO2 CIG 003V008 P0001 T01330122
03949KAQV AQV20191229102013412/29/19 10:20:31  5-MIN KAQV 291620Z AUTO VRB04KT 5SM -RA BR OVC004 13/12 A2979 500 93 400 VRB/04 RMK AO2 CIG 003V008 P0002 T01280117
03949KAQV AQV20191229102511212/29/19 10:25:31  5-MIN KAQV 291625Z AUTO 4SM -RA BR OVC004 13/12 A2978 500 93 400 M /M RMK AO2 P0003 T01280117
03949KAQV AQV20191229103012912/29/19 10:30:31  5-MIN KAQV 291630Z AUTO 36006KT 3SM -RA BR BKN004 OVC011 13/12 A2978 510 93 400 350/06 RMK AO2 P0004 T01280117
03949KAQV AQV20191229103513612/29/19 10:35:31  5-MIN KAQV 291635Z AUTO 04004KT 3SM -RA BR BKN004 OVC013 13/12 A2977 520 93 400 030/04 RMK AO2 PRESFR P0004 T01280117
03949KAQV AQV20191229104012912/29/19 10:40:31  5-MIN KAQV 291640Z AUTO 01004KT 4SM -RA BR SCT004 OVC015 13/12 A2977 520 93 400 010/04 RMK AO2 P0005 T01280117
03949KAQV AQV20191229104512912/29/19 10:45:31  5-MIN KAQV 291645Z AUTO 00000KT 4SM -RA BR SCT004 OVC015 13/12 A2977 520 93 400 000/00 RMK AO2 P0005 T01280117
03949KAQV AQV20191229105013212/29/19 10:50:31  5-MIN KAQV 291650Z AUTO VRB03KT 2 1/2SM RA BR FEW004 OVC015 13/12 A2976 520 93 400 VRB/03 RMK AO2 P0007 T01280117
03949KAQV AQV20191229105513512/29/19 10:55:31  5-MIN KAQV 291655Z AUTO VRB03KT 2 1/2SM -RA BR FEW004 OVC015 13/12 A2977 520 93 400 VRB/03 RMK AO2 VIS 1 1/2V4 P0008
03949KAQV AQV20191229110012812/29/19 11:00:31  5-MIN KAQV 291700Z AUTO 00000KT 2SM RA BR FEW004 OVC015 13/12 A2977 520 96 400 000/00 RMK AO2 P0002 T01280122
03949KAQV AQV20191229110513212/29/19 11:05:31  5-MIN KAQV 291705Z AUTO 01004KT 1 3/4SM RA BR FEW004 OVC017 13/12 A2976 530 93 400 360/04 RMK AO2 P0003 T01280117
03949KAQV AQV20191229111014112/29/19 11:10:31  5-MIN KAQV 291710Z AUTO 36003KT 2 1/2SM -RA BR SCT004 OVC017 13/12 A2975 530 93 400 350/03 RMK AO2 VIS 1V5 P0003 T01280117
03949KAQV AQV20191229111514012/29/19 11:15:31  5-MIN KAQV 291715Z AUTO 36005KT 2 1/2SM +RA BR FEW004 OVC019 13/12 A2974 540 93 400 360/05 RMK AO2 PRESFR P0006 T01280117
03949KAQV AQV20191229112013512/29/19 11:20:31  5-MIN KAQV 291720Z AUTO 00000KT 2SM RA BR FEW004 BKN017 OVC023 13/12 A2974 540 93 400 000/00 RMK AO2 P0008 T01280117
03949KAQV AQV20191229112513812/29/19 11:25:31  5-MIN KAQV 291725Z AUTO 00000KT 3SM -TSRA BR FEW004 BKN019 OVC023 13/12 A2974 550 96 500 000/00 RMK AO2 P0008 T01280122
03949KAQV AQV20191229113013712/29/19 11:30:31  5-MIN KAQV 291730Z AUTO VRB04KT 6SM -TSRA BR SCT004 OVC021 13/12 A2974 540 93 500 VRB/04 RMK AO2 TSB26 P0008 T01330122
03949KAQV AQV20191229113514212/29/19 11:35:31  5-MIN KAQV 291735Z AUTO VRB04KT 10SM -TSRA BKN004 OVC021 13/12 A2976 520 96 400 VRB/04 RMK AO2 TSB26 PRESRR P0008 T01280122
03949KAQV AQV20191229114013412/29/19 11:40:31  5-MIN KAQV 291740Z AUTO VRB05KT 7SM -TSRA BKN004 OVC021 13/12 A2976 530 93 400 VRB/05 RMK AO2 TSB26 P0009 T01280117
03949KAQV AQV20191229114513712/29/19 11:45:31  5-MIN KAQV 291745Z AUTO VRB05KT 5SM -TSRA BR BKN003 OVC021 13/12 A2976 530 93 400 VRB/05 RMK AO2 TSB26 P0009 T01280117
03949KAQV AQV20191229115014412/29/19 11:50:31  5-MIN KAQV 291750Z AUTO VRB05KT 2SM +TSRA BR BKN003 BKN019 OVC024 13/12 A2976 520 93 400 VRB/05 RMK AO2 TSB26 P0013 T01280117
03949KAQV AQV20191229115513612/29/19 11:55:31  5-MIN KAQV 291755Z AUTO 01006KT 3/4SM +TSRA BR BKN003 OVC015 13/12 A2973 550 93 500 010/06 RMK AO2 TSB26 PRESFR P0023
03949KAQV AQV20191229120013312/29/19 12:00:31  5-MIN KAQV 291800Z AUTO 00000KT 1/2SM +TSRA FG BKN003 OVC019 12/12 A2973 550 96 400 000/00 RMK AO2 P0004 T01220117
03949KAQV AQV20191229120513112/29/19 12:05:31  5-MIN KAQV 291805Z AUTO VRB04KT 1SM +TSRA BR BKN003 OVC021 12/12 A2975 540 96 400 VRB/04 RMK AO2 P0006 T01220117
03949KAQV AQV20191229121013512/29/19 12:10:31  5-MIN KAQV 291810Z AUTO VRB04KT 1 1/2SM +TSRA BR BKN003 OVC027 12/12 A2974 550 96 400 VRB/04 RMK AO2 P0010 T01220117
03949KAQV AQV20191229121513112/29/19 12:15:31  5-MIN KAQV 291815Z AUTO 35004KT 1SM +TSRA BR SCT003 OVC027 12/12 A2973 550 96 400 340/04 RMK AO2 P0015 T01220117
03949KAQV AQV20191229122013112/29/19 12:20:31  5-MIN KAQV 291820Z AUTO VRB03KT 1SM +TSRA BR SCT004 OVC029 12/12 A2972 560 96 400 VRB/03 RMK AO2 P0019 T01220117
03949KAQV AQV20191229122513412/29/19 12:25:31  5-MIN KAQV 291825Z AUTO 00000KT 1 1/2SM TSRA BR SCT004 OVC029 12/12 A2973 550 96 400 000/00 RMK AO2 P0021 T01220117
03949KAQV AQV20191229123013512/29/19 12:30:31  5-MIN KAQV 291830Z AUTO VRB03KT 3SM -RA BR BKN004 OVC029 12/12 A2974 550 96 400 VRB/03 RMK AO2 TSE28 P0021 T01220117
03949KAQV AQV20191229123513212/29/19 12:35:31  5-MIN KAQV 291835Z AUTO VRB03KT 9SM -RA BKN004 OVC031 12/12 A2974 540 96 400 VRB/03 RMK AO2 TSE28 P0021 T01220117
03949KAQV AQV20191229124013312/29/19 12:40:31  5-MIN KAQV 291840Z AUTO VRB05KT 10SM -RA BKN004 OVC028 12/12 A2974 540 96 400 VRB/05 RMK AO2 TSE28 P0021 T01220117
03949KAQV AQV20191229124512612/29/19 12:45:31  5-MIN KAQV 291845Z AUTO VRB05KT 10SM -RA OVC004 12/12 A2974 540 96 400 VRB/05 RMK AO2 TSE28 P0021 T01220117
03949KAQV AQV20191229125012812/29/19 12:50:31  5-MIN KAQV 291850Z AUTO VRB05KT 10SM OVC004 12/11 A2975 540 93 400 VRB/05 RMK AO2 RAE46 TSE28 P0021 T01220111
03949KAQV AQV20191229125513012/29/19 12:55:31  5-MIN KAQV 291855Z AUTO VRB06KT 10SM OVC006 12/11 A2975 540 93 400 VRB/06 RMK AO2 RAE46 TSE28 CIG 003V010 P0021
03949KAQV AQV20191229130012212/29/19 13:00:31  5-MIN KAQV 291900Z AUTO VRB05KT 10SM OVC006 12/11 A2974 540 93 400 VRB/05 RMK AO2 CIG 003V010 T01220111
03949KAQV AQV20191229130513812/29/19 13:05:31  5-MIN KAQV 291905Z AUTO 34008KT 300V020 10SM OVC006 12/11 A2974 540 93 400 340/08 300V020 RMK AO2 CIG 004V010 T01220111
03949KAQV AQV20191229131012212/29/19 13:10:31  5-MIN KAQV 291910Z AUTO VRB04KT 10SM OVC008 12/11 A2975 540 89 400 VRB/04 RMK AO2 CIG 004V010 T01220106
03949KAQV AQV20191229131512912/29/19 13:15:31  5-MIN KAQV 291915Z AUTO 33006KT 10SM BKN008 OVC035 12/11 A2975 540 89 400 330/06 RMK AO2 CIG 005V012 T01220106
03949KAQV AQV20191229132014512/29/19 13:20:31  5-MIN KAQV 291920Z AUTO VRB04KT 10SM -RA BKN008 OVC037 12/11 A2975 540 89 400 VRB/04 RMK AO2 RAB16 CIG 005V012 P0000 T01220106
03949KAQV AQV20191229132514512/29/19 13:25:31  5-MIN KAQV 291925Z AUTO VRB04KT 10SM -RA BKN008 OVC037 12/11 A2976 530 93 300 VRB/04 RMK AO2 RAB16 CIG 005V012 P0000 T01170106
03949KAQV AQV20191229133013412/29/19 13:30:31  5-MIN KAQV 291930Z AUTO 10SM BKN008 OVC037 12/11 A2976 530 89 400 M /M RMK AO2 RAB16E29 CIG 005V012 P0000 T01220106
03949KAQV AQV20191229133514412/29/19 13:35:31  5-MIN KAQV 291935Z AUTO VRB03KT 10SM BKN008 OVC037 12/11 A2976 530 93 300 VRB/03 RMK AO2 RAB16E29 CIG 006V012 P0000 T01170106
03949KAQV AQV20191229134013212/29/19 13:40:31  5-MIN KAQV 291940Z AUTO VRB03KT 10SM SCT008 OVC039 12/11 A2975 530 93 300 VRB/03 RMK AO2 RAB16E29 P0000 T01170106
03949KAQV AQV20191229134513212/29/19 13:45:31  5-MIN KAQV 291945Z AUTO VRB03KT 10SM FEW008 OVC041 12/11 A2975 530 93 300 VRB/03 RMK AO2 RAB16E29 P0000 T01170106
03949KAQV AQV20191229135013212/29/19 13:50:31  5-MIN KAQV 291950Z AUTO VRB04KT 10SM FEW008 OVC041 12/11 A2976 530 93 300 VRB/04 RMK AO2 RAB16E29 P0000 T01170106
03949KAQV AQV20191229135514612/29/19 13:55:31  5-MIN KAQV 291955Z AUTO 00000KT 10SM -RA FEW008 OVC043 12/11 A2976 520 93 300 000/00 RMK AO2 RAB16E29B53 SLP078 P0000 T01170106
03949KAQV AQV20191229140012712/29/19 14:00:31  5-MIN KAQV 292000Z AUTO VRB03KT 10SM -RA FEW008 OVC045 12/11 A2977 520 93 300 VRB/03 RMK AO2 P0000 T01170106
03949KAQV AQV20191229140512912/29/19 14:05:31  5-MIN KAQV 292005Z AUTO VRB04KT 10SM FEW006 OVC045 12/11 A2976 520 89 400 VRB/04 RMK AO2 RAE02 P0000 T01220106
03949KAQV AQV20191229141012912/29/19 14:10:31  5-MIN KAQV 292010Z AUTO 00000KT 10SM BKN047 OVC055 12/11 A2977 520 89 300 000/00 RMK AO2 RAE02 P0000 T01220106
03949KAQV AQV20191229141511912/29/19 14:15:31  5-MIN KAQV 292015Z AUTO 10SM BKN047 OVC055 12/11 A2977 510 89 300 M /M RMK AO2 RAE02 P0000 T01220106
03949KAQV AQV20191229142011912/29/19 14:20:31  5-MIN KAQV 292020Z AUTO 10SM SCT047 OVC055 12/11 A2978 510 89 300 M /M RMK AO2 RAE02 P0000 T01220106
03949KAQV AQV20191229142512912/29/19 14:25:31  5-MIN KAQV 292025Z AUTO 00000KT 10SM FEW047 OVC055 12/11 A2977 510 89 300 000/00 RMK AO2 RAE02 P0000 T01220106
03949KAQV AQV20191229143012912/29/19 14:30:31  5-MIN KAQV 292030Z AUTO 34003KT 10SM FEW008 OVC055 13/11 A2978 510 89 400 340/03 RMK AO2 RAE02 P0000 T01280111
03949KAQV AQV20191229143512912/29/19 14:35:31  5-MIN KAQV 292035Z AUTO VRB03KT 10SM FEW008 OVC060 13/11 A2978 500 86 400 VRB/03 RMK AO2 RAE02 P0000 T01280106
03949KAQV AQV20191229144012912/29/19 14:40:31  5-MIN KAQV 292040Z AUTO VRB03KT 10SM FEW009 OVC060 13/11 A2979 500 86 400 VRB/03 RMK AO2 RAE02 P0000 T01280106
03949KAQV AQV20191229144512912/29/19 14:45:31  5-MIN KAQV 292045Z AUTO 35004KT 10SM FEW009 OVC060 13/11 A2978 510 86 400 350/04 RMK AO2 RAE02 P0000 T01280106
03949KAQV AQV20191229145012912/29/19 14:50:31  5-MIN KAQV 292050Z AUTO VRB03KT 10SM FEW009 OVC060 13/11 A2979 500 86 400 VRB/03 RMK AO2 RAE02 P0000 T01280106
03949KAQV AQV20191229145514812/29/19 14:55:31  5-MIN KAQV 292055Z AUTO 34004KT 10SM FEW009 BKN065 13/11 A2978 510 86 400 340/04 RMK AO2 RAE02 SLP084 P0000 60021 T01280106 58015
03949KAQV AQV20191229150011712/29/19 15:00:31  5-MIN KAQV 292100Z AUTO VRB05KT 10SM FEW009 BKN065 13/10 A2978 510 83 400 VRB/05 RMK AO2 T01280100
03949KAQV AQV20191229150511712/29/19 15:05:31  5-MIN KAQV 292105Z AUTO VRB05KT 10SM FEW009 BKN065 13/10 A2978 500 83 400 VRB/05 RMK AO2 T01280100
03949KAQV AQV20191229151011012/29/19 15:10:31  5-MIN KAQV 292110Z AUTO 00000KT 10SM BKN065 13/10 A2978 500 83 400 000/00 RMK AO2 T01280100
03949KAQV AQV20191229151511012/29/19 15:15:31  5-MIN KAQV 292115Z AUTO 00000KT 10SM BKN065 13/10 A2978 500 83 400 000/00 RMK AO2 T01280100
03949KAQV AQV20191229152011012/29/19 15:20:31  5-MIN KAQV 292120Z AUTO VRB03KT 10SM BKN065 13/11 A2978 500 83 500 VRB/03 RMK AO2 T01330106
03949KAQV AQV20191229152511012/29/19 15:25:31  5-MIN KAQV 292125Z AUTO 00000KT 10SM BKN065 13/11 A2978 500 83 500 000/00 RMK AO2 T01330106
03949KAQV AQV20191229153011012/29/19 15:30:31  5-MIN KAQV 292130Z AUTO VRB04KT 10SM BKN065 13/11 A2979 500 83 500 VRB/04 RMK AO2 T01330106
03949KAQV AQV20191229153511012/29/19 15:35:31  5-MIN KAQV 292135Z AUTO VRB04KT 10SM BKN065 14/11 A2979 490 80 500 VRB/04 RMK AO2 T01390106
03949KAQV AQV20191229154011712/29/19 15:40:31  5-MIN KAQV 292140Z AUTO VRB03KT 10SM FEW012 BKN070 13/11 A2979 490 83 500 VRB/03 RMK AO2 T01330106
03949KAQV AQV20191229154511712/29/19 15:45:31  5-MIN KAQV 292145Z AUTO 00000KT 10SM FEW012 SCT065 13/11 A2980 490 83 400 000/00 RMK AO2 T01330106
03949KAQV AQV20191229155011712/29/19 15:50:31  5-MIN KAQV 292150Z AUTO VRB03KT 10SM FEW012 FEW070 14/11 A2980 490 83 500 VRB/03 RMK AO2 T01390111
03949KAQV AQV20191229155513112/29/19 15:55:31  5-MIN KAQV 292155Z AUTO 00000KT 10SM FEW014 FEW018 SCT070 14/11 A2980 490 80 500 000/00 RMK AO2 SLP090 T01390106
03949KAQV AQV20191229160011012/29/19 16:00:31  5-MIN KAQV 292200Z AUTO VRB03KT 10SM FEW014 14/11 A2980 490 83 500 VRB/03 RMK AO2 T01390111
03949KAQV AQV20191229160511012/29/19 16:05:31  5-MIN KAQV 292205Z AUTO VRB03KT 10SM FEW016 14/11 A2981 480 80 500 VRB/03 RMK AO2 T01390106
03949KAQV AQV20191229161011012/29/19 16:10:31  5-MIN KAQV 292210Z AUTO 00000KT 10SM FEW016 14/11 A2981 480 80 500 000/00 RMK AO2 T01390106
03949KAQV AQV20191229161511012/29/19 16:15:31  5-MIN KAQV 292215Z AUTO 00000KT 10SM FEW015 14/11 A2981 480 80 500 000/00 RMK AO2 T01390106
03949KAQV AQV20191229162011012/29/19 16:20:31  5-MIN KAQV 292220Z AUTO 00000KT 10SM FEW015 13/11 A2981 470 83 400 000/00 RMK AO2 T01330106
03949KAQV AQV20191229162510712/29/19 16:25:31  5-MIN KAQV 292225Z AUTO 00000KT 10SM CLR 13/11 A2982 470 83 400 000/00 RMK AO2 T01330106
03949KAQV AQV20191229163010712/29/19 16:30:31  5-MIN KAQV 292230Z AUTO VRB03KT 10SM CLR 13/11 A2982 470 83 400 VRB/03 RMK AO2 T01330106
03949KAQV AQV20191229163510712/29/19 16:35:31  5-MIN KAQV 292235Z AUTO VRB03KT 10SM CLR 13/11 A2982 470 83 400 VRB/03 RMK AO2 T01330106
03949KAQV AQV20191229164010712/29/19 16:40:31  5-MIN KAQV 292240Z AUTO VRB03KT 10SM CLR 13/11 A2982 470 83 400 VRB/03 RMK AO2 T01330106
03949KAQV AQV20191229164510712/29/19 16:45:31  5-MIN KAQV 292245Z AUTO 00000KT 10SM CLR 13/11 A2983 460 83 400 000/00 RMK AO2 T01330106
03949KAQV AQV20191229165010712/29/19 16:50:31  5-MIN KAQV 292250Z AUTO 00000KT 10SM CLR 13/11 A2983 460 83 400 000/00 RMK AO2 T01330106
03949KAQV AQV20191229165511412/29/19 16:55:31  5-MIN KAQV 292255Z AUTO 00000KT 10SM CLR 13/11 A2983 460 83 400 000/00 RMK AO2 SLP100 T01330106
03949KAQV AQV20191229170010712/29/19 17:00:31  5-MIN KAQV 292300Z AUTO VRB03KT 10SM CLR 13/11 A2983 460 86 300 VRB/03 RMK AO2 T01280106
03949KAQV AQV20191229170510712/29/19 17:05:31  5-MIN KAQV 292305Z AUTO 00000KT 10SM CLR 13/11 A2984 460 86 300 000/00 RMK AO2 T01280106
03949KAQV AQV20191229171010712/29/19 17:10:31  5-MIN KAQV 292310Z AUTO 00000KT 10SM CLR 13/11 A2983 460 86 300 000/00 RMK AO2 T01280106
03949KAQV AQV20191229171510712/29/19 17:15:31  5-MIN KAQV 292315Z AUTO 00000KT 10SM CLR 12/11 A2983 460 89 300 000/00 RMK AO2 T01220106
03949KAQV AQV20191229172010712/29/19 17:20:31  5-MIN KAQV 292320Z AUTO 00000KT 10SM CLR 12/11 A2982 460 89 300 000/00 RMK AO2 T01220106
03949KAQV AQV20191229172510712/29/19 17:25:31  5-MIN KAQV 292325Z AUTO 00000KT 10SM CLR 12/11 A2982 470 93 200 000/00 RMK AO2 T01170106
03949KAQV AQV20191229173010712/29/19 17:30:31  5-MIN KAQV 292330Z AUTO 00000KT 10SM CLR 12/11 A2983 460 93 200 000/00 RMK AO2 T01170106
03949KAQV AQV20191229173510612/29/19 17:35:31  5-MIN KAQV 292335Z AUTO 00000KT 9SM CLR 11/10 A2983 460 93 100 000/00 RMK AO2 T01110100
03949KAQV AQV20191229174010612/29/19 17:40:31  5-MIN KAQV 292340Z AUTO 00000KT 8SM CLR 11/10 A2983 460 93 100 000/00 RMK AO2 T01110100
03949KAQV AQV20191229174510612/29/19 17:45:31  5-MIN KAQV 292345Z AUTO 00000KT 7SM CLR 11/10 A2983 460 96 100 000/00 RMK AO2 T01060100
03949KAQV AQV20191229175010912/29/19 17:50:31  5-MIN KAQV 292350Z AUTO 00000KT 6SM BR CLR 11/10 A2984 450 96 100 000/00 RMK AO2 T01060100
03949KAQV AQV20191229175514012/29/19 17:55:31  5-MIN KAQV 292355Z AUTO 00000KT 4SM BR CLR 11/10 A2984 450 96 100 000/00 RMK AO2 SLP105 60021 T01060100 10139 20106 53015
03949KAQV AQV20191229180012612/29/19 18:00:31  5-MIN KAQV 300000Z AUTO 00000KT 1 1/4SM BR FEW002 11/09 A2985 440 93 100 000/00 RMK AO2 VIS 1/2V5 T01060094
03949KAQV AQV20191229180510912/29/19 18:05:31  5-MIN KAQV 300005Z AUTO 00000KT 1SM BR VV002 10/09 A2985 450 96 0 000/00 RMK AO2 T01000094
03949KAQV AQV20191229181011412/29/19 18:10:31  5-MIN KAQV 300010Z AUTO 00000KT 1 1/4SM BR BKN002 10/09 A2985 440 96 0 000/00 RMK AO2 T01000094
03949KAQV AQV20191229181510912/29/19 18:15:31  5-MIN KAQV 300015Z AUTO 00000KT 1SM BR VV002 10/09 A2985 440 93 0 000/00 RMK AO2 T01000089
03949KAQV AQV20191229182011112/29/19 18:20:31  5-MIN KAQV 300020Z AUTO 00000KT 3/4SM BR VV002 10/09 A2986 440 93 0 000/00 RMK AO2 T01000089
03949KAQV AQV20191229182511112/29/19 18:25:31  5-MIN KAQV 300025Z AUTO 00000KT 1/2SM FG VV002 10/09 A2986 430 93 0 000/00 RMK AO2 T01000089
03949KAQV AQV20191229183011112/29/19 18:30:31  5-MIN KAQV 300030Z AUTO 00000KT 1/2SM FG VV002 09/09 A2986 430 96 0 000/00 RMK AO2 T00940089
03949KAQV AQV20191229183511112/29/19 18:35:31  5-MIN KAQV 300035Z AUTO 00000KT 1/2SM FG VV002 09/09 A2986 430 96 0 000/00 RMK AO2 T00940089
03949KAQV AQV20191229184011112/29/19 18:40:31  5-MIN KAQV 300040Z AUTO 00000KT 1/2SM FG VV002 09/08 A2987 430 93 0 000/00 RMK AO2 T00940083
03949KAQV AQV20191229184511412/29/19 18:45:31  5-MIN KAQV 300045Z AUTO 00000KT 3/4SM BR VV003 09/08 A2987 420 93 -100 000/00 RMK AO2 T00940083
03949KAQV AQV20191229185010912/29/19 18:50:31  5-MIN KAQV 300050Z AUTO 00000KT 1SM BR VV003 09/08 A2987 430 93 0 000/00 RMK AO2 T00940083
03949KAQV AQV20191229185512412/29/19 18:55:31  5-MIN KAQV 300055Z AUTO 00000KT 1 1/2SM BR SCT003 09/08 A2987 420 93 -100 000/00 RMK AO2 SLP115 T00940083
03949KAQV AQV20191229190011712/29/19 19:00:31  5-MIN KAQV 300100Z AUTO 00000KT 2 1/2SM BR FEW003 09/08 A2987 420 96 -100 000/00 RMK AO2 T00890083
03949KAQV AQV20191229190511712/29/19 19:05:31  5-MIN KAQV 300105Z AUTO 00000KT 1 1/2SM BR FEW003 09/08 A2988 410 96 -100 000/00 RMK AO2 T00890083
03949KAQV AQV20191229191011212/29/19 19:10:31  5-MIN KAQV 300110Z AUTO 00000KT 1SM BR VV003 09/08 A2988 410 96 -100 000/00 RMK AO2 T00890083
03949KAQV AQV20191229191511312/29/19 19:15:31  5-MIN KAQV 300115Z AUTO 24003KT 2SM BR FEW003 09/08 A2989 410 93 -100 240/03 RMK AO2 T00940083
03949KAQV AQV20191229192011312/29/19 19:20:31  5-MIN KAQV 300120Z AUTO 25003KT 5SM BR FEW003 09/08 A2989 410 93 -100 240/03 RMK AO2 T00940083
03949KAQV AQV20191229192511012/29/19 19:25:31  5-MIN KAQV 300125Z AUTO 25003KT 7SM FEW003 09/08 A2989 400 93 -100 250/03 RMK AO2 T00940083
03949KAQV AQV20191229193010812/29/19 19:30:31  5-MIN KAQV 300130Z AUTO 00000KT 10SM FEW003 10/09 A2990 400 93 0 000/00 RMK AO2 T01000089
03949KAQV AQV20191229193510512/29/19 19:35:31  5-MIN KAQV 300135Z AUTO VRB04KT 10SM CLR 10/09 A2990 400 93 0 VRB/04 RMK AO2 T01000089
03949KAQV AQV20191229194010512/29/19 19:40:31  5-MIN KAQV 300140Z AUTO VRB03KT 10SM CLR 11/09 A2990 390 89 0 VRB/03 RMK AO2 T01060089
03949KAQV AQV20191229194510512/29/19 19:45:31  5-MIN KAQV 300145Z AUTO VRB03KT 10SM CLR 10/09 A2990 390 93 0 VRB/03 RMK AO2 T01000089
03949KAQV AQV20191229195010512/29/19 19:50:31  5-MIN KAQV 300150Z AUTO 27004KT 10SM CLR 10/08 A2991 390 89 0 260/04 RMK AO2 T01000083
03949KAQV AQV20191229195511212/29/19 19:55:31  5-MIN KAQV 300155Z AUTO 28003KT 10SM CLR 11/08 A2991 390 86 0 270/03 RMK AO2 SLP128 T01060083
03949KAQV AQV20191229200010512/29/19 20:00:31  5-MIN KAQV 300200Z AUTO VRB04KT 10SM CLR 11/08 A2991 380 83 0 VRB/04 RMK AO2 T01060078
03949KAQV AQV20191229200510512/29/19 20:05:31  5-MIN KAQV 300205Z AUTO VRB03KT 10SM CLR 11/07 A2991 380 80 0 VRB/03 RMK AO2 T01060072
03949KAQV AQV20191229201010512/29/19 20:10:31  5-MIN KAQV 300210Z AUTO VRB04KT 10SM CLR 11/07 A2991 380 80 0 VRB/04 RMK AO2 T01060072
03949KAQV AQV20191229201510512/29/19 20:15:31  5-MIN KAQV 300215Z AUTO VRB04KT 10SM CLR 11/07 A2992 380 77 0 VRB/04 RMK AO2 T01060067
03949KAQV AQV20191229202009512/29/19 20:20:31  5-MIN KAQV 300220Z AUTO 10SM CLR 11/07 A2992 380 77 0 M /M RMK AO2 T01060067
03949KAQV AQV20191229202510812/29/19 20:25:31  5-MIN KAQV 300225Z AUTO VRB03KT 10SM CLR 10/07 A2993 370 80 -100 VRB/03 RMK AO2 T01000067
03949KAQV AQV20191229203010812/29/19 20:30:31  5-MIN KAQV 300230Z AUTO VRB03KT 10SM CLR 10/07 A2993 370 80 -100 VRB/03 RMK AO2 T01000067
03949KAQV AQV20191229203510512/29/19 20:35:31  5-MIN KAQV 300235Z AUTO VRB05KT 10SM CLR 11/06 A2993 370 74 0 VRB/05 RMK AO2 T01060061
03949KAQV AQV20191229204010512/29/19 20:40:31  5-MIN KAQV 300240Z AUTO VRB03KT 10SM CLR 11/06 A2993 360 74 0 VRB/03 RMK AO2 T01060061
03949KAQV AQV20191229204510812/29/19 20:45:31  5-MIN KAQV 300245Z AUTO VRB04KT 10SM CLR 10/06 A2994 360 77 -100 VRB/04 RMK AO2 T01000061
03949KAQV AQV20191229205010812/29/19 20:50:31  5-MIN KAQV 300250Z AUTO VRB03KT 10SM CLR 10/06 A2994 360 77 -100 VRB/03 RMK AO2 T01000061
03949KAQV AQV20191229205512112/29/19 20:55:31  5-MIN KAQV 300255Z AUTO VRB03KT 10SM CLR 10/06 A2994 350 74 -100 VRB/03 RMK AO2 SLP140 T01000056 51021
03949KAQV AQV20191229210010812/29/19 21:00:31  5-MIN KAQV 300300Z AUTO VRB05KT 10SM CLR 10/06 A2994 350 74 -100 VRB/05 RMK AO2 T01000056
03949KAQV AQV20191229210509812/29/19 21:05:31  5-MIN KAQV 300305Z AUTO 10SM CLR 10/05 A2995 350 71 -100 M /M RMK AO2 T01000050
03949KAQV AQV20191229211010812/29/19 21:10:31  5-MIN KAQV 300310Z AUTO VRB05KT 10SM CLR 10/05 A2995 350 71 -100 VRB/05 RMK AO2 T01000050
03949KAQV AQV20191229211510812/29/19 21:15:31  5-MIN KAQV 300315Z AUTO VRB06KT 10SM CLR 10/05 A2995 350 71 -100 VRB/06 RMK AO2 T01000050
03949KAQV AQV20191229212010812/29/19 21:20:31  5-MIN KAQV 300320Z AUTO VRB05KT 10SM CLR 10/04 A2995 350 68 -100 VRB/05 RMK AO2 T01000044
03949KAQV AQV20191229212509812/29/19 21:25:31  5-MIN KAQV 300325Z AUTO 10SM CLR 10/04 A2996 340 68 -100 M /M RMK AO2 T01000044
03949KAQV AQV20191229213010812/29/19 21:30:31  5-MIN KAQV 300330Z AUTO 30005KT 10SM CLR 09/04 A2996 340 71 -200 300/05 RMK AO2 T00940044
03949KAQV AQV20191229213510812/29/19 21:35:31  5-MIN KAQV 300335Z AUTO VRB04KT 10SM CLR 09/04 A2996 340 71 -200 VRB/04 RMK AO2 T00940044
03949KAQV AQV20191229214010812/29/19 21:40:31  5-MIN KAQV 300340Z AUTO VRB05KT 10SM CLR 09/04 A2996 340 68 -200 VRB/05 RMK AO2 T00940039
03949KAQV AQV20191229214509812/29/19 21:45:31  5-MIN KAQV 300345Z AUTO 10SM CLR 09/04 A2996 340 68 -200 M /M RMK AO2 T00940039
03949KAQV AQV20191229215010812/29/19 21:50:31  5-MIN KAQV 300350Z AUTO VRB03KT 10SM CLR 09/04 A2996 340 68 -200 VRB/03 RMK AO2 T00940039
03949KAQV AQV20191229215511512/29/19 21:55:31  5-MIN KAQV 300355Z AUTO VRB03KT 10SM CLR 09/04 A2997 330 68 -200 VRB/03 RMK AO2 SLP148 T00940039
03949KAQV AQV20191229220009812/29/19 22:00:31  5-MIN KAQV 300400Z AUTO 10SM CLR 09/03 A2997 330 65 -200 M /M RMK AO2 T00940033
03949KAQV AQV20191229220509812/29/19 22:05:31  5-MIN KAQV 300405Z AUTO 10SM CLR 09/03 A2997 330 65 -200 M /M RMK AO2 T00940033
03949KAQV AQV20191229221010812/29/19 22:10:31  5-MIN KAQV 300410Z AUTO VRB03KT 10SM CLR 09/03 A2997 330 68 -200 VRB/03 RMK AO2 T00890033
03949KAQV AQV20191229221510812/29/19 22:15:31  5-MIN KAQV 300415Z AUTO 29004KT 10SM CLR 09/03 A2997 330 68 -200 280/04 RMK AO2 T00890033
03949KAQV AQV20191229222010812/29/19 22:20:31  5-MIN KAQV 300420Z AUTO VRB05KT 10SM CLR 09/03 A2997 330 68 -200 VRB/05 RMK AO2 T00890033
03949KAQV AQV20191229222510812/29/19 22:25:31  5-MIN KAQV 300425Z AUTO VRB03KT 10SM CLR 09/03 A2997 330 68 -200 VRB/03 RMK AO2 T00890033
03949KAQV AQV20191229223010812/29/19 22:30:31  5-MIN KAQV 300430Z AUTO 00000KT 10SM CLR 09/03 A2998 320 68 -200 000/00 RMK AO2 T00890033
03949KAQV AQV20191229223509812/29/19 22:35:31  5-MIN KAQV 300435Z AUTO 10SM CLR 08/03 A2998 320 70 -300 M /M RMK AO2 T00830033
03949KAQV AQV20191229224009812/29/19 22:40:31  5-MIN KAQV 300440Z AUTO 10SM CLR 08/03 A2998 320 70 -300 M /M RMK AO2 T00830033
03949KAQV AQV20191229224510812/29/19 22:45:31  5-MIN KAQV 300445Z AUTO VRB03KT 10SM CLR 08/03 A2998 320 70 -300 VRB/03 RMK AO2 T00830033
03949KAQV AQV20191229225010812/29/19 22:50:31  5-MIN KAQV 300450Z AUTO 00000KT 10SM CLR 08/03 A2999 310 70 -300 000/00 RMK AO2 T00830033
03949KAQV AQV20191229225511512/29/19 22:55:31  5-MIN KAQV 300455Z AUTO VRB03KT 10SM CLR 08/03 A2999 310 70 -300 VRB/03 RMK AO2 SLP155 T00830033
03949KAQV AQV20191229230010812/29/19 23:00:31  5-MIN KAQV 300500Z AUTO VRB04KT 10SM CLR 08/03 A2999 310 70 -300 VRB/04 RMK AO2 T00830033
03949KAQV AQV20191229230510812/29/19 23:05:31  5-MIN KAQV 300505Z AUTO 00000KT 10SM CLR 08/03 A2999 310 73 -400 000/00 RMK AO2 T00780033
03949KAQV AQV20191229231010812/29/19 23:10:31  5-MIN KAQV 300510Z AUTO 00000KT 10SM CLR 08/03 A2999 310 73 -400 000/00 RMK AO2 T00780033
03949KAQV AQV20191229231510812/29/19 23:15:31  5-MIN KAQV 300515Z AUTO 00000KT 10SM CLR 08/03 A2999 310 73 -400 000/00 RMK AO2 T00780033
03949KAQV AQV20191229232010812/29/19 23:20:31  5-MIN KAQV 300520Z AUTO 00000KT 10SM CLR 08/03 A2999 310 73 -400 000/00 RMK AO2 T00780033
03949KAQV AQV20191229232510812/29/19 23:25:31  5-MIN KAQV 300525Z AUTO VRB03KT 10SM CLR 08/03 A2999 310 73 -400 VRB/03 RMK AO2 T00780033
03949KAQV AQV20191229233010812/29/19 23:30:31  5-MIN KAQV 300530Z AUTO 00000KT 10SM CLR 08/03 A2999 320 73 -400 000/00 RMK AO2 T00780033
03949KAQV AQV20191229233510812/29/19 23:35:31  5-MIN KAQV 300535Z AUTO 00000KT 10SM CLR 07/03 A2998 320 76 -500 000/00 RMK AO2 T00720033
03949KAQV AQV20191229234010812/29/19 23:40:31  5-MIN KAQV 300540Z AUTO 00000KT 10SM CLR 07/03 A2998 320 73 -500 000/00 RMK AO2 T00720028
03949KAQV AQV20191229234510812/29/19 23:45:31  5-MIN KAQV 300545Z AUTO 00000KT 10SM CLR 07/03 A2999 320 73 -500 000/00 RMK AO2 T00720028
03949KAQV AQV20191229235010812/29/19 23:50:31  5-MIN KAQV 300550Z AUTO 00000KT 10SM CLR 07/03 A2998 320 73 -500 000/00 RMK AO2 T00720028
03949KAQV AQV20191229235514312/29/19 23:55:31  5-MIN KAQV 300555Z AUTO VRB03KT 10SM CLR 07/03 A2998 320 73 -500 VRB/03 RMK AO2 SLP154 T00720028 10106 20067 402060067 53034
03949KAQV AQV20191230000010812/30/19 00:00:31  5-MIN KAQV 300600Z AUTO VRB03KT 10SM CLR 07/03 A2999 310 76 -500 VRB/03 RMK AO2 T00670028
03949KAQV AQV20191230000510812/30/19 00:05:31  5-MIN KAQV 300605Z AUTO 00000KT 10SM CLR 07/03 A2999 310 76 -500 000/00 RMK AO2 T00670028
03949KAQV AQV20191230001010812/30/19 00:10:31  5-MIN KAQV 300610Z AUTO 00000KT 10SM CLR 07/03 A2999 310 73 -500 000/00 RMK AO2 T00720028
03949KAQV AQV20191230001510812/30/19 00:15:31  5-MIN KAQV 300615Z AUTO 00000KT 10SM CLR 07/03 A2999 310 76 -500 000/00 RMK AO2 T00670028
03949KAQV AQV20191230002010812/30/19 00:20:31  5-MIN KAQV 300620Z AUTO VRB03KT 10SM CLR 07/03 A2999 310 76 -500 VRB/03 RMK AO2 T00670028
03949KAQV AQV20191230002510812/30/19 00:25:31  5-MIN KAQV 300625Z AUTO 00000KT 10SM CLR 07/03 A2999 310 76 -500 000/00 RMK AO2 T00670028
03949KAQV AQV20191230003010812/30/19 00:30:31  5-MIN KAQV 300630Z AUTO 00000KT 10SM CLR 07/03 A2999 310 76 -500 000/00 RMK AO2 T00670028
03949KAQV AQV20191230003510812/30/19 00:35:31  5-MIN KAQV 300635Z AUTO 00000KT 10SM CLR 06/02 A2999 310 76 -600 000/00 RMK AO2 T00610022
03949KAQV AQV20191230004010812/30/19 00:40:31  5-MIN KAQV 300640Z AUTO 00000KT 10SM CLR 06/02 A2999 310 76 -600 000/00 RMK AO2 T00610022
03949KAQV AQV20191230004510812/30/19 00:45:31  5-MIN KAQV 300645Z AUTO 00000KT 10SM CLR 06/02 A2999 310 76 -600 000/00 RMK AO2 T00610022
03949KAQV AQV20191230005010812/30/19 00:50:31  5-MIN KAQV 300650Z AUTO 00000KT 10SM CLR 06/02 A2999 310 76 -600 000/00 RMK AO2 T00610022
03949KAQV AQV20191230005511512/30/19 00:55:31  5-MIN KAQV 300655Z AUTO 00000KT 10SM CLR 06/02 A2999 310 76 -600 000/00 RMK AO2 SLP158 T00610022
03949KAQV AQV20191230010010812/30/19 01:00:31  5-MIN KAQV 300700Z AUTO 00000KT 10SM CLR 06/02 A2999 310 79 -700 000/00 RMK AO2 T00560022
03949KAQV AQV20191230010510812/30/19 01:05:31  5-MIN KAQV 300705Z AUTO 00000KT 10SM CLR 06/02 A3000 310 79 -700 000/00 RMK AO2 T00560022
03949KAQV AQV20191230011010812/30/19 01:10:31  5-MIN KAQV 300710Z AUTO 00000KT 10SM CLR 05/02 A3000 310 82 -700 000/00 RMK AO2 T00500022
03949KAQV AQV20191230011510812/30/19 01:15:31  5-MIN KAQV 300715Z AUTO 00000KT 10SM CLR 04/02 A3000 300 85 -800 000/00 RMK AO2 T00440022
03949KAQV AQV20191230012010812/30/19 01:20:31  5-MIN KAQV 300720Z AUTO 00000KT 10SM CLR 04/02 A3000 300 85 -800 000/00 RMK AO2 T00440022
03949KAQV AQV20191230012510812/30/19 01:25:31  5-MIN KAQV 300725Z AUTO 00000KT 10SM CLR 04/03 A3000 300 89 -800 000/00 RMK AO2 T00440028
03949KAQV AQV20191230013010812/30/19 01:30:31  5-MIN KAQV 300730Z AUTO 00000KT 10SM CLR 04/03 A3001 300 92 -900 000/00 RMK AO2 T00390028
03949KAQV AQV20191230013510812/30/19 01:35:31  5-MIN KAQV 300735Z AUTO 00000KT 10SM CLR 04/03 A3001 290 92 -900 000/00 RMK AO2 T00390028
03949KAQV AQV20191230014010812/30/19 01:40:31  5-MIN KAQV 300740Z AUTO 00000KT 10SM CLR 04/03 A3001 290 92 -900 000/00 RMK AO2 T00390028
03949KAQV AQV20191230014510812/30/19 01:45:31  5-MIN KAQV 300745Z AUTO 00000KT 10SM CLR 04/02 A3001 290 89 -900 000/00 RMK AO2 T00390022
03949KAQV AQV20191230015010912/30/19 01:50:31  5-MIN KAQV 300750Z AUTO 00000KT 10SM CLR 03/02 A3001 290 92 -1000 000/00 RMK AO2 T00330022
03949KAQV AQV20191230015511612/30/19 01:55:31  5-MIN KAQV 300755Z AUTO 00000KT 10SM CLR 03/02 A3002 290 92 -1000 000/00 RMK AO2 SLP165 T00330022
03949KAQV AQV20191230020010912/30/19 02:00:31  5-MIN KAQV 300800Z AUTO 00000KT 10SM CLR 03/02 A3002 290 92 -1000 000/00 RMK AO2 T00330022
03949KAQV AQV20191230020510912/30/19 02:05:31  5-MIN KAQV 300805Z AUTO 00000KT 10SM CLR 03/02 A3002 290 92 -1000 000/00 RMK AO2 T00330022
03949KAQV AQV20191230021010912/30/19 02:10:31  5-MIN KAQV 300810Z AUTO 00000KT 10SM CLR 03/02 A3002 280 92 -1000 000/00 RMK AO2 T00330022
03949KAQV AQV20191230021510912/30/19 02:15:31  5-MIN KAQV 300815Z AUTO 00000KT 10SM CLR 03/02 A3002 290 92 -1000 000/00 RMK AO2 T00330022
03949KAQV AQV20191230022010912/30/19 02:20:31  5-MIN KAQV 300820Z AUTO 00000KT 10SM CLR 03/02 A3002 280 92 -1000 000/00 RMK AO2 T00330022
03949KAQV AQV20191230022510912/30/19 02:25:31  5-MIN KAQV 300825Z AUTO 00000KT 10SM CLR 03/02 A3002 280 92 -1000 000/00 RMK AO2 T00330022
03949KAQV AQV20191230023010912/30/19 02:30:31  5-MIN KAQV 300830Z AUTO 00000KT 10SM CLR 03/02 A3002 280 92 -1000 000/00 RMK AO2 T00330022
03949KAQV AQV20191230023510912/30/19 02:35:31  5-MIN KAQV 300835Z AUTO 00000KT 10SM CLR 03/02 A3002 280 92 -1000 000/00 RMK AO2 T00280017
03949KAQV AQV20191230024010912/30/19 02:40:31  5-MIN KAQV 300840Z AUTO 00000KT 10SM CLR 03/02 A3002 280 92 -1000 000/00 RMK AO2 T00280017
03949KAQV AQV20191230024510912/30/19 02:45:31  5-MIN KAQV 300845Z AUTO 00000KT 10SM CLR 03/02 A3003 280 92 -1100 000/00 RMK AO2 T00280017
03949KAQV AQV20191230025010912/30/19 02:50:31  5-MIN KAQV 300850Z AUTO 00000KT 10SM CLR 03/02 A3003 280 92 -1000 000/00 RMK AO2 T00280017
03949KAQV AQV20191230025512212/30/19 02:55:31  5-MIN KAQV 300855Z AUTO 00000KT 10SM CLR 03/02 A3003 280 92 -1100 000/00 RMK AO2 SLP170 T00280017 50014
03949KAQV AQV20191230030010912/30/19 03:00:31  5-MIN KAQV 300900Z AUTO 00000KT 10SM CLR 03/02 A3003 280 92 -1100 000/00 RMK AO2 T00280017
03949KAQV AQV20191230030510912/30/19 03:05:31  5-MIN KAQV 300905Z AUTO 00000KT 10SM CLR 03/02 A3003 270 92 -1100 000/00 RMK AO2 T00280017
03949KAQV AQV20191230031010912/30/19 03:10:31  5-MIN KAQV 300910Z AUTO 00000KT 10SM CLR 03/02 A3003 280 92 -1100 000/00 RMK AO2 T00280017
03949KAQV AQV20191230031510912/30/19 03:15:31  5-MIN KAQV 300915Z AUTO 00000KT 10SM CLR 03/02 A3003 280 92 -1100 000/00 RMK AO2 T00280017
03949KAQV AQV20191230032010912/30/19 03:20:31  5-MIN KAQV 300920Z AUTO 00000KT 10SM CLR 02/02 A3003 280 96 -1100 000/00 RMK AO2 T00220017
03949KAQV AQV20191230032510912/30/19 03:25:31  5-MIN KAQV 300925Z AUTO 00000KT 10SM CLR 02/02 A3003 280 96 -1100 000/00 RMK AO2 T00220017
03949KAQV AQV20191230033010912/30/19 03:30:31  5-MIN KAQV 300930Z AUTO 00000KT 10SM CLR 02/02 A3003 270 96 -1100 000/00 RMK AO2 T00220017
03949KAQV AQV20191230033510912/30/19 03:35:31  5-MIN KAQV 300935Z AUTO 00000KT 10SM CLR 02/01 A3003 270 92 -1100 000/00 RMK AO2 T00220011
03949KAQV AQV20191230034010912/30/19 03:40:31  5-MIN KAQV 300940Z AUTO 00000KT 10SM CLR 02/01 A3003 270 92 -1100 000/00 RMK AO2 T00220011
03949KAQV AQV20191230034510912/30/19 03:45:31  5-MIN KAQV 300945Z AUTO 00000KT 10SM CLR 02/01 A3003 280 92 -1100 000/00 RMK AO2 T00220011
03949KAQV AQV20191230035010912/30/19 03:50:31  5-MIN KAQV 300950Z AUTO 00000KT 10SM CLR 02/01 A3003 280 92 -1100 000/00 RMK AO2 T00220011
03949KAQV AQV20191230035511612/30/19 03:55:31  5-MIN KAQV 300955Z AUTO 00000KT 10SM CLR 02/01 A3002 280 92 -1100 000/00 RMK AO2 SLP168 T00220011
03949KAQV AQV20191230040010912/30/19 04:00:31  5-MIN KAQV 301000Z AUTO 00000KT 10SM CLR 02/01 A3002 280 92 -1100 000/00 RMK AO2 T00220011
03949KAQV AQV20191230040510912/30/19 04:05:31  5-MIN KAQV 301005Z AUTO 00000KT 10SM CLR 02/01 A3002 280 92 -1100 000/00 RMK AO2 T00220011
03949KAQV AQV20191230041010912/30/19 04:10:31  5-MIN KAQV 301010Z AUTO 00000KT 10SM CLR 02/01 A3002 290 92 -1100 000/00 RMK AO2 T00220011
03949KAQV AQV20191230041510912/30/19 04:15:31  5-MIN KAQV 301015Z AUTO 00000KT 10SM CLR 02/01 A3002 280 92 -1100 000/00 RMK AO2 T00220011
03949KAQV AQV20191230042010912/30/19 04:20:31  5-MIN KAQV 301020Z AUTO 00000KT 10SM CLR 02/01 A3002 290 89 -1100 000/00 RMK AO2 T00220006
03949KAQV AQV20191230042510912/30/19 04:25:31  5-MIN KAQV 301025Z AUTO 00000KT 10SM CLR 02/01 A3002 290 92 -1100 000/00 RMK AO2 T00220011
03949KAQV AQV20191230043010912/30/19 04:30:31  5-MIN KAQV 301030Z AUTO 00000KT 10SM CLR 02/01 A3002 290 89 -1100 000/00 RMK AO2 T00220006
03949KAQV AQV20191230043510912/30/19 04:35:31  5-MIN KAQV 301035Z AUTO 00000KT 10SM CLR 02/01 A3002 290 92 -1200 000/00 RMK AO2 T00170006
03949KAQV AQV20191230044010912/30/19 04:40:31  5-MIN KAQV 301040Z AUTO 00000KT 10SM CLR 02/01 A3002 280 89 -1100 000/00 RMK AO2 T00220006
03949KAQV AQV20191230044510912/30/19 04:45:31  5-MIN KAQV 301045Z AUTO 00000KT 10SM CLR 02/01 A3002 280 89 -1100 000/00 RMK AO2 T00220006
03949KAQV AQV20191230045010912/30/19 04:50:31  5-MIN KAQV 301050Z AUTO 00000KT 10SM CLR 02/01 A3002 280 89 -1100 000/00 RMK AO2 T00220006
03949KAQV AQV20191230045511612/30/19 04:55:31  5-MIN KAQV 301055Z AUTO 00000KT 10SM CLR 02/01 A3002 280 89 -1100 000/00 RMK AO2 SLP168 T00220006
03949KAQV AQV20191230050010912/30/19 05:00:31  5-MIN KAQV 301100Z AUTO 00000KT 10SM CLR 02/01 A3002 280 92 -1100 000/00 RMK AO2 T00220011
03949KAQV AQV20191230050510912/30/19 05:05:31  5-MIN KAQV 301105Z AUTO 00000KT 10SM CLR 02/01 A3003 280 92 -1100 000/00 RMK AO2 T00220011
03949KAQV AQV20191230051010912/30/19 05:10:31  5-MIN KAQV 301110Z AUTO 00000KT 10SM CLR 02/01 A3003 280 92 -1100 000/00 RMK AO2 T00220011
03949KAQV AQV20191230051510912/30/19 05:15:31  5-MIN KAQV 301115Z AUTO 00000KT 10SM CLR 02/01 A3003 280 92 -1200 000/00 RMK AO2 T00170006
03949KAQV AQV20191230052010912/30/19 05:20:31  5-MIN KAQV 301120Z AUTO 00000KT 10SM CLR 02/01 A3003 280 89 -1100 000/00 RMK AO2 T00220006
03949KAQV AQV20191230052510912/30/19 05:25:31  5-MIN KAQV 301125Z AUTO 00000KT 10SM CLR 02/01 A3003 280 92 -1200 000/00 RMK AO2 T00170006
03949KAQV AQV20191230053010912/30/19 05:30:31  5-MIN KAQV 301130Z AUTO 00000KT 10SM CLR 02/01 A3003 270 92 -1200 000/00 RMK AO2 T00170006
03949KAQV AQV20191230053510912/30/19 05:35:31  5-MIN KAQV 301135Z AUTO 00000KT 10SM CLR 02/01 A3003 270 92 -1200 000/00 RMK AO2 T00170006
03949KAQV AQV20191230054010912/30/19 05:40:31  5-MIN KAQV 301140Z AUTO 00000KT 10SM CLR 02/01 A3003 270 92 -1200 000/00 RMK AO2 T00170006
03949KAQV AQV20191230054510912/30/19 05:45:31  5-MIN KAQV 301145Z AUTO 00000KT 10SM CLR 02/01 A3003 270 92 -1200 000/00 RMK AO2 T00170006
03949KAQV AQV20191230055010912/30/19 05:50:31  5-MIN KAQV 301150Z AUTO 00000KT 10SM CLR 02/01 A3004 270 92 -1200 000/00 RMK AO2 T00170006
03949KAQV AQV20191230055514012/30/19 05:55:31  5-MIN KAQV 301155Z AUTO 00000KT 10SM CLR 02/01 A3004 270 92 -1200 000/00 RMK AO2 SLP175 70087 T00170006 10072 20017 53014
03949KAQV AQV20191230060010912/30/19 06:00:31  5-MIN KAQV 301200Z AUTO 00000KT 10SM CLR 02/01 A3004 260 92 -1200 000/00 RMK AO2 T00170006
03949KAQV AQV20191230060510912/30/19 06:05:31  5-MIN KAQV 301205Z AUTO 00000KT 10SM CLR 01/01 A3005 260 96 -1300 000/00 RMK AO2 T00110006
03949KAQV AQV20191230061010912/30/19 06:10:31  5-MIN KAQV 301210Z AUTO 00000KT 10SM CLR 01/00 A3005 260 92 -1300 000/00 RMK AO2 T00110000
03949KAQV AQV20191230061510912/30/19 06:15:31  5-MIN KAQV 301215Z AUTO 00000KT 10SM CLR 01/00 A3005 260 92 -1300 000/00 RMK AO2 T00110000
03949KAQV AQV20191230062010912/30/19 06:20:31  5-MIN KAQV 301220Z AUTO 00000KT 10SM CLR 01/00 A3005 260 92 -1300 000/00 RMK AO2 T00110000
03949KAQV AQV20191230062510912/30/19 06:25:31  5-MIN KAQV 301225Z AUTO 00000KT 10SM CLR 01/00 A3005 250 92 -1300 000/00 RMK AO2 T00110000
03949KAQV AQV20191230063010912/30/19 06:30:31  5-MIN KAQV 301230Z AUTO 00000KT 10SM CLR 01/00 A3005 250 92 -1300 000/00 RMK AO2 T00110000
03949KAQV AQV20191230063510912/30/19 06:35:31  5-MIN KAQV 301235Z AUTO 00000KT 10SM CLR 01/00 A3006 250 92 -1300 000/00 RMK AO2 T00110000
03949KAQV AQV20191230064010912/30/19 06:40:31  5-MIN KAQV 301240Z AUTO 00000KT 10SM CLR 01/00 A3006 250 92 -1300 000/00 RMK AO2 T00110000
03949KAQV AQV20191230064510912/30/19 06:45:31  5-MIN KAQV 301245Z AUTO 00000KT 10SM CLR 01/00 A3006 250 92 -1300 000/00 RMK AO2 T00110000
03949KAQV AQV20191230065010912/30/19 06:50:31  5-MIN KAQV 301250Z AUTO 00000KT 10SM CLR 02/00 A3006 250 89 -1200 000/00 RMK AO2 T00170000
03949KAQV AQV20191230065511612/30/19 06:55:31  5-MIN KAQV 301255Z AUTO 00000KT 10SM CLR 02/00 A3006 240 89 -1200 000/00 RMK AO2 SLP183 T00170000
03949KAQV AQV20191230070010912/30/19 07:00:31  5-MIN KAQV 301300Z AUTO 00000KT 10SM CLR 02/00 A3007 240 89 -1200 000/00 RMK AO2 T00170000
03949KAQV AQV20191230070510912/30/19 07:05:31  5-MIN KAQV 301305Z AUTO 00000KT 10SM CLR 02/00 A3007 240 89 -1200 000/00 RMK AO2 T00170000
03949KAQV AQV20191230071010912/30/19 07:10:31  5-MIN KAQV 301310Z AUTO 00000KT 10SM CLR 02/01 A3007 240 92 -1200 000/00 RMK AO2 T00170006
03949KAQV AQV20191230071510912/30/19 07:15:31  5-MIN KAQV 301315Z AUTO 00000KT 10SM CLR 02/01 A3007 240 92 -1200 000/00 RMK AO2 T00170006
03949KAQV AQV20191230072010912/30/19 07:20:31  5-MIN KAQV 301320Z AUTO 00000KT 10SM CLR 02/01 A3008 230 89 -1200 000/00 RMK AO2 T00220006
03949KAQV AQV20191230072510912/30/19 07:25:31  5-MIN KAQV 301325Z AUTO 00000KT 10SM CLR 02/01 A3008 230 92 -1200 000/00 RMK AO2 T00220011
03949KAQV AQV20191230073010912/30/19 07:30:31  5-MIN KAQV 301330Z AUTO 00000KT 10SM CLR 02/01 A3008 230 92 -1200 000/00 RMK AO2 T00220011
03949KAQV AQV20191230073510912/30/19 07:35:31  5-MIN KAQV 301335Z AUTO 00000KT 10SM CLR 02/01 A3008 230 92 -1200 000/00 RMK AO2 T00220011
03949KAQV AQV20191230074010912/30/19 07:40:31  5-MIN KAQV 301340Z AUTO 00000KT 10SM CLR 03/01 A3008 230 89 -1100 000/00 RMK AO2 T00280011
03949KAQV AQV20191230074510912/30/19 07:45:31  5-MIN KAQV 301345Z AUTO 00000KT 10SM CLR 03/01 A3008 230 89 -1100 000/00 RMK AO2 T00280011
03949KAQV AQV20191230075010912/30/19 07:50:31  5-MIN KAQV 301350Z AUTO 00000KT 10SM CLR 03/01 A3008 230 85 -1000 000/00 RMK AO2 T00330011
03949KAQV AQV20191230075511612/30/19 07:55:31  5-MIN KAQV 301355Z AUTO 00000KT 10SM CLR 04/02 A3008 230 85 -1000 000/00 RMK AO2 SLP187 T00390017
03949KAQV AQV20191230080010812/30/19 08:00:31  5-MIN KAQV 301400Z AUTO 00000KT 10SM CLR 04/02 A3008 230 82 -900 000/00 RMK AO2 T00440017
03949KAQV AQV20191230080510812/30/19 08:05:31  5-MIN KAQV 301405Z AUTO 00000KT 10SM CLR 05/02 A3008 230 79 -800 000/00 RMK AO2 T00500017
03949KAQV AQV20191230081010812/30/19 08:10:31  5-MIN KAQV 301410Z AUTO 00000KT 10SM CLR 05/02 A3009 220 82 -800 000/00 RMK AO2 T00500022
03949KAQV AQV20191230081510812/30/19 08:15:31  5-MIN KAQV 301415Z AUTO VRB03KT 10SM CLR 06/02 A3009 220 79 -800 VRB/03 RMK AO2 T00560022
03949KAQV AQV20191230082010812/30/19 08:20:31  5-MIN KAQV 301420Z AUTO 00000KT 10SM CLR 06/02 A3010 220 79 -800 000/00 RMK AO2 T00560022
03949KAQV AQV20191230082510812/30/19 08:25:31  5-MIN KAQV 301425Z AUTO VRB03KT 10SM CLR 06/02 A3010 210 76 -700 VRB/03 RMK AO2 T00610022
03949KAQV AQV20191230083009812/30/19 08:30:31  5-MIN KAQV 301430Z AUTO 10SM CLR 07/02 A3011 210 73 -700 M /M RMK AO2 T00670022
03949KAQV AQV20191230083510812/30/19 08:35:31  5-MIN KAQV 301435Z AUTO 27003KT 10SM CLR 07/02 A3011 200 73 -700 270/03 RMK AO2 T00670022
03949KAQV AQV20191230084010812/30/19 08:40:31  5-MIN KAQV 301440Z AUTO VRB04KT 10SM CLR 07/03 A3011 200 73 -600 VRB/04 RMK AO2 T00720028
03949KAQV AQV20191230084510812/30/19 08:45:31  5-MIN KAQV 301445Z AUTO VRB03KT 10SM CLR 07/02 A3011 200 70 -600 VRB/03 RMK AO2 T00720022
03949KAQV AQV20191230085010812/30/19 08:50:31  5-MIN KAQV 301450Z AUTO 00000KT 10SM CLR 07/02 A3012 200 70 -600 000/00 RMK AO2 T00720022
03949KAQV AQV20191230085512112/30/19 08:55:31  5-MIN KAQV 301455Z AUTO VRB04KT 10SM CLR 08/02 A3012 190 68 -500 VRB/04 RMK AO2 SLP200 T00780022 53004
03949KAQV AQV20191230090010812/30/19 09:00:31  5-MIN KAQV 301500Z AUTO VRB03KT 10SM CLR 08/02 A3013 190 68 -500 VRB/03 RMK AO2 T00780022
03949KAQV AQV20191230090510812/30/19 09:05:31  5-MIN KAQV 301505Z AUTO VRB03KT 10SM CLR 08/02 A3013 180 68 -600 VRB/03 RMK AO2 T00780022
03949KAQV AQV20191230091010812/30/19 09:10:31  5-MIN KAQV 301510Z AUTO 00000KT 10SM CLR 08/02 A3013 180 65 -500 000/00 RMK AO2 T00830022
03949KAQV AQV20191230091510812/30/19 09:15:31  5-MIN KAQV 301515Z AUTO 00000KT 10SM CLR 09/02 A3013 180 63 -400 000/00 RMK AO2 T00890022
03949KAQV AQV20191230092010812/30/19 09:20:31  5-MIN KAQV 301520Z AUTO 00000KT 10SM CLR 09/02 A3013 180 60 -400 000/00 RMK AO2 T00890017
03949KAQV AQV20191230092510812/30/19 09:25:31  5-MIN KAQV 301525Z AUTO VRB04KT 10SM CLR 09/02 A3014 180 60 -400 VRB/04 RMK AO2 T00890017
03949KAQV AQV20191230093010812/30/19 09:30:31  5-MIN KAQV 301530Z AUTO 00000KT 10SM CLR 09/02 A3013 180 60 -400 000/00 RMK AO2 T00890017
03949KAQV AQV20191230093510812/30/19 09:35:31  5-MIN KAQV 301535Z AUTO 00000KT 10SM CLR 09/02 A3014 180 58 -400 000/00 RMK AO2 T00940017
03949KAQV AQV20191230094010812/30/19 09:40:31  5-MIN KAQV 301540Z AUTO 31005KT 10SM CLR 09/01 A3014 170 56 -400 300/05 RMK AO2 T00940011
03949KAQV AQV20191230094510812/30/19 09:45:31  5-MIN KAQV 301545Z AUTO 00000KT 10SM CLR 09/01 A3014 180 56 -400 000/00 RMK AO2 T00940011
03949KAQV AQV20191230095009812/30/19 09:50:31  5-MIN KAQV 301550Z AUTO 10SM CLR 09/01 A3014 170 56 -400 M /M RMK AO2 T00940011
03949KAQV AQV20191230095511512/30/19 09:55:31  5-MIN KAQV 301555Z AUTO VRB03KT 10SM CLR 09/01 A3014 170 56 -400 VRB/03 RMK AO2 SLP208 T00940011
03949KAQV AQV20191230100010812/30/19 10:00:31  5-MIN KAQV 301600Z AUTO VRB03KT 10SM CLR 10/01 A3014 170 54 -300 VRB/03 RMK AO2 T01000011
03949KAQV AQV20191230100510812/30/19 10:05:31  5-MIN KAQV 301605Z AUTO 00000KT 10SM CLR 10/01 A3014 170 52 -300 000/00 RMK AO2 T01000006
03949KAQV AQV20191230101010812/30/19 10:10:31  5-MIN KAQV 301610Z AUTO VRB03KT 10SM CLR 11/01 A3014 170 50 -200 VRB/03 RMK AO2 T01060006
03949KAQV AQV20191230101510812/30/19 10:15:31  5-MIN KAQV 301615Z AUTO 00000KT 10SM CLR 11/01 A3014 170 50 -200 000/00 RMK AO2 T01060006
03949KAQV AQV20191230102010812/30/19 10:20:31  5-MIN KAQV 301620Z AUTO VRB04KT 10SM CLR 11/01 A3014 170 50 -200 VRB/04 RMK AO2 T01060006
03949KAQV AQV20191230102510912/30/19 10:25:31  5-MIN KAQV 301625Z AUTO VRB04KT 10SM CLR 11/M01 A3014 170 46 -200 VRB/04 RMK AO2 T01061006
03949KAQV AQV20191230103010912/30/19 10:30:31  5-MIN KAQV 301630Z AUTO VRB03KT 10SM CLR 11/M01 A3014 170 46 -200 VRB/03 RMK AO2 T01061006
03949KAQV AQV20191230103510912/30/19 10:35:31  5-MIN KAQV 301635Z AUTO VRB04KT 10SM CLR 11/M01 A3014 170 46 -200 VRB/04 RMK AO2 T01061006
03949KAQV AQV20191230104010912/30/19 10:40:31  5-MIN KAQV 301640Z AUTO VRB04KT 10SM CLR 11/M01 A3014 170 46 -200 VRB/04 RMK AO2 T01061006
03949KAQV AQV20191230104510912/30/19 10:45:31  5-MIN KAQV 301645Z AUTO VRB05KT 10SM CLR 11/M01 A3014 170 42 -200 VRB/05 RMK AO2 T01111011
03949KAQV AQV20191230105010912/30/19 10:50:31  5-MIN KAQV 301650Z AUTO VRB04KT 10SM CLR 11/M01 A3014 180 42 -200 VRB/04 RMK AO2 T01111011
03949KAQV AQV20191230105511612/30/19 10:55:31  5-MIN KAQV 301655Z AUTO VRB03KT 10SM CLR 12/M01 A3014 170 42 -100 VRB/03 RMK AO2 SLP207 T01171006
03949KAQV AQV20191230110009912/30/19 11:00:31  5-MIN KAQV 301700Z AUTO 10SM CLR 11/M01 A3014 170 44 -200 M /M RMK AO2 T01111006
03949KAQV AQV20191230110510912/30/19 11:05:31  5-MIN KAQV 301705Z AUTO VRB03KT 10SM CLR 11/M01 A3014 170 42 -200 VRB/03 RMK AO2 T01111011
03949KAQV AQV20191230111010912/30/19 11:10:31  5-MIN KAQV 301710Z AUTO VRB03KT 10SM CLR 12/M01 A3014 170 42 -100 VRB/03 RMK AO2 T01171006
03949KAQV AQV20191230111510912/30/19 11:15:31  5-MIN KAQV 301715Z AUTO 27006KT 10SM CLR 11/M01 A3014 180 44 -200 270/06 RMK AO2 T01111006
03949KAQV AQV20191230112010912/30/19 11:20:31  5-MIN KAQV 301720Z AUTO VRB06KT 10SM CLR 11/M01 A3013 180 44 -200 VRB/06 RMK AO2 T01111006
03949KAQV AQV20191230112510912/30/19 11:25:31  5-MIN KAQV 301725Z AUTO 00000KT 10SM CLR 12/M01 A3013 180 42 -100 000/00 RMK AO2 T01171006
03949KAQV AQV20191230113010912/30/19 11:30:31  5-MIN KAQV 301730Z AUTO 30004KT 10SM CLR 12/M01 A3013 180 42 -100 300/04 RMK AO2 T01171006
03949KAQV AQV20191230113510812/30/19 11:35:31  5-MIN KAQV 301735Z AUTO VRB04KT 10SM CLR 12/00 A3012 190 44 -100 VRB/04 RMK AO2 T01170000
03949KAQV AQV20191230114010812/30/19 11:40:31  5-MIN KAQV 301740Z AUTO 27008KT 10SM CLR 12/00 A3012 190 44 -100 260/08 RMK AO2 T01170000
03949KAQV AQV20191230114509812/30/19 11:45:31  5-MIN KAQV 301745Z AUTO 10SM CLR 12/00 A3012 190 44 -100 M /M RMK AO2 T01170000
03949KAQV AQV20191230115010812/30/19 11:50:31  5-MIN KAQV 301750Z AUTO 33005KT 10SM CLR 12/00 A3011 200 44 -100 320/05 RMK AO2 T01170000
03949KAQV AQV20191230115513012/30/19 11:55:31  5-MIN KAQV 301755Z AUTO VRB04KT 10SM CLR 12/01 A3011 200 44 0 VRB/04 RMK AO2 SLP197 T01220006 10122 20011 53026
03949KAQV AQV20191230120009512/30/19 12:00:31  5-MIN KAQV 301800Z AUTO 10SM CLR 12/01 A3011 200 44 0 M /M RMK AO2 T01220006
03949KAQV AQV20191230120510812/30/19 12:05:31  5-MIN KAQV 301805Z AUTO 26006KT 10SM CLR 12/00 A3011 210 44 -100 250/06 RMK AO2 T01170000
03949KAQV AQV20191230121010512/30/19 12:10:31  5-MIN KAQV 301810Z AUTO VRB05KT 10SM CLR 12/00 A3010 210 43 0 VRB/05 RMK AO2 T01220000
03949KAQV AQV20191230121510512/30/19 12:15:31  5-MIN KAQV 301815Z AUTO VRB05KT 10SM CLR 12/00 A3010 210 43 0 VRB/05 RMK AO2 T01220000
03949KAQV AQV20191230122010512/30/19 12:20:31  5-MIN KAQV 301820Z AUTO 00000KT 10SM CLR 12/01 A3009 220 44 0 000/00 RMK AO2 T01220006
03949KAQV AQV20191230122510512/30/19 12:25:31  5-MIN KAQV 301825Z AUTO VRB04KT 10SM CLR 13/01 A3009 220 43 0 VRB/04 RMK AO2 T01280006
03949KAQV AQV20191230123009512/30/19 12:30:31  5-MIN KAQV 301830Z AUTO 10SM CLR 13/01 A3009 220 43 0 M /M RMK AO2 T01280006
03949KAQV AQV20191230123510512/30/19 12:35:31  5-MIN KAQV 301835Z AUTO VRB05KT 10SM CLR 12/00 A3009 220 43 0 VRB/05 RMK AO2 T01220000
03949KAQV AQV20191230124010712/30/19 12:40:31  5-MIN KAQV 301840Z AUTO 00000KT 10SM CLR 13/00 A3009 220 41 100 000/00 RMK AO2 T01280000
03949KAQV AQV20191230124509712/30/19 12:45:31  5-MIN KAQV 301845Z AUTO 10SM CLR 13/00 A3008 230 40 100 M /M RMK AO2 T01330000
03949KAQV AQV20191230125009812/30/19 12:50:31  5-MIN KAQV 301850Z AUTO 10SM CLR 13/M01 A3008 230 39 100 M /M RMK AO2 T01281006
03949KAQV AQV20191230125511512/30/19 12:55:31  5-MIN KAQV 301855Z AUTO VRB06KT 10SM CLR 13/M01 A3008 230 38 100 VRB/06 RMK AO2 SLP185 T01331006
03949KAQV AQV20191230130010812/30/19 13:00:31  5-MIN KAQV 301900Z AUTO VRB05KT 10SM CLR 13/M01 A3008 230 38 100 VRB/05 RMK AO2 T01281011
03949KAQV AQV20191230130510812/30/19 13:05:31  5-MIN KAQV 301905Z AUTO VRB03KT 10SM CLR 13/M01 A3007 230 38 100 VRB/03 RMK AO2 T01281011
03949KAQV AQV20191230131010812/30/19 13:10:31  5-MIN KAQV 301910Z AUTO VRB06KT 10SM CLR 13/M01 A3007 230 38 100 VRB/06 RMK AO2 T01331006
03949KAQV AQV20191230131510812/30/19 13:15:31  5-MIN KAQV 301915Z AUTO VRB06KT 10SM CLR 13/M01 A3007 230 38 100 VRB/06 RMK AO2 T01281011
03949KAQV AQV20191230132010812/30/19 13:20:31  5-MIN KAQV 301920Z AUTO VRB03KT 10SM CLR 13/M01 A3007 240 39 100 VRB/03 RMK AO2 T01281006
03949KAQV AQV20191230132510812/30/19 13:25:31  5-MIN KAQV 301925Z AUTO VRB04KT 10SM CLR 13/M01 A3007 240 38 100 VRB/04 RMK AO2 T01281011
03949KAQV AQV20191230133012412/30/19 13:30:31  5-MIN KAQV 301930Z AUTO 26007KT 210V290 10SM CLR 13/M01 A3007 230 38 100 250/07 210V290 RMK AO2 T01281011
03949KAQV AQV20191230133510812/30/19 13:35:31  5-MIN KAQV 301935Z AUTO VRB04KT 10SM CLR 13/M01 A3007 240 38 100 VRB/04 RMK AO2 T01281011
03949KAQV AQV20191230134010812/30/19 13:40:31  5-MIN KAQV 301940Z AUTO VRB04KT 10SM CLR 13/M01 A3007 240 38 100 VRB/04 RMK AO2 T01281011
03949KAQV AQV20191230134510812/30/19 13:45:31  5-MIN KAQV 301945Z AUTO VRB04KT 10SM CLR 14/M01 A3007 240 37 200 VRB/04 RMK AO2 T01391006
03949KAQV AQV20191230135010812/30/19 13:50:31  5-MIN KAQV 301950Z AUTO VRB04KT 10SM CLR 13/M01 A3007 240 38 100 VRB/04 RMK AO2 T01331006
03949KAQV AQV20191230135511512/30/19 13:55:31  5-MIN KAQV 301955Z AUTO 31003KT 10SM CLR 13/M01 A3006 240 36 100 310/03 RMK AO2 SLP182 T01331011
03949KAQV AQV20191230140010812/30/19 14:00:31  5-MIN KAQV 302000Z AUTO VRB06KT 10SM CLR 13/M01 A3006 240 36 100 VRB/06 RMK AO2 T01331011
03949KAQV AQV20191230140510812/30/19 14:05:31  5-MIN KAQV 302005Z AUTO VRB05KT 10SM CLR 13/M01 A3006 240 36 100 VRB/05 RMK AO2 T01331011
03949KAQV AQV20191230141010812/30/19 14:10:31  5-MIN KAQV 302010Z AUTO VRB04KT 10SM CLR 13/M01 A3006 250 38 100 VRB/04 RMK AO2 T01331006
03949KAQV AQV20191230141510812/30/19 14:15:31  5-MIN KAQV 302015Z AUTO VRB03KT 10SM CLR 14/M01 A3006 250 37 200 VRB/03 RMK AO2 T01391006
03949KAQV AQV20191230142010812/30/19 14:20:31  5-MIN KAQV 302020Z AUTO VRB05KT 10SM CLR 13/M01 A3006 240 38 100 VRB/05 RMK AO2 T01331006
03949KAQV AQV20191230142510812/30/19 14:25:31  5-MIN KAQV 302025Z AUTO VRB04KT 10SM CLR 14/M01 A3006 250 37 200 VRB/04 RMK AO2 T01391006
03949KAQV AQV20191230143010812/30/19 14:30:31  5-MIN KAQV 302030Z AUTO VRB03KT 10SM CLR 14/M01 A3006 250 37 200 VRB/03 RMK AO2 T01391006
03949KAQV AQV20191230143510812/30/19 14:35:31  5-MIN KAQV 302035Z AUTO VRB05KT 10SM CLR 14/M01 A3006 250 37 200 VRB/05 RMK AO2 T01391006
03949KAQV AQV20191230144009812/30/19 14:40:31  5-MIN KAQV 302040Z AUTO 10SM CLR 13/M01 A3006 250 38 100 M /M RMK AO2 T01331006
03949KAQV AQV20191230144510812/30/19 14:45:31  5-MIN KAQV 302045Z AUTO VRB04KT 10SM CLR 14/M01 A3006 240 37 200 VRB/04 RMK AO2 T01391006
03949KAQV AQV20191230145010812/30/19 14:50:31  5-MIN KAQV 302050Z AUTO VRB03KT 10SM CLR 13/M01 A3006 240 38 100 VRB/03 RMK AO2 T01331006
03949KAQV AQV20191230145512112/30/19 14:55:31  5-MIN KAQV 302055Z AUTO VRB05KT 10SM CLR 14/M01 A3006 250 37 200 VRB/05 RMK AO2 SLP181 T01391006 58003
03949KAQV AQV20191230150010812/30/19 15:00:31  5-MIN KAQV 302100Z AUTO VRB05KT 10SM CLR 13/M01 A3006 240 38 100 VRB/05 RMK AO2 T01331006
03949KAQV AQV20191230150509812/30/19 15:05:31  5-MIN KAQV 302105Z AUTO 10SM CLR 14/M01 A3006 240 37 200 M /M RMK AO2 T01391006
03949KAQV AQV20191230151010712/30/19 15:10:31  5-MIN KAQV 302110Z AUTO 00000KT 10SM CLR 14/00 A3006 250 38 200 000/00 RMK AO2 T01390000
03949KAQV AQV20191230151509712/30/19 15:15:31  5-MIN KAQV 302115Z AUTO 10SM CLR 14/00 A3006 240 38 200 M /M RMK AO2 T01390000
03949KAQV AQV20191230152010712/30/19 15:20:31  5-MIN KAQV 302120Z AUTO VRB03KT 10SM CLR 13/00 A3006 240 40 100 VRB/03 RMK AO2 T01330000
03949KAQV AQV20191230152509712/30/19 15:25:31  5-MIN KAQV 302125Z AUTO 10SM CLR 13/00 A3007 240 40 100 M /M RMK AO2 T01330000
03949KAQV AQV20191230153010712/30/19 15:30:31  5-MIN KAQV 302130Z AUTO 28004KT 10SM CLR 13/00 A3007 240 40 100 270/04 RMK AO2 T01330000
03949KAQV AQV20191230153510812/30/19 15:35:31  5-MIN KAQV 302135Z AUTO VRB04KT 10SM CLR 13/M01 A3007 240 38 100 VRB/04 RMK AO2 T01331006
03949KAQV AQV20191230154009812/30/19 15:40:31  5-MIN KAQV 302140Z AUTO 10SM CLR 13/M01 A3007 240 38 100 M /M RMK AO2 T01331006
03949KAQV AQV20191230154510812/30/19 15:45:31  5-MIN KAQV 302145Z AUTO 27006KT 10SM CLR 13/M01 A3007 240 38 100 260/06 RMK AO2 T01331006
03949KAQV AQV20191230155010812/30/19 15:50:31  5-MIN KAQV 302150Z AUTO 28004KT 10SM CLR 13/M01 A3007 240 38 100 270/04 RMK AO2 T01331006
03949KAQV AQV20191230155511512/30/19 15:55:31  5-MIN KAQV 302155Z AUTO VRB03KT 10SM CLR 13/M01 A3008 230 38 100 VRB/03 RMK AO2 SLP186 T01331006
03949KAQV AQV20191230160010712/30/19 16:00:31  5-MIN KAQV 302200Z AUTO VRB04KT 10SM CLR 13/00 A3008 230 40 100 VRB/04 RMK AO2 T01330000
03949KAQV AQV20191230160510712/30/19 16:05:31  5-MIN KAQV 302205Z AUTO VRB03KT 10SM CLR 13/00 A3008 230 40 100 VRB/03 RMK AO2 T01330000
03949KAQV AQV20191230161010712/30/19 16:10:31  5-MIN KAQV 302210Z AUTO 00000KT 10SM CLR 13/00 A3008 230 41 100 000/00 RMK AO2 T01280000
03949KAQV AQV20191230161510712/30/19 16:15:31  5-MIN KAQV 302215Z AUTO VRB04KT 10SM CLR 13/00 A3009 220 41 100 VRB/04 RMK AO2 T01280000
03949KAQV AQV20191230162010512/30/19 16:20:31  5-MIN KAQV 302220Z AUTO VRB03KT 10SM CLR 13/00 A3009 220 41 0 VRB/03 RMK AO2 T01280000
03949KAQV AQV20191230162510512/30/19 16:25:31  5-MIN KAQV 302225Z AUTO VRB03KT 10SM CLR 12/00 A3009 220 43 0 VRB/03 RMK AO2 T01220000
03949KAQV AQV20191230163010512/30/19 16:30:31  5-MIN KAQV 302230Z AUTO VRB04KT 10SM CLR 12/00 A3009 220 43 0 VRB/04 RMK AO2 T01220000
03949KAQV AQV20191230163510512/30/19 16:35:31  5-MIN KAQV 302235Z AUTO 29005KT 10SM CLR 12/00 A3009 220 43 0 290/05 RMK AO2 T01220000
03949KAQV AQV20191230164010512/30/19 16:40:31  5-MIN KAQV 302240Z AUTO VRB03KT 10SM CLR 12/00 A3009 220 43 0 VRB/03 RMK AO2 T01220000
03949KAQV AQV20191230164510812/30/19 16:45:31  5-MIN KAQV 302245Z AUTO VRB03KT 10SM CLR 11/01 A3009 220 48 -100 VRB/03 RMK AO2 T01110006
03949KAQV AQV20191230165010512/30/19 16:50:31  5-MIN KAQV 302250Z AUTO 00000KT 10SM CLR 12/00 A3009 220 44 0 000/00 RMK AO2 T01170000
03949KAQV AQV20191230165511512/30/19 16:55:31  5-MIN KAQV 302255Z AUTO 27003KT 10SM CLR 11/01 A3009 220 48 -100 270/03 RMK AO2 SLP191 T01110006
03949KAQV AQV20191230170010812/30/19 17:00:31  5-MIN KAQV 302300Z AUTO 27003KT 10SM CLR 11/01 A3009 220 50 -200 260/03 RMK AO2 T01060006
03949KAQV AQV20191230170510812/30/19 17:05:31  5-MIN KAQV 302305Z AUTO 00000KT 10SM CLR 11/01 A3009 220 50 -200 000/00 RMK AO2 T01060006
03949KAQV AQV20191230171010812/30/19 17:10:31  5-MIN KAQV 302310Z AUTO 00000KT 10SM CLR 10/01 A3009 220 54 -200 000/00 RMK AO2 T01000011
03949KAQV AQV20191230171510812/30/19 17:15:31  5-MIN KAQV 302315Z AUTO 00000KT 10SM CLR 09/02 A3009 220 58 -300 000/00 RMK AO2 T00940017
03949KAQV AQV20191230172010812/30/19 17:20:31  5-MIN KAQV 302320Z AUTO 00000KT 10SM CLR 09/02 A3009 220 60 -400 000/00 RMK AO2 T00890017
03949KAQV AQV20191230172510812/30/19 17:25:31  5-MIN KAQV 302325Z AUTO 00000KT 10SM CLR 09/02 A3009 220 63 -400 000/00 RMK AO2 T00890022
03949KAQV AQV20191230173010812/30/19 17:30:31  5-MIN KAQV 302330Z AUTO 00000KT 10SM CLR 08/02 A3009 220 65 -400 000/00 RMK AO2 T00830022
03949KAQV AQV20191230173510812/30/19 17:35:31  5-MIN KAQV 302335Z AUTO 00000KT 10SM CLR 08/02 A3010 210 68 -500 000/00 RMK AO2 T00780022
03949KAQV AQV20191230174010812/30/19 17:40:31  5-MIN KAQV 302340Z AUTO 00000KT 10SM CLR 08/02 A3010 210 68 -500 000/00 RMK AO2 T00780022
03949KAQV AQV20191230174510812/30/19 17:45:31  5-MIN KAQV 302345Z AUTO 00000KT 10SM CLR 07/02 A3010 210 70 -600 000/00 RMK AO2 T00720022
03949KAQV AQV20191230175010812/30/19 17:50:31  5-MIN KAQV 302350Z AUTO 00000KT 10SM CLR 07/02 A3010 210 70 -600 000/00 RMK AO2 T00720022
03949KAQV AQV20191230175513312/30/19 17:55:31  5-MIN KAQV 302355Z AUTO 00000KT 10SM CLR 07/02 A3010 210 70 -600 000/00 RMK AO2 SLP195 T00720022 10139 20072 56016
03949KAQV AQV20191230180010812/30/19 18:00:31  5-MIN KAQV 310000Z AUTO 00000KT 10SM CLR 07/02 A3010 210 73 -700 000/00 RMK AO2 T00670022
03949KAQV AQV20191230180510812/30/19 18:05:31  5-MIN KAQV 310005Z AUTO 00000KT 10SM CLR 07/03 A3011 210 76 -700 000/00 RMK AO2 T00670028
03949KAQV AQV20191230181010812/30/19 18:10:31  5-MIN KAQV 310010Z AUTO 00000KT 10SM CLR 06/03 A3011 200 79 -700 000/00 RMK AO2 T00610028
03949KAQV AQV20191230181510812/30/19 18:15:31  5-MIN KAQV 310015Z AUTO 00000KT 10SM CLR 06/03 A3011 200 79 -700 000/00 RMK AO2 T00610028
03949KAQV AQV20191230182010812/30/19 18:20:31  5-MIN KAQV 310020Z AUTO 00000KT 10SM CLR 06/02 A3011 200 76 -700 000/00 RMK AO2 T00610022
03949KAQV AQV20191230182510812/30/19 18:25:31  5-MIN KAQV 310025Z AUTO 00000KT 10SM CLR 06/02 A3011 200 76 -700 000/00 RMK AO2 T00610022
03949KAQV AQV20191230183010812/30/19 18:30:31  5-MIN KAQV 310030Z AUTO 00000KT 10SM CLR 06/02 A3011 200 79 -800 000/00 RMK AO2 T00560022
03949KAQV AQV20191230183510812/30/19 18:35:31  5-MIN KAQV 310035Z AUTO 00000KT 10SM CLR 06/02 A3011 200 79 -800 000/00 RMK AO2 T00560022
03949KAQV AQV20191230184010812/30/19 18:40:31  5-MIN KAQV 310040Z AUTO 00000KT 10SM CLR 06/02 A3012 200 79 -800 000/00 RMK AO2 T00560022
03949KAQV AQV20191230184510812/30/19 18:45:31  5-MIN KAQV 310045Z AUTO 00000KT 10SM CLR 05/02 A3012 200 82 -900 000/00 RMK AO2 T00500022
03949KAQV AQV20191230185010812/30/19 18:50:31  5-MIN KAQV 310050Z AUTO 00000KT 10SM CLR 05/02 A3011 200 82 -900 000/00 RMK AO2 T00500022
03949KAQV AQV20191230185511512/30/19 18:55:31  5-MIN KAQV 310055Z AUTO 00000KT 10SM CLR 05/02 A3012 200 82 -900 000/00 RMK AO2 SLP200 T00500022
03949KAQV AQV20191230190010812/30/19 19:00:31  5-MIN KAQV 310100Z AUTO 00000KT 10SM CLR 05/02 A3012 200 82 -900 000/00 RMK AO2 T00500022
03949KAQV AQV20191230190510812/30/19 19:05:31  5-MIN KAQV 310105Z AUTO 00000KT 10SM CLR 05/02 A3012 190 82 -900 000/00 RMK AO2 T00500022
03949KAQV AQV20191230191010812/30/19 19:10:31  5-MIN KAQV 310110Z AUTO 00000KT 10SM CLR 04/02 A3012 190 85 -900 000/00 RMK AO2 T00440022
03949KAQV AQV20191230191510912/30/19 19:15:31  5-MIN KAQV 310115Z AUTO 00000KT 10SM CLR 04/02 A3012 190 85 -1000 000/00 RMK AO2 T00440022
03949KAQV AQV20191230192010912/30/19 19:20:31  5-MIN KAQV 310120Z AUTO 00000KT 10SM CLR 04/02 A3012 190 85 -1000 000/00 RMK AO2 T00440022
03949KAQV AQV20191230192510912/30/19 19:25:31  5-MIN KAQV 310125Z AUTO 00000KT 10SM CLR 04/02 A3012 190 85 -1000 000/00 RMK AO2 T00440022
03949KAQV AQV20191230193010912/30/19 19:30:31  5-MIN KAQV 310130Z AUTO 00000KT 10SM CLR 04/02 A3012 190 89 -1000 000/00 RMK AO2 T00390022
03949KAQV AQV20191230193510912/30/19 19:35:31  5-MIN KAQV 310135Z AUTO 00000KT 10SM CLR 04/02 A3012 190 89 -1000 000/00 RMK AO2 T00390022
03949KAQV AQV20191230194010912/30/19 19:40:31  5-MIN KAQV 310140Z AUTO 00000KT 10SM CLR 04/02 A3012 190 89 -1000 000/00 RMK AO2 T00390022
03949KAQV AQV20191230194510912/30/19 19:45:31  5-MIN KAQV 310145Z AUTO 00000KT 10SM CLR 04/02 A3013 190 89 -1000 000/00 RMK AO2 T00390022
03949KAQV AQV20191230195010912/30/19 19:50:31  5-MIN KAQV 310150Z AUTO 00000KT 10SM CLR 04/02 A3013 190 89 -1000 000/00 RMK AO2 T00390022
03949KAQV AQV20191230195511612/30/19 19:55:31  5-MIN KAQV 310155Z AUTO 00000KT 10SM CLR 03/02 A3013 180 92 -1100 000/00 RMK AO2 SLP205 T00330022
03949KAQV AQV20191230200010912/30/19 20:00:31  5-MIN KAQV 310200Z AUTO 00000KT 10SM CLR 03/02 A3013 180 92 -1100 000/00 RMK AO2 T00330022
03949KAQV AQV20191230200510912/30/19 20:05:31  5-MIN KAQV 310205Z AUTO 00000KT 10SM CLR 03/02 A3013 180 89 -1100 000/00 RMK AO2 T00330017
03949KAQV AQV20191230201010912/30/19 20:10:31  5-MIN KAQV 310210Z AUTO 00000KT 10SM CLR 04/02 A3014 180 85 -1000 000/00 RMK AO2 T00390017
03949KAQV AQV20191230201510912/30/19 20:15:31  5-MIN KAQV 310215Z AUTO 00000KT 10SM CLR 03/02 A3014 180 89 -1100 000/00 RMK AO2 T00330017
03949KAQV AQV20191230202010912/30/19 20:20:31  5-MIN KAQV 310220Z AUTO 00000KT 10SM CLR 04/02 A3014 180 85 -1000 000/00 RMK AO2 T00390017
03949KAQV AQV20191230202510912/30/19 20:25:31  5-MIN KAQV 310225Z AUTO 00000KT 10SM CLR 04/02 A3014 180 85 -1000 000/00 RMK AO2 T00390017
03949KAQV AQV20191230203010912/30/19 20:30:31  5-MIN KAQV 310230Z AUTO 00000KT 10SM CLR 04/02 A3014 180 85 -1000 000/00 RMK AO2 T00390017
03949KAQV AQV20191230203510912/30/19 20:35:31  5-MIN KAQV 310235Z AUTO 00000KT 10SM CLR 04/02 A3014 180 85 -1000 000/00 RMK AO2 T00390017
03949KAQV AQV20191230204010912/30/19 20:40:31  5-MIN KAQV 310240Z AUTO 00000KT 10SM CLR 04/02 A3014 170 85 -1000 000/00 RMK AO2 T00390017
03949KAQV AQV20191230204510912/30/19 20:45:31  5-MIN KAQV 310245Z AUTO 00000KT 10SM CLR 04/02 A3014 170 89 -1000 000/00 RMK AO2 T00390022
03949KAQV AQV20191230205010912/30/19 20:50:31  5-MIN KAQV 310250Z AUTO 00000KT 10SM CLR 04/02 A3014 170 89 -1000 000/00 RMK AO2 T00390022
03949KAQV AQV20191230205512212/30/19 20:55:31  5-MIN KAQV 310255Z AUTO 00000KT 10SM CLR 04/02 A3014 180 89 -1000 000/00 RMK AO2 SLP208 T00390022 51013
03949KAQV AQV20191230210010912/30/19 21:00:31  5-MIN KAQV 310300Z AUTO 00000KT 10SM CLR 04/02 A3014 170 89 -1000 000/00 RMK AO2 T00390022
03949KAQV AQV20191230210510912/30/19 21:05:31  5-MIN KAQV 310305Z AUTO 00000KT 10SM CLR 04/02 A3014 170 89 -1000 000/00 RMK AO2 T00390022
03949KAQV AQV20191230211010912/30/19 21:10:31  5-MIN KAQV 310310Z AUTO 00000KT 10SM CLR 04/02 A3014 170 89 -1000 000/00 RMK AO2 T00390022
03949KAQV AQV20191230211510912/30/19 21:15:31  5-MIN KAQV 310315Z AUTO 00000KT 10SM CLR 04/02 A3015 170 85 -1000 000/00 RMK AO2 T00390017
03949KAQV AQV20191230212010912/30/19 21:20:31  5-MIN KAQV 310320Z AUTO 00000KT 10SM CLR 04/02 A3015 170 85 -1100 000/00 RMK AO2 T00390017
03949KAQV AQV20191230212510912/30/19 21:25:31  5-MIN KAQV 310325Z AUTO 00000KT 10SM CLR 04/02 A3015 160 85 -1100 000/00 RMK AO2 T00390017
03949KAQV AQV20191230213010912/30/19 21:30:31  5-MIN KAQV 310330Z AUTO 00000KT 10SM CLR 03/02 A3015 160 89 -1100 000/00 RMK AO2 T00330017
03949KAQV AQV20191230213510912/30/19 21:35:31  5-MIN KAQV 310335Z AUTO 00000KT 10SM CLR 03/02 A3016 160 89 -1100 000/00 RMK AO2 T00330017
03949KAQV AQV20191230214010912/30/19 21:40:31  5-MIN KAQV 310340Z AUTO 00000KT 10SM CLR 03/02 A3016 160 89 -1100 000/00 RMK AO2 T00330017
03949KAQV AQV20191230214510912/30/19 21:45:31  5-MIN KAQV 310345Z AUTO 00000KT 10SM CLR 03/02 A3016 160 89 -1100 000/00 RMK AO2 T00330017
03949KAQV AQV20191230215010912/30/19 21:50:31  5-MIN KAQV 310350Z AUTO 00000KT 10SM CLR 03/02 A3016 160 89 -1100 000/00 RMK AO2 T00330017
03949KAQV AQV20191230215511612/30/19 21:55:31  5-MIN KAQV 310355Z AUTO 00000KT 10SM CLR 03/02 A3016 160 89 -1100 000/00 RMK AO2 SLP214 T00330017
03949KAQV AQV20191230220010912/30/19 22:00:31  5-MIN KAQV 310400Z AUTO 00000KT 10SM CLR 03/02 A3016 160 89 -1100 000/00 RMK AO2 T00330017
03949KAQV AQV20191230220510912/30/19 22:05:31  5-MIN KAQV 310405Z AUTO 00000KT 10SM CLR 03/02 A3016 150 89 -1100 000/00 RMK AO2 T00330017
03949KAQV AQV20191230221010912/30/19 22:10:31  5-MIN KAQV 310410Z AUTO 00000KT 10SM CLR 03/02 A3016 150 89 -1100 000/00 RMK AO2 T00330017
03949KAQV AQV20191230221510912/30/19 22:15:31  5-MIN KAQV 310415Z AUTO 00000KT 10SM CLR 03/02 A3016 150 89 -1100 000/00 RMK AO2 T00330017
03949KAQV AQV20191230222010912/30/19 22:20:31  5-MIN KAQV 310420Z AUTO 00000KT 10SM CLR 03/02 A3016 150 89 -1100 000/00 RMK AO2 T00330017
03949KAQV AQV20191230222510912/30/19 22:25:31  5-MIN KAQV 310425Z AUTO 00000KT 10SM CLR 03/02 A3016 150 89 -1100 000/00 RMK AO2 T00330017
03949KAQV AQV20191230223010912/30/19 22:30:31  5-MIN KAQV 310430Z AUTO 00000KT 10SM CLR 03/02 A3016 160 89 -1100 000/00 RMK AO2 T00330017
03949KAQV AQV20191230223510912/30/19 22:35:31  5-MIN KAQV 310435Z AUTO 00000KT 10SM CLR 03/02 A3016 160 89 -1100 000/00 RMK AO2 T00330017
03949KAQV AQV20191230224010912/30/19 22:40:31  5-MIN KAQV 310440Z AUTO 00000KT 10SM CLR 03/01 A3016 160 85 -1100 000/00 RMK AO2 T00330011
03949KAQV AQV20191230224510912/30/19 22:45:31  5-MIN KAQV 310445Z AUTO 00000KT 10SM CLR 04/01 A3016 160 82 -1100 000/00 RMK AO2 T00390011
03949KAQV AQV20191230225010912/30/19 22:50:31  5-MIN KAQV 310450Z AUTO VRB03KT 10SM CLR 04/01 A3016 160 79 -1000 VRB/03 RMK AO2 T00440011
03949KAQV AQV20191230225511612/30/19 22:55:31  5-MIN KAQV 310455Z AUTO 00000KT 10SM CLR 04/01 A3016 160 79 -1000 000/00 RMK AO2 SLP214 T00440011
03949KAQV AQV20191230230010912/30/19 23:00:31  5-MIN KAQV 310500Z AUTO VRB03KT 10SM CLR 04/01 A3016 160 79 -1000 VRB/03 RMK AO2 T00440011
03949KAQV AQV20191230230510812/30/19 23:05:31  5-MIN KAQV 310505Z AUTO VRB03KT 10SM CLR 06/01 A3016 160 73 -900 VRB/03 RMK AO2 T00560011
03949KAQV AQV20191230231010812/30/19 23:10:31  5-MIN KAQV 310510Z AUTO 00000KT 10SM CLR 06/01 A3016 160 73 -900 000/00 RMK AO2 T00560011
03949KAQV AQV20191230231510812/30/19 23:15:31  5-MIN KAQV 310515Z AUTO VRB03KT 10SM CLR 05/01 A3016 160 73 -900 VRB/03 RMK AO2 T00500006
03949KAQV AQV20191230232010812/30/19 23:20:31  5-MIN KAQV 310520Z AUTO 00000KT 10SM CLR 05/01 A3016 160 76 -900 000/00 RMK AO2 T00500011
03949KAQV AQV20191230232510812/30/19 23:25:31  5-MIN KAQV 310525Z AUTO 00000KT 10SM CLR 05/01 A3016 150 73 -900 000/00 RMK AO2 T00500006
03949KAQV AQV20191230233010912/30/19 23:30:31  5-MIN KAQV 310530Z AUTO 00000KT 10SM CLR 04/01 A3016 160 76 -1000 000/00 RMK AO2 T00440006
03949KAQV AQV20191230233510912/30/19 23:35:31  5-MIN KAQV 310535Z AUTO 00000KT 10SM CLR 04/01 A3016 160 76 -1000 000/00 RMK AO2 T00440006
03949KAQV AQV20191230234010912/30/19 23:40:31  5-MIN KAQV 310540Z AUTO 00000KT 10SM CLR 04/01 A3016 160 76 -1000 000/00 RMK AO2 T00440006
03949KAQV AQV20191230234510912/30/19 23:45:31  5-MIN KAQV 310545Z AUTO 00000KT 10SM CLR 04/01 A3015 160 79 -1100 000/00 RMK AO2 T00390006
03949KAQV AQV20191230235010912/30/19 23:50:31  5-MIN KAQV 310550Z AUTO 00000KT 10SM CLR 04/01 A3016 160 76 -1000 000/00 RMK AO2 T00440006
03949KAQV AQV20191230235514412/30/19 23:55:31  5-MIN KAQV 310555Z AUTO 00000KT 10SM CLR 04/01 A3016 160 76 -1000 000/00 RMK AO2 SLP213 T00440006 10067 20033 401390011 51013
03949KAQV AQV20191231000010912/31/19 00:00:31  5-MIN KAQV 310600Z AUTO 00000KT 10SM CLR 04/01 A3016 160 76 -1000 000/00 RMK AO2 T00440006
03949KAQV AQV20191231000510912/31/19 00:05:31  5-MIN KAQV 310605Z AUTO 00000KT 10SM CLR 04/01 A3016 160 76 -1000 000/00 RMK AO2 T00440006
03949KAQV AQV20191231001010912/31/19 00:10:31  5-MIN KAQV 310610Z AUTO 00000KT 10SM CLR 04/01 A3016 160 76 -1000 000/00 RMK AO2 T00440006
03949KAQV AQV20191231001510912/31/19 00:15:31  5-MIN KAQV 310615Z AUTO 00000KT 10SM CLR 04/01 A3016 160 76 -1000 000/00 RMK AO2 T00440006
03949KAQV AQV20191231002010912/31/19 00:20:31  5-MIN KAQV 310620Z AUTO 00000KT 10SM CLR 04/01 A3016 160 79 -1100 000/00 RMK AO2 T00390006
03949KAQV AQV20191231002510912/31/19 00:25:31  5-MIN KAQV 310625Z AUTO 00000KT 10SM CLR 04/00 A3016 160 73 -1000 000/00 RMK AO2 T00440000
03949KAQV AQV20191231003010912/31/19 00:30:31  5-MIN KAQV 310630Z AUTO 00000KT 10SM CLR 04/00 A3016 160 76 -1100 000/00 RMK AO2 T00390000
03949KAQV AQV20191231003510912/31/19 00:35:31  5-MIN KAQV 310635Z AUTO 00000KT 10SM CLR 04/00 A3016 160 76 -1100 000/00 RMK AO2 T00390000
03949KAQV AQV20191231004010912/31/19 00:40:31  5-MIN KAQV 310640Z AUTO 00000KT 10SM CLR 04/01 A3016 160 79 -1100 000/00 RMK AO2 T00390006
03949KAQV AQV20191231004510912/31/19 00:45:31  5-MIN KAQV 310645Z AUTO 00000KT 10SM CLR 04/00 A3016 160 76 -1100 000/00 RMK AO2 T00390000
03949KAQV AQV20191231005010912/31/19 00:50:31  5-MIN KAQV 310650Z AUTO 00000KT 10SM CLR 03/01 A3015 160 82 -1100 000/00 RMK AO2 T00330006
03949KAQV AQV20191231005511612/31/19 00:55:31  5-MIN KAQV 310655Z AUTO 00000KT 10SM CLR 03/01 A3015 160 82 -1100 000/00 RMK AO2 SLP212 T00330006
03949KAQV AQV20191231010010912/31/19 01:00:31  5-MIN KAQV 310700Z AUTO 00000KT 10SM CLR 03/01 A3015 160 85 -1200 000/00 RMK AO2 T00280006
03949KAQV AQV20191231010510912/31/19 01:05:31  5-MIN KAQV 310705Z AUTO 00000KT 10SM CLR 03/01 A3015 160 85 -1200 000/00 RMK AO2 T00280006
03949KAQV AQV20191231011010912/31/19 01:10:31  5-MIN KAQV 310710Z AUTO 00000KT 10SM CLR 03/01 A3015 160 85 -1200 000/00 RMK AO2 T00280006
03949KAQV AQV20191231011510912/31/19 01:15:31  5-MIN KAQV 310715Z AUTO 00000KT 10SM CLR 03/01 A3015 160 89 -1200 000/00 RMK AO2 T00280011
03949KAQV AQV20191231012010912/31/19 01:20:31  5-MIN KAQV 310720Z AUTO 00000KT 10SM CLR 02/01 A3016 160 89 -1300 000/00 RMK AO2 T00220006
03949KAQV AQV20191231012510912/31/19 01:25:31  5-MIN KAQV 310725Z AUTO 00000KT 10SM CLR 02/01 A3016 160 89 -1300 000/00 RMK AO2 T00220006
03949KAQV AQV20191231013010912/31/19 01:30:31  5-MIN KAQV 310730Z AUTO 00000KT 10SM CLR 02/01 A3016 160 89 -1300 000/00 RMK AO2 T00220006
03949KAQV AQV20191231013510912/31/19 01:35:31  5-MIN KAQV 310735Z AUTO 00000KT 10SM CLR 02/01 A3016 160 89 -1300 000/00 RMK AO2 T00220006
03949KAQV AQV20191231014010912/31/19 01:40:31  5-MIN KAQV 310740Z AUTO 00000KT 10SM CLR 02/01 A3016 160 89 -1300 000/00 RMK AO2 T00220006
03949KAQV AQV20191231014510912/31/19 01:45:31  5-MIN KAQV 310745Z AUTO 00000KT 10SM CLR 02/01 A3016 160 89 -1300 000/00 RMK AO2 T00220006
03949KAQV AQV20191231015010912/31/19 01:50:31  5-MIN KAQV 310750Z AUTO 00000KT 10SM CLR 02/01 A3016 160 89 -1300 000/00 RMK AO2 T00220006
03949KAQV AQV20191231015511612/31/19 01:55:31  5-MIN KAQV 310755Z AUTO 00000KT 10SM CLR 02/01 A3016 160 89 -1300 000/00 RMK AO2 SLP214 T00220006
03949KAQV AQV20191231020010912/31/19 02:00:31  5-MIN KAQV 310800Z AUTO 00000KT 10SM CLR 02/01 A3016 160 89 -1300 000/00 RMK AO2 T00220006
03949KAQV AQV20191231020510912/31/19 02:05:31  5-MIN KAQV 310805Z AUTO 00000KT 10SM CLR 02/01 A3016 160 89 -1300 000/00 RMK AO2 T00220006
03949KAQV AQV20191231021010912/31/19 02:10:31  5-MIN KAQV 310810Z AUTO 00000KT 10SM CLR 02/01 A3016 160 89 -1300 000/00 RMK AO2 T00220006
03949KAQV AQV20191231021510912/31/19 02:15:31  5-MIN KAQV 310815Z AUTO 00000KT 10SM CLR 02/01 A3016 160 89 -1300 000/00 RMK AO2 T00220006
03949KAQV AQV20191231022010912/31/19 02:20:31  5-MIN KAQV 310820Z AUTO 00000KT 10SM CLR 02/01 A3016 160 89 -1300 000/00 RMK AO2 T00220006
03949KAQV AQV20191231022510912/31/19 02:25:31  5-MIN KAQV 310825Z AUTO 00000KT 10SM CLR 02/01 A3016 160 89 -1300 000/00 RMK AO2 T00220006
03949KAQV AQV20191231023010912/31/19 02:30:31  5-MIN KAQV 310830Z AUTO 00000KT 10SM CLR 02/01 A3016 150 89 -1300 000/00 RMK AO2 T00220006
03949KAQV AQV20191231023510912/31/19 02:35:31  5-MIN KAQV 310835Z AUTO 00000KT 10SM CLR 02/01 A3016 150 89 -1300 000/00 RMK AO2 T00220006
03949KAQV AQV20191231024010912/31/19 02:40:31  5-MIN KAQV 310840Z AUTO 00000KT 10SM CLR 02/01 A3016 150 89 -1300 000/00 RMK AO2 T00220006
03949KAQV AQV20191231024510912/31/19 02:45:31  5-MIN KAQV 310845Z AUTO 00000KT 10SM CLR 02/01 A3016 150 89 -1300 000/00 RMK AO2 T00220006
03949KAQV AQV20191231025010912/31/19 02:50:31  5-MIN KAQV 310850Z AUTO 00000KT 10SM CLR 02/00 A3017 150 89 -1300 000/00 RMK AO2 T00170000
03949KAQV AQV20191231025512212/31/19 02:55:31  5-MIN KAQV 310855Z AUTO 00000KT 10SM CLR 02/00 A3017 150 89 -1300 000/00 RMK AO2 SLP217 T00170000 50006
03949KAQV AQV20191231030010912/31/19 03:00:31  5-MIN KAQV 310900Z AUTO 00000KT 10SM CLR 02/01 A3017 150 92 -1400 000/00 RMK AO2 T00170006
03949KAQV AQV20191231030510912/31/19 03:05:31  5-MIN KAQV 310905Z AUTO 00000KT 10SM CLR 02/01 A3017 150 89 -1300 000/00 RMK AO2 T00220006
03949KAQV AQV20191231031010912/31/19 03:10:31  5-MIN KAQV 310910Z AUTO 00000KT 10SM CLR 02/01 A3017 150 89 -1300 000/00 RMK AO2 T00220006
03949KAQV AQV20191231031510912/31/19 03:15:31  5-MIN KAQV 310915Z AUTO 00000KT 10SM CLR 02/01 A3017 150 89 -1300 000/00 RMK AO2 T00220006
03949KAQV AQV20191231032010912/31/19 03:20:31  5-MIN KAQV 310920Z AUTO 00000KT 10SM CLR 02/01 A3017 150 92 -1400 000/00 RMK AO2 T00170006
03949KAQV AQV20191231032510912/31/19 03:25:31  5-MIN KAQV 310925Z AUTO 00000KT 10SM CLR 02/01 A3017 150 92 -1400 000/00 RMK AO2 T00170006
03949KAQV AQV20191231033010912/31/19 03:30:31  5-MIN KAQV 310930Z AUTO 00000KT 10SM CLR 02/00 A3017 140 85 -1300 000/00 RMK AO2 T00220000
03949KAQV AQV20191231033510912/31/19 03:35:31  5-MIN KAQV 310935Z AUTO 00000KT 10SM CLR 02/00 A3017 140 89 -1400 000/00 RMK AO2 T00170000
03949KAQV AQV20191231034010912/31/19 03:40:31  5-MIN KAQV 310940Z AUTO 00000KT 10SM CLR 02/00 A3017 140 89 -1400 000/00 RMK AO2 T00170000
03949KAQV AQV20191231034510912/31/19 03:45:31  5-MIN KAQV 310945Z AUTO 00000KT 10SM CLR 02/00 A3018 140 89 -1400 000/00 RMK AO2 T00170000
03949KAQV AQV20191231035010912/31/19 03:50:31  5-MIN KAQV 310950Z AUTO 00000KT 10SM CLR 02/00 A3018 140 89 -1400 000/00 RMK AO2 T00170000
03949KAQV AQV20191231035511612/31/19 03:55:31  5-MIN KAQV 310955Z AUTO 00000KT 10SM CLR 01/00 A3017 140 92 -1400 000/00 RMK AO2 SLP219 T00110000
03949KAQV AQV20191231040010912/31/19 04:00:31  5-MIN KAQV 311000Z AUTO 00000KT 10SM CLR 01/00 A3017 140 92 -1400 000/00 RMK AO2 T00110000
03949KAQV AQV20191231040510912/31/19 04:05:31  5-MIN KAQV 311005Z AUTO 00000KT 10SM CLR 01/00 A3017 140 92 -1400 000/00 RMK AO2 T00110000
03949KAQV AQV20191231041010912/31/19 04:10:31  5-MIN KAQV 311010Z AUTO 00000KT 10SM CLR 01/00 A3017 140 92 -1400 000/00 RMK AO2 T00110000
03949KAQV AQV20191231041510912/31/19 04:15:31  5-MIN KAQV 311015Z AUTO 00000KT 10SM CLR 01/00 A3018 140 92 -1400 000/00 RMK AO2 T00110000
03949KAQV AQV20191231042011012/31/19 04:20:31  5-MIN KAQV 311020Z AUTO 00000KT 10SM CLR 01/M01 A3017 140 89 -1400 000/00 RMK AO2 T00111006
03949KAQV AQV20191231042511012/31/19 04:25:31  5-MIN KAQV 311025Z AUTO 00000KT 10SM CLR 01/M01 A3018 140 89 -1400 000/00 RMK AO2 T00111006
03949KAQV AQV20191231043011012/31/19 04:30:31  5-MIN KAQV 311030Z AUTO 00000KT 10SM CLR 01/M01 A3018 140 92 -1500 000/00 RMK AO2 T00061006
03949KAQV AQV20191231043511012/31/19 04:35:31  5-MIN KAQV 311035Z AUTO 00000KT 10SM CLR 01/M01 A3018 140 92 -1500 000/00 RMK AO2 T00061006
03949KAQV AQV20191231044011012/31/19 04:40:31  5-MIN KAQV 311040Z AUTO 00000KT 10SM CLR 01/M01 A3018 140 92 -1500 000/00 RMK AO2 T00061006
03949KAQV AQV20191231044511012/31/19 04:45:31  5-MIN KAQV 311045Z AUTO 00000KT 10SM CLR 01/M01 A3019 130 92 -1500 000/00 RMK AO2 T00061006
03949KAQV AQV20191231045011012/31/19 04:50:31  5-MIN KAQV 311050Z AUTO 00000KT 10SM CLR 01/M01 A3019 130 92 -1500 000/00 RMK AO2 T00061006
03949KAQV AQV20191231045511712/31/19 04:55:31  5-MIN KAQV 311055Z AUTO 00000KT 10SM CLR 01/M01 A3018 130 92 -1500 000/00 RMK AO2 SLP224 T00061006
03949KAQV AQV20191231050011012/31/19 05:00:31  5-MIN KAQV 311100Z AUTO 00000KT 10SM CLR 01/M01 A3018 130 92 -1500 000/00 RMK AO2 T00061006
03949KAQV AQV20191231050511012/31/19 05:05:31  5-MIN KAQV 311105Z AUTO 00000KT 10SM CLR 01/M01 A3018 130 92 -1500 000/00 RMK AO2 T00061006
03949KAQV AQV20191231051011012/31/19 05:10:31  5-MIN KAQV 311110Z AUTO 00000KT 10SM CLR 01/M01 A3019 130 92 -1500 000/00 RMK AO2 T00061006
03949KAQV AQV20191231051511012/31/19 05:15:31  5-MIN KAQV 311115Z AUTO 00000KT 10SM CLR 01/M01 A3019 130 92 -1500 000/00 RMK AO2 T00061006
03949KAQV AQV20191231052011012/31/19 05:20:31  5-MIN KAQV 311120Z AUTO 00000KT 10SM CLR 01/M01 A3019 130 92 -1500 000/00 RMK AO2 T00061006
03949KAQV AQV20191231052511012/31/19 05:25:31  5-MIN KAQV 311125Z AUTO 00000KT 10SM CLR 01/M01 A3019 130 92 -1500 000/00 RMK AO2 T00061006
03949KAQV AQV20191231053011012/31/19 05:30:31  5-MIN KAQV 311130Z AUTO 00000KT 10SM CLR 01/M01 A3019 120 92 -1500 000/00 RMK AO2 T00061006
03949KAQV AQV20191231053511012/31/19 05:35:31  5-MIN KAQV 311135Z AUTO 00000KT 10SM CLR 01/M01 A3020 120 92 -1500 000/00 RMK AO2 T00061006
03949KAQV AQV20191231054011012/31/19 05:40:31  5-MIN KAQV 311140Z AUTO 00000KT 10SM CLR 01/M01 A3020 120 92 -1500 000/00 RMK AO2 T00061006
03949KAQV AQV20191231054511012/31/19 05:45:31  5-MIN KAQV 311145Z AUTO 00000KT 10SM CLR 01/M01 A3020 120 92 -1500 000/00 RMK AO2 T00061006
03949KAQV AQV20191231055011012/31/19 05:50:31  5-MIN KAQV 311150Z AUTO 00000KT 10SM CLR 01/M01 A3020 120 89 -1500 000/00 RMK AO2 T00061011
03949KAQV AQV20191231055513512/31/19 05:55:31  5-MIN KAQV 311155Z AUTO 00000KT 10SM CLR 01/M01 A3020 120 92 -1500 000/00 RMK AO2 SLP230 T00061006 10044 20006 53003
03949KAQV AQV20191231060011012/31/19 06:00:31  5-MIN KAQV 311200Z AUTO 00000KT 10SM CLR 01/M01 A3021 110 92 -1500 000/00 RMK AO2 T00061006
03949KAQV AQV20191231060511012/31/19 06:05:31  5-MIN KAQV 311205Z AUTO 00000KT 10SM CLR 01/M01 A3021 110 92 -1500 000/00 RMK AO2 T00061006
03949KAQV AQV20191231061011012/31/19 06:10:31  5-MIN KAQV 311210Z AUTO 00000KT 10SM CLR 01/M01 A3021 110 92 -1500 000/00 RMK AO2 T00061006
03949KAQV AQV20191231061511012/31/19 06:15:31  5-MIN KAQV 311215Z AUTO 00000KT 10SM CLR 01/M01 A3021 110 92 -1500 000/00 RMK AO2 T00061006
03949KAQV AQV20191231062011012/31/19 06:20:31  5-MIN KAQV 311220Z AUTO 00000KT 10SM CLR 01/M01 A3021 110 92 -1500 000/00 RMK AO2 T00061006
03949KAQV AQV20191231062511012/31/19 06:25:31  5-MIN KAQV 311225Z AUTO 00000KT 10SM CLR 01/M01 A3021 110 92 -1500 000/00 RMK AO2 T00061006
03949KAQV AQV20191231063011012/31/19 06:30:31  5-MIN KAQV 311230Z AUTO 00000KT 10SM CLR 01/M01 A3021 110 92 -1500 000/00 RMK AO2 T00061006
03949KAQV AQV20191231063511012/31/19 06:35:31  5-MIN KAQV 311235Z AUTO 00000KT 10SM CLR 01/M01 A3021 110 92 -1500 000/00 RMK AO2 T00061006
03949KAQV AQV20191231064011012/31/19 06:40:31  5-MIN KAQV 311240Z AUTO 00000KT 10SM CLR 01/M01 A3021 110 89 -1500 000/00 RMK AO2 T00061011
03949KAQV AQV20191231064511012/31/19 06:45:31  5-MIN KAQV 311245Z AUTO 00000KT 10SM CLR 01/M01 A3022 100 89 -1500 000/00 RMK AO2 T00061011
03949KAQV AQV20191231065011012/31/19 06:50:31  5-MIN KAQV 311250Z AUTO 00000KT 10SM CLR 00/M01 A3022 100 92 -1600 000/00 RMK AO2 T00001011
03949KAQV AQV20191231065511712/31/19 06:55:31  5-MIN KAQV 311255Z AUTO 00000KT 10SM CLR 00/M01 A3022 100 92 -1600 000/00 RMK AO2 SLP236 T00001011
03949KAQV AQV20191231070011012/31/19 07:00:31  5-MIN KAQV 311300Z AUTO 00000KT 10SM CLR 00/M01 A3022 100 92 -1600 000/00 RMK AO2 T00001011
03949KAQV AQV20191231070511012/31/19 07:05:31  5-MIN KAQV 311305Z AUTO 00000KT 10SM CLR 01/M01 A3022 100 89 -1600 000/00 RMK AO2 T00061011
03949KAQV AQV20191231071011012/31/19 07:10:31  5-MIN KAQV 311310Z AUTO 00000KT 10SM CLR 01/M01 A3022 100 89 -1600 000/00 RMK AO2 T00061011
03949KAQV AQV20191231071511012/31/19 07:15:31  5-MIN KAQV 311315Z AUTO 00000KT 10SM CLR 01/M01 A3022 100 89 -1600 000/00 RMK AO2 T00061011
03949KAQV AQV20191231072011012/31/19 07:20:31  5-MIN KAQV 311320Z AUTO 00000KT 10SM CLR 01/M01 A3022 100 89 -1600 000/00 RMK AO2 T00061011
03949KAQV AQV20191231072511012/31/19 07:25:31  5-MIN KAQV 311325Z AUTO 00000KT 10SM CLR 01/M01 A3022 100 89 -1600 000/00 RMK AO2 T00061011
03949KAQV AQV20191231073011012/31/19 07:30:31  5-MIN KAQV 311330Z AUTO 00000KT 10SM CLR 01/M01 A3022 100 92 -1600 000/00 RMK AO2 T00061006
03949KAQV AQV20191231073511012/31/19 07:35:31  5-MIN KAQV 311335Z AUTO 00000KT 10SM CLR 01/M01 A3022 100 92 -1600 000/00 RMK AO2 T00061006
03949KAQV AQV20191231074011012/31/19 07:40:31  5-MIN KAQV 311340Z AUTO 00000KT 10SM CLR 01/M01 A3023 100 92 -1600 000/00 RMK AO2 T00061006
03949KAQV AQV20191231074511012/31/19 07:45:31  5-MIN KAQV 311345Z AUTO 00000KT 10SM CLR 01/M01 A3022 100 89 -1500 000/00 RMK AO2 T00111006
03949KAQV AQV20191231075010912/31/19 07:50:31  5-MIN KAQV 311350Z AUTO 00000KT 10SM CLR 01/M01 A3023 90 89 -1500 000/00 RMK AO2 T00111006
03949KAQV AQV20191231075511512/31/19 07:55:31  5-MIN KAQV 311355Z AUTO 00000KT 10SM CLR 02/00 A3023 90 89 -1400 000/00 RMK AO2 SLP240 T00170000
03949KAQV AQV20191231080010812/31/19 08:00:31  5-MIN KAQV 311400Z AUTO 00000KT 10SM CLR 03/00 A3023 90 82 -1300 000/00 RMK AO2 T00280000
03949KAQV AQV20191231080510812/31/19 08:05:31  5-MIN KAQV 311405Z AUTO 00000KT 10SM CLR 03/00 A3023 90 82 -1300 000/00 RMK AO2 T00280000
03949KAQV AQV20191231081010812/31/19 08:10:31  5-MIN KAQV 311410Z AUTO 00000KT 10SM CLR 03/00 A3024 90 79 -1200 000/00 RMK AO2 T00330000
03949KAQV AQV20191231081510812/31/19 08:15:31  5-MIN KAQV 311415Z AUTO 00000KT 10SM CLR 04/01 A3024 90 79 -1200 000/00 RMK AO2 T00390006
03949KAQV AQV20191231082010812/31/19 08:20:31  5-MIN KAQV 311420Z AUTO 00000KT 10SM CLR 04/01 A3024 90 76 -1100 000/00 RMK AO2 T00440006
03949KAQV AQV20191231082510812/31/19 08:25:31  5-MIN KAQV 311425Z AUTO 00000KT 10SM CLR 05/01 A3024 80 73 -1000 000/00 RMK AO2 T00500006
03949KAQV AQV20191231083010812/31/19 08:30:31  5-MIN KAQV 311430Z AUTO 31003KT 10SM CLR 05/00 A3024 80 70 -1000 310/03 RMK AO2 T00500000
03949KAQV AQV20191231083510712/31/19 08:35:31  5-MIN KAQV 311435Z AUTO 00000KT 10SM CLR 06/00 A3024 80 67 -900 000/00 RMK AO2 T00560000
03949KAQV AQV20191231084010812/31/19 08:40:31  5-MIN KAQV 311440Z AUTO 00000KT 10SM CLR 06/00 A3024 80 67 -1000 000/00 RMK AO2 T00560000
03949KAQV AQV20191231084510812/31/19 08:45:31  5-MIN KAQV 311445Z AUTO VRB03KT 10SM CLR 06/M01 A3025 80 62 -900 VRB/03 RMK AO2 T00611006
03949KAQV AQV20191231085010812/31/19 08:50:31  5-MIN KAQV 311450Z AUTO VRB03KT 10SM CLR 06/M01 A3025 80 60 -900 VRB/03 RMK AO2 T00611011
03949KAQV AQV20191231085512112/31/19 08:55:31  5-MIN KAQV 311455Z AUTO 00000KT 10SM CLR 06/M01 A3025 70 62 -900 000/00 RMK AO2 SLP246 T00611006 53013
03949KAQV AQV20191231090010812/31/19 09:00:31  5-MIN KAQV 311500Z AUTO VRB03KT 10SM CLR 06/M01 A3025 70 62 -900 VRB/03 RMK AO2 T00611006
03949KAQV AQV20191231090510812/31/19 09:05:31  5-MIN KAQV 311505Z AUTO VRB03KT 10SM CLR 07/M01 A3026 70 60 -800 VRB/03 RMK AO2 T00671006
03949KAQV AQV20191231091010812/31/19 09:10:31  5-MIN KAQV 311510Z AUTO 00000KT 10SM CLR 07/M01 A3026 70 57 -800 000/00 RMK AO2 T00671011
03949KAQV AQV20191231091510812/31/19 09:15:31  5-MIN KAQV 311515Z AUTO VRB05KT 10SM CLR 07/M01 A3026 70 57 -800 VRB/05 RMK AO2 T00721006
03949KAQV AQV20191231092010812/31/19 09:20:31  5-MIN KAQV 311520Z AUTO 33004KT 10SM CLR 07/M01 A3026 70 57 -800 330/04 RMK AO2 T00721006
03949KAQV AQV20191231092510812/31/19 09:25:31  5-MIN KAQV 311525Z AUTO VRB03KT 10SM CLR 07/M01 A3026 60 55 -800 VRB/03 RMK AO2 T00721011
03949KAQV AQV20191231093010812/31/19 09:30:31  5-MIN KAQV 311530Z AUTO 00000KT 10SM CLR 08/M01 A3026 60 55 -700 000/00 RMK AO2 T00781006
03949KAQV AQV20191231093510812/31/19 09:35:31  5-MIN KAQV 311535Z AUTO 00000KT 10SM CLR 08/M01 A3027 60 55 -700 000/00 RMK AO2 T00781006
03949KAQV AQV20191231094010812/31/19 09:40:31  5-MIN KAQV 311540Z AUTO VRB03KT 10SM CLR 08/M01 A3027 60 53 -600 VRB/03 RMK AO2 T00831006
03949KAQV AQV20191231094510812/31/19 09:45:31  5-MIN KAQV 311545Z AUTO 00000KT 10SM CLR 08/M01 A3027 60 53 -600 000/00 RMK AO2 T00831006
03949KAQV AQV20191231095010812/31/19 09:50:31  5-MIN KAQV 311550Z AUTO 00000KT 10SM CLR 09/M01 A3027 60 49 -600 000/00 RMK AO2 T00891011
03949KAQV AQV20191231095511512/31/19 09:55:31  5-MIN KAQV 311555Z AUTO 35003KT 10SM CLR 09/M01 A3027 60 47 -500 350/03 RMK AO2 SLP250 T00941011
03949KAQV AQV20191231100010812/31/19 10:00:31  5-MIN KAQV 311600Z AUTO VRB03KT 10SM CLR 09/M01 A3027 60 47 -500 VRB/03 RMK AO2 T00941011
03949KAQV AQV20191231100510812/31/19 10:05:31  5-MIN KAQV 311605Z AUTO VRB03KT 10SM CLR 09/M02 A3027 60 45 -500 VRB/03 RMK AO2 T00941017
03949KAQV AQV20191231101010812/31/19 10:10:31  5-MIN KAQV 311610Z AUTO VRB03KT 10SM CLR 10/M01 A3027 50 46 -400 VRB/03 RMK AO2 T01001011
03949KAQV AQV20191231101510812/31/19 10:15:31  5-MIN KAQV 311615Z AUTO VRB04KT 10SM CLR 10/M02 A3027 50 44 -400 VRB/04 RMK AO2 T01001017
03949KAQV AQV20191231102010812/31/19 10:20:31  5-MIN KAQV 311620Z AUTO VRB04KT 10SM CLR 10/M02 A3027 50 42 -400 VRB/04 RMK AO2 T01001022
03949KAQV AQV20191231102510812/31/19 10:25:31  5-MIN KAQV 311625Z AUTO VRB04KT 10SM CLR 11/M02 A3027 50 42 -400 VRB/04 RMK AO2 T01061017
03949KAQV AQV20191231103010812/31/19 10:30:31  5-MIN KAQV 311630Z AUTO VRB03KT 10SM CLR 11/M02 A3027 50 40 -400 VRB/03 RMK AO2 T01061022
03949KAQV AQV20191231103510812/31/19 10:35:31  5-MIN KAQV 311635Z AUTO VRB03KT 10SM CLR 11/M03 A3027 60 37 -400 VRB/03 RMK AO2 T01061033
03949KAQV AQV20191231104010812/31/19 10:40:31  5-MIN KAQV 311640Z AUTO VRB04KT 10SM CLR 11/M04 A3027 60 36 -400 VRB/04 RMK AO2 T01061039
03949KAQV AQV20191231104510812/31/19 10:45:31  5-MIN KAQV 311645Z AUTO VRB05KT 10SM CLR 11/M04 A3026 60 36 -400 VRB/05 RMK AO2 T01061039
03949KAQV AQV20191231105010812/31/19 10:50:31  5-MIN KAQV 311650Z AUTO VRB06KT 10SM CLR 11/M04 A3026 60 34 -300 VRB/06 RMK AO2 T01111039
03949KAQV AQV20191231105511512/31/19 10:55:31  5-MIN KAQV 311655Z AUTO VRB03KT 10SM CLR 11/M04 A3026 70 34 -300 VRB/03 RMK AO2 SLP248 T01111039
03949KAQV AQV20191231110010812/31/19 11:00:31  5-MIN KAQV 311700Z AUTO 01007KT 10SM CLR 12/M03 A3025 70 36 -200 360/07 RMK AO2 T01171028
03949KAQV AQV20191231110510812/31/19 11:05:31  5-MIN KAQV 311705Z AUTO VRB05KT 10SM CLR 11/M03 A3025 80 36 -300 VRB/05 RMK AO2 T01111033
03949KAQV AQV20191231111010812/31/19 11:10:31  5-MIN KAQV 311710Z AUTO VRB04KT 10SM CLR 12/M02 A3024 80 38 -200 VRB/04 RMK AO2 T01171022
03949KAQV AQV20191231111510812/31/19 11:15:31  5-MIN KAQV 311715Z AUTO VRB05KT 10SM CLR 12/M03 A3024 80 35 -100 VRB/05 RMK AO2 T01221028
03949KAQV AQV20191231112010812/31/19 11:20:31  5-MIN KAQV 311720Z AUTO 00000KT 10SM CLR 12/M03 A3023 90 35 -100 000/00 RMK AO2 T01221028
03949KAQV AQV20191231112510812/31/19 11:25:31  5-MIN KAQV 311725Z AUTO VRB04KT 10SM CLR 12/M02 A3023 90 36 -100 VRB/04 RMK AO2 T01221022
03949KAQV AQV20191231113010812/31/19 11:30:31  5-MIN KAQV 311730Z AUTO VRB05KT 10SM CLR 12/M03 A3024 80 35 -100 VRB/05 RMK AO2 T01221028
03949KAQV AQV20191231113510812/31/19 11:35:31  5-MIN KAQV 311735Z AUTO 00000KT 10SM CLR 12/M02 A3024 80 36 -100 000/00 RMK AO2 T01221022
03949KAQV AQV20191231114009812/31/19 11:40:31  5-MIN KAQV 311740Z AUTO 10SM CLR 12/M03 A3023 90 35 -100 M /M RMK AO2 T01221028
03949KAQV AQV20191231114510912/31/19 11:45:31  5-MIN KAQV 311745Z AUTO VRB05KT 10SM CLR 12/M03 A3022 100 35 -100 VRB/05 RMK AO2 T01221028
03949KAQV AQV20191231115011612/31/19 11:50:31  5-MIN KAQV 311750Z AUTO VRB05KT 10SM CLR 12/M03 A3021 110 35 -100 VRB/05 RMK AO2 PRESFR T01221028
03949KAQV AQV20191231115513412/31/19 11:55:31  5-MIN KAQV 311755Z AUTO 36006KT 10SM CLR 12/M02 A3021 110 36 -100 360/06 RMK AO2 SLP232 T01221022 10128 20000 53016
03949KAQV AQV20191231120010912/31/19 12:00:31  5-MIN KAQV 311800Z AUTO VRB03KT 10SM CLR 12/M03 A3021 110 35 -100 VRB/03 RMK AO2 T01221028
03949KAQV AQV20191231120510612/31/19 12:05:31  5-MIN KAQV 311805Z AUTO 00000KT 10SM CLR 13/M02 A3021 110 34 0 000/00 RMK AO2 T01331022
03949KAQV AQV20191231121010612/31/19 12:10:31  5-MIN KAQV 311810Z AUTO 00000KT 10SM CLR 13/M03 A3020 120 33 0 000/00 RMK AO2 T01281028
03949KAQV AQV20191231121510612/31/19 12:15:31  5-MIN KAQV 311815Z AUTO VRB04KT 10SM CLR 13/M02 A3019 120 34 0 VRB/04 RMK AO2 T01331022
03949KAQV AQV20191231122010612/31/19 12:20:31  5-MIN KAQV 311820Z AUTO 00000KT 10SM CLR 13/M03 A3019 130 33 0 000/00 RMK AO2 T01281028
03949KAQV AQV20191231122510612/31/19 12:25:31  5-MIN KAQV 311825Z AUTO VRB03KT 10SM CLR 13/M03 A3019 130 32 0 VRB/03 RMK AO2 T01331028
03949KAQV AQV20191231123010612/31/19 12:30:31  5-MIN KAQV 311830Z AUTO 34005KT 10SM CLR 13/M03 A3019 130 32 0 330/05 RMK AO2 T01331028
03949KAQV AQV20191231123510612/31/19 12:35:31  5-MIN KAQV 311835Z AUTO 35005KT 10SM CLR 13/M03 A3019 130 31 0 340/05 RMK AO2 T01331033
03949KAQV AQV20191231124010612/31/19 12:40:31  5-MIN KAQV 311840Z AUTO VRB03KT 10SM CLR 13/M03 A3019 130 32 0 VRB/03 RMK AO2 T01331028
03949KAQV AQV20191231124510612/31/19 12:45:31  5-MIN KAQV 311845Z AUTO VRB04KT 10SM CLR 13/M03 A3019 130 32 0 VRB/04 RMK AO2 T01331028
03949KAQV AQV20191231125010612/31/19 12:50:31  5-MIN KAQV 311850Z AUTO VRB04KT 10SM CLR 13/M03 A3018 130 32 0 VRB/04 RMK AO2 T01331028
03949KAQV AQV20191231125511312/31/19 12:55:31  5-MIN KAQV 311855Z AUTO VRB03KT 10SM CLR 13/M03 A3018 140 31 0 VRB/03 RMK AO2 SLP222 T01331033
03949KAQV AQV20191231130010612/31/19 13:00:31  5-MIN KAQV 311900Z AUTO VRB03KT 10SM CLR 13/M03 A3018 140 32 0 VRB/03 RMK AO2 T01331028
03949KAQV AQV20191231130510812/31/19 13:05:31  5-MIN KAQV 311905Z AUTO VRB03KT 10SM CLR 14/M03 A3017 150 31 100 VRB/03 RMK AO2 T01391028
03949KAQV AQV20191231131010812/31/19 13:10:31  5-MIN KAQV 311910Z AUTO 34005KT 10SM CLR 14/M03 A3017 150 30 200 340/05 RMK AO2 T01441028
03949KAQV AQV20191231131509612/31/19 13:15:31  5-MIN KAQV 311915Z AUTO 10SM CLR 13/M03 A3017 150 32 0 M /M RMK AO2 T01331028
03949KAQV AQV20191231132009612/31/19 13:20:31  5-MIN KAQV 311920Z AUTO 10SM CLR 13/M03 A3016 150 32 0 M /M RMK AO2 T01331028
03949KAQV AQV20191231132510812/31/19 13:25:31  5-MIN KAQV 311925Z AUTO VRB04KT 10SM CLR 14/M03 A3016 150 31 100 VRB/04 RMK AO2 T01391028
03949KAQV AQV20191231133010812/31/19 13:30:31  5-MIN KAQV 311930Z AUTO 00000KT 10SM CLR 14/M02 A3017 150 32 100 000/00 RMK AO2 T01391022
03949KAQV AQV20191231133510612/31/19 13:35:31  5-MIN KAQV 311935Z AUTO VRB04KT 10SM CLR 13/M03 A3017 150 31 0 VRB/04 RMK AO2 T01331033
03949KAQV AQV20191231134010812/31/19 13:40:31  5-MIN KAQV 311940Z AUTO VRB03KT 10SM CLR 14/M03 A3016 150 31 100 VRB/03 RMK AO2 T01391028
03949KAQV AQV20191231134510812/31/19 13:45:31  5-MIN KAQV 311945Z AUTO VRB03KT 10SM CLR 14/M02 A3016 160 32 100 VRB/03 RMK AO2 T01391022
03949KAQV AQV20191231135010812/31/19 13:50:31  5-MIN KAQV 311950Z AUTO VRB03KT 10SM CLR 14/M02 A3016 160 32 100 VRB/03 RMK AO2 T01391022
03949KAQV AQV20191231135510512/31/19 13:55:31  5-MIN KAQV 311955Z AUTO 10SM CLR 14/M02 A3016 160 32 100 M /M RMK AO2 SLP214 T01391022
03949KAQV AQV20191231140010812/31/19 14:00:31  5-MIN KAQV 312000Z AUTO VRB04KT 10SM CLR 14/M02 A3016 160 31 200 VRB/04 RMK AO2 T01441022
03949KAQV AQV20191231140510812/31/19 14:05:31  5-MIN KAQV 312005Z AUTO 00000KT 10SM CLR 14/M03 A3015 160 30 200 000/00 RMK AO2 T01441028
03949KAQV AQV20191231141010812/31/19 14:10:31  5-MIN KAQV 312010Z AUTO VRB04KT 10SM CLR 14/M03 A3015 170 30 200 VRB/04 RMK AO2 T01441028
03949KAQV AQV20191231141510812/31/19 14:15:31  5-MIN KAQV 312015Z AUTO 00000KT 10SM CLR 14/M03 A3015 160 30 200 000/00 RMK AO2 T01441028
03949KAQV AQV20191231142010812/31/19 14:20:31  5-MIN KAQV 312020Z AUTO 00000KT 10SM CLR 14/M02 A3015 160 31 200 000/00 RMK AO2 T01441022
03949KAQV AQV20191231142510812/31/19 14:25:31  5-MIN KAQV 312025Z AUTO VRB03KT 10SM CLR 14/M02 A3014 170 31 200 VRB/03 RMK AO2 T01441022
03949KAQV AQV20191231143010812/31/19 14:30:31  5-MIN KAQV 312030Z AUTO VRB03KT 10SM CLR 14/M02 A3014 170 31 200 VRB/03 RMK AO2 T01441022
03949KAQV AQV20191231143510812/31/19 14:35:31  5-MIN KAQV 312035Z AUTO 29005KT 10SM CLR 14/M03 A3014 180 30 200 290/05 RMK AO2 T01441028
03949KAQV AQV20191231144010812/31/19 14:40:31  5-MIN KAQV 312040Z AUTO VRB03KT 10SM CLR 14/M03 A3014 180 30 100 VRB/03 RMK AO2 T01391033
03949KAQV AQV20191231144510812/31/19 14:45:31  5-MIN KAQV 312045Z AUTO 00000KT 10SM CLR 14/M03 A3014 180 30 200 000/00 RMK AO2 T01441028
03949KAQV AQV20191231145010812/31/19 14:50:31  5-MIN KAQV 312050Z AUTO 36005KT 10SM CLR 14/M02 A3013 180 31 200 360/05 RMK AO2 T01441022
03949KAQV AQV20191231145512112/31/19 14:55:31  5-MIN KAQV 312055Z AUTO 36003KT 10SM CLR 14/M03 A3013 180 30 200 350/03 RMK AO2 SLP205 T01441028 58013
03949KAQV AQV20191231150010812/31/19 15:00:31  5-MIN KAQV 312100Z AUTO VRB03KT 10SM CLR 14/M03 A3013 180 30 200 VRB/03 RMK AO2 T01441028
03949KAQV AQV20191231150510812/31/19 15:05:31  5-MIN KAQV 312105Z AUTO 00000KT 10SM CLR 14/M03 A3013 180 29 200 000/00 RMK AO2 T01441033
03949KAQV AQV20191231151010812/31/19 15:10:31  5-MIN KAQV 312110Z AUTO VRB03KT 10SM CLR 14/M03 A3013 180 31 100 VRB/03 RMK AO2 T01391028
03949KAQV AQV20191231151510812/31/19 15:15:31  5-MIN KAQV 312115Z AUTO 00000KT 10SM CLR 14/M03 A3013 180 29 200 000/00 RMK AO2 T01441033
03949KAQV AQV20191231152010812/31/19 15:20:31  5-MIN KAQV 312120Z AUTO 35004KT 10SM CLR 14/M02 A3013 180 31 200 350/04 RMK AO2 T01441022
03949KAQV AQV20191231152510812/31/19 15:25:31  5-MIN KAQV 312125Z AUTO 00000KT 10SM CLR 14/M02 A3014 180 31 200 000/00 RMK AO2 T01441022
03949KAQV AQV20191231153010812/31/19 15:30:31  5-MIN KAQV 312130Z AUTO VRB03KT 10SM CLR 14/M02 A3013 180 31 200 VRB/03 RMK AO2 T01441022
03949KAQV AQV20191231153510812/31/19 15:35:31  5-MIN KAQV 312135Z AUTO 00000KT 10SM CLR 14/M02 A3013 180 31 200 000/00 RMK AO2 T01441022
03949KAQV AQV20191231154010812/31/19 15:40:31  5-MIN KAQV 312140Z AUTO VRB04KT 10SM CLR 14/M03 A3014 180 30 100 VRB/04 RMK AO2 T01391033
03949KAQV AQV20191231154510812/31/19 15:45:31  5-MIN KAQV 312145Z AUTO VRB04KT 10SM CLR 14/M03 A3014 170 31 100 VRB/04 RMK AO2 T01391028
03949KAQV AQV20191231155010812/31/19 15:50:31  5-MIN KAQV 312150Z AUTO 35003KT 10SM CLR 14/M03 A3014 170 30 100 340/03 RMK AO2 T01391033
03949KAQV AQV20191231155511512/31/19 15:55:31  5-MIN KAQV 312155Z AUTO 00000KT 10SM CLR 14/M03 A3014 170 31 100 000/00 RMK AO2 SLP207 T01391028
03949KAQV AQV20191231160010812/31/19 16:00:31  5-MIN KAQV 312200Z AUTO 27003KT 10SM CLR 14/M02 A3014 170 32 100 260/03 RMK AO2 T01391022
03949KAQV AQV20191231160510812/31/19 16:05:31  5-MIN KAQV 312205Z AUTO VRB03KT 10SM CLR 13/M03 A3014 170 32 100 VRB/03 RMK AO2 T01331028
03949KAQV AQV20191231161010812/31/19 16:10:31  5-MIN KAQV 312210Z AUTO VRB03KT 10SM CLR 14/M03 A3014 170 31 100 VRB/03 RMK AO2 T01391028
03949KAQV AQV20191231161510812/31/19 16:15:31  5-MIN KAQV 312215Z AUTO 00000KT 10SM CLR 14/M03 A3014 170 30 100 000/00 RMK AO2 T01391033
03949KAQV AQV20191231162010812/31/19 16:20:31  5-MIN KAQV 312220Z AUTO 00000KT 10SM CLR 14/M03 A3014 170 30 100 000/00 RMK AO2 T01391033
03949KAQV AQV20191231162510812/31/19 16:25:31  5-MIN KAQV 312225Z AUTO 00000KT 10SM CLR 13/M03 A3014 170 32 100 000/00 RMK AO2 T01331028
03949KAQV AQV20191231163010812/31/19 16:30:31  5-MIN KAQV 312230Z AUTO 00000KT 10SM CLR 13/M02 A3014 170 34 100 000/00 RMK AO2 T01331022
03949KAQV AQV20191231163510612/31/19 16:35:31  5-MIN KAQV 312235Z AUTO 00000KT 10SM CLR 13/M02 A3014 170 36 0 000/00 RMK AO2 T01281017
03949KAQV AQV20191231164010612/31/19 16:40:31  5-MIN KAQV 312240Z AUTO 00000KT 10SM CLR 12/M01 A3014 170 39 0 000/00 RMK AO2 T01221011
03949KAQV AQV20191231164510912/31/19 16:45:31  5-MIN KAQV 312245Z AUTO 00000KT 10SM CLR 12/M01 A3014 170 42 -100 000/00 RMK AO2 T01171006
03949KAQV AQV20191231165010912/31/19 16:50:31  5-MIN KAQV 312250Z AUTO 00000KT 10SM CLR 12/M01 A3014 170 41 -100 000/00 RMK AO2 T01171011
03949KAQV AQV20191231165511512/31/19 16:55:31  5-MIN KAQV 312255Z AUTO 00000KT 10SM CLR 11/00 A3014 170 48 -200 000/00 RMK AO2 SLP209 T01060000
03949KAQV AQV20191231170010812/31/19 17:00:31  5-MIN KAQV 312300Z AUTO 00000KT 10SM CLR 10/01 A3014 180 54 -300 000/00 RMK AO2 T01000011
03949KAQV AQV20191231170510812/31/19 17:05:31  5-MIN KAQV 312305Z AUTO 00000KT 10SM CLR 09/01 A3014 180 53 -400 000/00 RMK AO2 T00940006
03949KAQV AQV20191231171010812/31/19 17:10:31  5-MIN KAQV 312310Z AUTO 00000KT 10SM CLR 09/01 A3014 180 56 -400 000/00 RMK AO2 T00890006
03949KAQV AQV20191231171510812/31/19 17:15:31  5-MIN KAQV 312315Z AUTO 00000KT 10SM CLR 09/01 A3014 180 58 -400 000/00 RMK AO2 T00890011
03949KAQV AQV20191231172010812/31/19 17:20:31  5-MIN KAQV 312320Z AUTO 00000KT 10SM CLR 08/01 A3014 180 60 -500 000/00 RMK AO2 T00830011
03949KAQV AQV20191231172510812/31/19 17:25:31  5-MIN KAQV 312325Z AUTO 00000KT 10SM CLR 08/01 A3014 170 60 -500 000/00 RMK AO2 T00830011
03949KAQV AQV20191231173010812/31/19 17:30:31  5-MIN KAQV 312330Z AUTO 00000KT 10SM CLR 08/01 A3014 170 60 -600 000/00 RMK AO2 T00780006
03949KAQV AQV20191231173510812/31/19 17:35:31  5-MIN KAQV 312335Z AUTO 00000KT 10SM CLR 07/02 A3014 170 68 -600 000/00 RMK AO2 T00720017
03949KAQV AQV20191231174010812/31/19 17:40:31  5-MIN KAQV 312340Z AUTO 00000KT 10SM CLR 07/02 A3014 170 70 -700 000/00 RMK AO2 T00670017
03949KAQV AQV20191231174510812/31/19 17:45:31  5-MIN KAQV 312345Z AUTO 00000KT 10SM CLR 06/02 A3014 170 73 -800 000/00 RMK AO2 T00610017
03949KAQV AQV20191231175010812/31/19 17:50:31  5-MIN KAQV 312350Z AUTO 00000KT 10SM CLR 07/02 A3014 170 70 -700 000/00 RMK AO2 T00670017
03949KAQV AQV20191231175513312/31/19 17:55:31  5-MIN KAQV 312355Z AUTO 00000KT 10SM CLR 06/02 A3015 170 73 -800 000/00 RMK AO2 SLP211 T00610017 10144 20061 56026
03949KAQV AQV20191231180010812/31/19 18:00:31  5-MIN KAQV 010000Z AUTO 00000KT 10SM CLR 06/02 A3015 170 76 -800 000/00 RMK AO2 T00610022
03949KAQV AQV20191231180510812/31/19 18:05:31  5-MIN KAQV 010005Z AUTO 00000KT 10SM CLR 06/02 A3014 170 76 -800 000/00 RMK AO2 T00610022
03949KAQV AQV20191231181010812/31/19 18:10:31  5-MIN KAQV 010010Z AUTO 00000KT 10SM CLR 06/02 A3014 170 79 -800 000/00 RMK AO2 T00560022
03949KAQV AQV20191231181510812/31/19 18:15:31  5-MIN KAQV 010015Z AUTO 00000KT 10SM CLR 06/02 A3014 170 76 -800 000/00 RMK AO2 T00560017
03949KAQV AQV20191231182010812/31/19 18:20:31  5-MIN KAQV 010020Z AUTO 00000KT 10SM CLR 06/02 A3014 170 76 -800 000/00 RMK AO2 T00560017
03949KAQV AQV20191231182510812/31/19 18:25:31  5-MIN KAQV 010025Z AUTO 00000KT 10SM CLR 06/02 A3015 170 76 -800 000/00 RMK AO2 T00560017
03949KAQV AQV20191231183010812/31/19 18:30:31  5-MIN KAQV 010030Z AUTO 00000KT 10SM CLR 06/01 A3015 170 73 -800 000/00 RMK AO2 T00560011
03949KAQV AQV20191231183510812/31/19 18:35:31  5-MIN KAQV 010035Z AUTO 00000KT 10SM CLR 06/02 A3014 170 76 -800 000/00 RMK AO2 T00560017
03949KAQV AQV20191231184010812/31/19 18:40:31  5-MIN KAQV 010040Z AUTO 00000KT 10SM CLR 05/01 A3015 170 76 -900 000/00 RMK AO2 T00500011
03949KAQV AQV20191231184510812/31/19 18:45:31  5-MIN KAQV 010045Z AUTO 00000KT 10SM CLR 05/01 A3015 170 76 -900 000/00 RMK AO2 T00500011
03949KAQV AQV20191231185010812/31/19 18:50:31  5-MIN KAQV 010050Z AUTO 00000KT 10SM CLR 05/02 A3015 170 79 -900 000/00 RMK AO2 T00500017
03949KAQV AQV20191231185511512/31/19 18:55:31  5-MIN KAQV 010055Z AUTO 00000KT 10SM CLR 05/02 A3015 170 79 -900 000/00 RMK AO2 SLP212 T00500017
03949KAQV AQV20191231190010912/31/19 19:00:31  5-MIN KAQV 010100Z AUTO 00000KT 10SM CLR 04/02 A3014 170 82 -1000 000/00 RMK AO2 T00440017
03949KAQV AQV20191231190510912/31/19 19:05:31  5-MIN KAQV 010105Z AUTO 00000KT 10SM CLR 04/02 A3015 170 82 -1000 000/00 RMK AO2 T00440017
03949KAQV AQV20191231191010912/31/19 19:10:31  5-MIN KAQV 010110Z AUTO 00000KT 10SM CLR 04/02 A3015 170 82 -1000 000/00 RMK AO2 T00440017
03949KAQV AQV20191231191510912/31/19 19:15:31  5-MIN KAQV 010115Z AUTO 00000KT 10SM CLR 04/02 A3015 170 82 -1000 000/00 RMK AO2 T00440017
03949KAQV AQV20191231192010912/31/19 19:20:31  5-MIN KAQV 010120Z AUTO 00000KT 10SM CLR 04/02 A3015 170 85 -1100 000/00 RMK AO2 T00390017
03949KAQV AQV20191231192510912/31/19 19:25:31  5-MIN KAQV 010125Z AUTO 00000KT 10SM CLR 04/02 A3015 170 85 -1100 000/00 RMK AO2 T00390017
03949KAQV AQV20191231193010912/31/19 19:30:31  5-MIN KAQV 010130Z AUTO 00000KT 10SM CLR 04/02 A3015 170 85 -1100 000/00 RMK AO2 T00390017
03949KAQV AQV20191231193510912/31/19 19:35:31  5-MIN KAQV 010135Z AUTO 00000KT 10SM CLR 04/02 A3014 170 85 -1000 000/00 RMK AO2 T00390017
03949KAQV AQV20191231194010912/31/19 19:40:31  5-MIN KAQV 010140Z AUTO 00000KT 10SM CLR 04/01 A3014 170 82 -1000 000/00 RMK AO2 T00390011
03949KAQV AQV20191231194510912/31/19 19:45:31  5-MIN KAQV 010145Z AUTO 00000KT 10SM CLR 04/01 A3014 170 82 -1000 000/00 RMK AO2 T00390011
03949KAQV AQV20191231195010912/31/19 19:50:31  5-MIN KAQV 010150Z AUTO 00000KT 10SM CLR 04/01 A3014 170 82 -1000 000/00 RMK AO2 T00390011
03949KAQV AQV20191231195511612/31/19 19:55:31  5-MIN KAQV 010155Z AUTO 00000KT 10SM CLR 04/01 A3015 170 82 -1000 000/00 RMK AO2 SLP212 T00390011
03949KAQV AQV20191231200010912/31/19 20:00:31  5-MIN KAQV 010200Z AUTO 00000KT 10SM CLR 03/01 A3015 170 85 -1100 000/00 RMK AO2 T00330011
03949KAQV AQV20191231200510912/31/19 20:05:31  5-MIN KAQV 010205Z AUTO 00000KT 10SM CLR 03/01 A3015 170 85 -1100 000/00 RMK AO2 T00330011
03949KAQV AQV20191231201010912/31/19 20:10:31  5-MIN KAQV 010210Z AUTO 00000KT 10SM CLR 03/01 A3014 170 85 -1100 000/00 RMK AO2 T00330011
03949KAQV AQV20191231201510912/31/19 20:15:31  5-MIN KAQV 010215Z AUTO 00000KT 10SM CLR 03/01 A3014 170 85 -1100 000/00 RMK AO2 T00330011
03949KAQV AQV20191231202010912/31/19 20:20:31  5-MIN KAQV 010220Z AUTO 00000KT 10SM CLR 03/01 A3014 170 85 -1100 000/00 RMK AO2 T00330011
03949KAQV AQV20191231202510912/31/19 20:25:31  5-MIN KAQV 010225Z AUTO 00000KT 10SM CLR 03/01 A3014 170 85 -1100 000/00 RMK AO2 T00330011
03949KAQV AQV20191231203010912/31/19 20:30:31  5-MIN KAQV 010230Z AUTO 00000KT 10SM CLR 03/01 A3014 180 85 -1100 000/00 RMK AO2 T00330011
03949KAQV AQV20191231203510912/31/19 20:35:31  5-MIN KAQV 010235Z AUTO 00000KT 10SM CLR 03/01 A3014 180 85 -1100 000/00 RMK AO2 T00330011
03949KAQV AQV20191231204010912/31/19 20:40:31  5-MIN KAQV 010240Z AUTO 00000KT 10SM CLR 03/01 A3014 170 85 -1100 000/00 RMK AO2 T00330011
03949KAQV AQV20191231204510912/31/19 20:45:31  5-MIN KAQV 010245Z AUTO 00000KT 10SM CLR 03/01 A3014 180 85 -1100 000/00 RMK AO2 T00330011
03949KAQV AQV20191231205010912/31/19 20:50:31  5-MIN KAQV 010250Z AUTO 00000KT 10SM CLR 03/01 A3014 180 85 -1100 000/00 RMK AO2 T00330011
03949KAQV AQV20191231205512212/31/19 20:55:31  5-MIN KAQV 010255Z AUTO 00000KT 10SM CLR 03/01 A3014 180 85 -1100 000/00 RMK AO2 SLP208 T00330011 52004
03949KAQV AQV20191231210010912/31/19 21:00:31  5-MIN KAQV 010300Z AUTO 00000KT 10SM CLR 04/02 A3014 180 85 -1000 000/00 RMK AO2 T00390017
