13942KMLU MLU20190904052510209/04/19 05:25:31  5-MIN KMLU 041125Z 00000KT 10SM CLR 22/21 A3003 -10 90 900 000/00 RMK AO2 T02220206
13942KMLU MLU20190904053010209/04/19 05:30:31  5-MIN KMLU 041130Z 00000KT 10SM CLR 22/21 A3003 -10 90 900 000/00 RMK AO2 T02220206
13942KMLU MLU20190904053510209/04/19 05:35:31  5-MIN KMLU 041135Z 00000KT 10SM CLR 22/21 A3003 -20 90 900 000/00 RMK AO2 T02220206
13942KMLU MLU20190904054010109/04/19 05:40:31  5-MIN KMLU 041140Z 00000KT 9SM CLR 22/21 A3003 -20 90 900 000/00 RMK AO2 T02220206
13942KMLU MLU20190904054510109/04/19 05:45:31  5-MIN KMLU 041145Z 00000KT 9SM CLR 22/21 A3003 -20 93 900 000/00 RMK AO2 T02220211
13942KMLU MLU20190904055012609/04/19 05:50:31  5-MIN KMLU 041150Z 00000KT 9SM CLR 22/21 A3003 -20 93 900 000/00 RMK AO2 SLP169 T02220211 10256 20217 53003
13942KMLU MLU20190904055510109/04/19 05:55:31  5-MIN KMLU 041155Z 00000KT 9SM CLR 22/21 A3003 -20 93 900 000/00 RMK AO2 T02220211
13942KMLU MLU20190904060010109/04/19 06:00:31  5-MIN KMLU 041200Z 00000KT 9SM CLR 22/21 A3004 -20 93 800 000/00 RMK AO2 T02220211
13942KMLU MLU20190904060510109/04/19 06:05:31  5-MIN KMLU 041205Z 00000KT 9SM CLR 22/21 A3004 -20 93 800 000/00 RMK AO2 T02220211
13942KMLU MLU20190904061010109/04/19 06:10:31  5-MIN KMLU 041210Z 00000KT 8SM CLR 23/21 A3004 -30 90 900 000/00 RMK AO2 T02280211
13942KMLU MLU20190904061510109/04/19 06:15:31  5-MIN KMLU 041215Z 04003KT 8SM CLR 22/21 A3004 -30 93 800 030/03 RMK AO2 T02220211
13942KMLU MLU20190904062010109/04/19 06:20:31  5-MIN KMLU 041220Z 00000KT 7SM CLR 22/21 A3005 -30 93 800 000/00 RMK AO2 T02220211
13942KMLU MLU20190904062510109/04/19 06:25:31  5-MIN KMLU 041225Z 00000KT 7SM CLR 22/21 A3005 -30 93 800 000/00 RMK AO2 T02220211
13942KMLU MLU20190904063010109/04/19 06:30:31  5-MIN KMLU 041230Z 00000KT 7SM CLR 23/22 A3005 -30 93 900 000/00 RMK AO2 T02280217
13942KMLU MLU20190904063510109/04/19 06:35:31  5-MIN KMLU 041235Z 00000KT 7SM CLR 23/22 A3005 -30 93 900 000/00 RMK AO2 T02280217
13942KMLU MLU20190904064010209/04/19 06:40:31  5-MIN KMLU 041240Z 00000KT 7SM CLR 23/22 A3005 -40 90 1000 000/00 RMK AO2 T02330217
13942KMLU MLU20190904064510209/04/19 06:45:31  5-MIN KMLU 041245Z 00000KT 7SM CLR 24/22 A3006 -40 90 1000 000/00 RMK AO2 T02390222
13942KMLU MLU20190904065010909/04/19 06:50:31  5-MIN KMLU 041250Z 00000KT 8SM CLR 24/22 A3006 -40 87 1100 000/00 RMK AO2 SLP176 T02440222
13942KMLU MLU20190904065510209/04/19 06:55:31  5-MIN KMLU 041255Z 00000KT 9SM CLR 24/22 A3006 -40 87 1100 000/00 RMK AO2 T02440222
13942KMLU MLU20190904070010309/04/19 07:00:31  5-MIN KMLU 041300Z 00000KT 10SM CLR 25/22 A3006 -40 84 1100 000/00 RMK AO2 T02500222
13942KMLU MLU20190904070510309/04/19 07:05:31  5-MIN KMLU 041305Z 00000KT 10SM CLR 26/22 A3006 -40 81 1200 000/00 RMK AO2 T02560222
13942KMLU MLU20190904071010309/04/19 07:10:31  5-MIN KMLU 041310Z 00000KT 10SM CLR 26/22 A3006 -40 79 1300 000/00 RMK AO2 T02610222
13942KMLU MLU20190904071510309/04/19 07:15:31  5-MIN KMLU 041315Z 00000KT 10SM CLR 26/22 A3006 -40 79 1300 000/00 RMK AO2 T02610222
13942KMLU MLU20190904072010309/04/19 07:20:31  5-MIN KMLU 041320Z 00000KT 10SM CLR 27/22 A3006 -40 76 1300 000/00 RMK AO2 T02670222
13942KMLU MLU20190904072510309/04/19 07:25:31  5-MIN KMLU 041325Z 00000KT 10SM CLR 27/22 A3006 -40 76 1300 000/00 RMK AO2 T02670222
13942KMLU MLU20190904073010309/04/19 07:30:31  5-MIN KMLU 041330Z 00000KT 10SM CLR 27/23 A3006 -40 76 1400 000/00 RMK AO2 T02720228
13942KMLU MLU20190904073510309/04/19 07:35:31  5-MIN KMLU 041335Z 00000KT 10SM CLR 27/22 A3006 -40 74 1400 000/00 RMK AO2 T02720222
13942KMLU MLU20190904074010309/04/19 07:40:31  5-MIN KMLU 041340Z 00000KT 10SM CLR 28/22 A3006 -50 71 1500 000/00 RMK AO2 T02780222
13942KMLU MLU20190904074510309/04/19 07:45:31  5-MIN KMLU 041345Z 05003KT 10SM CLR 28/22 A3007 -50 71 1400 050/03 RMK AO2 T02780222
13942KMLU MLU20190904075011009/04/19 07:50:31  5-MIN KMLU 041350Z 04003KT 10SM CLR 28/22 A3007 -50 69 1500 030/03 RMK AO2 SLP180 T02830222
13942KMLU MLU20190904075510309/04/19 07:55:31  5-MIN KMLU 041355Z 05004KT 10SM CLR 29/23 A3007 -50 69 1600 050/04 RMK AO2 T02890228
13942KMLU MLU20190904080010309/04/19 08:00:31  5-MIN KMLU 041400Z 05004KT 10SM CLR 29/22 A3007 -50 64 1600 050/04 RMK AO2 T02940222
13942KMLU MLU20190904080510309/04/19 08:05:31  5-MIN KMLU 041405Z 05005KT 10SM CLR 29/22 A3007 -60 62 1600 050/05 RMK AO2 T02940217
13942KMLU MLU20190904081010309/04/19 08:10:31  5-MIN KMLU 041410Z 06004KT 10SM CLR 30/22 A3007 -50 60 1700 060/04 RMK AO2 T03000217
13942KMLU MLU20190904081510309/04/19 08:15:31  5-MIN KMLU 041415Z 06004KT 10SM CLR 30/22 A3007 -50 60 1700 060/04 RMK AO2 T03000217
13942KMLU MLU20190904082010309/04/19 08:20:31  5-MIN KMLU 041420Z 06004KT 10SM CLR 30/22 A3007 -60 60 1700 060/04 RMK AO2 T03000217
13942KMLU MLU20190904082510309/04/19 08:25:31  5-MIN KMLU 041425Z 05006KT 10SM CLR 31/22 A3008 -60 58 1700 050/06 RMK AO2 T03060217
13942KMLU MLU20190904083010309/04/19 08:30:31  5-MIN KMLU 041430Z 04005KT 10SM CLR 31/22 A3008 -60 56 1800 040/05 RMK AO2 T03110217
13942KMLU MLU20190904083510309/04/19 08:35:31  5-MIN KMLU 041435Z 06005KT 10SM CLR 31/22 A3008 -60 58 1700 060/05 RMK AO2 T03060217
13942KMLU MLU20190904084010309/04/19 08:40:31  5-MIN KMLU 041440Z 03005KT 10SM CLR 31/22 A3008 -60 56 1800 030/05 RMK AO2 T03110217
13942KMLU MLU20190904084510309/04/19 08:45:31  5-MIN KMLU 041445Z 05006KT 10SM CLR 32/22 A3008 -60 55 1900 050/06 RMK AO2 T03170217
13942KMLU MLU20190904085011609/04/19 08:50:31  5-MIN KMLU 041450Z 04005KT 10SM CLR 32/22 A3008 -60 55 1900 040/05 RMK AO2 SLP185 T03170217 53014
13942KMLU MLU20190904085510309/04/19 08:55:31  5-MIN KMLU 041455Z 05005KT 10SM CLR 32/21 A3008 -60 51 1900 040/05 RMK AO2 T03220211
13942KMLU MLU20190904090010309/04/19 09:00:31  5-MIN KMLU 041500Z 03006KT 10SM CLR 32/21 A3008 -60 51 1900 030/06 RMK AO2 T03220211
13942KMLU MLU20190904090510309/04/19 09:05:31  5-MIN KMLU 041505Z VRB06KT 10SM CLR 32/22 A3008 -60 53 1900 VRB/06 RMK AO2 T03220217
13942KMLU MLU20190904091010309/04/19 09:10:31  5-MIN KMLU 041510Z 04006KT 10SM CLR 32/22 A3008 -60 53 1900 040/06 RMK AO2 T03220217
13942KMLU MLU20190904091510309/04/19 09:15:31  5-MIN KMLU 041515Z 08005KT 10SM CLR 33/22 A3008 -60 51 2000 080/05 RMK AO2 T03280217
13942KMLU MLU20190904092010309/04/19 09:20:31  5-MIN KMLU 041520Z VRB04KT 10SM CLR 32/22 A3008 -60 53 1900 VRB/04 RMK AO2 T03220217
13942KMLU MLU20190904092510309/04/19 09:25:31  5-MIN KMLU 041525Z 04005KT 10SM CLR 33/22 A3008 -60 51 2000 040/05 RMK AO2 T03280217
13942KMLU MLU20190904093010309/04/19 09:30:31  5-MIN KMLU 041530Z 05005KT 10SM CLR 33/22 A3009 -70 50 2000 050/05 RMK AO2 T03330217
13942KMLU MLU20190904093510309/04/19 09:35:31  5-MIN KMLU 041535Z VRB05KT 10SM CLR 33/22 A3009 -70 50 2000 VRB/05 RMK AO2 T03330217
13942KMLU MLU20190904094010309/04/19 09:40:31  5-MIN KMLU 041540Z 03007KT 10SM CLR 33/22 A3009 -70 50 2000 030/07 RMK AO2 T03330217
13942KMLU MLU20190904094510309/04/19 09:45:31  5-MIN KMLU 041545Z 03006KT 10SM CLR 33/22 A3009 -70 50 2000 020/06 RMK AO2 T03330217
13942KMLU MLU20190904095011009/04/19 09:50:31  5-MIN KMLU 041550Z 03005KT 10SM CLR 33/22 A3009 -70 50 2000 030/05 RMK AO2 SLP187 T03330217
13942KMLU MLU20190904095510309/04/19 09:55:31  5-MIN KMLU 041555Z 06006KT 10SM CLR 34/22 A3009 -70 48 2100 060/06 RMK AO2 T03390217
13942KMLU MLU20190904100010309/04/19 10:00:31  5-MIN KMLU 041600Z 04006KT 10SM CLR 34/21 A3009 -70 46 2100 040/06 RMK AO2 T03390211
13942KMLU MLU20190904100510309/04/19 10:05:31  5-MIN KMLU 041605Z 06005KT 10SM CLR 34/21 A3009 -70 46 2100 060/05 RMK AO2 T03390211
13942KMLU MLU20190904101010309/04/19 10:10:31  5-MIN KMLU 041610Z 07007KT 10SM CLR 34/21 A3009 -70 46 2100 070/07 RMK AO2 T03390211
13942KMLU MLU20190904101510309/04/19 10:15:31  5-MIN KMLU 041615Z 05005KT 10SM CLR 34/21 A3009 -70 46 2100 050/05 RMK AO2 T03390211
13942KMLU MLU20190904102010309/04/19 10:20:31  5-MIN KMLU 041620Z 06006KT 10SM CLR 34/21 A3008 -60 43 2200 060/06 RMK AO2 T03440206
13942KMLU MLU20190904102510309/04/19 10:25:31  5-MIN KMLU 041625Z 08004KT 10SM CLR 34/21 A3008 -70 43 2200 080/04 RMK AO2 T03440206
13942KMLU MLU20190904103010309/04/19 10:30:31  5-MIN KMLU 041630Z 07006KT 10SM CLR 34/20 A3008 -70 42 2200 070/06 RMK AO2 T03440200
13942KMLU MLU20190904103510309/04/19 10:35:31  5-MIN KMLU 041635Z 09007KT 10SM CLR 34/21 A3008 -60 43 2200 080/07 RMK AO2 T03440206
13942KMLU MLU20190904104010309/04/19 10:40:31  5-MIN KMLU 041640Z VRB06KT 10SM CLR 34/21 A3008 -60 45 2100 VRB/06 RMK AO2 T03390206
13942KMLU MLU20190904104510309/04/19 10:45:31  5-MIN KMLU 041645Z VRB05KT 10SM CLR 34/21 A3008 -60 43 2200 VRB/05 RMK AO2 T03440206
13942KMLU MLU20190904105011009/04/19 10:50:31  5-MIN KMLU 041650Z 05009KT 10SM CLR 34/19 A3008 -60 40 2200 050/09 RMK AO2 SLP184 T03440194
13942KMLU MLU20190904105510309/04/19 10:55:31  5-MIN KMLU 041655Z 07005KT 10SM CLR 35/19 A3008 -60 39 2200 070/05 RMK AO2 T03500194
13942KMLU MLU20190904110011909/04/19 11:00:31  5-MIN KMLU 041700Z 08008KT 030V120 10SM CLR 35/19 A3008 -60 39 2200 080/08 030V120 RMK AO2 T03500194
13942KMLU MLU20190904110511909/04/19 11:05:31  5-MIN KMLU 041705Z 06008KT 030V110 10SM CLR 36/19 A3008 -60 38 2300 060/08 030V110 RMK AO2 T03560194
13942KMLU MLU20190904111010309/04/19 11:10:31  5-MIN KMLU 041710Z 05008KT 10SM CLR 35/19 A3008 -60 39 2200 050/08 RMK AO2 T03500194
13942KMLU MLU20190904111510309/04/19 11:15:31  5-MIN KMLU 041715Z 04008KT 10SM CLR 35/19 A3008 -60 39 2200 040/08 RMK AO2 T03500194
13942KMLU MLU20190904112010309/04/19 11:20:31  5-MIN KMLU 041720Z 04005KT 10SM CLR 36/19 A3008 -60 38 2300 040/05 RMK AO2 T03560194
13942KMLU MLU20190904112509309/04/19 11:25:31  5-MIN KMLU 041725Z 10SM CLR 35/19 A3007 -60 38 2200 M /M RMK AO2 T03500189
13942KMLU MLU20190904113010909/04/19 11:30:31  5-MIN KMLU 041730Z 07010G17KT 10SM CLR 36/19 A3007 -50 37 2300 070/10G17 RMK AO2 T03560189
13942KMLU MLU20190904113510909/04/19 11:35:31  5-MIN KMLU 041735Z 05008G17KT 10SM CLR 36/19 A3007 -50 37 2300 050/08G17 RMK AO2 T03560189
13942KMLU MLU20190904114010909/04/19 11:40:31  5-MIN KMLU 041740Z 06005G14KT 10SM CLR 36/19 A3007 -50 38 2300 050/05G14 RMK AO2 T03560194
13942KMLU MLU20190904114510909/04/19 11:45:31  5-MIN KMLU 041745Z VRB06G14KT 10SM CLR 36/19 A3007 -50 37 2300 VRB/06G14 RMK AO2 T03560189
13942KMLU MLU20190904115012809/04/19 11:50:31  5-MIN KMLU 041750Z 10008KT 10SM CLR 36/18 A3007 -50 35 2300 100/08 RMK AO2 SLP179 T03560183 10361 20222 51017
13942KMLU MLU20190904115510309/04/19 11:55:31  5-MIN KMLU 041755Z 11007KT 10SM CLR 36/18 A3006 -50 35 2300 110/07 RMK AO2 T03560183
13942KMLU MLU20190904120010309/04/19 12:00:31  5-MIN KMLU 041800Z VRB06KT 10SM CLR 37/19 A3006 -50 34 2400 VRB/06 RMK AO2 T03670189
13942KMLU MLU20190904120510609/04/19 12:05:31  5-MIN KMLU 041805Z 06007KT 10SM FEW070 36/19 A3006 -50 35 2400 060/07 RMK AO2 T03610189
13942KMLU MLU20190904121010609/04/19 12:10:31  5-MIN KMLU 041810Z 07007KT 10SM FEW070 36/19 A3006 -40 35 2400 070/07 RMK AO2 T03610189
13942KMLU MLU20190904121510609/04/19 12:15:31  5-MIN KMLU 041815Z VRB04KT 10SM FEW070 36/18 A3006 -40 35 2300 VRB/04 RMK AO2 T03560183
13942KMLU MLU20190904122010609/04/19 12:20:31  5-MIN KMLU 041820Z 03009KT 10SM SCT070 36/19 A3006 -40 35 2400 030/09 RMK AO2 T03610189
13942KMLU MLU20190904122510609/04/19 12:25:31  5-MIN KMLU 041825Z VRB05KT 10SM SCT070 36/18 A3006 -40 35 2300 VRB/05 RMK AO2 T03560183
13942KMLU MLU20190904123010609/04/19 12:30:31  5-MIN KMLU 041830Z VRB06KT 10SM BKN070 36/19 A3005 -40 35 2400 VRB/06 RMK AO2 T03610189
13942KMLU MLU20190904123511209/04/19 12:35:31  5-MIN KMLU 041835Z 04009G14KT 10SM SCT075 37/18 A3005 -30 33 2400 040/09G14 RMK AO2 T03670183
13942KMLU MLU20190904124011209/04/19 12:40:31  5-MIN KMLU 041840Z 08010G17KT 10SM BKN075 37/19 A3005 -30 34 2400 080/10G17 RMK AO2 T03670189
13942KMLU MLU20190904124511209/04/19 12:45:31  5-MIN KMLU 041845Z 04007G17KT 10SM BKN075 36/18 A3005 -30 34 2300 040/07G17 RMK AO2 T03560178
13942KMLU MLU20190904125011309/04/19 12:50:31  5-MIN KMLU 041850Z 35007KT 10SM SCT075 37/18 A3005 -30 33 2400 350/07 RMK AO2 SLP173 T03670183
13942KMLU MLU20190904125512209/04/19 12:55:31  5-MIN KMLU 041855Z 34007KT 320V030 10SM SCT075 36/19 A3005 -30 37 2300 340/07 320V030 RMK AO2 T03560189
13942KMLU MLU20190904130010609/04/19 13:00:31  5-MIN KMLU 041900Z 36008KT 10SM SCT070 36/19 A3004 -30 37 2300 360/08 RMK AO2 T03560189
13942KMLU MLU20190904130511209/04/19 13:05:31  5-MIN KMLU 041905Z 35010G17KT 10SM BKN070 36/19 A3004 -30 37 2300 350/10G17 RMK AO2 T03560189
13942KMLU MLU20190904131011209/04/19 13:10:31  5-MIN KMLU 041910Z 36009G17KT 10SM BKN070 35/18 A3004 -20 36 2300 360/09G17 RMK AO2 T03500183
13942KMLU MLU20190904131510609/04/19 13:15:31  5-MIN KMLU 041915Z 36006KT 10SM SCT070 36/18 A3003 -20 35 2300 360/06 RMK AO2 T03560183
13942KMLU MLU20190904132010609/04/19 13:20:31  5-MIN KMLU 041920Z 35007KT 10SM BKN070 36/19 A3003 -20 35 2400 340/07 RMK AO2 T03610189
13942KMLU MLU20190904132510609/04/19 13:25:31  5-MIN KMLU 041925Z VRB04KT 10SM BKN070 37/19 A3003 -20 34 2500 VRB/04 RMK AO2 T03670189
13942KMLU MLU20190904133012209/04/19 13:30:31  5-MIN KMLU 041930Z 06007KT 020V100 10SM SCT070 37/18 A3003 -20 33 2500 060/07 020V100 RMK AO2 T03670183
13942KMLU MLU20190904133510609/04/19 13:35:31  5-MIN KMLU 041935Z 35006KT 10SM SCT070 37/18 A3003 -10 33 2500 350/06 RMK AO2 T03670183
13942KMLU MLU20190904134011209/04/19 13:40:31  5-MIN KMLU 041940Z 06009G15KT 10SM SCT075 36/18 A3002 -10 35 2400 060/09G15 RMK AO2 T03560183
13942KMLU MLU20190904134511209/04/19 13:45:31  5-MIN KMLU 041945Z 05006G15KT 10SM BKN075 36/18 A3002 -10 35 2400 050/06G15 RMK AO2 T03560183
13942KMLU MLU20190904135011309/04/19 13:50:31  5-MIN KMLU 041950Z 02004KT 10SM BKN075 37/18 A3002 -10 33 2500 020/04 RMK AO2 SLP165 T03670183
13942KMLU MLU20190904135510409/04/19 13:55:31  5-MIN KMLU 041955Z 06005KT 10SM SCT080 37/19 A3002 0 33 2500 060/05 RMK AO2 T03720189
13942KMLU MLU20190904140010409/04/19 14:00:31  5-MIN KMLU 042000Z VRB04KT 10SM BKN075 37/18 A3002 0 32 2500 VRB/04 RMK AO2 T03720183
13942KMLU MLU20190904140510409/04/19 14:05:31  5-MIN KMLU 042005Z 05005KT 10SM BKN075 37/18 A3001 0 32 2500 050/05 RMK AO2 T03670178
13942KMLU MLU20190904141010409/04/19 14:10:31  5-MIN KMLU 042010Z 04007KT 10SM BKN075 36/18 A3001 0 34 2400 040/07 RMK AO2 T03610183
13942KMLU MLU20190904141510409/04/19 14:15:31  5-MIN KMLU 042015Z 01007KT 10SM SCT075 36/18 A3001 0 35 2400 010/07 RMK AO2 T03560183
13942KMLU MLU20190904142010409/04/19 14:20:31  5-MIN KMLU 042020Z 36004KT 10SM SCT075 37/18 A3001 0 33 2500 360/04 RMK AO2 T03670183
13942KMLU MLU20190904142510409/04/19 14:25:31  5-MIN KMLU 042025Z 00000KT 10SM SCT075 37/18 A3001 0 32 2600 000/00 RMK AO2 T03720183
13942KMLU MLU20190904143010409/04/19 14:30:31  5-MIN KMLU 042030Z 04008KT 10SM SCT075 37/18 A3001 0 33 2500 040/08 RMK AO2 T03670183
13942KMLU MLU20190904143510409/04/19 14:35:31  5-MIN KMLU 042035Z 03008KT 10SM SCT075 36/18 A3001 0 34 2400 030/08 RMK AO2 T03610183
13942KMLU MLU20190904144010409/04/19 14:40:31  5-MIN KMLU 042040Z 03007KT 10SM FEW075 35/18 A3001 0 35 2300 030/07 RMK AO2 T03500178
13942KMLU MLU20190904144510409/04/19 14:45:31  5-MIN KMLU 042045Z 35005KT 10SM FEW075 35/18 A3001 0 35 2300 350/05 RMK AO2 T03500178
13942KMLU MLU20190904145011709/04/19 14:50:31  5-MIN KMLU 042050Z VRB04KT 10SM FEW075 36/18 A3001 0 34 2400 VRB/04 RMK AO2 SLP159 T03610183 58006
13942KMLU MLU20190904145510409/04/19 14:55:31  5-MIN KMLU 042055Z 04004KT 10SM FEW075 37/18 A3001 0 32 2500 040/04 RMK AO2 T03670178
13942KMLU MLU20190904150010109/04/19 15:00:31  5-MIN KMLU 042100Z 00000KT 10SM CLR 37/17 A3000 0 31 2500 000/00 RMK AO2 T03670172
13942KMLU MLU20190904150510209/04/19 15:05:31  5-MIN KMLU 042105Z 10005KT 10SM CLR 37/17 A3000 10 31 2500 100/05 RMK AO2 T03670172
13942KMLU MLU20190904151010509/04/19 15:10:31  5-MIN KMLU 042110Z 30003KT 10SM FEW080 36/17 A3000 10 32 2400 300/03 RMK AO2 T03610172
13942KMLU MLU20190904151510509/04/19 15:15:31  5-MIN KMLU 042115Z 03005KT 10SM FEW080 37/18 A3000 10 32 2500 030/05 RMK AO2 T03670178
13942KMLU MLU20190904152010509/04/19 15:20:31  5-MIN KMLU 042120Z 07009KT 10SM FEW080 37/18 A2999 10 31 2600 070/09 RMK AO2 T03720178
13942KMLU MLU20190904152510509/04/19 15:25:31  5-MIN KMLU 042125Z 04010KT 10SM FEW080 37/18 A3000 10 32 2500 040/10 RMK AO2 T03670178
13942KMLU MLU20190904153010509/04/19 15:30:31  5-MIN KMLU 042130Z VRB04KT 10SM FEW080 37/17 A3000 10 31 2500 VRB/04 RMK AO2 T03670172
13942KMLU MLU20190904153510509/04/19 15:35:31  5-MIN KMLU 042135Z VRB05KT 10SM FEW080 37/17 A3000 10 31 2500 VRB/05 RMK AO2 T03670172
13942KMLU MLU20190904154010209/04/19 15:40:31  5-MIN KMLU 042140Z VRB05KT 10SM CLR 36/17 A3000 10 31 2400 VRB/05 RMK AO2 T03610167
13942KMLU MLU20190904154510209/04/19 15:45:31  5-MIN KMLU 042145Z 04007KT 10SM CLR 37/17 A2999 10 31 2500 040/07 RMK AO2 T03670172
13942KMLU MLU20190904155010909/04/19 15:50:31  5-MIN KMLU 042150Z VRB05KT 10SM CLR 37/17 A2999 10 31 2500 VRB/05 RMK AO2 SLP155 T03670172
13942KMLU MLU20190904155510209/04/19 15:55:31  5-MIN KMLU 042155Z 05009KT 10SM CLR 37/17 A2999 10 31 2500 050/09 RMK AO2 T03670172
13942KMLU MLU20190904160010209/04/19 16:00:31  5-MIN KMLU 042200Z 04009KT 10SM CLR 37/17 A2999 10 30 2500 040/09 RMK AO2 T03670167
13942KMLU MLU20190904160510209/04/19 16:05:31  5-MIN KMLU 042205Z 08008KT 10SM CLR 36/17 A2999 10 32 2500 080/08 RMK AO2 T03610172
13942KMLU MLU20190904161010209/04/19 16:10:31  5-MIN KMLU 042210Z 05008KT 10SM CLR 36/17 A2999 20 31 2500 050/08 RMK AO2 T03610167
13942KMLU MLU20190904161510209/04/19 16:15:31  5-MIN KMLU 042215Z 07006KT 10SM CLR 36/17 A2999 20 31 2500 070/06 RMK AO2 T03610167
13942KMLU MLU20190904162010209/04/19 16:20:31  5-MIN KMLU 042220Z VRB05KT 10SM CLR 37/17 A2999 20 30 2500 VRB/05 RMK AO2 T03670167
13942KMLU MLU20190904162510209/04/19 16:25:31  5-MIN KMLU 042225Z 09005KT 10SM CLR 36/17 A2999 20 31 2500 090/05 RMK AO2 T03610167
13942KMLU MLU20190904163010209/04/19 16:30:31  5-MIN KMLU 042230Z 08007KT 10SM CLR 36/17 A2999 20 31 2500 080/07 RMK AO2 T03610167
13942KMLU MLU20190904163510209/04/19 16:35:31  5-MIN KMLU 042235Z 09007KT 10SM CLR 36/17 A2999 20 31 2500 090/07 RMK AO2 T03610167
13942KMLU MLU20190904164010209/04/19 16:40:31  5-MIN KMLU 042240Z 09008KT 10SM CLR 36/17 A2999 20 32 2400 080/08 RMK AO2 T03560167
13942KMLU MLU20190904164510209/04/19 16:45:31  5-MIN KMLU 042245Z 06008KT 10SM CLR 36/17 A2999 20 32 2400 060/08 RMK AO2 T03560167
13942KMLU MLU20190904165010909/04/19 16:50:31  5-MIN KMLU 042250Z 06005KT 10SM CLR 36/17 A2999 20 32 2400 060/05 RMK AO2 SLP153 T03560167
13942KMLU MLU20190904165510209/04/19 16:55:31  5-MIN KMLU 042255Z 06008KT 10SM CLR 36/17 A2999 20 33 2400 060/08 RMK AO2 T03560172
13942KMLU MLU20190904170010209/04/19 17:00:31  5-MIN KMLU 042300Z 07006KT 10SM CLR 36/17 A2999 20 33 2400 070/06 RMK AO2 T03560172
13942KMLU MLU20190904170510209/04/19 17:05:31  5-MIN KMLU 042305Z 06008KT 10SM CLR 36/17 A2999 20 33 2400 060/08 RMK AO2 T03560172
13942KMLU MLU20190904171010209/04/19 17:10:31  5-MIN KMLU 042310Z 07005KT 10SM CLR 36/17 A2999 20 33 2400 070/05 RMK AO2 T03560172
13942KMLU MLU20190904171510209/04/19 17:15:31  5-MIN KMLU 042315Z 07008KT 10SM CLR 35/17 A2999 20 34 2300 060/08 RMK AO2 T03500172
13942KMLU MLU20190904172010209/04/19 17:20:31  5-MIN KMLU 042320Z 07007KT 10SM CLR 35/17 A2999 20 33 2300 070/07 RMK AO2 T03500167
13942KMLU MLU20190905083510309/05/19 08:35:31  5-MIN KMLU 051435Z 00000KT 10SM CLR 31/23 A3010 -80 62 1700 000/00 RMK AO2 T03060228
13942KMLU MLU20190905084010309/05/19 08:40:31  5-MIN KMLU 051440Z 00000KT 10SM CLR 31/23 A3010 -80 62 1700 000/00 RMK AO2 T03060228
13942KMLU MLU20190905084510309/05/19 08:45:31  5-MIN KMLU 051445Z 00000KT 10SM CLR 31/23 A3010 -80 62 1700 000/00 RMK AO2 T03060228
13942KMLU MLU20190905085011609/05/19 08:50:31  5-MIN KMLU 051450Z 36004KT 10SM CLR 31/23 A3010 -80 60 1800 360/04 RMK AO2 SLP192 T03110228 51011
13942KMLU MLU20190905085510309/05/19 08:55:31  5-MIN KMLU 051455Z VRB03KT 10SM CLR 32/23 A3010 -80 58 1800 VRB/03 RMK AO2 T03170228
13942KMLU MLU20190905090010309/05/19 09:00:31  5-MIN KMLU 051500Z VRB03KT 10SM CLR 32/23 A3010 -80 58 1800 VRB/03 RMK AO2 T03170228
13942KMLU MLU20190905090510309/05/19 09:05:31  5-MIN KMLU 051505Z 00000KT 10SM CLR 32/23 A3010 -80 58 1800 000/00 RMK AO2 T03170228
13942KMLU MLU20190905091010309/05/19 09:10:31  5-MIN KMLU 051510Z 35003KT 10SM CLR 32/23 A3010 -80 57 1900 350/03 RMK AO2 T03220228
13942KMLU MLU20190905091510309/05/19 09:15:31  5-MIN KMLU 051515Z 01003KT 10SM CLR 32/23 A3010 -80 57 1900 010/03 RMK AO2 T03220228
13942KMLU MLU20190905092010309/05/19 09:20:31  5-MIN KMLU 051520Z 36003KT 10SM CLR 33/23 A3010 -80 55 2000 360/03 RMK AO2 T03280228
13942KMLU MLU20190905092510309/05/19 09:25:31  5-MIN KMLU 051525Z VRB04KT 10SM CLR 33/23 A3010 -80 55 2000 VRB/04 RMK AO2 T03280228
13942KMLU MLU20190905093010309/05/19 09:30:31  5-MIN KMLU 051530Z 33004KT 10SM CLR 33/23 A3010 -80 57 2000 330/04 RMK AO2 T03280233
13942KMLU MLU20190905093510309/05/19 09:35:31  5-MIN KMLU 051535Z 00000KT 10SM CLR 33/23 A3010 -80 55 2000 000/00 RMK AO2 T03280228
13942KMLU MLU20190905094010309/05/19 09:40:31  5-MIN KMLU 051540Z 32003KT 10SM CLR 32/23 A3010 -80 57 1900 320/03 RMK AO2 T03220228
13942KMLU MLU20190905094510309/05/19 09:45:31  5-MIN KMLU 051545Z 02004KT 10SM CLR 33/23 A3010 -80 53 2000 010/04 RMK AO2 T03330228
13942KMLU MLU20190905095011009/05/19 09:50:31  5-MIN KMLU 051550Z VRB04KT 10SM CLR 34/22 A3010 -80 50 2100 VRB/04 RMK AO2 SLP191 T03390222
13942KMLU MLU20190905095510309/05/19 09:55:31  5-MIN KMLU 051555Z 00000KT 10SM CLR 33/23 A3010 -80 53 2000 000/00 RMK AO2 T03330228
13942KMLU MLU20190905100010309/05/19 10:00:31  5-MIN KMLU 051600Z VRB03KT 10SM CLR 34/23 A3010 -80 51 2100 VRB/03 RMK AO2 T03390228
13942KMLU MLU20190905100510309/05/19 10:05:31  5-MIN KMLU 051605Z VRB05KT 10SM CLR 33/23 A3010 -80 53 2000 VRB/05 RMK AO2 T03330228
13942KMLU MLU20190905101009309/05/19 10:10:31  5-MIN KMLU 051610Z 10SM CLR 34/23 A3010 -80 51 2100 M /M RMK AO2 T03390228
13942KMLU MLU20190905101510309/05/19 10:15:31  5-MIN KMLU 051615Z 00000KT 10SM CLR 34/23 A3010 -80 50 2200 000/00 RMK AO2 T03440228
13942KMLU MLU20190905102010309/05/19 10:20:31  5-MIN KMLU 051620Z 30004KT 10SM CLR 34/23 A3010 -80 51 2100 300/04 RMK AO2 T03390228
13942KMLU MLU20190905102510309/05/19 10:25:31  5-MIN KMLU 051625Z VRB04KT 10SM CLR 33/22 A3010 -80 53 2000 VRB/04 RMK AO2 T03280222
13942KMLU MLU20190905103010309/05/19 10:30:31  5-MIN KMLU 051630Z VRB05KT 10SM CLR 33/22 A3010 -80 51 2000 VRB/05 RMK AO2 T03330222
13942KMLU MLU20190905103510309/05/19 10:35:31  5-MIN KMLU 051635Z VRB06KT 10SM CLR 34/22 A3010 -80 50 2100 VRB/06 RMK AO2 T03390222
13942KMLU MLU20190905104010309/05/19 10:40:31  5-MIN KMLU 051640Z 00000KT 10SM CLR 34/22 A3010 -80 48 2200 000/00 RMK AO2 T03440222
13942KMLU MLU20190905104509309/05/19 10:45:31  5-MIN KMLU 051645Z 10SM CLR 34/22 A3010 -80 48 2200 M /M RMK AO2 T03440222
13942KMLU MLU20190905105011309/05/19 10:50:31  5-MIN KMLU 051650Z VRB03KT 10SM FEW050 34/22 A3010 -80 48 2200 VRB/03 RMK AO2 SLP190 T03440222
13942KMLU MLU20190905105510609/05/19 10:55:31  5-MIN KMLU 051655Z 00000KT 10SM FEW050 33/22 A3010 -80 53 2000 000/00 RMK AO2 T03280222
13942KMLU MLU20190905110010609/05/19 11:00:31  5-MIN KMLU 051700Z 00000KT 10SM SCT048 33/22 A3010 -80 53 2000 000/00 RMK AO2 T03280222
13942KMLU MLU20190905110510609/05/19 11:05:31  5-MIN KMLU 051705Z 35004KT 10SM SCT050 33/22 A3009 -70 51 2000 350/04 RMK AO2 T03330222
13942KMLU MLU20190905111010609/05/19 11:10:31  5-MIN KMLU 051710Z VRB03KT 10SM SCT050 34/22 A3009 -70 50 2100 VRB/03 RMK AO2 T03390222
13942KMLU MLU20190905111510609/05/19 11:15:31  5-MIN KMLU 051715Z 00000KT 10SM FEW050 35/22 A3009 -70 47 2200 000/00 RMK AO2 T03500222
13942KMLU MLU20190905112010609/05/19 11:20:31  5-MIN KMLU 051720Z VRB03KT 10SM FEW048 35/22 A3009 -70 45 2200 VRB/03 RMK AO2 T03500217
13942KMLU MLU20190905112510609/05/19 11:25:31  5-MIN KMLU 051725Z VRB03KT 10SM FEW048 35/22 A3009 -70 45 2200 VRB/03 RMK AO2 T03500217
13942KMLU MLU20190905113010309/05/19 11:30:31  5-MIN KMLU 051730Z 01007KT 10SM CLR 36/22 A3009 -70 44 2300 010/07 RMK AO2 T03560217
13942KMLU MLU20190905113510309/05/19 11:35:31  5-MIN KMLU 051735Z 05005KT 10SM CLR 36/22 A3008 -60 44 2300 040/05 RMK AO2 T03560217
13942KMLU MLU20190905114010309/05/19 11:40:31  5-MIN KMLU 051740Z VRB03KT 10SM CLR 34/21 A3008 -60 45 2200 VRB/03 RMK AO2 T03440211
13942KMLU MLU20190905114510309/05/19 11:45:31  5-MIN KMLU 051745Z 29005KT 10SM CLR 33/22 A3008 -60 50 2000 290/05 RMK AO2 T03330217
13942KMLU MLU20190905115012809/05/19 11:50:31  5-MIN KMLU 051750Z 26008KT 10SM CLR 34/22 A3008 -60 48 2200 260/08 RMK AO2 SLP185 T03440222 10356 20217 51010
13942KMLU MLU20190905115510309/05/19 11:55:31  5-MIN KMLU 051755Z 27007KT 10SM CLR 34/22 A3008 -60 48 2200 270/07 RMK AO2 T03440222
13942KMLU MLU20190905120010309/05/19 12:00:31  5-MIN KMLU 051800Z 00000KT 10SM CLR 34/21 A3008 -60 45 2200 000/00 RMK AO2 T03440211
13942KMLU MLU20190905120510309/05/19 12:05:31  5-MIN KMLU 051805Z VRB03KT 10SM CLR 36/22 A3008 -60 44 2300 VRB/03 RMK AO2 T03560217
13942KMLU MLU20190905121010609/05/19 12:10:31  5-MIN KMLU 051810Z VRB06KT 10SM FEW050 36/22 A3008 -60 44 2400 VRB/06 RMK AO2 T03610222
13942KMLU MLU20190905121510309/05/19 12:15:31  5-MIN KMLU 051815Z 30007KT 10SM CLR 35/22 A3008 -60 45 2200 290/07 RMK AO2 T03500217
13942KMLU MLU20190905122010309/05/19 12:20:31  5-MIN KMLU 051820Z 00000KT 10SM CLR 35/22 A3008 -60 45 2200 000/00 RMK AO2 T03500217
13942KMLU MLU20190905122510309/05/19 12:25:31  5-MIN KMLU 051825Z VRB06KT 10SM CLR 36/22 A3007 -50 45 2300 VRB/06 RMK AO2 T03560222
13942KMLU MLU20190905123010309/05/19 12:30:31  5-MIN KMLU 051830Z 27003KT 10SM CLR 35/22 A3007 -50 47 2200 270/03 RMK AO2 T03500222
13942KMLU MLU20190905123510609/05/19 12:35:31  5-MIN KMLU 051835Z 00000KT 10SM FEW055 35/21 A3007 -50 43 2200 000/00 RMK AO2 T03500211
13942KMLU MLU20190905124010609/05/19 12:40:31  5-MIN KMLU 051840Z 00000KT 10SM FEW055 36/21 A3007 -50 42 2300 000/00 RMK AO2 T03560211
13942KMLU MLU20190905124510609/05/19 12:45:31  5-MIN KMLU 051845Z 34006KT 10SM FEW055 36/22 A3007 -50 44 2300 340/06 RMK AO2 T03560217
13942KMLU MLU20190905125011309/05/19 12:50:31  5-MIN KMLU 051850Z 30005KT 10SM FEW055 36/22 A3006 -50 44 2300 290/05 RMK AO2 SLP179 T03560217
13942KMLU MLU20190905125510609/05/19 12:55:31  5-MIN KMLU 051855Z VRB04KT 10SM FEW055 36/22 A3006 -40 44 2300 VRB/04 RMK AO2 T03560217
13942KMLU MLU20190905130010609/05/19 13:00:31  5-MIN KMLU 051900Z 05005KT 10SM BKN050 37/21 A3006 -40 40 2400 050/05 RMK AO2 T03670211
13942KMLU MLU20190905130512209/05/19 13:05:31  5-MIN KMLU 051905Z 28007KT 260V330 10SM BKN050 37/22 A3006 -40 41 2400 280/07 260V330 RMK AO2 T03670217
13942KMLU MLU20190905131010609/05/19 13:10:31  5-MIN KMLU 051910Z VRB03KT 10SM BKN050 36/21 A3005 -40 42 2300 VRB/03 RMK AO2 T03560211
13942KMLU MLU20190905131510609/05/19 13:15:31  5-MIN KMLU 051915Z VRB03KT 10SM BKN050 36/22 A3005 -40 42 2400 VRB/03 RMK AO2 T03610217
13942KMLU MLU20190905132009609/05/19 13:20:31  5-MIN KMLU 051920Z 10SM BKN050 36/21 A3005 -40 41 2400 M /M RMK AO2 T03610211
13942KMLU MLU20190905132510609/05/19 13:25:31  5-MIN KMLU 051925Z VRB05KT 10SM BKN050 36/21 A3005 -30 42 2300 VRB/05 RMK AO2 T03560211
13942KMLU MLU20190905133010609/05/19 13:30:31  5-MIN KMLU 051930Z 30006KT 10SM BKN050 36/21 A3005 -30 41 2400 300/06 RMK AO2 T03610211
13942KMLU MLU20190905133510609/05/19 13:35:31  5-MIN KMLU 051935Z 31007KT 10SM BKN050 36/22 A3005 -30 42 2400 300/07 RMK AO2 T03610217
13942KMLU MLU20190905134010609/05/19 13:40:31  5-MIN KMLU 051940Z 29005KT 10SM BKN050 36/21 A3004 -30 41 2400 290/05 RMK AO2 T03610211
13942KMLU MLU20190905134511109/05/19 13:45:31  5-MIN KMLU 051945Z AUTO 33006KT 10SM BKN050 36/22 A3004 -30 42 2400 330/06 RMK AO2 T03610217
13942KMLU MLU20190905135011309/05/19 13:50:31  5-MIN KMLU 051950Z 00000KT 10SM BKN050 36/21 A3004 -20 41 2400 000/00 RMK AO2 SLP171 T03610211
13942KMLU MLU20190905135510309/05/19 13:55:31  5-MIN KMLU 051955Z VRB05KT 10SM CLR 37/21 A3004 -20 40 2500 VRB/05 RMK AO2 T03670211
13942KMLU MLU20190905140010309/05/19 14:00:31  5-MIN KMLU 052000Z VRB03KT 10SM CLR 37/21 A3004 -20 40 2500 VRB/03 RMK AO2 T03670211
13942KMLU MLU20190905140510309/05/19 14:05:31  5-MIN KMLU 052005Z VRB05KT 10SM CLR 37/21 A3003 -20 40 2500 VRB/05 RMK AO2 T03670211
13942KMLU MLU20190905141010309/05/19 14:10:31  5-MIN KMLU 052010Z 32006KT 10SM CLR 37/22 A3003 -20 42 2500 320/06 RMK AO2 T03670222
13942KMLU MLU20190905141510309/05/19 14:15:31  5-MIN KMLU 052015Z VRB03KT 10SM CLR 36/21 A3003 -20 41 2400 VRB/03 RMK AO2 T03610211
13942KMLU MLU20190905142010309/05/19 14:20:31  5-MIN KMLU 052020Z 29008KT 10SM CLR 37/21 A3003 -10 40 2500 290/08 RMK AO2 T03670211
13942KMLU MLU20190905142510309/05/19 14:25:31  5-MIN KMLU 052025Z 29005KT 10SM CLR 36/21 A3003 -10 41 2400 290/05 RMK AO2 T03610211
13942KMLU MLU20190905143010309/05/19 14:30:31  5-MIN KMLU 052030Z VRB03KT 10SM CLR 36/21 A3003 -10 41 2400 VRB/03 RMK AO2 T03610211
13942KMLU MLU20190905143510309/05/19 14:35:31  5-MIN KMLU 052035Z VRB03KT 10SM CLR 36/21 A3003 -10 41 2400 VRB/03 RMK AO2 T03610211
13942KMLU MLU20190905144010309/05/19 14:40:31  5-MIN KMLU 052040Z 32006KT 10SM CLR 37/22 A3002 -10 41 2500 320/06 RMK AO2 T03670217
13942KMLU MLU20190905144509309/05/19 14:45:31  5-MIN KMLU 052045Z 10SM CLR 37/21 A3002 -10 40 2500 M /M RMK AO2 T03670211
13942KMLU MLU20190905145011609/05/19 14:50:31  5-MIN KMLU 052050Z 25005KT 10SM CLR 36/21 A3002 -10 41 2400 250/05 RMK AO2 SLP164 T03610211 58007
13942KMLU MLU20190905145510109/05/19 14:55:31  5-MIN KMLU 052055Z VRB05KT 10SM CLR 36/21 A3002 0 42 2400 VRB/05 RMK AO2 T03560211
13942KMLU MLU20190905150010109/05/19 15:00:31  5-MIN KMLU 052100Z 31005KT 10SM CLR 37/21 A3002 0 40 2500 310/05 RMK AO2 T03670211
13942KMLU MLU20190905150510109/05/19 15:05:31  5-MIN KMLU 052105Z 25006KT 10SM CLR 37/22 A3001 0 41 2500 250/06 RMK AO2 T03670217
13942KMLU MLU20190905151010109/05/19 15:10:31  5-MIN KMLU 052110Z VRB04KT 10SM CLR 36/21 A3001 0 41 2400 VRB/04 RMK AO2 T03610211
13942KMLU MLU20190905151510409/05/19 15:15:31  5-MIN KMLU 052115Z 33008KT 10SM FEW060 37/21 A3001 0 40 2500 320/08 RMK AO2 T03670211
13942KMLU MLU20190905152010409/05/19 15:20:31  5-MIN KMLU 052120Z 32006KT 10SM FEW060 37/21 A3001 0 40 2500 310/06 RMK AO2 T03670211
13942KMLU MLU20190905152510409/05/19 15:25:31  5-MIN KMLU 052125Z 28004KT 10SM FEW060 36/21 A3001 0 41 2400 280/04 RMK AO2 T03610211
13942KMLU MLU20190905153009409/05/19 15:30:31  5-MIN KMLU 052130Z 10SM FEW060 36/21 A3001 0 41 2400 M /M RMK AO2 T03610211
13942KMLU MLU20190905153510409/05/19 15:35:31  5-MIN KMLU 052135Z 01005KT 10SM FEW060 37/21 A3001 0 38 2600 010/05 RMK AO2 T03720211
13942KMLU MLU20190905154010409/05/19 15:40:31  5-MIN KMLU 052140Z VRB04KT 10SM FEW060 37/21 A3001 0 38 2600 VRB/04 RMK AO2 T03720211
13942KMLU MLU20190905154510109/05/19 15:45:31  5-MIN KMLU 052145Z 32006KT 10SM CLR 37/21 A3001 0 40 2500 320/06 RMK AO2 T03670211
13942KMLU MLU20190905155010809/05/19 15:50:31  5-MIN KMLU 052150Z 29006KT 10SM CLR 37/21 A3001 0 40 2500 290/06 RMK AO2 SLP159 T03670211
13942KMLU MLU20190905155510109/05/19 15:55:31  5-MIN KMLU 052155Z 33006KT 10SM CLR 37/21 A3001 0 38 2500 330/06 RMK AO2 T03670206
13942KMLU MLU20190905160010109/05/19 16:00:31  5-MIN KMLU 052200Z 33006KT 10SM CLR 37/20 A3000 0 37 2500 330/06 RMK AO2 T03670200
13942KMLU MLU20190905160510109/05/19 16:05:31  5-MIN KMLU 052205Z VRB04KT 10SM CLR 37/21 A3000 0 38 2500 VRB/04 RMK AO2 T03670206
13942KMLU MLU20190905161010109/05/19 16:10:31  5-MIN KMLU 052210Z 01003KT 10SM CLR 37/21 A3000 0 37 2600 010/03 RMK AO2 T03720206
13942KMLU MLU20190905161510209/05/19 16:15:31  5-MIN KMLU 052215Z 01006KT 10SM CLR 37/20 A3000 10 36 2600 010/06 RMK AO2 T03720200
13942KMLU MLU20190905162010209/05/19 16:20:31  5-MIN KMLU 052220Z 36007KT 10SM CLR 37/20 A3000 10 37 2500 360/07 RMK AO2 T03670200
13942KMLU MLU20190905162510209/05/19 16:25:31  5-MIN KMLU 052225Z 33004KT 10SM CLR 37/19 A3000 10 36 2500 330/04 RMK AO2 T03670194
13942KMLU MLU20190905163010209/05/19 16:30:31  5-MIN KMLU 052230Z 01006KT 10SM CLR 37/19 A3000 10 36 2500 010/06 RMK AO2 T03670194
13942KMLU MLU20190905163510209/05/19 16:35:31  5-MIN KMLU 052235Z 35007KT 10SM CLR 37/19 A3000 10 34 2500 350/07 RMK AO2 T03670189
13942KMLU MLU20190905164010209/05/19 16:40:31  5-MIN KMLU 052240Z 35006KT 10SM CLR 37/18 A3000 10 33 2500 350/06 RMK AO2 T03670183
13942KMLU MLU20190905164510209/05/19 16:45:31  5-MIN KMLU 052245Z 01006KT 10SM CLR 37/18 A3000 10 33 2500 010/06 RMK AO2 T03670183
13942KMLU MLU20190905165010909/05/19 16:50:31  5-MIN KMLU 052250Z 35006KT 10SM CLR 37/18 A3000 10 33 2500 350/06 RMK AO2 SLP156 T03670183
13942KMLU MLU20190905165510209/05/19 16:55:31  5-MIN KMLU 052255Z 35006KT 10SM CLR 37/18 A3000 10 33 2500 340/06 RMK AO2 T03670183
13942KMLU MLU20190905170010209/05/19 17:00:31  5-MIN KMLU 052300Z 01005KT 10SM CLR 36/18 A3000 10 34 2400 010/05 RMK AO2 T03610183
13942KMLU MLU20190905170510209/05/19 17:05:31  5-MIN KMLU 052305Z 36004KT 10SM CLR 37/19 A3000 10 34 2500 350/04 RMK AO2 T03670189
13942KMLU MLU20190905171010209/05/19 17:10:31  5-MIN KMLU 052310Z 35004KT 10SM CLR 37/19 A2999 10 34 2500 350/04 RMK AO2 T03670189
13942KMLU MLU20190905171510209/05/19 17:15:31  5-MIN KMLU 052315Z 01005KT 10SM CLR 36/19 A2999 10 35 2500 010/05 RMK AO2 T03610189
13942KMLU MLU20190905172010209/05/19 17:20:31  5-MIN KMLU 052320Z 36004KT 10SM CLR 36/19 A2999 10 35 2500 360/04 RMK AO2 T03610189
13942KMLU MLU20190905172510209/05/19 17:25:31  5-MIN KMLU 052325Z VRB04KT 10SM CLR 36/19 A2999 10 38 2400 VRB/04 RMK AO2 T03560194
13942KMLU MLU20190905173010209/05/19 17:30:31  5-MIN KMLU 052330Z 35005KT 10SM CLR 36/19 A2999 20 38 2400 350/05 RMK AO2 T03560194
13942KMLU MLU20190905173510209/05/19 17:35:31  5-MIN KMLU 052335Z 35004KT 10SM CLR 36/19 A2999 20 38 2400 350/04 RMK AO2 T03560194
13942KMLU MLU20190905174010209/05/19 17:40:31  5-MIN KMLU 052340Z 35005KT 10SM CLR 35/20 A2999 20 40 2300 350/05 RMK AO2 T03500200
13942KMLU MLU20190905174510209/05/19 17:45:31  5-MIN KMLU 052345Z 34005KT 10SM CLR 35/20 A2999 20 40 2300 340/05 RMK AO2 T03500200
13942KMLU MLU20190905175012709/05/19 17:50:31  5-MIN KMLU 052350Z 34004KT 10SM CLR 34/20 A2999 20 42 2300 340/04 RMK AO2 SLP153 T03440200 10372 20344 58021
13942KMLU MLU20190905175510209/05/19 17:55:31  5-MIN KMLU 052355Z 34004KT 10SM CLR 34/20 A2999 20 43 2200 340/04 RMK AO2 T03390200
13942KMLU MLU20190905180010209/05/19 18:00:31  5-MIN KMLU 060000Z 35003KT 10SM CLR 34/20 A2999 20 43 2200 340/03 RMK AO2 T03390200
13942KMLU MLU20190905180510209/05/19 18:05:31  5-MIN KMLU 060005Z 34004KT 10SM CLR 33/21 A2999 20 46 2200 340/04 RMK AO2 T03330206
13942KMLU MLU20190905181010209/05/19 18:10:31  5-MIN KMLU 060010Z 32003KT 10SM CLR 33/21 A2999 20 46 2200 320/03 RMK AO2 T03330206
13942KMLU MLU20190905181510209/05/19 18:15:31  5-MIN KMLU 060015Z 31003KT 10SM CLR 33/21 A2999 20 49 2100 310/03 RMK AO2 T03280211
13942KMLU MLU20190905182010209/05/19 18:20:31  5-MIN KMLU 060020Z 00000KT 10SM CLR 32/21 A2999 20 53 2000 000/00 RMK AO2 T03170211
13942KMLU MLU20190905182510209/05/19 18:25:31  5-MIN KMLU 060025Z 00000KT 10SM CLR 31/21 A2999 20 54 1900 000/00 RMK AO2 T03110211
13942KMLU MLU20190905183010209/05/19 18:30:31  5-MIN KMLU 060030Z 00000KT 10SM CLR 31/22 A2999 20 58 1800 000/00 RMK AO2 T03060217
13942KMLU MLU20190905183510209/05/19 18:35:31  5-MIN KMLU 060035Z 00000KT 10SM CLR 30/22 A2999 20 62 1800 000/00 RMK AO2 T03000222
13942KMLU MLU20190905184010209/05/19 18:40:31  5-MIN KMLU 060040Z 00000KT 10SM CLR 30/22 A2999 20 60 1800 000/00 RMK AO2 T03000217
13942KMLU MLU20190905184510209/05/19 18:45:31  5-MIN KMLU 060045Z 00000KT 10SM CLR 30/21 A2999 20 58 1800 000/00 RMK AO2 T03000211
13942KMLU MLU20190905185010909/05/19 18:50:31  5-MIN KMLU 060050Z 00000KT 10SM CLR 29/22 A2999 20 62 1700 000/00 RMK AO2 SLP153 T02940217
13942KMLU MLU20190905185510209/05/19 18:55:31  5-MIN KMLU 060055Z 00000KT 10SM CLR 29/22 A2999 20 64 1700 000/00 RMK AO2 T02940222
13942KMLU MLU20190905190010209/05/19 19:00:31  5-MIN KMLU 060100Z 00000KT 10SM CLR 29/22 A2999 20 67 1700 000/00 RMK AO2 T02890222
13942KMLU MLU20190905190510209/05/19 19:05:31  5-MIN KMLU 060105Z 00000KT 10SM CLR 29/22 A2999 20 67 1700 000/00 RMK AO2 T02890222
13942KMLU MLU20190905191010209/05/19 19:10:31  5-MIN KMLU 060110Z 00000KT 10SM CLR 29/22 A2999 20 67 1700 000/00 RMK AO2 T02890222
13942KMLU MLU20190905191510209/05/19 19:15:31  5-MIN KMLU 060115Z 00000KT 10SM CLR 28/22 A2999 10 69 1600 000/00 RMK AO2 T02830222
13942KMLU MLU20190905192010209/05/19 19:20:31  5-MIN KMLU 060120Z 00000KT 10SM CLR 28/22 A2999 10 69 1600 000/00 RMK AO2 T02830222
13942KMLU MLU20190905192510209/05/19 19:25:31  5-MIN KMLU 060125Z 00000KT 10SM CLR 28/22 A2999 10 69 1600 000/00 RMK AO2 T02830222
13942KMLU MLU20190905193010209/05/19 19:30:31  5-MIN KMLU 060130Z 00000KT 10SM CLR 28/22 A3000 10 69 1600 000/00 RMK AO2 T02830222
13942KMLU MLU20190905193510209/05/19 19:35:31  5-MIN KMLU 060135Z 00000KT 10SM CLR 28/22 A3000 10 69 1600 000/00 RMK AO2 T02830222
13942KMLU MLU20190905194010209/05/19 19:40:31  5-MIN KMLU 060140Z 00000KT 10SM CLR 28/22 A3000 10 71 1500 000/00 RMK AO2 T02780222
13942KMLU MLU20190905194510209/05/19 19:45:31  5-MIN KMLU 060145Z 00000KT 10SM CLR 27/22 A3000 10 74 1500 000/00 RMK AO2 T02720222
13942KMLU MLU20190905195010909/05/19 19:50:31  5-MIN KMLU 060150Z 00000KT 10SM CLR 27/22 A3000 10 74 1500 000/00 RMK AO2 SLP157 T02720222
13942KMLU MLU20190905195510209/05/19 19:55:31  5-MIN KMLU 060155Z 00000KT 10SM CLR 27/22 A3000 10 74 1500 000/00 RMK AO2 T02720222
13942KMLU MLU20190905200010209/05/19 20:00:31  5-MIN KMLU 060200Z 00000KT 10SM CLR 27/22 A3000 10 74 1500 000/00 RMK AO2 T02720222
13942KMLU MLU20190905200510209/05/19 20:05:31  5-MIN KMLU 060205Z 00000KT 10SM CLR 27/22 A3000 10 74 1500 000/00 RMK AO2 T02720222
13942KMLU MLU20190905201010209/05/19 20:10:31  5-MIN KMLU 060210Z 00000KT 10SM CLR 27/22 A3000 10 74 1500 000/00 RMK AO2 T02720222
13942KMLU MLU20190905201510209/05/19 20:15:31  5-MIN KMLU 060215Z 00000KT 10SM CLR 27/23 A3000 10 76 1500 000/00 RMK AO2 T02720228
13942KMLU MLU20190905202010209/05/19 20:20:31  5-MIN KMLU 060220Z 00000KT 10SM CLR 27/23 A3000 10 76 1500 000/00 RMK AO2 T02720228
13942KMLU MLU20190905202510109/05/19 20:25:31  5-MIN KMLU 060225Z 00000KT 10SM CLR 27/23 A3000 0 79 1400 000/00 RMK AO2 T02670228
13942KMLU MLU20190905203010109/05/19 20:30:31  5-MIN KMLU 060230Z 00000KT 10SM CLR 27/23 A3001 0 76 1500 000/00 RMK AO2 T02720228
13942KMLU MLU20190905211510609/05/19 21:15:31  5-MIN KMLU 060315Z AUTO 05005KT 10SM CLR 26/22 A3001 0 76 1300 050/05 RMK AO2 T02610217
13942KMLU MLU20190905212010609/05/19 21:20:31  5-MIN KMLU 060320Z AUTO 04003KT 10SM CLR 27/22 A3001 0 73 1400 040/03 RMK AO2 T02670217
13942KMLU MLU20190905212510609/05/19 21:25:31  5-MIN KMLU 060325Z AUTO 04003KT 10SM CLR 27/22 A3001 0 71 1400 040/03 RMK AO2 T02720217
13942KMLU MLU20190905213010609/05/19 21:30:31  5-MIN KMLU 060330Z AUTO 04003KT 10SM CLR 28/22 A3001 0 69 1500 040/03 RMK AO2 T02780217
13942KMLU MLU20190905213510609/05/19 21:35:31  5-MIN KMLU 060335Z AUTO 04004KT 10SM CLR 28/22 A3001 0 69 1500 040/04 RMK AO2 T02780217
13942KMLU MLU20190905214010609/05/19 21:40:31  5-MIN KMLU 060340Z AUTO 04003KT 10SM CLR 28/22 A3001 0 69 1500 040/03 RMK AO2 T02780217
13942KMLU MLU20190905214510609/05/19 21:45:31  5-MIN KMLU 060345Z AUTO 04004KT 10SM CLR 28/22 A3001 0 69 1500 040/04 RMK AO2 T02780217
13942KMLU MLU20190905215011309/05/19 21:50:31  5-MIN KMLU 060350Z AUTO 05004KT 10SM CLR 28/22 A3001 0 69 1500 050/04 RMK AO2 SLP161 T02780217
13942KMLU MLU20190905215510609/05/19 21:55:31  5-MIN KMLU 060355Z AUTO 05004KT 10SM CLR 28/22 A3001 0 69 1500 040/04 RMK AO2 T02780217
13942KMLU MLU20190905220010609/05/19 22:00:31  5-MIN KMLU 060400Z AUTO 06004KT 10SM CLR 28/22 A3001 0 69 1500 060/04 RMK AO2 T02780217
13942KMLU MLU20190905220510609/05/19 22:05:31  5-MIN KMLU 060405Z AUTO 07004KT 10SM CLR 27/22 A3001 0 71 1400 060/04 RMK AO2 T02720217
13942KMLU MLU20190905221010609/05/19 22:10:31  5-MIN KMLU 060410Z AUTO 06005KT 10SM CLR 27/22 A3001 0 71 1400 060/05 RMK AO2 T02720217
13942KMLU MLU20190905221510609/05/19 22:15:31  5-MIN KMLU 060415Z AUTO 06005KT 10SM CLR 28/22 A3001 0 69 1500 060/05 RMK AO2 T02780217
13942KMLU MLU20190905222010609/05/19 22:20:31  5-MIN KMLU 060420Z AUTO 06005KT 10SM CLR 28/22 A3001 0 69 1500 060/05 RMK AO2 T02780217
13942KMLU MLU20190905222510609/05/19 22:25:31  5-MIN KMLU 060425Z AUTO 06004KT 10SM CLR 28/22 A3001 0 69 1500 050/04 RMK AO2 T02780217
13942KMLU MLU20190905223010609/05/19 22:30:31  5-MIN KMLU 060430Z AUTO 06004KT 10SM CLR 28/22 A3002 0 69 1500 050/04 RMK AO2 T02780217
13942KMLU MLU20190905223510609/05/19 22:35:31  5-MIN KMLU 060435Z AUTO 05005KT 10SM CLR 28/22 A3002 0 69 1500 050/05 RMK AO2 T02780217
13942KMLU MLU20190905224010609/05/19 22:40:31  5-MIN KMLU 060440Z AUTO 06005KT 10SM CLR 28/22 A3001 0 69 1500 060/05 RMK AO2 T02780217
13942KMLU MLU20190905224510609/05/19 22:45:31  5-MIN KMLU 060445Z AUTO 06006KT 10SM CLR 28/22 A3001 0 71 1500 060/06 RMK AO2 T02780222
13942KMLU MLU20190905225011309/05/19 22:50:31  5-MIN KMLU 060450Z AUTO 06006KT 10SM CLR 28/22 A3001 0 69 1600 060/06 RMK AO2 SLP161 T02830222
13942KMLU MLU20190905225510609/05/19 22:55:31  5-MIN KMLU 060455Z AUTO 06005KT 10SM CLR 28/22 A3001 0 69 1600 060/05 RMK AO2 T02830222
13942KMLU MLU20190905230010609/05/19 23:00:31  5-MIN KMLU 060500Z AUTO 06004KT 10SM CLR 28/22 A3001 0 69 1600 060/04 RMK AO2 T02830222
13942KMLU MLU20190905230510609/05/19 23:05:31  5-MIN KMLU 060505Z AUTO 06005KT 10SM CLR 28/22 A3002 0 69 1600 060/05 RMK AO2 T02830222
13942KMLU MLU20190905231010609/05/19 23:10:31  5-MIN KMLU 060510Z AUTO 06004KT 10SM CLR 28/22 A3002 0 69 1600 060/04 RMK AO2 T02830222
13942KMLU MLU20190905231510609/05/19 23:15:31  5-MIN KMLU 060515Z AUTO 06005KT 10SM CLR 28/22 A3002 0 71 1500 060/05 RMK AO2 T02780222
13942KMLU MLU20190905232010609/05/19 23:20:31  5-MIN KMLU 060520Z AUTO 07005KT 10SM CLR 28/22 A3001 0 71 1500 070/05 RMK AO2 T02780222
13942KMLU MLU20190905232510609/05/19 23:25:31  5-MIN KMLU 060525Z AUTO 07004KT 10SM CLR 28/22 A3001 0 71 1500 070/04 RMK AO2 T02780222
13942KMLU MLU20190905233010609/05/19 23:30:31  5-MIN KMLU 060530Z AUTO 06004KT 10SM CLR 28/23 A3002 0 74 1500 060/04 RMK AO2 T02780228
13942KMLU MLU20190905233510609/05/19 23:35:31  5-MIN KMLU 060535Z AUTO 07004KT 10SM CLR 28/23 A3002 0 74 1500 070/04 RMK AO2 T02780228
13942KMLU MLU20190905234010609/05/19 23:40:31  5-MIN KMLU 060540Z AUTO 07004KT 10SM CLR 28/23 A3002 0 74 1500 060/04 RMK AO2 T02780228
13942KMLU MLU20190905234510609/05/19 23:45:31  5-MIN KMLU 060545Z AUTO 06004KT 10SM CLR 27/23 A3002 0 76 1400 060/04 RMK AO2 T02720228
13942KMLU MLU20190905235014109/05/19 23:50:31  5-MIN KMLU 060550Z AUTO 06004KT 10SM CLR 27/23 A3001 0 76 1400 060/04 RMK AO2 SLP162 T02720228 10339 20256 403720217 53006
13942KMLU MLU20190905235510609/05/19 23:55:31  5-MIN KMLU 060555Z AUTO 06004KT 10SM CLR 27/23 A3001 0 76 1400 060/04 RMK AO2 T02720228
13942KMLU MLU20190906000010609/06/19 00:00:31  5-MIN KMLU 060600Z AUTO 07004KT 10SM CLR 27/23 A3001 0 79 1400 070/04 RMK AO2 T02670228
13942KMLU MLU20190906000510609/06/19 00:05:31  5-MIN KMLU 060605Z AUTO 06004KT 10SM CLR 27/23 A3001 0 79 1400 060/04 RMK AO2 T02670228
13942KMLU MLU20190906001010609/06/19 00:10:31  5-MIN KMLU 060610Z AUTO 06003KT 10SM CLR 27/23 A3001 0 79 1400 060/03 RMK AO2 T02670228
13942KMLU MLU20190906001510609/06/19 00:15:31  5-MIN KMLU 060615Z AUTO 00000KT 10SM CLR 26/23 A3001 0 81 1300 000/00 RMK AO2 T02610228
13942KMLU MLU20190906002010609/06/19 00:20:31  5-MIN KMLU 060620Z AUTO 08003KT 10SM CLR 26/23 A3001 0 84 1300 080/03 RMK AO2 T02560228
13942KMLU MLU20190906002510609/06/19 00:25:31  5-MIN KMLU 060625Z AUTO 00000KT 10SM CLR 26/23 A3001 0 84 1300 000/00 RMK AO2 T02560228
13942KMLU MLU20190906003010609/06/19 00:30:31  5-MIN KMLU 060630Z AUTO 00000KT 10SM CLR 26/23 A3001 0 84 1300 000/00 RMK AO2 T02560228
13942KMLU MLU20190906003510609/06/19 00:35:31  5-MIN KMLU 060635Z AUTO 00000KT 10SM CLR 26/23 A3001 0 84 1300 000/00 RMK AO2 T02560228
13942KMLU MLU20190906004010609/06/19 00:40:31  5-MIN KMLU 060640Z AUTO 00000KT 10SM CLR 25/23 A3002 0 87 1200 000/00 RMK AO2 T02500228
13942KMLU MLU20190906004510609/06/19 00:45:31  5-MIN KMLU 060645Z AUTO 00000KT 10SM CLR 26/23 A3002 0 84 1300 000/00 RMK AO2 T02560228
13942KMLU MLU20190906005011309/06/19 00:50:31  5-MIN KMLU 060650Z AUTO 00000KT 10SM CLR 26/23 A3002 0 84 1300 000/00 RMK AO2 SLP162 T02560228
13942KMLU MLU20190906005510609/06/19 00:55:31  5-MIN KMLU 060655Z AUTO 00000KT 10SM CLR 26/23 A3002 0 84 1300 000/00 RMK AO2 T02560228
13942KMLU MLU20190906010010609/06/19 01:00:31  5-MIN KMLU 060700Z AUTO 00000KT 10SM CLR 25/23 A3002 0 87 1200 000/00 RMK AO2 T02500228
13942KMLU MLU20190906010510609/06/19 01:05:31  5-MIN KMLU 060705Z AUTO 00000KT 10SM CLR 25/23 A3002 0 87 1200 000/00 RMK AO2 T02500228
13942KMLU MLU20190906011010609/06/19 01:10:31  5-MIN KMLU 060710Z AUTO 00000KT 10SM CLR 24/22 A3002 0 87 1100 000/00 RMK AO2 T02440222
13942KMLU MLU20190906011510609/06/19 01:15:31  5-MIN KMLU 060715Z AUTO 00000KT 10SM CLR 24/22 A3002 0 87 1100 000/00 RMK AO2 T02440222
13942KMLU MLU20190906012010609/06/19 01:20:31  5-MIN KMLU 060720Z AUTO 00000KT 10SM CLR 24/22 A3002 0 87 1100 000/00 RMK AO2 T02440222
13942KMLU MLU20190906012510609/06/19 01:25:31  5-MIN KMLU 060725Z AUTO 00000KT 10SM CLR 25/22 A3002 0 84 1200 000/00 RMK AO2 T02500222
13942KMLU MLU20190906013010609/06/19 01:30:31  5-MIN KMLU 060730Z AUTO 00000KT 10SM CLR 24/23 A3002 0 90 1100 000/00 RMK AO2 T02440228
13942KMLU MLU20190906013510609/06/19 01:35:31  5-MIN KMLU 060735Z AUTO 00000KT 10SM CLR 24/23 A3002 0 90 1100 000/00 RMK AO2 T02440228
13942KMLU MLU20190906014010609/06/19 01:40:31  5-MIN KMLU 060740Z AUTO 00000KT 10SM CLR 24/22 A3002 0 87 1100 000/00 RMK AO2 T02440222
13942KMLU MLU20190906014510609/06/19 01:45:31  5-MIN KMLU 060745Z AUTO 00000KT 10SM CLR 24/23 A3001 0 90 1100 000/00 RMK AO2 T02440228
13942KMLU MLU20190906015011309/06/19 01:50:31  5-MIN KMLU 060750Z AUTO 00000KT 10SM CLR 24/23 A3001 0 90 1100 000/00 RMK AO2 SLP162 T02440228
13942KMLU MLU20190906015510609/06/19 01:55:31  5-MIN KMLU 060755Z AUTO 00000KT 10SM CLR 24/23 A3001 0 90 1100 000/00 RMK AO2 T02440228
13942KMLU MLU20190906020010609/06/19 02:00:31  5-MIN KMLU 060800Z AUTO 00000KT 10SM CLR 24/23 A3001 0 90 1100 000/00 RMK AO2 T02440228
13942KMLU MLU20190906020510609/06/19 02:05:31  5-MIN KMLU 060805Z AUTO 00000KT 10SM CLR 24/22 A3001 0 87 1100 000/00 RMK AO2 T02440222
13942KMLU MLU20190906021010509/06/19 02:10:31  5-MIN KMLU 060810Z AUTO 00000KT 9SM CLR 24/23 A3001 0 90 1100 000/00 RMK AO2 T02440228
13942KMLU MLU20190906021510509/06/19 02:15:31  5-MIN KMLU 060815Z AUTO 00000KT 8SM CLR 24/23 A3001 0 90 1100 000/00 RMK AO2 T02440228
13942KMLU MLU20190906022010509/06/19 02:20:31  5-MIN KMLU 060820Z AUTO 00000KT 8SM CLR 24/23 A3001 0 93 1100 000/00 RMK AO2 T02390228
13942KMLU MLU20190906022510509/06/19 02:25:31  5-MIN KMLU 060825Z AUTO 00000KT 8SM CLR 24/22 A3001 0 90 1100 000/00 RMK AO2 T02390222
13942KMLU MLU20190906023010509/06/19 02:30:31  5-MIN KMLU 060830Z AUTO 00000KT 8SM CLR 24/22 A3001 0 90 1100 000/00 RMK AO2 T02390222
13942KMLU MLU20190906023510509/06/19 02:35:31  5-MIN KMLU 060835Z AUTO 00000KT 8SM CLR 24/22 A3001 0 90 1100 000/00 RMK AO2 T02390222
13942KMLU MLU20190906024010509/06/19 02:40:31  5-MIN KMLU 060840Z AUTO 00000KT 7SM CLR 23/22 A3001 0 93 1000 000/00 RMK AO2 T02330222
13942KMLU MLU20190906024510509/06/19 02:45:31  5-MIN KMLU 060845Z AUTO 00000KT 7SM CLR 23/22 A3001 0 90 1000 000/00 RMK AO2 T02330217
13942KMLU MLU20190906025011809/06/19 02:50:31  5-MIN KMLU 060850Z AUTO 00000KT 7SM CLR 23/22 A3001 0 93 1000 000/00 RMK AO2 SLP162 T02330222 51002
13942KMLU MLU20190906025510809/06/19 02:55:31  5-MIN KMLU 060855Z AUTO 00000KT 5SM BR CLR 23/22 A3001 0 93 1000 000/00 RMK AO2 T02330222
13942KMLU MLU20190906030010809/06/19 03:00:31  5-MIN KMLU 060900Z AUTO 00000KT 4SM BR CLR 23/22 A3001 0 93 1000 000/00 RMK AO2 T02330222
13942KMLU MLU20190906030510809/06/19 03:05:31  5-MIN KMLU 060905Z AUTO 00000KT 4SM BR CLR 23/22 A3002 0 93 1000 000/00 RMK AO2 T02330222
13942KMLU MLU20190906031010809/06/19 03:10:31  5-MIN KMLU 060910Z AUTO 00000KT 4SM BR CLR 24/22 A3002 0 90 1100 000/00 RMK AO2 T02390222
13942KMLU MLU20190906031510809/06/19 03:15:31  5-MIN KMLU 060915Z AUTO 00000KT 5SM BR CLR 24/23 A3002 0 93 1100 000/00 RMK AO2 T02390228
13942KMLU MLU20190906032010809/06/19 03:20:31  5-MIN KMLU 060920Z AUTO 00000KT 6SM BR CLR 23/22 A3002 0 93 1000 000/00 RMK AO2 T02330222
13942KMLU MLU20190906032511009/06/19 03:25:31  5-MIN KMLU 060925Z AUTO 00000KT 6SM BR CLR 23/22 A3002 -10 93 1000 000/00 RMK AO2 T02330222
13942KMLU MLU20190906033011009/06/19 03:30:31  5-MIN KMLU 060930Z AUTO 00000KT 6SM BR CLR 23/22 A3002 -10 93 1000 000/00 RMK AO2 T02330222
13942KMLU MLU20190906033511009/06/19 03:35:31  5-MIN KMLU 060935Z AUTO 00000KT 6SM BR CLR 23/23 A3002 -10 97 1000 000/00 RMK AO2 T02330228
13942KMLU MLU20190906034011009/06/19 03:40:31  5-MIN KMLU 060940Z AUTO 00000KT 6SM BR CLR 23/23 A3002 -10 97 1000 000/00 RMK AO2 T02330228
13942KMLU MLU20190906034511009/06/19 03:45:31  5-MIN KMLU 060945Z AUTO 00000KT 6SM BR CLR 23/22 A3002 -10 93 1000 000/00 RMK AO2 T02330222
13942KMLU MLU20190906035011709/06/19 03:50:31  5-MIN KMLU 060950Z AUTO 00000KT 6SM BR CLR 23/22 A3002 -10 93 1000 000/00 RMK AO2 SLP165 T02330222
13942KMLU MLU20190906035511009/06/19 03:55:31  5-MIN KMLU 060955Z AUTO 00000KT 6SM BR CLR 23/22 A3002 -10 93 1000 000/00 RMK AO2 T02330222
13942KMLU MLU20190906040011009/06/19 04:00:31  5-MIN KMLU 061000Z AUTO 00000KT 6SM BR CLR 23/22 A3002 -10 93 1000 000/00 RMK AO2 T02330222
13942KMLU MLU20190906040511009/06/19 04:05:31  5-MIN KMLU 061005Z AUTO 00000KT 6SM BR CLR 23/22 A3002 -10 93 1000 000/00 RMK AO2 T02330222
13942KMLU MLU20190906041010909/06/19 04:10:31  5-MIN KMLU 061010Z AUTO 00000KT 6SM BR CLR 23/22 A3002 -10 93 900 000/00 RMK AO2 T02280217
13942KMLU MLU20190906041510909/06/19 04:15:31  5-MIN KMLU 061015Z AUTO 00000KT 5SM BR CLR 23/22 A3003 -10 93 900 000/00 RMK AO2 T02280217
13942KMLU MLU20190906042010909/06/19 04:20:31  5-MIN KMLU 061020Z AUTO 00000KT 5SM BR CLR 23/22 A3003 -10 93 900 000/00 RMK AO2 T02280217
13942KMLU MLU20190906042510909/06/19 04:25:31  5-MIN KMLU 061025Z AUTO 00000KT 5SM BR CLR 23/22 A3003 -10 93 900 000/00 RMK AO2 T02280217
13942KMLU MLU20190906043010909/06/19 04:30:31  5-MIN KMLU 061030Z AUTO 00000KT 5SM BR CLR 23/22 A3003 -10 93 900 000/00 RMK AO2 T02280217
13942KMLU MLU20190906043510909/06/19 04:35:31  5-MIN KMLU 061035Z AUTO 00000KT 5SM BR CLR 23/22 A3003 -10 93 900 000/00 RMK AO2 T02280217
13942KMLU MLU20190906044010909/06/19 04:40:31  5-MIN KMLU 061040Z AUTO 00000KT 5SM BR CLR 23/22 A3003 -20 93 900 000/00 RMK AO2 T02280217
13942KMLU MLU20190906044510909/06/19 04:45:31  5-MIN KMLU 061045Z AUTO 00000KT 4SM BR CLR 23/22 A3003 -20 93 900 000/00 RMK AO2 T02280217
13942KMLU MLU20190906045011609/06/19 04:50:31  5-MIN KMLU 061050Z AUTO 00000KT 3SM BR CLR 23/22 A3003 -20 93 900 000/00 RMK AO2 SLP168 T02280217
13942KMLU MLU20190906045510409/06/19 04:55:31  5-MIN KMLU 061055Z 00000KT 3SM BR CLR 23/22 A3003 -20 93 900 000/00 RMK AO2 T02280217
13942KMLU MLU20190906050010409/06/19 05:00:31  5-MIN KMLU 061100Z 00000KT 4SM BR CLR 22/21 A3003 -20 93 900 000/00 RMK AO2 T02220211
13942KMLU MLU20190906050510409/06/19 05:05:31  5-MIN KMLU 061105Z 00000KT 3SM BR CLR 22/22 A3003 -20 97 900 000/00 RMK AO2 T02220217
13942KMLU MLU20190906051010409/06/19 05:10:31  5-MIN KMLU 061110Z 00000KT 4SM BR CLR 22/22 A3003 -20 97 900 000/00 RMK AO2 T02220217
13942KMLU MLU20190906051510409/06/19 05:15:31  5-MIN KMLU 061115Z 00000KT 4SM BR CLR 23/22 A3003 -20 93 900 000/00 RMK AO2 T02280217
13942KMLU MLU20190906052010409/06/19 05:20:31  5-MIN KMLU 061120Z 00000KT 4SM BR CLR 22/22 A3004 -20 97 900 000/00 RMK AO2 T02220217
13942KMLU MLU20190906052510409/06/19 05:25:31  5-MIN KMLU 061125Z 00000KT 4SM BR CLR 22/22 A3004 -20 97 800 000/00 RMK AO2 T02220217
13942KMLU MLU20190906053010409/06/19 05:30:31  5-MIN KMLU 061130Z 05003KT 4SM BR CLR 22/21 A3004 -20 93 800 050/03 RMK AO2 T02220211
13942KMLU MLU20190906053510409/06/19 05:35:31  5-MIN KMLU 061135Z 04004KT 4SM BR CLR 22/21 A3004 -30 93 800 040/04 RMK AO2 T02220211
13942KMLU MLU20190906054010409/06/19 05:40:31  5-MIN KMLU 061140Z 05003KT 4SM BR CLR 22/22 A3004 -30 97 800 050/03 RMK AO2 T02220217
13942KMLU MLU20190906054510409/06/19 05:45:31  5-MIN KMLU 061145Z 04003KT 4SM BR CLR 22/21 A3005 -30 93 800 040/03 RMK AO2 T02220211
13942KMLU MLU20190906055012909/06/19 05:50:31  5-MIN KMLU 061150Z 00000KT 4SM BR CLR 22/21 A3005 -30 93 800 000/00 RMK AO2 SLP173 T02220211 10272 20217 50000
13942KMLU MLU20190906055510409/06/19 05:55:31  5-MIN KMLU 061155Z 00000KT 4SM BR CLR 23/22 A3005 -30 93 900 000/00 RMK AO2 T02280217
13942KMLU MLU20190906060010409/06/19 06:00:31  5-MIN KMLU 061200Z 00000KT 5SM BR CLR 22/22 A3005 -30 97 800 000/00 RMK AO2 T02220217
13942KMLU MLU20190906060510409/06/19 06:05:31  5-MIN KMLU 061205Z 00000KT 5SM BR CLR 23/22 A3005 -40 93 900 000/00 RMK AO2 T02280217
13942KMLU MLU20190906061010409/06/19 06:10:31  5-MIN KMLU 061210Z 03003KT 4SM BR CLR 23/22 A3005 -40 93 900 030/03 RMK AO2 T02280217
13942KMLU MLU20190906061510409/06/19 06:15:31  5-MIN KMLU 061215Z 04003KT 3SM BR CLR 23/22 A3005 -40 93 900 030/03 RMK AO2 T02280217
13942KMLU MLU20190906062010409/06/19 06:20:31  5-MIN KMLU 061220Z 04003KT 3SM BR CLR 23/22 A3005 -40 97 900 040/03 RMK AO2 T02280222
13942KMLU MLU20190906062510509/06/19 06:25:31  5-MIN KMLU 061225Z 04003KT 3SM BR CLR 23/22 A3005 -40 93 1000 040/03 RMK AO2 T02330222
13942KMLU MLU20190906063010509/06/19 06:30:31  5-MIN KMLU 061230Z 00000KT 3SM BR CLR 24/23 A3006 -40 93 1000 000/00 RMK AO2 T02390228
13942KMLU MLU20190906063510509/06/19 06:35:31  5-MIN KMLU 061235Z 00000KT 4SM BR CLR 24/23 A3006 -40 93 1000 000/00 RMK AO2 T02390228
13942KMLU MLU20190906064010509/06/19 06:40:31  5-MIN KMLU 061240Z 00000KT 6SM BR CLR 24/23 A3006 -40 93 1100 000/00 RMK AO2 T02440233
13942KMLU MLU20190906064510209/06/19 06:45:31  5-MIN KMLU 061245Z 00000KT 7SM CLR 25/23 A3006 -40 90 1100 000/00 RMK AO2 T02500233
13942KMLU MLU20190906065011209/06/19 06:50:31  5-MIN KMLU 061250Z 00000KT 6SM BR CLR 26/23 A3006 -40 87 1200 000/00 RMK AO2 SLP178 T02560233
13942KMLU MLU20190906065510509/06/19 06:55:31  5-MIN KMLU 061255Z 00000KT 7SM BR CLR 26/23 A3006 -50 87 1200 000/00 RMK AO2 T02560233
13942KMLU MLU20190906070010209/06/19 07:00:31  5-MIN KMLU 061300Z 00000KT 7SM CLR 26/23 A3006 -50 84 1300 000/00 RMK AO2 T02610233
13942KMLU MLU20190906070510209/06/19 07:05:31  5-MIN KMLU 061305Z 00000KT 8SM CLR 26/23 A3007 -50 84 1300 000/00 RMK AO2 T02610233
13942KMLU MLU20190906071010209/06/19 07:10:31  5-MIN KMLU 061310Z 00000KT 8SM CLR 27/23 A3007 -50 82 1300 000/00 RMK AO2 T02670233
13942KMLU MLU20190906071510209/06/19 07:15:31  5-MIN KMLU 061315Z 00000KT 8SM CLR 27/23 A3007 -50 82 1300 000/00 RMK AO2 T02670233
13942KMLU MLU20190906072010209/06/19 07:20:31  5-MIN KMLU 061320Z 06003KT 9SM CLR 27/23 A3007 -50 79 1400 060/03 RMK AO2 T02720233
13942KMLU MLU20190906072510309/06/19 07:25:31  5-MIN KMLU 061325Z 06003KT 10SM CLR 28/23 A3007 -50 76 1400 060/03 RMK AO2 T02780233
13942KMLU MLU20190906073010309/06/19 07:30:31  5-MIN KMLU 061330Z 00000KT 10SM CLR 28/23 A3007 -50 76 1400 000/00 RMK AO2 T02780233
13942KMLU MLU20190906073510309/06/19 07:35:31  5-MIN KMLU 061335Z 09003KT 10SM CLR 28/23 A3007 -50 74 1400 090/03 RMK AO2 T02780228
13942KMLU MLU20190906074010309/06/19 07:40:31  5-MIN KMLU 061340Z 08003KT 10SM CLR 28/23 A3007 -60 71 1500 080/03 RMK AO2 T02830228
13942KMLU MLU20190906074510309/06/19 07:45:31  5-MIN KMLU 061345Z 12003KT 10SM CLR 28/23 A3008 -60 71 1500 120/03 RMK AO2 T02830228
13942KMLU MLU20190906075011009/06/19 07:50:31  5-MIN KMLU 061350Z 12003KT 10SM CLR 28/23 A3008 -60 71 1500 120/03 RMK AO2 SLP183 T02830228
13942KMLU MLU20190906075510309/06/19 07:55:31  5-MIN KMLU 061355Z VRB03KT 10SM CLR 28/23 A3008 -60 71 1500 VRB/03 RMK AO2 T02830228
13942KMLU MLU20190906080010309/06/19 08:00:31  5-MIN KMLU 061400Z 00000KT 10SM CLR 29/23 A3008 -60 69 1600 000/00 RMK AO2 T02890228
13942KMLU MLU20190906080510309/06/19 08:05:31  5-MIN KMLU 061405Z 00000KT 10SM CLR 29/23 A3008 -60 67 1600 000/00 RMK AO2 T02940228
13942KMLU MLU20190906081010309/06/19 08:10:31  5-MIN KMLU 061410Z 09003KT 10SM CLR 29/23 A3008 -60 67 1600 080/03 RMK AO2 T02940228
13942KMLU MLU20190906081510309/06/19 08:15:31  5-MIN KMLU 061415Z 00000KT 10SM CLR 29/23 A3008 -60 67 1600 000/00 RMK AO2 T02940228
13942KMLU MLU20190906082010309/06/19 08:20:31  5-MIN KMLU 061420Z 00000KT 10SM CLR 30/23 A3008 -60 65 1700 000/00 RMK AO2 T03000228
13942KMLU MLU20190906082510309/06/19 08:25:31  5-MIN KMLU 061425Z 00000KT 10SM CLR 29/23 A3008 -60 67 1600 000/00 RMK AO2 T02940228
13942KMLU MLU20190906083010309/06/19 08:30:31  5-MIN KMLU 061430Z 00000KT 10SM CLR 30/23 A3008 -60 67 1700 000/00 RMK AO2 T03000233
13942KMLU MLU20190906083510309/06/19 08:35:31  5-MIN KMLU 061435Z 00000KT 10SM CLR 31/23 A3008 -60 65 1700 000/00 RMK AO2 T03060233
13942KMLU MLU20190906084010309/06/19 08:40:31  5-MIN KMLU 061440Z 00000KT 10SM CLR 31/23 A3008 -60 62 1700 000/00 RMK AO2 T03060228
13942KMLU MLU20190906084510309/06/19 08:45:31  5-MIN KMLU 061445Z 00000KT 10SM CLR 31/23 A3008 -60 62 1700 000/00 RMK AO2 T03060228
13942KMLU MLU20190906085011609/06/19 08:50:31  5-MIN KMLU 061450Z 00000KT 10SM CLR 31/23 A3008 -60 62 1700 000/00 RMK AO2 SLP183 T03060228 53012
13942KMLU MLU20190906085510309/06/19 08:55:31  5-MIN KMLU 061455Z 00000KT 10SM CLR 31/23 A3008 -60 60 1800 000/00 RMK AO2 T03110228
13942KMLU MLU20190906090010309/06/19 09:00:31  5-MIN KMLU 061500Z 20003KT 10SM CLR 31/23 A3008 -60 60 1800 190/03 RMK AO2 T03110228
13942KMLU MLU20190906090510309/06/19 09:05:31  5-MIN KMLU 061505Z 00000KT 10SM CLR 32/23 A3008 -60 58 1900 000/00 RMK AO2 T03170228
13942KMLU MLU20190906091010309/06/19 09:10:31  5-MIN KMLU 061510Z VRB03KT 10SM CLR 32/23 A3008 -60 58 1900 VRB/03 RMK AO2 T03170228
13942KMLU MLU20190906091510309/06/19 09:15:31  5-MIN KMLU 061515Z 00000KT 10SM CLR 32/23 A3008 -60 58 1900 000/00 RMK AO2 T03170228
13942KMLU MLU20190906092010309/06/19 09:20:31  5-MIN KMLU 061520Z 00000KT 10SM CLR 32/23 A3008 -60 57 1900 000/00 RMK AO2 T03220228
13942KMLU MLU20190906092510309/06/19 09:25:31  5-MIN KMLU 061525Z 09004KT 10SM CLR 32/23 A3008 -60 57 1900 090/04 RMK AO2 T03220228
13942KMLU MLU20190906093010309/06/19 09:30:31  5-MIN KMLU 061530Z 00000KT 10SM CLR 33/22 A3008 -60 51 2000 000/00 RMK AO2 T03280217
13942KMLU MLU20190906093510309/06/19 09:35:31  5-MIN KMLU 061535Z 00000KT 10SM CLR 33/22 A3008 -60 51 2100 000/00 RMK AO2 T03330222
13942KMLU MLU20190906094010309/06/19 09:40:31  5-MIN KMLU 061540Z 00000KT 10SM CLR 33/22 A3008 -60 50 2100 000/00 RMK AO2 T03330217
13942KMLU MLU20190906094510309/06/19 09:45:31  5-MIN KMLU 061545Z 00000KT 10SM CLR 33/22 A3008 -60 50 2100 000/00 RMK AO2 T03330217
13942KMLU MLU20190906095011009/06/19 09:50:31  5-MIN KMLU 061550Z 07003KT 10SM CLR 33/22 A3007 -60 51 2100 070/03 RMK AO2 SLP182 T03330222
13942KMLU MLU20190906095510309/06/19 09:55:31  5-MIN KMLU 061555Z 00000KT 10SM CLR 33/22 A3007 -50 51 2000 000/00 RMK AO2 T03280217
13942KMLU MLU20190906100010309/06/19 10:00:31  5-MIN KMLU 061600Z 00000KT 10SM CLR 33/22 A3007 -50 50 2100 000/00 RMK AO2 T03330217
13942KMLU MLU20190906100510309/06/19 10:05:31  5-MIN KMLU 061605Z 00000KT 10SM CLR 34/22 A3007 -50 50 2100 000/00 RMK AO2 T03390222
13942KMLU MLU20190906101010309/06/19 10:10:31  5-MIN KMLU 061610Z 00000KT 10SM CLR 34/22 A3007 -50 48 2100 000/00 RMK AO2 T03390217
13942KMLU MLU20190906101510309/06/19 10:15:31  5-MIN KMLU 061615Z VRB04KT 10SM CLR 34/22 A3007 -50 50 2100 VRB/04 RMK AO2 T03390222
13942KMLU MLU20190906102010309/06/19 10:20:31  5-MIN KMLU 061620Z 00000KT 10SM CLR 34/22 A3006 -50 48 2200 000/00 RMK AO2 T03440222
13942KMLU MLU20190906102510309/06/19 10:25:31  5-MIN KMLU 061625Z 00000KT 10SM CLR 34/22 A3006 -40 48 2100 000/00 RMK AO2 T03390217
13942KMLU MLU20190906103010309/06/19 10:30:31  5-MIN KMLU 061630Z 00000KT 10SM CLR 34/22 A3006 -40 48 2200 000/00 RMK AO2 T03440222
13942KMLU MLU20190906103509309/06/19 10:35:31  5-MIN KMLU 061635Z 10SM CLR 34/22 A3006 -40 50 2100 M /M RMK AO2 T03390222
13942KMLU MLU20190906104010309/06/19 10:40:31  5-MIN KMLU 061640Z VRB03KT 10SM CLR 36/22 A3006 -40 45 2300 VRB/03 RMK AO2 T03560222
13942KMLU MLU20190906104510309/06/19 10:45:31  5-MIN KMLU 061645Z VRB03KT 10SM CLR 35/22 A3006 -40 47 2300 VRB/03 RMK AO2 T03500222
13942KMLU MLU20190906105011009/06/19 10:50:31  5-MIN KMLU 061650Z VRB03KT 10SM CLR 34/23 A3006 -40 50 2200 VRB/03 RMK AO2 SLP177 T03440228
13942KMLU MLU20190906105510309/06/19 10:55:31  5-MIN KMLU 061655Z 34005KT 10SM CLR 35/22 A3006 -40 47 2300 340/05 RMK AO2 T03500222
13942KMLU MLU20190906110010309/06/19 11:00:31  5-MIN KMLU 061700Z 30003KT 10SM CLR 35/22 A3006 -40 47 2300 300/03 RMK AO2 T03500222
13942KMLU MLU20190906110510309/06/19 11:05:31  5-MIN KMLU 061705Z VRB03KT 10SM CLR 34/22 A3005 -40 48 2200 VRB/03 RMK AO2 T03440222
13942KMLU MLU20190906111010309/06/19 11:10:31  5-MIN KMLU 061710Z VRB04KT 10SM CLR 34/23 A3005 -40 50 2200 VRB/04 RMK AO2 T03440228
13942KMLU MLU20190906111510309/06/19 11:15:31  5-MIN KMLU 061715Z VRB04KT 10SM CLR 35/23 A3005 -40 48 2300 VRB/04 RMK AO2 T03500228
13942KMLU MLU20190906112010309/06/19 11:20:31  5-MIN KMLU 061720Z VRB04KT 10SM CLR 35/23 A3005 -40 48 2300 VRB/04 RMK AO2 T03500228
13942KMLU MLU20190906112510309/06/19 11:25:31  5-MIN KMLU 061725Z VRB05KT 10SM CLR 35/22 A3005 -30 47 2300 VRB/05 RMK AO2 T03500222
13942KMLU MLU20190906113010309/06/19 11:30:31  5-MIN KMLU 061730Z 35007KT 10SM CLR 36/22 A3005 -30 44 2300 350/07 RMK AO2 T03560217
13942KMLU MLU20190906113510309/06/19 11:35:31  5-MIN KMLU 061735Z 32004KT 10SM CLR 36/22 A3005 -30 44 2300 320/04 RMK AO2 T03560217
13942KMLU MLU20190906114010309/06/19 11:40:31  5-MIN KMLU 061740Z VRB03KT 10SM CLR 36/22 A3004 -30 44 2300 VRB/03 RMK AO2 T03560217
13942KMLU MLU20190906114510309/06/19 11:45:31  5-MIN KMLU 061745Z VRB04KT 10SM CLR 36/22 A3004 -30 44 2400 VRB/04 RMK AO2 T03610222
13942KMLU MLU20190906115012809/06/19 11:50:31  5-MIN KMLU 061750Z 01006KT 10SM CLR 37/22 A3004 -30 42 2500 010/06 RMK AO2 SLP171 T03670222 10367 20222 51010
13942KMLU MLU20190906115510309/06/19 11:55:31  5-MIN KMLU 061755Z 02005KT 10SM CLR 36/22 A3004 -20 44 2400 010/05 RMK AO2 T03610222
13942KMLU MLU20190906120010609/06/19 12:00:31  5-MIN KMLU 061800Z 03006KT 10SM SCT060 36/22 A3004 -20 42 2400 030/06 RMK AO2 T03610217
13942KMLU MLU20190906120510609/06/19 12:05:31  5-MIN KMLU 061805Z 10003KT 10SM SCT060 36/22 A3003 -20 42 2400 100/03 RMK AO2 T03610217
13942KMLU MLU20190906121010609/06/19 12:10:31  5-MIN KMLU 061810Z VRB03KT 10SM SCT060 36/21 A3003 -20 41 2400 VRB/03 RMK AO2 T03610211
13942KMLU MLU20190906121510609/06/19 12:15:31  5-MIN KMLU 061815Z VRB04KT 10SM SCT060 37/22 A3003 -10 41 2500 VRB/04 RMK AO2 T03670217
13942KMLU MLU20190906122010609/06/19 12:20:31  5-MIN KMLU 061820Z 31008KT 10SM SCT060 36/21 A3003 -10 41 2400 310/08 RMK AO2 T03610211
13942KMLU MLU20190906122510609/06/19 12:25:31  5-MIN KMLU 061825Z 35007KT 10SM SCT060 37/22 A3003 -10 41 2500 350/07 RMK AO2 T03670217
13942KMLU MLU20190906123010609/06/19 12:30:31  5-MIN KMLU 061830Z 07004KT 10SM SCT060 37/22 A3002 -10 40 2500 070/04 RMK AO2 T03720217
13942KMLU MLU20190906123509609/06/19 12:35:31  5-MIN KMLU 061835Z 10SM SCT060 37/21 A3002 -10 40 2500 M /M RMK AO2 T03670211
13942KMLU MLU20190906124010609/06/19 12:40:31  5-MIN KMLU 061840Z 25003KT 10SM SCT060 36/21 A3002 -10 41 2400 250/03 RMK AO2 T03610211
13942KMLU MLU20190906124510609/06/19 12:45:31  5-MIN KMLU 061845Z VRB06KT 10SM SCT060 36/21 A3002 -10 41 2400 VRB/06 RMK AO2 T03610211
13942KMLU MLU20190906125011309/06/19 12:50:31  5-MIN KMLU 061850Z VRB05KT 10SM SCT060 37/22 A3002 -10 41 2500 VRB/05 RMK AO2 SLP164 T03670217
13942KMLU MLU20190906125510309/06/19 12:55:31  5-MIN KMLU 061855Z VRB04KT 10SM CLR 37/21 A3002 -10 38 2500 VRB/04 RMK AO2 T03720211
13942KMLU MLU20190906130010109/06/19 13:00:31  5-MIN KMLU 061900Z 33007KT 10SM CLR 37/22 A3002 0 40 2500 320/07 RMK AO2 T03720217
13942KMLU MLU20190906130510109/06/19 13:05:31  5-MIN KMLU 061905Z VRB05KT 10SM CLR 37/21 A3002 0 38 2500 VRB/05 RMK AO2 T03720211
13942KMLU MLU20190906131010109/06/19 13:10:31  5-MIN KMLU 061910Z 34005KT 10SM CLR 37/21 A3001 0 38 2500 340/05 RMK AO2 T03670206
13942KMLU MLU20190906131510109/06/19 13:15:31  5-MIN KMLU 061915Z 00000KT 10SM CLR 37/20 A3001 0 36 2500 000/00 RMK AO2 T03720200
13942KMLU MLU20190906132010109/06/19 13:20:31  5-MIN KMLU 061920Z 28004KT 10SM CLR 37/21 A3001 0 38 2500 280/04 RMK AO2 T03670206
13942KMLU MLU20190906132510109/06/19 13:25:31  5-MIN KMLU 061925Z 26006KT 10SM CLR 37/21 A3001 0 38 2500 260/06 RMK AO2 T03670206
13942KMLU MLU20190906133010109/06/19 13:30:31  5-MIN KMLU 061930Z VRB06KT 10SM CLR 37/21 A3000 0 38 2500 VRB/06 RMK AO2 T03670206
13942KMLU MLU20190906133510209/06/19 13:35:31  5-MIN KMLU 061935Z 24003KT 10SM CLR 37/20 A3000 10 36 2600 240/03 RMK AO2 T03720200
13942KMLU MLU20190906134010209/06/19 13:40:31  5-MIN KMLU 061940Z 00000KT 10SM CLR 37/20 A3000 10 37 2500 000/00 RMK AO2 T03670200
13942KMLU MLU20190906134510209/06/19 13:45:31  5-MIN KMLU 061945Z 30008KT 10SM CLR 37/21 A3000 10 38 2500 300/08 RMK AO2 T03670206
13942KMLU MLU20190906135010909/06/19 13:50:31  5-MIN KMLU 061950Z 29006KT 10SM CLR 37/21 A3000 10 38 2500 290/06 RMK AO2 SLP155 T03670206
13942KMLU MLU20190906135510209/06/19 13:55:31  5-MIN KMLU 061955Z 27004KT 10SM CLR 37/20 A2999 20 37 2500 260/04 RMK AO2 T03670200
13942KMLU MLU20190906140010209/06/19 14:00:31  5-MIN KMLU 062000Z 21004KT 10SM CLR 37/20 A2999 20 37 2500 210/04 RMK AO2 T03670200
13942KMLU MLU20190906140510509/06/19 14:05:31  5-MIN KMLU 062005Z VRB04KT 10SM BKN060 37/20 A2999 20 37 2500 VRB/04 RMK AO2 T03670200
13942KMLU MLU20190906141010509/06/19 14:10:31  5-MIN KMLU 062010Z VRB04KT 10SM BKN060 37/20 A2999 20 37 2500 VRB/04 RMK AO2 T03670200
13942KMLU MLU20190906141510509/06/19 14:15:31  5-MIN KMLU 062015Z 00000KT 10SM BKN060 37/20 A2999 20 37 2500 000/00 RMK AO2 T03670200
13942KMLU MLU20190906142010509/06/19 14:20:31  5-MIN KMLU 062020Z 00000KT 10SM BKN060 37/20 A2999 20 36 2600 000/00 RMK AO2 T03720200
13942KMLU MLU20190906142510509/06/19 14:25:31  5-MIN KMLU 062025Z 00000KT 10SM BKN060 37/19 A2998 20 34 2600 000/00 RMK AO2 T03720194
13942KMLU MLU20190906143010509/06/19 14:30:31  5-MIN KMLU 062030Z VRB05KT 10SM BKN060 37/20 A2998 30 36 2600 VRB/05 RMK AO2 T03720200
13942KMLU MLU20190906143510509/06/19 14:35:31  5-MIN KMLU 062035Z VRB04KT 10SM BKN060 37/20 A2998 30 36 2600 VRB/04 RMK AO2 T03720200
13942KMLU MLU20190906144010509/06/19 14:40:31  5-MIN KMLU 062040Z 02004KT 10SM BKN060 38/20 A2998 30 35 2600 020/04 RMK AO2 T03780200
13942KMLU MLU20190906144510509/06/19 14:45:31  5-MIN KMLU 062045Z VRB04KT 10SM BKN060 37/19 A2997 30 34 2600 VRB/04 RMK AO2 T03720194
13942KMLU MLU20190906145011809/06/19 14:50:31  5-MIN KMLU 062050Z 33005KT 10SM BKN060 38/20 A2997 30 35 2700 330/05 RMK AO2 SLP148 T03780200 58013
13942KMLU MLU20190906145510209/06/19 14:55:31  5-MIN KMLU 062055Z VRB04KT 10SM CLR 37/21 A2997 30 37 2600 VRB/04 RMK AO2 T03720206
13942KMLU MLU20190906150010209/06/19 15:00:31  5-MIN KMLU 062100Z VRB03KT 10SM CLR 37/21 A2997 30 38 2500 VRB/03 RMK AO2 T03670206
13942KMLU MLU20190906150510209/06/19 15:05:31  5-MIN KMLU 062105Z VRB03KT 10SM CLR 37/21 A2997 40 37 2600 VRB/03 RMK AO2 T03720206
13942KMLU MLU20190906151010209/06/19 15:10:31  5-MIN KMLU 062110Z 00000KT 10SM CLR 37/20 A2997 40 36 2600 000/00 RMK AO2 T03720200
13942KMLU MLU20190906151510209/06/19 15:15:31  5-MIN KMLU 062115Z 31007KT 10SM CLR 37/21 A2996 40 37 2600 310/07 RMK AO2 T03720206
13942KMLU MLU20190906152010209/06/19 15:20:31  5-MIN KMLU 062120Z 34003KT 10SM CLR 37/20 A2996 40 36 2600 330/03 RMK AO2 T03720200
13942KMLU MLU20190906152510209/06/19 15:25:31  5-MIN KMLU 062125Z 33006KT 10SM CLR 38/21 A2997 40 37 2700 330/06 RMK AO2 T03780211
13942KMLU MLU20190906153010209/06/19 15:30:31  5-MIN KMLU 062130Z 33003KT 10SM CLR 37/21 A2997 40 37 2600 330/03 RMK AO2 T03720206
13942KMLU MLU20190906153510209/06/19 15:35:31  5-MIN KMLU 062135Z 30004KT 10SM CLR 37/21 A2996 40 37 2600 300/04 RMK AO2 T03720206
13942KMLU MLU20190906154010209/06/19 15:40:31  5-MIN KMLU 062140Z VRB03KT 10SM CLR 37/21 A2996 40 38 2500 VRB/03 RMK AO2 T03670206
13942KMLU MLU20190906154510209/06/19 15:45:31  5-MIN KMLU 062145Z 33006KT 10SM CLR 37/21 A2996 40 38 2600 330/06 RMK AO2 T03720211
13942KMLU MLU20190906155010909/06/19 15:50:31  5-MIN KMLU 062150Z 36004KT 10SM CLR 38/21 A2996 40 37 2700 360/04 RMK AO2 SLP144 T03780211
13942KMLU MLU20190906155510209/06/19 15:55:31  5-MIN KMLU 062155Z 36007KT 10SM CLR 38/21 A2996 40 37 2700 360/07 RMK AO2 T03780211
13942KMLU MLU20190906160010209/06/19 16:00:31  5-MIN KMLU 062200Z VRB03KT 10SM CLR 37/21 A2996 40 37 2600 VRB/03 RMK AO2 T03720206
13942KMLU MLU20190906160510209/06/19 16:05:31  5-MIN KMLU 062205Z VRB05KT 10SM CLR 37/21 A2996 50 38 2600 VRB/05 RMK AO2 T03720211
13942KMLU MLU20190906161010209/06/19 16:10:31  5-MIN KMLU 062210Z 00000KT 10SM CLR 37/21 A2996 50 38 2500 000/00 RMK AO2 T03670206
13942KMLU MLU20190906161510209/06/19 16:15:31  5-MIN KMLU 062215Z 32003KT 10SM CLR 37/21 A2996 40 38 2500 320/03 RMK AO2 T03670206
13942KMLU MLU20190906162010209/06/19 16:20:31  5-MIN KMLU 062220Z VRB03KT 10SM CLR 36/21 A2996 40 41 2400 VRB/03 RMK AO2 T03560206
13942KMLU MLU20190906162510209/06/19 16:25:31  5-MIN KMLU 062225Z 00000KT 10SM CLR 36/21 A2996 40 39 2500 000/00 RMK AO2 T03610206
13942KMLU MLU20190906163010209/06/19 16:30:31  5-MIN KMLU 062230Z 00000KT 10SM CLR 36/21 A2996 40 39 2500 000/00 RMK AO2 T03610206
13942KMLU MLU20190906163510209/06/19 16:35:31  5-MIN KMLU 062235Z 00000KT 10SM CLR 37/21 A2996 40 38 2500 000/00 RMK AO2 T03670206
13942KMLU MLU20190906164010209/06/19 16:40:31  5-MIN KMLU 062240Z VRB03KT 10SM CLR 37/21 A2996 40 40 2500 VRB/03 RMK AO2 T03670211
13942KMLU MLU20190906164510209/06/19 16:45:31  5-MIN KMLU 062245Z 00000KT 10SM CLR 36/21 A2996 40 39 2500 000/00 RMK AO2 T03610206
13942KMLU MLU20190906165010909/06/19 16:50:31  5-MIN KMLU 062250Z 28003KT 10SM CLR 36/21 A2996 40 41 2500 280/03 RMK AO2 SLP144 T03610211
13942KMLU MLU20190906165510209/06/19 16:55:31  5-MIN KMLU 062255Z 00000KT 10SM CLR 36/21 A2996 40 39 2500 000/00 RMK AO2 T03610206
13942KMLU MLU20190906170010209/06/19 17:00:31  5-MIN KMLU 062300Z 00000KT 10SM CLR 36/21 A2996 40 39 2500 000/00 RMK AO2 T03610206
13942KMLU MLU20190906170510209/06/19 17:05:31  5-MIN KMLU 062305Z 26003KT 10SM CLR 36/21 A2996 40 39 2500 260/03 RMK AO2 T03610206
13942KMLU MLU20190906171010209/06/19 17:10:31  5-MIN KMLU 062310Z 00000KT 10SM CLR 36/20 A2996 50 38 2500 000/00 RMK AO2 T03610200
13942KMLU MLU20190906171510209/06/19 17:15:31  5-MIN KMLU 062315Z 00000KT 10SM CLR 36/20 A2996 50 38 2500 000/00 RMK AO2 T03610200
13942KMLU MLU20190906172010209/06/19 17:20:31  5-MIN KMLU 062320Z 00000KT 10SM CLR 36/21 A2996 50 39 2500 000/00 RMK AO2 T03610206
13942KMLU MLU20190906172510209/06/19 17:25:31  5-MIN KMLU 062325Z 31003KT 10SM CLR 37/20 A2996 50 37 2500 310/03 RMK AO2 T03670200
13942KMLU MLU20190906173010209/06/19 17:30:31  5-MIN KMLU 062330Z 32003KT 10SM CLR 36/20 A2996 50 39 2400 320/03 RMK AO2 T03560200
13942KMLU MLU20190906173510209/06/19 17:35:31  5-MIN KMLU 062335Z 01003KT 10SM CLR 36/21 A2996 50 41 2400 010/03 RMK AO2 T03560206
13942KMLU MLU20190906174010209/06/19 17:40:31  5-MIN KMLU 062340Z 00000KT 10SM CLR 36/21 A2996 50 41 2500 000/00 RMK AO2 T03610211
13942KMLU MLU20190906174510209/06/19 17:45:31  5-MIN KMLU 062345Z 00000KT 10SM CLR 34/23 A2996 40 51 2200 000/00 RMK AO2 T03390228
13942KMLU MLU20190906175012709/06/19 17:50:31  5-MIN KMLU 062350Z 00000KT 10SM CLR 33/23 A2996 50 55 2200 000/00 RMK AO2 SLP143 T03330233 10383 20333 58022
13942KMLU MLU20190906175510209/06/19 17:55:31  5-MIN KMLU 062355Z 00000KT 10SM CLR 33/24 A2996 50 59 2100 000/00 RMK AO2 T03280239
13942KMLU MLU20190906180010209/06/19 18:00:31  5-MIN KMLU 070000Z 00000KT 10SM CLR 32/24 A2996 50 63 2100 000/00 RMK AO2 T03220244
13942KMLU MLU20190906180510209/06/19 18:05:31  5-MIN KMLU 070005Z 00000KT 10SM CLR 32/24 A2996 50 65 2000 000/00 RMK AO2 T03170244
13942KMLU MLU20190906181010209/06/19 18:10:31  5-MIN KMLU 070010Z 00000KT 10SM CLR 32/24 A2996 50 65 2000 000/00 RMK AO2 T03170244
13942KMLU MLU20190906181510209/06/19 18:15:31  5-MIN KMLU 070015Z 00000KT 10SM CLR 31/24 A2996 50 67 1900 000/00 RMK AO2 T03110244
13942KMLU MLU20190906182010209/06/19 18:20:31  5-MIN KMLU 070020Z 00000KT 10SM CLR 31/24 A2996 40 69 1900 000/00 RMK AO2 T03060244
13942KMLU MLU20190906182510209/06/19 18:25:31  5-MIN KMLU 070025Z 00000KT 10SM CLR 31/24 A2996 40 69 1900 000/00 RMK AO2 T03060244
13942KMLU MLU20190906183010209/06/19 18:30:31  5-MIN KMLU 070030Z 00000KT 10SM CLR 31/24 A2996 40 69 1900 000/00 RMK AO2 T03060244
13942KMLU MLU20190906183510209/06/19 18:35:31  5-MIN KMLU 070035Z 00000KT 10SM CLR 30/24 A2996 40 72 1800 000/00 RMK AO2 T03000244
13942KMLU MLU20190906184010209/06/19 18:40:31  5-MIN KMLU 070040Z 00000KT 10SM CLR 30/24 A2996 40 72 1800 000/00 RMK AO2 T03000244
13942KMLU MLU20190906184510209/06/19 18:45:31  5-MIN KMLU 070045Z 00000KT 10SM CLR 29/24 A2996 40 71 1800 000/00 RMK AO2 T02940239
13942KMLU MLU20190906185010909/06/19 18:50:31  5-MIN KMLU 070050Z 00000KT 10SM CLR 29/24 A2996 40 71 1800 000/00 RMK AO2 SLP144 T02940239
13942KMLU MLU20190906185510209/06/19 18:55:31  5-MIN KMLU 070055Z 00000KT 10SM CLR 29/23 A2996 40 71 1700 000/00 RMK AO2 T02890233
13942KMLU MLU20190906190010209/06/19 19:00:31  5-MIN KMLU 070100Z 00000KT 10SM CLR 29/23 A2996 40 69 1700 000/00 RMK AO2 T02890228
13942KMLU MLU20190906190510209/06/19 19:05:31  5-MIN KMLU 070105Z 00000KT 10SM CLR 29/23 A2997 40 69 1700 000/00 RMK AO2 T02890228
13942KMLU MLU20190906191010209/06/19 19:10:31  5-MIN KMLU 070110Z 00000KT 10SM CLR 28/23 A2997 40 71 1600 000/00 RMK AO2 T02830228
13942KMLU MLU20190906191510209/06/19 19:15:31  5-MIN KMLU 070115Z 00000KT 10SM CLR 28/23 A2997 40 71 1600 000/00 RMK AO2 T02830228
13942KMLU MLU20190906192010209/06/19 19:20:31  5-MIN KMLU 070120Z 00000KT 10SM CLR 28/23 A2997 40 71 1600 000/00 RMK AO2 T02830228
13942KMLU MLU20190906192510209/06/19 19:25:31  5-MIN KMLU 070125Z 00000KT 10SM CLR 29/23 A2997 40 71 1700 000/00 RMK AO2 T02890233
13942KMLU MLU20190906193010209/06/19 19:30:31  5-MIN KMLU 070130Z 00000KT 10SM CLR 28/23 A2997 40 74 1600 000/00 RMK AO2 T02830233
13942KMLU MLU20190906193510209/06/19 19:35:31  5-MIN KMLU 070135Z 00000KT 10SM CLR 28/23 A2997 40 74 1600 000/00 RMK AO2 T02830233
13942KMLU MLU20190906194010209/06/19 19:40:31  5-MIN KMLU 070140Z 00000KT 10SM CLR 28/23 A2997 30 74 1600 000/00 RMK AO2 T02830233
13942KMLU MLU20190906194510209/06/19 19:45:31  5-MIN KMLU 070145Z 00000KT 10SM CLR 28/23 A2997 30 74 1600 000/00 RMK AO2 T02780228
13942KMLU MLU20190906195010909/06/19 19:50:31  5-MIN KMLU 070150Z 00000KT 10SM CLR 28/23 A2997 30 71 1600 000/00 RMK AO2 SLP148 T02830228
13942KMLU MLU20190906195510209/06/19 19:55:31  5-MIN KMLU 070155Z 00000KT 10SM CLR 28/23 A2997 30 74 1600 000/00 RMK AO2 T02780228
13942KMLU MLU20190906200010209/06/19 20:00:31  5-MIN KMLU 070200Z 00000KT 10SM CLR 28/23 A2997 30 74 1600 000/00 RMK AO2 T02780228
13942KMLU MLU20190906200510209/06/19 20:05:31  5-MIN KMLU 070205Z 00000KT 10SM CLR 27/23 A2998 30 76 1500 000/00 RMK AO2 T02720228
13942KMLU MLU20190906201010209/06/19 20:10:31  5-MIN KMLU 070210Z 00000KT 10SM CLR 28/22 A2998 30 71 1500 000/00 RMK AO2 T02780222
13942KMLU MLU20190906201510209/06/19 20:15:31  5-MIN KMLU 070215Z 00000KT 10SM CLR 27/22 A2998 30 74 1500 000/00 RMK AO2 T02720222
13942KMLU MLU20190906202010209/06/19 20:20:31  5-MIN KMLU 070220Z 00000KT 10SM CLR 27/23 A2998 30 76 1500 000/00 RMK AO2 T02720228
13942KMLU MLU20190906202510209/06/19 20:25:31  5-MIN KMLU 070225Z 00000KT 10SM CLR 27/23 A2998 30 76 1500 000/00 RMK AO2 T02720228
13942KMLU MLU20190906203010209/06/19 20:30:31  5-MIN KMLU 070230Z 00000KT 10SM CLR 27/23 A2998 30 76 1500 000/00 RMK AO2 T02720228
13942KMLU MLU20190906203510209/06/19 20:35:31  5-MIN KMLU 070235Z 00000KT 10SM CLR 27/23 A2998 20 76 1500 000/00 RMK AO2 T02720228
13942KMLU MLU20190906204010209/06/19 20:40:31  5-MIN KMLU 070240Z 00000KT 10SM CLR 27/23 A2998 20 79 1400 000/00 RMK AO2 T02670228
13942KMLU MLU20190906204510209/06/19 20:45:31  5-MIN KMLU 070245Z 00000KT 10SM CLR 27/23 A2998 20 79 1400 000/00 RMK AO2 T02670228
13942KMLU MLU20190906205011509/06/19 20:50:31  5-MIN KMLU 070250Z 00000KT 10SM CLR 27/22 A2998 20 76 1400 000/00 RMK AO2 SLP151 T02670222 56005
13942KMLU MLU20190906205510209/06/19 20:55:31  5-MIN KMLU 070255Z 00000KT 10SM CLR 27/22 A2998 20 76 1400 000/00 RMK AO2 T02670222
13942KMLU MLU20190906210010709/06/19 21:00:31  5-MIN KMLU 070300Z AUTO 00000KT 10SM CLR 27/22 A2998 20 76 1400 000/00 RMK AO2 T02670222
13942KMLU MLU20190906210510709/06/19 21:05:31  5-MIN KMLU 070305Z AUTO 00000KT 10SM CLR 27/22 A2998 20 76 1400 000/00 RMK AO2 T02670222
13942KMLU MLU20190906211010709/06/19 21:10:31  5-MIN KMLU 070310Z AUTO 00000KT 10SM CLR 26/22 A2998 20 79 1400 000/00 RMK AO2 T02610222
13942KMLU MLU20190906211510709/06/19 21:15:31  5-MIN KMLU 070315Z AUTO 00000KT 10SM CLR 26/22 A2999 20 79 1400 000/00 RMK AO2 T02610222
13942KMLU MLU20190906212010709/06/19 21:20:31  5-MIN KMLU 070320Z AUTO 00000KT 10SM CLR 26/22 A2999 20 79 1400 000/00 RMK AO2 T02610222
13942KMLU MLU20190906212510709/06/19 21:25:31  5-MIN KMLU 070325Z AUTO 00000KT 10SM CLR 26/22 A2999 20 79 1400 000/00 RMK AO2 T02610222
13942KMLU MLU20190906213010709/06/19 21:30:31  5-MIN KMLU 070330Z AUTO 00000KT 10SM CLR 26/22 A2999 20 79 1400 000/00 RMK AO2 T02610222
13942KMLU MLU20190906213510709/06/19 21:35:31  5-MIN KMLU 070335Z AUTO 00000KT 10SM CLR 26/22 A2999 20 79 1400 000/00 RMK AO2 T02610222
13942KMLU MLU20190906214010709/06/19 21:40:31  5-MIN KMLU 070340Z AUTO 00000KT 10SM CLR 26/23 A2999 20 81 1400 000/00 RMK AO2 T02610228
13942KMLU MLU20190906214510709/06/19 21:45:31  5-MIN KMLU 070345Z AUTO 00000KT 10SM CLR 26/23 A2999 20 81 1400 000/00 RMK AO2 T02610228
13942KMLU MLU20190906215011409/06/19 21:50:31  5-MIN KMLU 070350Z AUTO 00000KT 10SM CLR 26/22 A2999 20 79 1300 000/00 RMK AO2 SLP153 T02610222
13942KMLU MLU20190906215510709/06/19 21:55:31  5-MIN KMLU 070355Z AUTO 00000KT 10SM CLR 26/22 A2999 20 79 1300 000/00 RMK AO2 T02610222
13942KMLU MLU20190906220010709/06/19 22:00:31  5-MIN KMLU 070400Z AUTO 00000KT 10SM CLR 26/22 A2999 20 79 1300 000/00 RMK AO2 T02610222
13942KMLU MLU20190906220510709/06/19 22:05:31  5-MIN KMLU 070405Z AUTO 00000KT 10SM CLR 26/22 A2999 20 79 1300 000/00 RMK AO2 T02610222
13942KMLU MLU20190906221010709/06/19 22:10:31  5-MIN KMLU 070410Z AUTO 00000KT 10SM CLR 26/23 A2999 20 81 1300 000/00 RMK AO2 T02610228
13942KMLU MLU20190906221510709/06/19 22:15:31  5-MIN KMLU 070415Z AUTO 00000KT 10SM CLR 26/23 A2999 20 81 1300 000/00 RMK AO2 T02610228
13942KMLU MLU20190906222010709/06/19 22:20:31  5-MIN KMLU 070420Z AUTO 00000KT 10SM CLR 26/23 A2999 20 84 1300 000/00 RMK AO2 T02560228
13942KMLU MLU20190906222510709/06/19 22:25:31  5-MIN KMLU 070425Z AUTO 00000KT 10SM CLR 26/23 A2999 20 84 1300 000/00 RMK AO2 T02560228
13942KMLU MLU20190906223010709/06/19 22:30:31  5-MIN KMLU 070430Z AUTO 00000KT 10SM CLR 26/22 A2999 20 81 1300 000/00 RMK AO2 T02560222
13942KMLU MLU20190906223510709/06/19 22:35:31  5-MIN KMLU 070435Z AUTO 00000KT 10SM CLR 25/22 A2999 20 84 1200 000/00 RMK AO2 T02500222
13942KMLU MLU20190906224010709/06/19 22:40:31  5-MIN KMLU 070440Z AUTO 00000KT 10SM CLR 25/22 A2999 20 84 1200 000/00 RMK AO2 T02500222
13942KMLU MLU20190906224510709/06/19 22:45:31  5-MIN KMLU 070445Z AUTO 00000KT 10SM CLR 25/22 A2999 20 84 1200 000/00 RMK AO2 T02500222
13942KMLU MLU20190906225011409/06/19 22:50:31  5-MIN KMLU 070450Z AUTO 00000KT 10SM CLR 26/22 A2999 20 81 1300 000/00 RMK AO2 SLP152 T02560222
13942KMLU MLU20190906225510709/06/19 22:55:31  5-MIN KMLU 070455Z AUTO 15003KT 10SM CLR 25/22 A2999 20 84 1200 150/03 RMK AO2 T02500222
13942KMLU MLU20190906230010709/06/19 23:00:31  5-MIN KMLU 070500Z AUTO 00000KT 10SM CLR 25/22 A2999 20 84 1200 000/00 RMK AO2 T02500222
13942KMLU MLU20190906230510709/06/19 23:05:31  5-MIN KMLU 070505Z AUTO 19003KT 10SM CLR 26/22 A2999 20 81 1300 190/03 RMK AO2 T02560222
13942KMLU MLU20190906231010709/06/19 23:10:31  5-MIN KMLU 070510Z AUTO 16003KT 10SM CLR 26/22 A2999 20 81 1300 160/03 RMK AO2 T02560222
13942KMLU MLU20190906231510709/06/19 23:15:31  5-MIN KMLU 070515Z AUTO 00000KT 10SM CLR 25/22 A2999 20 81 1200 000/00 RMK AO2 T02500217
13942KMLU MLU20190906232010709/06/19 23:20:31  5-MIN KMLU 070520Z AUTO 00000KT 10SM CLR 25/22 A2999 20 81 1200 000/00 RMK AO2 T02500217
13942KMLU MLU20190906232510709/06/19 23:25:31  5-MIN KMLU 070525Z AUTO 00000KT 10SM CLR 24/22 A2999 20 84 1200 000/00 RMK AO2 T02440217
13942KMLU MLU20190906233010709/06/19 23:30:31  5-MIN KMLU 070530Z AUTO 00000KT 10SM CLR 24/22 A2999 20 84 1200 000/00 RMK AO2 T02440217
13942KMLU MLU20190906233510709/06/19 23:35:31  5-MIN KMLU 070535Z AUTO 00000KT 10SM CLR 24/22 A2999 20 87 1100 000/00 RMK AO2 T02390217
13942KMLU MLU20190906234010709/06/19 23:40:31  5-MIN KMLU 070540Z AUTO 00000KT 10SM CLR 24/22 A2999 20 84 1200 000/00 RMK AO2 T02440217
13942KMLU MLU20190906234510709/06/19 23:45:31  5-MIN KMLU 070545Z AUTO 00000KT 10SM CLR 24/22 A2999 20 84 1200 000/00 RMK AO2 T02440217
13942KMLU MLU20190906235014209/06/19 23:50:31  5-MIN KMLU 070550Z AUTO 00000KT 10SM CLR 25/22 A2999 20 81 1200 000/00 RMK AO2 SLP153 T02500217 10328 20239 403830217 53009
13942KMLU MLU20190906235510709/06/19 23:55:31  5-MIN KMLU 070555Z AUTO 00000KT 10SM CLR 24/22 A2999 20 84 1200 000/00 RMK AO2 T02440217
13942KMLU MLU20190907000010709/07/19 00:00:31  5-MIN KMLU 070600Z AUTO 00000KT 10SM CLR 24/22 A2999 20 84 1200 000/00 RMK AO2 T02440217
13942KMLU MLU20190907000510709/07/19 00:05:31  5-MIN KMLU 070605Z AUTO 00000KT 10SM CLR 24/22 A2999 20 84 1200 000/00 RMK AO2 T02440217
13942KMLU MLU20190907001010709/07/19 00:10:31  5-MIN KMLU 070610Z AUTO 00000KT 10SM CLR 24/22 A2999 20 84 1200 000/00 RMK AO2 T02440217
13942KMLU MLU20190907001510709/07/19 00:15:31  5-MIN KMLU 070615Z AUTO 00000KT 10SM CLR 24/22 A2999 20 84 1200 000/00 RMK AO2 T02440217
13942KMLU MLU20190907002010709/07/19 00:20:31  5-MIN KMLU 070620Z AUTO 00000KT 10SM CLR 24/22 A2999 20 87 1200 000/00 RMK AO2 T02440222
13942KMLU MLU20190907002510709/07/19 00:25:31  5-MIN KMLU 070625Z AUTO 00000KT 10SM CLR 24/22 A2999 20 87 1100 000/00 RMK AO2 T02390217
13942KMLU MLU20190907003010709/07/19 00:30:31  5-MIN KMLU 070630Z AUTO 00000KT 10SM CLR 24/22 A2999 20 84 1200 000/00 RMK AO2 T02440217
13942KMLU MLU20190907003510709/07/19 00:35:31  5-MIN KMLU 070635Z AUTO 00000KT 10SM CLR 24/22 A2999 10 87 1200 000/00 RMK AO2 T02440222
13942KMLU MLU20190907004010709/07/19 00:40:31  5-MIN KMLU 070640Z AUTO 00000KT 10SM CLR 24/22 A2999 20 87 1200 000/00 RMK AO2 T02440222
13942KMLU MLU20190907004510709/07/19 00:45:31  5-MIN KMLU 070645Z AUTO 00000KT 10SM CLR 24/22 A2999 20 87 1200 000/00 RMK AO2 T02440222
13942KMLU MLU20190907005011409/07/19 00:50:31  5-MIN KMLU 070650Z AUTO 00000KT 10SM CLR 24/22 A2999 20 84 1200 000/00 RMK AO2 SLP153 T02440217
13942KMLU MLU20190907005510709/07/19 00:55:31  5-MIN KMLU 070655Z AUTO 00000KT 10SM CLR 24/22 A2999 20 84 1200 000/00 RMK AO2 T02440217
13942KMLU MLU20190907010010709/07/19 01:00:31  5-MIN KMLU 070700Z AUTO 00000KT 10SM CLR 24/22 A2999 20 84 1200 000/00 RMK AO2 T02440217
13942KMLU MLU20190907010510709/07/19 01:05:31  5-MIN KMLU 070705Z AUTO 00000KT 10SM CLR 25/22 A2999 20 84 1200 000/00 RMK AO2 T02500222
13942KMLU MLU20190907011010709/07/19 01:10:31  5-MIN KMLU 070710Z AUTO 00000KT 10SM CLR 24/22 A2999 20 87 1200 000/00 RMK AO2 T02440222
13942KMLU MLU20190907011510709/07/19 01:15:31  5-MIN KMLU 070715Z AUTO 00000KT 10SM CLR 24/22 A2999 20 84 1200 000/00 RMK AO2 T02440217
13942KMLU MLU20190907012010709/07/19 01:20:31  5-MIN KMLU 070720Z AUTO 00000KT 10SM CLR 24/22 A2999 20 84 1200 000/00 RMK AO2 T02440217
13942KMLU MLU20190907012510709/07/19 01:25:31  5-MIN KMLU 070725Z AUTO 00000KT 10SM CLR 24/22 A2999 20 84 1200 000/00 RMK AO2 T02440217
13942KMLU MLU20190907013010709/07/19 01:30:31  5-MIN KMLU 070730Z AUTO 00000KT 10SM CLR 24/22 A2999 20 87 1100 000/00 RMK AO2 T02390217
13942KMLU MLU20190907013510709/07/19 01:35:31  5-MIN KMLU 070735Z AUTO 00000KT 10SM CLR 24/22 A2999 20 87 1100 000/00 RMK AO2 T02390217
13942KMLU MLU20190907014010709/07/19 01:40:31  5-MIN KMLU 070740Z AUTO 00000KT 10SM CLR 24/22 A2999 20 87 1100 000/00 RMK AO2 T02390217
13942KMLU MLU20190907014510709/07/19 01:45:31  5-MIN KMLU 070745Z AUTO 00000KT 10SM CLR 24/22 A2999 20 87 1100 000/00 RMK AO2 T02390217
13942KMLU MLU20190907015011409/07/19 01:50:31  5-MIN KMLU 070750Z AUTO 00000KT 10SM CLR 23/22 A2999 20 90 1000 000/00 RMK AO2 SLP152 T02330217
13942KMLU MLU20190907015510709/07/19 01:55:31  5-MIN KMLU 070755Z AUTO 00000KT 10SM CLR 24/22 A2999 20 87 1100 000/00 RMK AO2 T02390217
13942KMLU MLU20190907020010709/07/19 02:00:31  5-MIN KMLU 070800Z AUTO 00000KT 10SM CLR 23/22 A2999 20 90 1000 000/00 RMK AO2 T02330217
13942KMLU MLU20190907020510709/07/19 02:05:31  5-MIN KMLU 070805Z AUTO 00000KT 10SM CLR 24/22 A2999 20 87 1100 000/00 RMK AO2 T02390217
13942KMLU MLU20190907021010609/07/19 02:10:31  5-MIN KMLU 070810Z AUTO 00000KT 9SM CLR 24/22 A2999 20 87 1100 000/00 RMK AO2 T02390217
13942KMLU MLU20190907021510709/07/19 02:15:31  5-MIN KMLU 070815Z AUTO 00000KT 10SM CLR 24/22 A2999 20 87 1100 000/00 RMK AO2 T02390217
13942KMLU MLU20190907022010709/07/19 02:20:31  5-MIN KMLU 070820Z AUTO 00000KT 10SM CLR 24/22 A2999 20 87 1100 000/00 RMK AO2 T02390217
13942KMLU MLU20190907022510609/07/19 02:25:31  5-MIN KMLU 070825Z AUTO 00000KT 9SM CLR 23/22 A2999 20 90 1000 000/00 RMK AO2 T02330217
13942KMLU MLU20190907023010609/07/19 02:30:31  5-MIN KMLU 070830Z AUTO 00000KT 9SM CLR 24/22 A2999 20 87 1100 000/00 RMK AO2 T02390217
13942KMLU MLU20190907023510609/07/19 02:35:31  5-MIN KMLU 070835Z AUTO 00000KT 9SM CLR 24/22 A2999 20 90 1100 000/00 RMK AO2 T02390222
13942KMLU MLU20190907024010709/07/19 02:40:31  5-MIN KMLU 070840Z AUTO 00000KT 10SM CLR 24/22 A2999 20 87 1100 000/00 RMK AO2 T02390217
13942KMLU MLU20190907024510709/07/19 02:45:31  5-MIN KMLU 070845Z AUTO 00000KT 10SM CLR 23/22 A2999 20 90 1000 000/00 RMK AO2 T02330217
13942KMLU MLU20190907025012009/07/19 02:50:31  5-MIN KMLU 070850Z AUTO 00000KT 10SM CLR 24/22 A2999 20 87 1100 000/00 RMK AO2 SLP153 T02390217 51001
13942KMLU MLU20190907025510709/07/19 02:55:31  5-MIN KMLU 070855Z AUTO 00000KT 10SM CLR 24/22 A2999 20 87 1100 000/00 RMK AO2 T02390217
13942KMLU MLU20190907030010709/07/19 03:00:31  5-MIN KMLU 070900Z AUTO 00000KT 10SM CLR 23/22 A2999 20 90 1000 000/00 RMK AO2 T02330217
13942KMLU MLU20190907030510709/07/19 03:05:31  5-MIN KMLU 070905Z AUTO 00000KT 10SM CLR 23/22 A2999 20 90 1000 000/00 RMK AO2 T02330217
13942KMLU MLU20190907031010709/07/19 03:10:31  5-MIN KMLU 070910Z AUTO 00000KT 10SM CLR 24/22 A2999 20 87 1100 000/00 RMK AO2 T02390217
13942KMLU MLU20190907031510709/07/19 03:15:31  5-MIN KMLU 070915Z AUTO 21003KT 10SM CLR 24/22 A2999 20 87 1100 210/03 RMK AO2 T02390217
13942KMLU MLU20190907032010709/07/19 03:20:31  5-MIN KMLU 070920Z AUTO 22003KT 10SM CLR 24/22 A2999 20 87 1100 220/03 RMK AO2 T02390217
13942KMLU MLU20190907032510709/07/19 03:25:31  5-MIN KMLU 070925Z AUTO 21003KT 10SM CLR 24/22 A2999 20 84 1200 210/03 RMK AO2 T02440217
13942KMLU MLU20190907033010709/07/19 03:30:31  5-MIN KMLU 070930Z AUTO 22003KT 10SM CLR 24/22 A2999 20 84 1200 220/03 RMK AO2 T02440217
13942KMLU MLU20190907033510709/07/19 03:35:31  5-MIN KMLU 070935Z AUTO 22003KT 10SM CLR 24/22 A2999 20 87 1100 220/03 RMK AO2 T02390217
13942KMLU MLU20190907034010709/07/19 03:40:31  5-MIN KMLU 070940Z AUTO 00000KT 10SM CLR 24/22 A2999 20 84 1200 000/00 RMK AO2 T02440217
13942KMLU MLU20190907034510709/07/19 03:45:31  5-MIN KMLU 070945Z AUTO 00000KT 10SM CLR 25/22 A2999 20 81 1200 000/00 RMK AO2 T02500217
13942KMLU MLU20190907035011409/07/19 03:50:31  5-MIN KMLU 070950Z AUTO 00000KT 10SM CLR 25/22 A2999 20 81 1200 000/00 RMK AO2 SLP153 T02500217
13942KMLU MLU20190907035510709/07/19 03:55:31  5-MIN KMLU 070955Z AUTO 00000KT 10SM CLR 25/22 A2999 20 81 1200 000/00 RMK AO2 T02500217
13942KMLU MLU20190907040010709/07/19 04:00:31  5-MIN KMLU 071000Z AUTO 00000KT 10SM CLR 24/22 A2999 20 84 1200 000/00 RMK AO2 T02440217
13942KMLU MLU20190907040510709/07/19 04:05:31  5-MIN KMLU 071005Z AUTO 00000KT 10SM CLR 24/22 A2999 20 84 1200 000/00 RMK AO2 T02440217
13942KMLU MLU20190907041010709/07/19 04:10:31  5-MIN KMLU 071010Z AUTO 00000KT 10SM CLR 24/22 A2999 20 87 1100 000/00 RMK AO2 T02390217
13942KMLU MLU20190907041510709/07/19 04:15:31  5-MIN KMLU 071015Z AUTO 00000KT 10SM CLR 23/21 A2999 20 87 1000 000/00 RMK AO2 T02330211
13942KMLU MLU20190907042010709/07/19 04:20:31  5-MIN KMLU 071020Z AUTO 00000KT 10SM CLR 23/21 A2999 10 87 1000 000/00 RMK AO2 T02330211
13942KMLU MLU20190907042510709/07/19 04:25:31  5-MIN KMLU 071025Z AUTO 00000KT 10SM CLR 23/21 A2999 10 90 1000 000/00 RMK AO2 T02280211
13942KMLU MLU20190907043010709/07/19 04:30:31  5-MIN KMLU 071030Z AUTO 00000KT 10SM CLR 23/21 A3000 10 90 1000 000/00 RMK AO2 T02280211
13942KMLU MLU20190907043510609/07/19 04:35:31  5-MIN KMLU 071035Z AUTO 00000KT 9SM CLR 23/22 A3000 10 90 1000 000/00 RMK AO2 T02330217
13942KMLU MLU20190907044010109/07/19 04:40:31  5-MIN KMLU 071040Z 00000KT 9SM CLR 24/22 A3000 10 87 1100 000/00 RMK AO2 T02390217
13942KMLU MLU20190907044510209/07/19 04:45:31  5-MIN KMLU 071045Z 00000KT 10SM CLR 23/22 A3000 10 90 1000 000/00 RMK AO2 T02330217
13942KMLU MLU20190907045010809/07/19 04:50:31  5-MIN KMLU 071050Z 00000KT 9SM CLR 24/22 A3000 10 87 1100 000/00 RMK AO2 SLP157 T02390217
13942KMLU MLU20190907045510109/07/19 04:55:31  5-MIN KMLU 071055Z 00000KT 9SM CLR 24/22 A3000 10 87 1100 000/00 RMK AO2 T02390217
13942KMLU MLU20190907050010109/07/19 05:00:31  5-MIN KMLU 071100Z 00000KT 9SM CLR 24/22 A3000 10 87 1100 000/00 RMK AO2 T02390217
13942KMLU MLU20190907050510109/07/19 05:05:31  5-MIN KMLU 071105Z 00000KT 9SM CLR 24/22 A3000 10 87 1100 000/00 RMK AO2 T02390217
13942KMLU MLU20190907051010109/07/19 05:10:31  5-MIN KMLU 071110Z 00000KT 9SM CLR 23/22 A3000 10 90 1000 000/00 RMK AO2 T02330217
13942KMLU MLU20190907051510109/07/19 05:15:31  5-MIN KMLU 071115Z 00000KT 9SM CLR 23/22 A3000 10 90 1000 000/00 RMK AO2 T02330217
13942KMLU MLU20190907052010109/07/19 05:20:31  5-MIN KMLU 071120Z 00000KT 9SM CLR 23/22 A3000 10 90 1000 000/00 RMK AO2 T02330217
13942KMLU MLU20190907052510109/07/19 05:25:31  5-MIN KMLU 071125Z 00000KT 8SM CLR 23/22 A3000 10 90 1000 000/00 RMK AO2 T02330217
13942KMLU MLU20190907053010109/07/19 05:30:31  5-MIN KMLU 071130Z 00000KT 8SM CLR 23/22 A3000 10 90 1000 000/00 RMK AO2 T02330217
13942KMLU MLU20190907053510109/07/19 05:35:31  5-MIN KMLU 071135Z 00000KT 8SM CLR 24/22 A3000 10 87 1100 000/00 RMK AO2 T02390217
13942KMLU MLU20190907054010009/07/19 05:40:31  5-MIN KMLU 071140Z 00000KT 8SM CLR 23/21 A3000 0 87 1000 000/00 RMK AO2 T02330211
13942KMLU MLU20190907054509909/07/19 05:45:31  5-MIN KMLU 071145Z 21003KT 7SM CLR 23/21 A3001 0 90 900 210/03 RMK AO2 T02280211
13942KMLU MLU20190907055012509/07/19 05:50:31  5-MIN KMLU 071150Z 21003KT 8SM CLR 23/22 A3001 0 90 1000 200/03 RMK AO2 SLP159 T02330217 10250 20228 50000
13942KMLU MLU20190907055510009/07/19 05:55:31  5-MIN KMLU 071155Z 20003KT 7SM CLR 23/21 A3001 0 87 1000 200/03 RMK AO2 T02330211
13942KMLU MLU20190907060010309/07/19 06:00:31  5-MIN KMLU 071200Z 21003KT 6SM HZ CLR 24/21 A3001 0 84 1100 210/03 RMK AO2 T02390211
13942KMLU MLU20190907060510309/07/19 06:05:31  5-MIN KMLU 071205Z 00000KT 6SM HZ CLR 24/21 A3001 0 84 1100 000/00 RMK AO2 T02390211
13942KMLU MLU20190907061010309/07/19 06:10:31  5-MIN KMLU 071210Z 22003KT 6SM HZ CLR 24/21 A3001 0 84 1100 220/03 RMK AO2 T02390211
13942KMLU MLU20190907061510309/07/19 06:15:31  5-MIN KMLU 071215Z 00000KT 6SM HZ CLR 24/21 A3001 0 84 1100 000/00 RMK AO2 T02390211
13942KMLU MLU20190907062010309/07/19 06:20:31  5-MIN KMLU 071220Z 00000KT 6SM HZ CLR 24/21 A3001 0 81 1100 000/00 RMK AO2 T02390206
13942KMLU MLU20190907062510309/07/19 06:25:31  5-MIN KMLU 071225Z 22003KT 6SM HZ CLR 24/21 A3002 0 84 1100 220/03 RMK AO2 T02390211
13942KMLU MLU20190907063010509/07/19 06:30:31  5-MIN KMLU 071230Z 21003KT 6SM HZ CLR 24/21 A3002 -10 84 1100 210/03 RMK AO2 T02390211
13942KMLU MLU20190907063510509/07/19 06:35:31  5-MIN KMLU 071235Z 21003KT 6SM HZ CLR 24/21 A3002 -10 81 1100 210/03 RMK AO2 T02440211
13942KMLU MLU20190907064010509/07/19 06:40:31  5-MIN KMLU 071240Z 20003KT 6SM HZ CLR 24/21 A3002 -10 81 1100 200/03 RMK AO2 T02440211
13942KMLU MLU20190907064510509/07/19 06:45:31  5-MIN KMLU 071245Z 20004KT 6SM HZ CLR 24/22 A3002 -10 84 1100 200/04 RMK AO2 T02440217
13942KMLU MLU20190907065011209/07/19 06:50:31  5-MIN KMLU 071250Z 20004KT 6SM HZ CLR 24/22 A3002 -10 84 1100 200/04 RMK AO2 SLP165 T02440217
13942KMLU MLU20190907065510509/07/19 06:55:31  5-MIN KMLU 071255Z 21005KT 5SM HZ CLR 25/22 A3003 -10 81 1200 210/05 RMK AO2 T02500217
13942KMLU MLU20190907070010509/07/19 07:00:31  5-MIN KMLU 071300Z 21005KT 5SM HZ CLR 25/22 A3003 -10 81 1200 210/05 RMK AO2 T02500217
13942KMLU MLU20190907070510509/07/19 07:05:31  5-MIN KMLU 071305Z 21005KT 5SM HZ CLR 26/22 A3003 -10 79 1200 210/05 RMK AO2 T02560217
13942KMLU MLU20190907071010509/07/19 07:10:31  5-MIN KMLU 071310Z 22006KT 5SM HZ CLR 26/22 A3003 -10 79 1200 220/06 RMK AO2 T02560217
13942KMLU MLU20190907071510509/07/19 07:15:31  5-MIN KMLU 071315Z 24006KT 5SM HZ CLR 26/22 A3003 -10 76 1300 230/06 RMK AO2 T02610217
13942KMLU MLU20190907072010509/07/19 07:20:31  5-MIN KMLU 071320Z 24004KT 5SM HZ CLR 27/22 A3003 -10 73 1400 240/04 RMK AO2 T02670217
13942KMLU MLU20190907072510509/07/19 07:25:31  5-MIN KMLU 071325Z 24007KT 6SM HZ CLR 27/21 A3003 -20 69 1400 240/07 RMK AO2 T02720211
13942KMLU MLU20190907073010509/07/19 07:30:31  5-MIN KMLU 071330Z 25006KT 6SM HZ CLR 28/21 A3003 -10 66 1500 250/06 RMK AO2 T02780211
13942KMLU MLU20190907073510509/07/19 07:35:31  5-MIN KMLU 071335Z 25006KT 7SM HZ CLR 28/21 A3003 -10 64 1600 250/06 RMK AO2 T02830211
13942KMLU MLU20190907074010509/07/19 07:40:31  5-MIN KMLU 071340Z 27006KT 7SM HZ CLR 29/21 A3003 -10 62 1600 270/06 RMK AO2 T02890211
13942KMLU MLU20190907074510509/07/19 07:45:31  5-MIN KMLU 071345Z 28006KT 8SM HZ CLR 29/21 A3003 -10 60 1600 280/06 RMK AO2 T02890206
13942KMLU MLU20190907075011209/07/19 07:50:31  5-MIN KMLU 071350Z 27006KT 9SM HZ CLR 29/21 A3003 -10 58 1700 270/06 RMK AO2 SLP167 T02940206
13942KMLU MLU20190907075510509/07/19 07:55:31  5-MIN KMLU 071355Z 26006KT 9SM HZ CLR 30/21 A3003 -10 56 1700 260/06 RMK AO2 T03000206
13942KMLU MLU20190907080010609/07/19 08:00:31  5-MIN KMLU 071400Z 27007KT 10SM HZ CLR 30/21 A3003 -10 56 1700 270/07 RMK AO2 T03000206
13942KMLU MLU20190907080510609/07/19 08:05:31  5-MIN KMLU 071405Z 27007KT 10SM HZ CLR 31/21 A3003 -10 54 1800 270/07 RMK AO2 T03060206
13942KMLU MLU20190907081010609/07/19 08:10:31  5-MIN KMLU 071410Z 28008KT 10SM HZ CLR 31/21 A3003 -10 53 1900 280/08 RMK AO2 T03110206
13942KMLU MLU20190907081510609/07/19 08:15:31  5-MIN KMLU 071415Z 29007KT 10SM HZ CLR 31/21 A3002 -10 53 1900 280/07 RMK AO2 T03110206
13942KMLU MLU20190907082010609/07/19 08:20:31  5-MIN KMLU 071420Z 29008KT 10SM HZ CLR 32/21 A3003 -10 53 1900 280/08 RMK AO2 T03170211
13942KMLU MLU20190907082510609/07/19 08:25:31  5-MIN KMLU 071425Z 29007KT 10SM HZ CLR 32/21 A3002 -10 53 1900 290/07 RMK AO2 T03170211
13942KMLU MLU20190907083010609/07/19 08:30:31  5-MIN KMLU 071430Z 28010KT 10SM HZ CLR 32/21 A3002 -10 51 2000 280/10 RMK AO2 T03220211
13942KMLU MLU20190907083510609/07/19 08:35:31  5-MIN KMLU 071435Z 29010KT 10SM HZ CLR 32/21 A3002 -10 51 2000 290/10 RMK AO2 T03220211
13942KMLU MLU20190907084010609/07/19 08:40:31  5-MIN KMLU 071440Z 28011KT 10SM HZ CLR 32/21 A3003 -10 49 2000 280/11 RMK AO2 T03220206
13942KMLU MLU20190907084510609/07/19 08:45:31  5-MIN KMLU 071445Z 27010KT 10SM HZ CLR 33/21 A3003 -10 49 2000 270/10 RMK AO2 T03280211
13942KMLU MLU20190907085011909/07/19 08:50:31  5-MIN KMLU 071450Z 28009KT 10SM HZ CLR 33/21 A3003 -10 48 2000 280/09 RMK AO2 SLP166 T03280206 53006
13942KMLU MLU20190907085510609/07/19 08:55:31  5-MIN KMLU 071455Z 27011KT 10SM HZ CLR 33/21 A3003 -10 48 2000 270/11 RMK AO2 T03280206
13942KMLU MLU20190907090010609/07/19 09:00:31  5-MIN KMLU 071500Z 28011KT 10SM HZ CLR 33/21 A3003 -10 48 2000 280/11 RMK AO2 T03280206
13942KMLU MLU20190907090510309/07/19 09:05:31  5-MIN KMLU 071505Z 29010KT 10SM CLR 33/21 A3003 -10 46 2100 290/10 RMK AO2 T03330206
13942KMLU MLU20190907091010509/07/19 09:10:31  5-MIN KMLU 071510Z 29010KT 6SM HZ CLR 33/21 A3003 -10 46 2100 290/10 RMK AO2 T03330206
13942KMLU MLU20190907091510509/07/19 09:15:31  5-MIN KMLU 071515Z 30010KT 6SM HZ CLR 33/21 A3003 -10 46 2100 300/10 RMK AO2 T03330206
13942KMLU MLU20190907092010509/07/19 09:20:31  5-MIN KMLU 071520Z 30008KT 6SM HZ CLR 33/21 A3003 -10 46 2100 300/08 RMK AO2 T03330206
13942KMLU MLU20190907092510509/07/19 09:25:31  5-MIN KMLU 071525Z 29008KT 6SM HZ CLR 34/21 A3003 -10 45 2200 290/08 RMK AO2 T03390206
13942KMLU MLU20190907093010509/07/19 09:30:31  5-MIN KMLU 071530Z 31008KT 6SM HZ CLR 34/21 A3003 -10 45 2200 300/08 RMK AO2 T03440211
13942KMLU MLU20190907093510509/07/19 09:35:31  5-MIN KMLU 071535Z 31008KT 6SM HZ CLR 34/21 A3003 -10 45 2200 310/08 RMK AO2 T03390206
13942KMLU MLU20190907094010509/07/19 09:40:31  5-MIN KMLU 071540Z 30007KT 6SM HZ CLR 34/21 A3002 -10 43 2200 300/07 RMK AO2 T03440206
13942KMLU MLU20190907094510509/07/19 09:45:31  5-MIN KMLU 071545Z 30009KT 6SM HZ CLR 34/21 A3002 -10 43 2200 300/09 RMK AO2 T03440206
13942KMLU MLU20190907095011209/07/19 09:50:31  5-MIN KMLU 071550Z 31008KT 6SM HZ CLR 34/21 A3002 -10 43 2200 310/08 RMK AO2 SLP165 T03440206
13942KMLU MLU20190907095510609/07/19 09:55:31  5-MIN KMLU 071555Z 29007KT 10SM HZ CLR 34/21 A3002 -10 43 2200 290/07 RMK AO2 T03440206
13942KMLU MLU20190907100010609/07/19 10:00:31  5-MIN KMLU 071600Z 29008KT 10SM HZ CLR 34/21 A3002 -10 43 2200 290/08 RMK AO2 T03440206
13942KMLU MLU20190907100510609/07/19 10:05:31  5-MIN KMLU 071605Z 30009KT 10SM HZ CLR 34/21 A3002 -10 43 2200 300/09 RMK AO2 T03440206
13942KMLU MLU20190907101010609/07/19 10:10:31  5-MIN KMLU 071610Z 30008KT 10SM HZ CLR 35/21 A3002 -10 43 2300 300/08 RMK AO2 T03500211
13942KMLU MLU20190907101510409/07/19 10:15:31  5-MIN KMLU 071615Z 31005KT 10SM HZ CLR 35/21 A3002 0 42 2300 310/05 RMK AO2 T03500206
13942KMLU MLU20190907102010409/07/19 10:20:31  5-MIN KMLU 071620Z 29007KT 10SM HZ CLR 35/21 A3002 0 42 2300 290/07 RMK AO2 T03500206
13942KMLU MLU20190907102510409/07/19 10:25:31  5-MIN KMLU 071625Z 27007KT 10SM HZ CLR 35/21 A3001 0 42 2300 270/07 RMK AO2 T03500206
13942KMLU MLU20190907103010409/07/19 10:30:31  5-MIN KMLU 071630Z 26006KT 10SM HZ CLR 35/21 A3001 0 43 2300 260/06 RMK AO2 T03500211
13942KMLU MLU20190907103510409/07/19 10:35:31  5-MIN KMLU 071635Z 31007KT 10SM HZ CLR 35/21 A3001 0 43 2300 300/07 RMK AO2 T03500211
13942KMLU MLU20190907104010409/07/19 10:40:31  5-MIN KMLU 071640Z 31006KT 10SM HZ CLR 36/21 A3001 0 42 2400 310/06 RMK AO2 T03560211
13942KMLU MLU20190907104510409/07/19 10:45:31  5-MIN KMLU 071645Z 29006KT 10SM HZ CLR 36/21 A3001 0 41 2400 290/06 RMK AO2 T03560206
13942KMLU MLU20190907105011109/07/19 10:50:31  5-MIN KMLU 071650Z 30009KT 10SM HZ CLR 36/21 A3001 0 42 2400 290/09 RMK AO2 SLP160 T03560211
13942KMLU MLU20190907105510409/07/19 10:55:31  5-MIN KMLU 071655Z 26006KT 10SM HZ CLR 36/21 A3001 0 42 2400 250/06 RMK AO2 T03560211
13942KMLU MLU20190907110010409/07/19 11:00:31  5-MIN KMLU 071700Z 29007KT 10SM HZ CLR 36/22 A3000 0 42 2400 290/07 RMK AO2 T03610217
13942KMLU MLU20190907110510509/07/19 11:05:31  5-MIN KMLU 071705Z VRB05KT 10SM HZ CLR 36/21 A3000 10 39 2400 VRB/05 RMK AO2 T03610206
13942KMLU MLU20190907111010509/07/19 11:10:31  5-MIN KMLU 071710Z 28005KT 10SM HZ CLR 36/21 A3000 10 41 2400 280/05 RMK AO2 T03610211
13942KMLU MLU20190907111510509/07/19 11:15:31  5-MIN KMLU 071715Z VRB05KT 10SM HZ CLR 36/21 A3000 10 41 2400 VRB/05 RMK AO2 T03610211
13942KMLU MLU20190907112010509/07/19 11:20:31  5-MIN KMLU 071720Z 26006KT 10SM HZ CLR 36/21 A3000 10 41 2400 260/06 RMK AO2 T03610211
13942KMLU MLU20190907112510509/07/19 11:25:31  5-MIN KMLU 071725Z 26005KT 10SM HZ CLR 36/21 A3000 10 39 2400 260/05 RMK AO2 T03610206
13942KMLU MLU20190907113010509/07/19 11:30:31  5-MIN KMLU 071730Z 31006KT 10SM HZ CLR 36/21 A3000 10 39 2400 310/06 RMK AO2 T03610206
13942KMLU MLU20190907113510509/07/19 11:35:31  5-MIN KMLU 071735Z 27008KT 10SM HZ CLR 37/21 A2999 10 38 2500 270/08 RMK AO2 T03670206
13942KMLU MLU20190907114010509/07/19 11:40:31  5-MIN KMLU 071740Z 30006KT 10SM HZ CLR 37/21 A2999 10 40 2500 300/06 RMK AO2 T03670211
13942KMLU MLU20190907114510509/07/19 11:45:31  5-MIN KMLU 071745Z 32007KT 10SM HZ CLR 37/21 A2999 10 38 2500 320/07 RMK AO2 T03670206
13942KMLU MLU20190907115012709/07/19 11:50:31  5-MIN KMLU 071750Z 31006KT 10SM CLR 37/21 A2999 20 37 2600 310/06 RMK AO2 SLP154 T03720206 10372 20233 50007
13942KMLU MLU20190907115510209/07/19 11:55:31  5-MIN KMLU 071755Z 32006KT 10SM CLR 37/21 A2999 20 38 2500 320/06 RMK AO2 T03670206
13942KMLU MLU20190907120010209/07/19 12:00:31  5-MIN KMLU 071800Z 31004KT 10SM CLR 37/20 A2998 20 37 2500 300/04 RMK AO2 T03670200
13942KMLU MLU20190907120510209/07/19 12:05:31  5-MIN KMLU 071805Z 34009KT 10SM CLR 37/20 A2998 30 36 2600 340/09 RMK AO2 T03720200
13942KMLU MLU20190907121010209/07/19 12:10:31  5-MIN KMLU 071810Z 35007KT 10SM CLR 37/19 A2998 30 34 2600 350/07 RMK AO2 T03720194
13942KMLU MLU20190907121510209/07/19 12:15:31  5-MIN KMLU 071815Z 32008KT 10SM CLR 38/20 A2998 30 35 2600 320/08 RMK AO2 T03780200
13942KMLU MLU20190907122010209/07/19 12:20:31  5-MIN KMLU 071820Z 01006KT 10SM CLR 38/19 A2998 30 33 2600 010/06 RMK AO2 T03780194
13942KMLU MLU20190907122510209/07/19 12:25:31  5-MIN KMLU 071825Z 33009KT 10SM CLR 37/19 A2998 30 34 2600 330/09 RMK AO2 T03720194
13942KMLU MLU20190907123010209/07/19 12:30:31  5-MIN KMLU 071830Z 33006KT 10SM CLR 37/19 A2997 30 34 2600 330/06 RMK AO2 T03720194
13942KMLU MLU20190907123510209/07/19 12:35:31  5-MIN KMLU 071835Z 33009KT 10SM CLR 37/19 A2997 30 34 2600 320/09 RMK AO2 T03720194
13942KMLU MLU20190907124010209/07/19 12:40:31  5-MIN KMLU 071840Z VRB05KT 10SM CLR 38/19 A2997 30 32 2700 VRB/05 RMK AO2 T03780189
13942KMLU MLU20190907124510209/07/19 12:45:31  5-MIN KMLU 071845Z 29006KT 10SM CLR 37/19 A2997 40 34 2600 290/06 RMK AO2 T03720194
13942KMLU MLU20190907125009909/07/19 12:50:31  5-MIN KMLU 071850Z 10SM CLR 37/18 A2997 40 32 2600 M /M RMK AO2 SLP146 T03720183
13942KMLU MLU20190907125510209/07/19 12:55:31  5-MIN KMLU 071855Z VRB06KT 10SM CLR 38/18 A2997 40 31 2700 VRB/06 RMK AO2 T03780183
13942KMLU MLU20190907130010209/07/19 13:00:31  5-MIN KMLU 071900Z 03008KT 10SM CLR 38/18 A2997 40 31 2700 030/08 RMK AO2 T03780183
13942KMLU MLU20190907130510209/07/19 13:05:31  5-MIN KMLU 071905Z 34004KT 10SM CLR 38/18 A2997 40 31 2700 340/04 RMK AO2 T03780183
13942KMLU MLU20190907131010209/07/19 13:10:31  5-MIN KMLU 071910Z 33008KT 10SM CLR 38/18 A2996 40 30 2700 330/08 RMK AO2 T03830183
13942KMLU MLU20190907131510209/07/19 13:15:31  5-MIN KMLU 071915Z 31003KT 10SM CLR 38/19 A2996 40 32 2700 300/03 RMK AO2 T03780189
13942KMLU MLU20190907132010209/07/19 13:20:31  5-MIN KMLU 071920Z 35006KT 10SM CLR 38/19 A2996 50 31 2700 350/06 RMK AO2 T03830189
13942KMLU MLU20190907132510209/07/19 13:25:31  5-MIN KMLU 071925Z VRB05KT 10SM CLR 38/19 A2996 50 31 2700 VRB/05 RMK AO2 T03830189
13942KMLU MLU20190907133010209/07/19 13:30:31  5-MIN KMLU 071930Z VRB06KT 10SM CLR 38/19 A2995 50 32 2700 VRB/06 RMK AO2 T03780189
13942KMLU MLU20190907133510209/07/19 13:35:31  5-MIN KMLU 071935Z 01003KT 10SM CLR 38/18 A2995 50 30 2700 010/03 RMK AO2 T03830183
13942KMLU MLU20190907134010709/07/19 13:40:31  5-MIN KMLU 071940Z AUTO 32006KT 10SM CLR 38/19 A2995 50 31 2700 320/06 RMK AO2 T03830189
13942KMLU MLU20190907134510709/07/19 13:45:31  5-MIN KMLU 071945Z AUTO 36009KT 10SM CLR 38/18 A2995 60 30 2700 360/09 RMK AO2 T03830183
13942KMLU MLU20190907135011409/07/19 13:50:31  5-MIN KMLU 071950Z AUTO VRB06KT 10SM CLR 38/19 A2995 60 31 2700 VRB/06 RMK AO2 SLP139 T03830189
13942KMLU MLU20190907135510209/07/19 13:55:31  5-MIN KMLU 071955Z 36004KT 10SM CLR 38/19 A2994 60 32 2700 360/04 RMK AO2 T03780189
13942KMLU MLU20190907140010209/07/19 14:00:31  5-MIN KMLU 072000Z 32005KT 10SM CLR 38/19 A2994 60 32 2700 320/05 RMK AO2 T03780189
13942KMLU MLU20190907140510209/07/19 14:05:31  5-MIN KMLU 072005Z VRB04KT 10SM CLR 38/19 A2994 60 32 2700 VRB/04 RMK AO2 T03780189
13942KMLU MLU20190907141009209/07/19 14:10:31  5-MIN KMLU 072010Z 10SM CLR 38/19 A2994 60 31 2700 M /M RMK AO2 T03830189
13942KMLU MLU20190907141510209/07/19 14:15:31  5-MIN KMLU 072015Z 02003KT 10SM CLR 39/19 A2994 60 30 2800 020/03 RMK AO2 T03890189
13942KMLU MLU20190907142009209/07/19 14:20:31  5-MIN KMLU 072020Z 10SM CLR 38/19 A2994 60 32 2700 M /M RMK AO2 T03830194
13942KMLU MLU20190907142510209/07/19 14:25:31  5-MIN KMLU 072025Z VRB04KT 10SM CLR 38/19 A2994 60 32 2700 VRB/04 RMK AO2 T03780189
13942KMLU MLU20190907143011809/07/19 14:30:31  5-MIN KMLU 072030Z 35008KT 340V040 10SM CLR 38/19 A2994 70 32 2800 350/08 340V040 RMK AO2 T03830194
13942KMLU MLU20190907143510209/07/19 14:35:31  5-MIN KMLU 072035Z 36005KT 10SM CLR 38/19 A2994 70 31 2800 350/05 RMK AO2 T03830189
13942KMLU MLU20190907144010209/07/19 14:40:31  5-MIN KMLU 072040Z VRB05KT 10SM CLR 38/18 A2994 70 30 2800 VRB/05 RMK AO2 T03830183
13942KMLU MLU20190907144510209/07/19 14:45:31  5-MIN KMLU 072045Z VRB03KT 10SM CLR 37/19 A2993 70 33 2600 VRB/03 RMK AO2 T03720189
13942KMLU MLU20190907145011509/07/19 14:50:31  5-MIN KMLU 072050Z VRB03KT 10SM CLR 38/19 A2993 70 32 2700 VRB/03 RMK AO2 SLP134 T03780189 58013
13942KMLU MLU20190907145510209/07/19 14:55:31  5-MIN KMLU 072055Z 32007KT 10SM CLR 38/19 A2993 70 31 2800 320/07 RMK AO2 T03830189
13942KMLU MLU20190907150010209/07/19 15:00:31  5-MIN KMLU 072100Z 32008KT 10SM CLR 38/19 A2993 70 31 2800 320/08 RMK AO2 T03830189
13942KMLU MLU20190907150510209/07/19 15:05:31  5-MIN KMLU 072105Z 30006KT 10SM CLR 38/19 A2993 70 32 2700 300/06 RMK AO2 T03780189
13942KMLU MLU20190907151009209/07/19 15:10:31  5-MIN KMLU 072110Z 10SM CLR 38/19 A2993 70 32 2700 M /M RMK AO2 T03780189
13942KMLU MLU20190907151510209/07/19 15:15:31  5-MIN KMLU 072115Z 26004KT 10SM CLR 38/19 A2993 70 32 2700 250/04 RMK AO2 T03780189
13942KMLU MLU20190907152010209/07/19 15:20:31  5-MIN KMLU 072120Z 32007KT 10SM CLR 38/19 A2993 70 32 2700 320/07 RMK AO2 T03780189
13942KMLU MLU20190907152510209/07/19 15:25:31  5-MIN KMLU 072125Z 31007KT 10SM CLR 38/19 A2993 70 32 2700 310/07 RMK AO2 T03780189
13942KMLU MLU20190907153010209/07/19 15:30:31  5-MIN KMLU 072130Z 32005KT 10SM CLR 38/19 A2993 70 32 2700 310/05 RMK AO2 T03780189
13942KMLU MLU20190907153510209/07/19 15:35:31  5-MIN KMLU 072135Z 35003KT 10SM CLR 38/19 A2993 80 32 2700 340/03 RMK AO2 T03780189
13942KMLU MLU20190907154010209/07/19 15:40:31  5-MIN KMLU 072140Z VRB04KT 10SM CLR 38/18 A2993 80 31 2700 VRB/04 RMK AO2 T03780183
13942KMLU MLU20190907154510209/07/19 15:45:31  5-MIN KMLU 072145Z 00000KT 10SM CLR 38/18 A2993 80 31 2700 000/00 RMK AO2 T03780183
13942KMLU MLU20190907155010909/07/19 15:50:31  5-MIN KMLU 072150Z 00000KT 10SM CLR 38/19 A2992 80 32 2700 000/00 RMK AO2 SLP131 T03780189
13942KMLU MLU20190907155510209/07/19 15:55:31  5-MIN KMLU 072155Z 01004KT 10SM CLR 38/19 A2992 80 31 2800 360/04 RMK AO2 T03830189
13942KMLU MLU20190907160010209/07/19 16:00:31  5-MIN KMLU 072200Z 00000KT 10SM CLR 38/19 A2992 80 31 2800 000/00 RMK AO2 T03830189
13942KMLU MLU20190907160510209/07/19 16:05:31  5-MIN KMLU 072205Z VRB04KT 10SM CLR 37/19 A2992 80 33 2700 VRB/04 RMK AO2 T03720189
13942KMLU MLU20190907161010209/07/19 16:10:31  5-MIN KMLU 072210Z 32005KT 10SM CLR 38/19 A2992 80 32 2700 320/05 RMK AO2 T03780189
13942KMLU MLU20190907161510209/07/19 16:15:31  5-MIN KMLU 072215Z 00000KT 10SM CLR 38/18 A2992 80 31 2700 000/00 RMK AO2 T03780183
13942KMLU MLU20190907162010209/07/19 16:20:31  5-MIN KMLU 072220Z 00000KT 10SM CLR 38/18 A2992 80 31 2700 000/00 RMK AO2 T03780183
13942KMLU MLU20190907162510209/07/19 16:25:31  5-MIN KMLU 072225Z 30004KT 10SM CLR 37/19 A2992 80 33 2700 300/04 RMK AO2 T03720189
13942KMLU MLU20190907163010209/07/19 16:30:31  5-MIN KMLU 072230Z 27006KT 10SM CLR 37/19 A2992 80 33 2700 270/06 RMK AO2 T03720189
13942KMLU MLU20190907163510209/07/19 16:35:31  5-MIN KMLU 072235Z 28005KT 10SM CLR 37/19 A2992 80 33 2700 280/05 RMK AO2 T03720189
13942KMLU MLU20190907164010209/07/19 16:40:31  5-MIN KMLU 072240Z 28005KT 10SM CLR 36/19 A2992 80 35 2500 280/05 RMK AO2 T03610189
13942KMLU MLU20190907164510209/07/19 16:45:31  5-MIN KMLU 072245Z 28004KT 10SM CLR 36/19 A2992 80 35 2500 280/04 RMK AO2 T03610189
13942KMLU MLU20190907165010909/07/19 16:50:31  5-MIN KMLU 072250Z 27003KT 10SM CLR 37/18 A2992 80 33 2600 270/03 RMK AO2 SLP131 T03670183
13942KMLU MLU20190907165510209/07/19 16:55:31  5-MIN KMLU 072255Z 00000KT 10SM CLR 37/19 A2992 80 34 2600 000/00 RMK AO2 T03670189
13942KMLU MLU20190907170010209/07/19 17:00:31  5-MIN KMLU 072300Z 00000KT 10SM CLR 37/19 A2992 80 34 2600 000/00 RMK AO2 T03670189
13942KMLU MLU20190907170510209/07/19 17:05:31  5-MIN KMLU 072305Z 00000KT 10SM CLR 37/19 A2992 80 34 2600 000/00 RMK AO2 T03670189
13942KMLU MLU20190907171010209/07/19 17:10:31  5-MIN KMLU 072310Z 00000KT 10SM CLR 37/18 A2993 80 33 2600 000/00 RMK AO2 T03670183
13942KMLU MLU20190907171510209/07/19 17:15:31  5-MIN KMLU 072315Z 00000KT 10SM CLR 38/18 A2993 80 31 2700 000/00 RMK AO2 T03780183
13942KMLU MLU20190907172010209/07/19 17:20:31  5-MIN KMLU 072320Z 00000KT 10SM CLR 37/19 A2993 80 33 2600 000/00 RMK AO2 T03720189
13942KMLU MLU20190907172510209/07/19 17:25:31  5-MIN KMLU 072325Z 00000KT 10SM CLR 37/18 A2993 80 33 2600 000/00 RMK AO2 T03670183
13942KMLU MLU20190907173010209/07/19 17:30:31  5-MIN KMLU 072330Z 00000KT 10SM CLR 36/19 A2993 80 35 2500 000/00 RMK AO2 T03610189
13942KMLU MLU20190907173510209/07/19 17:35:31  5-MIN KMLU 072335Z 00000KT 10SM CLR 36/19 A2992 80 37 2500 000/00 RMK AO2 T03610194
13942KMLU MLU20190907174010209/07/19 17:40:31  5-MIN KMLU 072340Z 00000KT 10SM CLR 34/22 A2992 80 48 2300 000/00 RMK AO2 T03440222
13942KMLU MLU20190907174510209/07/19 17:45:31  5-MIN KMLU 072345Z 00000KT 10SM CLR 34/22 A2993 80 50 2300 000/00 RMK AO2 T03390222
13942KMLU MLU20190907175012709/07/19 17:50:31  5-MIN KMLU 072350Z 00000KT 10SM CLR 33/24 A2993 80 57 2200 000/00 RMK AO2 SLP132 T03330239 10389 20333 56019
13942KMLU MLU20190907175510209/07/19 17:55:31  5-MIN KMLU 072355Z 00000KT 10SM CLR 32/22 A2993 70 55 2100 000/00 RMK AO2 T03220222
13942KMLU MLU20190907180010209/07/19 18:00:31  5-MIN KMLU 080000Z 00000KT 10SM CLR 33/22 A2993 70 51 2200 000/00 RMK AO2 T03280217
13942KMLU MLU20190907180510209/07/19 18:05:31  5-MIN KMLU 080005Z VRB03KT 10SM CLR 32/22 A2993 70 55 2100 VRB/03 RMK AO2 T03220222
13942KMLU MLU20190907181010209/07/19 18:10:31  5-MIN KMLU 080010Z 21003KT 10SM CLR 32/21 A2993 70 51 2100 210/03 RMK AO2 T03220211
13942KMLU MLU20190907181510209/07/19 18:15:31  5-MIN KMLU 080015Z 21003KT 10SM CLR 33/21 A2993 70 48 2200 210/03 RMK AO2 T03280206
13942KMLU MLU20190907182010209/07/19 18:20:31  5-MIN KMLU 080020Z 22003KT 10SM CLR 33/20 A2993 70 46 2200 220/03 RMK AO2 T03280200
13942KMLU MLU20190907182510209/07/19 18:25:31  5-MIN KMLU 080025Z 00000KT 10SM CLR 31/22 A2993 70 58 2000 000/00 RMK AO2 T03110222
13942KMLU MLU20190907183010209/07/19 18:30:31  5-MIN KMLU 080030Z 00000KT 10SM CLR 31/23 A2993 70 62 1900 000/00 RMK AO2 T03060228
13942KMLU MLU20190907183510209/07/19 18:35:31  5-MIN KMLU 080035Z 00000KT 10SM CLR 30/23 A2993 70 65 1800 000/00 RMK AO2 T03000228
13942KMLU MLU20190907184010209/07/19 18:40:31  5-MIN KMLU 080040Z 00000KT 10SM CLR 30/23 A2993 70 65 1800 000/00 RMK AO2 T03000228
13942KMLU MLU20190907184510209/07/19 18:45:31  5-MIN KMLU 080045Z 00000KT 10SM CLR 30/23 A2993 70 65 1800 000/00 RMK AO2 T03000228
13942KMLU MLU20190907185010909/07/19 18:50:31  5-MIN KMLU 080050Z 00000KT 10SM CLR 29/22 A2993 70 64 1800 000/00 RMK AO2 SLP134 T02940222
13942KMLU MLU20190907185510209/07/19 18:55:31  5-MIN KMLU 080055Z 00000KT 10SM CLR 29/22 A2993 70 62 1800 000/00 RMK AO2 T02940217
13942KMLU MLU20190907190010209/07/19 19:00:31  5-MIN KMLU 080100Z 00000KT 10SM CLR 29/22 A2993 70 62 1800 000/00 RMK AO2 T02940217
13942KMLU MLU20190907190510209/07/19 19:05:31  5-MIN KMLU 080105Z 00000KT 10SM CLR 29/22 A2993 70 67 1700 000/00 RMK AO2 T02890222
13942KMLU MLU20190907191010209/07/19 19:10:31  5-MIN KMLU 080110Z 00000KT 10SM CLR 29/23 A2994 70 69 1700 000/00 RMK AO2 T02890228
13942KMLU MLU20190907191510209/07/19 19:15:31  5-MIN KMLU 080115Z 00000KT 10SM CLR 29/22 A2994 70 67 1700 000/00 RMK AO2 T02890222
13942KMLU MLU20190907192010209/07/19 19:20:31  5-MIN KMLU 080120Z 00000KT 10SM CLR 28/22 A2994 70 69 1700 000/00 RMK AO2 T02830222
13942KMLU MLU20190907192510209/07/19 19:25:31  5-MIN KMLU 080125Z 00000KT 10SM CLR 28/22 A2994 70 69 1700 000/00 RMK AO2 T02830222
13942KMLU MLU20190907193010209/07/19 19:30:31  5-MIN KMLU 080130Z 00000KT 10SM CLR 28/22 A2994 70 69 1700 000/00 RMK AO2 T02830222
13942KMLU MLU20190907193510209/07/19 19:35:31  5-MIN KMLU 080135Z 00000KT 10SM CLR 28/22 A2994 70 69 1700 000/00 RMK AO2 T02830222
13942KMLU MLU20190907194010209/07/19 19:40:31  5-MIN KMLU 080140Z 00000KT 10SM CLR 28/22 A2994 70 69 1700 000/00 RMK AO2 T02830222
13942KMLU MLU20190907194510209/07/19 19:45:31  5-MIN KMLU 080145Z 00000KT 10SM CLR 28/22 A2994 70 71 1600 000/00 RMK AO2 T02780222
13942KMLU MLU20190907195010909/07/19 19:50:31  5-MIN KMLU 080150Z 00000KT 10SM CLR 27/22 A2994 60 71 1500 000/00 RMK AO2 SLP136 T02720217
13942KMLU MLU20190907195510209/07/19 19:55:31  5-MIN KMLU 080155Z 00000KT 10SM CLR 27/22 A2994 60 74 1500 000/00 RMK AO2 T02720222
13942KMLU MLU20190907200010209/07/19 20:00:31  5-MIN KMLU 080200Z 00000KT 10SM CLR 28/22 A2994 60 71 1600 000/00 RMK AO2 T02780222
13942KMLU MLU20190907200510209/07/19 20:05:31  5-MIN KMLU 080205Z 00000KT 10SM CLR 28/22 A2994 60 71 1600 000/00 RMK AO2 T02780222
13942KMLU MLU20190907201010209/07/19 20:10:31  5-MIN KMLU 080210Z 00000KT 10SM CLR 28/22 A2995 60 69 1600 000/00 RMK AO2 T02780217
13942KMLU MLU20190907201510209/07/19 20:15:31  5-MIN KMLU 080215Z 00000KT 10SM CLR 27/22 A2995 60 71 1500 000/00 RMK AO2 T02720217
13942KMLU MLU20190907202010209/07/19 20:20:31  5-MIN KMLU 080220Z 00000KT 10SM CLR 27/22 A2995 60 73 1500 000/00 RMK AO2 T02670217
13942KMLU MLU20190907202510209/07/19 20:25:31  5-MIN KMLU 080225Z 00000KT 10SM CLR 27/22 A2995 50 73 1500 000/00 RMK AO2 T02670217
13942KMLU MLU20190907203010209/07/19 20:30:31  5-MIN KMLU 080230Z 00000KT 10SM CLR 26/22 A2995 50 76 1400 000/00 RMK AO2 T02610217
13942KMLU MLU20190907203510209/07/19 20:35:31  5-MIN KMLU 080235Z 00000KT 10SM CLR 27/22 A2995 50 73 1500 000/00 RMK AO2 T02670217
13942KMLU MLU20190907204010209/07/19 20:40:31  5-MIN KMLU 080240Z 00000KT 10SM CLR 27/22 A2995 50 71 1500 000/00 RMK AO2 T02720217
13942KMLU MLU20190907204510209/07/19 20:45:31  5-MIN KMLU 080245Z 00000KT 10SM CLR 27/22 A2995 50 73 1500 000/00 RMK AO2 T02670217
13942KMLU MLU20190907205011509/07/19 20:50:31  5-MIN KMLU 080250Z 00000KT 10SM CLR 27/21 A2995 50 71 1500 000/00 RMK AO2 SLP141 T02670211 55002
13942KMLU MLU20190907205510709/07/19 20:55:31  5-MIN KMLU 080255Z AUTO 00000KT 10SM CLR 26/21 A2995 50 73 1400 000/00 RMK AO2 T02610211
13942KMLU MLU20190907210010709/07/19 21:00:31  5-MIN KMLU 080300Z AUTO 00000KT 10SM CLR 27/22 A2995 50 73 1500 000/00 RMK AO2 T02670217
13942KMLU MLU20190907210510709/07/19 21:05:31  5-MIN KMLU 080305Z AUTO 00000KT 10SM CLR 27/22 A2995 50 73 1400 000/00 RMK AO2 T02670217
13942KMLU MLU20190907211010709/07/19 21:10:31  5-MIN KMLU 080310Z AUTO 00000KT 10SM CLR 27/22 A2996 50 73 1400 000/00 RMK AO2 T02670217
13942KMLU MLU20190907211510709/07/19 21:15:31  5-MIN KMLU 080315Z AUTO 00000KT 10SM CLR 26/21 A2996 50 73 1400 000/00 RMK AO2 T02610211
13942KMLU MLU20190907212010709/07/19 21:20:31  5-MIN KMLU 080320Z AUTO 00000KT 10SM CLR 26/22 A2996 50 76 1400 000/00 RMK AO2 T02610217
13942KMLU MLU20190907212510709/07/19 21:25:31  5-MIN KMLU 080325Z AUTO 00000KT 10SM CLR 27/21 A2996 50 71 1400 000/00 RMK AO2 T02670211
13942KMLU MLU20190907213010709/07/19 21:30:31  5-MIN KMLU 080330Z AUTO 00000KT 10SM CLR 26/21 A2996 50 73 1400 000/00 RMK AO2 T02610211
13942KMLU MLU20190907213510709/07/19 21:35:31  5-MIN KMLU 080335Z AUTO 00000KT 10SM CLR 26/22 A2996 50 76 1400 000/00 RMK AO2 T02610217
13942KMLU MLU20190907214010709/07/19 21:40:31  5-MIN KMLU 080340Z AUTO 00000KT 10SM CLR 26/22 A2996 50 76 1400 000/00 RMK AO2 T02610217
13942KMLU MLU20190907214510709/07/19 21:45:31  5-MIN KMLU 080345Z AUTO 00000KT 10SM CLR 26/22 A2996 50 76 1400 000/00 RMK AO2 T02610217
13942KMLU MLU20190907215011409/07/19 21:50:31  5-MIN KMLU 080350Z AUTO 00000KT 10SM CLR 26/22 A2996 50 79 1400 000/00 RMK AO2 SLP142 T02610222
13942KMLU MLU20190907215510709/07/19 21:55:31  5-MIN KMLU 080355Z AUTO 00000KT 10SM CLR 26/22 A2996 50 79 1300 000/00 RMK AO2 T02560217
13942KMLU MLU20190907220010709/07/19 22:00:31  5-MIN KMLU 080400Z AUTO 00000KT 10SM CLR 26/22 A2996 50 79 1300 000/00 RMK AO2 T02560217
13942KMLU MLU20190907220510709/07/19 22:05:31  5-MIN KMLU 080405Z AUTO 00000KT 10SM CLR 25/21 A2996 50 79 1300 000/00 RMK AO2 T02500211
13942KMLU MLU20190907221010709/07/19 22:10:31  5-MIN KMLU 080410Z AUTO 00000KT 10SM CLR 25/21 A2996 50 79 1300 000/00 RMK AO2 T02500211
13942KMLU MLU20190907221510709/07/19 22:15:31  5-MIN KMLU 080415Z AUTO 00000KT 10SM CLR 25/21 A2996 50 79 1300 000/00 RMK AO2 T02500211
13942KMLU MLU20190907222010709/07/19 22:20:31  5-MIN KMLU 080420Z AUTO 00000KT 10SM CLR 25/21 A2996 50 79 1300 000/00 RMK AO2 T02500211
13942KMLU MLU20190907222510709/07/19 22:25:31  5-MIN KMLU 080425Z AUTO 00000KT 10SM CLR 25/21 A2995 50 79 1300 000/00 RMK AO2 T02500211
13942KMLU MLU20190907223010709/07/19 22:30:31  5-MIN KMLU 080430Z AUTO 00000KT 10SM CLR 25/21 A2995 50 79 1300 000/00 RMK AO2 T02500211
13942KMLU MLU20190907223510709/07/19 22:35:31  5-MIN KMLU 080435Z AUTO 00000KT 10SM CLR 25/21 A2995 50 79 1300 000/00 RMK AO2 T02500211
13942KMLU MLU20190907224010709/07/19 22:40:31  5-MIN KMLU 080440Z AUTO 00000KT 10SM CLR 26/21 A2995 50 76 1300 000/00 RMK AO2 T02560211
13942KMLU MLU20190907224510709/07/19 22:45:31  5-MIN KMLU 080445Z AUTO 00000KT 10SM CLR 25/21 A2995 50 79 1300 000/00 RMK AO2 T02500211
13942KMLU MLU20190907225011409/07/19 22:50:31  5-MIN KMLU 080450Z AUTO 00000KT 10SM CLR 25/21 A2996 50 79 1300 000/00 RMK AO2 SLP142 T02500211
13942KMLU MLU20190907225510709/07/19 22:55:31  5-MIN KMLU 080455Z AUTO 00000KT 10SM CLR 25/21 A2996 50 79 1300 000/00 RMK AO2 T02500211
13942KMLU MLU20190907230010709/07/19 23:00:31  5-MIN KMLU 080500Z AUTO 00000KT 10SM CLR 25/21 A2996 50 79 1300 000/00 RMK AO2 T02500211
13942KMLU MLU20190907230510709/07/19 23:05:31  5-MIN KMLU 080505Z AUTO 00000KT 10SM CLR 25/21 A2996 50 79 1300 000/00 RMK AO2 T02500211
13942KMLU MLU20190907231010709/07/19 23:10:31  5-MIN KMLU 080510Z AUTO 00000KT 10SM CLR 25/21 A2996 50 79 1300 000/00 RMK AO2 T02500211
13942KMLU MLU20190907231510709/07/19 23:15:31  5-MIN KMLU 080515Z AUTO 00000KT 10SM CLR 25/21 A2996 50 79 1300 000/00 RMK AO2 T02500211
13942KMLU MLU20190907232010709/07/19 23:20:31  5-MIN KMLU 080520Z AUTO 00000KT 10SM CLR 25/22 A2995 50 81 1300 000/00 RMK AO2 T02500217
13942KMLU MLU20190907232510709/07/19 23:25:31  5-MIN KMLU 080525Z AUTO 00000KT 10SM CLR 25/22 A2995 50 81 1300 000/00 RMK AO2 T02500217
13942KMLU MLU20190907233010709/07/19 23:30:31  5-MIN KMLU 080530Z AUTO 00000KT 10SM CLR 25/22 A2995 50 81 1300 000/00 RMK AO2 T02500217
13942KMLU MLU20190907233510709/07/19 23:35:31  5-MIN KMLU 080535Z AUTO 00000KT 10SM CLR 25/22 A2996 50 81 1300 000/00 RMK AO2 T02500217
13942KMLU MLU20190907234010709/07/19 23:40:31  5-MIN KMLU 080540Z AUTO 00000KT 10SM CLR 24/22 A2996 50 84 1200 000/00 RMK AO2 T02440217
13942KMLU MLU20190907234510609/07/19 23:45:31  5-MIN KMLU 080545Z AUTO 00000KT 9SM CLR 24/22 A2996 50 84 1200 000/00 RMK AO2 T02440217
13942KMLU MLU20190907235014109/07/19 23:50:31  5-MIN KMLU 080550Z AUTO 19004KT 9SM CLR 24/22 A2996 40 84 1200 190/04 RMK AO2 SLP144 T02440217 10328 20244 403890228 53008
13942KMLU MLU20190907235510709/07/19 23:55:31  5-MIN KMLU 080555Z AUTO 19005KT 10SM CLR 24/22 A2996 40 84 1200 190/05 RMK AO2 T02440217
13942KMLU MLU20190908000010709/08/19 00:00:31  5-MIN KMLU 080600Z AUTO 18003KT 10SM CLR 25/22 A2996 40 81 1300 180/03 RMK AO2 T02500217
13942KMLU MLU20190908000510709/08/19 00:05:31  5-MIN KMLU 080605Z AUTO 19004KT 10SM CLR 25/22 A2996 40 81 1300 190/04 RMK AO2 T02500217
13942KMLU MLU20190908001010709/08/19 00:10:31  5-MIN KMLU 080610Z AUTO 22003KT 10SM CLR 25/21 A2996 40 79 1300 210/03 RMK AO2 T02500211
13942KMLU MLU20190908001510709/08/19 00:15:31  5-MIN KMLU 080615Z AUTO 19003KT 10SM CLR 25/21 A2996 40 79 1300 190/03 RMK AO2 T02500211
13942KMLU MLU20190908002010709/08/19 00:20:31  5-MIN KMLU 080620Z AUTO 00000KT 10SM CLR 26/21 A2996 40 76 1300 000/00 RMK AO2 T02560211
13942KMLU MLU20190908002510709/08/19 00:25:31  5-MIN KMLU 080625Z AUTO 00000KT 10SM CLR 25/21 A2996 40 79 1300 000/00 RMK AO2 T02500211
13942KMLU MLU20190908003010609/08/19 00:30:31  5-MIN KMLU 080630Z AUTO 04008KT 9SM CLR 24/21 A2996 40 84 1100 040/08 RMK AO2 T02390211
13942KMLU MLU20190908003510609/08/19 00:35:31  5-MIN KMLU 080635Z AUTO 06003KT 8SM CLR 23/21 A2997 40 87 1100 060/03 RMK AO2 T02330211
13942KMLU MLU20190908004010609/08/19 00:40:31  5-MIN KMLU 080640Z AUTO 07003KT 9SM CLR 24/22 A2997 40 84 1200 070/03 RMK AO2 T02440217
13942KMLU MLU20190908004510609/08/19 00:45:31  5-MIN KMLU 080645Z AUTO 00000KT 9SM CLR 24/22 A2997 40 84 1200 000/00 RMK AO2 T02440217
13942KMLU MLU20190908005011309/08/19 00:50:31  5-MIN KMLU 080650Z AUTO 00000KT 9SM CLR 24/22 A2997 40 84 1200 000/00 RMK AO2 SLP146 T02440217
13942KMLU MLU20190908005510609/08/19 00:55:31  5-MIN KMLU 080655Z AUTO 00000KT 9SM CLR 24/22 A2996 40 84 1200 000/00 RMK AO2 T02440217
13942KMLU MLU20190908010010609/08/19 01:00:31  5-MIN KMLU 080700Z AUTO 00000KT 9SM CLR 24/22 A2996 40 84 1200 000/00 RMK AO2 T02440217
13942KMLU MLU20190908010510609/08/19 01:05:31  5-MIN KMLU 080705Z AUTO 00000KT 9SM CLR 24/22 A2996 40 84 1200 000/00 RMK AO2 T02440217
13942KMLU MLU20190908011010609/08/19 01:10:31  5-MIN KMLU 080710Z AUTO 00000KT 9SM CLR 24/22 A2996 40 87 1100 000/00 RMK AO2 T02390217
13942KMLU MLU20190908011510609/08/19 01:15:31  5-MIN KMLU 080715Z AUTO 00000KT 9SM CLR 24/22 A2996 50 87 1100 000/00 RMK AO2 T02390217
13942KMLU MLU20190908012010609/08/19 01:20:31  5-MIN KMLU 080720Z AUTO 00000KT 8SM CLR 23/21 A2996 50 87 1100 000/00 RMK AO2 T02330211
13942KMLU MLU20190908012510609/08/19 01:25:31  5-MIN KMLU 080725Z AUTO 00000KT 8SM CLR 23/21 A2996 50 87 1100 000/00 RMK AO2 T02330211
13942KMLU MLU20190908013010609/08/19 01:30:31  5-MIN KMLU 080730Z AUTO 00000KT 8SM CLR 23/21 A2996 50 87 1100 000/00 RMK AO2 T02330211
13942KMLU MLU20190908013510609/08/19 01:35:31  5-MIN KMLU 080735Z AUTO 00000KT 9SM CLR 23/22 A2996 50 90 1100 000/00 RMK AO2 T02330217
13942KMLU MLU20190908014010609/08/19 01:40:31  5-MIN KMLU 080740Z AUTO 00000KT 8SM CLR 23/21 A2996 50 90 1000 000/00 RMK AO2 T02280211
13942KMLU MLU20190908014510609/08/19 01:45:31  5-MIN KMLU 080745Z AUTO 00000KT 8SM CLR 24/22 A2996 50 87 1100 000/00 RMK AO2 T02390217
13942KMLU MLU20190908015011309/08/19 01:50:31  5-MIN KMLU 080750Z AUTO 19003KT 9SM CLR 23/21 A2996 50 90 1000 190/03 RMK AO2 SLP143 T02280211
13942KMLU MLU20190908015510609/08/19 01:55:31  5-MIN KMLU 080755Z AUTO 21004KT 8SM CLR 23/21 A2996 50 87 1100 210/04 RMK AO2 T02330211
13942KMLU MLU20190908020010609/08/19 02:00:31  5-MIN KMLU 080800Z AUTO 21006KT 9SM CLR 23/21 A2996 50 90 1000 210/06 RMK AO2 T02280211
13942KMLU MLU20190908020510609/08/19 02:05:31  5-MIN KMLU 080805Z AUTO 22006KT 8SM CLR 23/21 A2996 40 87 1100 220/06 RMK AO2 T02330211
13942KMLU MLU20190908021010609/08/19 02:10:31  5-MIN KMLU 080810Z AUTO 20005KT 8SM CLR 23/21 A2996 40 87 1100 200/05 RMK AO2 T02330211
13942KMLU MLU20190908021510609/08/19 02:15:31  5-MIN KMLU 080815Z AUTO 21005KT 9SM CLR 24/21 A2996 40 84 1100 200/05 RMK AO2 T02390211
13942KMLU MLU20190908022010609/08/19 02:20:31  5-MIN KMLU 080820Z AUTO 20005KT 9SM CLR 24/21 A2996 40 84 1100 200/05 RMK AO2 T02390211
13942KMLU MLU20190908022510609/08/19 02:25:31  5-MIN KMLU 080825Z AUTO 21005KT 9SM CLR 24/21 A2996 40 84 1100 200/05 RMK AO2 T02390211
13942KMLU MLU20190908023010609/08/19 02:30:31  5-MIN KMLU 080830Z AUTO 21004KT 9SM CLR 24/21 A2996 40 84 1100 210/04 RMK AO2 T02390211
13942KMLU MLU20190908023510609/08/19 02:35:31  5-MIN KMLU 080835Z AUTO 22004KT 9SM CLR 24/21 A2996 40 84 1100 220/04 RMK AO2 T02390211
13942KMLU MLU20190908024010609/08/19 02:40:31  5-MIN KMLU 080840Z AUTO 23003KT 9SM CLR 24/21 A2996 40 81 1200 230/03 RMK AO2 T02440211
13942KMLU MLU20190908024510609/08/19 02:45:31  5-MIN KMLU 080845Z AUTO 23003KT 9SM CLR 24/21 A2996 40 84 1100 230/03 RMK AO2 T02390211
13942KMLU MLU20190908025011909/08/19 02:50:31  5-MIN KMLU 080850Z AUTO 24003KT 9SM CLR 24/21 A2996 40 84 1100 230/03 RMK AO2 SLP144 T02390211 53003
13942KMLU MLU20190908025510609/08/19 02:55:31  5-MIN KMLU 080855Z AUTO 22003KT 9SM CLR 24/21 A2996 40 84 1100 220/03 RMK AO2 T02390211
13942KMLU MLU20190908030010609/08/19 03:00:31  5-MIN KMLU 080900Z AUTO 22003KT 9SM CLR 24/21 A2996 40 84 1100 220/03 RMK AO2 T02390211
13942KMLU MLU20190908030510609/08/19 03:05:31  5-MIN KMLU 080905Z AUTO 22004KT 9SM CLR 24/21 A2996 40 84 1100 220/04 RMK AO2 T02390211
13942KMLU MLU20190908031010609/08/19 03:10:31  5-MIN KMLU 080910Z AUTO 23003KT 9SM CLR 24/21 A2996 40 81 1200 230/03 RMK AO2 T02440211
13942KMLU MLU20190908031510609/08/19 03:15:31  5-MIN KMLU 080915Z AUTO 23003KT 9SM CLR 24/21 A2996 40 81 1200 230/03 RMK AO2 T02440211
13942KMLU MLU20190908032010609/08/19 03:20:31  5-MIN KMLU 080920Z AUTO 22003KT 9SM CLR 24/21 A2996 40 81 1200 220/03 RMK AO2 T02440211
13942KMLU MLU20190908032510609/08/19 03:25:31  5-MIN KMLU 080925Z AUTO 22003KT 9SM CLR 24/21 A2997 40 81 1200 220/03 RMK AO2 T02440211
13942KMLU MLU20190908033010609/08/19 03:30:31  5-MIN KMLU 080930Z AUTO 23003KT 9SM CLR 24/21 A2997 40 81 1200 230/03 RMK AO2 T02440211
13942KMLU MLU20190908033510609/08/19 03:35:31  5-MIN KMLU 080935Z AUTO 22003KT 9SM CLR 24/21 A2997 40 84 1100 220/03 RMK AO2 T02390211
13942KMLU MLU20190908034010609/08/19 03:40:31  5-MIN KMLU 080940Z AUTO 21004KT 9SM CLR 24/21 A2997 40 81 1200 210/04 RMK AO2 T02440211
13942KMLU MLU20190908034510609/08/19 03:45:31  5-MIN KMLU 080945Z AUTO 21004KT 9SM CLR 24/21 A2997 40 81 1200 210/04 RMK AO2 T02440211
13942KMLU MLU20190908035011309/08/19 03:50:31  5-MIN KMLU 080950Z AUTO 20004KT 9SM CLR 24/21 A2997 40 81 1200 200/04 RMK AO2 SLP145 T02440211
13942KMLU MLU20190908035510709/08/19 03:55:31  5-MIN KMLU 080955Z AUTO 20004KT 10SM CLR 25/21 A2997 40 79 1200 200/04 RMK AO2 T02500211
13942KMLU MLU20190908040010709/08/19 04:00:31  5-MIN KMLU 081000Z AUTO 21004KT 10SM CLR 25/21 A2997 30 76 1200 210/04 RMK AO2 T02500206
13942KMLU MLU20190908040510709/08/19 04:05:31  5-MIN KMLU 081005Z AUTO 21004KT 10SM CLR 25/21 A2997 30 76 1200 210/04 RMK AO2 T02500206
13942KMLU MLU20190908041010709/08/19 04:10:31  5-MIN KMLU 081010Z AUTO 21004KT 10SM CLR 25/21 A2998 30 76 1200 210/04 RMK AO2 T02500206
13942KMLU MLU20190908041510709/08/19 04:15:31  5-MIN KMLU 081015Z AUTO 22004KT 10SM CLR 25/21 A2998 30 76 1200 220/04 RMK AO2 T02500206
13942KMLU MLU20190908042010709/08/19 04:20:31  5-MIN KMLU 081020Z AUTO 22004KT 10SM CLR 25/21 A2998 20 76 1200 220/04 RMK AO2 T02500206
13942KMLU MLU20190908042510709/08/19 04:25:31  5-MIN KMLU 081025Z AUTO 21003KT 10SM CLR 25/21 A2998 20 76 1200 210/03 RMK AO2 T02500206
13942KMLU MLU20190908043010709/08/19 04:30:31  5-MIN KMLU 081030Z AUTO 21004KT 10SM CLR 24/21 A2998 20 78 1200 210/04 RMK AO2 T02440206
13942KMLU MLU20190908043510709/08/19 04:35:31  5-MIN KMLU 081035Z AUTO 22003KT 10SM CLR 24/21 A2998 20 78 1200 210/03 RMK AO2 T02440206
13942KMLU MLU20190908044010209/08/19 04:40:31  5-MIN KMLU 081040Z 22003KT 10SM CLR 25/21 A2998 20 76 1200 220/03 RMK AO2 T02500206
13942KMLU MLU20190908044510209/08/19 04:45:31  5-MIN KMLU 081045Z 22003KT 10SM CLR 25/21 A2999 20 76 1200 220/03 RMK AO2 T02500206
13942KMLU MLU20190908045010909/08/19 04:50:31  5-MIN KMLU 081050Z 23003KT 10SM CLR 24/21 A2999 20 78 1200 230/03 RMK AO2 SLP153 T02440206
13942KMLU MLU20190908045510209/08/19 04:55:31  5-MIN KMLU 081055Z 23003KT 10SM CLR 24/21 A2999 20 78 1200 230/03 RMK AO2 T02440206
13942KMLU MLU20190908050010209/08/19 05:00:31  5-MIN KMLU 081100Z 00000KT 10SM CLR 25/21 A2999 20 76 1200 000/00 RMK AO2 T02500206
13942KMLU MLU20190908050510209/08/19 05:05:31  5-MIN KMLU 081105Z 00000KT 10SM CLR 25/21 A2999 10 76 1200 000/00 RMK AO2 T02500206
13942KMLU MLU20190908051010209/08/19 05:10:31  5-MIN KMLU 081110Z 26003KT 10SM CLR 24/21 A3000 10 78 1100 260/03 RMK AO2 T02440206
13942KMLU MLU20190908051510209/08/19 05:15:31  5-MIN KMLU 081115Z 00000KT 10SM CLR 25/21 A3000 10 76 1200 000/00 RMK AO2 T02500206
13942KMLU MLU20190908052010209/08/19 05:20:31  5-MIN KMLU 081120Z 29003KT 10SM CLR 25/21 A3000 10 76 1200 280/03 RMK AO2 T02500206
13942KMLU MLU20190908052510109/08/19 05:25:31  5-MIN KMLU 081125Z 00000KT 10SM CLR 26/21 A3000 0 73 1300 000/00 RMK AO2 T02560206
13942KMLU MLU20190908053010109/08/19 05:30:31  5-MIN KMLU 081130Z 00000KT 10SM CLR 26/21 A3000 0 73 1300 000/00 RMK AO2 T02560206
13942KMLU MLU20190908053510109/08/19 05:35:31  5-MIN KMLU 081135Z 00000KT 10SM CLR 25/21 A3001 0 76 1200 000/00 RMK AO2 T02500206
13942KMLU MLU20190908054010109/08/19 05:40:31  5-MIN KMLU 081140Z 00000KT 10SM CLR 24/21 A3001 0 78 1100 000/00 RMK AO2 T02440206
13942KMLU MLU20190908054510109/08/19 05:45:31  5-MIN KMLU 081145Z 00000KT 10SM CLR 24/21 A3001 0 78 1100 000/00 RMK AO2 T02440206
13942KMLU MLU20190908055012609/08/19 05:50:31  5-MIN KMLU 081150Z 00000KT 10SM CLR 25/21 A3001 0 76 1200 000/00 RMK AO2 SLP160 T02500206 10256 20228 57000
13942KMLU MLU20190908055510109/08/19 05:55:31  5-MIN KMLU 081155Z 00000KT 10SM CLR 24/21 A3001 0 78 1100 000/00 RMK AO2 T02440206
13942KMLU MLU20190908060010009/08/19 06:00:31  5-MIN KMLU 081200Z 00000KT 9SM CLR 25/21 A3001 0 76 1200 000/00 RMK AO2 T02500206
13942KMLU MLU20190908060510009/08/19 06:05:31  5-MIN KMLU 081205Z 00000KT 9SM CLR 25/21 A3001 0 76 1200 000/00 RMK AO2 T02500206
13942KMLU MLU20190908061010009/08/19 06:10:31  5-MIN KMLU 081210Z 00000KT 9SM CLR 25/21 A3001 0 76 1200 000/00 RMK AO2 T02500206
13942KMLU MLU20190908061510009/08/19 06:15:31  5-MIN KMLU 081215Z 00000KT 9SM CLR 25/21 A3001 0 76 1200 000/00 RMK AO2 T02500206
13942KMLU MLU20190908062010009/08/19 06:20:31  5-MIN KMLU 081220Z 00000KT 9SM CLR 25/21 A3001 0 76 1200 000/00 RMK AO2 T02500206
13942KMLU MLU20190908062510009/08/19 06:25:31  5-MIN KMLU 081225Z 30003KT 9SM CLR 26/21 A3002 0 76 1300 290/03 RMK AO2 T02560211
13942KMLU MLU20190908063010009/08/19 06:30:31  5-MIN KMLU 081230Z 29003KT 9SM CLR 26/21 A3002 0 76 1300 290/03 RMK AO2 T02560211
13942KMLU MLU20190908063510109/08/19 06:35:31  5-MIN KMLU 081235Z 29004KT 10SM CLR 26/21 A3002 0 76 1300 280/04 RMK AO2 T02560211
13942KMLU MLU20190908064010109/08/19 06:40:31  5-MIN KMLU 081240Z 28004KT 10SM CLR 26/21 A3002 0 73 1300 280/04 RMK AO2 T02610211
13942KMLU MLU20190908064510109/08/19 06:45:31  5-MIN KMLU 081245Z 29004KT 10SM CLR 26/22 A3002 0 76 1300 290/04 RMK AO2 T02610217
13942KMLU MLU20190908065010809/08/19 06:50:31  5-MIN KMLU 081250Z 28003KT 10SM CLR 27/22 A3002 0 73 1400 280/03 RMK AO2 SLP163 T02670217
13942KMLU MLU20190908065510109/08/19 06:55:31  5-MIN KMLU 081255Z 29004KT 10SM CLR 27/22 A3002 0 73 1400 290/04 RMK AO2 T02670217
13942KMLU MLU20190908070010309/08/19 07:00:31  5-MIN KMLU 081300Z 29004KT 10SM CLR 27/22 A3002 -10 73 1400 290/04 RMK AO2 T02670217
13942KMLU MLU20190908070510309/08/19 07:05:31  5-MIN KMLU 081305Z 28004KT 10SM CLR 27/22 A3002 -10 71 1400 280/04 RMK AO2 T02720217
13942KMLU MLU20190908071010309/08/19 07:10:31  5-MIN KMLU 081310Z 27004KT 10SM CLR 27/22 A3002 -10 71 1400 270/04 RMK AO2 T02720217
13942KMLU MLU20190908071510309/08/19 07:15:31  5-MIN KMLU 081315Z 28004KT 10SM CLR 27/22 A3002 -10 71 1400 280/04 RMK AO2 T02720217
13942KMLU MLU20190908072010309/08/19 07:20:31  5-MIN KMLU 081320Z 27003KT 10SM CLR 28/22 A3002 -10 69 1500 270/03 RMK AO2 T02780217
13942KMLU MLU20190908072510309/08/19 07:25:31  5-MIN KMLU 081325Z 28004KT 10SM CLR 28/22 A3002 -10 69 1500 280/04 RMK AO2 T02780217
13942KMLU MLU20190908073010309/08/19 07:30:31  5-MIN KMLU 081330Z 27003KT 10SM CLR 28/22 A3002 -10 69 1500 270/03 RMK AO2 T02780217
13942KMLU MLU20190908073510309/08/19 07:35:31  5-MIN KMLU 081335Z 28005KT 10SM CLR 28/22 A3002 -10 66 1600 280/05 RMK AO2 T02830217
13942KMLU MLU20190908074010309/08/19 07:40:31  5-MIN KMLU 081340Z 30004KT 10SM CLR 28/22 A3002 -10 66 1600 300/04 RMK AO2 T02830217
13942KMLU MLU20190908074510309/08/19 07:45:31  5-MIN KMLU 081345Z 28006KT 10SM CLR 29/22 A3002 -10 64 1600 280/06 RMK AO2 T02890217
13942KMLU MLU20190908075011009/08/19 07:50:31  5-MIN KMLU 081350Z 29004KT 10SM CLR 29/22 A3002 -10 64 1600 290/04 RMK AO2 SLP165 T02890217
13942KMLU MLU20190908075510309/08/19 07:55:31  5-MIN KMLU 081355Z 29005KT 10SM CLR 29/22 A3002 -10 64 1600 290/05 RMK AO2 T02890217
13942KMLU MLU20190908080010309/08/19 08:00:31  5-MIN KMLU 081400Z 30003KT 10SM CLR 29/22 A3002 -10 62 1700 300/03 RMK AO2 T02940217
13942KMLU MLU20190908080510309/08/19 08:05:31  5-MIN KMLU 081405Z 28008KT 10SM CLR 29/22 A3002 -10 62 1700 280/08 RMK AO2 T02940217
13942KMLU MLU20190908081010309/08/19 08:10:31  5-MIN KMLU 081410Z 30005KT 10SM CLR 29/22 A3002 -10 62 1700 300/05 RMK AO2 T02940217
13942KMLU MLU20190908081510309/08/19 08:15:31  5-MIN KMLU 081415Z 29006KT 10SM CLR 30/22 A3002 -10 60 1700 290/06 RMK AO2 T03000217
13942KMLU MLU20190908082010309/08/19 08:20:31  5-MIN KMLU 081420Z 30005KT 10SM CLR 30/22 A3002 -10 60 1700 290/05 RMK AO2 T03000217
13942KMLU MLU20190908082510309/08/19 08:25:31  5-MIN KMLU 081425Z 28004KT 10SM CLR 30/22 A3002 -10 60 1700 280/04 RMK AO2 T03000217
13942KMLU MLU20190908083010309/08/19 08:30:31  5-MIN KMLU 081430Z 28004KT 10SM CLR 31/22 A3002 -10 60 1800 280/04 RMK AO2 T03060222
13942KMLU MLU20190908083510309/08/19 08:35:31  5-MIN KMLU 081435Z VRB04KT 10SM CLR 31/22 A3003 -10 60 1800 VRB/04 RMK AO2 T03060222
13942KMLU MLU20190908084010309/08/19 08:40:31  5-MIN KMLU 081440Z 31005KT 10SM CLR 31/22 A3003 -10 60 1800 310/05 RMK AO2 T03060222
13942KMLU MLU20190908084510309/08/19 08:45:31  5-MIN KMLU 081445Z 30005KT 10SM CLR 31/22 A3003 -10 58 1900 300/05 RMK AO2 T03110222
13942KMLU MLU20190908085011609/08/19 08:50:31  5-MIN KMLU 081450Z 31005KT 10SM CLR 31/22 A3003 -10 58 1900 300/05 RMK AO2 SLP166 T03110222 53016
13942KMLU MLU20190908085510309/08/19 08:55:31  5-MIN KMLU 081455Z 29006KT 10SM CLR 31/22 A3003 -10 58 1900 290/06 RMK AO2 T03110222
13942KMLU MLU20190908090010309/08/19 09:00:31  5-MIN KMLU 081500Z 30005KT 10SM CLR 32/22 A3003 -10 56 1900 300/05 RMK AO2 T03170222
13942KMLU MLU20190908090510309/08/19 09:05:31  5-MIN KMLU 081505Z 33005KT 10SM CLR 32/22 A3003 -10 56 1900 330/05 RMK AO2 T03170222
13942KMLU MLU20190908091010309/08/19 09:10:31  5-MIN KMLU 081510Z VRB04KT 10SM CLR 32/22 A3003 -10 55 2000 VRB/04 RMK AO2 T03220222
13942KMLU MLU20190908091510309/08/19 09:15:31  5-MIN KMLU 081515Z 33004KT 10SM CLR 32/22 A3003 -10 56 1900 330/04 RMK AO2 T03170222
13942KMLU MLU20190908092010309/08/19 09:20:31  5-MIN KMLU 081520Z 27003KT 10SM CLR 32/22 A3003 -20 55 2000 270/03 RMK AO2 T03220222
13942KMLU MLU20190908092510309/08/19 09:25:31  5-MIN KMLU 081525Z 27004KT 10SM CLR 32/22 A3003 -20 55 2000 270/04 RMK AO2 T03220222
13942KMLU MLU20190908093010309/08/19 09:30:31  5-MIN KMLU 081530Z 35004KT 10SM CLR 32/22 A3003 -20 55 2000 350/04 RMK AO2 T03220222
13942KMLU MLU20190908093510309/08/19 09:35:31  5-MIN KMLU 081535Z 31005KT 10SM CLR 33/22 A3003 -20 53 2000 310/05 RMK AO2 T03280222
13942KMLU MLU20190908094010309/08/19 09:40:31  5-MIN KMLU 081540Z 33004KT 10SM CLR 33/22 A3003 -20 53 2000 330/04 RMK AO2 T03280222
13942KMLU MLU20190908094510309/08/19 09:45:31  5-MIN KMLU 081545Z 34004KT 10SM CLR 33/22 A3003 -20 53 2000 340/04 RMK AO2 T03280222
13942KMLU MLU20190908095011009/08/19 09:50:31  5-MIN KMLU 081550Z VRB04KT 10SM CLR 33/22 A3003 -20 53 2000 VRB/04 RMK AO2 SLP168 T03280222
13942KMLU MLU20190908095510309/08/19 09:55:31  5-MIN KMLU 081555Z 00000KT 10SM CLR 33/22 A3003 -20 53 2000 000/00 RMK AO2 T03280222
13942KMLU MLU20190908100010309/08/19 10:00:31  5-MIN KMLU 081600Z 31004KT 10SM CLR 33/22 A3003 -10 51 2100 310/04 RMK AO2 T03330222
13942KMLU MLU20190908100510309/08/19 10:05:31  5-MIN KMLU 081605Z 00000KT 10SM CLR 33/22 A3003 -10 51 2100 000/00 RMK AO2 T03330222
13942KMLU MLU20190908101010309/08/19 10:10:31  5-MIN KMLU 081610Z 00000KT 10SM CLR 33/22 A3003 -10 51 2100 000/00 RMK AO2 T03330222
13942KMLU MLU20190908101510309/08/19 10:15:31  5-MIN KMLU 081615Z VRB04KT 10SM CLR 34/22 A3003 -10 50 2200 VRB/04 RMK AO2 T03390222
13942KMLU MLU20190908102010309/08/19 10:20:31  5-MIN KMLU 081620Z 00000KT 10SM CLR 33/22 A3003 -10 51 2100 000/00 RMK AO2 T03330222
13942KMLU MLU20190908102510309/08/19 10:25:31  5-MIN KMLU 081625Z 25003KT 10SM CLR 34/23 A3002 -10 51 2200 250/03 RMK AO2 T03390228
13942KMLU MLU20190908103010309/08/19 10:30:31  5-MIN KMLU 081630Z VRB03KT 10SM CLR 34/23 A3002 -10 50 2200 VRB/03 RMK AO2 T03440228
13942KMLU MLU20190908103510309/08/19 10:35:31  5-MIN KMLU 081635Z 00000KT 10SM CLR 34/22 A3002 -10 48 2200 000/00 RMK AO2 T03390217
13942KMLU MLU20190908104010309/08/19 10:40:31  5-MIN KMLU 081640Z 22004KT 10SM CLR 34/22 A3002 -10 50 2200 210/04 RMK AO2 T03390222
13942KMLU MLU20190908104510309/08/19 10:45:31  5-MIN KMLU 081645Z VRB03KT 10SM CLR 34/22 A3002 -10 48 2200 VRB/03 RMK AO2 T03440222
13942KMLU MLU20190908105011009/08/19 10:50:31  5-MIN KMLU 081650Z 00000KT 10SM CLR 34/22 A3002 -10 48 2200 000/00 RMK AO2 SLP165 T03440222
13942KMLU MLU20190908105510309/08/19 10:55:31  5-MIN KMLU 081655Z 25005KT 10SM CLR 35/22 A3002 -10 45 2300 250/05 RMK AO2 T03500217
13942KMLU MLU20190908110010309/08/19 11:00:31  5-MIN KMLU 081700Z 30006KT 10SM CLR 35/22 A3002 -10 45 2300 300/06 RMK AO2 T03500217
13942KMLU MLU20190908110510109/08/19 11:05:31  5-MIN KMLU 081705Z 00000KT 10SM CLR 35/21 A3002 0 43 2300 000/00 RMK AO2 T03500211
13942KMLU MLU20190908111010109/08/19 11:10:31  5-MIN KMLU 081710Z 35003KT 10SM CLR 36/21 A3001 0 41 2400 350/03 RMK AO2 T03610211
13942KMLU MLU20190908111510109/08/19 11:15:31  5-MIN KMLU 081715Z 00000KT 10SM CLR 36/21 A3001 0 42 2400 000/00 RMK AO2 T03560211
13942KMLU MLU20190908112010109/08/19 11:20:31  5-MIN KMLU 081720Z 00000KT 10SM CLR 36/21 A3001 0 42 2400 000/00 RMK AO2 T03560211
13942KMLU MLU20190908112510109/08/19 11:25:31  5-MIN KMLU 081725Z 00000KT 10SM CLR 36/22 A3001 0 44 2400 000/00 RMK AO2 T03560217
13942KMLU MLU20190908113010109/08/19 11:30:31  5-MIN KMLU 081730Z 00000KT 10SM CLR 36/22 A3001 0 42 2400 000/00 RMK AO2 T03610217
13942KMLU MLU20190908113510109/08/19 11:35:31  5-MIN KMLU 081735Z VRB04KT 10SM CLR 36/21 A3001 0 42 2400 VRB/04 RMK AO2 T03560211
13942KMLU MLU20190908114010109/08/19 11:40:31  5-MIN KMLU 081740Z VRB03KT 10SM CLR 36/21 A3001 0 41 2400 VRB/03 RMK AO2 T03610211
13942KMLU MLU20190908114510109/08/19 11:45:31  5-MIN KMLU 081745Z 27005KT 10SM CLR 36/21 A3000 0 39 2400 270/05 RMK AO2 T03610206
13942KMLU MLU20190908115012609/08/19 11:50:31  5-MIN KMLU 081750Z 31004KT 10SM CLR 36/21 A3000 0 41 2400 310/04 RMK AO2 SLP158 T03610211 10361 20244 51007
13942KMLU MLU20190908115510109/08/19 11:55:31  5-MIN KMLU 081755Z 00000KT 10SM CLR 37/21 A3000 0 38 2500 000/00 RMK AO2 T03670206
13942KMLU MLU20190908120009209/08/19 12:00:31  5-MIN KMLU 081800Z 10SM CLR 37/21 A3000 10 40 2500 M /M RMK AO2 T03670211
13942KMLU MLU20190908120510209/08/19 12:05:31  5-MIN KMLU 081805Z VRB05KT 10SM CLR 37/22 A3000 10 41 2500 VRB/05 RMK AO2 T03670217
13942KMLU MLU20190908121010209/08/19 12:10:31  5-MIN KMLU 081810Z VRB03KT 10SM CLR 37/21 A3000 10 40 2500 VRB/03 RMK AO2 T03670211
13942KMLU MLU20190908121510209/08/19 12:15:31  5-MIN KMLU 081815Z 29003KT 10SM CLR 37/21 A3000 10 37 2600 290/03 RMK AO2 T03720206
13942KMLU MLU20190908122010209/08/19 12:20:31  5-MIN KMLU 081820Z 21008KT 10SM CLR 37/21 A3000 10 38 2500 210/08 RMK AO2 T03670206
13942KMLU MLU20190908122510209/08/19 12:25:31  5-MIN KMLU 081825Z 21004KT 10SM CLR 37/20 A3000 10 37 2500 210/04 RMK AO2 T03670200
13942KMLU MLU20190908123010209/08/19 12:30:31  5-MIN KMLU 081830Z VRB03KT 10SM CLR 37/21 A2999 10 37 2600 VRB/03 RMK AO2 T03720206
13942KMLU MLU20190908123510209/08/19 12:35:31  5-MIN KMLU 081835Z 26006KT 10SM CLR 37/21 A2999 20 37 2600 260/06 RMK AO2 T03720206
13942KMLU MLU20190908124010209/08/19 12:40:31  5-MIN KMLU 081840Z VRB03KT 10SM CLR 37/20 A2999 20 37 2500 VRB/03 RMK AO2 T03670200
13942KMLU MLU20190908124510209/08/19 12:45:31  5-MIN KMLU 081845Z 00000KT 10SM CLR 37/20 A2999 20 37 2500 000/00 RMK AO2 T03670200
13942KMLU MLU20190908125010909/08/19 12:50:31  5-MIN KMLU 081850Z 30004KT 10SM CLR 38/21 A2999 20 36 2600 300/04 RMK AO2 SLP152 T03780206
13942KMLU MLU20190908125510209/08/19 12:55:31  5-MIN KMLU 081855Z VRB04KT 10SM CLR 37/21 A2998 20 38 2600 VRB/04 RMK AO2 T03720211
13942KMLU MLU20190908130010209/08/19 13:00:31  5-MIN KMLU 081900Z VRB03KT 10SM CLR 37/21 A2998 20 38 2600 VRB/03 RMK AO2 T03720211
13942KMLU MLU20190908130510209/08/19 13:05:31  5-MIN KMLU 081905Z VRB03KT 10SM CLR 38/21 A2998 30 36 2600 VRB/03 RMK AO2 T03780206
13942KMLU MLU20190908131010209/08/19 13:10:31  5-MIN KMLU 081910Z 30005KT 10SM CLR 37/21 A2998 30 37 2600 300/05 RMK AO2 T03720206
13942KMLU MLU20190908131510209/08/19 13:15:31  5-MIN KMLU 081915Z VRB05KT 10SM CLR 38/21 A2998 30 36 2700 VRB/05 RMK AO2 T03780206
13942KMLU MLU20190908132010209/08/19 13:20:31  5-MIN KMLU 081920Z 24008KT 10SM CLR 38/21 A2998 30 37 2700 240/08 RMK AO2 T03780211
13942KMLU MLU20190908132511809/08/19 13:25:31  5-MIN KMLU 081925Z 22007KT 190V250 10SM CLR 38/21 A2997 30 37 2700 210/07 190V250 RMK AO2 T03780211
13942KMLU MLU20190908133010209/08/19 13:30:31  5-MIN KMLU 081930Z 30006KT 10SM CLR 38/20 A2997 30 35 2700 300/06 RMK AO2 T03780200
13942KMLU MLU20190908133510209/08/19 13:35:31  5-MIN KMLU 081935Z VRB03KT 10SM CLR 38/21 A2997 40 36 2700 VRB/03 RMK AO2 T03780206
13942KMLU MLU20190908134010709/08/19 13:40:31  5-MIN KMLU 081940Z AUTO 25008KT 10SM CLR 37/21 A2997 40 37 2600 240/08 RMK AO2 T03720206
13942KMLU MLU20190908134511009/08/19 13:45:31  5-MIN KMLU 081945Z AUTO 29005KT 10SM FEW070 36/20 A2997 40 38 2500 280/05 RMK AO2 T03610200
13942KMLU MLU20190908135011709/08/19 13:50:31  5-MIN KMLU 081950Z AUTO 00000KT 10SM SCT070 36/19 A2997 40 37 2500 000/00 RMK AO2 SLP145 T03610194
13942KMLU MLU20190908135510509/08/19 13:55:31  5-MIN KMLU 081955Z 00000KT 10SM SCT075 37/20 A2996 40 37 2500 000/00 RMK AO2 T03670200
13942KMLU MLU20190908140010509/08/19 14:00:31  5-MIN KMLU 082000Z 00000KT 10SM BKN075 37/19 A2996 40 34 2600 000/00 RMK AO2 T03720194
13942KMLU MLU20190908140510509/08/19 14:05:31  5-MIN KMLU 082005Z 07007KT 10SM BKN070 38/21 A2996 40 35 2700 070/07 RMK AO2 T03830206
13942KMLU MLU20190908141010509/08/19 14:10:31  5-MIN KMLU 082010Z 08004KT 10SM BKN070 38/21 A2996 50 35 2700 080/04 RMK AO2 T03830206
13942KMLU MLU20190908141510509/08/19 14:15:31  5-MIN KMLU 082015Z VRB03KT 10SM SCT075 37/20 A2996 50 36 2600 VRB/03 RMK AO2 T03720200
13942KMLU MLU20190908142010509/08/19 14:20:31  5-MIN KMLU 082020Z 00000KT 10SM SCT070 37/19 A2996 50 33 2600 000/00 RMK AO2 T03720189
13942KMLU MLU20190908142510509/08/19 14:25:31  5-MIN KMLU 082025Z 23005KT 10SM SCT070 38/20 A2996 50 35 2700 230/05 RMK AO2 T03780200
13942KMLU MLU20190908143010509/08/19 14:30:31  5-MIN KMLU 082030Z VRB03KT 10SM SCT075 38/19 A2995 50 33 2700 VRB/03 RMK AO2 T03780194
13942KMLU MLU20190908143510509/08/19 14:35:31  5-MIN KMLU 082035Z 18007KT 10SM SCT075 38/20 A2995 50 35 2700 180/07 RMK AO2 T03780200
13942KMLU MLU20190908144010509/08/19 14:40:31  5-MIN KMLU 082040Z 19006KT 10SM SCT075 38/20 A2995 50 35 2700 190/06 RMK AO2 T03780200
13942KMLU MLU20190908144510509/08/19 14:45:31  5-MIN KMLU 082045Z 14004KT 10SM SCT075 38/20 A2995 60 35 2700 140/04 RMK AO2 T03780200
13942KMLU MLU20190908145011809/08/19 14:50:31  5-MIN KMLU 082050Z VRB04KT 10SM FEW075 38/19 A2995 60 33 2700 VRB/04 RMK AO2 SLP139 T03780194 58008
13942KMLU MLU20190908145510509/08/19 14:55:31  5-MIN KMLU 082055Z 20003KT 10SM FEW075 38/20 A2995 60 35 2700 190/03 RMK AO2 T03780200
13942KMLU MLU20190908150010509/08/19 15:00:31  5-MIN KMLU 082100Z VRB04KT 10SM FEW075 38/20 A2995 60 35 2700 VRB/04 RMK AO2 T03780200
13942KMLU MLU20190908150510209/08/19 15:05:31  5-MIN KMLU 082105Z VRB04KT 10SM CLR 37/19 A2995 60 33 2600 VRB/04 RMK AO2 T03720189
13942KMLU MLU20190908151010209/08/19 15:10:31  5-MIN KMLU 082110Z VRB04KT 10SM CLR 37/19 A2995 60 34 2600 VRB/04 RMK AO2 T03670189
13942KMLU MLU20190908151510209/08/19 15:15:31  5-MIN KMLU 082115Z 16005KT 10SM CLR 37/19 A2994 60 34 2600 160/05 RMK AO2 T03720194
13942KMLU MLU20190908152010209/08/19 15:20:31  5-MIN KMLU 082120Z VRB05KT 10SM CLR 37/19 A2995 60 33 2600 VRB/05 RMK AO2 T03720189
13942KMLU MLU20190908152510209/08/19 15:25:31  5-MIN KMLU 082125Z VRB03KT 10SM CLR 37/18 A2994 60 32 2600 VRB/03 RMK AO2 T03720183
13942KMLU MLU20190908153010209/08/19 15:30:31  5-MIN KMLU 082130Z 14004KT 10SM CLR 37/18 A2994 60 33 2600 130/04 RMK AO2 T03670183
13942KMLU MLU20190908153510209/08/19 15:35:31  5-MIN KMLU 082135Z 00000KT 10SM CLR 37/18 A2994 60 32 2600 000/00 RMK AO2 T03720183
13942KMLU MLU20190908154010209/08/19 15:40:31  5-MIN KMLU 082140Z VRB03KT 10SM CLR 38/18 A2994 60 29 2700 VRB/03 RMK AO2 T03830178
13942KMLU MLU20190908154510209/08/19 15:45:31  5-MIN KMLU 082145Z 00000KT 10SM CLR 38/18 A2994 60 30 2700 000/00 RMK AO2 T03830183
13942KMLU MLU20190908155010909/08/19 15:50:31  5-MIN KMLU 082150Z 14005KT 10SM CLR 38/18 A2994 60 31 2700 140/05 RMK AO2 SLP137 T03780183
13942KMLU MLU20190908155510209/08/19 15:55:31  5-MIN KMLU 082155Z 08005KT 10SM CLR 38/18 A2994 60 31 2700 080/05 RMK AO2 T03780183
13942KMLU MLU20190908160010209/08/19 16:00:31  5-MIN KMLU 082200Z VRB03KT 10SM CLR 38/18 A2994 60 31 2700 VRB/03 RMK AO2 T03780183
13942KMLU MLU20190908160510209/08/19 16:05:31  5-MIN KMLU 082205Z 15004KT 10SM CLR 37/19 A2994 60 33 2600 150/04 RMK AO2 T03720189
13942KMLU MLU20190908161010209/08/19 16:10:31  5-MIN KMLU 082210Z 00000KT 10SM CLR 38/18 A2994 60 30 2700 000/00 RMK AO2 T03780178
13942KMLU MLU20190908161510209/08/19 16:15:31  5-MIN KMLU 082215Z 00000KT 10SM CLR 38/18 A2994 60 29 2800 000/00 RMK AO2 T03830178
13942KMLU MLU20190908162010209/08/19 16:20:31  5-MIN KMLU 082220Z 00000KT 10SM CLR 38/18 A2994 60 29 2800 000/00 RMK AO2 T03830178
13942KMLU MLU20190908162510209/08/19 16:25:31  5-MIN KMLU 082225Z 00000KT 10SM CLR 38/18 A2994 70 30 2800 000/00 RMK AO2 T03830183
13942KMLU MLU20190908163011309/08/19 16:30:31  5-MIN KMLU 082230Z 00000KT 10SM CLR 38/18 A2994 70 31 2700 000/00 RMK AO2 LTG DSNT E T03780183
13942KMLU MLU20190908163511309/08/19 16:35:31  5-MIN KMLU 082235Z 00000KT 10SM CLR 38/18 A2994 70 31 2700 000/00 RMK AO2 LTG DSNT E T03780183
13942KMLU MLU20190908164011309/08/19 16:40:31  5-MIN KMLU 082240Z 00000KT 10SM CLR 38/18 A2994 70 31 2700 000/00 RMK AO2 LTG DSNT E T03780183
13942KMLU MLU20190908164510209/08/19 16:45:31  5-MIN KMLU 082245Z 00000KT 10SM CLR 37/17 A2994 70 30 2600 000/00 RMK AO2 T03720172
13942KMLU MLU20190908165010909/08/19 16:50:31  5-MIN KMLU 082250Z 00000KT 10SM CLR 37/17 A2993 70 30 2600 000/00 RMK AO2 SLP135 T03720172
13942KMLU MLU20190908165511309/08/19 16:55:31  5-MIN KMLU 082255Z 00000KT 10SM CLR 38/17 A2993 70 29 2700 000/00 RMK AO2 LTG DSNT E T03780172
13942KMLU MLU20190908170011309/08/19 17:00:31  5-MIN KMLU 082300Z 00000KT 10SM CLR 37/18 A2993 70 32 2600 000/00 RMK AO2 LTG DSNT E T03720183
13942KMLU MLU20190908170511309/08/19 17:05:31  5-MIN KMLU 082305Z 00000KT 10SM CLR 38/18 A2993 70 30 2700 000/00 RMK AO2 LTG DSNT E T03780178
13942KMLU MLU20190908171011309/08/19 17:10:31  5-MIN KMLU 082310Z 00000KT 10SM CLR 37/18 A2994 70 32 2600 000/00 RMK AO2 LTG DSNT E T03720183
13942KMLU MLU20190908171511309/08/19 17:15:31  5-MIN KMLU 082315Z 00000KT 10SM CLR 37/19 A2994 70 36 2600 000/00 RMK AO2 LTG DSNT E T03670194
13942KMLU MLU20190908172011309/08/19 17:20:31  5-MIN KMLU 082320Z 00000KT 10SM CLR 36/21 A2994 70 39 2500 000/00 RMK AO2 LTG DSNT E T03610206
13942KMLU MLU20190908172510209/08/19 17:25:31  5-MIN KMLU 082325Z 00000KT 10SM CLR 36/22 A2994 70 44 2500 000/00 RMK AO2 T03560217
13942KMLU MLU20190908173010209/08/19 17:30:31  5-MIN KMLU 082330Z 00000KT 10SM CLR 35/23 A2994 60 48 2400 000/00 RMK AO2 T03500228
13942KMLU MLU20190908173510209/08/19 17:35:31  5-MIN KMLU 082335Z 00000KT 10SM CLR 34/23 A2994 60 50 2300 000/00 RMK AO2 T03440228
13942KMLU MLU20190908174010209/08/19 17:40:31  5-MIN KMLU 082340Z 10008KT 10SM CLR 34/22 A2994 60 50 2300 090/08 RMK AO2 T03390222
13942KMLU MLU20190908174510209/08/19 17:45:31  5-MIN KMLU 082345Z 09008KT 10SM CLR 34/19 A2994 60 40 2300 090/08 RMK AO2 T03440194
13942KMLU MLU20190908175012709/08/19 17:50:31  5-MIN KMLU 082350Z 10004KT 10SM CLR 34/19 A2994 60 40 2300 100/04 RMK AO2 SLP138 T03440194 10383 20339 56019
13942KMLU MLU20190908175510209/08/19 17:55:31  5-MIN KMLU 082355Z 10005KT 10SM CLR 34/19 A2994 60 42 2300 100/05 RMK AO2 T03390194
13942KMLU MLU20190908180010209/08/19 18:00:31  5-MIN KMLU 090000Z 12004KT 10SM CLR 33/19 A2994 60 42 2200 110/04 RMK AO2 T03330189
13942KMLU MLU20190908180510209/08/19 18:05:31  5-MIN KMLU 090005Z 10005KT 10SM CLR 33/18 A2994 60 39 2200 100/05 RMK AO2 T03330178
13942KMLU MLU20190908181010209/08/19 18:10:31  5-MIN KMLU 090010Z VRB04KT 10SM CLR 33/17 A2994 60 37 2200 VRB/04 RMK AO2 T03330172
13942KMLU MLU20190908181510209/08/19 18:15:31  5-MIN KMLU 090015Z 11004KT 10SM CLR 33/17 A2994 60 37 2200 110/04 RMK AO2 T03330172
13942KMLU MLU20190908182010209/08/19 18:20:31  5-MIN KMLU 090020Z 11003KT 10SM CLR 32/18 A2994 60 41 2100 110/03 RMK AO2 T03220178
13942KMLU MLU20190908182510209/08/19 18:25:31  5-MIN KMLU 090025Z 10004KT 10SM CLR 32/18 A2994 60 41 2100 100/04 RMK AO2 T03220178
13942KMLU MLU20190908183010209/08/19 18:30:31  5-MIN KMLU 090030Z 12003KT 10SM CLR 32/17 A2994 60 40 2100 120/03 RMK AO2 T03220172
13942KMLU MLU20190908183510209/08/19 18:35:31  5-MIN KMLU 090035Z 18004KT 10SM CLR 32/17 A2994 60 41 2000 180/04 RMK AO2 T03170172
13942KMLU MLU20190908184010209/08/19 18:40:31  5-MIN KMLU 090040Z 17004KT 10SM CLR 31/18 A2995 60 46 1900 170/04 RMK AO2 T03060178
13942KMLU MLU20190908184510209/08/19 18:45:31  5-MIN KMLU 090045Z 16004KT 10SM CLR 31/18 A2995 60 44 2000 160/04 RMK AO2 T03110178
13942KMLU MLU20190908185010909/08/19 18:50:31  5-MIN KMLU 090050Z 17003KT 10SM CLR 31/18 A2995 60 46 1900 170/03 RMK AO2 SLP139 T03060178
13942KMLU MLU20190908185510209/08/19 18:55:31  5-MIN KMLU 090055Z 16003KT 10SM CLR 31/18 A2995 50 46 1900 160/03 RMK AO2 T03060178
13942KMLU MLU20190908190010209/08/19 19:00:31  5-MIN KMLU 090100Z 16003KT 10SM CLR 30/18 A2995 50 49 1800 160/03 RMK AO2 T03000183
13942KMLU MLU20190908190510209/08/19 19:05:31  5-MIN KMLU 090105Z 16003KT 10SM CLR 29/19 A2995 50 52 1800 160/03 RMK AO2 T02940189
13942KMLU MLU20190908191010209/08/19 19:10:31  5-MIN KMLU 090110Z 00000KT 10SM CLR 29/19 A2995 50 54 1800 000/00 RMK AO2 T02940194
13942KMLU MLU20190908191510209/08/19 19:15:31  5-MIN KMLU 090115Z 00000KT 10SM CLR 29/20 A2995 50 56 1800 000/00 RMK AO2 T02940200
13942KMLU MLU20190908192010209/08/19 19:20:31  5-MIN KMLU 090120Z 00000KT 10SM CLR 28/21 A2995 50 62 1600 000/00 RMK AO2 T02830206
13942KMLU MLU20190908192510209/08/19 19:25:31  5-MIN KMLU 090125Z 16003KT 10SM CLR 28/20 A2996 50 60 1600 160/03 RMK AO2 T02830200
13942KMLU MLU20190908193010209/08/19 19:30:31  5-MIN KMLU 090130Z 17004KT 10SM CLR 28/20 A2996 40 60 1600 170/04 RMK AO2 T02830200
13942KMLU MLU20190908193510209/08/19 19:35:31  5-MIN KMLU 090135Z 17003KT 10SM CLR 29/19 A2996 40 56 1700 170/03 RMK AO2 T02890194
13942KMLU MLU20190908194010209/08/19 19:40:31  5-MIN KMLU 090140Z 17003KT 10SM CLR 28/20 A2996 40 60 1600 170/03 RMK AO2 T02830200
13942KMLU MLU20190908194510209/08/19 19:45:31  5-MIN KMLU 090145Z 16004KT 10SM CLR 28/20 A2997 40 60 1600 160/04 RMK AO2 T02830200
13942KMLU MLU20190908195010909/08/19 19:50:31  5-MIN KMLU 090150Z 16004KT 10SM CLR 28/20 A2997 40 60 1600 160/04 RMK AO2 SLP147 T02830200
13942KMLU MLU20190908195510209/08/19 19:55:31  5-MIN KMLU 090155Z 16004KT 10SM CLR 28/21 A2997 30 62 1600 160/04 RMK AO2 T02830206
13942KMLU MLU20190908200010209/08/19 20:00:31  5-MIN KMLU 090200Z 16003KT 10SM CLR 28/21 A2997 30 62 1600 160/03 RMK AO2 T02830206
13942KMLU MLU20190908200510209/08/19 20:05:31  5-MIN KMLU 090205Z 16004KT 10SM CLR 28/21 A2998 30 62 1600 160/04 RMK AO2 T02830206
13942KMLU MLU20190908201010209/08/19 20:10:31  5-MIN KMLU 090210Z 16003KT 10SM CLR 28/21 A2998 30 62 1600 160/03 RMK AO2 T02830206
13942KMLU MLU20190908201510209/08/19 20:15:31  5-MIN KMLU 090215Z 17004KT 10SM CLR 28/21 A2998 30 62 1600 170/04 RMK AO2 T02830206
13942KMLU MLU20190908202010209/08/19 20:20:31  5-MIN KMLU 090220Z 17003KT 10SM CLR 29/21 A2998 20 60 1700 170/03 RMK AO2 T02890206
13942KMLU MLU20190908202510209/08/19 20:25:31  5-MIN KMLU 090225Z 17004KT 10SM CLR 29/20 A2998 20 56 1700 170/04 RMK AO2 T02940200
13942KMLU MLU20190908203010209/08/19 20:30:31  5-MIN KMLU 090230Z 17003KT 10SM CLR 29/21 A2999 20 60 1700 170/03 RMK AO2 T02890206
13942KMLU MLU20190908203510209/08/19 20:35:31  5-MIN KMLU 090235Z 17004KT 10SM CLR 29/20 A2999 20 56 1700 170/04 RMK AO2 T02940200
13942KMLU MLU20190908204010209/08/19 20:40:31  5-MIN KMLU 090240Z 17004KT 10SM CLR 29/20 A2999 20 56 1700 170/04 RMK AO2 T02940200
13942KMLU MLU20190908204510209/08/19 20:45:31  5-MIN KMLU 090245Z 16004KT 10SM CLR 29/20 A2999 20 56 1700 160/04 RMK AO2 T02940200
13942KMLU MLU20190908205011509/08/19 20:50:31  5-MIN KMLU 090250Z 15003KT 10SM CLR 29/21 A2999 20 60 1700 150/03 RMK AO2 SLP154 T02890206 55002
13942KMLU MLU20190908205510709/08/19 20:55:31  5-MIN KMLU 090255Z AUTO 16003KT 10SM CLR 28/21 A2999 20 62 1600 160/03 RMK AO2 T02830206
13942KMLU MLU20190908210010709/08/19 21:00:31  5-MIN KMLU 090300Z AUTO 00000KT 10SM CLR 28/21 A2999 10 62 1600 000/00 RMK AO2 T02830206
13942KMLU MLU20190908210510709/08/19 21:05:31  5-MIN KMLU 090305Z AUTO 00000KT 10SM CLR 28/21 A2999 10 64 1600 000/00 RMK AO2 T02830211
13942KMLU MLU20190908211010709/08/19 21:10:31  5-MIN KMLU 090310Z AUTO 00000KT 10SM CLR 28/21 A3000 10 66 1500 000/00 RMK AO2 T02780211
13942KMLU MLU20190908211510709/08/19 21:15:31  5-MIN KMLU 090315Z AUTO 00000KT 10SM CLR 28/21 A3000 10 66 1500 000/00 RMK AO2 T02780211
13942KMLU MLU20190908212010709/08/19 21:20:31  5-MIN KMLU 090320Z AUTO 00000KT 10SM CLR 28/21 A3000 10 66 1500 000/00 RMK AO2 T02780211
13942KMLU MLU20190908212510709/08/19 21:25:31  5-MIN KMLU 090325Z AUTO 00000KT 10SM CLR 27/21 A3000 10 69 1500 000/00 RMK AO2 T02720211
13942KMLU MLU20190908213010709/08/19 21:30:31  5-MIN KMLU 090330Z AUTO 17003KT 10SM CLR 27/21 A3000 10 69 1500 170/03 RMK AO2 T02720211
13942KMLU MLU20190908213510709/08/19 21:35:31  5-MIN KMLU 090335Z AUTO 17003KT 10SM CLR 28/21 A3000 10 66 1500 160/03 RMK AO2 T02780211
13942KMLU MLU20190908214010709/08/19 21:40:31  5-MIN KMLU 090340Z AUTO 17004KT 10SM CLR 28/21 A3000 10 66 1500 170/04 RMK AO2 T02780211
13942KMLU MLU20190908214510709/08/19 21:45:31  5-MIN KMLU 090345Z AUTO 17004KT 10SM CLR 28/21 A3000 10 64 1600 170/04 RMK AO2 T02830211
13942KMLU MLU20190908215011409/08/19 21:50:31  5-MIN KMLU 090350Z AUTO 17005KT 10SM CLR 28/21 A3000 10 62 1600 170/05 RMK AO2 SLP156 T02830206
13942KMLU MLU20190908215510709/08/19 21:55:31  5-MIN KMLU 090355Z AUTO 17004KT 10SM CLR 28/21 A3000 10 62 1600 170/04 RMK AO2 T02830206
13942KMLU MLU20190908220010709/08/19 22:00:31  5-MIN KMLU 090400Z AUTO 17004KT 10SM CLR 28/21 A3000 10 64 1600 170/04 RMK AO2 T02830211
13942KMLU MLU20190908220510709/08/19 22:05:31  5-MIN KMLU 090405Z AUTO 17004KT 10SM CLR 28/21 A3000 10 64 1600 170/04 RMK AO2 T02830211
13942KMLU MLU20190908221010709/08/19 22:10:31  5-MIN KMLU 090410Z AUTO 17004KT 10SM CLR 28/21 A3000 10 66 1500 170/04 RMK AO2 T02780211
13942KMLU MLU20190908221510709/08/19 22:15:31  5-MIN KMLU 090415Z AUTO 18003KT 10SM CLR 28/21 A3000 10 66 1500 180/03 RMK AO2 T02780211
13942KMLU MLU20190908222010709/08/19 22:20:31  5-MIN KMLU 090420Z AUTO 18003KT 10SM CLR 28/21 A3000 10 66 1500 170/03 RMK AO2 T02780211
13942KMLU MLU20190908222510709/08/19 22:25:31  5-MIN KMLU 090425Z AUTO 18003KT 10SM CLR 27/21 A3000 10 69 1500 180/03 RMK AO2 T02720211
13942KMLU MLU20190908223010709/08/19 22:30:31  5-MIN KMLU 090430Z AUTO 16003KT 10SM CLR 27/21 A3000 10 69 1500 160/03 RMK AO2 T02720211
13942KMLU MLU20190908223510709/08/19 22:35:31  5-MIN KMLU 090435Z AUTO 00000KT 10SM CLR 27/21 A3000 10 69 1500 000/00 RMK AO2 T02720211
13942KMLU MLU20190908224010709/08/19 22:40:31  5-MIN KMLU 090440Z AUTO 00000KT 10SM CLR 27/22 A3000 10 73 1400 000/00 RMK AO2 T02670217
13942KMLU MLU20190908224510709/08/19 22:45:31  5-MIN KMLU 090445Z AUTO 00000KT 10SM CLR 27/22 A3000 10 73 1400 000/00 RMK AO2 T02670217
13942KMLU MLU20190908225011409/08/19 22:50:31  5-MIN KMLU 090450Z AUTO 00000KT 10SM CLR 27/22 A3000 10 73 1400 000/00 RMK AO2 SLP156 T02670217
13942KMLU MLU20190908225510709/08/19 22:55:31  5-MIN KMLU 090455Z AUTO 00000KT 10SM CLR 27/21 A3000 10 71 1400 000/00 RMK AO2 T02670211
13942KMLU MLU20190908230010709/08/19 23:00:31  5-MIN KMLU 090500Z AUTO 00000KT 10SM CLR 26/21 A3000 10 73 1300 000/00 RMK AO2 T02610211
13942KMLU MLU20190908230510709/08/19 23:05:31  5-MIN KMLU 090505Z AUTO 00000KT 10SM CLR 26/21 A3000 10 73 1300 000/00 RMK AO2 T02610211
13942KMLU MLU20190908231010709/08/19 23:10:31  5-MIN KMLU 090510Z AUTO 00000KT 10SM CLR 26/21 A3000 10 73 1300 000/00 RMK AO2 T02610211
13942KMLU MLU20190908231510709/08/19 23:15:31  5-MIN KMLU 090515Z AUTO 19003KT 10SM CLR 26/21 A3000 10 73 1300 190/03 RMK AO2 T02610211
13942KMLU MLU20190908232010709/08/19 23:20:31  5-MIN KMLU 090520Z AUTO 00000KT 10SM CLR 26/21 A2999 10 73 1300 000/00 RMK AO2 T02610211
13942KMLU MLU20190908232510709/08/19 23:25:31  5-MIN KMLU 090525Z AUTO 00000KT 10SM CLR 26/21 A3000 10 73 1300 000/00 RMK AO2 T02610211
13942KMLU MLU20190908233010709/08/19 23:30:31  5-MIN KMLU 090530Z AUTO 00000KT 10SM CLR 26/22 A3000 10 76 1300 000/00 RMK AO2 T02610217
13942KMLU MLU20190908233510709/08/19 23:35:31  5-MIN KMLU 090535Z AUTO 00000KT 10SM CLR 26/22 A3000 10 79 1300 000/00 RMK AO2 T02560217
13942KMLU MLU20190908234010709/08/19 23:40:31  5-MIN KMLU 090540Z AUTO 00000KT 10SM CLR 25/22 A3000 10 81 1200 000/00 RMK AO2 T02500217
13942KMLU MLU20190908234510709/08/19 23:45:31  5-MIN KMLU 090545Z AUTO 00000KT 10SM CLR 25/22 A3000 10 81 1200 000/00 RMK AO2 T02500217
13942KMLU MLU20190908235014209/08/19 23:50:31  5-MIN KMLU 090550Z AUTO 00000KT 10SM CLR 25/22 A3000 10 81 1200 000/00 RMK AO2 SLP158 T02500217 10339 20250 403830228 53017
13942KMLU MLU20190908235510609/08/19 23:55:31  5-MIN KMLU 090555Z AUTO 00000KT 10SM CLR 25/22 A3000 0 84 1200 000/00 RMK AO2 T02500222
13942KMLU MLU20190909000010609/09/19 00:00:31  5-MIN KMLU 090600Z AUTO 00000KT 10SM CLR 25/22 A3000 0 81 1200 000/00 RMK AO2 T02500217
13942KMLU MLU20190909000510609/09/19 00:05:31  5-MIN KMLU 090605Z AUTO 00000KT 10SM CLR 25/22 A3001 0 81 1200 000/00 RMK AO2 T02500217
13942KMLU MLU20190909001010609/09/19 00:10:31  5-MIN KMLU 090610Z AUTO 00000KT 10SM CLR 25/22 A3001 0 81 1200 000/00 RMK AO2 T02500217
13942KMLU MLU20190909001510609/09/19 00:15:31  5-MIN KMLU 090615Z AUTO 00000KT 10SM CLR 25/22 A3001 0 81 1200 000/00 RMK AO2 T02500217
13942KMLU MLU20190909002010609/09/19 00:20:31  5-MIN KMLU 090620Z AUTO 00000KT 10SM CLR 24/22 A3001 0 84 1100 000/00 RMK AO2 T02440217
13942KMLU MLU20190909002510609/09/19 00:25:31  5-MIN KMLU 090625Z AUTO 00000KT 10SM CLR 25/22 A3001 0 81 1200 000/00 RMK AO2 T02500217
13942KMLU MLU20190909003010609/09/19 00:30:31  5-MIN KMLU 090630Z AUTO 00000KT 10SM CLR 24/22 A3001 0 84 1100 000/00 RMK AO2 T02440217
13942KMLU MLU20190909003510609/09/19 00:35:31  5-MIN KMLU 090635Z AUTO 00000KT 10SM CLR 24/22 A3001 0 84 1100 000/00 RMK AO2 T02440217
13942KMLU MLU20190909004010609/09/19 00:40:31  5-MIN KMLU 090640Z AUTO 17003KT 10SM CLR 24/22 A3001 0 84 1100 170/03 RMK AO2 T02440217
13942KMLU MLU20190909004510609/09/19 00:45:31  5-MIN KMLU 090645Z AUTO 16003KT 10SM CLR 25/22 A3001 0 81 1200 160/03 RMK AO2 T02500217
13942KMLU MLU20190909005011309/09/19 00:50:31  5-MIN KMLU 090650Z AUTO 00000KT 10SM CLR 24/22 A3001 0 84 1100 000/00 RMK AO2 SLP161 T02440217
13942KMLU MLU20190909005510609/09/19 00:55:31  5-MIN KMLU 090655Z AUTO 00000KT 10SM CLR 24/22 A3001 0 84 1100 000/00 RMK AO2 T02440217
13942KMLU MLU20190909010010609/09/19 01:00:31  5-MIN KMLU 090700Z AUTO 00000KT 10SM CLR 24/22 A3001 0 84 1100 000/00 RMK AO2 T02440217
13942KMLU MLU20190909010510609/09/19 01:05:31  5-MIN KMLU 090705Z AUTO 00000KT 10SM CLR 24/21 A3001 0 84 1100 000/00 RMK AO2 T02390211
13942KMLU MLU20190909011010609/09/19 01:10:31  5-MIN KMLU 090710Z AUTO 00000KT 10SM CLR 24/21 A3001 0 84 1100 000/00 RMK AO2 T02390211
13942KMLU MLU20190909011510609/09/19 01:15:31  5-MIN KMLU 090715Z AUTO 00000KT 10SM CLR 24/21 A3001 0 84 1100 000/00 RMK AO2 T02390211
13942KMLU MLU20190909012010609/09/19 01:20:31  5-MIN KMLU 090720Z AUTO 00000KT 10SM CLR 23/21 A3001 0 87 1000 000/00 RMK AO2 T02330211
13942KMLU MLU20190909012510609/09/19 01:25:31  5-MIN KMLU 090725Z AUTO 00000KT 10SM CLR 23/21 A3001 0 87 1000 000/00 RMK AO2 T02330211
13942KMLU MLU20190909013010609/09/19 01:30:31  5-MIN KMLU 090730Z AUTO 00000KT 10SM CLR 23/21 A3002 0 87 1000 000/00 RMK AO2 T02330211
13942KMLU MLU20190909013510609/09/19 01:35:31  5-MIN KMLU 090735Z AUTO 00000KT 10SM CLR 24/21 A3001 0 84 1100 000/00 RMK AO2 T02390211
13942KMLU MLU20190909014010609/09/19 01:40:31  5-MIN KMLU 090740Z AUTO 00000KT 10SM CLR 23/21 A3001 0 87 1000 000/00 RMK AO2 T02330211
13942KMLU MLU20190909014510609/09/19 01:45:31  5-MIN KMLU 090745Z AUTO 18003KT 10SM CLR 23/21 A3001 0 87 1000 180/03 RMK AO2 T02330211
13942KMLU MLU20190909015011309/09/19 01:50:31  5-MIN KMLU 090750Z AUTO 18003KT 10SM CLR 23/21 A3001 0 87 1000 170/03 RMK AO2 SLP161 T02330211
13942KMLU MLU20190909015510609/09/19 01:55:31  5-MIN KMLU 090755Z AUTO 18003KT 10SM CLR 24/22 A3001 0 87 1100 170/03 RMK AO2 T02390217
13942KMLU MLU20190909020010609/09/19 02:00:31  5-MIN KMLU 090800Z AUTO 17003KT 10SM CLR 24/22 A3001 0 87 1100 170/03 RMK AO2 T02390217
13942KMLU MLU20190909020510609/09/19 02:05:31  5-MIN KMLU 090805Z AUTO 16003KT 10SM CLR 24/21 A3001 0 81 1100 160/03 RMK AO2 T02440211
13942KMLU MLU20190909021010609/09/19 02:10:31  5-MIN KMLU 090810Z AUTO 00000KT 10SM CLR 24/22 A3002 0 87 1100 000/00 RMK AO2 T02390217
13942KMLU MLU20190909021510509/09/19 02:15:31  5-MIN KMLU 090815Z AUTO 03003KT 9SM CLR 23/21 A3002 0 87 1000 030/03 RMK AO2 T02330211
13942KMLU MLU20190909022010409/09/19 02:20:31  5-MIN KMLU 090820Z AUTO 03003KT 8SM CLR 23/21 A3002 0 90 900 030/03 RMK AO2 T02280211
13942KMLU MLU20190909022510609/09/19 02:25:31  5-MIN KMLU 090825Z AUTO 05003KT 8SM CLR 23/21 A3002 -10 90 900 050/03 RMK AO2 T02280211
13942KMLU MLU20190909023010609/09/19 02:30:31  5-MIN KMLU 090830Z AUTO 06003KT 8SM CLR 23/21 A3002 -10 90 900 050/03 RMK AO2 T02280211
13942KMLU MLU20190909023510609/09/19 02:35:31  5-MIN KMLU 090835Z AUTO 00000KT 9SM CLR 23/21 A3002 -10 90 900 000/00 RMK AO2 T02280211
13942KMLU MLU20190909024010609/09/19 02:40:31  5-MIN KMLU 090840Z AUTO 00000KT 9SM CLR 23/21 A3002 -10 90 900 000/00 RMK AO2 T02280211
13942KMLU MLU20190909024510709/09/19 02:45:31  5-MIN KMLU 090845Z AUTO 00000KT 10SM CLR 23/21 A3002 -10 90 900 000/00 RMK AO2 T02280211
13942KMLU MLU20190909025012109/09/19 02:50:31  5-MIN KMLU 090850Z AUTO 00000KT 10SM CLR 23/21 A3002 -10 87 1000 000/00 RMK AO2 SLP165 T02330211 51004
13942KMLU MLU20190909025510809/09/19 02:55:31  5-MIN KMLU 090855Z AUTO 00000KT 10SM CLR 23/21 A3002 -10 87 1000 000/00 RMK AO2 T02330211
13942KMLU MLU20190909030010809/09/19 03:00:31  5-MIN KMLU 090900Z AUTO 00000KT 10SM CLR 23/21 A3002 -10 87 1000 000/00 RMK AO2 T02330211
13942KMLU MLU20190909030510709/09/19 03:05:31  5-MIN KMLU 090905Z AUTO 00000KT 10SM CLR 23/21 A3002 -10 90 900 000/00 RMK AO2 T02280211
13942KMLU MLU20190909031010809/09/19 03:10:31  5-MIN KMLU 090910Z AUTO 00000KT 10SM CLR 23/21 A3002 -10 87 1000 000/00 RMK AO2 T02330211
13942KMLU MLU20190909031510709/09/19 03:15:31  5-MIN KMLU 090915Z AUTO 00000KT 10SM CLR 23/21 A3002 -10 90 900 000/00 RMK AO2 T02280211
13942KMLU MLU20190909032010609/09/19 03:20:31  5-MIN KMLU 090920Z AUTO 00000KT 9SM CLR 23/21 A3003 -10 90 900 000/00 RMK AO2 T02280211
13942KMLU MLU20190909032510609/09/19 03:25:31  5-MIN KMLU 090925Z AUTO 00000KT 9SM CLR 23/21 A3003 -20 90 900 000/00 RMK AO2 T02280211
13942KMLU MLU20190909033010609/09/19 03:30:31  5-MIN KMLU 090930Z AUTO 00000KT 9SM CLR 23/21 A3003 -20 90 900 000/00 RMK AO2 T02280211
13942KMLU MLU20190909033510609/09/19 03:35:31  5-MIN KMLU 090935Z AUTO 00000KT 9SM CLR 23/21 A3003 -20 90 900 000/00 RMK AO2 T02280211
13942KMLU MLU20190909034010709/09/19 03:40:31  5-MIN KMLU 090940Z AUTO 00000KT 9SM CLR 23/21 A3003 -20 87 1000 000/00 RMK AO2 T02330211
13942KMLU MLU20190909034510709/09/19 03:45:31  5-MIN KMLU 090945Z AUTO 00000KT 9SM CLR 23/21 A3003 -20 87 1000 000/00 RMK AO2 T02330211
13942KMLU MLU20190909035011309/09/19 03:50:31  5-MIN KMLU 090950Z AUTO 00000KT 9SM CLR 23/21 A3003 -20 90 900 000/00 RMK AO2 SLP168 T02280211
13942KMLU MLU20190909035510609/09/19 03:55:31  5-MIN KMLU 090955Z AUTO 00000KT 9SM CLR 23/21 A3004 -20 90 900 000/00 RMK AO2 T02280211
13942KMLU MLU20190909040010609/09/19 04:00:31  5-MIN KMLU 091000Z AUTO 00000KT 9SM CLR 23/21 A3004 -20 90 900 000/00 RMK AO2 T02280211
13942KMLU MLU20190909040510609/09/19 04:05:31  5-MIN KMLU 091005Z AUTO 00000KT 9SM CLR 23/21 A3004 -20 90 900 000/00 RMK AO2 T02280211
13942KMLU MLU20190909041010609/09/19 04:10:31  5-MIN KMLU 091010Z AUTO 00000KT 8SM CLR 23/21 A3004 -20 90 900 000/00 RMK AO2 T02280211
13942KMLU MLU20190909041510609/09/19 04:15:31  5-MIN KMLU 091015Z AUTO 00000KT 8SM CLR 22/21 A3004 -30 93 800 000/00 RMK AO2 T02220211
13942KMLU MLU20190909042010609/09/19 04:20:31  5-MIN KMLU 091020Z AUTO 00000KT 8SM CLR 23/21 A3004 -30 90 900 000/00 RMK AO2 T02280211
13942KMLU MLU20190909042510609/09/19 04:25:31  5-MIN KMLU 091025Z AUTO 00000KT 8SM CLR 22/21 A3004 -30 93 800 000/00 RMK AO2 T02220211
13942KMLU MLU20190909043010609/09/19 04:30:31  5-MIN KMLU 091030Z AUTO 00000KT 8SM CLR 22/21 A3005 -30 93 800 000/00 RMK AO2 T02220211
13942KMLU MLU20190909043510609/09/19 04:35:31  5-MIN KMLU 091035Z AUTO 00000KT 8SM CLR 23/21 A3005 -30 90 900 000/00 RMK AO2 T02280211
13942KMLU MLU20190909044010609/09/19 04:40:31  5-MIN KMLU 091040Z AUTO 00000KT 8SM CLR 23/21 A3005 -30 90 900 000/00 RMK AO2 T02280211
13942KMLU MLU20190909044510109/09/19 04:45:31  5-MIN KMLU 091045Z 00000KT 8SM CLR 23/21 A3005 -30 90 900 000/00 RMK AO2 T02280211
13942KMLU MLU20190909045010809/09/19 04:50:31  5-MIN KMLU 091050Z 00000KT 8SM CLR 23/21 A3005 -30 90 900 000/00 RMK AO2 SLP174 T02280211
13942KMLU MLU20190909045510109/09/19 04:55:31  5-MIN KMLU 091055Z 00000KT 7SM CLR 22/21 A3005 -30 93 800 000/00 RMK AO2 T02220211
13942KMLU MLU20190909050010109/09/19 05:00:31  5-MIN KMLU 091100Z 00000KT 7SM CLR 22/21 A3005 -40 93 800 000/00 RMK AO2 T02220211
13942KMLU MLU20190909050510109/09/19 05:05:31  5-MIN KMLU 091105Z 00000KT 7SM CLR 22/21 A3006 -40 93 800 000/00 RMK AO2 T02220211
13942KMLU MLU20190909051010109/09/19 05:10:31  5-MIN KMLU 091110Z 00000KT 7SM CLR 22/21 A3006 -40 90 800 000/00 RMK AO2 T02220206
13942KMLU MLU20190909051510109/09/19 05:15:31  5-MIN KMLU 091115Z 00000KT 7SM CLR 22/21 A3006 -40 90 800 000/00 RMK AO2 T02220206
13942KMLU MLU20190909052010109/09/19 05:20:31  5-MIN KMLU 091120Z 00000KT 7SM CLR 22/21 A3006 -40 90 800 000/00 RMK AO2 T02220206
13942KMLU MLU20190909052510109/09/19 05:25:31  5-MIN KMLU 091125Z 00000KT 7SM CLR 22/21 A3006 -40 93 800 000/00 RMK AO2 T02220211
13942KMLU MLU20190909053010109/09/19 05:30:31  5-MIN KMLU 091130Z 00000KT 7SM CLR 23/21 A3006 -50 90 900 000/00 RMK AO2 T02280211
13942KMLU MLU20190909053510109/09/19 05:35:31  5-MIN KMLU 091135Z 00000KT 7SM CLR 23/21 A3006 -50 90 900 000/00 RMK AO2 T02280211
13942KMLU MLU20190909054010109/09/19 05:40:31  5-MIN KMLU 091140Z 00000KT 7SM CLR 22/21 A3006 -50 90 800 000/00 RMK AO2 T02220206
13942KMLU MLU20190909054510409/09/19 05:45:31  5-MIN KMLU 091145Z 00000KT 6SM BR CLR 22/21 A3007 -50 90 800 000/00 RMK AO2 T02220206
13942KMLU MLU20190909055012709/09/19 05:50:31  5-MIN KMLU 091150Z 00000KT 10SM CLR 22/21 A3007 -50 93 800 000/00 RMK AO2 SLP180 T02220211 10250 20222 53006
13942KMLU MLU20190909055510109/09/19 05:55:31  5-MIN KMLU 091155Z 00000KT 5SM CLR 22/21 A3007 -50 93 800 000/00 RMK AO2 T02220211
13942KMLU MLU20190909060010409/09/19 06:00:31  5-MIN KMLU 091200Z 00000KT 5SM FEW060 22/21 A3007 -50 93 800 000/00 RMK AO2 T02220211
13942KMLU MLU20190909060510409/09/19 06:05:31  5-MIN KMLU 091205Z 00000KT 5SM SCT060 22/22 A3007 -50 97 800 000/00 RMK AO2 T02220217
13942KMLU MLU20190909061010409/09/19 06:10:31  5-MIN KMLU 091210Z 00000KT 5SM BKN060 23/22 A3008 -60 93 900 000/00 RMK AO2 T02280217
13942KMLU MLU20190909061510409/09/19 06:15:31  5-MIN KMLU 091215Z 00000KT 6SM BKN060 23/21 A3008 -60 90 900 000/00 RMK AO2 T02280211
13942KMLU MLU20190909062010409/09/19 06:20:31  5-MIN KMLU 091220Z 00000KT 7SM BKN060 23/21 A3008 -60 90 900 000/00 RMK AO2 T02280211
13942KMLU MLU20190909062510409/09/19 06:25:31  5-MIN KMLU 091225Z 00000KT 6SM OVC060 23/21 A3008 -60 90 900 000/00 RMK AO2 T02280211
13942KMLU MLU20190909063010409/09/19 06:30:31  5-MIN KMLU 091230Z 00000KT 6SM OVC060 23/22 A3008 -60 93 900 000/00 RMK AO2 T02280217
13942KMLU MLU20190909063510409/09/19 06:35:31  5-MIN KMLU 091235Z 00000KT 6SM BKN060 23/22 A3008 -60 90 900 000/00 RMK AO2 T02330217
13942KMLU MLU20190909064010509/09/19 06:40:31  5-MIN KMLU 091240Z 00000KT 6SM BKN060 24/22 A3008 -60 90 1000 000/00 RMK AO2 T02390222
13942KMLU MLU20190909064510509/09/19 06:45:31  5-MIN KMLU 091245Z 00000KT 6SM BKN060 24/22 A3009 -70 90 1000 000/00 RMK AO2 T02390222
13942KMLU MLU20190909065011209/09/19 06:50:31  5-MIN KMLU 091250Z 00000KT 6SM BKN060 24/23 A3009 -70 90 1000 000/00 RMK AO2 SLP187 T02440228
13942KMLU MLU20190909065510509/09/19 06:55:31  5-MIN KMLU 091255Z 00000KT 7SM BKN060 25/23 A3009 -70 87 1100 000/00 RMK AO2 T02500228
13942KMLU MLU20190909070010509/09/19 07:00:31  5-MIN KMLU 091300Z 00000KT 7SM BKN060 25/23 A3009 -70 87 1100 000/00 RMK AO2 T02500228
13942KMLU MLU20190909070510509/09/19 07:05:31  5-MIN KMLU 091305Z 00000KT 8SM SCT065 26/23 A3009 -70 84 1200 000/00 RMK AO2 T02560228
13942KMLU MLU20190909071010509/09/19 07:10:31  5-MIN KMLU 091310Z 00000KT 8SM SCT065 26/23 A3009 -70 84 1200 000/00 RMK AO2 T02560228
13942KMLU MLU20190909071510509/09/19 07:15:31  5-MIN KMLU 091315Z 16004KT 8SM SCT065 26/23 A3010 -70 81 1200 150/04 RMK AO2 T02610228
13942KMLU MLU20190909072010509/09/19 07:20:31  5-MIN KMLU 091320Z 16003KT 9SM SCT065 26/22 A3010 -80 79 1200 160/03 RMK AO2 T02610222
13942KMLU MLU20190909072510509/09/19 07:25:31  5-MIN KMLU 091325Z 00000KT 9SM SCT065 27/23 A3010 -80 79 1300 000/00 RMK AO2 T02670228
13942KMLU MLU20190909073010509/09/19 07:30:31  5-MIN KMLU 091330Z 00000KT 9SM SCT065 27/23 A3010 -80 76 1400 000/00 RMK AO2 T02720228
13942KMLU MLU20190909073510609/09/19 07:35:31  5-MIN KMLU 091335Z 00000KT 10SM SCT065 28/23 A3010 -80 74 1400 000/00 RMK AO2 T02780228
13942KMLU MLU20190909074010609/09/19 07:40:31  5-MIN KMLU 091340Z 00000KT 10SM SCT065 28/23 A3010 -80 74 1400 000/00 RMK AO2 T02780228
13942KMLU MLU20190909074510609/09/19 07:45:31  5-MIN KMLU 091345Z 00000KT 10SM FEW065 28/22 A3010 -80 71 1400 000/00 RMK AO2 T02780222
13942KMLU MLU20190909075011009/09/19 07:50:31  5-MIN KMLU 091350Z 00000KT 10SM CLR 28/22 A3010 -80 69 1500 000/00 RMK AO2 SLP190 T02830222
13942KMLU MLU20190909075510609/09/19 07:55:31  5-MIN KMLU 091355Z 00000KT 10SM FEW065 29/22 A3010 -80 67 1500 000/00 RMK AO2 T02890222
13942KMLU MLU20190909080010309/09/19 08:00:31  5-MIN KMLU 091400Z 00000KT 10SM CLR 29/22 A3010 -80 67 1500 000/00 RMK AO2 T02890222
13942KMLU MLU20190909080510309/09/19 08:05:31  5-MIN KMLU 091405Z VRB03KT 10SM CLR 29/22 A3010 -80 67 1500 VRB/03 RMK AO2 T02890222
13942KMLU MLU20190909081010309/09/19 08:10:31  5-MIN KMLU 091410Z 00000KT 10SM CLR 29/22 A3010 -80 67 1500 000/00 RMK AO2 T02890222
13942KMLU MLU20190909081510309/09/19 08:15:31  5-MIN KMLU 091415Z 00000KT 10SM CLR 29/22 A3010 -80 64 1600 000/00 RMK AO2 T02940222
13942KMLU MLU20190909082010309/09/19 08:20:31  5-MIN KMLU 091420Z 27003KT 10SM CLR 29/23 A3010 -80 67 1600 270/03 RMK AO2 T02940228
13942KMLU MLU20190909082510309/09/19 08:25:31  5-MIN KMLU 091425Z 30004KT 10SM CLR 29/22 A3010 -80 64 1600 300/04 RMK AO2 T02940222
13942KMLU MLU20190909083010309/09/19 08:30:31  5-MIN KMLU 091430Z 29005KT 10SM CLR 30/22 A3010 -80 62 1700 290/05 RMK AO2 T03000222
13942KMLU MLU20190909083510309/09/19 08:35:31  5-MIN KMLU 091435Z 30004KT 10SM CLR 30/22 A3010 -80 62 1700 300/04 RMK AO2 T03000222
13942KMLU MLU20190909084010309/09/19 08:40:31  5-MIN KMLU 091440Z 26004KT 10SM CLR 31/23 A3011 -80 62 1700 260/04 RMK AO2 T03060228
13942KMLU MLU20190909084510309/09/19 08:45:31  5-MIN KMLU 091445Z 00000KT 10SM CLR 31/23 A3010 -80 62 1700 000/00 RMK AO2 T03060228
13942KMLU MLU20190909085011609/09/19 08:50:31  5-MIN KMLU 091450Z 00000KT 10SM CLR 31/23 A3010 -80 62 1700 000/00 RMK AO2 SLP192 T03060228 53016
13942KMLU MLU20190909085510309/09/19 08:55:31  5-MIN KMLU 091455Z 34004KT 10SM CLR 32/23 A3011 -90 58 1800 340/04 RMK AO2 T03170228
13942KMLU MLU20190909090010309/09/19 09:00:31  5-MIN KMLU 091500Z 00000KT 10SM CLR 31/22 A3011 -90 60 1700 000/00 RMK AO2 T03060222
13942KMLU MLU20190909090510309/09/19 09:05:31  5-MIN KMLU 091505Z 00000KT 10SM CLR 31/22 A3011 -90 60 1700 000/00 RMK AO2 T03060222
13942KMLU MLU20190909091010309/09/19 09:10:31  5-MIN KMLU 091510Z 00000KT 10SM CLR 31/22 A3011 -80 58 1800 000/00 RMK AO2 T03110222
13942KMLU MLU20190909091510309/09/19 09:15:31  5-MIN KMLU 091515Z 35004KT 10SM CLR 32/22 A3010 -80 56 1800 350/04 RMK AO2 T03170222
13942KMLU MLU20190909092010309/09/19 09:20:31  5-MIN KMLU 091520Z 00000KT 10SM CLR 32/22 A3010 -80 55 1900 000/00 RMK AO2 T03220222
13942KMLU MLU20190909092510309/09/19 09:25:31  5-MIN KMLU 091525Z 00000KT 10SM CLR 32/22 A3010 -80 55 1900 000/00 RMK AO2 T03220222
13942KMLU MLU20190909093010309/09/19 09:30:31  5-MIN KMLU 091530Z 00000KT 10SM CLR 32/22 A3010 -80 55 1900 000/00 RMK AO2 T03220222
13942KMLU MLU20190909093510309/09/19 09:35:31  5-MIN KMLU 091535Z 34004KT 10SM CLR 32/22 A3010 -80 55 1900 340/04 RMK AO2 T03220222
13942KMLU MLU20190909094010309/09/19 09:40:31  5-MIN KMLU 091540Z 07005KT 10SM CLR 33/23 A3010 -80 55 2000 070/05 RMK AO2 T03280228
13942KMLU MLU20190909094510309/09/19 09:45:31  5-MIN KMLU 091545Z 00000KT 10SM CLR 33/22 A3010 -80 53 2000 000/00 RMK AO2 T03280222
13942KMLU MLU20190909095011009/09/19 09:50:31  5-MIN KMLU 091550Z 00000KT 10SM CLR 33/22 A3010 -80 53 2000 000/00 RMK AO2 SLP191 T03280222
13942KMLU MLU20190909095510309/09/19 09:55:31  5-MIN KMLU 091555Z 01004KT 10SM CLR 33/22 A3010 -80 53 2000 010/04 RMK AO2 T03280222
13942KMLU MLU20190909100010309/09/19 10:00:31  5-MIN KMLU 091600Z 00000KT 10SM CLR 33/21 A3010 -80 48 2000 000/00 RMK AO2 T03330211
13942KMLU MLU20190909100510309/09/19 10:05:31  5-MIN KMLU 091605Z 36003KT 10SM CLR 33/21 A3010 -80 48 2000 350/03 RMK AO2 T03330211
13942KMLU MLU20190909101010309/09/19 10:10:31  5-MIN KMLU 091610Z 00000KT 10SM CLR 34/21 A3010 -80 46 2100 000/00 RMK AO2 T03390211
13942KMLU MLU20190909101510309/09/19 10:15:31  5-MIN KMLU 091615Z VRB03KT 10SM CLR 33/21 A3009 -70 46 2000 VRB/03 RMK AO2 T03330206
13942KMLU MLU20190909102010309/09/19 10:20:31  5-MIN KMLU 091620Z 13003KT 10SM CLR 33/20 A3009 -70 46 2000 130/03 RMK AO2 T03280200
13942KMLU MLU20190909102510309/09/19 10:25:31  5-MIN KMLU 091625Z 00000KT 10SM CLR 33/20 A3009 -70 45 2000 000/00 RMK AO2 T03330200
13942KMLU MLU20190909103010309/09/19 10:30:31  5-MIN KMLU 091630Z VRB03KT 10SM CLR 33/21 A3009 -70 46 2000 VRB/03 RMK AO2 T03330206
13942KMLU MLU20190909103510309/09/19 10:35:31  5-MIN KMLU 091635Z 00000KT 10SM CLR 34/21 A3009 -70 45 2100 000/00 RMK AO2 T03390206
13942KMLU MLU20190909104010309/09/19 10:40:31  5-MIN KMLU 091640Z 00000KT 10SM CLR 34/20 A3009 -70 43 2100 000/00 RMK AO2 T03390200
13942KMLU MLU20190909104510309/09/19 10:45:31  5-MIN KMLU 091645Z 00000KT 10SM CLR 34/21 A3009 -70 45 2100 000/00 RMK AO2 T03390206
13942KMLU MLU20190909105011009/09/19 10:50:31  5-MIN KMLU 091650Z VRB03KT 10SM CLR 34/20 A3009 -70 43 2100 VRB/03 RMK AO2 SLP186 T03390200
13942KMLU MLU20190909105510309/09/19 10:55:31  5-MIN KMLU 091655Z 00000KT 10SM CLR 34/21 A3008 -60 45 2100 000/00 RMK AO2 T03390206
13942KMLU MLU20190909110010309/09/19 11:00:31  5-MIN KMLU 091700Z 26003KT 10SM CLR 34/21 A3008 -60 45 2100 260/03 RMK AO2 T03390206
13942KMLU MLU20190909110510309/09/19 11:05:31  5-MIN KMLU 091705Z 00000KT 10SM CLR 34/20 A3008 -60 43 2100 000/00 RMK AO2 T03390200
13942KMLU MLU20190909111010309/09/19 11:10:31  5-MIN KMLU 091710Z 08005KT 10SM CLR 35/19 A3008 -60 39 2200 080/05 RMK AO2 T03500194
13942KMLU MLU20190909111510609/09/19 11:15:31  5-MIN KMLU 091715Z 08005KT 10SM FEW055 35/19 A3008 -60 39 2200 080/05 RMK AO2 T03500194
13942KMLU MLU20190909112010609/09/19 11:20:31  5-MIN KMLU 091720Z VRB03KT 10SM SCT055 34/20 A3008 -60 42 2200 VRB/03 RMK AO2 T03440200
13942KMLU MLU20190909112510609/09/19 11:25:31  5-MIN KMLU 091725Z VRB03KT 10SM SCT055 34/20 A3008 -60 43 2100 VRB/03 RMK AO2 T03390200
13942KMLU MLU20190909113010609/09/19 11:30:31  5-MIN KMLU 091730Z 09005KT 10SM FEW055 34/20 A3007 -60 42 2200 090/05 RMK AO2 T03440200
13942KMLU MLU20190909113510609/09/19 11:35:31  5-MIN KMLU 091735Z 00000KT 10SM FEW055 35/21 A3007 -50 42 2200 000/00 RMK AO2 T03500206
13942KMLU MLU20190909114010609/09/19 11:40:31  5-MIN KMLU 091740Z VRB03KT 10SM FEW055 35/21 A3007 -50 42 2200 VRB/03 RMK AO2 T03500206
13942KMLU MLU20190909114510609/09/19 11:45:31  5-MIN KMLU 091745Z 00000KT 10SM FEW055 36/20 A3007 -50 39 2300 000/00 RMK AO2 T03560200
13942KMLU MLU20190909115012809/09/19 11:50:31  5-MIN KMLU 091750Z VRB04KT 10SM CLR 36/21 A3007 -50 41 2300 VRB/04 RMK AO2 SLP180 T03560206 10356 20222 51012
13942KMLU MLU20190909115509309/09/19 11:55:31  5-MIN KMLU 091755Z 10SM CLR 35/21 A3007 -50 42 2200 M /M RMK AO2 T03500206
13942KMLU MLU20190909120010609/09/19 12:00:31  5-MIN KMLU 091800Z 18005KT 10SM FEW055 34/21 A3007 -50 45 2100 180/05 RMK AO2 T03390206
13942KMLU MLU20190909120510609/09/19 12:05:31  5-MIN KMLU 091805Z VRB05KT 10SM FEW055 35/21 A3007 -50 42 2200 VRB/05 RMK AO2 T03500206
13942KMLU MLU20190909121010609/09/19 12:10:31  5-MIN KMLU 091810Z VRB04KT 10SM SCT060 35/21 A3007 -50 42 2200 VRB/04 RMK AO2 T03500206
13942KMLU MLU20190909121512109/09/19 12:15:31  5-MIN KMLU 091815Z 14007KT 100V170 9SM SCT060 36/21 A3007 -50 41 2300 140/07 100V170 RMK AO2 T03560206
13942KMLU MLU20190909122010509/09/19 12:20:31  5-MIN KMLU 091820Z 18006KT 7SM SCT060 35/21 A3007 -50 42 2200 180/06 RMK AO2 T03500206
13942KMLU MLU20190909122510509/09/19 12:25:31  5-MIN KMLU 091825Z VRB05KT 7SM FEW060 35/21 A3006 -50 42 2300 VRB/05 RMK AO2 T03500206
13942KMLU MLU20190909123010509/09/19 12:30:31  5-MIN KMLU 091830Z VRB04KT 7SM FEW060 36/21 A3006 -50 41 2300 VRB/04 RMK AO2 T03560206
13942KMLU MLU20190909123510509/09/19 12:35:31  5-MIN KMLU 091835Z VRB04KT 7SM FEW060 36/21 A3006 -40 41 2400 VRB/04 RMK AO2 T03610211
13942KMLU MLU20190909124010509/09/19 12:40:31  5-MIN KMLU 091840Z VRB04KT 8SM FEW060 36/21 A3006 -40 41 2400 VRB/04 RMK AO2 T03610211
13942KMLU MLU20190909124510209/09/19 12:45:31  5-MIN KMLU 091845Z 10008KT 9SM CLR 37/21 A3006 -40 40 2400 100/08 RMK AO2 T03670211
13942KMLU MLU20190909125011009/09/19 12:50:31  5-MIN KMLU 091850Z 13005KT 10SM CLR 36/21 A3005 -40 41 2400 120/05 RMK AO2 SLP175 T03610211
13942KMLU MLU20190909125510509/09/19 12:55:31  5-MIN KMLU 091855Z VRB05KT 9SM SCT060 36/21 A3005 -30 42 2300 VRB/05 RMK AO2 T03560211
13942KMLU MLU20190909130010509/09/19 13:00:31  5-MIN KMLU 091900Z 15004KT 9SM SCT060 36/21 A3005 -30 42 2300 150/04 RMK AO2 T03560211
13942KMLU MLU20190909130510509/09/19 13:05:31  5-MIN KMLU 091905Z VRB06KT 9SM SCT060 36/21 A3005 -30 41 2400 VRB/06 RMK AO2 T03610211
13942KMLU MLU20190909131010509/09/19 13:10:31  5-MIN KMLU 091910Z VRB05KT 9SM SCT060 36/21 A3004 -30 41 2400 VRB/05 RMK AO2 T03610211
13942KMLU MLU20190909131510609/09/19 13:15:31  5-MIN KMLU 091915Z VRB06KT 10SM SCT060 36/21 A3004 -20 41 2400 VRB/06 RMK AO2 T03610211
13942KMLU MLU20190909132010609/09/19 13:20:31  5-MIN KMLU 091920Z 21007KT 10SM SCT060 36/21 A3004 -20 42 2300 210/07 RMK AO2 T03560211
13942KMLU MLU20190909132510609/09/19 13:25:31  5-MIN KMLU 091925Z VRB03KT 10SM SCT060 36/21 A3003 -20 41 2400 VRB/03 RMK AO2 T03610211
13942KMLU MLU20190909133010609/09/19 13:30:31  5-MIN KMLU 091930Z 19007KT 10SM SCT060 36/21 A3003 -10 41 2400 180/07 RMK AO2 T03610211
13942KMLU MLU20190909133510609/09/19 13:35:31  5-MIN KMLU 091935Z 17006KT 10SM SCT060 37/21 A3003 -10 40 2500 170/06 RMK AO2 T03670211
13942KMLU MLU20190909134010609/09/19 13:40:31  5-MIN KMLU 091940Z 20004KT 10SM SCT060 37/21 A3003 -10 40 2500 200/04 RMK AO2 T03670211
13942KMLU MLU20190909134511109/09/19 13:45:31  5-MIN KMLU 091945Z AUTO 24006KT 10SM SCT060 36/21 A3002 -10 41 2400 230/06 RMK AO2 T03610211
13942KMLU MLU20190909135011109/09/19 13:50:31  5-MIN KMLU 091950Z 25005KT 10SM SCT060 36/21 A3002 0 42 2400 250/05 RMK AO2 SLP163 T03560211
13942KMLU MLU20190909135511109/09/19 13:55:31  5-MIN KMLU 091955Z 21006KT 10SM SCT065 SCT090 36/21 A3002 0 41 2400 210/06 RMK AO2 T03610211
13942KMLU MLU20190909140011109/09/19 14:00:31  5-MIN KMLU 092000Z 17006KT 10SM SCT065 SCT090 35/21 A3001 0 42 2300 170/06 RMK AO2 T03500206
13942KMLU MLU20190909140511109/09/19 14:05:31  5-MIN KMLU 092005Z 00000KT 10SM FEW065 SCT090 36/21 A3001 0 39 2400 000/00 RMK AO2 T03610206
13942KMLU MLU20190909141010409/09/19 14:10:31  5-MIN KMLU 092010Z VRB04KT 10SM FEW065 36/21 A3001 0 42 2400 VRB/04 RMK AO2 T03560211
13942KMLU MLU20190909141510409/09/19 14:15:31  5-MIN KMLU 092015Z 00000KT 10SM FEW065 35/21 A3001 0 43 2300 000/00 RMK AO2 T03500211
13942KMLU MLU20190909142011109/09/19 14:20:31  5-MIN KMLU 092020Z 17004KT 10SM FEW065 FEW085 35/21 A3001 0 42 2300 170/04 RMK AO2 T03500206
13942KMLU MLU20190909142510509/09/19 14:25:31  5-MIN KMLU 092025Z VRB03KT 10SM FEW085 36/21 A3000 10 39 2400 VRB/03 RMK AO2 T03610206
13942KMLU MLU20190909143011209/09/19 14:30:31  5-MIN KMLU 092030Z VRB05KT 10SM FEW065 FEW080 36/21 A3000 10 41 2400 VRB/05 RMK AO2 T03610211
13942KMLU MLU20190909143511209/09/19 14:35:31  5-MIN KMLU 092035Z 23006KT 10SM SCT070 SCT085 36/21 A2999 20 41 2500 230/06 RMK AO2 T03610211
13942KMLU MLU20190909144011209/09/19 14:40:31  5-MIN KMLU 092040Z 23004KT 10SM FEW070 FEW085 36/21 A2999 20 41 2400 220/04 RMK AO2 T03560206
13942KMLU MLU20190909144511209/09/19 14:45:31  5-MIN KMLU 092045Z 22006KT 10SM FEW065 FEW085 36/21 A2998 20 41 2400 220/06 RMK AO2 T03560206
13942KMLU MLU20190909145011809/09/19 14:50:31  5-MIN KMLU 092050Z 17005KT 10SM FEW065 36/21 A2998 20 39 2500 170/05 RMK AO2 SLP151 T03610206 58013
13942KMLU MLU20190909145510509/09/19 14:55:31  5-MIN KMLU 092055Z 22004KT 10SM FEW065 35/21 A2998 30 42 2300 220/04 RMK AO2 T03500206
13942KMLU MLU20190909150011609/09/19 15:00:31  5-MIN KMLU 092100Z 17003KT 10SM BKN065 36/21 A2998 30 39 2500 170/03 RMK AO2 LTG DSNT W T03610206
13942KMLU MLU20190909150512309/09/19 15:05:31  5-MIN KMLU 092105Z 00000KT 10SM BKN065 37/20 A2998 30 37 2500 000/00 RMK AO2 LTG DSNT SE AND W T03670200
13942KMLU MLU20190909151012309/09/19 15:10:31  5-MIN KMLU 092110Z 00000KT 10SM BKN065 37/20 A2998 30 36 2600 000/00 RMK AO2 LTG DSNT SE AND W T03720200
13942KMLU MLU20190909151511709/09/19 15:15:31  5-MIN KMLU 092115Z 28004KT 10SM BKN065 37/21 A2998 30 37 2600 280/04 RMK AO2 LTG DSNT SE T03720206
13942KMLU MLU20190909152011709/09/19 15:20:31  5-MIN KMLU 092120Z VRB03KT 10SM BKN065 37/21 A2998 30 37 2600 VRB/03 RMK AO2 LTG DSNT SE T03720206
13942KMLU MLU20190909152512309/09/19 15:25:31  5-MIN KMLU 092125Z 19004KT 10SM BKN065 37/20 A2998 30 37 2500 190/04 RMK AO2 LTG DSNT E AND SE T03670200
13942KMLU MLU20190909153012309/09/19 15:30:31  5-MIN KMLU 092130Z VRB04KT 10SM BKN065 37/20 A2997 30 37 2500 VRB/04 RMK AO2 LTG DSNT E AND SE T03670200
13942KMLU MLU20190909153512309/09/19 15:35:31  5-MIN KMLU 092135Z 25004KT 10SM BKN065 37/20 A2997 40 37 2500 250/04 RMK AO2 LTG DSNT E AND SE T03670200
13942KMLU MLU20190909154011609/09/19 15:40:31  5-MIN KMLU 092140Z 27006KT 10SM BKN065 37/20 A2997 40 37 2500 270/06 RMK AO2 LTG DSNT E T03670200
13942KMLU MLU20190909154512409/09/19 15:45:31  5-MIN KMLU 092145Z 25006KT 10SM VCTS BKN065 37/19 A2997 40 36 2500 250/06 RMK AO2 LTG DSNT E-SW T03670194
13942KMLU MLU20190909155013209/09/19 15:50:31  5-MIN KMLU 092150Z VRB05KT 10SM VCTS BKN065 37/20 A2996 40 37 2500 VRB/05 RMK AO2 LTG DSNT ALQDS SLP145 T03670200
13942KMLU MLU20190909155512509/09/19 15:55:31  5-MIN KMLU 092155Z 22004KT 10SM VCTS SCT070 37/20 A2996 40 37 2500 220/04 RMK AO2 LTG DSNT ALQDS T03670200
13942KMLU MLU20190909160012509/09/19 16:00:31  5-MIN KMLU 092200Z 31004KT 10SM VCTS BKN070 37/20 A2996 40 37 2500 310/04 RMK AO2 LTG DSNT ALQDS T03670200
13942KMLU MLU20190909160512509/09/19 16:05:31  5-MIN KMLU 092205Z 00000KT 10SM VCTS BKN070 37/20 A2997 40 36 2600 000/00 RMK AO2 LTG DSNT ALQDS T03720200
13942KMLU MLU20190909161012509/09/19 16:10:31  5-MIN KMLU 092210Z 21007KT 10SM VCTS BKN070 37/20 A2998 30 37 2500 210/07 RMK AO2 LTG DSNT ALQDS T03670200
13942KMLU MLU20190909161512509/09/19 16:15:31  5-MIN KMLU 092215Z VRB06KT 10SM VCTS OVC070 36/20 A2998 30 38 2500 VRB/06 RMK AO2 LTG DSNT ALQDS T03610200
13942KMLU MLU20190909162013809/09/19 16:20:31  5-MIN KMLU 092220Z 11013G22KT 10SM VCTS OVC070 33/19 A3000 10 43 2100 110/13G22 RMK AO2 LTG DSNT ALQDS PRESRR T03330194
13942KMLU MLU20190909162514209/09/19 16:25:31  5-MIN KMLU 092225Z 11011G22KT 10SM TS BKN070 BKN090 31/19 A3000 10 47 1900 110/11G22 RMK AO2 LTG DSNT ALQDS TSB22 T03110189
13942KMLU MLU20190909163014809/09/19 16:30:31  5-MIN KMLU 092230Z 09015G25KT 10SM TS BKN075 BKN090 31/17 A3001 0 42 1900 090/15G25 RMK AO2 LTG DSNT ALQDS TSB22 PRESRR T03110172
13942KMLU MLU20190909163516909/09/19 16:35:31  5-MIN KMLU 092235Z 11011G28KT 9SM TS BKN075 BKN090 29/18 A3001 0 50 1700 110/11G28 RMK AO2 PK WND 09028/2232 WSHFT 2217 LTG DSNT ALQDS TSB22 T02940183
13942KMLU MLU20190909164018509/09/19 16:40:31  5-MIN KMLU 092240Z 17011G28KT 2 1/2SM TS HZ BKN070 BKN090 29/18 A3002 -10 50 1700 160/11G28 RMK AO2 PK WND 09028/2232 WSHFT 2217 LTG DSNT ALQDS TSB22 PRESRR T02940183
13942KMLU MLU20190909164522009/09/19 16:45:31  5-MIN KMLU 092245Z 13021G31KT 100V170 1 1/2SM -TSRA BKN070 BKN085 BKN100 27/21 A3005 -30 69 1300 130/21G31 100V170 RMK AO2 PK WND 15031/2245 WSHFT 2217 LTG DSNT ALQDS RAB42 TSB22 PRESRR P0005 T02670206
13942KMLU MLU20190909165020609/09/19 16:50:31  5-MIN KMLU 092250Z 16019G37KT 120V200 1SM +TSRA FEW021 BKN070 BKN090 24/21 A3007 -50 78 1100 160/19G37 120V200 RMK AO2 PK WND 18037/2250 WSHFT 2217 LTG DSNT ALQDS RAB42 TSB22 PRESRR P0018
13942KMLU MLU20190909165515409/09/19 16:55:31  5-MIN KMLU 092255Z 17012G37KT 1/2SM +TSRA SCT017 BKN070 OVC090 24/19 A3005 -30 73 1100 170/12G37 RMK AO2 LTG DSNT ALQDS P0006 T02440194
13942KMLU MLU20190909170014709/09/19 17:00:31  5-MIN KMLU 092300Z 19011G33KT 1/2SM +TSRA BKN021 OVC070 23/19 A3005 -30 76 1000 190/11G33 RMK AO2 LTG DSNT ALQDS P0018 T02330189
13942KMLU MLU20190909170513809/09/19 17:05:31  5-MIN KMLU 092305Z 22012KT 1SM +TSRA BKN029 OVC070 23/19 A3004 -20 81 900 220/12 RMK AO2 LTG DSNT ALQDS P0026 T02280194
13942KMLU MLU20190909171014909/09/19 17:10:31  5-MIN KMLU 092310Z 24011KT 1 1/4SM +TSRA BKN034 OVC070 23/20 A3003 -20 84 900 240/11 RMK AO2 LTG DSNT ALQDS PRESFR P0030 T02280200
13942KMLU MLU20190909171515209/09/19 17:15:31  5-MIN KMLU 092315Z 25007KT 2SM TSRA BKN034 BKN070 OVC090 23/21 A3002 -10 84 1000 250/07 RMK AO2 LTG DSNT ALQDS PRESFR P0032 T02330206
13942KMLU MLU20190909172014509/09/19 17:20:31  5-MIN KMLU 092320Z VRB03KT 3SM TSRA BKN034 BKN075 OVC100 24/21 A3002 -10 84 1100 VRB/03 RMK AO2 LTG DSNT ALQDS P0033 T02390211
13942KMLU MLU20190909172514809/09/19 17:25:31  5-MIN KMLU 092325Z 35004KT 4SM TSRA BR SCT041 BKN095 OVC110 23/21 A3002 -10 87 1000 350/04 RMK AO2 LTG DSNT ALQDS P0034 T02330211
13942KMLU MLU20190909173014609/09/19 17:30:31  5-MIN KMLU 092330Z 05005KT 7SM -TSRA FEW049 SCT070 BKN095 23/21 A3002 -10 87 1000 050/05 RMK AO2 LTG DSNT ALQDS P0034 T02330211
13942KMLU MLU20190909173514309/09/19 17:35:31  5-MIN KMLU 092335Z 08005KT 9SM -RA FEW055 SCT095 BKN110 23/21 A3002 -10 90 900 080/05 RMK AO2 LTG DSNT ALQDS P0034 T02280211
13942KMLU MLU20190909174013609/09/19 17:40:31  5-MIN KMLU 092340Z 09004KT 9SM -RA FEW095 BKN120 23/22 A3003 -10 93 900 090/04 RMK AO2 LTG DSNT ALQDS P0034 T02280217
13942KMLU MLU20190909174513509/09/19 17:45:31  5-MIN KMLU 092345Z 06003KT 9SM -RA FEW100 SCT120 23/22 A3004 -20 93 900 060/03 RMK AO2 LTG DSNT SW-N P0034 T02280217
13942KMLU MLU20190909175017609/09/19 17:50:31  5-MIN KMLU 092350Z 11004KT 10SM -RA FEW048 FEW095 SCT110 24/21 A3004 -30 84 1000 100/04 RMK AO2 LTG DSNT ALQDS SLP171 P0034 60066 T02390211 10372 20228 58030
13942KMLU MLU20190909175514509/09/19 17:55:31  5-MIN KMLU 092355Z 12005KT 10SM -RA FEW048 FEW075 SCT120 24/21 A3004 -20 84 1000 120/05 RMK AO2 LTG DSNT ALQDS P0000 T02390211
13942KMLU MLU20190909180014209/09/19 18:00:31  5-MIN KMLU 100000Z 11004KT 10SM FEW048 FEW120 24/21 A3004 -20 84 1000 110/04 RMK AO2 LTG DSNT ALQDS RAE2357 P0000 T02390211
13942KMLU MLU20190909180513509/09/19 18:05:31  5-MIN KMLU 100005Z 08005KT 10SM FEW048 23/22 A3004 -30 90 1000 080/05 RMK AO2 LTG DSNT ALQDS RAE2357 P0000 T02330217
13942KMLU MLU20190909181013509/09/19 18:10:31  5-MIN KMLU 100010Z 09004KT 10SM FEW048 23/21 A3005 -30 87 1000 090/04 RMK AO2 LTG DSNT ALQDS RAE2357 P0000 T02330211
13942KMLU MLU20190909181513409/09/19 18:15:31  5-MIN KMLU 100015Z 08004KT 10SM FEW048 23/22 A3005 -30 90 1000 080/04 RMK AO2 LTG DSNT SW-N RAE2357 P0000 T02330217
13942KMLU MLU20190909182013509/09/19 18:20:31  5-MIN KMLU 100020Z 00000KT 10SM FEW085 23/22 A3005 -40 90 1000 000/00 RMK AO2 LTG DSNT ALQDS RAE2357 P0000 T02330217
13942KMLU MLU20190909182513409/09/19 18:25:31  5-MIN KMLU 100025Z 00000KT 10SM SCT085 23/22 A3006 -40 90 900 000/00 RMK AO2 LTG DSNT ALQDS RAE2357 P0000 T02330217
13942KMLU MLU20190909183014309/09/19 18:30:31  5-MIN KMLU 100030Z 17003KT 10SM SCT085 23/22 A3007 -50 93 900 170/03 RMK AO2 LTG DSNT ALQDS RAE2357 PRESRR P0000 T02330222 $
13942KMLU MLU20190909183515009/09/19 18:35:31  5-MIN KMLU 100035Z 21003KT 10SM SCT070 BKN085 23/22 A3007 -50 93 900 210/03 RMK AO2 LTG DSNT ALQDS RAE2357 PRESRR P0000 T02330222 $
13942KMLU MLU20190909184012609/09/19 18:40:31  5-MIN KMLU 100040Z 10SM 23/22 A3008 -60 93 900 M /M RMK AO2 LTG DSNT ALQDS RAE2357 PRESRR P0000 T02330222 $
13942KMLU MLU20190909184511409/09/19 18:45:31  5-MIN KMLU 100045Z 23/22 A3008 -60 93 900 M /M RMK AO2 LTG DSNT ALQDS RAE2357 P0000 T02330222 $
13942KMLU MLU20190909185012109/09/19 18:50:31  5-MIN KMLU 100050Z 23/22 A3008 -60 93 900 M /M RMK AO2 LTG DSNT ALQDS RAE2357 SLP185 P0000 T02330222 $
13942KMLU MLU20190909185507909/09/19 18:55:31  5-MIN KMLU 100055Z A3008 M M M M /M RMK AO2 LTG DSNT ALQDS $
13942KMLU MLU20190909190007909/09/19 19:00:31  5-MIN KMLU 100100Z A3009 M M M M /M RMK AO2 LTG DSNT ALQDS $
13942KMLU MLU20190909190508809/09/19 19:05:31  5-MIN KMLU 100105Z TS A3009 M M M M /M RMK AO2 LTG DSNT ALQDS TSB02 $
13942KMLU MLU20190909191008809/09/19 19:10:31  5-MIN KMLU 100110Z TS A3008 M M M M /M RMK AO2 LTG DSNT ALQDS TSB02 $
13942KMLU MLU20190909191508809/09/19 19:15:31  5-MIN KMLU 100115Z TS A3009 M M M M /M RMK AO2 LTG DSNT ALQDS TSB02 $
13942KMLU MLU20190909192009309/09/19 19:20:31  5-MIN KMLU 100120Z VCTS A3009 M M M M /M RMK AO2 LTG DSNT ALQDS TSB02E17 $
13942KMLU MLU20190909192508809/09/19 19:25:31  5-MIN KMLU 100125Z A3009 M M M M /M RMK AO2 LTG DSNT ALQDS TSB02E17 $
13942KMLU MLU20190909193008809/09/19 19:30:31  5-MIN KMLU 100130Z A3010 M M M M /M RMK AO2 LTG DSNT ALQDS TSB02E17 $
13942KMLU MLU20190909193508809/09/19 19:35:31  5-MIN KMLU 100135Z A3011 M M M M /M RMK AO2 LTG DSNT ALQDS TSB02E17 $
13942KMLU MLU20190909194010509/09/19 19:40:31  5-MIN KMLU 100140Z A3012 M M M M /M RMK AO2 LTG DSNT NE AND S AND SW TSB02E17 PRESRR $
13942KMLU MLU20190909194509809/09/19 19:45:31  5-MIN KMLU 100145Z A3013 M M M M /M RMK AO2 LTG DSNT S AND SW TSB02E17 PRESRR $
13942KMLU MLU20190909195015109/09/19 19:50:31  5-MIN KMLU 100150Z 09006KT 10SM RA BKN095 23/22 A3013 -110 97 800 090/06 RMK AO2 LTG DSNT S AND SW RAB47 TSB02E17 SLP201 T02280222 $
13942KMLU MLU20190909195508909/09/19 19:55:31  5-MIN KMLU 100155Z RA A3013 M M M M /M RMK AO2 LTG DSNT S AND SW PNO $
13942KMLU MLU20190909200008909/09/19 20:00:31  5-MIN KMLU 100200Z RA A3013 M M M M /M RMK AO2 LTG DSNT S AND SW PNO $
13942KMLU MLU20190909200508909/09/19 20:05:31  5-MIN KMLU 100205Z RA A3013 M M M M /M RMK AO2 LTG DSNT S AND SW PNO $
13942KMLU MLU20190909201008409/09/19 20:10:31  5-MIN KMLU 100210Z RA A3014 M M M M /M RMK AO2 LTG DSNT S-W PNO $
13942KMLU MLU20190909201508409/09/19 20:15:31  5-MIN KMLU 100215Z RA A3013 M M M M /M RMK AO2 LTG DSNT S-W PNO $
13942KMLU MLU20190909202008409/09/19 20:20:31  5-MIN KMLU 100220Z RA A3013 M M M M /M RMK AO2 LTG DSNT S-W PNO $
13942KMLU MLU20190909202508209/09/19 20:25:31  5-MIN KMLU 100225Z RA A3013 M M M M /M RMK AO2 LTG DSNT S PNO $
13942KMLU MLU20190909203007109/09/19 20:30:31  5-MIN KMLU 100230Z RA A3013 M M M M /M RMK AO2 PNO $
13942KMLU MLU20190909203507109/09/19 20:35:31  5-MIN KMLU 100235Z RA A3012 M M M M /M RMK AO2 PNO $
13942KMLU MLU20190909204007109/09/19 20:40:31  5-MIN KMLU 100240Z RA A3012 M M M M /M RMK AO2 PNO $
13942KMLU MLU20190909204507409/09/19 20:45:31  5-MIN KMLU 100245Z A3012 M M M M /M RMK AO2 RAE41 PNO $
13942KMLU MLU20190909205009209/09/19 20:50:31  5-MIN KMLU 100250Z A3011 M M M M /M RMK AO2 RAE41 SLPNO 6//// 50026 PNO $
13942KMLU MLU20190909205507509/09/19 20:55:31  5-MIN KMLU 100255Z AUTO A3011 M M M M /M RMK AO2 PWINO $
13942KMLU MLU20190909210007509/09/19 21:00:31  5-MIN KMLU 100300Z AUTO A3010 M M M M /M RMK AO2 PWINO $
13942KMLU MLU20190909210507509/09/19 21:05:31  5-MIN KMLU 100305Z AUTO A3010 M M M M /M RMK AO2 PWINO $
13942KMLU MLU20190909211007509/09/19 21:10:31  5-MIN KMLU 100310Z AUTO A3009 M M M M /M RMK AO2 PWINO $
13942KMLU MLU20190909211507509/09/19 21:15:31  5-MIN KMLU 100315Z AUTO A3009 M M M M /M RMK AO2 PWINO $
13942KMLU MLU20190909212007509/09/19 21:20:31  5-MIN KMLU 100320Z AUTO A3008 M M M M /M RMK AO2 PWINO $
13942KMLU MLU20190909212507509/09/19 21:25:31  5-MIN KMLU 100325Z AUTO A3008 M M M M /M RMK AO2 PWINO $
13942KMLU MLU20190909213007509/09/19 21:30:31  5-MIN KMLU 100330Z AUTO A3009 M M M M /M RMK AO2 PWINO $
13942KMLU MLU20190909213507509/09/19 21:35:31  5-MIN KMLU 100335Z AUTO A3009 M M M M /M RMK AO2 PWINO $
13942KMLU MLU20190909214007509/09/19 21:40:31  5-MIN KMLU 100340Z AUTO A3010 M M M M /M RMK AO2 PWINO $
13942KMLU MLU20190909214507509/09/19 21:45:31  5-MIN KMLU 100345Z AUTO A3010 M M M M /M RMK AO2 PWINO $
13942KMLU MLU20190909215008109/09/19 21:50:31  5-MIN KMLU 100350Z AUTO A3010 M M M M /M RMK AO2 SLPNO PWINO $
13942KMLU MLU20190909215507509/09/19 21:55:31  5-MIN KMLU 100355Z AUTO A3010 M M M M /M RMK AO2 PWINO $
13942KMLU MLU20190909220007509/09/19 22:00:31  5-MIN KMLU 100400Z AUTO A3010 M M M M /M RMK AO2 PWINO $
13942KMLU MLU20190909220507509/09/19 22:05:31  5-MIN KMLU 100405Z AUTO A3011 M M M M /M RMK AO2 PWINO $
13942KMLU MLU20190909221007509/09/19 22:10:31  5-MIN KMLU 100410Z AUTO A3010 M M M M /M RMK AO2 PWINO $
13942KMLU MLU20190909221507509/09/19 22:15:31  5-MIN KMLU 100415Z AUTO A3010 M M M M /M RMK AO2 PWINO $
13942KMLU MLU20190909222007509/09/19 22:20:31  5-MIN KMLU 100420Z AUTO A3010 M M M M /M RMK AO2 PWINO $
13942KMLU MLU20190909222507509/09/19 22:25:31  5-MIN KMLU 100425Z AUTO A3010 M M M M /M RMK AO2 PWINO $
13942KMLU MLU20190909223007509/09/19 22:30:31  5-MIN KMLU 100430Z AUTO A3010 M M M M /M RMK AO2 PWINO $
13942KMLU MLU20190909223507509/09/19 22:35:31  5-MIN KMLU 100435Z AUTO A3010 M M M M /M RMK AO2 PWINO $
13942KMLU MLU20190909224007509/09/19 22:40:31  5-MIN KMLU 100440Z AUTO A3010 M M M M /M RMK AO2 PWINO $
13942KMLU MLU20190909224507509/09/19 22:45:31  5-MIN KMLU 100445Z AUTO A3010 M M M M /M RMK AO2 PWINO $
13942KMLU MLU20190909225008109/09/19 22:50:31  5-MIN KMLU 100450Z AUTO A3010 M M M M /M RMK AO2 SLPNO PWINO $
13942KMLU MLU20190909225507509/09/19 22:55:31  5-MIN KMLU 100455Z AUTO A3009 M M M M /M RMK AO2 PWINO $
13942KMLU MLU20190909230007509/09/19 23:00:31  5-MIN KMLU 100500Z AUTO A3009 M M M M /M RMK AO2 PWINO $
13942KMLU MLU20190909230507509/09/19 23:05:31  5-MIN KMLU 100505Z AUTO A3009 M M M M /M RMK AO2 PWINO $
13942KMLU MLU20190909231007509/09/19 23:10:31  5-MIN KMLU 100510Z AUTO A3009 M M M M /M RMK AO2 PWINO $
13942KMLU MLU20190909231507509/09/19 23:15:31  5-MIN KMLU 100515Z AUTO A3008 M M M M /M RMK AO2 PWINO $
13942KMLU MLU20190909232007509/09/19 23:20:31  5-MIN KMLU 100520Z AUTO A3009 M M M M /M RMK AO2 PWINO $
13942KMLU MLU20190909232507509/09/19 23:25:31  5-MIN KMLU 100525Z AUTO A3008 M M M M /M RMK AO2 PWINO $
13942KMLU MLU20190909233007509/09/19 23:30:31  5-MIN KMLU 100530Z AUTO A3008 M M M M /M RMK AO2 PWINO $
13942KMLU MLU20190909233507509/09/19 23:35:31  5-MIN KMLU 100535Z AUTO A3009 M M M M /M RMK AO2 PWINO $
13942KMLU MLU20190909234007509/09/19 23:40:31  5-MIN KMLU 100540Z AUTO A3009 M M M M /M RMK AO2 PWINO $
13942KMLU MLU20190909234507509/09/19 23:45:31  5-MIN KMLU 100545Z AUTO A3009 M M M M /M RMK AO2 PWINO $
13942KMLU MLU20190909235010309/09/19 23:50:31  5-MIN KMLU 100550Z AUTO A3009 M M M M /M RMK AO2 SLPNO 6//// 403720050 50025 PWINO $
13942KMLU MLU20190909235507509/09/19 23:55:31  5-MIN KMLU 100555Z AUTO A3010 M M M M /M RMK AO2 PWINO $
13942KMLU MLU20190910000007509/10/19 00:00:31  5-MIN KMLU 100600Z AUTO A3010 M M M M /M RMK AO2 PWINO $
13942KMLU MLU20190910000507509/10/19 00:05:31  5-MIN KMLU 100605Z AUTO A3010 M M M M /M RMK AO2 PWINO $
13942KMLU MLU20190910001007509/10/19 00:10:31  5-MIN KMLU 100610Z AUTO A3010 M M M M /M RMK AO2 PWINO $
13942KMLU MLU20190910001507509/10/19 00:15:31  5-MIN KMLU 100615Z AUTO A3010 M M M M /M RMK AO2 PWINO $
13942KMLU MLU20190910002007509/10/19 00:20:31  5-MIN KMLU 100620Z AUTO A3010 M M M M /M RMK AO2 PWINO $
13942KMLU MLU20190910002507509/10/19 00:25:31  5-MIN KMLU 100625Z AUTO A3010 M M M M /M RMK AO2 PWINO $
13942KMLU MLU20190910003007509/10/19 00:30:31  5-MIN KMLU 100630Z AUTO A3010 M M M M /M RMK AO2 PWINO $
13942KMLU MLU20190910003507509/10/19 00:35:31  5-MIN KMLU 100635Z AUTO A3010 M M M M /M RMK AO2 PWINO $
13942KMLU MLU20190910004007509/10/19 00:40:31  5-MIN KMLU 100640Z AUTO A3010 M M M M /M RMK AO2 PWINO $
13942KMLU MLU20190910004507509/10/19 00:45:31  5-MIN KMLU 100645Z AUTO A3010 M M M M /M RMK AO2 PWINO $
13942KMLU MLU20190910005008109/10/19 00:50:31  5-MIN KMLU 100650Z AUTO A3010 M M M M /M RMK AO2 SLPNO PWINO $
13942KMLU MLU20190910005507509/10/19 00:55:31  5-MIN KMLU 100655Z AUTO A3010 M M M M /M RMK AO2 PWINO $
13942KMLU MLU20190910010007509/10/19 01:00:31  5-MIN KMLU 100700Z AUTO A3010 M M M M /M RMK AO2 PWINO $
13942KMLU MLU20190910010507509/10/19 01:05:31  5-MIN KMLU 100705Z AUTO A3010 M M M M /M RMK AO2 PWINO $
13942KMLU MLU20190910011007509/10/19 01:10:31  5-MIN KMLU 100710Z AUTO A3010 M M M M /M RMK AO2 PWINO $
13942KMLU MLU20190910011507509/10/19 01:15:31  5-MIN KMLU 100715Z AUTO A3010 M M M M /M RMK AO2 PWINO $
13942KMLU MLU20190910012007509/10/19 01:20:31  5-MIN KMLU 100720Z AUTO A3009 M M M M /M RMK AO2 PWINO $
13942KMLU MLU20190910012507509/10/19 01:25:31  5-MIN KMLU 100725Z AUTO A3009 M M M M /M RMK AO2 PWINO $
13942KMLU MLU20190910013007509/10/19 01:30:31  5-MIN KMLU 100730Z AUTO A3009 M M M M /M RMK AO2 PWINO $
13942KMLU MLU20190910013507509/10/19 01:35:31  5-MIN KMLU 100735Z AUTO A3009 M M M M /M RMK AO2 PWINO $
13942KMLU MLU20190910014007509/10/19 01:40:31  5-MIN KMLU 100740Z AUTO A3009 M M M M /M RMK AO2 PWINO $
13942KMLU MLU20190910014507509/10/19 01:45:31  5-MIN KMLU 100745Z AUTO A3009 M M M M /M RMK AO2 PWINO $
13942KMLU MLU20190910015008109/10/19 01:50:31  5-MIN KMLU 100750Z AUTO A3009 M M M M /M RMK AO2 SLPNO PWINO $
13942KMLU MLU20190910015507509/10/19 01:55:31  5-MIN KMLU 100755Z AUTO A3009 M M M M /M RMK AO2 PWINO $
13942KMLU MLU20190910020007509/10/19 02:00:31  5-MIN KMLU 100800Z AUTO A3009 M M M M /M RMK AO2 PWINO $
13942KMLU MLU20190910020507509/10/19 02:05:31  5-MIN KMLU 100805Z AUTO A3009 M M M M /M RMK AO2 PWINO $
13942KMLU MLU20190910021007509/10/19 02:10:31  5-MIN KMLU 100810Z AUTO A3008 M M M M /M RMK AO2 PWINO $
13942KMLU MLU20190910021507509/10/19 02:15:31  5-MIN KMLU 100815Z AUTO A3008 M M M M /M RMK AO2 PWINO $
13942KMLU MLU20190910022007509/10/19 02:20:31  5-MIN KMLU 100820Z AUTO A3009 M M M M /M RMK AO2 PWINO $
13942KMLU MLU20190910022507509/10/19 02:25:31  5-MIN KMLU 100825Z AUTO A3008 M M M M /M RMK AO2 PWINO $
13942KMLU MLU20190910023007509/10/19 02:30:31  5-MIN KMLU 100830Z AUTO A3009 M M M M /M RMK AO2 PWINO $
13942KMLU MLU20190910023507509/10/19 02:35:31  5-MIN KMLU 100835Z AUTO A3008 M M M M /M RMK AO2 PWINO $
13942KMLU MLU20190910024007509/10/19 02:40:31  5-MIN KMLU 100840Z AUTO A3009 M M M M /M RMK AO2 PWINO $
13942KMLU MLU20190910024507509/10/19 02:45:31  5-MIN KMLU 100845Z AUTO A3009 M M M M /M RMK AO2 PWINO $
13942KMLU MLU20190910025008709/10/19 02:50:31  5-MIN KMLU 100850Z AUTO A3009 M M M M /M RMK AO2 SLPNO 56007 PWINO $
13942KMLU MLU20190910025507509/10/19 02:55:31  5-MIN KMLU 100855Z AUTO A3010 M M M M /M RMK AO2 PWINO $
13942KMLU MLU20190910030007509/10/19 03:00:31  5-MIN KMLU 100900Z AUTO A3010 M M M M /M RMK AO2 PWINO $
13942KMLU MLU20190910030507509/10/19 03:05:31  5-MIN KMLU 100905Z AUTO A3010 M M M M /M RMK AO2 PWINO $
13942KMLU MLU20190910031007509/10/19 03:10:31  5-MIN KMLU 100910Z AUTO A3010 M M M M /M RMK AO2 PWINO $
13942KMLU MLU20190910031507509/10/19 03:15:31  5-MIN KMLU 100915Z AUTO A3010 M M M M /M RMK AO2 PWINO $
13942KMLU MLU20190910032007509/10/19 03:20:31  5-MIN KMLU 100920Z AUTO A3010 M M M M /M RMK AO2 PWINO $
13942KMLU MLU20190910032507509/10/19 03:25:31  5-MIN KMLU 100925Z AUTO A3010 M M M M /M RMK AO2 PWINO $
13942KMLU MLU20190910033007509/10/19 03:30:31  5-MIN KMLU 100930Z AUTO A3010 M M M M /M RMK AO2 PWINO $
13942KMLU MLU20190910033507509/10/19 03:35:31  5-MIN KMLU 100935Z AUTO A3010 M M M M /M RMK AO2 PWINO $
13942KMLU MLU20190910034007509/10/19 03:40:31  5-MIN KMLU 100940Z AUTO A3010 M M M M /M RMK AO2 PWINO $
13942KMLU MLU20190910034507509/10/19 03:45:31  5-MIN KMLU 100945Z AUTO A3010 M M M M /M RMK AO2 PWINO $
13942KMLU MLU20190910035008109/10/19 03:50:31  5-MIN KMLU 100950Z AUTO A3010 M M M M /M RMK AO2 SLPNO PWINO $
13942KMLU MLU20190910035507509/10/19 03:55:31  5-MIN KMLU 100955Z AUTO A3010 M M M M /M RMK AO2 PWINO $
13942KMLU MLU20190910040007509/10/19 04:00:31  5-MIN KMLU 101000Z AUTO A3010 M M M M /M RMK AO2 PWINO $
13942KMLU MLU20190910040507509/10/19 04:05:31  5-MIN KMLU 101005Z AUTO A3010 M M M M /M RMK AO2 PWINO $
13942KMLU MLU20190910041007509/10/19 04:10:31  5-MIN KMLU 101010Z AUTO A3010 M M M M /M RMK AO2 PWINO $
13942KMLU MLU20190910041507509/10/19 04:15:31  5-MIN KMLU 101015Z AUTO A3010 M M M M /M RMK AO2 PWINO $
13942KMLU MLU20190910042007509/10/19 04:20:31  5-MIN KMLU 101020Z AUTO A3010 M M M M /M RMK AO2 PWINO $
13942KMLU MLU20190910042507509/10/19 04:25:31  5-MIN KMLU 101025Z AUTO A3010 M M M M /M RMK AO2 PWINO $
13942KMLU MLU20190910043007509/10/19 04:30:31  5-MIN KMLU 101030Z AUTO A3011 M M M M /M RMK AO2 PWINO $
13942KMLU MLU20190910043507509/10/19 04:35:31  5-MIN KMLU 101035Z AUTO A3011 M M M M /M RMK AO2 PWINO $
13942KMLU MLU20190910044007509/10/19 04:40:31  5-MIN KMLU 101040Z AUTO A3011 M M M M /M RMK AO2 PWINO $
13942KMLU MLU20190910044507509/10/19 04:45:31  5-MIN KMLU 101045Z AUTO A3011 M M M M /M RMK AO2 PWINO $
13942KMLU MLU20190910045007009/10/19 04:50:31  5-MIN KMLU 101050Z A3012 M M M M /M RMK AO2 SLPNO $
13942KMLU MLU20190910045506409/10/19 04:55:31  5-MIN KMLU 101055Z A3012 M M M M /M RMK AO2 $
13942KMLU MLU20190910050006409/10/19 05:00:31  5-MIN KMLU 101100Z A3012 M M M M /M RMK AO2 $
13942KMLU MLU20190910050506409/10/19 05:05:31  5-MIN KMLU 101105Z A3012 M M M M /M RMK AO2 $
13942KMLU MLU20190910051006409/10/19 05:10:31  5-MIN KMLU 101110Z A3012 M M M M /M RMK AO2 $
13942KMLU MLU20190910051506409/10/19 05:15:31  5-MIN KMLU 101115Z A3012 M M M M /M RMK AO2 $
13942KMLU MLU20190910052006409/10/19 05:20:31  5-MIN KMLU 101120Z A3012 M M M M /M RMK AO2 $
13942KMLU MLU20190910052506409/10/19 05:25:31  5-MIN KMLU 101125Z A3012 M M M M /M RMK AO2 $
13942KMLU MLU20190910053006409/10/19 05:30:31  5-MIN KMLU 101130Z A3013 M M M M /M RMK AO2 $
13942KMLU MLU20190910053506409/10/19 05:35:31  5-MIN KMLU 101135Z A3013 M M M M /M RMK AO2 $
13942KMLU MLU20190910054006409/10/19 05:40:31  5-MIN KMLU 101140Z A3013 M M M M /M RMK AO2 $
13942KMLU MLU20190910054506409/10/19 05:45:31  5-MIN KMLU 101145Z A3013 M M M M /M RMK AO2 $
13942KMLU MLU20190910055008209/10/19 05:50:31  5-MIN KMLU 101150Z A3013 M M M M /M RMK AO2 SLPNO 7//// 50000 $
13942KMLU MLU20190910055506409/10/19 05:55:31  5-MIN KMLU 101155Z A3013 M M M M /M RMK AO2 $
13942KMLU MLU20190910060006409/10/19 06:00:31  5-MIN KMLU 101200Z A3013 M M M M /M RMK AO2 $
13942KMLU MLU20190910060506409/10/19 06:05:31  5-MIN KMLU 101205Z A3013 M M M M /M RMK AO2 $
13942KMLU MLU20190910061006409/10/19 06:10:31  5-MIN KMLU 101210Z A3013 M M M M /M RMK AO2 $
13942KMLU MLU20190910061506409/10/19 06:15:31  5-MIN KMLU 101215Z A3013 M M M M /M RMK AO2 $
13942KMLU MLU20190910062006409/10/19 06:20:31  5-MIN KMLU 101220Z A3013 M M M M /M RMK AO2 $
13942KMLU MLU20190910062506409/10/19 06:25:31  5-MIN KMLU 101225Z A3014 M M M M /M RMK AO2 $
13942KMLU MLU20190910063006409/10/19 06:30:31  5-MIN KMLU 101230Z A3014 M M M M /M RMK AO2 $
13942KMLU MLU20190910063506409/10/19 06:35:31  5-MIN KMLU 101235Z A3014 M M M M /M RMK AO2 $
13942KMLU MLU20190910064006409/10/19 06:40:31  5-MIN KMLU 101240Z A3014 M M M M /M RMK AO2 $
13942KMLU MLU20190910064506409/10/19 06:45:31  5-MIN KMLU 101245Z A3014 M M M M /M RMK AO2 $
13942KMLU MLU20190910065007009/10/19 06:50:31  5-MIN KMLU 101250Z A3014 M M M M /M RMK AO2 SLPNO $
13942KMLU MLU20190910065506409/10/19 06:55:31  5-MIN KMLU 101255Z A3014 M M M M /M RMK AO2 $
13942KMLU MLU20190910070006409/10/19 07:00:31  5-MIN KMLU 101300Z A3014 M M M M /M RMK AO2 $
13942KMLU MLU20190910070506409/10/19 07:05:31  5-MIN KMLU 101305Z A3014 M M M M /M RMK AO2 $
13942KMLU MLU20190910071006409/10/19 07:10:31  5-MIN KMLU 101310Z A3014 M M M M /M RMK AO2 $
13942KMLU MLU20190910071506409/10/19 07:15:31  5-MIN KMLU 101315Z A3015 M M M M /M RMK AO2 $
13942KMLU MLU20190910072006409/10/19 07:20:31  5-MIN KMLU 101320Z A3015 M M M M /M RMK AO2 $
13942KMLU MLU20190910072506409/10/19 07:25:31  5-MIN KMLU 101325Z A3015 M M M M /M RMK AO2 $
13942KMLU MLU20190910073006409/10/19 07:30:31  5-MIN KMLU 101330Z A3015 M M M M /M RMK AO2 $
13942KMLU MLU20190910073506409/10/19 07:35:31  5-MIN KMLU 101335Z A3015 M M M M /M RMK AO2 $
13942KMLU MLU20190910074006409/10/19 07:40:31  5-MIN KMLU 101340Z A3015 M M M M /M RMK AO2 $
13942KMLU MLU20190910074506409/10/19 07:45:31  5-MIN KMLU 101345Z A3015 M M M M /M RMK AO2 $
13942KMLU MLU20190910075007009/10/19 07:50:31  5-MIN KMLU 101350Z A3015 M M M M /M RMK AO2 SLPNO $
13942KMLU MLU20190910075506409/10/19 07:55:31  5-MIN KMLU 101355Z A3015 M M M M /M RMK AO2 $
13942KMLU MLU20190910080006409/10/19 08:00:31  5-MIN KMLU 101400Z A3016 M M M M /M RMK AO2 $
13942KMLU MLU20190910080506409/10/19 08:05:31  5-MIN KMLU 101405Z A3016 M M M M /M RMK AO2 $
13942KMLU MLU20190910081006409/10/19 08:10:31  5-MIN KMLU 101410Z A3016 M M M M /M RMK AO2 $
13942KMLU MLU20190910081506409/10/19 08:15:31  5-MIN KMLU 101415Z A3016 M M M M /M RMK AO2 $
13942KMLU MLU20190910082006409/10/19 08:20:31  5-MIN KMLU 101420Z A3016 M M M M /M RMK AO2 $
13942KMLU MLU20190910082506409/10/19 08:25:31  5-MIN KMLU 101425Z A3016 M M M M /M RMK AO2 $
13942KMLU MLU20190910083006409/10/19 08:30:31  5-MIN KMLU 101430Z A3016 M M M M /M RMK AO2 $
13942KMLU MLU20190910083506409/10/19 08:35:31  5-MIN KMLU 101435Z A3016 M M M M /M RMK AO2 $
13942KMLU MLU20190910084006409/10/19 08:40:31  5-MIN KMLU 101440Z A3016 M M M M /M RMK AO2 $
13942KMLU MLU20190910084506409/10/19 08:45:31  5-MIN KMLU 101445Z A3017 M M M M /M RMK AO2 $
13942KMLU MLU20190910085007609/10/19 08:50:31  5-MIN KMLU 101450Z A3017 M M M M /M RMK AO2 SLPNO 52014 $
13942KMLU MLU20190910085506409/10/19 08:55:31  5-MIN KMLU 101455Z A3017 M M M M /M RMK AO2 $
13942KMLU MLU20190910090006409/10/19 09:00:31  5-MIN KMLU 101500Z A3017 M M M M /M RMK AO2 $
13942KMLU MLU20190910090506409/10/19 09:05:31  5-MIN KMLU 101505Z A3017 M M M M /M RMK AO2 $
13942KMLU MLU20190910091006409/10/19 09:10:31  5-MIN KMLU 101510Z A3017 M M M M /M RMK AO2 $
13942KMLU MLU20190910091506409/10/19 09:15:31  5-MIN KMLU 101515Z A3017 M M M M /M RMK AO2 $
13942KMLU MLU20190910092006409/10/19 09:20:31  5-MIN KMLU 101520Z A3017 M M M M /M RMK AO2 $
13942KMLU MLU20190910092506409/10/19 09:25:31  5-MIN KMLU 101525Z A3017 M M M M /M RMK AO2 $
13942KMLU MLU20190910093008009/10/19 09:30:31  5-MIN KMLU 101530Z 29/ A3017 -140 M 1500 M /M RMK AO2 T0294 $
13942KMLU MLU20190910093510209/10/19 09:35:31  5-MIN KMLU 101535Z VRB03KT 10SM 29/23 A3016 -140 69 1500 VRB/03 RMK AO2 T02940233 $
13942KMLU MLU20190910094010209/10/19 09:40:31  5-MIN KMLU 101540Z 00000KT 10SM 29/23 A3016 -140 69 1500 000/00 RMK AO2 T02940233 $
13942KMLU MLU20190910094510209/10/19 09:45:31  5-MIN KMLU 101545Z VRB03KT 10SM 29/23 A3016 -140 69 1500 VRB/03 RMK AO2 T02940233 $
13942KMLU MLU20190910095010609/10/19 09:50:31  5-MIN KMLU 101550Z VRB03KT 10SM 30/24 A3016 -140 69 1600 VRB/03 RMK AO2 SLPNO T03000239
13942KMLU MLU20190910095510009/10/19 09:55:31  5-MIN KMLU 101555Z VRB03KT 10SM 31/24 A3016 -140 67 1600 VRB/03 RMK AO2 T03060239
13942KMLU MLU20190910100010409/10/19 10:00:31  5-MIN KMLU 101600Z VRB03KT 10SM CLR 31/24 A3016 -140 67 1600 VRB/03 RMK AO2 T03060239
13942KMLU MLU20190910100510409/10/19 10:05:31  5-MIN KMLU 101605Z 18003KT 10SM CLR 31/24 A3016 -140 67 1600 180/03 RMK AO2 T03060239
13942KMLU MLU20190910101010409/10/19 10:10:31  5-MIN KMLU 101610Z 00000KT 10SM CLR 31/23 A3016 -140 65 1700 000/00 RMK AO2 T03060233
13942KMLU MLU20190910101510409/10/19 10:15:31  5-MIN KMLU 101615Z 00000KT 10SM CLR 31/24 A3016 -140 67 1700 000/00 RMK AO2 T03060239
13942KMLU MLU20190910102010409/10/19 10:20:31  5-MIN KMLU 101620Z VRB03KT 10SM CLR 31/24 A3016 -130 65 1700 VRB/03 RMK AO2 T03110239
13942KMLU MLU20190910102510409/10/19 10:25:31  5-MIN KMLU 101625Z VRB03KT 10SM CLR 31/24 A3016 -130 65 1700 VRB/03 RMK AO2 T03110239
13942KMLU MLU20190910103010409/10/19 10:30:31  5-MIN KMLU 101630Z VRB03KT 10SM CLR 31/24 A3016 -130 65 1700 VRB/03 RMK AO2 T03110239
13942KMLU MLU20190910103510409/10/19 10:35:31  5-MIN KMLU 101635Z VRB03KT 10SM CLR 31/23 A3015 -130 63 1700 VRB/03 RMK AO2 T03110233
13942KMLU MLU20190910104010409/10/19 10:40:31  5-MIN KMLU 101640Z 00000KT 10SM CLR 32/24 A3015 -130 63 1800 000/00 RMK AO2 T03170239
13942KMLU MLU20190910104510409/10/19 10:45:31  5-MIN KMLU 101645Z 00000KT 10SM CLR 32/24 A3015 -130 61 1800 000/00 RMK AO2 T03220239
13942KMLU MLU20190910105011009/10/19 10:50:31  5-MIN KMLU 101650Z VRB03KT 10SM CLR 32/23 A3015 -130 61 1800 VRB/03 RMK AO2 SLPNO T03170233
13942KMLU MLU20190910105510409/10/19 10:55:31  5-MIN KMLU 101655Z 00000KT 10SM CLR 32/24 A3015 -130 61 1800 000/00 RMK AO2 T03220239
13942KMLU MLU20190910110010409/10/19 11:00:31  5-MIN KMLU 101700Z 14004KT 10SM CLR 32/23 A3015 -120 59 1900 140/04 RMK AO2 T03220233
13942KMLU MLU20190910110510409/10/19 11:05:31  5-MIN KMLU 101705Z VRB03KT 10SM CLR 32/23 A3015 -130 59 1800 VRB/03 RMK AO2 T03220233
13942KMLU MLU20190910111010409/10/19 11:10:31  5-MIN KMLU 101710Z 12004KT 10SM CLR 32/23 A3015 -130 59 1800 120/04 RMK AO2 T03220233
13942KMLU MLU20190910111510709/10/19 11:15:31  5-MIN KMLU 101715Z 22003KT 10SM FEW041 32/23 A3015 -130 58 1800 220/03 RMK AO2 T03170228
13942KMLU MLU20190910112010709/10/19 11:20:31  5-MIN KMLU 101720Z 00000KT 10SM SCT041 32/23 A3015 -120 59 1900 000/00 RMK AO2 T03220233
13942KMLU MLU20190910112510709/10/19 11:25:31  5-MIN KMLU 101725Z 00000KT 10SM FEW041 33/23 A3015 -120 57 1900 000/00 RMK AO2 T03280233
13942KMLU MLU20190910113010709/10/19 11:30:31  5-MIN KMLU 101730Z VRB05KT 10SM FEW041 33/23 A3015 -120 55 2000 VRB/05 RMK AO2 T03330233
13942KMLU MLU20190910113510709/10/19 11:35:31  5-MIN KMLU 101735Z 19003KT 10SM FEW041 33/23 A3014 -120 55 2000 190/03 RMK AO2 T03330233
13942KMLU MLU20190910114010709/10/19 11:40:31  5-MIN KMLU 101740Z 21005KT 10SM FEW041 33/23 A3014 -120 55 2000 210/05 RMK AO2 T03330233
13942KMLU MLU20190910114510709/10/19 11:45:31  5-MIN KMLU 101745Z VRB05KT 10SM FEW041 33/23 A3014 -120 55 2000 VRB/05 RMK AO2 T03330233
13942KMLU MLU20190910115011609/10/19 11:50:31  5-MIN KMLU 101750Z 17004KT 10SM CLR 34/23 A3014 -120 51 2000 170/04 RMK AO2 SLPNO T03390228 53014
13942KMLU MLU20190910115510409/10/19 11:55:31  5-MIN KMLU 101755Z 16005KT 10SM CLR 34/22 A3014 -120 50 2000 160/05 RMK AO2 T03390222
13942KMLU MLU20190910120011409/10/19 12:00:31  5-MIN KMLU 101800Z VRB03KT 10SM FEW055 FEW070 34/22 A3014 -110 50 2000 VRB/03 RMK AO2 T03390222
13942KMLU MLU20190910120512109/10/19 12:05:31  5-MIN KMLU 101805Z 19004KT 10SM FEW045 SCT055 SCT070 34/23 A3014 -110 51 2000 180/04 RMK AO2 T03390228
13942KMLU MLU20190910121011409/10/19 12:10:31  5-MIN KMLU 101810Z VRB03KT 10SM FEW047 SCT060 33/23 A3014 -110 53 2000 VRB/03 RMK AO2 T03330228
13942KMLU MLU20190910121511109/10/19 12:15:31  5-MIN KMLU 101815Z 10SM FEW045 FEW055 SCT075 34/23 A3014 -120 51 2000 M /M RMK AO2 T03390228
13942KMLU MLU20190910122012109/10/19 12:20:31  5-MIN KMLU 101820Z VRB04KT 10SM FEW045 SCT055 BKN075 34/23 A3014 -110 50 2100 VRB/04 RMK AO2 T03440228
13942KMLU MLU20190910122512109/10/19 12:25:31  5-MIN KMLU 101825Z 00000KT 10SM SCT049 BKN060 BKN070 33/22 A3014 -110 51 2000 000/00 RMK AO2 T03330222
13942KMLU MLU20190910123012109/10/19 12:30:31  5-MIN KMLU 101830Z 00000KT 10SM SCT049 BKN060 BKN075 33/22 A3014 -110 51 2000 000/00 RMK AO2 T03330222
13942KMLU MLU20190910123512109/10/19 12:35:31  5-MIN KMLU 101835Z 00000KT 10SM FEW048 BKN060 BKN075 33/22 A3013 -110 53 1900 000/00 RMK AO2 T03280222
13942KMLU MLU20190910124012109/10/19 12:40:31  5-MIN KMLU 101840Z 05003KT 10SM FEW050 BKN060 BKN075 33/23 A3013 -110 53 2000 050/03 RMK AO2 T03330228
13942KMLU MLU20190910124512109/10/19 12:45:31  5-MIN KMLU 101845Z 05006KT 10SM FEW048 BKN065 BKN080 33/22 A3013 -110 51 2000 050/06 RMK AO2 T03330222
13942KMLU MLU20190910125012709/10/19 12:50:31  5-MIN KMLU 101850Z 07005KT 10SM FEW048 BKN065 BKN080 33/22 A3013 -110 53 1900 070/05 RMK AO2 SLPNO T03280222
13942KMLU MLU20190910125510709/10/19 12:55:31  5-MIN KMLU 101855Z 06004KT 10SM BKN060 33/22 A3013 -110 53 1900 060/04 RMK AO2 T03280222
13942KMLU MLU20190910130011409/10/19 13:00:31  5-MIN KMLU 101900Z 00000KT 10SM BKN065 BKN080 33/22 A3013 -110 53 1900 000/00 RMK AO2 T03280222
13942KMLU MLU20190910130511409/10/19 13:05:31  5-MIN KMLU 101905Z 00000KT 10SM BKN060 BKN075 33/22 A3013 -110 53 1900 000/00 RMK AO2 T03280222
13942KMLU MLU20190910131012109/10/19 13:10:31  5-MIN KMLU 101910Z 00000KT 10SM FEW055 BKN070 BKN085 32/23 A3013 -100 57 1900 000/00 RMK AO2 T03220228
13942KMLU MLU20190910131512109/10/19 13:15:31  5-MIN KMLU 101915Z 00000KT 10SM SCT060 BKN075 BKN090 33/23 A3012 -100 55 1900 000/00 RMK AO2 T03280228
13942KMLU MLU20190910132012109/10/19 13:20:31  5-MIN KMLU 101920Z 00000KT 10SM FEW060 SCT075 BKN095 34/23 A3012 -100 51 2100 000/00 RMK AO2 T03390228
13942KMLU MLU20190910132511309/10/19 13:25:31  5-MIN KMLU 101925Z 00000KT 10SM FEW070 SCT095 34/22 A3012 -90 48 2100 000/00 RMK AO2 T03440222
13942KMLU MLU20190910133011309/10/19 13:30:31  5-MIN KMLU 101930Z 00000KT 10SM FEW070 FEW090 35/23 A3011 -90 48 2200 000/00 RMK AO2 T03500228
13942KMLU MLU20190910133511309/10/19 13:35:31  5-MIN KMLU 101935Z 00000KT 10SM FEW050 FEW090 34/22 A3011 -90 50 2100 000/00 RMK AO2 T03390222
13942KMLU MLU20190910134011309/10/19 13:40:31  5-MIN KMLU 101940Z 00000KT 10SM SCT050 SCT090 34/22 A3011 -90 48 2100 000/00 RMK AO2 T03440222
13942KMLU MLU20190910134511309/10/19 13:45:31  5-MIN KMLU 101945Z 13003KT 10SM SCT060 BKN085 33/22 A3011 -90 50 2000 130/03 RMK AO2 T03330217
13942KMLU MLU20190910135011209/10/19 13:50:31  5-MIN KMLU 101950Z 00000KT 10SM BKN060 33/22 A3011 -90 50 2000 000/00 RMK AO2 SLPNO T03330217
13942KMLU MLU20190910135512009/10/19 13:55:31  5-MIN KMLU 101955Z VRB03KT 10SM SCT060 BKN070 BKN085 33/23 A3011 -90 55 2000 VRB/03 RMK AO2 T03280228
13942KMLU MLU20190910140012009/10/19 14:00:31  5-MIN KMLU 102000Z 11003KT 10SM SCT060 BKN070 BKN085 34/22 A3010 -80 48 2100 110/03 RMK AO2 T03440222
13942KMLU MLU20190910140511309/10/19 14:05:31  5-MIN KMLU 102005Z 00000KT 10SM SCT060 SCT085 34/21 A3010 -80 46 2100 000/00 RMK AO2 T03390211
13942KMLU MLU20190910141010609/10/19 14:10:31  5-MIN KMLU 102010Z 00000KT 10SM SCT065 34/21 A3010 -80 46 2100 000/00 RMK AO2 T03390211
13942KMLU MLU20190910141510609/10/19 14:15:31  5-MIN KMLU 102015Z 18004KT 10SM FEW065 34/22 A3010 -80 48 2100 180/04 RMK AO2 T03440222
13942KMLU MLU20190910142010609/10/19 14:20:31  5-MIN KMLU 102020Z 17003KT 10SM FEW060 33/22 A3010 -80 50 2000 170/03 RMK AO2 T03330217
13942KMLU MLU20190910142510609/10/19 14:25:31  5-MIN KMLU 102025Z 00000KT 10SM FEW060 33/22 A3010 -80 51 2000 000/00 RMK AO2 T03280217
13942KMLU MLU20190910143010309/10/19 14:30:31  5-MIN KMLU 102030Z 00000KT 10SM CLR 33/22 A3010 -80 53 2000 000/00 RMK AO2 T03280222
13942KMLU MLU20190910143510609/10/19 14:35:31  5-MIN KMLU 102035Z 00000KT 10SM FEW065 33/22 A3010 -80 51 2000 000/00 RMK AO2 T03330222
13942KMLU MLU20190910144010609/10/19 14:40:31  5-MIN KMLU 102040Z 00000KT 10SM SCT065 33/22 A3010 -80 53 2000 000/00 RMK AO2 T03280222
13942KMLU MLU20190910144510609/10/19 14:45:31  5-MIN KMLU 102045Z 00000KT 10SM SCT065 33/22 A3009 -70 50 2000 000/00 RMK AO2 T03330217
13942KMLU MLU20190910145011809/10/19 14:50:31  5-MIN KMLU 102050Z 08003KT 10SM SCT065 33/23 A3009 -70 53 2000 080/03 RMK AO2 SLPNO T03330228 56012
13942KMLU MLU20190910145510609/10/19 14:55:31  5-MIN KMLU 102055Z 00000KT 10SM FEW065 33/23 A3009 -70 53 2000 000/00 RMK AO2 T03330228
13942KMLU MLU20190910150010609/10/19 15:00:31  5-MIN KMLU 102100Z 00000KT 10SM SCT065 33/22 A3009 -70 51 2000 000/00 RMK AO2 T03330222
13942KMLU MLU20190910150510609/10/19 15:05:31  5-MIN KMLU 102105Z 00000KT 10SM SCT060 33/23 A3009 -70 55 2000 000/00 RMK AO2 T03280228
13942KMLU MLU20190910151010609/10/19 15:10:31  5-MIN KMLU 102110Z 16003KT 10SM FEW060 32/23 A3009 -70 57 1900 160/03 RMK AO2 T03220228
13942KMLU MLU20190910151510309/10/19 15:15:31  5-MIN KMLU 102115Z 17003KT 10SM CLR 32/23 A3009 -70 58 1900 170/03 RMK AO2 T03170228
13942KMLU MLU20190910152010309/10/19 15:20:31  5-MIN KMLU 102120Z 16003KT 10SM CLR 32/23 A3009 -70 61 1900 160/03 RMK AO2 T03170233
13942KMLU MLU20190910152510309/10/19 15:25:31  5-MIN KMLU 102125Z 19003KT 10SM CLR 33/23 A3009 -70 55 2000 190/03 RMK AO2 T03330233
13942KMLU MLU20190910153010309/10/19 15:30:31  5-MIN KMLU 102130Z 00000KT 10SM CLR 34/22 A3009 -70 48 2200 000/00 RMK AO2 T03440222
13942KMLU MLU20190910153510309/10/19 15:35:31  5-MIN KMLU 102135Z 20004KT 10SM CLR 34/22 A3009 -70 48 2200 200/04 RMK AO2 T03440222
13942KMLU MLU20190910154010309/10/19 15:40:31  5-MIN KMLU 102140Z 20004KT 10SM CLR 34/21 A3009 -70 46 2100 200/04 RMK AO2 T03390211
13942KMLU MLU20190910154510309/10/19 15:45:31  5-MIN KMLU 102145Z 17004KT 10SM CLR 34/21 A3009 -70 45 2200 170/04 RMK AO2 T03440211
13942KMLU MLU20190910155010909/10/19 15:50:31  5-MIN KMLU 102150Z 19006KT 10SM CLR 34/22 A3009 -70 46 2200 190/06 RMK AO2 SLPNO T03440217
13942KMLU MLU20190910155510609/10/19 15:55:31  5-MIN KMLU 102155Z 19004KT 10SM BKN065 34/22 A3008 -70 46 2200 190/04 RMK AO2 T03440217
13942KMLU MLU20190910160010609/10/19 16:00:31  5-MIN KMLU 102200Z 19004KT 10SM BKN065 34/22 A3008 -70 46 2200 190/04 RMK AO2 T03440217
13942KMLU MLU20190910160511809/10/19 16:05:31  5-MIN KMLU 102205Z 19005KT 10SM BKN065 34/22 A3008 -70 48 2100 190/05 RMK AO2 LTG DSNT NW T03390217
13942KMLU MLU20190910161012409/10/19 16:10:31  5-MIN KMLU 102210Z 21006KT 10SM BKN065 34/22 A3008 -60 46 2200 210/06 RMK AO2 LTG DSNT W AND NW T03440217
13942KMLU MLU20190910161512409/10/19 16:15:31  5-MIN KMLU 102215Z 22008KT 10SM BKN065 34/21 A3008 -60 45 2200 220/08 RMK AO2 LTG DSNT W AND NW T03440211
13942KMLU MLU20190910162012409/10/19 16:20:31  5-MIN KMLU 102220Z 20006KT 10SM BKN065 34/21 A3008 -60 45 2200 200/06 RMK AO2 LTG DSNT W AND NW T03440211
13942KMLU MLU20190910162511809/10/19 16:25:31  5-MIN KMLU 102225Z 22006KT 10SM BKN065 34/21 A3008 -60 45 2100 220/06 RMK AO2 LTG DSNT NW T03390206
13942KMLU MLU20190910163011809/10/19 16:30:31  5-MIN KMLU 102230Z 17004KT 10SM BKN065 34/21 A3008 -60 46 2100 170/04 RMK AO2 LTG DSNT NW T03390211
13942KMLU MLU20190910163511809/10/19 16:35:31  5-MIN KMLU 102235Z 17006KT 10SM BKN065 34/22 A3008 -60 46 2200 170/06 RMK AO2 LTG DSNT NW T03440217
13942KMLU MLU20190910164011809/10/19 16:40:31  5-MIN KMLU 102240Z VRB03KT 10SM BKN065 34/21 A3008 -60 46 2100 VRB/03 RMK AO2 LTG DSNT NW T03390211
13942KMLU MLU20190910164511809/10/19 16:45:31  5-MIN KMLU 102245Z 17005KT 10SM BKN065 34/21 A3008 -60 45 2200 170/05 RMK AO2 LTG DSNT NW T03440211
13942KMLU MLU20190910165012409/10/19 16:50:31  5-MIN KMLU 102250Z 16003KT 10SM BKN065 34/21 A3008 -60 43 2200 160/03 RMK AO2 LTG DSNT NW SLPNO T03440206
13942KMLU MLU20190910165512509/10/19 16:55:31  5-MIN KMLU 102255Z 00000KT 10SM SCT065 BKN080 34/21 A3008 -60 46 2100 000/00 RMK AO2 LTG DSNT NW T03390211
13942KMLU MLU20190910170011309/10/19 17:00:31  5-MIN KMLU 102300Z 08004KT 10SM BKN065 BKN080 34/22 A3008 -60 46 2200 080/04 RMK AO2 T03440217
13942KMLU MLU20190910170511309/10/19 17:05:31  5-MIN KMLU 102305Z 08003KT 10SM BKN065 BKN080 34/22 A3008 -60 48 2100 080/03 RMK AO2 T03390217
13942KMLU MLU20190910171011309/10/19 17:10:31  5-MIN KMLU 102310Z 09004KT 10SM SCT065 SCT080 33/22 A3008 -60 50 2000 090/04 RMK AO2 T03330217
13942KMLU MLU20190910171511309/10/19 17:15:31  5-MIN KMLU 102315Z VRB03KT 10SM SCT060 SCT080 33/21 A3008 -60 48 2000 VRB/03 RMK AO2 T03330211
13942KMLU MLU20190910172011309/10/19 17:20:31  5-MIN KMLU 102320Z 08004KT 10SM SCT060 SCT080 33/22 A3008 -60 50 2000 070/04 RMK AO2 T03330217
13942KMLU MLU20190910172510609/10/19 17:25:31  5-MIN KMLU 102325Z VRB03KT 10SM BKN060 33/22 A3008 -60 51 2000 VRB/03 RMK AO2 T03280217
13942KMLU MLU20190910173011309/10/19 17:30:31  5-MIN KMLU 102330Z 00000KT 10SM BKN060 BKN085 32/22 A3008 -60 55 1900 000/00 RMK AO2 T03220222
13942KMLU MLU20190910173511309/10/19 17:35:31  5-MIN KMLU 102335Z 10003KT 10SM SCT060 BKN085 32/22 A3008 -60 55 1900 100/03 RMK AO2 T03220222
13942KMLU MLU20190910174011309/10/19 17:40:31  5-MIN KMLU 102340Z 13003KT 10SM BKN065 BKN085 32/22 A3008 -60 55 1900 130/03 RMK AO2 T03220222
13942KMLU MLU20190910174511309/10/19 17:45:31  5-MIN KMLU 102345Z 11003KT 10SM BKN065 BKN085 32/22 A3008 -70 53 1900 110/03 RMK AO2 T03220217
13942KMLU MLU20190910175013709/10/19 17:50:31  5-MIN KMLU 102350Z 10003KT 10SM BKN065 OVC085 32/22 A3008 -70 55 1900 100/03 RMK AO2 SLPNO T03170217 10350 20317 58017
13942KMLU MLU20190910175511309/10/19 17:55:31  5-MIN KMLU 102355Z 10003KT 10SM BKN065 OVC090 32/22 A3008 -70 55 1900 100/03 RMK AO2 T03170217
13942KMLU MLU20190910180011309/10/19 18:00:31  5-MIN KMLU 110000Z 00000KT 10SM BKN065 OVC090 31/22 A3008 -60 58 1800 000/00 RMK AO2 T03110222
13942KMLU MLU20190910180510609/10/19 18:05:31  5-MIN KMLU 110005Z 00000KT 10SM OVC065 31/22 A3008 -60 58 1800 000/00 RMK AO2 T03110222
13942KMLU MLU20190910181010609/10/19 18:10:31  5-MIN KMLU 110010Z 00000KT 10SM BKN060 30/23 A3008 -60 67 1700 000/00 RMK AO2 T03000233
13942KMLU MLU20190910181510609/10/19 18:15:31  5-MIN KMLU 110015Z 00000KT 10SM BKN065 30/23 A3008 -60 67 1700 000/00 RMK AO2 T03000233
13942KMLU MLU20190910182010609/10/19 18:20:31  5-MIN KMLU 110020Z 00000KT 10SM BKN065 29/23 A3008 -60 69 1600 000/00 RMK AO2 T02940233
13942KMLU MLU20190910182510609/10/19 18:25:31  5-MIN KMLU 110025Z 00000KT 10SM BKN065 30/23 A3008 -60 67 1700 000/00 RMK AO2 T03000233
13942KMLU MLU20190910183010609/10/19 18:30:31  5-MIN KMLU 110030Z 00000KT 10SM BKN065 30/23 A3008 -60 65 1700 000/00 RMK AO2 T03000228
13942KMLU MLU20190910183510609/10/19 18:35:31  5-MIN KMLU 110035Z 05003KT 10SM BKN065 30/22 A3008 -60 60 1700 050/03 RMK AO2 T03000217
13942KMLU MLU20190910184010609/10/19 18:40:31  5-MIN KMLU 110040Z 00000KT 10SM BKN065 30/21 A3008 -60 58 1700 000/00 RMK AO2 T03000211
13942KMLU MLU20190910184510609/10/19 18:45:31  5-MIN KMLU 110045Z 00000KT 10SM OVC065 30/22 A3008 -60 60 1700 000/00 RMK AO2 T03000217
13942KMLU MLU20190910185011209/10/19 18:50:31  5-MIN KMLU 110050Z 00000KT 10SM OVC065 29/22 A3008 -60 62 1600 000/00 RMK AO2 SLPNO T02940217
13942KMLU MLU20190910185510609/10/19 18:55:31  5-MIN KMLU 110055Z 00000KT 10SM BKN065 29/22 A3008 -60 64 1600 000/00 RMK AO2 T02940222
13942KMLU MLU20190910190010609/10/19 19:00:31  5-MIN KMLU 110100Z 00000KT 10SM BKN065 29/22 A3008 -60 62 1600 000/00 RMK AO2 T02940217
13942KMLU MLU20190910190510609/10/19 19:05:31  5-MIN KMLU 110105Z 00000KT 10SM SCT065 28/22 A3008 -60 69 1500 000/00 RMK AO2 T02830222
13942KMLU MLU20190910191010609/10/19 19:10:31  5-MIN KMLU 110110Z 00000KT 10SM FEW070 28/22 A3008 -60 69 1500 000/00 RMK AO2 T02830222
13942KMLU MLU20190910191510609/10/19 19:15:31  5-MIN KMLU 110115Z 00000KT 10SM FEW070 28/22 A3008 -60 69 1500 000/00 RMK AO2 T02830222
13942KMLU MLU20190910192010309/10/19 19:20:31  5-MIN KMLU 110120Z 00000KT 10SM CLR 28/22 A3008 -60 66 1500 000/00 RMK AO2 T02830217
13942KMLU MLU20190910192510309/10/19 19:25:31  5-MIN KMLU 110125Z 00000KT 10SM CLR 28/22 A3008 -60 71 1400 000/00 RMK AO2 T02780222
13942KMLU MLU20190910193010309/10/19 19:30:31  5-MIN KMLU 110130Z VRB03KT 10SM CLR 28/22 A3009 -70 71 1400 VRB/03 RMK AO2 T02780222
13942KMLU MLU20190910193510309/10/19 19:35:31  5-MIN KMLU 110135Z 00000KT 10SM CLR 28/22 A3009 -70 71 1400 000/00 RMK AO2 T02780222
13942KMLU MLU20190910194010309/10/19 19:40:31  5-MIN KMLU 110140Z 00000KT 10SM CLR 27/22 A3009 -70 74 1400 000/00 RMK AO2 T02720222
13942KMLU MLU20190910194510309/10/19 19:45:31  5-MIN KMLU 110145Z 11003KT 10SM CLR 28/22 A3009 -70 71 1400 110/03 RMK AO2 T02780222
13942KMLU MLU20190910195010909/10/19 19:50:31  5-MIN KMLU 110150Z 09003KT 10SM CLR 28/22 A3009 -70 71 1400 090/03 RMK AO2 SLPNO T02780222
13942KMLU MLU20190910195510309/10/19 19:55:31  5-MIN KMLU 110155Z 09003KT 10SM CLR 27/22 A3009 -70 71 1400 080/03 RMK AO2 T02720217
13942KMLU MLU20190910200010309/10/19 20:00:31  5-MIN KMLU 110200Z 00000KT 10SM CLR 27/22 A3010 -80 71 1400 000/00 RMK AO2 T02720217
13942KMLU MLU20190910200510309/10/19 20:05:31  5-MIN KMLU 110205Z 10003KT 10SM CLR 28/22 A3010 -80 69 1400 100/03 RMK AO2 T02780217
13942KMLU MLU20190910201010309/10/19 20:10:31  5-MIN KMLU 110210Z 00000KT 10SM CLR 27/22 A3010 -80 71 1300 000/00 RMK AO2 T02720217
13942KMLU MLU20190910201510309/10/19 20:15:31  5-MIN KMLU 110215Z 09003KT 10SM CLR 27/22 A3010 -80 71 1300 090/03 RMK AO2 T02720217
13942KMLU MLU20190910202010309/10/19 20:20:31  5-MIN KMLU 110220Z 08004KT 10SM CLR 27/22 A3010 -80 71 1300 080/04 RMK AO2 T02720217
13942KMLU MLU20190910202510309/10/19 20:25:31  5-MIN KMLU 110225Z 08005KT 10SM CLR 27/22 A3010 -80 73 1300 080/05 RMK AO2 T02670217
13942KMLU MLU20190910203010309/10/19 20:30:31  5-MIN KMLU 110230Z 08005KT 10SM CLR 27/21 A3011 -90 69 1300 080/05 RMK AO2 T02720211
13942KMLU MLU20190910203510309/10/19 20:35:31  5-MIN KMLU 110235Z 09003KT 10SM CLR 27/21 A3011 -90 69 1300 090/03 RMK AO2 T02720211
13942KMLU MLU20190910204010309/10/19 20:40:31  5-MIN KMLU 110240Z 11003KT 10SM CLR 27/21 A3012 -90 69 1300 100/03 RMK AO2 T02720211
13942KMLU MLU20190910204510409/10/19 20:45:31  5-MIN KMLU 110245Z 11003KT 10SM CLR 27/21 A3012 -100 69 1300 110/03 RMK AO2 T02720211
13942KMLU MLU20190910205011609/10/19 20:50:31  5-MIN KMLU 110250Z 11003KT 10SM CLR 28/21 A3012 -100 66 1400 110/03 RMK AO2 SLPNO T02780211 55002
13942KMLU MLU20190910205510909/10/19 20:55:31  5-MIN KMLU 110255Z AUTO 13003KT 10SM CLR 27/21 A3012 -100 69 1300 120/03 RMK AO2 T02720211
13942KMLU MLU20190910210010909/10/19 21:00:31  5-MIN KMLU 110300Z AUTO 00000KT 10SM CLR 27/21 A3012 -100 69 1300 000/00 RMK AO2 T02720211
13942KMLU MLU20190910210510909/10/19 21:05:31  5-MIN KMLU 110305Z AUTO 00000KT 10SM CLR 27/21 A3012 -100 69 1300 000/00 RMK AO2 T02720211
13942KMLU MLU20190910211010909/10/19 21:10:31  5-MIN KMLU 110310Z AUTO 00000KT 10SM CLR 27/21 A3012 -100 69 1300 000/00 RMK AO2 T02720211
13942KMLU MLU20190910211510909/10/19 21:15:31  5-MIN KMLU 110315Z AUTO 00000KT 10SM CLR 27/21 A3012 -100 71 1300 000/00 RMK AO2 T02670211
13942KMLU MLU20190910212010909/10/19 21:20:31  5-MIN KMLU 110320Z AUTO 00000KT 10SM CLR 27/21 A3012 -100 71 1300 000/00 RMK AO2 T02670211
13942KMLU MLU20190910212510909/10/19 21:25:31  5-MIN KMLU 110325Z AUTO 00000KT 10SM CLR 27/21 A3012 -100 71 1300 000/00 RMK AO2 T02670211
13942KMLU MLU20190910213010909/10/19 21:30:31  5-MIN KMLU 110330Z AUTO 00000KT 10SM CLR 27/22 A3012 -100 73 1300 000/00 RMK AO2 T02670217
13942KMLU MLU20190910213510909/10/19 21:35:31  5-MIN KMLU 110335Z AUTO 00000KT 10SM CLR 27/22 A3013 -100 73 1300 000/00 RMK AO2 T02670217
13942KMLU MLU20190910214010909/10/19 21:40:31  5-MIN KMLU 110340Z AUTO 00000KT 10SM CLR 26/22 A3013 -110 79 1200 000/00 RMK AO2 T02610222
13942KMLU MLU20190910214510909/10/19 21:45:31  5-MIN KMLU 110345Z AUTO 00000KT 10SM CLR 26/22 A3013 -110 76 1200 000/00 RMK AO2 T02610217
13942KMLU MLU20190910215011609/10/19 21:50:31  5-MIN KMLU 110350Z AUTO 00000KT 10SM CLR 26/22 A3013 -110 76 1200 000/00 RMK AO2 SLP201 T02610217
13942KMLU MLU20190910215510909/10/19 21:55:31  5-MIN KMLU 110355Z AUTO 16003KT 10SM CLR 26/22 A3013 -110 81 1100 160/03 RMK AO2 T02560222
13942KMLU MLU20190910220010909/10/19 22:00:31  5-MIN KMLU 110400Z AUTO 00000KT 10SM CLR 26/22 A3013 -110 79 1100 000/00 RMK AO2 T02560217
13942KMLU MLU20190910220510909/10/19 22:05:31  5-MIN KMLU 110405Z AUTO 00000KT 10SM CLR 26/22 A3013 -110 79 1200 000/00 RMK AO2 T02610222
13942KMLU MLU20190910221010909/10/19 22:10:31  5-MIN KMLU 110410Z AUTO 16003KT 10SM CLR 26/22 A3013 -110 76 1200 160/03 RMK AO2 T02610217
13942KMLU MLU20190910221510909/10/19 22:15:31  5-MIN KMLU 110415Z AUTO 00000KT 10SM CLR 26/22 A3013 -110 76 1200 000/00 RMK AO2 T02610217
13942KMLU MLU20190910222010909/10/19 22:20:31  5-MIN KMLU 110420Z AUTO 00000KT 10SM CLR 26/22 A3013 -110 76 1200 000/00 RMK AO2 T02610217
13942KMLU MLU20190910222510909/10/19 22:25:31  5-MIN KMLU 110425Z AUTO 00000KT 10SM CLR 26/22 A3013 -110 81 1100 000/00 RMK AO2 T02560222
13942KMLU MLU20190910223010909/10/19 22:30:31  5-MIN KMLU 110430Z AUTO 16003KT 10SM CLR 26/22 A3013 -100 79 1100 160/03 RMK AO2 T02560217
13942KMLU MLU20190910223510909/10/19 22:35:31  5-MIN KMLU 110435Z AUTO 00000KT 10SM CLR 26/22 A3013 -110 76 1200 000/00 RMK AO2 T02610217
13942KMLU MLU20190910224010909/10/19 22:40:31  5-MIN KMLU 110440Z AUTO 21007KT 10SM CLR 26/22 A3013 -100 79 1100 210/07 RMK AO2 T02560217
13942KMLU MLU20190910224510909/10/19 22:45:31  5-MIN KMLU 110445Z AUTO 00000KT 10SM CLR 26/22 A3013 -100 79 1100 000/00 RMK AO2 T02560217
13942KMLU MLU20190910225011609/10/19 22:50:31  5-MIN KMLU 110450Z AUTO 00000KT 10SM CLR 26/22 A3013 -100 76 1200 000/00 RMK AO2 SLP200 T02610217
13942KMLU MLU20190910225510909/10/19 22:55:31  5-MIN KMLU 110455Z AUTO 20003KT 10SM CLR 25/22 A3013 -110 81 1100 200/03 RMK AO2 T02500217
13942KMLU MLU20190910230010909/10/19 23:00:31  5-MIN KMLU 110500Z AUTO 00000KT 10SM CLR 24/22 A3013 -110 84 1000 000/00 RMK AO2 T02440217
13942KMLU MLU20190910230510909/10/19 23:05:31  5-MIN KMLU 110505Z AUTO 00000KT 10SM CLR 25/22 A3013 -110 81 1100 000/00 RMK AO2 T02500217
13942KMLU MLU20190910231010909/10/19 23:10:31  5-MIN KMLU 110510Z AUTO 00000KT 10SM CLR 25/22 A3013 -110 81 1100 000/00 RMK AO2 T02500217
13942KMLU MLU20190910231510909/10/19 23:15:31  5-MIN KMLU 110515Z AUTO 00000KT 10SM CLR 25/22 A3013 -110 81 1100 000/00 RMK AO2 T02500217
13942KMLU MLU20190910232010909/10/19 23:20:31  5-MIN KMLU 110520Z AUTO 00000KT 10SM CLR 25/22 A3013 -110 81 1100 000/00 RMK AO2 T02500217
13942KMLU MLU20190910232510909/10/19 23:25:31  5-MIN KMLU 110525Z AUTO 00000KT 10SM CLR 24/22 A3013 -110 87 1000 000/00 RMK AO2 T02440222
13942KMLU MLU20190910233010909/10/19 23:30:31  5-MIN KMLU 110530Z AUTO 00000KT 10SM CLR 24/22 A3013 -110 87 1000 000/00 RMK AO2 T02440222
13942KMLU MLU20190910233510909/10/19 23:35:31  5-MIN KMLU 110535Z AUTO 00000KT 10SM CLR 24/22 A3013 -110 87 1000 000/00 RMK AO2 T02440222
13942KMLU MLU20190910234010809/10/19 23:40:31  5-MIN KMLU 110540Z AUTO 00000KT 10SM CLR 24/22 A3013 -110 90 900 000/00 RMK AO2 T02390222
13942KMLU MLU20190910234510909/10/19 23:45:31  5-MIN KMLU 110545Z AUTO 00000KT 10SM CLR 24/22 A3013 -110 87 1000 000/00 RMK AO2 T02440222
13942KMLU MLU20190910235013309/10/19 23:50:31  5-MIN KMLU 110550Z AUTO 00000KT 10SM CLR 24/23 A3013 -110 93 900 000/00 RMK AO2 SLP203 T02390228 10317 20239 53013
13942KMLU MLU20190910235510809/10/19 23:55:31  5-MIN KMLU 110555Z AUTO 00000KT 10SM CLR 24/22 A3014 -110 90 900 000/00 RMK AO2 T02390222
13942KMLU MLU20190911000010809/11/19 00:00:31  5-MIN KMLU 110600Z AUTO 00000KT 10SM CLR 24/22 A3014 -110 90 900 000/00 RMK AO2 T02390222
13942KMLU MLU20190911000510809/11/19 00:05:31  5-MIN KMLU 110605Z AUTO 00000KT 10SM CLR 24/22 A3014 -120 90 900 000/00 RMK AO2 T02390222
13942KMLU MLU20190911001010809/11/19 00:10:31  5-MIN KMLU 110610Z AUTO 00000KT 10SM CLR 24/22 A3014 -120 90 900 000/00 RMK AO2 T02390222
13942KMLU MLU20190911001510809/11/19 00:15:31  5-MIN KMLU 110615Z AUTO 00000KT 10SM CLR 23/22 A3014 -120 93 900 000/00 RMK AO2 T02330222
13942KMLU MLU20190911002010809/11/19 00:20:31  5-MIN KMLU 110620Z AUTO 00000KT 10SM CLR 24/22 A3014 -120 90 900 000/00 RMK AO2 T02390222
13942KMLU MLU20190911002510809/11/19 00:25:31  5-MIN KMLU 110625Z AUTO 00000KT 10SM CLR 24/22 A3014 -110 90 900 000/00 RMK AO2 T02390222
13942KMLU MLU20190911003010809/11/19 00:30:31  5-MIN KMLU 110630Z AUTO 14003KT 10SM CLR 24/22 A3014 -110 90 900 140/03 RMK AO2 T02390222
13942KMLU MLU20190911003510809/11/19 00:35:31  5-MIN KMLU 110635Z AUTO 15003KT 10SM CLR 24/22 A3014 -120 90 900 150/03 RMK AO2 T02390222
13942KMLU MLU20190911004010809/11/19 00:40:31  5-MIN KMLU 110640Z AUTO 15003KT 10SM CLR 24/22 A3014 -120 90 900 150/03 RMK AO2 T02390222
13942KMLU MLU20190911004510809/11/19 00:45:31  5-MIN KMLU 110645Z AUTO 16003KT 10SM CLR 24/22 A3014 -110 90 900 160/03 RMK AO2 T02390222
13942KMLU MLU20190911005011509/11/19 00:50:31  5-MIN KMLU 110650Z AUTO 00000KT 10SM CLR 24/22 A3014 -110 90 900 000/00 RMK AO2 SLP203 T02390222
13942KMLU MLU20190911005510809/11/19 00:55:31  5-MIN KMLU 110655Z AUTO 00000KT 10SM CLR 24/22 A3014 -110 90 900 000/00 RMK AO2 T02390222
13942KMLU MLU20190911010010809/11/19 01:00:31  5-MIN KMLU 110700Z AUTO 00000KT 10SM CLR 24/22 A3013 -110 90 900 000/00 RMK AO2 T02390222
13942KMLU MLU20190911010510909/11/19 01:05:31  5-MIN KMLU 110705Z AUTO 16003KT 10SM CLR 24/22 A3013 -110 87 1000 160/03 RMK AO2 T02440222
13942KMLU MLU20190911011010909/11/19 01:10:31  5-MIN KMLU 110710Z AUTO 00000KT 10SM CLR 24/22 A3013 -110 87 1000 000/00 RMK AO2 T02440222
13942KMLU MLU20190911011510809/11/19 01:15:31  5-MIN KMLU 110715Z AUTO 00000KT 10SM CLR 24/22 A3013 -110 90 900 000/00 RMK AO2 T02390222
13942KMLU MLU20190911012010809/11/19 01:20:31  5-MIN KMLU 110720Z AUTO 00000KT 10SM CLR 24/22 A3013 -110 87 900 000/00 RMK AO2 T02390217
13942KMLU MLU20190911012510809/11/19 01:25:31  5-MIN KMLU 110725Z AUTO 00000KT 10SM CLR 23/22 A3013 -110 90 900 000/00 RMK AO2 T02330217
13942KMLU MLU20190911013010809/11/19 01:30:31  5-MIN KMLU 110730Z AUTO 13003KT 10SM CLR 24/22 A3013 -110 87 900 130/03 RMK AO2 T02390217
13942KMLU MLU20190911013510909/11/19 01:35:31  5-MIN KMLU 110735Z AUTO VRB04KT 10SM CLR 24/22 A3013 -110 87 1000 VRB/04 RMK AO2 T02440222
13942KMLU MLU20190911014010909/11/19 01:40:31  5-MIN KMLU 110740Z AUTO 13003KT 10SM CLR 24/22 A3013 -110 87 1000 130/03 RMK AO2 T02440222
13942KMLU MLU20190911014510909/11/19 01:45:31  5-MIN KMLU 110745Z AUTO 14004KT 10SM CLR 24/22 A3013 -110 87 1000 140/04 RMK AO2 T02440222
13942KMLU MLU20190911015011609/11/19 01:50:31  5-MIN KMLU 110750Z AUTO 16004KT 10SM CLR 24/22 A3013 -110 87 1000 160/04 RMK AO2 SLP202 T02440222
13942KMLU MLU20190911015510909/11/19 01:55:31  5-MIN KMLU 110755Z AUTO VRB03KT 10SM CLR 24/22 A3013 -110 87 1000 VRB/03 RMK AO2 T02440222
13942KMLU MLU20190911020010909/11/19 02:00:31  5-MIN KMLU 110800Z AUTO 16003KT 10SM CLR 24/22 A3013 -110 87 1000 160/03 RMK AO2 T02440222
13942KMLU MLU20190911020510909/11/19 02:05:31  5-MIN KMLU 110805Z AUTO VRB03KT 10SM CLR 24/22 A3013 -110 87 1000 VRB/03 RMK AO2 T02440222
13942KMLU MLU20190911021010909/11/19 02:10:31  5-MIN KMLU 110810Z AUTO 17004KT 10SM CLR 24/22 A3013 -110 87 1000 160/04 RMK AO2 T02440222
13942KMLU MLU20190911021510909/11/19 02:15:31  5-MIN KMLU 110815Z AUTO 16004KT 10SM CLR 24/22 A3013 -110 87 1000 160/04 RMK AO2 T02440222
13942KMLU MLU20190911022010909/11/19 02:20:31  5-MIN KMLU 110820Z AUTO 00000KT 10SM CLR 24/22 A3013 -110 87 1000 000/00 RMK AO2 T02440222
13942KMLU MLU20190911022510909/11/19 02:25:31  5-MIN KMLU 110825Z AUTO VRB03KT 10SM CLR 24/22 A3013 -110 87 1000 VRB/03 RMK AO2 T02440222
13942KMLU MLU20190911023010909/11/19 02:30:31  5-MIN KMLU 110830Z AUTO 00000KT 10SM CLR 24/22 A3013 -110 87 1000 000/00 RMK AO2 T02440222
13942KMLU MLU20190911023510909/11/19 02:35:31  5-MIN KMLU 110835Z AUTO 00000KT 10SM CLR 24/22 A3013 -110 87 1000 000/00 RMK AO2 T02440222
13942KMLU MLU20190911024010809/11/19 02:40:31  5-MIN KMLU 110840Z AUTO 00000KT 10SM CLR 24/22 A3013 -110 90 900 000/00 RMK AO2 T02390222
13942KMLU MLU20190911024510909/11/19 02:45:31  5-MIN KMLU 110845Z AUTO 15003KT 10SM CLR 24/22 A3013 -110 87 1000 150/03 RMK AO2 T02440222
13942KMLU MLU20190911025012209/11/19 02:50:31  5-MIN KMLU 110850Z AUTO 00000KT 10SM CLR 24/22 A3013 -110 87 1000 000/00 RMK AO2 SLP201 T02440222 51004
13942KMLU MLU20190911025510809/11/19 02:55:31  5-MIN KMLU 110855Z AUTO 00000KT 10SM CLR 24/22 A3013 -110 90 900 000/00 RMK AO2 T02390222
13942KMLU MLU20190911030010809/11/19 03:00:31  5-MIN KMLU 110900Z AUTO 00000KT 10SM CLR 24/22 A3013 -100 90 900 000/00 RMK AO2 T02390222
13942KMLU MLU20190911030510809/11/19 03:05:31  5-MIN KMLU 110905Z AUTO 00000KT 10SM CLR 23/22 A3013 -110 90 900 000/00 RMK AO2 T02330217
13942KMLU MLU20190911031010809/11/19 03:10:31  5-MIN KMLU 110910Z AUTO 00000KT 10SM CLR 23/22 A3013 -110 90 900 000/00 RMK AO2 T02330217
13942KMLU MLU20190911031510709/11/19 03:15:31  5-MIN KMLU 110915Z AUTO 00000KT 9SM CLR 23/22 A3013 -110 90 900 000/00 RMK AO2 T02330217
13942KMLU MLU20190911032010709/11/19 03:20:31  5-MIN KMLU 110920Z AUTO 00000KT 9SM CLR 23/22 A3014 -110 90 900 000/00 RMK AO2 T02330217
13942KMLU MLU20190911032510709/11/19 03:25:31  5-MIN KMLU 110925Z AUTO 00000KT 9SM CLR 23/22 A3014 -110 90 900 000/00 RMK AO2 T02330217
13942KMLU MLU20190911033010709/11/19 03:30:31  5-MIN KMLU 110930Z AUTO 00000KT 9SM CLR 23/22 A3014 -110 90 900 000/00 RMK AO2 T02330217
13942KMLU MLU20190911033510709/11/19 03:35:31  5-MIN KMLU 110935Z AUTO 00000KT 9SM CLR 23/22 A3014 -120 90 900 000/00 RMK AO2 T02330217
13942KMLU MLU20190911034010709/11/19 03:40:31  5-MIN KMLU 110940Z AUTO 00000KT 8SM CLR 23/22 A3014 -120 90 900 000/00 RMK AO2 T02330217
13942KMLU MLU20190911034510709/11/19 03:45:31  5-MIN KMLU 110945Z AUTO 00000KT 8SM CLR 23/22 A3014 -120 90 900 000/00 RMK AO2 T02330217
13942KMLU MLU20190911035011409/11/19 03:50:31  5-MIN KMLU 110950Z AUTO 00000KT 8SM CLR 23/22 A3014 -120 90 900 000/00 RMK AO2 SLP205 T02330217
13942KMLU MLU20190911035510709/11/19 03:55:31  5-MIN KMLU 110955Z AUTO 00000KT 8SM CLR 23/22 A3014 -120 93 800 000/00 RMK AO2 T02280217
13942KMLU MLU20190911040010709/11/19 04:00:31  5-MIN KMLU 111000Z AUTO 00000KT 7SM CLR 23/22 A3014 -120 93 800 000/00 RMK AO2 T02280217
13942KMLU MLU20190911040510709/11/19 04:05:31  5-MIN KMLU 111005Z AUTO 00000KT 7SM CLR 23/22 A3014 -120 93 800 000/00 RMK AO2 T02280217
13942KMLU MLU20190911041010709/11/19 04:10:31  5-MIN KMLU 111010Z AUTO 00000KT 7SM CLR 23/22 A3015 -120 93 800 000/00 RMK AO2 T02280217
13942KMLU MLU20190911041510709/11/19 04:15:31  5-MIN KMLU 111015Z AUTO 00000KT 7SM CLR 23/22 A3015 -120 93 800 000/00 RMK AO2 T02280217
13942KMLU MLU20190911042010709/11/19 04:20:31  5-MIN KMLU 111020Z AUTO 00000KT 7SM CLR 23/22 A3015 -120 97 800 000/00 RMK AO2 T02280222
13942KMLU MLU20190911042511009/11/19 04:25:31  5-MIN KMLU 111025Z AUTO 00000KT 6SM BR CLR 23/22 A3015 -120 97 800 000/00 RMK AO2 T02280222
13942KMLU MLU20190911043011009/11/19 04:30:31  5-MIN KMLU 111030Z AUTO 00000KT 6SM BR CLR 23/22 A3015 -130 93 800 000/00 RMK AO2 T02280217
13942KMLU MLU20190911043511009/11/19 04:35:31  5-MIN KMLU 111035Z AUTO 00000KT 5SM BR CLR 23/22 A3015 -130 93 800 000/00 RMK AO2 T02280217
13942KMLU MLU20190911044011009/11/19 04:40:31  5-MIN KMLU 111040Z AUTO 00000KT 5SM BR CLR 23/22 A3015 -130 93 800 000/00 RMK AO2 T02280217
13942KMLU MLU20190911044511009/11/19 04:45:31  5-MIN KMLU 111045Z AUTO 00000KT 6SM BR CLR 23/22 A3015 -130 93 800 000/00 RMK AO2 T02280217
13942KMLU MLU20190911045011209/11/19 04:50:31  5-MIN KMLU 111050Z 00000KT 6SM BR CLR 23/22 A3015 -130 93 800 000/00 RMK AO2 SLP209 T02280217
13942KMLU MLU20190911045510509/11/19 04:55:31  5-MIN KMLU 111055Z 00000KT 4SM BR CLR 23/22 A3015 -130 93 800 000/00 RMK AO2 T02280217
13942KMLU MLU20190911050012109/11/19 05:00:31  5-MIN KMLU 111100Z 00000KT 2 1/2SM BR CLR 23/22 A3015 -130 93 800 000/00 RMK AO2 VIS 1 1/2V4 T02280217
13942KMLU MLU20190911050512109/11/19 05:05:31  5-MIN KMLU 111105Z 00000KT 2 1/2SM BR CLR 23/22 A3015 -130 93 800 000/00 RMK AO2 VIS 1 1/2V3 T02280217
13942KMLU MLU20190911051010509/11/19 05:10:31  5-MIN KMLU 111110Z 00000KT 3SM BR CLR 22/22 A3016 -130 97 700 000/00 RMK AO2 T02220217
13942KMLU MLU20190911051510909/11/19 05:15:31  5-MIN KMLU 111115Z 00000KT 2 1/2SM BR CLR 22/22 A3016 -130 97 700 000/00 RMK AO2 T02220217
13942KMLU MLU20190911052012109/11/19 05:20:31  5-MIN KMLU 111120Z 00000KT 2 1/2SM BR CLR 22/21 A3016 -130 93 700 000/00 RMK AO2 VIS 1 1/4V4 T02220211
13942KMLU MLU20190911052510509/11/19 05:25:31  5-MIN KMLU 111125Z 00000KT 4SM BR CLR 22/21 A3016 -140 93 700 000/00 RMK AO2 T02220211
13942KMLU MLU20190911053010509/11/19 05:30:31  5-MIN KMLU 111130Z 00000KT 5SM BR CLR 22/22 A3016 -140 97 700 000/00 RMK AO2 T02220217
13942KMLU MLU20190911053510509/11/19 05:35:31  5-MIN KMLU 111135Z 00000KT 5SM BR CLR 22/22 A3016 -140 97 700 000/00 RMK AO2 T02220217
13942KMLU MLU20190911054010509/11/19 05:40:31  5-MIN KMLU 111140Z 00000KT 5SM BR CLR 22/22 A3017 -140 97 700 000/00 RMK AO2 T02220217
13942KMLU MLU20190911054510509/11/19 05:45:31  5-MIN KMLU 111145Z 00000KT 5SM BR CLR 22/22 A3017 -140 97 700 000/00 RMK AO2 T02220217
13942KMLU MLU20190911055013009/11/19 05:50:31  5-MIN KMLU 111150Z 00000KT 4SM BR CLR 22/22 A3017 -140 97 700 000/00 RMK AO2 SLP213 T02220217 10244 20222 58002
13942KMLU MLU20190911055510509/11/19 05:55:31  5-MIN KMLU 111155Z 00000KT 3SM BR CLR 22/21 A3017 -140 93 700 000/00 RMK AO2 T02220211
13942KMLU MLU20190911060010909/11/19 06:00:31  5-MIN KMLU 111200Z 00000KT 2 1/2SM BR CLR 22/21 A3017 -140 93 700 000/00 RMK AO2 T02220211
13942KMLU MLU20190911060510509/11/19 06:05:31  5-MIN KMLU 111205Z 00000KT 3SM BR CLR 22/22 A3017 -150 97 700 000/00 RMK AO2 T02220217
13942KMLU MLU20190911061010509/11/19 06:10:31  5-MIN KMLU 111210Z 00000KT 5SM BR CLR 22/22 A3017 -150 97 700 000/00 RMK AO2 T02220217
13942KMLU MLU20190911061510509/11/19 06:15:31  5-MIN KMLU 111215Z 00000KT 4SM BR CLR 22/22 A3017 -150 97 700 000/00 RMK AO2 T02220217
13942KMLU MLU20190911062010509/11/19 06:20:31  5-MIN KMLU 111220Z 00000KT 3SM BR CLR 22/22 A3017 -150 97 700 000/00 RMK AO2 T02220217
13942KMLU MLU20190911062510509/11/19 06:25:31  5-MIN KMLU 111225Z 00000KT 3SM BR CLR 22/22 A3018 -150 97 700 000/00 RMK AO2 T02220217
13942KMLU MLU20190911063010509/11/19 06:30:31  5-MIN KMLU 111230Z 00000KT 5SM BR CLR 23/22 A3018 -150 97 800 000/00 RMK AO2 T02280222
13942KMLU MLU20190911063510509/11/19 06:35:31  5-MIN KMLU 111235Z 00000KT 5SM BR CLR 23/22 A3018 -150 93 800 000/00 RMK AO2 T02330222
13942KMLU MLU20190911064010509/11/19 06:40:31  5-MIN KMLU 111240Z 00000KT 5SM BR CLR 23/22 A3018 -160 93 800 000/00 RMK AO2 T02330222
13942KMLU MLU20190911064510509/11/19 06:45:31  5-MIN KMLU 111245Z 00000KT 6SM BR CLR 24/23 A3018 -160 93 900 000/00 RMK AO2 T02390228
13942KMLU MLU20190911065011209/11/19 06:50:31  5-MIN KMLU 111250Z 00000KT 6SM BR CLR 24/23 A3018 -160 93 900 000/00 RMK AO2 SLP219 T02390228
13942KMLU MLU20190911065510209/11/19 06:55:31  5-MIN KMLU 111255Z 00000KT 7SM CLR 24/23 A3018 -160 90 900 000/00 RMK AO2 T02440228
13942KMLU MLU20190911070010209/11/19 07:00:31  5-MIN KMLU 111300Z 00000KT 7SM CLR 24/23 A3018 -160 90 900 000/00 RMK AO2 T02440228
13942KMLU MLU20190911070510309/11/19 07:05:31  5-MIN KMLU 111305Z 00000KT 8SM CLR 25/23 A3019 -160 87 1000 000/00 RMK AO2 T02500228
13942KMLU MLU20190911071010309/11/19 07:10:31  5-MIN KMLU 111310Z 00000KT 9SM CLR 25/23 A3018 -160 87 1000 000/00 RMK AO2 T02500228
13942KMLU MLU20190911071510409/11/19 07:15:31  5-MIN KMLU 111315Z 00000KT 10SM CLR 26/23 A3019 -160 87 1100 000/00 RMK AO2 T02560233
13942KMLU MLU20190911072010409/11/19 07:20:31  5-MIN KMLU 111320Z 00000KT 10SM CLR 26/23 A3019 -160 87 1100 000/00 RMK AO2 T02560233
13942KMLU MLU20190911072510409/11/19 07:25:31  5-MIN KMLU 111325Z 00000KT 10SM CLR 26/23 A3019 -160 84 1100 000/00 RMK AO2 T02610233
13942KMLU MLU20190911073010409/11/19 07:30:31  5-MIN KMLU 111330Z 00000KT 10SM CLR 26/23 A3019 -170 81 1100 000/00 RMK AO2 T02610228
13942KMLU MLU20190911073510409/11/19 07:35:31  5-MIN KMLU 111335Z 00000KT 10SM CLR 27/23 A3020 -170 82 1200 000/00 RMK AO2 T02670233
13942KMLU MLU20190911074010409/11/19 07:40:31  5-MIN KMLU 111340Z 00000KT 10SM CLR 26/23 A3020 -170 84 1100 000/00 RMK AO2 T02610233
13942KMLU MLU20190911074510409/11/19 07:45:31  5-MIN KMLU 111345Z 00000KT 10SM CLR 27/23 A3020 -170 82 1200 000/00 RMK AO2 T02670233
13942KMLU MLU20190911075011109/11/19 07:50:31  5-MIN KMLU 111350Z 00000KT 10SM CLR 27/23 A3020 -170 82 1200 000/00 RMK AO2 SLP225 T02670233
13942KMLU MLU20190911075510409/11/19 07:55:31  5-MIN KMLU 111355Z 00000KT 10SM CLR 27/23 A3020 -170 79 1200 000/00 RMK AO2 T02720233
13942KMLU MLU20190911080010409/11/19 08:00:31  5-MIN KMLU 111400Z 00000KT 10SM CLR 27/24 A3020 -180 82 1200 000/00 RMK AO2 T02720239
13942KMLU MLU20190911080510409/11/19 08:05:31  5-MIN KMLU 111405Z 18004KT 10SM CLR 28/24 A3020 -180 79 1300 180/04 RMK AO2 T02780239
13942KMLU MLU20190911081010409/11/19 08:10:31  5-MIN KMLU 111410Z 18003KT 10SM CLR 28/24 A3021 -180 79 1300 180/03 RMK AO2 T02780239
13942KMLU MLU20190911081510409/11/19 08:15:31  5-MIN KMLU 111415Z 17003KT 10SM CLR 28/24 A3021 -180 76 1400 170/03 RMK AO2 T02830239
13942KMLU MLU20190911082010409/11/19 08:20:31  5-MIN KMLU 111420Z 16003KT 10SM CLR 28/24 A3021 -180 76 1400 160/03 RMK AO2 T02830239
13942KMLU MLU20190911082510409/11/19 08:25:31  5-MIN KMLU 111425Z 19003KT 10SM CLR 28/24 A3021 -180 76 1400 190/03 RMK AO2 T02830239
13942KMLU MLU20190911083010409/11/19 08:30:31  5-MIN KMLU 111430Z 00000KT 10SM CLR 29/24 A3021 -180 74 1400 000/00 RMK AO2 T02890239
13942KMLU MLU20190911083510409/11/19 08:35:31  5-MIN KMLU 111435Z 16003KT 10SM CLR 29/24 A3021 -180 74 1400 160/03 RMK AO2 T02890239
13942KMLU MLU20190911084010409/11/19 08:40:31  5-MIN KMLU 111440Z 00000KT 10SM CLR 29/24 A3021 -180 74 1400 000/00 RMK AO2 T02890239
13942KMLU MLU20190911084510409/11/19 08:45:31  5-MIN KMLU 111445Z 00000KT 10SM CLR 29/24 A3021 -180 71 1500 000/00 RMK AO2 T02940239
13942KMLU MLU20190911085011709/11/19 08:50:31  5-MIN KMLU 111450Z 00000KT 10SM CLR 30/24 A3021 -180 72 1500 000/00 RMK AO2 SLP229 T03000244 53014
13942KMLU MLU20190911085510409/11/19 08:55:31  5-MIN KMLU 111455Z 14004KT 10SM CLR 30/24 A3021 -180 72 1500 140/04 RMK AO2 T03000244
13942KMLU MLU20190911090010409/11/19 09:00:31  5-MIN KMLU 111500Z 00000KT 10SM CLR 29/24 A3022 -190 74 1500 000/00 RMK AO2 T02940244
13942KMLU MLU20190911090510409/11/19 09:05:31  5-MIN KMLU 111505Z 13003KT 10SM CLR 30/24 A3021 -190 69 1500 130/03 RMK AO2 T03000239
13942KMLU MLU20190911091010409/11/19 09:10:31  5-MIN KMLU 111510Z VRB03KT 10SM CLR 30/24 A3021 -180 69 1500 VRB/03 RMK AO2 T03000239
13942KMLU MLU20190911091510409/11/19 09:15:31  5-MIN KMLU 111515Z VRB03KT 10SM CLR 30/24 A3021 -180 69 1500 VRB/03 RMK AO2 T03000239
13942KMLU MLU20190911092010409/11/19 09:20:31  5-MIN KMLU 111520Z 18003KT 10SM CLR 30/24 A3021 -180 69 1500 180/03 RMK AO2 T03000239
13942KMLU MLU20190911092510409/11/19 09:25:31  5-MIN KMLU 111525Z VRB03KT 10SM CLR 31/24 A3021 -180 67 1600 VRB/03 RMK AO2 T03060239
13942KMLU MLU20190911093010409/11/19 09:30:31  5-MIN KMLU 111530Z VRB04KT 10SM CLR 31/24 A3021 -180 67 1600 VRB/04 RMK AO2 T03060239
13942KMLU MLU20190911093510409/11/19 09:35:31  5-MIN KMLU 111535Z VRB03KT 10SM CLR 31/24 A3021 -180 65 1700 VRB/03 RMK AO2 T03110239
13942KMLU MLU20190911094010409/11/19 09:40:31  5-MIN KMLU 111540Z 00000KT 10SM CLR 31/24 A3021 -180 65 1700 000/00 RMK AO2 T03110239
13942KMLU MLU20190911094511409/11/19 09:45:31  5-MIN KMLU 111545Z 00000KT 10SM FEW025 FEW035 31/24 A3021 -180 67 1600 000/00 RMK AO2 T03060239
13942KMLU MLU20190911095012109/11/19 09:50:31  5-MIN KMLU 111550Z VRB03KT 10SM SCT027 SCT035 30/24 A3021 -180 69 1500 VRB/03 RMK AO2 SLP228 T03000239
13942KMLU MLU20190911095512109/11/19 09:55:31  5-MIN KMLU 111555Z 19003KT 10SM SCT025 SCT035 BKN044 30/24 A3021 -180 69 1500 190/03 RMK AO2 T03000239
13942KMLU MLU20190911100012109/11/19 10:00:31  5-MIN KMLU 111600Z 22003KT 10SM FEW027 SCT035 BKN044 30/23 A3020 -170 67 1500 210/03 RMK AO2 T03000233
13942KMLU MLU20190911100512109/11/19 10:05:31  5-MIN KMLU 111605Z 18003KT 10SM FEW027 SCT033 BKN044 31/24 A3020 -170 67 1600 180/03 RMK AO2 T03060239
13942KMLU MLU20190911101012109/11/19 10:10:31  5-MIN KMLU 111610Z 00000KT 10SM FEW027 SCT033 SCT044 31/23 A3020 -180 65 1600 000/00 RMK AO2 T03060233
13942KMLU MLU20190911101512109/11/19 10:15:31  5-MIN KMLU 111615Z VRB04KT 10SM FEW026 FEW037 SCT044 31/24 A3021 -180 65 1700 VRB/04 RMK AO2 T03110239
13942KMLU MLU20190911102011409/11/19 10:20:31  5-MIN KMLU 111620Z VRB03KT 10SM FEW035 FEW044 31/23 A3021 -180 63 1700 VRB/03 RMK AO2 T03110233
13942KMLU MLU20190911102510709/11/19 10:25:31  5-MIN KMLU 111625Z 20005KT 10SM FEW032 32/23 A3020 -170 59 1800 200/05 RMK AO2 T03220233
13942KMLU MLU20190911103010409/11/19 10:30:31  5-MIN KMLU 111630Z 22007KT 10SM CLR 32/23 A3020 -170 58 1700 220/07 RMK AO2 T03170228
13942KMLU MLU20190911103511409/11/19 10:35:31  5-MIN KMLU 111635Z VRB05KT 10SM FEW035 FEW046 32/23 A3020 -170 58 1700 VRB/05 RMK AO2 T03170228
13942KMLU MLU20190911104011409/11/19 10:40:31  5-MIN KMLU 111640Z VRB03KT 10SM FEW035 FEW046 32/23 A3019 -170 57 1800 VRB/03 RMK AO2 T03220228
13942KMLU MLU20190911104510409/11/19 10:45:31  5-MIN KMLU 111645Z VRB03KT 10SM CLR 32/22 A3019 -160 55 1800 VRB/03 RMK AO2 T03220222
13942KMLU MLU20190911105011109/11/19 10:50:31  5-MIN KMLU 111650Z VRB05KT 10SM CLR 33/22 A3019 -160 53 1900 VRB/05 RMK AO2 SLP222 T03280222
13942KMLU MLU20190911105510409/11/19 10:55:31  5-MIN KMLU 111655Z VRB03KT 10SM CLR 33/22 A3019 -160 51 1900 VRB/03 RMK AO2 T03330222
13942KMLU MLU20190911110010409/11/19 11:00:31  5-MIN KMLU 111700Z VRB03KT 10SM CLR 33/24 A3019 -160 59 1900 VRB/03 RMK AO2 T03280239
13942KMLU MLU20190911110510709/11/19 11:05:31  5-MIN KMLU 111705Z 00000KT 10SM FEW048 33/23 A3019 -160 57 1900 000/00 RMK AO2 T03280233
13942KMLU MLU20190911111010709/11/19 11:10:31  5-MIN KMLU 111710Z VRB04KT 10SM FEW048 33/23 A3018 -160 55 1900 VRB/04 RMK AO2 T03280228
13942KMLU MLU20190911111510709/11/19 11:15:31  5-MIN KMLU 111715Z 10004KT 10SM FEW047 33/22 A3018 -160 51 1900 100/04 RMK AO2 T03330222
13942KMLU MLU20190911112010709/11/19 11:20:31  5-MIN KMLU 111720Z VRB06KT 10SM FEW047 33/22 A3018 -150 50 1900 VRB/06 RMK AO2 T03330217
13942KMLU MLU20190911112510709/11/19 11:25:31  5-MIN KMLU 111725Z 17003KT 10SM FEW049 33/22 A3018 -160 51 1900 170/03 RMK AO2 T03280217
13942KMLU MLU20190911113010709/11/19 11:30:31  5-MIN KMLU 111730Z VRB03KT 10SM FEW049 33/22 A3018 -150 50 1900 VRB/03 RMK AO2 T03330217
13942KMLU MLU20190911113510709/11/19 11:35:31  5-MIN KMLU 111735Z 18007KT 10SM FEW049 34/22 A3018 -150 50 2000 180/07 RMK AO2 T03390222
13942KMLU MLU20190911114010709/11/19 11:40:31  5-MIN KMLU 111740Z 17005KT 10SM FEW049 33/22 A3018 -150 50 1900 170/05 RMK AO2 T03330217
13942KMLU MLU20190911114510409/11/19 11:45:31  5-MIN KMLU 111745Z VRB03KT 10SM CLR 33/21 A3017 -150 49 1900 VRB/03 RMK AO2 T03280211
13942KMLU MLU20190911115012909/11/19 11:50:31  5-MIN KMLU 111750Z 20004KT 10SM CLR 34/22 A3017 -150 48 2000 190/04 RMK AO2 SLP215 T03390217 10339 20222 51015
13942KMLU MLU20190911115509709/11/19 11:55:31  5-MIN KMLU 111755Z 10SM FEW050 34/21 A3017 -140 46 2000 M /M RMK AO2 T03390211
13942KMLU MLU20190911120010709/11/19 12:00:31  5-MIN KMLU 111800Z VRB03KT 10SM FEW050 34/21 A3017 -140 46 2000 VRB/03 RMK AO2 T03390211
13942KMLU MLU20190911120510709/11/19 12:05:31  5-MIN KMLU 111805Z VRB04KT 10SM FEW050 33/21 A3016 -140 48 2000 VRB/04 RMK AO2 T03330211
13942KMLU MLU20190911121010709/11/19 12:10:31  5-MIN KMLU 111810Z VRB03KT 10SM FEW050 33/21 A3016 -140 48 2000 VRB/03 RMK AO2 T03330211
13942KMLU MLU20190911121510709/11/19 12:15:31  5-MIN KMLU 111815Z VRB04KT 10SM SCT050 33/21 A3016 -140 46 2000 VRB/04 RMK AO2 T03330206
13942KMLU MLU20190911122010709/11/19 12:20:31  5-MIN KMLU 111820Z 18006KT 10SM FEW055 34/21 A3016 -140 43 2100 170/06 RMK AO2 T03440206
13942KMLU MLU20190911122510709/11/19 12:25:31  5-MIN KMLU 111825Z 20006KT 10SM FEW050 34/21 A3016 -130 45 2000 200/06 RMK AO2 T03390206
13942KMLU MLU20190911123010709/11/19 12:30:31  5-MIN KMLU 111830Z 00000KT 10SM FEW050 34/20 A3016 -130 43 2000 000/00 RMK AO2 T03390200
13942KMLU MLU20190911123510709/11/19 12:35:31  5-MIN KMLU 111835Z 17008KT 10SM FEW055 34/21 A3015 -130 43 2100 170/08 RMK AO2 T03440206
13942KMLU MLU20190911124010409/11/19 12:40:31  5-MIN KMLU 111840Z 19007KT 10SM CLR 34/21 A3015 -130 43 2100 190/07 RMK AO2 T03440206
13942KMLU MLU20190911124510409/11/19 12:45:31  5-MIN KMLU 111845Z 18005KT 10SM CLR 34/20 A3015 -120 42 2100 180/05 RMK AO2 T03440200
13942KMLU MLU20190911125011109/11/19 12:50:31  5-MIN KMLU 111850Z VRB05KT 10SM CLR 34/20 A3014 -120 42 2100 VRB/05 RMK AO2 SLP205 T03440200
13942KMLU MLU20190911125510409/11/19 12:55:31  5-MIN KMLU 111855Z 22004KT 10SM CLR 34/20 A3014 -120 42 2100 210/04 RMK AO2 T03440200
13942KMLU MLU20190911130010409/11/19 13:00:31  5-MIN KMLU 111900Z 19004KT 10SM CLR 34/20 A3014 -110 43 2000 190/04 RMK AO2 T03390200
13942KMLU MLU20190911130510409/11/19 13:05:31  5-MIN KMLU 111905Z 00000KT 10SM CLR 34/20 A3013 -110 42 2100 000/00 RMK AO2 T03440200
13942KMLU MLU20190911131009409/11/19 13:10:31  5-MIN KMLU 111910Z 10SM CLR 34/21 A3013 -110 43 2100 M /M RMK AO2 T03440206
13942KMLU MLU20190911131510409/11/19 13:15:31  5-MIN KMLU 111915Z 16006KT 10SM CLR 34/21 A3013 -100 43 2100 160/06 RMK AO2 T03440206
13942KMLU MLU20190911132010409/11/19 13:20:31  5-MIN KMLU 111920Z 18005KT 10SM CLR 35/20 A3012 -100 40 2200 180/05 RMK AO2 T03500200
13942KMLU MLU20190911132510409/11/19 13:25:31  5-MIN KMLU 111925Z VRB04KT 10SM CLR 36/20 A3012 -100 39 2200 VRB/04 RMK AO2 T03560200
13942KMLU MLU20190911133010409/11/19 13:30:31  5-MIN KMLU 111930Z VRB04KT 10SM CLR 34/21 A3012 -100 43 2100 VRB/04 RMK AO2 T03440206
13942KMLU MLU20190911133510309/11/19 13:35:31  5-MIN KMLU 111935Z 00000KT 10SM CLR 34/20 A3012 -90 42 2100 000/00 RMK AO2 T03440200
13942KMLU MLU20190911134010309/11/19 13:40:31  5-MIN KMLU 111940Z 17005KT 10SM CLR 35/20 A3012 -90 40 2200 170/05 RMK AO2 T03500200
13942KMLU MLU20190911134510309/11/19 13:45:31  5-MIN KMLU 111945Z 17007KT 10SM CLR 34/20 A3011 -90 42 2100 170/07 RMK AO2 T03440200
13942KMLU MLU20190911135011509/11/19 13:50:31  5-MIN KMLU 111950Z AUTO 16005KT 10SM CLR 33/20 A3011 -90 45 2000 160/05 RMK AO2 SLP194 T03330200
13942KMLU MLU20190911135510809/11/19 13:55:31  5-MIN KMLU 111955Z AUTO 13005KT 10SM CLR 34/20 A3011 -90 42 2100 130/05 RMK AO2 T03440200
13942KMLU MLU20190911140010309/11/19 14:00:31  5-MIN KMLU 112000Z 09004KT 10SM CLR 34/20 A3010 -80 42 2100 090/04 RMK AO2 T03440200
13942KMLU MLU20190911140510609/11/19 14:05:31  5-MIN KMLU 112005Z VRB03KT 10SM FEW060 35/20 A3010 -80 40 2200 VRB/03 RMK AO2 T03500200
13942KMLU MLU20190911141010609/11/19 14:10:31  5-MIN KMLU 112010Z 19006KT 10SM SCT060 35/21 A3010 -80 43 2200 190/06 RMK AO2 T03500211
13942KMLU MLU20190911141510609/11/19 14:15:31  5-MIN KMLU 112015Z 19005KT 10SM SCT060 35/21 A3009 -70 42 2200 190/05 RMK AO2 T03500206
13942KMLU MLU20190911142010609/11/19 14:20:31  5-MIN KMLU 112020Z 22003KT 10SM SCT060 35/21 A3009 -70 42 2200 210/03 RMK AO2 T03500206
13942KMLU MLU20190911142510609/11/19 14:25:31  5-MIN KMLU 112025Z 18007KT 10SM FEW060 35/21 A3009 -70 43 2200 180/07 RMK AO2 T03500211
13942KMLU MLU20190911143010609/11/19 14:30:31  5-MIN KMLU 112030Z VRB04KT 10SM SCT060 35/21 A3009 -70 42 2200 VRB/04 RMK AO2 T03500206
13942KMLU MLU20190911143509609/11/19 14:35:31  5-MIN KMLU 112035Z 10SM SCT065 36/21 A3009 -70 41 2300 M /M RMK AO2 T03560206
13942KMLU MLU20190911144010609/11/19 14:40:31  5-MIN KMLU 112040Z 18006KT 10SM SCT065 35/21 A3009 -70 43 2200 180/06 RMK AO2 T03500211
13942KMLU MLU20190911144510609/11/19 14:45:31  5-MIN KMLU 112045Z 16006KT 10SM SCT060 35/21 A3009 -70 43 2200 160/06 RMK AO2 T03500211
13942KMLU MLU20190911145011909/11/19 14:50:31  5-MIN KMLU 112050Z VRB03KT 10SM BKN060 35/20 A3009 -70 40 2200 VRB/03 RMK AO2 SLP187 T03500200 58014
13942KMLU MLU20190911145511309/11/19 14:55:31  5-MIN KMLU 112055Z 12003KT 10SM BKN065 BKN075 34/21 A3009 -70 43 2200 120/03 RMK AO2 T03440206
13942KMLU MLU20190911150011309/11/19 15:00:31  5-MIN KMLU 112100Z 13006KT 10SM BKN065 BKN080 34/21 A3008 -70 43 2200 130/06 RMK AO2 T03440206
13942KMLU MLU20190911150511309/11/19 15:05:31  5-MIN KMLU 112105Z 00000KT 10SM BKN065 BKN080 34/21 A3008 -60 45 2100 000/00 RMK AO2 T03390206
13942KMLU MLU20190911151011309/11/19 15:10:31  5-MIN KMLU 112110Z 09003KT 10SM SCT065 BKN100 34/21 A3008 -60 45 2100 090/03 RMK AO2 T03390206
13942KMLU MLU20190911151511309/11/19 15:15:31  5-MIN KMLU 112115Z VRB04KT 10SM SCT065 BKN100 34/21 A3008 -60 45 2100 VRB/04 RMK AO2 T03390206
13942KMLU MLU20190911152011309/11/19 15:20:31  5-MIN KMLU 112120Z 08003KT 10SM SCT065 BKN100 34/21 A3008 -60 46 2100 070/03 RMK AO2 T03390211
13942KMLU MLU20190911152511309/11/19 15:25:31  5-MIN KMLU 112125Z 10004KT 10SM SCT065 BKN100 34/21 A3008 -60 46 2100 100/04 RMK AO2 T03390211
13942KMLU MLU20190911153011309/11/19 15:30:31  5-MIN KMLU 112130Z 11003KT 10SM BKN065 BKN100 33/21 A3008 -60 48 2000 110/03 RMK AO2 T03330211
13942KMLU MLU20190911153511309/11/19 15:35:31  5-MIN KMLU 112135Z 00000KT 10SM SCT070 BKN100 33/21 A3008 -60 48 2100 000/00 RMK AO2 T03330211
13942KMLU MLU20190911154011309/11/19 15:40:31  5-MIN KMLU 112140Z 00000KT 10SM SCT065 BKN100 33/21 A3008 -60 48 2100 000/00 RMK AO2 T03330211
13942KMLU MLU20190911154512009/11/19 15:45:31  5-MIN KMLU 112145Z 00000KT 10SM SCT065 BKN090 OVC100 33/22 A3008 -60 50 2100 000/00 RMK AO2 T03330217
13942KMLU MLU20190911155012709/11/19 15:50:31  5-MIN KMLU 112150Z 00000KT 10SM FEW070 BKN090 OVC100 33/22 A3007 -60 50 2100 000/00 RMK AO2 SLP182 T03330217
13942KMLU MLU20190911155511309/11/19 15:55:31  5-MIN KMLU 112155Z 00000KT 10SM BKN080 BKN100 33/22 A3007 -50 50 2100 000/00 RMK AO2 T03330217
13942KMLU MLU20190911160011309/11/19 16:00:31  5-MIN KMLU 112200Z 00000KT 10SM BKN085 BKN100 33/22 A3007 -50 51 2100 000/00 RMK AO2 T03330222
13942KMLU MLU20190911160511309/11/19 16:05:31  5-MIN KMLU 112205Z 00000KT 10SM BKN085 OVC100 33/22 A3007 -50 51 2100 000/00 RMK AO2 T03330222
13942KMLU MLU20190911161010609/11/19 16:10:31  5-MIN KMLU 112210Z 00000KT 10SM OVC080 33/23 A3007 -50 57 2000 000/00 RMK AO2 T03280233
13942KMLU MLU20190911161510609/11/19 16:15:31  5-MIN KMLU 112215Z 16006KT 10SM OVC075 32/22 A3007 -50 55 1900 160/06 RMK AO2 T03220222
13942KMLU MLU20190911162012209/11/19 16:20:31  5-MIN KMLU 112220Z 20004KT 10SM -RA OVC080 31/22 A3007 -50 56 1800 200/04 RMK AO2 RAB17 P0000 T03110217
13942KMLU MLU20190911162512209/11/19 16:25:31  5-MIN KMLU 112225Z 16003KT 10SM -RA OVC075 32/22 A3007 -50 55 1900 150/03 RMK AO2 RAB17 P0000 T03170217
13942KMLU MLU20190911163012109/11/19 16:30:31  5-MIN KMLU 112230Z 00000KT 10SM BKN075 31/22 A3007 -50 58 1800 000/00 RMK AO2 RAB17E26 P0000 T03110222
13942KMLU MLU20190911163512109/11/19 16:35:31  5-MIN KMLU 112235Z 00000KT 10SM BKN075 31/22 A3007 -50 58 1800 000/00 RMK AO2 RAB17E26 P0000 T03110222
13942KMLU MLU20190911164012109/11/19 16:40:31  5-MIN KMLU 112240Z 00000KT 10SM SCT080 31/23 A3007 -50 65 1800 000/00 RMK AO2 RAB17E26 P0000 T03060233
13942KMLU MLU20190911164512809/11/19 16:45:31  5-MIN KMLU 112245Z 00000KT 10SM FEW080 SCT100 31/23 A3007 -50 62 1800 000/00 RMK AO2 RAB17E26 P0000 T03060228
13942KMLU MLU20190911165013509/11/19 16:50:31  5-MIN KMLU 112250Z 00000KT 10SM FEW075 SCT100 32/23 A3007 -50 58 1900 000/00 RMK AO2 RAB17E26 SLP180 P0000 T03170228
13942KMLU MLU20190911165511309/11/19 16:55:31  5-MIN KMLU 112255Z 00000KT 10SM FEW070 SCT095 33/22 A3007 -50 53 2000 000/00 RMK AO2 T03280222
13942KMLU MLU20190911170011309/11/19 17:00:31  5-MIN KMLU 112300Z 00000KT 10SM SCT080 BKN100 32/24 A3007 -50 61 1900 000/00 RMK AO2 T03220239
13942KMLU MLU20190911170511309/11/19 17:05:31  5-MIN KMLU 112305Z 00000KT 10SM SCT070 BKN085 32/24 A3007 -50 65 1900 000/00 RMK AO2 T03170244
13942KMLU MLU20190911171012009/11/19 17:10:31  5-MIN KMLU 112310Z 00000KT 10SM BKN070 BKN080 BKN100 32/24 A3007 -50 63 1900 000/00 RMK AO2 T03170239
13942KMLU MLU20190911171511309/11/19 17:15:31  5-MIN KMLU 112315Z 00000KT 10SM SCT070 BKN085 32/24 A3007 -50 61 1900 000/00 RMK AO2 T03220239
13942KMLU MLU20190911172011309/11/19 17:20:31  5-MIN KMLU 112320Z 00000KT 10SM SCT070 BKN085 32/25 A3007 -50 67 1900 000/00 RMK AO2 T03170250
13942KMLU MLU20190911172511309/11/19 17:25:31  5-MIN KMLU 112325Z 00000KT 10SM SCT070 SCT085 31/25 A3006 -50 69 1800 000/00 RMK AO2 T03110250
13942KMLU MLU20190911173010609/11/19 17:30:31  5-MIN KMLU 112330Z 00000KT 10SM FEW070 31/24 A3007 -50 65 1800 000/00 RMK AO2 T03110239
13942KMLU MLU20190911173510609/11/19 17:35:31  5-MIN KMLU 112335Z 00000KT 10SM FEW070 31/24 A3007 -50 65 1800 000/00 RMK AO2 T03110239
13942KMLU MLU20190911174010309/11/19 17:40:31  5-MIN KMLU 112340Z 00000KT 10SM CLR 31/24 A3007 -50 69 1800 000/00 RMK AO2 T03060244
13942KMLU MLU20190911174510309/11/19 17:45:31  5-MIN KMLU 112345Z 00000KT 10SM CLR 30/25 A3007 -50 74 1700 000/00 RMK AO2 T03000250
13942KMLU MLU20190911175013409/11/19 17:50:31  5-MIN KMLU 112350Z 00000KT 10SM CLR 30/25 A3006 -50 74 1700 000/00 RMK AO2 SLP179 60000 T03000250 10356 20300 56029
13942KMLU MLU20190911175510309/11/19 17:55:31  5-MIN KMLU 112355Z 00000KT 10SM CLR 29/25 A3007 -50 76 1600 000/00 RMK AO2 T02940250
13942KMLU MLU20190911180010309/11/19 18:00:31  5-MIN KMLU 120000Z 00000KT 10SM CLR 29/24 A3007 -50 74 1600 000/00 RMK AO2 T02940244
13942KMLU MLU20190911180510309/11/19 18:05:31  5-MIN KMLU 120005Z 00000KT 10SM CLR 28/24 A3006 -50 79 1500 000/00 RMK AO2 T02830244
13942KMLU MLU20190911181010309/11/19 18:10:31  5-MIN KMLU 120010Z 00000KT 10SM CLR 28/24 A3007 -50 76 1500 000/00 RMK AO2 T02830239
13942KMLU MLU20190911181510309/11/19 18:15:31  5-MIN KMLU 120015Z 00000KT 10SM CLR 28/24 A3007 -50 76 1500 000/00 RMK AO2 T02830239
13942KMLU MLU20190911182010309/11/19 18:20:31  5-MIN KMLU 120020Z 00000KT 10SM CLR 28/23 A3007 -50 74 1500 000/00 RMK AO2 T02830233
13942KMLU MLU20190911182510309/11/19 18:25:31  5-MIN KMLU 120025Z 00000KT 10SM CLR 28/24 A3007 -50 79 1400 000/00 RMK AO2 T02780239
13942KMLU MLU20190911183010309/11/19 18:30:31  5-MIN KMLU 120030Z 00000KT 10SM CLR 27/23 A3007 -50 79 1400 000/00 RMK AO2 T02720233
13942KMLU MLU20190911183510309/11/19 18:35:31  5-MIN KMLU 120035Z 00000KT 10SM CLR 27/23 A3007 -50 79 1400 000/00 RMK AO2 T02720233
13942KMLU MLU20190911184010309/11/19 18:40:31  5-MIN KMLU 120040Z 00000KT 10SM CLR 27/23 A3007 -50 79 1400 000/00 RMK AO2 T02720233
13942KMLU MLU20190911184510309/11/19 18:45:31  5-MIN KMLU 120045Z 00000KT 10SM CLR 27/23 A3007 -50 79 1400 000/00 RMK AO2 T02720233
13942KMLU MLU20190911185011009/11/19 18:50:31  5-MIN KMLU 120050Z 00000KT 10SM CLR 27/23 A3007 -50 82 1300 000/00 RMK AO2 SLP182 T02670233
13942KMLU MLU20190911185510309/11/19 18:55:31  5-MIN KMLU 120055Z 00000KT 10SM CLR 27/23 A3007 -50 82 1300 000/00 RMK AO2 T02670233
13942KMLU MLU20190911190010309/11/19 19:00:31  5-MIN KMLU 120100Z 08004KT 10SM CLR 27/23 A3007 -60 82 1300 080/04 RMK AO2 T02670233
13942KMLU MLU20190911190510309/11/19 19:05:31  5-MIN KMLU 120105Z 00000KT 10SM CLR 26/23 A3008 -60 81 1200 000/00 RMK AO2 T02610228
13942KMLU MLU20190911191010309/11/19 19:10:31  5-MIN KMLU 120110Z 10003KT 10SM CLR 26/23 A3008 -60 81 1200 100/03 RMK AO2 T02610228
13942KMLU MLU20190911191510309/11/19 19:15:31  5-MIN KMLU 120115Z 10003KT 10SM CLR 27/23 A3008 -60 79 1300 100/03 RMK AO2 T02670228
13942KMLU MLU20190911192010309/11/19 19:20:31  5-MIN KMLU 120120Z 00000KT 10SM CLR 27/23 A3008 -60 79 1300 000/00 RMK AO2 T02670228
13942KMLU MLU20190911192510309/11/19 19:25:31  5-MIN KMLU 120125Z 00000KT 10SM CLR 27/23 A3008 -60 79 1300 000/00 RMK AO2 T02670228
13942KMLU MLU20190911193010309/11/19 19:30:31  5-MIN KMLU 120130Z 00000KT 10SM CLR 27/23 A3008 -60 79 1300 000/00 RMK AO2 T02670228
13942KMLU MLU20190911193510309/11/19 19:35:31  5-MIN KMLU 120135Z 00000KT 10SM CLR 27/23 A3008 -60 76 1400 000/00 RMK AO2 T02720228
13942KMLU MLU20190911194010309/11/19 19:40:31  5-MIN KMLU 120140Z 00000KT 10SM CLR 27/22 A3009 -70 74 1400 000/00 RMK AO2 T02720222
13942KMLU MLU20190911194510309/11/19 19:45:31  5-MIN KMLU 120145Z 00000KT 10SM CLR 27/23 A3009 -70 79 1300 000/00 RMK AO2 T02670228
13942KMLU MLU20190911195011009/11/19 19:50:31  5-MIN KMLU 120150Z 00000KT 10SM CLR 26/23 A3009 -70 84 1200 000/00 RMK AO2 SLP188 T02610233
13942KMLU MLU20190911195510309/11/19 19:55:31  5-MIN KMLU 120155Z 00000KT 10SM CLR 26/23 A3010 -80 84 1200 000/00 RMK AO2 T02610233
13942KMLU MLU20190911200010309/11/19 20:00:31  5-MIN KMLU 120200Z 00000KT 10SM CLR 26/23 A3010 -80 84 1200 000/00 RMK AO2 T02610233
13942KMLU MLU20190911200510309/11/19 20:05:31  5-MIN KMLU 120205Z 00000KT 10SM CLR 26/23 A3010 -80 87 1200 000/00 RMK AO2 T02560233
13942KMLU MLU20190911201010309/11/19 20:10:31  5-MIN KMLU 120210Z 00000KT 10SM CLR 26/23 A3010 -80 81 1200 000/00 RMK AO2 T02610228
13942KMLU MLU20190911201510309/11/19 20:15:31  5-MIN KMLU 120215Z 00000KT 10SM CLR 26/23 A3010 -80 81 1200 000/00 RMK AO2 T02610228
13942KMLU MLU20190911202010309/11/19 20:20:31  5-MIN KMLU 120220Z 00000KT 10SM CLR 26/23 A3010 -80 81 1200 000/00 RMK AO2 T02610228
13942KMLU MLU20190911202510309/11/19 20:25:31  5-MIN KMLU 120225Z 00000KT 10SM CLR 26/23 A3010 -80 84 1200 000/00 RMK AO2 T02560228
13942KMLU MLU20190911203010309/11/19 20:30:31  5-MIN KMLU 120230Z 00000KT 10SM CLR 26/22 A3010 -80 81 1200 000/00 RMK AO2 T02560222
13942KMLU MLU20190911203510309/11/19 20:35:31  5-MIN KMLU 120235Z 00000KT 10SM CLR 26/22 A3010 -80 81 1200 000/00 RMK AO2 T02560222
13942KMLU MLU20190911204010309/11/19 20:40:31  5-MIN KMLU 120240Z 00000KT 10SM CLR 26/22 A3010 -80 81 1200 000/00 RMK AO2 T02560222
13942KMLU MLU20190911204510309/11/19 20:45:31  5-MIN KMLU 120245Z 00000KT 10SM CLR 26/22 A3011 -90 76 1200 000/00 RMK AO2 T02610217
13942KMLU MLU20190911205011609/11/19 20:50:31  5-MIN KMLU 120250Z 00000KT 10SM CLR 27/21 A3011 -90 69 1300 000/00 RMK AO2 SLP193 T02720211 56007
13942KMLU MLU20190911205510809/11/19 20:55:31  5-MIN KMLU 120255Z AUTO 00000KT 10SM CLR 27/21 A3011 -90 69 1300 000/00 RMK AO2 T02720211
13942KMLU MLU20190911210010809/11/19 21:00:31  5-MIN KMLU 120300Z AUTO 00000KT 10SM CLR 27/22 A3011 -90 73 1300 000/00 RMK AO2 T02670217
13942KMLU MLU20190911210510809/11/19 21:05:31  5-MIN KMLU 120305Z AUTO 00000KT 10SM CLR 26/22 A3011 -90 76 1200 000/00 RMK AO2 T02610217
13942KMLU MLU20190911211010809/11/19 21:10:31  5-MIN KMLU 120310Z AUTO 00000KT 10SM CLR 27/22 A3011 -90 73 1300 000/00 RMK AO2 T02670217
13942KMLU MLU20190911211510809/11/19 21:15:31  5-MIN KMLU 120315Z AUTO 12003KT 10SM CLR 27/21 A3011 -90 69 1300 120/03 RMK AO2 T02720211
13942KMLU MLU20190911212010809/11/19 21:20:31  5-MIN KMLU 120320Z AUTO 00000KT 10SM CLR 27/22 A3011 -90 73 1300 000/00 RMK AO2 T02670217
13942KMLU MLU20190911212510809/11/19 21:25:31  5-MIN KMLU 120325Z AUTO 15003KT 10SM CLR 27/22 A3011 -90 73 1300 150/03 RMK AO2 T02670217
13942KMLU MLU20190911213010809/11/19 21:30:31  5-MIN KMLU 120330Z AUTO 00000KT 10SM CLR 26/22 A3011 -90 76 1200 000/00 RMK AO2 T02610217
13942KMLU MLU20190911213510809/11/19 21:35:31  5-MIN KMLU 120335Z AUTO 00000KT 10SM CLR 26/22 A3011 -90 81 1100 000/00 RMK AO2 T02560222
13942KMLU MLU20190911214010809/11/19 21:40:31  5-MIN KMLU 120340Z AUTO 00000KT 10SM CLR 26/22 A3011 -90 81 1100 000/00 RMK AO2 T02560222
13942KMLU MLU20190911214510809/11/19 21:45:31  5-MIN KMLU 120345Z AUTO 00000KT 10SM CLR 26/22 A3011 -90 79 1100 000/00 RMK AO2 T02560217
13942KMLU MLU20190911215011509/11/19 21:50:31  5-MIN KMLU 120350Z AUTO 00000KT 10SM CLR 26/22 A3011 -90 79 1200 000/00 RMK AO2 SLP194 T02560217
13942KMLU MLU20190911215510809/11/19 21:55:31  5-MIN KMLU 120355Z AUTO 00000KT 10SM CLR 26/22 A3011 -90 79 1200 000/00 RMK AO2 T02560217
13942KMLU MLU20190911220010809/11/19 22:00:31  5-MIN KMLU 120400Z AUTO 00000KT 10SM CLR 25/22 A3011 -80 81 1100 000/00 RMK AO2 T02500217
13942KMLU MLU20190911220510809/11/19 22:05:31  5-MIN KMLU 120405Z AUTO 00000KT 10SM CLR 25/22 A3010 -80 81 1100 000/00 RMK AO2 T02500217
13942KMLU MLU20190911221010809/11/19 22:10:31  5-MIN KMLU 120410Z AUTO 12003KT 10SM CLR 25/22 A3010 -80 81 1100 120/03 RMK AO2 T02500217
13942KMLU MLU20190911221510809/11/19 22:15:31  5-MIN KMLU 120415Z AUTO 00000KT 10SM CLR 25/22 A3010 -80 81 1100 000/00 RMK AO2 T02500217
13942KMLU MLU20190911222010809/11/19 22:20:31  5-MIN KMLU 120420Z AUTO 00000KT 10SM CLR 25/22 A3010 -80 81 1100 000/00 RMK AO2 T02500217
13942KMLU MLU20190911222510809/11/19 22:25:31  5-MIN KMLU 120425Z AUTO 00000KT 10SM CLR 25/22 A3010 -80 81 1100 000/00 RMK AO2 T02500217
13942KMLU MLU20190911223010809/11/19 22:30:31  5-MIN KMLU 120430Z AUTO 00000KT 10SM CLR 25/22 A3010 -80 81 1100 000/00 RMK AO2 T02500217
13942KMLU MLU20190911223510809/11/19 22:35:31  5-MIN KMLU 120435Z AUTO 00000KT 10SM CLR 24/22 A3010 -80 84 1000 000/00 RMK AO2 T02440217
13942KMLU MLU20190911224010809/11/19 22:40:31  5-MIN KMLU 120440Z AUTO 00000KT 10SM CLR 24/22 A3010 -80 84 1000 000/00 RMK AO2 T02440217
13942KMLU MLU20190911224510809/11/19 22:45:31  5-MIN KMLU 120445Z AUTO 27003KT 10SM CLR 24/22 A3010 -80 87 1000 270/03 RMK AO2 T02390217
13942KMLU MLU20190911225011509/11/19 22:50:31  5-MIN KMLU 120450Z AUTO 00000KT 10SM CLR 24/22 A3011 -80 84 1000 000/00 RMK AO2 SLP193 T02440217
13942KMLU MLU20190911225510809/11/19 22:55:31  5-MIN KMLU 120455Z AUTO 00000KT 10SM CLR 24/22 A3011 -90 84 1000 000/00 RMK AO2 T02440217
13942KMLU MLU20190911230010809/11/19 23:00:31  5-MIN KMLU 120500Z AUTO 00000KT 10SM CLR 24/22 A3010 -80 84 1000 000/00 RMK AO2 T02440217
13942KMLU MLU20190911230510809/11/19 23:05:31  5-MIN KMLU 120505Z AUTO 00000KT 10SM CLR 24/22 A3010 -80 84 1000 000/00 RMK AO2 T02440217
13942KMLU MLU20190911231010809/11/19 23:10:31  5-MIN KMLU 120510Z AUTO 00000KT 10SM CLR 24/22 A3010 -80 87 1000 000/00 RMK AO2 T02390217
13942KMLU MLU20190911231510809/11/19 23:15:31  5-MIN KMLU 120515Z AUTO 00000KT 10SM CLR 24/22 A3010 -80 87 1000 000/00 RMK AO2 T02390217
13942KMLU MLU20190911232010809/11/19 23:20:31  5-MIN KMLU 120520Z AUTO 00000KT 10SM CLR 24/22 A3010 -80 87 1000 000/00 RMK AO2 T02390217
13942KMLU MLU20190911232510809/11/19 23:25:31  5-MIN KMLU 120525Z AUTO 00000KT 10SM CLR 24/22 A3010 -80 87 1000 000/00 RMK AO2 T02390217
13942KMLU MLU20190911233010809/11/19 23:30:31  5-MIN KMLU 120530Z AUTO 00000KT 10SM CLR 24/22 A3010 -80 87 1000 000/00 RMK AO2 T02390217
13942KMLU MLU20190911233510809/11/19 23:35:31  5-MIN KMLU 120535Z AUTO 00000KT 10SM CLR 24/22 A3009 -70 87 1000 000/00 RMK AO2 T02390217
13942KMLU MLU20190911234010809/11/19 23:40:31  5-MIN KMLU 120540Z AUTO 00000KT 10SM CLR 24/22 A3010 -80 90 1000 000/00 RMK AO2 T02390222
13942KMLU MLU20190911234510809/11/19 23:45:31  5-MIN KMLU 120545Z AUTO 00000KT 10SM CLR 24/22 A3010 -80 87 1000 000/00 RMK AO2 T02390217
13942KMLU MLU20190911235014209/11/19 23:50:31  5-MIN KMLU 120550Z AUTO 00000KT 10SM CLR 23/22 A3010 -80 90 900 000/00 RMK AO2 SLP190 T02330217 10300 20233 403560222 53015
13942KMLU MLU20190911235510709/11/19 23:55:31  5-MIN KMLU 120555Z AUTO 00000KT 10SM CLR 23/22 A3010 -80 90 900 000/00 RMK AO2 T02330217
13942KMLU MLU20190912000010809/12/19 00:00:31  5-MIN KMLU 120600Z AUTO 00000KT 10SM CLR 24/22 A3010 -80 87 1000 000/00 RMK AO2 T02390217
13942KMLU MLU20190912000510809/12/19 00:05:31  5-MIN KMLU 120605Z AUTO 00000KT 10SM CLR 24/22 A3010 -80 87 1000 000/00 RMK AO2 T02390217
13942KMLU MLU20190912001010809/12/19 00:10:31  5-MIN KMLU 120610Z AUTO 00000KT 10SM CLR 24/22 A3009 -70 90 1000 000/00 RMK AO2 T02390222
13942KMLU MLU20190912001510809/12/19 00:15:31  5-MIN KMLU 120615Z AUTO 00000KT 10SM CLR 24/22 A3009 -70 87 1000 000/00 RMK AO2 T02390217
13942KMLU MLU20190912002010809/12/19 00:20:31  5-MIN KMLU 120620Z AUTO 00000KT 10SM CLR 24/22 A3009 -70 90 1000 000/00 RMK AO2 T02390222
13942KMLU MLU20190912002510709/12/19 00:25:31  5-MIN KMLU 120625Z AUTO 00000KT 10SM CLR 23/22 A3009 -70 93 900 000/00 RMK AO2 T02330222
13942KMLU MLU20190912003010709/12/19 00:30:31  5-MIN KMLU 120630Z AUTO 00000KT 10SM CLR 23/22 A3009 -70 93 900 000/00 RMK AO2 T02330222
13942KMLU MLU20190912003510709/12/19 00:35:31  5-MIN KMLU 120635Z AUTO 00000KT 10SM CLR 23/22 A3009 -70 90 900 000/00 RMK AO2 T02330217
13942KMLU MLU20190912004010709/12/19 00:40:31  5-MIN KMLU 120640Z AUTO 00000KT 10SM CLR 23/22 A3009 -70 90 900 000/00 RMK AO2 T02330217
13942KMLU MLU20190912004510709/12/19 00:45:31  5-MIN KMLU 120645Z AUTO 00000KT 10SM CLR 23/22 A3009 -70 93 900 000/00 RMK AO2 T02280217
13942KMLU MLU20190912005011409/12/19 00:50:31  5-MIN KMLU 120650Z AUTO 00000KT 10SM CLR 23/22 A3009 -70 93 900 000/00 RMK AO2 SLP186 T02280217
13942KMLU MLU20190912005510709/12/19 00:55:31  5-MIN KMLU 120655Z AUTO 00000KT 10SM CLR 23/22 A3009 -70 93 900 000/00 RMK AO2 T02280217
13942KMLU MLU20190912010010709/12/19 01:00:31  5-MIN KMLU 120700Z AUTO 00000KT 10SM CLR 23/22 A3009 -70 93 900 000/00 RMK AO2 T02280217
13942KMLU MLU20190912010510709/12/19 01:05:31  5-MIN KMLU 120705Z AUTO 00000KT 10SM CLR 23/22 A3009 -70 93 900 000/00 RMK AO2 T02280217
13942KMLU MLU20190912011010709/12/19 01:10:31  5-MIN KMLU 120710Z AUTO 00000KT 10SM CLR 23/22 A3009 -70 93 900 000/00 RMK AO2 T02280217
13942KMLU MLU20190912011510709/12/19 01:15:31  5-MIN KMLU 120715Z AUTO 00000KT 10SM CLR 23/22 A3008 -60 90 900 000/00 RMK AO2 T02330217
13942KMLU MLU20190912012010709/12/19 01:20:31  5-MIN KMLU 120720Z AUTO 00000KT 10SM CLR 23/22 A3008 -60 90 900 000/00 RMK AO2 T02330217
13942KMLU MLU20190912012510709/12/19 01:25:31  5-MIN KMLU 120725Z AUTO 00000KT 10SM CLR 23/22 A3008 -60 93 900 000/00 RMK AO2 T02280217
13942KMLU MLU20190912013010709/12/19 01:30:31  5-MIN KMLU 120730Z AUTO 00000KT 10SM CLR 23/22 A3008 -60 90 900 000/00 RMK AO2 T02330217
13942KMLU MLU20190912013510709/12/19 01:35:31  5-MIN KMLU 120735Z AUTO 00000KT 10SM CLR 23/22 A3007 -60 93 900 000/00 RMK AO2 T02280217
13942KMLU MLU20190912014010709/12/19 01:40:31  5-MIN KMLU 120740Z AUTO 00000KT 10SM CLR 23/22 A3007 -60 93 900 000/00 RMK AO2 T02280217
13942KMLU MLU20190912014510709/12/19 01:45:31  5-MIN KMLU 120745Z AUTO 00000KT 10SM CLR 23/22 A3007 -50 90 900 000/00 RMK AO2 T02330217
13942KMLU MLU20190912015011409/12/19 01:50:31  5-MIN KMLU 120750Z AUTO 00000KT 10SM CLR 23/22 A3007 -60 90 900 000/00 RMK AO2 SLP182 T02330217
13942KMLU MLU20190912015510709/12/19 01:55:31  5-MIN KMLU 120755Z AUTO 00000KT 10SM CLR 23/21 A3007 -50 90 900 000/00 RMK AO2 T02280211
13942KMLU MLU20190912020010709/12/19 02:00:31  5-MIN KMLU 120800Z AUTO 00000KT 10SM CLR 23/21 A3007 -50 87 900 000/00 RMK AO2 T02330211
13942KMLU MLU20190912020510709/12/19 02:05:31  5-MIN KMLU 120805Z AUTO 00000KT 10SM CLR 23/22 A3007 -50 90 900 000/00 RMK AO2 T02330217
13942KMLU MLU20190912021010709/12/19 02:10:31  5-MIN KMLU 120810Z AUTO 00000KT 10SM CLR 23/21 A3007 -50 87 900 000/00 RMK AO2 T02330211
13942KMLU MLU20190912021510709/12/19 02:15:31  5-MIN KMLU 120815Z AUTO 00000KT 10SM CLR 23/21 A3007 -50 87 900 000/00 RMK AO2 T02330211
13942KMLU MLU20190912022010809/12/19 02:20:31  5-MIN KMLU 120820Z AUTO 00000KT 10SM CLR 24/22 A3007 -50 87 1000 000/00 RMK AO2 T02390217
13942KMLU MLU20190912022510709/12/19 02:25:31  5-MIN KMLU 120825Z AUTO 18003KT 10SM CLR 23/22 A3007 -50 90 900 170/03 RMK AO2 T02330217
13942KMLU MLU20190912023010709/12/19 02:30:31  5-MIN KMLU 120830Z AUTO 16003KT 10SM CLR 23/21 A3007 -50 90 900 160/03 RMK AO2 T02280211
13942KMLU MLU20190912023510709/12/19 02:35:31  5-MIN KMLU 120835Z AUTO 18003KT 10SM CLR 23/21 A3007 -50 90 900 180/03 RMK AO2 T02280211
13942KMLU MLU20190912024010709/12/19 02:40:31  5-MIN KMLU 120840Z AUTO 17003KT 10SM CLR 23/21 A3007 -50 87 900 170/03 RMK AO2 T02330211
13942KMLU MLU20190912024510709/12/19 02:45:31  5-MIN KMLU 120845Z AUTO 00000KT 10SM CLR 23/21 A3007 -50 87 900 000/00 RMK AO2 T02330211
13942KMLU MLU20190912025012009/12/19 02:50:31  5-MIN KMLU 120850Z AUTO 00000KT 10SM CLR 23/22 A3007 -50 90 900 000/00 RMK AO2 SLP180 T02330217 58004
13942KMLU MLU20190912025510709/12/19 02:55:31  5-MIN KMLU 120855Z AUTO 16003KT 10SM CLR 23/22 A3007 -50 90 900 160/03 RMK AO2 T02330217
13942KMLU MLU20190912030010709/12/19 03:00:31  5-MIN KMLU 120900Z AUTO 17003KT 10SM CLR 23/22 A3007 -50 90 900 170/03 RMK AO2 T02330217
13942KMLU MLU20190912030510709/12/19 03:05:31  5-MIN KMLU 120905Z AUTO 00000KT 10SM CLR 23/21 A3007 -50 87 900 000/00 RMK AO2 T02330211
13942KMLU MLU20190912031010709/12/19 03:10:31  5-MIN KMLU 120910Z AUTO 00000KT 10SM CLR 23/22 A3007 -50 90 900 000/00 RMK AO2 T02330217
13942KMLU MLU20190912031510709/12/19 03:15:31  5-MIN KMLU 120915Z AUTO 00000KT 10SM CLR 23/22 A3007 -50 90 900 000/00 RMK AO2 T02330217
13942KMLU MLU20190912032010709/12/19 03:20:31  5-MIN KMLU 120920Z AUTO 00000KT 10SM CLR 23/22 A3007 -50 90 900 000/00 RMK AO2 T02330217
13942KMLU MLU20190912032510709/12/19 03:25:31  5-MIN KMLU 120925Z AUTO 00000KT 10SM CLR 23/22 A3007 -50 90 900 000/00 RMK AO2 T02330217
13942KMLU MLU20190912033010709/12/19 03:30:31  5-MIN KMLU 120930Z AUTO 00000KT 10SM CLR 23/22 A3007 -50 93 900 000/00 RMK AO2 T02280217
13942KMLU MLU20190912033510709/12/19 03:35:31  5-MIN KMLU 120935Z AUTO 00000KT 10SM CLR 23/21 A3007 -50 90 900 000/00 RMK AO2 T02280211
13942KMLU MLU20190912034010709/12/19 03:40:31  5-MIN KMLU 120940Z AUTO 00000KT 10SM CLR 23/21 A3007 -60 90 900 000/00 RMK AO2 T02280211
13942KMLU MLU20190912034510709/12/19 03:45:31  5-MIN KMLU 120945Z AUTO 00000KT 10SM CLR 22/21 A3008 -60 93 800 000/00 RMK AO2 T02220211
13942KMLU MLU20190912035011409/12/19 03:50:31  5-MIN KMLU 120950Z AUTO 00000KT 10SM CLR 23/21 A3008 -60 90 900 000/00 RMK AO2 SLP184 T02280211
13942KMLU MLU20190912035510609/12/19 03:55:31  5-MIN KMLU 120955Z AUTO 00000KT 9SM CLR 22/21 A3008 -60 93 800 000/00 RMK AO2 T02220211
13942KMLU MLU20190912040010709/12/19 04:00:31  5-MIN KMLU 121000Z AUTO 00000KT 10SM CLR 22/21 A3009 -70 93 800 000/00 RMK AO2 T02220211
13942KMLU MLU20190912040510709/12/19 04:05:31  5-MIN KMLU 121005Z AUTO 00000KT 10SM CLR 22/21 A3009 -70 93 800 000/00 RMK AO2 T02220211
13942KMLU MLU20190912041010709/12/19 04:10:31  5-MIN KMLU 121010Z AUTO 00000KT 10SM CLR 22/21 A3009 -70 93 800 000/00 RMK AO2 T02220211
13942KMLU MLU20190912041510609/12/19 04:15:31  5-MIN KMLU 121015Z AUTO 00000KT 9SM CLR 22/21 A3009 -70 93 800 000/00 RMK AO2 T02220211
13942KMLU MLU20190912042010609/12/19 04:20:31  5-MIN KMLU 121020Z AUTO 00000KT 8SM CLR 22/21 A3009 -70 93 800 000/00 RMK AO2 T02220211
13942KMLU MLU20190912042510609/12/19 04:25:31  5-MIN KMLU 121025Z AUTO 00000KT 9SM CLR 22/21 A3009 -70 93 800 000/00 RMK AO2 T02220211
13942KMLU MLU20190912043010609/12/19 04:30:31  5-MIN KMLU 121030Z AUTO 00000KT 9SM CLR 22/21 A3009 -70 93 800 000/00 RMK AO2 T02220211
13942KMLU MLU20190912043510609/12/19 04:35:31  5-MIN KMLU 121035Z AUTO 00000KT 9SM CLR 23/22 A3010 -80 93 800 000/00 RMK AO2 T02280217
13942KMLU MLU20190912044010609/12/19 04:40:31  5-MIN KMLU 121040Z AUTO 00000KT 8SM CLR 22/21 A3010 -80 93 800 000/00 RMK AO2 T02220211
13942KMLU MLU20190912044510609/12/19 04:45:31  5-MIN KMLU 121045Z AUTO 00000KT 7SM CLR 22/22 A3010 -80 97 800 000/00 RMK AO2 T02220217
13942KMLU MLU20190912045010809/12/19 04:50:31  5-MIN KMLU 121050Z 00000KT 7SM CLR 22/22 A3010 -80 97 800 000/00 RMK AO2 SLP192 T02220217
13942KMLU MLU20190912045510109/12/19 04:55:31  5-MIN KMLU 121055Z 00000KT 7SM CLR 23/22 A3010 -80 93 800 000/00 RMK AO2 T02280217
13942KMLU MLU20190912050010109/12/19 05:00:31  5-MIN KMLU 121100Z 00000KT 7SM CLR 23/22 A3011 -90 93 800 000/00 RMK AO2 T02280217
13942KMLU MLU20190912050510109/12/19 05:05:31  5-MIN KMLU 121105Z 00000KT 8SM CLR 22/21 A3011 -90 93 800 000/00 RMK AO2 T02220211
13942KMLU MLU20190912051010409/12/19 05:10:31  5-MIN KMLU 121110Z 00000KT 6SM BR CLR 22/21 A3011 -90 97 700 000/00 RMK AO2 T02170211
13942KMLU MLU20190912051510409/12/19 05:15:31  5-MIN KMLU 121115Z 00000KT 4SM BR CLR 22/21 A3011 -90 97 700 000/00 RMK AO2 T02170211
13942KMLU MLU20190912052010409/12/19 05:20:31  5-MIN KMLU 121120Z 00000KT 4SM BR CLR 22/21 A3011 -90 97 700 000/00 RMK AO2 T02170211
13942KMLU MLU20190912052510409/12/19 05:25:31  5-MIN KMLU 121125Z 00000KT 5SM BR CLR 22/21 A3011 -90 97 700 000/00 RMK AO2 T02170211
13942KMLU MLU20190912053010109/12/19 05:30:31  5-MIN KMLU 121130Z 00000KT 7SM CLR 22/21 A3011 -90 93 800 000/00 RMK AO2 T02220211
13942KMLU MLU20190912053510109/12/19 05:35:31  5-MIN KMLU 121135Z 00000KT 7SM CLR 22/21 A3011 -90 97 700 000/00 RMK AO2 T02170211
13942KMLU MLU20190912054010409/12/19 05:40:31  5-MIN KMLU 121140Z 00000KT 6SM BR CLR 22/21 A3011 -90 93 700 000/00 RMK AO2 T02170206
13942KMLU MLU20190912054510409/12/19 05:45:31  5-MIN KMLU 121145Z 00000KT 5SM BR CLR 22/21 A3012 -90 93 700 000/00 RMK AO2 T02170206
13942KMLU MLU20190912055013009/12/19 05:50:31  5-MIN KMLU 121150Z 00000KT 6SM BR CLR 22/21 A3012 -100 97 700 000/00 RMK AO2 SLP197 T02170211 10239 20217 56010
13942KMLU MLU20190912055510509/12/19 05:55:31  5-MIN KMLU 121155Z 00000KT 6SM BR CLR 22/21 A3012 -100 93 800 000/00 RMK AO2 T02220211
13942KMLU MLU20190912060010509/12/19 06:00:31  5-MIN KMLU 121200Z 00000KT 5SM BR CLR 22/21 A3012 -100 97 700 000/00 RMK AO2 T02170211
13942KMLU MLU20190912060510509/12/19 06:05:31  5-MIN KMLU 121205Z 00000KT 5SM BR CLR 22/21 A3012 -100 93 700 000/00 RMK AO2 T02170206
13942KMLU MLU20190912061010509/12/19 06:10:31  5-MIN KMLU 121210Z 00000KT 6SM BR CLR 22/21 A3012 -100 97 700 000/00 RMK AO2 T02170211
13942KMLU MLU20190912061510509/12/19 06:15:31  5-MIN KMLU 121215Z 00000KT 5SM BR CLR 22/21 A3012 -100 93 800 000/00 RMK AO2 T02220211
13942KMLU MLU20190912062010509/12/19 06:20:31  5-MIN KMLU 121220Z 00000KT 4SM BR CLR 22/21 A3012 -100 93 800 000/00 RMK AO2 T02220211
13942KMLU MLU20190912062510509/12/19 06:25:31  5-MIN KMLU 121225Z 00000KT 4SM BR CLR 22/21 A3013 -100 93 700 000/00 RMK AO2 T02220211
13942KMLU MLU20190912063010509/12/19 06:30:31  5-MIN KMLU 121230Z 00000KT 5SM BR CLR 22/22 A3013 -110 97 700 000/00 RMK AO2 T02220217
13942KMLU MLU20190912063510509/12/19 06:35:31  5-MIN KMLU 121235Z 00000KT 6SM BR CLR 23/22 A3013 -110 93 800 000/00 RMK AO2 T02280217
13942KMLU MLU20190912064010509/12/19 06:40:31  5-MIN KMLU 121240Z 00000KT 6SM BR CLR 23/22 A3013 -110 97 800 000/00 RMK AO2 T02280222
13942KMLU MLU20190912064510509/12/19 06:45:31  5-MIN KMLU 121245Z 00000KT 5SM BR CLR 23/22 A3013 -110 93 900 000/00 RMK AO2 T02330222
13942KMLU MLU20190912065011209/12/19 06:50:31  5-MIN KMLU 121250Z 00000KT 6SM BR CLR 23/22 A3013 -110 93 900 000/00 RMK AO2 SLP201 T02330222
13942KMLU MLU20190912065510209/12/19 06:55:31  5-MIN KMLU 121255Z 00000KT 7SM CLR 23/22 A3013 -110 93 900 000/00 RMK AO2 T02330222
13942KMLU MLU20190912070010209/12/19 07:00:31  5-MIN KMLU 121300Z 00000KT 8SM CLR 24/22 A3013 -110 90 900 000/00 RMK AO2 T02390222
13942KMLU MLU20190912070510309/12/19 07:05:31  5-MIN KMLU 121305Z 00000KT 9SM CLR 24/23 A3014 -110 90 1000 000/00 RMK AO2 T02440228
13942KMLU MLU20190912071010309/12/19 07:10:31  5-MIN KMLU 121310Z 00000KT 9SM CLR 24/23 A3014 -110 90 1000 000/00 RMK AO2 T02440228
13942KMLU MLU20190912071510309/12/19 07:15:31  5-MIN KMLU 121315Z 00000KT 9SM CLR 25/23 A3014 -110 87 1100 000/00 RMK AO2 T02500228
13942KMLU MLU20190912072010409/12/19 07:20:31  5-MIN KMLU 121320Z 00000KT 10SM CLR 26/23 A3014 -110 84 1100 000/00 RMK AO2 T02560228
13942KMLU MLU20190912072510409/12/19 07:25:31  5-MIN KMLU 121325Z 00000KT 10SM CLR 26/23 A3014 -110 84 1100 000/00 RMK AO2 T02560228
13942KMLU MLU20190912073010409/12/19 07:30:31  5-MIN KMLU 121330Z 00000KT 10SM CLR 26/23 A3014 -120 84 1100 000/00 RMK AO2 T02560228
13942KMLU MLU20190912073510409/12/19 07:35:31  5-MIN KMLU 121335Z 00000KT 10SM CLR 26/23 A3014 -120 87 1100 000/00 RMK AO2 T02560233
13942KMLU MLU20190912074010409/12/19 07:40:31  5-MIN KMLU 121340Z 00000KT 10SM CLR 26/23 A3014 -120 84 1200 000/00 RMK AO2 T02610233
13942KMLU MLU20190912074510409/12/19 07:45:31  5-MIN KMLU 121345Z 00000KT 10SM CLR 27/23 A3014 -120 82 1200 000/00 RMK AO2 T02670233
13942KMLU MLU20190912075011109/12/19 07:50:31  5-MIN KMLU 121350Z 00000KT 10SM CLR 27/23 A3014 -120 79 1300 000/00 RMK AO2 SLP205 T02720233
13942KMLU MLU20190912075510409/12/19 07:55:31  5-MIN KMLU 121355Z 00000KT 10SM CLR 27/23 A3014 -120 79 1300 000/00 RMK AO2 T02720233
13942KMLU MLU20190912080010409/12/19 08:00:31  5-MIN KMLU 121400Z 00000KT 10SM CLR 27/23 A3014 -120 79 1300 000/00 RMK AO2 T02720233
13942KMLU MLU20190912080510409/12/19 08:05:31  5-MIN KMLU 121405Z 00000KT 10SM CLR 27/23 A3015 -120 79 1300 000/00 RMK AO2 T02720233
13942KMLU MLU20190912081010409/12/19 08:10:31  5-MIN KMLU 121410Z 00000KT 10SM CLR 28/23 A3015 -130 76 1400 000/00 RMK AO2 T02780233
13942KMLU MLU20190912081510409/12/19 08:15:31  5-MIN KMLU 121415Z 00000KT 10SM CLR 28/23 A3015 -130 76 1400 000/00 RMK AO2 T02780233
13942KMLU MLU20190912082010409/12/19 08:20:31  5-MIN KMLU 121420Z 00000KT 10SM CLR 28/23 A3015 -120 74 1400 000/00 RMK AO2 T02830233
13942KMLU MLU20190912082510409/12/19 08:25:31  5-MIN KMLU 121425Z 00000KT 10SM CLR 29/23 A3015 -120 71 1500 000/00 RMK AO2 T02890233
13942KMLU MLU20190912083010409/12/19 08:30:31  5-MIN KMLU 121430Z 00000KT 10SM CLR 29/23 A3015 -120 71 1500 000/00 RMK AO2 T02890233
13942KMLU MLU20190912083510409/12/19 08:35:31  5-MIN KMLU 121435Z 00000KT 10SM CLR 29/24 A3015 -130 71 1500 000/00 RMK AO2 T02940239
13942KMLU MLU20190912084010409/12/19 08:40:31  5-MIN KMLU 121440Z 00000KT 10SM CLR 30/24 A3015 -130 69 1600 000/00 RMK AO2 T03000239
13942KMLU MLU20190912084510409/12/19 08:45:31  5-MIN KMLU 121445Z 00000KT 10SM CLR 30/24 A3015 -130 69 1600 000/00 RMK AO2 T03000239
13942KMLU MLU20190912085011709/12/19 08:50:31  5-MIN KMLU 121450Z 02003KT 10SM CLR 31/24 A3015 -130 67 1700 020/03 RMK AO2 SLP209 T03060239 53017
13942KMLU MLU20190912085510409/12/19 08:55:31  5-MIN KMLU 121455Z 00000KT 10SM CLR 31/23 A3015 -130 63 1700 000/00 RMK AO2 T03110233
13942KMLU MLU20190912090010409/12/19 09:00:31  5-MIN KMLU 121500Z 29003KT 10SM CLR 31/23 A3016 -130 65 1700 290/03 RMK AO2 T03060233
13942KMLU MLU20190912090510409/12/19 09:05:31  5-MIN KMLU 121505Z 27003KT 10SM CLR 31/23 A3016 -130 62 1700 270/03 RMK AO2 T03060228
13942KMLU MLU20190912091010409/12/19 09:10:31  5-MIN KMLU 121510Z 27003KT 10SM CLR 31/23 A3016 -130 62 1700 270/03 RMK AO2 T03060228
13942KMLU MLU20190912091510409/12/19 09:15:31  5-MIN KMLU 121515Z 30004KT 10SM CLR 31/23 A3016 -130 60 1700 300/04 RMK AO2 T03110228
13942KMLU MLU20190912092010409/12/19 09:20:31  5-MIN KMLU 121520Z 00000KT 10SM CLR 31/23 A3016 -130 63 1700 000/00 RMK AO2 T03110233
13942KMLU MLU20190912092510409/12/19 09:25:31  5-MIN KMLU 121525Z 00000KT 10SM CLR 31/23 A3016 -130 60 1700 000/00 RMK AO2 T03110228
13942KMLU MLU20190912093010409/12/19 09:30:31  5-MIN KMLU 121530Z 00000KT 10SM CLR 32/23 A3016 -130 58 1800 000/00 RMK AO2 T03170228
13942KMLU MLU20190912093510409/12/19 09:35:31  5-MIN KMLU 121535Z 00000KT 10SM CLR 32/23 A3016 -130 58 1800 000/00 RMK AO2 T03170228
13942KMLU MLU20190912094010409/12/19 09:40:31  5-MIN KMLU 121540Z VRB04KT 10SM CLR 32/23 A3016 -130 58 1800 VRB/04 RMK AO2 T03170228
13942KMLU MLU20190912094510409/12/19 09:45:31  5-MIN KMLU 121545Z 29003KT 10SM CLR 32/23 A3016 -130 58 1800 290/03 RMK AO2 T03170228
13942KMLU MLU20190912095011109/12/19 09:50:31  5-MIN KMLU 121550Z 00000KT 10SM CLR 32/23 A3016 -130 57 1800 000/00 RMK AO2 SLP210 T03220228
13942KMLU MLU20190912095510409/12/19 09:55:31  5-MIN KMLU 121555Z VRB03KT 10SM CLR 32/22 A3015 -130 53 1800 VRB/03 RMK AO2 T03220217
13942KMLU MLU20190912100010409/12/19 10:00:31  5-MIN KMLU 121600Z 00000KT 10SM CLR 32/22 A3015 -130 55 1800 000/00 RMK AO2 T03220222
13942KMLU MLU20190912100510409/12/19 10:05:31  5-MIN KMLU 121605Z 00000KT 10SM CLR 33/22 A3015 -130 51 1900 000/00 RMK AO2 T03280217
13942KMLU MLU20190912101010409/12/19 10:10:31  5-MIN KMLU 121610Z 14003KT 10SM CLR 33/22 A3015 -130 51 2000 140/03 RMK AO2 T03330222
13942KMLU MLU20190912101510409/12/19 10:15:31  5-MIN KMLU 121615Z 09003KT 10SM CLR 33/22 A3015 -130 51 1900 090/03 RMK AO2 T03280217
13942KMLU MLU20190912102010409/12/19 10:20:31  5-MIN KMLU 121620Z 00000KT 10SM CLR 33/22 A3015 -130 51 1900 000/00 RMK AO2 T03280217
13942KMLU MLU20190912102510409/12/19 10:25:31  5-MIN KMLU 121625Z VRB03KT 10SM CLR 33/22 A3015 -130 51 2000 VRB/03 RMK AO2 T03330222
13942KMLU MLU20190912103010409/12/19 10:30:31  5-MIN KMLU 121630Z VRB03KT 10SM CLR 34/22 A3015 -120 50 2000 VRB/03 RMK AO2 T03390222
13942KMLU MLU20190912103510409/12/19 10:35:31  5-MIN KMLU 121635Z 11003KT 10SM CLR 33/22 A3015 -120 50 2000 110/03 RMK AO2 T03330217
13942KMLU MLU20190912104010409/12/19 10:40:31  5-MIN KMLU 121640Z 07003KT 10SM CLR 33/22 A3014 -120 50 2000 070/03 RMK AO2 T03330217
13942KMLU MLU20190912104510409/12/19 10:45:31  5-MIN KMLU 121645Z 08004KT 10SM CLR 34/22 A3015 -120 48 2000 080/04 RMK AO2 T03390217
13942KMLU MLU20190912105011409/12/19 10:50:31  5-MIN KMLU 121650Z 00000KT 10SM FEW047 34/22 A3015 -120 48 2000 000/00 RMK AO2 SLP207 T03390217
13942KMLU MLU20190912105510709/12/19 10:55:31  5-MIN KMLU 121655Z 08005KT 10SM FEW047 33/22 A3015 -120 51 2000 080/05 RMK AO2 T03330222
13942KMLU MLU20190912110010409/12/19 11:00:31  5-MIN KMLU 121700Z VRB03KT 10SM CLR 34/22 A3014 -120 50 2000 VRB/03 RMK AO2 T03390222
13942KMLU MLU20190912110511409/12/19 11:05:31  5-MIN KMLU 121705Z 00000KT 10SM FEW049 FEW055 33/22 A3014 -120 53 1900 000/00 RMK AO2 T03280222
13942KMLU MLU20190912111011409/12/19 11:10:31  5-MIN KMLU 121710Z VRB03KT 10SM FEW049 SCT055 33/22 A3014 -120 51 2000 VRB/03 RMK AO2 T03330222
13942KMLU MLU20190912111511409/12/19 11:15:31  5-MIN KMLU 121715Z 22005KT 10SM FEW049 FEW055 34/22 A3014 -120 50 2000 220/05 RMK AO2 T03390222
13942KMLU MLU20190912112011409/12/19 11:20:31  5-MIN KMLU 121720Z VRB03KT 10SM FEW049 FEW055 34/22 A3014 -120 50 2000 VRB/03 RMK AO2 T03390222
13942KMLU MLU20190912112511409/12/19 11:25:31  5-MIN KMLU 121725Z 15006KT 10SM FEW049 FEW055 34/22 A3014 -110 46 2100 150/06 RMK AO2 T03440217
13942KMLU MLU20190912113011409/12/19 11:30:31  5-MIN KMLU 121730Z 18005KT 10SM FEW049 FEW055 34/21 A3014 -110 46 2000 180/05 RMK AO2 T03390211
13942KMLU MLU20190912113510709/12/19 11:35:31  5-MIN KMLU 121735Z 17007KT 10SM FEW049 34/22 A3014 -110 48 2000 170/07 RMK AO2 T03390217
13942KMLU MLU20190912114010709/12/19 11:40:31  5-MIN KMLU 121740Z VRB04KT 10SM FEW060 34/21 A3013 -110 46 2100 VRB/04 RMK AO2 T03390211
13942KMLU MLU20190912114510709/12/19 11:45:31  5-MIN KMLU 121745Z VRB06KT 10SM FEW060 34/22 A3013 -110 46 2100 VRB/06 RMK AO2 T03440217
13942KMLU MLU20190912115013209/12/19 11:50:31  5-MIN KMLU 121750Z VRB06KT 10SM BKN060 35/22 A3013 -110 47 2200 VRB/06 RMK AO2 SLP201 T03500222 10350 20217 51012
13942KMLU MLU20190912115510709/12/19 11:55:31  5-MIN KMLU 121755Z VRB04KT 10SM FEW060 33/21 A3013 -110 48 2000 VRB/04 RMK AO2 T03330211
13942KMLU MLU20190912120010709/12/19 12:00:31  5-MIN KMLU 121800Z VRB04KT 10SM FEW060 34/22 A3013 -100 46 2100 VRB/04 RMK AO2 T03440217
13942KMLU MLU20190912120510709/12/19 12:05:31  5-MIN KMLU 121805Z 00000KT 10SM FEW060 33/21 A3012 -100 48 2000 000/00 RMK AO2 T03330211
13942KMLU MLU20190912121010709/12/19 12:10:31  5-MIN KMLU 121810Z 00000KT 10SM FEW055 33/21 A3012 -100 48 2000 000/00 RMK AO2 T03330211
13942KMLU MLU20190912121510709/12/19 12:15:31  5-MIN KMLU 121815Z 00000KT 10SM SCT055 34/21 A3012 -100 46 2100 000/00 RMK AO2 T03390211
13942KMLU MLU20190912122011409/12/19 12:20:31  5-MIN KMLU 121820Z VRB03KT 10SM SCT055 BKN070 34/21 A3012 -100 46 2100 VRB/03 RMK AO2 T03390211
13942KMLU MLU20190912122511409/12/19 12:25:31  5-MIN KMLU 121825Z 02003KT 10SM BKN055 BKN070 34/21 A3012 -100 46 2100 020/03 RMK AO2 T03390211
13942KMLU MLU20190912123011309/12/19 12:30:31  5-MIN KMLU 121830Z 00000KT 10SM BKN055 BKN070 34/21 A3011 -90 45 2100 000/00 RMK AO2 T03390206
13942KMLU MLU20190912123511309/12/19 12:35:31  5-MIN KMLU 121835Z 03004KT 10SM BKN055 BKN070 34/21 A3011 -90 45 2100 030/04 RMK AO2 T03440211
13942KMLU MLU20190912124011309/12/19 12:40:31  5-MIN KMLU 121840Z 02004KT 10SM BKN055 BKN070 34/21 A3011 -90 46 2100 020/04 RMK AO2 T03390211
13942KMLU MLU20190912124511309/12/19 12:45:31  5-MIN KMLU 121845Z 01004KT 10SM BKN055 BKN075 35/22 A3011 -90 45 2200 010/04 RMK AO2 T03500217
13942KMLU MLU20190912125012009/12/19 12:50:31  5-MIN KMLU 121850Z 35004KT 10SM SCT055 BKN075 34/22 A3011 -90 46 2100 350/04 RMK AO2 SLP194 T03440217
13942KMLU MLU20190912125511309/12/19 12:55:31  5-MIN KMLU 121855Z VRB03KT 10SM BKN055 BKN075 34/22 A3011 -90 46 2100 VRB/03 RMK AO2 T03440217
13942KMLU MLU20190912130011309/12/19 13:00:31  5-MIN KMLU 121900Z 00000KT 10SM BKN055 BKN075 34/22 A3011 -90 48 2100 000/00 RMK AO2 T03390217
13942KMLU MLU20190912130511309/12/19 13:05:31  5-MIN KMLU 121905Z 00000KT 10SM BKN055 BKN075 34/21 A3011 -90 46 2100 000/00 RMK AO2 T03390211
13942KMLU MLU20190912131011309/12/19 13:10:31  5-MIN KMLU 121910Z 00000KT 10SM BKN055 BKN075 34/21 A3010 -80 46 2100 000/00 RMK AO2 T03390211
13942KMLU MLU20190912131510609/12/19 13:15:31  5-MIN KMLU 121915Z 00000KT 10SM BKN055 34/21 A3010 -80 45 2100 000/00 RMK AO2 T03440211
13942KMLU MLU20190912132010609/12/19 13:20:31  5-MIN KMLU 121920Z 00000KT 10SM OVC055 34/21 A3010 -80 45 2100 000/00 RMK AO2 T03440211
13942KMLU MLU20190912132510609/12/19 13:25:31  5-MIN KMLU 121925Z 00000KT 10SM OVC055 34/21 A3010 -80 43 2200 000/00 RMK AO2 T03440206
13942KMLU MLU20190912133011309/12/19 13:30:31  5-MIN KMLU 121930Z 05003KT 10SM BKN055 OVC095 34/21 A3010 -80 46 2100 050/03 RMK AO2 T03390211
13942KMLU MLU20190912133511309/12/19 13:35:31  5-MIN KMLU 121935Z 00000KT 10SM BKN060 BKN090 34/21 A3010 -80 46 2100 000/00 RMK AO2 T03390211
13942KMLU MLU20190912134012009/12/19 13:40:31  5-MIN KMLU 121940Z 00000KT 10SM BKN060 BKN080 OVC100 34/21 A3009 -70 45 2100 000/00 RMK AO2 T03390206
13942KMLU MLU20190912134512509/12/19 13:45:31  5-MIN KMLU 121945Z AUTO 00000KT 10SM BKN060 BKN075 OVC090 34/21 A3009 -70 45 2200 000/00 RMK AO2 T03440211
13942KMLU MLU20190912135012009/12/19 13:50:31  5-MIN KMLU 121950Z 36004KT 10SM BKN065 OVC090 35/21 A3009 -70 43 2200 360/04 RMK AO2 SLP187 T03500211
13942KMLU MLU20190912135511309/12/19 13:55:31  5-MIN KMLU 121955Z 02004KT 10SM BKN065 OVC090 35/21 A3009 -70 43 2200 020/04 RMK AO2 T03500211
13942KMLU MLU20190912140010609/12/19 14:00:31  5-MIN KMLU 122000Z 04004KT 10SM BKN065 35/21 A3008 -70 43 2200 040/04 RMK AO2 T03500211
13942KMLU MLU20190912140511309/12/19 14:05:31  5-MIN KMLU 122005Z 35004KT 10SM BKN060 BKN075 36/21 A3008 -60 42 2300 340/04 RMK AO2 T03560211
13942KMLU MLU20190912141012009/12/19 14:10:31  5-MIN KMLU 122010Z VRB03KT 10SM BKN065 BKN095 BKN120 34/21 A3008 -60 43 2200 VRB/03 RMK AO2 T03440206
13942KMLU MLU20190912141512009/12/19 14:15:31  5-MIN KMLU 122015Z 00000KT 10SM BKN065 BKN095 BKN120 34/21 A3008 -60 43 2200 000/00 RMK AO2 T03440206
13942KMLU MLU20190912142010609/12/19 14:20:31  5-MIN KMLU 122020Z 00000KT 10SM SCT065 34/21 A3008 -60 45 2100 000/00 RMK AO2 T03390206
13942KMLU MLU20190912142510609/12/19 14:25:31  5-MIN KMLU 122025Z 08004KT 10SM FEW065 35/21 A3007 -50 43 2200 080/04 RMK AO2 T03500211
13942KMLU MLU20190912143010609/12/19 14:30:31  5-MIN KMLU 122030Z VRB04KT 10SM FEW060 35/22 A3007 -50 45 2200 VRB/04 RMK AO2 T03500217
13942KMLU MLU20190912143510309/12/19 14:35:31  5-MIN KMLU 122035Z 06005KT 10SM CLR 36/22 A3007 -50 42 2400 050/05 RMK AO2 T03610217
13942KMLU MLU20190912144010309/12/19 14:40:31  5-MIN KMLU 122040Z 09004KT 10SM CLR 36/21 A3007 -50 42 2300 090/04 RMK AO2 T03560211
13942KMLU MLU20190912144510309/12/19 14:45:31  5-MIN KMLU 122045Z VRB04KT 10SM CLR 36/21 A3007 -50 42 2300 VRB/04 RMK AO2 T03560211
13942KMLU MLU20190912145011609/12/19 14:50:31  5-MIN KMLU 122050Z 00000KT 10SM CLR 35/21 A3007 -50 42 2200 000/00 RMK AO2 SLP180 T03500206 58009
13942KMLU MLU20190912145510309/12/19 14:55:31  5-MIN KMLU 122055Z 00000KT 10SM CLR 35/21 A3006 -50 42 2200 000/00 RMK AO2 T03500206
13942KMLU MLU20190912150010309/12/19 15:00:31  5-MIN KMLU 122100Z 10003KT 10SM CLR 34/21 A3006 -50 43 2200 100/03 RMK AO2 T03440206
13942KMLU MLU20190912150510309/12/19 15:05:31  5-MIN KMLU 122105Z 00000KT 10SM CLR 34/21 A3006 -40 45 2200 000/00 RMK AO2 T03440211
13942KMLU MLU20190912151010309/12/19 15:10:31  5-MIN KMLU 122110Z 00000KT 10SM CLR 36/21 A3006 -40 41 2300 000/00 RMK AO2 T03560206
13942KMLU MLU20190912151510309/12/19 15:15:31  5-MIN KMLU 122115Z 00000KT 10SM CLR 36/20 A3006 -40 39 2300 000/00 RMK AO2 T03560200
13942KMLU MLU20190912152010309/12/19 15:20:31  5-MIN KMLU 122120Z 00000KT 10SM CLR 36/20 A3006 -40 39 2300 000/00 RMK AO2 T03560200
13942KMLU MLU20190912152510309/12/19 15:25:31  5-MIN KMLU 122125Z 00000KT 10SM CLR 36/21 A3006 -40 39 2400 000/00 RMK AO2 T03610206
13942KMLU MLU20190912153010309/12/19 15:30:31  5-MIN KMLU 122130Z 00000KT 10SM CLR 36/20 A3006 -40 38 2400 000/00 RMK AO2 T03610200
13942KMLU MLU20190912153510309/12/19 15:35:31  5-MIN KMLU 122135Z 04003KT 10SM CLR 37/20 A3006 -40 37 2400 040/03 RMK AO2 T03670200
13942KMLU MLU20190912154010309/12/19 15:40:31  5-MIN KMLU 122140Z 11005KT 10SM CLR 36/20 A3006 -40 38 2400 110/05 RMK AO2 T03610200
13942KMLU MLU20190912154510309/12/19 15:45:31  5-MIN KMLU 122145Z 00000KT 10SM CLR 36/19 A3005 -40 37 2400 000/00 RMK AO2 T03610194
13942KMLU MLU20190912155011009/12/19 15:50:31  5-MIN KMLU 122150Z 00000KT 10SM CLR 36/20 A3005 -30 39 2300 000/00 RMK AO2 SLP174 T03560200
13942KMLU MLU20190912155510309/12/19 15:55:31  5-MIN KMLU 122155Z 00000KT 10SM CLR 35/19 A3005 -30 39 2300 000/00 RMK AO2 T03500194
13942KMLU MLU20190912160010309/12/19 16:00:31  5-MIN KMLU 122200Z 00000KT 10SM CLR 35/20 A3005 -30 40 2300 000/00 RMK AO2 T03500200
13942KMLU MLU20190912160510309/12/19 16:05:31  5-MIN KMLU 122205Z 11003KT 10SM CLR 34/20 A3005 -30 42 2200 110/03 RMK AO2 T03440200
13942KMLU MLU20190912161010309/12/19 16:10:31  5-MIN KMLU 122210Z 00000KT 10SM CLR 35/21 A3005 -30 42 2300 000/00 RMK AO2 T03500206
13942KMLU MLU20190912161510309/12/19 16:15:31  5-MIN KMLU 122215Z 00000KT 10SM CLR 34/20 A3004 -30 42 2200 000/00 RMK AO2 T03440200
13942KMLU MLU20190912162010309/12/19 16:20:31  5-MIN KMLU 122220Z 00000KT 10SM CLR 35/20 A3004 -30 40 2300 000/00 RMK AO2 T03500200
13942KMLU MLU20190912162510309/12/19 16:25:31  5-MIN KMLU 122225Z 00000KT 10SM CLR 35/20 A3004 -30 40 2300 000/00 RMK AO2 T03500200
13942KMLU MLU20190912163010309/12/19 16:30:31  5-MIN KMLU 122230Z 00000KT 10SM CLR 34/20 A3004 -20 42 2200 000/00 RMK AO2 T03440200
13942KMLU MLU20190912163510309/12/19 16:35:31  5-MIN KMLU 122235Z 00000KT 10SM CLR 35/20 A3004 -20 40 2300 000/00 RMK AO2 T03500200
13942KMLU MLU20190912164010309/12/19 16:40:31  5-MIN KMLU 122240Z 00000KT 10SM CLR 35/21 A3004 -20 42 2300 000/00 RMK AO2 T03500206
13942KMLU MLU20190912164510309/12/19 16:45:31  5-MIN KMLU 122245Z 08003KT 10SM CLR 35/20 A3004 -20 40 2300 080/03 RMK AO2 T03500200
13942KMLU MLU20190912165011009/12/19 16:50:31  5-MIN KMLU 122250Z 00000KT 10SM CLR 34/21 A3004 -30 45 2200 000/00 RMK AO2 SLP171 T03440211
13942KMLU MLU20190912165510309/12/19 16:55:31  5-MIN KMLU 122255Z 00000KT 10SM CLR 34/22 A3004 -30 48 2200 000/00 RMK AO2 T03390217
13942KMLU MLU20190912170010309/12/19 17:00:31  5-MIN KMLU 122300Z 09004KT 10SM CLR 34/21 A3004 -30 45 2200 090/04 RMK AO2 T03440211
13942KMLU MLU20190912170510309/12/19 17:05:31  5-MIN KMLU 122305Z 09004KT 10SM CLR 34/22 A3004 -30 48 2200 090/04 RMK AO2 T03390217
13942KMLU MLU20190912171010309/12/19 17:10:31  5-MIN KMLU 122310Z 10003KT 10SM CLR 34/21 A3004 -30 46 2200 100/03 RMK AO2 T03390211
13942KMLU MLU20190912171510309/12/19 17:15:31  5-MIN KMLU 122315Z 10004KT 10SM CLR 34/21 A3004 -30 46 2200 100/04 RMK AO2 T03390211
13942KMLU MLU20190912172010309/12/19 17:20:31  5-MIN KMLU 122320Z 11003KT 10SM CLR 33/21 A3004 -30 48 2100 110/03 RMK AO2 T03330211
13942KMLU MLU20190912172510309/12/19 17:25:31  5-MIN KMLU 122325Z 11003KT 10SM CLR 33/22 A3004 -30 51 2100 110/03 RMK AO2 T03330222
13942KMLU MLU20190912173010309/12/19 17:30:31  5-MIN KMLU 122330Z 00000KT 10SM CLR 33/22 A3004 -30 53 2000 000/00 RMK AO2 T03280222
13942KMLU MLU20190912173510309/12/19 17:35:31  5-MIN KMLU 122335Z 00000KT 10SM CLR 33/22 A3004 -30 51 2000 000/00 RMK AO2 T03280217
13942KMLU MLU20190912174010309/12/19 17:40:31  5-MIN KMLU 122340Z 00000KT 10SM CLR 32/21 A3004 -30 51 2000 000/00 RMK AO2 T03220211
13942KMLU MLU20190912174510309/12/19 17:45:31  5-MIN KMLU 122345Z 00000KT 10SM CLR 32/22 A3004 -30 56 1900 000/00 RMK AO2 T03170222
13942KMLU MLU20190912175012809/12/19 17:50:31  5-MIN KMLU 122350Z 00000KT 10SM CLR 31/23 A3004 -30 63 1800 000/00 RMK AO2 SLP172 T03110233 10367 20311 58021
13942KMLU MLU20190912175510309/12/19 17:55:31  5-MIN KMLU 122355Z 00000KT 10SM CLR 31/24 A3004 -30 69 1800 000/00 RMK AO2 T03060244
13942KMLU MLU20190912180010309/12/19 18:00:31  5-MIN KMLU 130000Z 00000KT 10SM CLR 30/24 A3005 -30 72 1700 000/00 RMK AO2 T03000244
13942KMLU MLU20190912180510309/12/19 18:05:31  5-MIN KMLU 130005Z 00000KT 10SM CLR 29/24 A3005 -30 74 1700 000/00 RMK AO2 T02940244
13942KMLU MLU20190912181010309/12/19 18:10:31  5-MIN KMLU 130010Z 00000KT 10SM CLR 29/24 A3005 -30 71 1700 000/00 RMK AO2 T02940239
13942KMLU MLU20190912181510309/12/19 18:15:31  5-MIN KMLU 130015Z 00000KT 10SM CLR 29/24 A3005 -30 76 1600 000/00 RMK AO2 T02890244
13942KMLU MLU20190912182010309/12/19 18:20:31  5-MIN KMLU 130020Z 00000KT 10SM CLR 29/24 A3005 -30 74 1600 000/00 RMK AO2 T02890239
13942KMLU MLU20190912182510309/12/19 18:25:31  5-MIN KMLU 130025Z 00000KT 10SM CLR 28/24 A3005 -30 79 1500 000/00 RMK AO2 T02830244
13942KMLU MLU20190912183010309/12/19 18:30:31  5-MIN KMLU 130030Z 00000KT 10SM CLR 28/24 A3005 -30 76 1500 000/00 RMK AO2 T02830239
13942KMLU MLU20190912183510309/12/19 18:35:31  5-MIN KMLU 130035Z 00000KT 10SM CLR 28/23 A3005 -30 74 1500 000/00 RMK AO2 T02830233
13942KMLU MLU20190912184010309/12/19 18:40:31  5-MIN KMLU 130040Z 00000KT 10SM CLR 28/23 A3005 -30 71 1500 000/00 RMK AO2 T02830228
13942KMLU MLU20190912184510309/12/19 18:45:31  5-MIN KMLU 130045Z 00000KT 10SM CLR 28/23 A3005 -30 74 1500 000/00 RMK AO2 T02780228
13942KMLU MLU20190912185011009/12/19 18:50:31  5-MIN KMLU 130050Z 00000KT 10SM CLR 27/23 A3005 -30 76 1400 000/00 RMK AO2 SLP174 T02720228
13942KMLU MLU20190912185510309/12/19 18:55:31  5-MIN KMLU 130055Z 00000KT 10SM CLR 27/23 A3005 -30 76 1400 000/00 RMK AO2 T02720228
13942KMLU MLU20190912190010309/12/19 19:00:31  5-MIN KMLU 130100Z 00000KT 10SM CLR 27/23 A3005 -40 79 1300 000/00 RMK AO2 T02670228
13942KMLU MLU20190912190510309/12/19 19:05:31  5-MIN KMLU 130105Z 00000KT 10SM CLR 27/23 A3005 -40 79 1300 000/00 RMK AO2 T02670228
13942KMLU MLU20190912191010309/12/19 19:10:31  5-MIN KMLU 130110Z 20003KT 10SM CLR 26/22 A3005 -40 79 1300 200/03 RMK AO2 T02610222
13942KMLU MLU20190912191510309/12/19 19:15:31  5-MIN KMLU 130115Z 00000KT 10SM CLR 27/22 A3005 -40 76 1300 000/00 RMK AO2 T02670222
13942KMLU MLU20190912192010309/12/19 19:20:31  5-MIN KMLU 130120Z 00000KT 10SM CLR 27/22 A3006 -40 76 1300 000/00 RMK AO2 T02670222
13942KMLU MLU20190912192510309/12/19 19:25:31  5-MIN KMLU 130125Z 00000KT 10SM CLR 27/23 A3006 -40 79 1300 000/00 RMK AO2 T02670228
13942KMLU MLU20190912193010309/12/19 19:30:31  5-MIN KMLU 130130Z 00000KT 10SM CLR 26/23 A3006 -40 81 1300 000/00 RMK AO2 T02610228
13942KMLU MLU20190912193510309/12/19 19:35:31  5-MIN KMLU 130135Z 00000KT 10SM CLR 26/23 A3006 -40 81 1300 000/00 RMK AO2 T02610228
13942KMLU MLU20190912194010309/12/19 19:40:31  5-MIN KMLU 130140Z 00000KT 10SM CLR 26/23 A3006 -40 84 1200 000/00 RMK AO2 T02560228
13942KMLU MLU20190912194510309/12/19 19:45:31  5-MIN KMLU 130145Z 00000KT 10SM CLR 25/22 A3006 -40 84 1100 000/00 RMK AO2 T02500222
13942KMLU MLU20190912195011009/12/19 19:50:31  5-MIN KMLU 130150Z 00000KT 10SM CLR 26/22 A3006 -40 81 1200 000/00 RMK AO2 SLP178 T02560222
13942KMLU MLU20190912195510309/12/19 19:55:31  5-MIN KMLU 130155Z 00000KT 10SM CLR 26/22 A3006 -50 81 1200 000/00 RMK AO2 T02560222
13942KMLU MLU20190912200010309/12/19 20:00:31  5-MIN KMLU 130200Z 09003KT 10SM CLR 26/22 A3007 -50 81 1200 090/03 RMK AO2 T02560222
13942KMLU MLU20190912200510309/12/19 20:05:31  5-MIN KMLU 130205Z 11003KT 10SM CLR 25/22 A3007 -50 81 1100 110/03 RMK AO2 T02500217
13942KMLU MLU20190912201010309/12/19 20:10:31  5-MIN KMLU 130210Z 11003KT 10SM CLR 25/22 A3007 -50 84 1100 110/03 RMK AO2 T02500222
13942KMLU MLU20190912201510309/12/19 20:15:31  5-MIN KMLU 130215Z 00000KT 10SM CLR 25/22 A3007 -50 84 1100 000/00 RMK AO2 T02500222
13942KMLU MLU20190912202010309/12/19 20:20:31  5-MIN KMLU 130220Z 00000KT 10SM CLR 25/22 A3007 -50 84 1100 000/00 RMK AO2 T02500222
13942KMLU MLU20190912202510309/12/19 20:25:31  5-MIN KMLU 130225Z 00000KT 10SM CLR 25/22 A3007 -50 84 1100 000/00 RMK AO2 T02500222
13942KMLU MLU20190912203010309/12/19 20:30:31  5-MIN KMLU 130230Z 00000KT 10SM CLR 24/22 A3007 -50 87 1100 000/00 RMK AO2 T02440222
13942KMLU MLU20190912203510309/12/19 20:35:31  5-MIN KMLU 130235Z 00000KT 10SM CLR 24/22 A3007 -50 87 1100 000/00 RMK AO2 T02440222
13942KMLU MLU20190912204010309/12/19 20:40:31  5-MIN KMLU 130240Z 00000KT 10SM CLR 24/22 A3007 -60 87 1100 000/00 RMK AO2 T02440222
13942KMLU MLU20190912204510309/12/19 20:45:31  5-MIN KMLU 130245Z 00000KT 10SM CLR 25/22 A3007 -60 84 1100 000/00 RMK AO2 T02500222
13942KMLU MLU20190912205011609/12/19 20:50:31  5-MIN KMLU 130250Z 00000KT 10SM CLR 24/22 A3008 -60 87 1100 000/00 RMK AO2 SLP183 T02440222 55007
13942KMLU MLU20190912205510809/12/19 20:55:31  5-MIN KMLU 130255Z AUTO 00000KT 10SM CLR 25/22 A3008 -60 81 1100 000/00 RMK AO2 T02500217
13942KMLU MLU20190912210010809/12/19 21:00:31  5-MIN KMLU 130300Z AUTO 00000KT 10SM CLR 24/22 A3008 -60 84 1100 000/00 RMK AO2 T02440217
13942KMLU MLU20190912210510809/12/19 21:05:31  5-MIN KMLU 130305Z AUTO 00000KT 10SM CLR 24/22 A3008 -60 84 1100 000/00 RMK AO2 T02440217
13942KMLU MLU20190912211010809/12/19 21:10:31  5-MIN KMLU 130310Z AUTO 00000KT 10SM CLR 24/22 A3008 -60 87 1100 000/00 RMK AO2 T02440222
13942KMLU MLU20190912211510809/12/19 21:15:31  5-MIN KMLU 130315Z AUTO 00000KT 10SM CLR 24/22 A3008 -60 84 1100 000/00 RMK AO2 T02440217
13942KMLU MLU20190912212010809/12/19 21:20:31  5-MIN KMLU 130320Z AUTO 00000KT 10SM CLR 24/22 A3008 -60 84 1100 000/00 RMK AO2 T02440217
13942KMLU MLU20190912212510809/12/19 21:25:31  5-MIN KMLU 130325Z AUTO 00000KT 10SM CLR 24/22 A3009 -70 87 1000 000/00 RMK AO2 T02390217
13942KMLU MLU20190912213010809/12/19 21:30:31  5-MIN KMLU 130330Z AUTO 00000KT 10SM CLR 24/22 A3009 -70 87 1000 000/00 RMK AO2 T02390217
13942KMLU MLU20190912213510809/12/19 21:35:31  5-MIN KMLU 130335Z AUTO 00000KT 10SM CLR 24/22 A3009 -70 87 1000 000/00 RMK AO2 T02390217
13942KMLU MLU20190912214010809/12/19 21:40:31  5-MIN KMLU 130340Z AUTO 00000KT 10SM CLR 24/22 A3009 -70 87 1000 000/00 RMK AO2 T02390217
13942KMLU MLU20190912214510809/12/19 21:45:31  5-MIN KMLU 130345Z AUTO 00000KT 10SM CLR 24/22 A3009 -70 87 1000 000/00 RMK AO2 T02390217
13942KMLU MLU20190912215011509/12/19 21:50:31  5-MIN KMLU 130350Z AUTO 00000KT 10SM CLR 24/22 A3009 -70 87 1000 000/00 RMK AO2 SLP188 T02390217
13942KMLU MLU20190912215510809/12/19 21:55:31  5-MIN KMLU 130355Z AUTO 00000KT 10SM CLR 24/22 A3009 -70 87 1000 000/00 RMK AO2 T02390217
13942KMLU MLU20190912220010809/12/19 22:00:31  5-MIN KMLU 130400Z AUTO 00000KT 10SM CLR 24/22 A3010 -80 87 1000 000/00 RMK AO2 T02390217
13942KMLU MLU20190912220510809/12/19 22:05:31  5-MIN KMLU 130405Z AUTO 00000KT 10SM CLR 24/21 A3010 -80 84 1000 000/00 RMK AO2 T02390211
13942KMLU MLU20190912221010809/12/19 22:10:31  5-MIN KMLU 130410Z AUTO 00000KT 10SM CLR 24/21 A3010 -80 81 1000 000/00 RMK AO2 T02390206
13942KMLU MLU20190912221510709/12/19 22:15:31  5-MIN KMLU 130415Z AUTO 00000KT 10SM CLR 23/21 A3010 -80 84 900 000/00 RMK AO2 T02330206
13942KMLU MLU20190912222010709/12/19 22:20:31  5-MIN KMLU 130420Z AUTO 00000KT 10SM CLR 23/21 A3010 -80 84 900 000/00 RMK AO2 T02330206
13942KMLU MLU20190912222510709/12/19 22:25:31  5-MIN KMLU 130425Z AUTO 00000KT 10SM CLR 23/21 A3010 -80 84 900 000/00 RMK AO2 T02330206
13942KMLU MLU20190912223010809/12/19 22:30:31  5-MIN KMLU 130430Z AUTO 00000KT 10SM CLR 24/21 A3010 -80 84 1000 000/00 RMK AO2 T02390211
13942KMLU MLU20190912223510709/12/19 22:35:31  5-MIN KMLU 130435Z AUTO 00000KT 10SM CLR 23/21 A3010 -80 87 900 000/00 RMK AO2 T02330211
13942KMLU MLU20190912224010709/12/19 22:40:31  5-MIN KMLU 130440Z AUTO 00000KT 10SM CLR 23/21 A3010 -80 84 900 000/00 RMK AO2 T02330206
13942KMLU MLU20190912224510709/12/19 22:45:31  5-MIN KMLU 130445Z AUTO 00000KT 10SM CLR 23/21 A3010 -80 84 900 000/00 RMK AO2 T02330206
13942KMLU MLU20190912225011409/12/19 22:50:31  5-MIN KMLU 130450Z AUTO 00000KT 10SM CLR 23/21 A3010 -80 84 900 000/00 RMK AO2 SLP190 T02330206
13942KMLU MLU20190912225510709/12/19 22:55:31  5-MIN KMLU 130455Z AUTO 00000KT 10SM CLR 23/21 A3010 -80 87 900 000/00 RMK AO2 T02330211
13942KMLU MLU20190912230010709/12/19 23:00:31  5-MIN KMLU 130500Z AUTO 00000KT 10SM CLR 23/21 A3010 -80 87 900 000/00 RMK AO2 T02330211
13942KMLU MLU20190912230510709/12/19 23:05:31  5-MIN KMLU 130505Z AUTO 00000KT 10SM CLR 23/22 A3010 -80 90 900 000/00 RMK AO2 T02330217
13942KMLU MLU20190912231010709/12/19 23:10:31  5-MIN KMLU 130510Z AUTO 00000KT 10SM CLR 23/21 A3010 -80 87 900 000/00 RMK AO2 T02330211
13942KMLU MLU20190912231510709/12/19 23:15:31  5-MIN KMLU 130515Z AUTO 00000KT 10SM CLR 23/21 A3010 -80 87 900 000/00 RMK AO2 T02330211
13942KMLU MLU20190912232010709/12/19 23:20:31  5-MIN KMLU 130520Z AUTO 00000KT 10SM CLR 23/21 A3010 -80 87 900 000/00 RMK AO2 T02330211
13942KMLU MLU20190912232510709/12/19 23:25:31  5-MIN KMLU 130525Z AUTO 00000KT 10SM CLR 23/21 A3010 -80 87 900 000/00 RMK AO2 T02330211
13942KMLU MLU20190912233010709/12/19 23:30:31  5-MIN KMLU 130530Z AUTO 00000KT 10SM CLR 23/21 A3010 -80 87 900 000/00 RMK AO2 T02330211
13942KMLU MLU20190912233510709/12/19 23:35:31  5-MIN KMLU 130535Z AUTO 00000KT 10SM CLR 23/21 A3010 -80 87 900 000/00 RMK AO2 T02330211
13942KMLU MLU20190912234010709/12/19 23:40:31  5-MIN KMLU 130540Z AUTO 00000KT 10SM CLR 23/21 A3010 -80 87 900 000/00 RMK AO2 T02330211
13942KMLU MLU20190912234510709/12/19 23:45:31  5-MIN KMLU 130545Z AUTO 00000KT 10SM CLR 23/21 A3010 -80 87 800 000/00 RMK AO2 T02280206
13942KMLU MLU20190912235014209/12/19 23:50:31  5-MIN KMLU 130550Z AUTO 00000KT 10SM CLR 23/21 A3010 -80 87 800 000/00 RMK AO2 SLP189 T02280206 10306 20228 403670217 53011
13942KMLU MLU20190912235510709/12/19 23:55:31  5-MIN KMLU 130555Z AUTO 00000KT 10SM CLR 23/20 A3010 -80 81 900 000/00 RMK AO2 T02330200
13942KMLU MLU20190913000010709/13/19 00:00:31  5-MIN KMLU 130600Z AUTO 00000KT 10SM CLR 23/21 A3010 -80 87 800 000/00 RMK AO2 T02280206
13942KMLU MLU20190913000510709/13/19 00:05:31  5-MIN KMLU 130605Z AUTO 00000KT 10SM CLR 23/21 A3009 -70 87 800 000/00 RMK AO2 T02280206
13942KMLU MLU20190913001010709/13/19 00:10:31  5-MIN KMLU 130610Z AUTO 00000KT 10SM CLR 22/21 A3010 -80 90 800 000/00 RMK AO2 T02220206
13942KMLU MLU20190913001510709/13/19 00:15:31  5-MIN KMLU 130615Z AUTO 00000KT 10SM CLR 23/21 A3010 -80 87 800 000/00 RMK AO2 T02280206
13942KMLU MLU20190913002010709/13/19 00:20:31  5-MIN KMLU 130620Z AUTO 00000KT 10SM CLR 23/21 A3010 -80 87 800 000/00 RMK AO2 T02280206
13942KMLU MLU20190913002510709/13/19 00:25:31  5-MIN KMLU 130625Z AUTO 00000KT 10SM CLR 22/21 A3010 -80 90 800 000/00 RMK AO2 T02220206
13942KMLU MLU20190913003010709/13/19 00:30:31  5-MIN KMLU 130630Z AUTO 00000KT 10SM CLR 22/21 A3010 -80 90 800 000/00 RMK AO2 T02220206
13942KMLU MLU20190913003510709/13/19 00:35:31  5-MIN KMLU 130635Z AUTO 00000KT 10SM CLR 22/21 A3010 -80 90 800 000/00 RMK AO2 T02220206
13942KMLU MLU20190913004010709/13/19 00:40:31  5-MIN KMLU 130640Z AUTO 00000KT 10SM CLR 22/21 A3010 -80 90 800 000/00 RMK AO2 T02220206
13942KMLU MLU20190913004510709/13/19 00:45:31  5-MIN KMLU 130645Z AUTO 00000KT 10SM CLR 23/21 A3011 -80 87 800 000/00 RMK AO2 T02280206
13942KMLU MLU20190913005011409/13/19 00:50:31  5-MIN KMLU 130650Z AUTO 00000KT 10SM CLR 23/21 A3011 -90 87 800 000/00 RMK AO2 SLP193 T02280206
13942KMLU MLU20190913005510709/13/19 00:55:31  5-MIN KMLU 130655Z AUTO 00000KT 10SM CLR 23/21 A3011 -90 87 800 000/00 RMK AO2 T02280206
13942KMLU MLU20190913010010709/13/19 01:00:31  5-MIN KMLU 130700Z AUTO 00000KT 10SM CLR 23/21 A3011 -90 87 800 000/00 RMK AO2 T02280206
13942KMLU MLU20190913010510709/13/19 01:05:31  5-MIN KMLU 130705Z AUTO 00000KT 10SM CLR 23/21 A3010 -80 87 800 000/00 RMK AO2 T02280206
13942KMLU MLU20190913011010709/13/19 01:10:31  5-MIN KMLU 130710Z AUTO 00000KT 10SM CLR 23/21 A3010 -80 87 800 000/00 RMK AO2 T02280206
13942KMLU MLU20190913011510709/13/19 01:15:31  5-MIN KMLU 130715Z AUTO 00000KT 10SM CLR 23/21 A3010 -80 87 800 000/00 RMK AO2 T02280206
13942KMLU MLU20190913012010709/13/19 01:20:31  5-MIN KMLU 130720Z AUTO 00000KT 10SM CLR 22/21 A3010 -80 90 800 000/00 RMK AO2 T02220206
13942KMLU MLU20190913012510709/13/19 01:25:31  5-MIN KMLU 130725Z AUTO 00000KT 10SM CLR 22/21 A3010 -80 90 800 000/00 RMK AO2 T02220206
13942KMLU MLU20190913013010709/13/19 01:30:31  5-MIN KMLU 130730Z AUTO 00000KT 10SM CLR 22/21 A3010 -80 90 800 000/00 RMK AO2 T02220206
13942KMLU MLU20190913013510709/13/19 01:35:31  5-MIN KMLU 130735Z AUTO 00000KT 10SM CLR 22/21 A3010 -80 90 800 000/00 RMK AO2 T02220206
13942KMLU MLU20190913014010709/13/19 01:40:31  5-MIN KMLU 130740Z AUTO 00000KT 10SM CLR 22/20 A3010 -80 87 800 000/00 RMK AO2 T02220200
13942KMLU MLU20190913014510709/13/19 01:45:31  5-MIN KMLU 130745Z AUTO 00000KT 10SM CLR 22/20 A3010 -80 87 800 000/00 RMK AO2 T02220200
13942KMLU MLU20190913015011409/13/19 01:50:31  5-MIN KMLU 130750Z AUTO 00000KT 10SM CLR 23/20 A3010 -80 84 800 000/00 RMK AO2 SLP190 T02280200
13942KMLU MLU20190913015510709/13/19 01:55:31  5-MIN KMLU 130755Z AUTO 00000KT 10SM CLR 22/21 A3010 -80 90 800 000/00 RMK AO2 T02220206
13942KMLU MLU20190913020010709/13/19 02:00:31  5-MIN KMLU 130800Z AUTO 00000KT 10SM CLR 22/21 A3010 -80 90 800 000/00 RMK AO2 T02220206
13942KMLU MLU20190913020510709/13/19 02:05:31  5-MIN KMLU 130805Z AUTO 00000KT 10SM CLR 22/21 A3010 -80 90 800 000/00 RMK AO2 T02220206
13942KMLU MLU20190913021010709/13/19 02:10:31  5-MIN KMLU 130810Z AUTO 00000KT 10SM CLR 22/21 A3010 -80 90 800 000/00 RMK AO2 T02220206
13942KMLU MLU20190913021510709/13/19 02:15:31  5-MIN KMLU 130815Z AUTO 00000KT 10SM CLR 22/21 A3009 -70 90 800 000/00 RMK AO2 T02220206
13942KMLU MLU20190913022010709/13/19 02:20:31  5-MIN KMLU 130820Z AUTO 00000KT 10SM CLR 22/21 A3010 -80 90 800 000/00 RMK AO2 T02220206
13942KMLU MLU20190913022510709/13/19 02:25:31  5-MIN KMLU 130825Z AUTO 00000KT 10SM CLR 22/21 A3010 -80 90 800 000/00 RMK AO2 T02220206
13942KMLU MLU20190913023010709/13/19 02:30:31  5-MIN KMLU 130830Z AUTO 00000KT 10SM CLR 22/21 A3009 -70 90 800 000/00 RMK AO2 T02220206
13942KMLU MLU20190913023510709/13/19 02:35:31  5-MIN KMLU 130835Z AUTO 00000KT 10SM CLR 22/21 A3009 -70 90 800 000/00 RMK AO2 T02220206
13942KMLU MLU20190913024010709/13/19 02:40:31  5-MIN KMLU 130840Z AUTO 00000KT 10SM CLR 22/21 A3009 -70 90 800 000/00 RMK AO2 T02220206
13942KMLU MLU20190913024510709/13/19 02:45:31  5-MIN KMLU 130845Z AUTO 00000KT 10SM CLR 22/20 A3009 -70 90 700 000/00 RMK AO2 T02170200
13942KMLU MLU20190913025012009/13/19 02:50:31  5-MIN KMLU 130850Z AUTO 00000KT 10SM CLR 22/21 A3009 -70 90 800 000/00 RMK AO2 SLP189 T02220206 50007
13942KMLU MLU20190913025510709/13/19 02:55:31  5-MIN KMLU 130855Z AUTO 00000KT 10SM CLR 22/21 A3009 -70 90 800 000/00 RMK AO2 T02220206
13942KMLU MLU20190913030010609/13/19 03:00:31  5-MIN KMLU 130900Z AUTO 00000KT 9SM CLR 22/21 A3009 -70 93 700 000/00 RMK AO2 T02170206
13942KMLU MLU20190913030510609/13/19 03:05:31  5-MIN KMLU 130905Z AUTO 00000KT 9SM CLR 22/21 A3009 -70 93 700 000/00 RMK AO2 T02170206
13942KMLU MLU20190913031010709/13/19 03:10:31  5-MIN KMLU 130910Z AUTO 00000KT 10SM CLR 22/21 A3009 -70 90 800 000/00 RMK AO2 T02220206
13942KMLU MLU20190913031510609/13/19 03:15:31  5-MIN KMLU 130915Z AUTO 00000KT 9SM CLR 22/21 A3009 -70 93 800 000/00 RMK AO2 T02220211
13942KMLU MLU20190913032010609/13/19 03:20:31  5-MIN KMLU 130920Z AUTO 00000KT 8SM CLR 22/21 A3010 -80 93 700 000/00 RMK AO2 T02170206
13942KMLU MLU20190913032510609/13/19 03:25:31  5-MIN KMLU 130925Z AUTO 00000KT 7SM CLR 22/21 A3010 -80 93 800 000/00 RMK AO2 T02220211
13942KMLU MLU20190913033010609/13/19 03:30:31  5-MIN KMLU 130930Z AUTO 00000KT 7SM CLR 22/21 A3010 -80 97 700 000/00 RMK AO2 T02170211
13942KMLU MLU20190913033510909/13/19 03:35:31  5-MIN KMLU 130935Z AUTO 00000KT 5SM BR CLR 22/21 A3010 -80 97 700 000/00 RMK AO2 T02170211
13942KMLU MLU20190913034010909/13/19 03:40:31  5-MIN KMLU 130940Z AUTO 00000KT 5SM BR CLR 22/21 A3010 -80 93 700 000/00 RMK AO2 T02170206
13942KMLU MLU20190913034510609/13/19 03:45:31  5-MIN KMLU 130945Z AUTO 00000KT 7SM CLR 22/21 A3010 -80 90 800 000/00 RMK AO2 T02220206
13942KMLU MLU20190913035011309/13/19 03:50:31  5-MIN KMLU 130950Z AUTO 00000KT 9SM CLR 22/21 A3010 -80 93 700 000/00 RMK AO2 SLP193 T02170206
13942KMLU MLU20190913035510709/13/19 03:55:31  5-MIN KMLU 130955Z AUTO 00000KT 10SM CLR 22/21 A3011 -90 93 700 000/00 RMK AO2 T02170206
13942KMLU MLU20190913040010709/13/19 04:00:31  5-MIN KMLU 131000Z AUTO 00000KT 10SM CLR 22/21 A3011 -90 93 700 000/00 RMK AO2 T02170206
13942KMLU MLU20190913040510609/13/19 04:05:31  5-MIN KMLU 131005Z AUTO 00000KT 9SM CLR 22/21 A3011 -90 93 700 000/00 RMK AO2 T02170206
13942KMLU MLU20190913041010609/13/19 04:10:31  5-MIN KMLU 131010Z AUTO 00000KT 8SM CLR 22/21 A3011 -90 93 700 000/00 RMK AO2 T02170206
13942KMLU MLU20190913041510609/13/19 04:15:31  5-MIN KMLU 131015Z AUTO 00000KT 9SM CLR 22/21 A3011 -90 93 700 000/00 RMK AO2 T02170206
13942KMLU MLU20190913042010609/13/19 04:20:31  5-MIN KMLU 131020Z AUTO 13003KT 8SM CLR 22/21 A3011 -90 93 700 130/03 RMK AO2 T02170206
13942KMLU MLU20190913042510709/13/19 04:25:31  5-MIN KMLU 131025Z AUTO 00000KT 7SM CLR 22/21 A3012 -100 93 800 000/00 RMK AO2 T02220211
13942KMLU MLU20190913043011009/13/19 04:30:31  5-MIN KMLU 131030Z AUTO 00000KT 6SM BR CLR 22/21 A3012 -100 93 800 000/00 RMK AO2 T02220211
13942KMLU MLU20190913043511009/13/19 04:35:31  5-MIN KMLU 131035Z AUTO 00000KT 6SM BR CLR 22/21 A3012 -100 93 800 000/00 RMK AO2 T02220211
13942KMLU MLU20190913044011009/13/19 04:40:31  5-MIN KMLU 131040Z AUTO 00000KT 6SM BR CLR 22/21 A3012 -100 93 800 000/00 RMK AO2 T02220211
13942KMLU MLU20190913044511009/13/19 04:45:31  5-MIN KMLU 131045Z AUTO 00000KT 6SM BR CLR 22/21 A3012 -100 93 800 000/00 RMK AO2 T02220211
13942KMLU MLU20190913045011709/13/19 04:50:31  5-MIN KMLU 131050Z AUTO 00000KT 6SM BR CLR 22/21 A3012 -100 93 800 000/00 RMK AO2 SLP197 T02220211
13942KMLU MLU20190913045510209/13/19 04:55:31  5-MIN KMLU 131055Z 00000KT 8SM CLR 22/21 A3012 -100 93 700 000/00 RMK AO2 T02170206
13942KMLU MLU20190913050010209/13/19 05:00:31  5-MIN KMLU 131100Z 00000KT 9SM CLR 22/21 A3012 -100 93 700 000/00 RMK AO2 T02170206
13942KMLU MLU20190913050510209/13/19 05:05:31  5-MIN KMLU 131105Z 00000KT 9SM CLR 22/21 A3012 -100 93 700 000/00 RMK AO2 T02170206
13942KMLU MLU20190913051010209/13/19 05:10:31  5-MIN KMLU 131110Z 00000KT 9SM CLR 22/21 A3012 -100 93 700 000/00 RMK AO2 T02170206
13942KMLU MLU20190913051510209/13/19 05:15:31  5-MIN KMLU 131115Z 00000KT 8SM CLR 22/21 A3012 -100 93 700 000/00 RMK AO2 T02170206
13942KMLU MLU20190913052010209/13/19 05:20:31  5-MIN KMLU 131120Z 00000KT 8SM CLR 22/21 A3012 -100 93 700 000/00 RMK AO2 T02170206
13942KMLU MLU20190913052510209/13/19 05:25:31  5-MIN KMLU 131125Z 00000KT 8SM CLR 22/21 A3012 -100 93 700 000/00 RMK AO2 T02170206
13942KMLU MLU20190913053010209/13/19 05:30:31  5-MIN KMLU 131130Z 00000KT 7SM CLR 22/21 A3012 -100 93 700 000/00 RMK AO2 T02170206
13942KMLU MLU20190913053510509/13/19 05:35:31  5-MIN KMLU 131135Z 00000KT 6SM BR CLR 22/21 A3012 -100 97 700 000/00 RMK AO2 T02170211
13942KMLU MLU20190913054010509/13/19 05:40:31  5-MIN KMLU 131140Z 00000KT 5SM BR CLR 22/21 A3012 -100 93 700 000/00 RMK AO2 T02170206
13942KMLU MLU20190913054510509/13/19 05:45:31  5-MIN KMLU 131145Z 00000KT 6SM BR CLR 21/20 A3012 -100 93 600 000/00 RMK AO2 T02110200
13942KMLU MLU20190913055012709/13/19 05:50:31  5-MIN KMLU 131150Z 00000KT 8SM CLR 21/20 A3013 -100 93 600 000/00 RMK AO2 SLP200 T02110200 10233 20211 58001
13942KMLU MLU20190913055510509/13/19 05:55:31  5-MIN KMLU 131155Z 00000KT 6SM BR CLR 21/20 A3013 -100 93 600 000/00 RMK AO2 T02110200
13942KMLU MLU20190913060010509/13/19 06:00:31  5-MIN KMLU 131200Z 00000KT 5SM BR CLR 22/21 A3013 -100 93 700 000/00 RMK AO2 T02170206
13942KMLU MLU20190913060510509/13/19 06:05:31  5-MIN KMLU 131205Z 00000KT 6SM BR CLR 22/21 A3013 -100 93 700 000/00 RMK AO2 T02170206
13942KMLU MLU20190913061010509/13/19 06:10:31  5-MIN KMLU 131210Z 00000KT 6SM BR CLR 22/21 A3013 -110 93 700 000/00 RMK AO2 T02170206
13942KMLU MLU20190913061510509/13/19 06:15:31  5-MIN KMLU 131215Z 00000KT 6SM BR CLR 22/21 A3013 -100 97 700 000/00 RMK AO2 T02170211
13942KMLU MLU20190913062010509/13/19 06:20:31  5-MIN KMLU 131220Z 00000KT 6SM BR CLR 22/21 A3013 -110 93 700 000/00 RMK AO2 T02220211
13942KMLU MLU20190913062510509/13/19 06:25:31  5-MIN KMLU 131225Z 00000KT 6SM BR CLR 22/21 A3013 -110 93 700 000/00 RMK AO2 T02220211
13942KMLU MLU20190913063010509/13/19 06:30:31  5-MIN KMLU 131230Z 00000KT 6SM BR CLR 22/21 A3013 -110 93 700 000/00 RMK AO2 T02220211
13942KMLU MLU20190913063510509/13/19 06:35:31  5-MIN KMLU 131235Z 00000KT 6SM BR CLR 23/22 A3013 -110 93 800 000/00 RMK AO2 T02280217
13942KMLU MLU20190913064010209/13/19 06:40:31  5-MIN KMLU 131240Z 00000KT 7SM CLR 23/22 A3014 -110 93 800 000/00 RMK AO2 T02280217
13942KMLU MLU20190913064510509/13/19 06:45:31  5-MIN KMLU 131245Z 00000KT 6SM BR CLR 23/22 A3014 -110 97 800 000/00 RMK AO2 T02280222
13942KMLU MLU20190913065011209/13/19 06:50:31  5-MIN KMLU 131250Z 00000KT 6SM BR CLR 23/22 A3014 -120 90 900 000/00 RMK AO2 SLP204 T02330217
13942KMLU MLU20190913065510509/13/19 06:55:31  5-MIN KMLU 131255Z 00000KT 6SM BR CLR 23/22 A3014 -120 90 900 000/00 RMK AO2 T02330217
13942KMLU MLU20190913070010209/13/19 07:00:31  5-MIN KMLU 131300Z 00000KT 8SM CLR 24/22 A3014 -120 87 900 000/00 RMK AO2 T02390217
13942KMLU MLU20190913070510309/13/19 07:05:31  5-MIN KMLU 131305Z 00000KT 9SM CLR 24/22 A3014 -120 84 1000 000/00 RMK AO2 T02440217
13942KMLU MLU20190913071010309/13/19 07:10:31  5-MIN KMLU 131310Z 00000KT 9SM CLR 24/22 A3015 -120 87 1000 000/00 RMK AO2 T02440222
13942KMLU MLU20190913071510309/13/19 07:15:31  5-MIN KMLU 131315Z 00000KT 9SM CLR 25/23 A3015 -120 87 1000 000/00 RMK AO2 T02500228
13942KMLU MLU20190913072010309/13/19 07:20:31  5-MIN KMLU 131320Z 00000KT 9SM CLR 26/23 A3015 -120 84 1100 000/00 RMK AO2 T02560228
13942KMLU MLU20190913072510409/13/19 07:25:31  5-MIN KMLU 131325Z 00000KT 10SM CLR 26/22 A3015 -120 81 1100 000/00 RMK AO2 T02560222
13942KMLU MLU20190913073010409/13/19 07:30:31  5-MIN KMLU 131330Z 04003KT 10SM CLR 26/22 A3015 -120 79 1200 040/03 RMK AO2 T02610222
13942KMLU MLU20190913073510409/13/19 07:35:31  5-MIN KMLU 131335Z 06003KT 10SM CLR 27/22 A3015 -120 76 1200 060/03 RMK AO2 T02670222
13942KMLU MLU20190913074010409/13/19 07:40:31  5-MIN KMLU 131340Z 00000KT 10SM CLR 27/21 A3015 -130 71 1200 000/00 RMK AO2 T02670211
13942KMLU MLU20190913074510409/13/19 07:45:31  5-MIN KMLU 131345Z 00000KT 10SM CLR 27/21 A3015 -130 69 1300 000/00 RMK AO2 T02720211
13942KMLU MLU20190913075011109/13/19 07:50:31  5-MIN KMLU 131350Z 00000KT 10SM CLR 28/22 A3015 -130 69 1300 000/00 RMK AO2 SLP209 T02780217
13942KMLU MLU20190913075510409/13/19 07:55:31  5-MIN KMLU 131355Z 05003KT 10SM CLR 28/22 A3016 -130 69 1300 050/03 RMK AO2 T02780217
13942KMLU MLU20190913080010409/13/19 08:00:31  5-MIN KMLU 131400Z 07003KT 10SM CLR 28/22 A3016 -130 66 1400 070/03 RMK AO2 T02830217
13942KMLU MLU20190913080510409/13/19 08:05:31  5-MIN KMLU 131405Z 00000KT 10SM CLR 28/22 A3016 -130 66 1400 000/00 RMK AO2 T02830217
13942KMLU MLU20190913081010409/13/19 08:10:31  5-MIN KMLU 131410Z 00000KT 10SM CLR 28/22 A3016 -130 66 1400 000/00 RMK AO2 T02830217
13942KMLU MLU20190913081510409/13/19 08:15:31  5-MIN KMLU 131415Z 10003KT 10SM CLR 29/21 A3016 -130 62 1500 090/03 RMK AO2 T02890211
13942KMLU MLU20190913082010409/13/19 08:20:31  5-MIN KMLU 131420Z 00000KT 10SM CLR 29/21 A3016 -130 60 1500 000/00 RMK AO2 T02890206
13942KMLU MLU20190913082510409/13/19 08:25:31  5-MIN KMLU 131425Z 00000KT 10SM CLR 29/21 A3016 -130 60 1500 000/00 RMK AO2 T02940211
13942KMLU MLU20190913083010409/13/19 08:30:31  5-MIN KMLU 131430Z 00000KT 10SM CLR 29/21 A3016 -130 60 1500 000/00 RMK AO2 T02940211
13942KMLU MLU20190913083510409/13/19 08:35:31  5-MIN KMLU 131435Z 00000KT 10SM CLR 30/21 A3016 -130 58 1600 000/00 RMK AO2 T03000211
13942KMLU MLU20190913084010409/13/19 08:40:31  5-MIN KMLU 131440Z 00000KT 10SM CLR 31/22 A3016 -130 58 1700 000/00 RMK AO2 T03060217
13942KMLU MLU20190913084510409/13/19 08:45:31  5-MIN KMLU 131445Z 00000KT 10SM CLR 31/22 A3016 -130 58 1700 000/00 RMK AO2 T03060217
13942KMLU MLU20190913085011709/13/19 08:50:31  5-MIN KMLU 131450Z 05003KT 10SM CLR 31/21 A3016 -140 56 1600 050/03 RMK AO2 SLP212 T03060211 51011
13942KMLU MLU20190913085510409/13/19 08:55:31  5-MIN KMLU 131455Z 03003KT 10SM CLR 31/21 A3016 -140 54 1700 030/03 RMK AO2 T03110211
13942KMLU MLU20190913090010409/13/19 09:00:31  5-MIN KMLU 131500Z 00000KT 10SM CLR 31/21 A3016 -140 54 1700 000/00 RMK AO2 T03110211
13942KMLU MLU20190913090510409/13/19 09:05:31  5-MIN KMLU 131505Z 09003KT 10SM CLR 32/21 A3016 -140 53 1800 090/03 RMK AO2 T03170211
13942KMLU MLU20190913091010409/13/19 09:10:31  5-MIN KMLU 131510Z 09003KT 10SM CLR 32/21 A3016 -140 53 1800 080/03 RMK AO2 T03170211
13942KMLU MLU20190913091510409/13/19 09:15:31  5-MIN KMLU 131515Z 08003KT 10SM CLR 32/21 A3016 -140 51 1800 080/03 RMK AO2 T03220211
13942KMLU MLU20190913092010409/13/19 09:20:31  5-MIN KMLU 131520Z 07003KT 10SM CLR 32/21 A3017 -140 51 1800 070/03 RMK AO2 T03220211
13942KMLU MLU20190913092510409/13/19 09:25:31  5-MIN KMLU 131525Z VRB04KT 10SM CLR 32/21 A3017 -140 51 1800 VRB/04 RMK AO2 T03220211
13942KMLU MLU20190913093010409/13/19 09:30:31  5-MIN KMLU 131530Z 00000KT 10SM CLR 33/21 A3017 -140 49 1900 000/00 RMK AO2 T03280211
13942KMLU MLU20190913093510409/13/19 09:35:31  5-MIN KMLU 131535Z 07004KT 10SM CLR 33/21 A3017 -140 49 1900 070/04 RMK AO2 T03280211
13942KMLU MLU20190913094010409/13/19 09:40:31  5-MIN KMLU 131540Z 06003KT 10SM CLR 33/21 A3017 -140 48 2000 060/03 RMK AO2 T03330211
13942KMLU MLU20190913094510409/13/19 09:45:31  5-MIN KMLU 131545Z 09004KT 10SM CLR 33/21 A3017 -140 48 2000 090/04 RMK AO2 T03330211
13942KMLU MLU20190913095011109/13/19 09:50:31  5-MIN KMLU 131550Z VRB03KT 10SM CLR 33/21 A3017 -140 48 2000 VRB/03 RMK AO2 SLP214 T03330211
13942KMLU MLU20190913095510709/13/19 09:55:31  5-MIN KMLU 131555Z 09003KT 10SM HZ CLR 34/21 A3017 -140 46 2000 090/03 RMK AO2 T03390211
13942KMLU MLU20190913100010709/13/19 10:00:31  5-MIN KMLU 131600Z 03004KT 10SM HZ CLR 34/21 A3017 -140 46 2000 030/04 RMK AO2 T03390211
13942KMLU MLU20190913100510709/13/19 10:05:31  5-MIN KMLU 131605Z 04004KT 10SM HZ CLR 34/21 A3017 -140 45 2000 040/04 RMK AO2 T03390206
13942KMLU MLU20190913101010709/13/19 10:10:31  5-MIN KMLU 131610Z VRB03KT 10SM HZ CLR 34/21 A3017 -140 45 2000 VRB/03 RMK AO2 T03390206
13942KMLU MLU20190913101510709/13/19 10:15:31  5-MIN KMLU 131615Z 03005KT 10SM HZ CLR 34/21 A3016 -140 43 2100 030/05 RMK AO2 T03440206
13942KMLU MLU20190913102010709/13/19 10:20:31  5-MIN KMLU 131620Z 02003KT 10SM HZ CLR 35/21 A3016 -140 43 2100 020/03 RMK AO2 T03500211
13942KMLU MLU20190913102510709/13/19 10:25:31  5-MIN KMLU 131625Z 09005KT 10SM HZ CLR 34/21 A3016 -140 43 2100 090/05 RMK AO2 T03440206
13942KMLU MLU20190913103010709/13/19 10:30:31  5-MIN KMLU 131630Z 06006KT 10SM HZ CLR 34/21 A3016 -130 43 2100 060/06 RMK AO2 T03440206
13942KMLU MLU20190913103510709/13/19 10:35:31  5-MIN KMLU 131635Z VRB03KT 10SM HZ CLR 35/20 A3016 -130 40 2100 VRB/03 RMK AO2 T03500200
13942KMLU MLU20190913104010709/13/19 10:40:31  5-MIN KMLU 131640Z 06007KT 10SM HZ CLR 35/21 A3016 -130 42 2100 060/07 RMK AO2 T03500206
13942KMLU MLU20190913104510709/13/19 10:45:31  5-MIN KMLU 131645Z VRB05KT 10SM HZ CLR 34/21 A3016 -130 43 2100 VRB/05 RMK AO2 T03440206
13942KMLU MLU20190913105011409/13/19 10:50:31  5-MIN KMLU 131650Z 09005KT 10SM HZ CLR 34/21 A3016 -130 45 2100 090/05 RMK AO2 SLP210 T03440211
13942KMLU MLU20190913105510709/13/19 10:55:31  5-MIN KMLU 131655Z 06004KT 10SM HZ CLR 35/21 A3015 -130 42 2100 060/04 RMK AO2 T03500206
13942KMLU MLU20190913110010709/13/19 11:00:31  5-MIN KMLU 131700Z VRB03KT 10SM HZ CLR 34/21 A3015 -130 43 2100 VRB/03 RMK AO2 T03440206
13942KMLU MLU20190913110510709/13/19 11:05:31  5-MIN KMLU 131705Z 01003KT 10SM HZ CLR 35/21 A3015 -130 42 2200 010/03 RMK AO2 T03500206
13942KMLU MLU20190913111010709/13/19 11:10:31  5-MIN KMLU 131710Z 00000KT 10SM HZ CLR 35/21 A3015 -130 43 2200 000/00 RMK AO2 T03500211
13942KMLU MLU20190913111510709/13/19 11:15:31  5-MIN KMLU 131715Z 00000KT 10SM HZ CLR 36/21 A3015 -130 42 2200 000/00 RMK AO2 T03560211
13942KMLU MLU20190913112010709/13/19 11:20:31  5-MIN KMLU 131720Z VRB03KT 10SM HZ CLR 36/21 A3015 -120 41 2200 VRB/03 RMK AO2 T03560206
13942KMLU MLU20190913112510709/13/19 11:25:31  5-MIN KMLU 131725Z 36007KT 10SM HZ CLR 36/20 A3015 -120 39 2200 360/07 RMK AO2 T03560200
13942KMLU MLU20190913113010709/13/19 11:30:31  5-MIN KMLU 131730Z VRB03KT 10SM HZ CLR 36/20 A3015 -120 38 2300 VRB/03 RMK AO2 T03610200
13942KMLU MLU20190913113510709/13/19 11:35:31  5-MIN KMLU 131735Z VRB04KT 10SM HZ CLR 36/20 A3015 -120 38 2300 VRB/04 RMK AO2 T03610200
13942KMLU MLU20190913114010709/13/19 11:40:31  5-MIN KMLU 131740Z VRB04KT 10SM HZ CLR 36/19 A3014 -120 37 2300 VRB/04 RMK AO2 T03610194
13942KMLU MLU20190913114510709/13/19 11:45:31  5-MIN KMLU 131745Z 10006KT 10SM HZ CLR 36/20 A3014 -120 38 2300 100/06 RMK AO2 T03610200
13942KMLU MLU20190913115013209/13/19 11:50:31  5-MIN KMLU 131750Z VRB03KT 10SM HZ CLR 36/19 A3014 -120 37 2300 VRB/03 RMK AO2 SLP205 T03610194 10361 20211 51013
13942KMLU MLU20190913115510709/13/19 11:55:31  5-MIN KMLU 131755Z VRB03KT 10SM HZ CLR 36/19 A3014 -120 35 2300 VRB/03 RMK AO2 T03610189
13942KMLU MLU20190913120010909/13/19 12:00:31  5-MIN KMLU 131800Z VRB04KT 6SM HZ FEW075 37/19 A3014 -110 34 2300 VRB/04 RMK AO2 T03670189
13942KMLU MLU20190913120510909/13/19 12:05:31  5-MIN KMLU 131805Z 06003KT 6SM HZ FEW075 37/19 A3014 -110 34 2400 060/03 RMK AO2 T03720194
13942KMLU MLU20190913121010909/13/19 12:10:31  5-MIN KMLU 131810Z 00000KT 6SM HZ FEW075 36/19 A3013 -110 35 2300 000/00 RMK AO2 T03610189
13942KMLU MLU20190913121509909/13/19 12:15:31  5-MIN KMLU 131815Z 6SM HZ FEW075 37/19 A3013 -110 34 2400 M /M RMK AO2 T03670189
13942KMLU MLU20190913122010909/13/19 12:20:31  5-MIN KMLU 131820Z VRB03KT 6SM HZ FEW075 37/19 A3013 -110 34 2400 VRB/03 RMK AO2 T03670189
13942KMLU MLU20190913122510909/13/19 12:25:31  5-MIN KMLU 131825Z 00000KT 6SM HZ FEW075 37/18 A3013 -100 33 2400 000/00 RMK AO2 T03670183
13942KMLU MLU20190913123010909/13/19 12:30:31  5-MIN KMLU 131830Z VRB04KT 6SM HZ FEW075 37/19 A3013 -100 36 2400 VRB/04 RMK AO2 T03670194
13942KMLU MLU20190913123510909/13/19 12:35:31  5-MIN KMLU 131835Z 07008KT 6SM HZ FEW075 37/19 A3012 -100 33 2400 070/08 RMK AO2 T03720189
13942KMLU MLU20190913124010909/13/19 12:40:31  5-MIN KMLU 131840Z 10006KT 6SM HZ FEW075 37/18 A3012 -100 33 2400 100/06 RMK AO2 T03670183
13942KMLU MLU20190913124510909/13/19 12:45:31  5-MIN KMLU 131845Z 00000KT 6SM HZ FEW075 37/19 A3012 -100 34 2400 000/00 RMK AO2 T03670189
13942KMLU MLU20190913125011509/13/19 12:50:31  5-MIN KMLU 131850Z VRB05KT 6SM HZ FEW075 37/18 A3012 -90 32 2400 VRB/05 RMK AO2 SLP197 T03720183
13942KMLU MLU20190913125513709/13/19 12:55:31  5-MIN KMLU 131855Z 03008G16KT 350V060 6SM HZ SCT075 SCT110 36/18 A3011 -90 33 2300 030/08G16 350V060 RMK AO2 T03610178
13942KMLU MLU20190913130012109/13/19 13:00:31  5-MIN KMLU 131900Z 04006G16KT 6SM HZ SCT075 SCT110 37/18 A3011 -90 33 2400 040/06G16 RMK AO2 T03670183
13942KMLU MLU20190913130511509/13/19 13:05:31  5-MIN KMLU 131905Z 05003KT 6SM HZ SCT075 SCT110 36/18 A3011 -90 33 2300 040/03 RMK AO2 T03610178
13942KMLU MLU20190913131011509/13/19 13:10:31  5-MIN KMLU 131910Z VRB03KT 6SM HZ SCT075 SCT110 37/18 A3011 -90 33 2400 VRB/03 RMK AO2 T03670183
13942KMLU MLU20190913131511509/13/19 13:15:31  5-MIN KMLU 131915Z VRB03KT 6SM HZ SCT075 SCT110 37/18 A3011 -80 33 2400 VRB/03 RMK AO2 T03670183
13942KMLU MLU20190913132011509/13/19 13:20:31  5-MIN KMLU 131920Z 00000KT 6SM HZ SCT075 SCT110 37/18 A3010 -80 32 2400 000/00 RMK AO2 T03720183
13942KMLU MLU20190913132511509/13/19 13:25:31  5-MIN KMLU 131925Z 07008KT 6SM HZ SCT075 SCT110 37/18 A3010 -80 32 2500 070/08 RMK AO2 T03720183
13942KMLU MLU20190913133011509/13/19 13:30:31  5-MIN KMLU 131930Z 00000KT 6SM HZ SCT075 SCT110 37/18 A3010 -80 32 2500 000/00 RMK AO2 T03720183
13942KMLU MLU20190913133511509/13/19 13:35:31  5-MIN KMLU 131935Z 01006KT 6SM HZ SCT075 SCT110 37/19 A3009 -70 33 2500 010/06 RMK AO2 T03720189
13942KMLU MLU20190913134011509/13/19 13:40:31  5-MIN KMLU 131940Z 03006KT 6SM HZ SCT075 SCT110 38/19 A3009 -70 33 2500 030/06 RMK AO2 T03780194
13942KMLU MLU20190913134511509/13/19 13:45:31  5-MIN KMLU 131945Z 32006KT 6SM HZ SCT075 SCT110 37/19 A3009 -70 34 2500 320/06 RMK AO2 T03720194
13942KMLU MLU20190913135011509/13/19 13:50:31  5-MIN KMLU 131950Z 33006KT 6SM HZ BKN085 37/19 A3009 -70 34 2500 330/06 RMK AO2 SLP187 T03720194
13942KMLU MLU20190913135511409/13/19 13:55:31  5-MIN KMLU 131955Z AUTO 04007KT 10SM HZ FEW085 37/19 A3009 -70 34 2500 040/07 RMK AO2 T03720194
13942KMLU MLU20190913140011409/13/19 14:00:31  5-MIN KMLU 132000Z AUTO 06003KT 10SM HZ FEW085 37/18 A3008 -70 32 2400 060/03 RMK AO2 T03670178
13942KMLU MLU20190913140511409/13/19 14:05:31  5-MIN KMLU 132005Z AUTO 08003KT 10SM HZ FEW085 37/18 A3008 -70 31 2500 080/03 RMK AO2 T03720178
13942KMLU MLU20190913141011409/13/19 14:10:31  5-MIN KMLU 132010Z AUTO 06008KT 10SM HZ FEW085 38/18 A3008 -60 31 2500 060/08 RMK AO2 T03780183
13942KMLU MLU20190913141511109/13/19 14:15:31  5-MIN KMLU 132015Z AUTO VRB04KT 10SM HZ CLR 37/18 A3008 -60 31 2500 VRB/04 RMK AO2 T03720178
13942KMLU MLU20190913142010609/13/19 14:20:31  5-MIN KMLU 132020Z 06005KT 10SM HZ CLR 38/18 A3008 -60 30 2500 060/05 RMK AO2 T03780178
13942KMLU MLU20190913142510609/13/19 14:25:31  5-MIN KMLU 132025Z 07004KT 10SM HZ CLR 38/17 A3008 -60 29 2500 060/04 RMK AO2 T03780172
13942KMLU MLU20190913143010609/13/19 14:30:31  5-MIN KMLU 132030Z 07003KT 10SM HZ CLR 37/17 A3008 -60 30 2500 070/03 RMK AO2 T03720172
13942KMLU MLU20190913143510909/13/19 14:35:31  5-MIN KMLU 132035Z 02004KT 10SM HZ FEW085 38/17 A3007 -60 29 2500 020/04 RMK AO2 T03780172
13942KMLU MLU20190913144010909/13/19 14:40:31  5-MIN KMLU 132040Z 01009KT 10SM HZ FEW085 38/18 A3007 -50 30 2500 010/09 RMK AO2 T03780178
13942KMLU MLU20190913144510909/13/19 14:45:31  5-MIN KMLU 132045Z 02009KT 10SM HZ FEW085 36/17 A3007 -50 31 2400 020/09 RMK AO2 T03610167
13942KMLU MLU20190913145012209/13/19 14:50:31  5-MIN KMLU 132050Z 36005KT 10SM HZ FEW080 37/17 A3007 -50 30 2500 360/05 RMK AO2 SLP180 T03720172 58008
13942KMLU MLU20190913145510909/13/19 14:55:31  5-MIN KMLU 132055Z 02009KT 10SM HZ SCT085 38/18 A3007 -50 31 2500 020/09 RMK AO2 T03780183
13942KMLU MLU20190913150010909/13/19 15:00:31  5-MIN KMLU 132100Z 04007KT 10SM HZ SCT085 37/18 A3007 -50 31 2500 030/07 RMK AO2 T03720178
13942KMLU MLU20190913150510909/13/19 15:05:31  5-MIN KMLU 132105Z 06007KT 10SM HZ FEW085 37/18 A3007 -50 32 2500 050/07 RMK AO2 T03720183
13942KMLU MLU20190913151010909/13/19 15:10:31  5-MIN KMLU 132110Z 03007KT 10SM HZ FEW085 36/18 A3007 -50 34 2400 030/07 RMK AO2 T03610183
13942KMLU MLU20190913151510909/13/19 15:15:31  5-MIN KMLU 132115Z 07005KT 10SM HZ FEW085 37/19 A3006 -40 33 2500 070/05 RMK AO2 T03720189
13942KMLU MLU20190913152010909/13/19 15:20:31  5-MIN KMLU 132120Z 06006KT 10SM HZ FEW085 37/18 A3006 -40 32 2500 060/06 RMK AO2 T03720183
13942KMLU MLU20190913152510609/13/19 15:25:31  5-MIN KMLU 132125Z 02006KT 10SM HZ CLR 38/18 A3006 -40 30 2600 020/06 RMK AO2 T03780178
13942KMLU MLU20190913153010609/13/19 15:30:31  5-MIN KMLU 132130Z 02005KT 10SM HZ CLR 38/18 A3006 -40 30 2600 020/05 RMK AO2 T03780178
13942KMLU MLU20190913153510609/13/19 15:35:31  5-MIN KMLU 132135Z 05004KT 10SM HZ CLR 38/18 A3006 -40 31 2600 040/04 RMK AO2 T03780183
13942KMLU MLU20190913154010609/13/19 15:40:31  5-MIN KMLU 132140Z 02005KT 10SM HZ CLR 38/18 A3005 -40 30 2600 020/05 RMK AO2 T03780178
13942KMLU MLU20190913154512509/13/19 15:45:31  5-MIN KMLU 132145Z 05009KT 350V070 10SM HZ FEW080 37/18 A3005 -40 32 2500 050/09 350V070 RMK AO2 T03720183
13942KMLU MLU20190913155011609/13/19 15:50:31  5-MIN KMLU 132150Z 06008KT 10SM HZ FEW080 37/18 A3005 -40 32 2500 050/08 RMK AO2 SLP175 T03720183
13942KMLU MLU20190913155510909/13/19 15:55:31  5-MIN KMLU 132155Z 06011KT 10SM HZ FEW080 36/18 A3006 -40 34 2400 060/11 RMK AO2 T03610183
13942KMLU MLU20190913160010909/13/19 16:00:31  5-MIN KMLU 132200Z 05008KT 10SM HZ FEW080 36/18 A3006 -40 35 2300 050/08 RMK AO2 T03560183
13942KMLU MLU20190913160510909/13/19 16:05:31  5-MIN KMLU 132205Z 05009KT 10SM HZ FEW080 36/18 A3006 -40 35 2300 050/09 RMK AO2 T03560183
13942KMLU MLU20190913161010909/13/19 16:10:31  5-MIN KMLU 132210Z 06006KT 10SM HZ FEW080 36/18 A3006 -40 35 2300 060/06 RMK AO2 T03560183
13942KMLU MLU20190913161510609/13/19 16:15:31  5-MIN KMLU 132215Z 05007KT 10SM HZ CLR 36/18 A3006 -40 34 2400 040/07 RMK AO2 T03610183
13942KMLU MLU20190913162010609/13/19 16:20:31  5-MIN KMLU 132220Z 02009KT 10SM HZ CLR 37/18 A3006 -40 33 2400 020/09 RMK AO2 T03670183
13942KMLU MLU20190913162510609/13/19 16:25:31  5-MIN KMLU 132225Z 36008KT 10SM HZ CLR 37/18 A3006 -40 33 2400 360/08 RMK AO2 T03670183
13942KMLU MLU20190913163010609/13/19 16:30:31  5-MIN KMLU 132230Z 02008KT 10SM HZ CLR 37/19 A3005 -40 34 2400 020/08 RMK AO2 T03670189
13942KMLU MLU20190913163510609/13/19 16:35:31  5-MIN KMLU 132235Z 05008KT 10SM HZ CLR 37/18 A3005 -40 33 2400 050/08 RMK AO2 T03670183
13942KMLU MLU20190913164010609/13/19 16:40:31  5-MIN KMLU 132240Z 04010KT 10SM HZ CLR 36/18 A3006 -40 34 2400 040/10 RMK AO2 T03610183
13942KMLU MLU20190913164510609/13/19 16:45:31  5-MIN KMLU 132245Z 06009KT 10SM HZ CLR 36/18 A3005 -40 34 2400 060/09 RMK AO2 T03610183
13942KMLU MLU20190913165011309/13/19 16:50:31  5-MIN KMLU 132250Z 05008KT 10SM HZ CLR 36/18 A3006 -40 35 2300 050/08 RMK AO2 SLP176 T03560183
13942KMLU MLU20190913165510309/13/19 16:55:31  5-MIN KMLU 132255Z 05008KT 10SM CLR 36/18 A3006 -40 35 2300 050/08 RMK AO2 T03560183
13942KMLU MLU20190913170010309/13/19 17:00:31  5-MIN KMLU 132300Z 03008KT 10SM CLR 36/18 A3006 -40 35 2300 030/08 RMK AO2 T03560183
13942KMLU MLU20190913170510309/13/19 17:05:31  5-MIN KMLU 132305Z 03007KT 10SM CLR 36/18 A3006 -40 35 2300 030/07 RMK AO2 T03560183
13942KMLU MLU20190913171010309/13/19 17:10:31  5-MIN KMLU 132310Z 03007KT 10SM CLR 35/18 A3006 -40 36 2300 030/07 RMK AO2 T03500183
13942KMLU MLU20190913171510309/13/19 17:15:31  5-MIN KMLU 132315Z 04008KT 10SM CLR 35/18 A3006 -40 36 2300 030/08 RMK AO2 T03500183
13942KMLU MLU20190913172010309/13/19 17:20:31  5-MIN KMLU 132320Z 03006KT 10SM CLR 35/18 A3006 -40 36 2300 030/06 RMK AO2 T03500183
13942KMLU MLU20190913172510309/13/19 17:25:31  5-MIN KMLU 132325Z 04006KT 10SM CLR 34/18 A3006 -40 38 2200 040/06 RMK AO2 T03440183
13942KMLU MLU20190913173010309/13/19 17:30:31  5-MIN KMLU 132330Z 03006KT 10SM CLR 34/18 A3006 -40 38 2200 030/06 RMK AO2 T03440183
13942KMLU MLU20190913173510309/13/19 17:35:31  5-MIN KMLU 132335Z 03009KT 10SM CLR 34/18 A3006 -40 39 2100 030/09 RMK AO2 T03390183
13942KMLU MLU20190913174010309/13/19 17:40:31  5-MIN KMLU 132340Z 03007KT 10SM CLR 34/18 A3006 -40 37 2100 030/07 RMK AO2 T03390178
13942KMLU MLU20190913174510309/13/19 17:45:31  5-MIN KMLU 132345Z 03006KT 10SM CLR 34/18 A3006 -40 37 2100 030/06 RMK AO2 T03390178
13942KMLU MLU20190913175012809/13/19 17:50:31  5-MIN KMLU 132350Z 03005KT 10SM CLR 33/18 A3006 -40 40 2100 030/05 RMK AO2 SLP178 T03330183 10378 20333 56024
13942KMLU MLU20190913175510309/13/19 17:55:31  5-MIN KMLU 132355Z 02004KT 10SM CLR 33/18 A3006 -40 41 2000 020/04 RMK AO2 T03280183
13942KMLU MLU20190913180010309/13/19 18:00:31  5-MIN KMLU 140000Z 02005KT 10SM CLR 32/19 A3006 -40 44 1900 020/05 RMK AO2 T03220189
13942KMLU MLU20190913180510309/13/19 18:05:31  5-MIN KMLU 140005Z 01006KT 10SM CLR 32/18 A3006 -40 43 1900 010/06 RMK AO2 T03220183
13942KMLU MLU20190913181010309/13/19 18:10:31  5-MIN KMLU 140010Z 01006KT 10SM CLR 32/19 A3006 -40 46 1900 010/06 RMK AO2 T03170189
13942KMLU MLU20190913181510309/13/19 18:15:31  5-MIN KMLU 140015Z 02005KT 10SM CLR 31/19 A3006 -40 47 1800 020/05 RMK AO2 T03110189
13942KMLU MLU20190913182010309/13/19 18:20:31  5-MIN KMLU 140020Z 02004KT 10SM CLR 30/19 A3006 -40 51 1700 020/04 RMK AO2 T03000189
13942KMLU MLU20190913182510309/13/19 18:25:31  5-MIN KMLU 140025Z 04003KT 10SM CLR 30/19 A3006 -50 51 1700 030/03 RMK AO2 T03000189
13942KMLU MLU20190913183010309/13/19 18:30:31  5-MIN KMLU 140030Z 05003KT 10SM CLR 30/19 A3006 -50 52 1700 050/03 RMK AO2 T03000194
13942KMLU MLU20190913183510309/13/19 18:35:31  5-MIN KMLU 140035Z 05003KT 10SM CLR 30/19 A3007 -50 52 1700 050/03 RMK AO2 T03000194
13942KMLU MLU20190913184010309/13/19 18:40:31  5-MIN KMLU 140040Z 05003KT 10SM CLR 29/20 A3007 -50 56 1600 050/03 RMK AO2 T02940200
13942KMLU MLU20190913184510309/13/19 18:45:31  5-MIN KMLU 140045Z 05003KT 10SM CLR 29/20 A3007 -50 58 1600 050/03 RMK AO2 T02890200
13942KMLU MLU20190913185011009/13/19 18:50:31  5-MIN KMLU 140050Z 05003KT 10SM CLR 28/21 A3007 -50 62 1500 050/03 RMK AO2 SLP180 T02830206
13942KMLU MLU20190913185510309/13/19 18:55:31  5-MIN KMLU 140055Z 05003KT 10SM CLR 28/20 A3007 -50 60 1500 050/03 RMK AO2 T02830200
13942KMLU MLU20190913190010309/13/19 19:00:31  5-MIN KMLU 140100Z 06003KT 10SM CLR 28/20 A3007 -50 62 1400 060/03 RMK AO2 T02780200
13942KMLU MLU20190913190510309/13/19 19:05:31  5-MIN KMLU 140105Z 05003KT 10SM CLR 27/20 A3007 -50 64 1400 050/03 RMK AO2 T02720200
13942KMLU MLU20190913191010309/13/19 19:10:31  5-MIN KMLU 140110Z 06003KT 10SM CLR 27/20 A3007 -50 64 1400 060/03 RMK AO2 T02720200
13942KMLU MLU20190913191510309/13/19 19:15:31  5-MIN KMLU 140115Z 07004KT 10SM CLR 27/21 A3007 -50 69 1300 070/04 RMK AO2 T02670206
13942KMLU MLU20190913192010309/13/19 19:20:31  5-MIN KMLU 140120Z 07004KT 10SM CLR 27/21 A3007 -50 69 1300 060/04 RMK AO2 T02670206
13942KMLU MLU20190913192510309/13/19 19:25:31  5-MIN KMLU 140125Z 07003KT 10SM CLR 27/21 A3007 -60 71 1300 070/03 RMK AO2 T02670211
13942KMLU MLU20190913193010309/13/19 19:30:31  5-MIN KMLU 140130Z 06004KT 10SM CLR 27/21 A3008 -60 69 1300 060/04 RMK AO2 T02670206
13942KMLU MLU20190913193510309/13/19 19:35:31  5-MIN KMLU 140135Z 07003KT 10SM CLR 27/21 A3008 -60 69 1300 060/03 RMK AO2 T02670206
13942KMLU MLU20190913194010309/13/19 19:40:31  5-MIN KMLU 140140Z 06004KT 10SM CLR 26/21 A3008 -60 71 1200 060/04 RMK AO2 T02610206
13942KMLU MLU20190913194510309/13/19 19:45:31  5-MIN KMLU 140145Z 07003KT 10SM CLR 26/21 A3008 -60 71 1200 070/03 RMK AO2 T02610206
13942KMLU MLU20190913195011009/13/19 19:50:31  5-MIN KMLU 140150Z 06004KT 10SM CLR 27/20 A3009 -70 66 1300 060/04 RMK AO2 SLP186 T02670200
13942KMLU MLU20190913195510309/13/19 19:55:31  5-MIN KMLU 140155Z 06003KT 10SM CLR 27/20 A3009 -70 66 1300 060/03 RMK AO2 T02670200
13942KMLU MLU20190913200010309/13/19 20:00:31  5-MIN KMLU 140200Z 05003KT 10SM CLR 26/20 A3009 -70 68 1200 050/03 RMK AO2 T02610200
13942KMLU MLU20190913200510309/13/19 20:05:31  5-MIN KMLU 140205Z 05003KT 10SM CLR 27/20 A3009 -70 64 1400 050/03 RMK AO2 T02720200
13942KMLU MLU20190913201010309/13/19 20:10:31  5-MIN KMLU 140210Z 05004KT 10SM CLR 27/19 A3010 -80 62 1400 050/04 RMK AO2 T02720194
13942KMLU MLU20190913201510309/13/19 20:15:31  5-MIN KMLU 140215Z 06003KT 10SM CLR 27/20 A3010 -80 66 1300 060/03 RMK AO2 T02670200
13942KMLU MLU20190913202010309/13/19 20:20:31  5-MIN KMLU 140220Z 06004KT 10SM CLR 26/20 A3010 -80 68 1200 060/04 RMK AO2 T02610200
13942KMLU MLU20190913202510309/13/19 20:25:31  5-MIN KMLU 140225Z 05004KT 10SM CLR 27/20 A3010 -80 66 1300 050/04 RMK AO2 T02670200
13942KMLU MLU20190913203010309/13/19 20:30:31  5-MIN KMLU 140230Z 06004KT 10SM CLR 27/20 A3010 -80 64 1400 060/04 RMK AO2 T02720200
13942KMLU MLU20190913203510309/13/19 20:35:31  5-MIN KMLU 140235Z 06005KT 10SM CLR 28/19 A3010 -80 60 1400 060/05 RMK AO2 T02780194
13942KMLU MLU20190913204010309/13/19 20:40:31  5-MIN KMLU 140240Z 06005KT 10SM CLR 27/20 A3010 -80 64 1400 060/05 RMK AO2 T02720200
13942KMLU MLU20190913204510309/13/19 20:45:31  5-MIN KMLU 140245Z 05005KT 10SM CLR 27/20 A3010 -80 64 1300 050/05 RMK AO2 T02720200
13942KMLU MLU20190913205011609/13/19 20:50:31  5-MIN KMLU 140250Z 06005KT 10SM CLR 27/20 A3010 -80 66 1300 060/05 RMK AO2 SLP192 T02670200 55002
13942KMLU MLU20190913205510809/13/19 20:55:31  5-MIN KMLU 140255Z AUTO 06006KT 10SM CLR 27/20 A3010 -80 64 1300 060/06 RMK AO2 T02720200
13942KMLU MLU20190913210010809/13/19 21:00:31  5-MIN KMLU 140300Z AUTO 06006KT 10SM CLR 28/19 A3010 -80 58 1500 060/06 RMK AO2 T02830194
13942KMLU MLU20190913210510809/13/19 21:05:31  5-MIN KMLU 140305Z AUTO 06006KT 10SM CLR 28/20 A3011 -90 60 1500 060/06 RMK AO2 T02830200
13942KMLU MLU20190913211010809/13/19 21:10:31  5-MIN KMLU 140310Z AUTO 05006KT 10SM CLR 28/20 A3011 -90 60 1500 050/06 RMK AO2 T02830200
13942KMLU MLU20190913211510809/13/19 21:15:31  5-MIN KMLU 140315Z AUTO 03005KT 10SM CLR 27/20 A3011 -90 64 1300 020/05 RMK AO2 T02720200
13942KMLU MLU20190913212010809/13/19 21:20:31  5-MIN KMLU 140320Z AUTO 03003KT 10SM CLR 27/20 A3011 -90 64 1300 030/03 RMK AO2 T02720200
13942KMLU MLU20190913212510809/13/19 21:25:31  5-MIN KMLU 140325Z AUTO 06004KT 10SM CLR 27/20 A3011 -90 64 1300 060/04 RMK AO2 T02720200
13942KMLU MLU20190913213010809/13/19 21:30:31  5-MIN KMLU 140330Z AUTO 05004KT 10SM CLR 28/20 A3011 -90 62 1400 050/04 RMK AO2 T02780200
13942KMLU MLU20190913213510809/13/19 21:35:31  5-MIN KMLU 140335Z AUTO 02004KT 10SM CLR 27/20 A3011 -90 64 1300 020/04 RMK AO2 T02720200
13942KMLU MLU20190913214010809/13/19 21:40:31  5-MIN KMLU 140340Z AUTO 03003KT 10SM CLR 27/20 A3011 -90 64 1300 030/03 RMK AO2 T02720200
13942KMLU MLU20190913214510809/13/19 21:45:31  5-MIN KMLU 140345Z AUTO 06003KT 10SM CLR 28/20 A3011 -90 62 1400 060/03 RMK AO2 T02780200
13942KMLU MLU20190913215011509/13/19 21:50:31  5-MIN KMLU 140350Z AUTO 05004KT 10SM CLR 28/20 A3011 -90 62 1400 050/04 RMK AO2 SLP195 T02780200
13942KMLU MLU20190913215510809/13/19 21:55:31  5-MIN KMLU 140355Z AUTO 05004KT 10SM CLR 27/20 A3011 -90 64 1300 050/04 RMK AO2 T02720200
13942KMLU MLU20190913220010809/13/19 22:00:31  5-MIN KMLU 140400Z AUTO 04003KT 10SM CLR 27/20 A3012 -90 64 1300 040/03 RMK AO2 T02720200
13942KMLU MLU20190913220510809/13/19 22:05:31  5-MIN KMLU 140405Z AUTO 01003KT 10SM CLR 27/20 A3011 -90 66 1300 010/03 RMK AO2 T02670200
13942KMLU MLU20190913221010809/13/19 22:10:31  5-MIN KMLU 140410Z AUTO 02003KT 10SM CLR 27/20 A3011 -90 64 1300 020/03 RMK AO2 T02720200
13942KMLU MLU20190913221510809/13/19 22:15:31  5-MIN KMLU 140415Z AUTO 00000KT 10SM CLR 27/20 A3011 -90 64 1300 000/00 RMK AO2 T02720200
13942KMLU MLU20190913222010809/13/19 22:20:31  5-MIN KMLU 140420Z AUTO 00000KT 10SM CLR 27/20 A3011 -90 66 1300 000/00 RMK AO2 T02670200
13942KMLU MLU20190913222510809/13/19 22:25:31  5-MIN KMLU 140425Z AUTO 00000KT 10SM CLR 27/20 A3011 -90 64 1300 000/00 RMK AO2 T02720200
13942KMLU MLU20190913223010809/13/19 22:30:31  5-MIN KMLU 140430Z AUTO 03003KT 10SM CLR 27/20 A3011 -90 66 1300 030/03 RMK AO2 T02670200
13942KMLU MLU20190913223510809/13/19 22:35:31  5-MIN KMLU 140435Z AUTO 03003KT 10SM CLR 27/20 A3011 -90 66 1300 030/03 RMK AO2 T02670200
13942KMLU MLU20190913224010809/13/19 22:40:31  5-MIN KMLU 140440Z AUTO 00000KT 10SM CLR 27/20 A3011 -90 66 1300 000/00 RMK AO2 T02670200
13942KMLU MLU20190913224510809/13/19 22:45:31  5-MIN KMLU 140445Z AUTO 00000KT 10SM CLR 27/20 A3011 -90 66 1300 000/00 RMK AO2 T02670200
13942KMLU MLU20190913225011509/13/19 22:50:31  5-MIN KMLU 140450Z AUTO 04003KT 10SM CLR 27/20 A3011 -90 66 1300 040/03 RMK AO2 SLP194 T02670200
13942KMLU MLU20190913225510809/13/19 22:55:31  5-MIN KMLU 140455Z AUTO 03004KT 10SM CLR 26/20 A3011 -90 68 1200 030/04 RMK AO2 T02610200
13942KMLU MLU20190913230010809/13/19 23:00:31  5-MIN KMLU 140500Z AUTO 02004KT 10SM CLR 26/20 A3011 -90 68 1200 020/04 RMK AO2 T02610200
13942KMLU MLU20190913230510809/13/19 23:05:31  5-MIN KMLU 140505Z AUTO 03004KT 10SM CLR 26/20 A3011 -80 68 1200 020/04 RMK AO2 T02610200
13942KMLU MLU20190913231010809/13/19 23:10:31  5-MIN KMLU 140510Z AUTO 03004KT 10SM CLR 26/20 A3010 -80 71 1200 020/04 RMK AO2 T02560200
13942KMLU MLU20190913231510809/13/19 23:15:31  5-MIN KMLU 140515Z AUTO 03003KT 10SM CLR 26/20 A3011 -90 68 1200 030/03 RMK AO2 T02610200
13942KMLU MLU20190913232010809/13/19 23:20:31  5-MIN KMLU 140520Z AUTO 03004KT 10SM CLR 26/20 A3011 -90 71 1200 030/04 RMK AO2 T02560200
13942KMLU MLU20190913232510809/13/19 23:25:31  5-MIN KMLU 140525Z AUTO 04005KT 10SM CLR 26/20 A3011 -90 68 1200 040/05 RMK AO2 T02610200
13942KMLU MLU20190913233010809/13/19 23:30:31  5-MIN KMLU 140530Z AUTO 04005KT 10SM CLR 26/20 A3011 -90 71 1200 040/05 RMK AO2 T02560200
13942KMLU MLU20190913233510809/13/19 23:35:31  5-MIN KMLU 140535Z AUTO 05006KT 10SM CLR 26/20 A3011 -90 71 1200 050/06 RMK AO2 T02560200
13942KMLU MLU20190913234010809/13/19 23:40:31  5-MIN KMLU 140540Z AUTO 05007KT 10SM CLR 26/20 A3011 -90 71 1200 050/07 RMK AO2 T02560200
13942KMLU MLU20190913234510809/13/19 23:45:31  5-MIN KMLU 140545Z AUTO 05007KT 10SM CLR 26/21 A3011 -90 71 1200 050/07 RMK AO2 T02610206
13942KMLU MLU20190913235014309/13/19 23:50:31  5-MIN KMLU 140550Z AUTO 05006KT 10SM CLR 26/21 A3011 -90 71 1200 050/06 RMK AO2 SLP194 T02610206 10333 20256 403780211 53014
13942KMLU MLU20190913235510809/13/19 23:55:31  5-MIN KMLU 140555Z AUTO 05006KT 10SM CLR 26/21 A3011 -90 71 1200 050/06 RMK AO2 T02610206
13942KMLU MLU20190914000010809/14/19 00:00:31  5-MIN KMLU 140600Z AUTO 05007KT 10SM CLR 26/21 A3011 -90 71 1200 050/07 RMK AO2 T02610206
13942KMLU MLU20190914000510809/14/19 00:05:31  5-MIN KMLU 140605Z AUTO 06006KT 10SM CLR 26/21 A3011 -80 71 1200 060/06 RMK AO2 T02610206
13942KMLU MLU20190914001010809/14/19 00:10:31  5-MIN KMLU 140610Z AUTO 06006KT 10SM CLR 27/21 A3011 -80 69 1300 060/06 RMK AO2 T02670206
13942KMLU MLU20190914001510809/14/19 00:15:31  5-MIN KMLU 140615Z AUTO 06006KT 10SM CLR 27/21 A3011 -80 69 1300 060/06 RMK AO2 T02670206
13942KMLU MLU20190914002010809/14/19 00:20:31  5-MIN KMLU 140620Z AUTO 06007KT 10SM CLR 27/21 A3010 -80 69 1300 060/07 RMK AO2 T02670206
13942KMLU MLU20190914002510809/14/19 00:25:31  5-MIN KMLU 140625Z AUTO 06007KT 10SM CLR 27/21 A3010 -80 69 1300 060/07 RMK AO2 T02670206
13942KMLU MLU20190914003010809/14/19 00:30:31  5-MIN KMLU 140630Z AUTO 06005KT 10SM CLR 27/21 A3010 -80 69 1300 060/05 RMK AO2 T02670206
13942KMLU MLU20190914003510809/14/19 00:35:31  5-MIN KMLU 140635Z AUTO 06006KT 10SM CLR 26/21 A3010 -80 71 1200 060/06 RMK AO2 T02610206
13942KMLU MLU20190914004010809/14/19 00:40:31  5-MIN KMLU 140640Z AUTO 06006KT 10SM CLR 26/21 A3010 -80 71 1200 060/06 RMK AO2 T02610206
13942KMLU MLU20190914004510809/14/19 00:45:31  5-MIN KMLU 140645Z AUTO 06006KT 10SM CLR 26/21 A3010 -80 71 1200 050/06 RMK AO2 T02610206
13942KMLU MLU20190914005011509/14/19 00:50:31  5-MIN KMLU 140650Z AUTO 06007KT 10SM CLR 27/21 A3010 -80 69 1300 060/07 RMK AO2 SLP191 T02670206
13942KMLU MLU20190914005510809/14/19 00:55:31  5-MIN KMLU 140655Z AUTO 06005KT 10SM CLR 27/21 A3010 -80 69 1300 060/05 RMK AO2 T02670206
13942KMLU MLU20190914010010809/14/19 01:00:31  5-MIN KMLU 140700Z AUTO 06007KT 10SM CLR 27/21 A3010 -80 69 1300 060/07 RMK AO2 T02670206
13942KMLU MLU20190914010510809/14/19 01:05:31  5-MIN KMLU 140705Z AUTO 06008KT 10SM CLR 27/21 A3010 -80 69 1300 060/08 RMK AO2 T02670206
13942KMLU MLU20190914011010809/14/19 01:10:31  5-MIN KMLU 140710Z AUTO 06006KT 10SM CLR 27/21 A3011 -80 69 1300 060/06 RMK AO2 T02670206
13942KMLU MLU20190914011510809/14/19 01:15:31  5-MIN KMLU 140715Z AUTO 07006KT 10SM CLR 27/21 A3011 -90 69 1300 060/06 RMK AO2 T02670206
13942KMLU MLU20190914012010809/14/19 01:20:31  5-MIN KMLU 140720Z AUTO 06007KT 10SM CLR 26/21 A3011 -90 71 1200 060/07 RMK AO2 T02610206
13942KMLU MLU20190914012510809/14/19 01:25:31  5-MIN KMLU 140725Z AUTO 06006KT 10SM CLR 26/21 A3011 -90 71 1200 060/06 RMK AO2 T02610206
13942KMLU MLU20190914013010809/14/19 01:30:31  5-MIN KMLU 140730Z AUTO 06006KT 10SM CLR 26/21 A3011 -80 71 1200 060/06 RMK AO2 T02610206
13942KMLU MLU20190914013510809/14/19 01:35:31  5-MIN KMLU 140735Z AUTO 06006KT 10SM CLR 26/21 A3010 -80 71 1200 060/06 RMK AO2 T02610206
13942KMLU MLU20190914014010809/14/19 01:40:31  5-MIN KMLU 140740Z AUTO 06006KT 10SM CLR 26/21 A3010 -80 71 1200 060/06 RMK AO2 T02610206
13942KMLU MLU20190914014510809/14/19 01:45:31  5-MIN KMLU 140745Z AUTO 06007KT 10SM CLR 26/21 A3010 -80 71 1200 050/07 RMK AO2 T02610206
13942KMLU MLU20190914015011509/14/19 01:50:31  5-MIN KMLU 140750Z AUTO 05006KT 10SM CLR 26/21 A3010 -80 71 1200 050/06 RMK AO2 SLP191 T02610206
13942KMLU MLU20190914015510809/14/19 01:55:31  5-MIN KMLU 140755Z AUTO 05006KT 10SM CLR 26/21 A3010 -80 71 1200 050/06 RMK AO2 T02610206
13942KMLU MLU20190914020010809/14/19 02:00:31  5-MIN KMLU 140800Z AUTO 06006KT 10SM CLR 26/21 A3010 -80 71 1200 060/06 RMK AO2 T02610206
13942KMLU MLU20190914020510809/14/19 02:05:31  5-MIN KMLU 140805Z AUTO 05006KT 10SM CLR 26/21 A3010 -80 71 1200 050/06 RMK AO2 T02610206
13942KMLU MLU20190914021010809/14/19 02:10:31  5-MIN KMLU 140810Z AUTO 05006KT 10SM CLR 26/21 A3010 -80 73 1200 050/06 RMK AO2 T02560206
13942KMLU MLU20190914021510809/14/19 02:15:31  5-MIN KMLU 140815Z AUTO 06006KT 10SM CLR 26/21 A3010 -80 71 1200 060/06 RMK AO2 T02610206
13942KMLU MLU20190914022010809/14/19 02:20:31  5-MIN KMLU 140820Z AUTO 06006KT 10SM CLR 26/21 A3010 -80 71 1200 060/06 RMK AO2 T02610206
13942KMLU MLU20190914022510809/14/19 02:25:31  5-MIN KMLU 140825Z AUTO 07005KT 10SM CLR 26/21 A3010 -80 71 1200 070/05 RMK AO2 T02610206
13942KMLU MLU20190914023010809/14/19 02:30:31  5-MIN KMLU 140830Z AUTO 07005KT 10SM CLR 26/21 A3010 -80 71 1200 070/05 RMK AO2 T02610206
13942KMLU MLU20190914023510809/14/19 02:35:31  5-MIN KMLU 140835Z AUTO 06005KT 10SM CLR 26/21 A3010 -80 71 1200 060/05 RMK AO2 T02610206
13942KMLU MLU20190914024010809/14/19 02:40:31  5-MIN KMLU 140840Z AUTO 06007KT 10SM CLR 26/21 A3009 -70 71 1200 060/07 RMK AO2 T02610206
13942KMLU MLU20190914024510809/14/19 02:45:31  5-MIN KMLU 140845Z AUTO 06005KT 10SM CLR 26/21 A3010 -80 73 1200 060/05 RMK AO2 T02560206
13942KMLU MLU20190914025012109/14/19 02:50:31  5-MIN KMLU 140850Z AUTO 06005KT 10SM CLR 26/21 A3010 -80 73 1200 060/05 RMK AO2 SLP190 T02560206 50001
13942KMLU MLU20190914025510809/14/19 02:55:31  5-MIN KMLU 140855Z AUTO 06005KT 10SM CLR 26/21 A3010 -80 71 1200 060/05 RMK AO2 T02610206
13942KMLU MLU20190914030010809/14/19 03:00:31  5-MIN KMLU 140900Z AUTO 05005KT 10SM CLR 26/21 A3010 -80 73 1200 050/05 RMK AO2 T02560206
13942KMLU MLU20190914030510809/14/19 03:05:31  5-MIN KMLU 140905Z AUTO 06006KT 10SM CLR 26/21 A3010 -80 73 1200 050/06 RMK AO2 T02560206
13942KMLU MLU20190914031010809/14/19 03:10:31  5-MIN KMLU 140910Z AUTO 06005KT 10SM CLR 26/21 A3010 -80 73 1200 060/05 RMK AO2 T02560206
13942KMLU MLU20190914031510809/14/19 03:15:31  5-MIN KMLU 140915Z AUTO 06006KT 10SM CLR 26/21 A3010 -80 73 1200 060/06 RMK AO2 T02560206
13942KMLU MLU20190914032010809/14/19 03:20:31  5-MIN KMLU 140920Z AUTO 06005KT 10SM CLR 26/20 A3010 -80 71 1200 060/05 RMK AO2 T02560200
13942KMLU MLU20190914032510809/14/19 03:25:31  5-MIN KMLU 140925Z AUTO 07006KT 10SM CLR 26/20 A3010 -80 71 1200 070/06 RMK AO2 T02560200
13942KMLU MLU20190914033010809/14/19 03:30:31  5-MIN KMLU 140930Z AUTO 06006KT 10SM CLR 26/20 A3010 -80 71 1200 060/06 RMK AO2 T02560200
13942KMLU MLU20190914033510809/14/19 03:35:31  5-MIN KMLU 140935Z AUTO 06007KT 10SM CLR 26/20 A3010 -80 71 1200 060/07 RMK AO2 T02560200
13942KMLU MLU20190914034010809/14/19 03:40:31  5-MIN KMLU 140940Z AUTO 06007KT 10SM CLR 26/20 A3010 -80 71 1200 060/07 RMK AO2 T02560200
13942KMLU MLU20190914034510809/14/19 03:45:31  5-MIN KMLU 140945Z AUTO 06007KT 10SM CLR 26/20 A3010 -80 71 1200 060/07 RMK AO2 T02560200
13942KMLU MLU20190914035011509/14/19 03:50:31  5-MIN KMLU 140950Z AUTO 06007KT 10SM CLR 26/20 A3010 -80 71 1200 060/07 RMK AO2 SLP191 T02560200
13942KMLU MLU20190914035510809/14/19 03:55:31  5-MIN KMLU 140955Z AUTO 06007KT 10SM CLR 26/20 A3010 -80 71 1200 060/07 RMK AO2 T02560200
13942KMLU MLU20190914040010809/14/19 04:00:31  5-MIN KMLU 141000Z AUTO 06008KT 10SM CLR 26/20 A3010 -80 71 1200 060/08 RMK AO2 T02560200
13942KMLU MLU20190914040510809/14/19 04:05:31  5-MIN KMLU 141005Z AUTO 06008KT 10SM CLR 26/20 A3010 -80 68 1200 050/08 RMK AO2 T02610200
13942KMLU MLU20190914041010809/14/19 04:10:31  5-MIN KMLU 141010Z AUTO 05008KT 10SM CLR 26/20 A3010 -80 68 1200 050/08 RMK AO2 T02610200
13942KMLU MLU20190914041510809/14/19 04:15:31  5-MIN KMLU 141015Z AUTO 05008KT 10SM CLR 26/20 A3010 -80 71 1200 050/08 RMK AO2 T02560200
13942KMLU MLU20190914042010809/14/19 04:20:31  5-MIN KMLU 141020Z AUTO 05007KT 10SM CLR 26/20 A3010 -80 71 1200 050/07 RMK AO2 T02560200
13942KMLU MLU20190914042510809/14/19 04:25:31  5-MIN KMLU 141025Z AUTO 05008KT 10SM CLR 26/20 A3010 -80 71 1200 050/08 RMK AO2 T02560200
13942KMLU MLU20190914043010809/14/19 04:30:31  5-MIN KMLU 141030Z AUTO 04007KT 10SM CLR 26/20 A3011 -80 71 1200 040/07 RMK AO2 T02560200
13942KMLU MLU20190914043510809/14/19 04:35:31  5-MIN KMLU 141035Z AUTO 04007KT 10SM CLR 25/20 A3011 -90 73 1100 040/07 RMK AO2 T02500200
13942KMLU MLU20190914044010809/14/19 04:40:31  5-MIN KMLU 141040Z AUTO 04007KT 10SM CLR 25/20 A3011 -90 73 1100 040/07 RMK AO2 T02500200
13942KMLU MLU20190914044510809/14/19 04:45:31  5-MIN KMLU 141045Z AUTO 04006KT 10SM CLR 25/21 A3011 -90 76 1100 040/06 RMK AO2 T02500206
13942KMLU MLU20190914045011509/14/19 04:50:31  5-MIN KMLU 141050Z AUTO 02005KT 10SM CLR 24/21 A3011 -90 78 1000 020/05 RMK AO2 SLP196 T02440206
13942KMLU MLU20190914045510309/14/19 04:55:31  5-MIN KMLU 141055Z 02005KT 10SM CLR 24/21 A3012 -90 78 1000 020/05 RMK AO2 T02440206
13942KMLU MLU20190914050010309/14/19 05:00:31  5-MIN KMLU 141100Z 03005KT 10SM CLR 25/21 A3012 -90 76 1100 030/05 RMK AO2 T02500206
13942KMLU MLU20190914050510309/14/19 05:05:31  5-MIN KMLU 141105Z 03005KT 10SM CLR 24/21 A3012 -90 78 1000 030/05 RMK AO2 T02440206
13942KMLU MLU20190914051010309/14/19 05:10:31  5-MIN KMLU 141110Z 04005KT 10SM CLR 24/20 A3012 -90 78 1000 040/05 RMK AO2 T02390200
13942KMLU MLU20190914051510309/14/19 05:15:31  5-MIN KMLU 141115Z 05006KT 10SM CLR 24/20 A3012 -90 78 1000 050/06 RMK AO2 T02390200
13942KMLU MLU20190914052010309/14/19 05:20:31  5-MIN KMLU 141120Z 05006KT 10SM CLR 24/20 A3012 -90 76 1000 050/06 RMK AO2 T02440200
13942KMLU MLU20190914052510309/14/19 05:25:31  5-MIN KMLU 141125Z 04007KT 10SM CLR 24/21 A3012 -90 78 1000 040/07 RMK AO2 T02440206
13942KMLU MLU20190914053010409/14/19 05:30:31  5-MIN KMLU 141130Z 05007KT 10SM CLR 24/21 A3012 -100 78 1000 040/07 RMK AO2 T02440206
13942KMLU MLU20190914053510409/14/19 05:35:31  5-MIN KMLU 141135Z 05007KT 10SM CLR 24/21 A3012 -100 78 1000 040/07 RMK AO2 T02440206
13942KMLU MLU20190914054010409/14/19 05:40:31  5-MIN KMLU 141140Z 05008KT 10SM CLR 25/21 A3012 -100 76 1100 050/08 RMK AO2 T02500206
13942KMLU MLU20190914054510409/14/19 05:45:31  5-MIN KMLU 141145Z 05007KT 10SM CLR 25/21 A3012 -100 76 1100 050/07 RMK AO2 T02500206
13942KMLU MLU20190914055012909/14/19 05:50:31  5-MIN KMLU 141150Z 05007KT 10SM CLR 25/21 A3012 -100 76 1100 050/07 RMK AO2 SLP198 T02500206 10267 20239 56003
13942KMLU MLU20190914055510409/14/19 05:55:31  5-MIN KMLU 141155Z 05006KT 10SM CLR 25/21 A3012 -100 76 1100 050/06 RMK AO2 T02500206
13942KMLU MLU20190914060010409/14/19 06:00:31  5-MIN KMLU 141200Z 05007KT 10SM CLR 25/21 A3012 -100 76 1100 050/07 RMK AO2 T02500206
13942KMLU MLU20190914060510409/14/19 06:05:31  5-MIN KMLU 141205Z 05008KT 10SM CLR 25/21 A3012 -100 76 1100 050/08 RMK AO2 T02500206
13942KMLU MLU20190914061010409/14/19 06:10:31  5-MIN KMLU 141210Z 05007KT 10SM CLR 25/21 A3012 -100 76 1100 050/07 RMK AO2 T02500206
13942KMLU MLU20190914061510409/14/19 06:15:31  5-MIN KMLU 141215Z 05007KT 10SM CLR 25/21 A3012 -100 76 1100 050/07 RMK AO2 T02500206
13942KMLU MLU20190914062010409/14/19 06:20:31  5-MIN KMLU 141220Z 05007KT 10SM CLR 25/21 A3012 -100 76 1100 050/07 RMK AO2 T02500206
13942KMLU MLU20190914062510409/14/19 06:25:31  5-MIN KMLU 141225Z 05006KT 10SM CLR 25/21 A3013 -100 76 1100 050/06 RMK AO2 T02500206
13942KMLU MLU20190914063010409/14/19 06:30:31  5-MIN KMLU 141230Z 05006KT 10SM CLR 25/21 A3013 -110 76 1100 050/06 RMK AO2 T02500206
13942KMLU MLU20190914063510409/14/19 06:35:31  5-MIN KMLU 141235Z 05005KT 10SM CLR 26/21 A3013 -110 76 1100 050/05 RMK AO2 T02560211
13942KMLU MLU20190914064010409/14/19 06:40:31  5-MIN KMLU 141240Z 05006KT 10SM CLR 26/21 A3013 -110 76 1100 050/06 RMK AO2 T02560211
13942KMLU MLU20190914064510409/14/19 06:45:31  5-MIN KMLU 141245Z 05006KT 10SM CLR 26/21 A3013 -110 73 1200 050/06 RMK AO2 T02610211
13942KMLU MLU20190914065011109/14/19 06:50:31  5-MIN KMLU 141250Z 04006KT 10SM CLR 26/21 A3013 -110 73 1200 040/06 RMK AO2 SLP202 T02610211
13942KMLU MLU20190914065510409/14/19 06:55:31  5-MIN KMLU 141255Z 04005KT 10SM CLR 27/21 A3014 -110 71 1200 040/05 RMK AO2 T02670211
13942KMLU MLU20190914070010409/14/19 07:00:31  5-MIN KMLU 141300Z 04005KT 10SM CLR 27/21 A3014 -120 69 1300 040/05 RMK AO2 T02720211
13942KMLU MLU20190914070510409/14/19 07:05:31  5-MIN KMLU 141305Z 05004KT 10SM CLR 27/21 A3014 -120 69 1300 050/04 RMK AO2 T02720211
13942KMLU MLU20190914071010409/14/19 07:10:31  5-MIN KMLU 141310Z 05004KT 10SM CLR 28/21 A3014 -120 66 1400 050/04 RMK AO2 T02780211
13942KMLU MLU20190914071510409/14/19 07:15:31  5-MIN KMLU 141315Z 06005KT 10SM CLR 28/21 A3014 -120 66 1400 060/05 RMK AO2 T02780211
13942KMLU MLU20190914072010409/14/19 07:20:31  5-MIN KMLU 141320Z 07004KT 10SM CLR 28/22 A3014 -120 69 1400 070/04 RMK AO2 T02780217
13942KMLU MLU20190914072510409/14/19 07:25:31  5-MIN KMLU 141325Z 06005KT 10SM CLR 28/22 A3014 -120 66 1400 060/05 RMK AO2 T02830217
13942KMLU MLU20190914073010409/14/19 07:30:31  5-MIN KMLU 141330Z 07005KT 10SM CLR 28/22 A3015 -120 66 1400 070/05 RMK AO2 T02830217
13942KMLU MLU20190914073510409/14/19 07:35:31  5-MIN KMLU 141335Z 09005KT 10SM CLR 28/22 A3015 -120 66 1400 090/05 RMK AO2 T02830217
13942KMLU MLU20190914074010409/14/19 07:40:31  5-MIN KMLU 141340Z 07007KT 10SM CLR 28/22 A3015 -120 66 1400 070/07 RMK AO2 T02830217
13942KMLU MLU20190914074510409/14/19 07:45:31  5-MIN KMLU 141345Z 07009KT 10SM CLR 28/22 A3015 -130 66 1400 070/09 RMK AO2 T02830217
13942KMLU MLU20190914075011109/14/19 07:50:31  5-MIN KMLU 141350Z 06009KT 10SM CLR 28/22 A3015 -130 66 1400 060/09 RMK AO2 SLP208 T02830217
13942KMLU MLU20190914075512009/14/19 07:55:31  5-MIN KMLU 141355Z 06008KT 020V080 10SM CLR 28/22 A3015 -130 66 1400 060/08 020V080 RMK AO2 T02830217
13942KMLU MLU20190914080010409/14/19 08:00:31  5-MIN KMLU 141400Z 06008KT 10SM CLR 29/22 A3015 -130 64 1500 050/08 RMK AO2 T02890217
13942KMLU MLU20190914080510409/14/19 08:05:31  5-MIN KMLU 141405Z 07008KT 10SM CLR 29/22 A3015 -130 64 1500 070/08 RMK AO2 T02890217
13942KMLU MLU20190914081010409/14/19 08:10:31  5-MIN KMLU 141410Z 06007KT 10SM CLR 29/22 A3015 -130 64 1500 060/07 RMK AO2 T02890217
13942KMLU MLU20190914081510409/14/19 08:15:31  5-MIN KMLU 141415Z 04008KT 10SM CLR 29/22 A3015 -130 62 1500 040/08 RMK AO2 T02940217
13942KMLU MLU20190914082010409/14/19 08:20:31  5-MIN KMLU 141420Z 06008KT 10SM CLR 29/22 A3015 -130 62 1500 060/08 RMK AO2 T02940217
13942KMLU MLU20190914082510409/14/19 08:25:31  5-MIN KMLU 141425Z 07008KT 10SM CLR 29/22 A3015 -130 62 1500 070/08 RMK AO2 T02940217
13942KMLU MLU20190914083010409/14/19 08:30:31  5-MIN KMLU 141430Z 07008KT 10SM CLR 29/22 A3015 -130 62 1500 070/08 RMK AO2 T02940217
13942KMLU MLU20190914083510409/14/19 08:35:31  5-MIN KMLU 141435Z 07008KT 10SM CLR 29/22 A3015 -130 62 1500 070/08 RMK AO2 T02940217
13942KMLU MLU20190914084010409/14/19 08:40:31  5-MIN KMLU 141440Z 07004KT 10SM CLR 30/22 A3015 -130 62 1600 070/04 RMK AO2 T03000222
13942KMLU MLU20190914084510409/14/19 08:45:31  5-MIN KMLU 141445Z 05007KT 10SM CLR 31/22 A3015 -130 60 1700 050/07 RMK AO2 T03060222
13942KMLU MLU20190914085011709/14/19 08:50:31  5-MIN KMLU 141450Z VRB06KT 10SM CLR 31/22 A3015 -130 60 1700 VRB/06 RMK AO2 SLP208 T03060222 53008
13942KMLU MLU20190914085510409/14/19 08:55:31  5-MIN KMLU 141455Z 10006KT 10SM CLR 31/22 A3015 -130 58 1700 100/06 RMK AO2 T03060217
13942KMLU MLU20190914090010409/14/19 09:00:31  5-MIN KMLU 141500Z 07007KT 10SM CLR 31/22 A3015 -130 56 1700 070/07 RMK AO2 T03110217
13942KMLU MLU20190914090510409/14/19 09:05:31  5-MIN KMLU 141505Z 06006KT 10SM CLR 31/22 A3015 -130 56 1700 060/06 RMK AO2 T03110217
13942KMLU MLU20190914091010409/14/19 09:10:31  5-MIN KMLU 141510Z 05006KT 10SM CLR 32/22 A3015 -130 56 1800 050/06 RMK AO2 T03170222
13942KMLU MLU20190914091510409/14/19 09:15:31  5-MIN KMLU 141515Z 10005KT 10SM CLR 32/22 A3015 -130 55 1800 100/05 RMK AO2 T03170217
13942KMLU MLU20190914092010409/14/19 09:20:31  5-MIN KMLU 141520Z VRB05KT 10SM CLR 32/22 A3015 -130 56 1800 VRB/05 RMK AO2 T03170222
13942KMLU MLU20190914092510409/14/19 09:25:31  5-MIN KMLU 141525Z 08004KT 10SM CLR 32/22 A3015 -130 55 1800 080/04 RMK AO2 T03220222
13942KMLU MLU20190914093010409/14/19 09:30:31  5-MIN KMLU 141530Z 07005KT 10SM CLR 32/22 A3015 -120 55 1800 070/05 RMK AO2 T03220222
13942KMLU MLU20190914093510409/14/19 09:35:31  5-MIN KMLU 141535Z 05007KT 10SM CLR 33/22 A3015 -120 53 1900 050/07 RMK AO2 T03280222
13942KMLU MLU20190914094010409/14/19 09:40:31  5-MIN KMLU 141540Z VRB05KT 10SM CLR 33/22 A3015 -120 53 1900 VRB/05 RMK AO2 T03280222
13942KMLU MLU20190914094510409/14/19 09:45:31  5-MIN KMLU 141545Z 08005KT 10SM CLR 33/22 A3015 -120 53 1900 080/05 RMK AO2 T03280222
13942KMLU MLU20190914095011109/14/19 09:50:31  5-MIN KMLU 141550Z 09007KT 10SM CLR 33/22 A3015 -120 51 1900 090/07 RMK AO2 SLP207 T03280217
13942KMLU MLU20190914095510409/14/19 09:55:31  5-MIN KMLU 141555Z 10006KT 10SM CLR 33/22 A3015 -120 51 1900 090/06 RMK AO2 T03280217
13942KMLU MLU20190914100010409/14/19 10:00:31  5-MIN KMLU 141600Z 08006KT 10SM CLR 33/22 A3015 -120 50 2000 080/06 RMK AO2 T03330217
13942KMLU MLU20190914100510409/14/19 10:05:31  5-MIN KMLU 141605Z 09004KT 10SM CLR 33/22 A3014 -120 50 2000 090/04 RMK AO2 T03330217
13942KMLU MLU20190914101010409/14/19 10:10:31  5-MIN KMLU 141610Z 03007KT 10SM CLR 33/22 A3014 -120 51 2000 030/07 RMK AO2 T03330222
13942KMLU MLU20190914101510409/14/19 10:15:31  5-MIN KMLU 141615Z 05006KT 10SM CLR 34/22 A3014 -120 48 2100 050/06 RMK AO2 T03440222
13942KMLU MLU20190914102010409/14/19 10:20:31  5-MIN KMLU 141620Z 06008KT 10SM CLR 34/22 A3014 -120 46 2100 060/08 RMK AO2 T03440217
13942KMLU MLU20190914102510409/14/19 10:25:31  5-MIN KMLU 141625Z 09006KT 10SM CLR 34/22 A3014 -120 48 2100 090/06 RMK AO2 T03440222
13942KMLU MLU20190914103010409/14/19 10:30:31  5-MIN KMLU 141630Z 08005KT 10SM CLR 34/22 A3014 -110 48 2100 080/05 RMK AO2 T03440222
13942KMLU MLU20190914103510409/14/19 10:35:31  5-MIN KMLU 141635Z 10007KT 10SM CLR 35/22 A3013 -110 47 2200 100/07 RMK AO2 T03500222
13942KMLU MLU20190914104010409/14/19 10:40:31  5-MIN KMLU 141640Z VRB05KT 10SM CLR 35/22 A3013 -110 47 2200 VRB/05 RMK AO2 T03500222
13942KMLU MLU20190914104510409/14/19 10:45:31  5-MIN KMLU 141645Z 05007KT 10SM CLR 35/23 A3013 -110 48 2200 050/07 RMK AO2 T03500228
13942KMLU MLU20190914105011109/14/19 10:50:31  5-MIN KMLU 141650Z 07006KT 10SM CLR 34/22 A3013 -110 48 2100 070/06 RMK AO2 SLP201 T03440222
13942KMLU MLU20190914105510409/14/19 10:55:31  5-MIN KMLU 141655Z 07007KT 10SM CLR 35/22 A3013 -110 47 2200 070/07 RMK AO2 T03500222
13942KMLU MLU20190914110010409/14/19 11:00:31  5-MIN KMLU 141700Z VRB05KT 10SM CLR 36/22 A3013 -110 45 2200 VRB/05 RMK AO2 T03560222
13942KMLU MLU20190914110510409/14/19 11:05:31  5-MIN KMLU 141705Z 06007KT 10SM CLR 36/22 A3013 -100 45 2200 050/07 RMK AO2 T03560222
13942KMLU MLU20190914111010409/14/19 11:10:31  5-MIN KMLU 141710Z 07006KT 10SM CLR 36/22 A3013 -110 45 2200 070/06 RMK AO2 T03560222
13942KMLU MLU20190914111510409/14/19 11:15:31  5-MIN KMLU 141715Z 08009KT 10SM CLR 36/22 A3013 -110 45 2200 080/09 RMK AO2 T03560222
13942KMLU MLU20190914112010409/14/19 11:20:31  5-MIN KMLU 141720Z 05009KT 10SM CLR 36/22 A3013 -100 45 2200 050/09 RMK AO2 T03560222
13942KMLU MLU20190914112510409/14/19 11:25:31  5-MIN KMLU 141725Z 06011KT 10SM CLR 36/22 A3012 -100 44 2300 060/11 RMK AO2 T03610222
13942KMLU MLU20190914113010409/14/19 11:30:31  5-MIN KMLU 141730Z VRB05KT 10SM CLR 36/22 A3012 -100 45 2200 VRB/05 RMK AO2 T03560222
13942KMLU MLU20190914113510309/14/19 11:35:31  5-MIN KMLU 141735Z 08008KT 10SM CLR 36/22 A3012 -90 42 2300 080/08 RMK AO2 T03610217
13942KMLU MLU20190914114010309/14/19 11:40:31  5-MIN KMLU 141740Z VRB06KT 10SM CLR 36/22 A3011 -90 42 2300 VRB/06 RMK AO2 T03610217
13942KMLU MLU20190914114512209/14/19 11:45:31  5-MIN KMLU 141745Z 05008KT 030V110 10SM FEW060 36/22 A3012 -90 44 2300 050/08 030V110 RMK AO2 T03610222
13942KMLU MLU20190914115013709/14/19 11:50:31  5-MIN KMLU 141750Z 06009G14KT 10SM SCT060 37/22 A3011 -90 41 2400 050/09G14 RMK AO2 SLP195 T03670217 10367 20250 51012
13942KMLU MLU20190914115510609/14/19 11:55:31  5-MIN KMLU 141755Z 09009KT 10SM FEW060 36/22 A3011 -90 42 2300 090/09 RMK AO2 T03610217
13942KMLU MLU20190914120010609/14/19 12:00:31  5-MIN KMLU 141800Z 05012KT 10SM FEW060 37/21 A3011 -90 40 2400 050/12 RMK AO2 T03670211
13942KMLU MLU20190914120510609/14/19 12:05:31  5-MIN KMLU 141805Z 05010KT 10SM FEW060 37/22 A3010 -80 41 2400 050/10 RMK AO2 T03670217
13942KMLU MLU20190914121011209/14/19 12:10:31  5-MIN KMLU 141810Z 05012G18KT 10SM SCT060 36/21 A3010 -80 41 2300 050/12G18 RMK AO2 T03610211
13942KMLU MLU20190914121511209/14/19 12:15:31  5-MIN KMLU 141815Z 04008G18KT 10SM FEW060 37/21 A3010 -80 40 2400 040/08G18 RMK AO2 T03670211
13942KMLU MLU20190914122010609/14/19 12:20:31  5-MIN KMLU 141820Z VRB06KT 10SM FEW060 36/21 A3010 -80 39 2300 VRB/06 RMK AO2 T03610206
13942KMLU MLU20190914122510609/14/19 12:25:31  5-MIN KMLU 141825Z 10008KT 10SM FEW060 37/21 A3010 -80 38 2500 090/08 RMK AO2 T03720211
13942KMLU MLU20190914123011209/14/19 12:30:31  5-MIN KMLU 141830Z 04013G18KT 10SM FEW060 37/21 A3010 -80 40 2400 040/13G18 RMK AO2 T03670211
13942KMLU MLU20190914123510909/14/19 12:35:31  5-MIN KMLU 141835Z 06007G18KT 10SM CLR 37/21 A3009 -70 38 2400 060/07G18 RMK AO2 T03670206
13942KMLU MLU20190914124010909/14/19 12:40:31  5-MIN KMLU 141840Z VRB06G15KT 10SM CLR 37/21 A3009 -70 38 2400 VRB/06G15 RMK AO2 T03670206
13942KMLU MLU20190914124510909/14/19 12:45:31  5-MIN KMLU 141845Z 09009G15KT 10SM CLR 37/21 A3009 -70 38 2400 090/09G15 RMK AO2 T03670206
13942KMLU MLU20190914125012609/14/19 12:50:31  5-MIN KMLU 141850Z 09009KT 070V150 10SM CLR 37/20 A3009 -70 37 2400 090/09 070V150 RMK AO2 SLP188 T03670200
13942KMLU MLU20190914125510909/14/19 12:55:31  5-MIN KMLU 141855Z 05012G17KT 10SM CLR 37/20 A3009 -70 36 2500 050/12G17 RMK AO2 T03720200
13942KMLU MLU20190914130010909/14/19 13:00:31  5-MIN KMLU 141900Z 04007G17KT 10SM CLR 37/20 A3009 -70 36 2500 040/07G17 RMK AO2 T03720200
13942KMLU MLU20190914130510309/14/19 13:05:31  5-MIN KMLU 141905Z 06007KT 10SM CLR 37/20 A3008 -60 36 2500 060/07 RMK AO2 T03720200
13942KMLU MLU20190914131010909/14/19 13:10:31  5-MIN KMLU 141910Z 08012G18KT 10SM CLR 37/20 A3008 -60 36 2500 080/12G18 RMK AO2 T03720200
13942KMLU MLU20190914131510909/14/19 13:15:31  5-MIN KMLU 141915Z 05010G18KT 10SM CLR 36/20 A3008 -60 39 2300 050/10G18 RMK AO2 T03560200
13942KMLU MLU20190914132010309/14/19 13:20:31  5-MIN KMLU 141920Z 07009KT 10SM CLR 37/20 A3008 -60 37 2400 070/09 RMK AO2 T03670200
13942KMLU MLU20190914132510609/14/19 13:25:31  5-MIN KMLU 141925Z 06009KT 10SM FEW070 37/19 A3008 -60 36 2400 060/09 RMK AO2 T03670194
13942KMLU MLU20190914133011209/14/19 13:30:31  5-MIN KMLU 141930Z 07009G16KT 10SM SCT070 36/19 A3008 -60 38 2300 070/09G16 RMK AO2 T03560194
13942KMLU MLU20190914133512809/14/19 13:35:31  5-MIN KMLU 141935Z 08011G18KT 040V110 10SM FEW070 37/19 A3007 -60 36 2400 070/11G18 040V110 RMK AO2 T03670194
13942KMLU MLU20190914134012809/14/19 13:40:31  5-MIN KMLU 141940Z 09007G18KT 040V120 10SM FEW070 37/19 A3007 -50 36 2400 090/07G18 040V120 RMK AO2 T03670194
13942KMLU MLU20190914134512209/14/19 13:45:31  5-MIN KMLU 141945Z 08010KT 030V110 10SM FEW070 38/20 A3007 -50 35 2500 080/10 030V110 RMK AO2 T03780200
13942KMLU MLU20190914135011309/14/19 13:50:31  5-MIN KMLU 141950Z 07008KT 10SM FEW070 37/19 A3007 -50 34 2400 070/08 RMK AO2 SLP180 T03670189
13942KMLU MLU20190914135512709/14/19 13:55:31  5-MIN KMLU 141955Z AUTO 08008KT 050V110 10SM FEW070 37/19 A3006 -50 34 2500 070/08 050V110 RMK AO2 T03720194
13942KMLU MLU20190914140011409/14/19 14:00:31  5-MIN KMLU 142000Z AUTO 08009G14KT 10SM CLR 37/19 A3006 -40 34 2500 080/09G14 RMK AO2 T03720194
13942KMLU MLU20190914140511409/14/19 14:05:31  5-MIN KMLU 142005Z AUTO 09008G15KT 10SM CLR 37/19 A3006 -40 33 2500 090/08G15 RMK AO2 T03720189
13942KMLU MLU20190914141011409/14/19 14:10:31  5-MIN KMLU 142010Z AUTO 07007G15KT 10SM CLR 37/19 A3006 -40 33 2500 060/07G15 RMK AO2 T03720189
13942KMLU MLU20190914141511709/14/19 14:15:31  5-MIN KMLU 142015Z AUTO 09011G17KT 10SM FEW075 37/19 A3006 -40 33 2500 090/11G17 RMK AO2 T03720189
13942KMLU MLU20190914142011709/14/19 14:20:31  5-MIN KMLU 142020Z AUTO 09008G17KT 10SM FEW075 37/19 A3005 -30 34 2500 090/08G17 RMK AO2 T03720194
13942KMLU MLU20190914142511709/14/19 14:25:31  5-MIN KMLU 142025Z AUTO 09010G16KT 10SM FEW075 37/19 A3005 -30 34 2500 080/10G16 RMK AO2 T03720194
13942KMLU MLU20190914143011709/14/19 14:30:31  5-MIN KMLU 142030Z AUTO 08007G16KT 10SM FEW080 37/19 A3005 -30 34 2500 080/07G16 RMK AO2 T03720194
13942KMLU MLU20190914143511109/14/19 14:35:31  5-MIN KMLU 142035Z AUTO 09007KT 10SM FEW075 38/19 A3005 -30 33 2600 090/07 RMK AO2 T03780194
13942KMLU MLU20190914144011109/14/19 14:40:31  5-MIN KMLU 142040Z AUTO VRB04KT 10SM FEW075 37/19 A3005 -30 34 2500 VRB/04 RMK AO2 T03720194
13942KMLU MLU20190914144511109/14/19 14:45:31  5-MIN KMLU 142045Z AUTO 05010KT 10SM FEW075 37/19 A3004 -30 34 2500 040/10 RMK AO2 T03720194
13942KMLU MLU20190914145011909/14/19 14:50:31  5-MIN KMLU 142050Z 09006KT 10SM FEW075 37/19 A3004 -30 34 2500 090/06 RMK AO2 SLP172 T03720194 58015
13942KMLU MLU20190914145510909/14/19 14:55:31  5-MIN KMLU 142055Z 06011G16KT 10SM CLR 37/19 A3004 -30 34 2500 060/11G16 RMK AO2 T03720194
13942KMLU MLU20190914150010909/14/19 15:00:31  5-MIN KMLU 142100Z 05010G16KT 10SM CLR 38/19 A3004 -30 33 2600 050/10G16 RMK AO2 T03780194
13942KMLU MLU20190914150510309/14/19 15:05:31  5-MIN KMLU 142105Z 07008KT 10SM CLR 37/19 A3004 -30 33 2500 070/08 RMK AO2 T03720189
13942KMLU MLU20190914151010309/14/19 15:10:31  5-MIN KMLU 142110Z 06013KT 10SM CLR 37/18 A3004 -30 32 2500 060/13 RMK AO2 T03720183
13942KMLU MLU20190914151510309/14/19 15:15:31  5-MIN KMLU 142115Z 06010KT 10SM CLR 37/19 A3004 -30 33 2500 060/10 RMK AO2 T03720189
13942KMLU MLU20190914152010309/14/19 15:20:31  5-MIN KMLU 142120Z 04008KT 10SM CLR 37/19 A3004 -20 33 2500 040/08 RMK AO2 T03720189
13942KMLU MLU20190914152510609/14/19 15:25:31  5-MIN KMLU 142125Z 05007KT 10SM FEW110 38/19 A3004 -20 33 2600 050/07 RMK AO2 T03780194
13942KMLU MLU20190914153011209/14/19 15:30:31  5-MIN KMLU 142130Z 06014G19KT 10SM FEW110 37/19 A3004 -20 34 2500 050/14G19 RMK AO2 T03720194
13942KMLU MLU20190914153510909/14/19 15:35:31  5-MIN KMLU 142135Z 08007G19KT 10SM CLR 37/19 A3004 -20 36 2500 080/07G19 RMK AO2 T03670194
13942KMLU MLU20190914154010309/14/19 15:40:31  5-MIN KMLU 142140Z 09009KT 10SM CLR 36/19 A3004 -20 38 2300 090/09 RMK AO2 T03560194
13942KMLU MLU20190914154510609/14/19 15:45:31  5-MIN KMLU 142145Z 08009KT 10SM FEW075 37/19 A3004 -20 36 2500 080/09 RMK AO2 T03670194
13942KMLU MLU20190914155012909/14/19 15:50:31  5-MIN KMLU 142150Z 09008KT 060V130 10SM FEW075 37/19 A3004 -20 36 2500 090/08 060V130 RMK AO2 SLP170 T03670194
13942KMLU MLU20190914155510309/14/19 15:55:31  5-MIN KMLU 142155Z 08006KT 10SM CLR 36/19 A3004 -20 37 2400 070/06 RMK AO2 T03610194
13942KMLU MLU20190914160010909/14/19 16:00:31  5-MIN KMLU 142200Z 09009G14KT 10SM CLR 37/19 A3004 -20 36 2500 090/09G14 RMK AO2 T03670194
13942KMLU MLU20190914160510309/14/19 16:05:31  5-MIN KMLU 142205Z 08009KT 10SM CLR 36/19 A3004 -20 37 2400 080/09 RMK AO2 T03610194
13942KMLU MLU20190914161010309/14/19 16:10:31  5-MIN KMLU 142210Z 08009KT 10SM CLR 36/19 A3004 -20 37 2400 080/09 RMK AO2 T03610194
13942KMLU MLU20190914161511409/14/19 16:15:31  5-MIN KMLU 142215Z 08009KT 10SM CLR 36/19 A3004 -20 37 2400 080/09 RMK AO2 LTG DSNT N T03610194
13942KMLU MLU20190914162011409/14/19 16:20:31  5-MIN KMLU 142220Z 07010KT 10SM CLR 36/19 A3004 -20 35 2400 070/10 RMK AO2 LTG DSNT N T03610189
13942KMLU MLU20190914162512009/14/19 16:25:31  5-MIN KMLU 142225Z 08009G16KT 10SM CLR 36/19 A3004 -20 37 2400 080/09G16 RMK AO2 LTG DSNT N T03610194
13942KMLU MLU20190914163010309/14/19 16:30:31  5-MIN KMLU 142230Z 08008KT 10SM CLR 36/19 A3004 -20 37 2400 080/08 RMK AO2 T03610194
13942KMLU MLU20190914163510309/14/19 16:35:31  5-MIN KMLU 142235Z 08010KT 10SM CLR 36/19 A3004 -30 37 2300 080/10 RMK AO2 T03560189
13942KMLU MLU20190914164010309/14/19 16:40:31  5-MIN KMLU 142240Z 07007KT 10SM CLR 36/19 A3004 -30 37 2300 070/07 RMK AO2 T03560189
13942KMLU MLU20190914164510309/14/19 16:45:31  5-MIN KMLU 142245Z 08006KT 10SM CLR 36/19 A3004 -30 38 2300 080/06 RMK AO2 T03560194
13942KMLU MLU20190914165011009/14/19 16:50:31  5-MIN KMLU 142250Z 08005KT 10SM CLR 36/19 A3004 -30 38 2300 080/05 RMK AO2 SLP171 T03560194
13942KMLU MLU20190914165510309/14/19 16:55:31  5-MIN KMLU 142255Z 08004KT 10SM CLR 36/19 A3004 -30 38 2300 080/04 RMK AO2 T03560194
13942KMLU MLU20190914170010309/14/19 17:00:31  5-MIN KMLU 142300Z 08007KT 10SM CLR 36/19 A3004 -30 38 2300 080/07 RMK AO2 T03560194
13942KMLU MLU20190914170510309/14/19 17:05:31  5-MIN KMLU 142305Z 09008KT 10SM CLR 35/19 A3004 -30 39 2300 090/08 RMK AO2 T03500194
13942KMLU MLU20190914171010309/14/19 17:10:31  5-MIN KMLU 142310Z 07005KT 10SM CLR 35/19 A3004 -30 39 2300 070/05 RMK AO2 T03500194
13942KMLU MLU20190914171510309/14/19 17:15:31  5-MIN KMLU 142315Z 08007KT 10SM CLR 35/19 A3005 -30 39 2300 080/07 RMK AO2 T03500194
13942KMLU MLU20190914172010309/14/19 17:20:31  5-MIN KMLU 142320Z 08008KT 10SM CLR 34/19 A3005 -30 40 2200 080/08 RMK AO2 T03440194
13942KMLU MLU20190914172510309/14/19 17:25:31  5-MIN KMLU 142325Z 09007KT 10SM CLR 34/19 A3005 -30 40 2200 090/07 RMK AO2 T03440194
13942KMLU MLU20190914173010309/14/19 17:30:31  5-MIN KMLU 142330Z 09007KT 10SM CLR 34/19 A3005 -30 40 2200 090/07 RMK AO2 T03440194
13942KMLU MLU20190914173510309/14/19 17:35:31  5-MIN KMLU 142335Z 09006KT 10SM CLR 34/19 A3005 -30 40 2200 090/06 RMK AO2 T03440194
13942KMLU MLU20190914174010609/14/19 17:40:31  5-MIN KMLU 142340Z 08005KT 10SM FEW100 34/19 A3005 -30 42 2100 080/05 RMK AO2 T03390194
13942KMLU MLU20190914174510609/14/19 17:45:31  5-MIN KMLU 142345Z 09007KT 10SM FEW100 34/19 A3005 -30 42 2100 080/07 RMK AO2 T03390194
13942KMLU MLU20190914175013109/14/19 17:50:31  5-MIN KMLU 142350Z 09006KT 10SM FEW100 34/19 A3005 -30 42 2100 090/06 RMK AO2 SLP174 T03390194 10378 20339 58022
13942KMLU MLU20190914175510609/14/19 17:55:31  5-MIN KMLU 142355Z 09005KT 10SM FEW100 33/19 A3005 -30 43 2100 090/05 RMK AO2 T03330194
13942KMLU MLU20190914180010609/14/19 18:00:31  5-MIN KMLU 150000Z 09005KT 10SM FEW100 33/19 A3005 -30 43 2100 090/05 RMK AO2 T03330194
13942KMLU MLU20190914180510609/14/19 18:05:31  5-MIN KMLU 150005Z 09005KT 10SM FEW100 33/19 A3005 -30 44 2000 090/05 RMK AO2 T03280194
13942KMLU MLU20190914181010609/14/19 18:10:31  5-MIN KMLU 150010Z 08004KT 10SM FEW100 33/19 A3005 -30 44 2000 080/04 RMK AO2 T03280194
13942KMLU MLU20190914181510309/14/19 18:15:31  5-MIN KMLU 150015Z 09006KT 10SM CLR 33/19 A3005 -30 44 2000 090/06 RMK AO2 T03280194
13942KMLU MLU20190914182010309/14/19 18:20:31  5-MIN KMLU 150020Z 08004KT 10SM CLR 33/19 A3005 -30 44 2000 080/04 RMK AO2 T03280194
13942KMLU MLU20190914182510309/14/19 18:25:31  5-MIN KMLU 150025Z 09005KT 10SM CLR 32/19 A3005 -30 46 2000 090/05 RMK AO2 T03220194
13942KMLU MLU20190914183010309/14/19 18:30:31  5-MIN KMLU 150030Z 09005KT 10SM CLR 32/19 A3005 -30 46 2000 090/05 RMK AO2 T03220194
13942KMLU MLU20190914183510309/14/19 18:35:31  5-MIN KMLU 150035Z 08004KT 10SM CLR 32/19 A3005 -40 46 2000 080/04 RMK AO2 T03220194
13942KMLU MLU20190914184010309/14/19 18:40:31  5-MIN KMLU 150040Z 08004KT 10SM CLR 32/19 A3005 -40 47 1900 080/04 RMK AO2 T03170194
13942KMLU MLU20190914184510309/14/19 18:45:31  5-MIN KMLU 150045Z 08004KT 10SM CLR 32/19 A3005 -40 47 1900 080/04 RMK AO2 T03170194
13942KMLU MLU20190914185011009/14/19 18:50:31  5-MIN KMLU 150050Z 08003KT 10SM CLR 32/19 A3005 -40 47 1900 080/03 RMK AO2 SLP176 T03170194
13942KMLU MLU20190914185510309/14/19 18:55:31  5-MIN KMLU 150055Z 08003KT 10SM CLR 31/19 A3006 -40 49 1800 080/03 RMK AO2 T03110194
13942KMLU MLU20190914190010309/14/19 19:00:31  5-MIN KMLU 150100Z 09003KT 10SM CLR 31/20 A3006 -40 52 1800 090/03 RMK AO2 T03060200
13942KMLU MLU20190914190510309/14/19 19:05:31  5-MIN KMLU 150105Z 08003KT 10SM CLR 31/19 A3006 -40 51 1800 080/03 RMK AO2 T03060194
13942KMLU MLU20190914191010309/14/19 19:10:31  5-MIN KMLU 150110Z 00000KT 10SM CLR 31/20 A3006 -40 52 1800 000/00 RMK AO2 T03060200
13942KMLU MLU20190914191510309/14/19 19:15:31  5-MIN KMLU 150115Z 10003KT 10SM CLR 30/20 A3006 -40 54 1700 100/03 RMK AO2 T03000200
13942KMLU MLU20190914192010309/14/19 19:20:31  5-MIN KMLU 150120Z 11004KT 10SM CLR 31/20 A3006 -50 52 1800 110/04 RMK AO2 T03060200
13942KMLU MLU20190914192510309/14/19 19:25:31  5-MIN KMLU 150125Z 10004KT 10SM CLR 31/20 A3007 -50 52 1800 100/04 RMK AO2 T03060200
13942KMLU MLU20190914193010309/14/19 19:30:31  5-MIN KMLU 150130Z 10005KT 10SM CLR 31/19 A3007 -50 51 1800 100/05 RMK AO2 T03060194
13942KMLU MLU20190914193510309/14/19 19:35:31  5-MIN KMLU 150135Z 10004KT 10SM CLR 31/19 A3007 -50 51 1800 100/04 RMK AO2 T03060194
13942KMLU MLU20190914194010309/14/19 19:40:31  5-MIN KMLU 150140Z 10004KT 10SM CLR 31/20 A3007 -50 52 1800 100/04 RMK AO2 T03060200
13942KMLU MLU20190914194510309/14/19 19:45:31  5-MIN KMLU 150145Z 10004KT 10SM CLR 31/19 A3007 -60 51 1800 100/04 RMK AO2 T03060194
13942KMLU MLU20190914195011009/14/19 19:50:31  5-MIN KMLU 150150Z 10003KT 10SM CLR 30/20 A3007 -60 54 1700 100/03 RMK AO2 SLP182 T03000200
13942KMLU MLU20190914195510309/14/19 19:55:31  5-MIN KMLU 150155Z 09003KT 10SM CLR 30/20 A3008 -60 54 1700 090/03 RMK AO2 T03000200
13942KMLU MLU20190914200010309/14/19 20:00:31  5-MIN KMLU 150200Z 09003KT 10SM CLR 29/20 A3008 -60 56 1600 090/03 RMK AO2 T02940200
13942KMLU MLU20190915193510109/15/19 19:35:31  5-MIN KMLU 160135Z 00000KT 10SM CLR 27/22 A3001 0 71 1500 000/00 RMK AO2 T02720217
13942KMLU MLU20190915194010109/15/19 19:40:31  5-MIN KMLU 160140Z 00000KT 10SM CLR 27/22 A3001 0 71 1400 000/00 RMK AO2 T02720217
13942KMLU MLU20190915194510109/15/19 19:45:31  5-MIN KMLU 160145Z 08003KT 10SM CLR 27/22 A3001 0 74 1400 070/03 RMK AO2 T02720222
13942KMLU MLU20190915195010809/15/19 19:50:31  5-MIN KMLU 160150Z 08003KT 10SM CLR 27/22 A3001 0 76 1400 080/03 RMK AO2 SLP161 T02670222
13942KMLU MLU20190915195510109/15/19 19:55:31  5-MIN KMLU 160155Z 00000KT 10SM CLR 27/22 A3001 0 76 1400 000/00 RMK AO2 T02670222
13942KMLU MLU20190915200010109/15/19 20:00:31  5-MIN KMLU 160200Z 00000KT 10SM CLR 27/22 A3002 0 76 1400 000/00 RMK AO2 T02670222
13942KMLU MLU20190915200510109/15/19 20:05:31  5-MIN KMLU 160205Z 00000KT 10SM CLR 27/22 A3002 0 76 1400 000/00 RMK AO2 T02670222
13942KMLU MLU20190915201010309/15/19 20:10:31  5-MIN KMLU 160210Z 00000KT 10SM CLR 27/22 A3002 -10 73 1400 000/00 RMK AO2 T02670217
13942KMLU MLU20190915201510309/15/19 20:15:31  5-MIN KMLU 160215Z 07003KT 10SM CLR 26/22 A3002 -10 76 1300 060/03 RMK AO2 T02610217
13942KMLU MLU20190915202010309/15/19 20:20:31  5-MIN KMLU 160220Z 07003KT 10SM CLR 26/22 A3002 -10 76 1300 070/03 RMK AO2 T02610217
13942KMLU MLU20190915202510309/15/19 20:25:31  5-MIN KMLU 160225Z 08003KT 10SM CLR 26/21 A3003 -10 73 1300 080/03 RMK AO2 T02610211
13942KMLU MLU20190915203010309/15/19 20:30:31  5-MIN KMLU 160230Z 00000KT 10SM CLR 26/22 A3003 -10 76 1300 000/00 RMK AO2 T02610217
13942KMLU MLU20190915203510309/15/19 20:35:31  5-MIN KMLU 160235Z 00000KT 10SM CLR 26/22 A3003 -20 76 1300 000/00 RMK AO2 T02610217
13942KMLU MLU20190915204010309/15/19 20:40:31  5-MIN KMLU 160240Z 00000KT 10SM CLR 26/21 A3003 -20 73 1300 000/00 RMK AO2 T02610211
13942KMLU MLU20190915204510309/15/19 20:45:31  5-MIN KMLU 160245Z 08003KT 10SM CLR 27/21 A3003 -20 71 1400 080/03 RMK AO2 T02670211
13942KMLU MLU20190915205011609/15/19 20:50:31  5-MIN KMLU 160250Z 07003KT 10SM CLR 27/21 A3003 -20 69 1400 070/03 RMK AO2 SLP168 T02720211 55002
13942KMLU MLU20190915205510309/15/19 20:55:31  5-MIN KMLU 160255Z 08003KT 10SM CLR 26/21 A3004 -20 73 1300 080/03 RMK AO2 T02610211
13942KMLU MLU20190915210010309/15/19 21:00:31  5-MIN KMLU 160300Z 00000KT 10SM CLR 26/22 A3004 -20 79 1200 000/00 RMK AO2 T02560217
13942KMLU MLU20190915210510309/15/19 21:05:31  5-MIN KMLU 160305Z 00000KT 10SM CLR 26/22 A3004 -20 79 1200 000/00 RMK AO2 T02560217
13942KMLU MLU20190915211010309/15/19 21:10:31  5-MIN KMLU 160310Z 07003KT 10SM CLR 26/22 A3004 -20 76 1300 070/03 RMK AO2 T02610217
13942KMLU MLU20190915211510309/15/19 21:15:31  5-MIN KMLU 160315Z 00000KT 10SM CLR 26/22 A3004 -20 79 1200 000/00 RMK AO2 T02560217
13942KMLU MLU20190915212010309/15/19 21:20:31  5-MIN KMLU 160320Z 08003KT 10SM CLR 26/22 A3004 -20 79 1200 080/03 RMK AO2 T02560217
13942KMLU MLU20190915212510309/15/19 21:25:31  5-MIN KMLU 160325Z 07003KT 10SM CLR 26/22 A3004 -20 76 1300 070/03 RMK AO2 T02610217
13942KMLU MLU20190915213010309/15/19 21:30:31  5-MIN KMLU 160330Z 07003KT 10SM CLR 26/22 A3004 -20 79 1200 060/03 RMK AO2 T02560217
13942KMLU MLU20190915213510309/15/19 21:35:31  5-MIN KMLU 160335Z 06003KT 10SM CLR 26/22 A3004 -20 79 1200 060/03 RMK AO2 T02560217
13942KMLU MLU20190915214010309/15/19 21:40:31  5-MIN KMLU 160340Z 05003KT 10SM CLR 25/22 A3004 -20 81 1200 050/03 RMK AO2 T02500217
13942KMLU MLU20190915214510309/15/19 21:45:31  5-MIN KMLU 160345Z 07003KT 10SM CLR 25/22 A3004 -20 81 1200 060/03 RMK AO2 T02500217
13942KMLU MLU20190915215011009/15/19 21:50:31  5-MIN KMLU 160350Z 07003KT 10SM CLR 26/22 A3004 -20 79 1200 070/03 RMK AO2 SLP170 T02560217
13942KMLU MLU20190915215510309/15/19 21:55:31  5-MIN KMLU 160355Z 07003KT 10SM CLR 26/22 A3004 -20 79 1200 070/03 RMK AO2 T02560217
13942KMLU MLU20190915220010309/15/19 22:00:31  5-MIN KMLU 160400Z 08003KT 10SM CLR 25/22 A3004 -20 81 1200 070/03 RMK AO2 T02500217
13942KMLU MLU20190915220510309/15/19 22:05:31  5-MIN KMLU 160405Z 07003KT 10SM CLR 25/21 A3004 -20 79 1200 070/03 RMK AO2 T02500211
13942KMLU MLU20190915221010309/15/19 22:10:31  5-MIN KMLU 160410Z 06003KT 10SM CLR 26/21 A3004 -20 76 1200 060/03 RMK AO2 T02560211
13942KMLU MLU20190915221510309/15/19 22:15:31  5-MIN KMLU 160415Z 06003KT 10SM CLR 26/21 A3004 -20 76 1200 060/03 RMK AO2 T02560211
13942KMLU MLU20190915222010309/15/19 22:20:31  5-MIN KMLU 160420Z 07003KT 10SM CLR 25/21 A3004 -20 79 1200 060/03 RMK AO2 T02500211
13942KMLU MLU20190915222510309/15/19 22:25:31  5-MIN KMLU 160425Z 07003KT 10SM CLR 26/21 A3004 -20 76 1200 070/03 RMK AO2 T02560211
13942KMLU MLU20190915223010309/15/19 22:30:31  5-MIN KMLU 160430Z 07003KT 10SM CLR 26/21 A3004 -20 76 1200 070/03 RMK AO2 T02560211
13942KMLU MLU20190915223510309/15/19 22:35:31  5-MIN KMLU 160435Z 07003KT 10SM CLR 26/22 A3004 -20 79 1200 060/03 RMK AO2 T02560217
13942KMLU MLU20190915224010809/15/19 22:40:31  5-MIN KMLU 160440Z AUTO 08003KT 10SM CLR 25/22 A3004 -20 81 1200 080/03 RMK AO2 T02500217
13942KMLU MLU20190915224510809/15/19 22:45:31  5-MIN KMLU 160445Z AUTO 07003KT 10SM CLR 25/21 A3004 -20 79 1200 070/03 RMK AO2 T02500211
13942KMLU MLU20190915225011509/15/19 22:50:31  5-MIN KMLU 160450Z AUTO 08003KT 10SM CLR 25/21 A3004 -20 79 1200 070/03 RMK AO2 SLP170 T02500211
13942KMLU MLU20190915225510809/15/19 22:55:31  5-MIN KMLU 160455Z AUTO 07003KT 10SM CLR 24/21 A3004 -20 81 1100 070/03 RMK AO2 T02440211
13942KMLU MLU20190915230010809/15/19 23:00:31  5-MIN KMLU 160500Z AUTO 07003KT 10SM CLR 25/21 A3004 -20 79 1200 070/03 RMK AO2 T02500211
13942KMLU MLU20190915230510809/15/19 23:05:31  5-MIN KMLU 160505Z AUTO 07003KT 10SM CLR 25/21 A3004 -20 79 1200 070/03 RMK AO2 T02500211
13942KMLU MLU20190915231010809/15/19 23:10:31  5-MIN KMLU 160510Z AUTO 06003KT 10SM CLR 25/21 A3004 -20 79 1200 060/03 RMK AO2 T02500211
13942KMLU MLU20190915231510809/15/19 23:15:31  5-MIN KMLU 160515Z AUTO 06003KT 10SM CLR 24/21 A3004 -20 81 1100 060/03 RMK AO2 T02440211
13942KMLU MLU20190915232010809/15/19 23:20:31  5-MIN KMLU 160520Z AUTO 07003KT 10SM CLR 24/21 A3004 -20 81 1100 070/03 RMK AO2 T02440211
13942KMLU MLU20190915232510809/15/19 23:25:31  5-MIN KMLU 160525Z AUTO 06003KT 10SM CLR 24/21 A3004 -20 81 1100 060/03 RMK AO2 T02440211
13942KMLU MLU20190915233010809/15/19 23:30:31  5-MIN KMLU 160530Z AUTO 06003KT 10SM CLR 24/21 A3004 -20 81 1100 060/03 RMK AO2 T02440211
13942KMLU MLU20190915233510809/15/19 23:35:31  5-MIN KMLU 160535Z AUTO 07003KT 10SM CLR 24/21 A3004 -20 81 1100 070/03 RMK AO2 T02440211
13942KMLU MLU20190915234010809/15/19 23:40:31  5-MIN KMLU 160540Z AUTO 07003KT 10SM CLR 25/22 A3004 -20 81 1200 070/03 RMK AO2 T02500217
13942KMLU MLU20190915234510809/15/19 23:45:31  5-MIN KMLU 160545Z AUTO 07003KT 10SM CLR 25/21 A3004 -20 79 1200 070/03 RMK AO2 T02500211
13942KMLU MLU20190915235014309/15/19 23:50:31  5-MIN KMLU 160550Z AUTO 08003KT 10SM CLR 24/21 A3004 -20 81 1100 080/03 RMK AO2 SLP171 T02440211 10317 20244 403670222 53013
13942KMLU MLU20190915235510809/15/19 23:55:31  5-MIN KMLU 160555Z AUTO 08003KT 10SM CLR 24/21 A3004 -30 81 1100 080/03 RMK AO2 T02440211
13942KMLU MLU20190916000010809/16/19 00:00:31  5-MIN KMLU 160600Z AUTO 08003KT 10SM CLR 24/22 A3004 -20 84 1100 080/03 RMK AO2 T02440217
13942KMLU MLU20190916000510809/16/19 00:05:31  5-MIN KMLU 160605Z AUTO 07003KT 10SM CLR 24/22 A3004 -20 84 1100 070/03 RMK AO2 T02440217
13942KMLU MLU20190916001010809/16/19 00:10:31  5-MIN KMLU 160610Z AUTO 07003KT 10SM CLR 24/22 A3004 -20 84 1100 070/03 RMK AO2 T02440217
13942KMLU MLU20190916001510809/16/19 00:15:31  5-MIN KMLU 160615Z AUTO 00000KT 10SM CLR 24/21 A3004 -20 81 1100 000/00 RMK AO2 T02440211
13942KMLU MLU20190916002010809/16/19 00:20:31  5-MIN KMLU 160620Z AUTO 00000KT 10SM CLR 24/22 A3004 -20 87 1000 000/00 RMK AO2 T02390217
13942KMLU MLU20190916002510809/16/19 00:25:31  5-MIN KMLU 160625Z AUTO 08003KT 10SM CLR 24/22 A3004 -20 87 1000 080/03 RMK AO2 T02390217
13942KMLU MLU20190916003010809/16/19 00:30:31  5-MIN KMLU 160630Z AUTO 07003KT 10SM CLR 24/22 A3004 -20 87 1000 070/03 RMK AO2 T02390217
13942KMLU MLU20190916003510809/16/19 00:35:31  5-MIN KMLU 160635Z AUTO 07003KT 10SM CLR 24/22 A3004 -30 87 1000 070/03 RMK AO2 T02390217
13942KMLU MLU20190916004010809/16/19 00:40:31  5-MIN KMLU 160640Z AUTO 08003KT 10SM CLR 24/22 A3004 -30 87 1000 080/03 RMK AO2 T02390217
13942KMLU MLU20190916004510809/16/19 00:45:31  5-MIN KMLU 160645Z AUTO 00000KT 10SM CLR 24/21 A3004 -30 84 1000 000/00 RMK AO2 T02390211
13942KMLU MLU20190916005011509/16/19 00:50:31  5-MIN KMLU 160650Z AUTO 07003KT 10SM CLR 23/21 A3004 -30 87 1000 070/03 RMK AO2 SLP171 T02330211
13942KMLU MLU20190916005510809/16/19 00:55:31  5-MIN KMLU 160655Z AUTO 07003KT 10SM CLR 24/21 A3004 -30 84 1000 070/03 RMK AO2 T02390211
13942KMLU MLU20190916010010809/16/19 01:00:31  5-MIN KMLU 160700Z AUTO 07003KT 10SM CLR 24/21 A3004 -30 84 1000 070/03 RMK AO2 T02390211
13942KMLU MLU20190916010510809/16/19 01:05:31  5-MIN KMLU 160705Z AUTO 07003KT 10SM CLR 24/21 A3004 -30 84 1000 070/03 RMK AO2 T02390211
13942KMLU MLU20190916011010809/16/19 01:10:31  5-MIN KMLU 160710Z AUTO 08003KT 10SM CLR 24/21 A3004 -30 84 1000 080/03 RMK AO2 T02390211
13942KMLU MLU20190916011510809/16/19 01:15:31  5-MIN KMLU 160715Z AUTO 08003KT 10SM CLR 24/22 A3004 -30 87 1000 080/03 RMK AO2 T02390217
13942KMLU MLU20190916012010809/16/19 01:20:31  5-MIN KMLU 160720Z AUTO 07003KT 10SM CLR 24/22 A3004 -30 84 1100 070/03 RMK AO2 T02440217
13942KMLU MLU20190916012510809/16/19 01:25:31  5-MIN KMLU 160725Z AUTO 07003KT 10SM CLR 24/22 A3004 -30 87 1000 070/03 RMK AO2 T02390217
13942KMLU MLU20190916013010809/16/19 01:30:31  5-MIN KMLU 160730Z AUTO 08003KT 10SM CLR 24/22 A3004 -30 84 1100 070/03 RMK AO2 T02440217
13942KMLU MLU20190916013510809/16/19 01:35:31  5-MIN KMLU 160735Z AUTO 00000KT 10SM CLR 24/22 A3004 -20 87 1000 000/00 RMK AO2 T02390217
13942KMLU MLU20190916014010809/16/19 01:40:31  5-MIN KMLU 160740Z AUTO 06003KT 10SM CLR 24/22 A3004 -20 87 1000 060/03 RMK AO2 T02390217
13942KMLU MLU20190916014510809/16/19 01:45:31  5-MIN KMLU 160745Z AUTO 00000KT 10SM CLR 24/22 A3004 -20 87 1000 000/00 RMK AO2 T02390217
13942KMLU MLU20190916015011509/16/19 01:50:31  5-MIN KMLU 160750Z AUTO 00000KT 10SM CLR 23/21 A3004 -20 87 1000 000/00 RMK AO2 SLP170 T02330211
13942KMLU MLU20190916015510809/16/19 01:55:31  5-MIN KMLU 160755Z AUTO 00000KT 10SM CLR 23/21 A3004 -20 87 1000 000/00 RMK AO2 T02330211
13942KMLU MLU20190916020010809/16/19 02:00:31  5-MIN KMLU 160800Z AUTO 05003KT 10SM CLR 23/21 A3004 -20 87 1000 050/03 RMK AO2 T02330211
13942KMLU MLU20190916020510809/16/19 02:05:31  5-MIN KMLU 160805Z AUTO 00000KT 10SM CLR 23/21 A3004 -20 87 1000 000/00 RMK AO2 T02330211
13942KMLU MLU20190916021010809/16/19 02:10:31  5-MIN KMLU 160810Z AUTO 00000KT 10SM CLR 23/21 A3004 -20 87 1000 000/00 RMK AO2 T02330211
13942KMLU MLU20190916021510809/16/19 02:15:31  5-MIN KMLU 160815Z AUTO 00000KT 10SM CLR 23/21 A3004 -20 87 1000 000/00 RMK AO2 T02330211
13942KMLU MLU20190916022010809/16/19 02:20:31  5-MIN KMLU 160820Z AUTO 00000KT 10SM CLR 23/21 A3004 -20 87 1000 000/00 RMK AO2 T02330211
13942KMLU MLU20190916022510809/16/19 02:25:31  5-MIN KMLU 160825Z AUTO 00000KT 10SM CLR 23/21 A3004 -20 87 1000 000/00 RMK AO2 T02330211
13942KMLU MLU20190916023010809/16/19 02:30:31  5-MIN KMLU 160830Z AUTO 00000KT 10SM CLR 23/21 A3004 -20 87 1000 000/00 RMK AO2 T02330211
13942KMLU MLU20190916023510809/16/19 02:35:31  5-MIN KMLU 160835Z AUTO 00000KT 10SM CLR 23/21 A3004 -20 87 1000 000/00 RMK AO2 T02330211
13942KMLU MLU20190916024010709/16/19 02:40:31  5-MIN KMLU 160840Z AUTO 00000KT 10SM CLR 23/21 A3004 -20 90 900 000/00 RMK AO2 T02280211
13942KMLU MLU20190916024510709/16/19 02:45:31  5-MIN KMLU 160845Z AUTO 00000KT 10SM CLR 23/21 A3004 -30 90 900 000/00 RMK AO2 T02280211
13942KMLU MLU20190916025012009/16/19 02:50:31  5-MIN KMLU 160850Z AUTO 00000KT 10SM CLR 23/21 A3004 -20 90 900 000/00 RMK AO2 SLP171 T02280211 53002
13942KMLU MLU20190916025510809/16/19 02:55:31  5-MIN KMLU 160855Z AUTO 00000KT 10SM CLR 23/21 A3004 -20 87 1000 000/00 RMK AO2 T02330211
13942KMLU MLU20190916030010709/16/19 03:00:31  5-MIN KMLU 160900Z AUTO 00000KT 10SM CLR 23/21 A3004 -30 90 900 000/00 RMK AO2 T02280211
13942KMLU MLU20190916030510709/16/19 03:05:31  5-MIN KMLU 160905Z AUTO 00000KT 10SM CLR 23/21 A3004 -30 90 900 000/00 RMK AO2 T02280211
13942KMLU MLU20190916031010709/16/19 03:10:31  5-MIN KMLU 160910Z AUTO 00000KT 10SM CLR 23/21 A3004 -20 90 900 000/00 RMK AO2 T02280211
13942KMLU MLU20190916031510709/16/19 03:15:31  5-MIN KMLU 160915Z AUTO 00000KT 10SM CLR 23/21 A3004 -20 90 900 000/00 RMK AO2 T02280211
13942KMLU MLU20190916032010709/16/19 03:20:31  5-MIN KMLU 160920Z AUTO 00000KT 10SM CLR 23/21 A3004 -20 90 900 000/00 RMK AO2 T02280211
13942KMLU MLU20190916032510709/16/19 03:25:31  5-MIN KMLU 160925Z AUTO 00000KT 10SM CLR 23/21 A3004 -20 90 900 000/00 RMK AO2 T02280211
13942KMLU MLU20190916033010709/16/19 03:30:31  5-MIN KMLU 160930Z AUTO 00000KT 10SM CLR 23/21 A3004 -20 90 900 000/00 RMK AO2 T02280211
13942KMLU MLU20190916033510709/16/19 03:35:31  5-MIN KMLU 160935Z AUTO 00000KT 10SM CLR 23/21 A3004 -20 90 900 000/00 RMK AO2 T02280211
13942KMLU MLU20190916034010709/16/19 03:40:31  5-MIN KMLU 160940Z AUTO 00000KT 10SM CLR 23/21 A3004 -20 90 900 000/00 RMK AO2 T02280211
13942KMLU MLU20190916034510709/16/19 03:45:31  5-MIN KMLU 160945Z AUTO 00000KT 10SM CLR 23/21 A3004 -20 90 900 000/00 RMK AO2 T02280211
13942KMLU MLU20190916035011409/16/19 03:50:31  5-MIN KMLU 160950Z AUTO 00000KT 10SM CLR 23/21 A3004 -20 90 900 000/00 RMK AO2 SLP170 T02280211
13942KMLU MLU20190916035510709/16/19 03:55:31  5-MIN KMLU 160955Z AUTO 00000KT 10SM CLR 23/21 A3004 -20 90 900 000/00 RMK AO2 T02280211
13942KMLU MLU20190916040010709/16/19 04:00:31  5-MIN KMLU 161000Z AUTO 00000KT 10SM CLR 23/21 A3004 -20 90 900 000/00 RMK AO2 T02280211
13942KMLU MLU20190916040510709/16/19 04:05:31  5-MIN KMLU 161005Z AUTO 00000KT 10SM CLR 22/21 A3004 -20 93 800 000/00 RMK AO2 T02220211
13942KMLU MLU20190916041010709/16/19 04:10:31  5-MIN KMLU 161010Z AUTO 00000KT 10SM CLR 23/21 A3004 -20 90 900 000/00 RMK AO2 T02280211
13942KMLU MLU20190916041510709/16/19 04:15:31  5-MIN KMLU 161015Z AUTO 00000KT 10SM CLR 23/21 A3004 -30 90 900 000/00 RMK AO2 T02280211
13942KMLU MLU20190916042010709/16/19 04:20:31  5-MIN KMLU 161020Z AUTO 00000KT 10SM CLR 23/21 A3004 -30 87 900 000/00 RMK AO2 T02280206
13942KMLU MLU20190916042510709/16/19 04:25:31  5-MIN KMLU 161025Z AUTO 00000KT 10SM CLR 22/21 A3004 -30 90 800 000/00 RMK AO2 T02220206
13942KMLU MLU20190916043010709/16/19 04:30:31  5-MIN KMLU 161030Z AUTO 00000KT 10SM CLR 22/21 A3005 -30 90 800 000/00 RMK AO2 T02220206
13942KMLU MLU20190916043510709/16/19 04:35:31  5-MIN KMLU 161035Z AUTO 00000KT 10SM CLR 23/21 A3005 -30 87 900 000/00 RMK AO2 T02280206
13942KMLU MLU20190916044010709/16/19 04:40:31  5-MIN KMLU 161040Z AUTO 00000KT 10SM CLR 22/21 A3005 -30 90 800 000/00 RMK AO2 T02220206
13942KMLU MLU20190916044510709/16/19 04:45:31  5-MIN KMLU 161045Z AUTO 00000KT 10SM CLR 22/21 A3005 -30 93 800 000/00 RMK AO2 T02170206
13942KMLU MLU20190916045011409/16/19 04:50:31  5-MIN KMLU 161050Z AUTO 00000KT 10SM CLR 22/21 A3005 -30 90 800 000/00 RMK AO2 SLP174 T02220206
13942KMLU MLU20190916045510609/16/19 04:55:31  5-MIN KMLU 161055Z AUTO 00000KT 9SM CLR 22/21 A3005 -30 90 800 000/00 RMK AO2 T02220206
13942KMLU MLU20190916050010709/16/19 05:00:31  5-MIN KMLU 161100Z AUTO 00000KT 10SM CLR 22/21 A3005 -30 90 800 000/00 RMK AO2 T02220206
13942KMLU MLU20190916050510709/16/19 05:05:31  5-MIN KMLU 161105Z AUTO 00000KT 10SM CLR 22/21 A3005 -30 93 800 000/00 RMK AO2 T02220211
13942KMLU MLU20190916051010609/16/19 05:10:31  5-MIN KMLU 161110Z AUTO 00000KT 9SM CLR 22/21 A3005 -40 93 800 000/00 RMK AO2 T02220211
13942KMLU MLU20190916051510609/16/19 05:15:31  5-MIN KMLU 161115Z AUTO 00000KT 9SM CLR 22/21 A3005 -40 90 800 000/00 RMK AO2 T02220206
13942KMLU MLU20190916052010609/16/19 05:20:31  5-MIN KMLU 161120Z AUTO 00000KT 9SM CLR 22/21 A3005 -40 90 800 000/00 RMK AO2 T02220206
13942KMLU MLU20190916052510609/16/19 05:25:31  5-MIN KMLU 161125Z AUTO 00000KT 8SM CLR 22/21 A3005 -40 93 800 000/00 RMK AO2 T02220211
13942KMLU MLU20190916053010609/16/19 05:30:31  5-MIN KMLU 161130Z AUTO 00000KT 9SM CLR 22/21 A3005 -40 93 800 000/00 RMK AO2 T02220211
13942KMLU MLU20190916053510609/16/19 05:35:31  5-MIN KMLU 161135Z AUTO 00000KT 9SM CLR 22/21 A3006 -40 90 800 000/00 RMK AO2 T02220206
13942KMLU MLU20190916054010609/16/19 05:40:31  5-MIN KMLU 161140Z AUTO 00000KT 8SM CLR 22/21 A3006 -40 90 800 000/00 RMK AO2 T02220206
13942KMLU MLU20190916054510609/16/19 05:45:31  5-MIN KMLU 161145Z AUTO 00000KT 8SM CLR 22/21 A3006 -40 93 800 000/00 RMK AO2 T02220211
13942KMLU MLU20190916055013109/16/19 05:50:31  5-MIN KMLU 161150Z AUTO 00000KT 9SM CLR 22/21 A3006 -40 93 800 000/00 RMK AO2 SLP176 T02220211 10244 20217 55000
13942KMLU MLU20190916055510609/16/19 05:55:31  5-MIN KMLU 161155Z AUTO 00000KT 9SM CLR 22/21 A3006 -40 93 800 000/00 RMK AO2 T02220211
13942KMLU MLU20190916060010609/16/19 06:00:31  5-MIN KMLU 161200Z AUTO 00000KT 8SM CLR 22/21 A3006 -40 90 800 000/00 RMK AO2 T02220206
13942KMLU MLU20190916060510609/16/19 06:05:31  5-MIN KMLU 161205Z AUTO 03003KT 8SM CLR 22/21 A3006 -50 93 800 030/03 RMK AO2 T02170206
13942KMLU MLU20190916061010609/16/19 06:10:31  5-MIN KMLU 161210Z AUTO 02003KT 8SM CLR 22/21 A3006 -50 93 800 020/03 RMK AO2 T02220211
13942KMLU MLU20190916061510609/16/19 06:15:31  5-MIN KMLU 161215Z AUTO 00000KT 8SM CLR 22/21 A3007 -50 93 800 000/00 RMK AO2 T02220211
13942KMLU MLU20190916062010609/16/19 06:20:31  5-MIN KMLU 161220Z AUTO 00000KT 8SM CLR 22/21 A3007 -50 93 800 000/00 RMK AO2 T02220211
13942KMLU MLU20190916062510609/16/19 06:25:31  5-MIN KMLU 161225Z AUTO 00000KT 8SM CLR 22/21 A3007 -50 93 800 000/00 RMK AO2 T02220211
13942KMLU MLU20190916063010609/16/19 06:30:31  5-MIN KMLU 161230Z AUTO 00000KT 8SM CLR 23/22 A3007 -50 93 900 000/00 RMK AO2 T02280217
13942KMLU MLU20190916063510609/16/19 06:35:31  5-MIN KMLU 161235Z AUTO 00000KT 8SM CLR 23/22 A3007 -50 90 900 000/00 RMK AO2 T02330217
13942KMLU MLU20190916064010609/16/19 06:40:31  5-MIN KMLU 161240Z AUTO 00000KT 8SM CLR 23/22 A3007 -50 90 900 000/00 RMK AO2 T02330217
13942KMLU MLU20190916064510709/16/19 06:45:31  5-MIN KMLU 161245Z AUTO 00000KT 8SM CLR 24/22 A3007 -50 90 1000 000/00 RMK AO2 T02390222
13942KMLU MLU20190916065011409/16/19 06:50:31  5-MIN KMLU 161250Z AUTO 00000KT 8SM CLR 24/22 A3007 -50 87 1100 000/00 RMK AO2 SLP181 T02440222
13942KMLU MLU20190916065510709/16/19 06:55:31  5-MIN KMLU 161255Z AUTO 00000KT 8SM CLR 24/22 A3007 -50 87 1100 000/00 RMK AO2 T02440222
13942KMLU MLU20190916070010709/16/19 07:00:31  5-MIN KMLU 161300Z AUTO 00000KT 8SM CLR 25/23 A3007 -50 87 1100 000/00 RMK AO2 T02500228
13942KMLU MLU20190916070510709/16/19 07:05:31  5-MIN KMLU 161305Z AUTO 00000KT 8SM CLR 25/23 A3007 -60 87 1100 000/00 RMK AO2 T02500228
13942KMLU MLU20190916071010709/16/19 07:10:31  5-MIN KMLU 161310Z AUTO 00000KT 9SM CLR 26/22 A3007 -60 81 1200 000/00 RMK AO2 T02560222
13942KMLU MLU20190916071510809/16/19 07:15:31  5-MIN KMLU 161315Z AUTO 00000KT 10SM CLR 26/22 A3007 -60 81 1200 000/00 RMK AO2 T02560222
13942KMLU MLU20190916072010809/16/19 07:20:31  5-MIN KMLU 161320Z AUTO 05003KT 10SM CLR 26/22 A3007 -60 79 1300 050/03 RMK AO2 T02610222
13942KMLU MLU20190916072510809/16/19 07:25:31  5-MIN KMLU 161325Z AUTO 05004KT 10SM CLR 27/22 A3008 -60 76 1300 050/04 RMK AO2 T02670222
13942KMLU MLU20190916073010809/16/19 07:30:31  5-MIN KMLU 161330Z AUTO 06004KT 10SM CLR 27/22 A3008 -60 76 1300 060/04 RMK AO2 T02670222
13942KMLU MLU20190916225011309/16/19 22:50:31  5-MIN KMLU 170450Z AUTO 00000KT 10SM CLR 24/22 A3000 0 87 1100 000/00 RMK AO2 SLP159 T02390217
13942KMLU MLU20190916225510609/16/19 22:55:31  5-MIN KMLU 170455Z AUTO 00000KT 10SM CLR 24/22 A3000 0 87 1100 000/00 RMK AO2 T02390217
13942KMLU MLU20190916230010609/16/19 23:00:31  5-MIN KMLU 170500Z AUTO 00000KT 10SM CLR 24/22 A3000 0 87 1100 000/00 RMK AO2 T02390217
13942KMLU MLU20190916230510709/16/19 23:05:31  5-MIN KMLU 170505Z AUTO 00000KT 10SM CLR 24/22 A3000 10 87 1100 000/00 RMK AO2 T02440222
13942KMLU MLU20190916231010709/16/19 23:10:31  5-MIN KMLU 170510Z AUTO 00000KT 10SM CLR 24/22 A3000 10 84 1100 000/00 RMK AO2 T02440217
13942KMLU MLU20190916231510709/16/19 23:15:31  5-MIN KMLU 170515Z AUTO 00000KT 10SM CLR 24/22 A3000 10 87 1100 000/00 RMK AO2 T02390217
13942KMLU MLU20190916232010709/16/19 23:20:31  5-MIN KMLU 170520Z AUTO 00000KT 10SM CLR 24/22 A3000 10 87 1100 000/00 RMK AO2 T02390217
13942KMLU MLU20190916232510709/16/19 23:25:31  5-MIN KMLU 170525Z AUTO 00000KT 10SM CLR 24/22 A3000 10 87 1100 000/00 RMK AO2 T02390217
13942KMLU MLU20190916233010709/16/19 23:30:31  5-MIN KMLU 170530Z AUTO 00000KT 10SM CLR 24/22 A3000 10 87 1100 000/00 RMK AO2 T02390217
13942KMLU MLU20190916233510709/16/19 23:35:31  5-MIN KMLU 170535Z AUTO 00000KT 10SM CLR 23/22 A3000 10 90 1000 000/00 RMK AO2 T02330217
13942KMLU MLU20190916234010709/16/19 23:40:31  5-MIN KMLU 170540Z AUTO 00000KT 10SM CLR 23/22 A3000 10 90 1000 000/00 RMK AO2 T02330217
13942KMLU MLU20190916234510709/16/19 23:45:31  5-MIN KMLU 170545Z AUTO 00000KT 10SM CLR 23/21 A3000 10 87 1000 000/00 RMK AO2 T02330211
13942KMLU MLU20190916235014209/16/19 23:50:31  5-MIN KMLU 170550Z AUTO 00000KT 10SM CLR 23/22 A3000 10 90 1000 000/00 RMK AO2 SLP157 T02330217 10333 20233 403720217 53014
13942KMLU MLU20190916235510709/16/19 23:55:31  5-MIN KMLU 170555Z AUTO 00000KT 10SM CLR 23/22 A3000 10 90 1000 000/00 RMK AO2 T02330217
13942KMLU MLU20190917000010709/17/19 00:00:31  5-MIN KMLU 170600Z AUTO 00000KT 10SM CLR 23/21 A3000 10 90 1000 000/00 RMK AO2 T02280211
13942KMLU MLU20190917000510709/17/19 00:05:31  5-MIN KMLU 170605Z AUTO 00000KT 10SM CLR 23/21 A3000 10 87 1000 000/00 RMK AO2 T02330211
13942KMLU MLU20190917001010709/17/19 00:10:31  5-MIN KMLU 170610Z AUTO 00000KT 10SM CLR 23/22 A3000 10 90 1000 000/00 RMK AO2 T02330217
13942KMLU MLU20190917001510709/17/19 00:15:31  5-MIN KMLU 170615Z AUTO 00000KT 10SM CLR 23/22 A3000 10 90 1000 000/00 RMK AO2 T02330217
13942KMLU MLU20190917002010709/17/19 00:20:31  5-MIN KMLU 170620Z AUTO 00000KT 10SM CLR 23/22 A3000 10 90 1000 000/00 RMK AO2 T02330217
13942KMLU MLU20190917002510709/17/19 00:25:31  5-MIN KMLU 170625Z AUTO 00000KT 10SM CLR 23/22 A3000 10 90 1000 000/00 RMK AO2 T02330217
13942KMLU MLU20190917003010709/17/19 00:30:31  5-MIN KMLU 170630Z AUTO 00000KT 10SM CLR 23/22 A3000 10 90 1000 000/00 RMK AO2 T02330217
13942KMLU MLU20190917003510709/17/19 00:35:31  5-MIN KMLU 170635Z AUTO 00000KT 10SM CLR 23/21 A3000 10 87 1000 000/00 RMK AO2 T02330211
13942KMLU MLU20190917004010709/17/19 00:40:31  5-MIN KMLU 170640Z AUTO 00000KT 10SM CLR 23/21 A3000 10 90 1000 000/00 RMK AO2 T02280211
13942KMLU MLU20190917004510709/17/19 00:45:31  5-MIN KMLU 170645Z AUTO 00000KT 10SM CLR 23/21 A3000 10 90 1000 000/00 RMK AO2 T02280211
13942KMLU MLU20190917005011409/17/19 00:50:31  5-MIN KMLU 170650Z AUTO 00000KT 10SM CLR 23/21 A3000 10 90 1000 000/00 RMK AO2 SLP156 T02280211
13942KMLU MLU20190917005510709/17/19 00:55:31  5-MIN KMLU 170655Z AUTO 00000KT 10SM CLR 23/21 A3000 10 90 1000 000/00 RMK AO2 T02280211
13942KMLU MLU20190917010010709/17/19 01:00:31  5-MIN KMLU 170700Z AUTO 00000KT 10SM CLR 23/22 A3000 10 90 1000 000/00 RMK AO2 T02330217
13942KMLU MLU20190917010510709/17/19 01:05:31  5-MIN KMLU 170705Z AUTO 00000KT 10SM CLR 23/22 A3000 10 93 1000 000/00 RMK AO2 T02280217
13942KMLU MLU20190917011010709/17/19 01:10:31  5-MIN KMLU 170710Z AUTO 00000KT 10SM CLR 23/22 A3000 10 93 1000 000/00 RMK AO2 T02280217
13942KMLU MLU20190917011510709/17/19 01:15:31  5-MIN KMLU 170715Z AUTO 00000KT 10SM CLR 23/22 A3000 10 93 1000 000/00 RMK AO2 T02280217
13942KMLU MLU20190917012010709/17/19 01:20:31  5-MIN KMLU 170720Z AUTO 00000KT 10SM CLR 23/22 A3000 10 90 1000 000/00 RMK AO2 T02330217
13942KMLU MLU20190917012510709/17/19 01:25:31  5-MIN KMLU 170725Z AUTO 00000KT 10SM CLR 23/22 A3000 10 93 1000 000/00 RMK AO2 T02280217
13942KMLU MLU20190917013010709/17/19 01:30:31  5-MIN KMLU 170730Z AUTO 00000KT 10SM CLR 23/21 A3000 10 90 1000 000/00 RMK AO2 T02280211
13942KMLU MLU20190917013510609/17/19 01:35:31  5-MIN KMLU 170735Z AUTO 00000KT 10SM CLR 22/21 A2999 10 93 900 000/00 RMK AO2 T02220211
13942KMLU MLU20190917014010609/17/19 01:40:31  5-MIN KMLU 170740Z AUTO 00000KT 10SM CLR 22/21 A3000 10 93 900 000/00 RMK AO2 T02220211
13942KMLU MLU20190917014510609/17/19 01:45:31  5-MIN KMLU 170745Z AUTO 00000KT 10SM CLR 22/21 A2999 10 90 900 000/00 RMK AO2 T02220206
13942KMLU MLU20190917015011309/17/19 01:50:31  5-MIN KMLU 170750Z AUTO 00000KT 10SM CLR 22/21 A2999 10 93 900 000/00 RMK AO2 SLP154 T02220211
13942KMLU MLU20190917015510609/17/19 01:55:31  5-MIN KMLU 170755Z AUTO 00000KT 10SM CLR 22/21 A2999 20 93 900 000/00 RMK AO2 T02220211
13942KMLU MLU20190917020010609/17/19 02:00:31  5-MIN KMLU 170800Z AUTO 00000KT 10SM CLR 22/21 A2999 20 93 900 000/00 RMK AO2 T02220211
13942KMLU MLU20190917020510609/17/19 02:05:31  5-MIN KMLU 170805Z AUTO 00000KT 10SM CLR 22/21 A2999 10 93 900 000/00 RMK AO2 T02220211
13942KMLU MLU20190917021010609/17/19 02:10:31  5-MIN KMLU 170810Z AUTO 00000KT 10SM CLR 22/21 A2999 10 93 900 000/00 RMK AO2 T02220211
13942KMLU MLU20190917021510609/17/19 02:15:31  5-MIN KMLU 170815Z AUTO 00000KT 10SM CLR 22/21 A2999 10 93 900 000/00 RMK AO2 T02220211
13942KMLU MLU20190917022010709/17/19 02:20:31  5-MIN KMLU 170820Z AUTO 00000KT 10SM CLR 23/21 A2999 10 90 1000 000/00 RMK AO2 T02280211
13942KMLU MLU20190917022510709/17/19 02:25:31  5-MIN KMLU 170825Z AUTO 00000KT 10SM CLR 23/21 A2999 10 90 1000 000/00 RMK AO2 T02280211
13942KMLU MLU20190917023010709/17/19 02:30:31  5-MIN KMLU 170830Z AUTO 00000KT 10SM CLR 23/22 A2999 10 93 1000 000/00 RMK AO2 T02280217
13942KMLU MLU20190917023510709/17/19 02:35:31  5-MIN KMLU 170835Z AUTO 00000KT 10SM CLR 23/21 A2999 10 90 1000 000/00 RMK AO2 T02280211
13942KMLU MLU20190917024010609/17/19 02:40:31  5-MIN KMLU 170840Z AUTO 00000KT 10SM CLR 22/21 A2999 10 90 900 000/00 RMK AO2 T02220206
13942KMLU MLU20190917024510609/17/19 02:45:31  5-MIN KMLU 170845Z AUTO 00000KT 10SM CLR 22/21 A2999 10 93 800 000/00 RMK AO2 T02170206
13942KMLU MLU20190917025011909/17/19 02:50:31  5-MIN KMLU 170850Z AUTO 00000KT 10SM CLR 22/21 A2999 10 93 800 000/00 RMK AO2 SLP155 T02170206 58001
13942KMLU MLU20190917025510609/17/19 02:55:31  5-MIN KMLU 170855Z AUTO 00000KT 10SM CLR 22/21 A2999 10 93 900 000/00 RMK AO2 T02220211
13942KMLU MLU20190917030010609/17/19 03:00:31  5-MIN KMLU 170900Z AUTO 00000KT 10SM CLR 22/21 A2999 10 93 900 000/00 RMK AO2 T02220211
13942KMLU MLU20190917030510709/17/19 03:05:31  5-MIN KMLU 170905Z AUTO 00000KT 10SM CLR 23/21 A3000 10 90 1000 000/00 RMK AO2 T02280211
13942KMLU MLU20190917031010709/17/19 03:10:31  5-MIN KMLU 170910Z AUTO 00000KT 10SM CLR 23/21 A3000 10 90 1000 000/00 RMK AO2 T02280211
13942KMLU MLU20190917031510609/17/19 03:15:31  5-MIN KMLU 170915Z AUTO 00000KT 10SM CLR 22/21 A3000 10 93 900 000/00 RMK AO2 T02220211
13942KMLU MLU20190917032010609/17/19 03:20:31  5-MIN KMLU 170920Z AUTO 00000KT 10SM CLR 22/21 A3000 10 93 900 000/00 RMK AO2 T02220211
13942KMLU MLU20190917032510609/17/19 03:25:31  5-MIN KMLU 170925Z AUTO 00000KT 10SM CLR 22/21 A3000 10 93 900 000/00 RMK AO2 T02220211
13942KMLU MLU20190917033010609/17/19 03:30:31  5-MIN KMLU 170930Z AUTO 00000KT 10SM CLR 22/21 A3000 10 93 900 000/00 RMK AO2 T02220211
13942KMLU MLU20190917033510609/17/19 03:35:31  5-MIN KMLU 170935Z AUTO 00000KT 10SM CLR 22/21 A3000 10 93 900 000/00 RMK AO2 T02220211
13942KMLU MLU20190917034010609/17/19 03:40:31  5-MIN KMLU 170940Z AUTO 00000KT 10SM CLR 22/21 A3000 10 93 900 000/00 RMK AO2 T02220211
13942KMLU MLU20190917034510609/17/19 03:45:31  5-MIN KMLU 170945Z AUTO 00000KT 10SM CLR 22/21 A3000 10 93 800 000/00 RMK AO2 T02170206
13942KMLU MLU20190917035011309/17/19 03:50:31  5-MIN KMLU 170950Z AUTO 00000KT 10SM CLR 22/21 A3000 10 90 900 000/00 RMK AO2 SLP157 T02220206
13942KMLU MLU20190917035510509/17/19 03:55:31  5-MIN KMLU 170955Z AUTO 00000KT 9SM CLR 22/21 A3000 10 90 900 000/00 RMK AO2 T02220206
13942KMLU MLU20190917040010509/17/19 04:00:31  5-MIN KMLU 171000Z AUTO 00000KT 9SM CLR 22/21 A3000 10 93 800 000/00 RMK AO2 T02170206
13942KMLU MLU20190917040510409/17/19 04:05:31  5-MIN KMLU 171005Z AUTO 00000KT 9SM CLR 22/21 A3000 0 93 800 000/00 RMK AO2 T02170206
13942KMLU MLU20190917041010509/17/19 04:10:31  5-MIN KMLU 171010Z AUTO 05003KT 10SM CLR 22/21 A3001 0 93 800 040/03 RMK AO2 T02170206
13942KMLU MLU20190917041510509/17/19 04:15:31  5-MIN KMLU 171015Z AUTO 00000KT 10SM CLR 22/21 A3001 0 93 800 000/00 RMK AO2 T02170206
13942KMLU MLU20190917042010509/17/19 04:20:31  5-MIN KMLU 171020Z AUTO 00000KT 10SM CLR 22/21 A3001 0 90 900 000/00 RMK AO2 T02220206
13942KMLU MLU20190917042510509/17/19 04:25:31  5-MIN KMLU 171025Z AUTO 00000KT 10SM CLR 22/21 A3001 0 97 800 000/00 RMK AO2 T02170211
13942KMLU MLU20190917043010509/17/19 04:30:31  5-MIN KMLU 171030Z AUTO 00000KT 10SM CLR 22/21 A3001 0 93 800 000/00 RMK AO2 T02170206
13942KMLU MLU20190917043510509/17/19 04:35:31  5-MIN KMLU 171035Z AUTO 00000KT 10SM CLR 22/21 A3001 0 93 800 000/00 RMK AO2 T02170206
13942KMLU MLU20190917044010509/17/19 04:40:31  5-MIN KMLU 171040Z AUTO 00000KT 10SM CLR 22/21 A3001 0 93 900 000/00 RMK AO2 T02220211
13942KMLU MLU20190917044510509/17/19 04:45:31  5-MIN KMLU 171045Z AUTO 00000KT 10SM CLR 22/21 A3001 0 93 900 000/00 RMK AO2 T02220211
13942KMLU MLU20190917045011209/17/19 04:50:31  5-MIN KMLU 171050Z AUTO 00000KT 10SM CLR 22/21 A3001 0 97 800 000/00 RMK AO2 SLP162 T02170211
13942KMLU MLU20190917045510409/17/19 04:55:31  5-MIN KMLU 171055Z AUTO 00000KT 9SM CLR 22/21 A3002 0 93 800 000/00 RMK AO2 T02170206
13942KMLU MLU20190917050010409/17/19 05:00:31  5-MIN KMLU 171100Z AUTO 06003KT 8SM CLR 21/21 A3002 0 97 700 060/03 RMK AO2 T02110206
13942KMLU MLU20190917050510109/17/19 05:05:31  5-MIN KMLU 171105Z 00000KT 9SM CLR 21/20 A3002 -10 93 700 000/00 RMK AO2 T02110200
13942KMLU MLU20190917051010209/17/19 05:10:31  5-MIN KMLU 171110Z 00000KT 10SM CLR 21/20 A3002 -10 93 700 000/00 RMK AO2 T02110200
13942KMLU MLU20190917051510209/17/19 05:15:31  5-MIN KMLU 171115Z 00000KT 10SM CLR 21/20 A3002 -10 93 700 000/00 RMK AO2 T02110200
13942KMLU MLU20190917052010209/17/19 05:20:31  5-MIN KMLU 171120Z 00000KT 10SM CLR 22/21 A3002 -10 93 800 000/00 RMK AO2 T02170206
13942KMLU MLU20190917052510209/17/19 05:25:31  5-MIN KMLU 171125Z 00000KT 10SM CLR 22/21 A3002 -10 93 800 000/00 RMK AO2 T02170206
13942KMLU MLU20190917053010209/17/19 05:30:31  5-MIN KMLU 171130Z 00000KT 10SM CLR 22/21 A3002 -10 93 800 000/00 RMK AO2 T02170206
13942KMLU MLU20190917053510109/17/19 05:35:31  5-MIN KMLU 171135Z 00000KT 9SM CLR 22/21 A3003 -10 93 900 000/00 RMK AO2 T02220211
13942KMLU MLU20190917054010109/17/19 05:40:31  5-MIN KMLU 171140Z 00000KT 9SM CLR 22/21 A3002 -10 93 800 000/00 RMK AO2 T02170206
13942KMLU MLU20190917054510109/17/19 05:45:31  5-MIN KMLU 171145Z 00000KT 9SM CLR 22/21 A3003 -10 93 800 000/00 RMK AO2 T02170206
13942KMLU MLU20190917055012709/17/19 05:50:31  5-MIN KMLU 171150Z 04004KT 10SM CLR 22/21 A3003 -10 93 800 040/04 RMK AO2 SLP166 T02170206 10233 20211 55002
13942KMLU MLU20190917055510109/17/19 05:55:31  5-MIN KMLU 171155Z 06004KT 9SM CLR 21/21 A3003 -10 97 700 060/04 RMK AO2 T02110206
13942KMLU MLU20190917060010109/17/19 06:00:31  5-MIN KMLU 171200Z 05003KT 9SM CLR 22/21 A3003 -20 93 800 050/03 RMK AO2 T02170206
13942KMLU MLU20190917060510109/17/19 06:05:31  5-MIN KMLU 171205Z 00000KT 9SM CLR 22/21 A3003 -20 93 800 000/00 RMK AO2 T02170206
13942KMLU MLU20190917061010209/17/19 06:10:31  5-MIN KMLU 171210Z 00000KT 10SM CLR 22/21 A3003 -20 93 800 000/00 RMK AO2 T02170206
13942KMLU MLU20190917061510209/17/19 06:15:31  5-MIN KMLU 171215Z 00000KT 10SM CLR 22/21 A3003 -20 93 800 000/00 RMK AO2 T02170206
13942KMLU MLU20190917062010209/17/19 06:20:31  5-MIN KMLU 171220Z 00000KT 10SM CLR 22/21 A3003 -20 93 900 000/00 RMK AO2 T02220211
13942KMLU MLU20190917062510209/17/19 06:25:31  5-MIN KMLU 171225Z 00000KT 10SM CLR 22/21 A3003 -20 93 900 000/00 RMK AO2 T02220211
13942KMLU MLU20190917063010209/17/19 06:30:31  5-MIN KMLU 171230Z 00000KT 10SM CLR 23/21 A3003 -20 90 900 000/00 RMK AO2 T02280211
13942KMLU MLU20190917063510209/17/19 06:35:31  5-MIN KMLU 171235Z 00000KT 10SM CLR 23/22 A3004 -20 93 900 000/00 RMK AO2 T02280217
13942KMLU MLU20190917064010309/17/19 06:40:31  5-MIN KMLU 171240Z 05003KT 10SM CLR 23/22 A3004 -20 90 1000 050/03 RMK AO2 T02330217
13942KMLU MLU20190917064510309/17/19 06:45:31  5-MIN KMLU 171245Z 05003KT 10SM CLR 23/22 A3004 -20 90 1000 050/03 RMK AO2 T02330217
13942KMLU MLU20190917065011009/17/19 06:50:31  5-MIN KMLU 171250Z 00000KT 10SM CLR 24/22 A3004 -20 90 1000 000/00 RMK AO2 SLP170 T02390222
13942KMLU MLU20190917065510309/17/19 06:55:31  5-MIN KMLU 171255Z 05003KT 10SM CLR 24/22 A3004 -20 87 1100 050/03 RMK AO2 T02440222
13942KMLU MLU20190917070010309/17/19 07:00:31  5-MIN KMLU 171300Z 07003KT 10SM CLR 24/22 A3004 -30 87 1100 070/03 RMK AO2 T02440222
13942KMLU MLU20190917070510309/17/19 07:05:31  5-MIN KMLU 171305Z 08003KT 10SM CLR 25/22 A3004 -30 84 1200 080/03 RMK AO2 T02500222
13942KMLU MLU20190917071010309/17/19 07:10:31  5-MIN KMLU 171310Z 08003KT 10SM CLR 25/22 A3004 -30 84 1200 080/03 RMK AO2 T02500222
13942KMLU MLU20190917071510309/17/19 07:15:31  5-MIN KMLU 171315Z 07004KT 10SM CLR 26/22 A3004 -30 81 1200 070/04 RMK AO2 T02560222
13942KMLU MLU20190917072010309/17/19 07:20:31  5-MIN KMLU 171320Z 06004KT 10SM CLR 26/22 A3004 -30 81 1200 060/04 RMK AO2 T02560222
13942KMLU MLU20190917072510309/17/19 07:25:31  5-MIN KMLU 171325Z 07003KT 10SM CLR 26/22 A3004 -30 81 1200 070/03 RMK AO2 T02560222
13942KMLU MLU20190917073010309/17/19 07:30:31  5-MIN KMLU 171330Z 07003KT 10SM CLR 26/22 A3004 -30 79 1300 070/03 RMK AO2 T02610222
13942KMLU MLU20190917073510309/17/19 07:35:31  5-MIN KMLU 171335Z 07004KT 10SM CLR 26/22 A3004 -30 79 1300 060/04 RMK AO2 T02610222
13942KMLU MLU20190917074010309/17/19 07:40:31  5-MIN KMLU 171340Z 07004KT 10SM CLR 27/22 A3004 -30 76 1300 070/04 RMK AO2 T02670222
13942KMLU MLU20190917074510309/17/19 07:45:31  5-MIN KMLU 171345Z 00000KT 10SM CLR 27/23 A3004 -30 79 1300 000/00 RMK AO2 T02670228
13942KMLU MLU20190917075011009/17/19 07:50:31  5-MIN KMLU 171350Z 00000KT 10SM CLR 27/23 A3005 -30 76 1400 000/00 RMK AO2 SLP173 T02720228
13942KMLU MLU20190917075510309/17/19 07:55:31  5-MIN KMLU 171355Z 04003KT 10SM CLR 28/23 A3005 -30 74 1500 040/03 RMK AO2 T02780228
13942KMLU MLU20190917080010309/17/19 08:00:31  5-MIN KMLU 171400Z 00000KT 10SM CLR 28/23 A3005 -30 74 1500 000/00 RMK AO2 T02780228
13942KMLU MLU20190917080510309/17/19 08:05:31  5-MIN KMLU 171405Z 07004KT 10SM CLR 28/23 A3005 -30 74 1500 070/04 RMK AO2 T02780228
13942KMLU MLU20190917081010309/17/19 08:10:31  5-MIN KMLU 171410Z 06004KT 10SM CLR 28/23 A3005 -30 71 1500 050/04 RMK AO2 T02830228
13942KMLU MLU20190917081510309/17/19 08:15:31  5-MIN KMLU 171415Z 06004KT 10SM CLR 28/23 A3005 -30 71 1500 060/04 RMK AO2 T02830228
13942KMLU MLU20190917082010309/17/19 08:20:31  5-MIN KMLU 171420Z 07004KT 10SM CLR 29/23 A3005 -30 69 1600 070/04 RMK AO2 T02890228
13942KMLU MLU20190917082510309/17/19 08:25:31  5-MIN KMLU 171425Z 07005KT 10SM CLR 29/23 A3005 -30 69 1600 070/05 RMK AO2 T02890228
13942KMLU MLU20190917083010309/17/19 08:30:31  5-MIN KMLU 171430Z 07003KT 10SM CLR 29/23 A3005 -30 69 1600 070/03 RMK AO2 T02890228
13942KMLU MLU20190917083510309/17/19 08:35:31  5-MIN KMLU 171435Z 08003KT 10SM CLR 29/23 A3005 -30 69 1700 080/03 RMK AO2 T02940233
13942KMLU MLU20190917084010309/17/19 08:40:31  5-MIN KMLU 171440Z 14003KT 10SM CLR 29/23 A3005 -30 67 1700 140/03 RMK AO2 T02940228
13942KMLU MLU20190917084510309/17/19 08:45:31  5-MIN KMLU 171445Z 06004KT 10SM CLR 30/23 A3005 -40 67 1700 060/04 RMK AO2 T03000233
13942KMLU MLU20190917085011609/17/19 08:50:31  5-MIN KMLU 171450Z 09004KT 10SM CLR 30/23 A3005 -40 67 1700 090/04 RMK AO2 SLP175 T03000233 53012
13942KMLU MLU20190917085510309/17/19 08:55:31  5-MIN KMLU 171455Z 08004KT 10SM CLR 30/23 A3005 -40 67 1700 080/04 RMK AO2 T03000233
13942KMLU MLU20190917090010309/17/19 09:00:31  5-MIN KMLU 171500Z VRB03KT 10SM CLR 30/23 A3005 -40 67 1700 VRB/03 RMK AO2 T03000233
13942KMLU MLU20190917090510309/17/19 09:05:31  5-MIN KMLU 171505Z VRB03KT 10SM CLR 31/23 A3005 -40 65 1800 VRB/03 RMK AO2 T03060233
13942KMLU MLU20190917091010309/17/19 09:10:31  5-MIN KMLU 171510Z 09003KT 10SM CLR 31/23 A3005 -40 65 1800 090/03 RMK AO2 T03060233
13942KMLU MLU20190917091510309/17/19 09:15:31  5-MIN KMLU 171515Z 00000KT 10SM CLR 31/23 A3006 -40 62 1800 000/00 RMK AO2 T03060228
13942KMLU MLU20190917092010309/17/19 09:20:31  5-MIN KMLU 171520Z VRB04KT 10SM CLR 31/23 A3006 -40 65 1800 VRB/04 RMK AO2 T03060233
13942KMLU MLU20190917092510309/17/19 09:25:31  5-MIN KMLU 171525Z 08003KT 10SM CLR 31/23 A3006 -40 62 1800 080/03 RMK AO2 T03060228
13942KMLU MLU20190917093010309/17/19 09:30:31  5-MIN KMLU 171530Z VRB04KT 10SM CLR 31/23 A3006 -40 60 1800 VRB/04 RMK AO2 T03110228
13942KMLU MLU20190917093510309/17/19 09:35:31  5-MIN KMLU 171535Z 00000KT 10SM CLR 31/23 A3006 -40 62 1800 000/00 RMK AO2 T03060228
13942KMLU MLU20190917094010309/17/19 09:40:31  5-MIN KMLU 171540Z 16003KT 10SM CLR 31/23 A3006 -40 60 1800 160/03 RMK AO2 T03110228
13942KMLU MLU20190917094510309/17/19 09:45:31  5-MIN KMLU 171545Z VRB03KT 10SM CLR 32/23 A3006 -40 58 1900 VRB/03 RMK AO2 T03170228
13942KMLU MLU20190917095011009/17/19 09:50:31  5-MIN KMLU 171550Z 09004KT 10SM CLR 32/22 A3006 -40 56 1900 090/04 RMK AO2 SLP176 T03170222
13942KMLU MLU20190917095510309/17/19 09:55:31  5-MIN KMLU 171555Z VRB03KT 10SM CLR 32/22 A3006 -40 56 1900 VRB/03 RMK AO2 T03170222
13942KMLU MLU20190917100010309/17/19 10:00:31  5-MIN KMLU 171600Z 09004KT 10SM CLR 32/22 A3006 -40 55 2000 090/04 RMK AO2 T03220222
13942KMLU MLU20190917100510309/17/19 10:05:31  5-MIN KMLU 171605Z VRB03KT 10SM CLR 32/22 A3005 -40 55 2000 VRB/03 RMK AO2 T03220222
13942KMLU MLU20190917101010309/17/19 10:10:31  5-MIN KMLU 171610Z VRB05KT 10SM CLR 33/22 A3005 -40 53 2000 VRB/05 RMK AO2 T03280222
13942KMLU MLU20190917101510309/17/19 10:15:31  5-MIN KMLU 171615Z 08004KT 10SM CLR 33/22 A3005 -40 53 2000 080/04 RMK AO2 T03280222
13942KMLU MLU20190917102010309/17/19 10:20:31  5-MIN KMLU 171620Z 08007KT 10SM CLR 33/22 A3005 -30 53 2000 080/07 RMK AO2 T03280222
13942KMLU MLU20190917102510309/17/19 10:25:31  5-MIN KMLU 171625Z 09004KT 10SM CLR 33/22 A3005 -30 51 2000 090/04 RMK AO2 T03280217
13942KMLU MLU20190917103010309/17/19 10:30:31  5-MIN KMLU 171630Z VRB04KT 10SM CLR 33/22 A3005 -30 51 2100 VRB/04 RMK AO2 T03330222
13942KMLU MLU20190917103509309/17/19 10:35:31  5-MIN KMLU 171635Z 10SM CLR 33/22 A3005 -30 53 2000 M /M RMK AO2 T03280222
13942KMLU MLU20190917104010309/17/19 10:40:31  5-MIN KMLU 171640Z VRB04KT 10SM CLR 33/23 A3005 -30 53 2100 VRB/04 RMK AO2 T03330228
13942KMLU MLU20190917104510309/17/19 10:45:31  5-MIN KMLU 171645Z 09006KT 10SM CLR 34/22 A3004 -30 50 2200 090/06 RMK AO2 T03390222
13942KMLU MLU20190917105011009/17/19 10:50:31  5-MIN KMLU 171650Z 13004KT 10SM CLR 33/22 A3004 -20 50 2100 120/04 RMK AO2 SLP170 T03330217
13942KMLU MLU20190917105511909/17/19 10:55:31  5-MIN KMLU 171655Z 06007KT 040V100 10SM CLR 34/22 A3004 -20 50 2200 060/07 040V100 RMK AO2 T03390222
13942KMLU MLU20190917110010309/17/19 11:00:31  5-MIN KMLU 171700Z VRB06KT 10SM CLR 34/22 A3004 -20 50 2200 VRB/06 RMK AO2 T03390222
13942KMLU MLU20190917110510309/17/19 11:05:31  5-MIN KMLU 171705Z 11006KT 10SM CLR 34/22 A3003 -20 48 2200 110/06 RMK AO2 T03390217
13942KMLU MLU20190917111010309/17/19 11:10:31  5-MIN KMLU 171710Z VRB04KT 10SM CLR 34/22 A3003 -20 48 2200 VRB/04 RMK AO2 T03390217
13942KMLU MLU20190917111510309/17/19 11:15:31  5-MIN KMLU 171715Z 14004KT 10SM CLR 34/22 A3003 -20 50 2200 140/04 RMK AO2 T03390222
13942KMLU MLU20190917112010309/17/19 11:20:31  5-MIN KMLU 171720Z VRB06KT 10SM CLR 34/22 A3003 -10 50 2200 VRB/06 RMK AO2 T03390222
13942KMLU MLU20190917112510609/17/19 11:25:31  5-MIN KMLU 171725Z 08004KT 10SM FEW049 33/22 A3003 -10 50 2100 080/04 RMK AO2 T03330217
13942KMLU MLU20190917113011309/17/19 11:30:31  5-MIN KMLU 171730Z 04005KT 10SM SCT049 SCT060 34/22 A3003 -10 48 2200 040/05 RMK AO2 T03390217
13942KMLU MLU20190917113510609/17/19 11:35:31  5-MIN KMLU 171735Z VRB05KT 10SM SCT049 34/22 A3002 -10 48 2200 VRB/05 RMK AO2 T03390217
13942KMLU MLU20190917114009609/17/19 11:40:31  5-MIN KMLU 171740Z 10SM SCT050 34/22 A3002 -10 46 2200 M /M RMK AO2 T03440217
13942KMLU MLU20190917114510609/17/19 11:45:31  5-MIN KMLU 171745Z 07006KT 10SM SCT050 35/21 A3002 -10 43 2300 070/06 RMK AO2 T03500211
13942KMLU MLU20190917115013109/17/19 11:50:31  5-MIN KMLU 171750Z VRB04KT 10SM BKN050 35/22 A3002 -10 45 2300 VRB/04 RMK AO2 SLP164 T03500217 10350 20211 51008
13942KMLU MLU20190917115510409/17/19 11:55:31  5-MIN KMLU 171755Z 08006KT 10SM FEW050 36/21 A3001 0 42 2400 080/06 RMK AO2 T03560211
13942KMLU MLU20190917120010409/17/19 12:00:31  5-MIN KMLU 171800Z VRB06KT 10SM FEW055 36/22 A3002 0 44 2400 VRB/06 RMK AO2 T03560217
13942KMLU MLU20190917120510409/17/19 12:05:31  5-MIN KMLU 171805Z VRB04KT 10SM FEW055 36/21 A3001 0 42 2400 VRB/04 RMK AO2 T03560211
13942KMLU MLU20190917121010409/17/19 12:10:31  5-MIN KMLU 171810Z 14005KT 10SM SCT060 34/21 A3001 0 43 2200 140/05 RMK AO2 T03440206
13942KMLU MLU20190917121510409/17/19 12:15:31  5-MIN KMLU 171815Z VRB05KT 10SM SCT060 35/21 A3001 0 43 2300 VRB/05 RMK AO2 T03500211
13942KMLU MLU20190917122010409/17/19 12:20:31  5-MIN KMLU 171820Z VRB05KT 10SM FEW060 35/21 A3001 0 43 2300 VRB/05 RMK AO2 T03500211
13942KMLU MLU20190917122510409/17/19 12:25:31  5-MIN KMLU 171825Z VRB03KT 10SM FEW060 36/21 A3000 0 41 2400 VRB/03 RMK AO2 T03560206
13942KMLU MLU20190917123010509/17/19 12:30:31  5-MIN KMLU 171830Z 16009KT 10SM FEW060 36/20 A3000 10 39 2400 160/09 RMK AO2 T03560200
13942KMLU MLU20190917123510509/17/19 12:35:31  5-MIN KMLU 171835Z 14007KT 10SM FEW060 36/19 A3000 10 38 2400 140/07 RMK AO2 T03560194
13942KMLU MLU20190917124010209/17/19 12:40:31  5-MIN KMLU 171840Z VRB06KT 10SM CLR 36/19 A3000 10 37 2400 VRB/06 RMK AO2 T03610194
13942KMLU MLU20190917124510509/17/19 12:45:31  5-MIN KMLU 171845Z VRB05KT 10SM FEW070 36/20 A3000 10 38 2400 VRB/05 RMK AO2 T03610200
13942KMLU MLU20190917125011209/17/19 12:50:31  5-MIN KMLU 171850Z 17007KT 10SM SCT070 36/21 A3000 10 39 2400 170/07 RMK AO2 SLP156 T03610206
13942KMLU MLU20190917125510509/17/19 12:55:31  5-MIN KMLU 171855Z 12007KT 10SM FEW070 36/20 A3000 10 39 2400 120/07 RMK AO2 T03560200
13942KMLU MLU20190917130010509/17/19 13:00:31  5-MIN KMLU 171900Z 15004KT 10SM BKN060 35/19 A2999 10 39 2300 140/04 RMK AO2 T03500194
13942KMLU MLU20190917130509509/17/19 13:05:31  5-MIN KMLU 171905Z 10SM BKN060 36/19 A2999 20 37 2500 M /M RMK AO2 T03610194
13942KMLU MLU20190917131010509/17/19 13:10:31  5-MIN KMLU 171910Z 16007KT 10SM BKN060 35/19 A2999 20 38 2300 160/07 RMK AO2 T03500189
13942KMLU MLU20190917131510509/17/19 13:15:31  5-MIN KMLU 171915Z VRB06KT 10SM BKN060 36/19 A2999 20 38 2400 VRB/06 RMK AO2 T03560194
13942KMLU MLU20190917132012109/17/19 13:20:31  5-MIN KMLU 171920Z 13009KT 070V180 10SM BKN060 36/19 A2998 30 37 2500 130/09 070V180 RMK AO2 T03610194
13942KMLU MLU20190917132510509/17/19 13:25:31  5-MIN KMLU 171925Z 16007KT 10SM BKN060 36/19 A2998 20 37 2500 160/07 RMK AO2 T03610194
13942KMLU MLU20190917133010509/17/19 13:30:31  5-MIN KMLU 171930Z 12007KT 10SM BKN060 36/19 A2998 30 37 2400 120/07 RMK AO2 T03560189
13942KMLU MLU20190917133510509/17/19 13:35:31  5-MIN KMLU 171935Z 14006KT 10SM BKN060 35/18 A2998 30 36 2300 140/06 RMK AO2 T03500183
13942KMLU MLU20190917134010509/17/19 13:40:31  5-MIN KMLU 171940Z 12008KT 10SM BKN060 35/18 A2997 30 36 2400 110/08 RMK AO2 T03500183
13942KMLU MLU20190917134510509/17/19 13:45:31  5-MIN KMLU 171945Z 15004KT 10SM BKN060 36/19 A2997 30 37 2400 150/04 RMK AO2 T03560189
13942KMLU MLU20190917135011209/17/19 13:50:31  5-MIN KMLU 171950Z 17003KT 10SM BKN060 36/19 A2997 40 37 2500 170/03 RMK AO2 SLP146 T03610194
13942KMLU MLU20190917135509509/17/19 13:55:31  5-MIN KMLU 171955Z 10SM SCT070 36/19 A2997 40 35 2500 M /M RMK AO2 T03610189
13942KMLU MLU20190917140010509/17/19 14:00:31  5-MIN KMLU 172000Z VRB06KT 10SM FEW075 37/19 A2996 40 34 2500 VRB/06 RMK AO2 T03670189
13942KMLU MLU20190917140511009/17/19 14:05:31  5-MIN KMLU 172005Z AUTO 15006KT 10SM FEW070 37/19 A2996 40 36 2500 150/06 RMK AO2 T03670194
13942KMLU MLU20190917141011009/17/19 14:10:31  5-MIN KMLU 172010Z AUTO 18008KT 10SM FEW070 36/19 A2996 40 37 2400 180/08 RMK AO2 T03560189
13942KMLU MLU20190917141511009/17/19 14:15:31  5-MIN KMLU 172015Z AUTO VRB04KT 10SM FEW070 36/18 A2996 50 34 2500 VRB/04 RMK AO2 T03610183
13942KMLU MLU20190917142012309/17/19 14:20:31  5-MIN KMLU 172020Z AUTO 12008KT 090V150 10SM CLR 37/18 A2995 50 33 2600 120/08 090V150 RMK AO2 T03670183
13942KMLU MLU20190917142511009/17/19 14:25:31  5-MIN KMLU 172025Z AUTO 15007KT 10SM FEW085 35/18 A2995 50 35 2400 140/07 RMK AO2 T03500178
13942KMLU MLU20190917143012609/17/19 14:30:31  5-MIN KMLU 172030Z AUTO 16007KT 130V220 10SM FEW085 36/18 A2995 50 34 2500 160/07 130V220 RMK AO2 T03610183
13942KMLU MLU20190917143510709/17/19 14:35:31  5-MIN KMLU 172035Z AUTO 11006KT 10SM CLR 36/18 A2995 60 34 2500 110/06 RMK AO2 T03610183
13942KMLU MLU20190917144010709/17/19 14:40:31  5-MIN KMLU 172040Z AUTO VRB04KT 10SM CLR 37/19 A2994 60 34 2600 VRB/04 RMK AO2 T03670189
13942KMLU MLU20190917144511009/17/19 14:45:31  5-MIN KMLU 172045Z AUTO VRB04KT 10SM SCT080 37/19 A2994 60 33 2600 VRB/04 RMK AO2 T03720189
13942KMLU MLU20190917145013009/17/19 14:50:31  5-MIN KMLU 172050Z AUTO VRB06KT 10SM SCT080 BKN095 37/19 A2994 60 33 2600 VRB/06 RMK AO2 SLP137 T03720189 58012
13942KMLU MLU20190917145510509/17/19 14:55:31  5-MIN KMLU 172055Z VRB06KT 10SM BKN070 36/18 A2994 60 34 2500 VRB/06 RMK AO2 T03610183
13942KMLU MLU20190917150010509/17/19 15:00:31  5-MIN KMLU 172100Z 09006KT 10SM BKN070 36/19 A2994 60 35 2500 090/06 RMK AO2 T03610189
13942KMLU MLU20190917150510509/17/19 15:05:31  5-MIN KMLU 172105Z 09007KT 10SM BKN070 36/19 A2994 60 35 2500 090/07 RMK AO2 T03610189
13942KMLU MLU20190917151010509/17/19 15:10:31  5-MIN KMLU 172110Z VRB05KT 10SM BKN070 36/18 A2994 70 35 2500 VRB/05 RMK AO2 T03560183
13942KMLU MLU20190917151510509/17/19 15:15:31  5-MIN KMLU 172115Z 09007KT 10SM BKN070 36/19 A2994 70 35 2500 090/07 RMK AO2 T03610189
13942KMLU MLU20190917152010509/17/19 15:20:31  5-MIN KMLU 172120Z 11004KT 10SM BKN070 35/19 A2993 70 38 2400 110/04 RMK AO2 T03500189
13942KMLU MLU20190917152510509/17/19 15:25:31  5-MIN KMLU 172125Z VRB03KT 10SM BKN070 36/18 A2993 70 35 2500 VRB/03 RMK AO2 T03560183
13942KMLU MLU20190917153010509/17/19 15:30:31  5-MIN KMLU 172130Z 09006KT 10SM BKN070 35/18 A2993 70 36 2400 090/06 RMK AO2 T03500183
13942KMLU MLU20190917153510509/17/19 15:35:31  5-MIN KMLU 172135Z 10004KT 10SM BKN070 35/18 A2993 70 36 2400 100/04 RMK AO2 T03500183
13942KMLU MLU20190917154010509/17/19 15:40:31  5-MIN KMLU 172140Z 09007KT 10SM BKN070 36/18 A2993 70 35 2500 090/07 RMK AO2 T03560183
13942KMLU MLU20190917154510509/17/19 15:45:31  5-MIN KMLU 172145Z 10004KT 10SM BKN070 35/18 A2993 70 36 2400 100/04 RMK AO2 T03500183
13942KMLU MLU20190917155011209/17/19 15:50:31  5-MIN KMLU 172150Z 09003KT 10SM BKN070 36/18 A2993 70 35 2500 090/03 RMK AO2 SLP133 T03560183
13942KMLU MLU20190917155510209/17/19 15:55:31  5-MIN KMLU 172155Z VRB03KT 10SM CLR 35/18 A2993 80 36 2400 VRB/03 RMK AO2 T03500183
13942KMLU MLU20190917160010209/17/19 16:00:31  5-MIN KMLU 172200Z 14005KT 10SM CLR 35/18 A2993 70 36 2400 140/05 RMK AO2 T03500183
13942KMLU MLU20190917160510209/17/19 16:05:31  5-MIN KMLU 172205Z 10007KT 10SM CLR 36/19 A2993 70 37 2500 100/07 RMK AO2 T03560189
13942KMLU MLU20190917161010209/17/19 16:10:31  5-MIN KMLU 172210Z VRB06KT 10SM CLR 36/18 A2993 70 34 2500 VRB/06 RMK AO2 T03560178
13942KMLU MLU20190917161510209/17/19 16:15:31  5-MIN KMLU 172215Z VRB04KT 10SM CLR 35/18 A2993 70 36 2400 VRB/04 RMK AO2 T03500183
13942KMLU MLU20190917162010209/17/19 16:20:31  5-MIN KMLU 172220Z 10004KT 10SM CLR 35/18 A2993 70 36 2400 100/04 RMK AO2 T03500183
13942KMLU MLU20190917162510209/17/19 16:25:31  5-MIN KMLU 172225Z 13004KT 10SM CLR 34/18 A2993 70 38 2300 130/04 RMK AO2 T03440183
13942KMLU MLU20190917163010209/17/19 16:30:31  5-MIN KMLU 172230Z 12004KT 10SM CLR 34/18 A2993 70 38 2300 120/04 RMK AO2 T03440183
13942KMLU MLU20190917163510209/17/19 16:35:31  5-MIN KMLU 172235Z VRB03KT 10SM CLR 34/18 A2993 70 38 2300 VRB/03 RMK AO2 T03440183
13942KMLU MLU20190917164010209/17/19 16:40:31  5-MIN KMLU 172240Z VRB03KT 10SM CLR 34/19 A2993 70 39 2300 VRB/03 RMK AO2 T03440189
13942KMLU MLU20190917164510209/17/19 16:45:31  5-MIN KMLU 172245Z 00000KT 10SM CLR 34/19 A2993 70 39 2300 000/00 RMK AO2 T03440189
13942KMLU MLU20190917165010909/17/19 16:50:31  5-MIN KMLU 172250Z 00000KT 10SM CLR 34/19 A2993 70 40 2300 000/00 RMK AO2 SLP133 T03390189
13942KMLU MLU20190917165510209/17/19 16:55:31  5-MIN KMLU 172255Z 13003KT 10SM CLR 34/19 A2993 70 39 2300 130/03 RMK AO2 T03440189
13942KMLU MLU20190917170010509/17/19 17:00:31  5-MIN KMLU 172300Z 11003KT 10SM FEW080 34/19 A2993 80 40 2300 110/03 RMK AO2 T03440194
13942KMLU MLU20190917170511209/17/19 17:05:31  5-MIN KMLU 172305Z 00000KT 10SM FEW075 SCT100 34/19 A2993 70 40 2300 000/00 RMK AO2 T03440194
13942KMLU MLU20190917171011209/17/19 17:10:31  5-MIN KMLU 172310Z VRB03KT 10SM FEW075 SCT100 34/19 A2993 70 40 2300 VRB/03 RMK AO2 T03390189
13942KMLU MLU20190917171511209/17/19 17:15:31  5-MIN KMLU 172315Z VRB03KT 10SM FEW075 SCT100 34/19 A2993 70 40 2300 VRB/03 RMK AO2 T03390189
13942KMLU MLU20190917172011209/17/19 17:20:31  5-MIN KMLU 172320Z 00000KT 10SM FEW075 FEW100 33/19 A2993 70 43 2200 000/00 RMK AO2 T03330194
13942KMLU MLU20190917172511209/17/19 17:25:31  5-MIN KMLU 172325Z VRB03KT 10SM FEW075 SCT100 33/19 A2993 70 43 2200 VRB/03 RMK AO2 T03330194
13942KMLU MLU20190917173011209/17/19 17:30:31  5-MIN KMLU 172330Z 00000KT 10SM SCT075 SCT100 33/19 A2993 70 43 2200 000/00 RMK AO2 T03330194
13942KMLU MLU20190917173510509/17/19 17:35:31  5-MIN KMLU 172335Z VRB03KT 10SM SCT075 33/19 A2993 70 44 2200 VRB/03 RMK AO2 T03280194
13942KMLU MLU20190917174010509/17/19 17:40:31  5-MIN KMLU 172340Z 12003KT 10SM FEW075 33/19 A2993 70 44 2200 120/03 RMK AO2 T03280194
13942KMLU MLU20190917174510509/17/19 17:45:31  5-MIN KMLU 172345Z VRB03KT 10SM FEW075 33/19 A2993 80 44 2200 VRB/03 RMK AO2 T03280194
13942KMLU MLU20190917175013009/17/19 17:50:31  5-MIN KMLU 172350Z VRB03KT 10SM FEW075 32/20 A2993 80 48 2100 VRB/03 RMK AO2 SLP132 T03220200 10372 20322 58025
13942KMLU MLU20190917175510509/17/19 17:55:31  5-MIN KMLU 172355Z 00000KT 10SM FEW075 32/20 A2993 80 48 2100 000/00 RMK AO2 T03220200
13942KMLU MLU20190917180010209/17/19 18:00:31  5-MIN KMLU 180000Z 14003KT 10SM CLR 32/20 A2993 80 48 2100 140/03 RMK AO2 T03220200
13942KMLU MLU20190917180510209/17/19 18:05:31  5-MIN KMLU 180005Z 00000KT 10SM CLR 32/19 A2993 70 46 2100 000/00 RMK AO2 T03220194
13942KMLU MLU20190917181010209/17/19 18:10:31  5-MIN KMLU 180010Z 13003KT 10SM CLR 32/20 A2993 70 49 2000 130/03 RMK AO2 T03170200
13942KMLU MLU20190917181510209/17/19 18:15:31  5-MIN KMLU 180015Z 00000KT 10SM CLR 31/20 A2993 70 51 2000 000/00 RMK AO2 T03110200
13942KMLU MLU20190917182010209/17/19 18:20:31  5-MIN KMLU 180020Z 00000KT 10SM CLR 31/21 A2993 70 54 1900 000/00 RMK AO2 T03060206
13942KMLU MLU20190917182510209/17/19 18:25:31  5-MIN KMLU 180025Z 00000KT 10SM CLR 30/21 A2993 70 58 1800 000/00 RMK AO2 T03000211
13942KMLU MLU20190917183010209/17/19 18:30:31  5-MIN KMLU 180030Z 21004KT 10SM CLR 29/21 A2993 70 62 1700 200/04 RMK AO2 T02890211
13942KMLU MLU20190917183510209/17/19 18:35:31  5-MIN KMLU 180035Z 17003KT 10SM CLR 29/21 A2993 70 62 1700 170/03 RMK AO2 T02890211
13942KMLU MLU20190917184010209/17/19 18:40:31  5-MIN KMLU 180040Z 00000KT 10SM CLR 29/21 A2994 70 58 1800 000/00 RMK AO2 T02940206
13942KMLU MLU20190917184510209/17/19 18:45:31  5-MIN KMLU 180045Z 00000KT 10SM CLR 29/22 A2994 70 64 1700 000/00 RMK AO2 T02890217
13942KMLU MLU20190917185010909/17/19 18:50:31  5-MIN KMLU 180050Z 15003KT 10SM CLR 28/22 A2994 60 69 1700 150/03 RMK AO2 SLP136 T02830222
13942KMLU MLU20190917185510209/17/19 18:55:31  5-MIN KMLU 180055Z 15003KT 10SM CLR 29/22 A2994 60 64 1700 150/03 RMK AO2 T02890217
13942KMLU MLU20190917190010209/17/19 19:00:31  5-MIN KMLU 180100Z 16003KT 10SM CLR 28/22 A2994 60 69 1700 160/03 RMK AO2 T02830222
13942KMLU MLU20190917190510209/17/19 19:05:31  5-MIN KMLU 180105Z 16003KT 10SM CLR 28/22 A2994 60 71 1600 160/03 RMK AO2 T02780222
13942KMLU MLU20190917191010209/17/19 19:10:31  5-MIN KMLU 180110Z 17003KT 10SM CLR 28/22 A2994 60 71 1600 160/03 RMK AO2 T02780222
13942KMLU MLU20190917191510209/17/19 19:15:31  5-MIN KMLU 180115Z 00000KT 10SM CLR 28/22 A2995 60 71 1600 000/00 RMK AO2 T02780222
13942KMLU MLU20190917192010209/17/19 19:20:31  5-MIN KMLU 180120Z 15003KT 10SM CLR 28/22 A2995 60 71 1600 150/03 RMK AO2 T02780222
13942KMLU MLU20190917192510209/17/19 19:25:31  5-MIN KMLU 180125Z 00000KT 10SM CLR 27/22 A2995 50 71 1500 000/00 RMK AO2 T02720217
13942KMLU MLU20190917193010209/17/19 19:30:31  5-MIN KMLU 180130Z 00000KT 10SM CLR 27/22 A2995 50 71 1500 000/00 RMK AO2 T02720217
13942KMLU MLU20190917193510209/17/19 19:35:31  5-MIN KMLU 180135Z 15003KT 10SM CLR 27/22 A2995 50 71 1500 140/03 RMK AO2 T02720217
13942KMLU MLU20190917194010209/17/19 19:40:31  5-MIN KMLU 180140Z 15003KT 10SM CLR 27/21 A2996 50 69 1500 150/03 RMK AO2 T02720211
13942KMLU MLU20190917194510209/17/19 19:45:31  5-MIN KMLU 180145Z 17003KT 10SM CLR 27/22 A2996 50 71 1500 170/03 RMK AO2 T02720217
13942KMLU MLU20190917195010909/17/19 19:50:31  5-MIN KMLU 180150Z 18003KT 10SM CLR 27/22 A2996 40 73 1400 180/03 RMK AO2 SLP143 T02670217
13942KMLU MLU20190917195510209/17/19 19:55:31  5-MIN KMLU 180155Z 17004KT 10SM CLR 27/21 A2996 40 71 1400 170/04 RMK AO2 T02670211
13942KMLU MLU20190917200010209/17/19 20:00:31  5-MIN KMLU 180200Z 17005KT 10SM CLR 28/21 A2997 40 62 1600 170/05 RMK AO2 T02830206
13942KMLU MLU20190917200510209/17/19 20:05:31  5-MIN KMLU 180205Z 18005KT 10SM CLR 29/20 A2997 40 58 1700 180/05 RMK AO2 T02890200
13942KMLU MLU20190917201010209/17/19 20:10:31  5-MIN KMLU 180210Z 17006KT 10SM CLR 29/20 A2997 30 58 1700 170/06 RMK AO2 T02890200
13942KMLU MLU20190917201510209/17/19 20:15:31  5-MIN KMLU 180215Z 18004KT 10SM CLR 28/20 A2997 30 60 1600 180/04 RMK AO2 T02830200
13942KMLU MLU20190917202010209/17/19 20:20:31  5-MIN KMLU 180220Z 18003KT 10SM CLR 28/20 A2997 30 60 1600 180/03 RMK AO2 T02830200
13942KMLU MLU20190917202510209/17/19 20:25:31  5-MIN KMLU 180225Z 18003KT 10SM CLR 28/20 A2998 30 60 1600 180/03 RMK AO2 T02830200
13942KMLU MLU20190917203010209/17/19 20:30:31  5-MIN KMLU 180230Z 19004KT 10SM CLR 28/21 A2998 30 64 1500 180/04 RMK AO2 T02780206
13942KMLU MLU20190917203510209/17/19 20:35:31  5-MIN KMLU 180235Z 18004KT 10SM CLR 28/21 A2998 30 64 1500 180/04 RMK AO2 T02780206
13942KMLU MLU20190917204010209/17/19 20:40:31  5-MIN KMLU 180240Z 19004KT 10SM CLR 28/21 A2998 30 64 1500 190/04 RMK AO2 T02780206
13942KMLU MLU20190917204510209/17/19 20:45:31  5-MIN KMLU 180245Z 19003KT 10SM CLR 27/21 A2997 30 69 1500 190/03 RMK AO2 T02720211
13942KMLU MLU20190917205011509/17/19 20:50:31  5-MIN KMLU 180250Z 00000KT 10SM CLR 28/21 A2997 30 66 1600 000/00 RMK AO2 SLP148 T02780211 56006
13942KMLU MLU20190917205510709/17/19 20:55:31  5-MIN KMLU 180255Z AUTO 00000KT 10SM CLR 27/21 A2997 30 69 1500 000/00 RMK AO2 T02720211
13942KMLU MLU20190917210010709/17/19 21:00:31  5-MIN KMLU 180300Z AUTO 17004KT 10SM CLR 27/21 A2997 30 71 1400 170/04 RMK AO2 T02670211
13942KMLU MLU20190917210510709/17/19 21:05:31  5-MIN KMLU 180305Z AUTO 17003KT 10SM CLR 27/21 A2997 30 69 1500 170/03 RMK AO2 T02720211
13942KMLU MLU20190917211010709/17/19 21:10:31  5-MIN KMLU 180310Z AUTO 17003KT 10SM CLR 27/21 A2997 30 69 1500 170/03 RMK AO2 T02720211
13942KMLU MLU20190917211510709/17/19 21:15:31  5-MIN KMLU 180315Z AUTO 00000KT 10SM CLR 27/21 A2997 30 71 1400 000/00 RMK AO2 T02670211
13942KMLU MLU20190917212010709/17/19 21:20:31  5-MIN KMLU 180320Z AUTO 00000KT 10SM CLR 26/22 A2997 30 76 1400 000/00 RMK AO2 T02610217
13942KMLU MLU20190917212510709/17/19 21:25:31  5-MIN KMLU 180325Z AUTO 18003KT 10SM CLR 26/22 A2997 30 76 1400 170/03 RMK AO2 T02610217
13942KMLU MLU20190917213010709/17/19 21:30:31  5-MIN KMLU 180330Z AUTO 18003KT 10SM CLR 26/21 A2998 30 73 1400 180/03 RMK AO2 T02610211
13942KMLU MLU20190917213510709/17/19 21:35:31  5-MIN KMLU 180335Z AUTO 17003KT 10SM CLR 26/21 A2998 30 73 1400 170/03 RMK AO2 T02610211
13942KMLU MLU20190917214010709/17/19 21:40:31  5-MIN KMLU 180340Z AUTO 00000KT 10SM CLR 26/21 A2998 30 76 1300 000/00 RMK AO2 T02560211
13942KMLU MLU20190917214510709/17/19 21:45:31  5-MIN KMLU 180345Z AUTO 00000KT 10SM CLR 26/21 A2998 30 76 1300 000/00 RMK AO2 T02560211
13942KMLU MLU20190917215011409/17/19 21:50:31  5-MIN KMLU 180350Z AUTO 00000KT 10SM CLR 26/22 A2998 30 79 1300 000/00 RMK AO2 SLP150 T02560217
13942KMLU MLU20190917215510709/17/19 21:55:31  5-MIN KMLU 180355Z AUTO 00000KT 10SM CLR 26/22 A2998 30 79 1300 000/00 RMK AO2 T02560217
13942KMLU MLU20190917220010709/17/19 22:00:31  5-MIN KMLU 180400Z AUTO 00000KT 10SM CLR 26/22 A2998 30 79 1300 000/00 RMK AO2 T02560217
13942KMLU MLU20190917220510709/17/19 22:05:31  5-MIN KMLU 180405Z AUTO 00000KT 10SM CLR 26/21 A2998 30 76 1300 000/00 RMK AO2 T02560211
13942KMLU MLU20190917221010709/17/19 22:10:31  5-MIN KMLU 180410Z AUTO 00000KT 10SM CLR 25/21 A2998 30 79 1200 000/00 RMK AO2 T02500211
13942KMLU MLU20190917221510709/17/19 22:15:31  5-MIN KMLU 180415Z AUTO 20003KT 10SM CLR 25/21 A2998 30 79 1200 200/03 RMK AO2 T02500211
13942KMLU MLU20190917222010709/17/19 22:20:31  5-MIN KMLU 180420Z AUTO 20003KT 10SM CLR 26/21 A2998 30 76 1300 190/03 RMK AO2 T02560211
13942KMLU MLU20190917222510709/17/19 22:25:31  5-MIN KMLU 180425Z AUTO 00000KT 10SM CLR 26/21 A2998 30 76 1300 000/00 RMK AO2 T02560211
13942KMLU MLU20190917223010709/17/19 22:30:31  5-MIN KMLU 180430Z AUTO 00000KT 10SM CLR 25/22 A2998 30 81 1200 000/00 RMK AO2 T02500217
13942KMLU MLU20190917223510709/17/19 22:35:31  5-MIN KMLU 180435Z AUTO 00000KT 10SM CLR 25/22 A2998 30 81 1200 000/00 RMK AO2 T02500217
13942KMLU MLU20190917224010709/17/19 22:40:31  5-MIN KMLU 180440Z AUTO 00000KT 10SM CLR 25/22 A2998 30 81 1200 000/00 RMK AO2 T02500217
13942KMLU MLU20190917224510709/17/19 22:45:31  5-MIN KMLU 180445Z AUTO 00000KT 10SM CLR 25/22 A2998 30 81 1200 000/00 RMK AO2 T02500217
13942KMLU MLU20190917225011409/17/19 22:50:31  5-MIN KMLU 180450Z AUTO 00000KT 10SM CLR 25/22 A2997 30 81 1200 000/00 RMK AO2 SLP148 T02500217
13942KMLU MLU20190917225510709/17/19 22:55:31  5-MIN KMLU 180455Z AUTO 00000KT 10SM CLR 25/22 A2997 30 81 1200 000/00 RMK AO2 T02500217
13942KMLU MLU20190917230010709/17/19 23:00:31  5-MIN KMLU 180500Z AUTO 00000KT 10SM CLR 25/22 A2997 30 81 1200 000/00 RMK AO2 T02500217
13942KMLU MLU20190917230510709/17/19 23:05:31  5-MIN KMLU 180505Z AUTO 00000KT 10SM CLR 24/21 A2997 30 84 1100 000/00 RMK AO2 T02390211
13942KMLU MLU20190917231010709/17/19 23:10:31  5-MIN KMLU 180510Z AUTO 00000KT 10SM CLR 24/21 A2997 30 84 1100 000/00 RMK AO2 T02390211
13942KMLU MLU20190917231510709/17/19 23:15:31  5-MIN KMLU 180515Z AUTO 00000KT 10SM CLR 24/22 A2997 30 87 1100 000/00 RMK AO2 T02390217
13942KMLU MLU20190917232010709/17/19 23:20:31  5-MIN KMLU 180520Z AUTO 00000KT 10SM CLR 24/22 A2997 40 87 1100 000/00 RMK AO2 T02390217
13942KMLU MLU20190917232510709/17/19 23:25:31  5-MIN KMLU 180525Z AUTO 00000KT 10SM CLR 24/22 A2997 40 87 1100 000/00 RMK AO2 T02390217
13942KMLU MLU20190917233010709/17/19 23:30:31  5-MIN KMLU 180530Z AUTO 00000KT 10SM CLR 24/22 A2997 40 87 1100 000/00 RMK AO2 T02390217
13942KMLU MLU20190917233510709/17/19 23:35:31  5-MIN KMLU 180535Z AUTO 00000KT 10SM CLR 24/22 A2997 40 87 1100 000/00 RMK AO2 T02390217
13942KMLU MLU20190917234010709/17/19 23:40:31  5-MIN KMLU 180540Z AUTO 00000KT 10SM CLR 24/22 A2997 40 87 1100 000/00 RMK AO2 T02390217
13942KMLU MLU20190917234510709/17/19 23:45:31  5-MIN KMLU 180545Z AUTO 00000KT 10SM CLR 24/22 A2997 40 87 1100 000/00 RMK AO2 T02390217
13942KMLU MLU20190917235014209/17/19 23:50:31  5-MIN KMLU 180550Z AUTO 00000KT 10SM CLR 23/22 A2997 40 90 1100 000/00 RMK AO2 SLP147 T02330217 10322 20233 403720211 51016
13942KMLU MLU20190917235510709/17/19 23:55:31  5-MIN KMLU 180555Z AUTO 00000KT 10SM CLR 23/21 A2997 40 87 1100 000/00 RMK AO2 T02330211
13942KMLU MLU20190918000010709/18/19 00:00:31  5-MIN KMLU 180600Z AUTO 00000KT 10SM CLR 23/21 A2997 40 87 1100 000/00 RMK AO2 T02330211
13942KMLU MLU20190918000510709/18/19 00:05:31  5-MIN KMLU 180605Z AUTO 00000KT 10SM CLR 23/21 A2997 40 87 1100 000/00 RMK AO2 T02330211
13942KMLU MLU20190918001010709/18/19 00:10:31  5-MIN KMLU 180610Z AUTO 00000KT 10SM CLR 24/22 A2997 40 90 1100 000/00 RMK AO2 T02390222
13942KMLU MLU20190918001510709/18/19 00:15:31  5-MIN KMLU 180615Z AUTO 00000KT 10SM CLR 24/22 A2997 40 87 1100 000/00 RMK AO2 T02390217
13942KMLU MLU20190918002010709/18/19 00:20:31  5-MIN KMLU 180620Z AUTO 00000KT 10SM CLR 24/22 A2997 40 90 1100 000/00 RMK AO2 T02390222
13942KMLU MLU20190918002510709/18/19 00:25:31  5-MIN KMLU 180625Z AUTO 00000KT 10SM CLR 24/22 A2997 40 90 1100 000/00 RMK AO2 T02390222
13942KMLU MLU20190918003010709/18/19 00:30:31  5-MIN KMLU 180630Z AUTO 00000KT 10SM CLR 23/22 A2997 30 93 1100 000/00 RMK AO2 T02330222
13942KMLU MLU20190918003510709/18/19 00:35:31  5-MIN KMLU 180635Z AUTO 00000KT 10SM CLR 23/22 A2997 30 90 1100 000/00 RMK AO2 T02330217
13942KMLU MLU20190918004010709/18/19 00:40:31  5-MIN KMLU 180640Z AUTO 14003KT 10SM CLR 23/22 A2997 30 90 1100 140/03 RMK AO2 T02330217
13942KMLU MLU20190918004510709/18/19 00:45:31  5-MIN KMLU 180645Z AUTO 15003KT 10SM CLR 23/22 A2997 30 90 1100 150/03 RMK AO2 T02330217
13942KMLU MLU20190918005011409/18/19 00:50:31  5-MIN KMLU 180650Z AUTO 15003KT 10SM CLR 23/22 A2997 30 90 1100 150/03 RMK AO2 SLP148 T02330217
13942KMLU MLU20190918005510709/18/19 00:55:31  5-MIN KMLU 180655Z AUTO 15003KT 10SM CLR 23/22 A2997 30 90 1100 150/03 RMK AO2 T02330217
13942KMLU MLU20190918010010709/18/19 01:00:31  5-MIN KMLU 180700Z AUTO 16003KT 10SM CLR 23/22 A2997 30 90 1000 160/03 RMK AO2 T02330217
13942KMLU MLU20190918010510709/18/19 01:05:31  5-MIN KMLU 180705Z AUTO 00000KT 10SM CLR 23/22 A2997 30 90 1000 000/00 RMK AO2 T02330217
13942KMLU MLU20190918011010709/18/19 01:10:31  5-MIN KMLU 180710Z AUTO 00000KT 10SM CLR 23/22 A2997 30 93 1000 000/00 RMK AO2 T02330222
13942KMLU MLU20190918011510709/18/19 01:15:31  5-MIN KMLU 180715Z AUTO 00000KT 10SM CLR 23/22 A2997 30 90 1100 000/00 RMK AO2 T02330217
13942KMLU MLU20190918012010709/18/19 01:20:31  5-MIN KMLU 180720Z AUTO 00000KT 10SM CLR 23/22 A2997 30 90 1100 000/00 RMK AO2 T02330217
13942KMLU MLU20190918012510709/18/19 01:25:31  5-MIN KMLU 180725Z AUTO 00000KT 10SM CLR 23/22 A2997 30 90 1100 000/00 RMK AO2 T02330217
13942KMLU MLU20190918013010709/18/19 01:30:31  5-MIN KMLU 180730Z AUTO 00000KT 10SM CLR 23/22 A2997 30 93 1000 000/00 RMK AO2 T02280217
13942KMLU MLU20190918013510709/18/19 01:35:31  5-MIN KMLU 180735Z AUTO 00000KT 10SM CLR 23/21 A2997 30 90 1000 000/00 RMK AO2 T02280211
13942KMLU MLU20190918014010709/18/19 01:40:31  5-MIN KMLU 180740Z AUTO 00000KT 10SM CLR 23/21 A2997 30 90 1000 000/00 RMK AO2 T02280211
13942KMLU MLU20190918014510709/18/19 01:45:31  5-MIN KMLU 180745Z AUTO 00000KT 10SM CLR 23/21 A2997 40 90 1000 000/00 RMK AO2 T02280211
13942KMLU MLU20190918015011309/18/19 01:50:31  5-MIN KMLU 180750Z AUTO 00000KT 10SM CLR 22/21 A2997 40 93 900 000/00 RMK AO2 SLP147 T02220211
13942KMLU MLU20190918015510609/18/19 01:55:31  5-MIN KMLU 180755Z AUTO 00000KT 10SM CLR 22/21 A2997 40 93 900 000/00 RMK AO2 T02220211
13942KMLU MLU20190918020010609/18/19 02:00:31  5-MIN KMLU 180800Z AUTO 00000KT 10SM CLR 22/21 A2996 40 93 900 000/00 RMK AO2 T02220211
13942KMLU MLU20190918020510609/18/19 02:05:31  5-MIN KMLU 180805Z AUTO 00000KT 10SM CLR 22/21 A2997 40 93 900 000/00 RMK AO2 T02220211
13942KMLU MLU20190918021010709/18/19 02:10:31  5-MIN KMLU 180810Z AUTO 00000KT 10SM CLR 23/21 A2996 40 90 1000 000/00 RMK AO2 T02280211
13942KMLU MLU20190918021510709/18/19 02:15:31  5-MIN KMLU 180815Z AUTO 00000KT 10SM CLR 23/22 A2996 40 93 1000 000/00 RMK AO2 T02280217
13942KMLU MLU20190918022010709/18/19 02:20:31  5-MIN KMLU 180820Z AUTO 00000KT 10SM CLR 23/22 A2996 40 93 1000 000/00 RMK AO2 T02280217
13942KMLU MLU20190918022510709/18/19 02:25:31  5-MIN KMLU 180825Z AUTO 00000KT 10SM CLR 23/22 A2996 50 93 1000 000/00 RMK AO2 T02280217
13942KMLU MLU20190918023010709/18/19 02:30:31  5-MIN KMLU 180830Z AUTO 00000KT 10SM CLR 23/22 A2996 50 93 1000 000/00 RMK AO2 T02280217
13942KMLU MLU20190918023510709/18/19 02:35:31  5-MIN KMLU 180835Z AUTO 00000KT 10SM CLR 23/21 A2996 50 90 1000 000/00 RMK AO2 T02280211
13942KMLU MLU20190918024010609/18/19 02:40:31  5-MIN KMLU 180840Z AUTO 00000KT 10SM CLR 22/21 A2996 40 90 900 000/00 RMK AO2 T02220206
13942KMLU MLU20190918024510609/18/19 02:45:31  5-MIN KMLU 180845Z AUTO 00000KT 10SM CLR 22/21 A2996 40 93 900 000/00 RMK AO2 T02170206
13942KMLU MLU20190918025011909/18/19 02:50:31  5-MIN KMLU 180850Z AUTO 00000KT 10SM CLR 22/21 A2996 50 90 900 000/00 RMK AO2 SLP143 T02220206 58001
13942KMLU MLU20190918025510609/18/19 02:55:31  5-MIN KMLU 180855Z AUTO 08003KT 10SM CLR 22/21 A2996 50 93 900 080/03 RMK AO2 T02220211
13942KMLU MLU20190918030010609/18/19 03:00:31  5-MIN KMLU 180900Z AUTO 08003KT 10SM CLR 22/21 A2996 50 93 900 080/03 RMK AO2 T02220211
13942KMLU MLU20190918030510709/18/19 03:05:31  5-MIN KMLU 180905Z AUTO 00000KT 10SM CLR 23/21 A2996 40 90 1000 000/00 RMK AO2 T02280211
13942KMLU MLU20190918031010709/18/19 03:10:31  5-MIN KMLU 180910Z AUTO 09003KT 10SM CLR 23/21 A2996 40 90 1000 090/03 RMK AO2 T02280211
13942KMLU MLU20190918031510709/18/19 03:15:31  5-MIN KMLU 180915Z AUTO 00000KT 10SM CLR 23/21 A2996 40 90 1000 000/00 RMK AO2 T02280211
13942KMLU MLU20190918032010709/18/19 03:20:31  5-MIN KMLU 180920Z AUTO 00000KT 10SM CLR 23/22 A2996 40 93 1000 000/00 RMK AO2 T02280217
13942KMLU MLU20190918032510709/18/19 03:25:31  5-MIN KMLU 180925Z AUTO 00000KT 10SM CLR 23/22 A2996 40 93 1000 000/00 RMK AO2 T02280217
13942KMLU MLU20190918033010709/18/19 03:30:31  5-MIN KMLU 180930Z AUTO 00000KT 10SM CLR 23/21 A2996 40 90 1000 000/00 RMK AO2 T02280211
13942KMLU MLU20190918033510609/18/19 03:35:31  5-MIN KMLU 180935Z AUTO 00000KT 10SM CLR 22/21 A2996 40 93 900 000/00 RMK AO2 T02220211
13942KMLU MLU20190918034010609/18/19 03:40:31  5-MIN KMLU 180940Z AUTO 00000KT 10SM CLR 22/21 A2996 40 93 900 000/00 RMK AO2 T02220211
13942KMLU MLU20190918034510609/18/19 03:45:31  5-MIN KMLU 180945Z AUTO 00000KT 10SM CLR 22/21 A2997 40 93 900 000/00 RMK AO2 T02220211
13942KMLU MLU20190918035011309/18/19 03:50:31  5-MIN KMLU 180950Z AUTO 00000KT 10SM CLR 22/21 A2997 40 93 900 000/00 RMK AO2 SLP145 T02220211
13942KMLU MLU20190918035510609/18/19 03:55:31  5-MIN KMLU 180955Z AUTO 00000KT 10SM CLR 22/21 A2997 40 93 900 000/00 RMK AO2 T02220211
13942KMLU MLU20190918040010609/18/19 04:00:31  5-MIN KMLU 181000Z AUTO 10003KT 10SM CLR 22/21 A2997 40 93 900 100/03 RMK AO2 T02220211
13942KMLU MLU20190918040510609/18/19 04:05:31  5-MIN KMLU 181005Z AUTO 10003KT 10SM CLR 22/21 A2997 40 93 900 100/03 RMK AO2 T02220211
13942KMLU MLU20190918041010609/18/19 04:10:31  5-MIN KMLU 181010Z AUTO 00000KT 10SM CLR 22/21 A2997 40 93 900 000/00 RMK AO2 T02220211
13942KMLU MLU20190918041510609/18/19 04:15:31  5-MIN KMLU 181015Z AUTO 00000KT 10SM CLR 22/21 A2997 30 93 900 000/00 RMK AO2 T02220211
13942KMLU MLU20190918042010609/18/19 04:20:31  5-MIN KMLU 181020Z AUTO 00000KT 10SM CLR 22/21 A2997 30 93 900 000/00 RMK AO2 T02220211
13942KMLU MLU20190918042510609/18/19 04:25:31  5-MIN KMLU 181025Z AUTO 00000KT 10SM CLR 22/21 A2997 30 97 900 000/00 RMK AO2 T02170211
13942KMLU MLU20190918043010609/18/19 04:30:31  5-MIN KMLU 181030Z AUTO 00000KT 10SM CLR 22/21 A2998 30 93 900 000/00 RMK AO2 T02220211
13942KMLU MLU20190918043510609/18/19 04:35:31  5-MIN KMLU 181035Z AUTO 00000KT 10SM CLR 22/21 A2998 30 93 900 000/00 RMK AO2 T02220211
13942KMLU MLU20190918044010709/18/19 04:40:31  5-MIN KMLU 181040Z AUTO 00000KT 10SM CLR 23/22 A2997 30 93 1000 000/00 RMK AO2 T02280217
13942KMLU MLU20190918044510709/18/19 04:45:31  5-MIN KMLU 181045Z AUTO 11003KT 10SM CLR 23/22 A2998 30 93 1000 100/03 RMK AO2 T02280217
13942KMLU MLU20190918045010809/18/19 04:50:31  5-MIN KMLU 181050Z 00000KT 10SM CLR 22/22 A2998 30 97 900 000/00 RMK AO2 SLP150 T02220217
13942KMLU MLU20190918045510209/18/19 04:55:31  5-MIN KMLU 181055Z 00000KT 10SM CLR 23/22 A2998 30 93 1000 000/00 RMK AO2 T02280217
13942KMLU MLU20190918050010109/18/19 05:00:31  5-MIN KMLU 181100Z 00000KT 10SM CLR 22/21 A2998 20 93 900 000/00 RMK AO2 T02220211
13942KMLU MLU20190918050510109/18/19 05:05:31  5-MIN KMLU 181105Z 00000KT 10SM CLR 22/21 A2998 20 93 900 000/00 RMK AO2 T02220211
13942KMLU MLU20190918051010209/18/19 05:10:31  5-MIN KMLU 181110Z 00000KT 10SM CLR 23/21 A2998 30 90 1000 000/00 RMK AO2 T02280211
13942KMLU MLU20190918051510109/18/19 05:15:31  5-MIN KMLU 181115Z 00000KT 10SM CLR 22/21 A2998 20 93 900 000/00 RMK AO2 T02220211
13942KMLU MLU20190918052010009/18/19 05:20:31  5-MIN KMLU 181120Z 06003KT 9SM CLR 22/21 A2998 20 93 800 060/03 RMK AO2 T02170206
13942KMLU MLU20190918052510009/18/19 05:25:31  5-MIN KMLU 181125Z 07003KT 8SM CLR 22/21 A2998 20 93 800 070/03 RMK AO2 T02170206
13942KMLU MLU20190918053010009/18/19 05:30:31  5-MIN KMLU 181130Z 09003KT 8SM CLR 22/21 A2998 20 93 800 090/03 RMK AO2 T02170206
13942KMLU MLU20190918053510009/18/19 05:35:31  5-MIN KMLU 181135Z 10003KT 9SM CLR 22/21 A2998 20 93 900 100/03 RMK AO2 T02220211
13942KMLU MLU20190918054010209/18/19 05:40:31  5-MIN KMLU 181140Z 12003KT 10SM CLR 23/22 A2999 20 93 1000 120/03 RMK AO2 T02280217
13942KMLU MLU20190918054510209/18/19 05:45:31  5-MIN KMLU 181145Z 10003KT 10SM CLR 23/22 A2999 20 93 1000 100/03 RMK AO2 T02280217
13942KMLU MLU20190918055012709/18/19 05:50:31  5-MIN KMLU 181150Z 09003KT 10SM CLR 23/22 A2999 20 93 1000 090/03 RMK AO2 SLP154 T02280217 10239 20217 58004
13942KMLU MLU20190918055510209/18/19 05:55:31  5-MIN KMLU 181155Z 00000KT 10SM CLR 23/22 A2999 10 93 1000 000/00 RMK AO2 T02280217
13942KMLU MLU20190918060010209/18/19 06:00:31  5-MIN KMLU 181200Z 00000KT 10SM CLR 23/22 A2999 20 93 1000 000/00 RMK AO2 T02280217
13942KMLU MLU20190918060510209/18/19 06:05:31  5-MIN KMLU 181205Z 00000KT 10SM CLR 23/22 A2999 20 90 1000 000/00 RMK AO2 T02330217
13942KMLU MLU20190918061010209/18/19 06:10:31  5-MIN KMLU 181210Z 00000KT 10SM CLR 23/22 A2999 10 93 1000 000/00 RMK AO2 T02280217
13942KMLU MLU20190918061510209/18/19 06:15:31  5-MIN KMLU 181215Z 00000KT 10SM CLR 23/22 A2999 10 93 1000 000/00 RMK AO2 T02280217
13942KMLU MLU20190918062010509/18/19 06:20:31  5-MIN KMLU 181220Z 00000KT 10SM FEW090 23/22 A3000 10 90 1000 000/00 RMK AO2 T02330217
13942KMLU MLU20190918062510509/18/19 06:25:31  5-MIN KMLU 181225Z 07003KT 10SM SCT090 23/22 A3000 10 93 1000 070/03 RMK AO2 T02330222
13942KMLU MLU20190918063010509/18/19 06:30:31  5-MIN KMLU 181230Z 07003KT 10SM SCT090 23/22 A3000 10 93 1000 060/03 RMK AO2 T02330222
13942KMLU MLU20190918063510509/18/19 06:35:31  5-MIN KMLU 181235Z 07003KT 10SM FEW090 24/22 A3000 10 90 1100 070/03 RMK AO2 T02390222
13942KMLU MLU20190918064010509/18/19 06:40:31  5-MIN KMLU 181240Z 10003KT 10SM FEW090 24/22 A3000 10 90 1100 100/03 RMK AO2 T02390222
13942KMLU MLU20190918064510509/18/19 06:45:31  5-MIN KMLU 181245Z 12003KT 10SM FEW090 24/22 A3000 10 87 1100 120/03 RMK AO2 T02440222
13942KMLU MLU20190918065011109/18/19 06:50:31  5-MIN KMLU 181250Z 00000KT 10SM FEW090 24/22 A3000 0 87 1100 000/00 RMK AO2 SLP158 T02440222
13942KMLU MLU20190918065510109/18/19 06:55:31  5-MIN KMLU 181255Z 00000KT 10SM CLR 24/23 A3000 0 90 1100 000/00 RMK AO2 T02440228
13942KMLU MLU20190918070010109/18/19 07:00:31  5-MIN KMLU 181300Z 00000KT 10SM CLR 24/23 A3001 0 90 1100 000/00 RMK AO2 T02440228
13942KMLU MLU20190918070510409/18/19 07:05:31  5-MIN KMLU 181305Z 00000KT 10SM FEW095 25/23 A3001 0 87 1200 000/00 RMK AO2 T02500228
13942KMLU MLU20190918071010409/18/19 07:10:31  5-MIN KMLU 181310Z 00000KT 10SM FEW095 25/22 A3001 0 84 1200 000/00 RMK AO2 T02500222
13942KMLU MLU20190918071510409/18/19 07:15:31  5-MIN KMLU 181315Z 00000KT 10SM FEW100 25/23 A3001 0 87 1200 000/00 RMK AO2 T02500228
13942KMLU MLU20190918072010409/18/19 07:20:31  5-MIN KMLU 181320Z 00000KT 10SM SCT100 25/22 A3001 0 84 1200 000/00 RMK AO2 T02500222
13942KMLU MLU20190918072510409/18/19 07:25:31  5-MIN KMLU 181325Z 00000KT 10SM BKN100 26/23 A3001 0 84 1300 000/00 RMK AO2 T02560228
13942KMLU MLU20190918073010409/18/19 07:30:31  5-MIN KMLU 181330Z 00000KT 10SM BKN100 26/23 A3001 0 84 1300 000/00 RMK AO2 T02560228
13942KMLU MLU20190918073510409/18/19 07:35:31  5-MIN KMLU 181335Z 00000KT 10SM BKN100 26/23 A3001 0 81 1300 000/00 RMK AO2 T02610228
13942KMLU MLU20190918074010409/18/19 07:40:31  5-MIN KMLU 181340Z 00000KT 10SM BKN100 26/23 A3001 0 81 1300 000/00 RMK AO2 T02610228
13942KMLU MLU20190918074510409/18/19 07:45:31  5-MIN KMLU 181345Z 00000KT 10SM BKN100 26/23 A3001 0 81 1300 000/00 RMK AO2 T02610228
13942KMLU MLU20190918075011109/18/19 07:50:31  5-MIN KMLU 181350Z 00000KT 10SM BKN100 27/23 A3002 0 82 1400 000/00 RMK AO2 SLP162 T02670233
13942KMLU MLU20190918075510409/18/19 07:55:31  5-MIN KMLU 181355Z 14003KT 10SM OVC100 27/23 A3002 0 79 1400 140/03 RMK AO2 T02670228
13942KMLU MLU20190918080010409/18/19 08:00:31  5-MIN KMLU 181400Z 00000KT 10SM OVC100 27/23 A3002 0 76 1400 000/00 RMK AO2 T02720228
13942KMLU MLU20190918080510609/18/19 08:05:31  5-MIN KMLU 181405Z 14004KT 10SM OVC100 27/23 A3002 -10 76 1400 140/04 RMK AO2 T02720228
13942KMLU MLU20190918081010609/18/19 08:10:31  5-MIN KMLU 181410Z 00000KT 10SM OVC100 27/23 A3002 -10 76 1400 000/00 RMK AO2 T02720228
13942KMLU MLU20190918081510409/18/19 08:15:31  5-MIN KMLU 181415Z VRB03KT 10SM OVC100 27/23 A3002 0 76 1400 VRB/03 RMK AO2 T02720228
13942KMLU MLU20190918082010409/18/19 08:20:31  5-MIN KMLU 181420Z VRB04KT 10SM OVC100 27/23 A3002 0 76 1400 VRB/04 RMK AO2 T02720228
13942KMLU MLU20190918082510409/18/19 08:25:31  5-MIN KMLU 181425Z VRB04KT 10SM OVC100 27/22 A3002 0 74 1400 VRB/04 RMK AO2 T02720222
13942KMLU MLU20190918083010409/18/19 08:30:31  5-MIN KMLU 181430Z 13004KT 10SM OVC100 28/23 A3001 0 74 1500 130/04 RMK AO2 T02780228
13942KMLU MLU20190918083510409/18/19 08:35:31  5-MIN KMLU 181435Z 17004KT 10SM OVC100 28/23 A3001 0 74 1500 170/04 RMK AO2 T02780228
13942KMLU MLU20190918084010409/18/19 08:40:31  5-MIN KMLU 181440Z VRB03KT 10SM BKN100 28/23 A3001 0 74 1500 VRB/03 RMK AO2 T02780228
13942KMLU MLU20190918084510409/18/19 08:45:31  5-MIN KMLU 181445Z VRB03KT 10SM BKN100 29/23 A3001 0 69 1600 VRB/03 RMK AO2 T02890228
13942KMLU MLU20190918085011709/18/19 08:50:31  5-MIN KMLU 181450Z VRB03KT 10SM SCT100 29/23 A3001 0 67 1700 VRB/03 RMK AO2 SLP161 T02940228 53012
13942KMLU MLU20190918085510409/18/19 08:55:31  5-MIN KMLU 181455Z VRB03KT 10SM SCT100 29/23 A3001 0 69 1600 VRB/03 RMK AO2 T02890228
13942KMLU MLU20190918090010409/18/19 09:00:31  5-MIN KMLU 181500Z VRB03KT 10SM FEW100 29/23 A3001 0 67 1700 VRB/03 RMK AO2 T02940228
13942KMLU MLU20190918090510109/18/19 09:05:31  5-MIN KMLU 181505Z 13005KT 10SM CLR 29/23 A3001 0 67 1700 130/05 RMK AO2 T02940228
13942KMLU MLU20190918091010109/18/19 09:10:31  5-MIN KMLU 181510Z 14005KT 10SM CLR 30/23 A3001 0 65 1800 140/05 RMK AO2 T03000228
13942KMLU MLU20190918091510109/18/19 09:15:31  5-MIN KMLU 181515Z VRB04KT 10SM CLR 30/23 A3001 0 65 1800 VRB/04 RMK AO2 T03000228
13942KMLU MLU20190918092010109/18/19 09:20:31  5-MIN KMLU 181520Z VRB04KT 10SM CLR 31/23 A3001 0 62 1800 VRB/04 RMK AO2 T03060228
13942KMLU MLU20190918092510109/18/19 09:25:31  5-MIN KMLU 181525Z VRB05KT 10SM CLR 31/23 A3001 0 62 1800 VRB/05 RMK AO2 T03060228
13942KMLU MLU20190918093010109/18/19 09:30:31  5-MIN KMLU 181530Z VRB03KT 10SM CLR 31/23 A3001 0 62 1800 VRB/03 RMK AO2 T03060228
13942KMLU MLU20190918093510109/18/19 09:35:31  5-MIN KMLU 181535Z 10003KT 10SM CLR 31/23 A3001 0 60 1900 100/03 RMK AO2 T03110228
13942KMLU MLU20190918094010109/18/19 09:40:31  5-MIN KMLU 181540Z 07003KT 10SM CLR 31/23 A3001 0 60 1900 070/03 RMK AO2 T03110228
13942KMLU MLU20190918094510109/18/19 09:45:31  5-MIN KMLU 181545Z VRB03KT 10SM CLR 31/23 A3001 0 60 1900 VRB/03 RMK AO2 T03110228
13942KMLU MLU20190918095010809/18/19 09:50:31  5-MIN KMLU 181550Z VRB03KT 10SM CLR 31/23 A3001 0 60 1900 VRB/03 RMK AO2 SLP159 T03110228
13942KMLU MLU20190918095510109/18/19 09:55:31  5-MIN KMLU 181555Z VRB06KT 10SM CLR 32/23 A3000 0 58 2000 VRB/06 RMK AO2 T03170228
13942KMLU MLU20190918100010109/18/19 10:00:31  5-MIN KMLU 181600Z VRB04KT 10SM CLR 32/22 A3001 0 56 1900 VRB/04 RMK AO2 T03170222
13942KMLU MLU20190918100510109/18/19 10:05:31  5-MIN KMLU 181605Z 14004KT 10SM CLR 32/22 A3000 0 56 2000 140/04 RMK AO2 T03170222
13942KMLU MLU20190918101010109/18/19 10:10:31  5-MIN KMLU 181610Z VRB05KT 10SM CLR 32/23 A3000 0 57 2000 VRB/05 RMK AO2 T03220228
13942KMLU MLU20190918101510209/18/19 10:15:31  5-MIN KMLU 181615Z 10006KT 10SM CLR 33/23 A3000 10 55 2100 100/06 RMK AO2 T03280228
13942KMLU MLU20190918102010209/18/19 10:20:31  5-MIN KMLU 181620Z 12006KT 10SM CLR 33/22 A3000 10 53 2100 120/06 RMK AO2 T03280222
13942KMLU MLU20190918102510209/18/19 10:25:31  5-MIN KMLU 181625Z VRB05KT 10SM CLR 33/22 A3000 10 53 2100 VRB/05 RMK AO2 T03280222
13942KMLU MLU20190918103010209/18/19 10:30:31  5-MIN KMLU 181630Z VRB06KT 10SM CLR 33/22 A3000 10 53 2100 VRB/06 RMK AO2 T03280222
13942KMLU MLU20190918103510209/18/19 10:35:31  5-MIN KMLU 181635Z 12005KT 10SM CLR 33/22 A2999 10 53 2100 120/05 RMK AO2 T03280222
13942KMLU MLU20190918104010209/18/19 10:40:31  5-MIN KMLU 181640Z 05005KT 10SM CLR 33/22 A2999 20 51 2100 050/05 RMK AO2 T03330222
13942KMLU MLU20190918104510209/18/19 10:45:31  5-MIN KMLU 181645Z VRB06KT 10SM CLR 34/22 A2999 20 50 2200 VRB/06 RMK AO2 T03390222
13942KMLU MLU20190918105010909/18/19 10:50:31  5-MIN KMLU 181650Z VRB04KT 10SM CLR 34/22 A2999 20 50 2200 VRB/04 RMK AO2 SLP152 T03390222
13942KMLU MLU20190918105510209/18/19 10:55:31  5-MIN KMLU 181655Z VRB05KT 10SM CLR 33/22 A2999 20 51 2200 VRB/05 RMK AO2 T03330222
13942KMLU MLU20190918110010209/18/19 11:00:31  5-MIN KMLU 181700Z VRB03KT 10SM CLR 33/22 A2998 20 51 2200 VRB/03 RMK AO2 T03330222
13942KMLU MLU20190918110510209/18/19 11:05:31  5-MIN KMLU 181705Z VRB03KT 10SM CLR 34/22 A2998 20 50 2200 VRB/03 RMK AO2 T03390222
13942KMLU MLU20190918111010209/18/19 11:10:31  5-MIN KMLU 181710Z 12003KT 10SM CLR 34/22 A2998 30 48 2300 120/03 RMK AO2 T03440222
13942KMLU MLU20190918111510209/18/19 11:15:31  5-MIN KMLU 181715Z 14004KT 10SM CLR 34/22 A2998 30 50 2200 140/04 RMK AO2 T03390222
13942KMLU MLU20190918112010509/18/19 11:20:31  5-MIN KMLU 181720Z VRB05KT 10SM FEW050 34/22 A2997 30 48 2200 VRB/05 RMK AO2 T03390217
13942KMLU MLU20190918112510509/18/19 11:25:31  5-MIN KMLU 181725Z 10008KT 10SM BKN050 34/22 A2997 30 48 2200 100/08 RMK AO2 T03390217
13942KMLU MLU20190918113010509/18/19 11:30:31  5-MIN KMLU 181730Z 11009KT 10SM BKN050 35/22 A2997 30 45 2400 110/09 RMK AO2 T03500217
13942KMLU MLU20190918113510509/18/19 11:35:31  5-MIN KMLU 181735Z VRB04KT 10SM BKN050 34/22 A2997 30 46 2300 VRB/04 RMK AO2 T03440217
13942KMLU MLU20190918114010509/18/19 11:40:31  5-MIN KMLU 181740Z VRB06KT 10SM BKN050 34/22 A2997 40 48 2300 VRB/06 RMK AO2 T03440222
13942KMLU MLU20190918114510509/18/19 11:45:31  5-MIN KMLU 181745Z VRB05KT 10SM BKN050 35/22 A2997 40 45 2400 VRB/05 RMK AO2 T03500217
13942KMLU MLU20190918115014609/18/19 11:50:31  5-MIN KMLU 181750Z 09007KT 050V130 10SM BKN050 35/22 A2997 40 47 2400 090/07 050V130 RMK AO2 SLP146 T03500222 10356 20228 50006
13942KMLU MLU20190918115510509/18/19 11:55:31  5-MIN KMLU 181755Z 13007KT 10SM SCT055 34/21 A2996 40 45 2200 130/07 RMK AO2 T03390206
13942KMLU MLU20190918120010509/18/19 12:00:31  5-MIN KMLU 181800Z VRB04KT 10SM BKN060 33/21 A2996 40 46 2200 VRB/04 RMK AO2 T03330206
13942KMLU MLU20190918120510509/18/19 12:05:31  5-MIN KMLU 181805Z 13004KT 10SM BKN060 33/21 A2996 40 46 2200 130/04 RMK AO2 T03330206
13942KMLU MLU20190918121010509/18/19 12:10:31  5-MIN KMLU 181810Z 11004KT 10SM SCT060 34/21 A2996 50 46 2200 100/04 RMK AO2 T03390211
13942KMLU MLU20190918121510509/18/19 12:15:31  5-MIN KMLU 181815Z 13004KT 10SM SCT060 34/21 A2995 50 46 2300 130/04 RMK AO2 T03390211
13942KMLU MLU20190918122010509/18/19 12:20:31  5-MIN KMLU 181820Z 18006KT 10SM SCT060 34/21 A2995 50 46 2300 180/06 RMK AO2 T03390211
13942KMLU MLU20190918122510509/18/19 12:25:31  5-MIN KMLU 181825Z 12007KT 10SM SCT060 33/21 A2995 50 48 2200 120/07 RMK AO2 T03330211
13942KMLU MLU20190918123010509/18/19 12:30:31  5-MIN KMLU 181830Z VRB06KT 10SM SCT060 34/21 A2995 60 45 2300 VRB/06 RMK AO2 T03390206
13942KMLU MLU20190918123511209/18/19 12:35:31  5-MIN KMLU 181835Z 08007KT 10SM SCT060 SCT070 34/21 A2994 60 43 2300 080/07 RMK AO2 T03440206
13942KMLU MLU20190918124011909/18/19 12:40:31  5-MIN KMLU 181840Z 17007KT 10SM FEW060 SCT070 SCT100 35/22 A2994 60 45 2400 170/07 RMK AO2 T03500217
13942KMLU MLU20190918124511209/18/19 12:45:31  5-MIN KMLU 181845Z VRB05KT 10SM FEW060 SCT100 36/22 A2993 70 44 2500 VRB/05 RMK AO2 T03560217
13942KMLU MLU20190918125011209/18/19 12:50:31  5-MIN KMLU 181850Z VRB06KT 10SM FEW060 35/21 A2993 70 43 2400 VRB/06 RMK AO2 SLP135 T03500211
13942KMLU MLU20190918125510509/18/19 12:55:31  5-MIN KMLU 181855Z 16006KT 10SM FEW060 35/21 A2993 70 43 2400 160/06 RMK AO2 T03500211
13942KMLU MLU20190918130010509/18/19 13:00:31  5-MIN KMLU 181900Z VRB06KT 10SM FEW060 35/21 A2993 80 43 2400 VRB/06 RMK AO2 T03500211
13942KMLU MLU20190918130510509/18/19 13:05:31  5-MIN KMLU 181905Z 11007KT 10SM FEW055 35/21 A2992 80 43 2400 110/07 RMK AO2 T03500211
13942KMLU MLU20190918131010509/18/19 13:10:31  5-MIN KMLU 181910Z 13007KT 10SM FEW055 35/21 A2992 80 43 2400 130/07 RMK AO2 T03500211
13942KMLU MLU20190918131510509/18/19 13:15:31  5-MIN KMLU 181915Z 16005KT 10SM FEW055 34/21 A2992 80 45 2300 160/05 RMK AO2 T03440211
13942KMLU MLU20190918132010509/18/19 13:20:31  5-MIN KMLU 181920Z 16006KT 10SM FEW055 34/21 A2993 80 45 2300 160/06 RMK AO2 T03440211
13942KMLU MLU20190918132510509/18/19 13:25:31  5-MIN KMLU 181925Z VRB05KT 10SM FEW055 34/21 A2993 80 45 2300 VRB/05 RMK AO2 T03440211
13942KMLU MLU20190918133011709/18/19 13:30:31  5-MIN KMLU 181930Z VRB06KT 10SM FEW060 34/21 A2992 80 45 2300 VRB/06 RMK AO2 LTG DSNT SW T03440211
13942KMLU MLU20190918133511709/18/19 13:35:31  5-MIN KMLU 181935Z VRB05KT 10SM SCT060 34/22 A2992 80 46 2300 VRB/05 RMK AO2 LTG DSNT SW T03440217
13942KMLU MLU20190918134011709/18/19 13:40:31  5-MIN KMLU 181940Z 16006KT 10SM SCT060 35/21 A2992 80 43 2400 160/06 RMK AO2 LTG DSNT SW T03500211
13942KMLU MLU20190918134510509/18/19 13:45:31  5-MIN KMLU 181945Z VRB03KT 10SM BKN060 35/22 A2992 80 45 2400 VRB/03 RMK AO2 T03500217
13942KMLU MLU20190918135011709/18/19 13:50:31  5-MIN KMLU 181950Z AUTO VRB03KT 10SM BKN060 35/21 A2992 80 43 2400 VRB/03 RMK AO2 SLP130 T03500211
13942KMLU MLU20190918135510509/18/19 13:55:31  5-MIN KMLU 181955Z 13009KT 10SM BKN060 35/22 A2992 80 45 2400 130/09 RMK AO2 T03500217
13942KMLU MLU20190918140010509/18/19 14:00:31  5-MIN KMLU 182000Z 12005KT 10SM SCT060 34/21 A2992 80 45 2400 120/05 RMK AO2 T03440211
13942KMLU MLU20190918140510509/18/19 14:05:31  5-MIN KMLU 182005Z VRB06KT 10SM SCT060 34/21 A2991 90 45 2400 VRB/06 RMK AO2 T03440211
13942KMLU MLU20190918141010509/18/19 14:10:31  5-MIN KMLU 182010Z VRB04KT 10SM SCT060 34/21 A2992 80 45 2400 VRB/04 RMK AO2 T03440211
13942KMLU MLU20190918141511209/18/19 14:15:31  5-MIN KMLU 182015Z 16005KT 10SM SCT060 BKN080 34/22 A2991 90 48 2300 160/05 RMK AO2 T03390217
13942KMLU MLU20190918142012309/18/19 14:20:31  5-MIN KMLU 182020Z 14007KT 10SM SCT060 BKN080 34/21 A2992 90 46 2300 140/07 RMK AO2 LTG DSNT S T03390211
13942KMLU MLU20190918142512309/18/19 14:25:31  5-MIN KMLU 182025Z VRB05KT 10SM SCT065 BKN080 34/21 A2992 80 46 2300 VRB/05 RMK AO2 LTG DSNT S T03390211
13942KMLU MLU20190918143012309/18/19 14:30:31  5-MIN KMLU 182030Z 16007KT 10SM SCT065 BKN080 34/21 A2992 80 46 2300 160/07 RMK AO2 LTG DSNT S T03390211
13942KMLU MLU20190918143511909/18/19 14:35:31  5-MIN KMLU 182035Z 17006KT 10SM SCT060 SCT080 BKN110 34/21 A2992 80 46 2300 170/06 RMK AO2 T03390211
13942KMLU MLU20190918144011909/18/19 14:40:31  5-MIN KMLU 182040Z 18006KT 10SM FEW065 SCT080 BKN110 34/22 A2992 80 48 2300 180/06 RMK AO2 T03390217
13942KMLU MLU20190918144511209/18/19 14:45:31  5-MIN KMLU 182045Z 17008KT 10SM FEW065 SCT110 34/21 A2992 80 46 2300 170/08 RMK AO2 T03390211
13942KMLU MLU20190918145012509/18/19 14:50:31  5-MIN KMLU 182050Z 17008KT 10SM SCT070 SCT110 34/21 A2992 80 45 2300 170/08 RMK AO2 SLP131 T03390206 58016
13942KMLU MLU20190918145511209/18/19 14:55:31  5-MIN KMLU 182055Z 17007KT 10SM BKN070 BKN110 34/21 A2992 80 46 2300 170/07 RMK AO2 T03390211
13942KMLU MLU20190918150012509/18/19 15:00:31  5-MIN KMLU 182100Z 21017G20KT 10SM BKN065 BKN080 BKN110 33/21 A2993 80 49 2200 210/17G20 RMK AO2 T03280211
13942KMLU MLU20190918150511109/18/19 15:05:31  5-MIN KMLU 182105Z 23012G20KT 10SM BKN065 31/22 A2993 70 60 1900 220/12G20 RMK AO2 T03060222
13942KMLU MLU20190918151011809/18/19 15:10:31  5-MIN KMLU 182110Z 23016G21KT 10SM BKN065 BKN100 31/22 A2993 70 60 1900 230/16G21 RMK AO2 T03060222
13942KMLU MLU20190918151513609/18/19 15:15:31  5-MIN KMLU 182115Z 23014G21KT 10SM BKN065 BKN075 BKN100 30/22 A2993 70 62 1800 220/14G21 RMK AO2 WSHFT 2058 T03000222
13942KMLU MLU20190918152013609/18/19 15:20:31  5-MIN KMLU 182120Z 23011G20KT 10SM BKN060 BKN075 BKN100 30/22 A2993 70 62 1800 220/11G20 RMK AO2 WSHFT 2058 T03000222
13942KMLU MLU20190918152513609/18/19 15:25:31  5-MIN KMLU 182125Z 22014G19KT 10SM BKN060 BKN075 BKN100 30/22 A2994 60 62 1800 220/14G19 RMK AO2 WSHFT 2058 T03000222
13942KMLU MLU20190918153013009/18/19 15:30:31  5-MIN KMLU 182130Z 23014KT 10SM BKN060 BKN075 BKN100 29/22 A2994 60 64 1800 230/14 RMK AO2 WSHFT 2058 T02940222
13942KMLU MLU20190918153513009/18/19 15:35:31  5-MIN KMLU 182135Z 22016KT 10SM BKN060 BKN075 BKN100 29/22 A2994 60 64 1800 220/16 RMK AO2 WSHFT 2058 T02940222
13942KMLU MLU20190918154013009/18/19 15:40:31  5-MIN KMLU 182140Z 22013KT 10SM BKN060 BKN075 BKN100 29/22 A2994 60 67 1700 220/13 RMK AO2 WSHFT 2058 T02890222
13942KMLU MLU20190918154513009/18/19 15:45:31  5-MIN KMLU 182145Z 21012KT 10SM BKN060 BKN075 BKN100 29/22 A2994 60 67 1700 210/12 RMK AO2 WSHFT 2058 T02890222
13942KMLU MLU20190918155013709/18/19 15:50:31  5-MIN KMLU 182150Z 20010KT 10SM BKN060 BKN075 BKN100 29/22 A2994 60 67 1700 200/10 RMK AO2 WSHFT 2058 SLP138 T02890222
13942KMLU MLU20190918155510209/18/19 15:55:31  5-MIN KMLU 182155Z 21012KT 10SM CLR 29/22 A2995 50 64 1700 210/12 RMK AO2 T02890217
13942KMLU MLU20190918160010509/18/19 16:00:31  5-MIN KMLU 182200Z 21012KT 10SM FEW100 29/22 A2995 50 64 1700 210/12 RMK AO2 T02890217
13942KMLU MLU20190918160511909/18/19 16:05:31  5-MIN KMLU 182205Z 22010KT 10SM FEW065 SCT075 BKN100 29/22 A2996 50 64 1700 220/10 RMK AO2 T02890217
13942KMLU MLU20190918161011909/18/19 16:10:31  5-MIN KMLU 182210Z 21010KT 10SM FEW065 SCT080 BKN100 29/22 A2996 40 64 1700 210/10 RMK AO2 T02890217
13942KMLU MLU20190918161511909/18/19 16:15:31  5-MIN KMLU 182215Z 21011KT 10SM FEW065 SCT080 BKN100 28/22 A2996 40 66 1600 210/11 RMK AO2 T02830217
13942KMLU MLU20190918162011909/18/19 16:20:31  5-MIN KMLU 182220Z 22010KT 10SM FEW065 FEW080 SCT100 28/22 A2996 40 66 1600 220/10 RMK AO2 T02830217
13942KMLU MLU20190918162511909/18/19 16:25:31  5-MIN KMLU 182225Z 21010KT 10SM FEW065 FEW080 SCT100 28/22 A2996 40 66 1600 210/10 RMK AO2 T02830217
13942KMLU MLU20190918163011209/18/19 16:30:31  5-MIN KMLU 182230Z 20011KT 10SM FEW065 FEW080 28/22 A2996 40 66 1600 200/11 RMK AO2 T02830217
13942KMLU MLU20190918163510509/18/19 16:35:31  5-MIN KMLU 182235Z 20012KT 10SM FEW080 28/22 A2996 40 69 1600 200/12 RMK AO2 T02780217
13942KMLU MLU20190918164010209/18/19 16:40:31  5-MIN KMLU 182240Z 19008KT 10SM CLR 28/22 A2996 40 69 1600 190/08 RMK AO2 T02780217
13942KMLU MLU20190918164510209/18/19 16:45:31  5-MIN KMLU 182245Z 20009KT 10SM CLR 28/22 A2996 40 69 1600 200/09 RMK AO2 T02780217
13942KMLU MLU20190918165010909/18/19 16:50:31  5-MIN KMLU 182250Z 22009KT 10SM CLR 28/22 A2996 50 69 1600 210/09 RMK AO2 SLP143 T02780217
13942KMLU MLU20190918165510209/18/19 16:55:31  5-MIN KMLU 182255Z 22007KT 10SM CLR 27/22 A2995 50 71 1500 220/07 RMK AO2 T02720217
13942KMLU MLU20190918170010209/18/19 17:00:31  5-MIN KMLU 182300Z 22011KT 10SM CLR 27/22 A2995 50 71 1500 220/11 RMK AO2 T02720217
13942KMLU MLU20190918170510209/18/19 17:05:31  5-MIN KMLU 182305Z 21008KT 10SM CLR 27/22 A2995 50 71 1500 210/08 RMK AO2 T02720217
13942KMLU MLU20190918171010209/18/19 17:10:31  5-MIN KMLU 182310Z 19007KT 10SM CLR 27/22 A2995 50 71 1500 190/07 RMK AO2 T02720217
13942KMLU MLU20190918171510209/18/19 17:15:31  5-MIN KMLU 182315Z 20008KT 10SM CLR 27/22 A2995 50 71 1500 200/08 RMK AO2 T02720217
13942KMLU MLU20190918172010209/18/19 17:20:31  5-MIN KMLU 182320Z 19006KT 10SM CLR 27/22 A2995 50 71 1500 190/06 RMK AO2 T02720217
13942KMLU MLU20190918172510209/18/19 17:25:31  5-MIN KMLU 182325Z 19005KT 10SM CLR 27/22 A2995 50 71 1500 190/05 RMK AO2 T02720217
13942KMLU MLU20190918173010209/18/19 17:30:31  5-MIN KMLU 182330Z 18003KT 10SM CLR 27/22 A2995 50 71 1500 180/03 RMK AO2 T02720217
13942KMLU MLU20190918173510209/18/19 17:35:31  5-MIN KMLU 182335Z 19004KT 10SM CLR 27/22 A2995 50 73 1400 190/04 RMK AO2 T02670217
13942KMLU MLU20190918174010209/18/19 17:40:31  5-MIN KMLU 182340Z 19005KT 10SM CLR 27/22 A2995 50 73 1400 190/05 RMK AO2 T02670217
13942KMLU MLU20190918174510209/18/19 17:45:31  5-MIN KMLU 182345Z 18005KT 10SM CLR 27/22 A2996 50 73 1400 180/05 RMK AO2 T02670217
13942KMLU MLU20190918175012709/18/19 17:50:31  5-MIN KMLU 182350Z 18006KT 10SM CLR 27/22 A2996 50 73 1400 180/06 RMK AO2 SLP143 T02670217 10356 20267 55014
13942KMLU MLU20190918175510209/18/19 17:55:31  5-MIN KMLU 182355Z 18005KT 10SM CLR 27/22 A2996 50 76 1400 180/05 RMK AO2 T02670222
13942KMLU MLU20190918180010209/18/19 18:00:31  5-MIN KMLU 190000Z 19004KT 10SM CLR 27/22 A2996 50 76 1400 190/04 RMK AO2 T02670222
13942KMLU MLU20190918180510209/18/19 18:05:31  5-MIN KMLU 190005Z 19003KT 10SM CLR 26/22 A2995 50 79 1400 180/03 RMK AO2 T02610222
13942KMLU MLU20190918181010209/18/19 18:10:31  5-MIN KMLU 190010Z 17004KT 10SM CLR 26/22 A2995 50 79 1400 170/04 RMK AO2 T02610222
13942KMLU MLU20190918181510209/18/19 18:15:31  5-MIN KMLU 190015Z 00000KT 10SM CLR 26/22 A2995 50 79 1400 000/00 RMK AO2 T02610222
13942KMLU MLU20190918182010209/18/19 18:20:31  5-MIN KMLU 190020Z 00000KT 10SM CLR 27/22 A2996 50 76 1400 000/00 RMK AO2 T02670222
13942KMLU MLU20190918182510209/18/19 18:25:31  5-MIN KMLU 190025Z 00000KT 10SM CLR 26/22 A2996 50 79 1400 000/00 RMK AO2 T02610222
13942KMLU MLU20190918183010209/18/19 18:30:31  5-MIN KMLU 190030Z 15003KT 10SM CLR 26/22 A2996 50 76 1400 150/03 RMK AO2 T02610217
13942KMLU MLU20190918183510209/18/19 18:35:31  5-MIN KMLU 190035Z 16005KT 10SM CLR 26/22 A2996 40 76 1400 160/05 RMK AO2 T02610217
13942KMLU MLU20190918184010209/18/19 18:40:31  5-MIN KMLU 190040Z 15004KT 10SM CLR 26/22 A2996 50 76 1400 150/04 RMK AO2 T02610217
13942KMLU MLU20190918184510509/18/19 18:45:31  5-MIN KMLU 190045Z 16005KT 10SM FEW120 26/22 A2996 40 76 1400 160/05 RMK AO2 T02610217
13942KMLU MLU20190918185011209/18/19 18:50:31  5-MIN KMLU 190050Z 17003KT 10SM SCT120 26/22 A2996 50 76 1400 170/03 RMK AO2 SLP143 T02610217
13942KMLU MLU20190918185510509/18/19 18:55:31  5-MIN KMLU 190055Z 17004KT 10SM BKN120 26/22 A2996 50 79 1300 170/04 RMK AO2 T02560217
13942KMLU MLU20190918190010509/18/19 19:00:31  5-MIN KMLU 190100Z 17004KT 10SM BKN120 26/22 A2996 50 79 1300 170/04 RMK AO2 T02560217
13942KMLU MLU20190918190510509/18/19 19:05:31  5-MIN KMLU 190105Z 18005KT 10SM SCT120 26/22 A2996 50 79 1300 180/05 RMK AO2 T02560217
13942KMLU MLU20190918191010509/18/19 19:10:31  5-MIN KMLU 190110Z 17006KT 10SM SCT120 26/22 A2996 50 79 1300 170/06 RMK AO2 T02560217
13942KMLU MLU20190918191510509/18/19 19:15:31  5-MIN KMLU 190115Z 17003KT 10SM SCT120 26/22 A2995 50 79 1300 170/03 RMK AO2 T02560217
13942KMLU MLU20190918192010509/18/19 19:20:31  5-MIN KMLU 190120Z 17005KT 10SM BKN120 26/22 A2996 50 79 1300 170/05 RMK AO2 T02560217
13942KMLU MLU20190918192510509/18/19 19:25:31  5-MIN KMLU 190125Z 17004KT 10SM BKN120 25/22 A2996 40 84 1300 170/04 RMK AO2 T02500222
13942KMLU MLU20190918193010509/18/19 19:30:31  5-MIN KMLU 190130Z 17004KT 10SM SCT120 25/22 A2996 40 84 1300 170/04 RMK AO2 T02500222
13942KMLU MLU20190918193510509/18/19 19:35:31  5-MIN KMLU 190135Z 17004KT 10SM SCT120 25/22 A2996 40 84 1300 170/04 RMK AO2 T02500222
13942KMLU MLU20190918194010509/18/19 19:40:31  5-MIN KMLU 190140Z 17004KT 10SM SCT120 25/22 A2996 40 84 1300 170/04 RMK AO2 T02500222
13942KMLU MLU20190918194510509/18/19 19:45:31  5-MIN KMLU 190145Z 00000KT 10SM FEW120 25/22 A2996 40 84 1300 000/00 RMK AO2 T02500222
13942KMLU MLU20190918195011209/18/19 19:50:31  5-MIN KMLU 190150Z 00000KT 10SM FEW120 25/22 A2996 40 84 1300 000/00 RMK AO2 SLP143 T02500222
13942KMLU MLU20190918195510209/18/19 19:55:31  5-MIN KMLU 190155Z 00000KT 10SM CLR 25/22 A2996 40 84 1300 000/00 RMK AO2 T02500222
13942KMLU MLU20190918200010209/18/19 20:00:31  5-MIN KMLU 190200Z 00000KT 10SM CLR 24/22 A2996 40 87 1200 000/00 RMK AO2 T02440222
13942KMLU MLU20190918200510209/18/19 20:05:31  5-MIN KMLU 190205Z 00000KT 10SM CLR 24/22 A2996 40 87 1200 000/00 RMK AO2 T02440222
13942KMLU MLU20190918201010209/18/19 20:10:31  5-MIN KMLU 190210Z 16003KT 10SM CLR 24/22 A2996 40 87 1200 160/03 RMK AO2 T02440222
13942KMLU MLU20190918201510209/18/19 20:15:31  5-MIN KMLU 190215Z 00000KT 10SM CLR 24/22 A2996 40 87 1200 000/00 RMK AO2 T02440222
13942KMLU MLU20190918202010209/18/19 20:20:31  5-MIN KMLU 190220Z 16004KT 10SM CLR 24/22 A2997 40 87 1200 160/04 RMK AO2 T02440222
13942KMLU MLU20190918202510209/18/19 20:25:31  5-MIN KMLU 190225Z 18004KT 10SM CLR 24/22 A2997 40 87 1200 180/04 RMK AO2 T02440222
13942KMLU MLU20190918203010209/18/19 20:30:31  5-MIN KMLU 190230Z 18004KT 10SM CLR 24/22 A2997 40 87 1200 170/04 RMK AO2 T02440222
13942KMLU MLU20190918203510209/18/19 20:35:31  5-MIN KMLU 190235Z 17004KT 10SM CLR 24/22 A2997 40 87 1200 170/04 RMK AO2 T02440222
13942KMLU MLU20190918204010209/18/19 20:40:31  5-MIN KMLU 190240Z 18003KT 10SM CLR 24/22 A2997 40 87 1200 180/03 RMK AO2 T02440222
13942KMLU MLU20190918204510209/18/19 20:45:31  5-MIN KMLU 190245Z 18004KT 10SM CLR 24/22 A2997 40 87 1200 180/04 RMK AO2 T02440222
13942KMLU MLU20190918205011509/18/19 20:50:31  5-MIN KMLU 190250Z 18004KT 10SM CLR 24/22 A2997 40 90 1100 180/04 RMK AO2 SLP147 T02390222 51013
13942KMLU MLU20190918205510709/18/19 20:55:31  5-MIN KMLU 190255Z AUTO 18005KT 10SM CLR 24/22 A2997 30 90 1100 180/05 RMK AO2 T02390222
13942KMLU MLU20190918210010709/18/19 21:00:31  5-MIN KMLU 190300Z AUTO 19004KT 10SM CLR 24/22 A2997 30 90 1100 190/04 RMK AO2 T02390222
13942KMLU MLU20190918210510709/18/19 21:05:31  5-MIN KMLU 190305Z AUTO 18004KT 10SM CLR 24/22 A2997 40 90 1100 180/04 RMK AO2 T02390222
13942KMLU MLU20190918211010709/18/19 21:10:31  5-MIN KMLU 190310Z AUTO 17003KT 10SM CLR 24/22 A2997 30 90 1100 170/03 RMK AO2 T02390222
13942KMLU MLU20190918211510709/18/19 21:15:31  5-MIN KMLU 190315Z AUTO 18003KT 10SM CLR 24/22 A2997 30 90 1100 180/03 RMK AO2 T02390222
13942KMLU MLU20190918212010709/18/19 21:20:31  5-MIN KMLU 190320Z AUTO 17004KT 10SM CLR 24/22 A2997 30 90 1100 170/04 RMK AO2 T02390222
13942KMLU MLU20190918212510709/18/19 21:25:31  5-MIN KMLU 190325Z AUTO 17003KT 10SM CLR 24/22 A2997 40 90 1100 170/03 RMK AO2 T02390222
13942KMLU MLU20190918213010709/18/19 21:30:31  5-MIN KMLU 190330Z AUTO 16003KT 10SM CLR 24/22 A2997 30 90 1100 160/03 RMK AO2 T02390222
13942KMLU MLU20190918213510709/18/19 21:35:31  5-MIN KMLU 190335Z AUTO 18004KT 10SM CLR 24/22 A2997 30 90 1100 180/04 RMK AO2 T02390222
13942KMLU MLU20190918214010709/18/19 21:40:31  5-MIN KMLU 190340Z AUTO 18003KT 10SM CLR 24/22 A2998 30 90 1100 180/03 RMK AO2 T02390222
13942KMLU MLU20190918214510709/18/19 21:45:31  5-MIN KMLU 190345Z AUTO 17003KT 10SM CLR 24/22 A2998 30 90 1100 170/03 RMK AO2 T02390222
13942KMLU MLU20190918215011409/18/19 21:50:31  5-MIN KMLU 190350Z AUTO 00000KT 10SM CLR 24/22 A2997 30 90 1100 000/00 RMK AO2 SLP148 T02390222
13942KMLU MLU20190918215510709/18/19 21:55:31  5-MIN KMLU 190355Z AUTO 20003KT 10SM CLR 24/22 A2997 30 90 1100 200/03 RMK AO2 T02390222
13942KMLU MLU20190918220010709/18/19 22:00:31  5-MIN KMLU 190400Z AUTO 00000KT 10SM CLR 24/22 A2997 30 90 1100 000/00 RMK AO2 T02390222
13942KMLU MLU20190918220510709/18/19 22:05:31  5-MIN KMLU 190405Z AUTO 00000KT 10SM CLR 23/22 A2997 40 93 1100 000/00 RMK AO2 T02330222
13942KMLU MLU20190918221010709/18/19 22:10:31  5-MIN KMLU 190410Z AUTO 00000KT 10SM CLR 23/22 A2997 40 90 1100 000/00 RMK AO2 T02330217
13942KMLU MLU20190918221510709/18/19 22:15:31  5-MIN KMLU 190415Z AUTO 00000KT 10SM CLR 23/22 A2997 40 93 1100 000/00 RMK AO2 T02330222
13942KMLU MLU20190918222010709/18/19 22:20:31  5-MIN KMLU 190420Z AUTO 00000KT 10SM CLR 24/22 A2997 40 90 1100 000/00 RMK AO2 T02390222
13942KMLU MLU20190918222510709/18/19 22:25:31  5-MIN KMLU 190425Z AUTO 00000KT 10SM CLR 24/22 A2997 40 90 1100 000/00 RMK AO2 T02390222
13942KMLU MLU20190918223010709/18/19 22:30:31  5-MIN KMLU 190430Z AUTO 00000KT 10SM CLR 24/22 A2997 40 90 1100 000/00 RMK AO2 T02390222
13942KMLU MLU20190918223510709/18/19 22:35:31  5-MIN KMLU 190435Z AUTO 00000KT 10SM CLR 24/22 A2996 40 90 1100 000/00 RMK AO2 T02390222
13942KMLU MLU20190918224010709/18/19 22:40:31  5-MIN KMLU 190440Z AUTO 00000KT 10SM CLR 23/22 A2996 40 93 1100 000/00 RMK AO2 T02330222
13942KMLU MLU20190918224510709/18/19 22:45:31  5-MIN KMLU 190445Z AUTO 00000KT 10SM CLR 23/22 A2996 40 93 1100 000/00 RMK AO2 T02330222
13942KMLU MLU20190918225011409/18/19 22:50:31  5-MIN KMLU 190450Z AUTO 00000KT 10SM CLR 23/22 A2996 40 93 1100 000/00 RMK AO2 SLP144 T02330222
13942KMLU MLU20190918225510709/18/19 22:55:31  5-MIN KMLU 190455Z AUTO 00000KT 10SM CLR 23/22 A2996 40 93 1100 000/00 RMK AO2 T02330222
13942KMLU MLU20190918230010709/18/19 23:00:31  5-MIN KMLU 190500Z AUTO 06003KT 10SM CLR 23/22 A2996 40 90 1100 060/03 RMK AO2 T02330217
13942KMLU MLU20190918230510709/18/19 23:05:31  5-MIN KMLU 190505Z AUTO 08003KT 10SM CLR 23/22 A2996 40 90 1100 080/03 RMK AO2 T02330217
13942KMLU MLU20190918231010709/18/19 23:10:31  5-MIN KMLU 190510Z AUTO 00000KT 10SM CLR 23/22 A2997 40 93 1100 000/00 RMK AO2 T02330222
13942KMLU MLU20190918231510709/18/19 23:15:31  5-MIN KMLU 190515Z AUTO 00000KT 10SM CLR 23/22 A2997 40 93 1100 000/00 RMK AO2 T02330222
13942KMLU MLU20190918232010709/18/19 23:20:31  5-MIN KMLU 190520Z AUTO 00000KT 10SM CLR 23/22 A2997 40 93 1100 000/00 RMK AO2 T02330222
13942KMLU MLU20190918232510709/18/19 23:25:31  5-MIN KMLU 190525Z AUTO 00000KT 10SM CLR 23/22 A2996 40 93 1100 000/00 RMK AO2 T02330222
13942KMLU MLU20190918233010709/18/19 23:30:31  5-MIN KMLU 190530Z AUTO 00000KT 10SM CLR 23/22 A2997 40 93 1100 000/00 RMK AO2 T02330222
13942KMLU MLU20190918233510709/18/19 23:35:31  5-MIN KMLU 190535Z AUTO 00000KT 10SM CLR 23/22 A2997 40 93 1100 000/00 RMK AO2 T02330222
13942KMLU MLU20190918234011009/18/19 23:40:31  5-MIN KMLU 190540Z AUTO 00000KT 10SM FEW095 23/22 A2997 40 93 1100 000/00 RMK AO2 T02330222
13942KMLU MLU20190918234511009/18/19 23:45:31  5-MIN KMLU 190545Z AUTO 00000KT 10SM FEW095 23/22 A2996 40 93 1100 000/00 RMK AO2 T02330222
13942KMLU MLU20190918235014509/18/19 23:50:31  5-MIN KMLU 190550Z AUTO 00000KT 10SM FEW095 23/22 A2996 40 93 1100 000/00 RMK AO2 SLP145 T02330222 10267 20233 403560217 53004
13942KMLU MLU20190918235511009/18/19 23:55:31  5-MIN KMLU 190555Z AUTO 00000KT 10SM FEW095 23/22 A2996 40 93 1100 000/00 RMK AO2 T02330222
13942KMLU MLU20190919000011009/19/19 00:00:31  5-MIN KMLU 190600Z AUTO 00000KT 10SM FEW095 23/22 A2996 40 93 1100 000/00 RMK AO2 T02330222
13942KMLU MLU20190919000511009/19/19 00:05:31  5-MIN KMLU 190605Z AUTO 00000KT 10SM FEW095 23/22 A2996 40 93 1000 000/00 RMK AO2 T02280217
13942KMLU MLU20190919001011009/19/19 00:10:31  5-MIN KMLU 190610Z AUTO 00000KT 10SM FEW095 23/22 A2996 40 93 1100 000/00 RMK AO2 T02330222
13942KMLU MLU20190919001510709/19/19 00:15:31  5-MIN KMLU 190615Z AUTO 00000KT 10SM CLR 23/22 A2996 40 90 1100 000/00 RMK AO2 T02330217
13942KMLU MLU20190919002010709/19/19 00:20:31  5-MIN KMLU 190620Z AUTO 00000KT 10SM CLR 23/22 A2996 40 90 1100 000/00 RMK AO2 T02330217
13942KMLU MLU20190919002510709/19/19 00:25:31  5-MIN KMLU 190625Z AUTO 00000KT 10SM CLR 23/22 A2996 50 93 1000 000/00 RMK AO2 T02280217
13942KMLU MLU20190919003010709/19/19 00:30:31  5-MIN KMLU 190630Z AUTO 00000KT 10SM CLR 23/22 A2996 50 93 1000 000/00 RMK AO2 T02280217
13942KMLU MLU20190919003510709/19/19 00:35:31  5-MIN KMLU 190635Z AUTO 00000KT 10SM CLR 23/22 A2996 50 93 1000 000/00 RMK AO2 T02280217
13942KMLU MLU20190919004010709/19/19 00:40:31  5-MIN KMLU 190640Z AUTO 00000KT 10SM CLR 23/22 A2996 50 93 1000 000/00 RMK AO2 T02280217
13942KMLU MLU20190919004510709/19/19 00:45:31  5-MIN KMLU 190645Z AUTO 00000KT 10SM CLR 23/22 A2996 50 93 1000 000/00 RMK AO2 T02280217
13942KMLU MLU20190919005011309/19/19 00:50:31  5-MIN KMLU 190650Z AUTO 00000KT 10SM CLR 22/22 A2996 50 97 900 000/00 RMK AO2 SLP142 T02220217
13942KMLU MLU20190919005510609/19/19 00:55:31  5-MIN KMLU 190655Z AUTO 00000KT 10SM CLR 22/22 A2996 50 97 900 000/00 RMK AO2 T02220217
13942KMLU MLU20190919010010709/19/19 01:00:31  5-MIN KMLU 190700Z AUTO 07003KT 10SM CLR 23/22 A2996 50 93 1000 070/03 RMK AO2 T02280217
13942KMLU MLU20190919010510609/19/19 01:05:31  5-MIN KMLU 190705Z AUTO 00000KT 10SM CLR 22/22 A2996 50 97 900 000/00 RMK AO2 T02220217
13942KMLU MLU20190919011010709/19/19 01:10:31  5-MIN KMLU 190710Z AUTO 00000KT 10SM CLR 23/22 A2996 50 93 1000 000/00 RMK AO2 T02280217
13942KMLU MLU20190919011510709/19/19 01:15:31  5-MIN KMLU 190715Z AUTO 00000KT 10SM CLR 23/22 A2996 50 93 1000 000/00 RMK AO2 T02280217
13942KMLU MLU20190919012010709/19/19 01:20:31  5-MIN KMLU 190720Z AUTO 08003KT 10SM CLR 23/22 A2996 50 93 1000 080/03 RMK AO2 T02280217
13942KMLU MLU20190919012510709/19/19 01:25:31  5-MIN KMLU 190725Z AUTO 07003KT 10SM CLR 23/22 A2995 50 93 1000 070/03 RMK AO2 T02280217
13942KMLU MLU20190919013010709/19/19 01:30:31  5-MIN KMLU 190730Z AUTO 08003KT 10SM CLR 23/22 A2995 50 93 1000 080/03 RMK AO2 T02280217
13942KMLU MLU20190919013510709/19/19 01:35:31  5-MIN KMLU 190735Z AUTO 00000KT 10SM CLR 23/22 A2995 50 93 1000 000/00 RMK AO2 T02280217
13942KMLU MLU20190919014010709/19/19 01:40:31  5-MIN KMLU 190740Z AUTO 00000KT 10SM CLR 23/22 A2995 50 93 1000 000/00 RMK AO2 T02280217
13942KMLU MLU20190919014510709/19/19 01:45:31  5-MIN KMLU 190745Z AUTO 00000KT 10SM CLR 23/22 A2996 50 93 1000 000/00 RMK AO2 T02280217
13942KMLU MLU20190919015011409/19/19 01:50:31  5-MIN KMLU 190750Z AUTO 00000KT 10SM CLR 23/22 A2995 50 93 1000 000/00 RMK AO2 SLP142 T02280217
13942KMLU MLU20190919015510709/19/19 01:55:31  5-MIN KMLU 190755Z AUTO 00000KT 10SM CLR 23/22 A2995 50 93 1000 000/00 RMK AO2 T02280217
13942KMLU MLU20190919020010709/19/19 02:00:31  5-MIN KMLU 190800Z AUTO 00000KT 10SM CLR 23/22 A2995 50 93 1000 000/00 RMK AO2 T02280217
13942KMLU MLU20190919020510709/19/19 02:05:31  5-MIN KMLU 190805Z AUTO 00000KT 10SM CLR 23/22 A2995 50 93 1000 000/00 RMK AO2 T02280217
13942KMLU MLU20190919021010709/19/19 02:10:31  5-MIN KMLU 190810Z AUTO 00000KT 10SM CLR 23/22 A2995 50 93 1000 000/00 RMK AO2 T02280217
13942KMLU MLU20190919021510709/19/19 02:15:31  5-MIN KMLU 190815Z AUTO 00000KT 10SM CLR 23/22 A2995 50 93 1000 000/00 RMK AO2 T02280217
13942KMLU MLU20190919022010709/19/19 02:20:31  5-MIN KMLU 190820Z AUTO 00000KT 10SM CLR 23/22 A2995 50 93 1000 000/00 RMK AO2 T02280217
13942KMLU MLU20190919022510609/19/19 02:25:31  5-MIN KMLU 190825Z AUTO 00000KT 10SM CLR 22/22 A2995 50 97 900 000/00 RMK AO2 T02220217
13942KMLU MLU20190919023010609/19/19 02:30:31  5-MIN KMLU 190830Z AUTO 00000KT 10SM CLR 22/22 A2995 50 97 900 000/00 RMK AO2 T02220217
13942KMLU MLU20190919023510609/19/19 02:35:31  5-MIN KMLU 190835Z AUTO 00000KT 10SM CLR 22/21 A2996 50 93 900 000/00 RMK AO2 T02220211
13942KMLU MLU20190919024010609/19/19 02:40:31  5-MIN KMLU 190840Z AUTO 00000KT 10SM CLR 22/21 A2995 50 93 900 000/00 RMK AO2 T02220211
13942KMLU MLU20190919024510609/19/19 02:45:31  5-MIN KMLU 190845Z AUTO 00000KT 10SM CLR 22/21 A2995 50 93 900 000/00 RMK AO2 T02220211
13942KMLU MLU20190919025010209/19/19 02:50:31  5-MIN KMLU 190850Z AUTO 07003KT 2 1/2SM BR CLR 22/21 A2995 50 97 900 070/03 RMK AO2
13942KMLU MLU20190919025510809/19/19 02:55:31  5-MIN KMLU 190855Z AUTO 06003KT 2SM BR CLR 22/21 A2996 50 93 900 060/03 RMK AO2 T02170206
13942KMLU MLU20190919030010809/19/19 03:00:31  5-MIN KMLU 190900Z AUTO 06003KT 5SM BR CLR 22/21 A2996 50 93 900 060/03 RMK AO2 T02170206
13942KMLU MLU20190919030510609/19/19 03:05:31  5-MIN KMLU 190905Z AUTO 06003KT 10SM CLR 22/21 A2996 50 93 900 060/03 RMK AO2 T02170206
13942KMLU MLU20190919031010609/19/19 03:10:31  5-MIN KMLU 190910Z AUTO 06004KT 10SM CLR 22/21 A2996 50 97 900 060/04 RMK AO2 T02170211
13942KMLU MLU20190919031510609/19/19 03:15:31  5-MIN KMLU 190915Z AUTO 08003KT 10SM CLR 22/21 A2996 50 93 900 070/03 RMK AO2 T02220211
13942KMLU MLU20190919032010609/19/19 03:20:31  5-MIN KMLU 190920Z AUTO 00000KT 10SM CLR 22/21 A2996 50 93 900 000/00 RMK AO2 T02220211
13942KMLU MLU20190919032510609/19/19 03:25:31  5-MIN KMLU 190925Z AUTO 09003KT 10SM CLR 22/22 A2996 50 97 900 090/03 RMK AO2 T02220217
13942KMLU MLU20190919033010609/19/19 03:30:31  5-MIN KMLU 190930Z AUTO 00000KT 10SM CLR 22/22 A2996 50 97 900 000/00 RMK AO2 T02220217
13942KMLU MLU20190919033510609/19/19 03:35:31  5-MIN KMLU 190935Z AUTO 00000KT 10SM CLR 22/22 A2996 50 97 900 000/00 RMK AO2 T02220217
13942KMLU MLU20190919034010709/19/19 03:40:31  5-MIN KMLU 190940Z AUTO 00000KT 10SM CLR 23/22 A2996 50 93 1000 000/00 RMK AO2 T02280217
13942KMLU MLU20190919034510709/19/19 03:45:31  5-MIN KMLU 190945Z AUTO 00000KT 10SM CLR 23/22 A2996 50 93 1000 000/00 RMK AO2 T02280217
13942KMLU MLU20190919035011309/19/19 03:50:31  5-MIN KMLU 190950Z AUTO 00000KT 10SM CLR 22/22 A2996 50 97 900 000/00 RMK AO2 SLP143 T02220217
13942KMLU MLU20190919035510609/19/19 03:55:31  5-MIN KMLU 190955Z AUTO 00000KT 10SM CLR 22/22 A2996 50 97 900 000/00 RMK AO2 T02220217
13942KMLU MLU20190919040010609/19/19 04:00:31  5-MIN KMLU 191000Z AUTO 00000KT 10SM CLR 22/22 A2996 50 97 900 000/00 RMK AO2 T02220217
13942KMLU MLU20190919040510609/19/19 04:05:31  5-MIN KMLU 191005Z AUTO 00000KT 10SM CLR 22/22 A2996 50 97 900 000/00 RMK AO2 T02220217
13942KMLU MLU20190919041010609/19/19 04:10:31  5-MIN KMLU 191010Z AUTO 07003KT 10SM CLR 22/22 A2996 40 97 900 070/03 RMK AO2 T02220217
13942KMLU MLU20190919041510609/19/19 04:15:31  5-MIN KMLU 191015Z AUTO 00000KT 10SM CLR 22/21 A2996 40 93 900 000/00 RMK AO2 T02220211
13942KMLU MLU20190919042010609/19/19 04:20:31  5-MIN KMLU 191020Z AUTO 00000KT 10SM CLR 22/21 A2996 40 97 900 000/00 RMK AO2 T02170211
13942KMLU MLU20190919042510609/19/19 04:25:31  5-MIN KMLU 191025Z AUTO 00000KT 10SM CLR 22/21 A2996 40 97 900 000/00 RMK AO2 T02170211
13942KMLU MLU20190919043010609/19/19 04:30:31  5-MIN KMLU 191030Z AUTO 00000KT 10SM CLR 22/21 A2997 40 93 900 000/00 RMK AO2 T02220211
13942KMLU MLU20190919043510609/19/19 04:35:31  5-MIN KMLU 191035Z AUTO 00000KT 10SM CLR 22/21 A2997 40 93 900 000/00 RMK AO2 T02220211
13942KMLU MLU20190919044010609/19/19 04:40:31  5-MIN KMLU 191040Z AUTO 00000KT 10SM CLR 22/22 A2997 40 97 900 000/00 RMK AO2 T02220217
13942KMLU MLU20190919044510609/19/19 04:45:31  5-MIN KMLU 191045Z AUTO 00000KT 10SM CLR 22/22 A2997 40 97 900 000/00 RMK AO2 T02220217
13942KMLU MLU20190919045010809/19/19 04:50:31  5-MIN KMLU 191050Z 00000KT 10SM CLR 22/22 A2997 40 97 900 000/00 RMK AO2 SLP146 T02220217
13942KMLU MLU20190919045510409/19/19 04:55:31  5-MIN KMLU 191055Z 00000KT 10SM FEW090 22/22 A2997 30 97 900 000/00 RMK AO2 T02220217
13942KMLU MLU20190919050010409/19/19 05:00:31  5-MIN KMLU 191100Z 00000KT 10SM SCT090 22/21 A2997 30 93 900 000/00 RMK AO2 T02220211
13942KMLU MLU20190919050510409/19/19 05:05:31  5-MIN KMLU 191105Z 00000KT 10SM BKN090 22/21 A2997 30 93 900 000/00 RMK AO2 T02220211
13942KMLU MLU20190919051010409/19/19 05:10:31  5-MIN KMLU 191110Z 06003KT 10SM BKN090 22/21 A2997 30 93 900 060/03 RMK AO2 T02220211
13942KMLU MLU20190919051510409/19/19 05:15:31  5-MIN KMLU 191115Z 00000KT 10SM BKN090 22/21 A2998 30 93 900 000/00 RMK AO2 T02220211
13942KMLU MLU20190919052011109/19/19 05:20:31  5-MIN KMLU 191120Z 00000KT 10SM BKN090 OVC110 22/21 A2998 30 93 900 000/00 RMK AO2 T02220211
13942KMLU MLU20190919052511109/19/19 05:25:31  5-MIN KMLU 191125Z 06003KT 10SM BKN090 OVC110 22/21 A2998 30 93 900 060/03 RMK AO2 T02220211
13942KMLU MLU20190919053011209/19/19 05:30:31  5-MIN KMLU 191130Z 06003KT 10SM BKN090 OVC110 23/22 A2997 30 93 1000 060/03 RMK AO2 T02280217
13942KMLU MLU20190919053511209/19/19 05:35:31  5-MIN KMLU 191135Z 07003KT 10SM BKN090 OVC110 23/22 A2997 30 93 1000 070/03 RMK AO2 T02280217
13942KMLU MLU20190919054011209/19/19 05:40:31  5-MIN KMLU 191140Z 07004KT 10SM BKN090 OVC110 23/22 A2997 30 93 1000 070/04 RMK AO2 T02280217
13942KMLU MLU20190919054511209/19/19 05:45:31  5-MIN KMLU 191145Z 08004KT 10SM SCT100 BKN110 23/22 A2998 30 93 1000 070/04 RMK AO2 T02280217
13942KMLU MLU20190919055013009/19/19 05:50:31  5-MIN KMLU 191150Z 08003KT 10SM BKN110 23/22 A2998 30 93 1000 080/03 RMK AO2 SLP149 T02280217 10233 20217 55003
13942KMLU MLU20190919055510509/19/19 05:55:31  5-MIN KMLU 191155Z 09003KT 10SM OVC110 23/22 A2998 30 93 1000 090/03 RMK AO2 T02280217
13942KMLU MLU20190919060010509/19/19 06:00:31  5-MIN KMLU 191200Z 00000KT 10SM BKN110 23/22 A2998 30 93 1000 000/00 RMK AO2 T02280217
13942KMLU MLU20190919060510509/19/19 06:05:31  5-MIN KMLU 191205Z 00000KT 10SM BKN110 23/22 A2998 30 93 1000 000/00 RMK AO2 T02280217
13942KMLU MLU20190919061010509/19/19 06:10:31  5-MIN KMLU 191210Z 00000KT 10SM OVC110 23/22 A2998 30 93 1000 000/00 RMK AO2 T02280217
13942KMLU MLU20190919061510509/19/19 06:15:31  5-MIN KMLU 191215Z 00000KT 10SM OVC110 23/22 A2998 20 93 1000 000/00 RMK AO2 T02280217
13942KMLU MLU20190919062010509/19/19 06:20:31  5-MIN KMLU 191220Z 00000KT 10SM OVC110 23/22 A2998 20 93 1000 000/00 RMK AO2 T02280217
13942KMLU MLU20190919062510509/19/19 06:25:31  5-MIN KMLU 191225Z 00000KT 10SM BKN110 23/22 A2998 20 90 1000 000/00 RMK AO2 T02330217
13942KMLU MLU20190919063010509/19/19 06:30:31  5-MIN KMLU 191230Z 00000KT 10SM BKN110 23/22 A2999 20 90 1000 000/00 RMK AO2 T02330217
13942KMLU MLU20190919063510509/19/19 06:35:31  5-MIN KMLU 191235Z 00000KT 10SM BKN110 23/22 A2998 20 93 1000 000/00 RMK AO2 T02330222
13942KMLU MLU20190919064010509/19/19 06:40:31  5-MIN KMLU 191240Z 00000KT 10SM BKN110 23/22 A2998 20 93 1000 000/00 RMK AO2 T02330222
13942KMLU MLU20190919064510509/19/19 06:45:31  5-MIN KMLU 191245Z 00000KT 10SM BKN110 23/22 A2998 30 90 1000 000/00 RMK AO2 T02330217
13942KMLU MLU20190919065011209/19/19 06:50:31  5-MIN KMLU 191250Z 00000KT 10SM SCT110 23/22 A2998 30 90 1000 000/00 RMK AO2 SLP150 T02330217
13942KMLU MLU20190919065510509/19/19 06:55:31  5-MIN KMLU 191255Z 08003KT 10SM SCT110 23/22 A2998 20 93 1000 080/03 RMK AO2 T02330222
13942KMLU MLU20190919070010509/19/19 07:00:31  5-MIN KMLU 191300Z 00000KT 10SM SCT110 24/22 A2998 20 90 1100 000/00 RMK AO2 T02390222
13942KMLU MLU20190919070510509/19/19 07:05:31  5-MIN KMLU 191305Z 00000KT 10SM FEW110 24/22 A2998 20 90 1100 000/00 RMK AO2 T02390222
13942KMLU MLU20190919071010209/19/19 07:10:31  5-MIN KMLU 191310Z 00000KT 10SM CLR 24/22 A2998 20 90 1100 000/00 RMK AO2 T02390222
13942KMLU MLU20190919071510509/19/19 07:15:31  5-MIN KMLU 191315Z 00000KT 10SM FEW110 24/22 A2998 20 90 1100 000/00 RMK AO2 T02390222
13942KMLU MLU20190919072010509/19/19 07:20:31  5-MIN KMLU 191320Z 00000KT 10SM FEW110 24/22 A2998 20 87 1200 000/00 RMK AO2 T02440222
13942KMLU MLU20190919072510509/19/19 07:25:31  5-MIN KMLU 191325Z 07003KT 10SM FEW110 24/22 A2998 20 87 1200 070/03 RMK AO2 T02440222
13942KMLU MLU20190919073010509/19/19 07:30:31  5-MIN KMLU 191330Z 08003KT 10SM FEW120 25/22 A2998 20 84 1200 080/03 RMK AO2 T02500222
13942KMLU MLU20190919073510509/19/19 07:35:31  5-MIN KMLU 191335Z 08003KT 10SM FEW120 26/22 A2998 20 81 1300 080/03 RMK AO2 T02560222
13942KMLU MLU20190919074010509/19/19 07:40:31  5-MIN KMLU 191340Z 11004KT 10SM FEW120 26/22 A2999 20 81 1300 110/04 RMK AO2 T02560222
13942KMLU MLU20190919074510209/19/19 07:45:31  5-MIN KMLU 191345Z VRB03KT 10SM CLR 26/22 A2999 20 79 1300 VRB/03 RMK AO2 T02610222
13942KMLU MLU20190919075010909/19/19 07:50:31  5-MIN KMLU 191350Z VRB03KT 10SM CLR 26/22 A2999 20 81 1300 VRB/03 RMK AO2 SLP154 T02560222
13942KMLU MLU20190919075510209/19/19 07:55:31  5-MIN KMLU 191355Z 10004KT 10SM CLR 26/22 A2999 10 79 1300 100/04 RMK AO2 T02610222
13942KMLU MLU20190919080010209/19/19 08:00:31  5-MIN KMLU 191400Z 12004KT 10SM CLR 26/22 A3000 10 79 1300 120/04 RMK AO2 T02610222
13942KMLU MLU20190919080510209/19/19 08:05:31  5-MIN KMLU 191405Z 13004KT 10SM CLR 27/22 A3000 10 76 1400 130/04 RMK AO2 T02670222
13942KMLU MLU20190919081010209/19/19 08:10:31  5-MIN KMLU 191410Z 16005KT 10SM CLR 27/22 A3000 10 76 1400 160/05 RMK AO2 T02670222
13942KMLU MLU20190919081510209/19/19 08:15:31  5-MIN KMLU 191415Z 16004KT 10SM CLR 27/22 A3000 10 71 1500 160/04 RMK AO2 T02720217
13942KMLU MLU20190919082010109/19/19 08:20:31  5-MIN KMLU 191420Z 16005KT 10SM CLR 28/22 A3000 0 69 1500 160/05 RMK AO2 T02780217
13942KMLU MLU20190919082510109/19/19 08:25:31  5-MIN KMLU 191425Z VRB03KT 10SM CLR 28/22 A3001 0 66 1600 VRB/03 RMK AO2 T02830217
13942KMLU MLU20190919083010109/19/19 08:30:31  5-MIN KMLU 191430Z 17006KT 10SM CLR 28/22 A3001 0 66 1600 170/06 RMK AO2 T02830217
13942KMLU MLU20190919083510409/19/19 08:35:31  5-MIN KMLU 191435Z VRB04KT 10SM FEW022 29/22 A3001 0 64 1600 VRB/04 RMK AO2 T02890217
13942KMLU MLU20190919084010409/19/19 08:40:31  5-MIN KMLU 191440Z 11003KT 10SM SCT022 28/22 A3001 0 66 1600 110/03 RMK AO2 T02830217
13942KMLU MLU20190919084510409/19/19 08:45:31  5-MIN KMLU 191445Z VRB04KT 10SM SCT022 29/22 A3001 0 67 1600 VRB/04 RMK AO2 T02890222
13942KMLU MLU20190919085009409/19/19 08:50:31  5-MIN KMLU 191450Z VRB04KT 10SM BKN017 29/22 A3001 0 64 1700 VRB/04 RMK AO2
13942KMLU MLU20190919085510409/19/19 08:55:31  5-MIN KMLU 191455Z 17004KT 10SM BKN023 29/22 A3001 0 64 1700 170/04 RMK AO2 T02940222
13942KMLU MLU20190919090010409/19/19 09:00:31  5-MIN KMLU 191500Z VRB03KT 10SM BKN023 29/22 A3001 0 67 1600 VRB/03 RMK AO2 T02890222
13942KMLU MLU20190919090510409/19/19 09:05:31  5-MIN KMLU 191505Z VRB05KT 10SM BKN023 29/22 A3001 0 64 1700 VRB/05 RMK AO2 T02940222
13942KMLU MLU20190919091010409/19/19 09:10:31  5-MIN KMLU 191510Z 15005KT 10SM BKN024 29/22 A3001 0 64 1700 150/05 RMK AO2 T02940222
13942KMLU MLU20190919091510409/19/19 09:15:31  5-MIN KMLU 191515Z 12005KT 10SM BKN017 30/22 A3001 0 62 1800 110/05 RMK AO2 T03000222
13942KMLU MLU20190919092010409/19/19 09:20:31  5-MIN KMLU 191520Z 18006KT 10SM BKN017 31/23 A3001 0 62 1800 180/06 RMK AO2 T03060228
13942KMLU MLU20190919092510409/19/19 09:25:31  5-MIN KMLU 191525Z 16004KT 10SM BKN017 30/23 A3001 0 65 1800 160/04 RMK AO2 T03000228
13942KMLU MLU20190919093012009/19/19 09:30:31  5-MIN KMLU 191530Z 18007KT 140V200 10SM BKN017 31/23 A3001 0 65 1800 180/07 140V200 RMK AO2 T03060233
13942KMLU MLU20190919093510409/19/19 09:35:31  5-MIN KMLU 191535Z 19007KT 10SM BKN017 30/23 A3001 0 67 1800 180/07 RMK AO2 T03000233
13942KMLU MLU20190919094010409/19/19 09:40:31  5-MIN KMLU 191540Z VRB05KT 10SM BKN017 31/23 A3001 0 65 1800 VRB/05 RMK AO2 T03060233
13942KMLU MLU20190919094510409/19/19 09:45:31  5-MIN KMLU 191545Z 17006KT 10SM BKN017 31/23 A3001 0 65 1800 170/06 RMK AO2 T03060233
13942KMLU MLU20190919095012709/19/19 09:50:31  5-MIN KMLU 191550Z 17007KT 140V210 10SM BKN017 29/23 A3001 0 67 1700 170/07 140V210 RMK AO2 SLP160 T02940228
13942KMLU MLU20190919095511109/19/19 09:55:31  5-MIN KMLU 191555Z 17006KT 10SM BKN028 BKN033 30/23 A3001 0 67 1800 170/06 RMK AO2 T03000233
13942KMLU MLU20190919100011109/19/19 10:00:31  5-MIN KMLU 191600Z 16006KT 10SM BKN023 BKN033 30/23 A3001 0 67 1800 160/06 RMK AO2 T03000233
13942KMLU MLU20190919100511109/19/19 10:05:31  5-MIN KMLU 191605Z VRB04KT 10SM BKN023 BKN033 30/23 A3001 0 67 1800 VRB/04 RMK AO2 T03000233
13942KMLU MLU20190919101011109/19/19 10:10:31  5-MIN KMLU 191610Z 16005KT 10SM BKN023 BKN033 30/23 A3001 0 67 1800 160/05 RMK AO2 T03000233
13942KMLU MLU20190919101511109/19/19 10:15:31  5-MIN KMLU 191615Z 20008KT 10SM BKN023 BKN033 31/23 A3001 0 65 1800 200/08 RMK AO2 T03060233
13942KMLU MLU20190919102011109/19/19 10:20:31  5-MIN KMLU 191620Z 19005KT 10SM BKN023 BKN033 31/23 A3001 0 65 1800 190/05 RMK AO2 T03060233
13942KMLU MLU20190919102511109/19/19 10:25:31  5-MIN KMLU 191625Z VRB04KT 10SM BKN023 BKN033 31/23 A3001 0 65 1800 VRB/04 RMK AO2 T03060233
13942KMLU MLU20190919103011109/19/19 10:30:31  5-MIN KMLU 191630Z 17005KT 10SM BKN023 BKN033 30/23 A3001 0 67 1800 170/05 RMK AO2 T03000233
13942KMLU MLU20190919103511109/19/19 10:35:31  5-MIN KMLU 191635Z 21006KT 10SM BKN023 BKN033 30/23 A3001 0 67 1800 210/06 RMK AO2 T03000233
13942KMLU MLU20190919104011109/19/19 10:40:31  5-MIN KMLU 191640Z 18008KT 10SM BKN023 BKN033 31/23 A3001 0 65 1800 180/08 RMK AO2 T03060233
13942KMLU MLU20190919104511109/19/19 10:45:31  5-MIN KMLU 191645Z 19006KT 10SM BKN023 BKN033 31/23 A3001 0 63 1900 180/06 RMK AO2 T03110233
13942KMLU MLU20190919105011809/19/19 10:50:31  5-MIN KMLU 191650Z 20007KT 10SM BKN023 BKN033 31/23 A3001 0 63 1900 200/07 RMK AO2 SLP160 T03110233
13942KMLU MLU20190919105511809/19/19 10:55:31  5-MIN KMLU 191655Z VRB05KT 10SM SCT027 BKN033 BKN039 31/23 A3001 0 60 1900 VRB/05 RMK AO2 T03110228
13942KMLU MLU20190919110011809/19/19 11:00:31  5-MIN KMLU 191700Z 18005KT 10SM FEW027 BKN033 BKN041 31/23 A3001 0 63 1900 170/05 RMK AO2 T03110233
13942KMLU MLU20190919110511809/19/19 11:05:31  5-MIN KMLU 191705Z 20005KT 10SM FEW027 BKN033 BKN041 32/24 A3001 0 61 2000 200/05 RMK AO2 T03220239
13942KMLU MLU20190919111010409/19/19 11:10:31  5-MIN KMLU 191710Z 21005KT 10SM BKN033 31/23 A3001 0 63 1900 210/05 RMK AO2 T03110233
13942KMLU MLU20190919111510409/19/19 11:15:31  5-MIN KMLU 191715Z 19007KT 10SM BKN033 32/23 A3001 0 61 1900 190/07 RMK AO2 T03170233
13942KMLU MLU20190919112010409/19/19 11:20:31  5-MIN KMLU 191720Z VRB06KT 10SM BKN035 32/23 A3001 0 61 1900 VRB/06 RMK AO2 T03170233
13942KMLU MLU20190919112510409/19/19 11:25:31  5-MIN KMLU 191725Z 00000KT 10SM BKN035 32/23 A3001 0 61 1900 000/00 RMK AO2 T03170233
13942KMLU MLU20190919113011109/19/19 11:30:31  5-MIN KMLU 191730Z VRB05KT 10SM BKN035 OVC042 32/23 A3001 0 59 2000 VRB/05 RMK AO2 T03220233
13942KMLU MLU20190919113511209/19/19 11:35:31  5-MIN KMLU 191735Z 16006KT 10SM BKN035 BKN042 32/23 A3000 10 59 2000 160/06 RMK AO2 T03220233
13942KMLU MLU20190919114011209/19/19 11:40:31  5-MIN KMLU 191740Z VRB03KT 10SM BKN037 BKN050 32/23 A3000 10 58 2000 VRB/03 RMK AO2 T03170228
13942KMLU MLU20190919114511209/19/19 11:45:31  5-MIN KMLU 191745Z 16003KT 10SM SCT037 BKN050 32/22 A3000 10 55 2000 160/03 RMK AO2 T03220222
13942KMLU MLU20190919115013709/19/19 11:50:31  5-MIN KMLU 191750Z VRB03KT 10SM SCT037 BKN050 33/23 A2999 10 55 2100 VRB/03 RMK AO2 SLP155 T03280228 10328 20228 53012
13942KMLU MLU20190919115512309/19/19 11:55:31  5-MIN KMLU 191755Z VRB03KT 10SM FEW037 SCT050 33/23 A2999 20 55 2100 VRB/03 RMK AO2 LTG DSNT W T03280228
13942KMLU MLU20190919120013009/19/19 12:00:31  5-MIN KMLU 191800Z VRB06KT 10SM FEW039 SCT050 33/23 A2998 20 53 2200 VRB/06 RMK AO2 LTG DSNT W PRESFR T03330228
13942KMLU MLU20190919120512309/19/19 12:05:31  5-MIN KMLU 191805Z 17005KT 10SM FEW039 FEW050 32/22 A2998 30 55 2000 170/05 RMK AO2 LTG DSNT W T03220222
13942KMLU MLU20190919121013009/19/19 12:10:31  5-MIN KMLU 191810Z 00000KT 10SM FEW040 FEW050 SCT060 32/22 A2998 30 55 2000 000/00 RMK AO2 LTG DSNT W T03220222
13942KMLU MLU20190919121512309/19/19 12:15:31  5-MIN KMLU 191815Z VRB03KT 10SM FEW040 FEW060 33/23 A2998 30 55 2100 VRB/03 RMK AO2 LTG DSNT W T03280228
13942KMLU MLU20190919122011309/19/19 12:20:31  5-MIN KMLU 191820Z 09007KT 10SM CLR 34/22 A2997 30 50 2200 090/07 RMK AO2 LTG DSNT W T03390222
13942KMLU MLU20190919122511709/19/19 12:25:31  5-MIN KMLU 191825Z VRB04KT 10SM FEW047 33/22 A2997 30 50 2200 VRB/04 RMK AO2 LTG DSNT SW T03330217
13942KMLU MLU20190919123012309/19/19 12:30:31  5-MIN KMLU 191830Z 07009KT 10SM FEW047 33/22 A2997 40 51 2200 070/09 RMK AO2 LTG DSNT SW AND W T03330222
13942KMLU MLU20190919123512309/19/19 12:35:31  5-MIN KMLU 191835Z VRB04KT 10SM FEW045 34/22 A2997 40 50 2200 VRB/04 RMK AO2 LTG DSNT SW AND W T03390222
13942KMLU MLU20190919124013009/19/19 12:40:31  5-MIN KMLU 191840Z 08006KT 10SM FEW047 FEW055 34/22 A2997 40 50 2200 080/06 RMK AO2 LTG DSNT SW AND W T03390222
13942KMLU MLU20190919124513009/19/19 12:45:31  5-MIN KMLU 191845Z 08007KT 10SM SCT050 SCT065 33/22 A2997 30 50 2200 080/07 RMK AO2 LTG DSNT SW AND W T03330217
13942KMLU MLU20190919125013109/19/19 12:50:31  5-MIN KMLU 191850Z VRB03KT 10SM SCT050 BKN060 32/22 A2997 30 53 2000 VRB/03 RMK AO2 LTG DSNT SW SLP148 T03220217
13942KMLU MLU20190919125512409/19/19 12:55:31  5-MIN KMLU 191855Z 00000KT 10SM BKN048 BKN060 32/21 A2997 30 51 2000 000/00 RMK AO2 LTG DSNT SW T03220211
13942KMLU MLU20190919130012409/19/19 13:00:31  5-MIN KMLU 191900Z 14004KT 10SM SCT050 BKN070 32/21 A2997 30 51 2000 140/04 RMK AO2 LTG DSNT SW T03170206
13942KMLU MLU20190919130512409/19/19 13:05:31  5-MIN KMLU 191905Z VRB04KT 10SM SCT050 BKN070 32/20 A2998 30 48 2000 VRB/04 RMK AO2 LTG DSNT SW T03220200
13942KMLU MLU20190919131013809/19/19 13:10:31  5-MIN KMLU 191910Z 00000KT 10SM FEW050 SCT060 BKN075 32/21 A2998 20 49 2000 000/00 RMK AO2 LTG DSNT SW AND NW T03220206
13942KMLU MLU20190919131514409/19/19 13:15:31  5-MIN KMLU 191915Z 25011G14KT 10SM FEW050 SCT060 BKN075 31/21 A2998 20 54 1900 250/11G14 RMK AO2 LTG DSNT SW AND NW T03110211
13942KMLU MLU20190919132013709/19/19 13:20:31  5-MIN KMLU 191920Z 26011G14KT 10SM FEW049 SCT060 BKN070 28/22 A2998 20 69 1600 260/11G14 RMK AO2 LTG DSNT NW T02830222
13942KMLU MLU20190919132512309/19/19 13:25:31  5-MIN KMLU 191925Z 25011KT 10SM BKN060 BKN070 28/22 A2999 20 69 1600 250/11 RMK AO2 LTG DSNT W T02830222
13942KMLU MLU20190919133014009/19/19 13:30:31  5-MIN KMLU 191930Z 24014G21KT 10SM BKN060 BKN075 28/22 A3000 10 69 1600 240/14G21 RMK AO2 WSHFT 1914 LTG DSNT W T02830222
13942KMLU MLU20190919133514009/19/19 13:35:31  5-MIN KMLU 191935Z 22017G25KT 10SM BKN060 BKN075 27/22 A2999 10 74 1500 220/17G25 RMK AO2 WSHFT 1914 LTG DSNT W T02720222
13942KMLU MLU20190919134014709/19/19 13:40:31  5-MIN KMLU 191940Z 24017G25KT 10SM SCT060 BKN070 BKN085 27/22 A2999 20 71 1500 230/17G25 RMK AO2 WSHFT 1914 LTG DSNT W T02720217
13942KMLU MLU20190919134514709/19/19 13:45:31  5-MIN KMLU 191945Z 23014G22KT 10SM SCT060 BKN070 BKN085 27/22 A2999 20 73 1400 230/14G22 RMK AO2 WSHFT 1914 LTG DSNT W T02670217
13942KMLU MLU20190919135014209/19/19 13:50:31  5-MIN KMLU 191950Z AUTO 24011KT 10SM SCT055 BKN070 BKN085 27/22 A2999 20 73 1400 230/11 RMK AO2 WSHFT 1914 SLP154 T02670217
13942KMLU MLU20190919135512409/19/19 13:55:31  5-MIN KMLU 191955Z AUTO 24008KT 10SM FEW060 SCT070 SCT110 26/22 A2998 20 76 1400 240/08 RMK AO2 T02610217
13942KMLU MLU20190919140011909/19/19 14:00:31  5-MIN KMLU 192000Z 24008KT 10SM BKN060 BKN070 BKN110 26/22 A2998 20 76 1400 240/08 RMK AO2 T02610217
13942KMLU MLU20190919140513109/19/19 14:05:31  5-MIN KMLU 192005Z 23006KT 10SM BKN060 BKN070 BKN110 27/22 A2998 20 73 1400 230/06 RMK AO2 LTG DSNT NW T02670217
13942KMLU MLU20190919141013109/19/19 14:10:31  5-MIN KMLU 192010Z 23007KT 10SM BKN060 BKN070 BKN110 27/22 A2998 30 73 1400 230/07 RMK AO2 LTG DSNT NW T02670217
13942KMLU MLU20190919141513109/19/19 14:15:31  5-MIN KMLU 192015Z 21005KT 10SM BKN060 BKN070 BKN110 27/22 A2998 20 73 1400 210/05 RMK AO2 LTG DSNT NW T02670217
13942KMLU MLU20190919142013109/19/19 14:20:31  5-MIN KMLU 192020Z 22006KT 10SM BKN060 BKN070 BKN110 27/22 A2998 30 71 1500 220/06 RMK AO2 LTG DSNT NW T02720217
13942KMLU MLU20190919142511909/19/19 14:25:31  5-MIN KMLU 192025Z 24006KT 10SM BKN060 BKN070 BKN110 28/22 A2998 30 69 1500 240/06 RMK AO2 T02780217
13942KMLU MLU20190919143011909/19/19 14:30:31  5-MIN KMLU 192030Z 24008KT 10SM BKN060 BKN070 BKN110 28/21 A2998 30 64 1600 240/08 RMK AO2 T02830211
13942KMLU MLU20190919143511909/19/19 14:35:31  5-MIN KMLU 192035Z 22008KT 10SM BKN060 BKN070 BKN110 28/21 A2997 30 62 1600 220/08 RMK AO2 T02830206
13942KMLU MLU20190919144011909/19/19 14:40:31  5-MIN KMLU 192040Z 24008KT 10SM BKN060 BKN070 BKN110 29/21 A2997 30 60 1700 240/08 RMK AO2 T02890206
13942KMLU MLU20190919144511909/19/19 14:45:31  5-MIN KMLU 192045Z 24008KT 10SM BKN060 BKN070 BKN110 29/21 A2997 30 60 1700 240/08 RMK AO2 T02890206
13942KMLU MLU20190919145011509/19/19 14:50:31  5-MIN KMLU 192050Z 24009KT 10SM CLR 29/21 A2998 30 62 1700 240/09 RMK AO2 SLP149 T02890211 58008
13942KMLU MLU20190919145510209/19/19 14:55:31  5-MIN KMLU 192055Z 24009KT 10SM CLR 29/21 A2997 30 60 1700 240/09 RMK AO2 T02940211
13942KMLU MLU20190919150010209/19/19 15:00:31  5-MIN KMLU 192100Z 24011KT 10SM CLR 30/22 A2998 30 60 1800 240/11 RMK AO2 T03000217
13942KMLU MLU20190919150510209/19/19 15:05:31  5-MIN KMLU 192105Z 23014KT 10SM CLR 29/22 A2998 30 64 1700 230/14 RMK AO2 T02890217
13942KMLU MLU20190919151010209/19/19 15:10:31  5-MIN KMLU 192110Z 24014KT 10SM CLR 28/22 A2998 30 66 1600 240/14 RMK AO2 T02830217
13942KMLU MLU20190919151510209/19/19 15:15:31  5-MIN KMLU 192115Z 24013KT 10SM CLR 28/22 A2998 30 66 1600 240/13 RMK AO2 T02830217
13942KMLU MLU20190919152010209/19/19 15:20:31  5-MIN KMLU 192120Z 23011KT 10SM CLR 29/22 A2998 20 67 1700 230/11 RMK AO2 T02890222
13942KMLU MLU20190919152510209/19/19 15:25:31  5-MIN KMLU 192125Z 24010KT 10SM CLR 29/22 A2998 20 67 1700 240/10 RMK AO2 T02890222
13942KMLU MLU20190919153010209/19/19 15:30:31  5-MIN KMLU 192130Z 24011KT 10SM CLR 29/23 A2998 20 67 1700 240/11 RMK AO2 T02940228
13942KMLU MLU20190919153510209/19/19 15:35:31  5-MIN KMLU 192135Z 24011KT 10SM CLR 29/23 A2998 20 69 1700 240/11 RMK AO2 T02890228
13942KMLU MLU20190919154010209/19/19 15:40:31  5-MIN KMLU 192140Z 24010KT 10SM CLR 28/23 A2998 20 71 1600 230/10 RMK AO2 T02830228
13942KMLU MLU20190919154510209/19/19 15:45:31  5-MIN KMLU 192145Z 24009KT 10SM CLR 29/22 A2998 30 67 1700 240/09 RMK AO2 T02890222
13942KMLU MLU20190919155010909/19/19 15:50:31  5-MIN KMLU 192150Z 23010KT 10SM CLR 28/22 A2998 30 69 1600 230/10 RMK AO2 SLP150 T02830222
13942KMLU MLU20190919155510209/19/19 15:55:31  5-MIN KMLU 192155Z 24010KT 10SM CLR 28/22 A2998 30 69 1600 240/10 RMK AO2 T02830222
13942KMLU MLU20190919160010209/19/19 16:00:31  5-MIN KMLU 192200Z 24011KT 10SM CLR 28/22 A2998 30 71 1500 240/11 RMK AO2 T02780222
13942KMLU MLU20190919160510209/19/19 16:05:31  5-MIN KMLU 192205Z 23010KT 10SM CLR 28/22 A2998 30 71 1500 230/10 RMK AO2 T02780222
13942KMLU MLU20190919161010209/19/19 16:10:31  5-MIN KMLU 192210Z 23009KT 10SM CLR 28/22 A2998 30 71 1500 230/09 RMK AO2 T02780222
13942KMLU MLU20190919161510209/19/19 16:15:31  5-MIN KMLU 192215Z 24008KT 10SM CLR 28/22 A2998 30 71 1500 240/08 RMK AO2 T02780222
13942KMLU MLU20190919162010209/19/19 16:20:31  5-MIN KMLU 192220Z 23008KT 10SM CLR 28/22 A2998 30 71 1500 230/08 RMK AO2 T02780222
13942KMLU MLU20190919162510209/19/19 16:25:31  5-MIN KMLU 192225Z 23011KT 10SM CLR 28/22 A2998 30 71 1500 230/11 RMK AO2 T02780222
13942KMLU MLU20190919163010209/19/19 16:30:31  5-MIN KMLU 192230Z 24013KT 10SM CLR 28/22 A2998 30 69 1600 240/13 RMK AO2 T02780217
13942KMLU MLU20190919163510209/19/19 16:35:31  5-MIN KMLU 192235Z 22011KT 10SM CLR 28/22 A2998 30 69 1500 220/11 RMK AO2 T02780217
13942KMLU MLU20190919164010209/19/19 16:40:31  5-MIN KMLU 192240Z 22011KT 10SM CLR 28/22 A2998 30 69 1500 220/11 RMK AO2 T02780217
13942KMLU MLU20190919164510209/19/19 16:45:31  5-MIN KMLU 192245Z 22012KT 10SM CLR 28/22 A2998 30 69 1500 220/12 RMK AO2 T02780217
13942KMLU MLU20190919165010909/19/19 16:50:31  5-MIN KMLU 192250Z 22010KT 10SM CLR 28/22 A2998 20 69 1600 220/10 RMK AO2 SLP151 T02830222
13942KMLU MLU20190919165510209/19/19 16:55:31  5-MIN KMLU 192255Z 22010KT 10SM CLR 28/22 A2998 20 69 1600 220/10 RMK AO2 T02830222
13942KMLU MLU20190919170010209/19/19 17:00:31  5-MIN KMLU 192300Z 21011KT 10SM CLR 28/22 A2998 20 69 1600 210/11 RMK AO2 T02830222
13942KMLU MLU20190919170510209/19/19 17:05:31  5-MIN KMLU 192305Z 21009KT 10SM CLR 28/22 A2998 20 71 1500 210/09 RMK AO2 T02780222
13942KMLU MLU20190919171010209/19/19 17:10:31  5-MIN KMLU 192310Z 21008KT 10SM CLR 28/22 A2999 20 69 1500 210/08 RMK AO2 T02780217
13942KMLU MLU20190919171510209/19/19 17:15:31  5-MIN KMLU 192315Z 21011KT 10SM CLR 27/22 A2998 20 71 1500 210/11 RMK AO2 T02720217
13942KMLU MLU20190919172010209/19/19 17:20:31  5-MIN KMLU 192320Z 21012KT 10SM CLR 28/21 A2998 20 66 1500 210/12 RMK AO2 T02780211
13942KMLU MLU20190919172510209/19/19 17:25:31  5-MIN KMLU 192325Z 21012KT 10SM CLR 27/21 A2999 20 69 1500 210/12 RMK AO2 T02720211
13942KMLU MLU20190919173010209/19/19 17:30:31  5-MIN KMLU 192330Z 21011KT 10SM CLR 27/21 A2999 20 69 1500 210/11 RMK AO2 T02720211
13942KMLU MLU20190919173510209/19/19 17:35:31  5-MIN KMLU 192335Z 21010KT 10SM CLR 27/21 A2999 20 71 1400 210/10 RMK AO2 T02670211
13942KMLU MLU20190919174010509/19/19 17:40:31  5-MIN KMLU 192340Z 21009KT 10SM FEW110 27/21 A2999 20 71 1400 210/09 RMK AO2 T02670211
13942KMLU MLU20190919174510509/19/19 17:45:31  5-MIN KMLU 192345Z 20005KT 10SM SCT110 26/21 A2999 20 73 1300 190/05 RMK AO2 T02610211
13942KMLU MLU20190919175013009/19/19 17:50:31  5-MIN KMLU 192350Z 19004KT 10SM FEW120 26/21 A2999 20 73 1300 190/04 RMK AO2 SLP153 T02610211 10339 20261 56005
13942KMLU MLU20190919175510509/19/19 17:55:31  5-MIN KMLU 192355Z 19006KT 10SM FEW110 26/21 A2999 20 73 1300 190/06 RMK AO2 T02610211
13942KMLU MLU20190919180010509/19/19 18:00:31  5-MIN KMLU 200000Z 20005KT 10SM FEW110 26/21 A2999 20 76 1300 200/05 RMK AO2 T02560211
13942KMLU MLU20190919180510509/19/19 18:05:31  5-MIN KMLU 200005Z 19004KT 10SM SCT110 26/21 A2999 20 76 1300 190/04 RMK AO2 T02560211
13942KMLU MLU20190919181010509/19/19 18:10:31  5-MIN KMLU 200010Z 19004KT 10SM FEW110 26/21 A2998 20 76 1300 190/04 RMK AO2 T02560211
13942KMLU MLU20190919181510509/19/19 18:15:31  5-MIN KMLU 200015Z 18004KT 10SM FEW110 25/21 A2999 20 79 1200 180/04 RMK AO2 T02500211
13942KMLU MLU20190919182010509/19/19 18:20:31  5-MIN KMLU 200020Z 19004KT 10SM FEW110 25/21 A2999 20 79 1200 190/04 RMK AO2 T02500211
13942KMLU MLU20190919182510509/19/19 18:25:31  5-MIN KMLU 200025Z 18004KT 10SM FEW110 25/21 A2998 20 76 1200 180/04 RMK AO2 T02500206
13942KMLU MLU20190919183010209/19/19 18:30:31  5-MIN KMLU 200030Z 18003KT 10SM CLR 25/21 A2998 20 76 1200 180/03 RMK AO2 T02500206
13942KMLU MLU20190919183510209/19/19 18:35:31  5-MIN KMLU 200035Z 16003KT 10SM CLR 25/21 A2998 20 76 1200 160/03 RMK AO2 T02500206
13942KMLU MLU20190919184010209/19/19 18:40:31  5-MIN KMLU 200040Z 17003KT 10SM CLR 25/21 A2999 20 76 1200 170/03 RMK AO2 T02500206
13942KMLU MLU20190919184510209/19/19 18:45:31  5-MIN KMLU 200045Z 00000KT 10SM CLR 25/21 A2999 20 76 1200 000/00 RMK AO2 T02500206
13942KMLU MLU20190919185010909/19/19 18:50:31  5-MIN KMLU 200050Z 00000KT 10SM CLR 25/21 A2999 20 76 1200 000/00 RMK AO2 SLP154 T02500206
13942KMLU MLU20190919185510209/19/19 18:55:31  5-MIN KMLU 200055Z 00000KT 10SM CLR 24/21 A2999 10 78 1200 000/00 RMK AO2 T02440206
13942KMLU MLU20190919190010209/19/19 19:00:31  5-MIN KMLU 200100Z 00000KT 10SM CLR 24/21 A3000 10 78 1100 000/00 RMK AO2 T02440206
13942KMLU MLU20190919190510209/19/19 19:05:31  5-MIN KMLU 200105Z 00000KT 10SM CLR 24/21 A3000 10 81 1100 000/00 RMK AO2 T02390206
13942KMLU MLU20190919191010209/19/19 19:10:31  5-MIN KMLU 200110Z 00000KT 10SM CLR 24/21 A3000 10 81 1100 000/00 RMK AO2 T02390206
13942KMLU MLU20190919191510109/19/19 19:15:31  5-MIN KMLU 200115Z 00000KT 10SM CLR 24/21 A3000 0 81 1100 000/00 RMK AO2 T02390206
13942KMLU MLU20190919192010109/19/19 19:20:31  5-MIN KMLU 200120Z 00000KT 10SM CLR 24/21 A3001 0 81 1100 000/00 RMK AO2 T02390206
13942KMLU MLU20190919192510109/19/19 19:25:31  5-MIN KMLU 200125Z 00000KT 10SM CLR 23/21 A3001 0 84 1000 000/00 RMK AO2 T02330206
13942KMLU MLU20190919193010109/19/19 19:30:31  5-MIN KMLU 200130Z 00000KT 10SM CLR 23/21 A3001 0 84 1000 000/00 RMK AO2 T02330206
13942KMLU MLU20190919193510109/19/19 19:35:31  5-MIN KMLU 200135Z 00000KT 10SM CLR 23/21 A3001 0 84 1000 000/00 RMK AO2 T02330206
13942KMLU MLU20190919194010109/19/19 19:40:31  5-MIN KMLU 200140Z 00000KT 10SM CLR 23/21 A3001 0 87 1000 000/00 RMK AO2 T02330211
13942KMLU MLU20190919194510009/19/19 19:45:31  5-MIN KMLU 200145Z 00000KT 10SM CLR 23/21 A3001 0 90 900 000/00 RMK AO2 T02280211
13942KMLU MLU20190919195010709/19/19 19:50:31  5-MIN KMLU 200150Z 07004KT 10SM CLR 23/21 A3001 0 87 900 070/04 RMK AO2 SLP162 T02280206
13942KMLU MLU20190919195510209/19/19 19:55:31  5-MIN KMLU 200155Z 00000KT 10SM CLR 22/21 A3002 -10 90 900 000/00 RMK AO2 T02220206
13942KMLU MLU20190919200010209/19/19 20:00:31  5-MIN KMLU 200200Z 00000KT 10SM CLR 22/21 A3002 -10 90 900 000/00 RMK AO2 T02220206
13942KMLU MLU20190919200510209/19/19 20:05:31  5-MIN KMLU 200205Z 00000KT 10SM CLR 22/21 A3003 -10 90 900 000/00 RMK AO2 T02220206
13942KMLU MLU20190919201010209/19/19 20:10:31  5-MIN KMLU 200210Z 09003KT 10SM CLR 23/21 A3003 -10 90 900 090/03 RMK AO2 T02280211
13942KMLU MLU20190919201510209/19/19 20:15:31  5-MIN KMLU 200215Z 10003KT 10SM CLR 23/21 A3003 -10 90 900 100/03 RMK AO2 T02280211
13942KMLU MLU20190919202010309/19/19 20:20:31  5-MIN KMLU 200220Z 11003KT 10SM CLR 23/21 A3003 -20 87 1000 110/03 RMK AO2 T02330211
13942KMLU MLU20190919202510309/19/19 20:25:31  5-MIN KMLU 200225Z 00000KT 10SM CLR 23/21 A3003 -10 87 1000 000/00 RMK AO2 T02330211
13942KMLU MLU20190919203010209/19/19 20:30:31  5-MIN KMLU 200230Z 00000KT 10SM CLR 23/21 A3003 -10 87 900 000/00 RMK AO2 T02280206
13942KMLU MLU20190919203510209/19/19 20:35:31  5-MIN KMLU 200235Z 00000KT 10SM CLR 23/21 A3002 -10 87 900 000/00 RMK AO2 T02280206
13942KMLU MLU20190919204010209/19/19 20:40:31  5-MIN KMLU 200240Z 00000KT 10SM CLR 23/21 A3002 -10 90 900 000/00 RMK AO2 T02280211
13942KMLU MLU20190919204510009/19/19 20:45:31  5-MIN KMLU 200245Z 00000KT 10SM CLR 22/21 A3002 0 90 900 000/00 RMK AO2 T02220206
13942KMLU MLU20190919205011509/19/19 20:50:31  5-MIN KMLU 200250Z 00000KT 10SM CLR 22/21 A3002 -10 90 900 000/00 RMK AO2 SLP164 T02220206 53005
13942KMLU MLU20190919205510209/19/19 20:55:31  5-MIN KMLU 200255Z 00000KT 10SM CLR 22/20 A3002 -10 87 900 000/00 RMK AO2 T02220200
13942KMLU MLU20190919210010709/19/19 21:00:31  5-MIN KMLU 200300Z AUTO 00000KT 10SM CLR 22/20 A3002 -10 87 900 000/00 RMK AO2 T02220200
13942KMLU MLU20190919210510709/19/19 21:05:31  5-MIN KMLU 200305Z AUTO 00000KT 10SM CLR 22/21 A3002 -10 90 900 000/00 RMK AO2 T02220206
13942KMLU MLU20190919211010709/19/19 21:10:31  5-MIN KMLU 200310Z AUTO 07003KT 10SM CLR 22/21 A3002 -10 90 900 070/03 RMK AO2 T02220206
13942KMLU MLU20190919211510709/19/19 21:15:31  5-MIN KMLU 200315Z AUTO 08005KT 10SM CLR 22/21 A3003 -10 90 900 080/05 RMK AO2 T02220206
13942KMLU MLU20190919212010709/19/19 21:20:31  5-MIN KMLU 200320Z AUTO 08006KT 10SM CLR 23/21 A3003 -10 87 900 080/06 RMK AO2 T02280206
13942KMLU MLU20190919212510809/19/19 21:25:31  5-MIN KMLU 200325Z AUTO 09006KT 10SM CLR 23/21 A3003 -10 84 1000 090/06 RMK AO2 T02330206
13942KMLU MLU20190919213010809/19/19 21:30:31  5-MIN KMLU 200330Z AUTO 08006KT 10SM CLR 23/21 A3003 -10 84 1000 080/06 RMK AO2 T02330206
13942KMLU MLU20190919213510809/19/19 21:35:31  5-MIN KMLU 200335Z AUTO 10004KT 10SM CLR 23/21 A3003 -20 84 1000 100/04 RMK AO2 T02330206
13942KMLU MLU20190919214010809/19/19 21:40:31  5-MIN KMLU 200340Z AUTO 09003KT 10SM CLR 24/21 A3003 -20 81 1000 090/03 RMK AO2 T02390206
13942KMLU MLU20190919214510809/19/19 21:45:31  5-MIN KMLU 200345Z AUTO 10004KT 10SM CLR 24/21 A3003 -20 81 1000 100/04 RMK AO2 T02390206
13942KMLU MLU20190919215011509/19/19 21:50:31  5-MIN KMLU 200350Z AUTO 09004KT 10SM CLR 24/21 A3003 -20 81 1000 090/04 RMK AO2 SLP167 T02390206
13942KMLU MLU20190919215510809/19/19 21:55:31  5-MIN KMLU 200355Z AUTO 09004KT 10SM CLR 23/21 A3003 -20 84 1000 090/04 RMK AO2 T02330206
13942KMLU MLU20190919220010809/19/19 22:00:31  5-MIN KMLU 200400Z AUTO 08004KT 10SM CLR 24/21 A3002 -10 81 1100 080/04 RMK AO2 T02390206
13942KMLU MLU20190919220510809/19/19 22:05:31  5-MIN KMLU 200405Z AUTO 08004KT 10SM CLR 24/21 A3002 -10 81 1100 080/04 RMK AO2 T02390206
13942KMLU MLU20190919221010809/19/19 22:10:31  5-MIN KMLU 200410Z AUTO 09004KT 10SM CLR 24/21 A3002 -10 81 1100 080/04 RMK AO2 T02390206
13942KMLU MLU20190919221510809/19/19 22:15:31  5-MIN KMLU 200415Z AUTO 00000KT 10SM CLR 24/21 A3003 -10 81 1100 000/00 RMK AO2 T02390206
13942KMLU MLU20190919222010809/19/19 22:20:31  5-MIN KMLU 200420Z AUTO 08003KT 10SM CLR 24/21 A3003 -10 81 1100 070/03 RMK AO2 T02390206
13942KMLU MLU20190919222510809/19/19 22:25:31  5-MIN KMLU 200425Z AUTO 07004KT 10SM CLR 24/21 A3003 -10 81 1100 070/04 RMK AO2 T02390206
13942KMLU MLU20190919223010809/19/19 22:30:31  5-MIN KMLU 200430Z AUTO 08003KT 10SM CLR 24/21 A3003 -10 81 1100 080/03 RMK AO2 T02390206
13942KMLU MLU20190919223510809/19/19 22:35:31  5-MIN KMLU 200435Z AUTO 09003KT 10SM CLR 24/21 A3003 -10 81 1100 090/03 RMK AO2 T02390206
13942KMLU MLU20190919224010809/19/19 22:40:31  5-MIN KMLU 200440Z AUTO 07004KT 10SM CLR 24/21 A3002 -10 81 1100 060/04 RMK AO2 T02390206
13942KMLU MLU20190919224510809/19/19 22:45:31  5-MIN KMLU 200445Z AUTO 08005KT 10SM CLR 24/21 A3002 -10 81 1100 070/05 RMK AO2 T02390206
13942KMLU MLU20190919225011509/19/19 22:50:31  5-MIN KMLU 200450Z AUTO 00000KT 10SM CLR 24/21 A3003 -10 81 1100 000/00 RMK AO2 SLP166 T02390206
13942KMLU MLU20190919225510809/19/19 22:55:31  5-MIN KMLU 200455Z AUTO 00000KT 10SM CLR 24/21 A3002 -10 78 1100 000/00 RMK AO2 T02440206
13942KMLU MLU20190919230011109/19/19 23:00:31  5-MIN KMLU 200500Z AUTO 00000KT 10SM FEW045 24/21 A3002 -10 81 1100 000/00 RMK AO2 T02390206
13942KMLU MLU20190919230511109/19/19 23:05:31  5-MIN KMLU 200505Z AUTO 00000KT 10SM SCT043 24/21 A3002 -10 78 1100 000/00 RMK AO2 T02440206
13942KMLU MLU20190919231011109/19/19 23:10:31  5-MIN KMLU 200510Z AUTO 00000KT 10SM SCT040 24/21 A3002 -10 78 1100 000/00 RMK AO2 T02440206
13942KMLU MLU20190919231511109/19/19 23:15:31  5-MIN KMLU 200515Z AUTO 00000KT 10SM SCT042 24/21 A3002 -10 78 1100 000/00 RMK AO2 T02440206
13942KMLU MLU20190919232011809/19/19 23:20:31  5-MIN KMLU 200520Z AUTO 00000KT 10SM FEW038 SCT046 24/21 A3002 -10 81 1100 000/00 RMK AO2 T02390206
13942KMLU MLU20190919232511809/19/19 23:25:31  5-MIN KMLU 200525Z AUTO 00000KT 10SM SCT038 SCT046 24/21 A3002 -10 81 1100 000/00 RMK AO2 T02390206
13942KMLU MLU20190919233011109/19/19 23:30:31  5-MIN KMLU 200530Z AUTO 00000KT 10SM SCT038 24/21 A3003 -10 81 1100 000/00 RMK AO2 T02390206
13942KMLU MLU20190919233511109/19/19 23:35:31  5-MIN KMLU 200535Z AUTO 00000KT 10SM FEW038 24/21 A3003 -10 81 1100 000/00 RMK AO2 T02390206
13942KMLU MLU20190919234011109/19/19 23:40:31  5-MIN KMLU 200540Z AUTO 00000KT 10SM FEW038 24/21 A3003 -10 81 1100 000/00 RMK AO2 T02390206
13942KMLU MLU20190919234511109/19/19 23:45:31  5-MIN KMLU 200545Z AUTO 00000KT 10SM FEW038 23/21 A3003 -10 84 1000 000/00 RMK AO2 T02330206
13942KMLU MLU20190919235014609/19/19 23:50:31  5-MIN KMLU 200550Z AUTO 00000KT 10SM FEW038 23/21 A3003 -10 84 1000 000/00 RMK AO2 SLP166 T02330206 10261 20222 403390217 52010
13942KMLU MLU20190919235510809/19/19 23:55:31  5-MIN KMLU 200555Z AUTO 00000KT 10SM CLR 24/21 A3003 -10 81 1100 000/00 RMK AO2 T02390206
13942KMLU MLU20190920000010809/20/19 00:00:31  5-MIN KMLU 200600Z AUTO 00000KT 10SM CLR 24/21 A3002 -10 81 1100 000/00 RMK AO2 T02390206
13942KMLU MLU20190920000510809/20/19 00:05:31  5-MIN KMLU 200605Z AUTO 00000KT 10SM CLR 23/21 A3002 -10 84 1000 000/00 RMK AO2 T02330206
13942KMLU MLU20190920001010809/20/19 00:10:31  5-MIN KMLU 200610Z AUTO 00000KT 10SM CLR 23/21 A3003 -10 84 1000 000/00 RMK AO2 T02330206
13942KMLU MLU20190920001510809/20/19 00:15:31  5-MIN KMLU 200615Z AUTO 00000KT 10SM CLR 23/21 A3003 -10 84 1000 000/00 RMK AO2 T02330206
13942KMLU MLU20190920002010709/20/19 00:20:31  5-MIN KMLU 200620Z AUTO 00000KT 10SM CLR 23/21 A3003 -10 87 900 000/00 RMK AO2 T02280206
13942KMLU MLU20190920002510709/20/19 00:25:31  5-MIN KMLU 200625Z AUTO 17003KT 10SM CLR 23/21 A3003 -10 90 900 170/03 RMK AO2 T02280211
13942KMLU MLU20190920003010709/20/19 00:30:31  5-MIN KMLU 200630Z AUTO 18003KT 10SM CLR 23/21 A3002 -10 90 900 180/03 RMK AO2 T02280211
13942KMLU MLU20190920003510809/20/19 00:35:31  5-MIN KMLU 200635Z AUTO 00000KT 10SM CLR 23/21 A3002 -10 84 1000 000/00 RMK AO2 T02330206
13942KMLU MLU20190920004010809/20/19 00:40:31  5-MIN KMLU 200640Z AUTO 00000KT 10SM CLR 23/21 A3002 -10 84 1000 000/00 RMK AO2 T02330206
13942KMLU MLU20190920004510809/20/19 00:45:31  5-MIN KMLU 200645Z AUTO 00000KT 10SM CLR 23/21 A3002 -10 87 1000 000/00 RMK AO2 T02330211
13942KMLU MLU20190920005011509/20/19 00:50:31  5-MIN KMLU 200650Z AUTO 00000KT 10SM CLR 23/21 A3002 -10 87 1000 000/00 RMK AO2 SLP165 T02330211
13942KMLU MLU20190920005510809/20/19 00:55:31  5-MIN KMLU 200655Z AUTO 00000KT 10SM CLR 23/21 A3003 -10 87 1000 000/00 RMK AO2 T02330211
13942KMLU MLU20190920010010709/20/19 01:00:31  5-MIN KMLU 200700Z AUTO 00000KT 10SM CLR 23/21 A3002 -10 90 900 000/00 RMK AO2 T02280211
13942KMLU MLU20190920010510709/20/19 01:05:31  5-MIN KMLU 200705Z AUTO 00000KT 10SM CLR 23/21 A3002 -10 90 900 000/00 RMK AO2 T02280211
13942KMLU MLU20190920011010709/20/19 01:10:31  5-MIN KMLU 200710Z AUTO 00000KT 10SM CLR 23/21 A3002 -10 90 900 000/00 RMK AO2 T02280211
13942KMLU MLU20190920011510709/20/19 01:15:31  5-MIN KMLU 200715Z AUTO 00000KT 10SM CLR 23/21 A3002 -10 87 900 000/00 RMK AO2 T02280206
13942KMLU MLU20190920012010709/20/19 01:20:31  5-MIN KMLU 200720Z AUTO 00000KT 10SM CLR 23/21 A3003 -10 87 900 000/00 RMK AO2 T02280206
13942KMLU MLU20190920012510709/20/19 01:25:31  5-MIN KMLU 200725Z AUTO 00000KT 10SM CLR 23/21 A3002 -10 87 900 000/00 RMK AO2 T02280206
13942KMLU MLU20190920013010709/20/19 01:30:31  5-MIN KMLU 200730Z AUTO 00000KT 10SM CLR 23/21 A3002 -10 87 900 000/00 RMK AO2 T02280206
13942KMLU MLU20190920013510709/20/19 01:35:31  5-MIN KMLU 200735Z AUTO 00000KT 10SM CLR 23/21 A3002 -10 87 900 000/00 RMK AO2 T02280206
13942KMLU MLU20190920014010709/20/19 01:40:31  5-MIN KMLU 200740Z AUTO 00000KT 10SM CLR 23/21 A3002 -10 90 900 000/00 RMK AO2 T02280211
13942KMLU MLU20190920014510709/20/19 01:45:31  5-MIN KMLU 200745Z AUTO 00000KT 10SM CLR 23/21 A3002 -10 90 900 000/00 RMK AO2 T02280211
13942KMLU MLU20190920015011509/20/19 01:50:31  5-MIN KMLU 200750Z AUTO 00000KT 10SM CLR 23/21 A3002 -10 84 1000 000/00 RMK AO2 SLP165 T02330206
13942KMLU MLU20190920015510809/20/19 01:55:31  5-MIN KMLU 200755Z AUTO 10003KT 10SM CLR 23/21 A3002 -10 84 1000 090/03 RMK AO2 T02330206
13942KMLU MLU20190920020010809/20/19 02:00:31  5-MIN KMLU 200800Z AUTO 11003KT 10SM CLR 23/21 A3003 -10 84 1000 110/03 RMK AO2 T02330206
13942KMLU MLU20190920020510809/20/19 02:05:31  5-MIN KMLU 200805Z AUTO 00000KT 10SM CLR 23/21 A3003 -10 84 1000 000/00 RMK AO2 T02330206
13942KMLU MLU20190920021010809/20/19 02:10:31  5-MIN KMLU 200810Z AUTO 11003KT 10SM CLR 24/21 A3003 -10 81 1000 110/03 RMK AO2 T02390206
13942KMLU MLU20190920021510809/20/19 02:15:31  5-MIN KMLU 200815Z AUTO 00000KT 10SM CLR 24/21 A3003 -20 81 1000 000/00 RMK AO2 T02390206
13942KMLU MLU20190920022010809/20/19 02:20:31  5-MIN KMLU 200820Z AUTO VRB03KT 10SM CLR 23/21 A3003 -20 84 1000 VRB/03 RMK AO2 T02330206
13942KMLU MLU20190920022510809/20/19 02:25:31  5-MIN KMLU 200825Z AUTO 00000KT 10SM CLR 23/21 A3003 -20 84 1000 000/00 RMK AO2 T02330206
13942KMLU MLU20190920023010809/20/19 02:30:31  5-MIN KMLU 200830Z AUTO 00000KT 10SM CLR 23/21 A3003 -20 84 1000 000/00 RMK AO2 T02330206
13942KMLU MLU20190920023511109/20/19 02:35:31  5-MIN KMLU 200835Z AUTO 00000KT 10SM SCT110 23/21 A3003 -20 84 1000 000/00 RMK AO2 T02330206
13942KMLU MLU20190920024011109/20/19 02:40:31  5-MIN KMLU 200840Z AUTO 00000KT 10SM FEW110 23/21 A3003 -20 84 1000 000/00 RMK AO2 T02330206
13942KMLU MLU20190920024511109/20/19 02:45:31  5-MIN KMLU 200845Z AUTO 13003KT 10SM SCT110 23/21 A3003 -20 84 1000 130/03 RMK AO2 T02330206
13942KMLU MLU20190920025012409/20/19 02:50:31  5-MIN KMLU 200850Z AUTO 13004KT 10SM BKN110 23/21 A3004 -20 84 1000 130/04 RMK AO2 SLP169 T02330206 51002
13942KMLU MLU20190920025511109/20/19 02:55:31  5-MIN KMLU 200855Z AUTO VRB03KT 10SM BKN110 23/21 A3004 -20 84 1000 VRB/03 RMK AO2 T02330206
13942KMLU MLU20190920030011109/20/19 03:00:31  5-MIN KMLU 200900Z AUTO 14004KT 10SM BKN110 24/21 A3003 -20 84 1000 140/04 RMK AO2 T02390211
13942KMLU MLU20190920030511109/20/19 03:05:31  5-MIN KMLU 200905Z AUTO 00000KT 10SM BKN110 24/21 A3004 -20 84 1000 000/00 RMK AO2 T02390211
13942KMLU MLU20190920031011109/20/19 03:10:31  5-MIN KMLU 200910Z AUTO 00000KT 10SM BKN110 24/21 A3004 -20 84 1000 000/00 RMK AO2 T02390211
13942KMLU MLU20190920031511109/20/19 03:15:31  5-MIN KMLU 200915Z AUTO VRB03KT 10SM BKN110 24/21 A3004 -20 84 1000 VRB/03 RMK AO2 T02390211
13942KMLU MLU20190920032011109/20/19 03:20:31  5-MIN KMLU 200920Z AUTO 00000KT 10SM BKN110 24/21 A3004 -20 84 1000 000/00 RMK AO2 T02390211
13942KMLU MLU20190920032511109/20/19 03:25:31  5-MIN KMLU 200925Z AUTO VRB03KT 10SM OVC110 24/21 A3004 -30 84 1000 VRB/03 RMK AO2 T02390211
13942KMLU MLU20190920033011109/20/19 03:30:31  5-MIN KMLU 200930Z AUTO 14003KT 10SM OVC110 24/21 A3004 -30 84 1000 140/03 RMK AO2 T02390211
13942KMLU MLU20190920033511109/20/19 03:35:31  5-MIN KMLU 200935Z AUTO 15003KT 10SM OVC110 24/21 A3004 -30 84 1000 150/03 RMK AO2 T02390211
13942KMLU MLU20190920034011109/20/19 03:40:31  5-MIN KMLU 200940Z AUTO 15003KT 10SM OVC110 24/21 A3004 -30 84 1000 150/03 RMK AO2 T02390211
13942KMLU MLU20190920034511109/20/19 03:45:31  5-MIN KMLU 200945Z AUTO 00000KT 10SM BKN110 24/21 A3004 -30 84 1000 000/00 RMK AO2 T02390211
13942KMLU MLU20190920035011809/20/19 03:50:31  5-MIN KMLU 200950Z AUTO 00000KT 10SM BKN110 24/21 A3005 -30 84 1000 000/00 RMK AO2 SLP173 T02390211
13942KMLU MLU20190920035511109/20/19 03:55:31  5-MIN KMLU 200955Z AUTO 00000KT 10SM SCT110 24/21 A3005 -30 84 1000 000/00 RMK AO2 T02390211
13942KMLU MLU20190920040011109/20/19 04:00:31  5-MIN KMLU 201000Z AUTO 00000KT 10SM SCT110 23/21 A3005 -30 87 1000 000/00 RMK AO2 T02330211
13942KMLU MLU20190921220511109/21/19 22:05:31  5-MIN KMLU 220405Z AUTO 17006KT 10SM FEW060 26/21 A3011 -80 76 1200 170/06 RMK AO2 T02560211
13942KMLU MLU20190921221011109/21/19 22:10:31  5-MIN KMLU 220410Z AUTO 17005KT 10SM FEW060 26/21 A3011 -80 76 1200 170/05 RMK AO2 T02560211
13942KMLU MLU20190921221511109/21/19 22:15:31  5-MIN KMLU 220415Z AUTO 17005KT 10SM FEW060 26/21 A3010 -80 76 1200 160/05 RMK AO2 T02560211
13942KMLU MLU20190921222011109/21/19 22:20:31  5-MIN KMLU 220420Z AUTO 16004KT 10SM FEW060 25/21 A3011 -80 79 1100 160/04 RMK AO2 T02500211
13942KMLU MLU20190921222511109/21/19 22:25:31  5-MIN KMLU 220425Z AUTO VRB05KT 10SM FEW060 25/21 A3011 -90 79 1100 VRB/05 RMK AO2 T02500211
13942KMLU MLU20190921223010809/21/19 22:30:31  5-MIN KMLU 220430Z AUTO 16005KT 10SM CLR 25/22 A3011 -90 81 1100 160/05 RMK AO2 T02500217
13942KMLU MLU20190921223510809/21/19 22:35:31  5-MIN KMLU 220435Z AUTO 16006KT 10SM CLR 25/22 A3011 -90 81 1100 160/06 RMK AO2 T02500217
13942KMLU MLU20190921224010809/21/19 22:40:31  5-MIN KMLU 220440Z AUTO VRB05KT 10SM CLR 26/22 A3010 -80 79 1200 VRB/05 RMK AO2 T02560217
13942KMLU MLU20190921224510809/21/19 22:45:31  5-MIN KMLU 220445Z AUTO 16005KT 10SM CLR 25/22 A3010 -80 81 1100 160/05 RMK AO2 T02500217
13942KMLU MLU20190921225011509/21/19 22:50:31  5-MIN KMLU 220450Z AUTO 16005KT 10SM CLR 25/22 A3010 -80 81 1100 160/05 RMK AO2 SLP192 T02500217
13942KMLU MLU20190921225510809/21/19 22:55:31  5-MIN KMLU 220455Z AUTO 17005KT 10SM CLR 25/22 A3010 -80 81 1100 170/05 RMK AO2 T02500217
13942KMLU MLU20190921230010809/21/19 23:00:31  5-MIN KMLU 220500Z AUTO 16004KT 10SM CLR 25/22 A3010 -80 81 1100 160/04 RMK AO2 T02500217
13942KMLU MLU20190921230510809/21/19 23:05:31  5-MIN KMLU 220505Z AUTO 16004KT 10SM CLR 25/22 A3010 -80 81 1100 160/04 RMK AO2 T02500217
13942KMLU MLU20190921231010809/21/19 23:10:31  5-MIN KMLU 220510Z AUTO 17003KT 10SM CLR 25/22 A3010 -80 81 1100 160/03 RMK AO2 T02500217
13942KMLU MLU20190921231510809/21/19 23:15:31  5-MIN KMLU 220515Z AUTO 16004KT 10SM CLR 25/22 A3010 -80 81 1100 160/04 RMK AO2 T02500217
13942KMLU MLU20190921232010809/21/19 23:20:31  5-MIN KMLU 220520Z AUTO 17004KT 10SM CLR 25/22 A3010 -80 81 1100 170/04 RMK AO2 T02500217
13942KMLU MLU20190921232510809/21/19 23:25:31  5-MIN KMLU 220525Z AUTO 16004KT 10SM CLR 25/22 A3010 -80 81 1100 160/04 RMK AO2 T02500217
13942KMLU MLU20190921233010809/21/19 23:30:31  5-MIN KMLU 220530Z AUTO 17005KT 10SM CLR 25/22 A3010 -80 81 1100 170/05 RMK AO2 T02500217
13942KMLU MLU20190921233510809/21/19 23:35:31  5-MIN KMLU 220535Z AUTO 17004KT 10SM CLR 24/22 A3010 -80 84 1000 170/04 RMK AO2 T02440217
13942KMLU MLU20190921234010809/21/19 23:40:31  5-MIN KMLU 220540Z AUTO 17004KT 10SM CLR 24/22 A3010 -80 84 1000 170/04 RMK AO2 T02440217
13942KMLU MLU20190921234510809/21/19 23:45:31  5-MIN KMLU 220545Z AUTO 18004KT 10SM CLR 24/22 A3010 -80 84 1000 180/04 RMK AO2 T02440217
13942KMLU MLU20190921235014309/21/19 23:50:31  5-MIN KMLU 220550Z AUTO 17005KT 10SM CLR 24/21 A3010 -80 81 1000 170/05 RMK AO2 SLP190 T02440211 10294 20233 403390211 53015
13942KMLU MLU20190921235510809/21/19 23:55:31  5-MIN KMLU 220555Z AUTO 18005KT 10SM CLR 24/21 A3010 -80 81 1000 170/05 RMK AO2 T02440211
13942KMLU MLU20190922000011109/22/19 00:00:31  5-MIN KMLU 220600Z AUTO 17006KT 10SM FEW055 24/21 A3010 -80 81 1000 170/06 RMK AO2 T02440211
13942KMLU MLU20190922000511109/22/19 00:05:31  5-MIN KMLU 220605Z AUTO VRB04KT 10SM FEW055 24/21 A3010 -80 81 1000 VRB/04 RMK AO2 T02440211
13942KMLU MLU20190922001011109/22/19 00:10:31  5-MIN KMLU 220610Z AUTO 17004KT 10SM FEW055 24/21 A3010 -80 81 1000 170/04 RMK AO2 T02440211
13942KMLU MLU20190922001511109/22/19 00:15:31  5-MIN KMLU 220615Z AUTO 18004KT 10SM FEW055 24/21 A3010 -80 81 1000 170/04 RMK AO2 T02440211
13942KMLU MLU20190922002011809/22/19 00:20:31  5-MIN KMLU 220620Z AUTO 17003KT 10SM FEW055 FEW080 24/21 A3011 -80 81 1000 170/03 RMK AO2 T02440211
13942KMLU MLU20190922002511809/22/19 00:25:31  5-MIN KMLU 220625Z AUTO 16003KT 10SM FEW055 FEW080 24/21 A3010 -80 84 1000 160/03 RMK AO2 T02390211
13942KMLU MLU20190922003011109/22/19 00:30:31  5-MIN KMLU 220630Z AUTO 00000KT 10SM FEW080 24/21 A3010 -80 84 1000 000/00 RMK AO2 T02390211
13942KMLU MLU20190922003511109/22/19 00:35:31  5-MIN KMLU 220635Z AUTO 00000KT 10SM FEW080 24/21 A3010 -80 81 1000 000/00 RMK AO2 T02440211
13942KMLU MLU20190922004011109/22/19 00:40:31  5-MIN KMLU 220640Z AUTO 00000KT 10SM FEW080 24/21 A3011 -90 84 1000 000/00 RMK AO2 T02390211
13942KMLU MLU20190922004511109/22/19 00:45:31  5-MIN KMLU 220645Z AUTO 00000KT 10SM FEW080 24/21 A3011 -90 84 1000 000/00 RMK AO2 T02390211
13942KMLU MLU20190922005011809/22/19 00:50:31  5-MIN KMLU 220650Z AUTO 00000KT 10SM FEW065 24/21 A3011 -90 84 1000 000/00 RMK AO2 SLP193 T02390211
13942KMLU MLU20190922005511009/22/19 00:55:31  5-MIN KMLU 220655Z AUTO 00000KT 10SM FEW065 23/21 A3011 -90 87 900 000/00 RMK AO2 T02330211
13942KMLU MLU20190922010011009/22/19 01:00:31  5-MIN KMLU 220700Z AUTO 00000KT 10SM FEW065 23/21 A3011 -90 87 900 000/00 RMK AO2 T02330211
13942KMLU MLU20190922010511009/22/19 01:05:31  5-MIN KMLU 220705Z AUTO 00000KT 10SM FEW065 23/21 A3011 -90 87 900 000/00 RMK AO2 T02330211
13942KMLU MLU20190922011011009/22/19 01:10:31  5-MIN KMLU 220710Z AUTO 00000KT 10SM FEW065 23/21 A3011 -80 87 900 000/00 RMK AO2 T02330211
13942KMLU MLU20190922011511009/22/19 01:15:31  5-MIN KMLU 220715Z AUTO 00000KT 10SM FEW065 23/21 A3010 -80 90 800 000/00 RMK AO2 T02280211
13942KMLU MLU20190922012010709/22/19 01:20:31  5-MIN KMLU 220720Z AUTO 00000KT 10SM CLR 23/21 A3010 -80 90 800 000/00 RMK AO2 T02280211
13942KMLU MLU20190922012510709/22/19 01:25:31  5-MIN KMLU 220725Z AUTO 00000KT 10SM CLR 23/21 A3010 -80 90 800 000/00 RMK AO2 T02280211
13942KMLU MLU20190922013010709/22/19 01:30:31  5-MIN KMLU 220730Z AUTO 00000KT 10SM CLR 23/21 A3010 -80 90 800 000/00 RMK AO2 T02280211
13942KMLU MLU20190922013510709/22/19 01:35:31  5-MIN KMLU 220735Z AUTO 00000KT 10SM CLR 23/21 A3010 -80 90 800 000/00 RMK AO2 T02280211
13942KMLU MLU20190922014010709/22/19 01:40:31  5-MIN KMLU 220740Z AUTO 00000KT 10SM CLR 22/21 A3010 -80 93 800 000/00 RMK AO2 T02220211
13942KMLU MLU20190922014511009/22/19 01:45:31  5-MIN KMLU 220745Z AUTO 00000KT 10SM FEW070 22/21 A3010 -80 93 800 000/00 RMK AO2 T02220211
13942KMLU MLU20190922015011709/22/19 01:50:31  5-MIN KMLU 220750Z AUTO 00000KT 10SM SCT070 23/21 A3010 -80 90 800 000/00 RMK AO2 SLP191 T02280211
13942KMLU MLU20190922015511009/22/19 01:55:31  5-MIN KMLU 220755Z AUTO 00000KT 10SM BKN070 23/21 A3010 -80 87 900 000/00 RMK AO2 T02330211
13942KMLU MLU20190922020011009/22/19 02:00:31  5-MIN KMLU 220800Z AUTO 00000KT 10SM BKN070 23/22 A3010 -80 90 900 000/00 RMK AO2 T02330217
13942KMLU MLU20190922020511009/22/19 02:05:31  5-MIN KMLU 220805Z AUTO 00000KT 10SM BKN070 23/22 A3010 -80 90 900 000/00 RMK AO2 T02330217
13942KMLU MLU20190922021011009/22/19 02:10:31  5-MIN KMLU 220810Z AUTO 00000KT 10SM OVC070 23/22 A3010 -80 90 900 000/00 RMK AO2 T02330217
13942KMLU MLU20190922021511009/22/19 02:15:31  5-MIN KMLU 220815Z AUTO 00000KT 10SM OVC070 23/22 A3010 -80 90 900 000/00 RMK AO2 T02330217
13942KMLU MLU20190922022011009/22/19 02:20:31  5-MIN KMLU 220820Z AUTO 00000KT 10SM OVC070 23/22 A3010 -80 90 900 000/00 RMK AO2 T02330217
13942KMLU MLU20190922022511009/22/19 02:25:31  5-MIN KMLU 220825Z AUTO 00000KT 10SM OVC070 23/22 A3010 -80 90 900 000/00 RMK AO2 T02330217
13942KMLU MLU20190922023011009/22/19 02:30:31  5-MIN KMLU 220830Z AUTO 00000KT 10SM OVC070 23/22 A3010 -80 90 900 000/00 RMK AO2 T02330217
13942KMLU MLU20190922023511009/22/19 02:35:31  5-MIN KMLU 220835Z AUTO 00000KT 10SM OVC070 23/22 A3010 -80 90 900 000/00 RMK AO2 T02330217
13942KMLU MLU20190922024011009/22/19 02:40:31  5-MIN KMLU 220840Z AUTO 00000KT 10SM OVC070 23/22 A3010 -80 90 900 000/00 RMK AO2 T02330217
13942KMLU MLU20190922024511009/22/19 02:45:31  5-MIN KMLU 220845Z AUTO 00000KT 10SM OVC070 23/22 A3010 -80 90 900 000/00 RMK AO2 T02330217
13942KMLU MLU20190922025012309/22/19 02:50:31  5-MIN KMLU 220850Z AUTO 00000KT 10SM OVC070 23/21 A3010 -80 87 900 000/00 RMK AO2 SLP190 T02330211 58001
13942KMLU MLU20190922025511009/22/19 02:55:31  5-MIN KMLU 220855Z AUTO 00000KT 10SM OVC070 23/21 A3010 -80 87 900 000/00 RMK AO2 T02330211
13942KMLU MLU20190922030011009/22/19 03:00:31  5-MIN KMLU 220900Z AUTO 00000KT 10SM OVC070 23/21 A3010 -80 90 800 000/00 RMK AO2 T02280211
13942KMLU MLU20190922030511009/22/19 03:05:31  5-MIN KMLU 220905Z AUTO 00000KT 10SM OVC070 23/21 A3010 -80 90 800 000/00 RMK AO2 T02280211
13942KMLU MLU20190922031011009/22/19 03:10:31  5-MIN KMLU 220910Z AUTO 00000KT 10SM OVC070 23/21 A3010 -80 90 800 000/00 RMK AO2 T02280211
13942KMLU MLU20190922031511009/22/19 03:15:31  5-MIN KMLU 220915Z AUTO 00000KT 10SM BKN070 23/21 A3010 -80 90 800 000/00 RMK AO2 T02280211
13942KMLU MLU20190922032011009/22/19 03:20:31  5-MIN KMLU 220920Z AUTO 00000KT 10SM BKN070 23/21 A3010 -80 90 800 000/00 RMK AO2 T02280211
13942KMLU MLU20190922032511009/22/19 03:25:31  5-MIN KMLU 220925Z AUTO 00000KT 10SM SCT070 23/21 A3009 -70 90 800 000/00 RMK AO2 T02280211
13942KMLU MLU20190922033011009/22/19 03:30:31  5-MIN KMLU 220930Z AUTO 00000KT 10SM FEW070 23/21 A3010 -80 90 800 000/00 RMK AO2 T02280211
13942KMLU MLU20190922033511009/22/19 03:35:31  5-MIN KMLU 220935Z AUTO 00000KT 10SM FEW070 22/21 A3010 -80 93 800 000/00 RMK AO2 T02220211
13942KMLU MLU20190922034010709/22/19 03:40:31  5-MIN KMLU 220940Z AUTO 00000KT 10SM CLR 22/21 A3010 -80 93 800 000/00 RMK AO2 T02220211
13942KMLU MLU20190922034510709/22/19 03:45:31  5-MIN KMLU 220945Z AUTO 00000KT 10SM CLR 22/21 A3010 -80 93 800 000/00 RMK AO2 T02220211
13942KMLU MLU20190922035011409/22/19 03:50:31  5-MIN KMLU 220950Z AUTO 00000KT 10SM CLR 22/21 A3010 -80 93 800 000/00 RMK AO2 SLP190 T02220211
13942KMLU MLU20190922035510709/22/19 03:55:31  5-MIN KMLU 220955Z AUTO 00000KT 10SM CLR 22/21 A3010 -80 93 800 000/00 RMK AO2 T02220211
13942KMLU MLU20190922040010709/22/19 04:00:31  5-MIN KMLU 221000Z AUTO 00000KT 10SM CLR 22/21 A3010 -80 93 800 000/00 RMK AO2 T02220211
13942KMLU MLU20190922040510709/22/19 04:05:31  5-MIN KMLU 221005Z AUTO 00000KT 10SM CLR 22/21 A3010 -80 93 800 000/00 RMK AO2 T02220211
13942KMLU MLU20190922041010709/22/19 04:10:31  5-MIN KMLU 221010Z AUTO 00000KT 10SM CLR 22/21 A3010 -80 97 700 000/00 RMK AO2 T02170211
13942KMLU MLU20190922041510709/22/19 04:15:31  5-MIN KMLU 221015Z AUTO 17003KT 10SM CLR 22/21 A3010 -80 93 800 160/03 RMK AO2 T02220211
13942KMLU MLU20190922042010709/22/19 04:20:31  5-MIN KMLU 221020Z AUTO 00000KT 10SM CLR 22/21 A3010 -80 93 800 000/00 RMK AO2 T02220211
13942KMLU MLU20190922042510709/22/19 04:25:31  5-MIN KMLU 221025Z AUTO 17003KT 10SM CLR 22/21 A3010 -80 93 800 160/03 RMK AO2 T02220211
13942KMLU MLU20190922043011009/22/19 04:30:31  5-MIN KMLU 221030Z AUTO 16003KT 10SM SCT055 22/21 A3010 -80 93 800 160/03 RMK AO2 T02220211
13942KMLU MLU20190922043511009/22/19 04:35:31  5-MIN KMLU 221035Z AUTO 00000KT 10SM BKN055 22/21 A3010 -80 93 800 000/00 RMK AO2 T02220211
13942KMLU MLU20190922044010509/22/19 04:40:31  5-MIN KMLU 221040Z 15003KT 10SM BKN055 23/21 A3010 -80 90 800 150/03 RMK AO2 T02280211
13942KMLU MLU20190922044510509/22/19 04:45:31  5-MIN KMLU 221045Z VRB03KT 10SM BKN055 23/21 A3010 -80 90 800 VRB/03 RMK AO2 T02280211
13942KMLU MLU20190922045011209/22/19 04:50:31  5-MIN KMLU 221050Z 00000KT 10SM SCT055 23/21 A3010 -80 90 800 000/00 RMK AO2 SLP191 T02280211
13942KMLU MLU20190922045510509/22/19 04:55:31  5-MIN KMLU 221055Z 17003KT 10SM BKN055 23/21 A3010 -80 90 800 170/03 RMK AO2 T02280211
13942KMLU MLU20190922050010509/22/19 05:00:31  5-MIN KMLU 221100Z 16003KT 10SM BKN055 22/21 A3010 -80 93 800 160/03 RMK AO2 T02220211
13942KMLU MLU20190922050510509/22/19 05:05:31  5-MIN KMLU 221105Z 00000KT 10SM SCT055 23/21 A3010 -80 90 800 000/00 RMK AO2 T02280211
13942KMLU MLU20190922051010509/22/19 05:10:31  5-MIN KMLU 221110Z 16003KT 10SM FEW055 23/21 A3010 -80 90 800 160/03 RMK AO2 T02280211
13942KMLU MLU20190922051510509/22/19 05:15:31  5-MIN KMLU 221115Z 00000KT 10SM FEW055 23/21 A3010 -80 90 800 000/00 RMK AO2 T02280211
13942KMLU MLU20190922052010509/22/19 05:20:31  5-MIN KMLU 221120Z 00000KT 10SM FEW055 23/21 A3010 -80 90 800 000/00 RMK AO2 T02280211
13942KMLU MLU20190922052510509/22/19 05:25:31  5-MIN KMLU 221125Z 00000KT 10SM FEW055 22/21 A3010 -80 93 800 000/00 RMK AO2 T02220211
13942KMLU MLU20190922053010209/22/19 05:30:31  5-MIN KMLU 221130Z 00000KT 10SM CLR 22/21 A3010 -80 93 800 000/00 RMK AO2 T02220211
13942KMLU MLU20190922053510209/22/19 05:35:31  5-MIN KMLU 221135Z VRB03KT 10SM CLR 22/21 A3010 -80 93 800 VRB/03 RMK AO2 T02220211
13942KMLU MLU20190922054010209/22/19 05:40:31  5-MIN KMLU 221140Z VRB03KT 10SM CLR 22/21 A3010 -80 93 800 VRB/03 RMK AO2 T02220211
13942KMLU MLU20190922054510209/22/19 05:45:31  5-MIN KMLU 221145Z VRB03KT 10SM CLR 22/21 A3010 -80 93 800 VRB/03 RMK AO2 T02220211
13942KMLU MLU20190922055012709/22/19 05:50:31  5-MIN KMLU 221150Z 00000KT 10SM CLR 22/21 A3010 -80 93 800 000/00 RMK AO2 SLP193 T02220211 10244 20217 58000
13942KMLU MLU20190922055510209/22/19 05:55:31  5-MIN KMLU 221155Z 14003KT 10SM CLR 22/21 A3010 -80 93 800 130/03 RMK AO2 T02220211
13942KMLU MLU20190922060010209/22/19 06:00:31  5-MIN KMLU 221200Z 00000KT 10SM CLR 22/21 A3010 -80 93 800 000/00 RMK AO2 T02220211
13942KMLU MLU20190922060510209/22/19 06:05:31  5-MIN KMLU 221205Z 00000KT 10SM CLR 22/21 A3011 -90 93 800 000/00 RMK AO2 T02220211
13942KMLU MLU20190922061010209/22/19 06:10:31  5-MIN KMLU 221210Z 13003KT 10SM CLR 22/21 A3011 -90 93 800 130/03 RMK AO2 T02220211
13942KMLU MLU20190922061510209/22/19 06:15:31  5-MIN KMLU 221215Z 13003KT 10SM CLR 22/21 A3011 -90 93 800 130/03 RMK AO2 T02220211
13942KMLU MLU20190922062010209/22/19 06:20:31  5-MIN KMLU 221220Z 14003KT 10SM CLR 23/21 A3011 -90 90 800 130/03 RMK AO2 T02280211
13942KMLU MLU20190922062510209/22/19 06:25:31  5-MIN KMLU 221225Z VRB03KT 10SM CLR 23/21 A3011 -90 90 800 VRB/03 RMK AO2 T02280211
13942KMLU MLU20190922063010209/22/19 06:30:31  5-MIN KMLU 221230Z VRB03KT 10SM CLR 23/21 A3011 -90 90 800 VRB/03 RMK AO2 T02280211
13942KMLU MLU20190922063510209/22/19 06:35:31  5-MIN KMLU 221235Z VRB03KT 10SM CLR 23/21 A3011 -90 90 800 VRB/03 RMK AO2 T02280211
13942KMLU MLU20190922064010209/22/19 06:40:31  5-MIN KMLU 221240Z 00000KT 10SM CLR 23/21 A3011 -90 90 800 000/00 RMK AO2 T02280211
13942KMLU MLU20190922064510209/22/19 06:45:31  5-MIN KMLU 221245Z 00000KT 10SM CLR 23/22 A3011 -90 90 900 000/00 RMK AO2 T02330217
13942KMLU MLU20190922065010909/22/19 06:50:31  5-MIN KMLU 221250Z 15003KT 10SM CLR 23/22 A3011 -90 90 900 150/03 RMK AO2 SLP196 T02330217
13942KMLU MLU20190922065510209/22/19 06:55:31  5-MIN KMLU 221255Z 15004KT 10SM CLR 23/22 A3012 -90 90 900 150/04 RMK AO2 T02330217
13942KMLU MLU20190922070010309/22/19 07:00:31  5-MIN KMLU 221300Z VRB04KT 10SM CLR 23/22 A3012 -100 90 900 VRB/04 RMK AO2 T02330217
13942KMLU MLU20190922070510309/22/19 07:05:31  5-MIN KMLU 221305Z VRB03KT 10SM CLR 24/22 A3012 -100 87 900 VRB/03 RMK AO2 T02390217
13942KMLU MLU20190922071010309/22/19 07:10:31  5-MIN KMLU 221310Z 15003KT 10SM CLR 24/22 A3012 -100 87 900 150/03 RMK AO2 T02390217
13942KMLU MLU20190922071510309/22/19 07:15:31  5-MIN KMLU 221315Z 17003KT 10SM CLR 24/22 A3012 -100 87 900 170/03 RMK AO2 T02390217
13942KMLU MLU20190922072010409/22/19 07:20:31  5-MIN KMLU 221320Z VRB03KT 10SM CLR 24/22 A3013 -100 84 1000 VRB/03 RMK AO2 T02440217
13942KMLU MLU20190922072510409/22/19 07:25:31  5-MIN KMLU 221325Z VRB03KT 10SM CLR 24/22 A3013 -100 84 1000 VRB/03 RMK AO2 T02440217
13942KMLU MLU20190922073010409/22/19 07:30:31  5-MIN KMLU 221330Z VRB04KT 10SM CLR 25/22 A3013 -110 81 1100 VRB/04 RMK AO2 T02500217
13942KMLU MLU20190922073510409/22/19 07:35:31  5-MIN KMLU 221335Z 16004KT 10SM CLR 25/22 A3013 -110 81 1100 160/04 RMK AO2 T02500217
13942KMLU MLU20190922074010409/22/19 07:40:31  5-MIN KMLU 221340Z 16004KT 10SM CLR 26/22 A3013 -100 79 1100 160/04 RMK AO2 T02560217
13942KMLU MLU20190922074510409/22/19 07:45:31  5-MIN KMLU 221345Z VRB04KT 10SM CLR 26/22 A3013 -110 79 1100 VRB/04 RMK AO2 T02560217
13942KMLU MLU20190922075011109/22/19 07:50:31  5-MIN KMLU 221350Z 16005KT 10SM CLR 26/22 A3013 -110 76 1200 160/05 RMK AO2 SLP202 T02610217
13942KMLU MLU20190922075510409/22/19 07:55:31  5-MIN KMLU 221355Z 17005KT 10SM CLR 26/22 A3013 -110 76 1200 170/05 RMK AO2 T02610217
13942KMLU MLU20190922080010409/22/19 08:00:31  5-MIN KMLU 221400Z 19006KT 10SM CLR 26/22 A3014 -110 76 1200 190/06 RMK AO2 T02610217
13942KMLU MLU20190922080510709/22/19 08:05:31  5-MIN KMLU 221405Z 18007KT 10SM FEW055 27/22 A3013 -110 73 1200 180/07 RMK AO2 T02670217
13942KMLU MLU20190922081010709/22/19 08:10:31  5-MIN KMLU 221410Z 17006KT 10SM FEW055 27/22 A3013 -110 73 1200 170/06 RMK AO2 T02670217
13942KMLU MLU20190922081510409/22/19 08:15:31  5-MIN KMLU 221415Z VRB05KT 10SM CLR 27/22 A3013 -110 71 1300 VRB/05 RMK AO2 T02720217
13942KMLU MLU20190922082010409/22/19 08:20:31  5-MIN KMLU 221420Z 19005KT 10SM CLR 27/22 A3013 -110 71 1300 180/05 RMK AO2 T02720217
13942KMLU MLU20190922082510409/22/19 08:25:31  5-MIN KMLU 221425Z 19008KT 10SM CLR 28/22 A3013 -110 69 1400 190/08 RMK AO2 T02780217
13942KMLU MLU20190922083010409/22/19 08:30:31  5-MIN KMLU 221430Z 19009KT 10SM CLR 28/21 A3013 -110 66 1400 190/09 RMK AO2 T02780211
13942KMLU MLU20190922083511009/22/19 08:35:31  5-MIN KMLU 221435Z 19009G14KT 10SM CLR 28/21 A3013 -110 64 1400 190/09G14 RMK AO2 T02830211
13942KMLU MLU20190922084011009/22/19 08:40:31  5-MIN KMLU 221440Z 20010G14KT 10SM CLR 28/21 A3013 -110 64 1400 200/10G14 RMK AO2 T02830211
13942KMLU MLU20190922084510409/22/19 08:45:31  5-MIN KMLU 221445Z 19009KT 10SM CLR 28/21 A3013 -110 62 1400 190/09 RMK AO2 T02830206
13942KMLU MLU20190922085011709/22/19 08:50:31  5-MIN KMLU 221450Z 19011KT 10SM CLR 28/21 A3013 -110 62 1400 180/11 RMK AO2 SLP201 T02830206 53003
13942KMLU MLU20190922085510409/22/19 08:55:31  5-MIN KMLU 221455Z 18010KT 10SM CLR 28/20 A3013 -100 60 1400 180/10 RMK AO2 T02830200
13942KMLU MLU20190922090010409/22/19 09:00:31  5-MIN KMLU 221500Z 17009KT 10SM CLR 29/21 A3013 -110 60 1500 170/09 RMK AO2 T02890206
13942KMLU MLU20190922090512009/22/19 09:05:31  5-MIN KMLU 221505Z 16009KT 130V190 10SM CLR 28/20 A3013 -110 60 1400 160/09 130V190 RMK AO2 T02830200
13942KMLU MLU20190922091011009/22/19 09:10:31  5-MIN KMLU 221510Z 18011G16KT 10SM CLR 29/20 A3013 -100 58 1500 180/11G16 RMK AO2 T02890200
13942KMLU MLU20190922091511009/22/19 09:15:31  5-MIN KMLU 221515Z 18008G16KT 10SM CLR 29/20 A3013 -100 58 1500 180/08G16 RMK AO2 T02890200
13942KMLU MLU20190922092010409/22/19 09:20:31  5-MIN KMLU 221520Z 18009KT 10SM CLR 29/21 A3012 -100 60 1500 180/09 RMK AO2 T02890206
13942KMLU MLU20190922092510409/22/19 09:25:31  5-MIN KMLU 221525Z 18010KT 10SM CLR 29/21 A3012 -100 60 1500 180/10 RMK AO2 T02890206
13942KMLU MLU20190922093010409/22/19 09:30:31  5-MIN KMLU 221530Z 16007KT 10SM CLR 29/20 A3012 -100 56 1600 160/07 RMK AO2 T02940200
13942KMLU MLU20190922093510409/22/19 09:35:31  5-MIN KMLU 221535Z 19009KT 10SM CLR 29/20 A3012 -100 56 1600 190/09 RMK AO2 T02940200
13942KMLU MLU20190922094010409/22/19 09:40:31  5-MIN KMLU 221540Z 18008KT 10SM CLR 29/20 A3012 -100 56 1600 180/08 RMK AO2 T02940200
13942KMLU MLU20190922094512009/22/19 09:45:31  5-MIN KMLU 221545Z 17008KT 120V190 10SM CLR 29/21 A3012 -100 58 1600 170/08 120V190 RMK AO2 T02940206
13942KMLU MLU20190922095011109/22/19 09:50:31  5-MIN KMLU 221550Z 18007KT 10SM CLR 30/21 A3012 -100 56 1600 180/07 RMK AO2 SLP198 T03000206
13942KMLU MLU20190922095510409/22/19 09:55:31  5-MIN KMLU 221555Z 20009KT 10SM CLR 30/21 A3012 -100 56 1600 190/09 RMK AO2 T03000206
13942KMLU MLU20190922100010409/22/19 10:00:31  5-MIN KMLU 221600Z 19008KT 10SM CLR 30/20 A3012 -100 54 1600 190/08 RMK AO2 T03000200
13942KMLU MLU20190922100510409/22/19 10:05:31  5-MIN KMLU 221605Z 19009KT 10SM CLR 31/20 A3012 -100 52 1700 190/09 RMK AO2 T03060200
13942KMLU MLU20190922101010409/22/19 10:10:31  5-MIN KMLU 221610Z 19009KT 10SM CLR 31/20 A3012 -100 52 1700 190/09 RMK AO2 T03060200
13942KMLU MLU20190922101510309/22/19 10:15:31  5-MIN KMLU 221615Z VRB06KT 10SM CLR 31/20 A3012 -90 52 1700 VRB/06 RMK AO2 T03060200
13942KMLU MLU20190922102010309/22/19 10:20:31  5-MIN KMLU 221620Z 21013KT 10SM CLR 31/20 A3012 -90 51 1800 210/13 RMK AO2 T03110200
13942KMLU MLU20190922102511209/22/19 10:25:31  5-MIN KMLU 221625Z 18008G16KT 10SM FEW070 31/19 A3011 -90 51 1700 180/08G16 RMK AO2 T03060194
13942KMLU MLU20190922103012209/22/19 10:30:31  5-MIN KMLU 221630Z 16007KT 120V180 10SM FEW070 31/20 A3011 -90 52 1700 160/07 120V180 RMK AO2 T03060200
13942KMLU MLU20190922103511909/22/19 10:35:31  5-MIN KMLU 221635Z 17007KT 140V200 10SM CLR 31/20 A3011 -90 52 1700 170/07 140V200 RMK AO2 T03060200
13942KMLU MLU20190922104010309/22/19 10:40:31  5-MIN KMLU 221640Z 17006KT 10SM CLR 31/20 A3011 -90 51 1800 170/06 RMK AO2 T03110200
13942KMLU MLU20190922104510309/22/19 10:45:31  5-MIN KMLU 221645Z 20009KT 10SM CLR 31/20 A3011 -90 51 1800 200/09 RMK AO2 T03110200
13942KMLU MLU20190922105011009/22/19 10:50:31  5-MIN KMLU 221650Z 20010KT 10SM CLR 32/20 A3010 -80 49 1800 200/10 RMK AO2 SLP192 T03170200
13942KMLU MLU20190922105510309/22/19 10:55:31  5-MIN KMLU 221655Z 20010KT 10SM CLR 31/20 A3010 -80 51 1800 200/10 RMK AO2 T03110200
13942KMLU MLU20190922110010309/22/19 11:00:31  5-MIN KMLU 221700Z 19007KT 10SM CLR 32/20 A3010 -80 49 1800 190/07 RMK AO2 T03170200
13942KMLU MLU20190922110510309/22/19 11:05:31  5-MIN KMLU 221705Z 20010KT 10SM CLR 32/20 A3010 -80 49 1800 200/10 RMK AO2 T03170200
13942KMLU MLU20190922111010309/22/19 11:10:31  5-MIN KMLU 221710Z 23009KT 10SM CLR 32/21 A3010 -80 49 1900 230/09 RMK AO2 T03220206
13942KMLU MLU20190922111510309/22/19 11:15:31  5-MIN KMLU 221715Z VRB05KT 10SM CLR 32/21 A3010 -80 51 1800 VRB/05 RMK AO2 T03170206
13942KMLU MLU20190922112010309/22/19 11:20:31  5-MIN KMLU 221720Z 20006KT 10SM CLR 32/21 A3009 -70 49 1900 200/06 RMK AO2 T03220206
13942KMLU MLU20190922112510309/22/19 11:25:31  5-MIN KMLU 221725Z 22007KT 10SM CLR 32/20 A3009 -70 49 1900 220/07 RMK AO2 T03170200
13942KMLU MLU20190922113009309/22/19 11:30:31  5-MIN KMLU 221730Z 10SM CLR 32/20 A3009 -70 48 1900 M /M RMK AO2 T03220200
13942KMLU MLU20190922113510309/22/19 11:35:31  5-MIN KMLU 221735Z VRB04KT 10SM CLR 32/19 A3008 -60 47 1900 VRB/04 RMK AO2 T03170194
13942KMLU MLU20190922114010309/22/19 11:40:31  5-MIN KMLU 221740Z 17007KT 10SM CLR 33/20 A3008 -60 46 2000 160/07 RMK AO2 T03280200
13942KMLU MLU20190922114510309/22/19 11:45:31  5-MIN KMLU 221745Z 19008KT 10SM CLR 33/20 A3008 -60 46 2000 190/08 RMK AO2 T03280200
13942KMLU MLU20190922115012809/22/19 11:50:31  5-MIN KMLU 221750Z 18008KT 10SM CLR 32/20 A3008 -60 48 1900 170/08 RMK AO2 SLP183 T03220200 10328 20222 50008
13942KMLU MLU20190922115510309/22/19 11:55:31  5-MIN KMLU 221755Z 17005KT 10SM CLR 33/20 A3008 -60 46 2000 160/05 RMK AO2 T03280200
13942KMLU MLU20190922120010309/22/19 12:00:31  5-MIN KMLU 221800Z 16006KT 10SM CLR 32/19 A3007 -50 46 1900 160/06 RMK AO2 T03220194
13942KMLU MLU20190922120510309/22/19 12:05:31  5-MIN KMLU 221805Z 17007KT 10SM CLR 33/20 A3007 -50 46 2000 170/07 RMK AO2 T03280200
13942KMLU MLU20190922121010909/22/19 12:10:31  5-MIN KMLU 221810Z 21010G15KT 10SM CLR 33/19 A3007 -50 44 2000 210/10G15 RMK AO2 T03280194
13942KMLU MLU20190922121510309/22/19 12:15:31  5-MIN KMLU 221815Z 20009KT 10SM CLR 33/20 A3006 -50 45 2100 200/09 RMK AO2 T03330200
13942KMLU MLU20190922122010309/22/19 12:20:31  5-MIN KMLU 221820Z 21009KT 10SM CLR 33/19 A3006 -50 44 2000 210/09 RMK AO2 T03280194
13942KMLU MLU20190922122510609/22/19 12:25:31  5-MIN KMLU 221825Z 19011KT 10SM FEW085 33/19 A3006 -40 43 2100 190/11 RMK AO2 T03330194
13942KMLU MLU20190922123010609/22/19 12:30:31  5-MIN KMLU 221830Z 20009KT 10SM FEW085 33/19 A3006 -40 43 2100 200/09 RMK AO2 T03330194
13942KMLU MLU20190922123512209/22/19 12:35:31  5-MIN KMLU 221835Z 17007KT 130V200 10SM FEW085 33/19 A3006 -40 43 2100 170/07 130V200 RMK AO2 T03330194
13942KMLU MLU20190922124011209/22/19 12:40:31  5-MIN KMLU 221840Z 22011G16KT 10SM FEW085 33/20 A3006 -40 45 2100 220/11G16 RMK AO2 T03330200
13942KMLU MLU20190922124511209/22/19 12:45:31  5-MIN KMLU 221845Z 16008G16KT 10SM FEW085 34/20 A3005 -40 43 2100 150/08G16 RMK AO2 T03390200
13942KMLU MLU20190922125011909/22/19 12:50:31  5-MIN KMLU 221850Z 21010G15KT 10SM FEW085 34/20 A3005 -30 43 2100 210/10G15 RMK AO2 SLP174 T03390200
13942KMLU MLU20190922125510609/22/19 12:55:31  5-MIN KMLU 221855Z 22007KT 10SM FEW080 33/19 A3005 -30 43 2100 220/07 RMK AO2 T03330194
13942KMLU MLU20190922130010609/22/19 13:00:31  5-MIN KMLU 221900Z 18009KT 10SM FEW080 33/19 A3004 -30 44 2000 180/09 RMK AO2 T03280194
13942KMLU MLU20190922130510609/22/19 13:05:31  5-MIN KMLU 221905Z 21008KT 10SM FEW080 33/19 A3005 -30 43 2100 210/08 RMK AO2 T03330194
13942KMLU MLU20190922131011309/22/19 13:10:31  5-MIN KMLU 221910Z 17007KT 10SM FEW060 FEW080 33/19 A3004 -20 43 2100 170/07 RMK AO2 T03330194
13942KMLU MLU20190922131510309/22/19 13:15:31  5-MIN KMLU 221915Z 10SM SCT060 SCT080 35/20 A3004 -20 40 2300 M /M RMK AO2 T03500200
13942KMLU MLU20190922132011309/22/19 13:20:31  5-MIN KMLU 221920Z 19009KT 10SM SCT060 BKN080 33/19 A3004 -20 43 2100 190/09 RMK AO2 T03330194
13942KMLU MLU20190922132511309/22/19 13:25:31  5-MIN KMLU 221925Z 22006KT 10SM FEW060 SCT080 33/19 A3004 -20 43 2000 220/06 RMK AO2 T03280189
13942KMLU MLU20190922133011309/22/19 13:30:31  5-MIN KMLU 221930Z 19006KT 10SM FEW065 BKN080 33/19 A3003 -20 44 2000 190/06 RMK AO2 T03280194
13942KMLU MLU20190922133511309/22/19 13:35:31  5-MIN KMLU 221935Z 21010KT 10SM SCT065 BKN080 33/19 A3003 -20 43 2100 210/10 RMK AO2 T03330194
13942KMLU MLU20190922134011809/22/19 13:40:31  5-MIN KMLU 221940Z AUTO 22008KT 10SM SCT065 BKN080 33/19 A3003 -20 43 2100 220/08 RMK AO2 T03330194
13942KMLU MLU20190922134511809/22/19 13:45:31  5-MIN KMLU 221945Z AUTO 19005KT 10SM SCT065 BKN080 33/19 A3003 -10 44 2000 190/05 RMK AO2 T03280194
13942KMLU MLU20190922135012009/22/19 13:50:31  5-MIN KMLU 221950Z VRB04KT 10SM BKN060 OVC080 33/19 A3002 -10 43 2100 VRB/04 RMK AO2 SLP165 T03330194
13942KMLU MLU20190922135511309/22/19 13:55:31  5-MIN KMLU 221955Z 19009KT 10SM BKN060 OVC080 34/19 A3002 -10 40 2200 190/09 RMK AO2 T03440194
13942KMLU MLU20190922140011309/22/19 14:00:31  5-MIN KMLU 222000Z 16003KT 10SM BKN065 OVC080 33/19 A3002 -10 44 2100 160/03 RMK AO2 T03280194
13942KMLU MLU20190922140511309/22/19 14:05:31  5-MIN KMLU 222005Z 17004KT 10SM BKN065 OVC080 33/19 A3002 -10 44 2100 170/04 RMK AO2 T03280194
13942KMLU MLU20190922141010309/22/19 14:10:31  5-MIN KMLU 222010Z 10SM BKN060 OVC080 33/19 A3002 -10 42 2100 M /M RMK AO2 T03330189
13942KMLU MLU20190922141511309/22/19 14:15:31  5-MIN KMLU 222015Z 19006KT 10SM BKN060 OVC080 33/19 A3002 -10 43 2100 190/06 RMK AO2 T03330194
13942KMLU MLU20190922142011309/22/19 14:20:31  5-MIN KMLU 222020Z 17006KT 10SM BKN065 OVC080 33/19 A3002 -10 44 2100 160/06 RMK AO2 T03280194
13942KMLU MLU20190922142511109/22/19 14:25:31  5-MIN KMLU 222025Z VRB06KT 10SM BKN065 OVC080 33/19 A3002 0 43 2100 VRB/06 RMK AO2 T03280189
13942KMLU MLU20190922143010409/22/19 14:30:31  5-MIN KMLU 222030Z VRB06KT 10SM OVC060 33/19 A3001 0 43 2100 VRB/06 RMK AO2 T03330194
13942KMLU MLU20190922143511109/22/19 14:35:31  5-MIN KMLU 222035Z 22008KT 10SM BKN060 OVC080 33/19 A3001 0 42 2100 220/08 RMK AO2 T03330189
13942KMLU MLU20190922144011109/22/19 14:40:31  5-MIN KMLU 222040Z 22007KT 10SM BKN065 OVC080 33/19 A3001 0 43 2100 220/07 RMK AO2 T03330194
13942KMLU MLU20190922144511109/22/19 14:45:31  5-MIN KMLU 222045Z 20008KT 10SM BKN065 OVC080 33/19 A3001 0 42 2100 200/08 RMK AO2 T03330189
13942KMLU MLU20190922145012409/22/19 14:50:31  5-MIN KMLU 222050Z 22007KT 10SM SCT060 OVC080 33/19 A3001 0 43 2100 220/07 RMK AO2 SLP160 T03280189 58019
13942KMLU MLU20190922145511109/22/19 14:55:31  5-MIN KMLU 222055Z 22008KT 10SM FEW060 OVC080 33/19 A3001 0 42 2100 220/08 RMK AO2 T03330189
13942KMLU MLU20190922150011109/22/19 15:00:31  5-MIN KMLU 222100Z 24009KT 10SM FEW060 OVC080 34/19 A3000 0 40 2300 240/09 RMK AO2 T03440194
13942KMLU MLU20190922150510409/22/19 15:05:31  5-MIN KMLU 222105Z 22008KT 10SM OVC080 34/19 A3000 0 40 2200 220/08 RMK AO2 T03390189
13942KMLU MLU20190922151010509/22/19 15:10:31  5-MIN KMLU 222110Z 19009KT 10SM OVC080 34/19 A3000 10 39 2300 190/09 RMK AO2 T03440189
13942KMLU MLU20190922151510409/22/19 15:15:31  5-MIN KMLU 222115Z 20009KT 10SM OVC080 34/18 A3000 0 38 2300 200/09 RMK AO2 T03440183
13942KMLU MLU20190922152010409/22/19 15:20:31  5-MIN KMLU 222120Z 19006KT 10SM OVC080 34/19 A3000 0 39 2300 190/06 RMK AO2 T03440189
13942KMLU MLU20190922152510509/22/19 15:25:31  5-MIN KMLU 222125Z 22009KT 10SM OVC080 34/19 A3000 10 39 2300 220/09 RMK AO2 T03440189
13942KMLU MLU20190922153010409/22/19 15:30:31  5-MIN KMLU 222130Z 21006KT 10SM OVC080 34/19 A3000 0 39 2300 210/06 RMK AO2 T03440189
13942KMLU MLU20190922153511009/22/19 15:35:31  5-MIN KMLU 222135Z 23012G16KT 10SM BKN080 34/19 A3000 0 39 2300 230/12G16 RMK AO2 T03440189
13942KMLU MLU20190922154011009/22/19 15:40:31  5-MIN KMLU 222140Z 22005G16KT 10SM BKN080 34/18 A3000 0 38 2300 220/05G16 RMK AO2 T03440183
13942KMLU MLU20190922154510509/22/19 15:45:31  5-MIN KMLU 222145Z 21008KT 10SM SCT080 34/19 A3000 10 39 2300 210/08 RMK AO2 T03440189
13942KMLU MLU20190922155011909/22/19 15:50:31  5-MIN KMLU 222150Z 22008KT 10SM FEW065 SCT080 34/19 A3000 10 39 2300 220/08 RMK AO2 SLP157 T03440189
13942KMLU MLU20190922155511109/22/19 15:55:31  5-MIN KMLU 222155Z 22010KT 10SM FEW065 SCT080 34/19 A3000 0 39 2300 220/10 RMK AO2 T03440189
13942KMLU MLU20190922160011209/22/19 16:00:31  5-MIN KMLU 222200Z 22008KT 10SM FEW065 FEW080 34/18 A3000 10 39 2200 220/08 RMK AO2 T03390183
13942KMLU MLU20190922160510509/22/19 16:05:31  5-MIN KMLU 222205Z 22008KT 10SM FEW065 34/18 A3000 10 39 2200 220/08 RMK AO2 T03390183
13942KMLU MLU20190922161010509/22/19 16:10:31  5-MIN KMLU 222210Z 22007KT 10SM SCT065 34/18 A3000 10 39 2200 220/07 RMK AO2 T03390183
13942KMLU MLU20190922161510509/22/19 16:15:31  5-MIN KMLU 222215Z 20009KT 10SM BKN065 34/19 A3000 10 39 2300 200/09 RMK AO2 T03440189
13942KMLU MLU20190922162010509/22/19 16:20:31  5-MIN KMLU 222220Z 18006KT 10SM BKN065 34/19 A3000 10 40 2200 180/06 RMK AO2 T03390189
13942KMLU MLU20190922162510509/22/19 16:25:31  5-MIN KMLU 222225Z 21005KT 10SM BKN065 34/19 A3000 10 40 2200 210/05 RMK AO2 T03390189
13942KMLU MLU20190922163010509/22/19 16:30:31  5-MIN KMLU 222230Z 21007KT 10SM BKN065 33/18 A3000 10 40 2100 210/07 RMK AO2 T03330183
13942KMLU MLU20190922163510409/22/19 16:35:31  5-MIN KMLU 222235Z 21007KT 10SM OVC065 33/18 A3000 0 41 2100 210/07 RMK AO2 T03280183
13942KMLU MLU20190922164011109/22/19 16:40:31  5-MIN KMLU 222240Z 22007KT 10SM BKN065 OVC080 33/18 A3000 0 41 2100 210/07 RMK AO2 T03280183
13942KMLU MLU20190922164511109/22/19 16:45:31  5-MIN KMLU 222245Z 23006KT 10SM BKN065 OVC080 33/19 A3001 0 43 2100 220/06 RMK AO2 T03280189
13942KMLU MLU20190922165011809/22/19 16:50:31  5-MIN KMLU 222250Z 22009KT 10SM SCT065 OVC085 33/19 A3001 0 43 2100 220/09 RMK AO2 SLP159 T03280189
13942KMLU MLU20190922165511109/22/19 16:55:31  5-MIN KMLU 222255Z 22006KT 10SM SCT065 OVC080 32/18 A3001 0 43 2000 220/06 RMK AO2 T03220183
13942KMLU MLU20190922170011109/22/19 17:00:31  5-MIN KMLU 222300Z 23008KT 10SM BKN060 OVC080 32/18 A3001 0 43 2000 220/08 RMK AO2 T03220183
13942KMLU MLU20190922170511109/22/19 17:05:31  5-MIN KMLU 222305Z 21006KT 10SM BKN060 OVC080 32/18 A3001 0 43 2000 210/06 RMK AO2 T03220183
13942KMLU MLU20190922171011109/22/19 17:10:31  5-MIN KMLU 222310Z 22005KT 10SM BKN060 OVC080 32/19 A3001 0 44 2000 220/05 RMK AO2 T03220189
13942KMLU MLU20190922171511109/22/19 17:15:31  5-MIN KMLU 222315Z 21006KT 10SM BKN060 OVC080 32/19 A3001 0 44 2000 210/06 RMK AO2 T03220189
13942KMLU MLU20190922172011109/22/19 17:20:31  5-MIN KMLU 222320Z 22006KT 10SM BKN060 OVC080 32/19 A3001 0 46 1900 220/06 RMK AO2 T03170189
13942KMLU MLU20190922172511109/22/19 17:25:31  5-MIN KMLU 222325Z 21008KT 10SM BKN060 OVC080 32/19 A3001 0 46 1900 210/08 RMK AO2 T03170189
13942KMLU MLU20190922173011109/22/19 17:30:31  5-MIN KMLU 222330Z 21006KT 10SM BKN060 OVC080 32/19 A3001 0 46 1900 210/06 RMK AO2 T03170189
13942KMLU MLU20190922173511109/22/19 17:35:31  5-MIN KMLU 222335Z 21005KT 10SM BKN060 OVC080 32/19 A3001 0 46 1900 210/05 RMK AO2 T03170189
13942KMLU MLU20190922174011109/22/19 17:40:31  5-MIN KMLU 222340Z 20005KT 10SM BKN060 OVC080 31/19 A3001 0 49 1900 200/05 RMK AO2 T03110194
13942KMLU MLU20190922174511109/22/19 17:45:31  5-MIN KMLU 222345Z 20005KT 10SM BKN060 OVC080 31/19 A3001 0 49 1900 200/05 RMK AO2 T03110194
13942KMLU MLU20190922175012909/22/19 17:50:31  5-MIN KMLU 222350Z 20005KT 10SM OVC090 31/19 A3001 0 47 1900 200/05 RMK AO2 SLP160 T03110189 10350 20311 56022
13942KMLU MLU20190922175510409/22/19 17:55:31  5-MIN KMLU 222355Z 18004KT 10SM OVC090 31/19 A3001 0 51 1800 180/04 RMK AO2 T03060194
13942KMLU MLU20190922180010409/22/19 18:00:31  5-MIN KMLU 230000Z 18004KT 10SM OVC085 31/19 A3001 0 51 1800 180/04 RMK AO2 T03060194
13942KMLU MLU20190922180510409/22/19 18:05:31  5-MIN KMLU 230005Z 17005KT 10SM BKN085 31/19 A3001 0 51 1800 170/05 RMK AO2 T03060194
13942KMLU MLU20190922181010409/22/19 18:10:31  5-MIN KMLU 230010Z 00000KT 10SM OVC085 30/20 A3001 0 54 1800 000/00 RMK AO2 T03000200
13942KMLU MLU20190922181510409/22/19 18:15:31  5-MIN KMLU 230015Z 00000KT 10SM OVC085 29/21 A3001 0 58 1700 000/00 RMK AO2 T02940206
13942KMLU MLU20190922182010409/22/19 18:20:31  5-MIN KMLU 230020Z 14003KT 10SM OVC085 29/21 A3001 0 58 1700 140/03 RMK AO2 T02940206
13942KMLU MLU20190922182510409/22/19 18:25:31  5-MIN KMLU 230025Z 14003KT 10SM OVC085 29/21 A3002 0 60 1600 140/03 RMK AO2 T02890206
13942KMLU MLU20190922183010409/22/19 18:30:31  5-MIN KMLU 230030Z 15003KT 10SM OVC085 29/21 A3002 0 58 1700 150/03 RMK AO2 T02940206
13942KMLU MLU20190922183510409/22/19 18:35:31  5-MIN KMLU 230035Z 17004KT 10SM OVC085 29/20 A3002 0 56 1700 170/04 RMK AO2 T02940200
13942KMLU MLU20190922184010409/22/19 18:40:31  5-MIN KMLU 230040Z 16004KT 10SM OVC085 29/19 A3001 0 54 1700 160/04 RMK AO2 T02940194
13942KMLU MLU20190922184510409/22/19 18:45:31  5-MIN KMLU 230045Z 16005KT 10SM OVC085 29/20 A3001 0 56 1700 160/05 RMK AO2 T02940200
13942KMLU MLU20190922185011109/22/19 18:50:31  5-MIN KMLU 230050Z 17004KT 10SM BKN085 29/19 A3002 0 54 1700 160/04 RMK AO2 SLP163 T02940194
13942KMLU MLU20190922185510609/22/19 18:55:31  5-MIN KMLU 230055Z 17004KT 10SM BKN085 29/19 A3002 -10 54 1700 170/04 RMK AO2 T02940194
13942KMLU MLU20190922190010609/22/19 19:00:31  5-MIN KMLU 230100Z 17003KT 10SM BKN085 29/19 A3002 -10 54 1700 170/03 RMK AO2 T02940194
13942KMLU MLU20190922190510609/22/19 19:05:31  5-MIN KMLU 230105Z 17003KT 10SM SCT085 29/19 A3002 -10 56 1600 170/03 RMK AO2 T02890194
13942KMLU MLU20190922191010609/22/19 19:10:31  5-MIN KMLU 230110Z 18004KT 10SM FEW085 29/19 A3003 -10 56 1600 180/04 RMK AO2 T02890194
13942KMLU MLU20190922191510609/22/19 19:15:31  5-MIN KMLU 230115Z 18004KT 10SM FEW085 28/19 A3003 -10 58 1600 180/04 RMK AO2 T02830194
13942KMLU MLU20190922192010609/22/19 19:20:31  5-MIN KMLU 230120Z 18004KT 10SM FEW085 28/19 A3003 -10 58 1600 180/04 RMK AO2 T02830194
13942KMLU MLU20190922192510609/22/19 19:25:31  5-MIN KMLU 230125Z 17004KT 10SM FEW085 28/19 A3003 -20 58 1600 170/04 RMK AO2 T02830194
13942KMLU MLU20190922193010309/22/19 19:30:31  5-MIN KMLU 230130Z 17004KT 10SM CLR 28/19 A3003 -20 58 1500 170/04 RMK AO2 T02830194
13942KMLU MLU20190922193510309/22/19 19:35:31  5-MIN KMLU 230135Z 18004KT 10SM CLR 28/19 A3003 -20 58 1500 180/04 RMK AO2 T02830194
13942KMLU MLU20190922194010309/22/19 19:40:31  5-MIN KMLU 230140Z 19003KT 10SM CLR 28/19 A3004 -20 60 1500 180/03 RMK AO2 T02780194
13942KMLU MLU20190922194510309/22/19 19:45:31  5-MIN KMLU 230145Z 19003KT 10SM CLR 27/19 A3004 -30 62 1400 180/03 RMK AO2 T02720194
13942KMLU MLU20190922195011009/22/19 19:50:31  5-MIN KMLU 230150Z 19003KT 10SM CLR 27/19 A3004 -30 62 1400 190/03 RMK AO2 SLP172 T02720194
13942KMLU MLU20190922195510309/22/19 19:55:31  5-MIN KMLU 230155Z 19003KT 10SM CLR 28/19 A3004 -30 60 1500 190/03 RMK AO2 T02780194
13942KMLU MLU20190922200010309/22/19 20:00:31  5-MIN KMLU 230200Z 19003KT 10SM CLR 28/19 A3005 -30 60 1500 190/03 RMK AO2 T02780194
13942KMLU MLU20190922200510609/22/19 20:05:31  5-MIN KMLU 230205Z 18004KT 10SM FEW075 27/19 A3005 -30 62 1400 180/04 RMK AO2 T02720194
13942KMLU MLU20190922201010609/22/19 20:10:31  5-MIN KMLU 230210Z 18004KT 10SM FEW075 27/19 A3005 -30 62 1400 180/04 RMK AO2 T02720194
13942KMLU MLU20190922201510609/22/19 20:15:31  5-MIN KMLU 230215Z 18004KT 10SM SCT075 28/19 A3005 -30 60 1500 170/04 RMK AO2 T02780194
13942KMLU MLU20190922202010609/22/19 20:20:31  5-MIN KMLU 230220Z 18004KT 10SM SCT075 28/19 A3005 -30 60 1500 180/04 RMK AO2 T02780194
13942KMLU MLU20190922202510609/22/19 20:25:31  5-MIN KMLU 230225Z 18004KT 10SM BKN075 28/19 A3005 -30 60 1500 180/04 RMK AO2 T02780194
13942KMLU MLU20190922203010609/22/19 20:30:31  5-MIN KMLU 230230Z 17005KT 10SM BKN075 28/19 A3005 -30 60 1500 170/05 RMK AO2 T02780194
13942KMLU MLU20190922203510609/22/19 20:35:31  5-MIN KMLU 230235Z 16005KT 10SM BKN075 28/19 A3005 -30 60 1500 160/05 RMK AO2 T02780194
13942KMLU MLU20190922204010609/22/19 20:40:31  5-MIN KMLU 230240Z 17004KT 10SM OVC075 28/19 A3005 -30 60 1500 170/04 RMK AO2 T02780194
13942KMLU MLU20190922204510609/22/19 20:45:31  5-MIN KMLU 230245Z 16004KT 10SM OVC075 28/19 A3005 -30 60 1500 160/04 RMK AO2 T02780194
13942KMLU MLU20190922205011909/22/19 20:50:31  5-MIN KMLU 230250Z 16004KT 10SM OVC075 28/19 A3005 -30 60 1500 160/04 RMK AO2 SLP174 T02780194 55000
13942KMLU MLU20190922205510609/22/19 20:55:31  5-MIN KMLU 230255Z 17004KT 10SM OVC075 28/19 A3005 -40 60 1500 160/04 RMK AO2 T02780194
13942KMLU MLU20190922210011109/22/19 21:00:31  5-MIN KMLU 230300Z AUTO 16004KT 10SM OVC080 27/19 A3005 -40 62 1400 160/04 RMK AO2 T02720194
13942KMLU MLU20190922210511109/22/19 21:05:31  5-MIN KMLU 230305Z AUTO 17005KT 10SM BKN080 27/19 A3005 -40 62 1400 170/05 RMK AO2 T02720194
13942KMLU MLU20190922211011109/22/19 21:10:31  5-MIN KMLU 230310Z AUTO 18005KT 10SM BKN080 27/19 A3005 -40 62 1400 180/05 RMK AO2 T02720194
13942KMLU MLU20190922211511109/22/19 21:15:31  5-MIN KMLU 230315Z AUTO 18005KT 10SM SCT080 27/19 A3005 -40 64 1300 180/05 RMK AO2 T02670194
13942KMLU MLU20190922212011109/22/19 21:20:31  5-MIN KMLU 230320Z AUTO 18005KT 10SM FEW080 27/19 A3005 -40 64 1300 180/05 RMK AO2 T02670194
13942KMLU MLU20190922212511109/22/19 21:25:31  5-MIN KMLU 230325Z AUTO 18005KT 10SM FEW080 27/19 A3005 -40 64 1300 180/05 RMK AO2 T02670194
13942KMLU MLU20190922213010809/22/19 21:30:31  5-MIN KMLU 230330Z AUTO 18004KT 10SM CLR 27/19 A3005 -40 64 1300 180/04 RMK AO2 T02670194
13942KMLU MLU20190922213510809/22/19 21:35:31  5-MIN KMLU 230335Z AUTO 18005KT 10SM CLR 26/20 A3005 -40 68 1300 180/05 RMK AO2 T02610200
13942KMLU MLU20190922214010809/22/19 21:40:31  5-MIN KMLU 230340Z AUTO 19004KT 10SM CLR 26/20 A3005 -40 68 1300 190/04 RMK AO2 T02610200
13942KMLU MLU20190922214510809/22/19 21:45:31  5-MIN KMLU 230345Z AUTO 19005KT 10SM CLR 26/20 A3006 -40 71 1200 190/05 RMK AO2 T02560200
13942KMLU MLU20190922215011509/22/19 21:50:31  5-MIN KMLU 230350Z AUTO 20005KT 10SM CLR 26/20 A3006 -40 71 1200 200/05 RMK AO2 SLP176 T02560200
13942KMLU MLU20190922215510809/22/19 21:55:31  5-MIN KMLU 230355Z AUTO 20004KT 10SM CLR 25/20 A3006 -40 73 1100 200/04 RMK AO2 T02500200
13942KMLU MLU20190922220010809/22/19 22:00:31  5-MIN KMLU 230400Z AUTO 20004KT 10SM CLR 25/20 A3006 -40 73 1100 200/04 RMK AO2 T02500200
13942KMLU MLU20190922220510809/22/19 22:05:31  5-MIN KMLU 230405Z AUTO 20004KT 10SM CLR 25/20 A3006 -40 73 1100 200/04 RMK AO2 T02500200
13942KMLU MLU20190922221010809/22/19 22:10:31  5-MIN KMLU 230410Z AUTO 19003KT 10SM CLR 25/20 A3006 -40 73 1100 190/03 RMK AO2 T02500200
13942KMLU MLU20190922221510809/22/19 22:15:31  5-MIN KMLU 230415Z AUTO 19004KT 10SM CLR 26/20 A3006 -40 71 1200 190/04 RMK AO2 T02560200
13942KMLU MLU20190922222010809/22/19 22:20:31  5-MIN KMLU 230420Z AUTO 18004KT 10SM CLR 25/20 A3006 -40 73 1100 180/04 RMK AO2 T02500200
13942KMLU MLU20190922222510809/22/19 22:25:31  5-MIN KMLU 230425Z AUTO 18004KT 10SM CLR 26/20 A3005 -40 71 1200 180/04 RMK AO2 T02560200
13942KMLU MLU20190922223010809/22/19 22:30:31  5-MIN KMLU 230430Z AUTO 18005KT 10SM CLR 26/20 A3005 -40 71 1200 180/05 RMK AO2 T02560200
13942KMLU MLU20190922223510809/22/19 22:35:31  5-MIN KMLU 230435Z AUTO 16004KT 10SM CLR 26/20 A3005 -30 68 1300 160/04 RMK AO2 T02610200
13942KMLU MLU20190922224010809/22/19 22:40:31  5-MIN KMLU 230440Z AUTO 17006KT 10SM CLR 26/20 A3005 -30 68 1300 170/06 RMK AO2 T02610200
13942KMLU MLU20190922224510809/22/19 22:45:31  5-MIN KMLU 230445Z AUTO 17006KT 10SM CLR 26/20 A3005 -30 68 1300 170/06 RMK AO2 T02610200
13942KMLU MLU20190922225011509/22/19 22:50:31  5-MIN KMLU 230450Z AUTO 17005KT 10SM CLR 26/20 A3004 -30 68 1300 170/05 RMK AO2 SLP172 T02610200
13942KMLU MLU20190922225510809/22/19 22:55:31  5-MIN KMLU 230455Z AUTO 17005KT 10SM CLR 26/20 A3004 -30 68 1300 170/05 RMK AO2 T02610200
13942KMLU MLU20190922230010809/22/19 23:00:31  5-MIN KMLU 230500Z AUTO 17005KT 10SM CLR 26/19 A3005 -30 66 1300 170/05 RMK AO2 T02610194
13942KMLU MLU20190922230510809/22/19 23:05:31  5-MIN KMLU 230505Z AUTO 18006KT 10SM CLR 26/19 A3005 -30 66 1300 180/06 RMK AO2 T02610194
13942KMLU MLU20190922231010809/22/19 23:10:31  5-MIN KMLU 230510Z AUTO 18005KT 10SM CLR 26/19 A3005 -30 66 1300 180/05 RMK AO2 T02610194
13942KMLU MLU20190922231510809/22/19 23:15:31  5-MIN KMLU 230515Z AUTO 18006KT 10SM CLR 26/19 A3005 -30 68 1200 180/06 RMK AO2 T02560194
13942KMLU MLU20190922232010809/22/19 23:20:31  5-MIN KMLU 230520Z AUTO 18006KT 10SM CLR 26/19 A3004 -30 66 1300 180/06 RMK AO2 T02610194
13942KMLU MLU20190922232510809/22/19 23:25:31  5-MIN KMLU 230525Z AUTO 18004KT 10SM CLR 26/19 A3005 -30 68 1200 180/04 RMK AO2 T02560194
13942KMLU MLU20190922233010809/22/19 23:30:31  5-MIN KMLU 230530Z AUTO 18005KT 10SM CLR 26/19 A3005 -30 68 1200 180/05 RMK AO2 T02560194
13942KMLU MLU20190922233510809/22/19 23:35:31  5-MIN KMLU 230535Z AUTO 18005KT 10SM CLR 26/19 A3004 -30 68 1200 180/05 RMK AO2 T02560194
13942KMLU MLU20190922234010809/22/19 23:40:31  5-MIN KMLU 230540Z AUTO 18004KT 10SM CLR 26/19 A3005 -30 68 1200 180/04 RMK AO2 T02560194
13942KMLU MLU20190922234510809/22/19 23:45:31  5-MIN KMLU 230545Z AUTO 18003KT 10SM CLR 25/19 A3005 -30 71 1200 180/03 RMK AO2 T02500194
13942KMLU MLU20190922235014309/22/19 23:50:31  5-MIN KMLU 230550Z AUTO 18003KT 10SM CLR 25/19 A3005 -30 71 1200 180/03 RMK AO2 SLP173 T02500194 10306 20250 403500217 51014
13942KMLU MLU20190922235510809/22/19 23:55:31  5-MIN KMLU 230555Z AUTO 19003KT 10SM CLR 25/19 A3005 -30 71 1200 190/03 RMK AO2 T02500194
13942KMLU MLU20190923000010809/23/19 00:00:31  5-MIN KMLU 230600Z AUTO 00000KT 10SM CLR 24/19 A3005 -30 73 1100 000/00 RMK AO2 T02440194
13942KMLU MLU20190923000510809/23/19 00:05:31  5-MIN KMLU 230605Z AUTO 18003KT 10SM CLR 24/19 A3005 -30 73 1100 170/03 RMK AO2 T02440194
13942KMLU MLU20190923001010809/23/19 00:10:31  5-MIN KMLU 230610Z AUTO 00000KT 10SM CLR 24/20 A3005 -30 78 1000 000/00 RMK AO2 T02390200
13942KMLU MLU20190923001510809/23/19 00:15:31  5-MIN KMLU 230615Z AUTO 00000KT 10SM CLR 24/20 A3005 -30 78 1000 000/00 RMK AO2 T02390200
13942KMLU MLU20190923002010809/23/19 00:20:31  5-MIN KMLU 230620Z AUTO 00000KT 10SM CLR 24/21 A3005 -30 81 1000 000/00 RMK AO2 T02390206
13942KMLU MLU20190923002510809/23/19 00:25:31  5-MIN KMLU 230625Z AUTO 00000KT 10SM CLR 23/20 A3005 -40 81 1000 000/00 RMK AO2 T02330200
13942KMLU MLU20190923003010709/23/19 00:30:31  5-MIN KMLU 230630Z AUTO 00000KT 10SM CLR 23/20 A3005 -40 84 900 000/00 RMK AO2 T02280200
13942KMLU MLU20190923003510709/23/19 00:35:31  5-MIN KMLU 230635Z AUTO 00000KT 10SM CLR 23/20 A3005 -40 84 900 000/00 RMK AO2 T02280200
13942KMLU MLU20190923004010709/23/19 00:40:31  5-MIN KMLU 230640Z AUTO 00000KT 10SM CLR 23/20 A3005 -30 84 900 000/00 RMK AO2 T02280200
13942KMLU MLU20190923004510809/23/19 00:45:31  5-MIN KMLU 230645Z AUTO 00000KT 10SM CLR 23/20 A3005 -30 81 1000 000/00 RMK AO2 T02330200
13942KMLU MLU20190923005011409/23/19 00:50:31  5-MIN KMLU 230650Z AUTO 00000KT 10SM CLR 23/20 A3005 -40 84 900 000/00 RMK AO2 SLP174 T02280200
13942KMLU MLU20190923005510709/23/19 00:55:31  5-MIN KMLU 230655Z AUTO 00000KT 10SM CLR 23/20 A3005 -30 84 900 000/00 RMK AO2 T02280200
13942KMLU MLU20190923010010709/23/19 01:00:31  5-MIN KMLU 230700Z AUTO 00000KT 10SM CLR 23/20 A3005 -30 84 900 000/00 RMK AO2 T02280200
13942KMLU MLU20190923010510709/23/19 01:05:31  5-MIN KMLU 230705Z AUTO 00000KT 10SM CLR 23/20 A3005 -30 84 900 000/00 RMK AO2 T02280200
13942KMLU MLU20190923011010709/23/19 01:10:31  5-MIN KMLU 230710Z AUTO 00000KT 10SM CLR 23/20 A3005 -30 84 900 000/00 RMK AO2 T02280200
13942KMLU MLU20190923011510709/23/19 01:15:31  5-MIN KMLU 230715Z AUTO 13003KT 10SM CLR 22/20 A3005 -30 87 800 130/03 RMK AO2 T02220200
13942KMLU MLU20190923012010709/23/19 01:20:31  5-MIN KMLU 230720Z AUTO 13004KT 10SM CLR 22/20 A3005 -30 87 800 130/04 RMK AO2 T02220200
13942KMLU MLU20190923012510709/23/19 01:25:31  5-MIN KMLU 230725Z AUTO 14004KT 10SM CLR 22/21 A3005 -40 90 800 140/04 RMK AO2 T02220206
13942KMLU MLU20190923013010709/23/19 01:30:31  5-MIN KMLU 230730Z AUTO 14003KT 10SM CLR 22/21 A3005 -40 90 800 140/03 RMK AO2 T02220206
13942KMLU MLU20190923013510709/23/19 01:35:31  5-MIN KMLU 230735Z AUTO 15003KT 10SM CLR 22/20 A3006 -40 87 800 150/03 RMK AO2 T02220200
13942KMLU MLU20190923014010709/23/19 01:40:31  5-MIN KMLU 230740Z AUTO 15003KT 10SM CLR 23/20 A3006 -40 84 900 150/03 RMK AO2 T02280200
13942KMLU MLU20190923014510809/23/19 01:45:31  5-MIN KMLU 230745Z AUTO 17005KT 10SM CLR 23/20 A3006 -40 81 1000 170/05 RMK AO2 T02330200
13942KMLU MLU20190923015011509/23/19 01:50:31  5-MIN KMLU 230750Z AUTO 17005KT 10SM CLR 23/20 A3005 -40 81 1000 170/05 RMK AO2 SLP175 T02330200
13942KMLU MLU20190923015510809/23/19 01:55:31  5-MIN KMLU 230755Z AUTO 18004KT 10SM CLR 23/20 A3005 -40 81 1000 180/04 RMK AO2 T02330200
13942KMLU MLU20190923020010809/23/19 02:00:31  5-MIN KMLU 230800Z AUTO 17004KT 10SM CLR 23/20 A3005 -40 81 1000 170/04 RMK AO2 T02330200
13942KMLU MLU20190923020510809/23/19 02:05:31  5-MIN KMLU 230805Z AUTO 16004KT 10SM CLR 23/20 A3005 -40 81 1000 160/04 RMK AO2 T02330200
13942KMLU MLU20190923021010809/23/19 02:10:31  5-MIN KMLU 230810Z AUTO 17004KT 10SM CLR 23/20 A3005 -40 81 1000 170/04 RMK AO2 T02330200
13942KMLU MLU20190923021510809/23/19 02:15:31  5-MIN KMLU 230815Z AUTO 17004KT 10SM CLR 23/19 A3005 -40 78 1000 170/04 RMK AO2 T02330194
13942KMLU MLU20190923022010809/23/19 02:20:31  5-MIN KMLU 230820Z AUTO 17003KT 10SM CLR 23/19 A3005 -40 78 1000 170/03 RMK AO2 T02330194
13942KMLU MLU20190923022510809/23/19 02:25:31  5-MIN KMLU 230825Z AUTO 18004KT 10SM CLR 23/19 A3005 -40 78 1000 180/04 RMK AO2 T02330194
13942KMLU MLU20190923023010709/23/19 02:30:31  5-MIN KMLU 230830Z AUTO 17005KT 10SM CLR 23/19 A3005 -40 81 900 160/05 RMK AO2 T02280194
13942KMLU MLU20190923023510809/23/19 02:35:31  5-MIN KMLU 230835Z AUTO 21003KT 10SM CLR 23/19 A3005 -40 78 1000 210/03 RMK AO2 T02330194
13942KMLU MLU20190923024010709/23/19 02:40:31  5-MIN KMLU 230840Z AUTO 18003KT 10SM CLR 23/19 A3005 -40 81 900 180/03 RMK AO2 T02280194
13942KMLU MLU20190923024510709/23/19 02:45:31  5-MIN KMLU 230845Z AUTO 18003KT 10SM CLR 23/19 A3005 -30 81 900 180/03 RMK AO2 T02280194
13942KMLU MLU20190923025012009/23/19 02:50:31  5-MIN KMLU 230850Z AUTO 19003KT 10SM CLR 23/19 A3005 -30 81 900 190/03 RMK AO2 SLP173 T02280194 58001
13942KMLU MLU20190923025510709/23/19 02:55:31  5-MIN KMLU 230855Z AUTO 17004KT 10SM CLR 23/19 A3005 -30 81 900 170/04 RMK AO2 T02280194
13942KMLU MLU20190923030010709/23/19 03:00:31  5-MIN KMLU 230900Z AUTO 19003KT 10SM CLR 23/20 A3005 -30 84 900 180/03 RMK AO2 T02280200
13942KMLU MLU20190923030510709/23/19 03:05:31  5-MIN KMLU 230905Z AUTO 18003KT 10SM CLR 23/20 A3005 -30 84 900 180/03 RMK AO2 T02280200
13942KMLU MLU20190923031010709/23/19 03:10:31  5-MIN KMLU 230910Z AUTO 00000KT 10SM CLR 23/20 A3005 -30 84 900 000/00 RMK AO2 T02280200
13942KMLU MLU20190923031510709/23/19 03:15:31  5-MIN KMLU 230915Z AUTO 17003KT 10SM CLR 23/20 A3005 -30 84 900 170/03 RMK AO2 T02280200
13942KMLU MLU20190923032010709/23/19 03:20:31  5-MIN KMLU 230920Z AUTO 17003KT 10SM CLR 23/20 A3005 -30 84 900 170/03 RMK AO2 T02280200
13942KMLU MLU20190923032510709/23/19 03:25:31  5-MIN KMLU 230925Z AUTO 18003KT 10SM CLR 23/20 A3004 -30 84 900 180/03 RMK AO2 T02280200
13942KMLU MLU20190923033010709/23/19 03:30:31  5-MIN KMLU 230930Z AUTO 17004KT 10SM CLR 23/20 A3004 -30 84 900 170/04 RMK AO2 T02280200
13942KMLU MLU20190923033510709/23/19 03:35:31  5-MIN KMLU 230935Z AUTO 16005KT 10SM CLR 23/20 A3004 -30 84 900 160/05 RMK AO2 T02280200
13942KMLU MLU20190923034010709/23/19 03:40:31  5-MIN KMLU 230940Z AUTO 18004KT 10SM CLR 23/20 A3004 -30 84 900 170/04 RMK AO2 T02280200
13942KMLU MLU20190923034510709/23/19 03:45:31  5-MIN KMLU 230945Z AUTO 17004KT 10SM CLR 23/20 A3004 -30 84 900 170/04 RMK AO2 T02280200
13942KMLU MLU20190923035011409/23/19 03:50:31  5-MIN KMLU 230950Z AUTO 17004KT 10SM CLR 23/20 A3004 -30 84 900 170/04 RMK AO2 SLP172 T02280200
13942KMLU MLU20190923035510709/23/19 03:55:31  5-MIN KMLU 230955Z AUTO 16004KT 10SM CLR 23/20 A3005 -30 84 900 160/04 RMK AO2 T02280200
13942KMLU MLU20190923040010709/23/19 04:00:31  5-MIN KMLU 231000Z AUTO 17003KT 10SM CLR 23/20 A3005 -30 84 900 170/03 RMK AO2 T02280200
13942KMLU MLU20190923040510709/23/19 04:05:31  5-MIN KMLU 231005Z AUTO 17003KT 10SM CLR 23/20 A3005 -30 84 900 170/03 RMK AO2 T02280200
13942KMLU MLU20190923041010709/23/19 04:10:31  5-MIN KMLU 231010Z AUTO 17003KT 10SM CLR 22/20 A3005 -40 87 800 160/03 RMK AO2 T02220200
13942KMLU MLU20190923041510709/23/19 04:15:31  5-MIN KMLU 231015Z AUTO 16003KT 10SM CLR 22/20 A3005 -40 87 800 160/03 RMK AO2 T02220200
13942KMLU MLU20190923042010709/23/19 04:20:31  5-MIN KMLU 231020Z AUTO 16003KT 10SM CLR 22/20 A3006 -40 87 800 160/03 RMK AO2 T02220200
13942KMLU MLU20190923042510709/23/19 04:25:31  5-MIN KMLU 231025Z AUTO 00000KT 10SM CLR 22/20 A3006 -40 87 800 000/00 RMK AO2 T02220200
13942KMLU MLU20190923043010709/23/19 04:30:31  5-MIN KMLU 231030Z AUTO 17003KT 10SM CLR 22/20 A3006 -40 87 800 170/03 RMK AO2 T02220200
13942KMLU MLU20190923043510709/23/19 04:35:31  5-MIN KMLU 231035Z AUTO 16003KT 10SM CLR 22/20 A3006 -40 87 800 160/03 RMK AO2 T02220200
13942KMLU MLU20190923044010709/23/19 04:40:31  5-MIN KMLU 231040Z AUTO 00000KT 10SM CLR 22/20 A3006 -40 90 800 000/00 RMK AO2 T02170200
13942KMLU MLU20190923044510209/23/19 04:45:31  5-MIN KMLU 231045Z 18003KT 10SM CLR 22/20 A3006 -40 87 800 170/03 RMK AO2 T02220200
13942KMLU MLU20190923045010909/23/19 04:50:31  5-MIN KMLU 231050Z 18003KT 10SM CLR 22/20 A3006 -40 87 800 180/03 RMK AO2 SLP178 T02220200
13942KMLU MLU20190923045510209/23/19 04:55:31  5-MIN KMLU 231055Z 17003KT 10SM CLR 22/20 A3006 -40 90 800 170/03 RMK AO2 T02170200
13942KMLU MLU20190923050010209/23/19 05:00:31  5-MIN KMLU 231100Z 00000KT 10SM CLR 22/20 A3006 -40 90 800 000/00 RMK AO2 T02170200
13942KMLU MLU20190923050510209/23/19 05:05:31  5-MIN KMLU 231105Z 00000KT 10SM CLR 22/20 A3006 -50 90 800 000/00 RMK AO2 T02170200
13942KMLU MLU20190923051010209/23/19 05:10:31  5-MIN KMLU 231110Z 00000KT 10SM CLR 21/19 A3007 -50 90 700 000/00 RMK AO2 T02110194
13942KMLU MLU20190923051510209/23/19 05:15:31  5-MIN KMLU 231115Z 00000KT 10SM CLR 21/19 A3007 -50 90 700 000/00 RMK AO2 T02110194
13942KMLU MLU20190923052010209/23/19 05:20:31  5-MIN KMLU 231120Z 00000KT 10SM CLR 21/19 A3007 -50 93 600 000/00 RMK AO2 T02060194
13942KMLU MLU20190923052510209/23/19 05:25:31  5-MIN KMLU 231125Z 15003KT 10SM CLR 21/19 A3007 -50 90 700 140/03 RMK AO2 T02110194
13942KMLU MLU20190923053010209/23/19 05:30:31  5-MIN KMLU 231130Z 00000KT 10SM CLR 22/20 A3007 -50 90 800 000/00 RMK AO2 T02170200
13942KMLU MLU20190923053510209/23/19 05:35:31  5-MIN KMLU 231135Z 00000KT 10SM CLR 22/20 A3007 -50 90 800 000/00 RMK AO2 T02170200
13942KMLU MLU20190923054010209/23/19 05:40:31  5-MIN KMLU 231140Z 00000KT 10SM CLR 21/20 A3007 -50 93 700 000/00 RMK AO2 T02110200
13942KMLU MLU20190923054510209/23/19 05:45:31  5-MIN KMLU 231145Z 00000KT 10SM CLR 21/20 A3007 -50 93 700 000/00 RMK AO2 T02110200
13942KMLU MLU20190923055012709/23/19 05:50:31  5-MIN KMLU 231150Z 00000KT 10SM CLR 21/19 A3007 -60 90 700 000/00 RMK AO2 SLP182 T02110194 10250 20206 50000
13942KMLU MLU20190923055510509/23/19 05:55:31  5-MIN KMLU 231155Z 00000KT 10SM FEW017 21/19 A3008 -60 90 600 000/00 RMK AO2 T02060189
13942KMLU MLU20190923060010509/23/19 06:00:31  5-MIN KMLU 231200Z 00000KT 10SM FEW017 21/19 A3008 -60 93 600 000/00 RMK AO2 T02060194
13942KMLU MLU20190923060510209/23/19 06:05:31  5-MIN KMLU 231205Z 00000KT 10SM CLR 21/19 A3008 -60 93 600 000/00 RMK AO2 T02060194
13942KMLU MLU20190923061010509/23/19 06:10:31  5-MIN KMLU 231210Z 00000KT 10SM FEW016 21/19 A3008 -60 93 600 000/00 RMK AO2 T02060194
13942KMLU MLU20190923061510509/23/19 06:15:31  5-MIN KMLU 231215Z 00000KT 10SM SCT016 21/19 A3008 -60 93 600 000/00 RMK AO2 T02060194
13942KMLU MLU20190923062010509/23/19 06:20:31  5-MIN KMLU 231220Z 00000KT 10SM BKN016 21/19 A3008 -60 93 600 000/00 RMK AO2 T02060194
13942KMLU MLU20190923062510509/23/19 06:25:31  5-MIN KMLU 231225Z 00000KT 10SM BKN016 21/20 A3008 -60 93 700 000/00 RMK AO2 T02110200
13942KMLU MLU20190923063010509/23/19 06:30:31  5-MIN KMLU 231230Z 00000KT 10SM BKN016 22/21 A3008 -70 93 700 000/00 RMK AO2 T02170206
13942KMLU MLU20190923063510509/23/19 06:35:31  5-MIN KMLU 231235Z 00000KT 10SM OVC016 22/21 A3009 -70 93 700 000/00 RMK AO2 T02170206
13942KMLU MLU20190923064010509/23/19 06:40:31  5-MIN KMLU 231240Z 00000KT 10SM OVC016 22/21 A3009 -70 90 800 000/00 RMK AO2 T02220206
13942KMLU MLU20190923064510509/23/19 06:45:31  5-MIN KMLU 231245Z 00000KT 10SM OVC016 22/21 A3009 -70 90 800 000/00 RMK AO2 T02220206
13942KMLU MLU20190923065011209/23/19 06:50:31  5-MIN KMLU 231250Z 00000KT 10SM OVC015 22/21 A3009 -70 90 800 000/00 RMK AO2 SLP187 T02220206
13942KMLU MLU20190923065510509/23/19 06:55:31  5-MIN KMLU 231255Z 00000KT 10SM OVC015 22/21 A3009 -70 90 800 000/00 RMK AO2 T02220206
13942KMLU MLU20190923070010509/23/19 07:00:31  5-MIN KMLU 231300Z 16003KT 10SM BKN015 23/21 A3009 -70 87 900 160/03 RMK AO2 T02280206
13942KMLU MLU20190923070511209/23/19 07:05:31  5-MIN KMLU 231305Z 00000KT 10SM BKN015 BKN020 23/21 A3009 -70 87 900 000/00 RMK AO2 T02330211
13942KMLU MLU20190923071010509/23/19 07:10:31  5-MIN KMLU 231310Z 17003KT 10SM BKN017 23/21 A3010 -80 87 900 170/03 RMK AO2 T02330211
13942KMLU MLU20190923071510509/23/19 07:15:31  5-MIN KMLU 231315Z 17003KT 10SM BKN017 23/21 A3010 -80 87 900 170/03 RMK AO2 T02330211
13942KMLU MLU20190923072010609/23/19 07:20:31  5-MIN KMLU 231320Z 18003KT 10SM BKN019 24/21 A3010 -80 84 1000 180/03 RMK AO2 T02390211
13942KMLU MLU20190923072510609/23/19 07:25:31  5-MIN KMLU 231325Z VRB03KT 10SM OVC019 24/21 A3010 -80 81 1000 VRB/03 RMK AO2 T02440211
13942KMLU MLU20190923073010609/23/19 07:30:31  5-MIN KMLU 231330Z 17004KT 10SM OVC019 24/21 A3010 -80 81 1000 170/04 RMK AO2 T02440211
13942KMLU MLU20190923073510609/23/19 07:35:31  5-MIN KMLU 231335Z 16004KT 10SM OVC019 24/21 A3010 -80 81 1000 160/04 RMK AO2 T02440211
13942KMLU MLU20190923074010609/23/19 07:40:31  5-MIN KMLU 231340Z 17004KT 10SM OVC019 24/21 A3011 -90 84 1000 160/04 RMK AO2 T02390211
13942KMLU MLU20190923074510609/23/19 07:45:31  5-MIN KMLU 231345Z 00000KT 10SM OVC019 24/21 A3011 -90 84 1000 000/00 RMK AO2 T02390211
13942KMLU MLU20190923075011309/23/19 07:50:31  5-MIN KMLU 231350Z 00000KT 10SM OVC016 24/21 A3011 -90 81 1000 000/00 RMK AO2 SLP193 T02440211
13942KMLU MLU20190923075510609/23/19 07:55:31  5-MIN KMLU 231355Z 00000KT 10SM BKN021 24/21 A3011 -90 81 1000 000/00 RMK AO2 T02440211
13942KMLU MLU20190923080011309/23/19 08:00:31  5-MIN KMLU 231400Z 17003KT 10SM BKN021 OVC070 24/22 A3011 -90 84 1000 170/03 RMK AO2 T02440217
13942KMLU MLU20190923080511309/23/19 08:05:31  5-MIN KMLU 231405Z 18003KT 10SM BKN021 BKN070 24/21 A3011 -90 81 1000 180/03 RMK AO2 T02440211
13942KMLU MLU20190923081011309/23/19 08:10:31  5-MIN KMLU 231410Z 18003KT 10SM SCT021 BKN070 25/22 A3011 -90 81 1100 180/03 RMK AO2 T02500217
13942KMLU MLU20190923081511309/23/19 08:15:31  5-MIN KMLU 231415Z 20004KT 10SM SCT021 SCT070 26/22 A3011 -90 79 1200 200/04 RMK AO2 T02560217
13942KMLU MLU20190923082011309/23/19 08:20:31  5-MIN KMLU 231420Z 19005KT 10SM FEW021 SCT070 26/22 A3011 -90 76 1200 190/05 RMK AO2 T02610217
13942KMLU MLU20190923082511309/23/19 08:25:31  5-MIN KMLU 231425Z 18005KT 10SM FEW022 FEW070 27/22 A3011 -90 76 1300 180/05 RMK AO2 T02670222
13942KMLU MLU20190923083010309/23/19 08:30:31  5-MIN KMLU 231430Z 19005KT 10SM CLR 27/22 A3011 -90 76 1300 190/05 RMK AO2 T02670222
13942KMLU MLU20190923083510309/23/19 08:35:31  5-MIN KMLU 231435Z 20007KT 10SM CLR 27/22 A3011 -90 76 1300 200/07 RMK AO2 T02670222
13942KMLU MLU20190923084010609/23/19 08:40:31  5-MIN KMLU 231440Z 19006KT 10SM FEW012 26/22 A3011 -90 79 1200 190/06 RMK AO2 T02610222
13942KMLU MLU20190923084511309/23/19 08:45:31  5-MIN KMLU 231445Z 19006KT 10SM FEW012 SCT070 26/22 A3011 -90 79 1200 190/06 RMK AO2 T02610222
13942KMLU MLU20190923085012609/23/19 08:50:31  5-MIN KMLU 231450Z 20004KT 10SM FEW012 BKN070 26/22 A3012 -90 79 1200 200/04 RMK AO2 SLP196 T02610222 53009
13942KMLU MLU20190923085511409/23/19 08:55:31  5-MIN KMLU 231455Z 19006KT 10SM FEW012 BKN070 27/22 A3012 -100 76 1300 190/06 RMK AO2 T02670222
13942KMLU MLU20190923090011409/23/19 09:00:31  5-MIN KMLU 231500Z 21005KT 10SM FEW012 BKN070 27/22 A3012 -100 76 1300 210/05 RMK AO2 T02670222
13942KMLU MLU20190923090511409/23/19 09:05:31  5-MIN KMLU 231505Z 21004KT 10SM FEW012 BKN070 27/23 A3012 -100 79 1300 210/04 RMK AO2 T02670228
13942KMLU MLU20190923091010709/23/19 09:10:31  5-MIN KMLU 231510Z 19006KT 10SM BKN070 27/23 A3012 -100 79 1300 190/06 RMK AO2 T02670228
13942KMLU MLU20190923091510709/23/19 09:15:31  5-MIN KMLU 231515Z 20004KT 10SM BKN070 27/23 A3012 -100 79 1300 200/04 RMK AO2 T02720233
13942KMLU MLU20190923092010709/23/19 09:20:31  5-MIN KMLU 231520Z 22005KT 10SM BKN070 28/23 A3012 -100 74 1400 220/05 RMK AO2 T02780228
13942KMLU MLU20190923092510709/23/19 09:25:31  5-MIN KMLU 231525Z 24007KT 10SM BKN070 28/23 A3012 -100 74 1400 240/07 RMK AO2 T02780228
13942KMLU MLU20190923093011409/23/19 09:30:31  5-MIN KMLU 231530Z 22006KT 10SM FEW019 OVC070 28/23 A3012 -100 74 1400 220/06 RMK AO2 T02780228
13942KMLU MLU20190923093511409/23/19 09:35:31  5-MIN KMLU 231535Z VRB05KT 10SM SCT019 OVC070 28/23 A3012 -100 74 1400 VRB/05 RMK AO2 T02830233
13942KMLU MLU20190923094011409/23/19 09:40:31  5-MIN KMLU 231540Z 22007KT 10SM BKN018 OVC070 28/23 A3012 -100 74 1400 220/07 RMK AO2 T02830233
13942KMLU MLU20190923094511409/23/19 09:45:31  5-MIN KMLU 231545Z 24007KT 10SM SCT018 OVC070 28/23 A3012 -100 71 1400 240/07 RMK AO2 T02830228
13942KMLU MLU20190923095010409/23/19 09:50:31  5-MIN KMLU 231550Z 24007KT 10SM SCT018 OVC070 28/23 A3012 -100 71 1400 240/07 RMK AO2
13942KMLU MLU20190923095511409/23/19 09:55:31  5-MIN KMLU 231555Z 25008KT 10SM BKN018 OVC070 29/23 A3012 -100 69 1500 250/08 RMK AO2 T02890228
13942KMLU MLU20190923100011409/23/19 10:00:31  5-MIN KMLU 231600Z 26010KT 10SM BKN018 OVC070 29/23 A3012 -100 69 1500 260/10 RMK AO2 T02890228
13942KMLU MLU20190923100511409/23/19 10:05:31  5-MIN KMLU 231605Z 25008KT 10SM BKN018 OVC070 29/23 A3012 -100 69 1500 250/08 RMK AO2 T02890228
13942KMLU MLU20190923101011409/23/19 10:10:31  5-MIN KMLU 231610Z 26009KT 10SM BKN018 OVC070 29/23 A3012 -100 69 1500 260/09 RMK AO2 T02890228
13942KMLU MLU20190923101511309/23/19 10:15:31  5-MIN KMLU 231615Z 25008KT 10SM BKN018 OVC070 29/23 A3012 -90 69 1500 250/08 RMK AO2 T02890228
13942KMLU MLU20190923102011309/23/19 10:20:31  5-MIN KMLU 231620Z 21005KT 10SM BKN018 OVC070 30/23 A3011 -90 65 1600 200/05 RMK AO2 T03000228
13942KMLU MLU20190923102511309/23/19 10:25:31  5-MIN KMLU 231625Z 23006KT 10SM BKN018 OVC070 30/23 A3011 -90 67 1600 230/06 RMK AO2 T03000233
13942KMLU MLU20190923103011309/23/19 10:30:31  5-MIN KMLU 231630Z 22007KT 10SM BKN018 OVC070 30/23 A3011 -90 65 1600 220/07 RMK AO2 T03000228
13942KMLU MLU20190923103511309/23/19 10:35:31  5-MIN KMLU 231635Z VRB05KT 10SM BKN018 OVC070 31/23 A3011 -90 62 1700 VRB/05 RMK AO2 T03060228
13942KMLU MLU20190923104011309/23/19 10:40:31  5-MIN KMLU 231640Z 22007KT 10SM BKN018 OVC070 31/23 A3011 -90 62 1700 220/07 RMK AO2 T03060228
13942KMLU MLU20190923104512909/23/19 10:45:31  5-MIN KMLU 231645Z 22007KT 190V250 10SM BKN018 OVC070 31/23 A3011 -90 62 1700 220/07 190V250 RMK AO2 T03060228
13942KMLU MLU20190923105012009/23/19 10:50:31  5-MIN KMLU 231650Z 28005KT 10SM BKN018 OVC070 31/23 A3011 -90 62 1700 280/05 RMK AO2 SLP193 T03060228
13942KMLU MLU20190923105510609/23/19 10:55:31  5-MIN KMLU 231655Z 27010KT 10SM BKN028 31/23 A3011 -80 62 1700 270/10 RMK AO2 T03060228
13942KMLU MLU20190923110011309/23/19 11:00:31  5-MIN KMLU 231700Z 23006KT 10SM BKN028 BKN070 31/23 A3010 -80 62 1700 230/06 RMK AO2 T03060228
13942KMLU MLU20190923110511309/23/19 11:05:31  5-MIN KMLU 231705Z 24009KT 10SM BKN028 BKN070 31/22 A3010 -80 60 1700 240/09 RMK AO2 T03060222
13942KMLU MLU20190923111011309/23/19 11:10:31  5-MIN KMLU 231710Z 25007KT 10SM BKN029 BKN070 31/22 A3010 -80 60 1700 250/07 RMK AO2 T03060222
13942KMLU MLU20190923111511309/23/19 11:15:31  5-MIN KMLU 231715Z 26009KT 10SM SCT029 OVC070 30/22 A3010 -80 62 1700 260/09 RMK AO2 T03000222
13942KMLU MLU20190923112011309/23/19 11:20:31  5-MIN KMLU 231720Z 26005KT 10SM FEW029 OVC070 30/23 A3010 -80 65 1700 260/05 RMK AO2 T03000228
13942KMLU MLU20190923112511309/23/19 11:25:31  5-MIN KMLU 231725Z VRB03KT 10SM FEW031 BKN070 31/23 A3009 -70 62 1700 VRB/03 RMK AO2 T03060228
13942KMLU MLU20190923113011309/23/19 11:30:31  5-MIN KMLU 231730Z 29006KT 10SM FEW031 BKN070 31/23 A3009 -70 60 1800 290/06 RMK AO2 T03110228
13942KMLU MLU20190923113510609/23/19 11:35:31  5-MIN KMLU 231735Z 24008KT 10SM BKN070 31/22 A3009 -70 58 1800 240/08 RMK AO2 T03110222
13942KMLU MLU20190923114010609/23/19 11:40:31  5-MIN KMLU 231740Z VRB05KT 10SM SCT070 31/22 A3009 -70 58 1800 VRB/05 RMK AO2 T03110222
13942KMLU MLU20190923114511309/23/19 11:45:31  5-MIN KMLU 231745Z 23008KT 10SM FEW033 SCT070 32/22 A3008 -70 55 1900 230/08 RMK AO2 T03170217
13942KMLU MLU20190923115013809/23/19 11:50:31  5-MIN KMLU 231750Z 23005KT 10SM FEW033 FEW070 32/22 A3008 -60 55 1900 230/05 RMK AO2 SLP185 T03170217 10317 20206 51014
13942KMLU MLU20190923115510609/23/19 11:55:31  5-MIN KMLU 231755Z 24007KT 10SM SCT070 32/21 A3008 -60 51 1900 240/07 RMK AO2 T03220211
13942KMLU MLU20190923120011309/23/19 12:00:31  5-MIN KMLU 231800Z 26008KT 10SM BKN035 BKN070 32/21 A3008 -60 53 1900 260/08 RMK AO2 T03170211
13942KMLU MLU20190923120511309/23/19 12:05:31  5-MIN KMLU 231805Z 23006KT 10SM BKN035 BKN070 32/21 A3008 -60 53 1900 230/06 RMK AO2 T03170211
13942KMLU MLU20190923121011309/23/19 12:10:31  5-MIN KMLU 231810Z 20004KT 10SM BKN035 BKN070 31/22 A3008 -60 56 1800 200/04 RMK AO2 T03110217
13942KMLU MLU20190923121511309/23/19 12:15:31  5-MIN KMLU 231815Z 26007KT 10SM BKN035 BKN070 32/21 A3007 -50 51 1900 260/07 RMK AO2 T03220211
13942KMLU MLU20190923122011209/23/19 12:20:31  5-MIN KMLU 231820Z 28004KT 7SM BKN035 BKN070 32/21 A3007 -50 51 1900 280/04 RMK AO2 T03220211
13942KMLU MLU20190923122511509/23/19 12:25:31  5-MIN KMLU 231825Z VRB05KT 6SM HZ BKN035 BKN070 32/21 A3007 -50 51 1900 VRB/05 RMK AO2 T03220211
13942KMLU MLU20190923123012809/23/19 12:30:31  5-MIN KMLU 231830Z 21007KT 180V240 9SM BKN035 BKN070 32/22 A3007 -50 53 1900 210/07 180V240 RMK AO2 T03220217
13942KMLU MLU20190923123511309/23/19 12:35:31  5-MIN KMLU 231835Z 25006KT 10SM BKN035 BKN070 32/22 A3006 -50 53 1900 250/06 RMK AO2 T03220217
13942KMLU MLU20190923124011309/23/19 12:40:31  5-MIN KMLU 231840Z 26008KT 10SM BKN035 BKN070 32/21 A3006 -40 53 1900 260/08 RMK AO2 T03170211
13942KMLU MLU20190923124511309/23/19 12:45:31  5-MIN KMLU 231845Z 28006KT 10SM BKN035 BKN070 32/22 A3006 -40 53 2000 280/06 RMK AO2 T03220217
13942KMLU MLU20190923125011309/23/19 12:50:31  5-MIN KMLU 231850Z 00000KT 10SM BKN075 32/21 A3006 -40 53 1900 000/00 RMK AO2 SLP176 T03170211
13942KMLU MLU20190923125510609/23/19 12:55:31  5-MIN KMLU 231855Z VRB04KT 10SM BKN075 32/21 A3005 -40 53 1900 VRB/04 RMK AO2 T03170211
13942KMLU MLU20190923130010609/23/19 13:00:31  5-MIN KMLU 231900Z 22005KT 10SM BKN075 32/21 A3005 -40 51 2000 220/05 RMK AO2 T03220211
13942KMLU MLU20190923130510609/23/19 13:05:31  5-MIN KMLU 231905Z 31005KT 10SM BKN075 32/21 A3005 -30 51 1900 310/05 RMK AO2 T03170206
13942KMLU MLU20190923131010609/23/19 13:10:31  5-MIN KMLU 231910Z VRB03KT 10SM BKN075 32/19 A3005 -30 46 2000 VRB/03 RMK AO2 T03220194
13942KMLU MLU20190923131510609/23/19 13:15:31  5-MIN KMLU 231915Z 25005KT 10SM BKN075 33/21 A3004 -30 48 2000 250/05 RMK AO2 T03280206
13942KMLU MLU20190923132010609/23/19 13:20:31  5-MIN KMLU 231920Z VRB03KT 10SM BKN075 33/20 A3004 -30 46 2000 VRB/03 RMK AO2 T03280200
13942KMLU MLU20190923132510609/23/19 13:25:31  5-MIN KMLU 231925Z 00000KT 10SM SCT075 33/20 A3004 -20 45 2100 000/00 RMK AO2 T03330200
13942KMLU MLU20190923133011309/23/19 13:30:31  5-MIN KMLU 231930Z VRB04KT 10SM FEW070 FEW085 33/20 A3004 -20 46 2000 VRB/04 RMK AO2 T03280200
13942KMLU MLU20190923133510609/23/19 13:35:31  5-MIN KMLU 231935Z 28004KT 10SM FEW080 32/19 A3003 -20 46 2000 280/04 RMK AO2 T03220194
13942KMLU MLU20190923134010309/23/19 13:40:31  5-MIN KMLU 231940Z VRB05KT 10SM CLR 34/20 A3003 -10 43 2200 VRB/05 RMK AO2 T03390200
13942KMLU MLU20190923134510809/23/19 13:45:31  5-MIN KMLU 231945Z AUTO VRB04KT 10SM CLR 33/20 A3003 -10 45 2100 VRB/04 RMK AO2 T03330200
13942KMLU MLU20190923135011509/23/19 13:50:31  5-MIN KMLU 231950Z AUTO 28003KT 10SM CLR 33/20 A3003 -10 45 2100 280/03 RMK AO2 SLP166 T03330200
13942KMLU MLU20190923135510309/23/19 13:55:31  5-MIN KMLU 231955Z 35004KT 10SM CLR 34/20 A3003 -10 43 2200 340/04 RMK AO2 T03390200
13942KMLU MLU20190923140010609/23/19 14:00:31  5-MIN KMLU 232000Z 07003KT 10SM BKN075 34/19 A3002 -10 40 2200 070/03 RMK AO2 T03390189
13942KMLU MLU20190923140510609/23/19 14:05:31  5-MIN KMLU 232005Z 28003KT 10SM BKN075 34/19 A3002 -10 42 2200 280/03 RMK AO2 T03390194
13942KMLU MLU20190923141010609/23/19 14:10:31  5-MIN KMLU 232010Z 00000KT 10SM BKN075 33/19 A3002 -10 43 2100 000/00 RMK AO2 T03330194
13942KMLU MLU20190923141510609/23/19 14:15:31  5-MIN KMLU 232015Z 23006KT 10SM BKN075 34/19 A3002 -10 42 2200 230/06 RMK AO2 T03390194
13942KMLU MLU20190923142010609/23/19 14:20:31  5-MIN KMLU 232020Z VRB04KT 10SM BKN075 34/19 A3002 -10 42 2200 VRB/04 RMK AO2 T03390194
13942KMLU MLU20190923142510609/23/19 14:25:31  5-MIN KMLU 232025Z 22003KT 10SM BKN075 33/19 A3002 -10 43 2100 220/03 RMK AO2 T03330194
13942KMLU MLU20190923143010409/23/19 14:30:31  5-MIN KMLU 232030Z 00000KT 10SM BKN075 34/19 A3002 0 40 2200 000/00 RMK AO2 T03390189
13942KMLU MLU20190923143510409/23/19 14:35:31  5-MIN KMLU 232035Z 00000KT 10SM BKN075 33/19 A3002 0 43 2100 000/00 RMK AO2 T03330194
13942KMLU MLU20190923144010409/23/19 14:40:31  5-MIN KMLU 232040Z VRB04KT 10SM BKN075 33/19 A3002 0 43 2100 VRB/04 RMK AO2 T03330194
13942KMLU MLU20190923144510409/23/19 14:45:31  5-MIN KMLU 232045Z 10003KT 10SM BKN075 34/19 A3002 0 42 2200 100/03 RMK AO2 T03390194
13942KMLU MLU20190923145011709/23/19 14:50:31  5-MIN KMLU 232050Z VRB03KT 10SM BKN075 34/20 A3002 0 43 2200 VRB/03 RMK AO2 SLP162 T03390200 58014
13942KMLU MLU20190923145510109/23/19 14:55:31  5-MIN KMLU 232055Z VRB04KT 10SM CLR 34/20 A3001 0 43 2200 VRB/04 RMK AO2 T03390200
13942KMLU MLU20190923150010109/23/19 15:00:31  5-MIN KMLU 232100Z VRB03KT 10SM CLR 33/20 A3001 0 45 2100 VRB/03 RMK AO2 T03330200
13942KMLU MLU20190923150510109/23/19 15:05:31  5-MIN KMLU 232105Z VRB03KT 10SM CLR 34/20 A3001 0 43 2200 VRB/03 RMK AO2 T03390200
13942KMLU MLU20190923151010109/23/19 15:10:31  5-MIN KMLU 232110Z 00000KT 10SM CLR 34/20 A3001 0 43 2200 000/00 RMK AO2 T03390200
13942KMLU MLU20190923151510109/23/19 15:15:31  5-MIN KMLU 232115Z 32004KT 10SM CLR 33/19 A3001 0 43 2100 320/04 RMK AO2 T03330194
13942KMLU MLU20190923152010109/23/19 15:20:31  5-MIN KMLU 232120Z 32006KT 10SM CLR 33/19 A3001 0 43 2100 320/06 RMK AO2 T03280189
13942KMLU MLU20190923152510109/23/19 15:25:31  5-MIN KMLU 232125Z 32005KT 10SM CLR 32/18 A3001 0 43 2000 320/05 RMK AO2 T03220183
13942KMLU MLU20190923153010109/23/19 15:30:31  5-MIN KMLU 232130Z 31005KT 10SM CLR 32/19 A3001 0 44 2000 310/05 RMK AO2 T03220189
13942KMLU MLU20190923153510109/23/19 15:35:31  5-MIN KMLU 232135Z VRB03KT 10SM CLR 34/19 A3001 0 42 2200 VRB/03 RMK AO2 T03390194
13942KMLU MLU20190923154010109/23/19 15:40:31  5-MIN KMLU 232140Z 28004KT 10SM CLR 33/19 A3000 0 43 2100 280/04 RMK AO2 T03330194
13942KMLU MLU20190923154510109/23/19 15:45:31  5-MIN KMLU 232145Z 17003KT 10SM CLR 33/19 A3000 0 42 2100 170/03 RMK AO2 T03330189
13942KMLU MLU20190923155010909/23/19 15:50:31  5-MIN KMLU 232150Z 00000KT 10SM CLR 33/19 A3000 10 43 2100 000/00 RMK AO2 SLP158 T03330194
13942KMLU MLU20190923155510209/23/19 15:55:31  5-MIN KMLU 232155Z 31003KT 10SM CLR 34/19 A3000 10 42 2200 310/03 RMK AO2 T03390194
13942KMLU MLU20190923160010209/23/19 16:00:31  5-MIN KMLU 232200Z VRB04KT 10SM CLR 34/19 A3000 10 40 2200 VRB/04 RMK AO2 T03390189
13942KMLU MLU20190923160510209/23/19 16:05:31  5-MIN KMLU 232205Z 28005KT 10SM CLR 34/19 A3000 10 42 2200 280/05 RMK AO2 T03390194
13942KMLU MLU20190923161010209/23/19 16:10:31  5-MIN KMLU 232210Z 00000KT 10SM CLR 33/19 A3000 10 42 2100 000/00 RMK AO2 T03330189
13942KMLU MLU20190923161510209/23/19 16:15:31  5-MIN KMLU 232215Z 00000KT 10SM CLR 34/19 A2999 10 40 2200 000/00 RMK AO2 T03390189
13942KMLU MLU20190923162010209/23/19 16:20:31  5-MIN KMLU 232220Z 27003KT 10SM CLR 33/19 A2999 10 42 2100 270/03 RMK AO2 T03330189
13942KMLU MLU20190923162510209/23/19 16:25:31  5-MIN KMLU 232225Z 00000KT 10SM CLR 33/19 A2999 10 42 2100 000/00 RMK AO2 T03330189
13942KMLU MLU20190923163010209/23/19 16:30:31  5-MIN KMLU 232230Z 29005KT 10SM CLR 33/19 A2999 10 42 2100 290/05 RMK AO2 T03330189
13942KMLU MLU20190923163510209/23/19 16:35:31  5-MIN KMLU 232235Z 29003KT 10SM CLR 33/19 A2999 10 43 2100 290/03 RMK AO2 T03330194
13942KMLU MLU20190923164010209/23/19 16:40:31  5-MIN KMLU 232240Z 00000KT 10SM CLR 33/19 A2999 10 43 2100 000/00 RMK AO2 T03330194
13942KMLU MLU20190923164510209/23/19 16:45:31  5-MIN KMLU 232245Z 26003KT 10SM CLR 33/19 A2999 10 43 2100 260/03 RMK AO2 T03330194
13942KMLU MLU20190923165010909/23/19 16:50:31  5-MIN KMLU 232250Z VRB03KT 10SM CLR 33/19 A2999 10 44 2100 VRB/03 RMK AO2 SLP154 T03280194
13942KMLU MLU20190923165510209/23/19 16:55:31  5-MIN KMLU 232255Z 36003KT 10SM CLR 34/19 A2999 20 42 2200 360/03 RMK AO2 T03390194
13942KMLU MLU20190923170010209/23/19 17:00:31  5-MIN KMLU 232300Z 31004KT 10SM CLR 33/19 A2999 20 43 2200 300/04 RMK AO2 T03330194
13942KMLU MLU20190923170510209/23/19 17:05:31  5-MIN KMLU 232305Z 31003KT 10SM CLR 33/19 A2999 20 44 2100 310/03 RMK AO2 T03280194
13942KMLU MLU20190923171010209/23/19 17:10:31  5-MIN KMLU 232310Z 29003KT 10SM CLR 33/19 A2999 20 44 2100 290/03 RMK AO2 T03280194
13942KMLU MLU20190923171510209/23/19 17:15:31  5-MIN KMLU 232315Z 31003KT 10SM CLR 33/19 A2999 20 44 2100 310/03 RMK AO2 T03280194
13942KMLU MLU20190923172010209/23/19 17:20:31  5-MIN KMLU 232320Z 00000KT 10SM CLR 33/19 A2999 20 44 2100 000/00 RMK AO2 T03280194
13942KMLU MLU20190923172510209/23/19 17:25:31  5-MIN KMLU 232325Z 00000KT 10SM CLR 33/19 A2999 20 44 2100 000/00 RMK AO2 T03280194
13942KMLU MLU20190923173010209/23/19 17:30:31  5-MIN KMLU 232330Z 00000KT 10SM CLR 32/19 A2999 20 46 2000 000/00 RMK AO2 T03220194
13942KMLU MLU20190923173510209/23/19 17:35:31  5-MIN KMLU 232335Z 00000KT 10SM CLR 32/20 A2999 20 49 2000 000/00 RMK AO2 T03170200
13942KMLU MLU20190923174010209/23/19 17:40:31  5-MIN KMLU 232340Z 00000KT 10SM CLR 31/21 A2999 20 53 1900 000/00 RMK AO2 T03110206
13942KMLU MLU20190923174510209/23/19 17:45:31  5-MIN KMLU 232345Z 00000KT 10SM CLR 30/21 A2999 20 58 1800 000/00 RMK AO2 T03000211
13942KMLU MLU20190923175012709/23/19 17:50:31  5-MIN KMLU 232350Z 18003KT 10SM CLR 29/21 A2998 20 60 1700 180/03 RMK AO2 SLP152 T02940211 10344 20294 56023
13942KMLU MLU20190923175510209/23/19 17:55:31  5-MIN KMLU 232355Z 17003KT 10SM CLR 29/22 A2998 20 64 1700 170/03 RMK AO2 T02890217
13942KMLU MLU20190923180010209/23/19 18:00:31  5-MIN KMLU 240000Z 17003KT 10SM CLR 29/22 A2998 20 67 1700 170/03 RMK AO2 T02890222
13942KMLU MLU20190923180510209/23/19 18:05:31  5-MIN KMLU 240005Z 16003KT 10SM CLR 28/22 A2998 20 69 1600 160/03 RMK AO2 T02830222
13942KMLU MLU20190923181010209/23/19 18:10:31  5-MIN KMLU 240010Z 00000KT 10SM CLR 28/22 A2998 20 69 1600 000/00 RMK AO2 T02830222
13942KMLU MLU20190923181510209/23/19 18:15:31  5-MIN KMLU 240015Z 00000KT 10SM CLR 28/22 A2998 20 71 1500 000/00 RMK AO2 T02780222
13942KMLU MLU20190923182010209/23/19 18:20:31  5-MIN KMLU 240020Z 16003KT 10SM CLR 28/22 A2998 20 69 1500 160/03 RMK AO2 T02780217
13942KMLU MLU20190923182510209/23/19 18:25:31  5-MIN KMLU 240025Z 17003KT 10SM CLR 28/22 A2998 20 69 1500 170/03 RMK AO2 T02780217
13942KMLU MLU20190923183010209/23/19 18:30:31  5-MIN KMLU 240030Z 00000KT 10SM CLR 28/22 A2998 20 69 1500 000/00 RMK AO2 T02780217
13942KMLU MLU20190923183510209/23/19 18:35:31  5-MIN KMLU 240035Z 00000KT 10SM CLR 27/22 A2998 20 73 1400 000/00 RMK AO2 T02670217
13942KMLU MLU20190923184010209/23/19 18:40:31  5-MIN KMLU 240040Z 00000KT 10SM CLR 27/22 A2998 20 76 1400 000/00 RMK AO2 T02670222
13942KMLU MLU20190923184510209/23/19 18:45:31  5-MIN KMLU 240045Z 00000KT 10SM CLR 27/22 A2999 20 73 1400 000/00 RMK AO2 T02670217
13942KMLU MLU20190923185010909/23/19 18:50:31  5-MIN KMLU 240050Z 00000KT 10SM CLR 26/21 A2999 20 73 1300 000/00 RMK AO2 SLP152 T02610211
13942KMLU MLU20190923185510209/23/19 18:55:31  5-MIN KMLU 240055Z 00000KT 10SM CLR 26/21 A2999 20 73 1300 000/00 RMK AO2 T02610211
13942KMLU MLU20190923190010209/23/19 19:00:31  5-MIN KMLU 240100Z 00000KT 10SM CLR 26/21 A2999 20 73 1300 000/00 RMK AO2 T02610211
13942KMLU MLU20190923190510209/23/19 19:05:31  5-MIN KMLU 240105Z 14003KT 10SM CLR 26/22 A2999 20 79 1300 140/03 RMK AO2 T02560217
13942KMLU MLU20190923191010209/23/19 19:10:31  5-MIN KMLU 240110Z 00000KT 10SM CLR 26/22 A2999 10 79 1300 000/00 RMK AO2 T02560217
13942KMLU MLU20190923191510209/23/19 19:15:31  5-MIN KMLU 240115Z 00000KT 10SM CLR 26/21 A3000 10 73 1300 000/00 RMK AO2 T02610211
13942KMLU MLU20190923192010209/23/19 19:20:31  5-MIN KMLU 240120Z 14003KT 10SM CLR 26/22 A3000 10 79 1300 140/03 RMK AO2 T02560217
13942KMLU MLU20190923192510209/23/19 19:25:31  5-MIN KMLU 240125Z 00000KT 10SM CLR 26/21 A3000 10 76 1300 000/00 RMK AO2 T02560211
13942KMLU MLU20190923193010209/23/19 19:30:31  5-MIN KMLU 240130Z 00000KT 10SM CLR 26/21 A3000 10 76 1300 000/00 RMK AO2 T02560211
13942KMLU MLU20190923193510209/23/19 19:35:31  5-MIN KMLU 240135Z 00000KT 10SM CLR 26/22 A3000 10 79 1300 000/00 RMK AO2 T02560217
13942KMLU MLU20190923194010209/23/19 19:40:31  5-MIN KMLU 240140Z 00000KT 10SM CLR 26/22 A3000 10 79 1300 000/00 RMK AO2 T02560217
13942KMLU MLU20190923194510209/23/19 19:45:31  5-MIN KMLU 240145Z 00000KT 10SM CLR 26/21 A3000 10 73 1300 000/00 RMK AO2 T02610211
13942KMLU MLU20190923195010809/23/19 19:50:31  5-MIN KMLU 240150Z 00000KT 10SM CLR 26/21 A3000 0 73 1300 000/00 RMK AO2 SLP158 T02610211
13942KMLU MLU20190923195510109/23/19 19:55:31  5-MIN KMLU 240155Z 00000KT 10SM CLR 25/21 A3000 0 79 1200 000/00 RMK AO2 T02500211
13942KMLU MLU20190923200010209/23/19 20:00:31  5-MIN KMLU 240200Z 00000KT 10SM CLR 25/21 A3000 10 79 1200 000/00 RMK AO2 T02500211
13942KMLU MLU20190923200510209/23/19 20:05:31  5-MIN KMLU 240205Z 00000KT 10SM CLR 25/21 A3000 10 79 1200 000/00 RMK AO2 T02500211
13942KMLU MLU20190923201010209/23/19 20:10:31  5-MIN KMLU 240210Z 00000KT 10SM CLR 25/21 A3000 10 79 1200 000/00 RMK AO2 T02500211
13942KMLU MLU20190923201510209/23/19 20:15:31  5-MIN KMLU 240215Z 00000KT 10SM CLR 25/21 A3000 10 79 1200 000/00 RMK AO2 T02500211
13942KMLU MLU20190923202010209/23/19 20:20:31  5-MIN KMLU 240220Z 00000KT 10SM CLR 25/21 A3000 10 79 1200 000/00 RMK AO2 T02500211
13942KMLU MLU20190923202510209/23/19 20:25:31  5-MIN KMLU 240225Z 00000KT 10SM CLR 25/21 A3000 10 79 1200 000/00 RMK AO2 T02500211
13942KMLU MLU20190923203010109/23/19 20:30:31  5-MIN KMLU 240230Z 00000KT 10SM CLR 24/21 A3000 0 81 1100 000/00 RMK AO2 T02440211
13942KMLU MLU20190923203510109/23/19 20:35:31  5-MIN KMLU 240235Z 00000KT 10SM CLR 25/21 A3000 0 79 1200 000/00 RMK AO2 T02500211
13942KMLU MLU20190923204010109/23/19 20:40:31  5-MIN KMLU 240240Z 00000KT 10SM CLR 24/21 A3000 0 81 1100 000/00 RMK AO2 T02440211
13942KMLU MLU20190923204510209/23/19 20:45:31  5-MIN KMLU 240245Z 00000KT 10SM CLR 24/21 A3000 10 81 1100 000/00 RMK AO2 T02440211
13942KMLU MLU20190923205011509/23/19 20:50:31  5-MIN KMLU 240250Z 00000KT 10SM CLR 24/21 A3000 10 81 1100 000/00 RMK AO2 SLP158 T02440211 56010
13942KMLU MLU20190923205510109/23/19 20:55:31  5-MIN KMLU 240255Z 00000KT 10SM CLR 24/21 A3000 0 81 1100 000/00 RMK AO2 T02440211
13942KMLU MLU20190923210010609/23/19 21:00:31  5-MIN KMLU 240300Z AUTO 00000KT 10SM CLR 24/21 A3001 0 81 1100 000/00 RMK AO2 T02440211
13942KMLU MLU20190923210510609/23/19 21:05:31  5-MIN KMLU 240305Z AUTO 00000KT 10SM CLR 24/21 A3001 0 81 1100 000/00 RMK AO2 T02440211
13942KMLU MLU20190923211010609/23/19 21:10:31  5-MIN KMLU 240310Z AUTO 00000KT 10SM CLR 24/21 A3001 0 81 1100 000/00 RMK AO2 T02440211
13942KMLU MLU20190923211510609/23/19 21:15:31  5-MIN KMLU 240315Z AUTO 00000KT 10SM CLR 24/21 A3001 0 81 1100 000/00 RMK AO2 T02440211
13942KMLU MLU20190923212010609/23/19 21:20:31  5-MIN KMLU 240320Z AUTO 00000KT 10SM CLR 24/21 A3001 0 81 1100 000/00 RMK AO2 T02440211
13942KMLU MLU20190923212510609/23/19 21:25:31  5-MIN KMLU 240325Z AUTO 00000KT 10SM CLR 24/21 A3001 0 84 1100 000/00 RMK AO2 T02390211
13942KMLU MLU20190923213010609/23/19 21:30:31  5-MIN KMLU 240330Z AUTO 00000KT 10SM CLR 24/21 A3001 0 81 1100 000/00 RMK AO2 T02440211
13942KMLU MLU20190923213510609/23/19 21:35:31  5-MIN KMLU 240335Z AUTO 00000KT 10SM CLR 24/21 A3001 0 84 1100 000/00 RMK AO2 T02390211
13942KMLU MLU20190923214010609/23/19 21:40:31  5-MIN KMLU 240340Z AUTO 00000KT 10SM CLR 24/21 A3001 0 81 1100 000/00 RMK AO2 T02440211
13942KMLU MLU20190923214510609/23/19 21:45:31  5-MIN KMLU 240345Z AUTO 00000KT 10SM CLR 24/21 A3001 0 81 1100 000/00 RMK AO2 T02440211
13942KMLU MLU20190923215011309/23/19 21:50:31  5-MIN KMLU 240350Z AUTO 00000KT 10SM CLR 24/21 A3001 0 84 1100 000/00 RMK AO2 SLP160 T02390211
13942KMLU MLU20190923215510609/23/19 21:55:31  5-MIN KMLU 240355Z AUTO 00000KT 10SM CLR 23/21 A3001 0 87 1000 000/00 RMK AO2 T02330211
13942KMLU MLU20190923220010609/23/19 22:00:31  5-MIN KMLU 240400Z AUTO 00000KT 10SM CLR 23/21 A3001 0 87 1000 000/00 RMK AO2 T02330211
13942KMLU MLU20190923220510609/23/19 22:05:31  5-MIN KMLU 240405Z AUTO 00000KT 10SM CLR 24/21 A3001 0 84 1100 000/00 RMK AO2 T02390211
13942KMLU MLU20190923221010609/23/19 22:10:31  5-MIN KMLU 240410Z AUTO 00000KT 10SM CLR 23/21 A3001 0 87 1000 000/00 RMK AO2 T02330211
13942KMLU MLU20190923221510609/23/19 22:15:31  5-MIN KMLU 240415Z AUTO 00000KT 10SM CLR 24/21 A3001 0 84 1100 000/00 RMK AO2 T02390211
13942KMLU MLU20190923222010609/23/19 22:20:31  5-MIN KMLU 240420Z AUTO 00000KT 10SM CLR 24/21 A3000 0 84 1100 000/00 RMK AO2 T02390211
13942KMLU MLU20190923222510609/23/19 22:25:31  5-MIN KMLU 240425Z AUTO 00000KT 10SM CLR 24/21 A3000 0 84 1100 000/00 RMK AO2 T02390211
13942KMLU MLU20190923223010609/23/19 22:30:31  5-MIN KMLU 240430Z AUTO 00000KT 10SM CLR 23/21 A3000 0 87 1000 000/00 RMK AO2 T02330211
13942KMLU MLU20190923223510609/23/19 22:35:31  5-MIN KMLU 240435Z AUTO 00000KT 10SM CLR 23/21 A3000 0 87 1000 000/00 RMK AO2 T02330211
13942KMLU MLU20190923224010609/23/19 22:40:31  5-MIN KMLU 240440Z AUTO 00000KT 10SM CLR 24/21 A3000 0 84 1100 000/00 RMK AO2 T02390211
13942KMLU MLU20190923224510609/23/19 22:45:31  5-MIN KMLU 240445Z AUTO 00000KT 10SM CLR 24/21 A3000 0 84 1100 000/00 RMK AO2 T02390211
13942KMLU MLU20190923225011409/23/19 22:50:31  5-MIN KMLU 240450Z AUTO 00000KT 10SM CLR 24/21 A3000 10 84 1100 000/00 RMK AO2 SLP158 T02390211
13942KMLU MLU20190923225510709/23/19 22:55:31  5-MIN KMLU 240455Z AUTO 00000KT 10SM CLR 23/21 A3000 10 87 1000 000/00 RMK AO2 T02330211
13942KMLU MLU20190923230010709/23/19 23:00:31  5-MIN KMLU 240500Z AUTO 00000KT 10SM CLR 24/21 A3000 10 84 1100 000/00 RMK AO2 T02390211
13942KMLU MLU20190923230510709/23/19 23:05:31  5-MIN KMLU 240505Z AUTO 00000KT 10SM CLR 23/21 A2999 10 87 1000 000/00 RMK AO2 T02330211
13942KMLU MLU20190923231010709/23/19 23:10:31  5-MIN KMLU 240510Z AUTO 00000KT 10SM CLR 23/21 A2999 10 87 1000 000/00 RMK AO2 T02330211
13942KMLU MLU20190923231510709/23/19 23:15:31  5-MIN KMLU 240515Z AUTO 00000KT 10SM CLR 24/21 A2999 20 84 1100 000/00 RMK AO2 T02390211
13942KMLU MLU20190923232010709/23/19 23:20:31  5-MIN KMLU 240520Z AUTO 00000KT 10SM CLR 23/21 A2999 20 87 1000 000/00 RMK AO2 T02330211
13942KMLU MLU20190923232510709/23/19 23:25:31  5-MIN KMLU 240525Z AUTO 00000KT 10SM CLR 24/21 A2999 20 84 1100 000/00 RMK AO2 T02390211
13942KMLU MLU20190923233010709/23/19 23:30:31  5-MIN KMLU 240530Z AUTO 20003KT 10SM CLR 24/21 A2999 20 84 1100 200/03 RMK AO2 T02390211
13942KMLU MLU20190923233510709/23/19 23:35:31  5-MIN KMLU 240535Z AUTO 19003KT 10SM CLR 24/21 A2999 20 84 1100 190/03 RMK AO2 T02390211
13942KMLU MLU20190923234010709/23/19 23:40:31  5-MIN KMLU 240540Z AUTO 00000KT 10SM CLR 24/21 A2998 20 81 1200 000/00 RMK AO2 T02440211
13942KMLU MLU20190923234510709/23/19 23:45:31  5-MIN KMLU 240545Z AUTO 00000KT 10SM CLR 24/21 A2999 20 84 1100 000/00 RMK AO2 T02390211
13942KMLU MLU20190923235014209/23/19 23:50:31  5-MIN KMLU 240550Z AUTO 00000KT 10SM CLR 24/21 A2999 20 84 1100 000/00 RMK AO2 SLP152 T02390211 10294 20233 403440206 50006
13942KMLU MLU20190923235510709/23/19 23:55:31  5-MIN KMLU 240555Z AUTO 00000KT 10SM CLR 24/21 A2999 20 84 1100 000/00 RMK AO2 T02390211
13942KMLU MLU20190924000010709/24/19 00:00:31  5-MIN KMLU 240600Z AUTO 00000KT 10SM CLR 24/21 A2999 20 84 1100 000/00 RMK AO2 T02390211
13942KMLU MLU20190924000510709/24/19 00:05:31  5-MIN KMLU 240605Z AUTO 00000KT 10SM CLR 24/21 A2999 20 84 1100 000/00 RMK AO2 T02390211
13942KMLU MLU20190924001010709/24/19 00:10:31  5-MIN KMLU 240610Z AUTO 00000KT 10SM CLR 24/21 A2998 20 84 1100 000/00 RMK AO2 T02390211
13942KMLU MLU20190924001510709/24/19 00:15:31  5-MIN KMLU 240615Z AUTO 22003KT 10SM CLR 24/21 A2998 20 84 1100 210/03 RMK AO2 T02390211
13942KMLU MLU20190924002010709/24/19 00:20:31  5-MIN KMLU 240620Z AUTO 00000KT 10SM CLR 24/21 A2999 20 84 1100 000/00 RMK AO2 T02390211
13942KMLU MLU20190924002510709/24/19 00:25:31  5-MIN KMLU 240625Z AUTO 00000KT 10SM CLR 23/21 A2999 20 87 1000 000/00 RMK AO2 T02330211
13942KMLU MLU20190924003010709/24/19 00:30:31  5-MIN KMLU 240630Z AUTO 00000KT 10SM CLR 23/21 A2999 20 87 1000 000/00 RMK AO2 T02330211
13942KMLU MLU20190924003511009/24/19 00:35:31  5-MIN KMLU 240635Z AUTO 00000KT 10SM FEW090 23/21 A2999 20 87 1000 000/00 RMK AO2 T02330211
13942KMLU MLU20190924004011009/24/19 00:40:31  5-MIN KMLU 240640Z AUTO 00000KT 10SM FEW090 23/21 A2999 20 90 1000 000/00 RMK AO2 T02280211
13942KMLU MLU20190924004510709/24/19 00:45:31  5-MIN KMLU 240645Z AUTO 00000KT 10SM CLR 23/21 A2999 20 90 1000 000/00 RMK AO2 T02280211
13942KMLU MLU20190924005011409/24/19 00:50:31  5-MIN KMLU 240650Z AUTO 00000KT 10SM CLR 23/21 A2999 20 90 1000 000/00 RMK AO2 SLP153 T02280211
13942KMLU MLU20190924005510709/24/19 00:55:31  5-MIN KMLU 240655Z AUTO 00000KT 10SM CLR 23/21 A2999 20 87 1000 000/00 RMK AO2 T02330211
13942KMLU MLU20190924010010709/24/19 01:00:31  5-MIN KMLU 240700Z AUTO 00000KT 10SM CLR 23/21 A2999 20 87 1000 000/00 RMK AO2 T02330211
13942KMLU MLU20190924010510709/24/19 01:05:31  5-MIN KMLU 240705Z AUTO 00000KT 10SM CLR 23/21 A2999 20 90 1000 000/00 RMK AO2 T02280211
13942KMLU MLU20190924011010709/24/19 01:10:31  5-MIN KMLU 240710Z AUTO 00000KT 10SM CLR 23/21 A2999 20 90 1000 000/00 RMK AO2 T02280211
13942KMLU MLU20190924011510709/24/19 01:15:31  5-MIN KMLU 240715Z AUTO 00000KT 10SM CLR 23/21 A2999 20 90 1000 000/00 RMK AO2 T02280211
13942KMLU MLU20190924012010709/24/19 01:20:31  5-MIN KMLU 240720Z AUTO 00000KT 10SM CLR 23/21 A2999 20 90 1000 000/00 RMK AO2 T02280211
13942KMLU MLU20190924012510709/24/19 01:25:31  5-MIN KMLU 240725Z AUTO 00000KT 10SM CLR 23/21 A2999 20 90 1000 000/00 RMK AO2 T02280211
13942KMLU MLU20190924013010709/24/19 01:30:31  5-MIN KMLU 240730Z AUTO 00000KT 10SM CLR 23/21 A2999 20 90 1000 000/00 RMK AO2 T02280211
13942KMLU MLU20190924013510709/24/19 01:35:31  5-MIN KMLU 240735Z AUTO 00000KT 10SM CLR 23/21 A2999 20 90 1000 000/00 RMK AO2 T02280211
13942KMLU MLU20190924014010709/24/19 01:40:31  5-MIN KMLU 240740Z AUTO 00000KT 10SM CLR 23/21 A2999 20 90 1000 000/00 RMK AO2 T02280211
13942KMLU MLU20190924014510709/24/19 01:45:31  5-MIN KMLU 240745Z AUTO 00000KT 10SM CLR 23/21 A2999 20 90 1000 000/00 RMK AO2 T02280211
13942KMLU MLU20190924015011409/24/19 01:50:31  5-MIN KMLU 240750Z AUTO 00000KT 10SM CLR 23/21 A2999 20 90 1000 000/00 RMK AO2 SLP153 T02280211
13942KMLU MLU20190924015510609/24/19 01:55:31  5-MIN KMLU 240755Z AUTO 00000KT 10SM CLR 22/21 A2999 20 90 900 000/00 RMK AO2 T02220206
13942KMLU MLU20190924020010609/24/19 02:00:31  5-MIN KMLU 240800Z AUTO 00000KT 10SM CLR 22/21 A2999 20 90 900 000/00 RMK AO2 T02220206
13942KMLU MLU20190924020510609/24/19 02:05:31  5-MIN KMLU 240805Z AUTO 00000KT 10SM CLR 22/21 A2999 20 90 900 000/00 RMK AO2 T02220206
13942KMLU MLU20190924021010609/24/19 02:10:31  5-MIN KMLU 240810Z AUTO 00000KT 10SM CLR 22/21 A2999 20 90 900 000/00 RMK AO2 T02220206
13942KMLU MLU20190924021510609/24/19 02:15:31  5-MIN KMLU 240815Z AUTO 00000KT 10SM CLR 22/21 A2999 20 90 900 000/00 RMK AO2 T02220206
13942KMLU MLU20190924022010609/24/19 02:20:31  5-MIN KMLU 240820Z AUTO 00000KT 10SM CLR 22/21 A2999 20 90 900 000/00 RMK AO2 T02220206
13942KMLU MLU20190924022510609/24/19 02:25:31  5-MIN KMLU 240825Z AUTO 00000KT 10SM CLR 22/21 A2999 20 93 900 000/00 RMK AO2 T02220211
13942KMLU MLU20190924023010609/24/19 02:30:31  5-MIN KMLU 240830Z AUTO 00000KT 10SM CLR 22/21 A2999 20 93 900 000/00 RMK AO2 T02220211
13942KMLU MLU20190924023510609/24/19 02:35:31  5-MIN KMLU 240835Z AUTO 00000KT 10SM CLR 22/21 A2999 20 93 900 000/00 RMK AO2 T02220211
13942KMLU MLU20190924024010609/24/19 02:40:31  5-MIN KMLU 240840Z AUTO 00000KT 10SM CLR 22/21 A2999 20 93 800 000/00 RMK AO2 T02170206
13942KMLU MLU20190924024510609/24/19 02:45:31  5-MIN KMLU 240845Z AUTO 00000KT 10SM CLR 22/21 A2999 20 93 900 000/00 RMK AO2 T02220211
13942KMLU MLU20190924025011909/24/19 02:50:31  5-MIN KMLU 240850Z AUTO 00000KT 10SM CLR 22/21 A2999 20 90 900 000/00 RMK AO2 SLP153 T02220206 58006
13942KMLU MLU20190924025510609/24/19 02:55:31  5-MIN KMLU 240855Z AUTO 00000KT 10SM CLR 22/21 A2999 20 93 900 000/00 RMK AO2 T02220211
13942KMLU MLU20190924030010609/24/19 03:00:31  5-MIN KMLU 240900Z AUTO 00000KT 10SM CLR 22/21 A2999 20 93 900 000/00 RMK AO2 T02220211
13942KMLU MLU20190924030510609/24/19 03:05:31  5-MIN KMLU 240905Z AUTO 00000KT 10SM CLR 22/21 A2999 20 93 900 000/00 RMK AO2 T02220211
13942KMLU MLU20190924031010609/24/19 03:10:31  5-MIN KMLU 240910Z AUTO 00000KT 10SM CLR 22/21 A2999 20 97 800 000/00 RMK AO2 T02170211
13942KMLU MLU20190924031510609/24/19 03:15:31  5-MIN KMLU 240915Z AUTO 00000KT 10SM CLR 22/21 A2999 20 93 800 000/00 RMK AO2 T02170206
13942KMLU MLU20190924032010609/24/19 03:20:31  5-MIN KMLU 240920Z AUTO 00000KT 10SM CLR 22/21 A2999 20 97 800 000/00 RMK AO2 T02170211
13942KMLU MLU20190924032510609/24/19 03:25:31  5-MIN KMLU 240925Z AUTO 00000KT 10SM CLR 22/21 A2999 20 93 800 000/00 RMK AO2 T02170206
13942KMLU MLU20190924033010609/24/19 03:30:31  5-MIN KMLU 240930Z AUTO 00000KT 10SM CLR 22/21 A2999 20 90 900 000/00 RMK AO2 T02220206
13942KMLU MLU20190924033510609/24/19 03:35:31  5-MIN KMLU 240935Z AUTO 00000KT 10SM CLR 22/21 A2999 20 90 900 000/00 RMK AO2 T02220206
13942KMLU MLU20190924034010609/24/19 03:40:31  5-MIN KMLU 240940Z AUTO 00000KT 10SM CLR 22/21 A2999 20 93 800 000/00 RMK AO2 T02170206
13942KMLU MLU20190924034510509/24/19 03:45:31  5-MIN KMLU 240945Z AUTO 00000KT 9SM CLR 22/21 A2999 20 93 800 000/00 RMK AO2 T02170206
13942KMLU MLU20190924035011209/24/19 03:50:31  5-MIN KMLU 240950Z AUTO 00000KT 9SM CLR 22/21 A2999 20 93 800 000/00 RMK AO2 SLP154 T02170206
13942KMLU MLU20190924035510609/24/19 03:55:31  5-MIN KMLU 240955Z AUTO 00000KT 10SM CLR 22/21 A2999 20 93 800 000/00 RMK AO2 T02170206
13942KMLU MLU20190924040010609/24/19 04:00:31  5-MIN KMLU 241000Z AUTO 00000KT 10SM CLR 22/21 A2999 20 93 800 000/00 RMK AO2 T02170206
13942KMLU MLU20190924040510609/24/19 04:05:31  5-MIN KMLU 241005Z AUTO 18003KT 10SM CLR 22/21 A2999 20 93 800 180/03 RMK AO2 T02170206
13942KMLU MLU20190924041010609/24/19 04:10:31  5-MIN KMLU 241010Z AUTO 00000KT 10SM CLR 22/21 A2999 20 93 800 000/00 RMK AO2 T02170206
13942KMLU MLU20190924041510609/24/19 04:15:31  5-MIN KMLU 241015Z AUTO 19003KT 10SM CLR 22/21 A2999 20 93 800 190/03 RMK AO2 T02170206
13942KMLU MLU20190924042010609/24/19 04:20:31  5-MIN KMLU 241020Z AUTO 00000KT 10SM CLR 22/21 A2999 20 90 900 000/00 RMK AO2 T02220206
13942KMLU MLU20190924042510609/24/19 04:25:31  5-MIN KMLU 241025Z AUTO 00000KT 10SM CLR 22/21 A2999 20 90 900 000/00 RMK AO2 T02220206
13942KMLU MLU20190924043010709/24/19 04:30:31  5-MIN KMLU 241030Z AUTO 00000KT 10SM CLR 23/21 A2999 20 90 1000 000/00 RMK AO2 T02280211
13942KMLU MLU20190924043510709/24/19 04:35:31  5-MIN KMLU 241035Z AUTO 00000KT 10SM CLR 23/21 A2999 20 90 1000 000/00 RMK AO2 T02280211
13942KMLU MLU20190924044010709/24/19 04:40:31  5-MIN KMLU 241040Z AUTO 00000KT 10SM CLR 23/21 A2999 20 90 1000 000/00 RMK AO2 T02280211
13942KMLU MLU20190924044510109/24/19 04:45:31  5-MIN KMLU 241045Z 00000KT 10SM CLR 22/21 A2999 20 90 900 000/00 RMK AO2 T02220206
13942KMLU MLU20190924045010909/24/19 04:50:31  5-MIN KMLU 241050Z 00000KT 10SM CLR 23/21 A2999 10 90 1000 000/00 RMK AO2 SLP154 T02280211
13942KMLU MLU20190924045510509/24/19 04:55:31  5-MIN KMLU 241055Z 19003KT 10SM FEW100 23/21 A2999 10 90 1000 190/03 RMK AO2 T02280211
13942KMLU MLU20190924050010509/24/19 05:00:31  5-MIN KMLU 241100Z 18003KT 10SM SCT100 23/21 A2999 10 90 1000 180/03 RMK AO2 T02280211
13942KMLU MLU20190924050510509/24/19 05:05:31  5-MIN KMLU 241105Z 18003KT 10SM SCT100 23/21 A3000 10 90 1000 180/03 RMK AO2 T02280211
13942KMLU MLU20190924051010509/24/19 05:10:31  5-MIN KMLU 241110Z 18003KT 10SM FEW100 23/21 A3000 10 90 1000 180/03 RMK AO2 T02280211
13942KMLU MLU20190924051510509/24/19 05:15:31  5-MIN KMLU 241115Z 19003KT 10SM FEW100 23/21 A3000 10 90 1000 190/03 RMK AO2 T02280211
13942KMLU MLU20190924052010409/24/19 05:20:31  5-MIN KMLU 241120Z 19003KT 10SM FEW100 22/21 A3000 10 90 900 190/03 RMK AO2 T02220206
13942KMLU MLU20190924052510509/24/19 05:25:31  5-MIN KMLU 241125Z 19003KT 10SM FEW100 23/21 A3000 10 90 1000 190/03 RMK AO2 T02280211
13942KMLU MLU20190924053010209/24/19 05:30:31  5-MIN KMLU 241130Z 00000KT 10SM CLR 23/21 A3000 10 90 1000 000/00 RMK AO2 T02280211
13942KMLU MLU20190924053510209/24/19 05:35:31  5-MIN KMLU 241135Z 00000KT 10SM CLR 23/21 A3000 10 90 1000 000/00 RMK AO2 T02280211
13942KMLU MLU20190924054010209/24/19 05:40:31  5-MIN KMLU 241140Z 20003KT 10SM CLR 23/21 A3000 10 90 1000 200/03 RMK AO2 T02280211
13942KMLU MLU20190924054510209/24/19 05:45:31  5-MIN KMLU 241145Z 19003KT 10SM CLR 23/21 A3000 10 90 1000 190/03 RMK AO2 T02280211
13942KMLU MLU20190924055012709/24/19 05:50:31  5-MIN KMLU 241150Z 19003KT 10SM CLR 23/21 A3000 10 90 1000 180/03 RMK AO2 SLP157 T02280211 10239 20217 50001
13942KMLU MLU20190924055510209/24/19 05:55:31  5-MIN KMLU 241155Z 19003KT 10SM CLR 23/21 A3000 10 90 1000 180/03 RMK AO2 T02280211
13942KMLU MLU20190924060010209/24/19 06:00:31  5-MIN KMLU 241200Z 19004KT 10SM CLR 23/21 A3000 10 90 1000 190/04 RMK AO2 T02280211
13942KMLU MLU20190924060510109/24/19 06:05:31  5-MIN KMLU 241205Z 18004KT 10SM CLR 23/21 A3000 0 90 1000 180/04 RMK AO2 T02280211
13942KMLU MLU20190924061010109/24/19 06:10:31  5-MIN KMLU 241210Z 18003KT 10SM CLR 23/21 A3000 0 90 1000 180/03 RMK AO2 T02280211
13942KMLU MLU20190924061510109/24/19 06:15:31  5-MIN KMLU 241215Z 19003KT 10SM CLR 23/21 A3000 0 90 1000 190/03 RMK AO2 T02280211
13942KMLU MLU20190924062010109/24/19 06:20:31  5-MIN KMLU 241220Z 18003KT 10SM CLR 23/21 A3000 0 90 1000 180/03 RMK AO2 T02280211
13942KMLU MLU20190924062510009/24/19 06:25:31  5-MIN KMLU 241225Z 00000KT 10SM CLR 23/21 A3000 0 90 900 000/00 RMK AO2 T02280211
13942KMLU MLU20190924063010009/24/19 06:30:31  5-MIN KMLU 241230Z 00000KT 10SM CLR 23/22 A3001 0 93 900 000/00 RMK AO2 T02280217
13942KMLU MLU20190924160010309/24/19 16:00:31  5-MIN KMLU 242200Z 24007KT 10SM CLR 34/20 A2988 120 43 2300 240/07 RMK AO2 T03390200
13942KMLU MLU20190924160510309/24/19 16:05:31  5-MIN KMLU 242205Z 26008KT 10SM CLR 34/20 A2988 120 43 2300 260/08 RMK AO2 T03390200
13942KMLU MLU20190924161010309/24/19 16:10:31  5-MIN KMLU 242210Z 26006KT 10SM CLR 34/20 A2988 120 43 2300 260/06 RMK AO2 T03390200
13942KMLU MLU20190924161510309/24/19 16:15:31  5-MIN KMLU 242215Z 22008KT 10SM CLR 34/20 A2988 120 43 2300 220/08 RMK AO2 T03390200
13942KMLU MLU20190924162010309/24/19 16:20:31  5-MIN KMLU 242220Z 20007KT 10SM CLR 33/20 A2987 120 45 2300 200/07 RMK AO2 T03330200
13942KMLU MLU20190924162510309/24/19 16:25:31  5-MIN KMLU 242225Z 25007KT 10SM CLR 33/20 A2987 120 45 2300 250/07 RMK AO2 T03330200
13942KMLU MLU20190924163010309/24/19 16:30:31  5-MIN KMLU 242230Z 23007KT 10SM CLR 33/20 A2987 130 45 2300 230/07 RMK AO2 T03330200
13942KMLU MLU20190924163510309/24/19 16:35:31  5-MIN KMLU 242235Z 23008KT 10SM CLR 33/20 A2987 130 45 2300 230/08 RMK AO2 T03330200
13942KMLU MLU20190924164010309/24/19 16:40:31  5-MIN KMLU 242240Z 24005KT 10SM CLR 33/20 A2987 130 45 2300 240/05 RMK AO2 T03330200
13942KMLU MLU20190924164510309/24/19 16:45:31  5-MIN KMLU 242245Z VRB05KT 10SM CLR 33/20 A2987 130 45 2300 VRB/05 RMK AO2 T03330200
13942KMLU MLU20190924165011009/24/19 16:50:31  5-MIN KMLU 242250Z 25007KT 10SM CLR 33/20 A2987 130 45 2300 250/07 RMK AO2 SLP113 T03330200
13942KMLU MLU20190924165510309/24/19 16:55:31  5-MIN KMLU 242255Z 24009KT 10SM CLR 33/20 A2987 130 46 2200 230/09 RMK AO2 T03280200
13942KMLU MLU20190924170010309/24/19 17:00:31  5-MIN KMLU 242300Z 25006KT 10SM CLR 33/20 A2987 130 46 2200 250/06 RMK AO2 T03280200
13942KMLU MLU20190924170510309/24/19 17:05:31  5-MIN KMLU 242305Z 24004KT 10SM CLR 33/20 A2987 130 46 2200 240/04 RMK AO2 T03280200
13942KMLU MLU20190924171010309/24/19 17:10:31  5-MIN KMLU 242310Z 23008KT 10SM CLR 32/21 A2987 130 49 2200 230/08 RMK AO2 T03220206
13942KMLU MLU20190924171510309/24/19 17:15:31  5-MIN KMLU 242315Z 23007KT 10SM CLR 32/20 A2987 130 48 2200 230/07 RMK AO2 T03220200
13942KMLU MLU20190924172010309/24/19 17:20:31  5-MIN KMLU 242320Z 22006KT 10SM CLR 32/20 A2987 130 49 2100 220/06 RMK AO2 T03170200
13942KMLU MLU20190924172510309/24/19 17:25:31  5-MIN KMLU 242325Z 22005KT 10SM CLR 32/21 A2987 130 51 2100 220/05 RMK AO2 T03170206
13942KMLU MLU20190924173010309/24/19 17:30:31  5-MIN KMLU 242330Z 22005KT 10SM CLR 31/21 A2987 130 53 2000 220/05 RMK AO2 T03110206
13942KMLU MLU20190924173510309/24/19 17:35:31  5-MIN KMLU 242335Z 22005KT 10SM CLR 31/21 A2987 130 53 2000 220/05 RMK AO2 T03110206
13942KMLU MLU20190924174010309/24/19 17:40:31  5-MIN KMLU 242340Z 24006KT 10SM CLR 31/21 A2987 130 53 2000 240/06 RMK AO2 T03110206
13942KMLU MLU20190924174510309/24/19 17:45:31  5-MIN KMLU 242345Z 22005KT 10SM CLR 31/21 A2987 130 54 2000 220/05 RMK AO2 T03060206
13942KMLU MLU20190924175012809/24/19 17:50:31  5-MIN KMLU 242350Z 22006KT 10SM CLR 30/21 A2987 130 56 1900 220/06 RMK AO2 SLP113 T03000206 10344 20300 56028
13942KMLU MLU20190924175510309/24/19 17:55:31  5-MIN KMLU 242355Z 22006KT 10SM CLR 29/21 A2987 130 58 1900 220/06 RMK AO2 T02940206
13942KMLU MLU20190924180010309/24/19 18:00:31  5-MIN KMLU 250000Z 22006KT 10SM CLR 29/21 A2987 130 58 1900 220/06 RMK AO2 T02940206
13942KMLU MLU20190924180510309/24/19 18:05:31  5-MIN KMLU 250005Z 22005KT 10SM CLR 29/21 A2987 130 58 1900 220/05 RMK AO2 T02940206
13942KMLU MLU20190924181010309/24/19 18:10:31  5-MIN KMLU 250010Z 22005KT 10SM CLR 29/21 A2987 130 58 1900 220/05 RMK AO2 T02940206
13942KMLU MLU20190924181510309/24/19 18:15:31  5-MIN KMLU 250015Z 21004KT 10SM CLR 29/21 A2987 130 58 1900 210/04 RMK AO2 T02940206
13942KMLU MLU20190924182010309/24/19 18:20:31  5-MIN KMLU 250020Z 21004KT 10SM CLR 29/21 A2987 130 58 1900 210/04 RMK AO2 T02940206
13942KMLU MLU20190924182510309/24/19 18:25:31  5-MIN KMLU 250025Z 21004KT 10SM CLR 29/21 A2987 120 58 1900 210/04 RMK AO2 T02940206
13942KMLU MLU20190924183010309/24/19 18:30:31  5-MIN KMLU 250030Z 21004KT 10SM CLR 29/21 A2987 120 58 1900 210/04 RMK AO2 T02940206
13942KMLU MLU20190924183510309/24/19 18:35:31  5-MIN KMLU 250035Z 21003KT 10SM CLR 29/21 A2988 120 58 1800 210/03 RMK AO2 T02940206
13942KMLU MLU20190924184010309/24/19 18:40:31  5-MIN KMLU 250040Z 20003KT 10SM CLR 29/21 A2988 120 58 1800 200/03 RMK AO2 T02940206
13942KMLU MLU20190924184510309/24/19 18:45:31  5-MIN KMLU 250045Z 20003KT 10SM CLR 28/21 A2988 120 64 1700 200/03 RMK AO2 T02830211
13942KMLU MLU20190924185011009/24/19 18:50:31  5-MIN KMLU 250050Z 21003KT 10SM CLR 28/21 A2988 120 64 1700 210/03 RMK AO2 SLP116 T02830211
13942KMLU MLU20190924185510309/24/19 18:55:31  5-MIN KMLU 250055Z 20003KT 10SM CLR 28/21 A2988 120 66 1700 200/03 RMK AO2 T02780211
13942KMLU MLU20190924190010309/24/19 19:00:31  5-MIN KMLU 250100Z 21003KT 10SM CLR 28/21 A2988 120 66 1700 210/03 RMK AO2 T02780211
13942KMLU MLU20190924190510309/24/19 19:05:31  5-MIN KMLU 250105Z 00000KT 10SM CLR 28/22 A2988 120 69 1700 000/00 RMK AO2 T02780217
13942KMLU MLU20190924191010309/24/19 19:10:31  5-MIN KMLU 250110Z 00000KT 10SM CLR 27/22 A2988 120 76 1500 000/00 RMK AO2 T02670222
13942KMLU MLU20190924191510309/24/19 19:15:31  5-MIN KMLU 250115Z 17003KT 10SM CLR 27/22 A2988 120 71 1600 160/03 RMK AO2 T02720217
13942KMLU MLU20190924192010309/24/19 19:20:31  5-MIN KMLU 250120Z 18003KT 10SM CLR 27/22 A2988 120 71 1600 180/03 RMK AO2 T02720217
13942KMLU MLU20190924192510309/24/19 19:25:31  5-MIN KMLU 250125Z 00000KT 10SM CLR 27/22 A2988 110 71 1600 000/00 RMK AO2 T02720217
13942KMLU MLU20190924193010309/24/19 19:30:31  5-MIN KMLU 250130Z 00000KT 10SM CLR 27/22 A2989 110 71 1600 000/00 RMK AO2 T02720217
13942KMLU MLU20190924193510309/24/19 19:35:31  5-MIN KMLU 250135Z 00000KT 10SM CLR 27/22 A2989 110 73 1500 000/00 RMK AO2 T02670217
13942KMLU MLU20190924194010309/24/19 19:40:31  5-MIN KMLU 250140Z 00000KT 10SM CLR 27/22 A2989 100 73 1500 000/00 RMK AO2 T02670217
13942KMLU MLU20190924194510309/24/19 19:45:31  5-MIN KMLU 250145Z 00000KT 10SM CLR 27/21 A2990 100 71 1500 000/00 RMK AO2 T02670211
13942KMLU MLU20190924195011009/24/19 19:50:31  5-MIN KMLU 250150Z 00000KT 10SM CLR 26/21 A2990 100 73 1400 000/00 RMK AO2 SLP123 T02610211
13942KMLU MLU20190924195510309/24/19 19:55:31  5-MIN KMLU 250155Z 00000KT 10SM CLR 26/22 A2990 100 76 1500 000/00 RMK AO2 T02610217
13942KMLU MLU20190924200010309/24/19 20:00:31  5-MIN KMLU 250200Z 00000KT 10SM CLR 26/22 A2990 100 76 1400 000/00 RMK AO2 T02610217
13942KMLU MLU20190924200510309/24/19 20:05:31  5-MIN KMLU 250205Z 17003KT 10SM CLR 26/22 A2990 100 76 1500 170/03 RMK AO2 T02610217
13942KMLU MLU20190924201010309/24/19 20:10:31  5-MIN KMLU 250210Z 16003KT 10SM CLR 26/22 A2990 100 76 1500 160/03 RMK AO2 T02610217
13942KMLU MLU20190924201510309/24/19 20:15:31  5-MIN KMLU 250215Z 17003KT 10SM CLR 27/22 A2990 100 73 1500 170/03 RMK AO2 T02670217
13942KMLU MLU20190924202010309/24/19 20:20:31  5-MIN KMLU 250220Z 18004KT 10SM CLR 26/22 A2990 100 79 1400 180/04 RMK AO2 T02610222
13942KMLU MLU20190924202510309/24/19 20:25:31  5-MIN KMLU 250225Z 18004KT 10SM CLR 26/22 A2990 100 76 1400 180/04 RMK AO2 T02610217
13942KMLU MLU20190924203010309/24/19 20:30:31  5-MIN KMLU 250230Z 19004KT 10SM CLR 27/22 A2990 100 73 1500 190/04 RMK AO2 T02670217
13942KMLU MLU20190924203510309/24/19 20:35:31  5-MIN KMLU 250235Z 19004KT 10SM CLR 27/21 A2990 100 69 1600 190/04 RMK AO2 T02720211
13942KMLU MLU20190924204010309/24/19 20:40:31  5-MIN KMLU 250240Z 19004KT 10SM CLR 27/21 A2990 100 69 1600 190/04 RMK AO2 T02720211
13942KMLU MLU20190924204510309/24/19 20:45:31  5-MIN KMLU 250245Z 20005KT 10SM CLR 27/21 A2990 100 69 1600 200/05 RMK AO2 T02720211
13942KMLU MLU20190924205011609/24/19 20:50:31  5-MIN KMLU 250250Z 20005KT 10SM CLR 26/21 A2990 100 73 1400 200/05 RMK AO2 SLP123 T02610211 55006
13942KMLU MLU20190924205510809/24/19 20:55:31  5-MIN KMLU 250255Z AUTO 20005KT 10SM CLR 26/21 A2990 100 73 1500 200/05 RMK AO2 T02610211
13942KMLU MLU20190924210010809/24/19 21:00:31  5-MIN KMLU 250300Z AUTO 20005KT 10SM CLR 26/21 A2990 100 76 1400 200/05 RMK AO2 T02560211
13942KMLU MLU20190924210510809/24/19 21:05:31  5-MIN KMLU 250305Z AUTO 20004KT 10SM CLR 26/21 A2989 100 76 1400 200/04 RMK AO2 T02560211
13942KMLU MLU20190924211010809/24/19 21:10:31  5-MIN KMLU 250310Z AUTO 20005KT 10SM CLR 26/21 A2989 110 76 1400 200/05 RMK AO2 T02560211
13942KMLU MLU20190924211510809/24/19 21:15:31  5-MIN KMLU 250315Z AUTO 20004KT 10SM CLR 26/21 A2989 110 76 1400 200/04 RMK AO2 T02560211
13942KMLU MLU20190924212010809/24/19 21:20:31  5-MIN KMLU 250320Z AUTO 20005KT 10SM CLR 26/21 A2989 110 76 1400 200/05 RMK AO2 T02560211
13942KMLU MLU20190924212510809/24/19 21:25:31  5-MIN KMLU 250325Z AUTO 20005KT 10SM CLR 26/21 A2989 110 76 1400 200/05 RMK AO2 T02560211
13942KMLU MLU20190924213010809/24/19 21:30:31  5-MIN KMLU 250330Z AUTO 22006KT 10SM CLR 26/21 A2989 110 76 1400 220/06 RMK AO2 T02560211
13942KMLU MLU20190924213510809/24/19 21:35:31  5-MIN KMLU 250335Z AUTO 22006KT 10SM CLR 25/21 A2989 110 79 1300 220/06 RMK AO2 T02500211
13942KMLU MLU20190924214010809/24/19 21:40:31  5-MIN KMLU 250340Z AUTO 22006KT 10SM CLR 25/21 A2989 110 79 1300 220/06 RMK AO2 T02500211
13942KMLU MLU20190924214510809/24/19 21:45:31  5-MIN KMLU 250345Z AUTO 22006KT 10SM CLR 25/21 A2989 110 79 1300 220/06 RMK AO2 T02500211
13942KMLU MLU20190924215011509/24/19 21:50:31  5-MIN KMLU 250350Z AUTO 22006KT 10SM CLR 25/21 A2988 110 79 1300 210/06 RMK AO2 SLP118 T02500211
13942KMLU MLU20190924215510809/24/19 21:55:31  5-MIN KMLU 250355Z AUTO 22005KT 10SM CLR 25/21 A2989 110 79 1300 220/05 RMK AO2 T02500211
13942KMLU MLU20190924220010809/24/19 22:00:31  5-MIN KMLU 250400Z AUTO 22006KT 10SM CLR 25/21 A2989 110 79 1300 220/06 RMK AO2 T02500211
13942KMLU MLU20190924220510809/24/19 22:05:31  5-MIN KMLU 250405Z AUTO 23007KT 10SM CLR 26/21 A2989 110 76 1400 220/07 RMK AO2 T02560211
13942KMLU MLU20190924221010809/24/19 22:10:31  5-MIN KMLU 250410Z AUTO 22007KT 10SM CLR 26/21 A2989 110 76 1400 220/07 RMK AO2 T02560211
13942KMLU MLU20190924221510809/24/19 22:15:31  5-MIN KMLU 250415Z AUTO 22006KT 10SM CLR 26/21 A2989 110 76 1400 220/06 RMK AO2 T02560211
13942KMLU MLU20190924222010809/24/19 22:20:31  5-MIN KMLU 250420Z AUTO 22006KT 10SM CLR 26/21 A2989 110 76 1400 220/06 RMK AO2 T02560211
13942KMLU MLU20190924222510809/24/19 22:25:31  5-MIN KMLU 250425Z AUTO 22006KT 10SM CLR 26/21 A2989 110 76 1400 220/06 RMK AO2 T02560211
13942KMLU MLU20190924223010809/24/19 22:30:31  5-MIN KMLU 250430Z AUTO 21006KT 10SM CLR 26/21 A2989 110 76 1400 210/06 RMK AO2 T02560211
13942KMLU MLU20190924223510809/24/19 22:35:31  5-MIN KMLU 250435Z AUTO 21006KT 10SM CLR 26/21 A2989 110 76 1400 210/06 RMK AO2 T02560211
13942KMLU MLU20190924224010809/24/19 22:40:31  5-MIN KMLU 250440Z AUTO 22006KT 10SM CLR 25/21 A2989 110 79 1300 220/06 RMK AO2 T02500211
13942KMLU MLU20190924224510809/24/19 22:45:31  5-MIN KMLU 250445Z AUTO 22006KT 10SM CLR 25/21 A2989 110 76 1300 210/06 RMK AO2 T02500206
13942KMLU MLU20190924225011509/24/19 22:50:31  5-MIN KMLU 250450Z AUTO 22006KT 10SM CLR 25/21 A2989 110 76 1300 220/06 RMK AO2 SLP120 T02500206
13942KMLU MLU20190924225510809/24/19 22:55:31  5-MIN KMLU 250455Z AUTO 22007KT 10SM CLR 25/21 A2989 110 76 1300 220/07 RMK AO2 T02500206
13942KMLU MLU20190924230010809/24/19 23:00:31  5-MIN KMLU 250500Z AUTO 23007KT 10SM CLR 24/21 A2989 110 78 1300 230/07 RMK AO2 T02440206
13942KMLU MLU20190924230510809/24/19 23:05:31  5-MIN KMLU 250505Z AUTO 23007KT 10SM CLR 25/21 A2988 110 76 1300 220/07 RMK AO2 T02500206
13942KMLU MLU20190924231010809/24/19 23:10:31  5-MIN KMLU 250510Z AUTO 23007KT 10SM CLR 25/21 A2988 120 76 1300 220/07 RMK AO2 T02500206
13942KMLU MLU20190924231510809/24/19 23:15:31  5-MIN KMLU 250515Z AUTO 22006KT 10SM CLR 25/21 A2988 120 76 1300 220/06 RMK AO2 T02500206
13942KMLU MLU20190924232010809/24/19 23:20:31  5-MIN KMLU 250520Z AUTO 22005KT 10SM CLR 25/21 A2988 110 76 1300 220/05 RMK AO2 T02500206
13942KMLU MLU20190924232510809/24/19 23:25:31  5-MIN KMLU 250525Z AUTO 22006KT 10SM CLR 25/21 A2989 110 76 1300 220/06 RMK AO2 T02500206
13942KMLU MLU20190924233010809/24/19 23:30:31  5-MIN KMLU 250530Z AUTO 22007KT 10SM CLR 25/21 A2988 120 76 1300 220/07 RMK AO2 T02500206
13942KMLU MLU20190924233510809/24/19 23:35:31  5-MIN KMLU 250535Z AUTO 22007KT 10SM CLR 25/21 A2988 120 76 1300 220/07 RMK AO2 T02500206
13942KMLU MLU20190924234010809/24/19 23:40:31  5-MIN KMLU 250540Z AUTO 22007KT 10SM CLR 25/21 A2988 120 76 1300 220/07 RMK AO2 T02500206
13942KMLU MLU20190924234510809/24/19 23:45:31  5-MIN KMLU 250545Z AUTO 22006KT 10SM CLR 25/20 A2988 120 73 1300 220/06 RMK AO2 T02500200
13942KMLU MLU20190924235014309/24/19 23:50:31  5-MIN KMLU 250550Z AUTO 23005KT 10SM CLR 25/20 A2988 120 73 1300 220/05 RMK AO2 SLP118 T02500200 10294 20244 403440217 51009
13942KMLU MLU20190924235510809/24/19 23:55:31  5-MIN KMLU 250555Z AUTO 22004KT 10SM CLR 25/20 A2988 110 73 1300 220/04 RMK AO2 T02500200
13942KMLU MLU20190925000010809/25/19 00:00:31  5-MIN KMLU 250600Z AUTO 20004KT 10SM CLR 25/20 A2989 110 73 1300 200/04 RMK AO2 T02500200
13942KMLU MLU20190925000510809/25/19 00:05:31  5-MIN KMLU 250605Z AUTO VRB04KT 10SM CLR 25/20 A2988 120 73 1300 VRB/04 RMK AO2 T02500200
13942KMLU MLU20190925001010809/25/19 00:10:31  5-MIN KMLU 250610Z AUTO 22006KT 10SM CLR 25/20 A2988 120 73 1300 220/06 RMK AO2 T02500200
13942KMLU MLU20190925001510809/25/19 00:15:31  5-MIN KMLU 250615Z AUTO 23006KT 10SM CLR 25/20 A2988 120 73 1300 230/06 RMK AO2 T02500200
13942KMLU MLU20190925002010809/25/19 00:20:31  5-MIN KMLU 250620Z AUTO 23006KT 10SM CLR 25/20 A2988 120 73 1300 230/06 RMK AO2 T02500200
13942KMLU MLU20190925002510809/25/19 00:25:31  5-MIN KMLU 250625Z AUTO 23005KT 10SM CLR 24/20 A2988 110 76 1300 230/05 RMK AO2 T02440200
13942KMLU MLU20190925003010809/25/19 00:30:31  5-MIN KMLU 250630Z AUTO 24007KT 10SM CLR 25/20 A2988 110 73 1300 240/07 RMK AO2 T02500200
13942KMLU MLU20190925003510809/25/19 00:35:31  5-MIN KMLU 250635Z AUTO 23005KT 10SM CLR 25/20 A2989 110 73 1300 230/05 RMK AO2 T02500200
13942KMLU MLU20190925004010809/25/19 00:40:31  5-MIN KMLU 250640Z AUTO 25007KT 10SM CLR 25/20 A2989 110 73 1300 250/07 RMK AO2 T02500200
13942KMLU MLU20190925004510809/25/19 00:45:31  5-MIN KMLU 250645Z AUTO 23007KT 10SM CLR 26/20 A2989 110 71 1400 230/07 RMK AO2 T02560200
13942KMLU MLU20190925005011509/25/19 00:50:31  5-MIN KMLU 250650Z AUTO 24007KT 10SM CLR 25/20 A2989 110 73 1300 240/07 RMK AO2 SLP119 T02500200
13942KMLU MLU20190925005510809/25/19 00:55:31  5-MIN KMLU 250655Z AUTO 24007KT 10SM CLR 26/20 A2989 110 71 1400 240/07 RMK AO2 T02560200
13942KMLU MLU20190925010010809/25/19 01:00:31  5-MIN KMLU 250700Z AUTO 24006KT 10SM CLR 26/20 A2989 110 71 1400 240/06 RMK AO2 T02560200
13942KMLU MLU20190925010510809/25/19 01:05:31  5-MIN KMLU 250705Z AUTO 24006KT 10SM CLR 25/20 A2989 110 73 1300 240/06 RMK AO2 T02500200
13942KMLU MLU20190925011010809/25/19 01:10:31  5-MIN KMLU 250710Z AUTO 24006KT 10SM CLR 25/20 A2989 110 73 1300 240/06 RMK AO2 T02500200
13942KMLU MLU20190925011510809/25/19 01:15:31  5-MIN KMLU 250715Z AUTO 24008KT 10SM CLR 25/20 A2989 110 73 1300 240/08 RMK AO2 T02500200
13942KMLU MLU20190925012010809/25/19 01:20:31  5-MIN KMLU 250720Z AUTO 23004KT 10SM CLR 25/20 A2989 110 73 1300 230/04 RMK AO2 T02500200
13942KMLU MLU20190925012510809/25/19 01:25:31  5-MIN KMLU 250725Z AUTO 22006KT 10SM CLR 25/20 A2989 110 73 1300 220/06 RMK AO2 T02500200
13942KMLU MLU20190925013010809/25/19 01:30:31  5-MIN KMLU 250730Z AUTO 22005KT 10SM CLR 24/20 A2989 110 76 1300 220/05 RMK AO2 T02440200
13942KMLU MLU20190925013510809/25/19 01:35:31  5-MIN KMLU 250735Z AUTO 21005KT 10SM CLR 24/20 A2989 110 78 1200 210/05 RMK AO2 T02390200
13942KMLU MLU20190925014010809/25/19 01:40:31  5-MIN KMLU 250740Z AUTO 21005KT 10SM CLR 24/20 A2989 110 76 1300 210/05 RMK AO2 T02440200
13942KMLU MLU20190925014510809/25/19 01:45:31  5-MIN KMLU 250745Z AUTO 21006KT 10SM CLR 24/20 A2989 110 78 1200 210/06 RMK AO2 T02390200
13942KMLU MLU20190925015011509/25/19 01:50:31  5-MIN KMLU 250750Z AUTO 21006KT 10SM CLR 24/20 A2989 110 78 1200 210/06 RMK AO2 SLP120 T02390200
13942KMLU MLU20190925015510809/25/19 01:55:31  5-MIN KMLU 250755Z AUTO 21006KT 10SM CLR 24/20 A2989 110 78 1200 210/06 RMK AO2 T02390200
13942KMLU MLU20190925020010809/25/19 02:00:31  5-MIN KMLU 250800Z AUTO 21005KT 10SM CLR 24/20 A2989 110 78 1200 210/05 RMK AO2 T02390200
13942KMLU MLU20190925020510809/25/19 02:05:31  5-MIN KMLU 250805Z AUTO 23004KT 10SM CLR 24/20 A2989 110 78 1200 220/04 RMK AO2 T02390200
13942KMLU MLU20190925021010809/25/19 02:10:31  5-MIN KMLU 250810Z AUTO 23004KT 10SM CLR 24/20 A2989 110 78 1200 220/04 RMK AO2 T02390200
13942KMLU MLU20190925021510809/25/19 02:15:31  5-MIN KMLU 250815Z AUTO 21005KT 10SM CLR 24/20 A2989 110 78 1200 210/05 RMK AO2 T02390200
13942KMLU MLU20190925022010809/25/19 02:20:31  5-MIN KMLU 250820Z AUTO 20004KT 10SM CLR 24/20 A2989 110 78 1200 200/04 RMK AO2 T02390200
13942KMLU MLU20190925022510809/25/19 02:25:31  5-MIN KMLU 250825Z AUTO 20004KT 10SM CLR 24/20 A2989 110 78 1200 200/04 RMK AO2 T02390200
13942KMLU MLU20190925023010809/25/19 02:30:31  5-MIN KMLU 250830Z AUTO 19004KT 10SM CLR 24/20 A2989 110 76 1300 190/04 RMK AO2 T02440200
13942KMLU MLU20190925023510809/25/19 02:35:31  5-MIN KMLU 250835Z AUTO 19004KT 10SM CLR 24/20 A2989 110 78 1200 190/04 RMK AO2 T02390200
13942KMLU MLU20190925024010809/25/19 02:40:31  5-MIN KMLU 250840Z AUTO 18004KT 10SM CLR 24/20 A2989 110 78 1200 180/04 RMK AO2 T02390200
13942KMLU MLU20190925024510809/25/19 02:45:31  5-MIN KMLU 250845Z AUTO 19004KT 10SM CLR 24/20 A2989 110 78 1200 190/04 RMK AO2 T02390200
13942KMLU MLU20190925025012109/25/19 02:50:31  5-MIN KMLU 250850Z AUTO 19004KT 10SM CLR 24/20 A2989 110 78 1200 190/04 RMK AO2 SLP120 T02390200 56005
13942KMLU MLU20190925025510809/25/19 02:55:31  5-MIN KMLU 250855Z AUTO 21004KT 10SM CLR 23/20 A2989 110 81 1100 210/04 RMK AO2 T02330200
13942KMLU MLU20190925030010809/25/19 03:00:31  5-MIN KMLU 250900Z AUTO 21005KT 10SM CLR 23/19 A2989 110 78 1100 210/05 RMK AO2 T02330194
13942KMLU MLU20190925030510809/25/19 03:05:31  5-MIN KMLU 250905Z AUTO 21005KT 10SM CLR 23/19 A2989 110 81 1100 210/05 RMK AO2 T02280194
13942KMLU MLU20190925031010809/25/19 03:10:31  5-MIN KMLU 250910Z AUTO 21005KT 10SM CLR 23/19 A2989 110 81 1100 210/05 RMK AO2 T02280194
13942KMLU MLU20190925031510809/25/19 03:15:31  5-MIN KMLU 250915Z AUTO 22005KT 10SM CLR 23/19 A2990 100 81 1100 220/05 RMK AO2 T02280194
13942KMLU MLU20190925032010809/25/19 03:20:31  5-MIN KMLU 250920Z AUTO 22005KT 10SM CLR 23/19 A2990 100 81 1100 220/05 RMK AO2 T02280194
13942KMLU MLU20190925032510809/25/19 03:25:31  5-MIN KMLU 250925Z AUTO 23005KT 10SM CLR 23/19 A2990 100 81 1100 230/05 RMK AO2 T02280194
13942KMLU MLU20190925033010809/25/19 03:30:31  5-MIN KMLU 250930Z AUTO 21005KT 10SM CLR 23/20 A2990 100 84 1100 210/05 RMK AO2 T02280200
13942KMLU MLU20190925033510809/25/19 03:35:31  5-MIN KMLU 250935Z AUTO 20004KT 10SM CLR 23/20 A2990 100 81 1100 200/04 RMK AO2 T02330200
13942KMLU MLU20190925034010709/25/19 03:40:31  5-MIN KMLU 250940Z AUTO 20004KT 10SM CLR 23/20 A2991 90 81 1100 200/04 RMK AO2 T02330200
13942KMLU MLU20190925034510809/25/19 03:45:31  5-MIN KMLU 250945Z AUTO 20004KT 10SM CLR 23/20 A2990 100 81 1100 200/04 RMK AO2 T02330200
13942KMLU MLU20190925035011509/25/19 03:50:31  5-MIN KMLU 250950Z AUTO 20004KT 10SM CLR 23/20 A2990 100 81 1100 200/04 RMK AO2 SLP125 T02330200
13942KMLU MLU20190925035510709/25/19 03:55:31  5-MIN KMLU 250955Z AUTO 19004KT 10SM CLR 23/20 A2991 90 81 1100 190/04 RMK AO2 T02330200
13942KMLU MLU20190925040010709/25/19 04:00:31  5-MIN KMLU 251000Z AUTO 19003KT 10SM CLR 23/20 A2991 90 81 1100 190/03 RMK AO2 T02330200
13942KMLU MLU20190925040510709/25/19 04:05:31  5-MIN KMLU 251005Z AUTO 19003KT 10SM CLR 23/19 A2992 80 78 1100 190/03 RMK AO2 T02330194
13942KMLU MLU20190925041010709/25/19 04:10:31  5-MIN KMLU 251010Z AUTO 00000KT 10SM CLR 23/20 A2992 90 81 1100 000/00 RMK AO2 T02330200
13942KMLU MLU20190925041510709/25/19 04:15:31  5-MIN KMLU 251015Z AUTO 00000KT 10SM CLR 23/19 A2992 80 78 1100 000/00 RMK AO2 T02330194
13942KMLU MLU20190925042010709/25/19 04:20:31  5-MIN KMLU 251020Z AUTO 00000KT 10SM CLR 23/19 A2992 80 81 1000 000/00 RMK AO2 T02280194
13942KMLU MLU20190925042510709/25/19 04:25:31  5-MIN KMLU 251025Z AUTO 00000KT 10SM CLR 23/20 A2992 80 84 1000 000/00 RMK AO2 T02280200
13942KMLU MLU20190925043010709/25/19 04:30:31  5-MIN KMLU 251030Z AUTO 00000KT 10SM CLR 22/20 A2992 80 87 1000 000/00 RMK AO2 T02220200
13942KMLU MLU20190925043510709/25/19 04:35:31  5-MIN KMLU 251035Z AUTO 00000KT 10SM CLR 22/19 A2992 80 84 1000 000/00 RMK AO2 T02220194
13942KMLU MLU20190925044010709/25/19 04:40:31  5-MIN KMLU 251040Z AUTO 00000KT 10SM CLR 22/19 A2992 80 84 1000 000/00 RMK AO2 T02220194
13942KMLU MLU20190925044510709/25/19 04:45:31  5-MIN KMLU 251045Z AUTO 00000KT 10SM CLR 22/20 A2992 80 87 1000 000/00 RMK AO2 T02220200
13942KMLU MLU20190925045010909/25/19 04:50:31  5-MIN KMLU 251050Z 00000KT 10SM CLR 22/19 A2993 80 84 1000 000/00 RMK AO2 SLP132 T02220194
13942KMLU MLU20190925045510209/25/19 04:55:31  5-MIN KMLU 251055Z 00000KT 10SM CLR 22/20 A2993 70 87 1000 000/00 RMK AO2 T02220200
13942KMLU MLU20190925050010209/25/19 05:00:31  5-MIN KMLU 251100Z 00000KT 10SM CLR 22/20 A2993 70 87 1000 000/00 RMK AO2 T02220200
13942KMLU MLU20190925050510109/25/19 05:05:31  5-MIN KMLU 251105Z 00000KT 10SM CLR 22/20 A2994 70 90 900 000/00 RMK AO2 T02170200
13942KMLU MLU20190925051010209/25/19 05:10:31  5-MIN KMLU 251110Z 00000KT 10SM CLR 22/20 A2994 70 87 1000 000/00 RMK AO2 T02220200
13942KMLU MLU20190925051510109/25/19 05:15:31  5-MIN KMLU 251115Z 20003KT 10SM CLR 22/20 A2994 70 90 900 190/03 RMK AO2 T02170200
13942KMLU MLU20190925052010109/25/19 05:20:31  5-MIN KMLU 251120Z 20004KT 10SM CLR 22/19 A2994 70 87 900 200/04 RMK AO2 T02170194
13942KMLU MLU20190925052510209/25/19 05:25:31  5-MIN KMLU 251125Z 18003KT 10SM CLR 23/20 A2994 60 84 1000 180/03 RMK AO2 T02280200
13942KMLU MLU20190925053010209/25/19 05:30:31  5-MIN KMLU 251130Z 17003KT 10SM CLR 23/20 A2994 60 84 1000 170/03 RMK AO2 T02280200
13942KMLU MLU20190925053510209/25/19 05:35:31  5-MIN KMLU 251135Z 17003KT 10SM CLR 22/20 A2994 60 87 1000 170/03 RMK AO2 T02220200
13942KMLU MLU20190925054010109/25/19 05:40:31  5-MIN KMLU 251140Z 19003KT 10SM CLR 22/20 A2995 60 90 900 190/03 RMK AO2 T02170200
13942KMLU MLU20190925054510109/25/19 05:45:31  5-MIN KMLU 251145Z 19003KT 10SM CLR 22/20 A2995 50 87 900 190/03 RMK AO2 T02220200
13942KMLU MLU20190925055012709/25/19 05:50:31  5-MIN KMLU 251150Z 19003KT 10SM CLR 22/20 A2995 60 87 1000 180/03 RMK AO2 SLP139 T02220200 10256 20217 51003
13942KMLU MLU20190925055510209/25/19 05:55:31  5-MIN KMLU 251155Z 00000KT 10SM CLR 22/20 A2995 60 87 1000 000/00 RMK AO2 T02220200
13942KMLU MLU20190925060010209/25/19 06:00:31  5-MIN KMLU 251200Z 18003KT 10SM CLR 22/20 A2994 60 87 1000 170/03 RMK AO2 T02220200
13942KMLU MLU20190925060510109/25/19 06:05:31  5-MIN KMLU 251205Z 18003KT 10SM CLR 22/19 A2995 60 87 900 180/03 RMK AO2 T02170194
13942KMLU MLU20190925061010209/25/19 06:10:31  5-MIN KMLU 251210Z 19003KT 10SM CLR 22/20 A2995 60 87 1000 190/03 RMK AO2 T02220200
13942KMLU MLU20190925061510109/25/19 06:15:31  5-MIN KMLU 251215Z 19003KT 10SM CLR 22/20 A2995 50 87 900 190/03 RMK AO2 T02220200
13942KMLU MLU20190925062010109/25/19 06:20:31  5-MIN KMLU 251220Z 18003KT 10SM CLR 22/20 A2995 50 90 900 180/03 RMK AO2 T02170200
13942KMLU MLU20190925062510109/25/19 06:25:31  5-MIN KMLU 251225Z 19003KT 10SM CLR 22/20 A2995 50 90 900 190/03 RMK AO2 T02170200
13942KMLU MLU20190925063010109/25/19 06:30:31  5-MIN KMLU 251230Z 19003KT 10SM CLR 22/20 A2995 50 90 900 190/03 RMK AO2 T02170200
13942KMLU MLU20190925063510109/25/19 06:35:31  5-MIN KMLU 251235Z 00000KT 10SM CLR 22/20 A2996 50 87 900 000/00 RMK AO2 T02220200
13942KMLU MLU20190925064010109/25/19 06:40:31  5-MIN KMLU 251240Z 18003KT 10SM CLR 22/20 A2995 50 87 900 180/03 RMK AO2 T02220200
13942KMLU MLU20190925064510109/25/19 06:45:31  5-MIN KMLU 251245Z 18003KT 10SM CLR 22/20 A2995 50 87 900 180/03 RMK AO2 T02220200
13942KMLU MLU20190925065010909/25/19 06:50:31  5-MIN KMLU 251250Z 18003KT 10SM CLR 23/20 A2996 50 84 1000 180/03 RMK AO2 SLP142 T02280200
13942KMLU MLU20190925065510209/25/19 06:55:31  5-MIN KMLU 251255Z 19003KT 10SM CLR 23/21 A2996 50 87 1000 190/03 RMK AO2 T02280206
13942KMLU MLU20190925070010209/25/19 07:00:31  5-MIN KMLU 251300Z 18004KT 10SM CLR 23/21 A2996 50 87 1000 170/04 RMK AO2 T02280206
13942KMLU MLU20190925070510209/25/19 07:05:31  5-MIN KMLU 251305Z 18003KT 10SM CLR 23/21 A2996 40 84 1100 180/03 RMK AO2 T02330206
13942KMLU MLU20190925071010209/25/19 07:10:31  5-MIN KMLU 251310Z 00000KT 10SM CLR 24/21 A2996 40 81 1100 000/00 RMK AO2 T02390206
13942KMLU MLU20190925071510209/25/19 07:15:31  5-MIN KMLU 251315Z 21004KT 10SM CLR 24/21 A2996 40 84 1100 210/04 RMK AO2 T02390211
13942KMLU MLU20190925072010209/25/19 07:20:31  5-MIN KMLU 251320Z 20005KT 10SM CLR 24/21 A2996 40 84 1100 200/05 RMK AO2 T02390211
13942KMLU MLU20190925072510209/25/19 07:25:31  5-MIN KMLU 251325Z 20004KT 10SM CLR 24/21 A2996 40 81 1200 200/04 RMK AO2 T02440211
13942KMLU MLU20190925073010209/25/19 07:30:31  5-MIN KMLU 251330Z 21004KT 10SM CLR 24/21 A2996 40 81 1200 200/04 RMK AO2 T02440211
13942KMLU MLU20190925073510209/25/19 07:35:31  5-MIN KMLU 251335Z 22005KT 10SM CLR 25/21 A2997 40 79 1200 220/05 RMK AO2 T02500211
13942KMLU MLU20190925074010209/25/19 07:40:31  5-MIN KMLU 251340Z 22005KT 10SM CLR 25/21 A2997 40 79 1200 220/05 RMK AO2 T02500211
13942KMLU MLU20190925074510209/25/19 07:45:31  5-MIN KMLU 251345Z 22004KT 10SM CLR 25/21 A2997 40 79 1200 220/04 RMK AO2 T02500211
13942KMLU MLU20190925075010909/25/19 07:50:31  5-MIN KMLU 251350Z 24005KT 10SM CLR 26/21 A2996 40 76 1300 230/05 RMK AO2 SLP145 T02560211
13942KMLU MLU20190925075510209/25/19 07:55:31  5-MIN KMLU 251355Z 23005KT 10SM CLR 26/21 A2996 40 73 1400 230/05 RMK AO2 T02610211
13942KMLU MLU20190925080010209/25/19 08:00:31  5-MIN KMLU 251400Z 23006KT 10SM CLR 27/21 A2996 40 71 1400 230/06 RMK AO2 T02670211
13942KMLU MLU20190925080510209/25/19 08:05:31  5-MIN KMLU 251405Z 23008KT 10SM CLR 27/21 A2996 40 71 1400 230/08 RMK AO2 T02670211
13942KMLU MLU20190925081010209/25/19 08:10:31  5-MIN KMLU 251410Z 25008KT 10SM CLR 27/21 A2996 40 71 1400 240/08 RMK AO2 T02670211
13942KMLU MLU20190925081510209/25/19 08:15:31  5-MIN KMLU 251415Z 22007KT 10SM CLR 27/21 A2996 40 69 1500 220/07 RMK AO2 T02720211
13942KMLU MLU20190925082010209/25/19 08:20:31  5-MIN KMLU 251420Z 22007KT 10SM CLR 27/21 A2996 50 69 1500 220/07 RMK AO2 T02720211
13942KMLU MLU20190925082510209/25/19 08:25:31  5-MIN KMLU 251425Z 23009KT 10SM CLR 28/21 A2996 50 66 1600 220/09 RMK AO2 T02780211
13942KMLU MLU20190925083010209/25/19 08:30:31  5-MIN KMLU 251430Z 22008KT 10SM CLR 28/21 A2996 40 64 1600 220/08 RMK AO2 T02780206
13942KMLU MLU20190925083510209/25/19 08:35:31  5-MIN KMLU 251435Z 23007KT 10SM CLR 28/21 A2996 40 62 1600 230/07 RMK AO2 T02830206
13942KMLU MLU20190925084010209/25/19 08:40:31  5-MIN KMLU 251440Z 24009KT 10SM CLR 28/21 A2996 50 62 1600 240/09 RMK AO2 T02830206
13942KMLU MLU20190925084510209/25/19 08:45:31  5-MIN KMLU 251445Z 24008KT 10SM CLR 28/20 A2996 40 60 1600 240/08 RMK AO2 T02830200
13942KMLU MLU20190925085011509/25/19 08:50:31  5-MIN KMLU 251450Z 25007KT 10SM CLR 28/21 A2996 40 62 1600 250/07 RMK AO2 SLP145 T02830206 53019
13942KMLU MLU20190925085510209/25/19 08:55:31  5-MIN KMLU 251455Z 24009KT 10SM CLR 29/20 A2997 40 58 1700 230/09 RMK AO2 T02890200
13942KMLU MLU20190925090010209/25/19 09:00:31  5-MIN KMLU 251500Z 25007KT 10SM CLR 29/20 A2997 40 58 1700 250/07 RMK AO2 T02890200
13942KMLU MLU20190925090510209/25/19 09:05:31  5-MIN KMLU 251505Z 24007KT 10SM CLR 29/21 A2997 40 58 1700 230/07 RMK AO2 T02940206
13942KMLU MLU20190925091010209/25/19 09:10:31  5-MIN KMLU 251510Z 23009KT 10SM CLR 29/20 A2997 40 56 1700 230/09 RMK AO2 T02940200
13942KMLU MLU20190925091510209/25/19 09:15:31  5-MIN KMLU 251515Z 24011KT 10SM CLR 29/19 A2997 40 54 1700 240/11 RMK AO2 T02940194
13942KMLU MLU20190925092010209/25/19 09:20:31  5-MIN KMLU 251520Z 23009KT 10SM CLR 29/19 A2997 40 54 1700 220/09 RMK AO2 T02940194
13942KMLU MLU20190925092510209/25/19 09:25:31  5-MIN KMLU 251525Z 24010KT 10SM CLR 29/19 A2997 40 54 1700 240/10 RMK AO2 T02940194
13942KMLU MLU20190925093010209/25/19 09:30:31  5-MIN KMLU 251530Z 24008KT 10SM CLR 30/19 A2997 40 52 1800 240/08 RMK AO2 T03000194
13942KMLU MLU20190925093510209/25/19 09:35:31  5-MIN KMLU 251535Z 24011KT 10SM CLR 31/19 A2997 40 51 1900 240/11 RMK AO2 T03060194
13942KMLU MLU20190925094010209/25/19 09:40:31  5-MIN KMLU 251540Z 24008KT 10SM CLR 30/19 A2997 30 52 1800 240/08 RMK AO2 T03000194
13942KMLU MLU20190925094510209/25/19 09:45:31  5-MIN KMLU 251545Z 26008KT 10SM CLR 30/19 A2997 30 52 1800 250/08 RMK AO2 T03000194
13942KMLU MLU20190925095010909/25/19 09:50:31  5-MIN KMLU 251550Z 25008KT 10SM CLR 31/20 A2997 40 51 1900 250/08 RMK AO2 SLP147 T03110200
13942KMLU MLU20190925095510209/25/19 09:55:31  5-MIN KMLU 251555Z 23006KT 10SM CLR 31/20 A2997 30 51 1900 230/06 RMK AO2 T03110200
13942KMLU MLU20190925100010209/25/19 10:00:31  5-MIN KMLU 251600Z 24009KT 10SM CLR 31/19 A2997 30 49 1900 240/09 RMK AO2 T03110194
13942KMLU MLU20190925100510209/25/19 10:05:31  5-MIN KMLU 251605Z 25009KT 10SM CLR 31/19 A2997 40 49 1900 250/09 RMK AO2 T03110194
13942KMLU MLU20190925101010209/25/19 10:10:31  5-MIN KMLU 251610Z 25007KT 10SM CLR 31/19 A2997 40 49 1900 250/07 RMK AO2 T03110194
13942KMLU MLU20190925101510209/25/19 10:15:31  5-MIN KMLU 251615Z 25007KT 10SM CLR 31/19 A2996 40 49 1900 250/07 RMK AO2 T03110194
13942KMLU MLU20190925102010209/25/19 10:20:31  5-MIN KMLU 251620Z 24010KT 10SM CLR 32/20 A2996 40 49 2000 240/10 RMK AO2 T03170200
13942KMLU MLU20190925102510209/25/19 10:25:31  5-MIN KMLU 251625Z 23009KT 10SM CLR 32/20 A2996 40 49 2000 230/09 RMK AO2 T03170200
13942KMLU MLU20190925103010809/25/19 10:30:31  5-MIN KMLU 251630Z 22009G15KT 10SM CLR 32/20 A2996 40 49 2000 220/09G15 RMK AO2 T03170200
13942KMLU MLU20190925103510209/25/19 10:35:31  5-MIN KMLU 251635Z 21008KT 10SM CLR 32/20 A2996 50 49 2000 200/08 RMK AO2 T03170200
13942KMLU MLU20190925104010209/25/19 10:40:31  5-MIN KMLU 251640Z 20008KT 10SM CLR 32/19 A2995 50 47 2000 200/08 RMK AO2 T03170194
13942KMLU MLU20190925104510809/25/19 10:45:31  5-MIN KMLU 251645Z 20012G16KT 10SM CLR 32/19 A2995 50 47 2000 200/12G16 RMK AO2 T03170194
13942KMLU MLU20190925105011509/25/19 10:50:31  5-MIN KMLU 251650Z 20011G16KT 10SM CLR 31/19 A2995 50 49 2000 200/11G16 RMK AO2 SLP140 T03110194
13942KMLU MLU20190925105510209/25/19 10:55:31  5-MIN KMLU 251655Z 20008KT 10SM CLR 32/19 A2995 50 47 2000 200/08 RMK AO2 T03170194
13942KMLU MLU20190925110010809/25/19 11:00:31  5-MIN KMLU 251700Z 22009G17KT 10SM CLR 32/19 A2995 60 47 2000 220/09G17 RMK AO2 T03170194
13942KMLU MLU20190925110510809/25/19 11:05:31  5-MIN KMLU 251705Z 21010G17KT 10SM CLR 32/20 A2994 60 48 2100 210/10G17 RMK AO2 T03220200
13942KMLU MLU20190925111010209/25/19 11:10:31  5-MIN KMLU 251710Z 22012KT 10SM CLR 32/20 A2994 60 48 2100 220/12 RMK AO2 T03220200
13942KMLU MLU20190925111510209/25/19 11:15:31  5-MIN KMLU 251715Z 21009KT 10SM CLR 32/20 A2994 70 48 2100 210/09 RMK AO2 T03220200
13942KMLU MLU20190925112010209/25/19 11:20:31  5-MIN KMLU 251720Z 22010KT 10SM CLR 33/20 A2993 70 46 2200 210/10 RMK AO2 T03280200
13942KMLU MLU20190925112510209/25/19 11:25:31  5-MIN KMLU 251725Z 22011KT 10SM CLR 33/20 A2993 70 46 2200 220/11 RMK AO2 T03280200
13942KMLU MLU20190925113010209/25/19 11:30:31  5-MIN KMLU 251730Z 23011KT 10SM CLR 33/20 A2993 70 46 2200 230/11 RMK AO2 T03280200
13942KMLU MLU20190925113512409/25/19 11:35:31  5-MIN KMLU 251735Z 18008G17KT 150V220 10SM CLR 33/19 A2993 70 44 2200 180/08G17 150V220 RMK AO2 T03280194
13942KMLU MLU20190925114010809/25/19 11:40:31  5-MIN KMLU 251740Z 22010G14KT 10SM CLR 34/20 A2993 80 43 2300 210/10G14 RMK AO2 T03390200
13942KMLU MLU20190925114510209/25/19 11:45:31  5-MIN KMLU 251745Z 19011KT 10SM CLR 33/19 A2992 80 43 2200 180/11 RMK AO2 T03330194
13942KMLU MLU20190925115012709/25/19 11:50:31  5-MIN KMLU 251750Z 17011KT 10SM CLR 33/19 A2992 80 43 2200 170/11 RMK AO2 SLP130 T03280189 10339 20217 51006
13942KMLU MLU20190925115510809/25/19 11:55:31  5-MIN KMLU 251755Z 20012G20KT 10SM CLR 33/19 A2992 80 42 2200 190/12G20 RMK AO2 T03330189
13942KMLU MLU20190925120010809/25/19 12:00:31  5-MIN KMLU 251800Z 19013G20KT 10SM CLR 33/18 A2991 90 41 2200 190/13G20 RMK AO2 T03280183
13942KMLU MLU20190925120510809/25/19 12:05:31  5-MIN KMLU 251805Z 21012G20KT 10SM CLR 33/19 A2991 90 43 2200 200/12G20 RMK AO2 T03330194
13942KMLU MLU20190925121010209/25/19 12:10:31  5-MIN KMLU 251810Z 21012KT 10SM CLR 33/19 A2991 90 43 2200 210/12 RMK AO2 T03330194
13942KMLU MLU20190925121510809/25/19 12:15:31  5-MIN KMLU 251815Z 22012G17KT 10SM CLR 33/19 A2991 90 43 2200 220/12G17 RMK AO2 T03330194
13942KMLU MLU20190925122010909/25/19 12:20:31  5-MIN KMLU 251820Z 24013G18KT 10SM CLR 33/19 A2990 100 42 2200 240/13G18 RMK AO2 T03330189
13942KMLU MLU20190925122510909/25/19 12:25:31  5-MIN KMLU 251825Z 24011G18KT 10SM CLR 33/19 A2990 100 42 2300 240/11G18 RMK AO2 T03330189
13942KMLU MLU20190925123010909/25/19 12:30:31  5-MIN KMLU 251830Z 24014G19KT 10SM CLR 34/19 A2990 100 40 2300 240/14G19 RMK AO2 T03390189
13942KMLU MLU20190925123510909/25/19 12:35:31  5-MIN KMLU 251835Z 22012G19KT 10SM CLR 34/19 A2990 100 40 2300 220/12G19 RMK AO2 T03390189
13942KMLU MLU20190925124010309/25/19 12:40:31  5-MIN KMLU 251840Z 23009KT 10SM CLR 33/19 A2990 100 42 2300 230/09 RMK AO2 T03330189
13942KMLU MLU20190925124510309/25/19 12:45:31  5-MIN KMLU 251845Z 23014KT 10SM CLR 34/19 A2989 110 40 2300 220/14 RMK AO2 T03390189
13942KMLU MLU20190925125011009/25/19 12:50:31  5-MIN KMLU 251850Z 22012KT 10SM CLR 34/18 A2989 110 39 2300 220/12 RMK AO2 SLP119 T03390183
13942KMLU MLU20190925125510309/25/19 12:55:31  5-MIN KMLU 251855Z 22010KT 10SM CLR 34/19 A2989 110 40 2300 220/10 RMK AO2 T03390189
13942KMLU MLU20190925130010309/25/19 13:00:31  5-MIN KMLU 251900Z VRB06KT 10SM CLR 34/19 A2988 110 40 2300 VRB/06 RMK AO2 T03390189
13942KMLU MLU20190925130510909/25/19 13:05:31  5-MIN KMLU 251905Z 22008G17KT 10SM CLR 34/19 A2988 120 40 2300 220/08G17 RMK AO2 T03390189
13942KMLU MLU20190925131010909/25/19 13:10:31  5-MIN KMLU 251910Z 21010G17KT 10SM CLR 34/19 A2988 110 40 2300 210/10G17 RMK AO2 T03390189
13942KMLU MLU20190925131510309/25/19 13:15:31  5-MIN KMLU 251915Z 21011KT 10SM CLR 34/19 A2988 120 40 2300 210/11 RMK AO2 T03390189
13942KMLU MLU20190925132012509/25/19 13:20:31  5-MIN KMLU 251920Z 21008G15KT 150V250 10SM CLR 34/19 A2988 120 40 2300 210/08G15 150V250 RMK AO2 T03390189
13942KMLU MLU20190925132510309/25/19 13:25:31  5-MIN KMLU 251925Z 22010KT 10SM CLR 34/19 A2988 120 40 2300 210/10 RMK AO2 T03390189
13942KMLU MLU20190925133010309/25/19 13:30:31  5-MIN KMLU 251930Z 19009KT 10SM CLR 34/19 A2988 120 40 2300 190/09 RMK AO2 T03390189
13942KMLU MLU20190925133510909/25/19 13:35:31  5-MIN KMLU 251935Z 24012G16KT 10SM CLR 34/18 A2988 120 39 2300 240/12G16 RMK AO2 T03390183
13942KMLU MLU20190925134010909/25/19 13:40:31  5-MIN KMLU 251940Z 20013G18KT 10SM CLR 34/17 A2988 120 36 2300 200/13G18 RMK AO2 T03390172
13942KMLU MLU20190925134510309/25/19 13:45:31  5-MIN KMLU 251945Z 21010KT 10SM CLR 34/17 A2987 120 36 2300 210/10 RMK AO2 T03390172
13942KMLU MLU20190925135011009/25/19 13:50:31  5-MIN KMLU 251950Z 23013KT 10SM CLR 34/17 A2987 120 35 2400 230/13 RMK AO2 SLP114 T03440172
13942KMLU MLU20190925135510309/25/19 13:55:31  5-MIN KMLU 251955Z 23010KT 10SM CLR 34/18 A2987 130 36 2400 230/10 RMK AO2 T03440178
13942KMLU MLU20190925140010909/25/19 14:00:31  5-MIN KMLU 252000Z 23012G17KT 10SM CLR 34/17 A2987 130 34 2400 230/12G17 RMK AO2 T03440167
13942KMLU MLU20190925140510909/25/19 14:05:31  5-MIN KMLU 252005Z VRB06G17KT 10SM CLR 34/17 A2987 130 34 2400 VRB/06G17 RMK AO2 T03440167
13942KMLU MLU20190925141010309/25/19 14:10:31  5-MIN KMLU 252010Z 24009KT 10SM CLR 34/18 A2987 130 36 2400 230/09 RMK AO2 T03440178
13942KMLU MLU20190925141510309/25/19 14:15:31  5-MIN KMLU 252015Z 25010KT 10SM CLR 34/17 A2987 130 35 2400 250/10 RMK AO2 T03440172
13942KMLU MLU20190925142010309/25/19 14:20:31  5-MIN KMLU 252020Z 24010KT 10SM CLR 34/17 A2987 130 34 2400 240/10 RMK AO2 T03440167
13942KMLU MLU20190925142510309/25/19 14:25:31  5-MIN KMLU 252025Z 24010KT 10SM CLR 34/17 A2986 130 34 2400 240/10 RMK AO2 T03440167
13942KMLU MLU20190925143010309/25/19 14:30:31  5-MIN KMLU 252030Z 23011KT 10SM CLR 34/18 A2986 130 36 2400 230/11 RMK AO2 T03440178
13942KMLU MLU20190925143510309/25/19 14:35:31  5-MIN KMLU 252035Z 25009KT 10SM CLR 34/17 A2986 130 35 2400 250/09 RMK AO2 T03440172
13942KMLU MLU20190925144010309/25/19 14:40:31  5-MIN KMLU 252040Z 23011KT 10SM CLR 34/17 A2986 130 35 2400 230/11 RMK AO2 T03440172
13942KMLU MLU20190925144510309/25/19 14:45:31  5-MIN KMLU 252045Z 23010KT 10SM CLR 34/17 A2986 140 35 2400 230/10 RMK AO2 T03440172
13942KMLU MLU20190925145011609/25/19 14:50:31  5-MIN KMLU 252050Z 24010KT 10SM CLR 34/17 A2986 130 34 2400 240/10 RMK AO2 SLP110 T03440167 58016
13942KMLU MLU20190925145510309/25/19 14:55:31  5-MIN KMLU 252055Z 25010KT 10SM CLR 34/17 A2986 140 34 2400 240/10 RMK AO2 T03440167
13942KMLU MLU20190925150010609/25/19 15:00:31  5-MIN KMLU 252100Z 24011KT 10SM FEW050 34/17 A2986 140 34 2400 240/11 RMK AO2 T03440167
13942KMLU MLU20190925150510609/25/19 15:05:31  5-MIN KMLU 252105Z 22011KT 10SM FEW050 34/17 A2986 140 34 2400 220/11 RMK AO2 T03440167
13942KMLU MLU20190925151010609/25/19 15:10:31  5-MIN KMLU 252110Z 25012KT 10SM FEW050 34/17 A2986 140 35 2400 250/12 RMK AO2 T03440172
13942KMLU MLU20190925151510609/25/19 15:15:31  5-MIN KMLU 252115Z 26008KT 10SM FEW050 34/17 A2986 140 36 2400 250/08 RMK AO2 T03390172
13942KMLU MLU20190925152010609/25/19 15:20:31  5-MIN KMLU 252120Z 23009KT 10SM FEW050 34/17 A2986 140 36 2400 230/09 RMK AO2 T03390172
13942KMLU MLU20190925152511209/25/19 15:25:31  5-MIN KMLU 252125Z 22011G15KT 10SM FEW050 34/17 A2986 140 36 2400 220/11G15 RMK AO2 T03390172
13942KMLU MLU20190925153010609/25/19 15:30:31  5-MIN KMLU 252130Z 22010KT 10SM FEW050 33/18 A2986 140 39 2300 220/10 RMK AO2 T03330178
13942KMLU MLU20190925153510609/25/19 15:35:31  5-MIN KMLU 252135Z 20008KT 10SM FEW050 34/17 A2986 140 36 2400 200/08 RMK AO2 T03390172
13942KMLU MLU20190925154010609/25/19 15:40:31  5-MIN KMLU 252140Z 25006KT 10SM FEW050 34/17 A2986 140 36 2400 250/06 RMK AO2 T03390172
13942KMLU MLU20190925154510609/25/19 15:45:31  5-MIN KMLU 252145Z 23010KT 10SM FEW050 34/17 A2985 140 36 2400 230/10 RMK AO2 T03390172
13942KMLU MLU20190925155011309/25/19 15:50:31  5-MIN KMLU 252150Z 23009KT 10SM FEW050 34/17 A2985 140 35 2400 230/09 RMK AO2 SLP107 T03390167
13942KMLU MLU20190925155510309/25/19 15:55:31  5-MIN KMLU 252155Z 23009KT 10SM CLR 33/17 A2985 140 37 2300 230/09 RMK AO2 T03330172
13942KMLU MLU20190925160010309/25/19 16:00:31  5-MIN KMLU 252200Z 24008KT 10SM CLR 33/17 A2985 140 37 2300 230/08 RMK AO2 T03330172
13942KMLU MLU20190925160510309/25/19 16:05:31  5-MIN KMLU 252205Z 25009KT 10SM CLR 34/17 A2985 140 36 2400 250/09 RMK AO2 T03390172
13942KMLU MLU20190925161010309/25/19 16:10:31  5-MIN KMLU 252210Z 24011KT 10SM CLR 34/17 A2986 140 36 2400 240/11 RMK AO2 T03390172
13942KMLU MLU20190925161510309/25/19 16:15:31  5-MIN KMLU 252215Z 25010KT 10SM CLR 33/16 A2986 140 35 2300 250/10 RMK AO2 T03330161
13942KMLU MLU20190925162010309/25/19 16:20:31  5-MIN KMLU 252220Z 25011KT 10SM CLR 33/16 A2985 140 36 2200 250/11 RMK AO2 T03280161
13942KMLU MLU20190925162510309/25/19 16:25:31  5-MIN KMLU 252225Z 24010KT 10SM CLR 33/17 A2985 140 37 2200 240/10 RMK AO2 T03280167
13942KMLU MLU20190925163010309/25/19 16:30:31  5-MIN KMLU 252230Z 24010KT 10SM CLR 33/16 A2985 140 36 2200 240/10 RMK AO2 T03280161
13942KMLU MLU20190925163510309/25/19 16:35:31  5-MIN KMLU 252235Z 24009KT 10SM CLR 33/17 A2985 140 37 2200 240/09 RMK AO2 T03280167
13942KMLU MLU20190925164010309/25/19 16:40:31  5-MIN KMLU 252240Z 24010KT 10SM CLR 33/17 A2985 140 39 2200 240/10 RMK AO2 T03280172
13942KMLU MLU20190925164510309/25/19 16:45:31  5-MIN KMLU 252245Z 23010KT 10SM CLR 33/17 A2985 140 39 2200 230/10 RMK AO2 T03280172
13942KMLU MLU20190925165011009/25/19 16:50:31  5-MIN KMLU 252250Z 22010KT 10SM CLR 33/17 A2986 140 39 2200 220/10 RMK AO2 SLP108 T03280172
13942KMLU MLU20190925165510309/25/19 16:55:31  5-MIN KMLU 252255Z 22009KT 10SM CLR 32/17 A2986 140 40 2200 220/09 RMK AO2 T03220172
13942KMLU MLU20190925170010309/25/19 17:00:31  5-MIN KMLU 252300Z 23008KT 10SM CLR 32/17 A2985 140 40 2200 220/08 RMK AO2 T03220172
13942KMLU MLU20190925170510309/25/19 17:05:31  5-MIN KMLU 252305Z 23008KT 10SM CLR 32/17 A2986 140 40 2200 220/08 RMK AO2 T03220172
13942KMLU MLU20190925171010309/25/19 17:10:31  5-MIN KMLU 252310Z 23007KT 10SM CLR 32/17 A2986 140 40 2200 230/07 RMK AO2 T03220172
13942KMLU MLU20190925171510309/25/19 17:15:31  5-MIN KMLU 252315Z 25008KT 10SM CLR 32/17 A2986 140 38 2200 250/08 RMK AO2 T03220167
13942KMLU MLU20190925172010309/25/19 17:20:31  5-MIN KMLU 252320Z 24007KT 10SM CLR 32/17 A2986 140 38 2200 240/07 RMK AO2 T03220167
13942KMLU MLU20190925172510309/25/19 17:25:31  5-MIN KMLU 252325Z 22008KT 10SM CLR 32/17 A2986 140 40 2100 220/08 RMK AO2 T03170167
13942KMLU MLU20190925173010309/25/19 17:30:31  5-MIN KMLU 252330Z 23007KT 10SM CLR 31/17 A2986 140 42 2100 230/07 RMK AO2 T03110172
13942KMLU MLU20190925173510309/25/19 17:35:31  5-MIN KMLU 252335Z 23008KT 10SM CLR 31/17 A2986 140 41 2100 230/08 RMK AO2 T03110167
13942KMLU MLU20190925174010309/25/19 17:40:31  5-MIN KMLU 252340Z 22006KT 10SM CLR 30/17 A2986 140 45 1900 220/06 RMK AO2 T03000172
13942KMLU MLU20190925174510309/25/19 17:45:31  5-MIN KMLU 252345Z 22006KT 10SM CLR 30/17 A2986 130 45 1900 220/06 RMK AO2 T03000172
13942KMLU MLU20190925175012809/25/19 17:50:31  5-MIN KMLU 252350Z 22007KT 10SM CLR 29/17 A2987 130 47 1900 220/07 RMK AO2 SLP112 T02940172 10344 20294 56019
13942KMLU MLU20190925175510309/25/19 17:55:31  5-MIN KMLU 252355Z 22006KT 10SM CLR 29/17 A2987 130 48 1800 210/06 RMK AO2 T02890172
13942KMLU MLU20190925180010309/25/19 18:00:31  5-MIN KMLU 260000Z 20004KT 10SM CLR 29/18 A2987 130 50 1800 200/04 RMK AO2 T02890178
13942KMLU MLU20190925180510309/25/19 18:05:31  5-MIN KMLU 260005Z 20004KT 10SM CLR 29/17 A2987 130 48 1800 200/04 RMK AO2 T02890172
13942KMLU MLU20190925181010309/25/19 18:10:31  5-MIN KMLU 260010Z 20003KT 10SM CLR 29/18 A2987 130 49 1900 200/03 RMK AO2 T02940178
13942KMLU MLU20190925181510309/25/19 18:15:31  5-MIN KMLU 260015Z 20003KT 10SM CLR 29/18 A2987 130 50 1800 200/03 RMK AO2 T02890178
13942KMLU MLU20190925182010309/25/19 18:20:31  5-MIN KMLU 260020Z 20004KT 10SM CLR 29/18 A2987 130 50 1800 190/04 RMK AO2 T02890178
13942KMLU MLU20190925182510309/25/19 18:25:31  5-MIN KMLU 260025Z 18003KT 10SM CLR 28/18 A2987 130 56 1700 180/03 RMK AO2 T02780183
13942KMLU MLU20190925183010309/25/19 18:30:31  5-MIN KMLU 260030Z 18003KT 10SM CLR 27/19 A2987 130 60 1600 180/03 RMK AO2 T02720189
13942KMLU MLU20190925183510309/25/19 18:35:31  5-MIN KMLU 260035Z 18003KT 10SM CLR 27/19 A2987 130 60 1600 170/03 RMK AO2 T02720189
13942KMLU MLU20190925184010309/25/19 18:40:31  5-MIN KMLU 260040Z 00000KT 10SM CLR 27/19 A2987 120 64 1500 000/00 RMK AO2 T02670194
13942KMLU MLU20190925184510309/25/19 18:45:31  5-MIN KMLU 260045Z 00000KT 10SM CLR 27/19 A2988 120 62 1500 000/00 RMK AO2 T02670189
13942KMLU MLU20190925185011009/25/19 18:50:31  5-MIN KMLU 260050Z 17003KT 10SM CLR 27/19 A2988 120 62 1500 170/03 RMK AO2 SLP115 T02670189
13942KMLU MLU20190925185510309/25/19 18:55:31  5-MIN KMLU 260055Z 17004KT 10SM CLR 27/19 A2988 120 62 1500 170/04 RMK AO2 T02670189
13942KMLU MLU20190925190010309/25/19 19:00:31  5-MIN KMLU 260100Z 16003KT 10SM CLR 27/19 A2988 120 64 1500 160/03 RMK AO2 T02670194
13942KMLU MLU20190925190510309/25/19 19:05:31  5-MIN KMLU 260105Z 15003KT 10SM CLR 26/19 A2988 120 66 1500 150/03 RMK AO2 T02610194
13942KMLU MLU20190925191010309/25/19 19:10:31  5-MIN KMLU 260110Z 16003KT 10SM CLR 26/19 A2988 110 68 1400 160/03 RMK AO2 T02560194
13942KMLU MLU20190925191510309/25/19 19:15:31  5-MIN KMLU 260115Z 17004KT 10SM CLR 26/19 A2989 110 68 1400 170/04 RMK AO2 T02560194
13942KMLU MLU20190925192010309/25/19 19:20:31  5-MIN KMLU 260120Z 17004KT 10SM CLR 26/19 A2989 110 68 1400 170/04 RMK AO2 T02560194
13942KMLU MLU20190925192510309/25/19 19:25:31  5-MIN KMLU 260125Z 18005KT 10SM CLR 26/19 A2989 110 64 1500 180/05 RMK AO2 T02610189
13942KMLU MLU20190925193010309/25/19 19:30:31  5-MIN KMLU 260130Z 18004KT 10SM CLR 27/18 A2989 110 58 1600 180/04 RMK AO2 T02720183
13942KMLU MLU20190925193510309/25/19 19:35:31  5-MIN KMLU 260135Z 18004KT 10SM CLR 27/18 A2989 110 58 1600 170/04 RMK AO2 T02720183
13942KMLU MLU20190925194010309/25/19 19:40:31  5-MIN KMLU 260140Z 16004KT 10SM CLR 26/19 A2989 110 64 1500 160/04 RMK AO2 T02610189
13942KMLU MLU20190925194510309/25/19 19:45:31  5-MIN KMLU 260145Z 16004KT 10SM CLR 26/19 A2989 110 66 1400 160/04 RMK AO2 T02560189
13942KMLU MLU20190925195011009/25/19 19:50:31  5-MIN KMLU 260150Z 17005KT 10SM CLR 26/19 A2990 100 64 1500 170/05 RMK AO2 SLP122 T02610189
13942KMLU MLU20190925195510309/25/19 19:55:31  5-MIN KMLU 260155Z 17005KT 10SM CLR 27/18 A2990 100 60 1500 170/05 RMK AO2 T02670183
13942KMLU MLU20190925200010309/25/19 20:00:31  5-MIN KMLU 260200Z 17005KT 10SM CLR 27/18 A2990 100 58 1600 170/05 RMK AO2 T02720183
13942KMLU MLU20190925200510309/25/19 20:05:31  5-MIN KMLU 260205Z 17005KT 10SM CLR 27/18 A2990 100 60 1500 170/05 RMK AO2 T02670183
13942KMLU MLU20190925201010309/25/19 20:10:31  5-MIN KMLU 260210Z 17005KT 10SM CLR 27/18 A2990 100 60 1500 170/05 RMK AO2 T02670183
13942KMLU MLU20190925201510309/25/19 20:15:31  5-MIN KMLU 260215Z 17005KT 10SM CLR 27/19 A2990 100 62 1500 170/05 RMK AO2 T02670189
13942KMLU MLU20190925202010309/25/19 20:20:31  5-MIN KMLU 260220Z 17005KT 10SM CLR 27/18 A2990 100 60 1500 170/05 RMK AO2 T02670183
13942KMLU MLU20190925202510209/25/19 20:25:31  5-MIN KMLU 260225Z 18005KT 10SM CLR 27/18 A2991 90 60 1500 170/05 RMK AO2 T02670183
13942KMLU MLU20190925203010209/25/19 20:30:31  5-MIN KMLU 260230Z 18004KT 10SM CLR 27/18 A2991 90 60 1500 180/04 RMK AO2 T02670183
13942KMLU MLU20190925203510209/25/19 20:35:31  5-MIN KMLU 260235Z 18004KT 10SM CLR 26/18 A2991 90 62 1400 180/04 RMK AO2 T02610183
13942KMLU MLU20190925204010209/25/19 20:40:31  5-MIN KMLU 260240Z 17004KT 10SM CLR 26/18 A2991 90 62 1400 170/04 RMK AO2 T02610183
13942KMLU MLU20190925204510209/25/19 20:45:31  5-MIN KMLU 260245Z 00000KT 10SM CLR 26/18 A2992 90 62 1400 000/00 RMK AO2 T02610183
13942KMLU MLU20190925205011509/25/19 20:50:31  5-MIN KMLU 260250Z 00000KT 10SM CLR 26/18 A2992 80 64 1400 000/00 RMK AO2 SLP129 T02560183 53001
13942KMLU MLU20190925205510709/25/19 20:55:31  5-MIN KMLU 260255Z AUTO 17003KT 10SM CLR 25/18 A2992 80 66 1300 170/03 RMK AO2 T02500183
13942KMLU MLU20190925210010709/25/19 21:00:31  5-MIN KMLU 260300Z AUTO 00000KT 10SM CLR 24/18 A2992 80 68 1200 000/00 RMK AO2 T02440183
13942KMLU MLU20190925210510709/25/19 21:05:31  5-MIN KMLU 260305Z AUTO 17003KT 10SM CLR 24/19 A2992 80 71 1200 170/03 RMK AO2 T02440189
13942KMLU MLU20190925211010709/25/19 21:10:31  5-MIN KMLU 260310Z AUTO 18003KT 10SM CLR 24/19 A2992 80 71 1200 180/03 RMK AO2 T02440189
13942KMLU MLU20190925211510709/25/19 21:15:31  5-MIN KMLU 260315Z AUTO 18003KT 10SM CLR 25/18 A2992 80 66 1300 180/03 RMK AO2 T02500183
13942KMLU MLU20190925212010709/25/19 21:20:31  5-MIN KMLU 260320Z AUTO 00000KT 10SM CLR 25/18 A2992 80 66 1300 000/00 RMK AO2 T02500183
13942KMLU MLU20190925212510709/25/19 21:25:31  5-MIN KMLU 260325Z AUTO 19003KT 10SM CLR 24/18 A2992 80 71 1200 190/03 RMK AO2 T02390183
13942KMLU MLU20190925213010709/25/19 21:30:31  5-MIN KMLU 260330Z AUTO 00000KT 10SM CLR 23/18 A2992 80 73 1100 000/00 RMK AO2 T02330183
13942KMLU MLU20190925213510709/25/19 21:35:31  5-MIN KMLU 260335Z AUTO 19003KT 10SM CLR 23/18 A2992 80 73 1100 190/03 RMK AO2 T02330183
13942KMLU MLU20190925214010709/25/19 21:40:31  5-MIN KMLU 260340Z AUTO 19003KT 10SM CLR 23/18 A2992 80 73 1100 190/03 RMK AO2 T02330183
13942KMLU MLU20190925214510709/25/19 21:45:31  5-MIN KMLU 260345Z AUTO 19003KT 10SM CLR 23/19 A2992 80 76 1100 190/03 RMK AO2 T02330189
13942KMLU MLU20190925215011409/25/19 21:50:31  5-MIN KMLU 260350Z AUTO 00000KT 10SM CLR 23/19 A2992 80 76 1100 000/00 RMK AO2 SLP130 T02330189
13942KMLU MLU20190925215510709/25/19 21:55:31  5-MIN KMLU 260355Z AUTO 20003KT 10SM CLR 23/19 A2992 80 78 1000 190/03 RMK AO2 T02280189
13942KMLU MLU20190925220010709/25/19 22:00:31  5-MIN KMLU 260400Z AUTO 20003KT 10SM CLR 23/19 A2992 80 76 1100 200/03 RMK AO2 T02330189
13942KMLU MLU20190925220510709/25/19 22:05:31  5-MIN KMLU 260405Z AUTO 00000KT 10SM CLR 22/18 A2992 80 78 1000 000/00 RMK AO2 T02220183
13942KMLU MLU20190925221010709/25/19 22:10:31  5-MIN KMLU 260410Z AUTO 00000KT 10SM CLR 23/18 A2992 80 76 1000 000/00 RMK AO2 T02280183
13942KMLU MLU20190925221510709/25/19 22:15:31  5-MIN KMLU 260415Z AUTO 00000KT 10SM CLR 23/18 A2992 80 76 1000 000/00 RMK AO2 T02280183
13942KMLU MLU20190925222010709/25/19 22:20:31  5-MIN KMLU 260420Z AUTO 00000KT 10SM CLR 23/19 A2992 80 78 1000 000/00 RMK AO2 T02280189
13942KMLU MLU20190925222510709/25/19 22:25:31  5-MIN KMLU 260425Z AUTO 00000KT 10SM CLR 23/19 A2992 80 78 1000 000/00 RMK AO2 T02280189
13942KMLU MLU20190925223010709/25/19 22:30:31  5-MIN KMLU 260430Z AUTO 00000KT 10SM CLR 22/18 A2992 80 78 1000 000/00 RMK AO2 T02220183
13942KMLU MLU20190925223510709/25/19 22:35:31  5-MIN KMLU 260435Z AUTO 00000KT 10SM CLR 22/18 A2992 80 78 1000 000/00 RMK AO2 T02220183
13942KMLU MLU20190925224010609/25/19 22:40:31  5-MIN KMLU 260440Z AUTO 00000KT 10SM CLR 22/18 A2992 80 81 900 000/00 RMK AO2 T02170183
13942KMLU MLU20190926083510109/26/19 08:35:31  5-MIN KMLU 261435Z 31004KT 10SM CLR 27/21 A3001 0 69 1400 310/04 RMK AO2 T02670206
13942KMLU MLU20190926084010109/26/19 08:40:31  5-MIN KMLU 261440Z 30004KT 10SM CLR 27/21 A3001 0 69 1400 300/04 RMK AO2 T02670206
13942KMLU MLU20190926084510109/26/19 08:45:31  5-MIN KMLU 261445Z 00000KT 10SM CLR 27/21 A3000 0 69 1400 000/00 RMK AO2 T02670206
13942KMLU MLU20190926085011409/26/19 08:50:31  5-MIN KMLU 261450Z 28004KT 10SM CLR 27/21 A3001 0 66 1500 280/04 RMK AO2 SLP159 T02720206 53016
13942KMLU MLU20190926085510109/26/19 08:55:31  5-MIN KMLU 261455Z 28004KT 10SM CLR 28/20 A3000 0 62 1500 280/04 RMK AO2 T02780200
13942KMLU MLU20190926090010109/26/19 09:00:31  5-MIN KMLU 261500Z VRB03KT 10SM CLR 28/21 A3000 0 64 1500 VRB/03 RMK AO2 T02780206
13942KMLU MLU20190926090510109/26/19 09:05:31  5-MIN KMLU 261505Z VRB05KT 10SM CLR 28/21 A3000 0 64 1500 VRB/05 RMK AO2 T02780206
13942KMLU MLU20190926091010109/26/19 09:10:31  5-MIN KMLU 261510Z 33005KT 10SM CLR 28/20 A3000 0 60 1600 330/05 RMK AO2 T02830200
13942KMLU MLU20190926091510109/26/19 09:15:31  5-MIN KMLU 261515Z VRB03KT 10SM CLR 28/20 A3000 0 60 1600 VRB/03 RMK AO2 T02830200
13942KMLU MLU20190926092010209/26/19 09:20:31  5-MIN KMLU 261520Z VRB03KT 10SM CLR 28/20 A3000 10 60 1600 VRB/03 RMK AO2 T02830200
13942KMLU MLU20190926092510209/26/19 09:25:31  5-MIN KMLU 261525Z VRB03KT 10SM CLR 28/21 A3000 10 62 1600 VRB/03 RMK AO2 T02830206
13942KMLU MLU20190926093010209/26/19 09:30:31  5-MIN KMLU 261530Z VRB04KT 10SM CLR 29/21 A3000 10 58 1700 VRB/04 RMK AO2 T02940206
13942KMLU MLU20190926093510209/26/19 09:35:31  5-MIN KMLU 261535Z 00000KT 10SM CLR 29/21 A3000 10 58 1700 000/00 RMK AO2 T02940206
13942KMLU MLU20190926094010209/26/19 09:40:31  5-MIN KMLU 261540Z 33004KT 10SM CLR 29/20 A3000 10 56 1700 330/04 RMK AO2 T02940200
13942KMLU MLU20190926094510209/26/19 09:45:31  5-MIN KMLU 261545Z 36003KT 10SM CLR 30/21 A3000 10 56 1800 360/03 RMK AO2 T03000206
13942KMLU MLU20190926095010909/26/19 09:50:31  5-MIN KMLU 261550Z VRB03KT 10SM CLR 30/20 A3000 10 54 1800 VRB/03 RMK AO2 SLP156 T03000200
13942KMLU MLU20190926095510209/26/19 09:55:31  5-MIN KMLU 261555Z 00000KT 10SM CLR 29/20 A3000 10 56 1700 000/00 RMK AO2 T02940200
13942KMLU MLU20190926100010209/26/19 10:00:31  5-MIN KMLU 261600Z 16005KT 10SM CLR 30/21 A2999 10 56 1800 160/05 RMK AO2 T03000206
13942KMLU MLU20190926100510209/26/19 10:05:31  5-MIN KMLU 261605Z 00000KT 10SM CLR 29/20 A2999 20 56 1700 000/00 RMK AO2 T02940200
13942KMLU MLU20190926101010209/26/19 10:10:31  5-MIN KMLU 261610Z VRB03KT 10SM CLR 30/20 A2999 20 54 1800 VRB/03 RMK AO2 T03000200
13942KMLU MLU20190926101510209/26/19 10:15:31  5-MIN KMLU 261615Z VRB03KT 10SM CLR 30/19 A2999 20 52 1800 VRB/03 RMK AO2 T03000194
13942KMLU MLU20190926102010209/26/19 10:20:31  5-MIN KMLU 261620Z VRB03KT 10SM CLR 31/19 A2998 20 51 1900 VRB/03 RMK AO2 T03060194
13942KMLU MLU20190926102510209/26/19 10:25:31  5-MIN KMLU 261625Z 27004KT 10SM CLR 31/19 A2998 20 49 1900 270/04 RMK AO2 T03060189
13942KMLU MLU20190926103009209/26/19 10:30:31  5-MIN KMLU 261630Z 10SM CLR 31/19 A2998 20 49 1900 M /M RMK AO2 T03060189
13942KMLU MLU20190926103510209/26/19 10:35:31  5-MIN KMLU 261635Z 16004KT 10SM CLR 31/19 A2998 30 49 1900 160/04 RMK AO2 T03060189
13942KMLU MLU20190926104010209/26/19 10:40:31  5-MIN KMLU 261640Z 16005KT 10SM CLR 31/19 A2998 30 49 1900 160/05 RMK AO2 T03060189
13942KMLU MLU20190926104510209/26/19 10:45:31  5-MIN KMLU 261645Z VRB03KT 10SM CLR 31/19 A2998 30 49 1900 VRB/03 RMK AO2 T03060189
13942KMLU MLU20190926105010909/26/19 10:50:31  5-MIN KMLU 261650Z 00000KT 10SM CLR 31/19 A2998 30 47 1900 000/00 RMK AO2 SLP149 T03110189
13942KMLU MLU20190926105510209/26/19 10:55:31  5-MIN KMLU 261655Z VRB03KT 10SM CLR 31/18 A2998 30 46 1900 VRB/03 RMK AO2 T03110183
13942KMLU MLU20190926110010209/26/19 11:00:31  5-MIN KMLU 261700Z VRB04KT 10SM CLR 32/18 A2997 30 43 2000 VRB/04 RMK AO2 T03220183
13942KMLU MLU20190926110510209/26/19 11:05:31  5-MIN KMLU 261705Z 21009KT 10SM CLR 32/18 A2997 30 43 2000 210/09 RMK AO2 T03170178
13942KMLU MLU20190926111010209/26/19 11:10:31  5-MIN KMLU 261710Z 00000KT 10SM CLR 31/17 A2997 30 42 1900 000/00 RMK AO2 T03110172
13942KMLU MLU20190926111510209/26/19 11:15:31  5-MIN KMLU 261715Z 25005KT 10SM CLR 32/18 A2997 40 43 2000 250/05 RMK AO2 T03170178
13942KMLU MLU20190926112011809/26/19 11:20:31  5-MIN KMLU 261720Z 23008KT 210V270 10SM CLR 32/17 A2996 40 41 2000 230/08 210V270 RMK AO2 T03170172
13942KMLU MLU20190926112510209/26/19 11:25:31  5-MIN KMLU 261725Z VRB03KT 10SM CLR 32/17 A2996 40 41 2000 VRB/03 RMK AO2 T03170172
13942KMLU MLU20190926113010209/26/19 11:30:31  5-MIN KMLU 261730Z VRB03KT 10SM CLR 32/18 A2996 40 41 2100 VRB/03 RMK AO2 T03220178
13942KMLU MLU20190926113510209/26/19 11:35:31  5-MIN KMLU 261735Z VRB03KT 10SM CLR 32/18 A2996 40 41 2100 VRB/03 RMK AO2 T03220178
13942KMLU MLU20190926114010209/26/19 11:40:31  5-MIN KMLU 261740Z 14004KT 10SM CLR 32/18 A2996 50 41 2100 140/04 RMK AO2 T03220178
13942KMLU MLU20190926114509209/26/19 11:45:31  5-MIN KMLU 261745Z 10SM CLR 32/18 A2995 50 41 2100 M /M RMK AO2 T03220178
13942KMLU MLU20190926115012709/26/19 11:50:31  5-MIN KMLU 261750Z 21005KT 10SM CLR 32/18 A2995 50 41 2100 210/05 RMK AO2 SLP141 T03220178 10322 20178 51014
13942KMLU MLU20190926115510209/26/19 11:55:31  5-MIN KMLU 261755Z 22007KT 10SM CLR 32/18 A2995 50 41 2100 220/07 RMK AO2 T03220178
13942KMLU MLU20190926120010209/26/19 12:00:31  5-MIN KMLU 261800Z 17006KT 10SM CLR 33/17 A2994 60 39 2100 170/06 RMK AO2 T03280172
13942KMLU MLU20190926120510209/26/19 12:05:31  5-MIN KMLU 261805Z VRB05KT 10SM CLR 33/17 A2994 60 39 2100 VRB/05 RMK AO2 T03280172
13942KMLU MLU20190926121010209/26/19 12:10:31  5-MIN KMLU 261810Z 18007KT 10SM CLR 33/17 A2994 70 39 2100 180/07 RMK AO2 T03280172
13942KMLU MLU20190926121510209/26/19 12:15:31  5-MIN KMLU 261815Z 19005KT 10SM CLR 33/17 A2993 70 37 2200 190/05 RMK AO2 T03280167
13942KMLU MLU20190926122010209/26/19 12:20:31  5-MIN KMLU 261820Z 21009KT 10SM CLR 33/18 A2993 70 39 2200 210/09 RMK AO2 T03330178
13942KMLU MLU20190926122510209/26/19 12:25:31  5-MIN KMLU 261825Z 21009KT 10SM CLR 33/18 A2992 80 39 2200 210/09 RMK AO2 T03330178
13942KMLU MLU20190926123010209/26/19 12:30:31  5-MIN KMLU 261830Z VRB06KT 10SM CLR 33/18 A2992 80 39 2200 VRB/06 RMK AO2 T03330178
13942KMLU MLU20190926123510209/26/19 12:35:31  5-MIN KMLU 261835Z VRB04KT 10SM CLR 33/18 A2992 80 39 2200 VRB/04 RMK AO2 T03330178
13942KMLU MLU20190926124010209/26/19 12:40:31  5-MIN KMLU 261840Z VRB06KT 10SM CLR 33/18 A2992 80 39 2200 VRB/06 RMK AO2 T03330178
13942KMLU MLU20190926124510809/26/19 12:45:31  5-MIN KMLU 261845Z 20009G14KT 10SM CLR 34/17 A2991 90 36 2300 200/09G14 RMK AO2 T03390172
13942KMLU MLU20190926125011509/26/19 12:50:31  5-MIN KMLU 261850Z 18007G16KT 10SM CLR 33/17 A2991 90 37 2200 180/07G16 RMK AO2 SLP126 T03330172
13942KMLU MLU20190926125510209/26/19 12:55:31  5-MIN KMLU 261855Z VRB06KT 10SM CLR 33/18 A2991 90 39 2200 VRB/06 RMK AO2 T03330178
13942KMLU MLU20190926130010309/26/19 13:00:31  5-MIN KMLU 261900Z 20010KT 10SM CLR 34/17 A2990 100 36 2300 200/10 RMK AO2 T03390172
13942KMLU MLU20190926130510309/26/19 13:05:31  5-MIN KMLU 261905Z VRB04KT 10SM CLR 33/17 A2990 100 37 2300 VRB/04 RMK AO2 T03330172
13942KMLU MLU20190926131010309/26/19 13:10:31  5-MIN KMLU 261910Z 18009KT 10SM CLR 34/17 A2990 100 36 2300 180/09 RMK AO2 T03390172
13942KMLU MLU20190926131510909/26/19 13:15:31  5-MIN KMLU 261915Z 18011G15KT 10SM CLR 34/17 A2990 100 36 2300 180/11G15 RMK AO2 T03390172
13942KMLU MLU20190926132010909/26/19 13:20:31  5-MIN KMLU 261920Z 17008G15KT 10SM CLR 34/17 A2989 100 35 2300 170/08G15 RMK AO2 T03390167
13942KMLU MLU20190926132510309/26/19 13:25:31  5-MIN KMLU 261925Z 20009KT 10SM CLR 34/17 A2989 110 35 2300 200/09 RMK AO2 T03390167
13942KMLU MLU20190926133010309/26/19 13:30:31  5-MIN KMLU 261930Z 17007KT 10SM CLR 34/17 A2989 110 36 2300 170/07 RMK AO2 T03390172
13942KMLU MLU20190926133509309/26/19 13:35:31  5-MIN KMLU 261935Z 10SM CLR 34/17 A2989 110 35 2300 M /M RMK AO2 T03390167
13942KMLU MLU20190926134010309/26/19 13:40:31  5-MIN KMLU 261940Z 20008KT 10SM CLR 34/16 A2989 110 34 2300 200/08 RMK AO2 T03390161
13942KMLU MLU20190926134510309/26/19 13:45:31  5-MIN KMLU 261945Z VRB05KT 10SM CLR 34/17 A2989 110 36 2300 VRB/05 RMK AO2 T03390172
13942KMLU MLU20190926135011509/26/19 13:50:31  5-MIN KMLU 261950Z AUTO 22006KT 10SM CLR 34/17 A2988 110 35 2400 220/06 RMK AO2 SLP118 T03440172
13942KMLU MLU20190926135512409/26/19 13:55:31  5-MIN KMLU 261955Z AUTO 16007KT 130V200 10SM CLR 34/17 A2988 120 36 2300 160/07 130V200 RMK AO2 T03390172
13942KMLU MLU20190926140010809/26/19 14:00:31  5-MIN KMLU 262000Z AUTO 14006KT 10SM CLR 34/17 A2988 120 35 2300 140/06 RMK AO2 T03390167
13942KMLU MLU20190926140510809/26/19 14:05:31  5-MIN KMLU 262005Z AUTO VRB05KT 10SM CLR 34/17 A2988 120 35 2300 VRB/05 RMK AO2 T03390167
13942KMLU MLU20190926141010309/26/19 14:10:31  5-MIN KMLU 262010Z 19008KT 10SM CLR 34/17 A2987 120 34 2400 190/08 RMK AO2 T03440167
13942KMLU MLU20190926141510309/26/19 14:15:31  5-MIN KMLU 262015Z 20010KT 10SM CLR 34/16 A2987 120 33 2400 190/10 RMK AO2 T03440161
13942KMLU MLU20190926142010309/26/19 14:20:31  5-MIN KMLU 262020Z VRB05KT 10SM CLR 34/16 A2987 120 32 2300 VRB/05 RMK AO2 T03390156
13942KMLU MLU20190926142511909/26/19 14:25:31  5-MIN KMLU 262025Z 16007KT 130V190 10SM CLR 34/16 A2987 130 34 2300 160/07 130V190 RMK AO2 T03390161
13942KMLU MLU20190926143010909/26/19 14:30:31  5-MIN KMLU 262030Z 21009G14KT 10SM CLR 34/16 A2987 130 31 2400 210/09G14 RMK AO2 T03440156
13942KMLU MLU20190926143510909/26/19 14:35:31  5-MIN KMLU 262035Z 19009G14KT 10SM CLR 34/16 A2987 130 31 2400 190/09G14 RMK AO2 T03440156
13942KMLU MLU20190926144010309/26/19 14:40:31  5-MIN KMLU 262040Z 20008KT 10SM CLR 34/14 A2987 130 28 2400 190/08 RMK AO2 T03440139
13942KMLU MLU20190926144510309/26/19 14:45:31  5-MIN KMLU 262045Z 20008KT 10SM CLR 34/15 A2987 130 30 2400 200/08 RMK AO2 T03440150
13942KMLU MLU20190926145011609/26/19 14:50:31  5-MIN KMLU 262050Z 16006KT 10SM CLR 34/16 A2987 130 31 2400 160/06 RMK AO2 SLP113 T03440156 58018
13942KMLU MLU20190926145510309/26/19 14:55:31  5-MIN KMLU 262055Z 16005KT 10SM CLR 34/16 A2987 130 32 2300 160/05 RMK AO2 T03390156
13942KMLU MLU20190926150010309/26/19 15:00:31  5-MIN KMLU 262100Z VRB03KT 10SM CLR 34/16 A2987 130 34 2300 VRB/03 RMK AO2 T03390161
13942KMLU MLU20190926150509309/26/19 15:05:31  5-MIN KMLU 262105Z 10SM CLR 34/16 A2987 130 34 2300 M /M RMK AO2 T03390161
13942KMLU MLU20190926151010309/26/19 15:10:31  5-MIN KMLU 262110Z 21008KT 10SM CLR 34/16 A2987 130 32 2400 210/08 RMK AO2 T03390156
13942KMLU MLU20190926151510309/26/19 15:15:31  5-MIN KMLU 262115Z 16005KT 10SM CLR 34/16 A2986 140 32 2400 160/05 RMK AO2 T03390156
13942KMLU MLU20190926152010309/26/19 15:20:31  5-MIN KMLU 262120Z VRB05KT 10SM CLR 34/16 A2986 140 32 2400 VRB/05 RMK AO2 T03390156
13942KMLU MLU20190926152510309/26/19 15:25:31  5-MIN KMLU 262125Z 18006KT 10SM CLR 34/16 A2986 140 31 2400 170/06 RMK AO2 T03440156
13942KMLU MLU20190926153010309/26/19 15:30:31  5-MIN KMLU 262130Z 16006KT 10SM CLR 34/16 A2986 140 32 2400 160/06 RMK AO2 T03390156
13942KMLU MLU20190926153512509/26/19 15:35:31  5-MIN KMLU 262135Z 20009G15KT 140V250 10SM CLR 34/16 A2986 140 32 2400 200/09G15 140V250 RMK AO2 T03390156
13942KMLU MLU20190926154010909/26/19 15:40:31  5-MIN KMLU 262140Z 23007G15KT 10SM CLR 34/16 A2986 140 32 2400 230/07G15 RMK AO2 T03390156
13942KMLU MLU20190926154510309/26/19 15:45:31  5-MIN KMLU 262145Z 21006KT 10SM CLR 34/16 A2986 140 34 2400 210/06 RMK AO2 T03390161
13942KMLU MLU20190926155011009/26/19 15:50:31  5-MIN KMLU 262150Z 21005KT 10SM CLR 34/16 A2986 140 32 2400 210/05 RMK AO2 SLP108 T03390156
13942KMLU MLU20190926155510309/26/19 15:55:31  5-MIN KMLU 262155Z 22007KT 10SM CLR 34/16 A2986 140 32 2400 220/07 RMK AO2 T03390156
13942KMLU MLU20190926160010309/26/19 16:00:31  5-MIN KMLU 262200Z 20005KT 10SM CLR 34/16 A2986 140 34 2400 200/05 RMK AO2 T03390161
13942KMLU MLU20190926160510309/26/19 16:05:31  5-MIN KMLU 262205Z 00000KT 10SM CLR 34/16 A2985 140 34 2400 000/00 RMK AO2 T03390161
13942KMLU MLU20190926161011909/26/19 16:10:31  5-MIN KMLU 262210Z 19007KT 150V230 10SM CLR 34/16 A2986 140 34 2400 190/07 150V230 RMK AO2 T03390161
13942KMLU MLU20190926161510309/26/19 16:15:31  5-MIN KMLU 262215Z 18007KT 10SM CLR 33/16 A2985 140 35 2300 180/07 RMK AO2 T03330161
13942KMLU MLU20190926162010309/26/19 16:20:31  5-MIN KMLU 262220Z 19007KT 10SM CLR 33/17 A2985 140 36 2300 190/07 RMK AO2 T03330167
13942KMLU MLU20190926162510309/26/19 16:25:31  5-MIN KMLU 262225Z 18004KT 10SM CLR 33/17 A2985 140 36 2300 180/04 RMK AO2 T03330167
13942KMLU MLU20190926163010309/26/19 16:30:31  5-MIN KMLU 262230Z 19006KT 10SM CLR 33/17 A2985 140 37 2300 190/06 RMK AO2 T03330172
13942KMLU MLU20190926163510309/26/19 16:35:31  5-MIN KMLU 262235Z 18006KT 10SM CLR 33/17 A2985 140 36 2300 180/06 RMK AO2 T03330167
13942KMLU MLU20190926164010309/26/19 16:40:31  5-MIN KMLU 262240Z 18005KT 10SM CLR 33/17 A2985 140 36 2300 180/05 RMK AO2 T03330167
13942KMLU MLU20190926164510309/26/19 16:45:31  5-MIN KMLU 262245Z 17005KT 10SM CLR 33/17 A2985 140 36 2300 170/05 RMK AO2 T03330167
13942KMLU MLU20190926165011009/26/19 16:50:31  5-MIN KMLU 262250Z 18004KT 10SM CLR 33/17 A2985 140 37 2200 180/04 RMK AO2 SLP107 T03280167
13942KMLU MLU20190926165510309/26/19 16:55:31  5-MIN KMLU 262255Z 21005KT 10SM CLR 33/17 A2985 140 37 2200 210/05 RMK AO2 T03280167
13942KMLU MLU20190926170010309/26/19 17:00:31  5-MIN KMLU 262300Z 17006KT 10SM CLR 33/17 A2986 140 39 2200 170/06 RMK AO2 T03280172
13942KMLU MLU20190926170510309/26/19 17:05:31  5-MIN KMLU 262305Z 18004KT 10SM CLR 33/17 A2986 140 37 2200 180/04 RMK AO2 T03280167
13942KMLU MLU20190926171010309/26/19 17:10:31  5-MIN KMLU 262310Z 18005KT 10SM CLR 32/17 A2986 140 38 2200 180/05 RMK AO2 T03220167
13942KMLU MLU20190926171510309/26/19 17:15:31  5-MIN KMLU 262315Z 21007KT 10SM CLR 32/17 A2986 140 41 2100 210/07 RMK AO2 T03170172
13942KMLU MLU20190926172010309/26/19 17:20:31  5-MIN KMLU 262320Z 22006KT 10SM CLR 32/17 A2986 140 40 2100 220/06 RMK AO2 T03170167
13942KMLU MLU20190926172510309/26/19 17:25:31  5-MIN KMLU 262325Z 23007KT 10SM CLR 31/17 A2986 140 42 2100 230/07 RMK AO2 T03110172
13942KMLU MLU20190926173010309/26/19 17:30:31  5-MIN KMLU 262330Z 22007KT 10SM CLR 31/17 A2986 140 41 2100 220/07 RMK AO2 T03110167
13942KMLU MLU20190926173510309/26/19 17:35:31  5-MIN KMLU 262335Z 22007KT 10SM CLR 30/17 A2986 140 45 1900 220/07 RMK AO2 T03000172
13942KMLU MLU20190926174010309/26/19 17:40:31  5-MIN KMLU 262340Z 22007KT 10SM CLR 30/17 A2986 130 45 1900 220/07 RMK AO2 T03000172
13942KMLU MLU20190926174510309/26/19 17:45:31  5-MIN KMLU 262345Z 22008KT 10SM CLR 29/17 A2986 130 45 1900 220/08 RMK AO2 T02940167
13942KMLU MLU20190926175012809/26/19 17:50:31  5-MIN KMLU 262350Z 22006KT 10SM CLR 29/17 A2987 130 45 1900 220/06 RMK AO2 SLP112 T02940167 10344 20294 56028
13942KMLU MLU20190926175510309/26/19 17:55:31  5-MIN KMLU 262355Z 21006KT 10SM CLR 29/17 A2987 130 48 1800 210/06 RMK AO2 T02890172
13942KMLU MLU20190926180010309/26/19 18:00:31  5-MIN KMLU 270000Z 21005KT 10SM CLR 28/17 A2987 130 50 1700 210/05 RMK AO2 T02830172
13942KMLU MLU20190926180510309/26/19 18:05:31  5-MIN KMLU 270005Z 20003KT 10SM CLR 29/17 A2987 130 47 1800 200/03 RMK AO2 T02890167
13942KMLU MLU20190926181010309/26/19 18:10:31  5-MIN KMLU 270010Z 19003KT 10SM CLR 29/17 A2987 130 47 1800 180/03 RMK AO2 T02890167
13942KMLU MLU20190926181510309/26/19 18:15:31  5-MIN KMLU 270015Z 17003KT 10SM CLR 28/17 A2987 130 50 1700 170/03 RMK AO2 T02830172
13942KMLU MLU20190926182010309/26/19 18:20:31  5-MIN KMLU 270020Z 17003KT 10SM CLR 28/18 A2987 130 54 1700 170/03 RMK AO2 T02780178
13942KMLU MLU20190926182510309/26/19 18:25:31  5-MIN KMLU 270025Z 17003KT 10SM CLR 27/18 A2987 130 58 1600 170/03 RMK AO2 T02720183
13942KMLU MLU20190926183010309/26/19 18:30:31  5-MIN KMLU 270030Z 18003KT 10SM CLR 27/18 A2987 130 60 1500 180/03 RMK AO2 T02670183
13942KMLU MLU20190926183510309/26/19 18:35:31  5-MIN KMLU 270035Z 19003KT 10SM CLR 27/18 A2987 130 57 1500 190/03 RMK AO2 T02670178
13942KMLU MLU20190926184010309/26/19 18:40:31  5-MIN KMLU 270040Z 00000KT 10SM CLR 27/17 A2987 130 54 1600 000/00 RMK AO2 T02720172
13942KMLU MLU20190926184510309/26/19 18:45:31  5-MIN KMLU 270045Z 00000KT 10SM CLR 26/18 A2987 120 62 1500 000/00 RMK AO2 T02610183
13942KMLU MLU20190926185011009/26/19 18:50:31  5-MIN KMLU 270050Z 00000KT 10SM CLR 26/18 A2987 120 62 1500 000/00 RMK AO2 SLP114 T02610183
13942KMLU MLU20190926185510309/26/19 18:55:31  5-MIN KMLU 270055Z 00000KT 10SM CLR 26/18 A2987 120 62 1500 000/00 RMK AO2 T02610183
13942KMLU MLU20190926190010309/26/19 19:00:31  5-MIN KMLU 270100Z 17003KT 10SM CLR 26/18 A2987 120 62 1500 170/03 RMK AO2 T02610183
13942KMLU MLU20190926190510309/26/19 19:05:31  5-MIN KMLU 270105Z 00000KT 10SM CLR 26/19 A2988 120 66 1400 000/00 RMK AO2 T02560189
13942KMLU MLU20190926191010309/26/19 19:10:31  5-MIN KMLU 270110Z 00000KT 10SM CLR 26/19 A2988 120 66 1400 000/00 RMK AO2 T02560189
13942KMLU MLU20190926191510309/26/19 19:15:31  5-MIN KMLU 270115Z 00000KT 10SM CLR 26/19 A2988 120 66 1400 000/00 RMK AO2 T02560189
13942KMLU MLU20190926192010309/26/19 19:20:31  5-MIN KMLU 270120Z 00000KT 10SM CLR 25/19 A2988 120 68 1300 000/00 RMK AO2 T02500189
13942KMLU MLU20190926192510309/26/19 19:25:31  5-MIN KMLU 270125Z 00000KT 10SM CLR 24/18 A2989 110 71 1200 000/00 RMK AO2 T02390183
13942KMLU MLU20190926193010309/26/19 19:30:31  5-MIN KMLU 270130Z 00000KT 10SM CLR 24/18 A2989 110 71 1200 000/00 RMK AO2 T02390183
13942KMLU MLU20190926193510309/26/19 19:35:31  5-MIN KMLU 270135Z 16003KT 10SM CLR 24/18 A2989 110 68 1300 160/03 RMK AO2 T02440183
13942KMLU MLU20190926194010309/26/19 19:40:31  5-MIN KMLU 270140Z 16003KT 10SM CLR 24/19 A2989 110 71 1300 160/03 RMK AO2 T02440189
13942KMLU MLU20190926194510309/26/19 19:45:31  5-MIN KMLU 270145Z 16003KT 10SM CLR 24/19 A2989 110 71 1300 160/03 RMK AO2 T02440189
13942KMLU MLU20190926195011009/26/19 19:50:31  5-MIN KMLU 270150Z 00000KT 10SM CLR 25/19 A2989 110 68 1300 000/00 RMK AO2 SLP121 T02500189
13942KMLU MLU20190926195510309/26/19 19:55:31  5-MIN KMLU 270155Z 00000KT 10SM CLR 24/19 A2990 100 71 1300 000/00 RMK AO2 T02440189
13942KMLU MLU20190926200010309/26/19 20:00:31  5-MIN KMLU 270200Z 00000KT 10SM CLR 25/19 A2990 100 68 1300 000/00 RMK AO2 T02500189
13942KMLU MLU20190926200510309/26/19 20:05:31  5-MIN KMLU 270205Z 00000KT 10SM CLR 23/18 A2990 100 73 1100 000/00 RMK AO2 T02330183
13942KMLU MLU20190926201010309/26/19 20:10:31  5-MIN KMLU 270210Z 00000KT 10SM CLR 24/18 A2990 100 68 1200 000/00 RMK AO2 T02390178
13942KMLU MLU20190926201510309/26/19 20:15:31  5-MIN KMLU 270215Z 00000KT 10SM CLR 24/18 A2990 100 68 1200 000/00 RMK AO2 T02390178
13942KMLU MLU20190926202010309/26/19 20:20:31  5-MIN KMLU 270220Z 00000KT 10SM CLR 24/18 A2990 100 68 1200 000/00 RMK AO2 T02390178
13942KMLU MLU20190926202510309/26/19 20:25:31  5-MIN KMLU 270225Z 00000KT 10SM CLR 24/18 A2990 100 68 1200 000/00 RMK AO2 T02390178
13942KMLU MLU20190926203010309/26/19 20:30:31  5-MIN KMLU 270230Z 00000KT 10SM CLR 24/18 A2990 100 71 1200 000/00 RMK AO2 T02390183
13942KMLU MLU20190926203510309/26/19 20:35:31  5-MIN KMLU 270235Z 00000KT 10SM CLR 23/18 A2990 100 73 1100 000/00 RMK AO2 T02330183
13942KMLU MLU20190926204010309/26/19 20:40:31  5-MIN KMLU 270240Z 00000KT 10SM CLR 23/18 A2990 100 73 1100 000/00 RMK AO2 T02330183
13942KMLU MLU20190926204510209/26/19 20:45:31  5-MIN KMLU 270245Z 00000KT 10SM CLR 23/19 A2991 90 76 1100 000/00 RMK AO2 T02330189
13942KMLU MLU20190926205011509/26/19 20:50:31  5-MIN KMLU 270250Z 00000KT 10SM CLR 23/18 A2991 90 73 1100 000/00 RMK AO2 SLP125 T02330183 55001
13942KMLU MLU20190926205510709/26/19 20:55:31  5-MIN KMLU 270255Z AUTO 00000KT 10SM CLR 23/19 A2991 90 76 1100 000/00 RMK AO2 T02330189
13942KMLU MLU20190926210010809/26/19 21:00:31  5-MIN KMLU 270300Z AUTO 00000KT 10SM CLR 23/18 A2991 100 76 1100 000/00 RMK AO2 T02280183
13942KMLU MLU20190926210510809/26/19 21:05:31  5-MIN KMLU 270305Z AUTO 00000KT 10SM CLR 23/18 A2991 100 76 1100 000/00 RMK AO2 T02280183
13942KMLU MLU20190926211010809/26/19 21:10:31  5-MIN KMLU 270310Z AUTO 00000KT 10SM CLR 23/18 A2991 100 76 1100 000/00 RMK AO2 T02280183
13942KMLU MLU20190926211510709/26/19 21:15:31  5-MIN KMLU 270315Z AUTO 00000KT 10SM CLR 23/19 A2991 90 78 1100 000/00 RMK AO2 T02280189
13942KMLU MLU20190926212010709/26/19 21:20:31  5-MIN KMLU 270320Z AUTO 00000KT 10SM CLR 23/19 A2991 90 78 1100 000/00 RMK AO2 T02280189
13942KMLU MLU20190926212510709/26/19 21:25:31  5-MIN KMLU 270325Z AUTO 00000KT 10SM CLR 23/19 A2991 90 78 1100 000/00 RMK AO2 T02280189
13942KMLU MLU20190926213010709/26/19 21:30:31  5-MIN KMLU 270330Z AUTO 00000KT 10SM CLR 22/19 A2991 90 81 1000 000/00 RMK AO2 T02220189
13942KMLU MLU20190926213510709/26/19 21:35:31  5-MIN KMLU 270335Z AUTO 00000KT 10SM CLR 22/19 A2991 90 81 1000 000/00 RMK AO2 T02220189
13942KMLU MLU20190926214010709/26/19 21:40:31  5-MIN KMLU 270340Z AUTO 00000KT 10SM CLR 23/19 A2991 90 78 1100 000/00 RMK AO2 T02280189
13942KMLU MLU20190926214510709/26/19 21:45:31  5-MIN KMLU 270345Z AUTO 00000KT 10SM CLR 23/19 A2991 90 78 1100 000/00 RMK AO2 T02280189
13942KMLU MLU20190926215011409/26/19 21:50:31  5-MIN KMLU 270350Z AUTO 00000KT 10SM CLR 22/19 A2991 90 81 1000 000/00 RMK AO2 SLP126 T02220189
13942KMLU MLU20190926215510709/26/19 21:55:31  5-MIN KMLU 270355Z AUTO 00000KT 10SM CLR 22/19 A2991 90 81 1000 000/00 RMK AO2 T02220189
13942KMLU MLU20190926220010709/26/19 22:00:31  5-MIN KMLU 270400Z AUTO 00000KT 10SM CLR 22/19 A2991 90 81 1000 000/00 RMK AO2 T02220189
13942KMLU MLU20190926220510709/26/19 22:05:31  5-MIN KMLU 270405Z AUTO 00000KT 10SM CLR 22/19 A2991 90 81 1000 000/00 RMK AO2 T02220189
13942KMLU MLU20190926221010709/26/19 22:10:31  5-MIN KMLU 270410Z AUTO 00000KT 10SM CLR 22/19 A2991 90 81 1000 000/00 RMK AO2 T02220189
13942KMLU MLU20190926221510709/26/19 22:15:31  5-MIN KMLU 270415Z AUTO 00000KT 10SM CLR 22/19 A2991 90 81 1000 000/00 RMK AO2 T02220189
13942KMLU MLU20190926222010709/26/19 22:20:31  5-MIN KMLU 270420Z AUTO 00000KT 10SM CLR 22/19 A2991 100 84 900 000/00 RMK AO2 T02170189
13942KMLU MLU20190926222510609/26/19 22:25:31  5-MIN KMLU 270425Z AUTO 00000KT 10SM CLR 22/19 A2991 90 84 900 000/00 RMK AO2 T02170189
13942KMLU MLU20190926223010609/26/19 22:30:31  5-MIN KMLU 270430Z AUTO 18003KT 10SM CLR 22/19 A2991 90 84 900 180/03 RMK AO2 T02170189
13942KMLU MLU20190926223510609/26/19 22:35:31  5-MIN KMLU 270435Z AUTO 18003KT 10SM CLR 22/19 A2991 90 84 900 180/03 RMK AO2 T02170189
13942KMLU MLU20190926224010609/26/19 22:40:31  5-MIN KMLU 270440Z AUTO 00000KT 10SM CLR 22/19 A2991 90 84 900 000/00 RMK AO2 T02170189
13942KMLU MLU20190926224510609/26/19 22:45:31  5-MIN KMLU 270445Z AUTO 00000KT 10SM CLR 22/18 A2991 90 81 900 000/00 RMK AO2 T02170183
13942KMLU MLU20190926225011409/26/19 22:50:31  5-MIN KMLU 270450Z AUTO 00000KT 10SM CLR 22/19 A2990 100 84 900 000/00 RMK AO2 SLP125 T02170189
13942KMLU MLU20190926225510709/26/19 22:55:31  5-MIN KMLU 270455Z AUTO 00000KT 10SM CLR 22/19 A2990 100 84 900 000/00 RMK AO2 T02170189
13942KMLU MLU20190926230010709/26/19 23:00:31  5-MIN KMLU 270500Z AUTO 00000KT 10SM CLR 22/19 A2990 100 84 900 000/00 RMK AO2 T02170189
13942KMLU MLU20190926230510709/26/19 23:05:31  5-MIN KMLU 270505Z AUTO 00000KT 10SM CLR 22/19 A2990 100 84 900 000/00 RMK AO2 T02170189
13942KMLU MLU20190926231010809/26/19 23:10:31  5-MIN KMLU 270510Z AUTO 00000KT 10SM CLR 22/19 A2990 100 81 1000 000/00 RMK AO2 T02220189
13942KMLU MLU20190926231510709/26/19 23:15:31  5-MIN KMLU 270515Z AUTO 00000KT 10SM CLR 22/19 A2990 100 84 900 000/00 RMK AO2 T02170189
13942KMLU MLU20190926232010709/26/19 23:20:31  5-MIN KMLU 270520Z AUTO 00000KT 10SM CLR 22/19 A2990 100 84 900 000/00 RMK AO2 T02170189
13942KMLU MLU20190926232510709/26/19 23:25:31  5-MIN KMLU 270525Z AUTO 00000KT 10SM CLR 22/19 A2990 100 84 900 000/00 RMK AO2 T02170189
13942KMLU MLU20190926233010709/26/19 23:30:31  5-MIN KMLU 270530Z AUTO 00000KT 10SM CLR 22/19 A2990 100 84 900 000/00 RMK AO2 T02170189
13942KMLU MLU20190926233510709/26/19 23:35:31  5-MIN KMLU 270535Z AUTO 00000KT 10SM CLR 22/19 A2990 100 84 900 000/00 RMK AO2 T02170189
13942KMLU MLU20190926234010709/26/19 23:40:31  5-MIN KMLU 270540Z AUTO 00000KT 10SM CLR 22/19 A2990 100 84 900 000/00 RMK AO2 T02170189
13942KMLU MLU20190926234510709/26/19 23:45:31  5-MIN KMLU 270545Z AUTO 00000KT 10SM CLR 21/19 A2990 100 87 900 000/00 RMK AO2 T02110189
13942KMLU MLU20190926235014209/26/19 23:50:31  5-MIN KMLU 270550Z AUTO 00000KT 10SM CLR 21/19 A2990 100 90 800 000/00 RMK AO2 SLP125 T02060189 10289 20206 403440178 53014
13942KMLU MLU20190926235510609/26/19 23:55:31  5-MIN KMLU 270555Z AUTO 00000KT 10SM CLR 21/19 A2991 90 87 900 000/00 RMK AO2 T02110189
13942KMLU MLU20190927000010709/27/19 00:00:31  5-MIN KMLU 270600Z AUTO 00000KT 10SM CLR 21/19 A2990 100 87 900 000/00 RMK AO2 T02110189
13942KMLU MLU20190927000510709/27/19 00:05:31  5-MIN KMLU 270605Z AUTO 00000KT 10SM CLR 21/18 A2990 100 87 800 000/00 RMK AO2 T02060183
13942KMLU MLU20190927001010709/27/19 00:10:31  5-MIN KMLU 270610Z AUTO 00000KT 10SM CLR 21/18 A2990 100 87 800 000/00 RMK AO2 T02060183
13942KMLU MLU20190927001510709/27/19 00:15:31  5-MIN KMLU 270615Z AUTO 00000KT 10SM CLR 21/18 A2990 100 87 800 000/00 RMK AO2 T02060183
13942KMLU MLU20190927002010709/27/19 00:20:31  5-MIN KMLU 270620Z AUTO 00000KT 10SM CLR 21/18 A2990 100 87 800 000/00 RMK AO2 T02060183
13942KMLU MLU20190927002510709/27/19 00:25:31  5-MIN KMLU 270625Z AUTO 00000KT 10SM CLR 21/18 A2990 100 87 800 000/00 RMK AO2 T02060183
13942KMLU MLU20190927003010709/27/19 00:30:31  5-MIN KMLU 270630Z AUTO 00000KT 10SM CLR 21/18 A2990 100 87 800 000/00 RMK AO2 T02060183
13942KMLU MLU20190927003510709/27/19 00:35:31  5-MIN KMLU 270635Z AUTO 00000KT 10SM CLR 21/18 A2990 100 87 800 000/00 RMK AO2 T02060183
13942KMLU MLU20190927004010709/27/19 00:40:31  5-MIN KMLU 270640Z AUTO 00000KT 10SM CLR 20/18 A2990 100 90 700 000/00 RMK AO2 T02000183
13942KMLU MLU20190927004510709/27/19 00:45:31  5-MIN KMLU 270645Z AUTO 00000KT 10SM CLR 20/18 A2990 100 90 700 000/00 RMK AO2 T02000183
13942KMLU MLU20190927005011409/27/19 00:50:31  5-MIN KMLU 270650Z AUTO 00000KT 10SM CLR 21/18 A2990 100 87 800 000/00 RMK AO2 SLP124 T02060183
13942KMLU MLU20190927005510709/27/19 00:55:31  5-MIN KMLU 270655Z AUTO 00000KT 10SM CLR 21/18 A2990 100 87 800 000/00 RMK AO2 T02060183
13942KMLU MLU20190927010010709/27/19 01:00:31  5-MIN KMLU 270700Z AUTO 00000KT 10SM CLR 20/18 A2990 100 90 700 000/00 RMK AO2 T02000183
13942KMLU MLU20190927010510709/27/19 01:05:31  5-MIN KMLU 270705Z AUTO 00000KT 10SM CLR 21/18 A2990 100 87 800 000/00 RMK AO2 T02060183
13942KMLU MLU20190927011010709/27/19 01:10:31  5-MIN KMLU 270710Z AUTO 00000KT 10SM CLR 21/19 A2990 100 90 800 000/00 RMK AO2 T02060189
13942KMLU MLU20190927011510709/27/19 01:15:31  5-MIN KMLU 270715Z AUTO 00000KT 10SM CLR 21/19 A2990 100 87 900 000/00 RMK AO2 T02110189
13942KMLU MLU20190927012010709/27/19 01:20:31  5-MIN KMLU 270720Z AUTO 00000KT 10SM CLR 21/19 A2990 100 90 800 000/00 RMK AO2 T02060189
13942KMLU MLU20190927012510709/27/19 01:25:31  5-MIN KMLU 270725Z AUTO 00000KT 10SM CLR 21/19 A2990 100 90 800 000/00 RMK AO2 T02060189
13942KMLU MLU20190927013010709/27/19 01:30:31  5-MIN KMLU 270730Z AUTO 00000KT 10SM CLR 21/19 A2990 100 90 800 000/00 RMK AO2 T02060189
13942KMLU MLU20190927013510709/27/19 01:35:31  5-MIN KMLU 270735Z AUTO 00000KT 10SM CLR 21/19 A2990 100 90 800 000/00 RMK AO2 T02060189
13942KMLU MLU20190927014010709/27/19 01:40:31  5-MIN KMLU 270740Z AUTO 00000KT 10SM CLR 20/19 A2990 100 93 700 000/00 RMK AO2 T02000189
13942KMLU MLU20190927014510709/27/19 01:45:31  5-MIN KMLU 270745Z AUTO 00000KT 10SM CLR 20/19 A2990 100 93 700 000/00 RMK AO2 T02000189
13942KMLU MLU20190927015011409/27/19 01:50:31  5-MIN KMLU 270750Z AUTO 00000KT 10SM CLR 21/19 A2990 100 90 800 000/00 RMK AO2 SLP124 T02060189
13942KMLU MLU20190927015510709/27/19 01:55:31  5-MIN KMLU 270755Z AUTO 00000KT 10SM CLR 20/18 A2990 100 90 700 000/00 RMK AO2 T02000183
13942KMLU MLU20190927020010709/27/19 02:00:31  5-MIN KMLU 270800Z AUTO 00000KT 10SM CLR 21/19 A2990 100 90 800 000/00 RMK AO2 T02060189
13942KMLU MLU20190927020510709/27/19 02:05:31  5-MIN KMLU 270805Z AUTO 00000KT 10SM CLR 20/18 A2990 100 90 700 000/00 RMK AO2 T02000183
13942KMLU MLU20190927021010709/27/19 02:10:31  5-MIN KMLU 270810Z AUTO 00000KT 10SM CLR 20/18 A2990 100 90 700 000/00 RMK AO2 T02000183
13942KMLU MLU20190927021510709/27/19 02:15:31  5-MIN KMLU 270815Z AUTO 00000KT 10SM CLR 20/18 A2990 100 90 700 000/00 RMK AO2 T02000183
13942KMLU MLU20190927022010709/27/19 02:20:31  5-MIN KMLU 270820Z AUTO 00000KT 10SM CLR 19/18 A2990 100 93 700 000/00 RMK AO2 T01940183
13942KMLU MLU20190927022510709/27/19 02:25:31  5-MIN KMLU 270825Z AUTO 00000KT 10SM CLR 20/18 A2990 100 90 700 000/00 RMK AO2 T02000183
13942KMLU MLU20190927023010709/27/19 02:30:31  5-MIN KMLU 270830Z AUTO 16003KT 10SM CLR 20/18 A2990 100 90 700 160/03 RMK AO2 T02000183
13942KMLU MLU20190927023510709/27/19 02:35:31  5-MIN KMLU 270835Z AUTO 00000KT 10SM CLR 19/18 A2990 100 93 700 000/00 RMK AO2 T01940183
13942KMLU MLU20190927024010709/27/19 02:40:31  5-MIN KMLU 270840Z AUTO 00000KT 10SM CLR 20/18 A2990 100 90 700 000/00 RMK AO2 T02000183
13942KMLU MLU20190927024510709/27/19 02:45:31  5-MIN KMLU 270845Z AUTO 00000KT 10SM CLR 20/18 A2990 100 90 700 000/00 RMK AO2 T02000183
13942KMLU MLU20190927025012009/27/19 02:50:31  5-MIN KMLU 270850Z AUTO 00000KT 10SM CLR 20/18 A2990 100 90 700 000/00 RMK AO2 SLP123 T02000183 58000
13942KMLU MLU20190927025510709/27/19 02:55:31  5-MIN KMLU 270855Z AUTO 00000KT 10SM CLR 19/18 A2990 100 93 700 000/00 RMK AO2 T01940183
13942KMLU MLU20190927030010709/27/19 03:00:31  5-MIN KMLU 270900Z AUTO 00000KT 10SM CLR 19/18 A2990 100 90 700 000/00 RMK AO2 T01940178
13942KMLU MLU20190927030510709/27/19 03:05:31  5-MIN KMLU 270905Z AUTO 00000KT 10SM CLR 19/18 A2990 100 93 600 000/00 RMK AO2 T01890178
13942KMLU MLU20190927031010709/27/19 03:10:31  5-MIN KMLU 270910Z AUTO 00000KT 10SM CLR 19/18 A2991 100 93 600 000/00 RMK AO2 T01890178
13942KMLU MLU20190927031510609/27/19 03:15:31  5-MIN KMLU 270915Z AUTO 00000KT 10SM CLR 19/18 A2991 90 90 700 000/00 RMK AO2 T01940178
13942KMLU MLU20190927032010609/27/19 03:20:31  5-MIN KMLU 270920Z AUTO 00000KT 10SM CLR 19/18 A2991 90 90 700 000/00 RMK AO2 T01940178
13942KMLU MLU20190927032510609/27/19 03:25:31  5-MIN KMLU 270925Z AUTO 00000KT 10SM CLR 19/18 A2991 90 93 700 000/00 RMK AO2 T01940183
13942KMLU MLU20190927033010609/27/19 03:30:31  5-MIN KMLU 270930Z AUTO 00000KT 10SM CLR 19/18 A2991 90 93 700 000/00 RMK AO2 T01940183
13942KMLU MLU20190927033510609/27/19 03:35:31  5-MIN KMLU 270935Z AUTO 00000KT 10SM CLR 19/18 A2991 90 93 700 000/00 RMK AO2 T01940183
13942KMLU MLU20190927034010609/27/19 03:40:31  5-MIN KMLU 270940Z AUTO 00000KT 10SM CLR 19/18 A2991 90 93 600 000/00 RMK AO2 T01890178
13942KMLU MLU20190927034510609/27/19 03:45:31  5-MIN KMLU 270945Z AUTO 00000KT 10SM CLR 19/18 A2991 90 93 700 000/00 RMK AO2 T01940183
13942KMLU MLU20190927035011309/27/19 03:50:31  5-MIN KMLU 270950Z AUTO 00000KT 10SM CLR 19/18 A2991 90 93 700 000/00 RMK AO2 SLP127 T01940183
13942KMLU MLU20190927035510609/27/19 03:55:31  5-MIN KMLU 270955Z AUTO 00000KT 10SM CLR 19/18 A2992 90 90 700 000/00 RMK AO2 T01940178
13942KMLU MLU20190927040010609/27/19 04:00:31  5-MIN KMLU 271000Z AUTO 00000KT 10SM CLR 19/18 A2992 80 93 700 000/00 RMK AO2 T01940183
13942KMLU MLU20190927040510609/27/19 04:05:31  5-MIN KMLU 271005Z AUTO 00000KT 10SM CLR 19/18 A2992 80 93 700 000/00 RMK AO2 T01940183
13942KMLU MLU20190927041010609/27/19 04:10:31  5-MIN KMLU 271010Z AUTO 00000KT 10SM CLR 19/18 A2992 80 93 700 000/00 RMK AO2 T01940183
13942KMLU MLU20190927041510509/27/19 04:15:31  5-MIN KMLU 271015Z AUTO 00000KT 9SM CLR 19/18 A2992 80 93 700 000/00 RMK AO2 T01940183
13942KMLU MLU20190927042010509/27/19 04:20:31  5-MIN KMLU 271020Z AUTO 00000KT 9SM CLR 19/18 A2992 80 93 600 000/00 RMK AO2 T01890178
13942KMLU MLU20190927042510609/27/19 04:25:31  5-MIN KMLU 271025Z AUTO 00000KT 10SM CLR 19/18 A2992 80 97 600 000/00 RMK AO2 T01890183
13942KMLU MLU20190927043010609/27/19 04:30:31  5-MIN KMLU 271030Z AUTO 00000KT 10SM CLR 19/18 A2992 80 93 700 000/00 RMK AO2 T01940183
13942KMLU MLU20190927043510609/27/19 04:35:31  5-MIN KMLU 271035Z AUTO 00000KT 10SM CLR 19/18 A2992 80 93 700 000/00 RMK AO2 T01940183
13942KMLU MLU20190927044010609/27/19 04:40:31  5-MIN KMLU 271040Z AUTO 00000KT 10SM CLR 19/18 A2992 80 93 700 000/00 RMK AO2 T01940183
13942KMLU MLU20190927044510609/27/19 04:45:31  5-MIN KMLU 271045Z AUTO 00000KT 10SM CLR 19/18 A2993 80 93 700 000/00 RMK AO2 T01940183
13942KMLU MLU20190927045010809/27/19 04:50:31  5-MIN KMLU 271050Z 00000KT 10SM CLR 19/18 A2993 70 97 600 000/00 RMK AO2 SLP132 T01890183
13942KMLU MLU20190927045510109/27/19 04:55:31  5-MIN KMLU 271055Z 00000KT 10SM CLR 19/18 A2993 70 93 600 000/00 RMK AO2 T01890178
13942KMLU MLU20190927050010009/27/19 05:00:31  5-MIN KMLU 271100Z 00000KT 9SM CLR 19/18 A2993 70 97 600 000/00 RMK AO2 T01890183
13942KMLU MLU20190927050510009/27/19 05:05:31  5-MIN KMLU 271105Z 00000KT 8SM CLR 18/18 A2993 70 96 500 000/00 RMK AO2 T01830178
13942KMLU MLU20190927051010009/27/19 05:10:31  5-MIN KMLU 271110Z 00000KT 8SM CLR 19/18 A2994 70 97 600 000/00 RMK AO2 T01890183
13942KMLU MLU20190927051510109/27/19 05:15:31  5-MIN KMLU 271115Z 00000KT 10SM CLR 19/18 A2994 70 97 600 000/00 RMK AO2 T01890183
13942KMLU MLU20190927052010109/27/19 05:20:31  5-MIN KMLU 271120Z 00000KT 10SM CLR 19/18 A2994 60 93 600 000/00 RMK AO2 T01890178
13942KMLU MLU20190927052510009/27/19 05:25:31  5-MIN KMLU 271125Z 00000KT 9SM CLR 19/18 A2994 60 97 600 000/00 RMK AO2 T01890183
13942KMLU MLU20190927053010009/27/19 05:30:31  5-MIN KMLU 271130Z 00000KT 8SM CLR 19/18 A2994 60 93 600 000/00 RMK AO2 T01890178
13942KMLU MLU20190927053510009/27/19 05:35:31  5-MIN KMLU 271135Z 00000KT 8SM CLR 18/18 A2994 60 96 500 000/00 RMK AO2 T01830178
13942KMLU MLU20190927054010009/27/19 05:40:31  5-MIN KMLU 271140Z 00000KT 9SM CLR 18/17 A2994 60 93 500 000/00 RMK AO2 T01830172
13942KMLU MLU20190927054510009/27/19 05:45:31  5-MIN KMLU 271145Z 00000KT 8SM CLR 18/18 A2994 60 96 500 000/00 RMK AO2 T01830178
13942KMLU MLU20190927055012809/27/19 05:50:31  5-MIN KMLU 271150Z 00000KT 5SM BR CLR 18/18 A2994 60 96 500 000/00 RMK AO2 SLP138 T01830178 10211 20183 56002
13942KMLU MLU20190927055510309/27/19 05:55:31  5-MIN KMLU 271155Z 00000KT 5SM BR CLR 18/18 A2994 60 96 500 000/00 RMK AO2 T01830178
13942KMLU MLU20190927060010009/27/19 06:00:31  5-MIN KMLU 271200Z 00000KT 7SM CLR 18/17 A2995 60 93 500 000/00 RMK AO2 T01830172
13942KMLU MLU20190927060510009/27/19 06:05:31  5-MIN KMLU 271205Z 00000KT 7SM CLR 18/17 A2995 60 93 500 000/00 RMK AO2 T01830172
13942KMLU MLU20190927061010309/27/19 06:10:31  5-MIN KMLU 271210Z 00000KT 5SM BR CLR 19/18 A2995 50 93 600 000/00 RMK AO2 T01890178
13942KMLU MLU20190927061510309/27/19 06:15:31  5-MIN KMLU 271215Z 00000KT 4SM BR CLR 19/18 A2995 50 93 600 000/00 RMK AO2 T01890178
13942KMLU MLU20190927062010309/27/19 06:20:31  5-MIN KMLU 271220Z 00000KT 5SM BR CLR 19/18 A2995 50 93 600 000/00 RMK AO2 T01890178
13942KMLU MLU20190927062510309/27/19 06:25:31  5-MIN KMLU 271225Z 00000KT 6SM BR CLR 19/18 A2995 50 93 600 000/00 RMK AO2 T01890178
13942KMLU MLU20190927063010309/27/19 06:30:31  5-MIN KMLU 271230Z 00000KT 6SM BR CLR 19/18 A2995 50 97 600 000/00 RMK AO2 T01890183
13942KMLU MLU20190927063510009/27/19 06:35:31  5-MIN KMLU 271235Z 00000KT 8SM CLR 19/18 A2995 50 93 600 000/00 RMK AO2 T01940183
13942KMLU MLU20190927064010009/27/19 06:40:31  5-MIN KMLU 271240Z 00000KT 8SM CLR 19/18 A2995 50 93 600 000/00 RMK AO2 T01940183
13942KMLU MLU20190927064510009/27/19 06:45:31  5-MIN KMLU 271245Z 00000KT 9SM CLR 20/19 A2995 50 93 700 000/00 RMK AO2 T02000189
13942KMLU MLU20190927065010709/27/19 06:50:31  5-MIN KMLU 271250Z 00000KT 9SM CLR 20/19 A2995 50 93 700 000/00 RMK AO2 SLP141 T02000189
13942KMLU MLU20190927065510009/27/19 06:55:31  5-MIN KMLU 271255Z 00000KT 9SM CLR 21/19 A2995 50 93 800 000/00 RMK AO2 T02060194
13942KMLU MLU20190927070010009/27/19 07:00:31  5-MIN KMLU 271300Z 00000KT 9SM CLR 21/19 A2995 50 90 800 000/00 RMK AO2 T02110194
13942KMLU MLU20190927070510109/27/19 07:05:31  5-MIN KMLU 271305Z 00000KT 10SM CLR 22/20 A2995 50 90 900 000/00 RMK AO2 T02170200
13942KMLU MLU20190927071010109/27/19 07:10:31  5-MIN KMLU 271310Z 00000KT 10SM CLR 22/20 A2996 50 90 900 000/00 RMK AO2 T02170200
13942KMLU MLU20190927071510109/27/19 07:15:31  5-MIN KMLU 271315Z 00000KT 10SM CLR 22/20 A2996 50 90 900 000/00 RMK AO2 T02170200
13942KMLU MLU20190927072010109/27/19 07:20:31  5-MIN KMLU 271320Z 00000KT 10SM CLR 22/20 A2996 50 87 900 000/00 RMK AO2 T02220200
13942KMLU MLU20190927072510109/27/19 07:25:31  5-MIN KMLU 271325Z 00000KT 10SM CLR 22/20 A2996 40 87 900 000/00 RMK AO2 T02220200
13942KMLU MLU20190927073010109/27/19 07:30:31  5-MIN KMLU 271330Z 00000KT 10SM CLR 22/20 A2996 40 87 900 000/00 RMK AO2 T02220200
13942KMLU MLU20190927073510209/27/19 07:35:31  5-MIN KMLU 271335Z 00000KT 10SM CLR 23/21 A2996 40 87 1000 000/00 RMK AO2 T02280206
13942KMLU MLU20190927074010209/27/19 07:40:31  5-MIN KMLU 271340Z 18003KT 10SM CLR 23/21 A2996 40 84 1100 180/03 RMK AO2 T02330206
13942KMLU MLU20190927074510209/27/19 07:45:31  5-MIN KMLU 271345Z 18003KT 10SM CLR 23/21 A2996 40 84 1100 180/03 RMK AO2 T02330206
13942KMLU MLU20190927075010909/27/19 07:50:31  5-MIN KMLU 271350Z 00000KT 10SM CLR 24/21 A2996 40 81 1100 000/00 RMK AO2 SLP143 T02390206
13942KMLU MLU20190927075510209/27/19 07:55:31  5-MIN KMLU 271355Z 00000KT 10SM CLR 24/21 A2996 40 84 1100 000/00 RMK AO2 T02390211
13942KMLU MLU20190927080010209/27/19 08:00:31  5-MIN KMLU 271400Z 19003KT 10SM CLR 24/21 A2996 40 81 1100 190/03 RMK AO2 T02390206
13942KMLU MLU20190927080510209/27/19 08:05:31  5-MIN KMLU 271405Z 18003KT 10SM CLR 24/21 A2996 40 81 1200 180/03 RMK AO2 T02440211
13942KMLU MLU20190927081010209/27/19 08:10:31  5-MIN KMLU 271410Z 00000KT 10SM CLR 24/21 A2996 40 81 1200 000/00 RMK AO2 T02440211
13942KMLU MLU20190927081510209/27/19 08:15:31  5-MIN KMLU 271415Z 16003KT 10SM CLR 25/21 A2996 40 79 1200 160/03 RMK AO2 T02500211
13942KMLU MLU20190927082010209/27/19 08:20:31  5-MIN KMLU 271420Z 18003KT 10SM CLR 25/21 A2997 40 76 1200 180/03 RMK AO2 T02500206
13942KMLU MLU20190927082510209/27/19 08:25:31  5-MIN KMLU 271425Z 00000KT 10SM CLR 26/21 A2997 40 73 1300 000/00 RMK AO2 T02560206
13942KMLU MLU20190927083010209/27/19 08:30:31  5-MIN KMLU 271430Z 00000KT 10SM CLR 26/21 A2997 40 73 1400 000/00 RMK AO2 T02610211
13942KMLU MLU20190927083510209/27/19 08:35:31  5-MIN KMLU 271435Z 00000KT 10SM CLR 26/21 A2997 40 73 1400 000/00 RMK AO2 T02610211
13942KMLU MLU20190927084010209/27/19 08:40:31  5-MIN KMLU 271440Z 00000KT 10SM CLR 27/21 A2997 40 71 1400 000/00 RMK AO2 T02670211
13942KMLU MLU20190927084509209/27/19 08:45:31  5-MIN KMLU 271445Z 10SM CLR 27/21 A2997 40 71 1400 M /M RMK AO2 T02670211
13942KMLU MLU20190927085011509/27/19 08:50:31  5-MIN KMLU 271450Z 21004KT 10SM CLR 27/21 A2997 40 66 1500 210/04 RMK AO2 SLP146 T02720206 53015
13942KMLU MLU20190927085510209/27/19 08:55:31  5-MIN KMLU 271455Z 20006KT 10SM CLR 28/21 A2997 40 66 1600 200/06 RMK AO2 T02780211
13942KMLU MLU20190927090010209/27/19 09:00:31  5-MIN KMLU 271500Z 23006KT 10SM CLR 28/21 A2997 40 66 1600 230/06 RMK AO2 T02780211
13942KMLU MLU20190927090510209/27/19 09:05:31  5-MIN KMLU 271505Z 21007KT 10SM CLR 28/21 A2997 40 62 1600 210/07 RMK AO2 T02830206
13942KMLU MLU20190927091010209/27/19 09:10:31  5-MIN KMLU 271510Z 20007KT 10SM CLR 28/21 A2997 40 62 1600 200/07 RMK AO2 T02830206
13942KMLU MLU20190927091510209/27/19 09:15:31  5-MIN KMLU 271515Z 21008KT 10SM CLR 29/21 A2997 40 60 1700 210/08 RMK AO2 T02890206
13942KMLU MLU20190927092010209/27/19 09:20:31  5-MIN KMLU 271520Z 18007KT 10SM CLR 29/21 A2997 40 60 1700 180/07 RMK AO2 T02890206
13942KMLU MLU20190927092510209/27/19 09:25:31  5-MIN KMLU 271525Z VRB06KT 10SM CLR 29/21 A2997 40 58 1700 VRB/06 RMK AO2 T02940206
13942KMLU MLU20190927093010209/27/19 09:30:31  5-MIN KMLU 271530Z 18007KT 10SM CLR 29/21 A2996 40 58 1700 180/07 RMK AO2 T02940206
13942KMLU MLU20190927093510209/27/19 09:35:31  5-MIN KMLU 271535Z 19007KT 10SM CLR 29/21 A2997 40 58 1700 190/07 RMK AO2 T02940206
13942KMLU MLU20190927094010509/27/19 09:40:31  5-MIN KMLU 271540Z 20008KT 10SM FEW037 29/21 A2996 40 58 1700 200/08 RMK AO2 T02940206
13942KMLU MLU20190927094511109/27/19 09:45:31  5-MIN KMLU 271545Z 19011G14KT 10SM FEW037 29/21 A2996 40 58 1700 190/11G14 RMK AO2 T02940206
13942KMLU MLU20190927095012509/27/19 09:50:31  5-MIN KMLU 271550Z 18010G14KT 10SM FEW037 SCT048 29/20 A2996 40 58 1700 170/10G14 RMK AO2 SLP145 T02890200
13942KMLU MLU20190927095511209/27/19 09:55:31  5-MIN KMLU 271555Z 20010KT 10SM BKN037 BKN048 29/20 A2996 40 56 1700 200/10 RMK AO2 T02940200
13942KMLU MLU20190927100011209/27/19 10:00:31  5-MIN KMLU 271600Z 19009KT 10SM BKN037 BKN048 31/21 A2996 40 53 1900 190/09 RMK AO2 T03110206
13942KMLU MLU20190927100511809/27/19 10:05:31  5-MIN KMLU 271605Z 18010G17KT 10SM BKN037 BKN048 30/20 A2996 40 54 1800 180/10G17 RMK AO2 T03000200
13942KMLU MLU20190927101011809/27/19 10:10:31  5-MIN KMLU 271610Z 19010G17KT 10SM BKN037 BKN048 30/20 A2996 40 54 1800 190/10G17 RMK AO2 T03000200
13942KMLU MLU20190927101511809/27/19 10:15:31  5-MIN KMLU 271615Z 17009G16KT 10SM BKN037 BKN048 31/21 A2996 40 53 1900 170/09G16 RMK AO2 T03110206
13942KMLU MLU20190927102011209/27/19 10:20:31  5-MIN KMLU 271620Z 17007KT 10SM BKN037 BKN048 31/20 A2996 40 52 1900 170/07 RMK AO2 T03060200
13942KMLU MLU20190927102511809/27/19 10:25:31  5-MIN KMLU 271625Z 19010G16KT 10SM BKN037 BKN048 30/19 A2996 50 52 1800 190/10G16 RMK AO2 T03000194
13942KMLU MLU20190927103011809/27/19 10:30:31  5-MIN KMLU 271630Z 20010G16KT 10SM BKN037 BKN048 30/19 A2996 50 52 1800 200/10G16 RMK AO2 T03000194
13942KMLU MLU20190927103511209/27/19 10:35:31  5-MIN KMLU 271635Z 20011KT 10SM BKN037 BKN048 31/20 A2995 50 51 1900 200/11 RMK AO2 T03110200
13942KMLU MLU20190927104011209/27/19 10:40:31  5-MIN KMLU 271640Z 20009KT 10SM BKN037 BKN048 30/19 A2995 50 52 1800 200/09 RMK AO2 T03000194
13942KMLU MLU20190927104511209/27/19 10:45:31  5-MIN KMLU 271645Z 19008KT 10SM BKN037 BKN048 29/19 A2995 50 54 1800 190/08 RMK AO2 T02940194
13942KMLU MLU20190927105011909/27/19 10:50:31  5-MIN KMLU 271650Z 20007KT 10SM BKN037 BKN048 31/20 A2995 60 52 1900 200/07 RMK AO2 SLP140 T03060200
13942KMLU MLU20190927105511209/27/19 10:55:31  5-MIN KMLU 271655Z 21011KT 10SM BKN045 BKN055 31/21 A2995 60 54 1900 210/11 RMK AO2 T03060206
13942KMLU MLU20190927110011209/27/19 11:00:31  5-MIN KMLU 271700Z 20009KT 10SM BKN047 OVC055 31/20 A2995 60 52 1900 200/09 RMK AO2 T03060200
13942KMLU MLU20190927110511209/27/19 11:05:31  5-MIN KMLU 271705Z 21008KT 10SM BKN047 BKN055 31/20 A2995 60 52 1900 210/08 RMK AO2 T03060200
13942KMLU MLU20190927111011209/27/19 11:10:31  5-MIN KMLU 271710Z 20011KT 10SM BKN047 BKN055 31/20 A2994 60 52 1900 190/11 RMK AO2 T03060200
13942KMLU MLU20190927111511109/27/19 11:15:31  5-MIN KMLU 271715Z 21013G18KT 10SM BKN047 31/20 A2994 60 51 2000 210/13G18 RMK AO2 T03110200
13942KMLU MLU20190927112011109/27/19 11:20:31  5-MIN KMLU 271720Z 20010G18KT 10SM BKN047 30/19 A2994 60 52 1800 200/10G18 RMK AO2 T03000194
13942KMLU MLU20190927112512109/27/19 11:25:31  5-MIN KMLU 271725Z 19008KT 170V240 10SM BKN049 31/20 A2994 70 51 2000 190/08 170V240 RMK AO2 T03110200
13942KMLU MLU20190927113011109/27/19 11:30:31  5-MIN KMLU 271730Z 21012G18KT 10SM BKN049 32/20 A2993 70 49 2000 200/12G18 RMK AO2 T03170200
13942KMLU MLU20190927113511109/27/19 11:35:31  5-MIN KMLU 271735Z 21014G18KT 10SM BKN049 32/19 A2993 70 47 2000 210/14G18 RMK AO2 T03170194
13942KMLU MLU20190927114010509/27/19 11:40:31  5-MIN KMLU 271740Z 19011KT 10SM BKN049 31/19 A2993 70 49 2000 190/11 RMK AO2 T03110194
13942KMLU MLU20190927114511109/27/19 11:45:31  5-MIN KMLU 271745Z 18010G17KT 10SM BKN049 31/19 A2993 80 49 1900 180/10G17 RMK AO2 T03060189
13942KMLU MLU20190927115014309/27/19 11:50:31  5-MIN KMLU 271750Z VRB06G17KT 10SM BKN050 BKN060 31/19 A2992 80 49 2000 VRB/06G17 RMK AO2 SLP131 T03110194 10317 20183 51008
13942KMLU MLU20190927115510509/27/19 11:55:31  5-MIN KMLU 271755Z 20012KT 10SM BKN050 32/19 A2992 80 47 2000 200/12 RMK AO2 T03170194
13942KMLU MLU20190927120010509/27/19 12:00:31  5-MIN KMLU 271800Z 21011KT 10SM BKN050 32/19 A2992 80 47 2000 210/11 RMK AO2 T03170194
13942KMLU MLU20190927120511109/27/19 12:05:31  5-MIN KMLU 271805Z 19010G17KT 10SM BKN050 31/19 A2992 80 49 1900 190/10G17 RMK AO2 T03060189
13942KMLU MLU20190927121011109/27/19 12:10:31  5-MIN KMLU 271810Z 21008G17KT 10SM BKN050 31/19 A2991 90 49 1900 210/08G17 RMK AO2 T03060189
13942KMLU MLU20190927121511109/27/19 12:15:31  5-MIN KMLU 271815Z 20011G18KT 10SM BKN050 32/19 A2991 90 46 2100 200/11G18 RMK AO2 T03170189
13942KMLU MLU20190927122011809/27/19 12:20:31  5-MIN KMLU 271820Z 20012G18KT 10SM BKN050 BKN060 33/19 A2991 90 43 2200 190/12G18 RMK AO2 T03330194
13942KMLU MLU20190927122511809/27/19 12:25:31  5-MIN KMLU 271825Z 17008G17KT 10SM BKN050 BKN060 32/19 A2991 90 44 2100 170/08G17 RMK AO2 T03220189
13942KMLU MLU20190927123011309/27/19 12:30:31  5-MIN KMLU 271830Z 16007KT 10SM BKN050 BKN060 32/19 A2990 100 46 2100 160/07 RMK AO2 T03170189
13942KMLU MLU20190927123511209/27/19 12:35:31  5-MIN KMLU 271835Z 18013G18KT 10SM SCT055 33/19 A2990 100 43 2200 180/13G18 RMK AO2 T03280189
13942KMLU MLU20190927124011209/27/19 12:40:31  5-MIN KMLU 271840Z 18009G18KT 10SM SCT055 32/18 A2990 100 44 2100 180/09G18 RMK AO2 T03170183
13942KMLU MLU20190927124511209/27/19 12:45:31  5-MIN KMLU 271845Z 19010G16KT 10SM SCT055 32/19 A2990 100 44 2100 180/10G16 RMK AO2 T03220189
13942KMLU MLU20190927125011909/27/19 12:50:31  5-MIN KMLU 271850Z 18009G16KT 10SM SCT055 32/18 A2990 100 44 2100 180/09G16 RMK AO2 SLP123 T03170183
13942KMLU MLU20190927125510609/27/19 12:55:31  5-MIN KMLU 271855Z 18009KT 10SM BKN055 32/18 A2989 110 44 2100 180/09 RMK AO2 T03170183
13942KMLU MLU20190927130012209/27/19 13:00:31  5-MIN KMLU 271900Z 20007KT 160V220 10SM BKN055 32/19 A2989 110 44 2100 200/07 160V220 RMK AO2 T03220189
13942KMLU MLU20190927130512209/27/19 13:05:31  5-MIN KMLU 271905Z 18009KT 150V230 10SM BKN055 32/19 A2989 110 46 2100 180/09 150V230 RMK AO2 T03170189
13942KMLU MLU20190927131010609/27/19 13:10:31  5-MIN KMLU 271910Z 16009KT 10SM BKN055 32/19 A2989 110 46 2100 160/09 RMK AO2 T03170189
13942KMLU MLU20190927131512209/27/19 13:15:31  5-MIN KMLU 271915Z 14007KT 100V180 10SM BKN060 32/19 A2989 110 46 2100 140/07 100V180 RMK AO2 T03170189
13942KMLU MLU20190927132012209/27/19 13:20:31  5-MIN KMLU 271920Z 15008KT 110V190 10SM OVC055 32/18 A2988 120 44 2100 150/08 110V190 RMK AO2 T03170183
13942KMLU MLU20190927132511209/27/19 13:25:31  5-MIN KMLU 271925Z 15008G14KT 10SM BKN055 33/19 A2988 120 43 2200 150/08G14 RMK AO2 T03280189
13942KMLU MLU20190927133011209/27/19 13:30:31  5-MIN KMLU 271930Z 16008G16KT 10SM BKN060 32/18 A2988 120 43 2200 160/08G16 RMK AO2 T03220183
13942KMLU MLU20190927133511209/27/19 13:35:31  5-MIN KMLU 271935Z 18010G16KT 10SM BKN060 32/18 A2988 120 44 2100 180/10G16 RMK AO2 T03170183
13942KMLU MLU20190927134010609/27/19 13:40:31  5-MIN KMLU 271940Z 17010KT 10SM BKN060 32/18 A2988 120 44 2100 170/10 RMK AO2 T03170183
13942KMLU MLU20190927134510609/27/19 13:45:31  5-MIN KMLU 271945Z 19005KT 10SM BKN060 32/18 A2987 120 44 2100 190/05 RMK AO2 T03170183
13942KMLU MLU20190927135011809/27/19 13:50:31  5-MIN KMLU 271950Z AUTO 17009KT 10SM BKN055 32/18 A2988 120 44 2100 170/09 RMK AO2 SLP115 T03170183
13942KMLU MLU20190927135510609/27/19 13:55:31  5-MIN KMLU 271955Z 18007KT 10SM BKN060 32/19 A2987 120 44 2200 180/07 RMK AO2 T03220189
13942KMLU MLU20190927140010609/27/19 14:00:31  5-MIN KMLU 272000Z 17009KT 10SM BKN060 32/19 A2987 130 46 2100 170/09 RMK AO2 T03170189
13942KMLU MLU20190927140510609/27/19 14:05:31  5-MIN KMLU 272005Z 16007KT 10SM BKN060 32/19 A2987 130 44 2200 160/07 RMK AO2 T03220189
13942KMLU MLU20190927141011209/27/19 14:10:31  5-MIN KMLU 272010Z 20011G17KT 10SM BKN060 33/19 A2987 130 43 2200 190/11G17 RMK AO2 T03280189
13942KMLU MLU20190927141511209/27/19 14:15:31  5-MIN KMLU 272015Z 20008G17KT 10SM SCT060 32/18 A2987 130 44 2100 200/08G17 RMK AO2 T03170183
13942KMLU MLU20190927142011209/27/19 14:20:31  5-MIN KMLU 272020Z 17010G15KT 10SM SCT060 32/19 A2986 130 46 2100 170/10G15 RMK AO2 T03170189
13942KMLU MLU20190927142511209/27/19 14:25:31  5-MIN KMLU 272025Z 19009G15KT 10SM SCT060 32/19 A2986 130 44 2200 190/09G15 RMK AO2 T03220189
13942KMLU MLU20190927143010609/27/19 14:30:31  5-MIN KMLU 272030Z 17008KT 10SM SCT060 32/18 A2986 130 44 2100 170/08 RMK AO2 T03170183
13942KMLU MLU20190927143510609/27/19 14:35:31  5-MIN KMLU 272035Z 17009KT 10SM SCT060 32/19 A2986 140 44 2200 170/09 RMK AO2 T03220189
13942KMLU MLU20190927144011209/27/19 14:40:31  5-MIN KMLU 272040Z 18010G15KT 10SM BKN060 33/19 A2986 140 43 2200 180/10G15 RMK AO2 T03280189
13942KMLU MLU20190927144512809/27/19 14:45:31  5-MIN KMLU 272045Z 17009G15KT 140V200 10SM BKN060 33/19 A2986 140 43 2200 170/09G15 140V200 RMK AO2 T03280189
13942KMLU MLU20190927145011909/27/19 14:50:31  5-MIN KMLU 272050Z 20008KT 10SM BKN060 32/18 A2986 140 43 2200 200/08 RMK AO2 SLP109 T03220183 58015
13942KMLU MLU20190927145512209/27/19 14:55:31  5-MIN KMLU 272055Z 19008KT 160V220 10SM BKN060 33/19 A2985 140 42 2300 190/08 160V220 RMK AO2 T03330189
13942KMLU MLU20190927150011209/27/19 15:00:31  5-MIN KMLU 272100Z 21007G17KT 10SM BKN060 33/18 A2985 140 40 2300 210/07G17 RMK AO2 T03330183
13942KMLU MLU20190927150511209/27/19 15:05:31  5-MIN KMLU 272105Z 20009G17KT 10SM BKN060 33/18 A2985 150 40 2300 200/09G17 RMK AO2 T03330183
13942KMLU MLU20190927151010609/27/19 15:10:31  5-MIN KMLU 272110Z 19010KT 10SM SCT060 33/18 A2985 140 41 2200 190/10 RMK AO2 T03280183
13942KMLU MLU20190927151510609/27/19 15:15:31  5-MIN KMLU 272115Z 18008KT 10SM SCT060 32/18 A2985 150 44 2100 180/08 RMK AO2 T03170183
13942KMLU MLU20190927152010609/27/19 15:20:31  5-MIN KMLU 272120Z 17006KT 10SM BKN060 32/18 A2985 140 43 2200 170/06 RMK AO2 T03220183
13942KMLU MLU20190927152510609/27/19 15:25:31  5-MIN KMLU 272125Z 20006KT 10SM BKN060 33/18 A2985 150 41 2200 200/06 RMK AO2 T03280183
13942KMLU MLU20190927153011209/27/19 15:30:31  5-MIN KMLU 272130Z 20012G15KT 10SM BKN060 34/19 A2985 150 40 2400 200/12G15 RMK AO2 T03390189
13942KMLU MLU20190927153511209/27/19 15:35:31  5-MIN KMLU 272135Z 22013G18KT 10SM BKN060 33/18 A2985 150 40 2300 220/13G18 RMK AO2 T03330183
13942KMLU MLU20190927154011209/27/19 15:40:31  5-MIN KMLU 272140Z 21014G20KT 10SM BKN060 33/19 A2985 150 42 2300 210/14G20 RMK AO2 T03330189
13942KMLU MLU20190927154511209/27/19 15:45:31  5-MIN KMLU 272145Z 23012G20KT 10SM BKN060 33/18 A2985 150 40 2300 220/12G20 RMK AO2 T03330183
13942KMLU MLU20190927155011309/27/19 15:50:31  5-MIN KMLU 272150Z 22014KT 10SM SCT060 33/18 A2985 150 41 2200 220/14 RMK AO2 SLP106 T03280183
13942KMLU MLU20190927155510609/27/19 15:55:31  5-MIN KMLU 272155Z 21012KT 10SM SCT060 33/18 A2985 150 40 2200 210/12 RMK AO2 T03280178
13942KMLU MLU20190927160011209/27/19 16:00:31  5-MIN KMLU 272200Z 24014G19KT 10SM BKN060 33/18 A2985 150 41 2300 230/14G19 RMK AO2 T03280183
13942KMLU MLU20190927160511209/27/19 16:05:31  5-MIN KMLU 272205Z 20014G19KT 10SM BKN060 33/18 A2985 150 41 2300 200/14G19 RMK AO2 T03280183
13942KMLU MLU20190927161010609/27/19 16:10:31  5-MIN KMLU 272210Z 20013KT 10SM BKN060 33/18 A2985 150 41 2200 200/13 RMK AO2 T03280183
13942KMLU MLU20190927161510609/27/19 16:15:31  5-MIN KMLU 272215Z 21013KT 10SM SCT060 33/18 A2985 150 41 2200 210/13 RMK AO2 T03280183
13942KMLU MLU20190927162011209/27/19 16:20:31  5-MIN KMLU 272220Z 21013G20KT 10SM SCT060 32/18 A2985 140 41 2200 210/13G20 RMK AO2 T03220178
13942KMLU MLU20190927162511209/27/19 16:25:31  5-MIN KMLU 272225Z 19010G20KT 10SM SCT060 31/18 A2985 140 44 2100 190/10G20 RMK AO2 T03110178
13942KMLU MLU20190927163010609/27/19 16:30:31  5-MIN KMLU 272230Z 19007KT 10SM FEW060 31/18 A2985 140 44 2100 190/07 RMK AO2 T03110178
13942KMLU MLU20190927163510609/27/19 16:35:31  5-MIN KMLU 272235Z 19006KT 10SM FEW060 32/18 A2985 150 44 2100 190/06 RMK AO2 T03170183
13942KMLU MLU20190927164010609/27/19 16:40:31  5-MIN KMLU 272240Z 17007KT 10SM SCT060 32/18 A2985 150 41 2200 170/07 RMK AO2 T03220178
13942KMLU MLU20190927164511209/27/19 16:45:31  5-MIN KMLU 272245Z 18008G14KT 10SM BKN060 32/18 A2985 150 41 2200 180/08G14 RMK AO2 T03220178
13942KMLU MLU20190927165011309/27/19 16:50:31  5-MIN KMLU 272250Z 21010KT 10SM SCT060 32/18 A2985 150 41 2200 210/10 RMK AO2 SLP106 T03220178
13942KMLU MLU20190927165510609/27/19 16:55:31  5-MIN KMLU 272255Z 22014KT 10SM BKN060 32/18 A2985 150 43 2100 220/14 RMK AO2 T03170178
13942KMLU MLU20190927170010609/27/19 17:00:31  5-MIN KMLU 272300Z 21012KT 10SM BKN060 31/17 A2985 140 42 2100 210/12 RMK AO2 T03110172
13942KMLU MLU20190927170510609/27/19 17:05:31  5-MIN KMLU 272305Z 21011KT 10SM SCT060 31/17 A2985 140 42 2100 210/11 RMK AO2 T03110172
13942KMLU MLU20190927171010609/27/19 17:10:31  5-MIN KMLU 272310Z 21011KT 10SM FEW060 31/17 A2985 140 42 2100 210/11 RMK AO2 T03110172
13942KMLU MLU20190927171510609/27/19 17:15:31  5-MIN KMLU 272315Z 21009KT 10SM FEW060 31/17 A2985 140 44 2000 210/09 RMK AO2 T03060172
13942KMLU MLU20190927172010609/27/19 17:20:31  5-MIN KMLU 272320Z 19008KT 10SM FEW060 31/17 A2985 140 44 2000 190/08 RMK AO2 T03060172
13942KMLU MLU20190927172510309/27/19 17:25:31  5-MIN KMLU 272325Z 19007KT 10SM CLR 31/17 A2985 140 44 2000 190/07 RMK AO2 T03060172
13942KMLU MLU20190927173010309/27/19 17:30:31  5-MIN KMLU 272330Z 19006KT 10SM CLR 31/17 A2985 140 44 2000 190/06 RMK AO2 T03060172
13942KMLU MLU20190927173510309/27/19 17:35:31  5-MIN KMLU 272335Z 19005KT 10SM CLR 30/17 A2986 140 45 1900 190/05 RMK AO2 T03000172
13942KMLU MLU20190927174010309/27/19 17:40:31  5-MIN KMLU 272340Z 19006KT 10SM CLR 29/18 A2986 140 49 1900 190/06 RMK AO2 T02940178
13942KMLU MLU20190927174510309/27/19 17:45:31  5-MIN KMLU 272345Z 19005KT 10SM CLR 29/17 A2986 140 47 1900 190/05 RMK AO2 T02940172
13942KMLU MLU20190927175012809/27/19 17:50:31  5-MIN KMLU 272350Z 19005KT 10SM CLR 29/17 A2986 140 48 1800 190/05 RMK AO2 SLP108 T02890172 10339 20289 56024
13942KMLU MLU20190927175510309/27/19 17:55:31  5-MIN KMLU 272355Z 19004KT 10SM CLR 28/18 A2986 140 52 1700 190/04 RMK AO2 T02830178
13942KMLU MLU20190927180010309/27/19 18:00:31  5-MIN KMLU 280000Z 19004KT 10SM CLR 29/18 A2986 140 50 1800 190/04 RMK AO2 T02890178
13942KMLU MLU20190927180510309/27/19 18:05:31  5-MIN KMLU 280005Z 20003KT 10SM CLR 28/18 A2986 140 52 1700 200/03 RMK AO2 T02830178
13942KMLU MLU20190927181010309/27/19 18:10:31  5-MIN KMLU 280010Z 19004KT 10SM CLR 28/18 A2986 140 54 1700 190/04 RMK AO2 T02780178
13942KMLU MLU20190927181510309/27/19 18:15:31  5-MIN KMLU 280015Z 18004KT 10SM CLR 28/17 A2986 140 50 1700 180/04 RMK AO2 T02830172
13942KMLU MLU20190927182010309/27/19 18:20:31  5-MIN KMLU 280020Z 18003KT 10SM CLR 28/18 A2986 130 54 1700 180/03 RMK AO2 T02780178
13942KMLU MLU20190927182510309/27/19 18:25:31  5-MIN KMLU 280025Z 17003KT 10SM CLR 27/18 A2986 130 60 1600 160/03 RMK AO2 T02670183
13942KMLU MLU20190927183010309/27/19 18:30:31  5-MIN KMLU 280030Z 00000KT 10SM CLR 26/19 A2987 130 64 1500 000/00 RMK AO2 T02610189
13942KMLU MLU20190927183510309/27/19 18:35:31  5-MIN KMLU 280035Z 16003KT 10SM CLR 26/19 A2987 130 64 1500 160/03 RMK AO2 T02610189
13942KMLU MLU20190927184010309/27/19 18:40:31  5-MIN KMLU 280040Z 16003KT 10SM CLR 26/19 A2987 130 66 1400 160/03 RMK AO2 T02560189
13942KMLU MLU20190927184510309/27/19 18:45:31  5-MIN KMLU 280045Z 17003KT 10SM CLR 26/19 A2987 130 66 1400 170/03 RMK AO2 T02560189
13942KMLU MLU20190927185011009/27/19 18:50:31  5-MIN KMLU 280050Z 00000KT 10SM CLR 25/19 A2987 130 68 1400 000/00 RMK AO2 SLP113 T02500189
13942KMLU MLU20190927185510309/27/19 18:55:31  5-MIN KMLU 280055Z 00000KT 10SM CLR 25/19 A2987 130 68 1400 000/00 RMK AO2 T02500189
13942KMLU MLU20190927190010309/27/19 19:00:31  5-MIN KMLU 280100Z 00000KT 10SM CLR 25/19 A2987 130 68 1400 000/00 RMK AO2 T02500189
13942KMLU MLU20190927190510309/27/19 19:05:31  5-MIN KMLU 280105Z 00000KT 10SM CLR 26/19 A2987 130 66 1400 000/00 RMK AO2 T02560189
13942KMLU MLU20190927191010309/27/19 19:10:31  5-MIN KMLU 280110Z 14003KT 10SM CLR 25/19 A2988 120 68 1300 140/03 RMK AO2 T02500189
13942KMLU MLU20190927191510309/27/19 19:15:31  5-MIN KMLU 280115Z 14003KT 10SM CLR 26/18 A2988 120 64 1400 140/03 RMK AO2 T02560183
13942KMLU MLU20190927192010309/27/19 19:20:31  5-MIN KMLU 280120Z 14003KT 10SM CLR 25/19 A2988 120 68 1300 140/03 RMK AO2 T02500189
13942KMLU MLU20190927192510309/27/19 19:25:31  5-MIN KMLU 280125Z 15003KT 10SM CLR 25/19 A2988 120 68 1300 140/03 RMK AO2 T02500189
13942KMLU MLU20190927193010309/27/19 19:30:31  5-MIN KMLU 280130Z 15003KT 10SM CLR 24/19 A2988 120 71 1300 150/03 RMK AO2 T02440189
13942KMLU MLU20190927193510309/27/19 19:35:31  5-MIN KMLU 280135Z 16003KT 10SM CLR 24/19 A2989 110 71 1300 160/03 RMK AO2 T02440189
13942KMLU MLU20190927194010309/27/19 19:40:31  5-MIN KMLU 280140Z 15003KT 10SM CLR 24/19 A2989 110 71 1300 150/03 RMK AO2 T02440189
13942KMLU MLU20190927194510609/27/19 19:45:31  5-MIN KMLU 280145Z 16003KT 10SM FEW060 24/19 A2989 110 71 1300 160/03 RMK AO2 T02440189
13942KMLU MLU20190927195011309/27/19 19:50:31  5-MIN KMLU 280150Z 15003KT 10SM SCT060 24/19 A2989 110 71 1300 150/03 RMK AO2 SLP120 T02440189
13942KMLU MLU20190927195510609/27/19 19:55:31  5-MIN KMLU 280155Z 15003KT 10SM SCT060 24/19 A2989 110 71 1300 150/03 RMK AO2 T02440189
13942KMLU MLU20190927200010609/27/19 20:00:31  5-MIN KMLU 280200Z 16003KT 10SM BKN060 25/19 A2989 110 68 1300 160/03 RMK AO2 T02500189
13942KMLU MLU20190927200510609/27/19 20:05:31  5-MIN KMLU 280205Z 15003KT 10SM BKN060 25/19 A2989 110 68 1300 150/03 RMK AO2 T02500189
13942KMLU MLU20190927201010609/27/19 20:10:31  5-MIN KMLU 280210Z 00000KT 10SM BKN060 25/19 A2990 100 68 1300 000/00 RMK AO2 T02500189
13942KMLU MLU20190927201510609/27/19 20:15:31  5-MIN KMLU 280215Z 15003KT 10SM SCT060 25/19 A2990 100 68 1300 140/03 RMK AO2 T02500189
13942KMLU MLU20190927202010609/27/19 20:20:31  5-MIN KMLU 280220Z 16003KT 10SM SCT060 25/19 A2990 100 68 1300 160/03 RMK AO2 T02500189
13942KMLU MLU20190927202510609/27/19 20:25:31  5-MIN KMLU 280225Z 16003KT 10SM FEW060 26/19 A2990 100 66 1400 160/03 RMK AO2 T02560189
13942KMLU MLU20190927203010609/27/19 20:30:31  5-MIN KMLU 280230Z 16003KT 10SM FEW060 26/19 A2990 100 66 1400 160/03 RMK AO2 T02560189
13942KMLU MLU20190927203510609/27/19 20:35:31  5-MIN KMLU 280235Z 15003KT 10SM FEW060 26/19 A2990 100 64 1400 150/03 RMK AO2 T02610189
13942KMLU MLU20190927204010609/27/19 20:40:31  5-MIN KMLU 280240Z 16003KT 10SM FEW055 26/19 A2990 100 66 1400 150/03 RMK AO2 T02560189
13942KMLU MLU20190927204510309/27/19 20:45:31  5-MIN KMLU 280245Z 16003KT 10SM CLR 26/19 A2990 100 66 1400 160/03 RMK AO2 T02560189
13942KMLU MLU20190927205011609/27/19 20:50:31  5-MIN KMLU 280250Z 15004KT 10SM CLR 26/19 A2991 100 66 1400 150/04 RMK AO2 SLP125 T02560189 53001
13942KMLU MLU20190927205510209/27/19 20:55:31  5-MIN KMLU 280255Z 15004KT 10SM CLR 25/19 A2991 90 71 1300 150/04 RMK AO2 T02500194
13942KMLU MLU20190927210010709/27/19 21:00:31  5-MIN KMLU 280300Z AUTO 16005KT 10SM CLR 26/19 A2991 90 66 1400 160/05 RMK AO2 T02560189
13942KMLU MLU20190927210510709/27/19 21:05:31  5-MIN KMLU 280305Z AUTO 16005KT 10SM CLR 26/19 A2991 90 68 1400 160/05 RMK AO2 T02560194
13942KMLU MLU20190927211010709/27/19 21:10:31  5-MIN KMLU 280310Z AUTO 17005KT 10SM CLR 26/19 A2991 90 68 1400 160/05 RMK AO2 T02560194
13942KMLU MLU20190927211510709/27/19 21:15:31  5-MIN KMLU 280315Z AUTO 16005KT 10SM CLR 26/19 A2991 90 68 1400 160/05 RMK AO2 T02560194
13942KMLU MLU20190927212010709/27/19 21:20:31  5-MIN KMLU 280320Z AUTO 16005KT 10SM CLR 26/19 A2991 90 68 1400 160/05 RMK AO2 T02560194
13942KMLU MLU20190927212510709/27/19 21:25:31  5-MIN KMLU 280325Z AUTO 16005KT 10SM CLR 26/19 A2991 90 68 1400 160/05 RMK AO2 T02560194
13942KMLU MLU20190927213010709/27/19 21:30:31  5-MIN KMLU 280330Z AUTO 17006KT 10SM CLR 26/19 A2991 90 68 1400 170/06 RMK AO2 T02560194
13942KMLU MLU20190927213510709/27/19 21:35:31  5-MIN KMLU 280335Z AUTO 17005KT 10SM CLR 26/19 A2991 90 68 1400 170/05 RMK AO2 T02560194
13942KMLU MLU20190927214010709/27/19 21:40:31  5-MIN KMLU 280340Z AUTO 17005KT 10SM CLR 26/19 A2991 90 68 1400 160/05 RMK AO2 T02560194
13942KMLU MLU20190927214510709/27/19 21:45:31  5-MIN KMLU 280345Z AUTO 18006KT 10SM CLR 26/19 A2991 90 68 1400 170/06 RMK AO2 T02560194
13942KMLU MLU20190927215011409/27/19 21:50:31  5-MIN KMLU 280350Z AUTO 17006KT 10SM CLR 26/19 A2991 90 68 1400 170/06 RMK AO2 SLP126 T02560194
13942KMLU MLU20190927215510709/27/19 21:55:31  5-MIN KMLU 280355Z AUTO 18005KT 10SM CLR 26/19 A2991 90 68 1400 170/05 RMK AO2 T02560194
13942KMLU MLU20190927220010709/27/19 22:00:31  5-MIN KMLU 280400Z AUTO 18006KT 10SM CLR 25/19 A2991 90 71 1300 180/06 RMK AO2 T02500194
13942KMLU MLU20190927220510709/27/19 22:05:31  5-MIN KMLU 280405Z AUTO 18006KT 10SM CLR 25/19 A2991 90 71 1300 180/06 RMK AO2 T02500194
13942KMLU MLU20190927221010709/27/19 22:10:31  5-MIN KMLU 280410Z AUTO 18007KT 10SM CLR 26/19 A2991 90 68 1400 180/07 RMK AO2 T02560194
13942KMLU MLU20190927221510709/27/19 22:15:31  5-MIN KMLU 280415Z AUTO 18006KT 10SM CLR 26/19 A2991 90 68 1400 180/06 RMK AO2 T02560194
13942KMLU MLU20190927222010709/27/19 22:20:31  5-MIN KMLU 280420Z AUTO 18007KT 10SM CLR 26/20 A2991 90 71 1400 180/07 RMK AO2 T02560200
13942KMLU MLU20190927222510709/27/19 22:25:31  5-MIN KMLU 280425Z AUTO 18007KT 10SM CLR 26/20 A2991 90 71 1400 180/07 RMK AO2 T02560200
13942KMLU MLU20190927223010709/27/19 22:30:31  5-MIN KMLU 280430Z AUTO 18006KT 10SM CLR 26/20 A2991 90 71 1400 180/06 RMK AO2 T02560200
13942KMLU MLU20190927223510709/27/19 22:35:31  5-MIN KMLU 280435Z AUTO 18007KT 10SM CLR 26/20 A2991 90 71 1400 180/07 RMK AO2 T02560200
13942KMLU MLU20190927224010709/27/19 22:40:31  5-MIN KMLU 280440Z AUTO 19006KT 10SM CLR 26/20 A2991 90 71 1400 190/06 RMK AO2 T02560200
13942KMLU MLU20190927224510709/27/19 22:45:31  5-MIN KMLU 280445Z AUTO 19007KT 10SM CLR 25/20 A2991 90 73 1300 190/07 RMK AO2 T02500200
13942KMLU MLU20190927225011409/27/19 22:50:31  5-MIN KMLU 280450Z AUTO 18007KT 10SM CLR 26/20 A2991 90 71 1400 180/07 RMK AO2 SLP126 T02560200
13942KMLU MLU20190927225510709/27/19 22:55:31  5-MIN KMLU 280455Z AUTO 19007KT 10SM CLR 25/20 A2991 90 73 1300 190/07 RMK AO2 T02500200
13942KMLU MLU20190927230010709/27/19 23:00:31  5-MIN KMLU 280500Z AUTO 20008KT 10SM CLR 25/20 A2991 90 73 1300 190/08 RMK AO2 T02500200
13942KMLU MLU20190927230510709/27/19 23:05:31  5-MIN KMLU 280505Z AUTO 19007KT 10SM CLR 25/20 A2991 90 73 1300 190/07 RMK AO2 T02500200
13942KMLU MLU20190927231010709/27/19 23:10:31  5-MIN KMLU 280510Z AUTO 19008KT 10SM CLR 25/20 A2991 90 73 1300 190/08 RMK AO2 T02500200
13942KMLU MLU20190927231510709/27/19 23:15:31  5-MIN KMLU 280515Z AUTO 19006KT 10SM CLR 25/20 A2991 90 73 1300 190/06 RMK AO2 T02500200
13942KMLU MLU20190927232010709/27/19 23:20:31  5-MIN KMLU 280520Z AUTO 19006KT 10SM CLR 25/20 A2991 90 73 1300 190/06 RMK AO2 T02500200
13942KMLU MLU20190927232510709/27/19 23:25:31  5-MIN KMLU 280525Z AUTO 20007KT 10SM CLR 25/20 A2991 90 73 1300 200/07 RMK AO2 T02500200
13942KMLU MLU20190927233010709/27/19 23:30:31  5-MIN KMLU 280530Z AUTO 20008KT 10SM CLR 24/20 A2991 90 76 1300 190/08 RMK AO2 T02440200
13942KMLU MLU20190927233510709/27/19 23:35:31  5-MIN KMLU 280535Z AUTO 19006KT 10SM CLR 25/21 A2991 90 76 1300 190/06 RMK AO2 T02500206
13942KMLU MLU20190927234010709/27/19 23:40:31  5-MIN KMLU 280540Z AUTO 20005KT 10SM CLR 24/21 A2991 90 78 1200 200/05 RMK AO2 T02440206
13942KMLU MLU20190927234510709/27/19 23:45:31  5-MIN KMLU 280545Z AUTO 20007KT 10SM CLR 24/21 A2991 90 78 1200 200/07 RMK AO2 T02440206
13942KMLU MLU20190927235014209/27/19 23:50:31  5-MIN KMLU 280550Z AUTO 20006KT 10SM CLR 24/21 A2991 90 78 1200 200/06 RMK AO2 SLP127 T02440206 10289 20244 403390183 53016
13942KMLU MLU20190927235510709/27/19 23:55:31  5-MIN KMLU 280555Z AUTO 19005KT 10SM CLR 24/21 A2991 90 78 1200 190/05 RMK AO2 T02440206
13942KMLU MLU20190928000010709/28/19 00:00:31  5-MIN KMLU 280600Z AUTO 19005KT 10SM CLR 24/21 A2991 90 81 1200 190/05 RMK AO2 T02390206
13942KMLU MLU20190928000510709/28/19 00:05:31  5-MIN KMLU 280605Z AUTO 19005KT 10SM CLR 24/21 A2992 90 78 1200 190/05 RMK AO2 T02440206
13942KMLU MLU20190928001010709/28/19 00:10:31  5-MIN KMLU 280610Z AUTO 19005KT 10SM CLR 24/21 A2992 80 78 1200 190/05 RMK AO2 T02440206
13942KMLU MLU20190928001510709/28/19 00:15:31  5-MIN KMLU 280615Z AUTO 19004KT 10SM CLR 24/21 A2992 80 81 1200 180/04 RMK AO2 T02390206
13942KMLU MLU20190928002010709/28/19 00:20:31  5-MIN KMLU 280620Z AUTO 19005KT 10SM CLR 24/21 A2992 80 81 1200 180/05 RMK AO2 T02390206
13942KMLU MLU20190928002510709/28/19 00:25:31  5-MIN KMLU 280625Z AUTO 18005KT 10SM CLR 24/21 A2992 80 78 1200 180/05 RMK AO2 T02440206
13942KMLU MLU20190928003010709/28/19 00:30:31  5-MIN KMLU 280630Z AUTO 18005KT 10SM CLR 24/21 A2992 80 78 1200 170/05 RMK AO2 T02440206
13942KMLU MLU20190928003510709/28/19 00:35:31  5-MIN KMLU 280635Z AUTO 17005KT 10SM CLR 24/21 A2992 80 78 1200 170/05 RMK AO2 T02440206
13942KMLU MLU20190928004010709/28/19 00:40:31  5-MIN KMLU 280640Z AUTO 16004KT 10SM CLR 24/21 A2992 80 81 1200 160/04 RMK AO2 T02390206
13942KMLU MLU20190928004510709/28/19 00:45:31  5-MIN KMLU 280645Z AUTO 17004KT 10SM CLR 24/21 A2992 80 81 1200 170/04 RMK AO2 T02390206
13942KMLU MLU20190928005011409/28/19 00:50:31  5-MIN KMLU 280650Z AUTO 17003KT 10SM CLR 24/21 A2992 80 81 1200 170/03 RMK AO2 SLP131 T02390206
13942KMLU MLU20190928005510709/28/19 00:55:31  5-MIN KMLU 280655Z AUTO 16004KT 10SM CLR 23/21 A2992 80 84 1100 160/04 RMK AO2 T02330206
13942KMLU MLU20190928010010709/28/19 01:00:31  5-MIN KMLU 280700Z AUTO 16003KT 10SM CLR 23/21 A2993 80 84 1100 160/03 RMK AO2 T02330206
13942KMLU MLU20190928010510709/28/19 01:05:31  5-MIN KMLU 280705Z AUTO 17004KT 10SM CLR 23/21 A2993 80 84 1100 170/04 RMK AO2 T02330206
13942KMLU MLU20190928011010709/28/19 01:10:31  5-MIN KMLU 280710Z AUTO 17003KT 10SM CLR 23/21 A2993 80 84 1100 170/03 RMK AO2 T02330206
13942KMLU MLU20190928011510709/28/19 01:15:31  5-MIN KMLU 280715Z AUTO 17003KT 10SM CLR 23/21 A2993 70 84 1100 170/03 RMK AO2 T02330206
13942KMLU MLU20190928012010709/28/19 01:20:31  5-MIN KMLU 280720Z AUTO 17003KT 10SM CLR 23/21 A2993 70 84 1100 160/03 RMK AO2 T02330206
13942KMLU MLU20190928012510709/28/19 01:25:31  5-MIN KMLU 280725Z AUTO 17003KT 10SM CLR 23/21 A2993 70 87 1000 170/03 RMK AO2 T02280206
13942KMLU MLU20190928013010709/28/19 01:30:31  5-MIN KMLU 280730Z AUTO 18004KT 10SM CLR 23/21 A2993 70 84 1100 170/04 RMK AO2 T02330206
13942KMLU MLU20190928013510709/28/19 01:35:31  5-MIN KMLU 280735Z AUTO 18004KT 10SM CLR 23/21 A2993 70 84 1100 180/04 RMK AO2 T02330206
13942KMLU MLU20190928014010709/28/19 01:40:31  5-MIN KMLU 280740Z AUTO 18004KT 10SM CLR 23/21 A2993 70 84 1100 180/04 RMK AO2 T02330206
13942KMLU MLU20190928014510709/28/19 01:45:31  5-MIN KMLU 280745Z AUTO 18004KT 10SM CLR 23/21 A2994 70 87 1100 170/04 RMK AO2 T02330211
13942KMLU MLU20190928015011409/28/19 01:50:31  5-MIN KMLU 280750Z AUTO 18004KT 10SM CLR 23/21 A2994 70 87 1100 180/04 RMK AO2 SLP135 T02330211
13942KMLU MLU20190928015510709/28/19 01:55:31  5-MIN KMLU 280755Z AUTO 18004KT 10SM CLR 23/21 A2993 70 87 1100 180/04 RMK AO2 T02330211
13942KMLU MLU20190928020010709/28/19 02:00:31  5-MIN KMLU 280800Z AUTO 19006KT 10SM CLR 23/21 A2993 70 87 1100 180/06 RMK AO2 T02330211
13942KMLU MLU20190928020510709/28/19 02:05:31  5-MIN KMLU 280805Z AUTO 18005KT 10SM CLR 23/21 A2993 70 87 1100 180/05 RMK AO2 T02330211
13942KMLU MLU20190928021010709/28/19 02:10:31  5-MIN KMLU 280810Z AUTO 18005KT 10SM CLR 23/21 A2993 70 87 1100 180/05 RMK AO2 T02330211
13942KMLU MLU20190928021510709/28/19 02:15:31  5-MIN KMLU 280815Z AUTO 18005KT 10SM CLR 24/22 A2993 70 87 1200 180/05 RMK AO2 T02390217
13942KMLU MLU20190928022010709/28/19 02:20:31  5-MIN KMLU 280820Z AUTO 17004KT 10SM CLR 24/22 A2994 70 87 1200 170/04 RMK AO2 T02390217
13942KMLU MLU20190928022510709/28/19 02:25:31  5-MIN KMLU 280825Z AUTO 17004KT 10SM CLR 24/22 A2993 70 87 1200 170/04 RMK AO2 T02390217
13942KMLU MLU20190928023010709/28/19 02:30:31  5-MIN KMLU 280830Z AUTO 00000KT 10SM CLR 23/21 A2993 70 87 1100 000/00 RMK AO2 T02330211
13942KMLU MLU20190928023510709/28/19 02:35:31  5-MIN KMLU 280835Z AUTO 00000KT 10SM CLR 23/21 A2993 70 87 1100 000/00 RMK AO2 T02330211
13942KMLU MLU20190928024010709/28/19 02:40:31  5-MIN KMLU 280840Z AUTO 00000KT 10SM CLR 23/21 A2993 70 90 1000 000/00 RMK AO2 T02280211
13942KMLU MLU20190928024510709/28/19 02:45:31  5-MIN KMLU 280845Z AUTO 16003KT 10SM CLR 23/21 A2994 70 90 1000 160/03 RMK AO2 T02280211
13942KMLU MLU20190928025012009/28/19 02:50:31  5-MIN KMLU 280850Z AUTO 00000KT 10SM CLR 23/21 A2994 70 87 1100 000/00 RMK AO2 SLP136 T02330211 53003
13942KMLU MLU20190928025510709/28/19 02:55:31  5-MIN KMLU 280855Z AUTO 17004KT 10SM CLR 23/21 A2994 60 87 1100 170/04 RMK AO2 T02330211
13942KMLU MLU20190928030010709/28/19 03:00:31  5-MIN KMLU 280900Z AUTO 17003KT 10SM CLR 23/22 A2994 60 90 1100 170/03 RMK AO2 T02330217
13942KMLU MLU20190928030510709/28/19 03:05:31  5-MIN KMLU 280905Z AUTO 16003KT 10SM CLR 23/22 A2994 60 90 1100 160/03 RMK AO2 T02330217
13942KMLU MLU20190928031010709/28/19 03:10:31  5-MIN KMLU 280910Z AUTO 15003KT 10SM CLR 23/22 A2994 60 90 1100 150/03 RMK AO2 T02330217
13942KMLU MLU20190928031510709/28/19 03:15:31  5-MIN KMLU 280915Z AUTO 14003KT 10SM CLR 23/22 A2994 60 93 1000 140/03 RMK AO2 T02280217
13942KMLU MLU20190928032010709/28/19 03:20:31  5-MIN KMLU 280920Z AUTO 16003KT 10SM CLR 23/22 A2994 60 90 1100 160/03 RMK AO2 T02330217
13942KMLU MLU20190928032510709/28/19 03:25:31  5-MIN KMLU 280925Z AUTO VRB03KT 10SM CLR 23/22 A2995 60 90 1100 VRB/03 RMK AO2 T02330217
13942KMLU MLU20190928033010709/28/19 03:30:31  5-MIN KMLU 280930Z AUTO VRB03KT 10SM CLR 23/22 A2995 60 90 1100 VRB/03 RMK AO2 T02330217
13942KMLU MLU20190928033510709/28/19 03:35:31  5-MIN KMLU 280935Z AUTO 00000KT 10SM CLR 23/22 A2995 50 90 1100 000/00 RMK AO2 T02330217
13942KMLU MLU20190928034010709/28/19 03:40:31  5-MIN KMLU 280940Z AUTO 00000KT 10SM CLR 23/22 A2995 50 93 1000 000/00 RMK AO2 T02280217
13942KMLU MLU20190928034510709/28/19 03:45:31  5-MIN KMLU 280945Z AUTO 00000KT 10SM CLR 23/22 A2995 50 93 1000 000/00 RMK AO2 T02280217
13942KMLU MLU20190928035011409/28/19 03:50:31  5-MIN KMLU 280950Z AUTO 00000KT 10SM CLR 23/21 A2995 50 90 1000 000/00 RMK AO2 SLP141 T02280211
13942KMLU MLU20190928035510709/28/19 03:55:31  5-MIN KMLU 280955Z AUTO 00000KT 10SM CLR 23/21 A2996 50 90 1000 000/00 RMK AO2 T02280211
13942KMLU MLU20190928040010609/28/19 04:00:31  5-MIN KMLU 281000Z AUTO 00000KT 10SM CLR 22/21 A2996 40 93 900 000/00 RMK AO2 T02220211
13942KMLU MLU20190928040510609/28/19 04:05:31  5-MIN KMLU 281005Z AUTO 00000KT 10SM CLR 22/21 A2996 40 93 900 000/00 RMK AO2 T02220211
13942KMLU MLU20190928041010609/28/19 04:10:31  5-MIN KMLU 281010Z AUTO 00000KT 10SM CLR 22/21 A2996 40 93 900 000/00 RMK AO2 T02220211
13942KMLU MLU20190928041510609/28/19 04:15:31  5-MIN KMLU 281015Z AUTO 00000KT 10SM CLR 22/21 A2997 40 93 900 000/00 RMK AO2 T02220211
13942KMLU MLU20190928042010609/28/19 04:20:31  5-MIN KMLU 281020Z AUTO 00000KT 10SM CLR 22/21 A2997 40 93 900 000/00 RMK AO2 T02220211
13942KMLU MLU20190928042510609/28/19 04:25:31  5-MIN KMLU 281025Z AUTO 00000KT 10SM CLR 22/21 A2997 40 93 900 000/00 RMK AO2 T02220211
13942KMLU MLU20190928043010609/28/19 04:30:31  5-MIN KMLU 281030Z AUTO 00000KT 10SM CLR 22/21 A2997 40 93 900 000/00 RMK AO2 T02220211
13942KMLU MLU20190928043510609/28/19 04:35:31  5-MIN KMLU 281035Z AUTO 00000KT 10SM CLR 22/21 A2997 30 90 900 000/00 RMK AO2 T02220206
13942KMLU MLU20190928044010609/28/19 04:40:31  5-MIN KMLU 281040Z AUTO 00000KT 10SM CLR 22/21 A2997 30 93 900 000/00 RMK AO2 T02220211
13942KMLU MLU20190928044510609/28/19 04:45:31  5-MIN KMLU 281045Z AUTO 00000KT 10SM CLR 22/21 A2997 30 93 900 000/00 RMK AO2 T02220211
13942KMLU MLU20190928045010809/28/19 04:50:31  5-MIN KMLU 281050Z 00000KT 10SM CLR 22/21 A2998 30 90 900 000/00 RMK AO2 SLP149 T02220206
13942KMLU MLU20190928045510109/28/19 04:55:31  5-MIN KMLU 281055Z 00000KT 10SM CLR 22/21 A2998 30 90 900 000/00 RMK AO2 T02220206
13942KMLU MLU20190928050010109/28/19 05:00:31  5-MIN KMLU 281100Z 00000KT 10SM CLR 22/21 A2998 30 90 900 000/00 RMK AO2 T02220206
13942KMLU MLU20190928050510109/28/19 05:05:31  5-MIN KMLU 281105Z 00000KT 10SM CLR 22/21 A2998 30 93 900 000/00 RMK AO2 T02220211
13942KMLU MLU20190928051010109/28/19 05:10:31  5-MIN KMLU 281110Z 00000KT 10SM CLR 22/21 A2998 30 90 900 000/00 RMK AO2 T02220206
13942KMLU MLU20190928051510109/28/19 05:15:31  5-MIN KMLU 281115Z 00000KT 10SM CLR 22/21 A2998 20 90 900 000/00 RMK AO2 T02220206
13942KMLU MLU20190928052010109/28/19 05:20:31  5-MIN KMLU 281120Z VRB03KT 10SM CLR 22/21 A2998 20 93 900 VRB/03 RMK AO2 T02220211
13942KMLU MLU20190928052510109/28/19 05:25:31  5-MIN KMLU 281125Z 00000KT 10SM CLR 22/21 A2998 20 90 900 000/00 RMK AO2 T02220206
13942KMLU MLU20190928053010109/28/19 05:30:31  5-MIN KMLU 281130Z 00000KT 10SM CLR 22/21 A2999 20 90 900 000/00 RMK AO2 T02220206
13942KMLU MLU20190928053510109/28/19 05:35:31  5-MIN KMLU 281135Z 00000KT 10SM CLR 22/21 A2999 20 93 800 000/00 RMK AO2 T02170206
13942KMLU MLU20190928054010009/28/19 05:40:31  5-MIN KMLU 281140Z 00000KT 9SM CLR 22/21 A2999 20 93 800 000/00 RMK AO2 T02170206
13942KMLU MLU20190928054510009/28/19 05:45:31  5-MIN KMLU 281145Z 00000KT 9SM CLR 22/21 A2999 20 93 800 000/00 RMK AO2 T02170206
13942KMLU MLU20190928055012609/28/19 05:50:31  5-MIN KMLU 281150Z 00000KT 10SM CLR 22/21 A2999 10 93 800 000/00 RMK AO2 SLP154 T02170206 10244 20217 51008
13942KMLU MLU20190928055510109/28/19 05:55:31  5-MIN KMLU 281155Z 00000KT 10SM CLR 22/21 A2999 10 93 800 000/00 RMK AO2 T02170206
13942KMLU MLU20190928060010109/28/19 06:00:31  5-MIN KMLU 281200Z 00000KT 10SM CLR 22/21 A3000 10 93 800 000/00 RMK AO2 T02170206
13942KMLU MLU20190928060510009/28/19 06:05:31  5-MIN KMLU 281205Z 00000KT 9SM CLR 22/21 A3000 10 93 800 000/00 RMK AO2 T02170206
13942KMLU MLU20190928061010009/28/19 06:10:31  5-MIN KMLU 281210Z 00000KT 9SM CLR 22/21 A3000 10 93 800 000/00 RMK AO2 T02170206
13942KMLU MLU20190928061510009/28/19 06:15:31  5-MIN KMLU 281215Z 00000KT 8SM CLR 22/21 A3000 10 93 800 000/00 RMK AO2 T02170206
13942KMLU MLU20190928062009909/28/19 06:20:31  5-MIN KMLU 281220Z 00000KT 8SM CLR 21/21 A3000 0 97 800 000/00 RMK AO2 T02110206
13942KMLU MLU20190928062510209/28/19 06:25:31  5-MIN KMLU 281225Z 00000KT 6SM BR CLR 21/20 A3000 0 93 800 000/00 RMK AO2 T02110200
13942KMLU MLU20190928063010209/28/19 06:30:31  5-MIN KMLU 281230Z 00000KT 6SM BR CLR 22/21 A3001 0 93 800 000/00 RMK AO2 T02170206
13942KMLU MLU20190928063509909/28/19 06:35:31  5-MIN KMLU 281235Z 00000KT 8SM CLR 22/21 A3001 0 97 800 000/00 RMK AO2 T02170211
13942KMLU MLU20190928064009909/28/19 06:40:31  5-MIN KMLU 281240Z 00000KT 9SM CLR 22/21 A3001 0 93 900 000/00 RMK AO2 T02220211
13942KMLU MLU20190928064510009/28/19 06:45:31  5-MIN KMLU 281245Z VRB03KT 10SM CLR 22/21 A3001 0 93 900 VRB/03 RMK AO2 T02220211
13942KMLU MLU20190928065010709/28/19 06:50:31  5-MIN KMLU 281250Z 00000KT 10SM CLR 23/21 A3002 0 90 900 000/00 RMK AO2 SLP163 T02280211
13942KMLU MLU20190928065510209/28/19 06:55:31  5-MIN KMLU 281255Z 00000KT 10SM CLR 23/21 A3002 -10 90 900 000/00 RMK AO2 T02280211
13942KMLU MLU20190928070010309/28/19 07:00:31  5-MIN KMLU 281300Z 00000KT 10SM CLR 23/22 A3002 -10 90 1000 000/00 RMK AO2 T02330217
13942KMLU MLU20190928070510309/28/19 07:05:31  5-MIN KMLU 281305Z 00000KT 10SM CLR 23/22 A3003 -10 90 1000 000/00 RMK AO2 T02330217
13942KMLU MLU20190928071010309/28/19 07:10:31  5-MIN KMLU 281310Z 00000KT 10SM CLR 24/22 A3003 -20 87 1000 000/00 RMK AO2 T02390217
13942KMLU MLU20190928071510309/28/19 07:15:31  5-MIN KMLU 281315Z 00000KT 10SM CLR 24/22 A3003 -20 87 1000 000/00 RMK AO2 T02390217
13942KMLU MLU20190928072010309/28/19 07:20:31  5-MIN KMLU 281320Z 00000KT 10SM CLR 24/22 A3003 -20 84 1100 000/00 RMK AO2 T02440217
13942KMLU MLU20190928072510309/28/19 07:25:31  5-MIN KMLU 281325Z 00000KT 10SM CLR 24/22 A3003 -20 84 1100 000/00 RMK AO2 T02440217
13942KMLU MLU20190928073010309/28/19 07:30:31  5-MIN KMLU 281330Z VRB04KT 10SM CLR 24/22 A3003 -20 84 1100 VRB/04 RMK AO2 T02440217
13942KMLU MLU20190928073510309/28/19 07:35:31  5-MIN KMLU 281335Z 13005KT 10SM CLR 24/22 A3004 -20 87 1100 130/05 RMK AO2 T02440222
13942KMLU MLU20190928074010309/28/19 07:40:31  5-MIN KMLU 281340Z VRB04KT 10SM CLR 25/22 A3004 -20 84 1200 VRB/04 RMK AO2 T02500222
13942KMLU MLU20190928074510309/28/19 07:45:31  5-MIN KMLU 281345Z 18005KT 10SM CLR 25/22 A3004 -20 84 1200 180/05 RMK AO2 T02500222
13942KMLU MLU20190928075011009/28/19 07:50:31  5-MIN KMLU 281350Z 16005KT 10SM CLR 26/22 A3004 -20 81 1200 160/05 RMK AO2 SLP171 T02560222
13942KMLU MLU20190928075510309/28/19 07:55:31  5-MIN KMLU 281355Z 18005KT 10SM CLR 26/22 A3004 -30 81 1200 180/05 RMK AO2 T02560222
13942KMLU MLU20190928080010309/28/19 08:00:31  5-MIN KMLU 281400Z 16006KT 10SM CLR 26/22 A3004 -30 81 1200 160/06 RMK AO2 T02560222
13942KMLU MLU20190928080510309/28/19 08:05:31  5-MIN KMLU 281405Z 18007KT 10SM CLR 26/22 A3004 -30 79 1300 180/07 RMK AO2 T02610222
13942KMLU MLU20190928081010309/28/19 08:10:31  5-MIN KMLU 281410Z 15005KT 10SM CLR 27/23 A3004 -30 79 1300 150/05 RMK AO2 T02670228
13942KMLU MLU20190928081510309/28/19 08:15:31  5-MIN KMLU 281415Z VRB04KT 10SM CLR 27/23 A3004 -30 79 1300 VRB/04 RMK AO2 T02670228
13942KMLU MLU20190928082010309/28/19 08:20:31  5-MIN KMLU 281420Z VRB06KT 10SM CLR 27/23 A3005 -30 76 1400 VRB/06 RMK AO2 T02720228
13942KMLU MLU20190928082510309/28/19 08:25:31  5-MIN KMLU 281425Z 17007KT 10SM CLR 27/23 A3005 -30 76 1400 170/07 RMK AO2 T02720228
13942KMLU MLU20190928083010309/28/19 08:30:31  5-MIN KMLU 281430Z 15008KT 10SM CLR 27/23 A3005 -30 76 1400 150/08 RMK AO2 T02720228
13942KMLU MLU20190928083510309/28/19 08:35:31  5-MIN KMLU 281435Z VRB05KT 10SM CLR 28/23 A3005 -30 74 1500 VRB/05 RMK AO2 T02780228
13942KMLU MLU20190928084010309/28/19 08:40:31  5-MIN KMLU 281440Z 16006KT 10SM CLR 28/23 A3005 -30 74 1500 160/06 RMK AO2 T02780228
13942KMLU MLU20190928084510609/28/19 08:45:31  5-MIN KMLU 281445Z VRB06KT 10SM SCT017 28/23 A3005 -40 74 1500 VRB/06 RMK AO2 T02780228
13942KMLU MLU20190928085011909/28/19 08:50:31  5-MIN KMLU 281450Z 19007KT 10SM SCT017 28/23 A3005 -40 71 1500 190/07 RMK AO2 SLP175 T02830228 52019
13942KMLU MLU20190928085510309/28/19 08:55:31  5-MIN KMLU 281455Z VRB06KT 10SM CLR 29/23 A3005 -40 71 1600 VRB/06 RMK AO2 T02890233
13942KMLU MLU20190928090010609/28/19 09:00:31  5-MIN KMLU 281500Z VRB05KT 10SM BKN018 29/23 A3006 -40 69 1600 VRB/05 RMK AO2 T02890228
13942KMLU MLU20190928090510609/28/19 09:05:31  5-MIN KMLU 281505Z 18004KT 10SM BKN018 29/23 A3006 -40 71 1600 180/04 RMK AO2 T02890233
13942KMLU MLU20190928091010609/28/19 09:10:31  5-MIN KMLU 281510Z 21008KT 10SM BKN018 29/23 A3006 -40 71 1600 210/08 RMK AO2 T02890233
13942KMLU MLU20190928091510609/28/19 09:15:31  5-MIN KMLU 281515Z 17006KT 10SM BKN018 29/23 A3006 -40 71 1600 170/06 RMK AO2 T02890233
13942KMLU MLU20190928092010609/28/19 09:20:31  5-MIN KMLU 281520Z 19006KT 10SM BKN018 28/23 A3006 -40 71 1500 190/06 RMK AO2 T02830228
13942KMLU MLU20190928092510609/28/19 09:25:31  5-MIN KMLU 281525Z 19008KT 10SM BKN018 29/23 A3006 -40 69 1600 180/08 RMK AO2 T02890228
13942KMLU MLU20190928093011209/28/19 09:30:31  5-MIN KMLU 281530Z 19010G16KT 10SM BKN018 30/23 A3006 -40 65 1700 190/10G16 RMK AO2 T03000228
13942KMLU MLU20190928093510609/28/19 09:35:31  5-MIN KMLU 281535Z 20009KT 10SM BKN018 30/23 A3006 -40 65 1700 200/09 RMK AO2 T03000228
13942KMLU MLU20190928094010609/28/19 09:40:31  5-MIN KMLU 281540Z 20009KT 10SM BKN018 31/23 A3006 -40 62 1800 200/09 RMK AO2 T03060228
13942KMLU MLU20190928094510609/28/19 09:45:31  5-MIN KMLU 281545Z 19010KT 10SM BKN018 30/22 A3006 -40 62 1700 190/10 RMK AO2 T03000222
13942KMLU MLU20190928095011309/28/19 09:50:31  5-MIN KMLU 281550Z 20008KT 10SM BKN026 31/22 A3006 -40 60 1800 200/08 RMK AO2 SLP177 T03060222
13942KMLU MLU20190928095510609/28/19 09:55:31  5-MIN KMLU 281555Z 20010KT 10SM FEW026 31/22 A3006 -40 60 1800 200/10 RMK AO2 T03060222
13942KMLU MLU20190928100010309/28/19 10:00:31  5-MIN KMLU 281600Z 19008KT 10SM CLR 31/22 A3006 -40 58 1800 190/08 RMK AO2 T03110222
13942KMLU MLU20190928100510309/28/19 10:05:31  5-MIN KMLU 281605Z 19007KT 10SM CLR 31/22 A3006 -40 58 1800 190/07 RMK AO2 T03110222
13942KMLU MLU20190928101010309/28/19 10:10:31  5-MIN KMLU 281610Z 19007KT 10SM CLR 31/22 A3006 -40 58 1800 190/07 RMK AO2 T03110222
13942KMLU MLU20190928101510309/28/19 10:15:31  5-MIN KMLU 281615Z 18006KT 10SM CLR 31/22 A3006 -40 58 1800 180/06 RMK AO2 T03110222
13942KMLU MLU20190928102010309/28/19 10:20:31  5-MIN KMLU 281620Z 20005KT 10SM CLR 31/22 A3006 -40 58 1800 200/05 RMK AO2 T03110222
13942KMLU MLU20190928102510309/28/19 10:25:31  5-MIN KMLU 281625Z VRB06KT 10SM CLR 32/22 A3006 -40 56 1900 VRB/06 RMK AO2 T03170222
13942KMLU MLU20190928103010909/28/19 10:30:31  5-MIN KMLU 281630Z 20011G17KT 10SM CLR 32/22 A3006 -40 53 2000 200/11G17 RMK AO2 T03220217
13942KMLU MLU20190928103510909/28/19 10:35:31  5-MIN KMLU 281635Z 20010G17KT 10SM CLR 32/21 A3006 -40 51 2000 200/10G17 RMK AO2 T03220211
13942KMLU MLU20190928104011909/28/19 10:40:31  5-MIN KMLU 281640Z 19009KT 160V240 10SM CLR 32/22 A3006 -40 53 2000 190/09 160V240 RMK AO2 T03220217
13942KMLU MLU20190928104510609/28/19 10:45:31  5-MIN KMLU 281645Z 21007KT 10SM FEW041 32/21 A3005 -40 53 1900 210/07 RMK AO2 T03170211
13942KMLU MLU20190928105011309/28/19 10:50:31  5-MIN KMLU 281650Z 21010KT 10SM FEW043 32/22 A3005 -40 53 2000 210/10 RMK AO2 SLP175 T03220217
13942KMLU MLU20190928105512209/28/19 10:55:31  5-MIN KMLU 281655Z 21007KT 170V250 10SM SCT043 33/21 A3005 -40 49 2000 200/07 170V250 RMK AO2 T03280211
13942KMLU MLU20190928110010609/28/19 11:00:31  5-MIN KMLU 281700Z 16008KT 10SM FEW043 33/21 A3005 -30 48 2000 160/08 RMK AO2 T03280206
13942KMLU MLU20190928110510609/28/19 11:05:31  5-MIN KMLU 281705Z 14007KT 10SM FEW043 32/21 A3005 -30 49 2000 140/07 RMK AO2 T03220206
13942KMLU MLU20190928111010609/28/19 11:10:31  5-MIN KMLU 281710Z 19009KT 10SM FEW043 33/21 A3005 -30 48 2000 190/09 RMK AO2 T03280206
13942KMLU MLU20190928111511209/28/19 11:15:31  5-MIN KMLU 281715Z 18009G16KT 10SM FEW043 33/21 A3005 -30 48 2000 180/09G16 RMK AO2 T03280206
13942KMLU MLU20190928112011209/28/19 11:20:31  5-MIN KMLU 281720Z 20007G16KT 10SM FEW045 33/21 A3005 -30 48 2000 200/07G16 RMK AO2 T03280206
13942KMLU MLU20190928112510309/28/19 11:25:31  5-MIN KMLU 281725Z 18008KT 10SM CLR 33/21 A3004 -30 48 2000 180/08 RMK AO2 T03280206
13942KMLU MLU20190928113010309/28/19 11:30:31  5-MIN KMLU 281730Z 19006KT 10SM CLR 33/20 A3004 -20 46 2000 190/06 RMK AO2 T03280200
13942KMLU MLU20190928113510609/28/19 11:35:31  5-MIN KMLU 281735Z 16007KT 10SM FEW050 34/21 A3004 -20 45 2200 160/07 RMK AO2 T03390206
13942KMLU MLU20190928114010309/28/19 11:40:31  5-MIN KMLU 281740Z 20010KT 10SM CLR 33/20 A3004 -20 45 2100 200/10 RMK AO2 T03330200
13942KMLU MLU20190928114510309/28/19 11:45:31  5-MIN KMLU 281745Z VRB06KT 10SM CLR 33/20 A3003 -20 45 2100 VRB/06 RMK AO2 T03330200
13942KMLU MLU20190928115012809/28/19 11:50:31  5-MIN KMLU 281750Z VRB06KT 10SM CLR 33/21 A3003 -20 46 2100 VRB/06 RMK AO2 SLP168 T03330206 10339 20211 51020
13942KMLU MLU20190928115510309/28/19 11:55:31  5-MIN KMLU 281755Z 22006KT 10SM CLR 34/21 A3003 -10 45 2200 220/06 RMK AO2 T03390206
13942KMLU MLU20190928120010609/28/19 12:00:31  5-MIN KMLU 281800Z 16009KT 10SM BKN050 33/20 A3003 -10 45 2100 160/09 RMK AO2 T03330200
13942KMLU MLU20190928120510609/28/19 12:05:31  5-MIN KMLU 281805Z 16005KT 10SM BKN050 33/20 A3003 -10 45 2100 160/05 RMK AO2 T03330200
13942KMLU MLU20190928121010609/28/19 12:10:31  5-MIN KMLU 281810Z VRB05KT 10SM BKN050 33/21 A3002 -10 46 2100 VRB/05 RMK AO2 T03330206
13942KMLU MLU20190928121511209/28/19 12:15:31  5-MIN KMLU 281815Z 17009G14KT 10SM BKN050 34/20 A3002 -10 43 2200 170/09G14 RMK AO2 T03390200
13942KMLU MLU20190928122011009/28/19 12:20:31  5-MIN KMLU 281820Z VRB06G14KT 10SM BKN050 33/20 A3002 0 45 2100 VRB/06G14 RMK AO2 T03330200
13942KMLU MLU20190928122510409/28/19 12:25:31  5-MIN KMLU 281825Z 17005KT 10SM BKN050 34/21 A3002 0 45 2200 170/05 RMK AO2 T03390206
13942KMLU MLU20190928123010409/28/19 12:30:31  5-MIN KMLU 281830Z 16007KT 10SM BKN050 34/21 A3001 0 45 2200 160/07 RMK AO2 T03390206
13942KMLU MLU20190928123510409/28/19 12:35:31  5-MIN KMLU 281835Z 17009KT 10SM BKN050 34/21 A3001 0 45 2200 170/09 RMK AO2 T03390206
13942KMLU MLU20190928124010409/28/19 12:40:31  5-MIN KMLU 281840Z 17005KT 10SM BKN050 33/21 A3001 0 46 2100 170/05 RMK AO2 T03330206
13942KMLU MLU20190928124510409/28/19 12:45:31  5-MIN KMLU 281845Z VRB04KT 10SM BKN050 34/21 A3000 0 45 2200 VRB/04 RMK AO2 T03390206
13942KMLU MLU20190928125011209/28/19 12:50:31  5-MIN KMLU 281850Z 18007KT 10SM BKN050 34/21 A3000 10 45 2200 180/07 RMK AO2 SLP158 T03390206
13942KMLU MLU20190928125510509/28/19 12:55:31  5-MIN KMLU 281855Z 18007KT 10SM FEW060 33/19 A3000 10 43 2100 180/07 RMK AO2 T03330194
13942KMLU MLU20190928130010509/28/19 13:00:31  5-MIN KMLU 281900Z VRB04KT 10SM FEW060 33/19 A3000 10 44 2100 VRB/04 RMK AO2 T03280194
13942KMLU MLU20190928130512109/28/19 13:05:31  5-MIN KMLU 281905Z 14008KT 110V180 10SM SCT060 34/20 A3000 10 43 2200 140/08 110V180 RMK AO2 T03390200
13942KMLU MLU20190928131011109/28/19 13:10:31  5-MIN KMLU 281910Z 15011G15KT 10SM SCT060 34/20 A3000 10 43 2200 150/11G15 RMK AO2 T03390200
13942KMLU MLU20190928131511109/28/19 13:15:31  5-MIN KMLU 281915Z 11007G15KT 10SM SCT060 33/19 A3000 10 44 2100 110/07G15 RMK AO2 T03280194
13942KMLU MLU20190928132010509/28/19 13:20:31  5-MIN KMLU 281920Z VRB04KT 10SM SCT060 33/20 A2999 10 45 2100 VRB/04 RMK AO2 T03330200
13942KMLU MLU20190928132511209/28/19 13:25:31  5-MIN KMLU 281925Z VRB03KT 10SM BKN060 BKN070 33/20 A2999 20 45 2100 VRB/03 RMK AO2 T03330200
13942KMLU MLU20190928133012109/28/19 13:30:31  5-MIN KMLU 281930Z 13007KT 100V170 10SM BKN065 34/21 A2999 20 43 2300 130/07 100V170 RMK AO2 T03440206
13942KMLU MLU20190928133512109/28/19 13:35:31  5-MIN KMLU 281935Z 15008KT 120V180 10SM BKN065 34/19 A2999 20 42 2200 150/08 120V180 RMK AO2 T03390194
13942KMLU MLU20190928134010509/28/19 13:40:31  5-MIN KMLU 281940Z 14007KT 10SM BKN065 33/19 A2999 20 43 2100 140/07 RMK AO2 T03330194
13942KMLU MLU20190928134510509/28/19 13:45:31  5-MIN KMLU 281945Z VRB06KT 10SM BKN065 33/19 A2999 20 43 2200 VRB/06 RMK AO2 T03330194
13942KMLU MLU20190928135011209/28/19 13:50:31  5-MIN KMLU 281950Z 17008KT 10SM BKN065 34/20 A2999 20 42 2300 170/08 RMK AO2 SLP153 T03440200
13942KMLU MLU20190928135510509/28/19 13:55:31  5-MIN KMLU 281955Z VRB06KT 10SM SCT065 34/20 A2999 20 43 2200 VRB/06 RMK AO2 T03390200
13942KMLU MLU20190928140011109/28/19 14:00:31  5-MIN KMLU 282000Z 19009G15KT 10SM FEW060 35/20 A2999 20 40 2300 190/09G15 RMK AO2 T03500200
13942KMLU MLU20190928140510509/28/19 14:05:31  5-MIN KMLU 282005Z 19007KT 10SM FEW060 35/19 A2999 20 39 2300 190/07 RMK AO2 T03500194
13942KMLU MLU20190928141010509/28/19 14:10:31  5-MIN KMLU 282010Z 19010KT 10SM FEW060 35/19 A2998 20 39 2300 180/10 RMK AO2 T03500194
13942KMLU MLU20190928141510809/28/19 14:15:31  5-MIN KMLU 282015Z 20011G17KT 10SM CLR 35/20 A2998 20 40 2300 200/11G17 RMK AO2 T03500200
13942KMLU MLU20190928142012409/28/19 14:20:31  5-MIN KMLU 282020Z 16009G17KT 120V180 10SM CLR 34/19 A2998 30 40 2300 160/09G17 120V180 RMK AO2 T03440194
13942KMLU MLU20190928142510809/28/19 14:25:31  5-MIN KMLU 282025Z 17007G16KT 10SM CLR 34/19 A2998 30 40 2300 170/07G16 RMK AO2 T03440194
13942KMLU MLU20190928143010509/28/19 14:30:31  5-MIN KMLU 282030Z 16007KT 10SM FEW075 34/19 A2998 30 39 2300 160/07 RMK AO2 T03440189
13942KMLU MLU20190928143511109/28/19 14:35:31  5-MIN KMLU 282035Z 17009G14KT 10SM FEW075 34/19 A2998 30 39 2300 170/09G14 RMK AO2 T03440189
13942KMLU MLU20190928144010509/28/19 14:40:31  5-MIN KMLU 282040Z 17008KT 10SM FEW070 34/19 A2998 30 39 2300 160/08 RMK AO2 T03440189
13942KMLU MLU20190928144512109/28/19 14:45:31  5-MIN KMLU 282045Z 11007KT 070V150 10SM FEW080 34/19 A2998 30 40 2200 110/07 070V150 RMK AO2 T03390189
13942KMLU MLU20190928145012509/28/19 14:50:31  5-MIN KMLU 282050Z VRB05KT 10SM FEW065 SCT080 34/18 A2998 30 39 2200 VRB/05 RMK AO2 SLP149 T03390183 58007
13942KMLU MLU20190928145510509/28/19 14:55:31  5-MIN KMLU 282055Z 14005KT 10SM BKN070 34/19 A2997 30 40 2200 140/05 RMK AO2 T03390189
13942KMLU MLU20190928150011209/28/19 15:00:31  5-MIN KMLU 282100Z 17008KT 10SM BKN065 BKN080 34/19 A2998 30 40 2200 170/08 RMK AO2 T03390189
13942KMLU MLU20190928150511209/28/19 15:05:31  5-MIN KMLU 282105Z 17008KT 10SM SCT065 SCT080 33/19 A2998 30 42 2200 170/08 RMK AO2 T03330189
13942KMLU MLU20190928151011209/28/19 15:10:31  5-MIN KMLU 282110Z 17007KT 10SM SCT065 SCT080 33/19 A2998 30 43 2100 170/07 RMK AO2 T03280189
13942KMLU MLU20190928151511209/28/19 15:15:31  5-MIN KMLU 282115Z VRB04KT 10SM SCT065 BKN085 33/19 A2998 30 43 2100 VRB/04 RMK AO2 T03280189
13942KMLU MLU20190928152011209/28/19 15:20:31  5-MIN KMLU 282120Z 16008KT 10SM FEW070 BKN085 33/19 A2998 30 43 2100 160/08 RMK AO2 T03280189
13942KMLU MLU20190928152510509/28/19 15:25:31  5-MIN KMLU 282125Z VRB06KT 10SM BKN085 34/19 A2998 30 40 2200 VRB/06 RMK AO2 T03390189
13942KMLU MLU20190928153010509/28/19 15:30:31  5-MIN KMLU 282130Z 14008KT 10SM SCT085 34/19 A2997 30 39 2300 140/08 RMK AO2 T03440189
13942KMLU MLU20190928153511209/28/19 15:35:31  5-MIN KMLU 282135Z 17006KT 10SM FEW065 SCT085 34/19 A2997 40 39 2300 170/06 RMK AO2 T03440189
13942KMLU MLU20190928154011209/28/19 15:40:31  5-MIN KMLU 282140Z 19009KT 10SM FEW065 BKN085 34/19 A2997 40 42 2200 190/09 RMK AO2 T03390194
13942KMLU MLU20190928154511209/28/19 15:45:31  5-MIN KMLU 282145Z 19009KT 10SM SCT065 BKN085 34/19 A2997 40 40 2300 190/09 RMK AO2 T03440194
13942KMLU MLU20190928155011909/28/19 15:50:31  5-MIN KMLU 282150Z 15010KT 10SM SCT065 SCT085 34/19 A2997 40 39 2300 150/10 RMK AO2 SLP147 T03440189
13942KMLU MLU20190928155510509/28/19 15:55:31  5-MIN KMLU 282155Z 18010KT 10SM FEW065 34/19 A2997 30 39 2300 180/10 RMK AO2 T03440189
13942KMLU MLU20190928160010509/28/19 16:00:31  5-MIN KMLU 282200Z VRB06KT 10SM FEW065 34/19 A2997 30 40 2200 VRB/06 RMK AO2 T03390189
13942KMLU MLU20190928160510509/28/19 16:05:31  5-MIN KMLU 282205Z VRB06KT 10SM FEW065 34/19 A2997 30 40 2200 VRB/06 RMK AO2 T03390189
13942KMLU MLU20190928161010509/28/19 16:10:31  5-MIN KMLU 282210Z 17006KT 10SM FEW065 34/19 A2997 30 40 2200 170/06 RMK AO2 T03390189
13942KMLU MLU20190928161510809/28/19 16:15:31  5-MIN KMLU 282215Z 20011G14KT 10SM CLR 34/19 A2997 30 39 2300 200/11G14 RMK AO2 T03440189
13942KMLU MLU20190928162010809/28/19 16:20:31  5-MIN KMLU 282220Z 18006G14KT 10SM CLR 34/19 A2997 30 40 2200 170/06G14 RMK AO2 T03390189
13942KMLU MLU20190928162510209/28/19 16:25:31  5-MIN KMLU 282225Z 19008KT 10SM CLR 34/19 A2997 30 40 2200 190/08 RMK AO2 T03390189
13942KMLU MLU20190928163010209/28/19 16:30:31  5-MIN KMLU 282230Z 17008KT 10SM CLR 33/19 A2997 30 42 2200 170/08 RMK AO2 T03330189
13942KMLU MLU20190928163510209/28/19 16:35:31  5-MIN KMLU 282235Z 19007KT 10SM CLR 33/19 A2997 30 42 2200 190/07 RMK AO2 T03330189
13942KMLU MLU20190928164010209/28/19 16:40:31  5-MIN KMLU 282240Z 19007KT 10SM CLR 33/19 A2997 30 43 2200 190/07 RMK AO2 T03330194
13942KMLU MLU20190928164510209/28/19 16:45:31  5-MIN KMLU 282245Z 19007KT 10SM CLR 33/19 A2997 30 43 2200 190/07 RMK AO2 T03330194
13942KMLU MLU20190928165011209/28/19 16:50:31  5-MIN KMLU 282250Z 19006KT 10SM FEW065 33/19 A2997 30 43 2200 190/06 RMK AO2 SLP147 T03330194
13942KMLU MLU20190928165510509/28/19 16:55:31  5-MIN KMLU 282255Z 17008KT 10SM FEW065 33/19 A2997 30 42 2200 170/08 RMK AO2 T03330189
13942KMLU MLU20190928170010209/28/19 17:00:31  5-MIN KMLU 282300Z 17010KT 10SM CLR 33/18 A2997 30 40 2200 170/10 RMK AO2 T03330183
13942KMLU MLU20190928170510209/28/19 17:05:31  5-MIN KMLU 282305Z 16006KT 10SM CLR 33/18 A2997 30 39 2200 160/06 RMK AO2 T03330178
13942KMLU MLU20190928171010209/28/19 17:10:31  5-MIN KMLU 282310Z 17007KT 10SM CLR 33/18 A2998 30 40 2100 170/07 RMK AO2 T03280178
13942KMLU MLU20190928171510209/28/19 17:15:31  5-MIN KMLU 282315Z 17006KT 10SM CLR 33/17 A2998 30 39 2100 160/06 RMK AO2 T03280172
13942KMLU MLU20190928172010209/28/19 17:20:31  5-MIN KMLU 282320Z 16005KT 10SM CLR 33/17 A2998 30 39 2100 160/05 RMK AO2 T03280172
13942KMLU MLU20190928172510209/28/19 17:25:31  5-MIN KMLU 282325Z 17005KT 10SM CLR 32/17 A2998 30 40 2000 170/05 RMK AO2 T03220172
13942KMLU MLU20190928173010209/28/19 17:30:31  5-MIN KMLU 282330Z 17005KT 10SM CLR 32/17 A2998 20 40 2000 170/05 RMK AO2 T03220172
13942KMLU MLU20190928173510209/28/19 17:35:31  5-MIN KMLU 282335Z 16004KT 10SM CLR 32/18 A2998 20 41 2000 160/04 RMK AO2 T03220178
13942KMLU MLU20190928174010209/28/19 17:40:31  5-MIN KMLU 282340Z 17005KT 10SM CLR 32/18 A2998 20 43 2000 160/05 RMK AO2 T03170178
13942KMLU MLU20190928174510209/28/19 17:45:31  5-MIN KMLU 282345Z 17005KT 10SM CLR 32/18 A2998 20 43 2000 160/05 RMK AO2 T03170178
13942KMLU MLU20190928175012709/28/19 17:50:31  5-MIN KMLU 282350Z 17005KT 10SM CLR 32/18 A2998 20 43 2000 170/05 RMK AO2 SLP152 T03170178 10350 20317 56019
13942KMLU MLU20190928175510209/28/19 17:55:31  5-MIN KMLU 282355Z 16005KT 10SM CLR 31/18 A2999 20 44 1900 160/05 RMK AO2 T03110178
13942KMLU MLU20190928180010209/28/19 18:00:31  5-MIN KMLU 290000Z 17004KT 10SM CLR 31/18 A2999 20 44 1900 160/04 RMK AO2 T03110178
13942KMLU MLU20190928180510209/28/19 18:05:31  5-MIN KMLU 290005Z 00000KT 10SM CLR 31/18 A2999 20 46 1800 000/00 RMK AO2 T03060178
13942KMLU MLU20190928181010209/28/19 18:10:31  5-MIN KMLU 290010Z 15003KT 10SM CLR 29/18 A2999 20 50 1700 150/03 RMK AO2 T02940183
13942KMLU MLU20190928181510209/28/19 18:15:31  5-MIN KMLU 290015Z 15003KT 10SM CLR 29/18 A2999 20 50 1700 150/03 RMK AO2 T02940183
13942KMLU MLU20190928182010209/28/19 18:20:31  5-MIN KMLU 290020Z 15003KT 10SM CLR 29/19 A2999 20 54 1700 150/03 RMK AO2 T02890189
13942KMLU MLU20190928182510209/28/19 18:25:31  5-MIN KMLU 290025Z 16003KT 10SM CLR 29/19 A2999 20 54 1700 150/03 RMK AO2 T02890189
13942KMLU MLU20190928183010209/28/19 18:30:31  5-MIN KMLU 290030Z 15003KT 10SM CLR 28/19 A2999 20 56 1600 150/03 RMK AO2 T02830189
13942KMLU MLU20190928183510209/28/19 18:35:31  5-MIN KMLU 290035Z 15003KT 10SM CLR 28/19 A2999 20 58 1600 150/03 RMK AO2 T02830194
13942KMLU MLU20190928184010209/28/19 18:40:31  5-MIN KMLU 290040Z 17003KT 10SM CLR 28/19 A2999 20 60 1500 160/03 RMK AO2 T02780194
13942KMLU MLU20190928184510209/28/19 18:45:31  5-MIN KMLU 290045Z 16003KT 10SM CLR 28/19 A2999 20 58 1600 160/03 RMK AO2 T02830194
13942KMLU MLU20190928185010909/28/19 18:50:31  5-MIN KMLU 290050Z 16003KT 10SM CLR 27/20 A2999 20 66 1400 160/03 RMK AO2 SLP153 T02670200
13942KMLU MLU20190928185510209/28/19 18:55:31  5-MIN KMLU 290055Z 16004KT 10SM CLR 27/19 A2999 20 62 1500 160/04 RMK AO2 T02720194
13942KMLU MLU20190928190010209/28/19 19:00:31  5-MIN KMLU 290100Z 16003KT 10SM CLR 28/19 A2999 20 60 1500 160/03 RMK AO2 T02780194
13942KMLU MLU20190928190510209/28/19 19:05:31  5-MIN KMLU 290105Z 16004KT 10SM CLR 28/19 A2999 20 60 1500 160/04 RMK AO2 T02780194
13942KMLU MLU20190928191010209/28/19 19:10:31  5-MIN KMLU 290110Z 16004KT 10SM CLR 28/19 A2999 20 58 1500 160/04 RMK AO2 T02780189
13942KMLU MLU20190928191510209/28/19 19:15:31  5-MIN KMLU 290115Z 16003KT 10SM CLR 28/19 A2999 20 56 1600 160/03 RMK AO2 T02830189
13942KMLU MLU20190928192010209/28/19 19:20:31  5-MIN KMLU 290120Z 16004KT 10SM CLR 28/19 A2999 20 58 1500 160/04 RMK AO2 T02780189
13942KMLU MLU20190928192510209/28/19 19:25:31  5-MIN KMLU 290125Z 15003KT 10SM CLR 28/19 A2999 20 58 1500 150/03 RMK AO2 T02780189
13942KMLU MLU20190928193010209/28/19 19:30:31  5-MIN KMLU 290130Z 15004KT 10SM CLR 27/19 A2999 20 62 1500 150/04 RMK AO2 T02720194
13942KMLU MLU20190928193510209/28/19 19:35:31  5-MIN KMLU 290135Z 15003KT 10SM CLR 27/19 A2999 20 62 1500 150/03 RMK AO2 T02720194
13942KMLU MLU20190928194010209/28/19 19:40:31  5-MIN KMLU 290140Z 15003KT 10SM CLR 27/19 A2999 10 62 1500 150/03 RMK AO2 T02720194
13942KMLU MLU20190928194510209/28/19 19:45:31  5-MIN KMLU 290145Z 16003KT 10SM CLR 27/19 A2999 10 62 1500 160/03 RMK AO2 T02720194
13942KMLU MLU20190928195010909/28/19 19:50:31  5-MIN KMLU 290150Z 16004KT 10SM CLR 27/19 A3000 10 62 1500 160/04 RMK AO2 SLP155 T02720194
13942KMLU MLU20190928195510209/28/19 19:55:31  5-MIN KMLU 290155Z 16003KT 10SM CLR 27/19 A3000 10 62 1500 160/03 RMK AO2 T02720194
13942KMLU MLU20190928200010209/28/19 20:00:31  5-MIN KMLU 290200Z 00000KT 10SM CLR 27/19 A3000 10 64 1400 000/00 RMK AO2 T02670194
13942KMLU MLU20190928200510209/28/19 20:05:31  5-MIN KMLU 290205Z 13003KT 10SM CLR 27/19 A3000 10 64 1400 130/03 RMK AO2 T02670194
13942KMLU MLU20190928201010209/28/19 20:10:31  5-MIN KMLU 290210Z 14003KT 10SM CLR 26/19 A3000 10 66 1300 140/03 RMK AO2 T02610194
13942KMLU MLU20190928201510109/28/19 20:15:31  5-MIN KMLU 290215Z 14003KT 10SM CLR 26/20 A3000 0 68 1300 140/03 RMK AO2 T02610200
13942KMLU MLU20190928202010109/28/19 20:20:31  5-MIN KMLU 290220Z 14003KT 10SM CLR 26/20 A3000 0 71 1300 140/03 RMK AO2 T02560200
13942KMLU MLU20190928202510109/28/19 20:25:31  5-MIN KMLU 290225Z 15003KT 10SM CLR 26/20 A3000 0 71 1300 150/03 RMK AO2 T02560200
13942KMLU MLU20190928203010109/28/19 20:30:31  5-MIN KMLU 290230Z 16003KT 10SM CLR 26/20 A3000 0 71 1300 160/03 RMK AO2 T02560200
13942KMLU MLU20190928203510109/28/19 20:35:31  5-MIN KMLU 290235Z 15003KT 10SM CLR 26/20 A3001 0 71 1300 150/03 RMK AO2 T02560200
13942KMLU MLU20190928204010109/28/19 20:40:31  5-MIN KMLU 290240Z 14003KT 10SM CLR 26/20 A3001 0 71 1300 140/03 RMK AO2 T02560200
13942KMLU MLU20190928204510109/28/19 20:45:31  5-MIN KMLU 290245Z 00000KT 10SM CLR 26/20 A3001 0 71 1300 000/00 RMK AO2 T02560200
13942KMLU MLU20190928205011409/28/19 20:50:31  5-MIN KMLU 290250Z 14003KT 10SM CLR 25/20 A3001 0 73 1200 140/03 RMK AO2 SLP159 T02500200 53003
13942KMLU MLU20190928205510109/28/19 20:55:31  5-MIN KMLU 290255Z 15003KT 10SM CLR 25/21 A3001 0 76 1200 150/03 RMK AO2 T02500206
13942KMLU MLU20190928210010609/28/19 21:00:31  5-MIN KMLU 290300Z AUTO 15003KT 10SM CLR 26/20 A3001 0 71 1300 150/03 RMK AO2 T02560200
13942KMLU MLU20190928210510609/28/19 21:05:31  5-MIN KMLU 290305Z AUTO VRB03KT 10SM CLR 26/20 A3001 0 71 1300 VRB/03 RMK AO2 T02560200
13942KMLU MLU20190928211010609/28/19 21:10:31  5-MIN KMLU 290310Z AUTO 15003KT 10SM CLR 26/20 A3001 0 71 1300 150/03 RMK AO2 T02560200
13942KMLU MLU20190928211510609/28/19 21:15:31  5-MIN KMLU 290315Z AUTO 15004KT 10SM CLR 26/20 A3001 0 71 1300 150/04 RMK AO2 T02560200
13942KMLU MLU20190928212010609/28/19 21:20:31  5-MIN KMLU 290320Z AUTO 15003KT 10SM CLR 26/20 A3001 0 71 1300 150/03 RMK AO2 T02560200
13942KMLU MLU20190928212510609/28/19 21:25:31  5-MIN KMLU 290325Z AUTO 15004KT 10SM CLR 26/20 A3001 0 71 1300 150/04 RMK AO2 T02560200
13942KMLU MLU20190928213010609/28/19 21:30:31  5-MIN KMLU 290330Z AUTO 15004KT 10SM CLR 26/20 A3001 0 71 1300 150/04 RMK AO2 T02560200
13942KMLU MLU20190928213510609/28/19 21:35:31  5-MIN KMLU 290335Z AUTO 15003KT 10SM CLR 26/20 A3001 0 68 1300 150/03 RMK AO2 T02610200
13942KMLU MLU20190928214010609/28/19 21:40:31  5-MIN KMLU 290340Z AUTO 14003KT 10SM CLR 26/20 A3002 0 68 1300 140/03 RMK AO2 T02610200
13942KMLU MLU20190928214510609/28/19 21:45:31  5-MIN KMLU 290345Z AUTO 14003KT 10SM CLR 26/20 A3002 0 71 1300 140/03 RMK AO2 T02560200
13942KMLU MLU20190928215011309/28/19 21:50:31  5-MIN KMLU 290350Z AUTO VRB03KT 10SM CLR 25/20 A3002 0 73 1200 VRB/03 RMK AO2 SLP163 T02500200
13942KMLU MLU20190928215510809/28/19 21:55:31  5-MIN KMLU 290355Z AUTO 15003KT 10SM CLR 25/20 A3002 -10 73 1200 140/03 RMK AO2 T02500200
13942KMLU MLU20190928220010809/28/19 22:00:31  5-MIN KMLU 290400Z AUTO 15003KT 10SM CLR 24/20 A3002 -10 76 1100 150/03 RMK AO2 T02440200
13942KMLU MLU20190928220510809/28/19 22:05:31  5-MIN KMLU 290405Z AUTO 14003KT 10SM CLR 25/20 A3003 -10 73 1200 140/03 RMK AO2 T02500200
13942KMLU MLU20190928221010809/28/19 22:10:31  5-MIN KMLU 290410Z AUTO 15003KT 10SM CLR 25/20 A3003 -10 73 1200 150/03 RMK AO2 T02500200
13942KMLU MLU20190928221510809/28/19 22:15:31  5-MIN KMLU 290415Z AUTO 13003KT 10SM CLR 25/20 A3003 -10 73 1200 130/03 RMK AO2 T02500200
13942KMLU MLU20190928222010809/28/19 22:20:31  5-MIN KMLU 290420Z AUTO VRB03KT 10SM CLR 26/20 A3003 -20 71 1200 VRB/03 RMK AO2 T02560200
13942KMLU MLU20190928222510809/28/19 22:25:31  5-MIN KMLU 290425Z AUTO 13003KT 10SM CLR 26/20 A3003 -20 71 1200 130/03 RMK AO2 T02560200
13942KMLU MLU20190928223010809/28/19 22:30:31  5-MIN KMLU 290430Z AUTO VRB04KT 10SM CLR 25/20 A3004 -20 73 1200 VRB/04 RMK AO2 T02500200
13942KMLU MLU20190928223510809/28/19 22:35:31  5-MIN KMLU 290435Z AUTO 15004KT 10SM CLR 26/20 A3004 -20 71 1200 150/04 RMK AO2 T02560200
13942KMLU MLU20190928224010809/28/19 22:40:31  5-MIN KMLU 290440Z AUTO 16004KT 10SM CLR 26/20 A3004 -20 68 1300 160/04 RMK AO2 T02610200
13942KMLU MLU20190928224510809/28/19 22:45:31  5-MIN KMLU 290445Z AUTO 17005KT 10SM CLR 26/20 A3004 -20 68 1300 170/05 RMK AO2 T02610200
13942KMLU MLU20190928225011509/28/19 22:50:31  5-MIN KMLU 290450Z AUTO 17005KT 10SM CLR 26/20 A3004 -20 68 1300 170/05 RMK AO2 SLP170 T02610200
13942KMLU MLU20190928225510809/28/19 22:55:31  5-MIN KMLU 290455Z AUTO 16004KT 10SM CLR 26/20 A3004 -20 68 1300 160/04 RMK AO2 T02610200
13942KMLU MLU20190928230010809/28/19 23:00:31  5-MIN KMLU 290500Z AUTO 17005KT 10SM CLR 26/20 A3004 -20 71 1200 170/05 RMK AO2 T02560200
13942KMLU MLU20190928230510809/28/19 23:05:31  5-MIN KMLU 290505Z AUTO 16004KT 10SM CLR 26/20 A3004 -30 71 1200 160/04 RMK AO2 T02560200
13942KMLU MLU20190928231010809/28/19 23:10:31  5-MIN KMLU 290510Z AUTO 16003KT 10SM CLR 26/21 A3005 -30 71 1300 160/03 RMK AO2 T02610206
13942KMLU MLU20190928231510809/28/19 23:15:31  5-MIN KMLU 290515Z AUTO 17003KT 10SM CLR 26/21 A3005 -30 71 1300 170/03 RMK AO2 T02610206
13942KMLU MLU20190928232010809/28/19 23:20:31  5-MIN KMLU 290520Z AUTO 17004KT 10SM CLR 26/21 A3005 -40 71 1300 170/04 RMK AO2 T02610206
13942KMLU MLU20190928232510809/28/19 23:25:31  5-MIN KMLU 290525Z AUTO 16004KT 10SM CLR 26/21 A3005 -40 73 1200 160/04 RMK AO2 T02560206
13942KMLU MLU20190928233010809/28/19 23:30:31  5-MIN KMLU 290530Z AUTO 17004KT 10SM CLR 26/21 A3005 -40 73 1200 170/04 RMK AO2 T02560206
13942KMLU MLU20190928233510809/28/19 23:35:31  5-MIN KMLU 290535Z AUTO 17004KT 10SM CLR 26/21 A3006 -40 73 1200 160/04 RMK AO2 T02560206
13942KMLU MLU20190928234010809/28/19 23:40:31  5-MIN KMLU 290540Z AUTO 16003KT 10SM CLR 26/21 A3006 -40 73 1200 160/03 RMK AO2 T02560206
13942KMLU MLU20190928234510809/28/19 23:45:31  5-MIN KMLU 290545Z AUTO 17004KT 10SM CLR 26/21 A3006 -40 73 1200 170/04 RMK AO2 T02560206
13942KMLU MLU20190928235014309/28/19 23:50:31  5-MIN KMLU 290550Z AUTO 17004KT 10SM CLR 26/21 A3006 -40 73 1200 170/04 RMK AO2 SLP176 T02560206 10311 20244 403500211 53008
13942KMLU MLU20190928235510809/28/19 23:55:31  5-MIN KMLU 290555Z AUTO 16004KT 10SM CLR 26/21 A3006 -40 73 1200 160/04 RMK AO2 T02560206
13942KMLU MLU20190929000010809/29/19 00:00:31  5-MIN KMLU 290600Z AUTO 17004KT 10SM CLR 26/21 A3006 -40 73 1200 170/04 RMK AO2 T02560206
13942KMLU MLU20190929000510809/29/19 00:05:31  5-MIN KMLU 290605Z AUTO 17004KT 10SM CLR 26/21 A3006 -40 73 1200 170/04 RMK AO2 T02560206
13942KMLU MLU20190929001010809/29/19 00:10:31  5-MIN KMLU 290610Z AUTO 17004KT 10SM CLR 26/21 A3006 -40 73 1200 170/04 RMK AO2 T02560206
13942KMLU MLU20190929001510809/29/19 00:15:31  5-MIN KMLU 290615Z AUTO 17004KT 10SM CLR 26/21 A3006 -40 73 1200 170/04 RMK AO2 T02560206
13942KMLU MLU20190929002010809/29/19 00:20:31  5-MIN KMLU 290620Z AUTO 17005KT 10SM CLR 25/21 A3006 -40 76 1100 170/05 RMK AO2 T02500206
13942KMLU MLU20190929002510809/29/19 00:25:31  5-MIN KMLU 290625Z AUTO 17004KT 10SM CLR 25/21 A3006 -40 76 1100 170/04 RMK AO2 T02500206
13942KMLU MLU20190929003010809/29/19 00:30:31  5-MIN KMLU 290630Z AUTO 17005KT 10SM CLR 25/21 A3006 -40 76 1100 170/05 RMK AO2 T02500206
13942KMLU MLU20190929003510809/29/19 00:35:31  5-MIN KMLU 290635Z AUTO 17004KT 10SM CLR 25/21 A3006 -40 76 1100 170/04 RMK AO2 T02500206
13942KMLU MLU20190929004010809/29/19 00:40:31  5-MIN KMLU 290640Z AUTO 18004KT 10SM CLR 25/21 A3006 -50 76 1100 170/04 RMK AO2 T02500206
13942KMLU MLU20190929004510809/29/19 00:45:31  5-MIN KMLU 290645Z AUTO 17003KT 10SM CLR 24/21 A3006 -50 78 1100 170/03 RMK AO2 T02440206
13942KMLU MLU20190929005011509/29/19 00:50:31  5-MIN KMLU 290650Z AUTO 16003KT 10SM CLR 25/21 A3007 -50 76 1100 160/03 RMK AO2 SLP179 T02500206
13942KMLU MLU20190929005510809/29/19 00:55:31  5-MIN KMLU 290655Z AUTO 17003KT 10SM CLR 24/21 A3006 -50 78 1100 170/03 RMK AO2 T02440206
13942KMLU MLU20190929010010809/29/19 01:00:31  5-MIN KMLU 290700Z AUTO 16003KT 10SM CLR 24/21 A3007 -50 78 1100 160/03 RMK AO2 T02440206
13942KMLU MLU20190929010510809/29/19 01:05:31  5-MIN KMLU 290705Z AUTO 17003KT 10SM CLR 25/21 A3007 -50 76 1100 160/03 RMK AO2 T02500206
13942KMLU MLU20190929011010809/29/19 01:10:31  5-MIN KMLU 290710Z AUTO 00000KT 10SM CLR 24/21 A3007 -50 78 1100 000/00 RMK AO2 T02440206
13942KMLU MLU20190929011510809/29/19 01:15:31  5-MIN KMLU 290715Z AUTO 00000KT 10SM CLR 24/21 A3007 -50 81 1000 000/00 RMK AO2 T02390206
13942KMLU MLU20190929012010709/29/19 01:20:31  5-MIN KMLU 290720Z AUTO 00000KT 10SM CLR 23/21 A3006 -50 84 900 000/00 RMK AO2 T02330206
13942KMLU MLU20190929012510709/29/19 01:25:31  5-MIN KMLU 290725Z AUTO 00000KT 10SM CLR 23/21 A3007 -50 84 900 000/00 RMK AO2 T02330206
13942KMLU MLU20190929013010709/29/19 01:30:31  5-MIN KMLU 290730Z AUTO 00000KT 10SM CLR 23/21 A3007 -50 84 900 000/00 RMK AO2 T02330206
13942KMLU MLU20190929013510709/29/19 01:35:31  5-MIN KMLU 290735Z AUTO 00000KT 10SM CLR 23/21 A3007 -50 84 900 000/00 RMK AO2 T02330206
13942KMLU MLU20190929014010709/29/19 01:40:31  5-MIN KMLU 290740Z AUTO 00000KT 10SM CLR 23/21 A3007 -50 84 900 000/00 RMK AO2 T02330206
13942KMLU MLU20190929014510709/29/19 01:45:31  5-MIN KMLU 290745Z AUTO 00000KT 10SM CLR 23/21 A3007 -50 87 900 000/00 RMK AO2 T02330211
13942KMLU MLU20190929015011409/29/19 01:50:31  5-MIN KMLU 290750Z AUTO 13004KT 10SM CLR 23/21 A3007 -50 87 900 130/04 RMK AO2 SLP180 T02280206
13942KMLU MLU20190929015510709/29/19 01:55:31  5-MIN KMLU 290755Z AUTO 00000KT 10SM CLR 23/21 A3007 -50 87 900 000/00 RMK AO2 T02330211
13942KMLU MLU20190929020010809/29/19 02:00:31  5-MIN KMLU 290800Z AUTO 00000KT 10SM CLR 24/21 A3007 -50 84 1000 000/00 RMK AO2 T02390211
13942KMLU MLU20190929020510809/29/19 02:05:31  5-MIN KMLU 290805Z AUTO 16003KT 10SM CLR 24/21 A3007 -60 84 1000 160/03 RMK AO2 T02390211
13942KMLU MLU20190929021010809/29/19 02:10:31  5-MIN KMLU 290810Z AUTO 17003KT 10SM CLR 24/21 A3007 -60 84 1000 170/03 RMK AO2 T02390211
13942KMLU MLU20190929021510709/29/19 02:15:31  5-MIN KMLU 290815Z AUTO 00000KT 10SM CLR 23/21 A3007 -50 87 900 000/00 RMK AO2 T02330211
13942KMLU MLU20190929022010709/29/19 02:20:31  5-MIN KMLU 290820Z AUTO 00000KT 10SM CLR 23/21 A3007 -50 84 900 000/00 RMK AO2 T02330206
13942KMLU MLU20190929022510709/29/19 02:25:31  5-MIN KMLU 290825Z AUTO 00000KT 10SM CLR 23/21 A3007 -50 87 900 000/00 RMK AO2 T02280206
13942KMLU MLU20190929023010709/29/19 02:30:31  5-MIN KMLU 290830Z AUTO 00000KT 10SM CLR 22/21 A3007 -50 90 800 000/00 RMK AO2 T02220206
13942KMLU MLU20190929023510709/29/19 02:35:31  5-MIN KMLU 290835Z AUTO 00000KT 10SM CLR 23/21 A3007 -50 87 900 000/00 RMK AO2 T02280206
13942KMLU MLU20190929024010709/29/19 02:40:31  5-MIN KMLU 290840Z AUTO 00000KT 10SM CLR 22/21 A3007 -50 90 800 000/00 RMK AO2 T02220206
13942KMLU MLU20190929024510709/29/19 02:45:31  5-MIN KMLU 290845Z AUTO 00000KT 10SM CLR 23/21 A3007 -50 90 900 000/00 RMK AO2 T02280211
13942KMLU MLU20190929025012009/29/19 02:50:31  5-MIN KMLU 290850Z AUTO 00000KT 10SM CLR 23/21 A3008 -60 90 900 000/00 RMK AO2 SLP183 T02280211 53016
13942KMLU MLU20190929025510709/29/19 02:55:31  5-MIN KMLU 290855Z AUTO 13003KT 10SM CLR 22/21 A3008 -60 90 800 130/03 RMK AO2 T02220206
13942KMLU MLU20190929030010709/29/19 03:00:31  5-MIN KMLU 290900Z AUTO 00000KT 10SM CLR 22/21 A3008 -60 90 800 000/00 RMK AO2 T02220206
13942KMLU MLU20190929030510709/29/19 03:05:31  5-MIN KMLU 290905Z AUTO 00000KT 10SM CLR 22/21 A3008 -60 90 800 000/00 RMK AO2 T02220206
13942KMLU MLU20190929031010709/29/19 03:10:31  5-MIN KMLU 290910Z AUTO 00000KT 10SM CLR 22/21 A3008 -60 93 700 000/00 RMK AO2 T02170206
13942KMLU MLU20190929031510609/29/19 03:15:31  5-MIN KMLU 290915Z AUTO 00000KT 9SM CLR 22/21 A3008 -60 93 700 000/00 RMK AO2 T02170206
13942KMLU MLU20190929032010609/29/19 03:20:31  5-MIN KMLU 290920Z AUTO 00000KT 9SM CLR 22/21 A3008 -60 93 700 000/00 RMK AO2 T02170206
13942KMLU MLU20190929032510609/29/19 03:25:31  5-MIN KMLU 290925Z AUTO 00000KT 9SM CLR 22/21 A3008 -60 93 700 000/00 RMK AO2 T02170206
13942KMLU MLU20190929033010609/29/19 03:30:31  5-MIN KMLU 290930Z AUTO 00000KT 7SM CLR 22/21 A3008 -60 93 700 000/00 RMK AO2 T02170206
13942KMLU MLU20190929033510609/29/19 03:35:31  5-MIN KMLU 290935Z AUTO 00000KT 7SM CLR 21/20 A3008 -60 93 700 000/00 RMK AO2 T02110200
13942KMLU MLU20190929034010609/29/19 03:40:31  5-MIN KMLU 290940Z AUTO 00000KT 7SM CLR 21/20 A3009 -70 97 600 000/00 RMK AO2 T02060200
13942KMLU MLU20190929034510609/29/19 03:45:31  5-MIN KMLU 290945Z AUTO 00000KT 7SM CLR 21/20 A3009 -70 93 700 000/00 RMK AO2 T02110200
13942KMLU MLU20190929035011309/29/19 03:50:31  5-MIN KMLU 290950Z AUTO 00000KT 8SM CLR 21/20 A3009 -70 93 700 000/00 RMK AO2 SLP186 T02110200
13942KMLU MLU20190929035510609/29/19 03:55:31  5-MIN KMLU 290955Z AUTO 00000KT 8SM CLR 21/20 A3008 -70 97 600 000/00 RMK AO2 T02060200
13942KMLU MLU20190929040010609/29/19 04:00:31  5-MIN KMLU 291000Z AUTO 13003KT 8SM CLR 21/20 A3008 -60 97 600 130/03 RMK AO2 T02060200
13942KMLU MLU20190929040510609/29/19 04:05:31  5-MIN KMLU 291005Z AUTO 13003KT 8SM CLR 21/20 A3008 -60 93 700 120/03 RMK AO2 T02110200
13942KMLU MLU20190929041010609/29/19 04:10:31  5-MIN KMLU 291010Z AUTO 00000KT 8SM CLR 21/20 A3008 -60 93 700 000/00 RMK AO2 T02110200
13942KMLU MLU20190929041510609/29/19 04:15:31  5-MIN KMLU 291015Z AUTO 00000KT 8SM CLR 21/21 A3009 -70 97 700 000/00 RMK AO2 T02110206
13942KMLU MLU20190929042010609/29/19 04:20:31  5-MIN KMLU 291020Z AUTO 00000KT 8SM CLR 21/19 A3009 -70 93 600 000/00 RMK AO2 T02060194
13942KMLU MLU20190929042510609/29/19 04:25:31  5-MIN KMLU 291025Z AUTO 00000KT 8SM CLR 21/19 A3009 -70 93 600 000/00 RMK AO2 T02060194
13942KMLU MLU20190929043010709/29/19 04:30:31  5-MIN KMLU 291030Z AUTO 00000KT 10SM CLR 21/19 A3009 -70 93 600 000/00 RMK AO2 T02060194
13942KMLU MLU20190929043510609/29/19 04:35:31  5-MIN KMLU 291035Z AUTO 00000KT 8SM CLR 21/19 A3009 -70 93 600 000/00 RMK AO2 T02060194
13942KMLU MLU20190929044010909/29/19 04:40:31  5-MIN KMLU 291040Z AUTO 00000KT 5SM BR CLR 20/19 A3009 -70 93 500 000/00 RMK AO2 T02000189
13942KMLU MLU20190929044510909/29/19 04:45:31  5-MIN KMLU 291045Z AUTO 00000KT 3SM BR CLR 20/19 A3009 -70 93 500 000/00 RMK AO2 T02000189
13942KMLU MLU20190929045011109/29/19 04:50:31  5-MIN KMLU 291050Z 00000KT 4SM BR CLR 20/19 A3009 -70 93 500 000/00 RMK AO2 SLP189 T02000189
13942KMLU MLU20190929045510409/29/19 04:55:31  5-MIN KMLU 291055Z 00000KT 5SM BR CLR 20/19 A3010 -80 93 500 000/00 RMK AO2 T02000189
13942KMLU MLU20190929050010409/29/19 05:00:31  5-MIN KMLU 291100Z 00000KT 5SM BR CLR 20/19 A3010 -80 97 500 000/00 RMK AO2 T02000194
13942KMLU MLU20190929050510409/29/19 05:05:31  5-MIN KMLU 291105Z 00000KT 5SM BR CLR 20/19 A3010 -80 97 500 000/00 RMK AO2 T02000194
13942KMLU MLU20190929051010409/29/19 05:10:31  5-MIN KMLU 291110Z 00000KT 6SM BR CLR 21/19 A3011 -90 93 600 000/00 RMK AO2 T02060194
13942KMLU MLU20190929051510109/29/19 05:15:31  5-MIN KMLU 291115Z 00000KT 7SM CLR 20/19 A3011 -90 93 500 000/00 RMK AO2 T02000189
13942KMLU MLU20190929052010409/29/19 05:20:31  5-MIN KMLU 291120Z 00000KT 5SM BR CLR 19/19 A3011 -90 97 400 000/00 RMK AO2 T01940189
13942KMLU MLU20190929052510409/29/19 05:25:31  5-MIN KMLU 291125Z 00000KT 4SM BR CLR 20/19 A3011 -90 93 500 000/00 RMK AO2 T02000189
13942KMLU MLU20190929053010409/29/19 05:30:31  5-MIN KMLU 291130Z 00000KT 5SM BR CLR 21/19 A3011 -90 90 600 000/00 RMK AO2 T02060189
13942KMLU MLU20190929053510409/29/19 05:35:31  5-MIN KMLU 291135Z 00000KT 6SM BR CLR 20/19 A3011 -90 97 500 000/00 RMK AO2 T02000194
13942KMLU MLU20190929054010109/29/19 05:40:31  5-MIN KMLU 291140Z 00000KT 7SM CLR 20/19 A3011 -90 93 500 000/00 RMK AO2 T02000189
13942KMLU MLU20190929054510109/29/19 05:45:31  5-MIN KMLU 291145Z 00000KT 8SM CLR 20/19 A3011 -90 93 500 000/00 RMK AO2 T02000189
13942KMLU MLU20190929055012909/29/19 05:50:31  5-MIN KMLU 291150Z 00000KT 6SM BR CLR 19/19 A3012 -90 97 400 000/00 RMK AO2 SLP196 T01940189 10256 20194 51007
13942KMLU MLU20190929055510509/29/19 05:55:31  5-MIN KMLU 291155Z 00000KT 6SM BR CLR 19/19 A3012 -100 97 400 000/00 RMK AO2 T01940189
13942KMLU MLU20190929060010209/29/19 06:00:31  5-MIN KMLU 291200Z 09003KT 7SM CLR 21/19 A3012 -100 93 600 090/03 RMK AO2 T02060194
13942KMLU MLU20190929060510209/29/19 06:05:31  5-MIN KMLU 291205Z 00000KT 8SM CLR 21/20 A3012 -100 93 600 000/00 RMK AO2 T02110200
13942KMLU MLU20190929061010209/29/19 06:10:31  5-MIN KMLU 291210Z 00000KT 7SM CLR 21/20 A3012 -100 97 600 000/00 RMK AO2 T02060200
13942KMLU MLU20190929061510509/29/19 06:15:31  5-MIN KMLU 291215Z 00000KT 6SM BR CLR 20/19 A3012 -100 93 500 000/00 RMK AO2 T02000189
13942KMLU MLU20190929062010509/29/19 06:20:31  5-MIN KMLU 291220Z 00000KT 6SM BR CLR 21/20 A3013 -100 97 600 000/00 RMK AO2 T02060200
13942KMLU MLU20190929062510509/29/19 06:25:31  5-MIN KMLU 291225Z 07003KT 6SM BR CLR 21/20 A3013 -100 93 600 070/03 RMK AO2 T02110200
13942KMLU MLU20190929063010209/29/19 06:30:31  5-MIN KMLU 291230Z 08003KT 7SM CLR 21/20 A3013 -100 93 600 080/03 RMK AO2 T02110200
13942KMLU MLU20190929063510209/29/19 06:35:31  5-MIN KMLU 291235Z 00000KT 8SM CLR 22/21 A3013 -100 93 700 000/00 RMK AO2 T02170206
13942KMLU MLU20190929064010209/29/19 06:40:31  5-MIN KMLU 291240Z 08003KT 8SM CLR 22/21 A3013 -110 93 700 080/03 RMK AO2 T02170206
13942KMLU MLU20190929064510209/29/19 06:45:31  5-MIN KMLU 291245Z 00000KT 8SM CLR 22/21 A3013 -110 93 700 000/00 RMK AO2 T02170206
13942KMLU MLU20190929065010909/29/19 06:50:31  5-MIN KMLU 291250Z 09003KT 9SM CLR 22/21 A3013 -110 93 700 090/03 RMK AO2 SLP201 T02220211
13942KMLU MLU20190929065510209/29/19 06:55:31  5-MIN KMLU 291255Z 00000KT 9SM CLR 22/21 A3013 -110 93 700 000/00 RMK AO2 T02220211
13942KMLU MLU20190929070010309/29/19 07:00:31  5-MIN KMLU 291300Z VRB03KT 10SM CLR 23/21 A3013 -110 90 800 VRB/03 RMK AO2 T02280211
13942KMLU MLU20190929070510309/29/19 07:05:31  5-MIN KMLU 291305Z 10003KT 10SM CLR 23/21 A3014 -110 90 800 100/03 RMK AO2 T02280211
13942KMLU MLU20190929071010309/29/19 07:10:31  5-MIN KMLU 291310Z 09003KT 10SM CLR 23/21 A3014 -110 90 800 090/03 RMK AO2 T02280211
13942KMLU MLU20190929071510309/29/19 07:15:31  5-MIN KMLU 291315Z 10005KT 10SM CLR 23/21 A3014 -110 87 900 100/05 RMK AO2 T02330211
13942KMLU MLU20190929072010309/29/19 07:20:31  5-MIN KMLU 291320Z 09004KT 10SM CLR 23/22 A3014 -110 90 900 090/04 RMK AO2 T02330217
13942KMLU MLU20190929072510309/29/19 07:25:31  5-MIN KMLU 291325Z 10003KT 10SM CLR 24/22 A3014 -110 87 900 100/03 RMK AO2 T02390217
13942KMLU MLU20190929073010309/29/19 07:30:31  5-MIN KMLU 291330Z 10004KT 10SM CLR 24/22 A3014 -120 87 900 100/04 RMK AO2 T02390217
13942KMLU MLU20190929073510309/29/19 07:35:31  5-MIN KMLU 291335Z VRB03KT 10SM CLR 24/22 A3014 -120 87 900 VRB/03 RMK AO2 T02390217
13942KMLU MLU20190929074010409/29/19 07:40:31  5-MIN KMLU 291340Z 08003KT 10SM CLR 24/22 A3014 -120 84 1000 080/03 RMK AO2 T02440217
13942KMLU MLU20190929074510709/29/19 07:45:31  5-MIN KMLU 291345Z 07003KT 10SM FEW005 25/22 A3014 -120 81 1000 070/03 RMK AO2 T02500217
13942KMLU MLU20190929075011109/29/19 07:50:31  5-MIN KMLU 291350Z 08003KT 10SM CLR 26/22 A3014 -120 79 1100 080/03 RMK AO2 SLP206 T02560217
13942KMLU MLU20190929075510709/29/19 07:55:31  5-MIN KMLU 291355Z 10004KT 10SM FEW004 26/22 A3014 -120 79 1100 100/04 RMK AO2 T02560217
13942KMLU MLU20190929080010409/29/19 08:00:31  5-MIN KMLU 291400Z 08004KT 10SM CLR 26/22 A3014 -120 79 1100 080/04 RMK AO2 T02560217
13942KMLU MLU20190929080510409/29/19 08:05:31  5-MIN KMLU 291405Z 10003KT 10SM CLR 26/22 A3014 -120 79 1200 100/03 RMK AO2 T02610222
13942KMLU MLU20190929081010409/29/19 08:10:31  5-MIN KMLU 291410Z 07004KT 10SM CLR 27/22 A3015 -120 76 1200 070/04 RMK AO2 T02670222
13942KMLU MLU20190929081510409/29/19 08:15:31  5-MIN KMLU 291415Z 09005KT 10SM CLR 27/22 A3015 -130 76 1200 090/05 RMK AO2 T02670222
13942KMLU MLU20190929082010409/29/19 08:20:31  5-MIN KMLU 291420Z VRB03KT 10SM CLR 27/22 A3015 -130 76 1200 VRB/03 RMK AO2 T02670222
13942KMLU MLU20190929082510409/29/19 08:25:31  5-MIN KMLU 291425Z 08005KT 10SM CLR 27/22 A3015 -130 74 1300 080/05 RMK AO2 T02720222
13942KMLU MLU20190929083010409/29/19 08:30:31  5-MIN KMLU 291430Z 12005KT 10SM CLR 27/22 A3015 -130 74 1300 120/05 RMK AO2 T02720222
13942KMLU MLU20190929083510409/29/19 08:35:31  5-MIN KMLU 291435Z 09004KT 10SM CLR 27/22 A3015 -120 74 1300 090/04 RMK AO2 T02720222
13942KMLU MLU20190929084010409/29/19 08:40:31  5-MIN KMLU 291440Z 08004KT 10SM CLR 28/23 A3015 -130 74 1400 080/04 RMK AO2 T02780228
13942KMLU MLU20190929084510409/29/19 08:45:31  5-MIN KMLU 291445Z 08004KT 10SM CLR 28/23 A3015 -130 71 1400 080/04 RMK AO2 T02830228
13942KMLU MLU20190929085011709/29/19 08:50:31  5-MIN KMLU 291450Z VRB04KT 10SM CLR 29/23 A3015 -130 69 1500 VRB/04 RMK AO2 SLP208 T02890228 53014
13942KMLU MLU20190929085510409/29/19 08:55:31  5-MIN KMLU 291455Z 00000KT 10SM CLR 28/23 A3015 -130 71 1400 000/00 RMK AO2 T02830228
13942KMLU MLU20190929090010409/29/19 09:00:31  5-MIN KMLU 291500Z VRB03KT 10SM CLR 29/23 A3015 -130 69 1500 VRB/03 RMK AO2 T02890228
13942KMLU MLU20190929090510409/29/19 09:05:31  5-MIN KMLU 291505Z 00000KT 10SM CLR 29/23 A3015 -130 69 1500 000/00 RMK AO2 T02890228
13942KMLU MLU20190929091010409/29/19 09:10:31  5-MIN KMLU 291510Z 09003KT 10SM CLR 29/23 A3015 -130 67 1500 090/03 RMK AO2 T02940228
13942KMLU MLU20190929091510409/29/19 09:15:31  5-MIN KMLU 291515Z 12003KT 10SM CLR 29/23 A3015 -130 67 1500 120/03 RMK AO2 T02940228
13942KMLU MLU20190929092010409/29/19 09:20:31  5-MIN KMLU 291520Z 00000KT 10SM CLR 29/23 A3015 -120 67 1500 000/00 RMK AO2 T02940228
13942KMLU MLU20190929092510409/29/19 09:25:31  5-MIN KMLU 291525Z VRB03KT 10SM CLR 30/23 A3015 -120 65 1600 VRB/03 RMK AO2 T03000228
13942KMLU MLU20190929093010409/29/19 09:30:31  5-MIN KMLU 291530Z VRB04KT 10SM CLR 30/23 A3015 -120 65 1600 VRB/04 RMK AO2 T03000228
13942KMLU MLU20190929093510409/29/19 09:35:31  5-MIN KMLU 291535Z 00000KT 10SM CLR 30/23 A3014 -120 65 1600 000/00 RMK AO2 T03000228
13942KMLU MLU20190929094010409/29/19 09:40:31  5-MIN KMLU 291540Z VRB03KT 10SM CLR 30/23 A3014 -120 65 1600 VRB/03 RMK AO2 T03000228
13942KMLU MLU20190929094510409/29/19 09:45:31  5-MIN KMLU 291545Z 13006KT 10SM CLR 31/22 A3014 -120 60 1700 130/06 RMK AO2 T03060222
13942KMLU MLU20190929095011109/29/19 09:50:31  5-MIN KMLU 291550Z 18005KT 10SM CLR 30/22 A3014 -120 62 1600 180/05 RMK AO2 SLP205 T03000222
13942KMLU MLU20190929095510409/29/19 09:55:31  5-MIN KMLU 291555Z VRB05KT 10SM CLR 31/23 A3014 -120 62 1700 VRB/05 RMK AO2 T03060228
13942KMLU MLU20190929100010409/29/19 10:00:31  5-MIN KMLU 291600Z VRB06KT 10SM CLR 31/23 A3014 -120 62 1700 VRB/06 RMK AO2 T03060228
13942KMLU MLU20190929100510409/29/19 10:05:31  5-MIN KMLU 291605Z VRB05KT 10SM CLR 31/22 A3014 -110 60 1700 VRB/05 RMK AO2 T03060222
13942KMLU MLU20190929101010409/29/19 10:10:31  5-MIN KMLU 291610Z VRB06KT 10SM CLR 31/22 A3013 -110 56 1700 VRB/06 RMK AO2 T03110217
13942KMLU MLU20190929101510409/29/19 10:15:31  5-MIN KMLU 291615Z 11004KT 10SM CLR 32/22 A3013 -110 56 1800 110/04 RMK AO2 T03170222
13942KMLU MLU20190929102010409/29/19 10:20:31  5-MIN KMLU 291620Z VRB03KT 10SM CLR 31/22 A3013 -110 58 1700 VRB/03 RMK AO2 T03110222
13942KMLU MLU20190929102510409/29/19 10:25:31  5-MIN KMLU 291625Z VRB04KT 10SM CLR 32/22 A3013 -110 56 1800 VRB/04 RMK AO2 T03170222
13942KMLU MLU20190929103010409/29/19 10:30:31  5-MIN KMLU 291630Z 19007KT 10SM CLR 32/22 A3013 -110 55 1800 190/07 RMK AO2 T03170217
13942KMLU MLU20190929103510409/29/19 10:35:31  5-MIN KMLU 291635Z 18007KT 10SM CLR 32/22 A3013 -110 55 1800 180/07 RMK AO2 T03170217
13942KMLU MLU20190929104010709/29/19 10:40:31  5-MIN KMLU 291640Z 20008KT 10SM FEW041 32/22 A3013 -110 55 1900 200/08 RMK AO2 T03220222
13942KMLU MLU20190929104512309/29/19 10:45:31  5-MIN KMLU 291645Z 17009KT 120V190 10SM FEW041 32/22 A3013 -110 53 1900 170/09 120V190 RMK AO2 T03220217
13942KMLU MLU20190929105011409/29/19 10:50:31  5-MIN KMLU 291650Z 13004KT 10SM FEW045 31/21 A3013 -110 54 1700 130/04 RMK AO2 SLP201 T03110211
13942KMLU MLU20190929105510709/29/19 10:55:31  5-MIN KMLU 291655Z VRB06KT 10SM BKN045 32/22 A3013 -100 55 1800 VRB/06 RMK AO2 T03170217
13942KMLU MLU20190929110010709/29/19 11:00:31  5-MIN KMLU 291700Z 12006KT 10SM BKN045 32/21 A3012 -100 53 1800 120/06 RMK AO2 T03170211
13942KMLU MLU20190929110510709/29/19 11:05:31  5-MIN KMLU 291705Z 14006KT 10SM BKN045 32/21 A3012 -100 53 1800 140/06 RMK AO2 T03170211
13942KMLU MLU20190929111010709/29/19 11:10:31  5-MIN KMLU 291710Z 16006KT 10SM BKN045 32/21 A3012 -100 53 1800 160/06 RMK AO2 T03170211
13942KMLU MLU20190929111512209/29/19 11:15:31  5-MIN KMLU 291715Z 16007KT 120V190 10SM BKN045 33/21 A3012 -90 49 1900 160/07 120V190 RMK AO2 T03280211
13942KMLU MLU20190929112011209/29/19 11:20:31  5-MIN KMLU 291720Z VRB05G14KT 10SM BKN045 33/21 A3012 -90 48 1900 VRB/05G14 RMK AO2 T03280206
13942KMLU MLU20190929112512209/29/19 11:25:31  5-MIN KMLU 291725Z 15007KT 120V190 10SM BKN045 33/21 A3011 -90 46 2000 150/07 120V190 RMK AO2 T03330206
13942KMLU MLU20190929113010609/29/19 11:30:31  5-MIN KMLU 291730Z 18006KT 10SM BKN045 32/21 A3011 -90 49 1900 170/06 RMK AO2 T03220206
13942KMLU MLU20190929113512209/29/19 11:35:31  5-MIN KMLU 291735Z 13008KT 100V190 10SM BKN045 33/21 A3011 -90 48 2000 130/08 100V190 RMK AO2 T03280206
13942KMLU MLU20190929114012209/29/19 11:40:31  5-MIN KMLU 291740Z 11007KT 080V160 10SM BKN045 33/21 A3010 -80 48 2000 100/07 080V160 RMK AO2 T03280206
13942KMLU MLU20190929114512209/29/19 11:45:31  5-MIN KMLU 291745Z 14008KT 110V190 10SM BKN045 33/20 A3010 -80 45 2000 140/08 110V190 RMK AO2 T03330200
13942KMLU MLU20190929115013109/29/19 11:50:31  5-MIN KMLU 291750Z 18008KT 10SM BKN045 33/20 A3010 -80 45 2000 180/08 RMK AO2 SLP191 T03330200 10333 20194 51012
13942KMLU MLU20190929115510609/29/19 11:55:31  5-MIN KMLU 291755Z VRB05KT 10SM FEW050 33/20 A3010 -80 45 2000 VRB/05 RMK AO2 T03330200
13942KMLU MLU20190929120012209/29/19 12:00:31  5-MIN KMLU 291800Z 16007KT 110V190 10SM FEW050 33/20 A3010 -80 45 2000 160/07 110V190 RMK AO2 T03330200
13942KMLU MLU20190929120510309/29/19 12:05:31  5-MIN KMLU 291805Z VRB06KT 10SM CLR 33/21 A3009 -70 46 2000 VRB/06 RMK AO2 T03330206
13942KMLU MLU20190929121010309/29/19 12:10:31  5-MIN KMLU 291810Z 16008KT 10SM CLR 34/21 A3009 -70 45 2100 160/08 RMK AO2 T03390206
13942KMLU MLU20190929121510609/29/19 12:15:31  5-MIN KMLU 291815Z 14009KT 10SM FEW055 34/21 A3009 -70 45 2100 140/09 RMK AO2 T03390206
13942KMLU MLU20190929122010609/29/19 12:20:31  5-MIN KMLU 291820Z 17008KT 10SM FEW055 34/20 A3009 -70 43 2100 170/08 RMK AO2 T03390200
13942KMLU MLU20190929122511209/29/19 12:25:31  5-MIN KMLU 291825Z 19012G17KT 10SM FEW055 34/19 A3009 -70 42 2100 190/12G17 RMK AO2 T03390194
13942KMLU MLU20190929123011209/29/19 12:30:31  5-MIN KMLU 291830Z 13007G17KT 10SM FEW055 34/19 A3008 -60 42 2100 130/07G17 RMK AO2 T03390194
13942KMLU MLU20190929123512809/29/19 12:35:31  5-MIN KMLU 291835Z 17009G14KT 130V200 10SM FEW055 35/21 A3008 -60 42 2200 170/09G14 130V200 RMK AO2 T03500206
13942KMLU MLU20190929124010609/29/19 12:40:31  5-MIN KMLU 291840Z 19009KT 10SM FEW055 34/20 A3008 -60 42 2200 180/09 RMK AO2 T03440200
13942KMLU MLU20190929124510609/29/19 12:45:31  5-MIN KMLU 291845Z 17009KT 10SM FEW060 34/20 A3007 -60 42 2200 170/09 RMK AO2 T03440200
13942KMLU MLU20190929125011309/29/19 12:50:31  5-MIN KMLU 291850Z 10004KT 10SM BKN060 34/21 A3006 -50 43 2200 100/04 RMK AO2 SLP179 T03440206
13942KMLU MLU20190929125512209/29/19 12:55:31  5-MIN KMLU 291855Z 14008KT 100V170 10SM BKN060 35/20 A3006 -40 40 2300 140/08 100V170 RMK AO2 T03500200
13942KMLU MLU20190929130010609/29/19 13:00:31  5-MIN KMLU 291900Z 18005KT 10SM BKN060 35/20 A3006 -40 40 2300 180/05 RMK AO2 T03500200
13942KMLU MLU20190929130512209/29/19 13:05:31  5-MIN KMLU 291905Z 16009KT 140V210 10SM BKN060 36/21 A3006 -40 41 2300 160/09 140V210 RMK AO2 T03560206
13942KMLU MLU20190929131010609/29/19 13:10:31  5-MIN KMLU 291910Z 16008KT 10SM BKN060 35/21 A3006 -40 42 2300 160/08 RMK AO2 T03500206
13942KMLU MLU20190929131510609/29/19 13:15:31  5-MIN KMLU 291915Z VRB06KT 10SM BKN060 35/20 A3005 -40 40 2300 VRB/06 RMK AO2 T03500200
13942KMLU MLU20190929132011209/29/19 13:20:31  5-MIN KMLU 291920Z 13007G17KT 10SM BKN060 35/20 A3005 -30 40 2300 130/07G17 RMK AO2 T03500200
13942KMLU MLU20190929132511209/29/19 13:25:31  5-MIN KMLU 291925Z VRB06G17KT 10SM SCT060 34/20 A3005 -40 42 2200 VRB/06G17 RMK AO2 T03440200
13942KMLU MLU20190929133010609/29/19 13:30:31  5-MIN KMLU 291930Z 18006KT 10SM BKN060 35/20 A3005 -30 40 2300 180/06 RMK AO2 T03500200
13942KMLU MLU20190929133512209/29/19 13:35:31  5-MIN KMLU 291935Z 18008KT 130V200 10SM SCT060 34/20 A3005 -30 42 2200 180/08 130V200 RMK AO2 T03440200
13942KMLU MLU20190929134011209/29/19 13:40:31  5-MIN KMLU 291940Z 16007G16KT 10SM SCT060 34/20 A3005 -30 43 2100 160/07G16 RMK AO2 T03390200
13942KMLU MLU20190929134511109/29/19 13:45:31  5-MIN KMLU 291945Z AUTO 20009KT 10SM FEW060 34/20 A3005 -30 42 2200 200/09 RMK AO2 T03440200
13942KMLU MLU20190929135011309/29/19 13:50:31  5-MIN KMLU 291950Z 18008KT 10SM SCT065 33/19 A3004 -30 43 2100 180/08 RMK AO2 SLP172 T03330194
13942KMLU MLU20190929135511309/29/19 13:55:31  5-MIN KMLU 291955Z 17008KT 10SM SCT060 BKN075 34/19 A3004 -30 42 2200 170/08 RMK AO2 T03390194
13942KMLU MLU20190929140011209/29/19 14:00:31  5-MIN KMLU 292000Z 18010G15KT 10SM FEW060 35/20 A3004 -30 40 2300 180/10G15 RMK AO2 T03500200
13942KMLU MLU20190929140510609/29/19 14:05:31  5-MIN KMLU 292005Z 18007KT 10SM FEW060 34/19 A3004 -30 42 2200 180/07 RMK AO2 T03390194
13942KMLU MLU20190929141010609/29/19 14:10:31  5-MIN KMLU 292010Z 18007KT 10SM FEW060 33/19 A3004 -30 43 2100 180/07 RMK AO2 T03330194
13942KMLU MLU20190929141510609/29/19 14:15:31  5-MIN KMLU 292015Z VRB05KT 10SM SCT065 33/19 A3004 -20 43 2100 VRB/05 RMK AO2 T03330194
13942KMLU MLU20190929142010609/29/19 14:20:31  5-MIN KMLU 292020Z VRB04KT 10SM FEW060 34/19 A3003 -20 42 2200 VRB/04 RMK AO2 T03390194
13942KMLU MLU20190929142510609/29/19 14:25:31  5-MIN KMLU 292025Z 18008KT 10SM SCT060 35/20 A3003 -20 40 2300 180/08 RMK AO2 T03500200
13942KMLU MLU20190929143010609/29/19 14:30:31  5-MIN KMLU 292030Z 18008KT 10SM SCT060 34/19 A3003 -20 42 2200 180/08 RMK AO2 T03390194
13942KMLU MLU20190929143510609/29/19 14:35:31  5-MIN KMLU 292035Z 18008KT 10SM SCT065 34/19 A3003 -20 40 2200 180/08 RMK AO2 T03440194
13942KMLU MLU20190929144010609/29/19 14:40:31  5-MIN KMLU 292040Z 17007KT 10SM SCT065 33/19 A3003 -20 43 2100 160/07 RMK AO2 T03330194
13942KMLU MLU20190929144510609/29/19 14:45:31  5-MIN KMLU 292045Z VRB05KT 10SM SCT065 34/19 A3003 -10 42 2200 VRB/05 RMK AO2 T03390194
13942KMLU MLU20190929145011909/29/19 14:50:31  5-MIN KMLU 292050Z 11007KT 10SM BKN065 35/19 A3002 -10 39 2300 110/07 RMK AO2 SLP164 T03500194 58018
13942KMLU MLU20190929145510609/29/19 14:55:31  5-MIN KMLU 292055Z 16006KT 10SM BKN065 34/19 A3003 -10 40 2200 160/06 RMK AO2 T03440194
13942KMLU MLU20190929150010609/29/19 15:00:31  5-MIN KMLU 292100Z 15005KT 10SM BKN070 34/19 A3003 -10 42 2200 150/05 RMK AO2 T03390194
13942KMLU MLU20190929150510609/29/19 15:05:31  5-MIN KMLU 292105Z 17006KT 10SM BKN070 34/19 A3003 -10 42 2200 170/06 RMK AO2 T03390194
13942KMLU MLU20190929151010609/29/19 15:10:31  5-MIN KMLU 292110Z 17006KT 10SM SCT070 33/19 A3003 -10 43 2100 170/06 RMK AO2 T03330194
13942KMLU MLU20190929151510609/29/19 15:15:31  5-MIN KMLU 292115Z VRB05KT 10SM FEW065 34/19 A3002 -10 42 2200 VRB/05 RMK AO2 T03390194
13942KMLU MLU20190929152011209/29/19 15:20:31  5-MIN KMLU 292120Z 14006G15KT 10SM FEW070 34/19 A3002 -10 40 2200 140/06G15 RMK AO2 T03440194
13942KMLU MLU20190929152511209/29/19 15:25:31  5-MIN KMLU 292125Z 19008G15KT 10SM FEW070 35/20 A3002 -10 40 2300 190/08G15 RMK AO2 T03500200
13942KMLU MLU20190929153010309/29/19 15:30:31  5-MIN KMLU 292130Z 18008KT 10SM CLR 34/20 A3002 -10 42 2200 180/08 RMK AO2 T03440200
13942KMLU MLU20190929153510609/29/19 15:35:31  5-MIN KMLU 292135Z 18006KT 10SM FEW065 34/20 A3002 -10 42 2200 180/06 RMK AO2 T03440200
13942KMLU MLU20190929154010409/29/19 15:40:31  5-MIN KMLU 292140Z 17006KT 10SM FEW065 33/19 A3002 0 43 2100 170/06 RMK AO2 T03330194
13942KMLU MLU20190929154510409/29/19 15:45:31  5-MIN KMLU 292145Z 13006KT 10SM FEW065 34/20 A3002 0 42 2200 130/06 RMK AO2 T03440200
13942KMLU MLU20190929155011109/29/19 15:50:31  5-MIN KMLU 292150Z 16009KT 10SM FEW065 34/19 A3002 0 40 2200 160/09 RMK AO2 SLP163 T03440194
13942KMLU MLU20190929155510409/29/19 15:55:31  5-MIN KMLU 292155Z 14005KT 10SM FEW065 34/19 A3002 0 40 2200 140/05 RMK AO2 T03440194
13942KMLU MLU20190929160010409/29/19 16:00:31  5-MIN KMLU 292200Z VRB06KT 10SM FEW065 34/19 A3002 0 40 2200 VRB/06 RMK AO2 T03440194
13942KMLU MLU20190929160510409/29/19 16:05:31  5-MIN KMLU 292205Z 10006KT 10SM FEW065 34/20 A3002 0 42 2200 100/06 RMK AO2 T03440200
13942KMLU MLU20190929161010409/29/19 16:10:31  5-MIN KMLU 292210Z VRB03KT 10SM SCT065 34/19 A3002 0 40 2200 VRB/03 RMK AO2 T03440194
13942KMLU MLU20190929161510409/29/19 16:15:31  5-MIN KMLU 292215Z 13005KT 10SM BKN065 34/20 A3001 0 42 2200 130/05 RMK AO2 T03440200
13942KMLU MLU20190929162010409/29/19 16:20:31  5-MIN KMLU 292220Z 12006KT 10SM BKN065 34/20 A3002 0 42 2200 120/06 RMK AO2 T03440200
13942KMLU MLU20190929162512009/29/19 16:25:31  5-MIN KMLU 292225Z 13008KT 090V160 10SM BKN065 34/20 A3002 0 43 2200 130/08 090V160 RMK AO2 T03390200
13942KMLU MLU20190929163010409/29/19 16:30:31  5-MIN KMLU 292230Z 08005KT 10SM BKN065 34/19 A3002 0 42 2200 080/05 RMK AO2 T03390194
13942KMLU MLU20190929163510409/29/19 16:35:31  5-MIN KMLU 292235Z VRB05KT 10SM SCT065 34/20 A3002 0 42 2200 VRB/05 RMK AO2 T03440200
13942KMLU MLU20190929164010409/29/19 16:40:31  5-MIN KMLU 292240Z 08004KT 10SM SCT065 34/20 A3002 0 43 2200 080/04 RMK AO2 T03390200
13942KMLU MLU20190929164510409/29/19 16:45:31  5-MIN KMLU 292245Z 12005KT 10SM SCT065 34/20 A3002 0 43 2200 120/05 RMK AO2 T03390200
13942KMLU MLU20190929165011109/29/19 16:50:31  5-MIN KMLU 292250Z 17006KT 10SM FEW065 34/20 A3002 0 43 2200 170/06 RMK AO2 SLP163 T03390200
13942KMLU MLU20190929165510109/29/19 16:55:31  5-MIN KMLU 292255Z 18008KT 10SM CLR 33/19 A3002 0 43 2100 180/08 RMK AO2 T03330194
13942KMLU MLU20190929170010109/29/19 17:00:31  5-MIN KMLU 292300Z 17007KT 10SM CLR 33/19 A3002 0 43 2100 170/07 RMK AO2 T03330194
13942KMLU MLU20190929170510109/29/19 17:05:31  5-MIN KMLU 292305Z 17006KT 10SM CLR 33/19 A3002 0 43 2100 170/06 RMK AO2 T03330194
13942KMLU MLU20190929171010109/29/19 17:10:31  5-MIN KMLU 292310Z 16004KT 10SM CLR 33/19 A3002 0 43 2100 160/04 RMK AO2 T03330194
13942KMLU MLU20190929171510309/29/19 17:15:31  5-MIN KMLU 292315Z VRB03KT 10SM CLR 33/19 A3002 -10 43 2100 VRB/03 RMK AO2 T03330194
13942KMLU MLU20190929172010309/29/19 17:20:31  5-MIN KMLU 292320Z VRB04KT 10SM CLR 33/20 A3002 -10 46 2100 VRB/04 RMK AO2 T03280200
13942KMLU MLU20190929172510309/29/19 17:25:31  5-MIN KMLU 292325Z VRB03KT 10SM CLR 33/19 A3002 -10 44 2100 VRB/03 RMK AO2 T03280194
13942KMLU MLU20190929173010309/29/19 17:30:31  5-MIN KMLU 292330Z 17005KT 10SM CLR 33/20 A3002 -10 46 2100 170/05 RMK AO2 T03280200
13942KMLU MLU20190929173510309/29/19 17:35:31  5-MIN KMLU 292335Z 00000KT 10SM CLR 32/20 A3002 -10 48 2000 000/00 RMK AO2 T03220200
13942KMLU MLU20190929174010309/29/19 17:40:31  5-MIN KMLU 292340Z 16003KT 10SM CLR 32/20 A3003 -10 48 2000 160/03 RMK AO2 T03220200
13942KMLU MLU20190929174510309/29/19 17:45:31  5-MIN KMLU 292345Z 00000KT 10SM CLR 32/20 A3003 -10 48 2000 000/00 RMK AO2 T03220200
13942KMLU MLU20190929175012809/29/19 17:50:31  5-MIN KMLU 292350Z 00000KT 10SM CLR 32/20 A3003 -10 49 1900 000/00 RMK AO2 SLP166 T03170200 10356 20317 56025
13942KMLU MLU20190929175510309/29/19 17:55:31  5-MIN KMLU 292355Z 00000KT 10SM CLR 31/21 A3003 -10 54 1800 000/00 RMK AO2 T03060206
13942KMLU MLU20190929180010309/29/19 18:00:31  5-MIN KMLU 300000Z 00000KT 10SM CLR 30/21 A3003 -10 58 1700 000/00 RMK AO2 T03000211
13942KMLU MLU20190929180510309/29/19 18:05:31  5-MIN KMLU 300005Z 00000KT 10SM CLR 29/21 A3003 -10 60 1700 000/00 RMK AO2 T02940211
13942KMLU MLU20190929181010309/29/19 18:10:31  5-MIN KMLU 300010Z 00000KT 10SM CLR 29/21 A3003 -10 62 1600 000/00 RMK AO2 T02890211
13942KMLU MLU20190929181510309/29/19 18:15:31  5-MIN KMLU 300015Z 00000KT 10SM CLR 28/21 A3003 -10 64 1600 000/00 RMK AO2 T02830211
13942KMLU MLU20190929182010309/29/19 18:20:31  5-MIN KMLU 300020Z 00000KT 10SM CLR 28/21 A3003 -10 64 1600 000/00 RMK AO2 T02830211
13942KMLU MLU20190929182510309/29/19 18:25:31  5-MIN KMLU 300025Z 00000KT 10SM CLR 28/21 A3003 -20 64 1600 000/00 RMK AO2 T02830211
13942KMLU MLU20190929183010309/29/19 18:30:31  5-MIN KMLU 300030Z 15003KT 10SM CLR 28/21 A3003 -20 64 1500 150/03 RMK AO2 T02830211
13942KMLU MLU20190929183510309/29/19 18:35:31  5-MIN KMLU 300035Z 00000KT 10SM CLR 28/21 A3003 -20 64 1500 000/00 RMK AO2 T02830211
13942KMLU MLU20190929184010309/29/19 18:40:31  5-MIN KMLU 300040Z 00000KT 10SM CLR 28/21 A3003 -20 66 1500 000/00 RMK AO2 T02780211
13942KMLU MLU20190929184510309/29/19 18:45:31  5-MIN KMLU 300045Z 00000KT 10SM CLR 28/21 A3003 -20 66 1500 000/00 RMK AO2 T02780211
13942KMLU MLU20190929185011009/29/19 18:50:31  5-MIN KMLU 300050Z 00000KT 10SM CLR 28/21 A3003 -20 64 1500 000/00 RMK AO2 SLP169 T02830211
13942KMLU MLU20190929185510309/29/19 18:55:31  5-MIN KMLU 300055Z 00000KT 10SM CLR 27/21 A3004 -20 69 1400 000/00 RMK AO2 T02720211
13942KMLU MLU20190929190010309/29/19 19:00:31  5-MIN KMLU 300100Z VRB03KT 10SM CLR 27/21 A3004 -20 69 1400 VRB/03 RMK AO2 T02720211
13942KMLU MLU20190929190510309/29/19 19:05:31  5-MIN KMLU 300105Z 00000KT 10SM CLR 28/21 A3004 -20 64 1500 000/00 RMK AO2 T02780206
13942KMLU MLU20190929191010309/29/19 19:10:31  5-MIN KMLU 300110Z 00000KT 10SM CLR 28/21 A3004 -20 64 1500 000/00 RMK AO2 T02780206
13942KMLU MLU20190929191510309/29/19 19:15:31  5-MIN KMLU 300115Z 00000KT 10SM CLR 27/21 A3004 -30 66 1400 000/00 RMK AO2 T02720206
13942KMLU MLU20190929192010309/29/19 19:20:31  5-MIN KMLU 300120Z 00000KT 10SM CLR 27/21 A3004 -30 69 1400 000/00 RMK AO2 T02720211
13942KMLU MLU20190929192510309/29/19 19:25:31  5-MIN KMLU 300125Z 00000KT 10SM CLR 27/21 A3005 -30 69 1400 000/00 RMK AO2 T02720211
13942KMLU MLU20190929193010309/29/19 19:30:31  5-MIN KMLU 300130Z 07004KT 10SM CLR 27/21 A3005 -30 71 1300 070/04 RMK AO2 T02670211
13942KMLU MLU20190929193510309/29/19 19:35:31  5-MIN KMLU 300135Z 00000KT 10SM CLR 27/21 A3005 -30 66 1400 000/00 RMK AO2 T02720206
13942KMLU MLU20190929194010309/29/19 19:40:31  5-MIN KMLU 300140Z 00000KT 10SM CLR 26/21 A3005 -30 71 1300 000/00 RMK AO2 T02610206
13942KMLU MLU20190929194510309/29/19 19:45:31  5-MIN KMLU 300145Z 00000KT 10SM CLR 26/21 A3005 -40 73 1300 000/00 RMK AO2 T02610211
13942KMLU MLU20190929195011009/29/19 19:50:31  5-MIN KMLU 300150Z 00000KT 10SM CLR 27/21 A3006 -40 66 1400 000/00 RMK AO2 SLP176 T02720206
13942KMLU MLU20190929195510309/29/19 19:55:31  5-MIN KMLU 300155Z 00000KT 10SM CLR 26/21 A3006 -40 73 1300 000/00 RMK AO2 T02610211
13942KMLU MLU20190929200010309/29/19 20:00:31  5-MIN KMLU 300200Z 00000KT 10SM CLR 26/21 A3006 -40 73 1300 000/00 RMK AO2 T02610211
13942KMLU MLU20190929200510309/29/19 20:05:31  5-MIN KMLU 300205Z 00000KT 10SM CLR 26/21 A3006 -50 73 1300 000/00 RMK AO2 T02610211
13942KMLU MLU20190929201010309/29/19 20:10:31  5-MIN KMLU 300210Z 00000KT 10SM CLR 26/21 A3006 -50 73 1300 000/00 RMK AO2 T02610211
13942KMLU MLU20190929201510309/29/19 20:15:31  5-MIN KMLU 300215Z 00000KT 10SM CLR 26/21 A3007 -50 76 1200 000/00 RMK AO2 T02560211
13942KMLU MLU20190929202010309/29/19 20:20:31  5-MIN KMLU 300220Z 00000KT 10SM CLR 26/21 A3007 -50 76 1200 000/00 RMK AO2 T02560211
13942KMLU MLU20190929202510309/29/19 20:25:31  5-MIN KMLU 300225Z 00000KT 10SM CLR 25/21 A3007 -50 79 1100 000/00 RMK AO2 T02500211
13942KMLU MLU20190929203010609/29/19 20:30:31  5-MIN KMLU 300230Z 00000KT 10SM FEW080 25/21 A3007 -50 76 1100 000/00 RMK AO2 T02500206
13942KMLU MLU20190929203510609/29/19 20:35:31  5-MIN KMLU 300235Z 00000KT 10SM SCT080 25/21 A3007 -50 79 1100 000/00 RMK AO2 T02500211
13942KMLU MLU20190929204010609/29/19 20:40:31  5-MIN KMLU 300240Z 00000KT 10SM BKN080 24/21 A3007 -50 81 1100 000/00 RMK AO2 T02440211
13942KMLU MLU20190929204510609/29/19 20:45:31  5-MIN KMLU 300245Z 00000KT 10SM BKN080 24/21 A3007 -50 81 1100 000/00 RMK AO2 T02440211
13942KMLU MLU20190929205011909/29/19 20:50:31  5-MIN KMLU 300250Z 00000KT 10SM BKN080 24/21 A3007 -50 81 1100 000/00 RMK AO2 SLP182 T02440211 53000
13942KMLU MLU20190929205511109/29/19 20:55:31  5-MIN KMLU 300255Z AUTO 00000KT 10SM SCT080 24/21 A3007 -60 81 1100 000/00 RMK AO2 T02440211
13942KMLU MLU20190929210011809/29/19 21:00:31  5-MIN KMLU 300300Z AUTO 00000KT 10SM FEW065 SCT080 24/21 A3007 -60 81 1100 000/00 RMK AO2 T02440211
13942KMLU MLU20190929210511809/29/19 21:05:31  5-MIN KMLU 300305Z AUTO 00000KT 10SM SCT065 BKN080 25/21 A3008 -60 79 1100 000/00 RMK AO2 T02500211
13942KMLU MLU20190929211011809/29/19 21:10:31  5-MIN KMLU 300310Z AUTO 00000KT 10SM BKN065 BKN080 25/21 A3008 -60 79 1100 000/00 RMK AO2 T02500211
13942KMLU MLU20190929211511109/29/19 21:15:31  5-MIN KMLU 300315Z AUTO 00000KT 10SM BKN065 25/21 A3008 -60 76 1100 000/00 RMK AO2 T02500206
13942KMLU MLU20190929212011809/29/19 21:20:31  5-MIN KMLU 300320Z AUTO 00000KT 10SM BKN065 BKN075 25/21 A3007 -60 79 1100 000/00 RMK AO2 T02500211
13942KMLU MLU20190929212511809/29/19 21:25:31  5-MIN KMLU 300325Z AUTO 00000KT 10SM BKN065 OVC080 25/21 A3008 -60 79 1100 000/00 RMK AO2 T02500211
13942KMLU MLU20190929213011809/29/19 21:30:31  5-MIN KMLU 300330Z AUTO 00000KT 10SM BKN065 OVC080 25/21 A3008 -60 79 1100 000/00 RMK AO2 T02500211
13942KMLU MLU20190929213511809/29/19 21:35:31  5-MIN KMLU 300335Z AUTO 19007KT 10SM BKN065 OVC080 25/21 A3008 -60 79 1100 190/07 RMK AO2 T02500211
13942KMLU MLU20190929214011809/29/19 21:40:31  5-MIN KMLU 300340Z AUTO 16004KT 10SM BKN065 BKN080 25/21 A3008 -60 79 1100 160/04 RMK AO2 T02500211
13942KMLU MLU20190929214511809/29/19 21:45:31  5-MIN KMLU 300345Z AUTO 17004KT 10SM SCT060 BKN080 26/21 A3008 -70 71 1200 170/04 RMK AO2 T02610206
13942KMLU MLU20190929215012509/29/19 21:50:31  5-MIN KMLU 300350Z AUTO 16004KT 10SM FEW060 SCT080 26/20 A3009 -70 68 1200 160/04 RMK AO2 SLP186 T02610200
13942KMLU MLU20190929215511809/29/19 21:55:31  5-MIN KMLU 300355Z AUTO 17004KT 10SM FEW060 SCT080 27/20 A3008 -70 66 1300 170/04 RMK AO2 T02670200
13942KMLU MLU20190929220011109/29/19 22:00:31  5-MIN KMLU 300400Z AUTO 17004KT 10SM FEW060 26/20 A3009 -70 68 1200 170/04 RMK AO2 T02610200
13942KMLU MLU20190929220510809/29/19 22:05:31  5-MIN KMLU 300405Z AUTO 15003KT 10SM CLR 26/20 A3009 -70 68 1200 150/03 RMK AO2 T02610200
13942KMLU MLU20190929221010809/29/19 22:10:31  5-MIN KMLU 300410Z AUTO 15003KT 10SM CLR 26/20 A3009 -70 71 1200 150/03 RMK AO2 T02560200
13942KMLU MLU20190929221510809/29/19 22:15:31  5-MIN KMLU 300415Z AUTO VRB03KT 10SM CLR 26/21 A3009 -70 73 1200 VRB/03 RMK AO2 T02560206
13942KMLU MLU20190929222010809/29/19 22:20:31  5-MIN KMLU 300420Z AUTO 14003KT 10SM CLR 26/21 A3009 -70 73 1200 140/03 RMK AO2 T02560206
13942KMLU MLU20190929222510809/29/19 22:25:31  5-MIN KMLU 300425Z AUTO 15003KT 10SM CLR 25/21 A3009 -70 76 1100 150/03 RMK AO2 T02500206
13942KMLU MLU20190929223010809/29/19 22:30:31  5-MIN KMLU 300430Z AUTO 14003KT 10SM CLR 26/21 A3009 -70 73 1200 140/03 RMK AO2 T02560206
13942KMLU MLU20190929223510809/29/19 22:35:31  5-MIN KMLU 300435Z AUTO 15004KT 10SM CLR 26/21 A3009 -70 73 1200 150/04 RMK AO2 T02560206
13942KMLU MLU20190929224010809/29/19 22:40:31  5-MIN KMLU 300440Z AUTO 16005KT 10SM CLR 26/21 A3009 -70 73 1200 160/05 RMK AO2 T02610211
13942KMLU MLU20190929224510809/29/19 22:45:31  5-MIN KMLU 300445Z AUTO 16003KT 10SM CLR 26/21 A3009 -70 73 1200 160/03 RMK AO2 T02610211
13942KMLU MLU20190929225011509/29/19 22:50:31  5-MIN KMLU 300450Z AUTO 15003KT 10SM CLR 26/21 A3009 -70 76 1200 150/03 RMK AO2 SLP189 T02560211
13942KMLU MLU20190929225510809/29/19 22:55:31  5-MIN KMLU 300455Z AUTO 00000KT 10SM CLR 25/21 A3009 -70 79 1100 000/00 RMK AO2 T02500211
13942KMLU MLU20190929230010809/29/19 23:00:31  5-MIN KMLU 300500Z AUTO 00000KT 10SM CLR 24/21 A3009 -70 81 1000 000/00 RMK AO2 T02440211
13942KMLU MLU20190929230510809/29/19 23:05:31  5-MIN KMLU 300505Z AUTO 00000KT 10SM CLR 25/21 A3009 -70 79 1100 000/00 RMK AO2 T02500211
13942KMLU MLU20190929231010809/29/19 23:10:31  5-MIN KMLU 300510Z AUTO 00000KT 10SM CLR 25/21 A3009 -70 79 1100 000/00 RMK AO2 T02500211
13942KMLU MLU20190929231510809/29/19 23:15:31  5-MIN KMLU 300515Z AUTO 00000KT 10SM CLR 24/21 A3009 -70 81 1000 000/00 RMK AO2 T02440211
13942KMLU MLU20190929232010809/29/19 23:20:31  5-MIN KMLU 300520Z AUTO 17003KT 10SM CLR 25/21 A3009 -70 79 1100 170/03 RMK AO2 T02500211
13942KMLU MLU20190929232510809/29/19 23:25:31  5-MIN KMLU 300525Z AUTO 17003KT 10SM CLR 26/21 A3009 -70 76 1200 170/03 RMK AO2 T02560211
13942KMLU MLU20190929233010809/29/19 23:30:31  5-MIN KMLU 300530Z AUTO 17003KT 10SM CLR 26/22 A3009 -70 79 1200 170/03 RMK AO2 T02560217
13942KMLU MLU20190929233510809/29/19 23:35:31  5-MIN KMLU 300535Z AUTO 00000KT 10SM CLR 26/22 A3009 -70 79 1200 000/00 RMK AO2 T02560217
13942KMLU MLU20190929234010809/29/19 23:40:31  5-MIN KMLU 300540Z AUTO 00000KT 10SM CLR 26/22 A3009 -70 79 1200 000/00 RMK AO2 T02560217
13942KMLU MLU20190929234510809/29/19 23:45:31  5-MIN KMLU 300545Z AUTO 16003KT 10SM CLR 26/22 A3009 -70 79 1200 160/03 RMK AO2 T02560217
13942KMLU MLU20190929235014309/29/19 23:50:31  5-MIN KMLU 300550Z AUTO 15003KT 10SM CLR 25/22 A3009 -70 81 1100 150/03 RMK AO2 SLP188 T02500217 10306 20244 403560194 53016
13942KMLU MLU20190929235510809/29/19 23:55:31  5-MIN KMLU 300555Z AUTO 16003KT 10SM CLR 25/22 A3009 -70 81 1100 160/03 RMK AO2 T02500217
13942KMLU MLU20190930000010809/30/19 00:00:31  5-MIN KMLU 300600Z AUTO 00000KT 10SM CLR 25/22 A3009 -70 81 1100 000/00 RMK AO2 T02500217
13942KMLU MLU20190930000510809/30/19 00:05:31  5-MIN KMLU 300605Z AUTO 00000KT 10SM CLR 24/22 A3009 -70 84 1000 000/00 RMK AO2 T02440217
13942KMLU MLU20190930001010809/30/19 00:10:31  5-MIN KMLU 300610Z AUTO 00000KT 10SM CLR 24/22 A3009 -70 84 1000 000/00 RMK AO2 T02440217
13942KMLU MLU20190930001510809/30/19 00:15:31  5-MIN KMLU 300615Z AUTO 00000KT 10SM CLR 24/22 A3009 -70 84 1000 000/00 RMK AO2 T02440217
13942KMLU MLU20190930002010809/30/19 00:20:31  5-MIN KMLU 300620Z AUTO 00000KT 10SM CLR 24/22 A3009 -70 84 1000 000/00 RMK AO2 T02440217
13942KMLU MLU20190930002510809/30/19 00:25:31  5-MIN KMLU 300625Z AUTO 00000KT 10SM CLR 24/22 A3009 -70 84 1000 000/00 RMK AO2 T02440217
13942KMLU MLU20190930003010809/30/19 00:30:31  5-MIN KMLU 300630Z AUTO 00000KT 10SM CLR 24/22 A3009 -70 87 1000 000/00 RMK AO2 T02440222
13942KMLU MLU20190930003510809/30/19 00:35:31  5-MIN KMLU 300635Z AUTO 00000KT 10SM CLR 24/22 A3009 -70 87 1000 000/00 RMK AO2 T02440222
13942KMLU MLU20190930004010809/30/19 00:40:31  5-MIN KMLU 300640Z AUTO 00000KT 10SM CLR 24/22 A3009 -70 87 1000 000/00 RMK AO2 T02440222
13942KMLU MLU20190930004510809/30/19 00:45:31  5-MIN KMLU 300645Z AUTO 17003KT 10SM CLR 24/22 A3009 -70 87 1000 170/03 RMK AO2 T02440222
13942KMLU MLU20190930005011509/30/19 00:50:31  5-MIN KMLU 300650Z AUTO 00000KT 10SM CLR 24/22 A3009 -70 87 1000 000/00 RMK AO2 SLP187 T02440222
13942KMLU MLU20190930005510809/30/19 00:55:31  5-MIN KMLU 300655Z AUTO 00000KT 10SM CLR 24/22 A3009 -70 87 1000 000/00 RMK AO2 T02440222
13942KMLU MLU20190930010010809/30/19 01:00:31  5-MIN KMLU 300700Z AUTO 00000KT 10SM CLR 24/22 A3009 -70 87 1000 000/00 RMK AO2 T02440222
13942KMLU MLU20190930010510809/30/19 01:05:31  5-MIN KMLU 300705Z AUTO 00000KT 10SM CLR 24/22 A3009 -70 90 1000 000/00 RMK AO2 T02390222
13942KMLU MLU20190930011010809/30/19 01:10:31  5-MIN KMLU 300710Z AUTO 00000KT 10SM CLR 24/22 A3009 -70 90 1000 000/00 RMK AO2 T02390222
13942KMLU MLU20190930011510809/30/19 01:15:31  5-MIN KMLU 300715Z AUTO 00000KT 10SM CLR 24/22 A3009 -70 90 1000 000/00 RMK AO2 T02390222
13942KMLU MLU20190930012010809/30/19 01:20:31  5-MIN KMLU 300720Z AUTO 00000KT 10SM CLR 24/22 A3009 -70 90 1000 000/00 RMK AO2 T02390222
13942KMLU MLU20190930012510809/30/19 01:25:31  5-MIN KMLU 300725Z AUTO 00000KT 10SM CLR 24/22 A3009 -70 87 1000 000/00 RMK AO2 T02390217
13942KMLU MLU20190930013010709/30/19 01:30:31  5-MIN KMLU 300730Z AUTO 00000KT 10SM CLR 23/22 A3009 -70 90 900 000/00 RMK AO2 T02330217
13942KMLU MLU20190930013510709/30/19 01:35:31  5-MIN KMLU 300735Z AUTO 00000KT 10SM CLR 23/22 A3009 -70 90 900 000/00 RMK AO2 T02330217
13942KMLU MLU20190930014010709/30/19 01:40:31  5-MIN KMLU 300740Z AUTO 00000KT 10SM CLR 23/22 A3009 -70 93 900 000/00 RMK AO2 T02330222
13942KMLU MLU20190930014510709/30/19 01:45:31  5-MIN KMLU 300745Z AUTO 00000KT 10SM CLR 23/22 A3009 -70 90 900 000/00 RMK AO2 T02330217
13942KMLU MLU20190930015011409/30/19 01:50:31  5-MIN KMLU 300750Z AUTO 00000KT 10SM CLR 23/22 A3009 -70 90 900 000/00 RMK AO2 SLP187 T02330217
13942KMLU MLU20190930015510709/30/19 01:55:31  5-MIN KMLU 300755Z AUTO 00000KT 10SM CLR 23/22 A3009 -70 90 900 000/00 RMK AO2 T02330217
13942KMLU MLU20190930020010709/30/19 02:00:31  5-MIN KMLU 300800Z AUTO 00000KT 10SM CLR 23/22 A3009 -70 93 900 000/00 RMK AO2 T02330222
13942KMLU MLU20190930020510709/30/19 02:05:31  5-MIN KMLU 300805Z AUTO 00000KT 10SM CLR 23/22 A3009 -70 93 900 000/00 RMK AO2 T02330222
13942KMLU MLU20190930021010709/30/19 02:10:31  5-MIN KMLU 300810Z AUTO 00000KT 10SM CLR 23/22 A3009 -70 97 900 000/00 RMK AO2 T02280222
13942KMLU MLU20190930021511009/30/19 02:15:31  5-MIN KMLU 300815Z AUTO 00000KT 10SM FEW080 23/22 A3009 -70 93 900 000/00 RMK AO2 T02330222
13942KMLU MLU20190930022010909/30/19 02:20:31  5-MIN KMLU 300820Z AUTO 00000KT 9SM SCT080 23/22 A3009 -70 93 900 000/00 RMK AO2 T02280217
13942KMLU MLU20190930022510909/30/19 02:25:31  5-MIN KMLU 300825Z AUTO 00000KT 9SM BKN080 23/22 A3009 -70 93 900 000/00 RMK AO2 T02330222
13942KMLU MLU20190930023010909/30/19 02:30:31  5-MIN KMLU 300830Z AUTO 00000KT 9SM BKN075 23/22 A3009 -70 97 900 000/00 RMK AO2 T02280222
13942KMLU MLU20190930023510909/30/19 02:35:31  5-MIN KMLU 300835Z AUTO 00000KT 9SM BKN075 23/22 A3009 -70 93 900 000/00 RMK AO2 T02330222
13942KMLU MLU20190930024011009/30/19 02:40:31  5-MIN KMLU 300840Z AUTO 00000KT 10SM OVC075 23/22 A3009 -70 93 900 000/00 RMK AO2 T02330222
13942KMLU MLU20190930024511009/30/19 02:45:31  5-MIN KMLU 300845Z AUTO 00000KT 10SM OVC075 23/22 A3009 -70 93 900 000/00 RMK AO2 T02330222
13942KMLU MLU20190930025012309/30/19 02:50:31  5-MIN KMLU 300850Z AUTO 00000KT 10SM OVC075 23/22 A3009 -70 93 900 000/00 RMK AO2 SLP188 T02330222 50006
13942KMLU MLU20190930025511009/30/19 02:55:31  5-MIN KMLU 300855Z AUTO 00000KT 10SM OVC075 23/22 A3009 -70 93 900 000/00 RMK AO2 T02330222
13942KMLU MLU20190930030011009/30/19 03:00:31  5-MIN KMLU 300900Z AUTO 00000KT 10SM OVC075 23/22 A3009 -70 93 900 000/00 RMK AO2 T02330222
13942KMLU MLU20190930030511009/30/19 03:05:31  5-MIN KMLU 300905Z AUTO 00000KT 10SM OVC075 23/22 A3009 -70 93 900 000/00 RMK AO2 T02330222
13942KMLU MLU20190930031011109/30/19 03:10:31  5-MIN KMLU 300910Z AUTO 00000KT 10SM OVC075 24/22 A3009 -70 90 1000 000/00 RMK AO2 T02390222
13942KMLU MLU20190930031511109/30/19 03:15:31  5-MIN KMLU 300915Z AUTO 00000KT 10SM OVC075 24/22 A3009 -70 90 1000 000/00 RMK AO2 T02390222
13942KMLU MLU20190930032011109/30/19 03:20:31  5-MIN KMLU 300920Z AUTO 00000KT 10SM OVC075 24/22 A3009 -70 90 1000 000/00 RMK AO2 T02390222
13942KMLU MLU20190930032511109/30/19 03:25:31  5-MIN KMLU 300925Z AUTO 00000KT 10SM OVC075 24/23 A3009 -70 93 1000 000/00 RMK AO2 T02390228
13942KMLU MLU20190930033011109/30/19 03:30:31  5-MIN KMLU 300930Z AUTO 00000KT 10SM OVC075 24/22 A3009 -70 90 1000 000/00 RMK AO2 T02390222
13942KMLU MLU20190930033511109/30/19 03:35:31  5-MIN KMLU 300935Z AUTO 00000KT 10SM OVC075 24/23 A3009 -70 93 1000 000/00 RMK AO2 T02390228
13942KMLU MLU20190930034011109/30/19 03:40:31  5-MIN KMLU 300940Z AUTO 00000KT 10SM OVC075 24/23 A3009 -70 93 1000 000/00 RMK AO2 T02390228
13942KMLU MLU20190930034511109/30/19 03:45:31  5-MIN KMLU 300945Z AUTO 00000KT 10SM OVC075 24/23 A3009 -70 90 1000 000/00 RMK AO2 T02440228
13942KMLU MLU20190930035011809/30/19 03:50:31  5-MIN KMLU 300950Z AUTO 00000KT 10SM OVC080 24/22 A3009 -70 87 1000 000/00 RMK AO2 SLP187 T02440222
13942KMLU MLU20190930035511109/30/19 03:55:31  5-MIN KMLU 300955Z AUTO 00000KT 10SM OVC080 24/22 A3009 -70 87 1000 000/00 RMK AO2 T02440222
13942KMLU MLU20190930040011109/30/19 04:00:31  5-MIN KMLU 301000Z AUTO 00000KT 10SM BKN080 24/23 A3009 -70 90 1000 000/00 RMK AO2 T02440228
13942KMLU MLU20190930040511109/30/19 04:05:31  5-MIN KMLU 301005Z AUTO 00000KT 10SM BKN080 24/22 A3009 -70 90 1000 000/00 RMK AO2 T02390222
13942KMLU MLU20190930041011109/30/19 04:10:31  5-MIN KMLU 301010Z AUTO 00000KT 10SM SCT080 24/22 A3009 -70 90 1000 000/00 RMK AO2 T02390222
13942KMLU MLU20190930041511009/30/19 04:15:31  5-MIN KMLU 301015Z AUTO 00000KT 10SM SCT080 23/22 A3009 -70 93 900 000/00 RMK AO2 T02330222
13942KMLU MLU20190930042011009/30/19 04:20:31  5-MIN KMLU 301020Z AUTO 00000KT 10SM FEW080 23/22 A3009 -70 93 900 000/00 RMK AO2 T02330222
13942KMLU MLU20190930042510709/30/19 04:25:31  5-MIN KMLU 301025Z AUTO 00000KT 10SM CLR 23/22 A3009 -70 93 900 000/00 RMK AO2 T02330222
13942KMLU MLU20190930043010609/30/19 04:30:31  5-MIN KMLU 301030Z AUTO 00000KT 9SM CLR 23/22 A3009 -70 97 900 000/00 RMK AO2 T02280222
13942KMLU MLU20190930043510609/30/19 04:35:31  5-MIN KMLU 301035Z AUTO 00000KT 8SM CLR 23/22 A3009 -70 93 900 000/00 RMK AO2 T02330222
13942KMLU MLU20190930044010609/30/19 04:40:31  5-MIN KMLU 301040Z AUTO 00000KT 7SM CLR 23/22 A3009 -70 93 900 000/00 RMK AO2 T02330222
13942KMLU MLU20190930044510909/30/19 04:45:31  5-MIN KMLU 301045Z AUTO 00000KT 6SM BR CLR 23/22 A3009 -70 93 900 000/00 RMK AO2 T02330222
13942KMLU MLU20190930045011109/30/19 04:50:31  5-MIN KMLU 301050Z 00000KT 4SM BR CLR 23/22 A3009 -70 97 900 000/00 RMK AO2 SLP189 T02280222
13942KMLU MLU20190930045510409/30/19 04:55:31  5-MIN KMLU 301055Z 00000KT 5SM BR CLR 22/22 A3009 -70 97 800 000/00 RMK AO2 T02220217
13942KMLU MLU20190930050010409/30/19 05:00:31  5-MIN KMLU 301100Z 00000KT 5SM BR CLR 23/22 A3009 -70 93 800 000/00 RMK AO2 T02280217
13942KMLU MLU20190930050510409/30/19 05:05:31  5-MIN KMLU 301105Z 00000KT 5SM BR CLR 23/22 A3010 -80 97 800 000/00 RMK AO2 T02280222
13942KMLU MLU20190930051010409/30/19 05:10:31  5-MIN KMLU 301110Z 00000KT 5SM BR CLR 23/22 A3010 -80 97 800 000/00 RMK AO2 T02280222
13942KMLU MLU20190930051510409/30/19 05:15:31  5-MIN KMLU 301115Z 00000KT 5SM BR CLR 23/22 A3010 -80 93 800 000/00 RMK AO2 T02280217
13942KMLU MLU20190930052010409/30/19 05:20:31  5-MIN KMLU 301120Z 00000KT 5SM BR CLR 22/22 A3010 -80 97 800 000/00 RMK AO2 T02220217
13942KMLU MLU20190930052510409/30/19 05:25:31  5-MIN KMLU 301125Z 00000KT 5SM BR CLR 22/21 A3010 -80 93 800 000/00 RMK AO2 T02220211
13942KMLU MLU20190930053010409/30/19 05:30:31  5-MIN KMLU 301130Z 00000KT 5SM BR CLR 22/21 A3010 -80 93 800 000/00 RMK AO2 T02220211
13942KMLU MLU20190930053510409/30/19 05:35:31  5-MIN KMLU 301135Z 00000KT 5SM BR CLR 22/22 A3010 -80 97 800 000/00 RMK AO2 T02220217
13942KMLU MLU20190930054010409/30/19 05:40:31  5-MIN KMLU 301140Z 00000KT 5SM BR CLR 22/22 A3010 -80 97 800 000/00 RMK AO2 T02220217
13942KMLU MLU20190930054510409/30/19 05:45:31  5-MIN KMLU 301145Z 00000KT 5SM BR CLR 22/21 A3010 -80 93 800 000/00 RMK AO2 T02220211
13942KMLU MLU20190930055012909/30/19 05:50:31  5-MIN KMLU 301150Z 00000KT 5SM BR CLR 22/21 A3010 -80 97 700 000/00 RMK AO2 SLP192 T02170211 10250 20217 53000
13942KMLU MLU20190930055510809/30/19 05:55:31  5-MIN KMLU 301155Z 00000KT 1 3/4SM FEW003 22/21 A3010 -80 93 700 000/00 RMK AO2 T02170206
13942KMLU MLU20190930060010209/30/19 06:00:31  5-MIN KMLU 301200Z 12003KT 10SM CLR 22/21 A3010 -80 97 700 120/03 RMK AO2 T02170211
13942KMLU MLU20190930060510209/30/19 06:05:31  5-MIN KMLU 301205Z 00000KT 10SM CLR 22/21 A3010 -80 93 700 000/00 RMK AO2 T02170206
13942KMLU MLU20190930061010209/30/19 06:10:31  5-MIN KMLU 301210Z 00000KT 10SM CLR 22/21 A3011 -80 97 700 000/00 RMK AO2 T02170211
13942KMLU MLU20190930061510209/30/19 06:15:31  5-MIN KMLU 301215Z 00000KT 10SM CLR 22/21 A3011 -90 97 700 000/00 RMK AO2 T02170211
13942KMLU MLU20190930062010209/30/19 06:20:31  5-MIN KMLU 301220Z 00000KT 10SM CLR 22/21 A3011 -90 97 700 000/00 RMK AO2 T02170211
13942KMLU MLU20190930062510209/30/19 06:25:31  5-MIN KMLU 301225Z 00000KT 10SM CLR 22/21 A3011 -90 93 800 000/00 RMK AO2 T02220211
13942KMLU MLU20190930063010209/30/19 06:30:31  5-MIN KMLU 301230Z 00000KT 10SM CLR 22/22 A3011 -90 97 800 000/00 RMK AO2 T02220217
13942KMLU MLU20190930063510209/30/19 06:35:31  5-MIN KMLU 301235Z 00000KT 10SM CLR 22/22 A3011 -90 97 800 000/00 RMK AO2 T02220217
13942KMLU MLU20190930064010209/30/19 06:40:31  5-MIN KMLU 301240Z 00000KT 10SM CLR 23/22 A3011 -90 97 800 000/00 RMK AO2 T02280222
13942KMLU MLU20190930064510209/30/19 06:45:31  5-MIN KMLU 301245Z 00000KT 10SM CLR 23/22 A3011 -90 93 900 000/00 RMK AO2 T02330222
13942KMLU MLU20190930065010909/30/19 06:50:31  5-MIN KMLU 301250Z 00000KT 10SM CLR 23/23 A3011 -90 97 900 000/00 RMK AO2 SLP194 T02330228
13942KMLU MLU20190930065510209/30/19 06:55:31  5-MIN KMLU 301255Z VRB03KT 9SM CLR 24/23 A3011 -90 93 1000 VRB/03 RMK AO2 T02390228
13942KMLU MLU20190930070010309/30/19 07:00:31  5-MIN KMLU 301300Z 14003KT 10SM CLR 24/23 A3011 -90 90 1000 140/03 RMK AO2 T02440228
13942KMLU MLU20190930070510409/30/19 07:05:31  5-MIN KMLU 301305Z 13003KT 10SM CLR 24/23 A3012 -100 93 1000 130/03 RMK AO2 T02440233
13942KMLU MLU20190930071010409/30/19 07:10:31  5-MIN KMLU 301310Z VRB04KT 10SM CLR 25/23 A3012 -100 90 1100 VRB/04 RMK AO2 T02500233
13942KMLU MLU20190930071510409/30/19 07:15:31  5-MIN KMLU 301315Z 15004KT 10SM CLR 25/23 A3012 -100 90 1100 150/04 RMK AO2 T02500233
13942KMLU MLU20190930072010409/30/19 07:20:31  5-MIN KMLU 301320Z 14003KT 10SM CLR 25/23 A3012 -100 90 1100 140/03 RMK AO2 T02500233
13942KMLU MLU20190930072510409/30/19 07:25:31  5-MIN KMLU 301325Z 15004KT 10SM CLR 26/23 A3012 -100 87 1100 150/04 RMK AO2 T02560233
13942KMLU MLU20190930073010409/30/19 07:30:31  5-MIN KMLU 301330Z VRB03KT 10SM CLR 26/23 A3012 -100 87 1100 VRB/03 RMK AO2 T02560233
13942KMLU MLU20190930073510409/30/19 07:35:31  5-MIN KMLU 301335Z 15003KT 10SM CLR 26/23 A3012 -100 84 1200 150/03 RMK AO2 T02610233
13942KMLU MLU20190930074010409/30/19 07:40:31  5-MIN KMLU 301340Z 18003KT 10SM CLR 26/24 A3012 -100 87 1200 180/03 RMK AO2 T02610239
13942KMLU MLU20190930074510409/30/19 07:45:31  5-MIN KMLU 301345Z VRB03KT 10SM CLR 27/24 A3012 -100 84 1300 VRB/03 RMK AO2 T02670239
13942KMLU MLU20190930075011109/30/19 07:50:31  5-MIN KMLU 301350Z 17006KT 10SM CLR 27/23 A3012 -100 82 1300 170/06 RMK AO2 SLP199 T02670233
13942KMLU MLU20190930075510409/30/19 07:55:31  5-MIN KMLU 301355Z 17005KT 10SM CLR 27/23 A3013 -100 82 1300 170/05 RMK AO2 T02670233
13942KMLU MLU20190930080010409/30/19 08:00:31  5-MIN KMLU 301400Z 16005KT 10SM CLR 27/24 A3013 -100 84 1300 160/05 RMK AO2 T02670239
13942KMLU MLU20190930080510409/30/19 08:05:31  5-MIN KMLU 301405Z 16004KT 10SM CLR 27/24 A3013 -100 82 1300 150/04 RMK AO2 T02720239
13942KMLU MLU20190930081010409/30/19 08:10:31  5-MIN KMLU 301410Z 17007KT 10SM CLR 27/24 A3013 -100 82 1300 170/07 RMK AO2 T02720239
13942KMLU MLU20190930081510409/30/19 08:15:31  5-MIN KMLU 301415Z VRB04KT 10SM CLR 28/24 A3013 -100 79 1400 VRB/04 RMK AO2 T02780239
13942KMLU MLU20190930082010409/30/19 08:20:31  5-MIN KMLU 301420Z 14004KT 10SM CLR 28/24 A3012 -100 79 1400 140/04 RMK AO2 T02780239
13942KMLU MLU20190930082510409/30/19 08:25:31  5-MIN KMLU 301425Z 19006KT 10SM CLR 28/24 A3012 -100 76 1400 190/06 RMK AO2 T02830239
13942KMLU MLU20190930083010409/30/19 08:30:31  5-MIN KMLU 301430Z 18006KT 10SM CLR 28/24 A3013 -100 76 1400 180/06 RMK AO2 T02830239
13942KMLU MLU20190930083510409/30/19 08:35:31  5-MIN KMLU 301435Z 18006KT 10SM CLR 28/24 A3013 -110 76 1400 180/06 RMK AO2 T02830239
13942KMLU MLU20190930084010409/30/19 08:40:31  5-MIN KMLU 301440Z 20006KT 10SM CLR 29/24 A3013 -110 74 1500 200/06 RMK AO2 T02890239
13942KMLU MLU20190930084510409/30/19 08:45:31  5-MIN KMLU 301445Z VRB06KT 10SM CLR 29/24 A3013 -110 74 1500 VRB/06 RMK AO2 T02890239
13942KMLU MLU20190930085011709/30/19 08:50:31  5-MIN KMLU 301450Z 19005KT 10SM CLR 29/24 A3013 -110 71 1600 190/05 RMK AO2 SLP201 T02940239 53004
13942KMLU MLU20190930085510409/30/19 08:55:31  5-MIN KMLU 301455Z 17006KT 10SM CLR 29/24 A3013 -110 71 1600 170/06 RMK AO2 T02940239
13942KMLU MLU20190930090010409/30/19 09:00:31  5-MIN KMLU 301500Z VRB04KT 10SM CLR 29/24 A3013 -110 71 1600 VRB/04 RMK AO2 T02940239
13942KMLU MLU20190930090510409/30/19 09:05:31  5-MIN KMLU 301505Z VRB03KT 10SM CLR 30/24 A3013 -110 69 1600 VRB/03 RMK AO2 T03000239
13942KMLU MLU20190930091010409/30/19 09:10:31  5-MIN KMLU 301510Z 14005KT 10SM CLR 30/24 A3013 -110 69 1600 140/05 RMK AO2 T03000239
13942KMLU MLU20190930091510409/30/19 09:15:31  5-MIN KMLU 301515Z 16005KT 10SM CLR 30/23 A3013 -110 67 1600 160/05 RMK AO2 T03000233
13942KMLU MLU20190930092010409/30/19 09:20:31  5-MIN KMLU 301520Z 14005KT 10SM CLR 31/23 A3013 -110 62 1700 140/05 RMK AO2 T03060228
13942KMLU MLU20190930092510409/30/19 09:25:31  5-MIN KMLU 301525Z VRB04KT 10SM CLR 31/23 A3013 -110 63 1700 VRB/04 RMK AO2 T03110233
13942KMLU MLU20190930093010409/30/19 09:30:31  5-MIN KMLU 301530Z 18006KT 10SM CLR 31/23 A3013 -110 62 1700 170/06 RMK AO2 T03060228
13942KMLU MLU20190930093510409/30/19 09:35:31  5-MIN KMLU 301535Z 15005KT 10SM CLR 31/22 A3013 -110 58 1700 150/05 RMK AO2 T03110222
13942KMLU MLU20190930094010409/30/19 09:40:31  5-MIN KMLU 301540Z VRB06KT 10SM CLR 31/22 A3013 -110 56 1700 VRB/06 RMK AO2 T03110217
13942KMLU MLU20190930094510409/30/19 09:45:31  5-MIN KMLU 301545Z 18005KT 10SM CLR 31/22 A3013 -110 56 1700 180/05 RMK AO2 T03110217
13942KMLU MLU20190930095011109/30/19 09:50:31  5-MIN KMLU 301550Z 15004KT 10SM CLR 31/21 A3013 -110 54 1700 140/04 RMK AO2 SLP202 T03110211
13942KMLU MLU20190930095510409/30/19 09:55:31  5-MIN KMLU 301555Z VRB04KT 10SM CLR 31/21 A3013 -100 54 1800 VRB/04 RMK AO2 T03110211
13942KMLU MLU20190930100010409/30/19 10:00:31  5-MIN KMLU 301600Z VRB04KT 10SM CLR 32/21 A3012 -100 53 1800 VRB/04 RMK AO2 T03170211
13942KMLU MLU20190930100510409/30/19 10:05:31  5-MIN KMLU 301605Z 14006KT 10SM CLR 32/21 A3013 -100 51 1900 140/06 RMK AO2 T03220211
13942KMLU MLU20190930101011009/30/19 10:10:31  5-MIN KMLU 301610Z 17009G14KT 10SM CLR 32/20 A3012 -100 48 1900 170/09G14 RMK AO2 T03220200
13942KMLU MLU20190930101510709/30/19 10:15:31  5-MIN KMLU 301615Z 18010KT 10SM SCT050 32/19 A3012 -100 46 1900 180/10 RMK AO2 T03220194
13942KMLU MLU20190930102011309/30/19 10:20:31  5-MIN KMLU 301620Z 18010G15KT 10SM SCT050 33/19 A3012 -100 44 1900 180/10G15 RMK AO2 T03280194
13942KMLU MLU20190930102510709/30/19 10:25:31  5-MIN KMLU 301625Z 19010KT 10SM SCT050 33/19 A3012 -100 44 1900 190/10 RMK AO2 T03280194
13942KMLU MLU20190930103010709/30/19 10:30:31  5-MIN KMLU 301630Z 20008KT 10SM SCT050 33/19 A3012 -100 44 1900 200/08 RMK AO2 T03280194
13942KMLU MLU20190930103512309/30/19 10:35:31  5-MIN KMLU 301635Z 13007KT 100V190 10SM SCT050 32/20 A3012 -100 48 1900 130/07 100V190 RMK AO2 T03220200
13942KMLU MLU20190930104010709/30/19 10:40:31  5-MIN KMLU 301640Z 16007KT 10SM SCT050 33/20 A3012 -100 46 1900 150/07 RMK AO2 T03280200
13942KMLU MLU20190930104510709/30/19 10:45:31  5-MIN KMLU 301645Z VRB05KT 10SM SCT050 33/20 A3012 -100 46 1900 VRB/05 RMK AO2 T03280200
13942KMLU MLU20190930105011409/30/19 10:50:31  5-MIN KMLU 301650Z VRB06KT 10SM SCT065 33/19 A3012 -100 44 1900 VRB/06 RMK AO2 SLP197 T03280194
13942KMLU MLU20190930105510409/30/19 10:55:31  5-MIN KMLU 301655Z VRB03KT 10SM CLR 33/19 A3012 -100 44 1900 VRB/03 RMK AO2 T03280194
13942KMLU MLU20190930110010409/30/19 11:00:31  5-MIN KMLU 301700Z VRB05KT 10SM CLR 33/19 A3012 -100 44 1900 VRB/05 RMK AO2 T03280194
13942KMLU MLU20190930110510309/30/19 11:05:31  5-MIN KMLU 301705Z VRB05KT 10SM CLR 33/19 A3011 -90 43 2000 VRB/05 RMK AO2 T03330194
13942KMLU MLU20190930111010309/30/19 11:10:31  5-MIN KMLU 301710Z VRB05KT 10SM CLR 33/19 A3011 -90 43 2000 VRB/05 RMK AO2 T03330194
13942KMLU MLU20190930111510309/30/19 11:15:31  5-MIN KMLU 301715Z VRB03KT 10SM CLR 33/19 A3011 -90 43 2000 VRB/03 RMK AO2 T03330194
13942KMLU MLU20190930112010309/30/19 11:20:31  5-MIN KMLU 301720Z 16006KT 10SM CLR 33/20 A3011 -90 45 2000 160/06 RMK AO2 T03330200
13942KMLU MLU20190930112510309/30/19 11:25:31  5-MIN KMLU 301725Z 19008KT 10SM CLR 34/19 A3011 -80 42 2100 180/08 RMK AO2 T03390194
13942KMLU MLU20190930113010309/30/19 11:30:31  5-MIN KMLU 301730Z 17009KT 10SM CLR 34/19 A3010 -80 42 2100 170/09 RMK AO2 T03390194
13942KMLU MLU20190930113510309/30/19 11:35:31  5-MIN KMLU 301735Z 19006KT 10SM CLR 33/19 A3010 -80 42 2000 190/06 RMK AO2 T03330189
13942KMLU MLU20190930114010309/30/19 11:40:31  5-MIN KMLU 301740Z 17006KT 10SM CLR 33/19 A3010 -80 42 2000 170/06 RMK AO2 T03330189
13942KMLU MLU20190930114510309/30/19 11:45:31  5-MIN KMLU 301745Z VRB05KT 10SM CLR 33/19 A3010 -80 43 2000 VRB/05 RMK AO2 T03330194
13942KMLU MLU20190930115012809/30/19 11:50:31  5-MIN KMLU 301750Z 00000KT 10SM CLR 34/19 A3009 -70 42 2100 000/00 RMK AO2 SLP189 T03390194 10339 20217 51009
13942KMLU MLU20190930115510309/30/19 11:55:31  5-MIN KMLU 301755Z 00000KT 10SM CLR 34/19 A3009 -70 40 2200 000/00 RMK AO2 T03440194
13942KMLU MLU20190930120010309/30/19 12:00:31  5-MIN KMLU 301800Z VRB05KT 10SM CLR 34/19 A3009 -70 40 2100 VRB/05 RMK AO2 T03390189
13942KMLU MLU20190930120510309/30/19 12:05:31  5-MIN KMLU 301805Z 13006KT 10SM CLR 34/19 A3009 -70 40 2200 130/06 RMK AO2 T03440194
13942KMLU MLU20190930121010309/30/19 12:10:31  5-MIN KMLU 301810Z 00000KT 10SM CLR 34/18 A3008 -70 39 2100 000/00 RMK AO2 T03390183
13942KMLU MLU20190930121510309/30/19 12:15:31  5-MIN KMLU 301815Z 09005KT 10SM CLR 34/18 A3008 -60 38 2200 080/05 RMK AO2 T03440183
13942KMLU MLU20190930122011909/30/19 12:20:31  5-MIN KMLU 301820Z 15007KT 130V190 10SM CLR 34/18 A3008 -60 38 2200 150/07 130V190 RMK AO2 T03440183
13942KMLU MLU20190930122511909/30/19 12:25:31  5-MIN KMLU 301825Z 16009KT 110V180 10SM CLR 34/18 A3008 -60 39 2100 150/09 110V180 RMK AO2 T03390183
13942KMLU MLU20190930123010309/30/19 12:30:31  5-MIN KMLU 301830Z VRB05KT 10SM CLR 34/18 A3007 -60 36 2200 VRB/05 RMK AO2 T03440178
13942KMLU MLU20190930123510309/30/19 12:35:31  5-MIN KMLU 301835Z 10007KT 10SM CLR 35/18 A3007 -50 35 2200 100/07 RMK AO2 T03500178
13942KMLU MLU20190930124010309/30/19 12:40:31  5-MIN KMLU 301840Z VRB03KT 10SM CLR 35/18 A3007 -50 36 2200 VRB/03 RMK AO2 T03500183
13942KMLU MLU20190930124510309/30/19 12:45:31  5-MIN KMLU 301845Z VRB06KT 10SM CLR 34/18 A3007 -50 36 2200 VRB/06 RMK AO2 T03440178
13942KMLU MLU20190930125011009/30/19 12:50:31  5-MIN KMLU 301850Z 17008KT 10SM CLR 35/18 A3006 -50 35 2300 170/08 RMK AO2 SLP179 T03500178
13942KMLU MLU20190930125510309/30/19 12:55:31  5-MIN KMLU 301855Z 18007KT 10SM CLR 35/18 A3006 -50 35 2300 180/07 RMK AO2 T03500178
13942KMLU MLU20190930130010309/30/19 13:00:31  5-MIN KMLU 301900Z 16007KT 10SM CLR 35/18 A3006 -40 35 2300 160/07 RMK AO2 T03500178
13942KMLU MLU20190930130510309/30/19 13:05:31  5-MIN KMLU 301905Z VRB06KT 10SM CLR 34/18 A3006 -40 36 2200 VRB/06 RMK AO2 T03440178
13942KMLU MLU20190930131010309/30/19 13:10:31  5-MIN KMLU 301910Z VRB04KT 10SM CLR 34/18 A3005 -40 36 2200 VRB/04 RMK AO2 T03440178
13942KMLU MLU20190930131510309/30/19 13:15:31  5-MIN KMLU 301915Z 17007KT 10SM CLR 35/18 A3005 -30 35 2300 170/07 RMK AO2 T03500178
13942KMLU MLU20190930132012509/30/19 13:20:31  5-MIN KMLU 301920Z 15009G14KT 120V180 10SM CLR 36/18 A3005 -30 34 2300 150/09G14 120V180 RMK AO2 T03560178
13942KMLU MLU20190930132512509/30/19 13:25:31  5-MIN KMLU 301925Z 16008G14KT 130V200 10SM CLR 35/18 A3005 -30 35 2300 160/08G14 130V200 RMK AO2 T03500178
13942KMLU MLU20190930133010309/30/19 13:30:31  5-MIN KMLU 301930Z 17005KT 10SM CLR 35/17 A3004 -30 34 2300 170/05 RMK AO2 T03500172
13942KMLU MLU20190930133510309/30/19 13:35:31  5-MIN KMLU 301935Z 17008KT 10SM CLR 35/18 A3004 -30 35 2300 170/08 RMK AO2 T03500178
13942KMLU MLU20190930134010309/30/19 13:40:31  5-MIN KMLU 301940Z 20010KT 10SM CLR 36/18 A3004 -20 35 2300 200/10 RMK AO2 T03560183
13942KMLU MLU20190930134511909/30/19 13:45:31  5-MIN KMLU 301945Z 18007KT 150V210 10SM CLR 36/18 A3004 -20 35 2300 180/07 150V210 RMK AO2 T03560183
13942KMLU MLU20190930135011609/30/19 13:50:31  5-MIN KMLU 301950Z 14010G15KT 10SM CLR 36/18 A3003 -20 34 2300 140/10G15 RMK AO2 SLP168 T03560178
13942KMLU MLU20190930135510909/30/19 13:55:31  5-MIN KMLU 301955Z 13006G15KT 10SM CLR 35/17 A3003 -20 34 2300 120/06G15 RMK AO2 T03500172
13942KMLU MLU20190930140011909/30/19 14:00:31  5-MIN KMLU 302000Z 10007KT 080V150 10SM CLR 36/18 A3003 -20 34 2300 100/07 080V150 RMK AO2 T03560178
13942KMLU MLU20190930140511909/30/19 14:05:31  5-MIN KMLU 302005Z 11008KT 080V150 10SM CLR 36/17 A3003 -10 33 2300 100/08 080V150 RMK AO2 T03560172
13942KMLU MLU20190930141010309/30/19 14:10:31  5-MIN KMLU 302010Z 16005KT 10SM CLR 35/17 A3003 -10 34 2300 160/05 RMK AO2 T03500172
13942KMLU MLU20190930141510309/30/19 14:15:31  5-MIN KMLU 302015Z VRB04KT 10SM CLR 36/18 A3002 -10 34 2400 VRB/04 RMK AO2 T03560178
13942KMLU MLU20190930142010309/30/19 14:20:31  5-MIN KMLU 302020Z 13005KT 10SM CLR 35/18 A3003 -10 35 2300 130/05 RMK AO2 T03500178
13942KMLU MLU20190930142510309/30/19 14:25:31  5-MIN KMLU 302025Z 09005KT 10SM CLR 36/18 A3002 -10 34 2400 090/05 RMK AO2 T03560178
13942KMLU MLU20190930143011909/30/19 14:30:31  5-MIN KMLU 302030Z 16008KT 120V210 10SM CLR 36/18 A3002 -10 34 2400 160/08 120V210 RMK AO2 T03560178
13942KMLU MLU20190930143510309/30/19 14:35:31  5-MIN KMLU 302035Z 17008KT 10SM CLR 35/18 A3002 -10 35 2300 170/08 RMK AO2 T03500178
13942KMLU MLU20190930144010309/30/19 14:40:31  5-MIN KMLU 302040Z VRB04KT 10SM CLR 35/18 A3002 -10 35 2300 VRB/04 RMK AO2 T03500178
13942KMLU MLU20190930144510109/30/19 14:45:31  5-MIN KMLU 302045Z VRB06KT 10SM CLR 36/18 A3002 0 35 2400 VRB/06 RMK AO2 T03560183
13942KMLU MLU20190930145011409/30/19 14:50:31  5-MIN KMLU 302050Z VRB05KT 10SM CLR 36/18 A3001 0 35 2400 VRB/05 RMK AO2 SLP162 T03560183 58013
13942KMLU MLU20190930145510109/30/19 14:55:31  5-MIN KMLU 302055Z 19008KT 10SM CLR 35/18 A3001 0 36 2300 190/08 RMK AO2 T03500183
13942KMLU MLU20190930150010109/30/19 15:00:31  5-MIN KMLU 302100Z 17009KT 10SM CLR 35/18 A3001 0 36 2300 170/09 RMK AO2 T03500183
13942KMLU MLU20190930150510709/30/19 15:05:31  5-MIN KMLU 302105Z 14007G14KT 10SM CLR 35/18 A3001 0 36 2300 140/07G14 RMK AO2 T03500183
13942KMLU MLU20190930151010109/30/19 15:10:31  5-MIN KMLU 302110Z 17005KT 10SM CLR 35/18 A3001 0 36 2300 170/05 RMK AO2 T03500183
13942KMLU MLU20190930151512309/30/19 15:15:31  5-MIN KMLU 302115Z 14009G14KT 110V180 10SM CLR 35/18 A3001 0 36 2300 140/09G14 110V180 RMK AO2 T03500183
13942KMLU MLU20190930152012309/30/19 15:20:31  5-MIN KMLU 302120Z 17007G14KT 130V190 10SM CLR 35/18 A3001 0 36 2300 170/07G14 130V190 RMK AO2 T03500183
13942KMLU MLU20190930152510109/30/19 15:25:31  5-MIN KMLU 302125Z 16006KT 10SM CLR 35/18 A3001 0 36 2300 160/06 RMK AO2 T03500183
13942KMLU MLU20190930153012309/30/19 15:30:31  5-MIN KMLU 302130Z 15008G14KT 130V190 10SM CLR 35/18 A3001 0 36 2300 150/08G14 130V190 RMK AO2 T03500183
13942KMLU MLU20190930153510109/30/19 15:35:31  5-MIN KMLU 302135Z 14007KT 10SM CLR 34/18 A3001 0 38 2300 140/07 RMK AO2 T03440183
13942KMLU MLU20190930154010109/30/19 15:40:31  5-MIN KMLU 302140Z VRB06KT 10SM CLR 34/18 A3001 0 38 2300 VRB/06 RMK AO2 T03440183
13942KMLU MLU20190930154510109/30/19 15:45:31  5-MIN KMLU 302145Z VRB05KT 10SM CLR 35/19 A3001 0 38 2300 VRB/05 RMK AO2 T03500189
13942KMLU MLU20190930155010809/30/19 15:50:31  5-MIN KMLU 302150Z 17007KT 10SM CLR 35/19 A3001 0 38 2300 170/07 RMK AO2 SLP160 T03500189
13942KMLU MLU20190930155510109/30/19 15:55:31  5-MIN KMLU 302155Z 17006KT 10SM CLR 34/18 A3001 0 38 2300 170/06 RMK AO2 T03440183
13942KMLU MLU20190930160010109/30/19 16:00:31  5-MIN KMLU 302200Z VRB04KT 10SM CLR 34/18 A3001 0 38 2300 VRB/04 RMK AO2 T03440183
13942KMLU MLU20190930160510209/30/19 16:05:31  5-MIN KMLU 302205Z 16006KT 10SM CLR 34/19 A3000 10 39 2300 160/06 RMK AO2 T03440189
13942KMLU MLU20190930161010209/30/19 16:10:31  5-MIN KMLU 302210Z 17007KT 10SM CLR 34/18 A3000 10 39 2200 170/07 RMK AO2 T03390183
13942KMLU MLU20190930161510209/30/19 16:15:31  5-MIN KMLU 302215Z VRB04KT 10SM CLR 34/19 A3000 10 40 2200 VRB/04 RMK AO2 T03390189
13942KMLU MLU20190930162010109/30/19 16:20:31  5-MIN KMLU 302220Z 11007KT 10SM CLR 34/19 A3000 0 39 2300 100/07 RMK AO2 T03440189
13942KMLU MLU20190930162510109/30/19 16:25:31  5-MIN KMLU 302225Z VRB05KT 10SM CLR 34/19 A3000 0 40 2200 VRB/05 RMK AO2 T03390189
13942KMLU MLU20190930163012109/30/19 16:30:31  5-MIN KMLU 302230Z 14007KT 120V180 10SM FEW065 34/19 A3000 10 40 2200 140/07 120V180 RMK AO2 T03390189
13942KMLU MLU20190930163510409/30/19 16:35:31  5-MIN KMLU 302235Z 16006KT 10SM FEW065 34/19 A3000 0 40 2200 160/06 RMK AO2 T03390189
13942KMLU MLU20190930164010409/30/19 16:40:31  5-MIN KMLU 302240Z VRB04KT 10SM FEW065 34/19 A3001 0 40 2200 VRB/04 RMK AO2 T03390189
13942KMLU MLU20190930164510409/30/19 16:45:31  5-MIN KMLU 302245Z 16006KT 10SM FEW065 34/19 A3001 0 40 2200 160/06 RMK AO2 T03390189
13942KMLU MLU20190930165011109/30/19 16:50:31  5-MIN KMLU 302250Z 16007KT 10SM FEW065 33/19 A3001 0 42 2100 160/07 RMK AO2 SLP159 T03330189
13942KMLU MLU20190930165510409/30/19 16:55:31  5-MIN KMLU 302255Z 16005KT 10SM FEW065 33/19 A3001 0 42 2100 160/05 RMK AO2 T03330189
13942KMLU MLU20190930170010109/30/19 17:00:31  5-MIN KMLU 302300Z 15004KT 10SM CLR 33/19 A3001 0 43 2100 150/04 RMK AO2 T03280189
13942KMLU MLU20190930170510109/30/19 17:05:31  5-MIN KMLU 302305Z VRB04KT 10SM CLR 33/19 A3001 0 43 2100 VRB/04 RMK AO2 T03280189
13942KMLU MLU20190930171010109/30/19 17:10:31  5-MIN KMLU 302310Z VRB03KT 10SM CLR 33/19 A3001 0 43 2100 VRB/03 RMK AO2 T03280189
13942KMLU MLU20190930171510109/30/19 17:15:31  5-MIN KMLU 302315Z 13004KT 10SM CLR 33/19 A3001 0 43 2100 130/04 RMK AO2 T03280189
