53988KBKB BKB20190501013012105/01/19 01:30:31  5-MIN KBKB 010730Z AUTO VRB03KT 10SM BKN016 BKN023 BKN031 23/21 M 90 M VRB/03 RMK AO2 T02280211 TSNO $
53988KBKB BKB20190501013512105/01/19 01:35:31  5-MIN KBKB 010735Z AUTO VRB04KT 10SM SCT016 SCT021 BKN033 23/21 M 90 M VRB/04 RMK AO2 T02280211 TSNO $
53988KBKB BKB20190501014006305/01/19 01:40:31  5-MIN KBKB 010740Z AUTO VRB0T02330211 TSNO $
53988KBKB BKB20190501022511405/01/19 02:25:31  5-MIN KBKB 010825Z AUTO 00000KT 10SM BKN013 OVC018 23/21 M 87 M 000/00 RMK AO2 T02330211 TSNO $
53988KBKB BKB20190501023011405/01/19 02:30:31  5-MIN KBKB 010830Z AUTO VRB04KT 10SM BKN013 OVC018 23/21 M 87 M VRB/04 RMK AO2 T02330211 TSNO $
53988KBKB BKB20190501023510705/01/19 02:35:31  5-MIN KBKB 010835Z AUTO 00000KT 10SM OVC013 23/21 M 87 M 000/00 RMK AO2 T02330211 TSNO $
53988KBKB BKB20190501024011405/01/19 02:40:31  5-MIN KBKB 010840Z AUTO 00000KT 10SM BKN013 OVC020 23/21 M 87 M 000/00 RMK AO2 T02330211 TSNO $
53988KBKB BKB20190501024511405/01/19 02:45:31  5-MIN KBKB 010845Z AUTO VRB03KT 10SM BKN013 OVC020 23/21 M 87 M VRB/03 RMK AO2 T02330211 TSNO $
53988KBKB BKB20190501025012005/01/19 02:50:31  5-MIN KBKB 010850Z AUTO VRB03KT 10SM BKN013 OVC019 23/21 M 87 M VRB/03 RMK AO2 SLPNO T02330211 TSNO $
53988KBKB BKB20190501025511105/01/19 02:55:31  5-MIN KBKB 010855Z AUTO 10SM BKN013 BKN019 BKN029 23/21 M 87 M M /M RMK AO2 T02330211 TSNO $
53988KBKB BKB20190501030012105/01/19 03:00:31  5-MIN KBKB 010900Z AUTO VRB04KT 10SM BKN013 BKN019 BKN029 23/21 M 87 M VRB/04 RMK AO2 T02330211 TSNO $
53988KBKB BKB20190501030511405/01/19 03:05:31  5-MIN KBKB 010905Z AUTO VRB04KT 10SM BKN013 BKN019 23/21 M 90 M VRB/04 RMK AO2 T02280211 TSNO $
53988KBKB BKB20190501031010705/01/19 03:10:31  5-MIN KBKB 010910Z AUTO VRB03KT 10SM BKN013 23/21 M 90 M VRB/03 RMK AO2 T02280211 TSNO $
53988KBKB BKB20190501031511405/01/19 03:15:31  5-MIN KBKB 010915Z AUTO VRB03KT 10SM BKN015 BKN029 23/21 M 90 M VRB/03 RMK AO2 T02280211 TSNO $
53988KBKB BKB20190501032010405/01/19 03:20:31  5-MIN KBKB 010920Z AUTO 10SM BKN015 BKN029 23/21 M 90 M M /M RMK AO2 T02280211 TSNO $
53988KBKB BKB20190501032510705/01/19 03:25:31  5-MIN KBKB 010925Z AUTO VRB03KT 10SM BKN015 23/21 M 90 M VRB/03 RMK AO2 T02280211 TSNO $
53988KBKB BKB20190501033012105/01/19 03:30:31  5-MIN KBKB 010930Z AUTO VRB03KT 10SM SCT015 BKN019 BKN029 23/21 M 90 M VRB/03 RMK AO2 T02280211 TSNO $
53988KBKB BKB20190501033511405/01/19 03:35:31  5-MIN KBKB 010935Z AUTO VRB03KT 10SM BKN014 BKN031 23/21 M 90 M VRB/03 RMK AO2 T02280211 TSNO $
53988KBKB BKB20190501034011405/01/19 03:40:31  5-MIN KBKB 010940Z AUTO VRB03KT 10SM SCT014 BKN029 23/21 M 90 M VRB/03 RMK AO2 T02280211 TSNO $
53988KBKB BKB20190501034511405/01/19 03:45:31  5-MIN KBKB 010945Z AUTO VRB04KT 10SM FEW014 SCT029 23/21 M 90 M VRB/04 RMK AO2 T02280211 TSNO $
53988KBKB BKB20190501035010405/01/19 03:50:31  5-MIN KBKB 010950Z AUTO VRB03KT 10SM FEW014 SCT029 23/21 M 90 M VRB/03 RMK AO2 TSNO $
53988KBKB BKB20190501035511405/01/19 03:55:31  5-MIN KBKB 010955Z AUTO VRB03KT 10SM FEW014 SCT031 22/21 M 93 M VRB/03 RMK AO2 T02220211 TSNO $
53988KBKB BKB20190501040011405/01/19 04:00:31  5-MIN KBKB 011000Z AUTO 00000KT 10SM FEW014 SCT037 22/21 M 93 M 000/00 RMK AO2 T02220211 TSNO $
53988KBKB BKB20190501040511405/01/19 04:05:31  5-MIN KBKB 011005Z AUTO VRB05KT 10SM FEW012 FEW037 22/21 M 93 M VRB/05 RMK AO2 T02220211 TSNO $
53988KBKB BKB20190501041011405/01/19 04:10:31  5-MIN KBKB 011010Z AUTO 00000KT 10SM FEW012 FEW037 22/21 M 93 M 000/00 RMK AO2 T02220211 TSNO $
53988KBKB BKB20190501041511405/01/19 04:15:31  5-MIN KBKB 011015Z AUTO VRB04KT 10SM FEW012 FEW037 22/21 M 93 M VRB/04 RMK AO2 T02220211 TSNO $
53988KBKB BKB20190501042008105/01/19 04:20:31  5-MIN KBKB 011020Z AUTO VRB04KT 10SM FEW012 FEW028 SC11 TSNO $
53988KBKB BKB20190501055511805/01/19 05:55:31  5-MIN KBKB 011155Z AUTO VRB03KT 9SM BKN013 BKN021 BKN029 22/21 M 93 M VRB/03 RMK AO2 T02220211 TSNO
53988KBKB BKB20190501060011805/01/19 06:00:31  5-MIN KBKB 011200Z AUTO 00000KT 9SM BKN013 BKN022 BKN027 22/21 M 93 M 000/00 RMK AO2 T02220211 TSNO
53988KBKB BKB20190501060511805/01/19 06:05:31  5-MIN KBKB 011205Z AUTO 00000KT 9SM BKN013 BKN021 OVC027 22/21 M 93 M 000/00 RMK AO2 T02220211 TSNO
53988KBKB BKB20190501061011805/01/19 06:10:31  5-MIN KBKB 011210Z AUTO 00000KT 9SM BKN014 BKN021 OVC027 22/21 M 93 M 000/00 RMK AO2 T02220211 TSNO
53988KBKB BKB20190501061511805/01/19 06:15:31  5-MIN KBKB 011215Z AUTO VRB03KT 9SM BKN016 BKN020 BKN028 22/21 M 93 M VRB/03 RMK AO2 T02220211 TSNO
53988KBKB BKB20190501062011805/01/19 06:20:31  5-MIN KBKB 011220Z AUTO 00000KT 9SM BKN014 BKN020 BKN028 22/21 M 93 M 000/00 RMK AO2 T02220211 TSNO
53988KBKB BKB20190501062511205/01/19 06:25:31  5-MIN KBKB 011225Z AUTO 00000KT 10SM BKN016 BKN026 23/22 M 93 M 000/00 RMK AO2 T02280217 TSNO
53988KBKB BKB20190501063011905/01/19 06:30:31  5-MIN KBKB 011230Z AUTO VRB03KT 10SM SCT013 BKN019 BKN024 23/21 M 90 M VRB/03 RMK AO2 T02280211 TSNO
53988KBKB BKB20190501063511905/01/19 06:35:31  5-MIN KBKB 011235Z AUTO 00000KT 10SM SCT013 BKN019 BKN029 23/22 M 93 M 000/00 RMK AO2 T02280217 TSNO
53988KBKB BKB20190501064011905/01/19 06:40:31  5-MIN KBKB 011240Z AUTO VRB03KT 10SM SCT012 BKN019 BKN029 23/22 M 93 M VRB/03 RMK AO2 T02280217 TSNO
53988KBKB BKB20190501064511905/01/19 06:45:31  5-MIN KBKB 011245Z AUTO VRB03KT 10SM SCT012 BKN019 BKN032 23/22 M 93 M VRB/03 RMK AO2 T02280217 TSNO
53988KBKB BKB20190501065010905/01/19 06:50:31  5-MIN KBKB 011250Z AUTO 14004KT 10SM BKN012 BKN019 OVC032 23/22 M 93 M 130/04 RMK AO2 TSNO
53988KBKB BKB20190501065511905/01/19 06:55:31  5-MIN KBKB 011255Z AUTO VRB04KT 10SM BKN012 BKN019 BKN032 23/22 M 93 M VRB/04 RMK AO2 T02280217 TSNO
53988KBKB BKB20190501070006805/01/19 07:00:31  5-MIN KBKB 011300Z AUTO M M M M /M RMK AO2 TSNO $
53988KBKB BKB20190501070509505/01/19 07:05:31  5-MIN KBKB 011305Z AUTO VRB03KT 23/22 M 90 M VRB/03 RMK AO2 T02330217 TSNO $
53988KBKB BKB20190501071010005/01/19 07:10:31  5-MIN KBKB 011310Z AUTO VRB03KT 10SM 24/22 M 87 M VRB/03 RMK AO2 T02390217 TSNO $
53988KBKB BKB20190501071509005/01/19 07:15:31  5-MIN KBKB 011315Z AUTO 10SM 24/22 M 87 M M /M RMK AO2 T02390217 TSNO $
53988KBKB BKB20190501072009005/01/19 07:20:31  5-MIN KBKB 011320Z AUTO 10SM 24/22 M 87 M M /M RMK AO2 T02390217 TSNO $
53988KBKB BKB20190501072510005/01/19 07:25:31  5-MIN KBKB 011325Z AUTO VRB03KT 10SM 24/21 M 84 M VRB/03 RMK AO2 T02390211 TSNO $
53988KBKB BKB20190501073010405/01/19 07:30:31  5-MIN KBKB 011330Z AUTO 10SM BKN014 BKN020 24/21 M 84 M M /M RMK AO2 T02390211 TSNO $
53988KBKB BKB20190501073511405/01/19 07:35:31  5-MIN KBKB 011335Z AUTO VRB03KT 10SM BKN014 BKN029 24/22 M 87 M VRB/03 RMK AO2 T02390217 TSNO $
53988KBKB BKB20190501074012105/01/19 07:40:31  5-MIN KBKB 011340Z AUTO VRB03KT 10SM BKN014 BKN020 OVC027 24/22 M 87 M VRB/03 RMK AO2 T02390217 TSNO $
53988KBKB BKB20190501074511405/01/19 07:45:31  5-MIN KBKB 011345Z AUTO 13005KT 10SM SCT014 OVC020 24/22 M 84 M 120/05 RMK AO2 T02440217 TSNO $
53988KBKB BKB20190501075012005/01/19 07:50:31  5-MIN KBKB 011350Z AUTO VRB04KT 10SM BKN014 OVC020 24/21 M 81 M VRB/04 RMK AO2 SLPNO T02440211 TSNO $
53988KBKB BKB20190501075511405/01/19 07:55:31  5-MIN KBKB 011355Z AUTO VRB05KT 10SM BKN017 OVC024 24/21 M 81 M VRB/05 RMK AO2 T02440211 TSNO $
53988KBKB BKB20190501080012105/01/19 08:00:31  5-MIN KBKB 011400Z AUTO VRB03KT 10SM SCT013 BKN019 OVC028 24/21 M 81 M VRB/03 RMK AO2 T02440211 TSNO $
53988KBKB BKB20190501080512105/01/19 08:05:31  5-MIN KBKB 011405Z AUTO VRB03KT 10SM BKN015 BKN021 OVC030 24/21 M 81 M VRB/03 RMK AO2 T02440211 TSNO $
53988KBKB BKB20190501081020405/01/19 08:10:31  5-MIN KBKB 011410Z AUTO VRB04KT 10SM BKN015 BKN0219 12:25:31  5-MIN KBKB 011825Z AUTO VRB06KT 10SM FEW036 FEW060 29/21 M 58 M VRB/06 RMK M 56 M VRB/05 RMK AO2 /06 RMK AO2 T03110189 TSNO
53988KBKB BKB20190501135011105/01/19 13:50:31  5-MIN KBKB 011950Z AUTO VRB05KT 10SM FEW042 31/19 M 49 M VRB/05 RMK AO2 SLPNO T03060189 TSNO
53988KBKB BKB20190501135510205/01/19 13:55:31  5-MIN KBKB 011955Z AUTO VRB04KT 10SM CLR 30/18 M 49 M VRB/04 RMK AO2 T03000183 TSNO
53988KBKB BKB20190501140012105/01/19 14:00:31  5-MIN KBKB 012000Z AUTO 18007KT 140V240 10SM FEW080 30/19 M 51 M 170/07 140V240 RMK AO2 T03000189 TSNO
53988KBKB BKB20190501140510505/01/19 14:05:31  5-MIN KBKB 012005Z AUTO VRB03KT 10SM SCT075 30/19 M 52 M VRB/03 RMK AO2 T03000194 TSNO
53988KBKB BKB20190501141010505/01/19 14:10:31  5-MIN KBKB 012010Z AUTO VRB04KT 10SM FEW075 31/19 M 49 M VRB/04 RMK AO2 T03110194 TSNO
53988KBKB BKB20190501141511105/01/19 14:15:31  5-MIN KBKB 012015Z AUTO VRB05KT 9SM FEW047 SCT075 30/19 M 52 M VRB/05 RMK AO2 T03000194 TSNO
53988KBKB BKB20190501142011105/01/19 14:20:31  5-MIN KBKB 012020Z AUTO VRB05KT 9SM FEW047 BKN080 29/19 M 52 M VRB/05 RMK AO2 T02940189 TSNO
53988KBKB BKB20190501142511905/01/19 14:25:31  5-MIN KBKB 012025Z AUTO VRB05KT 10SM FEW047 FEW065 BKN080 31/19 M 49 M VRB/05 RMK AO2 T03110194 TSNO
53988KBKB BKB20190501143011905/01/19 14:30:31  5-MIN KBKB 012030Z AUTO VRB04KT 10SM SCT047 SCT065 BKN080 31/19 M 51 M VRB/04 RMK AO2 T03060194 TSNO
53988KBKB BKB20190501143511205/01/19 14:35:31  5-MIN KBKB 012035Z AUTO VRB04KT 10SM SCT047 BKN080 31/20 M 52 M VRB/04 RMK AO2 T03060200 TSNO
53988KBKB BKB20190501144011205/01/19 14:40:31  5-MIN KBKB 012040Z AUTO VRB06KT 10SM SCT047 BKN080 31/20 M 51 M VRB/06 RMK AO2 T03110200 TSNO
53988KBKB BKB20190501144511905/01/19 14:45:31  5-MIN KBKB 012045Z AUTO VRB05KT 10SM SCT045 SCT050 BKN080 31/19 M 49 M VRB/05 RMK AO2 T03110194 TSNO
53988KBKB BKB20190501145013405/01/19 14:50:31  5-MIN KBKB 012050Z AUTO 18007KT 120V230 10SM SCT045 SCT050 32/19 M 47 M 180/07 120V230 RMK AO2 SLPNO T03170194 TSNO
53988KBKB BKB20190501145510505/01/19 14:55:31  5-MIN KBKB 012055Z AUTO VRB05KT 10SM SCT047 31/19 M 47 M VRB/05 RMK AO2 T03110189 TSNO
53988KBKB BKB20190501150012105/01/19 15:00:31  5-MIN KBKB 012100Z AUTO 18008KT 120V240 10SM FEW045 31/18 M 46 M 170/08 120V240 RMK AO2 T03110183 TSNO
53988KBKB BKB20190501150510505/01/19 15:05:31  5-MIN KBKB 012105Z AUTO VRB06KT 10SM FEW045 31/18 M 46 M VRB/06 RMK AO2 T03110183 TSNO
53988KBKB BKB20190501151012105/01/19 15:10:31  5-MIN KBKB 012110Z AUTO 18007KT 150V220 10SM FEW046 31/18 M 47 M 180/07 150V220 RMK AO2 T03060183 TSNO
53988KBKB BKB20190501151510805/01/19 15:15:31  5-MIN KBKB 012115Z AUTO VRB05G14KT 10SM CLR 30/18 M 47 M VRB/05G14 RMK AO2 T03000178 TSNO
53988KBKB BKB20190501152010805/01/19 15:20:31  5-MIN KBKB 012120Z AUTO VRB06G14KT 10SM CLR 29/18 M 49 M VRB/06G14 RMK AO2 T02940178 TSNO
53988KBKB BKB20190501152510205/01/19 15:25:31  5-MIN KBKB 012125Z AUTO 16008KT 10SM CLR 30/18 M 49 M 160/08 RMK AO2 T03000183 TSNO
53988KBKB BKB20190501153010205/01/19 15:30:31  5-MIN KBKB 012130Z AUTO VRB04KT 10SM CLR 31/19 M 49 M VRB/04 RMK AO2 T03060189 TSNO
53988KBKB BKB20190501153510205/01/19 15:35:31  5-MIN KBKB 012135Z AUTO VRB05KT 10SM CLR 31/18 M 47 M VRB/05 RMK AO2 T03060183 TSNO
53988KBKB BKB20190501154009205/01/19 15:40:31  5-MIN KBKB 012140Z AUTO 10SM CLR 31/19 M 49 M M /M RMK AO2 T03060189 TSNO
53988KBKB BKB20190501154510205/01/19 15:45:31  5-MIN KBKB 012145Z AUTO 16006KT 10SM CLR 30/19 M 52 M 150/06 RMK AO2 T03000194 TSNO
53988KBKB BKB20190501155010805/01/19 15:50:31  5-MIN KBKB 012150Z AUTO VRB06KT 10SM CLR 30/19 M 51 M VRB/06 RMK AO2 SLPNO T03000189 TSNO
53988KBKB BKB20190501155510205/01/19 15:55:31  5-MIN KBKB 012155Z AUTO VRB06KT 10SM CLR 29/19 M 52 M VRB/06 RMK AO2 T02940189 TSNO
53988KBKB BKB20190501160010805/01/19 16:00:31  5-MIN KBKB 012200Z AUTO VRB05KT 10SM CLR 30/19 A2999 230 51 2000 VRB/05 RMK AO2 T03000189
53988KBKB BKB20190501160511505/01/19 16:05:31  5-MIN KBKB 012205Z AUTO VRB05KT 10SM CLR 30/18 A2999 240 49 2000 VRB/05 RMK AO2 T03000183 TSNO $
53988KBKB BKB20190501161011505/01/19 16:10:31  5-MIN KBKB 012210Z AUTO VRB05KT 10SM CLR 30/18 A2999 240 47 2100 VRB/05 RMK AO2 T03000178 TSNO $
53988KBKB BKB20190501161511505/01/19 16:15:31  5-MIN KBKB 012215Z AUTO VRB04KT 10SM CLR 30/18 A2998 240 49 2100 VRB/04 RMK AO2 T03000183 TSNO $
53988KBKB BKB20190501162011505/01/19 16:20:31  5-MIN KBKB 012220Z AUTO VRB06KT 10SM CLR 29/18 A2998 240 50 2000 VRB/06 RMK AO2 T02940183 TSNO $
53988KBKB BKB20190501162511505/01/19 16:25:31  5-MIN KBKB 012225Z AUTO VRB03KT 10SM CLR 29/18 A2998 240 52 1900 VRB/03 RMK AO2 T02890183 TSNO $
53988KBKB BKB20190501163011805/01/19 16:30:31  5-MIN KBKB 012230Z AUTO VRB03KT 10SM FEW045 28/19 A2998 250 56 1900 VRB/03 RMK AO2 T02830189 TSNO $
53988KBKB BKB20190501163511805/01/19 16:35:31  5-MIN KBKB 012235Z AUTO VRB03KT 10SM FEW045 28/19 A2997 250 56 1900 VRB/03 RMK AO2 T02830189 TSNO $
53988KBKB BKB20190501164011805/01/19 16:40:31  5-MIN KBKB 012240Z AUTO VRB04KT 10SM FEW045 29/19 A2997 250 56 1900 VRB/04 RMK AO2 T02890194 TSNO $
53988KBKB BKB20190501164511805/01/19 16:45:31  5-MIN KBKB 012245Z AUTO VRB05KT 10SM FEW045 28/19 A2996 260 56 1900 VRB/05 RMK AO2 T02830189 TSNO $
53988KBKB BKB20190501165014705/01/19 16:50:31  5-MIN KBKB 012250Z AUTO 16007G16KT 110V230 10SM FEW045 28/18 A2997 260 52 1900 160/07G16 110V230 RMK AO2 SLP173 T02830178 TSNO $
53988KBKB BKB20190501165512405/01/19 16:55:31  5-MIN KBKB 012255Z AUTO VRB05G16KT 10SM FEW045 29/18 A2997 250 52 1900 VRB/05G16 RMK AO2 T02890183 TSNO $
53988KBKB BKB20190501170011505/01/19 17:00:31  5-MIN KBKB 012300Z AUTO 18005KT 10SM CLR 29/19 A2997 260 54 2000 170/05 RMK AO2 T02940194 TSNO $
53988KBKB BKB20190501170513105/01/19 17:05:31  5-MIN KBKB 012305Z AUTO 18008KT 140V220 10SM CLR 29/19 A2996 260 56 2000 180/08 140V220 RMK AO2 T02890194 TSNO $
53988KBKB BKB20190501171011505/01/19 17:10:31  5-MIN KBKB 012310Z AUTO VRB05KT 10SM CLR 29/19 A2997 260 56 2000 VRB/05 RMK AO2 T02890194 TSNO $
53988KBKB BKB20190501171511505/01/19 17:15:31  5-MIN KBKB 012315Z AUTO VRB06KT 10SM CLR 28/19 A2996 260 58 1900 VRB/06 RMK AO2 T02830194 TSNO $
53988KBKB BKB20190501172011505/01/19 17:20:31  5-MIN KBKB 012320Z AUTO VRB04KT 10SM CLR 28/19 A2996 260 60 1800 VRB/04 RMK AO2 T02780194 TSNO $
53988KBKB BKB20190501172511805/01/19 17:25:31  5-MIN KBKB 012325Z AUTO VRB04KT 10SM FEW038 28/20 A2996 260 60 1900 VRB/04 RMK AO2 T02830200 TSNO $
53988KBKB BKB20190501173011805/01/19 17:30:31  5-MIN KBKB 012330Z AUTO VRB06KT 10SM FEW038 28/20 A2996 260 60 1900 VRB/06 RMK AO2 T02830200 TSNO $
53988KBKB BKB20190501173511805/01/19 17:35:31  5-MIN KBKB 012335Z AUTO VRB05KT 10SM FEW038 28/20 A2996 260 62 1800 VRB/05 RMK AO2 T02780200 TSNO $
53988KBKB BKB20190501174011805/01/19 17:40:31  5-MIN KBKB 012340Z AUTO VRB04KT 10SM FEW038 28/19 A2996 260 60 1800 VRB/04 RMK AO2 T02780194 TSNO $
53988KBKB BKB20190501174508405/01/19 17:45:31  5-MIN KBKB 012345Z AUTO VRB03KT A2996 M M M VRB/03 RMK AO2 TSNO $
53988KBKB BKB20190501175012505/01/19 17:50:31  5-MIN KBKB 012350Z AUTO VRB06KT 27/20 A2995 270 64 1800 VRB/06 RMK AO2 SLP168 T02720200 10317 20272 TSNO $
53988KBKB BKB20190502033012505/02/19 03:30:31  5-MIN KBKB 020930Z AUTO VRB04KT 10SM 23/22 A2997 260 93 1300 VRB/04 RMK AO2 RAB0858 P0000 T02280217 TSNO $
53988KBKB BKB20190502033513205/02/19 03:35:31  5-MIN KBKB 020935Z AUTO 00000KT 10SM OVC011 23/22 A2997 250 93 1300 000/00 RMK AO2 RAB0858 P0000 T02280217 TSNO $
53988KBKB BKB20190502034015105/02/19 03:40:31  5-MIN KBKB 020940Z AUTO 00000KT 10SM BKN011 BKN018 23/22 A2996 260 93 1300 000/00 RMK AO2 RAB0858 CIG 008V013 P0000 T02280217 TSNO $
53988KBKB BKB20190502034515105/02/19 03:45:31  5-MIN KBKB 020945Z AUTO 00000KT 10SM BKN009 BKN018 23/22 A2996 260 93 1300 000/00 RMK AO2 RAB0858 CIG 008V013 P0000 T02280217 TSNO $
53988KBKB BKB20190502035015105/02/19 03:50:31  5-MIN KBKB 020950Z AUTO 00000KT 10SM BKN009 23/22 A2996 260 93 1300 000/00 RMK AO2 RAB0858 CIG 008V013 SLP170 P0000 T02280217 TSNO $
53988KBKB BKB20190502035513705/02/19 03:55:31  5-MIN KBKB 020955Z AUTO VRB04KT 10SM BKN009 BKN016 23/22 A2996 260 93 1300 VRB/04 RMK AO2 CIG 008V013 T02280217 TSNO $
53988KBKB BKB20190502040014405/02/19 04:00:31  5-MIN KBKB 021000Z AUTO VRB03KT 10SM BKN009 BKN016 OVC021 23/22 A2996 260 93 1300 VRB/03 RMK AO2 CIG 008V012 T02280217 TSNO $
53988KBKB BKB20190502040516005/02/19 04:05:31  5-MIN KBKB 021005Z AUTO VRB03KT 10SM -RA BKN010 BKN016 BKN021 23/22 A2995 270 93 1300 VRB/03 RMK AO2 RAB04 CIG 008V012 P0000 T02280217 TSNO $
53988KBKB BKB20190502041015905/02/19 04:10:31  5-MIN KBKB 021010Z AUTO VRB04KT 10SM BKN010 BKN015 BKN021 23/22 A2995 270 93 1300 VRB/04 RMK AO2 RAB04E07 CIG 008V012 P0000 T02280217 TSNO $
53988KBKB BKB20190502041516605/02/19 04:15:31  5-MIN KBKB 021015Z AUTO VRB04KT 10SM -RA BKN010 BKN017 OVC025 23/22 A2995 270 93 1300 VRB/04 RMK AO2 RAB04E07B11 CIG 008V012 P0000 T02280217 TSNO $
53988KBKB BKB20190502042016605/02/19 04:20:31  5-MIN KBKB 021020Z AUTO VRB04KT 10SM -RA BKN010 BKN017 OVC021 23/22 A2996 270 93 1300 VRB/04 RMK AO2 RAB04E07B11 CIG 008V012 P0000 T02280217 TSNO $
53988KBKB BKB20190502042516605/02/19 04:25:31  5-MIN KBKB 021025Z AUTO 16006KT 10SM -RA BKN010 BKN015 OVC021 23/22 A2996 260 93 1300 150/06 RMK AO2 RAB04E07B11 CIG 007V011 P0000 T02280217 TSNO $
53988KBKB BKB20190502043016605/02/19 04:30:31  5-MIN KBKB 021030Z AUTO VRB04KT 10SM -RA BKN010 BKN015 OVC021 23/22 A2996 270 93 1300 VRB/04 RMK AO2 RAB04E07B11 CIG 007V013 P0000 T02280217 TSNO $
53988KBKB BKB20190502043515905/02/19 04:35:31  5-MIN KBKB 021035Z AUTO VRB03KT 10SM -RA BKN010 OVC015 23/22 A2996 270 93 1300 VRB/03 RMK AO2 RAB04E07B11 CIG 007V013 P0000 T02280217 TSNO $
53988KBKB BKB20190502044015105/02/19 04:40:31  5-MIN KBKB 021040Z AUTO 00000KT 10SM OVC009 23/22 A2996 260 93 1300 000/00 RMK AO2 RAB04E07B11E36 CIG 007V014 P0000 T02280217 TSNO $
53988KBKB BKB20190502044513605/02/19 04:45:31  5-MIN KBKB 021045Z AUTO 10SM BKN009 OVC015 23/22 A2996 260 93 1300 M /M RMK AO2 RAB04E07B11E36 P0000 T02280217 TSNO $
53988KBKB BKB20190502045017205/02/19 04:50:31  5-MIN KBKB 021050Z AUTO VRB04KT 10SM -RA BKN009 OVC015 23/22 A2997 250 93 1300 VRB/04 RMK AO2 RAB04E07B11E36B47 CIG 007V011 SLP173 P0000 T02280217 TSNO $
53988KBKB BKB20190502045515405/02/19 04:55:31  5-MIN KBKB 021055Z AUTO VRB03KT 10SM -RA BKN009 BKN014 OVC019 23/22 A2997 250 93 1300 VRB/03 RMK AO2 CIG 007V011 P0000 T02280217 TSNO $
53988KBKB BKB20190502050014205/02/19 05:00:31  5-MIN KBKB 021100Z AUTO VRB03KT 10SM -RA BKN009 OVC017 23/22 A2998 240 93 1200 VRB/03 RMK AO2 PRESRR P0000 T02280217 TSNO $
53988KBKB BKB20190502050512805/02/19 05:05:31  5-MIN KBKB 021105Z AUTO VRB03KT 10SM -RA OVC009 23/22 A2998 240 93 1200 VRB/03 RMK AO2 P0000 T02280217 TSNO $
53988KBKB BKB20190502051013705/02/19 05:10:31  5-MIN KBKB 021110Z AUTO VRB04KT 10SM BKN008 OVC014 23/22 A2998 250 93 1200 VRB/04 RMK AO2 RAE10 P0000 T02280217 TSNO $
53988KBKB BKB20190502051513705/02/19 05:15:31  5-MIN KBKB 021115Z AUTO VRB03KT 10SM BKN008 OVC014 23/22 A2998 240 93 1200 VRB/03 RMK AO2 RAE10 P0000 T02280217 TSNO $
53988KBKB BKB20190502052012805/02/19 05:20:31  5-MIN KBKB 021120Z AUTO VRB03KT 10SM -RA OVC010 23/22 A2998 240 93 1200 VRB/03 RMK AO2 P0000 T02280217 TSNO $
53988KBKB BKB20190502052513505/02/19 05:25:31  5-MIN KBKB 021125Z AUTO 15005KT 10SM -RA BKN008 BKN015 23/22 A2998 250 93 1200 150/05 RMK AO2 P0000 T02280217 TSNO $
53988KBKB BKB20190502053012505/02/19 05:30:31  5-MIN KBKB 021130Z AUTO 10SM -RA BKN008 BKN015 23/22 A2997 250 93 1300 M /M RMK AO2 P0000 T02280217 TSNO $
53988KBKB BKB20190502053513505/02/19 05:35:31  5-MIN KBKB 021135Z AUTO VRB03KT 10SM -RA BKN010 BKN018 23/22 A2997 250 93 1300 VRB/03 RMK AO2 P0000 T02280217 TSNO $
53988KBKB BKB20190502054013505/02/19 05:40:31  5-MIN KBKB 021140Z AUTO VRB05KT 10SM -RA BKN010 BKN016 23/22 A2997 250 93 1300 VRB/05 RMK AO2 P0000 T02280217 TSNO $
53988KBKB BKB20190502054514405/02/19 05:45:31  5-MIN KBKB 021145Z AUTO VRB04KT 10SM SCT010 BKN013 BKN018 23/21 A2997 250 90 1300 VRB/04 RMK AO2 RAE45 P0000 T02280211 TSNO $
53988KBKB BKB20190502055012505/02/19 05:50:31  5-MIN KBKB 021150Z AUTO VRB04KT 10SM -RA SCT011 SCT018 23/21 A2997 250 90 1300 VRB/04 RMK AO2 P0000 TSNO $
53988KBKB BKB20190502055512805/02/19 05:55:31  5-MIN KBKB 021155Z AUTO VRB04KT 10SM -RA SCT011 23/21 A2999 240 90 1200 VRB/04 RMK AO2 P0000 T02280211 TSNO $
53988KBKB BKB20190502060013505/02/19 06:00:31  5-MIN KBKB 021200Z AUTO VRB03KT 10SM -RA BKN011 23/21 A3001 220 90 1200 VRB/03 RMK AO2 PRESRR P0000 T02280211 TSNO $
53988KBKB BKB20190502060513705/02/19 06:05:31  5-MIN KBKB 021205Z AUTO 00000KT 10SM BKN011 23/22 A3002 210 93 1200 000/00 RMK AO2 RAE03 PRESRR P0000 T02280217 TSNO $
53988KBKB BKB20190502061014905/02/19 06:10:31  5-MIN KBKB 021210Z AUTO 00000KT 10SM BKN011 23/22 A3003 200 93 1200 000/00 RMK AO2 RAE03 CIG 008V013 PRESRR P0000 T02280217 TSNO $
53988KBKB BKB20190502061513705/02/19 06:15:31  5-MIN KBKB 021215Z AUTO 21004KT 10SM BKN011 23/22 A3004 190 93 1200 210/04 RMK AO2 RAE03 PRESRR P0000 T02280217 TSNO $
53988KBKB BKB20190502062009005/02/19 06:20:31  5-MIN KBKB 021220Z AUTO VRB03KT M M M VRB/03 RMK AO2 RAE03 P0000 TSNO $
53988KBKB BKB20190502062511805/02/19 06:25:31  5-MIN KBKB 021225Z AUTO 00000KT 23/22 A3005 180 93 1200 000/00 RMK AO2 RAE03 P0000 T02280217 TSNO $
53988KBKB BKB20190502063013005/02/19 06:30:31  5-MIN KBKB 021230Z AUTO 00000KT 10SM -RA 23/22 A3006 160 93 1100 000/00 RMK AO2 RAE03B29 P0000 T02280217 TSNO $
53988KBKB BKB20190502063513005/02/19 06:35:31  5-MIN KBKB 021235Z AUTO VRB04KT 10SM -RA 23/22 A3007 160 93 1100 VRB/04 RMK AO2 RAE03B29 P0000 T02280217 TSNO $
53988KBKB BKB20190502064512105/02/19 06:45:31  5-MIN KBKB 021245Z AUTO 00000KT 23/22 A3007 160 90 1200 000/00 RMK AO2 RAE03B29 P0000 T02330217 TSNO $
53988KBKB BKB20190502065013305/02/19 06:50:31  5-MIN KBKB 021250Z AUTO VRB03KT 10SM 23/22 A3007 160 90 1200 VRB/03 RMK AO2 RAE03B29 SLP206 P0000 T02330217 TSNO $
53988KBKB BKB20190502065511105/02/19 06:55:31  5-MIN KBKB 021255Z AUTO VRB04KT 10SM 23/22 A3007 160 90 1200 VRB/04 RMK AO2 T02330217 TSNO $
53988KBKB BKB20190502070012905/02/19 07:00:31  5-MIN KBKB 021300Z AUTO VRB04KT 10SM -RA 23/22 A3008 150 90 1200 VRB/04 RMK AO2 RAB1258 P0000 T02330217 TSNO $
53988KBKB BKB20190502070512905/02/19 07:05:31  5-MIN KBKB 021305Z AUTO VRB04KT 10SM -RA 23/22 A3008 150 90 1200 VRB/04 RMK AO2 RAB1258 P0000 T02330217 TSNO $
53988KBKB BKB20190502071015705/02/19 07:10:31  5-MIN KBKB 021310Z AUTO VRB03KT 10SM -RA BKN011 BKN019 OVC060 23/22 A3009 140 90 1200 VRB/03 RMK AO2 RAB1258 PRESRR P0000 T02330217 TSNO $
53988KBKB BKB20190502071515005/02/19 07:15:31  5-MIN KBKB 021315Z AUTO 24003KT 10SM -RA BKN011 BKN015 OVC040 23/22 A3010 130 90 1200 240/03 RMK AO2 RAB1258 P0000 T02330217 TSNO $
53988KBKB BKB20190502072015705/02/19 07:20:31  5-MIN KBKB 021320Z AUTO VRB05KT 10SM -RA BKN011 BKN019 OVC038 23/22 A3012 120 90 1200 VRB/05 RMK AO2 RAB1258 PRESRR P0000 T02330217 TSNO $
53988KBKB BKB20190502072515105/02/19 07:25:31  5-MIN KBKB 021325Z AUTO VRB05KT 1SM -RA BR BKN011 BKN023 OVC038 21/19 A3012 110 90 900 VRB/05 RMK AO2 RAB1258 P0000 T02110194 TSNO $
53988KBKB BKB20190502073015305/02/19 07:30:31  5-MIN KBKB 021330Z AUTO VRB03KT 1/2SM +RA FG SCT011 BKN019 OVC038 19/19 A3012 110 97 700 VRB/03 RMK AO2 RAB1258 P0000 T01940189 TSNO $
53988KBKB BKB20190502073515105/02/19 07:35:31  5-MIN KBKB 021335Z AUTO VRB03KT 1/2SM +RA FG SCT013 BKN026 OVC080 19/19 A3011 120 97 700 VRB/03 RMK AO2 RAB1258 T01940189 TSNO PNO $
53988KBKB BKB20190502074015905/02/19 07:40:31  5-MIN KBKB 021340Z AUTO 00000KT 1SM RA BR FEW013 BKN032 OVC075 19/19 A3011 130 100 700 000/00 RMK AO2 VIS 1/2V3 RAB1258 T01940194 TSNO PNO $
53988KBKB BKB20190502074516105/02/19 07:45:31  5-MIN KBKB 021345Z AUTO 00000KT 2SM RA BR FEW015 BKN032 OVC075 19/19 A3010 130 100 700 000/00 RMK AO2 VIS 1 1/4V3 RAB1258 T01940194 TSNO PNO $
53988KBKB BKB20190502075015805/02/19 07:50:31  5-MIN KBKB 021350Z AUTO 00000KT 2SM RA BR FEW019 BKN043 OVC075 19/19 A3009 140 100 700 000/00 RMK AO2 VIS 1 1/2V3 RAB1258 PRESFR TSNO PNO $
53988KBKB BKB20190502075513805/02/19 07:55:31  5-MIN KBKB 021355Z AUTO 00000KT 2 1/2SM RA BR BKN050 OVC070 19/19 A3010 130 100 700 000/00 RMK AO2 T01940194 TSNO PNO $
53988KBKB BKB20190502080014205/02/19 08:00:31  5-MIN KBKB 021400Z AUTO 00000KT 5SM -RA BR SCT060 BKN070 OVC095 19/19 A3010 130 100 700 000/00 RMK AO2 T01940194 TSNO PNO $
53988KBKB BKB20190502080513805/02/19 08:05:31  5-MIN KBKB 021405Z AUTO 00000KT 9SM -RA FEW060 BKN070 OVC095 20/19 A3010 130 97 800 000/00 RMK AO2 T02000194 TSNO PNO $
53988KBKB BKB20190502081013905/02/19 08:10:31  5-MIN KBKB 021410Z AUTO 00000KT 10SM -RA FEW060 SCT075 OVC100 20/19 A3010 130 97 800 000/00 RMK AO2 T02000194 TSNO PNO $
53988KBKB BKB20190502081513805/02/19 08:15:31  5-MIN KBKB 021415Z AUTO 00000KT 9SM -RA FEW060 SCT070 OVC100 20/19 A3011 120 97 800 000/00 RMK AO2 T02000194 TSNO PNO $
53988KBKB BKB20190502082014105/02/19 08:20:31  5-MIN KBKB 021420Z AUTO 00000KT 10SM FEW060 FEW070 OVC100 20/19 A3010 130 97 800 000/00 RMK AO2 RAE18 T02000194 TSNO PNO $
53988KBKB BKB20190502082512705/02/19 08:25:31  5-MIN KBKB 021425Z AUTO 00000KT 10SM OVC100 20/19 A3010 130 97 800 000/00 RMK AO2 RAE18 T02000194 TSNO PNO $
53988KBKB BKB20190502083012605/02/19 08:30:31  5-MIN KBKB 021430Z AUTO 00000KT 9SM OVC100 20/19 A3011 120 97 800 000/00 RMK AO2 RAE18 T02000194 TSNO PNO $
53988KBKB BKB20190502083512705/02/19 08:35:31  5-MIN KBKB 021435Z AUTO 00000KT 8SM OVC110 20/20 A3011 120 100 800 000/00 RMK AO2 RAE18 T02000200 TSNO PNO $
53988KBKB BKB20190502084012705/02/19 08:40:31  5-MIN KBKB 021440Z AUTO 00000KT 9SM OVC110 19/19 A3011 120 100 700 000/00 RMK AO2 RAE18 T01940194 TSNO PNO $
53988KBKB BKB20190502084514905/02/19 08:45:31  5-MIN KBKB 021445Z AUTO VRB03KT 10SM -RA FEW003 FEW029 OVC110 19/19 A3011 120 100 700 VRB/03 RMK AO2 RAE18B45 T01940194 TSNO PNO $
53988KBKB BKB20190502085016805/02/19 08:50:31  5-MIN KBKB 021450Z AUTO 00000KT 10SM -RA FEW005 BKN095 OVC120 19/19 A3011 130 100 700 000/00 RMK AO2 RAE18B45 SLP221 6//// T01940194 51015 TSNO PNO $
53988KBKB BKB20190502085513805/02/19 08:55:31  5-MIN KBKB 021455Z AUTO 00000KT 9SM -RA FEW005 FEW034 OVC110 19/19 A3011 130 97 700 000/00 RMK AO2 T01940189 TSNO PNO $
53988KBKB BKB20190502090014105/02/19 09:00:31  5-MIN KBKB 021500Z AUTO 00000KT 6SM -RA BR FEW005 SCT095 OVC110 19/19 A3011 130 97 700 000/00 RMK AO2 T01940189 TSNO PNO $
53988KBKB BKB20190502090513805/02/19 09:05:31  5-MIN KBKB 021505Z AUTO 00000KT 7SM -RA FEW007 SCT095 OVC110 19/19 A3010 130 97 700 000/00 RMK AO2 T01940189 TSNO PNO $
53988KBKB BKB20190502092012505/02/19 09:20:31  5-MIN KBKB 021520Z AUTO 14003KT 10SM -RA 19/19 A3009 140 100 700 140/03 RMK AO2 RAB13 T01890189 TSNO PNO $
53988KBKB BKB20190502092512005/02/19 09:25:31  5-MIN KBKB 021525Z AUTO VRB03KT 10SM 19/19 A3009 140 100 700 VRB/03 RMK AO2 RAB13E24 T01890189 TSNO $
53988KBKB BKB20190502093012005/02/19 09:30:31  5-MIN KBKB 021530Z AUTO VRB03KT 10SM 19/19 A3009 140 100 700 VRB/03 RMK AO2 RAB13E24 T01890189 TSNO $
53988KBKB BKB20190502093512005/02/19 09:35:31  5-MIN KBKB 021535Z AUTO VRB03KT 10SM 19/19 A3009 140 100 700 VRB/03 RMK AO2 RAB13E24 T01890189 TSNO $
53988KBKB BKB20190502094011905/02/19 09:40:31  5-MIN KBKB 021540Z AUTO VRB04KT 10SM 19/19 A3009 140 97 700 VRB/04 RMK AO2 RAB13E24 T01940189 TSNO $
53988KBKB BKB20190502094515105/02/19 09:45:31  5-MIN KBKB 021545Z AUTO VRB04KT 10SM -RA FEW075 SCT090 OVC110 19/19 A3009 140 97 700 VRB/04 RMK AO2 RAB13E24B41 T01940189 TSNO PNO $
53988KBKB BKB20190502095015605/02/19 09:50:31  5-MIN KBKB 021550Z AUTO VRB04KT 10SM -RA FEW075 BKN090 OVC120 19/19 A3009 140 97 700 VRB/04 RMK AO2 RAB13E24B41 SLP214 T01940189 TSNO PNO
53988KBKB BKB20190502095513905/02/19 09:55:31  5-MIN KBKB 021555Z AUTO VRB05KT 10SM -RA FEW027 BKN095 OVC120 20/19 A3008 150 97 800 VRB/05 RMK AO2 P0000 T02000194 TSNO
53988KBKB BKB20190502100014305/02/19 10:00:31  5-MIN KBKB 021600Z AUTO VRB03KT 10SM FEW050 SCT085 BKN110 20/19 A3008 150 97 800 VRB/03 RMK AO2 RAE1559 P0000 T02000194 TSNO
53988KBKB BKB20190502100515005/02/19 10:05:31  5-MIN KBKB 021605Z AUTO VRB04KT 10SM FEW047 SCT090 BKN110 20/19 A3007 160 97 800 VRB/04 RMK AO2 RAE1559 PRESFR P0000 T02000194 TSNO
53988KBKB BKB20190502101015205/02/19 10:10:31  5-MIN KBKB 021610Z AUTO VRB03KT 10SM FEW060 SCT085 SCT100 20/19 A3006 170 97 800 VRB/03 RMK AO2 RAE1559 PRESFR P0000 T02000194 TSNO $
53988KBKB BKB20190502101513105/02/19 10:15:31  5-MIN KBKB 021615Z AUTO VRB04KT 10SM -RA FEW055 SCT070 BKN090 20/19 M 97 M VRB/04 RMK AO2 P0000 T02000194 TSNO $
53988KBKB BKB20190502102013105/02/19 10:20:31  5-MIN KBKB 021620Z AUTO 00000KT 10SM -RA FEW055 SCT070 BKN120 20/19 M 93 M 000/00 RMK AO2 P0000 T02000189 TSNO $
53988KBKB BKB20190502102513105/02/19 10:25:31  5-MIN KBKB 021625Z AUTO VRB03KT 10SM -RA FEW050 SCT080 BKN110 20/19 M 97 M VRB/03 RMK AO2 P0000 T02000194 TSNO $
53988KBKB BKB20190502103013105/02/19 10:30:31  5-MIN KBKB 021630Z AUTO VRB03KT 10SM -RA SCT040 SCT070 BKN110 21/20 M 97 M VRB/03 RMK AO2 P0000 T02060200 TSNO $
53988KBKB BKB20190502103513105/02/19 10:35:31  5-MIN KBKB 021635Z AUTO 00000KT 10SM -RA FEW038 SCT070 BKN110 21/19 M 90 M 000/00 RMK AO2 P0000 T02110194 TSNO $
53988KBKB BKB20190502104013305/02/19 10:40:31  5-MIN KBKB 021640Z AUTO VRB03KT 10SM FEW042 FEW070 SCT110 22/19 M 87 M VRB/03 RMK AO2 RAE39 P0000 T02170194 TSNO $
53988KBKB BKB20190502104512605/02/19 10:45:31  5-MIN KBKB 021645Z AUTO VRB03KT 10SM FEW038 SCT110 23/21 M 87 M VRB/03 RMK AO2 RAE39 P0000 T02280206 TSNO $
53988KBKB BKB20190502105013205/02/19 10:50:31  5-MIN KBKB 021650Z AUTO VRB04KT 10SM FEW038 BKN110 22/20 M 87 M VRB/04 RMK AO2 RAE39 SLPNO P0000 T02220200 TSNO $
53988KBKB BKB20190502105511405/02/19 10:55:31  5-MIN KBKB 021655Z AUTO 07004KT 10SM FEW031 BKN120 22/19 M 87 M 070/04 RMK AO2 T02170194 TSNO $
53988KBKB BKB20190502110010705/02/19 11:00:31  5-MIN KBKB 021700Z AUTO VRB03KT 10SM SCT120 22/19 M 87 M VRB/03 RMK AO2 T02170194 TSNO $
53988KBKB BKB20190502110510705/02/19 11:05:31  5-MIN KBKB 021705Z AUTO 00000KT 10SM SCT120 22/20 M 87 M 000/00 RMK AO2 T02220200 TSNO $
53988KBKB BKB20190502111010705/02/19 11:10:31  5-MIN KBKB 021710Z AUTO 00000KT 10SM SCT120 23/20 M 84 M 000/00 RMK AO2 T02280200 TSNO $
53988KBKB BKB20190502111510705/02/19 11:15:31  5-MIN KBKB 021715Z AUTO 00000KT 10SM BKN120 23/21 M 84 M 000/00 RMK AO2 T02330206 TSNO $
53988KBKB BKB20190502112010705/02/19 11:20:31  5-MIN KBKB 021720Z AUTO VRB03KT 10SM BKN110 23/20 M 81 M VRB/03 RMK AO2 T02330200 TSNO $
53988KBKB BKB20190502112510705/02/19 11:25:31  5-MIN KBKB 021725Z AUTO VRB04KT 10SM SCT110 24/21 M 81 M VRB/04 RMK AO2 T02390206 TSNO $
53988KBKB BKB20190502113010705/02/19 11:30:31  5-MIN KBKB 021730Z AUTO VRB03KT 10SM SCT110 24/21 M 81 M VRB/03 RMK AO2 T02440211 TSNO $
53988KBKB BKB20190502113510705/02/19 11:35:31  5-MIN KBKB 021735Z AUTO 00000KT 10SM SCT110 24/21 M 81 M 000/00 RMK AO2 T02390206 TSNO $
53988KBKB BKB20190502114010705/02/19 11:40:31  5-MIN KBKB 021740Z AUTO VRB04KT 10SM FEW110 24/21 M 78 M VRB/04 RMK AO2 T02440206 TSNO $
53988KBKB BKB20190502114510705/02/19 11:45:31  5-MIN KBKB 021745Z AUTO 20004KT 10SM FEW110 26/21 M 76 M 200/04 RMK AO2 T02560211 TSNO $
53988KBKB BKB20190502115012805/02/19 11:50:31  5-MIN KBKB 021750Z AUTO VRB05KT 10SM CLR 26/21 M 76 M VRB/05 RMK AO2 SLPNO 6//// T02560211 10256 20189 TSNO $
53988KBKB BKB20190502115510405/02/19 11:55:31  5-MIN KBKB 021755Z AUTO VRB03KT 10SM CLR 26/21 M 76 M VRB/03 RMK AO2 T02560211 TSNO $
53988KBKB BKB20190502120010405/02/19 12:00:31  5-MIN KBKB 021800Z AUTO VRB04KT 10SM CLR 26/22 M 76 M VRB/04 RMK AO2 T02610217 TSNO $
53988KBKB BKB20190502120510405/02/19 12:05:31  5-MIN KBKB 021805Z AUTO 23006KT 10SM CLR 26/21 M 73 M 230/06 RMK AO2 T02610211 TSNO $
53988KBKB BKB20190502121010405/02/19 12:10:31  5-MIN KBKB 021810Z AUTO VRB04KT 10SM CLR 27/21 M 71 M VRB/04 RMK AO2 T02670211 TSNO $
53988KBKB BKB20190502121510405/02/19 12:15:31  5-MIN KBKB 021815Z AUTO VRB03KT 10SM CLR 27/21 M 69 M VRB/03 RMK AO2 T02720211 TSNO $
53988KBKB BKB20190502122010405/02/19 12:20:31  5-MIN KBKB 021820Z AUTO 00000KT 10SM CLR 28/22 M 69 M 000/00 RMK AO2 T02780217 TSNO $
53988KBKB BKB20190502122510405/02/19 12:25:31  5-MIN KBKB 021825Z AUTO 00000KT 10SM CLR 28/22 M 69 M 000/00 RMK AO2 T02780217 TSNO $
53988KBKB BKB20190502123010405/02/19 12:30:31  5-MIN KBKB 021830Z AUTO VRB04KT 10SM CLR 28/22 M 69 M VRB/04 RMK AO2 T02830222 TSNO $
53988KBKB BKB20190502123510405/02/19 12:35:31  5-MIN KBKB 021835Z AUTO VRB03KT 10SM CLR 28/22 M 66 M VRB/03 RMK AO2 T02830217 TSNO $
53988KBKB BKB20190502124010405/02/19 12:40:31  5-MIN KBKB 021840Z AUTO VRB03KT 10SM CLR 28/22 M 69 M VRB/03 RMK AO2 T02780217 TSNO $
53988KBKB BKB20190502124510405/02/19 12:45:31  5-MIN KBKB 021845Z AUTO VRB03KT 10SM CLR 28/22 M 66 M VRB/03 RMK AO2 T02830217 TSNO $
53988KBKB BKB20190502125011005/02/19 12:50:31  5-MIN KBKB 021850Z AUTO VRB03KT 10SM CLR 29/22 M 64 M VRB/03 RMK AO2 SLPNO T02890217 TSNO $
53988KBKB BKB20190502125510405/02/19 12:55:31  5-MIN KBKB 021855Z AUTO 20005KT 10SM CLR 29/22 M 67 M 200/05 RMK AO2 T02890222 TSNO $
53988KBKB BKB20190502130010405/02/19 13:00:31  5-MIN KBKB 021900Z AUTO VRB03KT 10SM CLR 29/22 M 64 M VRB/03 RMK AO2 T02890217 TSNO $
53988KBKB BKB20190502130510405/02/19 13:05:31  5-MIN KBKB 021905Z AUTO 00000KT 10SM CLR 29/22 M 67 M 000/00 RMK AO2 T02890222 TSNO $
53988KBKB BKB20190502131010405/02/19 13:10:31  5-MIN KBKB 021910Z AUTO VRB04KT 10SM CLR 28/22 M 66 M VRB/04 RMK AO2 T02830217 TSNO $
53988KBKB BKB20190502131510405/02/19 13:15:31  5-MIN KBKB 021915Z AUTO VRB03KT 10SM CLR 28/22 M 66 M VRB/03 RMK AO2 T02830217 TSNO $
53988KBKB BKB20190502132010405/02/19 13:20:31  5-MIN KBKB 021920Z AUTO 00000KT 10SM CLR 29/22 M 64 M 000/00 RMK AO2 T02890217 TSNO $
53988KBKB BKB20190502132510405/02/19 13:25:31  5-MIN KBKB 021925Z AUTO VRB06KT 10SM CLR 28/22 M 66 M VRB/06 RMK AO2 T02830217 TSNO $
53988KBKB BKB20190502133010405/02/19 13:30:31  5-MIN KBKB 021930Z AUTO VRB03KT 10SM CLR 28/22 M 66 M VRB/03 RMK AO2 T02830217 TSNO $
53988KBKB BKB20190502133510405/02/19 13:35:31  5-MIN KBKB 021935Z AUTO VRB06KT 10SM CLR 29/22 M 64 M VRB/06 RMK AO2 T02890217 TSNO $
53988KBKB BKB20190502134010405/02/19 13:40:31  5-MIN KBKB 021940Z AUTO VRB05KT 10SM CLR 29/22 M 64 M VRB/05 RMK AO2 T02890217 TSNO $
53988KBKB BKB20190502134510405/02/19 13:45:31  5-MIN KBKB 021945Z AUTO VRB03KT 10SM CLR 29/21 M 62 M VRB/03 RMK AO2 T02890211 TSNO $
53988KBKB BKB20190502135011005/02/19 13:50:31  5-MIN KBKB 021950Z AUTO VRB04KT 10SM CLR 29/22 M 62 M VRB/04 RMK AO2 SLPNO T02940217 TSNO $
53988KBKB BKB20190502135510405/02/19 13:55:31  5-MIN KBKB 021955Z AUTO 00000KT 10SM CLR 29/22 M 64 M 000/00 RMK AO2 T02890217 TSNO $
53988KBKB BKB20190502140010405/02/19 14:00:31  5-MIN KBKB 022000Z AUTO VRB03KT 10SM CLR 29/22 M 62 M VRB/03 RMK AO2 T02940217 TSNO $
53988KBKB BKB20190502140510405/02/19 14:05:31  5-MIN KBKB 022005Z AUTO VRB04KT 10SM CLR 29/22 M 62 M VRB/04 RMK AO2 T02940217 TSNO $
53988KBKB BKB20190502141009705/02/19 14:10:31  5-MIN KBKB 022010Z AUTO 10SM FEW060 29/21 M 60 M M /M RMK AO2 T02940211 TSNO $
53988KBKB BKB20190502141511405/02/19 14:15:31  5-MIN KBKB 022015Z AUTO VRB04KT 10SM FEW039 FEW060 28/21 M 64 M VRB/04 RMK AO2 T02830211 TSNO $
53988KBKB BKB20190502142012105/02/19 14:20:31  5-MIN KBKB 022020Z AUTO 00000KT 10SM FEW037 SCT048 SCT060 28/21 M 66 M 000/00 RMK AO2 T02780211 TSNO $
53988KBKB BKB20190502142512105/02/19 14:25:31  5-MIN KBKB 022025Z AUTO VRB03KT 10SM SCT037 BKN048 BKN060 28/21 M 66 M VRB/03 RMK AO2 T02780211 TSNO $
53988KBKB BKB20190502143012105/02/19 14:30:31  5-MIN KBKB 022030Z AUTO VRB03KT 10SM BKN035 BKN048 BKN060 28/21 M 66 M VRB/03 RMK AO2 T02780211 TSNO $
53988KBKB BKB20190502143512105/02/19 14:35:31  5-MIN KBKB 022035Z AUTO VRB03KT 10SM BKN037 BKN055 BKN065 28/21 M 64 M VRB/03 RMK AO2 T02780206 TSNO $
53988KBKB BKB20190502144012105/02/19 14:40:31  5-MIN KBKB 022040Z AUTO 00000KT 10SM SCT035 BKN042 OVC065 27/21 M 69 M 000/00 RMK AO2 T02720211 TSNO $
53988KBKB BKB20190502144511405/02/19 14:45:31  5-MIN KBKB 022045Z AUTO 00000KT 10SM BKN036 OVC047 27/21 M 69 M 000/00 RMK AO2 T02720211 TSNO $
53988KBKB BKB20190502145012005/02/19 14:50:31  5-MIN KBKB 022050Z AUTO 00000KT 10SM BKN036 OVC047 27/21 M 69 M 000/00 RMK AO2 SLPNO T02720211 TSNO $
53988KBKB BKB20190502145510705/02/19 14:55:31  5-MIN KBKB 022055Z AUTO 00000KT 10SM OVC036 27/22 M 73 M 000/00 RMK AO2 T02670217 TSNO $
53988KBKB BKB20190502150011405/02/19 15:00:31  5-MIN KBKB 022100Z AUTO 00000KT 10SM BKN036 OVC045 27/22 M 76 M 000/00 RMK AO2 T02670222 TSNO $
53988KBKB BKB20190502150511405/02/19 15:05:31  5-MIN KBKB 022105Z AUTO 00000KT 10SM BKN038 OVC046 27/22 M 74 M 000/00 RMK AO2 T02720222 TSNO $
53988KBKB BKB20190502151012105/02/19 15:10:31  5-MIN KBKB 022110Z AUTO 00000KT 10SM BKN036 BKN046 OVC055 28/22 M 66 M 000/00 RMK AO2 T02830217 TSNO $
53988KBKB BKB20190502151512105/02/19 15:15:31  5-MIN KBKB 022115Z AUTO VRB03KT 10SM BKN036 BKN046 BKN080 28/21 M 66 M VRB/03 RMK AO2 T02780211 TSNO $
53988KBKB BKB20190502152012105/02/19 15:20:31  5-MIN KBKB 022120Z AUTO VRB03KT 10SM SCT036 SCT046 BKN080 28/21 M 66 M VRB/03 RMK AO2 T02780211 TSNO $
53988KBKB BKB20190502152512105/02/19 15:25:31  5-MIN KBKB 022125Z AUTO VRB03KT 10SM FEW035 SCT046 BKN075 28/21 M 66 M VRB/03 RMK AO2 T02780211 TSNO $
53988KBKB BKB20190502153012105/02/19 15:30:31  5-MIN KBKB 022130Z AUTO VRB03KT 10SM FEW037 SCT050 BKN075 28/21 M 62 M VRB/03 RMK AO2 T02830206 TSNO $
53988KBKB BKB20190502153511405/02/19 15:35:31  5-MIN KBKB 022135Z AUTO 00000KT 10SM SCT037 BKN075 28/21 M 62 M 000/00 RMK AO2 T02830206 TSNO $
53988KBKB BKB20190502154011405/02/19 15:40:31  5-MIN KBKB 022140Z AUTO VRB04KT 10SM FEW039 SCT075 29/21 M 62 M VRB/04 RMK AO2 T02890211 TSNO $
53988KBKB BKB20190502154511405/02/19 15:45:31  5-MIN KBKB 022145Z AUTO 00000KT 10SM FEW039 SCT075 29/21 M 60 M 000/00 RMK AO2 T02890206 TSNO $
53988KBKB BKB20190502155012005/02/19 15:50:31  5-MIN KBKB 022150Z AUTO VRB03KT 10SM FEW038 FEW075 28/21 M 64 M VRB/03 RMK AO2 SLPNO T02780206 TSNO $
53988KBKB BKB20190502155510705/02/19 15:55:31  5-MIN KBKB 022155Z AUTO 00000KT 10SM FEW038 29/21 M 62 M 000/00 RMK AO2 T02890211 TSNO $
53988KBKB BKB20190502160011405/02/19 16:00:31  5-MIN KBKB 022200Z AUTO 00000KT 10SM FEW038 SCT070 28/21 M 64 M 000/00 RMK AO2 T02830211 TSNO $
53988KBKB BKB20190502160511405/02/19 16:05:31  5-MIN KBKB 022205Z AUTO 00000KT 10SM FEW045 SCT070 28/21 M 66 M 000/00 RMK AO2 T02780211 TSNO $
53988KBKB BKB20190502161011405/02/19 16:10:31  5-MIN KBKB 022210Z AUTO 00000KT 10SM FEW045 BKN070 28/21 M 66 M 000/00 RMK AO2 T02780211 TSNO $
53988KBKB BKB20190502161512105/02/19 16:15:31  5-MIN KBKB 022215Z AUTO 00000KT 10SM SCT043 SCT050 BKN070 28/21 M 64 M 000/00 RMK AO2 T02780206 TSNO $
53988KBKB BKB20190502162011405/02/19 16:20:31  5-MIN KBKB 022220Z AUTO 00000KT 10SM BKN045 BKN070 28/21 M 66 M 000/00 RMK AO2 T02780211 TSNO $
53988KBKB BKB20190502162511405/02/19 16:25:31  5-MIN KBKB 022225Z AUTO 00000KT 10SM BKN047 OVC070 28/22 M 69 M 000/00 RMK AO2 T02780217 TSNO $
53988KBKB BKB20190502163011405/02/19 16:30:31  5-MIN KBKB 022230Z AUTO 00000KT 10SM BKN047 OVC060 28/22 M 69 M 000/00 RMK AO2 T02780217 TSNO $
53988KBKB BKB20190502163511405/02/19 16:35:31  5-MIN KBKB 022235Z AUTO 00000KT 10SM BKN047 OVC060 28/21 M 66 M 000/00 RMK AO2 T02780211 TSNO $
53988KBKB BKB20190502164012105/02/19 16:40:31  5-MIN KBKB 022240Z AUTO VRB03KT 10SM SCT047 BKN060 OVC070 28/22 M 69 M VRB/03 RMK AO2 T02780217 TSNO $
53988KBKB BKB20190502164511405/02/19 16:45:31  5-MIN KBKB 022245Z AUTO 00000KT 10SM FEW049 OVC065 28/21 M 66 M 000/00 RMK AO2 T02780211 TSNO $
53988KBKB BKB20190502165012005/02/19 16:50:31  5-MIN KBKB 022250Z AUTO 00000KT 10SM FEW049 OVC065 27/21 M 69 M 000/00 RMK AO2 SLPNO T02720211 TSNO $
53988KBKB BKB20190502165511405/02/19 16:55:31  5-MIN KBKB 022255Z AUTO 00000KT 10SM BKN060 OVC075 27/21 M 69 M 000/00 RMK AO2 T02720211 TSNO $
53988KBKB BKB20190502170011405/02/19 17:00:31  5-MIN KBKB 022300Z AUTO 00000KT 10SM SCT060 BKN075 28/22 M 69 M 000/00 RMK AO2 T02780217 TSNO $
53988KBKB BKB20190502170510705/02/19 17:05:31  5-MIN KBKB 022305Z AUTO 00000KT 10SM BKN070 27/21 M 69 M 000/00 RMK AO2 T02720211 TSNO $
53988KBKB BKB20190502171010705/02/19 17:10:31  5-MIN KBKB 022310Z AUTO 00000KT 10SM SCT070 27/21 M 71 M 000/00 RMK AO2 T02670211 TSNO $
53988KBKB BKB20190502171511405/02/19 17:15:31  5-MIN KBKB 022315Z AUTO 00000KT 10SM FEW045 BKN075 27/21 M 71 M 000/00 RMK AO2 T02670211 TSNO $
53988KBKB BKB20190502172011405/02/19 17:20:31  5-MIN KBKB 022320Z AUTO 00000KT 10SM SCT045 BKN075 26/22 M 79 M 000/00 RMK AO2 T02610222 TSNO $
53988KBKB BKB20190502172510705/02/19 17:25:31  5-MIN KBKB 022325Z AUTO 00000KT 10SM BKN045 27/22 M 73 M 000/00 RMK AO2 T02670217 TSNO $
53988KBKB BKB20190502173010705/02/19 17:30:31  5-MIN KBKB 022330Z AUTO 00000KT 10SM BKN045 27/22 M 71 M 000/00 RMK AO2 T02720217 TSNO $
53988KBKB BKB20190502173510705/02/19 17:35:31  5-MIN KBKB 022335Z AUTO 00000KT 10SM BKN045 27/22 M 76 M 000/00 RMK AO2 T02670222 TSNO $
53988KBKB BKB20190502174010705/02/19 17:40:31  5-MIN KBKB 022340Z AUTO 00000KT 10SM BKN045 27/22 M 76 M 000/00 RMK AO2 T02670222 TSNO $
53988KBKB BKB20190502174510705/02/19 17:45:31  5-MIN KBKB 022345Z AUTO 00000KT 10SM OVC043 26/23 M 81 M 000/00 RMK AO2 T02610228 TSNO $
53988KBKB BKB20190502175013205/02/19 17:50:31  5-MIN KBKB 022350Z AUTO 00000KT 10SM BKN043 OVC060 26/23 M 81 M 000/00 RMK AO2 SLPNO T02610228 10294 20256 TSNO $
53988KBKB BKB20190502175512105/02/19 17:55:31  5-MIN KBKB 022355Z AUTO 00000KT 10SM BKN042 BKN049 OVC060 26/22 M 79 M 000/00 RMK AO2 T02610222 TSNO $
53988KBKB BKB20190502180011405/02/19 18:00:31  5-MIN KBKB 030000Z AUTO 00000KT 10SM BKN042 OVC049 26/23 M 81 M 000/00 RMK AO2 T02610228 TSNO $
53988KBKB BKB20190502180511405/02/19 18:05:31  5-MIN KBKB 030005Z AUTO 00000KT 10SM BKN041 OVC049 26/23 M 84 M 000/00 RMK AO2 T02560228 TSNO $
53988KBKB BKB20190502181010705/02/19 18:10:31  5-MIN KBKB 030010Z AUTO 00000KT 10SM OVC045 26/22 M 81 M 000/00 RMK AO2 T02560222 TSNO $
53988KBKB BKB20190502181511405/02/19 18:15:31  5-MIN KBKB 030015Z AUTO 00000KT 10SM BKN045 OVC055 26/22 M 81 M 000/00 RMK AO2 T02560222 TSNO $
53988KBKB BKB20190502182010705/02/19 18:20:31  5-MIN KBKB 030020Z AUTO 00000KT 10SM OVC043 26/22 M 81 M 000/00 RMK AO2 T02560222 TSNO $
53988KBKB BKB20190502182510705/02/19 18:25:31  5-MIN KBKB 030025Z AUTO 00000KT 10SM OVC045 25/22 M 84 M 000/00 RMK AO2 T02500222 TSNO $
53988KBKB BKB20190502183011405/02/19 18:30:31  5-MIN KBKB 030030Z AUTO 00000KT 10SM BKN045 OVC060 25/22 M 84 M 000/00 RMK AO2 T02500222 TSNO $
53988KBKB BKB20190502183511405/02/19 18:35:31  5-MIN KBKB 030035Z AUTO 00000KT 10SM BKN045 OVC060 25/22 M 81 M 000/00 RMK AO2 T02500217 TSNO $
53988KBKB BKB20190502184011405/02/19 18:40:31  5-MIN KBKB 030040Z AUTO 00000KT 10SM BKN045 OVC060 25/22 M 81 M 000/00 RMK AO2 T02500217 TSNO $
53988KBKB BKB20190502184511405/02/19 18:45:31  5-MIN KBKB 030045Z AUTO 00000KT 10SM BKN045 OVC060 25/22 M 84 M 000/00 RMK AO2 T02500222 TSNO $
53988KBKB BKB20190502185012705/02/19 18:50:31  5-MIN KBKB 030050Z AUTO 00000KT 10SM BKN047 BKN060 OVC095 25/22 M 84 M 000/00 RMK AO2 SLPNO T02500222 TSNO $
53988KBKB BKB20190502185512105/02/19 18:55:31  5-MIN KBKB 030055Z AUTO 00000KT 10SM BKN045 BKN060 OVC095 24/22 M 87 M 000/00 RMK AO2 T02440222 TSNO $
53988KBKB BKB20190502190012105/02/19 19:00:31  5-MIN KBKB 030100Z AUTO 00000KT 10SM BKN047 BKN065 OVC100 24/22 M 87 M 000/00 RMK AO2 T02440222 TSNO $
53988KBKB BKB20190502190511405/02/19 19:05:31  5-MIN KBKB 030105Z AUTO 00000KT 10SM BKN047 OVC065 24/22 M 84 M 000/00 RMK AO2 T02440217 TSNO $
53988KBKB BKB20190502191011405/02/19 19:10:31  5-MIN KBKB 030110Z AUTO 00000KT 10SM BKN047 OVC095 25/22 M 81 M 000/00 RMK AO2 T02500217 TSNO $
53988KBKB BKB20190502191510705/02/19 19:15:31  5-MIN KBKB 030115Z AUTO 00000KT 10SM OVC049 25/22 M 81 M 000/00 RMK AO2 T02500217 TSNO $
53988KBKB BKB20190502192010705/02/19 19:20:31  5-MIN KBKB 030120Z AUTO 00000KT 10SM OVC049 24/22 M 84 M 000/00 RMK AO2 T02440217 TSNO $
53988KBKB BKB20190502192511805/02/19 19:25:31  5-MIN KBKB 030125Z AUTO 00000KT 10SM OVC049 24/22 A2996 260 84 1500 000/00 RMK AO2 T02440217 TSNO $
53988KBKB BKB20190502193011805/02/19 19:30:31  5-MIN KBKB 030130Z AUTO 00000KT 10SM OVC049 24/22 A2996 260 84 1500 000/00 RMK AO2 T02440217 TSNO $
53988KBKB BKB20190502193511805/02/19 19:35:31  5-MIN KBKB 030135Z AUTO 00000KT 10SM OVC049 24/22 A2996 260 84 1500 000/00 RMK AO2 T02440217 TSNO $
53988KBKB BKB20190502194011805/02/19 19:40:31  5-MIN KBKB 030140Z AUTO 00000KT 10SM OVC050 24/22 A2996 260 84 1500 000/00 RMK AO2 T02440217 TSNO $
53988KBKB BKB20190502194511805/02/19 19:45:31  5-MIN KBKB 030145Z AUTO 00000KT 10SM OVC050 24/22 A2996 260 87 1500 000/00 RMK AO2 T02440222 TSNO $
53988KBKB BKB20190502195012505/02/19 19:50:31  5-MIN KBKB 030150Z AUTO 00000KT 10SM OVC055 24/22 A2997 260 90 1400 000/00 RMK AO2 SLP173 T02390222 TSNO $
53988KBKB BKB20190502195511805/02/19 19:55:31  5-MIN KBKB 030155Z AUTO 00000KT 10SM OVC055 24/22 A2997 260 90 1400 000/00 RMK AO2 T02390222 TSNO $
53988KBKB BKB20190502200012505/02/19 20:00:31  5-MIN KBKB 030200Z AUTO 00000KT 10SM FEW037 OVC055 24/22 A2997 250 90 1400 000/00 RMK AO2 T02390222 TSNO $
53988KBKB BKB20190502200513205/02/19 20:05:31  5-MIN KBKB 030205Z AUTO 00000KT 10SM FEW037 SCT047 OVC060 24/22 A2997 250 87 1400 000/00 RMK AO2 T02390217 TSNO $
53988KBKB BKB20190502201013205/02/19 20:10:31  5-MIN KBKB 030210Z AUTO 00000KT 10SM FEW039 SCT047 OVC060 24/22 A2997 250 87 1400 000/00 RMK AO2 T02390217 TSNO $
53988KBKB BKB20190502201513205/02/19 20:15:31  5-MIN KBKB 030215Z AUTO 00000KT 10SM FEW039 BKN049 OVC060 24/22 A2997 250 87 1400 000/00 RMK AO2 T02390217 TSNO $
53988KBKB BKB20190502202013205/02/19 20:20:31  5-MIN KBKB 030220Z AUTO 00000KT 10SM SCT039 BKN049 OVC060 24/22 A2997 250 87 1400 000/00 RMK AO2 T02390217 TSNO $
53988KBKB BKB20190502202513205/02/19 20:25:31  5-MIN KBKB 030225Z AUTO 00000KT 10SM SCT039 BKN049 OVC060 24/22 A2998 250 87 1400 000/00 RMK AO2 T02390217 TSNO $
53988KBKB BKB20190502203012505/02/19 20:30:31  5-MIN KBKB 030230Z AUTO 00000KT 10SM BKN043 OVC049 24/22 A2998 240 87 1400 000/00 RMK AO2 T02390217 TSNO $
53988KBKB BKB20190502203511805/02/19 20:35:31  5-MIN KBKB 030235Z AUTO 00000KT 10SM OVC046 24/22 A2998 240 87 1400 000/00 RMK AO2 T02390217 TSNO $
53988KBKB BKB20190502204012505/02/19 20:40:31  5-MIN KBKB 030240Z AUTO 00000KT 10SM SCT042 OVC050 24/22 A2998 240 87 1400 000/00 RMK AO2 T02390217 TSNO $
53988KBKB BKB20190502204512505/02/19 20:45:31  5-MIN KBKB 030245Z AUTO 00000KT 10SM SCT042 BKN050 24/21 A2999 230 84 1400 000/00 RMK AO2 T02390211 TSNO $
53988KBKB BKB20190502205013205/02/19 20:50:31  5-MIN KBKB 030250Z AUTO 00000KT 10SM SCT045 BKN055 24/21 A3000 230 84 1400 000/00 RMK AO2 SLP183 T02390211 TSNO $
53988KBKB BKB20190502205512505/02/19 20:55:31  5-MIN KBKB 030255Z AUTO 00000KT 10SM SCT047 SCT055 24/21 A3000 230 84 1300 000/00 RMK AO2 T02390211 TSNO $
53988KBKB BKB20190502210011805/02/19 21:00:31  5-MIN KBKB 030300Z AUTO 00000KT 10SM FEW049 24/21 A3000 220 84 1300 000/00 RMK AO2 T02390211 TSNO $
53988KBKB BKB20190502210511805/02/19 21:05:31  5-MIN KBKB 030305Z AUTO 00000KT 10SM FEW055 23/22 A3000 220 90 1300 000/00 RMK AO2 T02330217 TSNO $
53988KBKB BKB20190502211011805/02/19 21:10:31  5-MIN KBKB 030310Z AUTO 00000KT 10SM FEW110 23/21 A3000 220 87 1300 000/00 RMK AO2 T02330211 TSNO $
53988KBKB BKB20190502211511805/02/19 21:15:31  5-MIN KBKB 030315Z AUTO 00000KT 10SM SCT110 23/21 A3001 220 87 1300 000/00 RMK AO2 T02330211 TSNO $
53988KBKB BKB20190502212011805/02/19 21:20:31  5-MIN KBKB 030320Z AUTO 00000KT 10SM BKN110 23/21 A3000 220 84 1300 000/00 RMK AO2 T02330206 TSNO $
53988KBKB BKB20190502212511805/02/19 21:25:31  5-MIN KBKB 030325Z AUTO 00000KT 10SM BKN100 23/21 A3000 220 87 1300 000/00 RMK AO2 T02330211 TSNO $
53988KBKB BKB20190502213011805/02/19 21:30:31  5-MIN KBKB 030330Z AUTO 00000KT 10SM BKN110 23/21 A3001 220 87 1300 000/00 RMK AO2 T02330211 TSNO $
53988KBKB BKB20190502213511805/02/19 21:35:31  5-MIN KBKB 030335Z AUTO 00000KT 10SM BKN100 23/21 A3001 220 87 1300 000/00 RMK AO2 T02330211 TSNO $
53988KBKB BKB20190502214011805/02/19 21:40:31  5-MIN KBKB 030340Z AUTO 00000KT 10SM BKN100 23/21 A3001 210 87 1300 000/00 RMK AO2 T02330211 TSNO $
53988KBKB BKB20190502214511805/02/19 21:45:31  5-MIN KBKB 030345Z AUTO 00000KT 10SM BKN100 23/21 A3002 210 84 1300 000/00 RMK AO2 T02330206 TSNO $
53988KBKB BKB20190502215012505/02/19 21:50:31  5-MIN KBKB 030350Z AUTO 00000KT 10SM BKN095 23/21 A3002 210 84 1300 000/00 RMK AO2 SLP192 T02330206 TSNO $
53988KBKB BKB20190502215512505/02/19 21:55:31  5-MIN KBKB 030355Z AUTO 00000KT 10SM FEW070 OVC095 23/20 A3002 210 81 1300 000/00 RMK AO2 T02330200 TSNO $
53988KBKB BKB20190502220012505/02/19 22:00:31  5-MIN KBKB 030400Z AUTO VRB03KT 10SM FEW070 OVC095 23/20 A3002 200 81 1300 VRB/03 RMK AO2 T02330200 TSNO $
53988KBKB BKB20190502220512505/02/19 22:05:31  5-MIN KBKB 030405Z AUTO 00000KT 10SM SCT060 OVC095 23/20 A3003 200 81 1300 000/00 RMK AO2 T02330200 TSNO $
53988KBKB BKB20190502221012505/02/19 22:10:31  5-MIN KBKB 030410Z AUTO 00000KT 10SM BKN060 OVC100 23/20 A3003 200 81 1300 000/00 RMK AO2 T02330200 TSNO $
53988KBKB BKB20190502221512505/02/19 22:15:31  5-MIN KBKB 030415Z AUTO VRB05KT 10SM BKN060 OVC095 23/20 A3003 200 81 1300 VRB/05 RMK AO2 T02330200 TSNO $
53988KBKB BKB20190502222012505/02/19 22:20:31  5-MIN KBKB 030420Z AUTO VRB03KT 10SM BKN060 OVC100 23/20 A3003 200 81 1300 VRB/03 RMK AO2 T02330200 TSNO $
53988KBKB BKB20190502222512505/02/19 22:25:31  5-MIN KBKB 030425Z AUTO VRB04KT 10SM BKN060 OVC100 23/20 A3003 200 81 1300 VRB/04 RMK AO2 T02330200 TSNO $
53988KBKB BKB20190502223011805/02/19 22:30:31  5-MIN KBKB 030430Z AUTO VRB05KT 10SM OVC065 23/20 A3003 200 81 1300 VRB/05 RMK AO2 T02330200 TSNO $
53988KBKB BKB20190502223511805/02/19 22:35:31  5-MIN KBKB 030435Z AUTO VRB04KT 10SM OVC065 23/20 A3003 200 81 1300 VRB/04 RMK AO2 T02330200 TSNO $
53988KBKB BKB20190502224011805/02/19 22:40:31  5-MIN KBKB 030440Z AUTO VRB05KT 10SM OVC070 23/20 A3002 200 81 1300 VRB/05 RMK AO2 T02330200 TSNO $
53988KBKB BKB20190502224511805/02/19 22:45:31  5-MIN KBKB 030445Z AUTO VRB04KT 10SM OVC070 23/20 A3002 200 81 1300 VRB/04 RMK AO2 T02330200 TSNO $
53988KBKB BKB20190502225012505/02/19 22:50:31  5-MIN KBKB 030450Z AUTO VRB03KT 10SM OVC070 23/20 A3002 210 81 1300 VRB/03 RMK AO2 SLP191 T02330200 TSNO $
53988KBKB BKB20190502225511805/02/19 22:55:31  5-MIN KBKB 030455Z AUTO VRB03KT 10SM OVC075 23/20 A3002 210 81 1300 VRB/03 RMK AO2 T02330200 TSNO $
53988KBKB BKB20190502230011805/02/19 23:00:31  5-MIN KBKB 030500Z AUTO VRB04KT 10SM OVC075 23/20 A3001 210 84 1200 VRB/04 RMK AO2 T02280200 TSNO $
53988KBKB BKB20190502230511805/02/19 23:05:31  5-MIN KBKB 030505Z AUTO 23003KT 10SM OVC080 23/20 A3001 220 84 1200 220/03 RMK AO2 T02280200 TSNO $
53988KBKB BKB20190502231012505/02/19 23:10:31  5-MIN KBKB 030510Z AUTO VRB03KT 10SM BKN080 BKN100 23/20 A3001 220 84 1200 VRB/03 RMK AO2 T02280200 TSNO $
53988KBKB BKB20190502231512505/02/19 23:15:31  5-MIN KBKB 030515Z AUTO VRB03KT 10SM BKN080 BKN100 22/20 A3000 220 87 1200 VRB/03 RMK AO2 T02220200 TSNO $
53988KBKB BKB20190502232012505/02/19 23:20:31  5-MIN KBKB 030520Z AUTO 00000KT 10SM SCT080 BKN100 23/20 A3000 220 84 1200 000/00 RMK AO2 T02280200 TSNO $
53988KBKB BKB20190502232512505/02/19 23:25:31  5-MIN KBKB 030525Z AUTO VRB03KT 10SM SCT090 BKN100 23/20 A3000 230 84 1200 VRB/03 RMK AO2 T02280200 TSNO $
53988KBKB BKB20190502233011805/02/19 23:30:31  5-MIN KBKB 030530Z AUTO 00000KT 10SM BKN095 23/20 A3000 230 84 1200 000/00 RMK AO2 T02280200 TSNO $
53988KBKB BKB20190502233511805/02/19 23:35:31  5-MIN KBKB 030535Z AUTO VRB03KT 10SM BKN095 23/20 A3000 230 84 1200 VRB/03 RMK AO2 T02280200 TSNO $
53988KBKB BKB20190502234012505/02/19 23:40:31  5-MIN KBKB 030540Z AUTO 00000KT 10SM FEW019 BKN095 23/20 A2999 230 84 1200 000/00 RMK AO2 T02280200 TSNO $
53988KBKB BKB20190502234512505/02/19 23:45:31  5-MIN KBKB 030545Z AUTO 00000KT 10SM FEW019 BKN095 23/20 A2999 240 84 1200 000/00 RMK AO2 T02280200 TSNO $
53988KBKB BKB20190502235015405/02/19 23:50:31  5-MIN KBKB 030550Z AUTO 00000KT 10SM FEW017 SCT090 22/20 A2998 240 87 1200 000/00 RMK AO2 SLP179 T02220200 10261 20222 402940189 TSNO $
53988KBKB BKB20190502235513205/02/19 23:55:31  5-MIN KBKB 030555Z AUTO 00000KT 10SM FEW017 SCT090 22/20 A2997 250 87 1200 000/00 RMK AO2 PRESFR T02220200 TSNO $
53988KBKB BKB20190503000012505/03/19 00:00:31  5-MIN KBKB 030600Z AUTO 00000KT 10SM FEW017 FEW090 22/20 A2997 250 87 1200 000/00 RMK AO2 T02220200 TSNO $
53988KBKB BKB20190503000513205/03/19 00:05:31  5-MIN KBKB 030605Z AUTO 00000KT 10SM FEW014 FEW100 SCT120 22/20 A2997 250 87 1200 000/00 RMK AO2 T02220200 TSNO $
53988KBKB BKB20190503001012505/03/19 00:10:31  5-MIN KBKB 030610Z AUTO 00000KT 10SM FEW014 SCT110 22/20 A2997 250 87 1200 000/00 RMK AO2 T02220200 TSNO $
53988KBKB BKB20190503001512505/03/19 00:15:31  5-MIN KBKB 030615Z AUTO 00000KT 10SM FEW014 BKN110 22/20 A2998 250 87 1200 000/00 RMK AO2 T02220200 TSNO $
53988KBKB BKB20190503002012505/03/19 00:20:31  5-MIN KBKB 030620Z AUTO 00000KT 10SM FEW014 BKN110 22/20 A2998 240 90 1100 000/00 RMK AO2 T02170200 TSNO $
53988KBKB BKB20190503002513405/03/19 00:25:31  5-MIN KBKB 030625Z AUTO 00000KT 10SM -RA BKN110 22/20 A2998 240 87 1200 000/00 RMK AO2 RAB24 P0000 T02220200 TSNO $
53988KBKB BKB20190503003013405/03/19 00:30:31  5-MIN KBKB 030630Z AUTO 00000KT 10SM -RA BKN120 22/20 A2997 250 87 1200 000/00 RMK AO2 RAB24 P0000 T02220200 TSNO $
53988KBKB BKB20190503003513405/03/19 00:35:31  5-MIN KBKB 030635Z AUTO 00000KT 10SM -RA BKN110 22/21 A2997 250 93 1100 000/00 RMK AO2 RAB24 P0000 T02170206 TSNO $
53988KBKB BKB20190503004013405/03/19 00:40:31  5-MIN KBKB 030640Z AUTO 00000KT 10SM -RA BKN120 22/21 A2996 260 93 1100 000/00 RMK AO2 RAB24 P0000 T02170206 TSNO $
53988KBKB BKB20190503004514105/03/19 00:45:31  5-MIN KBKB 030645Z AUTO 08003KT 10SM -RA OVC110 22/21 A2995 270 93 1200 080/03 RMK AO2 RAB24 PRESFR P0000 T02170206 TSNO $
53988KBKB BKB20190503005015505/03/19 00:50:31  5-MIN KBKB 030650Z AUTO 00000KT 10SM -RA FEW050 OVC110 22/21 A2993 290 93 1200 000/00 RMK AO2 RAB24 PRESFR SLP160 P0000 T02170206 TSNO $
53988KBKB BKB20190503005513505/03/19 00:55:31  5-MIN KBKB 030655Z AUTO VRB03KT 10SM -RA FEW050 BKN110 21/21 A2993 290 97 1100 VRB/03 RMK AO2 P0000 T02110206 TSNO $
53988KBKB BKB20190503010013505/03/19 01:00:31  5-MIN KBKB 030700Z AUTO 00000KT 10SM -RA FEW050 BKN110 21/21 A2993 290 97 1100 000/00 RMK AO2 P0000 T02110206 TSNO $
53988KBKB BKB20190503010509005/03/19 01:05:31  5-MIN KBKB 030705Z AUTO 00000KT M M M 000/00 RMK AO2 RAE02 P0000 TSNO $
53988KBKB BKB20190503011011805/03/19 01:10:31  5-MIN KBKB 030710Z AUTO 00000KT 21/21 A2992 300 97 1100 000/00 RMK AO2 RAE02 P0000 T02110206 TSNO $
53988KBKB BKB20190503011512305/03/19 01:15:31  5-MIN KBKB 030715Z AUTO 00000KT 10SM 21/21 A2992 300 97 1100 000/00 RMK AO2 RAE02 P0000 T02110206 TSNO $
53988KBKB BKB20190503012012305/03/19 01:20:31  5-MIN KBKB 030720Z AUTO 00000KT 10SM 21/21 A2992 300 97 1100 000/00 RMK AO2 RAE02 P0000 T02110206 TSNO $
53988KBKB BKB20190503012512305/03/19 01:25:31  5-MIN KBKB 030725Z AUTO VRB03KT 10SM 21/21 A2992 300 97 1100 VRB/03 RMK AO2 RAE02 P0000 T02110206 TSNO $
53988KBKB BKB20190503013012305/03/19 01:30:31  5-MIN KBKB 030730Z AUTO 11004KT 10SM 21/21 A2991 310 97 1100 110/04 RMK AO2 RAE02 P0000 T02110206 TSNO $
53988KBKB BKB20190503013514405/03/19 01:35:31  5-MIN KBKB 030735Z AUTO 00000KT 10SM SCT065 BKN085 BKN110 21/21 A2991 310 97 1100 000/00 RMK AO2 RAE02 P0000 T02110206 TSNO $
53988KBKB BKB20190503014015105/03/19 01:40:31  5-MIN KBKB 030740Z AUTO 00000KT 10SM -RA FEW055 SCT070 BKN110 21/21 A2992 300 97 1100 000/00 RMK AO2 RAE02B36 P0000 T02110206 TSNO $
53988KBKB BKB20190503014515105/03/19 01:45:31  5-MIN KBKB 030745Z AUTO 00000KT 10SM -RA SCT065 SCT085 BKN110 21/21 A2992 300 97 1100 000/00 RMK AO2 RAE02B36 P0000 T02110206 TSNO $
53988KBKB BKB20190503015014105/03/19 01:50:31  5-MIN KBKB 030750Z AUTO 00000KT 10SM -RA FEW008 FEW047 SCT070 21/21 A2993 290 97 1100 000/00 RMK AO2 RAE02B36 P0000 TSNO $
53988KBKB BKB20190503015514905/03/19 01:55:31  5-MIN KBKB 030755Z AUTO 00000KT 10SM -RA SCT008 BKN047 BKN070 21/21 A2994 280 97 1100 000/00 RMK AO2 PRESRR P0000 T02110206 TSNO $
53988KBKB BKB20190503020013905/03/19 02:00:31  5-MIN KBKB 030800Z AUTO 00000KT 10SM BKN008 BKN050 21/21 A2994 280 97 1100 000/00 RMK AO2 RAE0757 P0000 T02110206 TSNO $
53988KBKB BKB20190503020513205/03/19 02:05:31  5-MIN KBKB 030805Z AUTO 00000KT 10SM BKN010 21/21 A2994 280 97 1100 000/00 RMK AO2 RAE0757 P0000 T02110206 TSNO $
53988KBKB BKB20190503021013205/03/19 02:10:31  5-MIN KBKB 030810Z AUTO 00000KT 10SM BKN010 21/21 A2994 280 97 1100 000/00 RMK AO2 RAE0757 P0000 T02110206 TSNO $
53988KBKB BKB20190503021513205/03/19 02:15:31  5-MIN KBKB 030815Z AUTO 00000KT 10SM OVC010 21/21 A2994 280 97 1100 000/00 RMK AO2 RAE0757 P0000 T02110206 TSNO $
53988KBKB BKB20190503022013205/03/19 02:20:31  5-MIN KBKB 030820Z AUTO 00000KT 10SM OVC012 21/21 A2994 280 97 1100 000/00 RMK AO2 RAE0757 P0000 T02110206 TSNO $
53988KBKB BKB20190503022513905/03/19 02:25:31  5-MIN KBKB 030825Z AUTO 00000KT 10SM BKN012 OVC017 21/21 A2993 290 97 1100 000/00 RMK AO2 RAE0757 P0000 T02110206 TSNO $
53988KBKB BKB20190503023013905/03/19 02:30:31  5-MIN KBKB 030830Z AUTO 00000KT 10SM SCT012 OVC017 21/21 A2993 290 97 1100 000/00 RMK AO2 RAE0757 P0000 T02110206 TSNO $
53988KBKB BKB20190503023513905/03/19 02:35:31  5-MIN KBKB 030835Z AUTO 00000KT 10SM SCT012 OVC019 21/21 A2992 300 97 1100 000/00 RMK AO2 RAE0757 P0000 T02110206 TSNO $
53988KBKB BKB20190503024013205/03/19 02:40:31  5-MIN KBKB 030840Z AUTO 00000KT 10SM BKN017 21/21 A2992 300 97 1100 000/00 RMK AO2 RAE0757 P0000 T02110206 TSNO $
53988KBKB BKB20190503024513905/03/19 02:45:31  5-MIN KBKB 030845Z AUTO 00000KT 10SM FEW012 BKN019 21/21 A2992 300 97 1100 000/00 RMK AO2 RAE0757 P0000 T02110206 TSNO $
53988KBKB BKB20190503025015205/03/19 02:50:31  5-MIN KBKB 030850Z AUTO 00000KT 10SM BKN016 BKN021 21/21 A2992 300 97 1100 000/00 RMK AO2 RAE0757 SLP158 P0000 60000 T02110206 TSNO $
53988KBKB BKB20190503025512505/03/19 02:55:31  5-MIN KBKB 030855Z AUTO 00000KT 10SM BKN016 BKN021 21/21 A2992 300 97 1100 000/00 RMK AO2 T02110206 TSNO $
53988KBKB BKB20190503030012505/03/19 03:00:31  5-MIN KBKB 030900Z AUTO 00000KT 10SM BKN016 BKN021 21/21 A2992 300 97 1100 000/00 RMK AO2 T02110206 TSNO $
53988KBKB BKB20190503030511705/03/19 03:05:31  5-MIN KBKB 030905Z AUTO 00000KT 9SM BKN018 21/21 A2992 300 97 1100 000/00 RMK AO2 T02110206 TSNO $
53988KBKB BKB20190503031012405/03/19 03:10:31  5-MIN KBKB 030910Z AUTO 00000KT 9SM BKN016 OVC021 21/21 A2992 300 97 1100 000/00 RMK AO2 T02110206 TSNO $
53988KBKB BKB20190503031512505/03/19 03:15:31  5-MIN KBKB 030915Z AUTO 00000KT 10SM SCT016 BKN021 21/21 A2992 300 97 1100 000/00 RMK AO2 T02110206 TSNO $
53988KBKB BKB20190503032011805/03/19 03:20:31  5-MIN KBKB 030920Z AUTO 00000KT 10SM BKN019 21/21 A2992 300 97 1100 000/00 RMK AO2 T02110206 TSNO $
53988KBKB BKB20190503032511805/03/19 03:25:31  5-MIN KBKB 030925Z AUTO 00000KT 10SM BKN019 21/21 A2992 300 97 1100 000/00 RMK AO2 T02110206 TSNO $
53988KBKB BKB20190503033011805/03/19 03:30:31  5-MIN KBKB 030930Z AUTO 00000KT 10SM SCT019 21/21 A2992 300 97 1100 000/00 RMK AO2 T02110206 TSNO $
53988KBKB BKB20190503033511705/03/19 03:35:31  5-MIN KBKB 030935Z AUTO 00000KT 9SM FEW019 21/20 A2992 300 97 1100 000/00 RMK AO2 T02060200 TSNO $
53988KBKB BKB20190503034011805/03/19 03:40:31  5-MIN KBKB 030940Z AUTO 00000KT 9SM FEW021 21/21 A2992 300 100 1100 000/00 RMK AO2 T02060206 TSNO $
53988KBKB BKB20190503034511705/03/19 03:45:31  5-MIN KBKB 030945Z AUTO 00000KT 9SM FEW021 21/20 A2993 290 97 1000 000/00 RMK AO2 T02060200 TSNO $
53988KBKB BKB20190503035012205/03/19 03:50:31  5-MIN KBKB 030950Z AUTO 00000KT 9SM CLR 21/21 A2993 290 100 1000 000/00 RMK AO2 SLP163 T02060206 TSNO $
53988KBKB BKB20190503035511405/03/19 03:55:31  5-MIN KBKB 030955Z AUTO 00000KT 9SM CLR 21/20 A2994 280 97 1000 000/00 RMK AO2 T02060200 TSNO $
53988KBKB BKB20190503040011405/03/19 04:00:31  5-MIN KBKB 031000Z AUTO 00000KT 8SM CLR 21/20 A2994 280 97 1000 000/00 RMK AO2 T02060200 TSNO $
53988KBKB BKB20190503040511405/03/19 04:05:31  5-MIN KBKB 031005Z AUTO 00000KT 7SM CLR 21/20 A2994 280 97 1000 000/00 RMK AO2 T02060200 TSNO $
53988KBKB BKB20190503041011405/03/19 04:10:31  5-MIN KBKB 031010Z AUTO 00000KT 7SM CLR 21/20 A2994 280 97 1000 000/00 RMK AO2 T02060200 TSNO $
53988KBKB BKB20190503041511405/03/19 04:15:31  5-MIN KBKB 031015Z AUTO 00000KT 7SM CLR 21/20 A2994 280 97 1000 000/00 RMK AO2 T02060200 TSNO $
53988KBKB BKB20190503042011705/03/19 04:20:31  5-MIN KBKB 031020Z AUTO 00000KT 6SM BR CLR 21/20 A2995 270 97 1000 000/00 RMK AO2 T02060200 TSNO $
53988KBKB BKB20190503042512005/03/19 04:25:31  5-MIN KBKB 031025Z AUTO 00000KT 6SM BR FEW010 21/20 A2995 270 97 1000 000/00 RMK AO2 T02060200 TSNO $
53988KBKB BKB20190503043012005/03/19 04:30:31  5-MIN KBKB 031030Z AUTO 00000KT 6SM BR FEW010 21/20 A2995 270 97 1000 000/00 RMK AO2 T02060200 TSNO $
53988KBKB BKB20190503043512005/03/19 04:35:31  5-MIN KBKB 031035Z AUTO 00000KT 6SM BR SCT010 21/20 A2994 280 97 1000 000/00 RMK AO2 T02060200 TSNO $
53988KBKB BKB20190503044012005/03/19 04:40:31  5-MIN KBKB 031040Z AUTO 00000KT 6SM BR SCT010 21/20 A2994 280 97 1000 000/00 RMK AO2 T02060200 TSNO $
53988KBKB BKB20190503044512705/03/19 04:45:31  5-MIN KBKB 031045Z AUTO 00000KT 6SM BR SCT009 BKN095 21/20 A2994 280 97 1000 000/00 RMK AO2 T02060200 TSNO $
53988KBKB BKB20190503045014105/03/19 04:50:31  5-MIN KBKB 031050Z AUTO 00000KT 6SM BR SCT009 BKN095 BKN110 21/20 A2994 280 97 1000 000/00 RMK AO2 SLP165 T02060200 TSNO $
53988KBKB BKB20190503045513405/03/19 04:55:31  5-MIN KBKB 031055Z AUTO VRB03KT 6SM BR FEW002 SCT009 BKN110 21/20 A2994 280 97 1000 VRB/03 RMK AO2 T02060200 TSNO $
53988KBKB BKB20190503050014905/03/19 05:00:31  5-MIN KBKB 031100Z AUTO 00000KT 7SM -RA FEW002 SCT009 BKN120 21/20 A2995 280 97 1000 000/00 RMK AO2 RAB1056 P0000 T02060200 TSNO $
53988KBKB BKB20190503050514905/03/19 05:05:31  5-MIN KBKB 031105Z AUTO 00000KT 8SM -RA FEW002 SCT011 BKN120 21/20 A2994 280 97 1000 000/00 RMK AO2 RAB1056 P0000 T02060200 TSNO $
53988KBKB BKB20190503051009205/03/19 05:10:31  5-MIN KBKB 031110Z AUTO 00000KT M M M 000/00 RMK AO2 RAB1056 P0000 TSNO $
53988KBKB BKB20190503051512005/03/19 05:15:31  5-MIN KBKB 031115Z AUTO 00000KT 21/20 A2994 280 97 1000 000/00 RMK AO2 RAB1056 P0000 T02060200 TSNO $
53988KBKB BKB20190503052012505/03/19 05:20:31  5-MIN KBKB 031120Z AUTO 00000KT 8SM 21/21 A2995 270 100 1000 000/00 RMK AO2 RAB1056 P0000 T02060206 TSNO $
53988KBKB BKB20190503052512505/03/19 05:25:31  5-MIN KBKB 031125Z AUTO 00000KT 8SM 21/21 A2995 270 100 1000 000/00 RMK AO2 RAB1056 P0000 T02060206 TSNO $
53988KBKB BKB20190503053012505/03/19 05:30:31  5-MIN KBKB 031130Z AUTO 00000KT 8SM 21/21 A2995 270 100 1000 000/00 RMK AO2 RAB1056 P0000 T02060206 TSNO $
53988KBKB BKB20190503053512505/03/19 05:35:31  5-MIN KBKB 031135Z AUTO 00000KT 9SM 21/21 A2996 260 100 1000 000/00 RMK AO2 RAB1056 P0000 T02060206 TSNO $
53988KBKB BKB20190503054015105/03/19 05:40:31  5-MIN KBKB 031140Z AUTO 00000KT 9SM FEW003 OVC009 21/21 A2996 260 100 1000 000/00 RMK AO2 RAB1056 CIG 006V011 P0000 T02060206 TSNO $
53988KBKB BKB20190503054513205/03/19 05:45:31  5-MIN KBKB 031145Z AUTO 00000KT 8SM OVC009 21/21 A2996 260 100 1000 000/00 RMK AO2 RAB1056 P0000 T02060206 TSNO $
53988KBKB BKB20190503055016305/03/19 05:50:31  5-MIN KBKB 031150Z AUTO 00000KT 7SM OVC009 21/21 A2996 260 100 1000 000/00 RMK AO2 RAB1056 SLP172 P0000 60000 7//// T02060206 10222 20206 TSNO $
53988KBKB BKB20190503055513005/03/19 05:55:31  5-MIN KBKB 031155Z AUTO 00000KT 7SM OVC009 21/21 A2996 260 100 1000 000/00 RMK AO2 CIG 005V011 T02060206 TSNO $
53988KBKB BKB20190503060013005/03/19 06:00:31  5-MIN KBKB 031200Z AUTO 00000KT 7SM OVC009 21/21 A2997 250 100 1000 000/00 RMK AO2 CIG 004V011 T02060206 TSNO $
53988KBKB BKB20190503060513005/03/19 06:05:31  5-MIN KBKB 031205Z AUTO 00000KT 8SM OVC009 21/21 A2997 250 100 1000 000/00 RMK AO2 CIG 004V011 T02060206 TSNO $
53988KBKB BKB20190503061012405/03/19 06:10:31  5-MIN KBKB 031210Z AUTO 00000KT 8SM SCT005 OVC009 21/21 A2997 250 97 1100 000/00 RMK AO2 T02110206 TSNO $
53988KBKB BKB20190503061512405/03/19 06:15:31  5-MIN KBKB 031215Z AUTO 00000KT 8SM SCT005 OVC009 21/21 A2997 250 97 1100 000/00 RMK AO2 T02110206 TSNO $
53988KBKB BKB20190503062012405/03/19 06:20:31  5-MIN KBKB 031220Z AUTO 00000KT 9SM BKN005 OVC009 21/21 A2997 250 97 1100 000/00 RMK AO2 T02110206 TSNO $
53988KBKB BKB20190503062512405/03/19 06:25:31  5-MIN KBKB 031225Z AUTO 00000KT 9SM BKN004 OVC009 21/21 A2997 250 97 1100 000/00 RMK AO2 T02110206 TSNO $
53988KBKB BKB20190503063012405/03/19 06:30:31  5-MIN KBKB 031230Z AUTO 00000KT 9SM BKN004 OVC009 21/21 A2997 250 97 1100 000/00 RMK AO2 T02110206 TSNO $
53988KBKB BKB20190503063512405/03/19 06:35:31  5-MIN KBKB 031235Z AUTO 00000KT 9SM BKN004 OVC009 21/21 A2997 250 97 1100 000/00 RMK AO2 T02110206 TSNO $
53988KBKB BKB20190503064012405/03/19 06:40:31  5-MIN KBKB 031240Z AUTO VRB03KT 9SM BKN004 OVC012 21/21 A2997 250 97 1100 VRB/03 RMK AO2 T02110206 TSNO $
53988KBKB BKB20190503064512405/03/19 06:45:31  5-MIN KBKB 031245Z AUTO 00000KT 9SM BKN004 OVC012 21/21 A2998 250 97 1100 000/00 RMK AO2 T02110206 TSNO $
53988KBKB BKB20190503065013105/03/19 06:50:31  5-MIN KBKB 031250Z AUTO 00000KT 9SM BKN004 OVC012 21/21 A2998 240 97 1100 000/00 RMK AO2 SLP178 T02110206 TSNO $
53988KBKB BKB20190503065513505/03/19 06:55:31  5-MIN KBKB 031255Z AUTO 00000KT 10SM -RA BKN004 OVC012 21/21 A2998 240 97 1100 000/00 RMK AO2 P0000 T02110206 TSNO $
53988KBKB BKB20190503070012805/03/19 07:00:31  5-MIN KBKB 031300Z AUTO 00000KT 10SM -RA OVC004 21/21 A2998 250 97 1100 000/00 RMK AO2 P0000 T02110206 TSNO $
53988KBKB BKB20190503070512805/03/19 07:05:31  5-MIN KBKB 031305Z AUTO VRB03KT 10SM -RA OVC004 21/21 A2997 250 97 1100 VRB/03 RMK AO2 P0000 T02110206 TSNO $
53988KBKB BKB20190503071012805/03/19 07:10:31  5-MIN KBKB 031310Z AUTO 00000KT 10SM -RA OVC004 21/21 A2997 250 97 1100 000/00 RMK AO2 P0000 T02110206 TSNO $
53988KBKB BKB20190503071512805/03/19 07:15:31  5-MIN KBKB 031315Z AUTO 00000KT 10SM -RA OVC004 21/21 A2997 250 97 1100 000/00 RMK AO2 P0000 T02110206 TSNO $
53988KBKB BKB20190503072012805/03/19 07:20:31  5-MIN KBKB 031320Z AUTO 00000KT 10SM -RA OVC004 21/21 A2997 250 97 1100 000/00 RMK AO2 P0000 T02110206 TSNO $
53988KBKB BKB20190503072513005/03/19 07:25:31  5-MIN KBKB 031325Z AUTO 00000KT 10SM OVC004 21/21 A2997 250 97 1100 000/00 RMK AO2 RAE23 P0000 T02110206 TSNO $
53988KBKB BKB20190503073013005/03/19 07:30:31  5-MIN KBKB 031330Z AUTO VRB03KT 10SM OVC004 21/21 A2997 250 97 1100 VRB/03 RMK AO2 RAE23 P0000 T02110206 TSNO $
53988KBKB BKB20190503073513005/03/19 07:35:31  5-MIN KBKB 031335Z AUTO 00000KT 10SM OVC004 21/21 A2997 250 97 1100 000/00 RMK AO2 RAE23 P0000 T02110206 TSNO $
53988KBKB BKB20190503074013005/03/19 07:40:31  5-MIN KBKB 031340Z AUTO 00000KT 10SM OVC004 22/21 A2997 250 93 1100 000/00 RMK AO2 RAE23 P0000 T02170206 TSNO $
53988KBKB BKB20190503074513005/03/19 07:45:31  5-MIN KBKB 031345Z AUTO 00000KT 10SM OVC004 22/21 A2997 250 93 1100 000/00 RMK AO2 RAE23 P0000 T02170206 TSNO $
53988KBKB BKB20190503075013705/03/19 07:50:31  5-MIN KBKB 031350Z AUTO 00000KT 10SM OVC004 22/21 A2998 250 93 1100 000/00 RMK AO2 RAE23 SLP177 P0000 T02170206 TSNO $
53988KBKB BKB20190503075511805/03/19 07:55:31  5-MIN KBKB 031355Z AUTO 00000KT 10SM OVC004 22/21 A2998 240 93 1100 000/00 RMK AO2 T02170206 TSNO $
53988KBKB BKB20190503080011805/03/19 08:00:31  5-MIN KBKB 031400Z AUTO VRB03KT 10SM OVC004 22/21 A2998 240 93 1100 VRB/03 RMK AO2 T02170206 TSNO $
53988KBKB BKB20190503080511805/03/19 08:05:31  5-MIN KBKB 031405Z AUTO 00000KT 10SM OVC004 22/21 A2998 240 93 1100 000/00 RMK AO2 T02170206 TSNO $
53988KBKB BKB20190503081011805/03/19 08:10:31  5-MIN KBKB 031410Z AUTO 00000KT 10SM OVC005 22/21 A2998 240 93 1100 000/00 RMK AO2 T02170206 TSNO $
53988KBKB BKB20190503081511805/03/19 08:15:31  5-MIN KBKB 031415Z AUTO 00000KT 10SM OVC005 22/21 A2998 240 97 1100 000/00 RMK AO2 T02170211 TSNO $
53988KBKB BKB20190503082011805/03/19 08:20:31  5-MIN KBKB 031420Z AUTO 00000KT 10SM OVC005 22/21 A2998 240 93 1200 000/00 RMK AO2 T02220211 TSNO $
53988KBKB BKB20190503082507805/03/19 08:25:31  5-MIN KBKB 031425Z AUTO 05004KT M M M 050/04 RMK AO2 TSNO $
53988KBKB BKB20190503083010605/03/19 08:30:31  5-MIN KBKB 031430Z AUTO VRB03KT 22/21 A2998 240 93 1200 VRB/03 RMK AO2 T02220211 TSNO $
53988KBKB BKB20190503083511105/03/19 08:35:31  5-MIN KBKB 031435Z AUTO VRB03KT 10SM 22/21 A2998 240 93 1200 VRB/03 RMK AO2 T02220211 TSNO $
53988KBKB BKB20190503084011105/03/19 08:40:31  5-MIN KBKB 031440Z AUTO VRB03KT 10SM 22/21 A2998 240 93 1200 VRB/03 RMK AO2 T02220211 TSNO $
53988KBKB BKB20190503084511105/03/19 08:45:31  5-MIN KBKB 031445Z AUTO VRB05KT 10SM 23/21 A2998 240 90 1200 VRB/05 RMK AO2 T02280211 TSNO $
53988KBKB BKB20190503085012405/03/19 08:50:31  5-MIN KBKB 031450Z AUTO VRB04KT 10SM 23/21 A2998 240 90 1200 VRB/04 RMK AO2 SLP178 60000 T02280211 TSNO $
53988KBKB BKB20190503085511805/03/19 08:55:31  5-MIN KBKB 031455Z AUTO 00000KT 10SM OVC006 23/21 A2998 240 90 1200 000/00 RMK AO2 T02280211 TSNO $
53988KBKB BKB20190503090012505/03/19 09:00:31  5-MIN KBKB 031500Z AUTO VRB03KT 10SM BKN006 OVC010 23/21 A2998 240 87 1300 VRB/03 RMK AO2 T02330211 TSNO $
53988KBKB BKB20190503090513005/03/19 09:05:31  5-MIN KBKB 031505Z AUTO VRB04KT 10SM OVC006 23/21 A2998 240 87 1300 VRB/04 RMK AO2 CIG 005V011 T02330211 TSNO $
53988KBKB BKB20190503091013005/03/19 09:10:31  5-MIN KBKB 031510Z AUTO 00000KT 10SM OVC008 23/21 A2998 240 87 1300 000/00 RMK AO2 CIG 006V011 T02330211 TSNO $
53988KBKB BKB20190503091513005/03/19 09:15:31  5-MIN KBKB 031515Z AUTO 00000KT 10SM OVC008 24/21 A2999 230 84 1400 000/00 RMK AO2 CIG 006V011 T02390211 TSNO $
53988KBKB BKB20190503092013705/03/19 09:20:31  5-MIN KBKB 031520Z AUTO VRB04KT 10SM BKN008 OVC013 24/21 A2999 230 84 1400 VRB/04 RMK AO2 CIG 006V011 T02390211 TSNO $
53988KBKB BKB20190503092511805/03/19 09:25:31  5-MIN KBKB 031525Z AUTO VRB03KT 10SM OVC011 24/21 A2999 240 81 1400 VRB/03 RMK AO2 T02440211 TSNO $
53988KBKB BKB20190503093011805/03/19 09:30:31  5-MIN KBKB 031530Z AUTO VRB03KT 10SM BKN011 24/22 A2998 240 84 1400 VRB/03 RMK AO2 T02440217 TSNO $
53988KBKB BKB20190503093512505/03/19 09:35:31  5-MIN KBKB 031535Z AUTO 00000KT 10SM BKN014 BKN019 24/21 A2998 240 81 1400 000/00 RMK AO2 T02440211 TSNO $
53988KBKB BKB20190503094012505/03/19 09:40:31  5-MIN KBKB 031540Z AUTO 00000KT 10SM SCT014 BKN019 24/21 A2998 240 81 1400 000/00 RMK AO2 T02440211 TSNO $
53988KBKB BKB20190503094512505/03/19 09:45:31  5-MIN KBKB 031545Z AUTO 00000KT 10SM SCT013 BKN021 25/22 A2999 240 81 1500 000/00 RMK AO2 T02500217 TSNO $
53988KBKB BKB20190503095013205/03/19 09:50:31  5-MIN KBKB 031550Z AUTO VRB03KT 10SM SCT013 BKN021 25/21 A2999 240 79 1500 VRB/03 RMK AO2 SLP180 T02500211 TSNO $
53988KBKB BKB20190503095513205/03/19 09:55:31  5-MIN KBKB 031555Z AUTO VRB03KT 10SM SCT015 SCT021 SCT028 26/21 A2999 240 73 1600 VRB/03 RMK AO2 T02610211 TSNO $
53988KBKB BKB20190503100013205/03/19 10:00:31  5-MIN KBKB 031600Z AUTO VRB04KT 10SM SCT015 SCT023 BKN028 26/21 A2999 240 73 1600 VRB/04 RMK AO2 T02610211 TSNO $
53988KBKB BKB20190503100513205/03/19 10:05:31  5-MIN KBKB 031605Z AUTO VRB04KT 10SM FEW013 SCT023 BKN028 26/21 A2999 230 73 1600 VRB/04 RMK AO2 T02610211 TSNO $
53988KBKB BKB20190503101012705/03/19 10:10:31  5-MIN KBKB 031610Z AUTO 00000KT 10SM FEW013 SCT023 BKN029 26/21 A2999 230 73 1500 000/00 RMK AO2 T02560206 $
53988KBKB BKB20190503101512505/03/19 10:15:31  5-MIN KBKB 031615Z AUTO VRB03KT 10SM FEW015 BKN023 BKN029 26/21 A3000 230 76 1500 VRB/03 RMK AO2 T02560211
53988KBKB BKB20190503102011805/03/19 10:20:31  5-MIN KBKB 031620Z AUTO 00000KT 10SM BKN023 BKN029 26/21 A3000 230 73 1600 000/00 RMK AO2 T02610211
53988KBKB BKB20190503102512505/03/19 10:25:31  5-MIN KBKB 031625Z AUTO VRB03KT 10SM SCT023 BKN029 BKN037 26/21 A3000 230 73 1600 VRB/03 RMK AO2 T02610211
53988KBKB BKB20190503103012505/03/19 10:30:31  5-MIN KBKB 031630Z AUTO 00000KT 10SM SCT023 BKN030 BKN037 26/21 A3000 230 71 1600 000/00 RMK AO2 T02610206
53988KBKB BKB20190503103512505/03/19 10:35:31  5-MIN KBKB 031635Z AUTO 00000KT 10SM SCT023 BKN030 BKN060 27/21 A3000 230 71 1700 000/00 RMK AO2 T02670211
53988KBKB BKB20190503104012505/03/19 10:40:31  5-MIN KBKB 031640Z AUTO 00000KT 10SM SCT025 BKN033 BKN060 27/21 A3000 230 69 1700 000/00 RMK AO2 T02670206
53988KBKB BKB20190503104511805/03/19 10:45:31  5-MIN KBKB 031645Z AUTO 00000KT 10SM SCT025 BKN033 27/21 A3000 230 69 1700 000/00 RMK AO2 T02670206
53988KBKB BKB20190503105012505/03/19 10:50:31  5-MIN KBKB 031650Z AUTO 00000KT 10SM SCT025 BKN035 27/21 A2999 230 69 1700 000/00 RMK AO2 SLP182 T02670206
53988KBKB BKB20190503105512505/03/19 10:55:31  5-MIN KBKB 031655Z AUTO VRB05KT 10SM SCT025 BKN036 BKN060 27/21 A2999 230 69 1700 VRB/05 RMK AO2 T02670206
53988KBKB BKB20190503110012505/03/19 11:00:31  5-MIN KBKB 031700Z AUTO VRB03KT 10SM FEW025 BKN029 BKN036 27/21 A3000 230 71 1700 VRB/03 RMK AO2 T02670211
53988KBKB BKB20190503110512505/03/19 11:05:31  5-MIN KBKB 031705Z AUTO 00000KT 10SM SCT025 BKN029 BKN055 27/21 A2999 230 71 1700 000/00 RMK AO2 T02670211
53988KBKB BKB20190503111012505/03/19 11:10:31  5-MIN KBKB 031710Z AUTO 00000KT 10SM BKN027 BKN037 OVC055 27/21 A2999 230 69 1700 000/00 RMK AO2 T02670206
53988KBKB BKB20190503112507605/03/19 11:25:31  5-MIN KBKB 031725Z AUTO M M M M /M RMK AO2 PWINO FZRANO $
53988KBKB BKB20190503113507605/03/19 11:35:31  5-MIN KBKB 031735Z AUTO M M M M /M RMK AO2 PWINO FZRANO $
53988KBKB BKB20190503114010105/03/19 11:40:31  5-MIN KBKB 031740Z AUTO 11003KT 28/21 A2997 250 66 1800 100/03 RMK AO2 T02780211 $
53988KBKB BKB20190503114510405/03/19 11:45:31  5-MIN KBKB 031745Z AUTO VRB03KT 10SM 27/20 A2997 250 66 1700 VRB/03 RMK AO2 T02670200
53988KBKB BKB20190503115012905/03/19 11:50:31  5-MIN KBKB 031750Z AUTO VRB03KT 10SM 27/21 A2997 260 69 1700 VRB/03 RMK AO2 SLP172 6//// T02670206 10278 20206
53988KBKB BKB20190503115510405/03/19 11:55:31  5-MIN KBKB 031755Z AUTO 12005KT 10SM 28/21 A2997 260 64 1800 110/05 RMK AO2 T02780206
53988KBKB BKB20190503120010405/03/19 12:00:31  5-MIN KBKB 031800Z AUTO 00000KT 10SM 27/21 A2996 260 66 1800 000/00 RMK AO2 T02720206
53988KBKB BKB20190503120511805/03/19 12:05:31  5-MIN KBKB 031805Z AUTO 00000KT 10SM FEW027 SCT037 27/21 A2996 260 66 1800 000/00 RMK AO2 T02720206
53988KBKB BKB20190503121011805/03/19 12:10:31  5-MIN KBKB 031810Z AUTO VRB04KT 10SM FEW027 FEW039 27/21 A2996 260 66 1800 VRB/04 RMK AO2 T02720206
53988KBKB BKB20190503121511105/03/19 12:15:31  5-MIN KBKB 031815Z AUTO 00000KT 10SM FEW027 27/20 A2996 260 64 1800 000/00 RMK AO2 T02720200
53988KBKB BKB20190503122010805/03/19 12:20:31  5-MIN KBKB 031820Z AUTO 00000KT 10SM CLR 27/21 A2996 260 66 1800 000/00 RMK AO2 T02720206
53988KBKB BKB20190503122510805/03/19 12:25:31  5-MIN KBKB 031825Z AUTO VRB03KT 10SM CLR 27/21 A2996 260 66 1800 VRB/03 RMK AO2 T02720206
53988KBKB BKB20190503123010805/03/19 12:30:31  5-MIN KBKB 031830Z AUTO VRB04KT 10SM CLR 27/21 A2996 270 66 1800 VRB/04 RMK AO2 T02720206
53988KBKB BKB20190503123511105/03/19 12:35:31  5-MIN KBKB 031835Z AUTO 00000KT 10SM FEW030 27/21 A2995 270 66 1800 000/00 RMK AO2 T02720206
53988KBKB BKB20190503124011105/03/19 12:40:31  5-MIN KBKB 031840Z AUTO VRB04KT 10SM FEW030 28/21 A2995 270 66 1800 VRB/04 RMK AO2 T02780211
53988KBKB BKB20190503124511105/03/19 12:45:31  5-MIN KBKB 031845Z AUTO VRB03KT 10SM FEW029 27/21 A2994 280 66 1800 VRB/03 RMK AO2 T02720206
53988KBKB BKB20190503125012505/03/19 12:50:31  5-MIN KBKB 031850Z AUTO VRB04KT 10SM FEW029 27/20 A2993 290 64 1800 VRB/04 RMK AO2 PRESFR SLP162 T02720200
53988KBKB BKB20190503125511105/03/19 12:55:31  5-MIN KBKB 031855Z AUTO VRB03KT 10SM FEW029 27/20 A2993 290 66 1700 VRB/03 RMK AO2 T02670200
53988KBKB BKB20190503130011105/03/19 13:00:31  5-MIN KBKB 031900Z AUTO VRB03KT 10SM FEW029 27/21 A2993 290 66 1800 VRB/03 RMK AO2 T02720206
53988KBKB BKB20190503130510805/03/19 13:05:31  5-MIN KBKB 031905Z AUTO VRB04KT 10SM CLR 27/21 A2992 300 66 1800 VRB/04 RMK AO2 T02720206
53988KBKB BKB20190503131010805/03/19 13:10:31  5-MIN KBKB 031910Z AUTO 11005KT 10SM CLR 27/21 A2992 300 66 1800 100/05 RMK AO2 T02720206
53988KBKB BKB20190503131511505/03/19 13:15:31  5-MIN KBKB 031915Z AUTO VRB05KT 10SM CLR 27/21 A2991 310 69 1800 VRB/05 RMK AO2 PRESFR T02720211
53988KBKB BKB20190503132010805/03/19 13:20:31  5-MIN KBKB 031920Z AUTO VRB05KT 10SM CLR 27/21 A2991 310 66 1800 VRB/05 RMK AO2 T02720206
53988KBKB BKB20190503132510805/03/19 13:25:31  5-MIN KBKB 031925Z AUTO VRB04KT 10SM CLR 27/21 A2991 310 66 1800 VRB/04 RMK AO2 T02720206
53988KBKB BKB20190503133010805/03/19 13:30:31  5-MIN KBKB 031930Z AUTO 12008KT 10SM CLR 27/21 A2991 300 66 1800 110/08 RMK AO2 T02720206
53988KBKB BKB20190503133510805/03/19 13:35:31  5-MIN KBKB 031935Z AUTO VRB05KT 10SM CLR 27/20 A2991 300 64 1800 VRB/05 RMK AO2 T02720200
53988KBKB BKB20190503134011105/03/19 13:40:31  5-MIN KBKB 031940Z AUTO VRB04KT 10SM FEW029 28/21 A2992 300 64 1900 VRB/04 RMK AO2 T02780206
53988KBKB BKB20190503134511105/03/19 13:45:31  5-MIN KBKB 031945Z AUTO VRB05KT 10SM FEW033 27/20 A2992 300 64 1800 VRB/05 RMK AO2 T02720200
53988KBKB BKB20190503135011805/03/19 13:50:31  5-MIN KBKB 031950Z AUTO VRB05KT 10SM FEW030 27/20 A2992 300 64 1800 VRB/05 RMK AO2 SLP156 T02720200
53988KBKB BKB20190503135511105/03/19 13:55:31  5-MIN KBKB 031955Z AUTO VRB03KT 10SM SCT032 27/21 A2992 300 66 1800 VRB/03 RMK AO2 T02720206
53988KBKB BKB20190503140011805/03/19 14:00:31  5-MIN KBKB 032000Z AUTO VRB05KT 10SM FEW030 SCT037 27/21 A2991 310 66 1800 VRB/05 RMK AO2 T02720206
53988KBKB BKB20190503140511105/03/19 14:05:31  5-MIN KBKB 032005Z AUTO 00000KT 10SM BKN033 28/21 A2991 310 64 1900 000/00 RMK AO2 T02780206
53988KBKB BKB20190503141011105/03/19 14:10:31  5-MIN KBKB 032010Z AUTO VRB04KT 10SM BKN031 27/21 A2990 310 66 1800 VRB/04 RMK AO2 T02720206
53988KBKB BKB20190503141511805/03/19 14:15:31  5-MIN KBKB 032015Z AUTO 00000KT 10SM BKN031 BKN042 27/21 A2990 320 66 1800 000/00 RMK AO2 T02720206
53988KBKB BKB20190503142011805/03/19 14:20:31  5-MIN KBKB 032020Z AUTO 13004KT 10SM SCT032 BKN042 27/20 A2989 320 64 1800 130/04 RMK AO2 T02720200
53988KBKB BKB20190503142511805/03/19 14:25:31  5-MIN KBKB 032025Z AUTO VRB03KT 10SM SCT032 27/20 A2988 330 64 1900 VRB/03 RMK AO2 PRESFR T02720200
53988KBKB BKB20190503143011105/03/19 14:30:31  5-MIN KBKB 032030Z AUTO VRB04KT 10SM SCT032 27/20 A2989 330 64 1900 VRB/04 RMK AO2 T02720200
53988KBKB BKB20190503143511105/03/19 14:35:31  5-MIN KBKB 032035Z AUTO 00000KT 10SM SCT032 27/20 A2989 330 66 1800 000/00 RMK AO2 T02670200
53988KBKB BKB20190503144011105/03/19 14:40:31  5-MIN KBKB 032040Z AUTO VRB03KT 10SM SCT035 27/20 A2988 330 66 1800 VRB/03 RMK AO2 T02670200
53988KBKB BKB20190503144511105/03/19 14:45:31  5-MIN KBKB 032045Z AUTO 00000KT 10SM SCT035 27/20 A2988 330 66 1800 000/00 RMK AO2 T02670200
53988KBKB BKB20190503145011805/03/19 14:50:31  5-MIN KBKB 032050Z AUTO VRB03KT 10SM FEW035 27/20 A2988 330 66 1800 VRB/03 RMK AO2 SLP144 T02670200
53988KBKB BKB20190503145511105/03/19 14:55:31  5-MIN KBKB 032055Z AUTO 00000KT 10SM FEW035 26/20 A2988 340 68 1700 000/00 RMK AO2 T02610200
53988KBKB BKB20190503150011105/03/19 15:00:31  5-MIN KBKB 032100Z AUTO 00000KT 10SM FEW035 27/20 A2987 340 66 1800 000/00 RMK AO2 T02670200
53988KBKB BKB20190503150511105/03/19 15:05:31  5-MIN KBKB 032105Z AUTO VRB04KT 10SM FEW035 26/20 A2987 340 68 1700 VRB/04 RMK AO2 T02610200
53988KBKB BKB20190503151010805/03/19 15:10:31  5-MIN KBKB 032110Z AUTO VRB03KT 10SM CLR 26/20 A2987 350 68 1700 VRB/03 RMK AO2 T02610200
53988KBKB BKB20190503151510805/03/19 15:15:31  5-MIN KBKB 032115Z AUTO VRB03KT 10SM CLR 26/20 A2987 350 68 1800 VRB/03 RMK AO2 T02610200
53988KBKB BKB20190503152010805/03/19 15:20:31  5-MIN KBKB 032120Z AUTO VRB03KT 10SM CLR 26/20 A2987 350 68 1800 VRB/03 RMK AO2 T02610200
53988KBKB BKB20190503152510805/03/19 15:25:31  5-MIN KBKB 032125Z AUTO 00000KT 10SM CLR 26/20 A2987 350 71 1700 000/00 RMK AO2 T02560200
53988KBKB BKB20190503153011105/03/19 15:30:31  5-MIN KBKB 032130Z AUTO VRB03KT 10SM FEW120 26/20 A2986 350 71 1700 VRB/03 RMK AO2 T02560200
53988KBKB BKB20190503153511805/03/19 15:35:31  5-MIN KBKB 032135Z AUTO 00000KT 10SM FEW047 SCT120 26/20 A2986 350 71 1700 000/00 RMK AO2 T02560200
53988KBKB BKB20190503154011805/03/19 15:40:31  5-MIN KBKB 032140Z AUTO 00000KT 10SM FEW047 SCT120 26/20 A2986 360 71 1700 000/00 RMK AO2 T02560200
53988KBKB BKB20190503154511805/03/19 15:45:31  5-MIN KBKB 032145Z AUTO 00000KT 10SM FEW047 SCT110 26/21 A2986 350 73 1700 000/00 RMK AO2 T02560206
53988KBKB BKB20190503155013205/03/19 15:50:31  5-MIN KBKB 032150Z AUTO 05003KT 10SM FEW047 SCT095 BKN110 26/21 A2985 360 73 1700 050/03 RMK AO2 SLP134 T02560206
53988KBKB BKB20190503155512505/03/19 15:55:31  5-MIN KBKB 032155Z AUTO 05003KT 10SM FEW047 SCT090 BKN110 26/21 A2984 370 73 1700 050/03 RMK AO2 T02560206
53988KBKB BKB20190503160012505/03/19 16:00:31  5-MIN KBKB 032200Z AUTO VRB03KT 10SM FEW047 FEW075 BKN110 26/21 A2984 370 76 1700 VRB/03 RMK AO2 T02560211
53988KBKB BKB20190503160511805/03/19 16:05:31  5-MIN KBKB 032205Z AUTO 00000KT 10SM FEW070 BKN110 26/21 A2984 370 76 1700 000/00 RMK AO2 T02560211
53988KBKB BKB20190503161014105/03/19 16:10:31  5-MIN KBKB 032210Z AUTO 00000KT 10SM -RA FEW070 FEW090 OVC110 26/21 A2984 370 76 1700 000/00 RMK AO2 RAB06 P0000 T02560211
53988KBKB BKB20190503161513305/03/19 16:15:31  5-MIN KBKB 032215Z AUTO 00000KT 10SM FEW075 OVC110 26/21 A2985 370 76 1700 000/00 RMK AO2 RAB06E15 P0000 T02560211
53988KBKB BKB20190503162013305/03/19 16:20:31  5-MIN KBKB 032220Z AUTO 00000KT 10SM BKN100 OVC120 26/21 A2985 360 76 1700 000/00 RMK AO2 RAB06E15 P0000 T02560211
53988KBKB BKB20190503162512605/03/19 16:25:31  5-MIN KBKB 032225Z AUTO 00000KT 10SM OVC110 26/21 A2985 360 76 1700 000/00 RMK AO2 RAB06E15 P0000 T02560211
53988KBKB BKB20190503163013305/03/19 16:30:31  5-MIN KBKB 032230Z AUTO 00000KT 10SM FEW047 OVC110 25/22 A2985 360 81 1600 000/00 RMK AO2 RAB06E15 P0000 T02500217
53988KBKB BKB20190503163513305/03/19 16:35:31  5-MIN KBKB 032235Z AUTO 00000KT 10SM BKN100 OVC120 24/22 A2985 360 84 1600 000/00 RMK AO2 RAB06E15 P0000 T02440217
53988KBKB BKB20190503164013305/03/19 16:40:31  5-MIN KBKB 032240Z AUTO 00000KT 10SM BKN100 OVC120 24/22 A2985 370 84 1600 000/00 RMK AO2 RAB06E15 P0000 T02440217
53988KBKB BKB20190503164512605/03/19 16:45:31  5-MIN KBKB 032245Z AUTO 00000KT 10SM OVC110 24/22 A2985 370 84 1600 000/00 RMK AO2 RAB06E15 P0000 T02440217
53988KBKB BKB20190503165014705/03/19 16:50:31  5-MIN KBKB 032250Z AUTO 00000KT 10SM FEW050 SCT100 OVC120 24/22 A2985 370 84 1600 000/00 RMK AO2 RAB06E15 SLP132 P0000 T02440217
53988KBKB BKB20190503165513505/03/19 16:55:31  5-MIN KBKB 032255Z AUTO 00000KT 10SM -RA FEW055 SCT100 BKN120 24/22 A2984 370 87 1500 000/00 RMK AO2 P0000 T02390217
53988KBKB BKB20190503170013505/03/19 17:00:31  5-MIN KBKB 032300Z AUTO 00000KT 10SM -RA FEW055 SCT100 BKN120 24/22 A2983 380 90 1500 000/00 RMK AO2 P0000 T02390222
53988KBKB BKB20190503170513505/03/19 17:05:31  5-MIN KBKB 032305Z AUTO 00000KT 10SM -RA FEW055 FEW095 BKN120 24/22 A2983 380 90 1500 000/00 RMK AO2 P0000 T02390222
53988KBKB BKB20190503171012805/03/19 17:10:31  5-MIN KBKB 032310Z AUTO 00000KT 10SM -RA FEW055 BKN110 24/22 A2984 370 87 1500 000/00 RMK AO2 P0000 T02390217
53988KBKB BKB20190503171512705/03/19 17:15:31  5-MIN KBKB 032315Z AUTO 00000KT 9SM -RA FEW055 OVC110 23/22 A2984 370 93 1500 000/00 RMK AO2 P0000 T02330222
53988KBKB BKB20190503172012705/03/19 17:20:31  5-MIN KBKB 032320Z AUTO 00000KT 8SM -RA BKN100 OVC120 23/22 A2984 380 93 1500 000/00 RMK AO2 P0000 T02330222
53988KBKB BKB20190503172512705/03/19 17:25:31  5-MIN KBKB 032325Z AUTO 00000KT 7SM -RA BKN100 OVC120 23/23 A2983 380 97 1500 000/00 RMK AO2 P0000 T02330228
53988KBKB BKB20190503173013405/03/19 17:30:31  5-MIN KBKB 032330Z AUTO 00000KT 7SM -RA FEW041 BKN100 OVC120 23/22 A2983 380 93 1500 000/00 RMK AO2 P0000 T02330222
53988KBKB BKB20190503173513405/03/19 17:35:31  5-MIN KBKB 032335Z AUTO 00000KT 7SM -RA SCT043 BKN070 OVC100 23/22 A2983 380 97 1400 000/00 RMK AO2 P0000 T02280222
53988KBKB BKB20190503174013705/03/19 17:40:31  5-MIN KBKB 032340Z AUTO 00000KT 6SM -RA BR BKN043 BKN070 OVC100 23/22 A2983 380 93 1500 000/00 RMK AO2 P0000 T02330222
53988KBKB BKB20190503174513805/03/19 17:45:31  5-MIN KBKB 032345Z AUTO 00000KT 3SM -RA BR BKN040 BKN050 OVC110 23/23 A2984 370 100 1400 000/00 RMK AO2 P0000 T02280228
53988KBKB BKB20190503175017105/03/19 17:50:31  5-MIN KBKB 032350Z AUTO 00000KT 1 1/4SM RA BR SCT032 BKN043 OVC100 23/22 A2984 380 97 1400 000/00 RMK AO2 SLP129 P0000 60000 T02280222 10278 20228 58030
53988KBKB BKB20190503175513905/03/19 17:55:31  5-MIN KBKB 032355Z AUTO 00000KT 3/4SM +RA BR BKN031 BKN041 OVC049 23/22 A2983 380 97 1400 000/00 RMK AO2 P0000 T02280222
53988KBKB BKB20190503180013005/03/19 18:00:31  5-MIN KBKB 040000Z AUTO 00000KT 1SM -RA BR BKN031 OVC039 23/22 A2983 380 97 1400 000/00 RMK AO2 P0000 T02280222
53988KBKB BKB20190503180513005/03/19 18:05:31  5-MIN KBKB 040005Z AUTO 00000KT 3SM -RA BR BKN031 OVC043 23/22 A2984 380 97 1400 000/00 RMK AO2 P0000 T02280222
53988KBKB BKB20190503181012405/03/19 18:10:31  5-MIN KBKB 040010Z AUTO 00000KT 4SM -RA BR OVC031 23/23 A2984 370 100 1400 000/00 RMK AO2 P0000 T02280228
53988KBKB BKB20190503181513005/03/19 18:15:31  5-MIN KBKB 040015Z AUTO 00000KT 4SM -RA BR FEW005 OVC031 23/22 A2984 370 97 1400 000/00 RMK AO2 P0000 T02280222
53988KBKB BKB20190503182013705/03/19 18:20:31  5-MIN KBKB 040020Z AUTO 00000KT 6SM -RA BR FEW005 SCT027 OVC031 22/22 A2984 370 97 1300 000/00 RMK AO2 P0000 T02220217
53988KBKB BKB20190503182512705/03/19 18:25:31  5-MIN KBKB 040025Z AUTO 00000KT 9SM -RA BKN031 OVC100 22/22 A2984 370 97 1300 000/00 RMK AO2 P0000 T02220217
53988KBKB BKB20190503183013405/03/19 18:30:31  5-MIN KBKB 040030Z AUTO 00000KT 8SM -RA BKN030 BKN055 OVC100 22/22 A2984 370 97 1300 000/00 RMK AO2 P0000 T02220217
53988KBKB BKB20190503183513705/03/19 18:35:31  5-MIN KBKB 040035Z AUTO 00000KT 6SM -RA BR BKN028 BKN055 OVC100 22/22 A2984 370 97 1300 000/00 RMK AO2 P0000 T02220217
53988KBKB BKB20190503184014005/03/19 18:40:31  5-MIN KBKB 040040Z AUTO 00000KT 6SM BR BKN026 BKN055 OVC100 22/22 A2984 370 100 1300 000/00 RMK AO2 RAE39 P0000 T02220222
53988KBKB BKB20190503184514005/03/19 18:45:31  5-MIN KBKB 040045Z AUTO 00000KT 5SM BR SCT022 BKN028 OVC100 22/22 A2984 370 100 1300 000/00 RMK AO2 RAE39 P0000 T02220222
53988KBKB BKB20190503185013005/03/19 18:50:31  5-MIN KBKB 040050Z AUTO 00000KT 4SM BR SCT025 BKN060 BKN100 22/22 A2984 370 100 1300 000/00 RMK AO2 RAE39 P0000
53988KBKB BKB20190503185512705/03/19 18:55:31  5-MIN KBKB 040055Z AUTO 00000KT 4SM BR SCT025 BKN055 BKN110 22/22 A2984 370 97 1300 000/00 RMK AO2 T02220217
53988KBKB BKB20190503190012705/03/19 19:00:31  5-MIN KBKB 040100Z AUTO 00000KT 4SM BR SCT024 SCT060 BKN110 22/22 A2984 370 97 1300 000/00 RMK AO2 T02220217
53988KBKB BKB20190503190512705/03/19 19:05:31  5-MIN KBKB 040105Z AUTO 00000KT 4SM BR FEW002 SCT024 BKN110 22/22 A2984 370 97 1300 000/00 RMK AO2 T02220217
53988KBKB BKB20190503191012705/03/19 19:10:31  5-MIN KBKB 040110Z AUTO 00000KT 4SM BR FEW002 SCT060 BKN110 22/22 A2984 370 97 1300 000/00 RMK AO2 T02220217
53988KBKB BKB20190503191512805/03/19 19:15:31  5-MIN KBKB 040115Z AUTO 00000KT 4SM BR FEW002 SCT023 BKN110 22/22 A2985 370 100 1300 000/00 RMK AO2 T02170217
53988KBKB BKB20190503192012805/03/19 19:20:31  5-MIN KBKB 040120Z AUTO 00000KT 5SM BR FEW002 SCT023 OVC110 22/22 A2985 370 100 1300 000/00 RMK AO2 T02170217
53988KBKB BKB20190503192512805/03/19 19:25:31  5-MIN KBKB 040125Z AUTO 00000KT 5SM BR FEW002 SCT024 BKN110 22/22 A2985 370 100 1300 000/00 RMK AO2 T02170217
53988KBKB BKB20190503193012805/03/19 19:30:31  5-MIN KBKB 040130Z AUTO 00000KT 4SM BR FEW002 SCT024 BKN110 22/22 A2985 370 100 1300 000/00 RMK AO2 T02170217
53988KBKB BKB20190503193512105/03/19 19:35:31  5-MIN KBKB 040135Z AUTO 00000KT 4SM BR FEW024 SCT110 22/22 A2985 370 100 1300 000/00 RMK AO2 T02170217
53988KBKB BKB20190503194013205/03/19 19:40:31  5-MIN KBKB 040140Z AUTO 00000KT 2 1/2SM BR FEW024 SCT110 22/21 A2985 370 97 1300 000/00 RMK AO2 VIS 2V4 T02170211
53988KBKB BKB20190503194512705/03/19 19:45:31  5-MIN KBKB 040145Z AUTO 00000KT 2SM BR FEW024 FEW041 SCT110 22/21 A2985 360 97 1300 000/00 RMK AO2 T02170211
53988KBKB BKB20190503195013105/03/19 19:50:31  5-MIN KBKB 040150Z AUTO 00000KT 2 1/2SM BR SCT022 SCT041 22/21 A2985 360 97 1300 000/00 RMK AO2 SLP134 T02170211
53988KBKB BKB20190503195511405/03/19 19:55:31  5-MIN KBKB 040155Z AUTO 00000KT 4SM BR SCT022 22/22 A2985 370 100 1300 000/00 RMK AO2 T02170217
53988KBKB BKB20190503200012105/03/19 20:00:31  5-MIN KBKB 040200Z AUTO 00000KT 5SM BR SCT021 BKN050 22/22 A2985 370 100 1300 000/00 RMK AO2 T02170217
53988KBKB BKB20190503200512105/03/19 20:05:31  5-MIN KBKB 040205Z AUTO 00000KT 5SM BR SCT021 SCT050 22/22 A2984 370 100 1300 000/00 RMK AO2 T02170217
53988KBKB BKB20190503201012105/03/19 20:10:31  5-MIN KBKB 040210Z AUTO 00000KT 5SM BR SCT021 SCT030 22/22 A2985 370 100 1300 000/00 RMK AO2 T02170217
53988KBKB BKB20190503201512805/03/19 20:15:31  5-MIN KBKB 040215Z AUTO 00000KT 5SM BR BKN021 BKN030 BKN036 22/22 A2985 360 100 1300 000/00 RMK AO2 T02170217
53988KBKB BKB20190503202012805/03/19 20:20:31  5-MIN KBKB 040220Z AUTO 00000KT 5SM BR SCT023 BKN028 BKN036 22/22 A2985 360 100 1300 000/00 RMK AO2 T02170217
53988KBKB BKB20190503202512805/03/19 20:25:31  5-MIN KBKB 040225Z AUTO 00000KT 5SM BR SCT025 BKN034 BKN049 22/22 A2985 360 100 1300 000/00 RMK AO2 T02170217
53988KBKB BKB20190503203012805/03/19 20:30:31  5-MIN KBKB 040230Z AUTO 00000KT 4SM BR FEW002 SCT025 BKN035 22/22 A2985 360 100 1300 000/00 RMK AO2 T02170217
53988KBKB BKB20190503203512705/03/19 20:35:31  5-MIN KBKB 040235Z AUTO 00000KT 4SM BR FEW002 BKN024 BKN035 22/21 A2986 360 97 1300 000/00 RMK AO2 T02170211
53988KBKB BKB20190503204012705/03/19 20:40:31  5-MIN KBKB 040240Z AUTO 00000KT 4SM BR FEW002 BKN024 OVC090 22/21 A2986 360 97 1300 000/00 RMK AO2 T02170211
53988KBKB BKB20190503204512805/03/19 20:45:31  5-MIN KBKB 040245Z AUTO 00000KT 4SM BR FEW002 BKN022 OVC090 22/22 A2986 350 100 1300 000/00 RMK AO2 T02170217
53988KBKB BKB20190503205014705/03/19 20:50:31  5-MIN KBKB 040250Z AUTO 00000KT 5SM BR FEW002 BKN020 OVC090 22/22 A2986 350 100 1300 000/00 RMK AO2 SLP137 60000 T02170217 56015
53988KBKB BKB20190503205512805/03/19 20:55:31  5-MIN KBKB 040255Z AUTO 00000KT 5SM BR FEW002 BKN024 OVC090 22/22 A2986 360 100 1300 000/00 RMK AO2 T02170217
53988KBKB BKB20190503210012805/03/19 21:00:31  5-MIN KBKB 040300Z AUTO 00000KT 5SM BR SCT017 BKN025 OVC095 22/22 A2986 350 100 1300 000/00 RMK AO2 T02170217
53988KBKB BKB20190503210512805/03/19 21:05:31  5-MIN KBKB 040305Z AUTO 00000KT 5SM BR SCT017 BKN025 OVC095 22/22 A2986 350 100 1300 000/00 RMK AO2 T02170217
53988KBKB BKB20190503211012805/03/19 21:10:31  5-MIN KBKB 040310Z AUTO 00000KT 5SM BR SCT015 BKN023 BKN033 22/22 A2986 350 100 1300 000/00 RMK AO2 T02170217
53988KBKB BKB20190503211512805/03/19 21:15:31  5-MIN KBKB 040315Z AUTO 00000KT 5SM BR BKN020 BKN035 BKN100 22/22 A2986 350 100 1200 000/00 RMK AO2 T02170217
53988KBKB BKB20190503212012805/03/19 21:20:31  5-MIN KBKB 040320Z AUTO 00000KT 5SM BR SCT018 BKN028 BKN100 22/22 A2987 350 100 1200 000/00 RMK AO2 T02170217
53988KBKB BKB20190503212512705/03/19 21:25:31  5-MIN KBKB 040325Z AUTO 00000KT 4SM BR FEW017 SCT032 BKN100 22/21 A2987 350 97 1200 000/00 RMK AO2 T02170211
53988KBKB BKB20190503213012705/03/19 21:30:31  5-MIN KBKB 040330Z AUTO 00000KT 3SM BR FEW019 SCT030 BKN075 22/21 A2987 350 97 1200 000/00 RMK AO2 T02170211
53988KBKB BKB20190503213512805/03/19 21:35:31  5-MIN KBKB 040335Z AUTO 00000KT 3SM BR SCT027 SCT075 SCT100 21/21 A2987 340 100 1200 000/00 RMK AO2 T02110211
53988KBKB BKB20190503214012805/03/19 21:40:31  5-MIN KBKB 040340Z AUTO 00000KT 3SM BR FEW027 FEW075 SCT100 21/21 A2987 340 100 1200 000/00 RMK AO2 T02110211
53988KBKB BKB20190503214512105/03/19 21:45:31  5-MIN KBKB 040345Z AUTO 00000KT 3SM BR FEW025 FEW075 21/21 A2988 340 100 1200 000/00 RMK AO2 T02110211
53988KBKB BKB20190503215012805/03/19 21:50:31  5-MIN KBKB 040350Z AUTO 00000KT 4SM BR FEW025 FEW075 21/21 A2987 340 100 1200 000/00 RMK AO2 SLP142 T02110211
53988KBKB BKB20190503215512105/03/19 21:55:31  5-MIN KBKB 040355Z AUTO 00000KT 4SM BR FEW018 FEW075 21/21 A2987 340 100 1200 000/00 RMK AO2 T02110211
53988KBKB BKB20190503220011405/03/19 22:00:31  5-MIN KBKB 040400Z AUTO 00000KT 3SM BR FEW016 21/21 A2988 330 100 1200 000/00 RMK AO2 T02110211
53988KBKB BKB20190503220512105/03/19 22:05:31  5-MIN KBKB 040405Z AUTO 00000KT 3SM BR SCT016 SCT085 21/21 A2988 330 100 1200 000/00 RMK AO2 T02110211
53988KBKB BKB20190503221012105/03/19 22:10:31  5-MIN KBKB 040410Z AUTO 00000KT 4SM BR FEW016 BKN080 21/21 A2988 330 100 1200 000/00 RMK AO2 T02110211
53988KBKB BKB20190503221512805/03/19 22:15:31  5-MIN KBKB 040415Z AUTO 00000KT 4SM BR SCT016 SCT024 BKN080 21/21 A2989 330 100 1200 000/00 RMK AO2 T02110211
53988KBKB BKB20190503222012805/03/19 22:20:31  5-MIN KBKB 040420Z AUTO 00000KT 4SM BR SCT016 SCT024 BKN080 21/21 A2989 330 100 1200 000/00 RMK AO2 T02110211
53988KBKB BKB20190503222512805/03/19 22:25:31  5-MIN KBKB 040425Z AUTO 00000KT 4SM BR SCT017 SCT024 BKN080 21/21 A2989 330 100 1200 000/00 RMK AO2 T02110211
53988KBKB BKB20190503223012805/03/19 22:30:31  5-MIN KBKB 040430Z AUTO 00000KT 4SM BR FEW017 SCT024 OVC080 21/21 A2988 330 100 1200 000/00 RMK AO2 T02110211
53988KBKB BKB20190503223512805/03/19 22:35:31  5-MIN KBKB 040435Z AUTO 00000KT 3SM BR FEW017 FEW024 OVC080 21/21 A2988 330 100 1200 000/00 RMK AO2 T02110211
53988KBKB BKB20190503224012805/03/19 22:40:31  5-MIN KBKB 040440Z AUTO 00000KT 4SM BR FEW017 SCT024 OVC080 21/21 A2988 340 100 1200 000/00 RMK AO2 T02110211
53988KBKB BKB20190503224512105/03/19 22:45:31  5-MIN KBKB 040445Z AUTO 00000KT 3SM BR FEW016 BKN080 21/21 A2987 350 100 1200 000/00 RMK AO2 T02110211
53988KBKB BKB20190503225012805/03/19 22:50:31  5-MIN KBKB 040450Z AUTO 00000KT 3SM BR FEW016 BKN080 21/21 A2986 350 100 1200 000/00 RMK AO2 SLP139 T02110211
53988KBKB BKB20190503225512105/03/19 22:55:31  5-MIN KBKB 040455Z AUTO 00000KT 4SM BR FEW016 BKN080 21/21 A2987 350 100 1200 000/00 RMK AO2 T02110211
53988KBKB BKB20190503230012005/03/19 23:00:31  5-MIN KBKB 040500Z AUTO 00000KT 4SM BR FEW016 BKN080 21/21 A2987 350 97 1200 000/00 RMK AO2 T02110206
53988KBKB BKB20190503230512405/03/19 23:05:31  5-MIN KBKB 040505Z AUTO 00000KT 2 1/2SM BR FEW016 SCT080 21/21 A2986 350 97 1200 000/00 RMK AO2 T02110206
53988KBKB BKB20190503231012405/03/19 23:10:31  5-MIN KBKB 040510Z AUTO 00000KT 1 1/2SM BR SCT014 SCT085 21/21 A2986 350 97 1200 000/00 RMK AO2 T02110206
53988KBKB BKB20190503231511805/03/19 23:15:31  5-MIN KBKB 040515Z AUTO 00000KT 1 1/2SM BR SCT014 21/21 A2986 360 100 1100 000/00 RMK AO2 T02060206
53988KBKB BKB20190503232011805/03/19 23:20:31  5-MIN KBKB 040520Z AUTO 00000KT 2 1/2SM BR SCT014 21/21 A2986 360 100 1100 000/00 RMK AO2 T02060206
53988KBKB BKB20190503232511805/03/19 23:25:31  5-MIN KBKB 040525Z AUTO 00000KT 2 1/2SM BR FEW014 21/21 A2986 350 100 1100 000/00 RMK AO2 T02060206
53988KBKB BKB20190503233011405/03/19 23:30:31  5-MIN KBKB 040530Z AUTO 00000KT 2SM BR FEW014 20/20 A2986 360 100 1100 000/00 RMK AO2 T02000200
53988KBKB BKB20190503233511805/03/19 23:35:31  5-MIN KBKB 040535Z AUTO 00000KT 1 1/2SM BR SCT012 21/21 A2986 360 100 1100 000/00 RMK AO2 T02060206
53988KBKB BKB20190503234013005/03/19 23:40:31  5-MIN KBKB 040540Z AUTO 00000KT 1 1/2SM BR FEW010 21/21 A2986 360 100 1100 000/00 RMK AO2 VIS 1V2 1/2 T02060206
53988KBKB BKB20190503234512205/03/19 23:45:31  5-MIN KBKB 040545Z AUTO 00000KT 2SM BR FEW010 21/21 A2985 360 100 1100 000/00 RMK AO2 VIS 1V3 T02060206
53988KBKB BKB20190503235015805/03/19 23:50:31  5-MIN KBKB 040550Z AUTO 00000KT 1 1/2SM BR FEW010 21/20 A2985 360 97 1100 000/00 RMK AO2 SLP134 60000 T02060200 10228 20200 402780200 53008
53988KBKB BKB20190503235511705/03/19 23:55:31  5-MIN KBKB 040555Z AUTO 00000KT 1 1/4SM BR FEW010 21/20 A2985 360 97 1100 000/00 RMK AO2 T02060200
53988KBKB BKB20190504000011305/04/19 00:00:31  5-MIN KBKB 040600Z AUTO 00000KT 2SM BR FEW008 21/20 A2985 360 97 1100 000/00 RMK AO2 T02060200
53988KBKB BKB20190504000512905/04/19 00:05:31  5-MIN KBKB 040605Z AUTO 00000KT 2 1/2SM BR FEW008 21/20 A2985 360 97 1100 000/00 RMK AO2 VIS 1 1/2V4 T02060200
53988KBKB BKB20190504001013405/04/19 00:10:31  5-MIN KBKB 040610Z AUTO 00000KT 1 1/2SM BR FEW008 FEW080 21/20 A2985 360 97 1100 000/00 RMK AO2 VIS 3/4V4 T02060200
53988KBKB BKB20190504001512005/04/19 00:15:31  5-MIN KBKB 040615Z AUTO 00000KT 1SM BR FEW008 SCT080 21/20 A2985 360 97 1100 000/00 RMK AO2 T02060200
53988KBKB BKB20190504002011705/04/19 00:20:31  5-MIN KBKB 040620Z AUTO 00000KT 1 1/4SM BR SCT080 21/20 A2985 360 97 1100 000/00 RMK AO2 T02060200
53988KBKB BKB20190504002511705/04/19 00:25:31  5-MIN KBKB 040625Z AUTO 00000KT 1 1/4SM BR SCT080 21/20 A2985 360 97 1100 000/00 RMK AO2 T02060200
53988KBKB BKB20190504003011305/04/19 00:30:31  5-MIN KBKB 040630Z AUTO 00000KT 1SM BR FEW080 21/20 A2985 360 97 1100 000/00 RMK AO2 T02060200
53988KBKB BKB20190504003511705/04/19 00:35:31  5-MIN KBKB 040635Z AUTO 00000KT 1 1/2SM BR FEW080 21/20 A2985 370 97 1100 000/00 RMK AO2 T02060200
53988KBKB BKB20190504004011805/04/19 00:40:31  5-MIN KBKB 040640Z AUTO 00000KT 1 1/4SM BR SCT085 20/20 A2985 360 100 1100 000/00 RMK AO2 T02000200
53988KBKB BKB20190504004511705/04/19 00:45:31  5-MIN KBKB 040645Z AUTO 00000KT 1 1/4SM BR SCT090 21/20 A2985 360 97 1100 000/00 RMK AO2 T02060200
53988KBKB BKB20190504005012505/04/19 00:50:31  5-MIN KBKB 040650Z AUTO 00000KT 1 3/4SM BR BKN090 20/20 A2985 360 100 1100 000/00 RMK AO2 SLP134 T02000200
53988KBKB BKB20190504005512405/04/19 00:55:31  5-MIN KBKB 040655Z AUTO 00000KT 1 3/4SM BR FEW075 BKN090 21/20 A2985 370 97 1100 000/00 RMK AO2 T02060200
53988KBKB BKB20190504010012005/04/19 01:00:31  5-MIN KBKB 040700Z AUTO 00000KT 2SM BR FEW075 BKN090 21/20 A2984 370 97 1100 000/00 RMK AO2 T02060200
53988KBKB BKB20190504010512505/04/19 01:05:31  5-MIN KBKB 040705Z AUTO 00000KT 1 3/4SM BR FEW075 BKN090 20/20 A2984 370 100 1100 000/00 RMK AO2 T02000200
53988KBKB BKB20190504011011805/04/19 01:10:31  5-MIN KBKB 040710Z AUTO 00000KT 1 1/4SM BR BKN085 20/20 A2984 370 100 1100 000/00 RMK AO2 T02000200
53988KBKB BKB20190504011511805/04/19 01:15:31  5-MIN KBKB 040715Z AUTO 00000KT 1 1/2SM BR BKN085 20/20 A2983 380 100 1100 000/00 RMK AO2 T02000200
53988KBKB BKB20190504012013205/04/19 01:20:31  5-MIN KBKB 040720Z AUTO 00000KT 1 1/4SM BR FEW009 FEW075 SCT090 20/20 A2983 380 100 1100 000/00 RMK AO2 T02000200
53988KBKB BKB20190504012512305/04/19 01:25:31  5-MIN KBKB 040725Z AUTO 00000KT 3/4SM BR SCT009 BKN085 20/20 A2983 380 100 1100 000/00 RMK AO2 T02000200
53988KBKB BKB20190504013012305/04/19 01:30:31  5-MIN KBKB 040730Z AUTO 00000KT 3/4SM BR BKN009 BKN090 20/20 A2983 380 100 1100 000/00 RMK AO2 T02000200
53988KBKB BKB20190504013512505/04/19 01:35:31  5-MIN KBKB 040735Z AUTO 00000KT 1 1/4SM BR BKN009 BKN090 20/20 A2983 390 100 1100 000/00 RMK AO2 T02000200
53988KBKB BKB20190504014011405/04/19 01:40:31  5-MIN KBKB 040740Z AUTO 00000KT 2SM BR BKN007 20/20 A2983 390 100 1100 000/00 RMK AO2 T02000200
53988KBKB BKB20190504014511305/04/19 01:45:31  5-MIN KBKB 040745Z AUTO 00000KT 3SM BR OVC007 21/20 A2982 390 97 1200 000/00 RMK AO2 T02060200
53988KBKB BKB20190504015012005/04/19 01:50:31  5-MIN KBKB 040750Z AUTO 00000KT 2 1/2SM BR OVC007 20/20 A2982 390 100 1100 000/00 RMK AO2 VIS 1 3/4V4
53988KBKB BKB20190504015511805/04/19 01:55:31  5-MIN KBKB 040755Z AUTO 00000KT 2 1/2SM BR OVC005 20/20 A2982 390 100 1100 000/00 RMK AO2 T02000200
53988KBKB BKB20190504020012605/04/19 02:00:31  5-MIN KBKB 040800Z AUTO 00000KT 3SM BR OVC005 20/20 A2982 390 100 1100 000/00 RMK AO2 CIG 004V008 T02000200
53988KBKB BKB20190504020511405/04/19 02:05:31  5-MIN KBKB 040805Z AUTO 00000KT 4SM BR OVC005 20/20 A2981 400 100 1100 000/00 RMK AO2 T02000200
53988KBKB BKB20190504021011405/04/19 02:10:31  5-MIN KBKB 040810Z AUTO 00000KT 4SM BR OVC005 20/20 A2981 400 100 1100 000/00 RMK AO2 T02000200
53988KBKB BKB20190504021511305/04/19 02:15:31  5-MIN KBKB 040815Z AUTO 00000KT 4SM BR OVC005 21/20 A2981 400 97 1200 000/00 RMK AO2 T02060200
53988KBKB BKB20190504022012605/04/19 02:20:31  5-MIN KBKB 040820Z AUTO 00000KT 4SM BR OVC005 21/21 A2981 400 100 1200 000/00 RMK AO2 CIG 003V007 T02060206
53988KBKB BKB20190504022512605/04/19 02:25:31  5-MIN KBKB 040825Z AUTO 00000KT 5SM BR OVC003 21/21 A2980 410 100 1200 000/00 RMK AO2 CIG 002V007 T02060206
53988KBKB BKB20190504023012605/04/19 02:30:31  5-MIN KBKB 040830Z AUTO 00000KT 4SM BR OVC003 21/21 A2980 410 100 1200 000/00 RMK AO2 CIG 002V007 T02060206
53988KBKB BKB20190504023512605/04/19 02:35:31  5-MIN KBKB 040835Z AUTO 00000KT 4SM BR OVC003 21/21 A2980 410 100 1200 000/00 RMK AO2 CIG 002V007 T02060206
53988KBKB BKB20190504024011405/04/19 02:40:31  5-MIN KBKB 040840Z AUTO 00000KT 4SM BR OVC003 21/21 A2980 410 100 1200 000/00 RMK AO2 T02060206
53988KBKB BKB20190504024511405/04/19 02:45:31  5-MIN KBKB 040845Z AUTO 00000KT 4SM BR OVC003 21/21 A2979 420 100 1300 000/00 RMK AO2 T02110211
53988KBKB BKB20190504025012705/04/19 02:50:31  5-MIN KBKB 040850Z AUTO 00000KT 4SM BR OVC003 21/21 A2979 420 100 1300 000/00 RMK AO2 SLP113 T02110211 58002
53988KBKB BKB20190504025511405/04/19 02:55:31  5-MIN KBKB 040855Z AUTO 00000KT 5SM BR OVC003 21/21 A2978 430 100 1300 000/00 RMK AO2 T02110211
53988KBKB BKB20190504030011405/04/19 03:00:31  5-MIN KBKB 040900Z AUTO 00000KT 5SM BR OVC003 21/21 A2978 430 100 1300 000/00 RMK AO2 T02110211
53988KBKB BKB20190504030511405/04/19 03:05:31  5-MIN KBKB 040905Z AUTO 00000KT 5SM BR OVC003 21/21 A2978 420 100 1300 000/00 RMK AO2 T02110211
53988KBKB BKB20190504031011405/04/19 03:10:31  5-MIN KBKB 040910Z AUTO 00000KT 5SM BR OVC003 21/21 A2979 420 100 1300 000/00 RMK AO2 T02110211
53988KBKB BKB20190504031511305/04/19 03:15:31  5-MIN KBKB 040915Z AUTO 00000KT 6SM BR OVC003 22/21 A2979 420 97 1300 000/00 RMK AO2 T02170211
53988KBKB BKB20190504032011305/04/19 03:20:31  5-MIN KBKB 040920Z AUTO VRB03KT 6SM BR OVC003 22/21 A2978 420 97 1300 VRB/03 RMK AO2 T02170211
53988KBKB BKB20190504032511305/04/19 03:25:31  5-MIN KBKB 040925Z AUTO 00000KT 6SM BR OVC003 22/21 A2978 430 97 1300 000/00 RMK AO2 T02170211
53988KBKB BKB20190504033011005/04/19 03:30:31  5-MIN KBKB 040930Z AUTO 00000KT 7SM OVC003 22/21 A2978 430 97 1300 000/00 RMK AO2 T02170211
53988KBKB BKB20190504033520005/04/19 03:35:31  5-MIN KBKB 040935Z AUTO 00000KT 7SM BKN004 BKN065 21/21 A2978 430 100 1300 000/00 RMK AO2 T0211021105/04/19 03:40: 21/20 A2980 410 97 1200 000/00 RMK AOAO2 RAE1358 T0211020000 PNO $
53988KBKB BKB20190504084513705/04/19 08:45:31  5-MIN KBKB 041445Z AUTO VRB03KT 10SM BKN005 21/20 A2979 420 93 1300 VRB/03 RMK AO2 RAE1358 CIG 004V008 T02110200 PNO $
53988KBKB BKB20190504085015105/04/19 08:50:31  5-MIN KBKB 041450Z AUTO VRB03KT 10SM BKN005 OVC010 22/20 A2979 420 90 1300 VRB/03 RMK AO2 RAE1358 SLP114 6//// T02170200 53002 PNO $
53988KBKB BKB20190504085512905/04/19 08:55:31  5-MIN KBKB 041455Z AUTO VRB03KT 10SM BKN006 22/20 A2979 420 90 1300 VRB/03 RMK AO2 CIG 005V010 T02170200 PNO $
53988KBKB BKB20190504090013605/04/19 09:00:31  5-MIN KBKB 041500Z AUTO VRB03KT 10SM BKN008 BKN060 22/21 A2979 420 90 1400 VRB/03 RMK AO2 CIG 005V010 T02220206 PNO $
53988KBKB BKB20190504090512405/04/19 09:05:31  5-MIN KBKB 041505Z AUTO 00000KT 10SM SCT008 BKN060 22/21 A2979 420 90 1400 000/00 RMK AO2 T02220206 PNO $
53988KBKB BKB20190504091012405/04/19 09:10:31  5-MIN KBKB 041510Z AUTO 00000KT 10SM SCT008 BKN060 23/21 A2979 420 84 1500 000/00 RMK AO2 T02330206 PNO $
53988KBKB BKB20190504091513605/04/19 09:15:31  5-MIN KBKB 041515Z AUTO VRB04KT 10SM BKN008 BKN060 23/20 A2979 420 84 1500 VRB/04 RMK AO2 CIG 006V011 T02280200 PNO $
53988KBKB BKB20190504092012405/04/19 09:20:31  5-MIN KBKB 041520Z AUTO VRB04KT 10SM SCT011 BKN060 23/20 A2979 420 84 1500 VRB/04 RMK AO2 T02280200 PNO $
53988KBKB BKB20190504092513105/04/19 09:25:31  5-MIN KBKB 041525Z AUTO 00000KT 10SM SCT011 BKN015 BKN060 23/20 A2979 420 84 1500 000/00 RMK AO2 T02280200 PNO $
53988KBKB BKB20190504093011705/04/19 09:30:31  5-MIN KBKB 041530Z AUTO VRB03KT 10SM BKN013 23/20 A2979 420 81 1500 VRB/03 RMK AO2 T02330200 PNO $
53988KBKB BKB20190504093512405/04/19 09:35:31  5-MIN KBKB 041535Z AUTO VRB03KT 10SM BKN011 OVC016 23/20 A2979 420 84 1500 VRB/03 RMK AO2 T02280200 PNO $
53988KBKB BKB20190504094011705/04/19 09:40:31  5-MIN KBKB 041540Z AUTO 00000KT 10SM OVC014 23/21 A2979 420 87 1500 000/00 RMK AO2 T02280206 PNO $
53988KBKB BKB20190504094512405/04/19 09:45:31  5-MIN KBKB 041545Z AUTO VRB03KT 10SM SCT012 OVC018 23/20 A2980 410 84 1500 VRB/03 RMK AO2 T02280200 PNO $
53988KBKB BKB20190504095013105/04/19 09:50:31  5-MIN KBKB 041550Z AUTO 00000KT 10SM BKN015 OVC021 22/20 A2980 410 87 1400 000/00 RMK AO2 SLP116 T02220200 PNO $
53988KBKB BKB20190504095512405/04/19 09:55:31  5-MIN KBKB 041555Z AUTO VRB03KT 10SM BKN012 OVC018 22/20 A2980 410 87 1400 VRB/03 RMK AO2 T02220200 PNO $
53988KBKB BKB20190504100012405/04/19 10:00:31  5-MIN KBKB 041600Z AUTO VRB06KT 10SM BKN010 OVC015 22/19 A2980 410 87 1300 VRB/06 RMK AO2 T02170194 PNO $
53988KBKB BKB20190504100512405/04/19 10:05:31  5-MIN KBKB 041605Z AUTO VRB05KT 10SM BKN012 OVC018 21/19 A2980 410 87 1300 VRB/05 RMK AO2 T02110189 PNO $
53988KBKB BKB20190504101013105/04/19 10:10:31  5-MIN KBKB 041610Z AUTO VRB05KT 10SM BKN012 BKN022 OVC065 22/19 A2980 410 84 1300 VRB/05 RMK AO2 T02170189 PNO $
53988KBKB BKB20190504101514705/04/19 10:15:31  5-MIN KBKB 041615Z AUTO 02007KT 340V070 10SM SCT010 BKN014 OVC042 22/19 A2981 410 84 1300 010/07 340V070 RMK AO2 T02170189 PNO $
53988KBKB BKB20190504102012105/04/19 10:20:31  5-MIN KBKB 041620Z AUTO 10SM BKN012 BKN028 OVC065 22/19 A2981 400 84 1300 M /M RMK AO2 T02170189 PNO $
53988KBKB BKB20190504102513105/04/19 10:25:31  5-MIN KBKB 041625Z AUTO VRB04KT 10SM BKN012 BKN028 OVC080 22/19 A2980 410 84 1300 VRB/04 RMK AO2 T02170189 PNO $
53988KBKB BKB20190504103013105/04/19 10:30:31  5-MIN KBKB 041630Z AUTO 00000KT 10SM SCT012 SCT033 OVC070 22/19 A2980 410 81 1400 000/00 RMK AO2 T02220189 PNO $
53988KBKB BKB20190504103513105/04/19 10:35:31  5-MIN KBKB 041635Z AUTO 03003KT 10SM FEW013 SCT022 OVC070 22/19 A2980 410 81 1400 020/03 RMK AO2 T02220189 PNO $
53988KBKB BKB20190504104013105/04/19 10:40:31  5-MIN KBKB 041640Z AUTO VRB03KT 10SM SCT013 BKN070 OVC085 22/19 A2980 410 81 1400 VRB/03 RMK AO2 T02220189 PNO $
53988KBKB BKB20190504104513105/04/19 10:45:31  5-MIN KBKB 041645Z AUTO VRB04KT 10SM FEW011 BKN021 OVC085 22/19 A2980 410 84 1400 VRB/04 RMK AO2 T02220194 PNO $
53988KBKB BKB20190504105013805/04/19 10:50:31  5-MIN KBKB 041650Z AUTO 00000KT 10SM FEW011 BKN021 OVC070 22/19 A2980 410 81 1400 000/00 RMK AO2 SLP118 T02220189 PNO $
53988KBKB BKB20190504105513105/04/19 10:55:31  5-MIN KBKB 041655Z AUTO VRB03KT 10SM FEW011 BKN021 BKN070 23/19 A2980 410 81 1400 VRB/03 RMK AO2 T02280194 PNO $
53988KBKB BKB20190504110012405/04/19 11:00:31  5-MIN KBKB 041700Z AUTO VRB04KT 10SM FEW013 BKN022 23/19 A2980 410 81 1400 VRB/04 RMK AO2 T02280194 PNO $
53988KBKB BKB20190504110512405/04/19 11:05:31  5-MIN KBKB 041705Z AUTO VRB05KT 10SM FEW013 OVC022 23/19 A2980 410 81 1400 VRB/05 RMK AO2 T02280194 PNO $
53988KBKB BKB20190504111012405/04/19 11:10:31  5-MIN KBKB 041710Z AUTO 00000KT 10SM SCT015 OVC022 23/19 A2980 410 78 1500 000/00 RMK AO2 T02330194 PNO $
53988KBKB BKB20190504111512405/04/19 11:15:31  5-MIN KBKB 041715Z AUTO VRB04KT 10SM BKN015 OVC022 23/19 A2980 410 78 1500 VRB/04 RMK AO2 T02330194 PNO $
53988KBKB BKB20190504112012405/04/19 11:20:31  5-MIN KBKB 041720Z AUTO VRB04KT 10SM BKN015 OVC022 23/19 A2980 410 81 1400 VRB/04 RMK AO2 T02280194 PNO $
53988KBKB BKB20190504112512405/04/19 11:25:31  5-MIN KBKB 041725Z AUTO VRB03KT 10SM BKN015 OVC022 23/19 A2980 410 78 1500 VRB/03 RMK AO2 T02280189 PNO $
53988KBKB BKB20190504113012405/04/19 11:30:31  5-MIN KBKB 041730Z AUTO 00000KT 10SM BKN016 OVC022 23/19 A2980 410 81 1500 000/00 RMK AO2 T02280194 PNO $
53988KBKB BKB20190504113512405/04/19 11:35:31  5-MIN KBKB 041735Z AUTO 33003KT 10SM BKN016 OVC022 23/19 A2980 410 81 1500 330/03 RMK AO2 T02280194 PNO $
53988KBKB BKB20190504114013305/04/19 11:40:31  5-MIN KBKB 041740Z AUTO VRB03KT 6SM -RA SCT013 OVC022 22/19 A2980 410 84 1300 VRB/03 RMK AO2 RAB39 T02170189 PNO $
53988KBKB BKB20190504114514305/04/19 11:45:31  5-MIN KBKB 041745Z AUTO VRB03KT 3SM -RA BR SCT012 BKN017 OVC022 21/19 A2980 410 90 1300 VRB/03 RMK AO2 RAB39 T02110194 PNO $
53988KBKB BKB20190504115012605/04/19 11:50:31  5-MIN KBKB 041750Z AUTO VRB04KT 3SM -RA BR BKN014 OVC022 21/19 A2980 410 93 1200 VRB/04 RMK AO2 RAB39 PNO $
53988KBKB BKB20190504115514005/04/19 11:55:31  5-MIN KBKB 041755Z AUTO VRB03KT 2SM +RA BR FEW011 OVC020 21/19 A2980 410 93 1200 VRB/03 RMK AO2 VIS 3/4V5 T02060194 PNO $
53988KBKB BKB20190504220511305/04/19 22:05:31  5-MIN KBKB 050405Z AUTO 00000KT 10SM CLR 18/17 A2985 360 96 800 000/00 RMK AO2 T01780172 PNO $
53988KBKB BKB20190504221011205/04/19 22:10:31  5-MIN KBKB 050410Z AUTO 00000KT 9SM CLR 18/17 A2985 360 96 800 000/00 RMK AO2 T01780172 PNO $
53988KBKB BKB20190504221511305/04/19 22:15:31  5-MIN KBKB 050415Z AUTO 00000KT 10SM CLR 18/17 A2985 360 96 800 000/00 RMK AO2 T01780172 PNO $
53988KBKB BKB20190504222011405/04/19 22:20:31  5-MIN KBKB 050420Z AUTO 00000KT 10SM CLR 18/18 A2985 360 100 800 000/00 RMK AO2 T01780178 PNO $
53988KBKB BKB20190504222511305/04/19 22:25:31  5-MIN KBKB 050425Z AUTO 00000KT 10SM CLR 18/17 A2985 360 96 800 000/00 RMK AO2 T01780172 PNO $
53988KBKB BKB20190504223011205/04/19 22:30:31  5-MIN KBKB 050430Z AUTO 00000KT 9SM CLR 18/17 A2985 360 96 800 000/00 RMK AO2 T01780172 PNO $
53988KBKB BKB20190504223511205/04/19 22:35:31  5-MIN KBKB 050435Z AUTO 00000KT 8SM CLR 18/17 A2985 360 96 800 000/00 RMK AO2 T01780172 PNO $
53988KBKB BKB20190504224011505/04/19 22:40:31  5-MIN KBKB 050440Z AUTO 00000KT 6SM BR CLR 18/17 A2985 360 96 800 000/00 RMK AO2 T01780172 PNO $
53988KBKB BKB20190504224511505/04/19 22:45:31  5-MIN KBKB 050445Z AUTO 00000KT 5SM BR CLR 18/17 A2985 360 96 800 000/00 RMK AO2 T01780172 PNO $
53988KBKB BKB20190504225012205/04/19 22:50:31  5-MIN KBKB 050450Z AUTO 00000KT 5SM BR CLR 18/17 A2985 360 96 800 000/00 RMK AO2 SLP135 T01780172 PNO $
53988KBKB BKB20190504225511305/04/19 22:55:31  5-MIN KBKB 050455Z AUTO 00000KT 7SM CLR 17/17 A2985 360 100 700 000/00 RMK AO2 T01720172 PNO $
53988KBKB BKB20190504230011205/04/19 23:00:31  5-MIN KBKB 050500Z AUTO 00000KT 7SM CLR 18/17 A2985 360 96 800 000/00 RMK AO2 T01780172 PNO $
53988KBKB BKB20190504230511605/04/19 23:05:31  5-MIN KBKB 050505Z AUTO 00000KT 6SM BR CLR 17/17 A2986 360 100 700 000/00 RMK AO2 T01720172 PNO $
53988KBKB BKB20190504231011605/04/19 23:10:31  5-MIN KBKB 050510Z AUTO 00000KT 6SM BR CLR 17/17 A2986 350 100 700 000/00 RMK AO2 T01720172 PNO $
53988KBKB BKB20190504231511305/04/19 23:15:31  5-MIN KBKB 050515Z AUTO 00000KT 7SM CLR 17/17 A2986 350 100 700 000/00 RMK AO2 T01720172 PNO $
53988KBKB BKB20190504232011605/04/19 23:20:31  5-MIN KBKB 050520Z AUTO 00000KT 6SM BR CLR 17/17 A2986 350 100 700 000/00 RMK AO2 T01720172 PNO $
53988KBKB BKB20190504232511605/04/19 23:25:31  5-MIN KBKB 050525Z AUTO 00000KT 6SM BR CLR 17/17 A2986 350 100 700 000/00 RMK AO2 T01720172 PNO $
53988KBKB BKB20190504233011505/04/19 23:30:31  5-MIN KBKB 050530Z AUTO 00000KT 5SM BR CLR 18/17 A2986 350 90 900 000/00 RMK AO2 T01830167 PNO $
53988KBKB BKB20190504233511505/04/19 23:35:31  5-MIN KBKB 050535Z AUTO 00000KT 5SM BR CLR 17/17 A2986 350 96 700 000/00 RMK AO2 T01720167 PNO $
53988KBKB BKB20190504234011505/04/19 23:40:31  5-MIN KBKB 050540Z AUTO 00000KT 5SM BR CLR 17/17 A2986 350 96 700 000/00 RMK AO2 T01720167 PNO $
53988KBKB BKB20190504234511205/04/19 23:45:31  5-MIN KBKB 050545Z AUTO 00000KT 7SM CLR 17/17 A2986 350 96 700 000/00 RMK AO2 T01720167 PNO $
53988KBKB BKB20190504235015305/04/19 23:50:31  5-MIN KBKB 050550Z AUTO 00000KT 7SM CLR 17/17 A2986 350 96 700 000/00 RMK AO2 SLP140 6//// T01720167 10228 20172 402560172 53020 PNO $
53988KBKB BKB20190504235511605/04/19 23:55:31  5-MIN KBKB 050555Z AUTO 00000KT 6SM BR CLR 17/17 A2986 350 100 700 000/00 RMK AO2 T01720172 PNO $
53988KBKB BKB20190505000011305/05/19 00:00:31  5-MIN KBKB 050600Z AUTO 00000KT 7SM CLR 17/17 A2986 350 100 700 000/00 RMK AO2 T01720172 PNO $
53988KBKB BKB20190505000511305/05/19 00:05:31  5-MIN KBKB 050605Z AUTO 00000KT 9SM CLR 17/17 A2986 350 100 700 000/00 RMK AO2 T01720172 PNO $
53988KBKB BKB20190505001011205/05/19 00:10:31  5-MIN KBKB 050610Z AUTO 00000KT 9SM CLR 17/17 A2986 350 96 700 000/00 RMK AO2 T01720167 PNO $
53988KBKB BKB20190505001511205/05/19 00:15:31  5-MIN KBKB 050615Z AUTO 00000KT 8SM CLR 17/17 A2986 350 96 700 000/00 RMK AO2 T01720167 PNO $
53988KBKB BKB20190505002011205/05/19 00:20:31  5-MIN KBKB 050620Z AUTO 00000KT 8SM CLR 17/17 A2986 350 96 700 000/00 RMK AO2 T01720167 PNO $
53988KBKB BKB20190505002511305/05/19 00:25:31  5-MIN KBKB 050625Z AUTO 00000KT 7SM CLR 17/17 A2986 350 100 700 000/00 RMK AO2 T01670167 PNO $
53988KBKB BKB20190505003011305/05/19 00:30:31  5-MIN KBKB 050630Z AUTO 00000KT 7SM CLR 17/17 A2986 350 100 700 000/00 RMK AO2 T01670167 PNO $
53988KBKB BKB20190505003511205/05/19 00:35:31  5-MIN KBKB 050635Z AUTO 36003KT 7SM CLR 17/17 A2986 350 96 700 360/03 RMK AO2 T01720167 PNO $
53988KBKB BKB20190505004011205/05/19 00:40:31  5-MIN KBKB 050640Z AUTO 00000KT 8SM CLR 17/17 A2987 350 96 700 000/00 RMK AO2 T01720167 PNO $
53988KBKB BKB20190505004511405/05/19 00:45:31  5-MIN KBKB 050645Z AUTO 00000KT 10SM CLR 17/17 A2987 350 100 700 000/00 RMK AO2 T01720172 PNO $
53988KBKB BKB20190505005012105/05/19 00:50:31  5-MIN KBKB 050650Z AUTO 00000KT 10SM CLR 17/17 A2987 350 100 700 000/00 RMK AO2 SLP141 T01720172 PNO $
53988KBKB BKB20190505005511305/05/19 00:55:31  5-MIN KBKB 050655Z AUTO 00000KT 10SM CLR 17/17 A2987 350 96 700 000/00 RMK AO2 T01720167 PNO $
53988KBKB BKB20190505010011205/05/19 01:00:31  5-MIN KBKB 050700Z AUTO 00000KT 9SM CLR 17/17 A2987 340 96 700 000/00 RMK AO2 T01720167 PNO $
53988KBKB BKB20190505010511605/05/19 01:05:31  5-MIN KBKB 050705Z AUTO 00000KT 6SM BR CLR 17/17 A2987 350 100 700 000/00 RMK AO2 T01670167 PNO $
53988KBKB BKB20190505011011605/05/19 01:10:31  5-MIN KBKB 050710Z AUTO 00000KT 3SM BR CLR 17/17 A2987 350 100 700 000/00 RMK AO2 T01670167 PNO $
53988KBKB BKB20190505011511605/05/19 01:15:31  5-MIN KBKB 050715Z AUTO 00000KT 3SM BR CLR 17/17 A2987 350 100 700 000/00 RMK AO2 T01670167 PNO $
53988KBKB BKB20190505012011605/05/19 01:20:31  5-MIN KBKB 050720Z AUTO 00000KT 5SM BR CLR 17/17 A2987 350 100 700 000/00 RMK AO2 T01670167 PNO $
53988KBKB BKB20190505012511605/05/19 01:25:31  5-MIN KBKB 050725Z AUTO 00000KT 5SM BR CLR 17/17 A2987 350 100 700 000/00 RMK AO2 T01670167 PNO $
53988KBKB BKB20190505013011605/05/19 01:30:31  5-MIN KBKB 050730Z AUTO 00000KT 6SM BR CLR 17/17 A2987 350 100 700 000/00 RMK AO2 T01670167 PNO $
53988KBKB BKB20190505013511305/05/19 01:35:31  5-MIN KBKB 050735Z AUTO 00000KT 7SM CLR 17/17 A2987 350 100 700 000/00 RMK AO2 T01670167 PNO $
53988KBKB BKB20190505014011305/05/19 01:40:31  5-MIN KBKB 050740Z AUTO 00000KT 7SM CLR 17/17 A2987 350 100 700 000/00 RMK AO2 T01670167 PNO $
53988KBKB BKB20190505014511305/05/19 01:45:31  5-MIN KBKB 050745Z AUTO 00000KT 7SM CLR 17/17 A2987 340 100 700 000/00 RMK AO2 T01670167 PNO $
53988KBKB BKB20190505015012005/05/19 01:50:31  5-MIN KBKB 050750Z AUTO 00000KT 7SM CLR 17/17 A2987 340 100 700 000/00 RMK AO2 SLP143 T01670167 PNO $
53988KBKB BKB20190505015511605/05/19 01:55:31  5-MIN KBKB 050755Z AUTO 00000KT 6SM BR CLR 17/17 A2988 340 100 700 000/00 RMK AO2 T01670167 PNO $
53988KBKB BKB20190505020011605/05/19 02:00:31  5-MIN KBKB 050800Z AUTO 00000KT 5SM BR CLR 17/17 A2987 340 100 700 000/00 RMK AO2 T01670167 PNO $
53988KBKB BKB20190505020511505/05/19 02:05:31  5-MIN KBKB 050805Z AUTO 00000KT 4SM BR CLR 17/16 A2987 340 96 700 000/00 RMK AO2 T01670161 PNO $
53988KBKB BKB20190505021011905/05/19 02:10:31  5-MIN KBKB 050810Z AUTO 00000KT 2 1/2SM BR CLR 17/16 A2987 340 96 700 000/00 RMK AO2 T01670161 PNO $
53988KBKB BKB20190505021513005/05/19 02:15:31  5-MIN KBKB 050815Z AUTO 00000KT 2SM BR FEW002 17/16 A2987 340 96 700 000/00 RMK AO2 VIS 1 1/4V3 T01670161 PNO $
53988KBKB BKB20190505022011905/05/19 02:20:31  5-MIN KBKB 050820Z AUTO 00000KT 2 1/2SM BR CLR 17/16 A2987 340 96 700 000/00 RMK AO2 T01670161 PNO $
53988KBKB BKB20190505022511505/05/19 02:25:31  5-MIN KBKB 050825Z AUTO 02003KT 6SM BR CLR 17/16 A2987 340 96 700 010/03 RMK AO2 T01670161 PNO $
53988KBKB BKB20190505023011205/05/19 02:30:31  5-MIN KBKB 050830Z AUTO 01003KT 8SM CLR 17/16 A2987 350 96 700 360/03 RMK AO2 T01670161 PNO $
53988KBKB BKB20190505023511205/05/19 02:35:31  5-MIN KBKB 050835Z AUTO 00000KT 8SM CLR 17/16 A2987 340 96 700 000/00 RMK AO2 T01670161 PNO $
53988KBKB BKB20190505024011205/05/19 02:40:31  5-MIN KBKB 050840Z AUTO 00000KT 8SM CLR 17/16 A2987 340 96 700 000/00 RMK AO2 T01670161 PNO $
53988KBKB BKB20190505024511205/05/19 02:45:31  5-MIN KBKB 050845Z AUTO 00000KT 8SM CLR 17/16 A2987 340 96 700 000/00 RMK AO2 T01670161 PNO $
53988KBKB BKB20190505025013105/05/19 02:50:31  5-MIN KBKB 050850Z AUTO 00000KT 7SM CLR 17/16 A2987 340 96 700 000/00 RMK AO2 SLP143 6//// T01670161 53007 PNO $
53988KBKB BKB20190505025511205/05/19 02:55:31  5-MIN KBKB 050855Z AUTO 00000KT 7SM CLR 17/16 A2988 340 96 700 000/00 RMK AO2 T01670161 PNO $
53988KBKB BKB20190505030011605/05/19 03:00:31  5-MIN KBKB 050900Z AUTO 00000KT 4SM BR CLR 16/16 A2987 340 100 600 000/00 RMK AO2 T01610161 PNO $
53988KBKB BKB20190505030512005/05/19 03:05:31  5-MIN KBKB 050905Z AUTO 00000KT 2 1/2SM BR CLR 16/16 A2987 340 100 600 000/00 RMK AO2 T01610161 PNO $
53988KBKB BKB20190505031013205/05/19 03:10:31  5-MIN KBKB 050910Z AUTO 00000KT 2 1/2SM BR CLR 16/16 A2987 340 100 600 000/00 RMK AO2 VIS 1 1/2V4 T01610161 PNO $
53988KBKB BKB20190505031512705/05/19 03:15:31  5-MIN KBKB 050915Z AUTO 00000KT 2 1/2SM BR CLR 16/16 A2987 350 96 600 000/00 RMK AO2 VIS 2V5 T01610156 PNO $
53988KBKB BKB20190505032011905/05/19 03:20:31  5-MIN KBKB 050920Z AUTO 00000KT 2 1/2SM BR CLR 16/16 A2987 350 96 600 000/00 RMK AO2 T01610156 PNO $
53988KBKB BKB20190505032511505/05/19 03:25:31  5-MIN KBKB 050925Z AUTO 00000KT 3SM BR CLR 16/16 A2987 350 96 600 000/00 RMK AO2 T01610156 PNO $
53988KBKB BKB20190505033011505/05/19 03:30:31  5-MIN KBKB 050930Z AUTO 00000KT 6SM BR CLR 16/16 A2987 340 96 600 000/00 RMK AO2 T01610156 PNO $
53988KBKB BKB20190505033511605/05/19 03:35:31  5-MIN KBKB 050935Z AUTO 00000KT 5SM BR CLR 16/16 A2987 340 100 500 000/00 RMK AO2 T01560156 PNO $
53988KBKB BKB20190505034011505/05/19 03:40:31  5-MIN KBKB 050940Z AUTO 00000KT 4SM BR CLR 16/16 A2988 340 96 600 000/00 RMK AO2 T01610156 PNO $
53988KBKB BKB20190505034511505/05/19 03:45:31  5-MIN KBKB 050945Z AUTO 00000KT 5SM BR CLR 16/16 A2988 340 96 600 000/00 RMK AO2 T01610156 PNO $
53988KBKB BKB20190505035011905/05/19 03:50:31  5-MIN KBKB 050950Z AUTO 00000KT 8SM CLR 16/16 A2988 340 96 600 000/00 RMK AO2 SLP145 T01610156 PNO $
53988KBKB BKB20190505035511605/05/19 03:55:31  5-MIN KBKB 050955Z AUTO 00000KT 4SM BR CLR 16/16 A2988 340 100 500 000/00 RMK AO2 T01560156 PNO $
53988KBKB BKB20190505040011505/05/19 04:00:31  5-MIN KBKB 051000Z AUTO 00000KT 2SM BR CLR 16/15 A2987 340 96 500 000/00 RMK AO2 T01560150 PNO $
53988KBKB BKB20190505040513105/05/19 04:05:31  5-MIN KBKB 051005Z AUTO 00000KT 2SM BR FEW002 16/16 A2987 340 100 500 000/00 RMK AO2 VIS 1 1/4V4 T01560156 PNO $
53988KBKB BKB20190505041011905/05/19 04:10:31  5-MIN KBKB 051010Z AUTO 00000KT 3SM BR FEW002 16/16 A2987 350 100 500 000/00 RMK AO2 T01560156 PNO $
53988KBKB BKB20190505041511805/05/19 04:15:31  5-MIN KBKB 051015Z AUTO 00000KT 5SM BR FEW002 16/15 A2987 350 96 500 000/00 RMK AO2 T01560150 PNO $
53988KBKB BKB20190505042011805/05/19 04:20:31  5-MIN KBKB 051020Z AUTO 00000KT 5SM BR FEW002 16/15 A2987 340 96 500 000/00 RMK AO2 T01560150 PNO $
53988KBKB BKB20190505042511905/05/19 04:25:31  5-MIN KBKB 051025Z AUTO 00000KT 4SM BR FEW002 15/15 A2987 340 100 500 000/00 RMK AO2 T01500150 PNO $
53988KBKB BKB20190505043011605/05/19 04:30:31  5-MIN KBKB 051030Z AUTO 00000KT 3SM BR CLR 15/15 A2987 340 100 500 000/00 RMK AO2 T01500150 PNO $
53988KBKB BKB20190505043511605/05/19 04:35:31  5-MIN KBKB 051035Z AUTO 00000KT 3SM BR CLR 15/15 A2988 340 100 500 000/00 RMK AO2 T01500150 PNO $
53988KBKB BKB20190505044011605/05/19 04:40:31  5-MIN KBKB 051040Z AUTO 00000KT 4SM BR CLR 15/15 A2988 340 100 500 000/00 RMK AO2 T01500150 PNO $
53988KBKB BKB20190505044511605/05/19 04:45:31  5-MIN KBKB 051045Z AUTO 00000KT 5SM BR CLR 15/15 A2987 340 100 500 000/00 RMK AO2 T01500150 PNO $
53988KBKB BKB20190505045012205/05/19 04:50:31  5-MIN KBKB 051050Z AUTO 00000KT 6SM BR CLR 16/15 A2988 340 96 500 000/00 RMK AO2 SLP144 T01560150 PNO $
53988KBKB BKB20190505045511605/05/19 04:55:31  5-MIN KBKB 051055Z AUTO 00000KT 6SM BR CLR 15/15 A2988 340 100 500 000/00 RMK AO2 T01500150 PNO $
53988KBKB BKB20190505050011605/05/19 05:00:31  5-MIN KBKB 051100Z AUTO 00000KT 5SM BR CLR 15/15 A2988 340 100 500 000/00 RMK AO2 T01500150 PNO $
53988KBKB BKB20190505050511605/05/19 05:05:31  5-MIN KBKB 051105Z AUTO 00000KT 5SM BR CLR 15/15 A2988 340 100 500 000/00 RMK AO2 T01500150 PNO $
53988KBKB BKB20190505051011605/05/19 05:10:31  5-MIN KBKB 051110Z AUTO 00000KT 6SM BR CLR 15/15 A2988 340 100 500 000/00 RMK AO2 T01500150 PNO $
53988KBKB BKB20190505051511605/05/19 05:15:31  5-MIN KBKB 051115Z AUTO 00000KT 6SM BR CLR 15/15 A2988 340 100 500 000/00 RMK AO2 T01500150 PNO $
53988KBKB BKB20190505052011505/05/19 05:20:31  5-MIN KBKB 051120Z AUTO 00000KT 4SM BR CLR 15/14 A2988 340 96 500 000/00 RMK AO2 T01500144 PNO $
53988KBKB BKB20190505052511605/05/19 05:25:31  5-MIN KBKB 051125Z AUTO 00000KT 4SM BR CLR 15/15 A2988 340 100 500 000/00 RMK AO2 T01500150 PNO $
53988KBKB BKB20190505053011605/05/19 05:30:31  5-MIN KBKB 051130Z AUTO 00000KT 4SM BR CLR 15/15 A2988 330 100 500 000/00 RMK AO2 T01500150 PNO $
53988KBKB BKB20190505053511605/05/19 05:35:31  5-MIN KBKB 051135Z AUTO 00000KT 4SM BR CLR 15/15 A2988 330 100 500 000/00 RMK AO2 T01500150 PNO $
53988KBKB BKB20190505054011605/05/19 05:40:31  5-MIN KBKB 051140Z AUTO 00000KT 3SM BR CLR 15/15 A2988 330 100 400 000/00 RMK AO2 T01500150 PNO $
53988KBKB BKB20190505054511605/05/19 05:45:31  5-MIN KBKB 051145Z AUTO 00000KT 4SM BR CLR 15/15 A2989 330 100 400 000/00 RMK AO2 T01500150 PNO $
53988KBKB BKB20190505055015305/05/19 05:50:31  5-MIN KBKB 051150Z AUTO 00000KT 4SM BR CLR 15/15 A2989 330 100 400 000/00 RMK AO2 SLP148 6//// 7//// T01500150 10172 20150 50004 PNO $
53988KBKB BKB20190505055511605/05/19 05:55:31  5-MIN KBKB 051155Z AUTO 00000KT 3SM BR CLR 15/15 A2989 320 100 400 000/00 RMK AO2 T01500150 PNO $
53988KBKB BKB20190505060011605/05/19 06:00:31  5-MIN KBKB 051200Z AUTO 00000KT 4SM BR CLR 15/15 A2989 320 100 400 000/00 RMK AO2 T01500150 PNO $
53988KBKB BKB20190505060511505/05/19 06:05:31  5-MIN KBKB 051205Z AUTO 00000KT 5SM BR CLR 16/15 A2989 320 96 500 000/00 RMK AO2 T01560150 PNO $
53988KBKB BKB20190505061011505/05/19 06:10:31  5-MIN KBKB 051210Z AUTO 00000KT 5SM BR CLR 16/15 A2989 320 96 500 000/00 RMK AO2 T01560150 PNO $
53988KBKB BKB20190505061511605/05/19 06:15:31  5-MIN KBKB 051215Z AUTO 00000KT 6SM BR CLR 16/16 A2989 320 100 500 000/00 RMK AO2 T01560156 PNO $
53988KBKB BKB20190505062011305/05/19 06:20:31  5-MIN KBKB 051220Z AUTO 00000KT 7SM CLR 16/16 A2990 320 100 600 000/00 RMK AO2 T01610161 PNO $
53988KBKB BKB20190505062511205/05/19 06:25:31  5-MIN KBKB 051225Z AUTO 00000KT 8SM CLR 17/16 A2990 320 96 600 000/00 RMK AO2 T01670161 PNO $
53988KBKB BKB20190505063011205/05/19 06:30:31  5-MIN KBKB 051230Z AUTO 00000KT 9SM CLR 17/16 A2990 320 96 600 000/00 RMK AO2 T01670161 PNO $
53988KBKB BKB20190505063511405/05/19 06:35:31  5-MIN KBKB 051235Z AUTO 00000KT 10SM CLR 17/17 A2990 310 100 600 000/00 RMK AO2 T01670167 PNO $
53988KBKB BKB20190505064011405/05/19 06:40:31  5-MIN KBKB 051240Z AUTO 00000KT 10SM CLR 17/17 A2990 310 100 700 000/00 RMK AO2 T01720172 PNO $
53988KBKB BKB20190505064511405/05/19 06:45:31  5-MIN KBKB 051245Z AUTO 00000KT 10SM CLR 17/17 A2990 320 100 700 000/00 RMK AO2 T01720172 PNO $
53988KBKB BKB20190505065012005/05/19 06:50:31  5-MIN KBKB 051250Z AUTO 00000KT 10SM CLR 18/17 A2990 320 96 800 000/00 RMK AO2 SLP151 T01780172 PNO $
53988KBKB BKB20190505065511305/05/19 06:55:31  5-MIN KBKB 051255Z AUTO 05003KT 10SM CLR 18/17 A2990 320 96 800 040/03 RMK AO2 T01780172 PNO $
53988KBKB BKB20190505070011305/05/19 07:00:31  5-MIN KBKB 051300Z AUTO VRB03KT 10SM CLR 18/17 A2990 310 96 800 VRB/03 RMK AO2 T01780172 PNO $
53988KBKB BKB20190505070511305/05/19 07:05:31  5-MIN KBKB 051305Z AUTO 00000KT 10SM CLR 18/17 A2990 310 96 800 000/00 RMK AO2 T01780172 PNO $
53988KBKB BKB20190505071011305/05/19 07:10:31  5-MIN KBKB 051310Z AUTO VRB03KT 10SM CLR 18/17 A2990 310 93 800 VRB/03 RMK AO2 T01830172 PNO $
53988KBKB BKB20190505071511305/05/19 07:15:31  5-MIN KBKB 051315Z AUTO VRB04KT 10SM CLR 18/17 A2990 310 93 800 VRB/04 RMK AO2 T01830172 PNO $
53988KBKB BKB20190505072011305/05/19 07:20:31  5-MIN KBKB 051320Z AUTO 03004KT 10SM CLR 18/17 A2991 310 93 800 030/04 RMK AO2 T01830172 PNO $
53988KBKB BKB20190505072511305/05/19 07:25:31  5-MIN KBKB 051325Z AUTO VRB04KT 10SM CLR 19/17 A2991 310 90 900 VRB/04 RMK AO2 T01890172 PNO $
53988KBKB BKB20190505073011305/05/19 07:30:31  5-MIN KBKB 051330Z AUTO 00000KT 10SM CLR 19/17 A2991 310 90 900 000/00 RMK AO2 T01890172 PNO $
53988KBKB BKB20190505073511305/05/19 07:35:31  5-MIN KBKB 051335Z AUTO 05003KT 10SM CLR 19/17 A2991 310 90 900 050/03 RMK AO2 T01890172 PNO $
53988KBKB BKB20190505074011305/05/19 07:40:31  5-MIN KBKB 051340Z AUTO VRB03KT 10SM CLR 19/17 A2990 310 84 900 VRB/03 RMK AO2 T01940167 PNO $
53988KBKB BKB20190505074511305/05/19 07:45:31  5-MIN KBKB 051345Z AUTO VRB03KT 10SM CLR 19/17 A2990 310 87 900 VRB/03 RMK AO2 T01940172 PNO $
53988KBKB BKB20190505075012005/05/19 07:50:31  5-MIN KBKB 051350Z AUTO VRB03KT 10SM CLR 19/17 A2990 310 84 900 VRB/03 RMK AO2 SLP153 T01940167 PNO $
53988KBKB BKB20190505075511405/05/19 07:55:31  5-MIN KBKB 051355Z AUTO 00000KT 10SM CLR 20/17 A2991 310 81 1000 000/00 RMK AO2 T02000167 PNO $
53988KBKB BKB20190505080011405/05/19 08:00:31  5-MIN KBKB 051400Z AUTO 00000KT 10SM CLR 21/17 A2991 310 78 1100 000/00 RMK AO2 T02060167 PNO $
53988KBKB BKB20190505080511405/05/19 08:05:31  5-MIN KBKB 051405Z AUTO 06004KT 10SM CLR 21/16 A2991 310 75 1100 060/04 RMK AO2 T02060161 PNO $
53988KBKB BKB20190505081011405/05/19 08:10:31  5-MIN KBKB 051410Z AUTO 04004KT 10SM CLR 21/16 A2991 310 75 1100 030/04 RMK AO2 T02060161 PNO $
53988KBKB BKB20190505081511405/05/19 08:15:31  5-MIN KBKB 051415Z AUTO 00000KT 10SM CLR 21/17 A2991 300 75 1100 000/00 RMK AO2 T02110167 PNO $
53988KBKB BKB20190505082011405/05/19 08:20:31  5-MIN KBKB 051420Z AUTO VRB03KT 10SM CLR 21/16 A2991 300 73 1100 VRB/03 RMK AO2 T02110161 PNO $
53988KBKB BKB20190505082511405/05/19 08:25:31  5-MIN KBKB 051425Z AUTO 00000KT 10SM CLR 21/16 A2991 300 73 1100 000/00 RMK AO2 T02110161 PNO $
53988KBKB BKB20190505083011405/05/19 08:30:31  5-MIN KBKB 051430Z AUTO VRB03KT 10SM CLR 22/16 A2991 300 70 1200 VRB/03 RMK AO2 T02170161 PNO $
53988KBKB BKB20190505083511405/05/19 08:35:31  5-MIN KBKB 051435Z AUTO 00000KT 10SM CLR 22/17 A2991 300 73 1200 000/00 RMK AO2 T02170167 PNO $
53988KBKB BKB20190505084011405/05/19 08:40:31  5-MIN KBKB 051440Z AUTO 00000KT 10SM CLR 21/16 A2991 310 73 1100 000/00 RMK AO2 T02110161 PNO $
53988KBKB BKB20190505084511405/05/19 08:45:31  5-MIN KBKB 051445Z AUTO VRB03KT 10SM CLR 22/16 A2991 300 70 1200 VRB/03 RMK AO2 T02170161 PNO $
53988KBKB BKB20190505085013305/05/19 08:50:31  5-MIN KBKB 051450Z AUTO 00000KT 10SM CLR 22/16 A2992 300 70 1200 000/00 RMK AO2 SLP157 6//// T02170161 53005 PNO $
53988KBKB BKB20190505085511405/05/19 08:55:31  5-MIN KBKB 051455Z AUTO 08004KT 10SM CLR 22/16 A2992 300 68 1300 070/04 RMK AO2 T02220161 PNO $
53988KBKB BKB20190505090011405/05/19 09:00:31  5-MIN KBKB 051500Z AUTO 00000KT 10SM CLR 22/17 A2992 300 70 1300 000/00 RMK AO2 T02220167 PNO $
53988KBKB BKB20190505090511405/05/19 09:05:31  5-MIN KBKB 051505Z AUTO VRB03KT 10SM CLR 23/17 A2991 300 68 1300 VRB/03 RMK AO2 T02280167 PNO $
53988KBKB BKB20190505091011405/05/19 09:10:31  5-MIN KBKB 051510Z AUTO 00000KT 10SM CLR 23/16 A2991 310 65 1300 000/00 RMK AO2 T02280161 PNO $
53988KBKB BKB20190505091511405/05/19 09:15:31  5-MIN KBKB 051515Z AUTO 00000KT 10SM CLR 23/17 A2991 310 66 1400 000/00 RMK AO2 T02330167 PNO $
53988KBKB BKB20190505092011405/05/19 09:20:31  5-MIN KBKB 051520Z AUTO VRB03KT 10SM CLR 23/17 A2991 310 68 1300 VRB/03 RMK AO2 T02280167 PNO $
53988KBKB BKB20190505092511405/05/19 09:25:31  5-MIN KBKB 051525Z AUTO VRB03KT 10SM CLR 23/17 A2991 310 66 1400 VRB/03 RMK AO2 T02330167 PNO $
53988KBKB BKB20190505093011405/05/19 09:30:31  5-MIN KBKB 051530Z AUTO VRB03KT 10SM CLR 23/17 A2991 310 68 1400 VRB/03 RMK AO2 T02330172 PNO $
53988KBKB BKB20190505093511405/05/19 09:35:31  5-MIN KBKB 051535Z AUTO 00000KT 10SM CLR 23/17 A2991 300 66 1400 000/00 RMK AO2 T02330167 PNO $
53988KBKB BKB20190505094011405/05/19 09:40:31  5-MIN KBKB 051540Z AUTO 00000KT 10SM CLR 24/17 A2992 300 63 1400 000/00 RMK AO2 T02390167 PNO $
53988KBKB BKB20190505094511405/05/19 09:45:31  5-MIN KBKB 051545Z AUTO 00000KT 10SM CLR 23/17 A2992 300 66 1400 000/00 RMK AO2 T02330167 PNO $
53988KBKB BKB20190505095012105/05/19 09:50:31  5-MIN KBKB 051550Z AUTO 00000KT 10SM CLR 24/17 A2992 300 63 1500 000/00 RMK AO2 SLP157 T02440172 PNO $
53988KBKB BKB20190505095511405/05/19 09:55:31  5-MIN KBKB 051555Z AUTO 09004KT 10SM CLR 24/17 A2992 300 63 1400 090/04 RMK AO2 T02390167 PNO $
53988KBKB BKB20190505100011405/05/19 10:00:31  5-MIN KBKB 051600Z AUTO 00000KT 10SM CLR 24/17 A2992 300 63 1400 000/00 RMK AO2 T02390167 PNO $
53988KBKB BKB20190505100511405/05/19 10:05:31  5-MIN KBKB 051605Z AUTO VRB03KT 10SM CLR 24/17 A2992 300 63 1400 VRB/03 RMK AO2 T02390167 PNO $
53988KBKB BKB20190505101011405/05/19 10:10:31  5-MIN KBKB 051610Z AUTO 00000KT 10SM CLR 24/17 A2991 300 63 1400 000/00 RMK AO2 T02390167 PNO $
53988KBKB BKB20190505101511405/05/19 10:15:31  5-MIN KBKB 051615Z AUTO 00000KT 10SM CLR 24/17 A2992 300 61 1500 000/00 RMK AO2 T02440167 PNO $
53988KBKB BKB20190505102011405/05/19 10:20:31  5-MIN KBKB 051620Z AUTO 00000KT 10SM CLR 25/17 A2992 300 59 1600 000/00 RMK AO2 T02500167 PNO $
53988KBKB BKB20190505102511405/05/19 10:25:31  5-MIN KBKB 051625Z AUTO VRB03KT 10SM CLR 24/17 A2992 290 61 1500 VRB/03 RMK AO2 T02440167 PNO $
53988KBKB BKB20190505103011405/05/19 10:30:31  5-MIN KBKB 051630Z AUTO 00000KT 10SM CLR 25/17 A2992 290 59 1600 000/00 RMK AO2 T02500167 PNO $
53988KBKB BKB20190505103511405/05/19 10:35:31  5-MIN KBKB 051635Z AUTO 00000KT 10SM CLR 25/17 A2992 300 59 1600 000/00 RMK AO2 T02500167 PNO $
53988KBKB BKB20190505104011405/05/19 10:40:31  5-MIN KBKB 051640Z AUTO 05004KT 10SM CLR 26/17 A2992 300 59 1600 040/04 RMK AO2 T02560172 PNO $
53988KBKB BKB20190505104511405/05/19 10:45:31  5-MIN KBKB 051645Z AUTO VRB03KT 10SM CLR 25/17 A2992 300 59 1600 VRB/03 RMK AO2 T02500167 PNO $
53988KBKB BKB20190505105012105/05/19 10:50:31  5-MIN KBKB 051650Z AUTO VRB04KT 10SM CLR 26/17 A2992 290 57 1600 VRB/04 RMK AO2 SLP159 T02560167 PNO $
53988KBKB BKB20190505105511405/05/19 10:55:31  5-MIN KBKB 051655Z AUTO VRB03KT 10SM CLR 26/16 A2992 290 55 1600 VRB/03 RMK AO2 T02560161 PNO $
53988KBKB BKB20190505110011205/05/19 11:00:31  5-MIN KBKB 051700Z AUTO 00000KT 10SM CLR 25/17 A2993 290 59 1600 000/00 RMK AO2 T02500167 PNO
53988KBKB BKB20190505110511205/05/19 11:05:31  5-MIN KBKB 051705Z AUTO 00000KT 10SM CLR 26/17 A2993 290 57 1600 000/00 RMK AO2 T02560167 PNO
53988KBKB BKB20190505111011205/05/19 11:10:31  5-MIN KBKB 051710Z AUTO 00000KT 10SM CLR 26/16 A2993 290 55 1600 000/00 RMK AO2 T02560161 PNO
53988KBKB BKB20190505111511205/05/19 11:15:31  5-MIN KBKB 051715Z AUTO VRB03KT 10SM CLR 26/17 A2992 300 55 1700 VRB/03 RMK AO2 T02610167 PNO
53988KBKB BKB20190505112011205/05/19 11:20:31  5-MIN KBKB 051720Z AUTO 03004KT 10SM CLR 27/18 A2992 300 56 1800 030/04 RMK AO2 T02720178 PNO
53988KBKB BKB20190505112511205/05/19 11:25:31  5-MIN KBKB 051725Z AUTO 00000KT 10SM CLR 26/17 A2992 300 57 1700 000/00 RMK AO2 T02610172 PNO
53988KBKB BKB20190505113011205/05/19 11:30:31  5-MIN KBKB 051730Z AUTO VRB03KT 10SM CLR 26/17 A2991 300 57 1700 VRB/03 RMK AO2 T02610172 PNO
53988KBKB BKB20190505113511205/05/19 11:35:31  5-MIN KBKB 051735Z AUTO VRB03KT 10SM CLR 26/17 A2991 310 55 1700 VRB/03 RMK AO2 T02610167 PNO
53988KBKB BKB20190505114011205/05/19 11:40:31  5-MIN KBKB 051740Z AUTO 00000KT 10SM CLR 26/16 A2991 310 53 1700 000/00 RMK AO2 T02610161 PNO
53988KBKB BKB20190505114511205/05/19 11:45:31  5-MIN KBKB 051745Z AUTO VRB03KT 10SM CLR 27/17 A2991 310 52 1800 VRB/03 RMK AO2 T02720167 PNO
53988KBKB BKB20190505115014605/05/19 11:50:31  5-MIN KBKB 051750Z AUTO VRB03KT 10SM FEW038 27/16 A2991 310 52 1800 VRB/03 RMK AO2 SLP153 6//// T02670161 10272 20150 53008 PNO
53988KBKB BKB20190505115511505/05/19 11:55:31  5-MIN KBKB 051755Z AUTO VRB03KT 10SM FEW038 26/16 A2990 310 51 1700 VRB/03 RMK AO2 T02610156 PNO
53988KBKB BKB20190505120011505/05/19 12:00:31  5-MIN KBKB 051800Z AUTO 34004KT 10SM FEW039 27/16 A2990 310 52 1800 340/04 RMK AO2 T02670161 PNO
53988KBKB BKB20190505120511505/05/19 12:05:31  5-MIN KBKB 051805Z AUTO VRB05KT 10SM FEW039 27/16 A2990 320 52 1800 VRB/05 RMK AO2 T02670161 PNO
53988KBKB BKB20190505121011505/05/19 12:10:31  5-MIN KBKB 051810Z AUTO VRB03KT 10SM FEW039 27/17 A2990 320 53 1800 VRB/03 RMK AO2 T02670167 PNO
53988KBKB BKB20190505121511205/05/19 12:15:31  5-MIN KBKB 051815Z AUTO 00000KT 10SM CLR 27/16 A2990 320 52 1800 000/00 RMK AO2 T02670161 PNO
53988KBKB BKB20190505122011205/05/19 12:20:31  5-MIN KBKB 051820Z AUTO VRB04KT 10SM CLR 27/16 A2990 320 50 1800 VRB/04 RMK AO2 T02720161 PNO
53988KBKB BKB20190505122511205/05/19 12:25:31  5-MIN KBKB 051825Z AUTO VRB03KT 10SM CLR 28/17 A2990 320 50 1900 VRB/03 RMK AO2 T02780167 PNO
53988KBKB BKB20190505123011205/05/19 12:30:31  5-MIN KBKB 051830Z AUTO 00000KT 10SM CLR 27/16 A2990 320 50 1800 000/00 RMK AO2 T02720161 PNO
53988KBKB BKB20190505123511205/05/19 12:35:31  5-MIN KBKB 051835Z AUTO VRB04KT 10SM CLR 27/16 A2990 320 48 1800 VRB/04 RMK AO2 T02720156 PNO
53988KBKB BKB20190505124011205/05/19 12:40:31  5-MIN KBKB 051840Z AUTO VRB03KT 10SM CLR 27/16 A2989 320 48 1800 VRB/03 RMK AO2 T02720156 PNO
53988KBKB BKB20190505124511205/05/19 12:45:31  5-MIN KBKB 051845Z AUTO 00000KT 10SM CLR 27/16 A2989 320 50 1800 000/00 RMK AO2 T02720161 PNO
53988KBKB BKB20190505125011905/05/19 12:50:31  5-MIN KBKB 051850Z AUTO VRB03KT 10SM CLR 27/16 A2989 320 48 1800 VRB/03 RMK AO2 SLP149 T02720156 PNO
53988KBKB BKB20190505125511205/05/19 12:55:31  5-MIN KBKB 051855Z AUTO 00000KT 10SM CLR 27/16 A2989 320 50 1800 000/00 RMK AO2 T02720161 PNO
53988KBKB BKB20190505130011205/05/19 13:00:31  5-MIN KBKB 051900Z AUTO VRB04KT 10SM CLR 28/16 A2989 330 46 1900 VRB/04 RMK AO2 T02780156 PNO
53988KBKB BKB20190505130511205/05/19 13:05:31  5-MIN KBKB 051905Z AUTO VRB03KT 10SM CLR 28/16 A2989 330 46 1900 VRB/03 RMK AO2 T02780156 PNO
53988KBKB BKB20190505131011205/05/19 13:10:31  5-MIN KBKB 051910Z AUTO VRB05KT 10SM CLR 28/16 A2989 330 48 1900 VRB/05 RMK AO2 T02780161 PNO
53988KBKB BKB20190505131511205/05/19 13:15:31  5-MIN KBKB 051915Z AUTO VRB03KT 10SM CLR 28/17 A2989 330 50 1900 VRB/03 RMK AO2 T02780167 PNO
53988KBKB BKB20190505132011205/05/19 13:20:31  5-MIN KBKB 051920Z AUTO VRB03KT 10SM CLR 28/16 A2989 330 46 1900 VRB/03 RMK AO2 T02780156 PNO
53988KBKB BKB20190505132511205/05/19 13:25:31  5-MIN KBKB 051925Z AUTO VRB04KT 10SM CLR 28/15 A2988 330 45 1900 VRB/04 RMK AO2 T02780150 PNO
53988KBKB BKB20190505133011205/05/19 13:30:31  5-MIN KBKB 051930Z AUTO 00000KT 10SM CLR 28/16 A2988 330 45 2000 000/00 RMK AO2 T02830156 PNO
53988KBKB BKB20190505133511505/05/19 13:35:31  5-MIN KBKB 051935Z AUTO VRB03KT 10SM FEW048 28/16 A2988 330 46 1900 VRB/03 RMK AO2 T02780156 PNO
53988KBKB BKB20190505134011505/05/19 13:40:31  5-MIN KBKB 051940Z AUTO VRB04KT 10SM FEW048 28/16 A2988 330 47 2000 VRB/04 RMK AO2 T02830161 PNO
53988KBKB BKB20190505134511505/05/19 13:45:31  5-MIN KBKB 051945Z AUTO 00000KT 10SM SCT048 29/16 A2988 330 45 2000 000/00 RMK AO2 T02890161 PNO
53988KBKB BKB20190505135012205/05/19 13:50:31  5-MIN KBKB 051950Z AUTO 34004KT 10SM BKN048 28/16 A2988 330 48 1900 340/04 RMK AO2 SLP145 T02780161 PNO
53988KBKB BKB20190505135511505/05/19 13:55:31  5-MIN KBKB 051955Z AUTO 00000KT 10SM BKN049 28/16 A2988 330 47 2000 000/00 RMK AO2 T02830161 PNO
53988KBKB BKB20190505140011505/05/19 14:00:31  5-MIN KBKB 052000Z AUTO 36004KT 10SM SCT049 28/16 A2989 330 47 2000 360/04 RMK AO2 T02830161 PNO
53988KBKB BKB20190505140511505/05/19 14:05:31  5-MIN KBKB 052005Z AUTO VRB03KT 10SM FEW049 29/16 A2988 330 44 2000 VRB/03 RMK AO2 T02890156 PNO
53988KBKB BKB20190505141011505/05/19 14:10:31  5-MIN KBKB 052010Z AUTO 10003KT 10SM SCT049 28/14 A2988 340 42 2000 090/03 RMK AO2 T02830144 PNO
53988KBKB BKB20190505141511505/05/19 14:15:31  5-MIN KBKB 052015Z AUTO VRB04KT 10SM SCT049 28/15 A2988 340 43 2000 VRB/04 RMK AO2 T02830150 PNO
53988KBKB BKB20190505142011505/05/19 14:20:31  5-MIN KBKB 052020Z AUTO VRB03KT 10SM BKN050 28/16 A2988 340 45 2000 VRB/03 RMK AO2 T02830156 PNO
53988KBKB BKB20190505142511505/05/19 14:25:31  5-MIN KBKB 052025Z AUTO VRB03KT 10SM BKN050 29/15 A2988 340 42 2100 VRB/03 RMK AO2 T02890150 PNO
53988KBKB BKB20190505143011505/05/19 14:30:31  5-MIN KBKB 052030Z AUTO VRB03KT 10SM SCT050 29/16 A2988 340 45 2100 VRB/03 RMK AO2 T02890161 PNO
53988KBKB BKB20190505143511505/05/19 14:35:31  5-MIN KBKB 052035Z AUTO VRB03KT 10SM BKN050 28/16 A2988 340 45 2000 VRB/03 RMK AO2 T02830156 PNO
53988KBKB BKB20190505144011505/05/19 14:40:31  5-MIN KBKB 052040Z AUTO 36003KT 10SM BKN050 28/16 A2988 340 45 2000 360/03 RMK AO2 T02830156 PNO
53988KBKB BKB20190505144511505/05/19 14:45:31  5-MIN KBKB 052045Z AUTO 03003KT 10SM BKN050 28/17 A2987 340 50 1900 030/03 RMK AO2 T02780167 PNO
53988KBKB BKB20190505145013405/05/19 14:50:31  5-MIN KBKB 052050Z AUTO 06004KT 10SM BKN050 28/16 A2987 350 47 2000 050/04 RMK AO2 SLP140 6//// T02830161 58004 PNO
53988KBKB BKB20190505145511505/05/19 14:55:31  5-MIN KBKB 052055Z AUTO 04003KT 10SM SCT050 28/16 A2986 350 47 2000 030/03 RMK AO2 T02830161 PNO
53988KBKB BKB20190505150011505/05/19 15:00:31  5-MIN KBKB 052100Z AUTO 03004KT 10SM SCT050 28/16 A2986 350 48 1900 020/04 RMK AO2 T02780161 PNO
53988KBKB BKB20190505150511505/05/19 15:05:31  5-MIN KBKB 052105Z AUTO 00000KT 10SM FEW050 27/16 A2986 350 48 1900 000/00 RMK AO2 T02720156 PNO
53988KBKB BKB20190505151011505/05/19 15:10:31  5-MIN KBKB 052110Z AUTO VRB03KT 10SM FEW050 28/16 A2986 360 45 2000 VRB/03 RMK AO2 T02830156 PNO
53988KBKB BKB20190505151511205/05/19 15:15:31  5-MIN KBKB 052115Z AUTO VRB04KT 10SM CLR 28/16 A2986 360 45 2000 VRB/04 RMK AO2 T02830156 PNO
53988KBKB BKB20190505152011205/05/19 15:20:31  5-MIN KBKB 052120Z AUTO VRB03KT 10SM CLR 29/16 A2986 360 44 2100 VRB/03 RMK AO2 T02890156 PNO
53988KBKB BKB20190505152511205/05/19 15:25:31  5-MIN KBKB 052125Z AUTO 02003KT 10SM CLR 28/15 A2986 360 43 2000 010/03 RMK AO2 T02830150 PNO
53988KBKB BKB20190505153011205/05/19 15:30:31  5-MIN KBKB 052130Z AUTO 00000KT 10SM CLR 28/15 A2986 360 43 2000 000/00 RMK AO2 T02830150 PNO
53988KBKB BKB20190505153511205/05/19 15:35:31  5-MIN KBKB 052135Z AUTO VRB04KT 10SM CLR 28/15 A2986 350 43 2000 VRB/04 RMK AO2 T02830150 PNO
53988KBKB BKB20190505154011205/05/19 15:40:31  5-MIN KBKB 052140Z AUTO 00000KT 10SM CLR 28/15 A2986 350 43 2000 000/00 RMK AO2 T02830150 PNO
53988KBKB BKB20190505154511205/05/19 15:45:31  5-MIN KBKB 052145Z AUTO 00000KT 10SM CLR 29/16 A2986 350 44 2100 000/00 RMK AO2 T02890156 PNO
53988KBKB BKB20190505155011905/05/19 15:50:31  5-MIN KBKB 052150Z AUTO 00000KT 10SM CLR 28/16 A2986 350 45 2000 000/00 RMK AO2 SLP137 T02830156 PNO
53988KBKB BKB20190505155511205/05/19 15:55:31  5-MIN KBKB 052155Z AUTO 35003KT 10SM CLR 29/16 A2986 350 44 2100 350/03 RMK AO2 T02890156 PNO
53988KBKB BKB20190505160011205/05/19 16:00:31  5-MIN KBKB 052200Z AUTO 00000KT 10SM CLR 28/15 A2986 350 43 2000 000/00 RMK AO2 T02830150 PNO
53988KBKB BKB20190505160511205/05/19 16:05:31  5-MIN KBKB 052205Z AUTO 00000KT 10SM CLR 28/15 A2986 350 43 2000 000/00 RMK AO2 T02830150 PNO
53988KBKB BKB20190505161011205/05/19 16:10:31  5-MIN KBKB 052210Z AUTO 09003KT 10SM CLR 28/15 A2986 350 43 2000 090/03 RMK AO2 T02830150 PNO
53988KBKB BKB20190505161511205/05/19 16:15:31  5-MIN KBKB 052215Z AUTO 00000KT 10SM CLR 28/15 A2986 350 43 2000 000/00 RMK AO2 T02830150 PNO
53988KBKB BKB20190505162011205/05/19 16:20:31  5-MIN KBKB 052220Z AUTO 00000KT 10SM CLR 28/15 A2986 350 43 2000 000/00 RMK AO2 T02830150 PNO
53988KBKB BKB20190505162511505/05/19 16:25:31  5-MIN KBKB 052225Z AUTO VRB03KT 10SM FEW050 28/15 A2986 350 43 2000 VRB/03 RMK AO2 T02830150 PNO
53988KBKB BKB20190505163011505/05/19 16:30:31  5-MIN KBKB 052230Z AUTO VRB03KT 10SM SCT050 28/16 A2986 360 45 2000 VRB/03 RMK AO2 T02830156 PNO
53988KBKB BKB20190505163511505/05/19 16:35:31  5-MIN KBKB 052235Z AUTO 00000KT 10SM BKN050 28/16 A2986 360 45 2000 000/00 RMK AO2 T02830156 PNO
53988KBKB BKB20190505164011505/05/19 16:40:31  5-MIN KBKB 052240Z AUTO 00000KT 10SM BKN050 28/16 A2986 360 47 2000 000/00 RMK AO2 T02830161 PNO
53988KBKB BKB20190505164511505/05/19 16:45:31  5-MIN KBKB 052245Z AUTO VRB03KT 10SM SCT050 28/16 A2985 360 47 2000 VRB/03 RMK AO2 T02830161 PNO
53988KBKB BKB20190505165012205/05/19 16:50:31  5-MIN KBKB 052250Z AUTO 00000KT 10SM SCT050 28/16 A2985 360 47 2000 000/00 RMK AO2 SLP135 T02830161 PNO
53988KBKB BKB20190505165511505/05/19 16:55:31  5-MIN KBKB 052255Z AUTO 00000KT 10SM SCT050 28/17 A2985 360 48 2000 000/00 RMK AO2 T02830167 PNO
53988KBKB BKB20190505170011505/05/19 17:00:31  5-MIN KBKB 052300Z AUTO 00000KT 10SM SCT050 28/17 A2985 360 50 2000 000/00 RMK AO2 T02780167 PNO
53988KBKB BKB20190505170511505/05/19 17:05:31  5-MIN KBKB 052305Z AUTO VRB03KT 10SM FEW050 28/17 A2985 360 52 2000 VRB/03 RMK AO2 T02780172 PNO
53988KBKB BKB20190505171011505/05/19 17:10:31  5-MIN KBKB 052310Z AUTO VRB04KT 10SM FEW050 28/16 A2985 360 48 2000 VRB/04 RMK AO2 T02780161 PNO
53988KBKB BKB20190505171511505/05/19 17:15:31  5-MIN KBKB 052315Z AUTO VRB04KT 10SM FEW050 27/16 A2985 360 50 1900 VRB/04 RMK AO2 T02720161 PNO
53988KBKB BKB20190505172011205/05/19 17:20:31  5-MIN KBKB 052320Z AUTO 00000KT 10SM CLR 27/16 A2985 360 48 1900 000/00 RMK AO2 T02720156 PNO
53988KBKB BKB20190505172511205/05/19 17:25:31  5-MIN KBKB 052325Z AUTO VRB03KT 10SM CLR 27/16 A2985 360 50 1900 VRB/03 RMK AO2 T02720161 PNO
53988KBKB BKB20190505173011205/05/19 17:30:31  5-MIN KBKB 052330Z AUTO VRB03KT 10SM CLR 27/17 A2985 360 52 1900 VRB/03 RMK AO2 T02720167 PNO
53988KBKB BKB20190505173511205/05/19 17:35:31  5-MIN KBKB 052335Z AUTO VRB03KT 10SM CLR 27/17 A2985 360 53 1800 VRB/03 RMK AO2 T02670167 PNO
53988KBKB BKB20190505174011205/05/19 17:40:31  5-MIN KBKB 052340Z AUTO 00000KT 10SM CLR 27/17 A2985 360 53 1800 000/00 RMK AO2 T02670167 PNO
53988KBKB BKB20190505174511205/05/19 17:45:31  5-MIN KBKB 052345Z AUTO 00000KT 10SM CLR 26/17 A2985 370 55 1800 000/00 RMK AO2 T02610167 PNO
53988KBKB BKB20190505175014305/05/19 17:50:31  5-MIN KBKB 052350Z AUTO VRB03KT 10SM CLR 26/17 A2985 360 55 1800 VRB/03 RMK AO2 SLP134 6//// T02610167 10289 20261 58014 PNO
53988KBKB BKB20190505175511205/05/19 17:55:31  5-MIN KBKB 052355Z AUTO 00000KT 10SM CLR 26/17 A2985 360 55 1800 000/00 RMK AO2 T02610167 PNO
53988KBKB BKB20190505180011205/05/19 18:00:31  5-MIN KBKB 060000Z AUTO 00000KT 10SM CLR 26/17 A2985 360 57 1700 000/00 RMK AO2 T02560167 PNO
53988KBKB BKB20190505180511205/05/19 18:05:31  5-MIN KBKB 060005Z AUTO VRB03KT 10SM CLR 26/17 A2985 360 57 1700 VRB/03 RMK AO2 T02560167 PNO
53988KBKB BKB20190505181011205/05/19 18:10:31  5-MIN KBKB 060010Z AUTO 00000KT 10SM CLR 26/17 A2985 360 59 1700 000/00 RMK AO2 T02560172 PNO
53988KBKB BKB20190505181511205/05/19 18:15:31  5-MIN KBKB 060015Z AUTO 00000KT 10SM CLR 25/17 A2985 360 61 1600 000/00 RMK AO2 T02500172 PNO
53988KBKB BKB20190505182011205/05/19 18:20:31  5-MIN KBKB 060020Z AUTO 00000KT 10SM CLR 24/17 A2985 360 63 1600 000/00 RMK AO2 T02440172 PNO
53988KBKB BKB20190505182511205/05/19 18:25:31  5-MIN KBKB 060025Z AUTO 00000KT 10SM CLR 24/17 A2985 360 63 1600 000/00 RMK AO2 T02440172 PNO
53988KBKB BKB20190505183011205/05/19 18:30:31  5-MIN KBKB 060030Z AUTO 00000KT 10SM CLR 23/18 A2985 360 70 1500 000/00 RMK AO2 T02330178 PNO
53988KBKB BKB20190505183511205/05/19 18:35:31  5-MIN KBKB 060035Z AUTO 00000KT 10SM CLR 23/17 A2985 360 68 1500 000/00 RMK AO2 T02330172 PNO
53988KBKB BKB20190505184011205/05/19 18:40:31  5-MIN KBKB 060040Z AUTO 00000KT 10SM CLR 23/18 A2985 360 73 1400 000/00 RMK AO2 T02280178 PNO
53988KBKB BKB20190505184511205/05/19 18:45:31  5-MIN KBKB 060045Z AUTO 00000KT 10SM CLR 23/18 A2985 360 73 1400 000/00 RMK AO2 T02280178 PNO
53988KBKB BKB20190505185011905/05/19 18:50:31  5-MIN KBKB 060050Z AUTO 00000KT 10SM CLR 23/18 A2986 360 73 1400 000/00 RMK AO2 SLP137 T02280178 PNO
53988KBKB BKB20190505185511205/05/19 18:55:31  5-MIN KBKB 060055Z AUTO 00000KT 10SM CLR 22/18 A2986 360 75 1300 000/00 RMK AO2 T02220178 PNO
53988KBKB BKB20190505190011205/05/19 19:00:31  5-MIN KBKB 060100Z AUTO 00000KT 10SM CLR 22/18 A2986 350 75 1300 000/00 RMK AO2 T02220178 PNO
53988KBKB BKB20190505190511205/05/19 19:05:31  5-MIN KBKB 060105Z AUTO 00000KT 10SM CLR 22/18 A2986 350 78 1300 000/00 RMK AO2 T02170178 PNO
53988KBKB BKB20190505191011205/05/19 19:10:31  5-MIN KBKB 060110Z AUTO 00000KT 10SM CLR 22/18 A2986 350 78 1300 000/00 RMK AO2 T02170178 PNO
53988KBKB BKB20190505191508705/05/19 19:15:31  5-MIN KBKB 060115Z AUTO 00000KT 10SM CLR 22/18 A2986 350 78 120STED.
53988KBKB BKB20190505195011905/05/19 19:50:31  5-MIN KBKB 060150Z AUTO 00000KT 10SM CLR 21/17 A2987 340 81 1100 000/00 RMK AO2 SLP142 T02060172 PNO
53988KBKB BKB20190505195511205/05/19 19:55:31  5-MIN KBKB 060155Z AUTO 00000KT 10SM CLR 20/17 A2987 340 84 1000 000/00 RMK AO2 T02000172 PNO
53988KBKB BKB20190505200011205/05/19 20:00:31  5-MIN KBKB 060200Z AUTO 00000KT 10SM CLR 20/17 A2987 340 84 1000 000/00 RMK AO2 T02000172 PNO
53988KBKB BKB20190505200511205/05/19 20:05:31  5-MIN KBKB 060205Z AUTO 00000KT 10SM CLR 20/17 A2987 340 84 1000 000/00 RMK AO2 T02000172 PNO
53988KBKB BKB20190505201011205/05/19 20:10:31  5-MIN KBKB 060210Z AUTO 00000KT 10SM CLR 20/17 A2987 340 84 1000 000/00 RMK AO2 T02000172 PNO
53988KBKB BKB20190505201511205/05/19 20:15:31  5-MIN KBKB 060215Z AUTO 00000KT 10SM CLR 20/17 A2987 340 84 1000 000/00 RMK AO2 T02000172 PNO
53988KBKB BKB20190505202011205/05/19 20:20:31  5-MIN KBKB 060220Z AUTO 00000KT 10SM CLR 20/17 A2987 340 84 1000 000/00 RMK AO2 T02000172 PNO
53988KBKB BKB20190505202511205/05/19 20:25:31  5-MIN KBKB 060225Z AUTO 00000KT 10SM CLR 20/17 A2987 340 84 1000 000/00 RMK AO2 T02000172 PNO
53988KBKB BKB20190505203011205/05/19 20:30:31  5-MIN KBKB 060230Z AUTO 00000KT 10SM CLR 20/18 A2987 350 87 1100 000/00 RMK AO2 T02000178 PNO
53988KBKB BKB20190505203511205/05/19 20:35:31  5-MIN KBKB 060235Z AUTO 00000KT 10SM CLR 20/18 A2986 350 87 1100 000/00 RMK AO2 T02000178 PNO
53988KBKB BKB20190505204011205/05/19 20:40:31  5-MIN KBKB 060240Z AUTO 00000KT 10SM CLR 19/18 A2987 350 90 1000 000/00 RMK AO2 T01940178 PNO
53988KBKB BKB20190505204511205/05/19 20:45:31  5-MIN KBKB 060245Z AUTO 00000KT 10SM CLR 19/18 A2987 350 90 1000 000/00 RMK AO2 T01940178 PNO
53988KBKB BKB20190505205013105/05/19 20:50:31  5-MIN KBKB 060250Z AUTO 00000KT 10SM CLR 19/17 A2987 340 87 1000 000/00 RMK AO2 SLP142 6//// T01940172 57004 PNO
53988KBKB BKB20190505205511105/05/19 20:55:31  5-MIN KBKB 060255Z AUTO 00000KT 10SM CLR 19/17 A2987 350 87 900 000/00 RMK AO2 T01890167 PNO
53988KBKB BKB20190505210011105/05/19 21:00:31  5-MIN KBKB 060300Z AUTO 00000KT 10SM CLR 19/17 A2987 350 87 900 000/00 RMK AO2 T01890167 PNO
53988KBKB BKB20190505210511105/05/19 21:05:31  5-MIN KBKB 060305Z AUTO 00000KT 10SM CLR 19/17 A2987 350 87 900 000/00 RMK AO2 T01890167 PNO
53988KBKB BKB20190505211011105/05/19 21:10:31  5-MIN KBKB 060310Z AUTO 00000KT 10SM CLR 19/17 A2987 340 87 900 000/00 RMK AO2 T01890167 PNO
53988KBKB BKB20190505211511105/05/19 21:15:31  5-MIN KBKB 060315Z AUTO 00000KT 10SM CLR 19/17 A2987 340 87 900 000/00 RMK AO2 T01890167 PNO
53988KBKB BKB20190505212011205/05/19 21:20:31  5-MIN KBKB 060320Z AUTO 00000KT 10SM CLR 19/17 A2988 340 87 1000 000/00 RMK AO2 T01940172 PNO
53988KBKB BKB20190505212511105/05/19 21:25:31  5-MIN KBKB 060325Z AUTO 00000KT 10SM CLR 19/17 A2988 340 90 900 000/00 RMK AO2 T01890172 PNO
53988KBKB BKB20190505213011205/05/19 21:30:31  5-MIN KBKB 060330Z AUTO 00000KT 10SM CLR 19/17 A2988 340 84 1000 000/00 RMK AO2 T01940167 PNO
53988KBKB BKB20190505213511205/05/19 21:35:31  5-MIN KBKB 060335Z AUTO 00000KT 10SM CLR 19/17 A2988 340 84 1000 000/00 RMK AO2 T01940167 PNO
53988KBKB BKB20190505214011205/05/19 21:40:31  5-MIN KBKB 060340Z AUTO 00000KT 10SM CLR 19/17 A2988 330 84 1000 000/00 RMK AO2 T01940167 PNO
53988KBKB BKB20190505214511205/05/19 21:45:31  5-MIN KBKB 060345Z AUTO 00000KT 10SM CLR 19/17 A2989 330 84 1000 000/00 RMK AO2 T01940167 PNO
53988KBKB BKB20190505215011905/05/19 21:50:31  5-MIN KBKB 060350Z AUTO 00000KT 10SM CLR 20/17 A2989 330 81 1000 000/00 RMK AO2 SLP147 T02000167 PNO
53988KBKB BKB20190505215511205/05/19 21:55:31  5-MIN KBKB 060355Z AUTO 00000KT 10SM CLR 19/17 A2989 320 84 1000 000/00 RMK AO2 T01940167 PNO
53988KBKB BKB20190505220011105/05/19 22:00:31  5-MIN KBKB 060400Z AUTO 00000KT 10SM CLR 18/17 A2990 320 93 800 000/00 RMK AO2 T01830172 PNO
53988KBKB BKB20190505220511105/05/19 22:05:31  5-MIN KBKB 060405Z AUTO 00000KT 10SM CLR 18/17 A2990 320 93 800 000/00 RMK AO2 T01830172 PNO
53988KBKB BKB20190505221011105/05/19 22:10:31  5-MIN KBKB 060410Z AUTO 00000KT 10SM CLR 18/17 A2990 320 93 800 000/00 RMK AO2 T01830172 PNO
53988KBKB BKB20190505221511105/05/19 22:15:31  5-MIN KBKB 060415Z AUTO 00000KT 10SM CLR 18/17 A2990 310 90 800 000/00 RMK AO2 T01830167 PNO
53988KBKB BKB20190505222011105/05/19 22:20:31  5-MIN KBKB 060420Z AUTO 00000KT 10SM CLR 18/17 A2991 310 90 800 000/00 RMK AO2 T01830167 PNO
53988KBKB BKB20190505222511105/05/19 22:25:31  5-MIN KBKB 060425Z AUTO 00000KT 10SM CLR 18/17 A2991 310 96 700 000/00 RMK AO2 T01780172 PNO
53988KBKB BKB20190505223011105/05/19 22:30:31  5-MIN KBKB 060430Z AUTO 00000KT 10SM CLR 18/17 A2991 300 93 700 000/00 RMK AO2 T01780167 PNO
53988KBKB BKB20190505223511105/05/19 22:35:31  5-MIN KBKB 060435Z AUTO 00000KT 10SM CLR 18/17 A2992 300 93 700 000/00 RMK AO2 T01780167 PNO
53988KBKB BKB20190505224011105/05/19 22:40:31  5-MIN KBKB 060440Z AUTO 00000KT 10SM CLR 18/17 A2992 300 93 700 000/00 RMK AO2 T01780167 PNO
53988KBKB BKB20190505224511105/05/19 22:45:31  5-MIN KBKB 060445Z AUTO 00000KT 10SM CLR 18/17 A2992 300 93 700 000/00 RMK AO2 T01780167 PNO
53988KBKB BKB20190505225011805/05/19 22:50:31  5-MIN KBKB 060450Z AUTO 00000KT 10SM CLR 17/17 A2992 300 96 700 000/00 RMK AO2 SLP157 T01720167 PNO
53988KBKB BKB20190505225511105/05/19 22:55:31  5-MIN KBKB 060455Z AUTO 00000KT 10SM CLR 17/17 A2992 300 96 700 000/00 RMK AO2 T01720167 PNO
53988KBKB BKB20190505230011105/05/19 23:00:31  5-MIN KBKB 060500Z AUTO 00000KT 10SM CLR 17/17 A2992 300 96 700 000/00 RMK AO2 T01720167 PNO
53988KBKB BKB20190505230511105/05/19 23:05:31  5-MIN KBKB 060505Z AUTO 00000KT 10SM CLR 17/17 A2992 300 96 700 000/00 RMK AO2 T01720167 PNO
53988KBKB BKB20190505231011105/05/19 23:10:31  5-MIN KBKB 060510Z AUTO 00000KT 10SM CLR 17/17 A2992 300 96 700 000/00 RMK AO2 T01720167 PNO
53988KBKB BKB20190505231511105/05/19 23:15:31  5-MIN KBKB 060515Z AUTO 00000KT 10SM CLR 17/16 A2992 300 93 700 000/00 RMK AO2 T01720161 PNO
53988KBKB BKB20190505232011105/05/19 23:20:31  5-MIN KBKB 060520Z AUTO 00000KT 10SM CLR 17/16 A2992 300 93 700 000/00 RMK AO2 T01720161 PNO
53988KBKB BKB20190505232511105/05/19 23:25:31  5-MIN KBKB 060525Z AUTO 00000KT 10SM CLR 17/16 A2992 300 93 700 000/00 RMK AO2 T01720161 PNO
53988KBKB BKB20190505233011105/05/19 23:30:31  5-MIN KBKB 060530Z AUTO 00000KT 10SM CLR 17/16 A2992 300 93 700 000/00 RMK AO2 T01720161 PNO
53988KBKB BKB20190505233511105/05/19 23:35:31  5-MIN KBKB 060535Z AUTO 00000KT 10SM CLR 17/16 A2992 300 96 600 000/00 RMK AO2 T01670161 PNO
53988KBKB BKB20190505234011105/05/19 23:40:31  5-MIN KBKB 060540Z AUTO 00000KT 10SM CLR 17/16 A2992 300 96 600 000/00 RMK AO2 T01670161 PNO
53988KBKB BKB20190505234511105/05/19 23:45:31  5-MIN KBKB 060545Z AUTO 00000KT 10SM CLR 17/16 A2992 300 93 700 000/00 RMK AO2 T01720161 PNO
53988KBKB BKB20190505235015205/05/19 23:50:31  5-MIN KBKB 060550Z AUTO 00000KT 10SM CLR 17/16 A2991 300 96 600 000/00 RMK AO2 SLP156 6//// T01670161 10261 20167 402890150 50006 PNO
53988KBKB BKB20190505235511105/05/19 23:55:31  5-MIN KBKB 060555Z AUTO 00000KT 10SM CLR 17/16 A2992 300 96 600 000/00 RMK AO2 T01670161 PNO
53988KBKB BKB20190506000011105/06/19 00:00:31  5-MIN KBKB 060600Z AUTO 00000KT 10SM CLR 17/16 A2992 300 96 600 000/00 RMK AO2 T01670161 PNO
53988KBKB BKB20190506000511105/06/19 00:05:31  5-MIN KBKB 060605Z AUTO 00000KT 10SM CLR 17/16 A2992 300 96 600 000/00 RMK AO2 T01670161 PNO
53988KBKB BKB20190506001011105/06/19 00:10:31  5-MIN KBKB 060610Z AUTO 00000KT 10SM CLR 17/16 A2992 300 96 600 000/00 RMK AO2 T01670161 PNO
53988KBKB BKB20190506001511105/06/19 00:15:31  5-MIN KBKB 060615Z AUTO 00000KT 10SM CLR 17/16 A2992 300 96 600 000/00 RMK AO2 T01670161 PNO
53988KBKB BKB20190506002011105/06/19 00:20:31  5-MIN KBKB 060620Z AUTO 00000KT 10SM CLR 17/16 A2992 300 96 600 000/00 RMK AO2 T01670161 PNO
53988KBKB BKB20190506002511105/06/19 00:25:31  5-MIN KBKB 060625Z AUTO 00000KT 10SM CLR 17/16 A2992 300 96 600 000/00 RMK AO2 T01670161 PNO
53988KBKB BKB20190506003011105/06/19 00:30:31  5-MIN KBKB 060630Z AUTO 00000KT 10SM CLR 17/16 A2992 300 96 600 000/00 RMK AO2 T01670161 PNO
53988KBKB BKB20190506003511105/06/19 00:35:31  5-MIN KBKB 060635Z AUTO 00000KT 10SM CLR 17/16 A2992 300 96 600 000/00 RMK AO2 T01670161 PNO
53988KBKB BKB20190506004011105/06/19 00:40:31  5-MIN KBKB 060640Z AUTO 00000KT 10SM CLR 17/16 A2992 300 96 600 000/00 RMK AO2 T01670161 PNO
53988KBKB BKB20190506004511105/06/19 00:45:31  5-MIN KBKB 060645Z AUTO 00000KT 10SM CLR 17/16 A2992 300 96 600 000/00 RMK AO2 T01670161 PNO
53988KBKB BKB20190506005011805/06/19 00:50:31  5-MIN KBKB 060650Z AUTO 00000KT 10SM CLR 17/16 A2992 300 96 600 000/00 RMK AO2 SLP157 T01670161 PNO
53988KBKB BKB20190506005511105/06/19 00:55:31  5-MIN KBKB 060655Z AUTO 00000KT 10SM CLR 17/16 A2992 300 96 600 000/00 RMK AO2 T01670161 PNO
53988KBKB BKB20190506010011105/06/19 01:00:31  5-MIN KBKB 060700Z AUTO 00000KT 10SM CLR 17/16 A2992 300 96 600 000/00 RMK AO2 T01670161 PNO
53988KBKB BKB20190506010511105/06/19 01:05:31  5-MIN KBKB 060705Z AUTO 00000KT 10SM CLR 17/16 A2992 300 96 600 000/00 RMK AO2 T01670161 PNO
53988KBKB BKB20190506011011105/06/19 01:10:31  5-MIN KBKB 060710Z AUTO 00000KT 10SM CLR 17/16 A2991 300 96 600 000/00 RMK AO2 T01670161 PNO
53988KBKB BKB20190506011511105/06/19 01:15:31  5-MIN KBKB 060715Z AUTO 00000KT 10SM CLR 17/16 A2991 310 96 600 000/00 RMK AO2 T01670161 PNO
53988KBKB BKB20190506012011105/06/19 01:20:31  5-MIN KBKB 060720Z AUTO 00000KT 10SM CLR 17/16 A2991 300 96 600 000/00 RMK AO2 T01670161 PNO
53988KBKB BKB20190506012511105/06/19 01:25:31  5-MIN KBKB 060725Z AUTO 00000KT 10SM CLR 16/16 A2992 300 96 500 000/00 RMK AO2 T01610156 PNO
53988KBKB BKB20190506013011105/06/19 01:30:31  5-MIN KBKB 060730Z AUTO 00000KT 10SM CLR 17/16 A2992 300 93 600 000/00 RMK AO2 T01670156 PNO
53988KBKB BKB20190506013511105/06/19 01:35:31  5-MIN KBKB 060735Z AUTO 00000KT 10SM CLR 17/16 A2992 300 96 600 000/00 RMK AO2 T01670161 PNO
53988KBKB BKB20190506014011105/06/19 01:40:31  5-MIN KBKB 060740Z AUTO 00000KT 10SM CLR 16/16 A2991 300 96 500 000/00 RMK AO2 T01610156 PNO
53988KBKB BKB20190506014511105/06/19 01:45:31  5-MIN KBKB 060745Z AUTO 00000KT 10SM CLR 16/16 A2991 310 96 500 000/00 RMK AO2 T01610156 PNO
53988KBKB BKB20190506015011805/06/19 01:50:31  5-MIN KBKB 060750Z AUTO 00000KT 10SM CLR 16/16 A2991 310 96 600 000/00 RMK AO2 SLP154 T01610156 PNO
53988KBKB BKB20190506015511105/06/19 01:55:31  5-MIN KBKB 060755Z AUTO 00000KT 10SM CLR 17/16 A2991 310 96 600 000/00 RMK AO2 T01670161 PNO
53988KBKB BKB20190506020011105/06/19 02:00:31  5-MIN KBKB 060800Z AUTO 00000KT 10SM CLR 17/16 A2991 310 96 600 000/00 RMK AO2 T01670161 PNO
53988KBKB BKB20190506020511105/06/19 02:05:31  5-MIN KBKB 060805Z AUTO 00000KT 10SM CLR 17/16 A2991 310 96 600 000/00 RMK AO2 T01670161 PNO
53988KBKB BKB20190506021011105/06/19 02:10:31  5-MIN KBKB 060810Z AUTO 00000KT 10SM CLR 17/16 A2991 310 96 600 000/00 RMK AO2 T01670161 PNO
53988KBKB BKB20190506021511205/06/19 02:15:31  5-MIN KBKB 060815Z AUTO 00000KT 10SM CLR 16/16 A2991 310 100 600 000/00 RMK AO2 T01610161 PNO
53988KBKB BKB20190506022011105/06/19 02:20:31  5-MIN KBKB 060820Z AUTO 00000KT 10SM CLR 16/16 A2990 310 96 600 000/00 RMK AO2 T01610156 PNO
53988KBKB BKB20190506022511105/06/19 02:25:31  5-MIN KBKB 060825Z AUTO 00000KT 10SM CLR 16/16 A2990 310 96 600 000/00 RMK AO2 T01610156 PNO
53988KBKB BKB20190506023011105/06/19 02:30:31  5-MIN KBKB 060830Z AUTO 00000KT 10SM CLR 17/16 A2991 310 93 600 000/00 RMK AO2 T01670156 PNO
53988KBKB BKB20190506023511105/06/19 02:35:31  5-MIN KBKB 060835Z AUTO 00000KT 10SM CLR 16/16 A2991 310 96 600 000/00 RMK AO2 T01610156 PNO
53988KBKB BKB20190506024011105/06/19 02:40:31  5-MIN KBKB 060840Z AUTO 00000KT 10SM CLR 16/16 A2991 310 96 500 000/00 RMK AO2 T01610156 PNO
53988KBKB BKB20190506024511105/06/19 02:45:31  5-MIN KBKB 060845Z AUTO 00000KT 10SM CLR 16/16 A2991 310 96 500 000/00 RMK AO2 T01610156 PNO
53988KBKB BKB20190506025013005/06/19 02:50:31  5-MIN KBKB 060850Z AUTO 00000KT 10SM CLR 16/16 A2991 310 96 600 000/00 RMK AO2 SLP154 6//// T01610156 50015 PNO
53988KBKB BKB20190506025511005/06/19 02:55:31  5-MIN KBKB 060855Z AUTO 00000KT 9SM CLR 16/16 A2991 310 96 600 000/00 RMK AO2 T01610156 PNO
53988KBKB BKB20190506030011105/06/19 03:00:31  5-MIN KBKB 060900Z AUTO 00000KT 10SM CLR 16/16 A2991 300 96 500 000/00 RMK AO2 T01610156 PNO
53988KBKB BKB20190506030511105/06/19 03:05:31  5-MIN KBKB 060905Z AUTO 00000KT 10SM CLR 16/16 A2992 300 96 500 000/00 RMK AO2 T01610156 PNO
53988KBKB BKB20190506031011005/06/19 03:10:31  5-MIN KBKB 060910Z AUTO 00000KT 8SM CLR 16/16 A2992 300 96 500 000/00 RMK AO2 T01610156 PNO
53988KBKB BKB20190506031511005/06/19 03:15:31  5-MIN KBKB 060915Z AUTO 00000KT 8SM CLR 16/16 A2992 300 96 500 000/00 RMK AO2 T01610156 PNO
53988KBKB BKB20190506032011005/06/19 03:20:31  5-MIN KBKB 060920Z AUTO 00000KT 8SM CLR 16/16 A2992 300 96 500 000/00 RMK AO2 T01610156 PNO
53988KBKB BKB20190506032511005/06/19 03:25:31  5-MIN KBKB 060925Z AUTO 00000KT 8SM CLR 16/16 A2992 300 96 500 000/00 RMK AO2 T01610156 PNO
53988KBKB BKB20190506033011005/06/19 03:30:31  5-MIN KBKB 060930Z AUTO 00000KT 7SM CLR 16/16 A2992 290 96 500 000/00 RMK AO2 T01610156 PNO
53988KBKB BKB20190506033511305/06/19 03:35:31  5-MIN KBKB 060935Z AUTO 00000KT 6SM BR CLR 16/16 A2992 290 96 500 000/00 RMK AO2 T01610156 PNO
53988KBKB BKB20190506034011005/06/19 03:40:31  5-MIN KBKB 060940Z AUTO 00000KT 7SM CLR 16/16 A2993 290 96 500 000/00 RMK AO2 T01610156 PNO
53988KBKB BKB20190506034511005/06/19 03:45:31  5-MIN KBKB 060945Z AUTO 00000KT 8SM CLR 16/16 A2993 290 96 500 000/00 RMK AO2 T01610156 PNO
53988KBKB BKB20190506035011705/06/19 03:50:31  5-MIN KBKB 060950Z AUTO 00000KT 8SM CLR 16/16 A2993 290 96 500 000/00 RMK AO2 SLP160 T01610156 PNO
53988KBKB BKB20190506035511005/06/19 03:55:31  5-MIN KBKB 060955Z AUTO 00000KT 8SM CLR 16/16 A2993 290 96 500 000/00 RMK AO2 T01610156 PNO
53988KBKB BKB20190506040011105/06/19 04:00:31  5-MIN KBKB 061000Z AUTO 00000KT 10SM CLR 16/16 A2993 290 96 500 000/00 RMK AO2 T01610156 PNO
53988KBKB BKB20190506040511105/06/19 04:05:31  5-MIN KBKB 061005Z AUTO 00000KT 10SM CLR 16/16 A2993 290 96 500 000/00 RMK AO2 T01610156 PNO
53988KBKB BKB20190506041011205/06/19 04:10:31  5-MIN KBKB 061010Z AUTO 00000KT 10SM CLR 16/16 A2994 280 100 500 000/00 RMK AO2 T01560156 PNO
53988KBKB BKB20190506041511205/06/19 04:15:31  5-MIN KBKB 061015Z AUTO 00000KT 10SM CLR 16/16 A2993 290 100 500 000/00 RMK AO2 T01560156 PNO
53988KBKB BKB20190506042011205/06/19 04:20:31  5-MIN KBKB 061020Z AUTO 00000KT 10SM CLR 16/16 A2994 280 100 500 000/00 RMK AO2 T01560156 PNO
53988KBKB BKB20190506042511205/06/19 04:25:31  5-MIN KBKB 061025Z AUTO 00000KT 10SM CLR 16/16 A2994 280 100 500 000/00 RMK AO2 T01560156 PNO
53988KBKB BKB20190506043011105/06/19 04:30:31  5-MIN KBKB 061030Z AUTO 00000KT 10SM CLR 16/16 A2994 280 96 500 000/00 RMK AO2 T01610156 PNO
53988KBKB BKB20190506043511105/06/19 04:35:31  5-MIN KBKB 061035Z AUTO 00000KT 10SM CLR 16/15 A2995 270 96 400 000/00 RMK AO2 T01560150 PNO
53988KBKB BKB20190506044011005/06/19 04:40:31  5-MIN KBKB 061040Z AUTO 00000KT 9SM CLR 16/15 A2995 270 96 400 000/00 RMK AO2 T01560150 PNO
53988KBKB BKB20190506044511005/06/19 04:45:31  5-MIN KBKB 061045Z AUTO 00000KT 8SM CLR 16/15 A2996 270 96 400 000/00 RMK AO2 T01560150 PNO
53988KBKB BKB20190506045011705/06/19 04:50:31  5-MIN KBKB 061050Z AUTO 00000KT 7SM CLR 15/14 A2996 260 96 400 000/00 RMK AO2 SLP171 T01500144 PNO
53988KBKB BKB20190506045511005/06/19 04:55:31  5-MIN KBKB 061055Z AUTO 00000KT 7SM CLR 15/14 A2996 260 96 400 000/00 RMK AO2 T01500144 PNO
53988KBKB BKB20190506050011005/06/19 05:00:31  5-MIN KBKB 061100Z AUTO 00000KT 8SM CLR 15/14 A2996 260 96 400 000/00 RMK AO2 T01500144 PNO
53988KBKB BKB20190506050511005/06/19 05:05:31  5-MIN KBKB 061105Z AUTO 00000KT 7SM CLR 15/14 A2996 260 96 400 000/00 RMK AO2 T01500144 PNO
53988KBKB BKB20190506051011005/06/19 05:10:31  5-MIN KBKB 061110Z AUTO 00000KT 7SM CLR 15/14 A2997 250 96 400 000/00 RMK AO2 T01500144 PNO
53988KBKB BKB20190506051511005/06/19 05:15:31  5-MIN KBKB 061115Z AUTO 00000KT 7SM CLR 15/14 A2997 250 96 400 000/00 RMK AO2 T01500144 PNO
53988KBKB BKB20190506052011005/06/19 05:20:31  5-MIN KBKB 061120Z AUTO 00000KT 7SM CLR 15/14 A2997 250 96 300 000/00 RMK AO2 T01500144 PNO
53988KBKB BKB20190506052511005/06/19 05:25:31  5-MIN KBKB 061125Z AUTO 00000KT 8SM CLR 15/14 A2997 250 96 400 000/00 RMK AO2 T01500144 PNO
53988KBKB BKB20190506053011005/06/19 05:30:31  5-MIN KBKB 061130Z AUTO 00000KT 7SM CLR 15/14 A2997 250 96 300 000/00 RMK AO2 T01500144 PNO
53988KBKB BKB20190506053511305/06/19 05:35:31  5-MIN KBKB 061135Z AUTO 00000KT 6SM BR CLR 15/14 A2998 250 96 300 000/00 RMK AO2 T01500144 PNO
53988KBKB BKB20190506054011305/06/19 05:40:31  5-MIN KBKB 061140Z AUTO 00000KT 6SM BR CLR 15/14 A2998 240 96 300 000/00 RMK AO2 T01500144 PNO
53988KBKB BKB20190506054511305/06/19 05:45:31  5-MIN KBKB 061145Z AUTO 00000KT 6SM BR CLR 15/14 A2998 240 96 300 000/00 RMK AO2 T01500144 PNO
53988KBKB BKB20190506055015005/06/19 05:50:31  5-MIN KBKB 061150Z AUTO 00000KT 5SM BR CLR 15/14 A2999 240 96 300 000/00 RMK AO2 SLP181 6//// 7//// T01500144 10167 20150 58002 PNO
53988KBKB BKB20190506055511305/06/19 05:55:31  5-MIN KBKB 061155Z AUTO 00000KT 6SM BR CLR 15/14 A2999 240 96 300 000/00 RMK AO2 T01500144 PNO
53988KBKB BKB20190506060011305/06/19 06:00:31  5-MIN KBKB 061200Z AUTO 00000KT 6SM BR CLR 15/14 A2999 240 96 300 000/00 RMK AO2 T01500144 PNO
53988KBKB BKB20190506060511005/06/19 06:05:31  5-MIN KBKB 061205Z AUTO 00000KT 7SM CLR 15/14 A2999 240 96 300 000/00 RMK AO2 T01500144 PNO
53988KBKB BKB20190506061011105/06/19 06:10:31  5-MIN KBKB 061210Z AUTO 00000KT 8SM CLR 15/15 A2999 240 100 300 000/00 RMK AO2 T01500150 PNO
53988KBKB BKB20190506061511005/06/19 06:15:31  5-MIN KBKB 061215Z AUTO 00000KT 9SM CLR 16/15 A2999 230 96 400 000/00 RMK AO2 T01560150 PNO
53988KBKB BKB20190506062011105/06/19 06:20:31  5-MIN KBKB 061220Z AUTO 00000KT 10SM CLR 16/16 A2999 230 96 500 000/00 RMK AO2 T01610156 PNO
53988KBKB BKB20190506062511205/06/19 06:25:31  5-MIN KBKB 061225Z AUTO 00000KT 10SM CLR 16/16 A2999 230 100 500 000/00 RMK AO2 T01610161 PNO
53988KBKB BKB20190506063011205/06/19 06:30:31  5-MIN KBKB 061230Z AUTO 00000KT 10SM CLR 17/17 A2999 230 100 500 000/00 RMK AO2 T01670167 PNO
53988KBKB BKB20190506063511105/06/19 06:35:31  5-MIN KBKB 061235Z AUTO 00000KT 10SM CLR 17/17 A3000 230 96 600 000/00 RMK AO2 T01720167 PNO
53988KBKB BKB20190506064011105/06/19 06:40:31  5-MIN KBKB 061240Z AUTO 00000KT 10SM CLR 18/16 A3000 220 87 700 000/00 RMK AO2 T01830161 PNO
53988KBKB BKB20190506064511105/06/19 06:45:31  5-MIN KBKB 061245Z AUTO 00000KT 10SM CLR 19/16 A3000 230 84 800 000/00 RMK AO2 T01890161 PNO
53988KBKB BKB20190506065011805/06/19 06:50:31  5-MIN KBKB 061250Z AUTO 00000KT 10SM CLR 19/16 A3000 230 84 800 000/00 RMK AO2 SLP185 T01890161 PNO
53988KBKB BKB20190506065511105/06/19 06:55:31  5-MIN KBKB 061255Z AUTO 00000KT 10SM CLR 19/16 A3000 220 81 800 000/00 RMK AO2 T01940161 PNO
53988KBKB BKB20190506070011105/06/19 07:00:31  5-MIN KBKB 061300Z AUTO 00000KT 10SM CLR 19/17 A3000 220 84 800 000/00 RMK AO2 T01940167 PNO
53988KBKB BKB20190506070511105/06/19 07:05:31  5-MIN KBKB 061305Z AUTO 00000KT 10SM CLR 19/17 A3000 220 84 800 000/00 RMK AO2 T01940167 PNO
53988KBKB BKB20190506071011105/06/19 07:10:31  5-MIN KBKB 061310Z AUTO 10003KT 10SM CLR 20/17 A3000 230 81 900 100/03 RMK AO2 T02000167 PNO
53988KBKB BKB20190506071511105/06/19 07:15:31  5-MIN KBKB 061315Z AUTO 00000KT 10SM CLR 20/17 A2999 230 81 900 000/00 RMK AO2 T02000167 PNO
53988KBKB BKB20190506072011105/06/19 07:20:31  5-MIN KBKB 061320Z AUTO VRB03KT 10SM CLR 20/17 A2999 230 81 900 VRB/03 RMK AO2 T02000167 PNO
53988KBKB BKB20190506072511105/06/19 07:25:31  5-MIN KBKB 061325Z AUTO 00000KT 10SM CLR 20/16 A2998 240 78 900 000/00 RMK AO2 T02000161 PNO
53988KBKB BKB20190506073011205/06/19 07:30:31  5-MIN KBKB 061330Z AUTO 00000KT 10SM CLR 21/17 A2998 240 78 1000 000/00 RMK AO2 T02060167 PNO
53988KBKB BKB20190506073511205/06/19 07:35:31  5-MIN KBKB 061335Z AUTO VRB03KT 10SM CLR 21/16 A2998 240 75 1000 VRB/03 RMK AO2 T02060161 PNO
53988KBKB BKB20190506074011205/06/19 07:40:31  5-MIN KBKB 061340Z AUTO VRB04KT 10SM CLR 21/17 A2998 240 75 1000 VRB/04 RMK AO2 T02110167 PNO
53988KBKB BKB20190506074511205/06/19 07:45:31  5-MIN KBKB 061345Z AUTO 00000KT 10SM CLR 21/16 A2999 240 73 1000 000/00 RMK AO2 T02110161 PNO
53988KBKB BKB20190506075011905/06/19 07:50:31  5-MIN KBKB 061350Z AUTO 00000KT 10SM CLR 22/17 A2999 230 73 1100 000/00 RMK AO2 SLP181 T02170167 PNO
53988KBKB BKB20190506075511205/06/19 07:55:31  5-MIN KBKB 061355Z AUTO 00000KT 10SM CLR 22/17 A2999 230 73 1100 000/00 RMK AO2 T02170167 PNO
53988KBKB BKB20190506080011205/06/19 08:00:31  5-MIN KBKB 061400Z AUTO 00000KT 10SM CLR 22/17 A2999 230 73 1200 000/00 RMK AO2 T02220172 PNO
53988KBKB BKB20190506080511205/06/19 08:05:31  5-MIN KBKB 061405Z AUTO 00000KT 10SM CLR 22/17 A2999 230 73 1200 000/00 RMK AO2 T02220172 PNO
53988KBKB BKB20190506081011205/06/19 08:10:31  5-MIN KBKB 061410Z AUTO 00000KT 10SM CLR 23/17 A2999 230 68 1200 000/00 RMK AO2 T02280167 PNO
53988KBKB BKB20190506081511205/06/19 08:15:31  5-MIN KBKB 061415Z AUTO 00000KT 10SM CLR 23/17 A2999 240 68 1300 000/00 RMK AO2 T02330172 PNO
53988KBKB BKB20190506082011205/06/19 08:20:31  5-MIN KBKB 061420Z AUTO VRB03KT 10SM CLR 23/17 A2998 240 66 1300 VRB/03 RMK AO2 T02330167 PNO
53988KBKB BKB20190506082511205/06/19 08:25:31  5-MIN KBKB 061425Z AUTO VRB04KT 10SM CLR 23/17 A2998 240 66 1300 VRB/04 RMK AO2 T02330167 PNO
53988KBKB BKB20190506083011205/06/19 08:30:31  5-MIN KBKB 061430Z AUTO VRB03KT 10SM CLR 24/17 A2998 240 63 1400 VRB/03 RMK AO2 T02390167 PNO
53988KBKB BKB20190506083511205/06/19 08:35:31  5-MIN KBKB 061435Z AUTO VRB04KT 10SM CLR 24/17 A2998 240 66 1400 VRB/04 RMK AO2 T02390172 PNO
53988KBKB BKB20190506084011205/06/19 08:40:31  5-MIN KBKB 061440Z AUTO 13003KT 10SM CLR 24/17 A2998 240 63 1400 120/03 RMK AO2 T02440172 PNO
53988KBKB BKB20190506084511205/06/19 08:45:31  5-MIN KBKB 061445Z AUTO 00000KT 10SM CLR 25/17 A2998 240 61 1500 000/00 RMK AO2 T02500172 PNO
53988KBKB BKB20190506085013105/06/19 08:50:31  5-MIN KBKB 061450Z AUTO 00000KT 10SM CLR 25/18 A2998 240 64 1500 000/00 RMK AO2 SLP178 6//// T02500178 53026 PNO
53988KBKB BKB20190506085511205/06/19 08:55:31  5-MIN KBKB 061455Z AUTO VRB04KT 10SM CLR 24/17 A2998 240 63 1400 VRB/04 RMK AO2 T02440172 PNO
53988KBKB BKB20190506090011205/06/19 09:00:31  5-MIN KBKB 061500Z AUTO VRB03KT 10SM CLR 25/17 A2998 240 61 1500 VRB/03 RMK AO2 T02500172 PNO
53988KBKB BKB20190506090511205/06/19 09:05:31  5-MIN KBKB 061505Z AUTO VRB04KT 10SM CLR 25/17 A2998 240 61 1500 VRB/04 RMK AO2 T02500172 PNO
53988KBKB BKB20190506091011205/06/19 09:10:31  5-MIN KBKB 061510Z AUTO VRB03KT 10SM CLR 25/17 A2998 240 61 1500 VRB/03 RMK AO2 T02500172 PNO
53988KBKB BKB20190506091511205/06/19 09:15:31  5-MIN KBKB 061515Z AUTO 00000KT 10SM CLR 26/17 A2998 240 59 1600 000/00 RMK AO2 T02560172 PNO
53988KBKB BKB20190506092011205/06/19 09:20:31  5-MIN KBKB 061520Z AUTO VRB05KT 10SM CLR 26/17 A2998 240 59 1600 VRB/05 RMK AO2 T02560172 PNO
53988KBKB BKB20190506092511205/06/19 09:25:31  5-MIN KBKB 061525Z AUTO VRB05KT 10SM CLR 26/17 A2998 240 59 1600 VRB/05 RMK AO2 T02560172 PNO
53988KBKB BKB20190506093011205/06/19 09:30:31  5-MIN KBKB 061530Z AUTO VRB06KT 10SM CLR 26/17 A2998 240 59 1600 VRB/06 RMK AO2 T02560172 PNO
53988KBKB BKB20190506093511205/06/19 09:35:31  5-MIN KBKB 061535Z AUTO VRB03KT 10SM CLR 26/17 A2998 240 57 1600 VRB/03 RMK AO2 T02610172 PNO
53988KBKB BKB20190506094010205/06/19 09:40:31  5-MIN KBKB 061540Z AUTO 10SM CLR 26/18 A2998 240 59 1600 M /M RMK AO2 T02610178 PNO
53988KBKB BKB20190506094511205/06/19 09:45:31  5-MIN KBKB 061545Z AUTO VRB03KT 10SM CLR 27/18 A2998 240 57 1700 VRB/03 RMK AO2 T02670178 PNO
53988KBKB BKB20190506095011905/06/19 09:50:31  5-MIN KBKB 061550Z AUTO 00000KT 10SM CLR 27/18 A2998 240 57 1700 000/00 RMK AO2 SLP180 T02670178 PNO
53988KBKB BKB20190506095511205/06/19 09:55:31  5-MIN KBKB 061555Z AUTO 12005KT 10SM CLR 27/18 A2999 240 60 1700 110/05 RMK AO2 T02670183 PNO
53988KBKB BKB20190506100011205/06/19 10:00:31  5-MIN KBKB 061600Z AUTO 16003KT 10SM CLR 26/17 A2998 240 57 1600 160/03 RMK AO2 T02610172 PNO
53988KBKB BKB20190506100511205/06/19 10:05:31  5-MIN KBKB 061605Z AUTO 00000KT 10SM CLR 27/18 A2998 240 57 1700 000/00 RMK AO2 T02670178 PNO
53988KBKB BKB20190506101011205/06/19 10:10:31  5-MIN KBKB 061610Z AUTO VRB03KT 10SM CLR 27/18 A2998 240 56 1700 VRB/03 RMK AO2 T02720178 PNO
53988KBKB BKB20190506101511205/06/19 10:15:31  5-MIN KBKB 061615Z AUTO VRB04KT 10SM CLR 27/17 A2998 240 54 1700 VRB/04 RMK AO2 T02720172 PNO
53988KBKB BKB20190506102011205/06/19 10:20:31  5-MIN KBKB 061620Z AUTO VRB05KT 10SM CLR 27/18 A2998 250 57 1700 VRB/05 RMK AO2 T02670178 PNO
53988KBKB BKB20190506102511205/06/19 10:25:31  5-MIN KBKB 061625Z AUTO VRB05KT 10SM CLR 27/18 A2998 250 56 1800 VRB/05 RMK AO2 T02720178 PNO
53988KBKB BKB20190506103011205/06/19 10:30:31  5-MIN KBKB 061630Z AUTO VRB05KT 10SM CLR 27/18 A2997 250 56 1800 VRB/05 RMK AO2 T02720178 PNO
53988KBKB BKB20190506103511205/06/19 10:35:31  5-MIN KBKB 061635Z AUTO VRB04KT 10SM CLR 27/18 A2998 250 56 1800 VRB/04 RMK AO2 T02720178 PNO
53988KBKB BKB20190506104011205/06/19 10:40:31  5-MIN KBKB 061640Z AUTO 00000KT 10SM CLR 27/18 A2998 250 56 1800 000/00 RMK AO2 T02720178 PNO
53988KBKB BKB20190506104511205/06/19 10:45:31  5-MIN KBKB 061645Z AUTO VRB03KT 10SM CLR 28/18 A2998 250 54 1800 VRB/03 RMK AO2 T02780178 PNO
53988KBKB BKB20190506105011905/06/19 10:50:31  5-MIN KBKB 061650Z AUTO 00000KT 10SM CLR 28/18 A2998 240 52 1900 000/00 RMK AO2 SLP177 T02830178 PNO
53988KBKB BKB20190506105511205/06/19 10:55:31  5-MIN KBKB 061655Z AUTO VRB05KT 10SM CLR 28/18 A2998 240 54 1800 VRB/05 RMK AO2 T02780178 PNO
53988KBKB BKB20190506110011205/06/19 11:00:31  5-MIN KBKB 061700Z AUTO VRB03KT 10SM CLR 28/18 A2998 240 54 1800 VRB/03 RMK AO2 T02780178 PNO
53988KBKB BKB20190506110511205/06/19 11:05:31  5-MIN KBKB 061705Z AUTO VRB03KT 10SM CLR 28/18 A2998 240 54 1800 VRB/03 RMK AO2 T02780178 PNO
53988KBKB BKB20190506111011205/06/19 11:10:31  5-MIN KBKB 061710Z AUTO 00000KT 10SM CLR 28/17 A2998 240 52 1800 000/00 RMK AO2 T02780172 PNO
53988KBKB BKB20190506111511205/06/19 11:15:31  5-MIN KBKB 061715Z AUTO 00000KT 10SM CLR 28/18 A2998 240 52 1900 000/00 RMK AO2 T02830178 PNO
53988KBKB BKB20190506112011205/06/19 11:20:31  5-MIN KBKB 061720Z AUTO 00000KT 10SM CLR 29/18 A2998 240 52 1900 000/00 RMK AO2 T02890183 PNO
53988KBKB BKB20190506112511205/06/19 11:25:31  5-MIN KBKB 061725Z AUTO 00000KT 10SM CLR 28/18 A2998 240 54 1800 000/00 RMK AO2 T02780178 PNO
53988KBKB BKB20190506113011205/06/19 11:30:31  5-MIN KBKB 061730Z AUTO VRB03KT 10SM CLR 28/17 A2998 240 52 1800 VRB/03 RMK AO2 T02780172 PNO
53988KBKB BKB20190506113511205/06/19 11:35:31  5-MIN KBKB 061735Z AUTO VRB03KT 10SM CLR 29/17 A2998 240 48 1900 VRB/03 RMK AO2 T02890172 PNO
53988KBKB BKB20190506114011205/06/19 11:40:31  5-MIN KBKB 061740Z AUTO VRB05KT 10SM CLR 28/17 A2998 240 50 1900 VRB/05 RMK AO2 T02830172 PNO
53988KBKB BKB20190506114511205/06/19 11:45:31  5-MIN KBKB 061745Z AUTO 00000KT 10SM CLR 29/17 A2998 250 48 1900 000/00 RMK AO2 T02890172 PNO
53988KBKB BKB20190506115014305/06/19 11:50:31  5-MIN KBKB 061750Z AUTO VRB04KT 10SM CLR 29/18 A2998 250 50 1900 VRB/04 RMK AO2 SLP177 6//// T02890178 10289 20150 58002 PNO
53988KBKB BKB20190506115511205/06/19 11:55:31  5-MIN KBKB 061755Z AUTO VRB04KT 10SM CLR 29/18 A2998 250 50 1900 VRB/04 RMK AO2 T02890178 PNO
53988KBKB BKB20190506120011205/06/19 12:00:31  5-MIN KBKB 061800Z AUTO VRB04KT 10SM CLR 29/18 A2998 250 50 1900 VRB/04 RMK AO2 T02890178 PNO
53988KBKB BKB20190506120511205/06/19 12:05:31  5-MIN KBKB 061805Z AUTO 09003KT 10SM CLR 29/17 A2998 250 48 1900 090/03 RMK AO2 T02890172 PNO
53988KBKB BKB20190506121011205/06/19 12:10:31  5-MIN KBKB 061810Z AUTO VRB04KT 10SM CLR 29/18 A2998 250 49 2000 VRB/04 RMK AO2 T02940178 PNO
53988KBKB BKB20190506121511205/06/19 12:15:31  5-MIN KBKB 061815Z AUTO 00000KT 10SM CLR 29/17 A2997 250 47 2000 000/00 RMK AO2 T02940172 PNO
53988KBKB BKB20190506122011205/06/19 12:20:31  5-MIN KBKB 061820Z AUTO 00000KT 10SM CLR 29/17 A2997 250 47 2000 000/00 RMK AO2 T02940172 PNO
53988KBKB BKB20190506122511205/06/19 12:25:31  5-MIN KBKB 061825Z AUTO VRB03KT 10SM CLR 30/18 A2997 250 47 2100 VRB/03 RMK AO2 T03000178 PNO
53988KBKB BKB20190506123011205/06/19 12:30:31  5-MIN KBKB 061830Z AUTO VRB04KT 10SM CLR 29/17 A2997 250 47 2000 VRB/04 RMK AO2 T02940172 PNO
53988KBKB BKB20190506123511205/06/19 12:35:31  5-MIN KBKB 061835Z AUTO 12004KT 10SM CLR 29/18 A2997 250 49 2000 120/04 RMK AO2 T02940178 PNO
53988KBKB BKB20190506124007005/06/19 12:40:31  5-MIN KBKB 061840Z AUTO M M M M /M RMK AO2 FZRANO $
53988KBKB BKB20190506125007905/06/19 12:50:31  5-MIN KBKB 061850Z AUTO 00000KT M M M 000/00 RMK AO2 SLPNO $
53988KBKB BKB20190506125510105/06/19 12:55:31  5-MIN KBKB 061855Z AUTO VRB03KT 30/18 A2996 260 47 2100 VRB/03 RMK AO2 T03000178 $
53988KBKB BKB20190506130010605/06/19 13:00:31  5-MIN KBKB 061900Z AUTO VRB03KT 10SM 30/18 A2996 260 47 2100 VRB/03 RMK AO2 T03000178 $
53988KBKB BKB20190506130510605/06/19 13:05:31  5-MIN KBKB 061905Z AUTO VRB04KT 10SM 30/17 A2996 260 45 2100 VRB/04 RMK AO2 T03000172 $
53988KBKB BKB20190506131010605/06/19 13:10:31  5-MIN KBKB 061910Z AUTO VRB03KT 10SM 30/17 A2997 260 45 2100 VRB/03 RMK AO2 T03000172 $
53988KBKB BKB20190506131510605/06/19 13:15:31  5-MIN KBKB 061915Z AUTO 00000KT 10SM 30/17 A2996 260 45 2100 000/00 RMK AO2 T03000172 $
53988KBKB BKB20190506132011005/06/19 13:20:31  5-MIN KBKB 061920Z AUTO 00000KT 10SM CLR 31/18 A2996 260 46 2100 000/00 RMK AO2 T03060178 $
53988KBKB BKB20190506132510305/06/19 13:25:31  5-MIN KBKB 061925Z AUTO 10SM FEW049 30/18 A2996 260 47 2100 M /M RMK AO2 T03000178 $
53988KBKB BKB20190506133011005/06/19 13:30:31  5-MIN KBKB 061930Z AUTO 00000KT 10SM CLR 30/18 A2996 260 47 2100 000/00 RMK AO2 T03000178 $
53988KBKB BKB20190506133511005/06/19 13:35:31  5-MIN KBKB 061935Z AUTO VRB03KT 10SM CLR 30/18 A2996 260 47 2100 VRB/03 RMK AO2 T03000178 $
53988KBKB BKB20190506134011005/06/19 13:40:31  5-MIN KBKB 061940Z AUTO VRB04KT 10SM CLR 30/18 A2996 260 47 2100 VRB/04 RMK AO2 T03000178 $
53988KBKB BKB20190506134511305/06/19 13:45:31  5-MIN KBKB 061945Z AUTO VRB05KT 10SM FEW050 30/18 A2996 260 47 2100 VRB/05 RMK AO2 T03000178 $
53988KBKB BKB20190506135011705/06/19 13:50:31  5-MIN KBKB 061950Z AUTO VRB05KT 10SM CLR 30/18 A2996 270 47 2100 VRB/05 RMK AO2 SLP170 T03000178 $
53988KBKB BKB20190506135511005/06/19 13:55:31  5-MIN KBKB 061955Z AUTO VRB04KT 10SM CLR 31/18 A2995 270 46 2100 VRB/04 RMK AO2 T03060178 $
53988KBKB BKB20190506140011005/06/19 14:00:31  5-MIN KBKB 062000Z AUTO VRB04KT 10SM CLR 30/17 A2996 270 45 2100 VRB/04 RMK AO2 T03000172 $
53988KBKB BKB20190506140511005/06/19 14:05:31  5-MIN KBKB 062005Z AUTO VRB04KT 10SM CLR 30/17 A2995 270 45 2100 VRB/04 RMK AO2 T03000172 $
53988KBKB BKB20190506141011005/06/19 14:10:31  5-MIN KBKB 062010Z AUTO VRB04KT 10SM CLR 31/18 A2995 270 46 2100 VRB/04 RMK AO2 T03060178 $
53988KBKB BKB20190506141511005/06/19 14:15:31  5-MIN KBKB 062015Z AUTO VRB05KT 10SM CLR 31/18 A2996 260 46 2100 VRB/05 RMK AO2 T03060178 $
53988KBKB BKB20190506142011005/06/19 14:20:31  5-MIN KBKB 062020Z AUTO VRB04KT 10SM CLR 30/17 A2996 270 45 2100 VRB/04 RMK AO2 T03000172 $
53988KBKB BKB20190506142511005/06/19 14:25:31  5-MIN KBKB 062025Z AUTO VRB06KT 10SM CLR 31/18 A2995 270 46 2100 VRB/06 RMK AO2 T03060178 $
53988KBKB BKB20190506143011005/06/19 14:30:31  5-MIN KBKB 062030Z AUTO VRB03KT 10SM CLR 30/18 A2995 270 47 2100 VRB/03 RMK AO2 T03000178 $
53988KBKB BKB20190506143511005/06/19 14:35:31  5-MIN KBKB 062035Z AUTO VRB03KT 10SM CLR 30/18 A2995 270 47 2100 VRB/03 RMK AO2 T03000178 $
53988KBKB BKB20190506144011305/06/19 14:40:31  5-MIN KBKB 062040Z AUTO 00000KT 10SM FEW050 31/18 A2995 270 46 2200 000/00 RMK AO2 T03060178 $
53988KBKB BKB20190506144510305/06/19 14:45:31  5-MIN KBKB 062045Z AUTO 10SM FEW050 31/18 A2995 270 46 2200 M /M RMK AO2 T03060178 $
53988KBKB BKB20190506145012605/06/19 14:50:31  5-MIN KBKB 062050Z AUTO VRB03KT 10SM FEW050 31/18 A2995 270 46 2200 VRB/03 RMK AO2 SLP167 6//// T03060178 $
53988KBKB BKB20190506145511305/06/19 14:55:31  5-MIN KBKB 062055Z AUTO VRB03KT 10SM FEW050 30/18 A2995 280 47 2100 VRB/03 RMK AO2 T03000178 $
53988KBKB BKB20190506150011305/06/19 15:00:31  5-MIN KBKB 062100Z AUTO VRB05KT 10SM FEW050 31/18 A2994 280 46 2200 VRB/05 RMK AO2 T03060178 $
53988KBKB BKB20190506150511305/06/19 15:05:31  5-MIN KBKB 062105Z AUTO VRB03KT 10SM FEW050 30/17 A2994 280 45 2100 VRB/03 RMK AO2 T03000172 $
53988KBKB BKB20190506151011305/06/19 15:10:31  5-MIN KBKB 062110Z AUTO 20003KT 10SM FEW050 30/18 A2994 280 47 2100 190/03 RMK AO2 T03000178 $
53988KBKB BKB20190506151511005/06/19 15:15:31  5-MIN KBKB 062115Z AUTO VRB04KT 10SM CLR 30/18 A2994 280 47 2100 VRB/04 RMK AO2 T03000178 $
53988KBKB BKB20190506152011005/06/19 15:20:31  5-MIN KBKB 062120Z AUTO 21005KT 10SM CLR 30/18 A2995 270 49 2100 210/05 RMK AO2 T03000183 $
53988KBKB BKB20190506152511005/06/19 15:25:31  5-MIN KBKB 062125Z AUTO VRB03KT 10SM CLR 30/18 A2995 270 49 2100 VRB/03 RMK AO2 T03000183 $
53988KBKB BKB20190506153011005/06/19 15:30:31  5-MIN KBKB 062130Z AUTO 00000KT 10SM CLR 30/18 A2995 270 47 2100 000/00 RMK AO2 T03000178 $
53988KBKB BKB20190506153511005/06/19 15:35:31  5-MIN KBKB 062135Z AUTO 00000KT 10SM CLR 31/18 A2995 270 46 2200 000/00 RMK AO2 T03060178 $
53988KBKB BKB20190506154011005/06/19 15:40:31  5-MIN KBKB 062140Z AUTO 00000KT 10SM CLR 30/18 A2995 270 49 2100 000/00 RMK AO2 T03000183 $
53988KBKB BKB20190506154511005/06/19 15:45:31  5-MIN KBKB 062145Z AUTO VRB05KT 10SM CLR 29/18 A2995 270 49 2000 VRB/05 RMK AO2 T02940178 $
53988KBKB BKB20190506155011705/06/19 15:50:31  5-MIN KBKB 062150Z AUTO VRB04KT 10SM CLR 29/18 A2995 270 52 2000 VRB/04 RMK AO2 SLP168 T02890183 $
53988KBKB BKB20190506155511005/06/19 15:55:31  5-MIN KBKB 062155Z AUTO 00000KT 10SM CLR 29/18 A2995 270 49 2000 000/00 RMK AO2 T02940178 $
53988KBKB BKB20190506160011005/06/19 16:00:31  5-MIN KBKB 062200Z AUTO VRB03KT 10SM CLR 30/18 A2995 270 49 2100 VRB/03 RMK AO2 T03000183 $
53988KBKB BKB20190506160511005/06/19 16:05:31  5-MIN KBKB 062205Z AUTO VRB03KT 10SM CLR 30/18 A2995 270 49 2100 VRB/03 RMK AO2 T03000183 $
53988KBKB BKB20190506161011005/06/19 16:10:31  5-MIN KBKB 062210Z AUTO VRB03KT 10SM CLR 30/18 A2995 270 49 2100 VRB/03 RMK AO2 T03000183 $
53988KBKB BKB20190506161511005/06/19 16:15:31  5-MIN KBKB 062215Z AUTO VRB04KT 10SM CLR 29/18 A2995 270 50 2000 VRB/04 RMK AO2 T02940183 $
53988KBKB BKB20190506162011005/06/19 16:20:31  5-MIN KBKB 062220Z AUTO 00000KT 10SM CLR 28/19 A2995 270 56 1900 000/00 RMK AO2 T02830189 $
53988KBKB BKB20190506162511005/06/19 16:25:31  5-MIN KBKB 062225Z AUTO 00000KT 10SM CLR 28/19 A2995 270 56 1900 000/00 RMK AO2 T02830189 $
53988KBKB BKB20190506163011005/06/19 16:30:31  5-MIN KBKB 062230Z AUTO VRB03KT 10SM CLR 29/19 A2995 270 52 2000 VRB/03 RMK AO2 T02940189 $
53988KBKB BKB20190506163511005/06/19 16:35:31  5-MIN KBKB 062235Z AUTO 00000KT 10SM CLR 29/19 A2995 270 54 2000 000/00 RMK AO2 T02890189 $
53988KBKB BKB20190506164011005/06/19 16:40:31  5-MIN KBKB 062240Z AUTO VRB03KT 10SM CLR 29/19 A2995 270 54 2000 VRB/03 RMK AO2 T02940194 $
53988KBKB BKB20190506164511005/06/19 16:45:31  5-MIN KBKB 062245Z AUTO VRB03KT 10SM CLR 29/19 A2996 260 54 2000 VRB/03 RMK AO2 T02890189 $
53988KBKB BKB20190506165011705/06/19 16:50:31  5-MIN KBKB 062250Z AUTO 00000KT 10SM CLR 28/18 A2996 260 54 1900 000/00 RMK AO2 SLP171 T02830183 $
53988KBKB BKB20190506165511005/06/19 16:55:31  5-MIN KBKB 062255Z AUTO VRB04KT 10SM CLR 28/19 A2996 260 56 1900 VRB/04 RMK AO2 T02830189 $
53988KBKB BKB20190506170011005/06/19 17:00:31  5-MIN KBKB 062300Z AUTO 00000KT 10SM CLR 28/19 A2996 260 58 1900 000/00 RMK AO2 T02830194 $
53988KBKB BKB20190506170511005/06/19 17:05:31  5-MIN KBKB 062305Z AUTO VRB03KT 10SM CLR 28/19 A2996 260 58 1900 VRB/03 RMK AO2 T02830194 $
53988KBKB BKB20190506171011005/06/19 17:10:31  5-MIN KBKB 062310Z AUTO VRB03KT 10SM CLR 28/19 A2995 270 56 1900 VRB/03 RMK AO2 T02830189 $
53988KBKB BKB20190506171511005/06/19 17:15:31  5-MIN KBKB 062315Z AUTO VRB03KT 10SM CLR 28/19 A2995 270 58 1800 VRB/03 RMK AO2 T02780189 $
53988KBKB BKB20190506172011005/06/19 17:20:31  5-MIN KBKB 062320Z AUTO VRB03KT 10SM CLR 28/19 A2996 260 58 1800 VRB/03 RMK AO2 T02780189 $
53988KBKB BKB20190506172511005/06/19 17:25:31  5-MIN KBKB 062325Z AUTO VRB03KT 10SM CLR 28/19 A2996 270 58 1800 VRB/03 RMK AO2 T02780189 $
53988KBKB BKB20190506173011005/06/19 17:30:31  5-MIN KBKB 062330Z AUTO 00000KT 10SM CLR 27/19 A2995 270 60 1800 000/00 RMK AO2 T02720189 $
53988KBKB BKB20190506173511005/06/19 17:35:31  5-MIN KBKB 062335Z AUTO 00000KT 10SM CLR 27/19 A2995 270 60 1800 000/00 RMK AO2 T02720189 $
53988KBKB BKB20190506174011005/06/19 17:40:31  5-MIN KBKB 062340Z AUTO 00000KT 10SM CLR 27/19 A2995 270 60 1800 000/00 RMK AO2 T02720189 $
53988KBKB BKB20190506174511005/06/19 17:45:31  5-MIN KBKB 062345Z AUTO 00000KT 10SM CLR 27/19 A2995 270 60 1800 000/00 RMK AO2 T02720189 $
53988KBKB BKB20190506175013505/06/19 17:50:31  5-MIN KBKB 062350Z AUTO 00000KT 10SM CLR 27/19 A2995 270 62 1700 000/00 RMK AO2 SLP169 6//// T02670189 10311 20267 $
53988KBKB BKB20190506175510005/06/19 17:55:31  5-MIN KBKB 062355Z AUTO 10SM CLR 27/19 A2995 270 62 1700 M /M RMK AO2 T02670189 $
53988KBKB BKB20190506180011005/06/19 18:00:31  5-MIN KBKB 070000Z AUTO 00000KT 10SM CLR 27/19 A2995 270 62 1700 000/00 RMK AO2 T02670189 $
53988KBKB BKB20190506180511005/06/19 18:05:31  5-MIN KBKB 070005Z AUTO 00000KT 10SM CLR 26/19 A2996 270 64 1700 000/00 RMK AO2 T02610189 $
53988KBKB BKB20190506181011005/06/19 18:10:31  5-MIN KBKB 070010Z AUTO 00000KT 10SM CLR 26/19 A2996 260 64 1600 000/00 RMK AO2 T02610189 $
53988KBKB BKB20190506181511005/06/19 18:15:31  5-MIN KBKB 070015Z AUTO 00000KT 10SM CLR 26/19 A2996 260 68 1600 000/00 RMK AO2 T02560194 $
53988KBKB BKB20190506182011005/06/19 18:20:31  5-MIN KBKB 070020Z AUTO 00000KT 10SM CLR 26/19 A2996 260 68 1600 000/00 RMK AO2 T02560194 $
53988KBKB BKB20190506182511005/06/19 18:25:31  5-MIN KBKB 070025Z AUTO 00000KT 10SM CLR 25/20 A2996 260 73 1500 000/00 RMK AO2 T02500200 $
53988KBKB BKB20190506183011005/06/19 18:30:31  5-MIN KBKB 070030Z AUTO 00000KT 10SM CLR 25/20 A2996 260 73 1500 000/00 RMK AO2 T02500200 $
53988KBKB BKB20190506183511005/06/19 18:35:31  5-MIN KBKB 070035Z AUTO 00000KT 10SM CLR 25/19 A2996 260 71 1500 000/00 RMK AO2 T02500194 $
53988KBKB BKB20190506184011005/06/19 18:40:31  5-MIN KBKB 070040Z AUTO 00000KT 10SM CLR 24/19 A2997 260 73 1400 000/00 RMK AO2 T02440194 $
53988KBKB BKB20190506184511005/06/19 18:45:31  5-MIN KBKB 070045Z AUTO 00000KT 10SM CLR 24/19 A2997 260 73 1400 000/00 RMK AO2 T02440194 $
53988KBKB BKB20190506185011705/06/19 18:50:31  5-MIN KBKB 070050Z AUTO 00000KT 10SM CLR 24/19 A2997 260 76 1400 000/00 RMK AO2 SLP174 T02390194 $
53988KBKB BKB20190506185511005/06/19 18:55:31  5-MIN KBKB 070055Z AUTO 00000KT 10SM CLR 24/19 A2997 250 73 1400 000/00 RMK AO2 T02390189 $
53988KBKB BKB20190506190011005/06/19 19:00:31  5-MIN KBKB 070100Z AUTO 00000KT 10SM CLR 24/19 A2997 250 73 1400 000/00 RMK AO2 T02390189 $
53988KBKB BKB20190506190511005/06/19 19:05:31  5-MIN KBKB 070105Z AUTO 00000KT 10SM CLR 24/19 A2997 250 76 1400 000/00 RMK AO2 T02390194 $
53988KBKB BKB20190506191011005/06/19 19:10:31  5-MIN KBKB 070110Z AUTO 00000KT 10SM CLR 23/19 A2997 250 76 1300 000/00 RMK AO2 T02330189 $
53988KBKB BKB20190506191511005/06/19 19:15:31  5-MIN KBKB 070115Z AUTO 00000KT 10SM CLR 23/19 A2997 250 78 1300 000/00 RMK AO2 T02280189 $
53988KBKB BKB20190506192011005/06/19 19:20:31  5-MIN KBKB 070120Z AUTO 00000KT 10SM CLR 23/19 A2997 250 78 1300 000/00 RMK AO2 T02280189 $
53988KBKB BKB20190506192511005/06/19 19:25:31  5-MIN KBKB 070125Z AUTO 00000KT 10SM CLR 23/19 A2997 250 78 1300 000/00 RMK AO2 T02280189 $
53988KBKB BKB20190506193011005/06/19 19:30:31  5-MIN KBKB 070130Z AUTO 00000KT 10SM CLR 23/19 A2997 250 78 1300 000/00 RMK AO2 T02280189 $
53988KBKB BKB20190506193511005/06/19 19:35:31  5-MIN KBKB 070135Z AUTO 00000KT 10SM CLR 23/19 A2997 250 78 1300 000/00 RMK AO2 T02280189 $
53988KBKB BKB20190506194011005/06/19 19:40:31  5-MIN KBKB 070140Z AUTO 00000KT 10SM CLR 23/19 A2997 250 78 1300 000/00 RMK AO2 T02280189 $
53988KBKB BKB20190506194511005/06/19 19:45:31  5-MIN KBKB 070145Z AUTO 00000KT 10SM CLR 23/19 A2997 250 78 1300 000/00 RMK AO2 T02280189 $
53988KBKB BKB20190506195011705/06/19 19:50:31  5-MIN KBKB 070150Z AUTO 00000KT 10SM CLR 22/19 A2997 250 81 1200 000/00 RMK AO2 SLP176 T02220189 $
53988KBKB BKB20190506195511005/06/19 19:55:31  5-MIN KBKB 070155Z AUTO 00000KT 10SM CLR 22/19 A2997 250 81 1200 000/00 RMK AO2 T02220189 $
53988KBKB BKB20190506200011005/06/19 20:00:31  5-MIN KBKB 070200Z AUTO 00000KT 10SM CLR 22/19 A2997 250 81 1200 000/00 RMK AO2 T02220189 $
53988KBKB BKB20190506200511005/06/19 20:05:31  5-MIN KBKB 070205Z AUTO 00000KT 10SM CLR 22/19 A2997 250 84 1100 000/00 RMK AO2 T02170189 $
53988KBKB BKB20190506201011005/06/19 20:10:31  5-MIN KBKB 070210Z AUTO 00000KT 10SM CLR 22/19 A2997 250 84 1100 000/00 RMK AO2 T02170189 $
53988KBKB BKB20190506201511005/06/19 20:15:31  5-MIN KBKB 070215Z AUTO 00000KT 10SM CLR 22/19 A2997 250 84 1100 000/00 RMK AO2 T02170189 $
53988KBKB BKB20190506202011005/06/19 20:20:31  5-MIN KBKB 070220Z AUTO 00000KT 10SM CLR 22/19 A2997 250 84 1100 000/00 RMK AO2 T02170189 $
53988KBKB BKB20190506202511005/06/19 20:25:31  5-MIN KBKB 070225Z AUTO 00000KT 10SM CLR 22/19 A2997 250 84 1100 000/00 RMK AO2 T02170189 $
53988KBKB BKB20190506203011005/06/19 20:30:31  5-MIN KBKB 070230Z AUTO 00000KT 10SM CLR 22/19 A2997 250 84 1100 000/00 RMK AO2 T02170189 $
53988KBKB BKB20190506203511005/06/19 20:35:31  5-MIN KBKB 070235Z AUTO 00000KT 10SM CLR 22/19 A2998 250 84 1100 000/00 RMK AO2 T02170189 $
53988KBKB BKB20190506204011005/06/19 20:40:31  5-MIN KBKB 070240Z AUTO 00000KT 10SM CLR 21/19 A2998 250 87 1100 000/00 RMK AO2 T02110189 $
53988KBKB BKB20190506204511005/06/19 20:45:31  5-MIN KBKB 070245Z AUTO 00000KT 10SM CLR 21/19 A2997 250 87 1100 000/00 RMK AO2 T02110189 $
53988KBKB BKB20190506205012305/06/19 20:50:31  5-MIN KBKB 070250Z AUTO 00000KT 10SM CLR 21/19 A2998 250 87 1100 000/00 RMK AO2 SLP176 T02110189 50003 $
53988KBKB BKB20190506205511005/06/19 20:55:31  5-MIN KBKB 070255Z AUTO 00000KT 10SM CLR 21/19 A2998 250 87 1100 000/00 RMK AO2 T02110189 $
53988KBKB BKB20190506210011005/06/19 21:00:31  5-MIN KBKB 070300Z AUTO 00000KT 10SM CLR 21/19 A2998 240 87 1100 000/00 RMK AO2 T02110189 $
53988KBKB BKB20190506210511005/06/19 21:05:31  5-MIN KBKB 070305Z AUTO 00000KT 10SM CLR 21/19 A2998 240 93 1000 000/00 RMK AO2 T02060194 $
53988KBKB BKB20190506211011005/06/19 21:10:31  5-MIN KBKB 070310Z AUTO 00000KT 10SM CLR 21/19 A2998 250 90 1000 000/00 RMK AO2 T02060189 $
53988KBKB BKB20190506211511005/06/19 21:15:31  5-MIN KBKB 070315Z AUTO 00000KT 10SM CLR 21/19 A2998 250 90 1000 000/00 RMK AO2 T02060189 $
53988KBKB BKB20190506212011005/06/19 21:20:31  5-MIN KBKB 070320Z AUTO 00000KT 10SM CLR 21/19 A2998 250 90 1000 000/00 RMK AO2 T02060189 $
53988KBKB BKB20190506212511005/06/19 21:25:31  5-MIN KBKB 070325Z AUTO 00000KT 10SM CLR 21/19 A2998 250 90 1000 000/00 RMK AO2 T02060189 $
53988KBKB BKB20190506213011005/06/19 21:30:31  5-MIN KBKB 070330Z AUTO 00000KT 10SM CLR 21/19 A2998 250 90 1000 000/00 RMK AO2 T02060189 $
53988KBKB BKB20190506213511005/06/19 21:35:31  5-MIN KBKB 070335Z AUTO 00000KT 10SM CLR 21/19 A2998 250 90 1000 000/00 RMK AO2 T02060189 $
53988KBKB BKB20190506214011005/06/19 21:40:31  5-MIN KBKB 070340Z AUTO 00000KT 10SM CLR 21/19 A2997 250 93 1000 000/00 RMK AO2 T02060194 $
53988KBKB BKB20190506214511005/06/19 21:45:31  5-MIN KBKB 070345Z AUTO 00000KT 10SM CLR 21/19 A2998 250 90 1000 000/00 RMK AO2 T02060189 $
53988KBKB BKB20190506215011705/06/19 21:50:31  5-MIN KBKB 070350Z AUTO 00000KT 10SM CLR 21/19 A2998 250 90 1000 000/00 RMK AO2 SLP177 T02060189 $
53988KBKB BKB20190506215511005/06/19 21:55:31  5-MIN KBKB 070355Z AUTO 00000KT 10SM CLR 21/19 A2998 250 90 1000 000/00 RMK AO2 T02060189 $
53988KBKB BKB20190506220011005/06/19 22:00:31  5-MIN KBKB 070400Z AUTO 00000KT 10SM CLR 21/19 A2998 250 90 1000 000/00 RMK AO2 T02060189 $
53988KBKB BKB20190506220511005/06/19 22:05:31  5-MIN KBKB 070405Z AUTO 00000KT 10SM CLR 21/19 A2998 250 90 1000 000/00 RMK AO2 T02060189 $
53988KBKB BKB20190506221011005/06/19 22:10:31  5-MIN KBKB 070410Z AUTO 00000KT 10SM CLR 21/19 A2998 240 90 1000 000/00 RMK AO2 T02060189 $
53988KBKB BKB20190506221511005/06/19 22:15:31  5-MIN KBKB 070415Z AUTO 00000KT 10SM CLR 21/19 A2998 240 90 1000 000/00 RMK AO2 T02060189 $
53988KBKB BKB20190506222011005/06/19 22:20:31  5-MIN KBKB 070420Z AUTO 00000KT 10SM CLR 21/19 A2998 250 90 1000 000/00 RMK AO2 T02060189 $
53988KBKB BKB20190506222511005/06/19 22:25:31  5-MIN KBKB 070425Z AUTO 00000KT 10SM CLR 21/19 A2997 250 90 1000 000/00 RMK AO2 T02060189 $
53988KBKB BKB20190506223011005/06/19 22:30:31  5-MIN KBKB 070430Z AUTO 00000KT 10SM CLR 21/19 A2997 250 90 1000 000/00 RMK AO2 T02060189 $
53988KBKB BKB20190506223511005/06/19 22:35:31  5-MIN KBKB 070435Z AUTO 00000KT 10SM CLR 21/19 A2997 250 90 1000 000/00 RMK AO2 T02060189 $
53988KBKB BKB20190506224011005/06/19 22:40:31  5-MIN KBKB 070440Z AUTO 00000KT 10SM CLR 21/19 A2997 250 90 1000 000/00 RMK AO2 T02060189 $
53988KBKB BKB20190506224511005/06/19 22:45:31  5-MIN KBKB 070445Z AUTO 00000KT 10SM CLR 21/19 A2997 250 93 1000 000/00 RMK AO2 T02060194 $
53988KBKB BKB20190506225011705/06/19 22:50:31  5-MIN KBKB 070450Z AUTO 00000KT 10SM CLR 21/19 A2997 250 93 1000 000/00 RMK AO2 SLP175 T02060194 $
53988KBKB BKB20190506225511005/06/19 22:55:31  5-MIN KBKB 070455Z AUTO 00000KT 10SM CLR 21/19 A2997 250 93 1000 000/00 RMK AO2 T02060194 $
53988KBKB BKB20190506230011005/06/19 23:00:31  5-MIN KBKB 070500Z AUTO 00000KT 10SM CLR 21/19 A2996 260 87 1100 000/00 RMK AO2 T02110189 $
53988KBKB BKB20190506230511005/06/19 23:05:31  5-MIN KBKB 070505Z AUTO 00000KT 10SM CLR 21/19 A2996 260 90 1100 000/00 RMK AO2 T02110194 $
53988KBKB BKB20190506231011005/06/19 23:10:31  5-MIN KBKB 070510Z AUTO 00000KT 10SM CLR 21/19 A2997 260 90 1100 000/00 RMK AO2 T02110194 $
53988KBKB BKB20190506231511005/06/19 23:15:31  5-MIN KBKB 070515Z AUTO 00000KT 10SM CLR 21/19 A2997 260 90 1100 000/00 RMK AO2 T02110194 $
53988KBKB BKB20190506232011005/06/19 23:20:31  5-MIN KBKB 070520Z AUTO 00000KT 10SM CLR 22/19 A2997 250 87 1100 000/00 RMK AO2 T02170194 $
53988KBKB BKB20190506232511005/06/19 23:25:31  5-MIN KBKB 070525Z AUTO VRB03KT 10SM CLR 22/19 A2997 250 87 1100 VRB/03 RMK AO2 T02170194 $
53988KBKB BKB20190506233011005/06/19 23:30:31  5-MIN KBKB 070530Z AUTO 00000KT 10SM CLR 22/19 A2997 250 84 1200 000/00 RMK AO2 T02220194 $
53988KBKB BKB20190506233511005/06/19 23:35:31  5-MIN KBKB 070535Z AUTO 00000KT 10SM CLR 22/19 A2997 250 87 1100 000/00 RMK AO2 T02170194 $
53988KBKB BKB20190506234011005/06/19 23:40:31  5-MIN KBKB 070540Z AUTO 00000KT 10SM CLR 22/19 A2997 250 87 1100 000/00 RMK AO2 T02170194 $
53988KBKB BKB20190506234511005/06/19 23:45:31  5-MIN KBKB 070545Z AUTO 00000KT 10SM CLR 22/20 A2997 250 90 1100 000/00 RMK AO2 T02170200 $
53988KBKB BKB20190506235014505/06/19 23:50:31  5-MIN KBKB 070550Z AUTO VRB03KT 10SM CLR 22/20 A2997 260 90 1100 VRB/03 RMK AO2 SLP173 T02170200 10267 20206 403110150 51008 $
53988KBKB BKB20190506235511005/06/19 23:55:31  5-MIN KBKB 070555Z AUTO VRB03KT 10SM CLR 22/20 A2997 260 90 1100 VRB/03 RMK AO2 T02170200 $
53988KBKB BKB20190507000011005/07/19 00:00:31  5-MIN KBKB 070600Z AUTO 00000KT 10SM CLR 22/20 A2997 250 90 1100 000/00 RMK AO2 T02170200 $
53988KBKB BKB20190507000511005/07/19 00:05:31  5-MIN KBKB 070605Z AUTO 00000KT 10SM CLR 22/20 A2997 250 90 1100 000/00 RMK AO2 T02170200 $
53988KBKB BKB20190507001011005/07/19 00:10:31  5-MIN KBKB 070610Z AUTO 00000KT 10SM CLR 22/20 A2997 250 90 1100 000/00 RMK AO2 T02170200 $
53988KBKB BKB20190507001511005/07/19 00:15:31  5-MIN KBKB 070615Z AUTO 00000KT 10SM CLR 22/20 A2997 250 90 1100 000/00 RMK AO2 T02170200 $
53988KBKB BKB20190507002011005/07/19 00:20:31  5-MIN KBKB 070620Z AUTO 00000KT 10SM CLR 22/20 A2997 260 90 1100 000/00 RMK AO2 T02170200 $
53988KBKB BKB20190507002511005/07/19 00:25:31  5-MIN KBKB 070625Z AUTO 00000KT 10SM CLR 22/20 A2996 260 90 1100 000/00 RMK AO2 T02170200 $
53988KBKB BKB20190507003011005/07/19 00:30:31  5-MIN KBKB 070630Z AUTO 18003KT 10SM CLR 22/20 A2997 260 90 1100 180/03 RMK AO2 T02170200 $
53988KBKB BKB20190507003511005/07/19 00:35:31  5-MIN KBKB 070635Z AUTO 00000KT 10SM CLR 22/21 A2997 260 93 1100 000/00 RMK AO2 T02170206 $
53988KBKB BKB20190507004011005/07/19 00:40:31  5-MIN KBKB 070640Z AUTO VRB03KT 10SM CLR 22/21 A2997 250 93 1100 VRB/03 RMK AO2 T02170206 $
53988KBKB BKB20190507004511005/07/19 00:45:31  5-MIN KBKB 070645Z AUTO 00000KT 10SM CLR 22/20 A2997 260 90 1100 000/00 RMK AO2 T02170200 $
53988KBKB BKB20190507005011605/07/19 00:50:31  5-MIN KBKB 070650Z AUTO VRB03KT 10SM CLR 22/20 A2996 260 90 1100 VRB/03 RMK AO2 SLPNO T02170200 $
53988KBKB BKB20190507005511005/07/19 00:55:31  5-MIN KBKB 070655Z AUTO VRB03KT 10SM CLR 22/20 A2996 260 90 1100 VRB/03 RMK AO2 T02170200 $
53988KBKB BKB20190507010011005/07/19 01:00:31  5-MIN KBKB 070700Z AUTO VRB03KT 10SM CLR 22/20 A2996 260 90 1100 VRB/03 RMK AO2 T02170200 $
53988KBKB BKB20190507010511005/07/19 01:05:31  5-MIN KBKB 070705Z AUTO 00000KT 10SM CLR 22/20 A2996 260 90 1100 000/00 RMK AO2 T02170200 $
53988KBKB BKB20190507011011005/07/19 01:10:31  5-MIN KBKB 070710Z AUTO 00000KT 10SM CLR 22/20 A2996 260 90 1100 000/00 RMK AO2 T02170200 $
53988KBKB BKB20190507011511005/07/19 01:15:31  5-MIN KBKB 070715Z AUTO 00000KT 10SM CLR 22/20 A2996 260 90 1100 000/00 RMK AO2 T02170200 $
53988KBKB BKB20190507012011005/07/19 01:20:31  5-MIN KBKB 070720Z AUTO 00000KT 10SM CLR 22/20 A2996 270 90 1100 000/00 RMK AO2 T02170200 $
53988KBKB BKB20190507012511005/07/19 01:25:31  5-MIN KBKB 070725Z AUTO 00000KT 10SM CLR 21/20 A2995 270 93 1100 000/00 RMK AO2 T02110200 $
53988KBKB BKB20190507013011005/07/19 01:30:31  5-MIN KBKB 070730Z AUTO 00000KT 10SM CLR 21/20 A2994 280 93 1100 000/00 RMK AO2 T02110200 $
53988KBKB BKB20190507013511005/07/19 01:35:31  5-MIN KBKB 070735Z AUTO 00000KT 10SM CLR 21/20 A2994 280 93 1100 000/00 RMK AO2 T02110200 $
53988KBKB BKB20190507014011005/07/19 01:40:31  5-MIN KBKB 070740Z AUTO VRB03KT 10SM CLR 21/20 A2995 270 93 1100 VRB/03 RMK AO2 T02110200 $
53988KBKB BKB20190507014511005/07/19 01:45:31  5-MIN KBKB 070745Z AUTO 00000KT 10SM CLR 21/20 A2994 280 93 1100 000/00 RMK AO2 T02110200 $
53988KBKB BKB20190507015011705/07/19 01:50:31  5-MIN KBKB 070750Z AUTO VRB03KT 10SM CLR 21/20 A2995 270 93 1100 VRB/03 RMK AO2 SLP166 T02110200 $
53988KBKB BKB20190507015511005/07/19 01:55:31  5-MIN KBKB 070755Z AUTO VRB03KT 10SM CLR 21/20 A2995 270 93 1100 VRB/03 RMK AO2 T02110200 $
53988KBKB BKB20190507020011005/07/19 02:00:31  5-MIN KBKB 070800Z AUTO VRB03KT 10SM CLR 21/20 A2994 280 93 1100 VRB/03 RMK AO2 T02110200 $
53988KBKB BKB20190507020511005/07/19 02:05:31  5-MIN KBKB 070805Z AUTO VRB03KT 10SM CLR 21/20 A2995 280 93 1100 VRB/03 RMK AO2 T02110200 $
53988KBKB BKB20190507021011005/07/19 02:10:31  5-MIN KBKB 070810Z AUTO VRB03KT 10SM CLR 22/20 A2995 270 90 1200 VRB/03 RMK AO2 T02170200 $
53988KBKB BKB20190507021511005/07/19 02:15:31  5-MIN KBKB 070815Z AUTO 19004KT 10SM CLR 22/20 A2995 270 90 1200 180/04 RMK AO2 T02170200 $
53988KBKB BKB20190507022011005/07/19 02:20:31  5-MIN KBKB 070820Z AUTO VRB03KT 10SM CLR 21/20 A2995 280 93 1100 VRB/03 RMK AO2 T02110200 $
53988KBKB BKB20190507022511005/07/19 02:25:31  5-MIN KBKB 070825Z AUTO 00000KT 10SM CLR 22/20 A2995 280 90 1200 000/00 RMK AO2 T02170200 $
53988KBKB BKB20190507023011005/07/19 02:30:31  5-MIN KBKB 070830Z AUTO VRB03KT 10SM CLR 22/20 A2995 280 90 1200 VRB/03 RMK AO2 T02170200 $
53988KBKB BKB20190507023511005/07/19 02:35:31  5-MIN KBKB 070835Z AUTO VRB03KT 10SM CLR 22/20 A2995 270 90 1200 VRB/03 RMK AO2 T02170200 $
53988KBKB BKB20190507024011005/07/19 02:40:31  5-MIN KBKB 070840Z AUTO VRB04KT 10SM CLR 22/20 A2994 280 90 1200 VRB/04 RMK AO2 T02170200 $
53988KBKB BKB20190507024511005/07/19 02:45:31  5-MIN KBKB 070845Z AUTO VRB03KT 10SM CLR 22/20 A2995 270 90 1200 VRB/03 RMK AO2 T02170200 $
53988KBKB BKB20190507025012305/07/19 02:50:31  5-MIN KBKB 070850Z AUTO 00000KT 10SM CLR 22/20 A2994 280 90 1200 000/00 RMK AO2 SLP164 T02170200 58004 $
53988KBKB BKB20190507025511005/07/19 02:55:31  5-MIN KBKB 070855Z AUTO VRB03KT 10SM CLR 22/20 A2994 280 90 1200 VRB/03 RMK AO2 T02170200 $
53988KBKB BKB20190507030011005/07/19 03:00:31  5-MIN KBKB 070900Z AUTO 00000KT 10SM CLR 22/20 A2994 280 90 1200 000/00 RMK AO2 T02170200 $
53988KBKB BKB20190507030511005/07/19 03:05:31  5-MIN KBKB 070905Z AUTO VRB03KT 10SM CLR 22/20 A2994 280 90 1200 VRB/03 RMK AO2 T02170200 $
53988KBKB BKB20190507031011005/07/19 03:10:31  5-MIN KBKB 070910Z AUTO VRB03KT 10SM CLR 22/20 A2994 280 90 1200 VRB/03 RMK AO2 T02170200 $
53988KBKB BKB20190507031511005/07/19 03:15:31  5-MIN KBKB 070915Z AUTO VRB03KT 10SM CLR 22/20 A2995 270 90 1200 VRB/03 RMK AO2 T02170200 $
53988KBKB BKB20190507032011005/07/19 03:20:31  5-MIN KBKB 070920Z AUTO VRB03KT 10SM CLR 22/20 A2994 280 90 1200 VRB/03 RMK AO2 T02170200 $
53988KBKB BKB20190507032511005/07/19 03:25:31  5-MIN KBKB 070925Z AUTO 00000KT 10SM CLR 21/20 A2995 270 93 1100 000/00 RMK AO2 T02110200 $
53988KBKB BKB20190507033011705/07/19 03:30:31  5-MIN KBKB 070930Z AUTO 00000KT 10SM CLR 21/20 A2996 260 93 1100 000/00 RMK AO2 PRESRR T02110200 $
53988KBKB BKB20190507033511705/07/19 03:35:31  5-MIN KBKB 070935Z AUTO 00000KT 10SM CLR 21/20 A2997 250 93 1100 000/00 RMK AO2 PRESRR T02110200 $
53988KBKB BKB20190507034011305/07/19 03:40:31  5-MIN KBKB 070940Z AUTO 00000KT 10SM FEW095 21/20 A2997 250 93 1100 000/00 RMK AO2 T02110200 $
53988KBKB BKB20190507034511305/07/19 03:45:31  5-MIN KBKB 070945Z AUTO 00000KT 10SM SCT100 21/20 A2997 250 93 1100 000/00 RMK AO2 T02110200 $
53988KBKB BKB20190507035012705/07/19 03:50:31  5-MIN KBKB 070950Z AUTO 00000KT 10SM BKN100 BKN120 21/20 A2998 250 93 1100 000/00 RMK AO2 SLP176 T02110200 $
53988KBKB BKB20190507035512005/07/19 03:55:31  5-MIN KBKB 070955Z AUTO 00000KT 10SM FEW095 BKN110 21/20 A2999 240 93 1000 000/00 RMK AO2 T02110200 $
53988KBKB BKB20190507040012005/07/19 04:00:31  5-MIN KBKB 071000Z AUTO 00000KT 10SM FEW095 BKN110 21/20 A2999 240 93 1000 000/00 RMK AO2 T02110200 $
53988KBKB BKB20190507040512005/07/19 04:05:31  5-MIN KBKB 071005Z AUTO 00000KT 10SM FEW100 BKN110 21/20 A2999 230 93 1000 000/00 RMK AO2 T02110200 $
53988KBKB BKB20190507041011305/07/19 04:10:31  5-MIN KBKB 071010Z AUTO 00000KT 10SM BKN110 21/20 A3000 230 93 1000 000/00 RMK AO2 T02110200 $
53988KBKB BKB20190507041511305/07/19 04:15:31  5-MIN KBKB 071015Z AUTO 00000KT 10SM SCT110 21/20 A3000 230 93 1000 000/00 RMK AO2 T02110200 $
53988KBKB BKB20190507042011305/07/19 04:20:31  5-MIN KBKB 071020Z AUTO 00000KT 10SM SCT110 21/20 A3000 220 97 1000 000/00 RMK AO2 T02060200 $
53988KBKB BKB20190507042511305/07/19 04:25:31  5-MIN KBKB 071025Z AUTO 00000KT 10SM SCT120 21/20 A3000 220 97 1000 000/00 RMK AO2 T02060200 $
53988KBKB BKB20190507043011305/07/19 04:30:31  5-MIN KBKB 071030Z AUTO 00000KT 10SM SCT110 21/20 A3000 220 97 1000 000/00 RMK AO2 T02060200 $
53988KBKB BKB20190507043511305/07/19 04:35:31  5-MIN KBKB 071035Z AUTO 00000KT 10SM SCT110 21/20 A3000 220 97 1000 000/00 RMK AO2 T02060200 $
53988KBKB BKB20190507044011305/07/19 04:40:31  5-MIN KBKB 071040Z AUTO 00000KT 10SM FEW110 21/20 A3000 220 97 1000 000/00 RMK AO2 T02060200 $
53988KBKB BKB20190507044511305/07/19 04:45:31  5-MIN KBKB 071045Z AUTO 00000KT 10SM FEW110 21/20 A3001 220 97 1000 000/00 RMK AO2 T02060200 $
53988KBKB BKB20190507045012005/07/19 04:50:31  5-MIN KBKB 071050Z AUTO 00000KT 10SM FEW110 21/20 A3001 220 97 1000 000/00 RMK AO2 SLP187 T02060200 $
53988KBKB BKB20190507045511305/07/19 04:55:31  5-MIN KBKB 071055Z AUTO 00000KT 10SM FEW100 21/20 A3001 220 97 1000 000/00 RMK AO2 T02060200 $
53988KBKB BKB20190507050011005/07/19 05:00:31  5-MIN KBKB 071100Z AUTO 00000KT 10SM CLR 21/20 A3001 220 97 1000 000/00 RMK AO2 T02060200 $
53988KBKB BKB20190507050511005/07/19 05:05:31  5-MIN KBKB 071105Z AUTO 00000KT 10SM CLR 21/20 A3000 220 97 1000 000/00 RMK AO2 T02060200 $
53988KBKB BKB20190507051011005/07/19 05:10:31  5-MIN KBKB 071110Z AUTO 00000KT 10SM CLR 20/20 A3001 220 100 900 000/00 RMK AO2 T02000200 $
53988KBKB BKB20190507051511005/07/19 05:15:31  5-MIN KBKB 071115Z AUTO 00000KT 10SM CLR 20/20 A3001 220 100 900 000/00 RMK AO2 T02000200 $
53988KBKB BKB20190507052010805/07/19 05:20:31  5-MIN KBKB 071120Z AUTO 00000KT 10SM CLR 20/20 A3001 220 100 900 000/00 RMK AO2 T02000200
53988KBKB BKB20190507052510805/07/19 05:25:31  5-MIN KBKB 071125Z AUTO 00000KT 10SM CLR 20/20 A3001 220 100 900 000/00 RMK AO2 T02000200
53988KBKB BKB20190507053010605/07/19 05:30:31  5-MIN KBKB 071130Z AUTO 00000KT 9SM CLR 20/19 A3001 220 97 900 000/00 RMK AO2 T02000194
53988KBKB BKB20190507053510605/07/19 05:35:31  5-MIN KBKB 071135Z AUTO 00000KT 9SM CLR 20/19 A3000 220 97 900 000/00 RMK AO2 T02000194
53988KBKB BKB20190507054010605/07/19 05:40:31  5-MIN KBKB 071140Z AUTO 00000KT 8SM CLR 20/19 A3000 220 97 900 000/00 RMK AO2 T02000194
53988KBKB BKB20190507054510605/07/19 05:45:31  5-MIN KBKB 071145Z AUTO 00000KT 7SM CLR 20/19 A3001 220 97 900 000/00 RMK AO2 T02000194
53988KBKB BKB20190507055013705/07/19 05:50:31  5-MIN KBKB 071150Z AUTO 00000KT 7SM CLR 20/19 A3001 220 97 900 000/00 RMK AO2 SLP188 7//// T02000194 10217 20200 58008
53988KBKB BKB20190507055510705/07/19 05:55:31  5-MIN KBKB 071155Z AUTO 00000KT 7SM CLR 19/19 A3001 210 100 800 000/00 RMK AO2 T01940194
53988KBKB BKB20190508025014805/08/19 02:50:31  5-MIN KBKB 080850Z AUTO VRB05KT 10SM OVC006 23/22 A2978 420 97 1500 VRB/05 RMK AO2 CIG 005V010 SLP111 6//// T02280222 53001 PNO $
53988KBKB BKB20190508025512905/08/19 02:55:31  5-MIN KBKB 080855Z AUTO VRB04KT 10SM OVC006 23/22 A2979 420 97 1500 VRB/04 RMK AO2 CIG 005V011 T02280222 PNO $
53988KBKB BKB20190508030012905/08/19 03:00:31  5-MIN KBKB 080900Z AUTO VRB04KT 10SM OVC007 23/22 A2979 420 97 1500 VRB/04 RMK AO2 CIG 005V011 T02280222 PNO $
53988KBKB BKB20190508030512905/08/19 03:05:31  5-MIN KBKB 080905Z AUTO VRB04KT 10SM OVC007 23/22 A2980 410 97 1400 VRB/04 RMK AO2 CIG 005V011 T02280222 PNO $
53988KBKB BKB20190508031013605/08/19 03:10:31  5-MIN KBKB 080910Z AUTO VRB03KT 10SM OVC007 23/22 A2981 400 97 1400 VRB/03 RMK AO2 CIG 006V011 PRESRR T02280222 PNO $
53988KBKB BKB20190508031512905/08/19 03:15:31  5-MIN KBKB 080915Z AUTO VRB03KT 10SM OVC009 23/22 A2981 400 93 1400 VRB/03 RMK AO2 CIG 006V011 T02280217 PNO $
53988KBKB BKB20190508032012905/08/19 03:20:31  5-MIN KBKB 080920Z AUTO VRB04KT 10SM OVC009 23/22 A2982 390 93 1400 VRB/04 RMK AO2 CIG 006V013 T02280217 PNO $
53988KBKB BKB20190508032512905/08/19 03:25:31  5-MIN KBKB 080925Z AUTO 00000KT 10SM OVC009 23/22 A2982 390 93 1400 000/00 RMK AO2 CIG 007V013 T02280217 PNO $
53988KBKB BKB20190508033012905/08/19 03:30:31  5-MIN KBKB 080930Z AUTO 00000KT 10SM OVC009 23/22 A2982 390 93 1400 000/00 RMK AO2 CIG 007V011 T02280217 PNO $
53988KBKB BKB20190508033512405/08/19 03:35:31  5-MIN KBKB 080935Z AUTO 00000KT 10SM BKN009 OVC013 23/22 A2983 380 93 1400 000/00 RMK AO2 T02280217 PNO $
53988KBKB BKB20190508034011705/08/19 03:40:31  5-MIN KBKB 080940Z AUTO 00000KT 10SM OVC011 23/22 A2983 380 90 1500 000/00 RMK AO2 T02330217 PNO $
53988KBKB BKB20190508034513605/08/19 03:45:31  5-MIN KBKB 080945Z AUTO 00000KT 10SM OVC011 23/22 A2984 370 93 1400 000/00 RMK AO2 CIG 008V013 PRESRR T02280217 PNO $
53988KBKB BKB20190508035010705/08/19 03:50:31  5-MIN KBKB 080950Z AUTO VRB03KT 10SM OVC011 23/22 A2984 370 93 1400 VRB/03 RMK AO2 PNO $
53988KBKB BKB20190508035511705/08/19 03:55:31  5-MIN KBKB 080955Z AUTO VRB03KT 10SM OVC011 23/22 A2984 370 97 1400 VRB/03 RMK AO2 T02280222 PNO $
53988KBKB BKB20190508040011705/08/19 04:00:31  5-MIN KBKB 081000Z AUTO 00000KT 10SM OVC012 23/22 A2984 370 97 1400 000/00 RMK AO2 T02280222 PNO $
53988KBKB BKB20190508040511705/08/19 04:05:31  5-MIN KBKB 081005Z AUTO 00000KT 10SM OVC012 23/22 A2984 370 93 1400 000/00 RMK AO2 T02280217 PNO $
53988KBKB BKB20190508041011705/08/19 04:10:31  5-MIN KBKB 081010Z AUTO 10003KT 10SM OVC013 23/22 A2984 380 93 1400 100/03 RMK AO2 T02280217 PNO $
53988KBKB BKB20190508041512405/08/19 04:15:31  5-MIN KBKB 081015Z AUTO 00000KT 10SM BKN013 OVC019 23/22 A2984 370 93 1400 000/00 RMK AO2 T02280217 PNO $
53988KBKB BKB20190508042011705/08/19 04:20:31  5-MIN KBKB 081020Z AUTO 00000KT 10SM OVC013 23/22 A2985 370 93 1400 000/00 RMK AO2 T02280217 PNO $
53988KBKB BKB20190508042511705/08/19 04:25:31  5-MIN KBKB 081025Z AUTO 00000KT 10SM OVC013 23/22 A2985 360 93 1400 000/00 RMK AO2 T02280217 PNO $
53988KBKB BKB20190508043011705/08/19 04:30:31  5-MIN KBKB 081030Z AUTO 00000KT 10SM OVC013 23/22 A2985 360 93 1400 000/00 RMK AO2 T02280217 PNO $
53988KBKB BKB20190508043511705/08/19 04:35:31  5-MIN KBKB 081035Z AUTO 00000KT 10SM OVC013 23/22 A2985 370 93 1400 000/00 RMK AO2 T02280217 PNO $
53988KBKB BKB20190508044011705/08/19 04:40:31  5-MIN KBKB 081040Z AUTO 00000KT 10SM OVC013 23/22 A2985 370 97 1400 000/00 RMK AO2 T02280222 PNO $
53988KBKB BKB20190508044511705/08/19 04:45:31  5-MIN KBKB 081045Z AUTO 00000KT 10SM OVC013 23/22 A2985 370 97 1400 000/00 RMK AO2 T02280222 PNO $
53988KBKB BKB20190508045010705/08/19 04:50:31  5-MIN KBKB 081050Z AUTO 00000KT 10SM OVC015 23/22 A2984 370 97 1400 000/00 RMK AO2 PNO $
53988KBKB BKB20190508045512405/08/19 04:55:31  5-MIN KBKB 081055Z AUTO 00000KT 10SM BKN015 OVC019 23/22 A2984 370 93 1400 000/00 RMK AO2 T02280217 PNO $
53988KBKB BKB20190508050012405/08/19 05:00:31  5-MIN KBKB 081100Z AUTO 00000KT 10SM BKN014 OVC022 23/22 A2984 370 97 1400 000/00 RMK AO2 T02280222 PNO $
53988KBKB BKB20190508050512305/08/19 05:05:31  5-MIN KBKB 081105Z AUTO 00000KT 9SM BKN016 OVC024 23/22 A2983 380 97 1400 000/00 RMK AO2 T02280222 PNO $
53988KBKB BKB20190508051012305/08/19 05:10:31  5-MIN KBKB 081110Z AUTO 00000KT 8SM SCT014 OVC021 23/22 A2983 380 97 1400 000/00 RMK AO2 T02280222 PNO $
53988KBKB BKB20190508051512305/08/19 05:15:31  5-MIN KBKB 081115Z AUTO 00000KT 8SM SCT016 OVC023 23/22 A2984 370 97 1400 000/00 RMK AO2 T02280222 PNO $
53988KBKB BKB20190508052012105/08/19 05:20:31  5-MIN KBKB 081120Z AUTO 00000KT 8SM BKN016 OVC023 23/22 A2984 380 97 1400 000/00 RMK AO2 T02280222 PNO
53988KBKB BKB20190508052512105/08/19 05:25:31  5-MIN KBKB 081125Z AUTO 00000KT 8SM BKN018 OVC023 23/22 A2983 380 97 1400 000/00 RMK AO2 T02280222 PNO
53988KBKB BKB20190508053012105/08/19 05:30:31  5-MIN KBKB 081130Z AUTO 00000KT 7SM BKN018 OVC025 23/22 A2983 380 97 1400 000/00 RMK AO2 T02280222 PNO
53988KBKB BKB20190508053512105/08/19 05:35:31  5-MIN KBKB 081135Z AUTO 00000KT 7SM BKN016 OVC021 23/22 A2984 380 93 1400 000/00 RMK AO2 T02280217 PNO
53988KBKB BKB20190508054012105/08/19 05:40:31  5-MIN KBKB 081140Z AUTO 00000KT 8SM BKN016 OVC021 23/22 A2984 380 93 1400 000/00 RMK AO2 T02280217 PNO
53988KBKB BKB20190508054512105/08/19 05:45:31  5-MIN KBKB 081145Z AUTO VRB03KT 8SM BKN016 OVC021 23/22 A2983 380 93 1400 VRB/03 RMK AO2 T02280217 PNO
53988KBKB BKB20190508055011105/08/19 05:50:31  5-MIN KBKB 081150Z AUTO VRB03KT 8SM BKN014 OVC023 23/22 A2983 380 93 1400 VRB/03 RMK AO2 PNO
53988KBKB BKB20190508055512805/08/19 05:55:31  5-MIN KBKB 081155Z AUTO 00000KT 8SM BKN014 BKN019 OVC044 23/22 A2984 380 93 1400 000/00 RMK AO2 T02280217 PNO
53988KBKB BKB20190508060012805/08/19 06:00:31  5-MIN KBKB 081200Z AUTO 00000KT 9SM BKN014 BKN022 OVC044 23/22 A2984 380 93 1400 000/00 RMK AO2 T02280217 PNO
53988KBKB BKB20190508060512805/08/19 06:05:31  5-MIN KBKB 081205Z AUTO 00000KT 9SM SCT014 BKN020 OVC044 23/22 A2984 370 93 1400 000/00 RMK AO2 T02280217 PNO
53988KBKB BKB20190508061012805/08/19 06:10:31  5-MIN KBKB 081210Z AUTO VRB03KT 9SM SCT010 BKN014 OVC046 23/22 A2984 380 93 1400 VRB/03 RMK AO2 T02280217 PNO
53988KBKB BKB20190508061512905/08/19 06:15:31  5-MIN KBKB 081215Z AUTO VRB03KT 10SM SCT010 BKN017 OVC046 23/22 A2983 380 93 1400 VRB/03 RMK AO2 T02280217 PNO
53988KBKB BKB20190508062012905/08/19 06:20:31  5-MIN KBKB 081220Z AUTO VRB03KT 10SM FEW010 BKN017 OVC046 23/22 A2983 380 93 1400 VRB/03 RMK AO2 T02280217 PNO
53988KBKB BKB20190508062512905/08/19 06:25:31  5-MIN KBKB 081225Z AUTO VRB05KT 10SM FEW010 BKN020 OVC024 23/22 A2983 380 93 1400 VRB/05 RMK AO2 T02280217 PNO
53988KBKB BKB20190508063012905/08/19 06:30:31  5-MIN KBKB 081230Z AUTO VRB04KT 10SM FEW007 BKN014 OVC020 23/22 A2982 390 93 1400 VRB/04 RMK AO2 T02280217 PNO
53988KBKB BKB20190508063512905/08/19 06:35:31  5-MIN KBKB 081235Z AUTO VRB05KT 10SM FEW008 BKN017 OVC023 23/22 A2982 390 93 1400 VRB/05 RMK AO2 T02280217 PNO
53988KBKB BKB20190508064012905/08/19 06:40:31  5-MIN KBKB 081240Z AUTO VRB03KT 10SM FEW008 BKN014 OVC020 23/22 A2983 390 93 1400 VRB/03 RMK AO2 T02280217 PNO
53988KBKB BKB20190508064512905/08/19 06:45:31  5-MIN KBKB 081245Z AUTO 13004KT 10SM FEW008 BKN020 OVC025 23/22 A2982 390 97 1400 120/04 RMK AO2 T02280222 PNO
53988KBKB BKB20190508065013605/08/19 06:50:31  5-MIN KBKB 081250Z AUTO VRB03KT 10SM FEW007 SCT013 BKN020 23/22 A2983 390 97 1400 VRB/03 RMK AO2 SLP125 T02280222 PNO
53988KBKB BKB20190508065512905/08/19 06:55:31  5-MIN KBKB 081255Z AUTO VRB04KT 10SM SCT007 BKN013 BKN020 23/22 A2983 390 93 1500 VRB/04 RMK AO2 T02330222 PNO
53988KBKB BKB20190508070012905/08/19 07:00:31  5-MIN KBKB 081300Z AUTO VRB05KT 10SM SCT008 BKN013 OVC036 23/22 A2983 380 93 1500 VRB/05 RMK AO2 T02330222 PNO
53988KBKB BKB20190508070513105/08/19 07:05:31  5-MIN KBKB 081305Z AUTO 10SM BKN010 BKN020 BKN025 23/22 A2983 380 93 1500 M /M RMK AO2 CIG 006V015 T02330222 PNO
53988KBKB BKB20190508071013405/08/19 07:10:31  5-MIN KBKB 081310Z AUTO VRB04KT 10SM BKN010 BKN020 23/22 A2983 380 93 1500 VRB/04 RMK AO2 CIG 008V014 T02330222 PNO
53988KBKB BKB20190508071512905/08/19 07:15:31  5-MIN KBKB 081315Z AUTO VRB04KT 10SM SCT010 BKN018 OVC040 23/22 A2984 370 90 1500 VRB/04 RMK AO2 T02330217 PNO
53988KBKB BKB20190508072014405/08/19 07:20:31  5-MIN KBKB 081320Z AUTO VRB04KT 10SM -RA BKN010 OVC018 23/22 A2984 370 90 1500 VRB/04 RMK AO2 RAB16 CIG 008V013 T02330217 PNO
53988KBKB BKB20190508072513905/08/19 07:25:31  5-MIN KBKB 081325Z AUTO 00000KT 10SM -RA BKN010 BKN016 OVC065 23/22 A2984 370 93 1400 000/00 RMK AO2 RAB16 T02280217 PNO
53988KBKB BKB20190508073015105/08/19 07:30:31  5-MIN KBKB 081330Z AUTO VRB04KT 10SM -RA BKN010 BKN016 OVC065 23/22 A2984 380 93 1500 VRB/04 RMK AO2 RAB16 CIG 008V013 T02330222 PNO
53988KBKB BKB20190508073513905/08/19 07:35:31  5-MIN KBKB 081335Z AUTO VRB03KT 10SM -RA FEW010 BKN014 OVC065 23/22 A2984 380 93 1500 VRB/03 RMK AO2 RAB16 T02330222 PNO
53988KBKB BKB20190508074013805/08/19 07:40:31  5-MIN KBKB 081340Z AUTO VRB03KT 10SM SCT010 BKN016 OVC065 23/22 A2984 370 93 1500 VRB/03 RMK AO2 RAB16E39 T02330222 PNO
53988KBKB BKB20190508074513105/08/19 07:45:31  5-MIN KBKB 081345Z AUTO VRB05KT 10SM BKN011 OVC065 23/22 A2984 370 93 1500 VRB/05 RMK AO2 RAB16E39 T02330222 PNO
53988KBKB BKB20190508075013805/08/19 07:50:31  5-MIN KBKB 081350Z AUTO VRB04KT 10SM BKN011 OVC065 23/22 A2984 370 93 1400 VRB/04 RMK AO2 RAB16E39 SLP130 T02280217 PNO
53988KBKB BKB20190508075513205/08/19 07:55:31  5-MIN KBKB 081355Z AUTO VRB03KT 10SM -RA BKN010 OVC065 23/22 A2985 370 93 1400 VRB/03 RMK AO2 RAB55 T02280217 PNO
53988KBKB BKB20190508080013305/08/19 08:00:31  5-MIN KBKB 081400Z AUTO VRB05KT 9SM -RA BKN010 OVC065 23/22 A2984 370 93 1400 VRB/05 RMK AO2 RAB1355 T02280217 PNO
53988KBKB BKB20190508080514505/08/19 08:05:31  5-MIN KBKB 081405Z AUTO VRB03KT 8SM -RA BKN010 OVC065 23/22 A2984 380 93 1400 VRB/03 RMK AO2 RAB1355 CIG 006V013 T02280217 PNO
53988KBKB BKB20190508081013405/08/19 08:10:31  5-MIN KBKB 081410Z AUTO VRB03KT 10SM -RA SCT009 OVC065 22/22 A2984 370 97 1300 VRB/03 RMK AO2 RAB1355 T02220217 PNO
53988KBKB BKB20190508081513305/08/19 08:15:31  5-MIN KBKB 081415Z AUTO 14003KT 10SM SCT009 OVC065 22/22 A2984 370 97 1300 140/03 RMK AO2 RAB1355E12 T02220217 PNO
53988KBKB BKB20190508082014005/08/19 08:20:31  5-MIN KBKB 081420Z AUTO VRB04KT 10SM FEW009 BKN060 OVC070 23/22 A2984 370 93 1400 VRB/04 RMK AO2 RAB1355E12 T02280217 PNO
53988KBKB BKB20190508082513305/08/19 08:25:31  5-MIN KBKB 081425Z AUTO VRB03KT 10SM FEW009 OVC065 22/21 A2984 370 93 1300 VRB/03 RMK AO2 RAB1355E12 T02220211 PNO
53988KBKB BKB20190508083014005/08/19 08:30:31  5-MIN KBKB 081430Z AUTO 00000KT 10SM -RA FEW060 OVC070 23/21 A2984 370 90 1400 000/00 RMK AO2 RAB1355E12B26 T02280211 PNO
53988KBKB BKB20190508083514005/08/19 08:35:31  5-MIN KBKB 081435Z AUTO VRB03KT 10SM -RA FEW060 OVC070 23/22 A2984 370 93 1400 VRB/03 RMK AO2 RAB1355E12B26 T02280217 PNO
53988KBKB BKB20190508084014005/08/19 08:40:31  5-MIN KBKB 081440Z AUTO VRB03KT 10SM -RA FEW060 OVC070 23/22 A2984 380 93 1400 VRB/03 RMK AO2 RAB1355E12B26 T02280217 PNO
53988KBKB BKB20190508084513205/08/19 08:45:31  5-MIN KBKB 081445Z AUTO VRB04KT 10SM OVC070 23/21 A2984 380 90 1400 VRB/04 RMK AO2 RAB1355E12B26E41 T02280211 PNO
53988KBKB BKB20190508085015105/08/19 08:50:31  5-MIN KBKB 081450Z AUTO 16006KT 10SM OVC070 23/21 A2984 370 90 1400 160/06 RMK AO2 RAB1355E12B26E41 SLP130 6//// T02280211 55001 PNO
53988KBKB BKB20190508085512205/08/19 08:55:31  5-MIN KBKB 081455Z AUTO VRB05KT 10SM BKN075 OVC085 23/21 A2984 370 90 1400 VRB/05 RMK AO2 T02280211 PNO
53988KBKB BKB20190508090012205/08/19 09:00:31  5-MIN KBKB 081500Z AUTO VRB03KT 10SM BKN070 BKN085 23/21 A2984 380 90 1400 VRB/03 RMK AO2 T02280211 PNO
53988KBKB BKB20190508090510505/08/19 09:05:31  5-MIN KBKB 081505Z AUTO 10SM BKN080 23/21 A2984 370 90 1400 M /M RMK AO2 T02280211 PNO
53988KBKB BKB20190508091011505/08/19 09:10:31  5-MIN KBKB 081510Z AUTO 00000KT 10SM BKN080 23/21 A2984 370 87 1500 000/00 RMK AO2 T02330211 PNO
53988KBKB BKB20190508091511505/08/19 09:15:31  5-MIN KBKB 081515Z AUTO VRB03KT 10SM BKN080 23/21 A2984 370 87 1500 VRB/03 RMK AO2 T02330211 PNO
53988KBKB BKB20190508092010505/08/19 09:20:31  5-MIN KBKB 081520Z AUTO 10SM BKN080 24/21 A2984 370 84 1500 M /M RMK AO2 T02390211 PNO
53988KBKB BKB20190508092511505/08/19 09:25:31  5-MIN KBKB 081525Z AUTO VRB04KT 10SM BKN080 24/21 A2984 380 84 1500 VRB/04 RMK AO2 T02390211 PNO
53988KBKB BKB20190508093012205/08/19 09:30:31  5-MIN KBKB 081530Z AUTO VRB05KT 10SM FEW035 BKN080 24/21 A2984 370 84 1500 VRB/05 RMK AO2 T02390211 PNO
53988KBKB BKB20190508093512205/08/19 09:35:31  5-MIN KBKB 081535Z AUTO VRB04KT 10SM SCT035 BKN080 24/21 A2983 380 84 1500 VRB/04 RMK AO2 T02390211 PNO
53988KBKB BKB20190508094012205/08/19 09:40:31  5-MIN KBKB 081540Z AUTO VRB06KT 10SM FEW035 BKN080 24/21 A2983 380 81 1600 VRB/06 RMK AO2 T02440211 PNO
53988KBKB BKB20190508094512205/08/19 09:45:31  5-MIN KBKB 081545Z AUTO VRB05KT 10SM FEW035 SCT085 24/21 A2983 390 81 1600 VRB/05 RMK AO2 T02440211 PNO
53988KBKB BKB20190508095012905/08/19 09:50:31  5-MIN KBKB 081550Z AUTO VRB03KT 10SM FEW035 FEW085 26/22 A2982 390 79 1700 VRB/03 RMK AO2 SLP125 T02560217 PNO
53988KBKB BKB20190508095512205/08/19 09:55:31  5-MIN KBKB 081555Z AUTO VRB06KT 10SM FEW034 FEW085 26/21 A2983 380 76 1700 VRB/06 RMK AO2 T02560211 PNO
53988KBKB BKB20190508100010505/08/19 10:00:31  5-MIN KBKB 081600Z AUTO 10SM FEW085 26/21 A2983 380 73 1700 M /M RMK AO2 T02560206 PNO
53988KBKB BKB20190508100512105/08/19 10:05:31  5-MIN KBKB 081605Z AUTO 16004G15KT 10SM SCT085 26/21 A2983 380 76 1700 160/04G15 RMK AO2 T02560211 PNO
53988KBKB BKB20190508101013805/08/19 10:10:31  5-MIN KBKB 081610Z AUTO 17007KT 130V200 10SM FEW049 SCT085 26/21 A2983 380 76 1700 160/07 130V200 RMK AO2 T02560211 PNO
53988KBKB BKB20190508101512205/08/19 10:15:31  5-MIN KBKB 081615Z AUTO VRB03KT 10SM SCT049 BKN085 26/21 A2983 380 73 1800 VRB/03 RMK AO2 T02610211 PNO
53988KBKB BKB20190508102012205/08/19 10:20:31  5-MIN KBKB 081620Z AUTO VRB05KT 10SM SCT049 BKN085 27/21 A2983 390 71 1900 VRB/05 RMK AO2 T02670211 PNO
53988KBKB BKB20190508102512905/08/19 10:25:31  5-MIN KBKB 081625Z AUTO VRB05KT 10SM BKN047 BKN055 BKN090 27/21 A2982 390 71 1900 VRB/05 RMK AO2 T02670211 PNO
53988KBKB BKB20190508103012905/08/19 10:30:31  5-MIN KBKB 081630Z AUTO VRB04KT 10SM SCT043 BKN050 OVC085 27/21 A2983 390 71 1900 VRB/04 RMK AO2 T02670211 PNO
53988KBKB BKB20190508103512205/08/19 10:35:31  5-MIN KBKB 081635Z AUTO 17007KT 10SM BKN041 OVC050 27/21 A2982 390 71 1900 170/07 RMK AO2 T02670211 PNO
53988KBKB BKB20190508104012205/08/19 10:40:31  5-MIN KBKB 081640Z AUTO VRB05KT 10SM BKN041 OVC050 26/21 A2982 390 71 1800 VRB/05 RMK AO2 T02610206 PNO
53988KBKB BKB20190508104512205/08/19 10:45:31  5-MIN KBKB 081645Z AUTO VRB04KT 10SM BKN041 OVC050 27/21 A2982 390 71 1900 VRB/04 RMK AO2 T02670211 PNO
53988KBKB BKB20190508105011205/08/19 10:50:31  5-MIN KBKB 081650Z AUTO 10SM OVC041 27/21 A2982 390 71 1900 M /M RMK AO2 SLP123 T02670211 PNO
53988KBKB BKB20190508105513105/08/19 10:55:31  5-MIN KBKB 081655Z AUTO 14007KT 100V170 10SM BKN041 27/21 A2981 400 69 1900 130/07 100V170 RMK AO2 T02720211 PNO
53988KBKB BKB20190508110011205/08/19 11:00:31  5-MIN KBKB 081700Z AUTO 10SM FEW028 BKN041 27/21 A2981 400 69 1900 M /M RMK AO2 T02720211 PNO
53988KBKB BKB20190508110512205/08/19 11:05:31  5-MIN KBKB 081705Z AUTO VRB06KT 10SM FEW030 BKN041 27/21 A2981 400 69 1900 VRB/06 RMK AO2 T02720211 PNO
53988KBKB BKB20190508111013105/08/19 11:10:31  5-MIN KBKB 081710Z AUTO 15008KT 100V220 10SM SCT041 28/21 A2981 400 66 2000 140/08 100V220 RMK AO2 T02780211 PNO
53988KBKB BKB20190508111512205/08/19 11:15:31  5-MIN KBKB 081715Z AUTO VRB05KT 10SM FEW032 SCT041 28/21 A2980 410 66 2000 VRB/05 RMK AO2 T02780211 PNO
53988KBKB BKB20190508112012205/08/19 11:20:31  5-MIN KBKB 081720Z AUTO VRB06KT 10SM SCT035 BKN042 28/21 A2980 410 66 2000 VRB/06 RMK AO2 T02780211 PNO
53988KBKB BKB20190508112511505/08/19 11:25:31  5-MIN KBKB 081725Z AUTO VRB06KT 10SM BKN037 27/21 A2980 410 66 2000 VRB/06 RMK AO2 T02720206 PNO
53988KBKB BKB20190508113011505/08/19 11:30:31  5-MIN KBKB 081730Z AUTO VRB03KT 10SM BKN037 27/21 A2980 410 66 2000 VRB/03 RMK AO2 T02720206 PNO
53988KBKB BKB20190508113513705/08/19 11:35:31  5-MIN KBKB 081735Z AUTO 15010G18KT 110V200 10SM BKN037 27/20 A2980 410 64 1900 140/10G18 110V200 RMK AO2 T02720200 PNO
53988KBKB BKB20190508114013705/08/19 11:40:31  5-MIN KBKB 081740Z AUTO 16007G18KT 320V240 10SM BKN037 27/19 A2980 410 64 1900 160/07G18 320V240 RMK AO2 T02670194 PNO
53988KBKB BKB20190508114513705/08/19 11:45:31  5-MIN KBKB 081745Z AUTO 14009G17KT 090V170 10SM BKN037 27/19 A2980 410 62 2000 140/09G17 090V170 RMK AO2 T02720194 PNO
53988KBKB BKB20190508115016805/08/19 11:50:31  5-MIN KBKB 081750Z AUTO 15008G17KT 120V190 10SM BKN035 27/20 A2980 410 64 2000 150/08G17 120V190 RMK AO2 SLP115 6//// T02720200 10278 20222 53000 PNO
53988KBKB BKB20190508115512105/08/19 11:55:31  5-MIN KBKB 081755Z AUTO VRB04G18KT 10SM BKN035 27/20 A2980 410 64 2000 VRB/04G18 RMK AO2 T02720200 PNO
53988KBKB BKB20190508120010505/08/19 12:00:31  5-MIN KBKB 081800Z AUTO 10SM BKN035 27/20 A2980 410 66 1900 M /M RMK AO2 T02670200 PNO
53988KBKB BKB20190508120511505/08/19 12:05:31  5-MIN KBKB 081805Z AUTO VRB05KT 10SM BKN035 27/20 A2979 420 66 1900 VRB/05 RMK AO2 T02670200 PNO
53988KBKB BKB20190508121011505/08/19 12:10:31  5-MIN KBKB 081810Z AUTO 13006KT 10SM BKN035 27/20 A2979 420 66 1900 130/06 RMK AO2 T02670200 PNO
53988KBKB BKB20190508121511505/08/19 12:15:31  5-MIN KBKB 081815Z AUTO VRB05KT 10SM OVC035 27/20 A2979 420 66 1900 VRB/05 RMK AO2 T02670200 PNO
53988KBKB BKB20190508122011505/08/19 12:20:31  5-MIN KBKB 081820Z AUTO VRB05KT 10SM OVC035 27/20 A2979 420 66 1900 VRB/05 RMK AO2 T02670200 PNO
53988KBKB BKB20190508122511505/08/19 12:25:31  5-MIN KBKB 081825Z AUTO 00000KT 10SM OVC035 27/20 A2979 420 66 1900 000/00 RMK AO2 T02670200 PNO
53988KBKB BKB20190508123011505/08/19 12:30:31  5-MIN KBKB 081830Z AUTO 14005KT 10SM OVC035 27/20 A2979 420 66 1900 140/05 RMK AO2 T02670200 PNO
53988KBKB BKB20190508123511505/08/19 12:35:31  5-MIN KBKB 081835Z AUTO VRB03KT 10SM OVC035 27/21 A2979 420 69 1900 VRB/03 RMK AO2 T02670206 PNO
53988KBKB BKB20190508124013105/08/19 12:40:31  5-MIN KBKB 081840Z AUTO 15008KT 080V210 10SM OVC034 26/19 A2979 420 66 1800 150/08 080V210 RMK AO2 T02610194 PNO
53988KBKB BKB20190508124511505/08/19 12:45:31  5-MIN KBKB 081845Z AUTO VRB05KT 10SM OVC034 26/19 A2979 420 66 1800 VRB/05 RMK AO2 T02610194 PNO
53988KBKB BKB20190508125012205/08/19 12:50:31  5-MIN KBKB 081850Z AUTO VRB05KT 10SM OVC034 26/19 A2979 410 66 1800 VRB/05 RMK AO2 SLP115 T02610194 PNO
53988KBKB BKB20190508125511505/08/19 12:55:31  5-MIN KBKB 081855Z AUTO VRB04KT 10SM OVC032 26/19 A2980 410 66 1800 VRB/04 RMK AO2 T02610194 PNO
53988KBKB BKB20190508130011505/08/19 13:00:31  5-MIN KBKB 081900Z AUTO VRB04KT 10SM OVC032 26/19 A2979 410 66 1800 VRB/04 RMK AO2 T02610194 PNO
53988KBKB BKB20190508130511505/08/19 13:05:31  5-MIN KBKB 081905Z AUTO VRB05KT 10SM OVC032 26/19 A2979 420 66 1800 VRB/05 RMK AO2 T02610194 PNO
53988KBKB BKB20190508131012205/08/19 13:10:31  5-MIN KBKB 081910Z AUTO VRB04KT 10SM BKN031 OVC039 27/20 A2979 410 64 2000 VRB/04 RMK AO2 T02720200 PNO
53988KBKB BKB20190508131512205/08/19 13:15:31  5-MIN KBKB 081915Z AUTO VRB05KT 10SM BKN031 BKN039 28/20 A2979 420 62 2000 VRB/05 RMK AO2 T02780200 PNO
53988KBKB BKB20190508132012905/08/19 13:20:31  5-MIN KBKB 081920Z AUTO VRB04KT 10SM SCT031 BKN039 BKN050 28/21 A2979 420 64 2000 VRB/04 RMK AO2 T02780206 PNO
53988KBKB BKB20190508132512905/08/19 13:25:31  5-MIN KBKB 081925Z AUTO VRB05KT 10SM SCT031 BKN040 BKN055 27/21 A2978 420 66 2000 VRB/05 RMK AO2 T02720206 PNO
53988KBKB BKB20190508133012205/08/19 13:30:31  5-MIN KBKB 081930Z AUTO VRB05KT 10SM BKN034 BKN047 28/21 A2978 430 64 2000 VRB/05 RMK AO2 T02780206 PNO
53988KBKB BKB20190508133513805/08/19 13:35:31  5-MIN KBKB 081935Z AUTO 14007KT 120V200 10SM BKN034 BKN047 28/21 A2978 430 66 2000 140/07 120V200 RMK AO2 T02780211 PNO
53988KBKB BKB20190508134012205/08/19 13:40:31  5-MIN KBKB 081940Z AUTO VRB04KT 10SM SCT034 BKN041 28/21 A2977 430 66 2000 VRB/04 RMK AO2 T02780211 PNO
53988KBKB BKB20190508134512905/08/19 13:45:31  5-MIN KBKB 081945Z AUTO VRB05KT 10SM SCT034 BKN043 BKN060 28/21 A2978 430 66 2000 VRB/05 RMK AO2 T02780211 PNO
53988KBKB BKB20190508135012605/08/19 13:50:31  5-MIN KBKB 081950Z AUTO 10SM BKN032 BKN040 BKN060 28/21 A2978 430 64 2100 M /M RMK AO2 SLP107 T02830211 PNO
53988KBKB BKB20190508135512905/08/19 13:55:31  5-MIN KBKB 081955Z AUTO VRB03KT 10SM BKN032 BKN040 BKN060 28/21 A2977 440 64 2100 VRB/03 RMK AO2 T02830211 PNO
53988KBKB BKB20190508140007005/08/19 14:00:31  5-MIN KBKB 082000Z AUTO M M M M /M RMK AO2 FZRANO $
53988KBKB BKB20190508141010605/08/19 14:10:31  5-MIN KBKB 082010Z AUTO 00000KT 10SM 27/22 A2977 440 71 2000 000/00 RMK AO2 T02720217 $
53988KBKB BKB20190508141510605/08/19 14:15:31  5-MIN KBKB 082015Z AUTO VRB04KT 10SM 27/22 A2977 430 71 2000 VRB/04 RMK AO2 T02720217 $
53988KBKB BKB20190508142010605/08/19 14:20:31  5-MIN KBKB 082020Z AUTO VRB03KT 10SM 27/22 A2977 430 71 2000 VRB/03 RMK AO2 T02720217 $
53988KBKB BKB20190508142510605/08/19 14:25:31  5-MIN KBKB 082025Z AUTO 00000KT 10SM 27/22 A2977 440 71 2000 000/00 RMK AO2 T02720217 $
53988KBKB BKB20190508143010605/08/19 14:30:31  5-MIN KBKB 082030Z AUTO VRB03KT 10SM 27/22 A2977 440 74 2000 VRB/03 RMK AO2 T02720222 $
53988KBKB BKB20190508143512005/08/19 14:35:31  5-MIN KBKB 082035Z AUTO VRB03KT 10SM BKN034 OVC045 27/22 A2977 440 71 2000 VRB/03 RMK AO2 T02720217 $
53988KBKB BKB20190508144012005/08/19 14:40:31  5-MIN KBKB 082040Z AUTO VRB05KT 10SM BKN037 OVC047 27/22 A2976 450 71 2000 VRB/05 RMK AO2 T02720217 $
53988KBKB BKB20190508144512005/08/19 14:45:31  5-MIN KBKB 082045Z AUTO VRB04KT 10SM SCT035 OVC045 27/22 A2976 450 71 2000 VRB/04 RMK AO2 T02720217 $
53988KBKB BKB20190508145013305/08/19 14:50:31  5-MIN KBKB 082050Z AUTO VRB03KT 10SM SCT035 OVC045 28/22 A2976 450 71 2100 VRB/03 RMK AO2 SLP101 6//// T02780222 $
53988KBKB BKB20190508145512005/08/19 14:55:31  5-MIN KBKB 082055Z AUTO VRB06KT 10SM SCT033 BKN045 28/22 A2976 450 71 2100 VRB/06 RMK AO2 T02780222 $
53988KBKB BKB20190508150012705/08/19 15:00:31  5-MIN KBKB 082100Z AUTO VRB04KT 10SM SCT034 BKN046 BKN060 28/22 A2975 450 71 2100 VRB/04 RMK AO2 T02780222 $
53988KBKB BKB20190508150512705/08/19 15:05:31  5-MIN KBKB 082105Z AUTO VRB04KT 10SM SCT034 BKN044 BKN060 28/22 A2975 450 71 2100 VRB/04 RMK AO2 T02780222 $
53988KBKB BKB20190508151012705/08/19 15:10:31  5-MIN KBKB 082110Z AUTO VRB05KT 10SM BKN034 BKN046 OVC060 27/22 A2975 450 74 2000 VRB/05 RMK AO2 T02720222 $
53988KBKB BKB20190508151512705/08/19 15:15:31  5-MIN KBKB 082115Z AUTO VRB05KT 10SM FEW030 BKN042 OVC080 27/22 A2975 450 74 2000 VRB/05 RMK AO2 T02720222 $
53988KBKB BKB20190508152012705/08/19 15:20:31  5-MIN KBKB 082120Z AUTO VRB05KT 10SM SCT035 BKN044 OVC080 27/22 A2975 460 74 2000 VRB/05 RMK AO2 T02720222 $
53988KBKB BKB20190508152514305/08/19 15:25:31  5-MIN KBKB 082125Z AUTO VRB03KT 10SM -RA FEW028 BKN038 OVC060 27/22 A2975 460 74 2000 VRB/03 RMK AO2 RAB25 P0000 T02720222 $
53988KBKB BKB20190508153014105/08/19 15:30:31  5-MIN KBKB 082130Z AUTO VRB03KT 3SM RA SCT028 BKN038 OVC050 26/23 A2974 460 81 1900 VRB/03 RMK AO2 RAB25 P0000 T02610228 $
53988KBKB BKB20190508153514505/08/19 15:35:31  5-MIN KBKB 082135Z AUTO VRB05KT 3SM -RA BR SCT023 BKN029 OVC055 25/23 A2976 450 90 1700 VRB/05 RMK AO2 RAB25 P0000 T02500233 $
53988KBKB BKB20190508154014205/08/19 15:40:31  5-MIN KBKB 082140Z AUTO VRB03KT 10SM BKN023 BKN031 OVC055 25/24 A2975 450 93 1800 VRB/03 RMK AO2 RAB25E40 P0000 T02500239 $
53988KBKB BKB20190508154514305/08/19 15:45:31  5-MIN KBKB 082145Z AUTO 00000KT 10SM -RA BKN023 BKN031 OVC038 25/24 A2975 450 93 1800 000/00 RMK AO2 RAB25 P0000 T02500239 $
53988KBKB BKB20190508155014905/08/19 15:50:31  5-MIN KBKB 082150Z AUTO 00000KT 9SM -RA SCT023 BKN029 OVC034 25/24 A2975 460 97 1800 000/00 RMK AO2 RAB25 SLP100 P0000 T02500244 $
53988KBKB BKB20190508155513705/08/19 15:55:31  5-MIN KBKB 082155Z AUTO 00000KT 10SM -RA SCT023 BKN029 OVC034 25/24 A2975 460 97 1800 000/00 RMK AO2 P0000 T02500244 $
53988KBKB BKB20190508160014105/08/19 16:00:31  5-MIN KBKB 082200Z AUTO 00000KT 10SM SCT023 BKN031 OVC039 26/24 A2975 460 93 1800 000/00 RMK AO2 RAE2156 P0000 T02560244 $
53988KBKB BKB20190508160514105/08/19 16:05:31  5-MIN KBKB 082205Z AUTO 00000KT 10SM SCT025 BKN030 OVC039 26/24 A2975 460 93 1800 000/00 RMK AO2 RAE2156 P0000 T02560244 $
53988KBKB BKB20190508161014105/08/19 16:10:31  5-MIN KBKB 082210Z AUTO VRB03KT 10SM FEW025 BKN034 OVC043 26/24 A2975 460 87 1900 VRB/03 RMK AO2 RAE2156 P0000 T02610239 $
53988KBKB BKB20190508161514105/08/19 16:15:31  5-MIN KBKB 082215Z AUTO 00000KT 10SM FEW025 BKN032 OVC041 26/24 A2975 460 87 1900 000/00 RMK AO2 RAE2156 P0000 T02610239 $
53988KBKB BKB20190508162014105/08/19 16:20:31  5-MIN KBKB 082220Z AUTO 00000KT 10SM SCT025 BKN034 OVC041 26/24 A2975 460 87 1900 000/00 RMK AO2 RAE2156 P0000 T02610239 $
53988KBKB BKB20190508162514105/08/19 16:25:31  5-MIN KBKB 082225Z AUTO 19003KT 10SM SCT025 BKN031 OVC041 26/24 A2975 460 87 1900 190/03 RMK AO2 RAE2156 P0000 T02610239 $
53988KBKB BKB20190508163014105/08/19 16:30:31  5-MIN KBKB 082230Z AUTO 00000KT 10SM FEW025 BKN030 OVC041 26/24 A2975 450 87 1900 000/00 RMK AO2 RAE2156 P0000 T02610239 $
53988KBKB BKB20190508163514105/08/19 16:35:31  5-MIN KBKB 082235Z AUTO VRB03KT 10SM FEW025 BKN030 OVC039 26/23 A2974 460 84 1900 VRB/03 RMK AO2 RAE2156 P0000 T02610233 $
53988KBKB BKB20190508164014905/08/19 16:40:31  5-MIN KBKB 082240Z AUTO VRB03KT 10SM -TSRA SCT027 OVC038 26/23 A2974 470 84 1900 VRB/03 RMK AO2 RAE2156B40 TSB40 P0000 T02610233 $
53988KBKB BKB20190508164515805/08/19 16:45:31  5-MIN KBKB 082245Z AUTO 00000KT 6SM -TSRA BR SCT025 BKN031 OVC041 26/23 A2974 470 87 1800 000/00 RMK AO2 RAE2156B40 TSB40 P0000 T02560233 $
53988KBKB BKB20190508165017205/08/19 16:50:31  5-MIN KBKB 082250Z AUTO VRB03KT 5SM -TSRA BR SCT027 BKN031 OVC055 25/23 A2972 480 90 1800 VRB/03 RMK AO2 RAE2156B40 TSB40 PRESFR SLP091 P0000 T02500233 $
53988KBKB BKB20190508165514605/08/19 16:55:31  5-MIN KBKB 082255Z AUTO VRB03KT 5SM -TSRA BR SCT029 BKN042 OVC080 25/23 A2971 490 90 1800 VRB/03 RMK AO2 PRESFR P0000 T02500233
53988KBKB BKB20190508170013905/08/19 17:00:31  5-MIN KBKB 082300Z AUTO VRB04KT 6SM -TSRA BR FEW022 BKN029 OVC049 24/23 A2972 480 93 1700 VRB/04 RMK AO2 P0000 T02440233
53988KBKB BKB20190508170513905/08/19 17:05:31  5-MIN KBKB 082305Z AUTO VRB05KT 3SM +TSRA BR SCT022 BKN029 OVC055 24/23 A2974 470 93 1700 VRB/05 RMK AO2 P0001 T02440233
53988KBKB BKB20190508171008505/08/19 17:10:31  5-MIN KBKB 082310Z AUTO TS M M M M /M RMK AO2 TSB10 P0001 FZRANO $
53988KBKB BKB20190508171512505/08/19 17:15:31  5-MIN KBKB 082315Z AUTO VRB03KT -TSRA 24/24 A2972 480 97 1700 VRB/03 RMK AO2 RAB12 TSB10 P0001 T02440239 $
53988KBKB BKB20190508172013205/08/19 17:20:31  5-MIN KBKB 082320Z AUTO VRB05KT 2SM TSRA BR 24/24 A2975 460 100 1600 VRB/05 RMK AO2 RAB12 TSB10 P0001 T02390239 $
53988KBKB BKB20190508172513705/08/19 17:25:31  5-MIN KBKB 082325Z AUTO VRB03KT 1 1/4SM +TSRA BR 24/24 A2974 470 100 1600 VRB/03 RMK AO2 RAB12 TSB10 P0001 T02390239 $
53988KBKB BKB20190508173013705/08/19 17:30:31  5-MIN KBKB 082330Z AUTO 33003KT 1 1/4SM +TSRA BR 24/24 A2975 460 100 1600 320/03 RMK AO2 RAB12 TSB10 P0001 T02390239 $
53988KBKB BKB20190508173513405/08/19 17:35:31  5-MIN KBKB 082335Z AUTO 1 1/4SM -TSRA BR 23/23 A2977 430 100 1500 M /M RMK AO2 RAB12 TSB10 PRESRR P0001 T02280228 $
53988KBKB BKB20190508174013705/08/19 17:40:31  5-MIN KBKB 082340Z AUTO VRB04KT 3/4SM +TSRA BR 20/19 A2977 430 97 1200 VRB/04 RMK AO2 RAB12 TSB10B40 P0001 T02000194 $
53988KBKB BKB20190508174516705/08/19 17:45:31  5-MIN KBKB 082345Z AUTO 31008KT 280V360 1/2SM +TSRA FG FEW007 OVC014 19/19 A2976 440 97 1100 310/08 280V360 RMK AO2 RAB12 TSB10B40 P0001 T01940189 $
53988KBKB BKB20190508175013105/08/19 17:50:31  5-MIN KBKB 082350Z AUTO VRB06KT 1SM +TSRA BR VV018 19/19 A2977 440 97 1100 VRB/06 RMK AO2 RAB12 TSB10B40 P0001 $
53988KBKB BKB20190508175512605/08/19 17:55:31  5-MIN KBKB 082355Z AUTO VRB05KT 1SM +TSRA BR VV017 19/19 A2977 440 97 1100 VRB/05 RMK AO2 P0000 T01940189 $
53988KBKB BKB20190508180014505/08/19 18:00:31  5-MIN KBKB 090000Z AUTO VRB04KT 1 1/4SM +TSRA BR FEW007 OVC017 19/19 A2980 410 97 1100 VRB/04 RMK AO2 PRESRR P0000 T01940189 $
53988KBKB BKB20190508180513605/08/19 18:05:31  5-MIN KBKB 090005Z AUTO 00000KT 1 3/4SM +TSRA BR FEW005 OVC015 19/19 A2979 420 97 1100 000/00 RMK AO2 T01940189 PNO $
53988KBKB BKB20190508181014205/08/19 18:10:31  5-MIN KBKB 090010Z AUTO 35003KT 1 1/4SM +TSRA BR FEW005 OVC015 19/19 A2977 440 97 1100 350/03 RMK AO2 TSB09 T01940189 PNO $
53988KBKB BKB20190508181514005/08/19 18:15:31  5-MIN KBKB 090015Z AUTO VRB03KT 3/4SM +TSRA BR FEW005 OVC015 19/19 A2977 440 97 1100 VRB/03 RMK AO2 TSB09 T01940189 PNO $
53988KBKB BKB20190508182013905/08/19 18:20:31  5-MIN KBKB 090020Z AUTO VRB03KT 1SM +TSRA BR FEW005 OVC013 19/19 A2979 420 100 1000 VRB/03 RMK AO2 TSB09 T01890189 PNO $
53988KBKB BKB20190508182513905/08/19 18:25:31  5-MIN KBKB 090025Z AUTO 00000KT 1SM +TSRA BR FEW005 OVC013 19/19 A2980 410 100 1000 000/00 RMK AO2 TSB09 T01890189 PNO $
53988KBKB BKB20190508183013305/08/19 18:30:31  5-MIN KBKB 090030Z AUTO 03004KT 1/2SM +TSRA FG VV012 19/19 A2979 420 100 1000 020/04 RMK AO2 TSB09 T01890189 PNO $
53988KBKB BKB20190508183513305/08/19 18:35:31  5-MIN KBKB 090035Z AUTO VRB03KT 1/2SM +TSRA FG VV011 19/19 A2978 430 100 1000 VRB/03 RMK AO2 TSB09 T01890189 PNO $
53988KBKB BKB20190508184013305/08/19 18:40:31  5-MIN KBKB 090040Z AUTO VRB04KT 3/4SM +TSRA BR VV012 19/19 A2978 430 100 1000 VRB/04 RMK AO2 TSB09 T01890189 PNO $
53988KBKB BKB20190508184514205/08/19 18:45:31  5-MIN KBKB 090045Z AUTO VRB03KT 1 3/4SM +TSRA BR BKN014 OVC025 18/18 A2979 420 100 900 VRB/03 RMK AO2 TSB09 T01830183 PNO $
53988KBKB BKB20190508185013205/08/19 18:50:31  5-MIN KBKB 090050Z AUTO VRB04KT 1 1/2SM +TSRA BR BKN012 OVC025 18/18 A2980 410 100 900 VRB/04 RMK AO2 TSB09 PNO $
53988KBKB BKB20190508185512405/08/19 18:55:31  5-MIN KBKB 090055Z AUTO VRB03KT 1SM +TSRA BR VV011 18/18 A2980 410 100 900 VRB/03 RMK AO2 T01830183 PNO $
53988KBKB BKB20190508190013205/08/19 19:00:31  5-MIN KBKB 090100Z AUTO VRB03KT 1SM +TSRA BR BKN011 OVC024 18/18 A2980 410 100 900 VRB/03 RMK AO2 T01830183 PNO $
53988KBKB BKB20190508190514205/08/19 19:05:31  5-MIN KBKB 090105Z AUTO VRB06KT 1 1/2SM TSRA BR BKN013 BKN024 OVC037 18/18 A2979 420 100 900 VRB/06 RMK AO2 T01830183 PNO $
53988KBKB BKB20190508191014405/08/19 19:10:31  5-MIN KBKB 090110Z AUTO VRB05KT 2 1/2SM +TSRA BR BKN015 BKN024 OVC046 18/18 A2979 420 100 1000 VRB/05 RMK AO2 T01830183 PNO $
53988KBKB BKB20190508191513905/08/19 19:15:31  5-MIN KBKB 090115Z AUTO VRB05KT 4SM TSRA BR FEW003 BKN013 OVC046 18/18 A2978 430 100 1000 VRB/05 RMK AO2 T01830183 PNO $
53988KBKB BKB20190508192013705/08/19 19:20:31  5-MIN KBKB 090120Z AUTO 00000KT 7SM -TSRA FEW003 BKN036 OVC045 18/18 A2979 420 100 1000 000/00 RMK AO2 T01830183 PNO $
53988KBKB BKB20190508192514105/08/19 19:25:31  5-MIN KBKB 090125Z AUTO VRB04KT 10SM -RA SCT005 BKN036 OVC045 18/18 A2979 420 100 900 VRB/04 RMK AO2 TSE23 T01830183 PNO $
53988KBKB BKB20190508193013905/08/19 19:30:31  5-MIN KBKB 090130Z AUTO VRB04KT 10SM -RA SCT005 BKN034 OVC045 18/18 A2980 410 100 900 VRB/04 RMK AO2 TSE23 T01830183 PNO
53988KBKB BKB20190508193513205/08/19 19:35:31  5-MIN KBKB 090135Z AUTO VRB05KT 10SM -RA BKN005 OVC034 18/18 A2979 420 100 900 VRB/05 RMK AO2 TSE23 T01830183 PNO
53988KBKB BKB20190508194013305/08/19 19:40:31  5-MIN KBKB 090140Z AUTO VRB04KT 10SM -RA BKN005 OVC035 18/18 A2979 420 100 1000 VRB/04 RMK AO2 TSE23 T01830183 PNO
53988KBKB BKB20190508194513205/08/19 19:45:31  5-MIN KBKB 090145Z AUTO VRB03KT 10SM -RA BKN004 OVC035 18/18 A2979 420 100 900 VRB/03 RMK AO2 TSE23 T01830183 PNO
53988KBKB BKB20190508195013205/08/19 19:50:31  5-MIN KBKB 090150Z AUTO VRB04KT 10SM -RA OVC004 19/18 A2979 420 97 1000 VRB/04 RMK AO2 TSE23 SLP112 T01890183 PNO
53988KBKB BKB20190508195512605/08/19 19:55:31  5-MIN KBKB 090155Z AUTO VRB04KT 10SM -RA BKN004 OVC042 19/18 A2979 420 97 1000 VRB/04 RMK AO2 T01890183 PNO
53988KBKB BKB20190508200012605/08/19 20:00:31  5-MIN KBKB 090200Z AUTO 00000KT 8SM -RA BKN004 OVC040 19/19 A2978 430 100 1000 000/00 RMK AO2 T01890189 PNO
53988KBKB BKB20190508200513505/08/19 20:05:31  5-MIN KBKB 090205Z AUTO 00000KT 6SM RA BR BKN004 OVC038 19/19 A2977 440 100 1000 000/00 RMK AO2 PRESFR T01890189 PNO
53988KBKB BKB20190508201013405/08/19 20:10:31  5-MIN KBKB 090210Z AUTO 00000KT 7SM -TSRA BKN004 OVC038 19/19 A2977 440 100 1000 000/00 RMK AO2 TSB08 T01890189 PNO
53988KBKB BKB20190508201513505/08/19 20:15:31  5-MIN KBKB 090215Z AUTO 00000KT 10SM -TSRA BKN004 OVC038 19/19 A2977 440 100 1000 000/00 RMK AO2 TSB08 T01890189 PNO
53988KBKB BKB20190508202013805/08/19 20:20:31  5-MIN KBKB 090220Z AUTO VRB03KT 10SM TS BKN004 OVC038 19/19 A2977 440 100 1000 VRB/03 RMK AO2 RAE16 TSB08 T01890189 PNO
53988KBKB BKB20190508202514105/08/19 20:25:31  5-MIN KBKB 090225Z AUTO 00000KT 10SM -TSRA BKN004 OVC038 19/19 A2977 440 100 1000 000/00 RMK AO2 TSB08E23B24 T01890189 PNO
53988KBKB BKB20190508203013405/08/19 20:30:31  5-MIN KBKB 090230Z AUTO 00000KT 10SM -TSRA OVC004 19/19 A2977 440 100 1000 000/00 RMK AO2 TSB08E23B24 T01890189 PNO
53988KBKB BKB20190508203513705/08/19 20:35:31  5-MIN KBKB 090235Z AUTO 00000KT 10SM TS OVC003 19/19 A2977 430 100 1000 000/00 RMK AO2 RAE33 TSB08E23B24 T01890189 PNO
53988KBKB BKB20190508204014205/08/19 20:40:31  5-MIN KBKB 090240Z AUTO 00000KT 10SM VCTS OVC003 19/19 A2977 440 100 1000 000/00 RMK AO2 RAE33 TSB08E23B24E38 T01890189 PNO
53988KBKB BKB20190508204513705/08/19 20:45:31  5-MIN KBKB 090245Z AUTO VRB03KT 10SM OVC003 19/19 A2977 440 100 1000 VRB/03 RMK AO2 RAE33 TSB08E23B24E38 T01890189 PNO
53988KBKB BKB20190508205013005/08/19 20:50:31  5-MIN KBKB 090250Z AUTO 00000KT 10SM TS OVC003 19/19 A2978 430 100 1000 000/00 RMK AO2 RAE33 TSB08E23B24E38 PNO
53988KBKB BKB20190508205512905/08/19 20:55:31  5-MIN KBKB 090255Z AUTO VRB03KT 10SM -TSRA BKN003 OVC085 19/19 A2977 440 100 1000 VRB/03 RMK AO2 T01890189 PNO
53988KBKB BKB20190508210014205/08/19 21:00:31  5-MIN KBKB 090300Z AUTO 00000KT 7SM TSRA BKN003 BKN034 OVC085 19/19 A2978 430 100 1100 000/00 RMK AO2 TSB0256 T01940194 PNO
53988KBKB BKB20190508210514305/08/19 21:05:31  5-MIN KBKB 090305Z AUTO 00000KT 7SM -TSRA SCT003 BKN024 BKN080 19/19 A2978 430 100 1100 000/00 RMK AO2 TSB0256 T01940194 PNO
53988KBKB BKB20190508211014405/08/19 21:10:31  5-MIN KBKB 090310Z AUTO 00000KT 10SM -TSRA FEW003 BKN022 OVC080 19/19 A2977 430 100 1100 000/00 RMK AO2 TSB0256 T01940194 PNO
53988KBKB BKB20190508211514605/08/19 21:15:31  5-MIN KBKB 090315Z AUTO 00000KT 10SM FEW003 BKN024 OVC080 19/19 A2977 440 97 1100 000/00 RMK AO2 RAE12 TSB0256E11 T01940189 PNO
53988KBKB BKB20190508212014605/08/19 21:20:31  5-MIN KBKB 090320Z AUTO 00000KT 10SM FEW017 BKN027 BKN039 19/19 A2977 440 97 1100 000/00 RMK AO2 RAE12 TSB0256E11 T01940189 PNO
53988KBKB BKB20190508212514705/08/19 21:25:31  5-MIN KBKB 090325Z AUTO 00000KT 10SM SCT022 BKN030 BKN039 19/19 A2977 440 100 1100 000/00 RMK AO2 RAE12 TSB0256E11 T01940194 PNO
53988KBKB BKB20190508213014005/08/19 21:30:31  5-MIN KBKB 090330Z AUTO 00000KT 10SM BKN020 BKN028 19/19 A2977 440 100 1100 000/00 RMK AO2 RAE12 TSB0256E11 T01940194 PNO
53988KBKB BKB20190508213514705/08/19 21:35:31  5-MIN KBKB 090335Z AUTO VRB03KT 10SM BKN020 BKN028 BKN036 19/19 A2977 440 100 1100 VRB/03 RMK AO2 RAE12 TSB0256E11 T01940194 PNO
53988KBKB BKB20190508214014705/08/19 21:40:31  5-MIN KBKB 090340Z AUTO 00000KT 10SM BKN020 BKN028 BKN085 19/19 A2977 440 100 1100 000/00 RMK AO2 RAE12 TSB0256E11 T01940194 PNO
53988KBKB BKB20190508214514705/08/19 21:45:31  5-MIN KBKB 090345Z AUTO 00000KT 10SM BKN022 BKN034 BKN080 20/20 A2977 430 100 1200 000/00 RMK AO2 RAE12 TSB0256E11 T02000200 PNO
53988KBKB BKB20190508215015405/08/19 21:50:31  5-MIN KBKB 090350Z AUTO 00000KT 10SM BKN022 BKN034 OVC075 20/20 A2977 440 100 1200 000/00 RMK AO2 RAE12 TSB0256E11 SLP107 T02000200 PNO
53988KBKB BKB20190508215513005/08/19 21:55:31  5-MIN KBKB 090355Z AUTO 00000KT 10SM BKN018 BKN023 OVC080 20/20 A2977 440 100 1200 000/00 RMK AO2 T02000200 PNO
53988KBKB BKB20190508220012905/08/19 22:00:31  5-MIN KBKB 090400Z AUTO 00000KT 10SM BKN018 BKN025 OVC070 21/20 A2977 440 97 1200 000/00 RMK AO2 T02060200 PNO
53988KBKB BKB20190508220513005/08/19 22:05:31  5-MIN KBKB 090405Z AUTO 00000KT 10SM BKN018 BKN027 OVC075 21/21 A2977 440 100 1200 000/00 RMK AO2 T02060206 PNO
53988KBKB BKB20190508221013005/08/19 22:10:31  5-MIN KBKB 090410Z AUTO 12004KT 10SM BKN018 BKN023 OVC038 21/21 A2977 440 100 1200 110/04 RMK AO2 T02060206 PNO
53988KBKB BKB20190508221513005/08/19 22:15:31  5-MIN KBKB 090415Z AUTO VRB03KT 10SM BKN018 BKN026 OVC040 21/21 A2977 440 100 1200 VRB/03 RMK AO2 T02060206 PNO
53988KBKB BKB20190508222013005/08/19 22:20:31  5-MIN KBKB 090420Z AUTO 11004KT 10SM BKN018 BKN022 OVC038 21/21 A2976 440 100 1200 110/04 RMK AO2 T02060206 PNO
53988KBKB BKB20190508222513005/08/19 22:25:31  5-MIN KBKB 090425Z AUTO 13003KT 10SM SCT018 BKN022 OVC038 21/21 A2976 440 100 1200 120/03 RMK AO2 T02060206 PNO
53988KBKB BKB20190508223013005/08/19 22:30:31  5-MIN KBKB 090430Z AUTO VRB03KT 10SM FEW004 BKN019 OVC030 21/21 A2977 440 100 1200 VRB/03 RMK AO2 T02060206 PNO
53988KBKB BKB20190508223513005/08/19 22:35:31  5-MIN KBKB 090435Z AUTO VRB03KT 10SM FEW004 BKN021 OVC030 21/21 A2977 440 100 1200 VRB/03 RMK AO2 T02060206 PNO
53988KBKB BKB20190508224013005/08/19 22:40:31  5-MIN KBKB 090440Z AUTO 12003KT 10SM SCT004 BKN016 OVC023 21/21 A2977 430 100 1200 110/03 RMK AO2 T02060206 PNO
53988KBKB BKB20190508224512105/08/19 22:45:31  5-MIN KBKB 090445Z AUTO 00000KT 9SM SCT006 OVC018 21/21 A2978 430 97 1300 000/00 RMK AO2 T02110206 PNO
53988KBKB BKB20190508225012805/08/19 22:50:31  5-MIN KBKB 090450Z AUTO 11003KT 9SM SCT006 OVC018 21/21 A2977 440 97 1300 100/03 RMK AO2 SLP107 T02110206 PNO
53988KBKB BKB20190508225512805/08/19 22:55:31  5-MIN KBKB 090455Z AUTO VRB03KT 9SM SCT006 BKN018 OVC027 21/21 A2977 440 97 1300 VRB/03 RMK AO2 T02110206 PNO
53988KBKB BKB20190508230012805/08/19 23:00:31  5-MIN KBKB 090500Z AUTO VRB03KT 9SM SCT006 BKN010 OVC030 21/21 A2976 440 97 1300 VRB/03 RMK AO2 T02110206 PNO
53988KBKB BKB20190508230513305/08/19 23:05:31  5-MIN KBKB 090505Z AUTO VRB04KT 9SM BKN006 OVC017 21/21 A2976 450 97 1300 VRB/04 RMK AO2 CIG 003V010 T02110206 PNO
53988KBKB BKB20190508231014105/08/19 23:10:31  5-MIN KBKB 090510Z AUTO 00000KT 9SM BKN006 BKN017 OVC030 21/21 A2977 440 100 1200 000/00 RMK AO2 CIG 003V010 T02060206 PNO
53988KBKB BKB20190508231514005/08/19 23:15:31  5-MIN KBKB 090515Z AUTO 00000KT 9SM BKN005 BKN017 OVC030 21/21 A2977 440 97 1300 000/00 RMK AO2 CIG 003V010 T02110206 PNO
53988KBKB BKB20190508232014105/08/19 23:20:31  5-MIN KBKB 090520Z AUTO VRB03KT 8SM BKN005 BKN018 OVC030 21/21 A2977 440 100 1300 VRB/03 RMK AO2 CIG 003V010 T02110211 PNO
53988KBKB BKB20190508232512905/08/19 23:25:31  5-MIN KBKB 090525Z AUTO 00000KT 8SM BKN005 BKN015 OVC020 21/21 A2977 440 100 1300 000/00 RMK AO2 T02110211 PNO
53988KBKB BKB20190508233012905/08/19 23:30:31  5-MIN KBKB 090530Z AUTO 12003KT 8SM SCT005 BKN021 OVC070 21/21 A2977 440 100 1300 110/03 RMK AO2 T02110211 PNO
53988KBKB BKB20190508233512905/08/19 23:35:31  5-MIN KBKB 090535Z AUTO 00000KT 8SM SCT005 BKN019 OVC042 21/21 A2977 440 100 1300 000/00 RMK AO2 T02110211 PNO
53988KBKB BKB20190508234012905/08/19 23:40:31  5-MIN KBKB 090540Z AUTO 13003KT 8SM FEW004 BKN019 OVC043 21/21 A2977 440 100 1300 120/03 RMK AO2 T02110211 PNO
53988KBKB BKB20190508234512905/08/19 23:45:31  5-MIN KBKB 090545Z AUTO 00000KT 7SM FEW004 BKN021 OVC070 21/21 A2977 440 100 1300 000/00 RMK AO2 T02110211 PNO
53988KBKB BKB20190508235017005/08/19 23:50:31  5-MIN KBKB 090550Z AUTO VRB03KT 7SM FEW004 BKN021 OVC090 21/21 A2977 440 100 1300 VRB/03 RMK AO2 SLP105 6//// T02110211 10211 20183 402830183 50004 PNO
53988KBKB BKB20190508235512805/08/19 23:55:31  5-MIN KBKB 090555Z AUTO VRB03KT 7SM BKN021 BKN045 OVC070 22/21 A2977 440 97 1400 VRB/03 RMK AO2 T02170211 PNO
53988KBKB BKB20190509000012805/09/19 00:00:31  5-MIN KBKB 090600Z AUTO VRB03KT 7SM SCT019 BKN024 OVC075 22/21 A2977 440 97 1400 VRB/03 RMK AO2 T02170211 PNO
53988KBKB BKB20190509000512805/09/19 00:05:31  5-MIN KBKB 090605Z AUTO VRB03KT 7SM BKN021 BKN029 OVC075 22/21 A2976 440 97 1400 VRB/03 RMK AO2 T02170211 PNO
53988KBKB BKB20190509001012805/09/19 00:10:31  5-MIN KBKB 090610Z AUTO VRB03KT 7SM SCT021 BKN028 OVC075 22/21 A2976 450 97 1400 VRB/03 RMK AO2 T02170211 PNO
53988KBKB BKB20190509001512805/09/19 00:15:31  5-MIN KBKB 090615Z AUTO 00000KT 7SM FEW017 BKN029 OVC075 22/21 A2977 440 97 1400 000/00 RMK AO2 T02170211 PNO
53988KBKB BKB20190509002012905/09/19 00:20:31  5-MIN KBKB 090620Z AUTO 12003KT 7SM SCT022 BKN030 OVC075 22/22 A2976 440 100 1400 110/03 RMK AO2 T02170217 PNO
53988KBKB BKB20190509002513205/09/19 00:25:31  5-MIN KBKB 090625Z AUTO 00000KT 6SM BR SCT022 BKN030 BKN047 22/22 A2977 440 100 1400 000/00 RMK AO2 T02170217 PNO
53988KBKB BKB20190509003013205/09/19 00:30:31  5-MIN KBKB 090630Z AUTO 00000KT 6SM BR FEW013 BKN030 OVC080 22/22 A2977 440 100 1400 000/00 RMK AO2 T02170217 PNO
53988KBKB BKB20190509003513205/09/19 00:35:31  5-MIN KBKB 090635Z AUTO 00000KT 6SM BR SCT022 BKN030 OVC075 22/22 A2976 440 100 1400 000/00 RMK AO2 T02170217 PNO
53988KBKB BKB20190509004013205/09/19 00:40:31  5-MIN KBKB 090640Z AUTO 13003KT 6SM BR SCT022 BKN030 OVC080 22/22 A2976 450 100 1400 120/03 RMK AO2 T02170217 PNO
53988KBKB BKB20190509004513205/09/19 00:45:31  5-MIN KBKB 090645Z AUTO VRB03KT 6SM BR SCT024 BKN030 OVC080 22/22 A2975 450 100 1400 VRB/03 RMK AO2 T02170217 PNO
53988KBKB BKB20190509005013905/09/19 00:50:31  5-MIN KBKB 090650Z AUTO VRB03KT 6SM BR FEW019 BKN030 OVC085 22/22 A2975 460 100 1400 VRB/03 RMK AO2 SLP099 T02170217 PNO
53988KBKB BKB20190509005513205/09/19 00:55:31  5-MIN KBKB 090655Z AUTO VRB03KT 5SM BR FEW019 BKN030 OVC047 22/22 A2974 460 100 1400 VRB/03 RMK AO2 T02170217 PNO
53988KBKB BKB20190509010013205/09/19 01:00:31  5-MIN KBKB 090700Z AUTO 00000KT 6SM BR SCT019 BKN025 OVC047 22/22 A2974 470 100 1500 000/00 RMK AO2 T02220222 PNO
53988KBKB BKB20190509010513205/09/19 01:05:31  5-MIN KBKB 090705Z AUTO VRB03KT 6SM BR SCT019 BKN025 BKN030 22/22 A2974 470 100 1500 VRB/03 RMK AO2 T02220222 PNO
53988KBKB BKB20190509011013205/09/19 01:10:31  5-MIN KBKB 090710Z AUTO 00000KT 6SM BR SCT019 BKN025 OVC030 22/22 A2973 470 100 1500 000/00 RMK AO2 T02220222 PNO
53988KBKB BKB20190509011512905/09/19 01:15:31  5-MIN KBKB 090715Z AUTO VRB05KT 7SM FEW016 SCT021 OVC027 23/23 A2974 470 100 1500 VRB/05 RMK AO2 T02280228 PNO
53988KBKB BKB20190509012012805/09/19 01:20:31  5-MIN KBKB 090720Z AUTO VRB03KT 8SM SCT019 BKN025 BKN032 23/23 A2974 470 97 1600 VRB/03 RMK AO2 T02330228 PNO
53988KBKB BKB20190509012512805/09/19 01:25:31  5-MIN KBKB 090725Z AUTO VRB04KT 8SM SCT019 BKN025 OVC080 23/23 A2974 470 97 1600 VRB/04 RMK AO2 T02330228 PNO
53988KBKB BKB20190509013012805/09/19 01:30:31  5-MIN KBKB 090730Z AUTO VRB04KT 8SM SCT017 BKN022 OVC080 24/23 A2974 470 93 1600 VRB/04 RMK AO2 T02390228 PNO
53988KBKB BKB20190509013512105/09/19 01:35:31  5-MIN KBKB 090735Z AUTO VRB04KT 9SM BKN019 BKN028 24/23 A2974 460 93 1600 VRB/04 RMK AO2 T02390228 PNO
53988KBKB BKB20190509014012805/09/19 01:40:31  5-MIN KBKB 090740Z AUTO VRB03KT 9SM BKN019 BKN024 BKN028 24/23 A2974 470 97 1600 VRB/03 RMK AO2 T02390233 PNO
53988KBKB BKB20190509014512805/09/19 01:45:31  5-MIN KBKB 090745Z AUTO VRB04KT 8SM SCT019 BKN023 BKN034 24/23 A2973 480 97 1700 VRB/04 RMK AO2 T02390233 PNO
53988KBKB BKB20190509015013505/09/19 01:50:31  5-MIN KBKB 090750Z AUTO VRB04KT 8SM SCT019 BKN023 OVC031 24/23 A2973 480 97 1700 VRB/04 RMK AO2 SLP091 T02390233 PNO
53988KBKB BKB20190509015512805/09/19 01:55:31  5-MIN KBKB 090755Z AUTO VRB04KT 9SM BKN019 BKN028 OVC035 24/23 A2973 480 97 1700 VRB/04 RMK AO2 T02390233 PNO
53988KBKB BKB20190509015519205/09/19 01:55:31  5-MIN KBKB 090755Z AUTO VRB04KT 9SM BKN019 BKN028 OVC035 24/23 A2973 480 97 103KT 1 3/4SM -TSRA BR FEW011 BKN022 OVC032 23/23 A2977 440 100 1500 VRB/03 RMK AO2 T02330233 PNO
53988KBKB BKB20190509050514105/09/19 05:05:31  5-MIN KBKB 091105Z AUTO 00000KT 3SM RA BR SCT014 BKN024 OVC030 23/23 A2977 440 100 1500 000/00 RMK AO2 TSE04 T02330233 PNO
53988KBKB BKB20190509051014705/09/19 05:10:31  5-MIN KBKB 091110Z AUTO VRB04KT 3SM -TSRA BR FEW013 SCT024 OVC030 23/23 A2977 430 100 1500 VRB/04 RMK AO2 TSE04B07 T02330233 PNO
53988KBKB BKB20190509051514605/09/19 05:15:31  5-MIN KBKB 091115Z AUTO 00000KT 3SM -TSRA BR FEW014 BKN027 OVC034 23/23 A2977 440 97 1500 000/00 RMK AO2 TSE04B07 T02330228 PNO
53988KBKB BKB20190509052014505/09/19 05:20:31  5-MIN KBKB 091120Z AUTO 00000KT 4SM TSRA BR FEW014 BKN027 OVC090 23/23 A2977 430 97 1500 000/00 RMK AO2 TSE04B07 T02330228 PNO
53988KBKB BKB20190509052514605/09/19 05:25:31  5-MIN KBKB 091125Z AUTO VRB03KT 5SM -TSRA BR SCT022 BKN037 OVC090 23/23 A2977 440 97 1500 VRB/03 RMK AO2 TSE04B07 T02330228 PNO
53988KBKB BKB20190509053014905/09/19 05:30:31  5-MIN KBKB 091130Z AUTO VRB05KT 6SM -TSRA BR BKN022 BKN037 OVC095 23/23 A2977 430 97 1500 VRB/05 RMK AO2 TSE04B07B30 T02330228 PNO
53988KBKB BKB20190509053515205/09/19 05:35:31  5-MIN KBKB 091135Z AUTO VRB05G14KT 7SM -TSRA SCT019 BKN039 OVC100 23/23 A2977 430 97 1500 VRB/05G14 RMK AO2 TSE04B07B30 T02330228 PNO
53988KBKB BKB20190509054015505/09/19 05:40:31  5-MIN KBKB 091140Z AUTO VRB05G14KT 9SM TS SCT021 SCT039 OVC085 23/22 A2977 430 97 1500 VRB/05G14 RMK AO2 RAE37 TSE04B07B30 T02280222 PNO
53988KBKB BKB20190509054514305/09/19 05:45:31  5-MIN KBKB 091145Z AUTO 00000KT 10SM TS FEW021 BKN085 23/22 A2979 420 93 1500 000/00 RMK AO2 RAE37 TSE04B07B30 T02330222 PNO
53988KBKB BKB20190509055018705/09/19 05:50:31  5-MIN KBKB 091150Z AUTO 17005KT 10SM TS FEW020 BKN080 OVC100 23/22 A2979 420 93 1500 160/05 RMK AO2 RAE37 TSE04B07B30 SLP115 6//// 7//// T02330222 10244 20217 56019 PNO
53988KBKB BKB20190509055513105/09/19 05:55:31  5-MIN KBKB 091155Z AUTO VRB03KT 9SM TS FEW018 BKN080 OVC095 23/22 A2979 410 93 1500 VRB/03 RMK AO2 T02330222 PNO
53988KBKB BKB20190509060013105/09/19 06:00:31  5-MIN KBKB 091200Z AUTO VRB03KT 9SM TS FEW028 BKN080 OVC100 23/23 A2980 410 97 1500 VRB/03 RMK AO2 T02330228 PNO
53988KBKB BKB20190509060512405/09/19 06:05:31  5-MIN KBKB 091205Z AUTO VRB05KT 9SM TS BKN080 OVC100 23/23 A2981 400 97 1500 VRB/05 RMK AO2 T02330228 PNO
53988KBKB BKB20190509061012405/09/19 06:10:31  5-MIN KBKB 091210Z AUTO VRB05KT 9SM TS BKN070 OVC095 23/22 A2981 400 93 1500 VRB/05 RMK AO2 T02330222 PNO
53988KBKB BKB20190509061512505/09/19 06:15:31  5-MIN KBKB 091215Z AUTO VRB04KT 10SM TS BKN070 OVC095 23/22 A2980 410 93 1500 VRB/04 RMK AO2 T02330222 PNO
53988KBKB BKB20190509062012505/09/19 06:20:31  5-MIN KBKB 091220Z AUTO 00000KT 10SM TS BKN070 OVC090 23/22 A2981 400 97 1400 000/00 RMK AO2 T02280222 PNO
53988KBKB BKB20190509062512505/09/19 06:25:31  5-MIN KBKB 091225Z AUTO 00000KT 10SM TS FEW025 OVC065 23/22 A2982 390 93 1400 000/00 RMK AO2 T02280217 PNO
53988KBKB BKB20190509063014005/09/19 06:30:31  5-MIN KBKB 091230Z AUTO 31003KT 9SM -TSRA FEW016 SCT025 OVC070 23/22 A2983 390 97 1400 310/03 RMK AO2 RAB27 T02280222 PNO
53988KBKB BKB20190509063514705/09/19 06:35:31  5-MIN KBKB 091235Z AUTO 00000KT 8SM -TSRA SCT018 BKN025 OVC065 23/22 A2984 380 97 1400 000/00 RMK AO2 RAB27 PRESRR T02280222 PNO
53988KBKB BKB20190509064014005/09/19 06:40:31  5-MIN KBKB 091240Z AUTO 00000KT 7SM -TSRA BKN018 BKN025 OVC065 23/22 A2984 370 97 1400 000/00 RMK AO2 RAB27 T02280222 PNO
53988KBKB BKB20190509064514305/09/19 06:45:31  5-MIN KBKB 091245Z AUTO 00000KT 6SM TS BR BKN018 BKN025 OVC065 23/22 A2984 370 97 1400 000/00 RMK AO2 RAB27E41 T02280222 PNO
53988KBKB BKB20190509065013405/09/19 06:50:31  5-MIN KBKB 091250Z AUTO VRB05KT 5SM TS BR BKN014 BKN018 OVC024 22/22 A2984 380 100 1300 VRB/05 RMK AO2 RAB27E41 PNO
53988KBKB BKB20190509065512405/09/19 06:55:31  5-MIN KBKB 091255Z AUTO VRB05KT 6SM BR BKN012 OVC019 21/20 A2983 380 93 1200 VRB/05 RMK AO2 T02110200 PNO
53988KBKB BKB20190509070013405/09/19 07:00:31  5-MIN KBKB 091300Z AUTO 00000KT 10SM -RA BKN012 OVC019 21/19 A2983 380 90 1200 000/00 RMK AO2 RAB1257 T02110194 PNO
53988KBKB BKB20190509070513305/09/19 07:05:31  5-MIN KBKB 091305Z AUTO 00000KT 9SM -RA BKN012 OVC017 21/20 A2983 380 93 1200 000/00 RMK AO2 RAB1257 T02110200 PNO
53988KBKB BKB20190509071013305/09/19 07:10:31  5-MIN KBKB 091310Z AUTO 00000KT 8SM -RA BKN012 OVC019 21/20 A2982 390 97 1200 000/00 RMK AO2 RAB1257 T02060200 PNO
53988KBKB BKB20190509071514005/09/19 07:15:31  5-MIN KBKB 091315Z AUTO 00000KT 7SM -RA BKN012 BKN019 OVC031 21/20 A2982 390 97 1200 000/00 RMK AO2 RAB1257 T02060200 PNO
53988KBKB BKB20190509072014405/09/19 07:20:31  5-MIN KBKB 091320Z AUTO 00000KT 6SM -RA BR FEW012 BKN018 OVC036 21/21 A2982 400 100 1200 000/00 RMK AO2 RAB1257 T02060206 PNO
53988KBKB BKB20190509072514405/09/19 07:25:31  5-MIN KBKB 091325Z AUTO VRB04KT 5SM -RA BR FEW012 BKN027 OVC046 21/21 A2982 390 100 1200 VRB/04 RMK AO2 RAB1257 T02060206 PNO
53988KBKB BKB20190509073014305/09/19 07:30:31  5-MIN KBKB 091330Z AUTO 00000KT 5SM -RA BR SCT017 BKN032 OVC044 21/21 A2981 400 97 1200 000/00 RMK AO2 RAB1257 T02110206 PNO
53988KBKB BKB20190509073514305/09/19 07:35:31  5-MIN KBKB 091335Z AUTO 00000KT 5SM -RA BR FEW019 BKN034 OVC044 21/21 A2982 390 97 1200 000/00 RMK AO2 RAB1257 T02110206 PNO
53988KBKB BKB20190509074014305/09/19 07:40:31  5-MIN KBKB 091340Z AUTO 00000KT 5SM -RA BR FEW021 SCT029 OVC041 21/21 A2982 390 97 1200 000/00 RMK AO2 RAB1257 T02110206 PNO
53988KBKB BKB20190509074514405/09/19 07:45:31  5-MIN KBKB 091345Z AUTO 00000KT 3SM -RA BR FEW019 SCT029 OVC041 21/21 A2983 390 100 1200 000/00 RMK AO2 RAB1257 T02110211 PNO
53988KBKB BKB20190509075013805/09/19 07:50:31  5-MIN KBKB 091350Z AUTO 00000KT 2 1/2SM -RA BR SCT017 BKN028 OVC041 21/21 A2983 380 100 1200 000/00 RMK AO2 RAB1257 PNO
53988KBKB BKB20190509075514005/09/19 07:55:31  5-MIN KBKB 091355Z AUTO 00000KT 2 1/2SM -RA BR SCT017 BKN023 OVC043 21/21 A2983 380 100 1200 000/00 RMK AO2 T02110211 PNO
53988KBKB BKB20190509080013505/09/19 08:00:31  5-MIN KBKB 091400Z AUTO 00000KT 2SM -RA BR FEW017 BKN028 OVC043 22/21 A2984 380 97 1300 000/00 RMK AO2 T02170211 PNO
53988KBKB BKB20190509080513905/09/19 08:05:31  5-MIN KBKB 091405Z AUTO 00000KT 2 1/2SM -RA BR SCT016 SCT026 OVC035 22/21 A2984 380 97 1300 000/00 RMK AO2 T02170211 PNO
53988KBKB BKB20190509081013905/09/19 08:10:31  5-MIN KBKB 091410Z AUTO 00000KT 2 1/2SM -RA BR SCT016 BKN024 OVC035 22/21 A2984 370 97 1300 000/00 RMK AO2 T02170211 PNO
53988KBKB BKB20190509081513805/09/19 08:15:31  5-MIN KBKB 091415Z AUTO VRB03KT 1 3/4SM RA BR SCT016 BKN026 OVC034 22/21 A2983 380 97 1300 VRB/03 RMK AO2 T02170211 PNO
53988KBKB BKB20190509082013905/09/19 08:20:31  5-MIN KBKB 091420Z AUTO 00000KT 1 1/2SM -RA BR FEW014 BKN024 OVC034 22/21 A2983 380 97 1300 000/00 RMK AO2 T02170211 PNO
53988KBKB BKB20190509082513905/09/19 08:25:31  5-MIN KBKB 091425Z AUTO 00000KT 1 3/4SM -RA BR FEW016 BKN022 OVC034 22/21 A2983 390 97 1300 000/00 RMK AO2 T02170211 PNO
53988KBKB BKB20190509083014405/09/19 08:30:31  5-MIN KBKB 091430Z AUTO 00000KT 2SM -TSRA BR FEW006 BKN016 OVC034 22/22 A2982 390 100 1300 000/00 RMK AO2 TSB26 T02170217 PNO
53988KBKB BKB20190509083514805/09/19 08:35:31  5-MIN KBKB 091435Z AUTO 02003KT 1 1/4SM +TSRA BR FEW006 BKN016 OVC034 22/22 A2983 380 100 1300 010/03 RMK AO2 TSB26 T02170217 PNO
53988KBKB BKB20190509084014405/09/19 08:40:31  5-MIN KBKB 091440Z AUTO 00000KT 1SM +TSRA BR FEW006 BKN013 OVC026 22/22 A2983 380 100 1300 000/00 RMK AO2 TSB26 T02170217 PNO
53988KBKB BKB20190509084514605/09/19 08:45:31  5-MIN KBKB 091445Z AUTO 35004KT 3/4SM +TSRA BR BKN009 BKN014 OVC026 22/22 A2984 380 100 1300 340/04 RMK AO2 TSB26 T02170217 PNO
53988KBKB BKB20190509085017205/09/19 08:50:31  5-MIN KBKB 091450Z AUTO 35006KT 1/2SM +TSRA FG FEW003 BKN009 OVC017 22/22 A2985 370 100 1300 350/06 RMK AO2 TSB26 PRESRR SLP134 6//// T02170217 51017 PNO
53988KBKB BKB20190509085514005/09/19 08:55:31  5-MIN KBKB 091455Z AUTO VRB03KT 1/4SM +TSRA FG FEW003 BKN009 OVC017 22/22 A2983 380 100 1300 VRB/03 RMK AO2 T02170217 PNO
53988KBKB BKB20190509090007305/09/19 09:00:31  5-MIN KBKB 091500Z AUTO 00000KT 1/2SM +TSRA FG FEW007 
53988KBKB BKB20190509114013405/09/19 11:40:31  5-MIN KBKB 091740Z AUTO 13004KT 10SM TS FEW004 OVC028 22/21 A2983 380 93 1400 120/04 RMK AO2 TSE22B28 T02220211 PNO
53988KBKB BKB20190509114513405/09/19 11:45:31  5-MIN KBKB 091745Z AUTO 13005KT 10SM TS FEW010 OVC028 22/21 A2984 370 97 1300 120/05 RMK AO2 TSE22B28 T02170211 PNO
53988KBKB BKB20190509115015805/09/19 11:50:31  5-MIN KBKB 091750Z AUTO VRB04KT 10SM TS OVC028 22/21 A2985 370 93 1300 VRB/04 RMK AO2 TSE22B28 SLP133 6//// T02170206 10233 20206 50000 PNO
53988KBKB BKB20190509115513205/09/19 11:55:31  5-MIN KBKB 091755Z AUTO VRB04KT 10SM TS FEW006 OVC029 22/21 A2988 340 93 1200 VRB/04 RMK AO2 PRESRR T02170206 PNO
53988KBKB BKB20190509120012505/09/19 12:00:31  5-MIN KBKB 091800Z AUTO VRB03KT 10SM TS FEW006 OVC029 21/21 A2986 350 97 1200 VRB/03 RMK AO2 T02110206 PNO
53988KBKB BKB20190509120511805/09/19 12:05:31  5-MIN KBKB 091805Z AUTO VRB04KT 10SM TS BKN029 21/21 A2986 350 97 1200 VRB/04 RMK AO2 T02110206 PNO
53988KBKB BKB20190509121010805/09/19 12:10:31  5-MIN KBKB 091810Z AUTO 10SM TS BKN029 21/21 A2986 360 97 1200 M /M RMK AO2 T02110206 PNO
53988KBKB BKB20190509121512505/09/19 12:15:31  5-MIN KBKB 091815Z AUTO 00000KT 10SM TS SCT030 21/20 A2983 380 93 1200 000/00 RMK AO2 PRESFR T02110200 PNO
53988KBKB BKB20190509122012505/09/19 12:20:31  5-MIN KBKB 091820Z AUTO 00000KT 10SM TS SCT030 SCT120 21/21 A2985 370 97 1200 000/00 RMK AO2 T02110206 PNO
53988KBKB BKB20190509122512505/09/19 12:25:31  5-MIN KBKB 091825Z AUTO 00000KT 10SM TS FEW030 FEW120 21/21 A2986 360 97 1200 000/00 RMK AO2 T02110206 PNO
53988KBKB BKB20190509123011805/09/19 12:30:31  5-MIN KBKB 091830Z AUTO 00000KT 10SM TS SCT030 21/21 A2986 360 97 1200 000/00 RMK AO2 T02110206 PNO
53988KBKB BKB20190509123512505/09/19 12:35:31  5-MIN KBKB 091835Z AUTO 00000KT 10SM TS FEW030 SCT080 21/21 A2985 370 97 1200 000/00 RMK AO2 T02110206 PNO
53988KBKB BKB20190509124025005/09/19 12:40:31  5-MIN KBKB 091840Z AUTO 00000KT 10SM -TSRA FEW029 BKN085 21/21 A2984 370 97 1200 000/00 RMK AO2 RAB36 T02110206 PNO0500KT 10SM TS FEW004 1930Z AUTO 00000KT 9SM TS FEW004 21/21 A2982 403 1200 000/00 RMK AO2 RAE17 TSE37 T02110200 PNO
53988KBKB BKB20190509134512705/09/19 13:45:31  5-MIN KBKB 091945Z AUTO 00000KT 10SM FEW004 21/20 A2981 400 93 1200 000/00 RMK AO2 RAE17 TSE37 T02110200 PNO
53988KBKB BKB20190509135012005/09/19 13:50:31  5-MIN KBKB 091950Z AUTO 00000KT 10SM TS CLR 21/20 A2981 400 93 1200 000/00 RMK AO2 RAE17 TSE37B46 PNO
53988KBKB BKB20190509135511505/09/19 13:55:31  5-MIN KBKB 091955Z AUTO 00000KT 10SM TS CLR 21/20 A2981 400 93 1200 000/00 RMK AO2 T02110200 PNO
53988KBKB BKB20190509140011405/09/19 14:00:31  5-MIN KBKB 092000Z AUTO 00000KT 9SM TS CLR 21/21 A2981 400 97 1200 000/00 RMK AO2 T02110206 PNO
53988KBKB BKB20190509140511705/09/19 14:05:31  5-MIN KBKB 092005Z AUTO VRB03KT 9SM CLR 21/21 A2981 400 97 1200 VRB/03 RMK AO2 TSE02 T02110206 PNO
53988KBKB BKB20190509141012405/09/19 14:10:31  5-MIN KBKB 092010Z AUTO 00000KT 10SM TS CLR 21/21 A2982 400 97 1200 000/00 RMK AO2 TSE02B10 T02110206 PNO
53988KBKB BKB20190509141512405/09/19 14:15:31  5-MIN KBKB 092015Z AUTO 00000KT 10SM TS CLR 21/21 A2982 390 97 1200 000/00 RMK AO2 TSE02B10 T02110206 PNO
53988KBKB BKB20190509142012505/09/19 14:20:31  5-MIN KBKB 092020Z AUTO 00000KT 10SM TS CLR 21/21 A2982 390 100 1200 000/00 RMK AO2 TSE02B10 T02110211 PNO
53988KBKB BKB20190509142512405/09/19 14:25:31  5-MIN KBKB 092025Z AUTO 00000KT 10SM TS CLR 21/21 A2982 390 97 1200 000/00 RMK AO2 TSE02B10 T02110206 PNO
53988KBKB BKB20190509143012405/09/19 14:30:31  5-MIN KBKB 092030Z AUTO 00000KT 10SM TS CLR 21/21 A2981 400 97 1200 000/00 RMK AO2 TSE02B10 T02110206 PNO
53988KBKB BKB20190509143512405/09/19 14:35:31  5-MIN KBKB 092035Z AUTO 00000KT 10SM TS CLR 22/21 A2981 400 93 1300 000/00 RMK AO2 TSE02B10 T02170206 PNO
53988KBKB BKB20190509144012405/09/19 14:40:31  5-MIN KBKB 092040Z AUTO 00000KT 10SM CLR 22/21 A2981 400 93 1300 000/00 RMK AO2 TSE02B10E36 T02170206 PNO
53988KBKB BKB20190509144512405/09/19 14:45:31  5-MIN KBKB 092045Z AUTO 00000KT 10SM CLR 22/21 A2981 400 93 1300 000/00 RMK AO2 TSE02B10E36 T02170206 PNO
53988KBKB BKB20190509145014305/09/19 14:50:31  5-MIN KBKB 092050Z AUTO 00000KT 10SM CLR 22/21 A2981 400 90 1400 000/00 RMK AO2 TSE02B10E36 SLP119 6//// T02220206 51013 PNO
53988KBKB BKB20190509145511205/09/19 14:55:31  5-MIN KBKB 092055Z AUTO 00000KT 10SM CLR 23/21 A2981 400 87 1400 000/00 RMK AO2 T02280206 PNO
53988KBKB BKB20190509150011205/09/19 15:00:31  5-MIN KBKB 092100Z AUTO 00000KT 10SM CLR 23/20 A2980 410 84 1500 000/00 RMK AO2 T02280200 PNO
53988KBKB BKB20190509150511205/09/19 15:05:31  5-MIN KBKB 092105Z AUTO 00000KT 10SM CLR 23/19 A2979 420 81 1500 000/00 RMK AO2 T02280194 PNO
53988KBKB BKB20190509151011205/09/19 15:10:31  5-MIN KBKB 092110Z AUTO 00000KT 10SM CLR 22/19 A2979 420 84 1400 000/00 RMK AO2 T02220194 PNO
53988KBKB BKB20190509151511205/09/19 15:15:31  5-MIN KBKB 092115Z AUTO 00000KT 10SM CLR 22/19 A2979 420 84 1400 000/00 RMK AO2 T02220194 PNO
53988KBKB BKB20190509152011205/09/19 15:20:31  5-MIN KBKB 092120Z AUTO 00000KT 10SM CLR 22/20 A2979 420 87 1400 000/00 RMK AO2 T02220200 PNO
53988KBKB BKB20190509152511205/09/19 15:25:31  5-MIN KBKB 092125Z AUTO 00000KT 10SM CLR 22/20 A2979 420 87 1400 000/00 RMK AO2 T02220200 PNO
53988KBKB BKB20190509153011205/09/19 15:30:31  5-MIN KBKB 092130Z AUTO 00000KT 10SM CLR 22/20 A2978 430 87 1400 000/00 RMK AO2 T02220200 PNO
53988KBKB BKB20190509153511205/09/19 15:35:31  5-MIN KBKB 092135Z AUTO 00000KT 10SM CLR 22/21 A2978 430 93 1300 000/00 RMK AO2 T02170206 PNO
53988KBKB BKB20190509154011205/09/19 15:40:31  5-MIN KBKB 092140Z AUTO 00000KT 10SM CLR 22/21 A2978 430 93 1300 000/00 RMK AO2 T02170206 PNO
53988KBKB BKB20190509154511205/09/19 15:45:31  5-MIN KBKB 092145Z AUTO 00000KT 10SM CLR 22/21 A2978 430 93 1300 000/00 RMK AO2 T02170206 PNO
53988KBKB BKB20190509155011905/09/19 15:50:31  5-MIN KBKB 092150Z AUTO 00000KT 10SM CLR 22/21 A2979 420 93 1300 000/00 RMK AO2 SLP112 T02170206 PNO
53988KBKB BKB20190509155511205/09/19 15:55:31  5-MIN KBKB 092155Z AUTO 00000KT 10SM CLR 22/21 A2979 420 93 1300 000/00 RMK AO2 T02170206 PNO
53988KBKB BKB20190509160011205/09/19 16:00:31  5-MIN KBKB 092200Z AUTO 00000KT 10SM CLR 22/21 A2980 410 93 1300 000/00 RMK AO2 T02170206 PNO
53988KBKB BKB20190509160511205/09/19 16:05:31  5-MIN KBKB 092205Z AUTO 00000KT 10SM CLR 22/21 A2980 410 93 1300 000/00 RMK AO2 T02170206 PNO
53988KBKB BKB20190509161011805/09/19 16:10:31  5-MIN KBKB 092210Z AUTO 00000KT 9SM CLR 22/21 A2981 400 97 1300 000/00 RMK AO2 PRESRR T02170211 PNO
53988KBKB BKB20190509161511105/09/19 16:15:31  5-MIN KBKB 092215Z AUTO 12003KT 9SM CLR 22/21 A2981 400 97 1300 120/03 RMK AO2 T02170211 PNO
53988KBKB BKB20190509162011105/09/19 16:20:31  5-MIN KBKB 092220Z AUTO 00000KT 9SM CLR 21/21 A2981 400 97 1200 000/00 RMK AO2 T02110206 PNO
53988KBKB BKB20190509162511205/09/19 16:25:31  5-MIN KBKB 092225Z AUTO VRB03KT 10SM CLR 21/21 A2981 400 97 1200 VRB/03 RMK AO2 T02110206 PNO
53988KBKB BKB20190509163011205/09/19 16:30:31  5-MIN KBKB 092230Z AUTO 00000KT 10SM CLR 22/21 A2982 390 93 1300 000/00 RMK AO2 T02170206 PNO
53988KBKB BKB20190509163511205/09/19 16:35:31  5-MIN KBKB 092235Z AUTO VRB03KT 10SM CLR 21/21 A2982 390 97 1200 VRB/03 RMK AO2 T02110206 PNO
53988KBKB BKB20190509164011205/09/19 16:40:31  5-MIN KBKB 092240Z AUTO 00000KT 10SM CLR 21/20 A2982 390 93 1200 000/00 RMK AO2 T02110200 PNO
53988KBKB BKB20190509164511205/09/19 16:45:31  5-MIN KBKB 092245Z AUTO VRB04KT 10SM CLR 21/20 A2983 380 93 1200 VRB/04 RMK AO2 T02110200 PNO
53988KBKB BKB20190509165010505/09/19 16:50:31  5-MIN KBKB 092250Z AUTO 00000KT 10SM FEW006 21/20 A2983 380 93 1200 000/00 RMK AO2 PNO
53988KBKB BKB20190509165511505/09/19 16:55:31  5-MIN KBKB 092255Z AUTO VRB04KT 10SM FEW006 21/20 A2984 370 97 1100 VRB/04 RMK AO2 T02060200 PNO
53988KBKB BKB20190509170011505/09/19 17:00:31  5-MIN KBKB 092300Z AUTO 12003KT 10SM FEW006 21/19 A2983 380 93 1200 110/03 RMK AO2 T02060194 PNO
53988KBKB BKB20190509170511505/09/19 17:05:31  5-MIN KBKB 092305Z AUTO 00000KT 10SM FEW006 21/19 A2983 380 93 1200 000/00 RMK AO2 T02060194 PNO
53988KBKB BKB20190509171011505/09/19 17:10:31  5-MIN KBKB 092310Z AUTO VRB03KT 10SM FEW006 21/19 A2984 370 93 1100 VRB/03 RMK AO2 T02060194 PNO
53988KBKB BKB20190509171511505/09/19 17:15:31  5-MIN KBKB 092315Z AUTO VRB04KT 10SM FEW006 21/19 A2985 360 93 1100 VRB/04 RMK AO2 T02060194 PNO
53988KBKB BKB20190509172011505/09/19 17:20:31  5-MIN KBKB 092320Z AUTO 14004KT 10SM FEW008 21/19 A2986 360 93 1100 130/04 RMK AO2 T02060194 PNO
53988KBKB BKB20190509172511505/09/19 17:25:31  5-MIN KBKB 092325Z AUTO 00000KT 10SM FEW008 21/19 A2985 360 93 1100 000/00 RMK AO2 T02060194 PNO
53988KBKB BKB20190509173011505/09/19 17:30:31  5-MIN KBKB 092330Z AUTO 00000KT 10SM FEW008 21/19 A2986 360 93 1100 000/00 RMK AO2 T02060194 PNO
53988KBKB BKB20190509173511505/09/19 17:35:31  5-MIN KBKB 092335Z AUTO 00000KT 10SM FEW008 21/19 A2985 360 93 1100 000/00 RMK AO2 T02060194 PNO
53988KBKB BKB20190509174011505/09/19 17:40:31  5-MIN KBKB 092340Z AUTO VRB04KT 10SM FEW008 21/19 A2985 370 93 1100 VRB/04 RMK AO2 T02060194 PNO
53988KBKB BKB20190509174511505/09/19 17:45:31  5-MIN KBKB 092345Z AUTO VRB04KT 10SM FEW008 21/19 A2985 360 93 1100 VRB/04 RMK AO2 T02060194 PNO
53988KBKB BKB20190509175014305/09/19 17:50:31  5-MIN KBKB 092350Z AUTO VRB05KT 10SM CLR 21/19 A2985 360 93 1100 VRB/05 RMK AO2 SLP135 6//// T02060194 10233 20206 56018 PNO
53988KBKB BKB20190509175511205/09/19 17:55:31  5-MIN KBKB 092355Z AUTO 13004KT 10SM CLR 21/19 A2986 360 93 1100 130/04 RMK AO2 T02060194 PNO
53988KBKB BKB20190509180011205/09/19 18:00:31  5-MIN KBKB 100000Z AUTO 00000KT 10SM CLR 21/19 A2985 360 93 1100 000/00 RMK AO2 T02060194 PNO
53988KBKB BKB20190509180511205/09/19 18:05:31  5-MIN KBKB 100005Z AUTO VRB03KT 10SM CLR 21/19 A2986 350 93 1100 VRB/03 RMK AO2 T02060194 PNO
53988KBKB BKB20190509181011505/09/19 18:10:31  5-MIN KBKB 100010Z AUTO 00000KT 10SM FEW008 21/19 A2986 350 93 1100 000/00 RMK AO2 T02060194 PNO
53988KBKB BKB20190509181511505/09/19 18:15:31  5-MIN KBKB 100015Z AUTO 00000KT 10SM SCT008 21/19 A2986 350 93 1100 000/00 RMK AO2 T02060194 PNO
53988KBKB BKB20190509182011505/09/19 18:20:31  5-MIN KBKB 100020Z AUTO 00000KT 10SM BKN008 21/19 A2987 350 93 1100 000/00 RMK AO2 T02060194 PNO
53988KBKB BKB20190509182511505/09/19 18:25:31  5-MIN KBKB 100025Z AUTO 00000KT 10SM BKN008 21/20 A2986 350 97 1100 000/00 RMK AO2 T02060200 PNO
53988KBKB BKB20190509183011505/09/19 18:30:31  5-MIN KBKB 100030Z AUTO VRB03KT 10SM BKN008 21/20 A2985 360 97 1100 VRB/03 RMK AO2 T02060200 PNO
53988KBKB BKB20190509183511505/09/19 18:35:31  5-MIN KBKB 100035Z AUTO 11003KT 10SM BKN008 21/20 A2984 370 97 1100 100/03 RMK AO2 T02060200 PNO
53988KBKB BKB20190509184012205/09/19 18:40:31  5-MIN KBKB 100040Z AUTO 00000KT 10SM SCT008 20/19 A2984 380 97 1100 000/00 RMK AO2 PRESFR T02000194 PNO
53988KBKB BKB20190509184511505/09/19 18:45:31  5-MIN KBKB 100045Z AUTO VRB04KT 10SM FEW008 20/19 A2983 380 97 1100 VRB/04 RMK AO2 T02000194 PNO
53988KBKB BKB20190509185012205/09/19 18:50:31  5-MIN KBKB 100050Z AUTO 00000KT 10SM SCT007 20/19 A2983 380 97 1100 000/00 RMK AO2 SLP126 T02000194 PNO
53988KBKB BKB20190509185511505/09/19 18:55:31  5-MIN KBKB 100055Z AUTO 00000KT 10SM SCT007 20/19 A2983 390 97 1100 000/00 RMK AO2 T02000194 PNO
53988KBKB BKB20190509190011505/09/19 19:00:31  5-MIN KBKB 100100Z AUTO VRB03KT 10SM BKN005 21/20 A2984 370 97 1100 VRB/03 RMK AO2 T02060200 PNO
53988KBKB BKB20190509190512205/09/19 19:05:31  5-MIN KBKB 100105Z AUTO 32003KT 10SM BKN005 21/20 A2986 360 97 1100 320/03 RMK AO2 PRESRR T02060200 PNO
53988KBKB BKB20190509191011405/09/19 19:10:31  5-MIN KBKB 100110Z AUTO 00000KT 9SM BKN005 21/20 A2986 350 97 1100 000/00 RMK AO2 T02060200 PNO
53988KBKB BKB20190509191511405/09/19 19:15:31  5-MIN KBKB 100115Z AUTO 00000KT 8SM OVC004 21/20 A2986 350 97 1100 000/00 RMK AO2 T02060200 PNO
53988KBKB BKB20190509192011405/09/19 19:20:31  5-MIN KBKB 100120Z AUTO 00000KT 9SM OVC004 21/20 A2986 350 97 1100 000/00 RMK AO2 T02060200 PNO
53988KBKB BKB20190509192511405/09/19 19:25:31  5-MIN KBKB 100125Z AUTO 00000KT 8SM OVC004 21/20 A2987 350 97 1100 000/00 RMK AO2 T02060200 PNO
53988KBKB BKB20190509193012605/09/19 19:30:31  5-MIN KBKB 100130Z AUTO 00000KT 8SM OVC004 21/20 A2986 350 97 1100 000/00 RMK AO2 CIG 004V007 T02060200 PNO
53988KBKB BKB20190509193512605/09/19 19:35:31  5-MIN KBKB 100135Z AUTO 00000KT 8SM OVC004 21/20 A2986 360 97 1100 000/00 RMK AO2 CIG 004V007 T02060200 PNO
53988KBKB BKB20190509194011405/09/19 19:40:31  5-MIN KBKB 100140Z AUTO 00000KT 8SM BKN004 21/20 A2986 360 97 1100 000/00 RMK AO2 T02060200 PNO
53988KBKB BKB20190509194511505/09/19 19:45:31  5-MIN KBKB 100145Z AUTO 00000KT 7SM SCT004 20/20 A2986 350 100 1100 000/00 RMK AO2 T02000200 PNO
53988KBKB BKB20190509195010505/09/19 19:50:31  5-MIN KBKB 100150Z AUTO 00000KT 7SM SCT004 20/20 A2987 340 100 1000 000/00 RMK AO2 PNO
53988KBKB BKB20190509195512505/09/19 19:55:31  5-MIN KBKB 100155Z AUTO 00000KT 6SM BR FEW006 20/20 A2988 330 100 1000 000/00 RMK AO2 PRESRR T02000200 PNO
53988KBKB BKB20190509200011805/09/19 20:00:31  5-MIN KBKB 100200Z AUTO 00000KT 6SM BR FEW006 20/20 A2988 330 100 1000 000/00 RMK AO2 T02000200 PNO
53988KBKB BKB20190509200511505/09/19 20:05:31  5-MIN KBKB 100205Z AUTO 00000KT 5SM BR CLR 20/20 A2989 330 100 1000 000/00 RMK AO2 T02000200 PNO
53988KBKB BKB20190509201011505/09/19 20:10:31  5-MIN KBKB 100210Z AUTO 00000KT 4SM BR CLR 20/20 A2989 330 100 1000 000/00 RMK AO2 T02000200 PNO
53988KBKB BKB20190509201511405/09/19 20:15:31  5-MIN KBKB 100215Z AUTO 00000KT 3SM BR CLR 20/19 A2989 330 97 1000 000/00 RMK AO2 T02000194 PNO
53988KBKB BKB20190509202011805/09/19 20:20:31  5-MIN KBKB 100220Z AUTO 00000KT 4SM BR FEW003 20/20 A2990 320 100 1000 000/00 RMK AO2 T02000200 PNO
53988KBKB BKB20190509202511805/09/19 20:25:31  5-MIN KBKB 100225Z AUTO 00000KT 5SM BR FEW003 20/20 A2990 320 100 1000 000/00 RMK AO2 T02000200 PNO
53988KBKB BKB20190509203011505/09/19 20:30:31  5-MIN KBKB 100230Z AUTO 00000KT 5SM BR CLR 20/20 A2989 320 100 1000 000/00 RMK AO2 T02000200 PNO
53988KBKB BKB20190509203511505/09/19 20:35:31  5-MIN KBKB 100235Z AUTO 00000KT 5SM BR CLR 20/20 A2990 320 100 1000 000/00 RMK AO2 T02000200 PNO
53988KBKB BKB20190509204011505/09/19 20:40:31  5-MIN KBKB 100240Z AUTO 00000KT 5SM BR CLR 20/20 A2990 320 100 1000 000/00 RMK AO2 T02000200 PNO
53988KBKB BKB20190509204511505/09/19 20:45:31  5-MIN KBKB 100245Z AUTO 00000KT 6SM BR CLR 20/20 A2990 320 100 1000 000/00 RMK AO2 T02000200 PNO
53988KBKB BKB20190509205013405/09/19 20:50:31  5-MIN KBKB 100250Z AUTO 00000KT 6SM BR CLR 20/20 A2990 310 100 1000 000/00 RMK AO2 SLP152 6//// T02000200 51022 PNO
53988KBKB BKB20190509205511805/09/19 20:55:31  5-MIN KBKB 100255Z AUTO 00000KT 6SM BR FEW003 20/20 A2991 310 100 1000 000/00 RMK AO2 T02000200 PNO
53988KBKB BKB20190509210011805/09/19 21:00:31  5-MIN KBKB 100300Z AUTO 00000KT 6SM BR SCT003 20/20 A2992 300 100 1000 000/00 RMK AO2 T02000200 PNO
53988KBKB BKB20190509210513005/09/19 21:05:31  5-MIN KBKB 100305Z AUTO 00000KT 6SM BR BKN003 20/20 A2992 300 100 1000 000/00 RMK AO2 CIG 002V006 T02000200 PNO
53988KBKB BKB20190509211013905/09/19 21:10:31  5-MIN KBKB 100310Z AUTO 00000KT 6SM -RA BR BKN004 21/20 A2992 300 97 1100 000/00 RMK AO2 RAB07 CIG 002V006 T02060200 PNO
53988KBKB BKB20190509211513905/09/19 21:15:31  5-MIN KBKB 100315Z AUTO 00000KT 6SM -RA BR BKN004 21/20 A2992 300 97 1100 000/00 RMK AO2 RAB07 CIG 002V008 T02060200 PNO
53988KBKB BKB20190509212013905/09/19 21:20:31  5-MIN KBKB 100320Z AUTO 00000KT 6SM -RA BR OVC004 21/20 A2992 300 97 1100 000/00 RMK AO2 RAB07 CIG 003V008 T02060200 PNO
53988KBKB BKB20190509212513905/09/19 21:25:31  5-MIN KBKB 100325Z AUTO 00000KT 6SM -RA BR OVC006 21/20 A2992 300 97 1100 000/00 RMK AO2 RAB07 CIG 003V008 T02060200 PNO
53988KBKB BKB20190509213013605/09/19 21:30:31  5-MIN KBKB 100330Z AUTO 00000KT 7SM -RA OVC006 21/20 A2992 300 97 1100 000/00 RMK AO2 RAB07 CIG 003V008 T02060200 PNO
53988KBKB BKB20190509213513505/09/19 21:35:31  5-MIN KBKB 100335Z AUTO 00000KT 8SM OVC006 21/20 A2992 300 97 1100 000/00 RMK AO2 RAB07E33 CIG 003V010 T02060200 PNO
53988KBKB BKB20190509214013505/09/19 21:40:31  5-MIN KBKB 100340Z AUTO 00000KT 7SM OVC006 21/20 A2992 300 97 1100 000/00 RMK AO2 RAB07E33 CIG 003V010 T02060200 PNO
53988KBKB BKB20190509214514205/09/19 21:45:31  5-MIN KBKB 100345Z AUTO 00000KT 7SM BKN006 OVC010 21/20 A2993 290 97 1000 000/00 RMK AO2 RAB07E33 CIG 003V008 T02060200 PNO
53988KBKB BKB20190509215014205/09/19 21:50:31  5-MIN KBKB 100350Z AUTO 00000KT 7SM OVC008 21/20 A2993 290 97 1000 000/00 RMK AO2 RAB07E33 CIG 004V011 SLP160 T02060200 PNO
53988KBKB BKB20190509215513905/09/19 21:55:31  5-MIN KBKB 100355Z AUTO VRB03KT 5SM -RA BR OVC008 21/20 A2992 300 97 1100 VRB/03 RMK AO2 RAB55 CIG 005V011 T02060200 PNO
53988KBKB BKB20190509220014605/09/19 22:00:31  5-MIN KBKB 100400Z AUTO 00000KT 4SM -TSRA BR BKN008 OVC100 21/20 A2993 290 97 1000 000/00 RMK AO2 RAB0355 TSB0356 T02060200 PNO
53988KBKB BKB20190509220514505/09/19 22:05:31  5-MIN KBKB 100405Z AUTO 00000KT 4SM TSRA BR FEW004 OVC008 21/20 A2993 290 97 1000 000/00 RMK AO2 RAB0355 TSB0356 T02060200 PNO
53988KBKB BKB20190509221006605/09/19 22:10:31  5-MIN KBKB 100410Z AUTO 00000KT 3SM -TS0200 PNO
53988KBKB BKB20190509222015705/09/19 22:20:31  5-MIN KBKB 100420Z AUTO VRB03KT 3SM -TSRA BR FEW002 BKN009 OVC110 20/20 A2990 320 100 1000 VRB/03 RMK AO2 RAB0355 TSB0356B06 T02000200 PNO
53988KBKB BKB20190509222515805/09/19 22:25:31  5-MIN KBKB 100425Z AUTO 14003KT 4SM -RA BR SCT002 BKN009 BKN023 20/20 A2991 310 100 1000 130/03 RMK AO2 RAB0355 TSB0356B06E22 T02000200 PNO
53988KBKB BKB20190509223016805/09/19 22:30:31  5-MIN KBKB 100430Z AUTO VRB03KT 5SM -RBKB 100505Z AUTO 00000KT 5SM -TSRA BR FEW005 BKN110 20/20 A2991 310 100 1000 000/00 RMK AO2 RAB02 T02000200 PNO
53988KBKB BKB20190509224015105/09/19 22:40:31  5-MIN KBKB 100440Z AUTO 00000KT 5SM -RA BR SCT004 SCT100 20/20 A2992 300 100 1000 000/00 RMK AO2 RAB0355 TSB0356B06E22 T02000200 PNO
53988KBKB BKB20190509224515005/09/19 22:45:31  5-MIN KBKB 100445Z AUTO 00000KT 6SM BR FEW003 SCT110 20/20 A2992 300 100 1000 000/00 RMK AO2 RAB0355E43 TSB0356B06E22 T02000200 PNO
53988KBKB BKB20190509225014605/09/19 22:50:31  5-MIN KBKB 100450Z AUTO 00000KT 6SM TS BR SCT003 BKN110 20/20 A2992 300 100 1000 000/00 RMK AO2 RAB0355E43 TSB0356B06E22B49 PNO
53988KBKB BKB20190509225512805/09/19 22:55:31  5-MIN KBKB 100455Z AUTO 00000KT 5SM TS BR SCT005 BKN110 20/20 A2992 300 100 1000 000/00 RMK AO2 T02000200 PNO
53988KBKB BKB20190509230012805/09/19 23:00:31  5-MIN KBKB 100500Z AUTO VRB03KT 4SM TS BR FEW005 BKN110 20/20 A2991 310 100 1000 VRB/03 RMK AO2 T02000200 PNO
53988KBKB BKB20190509230513705/09/19 23:05:31  5-MIN KBKB 100505Z AUTO 00000KT 5SM -TSRA BR FEW005 BKN110 20/20 A2991 310 100 1000 000/00 RMK AO2 RAB02 T02000200 PNO
53988KBKB BKB20190509231013705/09/19 23:10:31  5-MIN KBKB 100510Z AUTO 00000KT 5SM -TSRA BR FEW005 BKN110 20/20 A2990 310 100 1000 000/00 RMK AO2 RAB02 T02000200 PNO
53988KBKB BKB20190509231513705/09/19 23:15:31  5-MIN KBKB 100515Z AUTO VRB03KT 5SM TS BR FEW005 BKN110 20/20 A2990 310 100 1000 VRB/03 RMK AO2 RAB02E15 T02000200 PNO
53988KBKB BKB20190509232013005/09/19 23:20:31  5-MIN KBKB 100520Z AUTO VRB04KT 6SM -TSRA BR BKN110 20/20 A2990 320 100 1000 VRB/04 RMK AO2 RAB02 T02000200 PNO
53988KBKB BKB20190509232512705/09/19 23:25:31  5-MIN KBKB 100525Z AUTO VRB03KT 7SM -TSRA BKN110 20/20 A2990 320 100 1000 VRB/03 RMK AO2 RAB02 T02000200 PNO
53988KBKB BKB20190509233012705/09/19 23:30:31  5-MIN KBKB 100530Z AUTO 11004KT 7SM -TSRA BKN110 20/20 A2989 320 100 1000 110/04 RMK AO2 RAB02 T02000200 PNO
53988KBKB BKB20190509233512705/09/19 23:35:31  5-MIN KBKB 100535Z AUTO 00000KT 7SM -TSRA BKN120 20/20 A2989 330 100 1000 000/00 RMK AO2 RAB02 T02000200 PNO
53988KBKB BKB20190509234012705/09/19 23:40:31  5-MIN KBKB 100540Z AUTO 00000KT 8SM -TSRA BKN120 20/20 A2989 330 100 1000 000/00 RMK AO2 RAB02 T02000200 PNO
53988KBKB BKB20190509234512705/09/19 23:45:31  5-MIN KBKB 100545Z AUTO 00000KT 8SM -TSRA BKN120 20/20 A2990 320 100 1000 000/00 RMK AO2 RAB02 T02000200 PNO
53988KBKB BKB20190509235017105/09/19 23:50:31  5-MIN KBKB 100550Z AUTO 35004KT 5SM -TSRA BR BKN120 20/20 A2990 320 100 1000 340/04 RMK AO2 RAB02 SLP150 6//// T02000200 10206 20200 402440200 51028 PNO
53988KBKB BKB20190509235512405/09/19 23:55:31  5-MIN KBKB 100555Z AUTO 00000KT 3SM -TSRA BR OVC120 20/20 A2989 320 100 1000 000/00 RMK AO2 T02000200 PNO
53988KBKB BKB20190510000013005/10/19 00:00:31  5-MIN KBKB 100600Z AUTO VRB03KT 3SM TSRA BR FEW100 BKN120 20/20 A2990 320 100 1000 VRB/03 RMK AO2 T02000200 PNO
53988KBKB BKB20190510000513105/10/19 00:05:31  5-MIN KBKB 100605Z AUTO 00000KT 4SM -TSRA BR SCT100 BKN120 20/20 A2991 310 100 1000 000/00 RMK AO2 T02000200 PNO
53988KBKB BKB20190510001013005/10/19 00:10:31  5-MIN KBKB 100610Z AUTO 00000KT 4SM TSRA BR BKN095 OVC120 20/20 A2990 310 100 1000 000/00 RMK AO2 T02000200 PNO
53988KBKB BKB20190510001513105/10/19 00:15:31  5-MIN KBKB 100615Z AUTO 00000KT 3SM -TSRA BR BKN090 OVC110 20/20 A2991 310 100 1000 000/00 RMK AO2 T02000200 PNO
53988KBKB BKB20190510002013105/10/19 00:20:31  5-MIN KBKB 100620Z AUTO VRB03KT 3SM -TSRA BR BKN090 OVC110 20/20 A2991 310 100 1000 VRB/03 RMK AO2 T02000200 PNO
53988KBKB BKB20190510002513805/10/19 00:25:31  5-MIN KBKB 100625Z AUTO 00000KT 3SM -TSRA BR FEW065 BKN090 OVC110 20/20 A2991 310 100 1000 000/00 RMK AO2 T02000200 PNO
53988KBKB BKB20190510003013805/10/19 00:30:31  5-MIN KBKB 100630Z AUTO 00000KT 3SM -TSRA BR FEW013 SCT065 OVC090 20/20 A2992 300 100 1000 000/00 RMK AO2 T02000200 PNO
53988KBKB BKB20190510003514105/10/19 00:35:31  5-MIN KBKB 100635Z AUTO 00000KT 2 1/2SM TSRA BR FEW011 BKN080 OVC100 20/20 A2993 290 100 1000 000/00 RMK AO2 T02000200 PNO
53988KBKB BKB20190510004013705/10/19 00:40:31  5-MIN KBKB 100640Z AUTO 00000KT 3SM TSRA BR FEW003 BKN080 OVC095 20/20 A2992 300 100 1000 000/00 RMK AO2 T02000200 PNO
53988KBKB BKB20190510004513705/10/19 00:45:31  5-MIN KBKB 100645Z AUTO VRB03KT 3SM TSRA BR FEW009 FEW065 OVC095 20/20 A2992 300 100 1000 VRB/03 RMK AO2 T02000200 PNO
53988KBKB BKB20190510005013505/10/19 00:50:31  5-MIN KBKB 100650Z AUTO 00000KT 2 1/2SM RA BR FEW007 FEW060 OVC090 20/20 A2993 290 100 1000 000/00 RMK AO2 TSE47 PNO
53988KBKB BKB20190510005513905/10/19 00:55:31  5-MIN KBKB 100655Z AUTO 00000KT 2 1/2SM RA BR FEW020 FEW060 OVC090 20/20 A2993 290 100 1000 000/00 RMK AO2 T02000200 PNO
53988KBKB BKB20190510010014305/10/19 01:00:31  5-MIN KBKB 100700Z AUTO 00000KT 2 1/2SM -TSRA BR FEW017 OVC090 20/20 A2994 280 100 1000 000/00 RMK AO2 TSB0656 T02000200 PNO
53988KBKB BKB20190510010514205/10/19 01:05:31  5-MIN KBKB 100705Z AUTO 00000KT 2 1/2SM TSRA BR BKN095 OVC110 20/20 A2993 290 100 1000 000/00 RMK AO2 TSB0656 T02000200 PNO
53988KBKB BKB20190510011014205/10/19 01:10:31  5-MIN KBKB 100710Z AUTO 00000KT 2 1/2SM TSRA BR BKN090 OVC110 20/20 A2993 290 100 1000 000/00 RMK AO2 TSB0656 T02000200 PNO
53988KBKB BKB20190510011514505/10/19 01:15:31  5-MIN KBKB 100715Z AUTO 00000KT 3SM TSRA BR FEW022 SCT080 OVC095 20/20 A2993 290 100 1000 000/00 RMK AO2 TSB0656 T02000200 PNO
53988KBKB BKB20190510012014505/10/19 01:20:31  5-MIN KBKB 100720Z AUTO 00000KT 2SM TSRA BR FEW022 BKN095 OVC110 20/20 A2993 290 100 1000 000/00 RMK AO2 TSB0656 T02000200 PNO
53988KBKB BKB20190510012514905/10/19 01:25:31  5-MIN KBKB 100725Z AUTO 00000KT 1 1/2SM TSRA BR FEW013 BKN075 OVC110 20/20 A2994 280 100 1000 000/00 RMK AO2 TSB0656 T02000200 PNO
53988KBKB BKB20190510013014905/10/19 01:30:31  5-MIN KBKB 100730Z AUTO VRB03KT 1 3/4SM TSRA BR FEW004 BKN075 OVC110 20/20 A2993 290 100 1000 VRB/03 RMK AO2 TSB0656 T02000200 PNO
53988KBKB BKB20190510013514905/10/19 01:35:31  5-MIN KBKB 100735Z AUTO 00000KT 2 1/2SM TSRA BR SCT004 BKN080 OVC095 20/20 A2993 290 100 1000 000/00 RMK AO2 TSB0656 T02000200 PNO
53988KBKB BKB20190510014014905/10/19 01:40:31  5-MIN KBKB 100740Z AUTO 00000KT 2 1/2SM TSRA BR FEW003 BKN080 OVC095 20/20 A2993 290 100 1000 000/00 RMK AO2 TSB0656 T02000200 PNO
53988KBKB BKB20190510014515005/10/19 01:45:31  5-MIN KBKB 100745Z AUTO VRB03KT 2 1/2SM -TSRA BR SCT003 BKN080 OVC095 20/20 A2993 290 100 1000 VRB/03 RMK AO2 TSB0656 T02000200 PNO
53988KBKB BKB20190510015013605/10/19 01:50:31  5-MIN KBKB 100750Z AUTO 23004KT 3SM -TSRA BR BKN003 BKN029 OVC095 20/20 A2993 290 100 1000 230/04 RMK AO2 TSB0656 PNO
53988KBKB BKB20190510015513005/10/19 01:55:31  5-MIN KBKB 100755Z AUTO VRB03KT 3SM TSRA BR BKN002 OVC095 20/20 A2993 290 100 1000 VRB/03 RMK AO2 T02000200 PNO
53988KBKB BKB20190510020014505/10/19 02:00:31  5-MIN KBKB 100800Z AUTO 00000KT 3SM -TSRA BR BKN002 BKN090 OVC110 20/20 A2991 310 100 1000 000/00 RMK AO2 PRESFR T02000200 PNO
53988KBKB BKB20190510020513805/10/19 02:05:31  5-MIN KBKB 100805Z AUTO 00000KT 3SM -TSRA BR SCT002 BKN080 OVC100 20/20 A2992 300 100 1000 000/00 RMK AO2 T02000200 PNO
53988KBKB BKB20190510021013105/10/19 02:10:31  5-MIN KBKB 100810Z AUTO 00000KT 3SM -TSRA BR SCT002 OVC085 20/20 A2991 310 100 1000 000/00 RMK AO2 T02000200 PNO
53988KBKB BKB20190510021513705/10/19 02:15:31  5-MIN KBKB 100815Z AUTO 00000KT 2SM TSRA BR FEW002 SCT060 OVC085 20/20 A2991 310 100 1000 000/00 RMK AO2 T02000200 PNO
53988KBKB BKB20190510022014105/10/19 02:20:31  5-MIN KBKB 100820Z AUTO 00000KT 1 1/4SM TSRA BR FEW002 BKN065 OVC085 20/20 A2991 310 100 1000 000/00 RMK AO2 T02000200 PNO
53988KBKB BKB20190510022514105/10/19 02:25:31  5-MIN KBKB 100825Z AUTO VRB03KT 1 1/2SM TSRA BR FEW003 BKN070 OVC090 20/20 A2991 310 100 1000 VRB/03 RMK AO2 T02000200 PNO
53988KBKB BKB20190510023014205/10/19 02:30:31  5-MIN KBKB 100830Z AUTO VRB03KT 2 1/2SM -TSRA BR SCT003 BKN070 OVC100 20/20 A2992 290 100 1000 VRB/03 RMK AO2 T02000200 PNO
53988KBKB BKB20190510023514505/10/19 02:35:31  5-MIN KBKB 100835Z AUTO 00000KT 3SM -TSRA BR FEW002 BKN060 OVC100 20/20 A2994 280 100 1000 000/00 RMK AO2 PRESRR T02000200 PNO
53988KBKB BKB20190510024014405/10/19 02:40:31  5-MIN KBKB 100840Z AUTO 00000KT 3SM TSRA BR FEW002 BKN080 OVC100 20/20 A2995 270 100 1000 000/00 RMK AO2 PRESRR T02000200 PNO
53988KBKB BKB20190510024513705/10/19 02:45:31  5-MIN KBKB 100845Z AUTO 00000KT 3SM TSRA BR FEW002 BKN085 OVC100 20/20 A2994 280 100 1000 000/00 RMK AO2 T02000200 PNO
53988KBKB BKB20190510025013105/10/19 02:50:31  5-MIN KBKB 100850Z AUTO 00000KT 2 1/2SM TSRA BR FEW002 BKN065 OVC100 20/20 A2993 290 100 1000 000/00 RMK AO2 PNO
53988KBKB BKB20190510025514105/10/19 02:55:31  5-MIN KBKB 100855Z AUTO 00000KT 2 1/2SM TSRA BR SCT070 BKN080 OVC100 20/20 A2993 290 100 1000 000/00 RMK AO2 T02000200 PNO
53988KBKB BKB20190510030016105/10/19 03:00:31  5-MIN KBKB 100900Z AUTO 33003KT 2 1/2SM -TSRA BR FEW070 BKN085 OVC100 20/20 A2992 300 100 1000 330/03 RMK AO2 VIS 1 1/2V4 PRESFR T02000200 PNO
53988KBKB BKB20190510030513105/10/19 03:05:31  5-MIN KBKB 100905Z AUTO VRB03KT 3SM -TSRA BR FEW070 OVC085 20/20 A2993 290 100 1000 VRB/03 RMK AO2 T02000200 PNO
53988KBKB BKB20190510031013105/10/19 03:10:31  5-MIN KBKB 100910Z AUTO 00000KT 5SM -TSRA BR SCT070 OVC085 20/20 A2995 270 100 1000 000/00 RMK AO2 T02000200 PNO
53988KBKB BKB20190510031513605/10/19 03:15:31  5-MIN KBKB 100915Z AUTO 00000KT 4SM TSRA BR BKN075 OVC100 20/20 A2996 260 100 900 000/00 RMK AO2 PRESRR T02000200 PNO
53988KBKB BKB20190510032012905/10/19 03:20:31  5-MIN KBKB 100920Z AUTO 00000KT 2SM TSRA BR BKN080 OVC100 20/20 A2997 260 100 900 000/00 RMK AO2 T02000200 PNO
53988KBKB BKB20190510032513905/10/19 03:25:31  5-MIN KBKB 100925Z AUTO 00000KT 1 3/4SM TSRA BR BKN080 OVC100 20/20 A2997 260 100 900 000/00 RMK AO2 TSB22 T02000200 PNO
53988KBKB BKB20190510033013505/10/19 03:30:31  5-MIN KBKB 100930Z AUTO 00000KT 2SM TSRA BR BKN080 OVC110 20/20 A2997 250 100 900 000/00 RMK AO2 TSB22 T02000200 PNO
53988KBKB BKB20190510033514205/10/19 03:35:31  5-MIN KBKB 100935Z AUTO 21003KT 2SM TSRA BR BKN085 OVC110 20/20 A2999 240 100 900 200/03 RMK AO2 TSB22 PRESRR T02000200 PNO
53988KBKB BKB20190510034013605/10/19 03:40:31  5-MIN KBKB 100940Z AUTO 00000KT 3SM -TSRA BR BKN090 OVC100 20/20 A2998 240 100 900 000/00 RMK AO2 TSB22 T02000200 PNO
53988KBKB BKB20190510034513505/10/19 03:45:31  5-MIN KBKB 100945Z AUTO 00000KT 3SM TSRA BR BKN080 OVC100 20/20 A2997 250 100 900 000/00 RMK AO2 TSB22 T02000200 PNO
53988KBKB BKB20190510035014205/10/19 03:50:31  5-MIN KBKB 100950Z AUTO 00000KT 3SM TSRA BR BKN075 OVC100 20/20 A2997 250 100 900 000/00 RMK AO2 TSB22 SLP175 T02000200 PNO
53988KBKB BKB20190510035513005/10/19 03:55:31  5-MIN KBKB 100955Z AUTO 00000KT 4SM -TSRA BR BKN080 OVC100 20/20 A2996 260 100 900 000/00 RMK AO2 T02000200 PNO
53988KBKB BKB20190510040013005/10/19 04:00:31  5-MIN KBKB 101000Z AUTO 00000KT 3SM -TSRA BR BKN075 OVC100 20/20 A2996 260 100 900 000/00 RMK AO2 T02000200 PNO
53988KBKB BKB20190510040512905/10/19 04:05:31  5-MIN KBKB 101005Z AUTO 00000KT 3SM TSRA BR BKN070 OVC085 20/20 A2997 250 100 900 000/00 RMK AO2 T02000200 PNO
53988KBKB BKB20190510041013305/10/19 04:10:31  5-MIN KBKB 101010Z AUTO 00000KT 2 1/2SM TSRA BR BKN075 OVC090 20/20 A2998 250 100 900 000/00 RMK AO2 T02000200 PNO
53988KBKB BKB20190510041513205/10/19 04:15:31  5-MIN KBKB 101015Z AUTO 00000KT 1 3/4SM TSRA BR BKN070 OVC085 20/19 A2998 240 97 900 000/00 RMK AO2 T02000194 PNO
53988KBKB BKB20190510042012805/10/19 04:20:31  5-MIN KBKB 101020Z AUTO 00000KT 2SM TSRA BR BKN070 OVC085 20/19 A2998 240 97 900 000/00 RMK AO2 T02000194 PNO
53988KBKB BKB20190510042513805/10/19 04:25:31  5-MIN KBKB 101025Z AUTO 00000KT 2SM VCTS RA BR BKN070 OVC085 19/19 A2998 240 100 900 000/00 RMK AO2 TSE21 T01940194 PNO
53988KBKB BKB20190510043013405/10/19 04:30:31  5-MIN KBKB 101030Z AUTO 00000KT 2SM +RA BR BKN070 OVC090 19/19 A2999 240 100 900 000/00 RMK AO2 TSE21 T01940194 PNO
53988KBKB BKB20190510043513705/10/19 04:35:31  5-MIN KBKB 101035Z AUTO 00000KT 1 3/4SM RA BR BKN075 OVC090 19/19 A2998 240 100 900 000/00 RMK AO2 TSE21 T01940194 PNO
53988KBKB BKB20190510044013705/10/19 04:40:31  5-MIN KBKB 101040Z AUTO 00000KT 1 3/4SM RA BR BKN070 OVC090 19/19 A2999 240 100 900 000/00 RMK AO2 TSE21 T01940194 PNO
53988KBKB BKB20190510044514205/10/19 04:45:31  5-MIN KBKB 101045Z AUTO 00000KT 1 3/4SM TSRA BR BKN070 OVC095 19/19 A2999 240 100 900 000/00 RMK AO2 TSE21B43 T01940194 PNO
53988KBKB BKB20190510045014505/10/19 04:50:31  5-MIN KBKB 101050Z AUTO 00000KT 2SM TSRA BR BKN075 OVC095 19/19 A2998 240 100 900 000/00 RMK AO2 TSE21B43 SLP180 T01940194 PNO
53988KBKB BKB20190510045512105/10/19 04:55:31  5-MIN KBKB 101055Z AUTO 00000KT 2SM TSRA BR OVC075 19/19 A2997 250 97 900 000/00 RMK AO2 T01940189 PNO
53988KBKB BKB20190510050013705/10/19 05:00:31  5-MIN KBKB 101100Z AUTO VRB03KT 2SM +TSRA BR BKN070 OVC080 19/19 A2997 260 100 800 VRB/03 RMK AO2 PRESFR T01890189 PNO
53988KBKB BKB20190510050513305/10/19 05:05:31  5-MIN KBKB 101105Z AUTO VRB03KT 2 1/2SM TSRA BR BKN070 OVC080 19/19 A2996 260 100 800 VRB/03 RMK AO2 T01890189 PNO
53988KBKB BKB20190510051013305/10/19 05:10:31  5-MIN KBKB 101110Z AUTO VRB03KT 3SM RA BR BKN070 OVC085 19/19 A2996 260 100 800 VRB/03 RMK AO2 TSE07 T01890189 PNO
53988KBKB BKB20190510051514705/10/19 05:15:31  5-MIN KBKB 101115Z AUTO 00000KT 4SM RA BR BKN070 BKN080 OVC100 18/18 A2995 270 100 800 000/00 RMK AO2 TSE07 PRESFR T01830183 PNO
53988KBKB BKB20190510052014005/10/19 05:20:31  5-MIN KBKB 101120Z AUTO VRB03KT 4SM RA BR BKN070 OVC090 18/18 A2994 280 100 800 VRB/03 RMK AO2 TSE07 PRESFR T01830183 PNO
53988KBKB BKB20190510052514005/10/19 05:25:31  5-MIN KBKB 101125Z AUTO VRB03KT 5SM RA BR SCT070 BKN085 OVC110 18/18 A2994 280 100 800 VRB/03 RMK AO2 TSE07 T01830183 PNO
53988KBKB BKB20190510053013305/10/19 05:30:31  5-MIN KBKB 101130Z AUTO VRB04KT 5SM RA BR FEW070 OVC090 18/18 A2994 280 100 800 VRB/04 RMK AO2 TSE07 T01830183 PNO
53988KBKB BKB20190510053514005/10/19 05:35:31  5-MIN KBKB 101135Z AUTO VRB03KT 5SM RA BR FEW065 BKN095 OVC110 18/18 A2994 280 100 800 VRB/03 RMK AO2 TSE07 T01830183 PNO
53988KBKB BKB20190510054021205/10/19 05:40:31  5-MIN KBKB 101140Z AUTO VRB03KT 5SM TSRA BR BKN095 OVC110 18/18 A2994 280 100 8OVC110 18/18 A2995 280 100 800 000/00 RMK AO2 TSE07B36 SLP167 6//18 A2995 270 100 800 130/03 RMK AO2 T01830183 PNO
53988KBKB BKB20190510060512105/10/19 06:05:31  5-MIN KBKB 101205Z AUTO 00000KT 6SM -RA BR BKN100 18/18 A2995 270 100 800 000/00 RMK AO2 T01830183 PNO
53988KBKB BKB20190510061012805/10/19 06:10:31  5-MIN KBKB 101210Z AUTO 00000KT 6SM -RA BR FEW090 BKN110 18/18 A2994 280 100 800 000/00 RMK AO2 T01830183 PNO
53988KBKB BKB20190510061512805/10/19 06:15:31  5-MIN KBKB 101215Z AUTO 00000KT 5SM -RA BR FEW090 BKN120 18/18 A2994 280 100 800 000/00 RMK AO2 T01830183 PNO
53988KBKB BKB20190510062012105/10/19 06:20:31  5-MIN KBKB 101220Z AUTO 00000KT 6SM -RA BR BKN110 18/18 A2994 280 100 800 000/00 RMK AO2 T01830183 PNO
53988KBKB BKB20190510062512105/10/19 06:25:31  5-MIN KBKB 101225Z AUTO 00000KT 6SM -RA BR BKN120 18/18 A2994 280 100 800 000/00 RMK AO2 T01830183 PNO
53988KBKB BKB20190510063012105/10/19 06:30:31  5-MIN KBKB 101230Z AUTO 00000KT 5SM -RA BR BKN110 18/18 A2994 280 100 800 000/00 RMK AO2 T01830183 PNO
53988KBKB BKB20190510063512805/10/19 06:35:31  5-MIN KBKB 101235Z AUTO 00000KT 4SM -RA BR SCT095 BKN120 18/18 A2994 280 100 800 000/00 RMK AO2 T01830183 PNO
53988KBKB BKB20190510064013405/10/19 06:40:31  5-MIN KBKB 101240Z AUTO 00000KT 4SM -RA BR FEW070 BKN095 BKN120 19/18 A2993 290 97 900 000/00 RMK AO2 T01890183 PNO
53988KBKB BKB20190510064518105/10/19 06:45:31  5-MIN KBKB 101245Z AUTO 00000KT 4SM -RA BR FEW060 BKN100 OVC120 19/18 A2993 290 97 900 000/00 RMK T070 BKN120 19/19 A2993 290 100 900 000/00 RMK AO2 T01890189 PNO
53988KBKB BKB20190510071013505/10/19 07:10:31  5-MIN KBKB 101310Z AUTO 00000KT 5SM -RA BR FEW008 SCT030 BKN070 19/19 A2993 290 100 900 000/00 RMK AO2 T01890189 PNO
53988KBKB BKB20190510071513205/10/19 07:15:31  5-MIN KBKB 101315Z AUTO 00000KT 7SM -RA SCT008 BKN030 BKN120 19/19 A2993 290 100 900 000/00 RMK AO2 T01890189 PNO
53988KBKB BKB20190510072013205/10/19 07:20:31  5-MIN KBKB 101320Z AUTO 00000KT 8SM -RA BKN008 BKN030 BKN120 19/19 A2992 300 100 900 000/00 RMK AO2 T01890189 PNO
53988KBKB BKB20190510072513205/10/19 07:25:31  5-MIN KBKB 101325Z AUTO 00000KT 9SM -RA BKN008 BKN031 BKN120 19/19 A2992 300 100 900 000/00 RMK AO2 T01890189 PNO
53988KBKB BKB20190510073012405/10/19 07:30:31  5-MIN KBKB 101330Z AUTO 00000KT 8SM -RA BKN008 BKN031 19/19 A2991 300 97 900 000/00 RMK AO2 T01940189 PNO
53988KBKB BKB20190510073514505/10/19 07:35:31  5-MIN KBKB 101335Z AUTO 00000KT 9SM BKN008 BKN013 OVC031 19/19 A2992 300 97 900 000/00 RMK AO2 RAE34 CIG 003V011 T01940189 PNO
53988KBKB BKB20190510074014705/10/19 07:40:31  5-MIN KBKB 101340Z AUTO 00000KT 10SM BKN009 BKN015 OVC031 19/19 A2991 310 100 900 000/00 RMK AO2 RAE34 CIG 003V012 T01940194 PNO
53988KBKB BKB20190510074512805/10/19 07:45:31  5-MIN KBKB 101345Z AUTO 00000KT 10SM SCT009 BKN013 20/19 A2991 310 97 1000 000/00 RMK AO2 RAE34 T02000194 PNO
53988KBKB BKB20190510075011805/10/19 07:50:31  5-MIN KBKB 101350Z AUTO 00000KT 10SM FEW009 OVC013 20/19 A2991 300 97 1000 000/00 RMK AO2 RAE34 PNO
53988KBKB BKB20190510075513405/10/19 07:55:31  5-MIN KBKB 101355Z AUTO 00000KT 10SM BKN010 OVC015 20/19 A2991 300 97 1000 000/00 RMK AO2 CIG 005V013 T02000194 PNO
53988KBKB BKB20190510080012705/10/19 08:00:31  5-MIN KBKB 101400Z AUTO 00000KT 10SM OVC010 20/19 A2992 300 97 1000 000/00 RMK AO2 CIG 005V014 T02000194 PNO
53988KBKB BKB20190510080512705/10/19 08:05:31  5-MIN KBKB 101405Z AUTO 00000KT 10SM OVC010 20/19 A2992 290 97 1000 000/00 RMK AO2 CIG 007V014 T02000194 PNO
53988KBKB BKB20190510081012705/10/19 08:10:31  5-MIN KBKB 101410Z AUTO 00000KT 10SM OVC010 20/19 A2993 290 97 1000 000/00 RMK AO2 CIG 007V013 T02000194 PNO
53988KBKB BKB20190510081512705/10/19 08:15:31  5-MIN KBKB 101415Z AUTO 00000KT 10SM OVC010 20/19 A2994 280 97 1000 000/00 RMK AO2 CIG 007V014 T02000194 PNO
53988KBKB BKB20190510082006705/10/19 08:20:31  5-MIN KBKB 101420Z AUTO 00000KT 10SM OVC010 2PNO
53988KBKB BKB20190510102012205/10/19 10:20:31  5-MIN KBKB 101620Z AUTO VRB05KT 10SM BKN015 23/21 A2994 280 84 1400 VRB/05 RMK AO2 PRESFR T02330206 PNO
53988KBKB BKB20190510102512205/10/19 10:25:31  5-MIN KBKB 101625Z AUTO VRB05KT 10SM FEW010 BKN015 23/20 A2994 280 84 1300 VRB/05 RMK AO2 T02280200 PNO
53988KBKB BKB20190510103012205/10/19 10:30:31  5-MIN KBKB 101630Z AUTO VRB06KT 10SM FEW010 BKN015 23/20 A2994 280 84 1300 VRB/06 RMK AO2 T02280200 PNO
53988KBKB BKB20190510103512205/10/19 10:35:31  5-MIN KBKB 101635Z AUTO VRB04KT 10SM FEW010 SCT017 23/19 A2994 280 81 1300 VRB/04 RMK AO2 T02280194 PNO
53988KBKB BKB20190511034011805/11/19 03:40:31  5-MIN KBKB 110940Z AUTO VRB03KT 2SM BR OVC002 19/19 A2985 360 100 1000 VRB/03 RMK AO2 T01940194 PNO
53988KBKB BKB20190511034511805/11/19 03:45:31  5-MIN KBKB 110945Z AUTO 00000KT 2SM BR OVC002 19/19 A2985 360 100 1000 000/00 RMK AO2 T01940194 PNO
53988KBKB BKB20190511035011205/11/19 03:50:31  5-MIN KBKB 110950Z AUTO 00000KT 1 3/4SM BR OVC002 19/19 A2986 360 100 1000 000/00 RMK AO2 PNO
53988KBKB BKB20190511035512205/11/19 03:55:31  5-MIN KBKB 110955Z AUTO 00000KT 1 3/4SM BR OVC002 19/19 A2986 360 100 1000 000/00 RMK AO2 T01940194 PNO
53988KBKB BKB20190511040011805/11/19 04:00:31  5-MIN KBKB 111000Z AUTO 00000KT 2SM BR OVC002 19/19 A2986 360 100 1000 000/00 RMK AO2 T01940194 PNO
53988KBKB BKB20190511040512205/11/19 04:05:31  5-MIN KBKB 111005Z AUTO 00000KT 1 3/4SM BR OVC002 19/19 A2985 360 100 1000 000/00 RMK AO2 T01940194 PNO
53988KBKB BKB20190511041012205/11/19 04:10:31  5-MIN KBKB 111010Z AUTO 00000KT 1 1/2SM BR OVC003 19/19 A2985 360 100 1000 000/00 RMK AO2 T01940194 PNO
53988KBKB BKB20190511041512205/11/19 04:15:31  5-MIN KBKB 111015Z AUTO 00000KT 1 1/4SM BR OVC003 19/19 A2985 360 100 1000 000/00 RMK AO2 T01940194 PNO
53988KBKB BKB20190511042012205/11/19 04:20:31  5-MIN KBKB 111020Z AUTO 00000KT 1 1/4SM BR OVC003 19/19 A2985 360 100 1000 000/00 RMK AO2 T01940194 PNO
53988KBKB BKB20190511042512205/11/19 04:25:31  5-MIN KBKB 111025Z AUTO 00000KT 1 1/4SM BR OVC003 19/19 A2985 370 100 1000 000/00 RMK AO2 T01940194 PNO
53988KBKB BKB20190511043012205/11/19 04:30:31  5-MIN KBKB 111030Z AUTO 00000KT 1 1/2SM BR OVC002 19/19 A2985 370 100 1000 000/00 RMK AO2 T01940194 PNO
53988KBKB BKB20190511043512205/11/19 04:35:31  5-MIN KBKB 111035Z AUTO 00000KT 1 1/2SM BR OVC002 19/19 A2985 370 100 1000 000/00 RMK AO2 T01940194 PNO
53988KBKB BKB20190511044012205/11/19 04:40:31  5-MIN KBKB 111040Z AUTO 00000KT 1 1/2SM BR OVC002 19/19 A2985 370 100 1000 000/00 RMK AO2 T01940194 PNO
53988KBKB BKB20190511044520005/11/19 04:45:31  5-MIN KBKB 111045Z AUTO 00000KT 1 1/4SM BR OVC002 19/19 A2985 360 100 1000 000/00 RMK AO2 T01940194 PNO05/KB 111130Z AUTO 00000KT 119/19 A19/19 A2988 340 100 1000  AO2 T01940194 PNO
53988KBKB BKB20190511062511905/11/19 06:25:31  5-MIN KBKB 111225Z AUTO 00000KT 1/2SM FG VV002 19/19 A2988 330 100 1000 000/00 RMK AO2 T01940194 PNO
53988KBKB BKB20190511063011905/11/19 06:30:31  5-MIN KBKB 111230Z AUTO 00000KT 1/2SM FG VV002 20/20 A2988 330 100 1000 000/00 RMK AO2 T02000200 PNO
53988KBKB BKB20190511063511905/11/19 06:35:31  5-MIN KBKB 111235Z AUTO 00000KT 3/4SM BR VV002 20/20 A2989 330 100 1000 000/00 RMK AO2 T02000200 PNO
53988KBKB BKB20190511064011905/11/19 06:40:31  5-MIN KBKB 111240Z AUTO 00000KT 3/4SM BR VV002 20/20 A2989 330 100 1000 000/00 RMK AO2 T02000200 PNO
53988KBKB BKB20190511064511705/11/19 06:45:31  5-MIN KBKB 111245Z AUTO 00000KT 1SM BR VV002 20/20 A2989 330 100 1000 000/00 RMK AO2 T02000200 PNO
53988KBKB BKB20190511065012905/11/19 06:50:31  5-MIN KBKB 111250Z AUTO 00000KT 1 1/4SM BR OVC002 20/20 A2989 330 100 1000 000/00 RMK AO2 SLP147 T02000200 PNO
53988KBKB BKB20190511065511805/11/19 06:55:31  5-MIN KBKB 111255Z AUTO 00000KT 2SM BR OVC002 20/20 A2989 330 100 1000 000/00 RMK AO2 T02000200 PNO
53988KBKB BKB20190511070013005/11/19 07:00:31  5-MIN KBKB 111300Z AUTO 00000KT 2 1/2SM BR OVC002 20/20 A2989 330 100 1000 000/00 RMK AO2 VIS 2V3 T02000200 PNO
53988KBKB BKB20190511070511805/11/19 07:05:31  5-MIN KBKB 111305Z AUTO 00000KT 2SM BR OVC002 20/20 A2989 330 100 1000 000/00 RMK AO2 T02000200 PNO
53988KBKB BKB20190511071011805/11/19 07:10:31  5-MIN KBKB 111310Z AUTO VRB03KT 2SM BR OVC002 20/20 A2990 320 100 1000 VRB/03 RMK AO2 T02000200 PNO
53988KBKB BKB20190511071512205/11/19 07:15:31  5-MIN KBKB 111315Z AUTO 00000KT 2 1/2SM BR OVC002 20/20 A2989 320 100 1000 000/00 RMK AO2 T02000200 PNO
53988KBKB BKB20190511072011805/11/19 07:20:31  5-MIN KBKB 111320Z AUTO 00000KT 3SM BR OVC002 20/20 A2989 320 100 1000 000/00 RMK AO2 T02000200 PNO
53988KBKB BKB20190511072511805/11/19 07:25:31  5-MIN KBKB 111325Z AUTO 00000KT 4SM BR OVC002 20/20 A2990 320 100 1000 000/00 RMK AO2 T02000200 PNO
53988KBKB BKB20190511073011805/11/19 07:30:31  5-MIN KBKB 111330Z AUTO 00000KT 4SM BR OVC002 20/20 A2990 320 100 1000 000/00 RMK AO2 T02000200 PNO
53988KBKB BKB20190511073511805/11/19 07:35:31  5-MIN KBKB 111335Z AUTO 00000KT 4SM BR OVC002 20/20 A2989 320 100 1000 000/00 RMK AO2 T02000200 PNO
53988KBKB BKB20190511074023505/11/19 07:40:31  5-MIN KBKB 111340Z AUTO 00000KT 5SM BR OVC002 20/20 A2990 320 100 1000 000/00 RMK AO2 T02000200 PNO05/11/19 07:45:31 B 111355Z AUTO 00000KT 10SM OVC003 21/20 A2990 320 97 1100 000/00 RMK AO2 CIG 002V006 T02060200 PNO
53988KBKB BKB20190511080012705/11/19 08:00:31  5-MIN KBKB 111400Z AUTO 00000KT 10SM OVC003 21/20 A2990 320 97 1100 000/00 RMK AO2 CIG 002V006 T02060200 PNO
53988KBKB BKB20190511080512705/11/19 08:05:31  5-MIN KBKB 111405Z AUTO 00000KT 10SM OVC004 21/20 A2990 320 97 1100 000/00 RMK AO2 CIG 003V008 T02060200 PNO
53988KBKB BKB20190511081013405/11/19 08:10:31  5-MIN KBKB 111410Z AUTO 00000KT 10SM BKN004 OVC008 21/20 A2989 320 97 1100 000/00 RMK AO2 CIG 003V007 T02060200 PNO
53988KBKB BKB20190511081512705/11/19 08:15:31  5-MIN KBKB 111415Z AUTO 00000KT 10SM OVC006 21/20 A2989 320 97 1100 000/00 RMK AO2 CIG 003V008 T02060200 PNO
53988KBKB BKB20190511082011505/11/19 08:20:31  5-MIN KBKB 111420Z AUTO 00000KT 10SM OVC006 21/20 A2989 320 97 1100 000/00 RMK AO2 T02060200 PNO
53988KBKB BKB20190511082512205/11/19 08:25:31  5-MIN KBKB 111425Z AUTO 00000KT 10SM BKN006 OVC012 21/20 A2989 320 93 1100 000/00 RMK AO2 T02110200 PNO
53988KBKB BKB20190511083013405/11/19 08:30:31  5-MIN KBKB 111430Z AUTO 00000KT 10SM BKN006 OVC012 21/20 A2989 330 93 1200 000/00 RMK AO2 CIG 005V009 T02110200 PNO
53988KBKB BKB20190511083512705/11/19 08:35:31  5-MIN KBKB 111435Z AUTO 00000KT 10SM OVC008 22/21 A2989 330 93 1200 000/00 RMK AO2 CIG 005V011 T02170206 PNO
53988KBKB BKB20190511084013405/11/19 08:40:31  5-MIN KBKB 111440Z AUTO 00000KT 10SM BKN008 OVC013 22/21 A2988 330 93 1200 000/00 RMK AO2 CIG 005V011 T02170206 PNO
53988KBKB BKB20190511084514105/11/19 08:45:31  5-MIN KBKB 111445Z AUTO 00000KT 10SM BKN008 BKN013 BKN050 22/21 A2988 330 90 1300 000/00 RMK AO2 CIG 006V011 T02220206 PNO
53988KBKB BKB20190511085016005/11/19 08:50:31  5-MIN KBKB 111450Z AUTO 00000KT 10SM BKN008 BKN013 BKN095 22/20 A2988 330 87 1300 000/00 RMK AO2 CIG 006V011 SLP145 6//// T02220200 53004 PNO
53988KBKB BKB20190511085512205/11/19 08:55:31  5-MIN KBKB 111455Z AUTO VRB03KT 10SM BKN008 BKN095 22/20 A2988 330 87 1300 VRB/03 RMK AO2 T02220200 PNO
53988KBKB BKB20190511090012205/11/19 09:00:31  5-MIN KBKB 111500Z AUTO 00000KT 10SM BKN009 BKN095 22/20 A2988 330 87 1300 000/00 RMK AO2 T02220200 PNO
53988KBKB BKB20190511090512205/11/19 09:05:31  5-MIN KBKB 111505Z AUTO 00000KT 10SM BKN009 BKN095 22/20 A2988 330 87 1300 000/00 RMK AO2 T02220200 PNO
53988KBKB BKB20190511091014105/11/19 09:10:31  5-MIN KBKB 111510Z AUTO 00000KT 10SM BKN010 BKN037 BKN090 22/20 A2988 330 87 1300 000/00 RMK AO2 CIG 008V014 T02220200 PNO
53988KBKB BKB20190511091512905/11/19 09:15:31  5-MIN KBKB 111515Z AUTO 00000KT 10SM BKN010 BKN037 OVC090 23/21 A2989 330 87 1400 000/00 RMK AO2 T02280206 PNO
53988KBKB BKB20190511092012205/11/19 09:20:31  5-MIN KBKB 111520Z AUTO 00000KT 10SM BKN010 OVC090 22/20 A2988 330 87 1300 000/00 RMK AO2 T02220200 PNO
53988KBKB BKB20190511092513205/11/19 09:25:31  5-MIN KBKB 111525Z AUTO 00000KT 10SM -RA BKN011 OVC090 23/21 A2988 330 87 1400 000/00 RMK AO2 RAB25 T02280206 PNO
53988KBKB BKB20190511093015105/11/19 09:30:31  5-MIN KBKB 111530Z AUTO 00000KT 10SM -RA BKN011 BKN033 OVC090 22/21 A2988 330 90 1300 000/00 RMK AO2 RAB25 CIG 009V013 T02220206 PNO
53988KBKB BKB20190511093515105/11/19 09:35:31  5-MIN KBKB 111535Z AUTO 00000KT 10SM -RA BKN011 BKN033 OVC090 23/21 A2988 340 87 1400 000/00 RMK AO2 RAB25 CIG 009V013 T02280206 PNO
53988KBKB BKB20190511094014305/11/19 09:40:31  5-MIN KBKB 111540Z AUTO 00000KT 10SM BKN010 OVC090 23/21 A2987 340 87 1400 000/00 RMK AO2 RAB25E39 CIG 009V013 T02280206 PNO
53988KBKB BKB20190511094513105/11/19 09:45:31  5-MIN KBKB 111545Z AUTO 00000KT 10SM SCT010 OVC090 23/21 A2987 340 87 1400 000/00 RMK AO2 RAB25E39 T02280206 PNO
53988KBKB BKB20190511095013805/11/19 09:50:31  5-MIN KBKB 111550Z AUTO 00000KT 10SM SCT010 BKN090 23/21 A2987 350 84 1400 000/00 RMK AO2 RAB25E39 SLP140 T02330206 PNO
53988KBKB BKB20190511095512905/11/19 09:55:31  5-MIN KBKB 111555Z AUTO 00000KT 10SM SCT010 SCT048 BKN090 23/20 A2986 350 84 1400 000/00 RMK AO2 T02280200 PNO
53988KBKB BKB20190511100012205/11/19 10:00:31  5-MIN KBKB 111600Z AUTO 00000KT 10SM FEW010 BKN090 23/20 A2986 350 81 1400 000/00 RMK AO2 T02330200 PNO
53988KBKB BKB20190511100512205/11/19 10:05:31  5-MIN KBKB 111605Z AUTO 00000KT 10SM FEW010 BKN090 24/21 A2986 350 81 1500 000/00 RMK AO2 T02390206 PNO
53988KBKB BKB20190511101012205/11/19 10:10:31  5-MIN KBKB 111610Z AUTO 00000KT 10SM FEW010 OVC090 23/21 A2986 350 84 1400 000/00 RMK AO2 T02330206 PNO
53988KBKB BKB20190511101511505/11/19 10:15:31  5-MIN KBKB 111615Z AUTO 00000KT 10SM BKN090 23/21 A2986 360 84 1400 000/00 RMK AO2 T02330206 PNO
53988KBKB BKB20190511102011505/11/19 10:20:31  5-MIN KBKB 111620Z AUTO 00000KT 10SM BKN090 23/21 A2985 360 84 1500 000/00 RMK AO2 T02330206 PNO
53988KBKB BKB20190511102511505/11/19 10:25:31  5-MIN KBKB 111625Z AUTO 00000KT 10SM OVC090 23/21 A2985 360 84 1500 000/00 RMK AO2 T02330206 PNO
53988KBKB BKB20190511103011505/11/19 10:30:31  5-MIN KBKB 111630Z AUTO 00000KT 10SM OVC090 23/21 A2985 360 87 1400 000/00 RMK AO2 T02280206 PNO
53988KBKB BKB20190511103512205/11/19 10:35:31  5-MIN KBKB 111635Z AUTO 00000KT 10SM FEW060 OVC090 23/21 A2987 350 87 1400 000/00 RMK AO2 T02280206 PNO
53988KBKB BKB20190511104012205/11/19 10:40:31  5-MIN KBKB 111640Z AUTO 00000KT 10SM FEW060 OVC090 23/21 A2986 350 87 1400 000/00 RMK AO2 T02280206 PNO
53988KBKB BKB20190511104511505/11/19 10:45:31  5-MIN KBKB 111645Z AUTO 00000KT 10SM OVC090 23/21 A2986 350 84 1400 000/00 RMK AO2 T02330206 PNO
53988KBKB BKB20190511105012205/11/19 10:50:31  5-MIN KBKB 111650Z AUTO 00000KT 10SM OVC090 23/21 A2986 350 84 1400 000/00 RMK AO2 SLP138 T02330206 PNO
53988KBKB BKB20190511105511505/11/19 10:55:31  5-MIN KBKB 111655Z AUTO 00000KT 10SM BKN090 23/21 A2986 350 84 1400 000/00 RMK AO2 T02330206 PNO
53988KBKB BKB20190511110011505/11/19 11:00:31  5-MIN KBKB 111700Z AUTO 00000KT 10SM BKN090 23/21 A2986 360 84 1400 000/00 RMK AO2 T02330206 PNO
53988KBKB BKB20190511110517505/11/19 11:05:31  5-MIN KBKB 111705Z AUTO 00000KT 10SM OVC090 23/21 A2986 360 84 1T 2 1/2SM -TSRA BR FEW006 BKN018 OVC029 22/21 A2984 370 97 1300 000/00 RMK AO2 T02170211 PNO
53988KBKB BKB20190511133014205/11/19 13:30:31  5-MIN KBKB 111930Z AUTO 00000KT 2 1/2SM -TSRA BR SCT013 BKN019 OVC036 22/22 A2984 370 100 1300 000/00 RMK AO2 T02170217 PNO
53988KBKB BKB20190511133518905/11/19 13:35:31  5-MIN KBKB 111935Z AUTO 00000KT 2 1/2SM -TSRA BR SCT013 BKN034 OVC045 22/22 A2985 360 100 1300 000/00 RMK AO2 TSB34 T02170217 PNO05/11112005Z AUTO TS M M M M /M RMK AO2 $
53988KBKB BKB20190511141012005/11/19 14:10:31  5-MIN KBKB 112010Z AUTO 02003KT RA 22/22 A2982 390 97 1400 020/03 RMK AO2 RAB06 TSE06 T02220217 PNO $
53988KBKB BKB20190511141512905/11/19 14:15:31  5-MIN KBKB 112015Z AUTO 00000KT 3SM -RA BR 22/22 A2983 380 100 1400 000/00 RMK AO2 RAB06 TSE06 T02220222 PNO $
53988KBKB BKB20190511142012805/11/19 14:20:31  5-MIN KBKB 112020Z AUTO VRB03KT 4SM -RA BR 22/22 A2983 380 97 1300 VRB/03 RMK AO2 RAB06 TSE06 T02220217 PNO $
53988KBKB BKB20190511142512605/11/19 14:25:31  5-MIN KBKB 112025Z AUTO VRB03KT 7SM -RA 22/22 A2983 380 100 1300 VRB/03 RMK AO2 RAB06 TSE06 T02170217 PNO $
53988KBKB BKB20190511143012205/11/19 14:30:31  5-MIN KBKB 112030Z AUTO 04003KT 10SM 21/21 A2983 380 100 1200 030/03 RMK AO2 RAB06E26 TSE06 T02110211 $
53988KBKB BKB20190511143513505/11/19 14:35:31  5-MIN KBKB 112035Z AUTO VRB04KT 10SM BKN004 OVC012 21/21 A2983 380 97 1200 VRB/04 RMK AO2 RAB06E26 TSE06 T02110206 $
53988KBKB BKB20190511144012805/11/19 14:40:31  5-MIN KBKB 112040Z AUTO VRB03KT 10SM OVC004 21/21 A2984 370 97 1200 VRB/03 RMK AO2 RAB06E26 TSE06 T02110206 $
53988KBKB BKB20190511144514105/11/19 14:45:31  5-MIN KBKB 112045Z AUTO VRB04KT 5SM -RA BR OVC004 21/20 A2984 370 97 1200 VRB/04 RMK AO2 RAB06E26B42 TSE06 T02060200 PNO $
53988KBKB BKB20190511145016505/11/19 14:50:31  5-MIN KBKB 112050Z AUTO VRB04KT 1 1/4SM +RA BR BKN004 OVC012 21/20 A2983 380 97 1200 VRB/04 RMK AO2 RAB06E26B42 TSE06 SLP127 6//// T02060200 PNO $
53988KBKB BKB20190511145513905/11/19 14:55:31  5-MIN KBKB 112055Z AUTO 00000KT 1SM +RA BR BKN004 BKN014 OVC090 21/20 A2982 390 97 1200 000/00 RMK AO2 P0000 T02060200 $
53988KBKB BKB20190511150013905/11/19 15:00:31  5-MIN KBKB 112100Z AUTO 00000KT 2SM -RA BR SCT004 BKN016 OVC100 21/20 A2982 390 97 1200 000/00 RMK AO2 P0000 T02060200 $
53988KBKB BKB20190511150513905/11/19 15:05:31  5-MIN KBKB 112105Z AUTO 00000KT 6SM -RA BR FEW004 BKN025 OVC100 21/20 A2981 400 97 1200 000/00 RMK AO2 P0000 T02060200 $
53988KBKB BKB20190511151014605/11/19 15:10:31  5-MIN KBKB 112110Z AUTO 00000KT 5SM RA BR FEW004 BKN055 OVC100 20/20 A2980 410 100 1100 000/00 RMK AO2 PRESFR P0000 T02000200 $
53988KBKB BKB20190511151514705/11/19 15:15:31  5-MIN KBKB 112115Z AUTO VRB03KT 6SM -RA BR FEW022 SCT055 OVC095 20/20 A2979 420 100 1100 VRB/03 RMK AO2 PRESFR P0000 T02000200 $
53988KBKB BKB20190511152013705/11/19 15:20:31  5-MIN KBKB 112120Z AUTO 00000KT 9SM -RA FEW046 FEW075 OVC100 20/20 A2979 420 100 1100 000/00 RMK AO2 P0000 T02000200 $
53988KBKB BKB20190511152516905/11/19 15:25:31  5-MIN KBKB 112125Z AUTO VRB03KT 10SM -RA FEW35Z AUTO VRB03KT 10SM BKN003 BKN075 OVC110 21/21 A2978 430 100 1200 VRB/03 RMK AO2 RAE26 P0000 T02060206 $
53988KBKB BKB20190512020011305/12/19 02:00:31  5-MIN KBKB 120800Z AUTO 00000KT 10SM OVC003 18/18 A2980 410 100 900 000/00 RMK AO2 T01780178 $
53988KBKB BKB20190512020511305/12/19 02:05:31  5-MIN KBKB 120805Z AUTO VRB04KT 10SM OVC003 18/18 A2980 410 100 900 VRB/04 RMK AO2 T01780178 $
53988KBKB BKB20190512021011305/12/19 02:10:31  5-MIN KBKB 120810Z AUTO 00000KT 10SM OVC003 18/18 A2979 410 100 900 000/00 RMK AO2 T01780178 $
53988KBKB BKB20190512021511305/12/19 02:15:31  5-MIN KBKB 120815Z AUTO VRB03KT 10SM OVC003 18/18 A2979 420 100 900 VRB/03 RMK AO2 T01780178 $
53988KBKB BKB20190512022011305/12/19 02:20:31  5-MIN KBKB 120820Z AUTO VRB03KT 10SM OVC003 18/18 A2979 420 100 900 VRB/03 RMK AO2 T01780178 $
53988KBKB BKB20190512022511305/12/19 02:25:31  5-MIN KBKB 120825Z AUTO 00000KT 10SM OVC004 18/18 A2979 420 100 900 000/00 RMK AO2 T01780178 $
53988KBKB BKB20190512023011305/12/19 02:30:31  5-MIN KBKB 120830Z AUTO 00000KT 10SM OVC004 18/18 A2979 420 100 900 000/00 RMK AO2 T01780178 $
53988KBKB BKB20190512023512505/12/19 02:35:31  5-MIN KBKB 120835Z AUTO 00000KT 10SM OVC004 18/18 A2979 420 100 900 000/00 RMK AO2 CIG 003V009 T01780178 $
53988KBKB BKB20190512024011305/12/19 02:40:31  5-MIN KBKB 120840Z AUTO 00000KT 10SM OVC004 18/18 A2979 420 100 900 000/00 RMK AO2 T01780178 $
53988KBKB BKB20190512024512505/12/19 02:45:31  5-MIN KBKB 120845Z AUTO 00000KT 10SM OVC005 18/18 A2979 420 100 900 000/00 RMK AO2 CIG 004V009 T01780178 $
53988KBKB BKB20190512025013705/12/19 02:50:31  5-MIN KBKB 120850Z AUTO VRB03KT 10SM OVC005 18/17 A2979 420 96 900 VRB/03 RMK AO2 CIG 004V009 SLP115 T01780172 51003 $
53988KBKB BKB20190512025507905/12/19 02:55:31  5-MIN KBKB 120855Z AUTO 00000KT A2979 M M M 000/00 RMK AO2 $
53988KBKB BKB20190512030010105/12/19 03:00:31  5-MIN KBKB 120900Z AUTO 00000KT 18/18 A2978 420 100 900 000/00 RMK AO2 T01780178 $
53988KBKB BKB20190512030510505/12/19 03:05:31  5-MIN KBKB 120905Z AUTO 00000KT 10SM 18/17 A2978 420 96 900 000/00 RMK AO2 T01780172 $
53988KBKB BKB20190512031017705/12/19 03:10:31  5-MIN KBKB 120910Z AUTO 00000KT 10SM 18/18 A2979 420 100 900 000/00 RMK AO2 T017801720925Z AUTO VRB03KT 10SM BKN005 OVC009 18/18 A2979 /00 RMK AO2 T01780178 $
53988KBKB BKB20190512034011305/12/19 03:40:31  5-MIN KBKB 120940Z AUTO 00000KT 10SM OVC005 18/18 A2979 420 100 900 000/00 RMK AO2 T01780178 $
53988KBKB BKB20190512034512505/12/19 03:45:31  5-MIN KBKB 120945Z AUTO 01003KT 10SM OVC005 18/18 A2979 420 100 900 010/03 RMK AO2 CIG 003V008 T01780178 $
53988KBKB BKB20190512035010305/12/19 03:50:31  5-MIN KBKB 120950Z AUTO 00000KT 10SM OVC004 18/18 A2979 420 100 900 000/00 RMK AO2 $
53988KBKB BKB20190512035511305/12/19 03:55:31  5-MIN KBKB 120955Z AUTO VRB03KT 10SM OVC004 18/18 A2979 420 100 900 VRB/03 RMK AO2 T01780178 $
53988KBKB BKB20190512040011305/12/19 04:00:31  5-MIN KBKB 121000Z AUTO 00000KT 10SM OVC004 18/18 A2979 420 100 900 000/00 RMK AO2 T01780178 $
53988KBKB BKB20190512040511305/12/19 04:05:31  5-MIN KBKB 121005Z AUTO 00000KT 10SM OVC004 18/18 A2979 420 100 900 000/00 RMK AO2 T01780178 $
53988KBKB BKB20190512041011305/12/19 04:10:31  5-MIN KBKB 121010Z AUTO 00000KT 10SM OVC004 18/18 A2979 420 100 900 000/00 RMK AO2 T01780178 $
53988KBKB BKB20190512041511305/12/19 04:15:31  5-MIN KBKB 121015Z AUTO VRB04KT 10SM OVC004 18/18 A2979 420 100 900 VRB/04 RMK AO2 T01780178 $
53988KBKB BKB20190512042012605/12/19 04:20:31  5-MIN KBKB 121020Z AUTO VRB04KT 10SM BKN004 BKN009 OVC012 18/17 A2979 420 96 900 VRB/04 RMK AO2 T01780172 $
53988KBKB BKB20190512042511905/12/19 04:25:31  5-MIN KBKB 121025Z AUTO 00000KT 10SM BKN004 OVC014 18/17 A2979 420 96 900 000/00 RMK AO2 T01780172 $
53988KBKB BKB20190512043013205/12/19 04:30:31  5-MIN KBKB 121030Z AUTO VRB03KT 10SM BKN004 OVC014 18/18 A2979 420 100 900 VRB/03 RMK AO2 CIG 003V008 T01780178 $
53988KBKB BKB20190512043511905/12/19 04:35:31  5-MIN KBKB 121035Z AUTO VRB03KT 10SM SCT004 OVC014 18/17 A2979 420 96 900 VRB/03 RMK AO2 T01780172 $
53988KBKB BKB20190512044011905/12/19 04:40:31  5-MIN KBKB 121040Z AUTO 00000KT 10SM SCT005 OVC015 18/17 A2979 420 96 900 000/00 RMK AO2 T01780172 $
53988KBKB BKB20190512044511905/12/19 04:45:31  5-MIN KBKB 121045Z AUTO 00000KT 10SM SCT005 OVC015 18/17 A2979 420 96 900 000/00 RMK AO2 T01780172 $
53988KBKB BKB20190512045012605/12/19 04:50:31  5-MIN KBKB 121050Z AUTO 00000KT 10SM SCT005 OVC015 18/17 A2979 420 96 900 000/00 RMK AO2 SLP116 T01780172 $
53988KBKB BKB20190512045512005/12/19 04:55:31  5-MIN KBKB 121055Z AUTO 00000KT 10SM BKN005 OVC015 18/18 A2979 420 100 900 000/00 RMK AO2 T01780178 $
53988KBKB BKB20190512050011905/12/19 05:00:31  5-MIN KBKB 121100Z AUTO 00000KT 10SM BKN005 OVC015 18/17 A2980 410 96 900 000/00 RMK AO2 T01780172 $
53988KBKB BKB20190512050511905/12/19 05:05:31  5-MIN KBKB 121105Z AUTO VRB03KT 10SM BKN005 OVC015 18/17 A2980 410 96 900 VRB/03 RMK AO2 T01780172 $
53988KBKB BKB20190512051012005/12/19 05:10:31  5-MIN KBKB 121110Z AUTO 00000KT 10SM BKN005 OVC015 18/18 A2980 410 100 900 000/00 RMK AO2 T01780178 $
53988KBKB BKB20190512051512005/12/19 05:15:31  5-MIN KBKB 121115Z AUTO 00000KT 10SM BKN005 OVC016 18/18 A2981 400 100 900 000/00 RMK AO2 T01780178 $
53988KBKB BKB20190512052012005/12/19 05:20:31  5-MIN KBKB 121120Z AUTO 00000KT 10SM BKN005 OVC016 18/18 A2981 400 100 900 000/00 RMK AO2 T01780178 $
53988KBKB BKB20190512052512005/12/19 05:25:31  5-MIN KBKB 121125Z AUTO 00000KT 10SM BKN005 OVC016 18/18 A2982 400 100 900 000/00 RMK AO2 T01780178 $
53988KBKB BKB20190512053012005/12/19 05:30:31  5-MIN KBKB 121130Z AUTO 00000KT 10SM BKN005 OVC017 18/18 A2982 390 100 800 000/00 RMK AO2 T01780178 $
53988KBKB BKB20190512053512005/12/19 05:35:31  5-MIN KBKB 121135Z AUTO 00000KT 10SM BKN005 OVC017 18/18 A2982 390 100 800 000/00 RMK AO2 T01780178 $
53988KBKB BKB20190512054012005/12/19 05:40:31  5-MIN KBKB 121140Z AUTO 00000KT 10SM BKN005 OVC017 18/18 A2982 390 100 800 000/00 RMK AO2 T01780178 $
53988KBKB BKB20190512054512005/12/19 05:45:31  5-MIN KBKB 121145Z AUTO 00000KT 10SM BKN005 OVC017 18/18 A2982 390 100 800 000/00 RMK AO2 T01780178 $
53988KBKB BKB20190512055014505/12/19 05:50:31  5-MIN KBKB 121150Z AUTO 00000KT 10SM BKN005 OVC017 18/18 A2982 390 100 800 000/00 RMK AO2 SLP125 7//// T01780178 10189 20178 $
53988KBKB BKB20190512055511905/12/19 05:55:31  5-MIN KBKB 121155Z AUTO VRB03KT 10SM BKN005 OVC017 18/18 A2982 390 96 900 VRB/03 RMK AO2 T01830178 $
53988KBKB BKB20190512060013105/12/19 06:00:31  5-MIN KBKB 121200Z AUTO 00000KT 10SM BKN005 OVC016 18/18 A2982 390 96 900 000/00 RMK AO2 CIG 004V007 T01830178 $
53988KBKB BKB20190512060515205/12/19 06:05:31  5-MIN KBKB 121205Z AUTO 00000KT 10S225Z AUTO 00000KT 10SM BKN007 OVC016 18/18 A2983 380 96 900 000/00 RMK AO2 CIG 004V010 T01830178 $
53988KBKB BKB20190512063013105/12/19 06:30:31  5-MIN KBKB 121230Z AUTO 00000KT 10SM BKN006 OVC016 18/18 A2983 380 96 900 000/00 RMK AO2 CIG 004V010 T01830178 $
53988KBKB BKB20190512063513105/12/19 06:35:31  5-MIN KBKB 121235Z AUTO 00000KT 10SM BKN006 OVC017 18/18 A2983 380 96 900 000/00 RMK AO2 CIG 004V010 T01830178 $
53988KBKB BKB20190512064013105/12/19 06:40:31  5-MIN KBKB 121240Z AUTO 35004KT 10SM BKN006 OVC017 18/18 A2983 380 96 900 340/04 RMK AO2 CIG 004V010 T01830178 $
53988KBKB BKB20190512064513105/12/19 06:45:31  5-MIN KBKB 121245Z AUTO VRB04KT 10SM BKN006 OVC015 18/18 A2983 380 96 900 VRB/04 RMK AO2 CIG 004V009 T01830178 $
53988KBKB BKB20190512065016505/12/19 06:50:31  5-MIN KBKB 121250Z AUTO VRB03KT 10SM BKN006 OVC015 18/18 A2983 380 96 900 VRB/03 RMK AO2 CIG 004V009 SLP129 T01830178 $05/1204 RMK AO2 T01940183 $
53988KBKB BKB20190512073510605/12/19 07:35:31  5-MIN KBKB 121335Z AUTO VRB03KT 10SM 19/18 A2983 380 93 1000 VRB/03 RMK AO2 T01940183 $
53988KBKB BKB20190512074012505/12/19 07:40:31  5-MIN KBKB 121340Z AUTO VRB03KT 10SM OVC008 19/18 A2983 380 90 1000 VRB/03 RMK AO2 CIG 006V012 T01940178 $
53988KBKB BKB20190512074512505/12/19 07:45:31  5-MIN KBKB 121345Z AUTO VRB03KT 10SM OVC008 19/18 A2983 380 90 1000 VRB/03 RMK AO2 CIG 006V010 T01940178 $
53988KBKB BKB20190512075013205/12/19 07:50:31  5-MIN KBKB 121350Z AUTO 00000KT 10SM OVC008 19/18 A2983 380 93 1000 000/00 RMK AO2 CIG 006V010 SLP129 T01940183 $
53988KBKB BKB20190512075512505/12/19 07:55:31  5-MIN KBKB 121355Z AUTO VRB04KT 10SM OVC008 19/18 A2983 380 93 1000 VRB/04 RMK AO2 CIG 006V013 T01940183 $
53988KBKB BKB20190512080012505/12/19 08:00:31  5-MIN KBKB 121400Z AUTO VRB04KT 10SM OVC010 19/18 A2983 380 90 1000 VRB/04 RMK AO2 CIG 007V013 T01940178 $
53988KBKB BKB20190512080512505/12/19 08:05:31  5-MIN KBKB 121405Z AUTO VRB03KT 10SM OVC010 19/18 A2983 380 90 1000 VRB/03 RMK AO2 CIG 007V013 T01940178 $
53988KBKB BKB20190512081012505/12/19 08:10:31  5-MIN KBKB 121410Z AUTO 36005KT 10SM OVC010 19/18 A2983 380 90 1000 360/05 RMK AO2 CIG 007V013 T01940178 $
53988KBKB BKB20190512081515205/12/19 08:15:31  5-MIN KBKB 121415Z AUTO VRB04KT 10SM BKN010 OVC014 19/18 A2983 380 90 1000 VRB/04 RMK AO2 CIG 007V012 T01940178 $05/8V014 T02060183 $
53988KBKB BKB20190512085013905/12/19 08:50:31  5-MIN KBKB 121450Z AUTO VRB03KT 10SM BKN010 OVC020 21/18 A2984 370 87 1100 VRB/03 RMK AO2 CIG 008V013 SLP131 T02060183 $
53988KBKB BKB20190512085513205/12/19 08:55:31  5-MIN KBKB 121455Z AUTO 00000KT 10SM BKN010 OVC020 20/18 A2984 370 87 1100 000/00 RMK AO2 CIG 008V014 T02000178 $
53988KBKB BKB20190512090012505/12/19 09:00:31  5-MIN KBKB 121500Z AUTO VRB04KT 10SM OVC010 19/18 A2984 370 90 1000 VRB/04 RMK AO2 CIG 008V014 T01940178 $
53988KBKB BKB20190512090512505/12/19 09:05:31  5-MIN KBKB 121505Z AUTO 00000KT 10SM OVC010 20/18 A2985 370 87 1100 000/00 RMK AO2 CIG 008V014 T02000178 $
53988KBKB BKB20190512091013105/12/19 09:10:31  5-MIN KBKB 121510Z AUTO 01003KT 9SM BKN007 OVC010 19/18 A2985 370 90 1000 010/03 RMK AO2 CIG 005V009 T01940178 $
53988KBKB BKB20190512091513005/12/19 09:15:31  5-MIN KBKB 121515Z AUTO VRB03KT 7SM BKN007 OVC012 19/18 A2985 370 93 900 VRB/03 RMK AO2 CIG 005V011 T01890178 $
53988KBKB BKB20190512092013305/12/19 09:20:31  5-MIN KBKB 121520Z AUTO VRB03KT 6SM BR BKN007 OVC011 19/18 A2985 370 93 900 VRB/03 RMK AO2 CIG 005V009 T01890178 $
53988KBKB BKB20190512092513005/12/19 09:25:31  5-MIN KBKB 121525Z AUTO 00000KT 7SM BKN007 OVC011 19/18 A2985 360 93 900 000/00 RMK AO2 CIG 005V009 T01890178 $
53988KBKB BKB20190512093012805/12/19 09:30:31  5-MIN KBKB 121530Z AUTO VRB03KT 9SM OVC009 19/18 A2985 3606 360 90 900 VRB/04 RMK AO2 CIG 008V014 T01890172 $
53988KBKB BKB20190512100512405/12/19 10:05:31  5-MIN KBKB 121605Z AUTO 34003KT 10SM OVC009 19/17 A2986 350 90 900 330/03 RMK AO2 CIG 008V014 T01890172 $
53988KBKB BKB20190512101012405/12/19 10:10:31  5-MIN KBKB 121610Z AUTO VRB03KT 10SM OVC009 19/17 A2986 350 90 900 VRB/03 RMK AO2 CIG 008V014 T01890172 $
53988KBKB BKB20190512101511105/12/19 10:15:31  5-MIN KBKB 121615Z AUTO VRB03KT 8SM OVC009 19/17 A2986 350 90 900 VRB/03 RMK AO2 T01890172 $
53988KBKB BKB20190512102012305/12/19 10:20:31  5-MIN KBKB 121620Z AUTO 00000KT 7SM OVC009 19/17 A2986 350 90 900 000/00 RMK AO2 CIG 008V012 T01890172 $
53988KBKB BKB20190512102513005/12/19 10:25:31  5-MIN KBKB 121625Z AUTO 00000KT 8SM BKN009 OVC020 19/17 A2986 350 90 900 000/00 RMK AO2 CIG 008V012 T01890172 $
53988KBKB BKB20190512103011005/12/19 10:30:31  5-MIN KBKB 121630Z AUTO 00000KT 10SM SCT009 OVC022 20/17 A2987 350 84 1100 000/00 RMK AO2 $
53988KBKB BKB20190512110512005/12/19 11:05:31  5-MIN KBKB 121705Z AUTO 00000KT 10SM BKN016 OVC022 21/17 A2986 350 81 1100 000/00 RMK AO2 T02060172 $
53988KBKB BKB20190512111013505/12/19 11:10:31  5-MIN KBKB 121710Z AUTO VRB03KT 8SM -RA BKN016 OVC020 20/17 A2986 350 84 1100 VRB/03 RMK AO2 RAB08 P0000 T02000172 $
53988KBKB BKB20190512111514205/12/19 11:15:31  5-MIN KBKB 121715Z AUTO 00000KT 8SM -RA BKN015 BKN026 OVC031 20/18 A2986 350 87 1100 000/00 RMK AO2 RAB08 P0000 T02000178 $
53988KBKB BKB20190512112014205/12/19 11:20:31  5-MIN KBKB 121720Z AUTO 00000KT 10SM SCT015 SCT023 OVC031 21/18 A2986 350 81 1200 000/00 RMK AO2 RAB08E19 P0000 T02110178 $
53988KBKB BKB20190512112513505/12/19 11:25:31  5-MIN KBKB 121725Z AUTO VRB03KT 10SM SCT015 OVC031 21/17 A2986 350 78 1200 VRB/03 RMK AO2 RAB08E19 P0000 T02110172 $
53988KBKB BKB20190512113014205/12/19 11:30:31  5-MIN KBKB 121730Z AUTO 00000KT 10SM FEW015 SCT019 OVC034 22/17 A2986 350 75 1200 000/00 RMK AO2 RAB08E19 P0000 T02170172 $
53988KBKB BKB20190512113514205/12/19 11:35:31  5-MIN KBKB 121735Z AUTO 00000KT 10SM FEW016 SCT027 OVC034 22/17 A2986 360 73 1300 000/00 RMK AO2 RAB08E19 P0000 T02170167 $
53988KBKB BKB20190512114014205/12/19 11:40:31  5-MIN KBKB 121740Z AUTO VRB03KT 10SM FEW021 BKN028 OVC034 22/17 A2986 360 73 1300 VRB/03 RMK AO2 RAB08E19 P0000 T02170167 $
53988KBKB BKB20190512114505805/12/19 11:45:31  5-MIN KBKB 121745Z AUTO 36005KT 10S67 $
53988KBKB BKB20190512121512005/12/19 12:15:31  5-MIN KBKB 121815Z AUTO VRB03KT 10SM SCT022 OVC033 21/17 A2985 360 75 1200 VRB/03 RMK AO2 T02110167 $
53988KBKB BKB20190512122012705/12/19 12:20:31  5-MIN KBKB 121820Z AUTO VRB04KT 10SM SCT019 BKN027 OVC035 21/17 A2985 360 78 1100 VRB/04 RMK AO2 T02060167 $
53988KBKB BKB20190512122512705/12/19 12:25:31  5-MIN KBKB 121825Z AUTO VRB03KT 10SM SCT017 BKN028 OVC035 21/17 A2985 360 78 1100 VRB/03 RMK AO2 T02060167 $
53988KBKB BKB20190512123012705/12/19 12:30:31  5-MIN KBKB 121830Z AUTO 00000KT 10SM FEW017 BKN028 OVC035 21/17 A2985 360 78 1100 000/00 RMK AO2 T02060167 $
53988KBKB BKB20190512123512705/12/19 12:35:31  5-MIN KBKB 121835Z AUTO 00000KT 10SM FEW017 BKN028 OVC035 21/17 A2985 360 81 1100 000/00 RMK AO2 T02060172 $
53988KBKB BKB20190512124017205/12/19 12:40:31  5-MIN KBKB 121840Z AUTO 00000KT 10SM FEW017 BKN028 OVC035 21/17 A2985 360 78 1200 000/00 RMK AO2 T02110172 $ A2985 360 75 1200 000/00 RMK AO2 T02110167 $
53988KBKB BKB20190512130012005/12/19 13:00:31  5-MIN KBKB 121900Z AUTO 00000KT 10SM FEW017 OVC035 22/17 A2985 360 75 1300 000/00 RMK AO2 T02170172 $
53988KBKB BKB20190512130512005/12/19 13:05:31  5-MIN KBKB 121905Z AUTO 00000KT 10SM FEW019 OVC035 21/17 A2985 360 78 1200 000/00 RMK AO2 T02110172 $
53988KBKB BKB20190512131012705/12/19 13:10:31  5-MIN KBKB 121910Z AUTO VRB03KT 10SM FEW019 BKN030 OVC037 21/17 A2985 360 75 1200 VRB/03 RMK AO2 T02110167 $
53988KBKB BKB20190512131512705/12/19 13:15:31  5-MIN KBKB 121915Z AUTO VRB03KT 10SM FEW019 BKN030 OVC037 21/16 A2985 360 73 1200 VRB/03 RMK AO2 T02110161 $
53988KBKB BKB20190512132012005/12/19 13:20:31  5-MIN KBKB 121920Z AUTO VRB03KT 10SM FEW019 OVC032 21/17 A2985 360 75 1200 VRB/03 RMK AO2 T02110167 $
53988KBKB BKB20190512132512005/12/19 13:25:31  5-MIN KBKB 121925Z AUTO 00000KT 10SM FEW019 OVC032 21/17 A2985 360 75 1200 000/00 RMK AO2 T02110167 $
53988KBKB BKB20190512133011305/12/19 13:30:31  5-MIN KBKB 121930Z AUTO 00000KT 10SM OVC032 21/17 A2985 360 75 1200 000/00 RMK AO2 T02110167 $
53988KBKB BKB20190512133511305/12/19 13:35:31  5-MIN KBKB 121935Z AUTO 00000KT 10SM OVC032 22/17 A2985 360 75 1300 000/00 RMK AO2 T02170172 $
53988KBKB BKB20190512134011305/12/19 13:40:31  5-MIN KBKB 121940Z AUTO 00000KT 10SM OVC032 22/17 A2985 360 75 1300 000/00 RMK AO2 T02170172 $
53988KBKB BKB20190512134512005/12/19 13:45:31  5-MIN KBKB 121945Z AUTO 00000KT 10SM BKN032 OVC042 22/17 A2985 360 75 1300 000/00 RMK AO2 T02170172 $
53988KBKB BKB20190512135012705/12/19 13:50:31  5-MIN KBKB 121950Z AUTO 00000KT 10SM BKN032 OVC044 23/17 A2985 360 70 1400 000/00 RMK AO2 SLP135 T02280172 $
53988KBKB BKB20190512135018405/12/19 13:50:31  5-MIN KBKB 121950Z AUTO 00000KT 10SM BKN032 OVC044 23/17 A2985 360 70 1400 000/00 RMK AO2 SLP135 T02280172 $OVC044 23/17 A2984 370 68 1500 VRB/03 RMK AO2 T02330172 $
53988KBKB BKB20190512135512705/12/19 13:55:31  5-MIN KBKB 121955Z AUTO VRB03KT 10SM FEW022 BKN032 OVC044 23/17 A2984 370 68 1500 VRB/03 RMK AO2 T02330172 $
53988KBKB BKB20190512140012705/12/19 14:00:31  5-MIN KBKB 122000Z AUTO VRB04KT 10SM SCT022 BKN031 OVC042 23/17 A2984 370 68 1400 VRB/04 RMK AO2 T02280167 $
53988KBKB BKB20190512140512705/12/19 14:05:31  5-MIN KBKB 122005Z AUTO 00000KT 10SM SCT024 BKN029 OVC044 23/16 A2984 370 65 1400 000/00 RMK AO2 T02280161 $
53988KBKB BKB20190512141012705/12/19 14:10:31  5-MIN KBKB 122010Z AUTO 00000KT 10SM SCT024 SCT029 OVC044 23/17 A2984 370 68 1400 000/00 RMK AO2 T02280167 $
53988KBKB BKB20190512141512705/12/19 14:15:31  5-MIN KBKB 122015Z AUTO 00000KT 10SM FEW022 BKN026 OVC044 23/17 A2984 380 68 1400 000/00 RMK AO2 T02280167 $
53988KBKB BKB20190512142012005/12/19 14:20:31  5-MIN KBKB 122020Z AUTO 00000KT 10SM BKN028 OVC044 23/17 A2984 370 66 1500 000/00 RMK AO2 T02330167 $
53988KBKB BKB20190512142512005/12/19 14:25:31  5-MIN KBKB 122025Z AUTO VRB03KT 10SM BKN028 BKN045 24/17 A2983 380 66 1500 VRB/03 RMK AO2 T02390172 $
53988KBKB BKB20190512143012005/12/19 14:30:31  5-MIN KBKB 122030Z AUTO 00000KT 10SM SCT027 BKN045 24/17 A2983 380 61 1600 000/00 RMK AO2 T02440167 $
53988KBKB BKB20190512143512005/12/19 14:35:31  5-MIN KBKB 122035Z AUTO VRB04KT 10SM SCT027 SCT045 24/17 A2983 380 63 1500 VRB/04 RMK AO2 T02390167 $
53988KBKB BKB20190512144011305/12/19 14:40:31  5-MIN KBKB 122040Z AUTO 00000KT 10SM SCT028 24/16 A2982 390 61 1500 000/00 RMK AO2 T02390161 $
53988KBKB BKB20190512144511305/12/19 14:45:31  5-MIN KBKB 122045Z AUTO VRB03KT 10SM SCT028 24/16 A2982 390 61 1500 VRB/03 RMK AO2 T02390161 $
53988KBKB BKB20190512145012605/12/19 14:50:31  5-MIN KBKB 122050Z AUTO 00000KT 10SM FEW028 23/16 A2982 390 65 1400 000/00 RMK AO2 SLP126 T02280161 51002 $
53988KBKB BKB20190512145511305/12/19 14:55:31  5-MIN KBKB 122055Z AUTO 00000KT 10SM FEW028 23/16 A2982 390 65 1400 000/00 RMK AO2 T02280161 $
53988KBKB BKB20190512150012005/12/19 15:00:31  5-MIN KBKB 122100Z AUTO VRB03KT 10SM FEW032 FEW040 23/16 A2982 390 63 1500 VRB/03 RMK AO2 T02330161 $
53988KBKB BKB20190512150507505/12/19 15:05:31  5-MIN KBKB 122105Z AUTO VRB04KT 10SM FEW032 SCT042 24/17
53988KBKB BKB20190512151012005/12/19 15:10:31  5-MIN KBKB 122110Z AUTO 00000KT 10SM SCT035 BKN044 23/16 A2982 390 63 1500 000/00 RMK AO2 T02330161 $
53988KBKB BKB20190512151512005/12/19 15:15:31  5-MIN KBKB 122115Z AUTO 00000KT 10SM SCT033 BKN042 23/16 A2982 390 63 1500 000/00 RMK AO2 T02330161 $
53988KBKB BKB20190512152012005/12/19 15:20:31  5-MIN KBKB 122120Z AUTO VRB04KT 10SM SCT033 BKN042 24/17 A2982 390 63 1600 VRB/04 RMK AO2 T02440172 $
53988KBKB BKB20190512152512005/12/19 15:25:31  5-MIN KBKB 122125Z AUTO VRB03KT 10SM SCT033 BKN044 23/17 A2982 390 66 1500 VRB/03 RMK AO2 T02330167 $
53988KBKB BKB20190512153012005/12/19 15:30:31  5-MIN KBKB 122130Z AUTO 00000KT 10SM SCT033 BKN044 23/17 A2982 390 68 1400 000/00 RMK AO2 T02280167 $
53988KBKB BKB20190512153512705/12/19 15:35:31  5-MIN KBKB 122135Z AUTO 00000KT 10SM FEW030 SCT040 SCT047 23/17 A2982 390 66 1500 000/00 RMK AO2 T02330167 $
53988KBKB BKB20190512154012005/12/19 15:40:31  5-MIN KBKB 122140Z AUTO 25004KT 10SM FEW030 SCT043 24/17 A2982 390 63 1600 250/04 RMK AO2 T02390167 $
53988KBKB BKB20190512154511305/12/19 15:45:31  5-MIN KBKB 122145Z AUTO 00000KT 10SM FEW045 24/17 A2982 390 63 1600 000/00 RMK AO2 T02390167 $
53988KBKB BKB20190512155012005/12/19 15:50:31  5-MIN KBKB 122150Z AUTO VRB04KT 10SM FEW047 24/17 A2982 390 63 1600 VRB/04 RMK AO2 SLP122 T02390167 $
53988KBKB BKB20190512155512005/12/19 15:55:31  5-MIN KBKB 122155Z AUTO 00000KT 10SM FEW028 SCT047 24/17 A2981 400 63 1600 000/00 RMK AO2 T02390167 $
53988KBKB BKB20190512160011305/12/19 16:00:31  5-MIN KBKB 122200Z AUTO 00000KT 10SM SCT043 24/17 A2981 400 61 1600 000/00 RMK AO2 T02440167 $
53988KBKB BKB20190512160511305/12/19 16:05:31  5-MIN KBKB 122205Z AUTO VRB03KT 10SM SCT041 24/17 A2981 400 61 1600 VRB/03 RMK AO2 T02440167 $
53988KBKB BKB20190512161011305/12/19 16:10:31  5-MIN KBKB 122210Z AUTO 00000KT 10SM SCT041 24/16 A2981 400 59 1600 000/00 RMK AO2 T02440161 $
53988KBKB BKB20190512161515105/12/19 16:15:31  5-MIN KBKB 122215Z AUTO VRB04KT 10SM FEW041 24/16 A2982 400 61 1600 VRB/04 RMK AO2 T02390161 $390 63 1400 VRB/03 RMK AO2 T02280156 $
53988KBKB BKB20190512162511305/12/19 16:25:31  5-MIN KBKB 122225Z AUTO 00000KT 10SM SCT041 23/16 A2981 400 65 1400 000/00 RMK AO2 T02280161 $
53988KBKB BKB20190512163012005/12/19 16:30:31  5-MIN KBKB 122230Z AUTO 00000KT 10SM FEW036 BKN045 23/17 A2981 400 68 1400 000/00 RMK AO2 T02280167 $
53988KBKB BKB20190512163512005/12/19 16:35:31  5-MIN KBKB 122235Z AUTO 00000KT 10SM FEW032 BKN045 23/17 A2981 400 68 1400 000/00 RMK AO2 T02280167 $
53988KBKB BKB20190512164012005/12/19 16:40:31  5-MIN KBKB 122240Z AUTO VRB03KT 10SM SCT032 BKN045 23/17 A2981 400 68 1400 VRB/03 RMK AO2 T02280167 $
53988KBKB BKB20190512164512005/12/19 16:45:31  5-MIN KBKB 122245Z AUTO 00000KT 10SM SCT032 BKN045 23/17 A2981 400 68 1400 000/00 RMK AO2 T02280167 $
53988KBKB BKB20190512165012705/12/19 16:50:31  5-MIN KBKB 122250Z AUTO 00000KT 10SM FEW032 BKN045 23/17 A2981 400 70 1400 000/00 RMK AO2 SLP120 T02280172 $
53988KBKB BKB20190512165512005/12/19 16:55:31  5-MIN KBKB 122255Z AUTO 00000KT 10SM FEW032 SCT045 23/17 A2981 400 70 1400 000/00 RMK AO2 T02280172 $
53988KBKB BKB20190512170012005/12/19 17:00:31  5-MIN KBKB 122300Z AUTO 00000KT 10SM FEW032 SCT043 23/17 A2981 400 68 1500 000/00 RMK AO2 T02330172 $
53988KBKB BKB20190512170511305/12/19 17:05:31  5-MIN KBKB 122305Z AUTO 00000KT 10SM FEW030 22/17 A2981 400 70 1400 000/00 RMK AO2 T02220167 $
53988KBKB BKB20190512171011005/12/19 17:10:31  5-MIN KBKB 122310Z AUTO 00000KT 10SM CLR 22/17 A2981 400 75 1300 000/00 RMK AO2 T02170172 $
53988KBKB BKB20190512171511005/12/19 17:15:31  5-MIN KBKB 122315Z AUTO 00000KT 10SM CLR 22/17 A2980 410 75 1300 000/00 RMK AO2 T02170172 $
53988KBKB BKB20190512172011005/12/19 17:20:31  5-MIN KBKB 122320Z AUTO 00000KT 10SM CLR 22/17 A2981 400 75 1300 000/00 RMK AO2 T02170172 $
53988KBKB BKB20190512172511005/12/19 17:25:31  5-MIN KBKB 122325Z AUTO 00000KT 10SM CLR 22/17 A2981 400 73 1400 000/00 RMK AO2 T02220172 $
53988KBKB BKB20190512173014505/12/19 17:30:31  5-MIN KBKB 122330Z AUTO VRB03KT 10SM CLR 22/17 A2981 400 73 1400 VRB/03 RMK AO2 T02220172 $ 70 1400 000/00 RMK AO2 T02220167 $
53988KBKB BKB20190512174011005/12/19 17:40:31  5-MIN KBKB 122340Z AUTO VRB03KT 10SM CLR 22/17 A2981 400 70 1400 VRB/03 RMK AO2 T02220167 $
53988KBKB BKB20190512174511005/12/19 17:45:31  5-MIN KBKB 122345Z AUTO VRB03KT 10SM CLR 22/16 A2981 400 68 1400 VRB/03 RMK AO2 T02220161 $
53988KBKB BKB20190512175013505/12/19 17:50:31  5-MIN KBKB 122350Z AUTO 00000KT 10SM CLR 22/16 A2981 400 70 1300 000/00 RMK AO2 SLP120 T02170161 10244 20200 58013 $
53988KBKB BKB20190512175511005/12/19 17:55:31  5-MIN KBKB 122355Z AUTO VRB03KT 10SM CLR 22/17 A2980 410 73 1300 VRB/03 RMK AO2 T02170167 $
53988KBKB BKB20190512180011005/12/19 18:00:31  5-MIN KBKB 130000Z AUTO 00000KT 10SM CLR 22/17 A2980 410 73 1300 000/00 RMK AO2 T02170167 $
53988KBKB BKB20190512180511005/12/19 18:05:31  5-MIN KBKB 130005Z AUTO 00000KT 10SM CLR 21/17 A2980 410 75 1300 000/00 RMK AO2 T02110167 $
53988KBKB BKB20190512181011005/12/19 18:10:31  5-MIN KBKB 130010Z AUTO 00000KT 10SM CLR 21/17 A2981 400 78 1200 000/00 RMK AO2 T02110172 $
53988KBKB BKB20190512181511005/12/19 18:15:31  5-MIN KBKB 130015Z AUTO 00000KT 10SM CLR 21/17 A2981 400 78 1300 000/00 RMK AO2 T02110172 $
53988KBKB BKB20190512182011005/12/19 18:20:31  5-MIN KBKB 130020Z AUTO 00000KT 10SM CLR 21/17 A2981 400 78 1300 000/00 RMK AO2 T02110172 $
53988KBKB BKB20190512182511005/12/19 18:25:31  5-MIN KBKB 130025Z AUTO 00000KT 10SM CLR 21/17 A2981 400 81 1200 000/00 RMK AO2 T02060172 $
53988KBKB BKB20190512183011005/12/19 18:30:31  5-MIN KBKB 130030Z AUTO 00000KT 10SM CLR 20/17 A2981 400 84 1100 000/00 RMK AO2 T02000172 $
53988KBKB BKB20190512183511005/12/19 18:35:31  5-MIN KBKB 130035Z AUTO 00000KT 10SM CLR 20/17 A2981 400 84 1100 000/00 RMK AO2 T02000172 $
53988KBKB BKB20190512184011005/12/19 18:40:31  5-MIN KBKB 130040Z AUTO 00000KT 10SM CLR 20/17 A2981 400 84 1100 000/00 RMK AO2 T02000172 $
53988KBKB BKB20190512184511005/12/19 18:45:31  5-MIN KBKB 130045Z AUTO 00000KT 10SM CLR 20/18 A2981 400 87 1100 000/00 RMK AO2 T02000178 $
53988KBKB BKB20190512185511005/12/19 18:55:31  5-MIN KBKB 130055Z AUTO 00000KT 10SM CLR 19/18 A2982 400 90 1000 000/00 RMK AO2 T01940178 $
53988KBKB BKB20190512190011005/12/19 19:00:31  5-MIN KBKB 130100Z AUTO 00000KT 10SM CLR 19/17 A2982 390 90 1000 000/00 RMK AO2 T01890172 $
53988KBKB BKB20190512190511005/12/19 19:05:31  5-MIN KBKB 130105Z AUTO 00000KT 10SM CLR 19/17 A2982 390 90 1000 000/00 RMK AO2 T01890172 $
53988KBKB BKB20190512191011005/12/19 19:10:31  5-MIN KBKB 130110Z AUTO 00000KT 10SM CLR 19/17 A2982 390 90 1000 000/00 RMK AO2 T01890172 $
53988KBKB BKB20190512191511005/12/19 19:15:31  5-MIN KBKB 130115Z AUTO 00000KT 10SM CLR 19/17 A2983 380 90 1000 000/00 RMK AO2 T01890172 $
53988KBKB BKB20190512192011005/12/19 19:20:31  5-MIN KBKB 130120Z AUTO 00000KT 10SM CLR 19/17 A2983 380 90 1000 000/00 RMK AO2 T01890172 $
53988KBKB BKB20190512192511005/12/19 19:25:31  5-MIN KBKB 130125Z AUTO 00000KT 10SM CLR 19/17 A2983 380 87 1000 000/00 RMK AO2 T01890167 $
53988KBKB BKB20190512193010905/12/19 19:30:31  5-MIN KBKB 130130Z AUTO 00000KT 10SM CLR 18/17 A2983 380 90 900 000/00 RMK AO2 T01830167 $
53988KBKB BKB20190512193510905/12/19 19:35:31  5-MIN KBKB 130135Z AUTO 00000KT 10SM CLR 18/17 A2984 380 90 900 000/00 RMK AO2 T01830167 $
53988KBKB BKB20190512194010905/12/19 19:40:31  5-MIN KBKB 130140Z AUTO 00000KT 10SM CLR 18/17 A2984 370 90 900 000/00 RMK AO2 T01830167 $
53988KBKB BKB20190512194510905/12/19 19:45:31  5-MIN KBKB 130145Z AUTO 00000KT 10SM CLR 18/17 A2984 370 93 800 000/00 RMK AO2 T01780167 $
53988KBKB BKB20190512195011605/12/19 19:50:31  5-MIN KBKB 130150Z AUTO 00000KT 10SM CLR 18/17 A2984 370 93 800 000/00 RMK AO2 SLP132 T01780167 $
53988KBKB BKB20190512195510905/12/19 19:55:31  5-MIN KBKB 130155Z AUTO 00000KT 10SM CLR 18/17 A2984 370 93 800 000/00 RMK AO2 T01780167 $
53988KBKB BKB20190512200010905/12/19 20:00:31  5-MIN KBKB 130200Z AUTO 00000KT 10SM CLR 18/17 A2984 370 93 800 000/00 RMK AO2 T01780167 $
53988KBKB BKB20190512200514305/12/19 20:05:31  5-MIN KBKB 130205Z AUTO 00000KT 10SM CLR 18/17 A2985 370 93 800 000/00 RMK AO2 T01780167 $ 90 800 000/00 RMK AO2 T01780161 $
53988KBKB BKB20190512201510905/12/19 20:15:31  5-MIN KBKB 130215Z AUTO 00000KT 10SM CLR 18/16 A2985 360 90 800 000/00 RMK AO2 T01780161 $
53988KBKB BKB20190512202010905/12/19 20:20:31  5-MIN KBKB 130220Z AUTO 00000KT 10SM CLR 17/16 A2985 360 93 700 000/00 RMK AO2 T01720161 $
53988KBKB BKB20190512202510905/12/19 20:25:31  5-MIN KBKB 130225Z AUTO 00000KT 10SM CLR 17/16 A2985 360 93 700 000/00 RMK AO2 T01720161 $
53988KBKB BKB20190512203010905/12/19 20:30:31  5-MIN KBKB 130230Z AUTO 00000KT 10SM CLR 17/16 A2986 360 93 700 000/00 RMK AO2 T01720161 $
53988KBKB BKB20190512203510905/12/19 20:35:31  5-MIN KBKB 130235Z AUTO 00000KT 10SM CLR 17/16 A2986 350 93 700 000/00 RMK AO2 T01720161 $
53988KBKB BKB20190512204010905/12/19 20:40:31  5-MIN KBKB 130240Z AUTO 00000KT 10SM CLR 17/16 A2986 350 93 700 000/00 RMK AO2 T01720161 $
53988KBKB BKB20190512204510905/12/19 20:45:31  5-MIN KBKB 130245Z AUTO 00000KT 10SM CLR 17/16 A2987 350 96 700 000/00 RMK AO2 T01670161 $
53988KBKB BKB20190512205012205/12/19 20:50:31  5-MIN KBKB 130250Z AUTO 00000KT 10SM CLR 17/16 A2987 350 96 700 000/00 RMK AO2 SLP142 T01670161 56006 $
53988KBKB BKB20190512205510905/12/19 20:55:31  5-MIN KBKB 130255Z AUTO 00000KT 10SM CLR 17/16 A2987 340 93 700 000/00 RMK AO2 T01670156 $
53988KBKB BKB20190512210010905/12/19 21:00:31  5-MIN KBKB 130300Z AUTO 00000KT 10SM CLR 17/16 A2987 340 93 700 000/00 RMK AO2 T01670156 $
53988KBKB BKB20190512210510805/12/19 21:05:31  5-MIN KBKB 130305Z AUTO 00000KT 9SM CLR 16/16 A2987 340 96 600 000/00 RMK AO2 T01610156 $
53988KBKB BKB20190512211010805/12/19 21:10:31  5-MIN KBKB 130310Z AUTO 00000KT 9SM CLR 16/16 A2987 340 96 600 000/00 RMK AO2 T01610156 $
53988KBKB BKB20190512211510805/12/19 21:15:31  5-MIN KBKB 130315Z AUTO 00000KT 9SM CLR 16/16 A2988 340 96 600 000/00 RMK AO2 T01610156 $
53988KBKB BKB20190512212010805/12/19 21:20:31  5-MIN KBKB 130320Z AUTO 00000KT 8SM CLR 16/16 A2988 340 96 600 000/00 RMK AO2 T01610156 $
53988KBKB BKB20190512212514105/12/19 21:25:31  5-MIN KBKB 130325Z AUTO 00000KT 8SM CLR 16/16 A2988 340 96 600 000/00 RMK AO2 T01610156 $93 600 000/00 RMK AO2 T01610150 $
53988KBKB BKB20190512213510805/12/19 21:35:31  5-MIN KBKB 130335Z AUTO 00000KT 7SM CLR 16/15 A2988 330 93 600 000/00 RMK AO2 T01610150 $
53988KBKB BKB20190512214010805/12/19 21:40:31  5-MIN KBKB 130340Z AUTO 00000KT 8SM CLR 16/15 A2988 330 93 600 000/00 RMK AO2 T01610150 $
53988KBKB BKB20190512214510805/12/19 21:45:31  5-MIN KBKB 130345Z AUTO 00000KT 9SM CLR 16/16 A2988 330 96 600 000/00 RMK AO2 T01610156 $
53988KBKB BKB20190512215011605/12/19 21:50:31  5-MIN KBKB 130350Z AUTO 00000KT 10SM CLR 16/16 A2988 330 96 600 000/00 RMK AO2 SLP147 T01610156 $
53988KBKB BKB20190512215510905/12/19 21:55:31  5-MIN KBKB 130355Z AUTO 00000KT 10SM CLR 16/16 A2988 330 96 600 000/00 RMK AO2 T01610156 $
53988KBKB BKB20190512220010905/12/19 22:00:31  5-MIN KBKB 130400Z AUTO 00000KT 10SM CLR 16/16 A2989 330 96 600 000/00 RMK AO2 T01610156 $
53988KBKB BKB20190512220510905/12/19 22:05:31  5-MIN KBKB 130405Z AUTO 00000KT 10SM CLR 16/16 A2989 330 96 600 000/00 RMK AO2 T01610156 $
53988KBKB BKB20190512221010905/12/19 22:10:31  5-MIN KBKB 130410Z AUTO 00000KT 10SM CLR 16/16 A2989 330 96 600 000/00 RMK AO2 T01610156 $
53988KBKB BKB20190512221510805/12/19 22:15:31  5-MIN KBKB 130415Z AUTO 00000KT 9SM CLR 16/16 A2989 330 96 600 000/00 RMK AO2 T01610156 $
53988KBKB BKB20190512222010805/12/19 22:20:31  5-MIN KBKB 130420Z AUTO 00000KT 8SM CLR 16/16 A2989 320 96 600 000/00 RMK AO2 T01610156 $
53988KBKB BKB20190512222510805/12/19 22:25:31  5-MIN KBKB 130425Z AUTO 00000KT 7SM CLR 16/15 A2989 320 96 500 000/00 RMK AO2 T01560150 $
53988KBKB BKB20190512223010805/12/19 22:30:31  5-MIN KBKB 130430Z AUTO 00000KT 7SM CLR 16/15 A2989 330 96 500 000/00 RMK AO2 T01560150 $
53988KBKB BKB20190512223510805/12/19 22:35:31  5-MIN KBKB 130435Z AUTO 00000KT 7SM CLR 16/15 A2989 320 96 500 000/00 RMK AO2 T01560150 $
53988KBKB BKB20190512224010805/12/19 22:40:31  5-MIN KBKB 130440Z AUTO 00000KT 8SM CLR 16/15 A2989 320 96 500 000/00 RMK AO2 T01560150 $
53988KBKB BKB20190512224514805/12/19 22:45:31  5-MIN KBKB 130445Z AUTO 00000KT 7SM CLR 16/15 A2989 330 96 500 000/00 RMK AO2 T01560150 $96 500 000/00 RMK AO2 SLP149 T01560150 $
53988KBKB BKB20190512225510905/12/19 22:55:31  5-MIN KBKB 130455Z AUTO 00000KT 7SM CLR 15/15 A2989 320 100 400 000/00 RMK AO2 T01500150 $
53988KBKB BKB20190512230011105/12/19 23:00:31  5-MIN KBKB 130500Z AUTO 00000KT 6SM BR CLR 15/14 A2989 320 96 400 000/00 RMK AO2 T01500144 $
53988KBKB BKB20190512230511105/12/19 23:05:31  5-MIN KBKB 130505Z AUTO 00000KT 6SM BR CLR 15/14 A2989 320 96 400 000/00 RMK AO2 T01500144 $
53988KBKB BKB20190512231011105/12/19 23:10:31  5-MIN KBKB 130510Z AUTO 00000KT 5SM BR CLR 15/14 A2989 320 96 400 000/00 RMK AO2 T01500144 $
53988KBKB BKB20190512231511105/12/19 23:15:31  5-MIN KBKB 130515Z AUTO 00000KT 4SM BR CLR 15/14 A2989 330 96 400 000/00 RMK AO2 T01500144 $
53988KBKB BKB20190512232011105/12/19 23:20:31  5-MIN KBKB 130520Z AUTO 00000KT 4SM BR CLR 15/14 A2989 330 96 400 000/00 RMK AO2 T01500144 $
53988KBKB BKB20190512232511105/12/19 23:25:31  5-MIN KBKB 130525Z AUTO 00000KT 5SM BR CLR 14/14 A2989 330 96 400 000/00 RMK AO2 T01440139 $
53988KBKB BKB20190512233011105/12/19 23:30:31  5-MIN KBKB 130530Z AUTO 00000KT 5SM BR CLR 14/14 A2989 330 96 400 000/00 RMK AO2 T01440139 $
53988KBKB BKB20190512233511105/12/19 23:35:31  5-MIN KBKB 130535Z AUTO 00000KT 5SM BR CLR 14/14 A2989 330 96 400 000/00 RMK AO2 T01440139 $
53988KBKB BKB20190512234011105/12/19 23:40:31  5-MIN KBKB 130540Z AUTO 00000KT 5SM BR CLR 14/14 A2989 330 96 400 000/00 RMK AO2 T01440139 $
53988KBKB BKB20190512234511105/12/19 23:45:31  5-MIN KBKB 130545Z AUTO 00000KT 5SM BR CLR 14/14 A2989 330 96 400 000/00 RMK AO2 T01440139 $
53988KBKB BKB20190512235011105/12/19 23:50:31  5-MIN KBKB 130550Z AUTO 00000KT 6SM BR CLR 14/14 A2989 320 96 400 000/00 RMK AO2 T01440139 $
53988KBKB BKB20190512235014605/12/19 23:50:31  5-MIN KBKB 130550Z AUTO 00000KT 6SM BR CLR 14/14 A2989 330 96 400 000/00 RMK AO2 SLP149 T01440139 10217 20144 402440144 53022 $
53988KBKB BKB20190512235511105/12/19 23:55:31  5-MIN KBKB 130555Z AUTO 00000KT 6SM BR CLR 14/14 A2989 320 96 400 000/00 RMK AO2 T01440139 $
53988KBKB BKB20190513000011105/13/19 00:00:31  5-MIN KBKB 130600Z AUTO 00000KT 5SM BR CLR 14/14 A2989 320 96 400 000/00 RMK AO2 T01440139 $
53988KBKB BKB20190513000511105/13/19 00:05:31  5-MIN KBKB 130605Z AUTO 00000KT 5SM BR CLR 14/14 A2989 320 96 400 000/00 RMK AO2 T01440139 $
53988KBKB BKB20190513001011105/13/19 00:10:31  5-MIN KBKB 130610Z AUTO 00000KT 5SM BR CLR 14/14 A2989 330 96 400 000/00 RMK AO2 T01440139 $
53988KBKB BKB20190513001511105/13/19 00:15:31  5-MIN KBKB 130615Z AUTO 00000KT 5SM BR CLR 14/14 A2989 330 96 400 000/00 RMK AO2 T01440139 $
53988KBKB BKB20190513002011105/13/19 00:20:31  5-MIN KBKB 130620Z AUTO 00000KT 5SM BR CLR 14/14 A2989 330 96 400 000/00 RMK AO2 T01440139 $
53988KBKB BKB20190513002511105/13/19 00:25:31  5-MIN KBKB 130625Z AUTO 00000KT 5SM BR CLR 14/14 A2989 330 96 400 000/00 RMK AO2 T01440139 $
53988KBKB BKB20190513003011105/13/19 00:30:31  5-MIN KBKB 130630Z AUTO 00000KT 6SM BR CLR 14/14 A2989 330 96 400 000/00 RMK AO2 T01440139 $
53988KBKB BKB20190513003511105/13/19 00:35:31  5-MIN KBKB 130635Z AUTO 00000KT 6SM BR CLR 14/14 A2989 330 96 400 000/00 RMK AO2 T01440139 $
53988KBKB BKB20190513004011105/13/19 00:40:31  5-MIN KBKB 130640Z AUTO 00000KT 6SM BR CLR 14/14 A2989 330 96 400 000/00 RMK AO2 T01440139 $
53988KBKB BKB20190513004510905/13/19 00:45:31  5-MIN KBKB 130645Z AUTO 00000KT 7SM CLR 14/14 A2989 330 100 300 000/00 RMK AO2 T01390139 $
53988KBKB BKB20190513005011605/13/19 00:50:31  5-MIN KBKB 130650Z AUTO 00000KT 7SM CLR 14/14 A2989 330 100 300 000/00 RMK AO2 SLP148 T01390139 $
53988KBKB BKB20190513005511205/13/19 00:55:31  5-MIN KBKB 130655Z AUTO 00000KT 6SM BR CLR 14/14 A2989 330 100 300 000/00 RMK AO2 T01390139 $
53988KBKB BKB20190513010011105/13/19 01:00:31  5-MIN KBKB 130700Z AUTO 00000KT 6SM BR CLR 14/13 A2989 330 96 300 000/00 RMK AO2 T01390133 $
53988KBKB BKB20190513010511105/13/19 01:05:31  5-MIN KBKB 130705Z AUTO 00000KT 6SM BR CLR 14/13 A2989 330 96 300 000/00 RMK AO2 T01390133 $
53988KBKB BKB20190513011011105/13/19 01:10:31  5-MIN KBKB 130710Z AUTO 00000KT 6SM BR CLR 14/13 A2989 320 96 300 000/00 RMK AO2 T01390133 $
53988KBKB BKB20190513011511105/13/19 01:15:31  5-MIN KBKB 130715Z AUTO 00000KT 6SM BR CLR 14/13 A2989 330 96 300 000/00 RMK AO2 T01390133 $
53988KBKB BKB20190513012011205/13/19 01:20:31  5-MIN KBKB 130720Z AUTO 00000KT 6SM BR CLR 13/13 A2989 330 100 200 000/00 RMK AO2 T01330133 $
53988KBKB BKB20190513012511105/13/19 01:25:31  5-MIN KBKB 130725Z AUTO 00000KT 6SM BR CLR 13/13 A2989 330 96 200 000/00 RMK AO2 T01330128 $
53988KBKB BKB20190513013011105/13/19 01:30:31  5-MIN KBKB 130730Z AUTO 00000KT 6SM BR CLR 13/13 A2989 330 96 200 000/00 RMK AO2 T01330128 $
53988KBKB BKB20190513013511105/13/19 01:35:31  5-MIN KBKB 130735Z AUTO 00000KT 5SM BR CLR 13/13 A2989 330 96 200 000/00 RMK AO2 T01330128 $
53988KBKB BKB20190513014011105/13/19 01:40:31  5-MIN KBKB 130740Z AUTO 00000KT 6SM BR CLR 13/13 A2989 330 96 200 000/00 RMK AO2 T01330128 $
53988KBKB BKB20190513014511105/13/19 01:45:31  5-MIN KBKB 130745Z AUTO 00000KT 5SM BR CLR 13/13 A2989 330 96 200 000/00 RMK AO2 T01330128 $
53988KBKB BKB20190513015011805/13/19 01:50:31  5-MIN KBKB 130750Z AUTO 00000KT 5SM BR CLR 13/13 A2989 330 96 200 000/00 RMK AO2 SLP149 T01330128 $
53988KBKB BKB20190513015511105/13/19 01:55:31  5-MIN KBKB 130755Z AUTO 00000KT 5SM BR CLR 13/13 A2989 330 96 200 000/00 RMK AO2 T01330128 $
53988KBKB BKB20190513020011105/13/19 02:00:31  5-MIN KBKB 130800Z AUTO 00000KT 5SM BR CLR 13/13 A2989 330 96 200 000/00 RMK AO2 T01330128 $
53988KBKB BKB20190513020511105/13/19 02:05:31  5-MIN KBKB 130805Z AUTO 00000KT 5SM BR CLR 13/13 A2989 330 96 200 000/00 RMK AO2 T01330128 $
53988KBKB BKB20190513021011105/13/19 02:10:31  5-MIN KBKB 130810Z AUTO 00000KT 5SM BR CLR 13/13 A2989 330 96 200 000/00 RMK AO2 T01330128 $
53988KBKB BKB20190513021511105/13/19 02:15:31  5-MIN KBKB 130815Z AUTO 00000KT 5SM BR CLR 13/12 A2989 330 96 200 000/00 RMK AO2 T01280122 $
53988KBKB BKB20190513022011105/13/19 02:20:31  5-MIN KBKB 130820Z AUTO 00000KT 5SM BR CLR 13/12 A2989 330 96 200 000/00 RMK AO2 T01280122 $
53988KBKB BKB20190513022511105/13/19 02:25:31  5-MIN KBKB 130825Z AUTO 00000KT 6SM BR CLR 13/13 A2989 330 96 200 000/00 RMK AO2 T01330128 $
53988KBKB BKB20190513023011105/13/19 02:30:31  5-MIN KBKB 130830Z AUTO 00000KT 6SM BR CLR 13/12 A2989 330 93 200 000/00 RMK AO2 T01330122 $
53988KBKB BKB20190513023511105/13/19 02:35:31  5-MIN KBKB 130835Z AUTO 00000KT 5SM BR CLR 13/12 A2989 330 96 200 000/00 RMK AO2 T01280122 $
53988KBKB BKB20190513024011105/13/19 02:40:31  5-MIN KBKB 130840Z AUTO 00000KT 5SM BR CLR 13/12 A2989 330 96 200 000/00 RMK AO2 T01280122 $
53988KBKB BKB20190513024511105/13/19 02:45:31  5-MIN KBKB 130845Z AUTO 00000KT 6SM BR CLR 13/12 A2988 330 96 200 000/00 RMK AO2 T01280122 $
53988KBKB BKB20190513025012405/13/19 02:50:31  5-MIN KBKB 130850Z AUTO 00000KT 6SM BR CLR 13/12 A2988 330 96 200 000/00 RMK AO2 SLP146 T01280122 51007 $
53988KBKB BKB20190513025511105/13/19 02:55:31  5-MIN KBKB 130855Z AUTO 00000KT 5SM BR CLR 13/12 A2988 330 96 200 000/00 RMK AO2 T01280122 $
53988KBKB BKB20190513030011105/13/19 03:00:31  5-MIN KBKB 130900Z AUTO 00000KT 5SM BR CLR 13/12 A2988 330 96 200 000/00 RMK AO2 T01280122 $
53988KBKB BKB20190513030511105/13/19 03:05:31  5-MIN KBKB 130905Z AUTO 00000KT 5SM BR CLR 13/12 A2988 330 96 200 000/00 RMK AO2 T01280122 $
53988KBKB BKB20190513031011105/13/19 03:10:31  5-MIN KBKB 130910Z AUTO 00000KT 5SM BR CLR 13/12 A2988 330 96 200 000/00 RMK AO2 T01280122 $
53988KBKB BKB20190513031511105/13/19 03:15:31  5-MIN KBKB 130915Z AUTO 00000KT 5SM BR CLR 13/12 A2988 330 96 200 000/00 RMK AO2 T01280122 $
53988KBKB BKB20190513032011105/13/19 03:20:31  5-MIN KBKB 130920Z AUTO 00000KT 5SM BR CLR 13/12 A2989 330 96 200 000/00 RMK AO2 T01280122 $
53988KBKB BKB20190513032511105/13/19 03:25:31  5-MIN KBKB 130925Z AUTO 00000KT 5SM BR CLR 13/12 A2989 330 96 200 000/00 RMK AO2 T01280122 $
53988KBKB BKB20190513033011105/13/19 03:30:31  5-MIN KBKB 130930Z AUTO 00000KT 5SM BR CLR 13/12 A2989 330 96 200 000/00 RMK AO2 T01280122 $
53988KBKB BKB20190513033511105/13/19 03:35:31  5-MIN KBKB 130935Z AUTO 00000KT 5SM BR CLR 13/12 A2989 330 96 200 000/00 RMK AO2 T01280122 $
53988KBKB BKB20190513034011105/13/19 03:40:31  5-MIN KBKB 130940Z AUTO 00000KT 5SM BR CLR 13/12 A2989 320 96 200 000/00 RMK AO2 T01280122 $
53988KBKB BKB20190513034511205/13/19 03:45:31  5-MIN KBKB 130945Z AUTO 00000KT 5SM BR CLR 12/12 A2989 320 100 100 000/00 RMK AO2 T01220122 $
53988KBKB BKB20190513035011805/13/19 03:50:31  5-MIN KBKB 130950Z AUTO 00000KT 5SM BR CLR 12/12 A2989 320 96 100 000/00 RMK AO2 SLP149 T01220117 $
53988KBKB BKB20190513035511105/13/19 03:55:31  5-MIN KBKB 130955Z AUTO 00000KT 6SM BR CLR 12/12 A2989 320 96 100 000/00 RMK AO2 T01220117 $
53988KBKB BKB20190513040011105/13/19 04:00:31  5-MIN KBKB 131000Z AUTO 00000KT 6SM BR CLR 12/12 A2989 320 96 100 000/00 RMK AO2 T01220117 $
53988KBKB BKB20190513040511105/13/19 04:05:31  5-MIN KBKB 131005Z AUTO 00000KT 6SM BR CLR 12/12 A2990 320 96 100 000/00 RMK AO2 T01220117 $
53988KBKB BKB20190513041011105/13/19 04:10:31  5-MIN KBKB 131010Z AUTO 00000KT 6SM BR CLR 12/12 A2990 320 96 100 000/00 RMK AO2 T01220117 $
53988KBKB BKB20190513041510805/13/19 04:15:31  5-MIN KBKB 131015Z AUTO 00000KT 7SM CLR 12/12 A2990 320 96 100 000/00 RMK AO2 T01220117 $
53988KBKB BKB20190513042010905/13/19 04:20:31  5-MIN KBKB 131020Z AUTO 00000KT 7SM CLR 12/12 A2990 320 100 100 000/00 RMK AO2 T01220122 $
53988KBKB BKB20190513042511105/13/19 04:25:31  5-MIN KBKB 131025Z AUTO 00000KT 6SM BR CLR 12/12 A2990 320 96 100 000/00 RMK AO2 T01220117 $
53988KBKB BKB20190513043011105/13/19 04:30:31  5-MIN KBKB 131030Z AUTO 00000KT 6SM BR CLR 12/12 A2990 320 96 100 000/00 RMK AO2 T01220117 $
53988KBKB BKB20190513043511105/13/19 04:35:31  5-MIN KBKB 131035Z AUTO 00000KT 6SM BR CLR 12/12 A2990 310 96 100 000/00 RMK AO2 T01220117 $
53988KBKB BKB20190513044011105/13/19 04:40:31  5-MIN KBKB 131040Z AUTO 00000KT 6SM BR CLR 12/12 A2990 310 96 100 000/00 RMK AO2 T01220117 $
53988KBKB BKB20190513044511105/13/19 04:45:31  5-MIN KBKB 131045Z AUTO 00000KT 6SM BR CLR 12/12 A2990 310 96 100 000/00 RMK AO2 T01220117 $
53988KBKB BKB20190513045011805/13/19 04:50:31  5-MIN KBKB 131050Z AUTO 00000KT 6SM BR CLR 12/12 A2991 310 96 100 000/00 RMK AO2 SLP154 T01220117 $
53988KBKB BKB20190513045511105/13/19 04:55:31  5-MIN KBKB 131055Z AUTO 00000KT 6SM BR CLR 12/12 A2991 310 96 100 000/00 RMK AO2 T01220117 $
53988KBKB BKB20190513050010805/13/19 05:00:31  5-MIN KBKB 131100Z AUTO 00000KT 7SM CLR 12/12 A2991 310 96 100 000/00 RMK AO2 T01220117 $
53988KBKB BKB20190513050510805/13/19 05:05:31  5-MIN KBKB 131105Z AUTO 00000KT 7SM CLR 12/12 A2991 310 96 100 000/00 RMK AO2 T01220117 $
53988KBKB BKB20190513051010805/13/19 05:10:31  5-MIN KBKB 131110Z AUTO 00000KT 7SM CLR 12/12 A2992 300 96 100 000/00 RMK AO2 T01220117 $
53988KBKB BKB20190513051510805/13/19 05:15:31  5-MIN KBKB 131115Z AUTO 00000KT 7SM CLR 12/12 A2992 300 96 100 000/00 RMK AO2 T01220117 $
53988KBKB BKB20190513052011105/13/19 05:20:31  5-MIN KBKB 131120Z AUTO 00000KT 6SM BR CLR 12/12 A2992 300 96 100 000/00 RMK AO2 T01220117 $
53988KBKB BKB20190513052511105/13/19 05:25:31  5-MIN KBKB 131125Z AUTO 00000KT 5SM BR CLR 12/12 A2992 300 96 100 000/00 RMK AO2 T01220117 $
53988KBKB BKB20190513053011105/13/19 05:30:31  5-MIN KBKB 131130Z AUTO 00000KT 5SM BR CLR 12/12 A2992 290 96 100 000/00 RMK AO2 T01220117 $
53988KBKB BKB20190513053511105/13/19 05:35:31  5-MIN KBKB 131135Z AUTO 00000KT 5SM BR CLR 12/12 A2993 290 96 100 000/00 RMK AO2 T01220117 $
53988KBKB BKB20190513054011105/13/19 05:40:31  5-MIN KBKB 131140Z AUTO 00000KT 4SM BR CLR 12/12 A2993 290 96 100 000/00 RMK AO2 T01220117 $
53988KBKB BKB20190513054511105/13/19 05:45:31  5-MIN KBKB 131145Z AUTO 00000KT 4SM BR CLR 12/12 A2993 290 96 100 000/00 RMK AO2 T01220117 $
53988KBKB BKB20190513055013605/13/19 05:50:31  5-MIN KBKB 131150Z AUTO 00000KT 4SM BR CLR 12/12 A2993 290 96 100 000/00 RMK AO2 SLP161 T01220117 10144 20122 58003 $
53988KBKB BKB20190513055511105/13/19 05:55:31  5-MIN KBKB 131155Z AUTO 00000KT 4SM BR CLR 12/12 A2993 290 96 100 000/00 RMK AO2 T01220117 $
53988KBKB BKB20190513060011105/13/19 06:00:31  5-MIN KBKB 131200Z AUTO 00000KT 5SM BR CLR 13/12 A2993 290 96 100 000/00 RMK AO2 T01280122 $
53988KBKB BKB20190513060511105/13/19 06:05:31  5-MIN KBKB 131205Z AUTO 00000KT 5SM BR CLR 13/12 A2993 290 96 100 000/00 RMK AO2 T01280122 $
53988KBKB BKB20190513061011105/13/19 06:10:31  5-MIN KBKB 131210Z AUTO 00000KT 5SM BR CLR 13/12 A2993 290 96 100 000/00 RMK AO2 T01280122 $
53988KBKB BKB20190513061511105/13/19 06:15:31  5-MIN KBKB 131215Z AUTO 00000KT 5SM BR CLR 13/13 A2993 290 96 200 000/00 RMK AO2 T01330128 $
53988KBKB BKB20190513062011205/13/19 06:20:31  5-MIN KBKB 131220Z AUTO 00000KT 5SM BR CLR 13/13 A2993 290 100 200 000/00 RMK AO2 T01330133 $
53988KBKB BKB20190513062511205/13/19 06:25:31  5-MIN KBKB 131225Z AUTO 00000KT 5SM BR CLR 14/14 A2993 290 100 300 000/00 RMK AO2 T01390139 $
53988KBKB BKB20190513063011205/13/19 06:30:31  5-MIN KBKB 131230Z AUTO 00000KT 6SM BR CLR 14/14 A2993 290 100 300 000/00 RMK AO2 T01440144 $
53988KBKB BKB20190513063511205/13/19 06:35:31  5-MIN KBKB 131235Z AUTO 00000KT 6SM BR CLR 15/15 A2994 280 100 400 000/00 RMK AO2 T01500150 $
53988KBKB BKB20190513064010805/13/19 06:40:31  5-MIN KBKB 131240Z AUTO 00000KT 7SM CLR 16/15 A2994 280 96 500 000/00 RMK AO2 T01560150 $
53988KBKB BKB20190513064510905/13/19 06:45:31  5-MIN KBKB 131245Z AUTO 00000KT 7SM CLR 16/16 A2994 280 100 500 000/00 RMK AO2 T01610161 $
53988KBKB BKB20190513065011505/13/19 06:50:31  5-MIN KBKB 131250Z AUTO 00000KT 8SM CLR 17/16 A2994 280 96 600 000/00 RMK AO2 SLP164 T01670161 $
53988KBKB BKB20190513065510805/13/19 06:55:31  5-MIN KBKB 131255Z AUTO 00000KT 8SM CLR 17/16 A2994 280 96 600 000/00 RMK AO2 T01670161 $
53988KBKB BKB20190513070010805/13/19 07:00:31  5-MIN KBKB 131300Z AUTO 00000KT 9SM CLR 17/17 A2994 280 96 700 000/00 RMK AO2 T01720167 $
53988KBKB BKB20190513070510905/13/19 07:05:31  5-MIN KBKB 131305Z AUTO 00000KT 10SM CLR 18/17 A2994 280 93 700 000/00 RMK AO2 T01780167 $
53988KBKB BKB20190513071010905/13/19 07:10:31  5-MIN KBKB 131310Z AUTO 00000KT 10SM CLR 18/17 A2994 280 93 800 000/00 RMK AO2 T01830172 $
53988KBKB BKB20190513071510905/13/19 07:15:31  5-MIN KBKB 131315Z AUTO 00000KT 10SM CLR 19/17 A2994 280 87 800 000/00 RMK AO2 T01890167 $
53988KBKB BKB20190513072010905/13/19 07:20:31  5-MIN KBKB 131320Z AUTO 00000KT 10SM CLR 19/16 A2994 280 81 900 000/00 RMK AO2 T01940161 $
53988KBKB BKB20190513072511005/13/19 07:25:31  5-MIN KBKB 131325Z AUTO 00000KT 10SM CLR 20/17 A2994 280 81 1000 000/00 RMK AO2 T02000167 $
53988KBKB BKB20190513073011005/13/19 07:30:31  5-MIN KBKB 131330Z AUTO 00000KT 10SM CLR 20/17 A2995 270 81 1000 000/00 RMK AO2 T02000167 $
53988KBKB BKB20190513073511005/13/19 07:35:31  5-MIN KBKB 131335Z AUTO 00000KT 10SM CLR 21/17 A2995 270 81 1000 000/00 RMK AO2 T02060172 $
53988KBKB BKB20190513074011005/13/19 07:40:31  5-MIN KBKB 131340Z AUTO 00000KT 10SM CLR 21/16 A2996 260 75 1000 000/00 RMK AO2 T02060161 $
53988KBKB BKB20190513074511005/13/19 07:45:31  5-MIN KBKB 131345Z AUTO 00000KT 10SM CLR 21/16 A2996 260 73 1100 000/00 RMK AO2 T02110161 $
53988KBKB BKB20190513075011705/13/19 07:50:31  5-MIN KBKB 131350Z AUTO 00000KT 10SM CLR 21/16 A2996 260 73 1100 000/00 RMK AO2 SLP173 T02110161 $
53988KBKB BKB20190513075511005/13/19 07:55:31  5-MIN KBKB 131355Z AUTO 00000KT 10SM CLR 22/17 A2996 260 73 1100 000/00 RMK AO2 T02170167 $
53988KBKB BKB20190513080011005/13/19 08:00:31  5-MIN KBKB 131400Z AUTO 00000KT 10SM CLR 22/17 A2997 250 73 1100 000/00 RMK AO2 T02170167 $
53988KBKB BKB20190513080511005/13/19 08:05:31  5-MIN KBKB 131405Z AUTO 00000KT 10SM CLR 22/16 A2997 250 70 1100 000/00 RMK AO2 T02170161 $
53988KBKB BKB20190513081011005/13/19 08:10:31  5-MIN KBKB 131410Z AUTO 00000KT 10SM CLR 22/16 A2997 250 70 1100 000/00 RMK AO2 T02170161 $
53988KBKB BKB20190513081511005/13/19 08:15:31  5-MIN KBKB 131415Z AUTO VRB03KT 10SM CLR 22/16 A2997 250 68 1200 VRB/03 RMK AO2 T02220161 $
53988KBKB BKB20190513082011005/13/19 08:20:31  5-MIN KBKB 131420Z AUTO 00000KT 10SM CLR 22/16 A2997 250 65 1200 000/00 RMK AO2 T02220156 $
53988KBKB BKB20190513082511005/13/19 08:25:31  5-MIN KBKB 131425Z AUTO 00000KT 10SM CLR 22/16 A2997 250 65 1200 000/00 RMK AO2 T02220156 $
53988KBKB BKB20190513083011005/13/19 08:30:31  5-MIN KBKB 131430Z AUTO 05004KT 10SM CLR 23/16 A2997 250 65 1300 050/04 RMK AO2 T02280161 $
53988KBKB BKB20190513083510005/13/19 08:35:31  5-MIN KBKB 131435Z AUTO 10SM CLR 23/16 A2997 260 63 1300 M /M RMK AO2 T02280156 $
53988KBKB BKB20190513084011005/13/19 08:40:31  5-MIN KBKB 131440Z AUTO VRB04KT 10SM CLR 23/16 A2997 250 63 1300 VRB/04 RMK AO2 T02330161 $
53988KBKB BKB20190513084511005/13/19 08:45:31  5-MIN KBKB 131445Z AUTO VRB04KT 10SM CLR 23/16 A2997 250 61 1300 VRB/04 RMK AO2 T02330156 $
53988KBKB BKB20190513085012305/13/19 08:50:31  5-MIN KBKB 131450Z AUTO VRB06KT 10SM CLR 23/16 A2997 260 61 1300 VRB/06 RMK AO2 SLP174 T02330156 53015 $
53988KBKB BKB20190513085511005/13/19 08:55:31  5-MIN KBKB 131455Z AUTO VRB05KT 10SM CLR 23/16 A2997 260 61 1300 VRB/05 RMK AO2 T02330156 $
53988KBKB BKB20190513090011005/13/19 09:00:31  5-MIN KBKB 131500Z AUTO VRB03KT 10SM CLR 23/16 A2996 260 61 1300 VRB/03 RMK AO2 T02330156 $
53988KBKB BKB20190513090510805/13/19 09:05:31  5-MIN KBKB 131505Z AUTO 00000KT 10SM CLR 24/16 A2997 260 61 1400 000/00 RMK AO2 T02390161
53988KBKB BKB20190513091010805/13/19 09:10:31  5-MIN KBKB 131510Z AUTO VRB03KT 10SM CLR 24/16 A2996 260 59 1400 VRB/03 RMK AO2 T02390156
53988KBKB BKB20190513091509805/13/19 09:15:31  5-MIN KBKB 131515Z AUTO 10SM CLR 24/16 A2996 260 59 1400 M /M RMK AO2 T02390156
53988KBKB BKB20190513092010805/13/19 09:20:31  5-MIN KBKB 131520Z AUTO 05004KT 10SM CLR 24/16 A2996 260 61 1400 040/04 RMK AO2 T02390161
53988KBKB BKB20190513092510805/13/19 09:25:31  5-MIN KBKB 131525Z AUTO VRB03KT 10SM CLR 24/16 A2996 260 59 1500 VRB/03 RMK AO2 T02440161
53988KBKB BKB20190513093010805/13/19 09:30:31  5-MIN KBKB 131530Z AUTO VRB05KT 10SM CLR 24/16 A2995 270 61 1400 VRB/05 RMK AO2 T02390161
53988KBKB BKB20190513093510805/13/19 09:35:31  5-MIN KBKB 131535Z AUTO VRB05KT 10SM CLR 25/16 A2996 270 57 1500 VRB/05 RMK AO2 T02500161
53988KBKB BKB20190513094010805/13/19 09:40:31  5-MIN KBKB 131540Z AUTO VRB04KT 10SM CLR 25/16 A2996 270 55 1500 VRB/04 RMK AO2 T02500156
53988KBKB BKB20190513094510805/13/19 09:45:31  5-MIN KBKB 131545Z AUTO VRB04KT 10SM CLR 25/16 A2996 260 55 1500 VRB/04 RMK AO2 T02500156
53988KBKB BKB20190513095011505/13/19 09:50:31  5-MIN KBKB 131550Z AUTO VRB04KT 10SM CLR 24/15 A2996 260 55 1500 VRB/04 RMK AO2 SLP171 T02440150
53988KBKB BKB20190513095510805/13/19 09:55:31  5-MIN KBKB 131555Z AUTO VRB03KT 10SM CLR 25/16 A2996 260 55 1500 VRB/03 RMK AO2 T02500156
53988KBKB BKB20190513100010805/13/19 10:00:31  5-MIN KBKB 131600Z AUTO 00000KT 10SM CLR 25/16 A2996 260 55 1500 000/00 RMK AO2 T02500156
53988KBKB BKB20190513100509805/13/19 10:05:31  5-MIN KBKB 131605Z AUTO 10SM CLR 26/16 A2996 260 53 1600 M /M RMK AO2 T02560156
53988KBKB BKB20190513101010805/13/19 10:10:31  5-MIN KBKB 131610Z AUTO VRB03KT 10SM CLR 26/16 A2996 260 53 1600 VRB/03 RMK AO2 T02560156
53988KBKB BKB20190513101510805/13/19 10:15:31  5-MIN KBKB 131615Z AUTO VRB04KT 10SM CLR 26/16 A2996 260 53 1600 VRB/04 RMK AO2 T02560156
53988KBKB BKB20190513102010805/13/19 10:20:31  5-MIN KBKB 131620Z AUTO VRB03KT 10SM CLR 26/16 A2996 260 51 1600 VRB/03 RMK AO2 T02610156
53988KBKB BKB20190513102510805/13/19 10:25:31  5-MIN KBKB 131625Z AUTO VRB04KT 10SM CLR 26/14 A2996 260 49 1600 VRB/04 RMK AO2 T02560144
53988KBKB BKB20190513103010805/13/19 10:30:31  5-MIN KBKB 131630Z AUTO VRB03KT 10SM CLR 26/14 A2996 260 48 1600 VRB/03 RMK AO2 T02610144
53988KBKB BKB20190513103510805/13/19 10:35:31  5-MIN KBKB 131635Z AUTO 01005KT 10SM CLR 26/14 A2996 270 46 1700 010/05 RMK AO2 T02610139
53988KBKB BKB20190513104010805/13/19 10:40:31  5-MIN KBKB 131640Z AUTO VRB03KT 10SM CLR 26/13 A2995 270 44 1700 VRB/03 RMK AO2 T02610133
53988KBKB BKB20190513104510805/13/19 10:45:31  5-MIN KBKB 131645Z AUTO VRB03KT 10SM CLR 26/13 A2995 270 44 1700 VRB/03 RMK AO2 T02610133
53988KBKB BKB20190513105011505/13/19 10:50:31  5-MIN KBKB 131650Z AUTO VRB04KT 10SM CLR 27/13 A2995 270 43 1700 VRB/04 RMK AO2 SLP168 T02670133
53988KBKB BKB20190513105510805/13/19 10:55:31  5-MIN KBKB 131655Z AUTO 00000KT 10SM CLR 27/14 A2995 270 46 1700 000/00 RMK AO2 T02670144
53988KBKB BKB20190513110010805/13/19 11:00:31  5-MIN KBKB 131700Z AUTO VRB03KT 10SM CLR 27/14 A2995 270 45 1700 VRB/03 RMK AO2 T02670139
53988KBKB BKB20190513110506305/13/19 11:05:31  5-MIN KBKB 131705Z AUTO M M M M /M RMK AO2 $
53988KBKB BKB20190513111011705/13/19 11:10:31  5-MIN KBKB 131710Z AUTO 03007KT 340V070 27/12 A2995 270 40 1700 030/07 340V070 RMK AO2 T02670122 $
53988KBKB BKB20190513111510405/13/19 11:15:31  5-MIN KBKB 131715Z AUTO VRB05KT 10SM 27/11 A2995 270 37 1700 VRB/05 RMK AO2 T02670111
53988KBKB BKB20190513112010405/13/19 11:20:31  5-MIN KBKB 131720Z AUTO VRB06KT 10SM 27/11 A2995 270 37 1700 VRB/06 RMK AO2 T02670111
53988KBKB BKB20190513112510305/13/19 11:25:31  5-MIN KBKB 131725Z AUTO VRB05KT 9SM 27/11 A2995 280 36 1800 VRB/05 RMK AO2 T02720111
53988KBKB BKB20190513113010305/13/19 11:30:31  5-MIN KBKB 131730Z AUTO VRB05KT 9SM 27/11 A2995 270 34 1800 VRB/05 RMK AO2 T02720106
53988KBKB BKB20190513113510705/13/19 11:35:31  5-MIN KBKB 131735Z AUTO VRB06KT 9SM CLR 27/10 A2995 270 33 1800 VRB/06 RMK AO2 T02720100
53988KBKB BKB20190513114010805/13/19 11:40:31  5-MIN KBKB 131740Z AUTO VRB04KT 10SM CLR 27/09 A2994 280 32 1800 VRB/04 RMK AO2 T02720094
53988KBKB BKB20190513114513005/13/19 11:45:31  5-MIN KBKB 131745Z AUTO 02008G14KT 340V050 10SM CLR 27/09 A2994 280 32 1800 020/08G14 340V050 RMK AO2 T02720094
53988KBKB BKB20190513115013305/13/19 11:50:31  5-MIN KBKB 131750Z AUTO VRB05G14KT 10SM CLR 27/09 A2994 280 33 1700 VRB/05G14 RMK AO2 SLP166 T02670094 10272 20122
53988KBKB BKB20190513115510805/13/19 11:55:31  5-MIN KBKB 131755Z AUTO VRB06KT 10SM CLR 27/11 A2994 280 34 1800 VRB/06 RMK AO2 T02720106
53988KBKB BKB20190513120010805/13/19 12:00:31  5-MIN KBKB 131800Z AUTO VRB06KT 10SM CLR 27/10 A2994 280 33 1800 VRB/06 RMK AO2 T02720100
53988KBKB BKB20190513120510805/13/19 12:05:31  5-MIN KBKB 131805Z AUTO VRB05KT 10SM CLR 27/09 A2994 280 31 1800 VRB/05 RMK AO2 T02720089
53988KBKB BKB20190513121010805/13/19 12:10:31  5-MIN KBKB 131810Z AUTO VRB03KT 10SM CLR 28/11 A2994 280 33 1900 VRB/03 RMK AO2 T02780106
53988KBKB BKB20190513121510805/13/19 12:15:31  5-MIN KBKB 131815Z AUTO VRB05KT 10SM CLR 28/11 A2994 280 33 1900 VRB/05 RMK AO2 T02780106
53988KBKB BKB20190513122010805/13/19 12:20:31  5-MIN KBKB 131820Z AUTO 00000KT 10SM CLR 28/11 A2994 280 35 1900 000/00 RMK AO2 T02780111
53988KBKB BKB20190513122510805/13/19 12:25:31  5-MIN KBKB 131825Z AUTO VRB04KT 10SM CLR 28/10 A2993 290 32 1900 VRB/04 RMK AO2 T02780100
53988KBKB BKB20190513123010805/13/19 12:30:31  5-MIN KBKB 131830Z AUTO VRB05KT 10SM CLR 28/11 A2993 290 33 1900 VRB/05 RMK AO2 T02780106
53988KBKB BKB20190513123510805/13/19 12:35:31  5-MIN KBKB 131835Z AUTO VRB05KT 10SM CLR 27/11 A2993 290 34 1800 VRB/05 RMK AO2 T02720106
53988KBKB BKB20190513124010805/13/19 12:40:31  5-MIN KBKB 131840Z AUTO VRB05KT 10SM CLR 27/11 A2993 290 34 1800 VRB/05 RMK AO2 T02720106
53988KBKB BKB20190513124510805/13/19 12:45:31  5-MIN KBKB 131845Z AUTO VRB06KT 10SM CLR 27/11 A2993 290 34 1800 VRB/06 RMK AO2 T02720106
53988KBKB BKB20190513125013105/13/19 12:50:31  5-MIN KBKB 131850Z AUTO 04007KT 010V070 10SM CLR 28/11 A2993 290 35 1900 030/07 010V070 RMK AO2 SLP160 T02780111
53988KBKB BKB20190513125512405/13/19 12:55:31  5-MIN KBKB 131855Z AUTO 05007KT 010V100 10SM CLR 27/11 A2992 300 34 1800 040/07 010V100 RMK AO2 T02720106
53988KBKB BKB20190513130010805/13/19 13:00:31  5-MIN KBKB 131900Z AUTO VRB03KT 10SM CLR 28/12 A2992 300 37 1900 VRB/03 RMK AO2 T02780122
53988KBKB BKB20190513130510805/13/19 13:05:31  5-MIN KBKB 131905Z AUTO VRB05KT 10SM CLR 28/12 A2992 300 36 1900 VRB/05 RMK AO2 T02780117
53988KBKB BKB20190513131010805/13/19 13:10:31  5-MIN KBKB 131910Z AUTO VRB04KT 10SM CLR 28/12 A2992 300 36 1900 VRB/04 RMK AO2 T02830122
53988KBKB BKB20190513131510805/13/19 13:15:31  5-MIN KBKB 131915Z AUTO VRB04KT 10SM CLR 28/12 A2992 300 36 1900 VRB/04 RMK AO2 T02780117
53988KBKB BKB20190513132010805/13/19 13:20:31  5-MIN KBKB 131920Z AUTO VRB03KT 10SM CLR 28/12 A2991 300 36 1900 VRB/03 RMK AO2 T02830122
53988KBKB BKB20190513132510805/13/19 13:25:31  5-MIN KBKB 131925Z AUTO VRB04KT 10SM CLR 28/12 A2991 310 35 1900 VRB/04 RMK AO2 T02830117
53988KBKB BKB20190513133010805/13/19 13:30:31  5-MIN KBKB 131930Z AUTO VRB04KT 10SM CLR 28/12 A2991 310 36 1900 VRB/04 RMK AO2 T02780117
53988KBKB BKB20190513133510805/13/19 13:35:31  5-MIN KBKB 131935Z AUTO VRB03KT 10SM CLR 28/12 A2991 310 36 1900 VRB/03 RMK AO2 T02780117
53988KBKB BKB20190513134010805/13/19 13:40:31  5-MIN KBKB 131940Z AUTO VRB04KT 10SM CLR 28/12 A2991 310 35 2000 VRB/04 RMK AO2 T02830117
53988KBKB BKB20190513134510805/13/19 13:45:31  5-MIN KBKB 131945Z AUTO VRB05KT 10SM CLR 28/12 A2991 310 35 2000 VRB/05 RMK AO2 T02830117
53988KBKB BKB20190513135011505/13/19 13:50:31  5-MIN KBKB 131950Z AUTO VRB05KT 10SM CLR 28/11 A2991 310 33 1900 VRB/05 RMK AO2 SLP155 T02830111
53988KBKB BKB20190513135510805/13/19 13:55:31  5-MIN KBKB 131955Z AUTO VRB03KT 10SM CLR 28/11 A2991 310 33 1900 VRB/03 RMK AO2 T02780106
53988KBKB BKB20190513140010805/13/19 14:00:31  5-MIN KBKB 132000Z AUTO VRB04KT 10SM CLR 28/11 A2991 310 33 1900 VRB/04 RMK AO2 T02780106
53988KBKB BKB20190513140510805/13/19 14:05:31  5-MIN KBKB 132005Z AUTO VRB06KT 10SM CLR 28/10 A2991 310 32 1900 VRB/06 RMK AO2 T02780100
53988KBKB BKB20190513141010805/13/19 14:10:31  5-MIN KBKB 132010Z AUTO 03005KT 10SM CLR 28/10 A2991 310 32 1900 030/05 RMK AO2 T02780100
53988KBKB BKB20190513141510805/13/19 14:15:31  5-MIN KBKB 132015Z AUTO VRB06KT 10SM CLR 28/10 A2991 310 32 1900 VRB/06 RMK AO2 T02780100
53988KBKB BKB20190513142010805/13/19 14:20:31  5-MIN KBKB 132020Z AUTO VRB05KT 10SM CLR 28/11 A2990 310 32 2000 VRB/05 RMK AO2 T02830106
53988KBKB BKB20190513142510805/13/19 14:25:31  5-MIN KBKB 132025Z AUTO VRB06KT 10SM CLR 28/10 A2990 310 31 2000 VRB/06 RMK AO2 T02830100
53988KBKB BKB20190513143012405/13/19 14:30:31  5-MIN KBKB 132030Z AUTO 03007KT 360V070 10SM CLR 28/11 A2990 310 32 2000 030/07 360V070 RMK AO2 T02830106
53988KBKB BKB20190513143510805/13/19 14:35:31  5-MIN KBKB 132035Z AUTO VRB05KT 10SM CLR 28/10 A2990 310 32 1900 VRB/05 RMK AO2 T02780100
53988KBKB BKB20190513144010805/13/19 14:40:31  5-MIN KBKB 132040Z AUTO VRB05KT 10SM CLR 28/10 A2990 310 32 1900 VRB/05 RMK AO2 T02780100
53988KBKB BKB20190513144510805/13/19 14:45:31  5-MIN KBKB 132045Z AUTO 04005KT 10SM CLR 28/11 A2990 310 33 1900 040/05 RMK AO2 T02780106
53988KBKB BKB20190513145011505/13/19 14:50:31  5-MIN KBKB 132050Z AUTO VRB04KT 10SM CLR 28/11 A2990 310 32 2000 VRB/04 RMK AO2 SLP153 T02830106
53988KBKB BKB20190513145510805/13/19 14:55:31  5-MIN KBKB 132055Z AUTO VRB05KT 10SM CLR 28/10 A2990 310 31 2000 VRB/05 RMK AO2 T02830100
53988KBKB BKB20190513150010805/13/19 15:00:31  5-MIN KBKB 132100Z AUTO 00000KT 10SM CLR 28/10 A2990 320 32 1900 000/00 RMK AO2 T02780100
53988KBKB BKB20190513150510805/13/19 15:05:31  5-MIN KBKB 132105Z AUTO VRB05KT 10SM CLR 28/11 A2990 320 32 2000 VRB/05 RMK AO2 T02830106
53988KBKB BKB20190513151010805/13/19 15:10:31  5-MIN KBKB 132110Z AUTO 00000KT 10SM CLR 28/10 A2990 320 32 1900 000/00 RMK AO2 T02780100
53988KBKB BKB20190513151510805/13/19 15:15:31  5-MIN KBKB 132115Z AUTO 00000KT 10SM CLR 28/11 A2990 320 32 2000 000/00 RMK AO2 T02830106
53988KBKB BKB20190513152010805/13/19 15:20:31  5-MIN KBKB 132120Z AUTO VRB05KT 10SM CLR 28/11 A2990 320 32 2000 VRB/05 RMK AO2 T02830106
53988KBKB BKB20190513152510805/13/19 15:25:31  5-MIN KBKB 132125Z AUTO VRB04KT 10SM CLR 28/11 A2990 320 32 2000 VRB/04 RMK AO2 T02830106
53988KBKB BKB20190513153010805/13/19 15:30:31  5-MIN KBKB 132130Z AUTO VRB03KT 10SM CLR 28/10 A2989 320 32 1900 VRB/03 RMK AO2 T02780100
53988KBKB BKB20190513153510805/13/19 15:35:31  5-MIN KBKB 132135Z AUTO VRB04KT 10SM CLR 28/11 A2989 320 32 2000 VRB/04 RMK AO2 T02830106
53988KBKB BKB20190513154010805/13/19 15:40:31  5-MIN KBKB 132140Z AUTO VRB03KT 10SM CLR 28/11 A2989 320 32 2000 VRB/03 RMK AO2 T02830106
53988KBKB BKB20190513154510805/13/19 15:45:31  5-MIN KBKB 132145Z AUTO VRB04KT 10SM CLR 28/11 A2989 320 33 2000 VRB/04 RMK AO2 T02830111
53988KBKB BKB20190513155011505/13/19 15:50:31  5-MIN KBKB 132150Z AUTO VRB04KT 10SM CLR 28/10 A2989 330 31 2000 VRB/04 RMK AO2 SLP149 T02830100
53988KBKB BKB20190513155510805/13/19 15:55:31  5-MIN KBKB 132155Z AUTO VRB04KT 10SM CLR 28/11 A2989 330 33 1900 VRB/04 RMK AO2 T02780106
53988KBKB BKB20190513160010805/13/19 16:00:31  5-MIN KBKB 132200Z AUTO VRB03KT 10SM CLR 28/11 A2989 330 33 2000 VRB/03 RMK AO2 T02830111
53988KBKB BKB20190513160510805/13/19 16:05:31  5-MIN KBKB 132205Z AUTO 00000KT 10SM CLR 28/11 A2989 330 33 2000 000/00 RMK AO2 T02830111
53988KBKB BKB20190513161010805/13/19 16:10:31  5-MIN KBKB 132210Z AUTO VRB05KT 10SM CLR 28/11 A2989 330 33 1900 VRB/05 RMK AO2 T02780106
53988KBKB BKB20190513161510805/13/19 16:15:31  5-MIN KBKB 132215Z AUTO VRB05KT 10SM CLR 28/11 A2989 330 33 1900 VRB/05 RMK AO2 T02780106
53988KBKB BKB20190513162010805/13/19 16:20:31  5-MIN KBKB 132220Z AUTO 03006KT 10SM CLR 28/11 A2989 330 33 1900 020/06 RMK AO2 T02780106
53988KBKB BKB20190513162510805/13/19 16:25:31  5-MIN KBKB 132225Z AUTO VRB04KT 10SM CLR 28/11 A2989 330 33 1900 VRB/04 RMK AO2 T02780106
53988KBKB BKB20190513163010805/13/19 16:30:31  5-MIN KBKB 132230Z AUTO VRB06KT 10SM CLR 28/11 A2989 330 33 1900 VRB/06 RMK AO2 T02780106
53988KBKB BKB20190513163510805/13/19 16:35:31  5-MIN KBKB 132235Z AUTO VRB04KT 10SM CLR 27/11 A2989 330 34 1900 VRB/04 RMK AO2 T02720106
53988KBKB BKB20190513164010805/13/19 16:40:31  5-MIN KBKB 132240Z AUTO VRB05KT 10SM CLR 28/11 A2989 330 35 1900 VRB/05 RMK AO2 T02780111
53988KBKB BKB20190513164510805/13/19 16:45:31  5-MIN KBKB 132245Z AUTO VRB05KT 10SM CLR 28/11 A2989 330 33 1900 VRB/05 RMK AO2 T02780106
53988KBKB BKB20190513165011505/13/19 16:50:31  5-MIN KBKB 132250Z AUTO VRB04KT 10SM CLR 27/11 A2989 330 34 1800 VRB/04 RMK AO2 SLP149 T02720106
53988KBKB BKB20190513165510805/13/19 16:55:31  5-MIN KBKB 132255Z AUTO VRB04KT 10SM CLR 27/11 A2989 330 34 1800 VRB/04 RMK AO2 T02720106
53988KBKB BKB20190513170010805/13/19 17:00:31  5-MIN KBKB 132300Z AUTO VRB03KT 10SM CLR 27/11 A2989 330 34 1900 VRB/03 RMK AO2 T02720106
53988KBKB BKB20190513170510805/13/19 17:05:31  5-MIN KBKB 132305Z AUTO VRB05KT 10SM CLR 27/11 A2989 330 36 1800 VRB/05 RMK AO2 T02670106
53988KBKB BKB20190513171010805/13/19 17:10:31  5-MIN KBKB 132310Z AUTO VRB03KT 10SM CLR 27/11 A2989 330 37 1800 VRB/03 RMK AO2 T02670111
53988KBKB BKB20190513171510805/13/19 17:15:31  5-MIN KBKB 132315Z AUTO 00000KT 10SM CLR 27/11 A2989 330 34 1900 000/00 RMK AO2 T02720106
53988KBKB BKB20190513172010805/13/19 17:20:31  5-MIN KBKB 132320Z AUTO VRB05KT 10SM CLR 27/11 A2989 330 36 1800 VRB/05 RMK AO2 T02670106
53988KBKB BKB20190513172510805/13/19 17:25:31  5-MIN KBKB 132325Z AUTO VRB03KT 10SM CLR 27/10 A2989 330 34 1800 VRB/03 RMK AO2 T02670100
53988KBKB BKB20190513173010805/13/19 17:30:31  5-MIN KBKB 132330Z AUTO VRB04KT 10SM CLR 27/11 A2989 330 36 1800 VRB/04 RMK AO2 T02670106
53988KBKB BKB20190513173510805/13/19 17:35:31  5-MIN KBKB 132335Z AUTO 00000KT 10SM CLR 26/11 A2989 320 38 1700 000/00 RMK AO2 T02610111
53988KBKB BKB20190513174010805/13/19 17:40:31  5-MIN KBKB 132340Z AUTO VRB03KT 10SM CLR 26/12 A2989 320 40 1700 VRB/03 RMK AO2 T02610117
53988KBKB BKB20190513174510805/13/19 17:45:31  5-MIN KBKB 132345Z AUTO 00000KT 10SM CLR 26/12 A2989 320 40 1700 000/00 RMK AO2 T02610117
53988KBKB BKB20190513175013305/13/19 17:50:31  5-MIN KBKB 132350Z AUTO 00000KT 10SM CLR 26/12 A2989 320 41 1700 000/00 RMK AO2 SLP150 T02560117 10289 20256 56013
53988KBKB BKB20190513175510805/13/19 17:55:31  5-MIN KBKB 132355Z AUTO 00000KT 10SM CLR 26/12 A2990 320 41 1700 000/00 RMK AO2 T02560117
53988KBKB BKB20190513180010805/13/19 18:00:31  5-MIN KBKB 140000Z AUTO 00000KT 10SM CLR 25/12 A2990 320 43 1600 000/00 RMK AO2 T02500117
53988KBKB BKB20190513180510805/13/19 18:05:31  5-MIN KBKB 140005Z AUTO 00000KT 10SM CLR 25/12 A2990 320 43 1600 000/00 RMK AO2 T02500117
53988KBKB BKB20190513181010805/13/19 18:10:31  5-MIN KBKB 140010Z AUTO 00000KT 10SM CLR 24/12 A2990 320 47 1500 000/00 RMK AO2 T02390122
53988KBKB BKB20190513181510805/13/19 18:15:31  5-MIN KBKB 140015Z AUTO 00000KT 10SM CLR 23/13 A2990 320 51 1400 000/00 RMK AO2 T02330128
53988KBKB BKB20190513182010805/13/19 18:20:31  5-MIN KBKB 140020Z AUTO 00000KT 10SM CLR 23/13 A2990 320 51 1400 000/00 RMK AO2 T02330128
53988KBKB BKB20190513182510805/13/19 18:25:31  5-MIN KBKB 140025Z AUTO 00000KT 10SM CLR 23/13 A2990 310 51 1400 000/00 RMK AO2 T02330128
53988KBKB BKB20190513183010805/13/19 18:30:31  5-MIN KBKB 140030Z AUTO 00000KT 10SM CLR 23/13 A2990 310 53 1300 000/00 RMK AO2 T02280128
53988KBKB BKB20190513183510805/13/19 18:35:31  5-MIN KBKB 140035Z AUTO 00000KT 10SM CLR 22/13 A2991 310 56 1300 000/00 RMK AO2 T02220133
53988KBKB BKB20190513184010805/13/19 18:40:31  5-MIN KBKB 140040Z AUTO 00000KT 10SM CLR 22/13 A2991 310 54 1300 000/00 RMK AO2 T02220128
53988KBKB BKB20190513184510805/13/19 18:45:31  5-MIN KBKB 140045Z AUTO 00000KT 10SM CLR 22/13 A2991 310 56 1300 000/00 RMK AO2 T02220133
53988KBKB BKB20190513185011505/13/19 18:50:31  5-MIN KBKB 140050Z AUTO 00000KT 10SM CLR 22/13 A2991 310 58 1200 000/00 RMK AO2 SLP156 T02170133
53988KBKB BKB20190513185510805/13/19 18:55:31  5-MIN KBKB 140055Z AUTO 00000KT 10SM CLR 21/13 A2991 310 61 1100 000/00 RMK AO2 T02110133
53988KBKB BKB20190513190010805/13/19 19:00:31  5-MIN KBKB 140100Z AUTO 00000KT 10SM CLR 21/13 A2991 300 61 1100 000/00 RMK AO2 T02110133
53988KBKB BKB20190513190510805/13/19 19:05:31  5-MIN KBKB 140105Z AUTO 00000KT 10SM CLR 21/13 A2992 300 63 1100 000/00 RMK AO2 T02060133
53988KBKB BKB20190513191010805/13/19 19:10:31  5-MIN KBKB 140110Z AUTO 00000KT 10SM CLR 21/13 A2992 300 63 1100 000/00 RMK AO2 T02060133
53988KBKB BKB20190513191510805/13/19 19:15:31  5-MIN KBKB 140115Z AUTO 00000KT 10SM CLR 20/13 A2992 300 65 1000 000/00 RMK AO2 T02000133
53988KBKB BKB20190513192010805/13/19 19:20:31  5-MIN KBKB 140120Z AUTO 00000KT 10SM CLR 20/13 A2992 300 65 1000 000/00 RMK AO2 T02000133
53988KBKB BKB20190513192510705/13/19 19:25:31  5-MIN KBKB 140125Z AUTO 00000KT 10SM CLR 19/13 A2992 290 67 900 000/00 RMK AO2 T01940133
53988KBKB BKB20190513193010705/13/19 19:30:31  5-MIN KBKB 140130Z AUTO 00000KT 10SM CLR 19/13 A2993 290 67 900 000/00 RMK AO2 T01940133
53988KBKB BKB20190513193510705/13/19 19:35:31  5-MIN KBKB 140135Z AUTO 00000KT 10SM CLR 19/13 A2993 290 67 900 000/00 RMK AO2 T01940133
53988KBKB BKB20190513194010705/13/19 19:40:31  5-MIN KBKB 140140Z AUTO 00000KT 10SM CLR 19/14 A2993 290 72 900 000/00 RMK AO2 T01890139
53988KBKB BKB20190513194510705/13/19 19:45:31  5-MIN KBKB 140145Z AUTO 00000KT 10SM CLR 19/14 A2993 290 72 900 000/00 RMK AO2 T01890139
53988KBKB BKB20190513195011405/13/19 19:50:31  5-MIN KBKB 140150Z AUTO 00000KT 10SM CLR 19/14 A2993 290 72 800 000/00 RMK AO2 SLP163 T01890139
53988KBKB BKB20190513195510705/13/19 19:55:31  5-MIN KBKB 140155Z AUTO 00000KT 10SM CLR 19/14 A2993 280 72 800 000/00 RMK AO2 T01890139
53988KBKB BKB20190513200010705/13/19 20:00:31  5-MIN KBKB 140200Z AUTO 00000KT 10SM CLR 19/13 A2994 280 70 800 000/00 RMK AO2 T01890133
53988KBKB BKB20190513200510705/13/19 20:05:31  5-MIN KBKB 140205Z AUTO 00000KT 10SM CLR 19/14 A2994 280 72 800 000/00 RMK AO2 T01890139
53988KBKB BKB20190513201010705/13/19 20:10:31  5-MIN KBKB 140210Z AUTO 00000KT 10SM CLR 19/14 A2994 280 72 800 000/00 RMK AO2 T01890139
53988KBKB BKB20190513201510705/13/19 20:15:31  5-MIN KBKB 140215Z AUTO 00000KT 10SM CLR 19/14 A2994 280 75 800 000/00 RMK AO2 T01890144
53988KBKB BKB20190513202010705/13/19 20:20:31  5-MIN KBKB 140220Z AUTO 00000KT 10SM CLR 19/14 A2994 280 75 800 000/00 RMK AO2 T01890144
53988KBKB BKB20190513202510705/13/19 20:25:31  5-MIN KBKB 140225Z AUTO 00000KT 10SM CLR 18/14 A2994 280 75 800 000/00 RMK AO2 T01830139
53988KBKB BKB20190513203010705/13/19 20:30:31  5-MIN KBKB 140230Z AUTO 00000KT 10SM CLR 18/14 A2994 280 75 800 000/00 RMK AO2 T01830139
53988KBKB BKB20190513203510705/13/19 20:35:31  5-MIN KBKB 140235Z AUTO 00000KT 10SM CLR 18/14 A2994 280 75 800 000/00 RMK AO2 T01830139
53988KBKB BKB20190513204010705/13/19 20:40:31  5-MIN KBKB 140240Z AUTO 00000KT 10SM CLR 18/14 A2995 270 75 800 000/00 RMK AO2 T01830139
53988KBKB BKB20190513204510705/13/19 20:45:31  5-MIN KBKB 140245Z AUTO 00000KT 10SM CLR 18/14 A2995 270 81 700 000/00 RMK AO2 T01780144
53988KBKB BKB20190513205012005/13/19 20:50:31  5-MIN KBKB 140250Z AUTO 00000KT 10SM CLR 18/14 A2995 270 78 700 000/00 RMK AO2 SLP169 T01780139 55003
53988KBKB BKB20190513205510705/13/19 20:55:31  5-MIN KBKB 140255Z AUTO 00000KT 10SM CLR 18/14 A2995 270 78 700 000/00 RMK AO2 T01780139
53988KBKB BKB20190513210010705/13/19 21:00:31  5-MIN KBKB 140300Z AUTO 00000KT 10SM CLR 18/13 A2995 270 75 700 000/00 RMK AO2 T01780133
53988KBKB BKB20190513210510705/13/19 21:05:31  5-MIN KBKB 140305Z AUTO 00000KT 10SM CLR 17/13 A2995 270 78 600 000/00 RMK AO2 T01720133
53988KBKB BKB20190513211010705/13/19 21:10:31  5-MIN KBKB 140310Z AUTO 00000KT 10SM CLR 17/13 A2996 270 78 600 000/00 RMK AO2 T01720133
53988KBKB BKB20190513211510705/13/19 21:15:31  5-MIN KBKB 140315Z AUTO 00000KT 10SM CLR 17/13 A2996 260 78 600 000/00 RMK AO2 T01720133
53988KBKB BKB20190513212010705/13/19 21:20:31  5-MIN KBKB 140320Z AUTO 00000KT 10SM CLR 17/13 A2996 260 78 600 000/00 RMK AO2 T01720133
53988KBKB BKB20190513212510705/13/19 21:25:31  5-MIN KBKB 140325Z AUTO 00000KT 10SM CLR 17/14 A2996 260 80 600 000/00 RMK AO2 T01720139
53988KBKB BKB20190513213010705/13/19 21:30:31  5-MIN KBKB 140330Z AUTO 00000KT 10SM CLR 17/14 A2997 260 80 600 000/00 RMK AO2 T01720139
53988KBKB BKB20190513213510705/13/19 21:35:31  5-MIN KBKB 140335Z AUTO 00000KT 10SM CLR 17/14 A2997 260 80 600 000/00 RMK AO2 T01720139
53988KBKB BKB20190513214010705/13/19 21:40:31  5-MIN KBKB 140340Z AUTO 00000KT 10SM CLR 17/14 A2997 260 80 600 000/00 RMK AO2 T01720139
53988KBKB BKB20190513214510705/13/19 21:45:31  5-MIN KBKB 140345Z AUTO 00000KT 10SM CLR 17/13 A2997 260 78 600 000/00 RMK AO2 T01720133
53988KBKB BKB20190513215011405/13/19 21:50:31  5-MIN KBKB 140350Z AUTO 00000KT 10SM CLR 17/14 A2997 260 80 600 000/00 RMK AO2 SLP173 T01720139
53988KBKB BKB20190513215510705/13/19 21:55:31  5-MIN KBKB 140355Z AUTO 00000KT 10SM CLR 17/14 A2997 250 80 600 000/00 RMK AO2 T01720139
53988KBKB BKB20190513220010705/13/19 22:00:31  5-MIN KBKB 140400Z AUTO 00000KT 10SM CLR 17/13 A2997 250 80 600 000/00 RMK AO2 T01670133
53988KBKB BKB20190513220510705/13/19 22:05:31  5-MIN KBKB 140405Z AUTO 00000KT 10SM CLR 17/14 A2997 250 80 600 000/00 RMK AO2 T01720139
53988KBKB BKB20190513221010705/13/19 22:10:31  5-MIN KBKB 140410Z AUTO 00000KT 10SM CLR 17/14 A2997 250 83 500 000/00 RMK AO2 T01670139
53988KBKB BKB20190513221510705/13/19 22:15:31  5-MIN KBKB 140415Z AUTO 00000KT 10SM CLR 17/14 A2997 250 83 500 000/00 RMK AO2 T01670139
53988KBKB BKB20190513222010705/13/19 22:20:31  5-MIN KBKB 140420Z AUTO 00000KT 10SM CLR 17/14 A2997 250 86 500 000/00 RMK AO2 T01670144
53988KBKB BKB20190513222510705/13/19 22:25:31  5-MIN KBKB 140425Z AUTO 00000KT 10SM CLR 17/14 A2997 250 83 500 000/00 RMK AO2 T01670139
53988KBKB BKB20190513223010705/13/19 22:30:31  5-MIN KBKB 140430Z AUTO 00000KT 10SM CLR 17/14 A2997 250 83 500 000/00 RMK AO2 T01670139
53988KBKB BKB20190513223510705/13/19 22:35:31  5-MIN KBKB 140435Z AUTO 00000KT 10SM CLR 16/14 A2997 260 86 500 000/00 RMK AO2 T01610139
53988KBKB BKB20190513224010705/13/19 22:40:31  5-MIN KBKB 140440Z AUTO 00000KT 10SM CLR 16/14 A2997 250 86 500 000/00 RMK AO2 T01610139
53988KBKB BKB20190513224510705/13/19 22:45:31  5-MIN KBKB 140445Z AUTO 00000KT 10SM CLR 16/14 A2997 250 86 500 000/00 RMK AO2 T01610139
53988KBKB BKB20190513225011405/13/19 22:50:31  5-MIN KBKB 140450Z AUTO 00000KT 10SM CLR 16/13 A2997 250 83 500 000/00 RMK AO2 SLP174 T01610133
53988KBKB BKB20190513225510705/13/19 22:55:31  5-MIN KBKB 140455Z AUTO 00000KT 10SM CLR 16/14 A2997 250 86 500 000/00 RMK AO2 T01610139
53988KBKB BKB20190513230010705/13/19 23:00:31  5-MIN KBKB 140500Z AUTO 00000KT 10SM CLR 16/14 A2997 250 86 500 000/00 RMK AO2 T01610139
53988KBKB BKB20190513230510705/13/19 23:05:31  5-MIN KBKB 140505Z AUTO 00000KT 10SM CLR 16/14 A2997 250 90 400 000/00 RMK AO2 T01560139
53988KBKB BKB20190514090010805/14/19 09:00:31  5-MIN KBKB 141500Z AUTO VRB03KT 10SM CLR 25/11 A3003 200 41 1400 VRB/03 RMK AO2 T02500111
53988KBKB BKB20190514090510805/14/19 09:05:31  5-MIN KBKB 141505Z AUTO VRB04KT 10SM CLR 26/12 A3003 200 41 1500 VRB/04 RMK AO2 T02560117
53988KBKB BKB20190514091010805/14/19 09:10:31  5-MIN KBKB 141510Z AUTO VRB03KT 10SM CLR 26/12 A3002 200 41 1500 VRB/03 RMK AO2 T02560117
53988KBKB BKB20190514091510805/14/19 09:15:31  5-MIN KBKB 141515Z AUTO VRB03KT 10SM CLR 26/11 A3002 200 40 1500 VRB/03 RMK AO2 T02560111
53988KBKB BKB20190514092010805/14/19 09:20:31  5-MIN KBKB 141520Z AUTO VRB04KT 10SM CLR 26/11 A3003 200 38 1600 VRB/04 RMK AO2 T02610111
53988KBKB BKB20190514092510805/14/19 09:25:31  5-MIN KBKB 141525Z AUTO VRB05KT 10SM CLR 26/09 A3003 200 35 1500 VRB/05 RMK AO2 T02560094
53988KBKB BKB20190514093010805/14/19 09:30:31  5-MIN KBKB 141530Z AUTO VRB03KT 10SM CLR 26/11 A3003 200 38 1600 VRB/03 RMK AO2 T02610111
53988KBKB BKB20190514093510805/14/19 09:35:31  5-MIN KBKB 141535Z AUTO VRB03KT 10SM CLR 26/11 A3003 200 38 1600 VRB/03 RMK AO2 T02610111
53988KBKB BKB20190514094010805/14/19 09:40:31  5-MIN KBKB 141540Z AUTO VRB05KT 10SM CLR 26/11 A3003 200 37 1600 VRB/05 RMK AO2 T02610106
53988KBKB BKB20190514094510805/14/19 09:45:31  5-MIN KBKB 141545Z AUTO VRB05KT 10SM CLR 26/09 A3003 200 33 1600 VRB/05 RMK AO2 T02610089
53988KBKB BKB20190514095011505/14/19 09:50:31  5-MIN KBKB 141550Z AUTO VRB04KT 10SM CLR 27/10 A3003 200 34 1600 VRB/04 RMK AO2 SLP195 T02670100
53988KBKB BKB20190514095510805/14/19 09:55:31  5-MIN KBKB 141555Z AUTO VRB04KT 10SM CLR 26/09 A3003 200 34 1600 VRB/04 RMK AO2 T02610094
53988KBKB BKB20190514100007005/14/19 10:00:31  5-MIN KBKB 141600Z AUTO M M M M /M RMK AO2 FZRANO $
53988KBKB BKB20190514100510105/14/19 10:05:31  5-MIN KBKB 141605Z AUTO VRB03KT 26/11 A3002 200 37 1600 VRB/03 RMK AO2 T02610106 $
53988KBKB BKB20190514101010605/14/19 10:10:31  5-MIN KBKB 141610Z AUTO 00000KT 10SM 26/11 A3002 210 38 1600 000/00 RMK AO2 T02610111 $
53988KBKB BKB20190514101510605/14/19 10:15:31  5-MIN KBKB 141615Z AUTO VRB04KT 10SM 27/11 A3002 210 37 1600 VRB/04 RMK AO2 T02670111 $
53988KBKB BKB20190514102010605/14/19 10:20:31  5-MIN KBKB 141620Z AUTO 00000KT 10SM 27/11 A3002 210 37 1600 000/00 RMK AO2 T02670111 $
53988KBKB BKB20190514102510605/14/19 10:25:31  5-MIN KBKB 141625Z AUTO VRB04KT 10SM 27/11 A3002 210 36 1700 VRB/04 RMK AO2 T02720111 $
53988KBKB BKB20190514103011005/14/19 10:30:31  5-MIN KBKB 141630Z AUTO VRB04KT 10SM CLR 27/11 A3002 210 34 1700 VRB/04 RMK AO2 T02720106 $
53988KBKB BKB20190514103511005/14/19 10:35:31  5-MIN KBKB 141635Z AUTO VRB03KT 10SM CLR 27/09 A3002 210 32 1700 VRB/03 RMK AO2 T02720094 $
53988KBKB BKB20190514104011005/14/19 10:40:31  5-MIN KBKB 141640Z AUTO VRB03KT 10SM CLR 27/11 A3002 210 34 1700 VRB/03 RMK AO2 T02720106 $
53988KBKB BKB20190514104511005/14/19 10:45:31  5-MIN KBKB 141645Z AUTO VRB03KT 10SM CLR 28/11 A3001 210 35 1800 VRB/03 RMK AO2 T02780111 $
53988KBKB BKB20190514105011705/14/19 10:50:31  5-MIN KBKB 141650Z AUTO 00000KT 10SM CLR 27/10 A3001 210 33 1700 000/00 RMK AO2 SLP189 T02720100 $
53988KBKB BKB20190514105511005/14/19 10:55:31  5-MIN KBKB 141655Z AUTO 00000KT 10SM CLR 28/10 A3001 210 32 1800 000/00 RMK AO2 T02780100 $
53988KBKB BKB20190514110011005/14/19 11:00:31  5-MIN KBKB 141700Z AUTO VRB03KT 10SM CLR 28/09 A3001 210 32 1800 000/00 RMK AO2 T02830106 $
53988KBKB BKB20190514112011005/14/19 11:20:31  5-MIN KBKB 141720Z AUTO VRB03KT 10SM CLR 28/11 A3001 220 32 1800 VRB/03 RMK AO2 T02830106 $
53988KBKB BKB20190514112511005/14/19 11:25:31  5-MIN KBKB 141725Z AUTO VRB03KT 10SM CLR 28/10 A3001 220 31 1800 VRB/03 RMK AO2 T02830100 $
53988KBKB BKB20190514113011005/14/19 11:30:31  5-MIN KBKB 141730Z AUTO 00000KT 10SM CLR 28/11 A3001 220 32 1800 000/00 RMK AO2 T02830106 $
53988KBKB BKB20190514113511005/14/19 11:35:31  5-MIN KBKB 141735Z AUTO VRB03KT 10SM CLR 28/10 A3000 220 32 1800 VRB/03 RMK AO2 T02780100 $
53988KBKB BKB20190514114011005/14/19 11:40:31  5-MIN KBKB 141740Z AUTO 00000KT 10SM CLR 29/11 A3000 220 31 2000 000/00 RMK AO2 T02940111 $
53988KBKB BKB20190514114510805/14/19 11:45:31  5-MIN KBKB 141745Z AUTO VRB04KT 10SM CLR 29/11 A3000 230 31 1900 VRB/04 RMK AO2 T02890106
53988KBKB BKB20190514142009805/14/19 14:20:31  5-MIN KBKB 142020Z AUTO 10SM CLR 29/12 A2996 260 33 2000 M /M RMK AO2 T02940117
53988KBKB BKB20190514142510805/14/19 14:25:31  5-MIN KBKB 142025Z AUTO 00000KT 10SM CLR 29/12 A2996 260 33 2000 000/00 RMK AO2 T02940117
53988KBKB BKB20190514143010805/14/19 14:30:31  5-MIN KBKB 142030Z AUTO VRB03KT 10SM CLR 30/12 A2996 260 31 2100 VRB/03 RMK AO2 T03000117
53988KBKB BKB20190514143510805/14/19 14:35:31  5-MIN KBKB 142035Z AUTO 00000KT 10SM CLR 30/12 A2996 260 33 2100 000/00 RMK AO2 T03000122
53988KBKB BKB20190514144010805/14/19 14:40:31  5-MIN KBKB 142040Z AUTO VRB03KT 10SM CLR 30/12 A2996 260 31 2100 VRB/03 RMK AO2 T03000117
53988KBKB BKB20190514144510805/14/19 14:45:31  5-MIN KBKB 142045Z AUTO VRB03KT 10SM CLR 30/12 A2996 260 33 2100 VRB/03 RMK AO2 T03000122
53988KBKB BKB20190514145011505/14/19 14:50:31  5-MIN KBKB 142050Z AUTO 00000KT 10SM CLR 30/12 A2996 260 31 2100 000/00 RMK AO2 SLP171 T03000117
53988KBKB BKB20190514145510805/14/19 14:55:31  5-MIN KBKB 142055Z AUTO 00000KT 10SM CLR 30/12 A2996 270 31 2100 000/00 RMK AO2 T03000117
53988KBKB BKB20190514150010805/14/19 15:00:31  5-MIN KBKB 142100Z AUTO VRB03KT 10SM CLR 30/13 A2995 270 34 2100 VRB/03 RMK AO2 T03000128
53988KBKB BKB20190514150510805/14/19 15:05:31  5-MIN KBKB 142105Z AUTO 00000KT 10SM CLR 30/12 A2995 270 33 2100 000/00 RMK AO2 T03000122
53988KBKB BKB20190514151011105/14/19 15:10:31  5-MIN KBKB 142110Z AUTO VRB03KT 10SM FEW070 30/12 A2995 270 33 2100 VRB/03 RMK AO2 T03000122
53988KBKB BKB20190514151511105/14/19 15:15:31  5-MIN KBKB 142115Z AUTO 00000KT 10SM FEW070 28/12 A2995 270 36 1900 000/00 RMK AO2 T02830122
53988KBKB BKB20190514152010805/14/19 15:20:31  5-MIN KBKB 142120Z AUTO 00000KT 10SM CLR 29/12 A2995 270 35 2000 000/00 RMK AO2 T02890122
53988KBKB BKB20190514152510805/14/19 15:25:31  5-MIN KBKB 142125Z AUTO 00000KT 10SM CLR 28/13 A2995 270 39 1800 000/00 RMK AO2 T02780128
53988KBKB BKB20190514153010805/14/19 15:30:31  5-MIN KBKB 142130Z AUTO VRB03KT 10SM CLR 29/13 A2995 270 36 2000 VRB/03 RMK AO2 T02890128
53988KBKB BKB20190514153510805/14/19 15:35:31  5-MIN KBKB 142135Z AUTO VRB03KT 10SM CLR 29/13 A2995 270 35 2000 VRB/03 RMK AO2 T02940128
53988KBKB BKB20190514154010805/14/19 15:40:31  5-MIN KBKB 142140Z AUTO VRB03KT 10SM CLR 30/12 A2995 270 33 2100 VRB/03 RMK AO2 T03000122
53988KBKB BKB20190514154510805/14/19 15:45:31  5-MIN KBKB 142145Z AUTO VRB06KT 10SM CLR 29/12 A2995 270 34 2000 VRB/06 RMK AO2 T02940122
53988KBKB BKB20190514155011505/14/19 15:50:31  5-MIN KBKB 142150Z AUTO VRB04KT 10SM CLR 29/13 A2995 270 35 2000 VRB/04 RMK AO2 SLP167 T02940128
53988KBKB BKB20190514155510805/14/19 15:55:31  5-MIN KBKB 142155Z AUTO VRB03KT 10SM CLR 29/13 A2995 270 35 2000 VRB/03 RMK AO2 T02940128
53988KBKB BKB20190514160010805/14/19 16:00:31  5-MIN KBKB 142200Z AUTO VRB04KT 10SM CLR 29/13 A2995 270 35 2000 VRB/04 RMK AO2 T02940128
53988KBKB BKB20190514160510805/14/19 16:05:31  5-MIN KBKB 142205Z AUTO 00000KT 10SM CLR 30/13 A2995 270 34 2100 000/00 RMK AO2 T03000128
53988KBKB BKB20190514161010805/14/19 16:10:31  5-MIN KBKB 142210Z AUTO VRB04KT 10SM CLR 30/13 A2995 270 35 2100 VRB/04 RMK AO2 T03000133
53988KBKB BKB20190514161511105/14/19 16:15:31  5-MIN KBKB 142215Z AUTO 00000KT 10SM FEW070 29/13 A2995 270 35 2000 000/00 RMK AO2 T02940128
53988KBKB BKB20190514162011105/14/19 16:20:31  5-MIN KBKB 142220Z AUTO VRB03KT 10SM FEW070 30/13 A2995 270 35 2100 VRB/03 RMK AO2 T03000133
53988KBKB BKB20190514162511105/14/19 16:25:31  5-MIN KBKB 142225Z AUTO 00000KT 10SM FEW075 30/13 A2995 270 35 2100 000/00 RMK AO2 T03000133
53988KBKB BKB20190514163011105/14/19 16:30:31  5-MIN KBKB 142230Z AUTO VRB05KT 10SM FEW070 30/14 A2995 270 36 2100 VRB/05 RMK AO2 T03000139
53988KBKB BKB20190514163511105/14/19 16:35:31  5-MIN KBKB 142235Z AUTO VRB04KT 10SM FEW070 29/14 A2995 270 38 2000 VRB/04 RMK AO2 T02940139
53988KBKB BKB20190514164011105/14/19 16:40:31  5-MIN KBKB 142240Z AUTO VRB03KT 10SM FEW070 28/14 A2995 270 40 1900 VRB/03 RMK AO2 T02830139
53988KBKB BKB20190514164511105/14/19 16:45:31  5-MIN KBKB 142245Z AUTO VRB03KT 10SM FEW080 28/14 A2995 270 42 1800 VRB/03 RMK AO2 T02780139
53988KBKB BKB20190514165013705/14/19 16:50:31  5-MIN KBKB 142250Z AUTO 00000KT 10SM FEW042325Z AUTO 00000KT 10SM CLR 28/15 A2995 270 45 1800 000/00 RMK AO2 T02780150
53988KBKB BKB20190514173010805/14/19 17:30:31  5-MIN KBKB 142330Z AUTO VRB03KT 10SM CLR 28/15 A2995 270 45 1800 VRB/03 RMK AO2 T02780150
53988KBKB BKB20190514173510805/14/19 17:35:31  5-MIN KBKB 142335Z AUTO 12003KT 10SM CLR 28/14 A2995 270 42 1900 120/03 RMK AO2 T02830144
53988KBKB BKB20190514174010805/14/19 17:40:31  5-MIN KBKB 142340Z AUTO 00000KT 10SM CLR 28/14 A2995 270 43 1800 000/00 RMK AO2 T02780144
53988KBKB BKB20190514174510805/14/19 17:45:31  5-MIN KBKB 142345Z AUTO VRB03KT 10SM CLR 28/14 A2995 270 42 1800 VRB/03 RMK AO2 T02780139
53988KBKB BKB20190514175013305/14/19 17:50:31  5-MIN KBKB 142350Z AUTO VRB03KT 10SM CLR 27/14 A2995 270 43 1800 VRB/03 RMK AO2 SLP169 T02720139 10306 20261 56013
53988KBKB BKB20190514175520105/14/19 17:55:31  5-MIN KBKB 142355Z AUTO VRB03KT 10SM CLR 27/14 A2995 270 43 1800 VRB/03 RMK AO2 T0272013905/14/150Z AUTO 00000KT 10SM CLR 19/16 A2999 230 78 800 000/00 RMK AO2 SLP182 T01940156 56002
53988KBKB BKB20190514180510805/14/19 18:05:31  5-MIN KBKB 150005Z AUTO 00000KT 10SM CLR 27/14 A2995 270 46 1700 000/00 RMK AO2 T02670144
53988KBKB BKB20190514181010805/14/19 18:10:31  5-MIN KBKB 150010Z AUTO 00000KT 10SM CLR 26/15 A2995 270 50 1700 000/00 RMK AO2 T02610150
53988KBKB BKB20190514181510805/14/19 18:15:31  5-MIN KBKB 150015Z AUTO 00000KT 10SM CLR 26/15 A2995 270 50 1700 000/00 RMK AO2 T02610150
53988KBKB BKB20190514182010805/14/19 18:20:31  5-MIN KBKB 150020Z AUTO 00000KT 10SM CLR 25/16 A2995 270 55 1500 000/00 RMK AO2 T02500156
53988KBKB BKB20190514182510805/14/19 18:25:31  5-MIN KBKB 150025Z AUTO 00000KT 10SM CLR 25/16 A2995 270 55 1500 000/00 RMK AO2 T02500156
53988KBKB BKB20190514183010805/14/19 18:30:31  5-MIN KBKB 150030Z AUTO 00000KT 10SM CLR 24/16 A2995 270 57 1500 000/00 RMK AO2 T02440156
53988KBKB BKB20190514183510805/14/19 18:35:31  5-MIN KBKB 150035Z AUTO 00000KT 10SM CLR 24/16 A2995 270 57 1500 000/00 RMK AO2 T02440156
53988KBKB BKB20190514184010805/14/19 18:40:31  5-MIN KBKB 150040Z AUTO 00000KT 10SM CLR 24/16 A2996 270 57 1500 000/00 RMK AO2 T02440156
53988KBKB BKB20190514184510805/14/19 18:45:31  5-MIN KBKB 150045Z AUTO 00000KT 10SM CLR 24/16 A2996 270 59 1400 000/00 RMK AO2 T02390156
53988KBKB BKB20190514185011505/14/19 18:50:31  5-MIN KBKB 150050Z AUTO 00000KT 10SM CLR 24/16 A2995 270 59 1400 000/00 RMK AO2 SLP170 T02390156
53988KBKB BKB20190514185510805/14/19 18:55:31  5-MIN KBKB 150055Z AUTO 00000KT 10SM CLR 23/16 A2996 260 61 1300 000/00 RMK AO2 T02330156
53988KBKB BKB20190514190010805/14/19 19:00:31  5-MIN KBKB 150100Z AUTO 00000KT 10SM CLR 23/16 A2996 260 61 1300 000/00 RMK AO2 T02330156
53988KBKB BKB20190514190510805/14/19 19:05:31  5-MIN KBKB 150105Z AUTO 00000KT 10SM CLR 23/16 A2996 260 63 1300 000/00 RMK AO2 T02280156
53988KBKB BKB20190514191010805/14/19 19:10:31  5-MIN KBKB 150110Z AUTO 00000KT 10SM CLR 22/16 A2996 260 65 1200 000/00 RMK AO2 T02220156
53988KBKB BKB20190514191510805/14/19 19:15:31  5-MIN KBKB 150115Z AUTO 00000KT 10SM CLR 22/16 A2996 260 65 1200 000/00 RMK AO2 T02220156
53988KBKB BKB20190514192010805/14/19 19:20:31  5-MIN KBKB 150120Z AUTO 00000KT 10SM CLR 22/16 A2996 260 65 1200 000/00 RMK AO2 T02220156
53988KBKB BKB20190514192510805/14/19 19:25:31  5-MIN KBKB 150125Z AUTO 00000KT 10SM CLR 22/15 A2996 260 65 1100 000/00 RMK AO2 T02170150
53988KBKB BKB20190514193010805/14/19 19:30:31  5-MIN KBKB 150130Z AUTO 00000KT 10SM CLR 22/15 A2996 260 65 1100 000/00 RMK AO2 T02170150
53988KBKB BKB20190514193510805/14/19 19:35:31  5-MIN KBKB 150135Z AUTO 00000KT 10SM CLR 22/15 A2997 260 65 1100 000/00 RMK AO2 T02170150
53988KBKB BKB20190514194010805/14/19 19:40:31  5-MIN KBKB 150140Z AUTO 00000KT 10SM CLR 21/16 A2997 250 70 1100 000/00 RMK AO2 T02110156
53988KBKB BKB20190514194510805/14/19 19:45:31  5-MIN KBKB 150145Z AUTO 00000KT 10SM CLR 21/16 A2997 250 70 1100 000/00 RMK AO2 T02110156
53988KBKB BKB20190514195011505/14/19 19:50:31  5-MIN KBKB 150150Z AUTO 00000KT 10SM CLR 21/15 A2997 250 68 1100 000/00 RMK AO2 SLP175 T02110150
53988KBKB BKB20190514195510805/14/19 19:55:31  5-MIN KBKB 150155Z AUTO 00000KT 10SM CLR 21/16 A2997 250 73 1000 000/00 RMK AO2 T02060156
53988KBKB BKB20190514200010705/14/19 20:00:31  5-MIN KBKB 150200Z AUTO 00000KT 10SM CLR 20/16 A2998 250 78 900 000/00 RMK AO2 T02000161
53988KBKB BKB20190514200510805/14/19 20:05:31  5-MIN KBKB 150205Z AUTO 00000KT 10SM CLR 21/15 A2998 240 70 1000 000/00 RMK AO2 T02060150
53988KBKB BKB20190514201010705/14/19 20:10:31  5-MIN KBKB 150210Z AUTO 00000KT 10SM CLR 20/15 A2998 240 72 900 000/00 RMK AO2 T02000150
53988KBKB BKB20190514201510705/14/19 20:15:31  5-MIN KBKB 150215Z AUTO 00000KT 10SM CLR 20/15 A2998 240 72 900 000/00 RMK AO2 T02000150
53988KBKB BKB20190514202010705/14/19 20:20:31  5-MIN KBKB 150220Z AUTO 00000KT 10SM CLR 20/15 A2998 240 72 900 000/00 RMK AO2 T02000150
53988KBKB BKB20190514202510705/14/19 20:25:31  5-MIN KBKB 150225Z AUTO 00000KT 10SM CLR 20/15 A2998 240 72 900 000/00 RMK AO2 T02000150
53988KBKB BKB20190514203010705/14/19 20:30:31  5-MIN KBKB 150230Z AUTO 00000KT 10SM CLR 19/15 A2999 240 75 900 000/00 RMK AO2 T01940150
53988KBKB BKB20190514203510705/14/19 20:35:31  5-MIN KBKB 150235Z AUTO 00000KT 10SM CLR 19/15 A2999 240 75 900 000/00 RMK AO2 T01940150
53988KBKB BKB20190514204010705/14/19 20:40:31  5-MIN KBKB 150240Z AUTO 00000KT 10SM CLR 19/16 A2999 240 78 900 000/00 RMK AO2 T01940156
53988KBKB BKB20190514204510705/14/19 20:45:31  5-MIN KBKB 150245Z AUTO 00000KT 10SM CLR 19/16 A2999 230 81 800 000/00 RMK AO2 T01890156
53988KBKB BKB20190514205012005/14/19 20:50:31  5-MIN KBKB 150250Z AUTO 00000KT 10SM CLR 19/16 A2999 230 78 800 000/00 RMK AO2 SLP182 T01940156 56002
53988KBKB BKB20190514205510705/14/19 20:55:31  5-MIN KBKB 150255Z AUTO 00000KT 10SM CLR 19/16 A2999 230 78 800 000/00 RMK AO2 T01940156
53988KBKB BKB20190514210010705/14/19 21:00:31  5-MIN KBKB 150300Z AUTO 00000KT 10SM CLR 19/16 A2999 230 81 800 000/00 RMK AO2 T01890156
53988KBKB BKB20190514210510705/14/19 21:05:31  5-MIN KBKB 150305Z AUTO 00000KT 10SM CLR 19/16 A3000 230 81 800 000/00 RMK AO2 T01890156
53988KBKB BKB20190514211010705/14/19 21:10:31  5-MIN KBKB 150310Z AUTO 00000KT 10SM CLR 19/16 A3000 230 81 800 000/00 RMK AO2 T01890156
53988KBKB BKB20190514211014605/14/19 21:10:31  5-MIN KBKB 150310Z AUTO 00000KT 10SM CLR 19/16 A3000 230 81 800 000/00 RMK AO2 T01890156 87 600 000/00 RMK AO2 SLP185 T01780156
53988KBKB BKB20190514211510705/14/19 21:15:31  5-MIN KBKB 150315Z AUTO 00000KT 10SM CLR 18/15 A3000 230 81 700 000/00 RMK AO2 T01830150
53988KBKB BKB20190514212010705/14/19 21:20:31  5-MIN KBKB 150320Z AUTO 00000KT 10SM CLR 18/15 A3000 230 81 700 000/00 RMK AO2 T01830150
53988KBKB BKB20190514212510705/14/19 21:25:31  5-MIN KBKB 150325Z AUTO 00000KT 10SM CLR 18/15 A3000 230 81 700 000/00 RMK AO2 T01830150
53988KBKB BKB20190514213010705/14/19 21:30:31  5-MIN KBKB 150330Z AUTO 00000KT 10SM CLR 18/15 A3000 220 81 700 000/00 RMK AO2 T01830150
53988KBKB BKB20190514213510705/14/19 21:35:31  5-MIN KBKB 150335Z AUTO 00000KT 10SM CLR 18/16 A3000 220 84 700 000/00 RMK AO2 T01830156
53988KBKB BKB20190514214010705/14/19 21:40:31  5-MIN KBKB 150340Z AUTO 00000KT 10SM CLR 18/16 A3000 220 84 700 000/00 RMK AO2 T01830156
53988KBKB BKB20190514214510705/14/19 21:45:31  5-MIN KBKB 150345Z AUTO 00000KT 10SM CLR 18/16 A3000 220 84 700 000/00 RMK AO2 T01830156
53988KBKB BKB20190514215011405/14/19 21:50:31  5-MIN KBKB 150350Z AUTO 00000KT 10SM CLR 18/16 A3000 220 87 600 000/00 RMK AO2 SLP185 T01780156
53988KBKB BKB20190514215510705/14/19 21:55:31  5-MIN KBKB 150355Z AUTO 00000KT 10SM CLR 18/16 A3000 220 87 600 000/00 RMK AO2 T01780156
53988KBKB BKB20190514220010705/14/19 22:00:31  5-MIN KBKB 150400Z AUTO 00000KT 10SM CLR 18/16 A3000 220 87 600 000/00 RMK AO2 T01780156
53988KBKB BKB20190514220510705/14/19 22:05:31  5-MIN KBKB 150405Z AUTO 00000KT 10SM CLR 18/16 A3000 220 87 600 000/00 RMK AO2 T01780156
53988KBKB BKB20190514221010705/14/19 22:10:31  5-MIN KBKB 150410Z AUTO 00000KT 10SM CLR 18/16 A3000 220 87 600 000/00 RMK AO2 T01780156
53988KBKB BKB20190514221510705/14/19 22:15:31  5-MIN KBKB 150415Z AUTO 00000KT 10SM CLR 18/16 A3000 220 87 600 000/00 RMK AO2 T01780156
53988KBKB BKB20190514222010705/14/19 22:20:31  5-MIN KBKB 150420Z AUTO 00000KT 10SM CLR 17/16 A3000 220 90 600 000/00 RMK AO2 T01720156
53988KBKB BKB20190514222510705/14/19 22:25:31  5-MIN KBKB 150425Z AUTO 00000KT 10SM CLR 17/16 A3000 230 93 600 000/00 RMK AO2 T01720161
53988KBKB BKB20190514223010705/14/19 22:30:31  5-MIN KBKB 150430Z AUTO 00000KT 10SM CLR 17/16 A3000 230 93 600 000/00 RMK AO2 T01720161
53988KBKB BKB20190514223509105/14/19 22:35:31  5-MIN KBKB 150435Z AUTO 00000KT 10SM CLR 17/16 A000/00 RMK AO2 T01670156
53988KBKB BKB20190514223510705/14/19 22:35:31  5-MIN KBKB 150435Z AUTO 00000KT 10SM CLR 17/16 A3000 230 90 600 000/00 RMK AO2 T01720156
53988KBKB BKB20190514224010705/14/19 22:40:31  5-MIN KBKB 150440Z AUTO 00000KT 10SM CLR 17/16 A3000 230 90 600 000/00 RMK AO2 T01720156
53988KBKB BKB20190514224510705/14/19 22:45:31  5-MIN KBKB 150445Z AUTO 00000KT 10SM CLR 17/16 A3000 230 90 600 000/00 RMK AO2 T01720156
53988KBKB BKB20190514225011405/14/19 22:50:31  5-MIN KBKB 150450Z AUTO 00000KT 10SM CLR 17/16 A3000 230 90 600 000/00 RMK AO2 SLP183 T01720156
53988KBKB BKB20190514225510705/14/19 22:55:31  5-MIN KBKB 150455Z AUTO 00000KT 10SM CLR 17/16 A2999 230 90 600 000/00 RMK AO2 T01720156
53988KBKB BKB20190514230010705/14/19 23:00:31  5-MIN KBKB 150500Z AUTO 00000KT 10SM CLR 17/16 A2999 230 93 500 000/00 RMK AO2 T01670156
53988KBKB BKB20190514230510705/14/19 23:05:31  5-MIN KBKB 150505Z AUTO 00000KT 10SM CLR 17/16 A2999 230 93 500 000/00 RMK AO2 T01670156
53988KBKB BKB20190514231010705/14/19 23:10:31  5-MIN KBKB 150510Z AUTO 00000KT 10SM CLR 17/16 A2999 230 93 500 000/00 RMK AO2 T01670156
53988KBKB BKB20190514231510705/14/19 23:15:31  5-MIN KBKB 150515Z AUTO 00000KT 10SM CLR 17/16 A2999 230 93 500 000/00 RMK AO2 T01670156
53988KBKB BKB20190514232010705/14/19 23:20:31  5-MIN KBKB 150520Z AUTO 00000KT 10SM CLR 17/16 A3000 230 93 500 000/00 RMK AO2 T01670156
53988KBKB BKB20190514232510705/14/19 23:25:31  5-MIN KBKB 150525Z AUTO 00000KT 10SM CLR 17/16 A3000 230 96 500 000/00 RMK AO2 T01670161
53988KBKB BKB20190514233010705/14/19 23:30:31  5-MIN KBKB 150530Z AUTO 00000KT 10SM CLR 17/16 A3000 230 96 500 000/00 RMK AO2 T01670161
53988KBKB BKB20190514233510705/14/19 23:35:31  5-MIN KBKB 150535Z AUTO 00000KT 10SM CLR 17/16 A3000 230 93 500 000/00 RMK AO2 T01670156
53988KBKB BKB20190514234010705/14/19 23:40:31  5-MIN KBKB 150540Z AUTO 00000KT 10SM CLR 17/16 A3000 230 93 500 000/00 RMK AO2 T01670156
53988KBKB BKB20190514234510705/14/19 23:45:31  5-MIN KBKB 150545Z AUTO 00000KT 10SM CLR 17/16 A3000 230 93 500 000/00 RMK AO2 T01670156
53988KBKB BKB20190514235014205/14/19 23:50:31  5-MIN KBKB 150550Z AUTO 00000KT 10SM CLR 17/16 A3000 230 93 500 000/00 RMK AO2 SLP183 T01670156 10272 20167 403060117 53013
53988KBKB BKB20190514235510705/14/19 23:55:31  5-MIN KBKB 150555Z AUTO 00000KT 10SM CLR 17/16 A2999 230 93 500 000/00 RMK AO2 T01670156
53988KBKB BKB20190514235511605/14/19 23:55:31  5-MIN KBKB 150555Z AUTO 00000KT 10SM CLR 17/16 A2999 23 A2999 230 93 500 000/00 RMK AO2 T01670156
53988KBKB BKB20190515000010705/15/19 00:00:31  5-MIN KBKB 150600Z AUTO 00000KT 10SM CLR 17/16 A2999 230 93 500 000/00 RMK AO2 T01670156
53988KBKB BKB20190515000510705/15/19 00:05:31  5-MIN KBKB 150605Z AUTO 00000KT 10SM CLR 17/16 A2999 230 93 500 000/00 RMK AO2 T01670156
53988KBKB BKB20190515001010705/15/19 00:10:31  5-MIN KBKB 150610Z AUTO 00000KT 10SM CLR 17/15 A2999 230 90 500 000/00 RMK AO2 T01670150
53988KBKB BKB20190515001510705/15/19 00:15:31  5-MIN KBKB 150615Z AUTO 00000KT 10SM CLR 17/15 A2999 230 90 500 000/00 RMK AO2 T01670150
53988KBKB BKB20190515002010705/15/19 00:20:31  5-MIN KBKB 150620Z AUTO 00000KT 10SM CLR 17/15 A2999 230 90 500 000/00 RMK AO2 T01670150
53988KBKB BKB20190515002508105/15/19 00:25:31  5-MIN KBKB 150625Z AUTO 00000KT 10SM CLR 17/1615/14 A3000 230 
53988KBKB BKB20190515003510705/15/19 00:35:31  5-MIN KBKB 150635Z AUTO 00000KT 10SM CLR 17/16 A2999 230 93 500 000/00 RMK AO2 T01670156
53988KBKB BKB20190515004010705/15/19 00:40:31  5-MIN KBKB 150640Z AUTO 00000KT 10SM CLR 17/16 A2999 230 93 500 000/00 RMK AO2 T01670156
53988KBKB BKB20190515004510705/15/19 00:45:31  5-MIN KBKB 150645Z AUTO 00000KT 10SM CLR 17/15 A2999 230 90 500 000/00 RMK AO2 T01670150
53988KBKB BKB20190515005011405/15/19 00:50:31  5-MIN KBKB 150650Z AUTO 00000KT 10SM CLR 16/15 A2999 230 93 500 000/00 RMK AO2 SLP182 T01610150
53988KBKB BKB20190515005510705/15/19 00:55:31  5-MIN KBKB 150655Z AUTO 00000KT 10SM CLR 16/15 A2999 230 93 500 000/00 RMK AO2 T01610150
53988KBKB BKB20190515010010705/15/19 01:00:31  5-MIN KBKB 150700Z AUTO 00000KT 10SM CLR 16/15 A2999 240 93 500 000/00 RMK AO2 T01610150
53988KBKB BKB20190515010510705/15/19 01:05:31  5-MIN KBKB 150705Z AUTO 00000KT 10SM CLR 16/15 A2999 240 93 500 000/00 RMK AO2 T01610150
53988KBKB BKB20190515011010705/15/19 01:10:31  5-MIN KBKB 150710Z AUTO 00000KT 10SM CLR 16/15 A2999 230 93 500 000/00 RMK AO2 T01610150
53988KBKB BKB20190515011510705/15/19 01:15:31  5-MIN KBKB 150715Z AUTO 00000KT 10SM CLR 16/15 A2999 240 93 500 000/00 RMK AO2 T01610150
53988KBKB BKB20190515012010705/15/19 01:20:31  5-MIN KBKB 150720Z AUTO 00000KT 10SM CLR 16/15 A2999 240 93 500 000/00 RMK AO2 T01610150
53988KBKB BKB20190515012512505/15/19 01:25:31  5-MIN KBKB 150725Z AUTO 00000KT51030Z AUTO 00000KT 9SM CLR 15/14 A2999 230 96 300 000/00 RMK AO2 T01500144
53988KBKB BKB20190515043510605/15/19 04:35:31  5-MIN KBKB 151035Z AUTO 00000KT 9SM CLR 15/14 A2999 230 96 300 000/00 RMK AO2 T01500144
53988KBKB BKB20190515044010605/15/19 04:40:31  5-MIN KBKB 151040Z AUTO 00000KT 8SM CLR 15/14 A3000 230 96 300 000/00 RMK AO2 T01500144
53988KBKB BKB20190515044510605/15/19 04:45:31  5-MIN KBKB 151045Z AUTO 00000KT 8SM CLR 15/14 A3000 230 96 300 000/00 RMK AO2 T01500144
53988KBKB BKB20190515045011305/15/19 04:50:31  5-MIN KBKB 151050Z AUTO 00000KT 8SM CLR 15/14 A3000 230 96 300 000/00 RMK AO2 SLP183 T01500144
53988KBKB BKB20190515045510605/15/19 04:55:31  5-MIN KBKB 151055Z AUTO 00000KT 9SM CLR 15/14 A3000 230 96 300 000/00 RMK AO2 T01500144
53988KBKB BKB20190515050010605/15/19 05:00:31  5-MIN KBKB 151100Z AUTO 00000KT 8SM CLR 15/14 A3000 230 96 300 000/00 RMK AO2 T01500144
53988KBKB BKB20190515050511605/15/19 05:05:31  5-MIN KBKB 151105Z AUTO 00000KT 8SM CLR 15/14 CLR 16/15 A3001 220 96 400 000/00 RMK AO2 T01560150
53988KBKB BKB20190515052010605/15/19 05:20:31  5-MIN KBKB 151120Z AUTO 00000KT 7SM CLR 16/15 A3000 220 96 400 000/00 RMK AO2 T01560150
53988KBKB BKB20190515052510605/15/19 05:25:31  5-MIN KBKB 151125Z AUTO 00000KT 7SM CLR 16/15 A3000 220 96 400 000/00 RMK AO2 T01560150
53988KBKB BKB20190515053010705/15/19 05:30:31  5-MIN KBKB 151130Z AUTO 00000KT 7SM CLR 15/15 A3001 220 100 300 000/00 RMK AO2 T01500150
53988KBKB BKB20190515053511005/15/19 05:35:31  5-MIN KBKB 151135Z AUTO 00000KT 6SM BR CLR 15/15 A3001 220 100 300 000/00 RMK AO2 T01500150
53988KBKB BKB20190515054010905/15/19 05:40:31  5-MIN KBKB 151140Z AUTO 00000KT 6SM BR CLR 16/15 A3001 220 96 400 000/00 RMK AO2 T01560150
53988KBKB BKB20190515054510605/15/19 05:45:31  5-MIN KBKB 151145Z AUTO 00000KT 7SM CLR 16/15 A3001 210 96 400 000/00 RMK AO2 T01560150
53988KBKB BKB20190515055013105/15/19 05:50:31  5-MIN KBKB 151150Z AUTO 00000KT 7SM CLR 16/15 A3001 210 96 400 000/00 RMK AO2 SLP190 T01560150 10167 20150 55004
53988KBKB BKB20190515055510905/15/19 05:55:31  5-MIN KBKB 151155Z AUTO 00000KT 6SM BR CLR 16/15 A3002 210 96 400 000/00 RMK AO2 T01560150
53988KBKB BKB20190515060010605/15/19 06:00:31  5-MIN KBKB 151200Z AUTO 00000KT 7SM CLR 16/15 A3002 210 96 400 000/00 RMK AO2 T01560150
53988KBKB BKB20190515060510705/15/19 06:05:31  5-MIN KBKB 151205Z AUTO 00000KT 8SM CLR 16/16 A3002 210 100 400 000/00 RMK AO2 T01560156
53988KBKB BKB20190515061010605/15/19 06:10:31  5-MIN KBKB 151210Z AUTO 00000KT 8SM CLR 16/16 A3002 200 96 400 000/00 RMK AO2 T01610156
53988KBKB BKB20190515061510705/15/19 06:15:31  5-MIN KBKB 151215Z AUTO 00000KT 9SM CLR 16/16 A3002 200 100 400 000/00 RMK AO2 T01610161
53988KBKB BKB20190515062010605/15/19 06:20:31  5-MIN KBKB 151220Z AUTO 00000KT 9SM CLR 17/16 A3002 200 96 500 000/00 RMK AO2 T01670161
53988KBKB BKB20190515062510705/15/19 06:25:31  5-MIN KBKB 151225Z AUTO 00000KT 10SM CLR 17/17 A3003 200 96 500 000/00 RMK AO2 T01720167
53988KBKB BKB20190515063010805/15/19 06:30:31  5-MIN KBKB 151230Z AUTO 00000KT 10SM CLR 17/17 A3003 200 100 500 000/00 RMK AO2 T01720172
53988KBKB BKB20190515063510705/15/19 06:35:31  5-MIN KBKB 151235Z AUTO 00000KT 10SM CLR 18/17 A3003 200 96 600 000/00 RMK AO2 T01780172
53988KBKB BKB20190515064010705/15/19 06:40:31  5-MIN KBKB 151240Z AUTO 00000KT 10SM CLR 18/17 A3003 200 93 700 000/00 RMK AO2 T01830172
53988KBKB BKB20190515064510705/15/19 06:45:31  5-MIN KBKB 151245Z AUTO 00000KT 10SM CLR 19/18 A3003 200 93 700 000/00 RMK AO2 T01890178
53988KBKB BKB20190515065011405/15/19 06:50:31  5-MIN KBKB 151250Z AUTO 00000KT 10SM CLR 19/18 A3003 190 93 800 000/00 RMK AO2 SLP196 T01940183
53988KBKB BKB20190515065510705/15/19 06:55:31  5-MIN KBKB 151255Z AUTO 00000KT 10SM CLR 20/18 A3003 190 90 900 000/00 RMK AO2 T02000183
53988KBKB BKB20190515070010705/15/19 07:00:31  5-MIN KBKB 151300Z AUTO 00000KT 10SM CLR 21/18 A3003 190 87 900 000/00 RMK AO2 T02060183
53988KBKB BKB20190515070510805/15/19 07:05:31  5-MIN KBKB 151305Z AUTO 00000KT 10SM CLR 21/18 A3004 190 84 1000 000/00 RMK AO2 T02110183
53988KBKB BKB20190515071010805/15/19 07:10:31  5-MIN KBKB 151310Z AUTO 00000KT 10SM CLR 22/19 A3004 190 84 1100 000/00 RMK AO2 T02170189
53988KBKB BKB20190515071510805/15/19 07:15:31  5-MIN KBKB 151315Z AUTO 00000KT 10SM CLR 22/19 A3004 190 84 1100 000/00 RMK AO2 T02170189
53988KBKB BKB20190515072010805/15/19 07:20:31  5-MIN KBKB 151320Z AUTO 00000KT 10SM CLR 22/19 A3004 190 81 1100 000/00 RMK AO2 T02220189
53988KBKB BKB20190515072510805/15/19 07:25:31  5-MIN KBKB 151325Z AUTO 00000KT 10SM CLR 23/19 A3004 190 78 1200 000/00 RMK AO2 T02280189
53988KBKB BKB20190515073010805/15/19 07:30:31  5-MIN KBKB 151330Z AUTO 00000KT 10SM CLR 23/19 A3004 190 78 1200 000/00 RMK AO2 T02280189
53988KBKB BKB20190515073510805/15/19 07:35:31  5-MIN KBKB 151335Z AUTO 00000KT 10SM CLR 23/19 A3004 190 76 1200 000/00 RMK AO2 T02330189
53988KBKB BKB20190515074010805/15/19 07:40:31  5-MIN KBKB 151340Z AUTO 00000KT 10SM CLR 24/19 A3004 180 76 1300 000/00 RMK AO2 T02390194
53988KBKB BKB20190515074510805/15/19 07:45:31  5-MIN KBKB 151345Z AUTO 00000KT 10SM CLR 23/19 A3004 180 78 1200 000/00 RMK AO2 T02330194
53988KBKB BKB20190515075011505/15/19 07:50:31  5-MIN KBKB 151350Z AUTO 00000KT 10SM CLR 24/19 A3004 190 73 1300 000/00 RMK AO2 SLP199 T02390189
53988KBKB BKB20190515075510805/15/19 07:55:31  5-MIN KBKB 151355Z AUTO 00000KT 10SM CLR 24/18 A3004 180 71 1300 000/00 RMK AO2 T02390183
53988KBKB BKB20190515080010805/15/19 08:00:31  5-MIN KBKB 151400Z AUTO VRB04KT 10SM CLR 24/18 A3004 190 71 1300 VRB/04 RMK AO2 T02390183
53988KBKB BKB20190515080510805/15/19 08:05:31  5-MIN KBKB 151405Z AUTO 00000KT 10SM CLR 24/19 A3004 190 71 1400 000/00 RMK AO2 T02440189
53988KBKB BKB20190515081010805/15/19 08:10:31  5-MIN KBKB 151410Z AUTO 00000KT 10SM CLR 25/18 A3004 180 66 1400 000/00 RMK AO2 T02500183
53988KBKB BKB20190515081510805/15/19 08:15:31  5-MIN KBKB 151415Z AUTO 00000KT 10SM CLR 26/19 A3004 180 68 1500 000/00 RMK AO2 T02560194
53988KBKB BKB20190515082010805/15/19 08:20:31  5-MIN KBKB 151420Z AUTO 00000KT 10SM CLR 25/18 A3004 180 66 1400 000/00 RMK AO2 T02500183
53988KBKB BKB20190515082510805/15/19 08:25:31  5-MIN KBKB 151425Z AUTO VRB03KT 10SM CLR 25/18 A3004 180 64 1400 VRB/03 RMK AO2 T02500178
53988KBKB BKB20190515083010805/15/19 08:30:31  5-MIN KBKB 151430Z AUTO 00000KT 10SM CLR 26/18 A3005 180 61 1500 000/00 RMK AO2 T02560178
53988KBKB BKB20190515083510805/15/19 08:35:31  5-MIN KBKB 151435Z AUTO 00000KT 10SM CLR 26/18 A3005 180 61 1500 000/00 RMK AO2 T02560178
53988KBKB BKB20190515084010805/15/19 08:40:31  5-MIN KBKB 151440Z AUTO 00000KT 10SM CLR 26/18 A3004 180 61 1500 000/00 RMK AO2 T02560178
53988KBKB BKB20190515084510805/15/19 08:45:31  5-MIN KBKB 151445Z AUTO VRB03KT 10SM CLR 26/18 A3004 180 59 1600 VRB/03 RMK AO2 T02610178
53988KBKB BKB20190515085012105/15/19 08:50:31  5-MIN KBKB 151450Z AUTO 00000KT 10SM CLR 26/18 A3004 180 59 1500 000/00 RMK AO2 SLP200 T02610178 53011
53988KBKB BKB20190515085510805/15/19 08:55:31  5-MIN KBKB 151455Z AUTO 00000KT 10SM CLR 26/18 A3004 180 59 1500 000/00 RMK AO2 T02610178
53988KBKB BKB20190515090010805/15/19 09:00:31  5-MIN KBKB 151500Z AUTO 00000KT 10SM CLR 26/18 A3004 190 59 1600 000/00 RMK AO2 T02610178
53988KBKB BKB20190515090510805/15/19 09:05:31  5-MIN KBKB 151505Z AUTO 00000KT 10SM CLR 27/18 A3004 190 57 1600 000/00 RMK AO2 T02670178
53988KBKB BKB20190515091010805/15/19 09:10:31  5-MIN KBKB 151510Z AUTO 00000KT 10SM CLR 27/18 A3004 190 57 1600 000/00 RMK AO2 T02670178
53988KBKB BKB20190515091510805/15/19 09:15:31  5-MIN KBKB 151515Z AUTO 22004KT 10SM CLR 27/17 A3004 190 55 1600 220/04 RMK AO2 T02670172
53988KBKB BKB20190515092010805/15/19 09:20:31  5-MIN KBKB 151520Z AUTO 00000KT 10SM CLR 27/17 A3004 190 53 1600 000/00 RMK AO2 T02670167
53988KBKB BKB20190515092510805/15/19 09:25:31  5-MIN KBKB 151525Z AUTO VRB03KT 10SM CLR 27/17 A3004 190 54 1700 VRB/03 RMK AO2 T02720172
53988KBKB BKB20190515093010805/15/19 09:30:31  5-MIN KBKB 151530Z AUTO 00000KT 10SM CLR 27/17 A3004 190 54 1700 000/00 RMK AO2 T02720172
53988KBKB BKB20190515093510805/15/19 09:35:31  5-MIN KBKB 151535Z AUTO 00000KT 10SM CLR 27/17 A3004 190 54 1700 000/00 RMK AO2 T02720172
53988KBKB BKB20190515094010805/15/19 09:40:31  5-MIN KBKB 151540Z AUTO VRB04KT 10SM CLR 28/17 A3004 190 50 1700 VRB/04 RMK AO2 T02780167
53988KBKB BKB20190515094510805/15/19 09:45:31  5-MIN KBKB 151545Z AUTO VRB04KT 10SM CLR 28/17 A3004 190 52 1700 VRB/04 RMK AO2 T02780172
53988KBKB BKB20190515095011505/15/19 09:50:31  5-MIN KBKB 151550Z AUTO 00000KT 10SM CLR 28/17 A3004 190 50 1700 000/00 RMK AO2 SLP198 T02780167
53988KBKB BKB20190515095514305/15/19 09:55:31  5-MIN KBKB 151555Z AUTO 00000KT 10SM CLR 28/17 A3004Z AUTO VRB03KT 10SM CLR 30/15 A3002 210 39 2000 VRB/03 RMK AO2 T03000150
53988KBKB BKB20190515121510805/15/19 12:15:31  5-MIN KBKB 151815Z AUTO VRB04KT 10SM CLR 30/15 A3002 210 39 2000 VRB/04 RMK AO2 T03000150
53988KBKB BKB20190515122009805/15/19 12:20:31  5-MIN KBKB 151820Z AUTO 10SM CLR 30/16 A3001 210 41 2000 M /M RMK AO2 T03000156
53988KBKB BKB20190515122516105/15/19 12:25:31  5-MIN KBKB 151825Z AUTO 00000KT 10SM CLR 30/15 A3001 220 39 2000 000/00 RMK AO2 T0300015005/15/19 12:30:31  5 41 2000 000/00 RMK AO2 T03000156
53988KBKB BKB20190515123510805/15/19 12:35:31  5-MIN KBKB 151835Z AUTO VRB04KT 10SM CLR 31/16 A3001 220 39 2100 VRB/04 RMK AO2 T03060156
53988KBKB BKB20190515124010805/15/19 12:40:31  5-MIN KBKB 151840Z AUTO 00000KT 10SM CLR 30/15 A3001 220 39 2000 000/00 RMK AO2 T03000150
53988KBKB BKB20190515124506805/15/19 12:45:31  5-MIN KBKB 151845Z AUTO VRB03KT 10SM FEW060 31/10
53988KBKB BKB20190515131011105/15/19 13:10:31  5-MIN KBKB 151910Z AUTO 00000KT 10SM BKN060 31/16 A3000 230 38 2200 000/00 RMK AO2 T03110156
53988KBKB BKB20190515131511105/15/19 13:15:31  5-MIN KBKB 151915Z AUTO VRB04KT 10SM BKN060 31/15 A3000 230 38 2100 VRB/04 RMK AO2 T03060150
53988KBKB BKB20190515132011805/15/19 13:20:31  5-MIN KBKB 151920Z AUTO 00000KT 10SM BKN065 BKN085 32/16 A3000 230 37 2200 000/00 RMK AO2 T03170156
53988KBKB BKB20190515132511805/15/19 13:25:31  5-MIN KBKB 151925Z AUTO VRB03KT 10SM SCT060 BKN085 31/16 A2999 230 39 2100 VRB/03 RMK AO2 T03060156
53988KBKB BKB20190515133011805/15/19 13:30:31  5-MIN KBKB 151930Z AUTO VRB06KT 10SM SCT065 BKN085 31/15 A2999 230 38 2100 VRB/06 RMK AO2 T03060150
53988KBKB BKB20190515133511805/15/19 13:35:31  5-MIN KBKB 151935Z AUTO VRB03KT 10SM FEW065 SCT085 31/15 A2999 230 38 2100 VRB/03 RMK AO2 T03060150
53988KBKB BKB20190515134011805/15/19 13:40:31  5-MIN KBKB 151940Z AUTO VRB05KT 10SM FEW065 SCT085 31/15 A2999 230 38 2100 VRB/05 RMK AO2 T03060150
53988KBKB BKB20190515134511105/15/19 13:45:31  5-MIN KBKB 151945Z AUTO VRB03KT 10SM FEW085 30/15 A2999 230 39 2000 VRB/03 RMK AO2 T03000150
53988KBKB BKB20190515135011505/15/19 13:50:31  5-MIN KBKB 151950Z AUTO 00000KT 10SM CLR 31/15 A2999 240 38 2100 000/00 RMK AO2 SLP181 T03060150
53988KBKB BKB20190515135514305/15/19 13:55:31  5-MIN KBKB 151955Z AUTO 00000KT 10SM FEW060 31/16 A2999 240 38 2200 000/00 RMK AO2 T0311015605/15/19000/00 RMK AO2 T03000150
53988KBKB BKB20190515143511105/15/19 14:35:31  5-MIN KBKB 152035Z AUTO 25003KT 10SM FEW065 30/15 A2997 250 39 2100 240/03 RMK AO2 T03000150
53988KBKB BKB20190515144011105/15/19 14:40:31  5-MIN KBKB 152040Z AUTO 00000KT 10SM FEW070 30/15 A2997 250 39 2100 000/00 RMK AO2 T03000150
53988KBKB BKB20190515144510805/15/19 14:45:31  5-MIN KBKB 152045Z AUTO VRB03KT 10SM CLR 31/15 A2997 250 38 2100 VRB/03 RMK AO2 T03060150
53988KBKB BKB20190515145012405/15/19 14:50:31  5-MIN KBKB 152050Z AUTO 20004KT 10SM FEW065 31/14 A2997 250 37 2100 200/04 RMK AO2 SLP174 T03060144 58007
53988KBKB BKB20190515145511105/15/19 14:55:31  5-MIN KBKB 152055Z AUTO VRB03KT 10SM FEW065 31/14 A2997 260 37 2100 VRB/03 RMK AO2 T03060144
53988KBKB BKB20190515150011105/15/19 15:00:31  5-MIN KBKB 152100Z AUTO 00000KT 10SM SCT065 29/14 A2996 260 40 2000 000/00 RMK AO2 T02890144
53988KBKB BKB20190515150511105/15/19 15:05:31  5-MIN KBKB 152105Z AUTO VRB03KT 10SM FEW065 29/15 A2996 260 42 2000 VRB/03 RMK AO2 T02890150
53988KBKB BKB20190515151011105/15/19 15:10:31  5-MIN KBKB 152110Z AUTO 00000KT 10SM SCT065 30/16 A2996 260 41 2100 000/00 RMK AO2 T03000156
53988KBKB BKB20190515151511105/15/19 15:15:31  5-MIN KBKB 152115Z AUTO VRB03KT 10SM BKN070 30/16 A2996 260 41 2100 VRB/03 RMK AO2 T03000156
53988KBKB BKB20190515152020505/15/19 15:20:31  5-MIN KBKB 152120Z AUTO 00000KT 10SM BKN070 BKN090 30/16 A2996 260 42 2100 000/00 RMK AO2 T0300016105/1B 152145Z AUTO 00000KT 10SM FEW085 29/16 A2996 270 42 2000 000/00 RMK AO2 T02940156
53988KBKB BKB20190515155011805/15/19 15:50:31  5-MIN KBKB 152150Z AUTO 00000KT 10SM FEW085 28/16 A2996 270 45 1900 000/00 RMK AO2 SLP170 T02830156
53988KBKB BKB20190515155511105/15/19 15:55:31  5-MIN KBKB 152155Z AUTO 00000KT 10SM FEW085 28/16 A2995 270 48 1800 000/00 RMK AO2 T02780161
53988KBKB BKB20190515160011105/15/19 16:00:31  5-MIN KBKB 152200Z AUTO 00000KT 10SM FEW085 27/17 A2995 270 54 1800 000/00 RMK AO2 T02720172
53988KBKB BKB20190515160511105/15/19 16:05:31  5-MIN KBKB 152205Z AUTO 00000KT 10SM FEW085 28/18 A2995 270 54 1800 000/00 RMK AO2 T02780178
53988KBKB BKB20190515161010805/15/19 16:10:31  5-MIN KBKB 152210Z AUTO 00000KT 10SM CLR 29/17 A2995 270 45 2000 000/00 RMK AO2 T02940167
53988KBKB BKB20190515161510805/15/19 16:15:31  5-MIN KBKB 152215Z AUTO 00000KT 10SM CLR 30/18 A2995 270 47 2100 000/00 RMK AO2 T03000178
53988KBKB BKB20190515162010805/15/19 16:20:31  5-MIN KBKB 152220Z AUTO 00000KT 10SM CLR 29/18 A2995 270 50 2000 000/00 RMK AO2 T02890178
53988KBKB BKB20190515162510805/15/19 16:25:31  5-MIN KBKB 152225Z AUTO 00000KT 10SM CLR 28/19 A2995 270 56 1900 000/00 RMK AO2 T02830189
53988KBKB BKB20190515163007305/15/19 16:30:31  5-MIN KBKB 152230Z AUTO 00000KT M M M 000/00 RMK AO2 $
53988KBKB BKB20190515163510105/15/19 16:35:31  5-MIN KBKB 152235Z AUTO 00000KT 30/16 A2995 270 41 2100 000/00 RMK AO2 T03000156 $
53988KBKB BKB20190515163513605/15/19 16:35:31  5-MIN KBKB 152235Z AUTO 00000KT 30/16 A2995 270 41 2100 000/00 RMK AO2 T03000156 $ 42 2000 000/00 RMK AO2 T02940156 $
53988KBKB BKB20190515164010605/15/19 16:40:31  5-MIN KBKB 152240Z AUTO VRB03KT 10SM 30/16 A2995 270 42 2100 VRB/03 RMK AO2 T03000161 $
53988KBKB BKB20190515164510605/15/19 16:45:31  5-MIN KBKB 152245Z AUTO 00000KT 10SM 30/15 A2995 270 39 2100 000/00 RMK AO2 T03000150 $
53988KBKB BKB20190515165011305/15/19 16:50:31  5-MIN KBKB 152250Z AUTO 00000KT 10SM 30/15 A2995 270 39 2100 000/00 RMK AO2 SLP167 T03000150 $
53988KBKB BKB20190515165510605/15/19 16:55:31  5-MIN KBKB 152255Z AUTO VRB03KT 10SM 30/15 A2995 270 39 2100 VRB/03 RMK AO2 T03000150 $
53988KBKB BKB20190515170011005/15/19 17:00:31  5-MIN KBKB 152300Z AUTO 00000KT 10SM CLR 29/14 A2995 270 39 2000 000/00 RMK AO2 T02940144 $
53988KBKB BKB20190515170511005/15/19 17:05:31  5-MIN KBKB 152305Z AUTO VRB03KT 10SM CLR 30/16 A2995 270 41 2100 VRB/03 RMK AO2 T03000156 $
53988KBKB BKB20190515171011005/15/19 17:10:31  5-MIN KBKB 152310Z AUTO 00000KT 10SM CLR 30/16 A2995 270 41 2100 000/00 RMK AO2 T03000156 $
53988KBKB BKB20190515171511005/15/19 17:15:31  5-MIN KBKB 152315Z AUTO 00000KT 10SM CLR 29/16 A2995 270 42 2000 000/00 RMK AO2 T02940156 $
53988KBKB BKB20190515172011005/15/19 17:20:31  5-MIN KBKB 152320Z AUTO 00000KT 10SM CLR 29/15 A2995 270 41 2000 000/00 RMK AO2 T02940150 $
53988KBKB BKB20190515172511005/15/19 17:25:31  5-MIN KBKB 152325Z AUTO VRB03KT 10SM CLR 29/16 A2995 270 45 2000 VRB/03 RMK AO2 T02890161 $
53988KBKB BKB20190515173011005/15/19 17:30:31  5-MIN KBKB 152330Z AUTO 00000KT 10SM CLR 29/15 A2995 270 42 2000 000/00 RMK AO2 T02890150 $
53988KBKB BKB20190515173511005/15/19 17:35:31  5-MIN KBKB 152335Z AUTO 00000KT 10SM CLR 29/15 A2995 270 42 2000 000/00 RMK AO2 T02890150 $
53988KBKB BKB20190515174011005/15/19 17:40:31  5-MIN KBKB 152340Z AUTO 00000KT 10SM CLR 29/16 A2995 270 44 2000 000/00 RMK AO2 T02890156 $
53988KBKB BKB20190515174511005/15/19 17:45:31  5-MIN KBKB 152345Z AUTO 00000KT 10SM CLR 28/16 A2995 270 48 1800 000/00 RMK AO2 T02780161 $
53988KBKB BKB20190515175012905/15/19 17:50:31  5-MIN KBKB 152350Z AUTO 00000KT 10SM CLR 28/16 A2995 270 46 1800 000/00 RMK AO2 SLP167 T02780156 10317 20272 $
53988KBKB BKB20190515175511005/15/19 17:55:31  5-MIN KBKB 152355Z AUTO 00000KT 10SM CLR 27/16 A2995 270 50 1800 000/00 RMK AO2 T02720161 $
53988KBKB BKB20190515180006305/15/19 18:00:31  5-MIN KBKB 160000Z AUTO M M M M /M RMK AO2 $
53988KBKB BKB20190515180510105/15/19 18:05:31  5-MIN KBKB 160005Z AUTO 00000KT 27/16 A2995 270 52 1700 000/00 RMK AO2 T02670161 $
53988KBKB BKB20190515180514105/15/19 18:05:31  5-MIN KBKB 160005Z AUTO 00000KT 27/16 A2995 270 52 1700 000/00 RMKM CLR 26/17 A2996 270 59 1600 000/00 RMK AO2 T02560172 $
53988KBKB BKB20190515181010605/15/19 18:10:31  5-MIN KBKB 160010Z AUTO 00000KT 10SM 27/16 A2995 270 52 1700 000/00 RMK AO2 T02670161 $
53988KBKB BKB20190515181510605/15/19 18:15:31  5-MIN KBKB 160015Z AUTO 00000KT 10SM 27/16 A2995 270 52 1700 000/00 RMK AO2 T02670161 $
53988KBKB BKB20190515181518005/15/19 18:15:31  5-MIN KBKB 160015Z AUTO 00000KT 10SM 27/16 A2995 270 52 1700 000/00 RMK AO2 T02670161 $05/15/19 18:20:31  5CLR 26/17 A2996 270 59 1600 000/00 RMK AO2 T02560172 $
53988KBKB BKB20190515182010605/15/19 18:20:31  5-MIN KBKB 160020Z AUTO 00000KT 10SM 26/16 A2995 270 53 1700 000/00 RMK AO2 T02610161 $
53988KBKB BKB20190515182510605/15/19 18:25:31  5-MIN KBKB 160025Z AUTO 00000KT 10SM 26/17 A2995 270 57 1600 000/00 RMK AO2 T02560167 $
53988KBKB BKB20190515183011005/15/19 18:30:31  5-MIN KBKB 160030Z AUTO 00000KT 10SM CLR 26/17 A2996 270 59 1600 000/00 RMK AO2 T02560172 $
53988KBKB BKB20190515183511005/15/19 18:35:31  5-MIN KBKB 160035Z AUTO 00000KT 10SM CLR 26/17 A2996 260 57 1600 000/00 RMK AO2 T02560167 $
53988KBKB BKB20190515184011005/15/19 18:40:31  5-MIN KBKB 160040Z AUTO 00000KT 10SM CLR 25/17 A2996 260 61 1500 000/00 RMK AO2 T02500172 $
53988KBKB BKB20190515184511005/15/19 18:45:31  5-MIN KBKB 160045Z AUTO 00000KT 10SM CLR 25/17 A2996 260 61 1500 000/00 RMK AO2 T02500172 $
53988KBKB BKB20190515185011705/15/19 18:50:31  5-MIN KBKB 160050Z AUTO 00000KT 10SM CLR 24/17 A2996 260 61 1500 000/00 RMK AO2 SLP172 T02440167 $
53988KBKB BKB20190515185511005/15/19 18:55:31  5-MIN KBKB 160055Z AUTO 00000KT 10SM CLR 24/17 A2996 260 63 1500 000/00 RMK AO2 T02440172 $
53988KBKB BKB20190515190011005/15/19 19:00:31  5-MIN KBKB 160100Z AUTO 00000KT 10SM CLR 24/17 A2996 260 66 1400 000/00 RMK AO2 T02390172 $
53988KBKB BKB20190515190511005/15/19 19:05:31  5-MIN KBKB 160105Z AUTO 00000KT 10SM CLR 24/17 A2997 260 66 1400 000/00 RMK AO2 T02390172 $
53988KBKB BKB20190515191011005/15/19 19:10:31  5-MIN KBKB 160110Z AUTO 00000KT 10SM CLR 24/17 A2997 260 63 1400 000/00 RMK AO2 T02390167 $
53988KBKB BKB20190515191511005/15/19 19:15:31  5-MIN KBKB 160115Z AUTO 00000KT 10SM CLR 23/17 A2997 260 66 1300 000/00 RMK AO2 T02330167 $
53988KBKB BKB20190515192011005/15/19 19:20:31  5-MIN KBKB 160120Z AUTO 00000KT 10SM CLR 23/17 A2997 250 66 1300 000/00 RMK AO2 T02330167 $
53988KBKB BKB20190515192011005/15/19 19:20:31  5-MIN KBKB 160120Z AUTO 00000KT 10SM CLR 23/17 A2997 250 68 1300 000/00 RMK AO2 T02280167 $
53988KBKB BKB20190515192511005/15/19 19:25:31  5-MIN KBKB 160125Z AUTO 00000KT 10SM CLR 23/17 A2997 250 66 1300 000/00 RMK AO2 T02330167 $
53988KBKB BKB20190515193012805/15/19 19:30:31  5-MIN KBKB 160130Z AUTO 00000KT 10SM CLR 23/17 A2997 25CLR 21/17 A3000 230 81 1000 000/00 RMK AO2 T02060172 $
53988KBKB BKB20190515194011005/15/19 19:40:31  5-MIN KBKB 160140Z AUTO 00000KT 10SM CLR 23/16 A2998 250 65 1200 000/00 RMK AO2 T02280161 $
53988KBKB BKB20190515194508905/15/19 19:45:31  5-MIN KBKB 160145Z AUTO 00000K8 240 65 1200 000/00 RMK AO2 T02280161 $
53988KBKB BKB20190515200011005/15/19 20:00:31  5-MIN KBKB 160200Z AUTO 00000KT 10SM CLR 22/17 A2998 240 70 1200 000/00 RMK AO2 T02220167 $
53988KBKB BKB20190515200511005/15/19 20:05:31  5-MIN KBKB 160205Z AUTO 00000KT 10SM CLR 22/17 A2998 240 70 1200 000/00 RMK AO2 T02220167 $
53988KBKB BKB20190515201011005/15/19 20:10:31  5-MIN KBKB 160210Z AUTO 00000KT 10SM CLR 22/17 A2998 240 73 1200 000/00 RMK AO2 T02220172 $
53988KBKB BKB20190515201511005/15/19 20:15:31  5-MIN KBKB 160215Z AUTO 00000KT 10SM CLR 22/17 A2998 240 73 1100 000/00 RMK AO2 T02170167 $
53988KBKB BKB20190515202011005/15/19 20:20:31  5-MIN KBKB 160220Z AUTO 00000KT 10SM CLR 22/17 A2998 240 73 1100 000/00 RMK AO2 T02170167 $
53988KBKB BKB20190515202511005/15/19 20:25:31  5-MIN KBKB 160225Z AUTO 00000KT 10SM CLR 22/17 A2999 240 73 1100 000/00 RMK AO2 T02170167 $
53988KBKB BKB20190515203017505/15/19 20:30:31  5-MIN KBKB 160230Z AUTO 00000KT 10SM CLR 22/17 A2999 2 20:55:31  5-MIN KBKB 160255Z AUTO 00000KT 10SM CLR 21/17 A3000 230 78 1000 000/00 RMK AO2 T02110172 $
53988KBKB BKB20190515210011005/15/19 21:00:31  5-MIN KBKB 160300Z AUTO 00000KT 10SM CLR 21/17 A3000 230 78 1000 000/00 RMK AO2 T02110172 $
53988KBKB BKB20190515210511005/15/19 21:05:31  5-MIN KBKB 160305Z AUTO 00000KT 10SM CLR 21/17 A3000 230 78 1000 000/00 RMK AO2 T02110172 $
53988KBKB BKB20190515211011005/15/19 21:10:31  5-MIN KBKB 160310Z AUTO 00000KT 10SM CLR 21/17 A3000 230 78 1000 000/00 RMK AO2 T02110172 $
53988KBKB BKB20190515211511005/15/19 21:15:31  5-MIN KBKB 160315Z AUTO 00000KT 10SM CLR 21/17 A3000 220 81 1000 000/00 RMK AO2 T02060172 $
53988KBKB BKB20190515212011005/15/19 21:20:31  5-MIN KBKB 160320Z AUTO 00000KT 10SM CLR 21/17 A3000 220 81 1000 000/00 RMK AO2 T02060172 $
53988KBKB BKB20190515212511005/15/19 21:25:31  5-MIN KBKB 160325Z AUTO 00000KT 10SM CLR 21/17 A3000 220 81 1000 000/00 RMK AO2 T02060172 $
53988KBKB BKB20190515212514205/15/19 21:25:31  5-MIN KBKB 160325Z AUTO 00000KT 10SM CLR 21/17 A3000 220 81 1000 000/00 RMK AO2 T02060172 $05/15/19 21:30:31  5-M02000172 $
53988KBKB BKB20190515213011005/15/19 21:30:31  5-MIN KBKB 160330Z AUTO 00000KT 10SM CLR 21/17 A3000 220 78 1000 000/00 RMK AO2 T02060167 $
53988KBKB BKB20190515213511005/15/19 21:35:31  5-MIN KBKB 160335Z AUTO 00000KT 10SM CLR 21/17 A3000 220 78 1000 000/00 RMK AO2 T02060167 $
53988KBKB BKB20190515214011005/15/19 21:40:31  5-MIN KBKB 160340Z AUTO 00000KT 10SM CLR 21/17 A3000 220 81 1000 000/00 RMK AO2 T02060172 $
53988KBKB BKB20190515214511005/15/19 21:45:31  5-MIN KBKB 160345Z AUTO 00000KT 10SM CLR 21/17 A3000 220 81 1000 000/00 RMK AO2 T02060172 $
53988KBKB BKB20190515215011605/15/19 21:50:31  5-MIN KBKB 160350Z AUTO 00000KT 10SM CLR 20/17 A3001 220 84 900 000/00 RMK AO2 SLP187 T02000172 $
53988KBKB BKB20190515215510905/15/19 21:55:31  5-MIN KBKB 160355Z AUTO 00000KT 10SM CLR 20/17 A3001 220 84 900 000/00 RMK AO2 T02000172 $
53988KBKB BKB20190515220010905/15/19 22:00:31  5-MIN KBKB 160400Z AUTO 00000KT 10SM CLR 20/17 A3001 220 84 900 000/00 RMK AO2 T02000172 $
53988KBKB BKB20190515220510905/15/19 22:05:31  5-MIN KBKB 160405Z AUTO 00000KT 10SM CLR 20/17 A3001 220 84 900 000/00 RMK AO2 T02000172 $
53988KBKB BKB20190515221010905/15/19 22:10:31  5-MIN KBKB 160410Z AUTO 00000KT 10SM CLR 20/17 A3001 220 84 900 000/00 RMK AO2 T02000172 $
53988KBKB BKB20190515221510905/15/19 22:15:31  5-MIN KBKB 160415Z AUTO 00000KT 10SM CLR 19/17 A3001 220 87 800 000/00 RMK AO2 T01940172 $
53988KBKB BKB20190515222008105/15/19 22:20:31  5-MIN KBKB 160420Z AUTO 00000KT 10SM000/00 RMK AO2 T01940178 $
53988KBKB BKB20190515222010905/15/19 22:20:31  5-MIN KBKB 160420Z AUTO 00000KT 10SM CLR 19/18 A3001 220 90 800 000/00 RMK AO2 T01940178 $
53988KBKB BKB20190515222510905/15/19 22:25:31  5-MIN KBKB 160425Z AUTO 00000KT 10SM CLR 19/18 A3001 220 90 800 000/00 RMK AO2 T01940178 $
53988KBKB BKB20190515223010905/15/19 22:30:31  5-MIN KBKB 160430Z AUTO 00000KT 10SM CLR 19/18 A3001 220 90 800 000/00 RMK AO2 T01940178 $
53988KBKB BKB20190515223510905/15/19 22:35:31  5-MIN KBKB 160435Z AUTO 00000KT 10SM CLR 19/18 A3001 210 90 800 000/00 RMK AO2 T01940178 $
53988KBKB BKB20190515224010905/15/19 22:40:31  5-MIN KBKB 160440Z AUTO 00000KT 10SM CLR 19/18 A3001 210 90 800 000/00 RMK AO2 T01940178 $
53988KBKB BKB20190515224510905/15/19 22:45:31  5-MIN KBKB 160445Z AUTO 00000KT 10SM CLR 19/18 A3001 210 93 800 000/00 RMK AO2 T01890178 $
53988KBKB BKB20190515224514305/15/19 22:45:31  5-MIN KBKB 160445Z AUTO 00000KT 10SM CLR 19/18 A3001 210 93 800 000/00 RMK AO2 T01890178 $ 93 700 000/00 RMK AO2 T01830172 $
53988KBKB BKB20190515225011605/15/19 22:50:31  5-MIN KBKB 160450Z AUTO 00000KT 10SM CLR 19/17 A3001 220 90 800 000/00 RMK AO2 SLP188 T01890172 $
53988KBKB BKB20190515225510905/15/19 22:55:31  5-MIN KBKB 160455Z AUTO 00000KT 10SM CLR 19/18 A3001 210 93 800 000/00 RMK AO2 T01890178 $
53988KBKB BKB20190515230010905/15/19 23:00:31  5-MIN KBKB 160500Z AUTO 00000KT 10SM CLR 19/17 A3001 210 90 800 000/00 RMK AO2 T01890172 $
53988KBKB BKB20190515230510905/15/19 23:05:31  5-MIN KBKB 160505Z AUTO 00000KT 10SM CLR 20/17 A3001 210 84 900 000/00 RMK AO2 T02000172 $
53988KBKB BKB20190515231010905/15/19 23:10:31  5-MIN KBKB 160510Z AUTO 00000KT 10SM CLR 19/17 A3001 210 90 800 000/00 RMK AO2 T01890172 $
53988KBKB BKB20190515231510905/15/19 23:15:31  5-MIN KBKB 160515Z AUTO 00000KT 10SM CLR 19/17 A3001 210 90 800 000/00 RMK AO2 T01890172 $
53988KBKB BKB20190515232010905/15/19 23:20:31  5-MIN KBKB 160520Z AUTO 00000KT 10SM CLR 19/17 A3001 210 90 800 000/00 RMK AO2 T01890172 $
53988KBKB BKB20190515232510905/15/19 23:25:31  5-MIN KBKB 160525Z AUTO 00000KT 10SM CLR 18/18 A3001 210 96 700 000/00 RMK AO2 T01830178 $
53988KBKB BKB20190515233010905/15/19 23:30:31  5-MIN KBKB 160530Z AUTO 00000KT 10SM CLR 18/17 A3002 210 93 700 000/00 RMK AO2 T01830172 $
53988KBKB BKB20190515233510905/15/19 23:35:31  5-MIN KBKB 160535Z AUTO 00000KT 10SM CLR 18/17 A3002 210 93 700 000/00 RMK AO2 T01830172 $
53988KBKB BKB20190515234010905/15/19 23:40:31  5-MIN KBKB 160540Z AUTO 00000KT 10SM CLR 18/17 A3002 210 93 700 000/00 RMK AO2 T01830172 $
53988KBKB BKB20190515234510905/15/19 23:45:31  5-MIN KBKB 160545Z AUTO 00000KT 10SM CLR 18/17 A3002 210 93 700 000/00 RMK AO2 T01830172 $
53988KBKB BKB20190515235013805/15/19 23:50:31  5-MIN KBKB 160550Z AUTO 00000KT 10SM CLR 18/17 A3001 210 93 700 000/00 RMK AO2 SLP190 T01830172 10278 20183 403170150 $
53988KBKB BKB20190515235510905/15/19 23:55:31  5-MIN KBKB 160555Z AUTO 00000KT 10SM CLR 18/17 A3001 210 93 700 000/00 RMK AO2 T01830172 $
53988KBKB BKB20190516000010905/16/19 00:00:31  5-MIN KBKB 160600Z AUTO 00000KT 10SM CLR 18/17 A3001 210 93 700 000/00 RMK AO2 T01830172 $
53988KBKB BKB20190516000510905/16/19 00:05:31  5-MIN KBKB 160605Z AUTO 00000KT 10SM CLR 18/17 A3001 210 93 700 000/00 RMK AO2 T01830172 $
53988KBKB BKB20190516001010905/16/19 00:10:31  5-MIN KBKB 160610Z AUTO 00000KT 10SM CLR 19/17 A3001 220 90 800 000/00 RMK AO2 T01890172 $
53988KBKB BKB20190516001510905/16/19 00:15:31  5-MIN KBKB 160615Z AUTO 00000KT 10SM CLR 19/17 A3001 220 90 800 000/00 RMK AO2 T01890172 $
53988KBKB BKB20190516002010905/16/19 00:20:31  5-MIN KBKB 160620Z AUTO 00000KT 10SM CLR 18/17 A3001 220 93 700 000/00 RMK AO2 T01830172 $
53988KBKB BKB20190516002510905/16/19 00:25:31  5-MIN KBKB 160625Z AUTO 00000KT 10SM CLR 18/17 A3000 220 93 700 000/00 RMK AO2 T01830172 $
53988KBKB BKB20190516003010905/16/19 00:30:31  5-MIN KBKB 160630Z AUTO 00000KT 10SM CLR 18/17 A3000 220 93 700 000/00 RMK AO2 T01830172 $
53988KBKB BKB20190516003510905/16/19 00:35:31  5-MIN KBKB 160635Z AUTO 00000KT 10SM CLR 18/17 A3000 220 93 700 000/00 RMK AO2 T01830172 $
53988KBKB BKB20190516004010905/16/19 00:40:31  5-MIN KBKB 160640Z AUTO 00000KT 10SM CLR 18/17 A3000 230 93 700 000/00 RMK AO2 T01830172 $
53988KBKB BKB20190516004510905/16/19 00:45:31  5-MIN KBKB 160645Z AUTO 00000KT 10SM CLR 18/17 A3000 230 93 700 000/00 RMK AO2 T01830172 $
53988KBKB BKB20190516005011605/16/19 00:50:31  5-MIN KBKB 160650Z AUTO 00000KT 10SM CLR 18/17 A3000 230 93 700 000/00 RMK AO2 SLP184 T01830172 $
53988KBKB BKB20190516005510905/16/19 00:55:31  5-MIN KBKB 160655Z AUTO 00000KT 10SM CLR 18/17 A3000 230 93 700 000/00 RMK AO2 T01830172 $
53988KBKB BKB20190516010010905/16/19 01:00:31  5-MIN KBKB 160700Z AUTO 00000KT 10SM CLR 18/17 A3000 230 93 700 000/00 RMK AO2 T01830172 $
53988KBKB BKB20190516010510905/16/19 01:05:31  5-MIN KBKB 160705Z AUTO 00000KT 10SM CLR 18/17 A3000 220 93 700 000/00 RMK AO2 T01830172 $
53988KBKB BKB20190516011010905/16/19 01:10:31  5-MIN KBKB 160710Z AUTO 00000KT 10SM CLR 18/17 A3000 220 93 700 000/00 RMK AO2 T01830172 $
53988KBKB BKB20190516011510905/16/19 01:15:31  5-MIN KBKB 160715Z AUTO 00000KT 10SM CLR 18/17 A3000 230 93 700 000/00 RMK AO2 T01830172 $
53988KBKB BKB20190516012010905/16/19 01:20:31  5-MIN KBKB 160720Z AUTO 00000KT 10SM CLR 18/17 A3000 230 93 700 000/00 RMK AO2 T01830172 $
53988KBKB BKB20190516012510905/16/19 01:25:31  5-MIN KBKB 160725Z AUTO 00000KT 10SM CLR 18/17 A3000 230 93 700 000/00 RMK AO2 T01830172 $
53988KBKB BKB20190516013010905/16/19 01:30:31  5-MIN KBKB 160730Z AUTO 00000KT 10SM CLR 18/17 A3000 230 93 700 000/00 RMK AO2 T01830172 $
53988KBKB BKB20190516013510905/16/19 01:35:31  5-MIN KBKB 160735Z AUTO 00000KT 10SM CLR 18/17 A3000 230 93 700 000/00 RMK AO2 T01830172 $
53988KBKB BKB20190516014010905/16/19 01:40:31  5-MIN KBKB 160740Z AUTO 00000KT 10SM CLR 18/17 A2999 230 93 700 000/00 RMK AO2 T01830172 $
53988KBKB BKB20190516014510905/16/19 01:45:31  5-MIN KBKB 160745Z AUTO 00000KT 10SM CLR 18/17 A2999 230 93 700 000/00 RMK AO2 T01830172 $
53988KBKB BKB20190516015011605/16/19 01:50:31  5-MIN KBKB 160750Z AUTO 00000KT 10SM CLR 18/17 A2999 230 93 700 000/00 RMK AO2 SLP183 T01830172 $
53988KBKB BKB20190516015510905/16/19 01:55:31  5-MIN KBKB 160755Z AUTO 00000KT 10SM CLR 18/17 A2999 230 93 700 000/00 RMK AO2 T01830172 $
53988KBKB BKB20190516020010905/16/19 02:00:31  5-MIN KBKB 160800Z AUTO 00000KT 10SM CLR 18/17 A3000 230 93 700 000/00 RMK AO2 T01830172 $
53988KBKB BKB20190516020510905/16/19 02:05:31  5-MIN KBKB 160805Z AUTO 00000KT 10SM CLR 18/17 A3000 230 96 600 000/00 RMK AO2 T01780172 $
53988KBKB BKB20190516021010905/16/19 02:10:31  5-MIN KBKB 160810Z AUTO 00000KT 10SM CLR 18/17 A3000 230 96 600 000/00 RMK AO2 T01780172 $
53988KBKB BKB20190516021510905/16/19 02:15:31  5-MIN KBKB 160815Z AUTO 00000KT 10SM CLR 18/17 A2999 230 96 600 000/00 RMK AO2 T01780172 $
53988KBKB BKB20190516022010805/16/19 02:20:31  5-MIN KBKB 160820Z AUTO 00000KT 9SM CLR 18/17 A3000 230 96 600 000/00 RMK AO2 T01780172 $
53988KBKB BKB20190516022510805/16/19 02:25:31  5-MIN KBKB 160825Z AUTO 00000KT 9SM CLR 18/17 A3000 230 96 600 000/00 RMK AO2 T01780172 $
53988KBKB BKB20190516023010905/16/19 02:30:31  5-MIN KBKB 160830Z AUTO 00000KT 10SM CLR 18/17 A3000 230 96 600 000/00 RMK AO2 T01780172 $
53988KBKB BKB20190516023011705/16/19 02:30:31  5-MIN KBKB 160830Z AUTO 00000KT 10SM CLR 18/17 A3000 230 96 600 000/00 RMK0/00 RMK AO2 T01720172 $
53988KBKB BKB20190516023510905/16/19 02:35:31  5-MIN KBKB 160835Z AUTO 00000KT 10SM CLR 18/17 A3000 230 96 600 000/00 RMK AO2 T01780172 $
53988KBKB BKB20190516024010805/16/19 02:40:31  5-MIN KBKB 160840Z AUTO 00000KT 9SM CLR 18/17 A3000 230 96 600 000/00 RMK AO2 T01780172 $
53988KBKB BKB20190516024510805/16/19 02:45:31  5-MIN KBKB 160845Z AUTO 00000KT 9SM CLR 18/17 A3000 230 96 600 000/00 RMK AO2 T01780172 $
53988KBKB BKB20190516025012105/16/19 02:50:31  5-MIN KBKB 160850Z AUTO 00000KT 9SM CLR 18/17 A3000 230 96 600 000/00 RMK AO2 SLP185 T01780172 51006 $
53988KBKB BKB20190516025510805/16/19 02:55:31  5-MIN KBKB 160855Z AUTO 00000KT 9SM CLR 18/17 A3000 230 96 600 000/00 RMK AO2 T01780172 $
53988KBKB BKB20190516030014805/16/19 03:00:31  5-MIN KBKB 160900Z AUTO 00000KT 8SM CLR 18/17 A3000 230 96 60UTO 00000KT 4SM BR 17/17 A3001 220 96 600 000/00 RMK AO2 T01720167 $
53988KBKB BKB20190516030510805/16/19 03:05:31  5-MIN KBKB 160905Z AUTO 00000KT 8SM CLR 18/17 A3000 230 96 600 000/00 RMK AO2 T01780172 $
53988KBKB BKB20190516031010805/16/19 03:10:31  5-MIN KBKB 160910Z AUTO 00000KT 8SM CLR 18/17 A3000 230 96 600 000/00 RMK AO2 T01780172 $
53988KBKB BKB20190516031510805/16/19 03:15:31  5-MIN KBKB 160915Z AUTO 00000KT 8SM CLR 18/17 A2999 230 96 600 000/00 RMK AO2 T01780172 $
53988KBKB BKB20190516032010805/16/19 03:20:31  5-MIN KBKB 160920Z AUTO 00000KT 7SM CLR 18/17 A2999 230 96 700 000/00 RMK AO2 T01780172 $
53988KBKB BKB20190516032510805/16/19 03:25:31  5-MIN KBKB 160925Z AUTO 00000KT 7SM CLR 18/17 A2999 230 96 700 000/00 RMK AO2 T01780172 $
53988KBKB BKB20190516033010805/16/19 03:30:31  5-MIN KBKB 160930Z AUTO 00000KT 7SM CLR 18/17 A2999 230 96 700 000/00 RMK AO2 T01780172 $
53988KBKB BKB20190516033511105/16/19 03:35:31  5-MIN KBKB 160935Z AUTO 00000KT 6SM BR CLR 18/17 A2999 230 96 600 000/00 RMK AO2 T01780172 $
53988KBKB BKB20190516034011105/16/19 03:40:31  5-MIN KBKB 160940Z AUTO 00000KT 5SM BR CLR 18/17 A3000 230 96 600 000/00 RMK AO2 T01780172 $
53988KBKB BKB20190516034517305/16/19 03:45:31  5-MIN KBKB 160945Z AUTO 00000KT 6SM BR CLR 18/17 A3000 230 96 600 000/00 RMK AO2 T01780172 $05/LR 18/17 A2999 230 96 600 000/00 RMK AO2 SLP183 T01780172 $
53988KBKB BKB20190516035511105/16/19 03:55:31  5-MIN KBKB 160955Z AUTO 00000KT 5SM BR CLR 18/17 A2999 230 96 700 000/00 RMK AO2 T01780172 $
53988KBKB BKB20190516040011205/16/19 04:00:31  5-MIN KBKB 161000Z AUTO 00000KT 5SM BR CLR 17/17 A2999 230 100 600 000/00 RMK AO2 T01720172 $
53988KBKB BKB20190516040511205/16/19 04:05:31  5-MIN KBKB 161005Z AUTO 00000KT 5SM BR CLR 17/17 A2999 230 100 600 000/00 RMK AO2 T01720172 $
53988KBKB BKB20190516041011205/16/19 04:10:31  5-MIN KBKB 161010Z AUTO 00000KT 5SM BR CLR 17/17 A3000 230 100 600 000/00 RMK AO2 T01720172 $
53988KBKB BKB20190516041511105/16/19 04:15:31  5-MIN KBKB 161015Z AUTO 00000KT 4SM BR CLR 17/17 A3000 230 96 600 000/00 RMK AO2 T01720167 $
53988KBKB BKB20190516042011105/16/19 04:20:31  5-MIN KBKB 161020Z AUTO 00000KT 4SM BR CLR 17/17 A3000 230 96 600 000/00 RMK AO2 T01720167 $
53988KBKB BKB20190516042510905/16/19 04:25:31  5-MIN KBKB 161025Z AUTO 00000KT 4SM BR CLR 17/17 A3000 220 96 600 000/00 RMK AO2 T01720167
53988KBKB BKB20190516043007305/16/19 04:30:31  5-MIN KBKB 161030Z AUTO 00000KT M M M 000/00 RMK AO2 $
53988KBKB BKB20190516043510005/16/19 04:35:31  5-MIN KBKB 161035Z AUTO 00000KT 17/17 A3000 220 96 600 000/00 RMK AO2 T01720167 $
53988KBKB BKB20190516044010705/16/19 04:40:31  5-MIN KBKB 161040Z AUTO 00000KT 3SM BR 17/17 A3000 220 96 600 000/00 RMK AO2 T01720167 $
53988KBKB BKB20190516044510705/16/19 04:45:31  5-MIN KBKB 161045Z AUTO 00000KT 4SM BR 17/17 A3001 220 96 600 000/00 RMK AO2 T01720167 $
53988KBKB BKB20190516045011405/16/19 04:50:31  5-MIN KBKB 161050Z AUTO 00000KT 4SM BR 17/17 A3001 220 96 600 000/00 RMK AO2 SLP188 T01720167 $
53988KBKB BKB20190516045510705/16/19 04:55:31  5-MIN KBKB 161055Z AUTO 00000KT 4SM BR 17/17 A3001 220 96 600 000/00 RMK AO2 T01720167 $
53988KBKB BKB20190516045511005/16/19 04:55:31  5-MIN KBKB 161055Z AUTO 00000KT 4SM BR 17/17 A3001 220 210 100 500 000/00 RMK AO2 T01670167
53988KBKB BKB20190516050011105/16/19 05:00:31  5-MIN KBKB 161100Z AUTO 00000KT 4SM BR CLR 17/17 A3001 220 96 600 000/00 RMK AO2 T01720167 $
53988KBKB BKB20190516050511005/16/19 05:05:31  5-MIN KBKB 161105Z AUTO 00000KT 4SM BR CLR 17/17 A3001 210 100 500 000/00 RMK AO2 T01670167
53988KBKB BKB20190516051011005/16/19 05:10:31  5-MIN KBKB 161110Z AUTO 00000KT 4SM BR CLR 17/17 A3001 210 100 500 000/00 RMK AO2 T01670167
53988KBKB BKB20190516051511005/16/19 05:15:31  5-MIN KBKB 161115Z AUTO 00000KT 3SM BR CLR 17/17 A3002 210 100 500 000/00 RMK AO2 T01670167
53988KBKB BKB20190516052011005/16/19 05:20:31  5-MIN KBKB 161120Z AUTO 00000KT 3SM BR CLR 17/17 A3002 210 100 500 000/00 RMK AO2 T01670167
53988KBKB BKB20190516052510605/16/19 05:25:31  5-MIN KBKB 161125Z AUTO 00000KT 2 1/2SM BR CLR 17/17 0 100 600 000/00 RMK AO2 T01780178
53988KBKB BKB20190516052511405/16/19 05:25:31  5-MIN KBKB 161125Z AUTO 00000KT 2 1/2SM BR CLR 17/17 A3002 210 100 500 000/00 RMK AO2 T01670167
53988KBKB BKB20190516053011005/16/19 05:30:31  5-MIN KBKB 161130Z AUTO 00000KT 3SM BR CLR 17/17 A3002 210 100 500 000/00 RMK AO2 T01670167
53988KBKB BKB20190516053511005/16/19 05:35:31  5-MIN KBKB 161135Z AUTO 00000KT 3SM BR CLR 17/17 A3002 200 100 500 000/00 RMK AO2 T01670167
53988KBKB BKB20190516054011005/16/19 05:40:31  5-MIN KBKB 161140Z AUTO 00000KT 3SM BR CLR 17/17 A3002 200 100 500 000/00 RMK AO2 T01670167
53988KBKB BKB20190516054511005/16/19 05:45:31  5-MIN KBKB 161145Z AUTO 00000KT 3SM BR CLR 17/17 A3003 200 100 500 000/00 RMK AO2 T01670167
53988KBKB BKB20190516062510905/16/19 06:25:31  5-MIN KBKB 161225Z AUTO 00000KT 5SM BR CLR 18/18 A3004 190 96 700 000/00 RMK AO2 T01830178
53988KBKB BKB20190516063010905/16/19 06:30:31  5-MIN KBKB 161230Z AUTO 00000KT 6SM BR CLR 18/18 A3004 190 96 700 000/00 RMK AO2 T01830178
53988KBKB BKB20190516063510605/16/19 06:35:31  5-MIN KBKB 161235Z AUTO 00000KT 8SM CLR 19/18 A3004 190 97 700 000/00 RMK AO2 T01890183
53988KBKB BKB20190516104011105/16/19 10:40:31  5-MIN KBKB 161640Z AUTO VRB03KT 10SM SCT041 28/18 A3004 190 54 1800 VRB/03 RMK AO2 T02830183
53988KBKB BKB20190516104511105/16/19 10:45:31  5-MIN KBKB 161645Z AUTO VRB04KT 10SM SCT041 29/19 A3004 190 54 1900 VRB/04 RMK AO2 T02890189
53988KBKB BKB20190516105012505/16/19 10:50:31  5-MIN KBKB 161650Z AUTO 00000KT 10SM SCT041 BKN049 28/18 A3004 190 56 1700 000/00 RMK AO2 SLP197 T02780183
53988KBKB BKB20190516105511105/16/19 10:55:31  5-MIN KBKB 161655Z AUTO VRB03KT 10SM BKN042 28/18 A3003 190 54 1800 VRB/03 RMK AO2 T02830183
53988KBKB BKB20190516110011105/16/19 11:00:31  5-MIN KBKB 161700Z AUTO 19003KT 10SM BKN044 28/18 A3003 200 54 1800 180/03 RMK AO2 T02830183
53988KBKB BKB20190516110511105/16/19 11:05:31  5-MIN KBKB 161705Z AUTO 22004KT 10SM BKN044 29/19 A3003 200 52 1900 220/04 RMK AO2 T02940189
53988KBKB BKB20190516111011105/16/19 11:10:31  5-MIN KBKB 161710Z AUTO 00000KT 10SM BKN046 29/18 A3003 200 52 1900 000/00 RMK AO2 T02890183
53988KBKB BKB20190516111511805/16/19 11:15:31  5-MIN KBKB 161715Z AUTO VRB05KT 10SM BKN044 BKN050 29/18 A3003 200 50 1900 VRB/05 RMK AO2 T02940183
53988KBKB BKB20190516112011805/16/19 11:20:31  5-MIN KBKB 161720Z AUTO VRB03KT 10SM BKN044 BKN050 29/19 A3003 200 54 1900 VRB/03 RMK AO2 T02890189
53988KBKB BKB20190516112511805/16/19 11:25:31  5-MIN KBKB 161725Z AUTO 00000KT 10SM SCT046 SCT055 31/19 A3002 200 49 2100 000/00 RMK AO2 T03060189
53988KBKB BKB20190516113011105/16/19 11:30:31  5-MIN KBKB 161730Z AUTO VRB05KT 10SM SCT046 30/19 A3002 200 51 2000 VRB/05 RMK AO2 T03000189
53988KBKB BKB20190516113511105/16/19 11:35:31  5-MIN KBKB 161735Z AUTO VRB04KT 10SM SCT048 29/18 A3002 200 52 1900 VRB/04 RMK AO2 T02890183
53988KBKB BKB20190516114011105/16/19 11:40:31  5-MIN KBKB 161740Z AUTO VRB03KT 10SM SCT048 29/18 A3002 210 52 1900 VRB/03 RMK AO2 T02890183
53988KBKB BKB20190516114511805/16/19 11:45:31  5-MIN KBKB 161745Z AUTO VRB04KT 10SM FEW048 SCT075 29/18 A3002 210 52 1900 VRB/04 RMK AO2 T02890183
53988KBKB BKB20190516115012605/16/19 11:50:31  5-MIN KBKB 161750Z AUTO 10SM FEW048 30/18 A3002 210 49 2000 M /M RMK AO2 SLP191 T03000183 10306 20167 51007
53988KBKB BKB20190516115511105/16/19 11:55:31  5-MIN KBKB 161755Z AUTO VRB03KT 10SM FEW048 31/18 A3002 210 47 2100 VRB/03 RMK AO2 T03060183
53988KBKB BKB20190516120011105/16/19 12:00:31  5-MIN KBKB 161800Z AUTO VRB03KT 10SM FEW047 30/18 A3002 210 47 2000 VRB/03 RMK AO2 T03000178
53988KBKB BKB20190516120511105/16/19 12:05:31  5-MIN KBKB 161805Z AUTO VRB04KT 10SM FEW047 30/17 A3002 210 45 2000 VRB/04 RMK AO2 T03000172
53988KBKB BKB20190516121011105/16/19 12:10:31  5-MIN KBKB 161810Z AUTO VRB05KT 10SM FEW049 30/18 A3001 210 47 2000 VRB/05 RMK AO2 T03000178
53988KBKB BKB20190516121513005/16/19 12:15:31  5-MIN KBKB 161815Z AUTO VRB04KT 10SM FEW049 FEW070 29/17 A3001 210 47 2000 VRB/04 RMK AO2M /M RMK AO2 T03060178
53988KBKB BKB20190516132511805/16/19 13:25:31  5-MIN KBKB 161925Z AUTO VRB04KT 10SM FEW050 FEW085 31/17 A2999 230 42 2100 VRB/04 RMK AO2 T03060167
53988KBKB BKB20190516133011805/16/19 13:30:31  5-MIN KBKB 161930Z AUTO 14005KT 10SM SCT050 SCT080 29/17 A2999 230 48 1900 140/05 RMK AO2 T02890172
53988KBKB BKB20190516133512505/16/19 13:35:31  5-MIN KBKB 161935Z AUTO 13005KT 10SM SCT050 BKN075 BKN085 28/17 A2999 230 50 1900 130/05 RMK AO2 T02830172
53988KBKB BKB20190516134012505/16/19 13:40:31  5-MIN KBKB 161940Z AUTO 00000KT 10SM FEW050 BKN080 BKN100 28/18 A2999 230 52 1900 000/00 RMK AO2 T02830178
53988KBKB BKB20190516134512505/16/19 13:45:31  5-MIN KBKB 161945Z AUTO 00000KT 10SM FEW055 FEW075 SCT095 28/18 A2999 230 52 1900 000/00 RMK AO2 T02830178
53988KBKB BKB20190516135020905/16/19 13:50:31  5-MIN KBKB 161950Z AUTO VRB04KT 10SM FEW055 FEW075 SCT090 31/18 A2999 240 46 2100 VRB/04 RMK AO2 SLP181 T025Z AUTO VRB05KT 10SM SCT055 BKN075 31/18 A2997 250 46 2100 VRB/05 RMK AO2 T03060178
53988KBKB BKB20190516140511805/16/19 14:05:31  5-MIN KBKB 162005Z AUTO VRB03KT 10SM FEW055 SCT090 31/17 A2998 240 42 2200 VRB/03 RMK AO2 T03110172
53988KBKB BKB20190516141011105/16/19 14:10:31  5-MIN KBKB 162010Z AUTO VRB05KT 10SM SCT055 31/18 A2998 240 44 2200 VRB/05 RMK AO2 T03110178
53988KBKB BKB20190516141511105/16/19 14:15:31  5-MIN KBKB 162015Z AUTO VRB06KT 10SM BKN055 30/18 A2998 240 47 2100 VRB/06 RMK AO2 T03000178
53988KBKB BKB20190516142011805/16/19 14:20:31  5-MIN KBKB 162020Z AUTO 00000KT 10SM BKN055 BKN075 29/18 A2998 250 49 2000 000/00 RMK AO2 T02940178
53988KBKB BKB20190516142511805/16/19 14:25:31  5-MIN KBKB 162025Z AUTO VRB05KT 10SM SCT055 BKN075 31/18 A2997 250 46 2100 VRB/05 RMK AO2 T03060178
53988KBKB BKB20190516143011105/16/19 14:30:31  5-MIN KBKB 162030Z AUTO 00000KT 10SM SCT055 31/18 A2997 250 44 2200 000/00 RMK AO2 T03110178
53988KBKB BKB20190516143511805/16/19 14:35:31  5-MIN KBKB 162035Z AUTO VRB04KT 10SM BKN055 BKN070 31/17 A2997 250 44 2100 VRB/04 RMK AO2 T03060172
53988KBKB BKB20190516144007405/16/19 14:40:31  5-MIN KBKB 162040Z AUTO VRB03KT 10SM BKN055 31/13060183
53988KBKB BKB20190516144011105/16/19 14:40:31  5-MIN KBKB 162040Z AUTO VRB03KT 10SM BKN055 31/17 A2997 250 44 2100 VRB/03 RMK AO2 T03060172
53988KBKB BKB20190516144511105/16/19 14:45:31  5-MIN KBKB 162045Z AUTO 12005KT 10SM BKN055 31/17 A2997 250 44 2100 120/05 RMK AO2 T03060172
53988KBKB BKB20190516145012405/16/19 14:50:31  5-MIN KBKB 162050Z AUTO VRB04KT 10SM BKN055 29/17 A2997 260 48 1900 VRB/04 RMK AO2 SLP173 T02890172 58011
53988KBKB BKB20190516145511105/16/19 14:55:31  5-MIN KBKB 162055Z AUTO VRB03KT 10SM BKN055 31/18 A2996 260 46 2100 VRB/03 RMK AO2 T03060178
53988KBKB BKB20190516150011105/16/19 15:00:31  5-MIN KBKB 162100Z AUTO VRB05KT 10SM SCT055 31/18 A2996 260 47 2100 VRB/05 RMK AO2 T03060183
53988KBKB BKB20190516150511105/16/19 15:05:31  5-MIN KBKB 162105Z AUTO VRB04KT 10SM FEW055 31/18 A2996 260 46 2200 VRB/04 RMK AO2 T03110183
53988KBKB BKB20190516151011105/16/19 15:10:31  5-MIN KBKB 162110Z AUTO VRB03KT 10SM FEW050 30/18 A2996 260 47 2100 VRB/03 RMK AO2 T03000178
53988KBKB BKB20190516151511105/16/19 15:15:31  5-MIN KBKB 162115Z AUTO VRB04KT 10SM FEW055 29/18 A2996 260 49 2000 VRB/04 RMK AO2 T02940178
53988KBKB BKB20190516152010805/16/19 15:20:31  5-MIN KBKB 162120Z AUTO VRB03KT 10SM CLR 30/18 A2996 270 47 2100 VRB/03 RMK AO2 T03000178
53988KBKB BKB20190516152509805/16/19 15:25:31  5-MIN KBKB 162125Z AUTO 10SM CLR 31/18 A2995 270 46 2100 M /M RMK AO2 T03060178
53988KBKB BKB20190516153016105/16/19 15:30:31  5-MIN KBKB 162130Z AUTO 22004KT 10SM CLR 31/17 A2995 270 44 2200 210/04 RMK AO2 T0306017205/1 31/18 A2995 270 46 2200 VRB/04 RMK AO2 T03060178
53988KBKB BKB20190516154510105/16/19 15:45:31  5-MIN KBKB 162145Z AUTO 10SM SCT050 31/17 A2995 270 44 2200 M /M RMK AO2 T03060172
53988KBKB BKB20190516155011805/16/19 15:50:31  5-MIN KBKB 162150Z AUTO VRB05KT 10SM SCT050 31/18 A2995 280 46 2200 VRB/05 RMK AO2 SLP166 T03060178
53988KBKB BKB20190516155511105/16/19 15:55:31  5-MIN KBKB 162155Z AUTO VRB04KT 10SM SCT050 31/18 A2995 270 46 2200 VRB/04 RMK AO2 T03060178
53988KBKB BKB20190516160011105/16/19 16:00:31  5-MIN KBKB 162200Z AUTO VRB04KT 10SM FEW050 31/18 A2995 270 46 2200 VRB/04 RMK AO2 T03060178
53988KBKB BKB20190516160511105/16/19 16:05:31  5-MIN KBKB 162205Z AUTO VRB03KT 10SM FEW050 29/17 A2995 270 47 2000 VRB/03 RMK AO2 T02940172
53988KBKB BKB20190516161011105/16/19 16:10:31  5-MIN KBKB 162210Z AUTO 17005KT 10SM FEW050 29/17 A2995 270 47 2000 160/05 RMK AO2 T02940172
53988KBKB BKB20190516161018905/16/19 16:10:31  5-MIN KBKB 162210Z AUTO 17005KT 10SM FEW050 29/17 A2995 270 47 2000 160/05 RMK AO2 T0294BKB 162355Z AUTO VRB03KT 10SM CLR 27/18 A2994 280 56 1800 VRB/03 RMK AO2 T02720178
53988KBKB BKB20190516161510805/16/19 16:15:31  5-MIN KBKB 162215Z AUTO VRB05KT 10SM CLR 29/17 A2995 270 47 2000 VRB/05 RMK AO2 T02940172
53988KBKB BKB20190516162010805/16/19 16:20:31  5-MIN KBKB 162220Z AUTO VRB03KT 10SM CLR 29/17 A2995 270 47 2000 VRB/03 RMK AO2 T02940172
53988KBKB BKB20190516162510805/16/19 16:25:31  5-MIN KBKB 162225Z AUTO VRB03KT 10SM CLR 30/17 A2995 270 45 2100 VRB/03 RMK AO2 T03000172
53988KBKB BKB20190516163010805/16/19 16:30:31  5-MIN KBKB 162230Z AUTO VRB06KT 10SM CLR 30/17 A2995 270 45 2100 VRB/06 RMK AO2 T03000172
53988KBKB BKB20190516163510805/16/19 16:35:31  5-MIN KBKB 162235Z AUTO 22005KT 10SM CLR 29/18 A2995 270 49 2000 220/05 RMK AO2 T02940178
53988KBKB BKB20190516164010805/16/19 16:40:31  5-MIN KBKB 162240Z AUTO VRB03KT 10SM CLR 29/18 A2995 280 50 2000 VRB/03 RMK AO2 T02940183
53988KBKB BKB20190516164510805/16/19 16:45:31  5-MIN KBKB 162245Z AUTO VRB03KT 10SM CLR 29/18 A2994 280 52 2000 VRB/03 RMK AO2 T02890183
53988KBKB BKB20190516165011505/16/19 16:50:31  5-MIN KBKB 162250Z AUTO 00000KT 10SM CLR 28/19 A2994 280 56 1900 000/00 RMK AO2 SLP166 T02830189
53988KBKB BKB20190516165510805/16/19 16:55:31  5-MIN KBKB 162255Z AUTO VRB03KT 10SM CLR 28/19 A2994 280 56 1900 VRB/03 RMK AO2 T02830189
53988KBKB BKB20190516170010805/16/19 17:00:31  5-MIN KBKB 162300Z AUTO VRB03KT 10SM CLR 29/18 A2994 280 52 2000 VRB/03 RMK AO2 T02890183
53988KBKB BKB20190516170510805/16/19 17:05:31  5-MIN KBKB 162305Z AUTO VRB03KT 10SM CLR 29/18 A2994 280 50 2000 VRB/03 RMK AO2 T02890178
53988KBKB BKB20190516171010805/16/19 17:10:31  5-MIN KBKB 162310Z AUTO VRB03KT 10SM CLR 29/18 A2994 280 50 2000 VRB/03 RMK AO2 T02890178
53988KBKB BKB20190516171510805/16/19 17:15:31  5-MIN KBKB 162315Z AUTO VRB03KT 10SM CLR 29/17 A2994 280 48 2000 VRB/03 RMK AO2 T02890172
53988KBKB BKB20190516172010805/16/19 17:20:31  5-MIN KBKB 162320Z AUTO VRB04KT 10SM CLR 29/18 A2994 280 50 2000 VRB/04 RMK AO2 T02890178
53988KBKB BKB20190516172510805/16/19 17:25:31  5-MIN KBKB 162325Z AUTO VRB04KT 10SM CLR 29/18 A2994 280 50 2000 VRB/04 RMK AO2 T02890178
53988KBKB BKB20190516173010805/16/19 17:30:31  5-MIN KBKB 162330Z AUTO VRB04KT 10SM CLR 29/18 A2994 280 50 2000 VRB/04 RMK AO2 T02890178
53988KBKB BKB20190516173510805/16/19 17:35:31  5-MIN KBKB 162335Z AUTO VRB03KT 10SM CLR 28/18 A2994 280 52 1900 VRB/03 RMK AO2 T02830178
53988KBKB BKB20190516174010805/16/19 17:40:31  5-MIN KBKB 162340Z AUTO 00000KT 10SM CLR 29/18 A2994 280 50 2000 000/00 RMK AO2 T02890178
53988KBKB BKB20190516174513805/16/19 17:45:31  5-MIN KBKB 162345Z AUTO 00000KT 10SM CLR 28/18 A2994 280 54 1900 000/00 RMK AO2 T02780 68 1500 000/00 RMK AO2 T02440183
53988KBKB BKB20190516180010805/16/19 18:00:31  5-MIN KBKB 170000Z AUTO 00000KT 10SM CLR 27/18 A2994 280 56 1800 000/00 RMK AO2 T02720178
53988KBKB BKB20190516180510805/16/19 18:05:31  5-MIN KBKB 170005Z AUTO 20003KT 10SM CLR 27/18 A2994 280 56 1800 200/03 RMK AO2 T02720178
53988KBKB BKB20190516181011005/16/19 18:10:31  5-MIN KBKB 170010Z AUTO 00000KT 10SM CLR 27/18 A2994 280 56 1800 0 000/00 RMK AO2 T02060183
53988KBKB BKB20190516191010805/16/19 19:10:31  5-MIN KBKB 170110Z AUTO 00000KT 10SM CLR 24/18 A2994 280 71 1400 000/00 RMK AO2 T02390183
53988KBKB BKB20190516191510805/16/19 19:15:31  5-MIN KBKB 170115Z AUTO 00000KT 10SM CLR 23/18 A2994 280 73 1400 000/00 RMK AO2 T02330183
53988KBKB BKB20190516192010805/16/19 19:20:31  5-MIN KBKB 170120Z AUTO 00000KT 10SM CLR 24/19 A2994 280 73 1400 000/00 RMK AO2 T02390189
53988KBKB BKB20190516195011505/16/19 19:50:31  5-MIN KBKB 170150Z AUTO 00000KT 10SM CLR 23/19 A2994 280 78 1300 000/00 RMK AO2 SLP165 T02280189
53988KBKB BKB20190516195510805/16/19 19:55:31  5-MIN KBKB 170155Z AUTO 00000KT 10SM CLR 23/19 A2994 280 78 1300 000/00 RMK AO2 T02280189
53988KBKB BKB20190516200010805/16/19 20:00:31  5-MIN KBKB 170200Z AUTO 00000KT 10SM CLR 22/19 A2994 280 81 1200 000/00 RMK AO2 T02220189
53988KBKB BKB20190516200510805/16/19 20:05:31  5-MIN KBKB 170205Z AUTO 00000KT 10SM CLR 22/19 A2994 280 81 1200 000/00 RMK AO2 T02220189
53988KBKB BKB20190516201010805/16/19 20:10:31  5-MIN KBKB 170210Z AUTO 00000KT 10SM CLR 22/19 A2995 270 81 1200 000/00 RMK AO2 T02220189
53988KBKB BKB20190516201510805/16/19 20:15:31  5-MIN KBKB 170215Z AUTO 00000KT 10SM CLR 22/18 A2995 280 78 1200 000/00 RMK AO2 T02220183
53988KBKB BKB20190516202013505/16/19 20:20:31  5-MIN KBKB 170220Z AUTO 00000KT 10SM CLR 22/19 A2995 270 81 1200 000/00 RMK AO2 T0222018905/16//00 RMK AO2 T02170183
53988KBKB BKB20190516210010805/16/19 21:00:31  5-MIN KBKB 170300Z AUTO 00000KT 10SM CLR 21/18 A2996 260 84 1100 000/00 RMK AO2 T02110183
53988KBKB BKB20190516210510805/16/19 21:05:31  5-MIN KBKB 170305Z AUTO 00000KT 10SM CLR 21/18 A2996 260 84 1100 000/00 RMK AO2 T02110183
53988KBKB BKB20190516211010805/16/19 21:10:31  5-MIN KBKB 170310Z AUTO 00000KT 10SM CLR 21/18 A2996 260 84 1100 000/00 RMK AO2 T02110183
53988KBKB BKB20190516211506905/16/19 21:15:31  5-MIN KBKB 170315Z AUTO 0 000/00 RMK AO2 T02060183
53988KBKB BKB20190516221510805/16/19 22:15:31  5-MIN KBKB 170415Z AUTO 00000KT 10SM CLR 21/18 A2996 260 87 1000 000/00 RMK AO2 T02060183
53988KBKB BKB20190516222010805/16/19 22:20:31  5-MIN KBKB 170420Z AUTO 00000KT 10SM CLR 21/18 A2996 260 87 1000 000/00 RMK AO2 T02060183
53988KBKB BKB20190516222510805/16/19 22:25:31  5-MIN KBKB 170425Z AUTO 00000KT 10SM CLR 21/19 A2996 260 90 1000 000/00 RMK AO2 T02060189
53988KBKB BKB20190516223010805/16/19 22:30:31  5-MIN KBKB 170430Z AUTO 00000KT 10SM CLR 21/18 A2996 260 87 1000 000/00 RMK AO2 T02060183
53988KBKB BKB20190516223510705/16/19 22:35:31  5-MIN KBKB 170435Z AUTO 00000KT 10SM CLR 20/19 A2996 260 93 900 000/00 RMK AO2 T02000189
53988KBKB BKB20190516224010805/16/19 22:40:31  5-MIN KBKB 170440Z AUTO 00000KT 10SM CLR 21/19 A2996 260 90 1000 000/00 RMK AO2 T02060189
53988KBKB BKB20190516224510805/16/19 22:45:31  5-MIN KBKB 170445Z AUTO 00000KT 10SM CLR 21/19 A2996 260 90 1000 000/00 RMK AO2 T02060189
53988KBKB BKB20190516225011405/16/19 22:50:31  5-MIN KBKB 170450Z AUTO 00000KT 10SM CLR 20/19 A2996 260 93 900 000/00 RMK AO2 SLP172 T02000189
53988KBKB BKB20190516225510705/16/19 22:55:31  5-MIN KBKB 170455Z AUTO 00000KT 10SM CLR 20/18 A2996 260 90 900 000/00 RMK AO2 T02000183
53988KBKB BKB20190516230010705/16/19 23:00:31  5-MIN KBKB 170500Z AUTO 00000KT 10SM CLR 20/18 A2996 260 90 900 000/00 RMK AO2 T02000183
53988KBKB BKB20190516230510705/16/19 23:05:31  5-MIN KBKB 170505Z AUTO 00000KT 10SM CLR 19/18 A2996 260 93 900 000/00 RMK AO2 T01940183
53988KBKB BKB20190516231010705/16/19 23:10:31  5-MIN KBKB 170510Z AUTO 00000KT 10SM CLR 20/18 A2996 260 90 900 000/00 RMK AO2 T02000183
53988KBKB BKB20190516231508905/16/19 23:15:31  5-MIN KBKB 170515Z AUTO 00000KT 10SM CLR 20/18000/00 RMK AO2 T01890183
53988KBKB BKB20190516231510705/16/19 23:15:31  5-MIN KBKB 170515Z AUTO 00000KT 10SM CLR 20/18 A2996 260 90 900 000/00 RMK AO2 T02000183
53988KBKB BKB20190516232010705/16/19 23:20:31  5-MIN KBKB 170520Z AUTO 00000KT 10SM CLR 20/18 A2996 260 90 900 000/00 RMK AO2 T02000183
53988KBKB BKB20190516232510705/16/19 23:25:31  5-MIN KBKB 170525Z AUTO 00000KT 10SM CLR 20/18 A2996 260 90 900 000/00 RMK AO2 T02000183
53988KBKB BKB20190516233010705/16/19 23:30:31  5-MIN KBKB 170530Z AUTO 00000KT 10SM CLR 19/18 A2996 260 93 900 000/00 RMK AO2 T01940183
53988KBKB BKB20190516233510705/16/19 23:35:31  5-MIN KBKB 170535Z AUTO 00000KT 10SM CLR 19/18 A2996 260 93 900 000/00 RMK AO2 T01940183
53988KBKB BKB20190516234010705/16/19 23:40:31  5-MIN KBKB 170540Z AUTO 00000KT 10SM CLR 20/18 A2996 260 90 900 000/00 RMK AO2 T02000183
53988KBKB BKB20190516234510705/16/19 23:45:31  5-MIN KBKB 170545Z AUTO 00000KT 10SM CLR 20/18 A2996 260 90 900 000/00 RMK AO2 T02000183
53988KBKB BKB20190516235014205/16/19 23:50:31  5-MIN KBKB 170550Z AUTO 00000KT 10SM CLR 19/18 A2996 260 93 900 000/00 RMK AO2 SLP170 T01940183 10278 20194 403170167 53007
53988KBKB BKB20190516235510705/16/19 23:55:31  5-MIN KBKB 170555Z AUTO 00000KT 10SM CLR 19/18 A2996 260 93 900 000/00 RMK AO2 T01940183
53988KBKB BKB20190517000010705/17/19 00:00:31  5-MIN KBKB 170600Z AUTO 00000KT 10SM CLR 19/18 A2996 260 93 900 000/00 RMK AO2 T01940183
53988KBKB BKB20190517000510705/17/19 00:05:31  5-MIN KBKB 170605Z AUTO 00000KT 10SM CLR 19/18 A2996 260 93 900 000/00 RMK AO2 T01940183
53988KBKB BKB20190517005011305/17/19 00:50:31  5-MIN KBKB 170650Z AUTO 00000KT 9SM CLR 19/18 A2995 270 97 800 000/00 RMK AO2 SLP169 T01890183
53988KBKB BKB20190517005510605/17/19 00:55:31  5-MIN KBKB 170655Z AUTO 00000KT 9SM CLR 19/18 A2995 270 97 800 000/00 RMK AO2 T01890183
53988KBKB BKB20190517010010605/17/19 01:00:31  5-MIN KBKB 170700Z AUTO 00000KT 7SM CLR 19/18 A2995 270 93 800 000/00 RMK AO2 T01890178
53988KBKB BKB20190517013010905/17/19 01:30:31  5-MIN KBKB 170730Z AUTO 00000KT 6SM BR CLR 18/18 A2993 290 96 800 000/00 RMK AO2 T01830178
53988KBKB BKB20190517013510905/17/19 01:35:31  5-MIN KBKB 170735Z AUTO 00000KT 5SM BR CLR 18/18 A2993 290 96 800 000/00 RMK AO2 T01830178
53988KBKB BKB20190517014010905/17/19 01:40:31  5-MIN KBKB 170740Z AUTO 00000KT 5SM BR CLR 18/18 A2993 290 96 800 000/00 RMK AO2 T01830178
53988KBKB BKB20190517014510905/17/19 01:45:31  5-MIN KBKB 170745Z AUTO 00000KT 5SM BR CLR 18/18 A2993 290 96 800 000/00 RMK AO2 T01830178
53988KBKB BKB20190517015011605/17/19 01:50:31  5-MIN KBKB 170750Z AUTO 00000KT 4SM BR CLR 18/18 A2993 290 96 800 000/00 RMK AO2 SLP161 T01830178
53988KBKB BKB20190517015510905/17/19 01:55:31  5-MIN KBKB 170755Z AUTO 00000KT 4SM BR CLR 18/18 A2993 290 96 800 000/00 RMK AO2 T01830178
53988KBKB BKB20190517020010905/17/19 02:00:31  5-MIN KBKB 170800Z AUTO 00000KT 4SM BR CLR 18/18 A2993 290 96 800 000/00 RMK AO2 T01830178
53988KBKB BKB20190517120011305/17/19 12:00:31  5-MIN KBKB 171800Z AUTO VRB04KT 10SM BKN040 28/19 A2992 300 56 1900 VRB/04 RMK AO2 T02830189 $
53988KBKB BKB20190517120511305/17/19 12:05:31  5-MIN KBKB 171805Z AUTO VRB03KT 10SM BKN040 28/19 A2992 300 58 1900 VRB/03 RMK AO2 T02830194 $
53988KBKB BKB20190517121011305/17/19 12:10:31  5-MIN KBKB 171810Z AUTO VRB03KT 10SM BKN042 28/19 A2992 300 56 1900 VRB/03 RMK AO2 T02830189 $
53988KBKB BKB20190517121511305/17/19 12:15:31  5-MIN KBKB 171815Z AUTO VRB06KT 10SM BKN042 29/19 A2992 300 52 2100 VRB/06 RMK AO2 T02940189 $
53988KBKB BKB20190517122012005/17/19 12:20:31  5-MIN KBKB 171820Z AUTO VRB03KT 10SM BKN042 BKN055 28/18 A2992 300 54 1900 VRB/03 RMK AO2 T02830183 $
53988KBKB BKB20190517122512005/17/19 12:25:31  5-MIN KBKB 171825Z AUTO VRB03KT 10SM BKN042 BKN050 29/19 A2992 300 54 2000 VRB/03 RMK AO2 T02890189 $
53988KBKB BKB20190517123012005/17/19 12:30:31  5-MIN KBKB 171830Z AUTO VRB05KT 10SM BKN044 BKN050 29/19 A2992 300 52 2100 VRB/05 RMK AO2 T02940189 $
53988KBKB BKB20190517123512005/17/19 12:35:31  5-MIN KBKB 171835Z AUTO VRB04KT 10SM BKN044 BKN055 29/19 A2992 300 54 2000 VRB/04 RMK AO2 T02890189 $
53988KBKB BKB20190517124012005/17/19 12:40:31  5-MIN KBKB 171840Z AUTO VRB05KT 10SM SCT042 SCT050 31/19 A2992 300 51 2200 VRB/05 RMK AO2 T03060194 $
53988KBKB BKB20190517124512005/17/19 12:45:31  5-MIN KBKB 171845Z AUTO VRB04KT 10SM SCT044 BKN060 28/18 A2992 300 54 1900 VRB/04 RMK AO2 T02830183 $
53988KBKB BKB20190517125012005/17/19 12:50:31  5-MIN KBKB 171850Z AUTO VRB05KT 10SM SCT044 29/19 A2991 300 54 2100 VRB/05 RMK AO2 SLP156 T02940194 $
53988KBKB BKB20190517125511305/17/19 12:55:31  5-MIN KBKB 171855Z AUTO VRB03KT 10SM FEW043 31/19 A2991 310 51 2200 VRB/03 RMK AO2 T03060194 $
53988KBKB BKB20190517130012005/17/19 13:00:31  5-MIN KBKB 171900Z AUTO VRB03KT 10SM FEW043 SCT065 29/19 A2991 310 52 2100 VRB/03 RMK AO2 T02940189 $
53988KBKB BKB20190517130512705/17/19 13:05:31  5-MIN KBKB 171905Z AUTO VRB04KT 10SM FEW043 SCT060 SCT070 29/19 A2991 310 54 2100 VRB/04 RMK AO2 T02940194 $
53988KBKB BKB20190517131012005/17/19 13:10:31  5-MIN KBKB 171910Z AUTO VRB05KT 10SM FEW043 FEW060 29/19 A2991 310 54 2100 VRB/05 RMK AO2 T02940194 $
53988KBKB BKB20190517131512005/17/19 13:15:31  5-MIN KBKB 171915Z AUTO VRB04KT 10SM FEW043 FEW060 29/19 A2990 310 52 2100 VRB/04 RMK AO2 T02940189 $
53988KBKB BKB20190517132012705/17/19 13:20:31  5-MIN KBKB 171920Z AUTO VRB06KT 10SM SCT043 SCT050 SCT065 29/19 A2990 310 54 2100 VRB/06 RMK AO2 T02940194 $
53988KBKB BKB20190517132512005/17/19 13:25:31  5-MIN KBKB 171925Z AUTO VRB04KT 10SM SCT043 BKN055 30/19 A2990 320 51 2100 VRB/04 RMK AO2 T03000189 $
53988KBKB BKB20190517133012005/17/19 13:30:31  5-MIN KBKB 171930Z AUTO VRB03KT 10SM SCT043 SCT055 30/19 A2990 320 52 2100 VRB/03 RMK AO2 T03000194 $
53988KBKB BKB20190517133511305/17/19 13:35:31  5-MIN KBKB 171935Z AUTO VRB04KT 10SM SCT043 30/19 A2990 320 52 2100 VRB/04 RMK AO2 T03000194 $
53988KBKB BKB20190517134012705/17/19 13:40:31  5-MIN KBKB 171940Z AUTO 10SM BKN043 30/19 A2990 320 52 2100 M /M RMK AO2 T03000194 $05/17/19 13:4T02720211 $
53988KBKB BKB20190517180511305/17/19 18:05:31  5-MIN KBKB 180005Z AUTO VRB05KT 10SM SCT100 27/21 A2985 360 66 1900 VRB/05 RMK AO2 T02720206 $
53988KBKB BKB20190517181011305/17/19 18:10:31  5-MIN KBKB 180010Z AUTO VRB03KT 10SM FEW100 27/21 A2985 360 69 1800 VRB/03 RMK AO2 T02670206 $
53988KBKB BKB20190517181511305/17/19 18:15:31  5-MIN KBKB 180015Z AUTO VRB04KT 10SM FEW100 27/21 A2985 360 69 1800 VRB/04 RMK AO2 T02670206 $
53988KBKB BKB20190517182011005/17/19 18:20:31  5-MIN KBKB 180020Z AUTO 00000KT 10SM CLR 27/21 A2985 360 69 1800 000/00 RMK AO2 T02670206 $
53988KBKB BKB20190517182511305/17/19 18:25:31  5-MIN KBKB 180025Z AUTO VRB04KT 10SM FEW043 27/21 A2985 360 71 1800 VRB/04 RMK AO2 T02670211 $
53988KBKB BKB20190517183011305/17/19 18:30:31  5-MIN KBKB 180030Z AUTO VRB04KT 10SM FEW043 26/21 A2985 360 73 1800 VRB/04 RMK AO2 T02610211 $
53988KBKB BKB20190517183515405/17/19 18:35:31  5-MIN KBKB 180035Z AUTO VRB03KT 10SM SCT0 180250Z AUTO VRB03KT 10SM CLR 23/19 A2988 330 78 1400 VRB/03 RMK AO2 SLP144 T02330194 56005 $
53988KBKB BKB20190517205511005/17/19 20:55:31  5-MIN KBKB 180255Z AUTO 00000KT 10SM CLR 23/19 A2988 330 78 1400 000/00 RMK AO2 T02330194 $
53988KBKB BKB20190517210011005/17/19 21:00:31  5-MIN KBKB 180300Z AUTO 00000KT 10SM CLR 23/19 A2988 330 78 1400 000/00 RMK AO2 T02330194 $
53988KBKB BKB20190517210511605/17/19 21:05:31  5-MIN KBKB 180305Z AUTO 00000KT 9SM CLR 23/19 A2989 3300 81 1300 000/00 RMK AO2 SLPNO T02220189 $
53988KBKB BKB20190517215511005/17/19 21:55:31  5-MIN KBKB 180355Z AUTO 00000KT 10SM CLR 22/19 A2990 320 81 1300 000/00 RMK AO2 T02220189 $
53988KBKB BKB20190517220011005/17/19 22:00:31  5-MIN KBKB 180400Z AUTO VRB03KT 10SM CLR 22/19 A2989 320 81 1300 VRB/03 RMK AO2 T02220189 $
53988KBKB BKB20190517220514505/17/19 22:05:31  5-MIN KBKB 180405Z AUTO VRB03KT 10SM CLR 22/19 A2989 320 81 1300 VRB/03 RMK AO2 T02220189 $ 90 1200 000/00 RMK AO2 T02110194 $
53988KBKB BKB20190517225511005/17/19 22:55:31  5-MIN KBKB 180455Z AUTO 00000KT 10SM CLR 22/19 A2990 320 87 1200 000/00 RMK AO2 T02170194 $
53988KBKB BKB20190517230011005/17/19 23:00:31  5-MIN KBKB 180500Z AUTO VRB03KT 10SM CLR 22/19 A2989 320 84 1300 VRB/03 RMK AO2 T02220194 $
53988KBKB BKB20190517230511005/17/19 23:05:31  5-MIN KBKB 180505Z AUTO VRB03KT 10SM CLR 22/19 A2989 320 87 1200 VRB/03 RMK AO2 T02170194 $
53988KBKB BKB20190517231011005/17/19 23:10:31  5-MIN KBKB 180510Z AUTO 00000KT 10SM CLR 22/19 A2989 330 84 1300 000/00 RMK AO2 T02220194 $
53988KBKB BKB20190517231511005/17/19 23:15:31  5-MIN KBKB 180515Z AUTO 00000KT 10SM CLR 22/19 A2989 330 87 1200 000/00 RMK AO2 T02170194 $
53988KBKB BKB20190517232011005/17/19 23:20:31  5-MIN KBKB 180520Z AUTO 00000KT 10SM CLR 22/19 A2989 330 87 1200 000/00 RMK AO2 T02170194 $
53988KBKB BKB20190517232511005/17/19 23:25:31  5-MIN KBKB 180525Z AUTO 00000KT 10SM CLR 22/19 A2989 330 87 1200 000/00 RMK AO2 T02170194 $
53988KBKB BKB20190517233011005/17/19 23:30:31  5-MIN KBKB 180530Z AUTO VRB03KT 10SM CLR 22/19 A2989 330 87 1200 VRB/03 RMK AO2 T02170194 $
53988KBKB BKB20190517233511005/17/19 23:35:31  5-MIN KBKB 180535Z AUTO 14003KT 10SM CLR 22/19 A2988 330 87 1200 140/03 RMK AO2 T02170194 $
53988KBKB BKB20190517234011005/17/19 23:40:31  5-MIN KBKB 180540Z AUTO VRB03KT 10SM CLR 22/19 A2988 330 87 1200 VRB/03 RMK AO2 T02170194 $
53988KBKB BKB20190517234511005/17/19 23:45:31  5-MIN KBKB 180545Z AUTO 00000KT 10SM CLR 22/19 A2988 330 87 1200 000/00 RMK AO2 T02170194 $
53988KBKB BKB20190517235014505/17/19 23:50:31  5-MIN KBKB 180550Z AUTO 16003KT 10SM CLR 21/19 A2988 330 90 1200 160/03 RMK AO2 SLP144 T02110194 10272 20211 403110161 53009 $
53988KBKB BKB20190517235511005/17/19 23:55:31  5-MIN KBKB 180555Z AUTO VRB03KT 10SM CLR 22/19 A2988 330 87 1200 VRB/03 RMK AO2 T02170194 $
53988KBKB BKB20190518000011005/18/19 00:00:31  5-MIN KBKB 180600Z AUTO 00000KT 10SM CLR 21/19 A2988 340 90 1200 000/00 RMK AO2 T02110194 $
53988KBKB BKB20190518000511005/18/19 00:05:31  5-MIN KBKB 180605Z AUTO 00000KT 10SM CLR 21/19 A2987 340 90 1200 000/00 RMK AO2 T02110194 $
53988KBKB BKB20190518001010005/18/19 00:10:31  5-MIN KBKB 180610Z AUTO 00000KT 10SM CLR 21/19 A2987 3/20 A2985 360 93 1200 VRB/0
53988KBKB BKB20190518004511005/18/19 00:45:31  5-MIN KBKB 180645Z AUTO 00000KT 10SM CLR 21/19 A2987 340 90 1200 000/00 RMK AO2 T02110194 $
53988KBKB BKB20190518005011705/18/19 00:50:31  5-MIN KBKB 180650Z AUTO 00000KT 10SM CLR 21/19 A2987 340 90 1200 000/00 RMK AO2 SLP140 T02110194 $
53988KBKB BKB20190518005511005/18/19 00:55:31  5-MIN KBKB 180655Z AUTO 00000KT 10SM CLR 21/19 A2987 350 90 1200 000/00 RMK AO2 T02110194 $
53988KBKB BKB20190518010011005/18/19 01:00:31  5-MIN KBKB 180700Z AUTO 00000KT 10SM CLR 21/20 A2987 350 93 1200 000/00 RMK AO2 T02110200 $
53988KBKB BKB20190518010511005/18/19 01:05:31  5-MIN KBKB 180705Z AUTO 00000KT 10SM CLR 21/19 A2986 350 93 1100 000/00 RMK AO2 T02060194 $
53988KBKB BKB20190518011011005/18/19 01:10:31  5-MIN KBKB 180710Z AUTO 00000KT 10SM CLR 21/20 A2986 350 93 1200 000/00 RMK AO2 T02110200 $
53988KBKB BKB20190518011511005/18/19 01:15:31  5-MIN KBKB 180715Z AUTO 00000KT 10SM CLR 21/20 A2986 350 93 1200 000/00 RMK AO2 T02110200 $
53988KBKB BKB20190518012011005/18/19 01:20:31  5-MIN KBKB 180720Z AUTO 00000KT 10SM CLR 21/20 A2986 350 93 1200 000/00 RMK AO2 T02110200 $
53988KBKB BKB20190518012511005/18/19 01:25:31  5-MIN KBKB 180725Z AUTO 00000KT 10SM CLR 21/20 A2986 360 93 1200 000/00 RMK AO2 T02110200 $
53988KBKB BKB20190518013011005/18/19 01:30:31  5-MIN KBKB 180730Z AUTO VRB03KT 10SM CLR 21/20 A2986 360 93 1200 VRB/03 RMK AO2 T02110200 $
53988KBKB BKB20190518013511005/18/19 01:35:31  5-MIN KBKB 180735Z AUTO VRB03KT 10SM CLR 21/20 A2985 360 93 1200 VRB/03 RMK AO2 T02110200 $
53988KBKB BKB20190518014011005/18/19 01:40:31  5-MIN KBKB 180740Z AUTO VRB03KT 10SM CLR 21/20 A2985 360 93 1200 VRB/03 RMK AO2 T02110200 $
53988KBKB BKB20190518014511005/18/19 01:45:31  5-MIN KBKB 180745Z AUTO 00000KT 10SM CLR 21/20 A2985 360 93 1200 000/00 RMK AO2 T02110200 $
53988KBKB BKB20190518015011705/18/19 01:50:31  5-MIN KBKB 180750Z AUTO 00000KT 10SM CLR 21/20 A2985 360 93 1200 000/00 RMK AO2 SLP133 T02110200 $
53988KBKB BKB20190518015508405/18/19 01:55:31  5-MIN KBKB 180755Z AUTO VRB03KT93 1200 VRB/03 RMK AO2 T02110200 $
53988KBKB BKB20190518015511005/18/19 01:55:31  5-MIN KBKB 180755Z AUTO VRB03KT 10SM CLR 21/20 A2985 360 93 1200 VRB/03 RMK AO2 T02110200 $
53988KBKB BKB20190518020011005/18/19 02:00:31  5-MIN KBKB 180800Z AUTO VRB03KT 10SM CLR 21/20 A2985 360 93 1200 VRB/03 RMK AO2 T02110200 $
53988KBKB BKB20190518020511005/18/19 02:05:31  5-MIN KBKB 180805Z AUTO VRB03KT 10SM CLR 21/20 A2985 360 93 1200 VRB/03 RMK AO2 T02110200 $
53988KBKB BKB20190518021011005/18/19 02:10:31  5-MIN KBKB 180810Z AUTO VRB03KT 10SM CLR 21/20 A2985 360 93 1200 VRB/03 RMK AO2 T02110200 $
53988KBKB BKB20190518021511005/18/19 02:15:31  5-MIN KBKB 180815Z AUTO VRB03KT 10SM CLR 21/20 A2985 370 93 1200 VRB/03 RMK AO2 T02110200 $
53988KBKB BKB20190518021512605/18/19 02:15:31  5-MIN KBKB 180815Z AUTO VRB03KT 10SMAUTO 00000KT 9SM CLR 21/20 A2985 370 97 1100 VRB/03 RMK AO2 T02060200 $
53988KBKB BKB20190518022011005/18/19 02:20:31  5-MIN KBKB 180820Z AUTO 00000KT 10SM CLR 21/20 A2985 370 93 1200 000/00 RMK AO2 T02110200 $
53988KBKB BKB20190518041510905/18/19 04:15:31  5-MIN KBKB 181015Z AUTO 00000KT 9SM CLR 21/20 A2985 360 97 1100 000/00 RMK AO2 T02060200 $
53988KBKB BKB20190518042011205/18/19 04:20:31  5-MIN KBKB 181020Z AUTO 00000KT 9SM FEW019 21/20 A2985 360 97 1100 000/00 RMK AO2 T02060200 $
53988KBKB BKB20190518042511205/18/19 04:25:31  5-MIN KBKB 181025Z AUTO VRB03KT 9SM SCT017 21/20 A2985 360 97 1100 VRB/03 RMK AO2 T02060200 $
53988KBKB BKB20190518043011205/18/19 04:30:31  5-MIN KBKB 181030Z AUTO 00000KT 9SM SCT017 21/20 A2986 360 97 1100 000/00 RMK AO2 T02060200 $
53988KBKB BKB20190518043511205/18/19 04:35:31  5-MIN KBKB 181035Z AUTO 00000KT 9SM SCT017 21/20 A2986 360 97 1100 000/00 RMK AO2 T02060200 $
53988KBKB BKB20190518044011205/18/19 04:40:31  5-MIN KBKB 181040Z AUTO 00000KT 9SM BKN016 21/20 A2986 350 97 1100 000/00 RMK AO2 T02060200 $
53988KBKB BKB20190518044511305/18/19 04:45:31  5-MIN KBKB 181045Z AUTO 00000KT 9SM BKN016 21/21 A2986 350 100 1100 000/00 RMK AO2 T02060206 $
53988KBKB BKB20190518045012005/18/19 04:50:31  5-MIN KBKB 181050Z AUTO 00000KT 10SM BKN016 21/21 A2986 360 97 1200 000/00 RMK AO2 SLP136 T02110206 $
53988KBKB BKB20190518045511305/18/19 04:55:31  5-MIN KBKB 181055Z AUTO 00000KT 10SM BKN018 21/21 A2986 350 97 1200 000/00 RMK AO2 T02110206 $
53988KBKB BKB20190518050011305/18/19 05:00:31  5-MIN KBKB 181100Z AUTO 00000KT 10SM OVC018 21/21 A2986 350 97 1200 000/00 RMK AO2 T02110206 $
53988KBKB BKB20190518050511305/18/19 05:05:31  5-MIN KBKB 181105Z AUTO 00000KT 10SM OVC018 21/21 A2986 350 97 1200 000/00 RMK AO2 T02110206 $
53988KBKB BKB20190518051011305/18/19 05:10:31  5-MIN KBKB 181110Z AUTO VRB03KT 10SM OVC018 21/21 A2986 350 97 1200 VRB/03 RMK AO2 T02110206 $
53988KBKB BKB20190518051511305/18/19 05:15:31  5-MIN KBKB 181115Z AUTO 00000KT 10SM OVC018 21/21 A2986 360 97 1200 000/00 RMK AO2 T02110206 $
53988KBKB BKB20190518052011305/18/19 05:20:31  5-MIN KBKB 181120Z AUTO 00000KT 10SM OVC018 21/21 A2986 360 97 1200 000/00 RMK AO2 T02110206 $
53988KBKB BKB20190518052511305/18/19 05:25:31  5-MIN KBKB 181125Z AUTO 00000KT 10SM OVC018 21/21 A2986 360 97 1200 000/00 RMK AO2 T02110206 $
53988KBKB BKB20190518053011305/18/19 05:30:31  5-MIN KBKB 181130Z AUTO 00000KT 10SM OVC018 21/21 A2986 350 97 1200 000/00 RMK AO2 T02110206 $
53988KBKB BKB20190518053511305/18/19 05:35:31  5-MIN KBKB 181135Z AUTO 00000KT 10SM FEW008 OVC019 21/21350 93 1300 VRB/03 RMK AO2 T02170206 $
53988KBKB BKB20190518063511305/18/19 06:35:31  5-MIN KBKB 181235Z AUTO VRB03KT 10SM OVC005 22/21 A2986 350 93 1200 VRB/03 RMK AO2 T02170206 $
53988KBKB BKB20190518064011305/18/19 06:40:31  5-MIN KBKB 181240Z AUTO VRB03KT 10SM OVC005 22/21 A2986 350 93 1200 VRB/03 RMK AO2 T02170206 $
53988KBKB BKB20190518064511305/18/19 06:45:31  5-MIN KBKB 181245Z AUTO VRB04KT 10SM OVC005 22/21 A2986 350 93 1200 VRB/04 RMK AO2 T02170206 $
53988KBKB BKB20190518065012005/18/19 06:50:31  5-MIN KBKB 181250Z AUTO VRB04KT 10SM OVC005 22/21 A2987 350 97 1200 VRB/04 RMK AO2 SLP140 T02170211 $
53988KBKB BKB20190518065511305/18/19 06:55:31  5-MIN KBKB 181255Z AUTO VRB04KT 10SM OVC005 22/21 A2987 350 97 1200 VRB/04 RMK AO2 T02170211 $
53988KBKB BKB20190518070011305/18/19 07:00:31  5-MIN KBKB 181300Z AUTO VRB04KT 10SM OVC005 22/21 A2987 340 93 1300 VRB/04 RMK AO2 T02220211 $
53988KBKB BKB20190518070511305/18/19 07:05:31  5-MIN KBKB 181305Z AUTO VRB03KT 10SM OVC005 22/21 A2987 340 93 1300 VRB/03 RMK AO2 T02220211 $
53988KBKB BKB20190518071011505/18/19 07:10:31  5-MIN KBKB 181310Z AUTO VRB03KT 6SM BR OVC005 22/21 A2987 350 93 1300 VRB/03 RMK AO2 T02220211 $
53988KBKB BKB20190518071511505/18/19 07:15:31  5-MIN KBKB 181315Z AUTO 00000KT 5SM BR OVC005 22/21 A2987 350 93 1300 000/00 RMK AO2 T02220211 $
53988KBKB BKB20190518072011205/18/19 07:20:31  5-MIN KBKB 181320Z AUTO 00000KT 7SM OVC005 23/22 A2987 340 93 1400 000/00 RMK AO2 T02280217 $
53988KBKB BKB20190518072510205/18/19 07:25:31  5-MIN KBKB 181325Z AUTO 9SM OVC005 23/22 A2987 340 93 1400 M /M RMK AO2 T02280217 $
53988KBKB BKB20190518073011305/18/19 07:30:31  5-MIN KBKB 181330Z AUTO VRB04KT 10SM OVC005 23/22 A2987 340 93 1400 VRB/04 RMK AO2 T02280217 $
53988KBKB BKB20190518073511305/18/19 07:35:31  5-MIN KBKB 181335Z AUTO VRB03KT 10SM OVC006 23/22 A2987 340 93 1400 VRB/03 RMK AO2 T02280217 $
53988KBKB BKB20190518074011305/18/19 07:40:31  5-MIN KBKB 181340Z AUTO VRB04KT 10SM OVC006 23/22 A2987 340 90 1400 VRB/04 RMK AO2 T02330217 $
53988KBKB BKB20190518074511305/18/19 07:45:31  5-MIN KBKB 181345Z AUTO VRB03KT 10SM OVC006 23/22 A2987 340 90 1400 VRB/03 RMK AO2 T02330217 $
53988KBKB BKB20190518075012005/18/19 07:50:31  5-MIN KBKB 181350Z AUTO VRB03KT 10SM OVC006 23/22 A2987 340 93 1400 VRB/03 RMK AO2 SLP142 T02330222 $
53988KBKB BKB20190518075511305/18/19 07:55:31  5-MIN KBKB 181355Z AUTO VRB03KT 10SM OVC006 24/22 A2987 340 90 1500 VRB/03 RMK AO2 T02390222 $
53988KBKB BKB20190518080012505/18/19 08:00:31  5-MIN KBKB 181400Z AUTO 14005KT 10SM OVC006 24/22 A2987 340 90 1500 140/05 RMK AO2 CIG 006V010 T02390222 $
53988KBKB BKB20190518080512505/18/19 08:05:31  5-MIN KBKB 181405Z AUTO VRB03KT 10SM OVC006 24/22 A2987 340 90 1500 VRB/03 RMK AO2 CIG 006V010 T02390222 $
53988KBKB BKB20190518081012005/18/19 08:10:31  5-MIN KBKB 181410Z AUTO VRB03KT 10SM BKN006 OVC011 24/22 A2988 340 90 1500 VRB/03 RMK AO2 T02390222 $
53988KBKB BKB20190518081512505/18/19 08:15:31  5-MIN KBKB 181415Z AUTO 18004KT 10SM OVC007 24/22 A2987 340 87 1600 180/04 RMK AO2 CIG 006V012 T02440222 $
53988KBKB BKB20190518082011305/18/19 08:20:31  5-MIN KBKB 181420Z AUTO VRB05KT 10SM OVC007 24/22 A2987 340 87 1600 VRB/05 RMK AO2 T02440222 $
53988KBKB BKB20190518082520005/18/19 08:25:31  5-MIN KBKB 181425Z AUTO VRB03KT 10SM OVC008 24/22 A2987 340 87 1600 VRB/03 RMK AO2 CIG 007V011 T02440222 $SCT046 BKN055 29/22 A2981 400 62 2200 180/07G16 120V240 RMK AO2 T02940217 $
53988KBKB BKB20190518113511005/18/19 11:35:31  5-MIN KBKB 181735Z AUTO 10SM SCT034 SCT044 31/22 A2981 400 58 2400 M /M RMK AO2 T03110222 $
53988KBKB BKB20190518114013605/18/19 11:40:31  5-MIN KBKB 181740Z AUTO 21007KT 170V260 10SM FEW034 SCT044 31/22 A2981 400 60 2300 200/07 170V260 RMK AO2 T03060222 $
53988KBKB BKB20190518114512005/18/19 11:45:31  5-MIN KBKB 181745Z AUTO VRB06KT 10SM FEW034 SCT044 30/22 A2981 400 62 2200 VRB/06 RMK AO2 T03000222 $
53988KBKB BKB20190518115016105/18/19 11:50:31  5-MIN KBKB 181750Z AUTO 16007KT 110V220 10SM SCT036 SCT044 30/22 A2981 400 62 2200 160/07 110V220 RMK AO2 SLP120 T03000222 10311 20211 50001 $
53988KBKB BKB20190518115514305/18/19 11:55:31  5-MIN KBKB 181755Z AUTO 17007KT 120V240 10SM SCT034 BKN044 BKN055 29/22 A2981 400 62 2200 170/07 120V240 RMK AO2 T02940217 $
53988KBKB BKB20190518120014305/18/19 12:00:31  5-MIN KBKB 181800Z AUTO 17007KT 120V220 10SM FEW034 SCT040 BKN050 31/22 A2981 400 60 2300 160/07 120V220 RMK AO2 T03060222 $
53988KBKB BKB20190518120514305/18/19 12:05:31  5-MIN KBKB 181805Z AUTO 18007KT 120V230 10SM FEW034 BKN048 BKN060 30/22 A2981 400 60 2200 170/07 120V230 RMK AO2 T03000217 $
53988KBKB BKB20190518121014905/18/19 12:10:31  5-MIN KBKB 181810Z AUTO 19007G16KT 120V240 10SM FEW034 SCT046 BKN055 29/22 A2981 400 62 2200 180/07G16 120V240 RMK AO2 T02940217 $
53988KBKB BKB20190518121514905/18/19 12:15:31  5-MIN KBKB 181815Z AUTO 19007G16KT 120V260 10SM FEW034 SCT046 BKN055 30/22 A2981 400 60 2200 180/07G16 120V260 RMK AO2 T03000217 $
53988KBKB BKB20190518122012705/18/19 12:20:31  5-MIN KBKB 181820Z AUTO VRB06KT 10SM SCT036 SCT046 BKN055 29/22 A2981 400 62 2200 VRB/06 RMK AO2 T02940217 $
53988KBKB BKB20190518122513305/18/19 12:25:31  5-MIN KBKB 181825Z AUTO VRB06G14KT 10SM FEW036 SCT045 BKN055 30/22 A2981 400 60 2300 VRB/06G14 RMK AO2 T03000217 $
53988KBKB BKB20190518123013305/18/19 12:30:31  5-MIN KBKB 181830Z AUTO VRB06G14KT 10SM FEW038 SCT048 SCT055 31/22 A2981 410 56 2400 VRB/06G14 RMK AO2 T03110217 $
53988KBKB BKB20190518123020005/18/19 12:30:31  5-MIN KBKB 181830Z AUTO VRB06G14KT 10SM FEW038 SCT048 SCT055 31/22 A2981 410 56 2400 VRB/06G14 RMK A2980 4 62 2300 M /M RMK AO2 T03000222 $A2980 410 65 2300 M /M RMK AO2 T03000228 $
53988KBKB BKB20190518123512705/18/19 12:35:31  5-MIN KBKB 181835Z AUTO VRB03KT 10SM SCT038 SCT050 SCT060 31/22 A2981 400 58 2300 VRB/03 RMK AO2 T03060217 $
53988KBKB BKB20190518124012705/18/19 12:40:31  5-MIN KBKB 181840Z AUTO VRB03KT 10SM SCT038 SCT050 BKN060 31/22 A2981 400 60 2300 VRB/03 RMK AO2 T03060222 $
53988KBKB BKB20190518134014905/18/19 13:40:31  5-MIN KBKB 181940Z AUTO 18008G15KT 140V220 10SM FEW032 BKN065 OVC110 29/22 A2980 410 67 2100 180/08G15 140V220 RMK AO2 T02890222 $
53988KBKB BKB20190518134519105/18/19 13:45:31  5-MIN KBKB 181945Z AUTO VRB05G15KT 10SM FEW034 SCT046 BKN065 31/23 A2980 410 62 2300 VRB/05G15 R AUTO VRB06KT 10SM FEW033 31/23 A2977 440 62 2400 VRB/06 RMK AO2 T03060228 $
53988KBKB BKB20190518152011305/18/19 15:20:31  5-MIN KBKB 182120Z AUTO VRB06KT 10SM FEW033 30/22 A2977 440 62 2300 VRB/06 RMK AO2 T03000222 $
53988KBKB BKB20190518152511305/18/19 15:25:31  5-MIN KBKB 182125Z AUTO VRB05KT 10SM FEW033 31/23 A2976 440 62 2400 VRB/05 RMK AO2 T03060228 $
53988KBKB BKB20190518153010505/18/19 15:30:31  5-MIN KBKB 182130Z AUTO 17007KT 110V210 10SM CLR 30/22 A2976RMK AO2 SLP102 T03000217 $
53988KBKB BKB20190518155512605/18/19 15:55:31  5-MIN KBKB 182155Z AUTO 16007KT 120V220 10SM CLR 30/22 A2976 440 60 2300 150/07 120V220 RMK AO2 T03000217 $
53988KBKB BKB20190518160012605/18/19 16:00:31  5-MIN KBKB 182200Z AUTO 19008KT 150V240 10SM CLR 31/22 A2976 440 60 2400 190/08 150V240 RMK AO2 T03060222 $
53988KBKB BKB20190518160512705/18/19 16:05:31  5-MIN KBKB 182205Z AUTO VRB04KT 10SM FEW037 FEW046 SCT055 29/22 A2976 440 62 2200 VRB/04 RMK AO2 T02940217 $
53988KBKB BKB20190518161011705/18/19 16:10:31  5-MIN KBKB 182210Z AUTO 10SM FEW037 FEW055 SCT110 29/22 A2977 440 62 2200 M /M RMK AO2 T02940217 $
53988KBKB BKB20190518161512005/18/19 16:15:31  5-MIN KBKB 182215Z AUTO VRB04KT 10SM FEW055 FEW110 29/22 A2976 450 62 2200 VRB/04 RMK AO2 T02940217 $
53988KBKB BKB20190518162019105/18/19 16:20:31  5-MIN KBKB 182220Z AUTO VRB04KT 10SM FEW055 FEW110 30/22 A2977 440 60 2300 VRB/04 RMK AO2 T03000255 FEW090 27/23 A2976 450 79 1900 VRB/04 RMK AO2 RAB15E28 P0000 T02670228 $
53988KBKB BKB20190518174511805/18/19 17:45:31  5-MIN KBKB 182345Z AUTO 10SM FEW055 27/23 A2976 450 79 1900 M /M RMK AO2 RAB15E28 P0000 T02670228 $
53988KBKB BKB20190518175015905/18/19 17:50:31  5-MIN KBKB 182350Z AUTO VRB05KT 10SM FEW050 27/23 A2976 450 79 1900 VRB/05 RMK AO2 RAB15E28 SLP103 P0000 60000 T02670228 10317 20267 58012 $
53988KBKB BKB20190518182011005/18/19 18:20:31  5-MIN KBKB 190020Z AUTO 00000KT 10SM CLR 27/23 A2975 450 79 1900 000/00 RMK AO2 T02670228 $
53988KBKB BKB20190518182511005/18/19 18:25:31  5-MIN KBKB 190025Z AUTO 00000KT 10SM CLR 27/23 A2976 450 79 1900 000/00 RMK AO2 T02670228 $
53988KBKB BKB20190518183011005/18/19 18:30:31  5-MIN KBKB 190030Z AUTO 00000KT 10SM CLR 27/23 A2975 450 79 1900 000/00 RMK AO2 T02670228 $
53988KBKB BKB20190518230011305/18/19 23:00:31  5-MIN KBKB 190500Z AUTO VRB04KT 10SM OVC014 25/23 A2980 410 90 1700 VRB/04 RMK AO2 T02500233 $
53988KBKB BKB20190518230511305/18/19 23:05:31  5-MIN KBKB 190505Z AUTO VRB03KT 10SM OVC014 25/23 A2979 420 90 1700 VRB/03 RMK AO2 T02500233 $
53988KBKB BKB20190518231012005/18/19 23:10:31  5-MIN KBKB 190510Z AUTO VRB04KT 10SM BKN014 OVC021 25/23 A2979 420 90 1700 VRB/04 RMK AO2 T02500233 $
53988KBKB BKB20190518231512705/18/19 23:15:31  5-MIN KBKB 190515Z AUTO VRB04KT 10SM BKN014 BKN021 OVC041 25/23 A2979 420 90 1700 VRB/04 RMK AO2 T02500233 $
53988KBKB BKB20190518232012705/18/19 23:20:31  5-MIN KBKB 190520Z AUTO VRB04KT 10SM BKN014 BKN021 OVC041 25/23 A2980 410 90 1700 VRB/04 RMK AO2 T02500233 $
53988KBKB BKB20190518232512005/18/19 23:25:31  5-MIN KBKB 190525Z AUTO 00000KT 10SM BKN014 OVC021 25/23 A2980 410 90 1700 000/00 RMK AO2 T02500233 $
53988KBKB BKB20190518233012505/18/19 23:30:31  5-MIN KBKB 190530Z AUTO 9SM -RA BKN014 OVC020 25/23 A2980 410 90 1700 M /M RMK AO2 RAB28 P0000 T02500233 $
53988KBKB BKB20190518233514205/18/19 23:35:31  5-MIN KBKB 190535Z AUTO 12004KT 8SM -RA BKN014 BKN020 OVC035 25/23 A2979 410 90 1700 110/04 RMK AO2 RAB28 P0000 T02500233 $
53988KBKB BKB20190518234014305/18/19 23:40:31  5-MIN KBKB 190540Z AUTO VRB04KT 10SM -RA FEW012 BKN018 OVC045 25/24 A2979 420 93 1700 VRB/04 RMK AO2 RAB28 P0000 T02500239 $
53988KBKB BKB20190518234514305/18/19 23:45:31  5-MIN KBKB 190545Z AUTO VRB04KT 10SM -RA BKN012 BKN018 OVC038 24/24 A2978 430 97 1700 VRB/04 RMK AO2 RAB28 P0000 T02440239 $
53988KBKB BKB20190518235018405/18/19 23:50:31  5-MIN KBKB 190550Z AUTO 00000KT 10SM -RA SCT012 BKN018 OVC038 24/24 A2979 420 97 1700 000/00 RMK AO2 RAB28 SLP112 P0000 60000 T02440239 10267 20244 403170206 53018 $
53988KBKB BKB20190518235513605/18/19 23:55:31  5-MIN KBKB 190555Z AUTO VRB03KT 9SM -RA SCT012 BKN018 OVC047 24/24 A2978 420 97 1700 VRB/03 RMK AO2 P0001 T02440239 $
53988KBKB BKB20190519000013005/19/19 00:00:31  5-MIN KBKB 190600Z AUTO VRB03KT 10SM -RA BKN010 OVC018 24/24 A2978 430 97 1700 VRB/03 RMK AO2 P0001 T02440239 $
53988KBKB BKB20190519080011305/19/19 08:00:31  5-MIN KBKB 191400Z AUTO 00000KT 10SM SCT003 22/22 A2987 340 97 1300 000/00 RMK AO2 T02220217 $
53988KBKB BKB20190519080511305/19/19 08:05:31  5-MIN KBKB 191405Z AUTO 00000KT 10SM FEW003 23/22 A2988 340 93 1400 000/00 RMK AO2 T02280217 $
53988KBKB BKB20190519081011305/19/19 08:10:31  5-MIN KBKB 191410Z AUTO 00000KT 10SM FEW004 23/22 A2988 340 97 1400 000/00 RMK AO2 T02280222 $
53988KBKB BKB20190519081511005/19/19 08:15:31  5-MIN KBKB 191415Z AUTO 00000KT 10SM CLR 23/22 A2988 330 93 1400 000/00 RMK AO2 T02330222 $
53988KBKB BKB20190519082011005/19/19 08:20:31  5-MIN KBKB 191420Z AUTO 00000KT 10SM CLR 24/22 A2988 330 90 1500 000/00 RMK AO2 T02390222 $
53988KBKB BKB20190519082511305/19/19 08:25:31  5-MIN KBKB 191425Z AUTO 00000KT 10SM FEW015 24/22 A2989 330 90 1500 000/00 RMK AO2 T02390222 $
53988KBKB BKB20190519083012005/19/19 08:30:31  5-MIN KBKB 191430Z AUTO 00000KT 10SM FEW015 FEW028 24/23 A2989 330 90 1500 000/00 RMK AO2 T02440228 $
53988KBKB BKB20190519083512005/19/19 08:35:31  5-MIN KBKB 191435Z AUTO 00000KT 10SM FEW015 FEW028 24/23 A2989 330 90 1500 000/00 RMK AO2 T02440228 $
53988KBKB BKB20190519084012005/19/19 08:40:31  5-MIN KBKB 191440Z AUTO 21003KT 10SM FEW015 SCT028 24/23 A2989 320 90 1500 210/03 RMK AO2 T02440228 $
53988KBKB BKB20190519084512705/19/19 08:45:31  5-MIN KBKB 191445Z AUTO 00000KT 10SM FEW015 FEW023 BKN028 24/23 A2989 320 90 1500 000/00 RMK AO2 T02440228 $
53988KBKB BKB20190519085011705/19/19 08:50:31  5-MIN KBKB 191450Z AUTO 00000KT 10SM FEW015 SCT023 BKN028 24/23 A2989 320 90 1500 000/00 RMK AO2 $
53988KBKB BKB20190519085512705/19/19 08:55:31  5-MIN KBKB 191455Z AUTO VRB04KT 10SM FEW013 BKN023 BKN029 25/23 A2989 320 87 1600 VRB/04 RMK AO2 T02500228 $
53988KBKB BKB20190519090012705/19/19 09:00:31  5-MIN KBKB 191500Z AUTO VRB03KT 10SM SCT013 BKN023 BKN027 26/23 A2990 320 87 1700 VRB/03 RMK AO2 T02560233 $
53988KBKB BKB20190519090512705/19/19 09:05:31  5-MIN KBKB 191505Z AUTO 00000KT 10SM BKN013 BKN023 OVC029 26/23 A2990 320 87 1700 000/00 RMK AO2 T02560233 $
53988KBKB BKB20190519091012005/19/19 09:10:31  5-MIN KBKB 191510Z AUTO VRB03KT 10SM BKN013 OVC023 26/23 A2990 320 87 1700 VRB/03 RMK AO2 T02560233 $
53988KBKB BKB20190519091512005/19/19 09:15:31  5-MIN KBKB 191515Z AUTO 00000KT 10SM BKN012 OVC023 26/23 A2990 320 84 1700 000/00 RMK AO2 T02610233 $
53988KBKB BKB20190519092026105/19/19 09:20:31  5-MIN KBKB 191520Z AUTO VRB04KT 10SM OVC012 26/24 A2990 320 87 1700 VRB/04 RMK AO2 T02610239 $05/19/19 09:25:31  5-MIT 10SM FEW005 BKN013 OVC025 23/22 A2993 25KT 10SM FEW005 BKN016 O14 OVC025 24/22 A2993 290 87 1500 VRB/03 RMK AO2 T02440222 $
53988KBKB BKB20190519111012705/19/19 11:10:31  5-MIN KBKB 191710Z AUTO VRB04KT 10SM SCT007 BKN014 OVC025 24/22 A2993 290 87 1500 VRB/04 RMK AO2 T02440222 $
53988KBKB BKB20190519111512705/19/19 11:15:31  5-MIN KBKB 191715Z AUTO VRB04KT 10SM SCT007 BKN014 OVC029 24/22 A2992 290 87 1500 VRB/04 RMK AO2 T02440222 $
53988KBKB BKB20190519112012705/19/19 11:20:31  5-MIN KBKB 191720Z AUTO VRB03KT 10SM BKN007 BKN014 OVC031 24/23 A2992 290 90 1500 VRB/03 RMK AO2 T02440228 $
53988KBKB BKB20190519112513905/19/19 11:25:31  5-MIN KBKB 191725Z AUTO 12004KT 10SM BKN007 BKN014 BKN029 25/23 A2992 300 87 1600 120/04 RMK AO2 CIG 006V011 T02500228 $
53988KBKB BKB20190519113012705/19/19 11:30:31  5-MIN KBKB 191730Z AUTO VRB04KT 10SM SCT007 BKN014 BKN030 26/23 A2992 300 84 1600 VRB/04 RMK AO2 T02560228 $
53988KBKB BKB20190519113512705/19/19 11:35:31  5-MIN KBKB 191735Z AUTO VRB03KT 10SM FEW008 SCT014 BKN030 27/23 A2992 300 82 1800 VRB/03 RMK AO2 T02670233 $
53988KBKB BKB20190519114012705/19/19 11:40:31  5-MIN KBKB 191740Z AUTO VRB03KT 10SM FEW008 BKN012 BKN030 27/23 A2992 300 82 1800 VRB/03 RMK AO2 T02670233 $
53988KBKB BKB20190519114512705/19/19 11:45:31  5-MIN KBKB 191745Z AUTO VRB04KT 10SM FEW008 BKN012 BKN030 27/23 A2992 300 82 1800 VRB/04 RMK AO2 T02670233 $
53988KBKB BKB20190519115011705/19/19 11:50:31  5-MIN KBKB 191750Z AUTO VRB03KT 10SM FEW008 BKN012 BKN030 27/23 A2992 300 79 1800 VRB/03 RMK AO2 $
53988KBKB BKB20190519115512005/19/19 11:55:31  5-MIN KBKB 191755Z AUTO VRB04KT 10SM BKN012 BKN030 27/23 A2991 300 82 1800 VRB/04 RMK AO2 T02670233 $
53988KBKB BKB20190519120011305/19/19 12:00:31  5-MIN KBKB 191800Z AUTO VRB05KT 10SM OVC012 27/23 A2991 310 82 1800 VRB/05 RMK AO2 T02670233 $
53988KBKB BKB20190519120511305/19/19 12:05:31  5-MIN KBKB 191805Z AUTO VRB04KT 10SM OVC012 27/23 A2991 310 82 1800 VRB/04 RMK AO2 T02670233 $
53988KBKB BKB20190519121011305/19/19 12:10:31  5-MIN KBKB 191810Z AUTO VRB03KT 10SM OVC012 27/23 A2991 310 82 1800 VRB/03 RMK AO2 T02670233 $
53988KBKB BKB20190519121511305/19/19 12:15:31  5-MIN KBKB 191815Z AUTO VRB06KT 10SM OVC012 27/23 A2991 310 82 1800 VRB/06 RMK AO2 T02670233 $
53988KBKB BKB20190519122021505/19/19 12:20:31  5-MIN KBKB 191820Z AUTO VRB03KT 10SM OVC012 27/23 A2990 310 82 1800 VRB/03 RMK AO2 T02670233 $05/19/19 12:25:31  5-MIO VRB04KT 10SM BKN014 OVC020 27/23 A2990 310 82 1800 VRB/04 RMK AO2 T02670233 $
53988KBKB BKB20190519124012905/19/19 12:40:31  5-MIN KBKB 191840Z AUTO VRB06KT 10SM TS BKN014 OVC020 26/23 A2990 320 84 1700 VRB/06 RMK AO2 TSB40 T02610233 $
53988KBKB BKB20190519124512905/19/19 12:45:31  5-MIN KBKB 191845Z AUTO 00000KT 10SM TS BKN014 OVC022 26/23 A2990 320 84 1700 000/00 RMK AO2 TSB40 T02610233 $
53988KBKB BKB20190519125014305/19/19 12:50:31  5-MIN KBKB 191850Z AUKB 192000Z AUTO VRB03KT 10SM TS FEW014 BKN018 BKN023 26/23 A2990 320 84 1700 VRB/03 RMK AO2 T02560228 $
53988KBKB BKB20190519140512905/19/19 14:05:31  5-MIN KBKB 192005Z AUTO VRB05KT 10SM TS FEW014 BKN020 26/23 A2990 320 84 1700 VRB/05 RMK AO2 TSB03 T02560228 $
53988KBKB BKB20190519141018705/19/19 14:10:31  5-MIN KBKB 192010Z AUTO VRB04KT 10SM TS FEW014 BKN020 BKN024 26/23 A2990 320 84 1700 VRB/04 RMK AO2 TSB03 T02560228 $05/19/19 14:15:MK AO2 TSB2124B2137E2153 T02500228 $
53988KBKB BKB20190519161012405/19/19 16:10:31  5-MIN KBKB 192210Z AUTO VRB03KT 10SM 25/23 A2989 330 87 1600 VRB/03 RMK AO2 TSB2124B2137E2153 T02500228 $
53988KBKB BKB20190519161512405/19/19 16:15:31  5-MIN KBKB 192215Z AUTO 00000KT 10SM 25/23 A2988 330 87 1600 000/00 RMK AO2 TSB2124B2137E2153 T02500228 $
53988KBKB BKB20190519162013805/19/19 16:20:31  5-MIN KBKB 192220Z AUTO 00000KT 10SM BKN017 BKN023 25/23 A2988 340 87 1600 000/00 RMK AO2 TSB2124B2137E2153 T02500228 $
53988KBKB BKB20190519162515405/19/19 16:25:31  5-MIN KBKB 192225Z AUTO 15004KT 10SM -RA BKN015 BKN023 24/23 A2988 340 90 1600 150/04 RMK AO2 RAB21 TSB2124B2137E2153 P0000 T02440228 $
53988KBKB BKB20190519163016105/19/19 16:30:31  5-MIN KBKB 192230Z AUTO 00000KT 10SM -RA BKN015 BKN022 OVC040 24/23 A2988 330 90 1500 000/00 RMK AO2 RAB21 TSB2124B2137E2153 P0000 T02440228 $
53988KBKB BKB20190519163515405/19/19 16:35:31  5-MIN KBKB 192235Z AUTO 00000KT 10SM -RA BKN015 BKN021 24/23 A2989 330 93 1500 000/00 RMK AO2 RAB21 TSB2124B2137E2153 P0000 T02440233 $
53988KBKB BKB20190519164014705/19/19 16:40:31  5-MIN KBKB 192240Z AUTO 00000KT 10SM -RA OVC015 24/23 A2989 330 93 1500 000/00 RMK AO2 RAB21 TSB2124B2137E2153 P0000 T02440233 $
53988KBKB BKB20190519164514605/19/19 16:45:31  5-MIN KBKB 192245Z AUTO 00000KT 10SM OVC014 24/23 A2989 330 93 1500 000/00 RMK AO2 RAB21E45 TSB2124B2137E2153 P0000 T02440233 $
53988KBKB BKB20190519165016005/19/19 16:50:31  5-MIN KBKB 192250Z AUTO VRB04KT 10SM BKN012 OVC018 24/23 A2989 330 93 1500 VRB/04 RMK AO2 RAB21E45 TSB2124B2137E2153 SLP146 P0000 T02440233 $
53988KBKB BKB20190519165512405/19/19 16:55:31  5-MIN KBKB 192255Z B 200055Z AUTO 00000KT 10SM SCT027 23/23 A2989 330 100 1400 000/00 RMK AO2 T02330233 $
53988KBKB BKB20190519190011405/19/19 19:00:31  5-MIN KBKB 200100Z AUTO 00000KT 10SM SCT027 23/23 A2989 320 100 1400 000/00 RMK AO2 T02330233 $
53988KBKB BKB20190519190511305/19/19 19:05:31  5-MIN KBKB 200105Z AUTO 00000KT 10SM SCT027 23/23 A2989 330 97 1400 000/00 RMK AO2 T02330228 $
53988KBKB BKB20190519191012605/19/19 19:10:31  5-MIN KBKB 200110Z AUTO 00000KT 10SM SCT027 23/23 A2989 330 97 A2989 330 97 1400 000/00 RMK AO2 T02330228 $
53988KBKB BKB20190519203011005/19/19 20:30:31  5-MIN KBKB 200230Z AUTO 00000KT 10SM CLR 23/23 A2989 320 97 1400 000/00 RMK AO2 T02330228 $
53988KBKB BKB20190519203511005/19/19 20:35:31  5-MIN KBKB 200235Z AUTO 00000KT 10SM CLR 23/22 A2989 320 93 1400 000/00 RMK AO2 T02330222 $
53988KBKB BKB20190519204011005/19/19 20:40:31  5-MIN KBKB 200240Z AUTO 12003KT 10SM CLR 23/22 A2989 320 93 1400 110/03 RMK AO2 T02330222 $
53988KBKB BKB20190519204511005/19/19 20:45:31  5-MIN KBKB 200245Z AUTO 00000KT 10SM CLR 23/22 A2989 320 97 1300 000/00 RMK AO2 T02280222 $
53988KBKB BKB20190519205011705/19/19 20:50:31  5-MIN KBKB 200250Z AUTO 00000KT 10SM CLR 23/22 A2990 320 93 1400 000/00 RMK AO2 SLP150 T02330222 $
53988KBKB BKB20190519205511005/19/19 20:55:31  5-MIN KBKB 200255Z AUTO 00000KT 10SM CLR 23/22 A2990 320 97 1300 000/00 RMK AO2 T02280222 $
53988KBKB BKB20190519210011005/19/19 21:00:31  5-MIN KBKB 200300Z AUTO 00000KT 10SM CLR 23/22 A2990 310 97 1300 000/00 RMK AO2 T02280222 $
53988KBKB BKB20190519210511005/19/19 21:05:31  5-MIN KBKB 200305Z AUTO 00000KT 10SM CLR 23/22 A2991 310 97 1300 000/00 RMK AO2 T02280222 $
53988KBKB BKB20190519211011005/19/19 21:10:31  5-MIN KBKB 200310Z AUTO 00000KT 10SM CLR 23/22 A2991 300 97 1300 000/00 RMK AO2 T02280222 $
53988KBKB BKB20190519211511005/19/19 21:15:31  5-MIN KBKB 200315Z AUTO 00000KT 10SM CLR 23/22 A2992 300 97 1300 000/00 RMK AO2 T02280222 $
53988KBKB BKB20190519212011005/19/19 21:20:31  5-MIN KBKB 200320Z AUTO 00000KT 10SM CLR 23/22 A2992 300 97 1300 000/00 RMK AO2 T02280222 $
53988KBKB BKB20190519212511005/19/19 21:25:31  5-MIN KBKB 200325Z AUTO 00000KT 10SM CLR 23/22 A2992 300 97 1300 000/00 RMK AO2 T02280222 $
53988KBKB BKB20190519213011005/19/19 21:30:31  5-MIN KBKB 200330Z AUTO 00000KT 10SM CLR 23/22 A2992 300 97 1300 000/00 RMK AO2 T02280222 $
53988KBKB BKB20190519213511005/19/19 21:35:31  5-MIN KBKB 200335Z AUTO 00000KT 10SM CLR 23/22 A2992 300 93 1300 000/00 RMK AO2 T02280217 $
53988KBKB BKB20190519214011005/19/19 21:40:31  5-MIN KBKB 200340Z AUTO 00000KT 10SM CLR 23/22 A2992 300 93 1300 000/00 RMK AO2 T02280217 $
53988KBKB BKB20190519214511005/19/19 21:45:31  5-MIN KBKB 200345Z AUTO 00000KT 10SM CLR 23/22 A2992 300 93 1300 000/00 RMK AO2 T02280217 $
53988KBKB BKB20190519215011705/19/19 21:50:31  5-MIN KBKB 200350Z AUTO 00000KT 10SM CLR 23/22 A2992 300 90 1400 000/00 RMK AO2 SLP158 T02330217 $
53988KBKB BKB20190519215514005/19/19 21:55:31  5-MIN KBKB 200355Z AUTO 00000KT 10SM CLR 23/22 A2992 300 93 1300 000/00 RMK AO2 T02280293 1300 000/00 RMK AO2 T02280217 $
53988KBKB BKB20190519223511005/19/19 22:35:31  5-MIN KBKB 200435Z AUTO 00000KT 10SM CLR 23/22 A2992 290 93 1300 000/00 RMK AO2 T02280217 $
53988KBKB BKB20190519224011005/19/19 22:40:31  5-MIN KBKB 200440Z AUTO 00000KT 10SM CLR 23/22 A2993 290 93 1300 000/00 RMK AO2 T02280217 $
53988KBKB BKB20190519224511005/19/19 22:45:31  5-MIN KBKB 200445Z AUTO 14003KT 10SM CLR 23/22 A2992 300 93 1300 140/03 RMK AO2 T02280217 $
53988KBKB BKB20190520060511905/20/19 06:05:31  5-MIN KBKB 201205Z AUTO 12003KT 2 1/2SM BR OVC002 23/22 A2995 270 97 1300 120/03 RMK AO2 T02280222 $
53988KBKB BKB20190520061011505/20/19 06:10:31  5-MIN KBKB 201210Z AUTO 00000KT 2SM BR OVC002 23/22 A2995 270 97 1300 000/00 RMK AO2 T02280222 $
53988KBKB BKB20190520061511905/20/19 06:15:31  5-MIN KBKB 201215Z AUTO 00000KT 1 3/4SM BR OVC002 23/22 A2995 270 97 1300 000/00 RMK AO2 T02280222 $
53988KBKB BKB20190520062011905/20/19 06:20:31  5-MIN KBKB 201220Z AUTO 00000KT 1 1/4SM BR OVC002 23/22 A2995 270 97 1300 000/00 RMK AO2 T02280222 $
53988KBKB BKB20190520062511605/20/19 06:25:31  5-MIN KBKB 201225Z AUTO 00000KT 1SM BR OVC002 23/23 A2995 270 100 1300 000/00 RMK AO2 T02280228 $
53988KBKB BKB20190520063011605/20/19 06:30:31  5-MIN KBKB 201230Z AUTO VRB03KT 1SM BR OVC002 23/23 A2995 270 100 1300 VRB/03 RMK AO2 T02280228 $
53988KBKB BKB20190520063512005/20/19 06:35:31  5-MIN KBKB 201235Z AUTO VRB03KT 1 1/4SM BR OVC002 23/23 A2995 270 100 1300 VRB/03 RMK AO2 T02280228 $
53988KBKB BKB20190520064012005/20/19 06:40:31  5-MIN KBKB 201240Z AUTO 14003KT 1 1/2SM BR OVC002 23/23 A2995 270 100 1300 130/03 RMK AO2 T02280228 $
53988KBKB BKB20190520064512005/20/19 06:45:31  5-MIN KBKB 201245Z AUTO 00000KT 1 3/4SM BR OVC002 23/23 A2995 270 100 1300 000/00 RMK AO2 T02280228 $
53988KBKB BKB20190520065012705/20/19 06:50:31  5-MIN KBKB 201250Z AUTO 00000KT 1 3/4SM BR OVC002 23/23 A2995 270 100 1300 000/00 RMK AO2 SLP169 T02280228 $
53988KBKB BKB20190520065512005/20/19 06:55:31  5-MIN KBKB 201255Z AUTO 00000KT 1 1/2SM BR OVC002 23/23 A2995 270 100 1300 000/00 RMK AO2 T02280228 $
53988KBKB BKB20190520070012005/20/19 07:00:31  5-MIN KBKB 201300Z AUTO VRB03KT 1 1/2SM BR OVC002 23/23 A2995 270 100 1300 VRB/03 RMK AO2 T02280228 $
53988KBKB BKB20190520070511905/20/19 07:05:31  5-MIN KBKB 201305Z AUTO VRB03KT 1 3/4SM BR OVC002 23/23 A2996 270 97 1300 VRB/03 RMK AO2 T02330228 $
53988KBKB BKB20190520071011505/20/19 07:10:31  5-MIN KBKB 201310Z AUTO VRB03KT 2SM BR OVC002 23/23 A2996 270 97 1300 VRB/03 RMK AO2 T02330228 $
53988KBKB BKB20190520071511905/20/19 07:15:31  5-MIN KBKB 201315Z AUTO VRB03KT 2 1/2SM BR OVC002 23/23 A2996 260 97 1300 VRB/03 RMK AO2 T02330228 $
53988KBKB BKB20190520072011505/20/19 07:20:31  5-MIN KBKB 201320Z AUTO VRB03KT 3SM BR OVC002 23/23 A2996 260 97 1300 VRB/03 RMK AO2 T02330228 $
53988KBKB BKB20190520072510105/20/19 07:25:31  5-MIN KBKB 201325Z AUTO VRB03KT 3SM BR 1500 VRB/03 RMK AO2 CIG 006V010 T02500233 $
53988KBKB BKB20190520073511605/20/19 07:35:31  5-MIN KBKB 201335Z AUTO 00000KT 5SM BR OVC003 23/23 A2996 260 100 1300 000/00 RMK AO2 T02330233 $
53988KBKB BKB20190520074011505/20/19 07:40:31  5-MIN KBKB 201340Z AUTO 00000KT 6SM BR OVC003 24/23 A2996 260 97 1400 000/00 RMK AO2 T02390233 $
53988KBKB BKB20190520074512705/20/19 07:45:31  5-MIN KBKB 201345Z AUTO VRB03KT 6SM BR OVC003 24/23 A2996 260 97 1400 VRB/03 RMK AO2 CIG 003V007 T02390233 $
53988KBKB BKB20190520075013105/20/19 07:50:31  5-MIN KBKB 201350Z AUTO 14004KT 7SM OVC004 24/23 A2996 260 97 1400 130/04 RMK AO2 CIG 003V007 SLP171 T02390233 $
53988KBKB BKB20190520075511205/20/19 07:55:31  5-MIN KBKB 201355Z AUTO 00000KT 8SM OVC004 24/23 A2996 260 93 1500 000/00 RMK AO2 T02440233 $
53988KBKB BKB20190520080012405/20/19 08:00:31  5-MIN KBKB 201400Z AUTO VRB05KT 8SM OVC004 24/23 A2996 260 93 1500 VRB/05 RMK AO2 CIG 003V008 T02440233 $
53988KBKB BKB20190520080512405/20/19 08:05:31  5-MIN KBKB 201405Z AUTO VRB05KT 9SM OVC005 24/23 A2996 260 93 1500 VRB/05 RMK AO2 CIG 004V009 T02440233 $
53988KBKB BKB20190520081012405/20/19 08:10:31  5-MIN KBKB 201410Z AUTO VRB04KT 9SM OVC007 24/23 A2996 260 93 1500 VRB/04 RMK AO2 CIG 005V009 T02440233 $
53988KBKB BKB20190520081512405/20/19 08:15:31  5-MIN KBKB 201415Z AUTO VRB03KT 9SM OVC007 24/23 A2996 260 93 1500 VRB/03 RMK AO2 CIG 005V011 T02440233 $
53988KBKB BKB20190520082012405/20/19 08:20:31  5-MIN KBKB 201420Z AUTO VRB03KT 9SM OVC007 24/23 A2996 260 93 1500 VRB/03 RMK AO2 CIG 005V011 T02440233 $
53988KBKB BKB20190520082512505/20/19 08:25:31  5-MIN KBKB 201425Z AUTO VRB03KT 10SM OVC007 24/23 A2996 260 93 1500 VRB/03 RMK AO2 CIG 006V011 T02440233 $
53988KBKB BKB20190520083012505/20/19 08:30:31  5-MIN KBKB 201430Z AUTO VRB03KT 10SM OVC007 25/23 A2996 260 90 1500 VRB/03 RMK AO2 CIG 006V010 T02500233 $
53988KBKB BKB20190520083513205/20/19 08:35:31  5-MIN KBKB 201435Z AUTO VRB03KT 10SM BKN008 OVC013 25/23 A2996 260 90 1500 VRB/03 RMK AO2 CIG 006V010 T02500233 $
53988KBKB BKB20190520084012505/20/19 08:40:31  5-MIN KBKB 201440Z AUTO VRB04KT 10SM OVC008 26/23 A2996 260 87 1600 VRB/04 RMK AO2 CIG 006V012 T02560233 $
53988KBKB BKB20190520084512505/20/19 08:45:31  5-MIN KBKB 201445Z AUTO 00000KT 10SM OVC008 26/23 A2996 260 87 1600 000/00 RMK AO2 CIG 006V014 T02560233 $
53988KBKB BKB20190520085012905/20/19 08:50:31  5-MIN KBKB 201450Z AUTO 00000KT 10SM BKN010 BKN016 OVC024 26/23 A2996 260 87 1600 000/00 RMK AO2 CIG 007V013 $
53988KBKB BKB20190520085015105/20/19 08:50:31  5-MIN KBKB 201450Z AUTO 00000KT 10SM BKN010 BKN016 OVC024 26/23 013 BKN023 OVC028 27/24 A2996 260 82 1800 VRB/04 RMK AO2 T02720239 $
53988KBKB BKB20190520085513905/20/19 08:55:31  5-MIN KBKB 201455Z AUTO VRB05KT 10SM BKN010 BKN016 OVC022 26/23 A2996 260 87 1600 VRB/05 RMK AO2 CIG 008V014 T02560233 $
53988KBKB BKB20190520090012705/20/19 09:00:31  5-MIN KBKB 201500Z AUTO VRB04KT 10SM BKN010 BKN018 OVC024 26/23 A2996 260 84 1600 VRB/04 RMK AO2 T02610233 $
53988KBKB BKB20190520090512705/20/19 09:05:31  5-MIN KBKB 201505Z AUTO VRB04KT 10SM BKN010 BKN018 OVC024 26/24 A2996 260 87 1600 VRB/04 RMK AO2 T02610239 $
53988KBKB BKB20190520091012705/20/19 09:10:31  5-MIN KBKB 201510Z AUTO VRB04KT 10SM BKN013 BKN023 OVC028 27/24 A2996 260 82 1800 VRB/04 RMK AO2 T02720239 $
53988KBKB BKB20190520091512705/20/19 09:15:31  5-MIN KBKB 201515Z AUTO VRB03KT 10SM BKN013 BKN019 OVC026 28/24 A2996 260 79 1800 VRB/03 RMK AO2 T02780239 $
53988KBKB BKB20190520092011405/20/19 09:20:31  5-MIN KBKB 201520Z AB06KT 10SM FEW027 SCT036 30/23 A2993 290 65 2100 VRB/06 RMK AO2 T03000228 $
53988KBKB BKB20190520092012705/20/19 09:20:31  5-MIN KBKB 201520Z AUTO 14006KT 10SM SCT014 BKN021 BKN028 27/24 A2996 260 82 1800 140/06 RMK AO2 T02720239 $
53988KBKB BKB20190520092512705/20/19 09:25:31  5-MIN KBKB 201525Z AUTO VRB05KT 10SM SCT014 BKN023 BKN028 27/23 A2996 260 79 1800 VRB/05 RMK AO2 T02720233 $
53988KBKB BKB20190520093012705/20/19 09:30:31  5-MIN KBKB 201530Z AUTO VRB05KT 10SM SCT014 BKN023 BKN028 28/24 A2996 260 79 1800 VRB/05 RMK AO2 T02780239 $
53988KBKB BKB20190520093512705/20/19 09:35:31  5-MIN KBKB 201535Z AUTO VRB04KT 10SM SCT014 SCT021 BKN028 27/23 A2996 270 79 1800 VRB/04 RMK AO2 T02720233 $
53988KBKB BKB20190520094011705/20/19 09:40:31  5-MIN KBKB 201540Z AUTO 10SM SCT015 SCT021 BKN028 27/23 A2996 270 79 1800 M /M RMK AO2 T02720233 $
53988KBKB BKB20190520094512705/20/19 09:45:31  5-MIN KBKB 201545Z AUTO VRB04KT 10SM FEW014 SCT020 BKN028 28/23 A2995 270 76 1800 VRB/04 RMK AO2 T02780233 $
53988KBKB BKB20190520095013405/20/19 09:50:31  5-MIN KBKB 201550Z AUTO VRB04KT 10SM FEW014 SCT019 BKN026 28/23 A2995 270 76 1800 VRB/04 RMK AO2 SLP167 T02780233 $
53988KBKB BKB20190520095511005/20/19 09:55:31  5-MIN KBKB 201555Z AUTO VRB05KT 10SM FEW0193 290 65 2100 150/07 120V210 RMK AO2 T03000228 $
53988KBKB BKB20190520111513605/20/19 11:15:31  5-MIN KBKB 201715Z AUTO 15007KT 120V210 10SM FEW027 SCT034 30/23 A2993 290 65 2100 150/07 120V210 RMK AO2 T03000228 $
53988KBKB BKB20190520112011305/20/19 11:20:31  5-MIN KBKB 201720Z AUTO VRB04KT 10SM SCT034 30/23 A2993 290 65 2100 VRB/04 RMK AO2 T03000228 $
53988KBKB BKB20190520112513405/20/19 11:25:31  5-MIN KBKB 201725Z AUTO 15008G14KT 070V10SM SCT030 BKN036 BKN044 31/23 A2992 300 65 2200 VRB/06 RMK AO2 T03060233 $
53988KBKB BKB20190520112513505/20/19 11:25:31  5-MIN KBKB 201725Z AUTO 15008G14KT 070V190 10SM SCT034 31/23 A2993 290 62 2200 140/08G14 070V190 RMK AO2 T03060228 $
53988KBKB BKB20190520113011905/20/19 11:30:31  5-MIN KBKB 201730Z AUTO 10SM SCT036 31/23 A2993 290 62 2200 M /M RMK AO2 T030228 10306 20228 51002 $
53988KBKB BKB20190520115512005/20/19 11:55:31  5-MIN KBKB 201755Z AUTO VRB04KT 10SM SCT034 BKN043 30/23 A2992 300 67 2100 VRB/04 RMK AO2 T03000233 $
53988KBKB BKB20190520120012705/20/19 12:00:31  5-MIN KBKB 201800Z AUTO VRB04KT 10SM FEW030 BKN038 BKN046 29/23 A2992 300 69 2100 VRB/04 RMK AO2 T02940233 $
53988KBKB BKB20190520120512705/20/19 12:05:31  5-MIN KBKB 201805Z AUTO VRB06KT 10SM SCT030 BKN036 BKN044 31/23 A2992 300 65 2200 VRB/06 RMK AO2 T03060233 $
53988KBKB BKB20190520121012705/20/19 12:10:31  5-MIN KBKB 201810Z AUTO VRB05KT 10SM SCT030 BKN037 BKN046 31/23 A2992 300 65 2200 VRB/05 RMK AO2 T03060233 $
53988KBKB BKB20190520121512705/20/19 12:15:31  5-MIN KBKB 201815Z AUTO VRB05KT 10SM BKN030 BKN037 BKN046 29/23 A2992 300 67 2100 VRB/05 RMK AO2 T02940228 $
53988KBKB BKB20190520122012405/20/19 12:20:31  5-MIN KBKB 201820Z AUTO 00000KT 10SM BKN030 31/22 A2987 350 60 2200 140/09G17 110V180 RMK AO2 T03060222 $
53988KBKB BKB20190520122018605/20/19 12:20:31  5-MIN KBKB 201820Z AUTO 00000KT 10SM BKN030 BKN037 BKN048 31/23 A2991 300 65 2200 000/00 RMK AO2 T03060233 $ VRB06KT 31/22 A2989 320 58 2300 VRB/06 RMK AO2 T03110222 $
53988KBKB BKB20190520130510605/20/19 13:05:31  5-MIN KBKB 201905Z AUTO VRB06KT 10SM 32/22 A2989 330 55 2300 VRB/06 RMK AO2 T03170217 $
53988KBKB BKB20190520131009605/20/19 13:10:31  5-MIN KBKB 201910Z AUTO 10SM 32/22 A2989 330 55 2300 M /M RMK AO2 T03170217 $
53988KBKB BKB20190520131511205/20/19 13:15:31  5-MIN KBKB 201915Z AUTO 20009G15KT 10SM 32/22 A2989 330 56 2300 200/09G15 RMK AO2 T03170222 $
53988KBKB BKB20190520132011205/20/19 13:20:31  5-MIN KBKB 201920Z AUTO 20006G15KT 10SM 32/22 A2989 330 56 2300 190/06G15 RMK AO2 T03170222 $
53988KBKB BKB20190520132510005/20/19 13:25:31  5-MIN KBKB 201925Z AUTO 10SM CLR 32/22 A2989 330 55 2400 M /M RMK AO2 T03220222 $
53988KBKB BKB20190520133011005/20/19 13:30:31  5-MIN KBKB 201930Z AUTO 19006KT 10SM CLR 32/22 A2988 330 55 2400 190/06 RMK AO2 T03170217 $
53988KBKB BKB20190520133511005/20/19 13:35:31  5-MIN KBKB 201935Z AUTO VRB05KT 10SM CLR 32/22 A2988 330 55 2400 VRB/05 RMK AO2 T03170217 $
53988KBKB BKB20190520134011005/20/19 13:40:31  5-MIN KBKB 201940Z AUTO VRB06KT 10SM CLR 32/22 A2988 330 55 2400 VRB/06 RMK AO2 T03220222 $
53988KBKB BKB20190520134511005/20/19 13:45:31  5-MIN KBKB 201945Z AUTO VRB05KT 10SM CLR 32/22 A2988 330 56 2400 VRB/05 RMK AO2 T03170222 $
53988KBKB BKB20190520135012005/20/19 13:50:31  5-MIN KBKB 201950Z AUTO VRB06KT 10SM FEW041 32/22 A2988 330 56 2400 VRB/06 RMK AO2 SLP144 T03170222 $
53988KBKB BKB20190520135512905/20/19 13:55:31  5-MIN KBKB 201955Z AUTO 19007KT 160V230 10SM FEW041 32/22 A2988 340 55 2400 190/07 160V230 RMK AO2 T03170217 $
53988KBKB BKB20190520140011305/20/19 14:00:31  5-MIN KBKB 202000Z AUTO VRB05KT 10SM FEW043 32/22 A2988 340 56 2400 VRB/05 RMK AO2 T03170222 $
53988KBKB BKB20190520140511305/20/19 14:05:31  5-MIN KBKB 202005Z AUTO VRB06KT 10SM SCT041 32/22 A2988 340 55 2400 VRB/06 RMK AO2 T03220222 $
53988KBKB BKB20190520141011305/20/19 14:10:31  5-MIN KBKB 202010Z AUTO VRB04KT 10SM SCT039 32/22 A2988 340 56 2400 VRB/04 RMK AO2 T03170222 $
53988KBKB BKB20190520141511305/20/19 14:15:31  5-MIN KBKB 202015Z AUTO VRB04KT 10SM SCT039 32/23 A2987 340 58 2400 VRB/04 RMK AO2 T03170228 $
53988KBKB BKB20190520142012005/20/19 14:20:31  5-MIN KBKB 202020Z AUTO 15007KT 10SM SCT039 BKN048 31/23 A2988 340 60 2300 150/07 RMK AO2 T03110228 $
53988KBKB BKB20190520142512005/20/19 14:25:31  5-MIN KBKB 202025Z AUTO VRB05KT 10SM SCT040 SCT055 31/22 A2987 340 60 2200 VRB/05 RMK AO2 T03060222 $
53988KBKB BKB20190520143012005/20/19 14:30:31  5-MIN KBKB 202030Z AUTO VRB05KT 10SM SCT038 SCT048 30/22 A2987 340 62 2200 VRB/05 RMK AO2 T03000222 $
53988KBKB BKB20190520143512005/20/19 14:35:31  5-MIN KBKB 202035Z AUTO VRB05KT 10SM SCT038 SCT048 31/22 A2987 350 58 2300 VRB/05 RMK AO2 T03110222 $
53988KBKB BKB20190520144012005/20/19 14:40:31  5-MIN KBKB 202040Z AUTO VRB05KT 10SM SCT039 SCT048 32/22 A2987 350 56 2400 VRB/05 RMK AO2 T03170222 $
53988KBKB BKB20190520144514205/20/19 14:45:31  5-MIN KBKB 202045Z AUTO 14009G17KT 110V180 10SM SCT039 BKN048 31/22 A2987 350 60 2200 140/09G17 110V180 RMK AO2 T03060222 $
53988KBKB BKB20190520145015605/20/19 14:50:31  5-MIN KBKB 202050Z AUTO 17007G17KT 130V220 10SM FEW039 SCT046 SCT080 30/22 A2987 350 60 2200 170/07G17 130V220 RMK AO2 SLP139 T03000217 $
53988KBKB BKB20190520145505405/20/19 14:55:31  5-MIN KBKB 202055Z AUTO VR3170217 $
53988KBKB BKB20190520145512705/20/19 14:55:31  5-MIN KBKB 202055Z AUTO VRB06KT 10SM FEW039 SCT048 SCT080 32/23 A2987 350 58 2400 VRB/06 RMK AO2 T03170228 $
53988KBKB BKB20190520150014905/20/19 15:00:31  5-MIN KBKB 202100Z A05/20/19 17:10:31  5-MIN KBKB 202310Z AUTO VRB03KT 10SM CLR 29/22 A2983 380 64 2200 VRB/03 RMK AO2 T02940222 $
53988KBKB BKB20190520155012005/20/19 15:50:31  5-MIN KBKB 202150Z AUTO VRB06KT 10SM FEW043 31/21 A2985 360 54 2300 VRB/06 RMK AO2 SLP133 T03110211 $
53988KBKB BKB20190520155511305/20/19 15:55:31  5-MIN KBKB 202155Z AUTO VRB06KT 10SM FEW043 31/21 A2985 360 54 2300 VRB/06 RMK AO2 T03110211 $
53988KBKB BKB20190520160019505/20/19 16:00:31  5-MIN KBKB 202200Z AUTO VRB04KT 10SM FEW043 SCT050 31/22 A2985 360 56 2300 VRB/04 RMK AO2 T03110217 $05/20/19 16:05: 10SM CLR 29/22 A2983 380 64 2200 VRB/06 RMK AO2 T02940222 $
53988KBKB BKB20190520170511005/20/19 17:05:31  5-MIN KBKB 202305Z AUTO VRB06KT 10SM CLR 29/22 A2983 380 64 2200 VRB/06 RMK AO2 T02940222 $
53988KBKB BKB20190520171011005/20/19 17:10:31  5-MIN KBKB 202310Z AUTO VRB03KT 10SM CLR 29/22 A2983 380 64 2200 VRB/03 RMK AO2 T02940222 $
53988KBKB BKB20190520171511005/20/19 17:15:31  5-MIN KBKB 202315Z AUTO 13006KT 10SM CLR 29/22 A2983 380 64 2200 130/06 RMK AO2 T02940222 $
53988KBKB BKB20190520172011005/20/19 17:20:31  5-MIN KBKB 202320Z AUTO VRB04KT 10SM CLR 29/22 A2983 380 64 2200 VRB/04 RMK AO2 T02940222 $
53988KBKB BKB20190520172512605/20/19 17:25:31  5-MIN KBKB 202325Z AUTO 18007KT 130V300 10SM CLR 29/22 A2983 380 64 2200 180/07 130V300 RMK AO2 T02940222 $
53988KBKB BKB20190520173011005/20/19 17:30:31  5-MIN KBKB 202330Z AUTO VRB06KT 10SM CLR 29/22 A2983 380 64 2200 VRB/06 RMK AO2 T02940222 $
53988KBKB BKB20190520173511005/20/19 17:35:31  5-MIN KBKB 202335Z AUTO VRB04KT 10SM CLR 29/22 A2983 380 67 2100 VRB/04 RMK AO2 T02890222 $
53988KBKB BKB20190520174008805/20/19 17:40:31  5-MIN KBKB 202340Z AUTO VRB04KT 10SM CLR 29/22 A2983K AO2 T02670228 $
53988KBKB BKB20190520174011005/20/19 17:40:31  5-MIN KBKB 202340Z AUTO VRB04KT 10SM CLR 29/22 A2983 390 67 2100 VRB/04 RMK AO2 T02890222 $
53988KBKB BKB20190520174511005/20/19 17:45:31  5-MIN KBKB 202345Z AUTO VRB04KT 10SM CLR 28/22 A2982 390 69 2000 VRB/04 RMK AO2 T02830222 $
53988KBKB BKB20190520174511705/20/19 17:45:31  5-MIN KBKB 202345Z AUTO VRB04KT 10SM CLR 28/22 A2982 390 69 2000 VRB/04 VRB/04 RMK AO2 T02830222 $
53988KBKB BKB20190520175014505/20/19 17:50:31  5-MIN KBKB 202350Z AUTO 16007KT 120V210 10SM CLR 28/22 A2982 390 69 2100 150/07 120V210 RMK AO2 SLP123 T02830222 10322 20283 $
53988KBKB BKB20190520175511005/20/19 17:55:31  5-MIN KBKB 202355Z AUTO VRB04KT 10SM CLR 28/22 A2982 390 69 2100 VRB/04 RMK AO2 T02830222 $
53988KBKB BKB20190520180011005/20/19 18:00:31  5-MIN KBKB 210000Z AUTO VRB03KT 10SM CLR 28/22 A2982 390 69 2100 VRB/03 RMK AO2 T02830222 $
53988KBKB BKB20190520180511005/20/19 18:05:31  5-MIN KBKB 210005Z AUTO VRB04KT 10SM CLR 28/22 A2982 390 69 2100 VRB/04 RMK AO2 T02830222 $
53988KBKB BKB20190520181011005/20/19 18:10:31  5-MIN KBKB 210010Z AUTO VRB03KT 10SM CLR 28/22 A2982 390 69 2100 VRB/03 RMK AO2 T02830222 $
53988KBKB BKB20190520181511005/20/19 18:15:31  5-MIN KBKB 210015Z AUTO VRB05KT 10SM CLR 28/22 A2982 400 69 2100 VRB/05 RMK AO2 T02830222 $
53988KBKB BKB20190520182011005/20/19 18:20:31  5-MIN KBKB 210020Z AUTO VRB05KT 10SM CLR 28/22 A2981 400 71 2000 VRB/05 RMK AO2 T02780222 $
53988KBKB BKB20190520182510005/20/19 18:25:31  5-MIN KBKB 210025Z AUTO 10SM CLR 28/22 A2981 400 71 2000 M /M RMK AO2 T02780222 $
53988KBKB BKB20190520183007505/20/19 18:30:31  5-MIN KBKB 210030Z AUTO VRB05KT 10SM CLR 28/22 A2981 400
53988KBKB BKB20190520184010005/20/19 18:40:31  5-MIN KBKB 210040Z AUTO 10SM CLR 27/22 A2981 400 74 1900 M /M RMK AO2 T02720222 $
53988KBKB BKB20190520184511005/20/19 18:45:31  5-MIN KBKB 210045Z AUTO VRB05KT 10SM CLR 27/22 A2981 400 74 1900 VRB/05 RMK AO2 T02720222 $
53988KBKB BKB20190520185011705/20/19 18:50:31  5-MIN KBKB 210050Z AUTO VRB04KT 10SM CLR 27/22 A2980 410 74 1900 VRB/04 RMK AO2 SLP117 T02720222 $
53988KBKB BKB20190520185511005/20/19 18:55:31  5-MIN KBKB 210055Z AUTO VRB03KT 10SM CLR 27/22 A2980 410 74 1900 VRB/03 RMK AO2 T02720222 $
53988KBKB BKB20190520190010005/20/19 19:00:31  5-MIN KBKB 210100Z AUTO 10SM CLR 27/22 A2980 410 76 1900 M /M RMK AO2 T02670222 $
53988KBKB BKB20190520190512605/20/19 19:05:31  5-MIN KBKB 210105Z AUTO 16007KT 110V210 10SM CLR 27/22 A2980 410 76 1900 150/07 110V210 RMK AO2 T02670222 $
53988KBKB BKB20190520191011005/20/19 19:10:31  5-MIN KBKB 210110Z AUTO VRB05KT 10SM CLR 27/22 A2980 410 76 1900 VRB/05 RMK AO2 T02670222 $
53988KBKB BKB20190520191511005/20/19 19:15:31  5-MIN KBKB 210115Z AUTO VRB06KT 10SM CLR 27/22 A2980 410 76 1900 VRB/06 RMK AO2 T02670222 $
53988KBKB BKB20190520192011005/20/19 19:20:31  5-MIN KBKB 210120Z AUTO VRB06KT 10SM CLR 27/22 A2980 410 76 1900 VRB/06 RMK AO2 T02670222 $
53988KBKB BKB20190520192511005/20/19 19:25:31  5-MIN KBKB 210125Z AUTO VRB04KT 10SM CLR 27/23 A2980 410 79 1900 VRB/04 RMK AO2 T02670228 $
53988KBKB BKB20190520193011005/20/19 19:30:31  5-MIN KBKB 210130Z AUTO VRB05KT 10SM CLR 27/23 A2979 410 79 1900 VRB/05 RMK AO2 T02670228 $
53988KBKB BKB20190520193510005/20/19 19:35:31  5-MIN KBKB 210135Z AUTO 10SM CLR 26/23 A2979 420 81 1800 M /M RMK AO2 T02610228 $
53988KBKB BKB20190521040512605/21/19 04:05:31  5-MIN KBKB 211005Z AUTO VRB06G20KT 10SM BKN018 OVC024 25/22 A2973 480 84 1800 VRB/06G20 RMK AO2 T02500222 $
53988KBKB BKB20190521041012005/21/19 04:10:31  5-MIN KBKB 211010Z AUTO VRB06KT 10SM BKN018 OVC024 25/22 A2972 480 84 1800 VRB/06 RMK AO2 T02500222 $
53988KBKB BKB20190521041512005/21/19 04:15:31  5-MIN KBKB 211015Z AUTO VRB05KT 10SM BKN018 OVC024 25/22 A2972 480 84 1800 VRB/05 RMK AO2 T02500222 $
53988KBKB BKB20190521042014205/21/19 04:20:31  5-MIN KBKB 211020Z AUTO 16009G19KT 120V220 10SM BKN018 OVC024 25/22 A2972 480 84 1800 160/09G19 120V220 RMK AO2 T02500222 $
53988KBKB BKB20190521042512605/21/19 04:25:31  5-MIN KBKB 211025Z AUTO VRB03G19KT 10SM BKN018 OVC024 24/22 A2972 480 87 1700 VRB/03G19 RMK AO2 T02440222 $
53988KBKB BKB20190521043011305/21/19 04:30:31  5-MIN KBKB 211030Z AUTO 16006KT 10SM OVC020 24/22 A2972 480 87 1700 160/06 RMK AO2 T02440222 $
53988KBKB BKB20190521043511005/21/19 04:35:31  5-MIN KBKB 211035Z AUTO 10SM BKN018 OVC023 24/22 A2972 480 87 1700 M /M RMK AO2 T02440222 $
53988KBKB BKB20190521044012005/21/19 04:40:31  5-MIN KBKB 211040Z AUTO VRB05KT 10SM BKN020 OVC026 25/22 A2972 480 81 1800 VRB/05 RMK AO2 T02500217 $
53988KBKB BKB20190521044510305/21/19 04:45:31  5-MIN KBKB 211045Z AUTO 10SM OVC020 24/22 A2972 480 84 1700 M /M RMK AO2 T02440217 $
53988KBKB BKB20190521045014205/21/19 04:50:31  5-MIN KBKB 211050Z AUTO 17008G18KT 130V280 10SM BKN020 24/22 A2972 490 84 1700 160/08G18 130V280 RMK AO2 SLP088 T02440217 $
53988KBKB BKB20190521045512605/21/19 04:55:31  5-MIN KBKB 211055Z AUTO VRB05G18KT 10SM BKN018 BKN023 24/22 A2972 490 84 1700 VRB/05G18 RMK AO2 T02440217 $
53988KBKB BKB20190521050011305/21/19 05:00:31  5-MIN KBKB 211100Z AUTO VRB06KT 10SM BKN020 24/22 A2972 490 84 1700 VRB/06 RMK AO2 T02440217 $
53988KBKB BKB20190521050513605/21/19 05:05:31  5-MIN KBKB 211105Z AUTO 15007KT 120V190 10SM BKN018 OVC024 24/22 A2972 490 84 1700 150/07 120V190 RMK AO2 T02440217 $
53988KBKB BKB20190521051013605/21/19 05:10:31  5-MIN KBKB 211110Z AUTO 17007KT 140V210 10SM BKN020 OVC026 24/22 A2971 490 84 1700 160/07 140V210 RMK AO2 T02440217 $
53988KBKB BKB20190521051518205/21/19 05:15:31  5-MIN KBKB 211115Z AUTO 17008KT 130V210 10SM BKN020 24/22 A2971 490 84 1700 160/08 130V210 RMK AO2 T02440217 $24/22 A2970 500 84 1800 VRB/05G17 RMK AO2 T02440217 $
53988KBKB BKB20190521054512605/21/19 05:45:31  5-MIN KBKB 211145Z AUTO VRB05G17KT 10SM SCT017 OVC023 24/22 A2970 500 84 1800 VRB/05G17 RMK AO2 T02440217 $
53988KBKB BKB20190521055016105/21/19 05:50:31  5-MIN KBKB 211150Z AUTO 17007KT 090V220 10SM BKN020 OVC025 24/22 A2971 500 84 1700 160/07 090V220 RMK AO2 SLP084 T02440217 10250 20244 56012 $
53988KBKB BKB20190521055512005/21/19 05:55:31  5-MIN KBKB 211155Z AUTO VRB05KT 10SM BKN020 OVC025 24/22 A2971 490 84 1700 VRB/05 RMK AO2 T02440217 $
53988KBKB BKB20190521060013605/21/19 06:00:31  5-MIN KBKB 211200Z AUTO 17007KT 120V220 10SM BKN020 OVC025 24/22 A2972 490 84 1700 160/07 120V220 RMK AO2 T02440217 $
53988KBKB BKB20190521060512005/21/19 06:05:31  5-MIN KBKB 211205Z AUTO VRB05KT 10SM BKN020 25/22 A2972 480 81 1800 VRB/05 RMK AO2 PRESRR T02500217 $
53988KBKB BKB20190521061012005/21/19 06:10:31  5-MIN KBKB 211210Z AUTO VRB06KT 10SM BKN020 OVC026 25/22 A2973 480 81 1800 VRB/06 RMK AO2 T02500217 $
53988KBKB BKB20190521061512005/21/19 06:15:31  5-MIN KBKB 211215Z AUTO VRB04KT 10SM BKN020 OVC026 25/22 A2972 480 81 1800 VRB/04 RMK AO2 T02500217 $
53988KBKB BKB20190521062011305/21/19 06:20:31  5-MIN KBKB 211220Z AUTO VRB05KT 10SM OVC019 25/22 A2972 480 84 1800 VRB/05 RMK AO2 T02500222 $
53988KBKB BKB20190521062513605/21/19 06:25:31  5-MIN KBKB 211225Z AUTO 19007KT 150V250 10SM BKN019 OVC025 25/22 A2972 480 81 1800 180/07 150V250 RMK AO2 T02500217 $
53988KBKB BKB20190521063012005/21/19 06:30:31  5-MIN KBKB 211230Z AUTO VRB05KT 10SM BKN019 OVC025 25/22 A2972 480 81 1800 VRB/05 RMK AO2 T02500217 $
53988KBKB BKB20190521063512005/21/19 06:35:31  5-MIN KBKB 211235Z AUTO VRB06KT 10SM BKN019 OVC025 25/22 A2973 480 81 1800 VRB/06 RMK AO2 T02500217 $
53988KBKB BKB20190521064012005/21/19 06:40:31  5-MIN KBKB 211240Z AUTO VRB05KT 10SM BKN019 BKN025 25/22 A2973 480 84 1800 VRB/05 RMK AO2 T02500222 $
53988KBKB BKB20190521064512005/21/19 06:45:31  5-MIN KBKB 211245Z AUTO VRB06KT 10SM BKN020 BKN025 25/22 A2973 470 84 1800 VRB/06 RMK AO2 T02500222 $
53988KBKB BKB20190521065012705/21/19 06:50:31  5-MIN KBKB 211250Z AUTO VRB05KT 10SM BKN020 BKN025 25/22 A2973 480 81 1800 VRB/05 RMK AO2 SLP092 T02500217 $
53988KBKB BKB20190521065512005/21/19 06:55:31  5-MIN KBKB 211255Z AUTO VRB05KT 10SM BKN020 BKN025 25/22 A2973 470 84 1800 VRB/05 RMK AO2 T02500222 $
53988KBKB BKB20190521070012005/21/19 07:00:31  5-MIN KBKB 211300Z AUTO VRB06KT 10SM BKN019 BKN025 26/22 A2973 470 81 1800 VRB/06 RMK AO2 T02560222 $
53988KBKB BKB20190521070513605/21/19 07:05:31  5-MIN KBKB 211305Z AUTO 18008KT 130V240 10SM BKN019 BKN025 26/22 A2973 470 81 1800 170/08 130V240 RMK AO2 T02560222 $
53988KBKB BKB20190521071005805/21/19 07:10:31  5-MIN KBKB 211310Z AUTO VRB06G17K0222 $
53988KBKB BKB20190521071012605/21/19 07:10:31  5-MIN KBKB 211310Z AUTO VRB06G17KT 10SM BKN019 BKN025 26/22 A2973 470 79 1800 VRB/06G17 RMK AO2 T02560217 $
53988KBKB BKB20190521071514205/21/19 07:15:31  5-MIN KBKB 211315Z AUTO 18007G17KT 120V240 10SM BKN019 BKN027 26/22 A2973 480 81 1800 180/07G17 120V240 RMK AO2 T02560222 $
53988KBKB BKB20190521072006305/21/19 07:20:31  5-MIN KBKB 211320Z AUTO M M M M /M RMK AO2 $
53988KBKB BKB20190521072517605/21/19 07:25:31  5-MIN KBKB 211325Z AUTO VRB06KT 26/22 A2974 470 79 1900 VRB/06 RMK AO2 T02610222 $BKN035 BKN042 28/22 A2976 450 69 2100 200/09G19 160V260 RMK AO2 T02780217 $
53988KBKB BKB20190521073510605/21/19 07:35:31  5-MIN KBKB 211335Z AUTO VRB05KT 10SM 26/22 A2974 460 79 1900 VRB/05 RMK AO2 T02610222 $
53988KBKB BKB20190521074010605/21/19 07:40:31  5-MIN KBKB 211340Z AUTO VRB05KT 10SM 26/22 A2975 460 79 1900 VRB/05 RMK AO2 T02610222 $
53988KBKB BKB20190521074510605/21/19 07:45:31  5-MIN KBKB 211345Z AUTO VRB05KT 10SM 26/22 A2975 460 79 1900 VRB/05 RMK AO2 T02610222 $
53988KBKB BKB20190521075012605/21/19 07:50:31  5-MIN KBKB 211350Z AUTO 17007KT 110V240 10SM BKN021 BKN027 26/22 A2975 460 79 1900 170/07 110V240 RMK AO2 $
53988KBKB BKB20190521075513605/21/19 07:55:31  5-MIN KBKB 211355Z AUTO 19007KT 130V220 10SM BKN021 BKN027 27/22 A2975 460 76 2000 180/07 130V220 RMK AO2 T02670222 $
53988KBKB BKB20190521080012005/21/19 08:00:31  5-MIN KBKB 211400Z AUTO VRB05KT 10SM BKN023 BKN029 27/22 A2975 460 76 1900 VRB/05 RMK AO2 T02670222 $
53988KBKB BKB20190521080512005/21/19 08:05:31  5-MIN KBKB 211405Z AUTO VRB05KT 10SM BKN023 OVC029 27/22 A2975 460 76 1900 VRB/05 RMK AO2 T02670222 $
53988KBKB BKB20190521081014305/21/19 08:10:31  5-MIN KBKB 211410Z AUTO 18007KT 110V230 10SM BKN023 BKN029 OVC034 27/22 A2975 460 76 1900 170/07 110V230 RMK AO2 T02670222 $
53988KBKB BKB20190521081514305/21/19 08:15:31  5-MIN KBKB 211415Z AUTO 18007KT 130V230 10SM BKN023 BKN029 OVC034 27/22 A2975 460 76 1900 180/07 130V230 RMK AO2 T02670222 $
53988KBKB BKB20190521082014905/21/19 08:20:31  5-MIN KBKB 211420Z AUTO 16009G18KT 110V220 10SM SCT024 BKN029 BKN034 27/22 A2975 460 76 1900 160/09G18 110V220 RMK AO2 T02670222 $
53988KBKB BKB20190521082514905/21/19 08:25:31  5-MIN KBKB 211425Z AUTO 18008G18KT 130V230 10SM BKN024 BKN029 BKN034 27/22 A2975 450 76 1900 170/08G18 130V230 RMK AO2 T02670222 $
53988KBKB BKB20190521083012605/21/19 08:30:31  5-MIN KBKB 211430Z AUTO VRB06G17KT 10SM BKN026 BKN033 27/22 A2975 460 71 2000 VRB/06G17 RMK AO2 T02720217 $
53988KBKB BKB20190521083512705/21/19 08:35:31  5-MIN KBKB 211435Z AUTO VRB06KT 10SM SCT024 BKN030 BKN035 27/22 A2975 460 74 2000 VRB/06 RMK AO2 T02720222 $
53988KBKB BKB20190521084011705/21/19 08:40:31  5-MIN KBKB 211440Z AUTO 10SM SCT024 BKN030 BKN035 28/22 A2975 460 71 2100 M /M RMK AO2 T02780222 $
53988KBKB BKB20190521084512705/21/19 08:45:31  5-MIN KBKB 211445Z AUTO VRB06KT 10SM SCT024 BKN030 BKN035 28/22 A2975 450 71 2100 VRB/06 RMK AO2 T02780222 $
53988KBKB BKB20190521085011005/21/19 08:50:31  5-MIN KBKB 211450Z AUTO VRB06KT 10SM BKN027 BKN035 28/22 A2976 450 71 2100 VRB/06 RMK AO2 $
53988KBKB BKB20190521085512005/21/19 08:55:31  5-MIN KBKB 211455Z AUTO VRB04KT 10SM SCT025 BKN033 28/22 A2976 440 69 2100 VRB/04 RMK AO2 T02830222 $
53988KBKB BKB20190521090011005/21/19 09:00:31  5-MIN KBKB 211500Z AUTO 10SM BKN027 BKN035 28/22 A2976 450 69 2100 M /M RMK AO2 T02830222 $
53988KBKB BKB20190521090512705/21/19 09:05:31  5-MIN KBKB 211505Z AUTO VRB05KT 10SM BKN027 BKN035 BKN044 28/22 A2976 450 69 2100 VRB/05 RMK AO2 T02780217 $
53988KBKB BKB20190521091014905/21/19 09:10:31  5-MIN KBKB 211510Z AUTO 20009G19KT 160V260 10SM BKN027 BKN035 BKN042 28/22 A2976 450 69 2100 200/09G19 160V260 RMK AO2 T02780217 $
53988KBKB BKB20190521091512605/21/19 09:15:31  5-MIN KBKB 211515Z AUTO VRB06G19KT 10SM SCT027 BKN037 28/21 A2976 450 66 2100 VRB/06G19 RMK AO2 T02780211 $
53988KBKB BKB20190521091517905/21/19 09:15:31  5-MIN KBKB 211515Z AUTO VRB06G19KT 10SM SCT027 BKN037 28/21 A2976 450 66 2100 VRB/06G19 RMK AO2 T02780211 $30/22 A2975 450 60 2300 VRB/06G22 RMK AO2 T03000217 $
53988KBKB BKB20190521092015505/21/19 09:20:31  5-MIN KBKB 211520Z AUTO 10SM FEW027 BKN037 BKN044 29/22 A2976 450 64 2200 M /M RMK AO2 T02890217 $450 56 2400 VRB/06 RMK AO2 T03110217 $
53988KBKB BKB20190521110011905/21/19 11:00:31  5-MIN KBKB 211700Z AUTO VRB05G15KT 10SM FEW040 31/22 A2976 450 58 2400 VRB/05G15 RMK AO2 T03060217 $
53988KBKB BKB20190521110518605/21/19 11:05:31  5-MIN KBKB 211705Z AUTO 18007KT 150V220 10SM FEW038 31/22 A2976 450 58 2400 180/07 150V220 RMK AO2 T03060217 $BKN060 30/22 A2976 440 62 2300 VRB/05 RMK AO2 T03000222 $
53988KBKB BKB20190521113514205/21/19 11:35:31  5-MIN KBKB 211735Z AUTO 20009G18KT 150V260 10SM SCT039 SCT048 30/21 A2977 440 58 2300 190/09G18 150V260 RMK AO2 T03000211 $
53988KBKB BKB20190521114014205/21/19 11:40:31  5-MIN KBKB 211740Z AUTO 18008G18KT 130V230 10SM SCT039 BKN048 31/21 A2976 440 56 2400 180/08G18 130V230 RMK AO2 T03060211 $
53988KBKB BKB20190521114514205/21/19 11:45:31  5-MIN KBKB 211745Z AUTO 19008G17KT 160V220 10SM SCT042 SCT050 30/22 A2976 450 60 2300 190/08G17 160V220 RMK AO2 T03000217 $
53988KBKB BKB20190521115014505/21/19 11:50:31  5-MIN KBKB 211750Z AUTO VRB05G16KT 10SM SCT042 SCT050 31/22 A2976 450 56 2400 VRB/05G16 RMK AO2 SLP102 T03110217 10311 20244 $
53988KBKB BKB20190521115514205/21/19 11:55:31  5-MIN KBKB 211755Z AUTO 19008G15KT 130V220 10SM SCT042 SCT055 31/22 A2976 440 56 2400 190/08G15 130V220 RMK AO2 T03110217 $
53988KBKB BKB20190521120022005/21/19 12:00:31  5-MIN KBKB 211800Z AUTO 20007G15KT 120V250 10SM SCT042 31/22 A2976 450 56 2400 190/07G15 120V250 RMK AO2 T03110217  150V240 10SM FEW031 FEW042 30/23 A2972 480 67 2300 180/07 150V240 RMK AO2 T03000233 $
53988KBKB BKB20190521123011705/21/19 12:30:31  5-MIN KBKB 211830Z AUTO 10SM SCT039 BKN050 BKN070 30/22 A2976 440 60 2300 M /M RMK AO2 T03000217 $
53988KBKB BKB20190521123514205/21/19 12:35:31  5-MIN KBKB 211835Z AUTO 20009G17KT 170V230 10SM SCT040 SCT060 31/22 A2976 450 58 2400 200/09G17 170V230 RMK AO2 T03110222 $
53988KBKB BKB20190521124005505/21/19 12:40:31  5-MIN KBKB 211840Z AUTO2 T03000222 $
53988KBKB BKB20190521130012705/21/19 13:00:31  5-MIN KBKB 211900Z AUTO VRB05KT 10SM SCT036 SCT048 BKN075 30/22 A2976 450 62 2300 VRB/05 RMK AO2 T03000222 $
53988KBKB BKB20190521130512705/21/19 13:05:31  5-MIN KBKB 211905Z AUTO VRB05KT 10SM SCT036 BKN046 BKN080 29/23 A2976 450 67 2200 VRB/05 RMK AO2 T02940228 $
53988KBKB BKB20190521131014305/21/19 13:10:31  5-MIN KBKB 211910Z AUTO 20007KT 130V240 10SM SCT036 BKN042 BKN055 30/23 A2975 450 65 2300 200/07 130V240 RMK AO2 T03000228 $
53988KBKB BKB20190521131522005/21/19 13:15:31  5-MIN KBKB 211915Z AUTO 22008KT 190V260 6SM -RA SCT005/21/19 13:50:31  5-MIN KBKB 211950Z AUTO VRB05KT 10SM FEW028 SCT032 SCT040 30/24 A2974 470 69 2300 VRB/05 RMK AO2 RAB12E40 SLP095 P0001 T03000239 $
53988KBKB BKB20190521135512005/21/19 13:55:31  5-MIN KBKB 211955Z AUTO VRB04KT 10SM SCT030 BKN036 30/24 A2974 470 69 2300 VRB/04 RMK AO2 T03000239 $
53988KBKB BKB20190521140019705/21/19 14:00:31  5-MIN KBKB 212000Z AUTO 10SM FEW030 SCT036 31/24 A2974 470 67 2400 M /M RMK AO2 T030 16007KT 100V200 10SM FEW037 FEW080 29/24 A2972 490 74 2200 150/07 100V200 RMK AO2 T02890239 $
53988KBKB BKB20190521151013505/21/19 15:10:31  5-MIN KBKB 212110Z AUTO 20007G17KT 090V260 10SM FEW031 30/23 A2972 480 67 2400 190/07G17 090V260 RMK AO2 T03000233 $
53988KBKB BKB20190521151514205/21/19 15:15:31  5-MIN KBKB 212115Z AUTO 20007G17KT 130V240 10SM FEW031 SCT043 30/23 A2972 480 67 2300 190/07G17 130V240 RMK AO2 T03000233 $
53988KBKB BKB20190521152012705/21/19 15:20:31  5-MIN KBKB 212120Z AUTO VRB05KT 10SM FEW030 SCT041 SCT050 29/23 A2972 480 69 2300 VRB/05 RMK AO2 T02940233 $
53988KBKB BKB20190521152512705/21/19 15:25:31  5-MIN KBKB 212125Z AUTO VRB06KT 10SM FEW030 SCT041 SCT050 29/23 A2972 480 69 2300 VRB/06 RMK AO2 T02940233 $
53988KBKB BKB20190521153012705/21/19 15:30:31  5-MIN KBKB 212130Z AUTO VRB05KT 10SM FEW030 FEW041 SCT050 29/23 A2972 480 67 2300 VRB/05 RMK AO2 T02940228 $
53988KBKB BKB20190521153017405/21/19 15:30:31  5-MIN KBKB 212130Z AUTO VRB05KT 10SM FEW030 FEW041 SCT050 29/23 A2972 480 67 2300 VRB/05 RMK AO2 T02940228 $A2972 480 69 2300 VRB/05G17 RMK AO2 T02940233 $
53988KBKB BKB20190521153511705/21/19 15:35:31  5-MIN KBKB 212135Z AUTO 10SM FEW030 SCT039 SCT050 29/23 A2972 480 67 2300 M /M RMK AO2 T02940228 $
53988KBKB BKB20190521154012705/21/19 15:40:31  5-MIN KBKB 212140Z AUTO VRB06KT 10SM FEW030 SCT039 SCT050 29/23 A2972 480 69 2300 VRB/06 RMK AO2 T02940233 $
53988KBKB BKB20190521154514905/21/19 15:45:31  5-MIN KBKB 212145Z AUTO 19009G19KT 120V230 10SM FEW030 FEW040 SCT050 29/23 A2972 490 69 2300 180/09G19 120V230 RMK AO2 T02940233 $
53988KBKB BKB20190521155012605/21/19 15:50:31  5-MIN KBKB 212150Z AUTO VRB06G19KT 10SM FEW030 29/23 A2972 490 69 2300 VRB/06G19 RMK AO2 SLP088 T02940233 $
53988KBKB BKB20190521155511905/21/19 15:55:31  5-MIN KBKB 212155Z AUTO VRB05G17KT 10SM FEW030 29/23 A2972 480 69 2300 VRB/05G17 RMK AO2 T02940233 $
53988KBKB BKB20190521160011905/21/19 16:00:31  5-MIN KBKB 212200Z AUTO VRB04G17KT 10SM FEW028 30/23 A2972 480 67 2400 VRB/04G17 RMK AO2 T03000233 $
53988KBKB BKB20190521160511005/21/19 16:05:31  5-MIN KBKB 212205Z AUTO 10SM FEW028 SCT085 29/24 A2972 480 71 2300 M /M RMK AO2 T02940239 $
53988KBKB BKB20190521161013605/21/19 16:10:31  5-MIN KBKB 212210Z AUTO 19007KT 140V290 10SM SCT028 SCT085 29/23 A2972 480 71 2200 190/07 140V290 RMK AO2 T02890233 $
53988KBKB BKB20190521161512605/21/19 16:15:31  5-MIN KBKB 212215Z AUTO VRB05G15KT 10SM BKN028 BKN085 29/23 A2972 480 71 2200 VRB/05G15 RMK AO2 T02890233 $
53988KBKB BKB20190521162013305/21/19 16:20:31  5-MIN KBKB 212220Z AUTO VRB05G15KT 10SM SCT028 BKN036 BKN047 28/23 A2972 480 74 2200 VRB/05G15 RMK AO2 T02830233 $
53988KBKB BKB20190521162514305/21/19 16:25:31  5-MIN KBKB 212225Z AUTO 17007KT 110V210 10SM SCT028 SCT036 BKN047 28/23 A2972 480 74 2200 170/07 110V210 RMK AO2 T02830233 $
53988KBKB BKB20190521163012705/21/19 16:30:31  5-MIN KBKB 212230Z AUTO VRB03KT 10SM FEW028 SCT036 BKN080 28/24 A2972 480 76 2200 VRB/03 RMK AO2 T02830239 $
53988KBKB BKB20190521163512705/21/19 16:35:31  5-MIN KBKB 212235Z AUTO VRB05KT 10SM FEW028 SCT036 BKN080 29/24 A2972 480 74 2200 VRB/05 RMK AO2 T02890239 $
53988KBKB BKB20190521164012005/21/19 16:40:31  5-MIN KBKB 212240Z AUTO VRB05KT 10SM FEW032 SCT080 29/24 A2972 490 74 2200 VRB/05 RMK AO2 T02890239 $
53988KBKB BKB20190521164513605/21/19 16:45:31  5-MIN KBKB 212245Z AUTO 16007KT 100V200 10SM FEW037 FEW080 29/24 A2972 490 74 2200 150/07 100V200 RMK AO2 T02890239 $
53988KBKB BKB20190521165012005/21/19 16:50:31  5-MIN KBKB 212250Z AUTO VRB03KT 10SM FEW080 29/23 A2972 490 71 2200 VRB/03 RMK AO2 SLP088 T02890233 $
53988KBKB BKB20190521165512005/21/19 16:55:31  5-MIN KBKB 212255Z AUTO VRB05KT 10SM FEW029 FEW080 29/23 A2972 490 71 2200 VRB/05 RMK AO2 T02890233 $
53988KBKB BKB20190521165516505/21/19 16:55:31  5-MIN KBKB 212255Z AUTO VRB05KT 10SM FEW029 FEW080 29/23 A2972 490 71 2200 VRB/05 RMK AO2 T02890233 $ A2971 490 76 2100 VRB/03 RMK AO2 T02780233 $
53988KBKB BKB20190521170011005/21/19 17:00:31  5-MIN KBKB 212300Z AUTO 10SM FEW024 SCT029 28/23 A2971 490 74 2200 M /M RMK AO2 T02830233 $
53988KBKB BKB20190521170512005/21/19 17:05:31  5-MIN KBKB 212305Z AUTO 18007KT 10SM FEW024 SCT029 28/23 A2971 490 74 2200 180/07 RMK AO2 T02830233 $
53988KBKB BKB20190521171011005/21/19 17:10:31  5-MIN KBKB 212310Z AUTO 10SM FEW023 SCT029 28/23 A2971 490 74 2200 M /M RMK AO2 T02830233 $
53988KBKB BKB20190521171512005/21/19 17:15:31  5-MIN KBKB 212315Z AUTO VRB04KT 10SM FEW023 SCT031 28/23 A2971 490 76 2100 VRB/04 RMK AO2 T02780233 $
53988KBKB BKB20190521171512605/21/19 17:15:31  5-MIN KBKB 212315Z AUTO VRB04KT 10SM FEW023 SCT031 28/23 A2971 490 7 500 76 2100 VRB/05 RMK AO2 T02780233 $
53988KBKB BKB20190521172012005/21/19 17:20:31  5-MIN KBKB 212320Z AUTO VRB03KT 10SM FEW026 BKN035 28/23 A2971 490 76 2100 VRB/03 RMK AO2 T02780233 $
53988KBKB BKB20190521172512005/21/19 17:25:31  5-MIN KBKB 212325Z AUTO VRB06KT 10SM SCT026 BKN035 28/23 A2971 490 76 2100 VRB/06 RMK AO2 T02780233 $
53988KBKB BKB20190521173012005/21/19 17:30:31  5-MIN KBKB 212330Z AUTO VRB03KT 10SM SCT028 BKN036 28/24 A2971 490 76 2200 VRB/03 RMK AO2 T02830239 $
53988KBKB BKB20190521173513605/21/19 17:35:31  5-MIN KBKB 212335Z AUTO 17007KT 110V210 10SM SCT030 SCT036 28/23 A2971 500 74 2200 170/07 110V210 RMK AO2 T02830233 $
53988KBKB BKB20190521174012705/21/19 17:40:31  5-MIN KBKB 212340Z AUTO VRB03KT 10SM FEW022 SCT029 BKN038 28/23 A2971 500 76 2100 VRB/03 RMK AO2 T02780233 $
53988KBKB BKB20190521174512705/21/19 17:45:31  5-MIN KBKB 212345Z AUTO VRB05KT 10SM FEW022 SCT027 SCT038 28/23 A2971 500 76 2100 VRB/05 RMK AO2 T02780233 $
53988KBKB BKB20190521175015105/21/19 17:50:31  5-MIN KBKB 212350Z AUTO VRB04KT 10SM SCT022 SCT028 28/23 A2971 500 76 2100 VRB/04 RMK AO2 SLP084 60001 T02780233 10317 20267 58012 $
53988KBKB BKB20190521175513605/21/19 17:55:31  5-MIN KBKB 212355Z AUTO 17007KT 120V220 10SM SCT022 BKN030 28/23 A2971 500 76 2100 170/07 120V220 RMK AO2 T02780233 $
53988KBKB BKB20190521180014305/21/19 18:00:31  5-MIN KBKB 220000Z AUTO 17007KT 130V220 10SM SCT022 BKN028 BKN034 27/23 A2971 490 79 2100 170/07 130V220 RMK AO2 T02720233 $
53988KBKB BKB20190521180512705/21/19 18:05:31  5-MIN KBKB 220005Z AUTO VRB04KT 10SM SCT022 BKN028 BKN034 27/23 A2971 490 79 2100 VRB/04 RMK AO2 T02720233 $
53988KBKB BKB20190521181012005/21/19 18:10:31  5-MIN KBKB 220010Z AUTO VRB03KT 10SM SCT024 BKN033 27/23 A2971 490 79 2100 VRB/03 RMK AO2 T02720233 $
53988KBKB BKB20190521181512705/21/19 18:15:31  5-MIN KBKB 220015Z AUTO VRB06KT 10SM SCT021 BKN026 BKN035 27/23 A2971 500 79 2100 VRB/06 RMK AO2 T02720233 $
53988KBKB BKB20190521182012005/21/19 18:20:31  5-MIN KBKB 220020Z AUTO VRB03KT 10SM SCT024 BKN033 27/24 A2971 500 82 2100 VRB/03 RMK AO2 T02720239 $
53988KBKB BKB20190521182512005/21/19 18:25:31  5-MIN KBKB 220025Z AUTO VRB06KT 10SM BKN022 BKN033 27/24 A2971 500 82 2100 VRB/06 RMK AO2 T02720239 $
53988KBKB BKB20190521183012705/21/19 18:30:31  5-MIN KBKB 220030Z AUTO VRB04KT 10SM FEW019 BKN024 BKN033 27/23 A2971 490 79 2100 VRB/04 RMK AO2 T02720233 $
53988KBKB BKB20190521183012805/21/19 18:30:31  5-MIN KBKB 220030Z AUTO VRB04KT 10SM FEW019 BKN0245 BKN035 26/23 A2974 460 84 1900 VRB/03 RMK AO2 T02610233 $
53988KBKB BKB20190521183512705/21/19 18:35:31  5-MIN KBKB 220035Z AUTO VRB05KT 10SM SCT023 BKN031 BKN038 27/23 A2971 490 82 2000 VRB/05 RMK AO2 T02670233 $
53988KBKB BKB20190521184012005/21/19 18:40:31  5-MIN KBKB 220040Z AUTO 18005KT 10SM BKN023 BKN033 27/23 A2971 490 82 2000 180/05 RMK AO2 T02670233 $
53988KBKB BKB20190521184512705/21/19 18:45:31  5-MIN KBKB 220045Z AUTO VRB03KT 10SM FEW019 BKN023 OVC031 27/23 A2971 490 82 2000 VRB/03 RMK AO2 T02670233 $
53988KBKB BKB20190521185012705/21/19 18:50:31  5-MIN KBKB 220050Z AUTO VRB04KT 10SM BKN024 OVC034 27/23 A2972 490 82 2000 VRB/04 RMK AO2 SLP087 T02670233 $
53988KBKB BKB20190521185512705/21/19 18:55:31  5-MIN KBKB 220055Z AUTO VRB05KT 10SM SCT022 BKN028 BKN034 27/23 A2972 490 82 2000 VRB/05 RMK AO2 T02670233 $
53988KBKB BKB20190521190012005/21/19 19:00:31  5-MIN KBKB 220100Z AUTO VRB05KT 10SM BKN023 BKN032 27/23 A2972 480 82 2000 VRB/05 RMK AO2 T02670233 $
53988KBKB BKB20190521190508305/21/19 19:05:31  5-MIN KBKB 220105Z AUTO VRB04KT 10SM BKN021 BKN026 OVC034 0239 $
53988KBKB BKB20190521201512005/21/19 20:15:31  5-MIN KBKB 220215Z AUTO VRB03KT 10SM SCT017 BKN033 26/23 A2974 460 87 1800 VRB/03 RMK AO2 T02560233 $
53988KBKB BKB20190521202011005/21/19 20:20:31  5-MIN KBKB 220220Z AUTO 10SM SCT017 BKN031 26/23 A2975 460 87 1800 M /M RMK AO2 T02560233 $
53988KBKB BKB20190521202512005/21/19 20:25:31  5-MIN KBKB 220225Z AUTO VRB03KT 10SM SCT017 BKN031 26/23 A2975 460 87 1800 VRB/03 RMK AO2 T02560233 $
53988KBKB BKB20190521203012005/21/19 20:30:31  5-MIN KBKB 220230Z AUTO 00000KT 10SM BKN017 BKN031 26/24 A2975 460 90 1800 000/00 RMK AO2 T02560239 $
53988KBKB BKB20190521203512005/21/19 20:35:31  5-MIN KBKB 220235Z AUTO 18004KT 10SM BKN017 BKN029 26/24 A2975 450 90 1800 170/04 RMK AO2 T02560239 $
53988KBKB BKB20190521204012005/21/19 20:40:31  5-MIN KBKB 220240Z AUTO VRB03KT 10SM BKN017 BKN027 26/24 A2976 450 90 1800 VRB/03 RMK AO2 T02560239 $
53988KBKB BKB20190521204512005/21/19 20:45:31  5-MIN KBKB 220245Z AUTO VRB05KT 10SM SCT017 BKN027 26/24 A2976 450 90 1800 VRB/05 RMK AO2 T02560239 $
53988KBKB BKB20190521205013305/21/19 20:50:31  5-MIN KBKB 220250Z AUTO 00000KT 10SM SCT017 BKN027 26/24 A2976 450 90 1800 000/00 RMK AO2 SLP103 T02560239 58006 $
53988KBKB BKB20190521205512005/21/19 20:55:31  5-MIN KBKB 220255Z AUTO VRB03KT 10SM FEW017 BKN029 26/24 A2976 440 90 1800 VRB/03 RMK AO2 T02560239 $
53988KBKB BKB20190521205514105/21/19 20:55:31  5-MIN KBKB 220255Z AUTO VRB03KT 10SM FEW017 BKN029 26/24 A2976 440 90 1800 VRB/03 RMK AO2 T02560239 $05/21/19  T02560239 $
53988KBKB BKB20190521210021005/21/19 21:00:31  5-MIN KBKB 220300Z AUTO VRB04KT 10SM SCT017 BKN029 26/24 A2977 440 90 1800 VRB/04 RMK AO2 T02560239 $O VRB03KT 10SM -RA OVC015 26/24 A2979 420 90 1800 VRB/03 RMK AO2 RAB0356 P0000 T02560239 $
53988KBKB BKB20190521222513705/21/19 22:25:31  5-MIN KBKB 220425Z AUTO VRB03KT 10SM BKN015 OVC020 26/24 A2979 420 90 1800 VRB/03 RMK AO2 RAB0356E22 P0000 T02560239 $
53988KBKB BKB20190521223022905/21/19 22:30:31  5-MIN KBKB 220430Z AUTO VRB03KT 10SM BKN015 BKN020 OVC032 26/24 A2979 420 90 1800 VRB/03 RMK AO2 RAB0356E22 P0000 T02560239 $05/21/19 22:3524 A2979 420 90 1800 VRB/04 RMK AO2 RAB0356E22 SLP112 P0000 T02560239 $
53988KBKB BKB20190521225512005/21/19 22:55:31  5-MIN KBKB 220455Z AUTO VRB04KT 10SM BKN015 OVC026 26/24 A2979 420 87 1800 VRB/04 RMK AO2 T02610239 $
53988KBKB BKB20190521230011305/21/19 23:00:31  5-MIN KBKB 220500Z AUTO VRB04KT 10SM OVC015 26/24 A2979 420 87 1800 VRB/04 RMK AO2 T02610239 $
53988KBKB BKB20190521230511305/21/19 23:05:31  5-MIN KBKB 220505Z AUTO VRB04KT 10SM OVC015 26/24 A2979 420 90 1800 VRB/04 RMK AO2 T02560239 $
53988KBKB BKB20190521231011305/21/19 23:10:31  5-MIN KBKB 220510Z AUTO VRB03KT 10SM OVC015 26/24 A2979 420 90 1800 VRB/03 RMK AO2 T02560239 $
53988KBKB BKB20190521231512005/21/19 23:15:31  5-MIN KBKB 220515Z AUTO VRB03KT 10SM BKN015 OVC020 26/24 A2979 420 90 1800 VRB/03 RMK AO2 T02560239 $
53988KBKB BKB20190521233512005/21/19 23:35:31  5-MIN KBKB 220535Z AUTO VRB06KT 10SM BKN015 OVC021 26/24 A2979 420 90 1800 VRB/06 RMK AO2 T02560239 $
53988KBKB BKB20190521234012005/21/19 23:40:31  5-MIN KBKB 220540Z AUTO VRB03KT 10SM BKN015 OVC021 26/24 A2979 420 87 1800 VRB/03 RMK AO2 T02610239 $
53988KBKB BKB20190521234512005/21/19 23:45:31  5-MIN KBKB 220545Z AUTO VRB04KT 10SM BKN013 OVC022 26/24 A2979 420 90 1800 VRB/04 RMK AO2 T02560239 $
53988KBKB BKB20190521235011005/21/19 23:50:31  5-MIN KBKB 220550Z AUTO VRB04KT 10SM BKN015 OVC022 26/24 A2979 420 90 1800 VRB/04 RMK AO2 $
53988KBKB BKB20190521235511005/21/19 23:55:31  5-MIN KBKB 220555Z AUTO 10SM BKN015 OVC022 26/24 A2979 420 90 1800 M /M RMK AO2 T02560239 $
53988KBKB BKB20190522000018305/22/19 00:00:31  5-MIN KBKB 220600Z AUTO VRB04KT 10SM -RA BKN015 OVC022 26/24 A2979 420 90 1800 VRB/04 RMK AO2 RAB0558 P0000 T02560239 $ A2979 420 93 1700 VRB/04 RMK AO2 T02500239 $
53988KBKB BKB20190522015512005/22/19 01:55:31  5-MIN KBKB 220755Z AUTO VRB06KT 10SM BKN015 OVC037 25/24 A2979 420 93 1700 VRB/06 RMK AO2 T02500239 $
53988KBKB BKB20190522020012705/22/19 02:00:31  5-MIN KBKB 220800Z AUTO VRB04KT 10SM SCT012 BKN017 OVC039 25/24 A2979 420 93 1700 VRB/04 RMK AO2 T02500239 $
53988KBKB BKB20190522020512005/22/19 02:05:31  5-MIN KBKB 220805Z AUTO VRB04KT 10SM BKN015 OVC039 25/24 A2979 420 93 1700 VRB/04 RMK AO2 T02500239 $
53988KBKB BKB20190522021012005/22/19 02:10:31  5-MIN KBKB 220810Z AUTO VRB04KT 10SM SCT013 OVC039 25/24 A2979 420 93 1700 VRB/04 RMK AO2 T02500239 $
53988KBKB BKB20190522021512005/22/19 02:15:31  5-MIN KBKB 220815Z AUTO VRB05KT 10SM SCT013 OVC039 25/23 A2979 420 90 1700 VRB/05 RMK AO2 T02500233 $
53988KBKB BKB20190522022012005/22/19 02:20:31  5-MIN KBKB 220820Z AUTO VRB03KT 10SM SCT013 OVC038 25/23 A2979 420 90 1700 VRB/03 RMK AO2 T02500233 $
53988KBKB BKB20190522022511005/22/19 02:25:31  5-MIN KBKB 220825Z AUTO 10SM FEW013 OVC038 25/23 A2979 420 90 1700 M /M RMK AO2 T02500233 $
53988KBKB BKB20190522023012005/22/19 02:30:31  5-MIN KBKB 220830Z AUTO VRB05KT 10SM FEW013 OVC038 26/23 A2979 420 87 1800 VRB/05 RMK AO2 T02560233 $
53988KBKB BKB20190522023512005/22/19 02:35:31  5-MIN KBKB 220835Z AUTO VRB03KT 10SM FEW013 OVC038 25/23 A2979 420 90 1700 VRB/03 RMK AO2 T02500233 $
53988KBKB BKB20190522024010805/22/19 02:40:31  5-MIN KBKB 220840Z AUTO VRB04KT 10SM FEW013 OVC038 25/23 A2980 410 90 1700 VR04 RMK AO2 $
53988KBKB BKB20190522024012005/22/19 02:40:31  5-MIN KBKB 220840Z AUTO VRB04KT 10SM FEW013 OVC038 25/23 A2980 410 90 1700 VRB/04 RMK AO2 T02500233 $
53988KBKB BKB20190522024512005/22/19 02:45:31  5-MIN KBKB 220845Z AUTO VRB04KT 10SM SCT013 OVC038 25/23 A2980 410 90 1700 VRB/04 RMK AO2 T02500233 $
53988KBKB BKB20190522025013905/22/19 02:50:31  5-MIN KBKB 220850Z AUTO VRB03KT 10SM SCT013 OVC038 25/23 A2980 410 90 1700 VRB/03 RMK AO2 SLP116 60000 T02500233 51002 $
53988KBKB BKB20190522025512005/22/19 02:55:31  5-MIN KBKB 220855Z AUTO VRB03KT 10SM SCT013 OVC039 25/23 A2980 410 90 1700 VRB/03 RMK AO2 T02500233 $
53988KBKB BKB20190522030012005/22/19 03:00:31  5-MIN KBKB 220900Z AUTO VRB03KT 10SM BKN013 OVC039 25/23 A2980 410 90 1700 VRB/03 RMK AO2 T02500233 $
53988KBKB BKB20190522030512005/22/19 03:05:31  5-MIN KBKB 220905Z AUTO VRB03KT 10SM BKN013 OVC039 25/23 A2980 410 90 1700 VRB/03 RMK AO2 T02500233 $
53988KBKB BKB20190522031012005/22/19 03:10:31  5-MIN KBKB 220910Z AUTO VRB03KT 10SM BKN013 OVC039 25/23 A2980 410 90 1700 VRB/03 RMK AO2 T02500233 $
53988KBKB BKB20190522031512005/22/19 03:15:31  5-MIN KBKB 220915Z AUTO 00000KT 10SM SCT013 OVC039 25/23 A2981 400 90 1700 000/00 RMK AO2 T02500233 $
53988KBKB BKB20190522032012005/22/19 03:20:31  5-MIN KBKB 220920Z AUTO 00000KT 10SM SCT013 OVC039 25/23 A2981 400 90 1700 000/00 RMK AO2 T02500233 $
53988KBKB BKB20190522032512005/22/19 03:25:31  5-MIN KBKB 220925Z AUTO VRB04KT 10SM SCT013 OVC039 25/23 A2981 400 90 1700 VRB/04 RMK AO2 T02500233 $
53988KBKB BKB20190522033012705/22/19 03:30:31  5-MIN KBKB 220930Z AUTO 00000KT 10SM FEW013 SCT029 OVC039 25/23 A2981 400 90 1700 000/00 RMK AO2 T02500233 $
53988KBKB BKB20190522033516405/22/19 03:35:31  5-MIN KBKB 220935Z AUTO VRB03KT 10SM SCT014 SCT029 OVC039 25/23 A2981 400 90 1700 VRB/03 T02500233 $ A2983 380 90 1600 VRB/03 RMK AO2 T02440228 $
53988KBKB BKB20190522035512705/22/19 03:55:31  5-MIN KBKB 220955Z AUTO 00000KT 10SM FEW014 SCT029 OVC039 25/23 A2982 390 90 1700 000/00 RMK AO2 T02500233 $
53988KBKB BKB20190522040012705/22/19 04:00:31  5-MIN KBKB 221000Z AUTO 00000KT 10SM FEW014 SCT029 OVC039 25/23 A2982 390 90 1700 000/00 RMK AO2 T02500233 $
53988KBKB BKB20190522040513405/22/19 04:05:31  5-MIN KBKB 221005Z AUTO VRB04KT 10SM FEW014 SCT027 BKN035 24/23 A2983 380 90 1600 VRB/03 RMK AO2 SLP125 T02440228 $
53988KBKB BKB20190522044512705/22/19 04:45:31  5-MIN KBKB 221045Z AUTO 00000KT 10SM SCT014 SCT019 OVC035 24/23 A2983 380 90 1600 000/00 RMK AO2 T02440228 $
53988KBKB BKB20190522045015805/22/19 04:50:31  5-MIN KBKB 221050Z AUTO VRB03KT 10SM FEW013 SCT019 BKN035 24/23 A2983 380 90 1600 VRB/03 RMK AO2 SLP125 T02440228 $05/22/19 04:55:31  5-M $
53988KBKB BKB20190522065511705/22/19 06:55:31  5-MIN KBKB 221255Z AUTO 10SM BKN011 BKN018 OVC030 26/23 A2986 350 87 1700 M /M RMK AO2 T02560233 $
53988KBKB BKB20190522070012705/22/19 07:00:31  5-MIN KBKB 221300Z AUTO VRB04KT 10SM BKN011 BKN016 OVC031 26/23 A2986 350 87 1700 VRB/04 RMK AO2 T02560233 $
53988KBKB BKB20190522070511005/22/19 07:05:31  5-MIN KBKB 221305Z AUTO 10SM BKN014 OVC031 26/23 A2987 350 87 1700 M /M RMK AO2 T02560233 $
53988KBKB BKB20190522071012705/22/19 07:10:31  5-MIN KBKB 221310Z AUTO VRB04KT 10SM BKN014 BKN028 OVC033 26/23 A2987 350 84 1800 VRB/04 RMK AO2 T02610233 $
53988KBKB BKB20190522071512005/22/19 07:15:31  5-MIN KBKB 221315Z AUTO VRB05KT 10SM BKN014 OVC030 26/23 A2987 350 84 1800 VRB/05 RMK AO2 T02610233 $
53988KBKB BKB20190522072012005/22/19 07:20:31  5-MIN KBKB 221320Z AUTO VRB04KT 10SM BKN016 BKN032 26/23 A2987 350 84 1700 VRB/04 RMK AO2 T02560228 $
53988KBKB BKB20190522072512705/22/19 07:25:31  5-MIN KBKB 221325Z AUTO VRB04KT 10SM BKN014 BKN019 BKN031 26/23 A2987 350 84 1700 VRB/04 RMK AO2 T02560228 $
53988KBKB BKB20190522073012005/22/19 07:30:31  5-MIN KBKB 221330Z AUTO 18004KT 10SM BKN016 BKN031 26/23 A2987 340 84 1700 180/04 RMK AO2 T02610233 $
53988KBKB BKB20190522073512005/22/19 07:35:31  5-MIN KBKB 221335Z AUTO VRB04KT 10SM BKN016 OVC029 26/23 A2987 350 84 1700 VRB/04 RMK AO2 T02610233 $
53988KBKB BKB20190522074012005/22/19 07:40:31  5-MIN KBKB 221340Z AUTO VRB04KT 10SM BKN016 BKN026 26/23 A2987 340 84 1700 VRB/04 RMK AO2 T02610233 $
53988KBKB BKB20190522074512005/22/19 07:45:31  5-MIN KBKB 221345Z AUTO VRB03KT 10SM BKN016 OVC026 26/23 A2987 340 84 1700 VRB/03 RMK AO2 T02610233 $
53988KBKB BKB20190522075012705/22/19 07:50:31  5-MIN KBKB 221350Z AUTO 00000KT 10SM BKN016 OVC024 27/23 A2988 340 79 1900 000/00 RMK AO2 SLP141 T02720233 $
53988KBKB BKB20190522075512005/22/19 07:55:31  5-MIN KBKB 221355Z AUTO 15006KT 10SM BKN016 OVC026 27/23 A2987 340 79 1900 140/06 RMK AO2 T02720233 $
53988KBKB BKB20190522080012705/22/19 08:00:31  5-MIN KBKB 221400Z AUTO VRB04KT 10SM BKN016 BKN026 OVC031 27/23 A2988 340 79 1900 VRB/04 RMK AO2 T02720233 $
53988KBKB BKB20190522080512705/22/19 08:05:31  5-MIN KBKB 221405Z AUTO VRB04KT 10SM BKN016 BKN026 OVC034 27/23 A2988 330 79 1800 VRB/04 RMK AO2 T02670228 $
53988KBKB BKB20190522081012705/22/19 08:10:31  5-MIN KBKB 221410Z AUTO 00000KT 10SM BKN016 BKN023 OVC034 27/23 A2988 330 79 1800 000/00 RMK AO2 T02670228 $
53988KBKB BKB20190522081511705/22/19 08:15:31  5-MIN KBKB 221415Z AUTO 10SM BKN018 BKN027 OVC034 27/23 A2988 330 79 1900 M /M RMK AO2 T02720233 $
53988KBKB BKB20190522082012705/22/19 08:20:31  5-MIN KBKB 221420Z AUTO VRB04KT 10SM BKN018 BKN027 OVC034 27/23 A2988 330 79 1900 VRB/04 RMK AO2 T02720233 $
53988KBKB BKB20190522082512705/22/19 08:25:31  5-MIN KBKB 221425Z AUTO VRB04KT 10SM BKN018 BKN027 OVC034 27/23 A2989 330 79 1900 VRB/04 RMK AO2 T02720233 $
53988KBKB BKB20190522083011705/22/19 08:30:31  5-MIN KBKB 221430Z AUTO 10SM BKN018 BKN025 OVC034 27/23 A2989 330 76 1900 M /M RMK AO2 T02720228 $
53988KBKB BKB20190522083512705/22/19 08:35:31  5-MIN KBKB 221435Z AUTO VRB05KT 10SM BKN020 BKN028 OVC036 27/23 A2989 330 76 1900 VRB/05 RMK AO2 T02720228 $
53988KBKB BKB20190522084013005/22/19 08:40:31  5-MIN KBKB 221440Z AUTO VRB04KT 10SM FEW017 SCT022 BKN047 29/23 A2990 320 67 2100 VRB/05G15 RMK AO2 T02940228 $
53988KBKB BKB20190522094512705/22/19 09:45:31  5-MIN KBKB 221545Z AUTO VRB06KT 10SM SCT027 SCT034 BKN044 29/23 A2990 320 67 2100 VRB/06 RMK AO2 T02940228 $
53988KBKB BKB20190522095015005/22/19 09:50:31  5-MIN KBKB 221550Z AUTO 21007KT 160V240 10SM SCT027 BKN034 BKN041 28/23 A2990 320 71 2000 200/07 160V240 RMK AO2 SLP150 T02830228 $
53988KBKB BKB20190522095512705/22/19 09:55:31  5-MIN KBKB 221555Z AUTO VRB04KT 10SM SCT027 BKN034 BKN041 28/23 A2990 310 74 2000 VRB/04 RMK AO2 T02830233 $
53988KBKB BKB20190522100007305/22/19 10:00:31  5-MIN KBKB 221600Z AUTO VRB06KT M M M VRB/06 RMK AO2 $
53988KBKB BKB20190522101009605/22/19 10:10:31  5-MIN KBKB 221610Z AUTO 10SM 31/23 A2991 310 65 2200 M /M RMK AO2 T03060233 $
53988KBKB BKB20190522101511205/22/19 10:15:31  5-MIN KBKB 221615Z AUTO VRB06G15KT 10SM 30/23 A2991 310 65 2100 VRB/06G15 RMK AO2 T03000228 $
53988KBKB BKB20190522102012805/22/19 10:20:31  5-MIN KBKB 221620Z AUTO 17008G18KT 130V220 10SM 30/22 A2991 310 62 2100 170/08G18 130V220 RMK AO2 T03000222 $
53988KBKB BKB20190522102512805/22/19 10:25:31  5-MIN KBKB 221625Z AUTO 16008G18KT 100V220 10SM 31/23 A2991 310 62 2200 160/08G18 100V220 RMK AO2 T03060228 $
53988KBKB BKB20190522103017305/22/19 10:30:31  5-MIN KBKB 221630Z AUTO 16009G16KT 10SM FEW039 30/22 A2991 310 62 2830Z AUTO VRB06KT 10SM SCT039 SCT050 32/23 A2991 310 58 2300 VRB/06 RMK AO2 T03170228 $
53988KBKB BKB20190522123514305/22/19 12:35:31  5-MIN KBKB 221835Z AUTO 20008KT 130V250 10SM FEW039 SCT047 SCT055 32/23 A2991 310 58 2300 200/08 130V250 RMK AO2 T03170228 $
53988KBKB BKB20190522124012705/22/19 12:40:31  5-MIN KBKB 221840Z AUTO VRB05KT 10SM FEW039 SCT047 SCT055 32/22 A2991 310 56 2300 VRB/05 RMK AO2 T03170222 $
53988KBKB BKB20190522124513605/22/19 12:45:31  5-MIN KBKB 221845Z AUTO 19008KT 150V230 10SM SCT037 SCT055 32/23 A2991 310 58 2300 190/08 150V230 RMK AO2 T03170228 $
53988KBKB BKB20190522125011705/22/19 12:50:31  5-MIN KBKB 221850Z AUTO 10SM SCT037 BKN055 31/23 A2991 310 62 2200 M /M RMK AO2 SLP152 T03060228 $
53988KBKB BKB20190522125512005/22/19 12:55:31  5-MIN KBKB 221855Z AUTO VRB06KT 10SM SCT035 SCT055 31/23 A2991 310 60 2300 VRB/06 RMK AO2 T03110228 $
53988KBKB BKB20190522130013605/22/19 13:00:31  5-MIN KBKB 221900Z AUTO 16008KT 120V230 10SM FEW035 SCT050 32/23 A2991 310 58 2300 160/08 120V230 RMK AO2 T03170228 $
53988KBKB BKB20190522130513505/22/19 13:05:31  5-MIN KBKB 221905Z AUTO 17007G17KT 120V230 10SM FEW035 31/23 A2991 310 60 2300 170/07G17 120V230 RMK AO2 T03110228 $
53988KBKB BKB20190522131014205/22/19 13:10:31  5-MIN KBKB 221910Z AUTO 14007G17KT 350V180 10SM FEW035 SCT050 32/23 A2991 310 58 2300 130/07G17 350V180 RMK AO2 T03170228 $
53988KBKB BKB20190522131513605/22/19 13:15:31  5-MIN KBKB 221915Z AUTO 19007KT 110V230 10SM FEW035 SCT045 31/23 A2991 310 60 2300 180/07 110V230 RMK AO2 T03110228 $
53988KBKB BKB20190522132012605/22/19 13:20:31  5-MIN KBKB 221920Z AUTO VRB06G17KT 10SM FEW037 FEW045 32/22 A2991 310 56 2300 VRB/06G17 RMK AO2 T03170222 $
53988KBKB BKB20190522132511905/22/19 13:25:31  5-MIN KBKB 221925Z AUTO VRB03G17KT 10SM FEW047 32/22 A2990 310 56 2300 VRB/03G17 RMK AO2 T03170222 $
53988KBKB BKB20190522132515505/22/19 13:25:31  5-MIN KBKB 221925Z AUTO VRB03G17KT 10SM FEW047 32/22 A2990 310 56 2300 VRB/03G17 RMK AO2 T03170222 $05/22/19 13:30:31  5-AO2 T03170222 $
53988KBKB BKB20190522133011305/22/19 13:30:31  5-MIN KBKB 221930Z AUTO VRB05KT 10SM FEW047 32/23 A2991 310 57 2400 VRB/05 RMK AO2 T03220228 $
53988KBKB BKB20190522133513505/22/19 13:35:31  5-MIN KBKB 221935Z AUTO 16009G16KT 130V200 10SM FEW047 32/22 A2990 310 56 2300 160/09G16 130V200 RMK AO2 T03170222 $
53988KBKB BKB20190522134013505/22/19 13:40:31  5-MIN KBKB 221940Z AUTO 17007G16KT 100V230 10SM FEW047 32/22 A2991 310 56 2300 170/07G16 100V230 RMK AO2 T03170222 $
53988KBKB BKB20190522134513605/22/19 13:45:31  5-MIN KBKB 221945Z AUTO 17008KT 120V230 10SM FEW037 SCT047 32/23 A2990 320 58 2300 160/08 120V230 RMK AO2 T03170228 $
53988KBKB BKB20190522135012705/22/19 13:50:31  5-MIN KBKB 221950Z AUTO VRB05KT 10SM FEW040 SCT049 32/23 A2990 310 57 2400 VRB/05 RMK AO2 SLP150 T03220228 $
53988KBKB BKB20190522135513605/22/19 13:55:31  5-MIN KBKB 221955Z AUTO 16008KT 100V230 10SM SCT040 SCT047 32/22 A2990 310 56 2300 160/08 100V230 RMK AO2 T03170222 $
53988KBKB BKB20190522140012005/22/19 14:00:31  5-MIN KBKB 222000Z AUTO VRB05KT 10SM SCT040 SCT047 31/22 A2990 310 60 2200 VRB/05 RMK AO2 T03060222 $
53988KBKB BKB20190522140510305/22/19 14:05:31  5-MIN KBKB 222005Z AUTO 10SM SCT041 32/23 A2990 310 57 2400 M /M RMK AO2 T03220228 $
53988KBKB BKB20190522141011305/22/19 14:10:31  5-MIN KBKB 222010Z AUTO VRB05KT 10SM FEW041 32/23 A2990 310 58 2300 VRB/05 RMK AO2 T03170228 $
53988KBKB BKB20190522141510305/22/19 14:15:31  5-MIN KBKB 222015Z AUTO 10SM FEW041 32/23 A2990 310 58 2300 M /M RMK AO2 T03170228 $
53988KBKB BKB20190522142011305/22/19 14:20:31  5-MIN KBKB 222020Z AUTO VRB06KT 10SM SCT041 32/23 A2991 310 57 2400 VRB/06 RMK AO2 T03220228 $
53988KBKB BKB20190522142511005/22/19 14:25:31  5-MIN KBKB 222025Z AUTO 10SM SCT040 SCT050 32/23 A2991 310 58 2300 M /M RMK AO2 T03170228 $
53988KBKB BKB20190522143012705/22/19 14:30:31  5-MIN KBKB 222030Z AUTO VRB06KT 10SM SCT036 SCT044 SCT055 33/23 A2991 310 57 2400 VRB/06 RMK AO2 T03280233 $
53988KBKB BKB20190522143513605/22/19 14:35:31  5-MIN KBKB 222035Z AUTO 17007KT 130V230 10SM SCT036 BKN046 32/23 A2991 310 58 2300 170/07 130V230 RMK AO2 T03170228 $
53988KBKB BKB20190522144011005/22/19 14:40:31  5-MIN KBKB 222040Z AUTO 10SM FEW036 BKN046 31/23 A2991 310 62 2200 M /M RMK AO2 T03060228 $
53988KBKB BKB20190522144513605/22/19 14:45:31  5-MIN KBKB 222045Z AUTO 19007KT 140V230 10SM SCT039 SCT050 31/22 A2991 310 60 2200 180/07 140V230 RMK AO2 T03060222 $
53988KBKB BKB20190522145013405/22/19 14:50:31  5-MIN KBKB 222050Z AUTO VRB05KT 10SM FEW035 SCT043 SCT050 31/23 A2991 310 60 2300 VRB/05 RMK AO2 SLP152 T03110228 $
53988KBKB BKB20190522145515205/22/19 14:55:31  5-MIN KBKB 222055Z AUTO VRB04KT 10SM FEW037 SCT047 32/23 A2991 310 59UTO 10SM FEW037 31/22 A2991 310 60 2200 M /M RMK AO2 T03060222 $
53988KBKB BKB20190522152012005/22/19 15:20:31  5-MIN KBKB 222120Z AUTO VRB06KT 10SM FEW040 SCT050 31/23 A2991 310 60 2300 VRB/06 RMK AO2 T03110228 $
53988KBKB BKB20190522152511305/22/19 15:25:31  5-MIN KBKB 222125Z AUTO VRB06KT 10SM FEW038 31/23 A2990 310 60 2300 VRB/06 RMK AO2 T03110228 $
53988KBKB BKB20190522153011305/22/19 15:30:31  5-MIN KBKB 222130Z AUTO 19006KT 10SM FEW041 32/23 A2990 310 58 2300 190/06 RMK AO2 T03170228 $
53988KBKB BKB20190522153511305/22/19 15:35:31  5-MIN KBKB 222135Z AUTO VRB04KT 10SM FEW038 32/23 A2990 310 59 2400 VRB/04 RMK AO2 T03220233 $
53988KBKB BKB20190522154012905/22/19 15:40:31  5-MIN KBKB 222140Z AUTO 15007KT 120V190 10SM FEW038 32/23 A2990 310 58 2300 150/07 120V190 RMK AO2 T03170228 $
53988KBKB BKB20190522154511605/22/19 15:45:31  5-MIN KBKB 222145Z AUTO VRB05G16KT 10SM CLR 32/23 A2990 310 58 2300 VRB/05G16 RMK AO2 T03170228 $
53988KBKB BKB20190522155012305/22/19 15:50:31  5-MIN KBKB 222150Z AUTO VRB05G16KT 10SM CLR 31/23 A2991 310 63 2300 VRB/05G16 RMK AO2 SLP152 T03110233 $
53988KBKB BKB20190522155514505/22/19 15:55:31  5-MIN KBKB 222155Z AUTO VRB04KT 10SM CLR 32/23 A2990 310 58 2300 VRB/04 RMK AO2 T03170228 $ 58 2300 VRB/05 RMK AO2 T03170228 $
53988KBKB BKB20190522160511005/22/19 16:05:31  5-MIN KBKB 222205Z AUTO VRB06KT 10SM CLR 32/23 A2990 310 59 2400 VRB/06 RMK AO2 T03220233 $
53988KBKB BKB20190522161010005/22/19 16:10:31  5-MIN KBKB 222210Z AUTO 10SM CLR 31/22 A2990 310 58 2300 M /M RMK AO2 T03110222 $
53988KBKB BKB20190522161511305/22/19 16:15:31  5-MIN KBKB 222215Z AUTO VRB05KT 10SM FEW038 32/23 A2990 310 58 2300 VRB/05 RMK AO2 T03170228 $
53988KBKB BKB20190522162011305/22/19 16:20:31  5-MIN KBKB 222220Z AUTO VRB06KT 10SM SCT036 32/23 A2990 310 58 2300 VRB/06 RMK AO2 T03170228 $
53988KBKB BKB20190522162511305/22/19 16:25:31  5-MIN KBKB 222225Z AUTO VRB05KT 10SM SCT036 32/23 A2990 310 58 2300 VRB/05 RMK AO2 T03170228 $
53988KBKB BKB20190522163011305/22/19 16:30:31  5-MIN KBKB 222230Z AUTO VRB04KT 10SM SCT036 32/23 A2990 310 58 2300 VRB/04 RMK AO2 T03170228 $
53988KBKB BKB20190522163512905/22/19 16:35:31  5-MIN KBKB 222235Z AUTO 18007KT 120V240 10SM SCT037 32/23 A2991 310 58 2300 170/07 120V240 RMK AO2 T03170228 $
53988KBKB BKB20190522164011305/22/19 16:40:31  5-MIN KBKB 222240Z AUTO VRB04KT 10SM SCT037 31/23 A2991 310 60 2300 VRB/04 RMK AO2 T03110228 $
53988KBKB BKB20190522164507405/22/19 16:45:31  5-MIN KBKB 222245Z AUTO 10SM FEW037 31/22 A2991 310 60 
53988KBKB BKB20190522165011005/22/19 16:50:31  5-MIN KBKB 222250Z AUTO 10SM FEW037 30/23 A2991 310 65 2100 M /M RMK AO2 SLP153 T03000228 $
53988KBKB BKB20190522165511305/22/19 16:55:31  5-MIN KBKB 222255Z AUTO VRB04KT 10SM FEW037 31/23 A2991 310 62 2200 VRB/04 RMK AO2 T03060228 $
53988KBKB BKB20190522170010305/22/19 17:00:31  5-MIN KBKB 222300Z AUTO 10SM FEW039 31/23 A2991 310 60 2300 M /M RMK AO2 T03110228 $
53988KBKB BKB20190522170512005/22/19 17:05:31  5-MIN KBKB 222305Z AUTO VRB05KT 10SM FEW037 SCT045 31/23 A2991 310 63 2300 VRB/05 RMK AO2 T03110233 $
53988KBKB BKB20190522171011305/22/19 17:10:31  5-MIN KBKB 222310Z AUTO VRB04KT 10SM FEW035 31/23 A2991 310 62 2200 VRB/04 RMK AO2 T03060228 $
53988KBKB BKB20190522171512005/22/19 17:15:31  5-MIN KBKB 222315Z AUTO VRB05KT 10SM FEW035 SCT044 31/23 A2991 310 60 2300 VRB/05 RMK AO2 T03110228 $
53988KBKB BKB20190522172012005/22/19 17:20:31  5-MIN KBKB 222320Z AUTO VRB05KT 10SM SCT033 BKN044 31/23 A2991 310 62 2200 VRB/05 RMK AO2 T03060228 $
53988KBKB BKB20190522172512605/22/19 17:25:31  5-MIN KBKB 222325Z AUTO VRB05G14KT 10SM SCT033 BKN044 31/23 A2991 310 62 2200 VRB/05G14 RMK AO2 T03060228 $
53988KBKB BKB20190522173007305/22/19 17:30:31  5-MIN KBKB 222330Z AUTO VRB04G14KT 10SM BKN033 BKN044 
53988KBKB BKB20190522173012605/22/19 17:30:31  5-MIN KBKB 222330Z AUTO VRB04G14KT 10SM BKN033 BKN044 31/23 A2991 310 65 2200 VRB/04G14 RMK AO2 T03060233 $
53988KBKB BKB20190522173512005/22/19 17:35:31  5-MIN KBKB 222335Z AUTO VRB05KT 10SM BKN033 BKN044 31/23 A2991 310 65 2200 VRB/05 RMK AO2 T03060233 $
53988KBKB BKB20190522174012005/22/19 17:40:31  5-MIN KBKB 222340Z AUTO VRB03KT 10SM BKN033 OVC044 30/23 A2990 310 67 2100 VRB/03 RMK AO2 T03000233 $
53988KBKB BKB20190522174512005/22/19 17:45:31  5-MIN KBKB 222345Z AUTO VRB04KT 10SM BKN033 OVC044 30/23 A2991 310 65 2100 VRB/04 RMK AO2 T03000228 $
53988KBKB BKB20190522174512605/22/19 17:45:31  5-MIN KBKB 222345Z AUTO VRB04KT 10SM BKN033 OVC044 30/23 29/23 A2990 310 67 2100 VRB/05 RMK AO2 T02940228 $
53988KBKB BKB20190522175013505/22/19 17:50:31  5-MIN KBKB 222350Z AUTO 10SM BKN032 OVC046 29/23 A2991 310 67 2100 M /M RMK AO2 SLP152 T02940228 10328 20294 55002 $
53988KBKB BKB20190522175512005/22/19 17:55:31  5-MIN KBKB 222355Z AUTO VRB05KT 10SM BKN032 BKN046 29/23 A2990 310 67 2100 VRB/05 RMK AO2 T02940228 $
53988KBKB BKB20190522180012005/22/19 18:00:31  5-MIN KBKB 230000Z AUTO VRB05KT 10SM BKN032 BKN045 29/23 A2990 310 67 2100 VRB/05 RMK AO2 T02940228 $
53988KBKB BKB20190522180512005/22/19 18:05:31  5-MIN KBKB 230005Z AUTO VRB03KT 10SM BKN032 BKN045 29/23 A2990 310 69 2000 VRB/03 RMK AO2 T02890228 $
53988KBKB BKB20190522181010705/22/19 18:10:31  5-MIN KBKB 230010Z AUTO VRB04KT 10SM SCT032 29/23 A2991 310 69 2000 VRB/04O2 T02830228 $
53988KBKB BKB20190522181011305/22/19 18:10:31  5-MIN KBKB 230010Z AUTO VRB04KT 10SM SCT032 29/23 A2991 310 69 2000 VRB/04 RMK AO2 T02890228 $
53988KBKB BKB20190522181507505/22/19 18:15:31  5-MIN KBKB 230015Z AUTO VRB03KT 10SM FEW032 28/23 A2991 
53988KBKB BKB20190522182012905/22/19 18:20:31  5-MIN KBKB 230020Z AUTO 15007KT 100V210 10SM FEW032 28/23 A2991 310 71 2000 150/07 100V210 RMK AO2 T02830228 $
53988KBKB BKB20190522182511305/22/19 18:25:31  5-MIN KBKB 230025Z AUTO VRB04KT 10SM FEW031 28/23 A2991 310 71 2000 VRB/04 RMK AO2 T02830228 $
53988KBKB BKB20190522183011005/22/19 18:30:31  5-MIN KBKB 230030Z AUTO VRB05KT 10SM CLR 28/23 A2991 310 71 1900 VRB/05 RMK AO2 T02830228 $
53988KBKB BKB20190522183510305/22/19 18:35:31  5-MIN KBKB 230035Z AUTO 10SM FEW029 28/23 A2991 310 71 1900 M /M RMK AO2 T02830228 $
53988KBKB BKB20190522184011305/22/19 18:40:31  5-MIN KBKB 230040Z AUTO VRB03KT 10SM FEW032 28/23 A2991 300 71 1900 VRB/03 RMK AO2 T02830228 $
53988KBKB BKB20190522184511005/22/19 18:45:31  5-MIN KBKB 230045Z AUTO 10SM FEW027 FEW032 28/23 A2992 300 74 1900 M /M RMK AO2 T02830233 $
53988KBKB BKB20190522185012705/22/19 18:50:31  5-MIN KBKB 230050Z AUTO VRB04KT 10SM SCT027 SCT036 28/23 A2992 300 74 1900 VRB/04 RMK AO2 SLP155 T02830233 $
53988KBKB BKB20190522185512705/22/19 18:55:31  5-MIN KBKB 230055Z AUTO VRB03KT 10SM FEW025 SCT030 BKN036 28/23 A2991 300 76 1900 VRB/03 RMK AO2 T02780233 $
53988KBKB BKB20190522190007005/22/19 19:00:31  5-MIN KBKB 230100Z AUTO VRB03KT 10SM FEW025 SCT030 
53988KBKB BKB20190522190012705/22/19 19:00:31  5-MIN KBKB 230100Z AUTO VRB03KT 10SM FEW025 SCT030 SCT037 28/23 A2991 300 76 1900 VRB/03 RMK AO2 T02780233 $
53988KBKB BKB20190522190512705/22/19 19:05:31  5-MIN KBKB 230105Z AUTO VRB03KT 10SM FEW025 SCT030 SCT037 28/23 A2991 300 76 1900 VRB/03 RMK AO2 T02780233 $
53988KBKB BKB20190522191012705/22/19 19:10:31  5-MIN KBKB 230110Z AUTO VRB04KT 10SM FEW025 SCT030 SCT039 28/23 A2992 300 76 1900 VRB/04 RMK AO2 T02780233 $
53988KBKB BKB20190522191013805/22/19 19:10:31  5-MIN KBKB 230110Z AUTO VRB04KT 10SM FEW02Z AUTO VRB04KT 10SM SCT035 27/23 A2994 280 82 1700 VRB/04 RMK AO2 T02670233 $
53988KBKB BKB20190522191511005/22/19 19:15:31  5-MIN KBKB 230115Z AUTO 10SM SCT027 SCT036 27/23 A2992 300 79 1800 M /M RMK AO2 T02720233 $
53988KBKB BKB20190522192012705/22/19 19:20:31  5-MIN KBKB 230120Z AUTO VRB04KT 10SM FEW025 FEW030 SCT036 27/23 A2992 300 79 1800 VRB/04 RMK AO2 T02720233 $
53988KBKB BKB20190522192512005/22/19 19:25:31  5-MIN KBKB 230125Z AUTO VRB04KT 10SM FEW027 FEW036 27/23 A2992 300 79 1800 VRB/04 RMK AO2 T02720233 $
53988KBKB BKB20190522193011005/22/19 19:30:31  5-MIN KBKB 230130Z AUTO 10SM FEW027 SCT036 27/23 A2992 300 79 1800 M /M RMK AO2 T02720233 $
53988KBKB BKB20190522193512005/22/19 19:35:31  5-MIN KBKB 230135Z AUTO 15004KT 10SM FEW027 FEW035 27/23 A2992 300 79 1800 150/04 RMK AO2 T02720233 $
53988KBKB BKB20190522194014905/22/19 19:40:31  5-MIN KBKB 230140Z AUTO VRB04KT 10SM FEW027 FEW035 27/23 A2992 290 82 1700 VRB/04 RMK AO2 T02670233 $1700 M /M RMK AO2 T02670233 $
53988KBKB BKB20190522195012005/22/19 19:50:31  5-MIN KBKB 230150Z AUTO VRB06KT 10SM FEW035 27/23 A2993 290 79 1700 VRB/06 RMK AO2 SLP160 T02670228 $
53988KBKB BKB20190522195511305/22/19 19:55:31  5-MIN KBKB 230155Z AUTO VRB05KT 10SM FEW035 27/23 A2993 290 79 1700 VRB/05 RMK AO2 T02670228 $
53988KBKB BKB20190522200011305/22/19 20:00:31  5-MIN KBKB 230200Z AUTO VRB04KT 10SM FEW035 27/23 A2993 290 79 1700 VRB/04 RMK AO2 T02670228 $
53988KBKB BKB20190522200511305/22/19 20:05:31  5-MIN KBKB 230205Z AUTO VRB04KT 10SM SCT035 27/23 A2993 280 79 1700 VRB/04 RMK AO2 T02670228 $
53988KBKB BKB20190522201011305/22/19 20:10:31  5-MIN KBKB 230210Z AUTO VRB03KT 10SM SCT035 27/23 A2994 280 79 1700 VRB/03 RMK AO2 T02670228 $
53988KBKB BKB20190522201511305/22/19 20:15:31  5-MIN KBKB 230215Z AUTO VRB04KT 10SM SCT035 27/23 A2994 280 82 1700 VRB/04 RMK AO2 T02670233 $
53988KBKB BKB20190522202011305/22/19 20:20:31  5-MIN KBKB 230220Z AUTO VRB04KT 10SM SCT035 27/23 A2994 280 82 1700 VRB/04 RMK AO2 T02670233 $
53988KBKB BKB20190522202511305/22/19 20:25:31  5-MIN KBKB 230225Z AUTO VRB04KT 10SM FEW035 26/23 A2994 280 84 1700 VRB/04 RMK AO2 T02610233 $
53988KBKB BKB20190522203010305/22/19 20:30:31  5-MIN KBKB 230230Z AUTO 10SM FEW035 26/23 A2994 280 84 1700 M /M RMK AO2 T02610233 $
53988KBKB BKB20190522203511305/22/19 20:35:31  5-MIN KBKB 230235Z AUTO VRB03KT 10SM FEW035 26/23 A2995 270 84 1700 VRB/03 RMK AO2 T02610233 $
53988KBKB BKB20190522204011305/22/19 20:40:31  5-MIN KBKB 230240Z AUTO VRB03KT 10SM FEW035 26/23 A2995 270 84 1700 VRB/03 RMK AO2 T02610233 $
53988KBKB BKB20190522204510005/22/19 20:45:31  5-MIN KBKB 230245Z AUTO 10SM CLR 26/23 A2995 270 84 1700 M /M RMK AO2 T02610233 $
53988KBKB BKB20190522205012305/22/19 20:50:31  5-MIN KBKB 230250Z AUTO VRB04KT 10SM CLR 26/23 A2995 270 87 1600 VRB/04 RMK AO2 SLP167 T02560233 57001 $
53988KBKB BKB20190522205511005/22/19 20:55:31  5-MIN KBKB 230255Z AUTO VRB03KT 10SM CLR 26/23 A2995 270 87 1600 VRB/03 RMK AO2 T02560233 $
53988KBKB BKB20190522210011005/22/19 21:00:31  5-MIN KBKB 230300Z AUTO VRB05KT 10SM CLR 26/23 A2995 270 84 1700 VRB/05 RMK AO2 T02610233 $
53988KBKB BKB20190522210511005/22/19 21:05:31  5-MIN KBKB 230305Z AUTO VRB04KT 10SM CLR 26/23 A2996 270 87 1600 VRB/04 RMK AO2 T02560233 $
53988KBKB BKB20190522211010005/22/19 21:10:31  5-MIN KBKB 230310Z AUTO 10SM CLR 26/23 A2996 260 84 1600 M /M RMK AO2 T02610233 $
53988KBKB BKB20190522211511005/22/19 21:15:31  5-MIN KBKB 230315Z AUTO VRB03KT 10SM CLR 26/23 A2996 260 87 1600 VRB/03 RMK AO2 T02560233 $
53988KBKB BKB20190522211516205/22/19 21:15:31  5-MIN KBKB 230315Z AUTO VRB03KT 10SM CLR 26/23 A2996 260 87 1600 VRB/03 RMK AO2 T02560233 $ A2998 250 87 1600 VRB/03 RMK AO2 SLP175 T02560233 $
53988KBKB BKB20190522212017105/22/19 21:20:31  5-MIN KBKB 230320Z AUTO VRB03KT 10SM CLR 26/23 A2996 260 87 1600 VRB/03 RMK AO2 T02560233 $05/22/19 21:25:31A2998 250 87 1600 VRB/04 RMK AO2 T02560233 $
53988KBKB BKB20190522225511305/22/19 22:55:31  5-MIN KBKB 230455Z AUTO 00000KT 10SM OVC019 26/23 A2997 250 87 1600 000/00 RMK AO2 T02560233 $
53988KBKB BKB20190522230012005/22/19 23:00:31  5-MIN KBKB 230500Z AUTO VRB04KT 10SM BKN017 OVC023 26/23 A2997 250 87 1600 VRB/04 RMK AO2 T02560233 $
53988KBKB BKB20190522230512005/22/19 23:05:31  5-MIN KBKB 230505Z AUTO 16003KT 10SM BKN017 OVC023 24/23 A2998 250 93 1400 150/03 RMK AO2 T02440233 $
53988KBKB BKB20190522231012005/22/19 23:10:31  5-MIN KBKB 230510Z AUTO VRB03KT 10SM BKN017 OVC023 26/23 A2998 250 87 1600 VRB/03 RMK AO2 T02560233 $
53988KBKB BKB20190522231512005/22/19 23:15:31  5-MIN KBKB 230515Z AUTO VRB04KT 10SM BKN017 OVC024 26/23 A2998 250 87 1600 VRB/04 RMK AO2 T02560233 $
53988KBKB BKB20190522232012005/22/19 23:20:31  5-MIN KBKB 230520Z AUTO VRB03KT 10SM BKN017 OVC024 26/23 A2997 250 87 1600 VRB/03 RMK AO2 T02560233 $
53988KBKB BKB20190522232512005/22/19 23:25:31  5-MIN KBKB 230525Z AUTO VRB04KT 10SM BKN015 OVC026 26/23 A2998 250 87 1600 VRB/04 RMK AO2 T02560233 $
53988KBKB BKB20190522233016505/22/19 23:30:31  5-MIN KBKB 230530Z AUTO VRB04KT 10SM BKN015 OVC026 26/23 A2998 250 87 1600 VRB/04 RMK AO2 T02560233 $ A2998 250 87 1600 VRB/04 RMK AO2 T02560233 $
53988KBKB BKB20190522233512005/22/19 23:35:31  5-MIN KBKB 230535Z AUTO VRB04KT 10SM BKN017 OVC025 26/23 A2998 250 87 1600 VRB/04 RMK AO2 T02560233 $
53988KBKB BKB20190522234012705/22/19 23:40:31  5-MIN KBKB 230540Z AUTO VRB03KT 10SM SCT015 BKN020 OVC025 26/23 A2998 250 87 1600 VRB/03 RMK AO2 T02560233 $
53988KBKB BKB20190522234512705/22/19 23:45:31  5-MIN KBKB 230545Z AUTO VRB04KT 10SM BKN017 BKN022 OVC027 26/23 A2998 250 87 1600 VRB/04 RMK AO2 T02560233 $
53988KBKB BKB20190522235015505/22/19 23:50:31  5-MIN KBKB 230550Z AUTO VRB04KT 10SM BKN017 OVC027 26/23 A2998 250 87 1600 VRB/04 RMK AO2 SLP176 T02560233 10294 20244 403280244 53016 $
53988KBKB BKB20190522235512705/22/19 23:55:31  5-MIN KBKB 230555Z AUTO VRB03KT 10SM BKN017 BKN021 OVC027 26/23 A2998 250 87 1600 VRB/03 RMK AO2 T02560233 $
53988KBKB BKB20190523000012705/23/19 00:00:31  5-MIN KBKB 230600Z AUTO VRB05KT 10SM BKN017 BKN021 OVC027 26/23 A2998 250 87 1600 VRB/05 RMK AO2 T02560233 $
53988KBKB BKB20190523000512705/23/19 00:05:31  5-MIN KBKB 230605Z AUTO VRB06KT 10SM BKN017 BKN021 OVC027 26/23 A2998 250 87 1600 VRB/06 RMK AO2 T02560233 $
53988KBKB BKB20190523001012705/23/19 00:10:31  5-MIN KBKB 230610Z AUTO VRB05KT 10SM BKN017 BKN022 OVC027 26/23 A2998 250 87 1600 VRB/05 RMK AO2 T02560233 $
53988KBKB BKB20190523001512705/23/19 00:15:31  5-MIN KBKB 230615Z AUTO VRB04KT 10SM BKN015 BKN022 OVC027 26/23 A2998 250 87 1600 VRB/04 RMK AO2 T02560233 $
53988KBKB BKB20190523002012705/23/19 00:20:31  5-MIN KBKB 230620Z AUTO VRB04KT 10SM BKN017 BKN022 BKN027 26/23 A2998 250 87 1600 VRB/04 RMK AO2 T02560233 $
53988KBKB BKB20190523002512005/23/19 00:25:31  5-MIN KBKB 230625Z AUTO VRB06KT 10SM BKN017 BKN027 26/23 A2998 250 87 1600 VRB/06 RMK AO2 T02560233 $
53988KBKB BKB20190523003010605/23/19 00:30:31  5-MIN KBKB 230630Z AUTO 00000KT 10SM BKN017 BKN021 BK0 87 1600 M /M RMK AO2 T02560233 $
53988KBKB BKB20190523004512705/23/19 00:45:31  5-MIN KBKB 230645Z AUTO 16004KT 10SM BKN015 BKN021 BKN026 26/23 A2998 240 87 1600 160/04 RMK AO2 T02560233 $
53988KBKB BKB20190523005013405/23/19 00:50:31  5-MIN KBKB 230650Z AUTO VRB04KT 10SM BKN015 BKN021 BKN026 26/23 A2998 240 87 1600 VRB/04 RMK AO2 SLP177 T02560233 $
53988KBKB BKB20190523005512005/23/19 00:55:31  5-MIN KBKB 230655Z AUTO VRB03KT 10SM BKN015 BKN021 26/23 A2998 240 87 1600 VRB/03 RMK AO2 T02560233 $
53988KBKB BKB20190523010012005/23/19 01:00:31  5-MIN KBKB 230700Z AUTO VRB04KT 10SM BKN015 BKN021 26/23 A2998 240 87 1600 VRB/04 RMK AO2 T02560233 $
53988KBKB BKB20190523220511005/23/19 22:05:31  5-MIN KBKB 240405Z AUTO 00000KT 10SM CLR 23/22 A3006 170 90 1200 000/00 RMK AO2 T02330217 $
53988KBKB BKB20190523221011005/23/19 22:10:31  5-MIN KBKB 240410Z AUTO 00000KT 10SM CLR 23/22 A3006 170 93 1200 000/00 RMK AO2 T02330222 $
53988KBKB BKB20190523221511005/23/19 22:15:31  5-MIN KBKB 240415Z AUTO VRB03KT 10SM CLR 23/22 A3006 170 93 1200 VRB/03 RMK AO2 T02330222 $
53988KBKB BKB20190523222011005/23/19 22:20:31  5-MIN KBKB 240420Z AUTO 00000KT 10SM CLR 23/22 A3006 170 93 1200 000/00 RMK AO2 T02330222 $
53988KBKB BKB20190523222511005/23/19 22:25:31  5-MIN KBKB 240425Z AUTO VRB03KT 10SM CLR 23/22 A3006 170 93 1200 VRB/03 RMK AO2 T02330222 $
53988KBKB BKB20190523223011005/23/19 22:30:31  5-MIN KBKB 240430Z AUTO VRB03KT 10SM CLR 23/22 A3006 170 93 1200 VRB/03 RMK AO2 T02330222 $
53988KBKB BKB20190523223511005/23/19 22:35:31  5-MIN KBKB 240435Z AUTO 00000KT 10SM CLR 23/22 A3006 170 93 1200 000/00 RMK AO2 T02330222 $
53988KBKB BKB20190523224011005/23/19 22:40:31  5-MIN KBKB 240440Z AUTO VRB03KT 10SM CLR 23/22 A3006 170 93 1200 VRB/03 RMK AO2 T02330222 $
53988KBKB BKB20190523224511005/23/19 22:45:31  5-MIN KBKB 240445Z AUTO 00000KT 10SM CLR 23/22 A3006 170 93 1200 000/00 RMK AO2 T02330222 $
53988KBKB BKB20190523225011705/23/19 22:50:31  5-MIN KBKB 240450Z AUTO VRB03KT 10SM CLR 23/22 A3006 170 93 1200 VRB/03 RMK AO2 SLP204 T02330222 $
53988KBKB BKB20190523225511005/23/19 22:55:31  5-MIN KBKB 240455Z AUTO VRB03KT 10SM CLR 23/22 A3006 170 93 1200 VRB/03 RMK AO2 T02330222 $
53988KBKB BKB20190523230011005/23/19 23:00:31  5-MIN KBKB 240500Z AUTO VRB03KT 10SM CLR 23/22 A3006 170 93 1200 VRB/03 RMK AO2 T02330222 $
53988KBKB BKB20190523230511005/23/19 23:05:31  5-MIN KBKB 240505Z AUTO 00000KT 10SM CLR 24/22 A3006 170 87 1300 000/00 RMK AO2 T02440222 $
53988KBKB BKB20190523231011005/23/19 23:10:31  5-MIN KBKB 240510Z AUTO VRB03KT 10SM CLR 23/22 A3006 170 93 1200 VRB/03 RMK AO2 T02330222 $
53988KBKB BKB20190523231514505/23/19 23:15:31  5-MIN KBKB 240515Z AUTO 00000KT 10SM CLR 23/22 A3006 170 93 1200 000/00 RMK AO2 T02330222 $ 93 1200 VRB/03 RMK AO2 T02330222 $
53988KBKB BKB20190523235014505/23/19 23:50:31  5-MIN KBKB 240550Z AUTO VRB03KT 10SM CLR 23/22 A3005 180 93 1200 VRB/03 RMK AO2 SLP202 T02330222 10294 20233 403280233 53008 $
53988KBKB BKB20190523235511005/23/19 23:55:31  5-MIN KBKB 240555Z AUTO 00000KT 10SM CLR 23/22 A3005 180 93 1200 000/00 RMK AO2 T02330222 $
53988KBKB BKB20190524000011005/24/19 00:00:31  5-MIN KBKB 240600Z AUTO 00000KT 10SM CLR 23/22 A3005 180 93 1200 000/00 RMK AO2 T02330222 $
53988KBKB BKB20190524000511005/24/19 00:05:31  5-MIN KBKB 240605Z AUTO 00000KT 10SM CLR 23/22 A3005 180 93 1200 000/00 RMK AO2 T02330222 $
53988KBKB BKB20190524001011005/24/19 00:10:31  5-MIN KBKB 240610Z AUTO VRB03KT 10SM CLR 23/22 A3005 180 93 1200 VRB/03 RMK AO2 T02330222 $
53988KBKB BKB20190524001511005/24/19 00:15:31  5-MIN KBKB 240615Z AUTO 00000KT 10SM CLR 23/22 A3005 180 93 1200 000/00 RMK AO2 T02330222 $
53988KBKB BKB20190524002011005/24/19 00:20:31  5-MIN KBKB 240620Z AUTO 00000KT 10SM CLR 23/22 A3005 180 93 1200 000/00 RMK AO2 T02330222 $
53988KBKB BKB20190524002511005/24/19 00:25:31  5-MIN KBKB 240625Z AUTO 00000KT 10SM CLR 23/22 A3005 180 93 1200 000/00 RMK AO2 T02330222 $
53988KBKB BKB20190524003011005/24/19 00:30:31  5-MIN KBKB 240630Z AUTO 00000KT 10SM CLR 23/22 A3005 180 93 1200 000/00 RMK AO2 T02330222 $
53988KBKB BKB20190524003511005/24/19 00:35:31  5-MIN KBKB 240635Z AUTO 00000KT 10SM CLR 23/22 A3005 180 93 1200 000/00 RMK AO2 T02330222 $
53988KBKB BKB20190524004011005/24/19 00:40:31  5-MIN KBKB 240640Z AUTO 00000KT 10SM CLR 23/22 A3004 180 97 1200 000/00 RMK AO2 T02280222 $
53988KBKB BKB20190524004511005/24/19 00:45:31  5-MIN KBKB 240645Z AUTO 00000KT 10SM CLR 23/22 A3004 180 97 1200 000/00 RMK AO2 T02280222 $
53988KBKB BKB20190524005011705/24/19 00:50:31  5-MIN KBKB 240650Z AUTO 00000KT 10SM CLR 23/22 A3004 180 97 1200 000/00 RMK AO2 SLP199 T02280222 $
53988KBKB BKB20190524005019805/24/19 00:50:31  5-MIN KBKB 240650Z AUTO 00000KT 10SM CLR 23/22 A3004 180 97 1200 000/00 RMK AO2 SLP199 T02280222 $05/24705Z AUTO 00000KT 9SM CLR 23/22 A3004 190 97 1200 000/00 RMK AO2 T02280222 $
53988KBKB BKB20190524005511005/24/19 00:55:31  5-MIN KBKB 240655Z AUTO 00000KT 10SM CLR 23/22 A3004 180 97 1200 000/00 RMK AO2 T02280222 $
53988KBKB BKB20190524010011005/24/19 01:00:31  5-MIN KBKB 240700Z AUTO 00000KT 10SM CLR 23/22 A3004 190 97 1200 000/00 RMK AO2 T02280222 $
53988KBKB BKB20190524010510905/24/19 01:05:31  5-MIN KBKB 240705Z AUTO 00000KT 9SM CLR 23/22 A3004 190 97 1200 000/00 RMK AO2 T02280222 $
53988KBKB BKB20190524011010905/24/19 01:10:31  5-MIN KBKB 240710Z AUTO 00000KT 9SM CLR 23/22 A3004 190 97 1200 000/00 RMK AO2 T02280222 $
53988KBKB BKB20190524011510905/24/19 01:15:31  5-MIN KBKB 240715Z AUTO 00000KT 9SM CLR 23/22 A3004 190 97 1200 000/00 RMK AO2 T02280222 $
53988KBKB BKB20190524012010905/24/19 01:20:31  5-MIN KBKB 240720Z AUTO 00000KT 9SM CLR 23/22 A3004 190 97 1200 000/00 RMK AO2 T02280222 $
53988KBKB BKB20190524012510905/24/19 01:25:31  5-MIN KBKB 240725Z AUTO 00000KT 8SM CLR 23/22 A3004 190 97 1200 000/00 RMK AO2 T02280222 $
53988KBKB BKB20190524013010905/24/19 01:30:31  5-MIN KBKB 240730Z AUTO 00000KT 8SM CLR 23/22 A3004 190 97 1200 000/00 RMK AO2 T02280222 $
53988KBKB BKB20190524013510905/24/19 01:35:31  5-MIN KBKB 240735Z AUTO 00000KT 8SM CLR 23/22 A3004 180 97 1200 000/00 RMK AO2 T02280222 $
53988KBKB BKB20190524014011205/24/19 01:40:31  5-MIN KBKB 240740Z AUTO 00000KT 7SM FEW014 23/22 A3004 190 97 1200 000/00 RMK AO2 T02280222 $
53988KBKB BKB20190524014511505/24/19 01:45:31  5-MIN KBKB 240745Z AUTO 00000KT 6SM BR FEW014 23/22 A3004 190 97 1200 000/00 RMK AO2 T02280222 $
53988KBKB BKB20190524015012205/24/19 01:50:31  5-MIN KBKB 240750Z AUTO 00000KT 6SM BR FEW012 23/22 A3004 190 97 1200 000/00 RMK AO2 SLP197 T02280222 $
53988KBKB BKB20190524015511505/24/19 01:55:31  5-MIN KBKB 240755Z AUTO 00000KT 6SM BR FEW012 23/22 A3004 190 97 1200 000/00 RMK AO2 T02280222 $
53988KBKB BKB20190524020011505/24/19 02:00:31  5-MIN KBKB 240800Z AUTO 00000KT 6SM BR FEW012 23/22 A3004 190 97 1200 000/00 RMK AO2 T02280222 $
53988KBKB BKB20190524020511605/24/19 02:05:31  5-MIN KBKB 240805Z AUTO 00000KT 6SM BR FEW012 22/22 A3004 190 100 1100 000/00 RMK AO2 T02220222 $
53988KBKB BKB20190524021011305/24/19 02:10:31  5-MIN KBKB 240810Z AUTO 00000KT 5SM BR CLR 22/22 A3004 190 100 1100 000/00 RMK AO2 T02220222 $
53988KBKB BKB20190524021017405/24/19 02:10:31  5-MIN KBKB 240810Z AUTO 00000KT 5SM BR CLR 22/22 A3004 190 100 1100 000/00 RMK AO2 T02220222 $05/24/19 02:3/22 A3003 200 97 1200 000/00 RMK AO2 T02280222 $
53988KBKB BKB20190524021511305/24/19 02:15:31  5-MIN KBKB 240815Z AUTO 00000KT 4SM BR CLR 22/22 A3004 190 100 1100 000/00 RMK AO2 T02220222 $
53988KBKB BKB20190524022011305/24/19 02:20:31  5-MIN KBKB 240820Z AUTO 00000KT 4SM BR CLR 22/22 A3004 190 100 1100 000/00 RMK AO2 T02220222 $
53988KBKB BKB20190524022511305/24/19 02:25:31  5-MIN KBKB 240825Z AUTO 00000KT 4SM BR CLR 22/22 A3004 190 100 1100 000/00 RMK AO2 T02220222 $
53988KBKB BKB20190524023011605/24/19 02:30:31  5-MIN KBKB 240830Z AUTO 00000KT 3SM BR FEW013 22/22 A3004 190 100 1100 000/00 RMK AO2 T02220222 $
53988KBKB BKB20190524023511605/24/19 02:35:31  5-MIN KBKB 240835Z AUTO 00000KT 4SM BR SCT015 22/22 A3004 190 100 1100 000/00 RMK AO2 T02220222 $
53988KBKB BKB20190524024011605/24/19 02:40:31  5-MIN KBKB 240840Z AUTO 00000KT 4SM BR BKN015 22/22 A3004 190 100 1100 000/00 RMK AO2 T02220222 $
53988KBKB BKB20190524024512305/24/19 02:45:31  5-MIN KBKB 240845Z AUTO 00000KT 4SM BR BKN015 BKN022 22/22 A3004 190 100 1100 000/00 RMK AO2 T02220222 $
53988KBKB BKB20190524025013505/24/19 02:50:31  5-MIN KBKB 240850Z AUTO 00000KT 5SM BR BKN015 BKN022 23/22 A3004 190 97 1200 000/00 RMK AO2 SLP196 T02280222 50003 $
53988KBKB BKB20190524032011605/24/19 03:20:31  5-MIN KBKB 240920Z AUTO 00000KT 5SM BR FEW015 22/22 A3003 200 100 1100 000/00 RMK AO2 T02220222 $
53988KBKB BKB20190524032511605/24/19 03:25:31  5-MIN KBKB 240925Z AUTO 00000KT 5SM BR FEW015 22/22 A3003 200 100 1100 000/00 RMK AO2 T02220222 $
53988KBKB BKB20190524033011605/24/19 03:30:31  5-MIN KBKB 240930Z AUTO 00000KT 5SM BR FEW015 22/22 A3003 200 100 1100 000/00 RMK AO2 T02220222 $
53988KBKB BKB20190524033511605/24/19 03:35:31  5-MIN KBKB 240935Z AUTO 00000KT 5SM BR FEW015 22/22 A3003 200 100 1100 000/00 RMK AO2 T02220222 $
53988KBKB BKB20190524034011505/24/19 03:40:31  5-MIN KBKB 240940Z AUTO 00000KT 5SM BR FEW015 23/22 A3003 190 97 1200 000/00 RMK AO2 T02280222 $
53988KBKB BKB20190524034512205/24/19 03:45:31  5-MIN KBKB 240945Z AUTO 00000KT 4SM BR FEW004 SCT015 23/22 A3003 190 97 1200 000/00 RMK AO2 T02280222 $
53988KBKB BKB20190524035013005/24/19 03:50:31  5-MIN KBKB 240950Z AUTO 00000KT 3SM BR SCT004 BKN015 22/22 A3003 190 100 1100 000/00 RMK AO2 SLP195 T02220222 $
53988KBKB BKB20190524035512705/24/19 03:55:31  5-MIN KBKB 240955Z AUTO 00000KT 2 1/2SM BR SCT004 BKN015 22/22 A3003 190 100 1100 000/00 RMK AO2 T02220222 $
53988KBKB BKB20190524040012205/24/19 04:00:31  5-MIN KBKB 241000Z AUTO 00000KT 3SM BR BKN004 BKN015 22/22 A3003 190 97 1100 000/00 RMK AO2 T02220217 $
53988KBKB BKB20190524040512305/24/19 04:05:31  5-MIN KBKB 241005Z AUTO 00000KT 4SM BR BKN004 OVC015 22/22 A3003 200 100 1100 000/00 RMK AO2 T02220222 $
53988KBKB BKB20190524041011605/24/19 04:10:31  5-MIN KBKB 241010Z AUTO 00000KT 5SM BR OVC004 22/22 A3003 200 100 1100 000/00 RMK AO2 T02220222 $
53988KBKB BKB20190524041511605/24/19 04:15:31  5-MIN KBKB 241015Z AUTO 00000KT 5SM BR OVC004 22/22 A3003 190 100 1100 000/00 RMK AO2 T02220222 $
53988KBKB BKB20190524042011505/24/19 04:20:31  5-MIN KBKB 241020Z AUTO 00000KT 5SM BR OVC004 23/22 A3004 190 97 1200 000/00 RMK AO2 T02330228 $
53988KBKB BKB20190524043011605/24/19 04:30:31  5-MIN KBKB 241030Z AUTO 00000KT 4SM BR OVC002 23/23 A3003 190 100 1200 000/00 RMK AO2 T02280228 $
53988KBKB BKB20190524043512005/24/19 04:35:31  5-MIN KBKB 241035Z AUTO 00000KT 2 1/2SM BR OVC002 23/23 A3003 190 100 1200 000/00 RMK AO2 T02280228 $
53988KBKB BKB20190524044011605/24/19 04:40:31  5-MIN KBKB 241040Z AUTO 00000KT 2SM BR OVC002 23/23 A3004 190 100 1200 000/00 RMK AO2 T02280228 $
53988KBKB BKB20190524044512705/24/19 04:45:31  5-MIN KBKB 241045Z AUTO 00000KT 2 1/2SM BR OVC002 23/23 A3004 190 97 1200 000/00 RMK AO2 VIS 2V3 T02330228 $
53988KBKB BKB20190524045012205/24/19 04:50:31  5-MIN KBKB 241050Z AUTO 00000KT 2SM BR OVC002 23/23 A3004 190 97 1200 000/00 RMK AO2 SLP197 T02330228 $
53988KBKB BKB20190524045511905/24/19 04:55:31  5-MIN KBKB 241055Z AUTO 00000KT 1 3/4SM BR OVC002 23/23 A3004 190 97 1200 000/00 RMK AO2 T02330228 $
53988KBKB BKB20190524050011905/24/19 05:00:31  5-MIN KBKB 241100Z AUTO 00000KT 1 3/4SM BR OVC002 23/23 A3004 190 97 1200 000/00 RMK AO2 T02330228 $
53988KBKB BKB20190524050512005/24/19 05:05:31  5-MIN KBKB 241105Z AUTO 00000KT 2 1/2SM BR OVC002 23/23 A3004 180 100 1200 000/00 RMK AO2 T02330233 $
53988KBKB BKB20190524051011605/24/19 05:10:31  5-MIN KBKB 241110Z AUTO 00000KT 3SM BR OVC002 23/23 A3004 180 100 1200 000/00 RMK AO2 T02330233 $
53988KBKB BKB20190524051511605/24/19 05:15:31  5-MIN KBKB 241115Z AUTO 00000KT 3SM BR OVC002 23/23 A3004 180 100 1200 000/00 RMK AO2 T02330233 $
53988KBKB BKB20190524052011605/24/19 05:20:31  5-MIN KBKB 241120Z AUTO 00000KT 4SM BR OVC002 23/23 A3005 180 100 1200 000/00 RMK AO2 T02330233 $
53988KBKB BKB20190524052511605/24/19 05:25:31  5-MIN KBKB 241125Z AUTO 00000KT 4SM BR OVC002 23/23 A3005 180 100 1200 000/00 RMK AO2 T02330233 $
53988KBKB BKB20190524053011605/24/19 05:30:31  5-MIN KBKB 241130Z AUTO VRB03KT 2SM BR OVC002 23/23 A3005 180 100 1200 VRB/03 RMK AO2 T02330233 $
53988KBKB BKB20190524053510305/24/19 05:35:31  5-MIN KBKB 241135Z A1SM BR VV002 23/23 A3006 170 100 1200 000/00 RMK AO2 T02330233 $
53988KBKB BKB20190524053512005/24/19 05:35:31  5-MIN KBKB 241135Z AUTO 00000KT 1 1/4SM BR OVC002 23/23 A3005 180 100 1200 000/00 RMK AO2 T02330233 $
53988KBKB BKB20190524054011605/24/19 05:40:31  5-MIN KBKB 241140Z AUTO 00000KT 1SM BR OVC002 23/23 A3005 170 100 1200 000/00 RMK AO2 T02330233 $
53988KBKB BKB20190524054511505/24/19 05:45:31  5-MIN KBKB 241145Z AUTO 00000KT 1SM BR VV002 23/23 A3006 170 100 1200 000/00 RMK AO2 T02330233 $
53988KBKB BKB20190524055014505/24/19 05:50:31  5-MIN KBKB 241150Z AUTO 00000KT 1 1/4SM BR OVC002 23/23 A3006 170 100 1200 000/00 RMK AO2 SLP205 T02330233 10233 20222 57007 $
53988KBKB BKB20190524055512005/24/19 05:55:31  5-MIN KBKB 241155Z AUTO 00000KT 1 1/2SM BR OVC002 23/23 A3006 170 100 1200 000/00 RMK AO2 T02330233 $
53988KBKB BKB20190524060011605/24/19 06:00:31  5-MIN KBKB 241200Z AUTO VRB03KT 2SM BR OVC002 23/23 A3006 170 100 1200 VRB/03 RMK AO2 T02330233 $
53988KBKB BKB20190524060512005/24/19 06:05:31  5-MIN KBKB 241205Z AUTO 00000KT 2 1/2SM BR OVC002 23/23 A3006 160 100 1200 000/00 RMK AO2 T02330233 $
53988KBKB BKB20190524061011605/24/19 06:10:31  5-MIN KBKB 241210Z AUTO 00000KT 3SM BR OVC002 23/23 A3007 160 100 1200 000/00 RMK AO2 T02330233 $
53988KBKB BKB20190524061510005/24/19 06:15:31  5-MIN KBKB 241215Z AUTO 00000KT 5SM BR OVC002 23/23 A3007 160 100 1200 00040233 $
53988KBKB BKB20190524061511605/24/19 06:15:31  5-MIN KBKB 241215Z AUTO 00000KT 5SM BR OVC002 23/23 A3007 160 100 1200 000/00 RMK AO2 T02330233 $
53988KBKB BKB20190524062011605/24/19 06:20:31  5-MIN KBKB 241220Z AUTO 00000KT 6SM BR OVC002 23/23 A3007 160 100 1200 000/00 RMK AO2 T02330233 $
53988KBKB BKB20190524062511305/24/19 06:25:31  5-MIN KBKB 241225Z AUTO 00000KT 7SM OVC002 23/23 A3007 160 100 1200 000/00 RMK AO2 T02330233 $
53988KBKB BKB20190524063011305/24/19 06:30:31  5-MIN KBKB 241230Z AUTO 00000KT 7SM OVC003 23/23 A3007 160 100 1200 000/00 RMK AO2 T02330233 $
53988KBKB BKB20190524063511305/24/19 06:35:31  5-MIN KBKB 241235Z AUTO 00000KT 7SM OVC003 23/23 A3007 160 100 1200 000/00 RMK AO2 T02330233 $
53988KBKB BKB20190524064011305/24/19 06:40:31  5-MIN KBKB 241240Z AUTO 00000KT 7SM OVC003 23/23 A3007 160 100 1200 000/00 RMK AO2 T02330233 $
53988KBKB BKB20190524064511305/24/19 06:45:31  5-MIN KBKB 241245Z AUTO 00000KT 7SM OVC003 23/23 A3008 160 100 1200 000/00 RMK AO2 T02330233 $
53988KBKB BKB20190524065016905/24/19 06:50:31  5-MIN KBKB 241250Z AUTO VRB03KT 6SM BR OVC003 23/23 A3008 150 100 1200 VRB/03 RMK AOM SCT034 BKN046 31/21 A3009 140 56 2000 VRB/05 RMK AO2 T03060211 $
53988KBKB BKB20190524080512505/24/19 08:05:31  5-MIN KBKB 241405Z AUTO 00000KT 10SM BKN008 25/23 A3009 140 90 1400 000/00 RMK AO2 CIG 005V011 T02500233 $
53988KBKB BKB20190524081012505/24/19 08:10:31  5-MIN KBKB 241410Z AUTO 00000KT 10SM BKN008 25/23 A3009 140 90 1400 000/00 RMK AO2 CIG 006V013 T02500233 $
53988KBKB BKB20190524081512505/24/19 08:15:31  5-MIN KBKB 241415Z AUTO 00000KT 10SM BKN010 26/23 A3009 140 87 1400 000/00 RMK AO2 CIG 006V013 T02560233 $
53988KBKB BKB20190524082012505/24/19 08:20:31  5-MIN KBKB 241420Z AUTO VRB04KT 10SM BKN010 26/23 A3009 140 84 1500 VRB/04 RMK AO2 CIG 007V013 T02610233 $
53988KBKB BKB20190524082511305/24/19 08:25:31  5-MIN KBKB 241425Z AUTO VRB03KT 10SM BKN010 26/23 A3009 140 84 1500 VRB/03 RMK AO2 T02610233 $
53988KBKB BKB20190524083011305/24/19 08:30:31  5-MIN KBKB 241430Z AUTO VRB04KT 10SM BKN012 26/23 A3009 140 81 1500 VRB/04 RMK AO2 T02610228 $
53988KBKB BKB20190524083511305/24/19 08:35:31  5-MIN KBKB 241435Z AUTO VRB04KT 10SM BKN012 26/23 A3009 140 84 1500 VRB/04 RMK AO2 T02610233 $
53988KBKB BKB20190524084012005/24/19 08:40:31  5-MIN KBKB 241440Z AUTO VRB03KT 10SM BKN012 BKN018 26/23 A3009 140 81 1500 VRB/03 RMK AO2 T02610228 $
53988KBKB BKB20190524084512005/24/19 08:45:31  5-MIN KBKB 241445Z AUTO VRB04KT 10SM BKN014 BKN022 26/23 A3009 140 81 1500 VRB/04 RMK AO2 T02610228 $
53988KBKB BKB20190524085013305/24/19 08:50:31  5-MIN KBKB 241450Z AUTO VRB03KT 10SM BKN014 BKN019 26/23 A3010 140 81 1500 VRB/03 RMK AO2 SLP216 T02610228 53010 $
53988KBKB BKB20190524085510805/24/19 08:55:31  5-MIN KBKB 241455Z AUTO 00000KT 10SM BKN014 BKN021 140 67 1800 VRB/04 RMK AO2 T02890222 $
53988KBKB BKB20190524090512005/24/19 09:05:31  5-MIN KBKB 241505Z AUTO 00000KT 10SM SCT015 BKN023 27/23 A3010 140 76 1600 000/00 RMK AO2 T02720228 $
53988KBKB BKB20190524091011505/24/19 09:10:31  5-MIN KBKB 241510Z AUTO VRB04KT 10SM SCT017 BKN023  A3010 140 74 1600 VRB/04 RMK AO2 T02720222 $
53988KBKB BKB20190524092012005/24/19 09:20:31  5-MIN KBKB 241520Z AUTO VRB05KT 10SM FEW015 BKN022 27/22 A3010 140 74 1600 VRB/05 RMK AO2 T02720222 $
53988KBKB BKB20190524092511305/24/19 09:25:31  5-MIN KBKB 241525Z AUTO VRB05KT 10SM SCT022 28/22 A3009 140 71 1700 VRB/05 RMK AO2 T02780222 $
53988KBKB BKB20190524093011305/24/19 09:30:31  5-MIN KBKB 241530Z AUTO VRB04KT 10SM SCT022 28/22 A3009 140 71 1700 VRB/04 RMK AO2 T02780222 $
53988KBKB BKB20190524093511305/24/19 09:35:31  5-MIN KBKB 241535Z AUTO 00000KT 10SM SCT022 28/22 A3009 140 71 1700 000/00 RMK AO2 T02780222 $
53988KBKB BKB20190524094012005/24/19 09:40:31  5-MIN KBKB 241540Z AUTO VRB03KT 10SM FEW022 SCT037 27/22 A3009 140 74 1600 VRB/03 RMK AO2 T02720222 $
53988KBKB BKB20190524094512005/24/19 09:45:31  5-MIN KBKB 241545Z AUTO VRB03KT 10SM FEW022 SCT037 28/22 A3009 140 69 1700 VRB/03 RMK AO2 T02830222 $
53988KBKB BKB20190524095017205/24/19 09:50:31  5-MIN KBKB 241550Z AUTO 00000KT 10SM FEW023 FEW037 29/22 A3009 140 67 1800 000/00 RMK AO2 SLP215 T02890222 $ A3009 140 67 1800 VRB/04 RMK AO2 T02890222 $
53988KBKB BKB20190524100011305/24/19 10:00:31  5-MIN KBKB 241600Z AUTO VRB04KT 10SM FEW033 29/22 A3009 140 67 1800 VRB/04 RMK AO2 T02890222 $
53988KBKB BKB20190524100511305/24/19 10:05:31  5-MIN KBKB 241605Z AUTO VRB03KT 10SM SCT028 28/22 A3010 140 69 1700 VRB/03 RMK AO2 T02780217 $
53988KBKB BKB20190524101012705/24/19 10:10:31  5-MIN KBKB 241610Z AUTO VRB04KT 10SM SCT028 SCT036 SCT044 28/22 A3010 140 69 1700 VRB/04 RMK AO2 T02830222 $
53988KBKB BKB20190524101512005/24/19 10:15:31  5-MIN KBKB 241615Z AUTO VRB03KT 10SM SCT030 SCT040 28/22 A3010 130 66 1700 VRB/03 RMK AO2 T02830217 $
53988KBKB BKB20190524102012005/24/19 10:20:31  5-MIN KBKB 241620Z AUTO VRB04KT 10SM SCT030 SCT039 29/22 A3010 130 64 1900 VRB/04 RMK AO2 T02940222 $
53988KBKB BKB20190524102512005/24/19 10:25:31  5-MIN KBKB 241625Z AUTO 00000KT 10SM SCT030 SCT039 28/22 A3010 130 69 1700 000/00 RMK AO2 T02830222 $
53988KBKB BKB20190524103012005/24/19 10:30:31  5-MIN KBKB 241630Z AUTO VRB03KT 10SM SCT032 BKN041 29/22 A3010 140 67 1800 VRB/03 RMK AO2 T02890222 $
53988KBKB BKB20190524103512005/24/19 10:35:31  5-MIN KBKB 241635Z AUTO VRB04KT 10SM SCT034 BKN041 28/22 A3010 140 69 1700 VRB/04 RMK AO2 T02830222 $
53988KBKB BKB20190524104512705/24/19 10:45:31  5-MIN KBKB 241645Z AUTO VRB03KT 10SM SCT032 BKN043 BKN050 28/22 A3010 140 66 1700 VRB/03 RMK AO2 T02830217 $
53988KBKB BKB20190524105013405/24/19 10:50:31  5-MIN KBKB 241650Z AUTO VRB06KT 10SM BKN032 BKN042 BKN050 29/22 A3010 140 64 1800 VRB/06 RMK AO2 SLP216 T02890217 $
53988KBKB BKB20190524105511005/24/19 10:55:31  5-MIN KBKB 241655Z AUTO 10SM SCT034 BKN043 31/22 A3009 140 58 2000 M /M RMK AO2 T03060217 $
53988KBKB BKB20190524110012005/24/19 11:00:31  5-MIN KBKB 241700Z AUTO VRB05KT 10SM SCT034 BKN046 31/21 A3009 140 56 2000 VRB/05 RMK AO2 T03060211 $
53988KBKB BKB20190524110512005/24/19 11:05:31  5-MIN KBKB 241705Z AUTO VRB05KT 10SM SCT034 SCT046 31/22 A3009 140 58 2000 VRB/05 RMK AO2 T03060217 $
53988KBKB BKB20190524111012005/24/19 11:10:31  5-MIN KBKB 241710Z AUTO VRB03KT 10SM FEW034 SCT047 31/22 A3009 140 58 2000 VRB/03 RMK AO2 T03060217 $
53988KBKB BKB20190524111512005/24/19 11:15:31  5-MIN KBKB 241715Z AUTO VRB06KT 10SM FEW035 SCT043 30/21 A3009 140 58 1900 VRB/06 RMK AO2 T03000211 $
53988KBKB BKB20190524112011305/24/19 11:20:31  5-MIN KBKB 241720Z AUTO VRB05KT 10SM SCT040 29/21 A3009 140 60 1900 VRB/05 RMK AO2 T02940211 $
53988KBKB BKB20190524112017105/24/19 11:20:31  5-MIN KBKB 241720Z AUTO VRB05KT 10SM SCT040 29/21 A3009 140 60 1900 VRB/05 RMK AO2 T02940211 $31/21 A3009 140 54 2000 140/08 100V190 RMK AO2 T03060206 $
53988KBKB BKB20190524112512905/24/19 11:25:31  5-MIN KBKB 241725Z AUTO 15008KT 100V190 10SM SCT042 31/21 A3009 140 54 2000 140/08 100V190 RMK AO2 T03060206 $
53988KBKB BKB20190524113011305/24/19 11:30:31  5-MIN KBKB 241730Z AUTO VRB04KT 10SM FEW042 31/21 A3009 140 56 2000 VRB/04 RMK AO2 T03060211 $
53988KBKB BKB20190524113511305/24/19 11:35:31  5-MIN KBKB 241735Z AUTO VRB05KT 10SM SCT042 31/21 A3009 140 54 2000 VRB/05 RMK AO2 T03060206 $
53988KBKB BKB20190524114011305/24/19 11:40:31  5-MIN KBKB 241740Z AUTO VRB03KT 10SM SCT042 30/21 A3009 150 56 1900 VRB/03 RMK AO2 T03000206 $
53988KBKB BKB20190524114511305/24/19 11:45:31  5-MIN KBKB 241745Z AUTO VRB05KT 10SM SCT042 30/21 A3008 150 58 1900 VRB/05 RMK AO2 T03000211 $
53988KBKB BKB20190524114515805/24/19 11:45:31  5-MIN KBKB 241745Z AUTO VRB05KT 10SM SCT042 30/21 A3008 150 58 1900 VRB/05 RMK AO2 T03000211 $05/24/19 11:50:31  5-ETE, 144 5MIN(S) LISTED.
53988KBKB BKB20190524115013805/24/19 11:50:31  5-MIN KBKB 241750Z AUTO VRB04KT 10SM FEW041 31/21 A3008 150 54 2100 VRB/04 RMK AO2 SLP212 T03110211 10311 20233 53006 $
53988KBKB BKB20190524115511305/24/19 11:55:31  5-MIN KBKB 241755Z AUTO VRB04KT 10SM FEW041 32/22 A3008 150 53 2200 VRB/04 RMK AO2 T03220217 $
53988KBKB BKB20190524120011305/24/19 12:00:31  5-MIN KBKB 241800Z AUTO VRB06KT 10SM FEW041 31/21 A3008 150 53 2100 VRB/06 RMK AO2 T03110206 $
53988KBKB BKB20190524120515805/24/19 12:05:31  5-MIN KBKB 241805Z AUTO VRB05KT 10SM FEW041 31/21 A3008 150 54 2100 VRB/05 RMK AO2 T03110211 $ A3008 150 56 2000 VRB/03 RMK AO2 T03060211 $
53988KBKB BKB20190524121512005/24/19 12:15:31  5-MIN KBKB 241815Z AUTO VRB04KT 10SM FEW041 FEW050 32/21 A3008 150 53 2100 VRB/04 RMK AO2 T03170211 $
53988KBKB BKB20190524122012005/24/19 12:20:31  5-MIN KBKB 241820Z AUTO VRB03KT 10SM FEW041 FEW050 32/21 A3008 150 53 2100 VRB/03 RMK AO2 T03170211 $
53988KBKB BKB20190524122512005/24/19 12:25:31  5-MIN KBKB 241825Z AUTO VRB03KT 10SM FEW041 SCT055 32/21 A3008 150 53 2100 VRB/03 RMK AO2 T03170211 $
53988KBKB BKB20190524123012005/24/19 12:30:31  5-MIN KBKB 241830Z AUTO VRB04KT 10SM FEW041 FEW055 32/21 A3007 160 53 2100 VRB/04 RMK AO2 T03170211 $
53988KBKB BKB20190524123512005/24/19 12:35:31  5-MIN KBKB 241835Z AUTO VRB05KT 10SM FEW042 FEW055 31/21 A3007 160 54 2100 VRB/05 RMK AO2 T03110211 $
53988KBKB BKB20190524124012005/24/19 12:40:31  5-MIN KBKB 241840Z AUTO VRB05KT 10SM SCT042 SCT055 31/21 A3007 160 56 2000 VRB/05 RMK AO2 T03060211 $
53988KBKB BKB20190524124512005/24/19 12:45:31  5-MIN KBKB 241845Z AUTO VRB04KT 10SM SCT042 BKN055 31/21 A3007 160 54 2100 VRB/04 RMK AO2 T03110211 $
53988KBKB BKB20190524125007505/24/19 12:50:31  5-MIN KBKB 241850Z AUTO VRB05KT 10SM SCT042 31/21 A3007 
53988KBKB BKB20190524125511305/24/19 12:55:31  5-MIN KBKB 241855Z AUTO VRB04KT 10SM SCT044 31/21 A3007 160 56 2000 VRB/04 RMK AO2 T03060211 $
53988KBKB BKB20190524130011305/24/19 13:00:31  5-MIN KBKB 241900Z AUTO VRB03KT 10SM SCT044 31/21 A3006 170 53 2100 VRB/03 RMK AO2 T03110206 $
53988KBKB BKB20190524130511305/24/19 13:05:31  5-MIN KBKB 241905Z AUTO VRB05KT 10SM SCT043 31/21 A3006 170 54 2100 VRB/05 RMK AO2 T03110211 $
53988KBKB BKB20190524131012005/24/19 13:10:31  5-MIN KBKB 241910Z AUTO VRB04KT 10SM SCT043 SCT050 32/22 A3006 170 55 2200 VRB/04 RMK AO2 T03170217 $
53988KBKB BKB20190524131511305/24/19 13:15:31  5-MIN KBKB 241915Z AUTO 09003KT 10SM FEW043 32/21 A3006 170 53 2200 090/03 RMK AO2 T03170211 $
53988KBKB BKB20190524132011305/24/19 13:20:31  5-MIN KBKB 241920Z AUTO VRB03KT 10SM FEW045 32/21 A3006 170 51 2200 VRB/03 RMK AO2 T03220211 $
53988KBKB BKB20190524132511305/24/19 13:25:31  5-MIN KBKB 241925Z AUTO VRB05KT 10SM SCT047 31/21 A3006 170 54 2100 VRB/05 RMK AO2 T03110211 $
53988KBKB BKB20190524133011305/24/19 13:30:31  5-MIN KBKB 241930Z AUTO VRB03KT 10SM SCT047 32/21 A3005 170 53 2200 VRB/03 RMK AO2 T03170211 $
53988KBKB BKB20190524133507505/24/19 13:35:31  5-MIN KBKB 241935Z AUTO VRB03KT 10SM FEW045 SCT055 31/21
53988KBKB BKB20190524195511005/24/19 19:55:31  5-MIN KBKB 250155Z AUTO 00000KT 10SM CLR 26/21 A3000 220 73 1600 000/00 RMK AO2 T02610211 $
53988KBKB BKB20190524200011005/24/19 20:00:31  5-MIN KBKB 250200Z AUTO 00000KT 10SM CLR 26/21 A3000 220 76 1500 000/00 RMK AO2 T02560211 $
53988KBKB BKB20190524200511005/24/19 20:05:31  5-MIN KBKB 250205Z AUTO 00000KT 10SM CLR 26/21 A3000 220 76 1500 000/00 RMK AO2 T02560211 $
53988KBKB BKB20190524201011005/24/19 20:10:31  5-MIN KBKB 250210Z AUTO 00000KT 10SM CLR 26/21 A3000 220 76 1500 000/00 RMK AO2 T02560211 $
53988KBKB BKB20190524201511005/24/19 20:15:31  5-MIN KBKB 250215Z AUTO 00000KT 10SM CLR 26/21 A3001 220 76 1500 000/00 RMK AO2 T02560211 $
53988KBKB BKB20190524202011005/24/19 20:20:31  5-MIN KBKB 250220Z AUTO 00000KT 10SM CLR 26/21 A3001 220 76 1500 000/00 RMK AO2 T02560211 $
53988KBKB BKB20190524202511005/24/19 20:25:31  5-MIN KBKB 250225Z AUTO 00000KT 10SM CLR 25/21 A3001 220 79 1500 000/00 RMK AO2 T02500211 $
53988KBKB BKB20190524203011005/24/19 20:30:31  5-MIN KBKB 250230Z AUTO 00000KT 10SM CLR 25/21 A3001 210 79 1500 000/00 RMK AO2 T02500211 $
53988KBKB BKB20190525070511705/25/19 07:05:31  5-MIN KBKB 251305Z AUTO 00000KT 1/4SM FG VV002 23/23 A3011 130 100 1100 000/00 RMK AO2 T02280228 $
53988KBKB BKB20190525071011705/25/19 07:10:31  5-MIN KBKB 251310Z AUTO 00000KT 1/4SM FG VV002 23/23 A3011 120 100 1100 000/00 RMK AO2 T02280228 $
53988KBKB BKB20190525071511705/25/19 07:15:31  5-MIN KBKB 251315Z AUTO 00000KT 1/4SM FG VV002 23/23 A3011 120 100 1100 000/00 RMK AO2 T02280228 $
53988KBKB BKB20190525072011705/25/19 07:20:31  5-MIN KBKB 251320Z AUTO 00000KT 1/4SM FG VV002 23/23 A3011 130 100 1100 000/00 RMK AO2 T02280228 $
53988KBKB BKB20190525072511705/25/19 07:25:31  5-MIN KBKB 251325Z AUTO 00000KT 1/4SM FG VV002 23/23 A3011 120 100 1100 000/00 RMK AO2 T02280228 $
53988KBKB BKB20190525073011705/25/19 07:30:31  5-MIN KBKB 251330Z AUTO 00000KT 1/4SM FG VV002 23/23 A3011 130 100 1100 000/00 RMK AO2 T02280228 $
53988KBKB BKB20190525073511705/25/19 07:35:31  5-MIN KBKB 251335Z AUTO 00000KT 1/4SM FG VV002 23/23 A3011 120 100 1200 000/00 RMK AO2 T02330233 $
53988KBKB BKB20190525074011705/25/19 07:40:31  5-MIN KBKB 251340Z AUTO 00000KT 1/2SM FG VV002 23/23 A3011 120 100 1200 000/00 RMK AO2 T02330233 $
53988KBKB BKB20190525074511705/25/19 07:45:31  5-MIN KBKB 251345Z AUTO 00000KT 1/2SM FG VV002 23/23 A3011 120 100 1200 000/00 RMK AO2 T02330233 $
53988KBKB BKB20190525075012405/25/19 07:50:31  5-MIN KBKB 251350Z AUTO 00000KT 3/4SM BR VV002 23/23 A3011 120 100 1200 000/00 RMK AO2 SLP222 T02330233 $
53988KBKB BKB20190525075513405/25/19 07:55:31  5-MIN KBKB 251355Z AUTO 00000KT 1 1/4SM BR OVC002 23/23 A3011 120 100 1200 000/00 RMK AO2 VIS 3/4V2 1/2 T02330233 $
53988KBKB BKB20190525080012005/25/19 08:00:31  5-MIN KBKB 251400Z AUTO 00000KT 2 1/2SM BR OVC002 23/23 A3011 120 100 1200 000/00 RMK AO2 T02330233 $
53988KBKB BKB20190525080511505/25/19 08:05:31  5-MIN KBKB 251405Z AUTO 11003KT 6SM BR OVC002 24/23 A3011 120 97 1200 100/03 RMK AO2 T02390233 $
53988KBKB BKB20190525081011305/25/19 08:10:31  5-MIN KBKB 251410Z AUTO 00000KT 7SM OVC002 23/23 A3011 120 100 1200 000/00 RMK AO2 T02330233 $
53988KBKB BKB20190525081511305/25/19 08:15:31  5-MIN KBKB 251415Z AUTO 00000KT 8SM OVC004 24/24 A3011 120 100 1200 000/00 RMK AO2 T02390239 $
53988KBKB BKB20190525082013205/25/19 08:20:31  5-MIN KBKB 251420Z AUTO 00000KT 10SM BKN004 OVC009 24/23 A3011 120 97 1200 000/00 RMK AO2 CIG 002V007 T02390233 $
53988KBKB BKB20190525082513205/25/19 08:25:31  5-MIN KBKB 251425Z AUTO 00000KT 10SM BKN004 OVC009 24/23 A3011 120 97 1200 000/00 RMK AO2 CIG 003V007 T02390233 $
53988KBKB BKB20190525083012705/25/19 08:30:31  5-MIN KBKB 251430Z AUTO VRB03KT 10SM SCT004 BKN009 BKN020 24/23 A3011 120 93 1300 VRB/03 RMK AO2 T02440233 $
53988KBKB BKB20190525083510205/25/19 08:35:31  5-MIN KBKB 251435Z AUTO 00000KT SCT007 BKN011 BKN020 M M M M /M RMK AO2 T02560239 $
53988KBKB BKB20190525084007905/25/19 08:40:31  5-MIN KBKB 251440Z AUTO 00000KT A3011 M M M 000/00 RMK AO2 $
53988KBKB BKB20190525084510605/25/19 08:45:31  5-MIN KBKB 251445Z AUTO VRB03KT 10SM 27/23 A3011 120 82 1500 VRB/03 RMK AO2 T02670233 $
53988KBKB BKB20190525085011305/25/19 08:50:31  5-MIN KBKB 251450Z AUTO 13005KT 10SM 27/23 A3011 120 82 1500 130/05 RMK AO2 SLP222 T02670233 $
53988KBKB BKB20190525085510605/25/19 08:55:31  5-MIN KBKB 251455Z AUTO 14003KT 10SM 27/23 A3011 120 79 1500 130/03 RMK AO2 T02670228 $
53988KBKB BKB20190525090010605/25/19 09:00:31  5-MIN KBKB 251500Z AUTO VRB03KT 10SM 26/23 A3011 120 81 1500 VRB/03 RMK AO2 T02610228 $
53988KBKB BKB20190525090510605/25/19 09:05:31  5-MIN KBKB 251505Z AUTO 00000KT 10SM 28/23 A3011 120 74 1700 000/00 RMK AO2 T02780228 $
53988KBKB BKB20190525091011305/25/19 09:10:31  5-MIN KBKB 251510Z AUTO VRB05KT 10SM SCT022 28/23 A3011 120 71 1700 VRB/05 RMK AO2 T02830228 $
53988KBKB BKB20190525091511305/25/19 09:15:31  5-MIN KBKB 251515Z AUTO VRB03KT 10SM FEW022 28/22 A3011 120 71 1700 VRB/03 RMK AO2 T02780222 $
53988KBKB BKB20190525092011305/25/19 09:20:31  5-MIN KBKB 251520Z AUTO VRB03KT 10SM FEW022 28/22 A3011 120 69 1700 VRB/03 RMK AO2 T02830222 $
53988KBKB BKB20190525092511305/25/19 09:25:31  5-MIN KBKB 251525Z AUTO VRB03KT 10SM FEW022 28/22 A3012 120 69 1700 VRB/03 RMK AO2 T02830222 $
53988KBKB BKB20190525093012005/25/19 09:30:31  5-MIN KBKB 251530Z AUTO VRB04KT 10SM FEW022 SCT028 29/22 A3012 120 67 1800 VRB/04 RMK AO2 T02890222 $
53988KBKB BKB20190525093520805/25/19 09:35:31  5-MIN KBKB 251535Z AUTO VRB04KT 10SM SCT024 SCT028 28/22 A3011 120 69 1700 VRB/04 RMK AO2 T02780217 $0515Z AUTO VRB04KT 10SM SCT037 BKN047 30/21 A3010 130 58 1900 VRB/04 RMK AO2 T03000211 $
53988KBKB BKB20190525112011305/25/19 11:20:31  5-MIN KBKB 251720Z AUTO 15004KT 10SM SCT037 31/22 A3010 130 58 2000 150/04 RMK AO2 T03060217 $
53988KBKB BKB20190525112511305/25/19 11:25:31  5-MIN KBKB 251725Z AUTO 00000KT 10SM SCT038 29/21 A3010 140 60 1900 000/00 RMK AO2 T02940211 $
53988KBKB BKB20190525113011305/25/19 11:30:31  5-MIN KBKB 251730Z AUTO VRB03KT 10SM SCT038 31/22 A3009 140 58 2000 VRB/03 RMK AO2 T03060217 $
53988KBKB BKB20190525113512005/25/19 11:35:31  5-MIN KBKB 251735Z AUTO VRB05KT 10SM FEW038 SCT050 31/21 A3009 140 54 2100 VRB/05 RMK AO2 T03110211 $
53988KBKB BKB20190525114011305/25/19 11:40:31  5-MIN KBKB 251740Z AUTO VRB04KT 10SM FEW038 32/22 A3009 140 53 2200 VRB/04 RMK AO2 T03220217 $
53988KBKB BKB20190525114511305/25/19 11:45:31  5-MIN KBKB 251745Z AUTO VRB03KT 10SM FEW040 31/21 A3009 140 53 2100 VRB/03 RMK AO2 T03110206 $
53988KBKB BKB20190525115013205/25/19 11:50:31  5-MIN KBKB 251750Z AUTO VRB04KT 10SM FEW040 31/21 A3009 150 54 2100 VRB/04 RMK AO2 SLP213 T03110211 10322 20217 $
53988KBKB BKB20190525115510305/25/19 11:55:31  5-MIN KBKB 251755Z AUTO 10SM FEW042 32/22 A3009 150 55 2100 M /M RMK AO2 T03170217 $
53988KBKB BKB20190525120011305/25/19 12:00:31  5-MIN KBKB 251800Z AUTO VRB04KT 10SM SCT042 31/21 A3009 150 54 2100 VRB/04 RMK AO2 T03110211 $
53988KBKB BKB20190525120512005/25/19 12:05:31  5-MIN KBKB 251805Z AUTO VRB04KT 10SM FEW042 SCT050 31/21 A3008 150 54 2100 VRB/04 RMK AO2 T03110211 $
53988KBKB BKB20190525121011305/25/19 12:10:31  5-MIN KBKB 251810Z AUTO VRB04KT 10SM SCT044 31/21 A3008 150 54 2100 VRB/04 RMK AO2 T03110211 $
53988KBKB BKB20190525121511305/25/19 12:15:31  5-MIN KBKB 251815Z AUTO VRB06KT 10SM FEW044 32/21 A3008 150 53 2100 VRB/06 RMK AO2 T03170211 $
53988KBKB BKB20190525122012005/25/19 12:20:31  5-MIN KBKB 251820Z AUTO VRB05KT 10SM SCT048 32/21 A3008  A3007 160 53 2100 VRB/04 RMK AO2 T03170211 $
53988KBKB BKB20190525125012705/25/19 12:50:31  5-MIN KBKB 251850Z AUTO VRB05KT 10SM SCT046 BKN060 32/21 A3007 160 53 2100 VRB/05 RMK AO2 SLP208 T03170211 $
53988KBKB BKB20190525125512005/25/19 12:55:31  5-MIN KBKB 251855Z AUTO VRB04KT 10SM SCT046 BKN060 31/21 A3007 160 54 2100 VRB/04 RMK AO2 T03110211 $
53988KBKB BKB20190525130012005/25/19 13:00:31  5-MIN KBKB 251900Z AUTO 13006KT 10SM SCT047 SCT060 32/21 A3007 160 51 2200 120/06 RMK AO2 T03220211 $
53988KBKB BKB20190525130511305/25/19 13:05:31  5-MIN KBKB 251905Z AUTO VRB04KT 10SM SCT047 32/21 A3007 160 53 2100 VRB/04 RMK AO2 T03170211 $
53988KBKB BKB20190525131011305/25/19 13:10:31  5-MIN KBKB 251910Z AUTO VRB03KT 10SM SCT047 31/21 A3007 160 54 2100 VRB/03 RMK AO2 T03110211 $
53988KBKB BKB20190525131511305/25/19 13:15:31  5-MIN KBKB 251915Z AUTO VRB03KT 10SM SCT047 32/21 A3007 160 51 2200 VRB/03 RMK AO2 T03220211 $
53988KBKB BKB20190525132010305/25/19 13:20:31  5-MIN KBKB 251920Z AUTO 10SM FEW049 33/21 A3006 160 49 2300 M /M RMK AO2 T03280211 $
53988KBKB BKB20190525132511305/25/19 13:25:31  5-MIN KBKB 251925Z AUTO VRB03KT 10SM FEW047 33/21 A3006 170 49 2300 VRB/03 RMK AO2 T03280211 $
53988KBKB BKB20190525133011305/25/19 13:30:31  5-MIN KBKB 251930Z AUTO 19006KT 10SM FEW047 33/21 A3006 170 48 2300 190/06 RMK AO2 T03280206 $
53988KBKB BKB20190525133511305/25/19 13:35:31  5-MIN KBKB 251935Z AUTO VRB03KT 10SM FEW047 32/20 A3006 170 48 2200 VRB/03 RMK AO2 T03220200 $
53988KBKB BKB20190525134011005/25/19 13:40:31  5-MIN KBKB 251940Z AUTO 00000KT 10SM CLR 33/21 A3006 170 48 2300 000/00 RMK AO2 T03330211 $
53988KBKB BKB20190525134511305/25/19 13:45:31  5-MIN KBKB 251945Z AUTO VRB05KT 10SM FEW050 32/21 A3006 170 49 2200 VRB/05 RMK AO2 T03220206 $
53988KBKB BKB20190525135012005/25/19 13:50:31  5-MIN KBKB 251950Z AUTO VRB03KT 10SM FEW050 32/21 A3006 170 49 2200 VRB/03 RMK AO2 SLP203 T03220206 $
53988KBKB BKB20190525135511305/25/19 13:55:31  5-MIN KBKB 251955Z AUTO VRB04KT 10SM FEW050 33/21 A3006 170 49 2300 VRB/04 RMK AO2 T03280211 $
53988KBKB BKB20190525140011305/25/19 14:00:31  5-MIN KBKB 252000Z AUTO VRB05KT 10SM FEW050 33/21 A3005 180 48 2300 VRB/05 RMK AO2 T03280206 $
53988KBKB BKB20190525140511305/25/19 14:05:31  5-MIN KBKB 252005Z AUTO VRB03KT 10SM FEW050 32/20 A3005 180 48 2200 VRB/03 RMK AO2 T03220200 $
53988KBKB BKB20190525141011305/25/19 14:10:31  5-MIN KBKB 252010Z AUTO 21004KT 10SM FEW050 33/20 A3005 180 46 2300 210/04 RMK AO2 T03280200 $
53988KBKB BKB20190525141510305/25/19 14:15:31  5-MIN KBKB 252015Z AUTO 10SM FEW050 32/20 A3005 180 48 2200 M /M RMK AO2 T03220200 $
53988KBKB BKB20190525142011305/25/19 14:20:31  5-MIN KBKB 252020Z AUTO VRB03KT 10SM FEW050 33/21 A3005 180 48 2300 VRB/03 RMK AO2 T03280206 $
53988KBKB BKB20190525142511305/25/19 14:25:31  5-MIN KBKB 252025Z AUTO VRB04KT 10SM FEW050 33/21 A3005 180 49 2300 VRB/04 RMK AO2 T03280211 $
53988KBKB BKB20190525143011305/25/19 14:30:31  5-MIN KBKB 252030Z AUTO 15004KT 10SM FEW050 32/21 A3005 180 51 2200 150/04 RMK AO2 T03170206 $
53988KBKB BKB20190525143510305/25/19 14:35:31  5-MIN KBKB 252035Z AUTO 10SM SCT049 32/21 A3004 180 49 2200 M /M RMK AO2 T03220206 $
53988KBKB BKB20190525144011305/25/19 14:40:31  5-MIN KBKB 252040Z AUTO VRB05KT 10SM BKN049 33/21 A3004 180 49 2300 VRB/05 RMK AO2 T03280211 $
53988KBKB BKB20190525144512005/25/19 14:45:31  5-MIN KBKB 252045Z AUTO VRB04KT 10SM SCT049 BKN060 32/21 A3004 180 49 2200 VRB/04 RMK AO2 T03220206 $
53988KBKB BKB20190525145013305/25/19 14:50:31  5-MIN KBKB 252050Z AUTO VRB05KT 10SM SCT049 SCT060 32/21 A3004 180 49 2200 VRB/05 RMK AO2 SLP199 T03220206 58009 $
53988KBKB BKB20190525145512005/25/19 14:55:31  5-MIN KBKB 252055Z AUTO VRB05KT 10SM SCT049 SCT060 33/20 A3004 180 46 2300 VRB/05 RMK AO2 T03280200 $
53988KBKB BKB20190525150012005/25/19 15:00:31  5-MIN KBKB 252100Z AUTO VRB03KT 10SM SCT049 SCT060 32/20 A3004 180 49 2200 VRB/03 RMK AO2 T03170200 $
53988KBKB BKB20190525150512005/25/19 15:05:31  5-MIN KBKB 252105Z AUTO VRB03KT 10SM FEW050 SCT060 32/21 A3004 190 51 2200 VRB/03 RMK AO2 T03170206 $
53988KBKB BKB20190525151011305/25/19 15:10:31  5-MIN KBKB 252110Z AUTO VRB05KT 10SM FEW060 32/21 A3004 190 49 2200 VRB/05 RMK AO2 T03220206 $
53988KBKB BKB20190525151511305/25/19 15:15:31  5-MIN KBKB 252115Z AUTO VRB06KT 10SM FEW050 32/20 A3004 190 48 2200 VRB/06 RMK AO2 T03220200 $
53988KBKB BKB20190525152006805/25/19 15:20:31  5-MIN KBKB 252120Z AUTO VB/04 RMK AO2 T03220206 $
53988KBKB BKB20190525154511305/25/19 15:45:31  5-MIN KBKB 252145Z AUTO VRB03KT 10SM FEW060 32/21 A3003 190 49 2200 VRB/03 RMK AO2 T03220206 $
53988KBKB BKB20190525155012005/25/19 15:50:31  5-MIN KBKB 252150Z AUTO VRB03KT 10SM FEW060 32/21 A3003 190 51 2200 VRB/03 RMK AO2 SLP195 T03170206 $
53988KBKB BKB20190525155511305/25/19 15:55:31  5-MIN KBKB 252155Z AUTO VRB03KT 10SM FEW060 32/21 A3003 190 51 2200 VRB/03 RMK AO2 T03220211 $
53988KBKB BKB20190525160011305/25/19 16:00:31  5-MIN KBKB 252200Z AUTO VRB03KT 10SM FEW060 32/21 A3003 200 49 2200 VRB/03 RMK AO2 T03220206 $
53988KBKB BKB20190525160510305/25/19 16:05:31  5-MIN KBKB 252205Z AUTO 10SM FEW060 32/20 A3003 200 48 2200 M /M RMK AO2 T03220200 $
53988KBKB BKB20190525161011005/25/19 16:10:31  5-MIN KBKB 252210Z AUTO VRB03KT 10SM CLR 32/20 A3003 200 48 2300 VRB/03 RMK AO2 T03220200 $
53988KBKB BKB20190525161511005/25/19 16:15:31  5-MIN KBKB 252215Z AUTO VRB04KT 10SM CLR 32/20 A3003 200 48 2300 VRB/04 RMK AO2 T03220200 $
53988KBKB BKB20190525162011005/25/19 16:20:31  5-MIN KBKB 252220Z AUTO 14007KT 10SM CLR 32/20 A3003 200 49 2200 140/07 RMK AO2 T03170200 $
53988KBKB BKB20190525162511005/25/19 16:25:31  5-MIN KBKB 252225Z AUTO VRB04KT 10SM CLR 31/21 A3003 200 53 2100 VRB/04 RMK AO2 T03110206 $
53988KBKB BKB20190525163011005/25/19 16:30:31  5-MIN KBKB 252230Z AUTO VRB03KT 10SM CLR 31/20 A3002 200 51 2100 VRB/03 RMK AO2 T03110200 $
53988KBKB BKB20190525163510005/25/19 16:35:31  5-MIN KBKB 252235Z AUTO 10SM CLR 32/21 A3002 200 51 2200 M /M RMK AO2 T03170206 $
53988KBKB BKB20190525164011305/25/19 16:40:31  5-MIN KBKB 252240Z AUTO VRB04KT 10SM FEW050 31/19 A3002 200 49 2100 VRB/04 RMK AO2 T03110194 $
53988KBKB BKB20190525164511005/25/19 16:45:31  5-MIN KBKB 252245Z AUTO VRB03KT 10SM CLR 32/20 A3002 200 49 2200 VRB/03 RMK AO2 T03170200 $
53988KBKB BKB20190525165016305/25/19 16:50:31  5-MIN KBKB 252250Z AUTO 00000KT 10SM CLR 31/20 A3002 200 51 2100 000/5Z AUTO VRB05KT 10SM CLR 31/20 A3002 210 51 2100 VRB/05 RMK AO2 T03110200 $
53988KBKB BKB20190525172011005/25/19 17:20:31  5-MIN KBKB 252320Z AUTO VRB03KT 10SM CLR 31/20 A3002 210 51 2100 VRB/03 RMK AO2 T03110200 $
53988KBKB BKB20190525172511005/25/19 17:25:31  5-MIN KBKB 252325Z AUTO VRB06KT 10SM CLR 31/21 A3002 210 54 2100 VRB/06 RMK AO2 T03060206 $
53988KBKB BKB20190525173011005/25/19 17:30:31  5-MIN KBKB 252330Z AUTO VRB04KT 10SM CLR 31/21 A3002 210 54 2100 VRB/04 RMK AO2 T03060206 $
53988KBKB BKB20190525173511005/25/19 17:35:31  5-MIN KBKB 252335Z AUTO VRB03KT 10SM CLR 30/21 A3002 210 56 2000 VRB/03 RMK AO2 T03000206 $
53988KBKB BKB20190525174011005/25/19 17:40:31  5-MIN KBKB 252340Z AUTO VRB04KT 10SM CLR 31/21 A3002 210 54 2100 VRB/04 RMK AO2 T03060206 $
53988KBKB BKB20190525174511305/25/19 17:45:31  5-MIN KBKB 252345Z AUTO VRB03KT 10SM FEW047 31/21 A3002 210 54 2100 VRB/03 RMK AO2 T03060206 $
53988KBKB BKB20190525175013805/25/19 17:50:31  5-MIN KBKB 252350Z AUTO VRB04KT 10SM FEW047 31/21 A3002 210 54 2100 VRB/04 RMK AO2 SLP190 T03060206 10333 20300 56014 $
53988KBKB BKB20190525175511005/25/19 17:55:31  5-MIN KBKB 252355Z AUTO VRB03KT 10SM CLR 30/21 A3002 210 56 2000 VRB/03 RMK AO2 T03000206 $
53988KBKB BKB20190525180011005/25/19 18:00:31  5-MIN KBKB 260000Z AUTO VRB04KT 10SM CLR 30/21 A3002 210 56 2000 VRB/04 RMK AO2 T03000206 $
53988KBKB BKB20190525180511005/25/19 18:05:31  5-MIN KBKB 260005Z AUTO VRB03KT 10SM CLR 30/21 A3002 210 56 2000 VRB/03 RMK AO2 T03000206 $
53988KBKB BKB20190525181011005/25/19 18:10:31  5-MIN KBKB 260010Z AUTO 00000KT 10SM CLR 29/21 A3002 210 58 2000 000/00 RMK AO2 T02940206 $
53988KBKB BKB20190525181511005/25/19 18:15:31  5-MIN KBKB 260015Z AUTO 00000KT 10SM CLR 29/21 A3002 210 58 2000 000/00 RMK AO2 T02940206 $
53988KBKB BKB20190525182014505/25/19 18:20:31  5-MIN KBKB 260020Z AUTO 00000KT 10SM CLR 29/21 A3002 210 60 1900 000/00 RMK AO2 T02890206 $05/25/19 18:/00 RMK AO2 T02720217 $
53988KBKB BKB20190525190011005/25/19 19:00:31  5-MIN KBKB 260100Z AUTO 00000KT 10SM CLR 27/21 A3002 200 69 1700 000/00 RMK AO2 T02720211 $
53988KBKB BKB20190526045511605/26/19 04:55:31  5-MIN KBKB 261055Z AUTO 00000KT 1/2SM FG VV002 21/21 A3009 140 100 900 000/00 RMK AO2 T02060206 $
53988KBKB BKB20190526050011605/26/19 05:00:31  5-MIN KBKB 261100Z AUTO 00000KT 1/2SM FG VV002 21/21 A3009 140 100 900 000/00 RMK AO2 T02060206 $
53988KBKB BKB20190526050511605/26/19 05:05:31  5-MIN KBKB 261105Z AUTO 00000KT 1/4SM FG VV002 21/21 A3009 140 100 900 000/00 RMK AO2 T02060206 $
53988KBKB BKB20190526051011605/26/19 05:10:31  5-MIN KBKB 261110Z AUTO 00000KT 1/4SM FG VV002 21/21 A3009 140 100 900 000/00 RMK AO2 T02060206 $
53988KBKB BKB20190526051511605/26/19 05:15:31  5-MIN KBKB 261115Z AUTO 00000KT 1/4SM FG VV002 21/21 A3010 140 100 900 000/00 RMK AO2 T02060206 $
53988KBKB BKB20190526052012405/26/19 05:20:31  5-MIN KBKB 261120Z AUTO 00000KT 1/4SM FG BKN002 OVC024 21/21 A3010 140 100 900 000/00 RMK AO2 T02060206 $
53988KBKB BKB20190526052512305/26/19 05:25:31  5-MIN KBKB 261125Z AUTO 00000KT 1/4SM FG BKN002 OVC026 21/21 A3010 130 97 900 000/00 RMK AO2 T02110206 $
53988KBKB BKB20190526053012405/26/19 05:30:31  5-MIN KBKB 261130Z AUTO 00000KT 1/4SM FG BKN004 OVC026 21/21 A3010 130 100 900 000/00 RMK AO2 T02110211 $
53988KBKB BKB20190526053512305/26/19 05:35:31  5-MIN KBKB 261135Z AUTO 00000KT 1/2SM FG BKN006 OVC026 21/21 A3010 130 97 900 000/00 RMK AO2 T02110206 $
53988KBKB BKB20190526054013105/26/19 05:40:31  5-MIN KBKB 261140Z AUTO 00000KT 1/2SM FG BKN006 BKN021 OVC027 21/21 A3010 130 100 900 000/00 RMK AO2 T02110211 $
53988KBKB BKB20190526054513105/26/19 05:45:31  5-MIN KBKB 261145Z AUTO 00000KT 3/4SM BR FEW001 BKN006 OVC026 21/21 A3010 130 100 900 000/00 RMK AO2 T02110211 $
53988KBKB BKB20190526055015805/26/19 05:50:31  5-MIN KBKB 261150Z AUTO 00000KT 1 1/4SM BR FEW001 BKN010 OVC028 21/21 A3010 130 100 900 000/00 RMK AO2 SLP218 T02110211 10228 20206 56002 $
53988KBKB BKB20190526055513305/26/19 05:55:31  5-MIN KBKB 261155Z AUTO 00000KT 1 3/4SM BR BKN010 BKN016 OVC027 21/21 A3010 130 100 900 000/00 RMK AO2 T02110211 $
53988KBKB BKB20190526060012905/26/19 06:00:31  5-MIN KBKB 261200Z AUTO 00000KT 1SM BR SCT010 BKN018 OVC025 21/21 A3010 130 100 900 000/00 RMK AO2 T02110211 $
53988KBKB BKB20190526060507305/26/19 06:05:31  5-MIN KBKB 261205Z AUTO 00000KT M M M 000/00 RMK AO2 $
53988KBKB BKB20190526061010205/26/19 06:10:31  5-MIN KBKB 261210Z AUTO 00000KT 22/22 A3011 130 100 1000 000/00 RMK AO2 T02170217 $
53988KBKB BKB20190526061512505/26/19 06:15:31  5-MIN KBKB 261215Z AUTO 00000KT 2 1/2SM BR 22/22 A3011 130 100 1000 000/00 RMK AO2 T02170217 $ T02500233 $
53988KBKB BKB20190526063513405/26/19 06:35:31  5-MIN KBKB 261235Z AUTO 00000KT 1 1/4SM BR FEW001 BKN007 OVC026 22/22 A3011 130 100 1000 000/00 RMK AO2 T02220222 $
53988KBKB BKB20190526064013405/26/19 06:40:31  5-MIN KBKB 261240Z AUTO 00000KT 2 1/2SM BR FEW001 BKN009 BKN026 22/22 A3011 130 100 1000 000/00 RMK AO2 T02220222 $
53988KBKB BKB20190526064513005/26/19 06:45:31  5-MIN KBKB 261245Z AUTO 00000KT 5SM BR FEW001 BKN009 BKN024 22/22 A3011 130 100 1000 000/00 RMK AO2 T02220222 $
53988KBKB BKB20190526065012005/26/19 06:50:31  5-MIN KBKB 261250Z AUTO 00000KT 6SM BR FEW001 SCT007 SCT024 23/23 A3011 130 100 1100 000/00 RMK AO2 $
53988KBKB BKB20190526065511905/26/19 06:55:31  5-MIN KBKB 261255Z AUTO 00000KT 8SM FEW009 FEW024 23/23 A3011 130 97 1200 000/00 RMK AO2 T02330228 $
53988KBKB BKB20190526070011205/26/19 07:00:31  5-MIN KBKB 261300Z AUTO 00000KT 9SM FEW011 23/23 A3011 130 97 1200 000/00 RMK AO2 T02330228 $
53988KBKB BKB20190526070511005/26/19 07:05:31  5-MIN KBKB 261305Z AUTO 00000KT 10SM CLR 23/23 A3011 120 97 1200 000/00 RMK AO2 T02330228 $
53988KBKB BKB20190526071011005/26/19 07:10:31  5-MIN KBKB 261310Z AUTO 00000KT 10SM CLR 24/23 A3011 120 97 1200 000/00 RMK AO2 T02390233 $
53988KBKB BKB20190526071511005/26/19 07:15:31  5-MIN KBKB 261315Z AUTO 00000KT 10SM CLR 24/23 A3011 130 90 1300 000/00 RMK AO2 T02440228 $
53988KBKB BKB20190526072011005/26/19 07:20:31  5-MIN KBKB 261320Z AUTO 00000KT 10SM CLR 24/23 A3011 130 90 1300 000/00 RMK AO2 T02440228 $
53988KBKB BKB20190526072511005/26/19 07:25:31  5-MIN KBKB 261325Z AUTO 00000KT 10SM CLR 25/23 A3011 130 90 1400 000/00 RMK AO2 T02500233 $
53988KBKB BKB20190526073011005/26/19 07:30:31  5-MIN KBKB 261330Z AUTO 00000KT 10SM CLR 25/23 A3011 130 90 1400 000/00 RMK AO2 T02500233 $
53988KBKB BKB20190526073511005/26/19 07:35:31  5-MIN KBKB 261335Z AUTO VRB03KT 10SM CLR 26/23 A3011 120 87 1400 VRB/03 RMK AO2 T02560233 $
53988KBKB BKB20190526074007705/26/19 07:40:31  5-MIN KBKB 261340Z AUTO CLR M M M M /M RMK AO2 T02560233 $
53988KBKB BKB20190526074510105/26/19 07:45:31  5-MIN KBKB 261345Z AUTO VRB03KT 26/23 A3011 120 81 1500 VRB/03 RMK AO2 T02610228 $
53988KBKB BKB20190526075011305/26/19 07:50:31  5-MIN KBKB 261350Z AUTO 00000KT 10SM 26/23 A3011 120 84 1500 000/00 RMK AO2 SLP221 T02610233 $
53988KBKB BKB20190526075510605/26/19 07:55:31  5-MIN KBKB 261355Z AUTO 00000KT 10SM 26/23 A3011 120 84 1500 000/00 RMK AO2 T02610233 $
53988KBKB BKB20190526080010605/26/19 08:00:31  5-MIN KBKB 261400Z AUTO 00000KT 10SM 26/23 A3011 120 84 1400 000/00 RMK AO2 T02560228 $
53988KBKB BKB20190526080510605/26/19 08:05:31  5-MIN KBKB 261405Z AUTO 00000KT 10SM 26/23 A3011 120 84 1400 000/00 RMK AO2 T02560228 $
53988KBKB BKB20190526081012005/26/19 08:10:31  5-MIN KBKB 261410Z AUTO VRB03KT 10SM SCT014 SCT019 26/23 A3011 120 84 1400 VRB/03 RMK AO2 T02560228 $
53988KBKB BKB20190526081511305/26/19 08:15:31  5-MIN KBKB 261415Z AUTO VRB04KT 10SM SCT014 27/22 A3011 120 76 1500 VRB/04 RMK AO2 T02670222 $
53988KBKB BKB20190526081521805/26/19 08:15:31  5-MIN KBKB 261415Z A4 1600 210/05 RMK AO2 T02 5-MIN KBKB 261510Z AUTO VRB03KT 10SM FEW022 27/22 A05/26/19 14:45:31  5-MIN KBKB 262045Z AUTO VRB04KT 10SM BKN048 33/21 M 48 M VRB/04 RMK AO2 T03280206 $
53988KBKB BKB20190526082012005/26/19 08:20:31  5-MIN KBKB 261420Z AUTO 00000KT 10SM SCT016 SCT025 27/23 A3011 120 76 1600 000/00 RMK AO2 T02720228 $
53988KBKB BKB20190526082512005/26/19 08:25:31  5-MIN KBKB 261425Z AUTO VRB04KT 10SM SCT016 SCT025 27/22 A3011 120 76 1500 VRB/04 RMK AO2 T02670222 $
53988KBKB BKB20190526083012005/26/19 08:30:31  5-MIN KBKB 261430Z AUTO 00000KT 10SM SCT016 SCT024 27/23 A3011 120 79 1500 000/00 RMK AO2 T02670228 $
53988KBKB BKB20190526083512005/26/19 08:35:31  5-MIN KBKB 261435Z AUTO VRB03KT 10SM FEW016 SCT024 27/23 A3011 120 76 1600 VRB/03 RMK AO2 T02720228 $
53988KBKB BKB20190526084014405/26/19 08:40:31  5-MIN KBKB 261440Z AUTO VRB03KT 10SM FEW016 FEW024 28O VRB03KT 10SM FEW033 29/22 A3011 120 67 1800 VRB/03 RMK AO2 T02890222 $
53988KBKB BKB20190526095011705/26/19 09:50:31  5-MIN KBKB 261550Z AUTO VRB04KT 10SM CLR 29/22 A3011 120 64 1800 VRB/04 RMK AO2 SLP223 T02890217 $
53988KBKB BKB20190526095511005/26/19 09:55:31  5-MIN KBKB 261555Z AUTO VRB05KT 10SM CLR 29/22 A3011 120 64 1800 VRB/05 RMK AO2 T02890217 $
53988KBKB BKB20190526100011305/26/19 10:00:31  5-MIN KBKB 261600Z AUTO VRB03KT 10SM SCT032 29/22 A3011 120 62 1800 VRB/03 RMK AO2 T02940217 $
53988KBKB BKB20190526100512005/26/19 10:05:31  5-MIN KBKB 261605Z AUTO VRB03KT 10SM SCT030 SCT035 29/22 A3011 120 62 1800 VRB/03 RMK AO2 T02940217 $
53988KBKB BKB20190526101012005/26/19 10:10:31  5-MIN KBKB 261610Z AUTO 00000KT 10SM SCT030 BKN037 29/22 A3011 120 64 1800 000/00 RMK AO2 T02890217 $
53988KBKB BKB20190526101512005/26/19 10:15:31  5-MIN KBKB 261615Z AUTO VRB03KT 10SM SCT030 BKN037 28/22 A3011 120 69 1700 VRB/03 RMK AO2 T02780217 $
53988KBKB BKB20190526102012005/26/19 10:20:31  5-MIN KBKB 261620Z AUTO VRB04KT 10SM SCT030 BKN037 28/22 A3011 120 66 1700 VRB/04 RMK AO2 T02830217 $
53988KBKB BKB20190526102512005/26/19 10:25:31  5-MIN KBKB 261625Z AUTO 21005KT 10SM SCT032 BKN040 29/22 A3011 120 62 1800 210/05 RMK AO2 T02940217 $
53988KBKB BKB20190526103012005/26/19 10:30:31  5-MIN KBKB 261630Z AUTO VRB03KT 10SM SCT030 BKN040 29/22 A3011 120 64 1800 VRB/03 RMK AO2 T02890217 $
53988KBKB BKB20190526103512005/26/19 10:35:31  5-MIN KBKB 261635Z AUTO 00000KT 10SM SCT030 BKN039 28/22 A3011 120 66 1700 000/00 RMK AO2 T02830217 $
53988KBKB BKB20190526104012705/26/19 10:40:31  5-MIN KBKB 261640Z AUTO VRB04KT 10SM SCT030 SCT039 BKN047 28/22 A3012 120 66 1700 VRB/04 RMK AO2 T02830217 $
53988KBKB BKB20190526104512005/26/19 10:45:31  5-MIN KBKB 261645Z AUTO VRB04KT 10SM SCT035 BKN047 28/22 A3012 120 69 1700 VRB/04 RMK AO2 T02780217 $
53988KBKB BKB20190526105013405/26/19 10:50:31  5-MIN KBKB 261650Z AUTO 00000KT 10SM FEW030 SCT038 BKN047 29/22 A3011 120 62 1800 000/00 RMK AO2 SLP223 T02940217 $
53988KBKB BKB20190526105512705/26/19 10:55:31  5-MIN KBKB 261655Z AUTO VRB03KT 10SM FEW030 SCT038 SCT046 29/22 A3011 120 62 1900 VRB/03 RMK AO2 T02940217 $
53988KBKB BKB20190526110012005/26/19 11:00:31  5-MIN KBKB 261700Z AUTO VRB03KT 10SM SCT035 BKN046 29/22 A3011 120 64 1800 VRB/03 RMK AO2 T02890217 $
53988KBKB BKB20190526110512005/26/19 11:05:31  5-MIN KBKB 261705Z AUTO 00000KT 10SM SCT037 BKN046 29/22 A3011 120 64 1800 000/00 RMK AO2 T02890217 $
53988KBKB BKB20190526111012005/26/19 11:10:31  5-MIN KBKB 261710Z AUTO VRB04KT 10SM SCT037 SCT046 30/22 A3011 120 60 1900 VRB/04 RMK AO2 T03000217 $
53988KBKB BKB20190526111512005/26/19 11:15:31  5-MIN KBKB 261715Z AUTO VRB05KT 10SM FEW035 SCT044 30/22 A3011 120 60 1900 VRB/05 RMK AO2 T03000217 $
53988KBKB BKB20190526112012005/26/19 11:20:31  5-MIN KBKB 261720Z AUTO 11003KT 10SM FEW035 FEW044 30/21 A3011 120 58 1900 110/03 RMK AO2 T03000211 $
53988KBKB BKB20190526112511305/26/19 11:25:31  5-MIN KBKB 261725Z AUTO VRB04KT 10SM FEW037 31/22 A3011 120 58 2000 VRB/04 RMK AO2 T03060217 $
53988KBKB BKB20190526113011305/26/19 11:30:31  5-MIN KBKB 261730Z AUTO VRB04KT 10SM FEW035 31/21 A3011 120 54 2000 VRB/04 RMK AO2 T03110211 $
53988KBKB BKB20190526113512405/26/19 11:35:31  5-MIN KBKB 261735Z AUTO VRB03KT 10SM FEW037 31/21 A3010 130 54 2000 VRB/03 R2100 M /M RMK AO2 T03170211 $
53988KBKB BKB20190526124511305/26/19 12:45:31  5-MIN KBKB 261845Z AUTO VRB03KT 10SM BKN040 31/21 A3008 150 56 2000 VRB/03 RMK AO2 T03060211 $
53988KBKB BKB20190526125012005/26/19 12:50:31  5-MIN KBKB 261850Z AUTO VRB04KT 10SM BKN041 32/21 A3008 150 53 2100 VRB/04 RMK AO2 SLP212 T03170211 $
53988KBKB BKB20190526125511305/26/19 12:55:31  5-MIN KBKB 261855Z AUTO VRB06KT 10SM BKN041 32/21 A3008 150 51 2200 VRB/06 RMK AO2 T03220211 $
53988KBKB BKB20190526130011305/26/19 13:00:31  5-MIN KBKB 261900Z AUTO VRB03KT 10SM SCT041 31/21 A3008 150 53 2100 VRB/03 RMK AO2 T03110206 $
53988KBKB BKB20190526130511305/26/19 13:05:31  5-MIN KBKB 261905Z AUTO VRB03KT 10SM BKN045 32/21 A3008 150 51 2200 VRB/03 RMK AO2 T03220211 $
53988KBKB BKB20190526131011305/26/19 13:10:31  5-MIN KBKB 261910Z AUTO 00000KT 10SM BKN045 32/21 A3008 150 53 2100 000/00 RMK AO2 T03170211 $
53988KBKB BKB20190526131511305/26/19 13:15:31  5-MIN KBKB 261915Z AUTO VRB04KT 10SM BKN045 31/21 A3008 150 54 2100 VRB/04 RMK AO2 T03110211 $
53988KBKB BKB20190526132011305/26/19 13:20:31  5-MIN KBKB 261920Z AUTO VRB05KT 10SM BKN045 31/21 A3008 160 54 2100 VRB/05 RMK AO2 T03110211 $
53988KBKB BKB20190526132511305/26/19 13:25:31  5-MIN KBKB 261925Z AUTO 00000KT 10SM SCT045 32/21 A3007 160 51 2200 000/00 RMK AO2 T03220211 $
53988KBKB BKB20190526133010705/26/19 13:30:31  5-MIN KBKB 261930Z AUTO VRB04KT 10SM SCT045 32/21 A3007 VRB/04 RMK AO2 SLPNO T03170211 $
53988KBKB BKB20190526145012605/26/19 14:50:31  5-MIN KBKB 262050Z AUTO VRB05KT 10SM BKN050 33/21 A3005 180 49 2300 VRB/05 RMK AO2 SLP202 T03280211 58005 $
53988KBKB BKB20190526145511305/26/19 14:55:31  5-MIN KBKB 262055Z AUTO VRB05KT 10SM BKN050 33/21 A3005 180 49 2300 VRB/05 RMK AO2 T03280211 $
53988KBKB BKB20190526150010205/26/19 15:00:31  5-MIN KBKB 262100Z AUTO VRB04KT 10SM BKN050 33/20 M 46 M VRB/04 RMK AO2 T03280200 $
53988KBKB BKB20190526150510205/26/19 15:05:31  5-MIN KBKB 262105Z AUTO VRB04KT 10SM BKN050 33/21 M 46 M VRB/04 RMK AO2 T03330206 $
53988KBKB BKB20190526151010205/26/19 15:10:31  5-MIN KBKB 262110Z AUTO VRB03KT 10SM BKN050 31/20 M 51 M VRB/03 RMK AO2 T03110200 $
53988KBKB BKB20190526151510205/26/19 15:15:31  5-MIN KBKB 262115Z AUTO VRB04KT 10SM SCT050 32/21 M 51 M VRB/04 RMK AO2 T03170206 $
53988KBKB BKB20190526152010205/26/19 15:20:31  5-MIN KBKB 262120Z AUTO VRB04KT 10SM FEW055 32/21 M 51 M VRB/04 RMK AO2 T03170206 $
53988KBKB BKB20190526152510205/26/19 15:25:31  5-MIN KBKB 262125Z AUTO 00000KT 10SM FEW055 32/21 M 49 M 000/00 RMK AO2 T03220206 $
53988KBKB BKB20190526153010205/26/19 15:30:31  5-MIN KBKB 262130Z AUTO 18003KT 10SM FEW050 32/21 M 51 M 180/03 RMK AO2 T03170206 $
53988KBKB BKB20190526153510105/26/19 15:35:31  5-MIN KBKB 262135Z AUTO VRB04KT 10SM CLR 32/20 M 48 M VRVRB/03 RMK AO2 T03110211 $
53988KBKB BKB20190526160510205/26/19 16:05:31  5-MIN KBKB 262205Z AUTO VRB04KT 10SM BKN049 32/21 M 49 M VRB/04 RMK AO2 T03220206 $
53988KBKB BKB20190526161010905/26/19 16:10:31  5-MIN KBKB 262210Z AUTO VRB04KT 10SM BKN050 BKN060 33/21 M 49 M VRB/04 RMK AO2 T03280211 $
53988KBKB BKB20190526161510205/26/19 16:15:31  5-MIN KBKB 262215Z AUTO VRB04KT 10SM BKN050 32/21 M 49 M VRB/04 RMK AO2 T03220206 $
53988KBKB BKB20190526162010905/26/19 16:20:31  5-MIN KBKB 262220Z AUTO VRB04KT 10SM SCT050 BKN060 32/21 M 51 M VRB/04 RMK AO2 T03220211 $
53988KBKB BKB20190526162510905/26/19 16:25:31  5-MIN KBKB 262225Z AUTO 00000KT 10SM SCT050 SCT060 31/21 M 53 M 000/00 RMK AO2 T03110206 $
53988KBKB BKB20190526163010905/26/19 16:30:31  5-MIN KBKB 262230Z AUTO VRB04KT 10SM FEW050 SCT060 31/21 M 56 M VRB/04 RMK AO2 T03060211 $
53988KBKB BKB20190526163510905/26/19 16:35:31  5-MIN KBKB 262235Z AUTO VRB03KT 10SM FEW048 FEW055 31/21 M 54 M VRB/03 RMK AO2 T03110211 $
53988KBKB BKB20190526164009905/26/19 16:40:31  5-MIN KBKB 262240Z AUTO VRB03KT 10SM CLR 32/21 M 53 M VRB/03 RMK AO2 T03170211 $
53988KBKB BKB20190526164510205/26/19 16:45:31  5-MIN KBKB 262245Z AUTO VRB03KT 10SM FEW049 31/21 M 53 M VRB/03 RMK AO2 T03110206 $
53988KBKB BKB20190526165010505/26/19 16:50:31  5-MIN KBKB 262250Z AUTO VRB04KT 10SM CLR 32/21 M 53 M VRB/04 RMK AO2 SLPNO T03170211 $
53988KBKB BKB20190526165509905/26/19 16:55:31  5-MIN KBKB 262255Z AUTO 00000KT 10SM CLR 32/21 M 53 M 000/00 RMK AO2 T03170211 $
53988KBKB BKB20190526170009905/26/19 17:00:31  5-MIN KBKB 262300Z AUTO VRB03KT 10SM CLR 32/21 M 53 M VRB/03 RMK AO2 T03170211 $
53988KBKB BKB20190526170509905/26/19 17:05:31  5-MIN KBKB 262305Z AUTO VRB04KT 10SM CLR 32/22 M 55 M VRB/04 RMK AO2 T03170217 $
53988KBKB BKB20190526171009905/26/19 17:10:31  5-MIN KBKB 262310Z AUTO VRB03KT 10SM CLR 31/21 M 54 M VRB/03 RMK AO2 T03110211 $
53988KBKB BKB20190526171510205/26/19 17:15:31  5-MIN KBKB 262315Z AUTO VRB03KT 10SM FEW055 31/21 M 54 M VRB/03 RMK AO2 T03110211 $
53988KBKB BKB20190526172010905/26/19 17:20:31  5-MIN KBKB 262320Z AUTO VRB04KT 10SM FEW044 SCT055 32/22 M 55 M VRB/04 RMK AO2 T03170217 $
53988KBKB BKB20190526172510205/26/19 17:25:31  5-MIN KBKB 262325Z AUTO VRB03KT 10SM SCT044 31/21 M 54 M VRB/03 RMK AO2 T03110211 $
53988KBKB BKB20190526173010205/26/19 17:30:31  5-MIN KBKB 262330Z AUTO 00000KT 10SM BKN044 31/21 M 54 M 000/00 RMK AO2 T03110211 $
53988KBKB BKB20190526173510205/26/19 17:35:31  5-MIN KBKB 262335Z AUTO 18004KT 10SM BKN044 31/22 M 56 M 180/04 RMK AO2 T03110217 $
53988KBKB BKB20190526174010905/26/19 17:40:31  5-MIN KBKB 262340Z AUTO VRB03KT 10SM BKN044 OVC055 31/21 M 54 M VRB/03 RMK AO2 T03110211 $
53988KBKB BKB20190526174510205/26/19 17:45:31  5-MIN KBKB 262345Z AUTO 00000KT 10SM OVC044 31/21 M 54 M 000/00 RMK AO2 T03110211 $
53988KBKB BKB20190526175012605/26/19 17:50:31  5-MIN KBKB 262350Z AUTO 00000KT 10SM OVC044 31/21 M 56 M 000/00 RMK AO2 SLPNO T03060211 10333 20306 56015 $
53988KBKB BKB20190526175510205/26/19 17:55:31  5-MIN KBKB 262355Z AUTO VRB03KT 10SM OVC044 31/22 M 58 M VRB/03 RMK AO2 T03060217 $
53988KBKB BKB20190526180010205/26/19 18:00:31  5-MIN KBKB 270000Z AUTO VRB05KT 10SM OVC044 31/21 M 56 M VRB/05 RMK AO2 T03060211 $
53988KBKB BKB20190526180012005/26/19 18:00:31  5-MIN KBKB 270000Z AUTO VRB05KT 10SM OVC044 31/21 M 56 M VRB/05 RMK AO2 T0015Z AUTO 00000KT 10SM 17 $
53988KBKB BKB20190526180510205/26/19 18:05:31  5-MIN KBKB 270005Z AUTO VRB03KT 10SM OVC044 30/22 M 60 M VRB/03 RMK AO2 T03000217 $
53988KBKB BKB20190526181010205/26/19 18:10:31  5-MIN KBKB 270010Z AUTO 00000KT 10SM BKN044 29/21 M 60 M 000/00 RMK AO2 T02940211 $
53988KBKB BKB20190526181510205/26/19 18:15:31  5-MIN KBKB 270015Z AUTO 00000KT 10SM BKN044 29/22 M 62 M 000/00 RMK AO2 T02940217 $
53988KBKB BKB20190526182010205/26/19 18:20:31  5-MIN KBKB 270020Z AUTO 00000KT 10SM BKN044 29/22 M 64 M 000/00 RMK AO2 T02890217 $
53988KBKB BKB20190526182510205/26/19 18:25:31  5-MIN KBKB 270025Z AUTO 00000KT 10SM SCT044 29/22 M 64 M 000/00 RMK AO2 T02890217 $
53988KBKB BKB20190526183010205/26/19 18:30:31  5-MIN KBKB 270030Z AUTO 00000KT 10SM FEW044 28/22 M 66 M 000/00 RMK AO2 T02830217 $
53988KBKB BKB20190526183510205/26/19 18:35:31  5-MIN KBKB 270035Z AUTO 00000KT 10SM FEW044 28/22 M 66 M 000/00 RMK AO2 T02830217 $
53988KBKB BKB20190526184010205/26/19 18:40:31  5-MIN KBKB 270040Z AUTO 00000KT 10SM FEW044 28/22 M 66 M 000/00 RMK AO2 T02830217 $
53988KBKB BKB20190526184511005/26/19 18:45:31  5-MIN KBKB 270045Z AUTO 00000KT 10SM CLR 28/22 A3001 210 66 1800 000/00 RMK AO2 T02830217 $
53988KBKB BKB20190526185010505/26/19 18:50:31  5-MIN KBKB 270050Z AUTO 00000KT 10SM CLR 28/22 M 69 M 000/00 RMK AO2 SLPNO T02780217 $
53988KBKB BKB20190526185509905/26/19 18:55:31  5-MIN KBKB 270055Z AUTO 00000KT 10SM CLR 28/22 M 69 M 000/00 RMK AO2 T02780217 $
53988KBKB BKB20190526190009905/26/19 19:00:31  5-MIN KBKB 270100Z AUTO 00000KT 10SM CLR 27/22 M 71 M 000/00 RMK AO2 T02720217 $
53988KBKB BKB20190526190509905/26/19 19:05:31  5-MIN KBKB 270105Z AUTO 00000KT 10SM CLR 27/22 M 71 M 000/00 RMK AO2 T02720217 $
53988KBKB BKB20190526191009905/26/19 19:10:31  5-MIN KBKB 270110Z AUTO 00000KT 10SM CLR 27/22 M 71 M 000/00 RMK AO2 T02720217 $
53988KBKB BKB20190526191509905/26/19 19:15:31  5-MIN KBKB 270115Z AUTO 00000KT 10SM CLR 27/22 M 73 M 000/00 RMK AO2 T02670217 $
53988KBKB BKB20190526192009905/26/19 19:20:31  5-MIN KBKB 270120Z AUTO 00000KT 10SM CLR 26/22 M 76 M 000/00 RMK AO2 T02610217 $
53988KBKB BKB20190526192507605/26/19 19:25:31  5-MIN KBKB 270125Z AUTO M 76 M 000/00 RMK AO2 T02500206 $
53988KBKB BKB20190526192509905/26/19 19:25:31  5-MIN KBKB 270125Z AUTO 00000KT 10SM CLR 26/22 M 76 M 000/00 RMK AO2 T02610217 $
53988KBKB BKB20190526193009905/26/19 19:30:31  5-MIN KBKB 270130Z AUTO 00000KT 10SM CLR 26/22 M 76 M 000/00 RMK AO2 T02610217 $
53988KBKB BKB20190526193509905/26/19 19:35:31  5-MIN KBKB 270135Z AUTO 00000KT 10SM CLR 26/22 M 79 M 000/00 RMK AO2 T02560217 $
53988KBKB BKB20190526194012505/26/19 19:40:31  5-MIN KBKB 270140Z AUTO 00000KT 10SM CLR 26/22 M 79 M 000/00 RMK AO2 T02560217 $000/00 RMK AO2 T02500211 $
53988KBKB BKB20190526210509905/26/19 21:05:31  5-MIN KBKB 270305Z AUTO 00000KT 10SM CLR 25/21 M 79 M 000/00 RMK AO2 T02500211 $
53988KBKB BKB20190526211009905/26/19 21:10:31  5-MIN KBKB 270310Z AUTO 00000KT 10SM CLR 25/21 M 79 M 000/00 RMK AO2 T02500211 $
53988KBKB BKB20190526211509905/26/19 21:15:31  5-MIN KBKB 270315Z AUTO 00000KT 10SM CLR 25/21 M 76 M 000/00 RMK AO2 T02500206 $
53988KBKB BKB20190526212009905/26/19 21:20:31  5-MIN KBKB 270320Z AUTO 00000KT 10SM CLR 25/21 M 79 M 000/00 RMK AO2 T02500211 $
53988KBKB BKB20190526212509905/26/19 21:25:31  5-MIN KBKB 270325Z AUTO 00000KT 10SM CLR 25/21 M 76 M 000/00 RMK AO2 T02500206 $
53988KBKB BKB20190526213009905/26/19 21:30:31  5-MIN KBKB 270330Z AUTO 00000KT 10SM CLR 25/21 M 76 M 000/00 RMK AO2 T02500206 $
53988KBKB BKB20190526213509905/26/19 21:35:31  5-MIN KBKB 270335Z AUTO 00000KT 10SM CLR 25/21 M 76 M 000/00 RMK AO2 T02500206 $
53988KBKB BKB20190526214009905/26/19 21:40:31  5-MIN KBKB 270340Z AUTO 00000KT 10SM CLR 25/21 M 76 M 000/00 RMK AO2 T02500206 $
53988KBKB BKB20190526214509905/26/19 21:45:31  5-MIN KBKB 270345Z AUTO 00000KT 10SM CLR 25/21 M 76 M 000/00 RMK AO2 T02500206 $
53988KBKB BKB20190526215010505/26/19 21:50:31  5-MIN KBKB 270350Z AUTO 00000KT 10SM CLR 25/21 M 76 M 000/00 RMK AO2 SLPNO T02500206 $
53988KBKB BKB20190526215509905/26/19 21:55:31  5-MIN KBKB 270355Z AUTO 00000KT 10SM CLR 25/21 M 76 M 000/00 RMK AO2 T02500206 $
53988KBKB BKB20190526220009905/26/19 22:00:31  5-MIN KBKB 270400Z AUTO 00000KT 10SM CLR 24/21 M 78 M 000/00 RMK AO2 T02440206 $
53988KBKB BKB20190526220509905/26/19 22:05:31  5-MIN KBKB 270405Z AUTO 00000KT 10SM CLR 24/21 M 78 M 000/00 RMK AO2 T02440206 $
53988KBKB BKB20190526221009905/26/19 22:10:31  5-MIN KBKB 270410Z AUTO 00000KT 10SM CLR 24/21 M 78 M 000/00 RMK AO2 T02440206 $
53988KBKB BKB20190526221509905/26/19 22:15:31  5-MIN KBKB 270415Z AUTO 00000KT 10SM CLR 24/21 M 84 M 000/00 RMK AO2 T02390211 $
53988KBKB BKB20190526222009905/26/19 22:20:31  5-MIN KBKB 270420Z AUTO 00000KT 10SM CLR 24/21 M 78 M 000/00 RMK AO2 T02440206 $
53988KBKB BKB20190526222509905/26/19 22:25:31  5-MIN KBKB 270425Z AUTO 00000KT 10SM CLR 24/21 M 78 M 000/00 RMK AO2 T02440206 $
53988KBKB BKB20190526223009905/26/19 22:30:31  5-MIN KBKB 270430Z AUTO 00000KT 10SM CLR 24/21 M 78 M 000/00 RMK AO2 T02440206 $
53988KBKB BKB20190526223509905/26/19 22:35:31  5-MIN KBKB 270435Z AUTO 00000KT 10SM CLR 24/21 M 78 M 000/00 RMK AO2 T02440206 $
53988KBKB BKB20190526223514105/26/19 22:35:31  5-MIN KBKB 270435Z AUTO 00000KT 10SM CLR 24/21 M 78 M 000/00 RMK AO2 T02440206 $05/26/19 22:40:3000/00 RMK AO2 T02280211 $
53988KBKB BKB20190526224009905/26/19 22:40:31  5-MIN KBKB 270440Z AUTO 00000KT 10SM CLR 24/21 M 84 M 000/00 RMK AO2 T02390211 $
53988KBKB BKB20190526224509905/26/19 22:45:31  5-MIN KBKB 270445Z AUTO 00000KT 10SM CLR 24/21 M 84 M 000/00 RMK AO2 T02390211 $
53988KBKB BKB20190526225010505/26/19 22:50:31  5-MIN KBKB 270450Z AUTO 00000KT 10SM CLR 24/21 M 84 M 000/00 RMK AO2 SLPNO T02390211 $
53988KBKB BKB20190526225509905/26/19 22:55:31  5-MIN KBKB 270455Z AUTO VRB03KT 10SM CLR 24/21 M 84 M VRB/03 RMK AO2 T02390211 $
53988KBKB BKB20190526230009905/26/19 23:00:31  5-MIN KBKB 270500Z AUTO 00000KT 10SM CLR 24/21 M 84 M 000/00 RMK AO2 T02390211 $
53988KBKB BKB20190526230509905/26/19 23:05:31  5-MIN KBKB 270505Z AUTO 00000KT 10SM CLR 24/21 M 84 M 000/00 RMK AO2 T02390211 $
53988KBKB BKB20190526231012505/26/19 23:10:31  5-MIN KBKB 270510Z AUTO 00000KT 10SM CLR 23/21 M 87 M 000/00 RMK AO2 T02330211 $000/00 RMK AO2 T02170211 $
53988KBKB BKB20190527002009905/27/19 00:20:31  5-MIN KBKB 270620Z AUTO 00000KT 10SM CLR 23/22 M 93 M 000/00 RMK AO2 T02280217 $
53988KBKB BKB20190527002509905/27/19 00:25:31  5-MIN KBKB 270625Z AUTO 00000KT 10SM CLR 23/22 M 93 M 000/00 RMK AO2 T02280217 $
53988KBKB BKB20190527003009905/27/19 00:30:31  5-MIN KBKB 270630Z AUTO 00000KT 10SM CLR 23/22 M 93 M 000/00 RMK AO2 T02280217 $
53988KBKB BKB20190527003509905/27/19 00:35:31  5-MIN KBKB 270635Z AUTO 00000KT 10SM CLR 23/22 M 93 M 000/00 RMK AO2 T02280217 $
53988KBKB BKB20190527004009905/27/19 00:40:31  5-MIN KBKB 270640Z AUTO 00000KT 10SM CLR 23/22 M 93 M 000/00 RMK AO2 T02280217 $
53988KBKB BKB20190527004509905/27/19 00:45:31  5-MIN KBKB 270645Z AUTO 00000KT 10SM CLR 23/22 M 93 M 000/00 RMK AO2 T02280217 $
53988KBKB BKB20190527005010505/27/19 00:50:31  5-MIN KBKB 270650Z AUTO 00000KT 10SM CLR 22/21 M 93 M 000/00 RMK AO2 SLPNO T02220211 $
53988KBKB BKB20190527005509905/27/19 00:55:31  5-MIN KBKB 270655Z AUTO 00000KT 10SM CLR 22/21 M 93 M 000/00 RMK AO2 T02220211 $
53988KBKB BKB20190527010009905/27/19 01:00:31  5-MIN KBKB 270700Z AUTO 00000KT 10SM CLR 22/21 M 93 M 000/00 RMK AO2 T02220211 $
53988KBKB BKB20190527010509905/27/19 01:05:31  5-MIN KBKB 270705Z AUTO 00000KT 10SM CLR 22/21 M 93 M 000/00 RMK AO2 T02220211 $
53988KBKB BKB20190527011009905/27/19 01:10:31  5-MIN KBKB 270710Z AUTO 00000KT 10SM CLR 22/21 M 93 M 000/00 RMK AO2 T02220211 $
53988KBKB BKB20190527011509905/27/19 01:15:31  5-MIN KBKB 270715Z AUTO 00000KT 10SM CLR 22/21 M 93 M 000/00 RMK AO2 T02220211 $
53988KBKB BKB20190527012009905/27/19 01:20:31  5-MIN KBKB 270720Z AUTO 00000KT 10SM CLR 22/21 M 93 M 000/00 RMK AO2 T02220211 $
53988KBKB BKB20190527012509805/27/19 01:25:31  5-MIN KBKB 270725Z AUTO 00000KT 9SM CLR 22/21 M 97 M 000/00 RMK AO2 T02170211 $
53988KBKB BKB20190527013009805/27/19 01:30:31  5-MIN KBKB 270730Z AUTO 00000KT 8SM CLR 22/21 M 97 M 000/00 RMK AO2 T02170211 $
53988KBKB BKB20190527013509805/27/19 01:35:31  5-MIN KBKB 270735Z AUTO 00000KT 8SM CLR 22/21 M 97 M 000/00 RMK AO2 T02170211 $
53988KBKB BKB20190527014009805/27/19 01:40:31  5-MIN KBKB 270740Z AUTO 00000KT 7SM CLR 22/21 M 97 M 000/00 RMK AO2 T02170211 $
53988KBKB BKB20190527014509805/27/19 01:45:31  5-MIN KBKB 270745Z AUTO 00000KT 7SM CLR 22/21 M 97 M 000/00 RMK AO2 T02170211 $
53988KBKB BKB20190527015010405/27/19 01:50:31  5-MIN KBKB 270750Z AUTO 00000KT 7SM CLR 22/21 M 97 M 000/00 RMK AO2 SLPNO T02170211 $
53988KBKB BKB20190527015510105/27/19 01:55:31  5-MIN KBKB 270755Z AUTO 00000KT 6SM BR CLR 22/21 M 97 M 000/00 RMK AO2 T02170211 $
53988KBKB BKB20190527020010205/27/19 02:00:31  5-MIN KBKB 270800Z AUTO 00000KT 6SM BR CLR 21/21 M 100 M 000/00 RMK AO2 T02110211 $
53988KBKB BKB20190527020510205/27/19 02:05:31  5-MIN KBKB 270805Z AUTO 00000KT 5SM BR CLR 21/21 M 100 M 000/00 RMK AO2 T02110211 $
53988KBKB BKB20190527021010205/27/19 02:10:31  5-MIN KBKB 270810Z AUTO 00000KT 5SM BR CLR 21/21 M 100 M 000/00 RMK AO2 T02110211 $
53988KBKB BKB20190527021510205/27/19 02:15:31  5-MIN KBKB 270815Z AUTO 00000KT 5SM BR CLR 21/21 M 100 M 000/00 RMK AO2 T02110211 $
53988KBKB BKB20190527022010105/27/19 02:20:31  5-MIN KBKB 270820Z AUTO 00000KT 5SM BR CLR 21/21 M 97 M 000/00 RMK AO2 T02110206 $
53988KBKB BKB20190527022509205/27/19 02:25:31  5-MIN KBKB 270825Z AUTO 00000KT 5SM BR CLR 21/21 M 97 M K AO2 T02110211 $
53988KBKB BKB20190527022510105/27/19 02:25:31  5-MIN KBKB 270825Z AUTO 00000KT 5SM BR CLR 21/21 M 97 M 000/00 RMK AO2 T02110206 $
53988KBKB BKB20190527023016605/27/19 02:30:31  5-MIN KBKB 270830Z AUTO 00000KT 5SM BR CLR 21/21 M 97 M 000/00 RMK AO2 T0211020 AUTO VRB03KT 3SM BR BKN002 22/22 M 100 M VRB/03 RMK AO2 T02170217 $
53988KBKB BKB20190527030010205/27/19 03:00:31  5-MIN KBKB 270900Z AUTO 00000KT 5SM BR CLR 21/21 M 100 M 000/00 RMK AO2 T02110211 $
53988KBKB BKB20190527030510205/27/19 03:05:31  5-MIN KBKB 270905Z AUTO 00000KT 4SM BR CLR 21/21 M 100 M 000/00 RMK AO2 T02110211 $
53988KBKB BKB20190527031010205/27/19 03:10:31  5-MIN KBKB 270910Z AUTO 00000KT 4SM BR CLR 21/21 M 100 M 000/00 RMK AO2 T02110211 $
53988KBKB BKB20190527031510105/27/19 03:15:31  5-MIN KBKB 270915Z AUTO 00000KT 4SM BR CLR 22/21 M 97 M 000/00 RMK AO2 T02170211 $
53988KBKB BKB20190527032010105/27/19 03:20:31  5-MIN KBKB 270920Z AUTO 00000KT 4SM BR CLR 22/21 M 97 M 000/00 RMK AO2 T02170211 $
53988KBKB BKB20190527032510205/27/19 03:25:31  5-MIN KBKB 270925Z AUTO 00000KT 4SM BR CLR 21/21 M 100 M 000/00 RMK AO2 T02110211 $
53988KBKB BKB20190527033010205/27/19 03:30:31  5-MIN KBKB 270930Z AUTO 00000KT 4SM BR FEW002 21/21 M  M 000/00 RMK AO2 T02170211 $
53988KBKB BKB20190527034010405/27/19 03:40:31  5-MIN KBKB 270940Z AUTO 00000KT 3SM BR SCT002 22/21 M 97 M 000/00 RMK AO2 T02170211 $
53988KBKB BKB20190527034510505/27/19 03:45:31  5-MIN KBKB 270945Z AUTO VRB03KT 3SM BR BKN002 22/22 M 100 M VRB/03 RMK AO2 T02170217 $
53988KBKB BKB20190527035011005/27/19 03:50:31  5-MIN KBKB 270950Z AUTO 00000KT 3SM BR BKN002 22/21 M 97 M 000/00 RMK AO2 SLPNO T02170211 $
53988KBKB BKB20190527035510405/27/19 03:55:31  5-MIN KBKB 270955Z AUTO 00000KT 3SM BR OVC002 22/21 M 97 M 000/00 RMK AO2 T02170211 $
53988KBKB BKB20190527040010505/27/19 04:00:31  5-MIN KBKB 271000Z AUTO 00000KT 3SM BR OVC002 21/21 M 100 M 000/00 RMK AO2 T02110211 $
53988KBKB BKB20190527040510505/27/19 04:05:31  5-MIN KBKB 271005Z AUTO 00000KT 3SM BR OVC002 21/21 M 100 M 000/00 RMK AO2 T02110211 $
53988KBKB BKB20190527041010405/27/19 04:10:31  5-MIN KBKB 271010Z AUTO 00000KT 3SM BR OVC002 22/21 M 97 M 000/00 RMK AO2 T02170211 $
53988KBKB BKB20190527041510405/27/19 04:15:31  5-MIN KBKB 271015Z AUTO 00000KT 3SM BR OVC002 22/21 M 97 M 000/00 RMK AO2 T02170211 $
53988KBKB BKB20190527042010705/27/19 04:20:31  5-MIN KBKB 271020Z AUTO 00000KT 2 1/2SM BR OVC002 22/21 100 M 000/00 RMK AO2 T02170217 $
53988KBKB BKB20190527042010805/27/19 04:20:31  5-MIN KBKB 271020Z AUTO 00000KT 2 1/2SM BR OVC002 22/21 M 97 M 000/00 RMK AO2 T02170211 $
53988KBKB BKB20190527042510805/27/19 04:25:31  5-MIN KBKB 271025Z AUTO 00000KT 2 1/2SM BR OVC002 22/21 M 97 M 000/00 RMK AO2 T02170211 $
53988KBKB BKB20190527043010505/27/19 04:30:31  5-MIN KBKB 271030Z AUTO 00000KT 2SM BR OVC002 22/22 M 100 M 000/00 RMK AO2 T02170217 $
53988KBKB BKB20190527043510805/27/19 04:35:31  5-MIN KBKB 271035Z AUTO 00000KT 2 1/2SM BR OVC002 22/21 M 97 M 000/00 RMK AO2 T02170211 $
53988KBKB BKB20190527044010505/27/19 04:40:31  5-MIN KBKB 271040Z AUTO 00000KT 2SM BR OVC002 22/22 M 100 M 000/00 RMK AO2 T02170217 $
53988KBKB BKB20190527044510505/27/19 04:45:31  5-MIN KBKB 271045Z AUTO 00000KT 2SM BR OVC002 22/22 M 100 M 000/00 RMK AO2 T02170217 $
53988KBKB BKB20190527045011105/27/19 04:50:31  5-MIN KBKB 271050Z AUTO 00000KT 2SM BR OVC002 22/22 M 100 M 000/00 RMK AO2 SLPNO T02170217 $
53988KBKB BKB20190527045508205/27/19 04:55:31  5-MIN KBKB 271055Z AUTO 2/22 M 100 M 000/00 RMK AO2 T02170217 $
53988KBKB BKB20190527045510505/27/19 04:55:31  5-MIN KBKB 271055Z AUTO 00000KT 2SM BR OVC002 22/22 M 100 M 000/00 RMK AO2 T02170217 $
53988KBKB BKB20190527050010905/27/19 05:00:31  5-MIN KBKB 271100Z AUTO 00000KT 1 3/4SM BR OVC002 22/22 M 100 M 000/00 RMK AO2 T02170217 $
53988KBKB BKB20190527050510905/27/19 05:05:31  5-MIN KBKB 271105Z AUTO 00000KT 1 3/4SM BR OVC002 21/21 M 100 M 000/00 RMK AO2 T02110211 $
53988KBKB BKB20190527051007305/27/19 05:10:31  5-MIN KBKB 271110Z AUTO 00000KT 2SM BR OVC002 21/21 M 
53988KBKB BKB20190527051510905/27/19 05:15:31  5-MIN KBKB 271115Z AUTO 00000KT 2 1/2SM BR OVC002 21/21 M 100 M 000/00 RMK AO2 T02110211 $
53988KBKB BKB20190527052010905/27/19 05:20:31  5-MIN KBKB 271120Z AUTO 00000KT 1 1/2SM BR OVC002 21/21 M 100 M 000/00 RMK AO2 T02110211 $
53988KBKB BKB20190527052510705/27/19 05:25:31  5-MIN KBKB 271125Z AUTO 00000KT 3/4SM BR OVC002 21/21 M 100 M 000/00 RMK AO2 T02110211 $
53988KBKB BKB20190527053010505/27/19 05:30:31  5-MIN KBKB 271130Z AUTO 00000KT 1/2SM FG VV002 22/21 M 97 M 000/00 RMK AO2 T02170211 $
53988KBKB BKB20190527053510605/27/19 05:35:31  5-MIN KBKB 271135Z AUTO 00000KT 1/2SM FG VV002 22/22 M 100 M 000/00 RMK AO2 T02170217 $
53988KBKB BKB20190527054010605/27/19 05:40:31  5-MIN KBKB 271140Z AUTO 00000KT 1/2SM FG VV002 22/22 M 100 M 000/00 RMK AO2 T02170217 $
53988KBKB BKB20190527054510605/27/19 05:45:31  5-MIN KBKB 271145Z AUTO 00000KT 1/4SM FG VV002 22/22 M 100 M 000/00 RMK AO2 T02170217 $
53988KBKB BKB20190527055012405/27/19 05:50:31  5-MIN KBKB 271150Z AUTO 00000KT 1/4SM FG VV002 21/21 M 100 M 000/00 RMK AO2 SLPNO T02110211 10233 20206 $
53988KBKB BKB20190527055513205/27/19 05:55:31  5-MIN KBKB 271155Z AUTO 00000KT 1/2SM FG VV002 21/21 M 100 M 000/00 RMK AO2 T02110211 $VRB/03 RMK AO2 T02610233 $
53988KBKB BKB20190527075010505/27/19 07:50:31  5-MIN KBKB 271350Z AUTO VRB04KT 10SM CLR 26/23 M 81 M VRB/04 RMK AO2 SLPNO T02610228 $
53988KBKB BKB20190527075510205/27/19 07:55:31  5-MIN KBKB 271355Z AUTO VRB03KT 10SM FEW045 26/23 M 84 M VRB/03 RMK AO2 T02560228 $
53988KBKB BKB20190527080010205/27/19 08:00:31  5-MIN KBKB 271400Z AUTO VRB04KT 10SM FEW045 26/23 M 84 M VRB/04 RMK AO2 T02560228 $
53988KBKB BKB20190527080510905/27/19 08:05:31  5-MIN KBKB 271405Z AUTO VRB04KT 10SM FEW036 FEW045 26/23 M 81 M VRB/04 RMK AO2 T02610228 $
53988KBKB BKB20190527081010905/27/19 08:10:31  5-MIN KBKB 271410Z AUTO VRB04KT 10SM FEW015 SCT039 27/23 M 79 M VRB/04 RMK AO2 T02670228 $
53988KBKB BKB20190527081510905/27/19 08:15:31  5-MIN KBKB 271415Z AUTO 00000KT 10SM FEW015 BKN038 26/23 M 81 M 000/00 RMK AO2 T02610228 $
53988KBKB BKB20190527082011605/27/19 08:20:31  5-MIN KBKB 271420Z AUTO VRB04KT 10SM FEW014 SCT030 BKN038 27/23 M 79 M VRB/04 RMK AO2 T02670228 $
53988KBKB BKB20190527082511605/27/19 08:25:31  5-MIN KBKB 271425Z AUTO VRB04KT 10SM SCT014 SCT030 BKN038 27/23 M 79 M VRB/04 RMK AO2 T02670228 $
53988KBKB BKB20190527083007005/27/19 08:30:31  5-MIN KBKB 271430Z AUTO VRB04KT 10SM SCT016 BKN028 
53988KBKB BKB20190527154509905/27/19 15:45:31  5-MIN KBKB 272145Z AUTO 00000KT 10SM CLR 31/22 M 60 M 000/00 RMK AO2 T03060222 $
53988KBKB BKB20190527155010505/27/19 15:50:31  5-MIN KBKB 272150Z AUTO VRB03KT 10SM CLR 31/23 M 60 M VRB/03 RMK AO2 SLPNO T03110228 $
53988KBKB BKB20190527155509905/27/19 15:55:31  5-MIN KBKB 272155Z AUTO VRB04KT 10SM CLR 30/22 M 60 M VRB/04 RMK AO2 T03000217 $
53988KBKB BKB20190527160009905/27/19 16:00:31  5-MIN KBKB 272200Z AUTO VRB04KT 10SM CLR 30/22 M 60 M VRB/04 RMK AO2 T03000217 $
53988KBKB BKB20190527160509905/27/19 16:05:31  5-MIN KBKB 272205Z AUTO VRB04KT 10SM CLR 31/22 M 58 M VRB/04 RMK AO2 T03060217 $
53988KBKB BKB20190527161009905/27/19 16:10:31  5-MIN KBKB 272210Z AUTO VRB05KT 10SM CLR 31/22 M 58 M VRB/05 RMK AO2 T03060217 $
53988KBKB BKB20190527161509905/27/19 16:15:31  5-MIN KBKB 272215Z AUTO VRB06KT 10SM CLR 30/22 M 60 M VRB/06 RMK AO2 T03000217 $
53988KBKB BKB20190527162009905/27/19 16:20:31  5-MIN KBKB 272220Z AUTO VRB05KT 10SM CLR 30/22 M 60 M VRB/05 RMK AO2 T03000217 $
53988KBKB BKB20190527162510205/27/19 16:25:31  5-MIN KBKB 272225Z AUTO VRB03KT 10SM FEW038 30/22 M 60 M VRB/03 RMK AO2 T03000217 $
53988KBKB BKB20190527163010205/27/19 16:30:31  5-MIN KBKB 272230Z AUTO VRB04KT 10SM FEW038 30/22 M 62 M VRB/04 RMK AO2 T03000222 $
53988KBKB BKB20190527163510205/27/19 16:35:31  5-MIN KBKB 272235Z AUTO VRB03KT 10SM SCT038 30/22 M 62 M VRB/03 RMK AO2 T03000222 $
53988KBKB BKB20190527164010205/27/19 16:40:31  5-MIN KBKB 272240Z AUTO VRB04KT 10SM FEW038 29/22 M 64 M VRB/04 RMK AO2 T02940222 $
53988KBKB BKB20190527164510205/27/19 16:45:31  5-MIN KBKB 272245Z AUTO VRB04KT 10SM FEW038 29/22 M 62 M VRB/04 RMK AO2 T02940217 $
53988KBKB BKB20190527165010805/27/19 16:50:31  5-MIN KBKB 272250Z AUTO 00000KT 10SM FEW038 29/22 M 62 M 000/00 RMK AO2 SLPNO T02940217 $
53988KBKB BKB20190527165510205/27/19 16:55:31  5-MIN KBKB 272255Z AUTO 00000KT 10SM FEW038 29/22 M 62 M 000/00 RMK AO2 T02940217 $
53988KBKB BKB20190527170009905/27/19 17:00:31  5-MIN KBKB 272300Z AUTO 00000KT 10SM CLR 29/22 M 64 M 000/00 RMK AO2 T02940222 $
53988KBKB BKB20190527170509905/27/19 17:05:31  5-MIN KBKB 272305Z AUTO VRB03KT 10SM CLR 30/22 M 62 M VRB/03 RMK AO2 T03000222 $
53988KBKB BKB20190527171009905/27/19 17:10:31  5-MIN KBKB 272310Z AUTO 00000KT 10SM CLR 30/22 M 62 M 000/00 RMK AO2 T03000222 $
53988KBKB BKB20190527171514705/27/19 17:15:31  5-MIN KBKB 272315Z AUTO VRB03KT 10SM CLR 30/22 M 62 M VRB/03 RMK AO2 T03000222 $05/27/19 17:20 VRB03KT 10SM FEW030 2 T02390222 $
53988KBKB BKB20190527230009905/27/19 23:00:31  5-MIN KBKB 280500Z AUTO 00000KT 10SM CLR 23/22 M 93 M 000/00 RMK AO2 T02330222 $
53988KBKB BKB20190527230509905/27/19 23:05:31  5-MIN KBKB 280505Z AUTO 00000KT 10SM CLR 23/22 M 93 M 000/00 RMK AO2 T02330222 $
53988KBKB BKB20190527231009905/27/19 23:10:31  5-MIN KBKB 280510Z AUTO 00000KT 10SM CLR 23/22 M 93 M 000/00 RMK AO2 T02330222 $
53988KBKB BKB20190527231509905/27/19 23:15:31  5-MIN KBKB 280515Z AUTO 00000KT 10SM CLR 23/22 M 93 M 000/00 RMK AO2 T02330222 $
53988KBKB BKB20190527232009905/27/19 23:20:31  5-MIN KBKB 280520Z AUTO 00000KT 10SM CLR 23/22 M 93 M 000/00 RMK AO2 T02330222 $
53988KBKB BKB20190527232509905/27/19 23:25:31  5-MIN KBKB 280525Z AUTO VRB03KT 10SM CLR 23/22 M 97 M VRB/03 RMK AO2 T02280222 $
53988KBKB BKB20190527233009905/27/19 23:30:31  5-MIN KBKB 280530Z AUTO 00000KT 10SM CLR 23/22 M 97 M 000/00 RMK AO2 T02280222 $
53988KBKB BKB20190527233509905/27/19 23:35:31  5-MIN KBKB 280535Z AUTO 00000KT 10SM CLR 23/22 M 93 M 000/00 RMK AO2 T02330222 $
53988KBKB BKB20190527234009905/27/19 23:40:31  5-MIN KBKB 280540Z AUTO 00000KT 10SM CLR 23/22 M 93 M 000/00 RMK AO2 T02330222 $
53988KBKB BKB20190527234509905/27/19 23:45:31  5-MIN KBKB 280545Z AUTO 00000KT 10SM CLR 23/22 M 93 M 000/00 RMK AO2 T02330222 $
53988KBKB BKB20190527235012705/27/19 23:50:31  5-MIN KBKB 280550Z AUTO 00000KT 10SM CLR 23/22 M 93 M 000/00 RMK AO2 SLPNO T02330222 10289 20228 403170206 $
53988KBKB BKB20190527235508905/27/19 23:55:31  5-MIN KBKB 280555Z AUTO 10SM CLR 23/22 M 93 M M /M RMK AO2 T02330222 $
53988KBKB BKB20190528000009905/28/19 00:00:31  5-MIN KBKB 280600Z AUTO 00000KT 10SM CLR 23/23 M 97 M 000/00 RMK AO2 T02330228 $
53988KBKB BKB20190528000509905/28/19 00:05:31  5-MIN KBKB 280605Z AUTO 00000KT 10SM CLR 24/23 M 93 M 000/00 RMK AO2 T02390228 $
53988KBKB BKB20190528001019305/28/19 00:10:31  5-MIN KBKB 280610Z AUTO 00000KT 10SM CLR 24/23 M 93 M 000/00 RMK AO2 T02390228 $05/28/19B 280820Z AUTO VRB03KT 10SM BKN008 24/23 M 93 M VRB/03 RMK AO2 CIG 006V009 T02440233 $
53988KBKB BKB20190528022511405/28/19 02:25:31  5-MIN KBKB 280825Z AUTO 00000KT 10SM BKN008 24/23 M 93 M 000/00 RMK AO2 CIG 006V011 T02440233 $
53988KBKB BKB20190528023011405/28/19 02:30:31  5-MIN KBKB 280830Z AUTO VRB03KT 10SM OVC008 24/23 M 93 M VRB/03 RMK AO2 CIG 006V011 T02440233 $
53988KBKB BKB20190528023511405/28/19 02:35:31  5-MIN KBKB 280835Z AUTO VRB03KT 10SM OVC008 24/23 M 93 M VRB/03 RMK AO2 CIG 006V011 T02440233 $
53988KBKB BKB20190528024011405/28/19 02:40:31  5-MIN KBKB 280840Z AUTO VRB04KT 10SM OVC008 24/23 M 93 M VRB/04 RMK AO2 CIG 006V011 T02440233 $
53988KBKB BKB20190528024511405/28/19 02:45:31  5-MIN KBKB 280845Z AUTO VRB03KT 10SM OVC008 24/23 M 93 M VRB/03 RMK AO2 CIG 006V011 T02440233 $
53988KBKB BKB20190528025012705/28/19 02:50:31  5-MIN KBKB 280850Z AUTO VRB04KT 10SM BKN008 OVC014 24/23 M 97 M VRB/04 RMK AO2 CIG 006V011 SLPNO T02390233 $
53988KBKB BKB20190528025506705/28/19 02:55:31  5-MIN KBKB 280855Z AUTO 00000KT 10S0 T02390233 $
53988KBKB BKB20190528025512105/28/19 02:55:31  5-MIN KBKB 280855Z AUTO 00000KT 10SM BKN008 OVC014 24/23 M 97 M 000/00 RMK AO2 CIG 006V010 T02390233 $
53988KBKB BKB20190528030010905/28/19 03:00:31  5-MIN KBKB 280900Z AUTO VRB03KT 10SM BKN008 OVC014 24/23 M 97 M VRB/03 RMK AO2 T02390233 $
53988KBKB BKB20190528030510905/28/19 03:05:31  5-MIN KBKB 280905Z AUTO VRB04KT 10SM BKN008 OVC013 24/23 M 93 M VRB/04 RMK AO2 T02440233 $
53988KBKB BKB20190528031010905/28/19 03:10:31  5-MIN KBKB 280910Z AUTO VRB03KT 10SM BKN008 OVC013 24/23 M 93 M VRB/03 RMK AO2 T02440233 $
53988KBKB BKB20190528031512105/28/19 03:15:31  5-MIN KBKB 280915Z AUTO VRB03KT 10SM BKN008 OVC013 24/23 M 97 M VRB/03 RMK AO2 CIG 006V010 T02390233 $
53988KBKB BKB20190528032011405/28/19 03:20:31  5-MIN KBKB 280920Z AUTO 00000KT 10SM OVC007 24/23 M 97 M 000/00 RMK AO2 CIG 006V012 T02390233 $
53988KBKB BKB20190528032509405/28/19 03:25:31  5-MIN KBKB 280925Z AUTO VRB05KT 93 M 000/00 RMK AO2 CIG 006V011 T02440233 $
53988KBKB BKB20190528032511405/28/19 03:25:31  5-MIN KBKB 280925Z AUTO VRB05KT 10SM OVC007 24/23 M 93 M VRB/05 RMK AO2 CIG 006V011 T02440233 $
53988KBKB BKB20190528033011405/28/19 03:30:31  5-MIN KBKB 280930Z AUTO 00000KT 10SM OVC007 24/23 M 93 M 000/00 RMK AO2 CIG 006V011 T02440233 $
53988KBKB BKB20190528033511405/28/19 03:35:31  5-MIN KBKB 280935Z AUTO 00000KT 10SM OVC007 24/23 M 93 M 000/00 RMK AO2 CIG 006V011 T02440233 $
53988KBKB BKB20190528034011405/28/19 03:40:31  5-MIN KBKB 280940Z AUTO VRB03KT 10SM OVC007 24/23 M 93 M VRB/03 RMK AO2 CIG 005V009 T02440233 $
53988KBKB BKB20190528034511405/28/19 03:45:31  5-MIN KBKB 280945Z AUTO 00000KT 10SM OVC007 24/23 M 93 M 000/00 RMK AO2 CIG 005V011 T02440233 $
53988KBKB BKB20190528035010805/28/19 03:50:31  5-MIN KBKB 280950Z AUTO 00000KT 10SM OVC006 24/23 M 93 M 000/00 RMK AO2 SLPNO T02440233 $
53988KBKB BKB20190528035510205/28/19 03:55:31  5-MIN KBKB 280955Z AUTO 00000KT 10SM OVC006 24/23 M 93 M 000/00 RMK AO2 T02440233 $
53988KBKB BKB20190528040010205/28/19 04:00:31  5-MIN KBKB 281000Z AUTO 00000KT 10SM OVC006 24/24 M 97 M 000/00 RMK AO2 T02440239 $
53988KBKB BKB20190528040510205/28/19 04:05:31  5-MIN KBKB 281005Z AUTO 00000KT 10SM OVC006 24/24 M 97 M 000/00 RMK AO2 T02440239 $
53988KBKB BKB20190528041010205/28/19 04:10:31  5-MIN KBKB 281010Z AUTO 00000KT 10SM OVC006 24/24 M 97 M 000/00 RMK AO2 T02440239 $
53988KBKB BKB20190528041507505/28/19 04:15:31  5-MIN KBKB 281015Z AUTO 00000KT 10SM OVC006 24/24 M 97 M
53988KBKB BKB20190528063011405/28/19 06:30:31  5-MIN KBKB 281230Z AUTO VRB03KT 10SM OVC007 25/24 M 93 M VRB/03 RMK AO2 CIG 006V012 T02500239 $
53988KBKB BKB20190528063512105/28/19 06:35:31  5-MIN KBKB 281235Z AUTO VRB03KT 10SM BKN008 OVC012 25/24 M 93 M VRB/03 RMK AO2 CIG 006V010 T02500239 $
53988KBKB BKB20190528064012105/28/19 06:40:31  5-MIN KBKB 281240Z AUTO VRB04KT 10SM BKN008 OVC012 25/24 M 93 M VRB/04 RMK AO2 CIG 006V010 T02500239 $
53988KBKB BKB20190528064512805/28/19 06:45:31  5-MIN KBKB 281245Z AUTO VRB04KT 10SM BKN008 BKN012 OVC018 26/24 M 90 M VRB/04 RMK AO2 CIG 006V010 T02560239 $
53988KBKB BKB20190528065007905/28/19 06:50:31  5-MIN KBKB 281250Z AUTO VRB03KT M M M VRB/03 RMK AO2 SLPNO $
53988KBKB BKB20190528065509005/28/19 06:55:31  5-MIN KBKB 281255Z AUTO 00000KT 26/24 M 90 M 000/00 RMK AO2 T02560239 $
53988KBKB BKB20190528070009505/28/19 07:00:31  5-MIN KBKB 281300Z AUTO VRB05KT 10SM 26/24 M 90 M VRB/05 RMK AO2 T02560239 $
53988KBKB BKB20190528070509505/28/19 07:05:31  5-MIN KBKB 281305Z AUTO VRB04KT 10SM 26/24 M 90 M VRB/04 RMK AO2 T02560239 $
53988KBKB BKB20190528071009505/28/19 07:10:31  5-MIN KBKB 281310Z AUTO VRB03KT 10SM 26/24 M 90 M VRB/03 RMK AO2 T02560239 $
53988KBKB BKB20190528071509505/28/19 07:15:31  5-MIN KBKB 281315Z AUTO VRB04KT 10SM 26/24 M 90 M VRB/04 RMK AO2 T02560239 $
53988KBKB BKB20190528072507305/28/19 07:25:31  5-MIN KBKB 281325Z AUTO VRB03KT M M M VRB/03 RMK AO2 $
53988KBKB BKB20190528073009505/28/19 07:30:31  5-MIN KBKB 281330Z AUTO VRB03KT 10SM 26/24 M 87 M VRB/03 RMK AO2 T02610239 $
53988KBKB BKB20190528073509505/28/19 07:35:31  5-MIN KBKB 281335Z AUTO VRB06KT 10SM 26/24 M 87 M VRB/06 RMK AO2 T02610239 $
53988KBKB BKB20190528074009505/28/19 07:40:31  5-MIN KBKB 281340Z AUTO 00000KT 10SM 26/24 M 87 M 000/00 RMK AO2 T02610239 $
53988KBKB BKB20190528074508505/28/19 07:45:31  5-MIN KBKB 281345Z AUTO 10SM 27/24 M 84 M M /M RMK AO2 T02670239 $
53988KBKB BKB20190528075010105/28/19 07:50:31  5-MIN KBKB 281350Z AUTO VRB04KT 10SM 26/24 M 87 M VRB/04 RMK AO2 SLPNO T02610239 $
53988KBKB BKB20190528075511605/28/19 07:55:31  5-MIN KBKB 281355Z AUTO VRB04KT 10SM BKN012 BKN019 OVC039 27/24 M 84 M VRB/04 RMK AO2 T02670239 $
53988KBKB BKB20190528080010905/28/19 08:00:31  5-MIN KBKB 281400Z AUTO VRB04KT 10SM BKN014 OVC019 27/24 M 82 M VRB/04 RMK AO2 T02720239 $
53988KBKB BKB20190528080511605/28/19 08:05:31  5-MIN KBKB 281405Z AUTO VRB05KT 10SM BKN014 BKN019 OVC048 27/24 M 82 M VRB/05 RMK AO2 T02720239 $
53988KBKB BKB20190528081011605/28/19 08:10:31  5-MIN KBKB 281410Z AUTO VRB05KT 10SM BKN014 BKN019 BKN048 27/24 M 84 M VRB/05 RMK AO2 T02670239 $
53988KBKB BKB20190528081511605/28/19 08:15:31  5-MIN KBKB 281415Z AUTO VRB04KT 10SM BKN014 BKN020 BKN049 27/24 M 82 M VRB/04 RMK AO2 T02720239 $
53988KBKB BKB20190528082011605/28/19 08:20:31  5-MIN KBKB 281420Z AUTO VRB04KT 10SM BKN014 BKN022 BKN049 27/24 M 82 M VRB/04 RMK AO2 T02720239 $
53988KBKB BKB20190528082506305/28/19 08:25:31  5-MIN KBKB 281425Z AUTO M M M M /M RMK AO2 $
53988KBKB BKB20190528083009005/28/19 08:30:31  5-MIN KBKB 281430Z AUTO VRB03KT 28/24 M 76 M VRB/03 RMK AO2 T02830239 $
53988KBKB BKB20190528083508505/28/19 08:35:31  5-MIN KBKB 281435Z AUTO 10SM 28/24 M 76 M M /M RMK AO2 T02830239 $
53988KBKB BKB20190528084009805/28/19 08:40:31  5-MIN KBKB 281440Z AUTO VRB05KT 10SM 28/24 M 79 M VRB/05 RMK AO2 T02703060239 $
53988KBKB BKB20190528113012505/28/19 11:30:31  5-MIN KBKB 281730Z AUTO 19007KT 150V230 10SM FEW034 FEW048 SCT070 31/ M M M 180/07 150V230 RMK AO2 T0311 $
53988KBKB BKB20190528114008605/28/19 11:40:31  5-MIN KBKB 281740Z AUTO 18003KT M M M 180/03 RMK AO2 PWINO FZRANO $
53988KBKB BKB20190528114508305/28/19 11:45:31  5-MIN KBKB 281745Z AUTO 22006KT 31/ M M M 210/06 RMK AO2 T0311 $
53988KBKB BKB20190528115013405/28/19 11:50:31  5-MIN KBKB 281750Z AUTO 20007G15KT 170V240 10SM 31/ M M M 200/07G15 170V240 RMK AO2 SLPNO 6//// T0306 10317 20250 $
53988KBKB BKB20190528115509405/28/19 11:55:31  5-MIN KBKB 281755Z AUTO VRB04G15KT 10SM 31/ M M M VRB/04G15 RMK AO2 T0306 $
53988KBKB BKB20190528120009505/28/19 12:00:31  5-MIN KBKB 281800Z AUTO VRB05KT 10SM 32/27 M 74 M VRB/05 RMK AO2 T03170267 $
53988KBKB BKB20190528120509505/28/19 12:05:31  5-MIN KBKB 281805Z AUTO VRB05KT 10SM 31/26 M 74 M VRB/05 RMK AO2 T03110261 $
53988KBKB BKB20190528121006205/28/19 12:10:31  5-MIN KBKB 281810Z A/05 RMK AO2 T03170267 $
53988KBKB BKB20190528121011605/28/19 12:10:31  5-MIN KBKB 281810Z AUTO VRB05KT 10SM SCT034 SCT044 BKN055 32/27 M 74 M VRB/05 RMK AO2 T03170267 $
53988KBKB BKB20190528121513205/28/19 12:15:31  5-MIN KBKB 281815Z AUTO 21008KT 160V260 10SM SCT035 SCT043 SCT055 32/25 M 67 M 200/08 160V260 RMK AO2 T03170250 $
53988KBKB BKB20190528122010905/28/19 12:20:31  5-MIN KBKB 281820Z AUTO VRB04KT 10SM SCT035 BKN050 31/25 M 72 M VRB/04 RMK AO2 T03060250 $
53988KBKB BKB20190528122510905/28/19 12:25:31  5-MIN KBKB 281825Z AUTO VRB06KT 10SM SCT035 BKN075 32/26 M 69 M VRB/06 RMK AO2 T03170256 $
53988KBKB BKB20190528123010905/28/19 12:30:31  5-MIN KBKB 281830Z AUTO VRB05KT 10SM SCT034 SCT050 33/26 M 67 M VRB/05 RMK AO2 T03280261 $
53988KBKB BKB20190528123513105/28/19 12:35:31  5-MIN KBKB 281835Z AUTO 21007G18KT 160V230 10SM FEW034 SCT050 32/26 M 72 M 200/07G18 160V230 RMK AO2 T03170261 $
53988KBKB BKB20190528124010905/28/19 12:40:31  5-MIN KBKB 281840Z AUTO 19007G18KT 130V2040 FEW050 32/26 M 67 M VRB/06 RMK AO2 T03220256 $
53988KBKB BKB20190528124012405/28/19 12:40:31  5-MIN KBKB 281840Z AUTO 19007G18KT 130V280 10SM FEW034 32/25 M 65 M 180/07G18 130V280 RMK AO2 T03220250 $
53988KBKB BKB20190528124510905/28/19 12:45:31  5-MIN KBKB 281845Z AUTO 15004KT 10SM SCT034 SCT043 32/27 M 77 M 150/04 RMK AO2 T03170272 $
53988KBKB BKB20190528125011205/28/19 12:50:31  5-MIN KBKB 281850Z AUTO 10SM SCT036 SCT045 BKN055 31/29 M 88 M M /M RMK AO2 SLPNO T03110289 $
53988KBKB BKB20190528125511605/28/19 12:55:31  5-MIN KBKB 281855Z AUTO VRB05KT 10SM FEW036 SCT045 SCT055 32/29 M 85 M VRB/05 RMK AO2 T03220294 $
53988KBKB BKB20190528130010905/28/19 13:00:31  5-MIN KBKB 281900Z AUTO VRB06KT 10SM FEW038 SCT047 33/29 M 80 M VRB/06 RMK AO2 T03280289 $
53988KBKB BKB20190528130510905/28/19 13:05:31  5-MIN KBKB 281905Z AUTO VRB04KT 10SM FEW038 SCT047 33/28 M 77 M VRB/04 RMK AO2 T03280283 $
53988KBKB BKB20190528131009905/28/19 13:10:31  5-MIN KBKB 281910Z AUTO 10SM FEW038 SCT047 33/29 M 82 M M /M RMK AO2 T03280294 $
53988KBKB BKB20190528131510905/28/19 13:15:31  5-MIN KBKB 281915Z AUTO VRB06KT 10SM SCT038 SCT045 32/29 M 85 M VRB/06 RMK AO2 T03220294 $
53988KBKB BKB20190528132010905/28/19 13:20:31  5-MIN KBKB 281920Z AUTO VRB06KT 10SM SCT038 BKN046 32/29 M 88 M VRB/06 RMK AO2 T03170294 $
53988KBKB BKB20190528132512505/28/19 13:25:31  5-MIN KBKB 281925Z AUTO 18007KT 100V230 10SM BKN038 BKN046 32/29 M 88 M 180/07 100V230 RMK AO2 T03170294 $
53988KBKB BKB20190528133010905/28/19 13:30:31  5-MIN KBKB 281930Z AUTO VRB04KT 10SM BKN038 BKN046 32/27 M 74 M VRB/04 RMK AO2 T03170267 $
53988KBKB BKB20190528133510205/28/19 13:35:31  5-MIN KBKB 281935Z AUTO VRB04KT 10SM BKN038 31/27 M 79 M VRB/04 RMK AO2 T03110272 $
53988KBKB BKB20190528134010905/28/19 13:40:31  5-MIN KBKB 281940Z AUTO VRB05KT 10SM BKN038 BKN049 31/29 M 91 M VRB/05 RMK AO2 T03060289 $
53988KBKB BKB20190528134511605/28/19 13:45:31  5-MIN KBKB 281945Z AUTO VRB04KT 10SM BKN038 BKN045 BKN055 31/27 M 77 M VRB/04 RMK AO2 T03110267 $
53988KBKB BKB20190528135011505/28/19 13:50:31  5-MIN KBKB 281950Z AUTO VRB06KT 10SM BKN038 BKN050 32/25 M 65 M VRB/06 RMK AO2 SLPNO T03220250 $
53988KBKB BKB20190528135510905/28/19 13:55:31  5-MIN KBKB 281955Z AUTO VRB06KT 10SM SCT038 BKN048 32/24 M 63 M VRB/06 RMK AO2 T03220244 $
53988KBKB BKB20190528140010905/28/19 14:00:31  5-MIN KBKB 282000Z AUTO VRB04KT 10SM BKN038 BKN048 31/27 M 79 M VRB/04 RMK AO2 T03060267 $
53988KBKB BKB20190528140510905/28/19 14:05:31  5-MIN KBKB 282005Z AUTO VRB04KT 10SM BKN038 BKN050 31/27 M 82 M VRB/04 RMK AO2 T03060272 $
53988KBKB BKB20190528141011605/28/19 14:10:31  5-MIN KBKB 282010Z AUTO VRB03KT 10SM SCT038 SCT045 BKN055 33/25 M 63 M VRB/03 RMK AO2 T03280250 $
53988KBKB BKB20190528141510905/28/19 14:15:31  5-MIN KBKB 282015Z AUTO VRB04KT 10SM SCT038 SCT049 32/24 M 63 M VRB/04 RMK AO2 T03220244 $
53988KBKB BKB20190528142011605/28/19 14:20:31  5-MIN KBKB 282020Z AUTO VRB05KT 10SM SCT038 BKN048 BKN060 31/26 M 74 M VRB/05 RMK AO2 T03060256 $
53988KBKB BKB20190528142513205/28/19 14:25:31  5-MIN KBKB 282025Z AUTO 17007KT 110V210 10SM SCT038 BKN050 BKN060 31/26 M 72 M 170/07 110V210 RMK AO2 T03110256 $
53988KBKB BKB20190528143010905/28/19 14:30:31  5-MIN KBKB 282030Z AUTO VRB06KT 10SM FEW040 FEW050 32/26 M 67 M VRB/06 RMK AO2 T03220256 $
53988KBKB BKB20190528143510905/28/19 14:35:31  5-MIN KBKB 282035Z AUTO 23006KT 10SM FEW040 FEW048 SCT060 32/ M M M 220/06 RMK AO2 T0322 $
53988KBKB BKB20190528144010905/28/19 14:40:31  5-MIN KBKB 282040Z AUTO VRB06KT 10SM FEW038 SCT048 SCT060 33/ M M M VRB/06 RMK AO2 T0328 $
53988KBKB BKB20190528144511605/28/19 14:45:31  5-MIN KBKB 282045Z AUTO 23009KT 10SM FEW038 FEW045 FEW060 32/23 M 59 M 230/09 RMK AO2 T03220233 $
53988KBKB BKB20190528145010805/28/19 14:50:31  5-MIN KBKB 282050Z AUTO VRB03KT 10SM SCT040 33/25 M 61 M VRB/03 RMK AO2 SLPNO T03330250 $
53988KBKB BKB20190528145512505/28/19 14:55:31  5-MIN KBKB 282055Z AUTO 19007KT 130V240 10SM SCT040 SCT049 32/26 M 72 M 180/07 130V240 RMK AO2 T03170261 $
53988KBKB BKB20190528150011605/28/19 15:00:31  5-MIN KBKB 282100Z AUTO VRB04KT 10SM FEW040 SCT049 BKN090 31/26 M 74 M VRB/04 RMK AO2 T03110261 $
53988KBKB BKB20190528150511605/28/19 15:05:31  5-MIN KBKB 282105Z AUTO 00000KT 10SM FEW040 SCT049 BKN090 31/26 M 77 M 000/00 RMK AO2 T03060261 $
53988KBKB BKB20190528151011605/28/19 15:10:31  5-MIN KBKB 282110Z AUTO VRB06KT 10SM FEW040 SCT070 SCT090 32/26 M 69 M VRB/06 RMK AO2 T03220261 $
53988KBKB BKB20190528151510905/28/19 15:15:31  5-MIN KBKB 282115Z AUTO VRB04KT 10SM SCT038 SCT050 BKN090 32/ M M M VRB/04 RMK AO2 T0322 $
53988KBKB BKB20190528152010905/28/19 15:20:31  5-MIN KBKB 282120Z AUTO VRB05KT 10SM SCT038 BKN046 BKN090 32/ M M M VRB/05 RMK AO2 T0322 $
53988KBKB BKB20190528152510205/28/19 15:25:31  5-MIN KBKB 282125Z AUTO VRB03KT 10SM SCT039 SCT090 31/ M M M VRB/03 RMK AO2 T0306 $
53988KBKB BKB20190528153011605/28/19 15:30:31  5-MIN KBKB 282130Z AUTO VRB06KT 10SM FEW037 SCT075 SCT090 31/24 M 67 M VRB/06 RMK AO2 T03060239 $
53988KBKB BKB20190528153510905/28/19 15:35:31  5-MIN KBKB 282135Z AUTO VRB05KT 10SM FEW037 SCT080 31/26 M 77 M VRB/05 RMK AO2 T03060261 $
53988KBKB BKB20190528154010205/28/19 15:40:31  5-MIN KBKB 282140Z AUTO VRB06KT 10SM FEW038 32/26 M 72 M VRB/06 RMK AO2 T03170261 $
53988KBKB BKB20190528154510205/28/19 15:45:31  5-MIN KBKB 282145Z AUTO VRB05KT 10SM FEW038 31/25 M 69 M VRB/05 RMK AO2 T03110250 $
53988KBKB BKB20190528155010505/28/19 15:50:31  5-MIN KBKB 282150Z AUTO VRB05KT 10SM CLR 30/26 M 77 M VRB/05 RMK AO2 SLPNO T03000256 $
53988KBKB BKB20190528155509905/28/19 15:55:31  5-MIN KBKB 282155Z AUTO VRB05KT 10SM CLR 30/26 M 77 M VRB/05 RMK AO2 T03000256 $
53988KBKB BKB20190528160009905/28/19 16:00:31  5-MIN KBKB 282200Z AUTO VRB04KT 10SM CLR 30/26 M 77 M VRB/04 RMK AO2 T03000256 $
53988KBKB BKB20190528160510805/28/19 16:05:31  5-MIN KBKB 282205Z AUTO 19007KT 140V230 10SM CLR 31/ M M M 180/07 140V230 RMK AO2 T0306 $
53988KBKB BKB20190528161010205/28/19 16:10:31  5-MIN KBKB 282210Z AUTO VRB06KT 10SM FEW070 FEW095 31/ M M M VRB/06 RMK AO2 T0306 $
53988KBKB BKB20190528161510205/28/19 16:15:31  5-MIN KBKB 282215Z AUTO VRB03KT 10SM FEW070 FEW095 31/ M M M VRB/03 RMK AO2 T0311 $
53988KBKB BKB20190528162009205/28/19 16:20:31  5-MIN KBKB 282220Z AUTO 10SM FEW070 FEW090 30/ M M M M /M RMK AO2 T0300 $
53988KBKB BKB20190528162510205/28/19 16:25:31  5-MIN KBKB 282225Z AUTO VRB06KT 10SM FEW070 SCT085 29/ M M M VRB/06 RMK AO2 T0294 $
53988KBKB BKB20190528163011605/28/19 16:30:31  5-MIN KBKB 282230Z AUTO VRB05KT 10SM FEW055 FEW070 SCT090 31/24 M 67 M VRB/05 RMK AO2 T03110244 $
53988KBKB BKB20190528163512805/28/19 16:35:31  5-MIN KBKB 282235Z AUTO VRB04KT 10SM FEW050 SCT070 SCT085 31/24 M 67 M VRB/04 RMK AO M VRB/03 RMK AO2 T0272 $
53988KBKB BKB20190528184509205/28/19 18:45:31  5-MIN KBKB 290045Z AUTO VRB05KT 10SM CLR 28/ M M M VRB/05 RMK AO2 T0278 $
53988KBKB BKB20190528185009805/28/19 18:50:31  5-MIN KBKB 290050Z AUTO VRB03KT 10SM CLR 27/ M M M VRB/03 RMK AO2 SLPNO T0272 $
53988KBKB BKB20190528185509205/28/19 18:55:31  5-MIN KBKB 290055Z AUTO VRB03KT 10SM CLR 27/ M M M VRB/03 RMK AO2 T0272 $
53988KBKB BKB20190528190009205/28/19 19:00:31  5-MIN KBKB 290100Z AUTO VRB03KT 10SM CLR 27/ M M M VRB/03 RMK AO2 T0272 $
53988KBKB BKB20190528190509205/28/19 19:05:31  5-MIN KBKB 290105Z AUTO VRB04KT 10SM CLR 27/ M M M VRB/04 RMK AO2 T0272 $
53988KBKB BKB20190528190511405/28/19 19:05:31  5-MIN KBKB 290105Z AUTO VRB04KT 10SM CLR 27/ M M M VRB/04 RMK AO2 T0272 $05/28/19 19AO2 T0278 $
53988KBKB BKB20190528191009205/28/19 19:10:31  5-MIN KBKB 290110Z AUTO VRB03KT 10SM CLR 27/ M M M VRB/03 RMK AO2 T0267 $
53988KBKB BKB20190528191509205/28/19 19:15:31  5-MIN KBKB 290115Z AUTO 00000KT 10SM CLR 27/ M M M 000/00 RMK AO2 T0267 $
53988KBKB BKB20190528192009205/28/19 19:20:31  5-MIN KBKB 290120Z AUTO VRB04KT 10SM CLR 27/ M M M VRB/04 RMK AO2 T0267 $
53988KBKB BKB20190528192012405/28/19 19:20:31  5-MIN KBKB 290120Z AUTO VRB04KT 10SM  KBKB 290055Z AUTO VRB03KT 10SM CLR 27/ M M M VRB/03 RMK AO2 T0272 $
53988KBKB BKB20190528192509205/28/19 19:25:31  5-MIN KBKB 290125Z AUTO VRB05KT 10SM CLR 27/ M M M VRB/05 RMK AO2 T0267 $
53988KBKB BKB20190528193009205/28/19 19:30:31  5-MIN KBKB 290130Z AUTO VRB03KT 10SM CLR 27/ M M M VRB/03 RMK AO2 T0267 $
53988KBKB BKB20190528193012005/28/19 19:30:31  5-MIN KBKB 290130Z AUTO VRB03KT 10SM CLR 27/ M M M VRB/03 RMK AO2 T0267 $M M M VRB/04 RMK AO2 T0272 $
53988KBKB BKB20190528193509205/28/19 19:35:31  5-MIN KBKB 290135Z AUTO VRB04KT 10SM CLR 27/ M M M VRB/04 RMK AO2 T0267 $
53988KBKB BKB20190528193513905/28/19 19:35:31  5-MIN KBKB 290135Z AUTO VRB04KT 10SM CLR 27N KBKB 290545Z AUTO VRB05KT 10SM CLR 24/24 M 100 M VRB/05 RMK AO2 T02390239 $
53988KBKB BKB20190528194012205/28/19 19:40:31  5-MIN KBKB 290140Z AUTO VRB03KT 10SM CLR 27/ M M M VRB/03 RMK AO2 T0267 $05/28/19 19:45:31K AO2 T0267 $
53988KBKB BKB20190528230510005/28/19 23:05:31  5-MIN KBKB 290505Z AUTO VRB04KT 10SM CLR 24/24 M 100 M VRB/04 RMK AO2 T02390239 $
53988KBKB BKB20190528231010005/28/19 23:10:31  5-MIN KBKB 290510Z AUTO 00000KT 10SM CLR 24/24 M 100 M 000/00 RMK AO2 T02390239 $
53988KBKB BKB20190528231510005/28/19 23:15:31  5-MIN KBKB 290515Z AUTO VRB03KT 10SM CLR 24/24 M 100 M VRB/03 RMK AO2 T02390239 $
53988KBKB BKB20190528232010005/28/19 23:20:31  5-MIN KBKB 290520Z AUTO VRB04KT 10SM CLR 24/24 M 100 M VRB/04 RMK AO2 T02390239 $
53988KBKB BKB20190528232509005/28/19 23:25:31  5-MIN KBKB 290525Z AUTO 10SM CLR 24/24 M 100 M M /M RMK AO2 T02390239 $
53988KBKB BKB20190528233010005/28/19 23:30:31  5-MIN KBKB 290530Z AUTO VRB04KT 10SM CLR 24/24 M 100 M VRB/04 RMK AO2 T02390239 $
53988KBKB BKB20190528233510005/28/19 23:35:31  5-MIN KBKB 290535Z AUTO VRB03KT 10SM CLR 24/24 M 100 M VRB/03 RMK AO2 T02390239 $
53988KBKB BKB20190528234009005/28/19 23:40:31  5-MIN KBKB 290540Z AUTO 10SM CLR 24/24 M 100 M M /M RMK AO2 T02390239 $
53988KBKB BKB20190528234510005/28/19 23:45:31  5-MIN KBKB 290545Z AUTO VRB05KT 10SM CLR 24/24 M 100 M VRB/05 RMK AO2 T02390239 $
53988KBKB BKB20190528235012805/28/19 23:50:31  5-MIN KBKB 290550Z AUTO VRB04KT 10SM CLR 24/24 M 100 M VRB/04 RMK AO2 SLPNO T02390239 10283 20239 403330233 $
53988KBKB BKB20190528235510005/28/19 23:55:31  5-MIN KBKB 290555Z AUTO VRB04KT 10SM CLR 24/24 M 100 M VRB/04 RMK AO2 T02390239 $
53988KBKB BKB20190529000010005/29/19 00:00:31  5-MIN KBKB 290600Z AUTO VRB03KT 10SM CLR 24/24 M 100 M VRB/03 RMK AO2 T02390239 $
53988KBKB BKB20190529000510005/29/19 00:05:31  5-MIN KBKB 290605Z AUTO VRB04KT 10SM CLR 24/24 M 100 M VRB/04 RMK AO2 T02390239 $
53988KBKB BKB20190529001010005/29/19 00:10:31  5-MIN KBKB 290610Z AUTO VRB03KT 10SM CLR 24/24 M 100 M VRB/03 RMK AO2 T02390239 $
53988KBKB BKB20190529001510005/29/19 00:15:31  5-MIN KBKB 290615Z AUTO 00000KT 10SM CLR 24/24 M 100 M 000/00 RMK AO2 T02390239 $
53988KBKB BKB20190529002010305/29/19 00:20:31  5-MIN KBKB 290620Z AUTO VRB04KT 10SM FEW010 24/24 M 100 M VRB/04 RMK AO2 T02390239 $
53988KBKB BKB20190529002509005/29/19 00:25:31  5-MIN KBKB 290625Z AUTO 10SM CLR 24/24 M 100 M M /M RMK AO2 T02390239 $
53988KBKB BKB20190529003010305/29/19 00:30:31  5-MIN KBKB 290630Z AUTO VRB05KT 10SM FEW011 24/24 M 100 M VRB/05 RMK AO2 T02390239 $
53988KBKB BKB20190529003510305/29/19 00:35:31  5-MIN KBKB 290635Z AUTO VRB06KT 10SM FEW011 24/24 M 100 M VRB/06 RMK AO2 T02390239 $
53988KBKB BKB20190529004010305/29/19 00:40:31  5-MIN KBKB 290640Z AUTO VRB05KT 10SM FEW011 24/24 M 100 M VRB/05 RMK AO2 T02390239 $
53988KBKB BKB20190529004510305/29/19 00:45:31  5-MIN KBKB 290645Z AUTO VRB05KT 10SM FEW011 24/24 M 100 M VRB/05 RMK AO2 T02390239 $
53988KBKB BKB20190529005010905/29/19 00:50:31  5-MIN KBKB 290650Z AUTO VRB05KT 10SM FEW011 24/24 M 100 M VRB/05 RMK AO2 SLPNO T02390239 $
53988KBKB BKB20190529005510305/29/19 00:55:31  5-MIN KBKB 290655Z AUTO VRB05KT 10SM FEW011 24/24 M 100 M VRB/05 RMK AO2 T02390239 $
53988KBKB BKB20190529010010305/29/19 01:00:31  5-MIN KBKB 290700Z AUTO 00000KT 10SM SCT010 24/24 M 100 M 000/00 RMK AO2 T02390239 $
53988KBKB BKB20190529010511505/29/19 01:05:31  5-MIN KBKB 290705Z AUTO 00000KT 10SM BKN010 24/24 M 100 M 000/00 RMK AO2 CIG 009V014 T02390239 $
53988KBKB BKB20190529011011505/29/19 01:10:31  5-MIN KBKB 290710Z AUTO 24004KT 10SM BKN010 24/24 M 100 M 230/04 RMK AO2 CIG 009V014 T02390239 $
53988KBKB BKB20190529011511505/29/19 01:15:31  5-MIN KBKB 290715Z AUTO VRB03KT 10SM BKN010 24/24 M 100 M VRB/03 RMK AO2 CIG 009V014 T02390239 $
53988KBKB BKB20190529012011505/29/19 01:20:31  5-MIN KBKB 290720Z AUTO VRB05KT 10SM OVC010 24/24 M 100 M VRB/05 RMK AO2 CIG 009V014 T02390239 $
53988KBKB BKB20190529012511505/29/19 01:25:31  5-MIN KBKB 290725Z AUTO 00000KT 10SM OVC010 24/24 M 100 M 000/00 RMK AO2 CIG 009V013 T02390239 $
53988KBKB BKB20190529013010305/29/19 01:30:31  5-MIN KBKB 290730Z AUTO VRB03KT 10SM OVC010 24/24 M 100 M VRB/03 RMK AO2 T02440244 $
53988KBKB BKB20190529013511505/29/19 01:35:31  5-MIN KBKB 290735Z AUTO VRB03KT 10SM OVC010 24/24 M 100 M VRB/03 RMK AO2 CIG 009V013 T02440244 $
53988KBKB BKB20190529014011505/29/19 01:40:31  5-MIN KBKB 290740Z AUTO VRB04KT 10SM OVC010 24/24 M 100 M VRB/04 RMK AO2 CIG 009V014 T02440244 $
53988KBKB BKB20190529014510305/29/19 01:45:31  5-MIN KBKB 290745Z AUTO 00000KT 10SM OVC010 24/24 M 100 M 000/00 RMK AO2 T02440244 $
53988KBKB BKB20190529015010905/29/19 01:50:31  5-MIN KBKB 290750Z AUTO VRB04KT 10SM OVC010 24/24 M 100 M VRB/04 RMK AO2 SLPNO T02440244 $
53988KBKB BKB20190529015511005/29/19 01:55:31  5-MIN KBKB 290755Z AUTO VRB04KT 10SM BKN012 OVC018 24/24 M 100 M VRB/04 RMK AO2 T02440244 $
53988KBKB BKB20190529020010305/29/19 02:00:31  5-MIN KBKB 290800Z AUTO VRB04KT 10SM OVC012 24/24 M 100 M VRB/04 RMK AO2 T02440244 $
53988KBKB BKB20190529020510305/29/19 02:05:31  5-MIN KBKB 290805Z AUTO 20004KT 10SM OVC014 24/24 M 100 M 200/04 RMK AO2 T02440244 $
53988KBKB BKB20190529021010305/29/19 02:10:31  5-MIN KBKB 290810Z AUTO VRB04KT 10SM OVC014 24/24 M 100 M VRB/04 RMK AO2 T02440244 $
53988KBKB BKB20190529021510305/29/19 02:15:31  5-MIN KBKB 290815Z AUTO VRB03KT 10SM OVC014 24/24 M 100 M VRB/03 RMK AO2 T02440244 $
53988KBKB BKB20190529022010305/29/19 02:20:31  5-MIN KBKB 290820Z AUTO 00000KT 10SM OVC016 24/24 M 100 M 000/00 RMK AO2 T02440244 $
53988KBKB BKB20190529022511005/29/19 02:25:31  5-MIN KBKB 290825Z AUTO 00000KT 10SM BKN016 OVC022 24/24 M 100 M 000/00 RMK AO2 T02440244 $
53988KBKB BKB20190529023011005/29/19 02:30:31  5-MIN KBKB 290830Z AUTO 00000KT 10SM BKN016 BKN022 24/24 M 100 M 000/00 RMK AO2 T02440244 $
53988KBKB BKB20190529023511005/29/19 02:35:31  5-MIN KBKB 290835Z AUTO VRB03KT 10SM BKN016 BKN022 24/24 M 100 M VRB/03 RMK AO2 T02390239 $
53988KBKB BKB20190529024010305/29/19 02:40:31  5-MIN KBKB 290840Z AUTO 00000KT 10SM BKN016 24/24 M 100 M 000/00 RMK AO2 T02390239 $
53988KBKB BKB20190529024511005/29/19 02:45:31  5-MIN KBKB 290845Z AUTO 00000KT 10SM BKN016 BKN022 24/24 M 100 M 000/00 RMK AO2 T02390239 $
53988KBKB BKB20190529025011605/29/19 02:50:31  5-MIN KBKB 290850Z AUTO 00000KT 10SM BKN016 BKN022 24/24 M 100 M 000/00 RMK AO2 SLPNO T02390239 $
53988KBKB BKB20190529025511005/29/19 02:55:31  5-MIN KBKB 290855Z AUTO VRB04KT 10SM BKN016 BKN020 24/24 M 100 M VRB/04 RMK AO2 T02390239 $
53988KBKB BKB20190529030010305/29/19 03:00:31  5-MIN KBKB 290900Z AUTO 00000KT 10SM BKN018 24/24 M 100 M 000/00 RMK AO2 T02390239 $
53988KBKB BKB20190529030511005/29/19 03:05:31  5-MIN KBKB 290905Z AUTO 00000KT 10SM SCT016 BKN021 24/24 M 100 M 000/00 RMK AO2 T02390239 $
53988KBKB BKB20190529031010305/29/19 03:10:31  5-MIN KBKB 290910Z AUTO 00000KT 10SM BKN019 24/24 M 100 M 000/00 RMK AO2 T02390239 $
53988KBKB BKB20190529031510305/29/19 03:15:31  5-MIN KBKB 290915Z AUTO 00000KT 10SM BKN019 24/24 M 100 M 000/00 RMK AO2 T02390239 $
53988KBKB BKB20190529032010305/29/19 03:20:31  5-MIN KBKB 290920Z AUTO 00000KT 10SM BKN019 24/24 M 100 M 000/00 RMK AO2 T02390239 $
53988KBKB BKB20190529032510305/29/19 03:25:31  5-MIN KBKB 290925Z AUTO 00000KT 10SM BKN019 24/24 M 100 M 000/00 RMK AO2 T02390239 $
53988KBKB BKB20190529033010305/29/19 03:30:31  5-MIN KBKB 290930Z AUTO 00000KT 10SM OVC019 24/24 M 100 M 000/00 RMK AO2 T02390239 $
53988KBKB BKB20190529033510305/29/19 03:35:31  5-MIN KBKB 290935Z AUTO 00000KT 10SM BKN019 23/23 M 100 M 000/00 RMK AO2 T02330233 $
53988KBKB BKB20190529034010305/29/19 03:40:31  5-MIN KBKB 290940Z AUTO 00000KT 10SM BKN019 23/23 M 100 M 000/00 RMK AO2 T02330233 $
53988KBKB BKB20190529034510305/29/19 03:45:31  5-MIN KBKB 290945Z AUTO 00000KT 10SM BKN019 23/23 M 100 M 000/00 RMK AO2 T02330233 $
53988KBKB BKB20190529035010905/29/19 03:50:31  5-MIN KBKB 290950Z AUTO 00000KT 10SM BKN019 23/23 M 100 M 000/00 RMK AO2 SLPNO T02330233 $
53988KBKB BKB20190529035509505/29/19 03:55:31  5-MIN KBKB 290955Z AUTO 00000KT 10SM BKN019 23/ M M M 000/00 RMK AO2 T0233 $
53988KBKB BKB20190529040009505/29/19 04:00:31  5-MIN KBKB 291000Z AUTO 00000KT 10SM BKN018 23/ M M M 000/00 RMK AO2 T0228 $
53988KBKB BKB20190529040510105/29/19 04:05:31  5-MIN KBKB 291005Z AUTO 00000KT 9SM BKN016 BKN020 23/ M M M 000/00 RMK AO2 T0228 $
53988KBKB BKB20190529041009405/29/19 04:10:31  5-MIN KBKB 291010Z AUTO 00000KT 9SM BKN016 23/ M M M 000/00 RMK AO2 T0228 $
53988KBKB BKB20190529041509405/29/19 04:15:31  5-MIN KBKB 291015Z AUTO 00000KT 8SM BKN014 23/ M M M 000/00 RMK AO2 T0228 $
53988KBKB BKB20190529042009405/29/19 04:20:31  5-MIN KBKB 291020Z AUTO 00000KT 8SM BKN014 23/ M M M 000/00 RMK AO2 T0228 $
53988KBKB BKB20190529042509405/29/19 04:25:31  5-MIN KBKB 291025Z AUTO 00000KT 8SM OVC014 23/ M M M 000/00 RMK AO2 T0228 $
53988KBKB BKB20190529043009405/29/19 04:30:31  5-MIN KBKB 291030Z AUTO 00000KT 7SM OVC014 23/ M M M 000/00 RMK AO2 T0228 $
53988KBKB BKB20190529043509705/29/19 04:35:31  5-MIN KBKB 291035Z AUTO 00000KT 6SM HZ BKN014 22/ M M M 000/00 RMK AO2 T0222 $
53988KBKB BKB20190529044009705/29/19 04:40:31  5-MIN KBKB 291040Z AUTO 00000KT 5SM HZ BKN014 22/ M M M 000/00 RMK AO2 T0222 $
53988KBKB BKB20190529044509705/29/19 04:45:31  5-MIN KBKB 291045Z AUTO 00000KT 5SM HZ OVC016 22/ M M M 000/00 RMK AO2 T0222 $
53988KBKB BKB20190529045009105/29/19 04:50:31  5-MIN KBKB 291050Z AUTO 00000KT 5SM HZ OVC016 22/ M M M 000/00 RMK AO2 $
53988KBKB BKB20190529045509705/29/19 04:55:31  5-MIN KBKB 291055Z AUTO 00000KT 5SM HZ OVC016 22/ M M M 000/00 RMK AO2 T0222 $
53988KBKB BKB20190529050009705/29/19 05:00:31  5-MIN KBKB 291100Z AUTO 00000KT 5SM HZ OVC016 22/ M M M 000/00 RMK AO2 T0222 $
53988KBKB BKB20190529050509705/29/19 05:05:31  5-MIN KBKB 291105Z AUTO 00000KT 5SM HZ OVC016 22/ M M M 000/00 RMK AO2 T0222 $
53988KBKB BKB20190529051009705/29/19 05:10:31  5-MIN KBKB 291110Z AUTO 00000KT 5SM HZ OVC016 22/ M M M 000/00 RMK AO2 T0222 $
53988KBKB BKB20190529051509705/29/19 05:15:31  5-MIN KBKB 291115Z AUTO 00000KT 6SM HZ OVC015 23/ M M M 000/00 RMK AO2 T0228 $
53988KBKB BKB20190529052010405/29/19 05:20:31  5-MIN KBKB 291120Z AUTO 13003KT 5SM HZ BKN015 BKN021 22/ M M M 130/03 RMK AO2 T0222 $
53988KBKB BKB20190529052510405/29/19 05:25:31  5-MIN KBKB 291125Z AUTO 14004KT 5SM HZ SCT015 BKN021 22/ M M M 130/04 RMK AO2 T0222 $
53988KBKB BKB20190529053010405/29/19 05:30:31  5-MIN KBKB 291130Z AUTO 00000KT 5SM HZ SCT015 BKN021 22/ M M M 000/00 RMK AO2 T0222 $
53988KBKB BKB20190529053506305/29/19 05:35:31  5-MIN KBKB 291135Z AUTO M M M M /M RMK AO2 $
53988KBKB BKB20190529054007305/29/19 05:40:31  5-MIN KBKB 291140Z AUTO 00000KT M M M 000/00 RMK AO2 $
53988KBKB BKB20190529054508305/29/19 05:45:31  5-MIN KBKB 291145Z AUTO 00000KT 23/ M M M 000/00 RMK AO2 T0228 $
53988KBKB BKB20190529055011405/29/19 05:50:31  5-MIN KBKB 291150Z AUTO 00000KT 6SM HZ 23/ M M M 000/00 RMK AO2 SLPNO 7//// T0228 10244 20222 $
53988KBKB BKB20190529055508705/29/19 05:55:31  5-MIN KBKB 291155Z AUTO 00000KT 7SM 23/ M M M 000/00 RMK AO2 T0228 $
53988KBKB BKB20190529060008705/29/19 06:00:31  5-MIN KBKB 291200Z AUTO 00000KT 7SM 23/ M M M 000/00 RMK AO2 T0228 $
53988KBKB BKB20190529060508705/29/19 06:05:31  5-MIN KBKB 291205Z AUTO VRB03KT 7SM 23/ M M M VRB/03 RMK AO2 T0228 $
53988KBKB BKB20190529061009105/29/19 06:10:31  5-MIN KBKB 291210Z AUTO 00000KT 8SM CLR 23/ M M M 000/00 RMK AO2 T0233 $
53988KBKB BKB20190529061509105/29/19 06:15:31  5-MIN KBKB 291215Z AUTO 00000KT 8SM CLR 23/ M M M 000/00 RMK AO2 T0233 $
53988KBKB BKB20190529062009105/29/19 06:20:31  5-MIN KBKB 291220Z AUTO 00000KT 9SM CLR 23/ M M M 000/00 RMK AO2 T0233 $
53988KBKB BKB20190529062509205/29/19 06:25:31  5-MIN KBKB 291225Z AUTO 14003KT 10SM CLR 24/ M M M 140/03 RMK AO2 T0239 $
53988KBKB BKB20190529063009205/29/19 06:30:31  5-MIN KBKB 291230Z AUTO 00000KT 10SM CLR 24/ M M M 000/00 RMK AO2 T0239 $
53988KBKB BKB20190529063509905/29/19 06:35:31  5-MIN KBKB 291235Z AUTO 14004KT 0 SCT027 SCT034 27/ M M M VRB/04 RMK AO2 T0272 $
53988KBKB BKB20190529084510905/29/19 08:45:31  5-MIN KBKB 291445Z AUTO VRB05KT 10SM FEW020 SCT027 BKN036 28/ M M M VRB/05 RMK AO2 T0278 $
53988KBKB BKB20190529085012305/29/19 08:50:31  5-MIN KBKB 291450Z AUTO VRB05KT 10SM FEW021 SCT027 BKN036 28/28 M 100 M VRB/05 RMK AO2 SLPNO T02830283 $
53988KBKB BKB20190529085511005/29/19 08:55:31  5-MIN KBKB 291455Z AUTO VRB05KT 10SM SCT023 BKN033 28/28 M 100 M VRB/05 RMK AO2 T02830283 $
53988KBKB BKB20190529090012605/29/19 09:00:31  5-MIN KBKB 291500Z AUTO 15007KT 110V190 10SM FEW025 SCT035 28/28 M 100 M 150/07 110V190 RMK AO2 T02830283 $
53988KBKB BKB20190529090015405/29/19 09:00:31  5-MIN KBKB 291500Z AUTO 15007KT 19 08:40:31  5-MIN KBKB 291440Z AUTO VRB04KT 10SM SCT020 SCT027 SCT034 27/ M M M VRB/04 RMK AO2 T0272 $
53988KBKB BKB20190529090510005/29/19 09:05:31  5-MIN KBKB 291505Z AUTO 10SM FEW025 SCT035 28/28 M 100 M M /M RMK AO2 T02830283 $
53988KBKB BKB20190529091011005/29/19 09:10:31  5-MIN KBKB 291510Z AUTO 15004KT 10SM FEW023 FEW033 27/27 M 100 M 150/04 RMK AO2 T02720272 $
53988KBKB BKB20190529091016005/29/19 09:10:31  5-MIN KBKB 291510Z AUTO 15004KT 10SM FEWIN KBKB 291450Z AUTO VRB05KT 10SM FEW021 SCT027 BKN036 28/28 M 100 M VRB/05 RMK AO2 SLPNO T02830283 $
53988KBKB BKB20190529091508205/29/19 09:15:31  5-MIN KBKB 291515Z AUTO VRB1 M 000/00 RMK AO2 SLPNO T03060289 $
53988KBKB BKB20190529091510305/29/19 09:15:31  5-MIN KBKB 291515Z AUTO VRB06KT 10SM FEW023 27/27 M 100 M VRB/06 RMK AO2 T02720272 $
53988KBKB BKB20190529092018305/29/19 09:20:31  5-MIN KBKB 291520Z AUTO VRB03KT 10SM CLR 28/28 M 100 31  5-MIN KBKB 291500Z AUTO 15007KT 110V190 10SM FEW025 SCT035 28/28 M 100 M 150/07 110V190 RMK AO2 T02830283 $
53988KBKB BKB20190529100510205/29/19 10:05:31  5-MIN KBKB 291605Z AUTO VRB06KT 10SM FEW037 30/29 M 94 M VRB/06 RMK AO2 T03000289 $
53988KBKB BKB20190529101010205/29/19 10:10:31  5-MIN KBKB 291610Z AUTO VRB05KT 10SM FEW037 29/29 M 97 M VRB/05 RMK AO2 T02940289 $
53988KBKB BKB20190529101510205/29/19 10:15:31  5-MIN KBKB 291615Z AUTO VRB04KT 10SM SCT037 29/28 M 94 M VRB/04 RMK AO2 T02940283 $
53988KBKB BKB20190529102011805/29/19 10:20:31  5-MIN KBKB 291620Z AUTO 19007KT 150V230 10SM SCT037 29/28 M 94 M 180/07 150V230 RMK AO2 T02940283 $
53988KBKB BKB20190529102510205/29/19 10:25:31  5-MIN KBKB 291625Z AUTO VRB05KT 10SM SCT037 30/28 M 91 M VRB/05 RMK AO2 T03000283 $
53988KBKB BKB20190529103010205/29/19 10:30:31  5-MIN KBKB 291630Z AUTO VRB04KT 10SM SCT037 30/28 M 91 M VRB/04 RMK AO2 T03000283 $
53988KBKB BKB20190529103510205/29/19 10:35:31  5-MIN KBKB 291635Z AUTO VRB03KT 10SM SCT039 30/29 M 94 M VRB/03 RMK AO2 T03000289 $
53988KBKB BKB20190529104010205/29/19 10:40:31  5-MIN KBKB 291640Z AUTO 19007KT 10SM SCT039 30/28 M 91 M 190/07 RMK AO2 T03000283 $
53988KBKB BKB20190529104510205/29/19 10:45:31  5-MIN KBKB 291645Z AUTO VRB06KT 10SM SCT039 30/28 M 91 M VRB/06 RMK AO2 T03000283 $
53988KBKB BKB20190529105010805/29/19 10:50:31  5-MIN KBKB 291650Z AUTO 00000KT 10SM FEW039 31/29 M 91 M 000/00 RMK AO2 SLPNO T03060289 $
53988KBKB BKB20190529105509205/29/19 10:55:31  5-MIN KBKB 291655Z AUTO 10SM FEW039 31/28 M 88 M M /M RMK AO2 T03060283 $
53988KBKB BKB20190529110010205/29/19 11:00:31  5-MIN KBKB 291700Z AUTO VRB06KT 10SM FEW039 31/28 M 88 M VRB/06 RMK AO2 T03060283 $
53988KBKB BKB20190529110511505/29/19 11:05:31  5-MIN KBKB 291705Z AUTO 15007KT 120V180 10SM CLR 31/28 M 88 M 140/07 120V180 RMK AO2 T03060283 $
53988KBKB BKB20190529111009905/29/19 11:10:31  5-MIN KBKB 291710Z AUTO VRB06KT 10SM CLR 31/28 M 85 M VRB/06 RMK AO2 T03110283 $
53988KBKB BKB20190529111509905/29/19 11:15:31  5-MIN KBKB 291715Z AUTO VRB05KT 10SM CLR 31/28 M 82 M VRB/05 RMK AO2 T03110278 $
53988KBKB BKB20190529112009905/29/19 11:20:31  5-MIN KBKB 291720Z AUTO VRB05KT 10SM CLR 31/28 M 82 M VRB/05 RMK AO2 T03110278 $
53988KBKB BKB20190529112509905/29/19 11:25:31  5-MIN KBKB 291725Z AUTO 22005KT 10SM CLR 32/28 M 82 M 210/05 RMK AO2 T03170283 $
53988KBKB BKB20190529113009905/29/19 11:30:31  5-MIN KBKB 291730Z AUTO VRB03KT 10SM CLR 31/28 M 85 M VRB/03 RMK AO2 T03110283 $
53988KBKB BKB20190529113509905/29/19 11:35:31  5-MIN KBKB 291735Z AUTO 19005KT 10SM CLR 32/28 M 82 M 190/05 RMK AO2 T03170283 $
53988KBKB BKB20190529114010205/29/19 11:40:31  5-MIN KBKB 291740Z AUTO VRB04KT 10SM FEW048 32/28 M 82 M VRB/04 RMK AO2 T03170283 $
53988KBKB BKB20190529114509905/29/19 11:45:31  5-MIN KBKB 291745Z AUTO VRB03KT 10SM CLR 32/29 M 85 M VRB/03 RMK AO2 T03170289 $
53988KBKB BKB20190529115012005/29/19 11:50:31  5-MIN KBKB 291750Z AUTO VRB05KT 10SM FEW047 31/28 M 88 M VRB/05 RMK AO2 SLPNO T03060283 10317 20228 $
53988KBKB BKB20190529115510205/29/19 11:55:31  5-MIN KBKB 291755Z AUTO VRB03KT 10SM SCT047 31/29 M 91 M VRB/03 RMK AO2 T03060289 $
53988KBKB BKB20190529120010205/29/19 12:00:31  5-MIN KBKB 291800Z AUTO VRB05KT 10SM SCT046 31/29 M 88 M VRB/05 RMK AO2 T03110289 $
53988KBKB BKB20190529120510205/29/19 12:05:31  5-MIN KBKB 291805Z AUTO VRB04KT 10SM BKN046 31/28 M 88 M VRB/04 RMK AO2 T03060283 $
53988KBKB BKB20190529121010205/29/19 12:10:31  5-MIN KBKB 291810Z AUTO VRB05KT 10SM SCT046 32/29 M 85 M VRB/05 RMK AO2 T03170289 $
53988KBKB BKB20190529121510205/29/19 12:15:31  5-MIN KBKB 291815Z AUTO VRB05KT 10SM SCT045 32/29 M 88 M VRB/05 RMK AO2 T03170294 $
53988KBKB BKB20190529122012405/29/19 12:20:31  5-MIN KBKB 291820Z AUTO 19007G16KT 110V240 10SM SCT045 32/29 M 85 M 190/07G16 110V240 RMK AO2 T03170289 $
53988KBKB BKB20190529122510805/29/19 12:25:31  5-MIN KBKB 291825Z AUTO VRB06G16KT 10SM FEW045 31/28 M 85 M VRB/06G16 RMK AO2 T03110283 $
53988KBKB BKB20190529123010205/29/19 12:30:31  5-MIN KBKB 291830Z AUTO VRB05KT 10SM FEW045 32/29 M 85 M VRB/05 RMK AO2 T03220294 $
53988KBKB BKB20190529123512405/29/19 12:35:31  5-MIN KBKB 291835Z AUTO 20008G15KT 160V230 10SM FEW047 32/29 M 85 M 200/08G15 160V230 RMK AO2 T03170289 $
53988KBKB BKB20190529124010805/29/19 12:40:31  5-MIN KBKB 291840Z AUTO VRB06G15KT 10SM FEW049 31/28 M 85 M VRB/06G15 RMK AO2 T03110283 $
53988KBKB BKB20190529124510205/29/19 12:45:31  5-MIN KBKB 291845Z AUTO VRB04KT 10SM SCT049 31/29 M 88 M VRB/04 RMK AO2 T03110289 $
53988KBKB BKB20190529125010805/29/19 12:50:31  5-MIN KBKB 291850Z AUTO VRB05KT 10SM SCT049 31/28 M 88 M VRB/05 RMK AO2 SLPNO T03060283 $
53988KBKB BKB20190529125510205/29/19 12:55:31  5-MIN KBKB 291855Z AUTO VRB05KT 10SM SCT049 31/29 M 88 M VRB/05 RMK AO2 T03110289 $
53988KBKB BKB20190529130010905/29/19 13:00:31  5-MIN KBKB 291900Z AUTO VRB06KT 10SM SCT049 SCT055 31/28 M 88 M VRB/06 RMK AO2 T03060283 $
53988KBKB BKB20190529130510905/29/19 13:05:31  5-MIN KBKB 291905Z AUTO VRB06KT 10SM SCT049 BKN055 31/29 M 88 M VRB/06 RMK AO2 T03110289 $
53988KBKB BKB20190529131010905/29/19 13:10:31  5-MIN KBKB 291910Z AUTO VRB05KT 10SM SCT049 BKN055 32/29 M 85 M VRB/05 RMK AO2 T03170289 $
53988KBKB BKB20190529131510905/29/19 13:15:31  5-MIN KBKB 291915Z AUTO VRB06KT 10SM SCT049 SCT055 32/29 M 85 M VRB/06 RMK AO2 T03170289 $
53988KBKB BKB20190529132011805/29/19 13:20:31  5-MIN KBKB 291920Z AUTO 16007KT 100V210 10SM FEW049 32/29 M 85 M 150/07 100V210 RMK AO2 T03170289 $
53988KBKB BKB20190529132510205/29/19 13:25:31  5-MIN KBKB 291925Z AUTO VRB06KT 10SM FEW049 32/29 M 88 M VRB/06 RMK AO2 T03170294 $
53988KBKB BKB20190529133010905/29/19 13:30:31  5-MIN KBKB 291930Z AUTO VRB04KT 10SM FEW049 FEW060 32/29 M 85 M VRB/04 RMK AO2 T03220294 $
53988KBKB BKB20190529133511805/29/19 13:35:31  5-MIN KBKB 291935Z AUTO 15008KT 100V190 10SM FEW049 32/29 M 85 M 140/08 100V190 RMK AO2 T03220294 $
53988KBKB BKB20190529134012405/29/19 13:40:31  5-MIN KBKB 291940Z AUTO 14007G15KT 100V160 10SM SCT049 31/29 M 88 M 140/07G15 100V160 RMK AO2 T03110289 $
53988KBKB BKB20190529134510905/29/19 13:45:31  5-MIN KBKB 291945Z AUTO VRB04KT 10SM FEW047 SCT055 31/29 M 88 M VRB/04 RMK AO2 T03110289 $
53988KBKB BKB20190529135011505/29/19 13:50:31  5-MIN KBKB 291950Z AUTO 18007KT 10SM FEW047 SCT055 32/28 M 82 M 180/07 RMK AO2 SLPNO T03170283 $
53988KBKB BKB20190529135513105/29/19 13:55:31  5-MIN KBKB 291955Z AUTO 19009G18KT 140V230 10SM FEW047 SCT055 32/29 M 85 M 180/09G18 140V230 RMK AO2 T03170289 $
53988KBKB BKB20190529140011505/29/19 14:00:31  5-MIN KBKB 292000Z AUTO VRB04G18KT 10SM FEW047 FEW055 31/29 M 91 M VRB/04G18 RMK AO2 T03060289 $
53988KBKB BKB20190529162009905/29/19 16:20:31  5-MIN KBKB 292220Z AUTO VRB05KT 10SM CLR 31/28 M 85 M VRB/05 RMK AO2 T03110283 $
53988KBKB BKB20190529162509905/29/19 16:25:31  5-MIN KBKB 292225Z AUTO VRB06KT 10SM CLR 31/28 M 85 M VRB/06 RMK AO2 T03110283 $
53988KBKB BKB20190529163009905/29/19 16:30:31  5-MIN KBKB 292230Z AUTO 21007KT 10SM CLR 31/28 M 85 M 200/07 RMK AO2 T03110283 $
53988KBKB BKB20190529163509905/29/19 16:35:31  5-MIN KBKB 292235Z AUTO VRB06KT 10SM CLR 31/28 M 88 M VRB/06 RMK AO2 T03060283 $
53988KBKB BKB20190529164009605/29/19 16:40:31  5-MIN KBKB 292240Z AUTO VRB03KT 10SM CL1/28 M 85 M VRB/04 RMK AO2 T03110283 $
53988KBKB BKB20190529164009905/29/19 16:40:31  5-MIN KBKB 292240Z AUTO VRB03KT 10SM CLR 31/28 M 85 M VRB/03 RMK AO2 T03110283 $
53988KBKB BKB20190529164509905/29/19 16:45:31  5-MIN KBKB 292245Z AUTO VRB05KT 10SM CLR 31/29 M 88 M VRB/05 RMK AO2 T03110289 $
53988KBKB BKB20190529165009605/29/19 16:50:31  5-MIN KBKB 292250Z AUTO VRB04KT 10SM CLR 31/29 M 91 M VRB/04 RMK2 T03110283 $
53988KBKB BKB20190529165010505/29/19 16:50:31  5-MIN KBKB 292250Z AUTO VRB04KT 10SM CLR 31/29 M 91 M VRB/04 RMK AO2 SLPNO T03060289 $
53988KBKB BKB20190529165509905/29/19 16:55:31  5-MIN KBKB 292255Z AUTO VRB04KT 10SM CLR 30/29 M 94 M VRB/04 RMK AO2 T03000289 $
53988KBKB BKB20190529170009905/29/19 17:00:31  5-MIN KBKB 292300Z AUTO VRB04KT 10SM CLR 30/29 M 94 M VRB/04 RMK AO2 T03000289 $
53988KBKB BKB20190529170012505/29/19 17:00:31  5-MIN KBKB 292300Z AUTO VRB04KT 10SM CLR 30/29 M 94 M VRB/04 RMK AO2 T03000289 $VRB/03 RMK AO2 T03110283 $
53988KBKB BKB20190529170512705/29/19 17:05:31  5-MIN KBKB 292305Z AUT19 19:35:31  5-MIN KBKB 300135Z AUTO 00000KT 10SM CLR 26/ M M M 000/00 RMK AO2 T0256 $
53988KBKB BKB20190529194009205/29/19 19:40:31  5-MIN KBKB 300140Z AUTO 00000KT 10SM CLR 26/ M M M 000/00 RMK AO2 T0256 $
53988KBKB BKB20190529194509205/29/19 19:45:31  5-MIN KBKB 300145Z AUTO 00000KT 10SM CLR 26/ M M M 000/00 RMK AO2 T0256 $
53988KBKB BKB20190529195009805/29/19 19:50:31  5-MIN KBKB 300150Z AUTO VRB03KT 10SM CLR 26/ M M M VRB/03 RMK AO2 SLPNO T0256 $
53988KBKB BKB20190529195509205/29/19 19:55:31  5-MIN KBKB 300155Z AUTO 00000KT 10SM CLR 26/ M M M 000/00 RMK AO2 T0256 $
53988KBKB BKB20190529200009205/29/19 20:00:31  5-MIN KBKB 300200Z AUTO 00000KT 10SM CLR 26/ M M M 000/00 RMK AO2 T0256 $
53988KBKB BKB20190529200509205/29/19 20:05:31  5-MIN KBKB 300205Z AUTO 00000KT 10SM CLR 25/ M M M 000/00 RMK AO2 T0250 $
53988KBKB BKB20190529200511405/29/19 20:05:31  5-MIN KBKB 300205Z AUTO 00000KT 10SM CLR 25/ M M M 000/00 RMK AO2 T0250 $000/00 RMK AO2 T0256 $
53988KBKB BKB20190529201009205/29/19 20:10:31  5-MIN KBKB 300210Z AUTO 00000KT 10SM CLR 25/ M M M 000/00 RMK AO2 T0250 $
53988KBKB BKB20190529201509205/29/19 20:15:31  5-MIN KBKB 300215Z AUTO 00000KT 10SM CLR 25/ M M M 000/00 RMK AO2 T0250 $
53988KBKB BKB20190529201512205/29/19 20:15:31  5-MIN KBKB 300215Z AUTO 00000KT 10SM CLR 25/ M M M 000/00 RMK AO2 T0250 $05/29/19 20:20:31  PNO T0256 $
53988KBKB BKB20190529202009205/29/19 20:20:31  5-MIN KBKB 300220Z AUTO 00000KT 10SM CLR 25/ M M M 000/00 RMK AO2 T0250 $
53988KBKB BKB20190529202509205/29/19 20:25:31  5-MIN KBKB 300225Z AUTO 00000KT 10SM CLR 24/ M M M 000/00 RMK AO2 T0244 $
53988KBKB BKB20190529203012405/29/19 20:30:31  5-MIN KBKB 300230Z AUTO 00000KT 10SM CLRKB 300205Z AUTO 00000KT 10SM CLR 25/ M M M 000/00 RMK AO2 T0250 $
53988KBKB BKB20190530063509205/30/19 06:35:31  5-MIN KBKB 301235Z AUTO VRB05KT 10SM CLR 23/ M M M VRB/05 RMK AO2 T0233 $
53988KBKB BKB20190530064009205/30/19 06:40:31  5-MIN KBKB 301240Z AUTO VRB04KT 10SM CLR 24/ M M M VRB/04 RMK AO2 T0239 $
53988KBKB BKB20190530064509205/30/19 06:45:31  5-MIN KBKB 301245Z AUTO VRB03KT 10SM CLR 24/ M M M VRB/03 RMK AO2 T0244 $
53988KBKB BKB20190530065009805/30/19 06:50:31  5-MIN KBKB 301250Z AUTO VRB03KT 10SM CLR 25/ M M M VRB/03 RMK AO2 SLPNO T0250 $
53988KBKB BKB20190530065507005/30/19 06:55:31  5-MIN KBKB 301255Z AUTO M M M M /M RMK AO2 FZRANO $
53988KBKB BKB20190530070008305/30/19 07:00:31  5-MIN KBKB 301300Z AUTO VRB05KT 26/ M M M VRB/05 RMK AO2 T0256 $
53988KBKB BKB20190530070508805/30/19 07:05:31  5-MIN KBKB 301305Z AUTO VRB04KT 10SM 24/ M M M VRB/04 RMK AO2 T0244 $
53988KBKB BKB20190530071008805/30/19 07:10:31  5-MIN KBKB 301310Z AUTO VRB03KT 10SM 24/ M M M VRB/03 RMK AO2 T0244 $
53988KBKB BKB20190530071507805/30/19 07:15:31  5-MIN KBKB 301315Z AUTO 10SM 24/ M M M M /M RMK AO2 T0244 $
53988KBKB BKB20190530072008805/30/19 07:20:31  5-MIN KBKB 301320Z AUTO 20004KT 10SM 24/ M M M 200/04 RMK AO2 T0244 $
53988KBKB BKB20190530072509205/30/19 07:25:31  5-MIN KBKB 301325Z AUTO VRB05KT 10SM CLR 24/ M M M VRB/05 RMK AO2 T0244 $
53988KBKB BKB20190530073009205/30/19 07:30:31  5-MIN KBKB 301330Z AUTO VRB05KT 10SM CLR 24/ M M M VRB/05 RMK AO2 T0244 $
53988KBKB BKB20190530073509205/30/19 07:35:31  5-MIN KBKB 301335Z AUTO VRB03KT 10SM CLR 24/ M M M VRB/03 RMK AO2 T0244 $
53988KBKB BKB20190530074009005/30/19 07:40:31  5-MIN KBKB 301340Z AUTO VRB04KT 10SM CLR 24/ M M M VRB/04 RMK AO2 T0244
53988KBKB BKB20190530074509005/30/19 07:45:31  5-MIN KBKB 301345Z AUTO 20005KT 10SM CLR 24/ M M M 200/05 RMK AO2 T0244
53988KBKB BKB20190530075510005/30/19 07:55:31  5-MIN KBKB 301355Z AUTO VRB03KT 25/ A2988 340 M 1600 VRB/03 RMK AO2 T0250 PWINO $
53988KBKB BKB20190530080009905/30/19 08:00:31  5-MIN KBKB 301400Z AUTO VRB05KT 10SM 25/ A2988 330 M 1600 VRB/05 RMK AO2 T0250 $
53988KBKB BKB20190530080509705/30/19 08:05:31  5-MIN KBKB 301405Z AUTO VRB05KT 10SM 25/ A2989 330 M 1600 VRB/05 RMK AO2 T0250
53988KBKB BKB20190530081009705/30/19 08:10:31  5-MIN KBKB 301410Z AUTO VRB05KT 10SM 25/ A2989 330 M 1600 VRB/05 RMK AO2 T0250
53988KBKB BKB20190530081509705/30/19 08:15:31  5-MIN KBKB 301415Z AUTO VRB03KT 10SM 26/ A2988 340 M 1700 VRB/03 RMK AO2 T0256
53988KBKB BKB20190530082009705/30/19 08:20:31  5-MIN KBKB 301420Z AUTO VRB06KT 10SM 26/ A2987 340 M 1700 VRB/06 RMK AO2 T0256
53988KBKB BKB20190530082510105/30/19 08:25:31  5-MIN KBKB 301425Z AUTO VRB03KT 10SM CLR 26/ A2987 350 M 1700 VRB/03 RMK AO2 T0256
53988KBKB BKB20190530083009105/30/19 08:30:31  5-MIN KBKB 301430Z AUTO 10SM CLR 26/ A2986 350 M 1700 M /M RMK AO2 T0256
53988KBKB BKB20190530083510105/30/19 08:35:31  5-MIN KBKB 301435Z AUTO VRB03KT 10SM CLR 26/ A2986 350 M 1700 VRB/03 RMK AO2 T0256
53988KBKB BKB20190530095509205/30/19 09:55:31  5-MIN KBKB 301555Z AUTO 22004KT A2992 M M M 210/04 RMK AO2 PWINO FZRANO $
53988KBKB BKB20190530100010105/30/19 10:00:31  5-MIN KBKB 301600Z AUTO 00000KT 26/23 A2992 300 84 1600 000/00 RMK AO2 T02560228 $
53988KBKB BKB20190530100510405/30/19 10:05:31  5-MIN KBKB 301605Z AUTO 00000KT 10SM 26/23 A2992 300 84 1600 000/00 RMK AO2 T02560228
53988KBKB BKB20190530101010405/30/19 10:10:31  5-MIN KBKB 301610Z AUTO 00000KT 10SM 26/23 A2992 300 84 1600 000/00 RMK AO2 T02560228
53988KBKB BKB20190530101511705/30/19 10:15:31  5-MIN KBKB 301615Z AUTO 00000KT 9SM -RA 26/23 A2993 290 87 1600 000/00 RMK AO2 RAB13 T02560233 PNO
53988KBKB BKB20190530102011705/30/19 10:20:31  5-MIN KBKB 301620Z AUTO 00000KT 8SM -RA 26/23 A2993 290 87 1600 000/00 RMK AO2 RAB13 T02560233 PNO
53988KBKB BKB20190530102513805/30/19 10:25:31  5-MIN KBKB 301625Z AUTO 00000KT 7SM -RA SCT012 SCT060 BKN090 26/23 A2993 290 87 1600 000/00 RMK AO2 RAB13 T02560233 PNO
53988KBKB BKB20190530103508205/30/19 10:35:31  5-MIN KBKB 301635Z AUTO M M M M /M RMK AO2 RAB13 PWINO FZRANO $
53988KBKB BKB20190530104010705/30/19 10:40:31  5-MIN KBKB 301640Z AUTO 00000KT 25/23 A2993 290 90 1600 000/00 RMK AO2 RAB13 T02500233 $
53988KBKB BKB20190530104507305/30/19 10:45:31  5-MIN KBKB 301645Z AUTO M M M M /M RMK AO2 T02500233 $
53988KBKB BKB20190530105011205/30/19 10:50:31  5-MIN KBKB 301650Z AUTO 00000KT 26/23 A2994 280 87 1600 000/00 RMK AO2 RAB13 SLP164 T02560233
53988KBKB BKB20190530105510305/30/19 10:55:31  5-MIN KBKB 301655Z AUTO 00000KT 9SM 26/23 A2994 280 87 1600 000/00 RMK AO2 T02560233
53988KBKB BKB20190530110010405/30/19 11:00:31  5-MIN KBKB 301700Z AUTO 00000KT 10SM 26/23 A2994 280 87 1600 000/00 RMK AO2 T02560233
53988KBKB BKB20190530110510405/30/19 11:05:31  5-MIN KBKB 301705Z AUTO 00000KT 10SM 26/23 A2993 290 84 1700 000/00 RMK AO2 T02610233
53988KBKB BKB20190530111010405/30/19 11:10:31  5-MIN KBKB 301710Z AUTO 34003KT 10SM 26/23 A2993 290 84 1600 340/03 RMK AO2 T02560228
53988KBKB BKB20190530111512505/30/19 11:15:31  5-MIN KBKB 301715Z AUTO 00000KT 10SM SCT012 BKN020 OVC110 26/23 A2993 290 81 1700 000/00 RMK AO2 T02610228
53988KBKB BKB20190530112014105/30/19 11:20:31  5-MIN KBKB 301720Z AUTO 00000KT 10SM -RA SCT014 BKN043 BKN070 26/22 A2993 290 79 1700 000/00 RMK AO2 RAB18 P0000 T02610222
53988KBKB BKB20190530112514105/30/19 11:25:31  5-MIN KBKB 301725Z AUTO 00000KT 10SM -RA FEW014 BKN043 BKN070 26/22 A2993 290 79 1700 000/00 RMK AO2 RAB18 P0000 T02610222
53988KBKB BKB20190530113014205/30/19 11:30:31  5-MIN KBKB 301730Z AUTO 00000KT 10SM FEW014 FEW043 SCT070 26/22 A2993 290 76 1700 000/00 RMK AO2 RAB18E28 P0000 T02610217 $
53988KBKB BKB20190530113513505/30/19 11:35:31  5-MIN KBKB 301735Z AUTO 00000KT 10SM FEW043 FEW070 26/21 A2993 290 71 1700 000/00 RMK AO2 RAB18E28 P0000 T02610206 $
53988KBKB BKB20190530114013505/30/19 11:40:31  5-MIN KBKB 301740Z AUTO 00000KT 10SM FEW043 FEW070 26/20 A2994 280 68 1700 000/00 RMK AO2 RAB18E28 P0000 T02610200 $
53988KBKB BKB20190530114512805/30/19 11:45:31  5-MIN KBKB 301745Z AUTO 00000KT 10SM FEW043 26/21 A2994 280 71 1700 000/00 RMK AO2 RAB18E28 P0000 T02610206 $
53988KBKB BKB20190530115015005/30/19 11:50:31  5-MIN KBKB 301750Z AUTO 00000KT 10SM CLR 26/20 A2993 280 68 1700 000/00 RMK AO2 RAB18E28 SLP162 P0000 6//// T02610200 10267 20206 $
53988KBKB BKB20190530115511005/30/19 11:55:31  5-MIN KBKB 301755Z AUTO 00000KT 10SM CLR 27/21 A2993 290 69 1700 000/00 RMK AO2 T02670206 $
53988KBKB BKB20190530120011005/30/19 12:00:31  5-MIN KBKB 301800Z AUTO 00000KT 10SM CLR 27/21 A2993 290 66 1800 000/00 RMK AO2 T02720206 $
53988KBKB BKB20190530120511005/30/19 12:05:31  5-MIN KBKB 301805Z AUTO 00000KT 10SM CLR 28/21 A2992 290 66 1900 000/00 RMK AO2 T02780211 $
53988KBKB BKB20190530121011005/30/19 12:10:31  5-MIN KBKB 301810Z AUTO 33003KT 10SM CLR 27/21 A2992 300 66 1800 330/03 RMK AO2 T02720206 $
53988KBKB BKB20190530121511005/30/19 12:15:31  5-MIN KBKB 301815Z AUTO 00000KT 10SM CLR 28/20 A2992 300 62 1900 000/00 RMK AO2 T02780200 $
53988KBKB BKB20190530122011005/30/19 12:20:31  5-MIN KBKB 301820Z AUTO 00000KT 10SM CLR 28/20 A2992 300 62 1900 000/00 RMK AO2 T02780200 $
53988KBKB BKB20190530122511005/30/19 12:25:31  5-MIN KBKB 301825Z AUTO 00000KT 10SM CLR 28/20 A2992 300 62 1900 000/00 RMK AO2 T02780200 $
53988KBKB BKB20190530123011005/30/19 12:30:31  5-MIN KBKB 301830Z AUTO VRB04KT 10SM CLR 28/21 A2992 300 64 1900 VRB/04 RMK AO2 T02780206 $
53988KBKB BKB20190530123511005/30/19 12:35:31  5-MIN KBKB 301835Z AUTO 00000KT 10SM CLR 28/20 A2992 300 60 1900 000/00 RMK AO2 T02830200 $
53988KBKB BKB20190530124011005/30/19 12:40:31  5-MIN KBKB 301840Z AUTO VRB03KT 10SM CLR 28/20 A2992 300 60 1900 VRB/03 RMK AO2 T02830200 $
53988KBKB BKB20190530124511005/30/19 12:45:31  5-MIN KBKB 301845Z AUTO VRB05KT 10SM CLR 29/21 A2992 300 60 2000 VRB/05 RMK AO2 T02890206 $
53988KBKB BKB20190530125011705/30/19 12:50:31  5-MIN KBKB 301850Z AUTO 00000KT 10SM CLR 29/20 A2992 300 58 2000 000/00 RMK AO2 SLP156 T02890200 $
53988KBKB BKB20190530125511005/30/19 12:55:31  5-MIN KBKB 301855Z AUTO VRB03KT 10SM CLR 29/20 A2992 300 58 2000 VRB/03 RMK AO2 T02890200 $
53988KBKB BKB20190530130011005/30/19 13:00:31  5-MIN KBKB 301900Z AUTO VRB03KT 10SM CLR 29/21 A2992 300 60 2000 VRB/03 RMK AO2 T02890206 $
53988KBKB BKB20190530130511005/30/19 13:05:31  5-MIN KBKB 301905Z AUTO VRB03KT 10SM CLR 29/21 A2992 300 58 2100 VRB/03 RMK AO2 T02940206 $
53988KBKB BKB20190530131011005/30/19 13:10:31  5-MIN KBKB 301910Z AUTO 16004KT 10SM CLR 29/21 A2991 310 58 2100 150/04 RMK AO2 T02940206 $
53988KBKB BKB20190530131511005/30/19 13:15:31  5-MIN KBKB 301915Z AUTO VRB03KT 10SM CLR 29/21 A2991 310 58 2100 VRB/03 RMK AO2 T02940206 $
53988KBKB BKB20190530132011005/30/19 13:20:31  5-MIN KBKB 301920Z AUTO VRB03KT 10SM CLR 29/20 A2991 310 56 2100 VRB/03 RMK AO2 T02940200 $
53988KBKB BKB20190530132511005/30/19 13:25:31  5-MIN KBKB 301925Z AUTO VRB03KT 10SM CLR 30/21 A2991 310 56 2100 VRB/03 RMK AO2 T03000206 $
53988KBKB BKB20190530133011005/30/19 13:30:31  5-MIN KBKB 301930Z AUTO VRB03KT 10SM CLR 31/20 A2990 310 52 2200 VRB/03 RMK AO2 T03060200 $
53988KBKB BKB20190530133511005/30/19 13:35:31  5-MIN KBKB 301935Z AUTO VRB03KT 10SM CLR 31/20 A2990 310 52 2200 VRB/03 RMK AO2 T03060200 $
53988KBKB BKB20190530134011005/30/19 13:40:31  5-MIN KBKB 301940Z AUTO 00000KT 10SM CLR 31/20 A2990 320 52 2200 000/00 RMK AO2 T03060200 $
53988KBKB BKB20190530134511005/30/19 13:45:31  5-MIN KBKB 301945Z AUTO VRB04KT 10SM CLR 31/21 A2990 320 54 2200 VRB/04 RMK AO2 T03060206 $
53988KBKB BKB20190530135011705/30/19 13:50:31  5-MIN KBKB 301950Z AUTO VRB03KT 10SM CLR 31/20 A2990 320 52 2200 VRB/03 RMK AO2 SLP148 T03060200 $
53988KBKB BKB20190530135511005/30/19 13:55:31  5-MIN KBKB 301955Z AUTO VRB03KT 10SM CLR 31/21 A2990 320 53 2300 VRB/03 RMK AO2 T03110206 $
53988KBKB BKB20190530140011005/30/19 14:00:31  5-MIN KBKB 302000Z AUTO VRB04KT 10SM CLR 31/21 A2989 320 53 2300 VRB/04 RMK AO2 T03110206 $
53988KBKB BKB20190530140511005/30/19 14:05:31  5-MIN KBKB 302005Z AUTO 00000KT 10SM CLR 31/20 A2989 320 52 2200 000/00 RMK AO2 T03060200 $
53988KBKB BKB20190530141011305/30/19 14:10:31  5-MIN KBKB 302010Z AUTO 00000KT 10SM FEW041 31/20 A2989 330 52 2200 000/00 RMK AO2 T03060200 $
53988KBKB BKB20190530141511305/30/19 14:15:31  5-MIN KBKB 302015Z AUTO VRB03KT 10SM FEW041 31/20 A2989 330 51 2300 VRB/03 RMK AO2 T03110200 $
53988KBKB BKB20190530142011305/30/19 14:20:31  5-MIN KBKB 302020Z AUTO 00000KT 10SM FEW041 32/20 A2988 330 49 2400 000/00 RMK AO2 T03170200 $
53988KBKB BKB20190530142511305/30/19 14:25:31  5-MIN KBKB 302025Z AUTO 00000KT 10SM FEW041 32/21 A2988 330 51 2400 000/00 RMK AO2 T03170206 $
53988KBKB BKB20190530143011305/30/19 14:30:31  5-MIN KBKB 302030Z AUTO VRB03KT 10SM FEW041 32/21 A2988 330 51 2400 VRB/03 RMK AO2 T03170206 $
53988KBKB BKB20190530143511305/30/19 14:35:31  5-MIN KBKB 302035Z AUTO VRB03KT 10SM FEW041 32/21 A2988 330 51 2400 VRB/03 RMK AO2 T03170206 $
53988KBKB BKB20190530144011305/30/19 14:40:31  5-MIN KBKB 302040Z AUTO 00000KT 10SM FEW043 31/21 A2988 330 53 2300 000/00 RMK AO2 T03110206 $
53988KBKB BKB20190530144511305/30/19 14:45:31  5-MIN KBKB 302045Z AUTO VRB04KT 10SM FEW043 32/21 A2988 340 51 2400 VRB/04 RMK AO2 T03170206 $
53988KBKB BKB20190530145012005/30/19 14:50:31  5-MIN KBKB 302050Z AUTO VRB03KT 10SM FEW043 32/21 A2988 340 51 2400 VRB/03 RMK AO2 SLP143 T03170206 $
53988KBKB BKB20190530145515805/30/19 14:55:31  5-MIN KBKB 302055Z AUTO VRB03KT 10SM FEW043 32/21 A2988 340 51 2400 VRB/03 RMK AO2 T03170206 $ A2986 350 56 2300 000/00 RMK AO2 T03110217 $
53988KBKB BKB20190530165012705/30/19 16:50:31  5-MIN KBKB 302250Z AUTO 00000KT 10SM FEW034 BKN050 31/22 A2986 350 58 2300 000/00 RMK AO2 SLP137 T03060217 $
53988KBKB BKB20190530165511305/30/19 16:55:31  5-MIN KBKB 302255Z AUTO 00000KT 10SM SCT050 31/22 A2986 350 58 2300 000/00 RMK AO2 T03060217 $
53988KBKB BKB20190530170011305/30/19 17:00:31  5-MIN KBKB 302300Z AUTO 00000KT 10SM SCT050 30/22 A2986 350 60 2200 000/00 RMK AO2 T03000217 $
53988KBKB BKB20190530170511305/30/19 17:05:31  5-MIN KBKB 302305Z AUTO 00000KT 10SM SCT050 30/21 A2986 350 58 2200 000/00 RMK AO2 T03000211 $
53988KBKB BKB20190530170514105/30/19 17:05:31  5-MIN KBKB 302305Z AUTO 00000KT 10SM SCT050 30/21 A2986 3 FEW034 BKN050 31/22 A2986 350 56 2300 000/00 RMK AO2 T03110217 $
53988KBKB BKB20190530171012005/30/19 17:10:31  5-MIN KBKB 302310Z AUTO 00000KT 10SM FEW043 SCT050 30/22 A2986 360 60 2200 000/00 RMK AO2 T03000217 $
53988KBKB BKB20190530171512005/30/19 17:15:31  5-MIN KBKB 302315Z AUTO 00000KT 10SM FEW036 SCT046 29/22 A2986 350 62 2100 000/00 RMK AO2 T02940217 $
53988KBKB BKB20190530171515005/30/19 17:15:31  5-MIN KBKB 302315Z AUTO 00016:55:31  5-MIN KBKB 302255Z AUTO 00000KT 10SM SCT050 31/22 A2986 350 58 2300 000/00 RMK AO2 T03060217 $
53988KBKB BKB20190530172005105/30/19 17:20:31  5-MIN KBKB 302320Z A T02560228 $
53988KBKB BKB20190530172014105/30/19 17:20:31  5-MIN KBKB 302320Z AUTO 00000KT 10SM SCT036 BKN044 BKN050 29/22 A2986 350 64 2100 000/00 RMK AO2 T02940222 $O2 T03000217 $
53988KBKB BKB20190530193012705/30/19 19:30:31  5-MIN KBKB 310130Z AUTO 00000KT 10SM SCT034 SCT043 SCT055 26/23 A2989 330 84 1700 000/00 RMK AO2 T02560228 $
53988KBKB BKB20190530193512705/30/19 19:35:31  5-MIN KBKB 310135Z AUTO 00000KT 10SM SCT036 SCT046 BKN055 26/23 A2989 330 84 1700 000/00 RMK AO2 T02560228 $
53988KBKB BKB20190530194012705/30/19 19:40:31  5-MIN KBKB 310140Z AUTO 00000KT 10SM SCT036 SCT046 BKN055 26/22 A2989 330 81 1700 000/00 RMK AO2 T02560222 $
53988KBKB BKB20190530194512005/30/19 19:45:31  5-MIN KBKB 310145Z AUTO 00000KT 10SM FEW036 SCT055 25/23 A2989 330 87 1600 000/00 RMK AO2 T02500228 $
53988KBKB BKB20190530195012705/30/19 19:50:31  5-MIN KBKB 310150Z AUTO 00000KT 10SM FEW036 SCT055 25/23 A2989 320 87 1600 000/00 RMK AO2 SLP148 T02500228 $
53988KBKB BKB20190530195512005/30/19 19:55:31  5-MIN KBKB 310155Z AUTO 00000KT 10SM FEW037 FEW055 25/23 A2990 320 87 1600 000/00 RMK AO2 T02500228 $
53988KBKB BKB20190530195512205/30/19 19:55:31  5-MIN KBKB 310155Z AUTO 00000KT 10SM FEW037 FEW055 25/2323 A2989 330 84 1700 000/00 RMK AO2 T02560228 $
53988KBKB BKB20190530200011305/30/19 20:00:31  5-MIN KBKB 310200Z AUTO 00000KT 10SM FEW041 25/23 A2990 320 87 1600 000/00 RMK AO2 T02500228 $
53988KBKB BKB20190530200511305/30/19 20:05:31  5-MIN KBKB 310205Z AUTO 00000KT 10SM SCT037 25/22 A2990 320 84 1600 000/00 RMK AO2 T02500222 $
53988KBKB BKB20190530201011305/30/19 20:10:31  5-MIN KBKB 310210Z AUTO 00000KT 10SM SCT037 25/22 A2990 320 84 1600 000/00 RMK AO2 T02500222 $
53988KBKB BKB20190530201511305/30/19 20:15:31  5-MIN KBKB 310215Z AUTO 00000KT 10SM FEW037 25/22 A2990 310 84 1600 000/00 RMK AO2 T02500222 $
53988KBKB BKB20190530202011305/30/19 20:20:31  5-MIN KBKB 310220Z AUTO 00000KT 10SM FEW037 24/22 A2991 310 87 1500 000/00 RMK AO2 T02440222 $
53988KBKB BKB20190530202511305/30/19 20:25:31  5-MIN KBKB 310225Z AUTO 00000KT 10SM FEW037 24/22 A2991 310 87 1500 000/00 RMK AO2 T02440222 $
53988KBKB BKB20190530203011305/30/19 20:30:31  5-MIN KBKB 310230Z AUTO 00000KT 10SM FEW037 24/22 A2991 310 87 1500 000/00 RMK AO2 T02440222 $
53988KBKB BKB20190530203511005/30/19 20:35:31  5-MIN KBKB 310235Z AUTO 00000KT 10SM CLR 24/22 A2991 310 87 1500 000/00 RMK AO2 T02440222 $
53988KBKB BKB20190530204011305/30/19 20:40:31  5-MIN KBKB 310240Z AUTO 00000KT 10SM FEW037 24/22 A2991 310 87 1500 000/00 RMK AO2 T02440222 $
53988KBKB BKB20190530204511305/30/19 20:45:31  5-MIN KBKB 310245Z AUTO 00000KT 10SM FEW041 24/22 A2991 300 87 1500 000/00 RMK AO2 T02440222 $
53988KBKB BKB20190530205012605/30/19 20:50:31  5-MIN KBKB 310250Z AUTO 00000KT 10SM FEW041 24/22 A2992 300 87 1500 000/00 RMK AO2 SLP156 T02440222 55004 $
53988KBKB BKB20190530205511105/30/19 20:55:31  5-MIN KBKB 310255Z AUTO 00000KT 10SM FEW00 24/22 A2992 300 87 1500 00/00 RMK AO2 T02500228 $
53988KBKB BKB20190530212012705/30/19 21:20:31  5-MIN KBKB 310320Z AUTO 00000KT 10SM FEW030 SCT034 BKN045 25/23 A2993 290 87 1600 000/00 RMK AO2 T02500228 $
53988KBKB BKB20190530212512705/30/19 21:25:31  5-MIN KBKB 310325Z AUTO 00000KT 10SM FEW030 SCT044 BKN060 24/23 A2992 290 90 1500 000/00 RMK AO2 T02440228 $
53988KBKB BKB20190530213012705/30/19 21:30:31  5-MIN KBKB 310330Z AUTO 00000KT 10SM SCT035 BKN045 BKN060 24/23 A2993 290 90 1500 000/00 RMK AO2 T02440228 $
53988KBKB BKB20190530213512705/30/19 21:35:31  5-MIN KBKB 310335Z AUTO 00000KT 10SM SCT035 BKN045 BKN055 25/23 A2993 290 87 1600 000/00 RMK AO2 T02500228 $
53988KBKB BKB20190530214012705/30/19 21:40:31  5-MIN KBKB 310340Z AUTO 00000KT 10SM FEW030 SCT045 BKN055 25/23 A2992 290 87 1600 000/00 RMK AO2 T02500228 $
53988KBKB BKB20190530214518705/30/19 21:45:31  5-MIN KBKB 310345Z AUTO 00000KT 10SM FEW032 SCT049 24/23 A2992 290 90 1500 000/00 RMK AO2 T02440228 $00000KT 10SM CLR 24/22 A2992 300 87 1500 000/00 RMK AO2 T02440222 $
53988KBKB BKB20190530222511005/30/19 22:25:31  5-MIN KBKB 310425Z AUTO 00000KT 10SM CLR 24/22 A2992 300 90 1400 000/00 RMK AO2 T02390222 $
53988KBKB BKB20190530223011305/30/19 22:30:31  5-MIN KBKB 310430Z AUTO 00000KT 10SM FEW039 23/22 A2992 300 93 1400 000/00 RMK AO2 T02330222 $
53988KBKB BKB20190530223510905/30/19 22:35:31  5-MIN KBKB 310435Z AUTO 00000KT 10SM FEW039 24/22 A2992 300 90 1400 000/00 RMK AO2 T0222 $
53988KBKB BKB20190530233511305/30/19 23:35:31  5-MIN KBKB 310535Z AUTO 00000KT 10SM BKN022 24/22 A2993 290 90 1400 000/00 RMK AO2 T02390222 $
53988KBKB BKB20190530234012705/30/19 23:40:31  5-MIN KBKB 310540Z AUTO 00000KT 10SM BKN022 BKN027 BKN036 24/22 A2993 290 87 1500 000/00 RMK AO2 T02440222 $
53988KBKB BKB20190530234512705/30/19 23:45:31  5-MIN KBKB 310545Z AUTO 00000KT 10SM BKN022 BKN029 OVC038 24/22 A2993 290 87 1500 000/00 RMK AO2 T02440222 $
53988KBKB BKB20190530235011705/30/19 23:50:31  5-MIN KBKB 310550Z AUTO 00000KT 10SM SCT022 BKN031 OVC039 24/23 A2993 290 90 1500 000/00 RMK AO2 $
53988KBKB BKB20190530235512705/30/19 23:55:31  5-MIN KBKB 310555Z AUTO 00000KT 10SM SCT022 BKN029 OVC035 24/23 A2993 290 90 1500 000/00 RMK AO2 T02440228 $
53988KBKB BKB20190531000012005/31/19 00:00:31  5-MIN KBKB 310600Z AUTO 00000KT 10SM FEW022 OVC032 24/23 A2992 290 90 1500 000/00 RMK AO2 T02440228 $
53988KBKB BKB20190531000512005/31/19 00:05:31  5-MIN KBKB 310605Z AUTO 00000KT 10SM FEW023 BKN032 24/22 A2992 300 87 1500 000/00 RMK AO2 T02440222 $
53988KBKB BKB20190531001012005/31/19 00:10:31  5-MIN KBKB 310610Z AUTO 00000KT 10SM FEW023 BKN034 24/22 A2992 300 87 1500 000/00 RMK AO2 T02440222 $
53988KBKB BKB20190531001511305/31/19 00:15:31  5-MIN KBKB 310615Z AUTO 00000KT 10SM SCT034 24/22 A2992 300 87 1500 000/00 RMK AO2 T02440222 $
53988KBKB BKB20190531002012005/31/19 00:20:31  5-MIN KBKB 310620Z AUTO 00000KT 10SM FEW025 SCT033 24/22 A2992 300 87 1500 000/00 RMK AO2 T02440222 $
53988KBKB BKB20190531002512005/31/19 00:25:31  5-MIN KBKB 310625Z AUTO 00000KT 10SM FEW025 FEW033 24/22 A2992 300 87 1500 000/00 RMK AO2 T02440222 $
53988KBKB BKB20190531003011005/31/19 00:30:31  5-MIN KBKB 310630Z AUTO 00000KT 10SM CLR 24/22 A2993 290 87 1500 000/00 RMK AO2 T02440222 $
53988KBKB BKB20190531003514505/31/19 00:35:31  5-MIN KBKB 310635Z AUTO 00000KT 10SM CLR 24/22 A2993 290 90 1400 000/00 RMK AO2 T02390222 $ 90 1400 000/00 RMK AO2 T02390222 $
53988KBKB BKB20190531014011005/31/19 01:40:31  5-MIN KBKB 310740Z AUTO 00000KT 10SM CLR 23/22 A2994 280 93 1400 000/00 RMK AO2 T02330222 $
53988KBKB BKB20190531014511005/31/19 01:45:31  5-MIN KBKB 310745Z AUTO 00000KT 10SM CLR 23/22 A2994 280 93 1400 000/00 RMK AO2 T02330222 $
53988KBKB BKB20190531015011705/31/19 01:50:31  5-MIN KBKB 310750Z AUTO 00000KT 10SM CLR 23/22 A2994 280 93 1400 000/00 RMK AO2 SLP162 T02330222 $
53988KBKB BKB20190531015510905/31/19 01:55:31  5-MIN KBKB 310755Z AUTO 00000KT 9SM CLR 23/22 A2993 280 93 1400 000/00 RMK AO2 T02330222 $
53988KBKB BKB20190531020010905/31/19 02:00:31  5-MIN KBKB 310800Z AUTO 00000KT 8SM CLR 23/22 A2993 290 93 1400 000/00 RMK AO2 T02330222 $
53988KBKB BKB20190531020510905/31/19 02:05:31  5-MIN KBKB 310805Z AUTO 00000KT 8SM CLR 23/22 A2993 290 93 1400 000/00 RMK AO2 T02330222 $
53988KBKB BKB20190531021010905/31/19 02:10:31  5-MIN KBKB 310810Z AUTO 00000KT 8SM CLR 23/22 A2993 290 93 1400 000/00 RMK AO2 T02330222 $
53988KBKB BKB20190531021510905/31/19 02:15:31  5-MIN KBKB 310815Z AUTO 00000KT 8SM CLR 23/22 A2993 290 93 1400 000/00 RMK AO2 T02330222 $
53988KBKB BKB20190531022010905/31/19 02:20:31  5-MIN KBKB 310820Z AUTO 00000KT 7SM CLR 23/22 A2993 290 93 1400 000/00 RMK AO2 T02330222 $
53988KBKB BKB20190531022510905/31/19 02:25:31  5-MIN KBKB 310825Z AUTO 00000KT 7SM CLR 23/22 A2993 290 93 1400 000/00 RMK AO2 T02330222 $
53988KBKB BKB20190531023010905/31/19 02:30:31  5-MIN KBKB 310830Z AUTO 00000KT 7SM CLR 23/22 A2993 290 90 1400 000/00 RMK AO2 T02330217 $
53988KBKB BKB20190531023511205/31/19 02:35:31  5-MIN KBKB 310835Z AUTO 00000KT 6SM BR CLR 23/22 A2993 290 93 1400 000/00 RMK AO2 T02330222 $
53988KBKB BKB20190531024011205/31/19 02:40:31  5-MIN KBKB 310840Z AUTO 00000KT 6SM BR CLR 23/22 A2993 290 90 1400 000/00 RMK AO2 T02330217 $
53988KBKB BKB20190531024507305/31/19 02:45:31  5-MIN KBKB 310845Z AUTO 00000KT 5SM BR CLR 23/280217 $
53988KBKB BKB20190531040510905/31/19 04:05:31  5-MIN KBKB 311005Z AUTO 00000KT 7SM CLR 23/22 A2995 270 93 1300 000/00 RMK AO2 T02280217 $
53988KBKB BKB20190531041010905/31/19 04:10:31  5-MIN KBKB 311010Z AUTO 00000KT 7SM CLR 23/22 A2995 270 93 1300 000/00 RMK AO2 T02280217 $
53988KBKB BKB20190531041510905/31/19 04:15:31  5-MIN KBKB 311015Z AUTO 00000KT 7SM CLR 23/22 A2995 270 93 1300 000/00 RMK AO2 T02280217 $
53988KBKB BKB20190531042011205/31/19 04:20:31  5-MIN KBKB 311020Z AUTO 00000KT 6SM BR CLR 23/22 A2995 270 93 1300 000/00 RMK AO2 T02280217 $
53988KBKB BKB20190531042511205/31/19 04:25:31  5-MIN KBKB 311025Z AUTO 00000KT 6SM BR CLR 23/22 A2995 270 93 1300 000/00 RMK AO2 T02280217 $
53988KBKB BKB20190531043011205/31/19 04:30:31  5-MIN KBKB 311030Z AUTO 00000KT 5SM BR CLR 23/22 A2995 270 93 1300 000/00 RMK AO2 T02280217 $
53988KBKB BKB20190531043511205/31/19 04:35:31  5-MIN KBKB 311035Z AUTO 00000KT 5SM BR CLR 23/22 A2996 270 93 1300 000/00 RMK AO2 T02280217 $
53988KBKB BKB20190531044011205/31/19 04:40:31  5-MIN KBKB 311040Z AUTO 00000KT 5SM BR CLR 22/22 A2996 270 97 1200 000/00 RMK AO2 T02220217 $
53988KBKB BKB20190531044511205/31/19 04:45:31  5-MIN KBKB 311045Z AUTO 00000KT 5SM BR CLR 22/21 A2996 260 93 1200 000/00 RMK AO2 T02220211 $
53988KBKB BKB20190531045011905/31/19 04:50:31  5-MIN KBKB 311050Z AUTO 00000KT 5SM BR CLR 22/21 A2996 260 93 1200 000/00 RMK AO2 SLP169 T02220211 $
53988KBKB BKB20190531045511205/31/19 04:55:31  5-MIN KBKB 311055Z AUTO 00000KT 5SM BR CLR 22/21 A2995 270 93 1200 000/00 RMK AO2 T02220211 $
53988KBKB BKB20190531050011205/31/19 05:00:31  5-MIN KBKB 311100Z AUTO 00000KT 5SM BR CLR 22/21 A2995 270 93 1200 000/00 RMK AO2 T02220211 $
53988KBKB BKB20190531050511205/31/19 05:05:31  5-MIN KBKB 311105Z AUTO 00000KT 5SM BR CLR 22/21 A2995 270 93 1200 000/00 RMK AO2 T02220211 $
53988KBKB BKB20190531051011205/31/19 05:10:31  5-MIN KBKB 311110Z AUTO 00000KT 3SM BR CLR 22/21 A2995 270 93 1200 000/00 RMK AO2 T02220211 $
53988KBKB BKB20190531051011605/31/19 05:10:31  5-MIN KBKB 311110Z AUTO 00000KT 3SM BR CLR 22/21 A2995 270 93 1200 000/00 RMK AOK AO2 T02280217 $
53988KBKB BKB20190531051512605/31/19 05:15:31  5-MIN KBKB 311115Z AUTO 00000KT 1 1/2SM BR CLR 22/21 A2995 270 93 1200 000/00 RMK AO2 VIS 1/2V4 T02220211 $
53988KBKB BKB20190531052011605/31/19 05:20:31  5-MIN KBKB 311120Z AUTO 00000KT 1 1/4SM BR CLR 22/21 A2995 270 93 1200 000/00 RMK AO2 T02220211 $
53988KBKB BKB20190531052511605/31/19 05:25:31  5-MIN KBKB 311125Z AUTO 00000KT 1 1/2SM BR CLR 22/21 A2995 270 93 1200 000/00 RMK AO2 T02220211 $
53988KBKB BKB20190531053011605/31/19 05:30:31  5-MIN KBKB 311130Z AUTO 00000KT 1 3/4SM BR CLR 22/21 A2995 270 93 1200 000/00 RMK AO2 T02220211 $
53988KBKB BKB20190531053511605/31/19 05:35:31  5-MIN KBKB 311135Z AUTO 00000KT 1 3/4SM BR CLR 22/21 A2995 270 97 1100 000/00 RMK AO2 T02170211 $
53988KBKB BKB20190531054011205/31/19 05:40:31  5-MIN KBKB 311140Z AUTO 00000KT 2SM BR CLR 22/21 A2995 270 93 1200 000/00 RMK AO2 T02220211 $
53988KBKB BKB20190531054511605/31/19 05:45:31  5-MIN KBKB 311145Z AUTO 00000KT 2 1/2SM BR CLR 22/21 A2995 270 93 1200 000/00 RMK AO2 T02220211 $
53988KBKB BKB20190531055010205/31/19 05:50:31  5-MIN KBKB 311150Z AUTO 00000KT 3SM BR CLR 22/21 A2996 260 93 1200 000/00 RMK AO2 $
53988KBKB BKB20190531055511205/31/19 05:55:31  5-MIN KBKB 311155Z AUTO 00000KT 3SM BR CLR 22/21 A2996 260 93 1200 000/00 RMK AO2 T02220211 $
53988KBKB BKB20190531060011605/31/19 06:00:31  5-MIN KBKB 311200Z AUTO 00000KT 2 1/2SM BR CLR 22/21 A2996 260 93 1200 000/00 RMK AO2 T02220211 $
53988KBKB BKB20190531060511605/31/19 06:05:31  5-MIN KBKB 311205Z AUTO 00000KT 2 1/2SM BR CLR 22/21 A2996 260 93 1200 000/00 RMK AO2 T02220211 $
53988KBKB BKB20190531061011205/31/19 06:10:31  5-MIN KBKB 311210Z AUTO 00000KT 3SM BR CLR 22/22 A2996 260 97 1200 000/00 RMK AO2 T02220217 $
53988KBKB BKB20190531061511205/31/19 06:15:31  5-MIN KBKB 311215Z AUTO 00000KT 4SM BR CLR 23/22 A2996 260 93 1300 000/00 RMK AO2 T02280217 $
53988KBKB BKB20190531062011205/31/19 06:20:31  5-MIN KBKB 311220Z AUTO 00000KT 5SM BR CLR 23/22 A2996 260 93 1300 000/00 RMK AO2 T02280217 $
53988KBKB BKB20190531062511205/31/19 06:25:31  5-MIN KBKB 311225Z AUTO 00000KT 6SM BR CLR 23/22 A2996 260 93 1300 000/00 RMK AO2 T02330222 $
53988KBKB BKB20190531063010905/31/19 06:30:31  5-MIN KBKB 311230Z AUTO 00000KT 7SM CLR 23/22 A2996 260 93 1300 000/00 RMK AO2 T02330222 $
53988KBKB BKB20190531063510905/31/19 06:35:31  5-MIN KBKB 311235Z AUTO 00000KT 8SM CLR 24/23 A2996 260 93 1400 000/00 RMK AO2 T02390228 $
53988KBKB BKB20190531064011005/31/19 06:40:31  5-MIN KBKB 311240Z AUTO 00000KT 10SM CLR 24/23 A2996 260 90 1500 000/00 RMK AO2 T02440228 $
53988KBKB BKB20190531064511005/31/19 06:45:31  5-MIN KBKB 311245Z AUTO 00000KT 10SM CLR 25/23 A2996 260 87 1500 000/00 RMK AO2 T02500228 $
53988KBKB BKB20190531065011705/31/19 06:50:31  5-MIN KBKB 311250Z AUTO 00000KT 10SM CLR 25/23 A2997 260 87 1500 000/00 RMK AO2 SLP172 T02500228 $
53988KBKB BKB20190531065511005/31/19 06:55:31  5-MIN KBKB 311255Z AUTO 00000KT 10SM CLR 26/22 A2997 260 81 1600 000/00 RMK AO2 T02560222 $
53988KBKB BKB20190531070011005/31/19 07:00:31  5-MIN KBKB 311300Z AUTO 00000KT 10SM CLR 26/22 A2997 260 79 1600 000/00 RMK AO2 T02610222 $
53988KBKB BKB20190531070511005/31/19 07:05:31  5-MIN KBKB 311305Z AUTO 00000KT 10SM CLR 26/22 A2997 260 79 1600 000/00 RMK AO2 T02610222 $
53988KBKB BKB20190531071010805/31/19 07:10:31  5-MIN KBKB 311310Z AUTO 00000KT 10SM CLR 26/22 A2997 250 76 1600 000/00 RMK AO2 T02610217
53988KBKB BKB20190531071510805/31/19 07:15:31  5-MIN KBKB 311315Z AUTO VRB03KT 10SM CLR 26/22 A2997 250 79 1600 VRB/03 RMK AO2 T02610222
53988KBKB BKB20190531072010805/31/19 07:20:31  5-MIN KBKB 311320Z AUTO VRB03KT 10SM CLR 26/22 A2997 250 79 1600 VRB/03 RMK AO2 T02610222
53988KBKB BKB20190531072510805/31/19 07:25:31  5-MIN KBKB 311325Z AUTO VRB03KT 10SM CLR 27/22 A2997 250 73 1700 VRB/03 RMK AO2 T02670217
53988KBKB BKB20190531072510805/31/19 07:25:31  5-MIN KBKB 311325Z AUTO VRB03KT 10SM CLR 27/22 A2997 250 76 1700 VRB/03 RMK AO2 T02670222
53988KBKB BKB20190531073010805/31/19 07:30:31  5-MIN KBKB 311330Z AUTO 00000KT 10SM CLR 27/22 A2997 250 71 1800 000/00 RMK AO2 T02720217
53988KBKB BKB20190531073510805/31/19 07:35:31  5-MIN KBKB 311335Z AUTO 06003KT 10SM CLR 27/22 A2997 250 73 1700 050/03 RMK AO2 T02670217
53988KBKB BKB20190531074010805/31/19 07:40:31  5-MIN KBKB 311340Z AUTO VRB03KT 10SM CLR 27/22 A2997 250 73 1700 VRB/03 RMK AO2 T02670217
53988KBKB BKB20190531074510805/31/19 07:45:31  5-MIN KBKB 311345Z AUTO 00000KT 10SM CLR 27/22 A2997 250 71 1800 000/00 RMK AO2 T02720217
53988KBKB BKB20190531075011505/31/19 07:50:31  5-MIN KBKB 311350Z AUTO 04004KT 10SM CLR 27/22 A2997 250 74 1800 030/04 RMK AO2 SLP175 T02720222
53988KBKB BKB20190531075510805/31/19 07:55:31  5-MIN KBKB 311355Z AUTO VRB04KT 10SM CLR 27/22 A2997 250 74 1800 VRB/04 RMK AO2 T02720222
53988KBKB BKB20190531080010805/31/19 08:00:31  5-MIN KBKB 311400Z AUTO VRB04KT 10SM CLR 28/22 A2998 250 71 1800 VRB/04 RMK AO2 T02780222
53988KBKB BKB20190531080510805/31/19 08:05:31  5-MIN KBKB 311405Z AUTO VRB03KT 10SM CLR 28/22 A2998 240 71 1800 VRB/03 RMK AO2 T02780222
53988KBKB BKB20190531081008605/31/19 08:10:31  5-MIN KBKB 311410Z AUTO VRB03KT 10SM CLR 28/22 A2998 240 6T03170211
53988KBKB BKB20190531102510805/31/19 10:25:31  5-MIN KBKB 311625Z AUTO VRB03KT 10SM CLR 32/21 A2998 240 53 2200 VRB/03 RMK AO2 T03170211
53988KBKB BKB20190531103010805/31/19 10:30:31  5-MIN KBKB 311630Z AUTO 31003KT 10SM CLR 32/22 A2998 240 55 2200 310/03 RMK AO2 T03170217
53988KBKB BKB20190531103510805/31/19 10:35:31  5-MIN KBKB 311635Z AUTO 00000KT 10SM CLR 32/22 A2998 250 55 2200 000/00 RMK AO2 T03170217
53988KBKB BKB20190531104011105/31/19 10:40:31  5-MIN KBKB 311640Z AUTO VRB03KT 10SM FEW036 31/21 A2998 250 54 2200 VRB/03 RMK AO2 T03110211
53988KBKB BKB20190531104511105/31/19 10:45:31  5-MIN KBKB 311645Z AUTO VRB03KT 10SM SCT039 32/22 A2998 240 56 2200 VRB/03 RMK AO2 T03170222
53988KBKB BKB20190531105010805/31/19 10:50:31  5-MIN KBKB 311650Z AUTO 00000KT 10SM SCT039 31/22 A2998  55 2200 310/03 RMK AO2 T03170217
53988KBKB BKB20190531105011805/31/19 10:50:31  5-MIN KBKB 311650Z AUTO 00000KT 10SM SCT039 31/22 A2998 250 58 2100 000/00 RMK AO2 SLP176 T03060217
53988KBKB BKB20190531105511105/31/19 10:55:31  5-MIN KBKB 311655Z AUTO 00000KT 10SM SCT039 30/21 A2997 250 58 2100 000/00 RMK AO2 T03000211
53988KBKB BKB20190531110011105/31/19 11:00:31  5-MIN KBKB 311700Z AUTO 00000KT 10SM FEW039 31/21 A2997 250 56 2100 000/00 RMK AO2 T03060211
53988KBKB BKB20190531110015505/31/19 11:00:31  5-MIN KBKB 311700Z AUTO 005/31/19 10:40:31  5-MIN KBKB 311640Z AUTO VRB03KT 10SM FEW036 31/21 A2998 250 54 2200 VRB/03 RMK AO2 T03110211
53988KBKB BKB20190531110507105/31/19 11:05:31  5-MIN KBKB 311705Z AUTO 00000KT 10SM F AO2 T03280200
53988KBKB BKB20190531131511105/31/19 13:15:31  5-MIN KBKB 311915Z AUTO 00000KT 10SM FEW050 33/20 A2992 300 45 2500 000/00 RMK AO2 T03330200
53988KBKB BKB20190531132011105/31/19 13:20:31  5-MIN KBKB 311920Z AUTO VRB04KT 10SM FEW050 33/21 A2991 300 48 2500 VRB/04 RMK AO2 T03330211
53988KBKB BKB20190531132511105/31/19 13:25:31  5-MIN KBKB 311925Z AUTO VRB03KT 10SM FEW050 33/21 A2991 300 46 2500 VRB/03 RMK AO2 T03330206
53988KBKB BKB20190531133010805/31/19 13:30:31  5-MIN KBKB 311930Z AUTO 00000KT 10SM CLR 34/21 A2991 310 45 2600 000/00 RMK AO2 T03390206
53988KBKB BKB20190531133511105/31/19 13:35:31  5-MIN KBKB 311935Z AUTO 03003KT 10SM FEW050 34/21 A2991 310 45 2600 030/03 RMK AO2 T03390206
53988KBKB BKB20190531134011105/31/19 13:40:31  5-MIN KBKB 311940Z AUTO 02004KT 10SM SCT050 33/20 A2991 310 46 2400 020/04 RMK AO2 T03280200
53988KBKB BKB20190531134511805/31/19 13:45:31  5-MIN KBKB 311945Z AUTO 00000KT 10SM SCT050 SCT060 32/20 A2991 300 48 2400 000/00 RMK AO2 T03220200
53988KBKB BKB20190531135012505/31/19 13:50:31  5-MIN KBKB 311950Z AUTO 00000KT 10SM SCT055 SCT080 32/21 A2992 300 49 2400 000/00 RMK AO2 SLP156 T03220206
53988KBKB BKB20190531135505705/31/19 13:55:31  5-MIN KBKB 311955Z AUTO 0AO2 T02720222
53988KBKB BKB20190531160011405/31/19 16:00:31  5-MIN KBKB 312200Z AUTO VRB03KT 10SM TS BKN055 27/22 A2993 290 76 1700 VRB/03 RMK AO2 T02670222
53988KBKB BKB20190531160511405/31/19 16:05:31  5-MIN KBKB 312205Z AUTO VRB04KT 10SM TS BKN055 27/22 A2992 300 73 1700 VRB/04 RMK AO2 T02670217
53988KBKB BKB20190531161011405/31/19 16:10:31  5-MIN KBKB 312210Z AUTO 00000KT 10SM TS BKN050 27/22 A2993 290 76 1700 000/00 RMK AO2 T02670222
53988KBKB BKB20190531161511405/31/19 16:15:31  5-MIN KBKB 312215Z AUTO 00000KT 10SM TS BKN050 26/22 A2993 290 79 1600 000/00 RMK AO2 T02560217
53988KBKB BKB20190531161515405/31/19 16:15:31  5-MIN KBKB 312215Z AUTO 00000KT 10SM TS BKN0312155Z AUTO 00000KT 10SM TS FEW047 BKN055 27/22 A2992 300 74 1800 000/00 RMK AO2 T02720222
53988KBKB BKB20190531162012805/31/19 16:20:31  5-MIN KBKB 312220Z AUTO 00000KT 10SM TS BKN050 BKN060 OVC075 26/22 A2993 290 76 1700 000/00 RMK AO2 T02610217
53988KBKB BKB20190531162512105/31/19 16:25:31  5-MIN KBKB 312225Z AUTO VRB03KT 10SM TS BKN050 BKN080 26/21 A2993 290 76 1600 VRB/03 RMK AO2 T02560211
53988KBKB BKB20190531162514005/31/19 16:25:31  5-MIN KBKB 312225Z AU:31  5-MIN KBKB 312205Z AUTO VRB04KT 10SM TS BKN055 27/22 A2992 300 73 1700 VRB/04 RMK AO2 T02670217
53988KBKB BKB20190531163021405/31/19 16:30:31  5-MIN KBKB 312230Z AUTO 00000KT 10SM TS BKN050 25/21 A2993 290 79 1600 000/00 RMK AO2 T02500211A2993 290 79 1600 0KB 312300Z AUTO 00000KT 10SM CLR 25/21 A2992 300 76 1600 000/00 RMK AO2 T02500206
53988KBKB BKB20190531195510805/31/19 19:55:31  5-MIN KBKB 010155Z AUTO 00000KT 10SM CLR 22/20 A2992 300 87 1200 000/00 RMK AO2 T02220200
53988KBKB BKB20190531200010805/31/19 20:00:31  5-MIN KBKB 010200Z AUTO 00000KT 10SM CLR 22/20 A2992 300 87 1300 000/00 RMK AO2 T02220200
53988KBKB BKB20190531200510805/31/19 20:05:31  5-MIN KBKB 010205Z AUTO 00000KT 10SM CLR 22/20 A2992 300 87 1300 000/00 RMK AO2 T02220200
53988KBKB BKB20190531201010805/31/19 20:10:31  5-MIN KBKB 010210Z AUTO 00000KT 10SM CLR 22/20 A2992 300 87 1300 000/00 RMK AO2 T02220200
53988KBKB BKB20190531201510805/31/19 20:15:31  5-MIN KBKB 010215Z AUTO 00000KT 10SM CLR 22/20 A2992 300 87 1300 000/00 RMK AO2 T02220200
53988KBKB BKB20190531202010805/31/19 20:20:31  5-MIN KBKB 010220Z AUTO 00000KT 10SM CLR 22/20 A2992 300 87 1300 000/00 RMK AO2 T02220200
53988KBKB BKB20190531202510805/31/19 20:25:31  5-MIN KBKB 010225Z AUTO 00000KT 10SM CLR 22/20 A2992 300 87 1200 000/00 RMK AO2 T02220200
53988KBKB BKB20190531203010805/31/19 20:30:31  5-MIN KBKB 010230Z AUTO 00000KT 10SM CLR 22/20 A2992 300 87 1200 000/00 RMK AO2 T02220200
53988KBKB BKB20190531203510805/31/19 20:35:31  5-MIN KBKB 010235Z AUTO 00000KT 10SM CLR 22/20 A2992 300 90 1200 000/00 RMK AO2 T02170200
53988KBKB BKB20190531204010805/31/19 20:40:31  5-MIN KBKB 010240Z AUTO 00000KT 10SM CLR 22/20 A2992 300 90 1200 000/00 RMK AO2 T02170200
53988KBKB BKB20190531204510805/31/19 20:45:31  5-MIN KBKB 010245Z AUTO 00000KT 10SM CLR 22/20 A2992 300 90 1200 000/00 RMK AO2 T02170200
53988KBKB BKB20190531205012705/31/19 20:50:31  5-MIN KBKB 010250Z AUTO 00000KT 10SM CLR 22/20 A2992 290 90 1200 000/00 RMK AO2 SLP158 60000 T02170200 58003
53988KBKB BKB20190531205510805/31/19 20:55:31  5-MIN KBKB 010255Z AUTO 00000KT 10SM CLR 22/20 A2993 290 90 1200 000/00 RMK AO2 T02170200
53988KBKB BKB20190531210010805/31/19 21:00:31  5-MIN KBKB 010300Z AUTO 00000KT 10SM CLR 22/20 A2993 290 90 1200 000/00 RMK AO2 T02170200
53988KBKB BKB20190531210510805/31/19 21:05:31  5-MIN KBKB 010305Z AUTO 00000KT 10SM CLR 22/20 A2993 290 90 1200 000/00 RMK AO2 T02170200
53988KBKB BKB20190531211010805/31/19 21:10:31  5-MIN KBKB 010310Z AUTO 00000KT 10SM CLR 22/20 A2993 290 90 1200 000/00 RMK AO2 T02170200
53988KBKB BKB20190531211510805/31/19 21:15:31  5-MIN KBKB 010315Z AUTO 00000KT 10SM CLR 22/20 A2993 280 90 1200 000/00 RMK AO2 T02170200
53988KBKB BKB20190531212010805/31/19 21:20:31  5-MIN KBKB 010320Z AUTO 00000KT 10SM CLR 22/20 A2994 280 90 1200 000/00 RMK AO2 T02170200
53988KBKB BKB20190531212510805/31/19 21:25:31  5-MIN KBKB 010325Z AUTO 00000KT 10SM CLR 22/20 A2994 280 90 1200 000/00 RMK AO2 T02170200
53988KBKB BKB20190531213010805/31/19 21:30:31  5-MIN KBKB 010330Z AUTO 00000KT 10SM CLR 22/20 A2994 280 90 1200 000/00 RMK AO2 T02170200
53988KBKB BKB20190531213510805/31/19 21:35:31  5-MIN KBKB 010335Z AUTO 00000KT 10SM CLR 22/20 A2994 280 90 1200 000/00 RMK AO2 T02170200
53988KBKB BKB20190531214010805/31/19 21:40:31  5-MIN KBKB 010340Z AUTO 00000KT 10SM CLR 22/20 A2994 280 90 1200 000/00 RMK AO2 T02170200
53988KBKB BKB20190531214510805/31/19 21:45:31  5-MIN KBKB 010345Z AUTO 00000KT 10SM CLR 21/20 A2994 280 93 1100 000/00 RMK AO2 T02110200
53988KBKB BKB20190531215011505/31/19 21:50:31  5-MIN KBKB 010350Z AUTO 00000KT 10SM CLR 21/20 A2994 280 93 1100 000/00 RMK AO2 SLP165 T02110200
53988KBKB BKB20190531215510805/31/19 21:55:31  5-MIN KBKB 010355Z AUTO 00000KT 10SM CLR 21/20 A2995 270 93 1100 000/00 RMK AO2 T02110200
53988KBKB BKB20190531220010805/31/19 22:00:31  5-MIN KBKB 010400Z AUTO 00000KT 10SM CLR 21/20 A2995 270 93 1100 000/00 RMK AO2 T02110200
53988KBKB BKB20190531220510805/31/19 22:05:31  5-MIN KBKB 010405Z AUTO 00000KT 10SM CLR 21/20 A2994 280 93 1100 000/00 RMK AO2 T02110200
53988KBKB BKB20190531221010805/31/19 22:10:31  5-MIN KBKB 010410Z AUTO 00000KT 10SM CLR 21/20 A2994 280 93 1100 000/00 RMK AO2 T02110200
53988KBKB BKB20190531221510805/31/19 22:15:31  5-MIN KBKB 010415Z AUTO 00000KT 10SM CLR 21/20 A2994 280 93 1100 000/00 RMK AO2 T02110200
53988KBKB BKB20190531222010705/31/19 22:20:31  5-MIN KBKB 010420Z AUTO 00000KT 9SM CLR 21/19 A2994 280 90 1100 000/00 RMK AO2 T02110194
53988KBKB BKB20190531222510705/31/19 22:25:31  5-MIN KBKB 010425Z AUTO 00000KT 8SM CLR 21/19 A2994 280 90 1100 000/00 RMK AO2 T02110194
53988KBKB BKB20190531223010705/31/19 22:30:31  5-MIN KBKB 010430Z AUTO 00000KT 8SM CLR 22/19 A2994 280 84 1200 000/00 RMK AO2 T02220194
53988KBKB BKB20190531223510705/31/19 22:35:31  5-MIN KBKB 010435Z AUTO 00000KT 8SM CLR 21/19 A2994 280 90 1100 000/00 RMK AO2 T02110194
53988KBKB BKB20190531224010705/31/19 22:40:31  5-MIN KBKB 010440Z AUTO 00000KT 8SM CLR 21/19 A2994 280 93 1000 000/00 RMK AO2 T02060194
53988KBKB BKB20190531224510705/31/19 22:45:31  5-MIN KBKB 010445Z AUTO 00000KT 9SM CLR 21/19 A2994 280 90 1100 000/00 RMK AO2 T02110194
53988KBKB BKB20190531225011405/31/19 22:50:31  5-MIN KBKB 010450Z AUTO 00000KT 9SM CLR 21/19 A2994 280 93 1000 000/00 RMK AO2 SLP163 T02060194
53988KBKB BKB20190531225510705/31/19 22:55:31  5-MIN KBKB 010455Z AUTO 00000KT 9SM CLR 21/19 A2994 280 93 1000 000/00 RMK AO2 T02060194
53988KBKB BKB20190531230010705/31/19 23:00:31  5-MIN KBKB 010500Z AUTO 00000KT 8SM CLR 21/19 A2994 280 93 1000 000/00 RMK AO2 T02060194
53988KBKB BKB20190531230510705/31/19 23:05:31  5-MIN KBKB 010505Z AUTO 00000KT 8SM CLR 21/19 A2994 280 93 1000 000/00 RMK AO2 T02060194
53988KBKB BKB20190531231010705/31/19 23:10:31  5-MIN KBKB 010510Z AUTO 00000KT 8SM CLR 21/19 A2994 280 93 1000 000/00 RMK AO2 T02060194
53988KBKB BKB20190531231510705/31/19 23:15:31  5-MIN KBKB 010515Z AUTO 00000KT 8SM CLR 21/19 A2994 280 93 1000 000/00 RMK AO2 T02060194
53988KBKB BKB20190531232010705/31/19 23:20:31  5-MIN KBKB 010520Z AUTO 00000KT 8SM CLR 21/19 A2994 280 93 1000 000/00 RMK AO2 T02060194
53988KBKB BKB20190531232510705/31/19 23:25:31  5-MIN KBKB 010525Z AUTO 00000KT 8SM CLR 21/19 A2994 280 93 1000 000/00 RMK AO2 T02060194
53988KBKB BKB20190531233010705/31/19 23:30:31  5-MIN KBKB 010530Z AUTO 00000KT 8SM CLR 21/19 A2994 280 93 1000 000/00 RMK AO2 T02060194
53988KBKB BKB20190531233510705/31/19 23:35:31  5-MIN KBKB 010535Z AUTO 00000KT 8SM CLR 21/19 A2994 280 93 1000 000/00 RMK AO2 T02060194
53988KBKB BKB20190531234010705/31/19 23:40:31  5-MIN KBKB 010540Z AUTO 00000KT 8SM CLR 21/19 A2994 280 93 1000 000/00 RMK AO2 T02060194
53988KBKB BKB20190531234510705/31/19 23:45:31  5-MIN KBKB 010545Z AUTO 00000KT 9SM CLR 21/19 A2994 280 93 1000 000/00 RMK AO2 T02060194
53988KBKB BKB20190531235014805/31/19 23:50:31  5-MIN KBKB 010550Z AUTO 00000KT 9SM CLR 21/19 A2994 280 93 1000 000/00 RMK AO2 SLP164 60000 T02060194 10244 20206 403390206 51008
53988KBKB BKB20190531235510705/31/19 23:55:31  5-MIN KBKB 010555Z AUTO 00000KT 8SM CLR 21/19 A2994 280 93 1000 000/00 RMK AO2 T02060194
