03949KAQV AQV20190301000011403/01/19 00:00:31  5-MIN KAQV 010600Z AUTO VRB05KT 3/4SM BR VV002 08/07 A3006 250 96 -500 VRB/05 RMK AO2 T00780072
03949KAQV AQV20190301000511403/01/19 00:05:31  5-MIN KAQV 010605Z AUTO VRB06KT 3/4SM BR VV002 08/07 A3005 250 96 -500 VRB/06 RMK AO2 T00780072
03949KAQV AQV20190301001011203/01/19 00:10:31  5-MIN KAQV 010610Z AUTO 36005KT 1SM BR VV002 08/07 A3005 260 93 -500 350/05 RMK AO2 T00780067
03949KAQV AQV20190301001511203/01/19 00:15:31  5-MIN KAQV 010615Z AUTO VRB05KT 1SM BR VV002 08/07 A3004 260 93 -500 VRB/05 RMK AO2 T00780067
03949KAQV AQV20190301002011403/01/19 00:20:31  5-MIN KAQV 010620Z AUTO 35004KT 3/4SM BR VV002 07/07 A3004 260 96 -500 340/04 RMK AO2 T00720067
03949KAQV AQV20190301002511503/01/19 00:25:31  5-MIN KAQV 010625Z AUTO 35004KT 3/4SM BR VV002 07/07 A3004 270 100 -500 350/04 RMK AO2 T00720072
03949KAQV AQV20190301003011503/01/19 00:30:31  5-MIN KAQV 010630Z AUTO 36006KT 3/4SM BR VV002 07/07 A3004 270 100 -500 360/06 RMK AO2 T00720072
03949KAQV AQV20190301003511403/01/19 00:35:31  5-MIN KAQV 010635Z AUTO 35006KT 3/4SM BR VV002 07/07 A3004 260 96 -500 350/06 RMK AO2 T00720067
03949KAQV AQV20190301004011403/01/19 00:40:31  5-MIN KAQV 010640Z AUTO VRB06KT 3/4SM BR VV002 07/07 A3004 270 96 -500 VRB/06 RMK AO2 T00720067
03949KAQV AQV20190301004511403/01/19 00:45:31  5-MIN KAQV 010645Z AUTO VRB05KT 1/2SM FG VV002 07/07 A3003 270 96 -500 VRB/05 RMK AO2 T00720067
03949KAQV AQV20190301005012103/01/19 00:50:31  5-MIN KAQV 010650Z AUTO 33005KT 3/4SM BR VV002 07/07 A3004 270 96 -500 330/05 RMK AO2 SLP171 T00720067
03949KAQV AQV20190301005512103/01/19 00:55:31  5-MIN KAQV 010655Z AUTO VRB04KT 3/4SM BR VV002 07/07 A3004 270 96 -500 VRB/04 RMK AO2 SLP172 T00720067
03949KAQV AQV20190301010011403/01/19 01:00:31  5-MIN KAQV 010700Z AUTO 35005KT 3/4SM BR VV002 07/07 A3004 270 96 -500 350/05 RMK AO2 T00720067
03949KAQV AQV20190301010511403/01/19 01:05:31  5-MIN KAQV 010705Z AUTO 36006KT 3/4SM BR VV002 07/07 A3004 270 96 -500 350/06 RMK AO2 T00720067
03949KAQV AQV20190301011011403/01/19 01:10:31  5-MIN KAQV 010710Z AUTO 35004KT 3/4SM BR VV002 07/07 A3004 270 96 -500 350/04 RMK AO2 T00720067
03949KAQV AQV20190301011510403/01/19 01:15:31  5-MIN KAQV 010715Z AUTO 3/4SM BR VV002 07/07 A3004 270 96 -500 M /M RMK AO2 T00720067
03949KAQV AQV20190301012011403/01/19 01:20:31  5-MIN KAQV 010720Z AUTO 03004KT 3/4SM BR VV002 07/07 A3004 270 96 -500 020/04 RMK AO2 T00720067
03949KAQV AQV20190301012510403/01/19 01:25:31  5-MIN KAQV 010725Z AUTO 3/4SM BR VV002 07/07 A3003 270 96 -500 M /M RMK AO2 T00720067
03949KAQV AQV20190301013010203/01/19 01:30:31  5-MIN KAQV 010730Z AUTO 1SM BR VV002 07/07 A3004 270 96 -500 M /M RMK AO2 T00720067
03949KAQV AQV20190301013511203/01/19 01:35:31  5-MIN KAQV 010735Z AUTO 34003KT 1SM BR VV002 07/07 A3004 270 96 -500 340/03 RMK AO2 T00720067
03949KAQV AQV20190301014011303/01/19 01:40:31  5-MIN KAQV 010740Z AUTO 34004KT 1SM BR OVC002 07/07 A3004 270 96 -500 340/04 RMK AO2 T00720067
03949KAQV AQV20190301014511303/01/19 01:45:31  5-MIN KAQV 010745Z AUTO 36003KT 1SM BR OVC002 07/07 A3004 270 96 -500 350/03 RMK AO2 T00720067
03949KAQV AQV20190301015011003/01/19 01:50:31  5-MIN KAQV 010750Z AUTO 1SM BR OVC002 07/07 A3004 270 96 -500 M /M RMK AO2 SLP173 T00720067
03949KAQV AQV20190301015512003/01/19 01:55:31  5-MIN KAQV 010755Z AUTO 00000KT 1SM BR OVC002 07/07 A3004 260 96 -500 000/00 RMK AO2 SLP173 T00720067
03949KAQV AQV20190301020011703/01/19 02:00:31  5-MIN KAQV 010800Z AUTO 35004KT 1 1/4SM BR OVC002 07/07 A3004 260 96 -500 350/04 RMK AO2 T00720067
03949KAQV AQV20190301020511303/01/19 02:05:31  5-MIN KAQV 010805Z AUTO 33006KT 1SM BR OVC002 07/07 A3005 260 96 -500 320/06 RMK AO2 T00720067
03949KAQV AQV20190301021011303/01/19 02:10:31  5-MIN KAQV 010810Z AUTO 00000KT 1SM BR OVC002 07/07 A3005 260 96 -500 000/00 RMK AO2 T00720067
03949KAQV AQV20190301021511303/01/19 02:15:31  5-MIN KAQV 010815Z AUTO 03003KT 1SM BR OVC002 07/07 A3004 270 96 -500 020/03 RMK AO2 T00720067
03949KAQV AQV20190301022011703/01/19 02:20:31  5-MIN KAQV 010820Z AUTO 00000KT 1 1/4SM BR OVC002 07/07 A3003 270 96 -500 000/00 RMK AO2 T00720067
03949KAQV AQV20190301022511703/01/19 02:25:31  5-MIN KAQV 010825Z AUTO 35004KT 1 1/4SM BR OVC002 07/07 A3003 280 96 -500 340/04 RMK AO2 T00720067
03949KAQV AQV20190301023011703/01/19 02:30:31  5-MIN KAQV 010830Z AUTO 01004KT 1 1/4SM BR OVC002 07/06 A3003 280 93 -500 360/04 RMK AO2 T00720061
03949KAQV AQV20190301023511703/01/19 02:35:31  5-MIN KAQV 010835Z AUTO VRB04KT 1 1/4SM BR OVC002 07/06 A3003 270 96 -600 VRB/04 RMK AO2 T00670061
03949KAQV AQV20190301024011303/01/19 02:40:31  5-MIN KAQV 010840Z AUTO 35003KT 1SM BR OVC002 07/06 A3003 270 96 -600 350/03 RMK AO2 T00670061
03949KAQV AQV20190301024510303/01/19 02:45:31  5-MIN KAQV 010845Z AUTO 1SM BR OVC002 07/06 A3003 280 93 -500 M /M RMK AO2 T00720061
03949KAQV AQV20190301025012603/01/19 02:50:31  5-MIN KAQV 010850Z AUTO 35004KT 1SM BR OVC002 07/06 A3003 280 96 -600 350/04 RMK AO2 SLP169 T00670061 50005
03949KAQV AQV20190301025512603/01/19 02:55:31  5-MIN KAQV 010855Z AUTO 36005KT 1SM BR OVC002 07/06 A3003 280 96 -600 360/05 RMK AO2 SLP169 T00670061 50005
03949KAQV AQV20190301030011303/01/19 03:00:31  5-MIN KAQV 010900Z AUTO 36003KT 1SM BR OVC002 07/06 A3003 280 96 -600 350/03 RMK AO2 T00670061
03949KAQV AQV20190301030511303/01/19 03:05:31  5-MIN KAQV 010905Z AUTO 34005KT 1SM BR OVC002 07/06 A3002 280 96 -600 340/05 RMK AO2 T00670061
03949KAQV AQV20190301034011703/01/19 03:40:31  5-MIN KAQV 010940Z AUTO VRB03KT 1 1/2SM BR OVC002 07/06 A3003 270 96 -600 VRB/03 RMK AO2 T00670061
03949KAQV AQV20190301034511703/01/19 03:45:31  5-MIN KAQV 010945Z AUTO VRB03KT 1 1/4SM BR OVC002 07/06 A3003 280 96 -600 VRB/03 RMK AO2 T00670061
03949KAQV AQV20190301035012403/01/19 03:50:31  5-MIN KAQV 010950Z AUTO 35005KT 1 1/4SM BR OVC002 07/06 A3003 280 96 -600 340/05 RMK AO2 SLP170 T00670061
03949KAQV AQV20190301035512403/01/19 03:55:31  5-MIN KAQV 010955Z AUTO VRB05KT 1 1/4SM BR OVC002 07/06 A3003 280 96 -600 VRB/05 RMK AO2 SLP170 T00670061
03949KAQV AQV20190301040011703/01/19 04:00:31  5-MIN KAQV 011000Z AUTO VRB05KT 1 1/4SM BR OVC002 07/06 A3003 280 96 -600 VRB/05 RMK AO2 T00670061
03949KAQV AQV20190301040511703/01/19 04:05:31  5-MIN KAQV 011005Z AUTO 35003KT 1 1/4SM BR OVC002 07/06 A3003 280 96 -600 350/03 RMK AO2 T00670061
03949KAQV AQV20190301041011703/01/19 04:10:31  5-MIN KAQV 011010Z AUTO 36004KT 1 1/2SM BR OVC002 07/06 A3002 280 96 -600 350/04 RMK AO2 T00670061
03949KAQV AQV20190301041511703/01/19 04:15:31  5-MIN KAQV 011015Z AUTO VRB04KT 1 1/2SM BR OVC002 07/06 A3003 280 96 -600 VRB/04 RMK AO2 T00670061
03949KAQV AQV20190301042011703/01/19 04:20:31  5-MIN KAQV 011020Z AUTO 36003KT 1 1/2SM BR OVC002 07/06 A3002 280 96 -600 360/03 RMK AO2 T00670061
03949KAQV AQV20190301042511703/01/19 04:25:31  5-MIN KAQV 011025Z AUTO 01004KT 1 1/2SM BR OVC002 07/06 A3002 290 96 -600 010/04 RMK AO2 T00670061
03949KAQV AQV20190301043011703/01/19 04:30:31  5-MIN KAQV 011030Z AUTO 03005KT 1 3/4SM BR OVC002 07/06 A3002 290 96 -600 030/05 RMK AO2 T00670061
03949KAQV AQV20190301043511303/01/19 04:35:31  5-MIN KAQV 011035Z AUTO 03005KT 2SM BR OVC002 07/06 A3002 290 96 -600 020/05 RMK AO2 T00670061
03949KAQV AQV20190301044011303/01/19 04:40:31  5-MIN KAQV 011040Z AUTO VRB04KT 3SM BR OVC002 07/06 A3002 280 96 -600 VRB/04 RMK AO2 T00670061
03949KAQV AQV20190301044511303/01/19 04:45:31  5-MIN KAQV 011045Z AUTO 36005KT 3SM BR OVC002 07/06 A3002 290 96 -600 360/05 RMK AO2 T00670061
03949KAQV AQV20190301045012003/01/19 04:50:31  5-MIN KAQV 011050Z AUTO 36003KT 4SM BR OVC003 07/06 A3002 290 96 -600 350/03 RMK AO2 SLP166 T00670061
03949KAQV AQV20190301045512003/01/19 04:55:31  5-MIN KAQV 011055Z AUTO 35003KT 4SM BR OVC003 07/06 A3002 290 96 -600 350/03 RMK AO2 SLP166 T00670061
03949KAQV AQV20190301050010303/01/19 05:00:31  5-MIN KAQV 011100Z AUTO 3SM BR OVC003 07/06 A3002 280 96 -600 M /M RMK AO2 T00670061
03949KAQV AQV20190301050511803/01/19 05:05:31  5-MIN KAQV 011105Z AUTO 32005KT 2 1/2SM BR OVC003 06/06 A3003 280 100 -600 320/05 RMK AO2 T00610061
03949KAQV AQV20190301051011803/01/19 05:10:31  5-MIN KAQV 011110Z AUTO 33004KT 2 1/2SM BR OVC003 06/06 A3003 270 100 -600 330/04 RMK AO2 T00610061
03949KAQV AQV20190301051512503/01/19 05:15:31  5-MIN KAQV 011115Z AUTO 00000KT 2 1/2SM BR OVC002 06/06 A3004 260 100 -700 000/00 RMK AO2 PRESRR T00610061
03949KAQV AQV20190301052011303/01/19 05:20:31  5-MIN KAQV 011120Z AUTO 34003KT 2SM BR OVC002 07/06 A3004 260 96 -600 330/03 RMK AO2 T00670061
03949KAQV AQV20190301052511703/01/19 05:25:31  5-MIN KAQV 011125Z AUTO VRB05KT 1 1/2SM BR OVC002 06/06 A3004 270 96 -700 VRB/05 RMK AO2 T00610056
03949KAQV AQV20190301053011303/01/19 05:30:31  5-MIN KAQV 011130Z AUTO 00000KT 1SM BR OVC002 07/06 A3004 260 96 -600 000/00 RMK AO2 T00670061
03949KAQV AQV20190301053510503/01/19 05:35:31  5-MIN KAQV 011135Z AUTO 3/4SM BR OVC002 07/06 A3004 270 96 -600 M /M RMK AO2 T00670061
03949KAQV AQV20190301054010503/01/19 05:40:31  5-MIN KAQV 011140Z AUTO 3/4SM BR OVC002 07/06 A3004 260 96 -600 M /M RMK AO2 T00670061
03949KAQV AQV20190301054511503/01/19 05:45:31  5-MIN KAQV 011145Z AUTO VRB03KT 3/4SM BR OVC002 07/06 A3004 270 96 -600 VRB/03 RMK AO2 T00670061
03949KAQV AQV20190301055014603/01/19 05:50:31  5-MIN KAQV 011150Z AUTO 00000KT 3/4SM BR OVC002 07/06 A3003 280 96 -600 000/00 RMK AO2 SLP169 7//// T00670061 10078 20061 58007
03949KAQV AQV20190301055514603/01/19 05:55:31  5-MIN KAQV 011155Z AUTO 00000KT 3/4SM BR OVC002 07/06 A3003 270 96 -600 000/00 RMK AO2 SLP171 7//// T00670061 10078 20061 58007
03949KAQV AQV20190301060010403/01/19 06:00:31  5-MIN KAQV 011200Z AUTO 1SM BR OVC002 06/06 A3003 270 100 -600 M /M RMK AO2 T00610061
03949KAQV AQV20190301060511303/01/19 06:05:31  5-MIN KAQV 011205Z AUTO 30003KT 1SM BR OVC002 07/06 A3004 260 96 -600 300/03 RMK AO2 T00670061
03949KAQV AQV20190301061011803/01/19 06:10:31  5-MIN KAQV 011210Z AUTO 33005KT 1 1/4SM BR OVC002 06/06 A3005 260 100 -700 330/05 RMK AO2 T00610061
03949KAQV AQV20190301061511803/01/19 06:15:31  5-MIN KAQV 011215Z AUTO 33005KT 1 1/2SM BR OVC002 06/06 A3005 260 100 -700 320/05 RMK AO2 T00610061
03949KAQV AQV20190301062011703/01/19 06:20:31  5-MIN KAQV 011220Z AUTO 32005KT 1 1/2SM BR OVC002 07/06 A3005 250 96 -600 310/05 RMK AO2 T00670061
03949KAQV AQV20190301062511803/01/19 06:25:31  5-MIN KAQV 011225Z AUTO VRB03KT 1 1/2SM BR OVC002 06/06 A3005 260 100 -700 VRB/03 RMK AO2 T00610061
03949KAQV AQV20190301063011703/01/19 06:30:31  5-MIN KAQV 011230Z AUTO 00000KT 1 1/4SM BR OVC002 07/06 A3006 250 96 -600 000/00 RMK AO2 T00670061
03949KAQV AQV20190301063511703/01/19 06:35:31  5-MIN KAQV 011235Z AUTO 00000KT 1 1/4SM BR OVC002 07/06 A3005 260 96 -600 000/00 RMK AO2 T00670061
03949KAQV AQV20190301064011703/01/19 06:40:31  5-MIN KAQV 011240Z AUTO 36003KT 1 1/4SM BR OVC002 07/06 A3005 250 93 -600 350/03 RMK AO2 T00670056
03949KAQV AQV20190301064511703/01/19 06:45:31  5-MIN KAQV 011245Z AUTO VRB04KT 1 1/4SM BR OVC002 07/06 A3006 250 93 -600 VRB/04 RMK AO2 T00670056
03949KAQV AQV20190301065012403/01/19 06:50:31  5-MIN KAQV 011250Z AUTO 35004KT 1 1/2SM BR OVC002 06/06 A3006 250 96 -700 350/04 RMK AO2 SLP180 T00610056
03949KAQV AQV20190301065512403/01/19 06:55:31  5-MIN KAQV 011255Z AUTO 01003KT 1 1/4SM BR OVC002 06/06 A3005 250 96 -700 360/03 RMK AO2 SLP178 T00610056
03949KAQV AQV20190301070011303/01/19 07:00:31  5-MIN KAQV 011300Z AUTO 36003KT 1SM BR OVC002 06/06 A3006 250 96 -700 360/03 RMK AO2 T00610056
03949KAQV AQV20190301070511503/01/19 07:05:31  5-MIN KAQV 011305Z AUTO 34005KT 3/4SM BR OVC002 06/06 A3007 240 96 -700 330/05 RMK AO2 T00610056
03949KAQV AQV20190301071011303/01/19 07:10:31  5-MIN KAQV 011310Z AUTO 35005KT 1SM BR OVC002 06/06 A3007 240 96 -700 350/05 RMK AO2 T00610056
03949KAQV AQV20190301071511503/01/19 07:15:31  5-MIN KAQV 011315Z AUTO 01004KT 3/4SM BR OVC002 06/06 A3006 250 96 -700 360/04 RMK AO2 T00610056
03949KAQV AQV20190301072011503/01/19 07:20:31  5-MIN KAQV 011320Z AUTO 00000KT 1/2SM FG OVC002 06/06 A3007 240 96 -700 000/00 RMK AO2 T00610056
03949KAQV AQV20190301072511503/01/19 07:25:31  5-MIN KAQV 011325Z AUTO 34004KT 1/2SM FG OVC002 06/06 A3008 230 96 -700 340/04 RMK AO2 T00610056
03949KAQV AQV20190301073011503/01/19 07:30:31  5-MIN KAQV 011330Z AUTO VRB05KT 1/2SM FG OVC002 06/06 A3008 230 96 -700 VRB/05 RMK AO2 T00610056
03949KAQV AQV20190301073511503/01/19 07:35:31  5-MIN KAQV 011335Z AUTO VRB05KT 1/2SM FG OVC002 06/06 A3007 230 96 -700 VRB/05 RMK AO2 T00610056
03949KAQV AQV20190301074011503/01/19 07:40:31  5-MIN KAQV 011340Z AUTO 36006KT 1/2SM FG OVC002 06/06 A3007 240 96 -700 350/06 RMK AO2 T00610056
03949KAQV AQV20190301074511503/01/19 07:45:31  5-MIN KAQV 011345Z AUTO 36008KT 1/2SM FG OVC002 06/06 A3007 240 96 -700 350/08 RMK AO2 T00610056
03949KAQV AQV20190301075012203/01/19 07:50:31  5-MIN KAQV 011350Z AUTO 36007KT 3/4SM BR OVC002 06/05 A3007 240 93 -700 360/07 RMK AO2 SLP183 T00610050
03949KAQV AQV20190301075512203/01/19 07:55:31  5-MIN KAQV 011355Z AUTO 01005KT 3/4SM BR OVC002 06/06 A3006 250 96 -700 360/05 RMK AO2 SLP181 T00610056
03949KAQV AQV20190301080011503/01/19 08:00:31  5-MIN KAQV 011400Z AUTO 35004KT 3/4SM BR OVC002 06/06 A3007 240 96 -700 350/04 RMK AO2 T00610056
03949KAQV AQV20190301080511403/01/19 08:05:31  5-MIN KAQV 011405Z AUTO 02004KT 1SM BR OVC002 06/06 A3007 240 100 -700 010/04 RMK AO2 T00610061
03949KAQV AQV20190301081011303/01/19 08:10:31  5-MIN KAQV 011410Z AUTO 01003KT 1SM BR OVC002 06/06 A3007 240 96 -700 010/03 RMK AO2 T00610056
03949KAQV AQV20190301081511703/01/19 08:15:31  5-MIN KAQV 011415Z AUTO VRB04KT 1 1/4SM BR OVC002 06/06 A3007 240 96 -700 VRB/04 RMK AO2 T00610056
03949KAQV AQV20190301082011703/01/19 08:20:31  5-MIN KAQV 011420Z AUTO 01004KT 1 1/4SM BR OVC002 06/06 A3007 240 96 -700 360/04 RMK AO2 T00610056
03949KAQV AQV20190301082511803/01/19 08:25:31  5-MIN KAQV 011425Z AUTO VRB04KT 1 1/4SM BR OVC002 06/06 A3008 230 100 -700 VRB/04 RMK AO2 T00610061
03949KAQV AQV20190301083011703/01/19 08:30:31  5-MIN KAQV 011430Z AUTO 35003KT 1 1/4SM BR OVC002 06/06 A3008 230 96 -700 340/03 RMK AO2 T00610056
03949KAQV AQV20190301083511803/01/19 08:35:31  5-MIN KAQV 011435Z AUTO 00000KT 1 1/4SM BR OVC002 06/06 A3009 220 100 -700 000/00 RMK AO2 T00610061
03949KAQV AQV20190301084011703/01/19 08:40:31  5-MIN KAQV 011440Z AUTO 00000KT 1 3/4SM BR OVC002 07/06 A3009 220 96 -600 000/00 RMK AO2 T00670061
03949KAQV AQV20190301084511703/01/19 08:45:31  5-MIN KAQV 011445Z AUTO 05003KT 2 1/2SM BR OVC002 06/06 A3009 220 96 -700 050/03 RMK AO2 T00610056
03949KAQV AQV20190301085013003/01/19 08:50:31  5-MIN KAQV 011450Z AUTO 00000KT 2 1/2SM BR OVC002 06/06 A3009 220 96 -700 000/00 RMK AO2 SLP189 T00610056 53002
03949KAQV AQV20190301085513003/01/19 08:55:31  5-MIN KAQV 011455Z AUTO 00000KT 2 1/2SM BR OVC002 07/06 A3009 220 93 -600 000/00 RMK AO2 SLP190 T00670056 53002
03949KAQV AQV20190301090011703/01/19 09:00:31  5-MIN KAQV 011500Z AUTO 04003KT 2 1/2SM BR OVC002 07/06 A3009 220 96 -600 040/03 RMK AO2 T00670061
03949KAQV AQV20190301090511703/01/19 09:05:31  5-MIN KAQV 011505Z AUTO 07004KT 2 1/2SM BR OVC002 07/06 A3009 220 96 -600 060/04 RMK AO2 T00670061
03949KAQV AQV20190301091011303/01/19 09:10:31  5-MIN KAQV 011510Z AUTO VRB03KT 2SM BR OVC002 07/06 A3009 220 96 -600 VRB/03 RMK AO2 T00670061
03949KAQV AQV20190301091511303/01/19 09:15:31  5-MIN KAQV 011515Z AUTO 00000KT 2SM BR OVC002 07/06 A3009 220 96 -600 000/00 RMK AO2 T00670061
03949KAQV AQV20190301092011703/01/19 09:20:31  5-MIN KAQV 011520Z AUTO 00000KT 2 1/2SM BR OVC002 07/06 A3010 210 96 -700 000/00 RMK AO2 T00670061
03949KAQV AQV20190301092510403/01/19 09:25:31  5-MIN KAQV 011525Z AUTO 3SM BR OVC002 07/07 A3010 210 100 -600 M /M RMK AO2 T00670067
03949KAQV AQV20190301093011303/01/19 09:30:31  5-MIN KAQV 011530Z AUTO 05004KT 3SM BR OVC002 07/06 A3010 210 96 -700 050/04 RMK AO2 T00670061
03949KAQV AQV20190301093511303/01/19 09:35:31  5-MIN KAQV 011535Z AUTO 00000KT 3SM BR OVC002 07/06 A3010 210 93 -600 000/00 RMK AO2 T00720061
03949KAQV AQV20190301094011303/01/19 09:40:31  5-MIN KAQV 011540Z AUTO 00000KT 3SM BR OVC002 07/07 A3010 210 96 -600 000/00 RMK AO2 T00720067
03949KAQV AQV20190301094511303/01/19 09:45:31  5-MIN KAQV 011545Z AUTO VRB03KT 4SM BR OVC002 07/07 A3010 210 96 -600 VRB/03 RMK AO2 T00720067
03949KAQV AQV20190301095012003/01/19 09:50:31  5-MIN KAQV 011550Z AUTO 00000KT 5SM BR OVC002 07/06 A3010 210 93 -600 000/00 RMK AO2 SLP194 T00720061
03949KAQV AQV20190301095512003/01/19 09:55:31  5-MIN KAQV 011555Z AUTO 00000KT 5SM BR OVC002 07/06 A3010 210 93 -600 000/00 RMK AO2 SLP195 T00720061
03949KAQV AQV20190301100010303/01/19 10:00:31  5-MIN KAQV 011600Z AUTO 6SM BR OVC002 07/06 A3010 210 93 -600 M /M RMK AO2 T00720061
03949KAQV AQV20190301100511303/01/19 10:05:31  5-MIN KAQV 011605Z AUTO 03004KT 6SM BR OVC003 07/06 A3010 210 93 -600 020/04 RMK AO2 T00720061
03949KAQV AQV20190301101011303/01/19 10:10:31  5-MIN KAQV 011610Z AUTO 06003KT 6SM BR OVC003 07/06 A3011 210 93 -600 050/03 RMK AO2 T00720061
03949KAQV AQV20190301101511303/01/19 10:15:31  5-MIN KAQV 011615Z AUTO 06003KT 6SM BR OVC003 07/06 A3010 210 93 -600 050/03 RMK AO2 T00720061
03949KAQV AQV20190301102011303/01/19 10:20:31  5-MIN KAQV 011620Z AUTO 04004KT 6SM BR OVC003 07/07 A3010 210 96 -600 040/04 RMK AO2 T00720067
03949KAQV AQV20190301102511303/01/19 10:25:31  5-MIN KAQV 011625Z AUTO 00000KT 6SM BR OVC003 07/07 A3010 210 96 -600 000/00 RMK AO2 T00720067
03949KAQV AQV20190301103010003/01/19 10:30:31  5-MIN KAQV 011630Z AUTO 7SM OVC003 07/07 A3010 210 96 -600 M /M RMK AO2 T00720067
03949KAQV AQV20190301103510003/01/19 10:35:31  5-MIN KAQV 011635Z AUTO 7SM OVC003 07/07 A3010 210 96 -600 M /M RMK AO2 T00720067
03949KAQV AQV20190301104011003/01/19 10:40:31  5-MIN KAQV 011640Z AUTO 02004KT 7SM OVC003 07/07 A3010 210 96 -600 020/04 RMK AO2 T00720067
03949KAQV AQV20190301104511003/01/19 10:45:31  5-MIN KAQV 011645Z AUTO 00000KT 7SM OVC003 08/07 A3010 210 93 -500 000/00 RMK AO2 T00780067
03949KAQV AQV20190301105011703/01/19 10:50:31  5-MIN KAQV 011650Z AUTO 02004KT 7SM OVC003 08/07 A3010 210 93 -500 010/04 RMK AO2 SLP194 T00780067
03949KAQV AQV20190301105511703/01/19 10:55:31  5-MIN KAQV 011655Z AUTO 35003KT 7SM OVC003 08/07 A3010 210 93 -500 340/03 RMK AO2 SLP195 T00780067
03949KAQV AQV20190301110010003/01/19 11:00:31  5-MIN KAQV 011700Z AUTO 7SM OVC003 08/07 A3011 210 96 -500 M /M RMK AO2 T00780072
03949KAQV AQV20190301110510003/01/19 11:05:31  5-MIN KAQV 011705Z AUTO 8SM OVC003 08/07 A3010 210 93 -400 M /M RMK AO2 T00830072
03949KAQV AQV20190301111011003/01/19 11:10:31  5-MIN KAQV 011710Z AUTO 03006KT 9SM OVC003 08/07 A3010 210 93 -500 020/06 RMK AO2 T00830072
03949KAQV AQV20190301111511003/01/19 11:15:31  5-MIN KAQV 011715Z AUTO 01003KT 9SM OVC004 09/07 A3010 210 89 -400 360/03 RMK AO2 T00890072
03949KAQV AQV20190301112011003/01/19 11:20:31  5-MIN KAQV 011720Z AUTO 35003KT 8SM OVC004 09/07 A3010 210 89 -400 350/03 RMK AO2 T00890072
03949KAQV AQV20190301112511003/01/19 11:25:31  5-MIN KAQV 011725Z AUTO 02005KT 8SM OVC004 09/07 A3010 210 89 -400 010/05 RMK AO2 T00890072
03949KAQV AQV20190301113010003/01/19 11:30:31  5-MIN KAQV 011730Z AUTO 8SM OVC004 09/08 A3011 210 93 -400 M /M RMK AO2 T00890078
03949KAQV AQV20190301113511003/01/19 11:35:31  5-MIN KAQV 011735Z AUTO 36003KT 8SM OVC004 09/07 A3010 210 89 -400 360/03 RMK AO2 T00890072
03949KAQV AQV20190301114010003/01/19 11:40:31  5-MIN KAQV 011740Z AUTO 9SM OVC004 09/08 A3010 210 93 -400 M /M RMK AO2 T00890078
03949KAQV AQV20190301114511003/01/19 11:45:31  5-MIN KAQV 011745Z AUTO 00000KT 9SM OVC004 09/08 A3010 210 93 -400 000/00 RMK AO2 T00890078
03949KAQV AQV20190301115013603/01/19 11:50:31  5-MIN KAQV 011750Z AUTO 03009KT 10SM OVC004 09/08 A3010 210 93 -400 030/09 RMK AO2 SLP195 T00890078 10089 20061 53019
03949KAQV AQV20190301115513603/01/19 11:55:31  5-MIN KAQV 011755Z AUTO 01003KT 10SM OVC004 09/08 A3010 210 93 -400 360/03 RMK AO2 SLP194 T00890078 10089 20061 53019
03949KAQV AQV20190301120010103/01/19 12:00:31  5-MIN KAQV 011800Z AUTO 10SM OVC004 09/08 A3010 210 89 -300 M /M RMK AO2 T00940078
03949KAQV AQV20190301120511103/01/19 12:05:31  5-MIN KAQV 011805Z AUTO 00000KT 10SM OVC004 09/08 A3010 210 89 -300 000/00 RMK AO2 T00940078
03949KAQV AQV20190301121010103/01/19 12:10:31  5-MIN KAQV 011810Z AUTO 10SM OVC004 09/08 A3010 210 89 -300 M /M RMK AO2 T00940078
03949KAQV AQV20190301121511103/01/19 12:15:31  5-MIN KAQV 011815Z AUTO VRB05KT 10SM OVC004 09/08 A3009 220 89 -300 VRB/05 RMK AO2 T00940078
03949KAQV AQV20190301122011103/01/19 12:20:31  5-MIN KAQV 011820Z AUTO 02004KT 10SM OVC004 09/08 A3008 230 89 -300 010/04 RMK AO2 T00940078
03949KAQV AQV20190301122510103/01/19 12:25:31  5-MIN KAQV 011825Z AUTO 10SM OVC004 09/08 A3009 220 89 -300 M /M RMK AO2 T00940078
03949KAQV AQV20190301123011003/01/19 12:30:31  5-MIN KAQV 011830Z AUTO 34003KT 9SM OVC004 09/08 A3008 230 89 -300 340/03 RMK AO2 T00940078
03949KAQV AQV20190301123511103/01/19 12:35:31  5-MIN KAQV 011835Z AUTO VRB04KT 10SM OVC004 09/08 A3008 230 89 -300 VRB/04 RMK AO2 T00940078
03949KAQV AQV20190301124011103/01/19 12:40:31  5-MIN KAQV 011840Z AUTO VRB03KT 10SM OVC004 10/08 A3008 230 89 -200 VRB/03 RMK AO2 T01000083
03949KAQV AQV20190301124511103/01/19 12:45:31  5-MIN KAQV 011845Z AUTO 00000KT 10SM OVC005 10/08 A3007 240 89 -200 000/00 RMK AO2 T01000083
03949KAQV AQV20190301125009103/01/19 12:50:31  5-MIN KAQV 011850Z AUTO 10SM OVC005 11/08 A3006 240 86 -100 M /M RMK AO2
03949KAQV AQV20190301125511803/01/19 12:55:31  5-MIN KAQV 011855Z AUTO 00000KT 10SM OVC005 11/09 A3006 250 89 -100 000/00 RMK AO2 SLP181 T01060089
03949KAQV AQV20190301130011103/01/19 13:00:31  5-MIN KAQV 011900Z AUTO 00000KT 10SM OVC005 10/08 A3007 240 89 -200 000/00 RMK AO2 T01000083
03949KAQV AQV20190301130511103/01/19 13:05:31  5-MIN KAQV 011905Z AUTO 00000KT 10SM OVC005 11/08 A3006 240 86 -100 000/00 RMK AO2 T01060083
03949KAQV AQV20190301131011803/01/19 13:10:31  5-MIN KAQV 011910Z AUTO 00000KT 10SM BKN006 OVC013 11/09 A3006 250 89 -100 000/00 RMK AO2 T01060089
03949KAQV AQV20190301131511803/01/19 13:15:31  5-MIN KAQV 011915Z AUTO 00000KT 10SM BKN006 OVC013 11/09 A3005 250 89 -100 000/00 RMK AO2 T01060089
03949KAQV AQV20190301132011803/01/19 13:20:31  5-MIN KAQV 011920Z AUTO 00000KT 10SM BKN006 OVC013 11/08 A3006 250 83 -100 000/00 RMK AO2 T01110083
03949KAQV AQV20190301132511803/01/19 13:25:31  5-MIN KAQV 011925Z AUTO 00000KT 10SM BKN006 OVC013 11/09 A3005 260 86 -100 000/00 RMK AO2 T01110089
03949KAQV AQV20190301133011803/01/19 13:30:31  5-MIN KAQV 011930Z AUTO 00000KT 10SM BKN006 OVC013 11/09 A3005 260 86 -100 000/00 RMK AO2 T01110089
03949KAQV AQV20190301133511803/01/19 13:35:31  5-MIN KAQV 011935Z AUTO 00000KT 10SM BKN007 OVC013 11/09 A3005 260 86 -100 000/00 RMK AO2 T01110089
03949KAQV AQV20190301134011103/01/19 13:40:31  5-MIN KAQV 011940Z AUTO 00000KT 10SM OVC007 11/09 A3005 260 86 -100 000/00 RMK AO2 T01110089
03949KAQV AQV20190301134511103/01/19 13:45:31  5-MIN KAQV 011945Z AUTO 00000KT 10SM OVC007 11/09 A3005 260 86 -100 000/00 RMK AO2 T01110089
03949KAQV AQV20190301135012203/01/19 13:50:31  5-MIN KAQV 011950Z AUTO VRB03KT 10SM BKN007 OVC012 12/09 A3004 260 86 0 VRB/03 RMK AO2 SLP175 T01170094
03949KAQV AQV20190301135512203/01/19 13:55:31  5-MIN KAQV 011955Z AUTO 05005KT 10SM BKN007 OVC012 12/09 A3004 260 83 0 040/05 RMK AO2 SLP175 T01170089
03949KAQV AQV20190301140012703/01/19 14:00:31  5-MIN KAQV 012000Z AUTO 00000KT 10SM BKN007 OVC012 12/09 A3004 260 86 0 000/00 RMK AO2 CIG 007V011 T01170094
03949KAQV AQV20190301140512003/01/19 14:05:31  5-MIN KAQV 012005Z AUTO 00000KT 10SM OVC010 12/09 A3004 270 86 0 000/00 RMK AO2 CIG 007V012 T01170094
03949KAQV AQV20190301141012003/01/19 14:10:31  5-MIN KAQV 012010Z AUTO 00000KT 10SM OVC010 12/09 A3004 270 83 0 000/00 RMK AO2 CIG 007V012 T01220094
03949KAQV AQV20190301141509803/01/19 14:15:31  5-MIN KAQV 012015Z AUTO 10SM OVC010 12/09 A3003 270 83 0 M /M RMK AO2 T01220094
03949KAQV AQV20190301142012203/01/19 14:20:31  5-MIN KAQV 012020Z AUTO 00000KT 10SM OVC010 12/09 A3003 280 83 100 000/00 RMK AO2 CIG 007V012 T01220094
03949KAQV AQV20190301142512003/01/19 14:25:31  5-MIN KAQV 012025Z AUTO VRB04KT 10SM OVC010 12/09 A3003 270 83 0 VRB/04 RMK AO2 CIG 007V012 T01220094
03949KAQV AQV20190301143012003/01/19 14:30:31  5-MIN KAQV 012030Z AUTO VRB03KT 10SM OVC010 12/09 A3003 270 83 0 VRB/03 RMK AO2 CIG 008V012 T01220094
03949KAQV AQV20190301143510803/01/19 14:35:31  5-MIN KAQV 012035Z AUTO VRB04KT 10SM OVC010 12/10 A3003 270 86 0 VRB/04 RMK AO2 T01220100
03949KAQV AQV20190301144012003/01/19 14:40:31  5-MIN KAQV 012040Z AUTO 00000KT 10SM OVC010 12/10 A3003 270 86 0 000/00 RMK AO2 CIG 008V012 T01220100
03949KAQV AQV20190301144512203/01/19 14:45:31  5-MIN KAQV 012045Z AUTO 00000KT 10SM OVC010 13/10 A3003 280 83 100 000/00 RMK AO2 CIG 008V012 T01280100
03949KAQV AQV20190301145012303/01/19 14:50:31  5-MIN KAQV 012050Z AUTO VRB03KT 10SM OVC010 13/10 A3003 280 83 100 VRB/03 RMK AO2 SLP168 T01280100 50004
03949KAQV AQV20190301145512303/01/19 14:55:31  5-MIN KAQV 012055Z AUTO 04006KT 10SM OVC009 13/10 A3002 280 80 200 030/06 RMK AO2 SLP167 T01330100 50004
03949KAQV AQV20190301150011003/01/19 15:00:31  5-MIN KAQV 012100Z AUTO VRB04KT 10SM OVC009 13/10 A3002 280 80 200 VRB/04 RMK AO2 T01330100
03949KAQV AQV20190301150510003/01/19 15:05:31  5-MIN KAQV 012105Z AUTO 10SM OVC009 13/11 A3002 290 83 200 M /M RMK AO2 T01330106
03949KAQV AQV20190301151011003/01/19 15:10:31  5-MIN KAQV 012110Z AUTO 05006KT 10SM OVC010 13/11 A3002 280 83 200 040/06 RMK AO2 T01330106
03949KAQV AQV20190301151510003/01/19 15:15:31  5-MIN KAQV 012115Z AUTO 10SM OVC010 13/10 A3002 280 80 200 M /M RMK AO2 T01330100
03949KAQV AQV20190301152011003/01/19 15:20:31  5-MIN KAQV 012120Z AUTO 00000KT 10SM OVC010 13/11 A3002 280 83 200 000/00 RMK AO2 T01330106
03949KAQV AQV20190301152511003/01/19 15:25:31  5-MIN KAQV 012125Z AUTO 06005KT 10SM OVC010 13/11 A3002 290 83 200 060/05 RMK AO2 T01330106
03949KAQV AQV20190301153010003/01/19 15:30:31  5-MIN KAQV 012130Z AUTO 10SM OVC010 13/11 A3001 290 83 200 M /M RMK AO2 T01330106
03949KAQV AQV20190301153511003/01/19 15:35:31  5-MIN KAQV 012135Z AUTO 03006KT 10SM OVC010 13/11 A3001 290 83 200 030/06 RMK AO2 T01330106
03949KAQV AQV20190301154011003/01/19 15:40:31  5-MIN KAQV 012140Z AUTO VRB03KT 10SM OVC010 14/11 A3001 300 80 300 VRB/03 RMK AO2 T01390106
03949KAQV AQV20190301154511003/01/19 15:45:31  5-MIN KAQV 012145Z AUTO VRB04KT 10SM OVC009 14/11 A3000 300 80 300 VRB/04 RMK AO2 T01390106
03949KAQV AQV20190301155011403/01/19 15:50:31  5-MIN KAQV 012150Z AUTO VRB03KT 10SM BKN009 OVC014 14/11 A2999 310 80 300 VRB/03 RMK AO2 PRESFR
03949KAQV AQV20190301155512103/01/19 15:55:31  5-MIN KAQV 012155Z AUTO 10SM BKN009 BKN014 OVC020 14/11 A2999 310 80 300 M /M RMK AO2 SLP156 T01390106
03949KAQV AQV20190301160012403/01/19 16:00:31  5-MIN KAQV 012200Z AUTO 00000KT 10SM BKN009 BKN014 OVC020 14/11 A3000 310 83 300 000/00 RMK AO2 T01390111
03949KAQV AQV20190301160512403/01/19 16:05:31  5-MIN KAQV 012205Z AUTO 13003KT 10SM BKN009 BKN014 OVC020 13/11 A3000 300 83 200 120/03 RMK AO2 T01330106
03949KAQV AQV20190301161012403/01/19 16:10:31  5-MIN KAQV 012210Z AUTO 00000KT 10SM BKN009 BKN014 OVC019 13/11 A3000 300 83 200 000/00 RMK AO2 T01330106
03949KAQV AQV20190301161511403/01/19 16:15:31  5-MIN KAQV 012215Z AUTO 10SM BKN009 BKN014 OVC019 14/11 A3000 300 83 300 M /M RMK AO2 T01390111
03949KAQV AQV20190301162011703/01/19 16:20:31  5-MIN KAQV 012220Z AUTO 00000KT 10SM BKN009 OVC019 13/11 A3001 300 86 200 000/00 RMK AO2 T01330111
03949KAQV AQV20190301162511003/01/19 16:25:31  5-MIN KAQV 012225Z AUTO 00000KT 10SM OVC009 13/11 A3001 290 86 200 000/00 RMK AO2 T01330111
03949KAQV AQV20190301163011003/01/19 16:30:31  5-MIN KAQV 012230Z AUTO 00000KT 10SM OVC009 13/11 A3001 300 86 200 000/00 RMK AO2 T01330111
03949KAQV AQV20190301163511003/01/19 16:35:31  5-MIN KAQV 012235Z AUTO 00000KT 10SM OVC009 14/11 A3001 300 83 300 000/00 RMK AO2 T01390111
03949KAQV AQV20190301164011003/01/19 16:40:31  5-MIN KAQV 012240Z AUTO 00000KT 10SM OVC009 14/11 A3000 300 83 300 000/00 RMK AO2 T01390111
03949KAQV AQV20190301164511003/01/19 16:45:31  5-MIN KAQV 012245Z AUTO 00000KT 10SM OVC009 14/11 A3000 310 83 300 000/00 RMK AO2 T01390111
03949KAQV AQV20190301165011703/01/19 16:50:31  5-MIN KAQV 012250Z AUTO 00000KT 10SM OVC009 14/11 A2999 310 83 300 000/00 RMK AO2 SLP157 T01390111
03949KAQV AQV20190301165511703/01/19 16:55:31  5-MIN KAQV 012255Z AUTO VRB03KT 10SM OVC009 13/11 A3000 310 86 200 VRB/03 RMK AO2 SLP158 T01330111
03949KAQV AQV20190301170011003/01/19 17:00:31  5-MIN KAQV 012300Z AUTO 00000KT 10SM OVC010 13/11 A2999 310 86 200 000/00 RMK AO2 T01330111
03949KAQV AQV20190301170511003/01/19 17:05:31  5-MIN KAQV 012305Z AUTO 00000KT 10SM OVC010 13/11 A3000 310 86 200 000/00 RMK AO2 T01330111
03949KAQV AQV20190301171011703/01/19 17:10:31  5-MIN KAQV 012310Z AUTO 16003KT 10SM BKN010 OVC019 13/11 A3000 310 86 200 150/03 RMK AO2 T01330111
03949KAQV AQV20190301171511703/01/19 17:15:31  5-MIN KAQV 012315Z AUTO 13003KT 10SM BKN010 OVC019 13/11 A2999 310 86 200 120/03 RMK AO2 T01330111
03949KAQV AQV20190301172011703/01/19 17:20:31  5-MIN KAQV 012320Z AUTO 00000KT 10SM BKN009 OVC019 14/12 A2999 310 86 300 000/00 RMK AO2 T01390117
03949KAQV AQV20190301172511703/01/19 17:25:31  5-MIN KAQV 012325Z AUTO 17003KT 10SM SCT009 OVC020 14/12 A3000 310 86 300 170/03 RMK AO2 T01390117
03949KAQV AQV20190301173011703/01/19 17:30:31  5-MIN KAQV 012330Z AUTO VRB03KT 10SM BKN009 OVC020 13/12 A2999 310 89 200 VRB/03 RMK AO2 T01330117
03949KAQV AQV20190301173511703/01/19 17:35:31  5-MIN KAQV 012335Z AUTO 00000KT 10SM BKN007 OVC020 13/12 A2999 310 89 200 000/00 RMK AO2 T01330117
03949KAQV AQV20190301174011703/01/19 17:40:31  5-MIN KAQV 012340Z AUTO 00000KT 10SM BKN007 OVC020 13/12 A2999 310 89 200 000/00 RMK AO2 T01330117
03949KAQV AQV20190301174511703/01/19 17:45:31  5-MIN KAQV 012345Z AUTO 00000KT 10SM BKN007 OVC020 13/12 A2999 310 89 200 000/00 RMK AO2 T01330117
03949KAQV AQV20190301175013503/01/19 17:50:31  5-MIN KAQV 012350Z AUTO 00000KT 10SM OVC007 13/12 A2999 310 89 200 000/00 RMK AO2 SLP156 T01330117 10139 20100 58014
03949KAQV AQV20190301175513503/01/19 17:55:31  5-MIN KAQV 012355Z AUTO 00000KT 10SM OVC007 13/12 A2999 310 89 200 000/00 RMK AO2 SLP156 T01330117 10139 20100 58014
03949KAQV AQV20190301180011003/01/19 18:00:31  5-MIN KAQV 020000Z AUTO 00000KT 10SM OVC007 13/12 A2999 310 89 200 000/00 RMK AO2 T01330117
03949KAQV AQV20190301180511003/01/19 18:05:31  5-MIN KAQV 020005Z AUTO 00000KT 10SM OVC007 13/12 A2999 310 89 200 000/00 RMK AO2 T01330117
03949KAQV AQV20190301181011003/01/19 18:10:31  5-MIN KAQV 020010Z AUTO 00000KT 10SM OVC007 13/12 A2999 310 89 200 000/00 RMK AO2 T01330117
03949KAQV AQV20190301181511003/01/19 18:15:31  5-MIN KAQV 020015Z AUTO VRB03KT 10SM OVC007 13/12 A2999 310 89 200 VRB/03 RMK AO2 T01330117
03949KAQV AQV20190301182011003/01/19 18:20:31  5-MIN KAQV 020020Z AUTO 00000KT 10SM OVC007 13/12 A2999 310 89 200 000/00 RMK AO2 T01330117
03949KAQV AQV20190301182511003/01/19 18:25:31  5-MIN KAQV 020025Z AUTO 00000KT 10SM OVC007 13/12 A2999 310 89 200 000/00 RMK AO2 T01330117
03949KAQV AQV20190301183011003/01/19 18:30:31  5-MIN KAQV 020030Z AUTO VRB03KT 10SM OVC007 13/12 A3000 310 89 200 VRB/03 RMK AO2 T01330117
03949KAQV AQV20190301183511003/01/19 18:35:31  5-MIN KAQV 020035Z AUTO 00000KT 10SM OVC007 13/12 A3000 300 89 200 000/00 RMK AO2 T01330117
03949KAQV AQV20190301184011003/01/19 18:40:31  5-MIN KAQV 020040Z AUTO 00000KT 10SM OVC007 13/12 A3000 300 89 200 000/00 RMK AO2 T01330117
03949KAQV AQV20190301184511003/01/19 18:45:31  5-MIN KAQV 020045Z AUTO VRB03KT 10SM OVC007 13/12 A3001 300 89 200 VRB/03 RMK AO2 T01330117
03949KAQV AQV20190301185011703/01/19 18:50:31  5-MIN KAQV 020050Z AUTO 17003KT 10SM OVC007 13/12 A3001 290 89 200 160/03 RMK AO2 SLP162 T01330117
03949KAQV AQV20190301185511703/01/19 18:55:31  5-MIN KAQV 020055Z AUTO 00000KT 10SM OVC007 13/12 A3001 290 89 200 000/00 RMK AO2 SLP163 T01330117
03949KAQV AQV20190301190011003/01/19 19:00:31  5-MIN KAQV 020100Z AUTO 00000KT 10SM OVC007 13/12 A3001 300 89 200 000/00 RMK AO2 T01330117
03949KAQV AQV20190301190511003/01/19 19:05:31  5-MIN KAQV 020105Z AUTO VRB03KT 10SM OVC007 13/12 A3001 300 93 200 VRB/03 RMK AO2 T01330122
03949KAQV AQV20190301191011003/01/19 19:10:31  5-MIN KAQV 020110Z AUTO 00000KT 10SM OVC007 13/12 A3001 290 93 200 000/00 RMK AO2 T01330122
03949KAQV AQV20190301191511003/01/19 19:15:31  5-MIN KAQV 020115Z AUTO 00000KT 10SM OVC006 13/12 A3001 290 93 200 000/00 RMK AO2 T01330122
03949KAQV AQV20190301192011003/01/19 19:20:31  5-MIN KAQV 020120Z AUTO 00000KT 10SM OVC006 13/12 A3001 290 93 200 000/00 RMK AO2 T01330122
03949KAQV AQV20190301192511003/01/19 19:25:31  5-MIN KAQV 020125Z AUTO 00000KT 10SM OVC006 13/12 A3001 290 93 200 000/00 RMK AO2 T01330122
03949KAQV AQV20190301193011003/01/19 19:30:31  5-MIN KAQV 020130Z AUTO 00000KT 10SM OVC006 13/12 A3001 290 93 200 000/00 RMK AO2 T01330122
03949KAQV AQV20190301193511003/01/19 19:35:31  5-MIN KAQV 020135Z AUTO 00000KT 10SM OVC005 14/12 A3002 280 90 300 000/00 RMK AO2 T01390122
03949KAQV AQV20190301194011003/01/19 19:40:31  5-MIN KAQV 020140Z AUTO 00000KT 10SM OVC005 14/12 A3003 280 90 300 000/00 RMK AO2 T01390122
03949KAQV AQV20190301194521803/01/19 19:45:31  5-MIN KAQV 020145Z AUTO 00000KT 10SM OVC004 14/12 A3003 280 90 300 000/00 RMK AO2 T0139012203/01/19 19:50:31  5-MI15Z AUTO 00000KT 4SM BR SCT009 OVC023 13/13 A3002 280 96 200 000/00 RMK AO2 T01330128
03949KAQV AQV20190301212012603/01/19 21:20:31  5-MIN KAQV 020320Z AUTO 00000KT 4SM BR FEW003 SCT009 OVC023 13/13 A3002 280 96 200 000/00 RMK AO2 T01330128
03949KAQV AQV20190301212512603/01/19 21:25:31  5-MIN KAQV 020325Z AUTO 00000KT 4SM BR FEW002 FEW009 BKN023 13/12 A3001 290 93 200 000/00 RMK AO2 T01330122
03949KAQV AQV20190301213011903/01/19 21:30:31  5-MIN KAQV 020330Z AUTO 00000KT 4SM BR FEW002 BKN023 13/12 A3001 290 93 200 000/00 RMK AO2 T01330122
03949KAQV AQV20190301213016603/01/19 21:30:31  5-MIN KAQV 020330Z AUTO 00000KT 4SM BR FEW002 BKN023 13/12 A3001 290 93 200 000/00 RMK AO2 T0133012213/13 A3002 280 96 200 000/00 RMK AO2 T01330128
03949KAQV AQV20190301213511903/01/19 21:35:31  5-MIN KAQV 020335Z AUTO 00000KT 3SM BR FEW002 SCT024 13/12 A3001 290 96 100 000/00 RMK AO2 T01280122
03949KAQV AQV20190301214011903/01/19 21:40:31  5-MIN KAQV 020340Z AUTO 00000KT 3SM BR FEW006 FEW024 13/12 A3001 290 96 100 000/00 RMK AO2 T01280122
03949KAQV AQV20190301214013003/01/19 21:40:31  5-MIN KAQV 020340Z AUTO 00000KT 3SM BR FEW006 FEW024 13/12 A3001 290 96 100 000/00 RMK AO2 T0128012203/01330128
03949KAQV AQV20190301214511203/01/19 21:45:31  5-MIN KAQV 020345Z AUTO 00000KT 4SM BR FEW024 13/12 A3002 290 96 100 000/00 RMK AO2 T01280122
03949KAQV AQV20190301215011603/01/19 21:50:31  5-MIN KAQV 020350Z AUTO 00000KT 4SM BR CLR 13/12 A3001 290 96 100 000/00 RMK AO2 SLP164 T01280122
03949KAQV AQV20190301215014603/01/19 21:50:31  5-MIN KAQV 020350Z AUTO 00000KT 4SM BR CLR 13/12 A3001 290 96 100 000/00 RMK AO2 3/12 A3001 290 93 200 000/00 RMK AO2 T01330122
03949KAQV AQV20190301215510603/01/19 21:55:31  5-MIN KAQV 020355Z AUTO 3SM BR CLR 13/12 A3002 290 96 100 M /M RMK AO2 SLP165 T01280122
03949KAQV AQV20190301220010903/01/19 22:00:31  5-MIN KAQV 020400Z AUTO 05003KT 3SM BR CLR 13/12 A3002 290 96 100 050/03 RMK AO2 T01280122
03949KAQV AQV20190301220016203/01/19 22:00:31  5-MIN KAQV 020400Z AUTO 05003KT 3SM BR CLR 13MIN KAQV 020340Z AUTO 00000KT 3SM BR FEW006 FEW024 13/12 A3001 290 96 100 000/00 RMK AO2 T01280122
03949KAQV AQV20190301220510203/01/19 22:05:31  5-MIN KAQV 020405Z AUTO 3SM BR FEW050 13/12 A3002 280 96 100 M /M RMK AO2 T01280122
03949KAQV AQV20190301221010203/01/19 22:10:31  5-MIN KAQV 020410Z AUTO 3SM BR SCT050 13/12 A3002 280 96 100 M /M RMK AO2 T01280122
03949KAQV AQV20190301221511203/01/19 22:15:31  5-MIN KAQV 020415Z AUTO 00000KT 3SM BR BKN050 13/12 A3002 280 96 100 000/00 RMK AO2 T01280122
03949KAQV AQV20190301222010903/01/19 22:20:31  5-MIN KAQV 020420Z AUTO 3SM BR FEW043 BKN050 13/12 A3003 270 96 100 M /M RMK AO2 T01280122
03949KAQV AQV20190301222511903/01/19 22:25:31  5-MIN KAQV 020425Z AUTO VRB04KT 4SM BR SCT040 BKN050 13/12 A3003 270 96 100 VRB/04 RMK AO2 T01280122
03949KAQV AQV20190301223010903/01/19 22:30:31  5-MIN KAQV 020430Z AUTO 5SM BR BKN040 OVC050 13/12 A3004 270 93 200 M /M RMK AO2 T01330122
03949KAQV AQV20190301223512603/01/19 22:35:31  5-MIN KAQV 020435Z AUTO 33005KT 5SM BR FEW003 BKN040 OVC050 13/12 A3004 260 96 100 330/05 RMK AO2 T01280122
03949KAQV AQV20190301224012603/01/19 22:40:31  5-MIN KAQV 020440Z AUTO VRB05KT 5SM BR SCT003 BKN040 OVC050 13/12 A3005 260 93 200 VRB/05 RMK AO2 T01330122
03949KAQV AQV20190301224512603/01/19 22:45:31  5-MIN KAQV 020445Z AUTO VRB05KT 5SM BR BKN003 BKN030 OVC040 13/12 A3005 250 93 200 VRB/05 RMK AO2 T01330122
03949KAQV AQV20190301225011603/01/19 22:50:31  5-MIN KAQV 020450Z AUTO 35004KT 5SM BR BKN002 BKN030 OVC040 13/13 A3005 250 96 200 350/04 RMK AO2
03949KAQV AQV20190301225512603/01/19 22:55:31  5-MIN KAQV 020455Z AUTO 36004KT 4SM BR BKN002 OVC030 13/13 A3005 260 96 200 360/04 RMK AO2 SLP175 T01330128
03949KAQV AQV20190301230010203/01/19 23:00:31  5-MIN KAQV 020500Z AUTO 4SM BR OVC002 13/12 A3005 250 93 200 M /M RMK AO2 T01330122
03949KAQV AQV20190301230511203/01/19 23:05:31  5-MIN KAQV 020505Z AUTO VRB04KT 4SM BR OVC002 13/12 A3005 250 96 100 VRB/04 RMK AO2 T01280122
03949KAQV AQV20190301231011103/01/19 23:10:31  5-MIN KAQV 020510Z AUTO VRB06KT 3SM BR OVC002 12/12 A3006 250 100 0 VRB/06 RMK AO2 T01220122
03949KAQV AQV20190301231511403/01/19 23:15:31  5-MIN KAQV 020515Z AUTO 36004KT 2 1/2SM BR OVC002 12/12 A3006 250 96 0 360/04 RMK AO2 T01220117
03949KAQV AQV20190301232011003/01/19 23:20:31  5-MIN KAQV 020520Z AUTO 36005KT 2SM BR OVC002 12/12 A3006 250 96 0 350/05 RMK AO2 T01220117
03949KAQV AQV20190301232511403/01/19 23:25:31  5-MIN KAQV 020525Z AUTO 35004KT 1 3/4SM BR OVC002 12/12 A3006 250 96 0 350/04 RMK AO2 T01220117
03949KAQV AQV20190301233011403/01/19 23:30:31  5-MIN KAQV 020530Z AUTO 35007KT 1 1/4SM BR OVC002 12/11 A3007 240 96 0 340/07 RMK AO2 T01170111
03949KAQV AQV20190301233511003/01/19 23:35:31  5-MIN KAQV 020535Z AUTO 35006KT 1SM BR OVC002 12/11 A3007 240 96 0 340/06 RMK AO2 T01170111
03949KAQV AQV20190301234011003/01/19 23:40:31  5-MIN KAQV 020540Z AUTO VRB06KT 1SM BR OVC002 12/11 A3007 230 96 0 VRB/06 RMK AO2 T01170111
03949KAQV AQV20190301234511003/01/19 23:45:31  5-MIN KAQV 020545Z AUTO 36005KT 1SM BR OVC002 12/11 A3007 240 96 0 350/05 RMK AO2 T01170111
03949KAQV AQV20190301235016103/01/19 23:50:31  5-MIN KAQV 020550Z AUTO 35007KT 320V030 1SM BR OVC002 12/11 A3007 240 96 0 350/07 320V030 RMK AO2 SLP184 T01170111 10139 20117 401390061 50014
03949KAQV AQV20190301235514903/01/19 23:55:31  5-MIN KAQV 020555Z AUTO 01006KT 1 1/4SM BR OVC002 12/11 A3008 230 96 0 360/06 RMK AO2 SLP185 T01170111 10139 20117 401390061 50014
03949KAQV AQV20190302000011403/02/19 00:00:31  5-MIN KAQV 020600Z AUTO 01006KT 1 1/2SM BR OVC002 12/11 A3007 240 96 0 360/06 RMK AO2 T01170111
03949KAQV AQV20190302000511403/02/19 00:05:31  5-MIN KAQV 020605Z AUTO 36004KT 1 1/2SM BR OVC002 12/11 A3007 240 96 0 360/04 RMK AO2 T01170111
03949KAQV AQV20190302001011403/02/19 00:10:31  5-MIN KAQV 020610Z AUTO 36005KT 1 3/4SM BR OVC002 12/11 A3007 240 96 0 350/05 RMK AO2 T01170111
03949KAQV AQV20190302001511003/02/19 00:15:31  5-MIN KAQV 020615Z AUTO 01004KT 2SM BR OVC002 12/11 A3007 240 96 0 360/04 RMK AO2 T01170111
03949KAQV AQV20190302002011003/02/19 00:20:31  5-MIN KAQV 020620Z AUTO 36004KT 2SM BR OVC002 12/11 A3007 240 96 0 360/04 RMK AO2 T01170111
03949KAQV AQV20190302002511003/02/19 00:25:31  5-MIN KAQV 020625Z AUTO 01004KT 2SM BR OVC002 12/11 A3006 240 96 0 360/04 RMK AO2 T01170111
03949KAQV AQV20190302003011403/02/19 00:30:31  5-MIN KAQV 020630Z AUTO 01004KT 2 1/2SM BR OVC002 12/11 A3006 240 96 0 360/04 RMK AO2 T01170111
03949KAQV AQV20190302003511003/02/19 00:35:31  5-MIN KAQV 020635Z AUTO 01004KT 2SM BR OVC002 12/11 A3006 240 96 0 010/04 RMK AO2 T01170111
03949KAQV AQV20190302004011003/02/19 00:40:31  5-MIN KAQV 020640Z AUTO 35003KT 2SM BR OVC002 12/11 A3006 240 96 0 350/03 RMK AO2 T01170111
03949KAQV AQV20190302004511003/02/19 00:45:31  5-MIN KAQV 020645Z AUTO 01003KT 2SM BR OVC002 12/11 A3007 240 96 0 010/03 RMK AO2 T01170111
03949KAQV AQV20190302005012103/02/19 00:50:31  5-MIN KAQV 020650Z AUTO 35004KT 2 1/2SM BR OVC002 12/11 A3007 240 96 0 350/04 RMK AO2 SLP184 T01170111
03949KAQV AQV20190302005512103/02/19 00:55:31  5-MIN KAQV 020655Z AUTO 36005KT 2 1/2SM BR OVC002 12/11 A3007 240 96 0 360/05 RMK AO2 SLP183 T01170111
03949KAQV AQV20190302010011403/02/19 01:00:31  5-MIN KAQV 020700Z AUTO 36004KT 2 1/2SM BR OVC002 12/11 A3007 240 96 0 360/04 RMK AO2 T01170111
03949KAQV AQV20190302010511003/02/19 01:05:31  5-MIN KAQV 020705Z AUTO 01005KT 3SM BR OVC002 12/11 A3007 240 96 0 360/05 RMK AO2 T01170111
03949KAQV AQV20190302011011003/02/19 01:10:31  5-MIN KAQV 020710Z AUTO 02004KT 3SM BR OVC002 12/11 A3007 240 96 0 010/04 RMK AO2 T01170111
03949KAQV AQV20190302011510003/02/19 01:15:31  5-MIN KAQV 020715Z AUTO 4SM BR OVC002 12/11 A3007 240 96 0 M /M RMK AO2 T01170111
03949KAQV AQV20190302012011003/02/19 01:20:31  5-MIN KAQV 020720Z AUTO VRB04KT 4SM BR OVC002 12/11 A3007 240 96 0 VRB/04 RMK AO2 T01170111
03949KAQV AQV20190302012511003/02/19 01:25:31  5-MIN KAQV 020725Z AUTO VRB05KT 4SM BR OVC002 12/11 A3007 230 96 0 VRB/05 RMK AO2 T01170111
03949KAQV AQV20190302013011003/02/19 01:30:31  5-MIN KAQV 020730Z AUTO 00000KT 5SM BR OVC002 12/11 A3007 240 96 0 000/00 RMK AO2 T01170111
03949KAQV AQV20190302013511003/02/19 01:35:31  5-MIN KAQV 020735Z AUTO 00000KT 5SM BR OVC002 12/11 A3007 230 96 0 000/00 RMK AO2 T01170111
03949KAQV AQV20190302014011003/02/19 01:40:31  5-MIN KAQV 020740Z AUTO 36003KT 5SM BR OVC002 12/11 A3008 230 96 0 360/03 RMK AO2 T01170111
03949KAQV AQV20190302014511003/02/19 01:45:31  5-MIN KAQV 020745Z AUTO 36003KT 6SM BR OVC002 12/11 A3008 230 93 0 360/03 RMK AO2 T01170106
03949KAQV AQV20190302015011703/02/19 01:50:31  5-MIN KAQV 020750Z AUTO 00000KT 6SM BR OVC002 12/11 A3008 230 96 0 000/00 RMK AO2 SLP185 T01170111
03949KAQV AQV20190302015511703/02/19 01:55:31  5-MIN KAQV 020755Z AUTO 00000KT 6SM BR OVC003 12/11 A3008 230 96 0 000/00 RMK AO2 SLP185 T01170111
03949KAQV AQV20190302020011003/02/19 02:00:31  5-MIN KAQV 020800Z AUTO 00000KT 6SM BR OVC003 12/11 A3008 230 96 0 000/00 RMK AO2 T01170111
03949KAQV AQV20190302020511003/02/19 02:05:31  5-MIN KAQV 020805Z AUTO 00000KT 5SM BR OVC003 12/11 A3007 240 96 0 000/00 RMK AO2 T01170111
03949KAQV AQV20190302021011003/02/19 02:10:31  5-MIN KAQV 020810Z AUTO 01004KT 5SM BR OVC002 12/11 A3007 240 96 0 360/04 RMK AO2 T01170111
03949KAQV AQV20190302021510003/02/19 02:15:31  5-MIN KAQV 020815Z AUTO 4SM BR OVC002 12/11 A3006 240 96 0 M /M RMK AO2 T01170111
03949KAQV AQV20190302022011003/02/19 02:20:31  5-MIN KAQV 020820Z AUTO 00000KT 3SM BR OVC002 12/11 A3006 240 96 0 000/00 RMK AO2 T01170111
03949KAQV AQV20190302022511403/02/19 02:25:31  5-MIN KAQV 020825Z AUTO 01003KT 2 1/2SM BR OVC002 12/11 A3006 250 96 0 360/03 RMK AO2 T01170111
03949KAQV AQV20190302023011403/02/19 02:30:31  5-MIN KAQV 020830Z AUTO 00000KT 2 1/2SM BR OVC002 12/11 A3006 250 96 0 000/00 RMK AO2 T01170111
03949KAQV AQV20190302023511003/02/19 02:35:31  5-MIN KAQV 020835Z AUTO 36003KT 3SM BR OVC002 12/11 A3006 250 96 0 360/03 RMK AO2 T01170111
03949KAQV AQV20190302024011003/02/19 02:40:31  5-MIN KAQV 020840Z AUTO 36003KT 3SM BR OVC002 12/11 A3006 240 96 0 350/03 RMK AO2 T01170111
03949KAQV AQV20190302024511403/02/19 02:45:31  5-MIN KAQV 020845Z AUTO 36004KT 2 1/2SM BR OVC002 12/11 A3006 240 96 0 360/04 RMK AO2 T01170111
03949KAQV AQV20190302025012703/02/19 02:50:31  5-MIN KAQV 020850Z AUTO 36003KT 2 1/2SM BR OVC002 12/11 A3006 240 96 0 350/03 RMK AO2 SLP181 T01170111 53014
03949KAQV AQV20190302025512303/02/19 02:55:31  5-MIN KAQV 020855Z AUTO 36003KT 2SM BR OVC002 12/11 A3006 250 96 0 350/03 RMK AO2 SLP179 T01170111 53014
03949KAQV AQV20190302030011403/02/19 03:00:31  5-MIN KAQV 020900Z AUTO 36003KT 1 3/4SM BR OVC002 12/11 A3005 250 96 0 350/03 RMK AO2 T01170111
03949KAQV AQV20190302030511403/02/19 03:05:31  5-MIN KAQV 020905Z AUTO 35004KT 1 3/4SM BR OVC002 12/11 A3006 250 96 0 350/04 RMK AO2 T01170111
03949KAQV AQV20190302031011003/02/19 03:10:31  5-MIN KAQV 020910Z AUTO 36003KT 2SM BR OVC002 12/11 A3006 250 96 0 350/03 RMK AO2 T01170111
03949KAQV AQV20190302031511403/02/19 03:15:31  5-MIN KAQV 020915Z AUTO 35003KT 1 3/4SM BR OVC002 12/11 A3006 250 96 0 350/03 RMK AO2 T01170111
03949KAQV AQV20190302032011403/02/19 03:20:31  5-MIN KAQV 020920Z AUTO 36004KT 1 3/4SM BR OVC002 12/11 A3006 250 96 0 350/04 RMK AO2 T01170111
03949KAQV AQV20190302032511403/02/19 03:25:31  5-MIN KAQV 020925Z AUTO 36003KT 1 1/4SM BR OVC002 12/11 A3006 250 93 0 350/03 RMK AO2 T01170106
03949KAQV AQV20190302033011403/02/19 03:30:31  5-MIN KAQV 020930Z AUTO 00000KT 1 1/4SM BR OVC002 12/11 A3006 250 96 0 000/00 RMK AO2 T01170111
03949KAQV AQV20190302033511403/02/19 03:35:31  5-MIN KAQV 020935Z AUTO 35004KT 1 1/4SM BR OVC002 12/11 A3006 250 96 0 340/04 RMK AO2 T01170111
03949KAQV AQV20190302034011403/02/19 03:40:31  5-MIN KAQV 020940Z AUTO 00000KT 1 1/4SM BR OVC002 12/11 A3006 250 96 0 000/00 RMK AO2 T01170111
03949KAQV AQV20190302034511003/02/19 03:45:31  5-MIN KAQV 020945Z AUTO 35003KT 1SM BR OVC002 12/11 A3006 250 96 0 350/03 RMK AO2 T01170111
03949KAQV AQV20190302035011603/02/19 03:50:31  5-MIN KAQV 020950Z AUTO 36004KT 1SM BR VV003 12/11 A3006 250 96 0 360/04 RMK AO2 SLP178 T01170111
03949KAQV AQV20190302035511603/02/19 03:55:31  5-MIN KAQV 020955Z AUTO 36003KT 1SM BR VV003 12/11 A3006 240 96 0 350/03 RMK AO2 SLP181 T01170111
03949KAQV AQV20190302040010903/02/19 04:00:31  5-MIN KAQV 021000Z AUTO 36004KT 1SM BR VV003 12/11 A3007 240 96 0 360/04 RMK AO2 T01170111
03949KAQV AQV20190302040510903/02/19 04:05:31  5-MIN KAQV 021005Z AUTO 01003KT 1SM BR VV003 12/11 A3006 240 96 0 360/03 RMK AO2 T01170111
03949KAQV AQV20190302041010903/02/19 04:10:31  5-MIN KAQV 021010Z AUTO 36004KT 1SM BR VV003 12/11 A3007 240 96 0 350/04 RMK AO2 T01170111
03949KAQV AQV20190302041511103/02/19 04:15:31  5-MIN KAQV 021015Z AUTO 01004KT 3/4SM BR VV003 12/11 A3006 250 93 0 360/04 RMK AO2 T01170106
03949KAQV AQV20190302042011103/02/19 04:20:31  5-MIN KAQV 021020Z AUTO 01005KT 3/4SM BR VV003 12/11 A3006 240 93 0 010/05 RMK AO2 T01170106
03949KAQV AQV20190302042511503/02/19 04:25:31  5-MIN KAQV 021025Z AUTO 00000KT 3/4SM BR VV003 11/11 A3006 240 100 -100 000/00 RMK AO2 T01110111
03949KAQV AQV20190302043011103/02/19 04:30:31  5-MIN KAQV 021030Z AUTO 01004KT 3/4SM BR VV003 12/11 A3007 240 96 0 010/04 RMK AO2 T01170111
03949KAQV AQV20190302043511003/02/19 04:35:31  5-MIN KAQV 021035Z AUTO 36003KT 1SM BR OVC002 12/11 A3007 240 96 0 360/03 RMK AO2 T01170111
03949KAQV AQV20190302044011403/02/19 04:40:31  5-MIN KAQV 021040Z AUTO 36003KT 1 1/4SM BR OVC002 12/11 A3007 240 96 0 350/03 RMK AO2 T01170111
03949KAQV AQV20190302044511403/02/19 04:45:31  5-MIN KAQV 021045Z AUTO 01003KT 1 1/4SM BR OVC002 12/11 A3007 240 96 0 360/03 RMK AO2 T01170111
03949KAQV AQV20190302045015403/02/19 04:50:31  5-MIN KAQV 021050Z AUTO 36004KT 1 1/4SM BR OVC002 12/11 A3007 240 96 0 360/04 RMK AO2 SLP182 T01170111200 89 0 VRB/03 RMK AO2 T01220106
03949KAQV AQV20190302111012903/02/19 11:10:31  5-MIN KAQV 021710Z AUTO 04007KT 350V070 5SM BR OVC003 12/10 A3012 190 89 -100 040/07 350V070 RMK AO2 T01170100
03949KAQV AQV20190302111511303/02/19 11:15:31  5-MIN KAQV 021715Z AUTO VRB05KT 6SM BR OVC003 12/10 A3012 190 89 -100 VRB/05 RMK AO2 T01170100
03949KAQV AQV20190302112011003/02/19 11:20:31  5-MIN KAQV 021720Z AUTO VRB03KT 8SM OVC004 12/11 A3012 190 93 -100 VRB/03 RMK AO2 T01170106
03949KAQV AQV20190302112511103/02/19 11:25:31  5-MIN KAQV 021725Z AUTO 04009KT 10SM OVC004 12/10 A3011 200 89 -100 040/09 RMK AO2 T01170100
03949KAQV AQV20190302113011103/02/19 11:30:31  5-MIN KAQV 021730Z AUTO 02006KT 10SM OVC004 12/10 A3012 200 89 -100 020/06 RMK AO2 T01170100
03949KAQV AQV20190302113510803/02/19 11:35:31  5-MIN KAQV 021735Z AUTO 03008KT 10SM OVC004 12/10 A3011 200 86 0 030/08 RMK AO2 T01220100
03949KAQV AQV20190302114010803/02/19 11:40:31  5-MIN KAQV 021740Z AUTO 02005KT 10SM OVC004 12/10 A3011 200 86 0 010/05 RMK AO2 T01220100
03949KAQV AQV20190302114510803/02/19 11:45:31  5-MIN KAQV 021745Z AUTO 36003KT 10SM OVC004 12/10 A3012 200 86 0 350/03 RMK AO2 T01220100
03949KAQV AQV20190302115009803/02/19 11:50:31  5-MIN KAQV 021750Z AUTO 05008KT 10SM OVC005 12/11 A3011 200 89 0 040/08 RMK AO2
03949KAQV AQV20190302115513303/02/19 11:55:31  5-MIN KAQV 021755Z AUTO 36004KT 10SM OVC005 12/11 A3011 200 89 0 360/04 RMK AO2 SLP197 T01220106 10122 20100 58002
03949KAQV AQV20190302120010803/02/19 12:00:31  5-MIN KAQV 021800Z AUTO VRB03KT 10SM OVC005 12/11 A3011 200 89 0 VRB/03 RMK AO2 T01220106
03949KAQV AQV20190302120510803/02/19 12:05:31  5-MIN KAQV 021805Z AUTO VRB05KT 10SM OVC005 12/10 A3011 200 86 0 VRB/05 RMK AO2 T01220100
03949KAQV AQV20190302121010803/02/19 12:10:31  5-MIN KAQV 021810Z AUTO 01004KT 10SM OVC005 12/10 A3011 200 86 0 010/04 RMK AO2 T01220100
03949KAQV AQV20190302121510803/02/19 12:15:31  5-MIN KAQV 021815Z AUTO VRB06KT 10SM OVC006 13/11 A3010 210 86 0 VRB/06 RMK AO2 T01280106
03949KAQV AQV20190302122010803/02/19 12:20:31  5-MIN KAQV 021820Z AUTO 03008KT 10SM OVC006 13/11 A3010 210 86 0 030/08 RMK AO2 T01280106
03949KAQV AQV20190302122510803/02/19 12:25:31  5-MIN KAQV 021825Z AUTO 04008KT 10SM OVC006 13/10 A3010 210 83 0 040/08 RMK AO2 T01280100
03949KAQV AQV20190302123010803/02/19 12:30:31  5-MIN KAQV 021830Z AUTO 36003KT 10SM OVC006 13/10 A3009 220 83 0 360/03 RMK AO2 T01280100
03949KAQV AQV20190302123510003/02/19 12:35:31  5-MIN KAQV 021835Z AUTO 10SM OVC006 13/11 A3009 220 83 100 M /M RMK AO2 T01330106
03949KAQV AQV20190302124012203/02/19 12:40:31  5-MIN KAQV 021840Z AUTO VRB03KT 10SM OVC007 13/11 A3009 220 83 100 VRB/03 RMK AO2 CIG 006V010 T01330106
03949KAQV AQV20190302124511003/02/19 12:45:31  5-MIN KAQV 021845Z AUTO VRB04KT 10SM OVC007 14/11 A3009 220 80 200 VRB/04 RMK AO2 T01390106
03949KAQV AQV20190302125010703/02/19 12:50:31  5-MIN KAQV 021850Z AUTO 10SM OVC007 14/11 A3008 230 80 200 M /M RMK AO2 SLP188 T01390106
03949KAQV AQV20190302125511703/02/19 12:55:31  5-MIN KAQV 021855Z AUTO VRB04KT 10SM OVC008 14/11 A3008 230 80 200 VRB/04 RMK AO2 SLP187 T01390106
03949KAQV AQV20190302130010003/02/19 13:00:31  5-MIN KAQV 021900Z AUTO 10SM OVC008 14/11 A3008 230 80 200 M /M RMK AO2 T01390106
03949KAQV AQV20190302130511003/02/19 13:05:31  5-MIN KAQV 021905Z AUTO 02004KT 10SM OVC009 14/11 A3008 230 80 200 010/04 RMK AO2 T01390106
03949KAQV AQV20190302131011003/02/19 13:10:31  5-MIN KAQV 021910Z AUTO 03006KT 10SM OVC009 14/11 A3008 230 80 200 020/06 RMK AO2 T01390106
03949KAQV AQV20190302131511003/02/19 13:15:31  5-MIN KAQV 021915Z AUTO 02007KT 10SM OVC009 14/11 A3008 230 77 300 020/07 RMK AO2 T01440106
03949KAQV AQV20190302132012603/02/19 13:20:31  5-MIN KAQV 021920Z AUTO 02007KT 340V050 10SM OVC009 14/11 A3007 230 77 300 010/07 340V050 RMK AO2 T01440106
03949KAQV AQV20190302132511003/02/19 13:25:31  5-MIN KAQV 021925Z AUTO 01005KT 10SM OVC009 14/11 A3007 240 77 300 360/05 RMK AO2 T01440106
03949KAQV AQV20190302133010003/02/19 13:30:31  5-MIN KAQV 021930Z AUTO 10SM OVC010 14/11 A3006 240 77 300 M /M RMK AO2 T01440106
03949KAQV AQV20190302133511003/02/19 13:35:31  5-MIN KAQV 021935Z AUTO 02006KT 10SM OVC010 14/11 A3006 250 77 300 020/06 RMK AO2 T01440106
03949KAQV AQV20190302134011003/02/19 13:40:31  5-MIN KAQV 021940Z AUTO 03008KT 10SM OVC010 14/11 A3006 250 80 300 030/08 RMK AO2 T01440111
03949KAQV AQV20190302134511003/02/19 13:45:31  5-MIN KAQV 021945Z AUTO 06007KT 10SM OVC010 14/11 A3006 250 80 300 050/07 RMK AO2 T01440111
03949KAQV AQV20190302135011703/02/19 13:50:31  5-MIN KAQV 021950Z AUTO VRB06KT 10SM OVC011 14/11 A3006 250 77 300 VRB/06 RMK AO2 SLP179 T01440106
03949KAQV AQV20190302135510703/02/19 13:55:31  5-MIN KAQV 021955Z AUTO 10SM OVC011 15/11 A3005 250 77 400 M /M RMK AO2 SLP177 T01500111
03949KAQV AQV20190302140011003/02/19 14:00:31  5-MIN KAQV 022000Z AUTO 01004KT 10SM OVC011 15/11 A3005 260 77 400 360/04 RMK AO2 T01500111
03949KAQV AQV20190302140512603/02/19 14:05:31  5-MIN KAQV 022005Z AUTO 04007KT 010V090 10SM OVC011 16/11 A3005 260 74 400 030/07 010V090 RMK AO2 T01560111
03949KAQV AQV20190302141011003/02/19 14:10:31  5-MIN KAQV 022010Z AUTO 04007KT 10SM OVC012 15/11 A3004 260 77 400 040/07 RMK AO2 T01500111
03949KAQV AQV20190302141511703/02/19 14:15:31  5-MIN KAQV 022015Z AUTO VRB04KT 10SM BKN012 OVC025 16/11 A3004 260 74 400 VRB/04 RMK AO2 T01560111
03949KAQV AQV20190302142011703/02/19 14:20:31  5-MIN KAQV 022020Z AUTO VRB03KT 10SM BKN012 OVC025 15/11 A3004 260 77 400 VRB/03 RMK AO2 T01500111
03949KAQV AQV20190302142511703/02/19 14:25:31  5-MIN KAQV 022025Z AUTO VRB05KT 10SM BKN012 OVC024 15/11 A3004 270 77 400 VRB/05 RMK AO2 T01500111
03949KAQV AQV20190302143011703/02/19 14:30:31  5-MIN KAQV 022030Z AUTO VRB06KT 10SM BKN013 OVC024 15/11 A3004 270 77 400 VRB/06 RMK AO2 T01500111
03949KAQV AQV20190302143511703/02/19 14:35:31  5-MIN KAQV 022035Z AUTO VRB06KT 10SM BKN013 OVC022 16/11 A3004 270 74 400 VRB/06 RMK AO2 T01560111
03949KAQV AQV20190302144011703/02/19 14:40:31  5-MIN KAQV 022040Z AUTO VRB05KT 10SM BKN013 OVC022 15/11 A3003 270 77 400 VRB/05 RMK AO2 T01500111
03949KAQV AQV20190302144511703/02/19 14:45:31  5-MIN KAQV 022045Z AUTO VRB03KT 10SM SCT013 OVC022 16/11 A3003 280 74 400 VRB/03 RMK AO2 T01560111
03949KAQV AQV20190302145013003/02/19 14:50:31  5-MIN KAQV 022050Z AUTO 10005KT 10SM FEW013 OVC024 16/11 A3003 280 74 400 100/05 RMK AO2 SLP167 T01560111 58002
03949KAQV AQV20190302145513003/02/19 14:55:31  5-MIN KAQV 022055Z AUTO 07005KT 10SM SCT013 OVC022 15/11 A3003 280 77 400 070/05 RMK AO2 SLP168 T01500111 58002
03949KAQV AQV20190302150011703/02/19 15:00:31  5-MIN KAQV 022100Z AUTO VRB04KT 10SM BKN015 OVC023 15/11 A3003 280 77 400 VRB/04 RMK AO2 T01500111
03949KAQV AQV20190302150512403/02/19 15:05:31  5-MIN KAQV 022105Z AUTO VRB05KT 10SM BKN015 BKN019 OVC023 16/11 A3003 280 74 400 VRB/05 RMK AO2 T01560111
03949KAQV AQV20190302151011703/02/19 15:10:31  5-MIN KAQV 022110Z AUTO VRB05KT 10SM SCT013 OVC019 16/11 A3002 280 74 500 VRB/05 RMK AO2 T01560111
03949KAQV AQV20190302151511703/02/19 15:15:31  5-MIN KAQV 022115Z AUTO 05006KT 10SM BKN015 OVC022 15/12 A3002 280 80 400 040/06 RMK AO2 T01500117
03949KAQV AQV20190302152011003/02/19 15:20:31  5-MIN KAQV 022120Z AUTO VRB05KT 10SM OVC015 16/12 A3002 280 77 500 VRB/05 RMK AO2 T01560117
03949KAQV AQV20190302152511703/02/19 15:25:31  5-MIN KAQV 022125Z AUTO VRB05KT 10SM BKN015 OVC024 16/11 A3002 280 74 500 VRB/05 RMK AO2 T01560111
03949KAQV AQV20190302153011703/02/19 15:30:31  5-MIN KAQV 022130Z AUTO VRB03KT 10SM BKN015 OVC024 16/12 A3002 290 77 500 VRB/03 RMK AO2 T01560117
03949KAQV AQV20190302153511703/02/19 15:35:31  5-MIN KAQV 022135Z AUTO VRB04KT 10SM SCT015 OVC024 16/12 A3001 290 77 500 VRB/04 RMK AO2 T01560117
03949KAQV AQV20190302154011703/02/19 15:40:31  5-MIN KAQV 022140Z AUTO VRB04KT 10SM SCT015 OVC026 16/12 A3001 290 77 500 VRB/04 RMK AO2 T01560117
03949KAQV AQV20190302154511703/02/19 15:45:31  5-MIN KAQV 022145Z AUTO VRB05KT 10SM SCT015 OVC026 16/12 A3001 290 77 500 VRB/05 RMK AO2 T01560117
03949KAQV AQV20190302155012403/02/19 15:50:31  5-MIN KAQV 022150Z AUTO VRB05KT 10SM SCT015 OVC026 16/12 A3001 300 75 500 VRB/05 RMK AO2 SLP160 T01610117
03949KAQV AQV20190302155512403/02/19 15:55:31  5-MIN KAQV 022155Z AUTO 06006KT 10SM BKN015 OVC026 16/12 A3001 290 75 500 060/06 RMK AO2 SLP161 T01610117
03949KAQV AQV20190302160011703/02/19 16:00:31  5-MIN KAQV 022200Z AUTO VRB06KT 10SM BKN013 OVC026 16/12 A3001 290 77 500 VRB/06 RMK AO2 T01560117
03949KAQV AQV20190302160511703/02/19 16:05:31  5-MIN KAQV 022205Z AUTO VRB03KT 10SM BKN013 OVC028 16/12 A3002 290 77 500 VRB/03 RMK AO2 T01560117
03949KAQV AQV20190302161011003/02/19 16:10:31  5-MIN KAQV 022210Z AUTO VRB04KT 10SM OVC013 16/12 A3002 290 77 500 VRB/04 RMK AO2 T01560117
03949KAQV AQV20190302161511003/02/19 16:15:31  5-MIN KAQV 022215Z AUTO VRB04KT 10SM OVC013 16/12 A3002 290 77 500 VRB/04 RMK AO2 T01560117
03949KAQV AQV20190302162011003/02/19 16:20:31  5-MIN KAQV 022220Z AUTO VRB04KT 10SM OVC013 15/12 A3002 290 80 400 VRB/04 RMK AO2 T01500117
03949KAQV AQV20190302162511003/02/19 16:25:31  5-MIN KAQV 022225Z AUTO VRB04KT 10SM OVC013 15/12 A3002 280 80 400 VRB/04 RMK AO2 T01500117
03949KAQV AQV20190302163011003/02/19 16:30:31  5-MIN KAQV 022230Z AUTO 05006KT 10SM OVC013 16/12 A3002 280 77 500 050/06 RMK AO2 T01560117
03949KAQV AQV20190302163512603/02/19 16:35:31  5-MIN KAQV 022235Z AUTO 05007KT 030V090 10SM OVC013 16/12 A3002 280 77 500 040/07 030V090 RMK AO2 T01560117
03949KAQV AQV20190302164011003/02/19 16:40:31  5-MIN KAQV 022240Z AUTO VRB04KT 10SM OVC013 16/12 A3002 280 77 500 VRB/04 RMK AO2 T01560117
03949KAQV AQV20190302164511003/02/19 16:45:31  5-MIN KAQV 022245Z AUTO 06005KT 10SM OVC013 16/12 A3002 280 77 500 050/05 RMK AO2 T01560117
03949KAQV AQV20190302165011703/02/19 16:50:31  5-MIN KAQV 022250Z AUTO 04006KT 10SM OVC013 16/12 A3002 280 77 500 040/06 RMK AO2 SLP166 T01560117
03949KAQV AQV20190302165511703/02/19 16:55:31  5-MIN KAQV 022255Z AUTO VRB03KT 10SM OVC013 16/12 A3002 280 77 500 VRB/03 RMK AO2 SLP167 T01560117
03949KAQV AQV20190302170010003/02/19 17:00:31  5-MIN KAQV 022300Z AUTO 10SM OVC013 16/12 A3002 280 80 500 M /M RMK AO2 T01560122
03949KAQV AQV20190302170511003/02/19 17:05:31  5-MIN KAQV 022305Z AUTO 05006KT 10SM OVC013 16/12 A3002 280 80 500 040/06 RMK AO2 T01560122
03949KAQV AQV20190302171011003/02/19 17:10:31  5-MIN KAQV 022310Z AUTO VRB04KT 10SM OVC014 15/12 A3003 280 83 400 VRB/04 RMK AO2 T01500122
03949KAQV AQV20190302171511003/02/19 17:15:31  5-MIN KAQV 022315Z AUTO VRB03KT 10SM OVC014 15/12 A3003 280 83 400 VRB/03 RMK AO2 T01500122
03949KAQV AQV20190302172010003/02/19 17:20:31  5-MIN KAQV 022320Z AUTO 10SM OVC014 15/12 A3003 280 83 400 M /M RMK AO2 T01500122
03949KAQV AQV20190302172511003/02/19 17:25:31  5-MIN KAQV 022325Z AUTO VRB03KT 10SM OVC014 15/12 A3003 280 83 400 VRB/03 RMK AO2 T01500122
03949KAQV AQV20190302173011003/02/19 17:30:31  5-MIN KAQV 022330Z AUTO 05005KT 10SM OVC014 15/12 A3002 280 83 400 040/05 RMK AO2 T01500122
03949KAQV AQV20190302173511003/02/19 17:35:31  5-MIN KAQV 022335Z AUTO 03005KT 10SM OVC014 15/12 A3002 280 83 400 030/05 RMK AO2 T01500122
03949KAQV AQV20190302174011003/02/19 17:40:31  5-MIN KAQV 022340Z AUTO 03005KT 10SM OVC015 15/12 A3002 280 83 400 030/05 RMK AO2 T01500122
03949KAQV AQV20190302174511003/02/19 17:45:31  5-MIN KAQV 022345Z AUTO 05005KT 10SM OVC015 15/12 A3002 280 83 400 050/05 RMK AO2 T01500122
03949KAQV AQV20190302175012503/02/19 17:50:31  5-MIN KAQV 022350Z AUTO 10SM OVC015 15/12 A3002 280 83 400 M /M RMK AO2 SLP166 T01500122 10161 20122 56028
03949KAQV AQV20190302175513503/02/19 17:55:31  5-MIN KAQV 022355Z AUTO 02005KT 10SM OVC014 15/12 A3002 280 83 400 020/05 RMK AO2 SLP166 T01500122 10161 20122 56028
03949KAQV AQV20190302180018403/02/19 18:00:31  5-MIN KAQV 030000Z AUTO 10SM OVC014 15/12 A3002 280 83 400 M /M RMK AO2 T0150012203/02/19 18RB04KT 10SM OVC013 14/12 A3001 290 86 300 VRB/04 RMK AO2 SLP163 T01390117
03949KAQV AQV20190302221510003/02/19 22:15:31  5-MIN KAQV 030415Z AUTO 10SM OVC014 14/12 A3002 290 86 300 M /M RMK AO2 T01390117
03949KAQV AQV20190302222011003/02/19 22:20:31  5-MIN KAQV 030420Z AUTO 06007KT 10SM OVC013 14/12 A3002 290 86 300 050/07 RMK AO2 T01390117
03949KAQV AQV20190302222511003/02/19 22:25:31  5-MIN KAQV 030425Z AUTO VRB04KT 10SM OVC013 14/12 A3002 290 86 300 VRB/04 RMK AO2 T01390117
03949KAQV AQV20190302223011003/02/19 22:30:31  5-MIN KAQV 030430Z AUTO VRB04KT 10SM OVC013 14/12 A3001 290 86 300 VRB/04 RMK AO2 T01390117
03949KAQV AQV20190302223511003/02/19 22:35:31  5-MIN KAQV 030435Z AUTO VRB06KT 10SM OVC013 14/12 A3001 290 86 300 VRB/06 RMK AO2 T01390117
03949KAQV AQV20190302224012603/02/19 22:40:31  5-MIN KAQV 030440Z AUTO 04007KT 010V080 10SM OVC013 14/12 A3001 290 86 300 040/07 010V080 RMK AO2 T01390117
03949KAQV AQV20190302224511003/02/19 22:45:31  5-MIN KAQV 030445Z AUTO 00000KT 10SM OVC013 14/12 A3001 290 86 300 000/00 RMK AO2 T01390117
03949KAQV AQV20190302225010703/02/19 22:50:31  5-MIN KAQV 030450Z AUTO 10SM OVC013 14/12 A3001 290 86 300 M /M RMK AO2 SLP164 T01390117
03949KAQV AQV20190302225511703/02/19 22:55:31  5-MIN KAQV 030455Z AUTO VRB04KT 10SM OVC013 14/12 A3001 290 86 300 VRB/04 RMK AO2 SLP163 T01390117
03949KAQV AQV20190302230011003/02/19 23:00:31  5-MIN KAQV 030500Z AUTO 03006KT 10SM OVC013 14/12 A3001 290 86 300 030/06 RMK AO2 T01390117
03949KAQV AQV20190302230510003/02/19 23:05:31  5-MIN KAQV 030505Z AUTO 10SM OVC014 14/12 A3001 290 86 300 M /M RMK AO2 T01390117
03949KAQV AQV20190302231011003/02/19 23:10:31  5-MIN KAQV 030510Z AUTO VRB03KT 10SM OVC014 14/12 A3001 300 86 300 VRB/03 RMK AO2 T01390117
03949KAQV AQV20190302231511003/02/19 23:15:31  5-MIN KAQV 030515Z AUTO VRB06KT 10SM OVC014 14/12 A3000 300 86 300 VRB/06 RMK AO2 T01390117
03949KAQV AQV20190302232011703/02/19 23:20:31  5-MIN KAQV 030520Z AUTO 06007KT 10SM BKN014 OVC039 14/12 A2999 310 86 300 050/07 RMK AO2 T01390117
03949KAQV AQV20190302232511703/02/19 23:25:31  5-MIN KAQV 030525Z AUTO VRB05KT 10SM BKN014 OVC039 14/12 A2999 310 86 300 VRB/05 RMK AO2 T01390117
03949KAQV AQV20190302233011703/02/19 23:30:31  5-MIN KAQV 030530Z AUTO 00000KT 10SM SCT014 OVC039 13/12 A2999 310 89 200 000/00 RMK AO2 T01330117
03949KAQV AQV20190302233512403/02/19 23:35:31  5-MIN KAQV 030535Z AUTO VRB03KT 10SM SCT014 BKN039 BKN046 13/12 A2998 320 89 200 VRB/03 RMK AO2 T01330117
03949KAQV AQV20190302234012403/02/19 23:40:31  5-MIN KAQV 030540Z AUTO VRB03KT 10SM FEW015 BKN039 BKN049 13/12 A2998 320 89 200 VRB/03 RMK AO2 T01330117
03949KAQV AQV20190302234512403/02/19 23:45:31  5-MIN KAQV 030545Z AUTO VRB04KT 10SM SCT039 BKN048 BKN055 13/12 A2998 320 89 200 VRB/04 RMK AO2 T01330117
03949KAQV AQV20190302235015903/02/19 23:50:31  5-MIN KAQV 030550Z AUTO VRB03KT 10SM FEW039 BKN048 BKN060 13/12 A2998 320 89 200 VRB/03 RMK AO2 SLP153 T01330117 10150 20133 401610100 50001
03949KAQV AQV20190302235515903/02/19 23:55:31  5-MIN KAQV 030555Z AUTO VRB03KT 10SM FEW039 SCT048 BKN060 13/12 A2998 320 89 200 VRB/03 RMK AO2 SLP152 T01330117 10150 20133 401610100 50001
03949KAQV AQV20190303000012403/03/19 00:00:31  5-MIN KAQV 030600Z AUTO VRB03KT 10SM FEW046 SCT055 BKN090 13/12 A2997 330 89 200 VRB/03 RMK AO2 T01330117
03949KAQV AQV20190303000512403/03/19 00:05:31  5-MIN KAQV 030605Z AUTO VRB05KT 10SM FEW046 SCT055 BKN085 13/12 A2997 330 89 300 VRB/05 RMK AO2 T01330117
03949KAQV AQV20190303001013103/03/19 00:10:31  5-MIN KAQV 030610Z AUTO VRB04KT 10SM FEW048 FEW060 SCT085 13/12 A2996 340 89 300 VRB/04 RMK AO2 PRESFR T01330117
03949KAQV AQV20190303001511703/03/19 00:15:31  5-MIN KAQV 030615Z AUTO VRB03KT 10SM FEW060 FEW085 13/12 A2996 340 89 300 VRB/03 RMK AO2 T01330117
03949KAQV AQV20190303002012403/03/19 00:20:31  5-MIN KAQV 030620Z AUTO VRB05KT 10SM FEW039 FEW085 13/12 A2995 350 89 300 VRB/05 RMK AO2 PRESFR T01330117
03949KAQV AQV20190303002511703/03/19 00:25:31  5-MIN KAQV 030625Z AUTO VRB04KT 10SM FEW039 FEW085 13/12 A2995 350 89 300 VRB/04 RMK AO2 T01330117
03949KAQV AQV20190303003011003/03/19 00:30:31  5-MIN KAQV 030630Z AUTO VRB03KT 10SM FEW085 13/12 A2995 350 89 300 VRB/03 RMK AO2 T01330117
03949KAQV AQV20190303003510703/03/19 00:35:31  5-MIN KAQV 030635Z AUTO VRB04KT 10SM CLR 13/12 A2995 350 89 300 VRB/04 RMK AO2 T01330117
03949KAQV AQV20190303004010703/03/19 00:40:31  5-MIN KAQV 030640Z AUTO VRB03KT 10SM CLR 13/12 A2995 350 89 300 VRB/03 RMK AO2 T01330117
03949KAQV AQV20190303004510703/03/19 00:45:31  5-MIN KAQV 030645Z AUTO VRB04KT 10SM CLR 13/12 A2994 350 89 300 VRB/04 RMK AO2 T01330117
03949KAQV AQV20190303005011403/03/19 00:50:31  5-MIN KAQV 030650Z AUTO VRB05KT 10SM CLR 13/12 A2995 350 89 300 VRB/05 RMK AO2 SLP140 T01330117
03949KAQV AQV20190303005511403/03/19 00:55:31  5-MIN KAQV 030655Z AUTO VRB04KT 10SM CLR 13/12 A2995 350 89 300 VRB/04 RMK AO2 SLP140 T01330117
03949KAQV AQV20190303010011003/03/19 01:00:31  5-MIN KAQV 030700Z AUTO VRB04KT 10SM FEW065 13/12 A2994 350 89 300 VRB/04 RMK AO2 T01330117
03949KAQV AQV20190303010511703/03/19 01:05:31  5-MIN KAQV 030705Z AUTO VRB04KT 10SM FEW065 FEW100 13/11 A2994 360 86 300 VRB/04 RMK AO2 T01330111
03949KAQV AQV20190303011011703/03/19 01:10:31  5-MIN KAQV 030710Z AUTO VRB04KT 10SM FEW060 SCT100 13/11 A2994 360 86 300 VRB/04 RMK AO2 T01330111
03949KAQV AQV20190303011511703/03/19 01:15:31  5-MIN KAQV 030715Z AUTO 16004KT 10SM FEW060 SCT110 13/11 A2993 360 86 300 160/04 RMK AO2 T01330111
03949KAQV AQV20190303012012403/03/19 01:20:31  5-MIN KAQV 030720Z AUTO VRB04KT 10SM FEW050 SCT100 SCT120 13/12 A2993 370 89 300 VRB/04 RMK AO2 T01330117
03949KAQV AQV20190303012512403/03/19 01:25:31  5-MIN KAQV 030725Z AUTO VRB03KT 10SM FEW050 SCT095 BKN110 13/12 A2993 360 89 300 VRB/03 RMK AO2 T01330117
03949KAQV AQV20190303013011703/03/19 01:30:31  5-MIN KAQV 030730Z AUTO VRB03KT 10SM FEW050 BKN095 13/12 A2993 360 89 300 VRB/03 RMK AO2 T01330117
03949KAQV AQV20190303013511703/03/19 01:35:31  5-MIN KAQV 030735Z AUTO VRB03KT 10SM FEW050 BKN095 13/12 A2993 370 89 300 VRB/03 RMK AO2 T01330117
03949KAQV AQV20190303014011003/03/19 01:40:31  5-MIN KAQV 030740Z AUTO 00000KT 10SM BKN090 13/12 A2993 360 89 300 000/00 RMK AO2 T01330117
03949KAQV AQV20190303014510003/03/19 01:45:31  5-MIN KAQV 030745Z AUTO 10SM OVC090 13/12 A2993 370 89 300 M /M RMK AO2 T01330117
03949KAQV AQV20190303015012403/03/19 01:50:31  5-MIN KAQV 030750Z AUTO 00000KT 10SM FEW016 OVC090 13/12 A2993 370 89 300 000/00 RMK AO2 SLP134 T01330117
03949KAQV AQV20190303015512403/03/19 01:55:31  5-MIN KAQV 030755Z AUTO 07004KT 10SM SCT016 OVC090 13/12 A2993 370 89 300 060/04 RMK AO2 SLP133 T01330117
03949KAQV AQV20190303020011703/03/19 02:00:31  5-MIN KAQV 030800Z AUTO 00000KT 10SM BKN016 OVC090 13/12 A2993 370 89 300 000/00 RMK AO2 T01330117
03949KAQV AQV20190303020511703/03/19 02:05:31  5-MIN KAQV 030805Z AUTO 00000KT 10SM BKN016 OVC090 13/12 A2992 380 89 300 000/00 RMK AO2 T01330117
03949KAQV AQV20190303021012403/03/19 02:10:31  5-MIN KAQV 030810Z AUTO 00000KT 10SM BKN014 BKN019 OVC090 13/12 A2992 380 89 300 000/00 RMK AO2 T01330117
03949KAQV AQV20190303021511003/03/19 02:15:31  5-MIN KAQV 030815Z AUTO 00000KT 10SM OVC016 13/12 A2991 380 89 300 000/00 RMK AO2 T01330117
03949KAQV AQV20190303022011003/03/19 02:20:31  5-MIN KAQV 030820Z AUTO 00000KT 10SM OVC016 13/12 A2991 390 89 300 000/00 RMK AO2 T01330117
03949KAQV AQV20190303022511703/03/19 02:25:31  5-MIN KAQV 030825Z AUTO 00000KT 10SM BKN014 OVC019 13/12 A2990 390 89 300 000/00 RMK AO2 T01330117
03949KAQV AQV20190303023011003/03/19 02:30:31  5-MIN KAQV 030830Z AUTO 00000KT 10SM OVC014 13/12 A2990 390 89 300 000/00 RMK AO2 T01330117
03949KAQV AQV20190303023511003/03/19 02:35:31  5-MIN KAQV 030835Z AUTO 00000KT 10SM OVC014 13/12 A2990 390 89 300 000/00 RMK AO2 T01330117
03949KAQV AQV20190303024011003/03/19 02:40:31  5-MIN KAQV 030840Z AUTO 07003KT 10SM OVC012 13/12 A2990 390 89 300 060/03 RMK AO2 T01330117
03949KAQV AQV20190303024511003/03/19 02:45:31  5-MIN KAQV 030845Z AUTO VRB06KT 10SM OVC012 13/12 A2990 400 89 300 VRB/06 RMK AO2 T01330117
03949KAQV AQV20190303025012303/03/19 02:50:31  5-MIN KAQV 030850Z AUTO 04007KT 10SM OVC012 14/12 A2990 400 86 400 040/07 RMK AO2 SLP123 T01390117 58016
03949KAQV AQV20190303025512303/03/19 02:55:31  5-MIN KAQV 030855Z AUTO 00000KT 10SM OVC012 14/12 A2990 400 86 400 000/00 RMK AO2 SLP123 T01390117 58016
03949KAQV AQV20190303030011003/03/19 03:00:31  5-MIN KAQV 030900Z AUTO 00000KT 10SM OVC012 14/12 A2990 400 86 400 000/00 RMK AO2 T01390117
03949KAQV AQV20190303030510003/03/19 03:05:31  5-MIN KAQV 030905Z AUTO 10SM OVC012 14/12 A2989 400 86 400 M /M RMK AO2 T01390117
03949KAQV AQV20190303031011003/03/19 03:10:31  5-MIN KAQV 030910Z AUTO 00000KT 10SM OVC011 14/12 A2990 400 86 400 000/00 RMK AO2 T01390117
03949KAQV AQV20190303031510003/03/19 03:15:31  5-MIN KAQV 030915Z AUTO 10SM OVC011 14/12 A2990 400 86 400 M /M RMK AO2 T01390117
03949KAQV AQV20190303032011003/03/19 03:20:31  5-MIN KAQV 030920Z AUTO 04008KT 10SM OVC010 14/12 A2989 410 86 400 040/08 RMK AO2 T01390117
03949KAQV AQV20190303032511003/03/19 03:25:31  5-MIN KAQV 030925Z AUTO VRB06KT 10SM OVC010 14/12 A2989 410 86 400 VRB/06 RMK AO2 T01390117
03949KAQV AQV20190303033011003/03/19 03:30:31  5-MIN KAQV 030930Z AUTO 04007KT 10SM OVC010 14/12 A2988 410 86 400 040/07 RMK AO2 T01390117
03949KAQV AQV20190303033511003/03/19 03:35:31  5-MIN KAQV 030935Z AUTO 04008KT 10SM OVC010 13/12 A2988 410 89 400 030/08 RMK AO2 T01330117
03949KAQV AQV20190303034011003/03/19 03:40:31  5-MIN KAQV 030940Z AUTO 04008KT 10SM OVC009 13/12 A2987 420 89 400 040/08 RMK AO2 T01330117
03949KAQV AQV20190303034511003/03/19 03:45:31  5-MIN KAQV 030945Z AUTO VRB06KT 10SM OVC009 13/12 A2987 420 89 400 VRB/06 RMK AO2 T01330117
03949KAQV AQV20190303035011703/03/19 03:50:31  5-MIN KAQV 030950Z AUTO VRB05KT 10SM OVC009 13/12 A2987 420 89 400 VRB/05 RMK AO2 SLP115 T01330117
03949KAQV AQV20190303035513303/03/19 03:55:31  5-MIN KAQV 030955Z AUTO 03007KT 10SM -RA OVC009 13/12 A2987 430 89 400 020/07 RMK AO2 RAB54 SLP113 P0000 T01330117
03949KAQV AQV20190303040012003/03/19 04:00:31  5-MIN KAQV 031000Z AUTO 04006KT 10SM -RA OVC009 13/12 A2986 430 89 400 030/06 RMK AO2 P0000 T01330117
03949KAQV AQV20190303040512003/03/19 04:05:31  5-MIN KAQV 031005Z AUTO 05007KT 10SM -RA OVC009 13/12 A2985 440 89 400 050/07 RMK AO2 P0000 T01330117
03949KAQV AQV20190303041012203/03/19 04:10:31  5-MIN KAQV 031010Z AUTO 04009KT 4SM +RA BR OVC008 13/12 A2986 430 93 300 040/09 RMK AO2 P0003 T01280117
03949KAQV AQV20190303041511103/03/19 04:15:31  5-MIN KAQV 031015Z AUTO 3SM RA BR OVC008 13/12 A2986 440 96 300 M /M RMK AO2 P0004 T01280122
03949KAQV AQV20190303042012103/03/19 04:20:31  5-MIN KAQV 031020Z AUTO VRB05KT 4SM RA BR OVC008 13/12 A2985 440 96 300 VRB/05 RMK AO2 P0006 T01280122
03949KAQV AQV20190303042512203/03/19 04:25:31  5-MIN KAQV 031025Z AUTO 00000KT 4SM -RA BR OVC008 13/12 A2985 440 96 300 000/00 RMK AO2 P0007 T01280122
03949KAQV AQV20190303043012203/03/19 04:30:31  5-MIN KAQV 031030Z AUTO 00000KT 5SM -RA BR OVC008 13/12 A2985 440 96 300 000/00 RMK AO2 P0007 T01280122
03949KAQV AQV20190303043512203/03/19 04:35:31  5-MIN KAQV 031035Z AUTO 00000KT 6SM -RA BR OVC008 13/12 A2985 440 96 300 000/00 RMK AO2 P0007 T01280122
03949KAQV AQV20190303044012203/03/19 04:40:31  5-MIN KAQV 031040Z AUTO VRB03KT 6SM -RA BR OVC008 13/12 A2985 440 96 300 VRB/03 RMK AO2 P0007 T01280122
03949KAQV AQV20190303044512103/03/19 04:45:31  5-MIN KAQV 031045Z AUTO VRB03KT 7SM OVC008 13/12 A2985 440 96 300 VRB/03 RMK AO2 RAE44 P0007 T01280122
03949KAQV AQV20190303045012803/03/19 04:50:31  5-MIN KAQV 031050Z AUTO 00000KT 7SM OVC007 13/12 A2984 450 96 300 000/00 RMK AO2 RAE44 SLP105 P0007 T01280122
03949KAQV AQV20190303045512803/03/19 04:55:31  5-MIN KAQV 031055Z AUTO 28003KT 7SM OVC007 13/12 A2986 430 96 300 270/03 RMK AO2 RAE44 SLP110 P0007 T01280122
03949KAQV AQV20190303050011203/03/19 05:00:31  5-MIN KAQV 031100Z AUTO 32006KT 6SM BR OVC007 13/12 A2986 430 93 400 310/06 RMK AO2 T01330122
03949KAQV AQV20190303050512403/03/19 05:05:31  5-MIN KAQV 031105Z AUTO VRB06KT 6SM BR OVC006 13/12 A2986 430 93 400 VRB/06 RMK AO2 CIG 003V007 T01330122
03949KAQV AQV20190303051012103/03/19 05:10:31  5-MIN KAQV 031110Z AUTO 00000KT 7SM OVC006 13/12 A2986 430 93 400 000/00 RMK AO2 CIG 003V007 T01330122
03949KAQV AQV20190303051511203/03/19 05:15:31  5-MIN KAQV 031115Z AUTO 00000KT 6SM BR OVC006 13/12 A2986 430 93 400 000/00 RMK AO2 T01330122
03949KAQV AQV20190303052011203/03/19 05:20:31  5-MIN KAQV 031120Z AUTO 29003KT 6SM BR OVC006 13/13 A2986 430 96 400 280/03 RMK AO2 T01330128
03949KAQV AQV20190303052511203/03/19 05:25:31  5-MIN KAQV 031125Z AUTO VRB06KT 5SM BR OVC005 13/12 A2987 420 93 400 VRB/06 RMK AO2 T01330122
03949KAQV AQV20190303053011203/03/19 05:30:31  5-MIN KAQV 031130Z AUTO VRB06KT 4SM BR OVC005 13/12 A2987 420 93 400 VRB/06 RMK AO2 T01330122
03949KAQV AQV20190303053512403/03/19 05:35:31  5-MIN KAQV 031135Z AUTO VRB05KT 4SM BR OVC005 13/12 A2987 420 93 400 VRB/05 RMK AO2 CIG 002V006 T01330122
03949KAQV AQV20190303054012403/03/19 05:40:31  5-MIN KAQV 031140Z AUTO VRB05KT 3SM BR OVC004 13/12 A2987 420 93 400 VRB/05 RMK AO2 CIG 002V005 T01330122
03949KAQV AQV20190303054512403/03/19 05:45:31  5-MIN KAQV 031145Z AUTO VRB04KT 3SM BR OVC004 13/12 A2987 420 93 400 VRB/04 RMK AO2 CIG 002V005 T01330122
03949KAQV AQV20190303055010603/03/19 05:50:31  5-MIN KAQV 031150Z AUTO 34005KT 2 1/2SM BR OVC003 13/12 A2988 420 93 400 330/05 RMK AO2
03949KAQV AQV20190303055514903/03/19 05:55:31  5-MIN KAQV 031155Z AUTO 33005KT 2SM BR OVC003 13/12 A2988 420 93 400 330/05 RMK AO2 SLP116 60007 70007 T01330122 10139 20128 55006
03949KAQV AQV20190303060011603/03/19 06:00:31  5-MIN KAQV 031200Z AUTO VRB05KT 1 3/4SM BR OVC002 13/12 A2988 410 96 300 VRB/05 RMK AO2 T01280122
03949KAQV AQV20190303060511603/03/19 06:05:31  5-MIN KAQV 031205Z AUTO 34005KT 1 1/2SM BR OVC002 13/12 A2988 410 96 300 340/05 RMK AO2 T01280122
03949KAQV AQV20190303061011603/03/19 06:10:31  5-MIN KAQV 031210Z AUTO 35005KT 1 1/2SM BR OVC002 13/12 A2988 410 96 300 350/05 RMK AO2 T01280122
03949KAQV AQV20190303061511603/03/19 06:15:31  5-MIN KAQV 031215Z AUTO 35004KT 1 1/2SM BR OVC002 13/12 A2988 410 96 300 350/04 RMK AO2 T01280122
03949KAQV AQV20190303062011603/03/19 06:20:31  5-MIN KAQV 031220Z AUTO VRB05KT 1 1/2SM BR OVC002 13/12 A2988 410 96 300 VRB/05 RMK AO2 T01280122
03949KAQV AQV20190303062511603/03/19 06:25:31  5-MIN KAQV 031225Z AUTO 01004KT 1 1/2SM BR OVC002 13/12 A2988 420 96 300 360/04 RMK AO2 T01280122
03949KAQV AQV20190303063011603/03/19 06:30:31  5-MIN KAQV 031230Z AUTO 35005KT 1 1/2SM BR OVC002 12/12 A2988 410 96 200 350/05 RMK AO2 T01220117
03949KAQV AQV20190303063511603/03/19 06:35:31  5-MIN KAQV 031235Z AUTO 35004KT 1 1/2SM BR OVC002 12/12 A2988 410 96 200 350/04 RMK AO2 T01220117
03949KAQV AQV20190303064010603/03/19 06:40:31  5-MIN KAQV 031240Z AUTO 1 3/4SM BR OVC002 12/12 A2989 410 96 200 M /M RMK AO2 T01220117
03949KAQV AQV20190303064511603/03/19 06:45:31  5-MIN KAQV 031245Z AUTO 36005KT 1 3/4SM BR OVC002 12/12 A2989 410 96 200 350/05 RMK AO2 T01220117
03949KAQV AQV20190303065010203/03/19 06:50:31  5-MIN KAQV 031250Z AUTO 35006KT 2SM BR OVC002 12/12 A2989 410 96 200 350/06 RMK AO2
03949KAQV AQV20190303065511903/03/19 06:55:31  5-MIN KAQV 031255Z AUTO 36005KT 2SM BR OVC002 12/12 A2989 400 96 200 350/05 RMK AO2 SLP122 T01220117
03949KAQV AQV20190303070011603/03/19 07:00:31  5-MIN KAQV 031300Z AUTO 36005KT 2 1/2SM BR OVC003 12/12 A2989 400 96 200 350/05 RMK AO2 T01220117
03949KAQV AQV20190303070511603/03/19 07:05:31  5-MIN KAQV 031305Z AUTO 35007KT 1 3/4SM BR OVC003 12/11 A2989 400 93 200 340/07 RMK AO2 T01220111
03949KAQV AQV20190303071011603/03/19 07:10:31  5-MIN KAQV 031310Z AUTO 36006KT 1 1/2SM BR OVC003 12/11 A2990 400 96 100 350/06 RMK AO2 T01170111
03949KAQV AQV20190303071511603/03/19 07:15:31  5-MIN KAQV 031315Z AUTO 36006KT 1 1/4SM BR OVC003 12/11 A2990 400 96 100 360/06 RMK AO2 T01170111
03949KAQV AQV20190303072011203/03/19 07:20:31  5-MIN KAQV 031320Z AUTO 36005KT 1SM BR OVC003 12/11 A2990 390 96 100 350/05 RMK AO2 T01170111
03949KAQV AQV20190303072511203/03/19 07:25:31  5-MIN KAQV 031325Z AUTO 35005KT 1SM BR OVC003 12/11 A2990 390 96 100 350/05 RMK AO2 T01170111
03949KAQV AQV20190303073011603/03/19 07:30:31  5-MIN KAQV 031330Z AUTO 36005KT 1 1/4SM BR OVC003 12/11 A2990 390 96 100 360/05 RMK AO2 T01170111
03949KAQV AQV20190303073511603/03/19 07:35:31  5-MIN KAQV 031335Z AUTO 36004KT 1 1/4SM BR OVC003 12/11 A2991 390 96 100 360/04 RMK AO2 T01170111
03949KAQV AQV20190303074011603/03/19 07:40:31  5-MIN KAQV 031340Z AUTO 35004KT 1 1/4SM BR OVC003 12/11 A2991 390 96 100 350/04 RMK AO2 T01170111
03949KAQV AQV20190303074511203/03/19 07:45:31  5-MIN KAQV 031345Z AUTO 35004KT 1SM BR OVC003 12/11 A2991 380 96 100 340/04 RMK AO2 T01170111
03949KAQV AQV20190303075012103/03/19 07:50:31  5-MIN KAQV 031350Z AUTO 35007KT 1 1/4SM BR OVC003 11/11 A2992 380 96 0 350/07 RMK AO2 SLP132 T01110106
03949KAQV AQV20190303075512703/03/19 07:55:31  5-MIN KAQV 031355Z AUTO 35006G14KT 1 1/4SM BR OVC003 11/10 A2992 370 93 0 350/06G14 RMK AO2 SLP133 T01110100
03949KAQV AQV20190303080012003/03/19 08:00:31  5-MIN KAQV 031400Z AUTO 36007G14KT 1 1/4SM BR OVC003 11/10 A2993 370 96 0 350/07G14 RMK AO2 T01060100
03949KAQV AQV20190303080511403/03/19 08:05:31  5-MIN KAQV 031405Z AUTO 35007KT 1 1/4SM BR OVC003 11/10 A2993 360 96 0 340/07 RMK AO2 T01060100
03949KAQV AQV20190303081012603/03/19 08:10:31  5-MIN KAQV 031410Z AUTO 01005KT 1 1/4SM BR OVC003 11/10 A2994 360 96 0 360/05 RMK AO2 CIG 002V007 T01060100
03949KAQV AQV20190303081511003/03/19 08:15:31  5-MIN KAQV 031415Z AUTO VRB06KT 1SM BR OVC003 11/10 A2994 360 96 0 VRB/06 RMK AO2 T01060100
03949KAQV AQV20190303082011003/03/19 08:20:31  5-MIN KAQV 031420Z AUTO 34006KT 1SM BR OVC003 11/09 A2994 360 93 0 340/06 RMK AO2 T01060094
03949KAQV AQV20190303082511703/03/19 08:25:31  5-MIN KAQV 031425Z AUTO 35006KT 1 1/4SM BR OVC003 10/09 A2994 360 96 -100 350/06 RMK AO2 T01000094
03949KAQV AQV20190303083011703/03/19 08:30:31  5-MIN KAQV 031430Z AUTO 36006KT 1 1/2SM BR OVC003 10/09 A2994 350 96 -100 360/06 RMK AO2 T01000094
03949KAQV AQV20190303083511703/03/19 08:35:31  5-MIN KAQV 031435Z AUTO 35006KT 1 1/2SM BR OVC003 10/09 A2995 350 96 -100 350/06 RMK AO2 T01000094
03949KAQV AQV20190303084011703/03/19 08:40:31  5-MIN KAQV 031440Z AUTO VRB06KT 1 1/2SM BR OVC003 10/09 A2995 350 96 -100 VRB/06 RMK AO2 T01000094
03949KAQV AQV20190303084511703/03/19 08:45:31  5-MIN KAQV 031445Z AUTO VRB05KT 1 3/4SM BR OVC003 10/09 A2995 350 93 -100 VRB/05 RMK AO2 T01000089
03949KAQV AQV20190303085013003/03/19 08:50:31  5-MIN KAQV 031450Z AUTO VRB05KT 1 3/4SM BR OVC003 10/09 A2995 350 93 -100 VRB/05 RMK AO2 SLP142 T01000089 53004
03949KAQV AQV20190303085513003/03/19 08:55:31  5-MIN KAQV 031455Z AUTO 36006KT 1 3/4SM BR OVC003 10/09 A2995 350 93 -100 360/06 RMK AO2 SLP141 T01000089 53004
03949KAQV AQV20190303090011303/03/19 09:00:31  5-MIN KAQV 031500Z AUTO 02008KT 2SM BR OVC003 10/09 A2995 350 93 -100 010/08 RMK AO2 T01000089
03949KAQV AQV20190303090512003/03/19 09:05:31  5-MIN KAQV 031505Z AUTO 36009KT 3SM BR BKN004 OVC008 10/09 A2995 350 93 -100 350/09 RMK AO2 T01000089
03949KAQV AQV20190303091012903/03/19 09:10:31  5-MIN KAQV 031510Z AUTO 01008KT 7SM BKN004 OVC010 10/09 A2996 340 93 -100 010/08 RMK AO2 CIG 003V007 T01000089
03949KAQV AQV20190303091514103/03/19 09:15:31  5-MIN KAQV 031515Z AUTO 35007KT 320V030 10SM BKN004 OVC010 09/08 A2997 330 93 -200 350/07 320V030 RMK AO2 PRESRR T00940083
03949KAQV AQV20190303092013903/03/19 09:20:31  5-MIN KAQV 031520Z AUTO 36010G16KT 310V020 7SM BKN004 OVC008 09/08 A2997 330 93 -200 350/10G16 310V020 RMK AO2 T00940083
03949KAQV AQV20190303092512603/03/19 09:25:31  5-MIN KAQV 031525Z AUTO 35008G16KT 5SM BR BKN004 OVC010 09/08 A2997 330 93 -200 350/08G16 RMK AO2 T00940083
03949KAQV AQV20190303093012603/03/19 09:30:31  5-MIN KAQV 031530Z AUTO 36009G15KT 5SM BR BKN004 OVC010 09/08 A2998 330 93 -200 360/09G15 RMK AO2 T00940083
03949KAQV AQV20190303093511903/03/19 09:35:31  5-MIN KAQV 031535Z AUTO 36011G17KT 6SM BR OVC004 09/08 A2998 320 93 -200 350/11G17 RMK AO2 T00890078
03949KAQV AQV20190303094011903/03/19 09:40:31  5-MIN KAQV 031540Z AUTO 35009G17KT 6SM BR OVC004 09/08 A2998 320 93 -200 350/09G17 RMK AO2 T00890078
03949KAQV AQV20190303094513503/03/19 09:45:31  5-MIN KAQV 031545Z AUTO 36008G16KT 320V030 6SM BR OVC004 09/08 A2998 320 93 -200 350/08G16 320V030 RMK AO2 T00890078
03949KAQV AQV20190303095012603/03/19 09:50:31  5-MIN KAQV 031550Z AUTO 35010G20KT 6SM BR OVC004 08/08 A2999 320 96 -300 350/10G20 RMK AO2 SLP155 T00830078
03949KAQV AQV20190303095512603/03/19 09:55:31  5-MIN KAQV 031555Z AUTO 36007G20KT 4SM BR OVC004 08/08 A2999 310 96 -300 350/07G20 RMK AO2 SLP155 T00830078
03949KAQV AQV20190303100011903/03/19 10:00:31  5-MIN KAQV 031600Z AUTO 35009G14KT 4SM BR OVC004 08/08 A2999 310 96 -300 350/09G14 RMK AO2 T00830078
03949KAQV AQV20190303100511903/03/19 10:05:31  5-MIN KAQV 031605Z AUTO 35007G18KT 6SM BR OVC003 08/07 A3000 310 93 -300 340/07G18 RMK AO2 T00830072
03949KAQV AQV20190303101014403/03/19 10:10:31  5-MIN KAQV 031610Z AUTO 35009G18KT 7SM -RA OVC003 08/07 A3000 310 93 -300 340/09G18 RMK AO2 RAB08 CIG 003V006 P0000 T00830072
03949KAQV AQV20190303101514403/03/19 10:15:31  5-MIN KAQV 031615Z AUTO 36008G19KT 7SM -RA OVC005 08/07 A3000 300 93 -300 360/08G19 RMK AO2 RAB08 CIG 003V009 P0000 T00830072
03949KAQV AQV20190303102015903/03/19 10:20:31  5-MIN KAQV 031620Z AUTO 35008G20KT 320V020 8SM OVC005 08/07 A3000 300 93 -300 350/08G20 320V020 RMK AO2 RAB08E19 CIG 003V007 P0000 T00830072
03949KAQV AQV20190303102516603/03/19 10:25:31  5-MIN KAQV 031625Z AUTO 35009G20KT 330V030 7SM -RA OVC005 08/07 A3001 300 93 -400 350/09G20 330V030 RMK AO2 RAB08E19B22 CIG 003V009 P0000 T00780067
03949KAQV AQV20190303103015303/03/19 10:30:31  5-MIN KAQV 031630Z AUTO VRB06G20KT 4SM -RA BR OVC005 08/07 A3001 300 93 -400 VRB/06G20 RMK AO2 RAB08E19B22 CIG 003V009 P0000 T00780067
03949KAQV AQV20190303103516703/03/19 10:35:31  5-MIN KAQV 031635Z AUTO 35009KT 290V020 2 1/2SM -RA BR OVC005 08/07 A3001 300 93 -400 350/09 290V020 RMK AO2 RAB08E19B22 CIG 004V009 P0001 T00780067
03949KAQV AQV20190303104016703/03/19 10:40:31  5-MIN KAQV 031640Z AUTO 36009KT 330V050 2 1/2SM -RA BR OVC005 08/07 A3001 300 93 -400 360/09 330V050 RMK AO2 RAB08E19B22 CIG 004V009 P0001 T00780067
03949KAQV AQV20190303104514703/03/19 10:45:31  5-MIN KAQV 031645Z AUTO 36007KT 4SM -RA BR OVC005 08/07 A3000 300 93 -400 360/07 RMK AO2 RAB08E19B22 CIG 004V009 P0001 T00780067
03949KAQV AQV20190303105014503/03/19 10:50:31  5-MIN KAQV 031650Z AUTO 36007KT 9SM BKN005 OVC020 08/07 A3000 300 93 -400 360/07 RMK AO2 RAB08E19B22E48 SLP158 P0001 T00780067
03949KAQV AQV20190303105515703/03/19 10:55:31  5-MIN KAQV 031655Z AUTO 35005KT 9SM BKN005 OVC020 08/07 A3001 300 93 -400 340/05 RMK AO2 RAB08E19B22E48 CIG 004V010 SLP162 P0001 T00780067
03949KAQV AQV20190303110012903/03/19 11:00:31  5-MIN KAQV 031700Z AUTO 36006KT 7SM BKN005 OVC020 08/07 A3000 300 93 -400 360/06 RMK AO2 CIG 004V010 T00780067
03949KAQV AQV20190303110513603/03/19 11:05:31  5-MIN KAQV 031705Z AUTO VRB06KT 8SM BKN006 BKN010 OVC020 08/07 A3001 290 89 -300 VRB/06 RMK AO2 CIG 004V008 T00830067
03949KAQV AQV20190303111012003/03/19 11:10:31  5-MIN KAQV 031710Z AUTO 36007KT 9SM BKN006 BKN010 OVC020A3007 240 82 -500 360/07G17 RMK AO2 T00720044
03949KAQV AQV20190303182522503/03/19 18:25:31  5-MIN KAQV 040025Z AUTO 36009KT 10SM OVC015 07/04 A3007 03/03/19 18:50:31  5-MIN KAQV 040050Z AUTO 36008G16KT 10SM BKN01KAQV 040030Z AUTO 01007KT 10SM OVC015 07/04 A3007 240 82 -600 010/07 RMK AO2 T00720044
03949KAQV AQV20190303183511103/03/19 18:35:31  5-MIN KAQV 040035Z AUTO 01008KT 10SM OVC015 07/04 A3007 240 82 -600 360/08 RMK AO2 T00720044
03949KAQV AQV20190303184015503/03/19 18:40:31  5-MIN KAQV 040040Z AUTO 01008KT 10SM OVC015 07/04 A3008 230 79 -600 010/08 RMK AO2 T0072003907/04 A3 79 -600 360/08G16 RMK AO2 T00720039
03949KAQV AQV20190303185013103/03/19 18:50:31  5-MIN KAQV 040050Z AUTO 36008G16KT 10SM BKN015 OVC022 07/04 A3008 230 79 -600 360/08G16 RMK AO2 SLP186 T00720039
03949KAQV AQV20190303185516703/03/19 18:55:31  5-MIN KAQV 040055Z AUTO 01011G16KT 10SM BKN015 OVC022 07/04 A3008 230 79 -600 360/11G16 RMK AO2 SLP188 T00720039 A3009 0 360/10G18 RMK AO2 T00720039
03949KAQV AQV20190303190512403/03/19 19:05:31  5-MIN KAQV 040105Z AUTO 36007G18KT 10SM BKN017 OVC023 07/04 A3009 220 79 -600 350/07G18 RMK AO2 T00720039
03949KAQV AQV20190303191013403/03/19 19:10:31  5-MIN KAQV 040110Z AUTO 01010KT 330V030 10SM BKN020 OVC025 07/04 A3009 220 79 -600 010/10 330V030 RMK AO2 T00720039
03949KAQV AQV20190303191025903/03/19 19:10:31  5-MIN KAQV 040110Z AUTO 01010KT 330V030 10SM BKN020 OVC025 07/04 A3009 220 79 -600 010/10 330V030 RMK AO2 T0072003903/03/19 19:15:31  5-M40135Z AUTO 01005KT 10SM BKN015 OVC022 07/04 A3010 210 82 -700 010/05 RMK AO2 T00670039MK AO2 T00720039
03949KAQV AQV20190303191512703/03/19 19:15:31  5-MIN KAQV 040115Z AUTO 01008KT 330V040 10SM OVC020 07/04 A3009 220 79 -600 360/08 330V040 RMK AO2 T00720039
03949KAQV AQV20190303192011803/03/19 19:20:31  5-MIN KAQV 040120Z AUTO VRB06KT 10SM BKN019 OVC023 07/04 A3009 220 79 -600 VRB/06 RMK AO2 T00720039
03949KAQV AQV20190303192512403/03/19 19:25:31  5-MIN KAQV 040125Z AUTO 02009G14KT 10SM BKN019 OVC023 07/04 A3009 220 79 -600 010/09G14 RMK AO2 T00720039
03949KAQV AQV20190303193011803/03/19 19:30:31  5-MIN KAQV 040130Z AUTO 01008KT 10SM BKN015 OVC022 07/04 A3010 210 82 -700 360/08 RMK AO2 T00670039
03949KAQV AQV20190303193014403/03/19 19:30:31  5-MIN KAQV 040130Z AUVC023 07/04 A3010 210 82 -700 360/07 RMK AO2 SLP196 T00670039 A3010 210 82 -700 010/05 RMK AO2 T00670039
03949KAQV AQV20190303193511803/03/19 19:35:31  5-MIN KAQV 040135Z AUTO 01005KT 10SM BKN015 OVC022 07/04 A3010 210 82 -700 010/05 RMK AO2 T00670039
03949KAQV AQV20190303194011803/03/19 19:40:31  5-MIN KAQV 040140Z AUTO 02008KT 10SM BKN017 OVC022 07/04 A3010 210 82 -700 020/08 RMK AO2 T00670039
03949KAQV AQV20190303194511803/03/19 19:45:31  5-MIN KAQV 040145Z AUTO 36006KT 10SM BKN017 OVC023 07/04 A3010 210 82 -700 360/06 RMK AO2 T00670039
03949KAQV AQV20190303194514503/03/19 19:45:31  5-MIN KAQV 040145Z AUTO 36006KT 10SM BKN017 OVC023 07007KT 10SM BKN015 OVC023 07/03 A3011 200 79 -700 010/07 RMK AO2 T00670033
03949KAQV AQV20190303195012503/03/19 19:50:31  5-MIN KAQV 040150Z AUTO 36007KT 10SM BKN015 OVC023 07/04 A3010 210 82 -700 360/07 RMK AO2 SLP196 T00670039
03949KAQV AQV20190303195515403/03/19 19:55:31  5-MIN KAQV 040155Z AUTO 36009G15KT 320V030 10SM BKN015 BKN023 OVC033 07/04 A3011 200 82 -700 360/09G15 320V030 RMK AO2 SLP197 T00670039
03949KAQV AQV20190303200010203/03/19 20:00:31  5-MIN KAQV 040200Z AUTO 01009G15KT 10SM BK3012 200 82 -700 010/05 RMK AO2 T00670039
03949KAQV AQV20190303200012403/03/19 20:00:31  5-MIN KAQV 040200Z AUTO 01009G15KT 10SM BKN015 OVC023 07/04 A3011 200 82 -700 010/09G15 RMK AO2 T00670039
03949KAQV AQV20190303200511803/03/19 20:05:31  5-MIN KAQV 040205Z AUTO 01007KT 10SM BKN015 OVC023 07/03 A3011 200 79 -700 010/07 RMK AO2 T00670033
03949KAQV AQV20190303201009803/03/19 20:10:31  5-MIN KAQV 040210Z AUTO 07/04 A3010 210 82 -700 360/07 RMK AO2 SLP196 T00670039
03949KAQV AQV20190303201011803/03/19 20:10:31  5-MIN KAQV 040210Z AUTO 01007KT 10SM BKN015 OVC023 07/04 A3011 200 82 -700 360/07 RMK AO2 T00670039
03949KAQV AQV20190303201510803/03/19 20:15:31  5-MIN KAQV 040215Z AUTO 36005KT 10SM BKN015 OVC022 07/04 A3011 200 82 -7RMK AO2 T00670039
03949KAQV AQV20190303201511803/03/19 20:15:31  5-MIN KAQV 040215Z AUTO 36005KT 10SM BKN015 OVC022 07/04 A3011 200 82 -700 360/05 RMK AO2 T00670039
03949KAQV AQV20190303202011803/03/19 20:20:31  5-MIN KAQV 040220Z AUTO 01005KT 10SM BKN015 OVC024 07/04 A3012 200 82 -700 010/05 RMK AO2 T00670039
03949KAQV AQV20190303202511803/03/19 20:25:31  5-MIN KAQV 040225Z AUTO 01006KT 10SM BKN015 OVC024 07/04 A3012 200 82 -700 010/06 RMK AO2 T00670039
03949KAQV AQV20190303202514003/03/19 20:25:31  5-MIN KAQV 040225Z AUTO 01006KT 10SM BKN015 OVC024 07/04 A BKN015 OVC023 07/03 A3011 200 79 -700 010/07 RMK AO2 T00670033
03949KAQV AQV20190303203012503/03/19 20:30:31  5-MIN KAQV 040230Z AUTO 02008KT 10SM BKN015 BKN020 OVC026 07/04 A3012 200 82 -700 010/08 RMK AO2 T00670039
03949KAQV AQV20190303203017103/03/19 20:30:31  5-MIN KAQV 040230Z AUTO 02008KT 10SM BKN015 BKN020 OVC026 07/04 A3012 200 82 -700 010/08 RMK AO2 T00670039 -700 360/09G15 RMK AO2 SLP202 T00670033 51016
03949KAQV AQV20190303203512503/03/19 20:35:31  5-MIN KAQV 040235Z AUTO 01007KT 10SM BKN015 BKN020 OVC026 07/04 A3012 190 82 -700 360/07 RMK AO2 T00670039
03949KAQV AQV20190303204012703/03/19 20:40:31  5-MIN KAQV 040240Z AUTO 01007KT 320V050 10SM BKN015 BKN020 OVC025 A3012 200 82 -700 010/05 RMK AO2 T00670039
03949KAQV AQV20190303204014103/03/19 20:40:31  5-MIN KAQV 040240Z AUTO 01007KT 320V050 10SM BKN015 BKN020 OVC025 07/03 A3012 190 79 -700 010/07 320V050 RMK AO2 T00670033
03949KAQV AQV20190303204514003/03/19 20:45:31  5-MIN KAQV 040245Z AUTO 01009G14KT 330V030 10SM BKN017 OVC031 07/03 A3012 190 79 -700 010/09G14 330V030 RMK AO2 T00670033
03949KAQV AQV20190303204516103/03/19 20:45:31  5-MIN KAQV 040245Z AUTO 01009G14KT 330V030 10SM BKN017 OVC031 07/03 A3012 190 79 -700 010/09G14 330V030 RM 82 -700 360/07G15 RMK AO2 T00610033
03949KAQV AQV20190303205013703/03/19 20:50:31  5-MIN KAQV 040250Z AUTO 36009G15KT 10SM BKN017 OVC021 07/03 A3012 190 79 -700 360/09G15 RMK AO2 SLP202 T00670033 51016
03949KAQV AQV20190303205508003/03/19 20:55:31  5-MIN KAQV 040255Z AUTO 36008KT 10SM BKN017 RMK AO2 T00670039
03949KAQV AQV20190303205513103/03/19 20:55:31  5-MIN KAQV 040255Z AUTO 36008KT 10SM BKN017 OVC021 07/03 A3012 190 79 -700 360/08 RMK AO2 SLP202 T00670033 51016
03949KAQV AQV20190303210011803/03/19 21:00:31  5-MIN KAQV 040300Z AUTO 36007KT 10SM BKN015 OVC021 07/03 A3012 190 79 -700 360/07 RMK AO2 T00670033
03949KAQV AQV20190303210513103/03/19 21:05:31  5-MIN KAQV 040305Z AUTO 36007G15KT 10SM BKN015 BKN021 OVC032 06/03 A3012 190 82 -700 360/07G15 RMK AO2 T00610033
03949KAQV AQV20190303211013103/03/19 21:10:31  5-MIN KAQV 040310Z AUTO 02008G15KT 10SM BKN016 BKN021 OVC030 06/03 A3013 190 82 -800 010/08G15 RMK AO2 T00610033
03949KAQV AQV20190303211514103/03/19 21:15:31  5-MIN KAQV 040315Z AUTO 01008KT 340V050 10SM BKN016 BKN021 OVC030 06/03 A3013 190 79 -800 010/08 340V050 RMK AO2 T00610028
03949KAQV AQV20190303212011803/03/19 21:20:31  5-MIN KAQV 040320Z AUTO 36006KT 10SM BKN016 OVC030 06/03 A3013 180 79 -800 360/06 RMK AO2 T00610028
03949KAQV AQV20190303212511803/03/19 21:25:31  5-MIN KAQV 040325Z AUTO 02006KT 10SM BKN016 OVC030 06/03 A3014 180 82 -800 020/06 RMK AO2 T00610033
03949KAQV AQV20190303213011803/03/19 21:30:31  5-MIN KAQV 040330Z AUTO 02008KT 10SM BKN016 OVC030 06/03 A3014 170 79 -800 010/08 RMK AO2 T00610028
03949KAQV AQV20190303213512403/03/19 21:35:31  5-MIN KAQV 040335Z AUTO 02009G18KT 10SM BKN016 OVC022 06/03 A3014 170 79 -800 020/09G18 RMK AO2 T00610028
03949KAQV AQV20190303214014003/03/19 21:40:31  5-MIN KAQV 040340Z AUTO 01007G18KT 330V050 10SM BKN016 OVC025 06/03 A3014 170 79 -800 010/07G18 330V050 RMK AO2 T00610028
03949KAQV AQV20190303214511803/03/19 21:45:31  5-MIN KAQV 040345Z AUTO 02007KT 10SM BKN016 OVC025 06/03 A3014 170 79 -800 020/07 RMK AO2 T00610028
03949KAQV AQV20190303215013103/03/19 21:50:31  5-MIN KAQV 040350Z AUTO 03010G18KT 10SM BKN016 OVC025 06/02 A3014 170 76 -800 020/10G18 RMK AO2 SLP209 T00610022
03949KAQV AQV20190303215513103/03/19 21:55:31  5-MIN KAQV 040355Z AUTO 01006G18KT 10SM BKN016 OVC025 06/02 A3014 170 79 -800 010/06G18 RMK AO2 SLP209 T00560022
03949KAQV AQV20190303220012403/03/19 22:00:31  5-MIN KAQV 040400Z AUTO 01006G18KT 10SM BKN016 OVC025 06/03 A3015 170 82 -800 010/06G18 RMK AO2 T00560028
03949KAQV AQV20190303220513403/03/19 22:05:31  5-MIN KAQV 040405Z AUTO 36007KT 320V040 10SM BKN016 OVC023 06/03 A3015 170 79 -800 360/07 320V040 RMK AO2 T00610028
03949KAQV AQV20190303221011803/03/19 22:10:31  5-MIN KAQV 040410Z AUTO 02007KT 10SM BKN016 OVC023 06/02 A3015 170 79 -800 010/07 RMK AO2 T00560022
03949KAQV AQV20190303221512503/03/19 22:15:31  5-MIN KAQV 040415Z AUTO 01008KT 10SM SCT017 BKN023 OVC028 06/02 A3015 170 79 -800 360/08 RMK AO2 T00560022
03949KAQV AQV20190303222012503/03/19 22:20:31  5-MIN KAQV 040420Z AUTO 01008KT 10SM FEW017 BKN023 OVC032 06/02 A3015 160 79 -800 010/08 RMK AO2 T00560022
03949KAQV AQV20190303222512503/03/19 22:25:31  5-MIN KAQV 040425Z AUTO 01009KT 10SM FEW017 BKN023 OVC032 06/02 A3015 160 79 -800 010/09 RMK AO2 T00560022
03949KAQV AQV20190303223012503/03/19 22:30:31  5-MIN KAQV 040430Z AUTO 01008KT 10SM FEW019 BKN025 OVC032 06/02 A3015 160 79 -800 010/08 RMK AO2 T00560022
03949KAQV AQV20190303223512403/03/19 22:35:31  5-MIN KAQV 040435Z AUTO 01009G17KT 10SM BKN022 OVC030 06/02 A3015 160 79 -900 010/09G17 RMK AO2 T00560022
03949KAQV AQV20190303224013103/03/19 22:40:31  5-MIN KAQV 040440Z AUTO 01009G17KT 10SM BKN019 BKN026 OVC032 06/02 A3016 160 79 -900 360/09G17 RMK AO2 T00560022
03949KAQV AQV20190303224512403/03/19 22:45:31  5-MIN KAQV 040445Z AUTO 36007G17KT 10SM BKN019 OVC030 06/02 A3016 160 79 -900 360/07G17 RMK AO2 T00560022
03949KAQV AQV20190303225012503/03/19 22:50:31  5-MIN KAQV 040450Z AUTO 01008KT 10SM BKN019 OVC030 06/02 A3016 160 79 -900 010/08 RMK AO2 SLP213 T00560022
03949KAQV AQV20190303225513103/03/19 22:55:31  5-MIN KAQV 040455Z AUTO 01010G16KT 10SM BKN020 OVC027 06/02 A3016 160 79 -900 010/10G16 RMK AO2 SLP214 T00560022
03949KAQV AQV20190303230013303/03/19 23:00:31  5-MIN KAQV 040500Z AUTO 01009G17KT 330V030 10SM OVC020 06/02 A3016 160 79 -900 010/09G17 330V030 RMK AO2 T00560022
03949KAQV AQV20190303230512403/03/19 23:05:31  5-MIN KAQV 040505Z AUTO 36007G17KT 10SM FEW016 OVC022 06/02 A3016 150 79 -900 350/07G17 RMK AO2 T00560022
03949KAQV AQV20190303231012403/03/19 23:10:31  5-MIN KAQV 040510Z AUTO 01009G16KT 10SM FEW016 OVC022 05/02 A3016 150 82 -900 010/09G16 RMK AO2 T00500022
03949KAQV AQV20190303231512403/03/19 23:15:31  5-MIN KAQV 040515Z AUTO 01009G18KT 10SM SCT016 OVC024 05/02 A3017 150 79 -900 010/09G18 RMK AO2 T00500017
03949KAQV AQV20190303232012403/03/19 23:20:31  5-MIN KAQV 040520Z AUTO 03010G18KT 10SM BKN016 OVC025 05/02 A3017 150 79 -900 020/10G18 RMK AO2 T00500017
03949KAQV AQV20190303232512403/03/19 23:25:31  5-MIN KAQV 040525Z AUTO 02006G18KT 10SM SCT016 OVC022 05/02 A3017 150 79 -900 010/06G18 RMK AO2 T00500017
03949KAQV AQV20190303233012403/03/19 23:30:31  5-MIN KAQV 040530Z AUTO 03010G18KT 10SM BKN014 OVC024 05/02 A3016 150 82 -900 020/10G18 RMK AO2 T00500022
03949KAQV AQV20190303233514703/03/19 23:35:31  5-MIN KAQV 040535Z AUTO 01008G18KT 330V040 10SM BKN014 BKN019 OVC026 05/02 A3016 150 82 -900 010/08G18 330V040 RMK AO2 T00500022
03949KAQV AQV20190303234014003/03/19 23:40:31  5-MIN KAQV 040540Z AUTO 03007G16KT 340V060 10SM BKN014 OVC020 05/02 A3016 150 79 -900 020/07G16 340V060 RMK AO2 T00500017
03949KAQV AQV20190303234511703/03/19 23:45:31  5-MIN KAQV 040545Z AUTO 02007G15KT 10SM OVC014 05/02 A3016 150 82 -900 020/07G15 RMK AO2 T00500022
03949KAQV AQV20190303235014603/03/19 23:50:31  5-MIN KAQV 040550Z AUTO 03007KT 10SM OVC014 05/02 A3016 150 79 -900 020/07 RMK AO2 SLP216 T00500017 10072 20050 401390050 51022
03949KAQV AQV20190303235514603/03/19 23:55:31  5-MIN KAQV 040555Z AUTO 03006KT 10SM OVC014 05/02 A3016 150 82 -900 020/06 RMK AO2 SLP215 T00500022 10072 20050 401390050 51022
03949KAQV AQV20190304000011103/04/19 00:00:31  5-MIN KAQV 040600Z AUTO 03006KT 10SM OVC014 05/02 A3016 150 79 -900 020/06 RMK AO2 T00500017
03949KAQV AQV20190304000511203/04/19 00:05:31  5-MIN KAQV 040605Z AUTO 02006KT 10SM OVC014 04/02 A3016 150 82 -1000 020/06 RMK AO2 T00440017
03949KAQV AQV20190304001011203/04/19 00:10:31  5-MIN KAQV 040610Z AUTO VRB05KT 10SM OVC014 04/02 A3016 150 82 -1000 VRB/05 RMK AO2 T00440017
03949KAQV AQV20190304001511203/04/19 00:15:31  5-MIN KAQV 040615Z AUTO 02006KT 10SM OVC014 04/02 A3016 150 82 -1000 010/06 RMK AO2 T00440017
03949KAQV AQV20190304002012803/04/19 00:20:31  5-MIN KAQV 040620Z AUTO 01007KT 350V060 10SM OVC014 04/02 A3017 150 82 -1000 010/07 350V060 RMK AO2 T00440017
03949KAQV AQV20190304002511203/04/19 00:25:31  5-MIN KAQV 040625Z AUTO VRB06KT 10SM OVC014 04/02 A3016 150 82 -1000 VRB/06 RMK AO2 T00440017
03949KAQV AQV20190304003011203/04/19 00:30:31  5-MIN KAQV 040630Z AUTO 01006KT 10SM OVC016 04/02 A3017 150 82 -1000 010/06 RMK AO2 T00440017
03949KAQV AQV20190304003511203/04/19 00:35:31  5-MIN KAQV 040635Z AUTO 01005KT 10SM OVC016 04/02 A3017 150 82 -1000 360/05 RMK AO2 T00440017
03949KAQV AQV20190304004011203/04/19 00:40:31  5-MIN KAQV 040640Z AUTO 02007KT 10SM OVC016 04/02 A3017 150 82 -1000 010/07 RMK AO2 T00440017
03949KAQV AQV20190304004511203/04/19 00:45:31  5-MIN KAQV 040645Z AUTO 01007KT 10SM OVC016 04/01 A3016 150 79 -1000 010/07 RMK AO2 T00440011
03949KAQV AQV20190304005013503/04/19 00:50:31  5-MIN KAQV 040650Z AUTO 01008KT 330V040 10SM OVC018 04/01 A3017 150 79 -1000 010/08 330V040 RMK AO2 SLP217 T00440011
03949KAQV AQV20190304005514803/04/19 00:55:31  5-MIN KAQV 040655Z AUTO 02008G16KT 340V060 10SM BKN018 OVC026 04/01 A3016 150 79 -1000 020/08G16 340V060 RMK AO2 SLP217 T00440011
03949KAQV AQV20190304010014103/04/19 01:00:31  5-MIN KAQV 040700Z AUTO 02008G16KT 360V060 10SM BKN018 OVC026 04/01 A3017 150 79 -1000 020/08G16 360V060 RMK AO2 T00440011
03949KAQV AQV20190304010511803/04/19 01:05:31  5-MIN KAQV 040705Z AUTO 36009G16KT 10SM OVC018 04/01 A3017 150 76 -1000 360/09G16 RMK AO2 T00440006
03949KAQV AQV20190304011013403/04/19 01:10:31  5-MIN KAQV 040710Z AUTO 01008G16KT 330V030 10SM OVC019 04/01 A3017 140 76 -1000 010/08G16 330V030 RMK AO2 T00440006
03949KAQV AQV20190304011511803/04/19 01:15:31  5-MIN KAQV 040715Z AUTO 01006G16KT 10SM OVC019 04/01 A3018 140 76 -1000 010/06G16 RMK AO2 T00440006
03949KAQV AQV20190304012011803/04/19 01:20:31  5-MIN KAQV 040720Z AUTO 01007G15KT 10SM OVC019 04/01 A3017 140 76 -1000 010/07G15 RMK AO2 T00440006
03949KAQV AQV20190304012511803/04/19 01:25:31  5-MIN KAQV 040725Z AUTO 01008G16KT 10SM OVC019 04/01 A3017 150 76 -1000 360/08G16 RMK AO2 T00440006
03949KAQV AQV20190304013011803/04/19 01:30:31  5-MIN KAQV 040730Z AUTO 02006G16KT 10SM OVC020 04/01 A3016 150 79 -1100 010/06G16 RMK AO2 T00390006
03949KAQV AQV20190304013511803/04/19 01:35:31  5-MIN KAQV 040735Z AUTO 01006G14KT 10SM OVC020 04/01 A3017 150 79 -1100 010/06G14 RMK AO2 T00390006
03949KAQV AQV20190304014011803/04/19 01:40:31  5-MIN KAQV 040740Z AUTO 01007G14KT 10SM OVC021 04/01 A3016 150 79 -1100 010/07G14 RMK AO2 T00390006
03949KAQV AQV20190304014511803/04/19 01:45:31  5-MIN KAQV 040745Z AUTO 01011G15KT 10SM OVC021 04/01 A3016 150 79 -1100 360/11G15 RMK AO2 T00390006
03949KAQV AQV20190304015012503/04/19 01:50:31  5-MIN KAQV 040750Z AUTO 01007G15KT 10SM OVC021 04/00 A3017 150 76 -1100 010/07G15 RMK AO2 SLP218 T00390000
03949KAQV AQV20190304015512503/04/19 01:55:31  5-MIN KAQV 040755Z AUTO 01008G17KT 10SM OVC022 04/00 A3016 150 76 -1100 010/08G17 RMK AO2 SLP217 T00390000
03949KAQV AQV20190304020011803/04/19 02:00:31  5-MIN KAQV 040800Z AUTO 02008G17KT 10SM OVC022 04/00 A3016 150 76 -1100 010/08G17 RMK AO2 T00390000
03949KAQV AQV20190304020511803/04/19 02:05:31  5-MIN KAQV 040805Z AUTO 02009G15KT 10SM OVC023 04/00 A3016 150 76 -1100 020/09G15 RMK AO2 T00390000
03949KAQV AQV20190304021011203/04/19 02:10:31  5-MIN KAQV 040810Z AUTO VRB05KT 10SM OVC023 04/00 A3016 150 76 -1100 VRB/05 RMK AO2 T00390000
03949KAQV AQV20190304021511203/04/19 02:15:31  5-MIN KAQV 040815Z AUTO 01006KT 10SM OVC023 04/00 A3016 150 76 -1100 010/06 RMK AO2 T00390000
03949KAQV AQV20190304022011903/04/19 02:20:31  5-MIN KAQV 040820Z AUTO 02005KT 10SM FEW018 OVC025 04/00 A3016 150 76 -1100 010/05 RMK AO2 T00390000
03949KAQV AQV20190304022511903/04/19 02:25:31  5-MIN KAQV 040825Z AUTO VRB06KT 10SM SCT018 OVC025 04/00 A3016 150 76 -1100 VRB/06 RMK AO2 T00390000
03949KAQV AQV20190304023011903/04/19 02:30:31  5-MIN KAQV 040830Z AUTO VRB06KT 10SM SCT018 OVC025 04/01 A3016 160 79 -1100 VRB/06 RMK AO2 T00390006
03949KAQV AQV20190304023511903/04/19 02:35:31  5-MIN KAQV 040835Z AUTO 01007KT 10SM BKN018 OVC025 04/00 A3016 160 76 -1100 010/07 RMK AO2 T00390000
03949KAQV AQV20190304024011903/04/19 02:40:31  5-MIN KAQV 040840Z AUTO 01007KT 10SM BKN018 OVC025 04/00 A3016 160 76 -1100 010/07 RMK AO2 T00390000
03949KAQV AQV20190304024511903/04/19 02:45:31  5-MIN KAQV 040845Z AUTO 02006KT 10SM BKN018 OVC025 03/00 A3015 160 79 -1100 020/06 RMK AO2 T00330000
03949KAQV AQV20190304025013203/04/19 02:50:31  5-MIN KAQV 040850Z AUTO 01007KT 10SM BKN018 OVC024 03/00 A3016 160 79 -1100 360/07 RMK AO2 SLP214 T00330000 51013
03949KAQV AQV20190304025513803/04/19 02:55:31  5-MIN KAQV 040855Z AUTO 02007G15KT 10SM BKN018 OVC024 03/00 A3016 160 79 -1100 010/07G15 RMK AO2 SLP214 T00330000 51013
03949KAQV AQV20190304030012503/04/19 03:00:31  5-MIN KAQV 040900Z AUTO 01006G15KT 10SM BKN020 OVC026 03/00 A3015 160 79 -1100 360/06G15 RMK AO2 T00330000
03949KAQV AQV20190304030512603/04/19 03:05:31  5-MIN KAQV 040905Z AUTO 01007G16KT 10SM BKN020 OVC026 03/M01 A3015 160 76 -1100 010/07G16 RMK AO2 T00331006
03949KAQV AQV20190304031012603/04/19 03:10:31  5-MIN KAQV 040910Z AUTO 02008G16KT 10SM SCT020 OVC026 03/M01 A3015 160 76 -1100 020/08G16 RMK AO2 T00331006
03949KAQV AQV20190304031514203/04/19 03:15:31  5-MIN KAQV 040915Z AUTO 02007G16KT 360V060 10SM SCT020 OVC026 03/M01 A3015 160 76 -1100 020/07G16 360V060 RMK AO2 T00331006
03949KAQV AQV20190304032012003/04/19 03:20:31  5-MIN KAQV 040920Z AUTO 36005KT 10SM SCT019 OVC026 03/M01 A3015 160 76 -1100 360/05 RMK AO2 T00331006
03949KAQV AQV20190304032512003/04/19 03:25:31  5-MIN KAQV 040925Z AUTO VRB06KT 10SM BKN022 OVC026 03/M01 A3016 160 76 -1100 VRB/06 RMK AO2 T00331006
03949KAQV AQV20190304033012903/04/19 03:30:31  5-MIN KAQV 040930Z AUTO 01007KT 320V040 10SM OVC024 03/M01 A3016 150 76 -1100 360/07 320V040 RMK AO2 T00331006
03949KAQV AQV20190304033511903/04/19 03:35:31  5-MIN KAQV 040935Z AUTO 02010G16KT 10SM OVC022 03/M01 A3016 160 76 -1100 010/10G16 RMK AO2 T00331006
03949KAQV AQV20190304034013503/04/19 03:40:31  5-MIN KAQV 040940Z AUTO 02007G16KT 340V040 10SM OVC024 03/M01 A3016 160 76 -1100 020/07G16 340V040 RMK AO2 T00331006
03949KAQV AQV20190304034512003/04/19 03:45:31  5-MIN KAQV 040945Z AUTO 01008KT 10SM BKN022 OVC027 03/M01 A3016 150 76 -1100 360/08 RMK AO2 T00331006
03949KAQV AQV20190304035012703/04/19 03:50:31  5-MIN KAQV 040950Z AUTO 01007KT 10SM BKN022 OVC028 03/M01 A3016 150 76 -1100 360/07 RMK AO2 SLP217 T00331006
03949KAQV AQV20190304035512703/04/19 03:55:31  5-MIN KAQV 040955Z AUTO 01005KT 10SM BKN023 OVC028 03/M01 A3017 150 76 -1100 010/05 RMK AO2 SLP219 T00331006
03949KAQV AQV20190304040012003/04/19 04:00:31  5-MIN KAQV 041000Z AUTO VRB04KT 10SM BKN023 OVC028 03/M01 A3017 150 79 -1200 VRB/04 RMK AO2 T00281006
03949KAQV AQV20190304040512003/04/19 04:05:31  5-MIN KAQV 041005Z AUTO VRB04KT 10SM SCT020 OVC027 03/M01 A3017 150 79 -1200 VRB/04 RMK AO2 T00281006
03949KAQV AQV20190304041012603/04/19 04:10:31  5-MIN KAQV 041010Z AUTO 02010G15KT 10SM SCT023 OVC027 03/M01 A3017 150 75 -1200 020/10G15 RMK AO2 T00281011
03949KAQV AQV20190304041512603/04/19 04:15:31  5-MIN KAQV 041015Z AUTO 01009G15KT 10SM SCT021 OVC029 03/M01 A3017 140 75 -1200 010/09G15 RMK AO2 T00281011
03949KAQV AQV20190304042014303/04/19 04:20:31  5-MIN KAQV 041020Z AUTO 02008KT 360V060 10SM FEW020 BKN026 OVC031 03/M01 A3018 140 75 -1200 010/08 360V060 RMK AO2 T00281011
03949KAQV AQV20190304042512703/04/19 04:25:31  5-MIN KAQV 041025Z AUTO VRB06KT 10SM FEW020 SCT026 OVC031 03/M01 A3018 130 75 -1200 VRB/06 RMK AO2 T00281011
03949KAQV AQV20190304043012603/04/19 04:30:31  5-MIN KAQV 041030Z AUTO 02011G15KT 10SM FEW022 OVC031 03/M02 A3018 140 72 -1200 010/11G15 RMK AO2 T00281017
03949KAQV AQV20190304043512603/04/19 04:35:31  5-MIN KAQV 041035Z AUTO 01009G16KT 10SM FEW022 OVC033 03/M02 A3019 130 72 -1200 010/09G16 RMK AO2 T00281017
03949KAQV AQV20190304044011903/04/19 04:40:31  5-MIN KAQV 041040Z AUTO 01005G16KT 10SM OVC033 03/M02 A3019 130 72 -1200 010/05G16 RMK AO2 T00281017
03949KAQV AQV20190304044512003/04/19 04:45:31  5-MIN KAQV 041045Z AUTO 01006KT 10SM FEW018 OVC033 03/M02 A3019 130 72 -1200 360/06 RMK AO2 T00281017
03949KAQV AQV20190304045013403/04/19 04:50:31  5-MIN KAQV 041050Z AUTO 36006KT 10SM SCT018 SCT025 OVC033 03/M01 A3019 120 75 -1200 350/06 RMK AO2 SLP227 T00281011
03949KAQV AQV20190304045512703/04/19 04:55:31  5-MIN KAQV 041055Z AUTO 36006KT 10SM SCT020 OVC033 03/M01 A3020 120 75 -1200 360/06 RMK AO2 SLP227 T00281011
03949KAQV AQV20190304050013603/04/19 05:00:31  5-MIN KAQV 041100Z AUTO 01007KT 340V050 10SM SCT022 OVC033 02/M02 A3020 120 75 -1300 360/07 340V050 RMK AO2 T00221017
03949KAQV AQV20190304050512603/04/19 05:05:31  5-MIN KAQV 041105Z AUTO 36009G15KT 10SM SCT022 OVC031 02/M02 A3020 120 75 -1300 350/09G15 RMK AO2 T00221017
03949KAQV AQV20190304051012603/04/19 05:10:31  5-MIN KAQV 041110Z AUTO 01007G15KT 10SM SCT021 OVC031 02/M02 A3021 110 72 -1300 360/07G15 RMK AO2 T00221022
03949KAQV AQV20190304051512003/04/19 05:15:31  5-MIN KAQV 041115Z AUTO 36009KT 10SM FEW021 OVC031 02/M02 A3021 110 72 -1300 360/09 RMK AO2 T00221022
03949KAQV AQV20190304052012003/04/19 05:20:31  5-MIN KAQV 041120Z AUTO 36006KT 10SM FEW021 OVC031 02/M02 A3021 110 72 -1300 360/06 RMK AO2 T00221022
03949KAQV AQV20190304052512003/04/19 05:25:31  5-MIN KAQV 041125Z AUTO 35005KT 10SM SCT021 OVC030 02/M02 A3021 110 75 -1300 340/05 RMK AO2 T00221017
03949KAQV AQV20190304053012003/04/19 05:30:31  5-MIN KAQV 041130Z AUTO 35004KT 10SM SCT021 OVC030 02/M02 A3021 110 75 -1300 350/04 RMK AO2 T00221017
03949KAQV AQV20190304053512003/04/19 05:35:31  5-MIN KAQV 041135Z AUTO 36005KT 10SM SCT021 OVC030 02/M02 A3022 100 75 -1300 350/05 RMK AO2 T00221017
03949KAQV AQV20190304054012003/04/19 05:40:31  5-MIN KAQV 041140Z AUTO 36007KT 10SM BKN023 OVC029 02/M02 A3023 100 75 -1300 360/07 RMK AO2 T00221017
03949KAQV AQV20190304054512603/04/19 05:45:31  5-MIN KAQV 041145Z AUTO 36006KT 10SM BKN023 OVC029 02/M02 A3023 90 72 -1400 360/06 RMK AO2 PRESRR T00221022
03949KAQV AQV20190304055015003/04/19 05:50:31  5-MIN KAQV 041150Z AUTO 36006KT 10SM BKN023 OVC028 02/M02 A3023 90 72 -1400 360/06 RMK AO2 SLP240 70001 T00221022 10050 20022 58002
03949KAQV AQV20190304055514303/04/19 05:55:31  5-MIN KAQV 041155Z AUTO 36007KT 10SM OVC022 02/M02 A3023 90 72 -1400 360/07 RMK AO2 SLP241 70001 T00221022 10050 20022 58002
03949KAQV AQV20190304060011203/04/19 06:00:31  5-MIN KAQV 041200Z AUTO 36005KT 10SM OVC022 02/M02 A3024 80 72 -1400 360/05 RMK AO2 T00221022
03949KAQV AQV20190304060511203/04/19 06:05:31  5-MIN KAQV 041205Z AUTO 36007KT 10SM OVC022 02/M02 A3025 80 75 -1400 360/07 RMK AO2 T00171022
03949KAQV AQV20190304061011203/04/19 06:10:31  5-MIN KAQV 041210Z AUTO VRB06KT 10SM OVC022 02/M02 A3025 80 75 -1400 VRB/06 RMK AO2 T00171022
03949KAQV AQV20190304061511203/04/19 06:15:31  5-MIN KAQV 041215Z AUTO VRB04KT 10SM OVC022 02/M02 A3024 80 75 -1400 VRB/04 RMK AO2 T00171022
03949KAQV AQV20190304062011203/04/19 06:20:31  5-MIN KAQV 041220Z AUTO 35007KT 10SM OVC022 02/M02 A3025 80 75 -1400 350/07 RMK AO2 T00171022
03949KAQV AQV20190304062511903/04/19 06:25:31  5-MIN KAQV 041225Z AUTO 36007KT 10SM BKN022 OVC029 02/M02 A3025 70 75 -1400 360/07 RMK AO2 T00171022
03949KAQV AQV20190304063011903/04/19 06:30:31  5-MIN KAQV 041230Z AUTO 36008KT 10SM BKN022 OVC029 02/M03 A3025 70 72 -1400 360/08 RMK AO2 T00171028
03949KAQV AQV20190304063512503/04/19 06:35:31  5-MIN KAQV 041235Z AUTO 36006G14KT 10SM BKN022 OVC029 02/M03 A3025 70 72 -1400 360/06G14 RMK AO2 T00171028
03949KAQV AQV20190304064012503/04/19 06:40:31  5-MIN KAQV 041240Z AUTO 01010G17KT 10SM BKN022 OVC029 02/M03 A3025 70 72 -1400 360/10G17 RMK AO2 T00171028
03949KAQV AQV20190304064514103/04/19 06:45:31  5-MIN KAQV 041245Z AUTO 01007G17KT 350V050 10SM SCT022 OVC029 02/M03 A3025 70 72 -1500 010/07G17 350V050 RMK AO2 T00171028
03949KAQV AQV20190304065012603/04/19 06:50:31  5-MIN KAQV 041250Z AUTO 01008KT 10SM SCT022 OVC029 02/M03 A3026 60 72 -1500 360/08 RMK AO2 SLP249 T00171028
03949KAQV AQV20190304065513203/04/19 06:55:31  5-MIN KAQV 041255Z AUTO 01009G15KT 10SM SCT023 OVC029 02/M03 A3026 70 72 -1500 010/09G15 RMK AO2 SLP248 T00171028
03949KAQV AQV20190304070014103/04/19 07:00:31  5-MIN KAQV 041300Z AUTO 01007G15KT 340V040 10SM SCT023 OVC029 02/M03 A3026 70 72 -1500 360/07G15 340V040 RMK AO2 T00171028
03949KAQV AQV20190304070512503/04/19 07:05:31  5-MIN KAQV 041305Z AUTO 36008G17KT 10SM SCT023 OVC029 02/M03 A3026 70 72 -1500 360/08G17 RMK AO2 T00171028
03949KAQV AQV20190304071011803/04/19 07:10:31  5-MIN KAQV 041310Z AUTO 36008G17KT 10SM OVC027 02/M03 A3026 70 72 -1500 360/08G17 RMK AO2 T00171028
03949KAQV AQV20190304071513403/04/19 07:15:31  5-MIN KAQV 041315Z AUTO 01007G15KT 340V040 10SM OVC027 02/M03 A3026 70 72 -1500 360/07G15 340V040 RMK AO2 T00171028
03949KAQV AQV20190304072011803/04/19 07:20:31  5-MIN KAQV 041320Z AUTO 01009G15KT 10SM OVC027 02/M03 A3026 60 72 -1500 010/09G15 RMK AO2 T00171028
03949KAQV AQV20190304072512503/04/19 07:25:31  5-MIN KAQV 041325Z AUTO 01009G16KT 10SM BKN024 OVC029 01/M03 A3026 60 75 -1500 360/09G16 RMK AO2 T00111028
03949KAQV AQV20190304073011803/04/19 07:30:31  5-MIN KAQV 041330Z AUTO 36010G16KT 10SM OVC024 01/M03 A3026 60 72 -1500 360/10G16 RMK AO2 T00111033
03949KAQV AQV20190304073511803/04/19 07:35:31  5-MIN KAQV 041335Z AUTO 01011G17KT 10SM OVC024 01/M03 A3026 60 72 -1500 010/11G17 RMK AO2 T00111033
03949KAQV AQV20190304074013403/04/19 07:40:31  5-MIN KAQV 041340Z AUTO 02009G17KT 350V060 10SM OVC024 01/M03 A3027 60 72 -1500 020/09G17 350V060 RMK AO2 T00111033
03949KAQV AQV20190304074514103/04/19 07:45:31  5-MIN KAQV 041345Z AUTO 02011G17KT 360V060 10SM BKN024 OVC029 01/M03 A3027 50 72 -1500 020/11G17 360V060 RMK AO2 T00111033
03949KAQV AQV20190304075012503/04/19 07:50:31  5-MIN KAQV 041350Z AUTO 01009G17KT 10SM OVC024 01/M03 A3028 50 72 -1500 360/09G17 RMK AO2 SLP255 T00111033
03949KAQV AQV20190304075512503/04/19 07:55:31  5-MIN KAQV 041355Z AUTO 01009G16KT 10SM OVC026 01/M03 A3027 50 72 -1500 010/09G16 RMK AO2 SLP254 T00111033
03949KAQV AQV20190304080011803/04/19 08:00:31  5-MIN KAQV 041400Z AUTO 01011G17KT 10SM OVC026 01/M04 A3027 60 69 -1500 010/11G17 RMK AO2 T00111039
03949KAQV AQV20190304080512503/04/19 08:05:31  5-MIN KAQV 041405Z AUTO 36011G18KT 10SM BKN023 OVC028 01/M04 A3027 50 69 -1500 360/11G18 RMK AO2 T00111039
03949KAQV AQV20190304081013403/04/19 08:10:31  5-MIN KAQV 041410Z AUTO 01010G18KT 320V040 10SM OVC023 01/M04 A3028 40 69 -1600 010/10G18 320V040 RMK AO2 T00111039
03949KAQV AQV20190304081511803/04/19 08:15:31  5-MIN KAQV 041415Z AUTO 01010G15KT 10SM OVC023 01/M04 A3029 40 69 -1600 010/10G15 RMK AO2 T00111039
03949KAQV AQV20190304082013403/04/19 08:20:31  5-MIN KAQV 041420Z AUTO 36008G15KT 320V030 10SM OVC023 01/M04 A3029 40 69 -1600 360/08G15 320V030 RMK AO2 T00111039
03949KAQV AQV20190304082511203/04/19 08:25:31  5-MIN KAQV 041425Z AUTO 36007KT 10SM OVC025 01/M04 A3029 30 69 -1600 360/07 RMK AO2 T00111039
03949KAQV AQV20190304083011803/04/19 08:30:31  5-MIN KAQV 041430Z AUTO 01010G16KT 10SM OVC025 01/M04 A3029 40 69 -1600 360/10G16 RMK AO2 T00111039
03949KAQV AQV20190304083512503/04/19 08:35:31  5-MIN KAQV 041435Z AUTO 36010G16KT 10SM BKN025 OVC031 01/M04 A3029 40 69 -1600 360/10G16 RMK AO2 T00111039
03949KAQV AQV20190304084011903/04/19 08:40:31  5-MIN KAQV 041440Z AUTO 36008KT 10SM BKN025 OVC031 01/M04 A3029 30 69 -1600 360/08 RMK AO2 T00111039
03949KAQV AQV20190304084511903/04/19 08:45:31  5-MIN KAQV 041445Z AUTO 01009KT 10SM BKN025 OVC033 01/M04 A3030 30 69 -1600 010/09 RMK AO2 T00111039
03949KAQV AQV20190304085013203/04/19 08:50:31  5-MIN KAQV 041450Z AUTO 34008KT 10SM BKN023 OVC033 01/M04 A3030 30 69 -1600 340/08 RMK AO2 SLP262 T00111039 53027
03949KAQV AQV20190304085513803/04/19 08:55:31  5-MIN KAQV 041455Z AUTO 02012G21KT 10SM BKN023 OVC033 01/M04 A3029 30 69 -1600 010/12G21 RMK AO2 SLP260 T00111039 53027
03949KAQV AQV20190304090012503/04/19 09:00:31  5-MIN KAQV 041500Z AUTO 01011G21KT 10SM BKN023 OVC033 01/M04 A3029 30 66 -1600 010/11G21 RMK AO2 T00111044
03949KAQV AQV20190304090511803/04/19 09:05:31  5-MIN KAQV 041505Z AUTO 36009G16KT 10SM OVC023 01/M04 A3030 30 69 -1600 360/09G16 RMK AO2 T00111039
03949KAQV AQV20190304091012503/04/19 09:10:31  5-MIN KAQV 041510Z AUTO 01011G18KT 10SM BKN023 OVC032 01/M04 A3030 30 66 -1600 360/11G18 RMK AO2 T00111044
03949KAQV AQV20190304091511803/04/19 09:15:31  5-MIN KAQV 041515Z AUTO 02009G18KT 10SM OVC023 01/M04 A3030 20 66 -1600 020/09G18 RMK AO2 T00111044
03949KAQV AQV20190304092012803/04/19 09:20:31  5-MIN KAQV 041520Z AUTO 02007KT 340V040 10SM OVC023 01/M04 A3030 30 69 -1600 010/07 340V040 RMK AO2 T00111039
03949KAQV AQV20190304092511203/04/19 09:25:31  5-MIN KAQV 041525Z AUTO 36009KT 10SM OVC023 02/M04 A3030 30 66 -1500 360/09 RMK AO2 T00171039
03949KAQV AQV20190304093011803/04/19 09:30:31  5-MIN KAQV 041530Z AUTO 01011G16KT 10SM OVC023 01/M04 A3031 20 69 -1600 360/11G16 RMK AO2 T00111039
03949KAQV AQV20190304093511803/04/19 09:35:31  5-MIN KAQV 041535Z AUTO 01009G16KT 10SM OVC023 01/M04 A3031 20 69 -1600 360/09G16 RMK AO2 T00111039
03949KAQV AQV20190304094011203/04/19 09:40:31  5-MIN KAQV 041540Z AUTO 01008KT 10SM OVC023 01/M04 A3031 20 69 -1600 360/08 RMK AO2 T00111039
03949KAQV AQV20190304094514103/04/19 09:45:31  5-MIN KAQV 041545Z AUTO 01010G16KT 330V040 10SM BKN025 OVC029 01/M04 A3030 20 69 -1600 010/10G16 330V040 RMK AO2 T00111039
03949KAQV AQV20190304095013203/04/19 09:50:31  5-MIN KAQV 041550Z AUTO 01007G16KT 10SM BKN025 OVC030 01/M04 A3030 20 69 -1600 010/07G16 RMK AO2 SLP264 T00111039
03949KAQV AQV20190304095514803/04/19 09:55:31  5-MIN KAQV 041555Z AUTO 01007G14KT 330V030 10SM BKN025 OVC030 02/M04 A3030 30 66 -1500 360/07G14 330V030 RMK AO2 SLP262 T00171039
03949KAQV AQV20190304100011903/04/19 10:00:31  5-MIN KAQV 041600Z AUTO 35008KT 10SM BKN024 OVC030 02/M04 A3030 30 66 -1500 350/08 RMK AO2 T00171039
03949KAQV AQV20190304100512503/04/19 10:05:31  5-MIN KAQV 041605Z AUTO 01011G16KT 10SM BKN024 OVC030 02/M04 A3030 30 66 -1500 360/11G16 RMK AO2 T00171039
03949KAQV AQV20190304101011903/04/19 10:10:31  5-MIN KAQV 041610Z AUTO 01010KT 10SM BKN024 OVC030 01/M04 A3030 20 69 -1600 360/10 RMK AO2 T00111039
03949KAQV AQV20190304101511203/04/19 10:15:31  5-MIN KAQV 041615Z AUTO 01010KT 10SM OVC024 01/M04 A3030 20 69 -1600 010/10 RMK AO2 T00111039
03949KAQV AQV20190304102011203/04/19 10:20:31  5-MIN KAQV 041620Z AUTO 03010KT 10SM OVC026 02/M04 A3030 20 64 -1500 030/10 RMK AO2 T00171044
03949KAQV AQV20190304102511803/04/19 10:25:31  5-MIN KAQV 041625Z AUTO 01010G16KT 10SM OVC026 02/M04 A3030 30 64 -1500 010/10G16 RMK AO2 T00171044
03949KAQV AQV20190304103011803/04/19 10:30:31  5-MIN KAQV 041630Z AUTO 36008G14KT 10SM OVC024 02/M04 A3030 30 64 -1500 360/08G14 RMK AO2 T00171044
03949KAQV AQV20190304103511803/04/19 10:35:31  5-MIN KAQV 041635Z AUTO 03009G14KT 10SM OVC024 01/M04 A3029 30 69 -1600 020/09G14 RMK AO2 T00111039
03949KAQV AQV20190304104011803/04/19 10:40:31  5-MIN KAQV 041640Z AUTO 35008G14KT 10SM OVC024 02/M04 A3029 40 66 -1500 350/08G14 RMK AO2 T00171039
03949KAQV AQV20190304104511203/04/19 10:45:31  5-MIN KAQV 041645Z AUTO 01009KT 10SM OVC024 02/M04 A3029 40 66 -1500 010/09 RMK AO2 T00171039
03949KAQV AQV20190304105011903/04/19 10:50:31  5-MIN KAQV 041650Z AUTO 03010KT 10SM OVC024 02/M04 A3029 40 66 -1500 030/10 RMK AO2 SLP260 T00171039
03949KAQV AQV20190304105511903/04/19 10:55:31  5-MIN KAQV 041655Z AUTO 03009KT 10SM OVC024 02/M04 A3029 40 64 -1500 030/09 RMK AO2 SLP259 T00171044
03949KAQV AQV20190304110011203/04/19 11:00:31  5-MIN KAQV 041700Z AUTO 01007KT 10SM OVC023 02/M04 A3029 40 66 -1500 360/07 RMK AO2 T00171039
03949KAQV AQV20190304110511803/04/19 11:05:31  5-MIN KAQV 041705Z AUTO 01008G15KT 10SM OVC023 02/M04 A3028 40 64 -1400 010/08G15 RMK AO2 T00221039
03949KAQV AQV20190304111011803/04/19 11:10:31  5-MIN KAQV 041710Z AUTO 03011G19KT 10SM OVC023 02/M04 A3028 40 64 -1400 030/11G19 RMK AO2 T00221039
03949KAQV AQV20190304111513403/04/19 11:15:31  5-MIN KAQV 041715Z AUTO 36007G19KT 310V040 10SM OVC023 03/M04 A3028 50 61 -1300 360/07G19 310V040 RMK AO2 T00281039
03949KAQV AQV20190304112011203/04/19 11:20:31  5-MIN KAQV 041720Z AUTO VRB05KT 10SM OVC024 04/M03 A3028 50 59 -1200 VRB/05 RMK AO2 T00391033
03949KAQV AQV20190304112511203/04/19 11:25:31  5-MIN KAQV 041725Z AUTO 03010KT 10SM OVC024 04/M03 A3028 40 57 -1100 030/10 RMK AO2 T00441033
03949KAQV AQV20190304113012803/04/19 11:30:31  5-MIN KAQV 041730Z AUTO 35008KT 320V030 10SM OVC024 03/M04 A3028 50 59 -1300 350/08 320V030 RMK AO2 T00331039
03949KAQV AQV20190304113513403/04/19 11:35:31  5-MIN KAQV 041735Z AUTO 36009G16KT 320V020 10SM OVC025 03/M04 A3028 40 61 -1300 350/09G16 320V020 RMK AO2 T00281039
03949KAQV AQV20190304114012503/04/19 11:40:31  5-MIN KAQV 041740Z AUTO 03010G16KT 10SM BKN025 BKN110 03/M04 A3028 40 59 -1300 030/10G16 RMK AO2 T00331039
03949KAQV AQV20190304114513403/04/19 11:45:31  5-MIN KAQV 041745Z AUTO 02008G17KT 340V050 10SM BKN025 04/M04 A3028 40 57 -1200 010/08G17 340V050 RMK AO2 T00391039
03949KAQV AQV20190304115014303/04/19 11:50:31  5-MIN KAQV 041750Z AUTO 02009G17KT 10SM BKN027 04/M03 A3029 30 59 -1200 020/09G17 RMK AO2 SLP261 T00391033 10044 20011 53019
03949KAQV AQV20190304115515903/04/19 11:55:31  5-MIN KAQV 041755Z AUTO 03008G15KT 320V080 10SM BKN027 04/M04 A3029 40 57 -1200 020/08G15 320V080 RMK AO2 SLP259 T00391039 10044 20011 53019
03949KAQV AQV20190304120011803/04/19 12:00:31  5-MIN KAQV 041800Z AUTO 01006G15KT 10SM BKN029 04/M04 A3029 40 57 -1200 010/06G15 RMK AO2 T00391039
03949KAQV AQV20190304120511803/04/19 12:05:31  5-MIN KAQV 041805Z AUTO 35009G15KT 10SM BKN029 03/M04 A3029 40 59 -1300 350/09G15 RMK AO2 T00331039
03949KAQV AQV20190304121013403/04/19 12:10:31  5-MIN KAQV 041810Z AUTO 03009G15KT 360V060 10SM BKN029 04/M03 A3028 40 57 -1100 020/09G15 360V060 RMK AO2 T00441033
03949KAQV AQV20190304121511203/04/19 12:15:31  5-MIN KAQV 041815Z AUTO VRB06KT 10SM BKN029 04/M04 A3028 40 57 -1200 VRB/06 RMK AO2 T00391039
03949KAQV AQV20190304122011903/04/19 12:20:31  5-MIN KAQV 041820Z AUTO VRB05KT 10SM BKN029 OVC090 03/M04 A3028 40 59 -1300 VRB/05 RMK AO2 T00331039
03949KAQV AQV20190304122512503/04/19 12:25:31  5-MIN KAQV 041825Z AUTO 02010G17KT 10SM SCT030 OVC085 03/M04 A3028 40 57 -1300 010/10G17 RMK AO2 T00331044
03949KAQV AQV20190304123014103/04/19 12:30:31  5-MIN KAQV 041830Z AUTO 01007G17KT 340V060 10SM SCT030 OVC085 03/M04 A3028 50 57 -1300 010/07G17 340V060 RMK AO2 T00331044
03949KAQV AQV20190304123511903/04/19 12:35:31  5-MIN KAQV 041835Z AUTO 02009KT 10SM FEW030 OVC085 03/M04 A3027 50 57 -1300 020/09 RMK AO2 T00331044
03949KAQV AQV20190304124011903/04/19 12:40:31  5-MIN KAQV 041840Z AUTO 03009KT 10SM FEW032 OVC085 03/M04 A3027 50 57 -1300 020/09 RMK AO2 T00331044
03949KAQV AQV20190304124511803/04/19 12:45:31  5-MIN KAQV 041845Z AUTO 03008G15KT 10SM OVC085 03/M04 A3027 50 57 -1300 020/08G15 RMK AO2 T00331044
03949KAQV AQV20190304125011903/04/19 12:50:31  5-MIN KAQV 041850Z AUTO 35006KT 10SM OVC085 03/M04 A3027 60 57 -1300 350/06 RMK AO2 SLP252 T00331044
03949KAQV AQV20190304125512603/04/19 12:55:31  5-MIN KAQV 041855Z AUTO VRB04KT 10SM FEW033 OVC085 03/M04 A3026 60 59 -1200 VRB/04 RMK AO2 SLP249 T00331039
03949KAQV AQV20190304130011903/04/19 13:00:31  5-MIN KAQV 041900Z AUTO VRB05KT 10SM FEW033 OVC085 03/M04 A3026 60 59 -1200 VRB/05 RMK AO2 T00331039
03949KAQV AQV20190304130511903/04/19 13:05:31  5-MIN KAQV 041905Z AUTO 01006KT 10SM FEW032 OVC085 03/M04 A3025 70 59 -1200 360/06 RMK AO2 T00331039
03949KAQV AQV20190304131011903/04/19 13:10:31  5-MIN KAQV 041910Z AUTO 36008KT 10SM FEW032 OVC085 03/M04 A3025 70 57 -1200 360/08 RMK AO2 T00331044
03949KAQV AQV20190304131511903/04/19 13:15:31  5-MIN KAQV 041915Z AUTO VRB04KT 10SM FEW032 OVC085 03/M04 A3025 80 57 -1200 VRB/04 RMK AO2 T00331044
03949KAQV AQV20190304132013503/04/19 13:20:31  5-MIN KAQV 041920Z AUTO 02008KT 350V060 10SM SCT033 OVC080 03/M04 A3024 80 59 -1200 020/08 350V060 RMK AO2 T00331039
03949KAQV AQV20190304132511903/04/19 13:25:31  5-MIN KAQV 041925Z AUTO 35007KT 10SM FEW033 OVC080 03/M04 A3024 80 57 -1200 350/07 RMK AO2 T00331044
03949KAQV AQV20190304133011903/04/19 13:30:31  5-MIN KAQV 041930Z AUTO VRB06KT 10SM FEW033 OVC080 03/M04 A3024 90 59 -1200 VRB/06 RMK AO2 T00331039
03949KAQV AQV20190304133511903/04/19 13:35:31  5-MIN KAQV 041935Z AUTO VRB05KT 10SM FEW033 OVC080 03/M04 A3023 90 59 -1200 VRB/05 RMK AO2 T00331039
03949KAQV AQV20190304134011903/04/19 13:40:31  5-MIN KAQV 041940Z AUTO 02008KT 10SM FEW033 OVC080 04/M04 A3023 90 57 -1100 020/08 RMK AO2 T00391039
03949KAQV AQV20190304134511903/04/19 13:45:31  5-MIN KAQV 041945Z AUTO 02009KT 10SM FEW033 OVC080 03/M04 A3023 90 59 -1200 010/09 RMK AO2 T00331039
03949KAQV AQV20190304135011903/04/19 13:50:31  5-MIN KAQV 041950Z AUTO VRB05KT 10SM OVC080 03/M04 A3024 90 57 -1200 VRB/05 RMK AO2 SLP241 T00331044
03949KAQV AQV20190304135512603/04/19 13:55:31  5-MIN KAQV 041955Z AUTO 36005KT 10SM FEW031 OVC080 03/M04 A3023 90 59 -1200 360/05 RMK AO2 SLP240 T00331039
03949KAQV AQV20190304140011903/04/19 14:00:31  5-MIN KAQV 042000Z AUTO 35005KT 10SM FEW034 OVC080 03/M04 A3024 80 59 -1200 350/05 RMK AO2 T00331039
03949KAQV AQV20190304140513503/04/19 14:05:31  5-MIN KAQV 042005Z AUTO 01007KT 340V060 10SM FEW034 OVC080 04/M04 A3024 80 57 -1200 010/07 340V060 RMK AO2 T00391039
03949KAQV AQV20190304141011903/04/19 14:10:31  5-MIN KAQV 042010Z AUTO VRB05KT 10SM SCT034 OVC075 04/M04 A3023 90 57 -1100 VRB/05 RMK AO2 T00391039
03949KAQV AQV20190304141511903/04/19 14:15:31  5-MIN KAQV 042015Z AUTO 03008KT 10SM SCT034 OVC075 04/M04 A3023 90 57 -1100 020/08 RMK AO2 T00391039
03949KAQV AQV20190304142014103/04/19 14:20:31  5-MIN KAQV 042020Z AUTO 03007G15KT 350V050 10SM SCT035 OVC075 03/M04 A3024 80 57 -1200 020/07G15 350V050 RMK AO2 T00331044
03949KAQV AQV20190304142512503/04/19 14:25:31  5-MIN KAQV 042025Z AUTO 02006G15KT 10SM SCT035 OVC075 04/M04 A3023 90 54 -1200 020/06G15 RMK AO2 T00391044
03949KAQV AQV20190304143011903/04/19 14:30:31  5-MIN KAQV 042030Z AUTO 01008KT 10SM FEW035 OVC075 04/M04 A3025 80 54 -1200 360/08 RMK AO2 T00391044
03949KAQV AQV20190304143511903/04/19 14:35:31  5-MIN KAQV 042035Z AUTO 36008KT 10SM FEW035 OVC075 03/M04 A3024 80 57 -1200 360/08 RMK AO2 T00331044
03949KAQV AQV20190304144013503/04/19 14:40:31  5-MIN KAQV 042040Z AUTO 02008KT 10SM -RA FEW035 OVC075 04/M04 A3024 80 54 -1200 010/08 RMK AO2 RAB40 P0000 T00391044
03949KAQV AQV20190304144514403/04/19 14:45:31  5-MIN KAQV 042045Z AUTO 36007KT 320V040 10SM -RA OVC070 03/M04 A3024 80 59 -1200 360/07 320V040 RMK AO2 RAB40 P0000 T00331039
03949KAQV AQV20190304145015403/04/19 14:50:31  5-MIN KAQV 042050Z AUTO 36007KT 10SM -RA FEW037 OVC075 03/M03 A3023 90 61 -1200 360/07 RMK AO2 RAB40 SLP241 P0000 60000 T00331033 58001
03949KAQV AQV20190304145515303/04/19 14:55:31  5-MIN KAQV 042055Z AUTO 01007KT 10SM FEW037 OVC070 03/M04 A3023 90 59 -1200 010/07 RMK AO2 RAB40E54 SLP240 P0000 60000 T00331039 58001
03949KAQV AQV20190304150011203/04/19 15:00:31  5-MIN KAQV 042100Z AUTO 02005KT 10SM OVC070 03/M03 A3023 90 61 -1200 010/05 RMK AO2 T00331033
03949KAQV AQV20190304150511203/04/19 15:05:31  5-MIN KAQV 042105Z AUTO 01006KT 10SM OVC070 03/M03 A3024 90 61 -1200 360/06 RMK AO2 T00331033
03949KAQV AQV20190304151011303/04/19 15:10:31  5-MIN KAQV 042110Z AUTO 01008KT 10SM OVC070 03/M03 A3022 100 61 -1200 010/08 RMK AO2 T00331033
03949KAQV AQV20190304151511203/04/19 15:15:31  5-MIN KAQV 042115Z AUTO VRB05KT 10SM OVC070 04/M04 A3023 90 57 -1100 VRB/05 RMK AO2 T00391039
03949KAQV AQV20190304152011203/04/19 15:20:31  5-MIN KAQV 042120Z AUTO 36005KT 10SM OVC070 04/M04 A3023 90 57 -1100 360/05 RMK AO2 T00391039
03949KAQV AQV20190304152511203/04/19 15:25:31  5-MIN KAQV 042125Z AUTO 02005KT 10SM OVC070 04/M04 A3023 90 54 -1100 020/05 RMK AO2 T00391044
03949KAQV AQV20190304153011203/04/19 15:30:31  5-MIN KAQV 042130Z AUTO 36004KT 10SM OVC070 04/M04 A3024 80 54 -1200 350/04 RMK AO2 T00391044
03949KAQV AQV20190304153511203/04/19 15:35:31  5-MIN KAQV 042135Z AUTO VRB06KT 10SM OVC070 04/M04 A3025 80 54 -1200 VRB/06 RMK AO2 T00391044
03949KAQV AQV20190304154011203/04/19 15:40:31  5-MIN KAQV 042140Z AUTO VRB06KT 10SM OVC070 04/M04 A3024 80 54 -1200 VRB/06 RMK AO2 T00391044
03949KAQV AQV20190304154511203/04/19 15:45:31  5-MIN KAQV 042145Z AUTO 36006KT 10SM OVC070 04/M04 A3024 80 54 -1200 350/06 RMK AO2 T00391044
03949KAQV AQV20190304155011903/04/19 15:50:31  5-MIN KAQV 042150Z AUTO VRB05KT 10SM OVC070 04/M04 A3024 80 54 -1200 VRB/05 RMK AO2 SLP242 T00391044
03949KAQV AQV20190304155511903/04/19 15:55:31  5-MIN KAQV 042155Z AUTO 36006KT 10SM OVC065 04/M04 A3024 80 54 -1200 360/06 RMK AO2 SLP243 T00391044
03949KAQV AQV20190304160011903/04/19 16:00:31  5-MIN KAQV 042200Z AUTO 34005KT 10SM FEW041 OVC065 04/M04 A3024 80 54 -1200 330/05 RMK AO2 T00391044
03949KAQV AQV20190304160511903/04/19 16:05:31  5-MIN KAQV 042205Z AUTO 36004KT 10SM SCT041 OVC065 04/M04 A3024 90 52 -1100 350/04 RMK AO2 T00441044
03949KAQV AQV20190304161011903/04/19 16:10:31  5-MIN KAQV 042210Z AUTO 34004KT 10SM SCT041 OVC065 04/M04 A3023 90 55 -1100 340/04 RMK AO2 T00441039
03949KAQV AQV20190304161511903/04/19 16:15:31  5-MIN KAQV 042215Z AUTO VRB05KT 10SM BKN041 OVC065 04/M04 A3024 90 57 -1200 VRB/05 RMK AO2 T00391039
03949KAQV AQV20190304162011903/04/19 16:20:31  5-MIN KAQV 042220Z AUTO VRB04KT 10SM BKN041 OVC065 04/M04 A3023 90 57 -1100 VRB/04 RMK AO2 T00391039
03949KAQV AQV20190304162511903/04/19 16:25:31  5-MIN KAQV 042225Z AUTO 01004KT 10SM BKN039 OVC065 04/M03 A3023 90 59 -1100 360/04 RMK AO2 T00391033
03949KAQV AQV20190304163011203/04/19 16:30:31  5-MIN KAQV 042230Z AUTO VRB06KT 10SM OVC039 04/M04 A3024 80 57 -1200 VRB/06 RMK AO2 T00391039
03949KAQV AQV20190304163511903/04/19 16:35:31  5-MIN KAQV 042235Z AUTO 36006KT 10SM BKN039 OVC065 04/M04 A3023 90 57 -1100 360/06 RMK AO2 T00391039
03949KAQV AQV20190304164011903/04/19 16:40:31  5-MIN KAQV 042240Z AUTO VRB03KT 10SM BKN039 OVC060 04/M03 A3024 90 59 -1200 VRB/03 RMK AO2 T00391033
03949KAQV AQV20190304164511903/04/19 16:45:31  5-MIN KAQV 042245Z AUTO VRB05KT 10SM BKN039 OVC065 04/M03 A3024 80 59 -1200 VRB/05 RMK AO2 T00391033
03949KAQV AQV20190304165012603/04/19 16:50:31  5-MIN KAQV 042250Z AUTO 35006KT 10SM BKN039 OVC065 04/M04 A3024 80 54 -1200 350/06 RMK AO2 SLP244 T00391044
03949KAQV AQV20190304165512603/04/19 16:55:31  5-MIN KAQV 042255Z AUTO VRB05KT 10SM BKN039 OVC065 04/M04 A3024 80 57 -1200 VRB/05 RMK AO2 SLP244 T00391039
03949KAQV AQV20190304170011903/04/19 17:00:31  5-MIN KAQV 042300Z AUTO 36007KT 10SM SCT039 OVC065 04/M04 A3025 80 54 -1200 350/07 RMK AO2 T00391044
03949KAQV AQV20190304170511903/04/19 17:05:31  5-MIN KAQV 042305Z AUTO 36007KT 10SM FEW039 OVC065 04/M04 A3025 80 54 -1200 360/07 RMK AO2 T00391044
03949KAQV AQV20190304171011903/04/19 17:10:31  5-MIN KAQV 042310Z AUTO 01005KT 10SM SCT040 OVC065 04/M04 A3025 80 54 -1200 010/05 RMK AO2 T00391044
03949KAQV AQV20190304171511903/04/19 17:15:31  5-MIN KAQV 042315Z AUTO VRB04KT 10SM SCT040 OVC065 04/M04 A3025 70 54 -1200 VRB/04 RMK AO2 T00391044
03949KAQV AQV20190304172011903/04/19 17:20:31  5-MIN KAQV 042320Z AUTO 35006KT 10SM FEW040 OVC060 04/M04 A3026 70 54 -1200 340/06 RMK AO2 T00391044
03949KAQV AQV20190304172511903/04/19 17:25:31  5-MIN KAQV 042325Z AUTO VRB04KT 10SM SCT040 OVC060 04/M04 A3026 60 54 -1200 VRB/04 RMK AO2 T00391044
03949KAQV AQV20190304173011903/04/19 17:30:31  5-MIN KAQV 042330Z AUTO VRB04KT 10SM BKN040 OVC060 04/M04 A3026 70 54 -1200 VRB/04 RMK AO2 T00391044
03949KAQV AQV20190304173511903/04/19 17:35:31  5-MIN KAQV 042335Z AUTO 36004KT 10SM BKN040 OVC060 04/M04 A3026 60 57 -1200 360/04 RMK AO2 T00391039
03949KAQV AQV20190304174011903/04/19 17:40:31  5-MIN KAQV 042340Z AUTO VRB04KT 10SM SCT040 OVC060 03/M04 A3026 60 57 -1300 VRB/04 RMK AO2 T00331044
03949KAQV AQV20190304174511903/04/19 17:45:31  5-MIN KAQV 042345Z AUTO VRB05KT 10SM SCT039 OVC060 04/M04 A3026 70 54 -1200 VRB/05 RMK AO2 T00391044
03949KAQV AQV20190304175015003/04/19 17:50:31  5-MIN KAQV 042350Z AUTO VRB04KT 10SM SCT039 OVC060 03/M04 A3026 60 57 -1300 VRB/04 RMK AO2 SLP252 60000 T00331044 10044 20033 56018
03949KAQV AQV20190304175515003/04/19 17:55:31  5-MIN KAQV 042355Z AUTO VRB04KT 10SM BKN040 OVC060 03/M04 A3026 60 57 -1300 VRB/04 RMK AO2 SLP252 60000 T00331044 10044 20033 56018
03949KAQV AQV20190304180011903/04/19 18:00:31  5-MIN KAQV 050000Z AUTO VRB04KT 10SM BKN040 OVC060 03/M04 A3026 60 57 -1300 VRB/04 RMK AO2 T00331044
03949KAQV AQV20190304180511903/04/19 18:05:31  5-MIN KAQV 050005Z AUTO 35004KT 10SM BKN041 OVC060 03/M04 A3026 60 57 -1200 350/04 RMK AO2 T00331044
03949KAQV AQV20190304181011903/04/19 18:10:31  5-MIN KAQV 050010Z AUTO 35006KT 10SM BKN041 OVC060 03/M04 A3027 60 57 -1300 350/06 RMK AO2 T00331044
03949KAQV AQV20190304181511903/04/19 18:15:31  5-MIN KAQV 050015Z AUTO 36007KT 10SM BKN041 OVC060 03/M04 A3026 60 57 -1300 360/07 RMK AO2 T00331044
03949KAQV AQV20190304182011903/04/19 18:20:31  5-MIN KAQV 050020Z AUTO 36006KT 10SM BKN041 OVC065 03/M04 A3026 60 57 -1300 360/06 RMK AO2 T00331044
03949KAQV AQV20190304182511903/04/19 18:25:31  5-MIN KAQV 050025Z AUTO 36006KT 10SM SCT041 OVC060 03/M05 A3027 60 54 -1300 350/06 RMK AO2 T00331050
03949KAQV AQV20190304183011903/04/19 18:30:31  5-MIN KAQV 050030Z AUTO 01007KT 10SM SCT041 OVC060 03/M04 A3027 50 57 -1300 010/07 RMK AO2 T00331044
03949KAQV AQV20190304183511903/04/19 18:35:31  5-MIN KAQV 050035Z AUTO 01008KT 10SM SCT042 OVC060 03/M05 A3027 60 54 -1300 360/08 RMK AO2 T00331050
03949KAQV AQV20190304184011903/04/19 18:40:31  5-MIN KAQV 050040Z AUTO 01005KT 10SM FEW042 OVC060 03/M05 A3026 60 56 -1300 360/05 RMK AO2 T00281050
03949KAQV AQV20190304184511203/04/19 18:45:31  5-MIN KAQV 050045Z AUTO VRB05KT 10SM OVC060 03/M05 A3027 60 56 -1300 VRB/05 RMK AO2 T00281050
03949KAQV AQV20190304185011903/04/19 18:50:31  5-MIN KAQV 050050Z AUTO VRB05KT 10SM OVC060 03/M05 A3027 50 56 -1300 VRB/05 RMK AO2 SLP255 T00281050
03949KAQV AQV20190304185511903/04/19 18:55:31  5-MIN KAQV 050055Z AUTO 36005KT 10SM OVC060 03/M06 A3027 60 54 -1300 360/05 RMK AO2 SLP253 T00281056
03949KAQV AQV20190304190011203/04/19 19:00:31  5-MIN KAQV 050100Z AUTO 35006KT 10SM OVC060 03/M05 A3027 50 56 -1300 350/06 RMK AO2 T00281050
03949KAQV AQV20190304190511203/04/19 19:05:31  5-MIN KAQV 050105Z AUTO VRB05KT 10SM OVC060 03/M05 A3027 60 56 -1300 VRB/05 RMK AO2 T00281050
03949KAQV AQV20190304191011203/04/19 19:10:31  5-MIN KAQV 050110Z AUTO VRB05KT 10SM OVC060 03/M05 A3027 50 56 -1300 VRB/05 RMK AO2 T00281050
03949KAQV AQV20190304191511203/04/19 19:15:31  5-MIN KAQV 050115Z AUTO 01007KT 10SM OVC060 03/M06 A3027 50 54 -1300 360/07 RMK AO2 T00281056
03949KAQV AQV20190304192011203/04/19 19:20:31  5-MIN KAQV 050120Z AUTO VRB06KT 10SM OVC060 03/M06 A3027 50 54 -1300 VRB/06 RMK AO2 T00281056
03949KAQV AQV20190304192511203/04/19 19:25:31  5-MIN KAQV 050125Z AUTO 36006KT 10SM OVC060 03/M06 A3027 50 54 -1300 360/06 RMK AO2 T00281056
03949KAQV AQV20190304193011203/04/19 19:30:31  5-MIN KAQV 050130Z AUTO 36005KT 10SM OVC060 03/M06 A3028 50 54 -1300 360/05 RMK AO2 T00281056
03949KAQV AQV20190304193511203/04/19 19:35:31  5-MIN KAQV 050135Z AUTO VRB04KT 10SM OVC060 03/M06 A3028 40 54 -1300 VRB/04 RMK AO2 T00281056
03949KAQV AQV20190304194011203/04/19 19:40:31  5-MIN KAQV 050140Z AUTO 36006KT 10SM OVC060 03/M06 A3028 40 52 -1300 360/06 RMK AO2 T00281061
03949KAQV AQV20190304194511203/04/19 19:45:31  5-MIN KAQV 050145Z AUTO 36005KT 10SM OVC060 03/M06 A3028 40 52 -1300 350/05 RMK AO2 T00281061
03949KAQV AQV20190304195011903/04/19 19:50:31  5-MIN KAQV 050150Z AUTO VRB06KT 10SM OVC060 03/M06 A3028 40 52 -1300 VRB/06 RMK AO2 SLP259 T00281061
03949KAQV AQV20190304195511903/04/19 19:55:31  5-MIN KAQV 050155Z AUTO 35005KT 10SM OVC060 03/M07 A3029 40 50 -1300 350/05 RMK AO2 SLP260 T00281067
03949KAQV AQV20190304200011203/04/19 20:00:31  5-MIN KAQV 050200Z AUTO 36005KT 10SM OVC060 03/M07 A3029 40 50 -1300 360/05 RMK AO2 T00281067
03949KAQV AQV20190304200512803/04/19 20:05:31  5-MIN KAQV 050205Z AUTO 36007KT 320V020 10SM OVC060 03/M07 A3029 30 50 -1400 350/07 320V020 RMK AO2 T00281067
03949KAQV AQV20190304201011203/04/19 20:10:31  5-MIN KAQV 050210Z AUTO 36005KT 10SM OVC060 03/M07 A3029 30 50 -1400 360/05 RMK AO2 T00281067
03949KAQV AQV20190304201511203/04/19 20:15:31  5-MIN KAQV 050215Z AUTO 01008KT 10SM OVC060 03/M07 A3029 30 50 -1400 360/08 RMK AO2 T00281067
03949KAQV AQV20190304202011203/04/19 20:20:31  5-MIN KAQV 050220Z AUTO VRB06KT 10SM OVC060 03/M07 A3029 30 48 -1400 VRB/06 RMK AO2 T00281072
03949KAQV AQV20190304202511203/04/19 20:25:31  5-MIN KAQV 050225Z AUTO 36008KT 10SM OVC060 02/M07 A3029 30 50 -1400 360/08 RMK AO2 T00221072
03949KAQV AQV20190304203011203/04/19 20:30:31  5-MIN KAQV 050230Z AUTO 36006KT 10SM OVC060 02/M07 A3029 30 50 -1400 360/06 RMK AO2 T00221072
03949KAQV AQV20190304203511203/04/19 20:35:31  5-MIN KAQV 050235Z AUTO 36006KT 10SM OVC060 02/M08 A3029 40 47 -1400 360/06 RMK AO2 T00221078
03949KAQV AQV20190304204011203/04/19 20:40:31  5-MIN KAQV 050240Z AUTO 35005KT 10SM OVC060 02/M07 A3030 30 50 -1400 350/05 RMK AO2 T00221072
03949KAQV AQV20190304204511203/04/19 20:45:31  5-MIN KAQV 050245Z AUTO 01008KT 10SM OVC060 02/M07 A3030 30 50 -1400 360/08 RMK AO2 T00221072
03949KAQV AQV20190304205012503/04/19 20:50:31  5-MIN KAQV 050250Z AUTO VRB05KT 10SM OVC060 02/M07 A3030 30 50 -1400 VRB/05 RMK AO2 SLP264 T00221072 53010
03949KAQV AQV20190304205512503/04/19 20:55:31  5-MIN KAQV 050255Z AUTO VRB04KT 10SM OVC060 02/M07 A3030 30 50 -1400 VRB/04 RMK AO2 SLP265 T00221072 53010
03949KAQV AQV20190304210011203/04/19 21:00:31  5-MIN KAQV 050300Z AUTO VRB04KT 10SM OVC060 02/M07 A3031 20 52 -1400 VRB/04 RMK AO2 T00221067
03949KAQV AQV20190304210511203/04/19 21:05:31  5-MIN KAQV 050305Z AUTO VRB06KT 10SM OVC060 02/M07 A3031 20 50 -1400 VRB/06 RMK AO2 T00221072
03949KAQV AQV20190304211011203/04/19 21:10:31  5-MIN KAQV 050310Z AUTO 35006KT 10SM OVC060 02/M07 A3030 20 50 -1400 350/06 RMK AO2 T00221072
03949KAQV AQV20190304211511203/04/19 21:15:31  5-MIN KAQV 050315Z AUTO VRB05KT 10SM OVC060 02/M08 A3031 20 47 -1400 VRB/05 RMK AO2 T00221078
03949KAQV AQV20190304212011203/04/19 21:20:31  5-MIN KAQV 050320Z AUTO VRB05KT 10SM OVC060 02/M08 A3031 10 47 -1400 VRB/05 RMK AO2 T00221078
03949KAQV AQV20190304212511203/04/19 21:25:31  5-MIN KAQV 050325Z AUTO 36007KT 10SM OVC060 02/M08 A3031 20 47 -1400 360/07 RMK AO2 T00221078
03949KAQV AQV20190304213011203/04/19 21:30:31  5-MIN KAQV 050330Z AUTO VRB05KT 10SM OVC060 02/M08 A3032 10 47 -1500 VRB/05 RMK AO2 T00221078
03949KAQV AQV20190304213511203/04/19 21:35:31  5-MIN KAQV 050335Z AUTO VRB05KT 10SM OVC060 02/M08 A3031 10 47 -1500 VRB/05 RMK AO2 T00171083
03949KAQV AQV20190304214011203/04/19 21:40:31  5-MIN KAQV 050340Z AUTO 36006KT 10SM OVC060 02/M08 A3032 10 47 -1500 350/06 RMK AO2 T00171083
03949KAQV AQV20190304214511203/04/19 21:45:31  5-MIN KAQV 050345Z AUTO 35005KT 10SM OVC060 02/M09 A3032 10 45 -1500 340/05 RMK AO2 T00171089
03949KAQV AQV20190304215011903/04/19 21:50:31  5-MIN KAQV 050350Z AUTO 36008KT 10SM OVC060 02/M09 A3032 10 45 -1500 360/08 RMK AO2 SLP271 T00171089
03949KAQV AQV20190304215511903/04/19 21:55:31  5-MIN KAQV 050355Z AUTO 01009KT 10SM OVC060 02/M09 A3032 10 45 -1500 360/09 RMK AO2 SLP272 T00171089
03949KAQV AQV20190304220011803/04/19 22:00:31  5-MIN KAQV 050400Z AUTO 36007G15KT 10SM OVC060 01/M09 A3032 10 45 -1600 360/07G15 RMK AO2 T00111094
03949KAQV AQV20190304220511703/04/19 22:05:31  5-MIN KAQV 050405Z AUTO 01007G15KT 10SM OVC060 01/M09 A3032 0 45 -1600 360/07G15 RMK AO2 T00111094
03949KAQV AQV20190304221013303/04/19 22:10:31  5-MIN KAQV 050410Z AUTO 36007G17KT 320V040 10SM OVC060 01/M09 A3033 0 45 -1600 350/07G17 320V040 RMK AO2 T00111094
03949KAQV AQV20190304221511703/04/19 22:15:31  5-MIN KAQV 050415Z AUTO VRB06G17KT 10SM OVC060 01/M10 A3033 0 43 -1600 VRB/06G17 RMK AO2 T00111100
03949KAQV AQV20190304222011103/04/19 22:20:31  5-MIN KAQV 050420Z AUTO 36007KT 10SM OVC060 01/M10 A3033 0 43 -1600 350/07 RMK AO2 T00111100
03949KAQV AQV20190304222512703/04/19 22:25:31  5-MIN KAQV 050425Z AUTO 36008KT 330V030 10SM OVC060 01/M10 A3033 0 43 -1600 360/08 330V030 RMK AO2 T00111100
03949KAQV AQV20190304223011103/04/19 22:30:31  5-MIN KAQV 050430Z AUTO 36005KT 10SM OVC060 01/M10 A3033 0 43 -1600 350/05 RMK AO2 T00111100
03949KAQV AQV20190304223511103/04/19 22:35:31  5-MIN KAQV 050435Z AUTO 36005KT 10SM OVC060 01/M10 A3033 0 43 -1600 360/05 RMK AO2 T00111100
03949KAQV AQV20190304224011103/04/19 22:40:31  5-MIN KAQV 050440Z AUTO 36005KT 10SM OVC060 01/M10 A3034 0 43 -1600 360/05 RMK AO2 T00111100
03949KAQV AQV20190304224511103/04/19 22:45:31  5-MIN KAQV 050445Z AUTO VRB06KT 10SM OVC060 01/M10 A3034 0 43 -1600 VRB/06 RMK AO2 T00111100
03949KAQV AQV20190304225012003/04/19 22:50:31  5-MIN KAQV 050450Z AUTO 35006KT 10SM OVC060 01/M10 A3034 -10 45 -1700 350/06 RMK AO2 SLP278 T00061100
03949KAQV AQV20190304225512003/04/19 22:55:31  5-MIN KAQV 050455Z AUTO 35005KT 10SM OVC060 01/M10 A3034 -10 45 -1700 340/05 RMK AO2 SLP279 T00061100
03949KAQV AQV20190304230011303/04/19 23:00:31  5-MIN KAQV 050500Z AUTO VRB05KT 10SM OVC060 01/M10 A3034 -10 45 -1700 VRB/05 RMK AO2 T00061100
03949KAQV AQV20190304230511103/04/19 23:05:31  5-MIN KAQV 050505Z AUTO 35006KT 10SM OVC060 01/M09 A3034 0 47 -1700 350/06 RMK AO2 T00061094
03949KAQV AQV20190304231011103/04/19 23:10:31  5-MIN KAQV 050510Z AUTO 34005KT 10SM OVC060 01/M09 A3034 0 47 -1700 340/05 RMK AO2 T00061094
03949KAQV AQV20190304231511103/04/19 23:15:31  5-MIN KAQV 050515Z AUTO VRB05KT 10SM OVC060 00/M09 A3034 0 51 -1800 VRB/05 RMK AO2 T00001089
03949KAQV AQV20190304232011103/04/19 23:20:31  5-MIN KAQV 050520Z AUTO VRB06KT 10SM OVC060 00/M08 A3034 0 53 -1800 VRB/06 RMK AO2 T00001083
03949KAQV AQV20190304232511303/04/19 23:25:31  5-MIN KAQV 050525Z AUTO VRB04KT 10SM OVC060 00/M08 A3034 -10 53 -1800 VRB/04 RMK AO2 T00001083
03949KAQV AQV20190304233011303/04/19 23:30:31  5-MIN KAQV 050530Z AUTO VRB04KT 10SM OVC060 00/M08 A3034 -10 53 -1800 VRB/04 RMK AO2 T00001083
03949KAQV AQV20190304233511403/04/19 23:35:31  5-MIN KAQV 050535Z AUTO VRB04KT 10SM OVC060 M01/M08 A3034 -10 58 -1800 VRB/04 RMK AO2 T10061078
03949KAQV AQV20190304234011403/04/19 23:40:31  5-MIN KAQV 050540Z AUTO 35005KT 10SM OVC060 M01/M07 A3034 -10 61 -1800 350/05 RMK AO2 T10061072
03949KAQV AQV20190304234511403/04/19 23:45:31  5-MIN KAQV 050545Z AUTO VRB03KT 10SM BKN060 M01/M07 A3034 -10 61 -1800 VRB/03 RMK AO2 T10061072
03949KAQV AQV20190304235014903/04/19 23:50:31  5-MIN KAQV 050550Z AUTO VRB05KT 10SM BKN060 M01/M07 A3035 -10 61 -1800 VRB/05 RMK AO2 SLP280 T10061072 10033 21006 400501006 53013
03949KAQV AQV20190304235514903/04/19 23:55:31  5-MIN KAQV 050555Z AUTO 35006KT 10SM BKN060 M01/M07 A3035 -10 61 -1800 350/06 RMK AO2 SLP280 T10061072 10033 21006 400501006 53013
03949KAQV AQV20190305000011403/05/19 00:00:31  5-MIN KAQV 050600Z AUTO 34005KT 10SM BKN060 M01/M07 A3035 -10 61 -1800 340/05 RMK AO2 T10061072
03949KAQV AQV20190305000511403/05/19 00:05:31  5-MIN KAQV 050605Z AUTO VRB03KT 10SM BKN060 M01/M07 A3035 -10 63 -1900 VRB/03 RMK AO2 T10111072
03949KAQV AQV20190305001011403/05/19 00:10:31  5-MIN KAQV 050610Z AUTO VRB05KT 10SM BKN060 M01/M07 A3035 -10 63 -1900 VRB/05 RMK AO2 T10111072
03949KAQV AQV20190305001511403/05/19 00:15:31  5-MIN KAQV 050615Z AUTO 35005KT 10SM BKN060 M01/M07 A3035 -10 63 -1900 350/05 RMK AO2 T10111072
03949KAQV AQV20190305002011403/05/19 00:20:31  5-MIN KAQV 050620Z AUTO 35005KT 10SM BKN060 M01/M07 A3035 -10 63 -1900 340/05 RMK AO2 T10111072
03949KAQV AQV20190305002521103/05/19 00:25:31  5-MIN KAQV 050625Z AUTO VRB05KT 10SM BKN060 M01/M07 A3035 -10 63 -1900 VRB/05 RMK AO2 T10111072-20 72 -2100 350/50800Z AUTO 34003KT 10SM CLR M02/M07 A3035 -20 72 -2100 340/03 RMK AO2 T10221067
03949KAQV AQV20190305023011103/05/19 02:30:31  5-MIN KAQV 050830Z AUTO 35003KT 10SM CLR M02/M07 A3035 -20 72 -2100 350/03 RMK AO2 T10221067
03949KAQV AQV20190305023511103/05/19 02:35:31  5-MIN KAQV 050835Z AUTO 00000KT 10SM CLR M02/M07 A3035 -10 72 -2100 000/00 RMK AO2 T10221067
03949KAQV AQV20190305024015903/05/19 02:40:31  5-MIN KAQV 050840Z AUTO 34003KT 10SM CLR M02/M07 A3035 -10 72 -2000 330/03 RMK AO2 T10221067/M07 A3036 -10 74 -2200 VRB/04 RMK AO2 T10331072
03949KAQV AQV20190305041510903/05/19 04:15:31  5-MIN KAQV 051015Z AUTO 34004KT 10SM CLR M03/M07 A3034 0 78 -2200 340/04 RMK AO2 T10331067
03949KAQV AQV20190305042010903/05/19 04:20:31  5-MIN KAQV 051020Z AUTO 35003KT 10SM CLR M03/M07 A3034 0 78 -2200 340/03 RMK AO2 T10331067
03949KAQV AQV20190305042511103/05/19 04:25:31  5-MIN KAQV 051025Z AUTO 34004KT 10SM CLR M03/M07 A3034 -10 78 -2200 340/04 RMK AO2 T10331067
03949KAQV AQV20190305043011103/05/19 04:30:31  5-MIN KAQV 051030Z AUTO 34004KT 10SM CLR M03/M07 A3035 -10 78 -2200 330/04 RMK AO2 T10331067
03949KAQV AQV20190305043511103/05/19 04:35:31  5-MIN KAQV 051035Z AUTO VRB03KT 10SM CLR M03/M07 A3035 -10 78 -2200 VRB/03 RMK AO2 T10331067
03949KAQV AQV20190305044011103/05/19 04:40:31  5-MIN KAQV 051040Z AUTO VRB03KT 10SM CLR M03/M07 A3034 -10 78 -2200 VRB/03 RMK AO2 T10331067
03949KAQV AQV20190305044511103/05/19 04:45:31  5-MIN KAQV 051045Z AUTO 33004KT 10SM CLR M03/M07 A3035 -10 78 -2200 330/04 RMK AO2 T10331067
03949KAQV AQV20190305045011803/05/19 04:50:31  5-MIN KAQV 051050Z AUTO VRB04KT 10SM CLR M03/M07 A3035 -10 74 -2200 VRB/04 RMK AO2 SLP280 T10331072
03949KAQV AQV20190305045511803/05/19 04:55:31  5-MIN KAQV 051055Z AUTO VRB04KT 10SM CLR M03/M07 A3035 -10 78 -2200 VRB/04 RMK AO2 SLP280 T10331067
03949KAQV AQV20190305050011103/05/19 05:00:31  5-MIN KAQV 051100Z AUTO VRB04KT 10SM CLR M03/M07 A3035 -10 74 -2200 VRB/04 RMK AO2 T10331072
03949KAQV AQV20190305050511103/05/19 05:05:31  5-MIN KAQV 051105Z AUTO VRB03KT 10SM CLR M03/M07 A3035 -20 78 -2200 VRB/03 RMK AO2 T10331067
03949KAQV AQV20190305051011103/05/19 05:10:31  5-MIN KAQV 051110Z AUTO VRB03KT 10SM CLR M03/M07 A3035 -20 78 -2200 VRB/03 RMK AO2 T10331067
03949KAQV AQV20190305051511103/05/19 05:15:31  5-MIN KAQV 051115Z AUTO 33003KT 10SM CLR M03/M07 A3036 -20 78 -2200 330/03 RMK AO2 T10331067
03949KAQV AQV20190305052011103/05/19 05:20:31  5-MIN KAQV 051120Z AUTO VRB03KT 10SM CLR M03/M07 A3036 -20 78 -2200 VRB/03 RMK AO2 T10331067
03949KAQV AQV20190305052511103/05/19 05:25:31  5-MIN KAQV 051125Z AUTO VRB04KT 10SM CLR M03/M07 A3036 -30 78 -2200 VRB/04 RMK AO2 T10331067
03949KAQV AQV20190305053011103/05/19 05:30:31  5-MIN KAQV 051130Z AUTO VRB04KT 10SM CLR M03/M07 A3037 -30 78 -2200 VRB/04 RMK AO2 T10331067
03949KAQV AQV20190305053511103/05/19 05:35:31  5-MIN KAQV 051135Z AUTO VRB04KT 10SM CLR M03/M07 A3037 -30 74 -2200 VRB/04 RMK AO2 T10331072
03949KAQV AQV20190305054011103/05/19 05:40:31  5-MIN KAQV 051140Z AUTO 33004KT 10SM CLR M03/M07 A3037 -30 74 -2200 330/04 RMK AO2 T10331072
03949KAQV AQV20190305054511103/05/19 05:45:31  5-MIN KAQV 051145Z AUTO VRB03KT 10SM CLR M03/M07 A3037 -30 74 -2200 VRB/03 RMK AO2 T10331072
03949KAQV AQV20190305055013603/05/19 05:50:31  5-MIN KAQV 051150Z AUTO VRB05KT 10SM CLR M03/M07 A3037 -30 74 -2200 VRB/05 RMK AO2 SLP288 T10331072 11006 21033 58002
03949KAQV AQV20190305055513603/05/19 05:55:31  5-MIN KAQV 051155Z AUTO VRB03KT 10SM CLR M03/M07 A3037 -30 74 -2200 VRB/03 RMK AO2 SLP287 T10331072 11006 21033 58002
03949KAQV AQV20190305060011103/05/19 06:00:31  5-MIN KAQV 051200Z AUTO VRB03KT 10SM CLR M03/M07 A3037 -30 74 -2200 VRB/03 RMK AO2 T10331072
03949KAQV AQV20190305060511103/05/19 06:05:31  5-MIN KAQV 051205Z AUTO VRB03KT 10SM CLR M03/M07 A3037 -30 74 -2200 VRB/03 RMK AO2 T10331072
03949KAQV AQV20190305061011103/05/19 06:10:31  5-MIN KAQV 051210Z AUTO VRB03KT 10SM CLR M04/M07 A3037 -30 78 -2300 VRB/03 RMK AO2 T10391072
03949KAQV AQV20190305061511103/05/19 06:15:31  5-MIN KAQV 051215Z AUTO VRB03KT 10SM CLR M04/M07 A3038 -40 78 -2300 VRB/03 RMK AO2 T10391072
03949KAQV AQV20190305062011103/05/19 06:20:31  5-MIN KAQV 051220Z AUTO 33003KT 10SM CLR M04/M07 A3038 -40 78 -2300 330/03 RMK AO2 T10391072
03949KAQV AQV20190305062511103/05/19 06:25:31  5-MIN KAQV 051225Z AUTO VRB03KT 10SM CLR M04/M07 A3038 -40 78 -2300 VRB/03 RMK AO2 T10391072
03949KAQV AQV20190305063011103/05/19 06:30:31  5-MIN KAQV 051230Z AUTO 33003KT 10SM CLR M04/M07 A3038 -40 78 -2300 330/03 RMK AO2 T10391072
03949KAQV AQV20190305063511103/05/19 06:35:31  5-MIN KAQV 051235Z AUTO VRB04KT 10SM CLR M04/M07 A3039 -50 78 -2300 VRB/04 RMK AO2 T10391072
03949KAQV AQV20190305064011103/05/19 06:40:31  5-MIN KAQV 051240Z AUTO VRB03KT 10SM CLR M04/M07 A3039 -50 78 -2300 VRB/03 RMK AO2 T10391072
03949KAQV AQV20190305064511103/05/19 06:45:31  5-MIN KAQV 051245Z AUTO VRB03KT 10SM CLR M04/M07 A3040 -60 78 -2300 VRB/03 RMK AO2 T10391072
03949KAQV AQV20190305065011803/05/19 06:50:31  5-MIN KAQV 051250Z AUTO VRB03KT 10SM CLR M04/M07 A3040 -60 78 -2300 VRB/03 RMK AO2 SLP299 T10391072
03949KAQV AQV20190305065511803/05/19 06:55:31  5-MIN KAQV 051255Z AUTO VRB03KT 10SM CLR M04/M08 A3039 -50 74 -2300 VRB/03 RMK AO2 SLP297 T10391078
03949KAQV AQV20190305070011103/05/19 07:00:31  5-MIN KAQV 051300Z AUTO VRB03KT 10SM CLR M03/M08 A3040 -60 71 -2200 VRB/03 RMK AO2 T10331078
03949KAQV AQV20190305070511103/05/19 07:05:31  5-MIN KAQV 051305Z AUTO VRB03KT 10SM CLR M03/M08 A3040 -60 71 -2200 VRB/03 RMK AO2 T10331078
03949KAQV AQV20190305071011103/05/19 07:10:31  5-MIN KAQV 051310Z AUTO VRB04KT 10SM CLR M03/M08 A3039 -50 71 -2200 VRB/04 RMK AO2 T10331078
03949KAQV AQV20190305071511103/05/19 07:15:31  5-MIN KAQV 051315Z AUTO 33004KT 10SM CLR M03/M08 A3039 -50 71 -2200 330/04 RMK AO2 T10331078
03949KAQV AQV20190305072011103/05/19 07:20:31  5-MIN KAQV 051320Z AUTO VRB03KT 10SM CLR M03/M08 A3040 -60 71 -2200 VRB/03 RMK AO2 T10331078
03949KAQV AQV20190305072511103/05/19 07:25:31  5-MIN KAQV 051325Z AUTO VRB04KT 10SM CLR M03/M08 A3040 -60 68 -2200 VRB/04 RMK AO2 T10281078
03949KAQV AQV20190305073011103/05/19 07:30:31  5-MIN KAQV 051330Z AUTO 33004KT 10SM CLR M03/M08 A3040 -60 68 -2200 330/04 RMK AO2 T10281078
03949KAQV AQV20190305073511103/05/19 07:35:31  5-MIN KAQV 051335Z AUTO VRB05KT 10SM CLR M02/M08 A3041 -70 66 -2100 VRB/05 RMK AO2 T10221078
03949KAQV AQV20190305074011103/05/19 07:40:31  5-MIN KAQV 051340Z AUTO VRB05KT 10SM CLR M02/M08 A3041 -70 66 -2100 VRB/05 RMK AO2 T10221078
03949KAQV AQV20190305074511103/05/19 07:45:31  5-MIN KAQV 051345Z AUTO VRB05KT 10SM CLR M02/M08 A3042 -80 63 -2100 VRB/05 RMK AO2 T10171078
03949KAQV AQV20190305075011803/05/19 07:50:31  5-MIN KAQV 051350Z AUTO 00000KT 10SM CLR M02/M08 A3042 -70 63 -2100 000/00 RMK AO2 SLP303 T10171078
03949KAQV AQV20190305075511803/05/19 07:55:31  5-MIN KAQV 051355Z AUTO VRB04KT 10SM CLR M01/M08 A3042 -80 60 -2000 VRB/04 RMK AO2 SLP304 T10111078
03949KAQV AQV20190305080011103/05/19 08:00:31  5-MIN KAQV 051400Z AUTO VRB04KT 10SM CLR M02/M08 A3042 -70 63 -2100 VRB/04 RMK AO2 T10171078
03949KAQV AQV20190305080511103/05/19 08:05:31  5-MIN KAQV 051405Z AUTO VRB06KT 10SM CLR M01/M08 A3041 -70 58 -2000 VRB/06 RMK AO2 T10111083
03949KAQV AQV20190305081011103/05/19 08:10:31  5-MIN KAQV 051410Z AUTO 36007KT 10SM CLR M01/M08 A3042 -80 60 -2000 360/07 RMK AO2 T10111078
03949KAQV AQV20190305081511103/05/19 08:15:31  5-MIN KAQV 051415Z AUTO 35007KT 10SM CLR M01/M08 A3042 -80 58 -2000 350/07 RMK AO2 T10111083
03949KAQV AQV20190305082012703/05/19 08:20:31  5-MIN KAQV 051420Z AUTO 01007KT 330V030 10SM CLR M01/M08 A3042 -80 58 -2000 360/07 330V030 RMK AO2 T10111083
03949KAQV AQV20190305082511103/05/19 08:25:31  5-MIN KAQV 051425Z AUTO VRB04KT 10SM CLR M01/M08 A3042 -80 58 -1900 VRB/04 RMK AO2 T10061078
03949KAQV AQV20190305083011103/05/19 08:30:31  5-MIN KAQV 051430Z AUTO VRB06KT 10SM CLR M01/M08 A3042 -80 56 -1900 VRB/06 RMK AO2 T10061083
03949KAQV AQV20190305083511003/05/19 08:35:31  5-MIN KAQV 051435Z AUTO 02007KT 10SM CLR 00/M08 A3042 -70 56 -1800 020/07 RMK AO2 T00001078
03949KAQV AQV20190305084011003/05/19 08:40:31  5-MIN KAQV 051440Z AUTO 01008KT 10SM CLR 00/M08 A3042 -70 53 -1800 010/08 RMK AO2 T00001083
03949KAQV AQV20190305084511003/05/19 08:45:31  5-MIN KAQV 051445Z AUTO VRB05KT 10SM CLR 00/M08 A3042 -80 53 -1800 VRB/05 RMK AO2 T00001083
03949KAQV AQV20190305085012303/05/19 08:50:31  5-MIN KAQV 051450Z AUTO 36010KT 10SM CLR 00/M08 A3042 -80 53 -1900 350/10 RMK AO2 SLP306 T00001083 53009
03949KAQV AQV20190305085512303/05/19 08:55:31  5-MIN KAQV 051455Z AUTO 01010KT 10SM CLR 00/M08 A3042 -80 53 -1900 010/10 RMK AO2 SLP306 T00001083 53009
03949KAQV AQV20190305090011603/05/19 09:00:31  5-MIN KAQV 051500Z AUTO 36009G14KT 10SM CLR 01/M08 A3043 -90 51 -1800 350/09G14 RMK AO2 T00061083
03949KAQV AQV20190305090511603/05/19 09:05:31  5-MIN KAQV 051505Z AUTO 01005G14KT 10SM CLR 01/M08 A3043 -90 49 -1700 010/05G14 RMK AO2 T00111083
03949KAQV AQV20190305091011003/05/19 09:10:31  5-MIN KAQV 051510Z AUTO 01006KT 10SM CLR 01/M08 A3043 -90 51 -1800 010/06 RMK AO2 T00061083
03949KAQV AQV20190305091511003/05/19 09:15:31  5-MIN KAQV 051515Z AUTO VRB06KT 10SM CLR 01/M08 A3043 -90 49 -1700 VRB/06 RMK AO2 T00111083
03949KAQV AQV20190305092011003/05/19 09:20:31  5-MIN KAQV 051520Z AUTO VRB06KT 10SM CLR 01/M08 A3043 -90 49 -1700 VRB/06 RMK AO2 T00111083
03949KAQV AQV20190305092511003/05/19 09:25:31  5-MIN KAQV 051525Z AUTO VRB06KT 10SM CLR 02/M08 A3043 -90 47 -1700 VRB/06 RMK AO2 T00171083
03949KAQV AQV20190305093011003/05/19 09:30:31  5-MIN KAQV 051530Z AUTO VRB06KT 10SM CLR 02/M08 A3043 -90 47 -1700 VRB/06 RMK AO2 T00171083
03949KAQV AQV20190305093511003/05/19 09:35:31  5-MIN KAQV 051535Z AUTO 02007KT 10SM CLR 02/M08 A3043 -90 47 -1600 020/07 RMK AO2 T00171083
03949KAQV AQV20190305094011003/05/19 09:40:31  5-MIN KAQV 051540Z AUTO 35006KT 10SM CLR 02/M08 A3043 -90 45 -1600 350/06 RMK AO2 T00221083
03949KAQV AQV20190305094511003/05/19 09:45:31  5-MIN KAQV 051545Z AUTO VRB06KT 10SM CLR 02/M08 A3044 -90 45 -1600 VRB/06 RMK AO2 T00221083
03949KAQV AQV20190305095010703/05/19 09:50:31  5-MIN KAQV 051550Z AUTO 10SM CLR 03/M08 A3044 -90 44 -1500 M /M RMK AO2 SLP311 T00281083
03949KAQV AQV20190305095511803/05/19 09:55:31  5-MIN KAQV 051555Z AUTO VRB06KT 10SM CLR 03/M08 A3044 -100 44 -1500 VRB/06 RMK AO2 SLP313 T00281083
03949KAQV AQV20190305100011103/05/19 10:00:31  5-MIN KAQV 051600Z AUTO 02008KT 10SM CLR 03/M08 A3045 -100 44 -1500 010/08 RMK AO2 T00281083
03949KAQV AQV20190305100512703/05/19 10:05:31  5-MIN KAQV 051605Z AUTO 36007KT 300V040 10SM CLR 03/M08 A3045 -100 44 -1500 350/07 300V040 RMK AO2 T00281083
03949KAQV AQV20190305101011103/05/19 10:10:31  5-MIN KAQV 051610Z AUTO 01005KT 10SM CLR 04/M08 A3045 -100 42 -1400 360/05 RMK AO2 T00391078
03949KAQV AQV20190305101511103/05/19 10:15:31  5-MIN KAQV 051615Z AUTO VRB06KT 10SM CLR 03/M09 A3045 -100 42 -1500 VRB/06 RMK AO2 T00281089
03949KAQV AQV20190305102011103/05/19 10:20:31  5-MIN KAQV 051620Z AUTO VRB04KT 10SM CLR 03/M08 A3045 -110 42 -1500 VRB/04 RMK AO2 T00331083
03949KAQV AQV20190305102511103/05/19 10:25:31  5-MIN KAQV 051625Z AUTO 01007KT 10SM CLR 04/M08 A3046 -110 40 -1400 010/07 RMK AO2 T00391083
03949KAQV AQV20190305103013303/05/19 10:30:31  5-MIN KAQV 051630Z AUTO 34009G15KT 290V030 10SM CLR 04/M08 A3046 -110 40 -1400 340/09G15 290V030 RMK AO2 T00391083
03949KAQV AQV20190305103511703/05/19 10:35:31  5-MIN KAQV 051635Z AUTO VRB04G15KT 10SM CLR 04/M08 A3046 -120 40 -1400 VRB/04G15 RMK AO2 T00391083
03949KAQV AQV20190305104011103/05/19 10:40:31  5-MIN KAQV 051640Z AUTO VRB06KT 10SM CLR 04/M08 A3045 -110 40 -1400 VRB/06 RMK AO2 T00391083
03949KAQV AQV20190305104511103/05/19 10:45:31  5-MIN KAQV 051645Z AUTO VRB04KT 10SM CLR 04/M08 A3045 -110 40 -1400 VRB/04 RMK AO2 T00391083
03949KAQV AQV20190305105013403/05/19 10:50:31  5-MIN KAQV 051650Z AUTO 02009KT 350V060 10SM CLR 04/M08 A3045 -110 39 -1300 010/09 350V060 RMK AO2 SLP315 T00441083
03949KAQV AQV20190305105511803/05/19 10:55:31  5-MIN KAQV 051655Z AUTO VRB06KT 10SM CLR 04/M08 A3045 -110 39 -1300 VRB/06 RMK AO2 SLP316 T00441083
03949KAQV AQV20190305110011103/05/19 11:00:31  5-MIN KAQV 051700Z AUTO VRB06KT 10SM CLR 04/M08 A3045 -110 39 -1300 VRB/06 RMK AO2 T00441083
03949KAQV AQV20190305110512703/05/19 11:05:31  5-MIN KAQV 051705Z AUTO 01007KT 330V040 10SM CLR 05/M08 A3045 -110 39 -1300 360/07 330V040 RMK AO2 T00501078
03949KAQV AQV20190305111011103/05/19 11:10:31  5-MIN KAQV 051710Z AUTO VRB05KT 10SM CLR 05/M08 A3045 -100 37 -1300 VRB/05 RMK AO2 T00501083
03949KAQV AQV20190305111511703/05/19 11:15:31  5-MIN KAQV 051715Z AUTO 01009G16KT 10SM CLR 05/M08 A3044 -100 37 -1300 360/09G16 RMK AO2 T00501083
03949KAQV AQV20190305112011703/05/19 11:20:31  5-MIN KAQV 051720Z AUTO 01008G16KT 10SM CLR 05/M08 A3044 -100 37 -1200 010/08G16 RMK AO2 T00501083
03949KAQV AQV20190305112512703/05/19 11:25:31  5-MIN KAQV 051725Z AUTO 01007KT 290V020 10SM CLR 04/M08 A3044 -100 39 -1300 360/07 290V020 RMK AO2 T00441083
03949KAQV AQV20190305113010103/05/19 11:30:31  5-MIN KAQV 051730Z AUTO 10SM CLR 06/M08 A3045 -100 37 -1200 M /M RMK AO2 T00561078
03949KAQV AQV20190305113511103/05/19 11:35:31  5-MIN KAQV 051735Z AUTO VRB05KT 10SM CLR 06/M08 A3045 -100 36 -1200 VRB/05 RMK AO2 T00561083
03949KAQV AQV20190305114010103/05/19 11:40:31  5-MIN KAQV 051740Z AUTO 10SM CLR 06/M08 A3045 -100 36 -1200 M /M RMK AO2 T00561083
03949KAQV AQV20190305114512703/05/19 11:45:31  5-MIN KAQV 051745Z AUTO 36008KT 300V030 10SM CLR 06/M08 A3045 -100 36 -1200 360/08 300V030 RMK AO2 T00561083
03949KAQV AQV20190305115014203/05/19 11:50:31  5-MIN KAQV 051750Z AUTO 01010G16KT 10SM CLR 06/M08 A3045 -100 37 -1200 010/10G16 RMK AO2 SLP314 T00561078 10056 21039 51019
03949KAQV AQV20190305115514203/05/19 11:55:31  5-MIN KAQV 051755Z AUTO VRB04G16KT 10SM CLR 06/M08 A3045 -100 36 -1100 VRB/04G16 RMK AO2 SLP313 T00611078 10061 21039 51019
03949KAQV AQV20190305120011103/05/19 12:00:31  5-MIN KAQV 051800Z AUTO VRB05KT 10SM CLR 06/M08 A3044 -100 36 -1100 VRB/05 RMK AO2 T00611078
03949KAQV AQV20190305120512703/05/19 12:05:31  5-MIN KAQV 051805Z AUTO 36007KT 310V020 10SM CLR 06/M08 A3044 -100 36 -1100 360/07 310V020 RMK AO2 T00611078
03949KAQV AQV20190305121011103/05/19 12:10:31  5-MIN KAQV 051810Z AUTO VRB05KT 10SM CLR 07/M07 A3044 -100 36 -1000 VRB/05 RMK AO2 T00671072
03949KAQV AQV20190305121511003/05/19 12:15:31  5-MIN KAQV 051815Z AUTO VRB06KT 10SM CLR 07/M08 A3044 -90 35 -1000 VRB/06 RMK AO2 T00671078
03949KAQV AQV20190305122011003/05/19 12:20:31  5-MIN KAQV 051820Z AUTO 36005KT 10SM CLR 07/M08 A3044 -90 33 -1000 350/05 RMK AO2 T00721078
03949KAQV AQV20190305122511003/05/19 12:25:31  5-MIN KAQV 051825Z AUTO 32006KT 10SM CLR 07/M08 A3044 -90 35 -1000 320/06 RMK AO2 T00671078
03949KAQV AQV20190305123011003/05/19 12:30:31  5-MIN KAQV 051830Z AUTO VRB05KT 10SM CLR 07/M08 A3044 -90 32 -1000 VRB/05 RMK AO2 T00721083
03949KAQV AQV20190305123511003/05/19 12:35:31  5-MIN KAQV 051835Z AUTO VRB05KT 10SM CLR 07/M08 A3043 -90 35 -1000 VRB/05 RMK AO2 T00671078
03949KAQV AQV20190305124010003/05/19 12:40:31  5-MIN KAQV 051840Z AUTO 10SM CLR 07/M08 A3043 -90 35 -1000 M /M RMK AO2 T00671078
03949KAQV AQV20190305124511003/05/19 12:45:31  5-MIN KAQV 051845Z AUTO 36009KT 10SM CLR 07/M07 A3043 -90 36 -1000 360/09 RMK AO2 T00671072
03949KAQV AQV20190305125011703/05/19 12:50:31  5-MIN KAQV 051850Z AUTO VRB06KT 10SM CLR 07/M07 A3043 -90 36 -1000 VRB/06 RMK AO2 SLP308 T00671072
03949KAQV AQV20190305125513303/05/19 12:55:31  5-MIN KAQV 051855Z AUTO 36008KT 320V040 10SM CLR 07/M08 A3042 -80 35 -1000 360/08 320V040 RMK AO2 SLP306 T00671078
03949KAQV AQV20190305130011003/05/19 13:00:31  5-MIN KAQV 051900Z AUTO 36006KT 10SM CLR 07/M07 A3042 -80 35 -1000 350/06 RMK AO2 T00721072
03949KAQV AQV20190305130513203/05/19 13:05:31  5-MIN KAQV 051905Z AUTO 32009G15KT 270V360 10SM CLR 07/M08 A3042 -80 33 -1000 310/09G15 270V360 RMK AO2 T00721078
03949KAQV AQV20190305131011603/05/19 13:10:31  5-MIN KAQV 051910Z AUTO VRB06G15KT 10SM CLR 07/M07 A3042 -80 35 -1000 VRB/06G15 RMK AO2 T00721072
03949KAQV AQV20190305131511503/05/19 13:15:31  5-MIN KAQV 051915Z AUTO 01010G15KT 10SM CLR 08/M07 A3042 -80 34 -900 360/10G15 RMK AO2 T00781072
03949KAQV AQV20190305132013103/05/19 13:20:31  5-MIN KAQV 051920Z AUTO 34007G15KT 310V020 10SM CLR 07/M07 A3042 -80 35 -900 340/07G15 310V020 RMK AO2 T00721072
03949KAQV AQV20190305132511503/05/19 13:25:31  5-MIN KAQV 051925Z AUTO 01008G15KT 10SM CLR 07/M07 A3041 -70 35 -900 010/08G15 RMK AO2 T00721072
03949KAQV AQV20190305133012503/05/19 13:30:31  5-MIN KAQV 051930Z AUTO 01008KT 330V040 10SM CLR 08/M07 A3041 -70 35 -900 360/08 330V040 RMK AO2 T00781067
03949KAQV AQV20190305133511503/05/19 13:35:31  5-MIN KAQV 051935Z AUTO VRB05G16KT 10SM CLR 08/M07 A3041 -70 35 -900 VRB/05G16 RMK AO2 T00781067
03949KAQV AQV20190305134011503/05/19 13:40:31  5-MIN KAQV 051940Z AUTO 36009G16KT 10SM CLR 08/M07 A3041 -70 35 -900 360/09G16 RMK AO2 T00781067
03949KAQV AQV20190305134512503/05/19 13:45:31  5-MIN KAQV 051945Z AUTO 34007KT 310V010 10SM CLR 08/M07 A3041 -70 34 -900 330/07 310V010 RMK AO2 T00781072
03949KAQV AQV20190305135011603/05/19 13:50:31  5-MIN KAQV 051950Z AUTO VRB06KT 10SM CLR 08/M07 A3041 -70 34 -900 VRB/06 RMK AO2 SLP302 T00781072
03949KAQV AQV20190305135511603/05/19 13:55:31  5-MIN KAQV 051955Z AUTO 34008KT 10SM CLR 08/M07 A3041 -70 35 -900 340/08 RMK AO2 SLP301 T00781067
03949KAQV AQV20190305140010903/05/19 14:00:31  5-MIN KAQV 052000Z AUTO 36008KT 10SM CLR 08/M07 A3041 -70 34 -800 360/08 RMK AO2 T00831067
03949KAQV AQV20190305140510903/05/19 14:05:31  5-MIN KAQV 052005Z AUTO VRB05KT 10SM CLR 08/M07 A3041 -70 34 -800 VRB/05 RMK AO2 T00831067
03949KAQV AQV20190305141011503/05/19 14:10:31  5-MIN KAQV 052010Z AUTO 01008G16KT 10SM CLR 08/M07 A3041 -70 34 -800 360/08G16 RMK AO2 T00831067
03949KAQV AQV20190305141511503/05/19 14:15:31  5-MIN KAQV 052015Z AUTO VRB05G16KT 10SM CLR 08/M07 A3041 -70 34 -800 VRB/05G16 RMK AO2 T00831067
03949KAQV AQV20190305142010903/05/19 14:20:31  5-MIN KAQV 052020Z AUTO VRB05KT 10SM CLR 09/M06 A3041 -70 34 -700 VRB/05 RMK AO2 T00891061
03949KAQV AQV20190305142511503/05/19 14:25:31  5-MIN KAQV 052025Z AUTO 01011G17KT 10SM CLR 09/M06 A3041 -70 34 -700 010/11G17 RMK AO2 T00891061
03949KAQV AQV20190305143009903/05/19 14:30:31  5-MIN KAQV 052030Z AUTO 10SM CLR 08/M07 A3040 -60 34 -800 M /M RMK AO2 T00831067
03949KAQV AQV20190305143510903/05/19 14:35:31  5-MIN KAQV 052035Z AUTO 35008KT 10SM CLR 08/M07 A3040 -60 32 -800 350/08 RMK AO2 T00831072
03949KAQV AQV20190305144009903/05/19 14:40:31  5-MIN KAQV 052040Z AUTO 10SM CLR 08/M07 A3040 -60 34 -800 M /M RMK AO2 T00831067
03949KAQV AQV20190305144510903/05/19 14:45:31  5-MIN KAQV 052045Z AUTO 01007KT 10SM CLR 09/M07 A3040 -60 32 -700 010/07 RMK AO2 T00891067
03949KAQV AQV20190305145013803/05/19 14:50:31  5-MIN KAQV 052050Z AUTO 35008KT 310V040 10SM CLR 08/M07 A3040 -60 34 -800 350/08 310V040 RMK AO2 SLP298 T00831067 50006
03949KAQV AQV20190305145512203/05/19 14:55:31  5-MIN KAQV 052055Z AUTO VRB04KT 10SM CLR 09/M06 A3039 -50 34 -700 VRB/04 RMK AO2 SLP295 T00891061 50006
03949KAQV AQV20190305150010903/05/19 15:00:31  5-MIN KAQV 052100Z AUTO 36008KT 10SM CLR 09/M07 A3040 -60 32 -700 360/08 RMK AO2 T00891067
03949KAQV AQV20190305150510903/05/19 15:05:31  5-MIN KAQV 052105Z AUTO VRB05KT 10SM CLR 09/M06 A3040 -60 34 -700 VRB/05 RMK AO2 T00891061
03949KAQV AQV20190305151010903/05/19 15:10:31  5-MIN KAQV 052110Z AUTO VRB06KT 10SM CLR 09/M07 A3039 -50 32 -700 VRB/06 RMK AO2 T00891067
03949KAQV AQV20190305151512503/05/19 15:15:31  5-MIN KAQV 052115Z AUTO 35008KT 310V040 10SM CLR 09/M06 A3039 -50 34 -700 350/08 310V040 RMK AO2 T00891061
03949KAQV AQV20190305152010903/05/19 15:20:31  5-MIN KAQV 052120Z AUTO VRB05KT 10SM CLR 08/M07 A3039 -50 34 -800 VRB/05 RMK AO2 T00831067
03949KAQV AQV20190305152510903/05/19 15:25:31  5-MIN KAQV 052125Z AUTO 36005KT 10SM CLR 09/M07 A3039 -50 32 -700 360/05 RMK AO2 T00891067
03949KAQV AQV20190305153010903/05/19 15:30:31  5-MIN KAQV 052130Z AUTO VRB05KT 10SM CLR 09/M07 A3039 -50 32 -700 VRB/05 RMK AO2 T00891067
03949KAQV AQV20190305153510903/05/19 15:35:31  5-MIN KAQV 052135Z AUTO VRB06KT 10SM CLR 09/M07 A3039 -50 32 -700 VRB/06 RMK AO2 T00891067
03949KAQV AQV20190305154011503/05/19 15:40:31  5-MIN KAQV 052140Z AUTO 01009G15KT 10SM CLR 09/M06 A3039 -50 33 -600 360/09G15 RMK AO2 T00941061
03949KAQV AQV20190305154511503/05/19 15:45:31  5-MIN KAQV 052145Z AUTO 01007G15KT 10SM CLR 09/M07 A3039 -50 32 -700 010/07G15 RMK AO2 T00891067
03949KAQV AQV20190305155013203/05/19 15:50:31  5-MIN KAQV 052150Z AUTO 01010KT 320V030 10SM CLR 09/M06 A3038 -50 34 -700 010/10 320V030 RMK AO2 SLP292 T00891061
03949KAQV AQV20190305155511603/05/19 15:55:31  5-MIN KAQV 052155Z AUTO 36009KT 10SM CLR 09/M07 A3039 -50 32 -700 350/09 RMK AO2 SLP293 T00891067
03949KAQV AQV20190305160011503/05/19 16:00:31  5-MIN KAQV 052200Z AUTO VRB06G15KT 10SM CLR 09/M07 A3039 -50 32 -700 VRB/06G15 RMK AO2 T00891067
03949KAQV AQV20190305160513103/05/19 16:05:31  5-MIN KAQV 052205Z AUTO 33007G15KT 290V010 10SM CLR 08/M07 A3039 -50 32 -800 320/07G15 290V010 RMK AO2 T00831072
03949KAQV AQV20190305161012503/05/19 16:10:31  5-MIN KAQV 052210Z AUTO 36008KT 330V030 10SM CLR 09/M07 A3039 -50 32 -700 350/08 330V030 RMK AO2 T00891067
03949KAQV AQV20190305161510903/05/19 16:15:31  5-MIN KAQV 052215Z AUTO VRB05KT 10SM CLR 08/M07 A3039 -50 34 -800 VRB/05 RMK AO2 T00831067
03949KAQV AQV20190305162010903/05/19 16:20:31  5-MIN KAQV 052220Z AUTO VRB05KT 10SM CLR 09/M07 A3039 -50 31 -700 VRB/05 RMK AO2 T00891072
03949KAQV AQV20190305162510903/05/19 16:25:31  5-MIN KAQV 052225Z AUTO 36006KT 10SM CLR 08/M07 A3039 -50 32 -800 350/06 RMK AO2 T00831072
03949KAQV AQV20190305163010903/05/19 16:30:31  5-MIN KAQV 052230Z AUTO VRB05KT 10SM CLR 09/M07 A3039 -50 32 -700 VRB/05 RMK AO2 T00891067
03949KAQV AQV20190305163510903/05/19 16:35:31  5-MIN KAQV 052235Z AUTO 36006KT 10SM CLR 08/M07 A3039 -50 34 -800 350/06 RMK AO2 T00831067
03949KAQV AQV20190305164010903/05/19 16:40:31  5-MIN KAQV 052240Z AUTO VRB03KT 10SM CLR 09/M06 A3039 -50 34 -700 VRB/03 RMK AO2 T00891061
03949KAQV AQV20190305164510903/05/19 16:45:31  5-MIN KAQV 052245Z AUTO VRB06KT 10SM CLR 08/M07 A3040 -60 34 -800 VRB/06 RMK AO2 T00831067
03949KAQV AQV20190305165011603/05/19 16:50:31  5-MIN KAQV 052250Z AUTO 34005KT 10SM CLR 09/M06 A3040 -60 34 -700 330/05 RMK AO2 SLP297 T00891061
03949KAQV AQV20190305165511603/05/19 16:55:31  5-MIN KAQV 052255Z AUTO 01007KT 10SM CLR 08/M06 A3039 -50 35 -800 010/07 RMK AO2 SLP296 T00831061
03949KAQV AQV20190305170010903/05/19 17:00:31  5-MIN KAQV 052300Z AUTO 36006KT 10SM CLR 08/M06 A3039 -50 35 -800 360/06 RMK AO2 T00831061
03949KAQV AQV20190305170512503/05/19 17:05:31  5-MIN KAQV 052305Z AUTO 01007KT 300V040 10SM CLR 08/M06 A3039 -50 35 -800 360/07 300V040 RMK AO2 T00831061
03949KAQV AQV20190305171010903/05/19 17:10:31  5-MIN KAQV 052310Z AUTO 02007KT 10SM CLR 08/M06 A3039 -50 35 -800 010/07 RMK AO2 T00831061
03949KAQV AQV20190305171510903/05/19 17:15:31  5-MIN KAQV 052315Z AUTO 01007KT 10SM CLR 08/M06 A3039 -50 36 -900 360/07 RMK AO2 T00781061
03949KAQV AQV20190305172010903/05/19 17:20:31  5-MIN KAQV 052320Z AUTO 02007KT 10SM CLR 08/M06 A3040 -60 36 -900 010/07 RMK AO2 T00781061
03949KAQV AQV20190305172510903/05/19 17:25:31  5-MIN KAQV 052325Z AUTO 01008KT 10SM CLR 08/M06 A3040 -60 36 -900 010/08 RMK AO2 T00781061
03949KAQV AQV20190305173010903/05/19 17:30:31  5-MIN KAQV 052330Z AUTO 36007KT 10SM CLR 08/M06 A3040 -60 36 -900 360/07 RMK AO2 T00781061
03949KAQV AQV20190305173510903/05/19 17:35:31  5-MIN KAQV 052335Z AUTO VRB03KT 10SM CLR 07/M06 A3040 -60 38 -900 VRB/03 RMK AO2 T00721061
03949KAQV AQV20190305174010903/05/19 17:40:31  5-MIN KAQV 052340Z AUTO VRB05KT 10SM CLR 07/M06 A3040 -60 38 -900 VRB/05 RMK AO2 T00721061
03949KAQV AQV20190305174510903/05/19 17:45:31  5-MIN KAQV 052345Z AUTO 35003KT 10SM CLR 07/M06 A3040 -60 40 -900 350/03 RMK AO2 T00721056
03949KAQV AQV20190305175013503/05/19 17:50:31  5-MIN KAQV 052350Z AUTO 36003KT 10SM CLR 07/M06 A3040 -60 41 -1000 350/03 RMK AO2 SLP298 T00671056 10094 20061 56016
03949KAQV AQV20190305175513503/05/19 17:55:31  5-MIN KAQV 052355Z AUTO 35004KT 10SM CLR 06/M05 A3040 -60 45 -1100 350/04 RMK AO2 SLP298 T00611050 10094 20061 56016
03949KAQV AQV20190305180011003/05/19 18:00:31  5-MIN KAQV 060000Z AUTO 00000KT 10SM CLR 06/M05 A3040 -60 45 -1100 000/00 RMK AO2 T00611050
03949KAQV AQV20190305180511003/05/19 18:05:31  5-MIN KAQV 060005Z AUTO 35003KT 10SM CLR 06/M05 A3040 -60 46 -1100 340/03 RMK AO2 T00561050
03949KAQV AQV20190305181011003/05/19 18:10:31  5-MIN KAQV 060010Z AUTO 34003KT 10SM CLR 06/M05 A3040 -60 46 -1100 340/03 RMK AO2 T00561050
03949KAQV AQV20190305181510003/05/19 18:15:31  5-MIN KAQV 060015Z AUTO 10SM CLR 06/M04 A3040 -60 48 -1100 M /M RMK AO2 T00561044
03949KAQV AQV20190305182011003/05/19 18:20:31  5-MIN KAQV 060020Z AUTO 35003KT 10SM CLR 05/M04 A3041 -70 50 -1200 340/03 RMK AO2 T00501044
03949KAQV AQV20190305182511003/05/19 18:25:31  5-MIN KAQV 060025Z AUTO 34003KT 10SM CLR 05/M04 A3041 -70 50 -1200 340/03 RMK AO2 T00501044
03949KAQV AQV20190305183011003/05/19 18:30:31  5-MIN KAQV 060030Z AUTO 35003KT 10SM CLR 04/M04 A3041 -70 55 -1300 350/03 RMK AO2 T00441039
03949KAQV AQV20190305183511003/05/19 18:35:31  5-MIN KAQV 060035Z AUTO 00000KT 10SM CLR 04/M04 A3041 -70 55 -1300 000/00 RMK AO2 T00441039
03949KAQV AQV20190305184011003/05/19 18:40:31  5-MIN KAQV 060040Z AUTO 00000KT 10SM CLR 04/M03 A3041 -70 62 -1300 000/00 RMK AO2 T00391028
03949KAQV AQV20190305184511003/05/19 18:45:31  5-MIN KAQV 060045Z AUTO 00000KT 10SM CLR 04/M03 A3041 -70 59 -1300 000/00 RMK AO2 T00391033
03949KAQV AQV20190305185011703/05/19 18:50:31  5-MIN KAQV 060050Z AUTO VRB03KT 10SM CLR 04/M04 A3041 -70 57 -1300 VRB/03 RMK AO2 SLP301 T00391039
03949KAQV AQV20190305185511703/05/19 18:55:31  5-MIN KAQV 060055Z AUTO 00000KT 10SM CLR 03/M03 A3041 -70 61 -1400 000/00 RMK AO2 SLP301 T00331033
03949KAQV AQV20190305190011003/05/19 19:00:31  5-MIN KAQV 060100Z AUTO 00000KT 10SM CLR 03/M03 A3041 -70 61 -1400 000/00 RMK AO2 T00331033
03949KAQV AQV20190305190511003/05/19 19:05:31  5-MIN KAQV 060105Z AUTO 33004KT 10SM CLR 03/M03 A3041 -70 61 -1400 330/04 RMK AO2 T00331033
03949KAQV AQV20190305191011003/05/19 19:10:31  5-MIN KAQV 060110Z AUTO 00000KT 10SM CLR 03/M03 A3042 -70 61 -1400 000/00 RMK AO2 T00331033
03949KAQV AQV20190305191510003/05/19 19:15:31  5-MIN KAQV 060115Z AUTO 10SM CLR 03/M03 A3042 -80 67 -1500 M /M RMK AO2 T00281028
03949KAQV AQV20190305192011003/05/19 19:20:31  5-MIN KAQV 060120Z AUTO 33004KT 10SM CLR 02/M03 A3042 -80 69 -1600 320/04 RMK AO2 T00221028
03949KAQV AQV20190305192511003/05/19 19:25:31  5-MIN KAQV 060125Z AUTO 00000KT 10SM CLR 02/M03 A3043 -80 67 -1600 000/00 RMK AO2 T00221033
03949KAQV AQV20190305193011003/05/19 19:30:31  5-MIN KAQV 060130Z AUTO 00000KT 10SM CLR 02/M03 A3043 -80 69 -1600 000/00 RMK AO2 T00221028
03949KAQV AQV20190305193511003/05/19 19:35:31  5-MIN KAQV 060135Z AUTO 32005KT 10SM CLR 02/M03 A3043 -80 69 -1600 320/05 RMK AO2 T00221028
03949KAQV AQV20190305194011003/05/19 19:40:31  5-MIN KAQV 060140Z AUTO 31003KT 10SM CLR 02/M03 A3043 -80 72 -1600 300/03 RMK AO2 T00171028
03949KAQV AQV20190305194511003/05/19 19:45:31  5-MIN KAQV 060145Z AUTO 00000KT 10SM CLR 02/M03 A3043 -90 72 -1600 000/00 RMK AO2 T00171028
03949KAQV AQV20190305195011703/05/19 19:50:31  5-MIN KAQV 060150Z AUTO 00000KT 10SM CLR 01/M03 A3043 -90 75 -1700 000/00 RMK AO2 SLP308 T00111028
03949KAQV AQV20190305195511703/05/19 19:55:31  5-MIN KAQV 060155Z AUTO 32004KT 10SM CLR 01/M03 A3043 -90 75 -1700 320/04 RMK AO2 SLP308 T00111028
03949KAQV AQV20190305200011003/05/19 20:00:31  5-MIN KAQV 060200Z AUTO 33003KT 10SM CLR 01/M03 A3043 -90 75 -1700 320/03 RMK AO2 T00111028
03949KAQV AQV20190305200510003/05/19 20:05:31  5-MIN KAQV 060205Z AUTO 10SM CLR 01/M03 A3043 -90 75 -1700 M /M RMK AO2 T00111028
03949KAQV AQV20190305201011003/05/19 20:10:31  5-MIN KAQV 060210Z AUTO 00000KT 10SM CLR 01/M03 A3044 -90 75 -1700 000/00 RMK AO2 T00111028
03949KAQV AQV20190305201511003/05/19 20:15:31  5-MIN KAQV 060215Z AUTO 00000KT 10SM CLR 01/M02 A3044 -90 78 -1700 000/00 RMK AO2 T00111022
03949KAQV AQV20190305202010003/05/19 20:20:31  5-MIN KAQV 060220Z AUTO 10SM CLR 01/M02 A3044 -90 82 -1800 M /M RMK AO2 T00061022
03949KAQV AQV20190305202511103/05/19 20:25:31  5-MIN KAQV 060225Z AUTO 32003KT 10SM CLR 01/M03 A3044 -100 78 -1800 320/03 RMK AO2 T00061028
03949KAQV AQV20190305203011103/05/19 20:30:31  5-MIN KAQV 060230Z AUTO 31003KT 10SM CLR 01/M03 A3044 -100 78 -1800 300/03 RMK AO2 T00061028
03949KAQV AQV20190305203511003/05/19 20:35:31  5-MIN KAQV 060235Z AUTO 00000KT 10SM CLR 01/M03 A3044 -90 78 -1800 000/00 RMK AO2 T00061028
03949KAQV AQV20190305204011003/05/19 20:40:31  5-MIN KAQV 060240Z AUTO 00000KT 10SM CLR 01/M03 A3044 -90 78 -1800 000/00 RMK AO2 T00061028
03949KAQV AQV20190305204511003/05/19 20:45:31  5-MIN KAQV 060245Z AUTO 00000KT 10SM CLR 01/M03 A3044 -90 78 -1800 000/00 RMK AO2 T00061028
03949KAQV AQV20190305205011403/05/19 20:50:31  5-MIN KAQV 060250Z AUTO 10SM CLR 00/M03 A3044 -100 81 -1900 M /M RMK AO2 SLP312 T00001028 53002
03949KAQV AQV20190305205512403/05/19 20:55:31  5-MIN KAQV 060255Z AUTO 00000KT 10SM CLR 00/M03 A3044 -100 78 -1900 000/00 RMK AO2 SLP312 T00001033 53002
03949KAQV AQV20190305210011103/05/19 21:00:31  5-MIN KAQV 060300Z AUTO 32003KT 10SM CLR 00/M03 A3044 -100 78 -1900 320/03 RMK AO2 T00001033
03949KAQV AQV20190305210511103/05/19 21:05:31  5-MIN KAQV 060305Z AUTO 32003KT 10SM CLR 00/M03 A3044 -100 78 -1900 320/03 RMK AO2 T00001033
03949KAQV AQV20190305211011103/05/19 21:10:31  5-MIN KAQV 060310Z AUTO 00000KT 10SM CLR 00/M03 A3044 -100 78 -1900 000/00 RMK AO2 T00001033
03949KAQV AQV20190305211511103/05/19 21:15:31  5-MIN KAQV 060315Z AUTO 32004KT 10SM CLR 00/M03 A3045 -100 78 -1900 320/04 RMK AO2 T00001033
03949KAQV AQV20190305212011103/05/19 21:20:31  5-MIN KAQV 060320Z AUTO 32003KT 10SM CLR 00/M03 A3045 -100 78 -1900 310/03 RMK AO2 T00001033
03949KAQV AQV20190305212511103/05/19 21:25:31  5-MIN KAQV 060325Z AUTO 00000KT 10SM CLR 00/M03 A3045 -110 78 -1900 000/00 RMK AO2 T00001033
03949KAQV AQV20190305213011103/05/19 21:30:31  5-MIN KAQV 060330Z AUTO 32003KT 10SM CLR 00/M03 A3045 -110 78 -1900 320/03 RMK AO2 T00001033
03949KAQV AQV20190305213511103/05/19 21:35:31  5-MIN KAQV 060335Z AUTO 00000KT 10SM CLR 00/M03 A3045 -110 78 -1900 000/00 RMK AO2 T00001033
03949KAQV AQV20190305214011203/05/19 21:40:31  5-MIN KAQV 060340Z AUTO 00000KT 10SM CLR M01/M04 A3045 -110 78 -2000 000/00 RMK AO2 T10061039
03949KAQV AQV20190305214511103/05/19 21:45:31  5-MIN KAQV 060345Z AUTO 00000KT 10SM CLR 00/M03 A3045 -110 78 -1900 000/00 RMK AO2 T00001033
03949KAQV AQV20190305215011903/05/19 21:50:31  5-MIN KAQV 060350Z AUTO 33004KT 10SM CLR M01/M03 A3045 -110 81 -2000 320/04 RMK AO2 SLP316 T10061033
03949KAQV AQV20190305215511903/05/19 21:55:31  5-MIN KAQV 060355Z AUTO 33003KT 10SM CLR M01/M03 A3045 -110 81 -2000 320/03 RMK AO2 SLP316 T10061033
03949KAQV AQV20190305220011203/05/19 22:00:31  5-MIN KAQV 060400Z AUTO VRB03KT 10SM CLR M01/M04 A3045 -110 78 -2000 VRB/03 RMK AO2 T10061039
03949KAQV AQV20190305220510203/05/19 22:05:31  5-MIN KAQV 060405Z AUTO 10SM CLR M01/M04 A3046 -110 78 -2000 M /M RMK AO2 T10061039
03949KAQV AQV20190305221011203/05/19 22:10:31  5-MIN KAQV 060410Z AUTO 32003KT 10SM CLR M01/M03 A3046 -110 81 -2000 320/03 RMK AO2 T10061033
03949KAQV AQV20190305221511203/05/19 22:15:31  5-MIN KAQV 060415Z AUTO 00000KT 10SM CLR M01/M03 A3046 -110 81 -2000 000/00 RMK AO2 T10061033
03949KAQV AQV20190305222011203/05/19 22:20:31  5-MIN KAQV 060420Z AUTO 33003KT 10SM CLR M01/M04 A3045 -110 78 -2000 330/03 RMK AO2 T10061039
03949KAQV AQV20190305222511203/05/19 22:25:31  5-MIN KAQV 060425Z AUTO 00000KT 10SM CLR M01/M04 A3045 -110 78 -2000 000/00 RMK AO2 T10061039
03949KAQV AQV20190305223011203/05/19 22:30:31  5-MIN KAQV 060430Z AUTO 00000KT 10SM CLR M01/M04 A3045 -110 78 -2000 000/00 RMK AO2 T10061039
03949KAQV AQV20190305223511203/05/19 22:35:31  5-MIN KAQV 060435Z AUTO 00000KT 10SM CLR M01/M04 A3046 -110 78 -2000 000/00 RMK AO2 T10061039
03949KAQV AQV20190305224011203/05/19 22:40:31  5-MIN KAQV 060440Z AUTO 33003KT 10SM CLR M01/M04 A3046 -110 78 -2000 330/03 RMK AO2 T10061039
03949KAQV AQV20190305224511203/05/19 22:45:31  5-MIN KAQV 060445Z AUTO 00000KT 10SM CLR M01/M03 A3046 -110 85 -2000 000/00 RMK AO2 T10111033
03949KAQV AQV20190305225011903/05/19 22:50:31  5-MIN KAQV 060450Z AUTO 00000KT 10SM CLR M01/M04 A3046 -120 81 -2000 000/00 RMK AO2 SLP319 T10111039
03949KAQV AQV20190305225511903/05/19 22:55:31  5-MIN KAQV 060455Z AUTO 00000KT 10SM CLR M01/M04 A3046 -120 81 -2000 000/00 RMK AO2 SLP319 T10111039
03949KAQV AQV20190305230011203/05/19 23:00:31  5-MIN KAQV 060500Z AUTO 00000KT 10SM CLR M01/M03 A3046 -120 85 -2000 000/00 RMK AO2 T10111033
03949KAQV AQV20190305230511203/05/19 23:05:31  5-MIN KAQV 060505Z AUTO 00000KT 10SM CLR M01/M03 A3046 -120 85 -2000 000/00 RMK AO2 T10111033
03949KAQV AQV20190305231010203/05/19 23:10:31  5-MIN KAQV 060510Z AUTO 10SM CLR M01/M03 A3046 -120 85 -2000 M /M RMK AO2 T10111033
03949KAQV AQV20190305231511203/05/19 23:15:31  5-MIN KAQV 060515Z AUTO 33004KT 10SM CLR M01/M03 A3046 -120 88 -2000 330/04 RMK AO2 T10111028
03949KAQV AQV20190305232011203/05/19 23:20:31  5-MIN KAQV 060520Z AUTO 32004KT 10SM CLR M01/M03 A3046 -120 85 -2000 310/04 RMK AO2 T10111033
03949KAQV AQV20190305232511203/05/19 23:25:31  5-MIN KAQV 060525Z AUTO 00000KT 10SM CLR M01/M03 A3046 -120 85 -2000 000/00 RMK AO2 T10111033
03949KAQV AQV20190305233011203/05/19 23:30:31  5-MIN KAQV 060530Z AUTO 00000KT 10SM CLR M01/M03 A3046 -120 85 -2000 000/00 RMK AO2 T10111033
03949KAQV AQV20190305233511203/05/19 23:35:31  5-MIN KAQV 060535Z AUTO 00000KT 10SM CLR M02/M03 A3046 -120 88 -2100 000/00 RMK AO2 T10171033
03949KAQV AQV20190305234010203/05/19 23:40:31  5-MIN KAQV 060540Z AUTO 10SM CLR M02/M04 A3046 -120 85 -2100 M /M RMK AO2 T10171039
03949KAQV AQV20190305234511203/05/19 23:45:31  5-MIN KAQV 060545Z AUTO 00000KT 10SM CLR M02/M04 A3046 -120 85 -2100 000/00 RMK AO2 T10171039
03949KAQV AQV20190305235014703/05/19 23:50:31  5-MIN KAQV 060550Z AUTO 00000KT 10SM CLR M02/M04 A3046 -120 85 -2100 000/00 RMK AO2 SLP320 T10171039 10061 21017 400941039 53013
03949KAQV AQV20190305235514703/05/19 23:55:31  5-MIN KAQV 060555Z AUTO 00000KT 10SM CLR M02/M04 A3046 -120 81 -2100 000/00 RMK AO2 SLP319 T10171044 10061 21017 400941039 53013
03949KAQV AQV20190306000011203/06/19 00:00:31  5-MIN KAQV 060600Z AUTO 00000KT 10SM CLR M02/M04 A3046 -110 85 -2100 000/00 RMK AO2 T10171039
03949KAQV AQV20190306000511203/06/19 00:05:31  5-MIN KAQV 060605Z AUTO 00000KT 10SM CLR M02/M04 A3046 -110 85 -2100 000/00 RMK AO2 T10171039
03949KAQV AQV20190306001010203/06/19 00:10:31  5-MIN KAQV 060610Z AUTO 10SM CLR M02/M04 A3046 -110 85 -2100 M /M RMK AO2 T10171039
03949KAQV AQV20190306001511203/06/19 00:15:31  5-MIN KAQV 060615Z AUTO 00000KT 10SM CLR M02/M04 A3045 -110 85 -2100 000/00 RMK AO2 T10171039
03949KAQV AQV20190306002011203/06/19 00:20:31  5-MIN KAQV 060620Z AUTO 00000KT 10SM CLR M02/M04 A3045 -110 85 -2100 000/00 RMK AO2 T10171039
03949KAQV AQV20190306002511203/06/19 00:25:31  5-MIN KAQV 060625Z AUTO 00000KT 10SM CLR M02/M04 A3045 -100 85 -2200 000/00 RMK AO2 T10221044
03949KAQV AQV20190306003010203/06/19 00:30:31  5-MIN KAQV 060630Z AUTO 10SM CLR M02/M04 A3045 -100 88 -2200 M /M RMK AO2 T10221039
03949KAQV AQV20190306003511203/06/19 00:35:31  5-MIN KAQV 060635Z AUTO 00000KT 10SM CLR M02/M04 A3045 -100 88 -2200 000/00 RMK AO2 T10221039
03949KAQV AQV20190306004011203/06/19 00:40:31  5-MIN KAQV 060640Z AUTO 00000KT 10SM CLR M02/M04 A3045 -110 88 -2200 000/00 RMK AO2 T10221039
03949KAQV AQV20190306004511203/06/19 00:45:31  5-MIN KAQV 060645Z AUTO 00000KT 10SM CLR M02/M04 A3045 -110 85 -2200 000/00 RMK AO2 T10221044
03949KAQV AQV20190306005011903/06/19 00:50:31  5-MIN KAQV 060650Z AUTO 00000KT 10SM CLR M02/M04 A3045 -100 85 -2200 000/00 RMK AO2 SLP315 T10221044
03949KAQV AQV20190306005511903/06/19 00:55:31  5-MIN KAQV 060655Z AUTO 00000KT 10SM CLR M02/M04 A3045 -100 85 -2200 000/00 RMK AO2 SLP314 T10221044
03949KAQV AQV20190306010011203/06/19 01:00:31  5-MIN KAQV 060700Z AUTO 00000KT 10SM CLR M02/M04 A3045 -100 85 -2200 000/00 RMK AO2 T10221044
03949KAQV AQV20190306010511203/06/19 01:05:31  5-MIN KAQV 060705Z AUTO 00000KT 10SM CLR M02/M04 A3045 -110 85 -2200 000/00 RMK AO2 T10221044
03949KAQV AQV20190306011010203/06/19 01:10:31  5-MIN KAQV 060710Z AUTO 10SM CLR M02/M04 A3045 -110 85 -2200 M /M RMK AO2 T10221044
03949KAQV AQV20190306011511203/06/19 01:15:31  5-MIN KAQV 060715Z AUTO 32006KT 10SM CLR M02/M04 A3046 -110 85 -2200 320/06 RMK AO2 T10221044
03949KAQV AQV20190306012011203/06/19 01:20:31  5-MIN KAQV 060720Z AUTO 33006KT 10SM CLR M02/M04 A3046 -110 85 -2200 320/06 RMK AO2 T10221044
03949KAQV AQV20190306012511203/06/19 01:25:31  5-MIN KAQV 060725Z AUTO 00000KT 10SM CLR M02/M05 A3046 -110 81 -2200 000/00 RMK AO2 T10221050
03949KAQV AQV20190306013011203/06/19 01:30:31  5-MIN KAQV 060730Z AUTO 00000KT 10SM CLR M02/M05 A3046 -110 81 -2200 000/00 RMK AO2 T10221050
03949KAQV AQV20190306013511203/06/19 01:35:31  5-MIN KAQV 060735Z AUTO 00000KT 10SM CLR M02/M04 A3047 -120 85 -2200 000/00 RMK AO2 T10221044
03949KAQV AQV20190306014011203/06/19 01:40:31  5-MIN KAQV 060740Z AUTO 00000KT 10SM CLR M02/M05 A3047 -120 81 -2200 000/00 RMK AO2 T10221050
03949KAQV AQV20190306014510203/06/19 01:45:31  5-MIN KAQV 060745Z AUTO 10SM CLR M02/M04 A3047 -120 85 -2200 M /M RMK AO2 T10221044
03949KAQV AQV20190306015011903/06/19 01:50:31  5-MIN KAQV 060750Z AUTO 33005KT 10SM CLR M02/M05 A3047 -130 81 -2200 320/05 RMK AO2 SLP323 T10221050
03949KAQV AQV20190306015510903/06/19 01:55:31  5-MIN KAQV 060755Z AUTO 10SM CLR M02/M04 A3047 -120 85 -2200 M /M RMK AO2 SLP322 T10221044
03949KAQV AQV20190306020011203/06/19 02:00:31  5-MIN KAQV 060800Z AUTO 00000KT 10SM CLR M02/M04 A3047 -120 85 -2200 000/00 RMK AO2 T10221044
03949KAQV AQV20190306020511203/06/19 02:05:31  5-MIN KAQV 060805Z AUTO 00000KT 10SM CLR M02/M04 A3046 -120 85 -2200 000/00 RMK AO2 T10221044
03949KAQV AQV20190306021011203/06/19 02:10:31  5-MIN KAQV 060810Z AUTO 00000KT 10SM CLR M02/M04 A3046 -120 85 -2200 000/00 RMK AO2 T10221044
03949KAQV AQV20190306021511203/06/19 02:15:31  5-MIN KAQV 060815Z AUTO 00000KT 10SM CLR M03/M04 A3046 -110 88 -2300 000/00 RMK AO2 T10281044
03949KAQV AQV20190306022011203/06/19 02:20:31  5-MIN KAQV 060820Z AUTO 00000KT 10SM CLR M02/M04 A3046 -110 85 -2200 000/00 RMK AO2 T10221044
03949KAQV AQV20190306022510203/06/19 02:25:31  5-MIN KAQV 060825Z AUTO 10SM CLR M02/M04 A3046 -110 85 -2200 M /M RMK AO2 T10221044
03949KAQV AQV20190306023011203/06/19 02:30:31  5-MIN KAQV 060830Z AUTO 00000KT 10SM CLR M02/M04 A3046 -110 85 -2200 000/00 RMK AO2 T10221044
03949KAQV AQV20190306023511203/06/19 02:35:31  5-MIN KAQV 060835Z AUTO 00000KT 10SM CLR M02/M04 A3046 -110 85 -2200 000/00 RMK AO2 T10221044
03949KAQV AQV20190306024011203/06/19 02:40:31  5-MIN KAQV 060840Z AUTO 00000KT 10SM CLR M03/M04 A3046 -110 88 -2200 000/00 RMK AO2 T10281044
03949KAQV AQV20190306024511203/06/19 02:45:31  5-MIN KAQV 060845Z AUTO 00000KT 10SM CLR M03/M04 A3046 -110 88 -2200 000/00 RMK AO2 T10281044
03949KAQV AQV20190306025012503/06/19 02:50:31  5-MIN KAQV 060850Z AUTO 00000KT 10SM CLR M03/M05 A3046 -110 85 -2200 000/00 RMK AO2 SLP318 T10281050 50007
03949KAQV AQV20190306025512503/06/19 02:55:31  5-MIN KAQV 060855Z AUTO 00000KT 10SM CLR M03/M05 A3046 -110 85 -2200 000/00 RMK AO2 SLP317 T10281050 50007
03949KAQV AQV20190306030010203/06/19 03:00:31  5-MIN KAQV 060900Z AUTO 10SM CLR M03/M04 A3046 -110 88 -2200 M /M RMK AO2 T10281044
03949KAQV AQV20190306030511203/06/19 03:05:31  5-MIN KAQV 060905Z AUTO 00000KT 10SM CLR M03/M04 A3046 -110 88 -2200 000/00 RMK AO2 T10281044
03949KAQV AQV20190306031011203/06/19 03:10:31  5-MIN KAQV 060910Z AUTO 00000KT 10SM CLR M03/M04 A3046 -110 88 -2200 000/00 RMK AO2 T10281044
03949KAQV AQV20190306040511203/06/19 04:05:31  5-MIN KAQV 061005Z AUTO 00000KT 10SM CLR M03/M05 A3046 -120 85 -2300 000/00 RMK AO2 T10281050
03949KAQV AQV20190306041011203/06/19 04:10:31  5-MIN KAQV 061010Z AUTO 00000KT 10SM CLR M03/M05 A3046 -120 88 -2300 000/00 RMK AO2 T10331050
03949KAQV AQV20190306041511203/06/19 04:15:31  5-MIN KAQV 061015Z AUTO 00000KT 10SM CLR M03/M05 A3046 -120 88 -2300 000/00 RMK AO2 T10331050
03949KAQV AQV20190306042011203/06/19 04:20:31  5-MIN KAQV 061020Z AUTO 00000KT 10SM CLR M03/M05 A3046 -120 88 -2300 000/00 RMK AO2 T10331050
03949KAQV AQV20190306042511203/06/19 04:25:31  5-MIN KAQV 061025Z AUTO 00000KT 10SM CLR M03/M05 A3046 -120 85 -2300 000/00 RMK AO2 T10281050
03949KAQV AQV20190306043011203/06/19 04:30:31  5-MIN KAQV 061030Z AUTO 00000KT 10SM CLR M03/M05 A3047 -120 85 -2300 000/00 RMK AO2 T10281050
03949KAQV AQV20190306043511203/06/19 04:35:31  5-MIN KAQV 061035Z AUTO 00000KT 10SM CLR M03/M05 A3046 -120 88 -2300 000/00 RMK AO2 T10331050
03949KAQV AQV20190306044011203/06/19 04:40:31  5-MIN KAQV 061040Z AUTO 00000KT 10SM CLR M03/M05 A3047 -120 88 -2300 000/00 RMK AO2 T10331050
03949KAQV AQV20190306044511203/06/19 04:45:31  5-MIN KAQV 061045Z AUTO 33003KT 10SM CLR M03/M05 A3047 -120 88 -2300 320/03 RMK AO2 T10331050
03949KAQV AQV20190306045011903/06/19 04:50:31  5-MIN KAQV 061050Z AUTO 30003KT 10SM CLR M03/M05 A3047 -120 88 -2300 300/03 RMK AO2 SLP322 T10331050
03949KAQV AQV20190306045511903/06/19 04:55:31  5-MIN KAQV 061055Z AUTO 00000KT 10SM CLR M03/M05 A3047 -130 88 -2300 000/00 RMK AO2 SLP323 T10331050
03949KAQV AQV20190306050010203/06/19 05:00:31  5-MIN KAQV 061100Z AUTO 10SM CLR M03/M06 A3047 -130 85 -2300 M /M RMK AO2 T10331056
03949KAQV AQV20190306050511203/06/19 05:05:31  5-MIN KAQV 061105Z AUTO VRB03KT 10SM CLR M03/M06 A3047 -130 85 -2300 VRB/03 RMK AO2 T10331056
03949KAQV AQV20190306051011203/06/19 05:10:31  5-MIN KAQV 061110Z AUTO 00000KT 10SM CLR M03/M05 A3048 -130 88 -2300 000/00 RMK AO2 T10331050
03949KAQV AQV20190306051511203/06/19 05:15:31  5-MIN KAQV 061115Z AUTO 00000KT 10SM CLR M03/M05 A3048 -130 88 -2300 000/00 RMK AO2 T10331050
03949KAQV AQV20190306052010203/06/19 05:20:31  5-MIN KAQV 061120Z AUTO 10SM CLR M03/M05 A3048 -130 88 -2300 M /M RMK AO2 T10331050
03949KAQV AQV20190306052511203/06/19 05:25:31  5-MIN KAQV 061125Z AUTO 00000KT 10SM CLR M03/M05 A3048 -130 88 -2300 000/00 RMK AO2 T10331050
03949KAQV AQV20190306053011203/06/19 05:30:31  5-MIN KAQV 061130Z AUTO 00000KT 10SM CLR M03/M05 A3048 -130 88 -2300 000/00 RMK AO2 T10331050
03949KAQV AQV20190306053511203/06/19 05:35:31  5-MIN KAQV 061135Z AUTO 00000KT 10SM CLR M03/M05 A3048 -130 88 -2300 000/00 RMK AO2 T10331050
03949KAQV AQV20190306054011203/06/19 05:40:31  5-MIN KAQV 061140Z AUTO 00000KT 10SM CLR M03/M05 A3048 -130 88 -2300 000/00 RMK AO2 T10331050
03949KAQV AQV20190306054511203/06/19 05:45:31  5-MIN KAQV 061145Z AUTO 00000KT 10SM CLR M03/M05 A3048 -140 88 -2300 000/00 RMK AO2 T10331050
03949KAQV AQV20190306055013703/06/19 05:50:31  5-MIN KAQV 061150Z AUTO 00000KT 10SM CLR M03/M06 A3048 -130 85 -2300 000/00 RMK AO2 SLP325 T10331056 11017 21033 56001
03949KAQV AQV20190306055513703/06/19 05:55:31  5-MIN KAQV 061155Z AUTO 00000KT 10SM CLR M03/M06 A3048 -130 85 -2300 000/00 RMK AO2 SLP325 T10331056 11017 21033 56001
03949KAQV AQV20190306060011203/06/19 06:00:31  5-MIN KAQV 061200Z AUTO 00000KT 10SM CLR M03/M06 A3048 -130 85 -2300 000/00 RMK AO2 T10331056
03949KAQV AQV20190306060511203/06/19 06:05:31  5-MIN KAQV 061205Z AUTO 00000KT 10SM CLR M03/M06 A3048 -140 85 -2300 000/00 RMK AO2 T10331056
03949KAQV AQV20190306061010203/06/19 06:10:31  5-MIN KAQV 061210Z AUTO 10SM CLR M03/M06 A3049 -140 85 -2400 M /M RMK AO2 T10331056
03949KAQV AQV20190306061511203/06/19 06:15:31  5-MIN KAQV 061215Z AUTO 33004KT 10SM CLR M03/M06 A3049 -140 85 -2400 330/04 RMK AO2 T10331056
03949KAQV AQV20190306062011203/06/19 06:20:31  5-MIN KAQV 061220Z AUTO 00000KT 10SM CLR M03/M06 A3049 -140 85 -2400 000/00 RMK AO2 T10331056
03949KAQV AQV20190306062511203/06/19 06:25:31  5-MIN KAQV 061225Z AUTO 33003KT 10SM CLR M03/M05 A3049 -140 88 -2400 330/03 RMK AO2 T10331050
03949KAQV AQV20190306063011203/06/19 06:30:31  5-MIN KAQV 061230Z AUTO VRB04KT 10SM CLR M03/M06 A3049 -140 85 -2400 VRB/04 RMK AO2 T10331056
03949KAQV AQV20190306063510203/06/19 06:35:31  5-MIN KAQV 061235Z AUTO 10SM CLR M03/M06 A3049 -140 85 -2400 M /M RMK AO2 T10331056
03949KAQV AQV20190306064011203/06/19 06:40:31  5-MIN KAQV 061240Z AUTO 00000KT 10SM CLR M03/M05 A3049 -140 88 -2400 000/00 RMK AO2 T10331050
03949KAQV AQV20190306064511203/06/19 06:45:31  5-MIN KAQV 061245Z AUTO 00000KT 10SM CLR M03/M05 A3049 -140 88 -2400 000/00 RMK AO2 T10331050
03949KAQV AQV20190306065011903/06/19 06:50:31  5-MIN KAQV 061250Z AUTO 00000KT 10SM CLR M03/M05 A3049 -150 88 -2400 000/00 RMK AO2 SLP330 T10331050
03949KAQV AQV20190306065511903/06/19 06:55:31  5-MIN KAQV 061255Z AUTO 00000KT 10SM CLR M03/M05 A3050 -150 88 -2400 000/00 RMK AO2 SLP332 T10331050
03949KAQV AQV20190306070011203/06/19 07:00:31  5-MIN KAQV 061300Z AUTO 00000KT 10SM CLR M03/M05 A3050 -150 88 -2400 000/00 RMK AO2 T10331050
03949KAQV AQV20190306070511203/06/19 07:05:31  5-MIN KAQV 061305Z AUTO 00000KT 10SM CLR M03/M04 A3050 -150 88 -2300 000/00 RMK AO2 T10281044
03949KAQV AQV20190306071010203/06/19 07:10:31  5-MIN KAQV 061310Z AUTO 10SM CLR M03/M04 A3050 -150 88 -2300 M /M RMK AO2 T10281044
03949KAQV AQV20190306071511203/06/19 07:15:31  5-MIN KAQV 061315Z AUTO 00000KT 10SM CLR M03/M04 A3050 -150 88 -2300 000/00 RMK AO2 T10281044
03949KAQV AQV20190306072011203/06/19 07:20:31  5-MIN KAQV 061320Z AUTO 00000KT 10SM CLR M03/M04 A3050 -150 88 -2300 000/00 RMK AO2 T10281044
03949KAQV AQV20190306072511203/06/19 07:25:31  5-MIN KAQV 061325Z AUTO 00000KT 10SM CLR M02/M04 A3050 -150 88 -2200 000/00 RMK AO2 T10221039
03949KAQV AQV20190306073011203/06/19 07:30:31  5-MIN KAQV 061330Z AUTO 02003KT 10SM CLR M02/M04 A3050 -150 85 -2200 020/03 RMK AO2 T10171039
03949KAQV AQV20190306073511203/06/19 07:35:31  5-MIN KAQV 061335Z AUTO 03003KT 10SM CLR M01/M04 A3051 -160 81 -2100 030/03 RMK AO2 T10111039
03949KAQV AQV20190306074011103/06/19 07:40:31  5-MIN KAQV 061340Z AUTO 03003KT 10SM CLR 00/M04 A3051 -160 72 -2000 020/03 RMK AO2 T00001044
03949KAQV AQV20190306074510103/06/19 07:45:31  5-MIN KAQV 061345Z AUTO 10SM CLR 01/M04 A3051 -160 66 -1800 M /M RMK AO2 T00111044
03949KAQV AQV20190306075011803/06/19 07:50:31  5-MIN KAQV 061350Z AUTO 02003KT 10SM CLR 02/M05 A3051 -160 61 -1700 010/03 RMK AO2 SLP336 T00171050
03949KAQV AQV20190306075507203/06/19 07:55:31  5-MIN KAQV 061355Z AUTO 02005KT 10SM CLR 36 -1100 M 9
03949KAQV AQV20190306101010103/06/19 10:10:31  5-MIN KAQV 061610Z AUTO 10SM CLR 08/M08 A3050 -150 32 -1000 M /M RMK AO2 T00781078
03949KAQV AQV20190306101511103/06/19 10:15:31  5-MIN KAQV 061615Z AUTO 00000KT 10SM CLR 08/M08 A3050 -150 32 -1000 000/00 RMK AO2 T00781078
03949KAQV AQV20190306102011103/06/19 10:20:31  5-MIN KAQV 061620Z AUTO VRB04KT 10SM CLR 08/M08 A3050 -150 32 -1000 VRB/04 RMK AO2 T00781078
03949KAQV AQV20190306131010903/06/19 13:10:31  5-MIN KAQV 061910Z AUTO VRB03KT 10SM CLR 12/M07 A3041 -70 26 -300 VRB/03 RMK AO2 T01221067
03949KAQV AQV20190306131510903/06/19 13:15:31  5-MIN KAQV 061915Z AUTO VRB05KT 10SM CLR 13/M07 A3040 -60 25 -300 VRB/05 RMK AO2 T01281067
03949KAQV AQV20190306132010903/06/19 13:20:31  5-MIN KAQV 061920Z AUTO VRB03KT 10SM CLR 13/M07 A3040 -60 24 -300 VRB/03 RMK AO2 T01281072
03949KAQV AQV20190306132510903/06/19 13:25:31  5-MIN KAQV 061925Z AUTO VRB03KT 10SM CLR 13/M07 A3040 -60 24 -200 VRB/03 RMK AO2 T01331067
03949KAQV AQV20190306133010903/06/19 13:30:31  5-MIN KAQV 061930Z AUTO VRB05KT 10SM CLR 13/M07 A3039 -50 24 -200 VRB/05 RMK AO2 T01281072
03949KAQV AQV20190306133510903/06/19 13:35:31  5-MIN KAQV 061935Z AUTO 00000KT 10SM CLR 12/M08 A3039 -50 24 -300 000/00 RMK AO2 T01221078
03949KAQV AQV20190306134010903/06/19 13:40:31  5-MIN KAQV 061940Z AUTO 07004KT 10SM CLR 13/M07 A3039 -50 23 -200 060/04 RMK AO2 T01331072
03949KAQV AQV20190306134510903/06/19 13:45:31  5-MIN KAQV 061945Z AUTO VRB04KT 10SM CLR 13/M07 A3039 -50 23 -200 VRB/04 RMK AO2 T01331072
03949KAQV AQV20190306135011603/06/19 13:50:31  5-MIN KAQV 061950Z AUTO 06006KT 10SM CLR 13/M08 A3038 -50 22 -200 050/06 RMK AO2 SLP292 T01331078
03949KAQV AQV20190306135511603/06/19 13:55:31  5-MIN KAQV 061955Z AUTO 07006KT 10SM CLR 14/M08 A3038 -40 21 -100 070/06 RMK AO2 SLP291 T01391078
03949KAQV AQV20190306140010903/06/19 14:00:31  5-MIN KAQV 062000Z AUTO VRB03KT 10SM CLR 13/M08 A3038 -40 22 -200 VRB/03 RMK AO2 T01331078
03949KAQV AQV20190306140510903/06/19 14:05:31  5-MIN KAQV 062005Z AUTO 00000KT 10SM CLR 13/M08 A3038 -40 22 -200 000/00 RMK AO2 T01331078
03949KAQV AQV20190306141010603/06/19 14:10:31  5-MIN KAQV 062010Z AUTO 00000KT 10SM CLR 14/M07 A3038 -40 21 0 000/00 RMK AO2 T01441072
03949KAQV AQV20190306141510603/06/19 14:15:31  5-MIN KAQV 062015Z AUTO VRB03KT 10SM CLR 14/M07 A3037 -30 22 0 VRB/03 RMK AO2 T01441067
03949KAQV AQV20190306142010903/06/19 14:20:31  5-MIN KAQV 062020Z AUTO 00000KT 10SM CLR 13/M07 A3037 -30 23 -200 000/00 RMK AO2 T01331072
03949KAQV AQV20190306142510603/06/19 14:25:31  5-MIN KAQV 062025Z AUTO 00000KT 10SM CLR 14/M06 A3037 -30 23 0 000/00 RMK AO2 T01441061
03949KAQV AQV20190306143010603/06/19 14:30:31  5-MIN KAQV 062030Z AUTO 00000KT 10SM CLR 14/M07 A3036 -30 22 0 000/00 RMK AO2 T01441067
03949KAQV AQV20190306143510603/06/19 14:35:31  5-MIN KAQV 062035Z AUTO 00000KT 10SM CLR 14/M07 A3036 -20 22 0 000/00 RMK AO2 T01441067
03949KAQV AQV20190306144010903/06/19 14:40:31  5-MIN KAQV 062040Z AUTO 00000KT 10SM CLR 14/M07 A3036 -20 23 -100 000/00 RMK AO2 T01391067
03949KAQV AQV20190306144510603/06/19 14:45:31  5-MIN KAQV 062045Z AUTO VRB04KT 10SM CLR 14/M07 A3035 -20 22 0 VRB/04 RMK AO2 T01441067
03949KAQV AQV20190306145011903/06/19 14:50:31  5-MIN KAQV 062050Z AUTO 00000KT 10SM CLR 14/M07 A3035 -10 21 0 000/00 RMK AO2 SLP280 T01441072 58020
03949KAQV AQV20190306145511903/06/19 14:55:31  5-MIN KAQV 062055Z AUTO 00000KT 10SM CLR 14/M07 A3035 -10 22 0 000/00 RMK AO2 SLP280 T01441067 58020
03949KAQV AQV20190306150010603/06/19 15:00:31  5-MIN KAQV 062100Z AUTO VRB03KT 10SM CLR 15/M06 A3035 -10 22 0 VRB/03 RMK AO2 T01501061
03949KAQV AQV20190306150510603/06/19 15:05:31  5-MIN KAQV 062105Z AUTO 00000KT 10SM CLR 14/M07 A3034 -10 21 0 000/00 RMK AO2 T01441072
03949KAQV AQV20190306151010503/06/19 15:10:31  5-MIN KAQV 062110Z AUTO VRB03KT 9SM CLR 14/M07 A3034 -10 22 0 VRB/03 RMK AO2 T01441067
03949KAQV AQV20190306151505503/06/19 15:15:31  5-MIN KAQV 062115Z AUTO 00000KT11006
03949KAQV AQV20190306220510903/06/19 22:05:31  5-MIN KAQV 070405Z AUTO 17003KT 10SM CLR 06/M01 A3028 40 65 -1000 170/03 RMK AO2 T00561006
03949KAQV AQV20190306221010903/06/19 22:10:31  5-MIN KAQV 070410Z AUTO 00000KT 10SM CLR 06/M01 A3028 40 65 -1000 000/00 RMK AO2 T00561006
03949KAQV AQV20190306221511103/06/19 22:15:31  5-MIN KAQV 070415Z AUTO 00000KT 10SM CLR 05/M01 A3028 4-MIN67 -1100 000/00 RMK AO2 T00501006
03949KAQV AQV20190306222010903/06/19 22:20:31  5-MIN KAQV 070420Z AUTO 00000KT 10SM CLR 06/M01 A3029 40 65 -1000 000/00 RMK AO2 T00561006
03949KAQV AQV20190306222510903/06/19 22:25:31  5-MIN KAQV 070425Z AUTO 00000KT 10SM CLR 06/M01 A3029 30 62 -1000 000/00 RMK AO2 T00561011
03949KAQV AQV20190306223010803/06/19 22:30:31  5-MIN KAQV 070430Z AUTO VRB03KT 10SM CLR 06/M01 A3029 30 60 -900 VRB/03 RMK AO2 T00611011
03949KAQV AQV20190306223511103/06/19 22:35:31  5-MIN KAQV 070435Z AUTO 00000KT 10SM SCT060 06/M01 A3029 40 60 -900 000/00 RMK AO2 T00611011
03949KAQV AQV20190306224011103/06/19 22:40:31  5-MIN KAQV 070440Z AUTO VRB03KT 10SM BKN060 07/M01 A3029 40 60 -900 VRB/03 RMK AO2 T00671006
03949KAQV AQV20190306224511103/06/19 22:45:31  5-MIN KAQV 070445Z AUTO 00000KT 10SM BKN055 07/M01 A3029 40 57 -900 000/00 RMK AO2 T00671011
03949KAQV AQV20190306225011803/06/19 22:50:31  5-MIN KAQV 070450Z AUTO VRB03KT 10SM BKN060 07/M01 A302103/06/19 23:15:31  RMK AO2 SLP259 T00721011
03949KAQV AQV20190306225511803/06/19 22:55:31  5-MIN KAQV 070455Z AUTO VRB04KT 10SM OVC060 07/M01 A3029 40 55 -800 VRB/04 RMK AO2 SLP258 T00721011
03949KAQV AQV20190306230011103/06/19 23:00:31  5-MIN KAQV 070500Z AUTO VRB04KT 10SM OVC055 08/M01 A3029 40 53 -700 VRB/04 RMK AO2 T00781011
03949KAQV AQV20190306230522203/06/19 23:05:31  5-MIN KAQV 070505Z AUTO VRB04KT 10SM OVC055 08/M01 A3029 30 53 -700 VRB/04 RMK AOUTO 00000KT 10SM OVC060 08/M01 A3029 30V 070510Z AUTO VRB03KT 10SM OVC055 08/M01 A3029 40 53 -700 VRB/03 RMK AO2 T00781011
03949KAQV AQV20190306231511103/06/19 23:15:31  5-MIN KAQV 070515Z AUTO VRB04KT 10SM OVC055 08/M01 A3029 40 53 -700 VRB/04 RMK AO2 T00781011
03949KAQV AQV20190306232011103/06/19 23:20:31  5-MIN KAQV 070520Z AUTO VRB04KT 10SM OVC055 08/M01 A3029 40 55 -700 VRB/04 RMK AO2 T00781006
03949KAQV AQV20190306233011103/06/19 23:30:31  5-MIN KAQV 070530Z AUTO 00000KT 10SM OVC060 08/M01 A3029 30 55 -700 000/00 RMK AO2 T00781006
03949KAQV AQV20190306233511103/06/19 23:35:31  5-MIN KAQV 070535Z AUTO VRB04KT 10SM OVC060 08/M01 A3029 30 55 -700 VRB/04 RMK AO2 T00781006
03949KAQV AQV20190306234011803/06/19 23:40:31  5-MIN KAQV 070540Z AUTO VRB05KT 10SM OVC060 08/M01 A3029 40 55 -70 55 -700 VRB/03 RMK AO2 T00781006
03949KAQV AQV20190306235005003/06/19 23:50:31  5-MIN KAQV 070550Z O2 T00781006
03949KAQV AQV20190306235013603/06/19 23:50:31  5-MIN KAQV 070550Z AUTO 10SM OVC060 08/M01 A3029 40 55 -700 M /M RMK AO2 SLP258 T00781006 10122 20050 401501033 55003
03949KAQV AQV20190306235516403/06/19 23:55:31  5-MIN KAQV 070555Z AUTO VRB04KT 10SM OVC060 08/00 A3029 40 58 -700 VRB/03 RMK AO2 T00780000VC060 08/M01 A3029 40 55 -700 VRB/03 RMK AO2 T00781006
03949KAQV AQV20190307000510403/07/19 00:05:31  5-MIN KAQV 070605Z 000KT 10SM OVC060 08/M01 A3029 40 55 -700 000/00 RMK AO2 T00781006
03949KAQV AQV20190307000511003/07/19 00:05:31  5-MIN KAQV 070605Z AUTO VRB04KT 10SM OVC055 08/00 A3029 40 58 -700 VRB/04 RMK AO2 T00780000
03949KAQV AQV20190307001016403/07/19 00:10:31  5-MIN KAQV 070610Z AUTO 19005KT 10SM OVC055 08/00 A3028 40 58 -700 180/05 RMK AO2 T0078000003/07/19 00:15:318 50 58 -700 180/04 RMK AO2 T00780000
03949KAQV AQV20190307002511003/07/19 00:25:31  5-MIN KAQV 070625Z AUTO VRB03KT 10SM OVC055 08/00 A3028 40 58 -700 VRB/03 RMK AO2 T00780000
03949KAQV AQV20190307003022203/07/19 00:30:31  5-MIN KAQV 070630Z AUTO VRB04KT 10SM OVC055 08/00 A/19 00:55:31  5-MIN KAQV 070655Z AUTO VRB03KT 10SM OVC055 08/01 A3029 40 60 -700 VRB 19004KT 10SM OVC055 08/00 A3028 50 58 -700 180/04 RMK AO2 T00780000
03949KAQV AQV20190307004011003/07/19 00:40:31  5-MIN KAQV 070640Z AUTO VRB03KT 10SM OVC055 08/00 A3028 50 58 -700 VRB/03 RMK AO2 T00780000
03949KAQV AQV20190307004016603/07/19 00:40:31  5-MIN KAQV 070640Z AUTO VRB03KT 10SM OVC055 0800:20:31  5-MIN KAQV 070620Z AUTO VRB03KT 10SM OVC055 08/00 A3029 40 58 -700 VRB/03 RMK AO2 T00780000
03949KAQV AQV20190307004511003/07/19 00:45:31  5-MIN KAQV 070645Z AUTO VRB03KT 10SM OVC055 08/00 A3028 50 58 -700 VRB/03 RMK AO2 T00780000
03949KAQV AQV20190307005011703/07/19 00:50:31  5-MIN KAQV 070650Z AUTO VRB04KT 10SM OVC055 08/00 A3028 40 58 -700 VRB/04 RMK AO2 SLP255 T00780000
03949KAQV AQV20190307005511703/07/19 00:55:31  5-MIN KAQV 070655Z AUTO VRB03KT 10SM OVC055 08/01 A3029 40 60 -700 VRB/03 RMK AO2 SLP257 T00780006
03949KAQV AQV20190307010011003/07/19 01:00:31  5-MIN KAQV 070700Z AUTO VRB04KT 10SM OVC055 08/01 A3029 40 60 -700 VRB/04 RMK AO2 T00780006
03949KAQV AQV20190307010511003/07/19 01:05:31  5-MIN KAQV 070705Z AUTO 19005KT 10SM OVC055 08/01 A3028 40 60 -700 180/05 RMK AO2 T00780006
03949KAQV AQV20190307221510903/07/19 22:15:31  5-MIN KAQV 080415Z AUTO VRB06KT 9SM OVC004 14/13 A3003 270 96 200 VRB/06 RMK AO2 T01390133
03949KAQV AQV20190307222011003/07/19 22:20:31  5-MIN KAQV 080420Z AUTO VRB05KT 10SM OVC004 14/13 A3003 280 93 300 VRB/05 RMK AO2 T01440133
03949KAQV AQV20190307222511003/07/19 22:25:31  5-MIN KAQV 080425Z AUTO 18007KT 10SM OVC004 14/13 A3003 280 93 300 180/07 RMK AO2 T01440133
03949KAQV AQV20190307223011603/07/19 22:30:31  5-MIN KAQV 080430Z AUTO VRB06G16KT 10SM OVC004 14/13 A3003 280 93 300 VRB/06G16 RMK AO2 T01440133
03949KAQV AQV20190307223511603/07/19 22:35:31  5-MIN KAQV 080435Z AUTO 18005G16KT 10SM OVC004 14/13 A3002 280 93 300 180/05G16 RMK AO2 T01440133
03949KAQV AQV20190307224011003/07/19 22:40:31  5-MIN KAQV 080440Z AUTO 18006KT 10SM OVC004 14/13 A3002 290 93 300 170/06 RMK AO2 T01440133
03949KAQV AQV20190307224511703/07/19 22:45:31  5-MIN KAQV 080445Z AUTO 18007KT 10SM OVC004 14/13 A3001 300 93 300 180/07 RMK AO2 PRESFR T01440133
03949KAQV AQV20190307225013903/07/19 22:50:31  5-MIN KAQV 080450Z AUTO 17010G15KT 130V210 10SM OVC004 14/13 A3001 300 93 300 170/10G15 130V210 RMK AO2 SLP160 T01440133
03949KAQV AQV20190307225512203/07/19 22:55:31  5-MIN KAQV 080455Z AUTO 18006G15KT 9SM OVC004 14/13 A3001 300 93 300 170/06G15 RMK AO2 SLP161 T01440133
03949KAQV AQV20190307230010903/07/19 23:00:31  5-MIN KAQV 080500Z AUTO VRB04KT 9SM OVC004 14/14 A3002 290 96 300 VRB/04 RMK AO2 T01440139
03949KAQV AQV20190307230510903/07/19 23:05:31  5-MIN KAQV 080505Z AUTO 17005KT 8SM OVC004 14/14 A3002 290 96 300 170/05 RMK AO2 T01440139
03949KAQV AQV20190307231009903/07/19 23:10:31  5-MIN KAQV 080510Z AUTO 8SM OVC004 14/14 A3001 290 96 300 M /M RMK AO2 T01440139
03949KAQV AQV20190307231510903/07/19 23:15:31  5-MIN KAQV 080515Z AUTO 18007KT 7SM OVC003 14/14 A3001 290 96 300 180/07 RMK AO2 T01440139
03949KAQV AQV20190307232010903/07/19 23:20:31  5-MIN KAQV 080520Z AUTO VRB05KT 7SM OVC003 14/14 A3002 290 96 300 VRB/05 RMK AO2 T01440139
03949KAQV AQV20190307232510903/07/19 23:25:31  5-MIN KAQV 080525Z AUTO VRB06KT 7SM OVC003 14/14 A3001 290 96 300 VRB/06 RMK AO2 T01440139
03949KAQV AQV20190307233011203/07/19 23:30:31  5-MIN KAQV 080530Z AUTO VRB06KT 6SM BR OVC003 14/14 A3002 290 96 300 VRB/06 RMK AO2 T01440139
03949KAQV AQV20190307233511203/07/19 23:35:31  5-MIN KAQV 080535Z AUTO VRB05KT 6SM BR OVC003 14/14 A3002 290 96 300 VRB/05 RMK AO2 T01440139
03949KAQV AQV20190307234011203/07/19 23:40:31  5-MIN KAQV 080540Z AUTO 19005KT 6SM BR OVC003 14/14 A3002 290 96 300 180/05 RMK AO2 T01440139
03949KAQV AQV20190307234511203/07/19 23:45:31  5-MIN KAQV 080545Z AUTO VRB05KT 5SM BR OVC003 14/14 A3002 290 96 300 VRB/05 RMK AO2 T01440139
03949KAQV AQV20190307235015303/07/19 23:50:31  5-MIN KAQV 080550Z AUTO VRB05KT 5SM BR OVC003 14/14 A3002 290 96 300 VRB/05 RMK AO2 SLP163 60002 T01440139 10144 20133 401670078 58008
03949KAQV AQV20190307235515303/07/19 23:55:31  5-MIN KAQV 080555Z AUTO VRB06KT 4SM BR OVC003 15/14 A3002 290 93 400 VRB/06 RMK AO2 SLP164 60002 T01500139 10150 20133 401670078 58008
03949KAQV AQV20190308000011203/08/19 00:00:31  5-MIN KAQV 080600Z AUTO VRB04KT 4SM BR OVC003 15/14 A3002 290 93 400 VRB/04 RMK AO2 T01500139
03949KAQV AQV20190308000511203/08/19 00:05:31  5-MIN KAQV 080605Z AUTO 19005KT 4SM BR OVC003 15/14 A3002 290 93 400 180/05 RMK AO2 T01500139
03949KAQV AQV20190308001011203/08/19 00:10:31  5-MIN KAQV 080610Z AUTO 18007KT 4SM BR OVC003 15/14 A3002 290 96 400 180/07 RMK AO2 T01500144
03949KAQV AQV20190308001511203/08/19 00:15:31  5-MIN KAQV 080615Z AUTO VRB04KT 4SM BR OVC003 15/14 A3002 280 96 400 VRB/04 RMK AO2 T01500144
03949KAQV AQV20190308002011203/08/19 00:20:31  5-MIN KAQV 080620Z AUTO 17008KT 4SM BR OVC002 15/14 A3001 290 96 400 160/08 RMK AO2 T01500144
03949KAQV AQV20190308002511203/08/19 00:25:31  5-MIN KAQV 080625Z AUTO VRB05KT 4SM BR OVC002 15/14 A3001 290 96 400 VRB/05 RMK AO2 T01500144
03949KAQV AQV20190308003011203/08/19 00:30:31  5-MIN KAQV 080630Z AUTO VRB06KT 3SM BR OVC002 15/14 A3001 290 96 400 VRB/06 RMK AO2 T01500144
03949KAQV AQV20190308003511203/08/19 00:35:31  5-MIN KAQV 080635Z AUTO VRB05KT 3SM BR OVC002 15/14 A3001 290 96 400 VRB/05 RMK AO2 T01500144
03949KAQV AQV20190308004011203/08/19 00:40:31  5-MIN KAQV 080640Z AUTO VRB06KT 3SM BR OVC002 15/14 A3001 290 96 400 VRB/06 RMK AO2 T01500144
03949KAQV AQV20190308004511203/08/19 00:45:31  5-MIN KAQV 080645Z AUTO 18005KT 3SM BR OVC002 15/14 A3001 290 96 400 170/05 RMK AO2 T01500144
03949KAQV AQV20190308005010603/08/19 00:50:31  5-MIN KAQV 080650Z AUTO 18005KT 2 1/2SM BR OVC002 15/14 A3001 290 96 400 170/05 RMK AO2
03949KAQV AQV20190308005512303/08/19 00:55:31  5-MIN KAQV 080655Z AUTO 17005KT 2 1/2SM BR OVC002 15/14 A3001 290 96 400 160/05 RMK AO2 SLP161 T01500144
03949KAQV AQV20190308010011603/08/19 01:00:31  5-MIN KAQV 080700Z AUTO 17005KT 2 1/2SM BR OVC002 15/14 A3001 300 96 400 170/05 RMK AO2 T01500144
03949KAQV AQV20190308010511603/08/19 01:05:31  5-MIN KAQV 080705Z AUTO VRB04KT 2 1/2SM BR OVC002 15/14 A3001 300 96 400 VRB/04 RMK AO2 T01500144
03949KAQV AQV20190308011011603/08/19 01:10:31  5-MIN KAQV 080710Z AUTO 17005KT 2 1/2SM BR OVC002 15/14 A3000 300 96 400 160/05 RMK AO2 T01500144
03949KAQV AQV20190308011511603/08/19 01:15:31  5-MIN KAQV 080715Z AUTO VRB04KT 2 1/2SM BR OVC002 15/14 A3000 300 96 400 VRB/04 RMK AO2 T01500144
03949KAQV AQV20190308012011203/08/19 01:20:31  5-MIN KAQV 080720Z AUTO VRB06KT 2SM BR OVC002 15/14 A3000 310 96 400 VRB/06 RMK AO2 T01500144
03949KAQV AQV20190308012511203/08/19 01:25:31  5-MIN KAQV 080725Z AUTO 18006KT 2SM BR OVC002 15/14 A2999 310 96 400 170/06 RMK AO2 T01500144
03949KAQV AQV20190308013011203/08/19 01:30:31  5-MIN KAQV 080730Z AUTO VRB04KT 2SM BR OVC002 15/14 A2999 310 96 400 VRB/04 RMK AO2 T01500144
03949KAQV AQV20190308013511603/08/19 01:35:31  5-MIN KAQV 080735Z AUTO 18006KT 1 3/4SM BR OVC002 15/14 A2999 310 96 400 170/06 RMK AO2 T01500144
03949KAQV AQV20190308014011603/08/19 01:40:31  5-MIN KAQV 080740Z AUTO VRB04KT 1 3/4SM BR OVC002 16/14 A2999 310 93 500 VRB/04 RMK AO2 T01560144
03949KAQV AQV20190308014511603/08/19 01:45:31  5-MIN KAQV 080745Z AUTO VRB04KT 1 3/4SM BR OVC002 16/14 A2999 310 93 500 VRB/04 RMK AO2 T01560144
03949KAQV AQV20190308015012303/08/19 01:50:31  5-MIN KAQV 080750Z AUTO VRB04KT 1 3/4SM BR OVC002 16/15 A2999 310 96 500 VRB/04 RMK AO2 SLP154 T01560150
03949KAQV AQV20190308015512303/08/19 01:55:31  5-MIN KAQV 080755Z AUTO VRB03KT 1 3/4SM BR OVC002 16/15 A2998 320 96 500 VRB/03 RMK AO2 SLP153 T01560150
03949KAQV AQV20190308020011603/08/19 02:00:31  5-MIN KAQV 080800Z AUTO VRB05KT 1 3/4SM BR OVC002 16/15 A2998 320 96 500 VRB/05 RMK AO2 T01560150
03949KAQV AQV20190308020511603/08/19 02:05:31  5-MIN KAQV 080805Z AUTO VRB04KT 1 3/4SM BR OVC002 16/15 A2998 320 96 500 VRB/04 RMK AO2 T01560150
03949KAQV AQV20190308021011603/08/19 02:10:31  5-MIN KAQV 080810Z AUTO 18005KT 1 3/4SM BR OVC002 16/15 A2998 320 96 500 180/05 RMK AO2 T01560150
03949KAQV AQV20190308021511603/08/19 02:15:31  5-MIN KAQV 080815Z AUTO VRB05KT 1 1/2SM BR OVC002 16/15 A2998 320 96 500 VRB/05 RMK AO2 T01560150
03949KAQV AQV20190308022011603/08/19 02:20:31  5-MIN KAQV 080820Z AUTO 18007KT 1 1/2SM BR OVC002 16/15 A2998 330 96 500 170/07 RMK AO2 T01560150
03949KAQV AQV20190308022511603/08/19 02:25:31  5-MIN KAQV 080825Z AUTO VRB05KT 1 1/2SM BR OVC002 16/15 A2997 330 96 500 VRB/05 RMK AO2 T01560150
03949KAQV AQV20190308023011603/08/19 02:30:31  5-MIN KAQV 080830Z AUTO 17004KT 1 1/2SM BR OVC002 16/15 A2997 330 96 500 170/04 RMK AO2 T01560150
03949KAQV AQV20190308023511603/08/19 02:35:31  5-MIN KAQV 080835Z AUTO 18005KT 1 1/2SM BR OVC002 16/15 A2997 330 96 500 180/05 RMK AO2 T01560150
03949KAQV AQV20190308024011603/08/19 02:40:31  5-MIN KAQV 080840Z AUTO VRB03KT 1 3/4SM BR OVC002 16/15 A2997 330 96 500 VRB/03 RMK AO2 T01560150
03949KAQV AQV20190308024511603/08/19 02:45:31  5-MIN KAQV 080845Z AUTO VRB05KT 1 3/4SM BR OVC002 16/15 A2997 330 96 500 VRB/05 RMK AO2 T01560150
03949KAQV AQV20190308025012903/08/19 02:50:31  5-MIN KAQV 080850Z AUTO 18006KT 1 3/4SM BR OVC002 16/15 A2997 330 96 500 180/06 RMK AO2 SLP147 T01560150 55007
03949KAQV AQV20190308025512903/08/19 02:55:31  5-MIN KAQV 080855Z AUTO VRB04KT 1 1/2SM BR OVC002 16/15 A2996 340 96 500 VRB/04 RMK AO2 SLP146 T01560150 55007
03949KAQV AQV20190308030010603/08/19 03:00:31  5-MIN KAQV 080900Z AUTO 1 1/2SM BR OVC002 16/15 A2996 340 96 500 M /M RMK AO2 T01560150
03949KAQV AQV20190308030511603/08/19 03:05:31  5-MIN KAQV 080905Z AUTO 17005KT 1 1/2SM BR OVC002 16/15 A2996 340 96 500 170/05 RMK AO2 T01560150
03949KAQV AQV20190308031011703/08/19 03:10:31  5-MIN KAQV 080910Z AUTO VRB03KT 1 1/2SM BR OVC002 16/16 A2997 330 100 500 VRB/03 RMK AO2 T01560156
03949KAQV AQV20190308031511603/08/19 03:15:31  5-MIN KAQV 080915Z AUTO 18004KT 1 1/2SM BR OVC002 16/16 A2997 330 96 600 180/04 RMK AO2 T01610156
03949KAQV AQV20190308032011603/08/19 03:20:31  5-MIN KAQV 080920Z AUTO VRB03KT 1 1/2SM BR OVC002 16/16 A2997 330 96 600 VRB/03 RMK AO2 T01610156
03949KAQV AQV20190308032511603/08/19 03:25:31  5-MIN KAQV 080925Z AUTO VRB03KT 1 1/2SM BR OVC002 16/16 A2997 330 96 600 VRB/03 RMK AO2 T01610156
03949KAQV AQV20190308033011603/08/19 03:30:31  5-MIN KAQV 080930Z AUTO VRB03KT 1 1/2SM BR OVC002 16/16 A2997 330 96 600 VRB/03 RMK AO2 T01610156
03949KAQV AQV20190308033511603/08/19 03:35:31  5-MIN KAQV 080935Z AUTO VRB04KT 1 1/2SM BR OVC002 16/16 A2997 330 96 600 VRB/04 RMK AO2 T01610156
03949KAQV AQV20190308034011603/08/19 03:40:31  5-MIN KAQV 080940Z AUTO 00000KT 1 1/2SM BR OVC002 16/16 A2997 330 96 600 000/00 RMK AO2 T01610156
03949KAQV AQV20190308034511603/08/19 03:45:31  5-MIN KAQV 080945Z AUTO 16004KT 1 1/2SM BR OVC002 16/16 A2997 330 96 600 160/04 RMK AO2 T01610156
03949KAQV AQV20190308035012303/08/19 03:50:31  5-MIN KAQV 080950Z AUTO 16005KT 1 1/2SM BR OVC002 16/16 A2996 340 96 600 160/05 RMK AO2 SLP146 T01610156
03949KAQV AQV20190308035512303/08/19 03:55:31  5-MIN KAQV 080955Z AUTO 00000KT 1 1/2SM BR OVC002 16/16 A2996 340 96 600 000/00 RMK AO2 SLP145 T01610156
03949KAQV AQV20190308040011603/08/19 04:00:31  5-MIN KAQV 081000Z AUTO VRB03KT 1 1/2SM BR OVC002 16/16 A2996 340 96 600 VRB/03 RMK AO2 T01610156
03949KAQV AQV20190308040511603/08/19 04:05:31  5-MIN KAQV 081005Z AUTO 17004KT 1 1/2SM BR OVC002 16/16 A2996 340 96 600 170/04 RMK AO2 T01610156
03949KAQV AQV20190308041013203/08/19 04:10:31  5-MIN KAQV 081010Z AUTO VRB04KT 1 1/2SM -RA BR OVC002 16/16 A2996 340 96 600 VRB/04 RMK AO2 RAB08 P0000 T01610156
03949KAQV AQV20190308041513203/08/19 04:15:31  5-MIN KAQV 081015Z AUTO VRB04KT 1 1/2SM -RA BR OVC002 16/16 A2996 340 96 600 VRB/04 RMK AO2 RAB08 P0000 T01610156
03949KAQV AQV20190308042013103/08/19 04:20:31  5-MIN KAQV 081020Z AUTO 16003KT 1 1/2SM BR OVC002 16/16 A2996 340 96 600 160/03 RMK AO2 RAB08E17 P0000 T01610156
03949KAQV AQV20190308042517303/08/19 04:25:31  5-MIN KAQV 081025Z AUTO 17003KT 1 1/2SM BR OVC002 16/16 A2996 340 96 600 170/03 RMK AO2 RAB08E17 P0000 T01610156A2998 320 93 1000 VRB/06 RMK AO2 T01940183
03949KAQV AQV20190308091011203/08/19 09:10:31  5-MIN KAQV 081510Z AUTO VRB06KT 3SM BR OVC004 19/18 A2998 320 97 900 VRB/06 RMK AO2 T01890183
03949KAQV AQV20190308091511203/08/19 09:15:31  5-MIN KAQV 081515Z AUTO 19007KT 3SM BR OVC004 19/18 A2998 320 97 900 180/07 RMK AO2 T01890183
03949KAQV AQV20190308092011303/08/19 09:20:31  5-MIN KAQV 081520Z AUTO VRB06KT 3SM BR OVC004 19/18 A2998 320 93 1000 VRB/06 RMK AO2 T01940183
03949KAQV AQV20190308092511303/08/19 09:25:31  5-MIN KAQV 081525Z AUTO 19006KT 3SM BR OVC004 19/18 A2998 320 93 1000 190/06 RMK AO2 T01940183
03949KAQV AQV20190308093011303/08/19 09:30:31  5-MIN KAQV 081530Z AUTO VRB06KT 3SM BR OVC004 19/18 A2998 320 93 1000 VRB/06 RMK AO2 T01940183
03949KAQV AQV20190308093511303/08/19 09:35:31  5-MIN KAQV 081535Z AUTO VRB05KT 3SM BR OVC004 19/18 A2998 320 93 1000 VRB/05 RMK AO2 T01940183
03949KAQV AQV20190308094011303/08/19 09:40:31  5-MIN KAQV 081540Z AUTO VRB05KT 3SM BR OVC005 19/18 A2998 320 93 1000 VRB/05 RMK AO2 T01940183
03949KAQV AQV20190308094511903/08/19 09:45:31  5-MIN KAQV 081545Z AUTO 18007G15KT 3SM BR OVC005 19/18 A2998 330 93 1000 180/07G15 RMK AO2 T01940183
03949KAQV AQV20190308095012603/08/19 09:50:31  5-MIN KAQV 081550Z AUTO VRB05G15KT 3SM BR OVC005 19/18 A2998 330 93 1000 VRB/05G15 RMK AO2 SLP150 T01940183
03949KAQV AQV20190308095512003/08/19 09:55:31  5-MIN KAQV 081555Z AUTO 20006KT 3SM BR OVC005 19/18 A2998 320 93 1000 190/06 RMK AO2 SLP151 T01940183
03949KAQV AQV20190308100012903/08/19 10:00:31  5-MIN KAQV 081600Z AUTO 19007KT 150V220 3SM BR OVC005 19/18 A2998 320 93 1000 180/07 150V220 RMK AO2 T01940183
03949KAQV AQV20190308100511303/08/19 10:05:31  5-MIN KAQV 081605Z AUTO VRB06KT 4SM BR OVC004 19/18 A2998 320 93 1000 VRB/06 RMK AO2 T01940183
03949KAQV AQV20190308101011303/08/19 10:10:31  5-MIN KAQV 081610Z AUTO VRB06KT 3SM BR OVC004 19/18 A2998 320 93 1000 VRB/06 RMK AO2 T01940183
03949KAQV AQV20190308101511203/08/19 10:15:31  5-MIN KAQV 081615Z AUTO VRB05KT 3SM BR OVC004 19/18 A2999 320 93 900 VRB/05 RMK AO2 T01940183
03949KAQV AQV20190308102012803/08/19 10:20:31  5-MIN KAQV 081620Z AUTO 20007KT 170V270 4SM BR OVC004 19/18 A2999 320 93 900 190/07 170V270 RMK AO2 T01940183
03949KAQV AQV20190308102511303/08/19 10:25:31  5-MIN KAQV 081625Z AUTO VRB05KT 4SM BR OVC004 20/19 A2998 320 93 1000 VRB/05 RMK AO2 T02000189
03949KAQV AQV20190308103011303/08/19 10:30:31  5-MIN KAQV 081630Z AUTO VRB05KT 4SM BR OVC004 20/19 A2999 320 93 1000 VRB/05 RMK AO2 T02000189
03949KAQV AQV20190308103511303/08/19 10:35:31  5-MIN KAQV 081635Z AUTO VRB04KT 4SM BR OVC004 20/19 A2999 320 93 1000 VRB/04 RMK AO2 T02000189
03949KAQV AQV20190308104011303/08/19 10:40:31  5-MIN KAQV 081640Z AUTO VRB06KT 5SM BR OVC004 20/19 A2999 320 93 1000 VRB/06 RMK AO2 T02000189
03949KAQV AQV20190308104512903/08/19 10:45:31  5-MIN KAQV 081645Z AUTO 18007KT 150V220 5SM BR OVC005 20/19 A2998 320 93 1000 180/07 150V220 RMK AO2 T02000189
03949KAQV AQV20190308105011903/08/19 10:50:31  5-MIN KAQV 081650Z AUTO 20007KT 170V260 4SM BR OVC005 20/19 A2998 320 93 1000 200/07 170V260 RMK AO2
03949KAQV AQV20190308105512003/08/19 10:55:31  5-MIN KAQV 081655Z AUTO VRB06KT 4SM BR OVC005 20/19 A2998 320 93 1000 VRB/06 RMK AO2 SLP150 T02000189
03949KAQV AQV20190308110011303/08/19 11:00:31  5-MIN KAQV 081700Z AUTO VRB05KT 4SM BR OVC005 20/19 A2998 320 93 1000 VRB/05 RMK AO2 T02000189
03949KAQV AQV20190308110511303/08/19 11:05:31  5-MIN KAQV 081705Z AUTO VRB05KT 4SM BR OVC005 20/19 A2998 320 93 1000 VRB/05 RMK AO2 T02000189
03949KAQV AQV20190308111011303/08/19 11:10:31  5-MIN KAQV 081710Z AUTO VRB05KT 4SM BR OVC005 20/19 A2998 320 93 1000 VRB/05 RMK AO2 T02000189
03949KAQV AQV20190308111511303/08/19 11:15:31  5-MIN KAQV 081715Z AUTO VRB04KT 4SM BR OVC005 20/19 A2998 320 93 1000 VRB/04 RMK AO2 T02000189
03949KAQV AQV20190308112011303/08/19 11:20:31  5-MIN KAQV 081720Z AUTO 20006KT 4SM BR OVC005 20/19 A2997 330 93 1000 190/06 RMK AO2 T02000189
03949KAQV AQV20190308112511303/08/19 11:25:31  5-MIN KAQV 081725Z AUTO VRB03KT 5SM BR OVC005 20/19 A2997 330 93 1000 VRB/03 RMK AO2 T02000189
03949KAQV AQV20190308113011303/08/19 11:30:31  5-MIN KAQV 081730Z AUTO VRB04KT 5SM BR OVC005 21/19 A2997 330 90 1100 VRB/04 RMK AO2 T02060189
03949KAQV AQV20190308113511303/08/19 11:35:31  5-MIN KAQV 081735Z AUTO VRB05KT 5SM BR OVC006 21/19 A2997 330 90 1100 VRB/05 RMK AO2 T02060189
03949KAQV AQV20190308114011303/08/19 11:40:31  5-MIN KAQV 081740Z AUTO VRB04KT 5SM BR OVC006 21/19 A2997 330 90 1100 VRB/04 RMK AO2 T02060189
03949KAQV AQV20190308114511303/08/19 11:45:31  5-MIN KAQV 081745Z AUTO VRB04KT 5SM BR OVC006 21/19 A2997 330 90 1100 VRB/04 RMK AO2 T02060189
03949KAQV AQV20190308115013803/08/19 11:50:31  5-MIN KAQV 081750Z AUTO VRB05KT 6SM BR OVC006 21/19 A2997 330 90 1100 VRB/05 RMK AO2 SLP146 T02060189 10206 20161 53006
03949KAQV AQV20190308115513803/08/19 11:55:31  5-MIN KAQV 081755Z AUTO VRB05KT 6SM BR OVC006 21/19 A2997 330 90 1100 VRB/05 RMK AO2 SLP146 T02060189 10206 20161 53006
03949KAQV AQV20190308120011303/08/19 12:00:31  5-MIN KAQV 081800Z AUTO VRB03KT 5SM BR OVC007 21/19 A2997 330 90 1100 VRB/03 RMK AO2 T02060189
03949KAQV AQV20190308120510303/08/19 12:05:31  5-MIN KAQV 081805Z AUTO 4SM BR OVC007 21/19 A2997 330 90 1100 M /M RMK AO2 T02060189
03949KAQV AQV20190308121011303/08/19 12:10:31  5-MIN KAQV 081810Z AUTO VRB04KT 3SM BR OVC007 21/19 A2997 330 90 1100 VRB/04 RMK AO2 T02060189
03949KAQV AQV20190308121511703/08/19 12:15:31  5-MIN KAQV 081815Z AUTO VRB05KT 2 1/2SM BR OVC007 21/19 A2996 340 93 1100 VRB/05 RMK AO2 T02060194
03949KAQV AQV20190308122011703/08/19 12:20:31  5-MIN KAQV 081820Z AUTO VRB04KT 2 1/2SM BR OVC007 21/19 A2996 340 93 1100 VRB/04 RMK AO2 T02060194
03949KAQV AQV20190308122511703/08/19 12:25:31  5-MIN KAQV 081825Z AUTO VRB03KTOVC007 21/19 A2996 340 93 1100 VRB/04 RMK AO2 CIG 005V009 T02060194
03949KAQV AQV20190308125013203/08/19 12:50:31  5-MIN KAQV 081850Z AUTO VRB03KT 5SM BR OVC007 21/19 A2995 350 90 1200 VRB/03 RMK AO2 CIG 005V011 SLP141 T02110194
03949KAQV AQV20190308125513203/08/19 12:55:31  5-MIN KAQV 081855Z AUTO VRB03KT 5SM BR OVC007 21/19 A2995 350 90 1200 VRB/03 RMK AO2 CIG 005V010 SLP141 T02110194
03949KAQV AQV20190308130012503/08/19 13:00:31  5-MIN KAQV 081900Z AUTO VRB04KT 5SM BR OVC007 21/19 A2995 350 90 1200 VRB/04 RMK AO2 CIG 006V012 T02110194
03949KAQV AQV20190308130512903/08/19 13:05:31  5-MIN KAQV 081905Z AUTO VRB05KT 5SM BR OVC008 21/19 A2995 350 90 1200 V00 VRB/04 RMK AO2 CIG 008V013 T02110194
03949KAQV AQV20190308133012503/08/19 13:30:31  5-MIN KAQV 081930Z AUTO VRB03KT 6SM BR OVC010 22/19 A2995 350 87 1200 VRB/03 RMK AO2 CIG 008V015 T02170194
03949KAQV AQV20190308133512503/08/19 13:35:31  5-MIN KAQV 081935Z AUTO 21003KT 6SM BR OVC010 22/19 A2995 350 87 1200 210/03 RMK AO2 CIG 008V012 T02170194
03949KAQV AQV20190308134012503/08/19 13:40:31  5-MIN KAQV 081940Z AUTO VRB03KT 6SM BR OVC010 22/19 A2995 350 87 1200 VRB/03 RMK AO2 CIG 008V012 T02170194
03949KAQV AQV20190308134518003/08/19 13:45:31  5-MIN KAQV 081945Z AUTO 00000KT 6SM BR BKN010 OVC014 22/19 A2995 350 87 1200 000/00 RMK AO2 CIG 008V012 T02170194A2994 360 90 1200 000/00 RMK AO2 P0000 T02110194
03949KAQV AQV20190308141512503/08/19 14:15:31  5-MIN KAQV 082015Z AUTO 00000KT 5SM BR OVC011 21/20 A2994 360 93 1200 000/00 RMK AO2 RAE12 P0000 T02110200
03949KAQV AQV20190308142012303/08/19 14:20:31  5-MIN KAQV 082020Z AUTO 00000KT 4SM -RA BR OVC011 21/20 A2994 360 93 1200 000/00 RMK AO2 P0000 T02110200
03949KAQV AQV20190308142512303/08/19 14:25:31  5-MIN KAQV 082025Z AUTO VRB04KT 5SM -RA BR OVC013 22/20 A2994 360 90 1300 VRB/04 RMK AO2 P0000 T02170200
03949KAQV AQV20190308143019103/08/19 14:30:31  5-MIN KAQV 082030Z AUTO VRB03KT 6SM BR OVC013 22/19 A2994 360 87 1300 VRB/03 RMK AO2 BKN022 OVC060 22/20 A2992 380 90 1300 VRB/05 RMK AO2 SLP129 P0001 60001 T02170200 58004
03949KAQV AQV20190308145515503/08/19 14:55:31  5-MIN KAQV 082055Z AUTO VRB05KT 7SM FEW013 BKN029 OVC060 22/20 A2992 380 87 1300 VRB/05 RMK AO2 RAE53 SLP130 P0001 60001 T02220200 58004
03949KAQV AQV20190308150012403/08/19 15:00:31  5-MIN KAQV 082100Z AUTO 17004KT 7SM SCT016 SCT029 OVC060 22/20 A2992 380 87 1300 170/04 RMK AO2 T02220200
03949KAQV AQV20190308150512403/08/19 15:05:31  5-MIN KAQV 082105Z AUTO VRB05KT 8SM FEW018 SCT028 OVC060 22/20 A2992 380 87 1300 VRB/05 RMK AO2 T02220200
03949KAQV AQV20190308151012403/08/19 15:10:31  5-MIN KAQV 082110Z AUTO VRB04KT 8SM FEW009 BKN015 OVC032 22/19 A2992 380 87 1300 170/06 RMK AO2 T02170194
03949KAQV AQV20190308153511703/08/19 15:35:31  5-MIN KAQV 082135Z AUTO 18004KT 8SM BKN011 OVC019 22/19 A2992 380 87 1300 170/04 RMK AO2 T02170194
03949KAQV AQV20190308154011703/08/19 15:40:31  5-MIN KAQV 082140Z AUTO 17006KT 8SM BKN011 OVC019 22/19 A2992 380 87 1300 170/06 RMK AO2 T02170194
03949KAQV AQV20190308154511003/08/19 15:45:31  5-MIN KAQV 082145Z AUTO 17006KT 9SM OVC011 22/19 A2991 380 87 1300 170/06 RMK AO2 T02170194
03949KAQV AQV20190308155018003/08/19 15:50:31  5-MIN KAQV 082150Z AUTO VRB04KT 9SM BKN011 OVC018 22/19 A2991 380 87 1300 VRB/04 RMK AO2 SLP127 T0217019422/19 A2991 390 87 1300 180/07 150V220 RMK AO2 T02170194
03949KAQV AQV20190308162011103/08/19 16:20:31  5-MIN KAQV 082220Z AUTO 18009KT 10SM OVC011 22/19 A2991 390 87 1300 170/09 RMK AO2 T02170194
03949KAQV AQV20190308162511103/08/19 16:25:31  5-MIN KAQV 082225Z AUTO VRB05KT 10SM OVC011 22/19 A2990 390 87 1300 VRB/05 RMK AO2 T02170194
03949KAQV AQV20190308163011103/08/19 16:30:31  5-MIN KAQV 082230Z AUTO 18007KT 10SM OVC011 22/19 A2990 390 87 1300 180/07 RMK AO2 T02170194
03949KAQV AQV20190308163510203/08/19 16:35:31  5-MIN KAQV 082235Z AUTO 18006KT 10SM OVC011 22/19 A2990 1200 M /M RMK AO2 T02110189
03949KAQV AQV20190308170511103/08/19 17:05:31  5-MIN KAQV 082305Z AUTO 18009KT 10SM OVC011 21/19 A2990 400 87 1200 180/09 RMK AO2 T02110189
03949KAQV AQV20190308171011103/08/19 17:10:31  5-MIN KAQV 082310Z AUTO VRB06KT 10SM OVC011 21/19 A2990 400 87 1200 VRB/06 RMK AO2 T02110189
03949KAQV AQV20190308171511703/08/19 17:15:31  5-MIN KAQV 082315Z AUTO 18006G14KT 10SM OVC010 21/19 A2990 400 87 1200 180/06G14 RMK AO2 T02110189
03949KAQV AQV20190308172015703/08/19 17:20:31  5-MIN KAQV 082320Z AUTO 18007G14KT 10SM OVC010 21/19 A2990 400 87 1200 170/07G14 RMK AO2 T027 1200 180/08G15 RMK AO2 CIG 009V014 T02110189
03949KAQV AQV20190308174511103/08/19 17:45:31  5-MIN KAQV 082345Z AUTO 17008KT 10SM OVC010 21/19 A2990 400 87 1200 170/08 RMK AO2 T02110189
03949KAQV AQV20190308175012903/08/19 17:50:31  5-MIN KAQV 082350Z AUTO 18007KT 140V210 10SM OVC009 21/19 A2990 400 90 1200 170/07 140V210 RMK AO2 CIG 008V013
03949KAQV AQV20190308175514203/08/19 17:55:31  5-MIN KAQV 082355Z AUTO 17007KT 10SM OVC009 21/19 A2990 400 90 1200 170/07 RMK AO2 SLP122 60001 T02060189 10228 20206 58015
03949KAQV AQV20190308180021103/08/19 18:00:31  5-MIN KAQV 090000Z AUTO 18009G15KT 10SM OVC009 21/19 A2990 400 90 1200 180/09G15 RMK AO2 T0206018903/08/19 18QV 090025Z AUTO 18008KT 8SM OVC008 21/19 A2990 400 90 1200 180/08 RMK AO2 T02060189
03949KAQV AQV20190308183011003/08/19 18:30:31  5-MIN KAQV 090030Z AUTO 18008KT 7SM OVC008 21/19 A2990 390 90 1200 180/08 RMK AO2 T02060189
03949KAQV AQV20190308183511003/08/19 18:35:31  5-MIN KAQV 090035Z AUTO VRB06KT 7SM OVC008 21/19 A2990 400 90 1200 VRB/06 RMK AO2 T02060189
03949KAQV AQV20190308184013203/08/19 18:40:31  5-MIN KAQV 090040Z AUTO 19007G15KT 150V300 7SM OVC008 21/19 A2990 400 90 1200 180/07G15 150V300 RMK AO2 T02060189
03949KAQV AQV20190308184520003/08/19 18:45:31  5-MIN KAQV 090045Z AUTO 19006G15KT 7SM OVC008 21/19 A2990 390 90 1200 180/06G15 RMK AO2 T0206018903V 090110Z AUTO 19005KT 9SM OVC008 21/19 A2991 390 90 1200 180/05 RMK AO2 T02060189
03949KAQV AQV20190308191511003/08/19 19:15:31  5-MIN KAQV 090115Z AUTO VRB05KT 9SM OVC008 21/19 A2991 390 90 1200 VRB/05 RMK AO2 T02060189
03949KAQV AQV20190308192011003/08/19 19:20:31  5-MIN KAQV 090120Z AUTO 19007KT 8SM OVC008 21/18 A2991 390 87 1200 180/07 RMK AO2 T02060183
03949KAQV AQV20190308192511003/08/19 19:25:31  5-MIN KAQV 090125Z AUTO VRB05KT 9SM OVC008 21/18 A2990 390 87 1200 VRB/05 RMK AO2 T02060183
03949KAQV AQV20190308193015303/08/19 19:30:31  5-MIN KAQV 090130Z AUTO 17004KT 9SM OVC009 21/18 A2990 390 87 1200 170/04 RMK AO2 T02060183390 87 1200 VRB/05 RMK AO2 SLP125 T02060183
03949KAQV AQV20190308200011003/08/19 20:00:31  5-MIN KAQV 090200Z AUTO 17006KT 8SM OVC009 21/18 A2991 390 87 1200 170/06 RMK AO2 T02060183
03949KAQV AQV20190308200511003/08/19 20:05:31  5-MIN KAQV 090205Z AUTO 18007KT 8SM OVC009 21/18 A2990 390 87 1200 170/07 RMK AO2 T02060183
03949KAQV AQV20190308201011003/08/19 20:10:31  5-MIN KAQV 090210Z AUTO VRB06KT 9SM OVC009 21/18 A2990 390 87 1200 VRB/06 RMK AO2 T02060183
03949KAQV AQV20190308201511003/08/19 20:15:31  5-MIN KAQV 090215Z AUTO 19006KT 9SM OVC009 21/18 A2990 390 87 1200 190/06 RMK AO2 T02060183
03949KAQV AQV20190308202011003/08/19 20:20:31  5-MIN KAQV 090220Z AUTO 18005KT 9SM OVC009 21/18 A2990 390 87 1200 170/05 RMK AO2 T02060183
03949KAQV AQV20190308202511003/08/19 20:25:31  5-MIN KAQV 090225Z AUTO VRB04KT 9SM OVC010 21/18 A2990 390 87 1200 VRB/04 RMK AO2 T02060183
03949KAQV AQV20190308203011003/08/19 20:30:31  5-MIN KAQV 090230Z AUTO VRB05KT 9SM OVC010 21/18 A2991 390 87 1200 VRB/05 RMK AO2 T02060183
03949KAQV AQV20190308203511003/08/19 20:35:31  5-MIN KAQV 090235Z AUTO VRB05KT 8SM OVC010 21/18 A2991 390 87 1200 VRB/05 RMK AO2 T02060183
03949KAQV AQV20190308204011003/08/19 20:40:31  5-MIN KAQV 090240Z AUTO VRB05KT 8SM OVC010 20/18 A2991 390 90 1100 VRB/05 RMK AO2 T02000183
03949KAQV AQV20190308204511003/08/19 20:45:31  5-MIN KAQV 090245Z AUTO VRB05KT 9SM OVC010 21/18 A2990 390 87 1200 VRB/05 RMK AO2 T02060183
03949KAQV AQV20190308205012403/08/19 20:50:31  5-MIN KAQV 090250Z AUTO VRB06KT 10SM OVC010 20/18 A2990 400 90 1100 VRB/06 RMK AO2 SLP122 T02000183 55008
03949KAQV AQV20190308205514003/08/19 20:55:31  5-MIN KAQV 090255Z AUTO 18008KT 140V210 10SM OVC010 21/18 A2990 400 87 1200 170/08 140V210 RMK AO2 SLP122 T02060183 55008
03949KAQV AQV20190308210011103/08/19 21:00:31  5-MIN KAQV 090300Z AUTO 18005KT 10SM OVC012 20/18 A2990 400 90 1100 180/05 RMK AO2 T02000183
03949KAQV AQV20190308210511103/08/19 21:05:31  5-MIN KAQV 090305Z AUTO VRB06KT 10SM OVC012 20/18 A2990 390 90 1100 VRB/06 RMK AO2 T02000183
03949KAQV AQV20190308211011103/08/19 21:10:31  5-MIN KAQV 090310Z AUTO VRB05KT 10SM OVC012 21/18 A2990 390 87 1200 VRB/05 RMK AO2 T02060183
03949KAQV AQV20190308211511103/08/19 21:15:31  5-MIN KAQV 090315Z AUTO VRB04KT 10SM OVC012 20/18 A2990 390 90 1100 VRB/04 RMK AO2 T02000183
03949KAQV AQV20190308212011103/08/19 21:20:31  5-MIN KAQV 090320Z AUTO 18005KT 10SM OVC012 20/18 A2990 390 90 1100 180/05 RMK AO2 T02000183
03949KAQV AQV20190308212511103/08/19 21:25:31  5-MIN KAQV 090325Z AUTO 18006KT 10SM OVC012 20/18 A2990 400 90 1100 170/06 RMK AO2 T02000183
03949KAQV AQV20190308213011103/08/19 21:30:31  5-MIN KAQV 090330Z AUTO 18007KT 10SM OVC012 20/18 A2990 400 90 1100 170/07 RMK AO2 T02000183
03949KAQV AQV20190308213511103/08/19 21:35:31  5-MIN KAQV 090335Z AUTO 18005KT 10SM OVC012 20/18 A2989 400 90 1100 170/05 RMK AO2 T02000183
03949KAQV AQV20190308214012703/08/19 21:40:31  5-MIN KAQV 090340Z AUTO 18008KT 120V210 10SM OVC011 20/18 A2989 400 90 1100 170/08 120V210 RMK AO2 T02000183
03949KAQV AQV20190308214511103/08/19 21:45:31  5-MIN KAQV 090345Z AUTO 18007KT 10SM OVC011 20/18 A2990 400 90 1100 170/07 RMK AO2 T02000183
03949KAQV AQV20190308215012403/08/19 21:50:31  5-MIN KAQV 090350Z AUTO VRB05G15KT 10SM OVC011 20/18 A2990 400 90 1100 VRB/05G15 RMK AO2 SLP122 T02000183
03949KAQV AQV20190308215512403/08/19 21:55:31  5-MIN KAQV 090355Z AUTO 17005G15KT 10SM OVC011 20/18 A2990 400 90 1100 170/05G15 RMK AO2 SLP122 T02000183
03949KAQV AQV20190308220011103/08/19 22:00:31  5-MIN KAQV 090400Z AUTO 18006KT 10SM OVC011 20/18 A2990 400 90 1100 180/06 RMK AO2 T02000183
03949KAQV AQV20190308220512303/08/19 22:05:31  5-MIN KAQV 090405Z AUTO 18006KT 10SM OVC011 20/18 A2990 400 90 1100 180/06 RMK AO2 CIG 009V014 T02000183
03949KAQV AQV20190308221012303/08/19 22:10:31  5-MIN KAQV 090410Z AUTO VRB06KT 10SM OVC011 20/18 A2990 400 90 1100 VRB/06 RMK AO2 CIG 009V014 T02000183
03949KAQV AQV20190308221511103/08/19 22:15:31  5-MIN KAQV 090415Z AUTO VRB05KT 10SM OVC011 20/18 A2990 400 90 1100 VRB/05 RMK AO2 T02000183
03949KAQV AQV20190308222011003/08/19 22:20:31  5-MIN KAQV 090420Z AUTO 19004KT 9SM OVC011 20/18 A2990 400 90 1100 180/04 RMK AO2 T02000183
03949KAQV AQV20190308222511003/08/19 22:25:31  5-MIN KAQV 090425Z AUTO VRB05KT 9SM OVC011 20/18 A2990 400 90 1100 VRB/05 RMK AO2 T02000183
03949KAQV AQV20190308223011003/08/19 22:30:31  5-MIN KAQV 090430Z AUTO 18008KT 9SM OVC011 20/18 A2990 400 90 1100 180/08 RMK AO2 T02000183
03949KAQV AQV20190308223511003/08/19 22:35:31  5-MIN KAQV 090435Z AUTO 18007KT 9SM OVC011 20/18 A2989 400 87 1100 180/07 RMK AO2 T02000178
03949KAQV AQV20190308224011003/08/19 22:40:31  5-MIN KAQV 090440Z AUTO 18006KT 9SM OVC011 20/18 A2989 410 87 1100 180/06 RMK AO2 T02000178
03949KAQV AQV20190308224511003/08/19 22:45:31  5-MIN KAQV 090445Z AUTO 18007KT 9SM OVC011 20/18 A2989 410 87 1100 170/07 RMK AO2 T02000178
03949KAQV AQV20190308225013403/08/19 22:50:31  5-MIN KAQV 090450Z AUTO 18006KT 10SM OVC011 20/18 A2988 21/18 A2979 490 87 1300 190/07G18 160V250 RMK AO2 T02060183
03949KAQV AQV20190309044009103/09/19 04:40:31  5-MIN KAQV 091040Z AUTO VRB06G18KT 10SM OVC009 20/18 A2979 AO2 T02000183
03949KAQV AQV20190309050512903/09/19 05:05:31  5-MIN KAQV 091105Z AUTO 19007G15KT 10SM OVC009 20/18 A2979 500 90 1200 180/07G15 RMK AO2 CIG 008V012 T02000183
03949KAQV AQV20190309051012903/09/19 05:10:31  5-MIN KAQV 091110Z AUTO VRB04G15KT 10SM OVC009 20/18 A2979 500 90 1200 VRB/04G15 RMK AO2 CIG 008V012 T02000183
03949KAQV AQV20190309051513903/09/19 05:15:31  5-MIN KAQV 091115Z AUTO 19007KT 160V230 10SM OVC009 20/18 A2979 500 90 1200 190/07 160V230 RMK AO2 CIG 008V012 T02000183
03949KAQV AQV20190309052011703/09/19 05:20:31  5-MIN KAQV 091120Z AUTO 18012G20KT 10SM OVC009 20/18 A2979 500 90 1200 170/12G20 RMK AO2 T02000183
03949KAQV AQV20190309052511703/09/19 05:25:31  5-MIN KAQV 091125Z AUTO 18009G20KT 10SM OVC009 20/18 A2979 500 90 1200 180/09G20 RMK AO2 T02000183
03949KAQV AQV20190309053013303/09/19 05:30:31  5-MIN KAQV 091130Z AUTO 19007G15KT 150V220 10SM OVC009 20/18 A2979 500 90 1200 180/07G15 150V220 RMK AO2 T02000183
03949KAQV AQV20190309053513303/09/19 05:35:31  5-MIN KAQV 091135Z AUTO 18009G14KT 140V240 10SM OVC009 20/18 A2979 500 90 1200 180/09G14 140V240 RMK AO2 T02000183
03949KAQV AQV20190309054011603/09/19 05:40:31  5-MIN KAQV 091140Z AUTO 17008G15KT 9SM OVC008 20/18 A2979 500 90 1200 170/08G15 RMK AO2 T02000183
03949KAQV AQV20190309054511603/09/19 05:45:31  5-MIN KAQV 091145Z AUTO 18006G15KT 8SM OVC008 20/18 A2979 490 90 1200 180/06G15 RMK AO2 T02000183
03949KAQV AQV20190309055016303/09/19 05:50:31  5-MIN KAQV 091150Z AUTO 19007G14KT 160V230 7SM OVC008 20/18 A2980 490 90 1200 180/07G14 160V230 RMK AO2 SLP089 70001 T02000183 10206 20194 58017
03949KAQV AQV20190309055515003/09/19 05:55:31  5-MIN KAQV 091155Z AUTO VRB05G14KT 6SM BR OVC008 20/18 A2980 490 90 1200 VRB/05G14 RMK AO2 SLP089 70001 T02000183 10206 20194 58017
03949KAQV AQV20190309060011903/09/19 06:00:31  5-MIN KAQV 091200Z AUTO 19008G14KT 5SM BR OVC008 20/18 A2980 490 90 1200 190/08G14 RMK AO2 T02000183
03949KAQV AQV20190309060511303/09/19 06:05:31  5-MIN KAQV 091205Z AUTO 18008KT 5SM BR OVC007 20/18 A2980 490 90 1200 180/08 RMK AO2 T02000183
03949KAQV AQV20190309061011303/09/19 06:10:31  5-MIN KAQV 091210Z AUTO 18008KT 5SM BR OVC007 20/18 A2980 490 90 1200 180/08 RMK AO2 T02000183
03949KAQV AQV20190309061512903/09/19 06:15:31  5-MIN KAQV 091215Z AUTO 18007KT 140V240 6SM BR OVC007 20/18 A2980 490 90 1200 180/07 140V240 RMK AO2 T02000183
03949KAQV AQV20190309062011903/09/19 06:20:31  5-MIN KAQV 091220Z AUTO 18009G15KT 6SM BR OVC007 20/18 A2980 490 90 1200 180/09G15 RMK AO2 T02000183
03949KAQV AQV20190309062511903/09/19 06:25:31  5-MIN KAQV 091225Z AUTO 18011G19KT 6SM BR OVC006 20/19 A2980 490 93 1200 170/11G19 RMK AO2 T02000189
03949KAQV AQV20190309063013503/09/19 06:30:31  5-MIN KAQV 091230Z AUTO 18007G19KT 150V230 6SM BR OVC006 20/18 A2980 490 90 1200 180/07G19 150V230 RMK AO2 T02000183
03949KAQV AQV20190309063512903/09/19 06:35:31  5-MIN KAQV 091235Z AUTO 18009KT 140V210 6SM BR OVC006 20/19 A2980 490 93 1200 180/09 140V210 RMK AO2 T02000189
03949KAQV AQV20190309064013103/09/19 06:40:31  5-MIN KAQV 091240Z AUTO VRB06G16KT 6SM BR OVC007 20/19 A2980 480 93 1200 VRB/06G16 RMK AO2 CIG 005V009 T02000189
03949KAQV AQV20190309064513503/09/19 06:45:31  5-MIN KAQV 091245Z AUTO 19008G17KT 160V230 5SM BR OVC007 20/19 A2980 480 93 1200 190/08G17 160V230 RMK AO2 T02000189
03949KAQV AQV20190309065012603/09/19 06:50:31  5-MIN KAQV 091250Z AUTO 19008G17KT 6SM BR OVC006 20/19 A2980 480 93 1200 190/08G17 RMK AO2 SLP091 T02000189
03949KAQV AQV20190309065514203/09/19 06:55:31  5-MIN KAQV 091255Z AUTO 19007G15KT 160V220 6SM BR OVC006 20/19 A2981 480 93 1200 190/07G15 160V220 RMK AO2 SLP093 T02000189
03949KAQV AQV20190309070014703/09/19 07:00:31  5-MIN KAQV 091300Z AUTO 20008G15KT 170V240 6SM BR OVC006 20/19 A2981 480 93 1200 190/08G15 170V240 RMK AO2 CIG 005V009 T02000189
03949KAQV AQV20190309070511903/09/19 07:05:31  5-MIN KAQV 091305Z AUTO 19008G15KT 5SM BR OVC006 20/19 A2981 480 93 1200 190/08G15 RMK AO2 T02000189
03949KAQV AQV20190309071013503/09/19 07:10:31  5-MIN KAQV 091310Z AUTO 19007G14KT 160V220 6SM BR OVC006 20/19 A2982 470 93 1200 190/07G14 160V220 RMK AO2 T02000189
03949KAQV AQV20190309071512203/09/19 07:15:31  5-MIN KAQV 091315Z AUTO 19007KT 8SM OVC006 20/18 A2981 470 90 1200 190/07 RMK AO2 CIG 005V010 T02000183
03949KAQV AQV20190309072012203/09/19 07:20:31  5-MIN KAQV 091320Z AUTO VRB05KT 8SM OVC008 20/18 A2982 470 90 1200 VRB/05 RMK AO2 CIG 005V011 T02000183
03949KAQV AQV20190309072512903/09/19 07:25:31  5-MIN KAQV 091325Z AUTO VRB06KT 9SM BKN008 OVC012 21/18 A2982 470 87 1300 VRB/06 RMK AO2 CIG 005V010 T02060183
03949KAQV AQV20190309073015203/09/19 07:30:31  5-MIN KAQV 091330Z AUTO 20007G17KT 170V230 10SM BKN010 OVC014 21/18 A2982 470 87 1300 200/07G17 170V230 RMK AO2 CIG 005V013 T02060183
03949KAQV AQV20190309073514003/09/19 07:35:31  5-MIN KAQV 091335Z AUTO 20009G17KT 170V250 10SM SCT008 OVC014 21/18 A2983 460 84 1300 190/09G17 170V250 RMK AO2 T02060178
03949KAQV AQV20190309074015203/09/19 07:40:31  5-MIN KAQV 091340Z AUTO 20008G16KT 160V240 10SM BKN010 OVC014 21/18 A2983 460 84 1300 200/08G16 160V240 RMK AO2 CIG 007V013 T02060178
03949KAQV AQV20190309074513403/09/19 07:45:31  5-MIN KAQV 091345Z AUTO 20007KT 150V240 10SM FEW009 OVC012 21/18 A2983 460 84 1300 190/07 150V240 RMK AO2 T02060178
03949KAQV AQV20190309075014003/09/19 07:50:31  5-MIN KAQV 091350Z AUTO 19010G19KT 170V240 10SM OVC014 21/18 A2983 460 84 1300 190/10G19 170V240 RMK AO2 SLP100 T02060178
03949KAQV AQV20190309075512403/09/19 07:55:31  5-MIN KAQV 091355Z AUTO 18008G19KT 10SM OVC014 21/18 A2982 470 84 1300 180/08G19 RMK AO2 SLP097 T02060178
03949KAQV AQV20190309080010103/09/19 08:00:31  5-MIN KAQV 091400Z AUTO 10SM OVC014 21/18 A2982 470 84 1300 M /M RMK AO2 T02060178
03949KAQV AQV20190309080511803/09/19 08:05:31  5-MIN KAQV 091405Z AUTO 19007KT 10SM BKN014 OVC020 21/18 A2983 460 84 1300 180/07 RMK AO2 T02060178
03949KAQV AQV20190309081011103/09/19 08:10:31  5-MIN KAQV 091410Z AUTO 18008KT 10SM BKN016 21/18 A2983 460 84 1300 180/08 RMK AO2 T02060178
03949KAQV AQV20190309081514003/09/19 08:15:31  5-MIN KAQV 091415Z AUTO 19009G16KT 160V230 10SM BKN016 BKN020 21/18 A2983 460 84 1300 190/09G16 160V230 RMK AO2 T02060178
03949KAQV AQV20190309082012403/09/19 08:20:31  5-MIN KAQV 091420Z AUTO 18009G16KT 10SM BKN016 BKN021 21/18 A2983 460 84 1300 170/09G16 RMK AO2 T02060178
03949KAQV AQV20190309082511703/09/19 08:25:31  5-MIN KAQV 091425Z AUTO 18009G15KT 10SM BKN016 21/18 A2982 470 84 1300 180/09G15 RMK AO2 T02060178
03949KAQV AQV20190309083011703/09/19 08:30:31  5-MIN KAQV 091430Z AUTO 18008G16KT 10SM BKN016 21/17 A2982 470 81 1300 180/08G16 RMK AO2 T02060172
03949KAQV AQV20190309083511703/09/19 08:35:31  5-MIN KAQV 091435Z AUTO 18009G18KT 10SM BKN016 21/18 A2981 480 81 1300 170/09G18 RMK AO2 T02110178
03949KAQV AQV20190309084012403/09/19 08:40:31  5-MIN KAQV 091440Z AUTO 18010G23KT 10SM BKN016 21/17 A2980 480 81 1300 170/10G23 RMK AO2 PRESFR T02060172
03949KAQV AQV20190309084511703/09/19 08:45:31  5-MIN KAQV 091445Z AUTO 18008G23KT 10SM BKN016 21/17 A2980 490 81 1300 180/08G23 RMK AO2 T02060172
03949KAQV AQV20190309085013003/09/19 08:50:31  5-MIN KAQV 091450Z AUTO VRB06G17KT 10SM BKN016 21/17 A2980 490 78 1400 VRB/06G17 RMK AO2 SLP090 T02110172 55001
03949KAQV AQV20190309085513003/09/19 08:55:31  5-MIN KAQV 091455Z AUTO 18010G16KT 10SM BKN016 22/17 A2980 490 75 1400 180/10G16 RMK AO2 SLP088 T02170172 55001
03949KAQV AQV20190309090013303/09/19 09:00:31  5-MIN KAQV 091500Z AUTO 18011G24KT 150V220 10SM BKN016 22/17 A2979 490 75 1400 170/11G24 150V220 RMK AO2 T02170172
03949KAQV AQV20190309090511703/09/19 09:05:31  5-MIN KAQV 091505Z AUTO 18010G24KT 10SM BKN016 22/17 A2978 500 75 1400 170/10G24 RMK AO2 T02170172
03949KAQV AQV20190309091011703/09/19 09:10:31  5-MIN KAQV 091510Z AUTO 17012G22KT 10SM BKN016 22/17 A2978 510 75 1400 170/12G22 RMK AO2 T02170172
03949KAQV AQV20190309091515103/09/19 09:15:31  5-MIN KAQV 091515Z AUTO 18017G26KT 160V240 10SM BKN016 22/17 A2978 510 73 1500 180/17G26 160V240 RMK AO2 PK WND 18026/1514 T02220172
03949KAQV AQV20190309092013503/09/19 09:20:31  5-MIN KAQV 091520Z AUTO 18012G26KT 10SM SCT016 22/17 A2977 510 73 1500 170/12G26 RMK AO2 PK WND 18026/1514 T02220172
03949KAQV AQV20190309092513503/09/19 09:25:31  5-MIN KAQV 091525Z AUTO 19012G26KT 10SM SCT016 22/17 A2978 510 73 1500 190/12G26 RMK AO2 PK WND 18026/1514 T02220172
03949KAQV AQV20190309093015103/09/19 09:30:31  5-MIN KAQV 091530Z AUTO 18008G26KT 140V210 10SM SCT019 23/17 A2979 500 70 1600 180/08G26 140V210 RMK AO2 PK WND 18026/1514 T02280172
03949KAQV AQV20190309093515103/09/19 09:35:31  5-MIN KAQV 091535Z AUTO 18009G19KT 140V230 10SM SCT019 23/18 A2978 510 70 1600 180/09G19 140V230 RMK AO2 PK WND 18026/1514 T02330178
03949KAQV AQV20190309094015103/09/19 09:40:31  5-MIN KAQV 091540Z AUTO 18012G23KT 170V240 10SM SCT019 23/17 A2978 510 70 1600 180/12G23 170V240 RMK AO2 PK WND 18026/1514 T02280172
03949KAQV AQV20190309094513503/09/19 09:45:31  5-MIN KAQV 091545Z AUTO 19011G23KT 10SM FEW019 23/17 A2979 500 68 1600 190/11G23 RMK AO2 PK WND 18026/1514 T02330172
03949KAQV AQV20190309095015803/09/19 09:50:31  5-MIN KAQV 091550Z AUTO 19009G19KT 160V230 10SM FEW019 23/17 A2979 500 68 1600 190/09G19 160V230 RMK AO2 PK WND 18026/1514 SLP085 T02330172
03949KAQV AQV20190309095515803/09/19 09:55:31  5-MIN KAQV 091555Z AUTO 23007G15KT 180V270 10SM FEW020 24/18 A2980 490 68 1700 230/07G15 180V270 RMK AO2 PK WND 18026/1514 SLP087 T02390178
03949KAQV AQV20190309100011503/09/19 10:00:31  5-MIN KAQV 091600Z AUTO 10SM FEW020 FEW026 24/17 A2981 480 66 1700 M /M RMK AO2 PRESRR T02390172
03949KAQV AQV20190309100513303/09/19 10:05:31  5-MIN KAQV 091605Z AUTO 19012G21KT 170V240 10SM FEW024 24/17 A2981 480 63 1700 190/12G21 170V240 RMK AO2 T02440172
03949KAQV AQV20190309101013303/09/19 10:10:31  5-MIN KAQV 091610Z AUTO 19008G21KT 170V230 10SM SCT027 24/17 A2981 470 63 1700 190/08G21 170V230 RMK AO2 T02440172
03949KAQV AQV20190309101513303/09/19 10:15:31  5-MIN KAQV 091615Z AUTO 19010G18KT 160V250 10SM SCT025 25/17 A2982 470 61 1800 190/10G18 160V250 RMK AO2 T02500172
03949KAQV AQV20190309102013303/09/19 10:20:31  5-MIN KAQV 091620Z AUTO 21010G20KT 170V240 10SM SCT027 25/17 A2982 470 61 1800 200/10G20 170V240 RMK AO2 T02500172
03949KAQV AQV20190309102513303/09/19 10:25:31  5-MIN KAQV 091625Z AUTO 20007G20KT 170V230 10SM BKN027 25/17 A2982 470 61 1800 190/07G20 170V230 RMK AO2 T02500172
03949KAQV AQV20190309103013303/09/19 10:30:31  5-MIN KAQV 091630Z AUTO 22010G23KT 190V270 10SM BKN027 25/17 A2983 460 61 1800 220/10G23 190V270 RMK AO2 T02500172
03949KAQV AQV20190309103514003/09/19 10:35:31  5-MIN KAQV 091635Z AUTO 19009G23KT 160V230 10SM BKN027 BKN085 25/17 A2983 460 61 1800 190/09G23 160V230 RMK AO2 T02500172
03949KAQV AQV20190309104014003/09/19 10:40:31  5-MIN KAQV 091640Z AUTO 23009G17KT 200V300 10SM BKN029 BKN085 26/17 A2983 460 59 1800 230/09G17 200V300 RMK AO2 T02560172
03949KAQV AQV20190309104514003/09/19 10:45:31  5-MIN KAQV 091645Z AUTO 21009G17KT 160V250 10SM BKN029 BKN085 26/17 A2983 460 57 1800 210/09G17 160V250 RMK AO2 T02560167
03949KAQV AQV20190309105012103/09/19 10:50:31  5-MIN KAQV 091650Z AUTO VRB06G16KT 10SM SCT029 BKN035 BKN085 25/17 A2984 450 59 1800 VRB/06G16 RMK AO2
03949KAQV AQV20190309105515403/09/19 10:55:31  5-MIN KAQV 091655Z AUTO 20009G22KT 160V240 10SM SCT029 SCT035 OVC085 25/17 A2984 450 59 1800 200/09G22 160V240 RMK AO2 SLP102 T02500167
03949KAQV AQV20190309110014003/09/19 11:00:31  5-MIN KAQV 091700Z AUTO 22011G24KT 180V280 10SM FEW031 OVC085 25/17 A2984 450 59 1800 220/11G24 180V280 RMK AO2 T02500167
03949KAQV AQV20190309110514703/09/19 11:05:31  5-MIN KAQV 091705Z AUTO 22011G24KT 180V260 10SM FEW031 SCT035 OVC085 26/17 A2983 460 57 1800 220/11G24 180V260 RMK AO2 T02560167
03949KAQV AQV20190309111014003/09/19 11:10:31  5-MIN KAQV 091710Z AUTO 22008G22KT 170V260 10SM SCT032 OVC085 26/17 A2984 450 57 1900 220/08G22 170V260 RMK AO2 T02610172
03949KAQV AQV20190309111514003/09/19 11:15:31  5-MIN KAQV 091715Z AUTO 22008G19KT 180V290 10SM SCT032 OVC085 26/17 A2984 450 55 1900 210/08G19 180V290 RMK AO2 T02610167
03949KAQV AQV20190309112014003/09/19 11:20:31  5-MIN KAQV 091720Z AUTO 21009G23KT 170V310 10SM SCT032 BKN090 26/17 A2984 450 55 1900 210/09G23 170V310 RMK AO2 T02610167
03949KAQV AQV20190309112514003/09/19 11:25:31  5-MIN KAQV 091725Z AUTO 20007G23KT 150V240 10SM SCT034 BKN090 26/17 A2984 450 57 1900 200/07G23 150V240 RMK AO2 T02610172
03949KAQV AQV20190309113014003/09/19 11:30:31  5-MIN KAQV 091730Z AUTO 22008G19KT 180V260 10SM SCT034 BKN085 26/17 A2985 440 57 1800 220/08G19 180V260 RMK AO2 T02560167
03949KAQV AQV20190309113514003/09/19 11:35:31  5-MIN KAQV 091735Z AUTO 23008G19KT 190V270 10SM SCT034 BKN085 26/17 A2985 440 57 1800 220/08G19 190V270 RMK AO2 T02560167
03949KAQV AQV20190309114014703/09/19 11:40:31  5-MIN KAQV 091740Z AUTO 22008G20KT 180V270 10SM SCT036 SCT045 OVC085 26/17 A2985 440 57 1800 210/08G20 180V270 RMK AO2 T02560167
03949KAQV AQV20190309114514003/09/19 11:45:31  5-MIN KAQV 091745Z AUTO 22009G21KT 190V280 10SM SCT038 BKN085 26/17 A2985 440 57 1800 210/09G21 190V280 RMK AO2 T02560167
03949KAQV AQV20190309115015603/09/19 11:50:31  5-MIN KAQV 091750Z AUTO 21010G21KT 10SM BKN036 BKN044 BKN090 26/17 A2985 440 57 1800 210/10G21 RMK AO2 SLP106 T02560167 10267 20200 58000
03949KAQV AQV20190309115515603/09/19 11:55:31  5-MIN KAQV 091755Z AUTO VRB05G20KT 10SM BKN037 BKN047 OVC090 26/17 A2985 440 57 1800 VRB/05G20 RMK AO2 SLP106 T02560167 10267 20200 58000
03949KAQV AQV20190309120012503/09/19 12:00:31  5-MIN KAQV 091800Z AUTO VRB06KT 10SM BKN035 BKN045 OVC090 26/17 A2985 440 57 1800 VRB/06 RMK AO2 T02560167
03949KAQV AQV20190309120514703/09/19 12:05:31  5-MIN KAQV 091805Z AUTO 19008G15KT 150V230 10SM BKN037 BKN048 OVC090 26/17 A2985 440 55 1900 190/08G15 150V230 RMK AO2 T02610167
03949KAQV AQV20190309121014703/09/19 12:10:31  5-MIN KAQV 091810Z AUTO 22008G21KT 190V260 10SM SCT037 BKN046 OVC090 26/17 A2985 440 55 1900 220/08G21 190V260 RMK AO2 T02610167
03949KAQV AQV20190309121514703/09/19 12:15:31  5-MIN KAQV 091815Z AUTO 21007G21KT 180V270 10SM SCT037 BKN048 OVC055 26/17 A2984 450 57 1800 210/07G21 180V270 RMK AO2 T02560167
03949KAQV AQV20190309122014703/09/19 12:20:31  5-MIN KAQV 091820Z AUTO 22008G18KT 180V250 10SM FEW035 BKN046 OVC055 25/17 A2984 450 59 1800 210/08G18 180V250 RMK AO2 T02500167
03949KAQV AQV20190309122512503/09/19 12:25:31  5-MIN KAQV 091825Z AUTO VRB06KT 10SM FEW035 BKN046 OVC055 25/17 A2984 450 59 1800 VRB/06 RMK AO2 T02500167
03949KAQV AQV20190309123014703/09/19 12:30:31  5-MIN KAQV 091830Z AUTO 21007G16KT 160V260 10SM FEW035 BKN048 OVC060 25/17 A2983 460 59 1800 210/07G16 160V260 RMK AO2 T02500167
03949KAQV AQV20190309123514003/09/19 12:35:31  5-MIN KAQV 091835Z AUTO 20009G18KT 160V240 10SM FEW039 OVC050 26/17 A2983 460 57 1800 190/09G18 160V240 RMK AO2 T02560167
03949KAQV AQV20190309124014703/09/19 12:40:31  5-MIN KAQV 091840Z AUTO 19009G18KT 170V230 10SM SCT039 BKN050 OVC100 26/17 A2983 460 59 1800 190/09G18 170V230 RMK AO2 T02560172
03949KAQV AQV20190309124514003/09/19 12:45:31  5-MIN KAQV 091845Z AUTO 21008G18KT 180V260 10SM SCT037 OVC050 26/17 A2982 470 57 1800 200/08G18 180V260 RMK AO2 T02560167
03949KAQV AQV20190309125014703/09/19 12:50:31  5-MIN KAQV 091850Z AUTO 20007G18KT 170V260 10SM BKN037 OVC048 25/17 A2982 470 59 1800 200/07G18 170V260 RMK AO2 SLP096 T02500167
03949KAQV AQV20190309125514703/09/19 12:55:31  5-MIN KAQV 091855Z AUTO 21009G16KT 180V260 10SM BKN039 OVC050 25/17 A2983 460 59 1800 210/09G16 180V260 RMK AO2 SLP097 T02500167
03949KAQV AQV20190309130014703/09/19 13:00:31  5-MIN KAQV 091900Z AUTO 22008G14KT 170V260 10SM BKN039 BKN050 OVC065 25/17 A2983 460 59 1800 210/08G14 170V260 RMK AO2 T02500167
03949KAQV AQV20190309130514103/09/19 13:05:31  5-MIN KAQV 091905Z AUTO 20008KT 160V260 10SM BKN039 BKN055 OVC070 26/17 A2982 460 57 1800 200/08 160V260 RMK AO2 T02560167
03949KAQV AQV20190309131014703/09/19 13:10:31  5-MIN KAQV 091910Z AUTO 22008G17KT 170V270 10SM SCT039 BKN060 OVC070 26/17 A2982 470 57 1800 210/08G17 170V270 RMK AO2 T02560167
03949KAQV AQV20190309131514703/09/19 13:15:31  5-MIN KAQV 091915Z AUTO 20012G19KT 170V260 10SM SCT039 BKN055 OVC070 26/17 A2982 470 57 1800 200/12G19 170V260 RMK AO2 T02560167
03949KAQV AQV20190309132014703/09/19 13:20:31  5-MIN KAQV 091920Z AUTO 20012G23KT 170V250 10SM FEW039 BKN060 OVC070 25/17 A2981 480 59 1800 200/12G23 170V250 RMK AO2 T02500167
03949KAQV AQV20190309132514703/09/19 13:25:31  5-MIN KAQV 091925Z AUTO 20013G23KT 150V240 10SM FEW039 BKN060 OVC070 26/17 A2981 480 55 1900 200/13G23 150V240 RMK AO2 T02610167
03949KAQV AQV20190309133014703/09/19 13:30:31  5-MIN KAQV 091930Z AUTO 20008G23KT 170V260 10SM FEW039 SCT050 BKN060 26/17 A2981 480 55 1900 200/08G23 170V260 RMK AO2 T02610167
03949KAQV AQV20190309133514703/09/19 13:35:31  5-MIN KAQV 091935Z AUTO 20012G21KT 160V260 10SM SCT039 BKN055 OVC070 27/17 A2981 480 53 2000 190/12G21 160V260 RMK AO2 T02670167
03949KAQV AQV20190309134013103/09/19 13:40:31  5-MIN KAQV 091940Z AUTO VRB06G22KT 10SM SCT039 BKN050 OVC070 26/17 A2981 480 55 1900 VRB/06G22 RMK AO2 T02610167
03949KAQV AQV20190309134513103/09/19 13:45:31  5-MIN KAQV 091945Z AUTO 20010G22KT 10SM SCT040 BKN049 OVC070 26/17 A2980 480 57 1900 190/10G22 RMK AO2 T02560167
03949KAQV AQV20190309135015403/09/19 13:50:31  5-MIN KAQV 091950Z AUTO 22009G18KT 180V250 10SM BKN040 BKN055 OVC070 26/17 A2981 480 57 1900 220/09G18 180V250 RMK AO2 SLP090 T02560167
03949KAQV AQV20190309135513103/09/19 13:55:31  5-MIN KAQV 091955Z AUTO VRB05G18KT 10SM BKN040 OVC065 26/17 A2980 480 57 1900 VRB/05G18 RMK AO2 SLP089 T02560167
03949KAQV AQV20190309140014703/09/19 14:00:31  5-MIN KAQV 092000Z AUTO 19007G15KT 150V250 10SM SCT040 BKN047 OVC065 26/17 A2980 490 57 1900 190/07G15 150V250 RMK AO2 T02560167
03949KAQV AQV20190309140514703/09/19 14:05:31  5-MIN KAQV 092005Z AUTO 22007G15KT 190V280 10SM SCT040 BKN049 OVC065 26/17 A2980 490 57 1900 220/07G15 190V280 RMK AO2 T02560167
03949KAQV AQV20190309141013103/09/19 14:10:31  5-MIN KAQV 092010Z AUTO 20011G20KT 10SM SCT039 BKN048 OVC080 26/17 A2979 490 57 1900 190/11G20 RMK AO2 T02560167
03949KAQV AQV20190309141514703/09/19 14:15:31  5-MIN KAQV 092015Z AUTO 21010G22KT 170V270 10SM FEW037 SCT045 BKN060 26/17 A2979 500 55 1900 210/10G22 170V270 RMK AO2 T02610167
03949KAQV AQV20190309142013103/09/19 14:20:31  5-MIN KAQV 092020Z AUTO 19008G22KT 10SM FEW040 SCT050 BKN060 26/17 A2979 500 55 1900 190/08G22 RMK AO2 T02610167
03949KAQV AQV20190309142514703/09/19 14:25:31  5-MIN KAQV 092025Z AUTO 20007G19KT 170V270 10SM FEW041 SCT048 BKN055 26/17 A2978 500 55 1900 200/07G19 170V270 RMK AO2 T02610167
03949KAQV AQV20190309143014003/09/19 14:30:31  5-MIN KAQV 092030Z AUTO 18009G16KT 150V210 10SM SCT046 BKN075 27/17 A2978 510 55 2000 180/09G16 150V210 RMK AO2 T02670172
03949KAQV AQV20190309143514703/09/19 14:35:31  5-MIN KAQV 092035Z AUTO 20010G23KT 170V230 10SM FEW043 SCT050 SCT075 27/17 A2978 510 55 2000 200/10G23 170V230 RMK AO2 T02670172
03949KAQV AQV20190309144014703/09/19 14:40:31  5-MIN KAQV 092040Z AUTO 20011G23KT 160V240 10SM FEW043 SCT055 SCT075 27/17 A2978 510 55 2000 200/11G23 160V240 RMK AO2 T02670172
03949KAQV AQV20190309144512403/09/19 14:45:31  5-MIN KAQV 092045Z AUTO 19011G23KT 10SM FEW042 SCT050 26/17 A2978 510 57 1900 180/11G23 RMK AO2 T02610172
03949KAQV AQV20190309145016003/09/19 14:50:31  5-MIN KAQV 092050Z AUTO 20008G23KT 170V240 10SM FEW040 SCT070 SCT100 26/17 A2978 510 55 1900 200/08G23 170V240 RMK AO2 SLP082 T02610167 51018
03949KAQV AQV20190309145516003/09/19 14:55:31  5-MIN KAQV 092055Z AUTO 20009G22KT 170V240 10SM FEW040 SCT070 BKN100 26/17 A2978 500 57 1900 190/09G22 170V240 RMK AO2 SLP083 T02610172 51018
03949KAQV AQV20190309150013103/09/19 15:00:31  5-MIN KAQV 092100Z AUTO VRB05G18KT 10SM FEW040 SCT070 BKN100 26/17 A2979 500 59 1900 VRB/05G18 RMK AO2 T02560172
03949KAQV AQV20190309150512503/09/19 15:05:31  5-MIN KAQV 092105Z AUTO VRB05KT 10SM FEW040 BKN075 BKN100 26/17 A2979 500 59 1900 VRB/05 RMK AO2 T02560172
03949KAQV AQV20190309151014003/09/19 15:10:31  5-MIN KAQV 092110Z AUTO 19010G20KT 160V230 10SM BKN075 BKN100 26/17 A2979 500 59 1900 190/10G20 160V230 RMK AO2 T02560172
03949KAQV AQV20190309151512403/09/19 15:15:31  5-MIN KAQV 092115Z AUTO VRB05G20KT 10SM BKN075 OVC100 26/17 A2979 500 59 1900 VRB/05G20 RMK AO2 T02560172
03949KAQV AQV20190309152013103/09/19 15:20:31  5-MIN KAQV 092120Z AUTO 20007G18KT 10SM FEW044 BKN075 OVC100 26/17 A2979 490 59 1900 190/07G18 RMK AO2 T02560172
03949KAQV AQV20190309152513103/09/19 15:25:31  5-MIN KAQV 092125Z AUTO VRB06G15KT 10SM FEW044 BKN075 OVC100 26/17 A2979 500 59 1900 VRB/06G15 RMK AO2 T02560172
03949KAQV AQV20190309153014103/09/19 15:30:31  5-MIN KAQV 092130Z AUTO 20007KT 160V230 10SM FEW044 BKN075 OVC110 26/17 A2979 500 59 1900 190/07 160V230 RMK AO2 T02560172
03949KAQV AQV20190309153514103/09/19 15:35:31  5-MIN KAQV 092135Z AUTO 19008KT 160V230 10SM FEW044 BKN080 OVC100 26/17 A2979 500 59 1900 180/08 160V230 RMK AO2 T02560172
03949KAQV AQV20190309154014703/09/19 15:40:31  5-MIN KAQV 092140Z AUTO 18009G16KT 140V230 10SM FEW044 BKN070 OVC110 25/17 A2979 490 61 1800 180/09G16 140V230 RMK AO2 T02500172
03949KAQV AQV20190309154513103/09/19 15:45:31  5-MIN KAQV 092145Z AUTO VRB06G16KT 10SM FEW044 BKN070 OVC100 25/17 A2979 500 61 1800 VRB/06G16 RMK AO2 T02500172
03949KAQV AQV20190309155012503/09/19 15:50:31  5-MIN KAQV 092150Z AUTO VRB05KT 10SM BKN070 OVC095 25/17 A2979 490 61 1800 VRB/05 RMK AO2 SLP086 T02500172
03949KAQV AQV20190309155512503/09/19 15:55:31  5-MIN KAQV 092155Z AUTO VRB06KT 10SM BKN070 OVC090 25/17 A2979 490 61 1800 VRB/06 RMK AO2 SLP086 T02500172
03949KAQV AQV20190309160012403/09/19 16:00:31  5-MIN KAQV 092200Z AUTO VRB06G15KT 10SM BKN070 OVC090 25/17 A2979 490 61 1800 VRB/06G15 RMK AO2 T02500172
03949KAQV AQV20190309160512403/09/19 16:05:31  5-MIN KAQV 092205Z AUTO 19007G15KT 10SM BKN065 OVC090 25/17 A2979 500 61 1800 190/07G15 RMK AO2 T02500172
03949KAQV AQV20190309161012503/09/19 16:10:31  5-MIN KAQV 092210Z AUTO VRB04KT 10SM BKN060 BKN075 BKN100 25/17 A2979 490 61 1800 VRB/04 RMK AO2 T02500172
03949KAQV AQV20190309161511103/09/19 16:15:31  5-MIN KAQV 092215Z AUTO 18006KT 10SM BKN065 25/17 A2979 490 61 1800 170/06 RMK AO2 T02500172
03949KAQV AQV20190309162011803/09/19 16:20:31  5-MIN KAQV 092220Z AUTO 19005KT 10SM BKN060 BKN100 25/18 A2979 500 64 1800 180/05 RMK AO2 T02500178
03949KAQV AQV20190309162511803/09/19 16:25:31  5-MIN KAQV 092225Z AUTO VRB06KT 10SM BKN060 BKN090 25/18 A2979 500 64 1800 VRB/06 RMK AO2 T02500178
03949KAQV AQV20190309163012503/09/19 16:30:31  5-MIN KAQV 092230Z AUTO 18005KT 10SM BKN060 BKN080 BKN100 25/18 A2979 490 64 1800 180/05 RMK AO2 T02500178
03949KAQV AQV20190309163514003/09/19 16:35:31  5-MIN KAQV 092235Z AUTO 19008G16KT 160V260 10SM BKN060 BKN090 25/18 A2979 490 64 1800 180/08G16 160V260 RMK AO2 T02500178
03949KAQV AQV20190309164013103/09/19 16:40:31  5-MIN KAQV 092240Z AUTO VRB05G16KT 10SM BKN060 BKN075 BKN100 25/18 A2979 490 64 1800 VRB/05G16 RMK AO2 T02500178
03949KAQV AQV20190309164514103/09/19 16:45:31  5-MIN KAQV 092245Z AUTO 19007KT 160V230 10SM SCT055 BKN070 BKN100 25/18 A2979 490 64 1800 180/07 160V230 RMK AO2 T02500178
03949KAQV AQV20190309165012403/09/19 16:50:31  5-MIN KAQV 092250Z AUTO 18008G18KT 10SM SCT060 25/18 A2979 500 64 1800 180/08G18 RMK AO2 SLP085 T02500178
03949KAQV AQV20190309165512403/09/19 16:55:31  5-MIN KAQV 092255Z AUTO 19009G18KT 10SM SCT060 25/18 A2979 500 64 1800 190/09G18 RMK AO2 SLP085 T02500178
03949KAQV AQV20190309170011703/09/19 17:00:31  5-MIN KAQV 092300Z AUTO VRB05G15KT 10SM SCT060 25/18 A2980 490 64 1800 VRB/05G15 RMK AO2 T02500178
03949KAQV AQV20190309170511103/09/19 17:05:31  5-MIN KAQV 092305Z AUTO VRB04KT 10SM SCT055 24/18 A2980 490 66 1700 VRB/04 RMK AO2 T02440178
03949KAQV AQV20190309171011803/09/19 17:10:31  5-MIN KAQV 092310Z AUTO VRB05KT 10SM FEW045 SCT060 24/18 A2980 490 66 1700 VRB/05 RMK AO2 T02440178
03949KAQV AQV20190309171511803/09/19 17:15:31  5-MIN KAQV 092315Z AUTO VRB06KT 10SM FEW042 SCT050 24/18 A2980 490 68 1700 VRB/06 RMK AO2 T02440183
03949KAQV AQV20190309172011803/09/19 17:20:31  5-MIN KAQV 092320Z AUTO VRB04KT 10SM FEW038 SCT050 24/18 A2980 490 68 1700 VRB/04 RMK AO2 T02440183
03949KAQV AQV20190309172511803/09/19 17:25:31  5-MIN KAQV 092325Z AUTO VRB04KT 10SM SCT038 BKN055 24/18 A2980 490 68 1700 VRB/04 RMK AO2 T02440183
03949KAQV AQV20190309173011803/09/19 17:30:31  5-MIN KAQV 092330Z AUTO VRB05KT 10SM SCT038 SCT050 24/18 A2980 490 68 1700 VRB/05 RMK AO2 T02440183
03949KAQV AQV20190309173511803/09/19 17:35:31  5-MIN KAQV 092335Z AUTO VRB05KT 10SM SCT038 SCT050 24/18 A2980 480 71 1700 VRB/05 RMK AO2 T02390183
03949KAQV AQV20190309174011803/09/19 17:40:31  5-MIN KAQV 092340Z AUTO 18005KT 10SM SCT038 BKN050 24/18 A2980 480 71 1700 180/05 RMK AO2 T02390183
03949KAQV AQV20190309174511103/09/19 17:45:31  5-MIN KAQV 092345Z AUTO 20005KT 10SM SCT038 24/18 A2981 480 71 1700 200/05 RMK AO2 T02390183
03949KAQV AQV20190309175013603/09/19 17:50:31  5-MIN KAQV 092350Z AUTO VRB05KT 10SM SCT038 24/18 A2981 480 71 1700 VRB/05 RMK AO2 SLP090 T02390183 10267 20239 56023
03949KAQV AQV20190309175513603/09/19 17:55:31  5-MIN KAQV 092355Z AUTO 18005KT 10SM SCT038 23/18 A2981 480 73 1600 180/05 RMK AO2 SLP091 T02330183 10267 20233 56023
03949KAQV AQV20190309180011103/09/19 18:00:31  5-MIN KAQV 100000Z AUTO 18005KT 10SM SCT037 23/18 A2981 480 73 1600 170/05 RMK AO2 T02330183
03949KAQV AQV20190309180511803/09/19 18:05:31  5-MIN KAQV 100005Z AUTO VRB04KT 10SM SCT037 BKN100 23/18 A2981 480 73 1600 VRB/04 RMK AO2 T02330183
03949KAQV AQV20190309181011803/09/19 18:10:31  5-MIN KAQV 100010Z AUTO 18006KT 10SM SCT035 BKN100 23/18 A2981 480 73 1600 180/06 RMK AO2 T02330183
03949KAQV AQV20190309181512503/09/19 18:15:31  5-MIN KAQV 100015Z AUTO VRB06KT 10SM FEW027 SCT035 BKN100 23/18 A2981 480 73 1600 VRB/06 RMK AO2 T02330183
03949KAQV AQV20190309182012503/09/19 18:20:31  5-MIN KAQV 100020Z AUTO VRB05KT 10SM FEW027 SCT035 BKN100 23/18 A2981 480 73 1600 VRB/05 RMK AO2 T02330183
03949KAQV AQV20190309182512503/09/19 18:25:31  5-MIN KAQV 100025Z AUTO VRB04KT 10SM FEW026 SCT033 OVC100 23/18 A2982 470 73 1600 VRB/04 RMK AO2 T02330183
03949KAQV AQV20190309183012503/09/19 18:30:31  5-MIN KAQV 100030Z AUTO 19005KT 10SM FEW026 SCT033 OVC100 23/18 A2982 470 76 1500 180/05 RMK AO2 T02280183
03949KAQV AQV20190309183511803/09/19 18:35:31  5-MIN KAQV 100035Z AUTO 18005KT 10SM BKN030 OVC100 23/18 A2982 470 76 1500 180/05 RMK AO2 T02280183
03949KAQV AQV20190309184012503/09/19 18:40:31  5-MIN KAQV 100040Z AUTO VRB05KT 10SM FEW026 BKN030 OVC095 23/18 A2982 470 76 1500 VRB/05 RMK AO2 T02280183
03949KAQV AQV20190309184512503/09/19 18:45:31  5-MIN KAQV 100045Z AUTO 18004KT 10SM FEW026 BKN030 OVC095 23/18 A2982 470 76 1500 180/04 RMK AO2 T02280183
03949KAQV AQV20190309185011803/09/19 18:50:31  5-MIN KAQV 100050Z AUTO 18005KT 10SM OVC030 23/18 A2982 470 76 1500 180/05 RMK AO2 SLP095 T02280183
03949KAQV AQV20190309185511803/09/19 18:55:31  5-MIN KAQV 100055Z AUTO 17006KT 10SM OVC030 22/18 A2982 470 78 1500 170/06 RMK AO2 SLP096 T02220183
03949KAQV AQV20190309190011803/09/19 19:00:31  5-MIN KAQV 100100Z AUTO 18005KT 10SM BKN029 OVC085 22/18 A2982 470 78 1500 170/05 RMK AO2 T02220183
03949KAQV AQV20190309190511803/09/19 19:05:31  5-MIN KAQV 100105Z AUTO VRB06KT 10SM BKN029 OVC080 22/18 A2982 470 78 1500 VRB/06 RMK AO2 T02220183
03949KAQV AQV20190309191011803/09/19 19:10:31  5-MIN KAQV 100110Z AUTO 18007KT 10SM SCT029 OVC080 23/19 A2982 470 78 1500 180/07 RMK AO2 T02280189
03949KAQV AQV20190309191511803/09/19 19:15:31  5-MIN KAQV 100115Z AUTO VRB05KT 10SM SCT029 OVC075 23/19 A2983 460 78 1500 VRB/05 RMK AO2 T02280189
03949KAQV AQV20190309192011803/09/19 19:20:31  5-MIN KAQV 100120Z AUTO VRB05KT 10SM FEW029 OVC075 23/19 A2983 460 78 1500 VRB/05 RMK AO2 T02280189
03949KAQV AQV20190309192512503/09/19 19:25:31  5-MIN KAQV 100125Z AUTO VRB04KT 10SM FEW029 BKN070 OVC080 23/19 A2984 450 78 1500 VRB/04 RMK AO2 T02280189
03949KAQV AQV20190309193013203/09/19 19:30:31  5-MIN KAQV 100130Z AUTO VRB03KT 10SM FEW021 BKN070 OVC080 22/19 A2985 440 81 1400 VRB/03 RMK AO2 PRESRR T02220189
03949KAQV AQV20190309193512503/09/19 19:35:31  5-MIN KAQV 100135Z AUTO 18003KT 10SM SCT019 SCT055 OVC070 22/19 A2985 440 81 1400 180/03 RMK AO2 T02220189
03949KAQV AQV20190309194012503/09/19 19:40:31  5-MIN KAQV 100140Z AUTO VRB04KT 10SM BKN021 BKN055 OVC070 22/19 A2985 440 81 1400 VRB/04 RMK AO2 T02220189
03949KAQV AQV20190309194512503/09/19 19:45:31  5-MIN KAQV 100145Z AUTO 00000KT 10SM BKN021 BKN055 OVC070 22/19 A2986 440 81 1400 000/00 RMK AO2 T02220189
03949KAQV AQV20190309195013203/09/19 19:50:31  5-MIN KAQV 100150Z AUTO 00000KT 10SM BKN021 BKN032 OVC070 22/19 A2986 440 81 1400 000/00 RMK AO2 SLP107 T02220189
03949KAQV AQV20190309195514003/09/19 19:55:31  5-MIN KAQV 100155Z AUTO 00000KT 9SM -RA BKN021 OVC055 22/19 A2985 440 81 1400 000/00 RMK AO2 RAB54 SLP106 P0000 T02220189
03949KAQV AQV20190309200012703/09/19 20:00:31  5-MIN KAQV 100200Z AUTO 27004KT 9SM -RA BKN016 OVC021 22/19 A2986 430 81 1400 270/04 RMK AO2 P0000 T02220189
03949KAQV AQV20190309200512703/09/19 20:05:31  5-MIN KAQV 100205Z AUTO 00000KT 8SM -RA BKN014 OVC021 22/19 A2986 430 84 1300 000/00 RMK AO2 P0000 T02170189
03949KAQV AQV20190309201012703/09/19 20:10:31  5-MIN KAQV 100210Z AUTO 00000KT 7SM -RA BKN014 OVC019 22/19 A2987 430 87 1300 000/00 RMK AO2 P0000 T02170194
03949KAQV AQV20190309201513303/09/19 20:15:31  5-MIN KAQV 100215Z AUTO 27003KT 2 1/2SM RA BR BKN014 OVC021 21/19 A2987 420 90 1300 260/03 RMK AO2 P0004 T02110194
03949KAQV AQV20190309202012703/09/19 20:20:31  5-MIN KAQV 100220Z AUTO 00000KT 1 1/2SM +RA BR OVC014 21/19 A2987 420 90 1300 000/00 RMK AO2 P0009 T02110194
03949KAQV AQV20190309202513403/09/19 20:25:31  5-MIN KAQV 100225Z AUTO VRB03KT 1 1/4SM +RA BR BKN014 OVC028 21/19 A2986 430 93 1200 VRB/03 RMK AO2 P0015 T02060194
03949KAQV AQV20190309203014103/09/19 20:30:31  5-MIN KAQV 100230Z AUTO 00000KT 1 1/2SM -RA BR BKN013 BKN026 OVC045 21/19 A2987 430 93 1200 000/00 RMK AO2 P0016 T02060194
03949KAQV AQV20190309203513703/09/19 20:35:31  5-MIN KAQV 100235Z AUTO 00000KT 3SM -RA BR SCT013 BKN026 OVC050 21/19 A2987 420 93 1200 000/00 RMK AO2 P0016 T02060194
03949KAQV AQV20190309204013703/09/19 20:40:31  5-MIN KAQV 100240Z AUTO 00000KT 5SM -RA BR FEW013 BKN048 OVC065 21/19 A2988 420 93 1200 000/00 RMK AO2 P0016 T02060194
03949KAQV AQV20190309204514003/09/19 20:45:31  5-MIN KAQV 100245Z AUTO VRB04KT 2 1/2SM RA BR SCT013 BKN026 OVC065 21/19 A2988 420 93 1200 VRB/04 RMK AO2 P0019 T02060194
03949KAQV AQV20190309205016003/09/19 20:50:31  5-MIN KAQV 100250Z AUTO 18004KT 2 1/2SM -RA BR SCT013 BKN021 OVC050 21/19 A2988 410 90 1300 180/04 RMK AO2 SLP116 P0019 60019 T02110194 53007
03949KAQV AQV20190309205515603/09/19 20:55:31  5-MIN KAQV 100255Z AUTO 18004KT 5SM -RA BR SCT013 BKN025 OVC065 21/20 A2988 410 93 1300 180/04 RMK AO2 SLP117 P0019 60019 T02110200 53007
03949KAQV AQV20190309210007203/09/19 21:00:31  5-MIN KAQV 100300Z AUTO 17005KT 6SM BR SCT013 BKN045 
03949KAQV AQV20190309231011703/09/19 23:10:31  5-MIN KAQV 100510Z AUTO 00000KT 2 1/2SM BR OVC012 21/19 A2991 390 93 1200 000/00 RMK AO2 T02060194
03949KAQV AQV20190309231512403/09/19 23:15:31  5-MIN KAQV 100515Z AUTO 00000KT 2 1/2SM BR BKN012 OVC018 21/19 A2991 390 93 1200 000/00 RMK AO2 T02060194
03949KAQV AQV20190309232013603/09/19 23:20:31  5-MIN KAQV 100520Z AUTO 00000KT 2 1/2SM BR BKN010 OVC018 21/19 A2991 390 93 1200 000/00 RMK AO2 VIS 1 1/2V4 T02060194
03949KAQV AQV20190309232512003/09/19 23:25:31  5-MIN KAQV 100525Z AUTO 00000KT 3SM BR BKN010 OVC020 21/19 A2991 390 93 1200 000/00 RMK AO2 T02060194
03949KAQV AQV20190309233013203/09/19 23:30:31  5-MIN KAQV 100530Z AUTO 00000KT 1 3/4SM BR BKN011 OVC020 21/19 A2991 390 93 1200 000/00 RMK AO2 VIS 1V3 T02060194
03949KAQV AQV20190309233513203/09/19 23:35:31  5-MIN KAQV 100535Z AUTO 00000KT 1SM BR BKN011 OVC019 21/19 A2991 380 93 1200 000/00 RMK AO2 CIG 008V013 T02060194
03949KAQV AQV20190309234013403/09/19 23:40:31  5-MIN KAQV 100540Z AUTO 00000KT 3/4SM BR BKN011 OVC019 21/19 A2992 380 93 1200 000/00 RMK AO2 CIG 008V012 T02060194
03949KAQV AQV20190309234512403/09/19 23:45:31  5-MIN KAQV 100545Z AUTO 00000KT 1 1/2SM BR BKN013 OVC019 21/19 A2992 380 93 1200 000/00 RMK AO2 T02060194
03949KAQV AQV20190309235017703/09/19 23:50:31  5-MIN KAQV 100550Z AUTO 00000KT 2 1/2SM BR BKN010 OVC016 21/19 A2992 380 93 1200 000/00 RMK AO2 CIG 006V012 SLP127 60025 T02060194 10233 20206 402670194 53025
03949KAQV AQV20190309235517703/09/19 23:55:31  5-MIN KAQV 100555Z AUTO 00000KT 1 3/4SM BR BKN010 OVC015 21/19 A2991 390 93 1200 000/00 RMK AO2 CIG 006V013 SLP125 60025 T02060194 10233 20206 402670194 53025
03949KAQV AQV20190310000011303/10/19 00:00:31  5-MIN KAQV 100600Z AUTO 00000KT 2SM BR OVC012 21/19 A2991 390 93 1200 000/00 RMK AO2 T02060194
03949KAQV AQV20190310000511303/10/19 00:05:31  5-MIN KAQV 100605Z AUTO 00000KT 4SM BR OVC010 21/19 A2991 390 93 1200 000/00 RMK AO2 T02060194
03949KAQV AQV20190310001012003/10/19 00:10:31  5-MIN KAQV 100610Z AUTO 00000KT 3SM BR FEW007 OVC012 21/19 A2991 380 93 1200 000/00 RMK AO2 T02060194
03949KAQV AQV20190310001511703/10/19 00:15:31  5-MIN KAQV 100615Z AUTO 00000KT 2 1/2SM BR OVC012 21/19 A2991 380 93 1200 000/00 RMK AO2 T02060194
03949KAQV AQV20190310002011303/10/19 00:20:31  5-MIN KAQV 100620Z AUTO 00000KT 1SM BR OVC012 20/19 A2991 380 97 1100 000/00 RMK AO2 T02000194
03949KAQV AQV20190310002511303/10/19 00:25:31  5-MIN KAQV 100625Z AUTO 00000KT 1SM BR OVC012 21/19 A2991 380 93 1200 000/00 RMK AO2 T02060194
03949KAQV AQV20190310003011703/10/19 00:30:31  5-MIN KAQV 100630Z AUTO 00000KT 2 1/2SM BR OVC011 21/19 A2992 380 93 1200 000/00 RMK AO2 T02060194
03949KAQV AQV20190310003512503/10/19 00:35:31  5-MIN KAQV 100635Z AUTO 00000KT 3SM BR OVC011 21/19 A2992 380 93 1200 000/00 RMK AO2 CIG 005V015 T02060194
03949KAQV AQV20190310004012403/10/19 00:40:31  5-MIN KAQV 100640Z AUTO 00000KT 2 1/2SM BR FEW006 OVC011 21/19 A2992 380 93 1200 000/00 RMK AO2 T02060194
03949KAQV AQV20190310004511303/10/19 00:45:31  5-MIN KAQV 100645Z AUTO 00000KT 2SM BR OVC011 21/19 A2991 380 93 1200 000/00 RMK AO2 T02060194
03949KAQV AQV20190310005013203/10/19 00:50:31  5-MIN KAQV 100650Z AUTO 00000KT 2SM BR OVC011 21/19 A2992 380 93 1200 000/00 RMK AO2 CIG 005V015 SLP128 T02060194
03949KAQV AQV20190310005513603/10/19 00:55:31  5-MIN KAQV 100655Z AUTO 00000KT 1 1/4SM BR OVC009 21/19 A2992 380 93 1200 000/00 RMK AO2 CIG 005V012 SLP129 T02060194
03949KAQV AQV20190310010013203/10/19 01:00:31  5-MIN KAQV 100700Z AUTO 00000KT 1SM BR BKN009 OVC022 20/19 A2992 370 97 1100 000/00 RMK AO2 CIG 005V014 T02000194
03949KAQV AQV20190310010514203/10/19 01:05:31  5-MIN KAQV 100705Z AUTO 00000KT 1SM BR BKN009 OVC022 20/19 A2993 370 97 1100 000/00 RMK AO2 VIS 1/2V2 CIG 007V014 T02000194
03949KAQV AQV20190310011012903/10/19 01:10:31  5-MIN KAQV 100710Z AUTO 00000KT 1 1/2SM BR OVC009 20/19 A2993 370 97 1100 000/00 RMK AO2 CIG 006V012 T02000194
03949KAQV AQV20190310011512503/10/19 01:15:31  5-MIN KAQV 100715Z AUTO 00000KT 3SM BR OVC009 21/19 A2993 370 93 1100 000/00 RMK AO2 CIG 006V012 T02060194
03949KAQV AQV20190310012012003/10/19 01:20:31  5-MIN KAQV 100720Z AUTO 00000KT 3SM BR BKN009 OVC028 21/19 A2993 370 93 1100 000/00 RMK AO2 T02060194
03949KAQV AQV20190310012512703/10/19 01:25:31  5-MIN KAQV 100725Z AUTO 00000KT 3SM BR BKN008 BKN019 OVC055 21/19 A2993 370 93 1100 000/00 RMK AO2 T02060194
03949KAQV AQV20190310013012703/10/19 01:30:31  5-MIN KAQV 100730Z AUTO 00000KT 3SM BR BKN008 BKN019 OVC055 21/19 A2993 370 93 1100 000/00 RMK AO2 T02060194
03949KAQV AQV20190310013513103/10/19 01:35:31  5-MIN KAQV 100735Z AUTO 00000KT 2 1/2SM BR BKN008 BKN019 OVC055 20/19 A2994 360 97 1100 000/00 RMK AO2 T02000194
03949KAQV AQV20190310014012403/10/19 01:40:31  5-MIN KAQV 100740Z AUTO 00000KT 1 3/4SM BR BKN009 OVC055 20/19 A2993 370 97 1100 000/00 RMK AO2 T02000194
03949KAQV AQV20190310014513103/10/19 01:45:31  5-MIN KAQV 100745Z AUTO 00000KT 1 3/4SM BR BKN009 BKN017 OVC055 20/19 A2992 370 97 1100 000/00 RMK AO2 T02000194
03949KAQV AQV20190310015012703/10/19 01:50:31  5-MIN KAQV 100750Z AUTO 00000KT 1SM BR BKN009 OVC017 19/19 A2993 370 97 1000 000/00 RMK AO2 SLP132 T01940189
03949KAQV AQV20190310015512903/10/19 01:55:31  5-MIN KAQV 100755Z AUTO 00000KT 1/2SM FG BKN009 OVC015 19/19 A2993 370 97 1000 000/00 RMK AO2 SLP132 T01940189
03949KAQV AQV20190310020012203/10/19 02:00:31  5-MIN KAQV 100800Z AUTO 00000KT 1/2SM FG BKN009 OVC015 19/19 A2993 360 97 1000 000/00 RMK AO2 T01940189
03949KAQV AQV20190310020512203/10/19 02:05:31  5-MIN KAQV 100805Z AUTO 00000KT 3/4SM BR BKN009 OVC015 19/19 A2993 370 97 1000 000/00 RMK AO2 T01940189
03949KAQV AQV20190310021012403/10/19 02:10:31  5-MIN KAQV 100810Z AUTO 00000KT 1 1/4SM BR BKN008 OVC015 20/19 A2993 370 93 1100 000/00 RMK AO2 T02000189
03949KAQV AQV20190310021512703/10/19 02:15:31  5-MIN KAQV 100815Z AUTO 00000KT 2SM BR BKN008 BKN015 OVC050 19/19 A2993 370 97 1000 000/00 RMK AO2 T01940189
03949KAQV AQV20190310022013403/10/19 02:20:31  5-MIN KAQV 100820Z AUTO 00000KT 1 3/4SM BR BKN008 OVC015 19/19 A2993 370 97 1000 000/00 RMK AO2 VIS 3/4V3 T01940189
03949KAQV AQV20190310022511703/10/19 02:25:31  5-MIN KAQV 100825Z AUTO 28003KT 1 1/4SM BR OVC006 19/19 A2993 360 97 1000 270/03 RMK AO2 T01940189
03949KAQV AQV20190310023011703/10/19 02:30:31  5-MIN KAQV 100830Z AUTO 00000KT 1 1/2SM BR OVC006 20/19 A2993 370 93 1100 000/00 RMK AO2 T02000189
03949KAQV AQV20190310023511703/10/19 02:35:31  5-MIN KAQV 100835Z AUTO 00000KT 2 1/2SM BR OVC006 20/19 A2993 370 97 1100 000/00 RMK AO2 T02000194
03949KAQV AQV20190310024011703/10/19 02:40:31  5-MIN KAQV 100840Z AUTO 00000KT 2 1/2SM BR OVC005 20/19 A2992 370 93 1100 000/00 RMK AO2 T02000189
03949KAQV AQV20190310024511703/10/19 02:45:31  5-MIN KAQV 100845Z AUTO 00000KT 2 1/2SM BR OVC005 20/19 A2992 370 93 1100 000/00 RMK AO2 T02000189
03949KAQV AQV20190310025010303/10/19 02:50:31  5-MIN KAQV 100850Z AUTO 00000KT 3SM BR OVC005 20/19 A2992 370 93 1100 000/00 RMK AO2
03949KAQV AQV20190310025513003/10/19 02:55:31  5-MIN KAQV 100855Z AUTO 00000KT 1 3/4SM BR OVC005 19/19 A2993 370 97 1000 000/00 RMK AO2 SLP132 T01940189 51008
03949KAQV AQV20190310030011703/10/19 03:00:31  5-MIN KAQV 100900Z AUTO 00000KT 1 1/2SM BR OVC005 19/19 A2993 370 97 1000 000/00 RMK AO2 T01940189
03949KAQV AQV20190310030511303/10/19 03:05:31  5-MIN KAQV 100905Z AUTO 00000KT 2SM BR OVC005 20/19 A2993 370 93 1100 000/00 RMK AO2 T02000189
03949KAQV AQV20190310031012503/10/19 03:10:31  5-MIN KAQV 100910Z AUTO 00000KT 2SM BR OVC005 20/19 A2993 370 93 1100 000/00 RMK AO2 VIS 1 1/2V3 T02000189
03949KAQV AQV20190310031511303/10/19 03:15:31  5-MIN KAQV 100915Z AUTO 00000KT 2SM BR OVC005 20/19 A2993 370 93 1100 000/00 RMK AO2 T02000189
03949KAQV AQV20190310032011703/10/19 03:20:31  5-MIN KAQV 100920Z AUTO 00000KT 2 1/2SM BR OVC004 20/19 A2993 360 93 1100 000/00 RMK AO2 T02000189
03949KAQV AQV20190310032511303/10/19 03:25:31  5-MIN KAQV 100925Z AUTO 00000KT 2SM BR OVC004 20/19 A2994 360 93 1100 000/00 RMK AO2 T02000189
03949KAQV AQV20190310033011703/10/19 03:30:31  5-MIN KAQV 100930Z AUTO 00000KT 1 1/4SM BR OVC004 20/19 A2994 360 93 1100 000/00 RMK AO2 T02000189
03949KAQV AQV20190310033511303/10/19 03:35:31  5-MIN KAQV 100935Z AUTO 00000KT 1SM BR OVC004 19/19 A2994 360 97 1000 000/00 RMK AO2 T01940189
03949KAQV AQV20190310034011303/10/19 03:40:31  5-MIN KAQV 100940Z AUTO 00000KT 1SM BR OVC004 19/19 A2994 350 97 1000 000/00 RMK AO2 T01940189
03949KAQV AQV20190310034511303/10/19 03:45:31  5-MIN KAQV 100945Z AUTO 00000KT 1SM BR OVC004 19/19 A2994 350 97 1000 000/00 RMK AO2 T01940189
03949KAQV AQV20190310035012403/10/19 03:50:31  5-MIN KAQV 100950Z AUTO 00000KT 1 1/4SM BR OVC004 19/19 A2994 360 97 1000 000/00 RMK AO2 SLP136 T01940189
03949KAQV AQV20190310035513203/10/19 03:55:31  5-MIN KAQV 100955Z AUTO 00000KT 1 1/2SM BR OVC004 19/19 A2994 360 97 1000 000/00 RMK AO2 VIS 1V2 SLP135 T01940189
03949KAQV AQV20190310040012703/10/19 04:00:31  5-MIN KAQV 101000Z AUTO 00000KT 1 1/4SM BR OVC004 19/19 A2993 370 97 1000 000/00 RMK AO2 VIS 3/4V2 T01940189
03949KAQV AQV20190310040511503/10/19 04:05:31  5-MIN KAQV 101005Z AUTO 00000KT 3/4SM BR OVC004 19/19 A2993 370 97 1000 000/00 RMK AO2 T01940189
03949KAQV AQV20190310041011503/10/19 04:10:31  5-MIN KAQV 101010Z AUTO 00000KT 1/2SM FG OVC004 19/19 A2993 360 97 1000 000/00 RMK AO2 T01940189
03949KAQV AQV20190310041511503/10/19 04:15:31  5-MIN KAQV 101015Z AUTO 00000KT 1/2SM FG OVC004 19/19 A2994 360 97 1000 000/00 RMK AO2 T01940189
03949KAQV AQV20190310042011303/10/19 04:20:31  5-MIN KAQV 101020Z AUTO 00000KT 1SM BR OVC004 19/19 A2995 350 97 1000 000/00 RMK AO2 T01940189
03949KAQV AQV20190310042511703/10/19 04:25:31  5-MIN KAQV 101025Z AUTO 00000KT 1 1/2SM BR OVC004 19/19 A2995 350 97 1000 000/00 RMK AO2 T01940189
03949KAQV AQV20190310043011703/10/19 04:30:31  5-MIN KAQV 101030Z AUTO 00000KT 1 3/4SM BR OVC004 20/19 A2995 350 93 1100 000/00 RMK AO2 T02000189
03949KAQV AQV20190310043511303/10/19 04:35:31  5-MIN KAQV 101035Z AUTO 00000KT 2SM BR OVC004 19/19 A2995 350 97 1000 000/00 RMK AO2 T01940189
03949KAQV AQV20190310044011703/10/19 04:40:31  5-MIN KAQV 101040Z AUTO 00000KT 1 1/2SM BR OVC004 20/19 A2995 350 93 1100 000/00 RMK AO2 T02000189
03949KAQV AQV20190310044512903/10/19 04:45:31  5-MIN KAQV 101045Z AUTO 00000KT 1 1/2SM BR OVC004 20/19 A2996 340 93 1000 000/00 RMK AO2 CIG 002V007 T02000189
03949KAQV AQV20190310045014303/10/19 04:50:31  5-MIN KAQV 101050Z AUTO 00000KT 1 1/4SM BR BKN004 OVC010 19/19 A2996 340 97 1000 000/00 RMK AO2 CIG 002V007 SLP143 T01940189
03949KAQV AQV20190310045513203/10/19 04:55:31  5-MIN KAQV 101055Z AUTO 00000KT 1SM BR OVC004 20/19 A2996 340 93 1000 000/00 RMK AO2 CIG 002V007 SLP143 T02000189
03949KAQV AQV20190310050012503/10/19 05:00:31  5-MIN KAQV 101100Z AUTO 00000KT 1SM BR OVC002 20/19 A2997 330 93 1000 000/00 RMK AO2 CIG 002V007 T02000189
03949KAQV AQV20190310050513203/10/19 05:05:31  5-MIN KAQV 101105Z AUTO 00000KT 1SM BR BKN002 OVC015 19/19 A2996 340 97 1000 000/00 RMK AO2 CIG 001V006 T01940189
03949KAQV AQV20190310051012003/10/19 05:10:31  5-MIN KAQV 101110Z AUTO 00000KT 1SM BR BKN002 OVC015 19/19 A2997 330 97 1000 000/00 RMK AO2 T01940189
03949KAQV AQV20190310051512003/10/19 05:15:31  5-MIN KAQV 101115Z AUTO 00000KT 1SM BR BKN002 OVC016 19/19 A2997 330 97 1000 000/00 RMK AO2 T01940189
03949KAQV AQV20190310052012703/10/19 05:20:31  5-MIN KAQV 101120Z AUTO 00000KT 1SM BR BKN002 BKN016 OVC023 20/19 A2996 340 93 1000 000/00 RMK AO2 T02000189
03949KAQV AQV20190310052512903/10/19 05:25:31  5-MIN KAQV 101125Z AUTO 00000KT 3/4SM BR BKN002 BKN016 OVC023 19/19 A2997 330 97 1000 000/00 RMK AO2 T01940189
03949KAQV AQV20190310053012903/10/19 05:30:31  5-MIN KAQV 101130Z AUTO 00000KT 1/2SM FG BKN002 BKN016 OVC020 19/19 A2997 330 97 1000 000/00 RMK AO2 T01940189
03949KAQV AQV20190310053511503/10/19 05:35:31  5-MIN KAQV 101135Z AUTO 00000KT 1/2SM FG OVC002 19/18 A2997 330 93 1000 000/00 RMK AO2 T01940183
03949KAQV AQV20190310054011503/10/19 05:40:31  5-MIN KAQV 101140Z AUTO 00000KT 1/2SM FG OVC002 19/19 A2997 330 97 1000 000/00 RMK AO2 T01940189
03949KAQV AQV20190310054511403/10/19 05:45:31  5-MIN KAQV 101145Z AUTO 01003KT 1/2SM FG VV002 19/19 A2997 330 97 1000 010/03 RMK AO2 T01940189
03949KAQV AQV20190310055014503/10/19 05:50:31  5-MIN KAQV 101150Z AUTO 03004KT 1/4SM FG VV002 19/19 A2998 320 97 1000 020/04 RMK AO2 SLP149 70025 T01940189 10206 20194 50007
03949KAQV AQV20190310055514503/10/19 05:55:31  5-MIN KAQV 101155Z AUTO 00000KT 1/4SM FG VV002 19/19 A2998 320 97 1000 000/00 RMK AO2 SLP150 70025 T01940189 10206 20194 50007
03949KAQV AQV20190310060011403/10/19 06:00:31  5-MIN KAQV 101200Z AUTO 36004KT 1/2SM FG VV002 19/19 A2998 320 97 1000 360/04 RMK AO2 T01940189
03949KAQV AQV20190310060511403/10/19 06:05:31  5-MIN KAQV 101205Z AUTO 00000KT 1/2SM FG VV002 19/18 A2998 320 93 1000 000/00 RMK AO2 T01940183
03949KAQV AQV20190310061011303/10/19 06:10:31  5-MIN KAQV 101210Z AUTO 02003KT 3/4SM BR VV002 19/18 A2999 310 93 900 010/03 RMK AO2 T01940183
03949KAQV AQV20190310061511303/10/19 06:15:31  5-MIN KAQV 101215Z AUTO 36003KT 1/2SM FG VV002 19/18 A2999 310 93 900 350/03 RMK AO2 T01940183
03949KAQV AQV20190310062011303/10/19 06:20:31  5-MIN KAQV 101220Z AUTO 00000KT 3/4SM BR VV002 19/19 A3000 310 97 900 000/00 RMK AO2 T01940189
03949KAQV AQV20190310062511403/10/19 06:25:31  5-MIN KAQV 101225Z AUTO VRB03KT 3/4SM BR OVC002 19/18 A3000 300 93 900 VRB/03 RMK AO2 T01940183
03949KAQV AQV20190310063011403/10/19 06:30:31  5-MIN KAQV 101230Z AUTO 03003KT 3/4SM BR OVC002 19/18 A3000 300 93 900 020/03 RMK AO2 T01940183
03949KAQV AQV20190310063511403/10/19 06:35:31  5-MIN KAQV 101235Z AUTO 36003KT 3/4SM BR OVC002 19/18 A3001 300 93 900 360/03 RMK AO2 T01940183
03949KAQV AQV20190310064018703/10/19 06:40:31  5-MIN KAQV 101240Z AUTO 01003KT 1/2SM FG OVC002 19/18 A3001 290 93 900 010/03 RMK AO2 T0194018303/10/10SM FEW016 FEW050 23/17 A3008 230 70 1200 VRB/04 RMK AO2 T02280172
03949KAQV AQV20190310101010803/10/19 10:10:31  5-MIN KAQV 101610Z AUTO VRB03KT 10SM CLR 21/16 A3006 250 70 1100 VRB/03 RMK AO2 T02110156
03949KAQV AQV20190310101510803/10/19 10:15:31  5-MIN KAQV 101615Z AUTO VRB04KT 10SM CLR 21/16 A3006 250 73 1100 VRB/04 RMK AO2 T02110161
03949KAQV AQV20190310102009803/10/19 10:20:31  5-MIN KAQV 101620Z AUTO 10SM CLR 21/16 A3006 250 73 1100 M /M RMK AO2 T02110161
03949KAQV AQV20190310102510803/10/19 10:25:31  5-MIN KAQV 101625Z AUTO VRB05KT 10SM CLR 22/16 A3007 240 70 1100 VRB/05 RMK AO2 T02170161
03949KAQV AQV20190310103010803/10/19 10:30:31  5-MIN KAQV 101630Z AUTO VRB03KT 10SM CLR 22/17 A3007 240 70 1200 VRB/03 RMK AO2 T02220167
03949KAQV AQV20190310103510803/10/19 10:35:31  5-MIN KAQV 101635Z AUTO 00000KT 10SM CLR 22/17 A3007 240 70 1200 000/00 RMK AO2 T02220167
03949KAQV AQV20190310104010803/10/19 10:40:31  5-MIN KAQV 101640Z AUTO 04005KT 10SM CLR 23/17 A3007 240 68 1200 030/05 RMK AO2 T02280167
03949KAQV AQV20190310104510803/10/19 10:45:31  5-MIN KAQV 101645Z AUTO VRB03KT 10SM CLR 22/17 A3008 230 70 1200 VRB/03 RMK AO2 T02220167
03949KAQV AQV20190310105011503/10/19 10:50:31  5-MIN KAQV 101650Z AUTO 04004KT 10SM CLR 22/17 A3008 230 70 1200 040/04 RMK AO2 SLP183 T02220167
03949KAQV AQV20190310105512503/10/19 10:55:31  5-MIN KAQV 101655Z AUTO 04005KT 10SM FEW016 FEW050 22/17 A3008 230 70 1200 040/05 RMK AO2 SLP182 T02220167
03949KAQV AQV20190310110011803/10/19 11:00:31  5-MIN KAQV 101700Z AUTO 07004KT 10SM FEW016 FEW050 23/17 A3007 240 70 1200 060/04 RMK AO2 T02280172
03949KAQV AQV20190310110511803/10/19 11:05:31  5-MIN KAQV 101705Z AUTO VRB04KT 10SM FEW016 FEW050 23/17 A3008 230 70 1200 VRB/04 RMK AO2 T02280172
03949KAQV AQV20190310111011803/10/19 11:10:31  5-MIN KAQV 101710Z AUTO VRB04KT 10SM FEW016 SCT050 23/17 A3008 230 68 1300 VRB/04 RMK AO2 T02330172
03949KAQV AQV20190310111511803/10/19 11:15:31  5-MIN KAQV 101715Z AUTO VRB04KT 10SM SCT016 SCT050 23/17 A3008 230 68 1300 VRB/04 RMK AO2 T02330172
03949KAQV AQV20190310112011803/10/19 11:20:31  5-MIN KAQV 101720Z AUTO VRB04KT 10SM SCT016 SCT050 23/18 A3008 230 70 1300 VRB/04 RMK AO2 T02330178
03949KAQV AQV20190310112511103/10/19 11:25:31  5-MIN KAQV 101725Z AUTO VRB04KT 10SM SCT016 23/18 A3008 230 70 1300 VRB/04 RMK AO2 T02330178
03949KAQV AQV20190310113011103/10/19 11:30:31  5-MIN KAQV 101730Z AUTO 08004KT 10SM FEW016 23/18 A3007 230 70 1300 070/04 RMK AO2 T02330178
03949KAQV AQV20190310113511103/10/19 11:35:31  5-MIN KAQV 101735Z AUTO 00000KT 10SM FEW016 24/18 A3007 240 68 1400 000/00 RMK AO2 T02390178
03949KAQV AQV20190310114011103/10/19 11:40:31  5-MIN KAQV 101740Z AUTO VRB04KT 10SM FEW016 24/18 A3007 240 68 1400 VRB/04 RMK AO2 T02440183
03949KAQV AQV20190310114511103/10/19 11:45:31  5-MIN KAQV 101745Z AUTO VRB03KT 10SM FEW018 24/18 A3007 240 68 1400 VRB/03 RMK AO2 T02440183
03949KAQV AQV20190310115013603/10/19 11:50:31  5-MIN KAQV 101750Z AUTO VRB04KT 10SM FEW018 24/18 A3007 240 68 1400 VRB/04 RMK AO2 SLP179 T02440183 10244 20189 53017
03949KAQV AQV20190310115513603/10/19 11:55:31  5-MIN KAQV 101755Z AUTO VRB03KT 10SM FEW018 24/18 A3007 240 68 1400 VRB/03 RMK AO2 SLP179 T02440183 10244 20189 53017
03949KAQV AQV20190310120011103/10/19 12:00:31  5-MIN KAQV 101800Z AUTO VRB03KT 10SM FEW018 25/18 A3007 240 66 1500 VRB/03 RMK AO2 T02500183
03949KAQV AQV20190310120511103/10/19 12:05:31  5-MIN KAQV 101805Z AUTO 00000KT 10SM SCT018 26/18 A3006 250 64 1600 000/00 RMK AO2 T02560183
03949KAQV AQV20190310121011103/10/19 12:10:31  5-MIN KAQV 101810Z AUTO 04006KT 10SM SCT019 26/18 A3006 250 64 1600 040/06 RMK AO2 T02560183
03949KAQV AQV20190310121511103/10/19 12:15:31  5-MIN KAQV 101815Z AUTO 00000KT 10SM FEW019 26/18 A3006 250 64 1600 000/00 RMK AO2 T02560183
03949KAQV AQV20190310122011103/10/19 12:20:31  5-MIN KAQV 101820Z AUTO 04003KT 10SM SCT021 25/18 A3006 250 64 1500 040/03 RMK AO2 T02500178
03949KAQV AQV20190310122511103/10/19 12:25:31  5-MIN KAQV 101825Z AUTO 06004KT 10SM BKN021 24/18 A3006 250 66 1400 050/04 RMK AO2 T02440178
03949KAQV AQV20190310123011103/10/19 12:30:31  5-MIN KAQV 101830Z AUTO 00000KT 10SM BKN021 24/18 A3006 250 68 1400 000/00 RMK AO2 T02440183
03949KAQV AQV20190310123511803/10/19 12:35:31  5-MIN KAQV 101835Z AUTO VRB03KT 10SM BKN022 BKN035 24/18 A3006 250 68 1400 VRB/03 RMK AO2 T02440183
03949KAQV AQV20190310124012503/10/19 12:40:31  5-MIN KAQV 101840Z AUTO VRB04KT 10SM SCT022 BKN028 BKN035 25/18 A3005 250 66 1500 VRB/04 RMK AO2 T02500183
03949KAQV AQV20190310124512503/10/19 12:45:31  5-MIN KAQV 101845Z AUTO 00000KT 10SM SCT022 BKN028 BKN035 25/18 A3005 260 66 1500 000/00 RMK AO2 T02500183
03949KAQV AQV20190310125012203/10/19 12:50:31  5-MIN KAQV 101850Z AUTO 10SM SCT022 BKN028 BKN034 26/18 A3005 260 64 1600 M /M RMK AO2 SLP174 T02560183
03949KAQV AQV20190310125513203/10/19 12:55:31  5-MIN KAQV 101855Z AUTO 00000KT 10SM FEW022 SCT028 BKN034 26/18 A3005 260 64 1600 000/00 RMK AO2 SLP173 T02560183
03949KAQV AQV20190310130012503/10/19 13:00:31  5-MIN KAQV 101900Z AUTO VRB03KT 10SM SCT026 BKN034 BKN049 26/18 A3005 260 64 1600 VRB/03 RMK AO2 T02560183
03949KAQV AQV20190310130512503/10/19 13:05:31  5-MIN KAQV 101905Z AUTO VRB03KT 10SM BKN026 BKN032 BKN049 25/18 A3005 260 66 1500 VRB/03 RMK AO2 T02500183
03949KAQV AQV20190310131012503/10/19 13:10:31  5-MIN KAQV 101910Z AUTO 00000KT 10SM FEW024 BKN030 OVC049 24/18 A3004 260 68 1500 000/00 RMK AO2 T02440183
03949KAQV AQV20190310131512503/10/19 13:15:31  5-MIN KAQV 101915Z AUTO VRB03KT 10SM FEW024 BKN034 OVC047 25/18 A3004 270 66 1500 VRB/03 RMK AO2 T02500183
03949KAQV AQV20190310132012503/10/19 13:20:31  5-MIN KAQV 101920Z AUTO 03003KT 10SM FEW026 SCT034 BKN045 27/18 A3004 270 60 1700 030/03 RMK AO2 T02670183
03949KAQV AQV20190310132512503/10/19 13:25:31  5-MIN KAQV 101925Z AUTO 04003KT 10SM SCT026 BKN034 BKN045 26/18 A3004 270 62 1700 030/03 RMK AO2 T02610183
03949KAQV AQV20190310133012503/10/19 13:30:31  5-MIN KAQV 101930Z AUTO VRB03KT 10SM FEW026 SCT034 BKN047 26/18 A3004 270 62 1700 VRB/03 RMK AO2 T02610183
03949KAQV AQV20190310133512503/10/19 13:35:31  5-MIN KAQV 101935Z AUTO 00000KT 10SM FEW026 FEW034 BKN047 26/18 A3003 270 59 1700 000/00 RMK AO2 T02610178
03949KAQV AQV20190310134011803/10/19 13:40:31  5-MIN KAQV 101940Z AUTO VRB03KT 10SM FEW026 SCT046 27/18 A3003 270 60 1700 VRB/03 RMK AO2 T02670183
03949KAQV AQV20190310134511803/10/19 13:45:31  5-MIN KAQV 101945Z AUTO 00000KT 10SM FEW026 FEW046 27/18 A3003 270 57 1700 000/00 RMK AO2 T02670178
03949KAQV AQV20190310135012503/10/19 13:50:31  5-MIN KAQV 101950Z AUTO VRB03KT 10SM FEW026 FEW048 26/18 A3003 270 59 1700 VRB/03 RMK AO2 SLP167 T02610178
03949KAQV AQV20190310135511803/10/19 13:55:31  5-MIN KAQV 101955Z AUTO VRB03KT 10SM FEW029 26/18 A3003 270 62 1700 VRB/03 RMK AO2 SLP167 T02610183
03949KAQV AQV20190310140011103/10/19 14:00:31  5-MIN KAQV 102000Z AUTO 18003KT 10SM SCT031 26/18 A3003 270 59 1700 180/03 RMK AO2 T02610178
03949KAQV AQV20190310140511103/10/19 14:05:31  5-MIN KAQV 102005Z AUTO VRB04KT 10SM BKN034 27/18 A3003 280 57 1700 VRB/04 RMK AO2 T02670178
03949KAQV AQV20190310141011103/10/19 14:10:31  5-MIN KAQV 102010Z AUTO VRB03KT 10SM BKN034 26/18 A3003 270 59 1700 VRB/03 RMK AO2 T02610178
03949KAQV AQV20190310141511103/10/19 14:15:31  5-MIN KAQV 102015Z AUTO VRB03KT 10SM BKN034 26/18 A3003 270 61 1600 VRB/03 RMK AO2 T02560178
03949KAQV AQV20190310142011803/10/19 14:20:31  5-MIN KAQV 102020Z AUTO 00000KT 10SM BKN033 OVC040 26/18 A3003 270 59 1700 000/00 RMK AO2 T02610178
03949KAQV AQV20190310142511803/10/19 14:25:31  5-MIN KAQV 102025Z AUTO 00000KT 10SM BKN033 BKN040 27/18 A3003 270 58 1800 000/00 RMK AO2 T02720183
03949KAQV AQV20190310143011103/10/19 14:30:31  5-MIN KAQV 102030Z AUTO 00000KT 10SM BKN033 27/18 A3003 280 57 1700 000/00 RMK AO2 T02670178
03949KAQV AQV20190310143511103/10/19 14:35:31  5-MIN KAQV 102035Z AUTO 20003KT 10SM BKN035 27/18 A3002 280 57 1700 200/03 RMK AO2 T02670178
03949KAQV AQV20190310144011103/10/19 14:40:31  5-MIN KAQV 102040Z AUTO 00000KT 10SM BKN035 26/17 A3002 280 57 1700 000/00 RMK AO2 T02610172
03949KAQV AQV20190310144511103/10/19 14:45:31  5-MIN KAQV 102045Z AUTO 00000KT 10SM SCT037 27/18 A3002 280 56 1800 000/00 RMK AO2 T02720178
03949KAQV AQV20190310145012403/10/19 14:50:31  5-MIN KAQV 102050Z AUTO VRB03KT 10SM SCT035 27/18 A3002 280 56 1800 VRB/03 RMK AO2 SLP164 T02720178 50001
03949KAQV AQV20190310145512403/10/19 14:55:31  5-MIN KAQV 102055Z AUTO 00000KT 10SM SCT035 27/18 A3002 280 56 1800 000/00 RMK AO2 SLP164 T02720178 50001
03949KAQV AQV20190310150011103/10/19 15:00:31  5-MIN KAQV 102100Z AUTO VRB03KT 10SM FEW035 27/18 A3002 280 57 1700 VRB/03 RMK AO2 T02670178
03949KAQV AQV20190310150511803/10/19 15:05:31  5-MIN KAQV 102105Z AUTO VRB03KT 10SM FEW035 SCT060 27/17 A3002 280 54 1800 VRB/03 RMK AO2 T02720172
03949KAQV AQV20190310151011803/10/19 15:10:31  5-MIN KAQV 102110Z AUTO 16003KT 10SM FEW034 SCT060 26/17 A3002 280 57 1700 150/03 RMK AO2 T02610172
03949KAQV AQV20190310151511803/10/19 15:15:31  5-MIN KAQV 102115Z AUTO VRB04KT 10SM FEW034 SCT060 26/17 A3002 280 57 1700 VRB/04 RMK AO2 T02610172
03949KAQV AQV20190310152011103/10/19 15:20:31  5-MIN KAQV 102120Z AUTO 00000KT 10SM SCT060 26/18 A3002 280 59 1700 000/00 RMK AO2 T02610178
03949KAQV AQV20190310152511103/10/19 15:25:31  5-MIN KAQV 102125Z AUTO 00000KT 10SM SCT055 27/18 A3002 290 56 1800 000/00 RMK AO2 T02720178
03949KAQV AQV20190310153011103/10/19 15:30:31  5-MIN KAQV 102130Z AUTO VRB04KT 10SM SCT060 27/18 A3002 290 56 1800 VRB/04 RMK AO2 T02720178
03949KAQV AQV20190310153511103/10/19 15:35:31  5-MIN KAQV 102135Z AUTO 15003KT 10SM FEW060 27/18 A3002 290 57 1700 140/03 RMK AO2 T02670178
03949KAQV AQV20190310154011803/10/19 15:40:31  5-MIN KAQV 102140Z AUTO VRB03KT 10SM FEW050 FEW065 27/18 A3002 290 57 1700 VRB/03 RMK AO2 T02670178
03949KAQV AQV20190310154511103/10/19 15:45:31  5-MIN KAQV 102145Z AUTO 08005KT 10SM FEW050 27/18 A3002 290 60 1700 080/05 RMK AO2 T02670183
03949KAQV AQV20190310155011503/10/19 15:50:31  5-MIN KAQV 102150Z AUTO 08004KT 10SM CLR 27/18 A3002 280 60 1700 070/04 RMK AO2 SLP163 T02670183
03949KAQV AQV20190310155512503/10/19 15:55:31  5-MIN KAQV 102155Z AUTO VRB03KT 10SM FEW036 SCT045 26/18 A3002 280 62 1700 VRB/03 RMK AO2 SLP163 T02610183
03949KAQV AQV20190310160011803/10/19 16:00:31  5-MIN KAQV 102200Z AUTO 00000KT 10SM SCT034 BKN045 26/18 A3002 280 59 1700 000/00 RMK AO2 T02610178
03949KAQV AQV20190310160511803/10/19 16:05:31  5-MIN KAQV 102205Z AUTO VRB03KT 10SM BKN034 BKN050 27/18 A3003 280 60 1700 VRB/03 RMK AO2 T02670183
03949KAQV AQV20190310161012503/10/19 16:10:31  5-MIN KAQV 102210Z AUTO 07003KT 10SM BKN034 BKN040 BKN050 27/18 A3002 280 60 1700 060/03 RMK AO2 T02670183
03949KAQV AQV20190310161512503/10/19 16:15:31  5-MIN KAQV 102215Z AUTO VRB04KT 10SM BKN033 BKN047 BKN055 27/19 A3002 280 60 1800 VRB/04 RMK AO2 T02720189
03949KAQV AQV20190310162011803/10/19 16:20:31  5-MIN KAQV 102220Z AUTO VRB04KT 10SM BKN033 OVC050 26/18 A3002 280 62 1700 VRB/04 RMK AO2 T02610183
03949KAQV AQV20190310162511803/10/19 16:25:31  5-MIN KAQV 102225Z AUTO 06003KT 10SM SCT033 OVC055 26/18 A3002 280 62 1700 050/03 RMK AO2 T02610183
03949KAQV AQV20190310163012503/10/19 16:30:31  5-MIN KAQV 102230Z AUTO 00000KT 10SM SCT030 BKN037 OVC055 26/19 A3003 280 66 1600 000/00 RMK AO2 T02560189
03949KAQV AQV20190310163512503/10/19 16:35:31  5-MIN KAQV 102235Z AUTO 07003KT 10SM SCT030 BKN050 OVC060 26/19 A3003 280 64 1700 060/03 RMK AO2 T02610189
03949KAQV AQV20190310164011803/10/19 16:40:31  5-MIN KAQV 102240Z AUTO 00000KT 10SM FEW030 OVC050 26/18 A3003 280 62 1700 000/00 RMK AO2 T02610183
03949KAQV AQV20190310164511803/10/19 16:45:31  5-MIN KAQV 102245Z AUTO 00000KT 10SM FEW030 OVC050 26/19 A3003 280 66 1600 000/00 RMK AO2 T02560189
03949KAQV AQV20190310165013203/10/19 16:50:31  5-MIN KAQV 102250Z AUTO VRB03KT 10SM FEW030 BKN046 OVC055 26/19 A3003 280 66 1600 VRB/03 RMK AO2 SLP165 T02560189
03949KAQV AQV20190310165513203/10/19 16:55:31  5-MIN KAQV 102255Z AUTO 00000KT 10SM FEW029 BKN046 OVC055 26/19 A3003 280 66 1600 000/00 RMK AO2 SLP165 T02560189
03949KAQV AQV20190310170011803/10/19 17:00:31  5-MIN KAQV 102300Z AUTO 00000KT 10SM BKN047 OVC055 26/19 A3003 280 66 1600 000/00 RMK AO2 T02560189
03949KAQV AQV20190310170510803/10/19 17:05:31  5-MIN KAQV 102305Z AUTO 10SM BKN047 OVC055 26/19 A3002 280 66 1600 M /M RMK AO2 T02560189
03949KAQV AQV20190310171011803/10/19 17:10:31  5-MIN KAQV 102310Z AUTO VRB03KT 10SM BKN047 BKN055 26/19 A3002 280 66 1600 VRB/03 RMK AO2 T02560189
03949KAQV AQV20190310171511803/10/19 17:15:31  5-MIN KAQV 102315Z AUTO 00000KT 10SM BKN047 BKN055 25/19 A3003 280 68 1500 000/00 RMK AO2 T02500189
03949KAQV AQV20190310172011103/10/19 17:20:31  5-MIN KAQV 102320Z AUTO VRB03KT 10SM SCT047 24/19 A3003 280 71 1500 VRB/03 RMK AO2 T02440189
03949KAQV AQV20190310172511103/10/19 17:25:31  5-MIN KAQV 102325Z AUTO VRB03KT 10SM SCT047 24/19 A3003 280 71 1500 VRB/03 RMK AO2 T02440189
03949KAQV AQV20190310173011103/10/19 17:30:31  5-MIN KAQV 102330Z AUTO 00000KT 10SM FEW045 24/19 A3003 280 71 1500 000/00 RMK AO2 T02440189
03949KAQV AQV20190310173511103/10/19 17:35:31  5-MIN KAQV 102335Z AUTO VRB03KT 10SM FEW047 24/19 A3003 280 71 1500 VRB/03 RMK AO2 T02440189
03949KAQV AQV20190310174010803/10/19 17:40:31  5-MIN KAQV 102340Z AUTO 00000KT 10SM CLR 24/19 A3003 280 73 1400 000/00 RMK AO2 T02390189
03949KAQV AQV20190310174511103/10/19 17:45:31  5-MIN KAQV 102345Z AUTO 00000KT 10SM FEW080 24/19 A3003 270 73 1400 000/00 RMK AO2 T02390189
03949KAQV AQV20190310175014303/10/19 17:50:31  5-MIN KAQV 102350Z AUTO 00000KT 10SM FEW039 SCT080 24/19 A3003 270 73 1400 000/00 RMK AO2 SLP167 T02390189 10272 20239 56015
03949KAQV AQV20190310175514303/10/19 17:55:31  5-MIN KAQV 102355Z AUTO VRB03KT 10SM SCT039 BKN080 24/19 A3003 270 73 1400 VRB/03 RMK AO2 SLP168 T02390189 10272 20239 56015
03949KAQV AQV20190310180012503/10/19 18:00:31  5-MIN KAQV 110000Z AUTO 07003KT 10SM SCT037 SCT046 BKN080 24/19 A3003 270 73 1400 060/03 RMK AO2 T02390189
03949KAQV AQV20190310180512503/10/19 18:05:31  5-MIN KAQV 110005Z AUTO 00000KT 10SM SCT039 BKN046 BKN080 24/19 A3003 270 73 1400 000/00 RMK AO2 T02390189
03949KAQV AQV20190310181011803/10/19 18:10:31  5-MIN KAQV 110010Z AUTO 00000KT 10SM BKN041 OVC080 23/19 A3003 270 76 1300 000/00 RMK AO2 T02330189
03949KAQV AQV20190310181511803/10/19 18:15:31  5-MIN KAQV 110015Z AUTO 00000KT 10SM SCT038 OVC045 23/19 A3004 270 76 1300 000/00 RMK AO2 T02330189
03949KAQV AQV20190310182014003/10/19 18:20:31  5-MIN KAQV 110020Z AUTO 00000KT 9SM -RA SCT039 BKN046 OVC060 23/19 A3004 270 76 1300 000/00 RMK AO2 RAB20 P0000 T02330189
03949KAQV AQV20190310182514003/10/19 18:25:31  5-MIN KAQV 110025Z AUTO VRB03KT 9SM -RA FEW034 BKN044 OVC065 23/19 A3004 270 78 1300 VRB/03 RMK AO2 RAB20 P0000 T02280189
03949KAQV AQV20190310183014003/10/19 18:30:31  5-MIN KAQV 110030Z AUTO VRB03KT 9SM -RA FEW034 BKN044 OVC065 23/19 A3003 270 81 1300 VRB/03 RMK AO2 RAB20 P0000 T02280194
03949KAQV AQV20190310183514003/10/19 18:35:31  5-MIN KAQV 110035Z AUTO 00000KT 10SM FEW034 BKN044 OVC070 22/19 A3004 270 84 1200 000/00 RMK AO2 RAB20E33 P0000 T02220194
03949KAQV AQV20190310184014003/10/19 18:40:31  5-MIN KAQV 110040Z AUTO 00000KT 10SM FEW034 BKN044 OVC070 23/19 A3004 270 81 1300 000/00 RMK AO2 RAB20E33 P0000 T02280194
03949KAQV AQV20190310184514003/10/19 18:45:31  5-MIN KAQV 110045Z AUTO 00000KT 10SM SCT034 BKN044 OVC070 23/19 A3004 270 81 1300 000/00 RMK AO2 RAB20E33 P0000 T02280194
03949KAQV AQV20190310185014703/10/19 18:50:31  5-MIN KAQV 110050Z AUTO VRB03KT 10SM BKN034 BKN045 OVC070 22/19 A3004 260 84 1200 VRB/03 RMK AO2 RAB20E33 SLP170 P0000 T02220194
03949KAQV AQV20190310185514703/10/19 18:55:31  5-MIN KAQV 110055Z AUTO 00000KT 10SM FEW030 BKN034 OVC070 23/19 A3005 260 78 1300 000/00 RMK AO2 RAB20E33 SLP172 P0000 T02280189
03949KAQV AQV20190310190011803/10/19 19:00:31  5-MIN KAQV 110100Z AUTO 08003KT 10SM BKN034 OVC042 23/19 A3004 260 78 1300 070/03 RMK AO2 T02280189
03949KAQV AQV20190310190512503/10/19 19:05:31  5-MIN KAQV 110105Z AUTO 00000KT 10SM BKN034 BKN044 OVC065 22/19 A3004 260 81 1200 000/00 RMK AO2 T02220189
03949KAQV AQV20190310191012503/10/19 19:10:31  5-MIN KAQV 110110Z AUTO 00000KT 10SM BKN034 BKN044 BKN065 22/19 A3005 260 81 1200 000/00 RMK AO2 T02220189
03949KAQV AQV20190310191511803/10/19 19:15:31  5-MIN KAQV 110115Z AUTO 00000KT 10SM BKN033 BKN044 22/19 A3005 260 81 1200 000/00 RMK AO2 T02220189
03949KAQV AQV20190310192011803/10/19 19:20:31  5-MIN KAQV 110120Z AUTO 00000KT 10SM SCT030 BKN036 22/19 A3005 260 81 1200 000/00 RMK AO2 T02220189
03949KAQV AQV20190310192511803/10/19 19:25:31  5-MIN KAQV 110125Z AUTO 00000KT 10SM SCT030 BKN036 22/19 A3005 260 81 1200 000/00 RMK AO2 T02220189
03949KAQV AQV20190310193012503/10/19 19:30:31  5-MIN KAQV 110130Z AUTO VRB03KT 10SM SCT030 SCT047 BKN070 22/19 A3005 260 81 1200 VRB/03 RMK AO2 T02220189
03949KAQV AQV20190310193512503/10/19 19:35:31  5-MIN KAQV 110135Z AUTO VRB03KT 10SM SCT030 SCT037 BKN065 22/19 A3006 250 84 1200 VRB/03 RMK AO2 T02220194
03949KAQV AQV20190310194012503/10/19 19:40:31  5-MIN KAQV 110140Z AUTO VRB03KT 10SM SCT030 BKN034 BKN060 22/19 A3006 240 84 1200 VRB/03 RMK AO2 T02220194
03949KAQV AQV20190310194512403/10/19 19:45:31  5-MIN KAQV 110145Z AUTO VRB03KT 9SM BKN030 BKN037 BKN065 22/19 A3007 240 84 1200 VRB/03 RMK AO2 T02220194
03949KAQV AQV20190310195010703/10/19 19:50:31  5-MIN KAQV 110150Z AUTO 00000KT 9SM BKN028 BKN065 22/19 A3007 240 87 1100 000/00 RMK AO2
03949KAQV AQV20190310195513103/10/19 19:55:31  5-MIN KAQV 110155Z AUTO 00000KT 9SM BKN025 BKN030 OVC065 22/19 A3007 240 87 1100 000/00 RMK AO2 SLP181 T02170194
03949KAQV AQV20190310200011703/10/19 20:00:31  5-MIN KAQV 110200Z AUTO VRB03KT 9SM BKN025 OVC030 22/19 A3007 240 87 1100 VRB/03 RMK AO2 T02170194
03949KAQV AQV20190310200511703/10/19 20:05:31  5-MIN KAQV 110205Z AUTO VRB03KT 9SM BKN023 OVC028 22/19 A3007 240 87 1100 VRB/03 RMK AO2 T02170194
03949KAQV AQV20190310201011703/10/19 20:10:31  5-MIN KAQV 110210Z AUTO VRB05KT 9SM BKN023 OVC030 22/19 A3007 240 84 1100 VRB/05 RMK AO2 T02170189
03949KAQV AQV20190310201511003/10/19 20:15:31  5-MIN KAQV 110215Z AUTO 00000KT 9SM OVC023 22/19 A3008 230 84 1100 000/00 RMK AO2 T02170189
03949KAQV AQV20190310202011703/10/19 20:20:31  5-MIN KAQV 110220Z AUTO VRB03KT 9SM BKN020 OVC029 22/19 A3008 230 84 1100 VRB/03 RMK AO2 T02170189
03949KAQV AQV20190310202511703/10/19 20:25:31  5-MIN KAQV 110225Z AUTO 00000KT 9SM BKN020 OVC029 22/19 A3007 240 84 1100 000/00 RMK AO2 T02170189
03949KAQV AQV20190310203011803/10/19 20:30:31  5-MIN KAQV 110230Z AUTO 08003KT 10SM BKN020 OVC031 22/19 A3007 240 84 1100 070/03 RMK AO2 T02170189
03949KAQV AQV20190310203512403/10/19 20:35:31  5-MIN KAQV 110235Z AUTO VRB03KT 9SM BKN020 BKN024 OVC031 22/19 A3008 230 84 1100 VRB/03 RMK AO2 T02170189
03949KAQV AQV20190310204012403/10/19 20:40:31  5-MIN KAQV 110240Z AUTO VRB03KT 9SM BKN018 BKN024 OVC031 22/19 A3007 230 84 1100 VRB/03 RMK AO2 T02170189
03949KAQV AQV20190310204512403/10/19 20:45:31  5-MIN KAQV 110245Z AUTO VRB05KT 9SM BKN018 BKN026 OVC031 22/19 A3007 240 84 1100 VRB/05 RMK AO2 T02170189
03949KAQV AQV20190310205014403/10/19 20:50:31  5-MIN KAQV 110250Z AUTO VRB05KT 10SM SCT018 BKN026 OVC031 22/19 A3007 230 84 1100 VRB/05 RMK AO2 SLP181 60000 T02170189 53004
03949KAQV AQV20190310205514403/10/19 20:55:31  5-MIN KAQV 110255Z AUTO VRB04KT 10SM FEW018 BKN026 OVC031 22/18 A3007 240 81 1100 VRB/04 RMK AO2 SLP181 60000 T02170183 53004
03949KAQV AQV20190310210012503/10/19 21:00:31  5-MIN KAQV 110300Z AUTO 07003KT 10SM FEW017 BKN023 OVC030 22/18 A3008 230 81 1100 070/03 RMK AO2 T02170183
03949KAQV AQV20190310210511803/10/19 21:05:31  5-MIN KAQV 110305Z AUTO 06004KT 10SM BKN021 OVC030 22/18 A3008 230 81 1100 050/04 RMK AO2 T02170183
03949KAQV AQV20190310211011803/10/19 21:10:31  5-MIN KAQV 110310Z AUTO VRB03KT 10SM BKN021 OVC028 22/18 A3008 230 81 1100 VRB/03 RMK AO2 T02170183
03949KAQV AQV20190310211511803/10/19 21:15:31  5-MIN KAQV 110315Z AUTO VRB03KT 10SM BKN022 OVC028 21/18 A3008 230 84 1000 VRB/03 RMK AO2 T02110183
03949KAQV AQV20190310212011803/10/19 21:20:31  5-MIN KAQV 110320Z AUTO VRB03KT 10SM BKN020 OVC026 21/18 A3008 230 84 1000 VRB/03 RMK AO2 T02110183
03949KAQV AQV20190310212511103/10/19 21:25:31  5-MIN KAQV 110325Z AUTO 00000KT 10SM OVC020 21/18 A3008 230 84 1000 000/00 RMK AO2 T02110183
03949KAQV AQV20190310213011103/10/19 21:30:31  5-MIN KAQV 110330Z AUTO 05005KT 10SM OVC020 21/18 A3008 230 84 1000 040/05 RMK AO2 T02110183
03949KAQV AQV20190310213511103/10/19 21:35:31  5-MIN KAQV 110335Z AUTO 05004KT 10SM OVC020 21/18 A3008 230 84 1000 050/04 RMK AO2 T02110183
03949KAQV AQV20190310214011103/10/19 21:40:31  5-MIN KAQV 110340Z AUTO 04004KT 10SM OVC020 21/18 A3008 230 84 1000 040/04 RMK AO2 T02110183
03949KAQV AQV20190310214511803/10/19 21:45:31  5-MIN KAQV 110345Z AUTO 05004KT 10SM BKN020 OVC025 21/18 A3008 230 81 1000 050/04 RMK AO2 T02110178
03949KAQV AQV20190310215011803/10/19 21:50:31  5-MIN KAQV 110350Z AUTO 04003KT 10SM OVC020 21/18 A3008 230 81 1000 040/03 RMK AO2 SLP184 T02110178
03949KAQV AQV20190310215511803/10/19 21:55:31  5-MIN KAQV 110355Z AUTO 00000KT 10SM OVC020 21/18 A3009 220 81 1000 000/00 RMK AO2 SLP186 T02110178
03949KAQV AQV20190310220011103/10/19 22:00:31  5-MIN KAQV 110400Z AUTO 05004KT 10SM OVC020 21/18 A3009 220 81 1000 050/04 RMK AO2 T02110178
03949KAQV AQV20190310220511103/10/19 22:05:31  5-MIN KAQV 110405Z AUTO VRB04KT 10SM OVC020 21/17 A3009 220 78 1000 VRB/04 RMK AO2 T02110172
03949KAQV AQV20190310231012403/10/19 23:10:31  5-MIN KAQV 110510Z AUTO VRB04KT 10SM SCT023 SCT029 BKN039 20/16 A3009 220 75 900 VRB/04 RMK AO2 T02000156
03949KAQV AQV20190310231512403/10/19 23:15:31  5-MIN KAQV 110515Z AUTO VRB05KT 10SM SCT023 BKN029 BKN037 20/16 A3009 220 75 900 VRB/05 RMK AO2 T02000156
03949KAQV AQV20190310232012403/10/19 23:20:31  5-MIN KAQV 110520Z AUTO 06005KT 10SM SCT023 BKN029 BKN037 20/15 A3009 220 72 900 060/05 RMK AO2 T02000150
03949KAQV AQV20190310232512403/10/19 23:25:31  5-MIN KAQV 110525Z AUTO 07004KT 10SM BKN023 BKN030 OVC048 20/15 A3009 220 72 900 070/04 RMK AO2 T02000150
03949KAQV AQV20190310233011703/10/19 23:30:31  5-MIN KAQV 110530Z AUTO 07004KT 10SM BKN026 BKN037 20/15 A3009 220 72 900 060/04 RMK AO2 T02000150
03949KAQV AQV20190310233512403/10/19 23:35:31  5-MIN KAQV 110535Z AUTO 06005KT 10SM BKN024 BKN028 OVC037 19/14 A3010 210 72 800 050/05 RMK AO2 T01940144
03949KAQV AQV20190310234012403/10/19 23:40:31  5-MIN KAQV 110540Z AUTO VRB03KT 10SM BKN024 BKN034 OVC080 19/14 A3010 210 72 800 VRB/03 RMK AO2 T01940144
03949KAQV AQV20190310234512403/10/19 23:45:31  5-MIN KAQV 110545Z AUTO 04003KT 10SM BKN022 BKN027 OVC080 19/14 A3010 210 72 800 040/03 RMK AO2 T01940144
03949KAQV AQV20190310235016503/10/19 23:50:31  5-MIN KAQV 110550Z AUTO 06003KT 10SM BKN022 BKN027 OVC080 19/14 A3010 210 72 800 050/03 RMK AO2 SLP190 60000 T01940144 10239 20194 402720189 51013
03949KAQV AQV20190310235516503/10/19 23:55:31  5-MIN KAQV 110555Z AUTO 08004KT 10SM SCT022 BKN027 BKN080 19/14 A3010 210 75 800 070/04 RMK AO2 SLP190 60000 T01890144 10239 20189 402720189 51013
03949KAQV AQV20190311000011703/11/19 00:00:31  5-MIN KAQV 110600Z AUTO 07003KT 10SM SCT022 BKN080 19/14 A3010 210 72 800 070/03 RMK AO2 T01890139
03949KAQV AQV20190311000511703/11/19 00:05:31  5-MIN KAQV 110605Z AUTO 07004KT 10SM FEW022 BKN080 19/14 A3010 210 72 800 070/04 RMK AO2 T01890139
03949KAQV AQV20190311001011703/11/19 00:10:31  5-MIN KAQV 110610Z AUTO VRB03KT 10SM SCT022 BKN080 19/14 A3010 210 72 800 VRB/03 RMK AO2 T01890139
03949KAQV AQV20190311001511703/11/19 00:15:31  5-MIN KAQV 110615Z AUTO 06003KT 10SM SCT022 BKN080 19/14 A3010 210 72 800 060/03 RMK AO2 T01890139
03949KAQV AQV20190311002011703/11/19 00:20:31  5-MIN KAQV 110620Z AUTO 03003KT 10SM BKN022 BKN080 19/14 A3011 210 72 700 030/03 RMK AO2 T01890139
03949KAQV AQV20190311002511003/11/19 00:25:31  5-MIN KAQV 110625Z AUTO VRB04KT 10SM BKN022 19/14 A3011 200 72 700 VRB/04 RMK AO2 T01890139
03949KAQV AQV20190311003011003/11/19 00:30:31  5-MIN KAQV 110630Z AUTO 03003KT 10SM BKN022 19/14 A3010 210 72 800 030/03 RMK AO2 T01890139
03949KAQV AQV20190311003511003/11/19 00:35:31  5-MIN KAQV 110635Z AUTO VRB03KT 10SM OVC022 19/14 A3010 210 72 800 VRB/03 RMK AO2 T01890139
03949KAQV AQV20190311004011003/11/19 00:40:31  5-MIN KAQV 110640Z AUTO 05004KT 10SM OVC021 19/14 A3010 210 72 700 050/04 RMK AO2 T01890139
03949KAQV AQV20190311004511003/11/19 00:45:31  5-MIN KAQV 110645Z AUTO VRB04KT 10SM OVC021 18/14 A3011 200 75 700 VRB/04 RMK AO2 T01830139
03949KAQV AQV20190311005011703/11/19 00:50:31  5-MIN KAQV 110650Z AUTO 03005KT 10SM OVC021 18/14 A3011 210 75 700 030/05 RMK AO2 SLP192 T01830139
03949KAQV AQV20190311005511703/11/19 00:55:31  5-MIN KAQV 110655Z AUTO VRB04KT 10SM OVC019 18/14 A3011 200 75 700 VRB/04 RMK AO2 SLP193 T01830139
03949KAQV AQV20190311010011003/11/19 01:00:31  5-MIN KAQV 110700Z AUTO VRB04KT 10SM OVC019 18/14 A3011 200 75 700 VRB/04 RMK AO2 T01830139
03949KAQV AQV20190311010511003/11/19 01:05:31  5-MIN KAQV 110705Z AUTO 04005KT 10SM OVC019 18/14 A3011 200 75 700 040/05 RMK AO2 T01830139
03949KAQV AQV20190311011011003/11/19 01:10:31  5-MIN KAQV 110710Z AUTO 02004KT 10SM OVC019 18/14 A3011 200 75 700 010/04 RMK AO2 T01830139
03949KAQV AQV20190311011511703/11/19 01:15:31  5-MIN KAQV 110715Z AUTO VRB04KT 10SM BKN019 OVC025 18/13 A3011 200 72 700 VRB/04 RMK AO2 T01830133
03949KAQV AQV20190311012011703/11/19 01:20:31  5-MIN KAQV 110720Z AUTO 03005KT 10SM BKN019 OVC024 18/13 A3011 200 75 600 030/05 RMK AO2 T01780133
03949KAQV AQV20190311012511703/11/19 01:25:31  5-MIN KAQV 110725Z AUTO VRB05KT 10SM BKN017 OVC024 18/13 A3011 200 72 700 VRB/05 RMK AO2 T01830133
03949KAQV AQV20190311013011703/11/19 01:30:31  5-MIN KAQV 110730Z AUTO 03005KT 10SM BKN017 OVC024 18/13 A3011 200 72 700 020/05 RMK AO2 T01830133
03949KAQV AQV20190311013511703/11/19 01:35:31  5-MIN KAQV 110735Z AUTO 02006KT 10SM BKN017 OVC024 18/13 A3011 200 75 600 020/06 RMK AO2 T01780133
03949KAQV AQV20190311014011003/11/19 01:40:31  5-MIN KAQV 110740Z AUTO 05005KT 10SM OVC017 18/13 A3011 200 75 600 040/05 RMK AO2 T01780133
03949KAQV AQV20190311014511003/11/19 01:45:31  5-MIN KAQV 110745Z AUTO VRB03KT 10SM OVC017 18/13 A3011 200 75 600 VRB/03 RMK AO2 T01780133
03949KAQV AQV20190311015011703/11/19 01:50:31  5-MIN KAQV 110750Z AUTO 03005KT 10SM OVC017 18/13 A3011 200 75 600 020/05 RMK AO2 SLP193 T01780133
03949KAQV AQV20190311015512403/11/19 01:55:31  5-MIN KAQV 110755Z AUTO VRB03KT 10SM BKN015 OVC020 18/13 A3011 200 75 600 VRB/03 RMK AO2 SLP194 T01780133
03949KAQV AQV20190311020011703/11/19 02:00:31  5-MIN KAQV 110800Z AUTO 04004KT 10SM BKN015 OVC020 18/13 A3011 200 75 600 040/04 RMK AO2 T01780133
03949KAQV AQV20190311020511703/11/19 02:05:31  5-MIN KAQV 110805Z AUTO 05005KT 10SM BKN015 OVC020 18/13 A3011 200 75 600 050/05 RMK AO2 T01780133
03949KAQV AQV20190311021011003/11/19 02:10:31  5-MIN KAQV 110810Z AUTO 03006KT 10SM OVC015 18/13 A3011 200 72 600 030/06 RMK AO2 T01780128
03949KAQV AQV20190311021511003/11/19 02:15:31  5-MIN KAQV 110815Z AUTO 04004KT 10SM OVC015 18/13 A3011 200 72 600 040/04 RMK AO2 T01780128
03949KAQV AQV20190311022011003/11/19 02:20:31  5-MIN KAQV 110820Z AUTO 04004KT 10SM OVC013 18/13 A3011 200 72 600 040/04 RMK AO2 T01780128
03949KAQV AQV20190311022511003/11/19 02:25:31  5-MIN KAQV 110825Z AUTO 04003KT 10SM OVC013 18/13 A3011 200 72 600 030/03 RMK AO2 T01780128
03949KAQV AQV20190311023011003/11/19 02:30:31  5-MIN KAQV 110830Z AUTO 06004KT 10SM OVC013 17/13 A3010 210 75 600 050/04 RMK AO2 T01720128
03949KAQV AQV20190311023511003/11/19 02:35:31  5-MIN KAQV 110835Z AUTO 06004KT 10SM OVC013 17/13 A3010 210 75 600 060/04 RMK AO2 T01720128
03949KAQV AQV20190311024011003/11/19 02:40:31  5-MIN KAQV 110840Z AUTO VRB04KT 10SM OVC013 17/13 A3010 210 75 600 VRB/04 RMK AO2 T01720128
03949KAQV AQV20190311024511003/11/19 02:45:31  5-MIN KAQV 110845Z AUTO VRB03KT 10SM OVC013 17/13 A3010 210 75 600 VRB/03 RMK AO2 T01720128
03949KAQV AQV20190311025012303/11/19 02:50:31  5-MIN KAQV 110850Z AUTO VRB04KT 10SM OVC013 17/13 A3010 210 75 600 VRB/04 RMK AO2 SLP189 T01720128 51009
03949KAQV AQV20190311025512303/11/19 02:55:31  5-MIN KAQV 110855Z AUTO VRB04KT 10SM OVC012 17/13 A3009 220 75 600 VRB/04 RMK AO2 SLP188 T01720128 51009
03949KAQV AQV20190311030011003/11/19 03:00:31  5-MIN KAQV 110900Z AUTO 07006KT 10SM OVC012 17/13 A3009 220 75 600 060/06 RMK AO2 T01720128
03949KAQV AQV20190311030511003/11/19 03:05:31  5-MIN KAQV 110905Z AUTO VRB04KT 10SM OVC012 17/13 A3009 220 75 600 VRB/04 RMK AO2 T01720128
03949KAQV AQV20190311031011003/11/19 03:10:31  5-MIN KAQV 110910Z AUTO 06004KT 10SM OVC012 17/13 A3008 230 75 600 060/04 RMK AO2 T01720128
03949KAQV AQV20190311031511003/11/19 03:15:31  5-MIN KAQV 110915Z AUTO VRB03KT 10SM OVC012 17/13 A3008 230 75 600 VRB/03 RMK AO2 T01720128
03949KAQV AQV20190311032011003/11/19 03:20:31  5-MIN KAQV 110920Z AUTO VRB03KT 10SM OVC010 17/13 A3008 230 77 500 VRB/03 RMK AO2 T01670128
03949KAQV AQV20190311032511003/11/19 03:25:31  5-MIN KAQV 110925Z AUTO VRB03KT 10SM OVC010 17/13 A3008 230 77 500 VRB/03 RMK AO2 T01670128
03949KAQV AQV20190311033011003/11/19 03:30:31  5-MIN KAQV 110930Z AUTO 00000KT 10SM OVC010 17/13 A3008 230 77 500 000/00 RMK AO2 T01670128
03949KAQV AQV20190311033511003/11/19 03:35:31  5-MIN KAQV 110935Z AUTO 00000KT 10SM OVC010 17/13 A3008 230 77 500 000/00 RMK AO2 T01670128
03949KAQV AQV20190311034011003/11/19 03:40:31  5-MIN KAQV 110940Z AUTO 00000KT 10SM OVC010 17/13 A3007 230 77 500 000/00 RMK AO2 T01670128
03949KAQV AQV20190311034511003/11/19 03:45:31  5-MIN KAQV 110945Z AUTO VRB03KT 10SM OVC010 17/13 A3007 240 77 500 VRB/03 RMK AO2 T01670128
03949KAQV AQV20190311035011703/11/19 03:50:31  5-MIN KAQV 110950Z AUTO VRB03KT 10SM OVC010 17/13 A3007 240 77 500 VRB/03 RMK AO2 SLP181 T01670128
03949KAQV AQV20190311035511703/11/19 03:55:31  5-MIN KAQV 110955Z AUTO VRB03KT 10SM OVC010 17/13 A3007 240 77 500 VRB/03 RMK AO2 SLP180 T01670128
03949KAQV AQV20190311040011003/11/19 04:00:31  5-MIN KAQV 111000Z AUTO 00000KT 10SM OVC010 17/13 A3007 240 77 500 000/00 RMK AO2 T01670128
03949KAQV AQV20190311040511003/11/19 04:05:31  5-MIN KAQV 111005Z AUTO 00000KT 10SM OVC010 17/13 A3007 240 77 500 000/00 RMK AO2 T01670128
03949KAQV AQV20190311041011003/11/19 04:10:31  5-MIN KAQV 111010Z AUTO 00000KT 10SM OVC010 17/13 A3008 230 77 500 000/00 RMK AO2 T01670128
03949KAQV AQV20190311041511003/11/19 04:15:31  5-MIN KAQV 111015Z AUTO VRB03KT 10SM OVC010 17/13 A3008 230 77 500 VRB/03 RMK AO2 T01670128
03949KAQV AQV20190311042011003/11/19 04:20:31  5-MIN KAQV 111020Z AUTO 00000KT 10SM OVC009 17/13 A3008 230 77 500 000/00 RMK AO2 T01670128
03949KAQV AQV20190311042511003/11/19 04:25:31  5-MIN KAQV 111025Z AUTO 00000KT 10SM OVC009 17/13 A3008 230 77 500 000/00 RMK AO2 T01670128
03949KAQV AQV20190311043011003/11/19 04:30:31  5-MIN KAQV 111030Z AUTO 00000KT 10SM OVC009 17/13 A3009 220 77 500 000/00 RMK AO2 T01670128
03949KAQV AQV20190311043511003/11/19 04:35:31  5-MIN KAQV 111035Z AUTO 00000KT 10SM OVC009 17/13 A3008 230 77 500 000/00 RMK AO2 T01670128
03949KAQV AQV20190311044011003/11/19 04:40:31  5-MIN KAQV 111040Z AUTO 00000KT 10SM OVC009 17/13 A3009 220 77 500 000/00 RMK AO2 T01670128
03949KAQV AQV20190311044511003/11/19 04:45:31  5-MIN KAQV 111045Z AUTO 03003KT 10SM OVC009 17/13 A3009 220 77 500 030/03 RMK AO2 T01670128
03949KAQV AQV20190311045011703/11/19 04:50:31  5-MIN KAQV 111050Z AUTO 01003KT 10SM OVC009 17/13 A3009 220 77 500 010/03 RMK AO2 SLP188 T01670128
03949KAQV AQV20190311045511703/11/19 04:55:31  5-MIN KAQV 111055Z AUTO VRB03KT 10SM OVC009 17/13 A3010 210 77 500 VRB/03 RMK AO2 SLP190 T01670128
03949KAQV AQV20190311050011003/11/19 05:00:31  5-MIN KAQV 111100Z AUTO 36003KT 10SM OVC009 17/13 A3010 210 80 500 350/03 RMK AO2 T01670133
03949KAQV AQV20190311050511003/11/19 05:05:31  5-MIN KAQV 111105Z AUTO 36003KT 10SM OVC009 17/13 A3011 200 80 500 350/03 RMK AO2 T01670133
03949KAQV AQV20190311051011003/11/19 05:10:31  5-MIN KAQV 111110Z AUTO 36004KT 10SM OVC009 17/13 A3011 200 80 500 360/04 RMK AO2 T01670133
03949KAQV AQV20190311051511003/11/19 05:15:31  5-MIN KAQV 111115Z AUTO 02004KT 10SM OVC009 17/13 A3011 200 80 500 010/04 RMK AO2 T01670133
03949KAQV AQV20190311052011003/11/19 05:20:31  5-MIN KAQV 111120Z AUTO 03004KT 10SM OVC009 17/13 A3011 200 80 500 020/04 RMK AO2 T01670133
03949KAQV AQV20190311052511003/11/19 05:25:31  5-MIN KAQV 111125Z AUTO 02004KT 10SM OVC009 17/13 A3011 200 80 500 010/04 RMK AO2 T01670133
03949KAQV AQV20190311053011003/11/19 05:30:31  5-MIN KAQV 111130Z AUTO 04003KT 10SM OVC009 17/13 A3011 200 80 500 040/03 RMK AO2 T01670133
03949KAQV AQV20190311053511003/11/19 05:35:31  5-MIN KAQV 111135Z AUTO 00000KT 10SM OVC009 17/13 A3012 200 80 500 000/00 RMK AO2 T01670133
03949KAQV AQV20190311054011003/11/19 05:40:31  5-MIN KAQV 111140Z AUTO 00000KT 10SM OVC009 17/13 A3012 190 80 500 000/00 RMK AO2 T01670133
03949KAQV AQV20190311054511003/11/19 05:45:31  5-MIN KAQV 111145Z AUTO VRB03KT 10SM OVC009 17/13 A3012 190 80 500 VRB/03 RMK AO2 T01670133
03949KAQV AQV20190311055013503/11/19 05:50:31  5-MIN KAQV 111150Z AUTO 00000KT 10SM OVC009 17/13 A3012 190 80 500 000/00 RMK AO2 SLP197 T01670133 10189 20167 58002
03949KAQV AQV20190311055513503/11/19 05:55:31  5-MIN KAQV 111155Z AUTO 00000KT 10SM OVC009 17/13 A3012 190 80 500 000/00 RMK AO2 SLP199 T01670133 10189 20167 58002
03949KAQV AQV20190311060011003/11/19 06:00:31  5-MIN KAQV 111200Z AUTO 00000KT 10SM OVC008 17/13 A3013 180 80 500 000/00 RMK AO2 T01670133
03949KAQV AQV20190311060511003/11/19 06:05:31  5-MIN KAQV 111205Z AUTO 01003KT 10SM OVC008 17/13 A3013 180 80 500 010/03 RMK AO2 T01670133
03949KAQV AQV20190311061011003/11/19 06:10:31  5-MIN KAQV 111210Z AUTO 36004KT 10SM OVC009 17/13 A3013 180 80 500 360/04 RMK AO2 T01670133
03949KAQV AQV20190311061511003/11/19 06:15:31  5-MIN KAQV 111215Z AUTO 35003KT 10SM OVC009 17/13 A3013 180 80 500 350/03 RMK AO2 T01670133
03949KAQV AQV20190311062011003/11/19 06:20:31  5-MIN KAQV 111220Z AUTO 36004KT 10SM OVC009 17/13 A3014 180 80 500 360/04 RMK AO2 T01670133
03949KAQV AQV20190311062511003/11/19 06:25:31  5-MIN KAQV 111225Z AUTO 01004KT 10SM OVC010 17/13 A3014 180 80 500 360/04 RMK AO2 T01670133
03949KAQV AQV20190311063011003/11/19 06:30:31  5-MIN KAQV 111230Z AUTO VRB03KT 10SM OVC010 17/13 A3014 180 80 500 VRB/03 RMK AO2 T01670133
03949KAQV AQV20190311063511003/11/19 06:35:31  5-MIN KAQV 111235Z AUTO 04003KT 10SM OVC010 17/13 A3014 170 80 400 040/03 RMK AO2 T01670133
03949KAQV AQV20190311064011003/11/19 06:40:31  5-MIN KAQV 111240Z AUTO 35004KT 10SM OVC010 17/13 A3015 170 77 400 350/04 RMK AO2 T01670128
03949KAQV AQV20190311064511003/11/19 06:45:31  5-MIN KAQV 111245Z AUTO 36006KT 10SM OVC011 17/13 A3015 170 77 400 360/06 RMK AO2 T01670128
03949KAQV AQV20190311065011703/11/19 06:50:31  5-MIN KAQV 111250Z AUTO 35006KT 10SM OVC011 16/13 A3015 160 80 400 340/06 RMK AO2 SLP208 T01610128
03949KAQV AQV20190311065511703/11/19 06:55:31  5-MIN KAQV 111255Z AUTO 35007KT 10SM OVC011 16/12 A3016 160 77 400 340/07 RMK AO2 SLP210 T01610122
03949KAQV AQV20190311070013603/11/19 07:00:31  5-MIN KAQV 111300Z AUTO 36006KT 10SM OVC012 16/12 A3016 160 77 400 360/0607G15KT 10SM OVC010 13/10  RMK AO2 T01280094
03949KAQV AQV20190311081510803/11/19 08:15:31  5-MIN KAQV 111415Z AUTO 02010KT 10SM OVC014 14/10 A3022 100 77 0 010/10 RMK AO2 T01390100
03949KAQV AQV20190311082011403/11/19 08:20:31  5-MIN KAQV 111420Z AUTO 02007G15KT 10SM OVC014 14/10 A3022 100 77 0 020/07G15 RMK AO2 T01390100
03949KAQV AQV20190311082511303/11/19 08:25:31  5-MIN KAQV 111425Z AUTO 02008G16KT 9SM OVC014 13/10 A3022 100 80 0 010/08G16 RMK AO2 T01330100
03949KAQV AQV20190311083011403/11/19 08:30:31  5-MIN KAQV 111430Z AUTO VRB06G16KT 10SM OVC014 13/09 A3022 100 77 0 VRB/06G16 RMK AO2 T01330094
03949KAQV AQV20190311083511303/11/19 08:35:31  5-MIN KAQV 111435Z AUTO 02007G14KT 10SM OVC014 13/09 A3023 90 77 0 020/07G14 RMK AO2 T01330094
03949KAQV AQV20190311084010703/11/19 08:40:31  5-MIN KAQV 111440Z AUTO 03007KT 10SM OVC014 13/09 A3023 90 77 0 030/07 RMK AO2 T01330094
03949KAQV AQV20190311084510703/11/19 08:45:31  5-MIN KAQV 111445Z AUTO VRB06KT 10SM OVC014 13/09 A3023 90 77 0 VRB/06 RMK AO2 T01330094
03949KAQV AQV20190311085012003/11/19 08:50:31  5-MIN KAQV 111450Z AUTO 01006KT 10SM OVC014 13/10 A3023 90 80 0 010/06 RMK AO2 SLP236 T01330100 53010
03949KAQV AQV20190311085512003/11/19 08:55:31  5-MIN KAQV 111455Z AUTO 03006KT 10SM OVC014 13/10 A3023 90 80 0 020/06 RMK AO2 SLP236 T01330100 53010
03949KAQV AQV20190311090010703/11/19 09:00:31  5-MIN KAQV 111500Z AUTO 03007KT 10SM OVC014 13/10 A3023 90 80 0 030/07 RMK AO2 T01330100
03949KAQV AQV20190311090510703/11/19 09:05:31  5-MIN KAQV 111505Z AUTO 04006KT 10SM OVC013 13/10 A3024 80 80 0 040/06 RMK AO2 T01330100
03949KAQV AQV20190311091010703/11/19 09:10:31  5-MIN KAQV 111510Z AUTO VRB05KT 10SM OVC013 13/10 A3024 80 80 0 VRB/05 RMK AO2 T01330100
03949KAQV AQV20190311091510703/11/19 09:15:31  5-MIN KAQV 111515Z AUTO 36007KT 10SM OVC012 13/10 A3024 80 80 0 360/07 RMK AO2 T01330100
03949KAQV AQV20190311092010703/11/19 09:20:31  5-MIN KAQV 111520Z AUTO 01007KT 10SM OVC012 13/10 A3025 80 80 0 010/07 RMK AO2 T01330100
03949KAQV AQV20190311092510703/11/19 09:25:31  5-MIN KAQV 111525Z AUTO 03006KT 10SM OVC012 13/10 A3025 70 80 0 020/06 RMK AO2 T01330100
03949KAQV AQV20190311093010703/11/19 09:30:31  5-MIN KAQV 111530Z AUTO 01007KT 10SM OVC012 13/10 A3025 80 80 0 010/07 RMK AO2 T01330100
03949KAQV AQV20190311093510703/11/19 09:35:31  5-MIN KAQV 111535Z AUTO 01008KT 10SM OVC012 13/10 A3025 70 80 0 360/08 RMK AO2 T01330100
03949KAQV AQV20190311094012303/11/19 09:40:31  5-MIN KAQV 111540Z AUTO 01009KT 330V040 10SM OVC011 13/10 A3025 70 80 0 010/09 330V040 RMK AO2 T01330100
03949KAQV AQV20190311094512303/11/19 09:45:31  5-MIN KAQV 111545Z AUTO 02008KT 350V050 10SM OVC011 13/10 A3025 70 80 0 010/08 350V050 RMK AO2 T01330100
03949KAQV AQV20190311095011703/11/19 09:50:31  5-MIN KAQV 111550Z AUTO 36007KT 10SM OVC011 13/10 A3026 70 83 -100 360/07 RMK AO2 SLP244 T01280100
03949KAQV AQV20190311095511703/11/19 09:55:31  5-MIN KAQV 111555Z AUTO 02007KT 10SM OVC011 13/10 A3026 60 83 -100 020/07 RMK AO2 SLP245 T01280100
03949KAQV AQV20190311100011003/11/19 10:00:31  5-MIN KAQV 111600Z AUTO 03006KT 10SM OVC010 13/10 A3026 60 83 -100 020/06 RMK AO2 T01280100
03949KAQV AQV20190311100511603/11/19 10:05:31  5-MIN KAQV 111605Z AUTO 36009G15KT 10SM OVC010 13/10 A3027 60 83 -100 360/09G15 RMK AO2 T01280100
03949KAQV AQV20190311101011603/11/19 10:10:31  5-MIN KAQV 111610Z AUTO 01007G15KT 10SM OVC010 13/10 A3027 60 83 -100 010/07G15 RMK AO2 T01280100
03949KAQV AQV20190311101511003/11/19 10:15:31  5-MIN KAQV 111615Z AUTO VRB05KT 10SM OVC010 13/10 A3027 50 83 -100 VRB/05 RMK AO2 T01280100
03949KAQV AQV20190311102011003/11/19 10:20:31  5-MIN KAQV 111620Z AUTO 04008KT 10SM OVC010 13/09 A3027 60 80 -100 030/08 RMK AO2 T01280094
03949KAQV AQV20190311102511003/11/19 10:25:31  5-MIN KAQV 111625Z AUTO 01009KT 10SM OVC010 12/09 A3027 60 83 -200 010/09 RMK AO2 T01220094
03949KAQV AQV20190311103011003/11/19 10:30:31  5-MIN KAQV 111630Z AUTO 03009KT 10SM OVC010 12/09 A3027 60 83 -200 020/09 RMK AO2 T01220094
03949KAQV AQV20190311103511003/11/19 10:35:31  5-MIN KAQV 111635Z AUTO 02005KT 10SM OVC010 13/09 A3027 60 80 -100 010/05 RMK AO2 T01280094
03949KAQV AQV20190311104011003/11/19 10:40:31  5-MIN KAQV 111640Z AUTO 02009KT 10SM OVC010 13/10 A3027 60 83 -100 020/09 RMK AO2 T01280100
03949KAQV AQV20190311104511603/11/19 10:45:31  5-MIN KAQV 111645Z AUTO 03007G15KT 10SM OVC010 13/09 A3026 60 80 -100 020/07G15 RMK AO2 T01280094
03949KAQV AQV20190311105013903/11/19 10:50:31  5-MIN KAQV 111650Z AUTO 03009G15KT 360V070 10SM OVC010 13/09 A3026 60 80 -100 030/09G15 360V070 RMK AO2 SLP247 T01280094
03949KAQV AQV20190311105512303/11/19 10:55:31  5-MIN KAQV 111655Z AUTO 04007G15KT 10SM OVC010 13/09 A3026 60 80 -100 030/07G15 RMK AO2 SLP247 T01280094
03949KAQV AQV20190311110013203/11/19 11:00:31  5-MIN KAQV 111700Z AUTO 03007G16KT 360V070 10SM OVC010 13/09 A3026 60 80 -100 030/07G16 360V070 RMK AO2 T01280094
03949KAQV AQV20190311110511603/11/19 11:05:31  5-MIN KAQV 111705Z AUTO 02011G16KT 10SM OVC010 13/09 A3026 60 80 -100 020/11G16 RMK AO2 T01280094
03949KAQV AQV20190311111011603/11/19 11:10:31  5-MIN KAQV 111710Z AUTO VRB06G15KT 10SM OVC010 12/09 A3026 60 83 -200 VRB/06G15 RMK AO2 T01220094
03949KAQV AQV20190311111511603/11/19 11:15:31  5-MIN KAQV 111715Z AUTO 05008G14KT 10SM OVC010 13/09 A3026 60 80 -100 050/08G14 RMK AO2 T01280094
03949KAQV AQV20190311112011003/11/19 11:20:31  5-MIN KAQV 111720Z AUTO 03007KT 10SM OVC010 13/09 A3026 60 80 -100 030/07 RMK AO2 T01280094
03949KAQV AQV20190311112511003/11/19 11:25:31  5-MIN KAQV 111725Z AUTO 03009KT 10SM OVC010 13/09 A3026 60 80 -100 030/09 RMK AO2 T01280094
03949KAQV AQV20190311113011003/11/19 11:30:31  5-MIN KAQV 111730Z AUTO 05007KT 10SM OVC010 13/09 A3026 60 80 -100 050/07 RMK AO2 T01280094
03949KAQV AQV20190311113511003/11/19 11:35:31  5-MIN KAQV 111735Z AUTO 03007KT 10SM OVC010 13/09 A3026 70 80 -100 020/07 RMK AO2 T01280094
03949KAQV AQV20190311114012303/11/19 11:40:31  5-MIN KAQV 111740Z AUTO 03007KT 010V080 10SM OVC011 13/09 A3025 70 77 0 030/07 010V080 RMK AO2 T01330094
03949KAQV AQV20190311114510703/11/19 11:45:31  5-MIN KAQV 111745Z AUTO 03010KT 10SM OVC011 13/09 A3025 70 77 0 030/10 RMK AO2 T01330094
03949KAQV AQV20190311115013203/11/19 11:50:31  5-MIN KAQV 111750Z AUTO VRB06KT 10SM OVC011 13/10 A3025 70 80 0 VRB/06 RMK AO2 SLP244 T01330100 10167 20122 53036
03949KAQV AQV20190311115514803/11/19 11:55:31  5-MIN KAQV 111755Z AUTO 03008KT 360V060 10SM OVC011 13/10 A3025 70 80 0 030/08 360V060 RMK AO2 SLP243 T01330100 10167 20122 53036
03949KAQV AQV20190311120010703/11/19 12:00:31  5-MIN KAQV 111800Z AUTO VRB04KT 10SM OVC011 13/10 A3025 80 80 0 VRB/04 RMK AO2 T01330100
03949KAQV AQV20190311120510703/11/19 12:05:31  5-MIN KAQV 111805Z AUTO VRB05KT 10SM OVC011 13/10 A3025 80 80 0 VRB/05 RMK AO2 T01330100
03949KAQV AQV20190311121010703/11/19 12:10:31  5-MIN KAQV 111810Z AUTO 02004KT 10SM OVC012 14/10 A3025 70 77 0 020/04 RMK AO2 T01390100
03949KAQV AQV20190311121510703/11/19 12:15:31  5-MIN KAQV 111815Z AUTO 03005KT 10SM OVC012 13/10 A3025 80 80 0 020/05 RMK AO2 T01330100
03949KAQV AQV20190311122010703/11/19 12:20:31  5-MIN KAQV 111820Z AUTO 05007KT 10SM OVC012 13/10 A3025 80 80 0 050/07 RMK AO2 T01330100
03949KAQV AQV20190311122510703/11/19 12:25:31  5-MIN KAQV 111825Z AUTO 04007KT 10SM OVC012 13/10 A3024 80 80 0 040/07 RMK AO2 T01330100
03949KAQV AQV20190311123010703/11/19 12:30:31  5-MIN KAQV 111830Z AUTO 02008KT 10SM OVC012 14/10 A3024 80 77 0 020/08 RMK AO2 T01390100
03949KAQV AQV20190311123510703/11/19 12:35:31  5-MIN KAQV 111835Z AUTO 03005KT 10SM OVC012 14/10 A3024 80 77 0 020/05 RMK AO2 T01390100
03949KAQV AQV20190311124010703/11/19 12:40:31  5-MIN KAQV 111840Z AUTO 03005KT 10SM OVC012 14/10 A3024 90 77 0 030/05 RMK AO2 T01390100
03949KAQV AQV20190311124510703/11/19 12:45:31  5-MIN KAQV 111845Z AUTO VRB03KT 10SM OVC012 14/10 A3023 90 77 0 VRB/03 RMK AO2 T01390100
03949KAQV AQV20190311125011603/11/19 12:50:31  5-MIN KAQV 111850Z AUTO VRB05KT 10SM OVC012 14/11 A3023 90 77 100 VRB/05 RMK AO2 SLP236 T01440106
03949KAQV AQV20190311125511603/11/19 12:55:31  5-MIN KAQV 111855Z AUTO 03007KT 10SM OVC012 14/11 A3023 90 77 100 020/07 RMK AO2 SLP235 T01440106
03949KAQV AQV20190311130011003/11/19 13:00:31  5-MIN KAQV 111900Z AUTO VRB05KT 10SM OVC012 14/10 A3022 100 74 100 VRB/05 RMK AO2 T01440100
03949KAQV AQV20190311130511003/11/19 13:05:31  5-MIN KAQV 111905Z AUTO 07006KT 10SM OVC012 14/11 A3022 100 77 100 070/06 RMK AO2 T01440106
03949KAQV AQV20190311131011003/11/19 13:10:31  5-MIN KAQV 111910Z AUTO VRB06KT 10SM OVC012 14/11 A3022 100 77 100 VRB/06 RMK AO2 T01440106
03949KAQV AQV20190311131511003/11/19 13:15:31  5-MIN KAQV 111915Z AUTO 04005KT 10SM OVC012 15/11 A3022 100 74 200 040/05 RMK AO2 T01500106
03949KAQV AQV20190311132011003/11/19 13:20:31  5-MIN KAQV 111920Z AUTO 03007KT 10SM OVC013 14/11 A3022 100 77 100 030/07 RMK AO2 T01440106
03949KAQV AQV20190311132511003/11/19 13:25:31  5-MIN KAQV 111925Z AUTO 03007KT 10SM OVC013 14/11 A3022 100 77 100 030/07 RMK AO2 T01440106
03949KAQV AQV20190311133011003/11/19 13:30:31  5-MIN KAQV 111930Z AUTO 03006KT 10SM OVC013 14/11 A3022 100 77 100 030/06 RMK AO2 T01440106
03949KAQV AQV20190311133511003/11/19 13:35:31  5-MIN KAQV 111935Z AUTO 04005KT 10SM OVC013 15/11 A3022 100 74 200 030/05 RMK AO2 T01500106
03949KAQV AQV20190311134011003/11/19 13:40:31  5-MIN KAQV 111940Z AUTO VRB06KT 10SM OVC013 15/11 A3022 100 74 200 VRB/06 RMK AO2 T01500106
03949KAQV AQV20190311134511003/11/19 13:45:31  5-MIN KAQV 111945Z AUTO 06007KT 10SM OVC013 15/11 A3022 100 74 200 060/07 RMK AO2 T01500106
03949KAQV AQV20190311135011703/11/19 13:50:31  5-MIN KAQV 111950Z AUTO VRB06KT 10SM OVC014 15/11 A3022 100 74 200 VRB/06 RMK AO2 SLP232 T01500106
03949KAQV AQV20190311135511703/11/19 13:55:31  5-MIN KAQV 111955Z AUTO VRB04KT 10SM OVC014 15/11 A3022 100 74 200 VRB/04 RMK AO2 SLP232 T01500106
03949KAQV AQV20190311140011003/11/19 14:00:31  5-MIN KAQV 112000Z AUTO 04007KT 10SM OVC014 16/11 A3022 100 72 200 030/07 RMK AO2 T01560106
03949KAQV AQV20190311140511003/11/19 14:05:31  5-MIN KAQV 112005Z AUTO VRB06KT 10SM OVC014 16/11 A3021 110 72 200 VRB/06 RMK AO2 T01560106
03949KAQV AQV20190311141011003/11/19 14:10:31  5-MIN KAQV 112010Z AUTO 02007KT 10SM OVC014 16/11 A3021 110 72 200 020/07 RMK AO2 T01560106
03949KAQV AQV20190311141511003/11/19 14:15:31  5-MIN KAQV 112015Z AUTO 01006KT 10SM OVC014 15/11 A3021 110 74 200 010/06 RMK AO2 T01500106
03949KAQV AQV20190311142011003/11/19 14:20:31  5-MIN KAQV 112020Z AUTO 36006KT 10SM OVC014 16/11 A3021 110 74 200 360/06 RMK AO2 T01560111
03949KAQV AQV20190311142511003/11/19 14:25:31  5-MIN KAQV 112025Z AUTO 04006KT 10SM OVC014 16/11 A3021 110 72 200 030/06 RMK AO2 T01560106
03949KAQV AQV20190311143011003/11/19 14:30:31  5-MIN KAQV 112030Z AUTO 03006KT 10SM OVC014 15/11 A3021 110 74 200 020/06 RMK AO2 T01500106
03949KAQV AQV20190311143511003/11/19 14:35:31  5-MIN KAQV 112035Z AUTO 02005KT 10SM OVC015 16/11 A3021 110 74 200 010/05 RMK AO2 T01560111
03949KAQV AQV20190311144011003/11/19 14:40:31  5-MIN KAQV 112040Z AUTO 02006KT 10SM OVC015 16/11 A3021 110 72 300 020/06 RMK AO2 T01610111
03949KAQV AQV20190311144511003/11/19 14:45:31  5-MIN KAQV 112045Z AUTO 04006KT 10SM OVC015 16/11 A3021 110 74 200 030/06 RMK AO2 T01560111
03949KAQV AQV20190311145012303/11/19 14:50:31  5-MIN KAQV 112050Z AUTO 02005KT 10SM OVC015 16/11 A3021 110 72 300 010/05 RMK AO2 SLP230 T01610111 50005
03949KAQV AQV20190311145512303/11/19 14:55:31  5-MIN KAQV 112055Z AUTO VRB05KT 10SM OVC015 16/11 A3021 110 72 300 VRB/05 RMK AO2 SLP229 T01610111 50005
03949KAQV AQV20190311150011003/11/19 15:00:31  5-MIN KAQV 112100Z AUTO VRB05KT 10SM OVC015 16/11 A3021 110 72 300 VRB/05 RMK AO2 T01610111
03949KAQV AQV20190311150511003/11/19 15:05:31  5-MIN KAQV 112105Z AUTO VRB05KT 10SM OVC017 16/11 A3021 110 72 300 VRB/05 RMK AO2 T01610111
03949KAQV AQV20190311151011003/11/19 15:10:31  5-MIN KAQV 112110Z AUTO VRB05KT 10SM OVC017 16/11 A3021 110 72 300 VRB/05 RMK AO2 T01610111
03949KAQV AQV20190311151511003/11/19 15:15:31  5-MIN KAQV 112115Z AUTO VRB05KT 10SM OVC017 16/11 A3021 110 72 300 VRB/05 RMK AO2 T01610111
03949KAQV AQV20190311152011003/11/19 15:20:31  5-MIN KAQV 112120Z AUTO VRB05KT 10SM OVC017 17/12 A3020 120 72 400 VRB/05 RMK AO2 T01670117
03949KAQV AQV20190311152511003/11/19 15:25:31  5-MIN KAQV 112125Z AUTO VRB05KT 10SM OVC017 17/12 A3020 120 69 400 VRB/05 RMK AO2 T01720117
03949KAQV AQV20190311153011003/11/19 15:30:31  5-MIN KAQV 112130Z AUTO VRB05KT 10SM OVC017 17/12 A3020 120 69 400 VRB/05 RMK AO2 T01720117
03949KAQV AQV20190311153512403/11/19 15:35:31  5-MIN KAQV 112135Z AUTO 02006KT 10SM BKN017 BKN029 OVC041 18/12 A3020 120 67 500 020/06 RMK AO2 T01780117
03949KAQV AQV20190311154012403/11/19 15:40:31  5-MIN KAQV 112140Z AUTO 02005KT 10SM BKN017 BKN029 OVC090 18/12 A3020 120 67 500 010/05 RMK AO2 T01780117
03949KAQV AQV20190311154512403/11/19 15:45:31  5-MIN KAQV 112145Z AUTO 07005KT 10SM SCT017 BKN029 OVC090 18/12 A3019 130 67 500 070/05 RMK AO2 T01780117
03949KAQV AQV20190311155013103/11/19 15:50:31  5-MIN KAQV 112150Z AUTO VRB05KT 10SM SCT017 BKN029 OVC090 18/12 A3019 130 67 500 VRB/05 RMK AO2 SLP221 T01780117
03949KAQV AQV20190311155513103/11/19 15:55:31  5-MIN KAQV 112155Z AUTO VRB03KT 10SM FEW016 BKN070 OVC090 18/12 A3019 130 69 500 VRB/03 RMK AO2 SLP221 T01780122
03949KAQV AQV20190311160012403/11/19 16:00:31  5-MIN KAQV 112200Z AUTO VRB03KT 10SM FEW016 SCT041 OVC090 18/12 A3018 130 69 500 VRB/03 RMK AO2 T01780122
03949KAQV AQV20190311160512403/11/19 16:05:31  5-MIN KAQV 112205Z AUTO VRB05KT 10SM FEW016 SCT070 BKN090 18/12 A3018 130 69 500 VRB/05 RMK AO2 T01780122
03949KAQV AQV20190311161012403/11/19 16:10:31  5-MIN KAQV 112210Z AUTO 07004KT 10SM FEW029 FEW070 BKN090 18/12 A3019 130 67 600 070/04 RMK AO2 T01830122
03949KAQV AQV20190311161511703/11/19 16:15:31  5-MIN KAQV 112215Z AUTO VRB04KT 10SM FEW070 BKN090 18/12 A3019 130 69 500 VRB/04 RMK AO2 T01780122
03949KAQV AQV20190311162011703/11/19 16:20:31  5-MIN KAQV 112220Z AUTO 07005KT 10SM SCT070 BKN090 18/12 A3019 130 67 600 070/05 RMK AO2 T01830122
03949KAQV AQV20190311162511703/11/19 16:25:31  5-MIN KAQV 112225Z AUTO VRB05KT 10SM BKN070 BKN090 18/12 A3019 130 67 600 VRB/05 RMK AO2 T01830122
03949KAQV AQV20190311163009103/11/19 16:30:31  5-MIN KAQV 112230Z AUTO 08005KT 10SM BKN070 BKN0000/00 RMK AO2 T01610122
03949KAQV AQV20190311184511003/11/19 18:45:31  5-MIN KAQV 120045Z AUTO 01003KT 10SM OVC035 16/12 A3021 110 80 200 010/03 RMK AO2 T01560122
03949KAQV AQV20190311185011703/11/19 18:50:31  5-MIN KAQV 120050Z AUTO 01005KT 10SM OVC035 16/12 A3021 110 80 200 010/05 RMK AO2 SLP229 T01560122
03949KAQV AQV20190311185511703/11/19 18:55:31  5-MIN KAQV 120055Z AUTO 02006KT 10SM OVC035 16/12 A3021 110 80 200 020/06 RMK AO2 SLP230 T01560122
03949KAQV AQV20190311190011003/11/19 19:00:31  5-MIN KAQV 120100Z AUTO 03006KT 10SM OVC035 16/12 A3021 110 80 200 020/06 RMK AO2 T01560122
03949KAQV AQV20190311190015003/11/19 19:00:31  5-MIN KAQV 120100Z AUTO 03006KT 10SM OVC035 16/12 A3021 110 80 200 020/06 RMK AO2 T0156012203/11/19 19:05:3100/00 RMK AO2 T01610122
03949KAQV AQV20190311190511003/11/19 19:05:31  5-MIN KAQV 120105Z AUTO 03005KT 10SM OVC035 15/12 A3021 110 83 200 020/05 RMK AO2 T01500122
03949KAQV AQV20190311191011003/11/19 19:10:31  5-MIN KAQV 120110Z AUTO VRB04KT 10SM BKN035 15/12 A3021 110 83 200 VRB/04 RMK AO2 T01500122
03949KAQV AQV20190311191511003/11/19 19:15:31  5-MIN KAQV 120115Z AUTO 04005KT 10SM SCT035 15/12 A3021 110 83 200 030/05 RMK AO2 T01500122
03949KAQV AQV20190311192011003/11/19 19:20:31  5-MIN KAQV 120120Z AUTO 03004KT 10SM SCT035 15/12 A3021 110 83 200 030/04 RMK AO2 T01500122
03949KAQV AQV20190311192505403/11/19 19:25:31  5-MIN KAQV 120125Z AUTOO2 T01560122
03949KAQV AQV20190311192511003/11/19 19:25:31  5-MIN KAQV 120125Z AUTO 03003KT 10SM FEW035 14/12 A3021 110 86 100 020/03 RMK AO2 T01440122
03949KAQV AQV20190311193011003/11/19 19:30:31  5-MIN KAQV 120130Z AUTO 03003KT 10SM FEW035 14/12 A3021 110 86 100 020/03 RMK AO2 T01440122
03949KAQV AQV20190311193505403/11/19 19:35:31  5-MIN KAQV 120135Z AUTO VRB03KT 122
03949KAQV AQV20190311193510703/11/19 19:35:31  5-MIN KAQV 120135Z AUTO VRB03KT 10SM CLR 14/12 A3021 110 86 100 VRB/03 RMK AO2 T01440122
03949KAQV AQV20190311194010703/11/19 19:40:31  5-MIN KAQV 120140Z AUTO 03003KT 10SM CLR 14/12 A3021 110 86 100 020/03 RMK AO2 T01440122
03949KAQV AQV20190311194016703/11/19 19:40:31  5-MIN KAQV 120140Z AUTO 03003KT 10SM CLR 14/12 A3021 110 86 100 02V 120120Z AUTO 03004KT 10SM SCT035 15/12 A3021 110 83 200 030/04 RMK AO2 T01500122
03949KAQV AQV20190311194510703/11/19 19:45:31  5-MIN KAQV 120145Z AUTO 03003KT 10SM CLR 14/12 A3021 110 86 100 020/03 RMK AO2 T01440122
03949KAQV AQV20190311195011003/11/19 19:50:31  5-MIN KAQV 120150Z AUTO VRB03KT 10SM CLR 14/12 A3021 110110 86 100 020/03 RMK AO2 T01440122
03949KAQV AQV20190311195011403/11/19 19:50:31  5-MIN KAQV 120150Z AUTO VRB03KT 10SM CLR 14/12 A3021 110 86 100 VRB/03 RMK AO2 SLP228 T01440122
03949KAQV AQV20190311195511403/11/19 19:55:31  5-MIN KAQV 120155Z AUTO 03003KT 10SM CLR 14/12 A3021 110 86 100 030/03 RMK AO2 SLP229 T01440122
03949KAQV AQV20190311200010703/11/19 20:00:31  5-MIN KAQV 120200Z AUTO 04003KT 10SM CLR 14/12 A3021 110 86 100 040/03 RMK AO2 T01440122
03949KAQV AQV20190311200510503/11/19 20:05:31  5-MIN KAQV 120205Z AUTO 00000KT 10SM CLR 14/12 A3021 110 90 0 000/00 RMK AO2 T01390122
03949KAQV AQV20190311201010503/11/19 20:10:31  5-MIN KAQV 120210Z AUTO 04004KT 10SM CLR 14/12 A3021 110 90 0 030/04 RMK AO2 T01390122
03949KAQV AQV20190311201510503/11/19 20:15:31  5-MIN KAQV 120215Z AUTO 00000KT 10SM CLR 14/12 A3021 110 90 0 000/00 RMK AO2 T01390122
03949KAQV AQV20190311202010503/11/19 20:20:31  5-MIN KAQV 120220Z AUTO 00000KT 10SM CLR 14/12 A3021 110 90 0 000/00 RMK AO2 T01390122
03949KAQV AQV20190311202510503/11/19 20:25:31  5-MIN KAQV 120225Z AUTO 04003KT 10SM CLR 14/12 A3021 110 90 0 040/03 RMK AO2 T01390122
03949KAQV AQV20190311203010503/11/19 20:30:31  5-MIN KAQV 120230Z AUTO 00000KT 10SM CLR 14/12 A3021 110 90 0 000/00 RMK AO2 T01390122
03949KAQV AQV20190311203510503/11/19 20:35:31  5-MIN KAQV 120235Z AUTO 00000KT 10SM CLR 14/12 A3021 110 90 0 000/00 RMK AO2 T01390122
03949KAQV AQV20190311204010503/11/19 20:40:31  5-MIN KAQV 120240Z AUTO VRB03KT 10SM CLR 14/12 A3021 110 90 0 VRB/03 RMK AO2 T01390122
03949KAQV AQV20190311204510503/11/19 20:45:31  5-MIN KAQV 120245Z AUTO 03003KT 10SM CLR 14/12 A3022 100 86 0 020/03 RMK AO2 T01390117
03949KAQV AQV20190311205011803/11/19 20:50:31  5-MIN KAQV 120250Z AUTO 03004KT 10SM CLR 14/12 A3022 100 90 0 020/04 RMK AO2 SLP232 T01390122 55004
03949KAQV AQV20190311205511803/11/19 20:55:31  5-MIN KAQV 120255Z AUTO 02003KT 10SM CLR 14/12 A3021 110 86 0 020/03 RMK AO2 SLP231 T01390117 55004
03949KAQV AQV20190311210010503/11/19 21:00:31  5-MIN KAQV 120300Z AUTO 02004KT 10SM CLR 14/12 A3022 100 86 0 020/04 RMK AO2 T01390117
03949KAQV AQV20190311210510503/11/19 21:05:31  5-MIN KAQV 120305Z AUTO 03004KT 10SM CLR 14/12 A3022 100 86 0 020/04 RMK AO2 T01390117
03949KAQV AQV20190311211010503/11/19 21:10:31  5-MIN KAQV 120310Z AUTO 02005KT 10SM CLR 13/12 A3022 100 93 0 010/05 RMK AO2 T01330122
03949KAQV AQV20190311211510703/11/19 21:15:31  5-MIN KAQV 120315Z AUTO VRB05KT 10SM SCT006 13/12 A3023 90 93 0 VRB/05 RMK AO2 T01330122
03949KAQV AQV20190311212010703/11/19 21:20:31  5-MIN KAQV 120320Z AUTO 02004KT 10SM BKN006 13/12 A3023 90 93 0 020/04 RMK AO2 T01330122
03949KAQV AQV20190311212510703/11/19 21:25:31  5-MIN KAQV 120325Z AUTO 03005KT 10SM BKN007 13/12 A3023 90 89 0 030/05 RMK AO2 T01330117
03949KAQV AQV20190311213010703/11/19 21:30:31  5-MIN KAQV 120330Z AUTO 02004KT 10SM BKN007 13/12 A3023 90 93 0 020/04 RMK AO2 T01330122
03949KAQV AQV20190311213510703/11/19 21:35:31  5-MIN KAQV 120335Z AUTO 02004KT 10SM OVC006 13/12 A3023 90 89 0 020/04 RMK AO2 T01330117
03949KAQV AQV20190311214010703/11/19 21:40:31  5-MIN KAQV 120340Z AUTO 03005KT 10SM OVC006 13/12 A3023 90 89 0 020/05 RMK AO2 T01330117
03949KAQV AQV20190311214510703/11/19 21:45:31  5-MIN KAQV 120345Z AUTO 01005KT 10SM OVC006 13/12 A3024 90 89 0 010/05 RMK AO2 T01330117
03949KAQV AQV20190311215011403/11/19 21:50:31  5-MIN KAQV 120350Z AUTO 04006KT 10SM OVC006 13/12 A3024 90 89 0 030/06 RMK AO2 SLP239 T01330117
03949KAQV AQV20190311215511403/11/19 21:55:31  5-MIN KAQV 120355Z AUTO 03004KT 10SM OVC006 13/12 A3024 90 89 0 030/04 RMK AO2 SLP239 T01330117
03949KAQV AQV20190311220010703/11/19 22:00:31  5-MIN KAQV 120400Z AUTO VRB04KT 10SM OVC006 13/12 A3024 90 89 0 VRB/04 RMK AO2 T01330117
03949KAQV AQV20190311220510703/11/19 22:05:31  5-MIN KAQV 120405Z AUTO 03005KT 10SM OVC005 13/12 A3024 80 93 0 030/05 RMK AO2 T01330122
03949KAQV AQV20190311221010703/11/19 22:10:31  5-MIN KAQV 120410Z AUTO 04004KT 10SM OVC005 13/12 A3023 90 93 0 040/04 RMK AO2 T01330122
03949KAQV AQV20190311221510703/11/19 22:15:31  5-MIN KAQV 120415Z AUTO VRB04KT 10SM OVC005 13/12 A3024 90 93 0 VRB/04 RMK AO2 T01330122
03949KAQV AQV20190311222010703/11/19 22:20:31  5-MIN KAQV 120420Z AUTO 02004KT 10SM OVC005 13/12 A3024 90 93 0 010/04 RMK AO2 T01330122
03949KAQV AQV20190311222510703/11/19 22:25:31  5-MIN KAQV 120425Z AUTO 03005KT 10SM OVC004 13/12 A3024 80 93 0 030/05 RMK AO2 T01330122
03949KAQV AQV20190311223010703/11/19 22:30:31  5-MIN KAQV 120430Z AUTO VRB05KT 10SM OVC004 13/12 A3024 80 93 0 VRB/05 RMK AO2 T01330122
03949KAQV AQV20190311223510703/11/19 22:35:31  5-MIN KAQV 120435Z AUTO 04005KT 10SM OVC004 13/12 A3024 80 93 0 030/05 RMK AO2 T01330122
03949KAQV AQV20190311224010703/11/19 22:40:31  5-MIN KAQV 120440Z AUTO 02004KT 10SM OVC004 13/12 A3024 90 93 0 010/04 RMK AO2 T01330122
03949KAQV AQV20190311224510703/11/19 22:45:31  5-MIN KAQV 120445Z AUTO VRB04KT 10SM OVC004 13/12 A3023 90 93 0 VRB/04 RMK AO2 T01330122
03949KAQV AQV20190311225011403/11/19 22:50:31  5-MIN KAQV 120450Z AUTO 03007KT 10SM OVC004 13/12 A3024 90 93 0 030/07 RMK AO2 SLP239 T01330122
03949KAQV AQV20190311225511403/11/19 22:55:31  5-MIN KAQV 120455Z AUTO VRB04KT 10SM OVC004 13/12 A3023 90 93 0 VRB/04 RMK AO2 SLP238 T01330122
03949KAQV AQV20190311230010703/11/19 23:00:31  5-MIN KAQV 120500Z AUTO 04003KT 10SM OVC003 13/12 A3023 90 93 0 030/03 RMK AO2 T01330122
03949KAQV AQV20190311230510703/11/19 23:05:31  5-MIN KAQV 120505Z AUTO 05005KT 10SM OVC003 13/12 A3023 90 93 0 040/05 RMK AO2 T01330122
03949KAQV AQV20190311231010703/11/19 23:10:31  5-MIN KAQV 120510Z AUTO 02003KT 10SM OVC003 13/12 A3023 90 93 0 020/03 RMK AO2 T01330122
03949KAQV AQV20190311231510703/11/19 23:15:31  5-MIN KAQV 120515Z AUTO VRB04KT 10SM OVC003 13/12 A3023 90 93 0 VRB/04 RMK AO2 T01330122
03949KAQV AQV20190311232010803/11/19 23:20:31  5-MIN KAQV 120520Z AUTO VRB03KT 10SM OVC003 13/12 A3022 100 93 0 VRB/03 RMK AO2 T01330122
03949KAQV AQV20190311232510803/11/19 23:25:31  5-MIN KAQV 120525Z AUTO VRB03KT 10SM OVC003 13/12 A3022 100 93 0 VRB/03 RMK AO2 T01330122
03949KAQV AQV20190311233010803/11/19 23:30:31  5-MIN KAQV 120530Z AUTO VRB03KT 10SM OVC003 13/12 A3022 100 93 0 VRB/03 RMK AO2 T01330122
03949KAQV AQV20190311233510803/11/19 23:35:31  5-MIN KAQV 120535Z AUTO 05004KT 10SM OVC003 13/12 A3022 100 93 0 050/04 RMK AO2 T01330122
03949KAQV AQV20190311234010803/11/19 23:40:31  5-MIN KAQV 120540Z AUTO VRB03KT 10SM OVC003 13/12 A3022 100 93 0 VRB/03 RMK AO2 T01330122
03949KAQV AQV20190311234510803/11/19 23:45:31  5-MIN KAQV 120545Z AUTO VRB05KT 10SM OVC003 13/12 A3022 100 93 0 VRB/05 RMK AO2 T01330122
03949KAQV AQV20190311235014303/11/19 23:50:31  5-MIN KAQV 120550Z AUTO 04004KT 10SM OVC003 13/12 A3022 100 89 0 040/04 RMK AO2 SLP233 T01330117 10167 20133 401890122 51006
03949KAQV AQV20190311235514303/11/19 23:55:31  5-MIN KAQV 120555Z AUTO VRB04KT 10SM OVC003 13/12 A3022 100 93 0 VRB/04 RMK AO2 SLP233 T01330122 10167 20133 401890122 51006
03949KAQV AQV20190312000010803/12/19 00:00:31  5-MIN KAQV 120600Z AUTO 05003KT 10SM OVC003 13/12 A3022 100 93 0 050/03 RMK AO2 T01330122
03949KAQV AQV20190312000510803/12/19 00:05:31  5-MIN KAQV 120605Z AUTO VRB04KT 10SM OVC004 13/12 A3022 100 93 0 VRB/04 RMK AO2 T01330122
03949KAQV AQV20190312001010803/12/19 00:10:31  5-MIN KAQV 120610Z AUTO 06005KT 10SM OVC004 13/12 A3021 110 93 0 060/05 RMK AO2 T01330122
03949KAQV AQV20190312001510803/12/19 00:15:31  5-MIN KAQV 120615Z AUTO VRB05KT 10SM OVC003 13/12 A3020 120 93 0 VRB/05 RMK AO2 T01330122
03949KAQV AQV20190312002010803/12/19 00:20:31  5-MIN KAQV 120620Z AUTO VRB04KT 10SM OVC003 13/12 A3021 110 89 0 VRB/04 RMK AO2 T01330117
03949KAQV AQV20190312002510803/12/19 00:25:31  5-MIN KAQV 120625Z AUTO VRB05KT 10SM OVC003 13/12 A3021 110 93 0 VRB/05 RMK AO2 T01330122
03949KAQV AQV20190312003010803/12/19 00:30:31  5-MIN KAQV 120630Z AUTO VRB04KT 10SM OVC003 13/12 A3021 110 89 0 VRB/04 RMK AO2 T01330117
03949KAQV AQV20190312003510803/12/19 00:35:31  5-MIN KAQV 120635Z AUTO 04005KT 10SM OVC003 13/12 A3021 110 89 0 030/05 RMK AO2 T01330117
03949KAQV AQV20190312004010803/12/19 00:40:31  5-MIN KAQV 120640Z AUTO 03004KT 10SM OVC003 13/12 A3021 110 89 0 030/04 RMK AO2 T01330117
03949KAQV AQV20190312004510803/12/19 00:45:31  5-MIN KAQV 120645Z AUTO 04004KT 10SM OVC003 13/12 A3021 110 93 0 040/04 RMK AO2 T01330122
03949KAQV AQV20190312005011503/12/19 00:50:31  5-MIN KAQV 120650Z AUTO VRB03KT 10SM OVC003 13/12 A3021 110 93 0 VRB/03 RMK AO2 SLP230 T01330122
03949KAQV AQV20190312005511503/12/19 00:55:31  5-MIN KAQV 120655Z AUTO 04004KT 10SM OVC003 13/12 A3021 110 93 0 030/04 RMK AO2 SLP229 T01330122
03949KAQV AQV20190312010010803/12/19 01:00:31  5-MIN KAQV 120700Z AUTO VRB04KT 10SM OVC003 13/12 A3021 110 89 0 VRB/04 RMK AO2 T01330117
03949KAQV AQV20190312010510803/12/19 01:05:31  5-MIN KAQV 120705Z AUTO VRB05KT 10SM OVC003 13/12 A3021 110 96 0 VRB/05 RMK AO2 T01280122
03949KAQV AQV20190312011010803/12/19 01:10:31  5-MIN KAQV 120710Z AUTO 06005KT 10SM OVC003 13/12 A3020 110 93 0 050/05 RMK AO2 T01280117
03949KAQV AQV20190312011510803/12/19 01:15:31  5-MIN KAQV 120715Z AUTO 05004KT 10SM OVC003 13/12 A3020 120 93 0 040/04 RMK AO2 T01280117
03949KAQV AQV20190312012010803/12/19 01:20:31  5-MIN KAQV 120720Z AUTO VRB05KT 10SM OVC003 13/12 A3020 110 93 0 VRB/05 RMK AO2 T01280117
03949KAQV AQV20190312012510803/12/19 01:25:31  5-MIN KAQV 120725Z AUTO VRB04KT 10SM OVC003 13/12 A3021 110 93 0 VRB/04 RMK AO2 T01280117
03949KAQV AQV20190312013010803/12/19 01:30:31  5-MIN KAQV 120730Z AUTO VRB04KT 10SM OVC003 13/12 A3021 110 93 0 VRB/04 RMK AO2 T01330122
03949KAQV AQV20190312013510803/12/19 01:35:31  5-MIN KAQV 120735Z AUTO 03004KT 10SM OVC003 13/12 A3021 110 93 0 030/04 RMK AO2 T01330122
03949KAQV AQV20190312014010803/12/19 01:40:31  5-MIN KAQV 120740Z AUTO VRB04KT 10SM OVC003 13/12 A3021 110 93 0 VRB/04 RMK AO2 T01330122
03949KAQV AQV20190312014510803/12/19 01:45:31  5-MIN KAQV 120745Z AUTO 04005KT 10SM OVC003 13/12 A3021 110 93 0 030/05 RMK AO2 T01330122
03949KAQV AQV20190312015011503/12/19 01:50:31  5-MIN KAQV 120750Z AUTO VRB04KT 10SM OVC003 13/12 A3021 110 93 0 VRB/04 RMK AO2 SLP229 T01330122
03949KAQV AQV20190312015511503/12/19 01:55:31  5-MIN KAQV 120755Z AUTO VRB05KT 10SM OVC003 13/12 A3021 110 93 0 VRB/05 RMK AO2 SLP229 T01330122
03949KAQV AQV20190312020010803/12/19 02:00:31  5-MIN KAQV 120800Z AUTO 04005KT 10SM OVC003 13/12 A3021 110 93 0 040/05 RMK AO2 T01330122
03949KAQV AQV20190312020510803/12/19 02:05:31  5-MIN KAQV 120805Z AUTO VRB04KT 10SM OVC003 13/12 A3021 110 93 0 VRB/04 RMK AO2 T01330122
03949KAQV AQV20190312021010803/12/19 02:10:31  5-MIN KAQV 120810Z AUTO VRB06KT 10SM OVC003 13/12 A3020 120 93 0 VRB/06 RMK AO2 T01330122
03949KAQV AQV20190312021510803/12/19 02:15:31  5-MIN KAQV 120815Z AUTO 05005KT 10SM OVC003 13/12 A3020 110 93 0 040/05 RMK AO2 T01330122
03949KAQV AQV20190312022010803/12/19 02:20:31  5-MIN KAQV 120820Z AUTO VRB05KT 10SM OVC003 13/12 A3020 120 93 0 VRB/05 RMK AO2 T01330122
03949KAQV AQV20190312022510803/12/19 02:25:31  5-MIN KAQV 120825Z AUTO 07004KT 10SM OVC003 13/12 A3020 120 89 0 060/04 RMK AO2 T01330117
03949KAQV AQV20190312023010803/12/19 02:30:31  5-MIN KAQV 120830Z AUTO 04005KT 10SM OVC003 13/12 A3019 120 93 0 040/05 RMK AO2 T01330122
03949KAQV AQV20190312023510803/12/19 02:35:31  5-MIN KAQV 120835Z AUTO VRB03KT 10SM OVC004 13/12 A3019 120 93 0 VRB/03 RMK AO2 T01330122
03949KAQV AQV20190312024010803/12/19 02:40:31  5-MIN KAQV 120840Z AUTO VRB03KT 10SM OVC004 13/12 A3019 130 93 0 VRB/03 RMK AO2 T01330122
03949KAQV AQV20190312024510803/12/19 02:45:31  5-MIN KAQV 120845Z AUTO 05005KT 10SM OVC004 13/12 A3019 130 93 0 040/05 RMK AO2 T01330122
03949KAQV AQV20190312025012103/12/19 02:50:31  5-MIN KAQV 120850Z AUTO VRB04KT 10SM OVC004 13/12 A3019 130 89 0 VRB/04 RMK AO2 SLP222 T01330117 50001
03949KAQV AQV20190312025512103/12/19 02:55:31  5-MIN KAQV 120855Z AUTO VRB03KT 10SM OVC004 13/12 A3019 130 93 0 VRB/03 RMK AO2 SLP222 T01330122 50001
03949KAQV AQV20190312030010803/12/19 03:00:31  5-MIN KAQV 120900Z AUTO 08003KT 10SM OVC004 13/12 A3018 130 89 0 070/03 RMK AO2 T01330117
03949KAQV AQV20190312030510803/12/19 03:05:31  5-MIN KAQV 120905Z AUTO VRB04KT 10SM OVC004 13/12 A3018 130 89 0 VRB/04 RMK AO2 T01330117
03949KAQV AQV20190312031010803/12/19 03:10:31  5-MIN KAQV 120910Z AUTO 07004KT 10SM OVC005 13/12 A3019 130 89 0 070/04 RMK AO2 T01330117
03949KAQV AQV20190312031509803/12/19 03:15:31  5-MIN KAQV 120915Z AUTO 10SM OVC005 13/12 A3019 130 89 0 M /M RMK AO2 T01330117
03949KAQV AQV20190312032010803/12/19 03:20:31  5-MIN KAQV 120920Z AUTO 00000KT 10SM OVC005 13/12 A3018 130 89 0 000/00 RMK AO2 T01330117
03949KAQV AQV20190312032510803/12/19 03:25:31  5-MIN KAQV 120925Z AUTO 00000KT 10SM OVC005 13/12 A3018 140 89 0 000/00 RMK AO2 T01330117
03949KAQV AQV20190312033010803/12/19 03:30:31  5-MIN KAQV 120930Z AUTO VRB03KT 10SM OVC006 13/12 A3018 140 89 0 VRB/03 RMK AO2 T01330117
03949KAQV AQV20190312033510803/12/19 03:35:31  5-MIN KAQV 120935Z AUTO VRB05KT 10SM OVC006 13/12 A3017 140 89 0 VRB/05 RMK AO2 T01330117
03949KAQV AQV20190312034010803/12/19 03:40:31  5-MIN KAQV 120940Z AUTO VRB04KT 10SM OVC006 13/12 A3017 140 89 0 VRB/04 RMK AO2 T01330117
03949KAQV AQV20190312034510803/12/19 03:45:31  5-MIN KAQV 120945Z AUTO VRB04KT 10SM OVC006 13/12 A3018 140 89 0 VRB/04 RMK AO2 T01330117
03949KAQV AQV20190312035011503/12/19 03:50:31  5-MIN KAQV 120950Z AUTO VRB04KT 10SM OVC006 13/12 A3017 150 89 0 VRB/04 RMK AO2 SLP215 T01330117
03949KAQV AQV20190312035510503/12/19 03:55:31  5-MIN KAQV 120955Z AUTO 10SM OVC006 13/12 A3017 150 89 0 M /M RMK AO2 SLP215 T01330117
03949KAQV AQV20190312040011503/12/19 04:00:31  5-MIN KAQV 121000Z AUTO VRB05KT 10SM BKN006 OVC019 13/12 A3017 140 89 0 VRB/05 RMK AO2 T01330117
03949KAQV AQV20190312040511503/12/19 04:05:31  5-MIN KAQV 121005Z AUTO VRB04KT 10SM BKN006 OVC019 13/12 A3017 150 89 0 VRB/04 RMK AO2 T01330117
03949KAQV AQV20190312041011503/12/19 04:10:31  5-MIN KAQV 121010Z AUTO VRB03KT 10SM BKN006 OVC019 13/12 A3016 160 89 0 VRB/03 RMK AO2 T01330117
03949KAQV AQV20190312041511503/12/19 04:15:31  5-MIN KAQV 121015Z AUTO VRB03KT 10SM BKN006 OVC019 13/12 A3016 150 89 0 VRB/03 RMK AO2 T01330117
03949KAQV AQV20190312042011503/12/19 04:20:31  5-MIN KAQV 121020Z AUTO VRB03KT 10SM BKN006 OVC019 13/12 A3017 150 89 0 VRB/03 RMK AO2 T01330117
03949KAQV AQV20190312042511503/12/19 04:25:31  5-MIN KAQV 121025Z AUTO VRB03KT 10SM BKN006 OVC019 13/12 A3017 150 89 0 VRB/03 RMK AO2 T01330117
03949KAQV AQV20190312043011503/12/19 04:30:31  5-MIN KAQV 121030Z AUTO VRB04KT 10SM BKN006 OVC019 13/12 A3017 150 89 0 VRB/04 RMK AO2 T01330117
03949KAQV AQV20190312043511503/12/19 04:35:31  5-MIN KAQV 121035Z AUTO 07004KT 10SM BKN007 OVC019 13/12 A3017 140 89 0 070/04 RMK AO2 T01330117
03949KAQV AQV20190312044010803/12/19 04:40:31  5-MIN KAQV 121040Z AUTO 07004KT 10SM OVC007 13/12 A3017 140 89 0 060/04 RMK AO2 T01330117
03949KAQV AQV20190312044510803/12/19 04:45:31  5-MIN KAQV 121045Z AUTO 06004KT 10SM OVC007 13/12 A3018 140 89 0 050/04 RMK AO2 T01330117
03949KAQV AQV20190312045011503/12/19 04:50:31  5-MIN KAQV 121050Z AUTO VRB05KT 10SM OVC007 13/12 A3018 140 89 0 VRB/05 RMK AO2 SLP219 T01330117
03949KAQV AQV20190312045511503/12/19 04:55:31  5-MIN KAQV 121055Z AUTO 01004KT 10SM OVC007 13/12 A3019 130 89 0 360/04 RMK AO2 SLP222 T01330117
03949KAQV AQV20190312050011503/12/19 05:00:31  5-MIN KAQV 121100Z AUTO 01003KT 10SM OVC007 13/12 A3020 120 89 0 360/03 RMK AO2 PRESRR T01330117
03949KAQV AQV20190312050510803/12/19 05:05:31  5-MIN KAQV 121105Z AUTO 01004KT 10SM OVC007 13/12 A3020 120 89 0 010/04 RMK AO2 T01330117
03949KAQV AQV20190312051010803/12/19 05:10:31  5-MIN KAQV 121110Z AUTO 02005KT 10SM OVC007 13/12 A3020 120 89 0 020/05 RMK AO2 T01330117
03949KAQV AQV20190312051510803/12/19 05:15:31  5-MIN KAQV 121115Z AUTO 03003KT 10SM OVC007 13/12 A3020 120 89 0 020/03 RMK AO2 T01330117
03949KAQV AQV20190312052011503/12/19 05:20:31  5-MIN KAQV 121120Z AUTO 03004KT 10SM BKN007 OVC020 13/12 A3020 120 89 0 030/04 RMK AO2 T01330117
03949KAQV AQV20190312052511503/12/19 05:25:31  5-MIN KAQV 121125Z AUTO 02003KT 10SM BKN007 OVC020 13/12 A3021 110 89 0 020/03 RMK AO2 T01330117
03949KAQV AQV20190312053011503/12/19 05:30:31  5-MIN KAQV 121130Z AUTO 05004KT 10SM SCT007 OVC020 13/12 A3020 120 89 0 040/04 RMK AO2 T01330117
03949KAQV AQV20190312053511503/12/19 05:35:31  5-MIN KAQV 121135Z AUTO 03005KT 10SM SCT007 OVC020 13/12 A3021 110 89 0 030/05 RMK AO2 T01330117
03949KAQV AQV20190312054011503/12/19 05:40:31  5-MIN KAQV 121140Z AUTO 03003KT 10SM FEW007 OVC019 13/12 A3021 110 89 0 020/03 RMK AO2 T01330117
03949KAQV AQV20190312054511503/12/19 05:45:31  5-MIN KAQV 121145Z AUTO 02003KT 10SM FEW009 OVC019 13/12 A3022 100 89 0 020/03 RMK AO2 T01330117
03949KAQV AQV20190312055013303/12/19 05:50:31  5-MIN KAQV 121150Z AUTO VRB04KT 10SM OVC019 13/12 A3022 100 89 0 VRB/04 RMK AO2 SLP233 T01330117 10139 20128 58009
03949KAQV AQV20190312055513303/12/19 05:55:31  5-MIN KAQV 121155Z AUTO 03005KT 10SM OVC019 13/12 A3022 100 89 0 020/05 RMK AO2 SLP233 T01330117 10139 20128 58009
03949KAQV AQV20190312060010803/12/19 06:00:31  5-MIN KAQV 121200Z AUTO 03004KT 10SM OVC018 13/12 A3022 100 89 0 020/04 RMK AO2 T01330117
03949KAQV AQV20190312060510803/12/19 06:05:31  5-MIN KAQV 121205Z AUTO 03004KT 10SM OVC018 13/12 A3022 100 89 0 030/04 RMK AO2 T01330117
03949KAQV AQV20190312061010803/12/19 06:10:31  5-MIN KAQV 121210Z AUTO 03005KT 10SM OVC017 13/12 A3022 100 89 0 030/05 RMK AO2 T01330117
03949KAQV AQV20190312061510803/12/19 06:15:31  5-MIN KAQV 121215Z AUTO 04003KT 10SM OVC017 13/12 A3022 100 89 0 040/03 RMK AO2 T01330117
03949KAQV AQV20190312062010803/12/19 06:20:31  5-MIN KAQV 121220Z AUTO 04003KT 10SM OVC017 13/12 A3022 100 89 0 040/03 RMK AO2 T01330117
03949KAQV AQV20190312062510803/12/19 06:25:31  5-MIN KAQV 121225Z AUTO 04004KT 10SM OVC017 13/12 A3022 100 89 0 040/04 RMK AO2 T01330117
03949KAQV AQV20190312063010803/12/19 06:30:31  5-MIN KAQV 121230Z AUTO VRB04KT 10SM OVC017 13/12 A3022 100 89 0 VRB/04 RMK AO2 T01330117
03949KAQV AQV20190312063510803/12/19 06:35:31  5-MIN KAQV 121235Z AUTO 00000KT 10SM OVC017 13/12 A3021 110 89 0 000/00 RMK AO2 T01330117
03949KAQV AQV20190312064010803/12/19 06:40:31  5-MIN KAQV 121240Z AUTO 00000KT 10SM OVC017 13/12 A3021 110 89 0 000/00 RMK AO2 T01330117
03949KAQV AQV20190312064511503/12/19 06:45:31  5-MIN KAQV 121245Z AUTO VRB05KT 10SM BKN017 OVC022 13/12 A3021 110 89 0 VRB/05 RMK AO2 T01330117
03949KAQV AQV20190312065012203/12/19 06:50:31  5-MIN KAQV 121250Z AUTO VRB03KT 10SM BKN017 OVC022 13/12 A3021 110 89 0 VRB/03 RMK AO2 SLP230 T01330117
03949KAQV AQV20190312065512203/12/19 06:55:31  5-MIN KAQV 121255Z AUTO VRB03KT 10SM SCT017 OVC022 13/12 A3021 110 89 0 VRB/03 RMK AO2 SLP229 T01330117
03949KAQV AQV20190312070012103/12/19 07:00:31  5-MIN KAQV 121300Z AUTO VRB03KT 9SM SCT017 BKN022 OVC031 13/12 A3021 110 89 0 VRB/03 RMK AO2 T01330117
03949KAQV AQV20190312070511703/12/19 07:05:31  5-MIN KAQV 121305Z AUTO VRB03KT 6SM BR BKN022 OVC031 13/12 A3020 120 89 0 VRB/03 RMK AO2 T01330117
03949KAQV AQV20190312071011703/12/19 07:10:31  5-MIN KAQV 121310Z AUTO VRB03KT 5SM BR BKN022 OVC032 13/12 A3020 120 89 0 VRB/03 RMK AO2 T01330117
03949KAQV AQV20190312071511703/12/19 07:15:31  5-MIN KAQV 121315Z AUTO VRB03KT 5SM BR SCT022 OVC034 13/12 A3020 120 89 0 VRB/03 RMK AO2 T01330117
03949KAQV AQV20190312072011403/12/19 07:20:31  5-MIN KAQV 121320Z AUTO VRB04KT 7SM FEW023 OVC036 13/12 A3020 120 89 0 VRB/04 RMK AO2 T01330117
03949KAQV AQV20190312072510803/12/19 07:25:31  5-MIN KAQV 121325Z AUTO 00000KT 10SM OVC036 13/12 A3020 120 89 0 000/00 RMK AO2 T01330117
03949KAQV AQV20190312073010803/12/19 07:30:31  5-MIN KAQV 121330Z AUTO VRB04KT 10SM OVC034 13/12 A3020 120 89 0 VRB/04 RMK AO2 T01330117
03949KAQV AQV20190312073510803/12/19 07:35:31  5-MIN KAQV 121335Z AUTO VRB04KT 10SM OVC034 13/12 A3020 120 89 0 VRB/04 RMK AO2 T01330117
03949KAQV AQV20190312074010803/12/19 07:40:31  5-MIN KAQV 121340Z AUTO VRB04KT 10SM OVC034 13/12 A3020 120 93 0 VRB/04 RMK AO2 T01330122
03949KAQV AQV20190312074511003/12/19 07:45:31  5-MIN KAQV 121345Z AUTO VRB03KT 10SM OVC034 14/12 A3020 120 90 100 VRB/03 RMK AO2 T01390122
03949KAQV AQV20190312075011703/12/19 07:50:31  5-MIN KAQV 121350Z AUTO VRB03KT 10SM OVC032 14/12 A3020 120 90 100 VRB/03 RMK AO2 SLP226 T01390122
03949KAQV AQV20190312075511703/12/19 07:55:31  5-MIN KAQV 121355Z AUTO VRB03KT 10SM OVC032 14/12 A3020 120 90 100 VRB/03 RMK AO2 SLP227 T01390122
03949KAQV AQV20190312080011003/12/19 08:00:31  5-MIN KAQV 121400Z AUTO VRB04KT 10SM OVC032 14/12 A3020 120 90 100 VRB/04 RMK AO2 T01390122
03949KAQV AQV20190312080511703/12/19 08:05:31  5-MIN KAQV 121405Z AUTO VRB04KT 10SM SCT027 OVC032 14/12 A3020 120 90 100 VRB/04 RMK AO2 T01390122
03949KAQV AQV20190312081011503/12/19 08:10:31  5-MIN KAQV 121410Z AUTO VRB05KT 10SM BKN026 OVC033 14/12 A3021 110 90 0 VRB/05 RMK AO2 T01390122
03949KAQV AQV20190312081512103/12/19 08:15:31  5-MIN KAQV 121415Z AUTO VRB04KT 9SM SCT022 BKN026 OVC033 14/12 A3021 110 90 0 VRB/04 RMK AO2 T01390122
03949KAQV AQV20190312082011703/12/19 08:20:31  5-MIN KAQV 121420Z AUTO VRB05KT 5SM BR BKN022 OVC028 14/12 A3021 110 90 0 VRB/05 RMK AO2 T01390122
03949KAQV AQV20190312082511703/12/19 08:25:31  5-MIN KAQV 121425Z AUTO 00000KT 3SM BR BKN022 OVC029 14/12 A3021 110 90 0 000/00 RMK AO2 T01390122
03949KAQV AQV20190312083011003/12/19 08:30:31  5-MIN KAQV 121430Z AUTO VRB03KT 3SM BR OVC022 14/13 A3021 110 93 0 VRB/03 RMK AO2 T01390128
03949KAQV AQV20190312083511003/12/19 08:35:31  5-MIN KAQV 121435Z AUTO 00000KT 3SM BR OVC020 14/13 A3021 110 93 0 000/00 RMK AO2 T01390128
03949KAQV AQV20190312084011003/12/19 08:40:31  5-MIN KAQV 121440Z AUTO VRB03KT 3SM BR OVC020 14/13 A3021 110 93 0 VRB/03 RMK AO2 T01390128
03949KAQV AQV20190312084511003/12/19 08:45:31  5-MIN KAQV 121445Z AUTO VRB03KT 5SM BR OVC020 14/13 A3021 110 93 0 VRB/03 RMK AO2 T01390128
03949KAQV AQV20190312085012003/12/19 08:50:31  5-MIN KAQV 121450Z AUTO VRB03KT 8SM OVC021 14/13 A3021 110 93 0 VRB/03 RMK AO2 SLP231 T01390128 53011
03949KAQV AQV20190312085512103/12/19 08:55:31  5-MIN KAQV 121455Z AUTO VRB03KT 10SM OVC019 14/13 A3021 110 93 0 VRB/03 RMK AO2 SLP230 T01390128 53011
03949KAQV AQV20190312090011003/12/19 09:00:31  5-MIN KAQV 121500Z AUTO VRB04KT 10SM OVC019 14/13 A3021 110 90 100 VRB/04 RMK AO2 T01440128
03949KAQV AQV20190312090511003/12/19 09:05:31  5-MIN KAQV 121505Z AUTO VRB03KT 10SM OVC019 14/13 A3021 110 90 100 VRB/03 RMK AO2 T01440128
03949KAQV AQV20190312091011703/12/19 09:10:31  5-MIN KAQV 121510Z AUTO 00000KT 10SM BKN019 OVC025 14/13 A3021 110 90 100 000/00 RMK AO2 T01440128
03949KAQV AQV20190312091512403/12/19 09:15:31  5-MIN KAQV 121515Z AUTO VRB03KT 10SM BKN019 BKN025 OVC038 14/13 A3021 110 90 100 VRB/03 RMK AO2 T01440128
03949KAQV AQV20190312092012403/12/19 09:20:31  5-MIN KAQV 121520Z AUTO VRB03KT 10SM SCT019 BKN025 OVC038 15/13 A3021 110 86 200 VRB/03 RMK AO2 T01500128
03949KAQV AQV20190312092512403/12/19 09:25:31  5-MIN KAQV 121525Z AUTO 00000KT 10SM FEW018 BKN023 OVC036 15/13 A3021 110 86 200 000/00 RMK AO2 T01500128
03949KAQV AQV20190312093011703/12/19 09:30:31  5-MIN KAQV 121530Z AUTO VRB04KT 10SM BKN023 OVC036 15/13 A3021 110 86 200 VRB/04 RMK AO2 T01500128
03949KAQV AQV20190312093511703/12/19 09:35:31  5-MIN KAQV 121535Z AUTO VRB03KT 10SM BKN023 OVC037 15/13 A3021 110 86 200 VRB/03 RMK AO2 T01500128
03949KAQV AQV20190312094011703/12/19 09:40:31  5-MIN KAQV 121540Z AUTO 00000KT 10SM BKN023 OVC037 15/13 A3021 110 90 200 000/00 RMK AO2 T01500133
03949KAQV AQV20190312094510003/12/19 09:45:31  5-MIN KAQV 121545Z AUTO 10SM OVC023 15/13 A3021 110 86 200 M /M RMK AO2 T01500128
03949KAQV AQV20190312095012403/12/19 09:50:31  5-MIN KAQV 121550Z AUTO VRB03KT 10SM BKN022 OVC036 16/13 A3021 110 83 200 VRB/03 RMK AO2 SLP228 T01560128
03949KAQV AQV20190312095512403/12/19 09:55:31  5-MIN KAQV 121555Z AUTO VRB04KT 10SM BKN022 OVC036 16/13 A3021 110 83 200 VRB/04 RMK AO2 SLP228 T01560128
03949KAQV AQV20190312100011703/12/19 10:00:31  5-MIN KAQV 121600Z AUTO 00000KT 10SM SCT022 OVC035 16/13 A3021 110 83 200 000/00 RMK AO2 T01560128
03949KAQV AQV20190312100511703/12/19 10:05:31  5-MIN KAQV 121605Z AUTO 12004KT 10SM SCT022 OVC035 16/13 A3020 110 83 200 120/04 RMK AO2 T01560128
03949KAQV AQV20190312101012403/12/19 10:10:31  5-MIN KAQV 121610Z AUTO VRB04KT 10SM FEW016 SCT022 OVC036 16/13 A3021 110 80 300 VRB/04 RMK AO2 T01610128
03949KAQV AQV20190312101511703/12/19 10:15:31  5-MIN KAQV 121615Z AUTO 12005KT 10SM SCT016 OVC036 16/13 A3021 110 80 300 110/05 RMK AO2 T01610128
03949KAQV AQV20190312102011703/12/19 10:20:31  5-MIN KAQV 121620Z AUTO VRB04KT 10SM FEW016 OVC036 16/13 A3021 110 80 300 VRB/04 RMK AO2 T01610128
03949KAQV AQV20190312102511703/12/19 10:25:31  5-MIN KAQV 121625Z AUTO 13004KT 10SM SCT016 OVC035 17/13 A3021 110 77 400 130/04 RMK AO2 T01670128
03949KAQV AQV20190312103011703/12/19 10:30:31  5-MIN KAQV 121630Z AUTO VRB04KT 10SM SCT016 OVC035 17/13 A3021 110 77 400 VRB/04 RMK AO2 T01670128
03949KAQV AQV20190312103511703/12/19 10:35:31  5-MIN KAQV 121635Z AUTO VRB05KT 10SM SCT016 OVC035 17/13 A3021 110 77 400 VRB/05 RMK AO2 T01670128
03949KAQV AQV20190312104011703/12/19 10:40:31  5-MIN KAQV 121640Z AUTO 00000KT 10SM FEW016 OVC036 17/13 A3020 110 77 400 000/00 RMK AO2 T01670128
03949KAQV AQV20190312104512403/12/19 10:45:31  5-MIN KAQV 121645Z AUTO VRB03KT 10SM FEW016 FEW029 OVC036 17/13 A3020 110 77 400 VRB/03 RMK AO2 T01670128
03949KAQV AQV20190312105013103/12/19 10:50:31  5-MIN KAQV 121650Z AUTO VRB04KT 10SM FEW016 FEW029 OVC036 17/13 A3020 110 77 400 VRB/04 RMK AO2 SLP228 T01670128
03949KAQV AQV20190312105513103/12/19 10:55:31  5-MIN KAQV 121655Z AUTO VRB04KT 10SM FEW017 FEW029 OVC036 17/13 A3020 110 77 400 VRB/04 RMK AO2 SLP228 T01670128
03949KAQV AQV20190312110011703/12/19 11:00:31  5-MIN KAQV 121700Z AUTO VRB03KT 10SM FEW027 OVC036 17/13 A3020 120 78 400 VRB/03 RMK AO2 T01720133
03949KAQV AQV20190312110511703/12/19 11:05:31  5-MIN KAQV 121705Z AUTO 00000KT 10SM SCT027 OVC036 17/13 A3020 120 78 400 000/00 RMK AO2 T01720133
03949KAQV AQV20190312111019203/12/19 11:10:31  5-MIN KAQV 121710Z AUTO 00000KT 8SM SCT029 OVC036 17/13 A3020 120 78 400 000/00 RMK AO2 T0172013303/12/19 11:15:OVC038 19/14 A3014 170 75 700 VRB/05 RMK AO2 SLP205 T01890144
03949KAQV AQV20190312125512403/12/19 12:55:31  5-MIN KAQV 121855Z AUTO VRB05KT 10SM SCT012 OVC038 19/14 A3014 170 75 700 VRB/05 RMK AO2 SLP205 T01890144
03949KAQV AQV20190312130011703/12/19 13:00:31  5-MIN KAQV 121900Z AUTO 16005KT 10SM BKN012 OVC038 19/14 A3014 180 75 700 160/05 RMK AO2 T01890144
03949KAQV AQV20190312130511703/12/19 13:05:31  5-MIN KAQV 121905Z AUTO VRB05KT 10SM BKN012 OVC038 19/15 A3014 180 75 800 VRB/05 RMK AO2 T01940150
03949KAQV AQV20190312131011703/12/19 13:10:31  5-MIN KAQV 121910Z AUTO VRB04KT 10SM BKN013 OVC038 19/15 A3013 180 75 800 VRB/04 RMK AO2 T01940150
03949KAQV AQV20190312131013803/12/19 13:10:31  5-MIN KAQV 121910Z AUTO VRB04KT 10STO VRB04KT 10SM SCT012 OVC038 19/14 A3014 170 75 700 VRB/04 RMK AO2 SLP207 T01890144
03949KAQV AQV20190312131511703/12/19 13:15:31  5-MIN KAQV 121915Z AUTO 16006KT 10SM BKN013 OVC039 19/15 A3013 180 75 800 160/06 RMK AO2 T01940150
03949KAQV AQV20190312131515903/12/19 13:15:31  5-MIN KAQV 121915Z AUTO 16006KT 10SM BKN013 OVC039 19/15 A3013 180 75 800 160/06 RMK AO2 T01940150 A3014 180 75 700 160/05 RMK AO2 T01890144
03949KAQV AQV20190312132011703/12/19 13:20:31  5-MIN KAQV 121920Z AUTO VRB05KT 10SM BKN013 OVC039 19/15 A3012 190 75 800 VRB/05 RMK AO2 T01940150
03949KAQV AQV20190312132513303/12/19 13:25:31  5-MIN KAQV 121925Z AUTO 15007KT 120V190 10SM BKN013 OVC039 19/15 A3012 190 75 800 150/07 120V190 RMK AO2 T01940150
03949KAQV AQV20190312132514503/12/19 13:25:31  5-MIN KAQV 121925Z AUTO 15007KT 120V190 10SM BKN013 OVC039 19/15 A3012 190 75 800 150/07 120V190 RMK AO2 T01 RMK AO2 T01940150
03949KAQV AQV20190312133011703/12/19 13:30:31  5-MIN KAQV 121930Z AUTO VRB06KT 10SM SCT013 OVC039 19/16 A3012 200 78 800 VRB/06 RMK AO2 T01940156
03949KAQV AQV20190312133511703/12/19 13:35:31  5-MIN KAQV 121935Z AUTO VRB05KT 10SM FEW013 OVC039 20/16 A3011 200 75 900 VRB/05 RMK AO2 T02000156
03949KAQV AQV20190312133512903/12/19 13:35:31  5-MIN KAQV 121935Z AUTO VRB05KT 10SM FEW013 OVC039 20/16 A3011 200 75 3013 180 75 800 160/06 RMK AO2 T01940150
03949KAQV AQV20190312133515403/12/19 13:35:31  5-MIN KAQV 121935Z AUTO VRB05KT 10SM FEW013 OVC039 20/16 A3010 210 75 1000 VRB/06 RMK AO2 T02060161210 73 1000 150/06 RMK AO2 T02110161
03949KAQV AQV20190312134011703/12/19 13:40:31  5-MIN KAQV 121940Z AUTO VRB04KT 10SM FEW012 OVC039 21/16 A3011 200 73 900 VRB/04 RMK AO2 T02060156
03949KAQV AQV20190312134514303/12/19 13:45:31  5-MIN KAQV 121945Z AUTO 16006KT 10SM OVC039 21/16 A3011 210 73 1000 150/06 RMK AO2 T02110161150/07 120V190 RMK AO2 T01940150
03949KAQV AQV20190312135016003/12/19 13:50:31  5-MIN KAQV 121950Z AUTO VRB06KT 10SM OVC037 21/16 A3010 210 73 900 VRB/06 RMK AO2 SLP192 T02060156 A3009 220 73 1000 VRB/05 RMK AO2 T02110161
03949KAQV AQV20190312140511803/12/19 14:05:31  5-MIN KAQV 122005Z AUTO VRB05KT 10SM SCT014 OVC036 21/16 A3009 220 75 1000 VRB/05 RMK AO2 T02060161
03949KAQV AQV20190312141008703/12/19 14:10:31  5-MIN KAQV 122010Z AUTO17 A3009 220 73 1100 160/05 RMK AO2 T02170167
03949KAQV AQV20190312142014003/12/19 14:20:31  5-MIN KAQV 122020Z AUTO VRB04KT 10SM BKN014 OVC035 21/16 A3009 220 73 1000 VR6 A3010 210 75 1000 VRB/06 RMK AO2 T02060161
03949KAQV AQV20190312142519403/12/19 14:25:31  5-MIN KAQV 122025Z AUTO VRB04KT 10SM BKN014 OVC035 21/12/19 14:50:31  5-MIN KAQV 122050Z AUTO VRB04KT 10SM OVC015 21/17 A3008 230 75 1000 VRB/04 RMK AO2 SLP183 T02110167 58011
03949KAQV AQV20190312143511103/12/19 14:35:31  5-MIN KAQV 122035Z AUTO VRB05KT 10SM OVC014 22/17 A3009 220 73 1100 VRB/05 RMK AO2 T02170167
03949KAQV AQV20190312144015603/12/19 14:40:31  5-MIN KAQV 122040Z AUTO VRB 14:20:31  5-MIN KAQV 122020Z AUTO VRB04KT 10SM BKN014 OVC035 21/16 A3009 220 73 1000 VRB/04 RMK AO2 T02110161
03949KAQV AQV20190312144019403/12/19 14:40:31  5-MIN KAQV 122040Z AUTO VRB04KT 10SM OVC015 21/17 A3008 230 75 1000 VRB/04 RMK AO2 T02110167QV 122105Z AUTO VRB04KT 7SM OVC015 21/17 A3008 230 75 1000 VRB/04 RMK AO2 T02110167
03949KAQV AQV20190312145512403/12/19 14:55:31  5-MIN KAQV 122055Z AUTO VRB05KT 10SM OVC015 21/17 A3008 230 75 1000 VRB/05 RMK AO2 SLP184 T02110167 58011
03949KAQV AQV20190312145514803/12/19 14:55:31  5-MIN KAQV 122055Z AUTO VRB05KT 10SM OVC015 21/17 A3008 230 75 1000 VRB/M OVC014 22/17 A3009 220 73 1100 VRB/05 RMK AO2 T02170167
03949KAQV AQV20190312151011003/12/19 15:10:31  5-MIN KAQV 122110Z AUTO VRB03KT 7SM OVC015 21/17 A3008 230 75 1000 VRB/03 RMK AO2 T02110167
03949KAQV AQV20190312151512203/12/19 15:15:31  5-MIN KAQV 122115Z AUTO VRB05KT 8SM OVC015 21/17 A3007 22/17 A3006 250 75 1100 VRB/04 RMK AO2 T02170172
03949KAQV AQV20190312152511003/12/19 15:25:31  5-MIN KAQV 122125Z AUTO VRB03KT 7SM OVC015 22/17 A3007 240 75 1100 VRB/03 RMK AO2 T02170172
03949KAQV AQV20190312153016403/12/19 15:30:31  5-MIN KAQV 122130Z AUTO VRB04KT 7SM BKN015 OVC031 22/17 A3007 240 75 1100 VRB/0RB03KT 7SM OVC015 21/17 A3008 230 75 1000 VRB/03 RMK AO2 T02110167
03949KAQV AQV20190312153023203/12/19 15:30:31  5-MIN KAQV 122130Z AUTO VRB04KT 7SM BKN015 OVC031 22/17 A3007 240 75 1100 VRB/04 RMK AO2 T0217017203/12/19 15:35:31 QV 122155Z AUTO 16005KT 7SM FEW016 OVC030 22/17 A3006 250 75 1100 160/05 RMK AO2 SLP176 T02170172
03949KAQV AQV20190312154513703/12/19 15:45:31  5-MIN KAQV 122145Z AUTO VRB03KT 6SM HZ SCT016 OVC030 22/17 A3006 250 75 1100 VRB/03 RMK AO2 T0217017203/12/19 15170172
03949KAQV AQV20190312155011403/12/19 15:50:31  5-MIN KAQV 122150Z AUT0SM FEW018 BKN029 OVC041 22/17 A3005 260 75 1100 VRB/03 RMK AO2 T02170172
03949KAQV AQV20190312160011703/12/19 16:00:31  5-MIN KAQV 122200Z AUTO VRB03KT 7SM FEW016 OVC030 22/17 A3005 250 75 1100 VRB/03 RMK AO2 T02170172
03949KAQV AQV20190312160512103/12/19 16:05:31  5-MIN KAQV 122205Z AUTO VRB03KT 8SM FE8 BKN028 OVC041 21/17 A3004 260 78 1100 VRB/04 RMK AO2 T02110172
03949KAQV AQV20190312160512803/12/19 16:05:31  5-MIN KAQV 122205Z AUTO VRB03KT 8SM 3KT 6SM HZ SCT016 OVC030 22/17 A3006 250 75 1100 VRB/03 RMK AO2 T02170172
03949KAQV AQV20190312161512503/12/19 16:15:31  5-MIN KAQV 122215Z AUTO 17005KT 10SM SCT018 BKN029 OVC041 22/17 A3005 260 75 1100 160/05 RMK AO2 T02170172
03949KAQV AQV20190312162012903/12/19 16:20:31  5-MIN KAQV 122220Z AUTO VRB04KT 10SM SCT018 BKN028 OVC041 21/17 A3005 260 78 1100 100 VRB/03 RMK AO2 T02170172
03949KAQV AQV20190312163011803/12/19 16:30:31  5-MIN KAQV 122230Z AUTO 15005KT 10SM SCT018 OVC030 22/17 A3004 260 75 1100 140/05 RMK AO2 T02170172
03949KAQV AQV20190312163516303/12/19 16:35:31  5-MIN KAQV 122235Z AUTO 00000KT 10SM SCT018 OVC030 22/17 A3004 270 75 1100 000/00 RMK AO2 T02170172OVC04004 270 75 1100 VRB/03 RMK AO2 T02110167
03949KAQV AQV20190312164512503/12/19 16:45:31  5-MIN KAQV 122245Z AUTO VRB03KT 10SM FEW018 BKN032 BKN040 22/17 A3003 270 75 1200 VRB/03 RMK AO2 T02170172
03949KAQV AQV20190312165019303/12/19 16:50:31  5-MIN KAQV 122250Z AUTO 00000KT 10SM FEW018 BKN032 BKN048 22/17 A3003 280 75 1200 000/00 RMK AO2 SLP167 T02170172 A3004 270 75 1100 00 75 1100 VRB/03 RMK AO2 SLP166 T02110167
03949KAQV AQV20190312170012403/12/19 17:00:31  5-MIN KAQV 122300Z AUTO 00000KT 8SM SCT020 BKN032 BKN048 21/17 A3003 280 78 1100 000/00 RMK AO2 T02110172
03949KAQV AQV20190312170512403/12/19 17:05:31  5-MIN KAQV 122305Z AUTO VRB04KT 7SM BKN020 BKN035 BKN048 22/17 A3002 280 75 1200 VRB/04 RMK AO2 T02170172
03949KAQV AQV20190312171011003/12/19 17:10:31  5-MIN KAQV 122310Z AUFEW018 BKN032 BKN048 22/17 A3003 280 75 1200 000/00 RMK AO2  T02170172
03949KAQV AQV20190312171511003/12/19 17:15:31  5-MIN KAQV 122315Z AUTO 00000KT 9SM BKN020 22/17 A3003 280 75 1200 000/00 RMK AO2 T02170172
03949KAQV AQV20190312172011103/12/19 17:20:31  5-MIN KAQV 122320Z AUTO VRB03KT 10SM OVC020 21/17 A3002 280 78 1100 VRB/03 RMK AO2 T02110172
03949KAQV AQV20190312172511103/12/19 17:25:31  5-MIN KAQV 122325Z AUTO VRB03KT 10SM OVC020 21/17 A3002 280 78 1100 VRB/03 RMK AO2 T02110172
03949KAQV AQV20190312172519703/12/19 17:25:31  5-MIN KAQV 122325Z AUTO VRB03KT 10SM OVC0203/12/19 17:50:31  5-MIN KAQV 122350Z AUTO 00000KT 10SM FEW023 21/17 A3002 280 81 1000 000/00 RMK AO2 SLP164 T02060172 10217 20178 56033
03949KAQV AQV20190312172522203/12/19 17:25:31  5-MIN KAQV 122325Z AUTO VRB03KT 10SM OVC020 21/17 A3002 280 78 1100 VRB/03 RMK AO2 T0235 BKN048 22/17 A3002 280 75 1200 VRB/04 RMK AO2 T021701710SM BKN020 21/17 A3002 280 78 1100 VRB/03 RMK AO2 T02110172
03949KAQV AQV20190312173011103/12/19 17:30:31  5-MIN KAQV 122330Z AUTO VRB03KT 10SM BKN020 21/17 A3002 280 78 1100 VRB/03 RMK AO2 T02110172
03949KAQV AQV20190312173511103/12/19 17:35:31  5-MIN KAQV 122335Z AUTO 17003KT 10SM BKN021 21/17 A3002 280 78 1100 170/03 RMK AO2 T02110172
03949KAQV AQV20190312174011003/12/19 17:40:31  5-MIN KAQV 122340Z AUTO 15003KT 9SM SCT021 21/17 A3002 280 78 1100 150/03 RMK AO2 T02110172
03949KAQV AQV20190312174505103/12/19 17:45:31  5-MIN KAQV 122345Z AO2 T02110172
03949KAQV AQV20190312174511003/12/19 17:45:31  5-MIN KAQV 122345Z AUTO VRB03KT 9SM FEW021 21/17 A3002 290 81 1000 VRB/03 RMK AO2 T02060172
03949KAQV AQV20190312175013603/12/19 17:50:31  5-MIN KAQV 122350Z AUTO 00000KT 10SM FEW023 21/17 A3002 280 81 1000 000/00 RMK AO2 SLP164 T02060172 10217 20178 56033
03949KAQV AQV20190312175513603/12/19 17:55:31  5-MIN KAQV 122355Z AUTO VRB03KT 10SM FEW023 21/17 A3002 290 81 1000 VRB/03 RMK AO2 SLP163 T02060172 10217 20178 56033
03949KAQV AQV20190312180011103/12/19 18:00:31  5-MIN KAQV 130000Z AUTO VRB04KT 10SM FEW021 21/17 A3002 290 81 1000 VRB/04 RMK AO2 T02060172
03949KAQV AQV20190312180015003/12/19 18:00:31  5-MIN KAQV 130000Z AUTO VRB04KT 10SM FEWSCT021 21/17 A3002 280 78 1100 150/03 RMK AO2 T02110172280 81 1000 VRB/03 RMK AO2 T02060172
03949KAQV AQV20190312180511103/12/19 18:05:31  5-MIN KAQV 130005Z AUTO VRB03KT 10SM SCT021 21/17 A3002 280 81 1000 VRB/03 RMK AO2 T02060172
03949KAQV AQV20190312181011003/12/19 18:10:31  5-MIN KAQV 130010Z AUTO VRB03KT 9SM BKN021 20/17 A3002 290 84 1000 VRB/03 RMK AO2 T02000172
03949KAQV AQV20190312181511003/12/19 18:15:31  5-MIN KAQV 130015Z AUTO 16003KT 9SM BKN020 20/17 A3002 290 84 1000 150/03 RMK AO2 T02000172
03949KAQV AQV20190312182011103/12/19 18:20:31  5-MIN KAQV 130020Z AUTO 16003KT 10SM BKN020 20/17 A3001 290 84 1000 160/03 RMK AO2 T02000172
03949KAQV AQV20190312182511103/12/19 18:25:31  5-MIN KAQV 130025Z AUTO VRB03KT 10SM OVC020 20/17 A3001 290 84 1000 VRB/03 RMK AO2 T02000172
03949KAQV AQV20190312183011103/12/19 18:30:31  5-MIN KAQV 130030Z AUTO VRB03KT 10SM OVC020 20/17 A3001 290 84 1000 VRB/03 RMK AO2 T02000172
03949KAQV AQV20190312183511103/12/19 18:35:31  5-MIN KAQV 130035Z AUTO 16003KT 10SM OVC020 20/17 A3001 290 84 1000 160/03 RMK AO2 T02000172
03949KAQV AQV20190312184011103/12/19 18:40:31  5-MIN KAQV 130040Z AUTO 17003KT 10SM OVC020 20/17 A3001 290 84 1000 160/03 RMK AO2 T02000172
03949KAQV AQV20190312184511103/12/19 18:45:31  5-MIN KAQV 130045Z AUTO 17003KT 10SM OVC020 20/17 A3001 290 84 1000 170/03 RMK AO2 T02000172
03949KAQV AQV20190312185011803/12/19 18:50:31  5-MIN KAQV 130050Z AUTO 17004KT 10SM OVC020 20/17 A3001 290 84 1000 160/04 RMK AO2 SLP162 T02000172
03949KAQV AQV20190312185511803/12/19 18:55:31  5-MIN KAQV 130055Z AUTO VRB03KT 10SM OVC020 20/17 A3001 290 84 1000 VRB/03 RMK AO2 SLP162 T02000172
03949KAQV AQV20190312190011103/12/19 19:00:31  5-MIN KAQV 130100Z AUTO 18003KT 10SM OVC020 20/17 A3001 290 84 1000 170/03 RMK AO2 T02000172
03949KAQV AQV20190312190511103/12/19 19:05:31  5-MIN KAQV 130105Z AUTO 00000KT 10SM OVC020 20/17 A3001 290 84 1000 000/00 RMK AO2 T02000172
03949KAQV AQV20190312191011103/12/19 19:10:31  5-MIN KAQV 130110Z AUTO 00000KT 10SM OVC020 20/17 A3001 290 84 1000 000/00 RMK AO2 T02000172
03949KAQV AQV20190312191511103/12/19 19:15:31  5-MIN KAQV 130115Z AUTO 00000KT 10SM OVC020 20/17 A3001 290 84 1000 000/00 RMK AO2 T02000172
03949KAQV AQV20190312192011003/12/19 19:20:31  5-MIN KAQV 130120Z AUTO 00000KT 10SM OVC020 19/17 A3001 290 87 900 000/00 RMK AO2 T01940172
03949KAQV AQV20190312192511003/12/19 19:25:31  5-MIN KAQV 130125Z AUTO 00000KT 10SM BKN018 19/17 A3001 290 87 900 000/00 RMK AO2 T01940172
03949KAQV AQV20190312193011003/12/19 19:30:31  5-MIN KAQV 130130Z AUTO 00000KT 10SM BKN018 19/17 A3001 290 87 900 000/00 RMK AO2 T01940172
03949KAQV AQV20190312193511003/12/19 19:35:31  5-MIN KAQV 130135Z AUTO 00000KT 10SM SCT018 19/17 A3001 290 90 900 000/00 RMK AO2 T01890172
03949KAQV AQV20190312194011003/12/19 19:40:31  5-MIN KAQV 130140Z AUTO 00000KT 10SM FEW018 18/17 A3001 290 93 800 000/00 RMK AO2 T01830172
03949KAQV AQV20190312194510903/12/19 19:45:31  5-MIN KAQV 130145Z AUTO 00000KT 9SM SCT018 18/17 A3001 290 93 800 000/00 RMK AO2 T01830172
03949KAQV AQV20190312195011603/12/19 19:50:31  5-MIN KAQV 130150Z AUTO 00000KT 9SM FEW018 18/17 A3001 290 93 800 000/00 RMK AO2 SLP162 T01830172
03949KAQV AQV20190312195511603/12/19 19:55:31  5-MIN KAQV 130155Z AUTO 00000KT 9SM FEW017 18/17 A3001 290 93 800 000/00 RMK AO2 SLP162 T01830172
03949KAQV AQV20190312200011003/12/19 20:00:31  5-MIN KAQV 130200Z AUTO 00000KT 10SM FEW017 18/17 A3001 290 93 800 000/00 RMK AO2 T01830172
03949KAQV AQV20190312200511003/12/19 20:05:31  5-MIN KAQV 130205Z AUTO 00000KT 10SM FEW016 18/17 A3001 290 93 800 000/00 RMK AO2 T01830172
03949KAQV AQV20190312201011003/12/19 20:10:31  5-MIN KAQV 130210Z AUTO 00000KT 10SM FEW016 18/17 A3002 290 93 800 000/00 RMK AO2 T01830172
03949KAQV AQV20190312201510703/12/19 20:15:31  5-MIN KAQV 130215Z AUTO 00000KT 10SM CLR 18/17 A3002 290 90 800 000/00 RMK AO2 T01830167
03949KAQV AQV20190312202010603/12/19 20:20:31  5-MIN KAQV 130220Z AUTO 00000KT 9SM CLR 18/17 A3001 290 90 800 000/00 RMK AO2 T01830167
03949KAQV AQV20190312202510603/12/19 20:25:31  5-MIN KAQV 130225Z AUTO 00000KT 9SM CLR 18/17 A3001 290 90 800 000/00 RMK AO2 T01830167
03949KAQV AQV20190312203010603/12/19 20:30:31  5-MIN KAQV 130230Z AUTO 00000KT 9SM CLR 18/17 A3001 290 90 800 000/00 RMK AO2 T01830167
03949KAQV AQV20190312203510603/12/19 20:35:31  5-MIN KAQV 130235Z AUTO 00000KT 9SM CLR 18/17 A3001 290 90 800 000/00 RMK AO2 T01830167
03949KAQV AQV20190312204010603/12/19 20:40:31  5-MIN KAQV 130240Z AUTO 00000KT 9SM CLR 18/17 A3001 290 93 700 000/00 RMK AO2 T01780167
03949KAQV AQV20190312204510603/12/19 20:45:31  5-MIN KAQV 130245Z AUTO 00000KT 9SM CLR 18/17 A3001 290 93 700 000/00 RMK AO2 T01780167
03949KAQV AQV20190312205011903/12/19 20:50:31  5-MIN KAQV 130250Z AUTO 00000KT 8SM CLR 18/17 A3001 290 93 700 000/00 RMK AO2 SLP162 T01780167 56021
03949KAQV AQV20190312205511903/12/19 20:55:31  5-MIN KAQV 130255Z AUTO VRB03KT 8SM CLR 18/17 A3001 290 93 700 VRB/03 RMK AO2 SLP161 T01780167 56021
03949KAQV AQV20190312210010603/12/19 21:00:31  5-MIN KAQV 130300Z AUTO VRB03KT 8SM CLR 18/17 A3001 290 93 700 VRB/03 RMK AO2 T01780167
03949KAQV AQV20190312210510603/12/19 21:05:31  5-MIN KAQV 130305Z AUTO 00000KT 8SM CLR 18/17 A3001 300 93 700 000/00 RMK AO2 T01780167
03949KAQV AQV20190312211010603/12/19 21:10:31  5-MIN KAQV 130310Z AUTO 00000KT 8SM CLR 18/17 A3001 300 93 700 000/00 RMK AO2 T01780167
03949KAQV AQV20190312211510603/12/19 21:15:31  5-MIN KAQV 130315Z AUTO VRB03KT 8SM CLR 18/17 A3001 290 93 700 VRB/03 RMK AO2 T01780167
03949KAQV AQV20190312212010603/12/19 21:20:31  5-MIN KAQV 130320Z AUTO 00000KT 8SM CLR 18/17 A3001 300 93 700 000/00 RMK AO2 T01780167
03949KAQV AQV20190312212510603/12/19 21:25:31  5-MIN KAQV 130325Z AUTO VRB03KT 8SM CLR 18/17 A3001 300 93 700 VRB/03 RMK AO2 T01780167
03949KAQV AQV20190312213010903/12/19 21:30:31  5-MIN KAQV 130330Z AUTO 00000KT 8SM FEW014 18/17 A3001 300 93 700 000/00 RMK AO2 T01780167
03949KAQV AQV20190312213510903/12/19 21:35:31  5-MIN KAQV 130335Z AUTO 00000KT 9SM BKN014 18/17 A3001 300 90 800 000/00 RMK AO2 T01830167
03949KAQV AQV20190312214010903/12/19 21:40:31  5-MIN KAQV 130340Z AUTO VRB03KT 9SM BKN015 18/17 A3000 300 90 800 VRB/03 RMK AO2 T01830167
03949KAQV AQV20190312214510903/12/19 21:45:31  5-MIN KAQV 130345Z AUTO VRB03KT 9SM BKN015 18/17 A3000 300 90 800 VRB/03 RMK AO2 T01830167
03949KAQV AQV20190312215011703/12/19 21:50:31  5-MIN KAQV 130350Z AUTO 00000KT 10SM OVC015 18/17 A3000 300 90 800 000/00 RMK AO2 SLP158 T01830167
03949KAQV AQV20190312215511703/12/19 21:55:31  5-MIN KAQV 130355Z AUTO VRB03KT 10SM OVC015 18/17 A3000 300 90 800 VRB/03 RMK AO2 SLP158 T01830167
03949KAQV AQV20190312220010903/12/19 22:00:31  5-MIN KAQV 130400Z AUTO 00000KT 9SM OVC015 18/17 A3000 300 90 800 000/00 RMK AO2 T01830167
03949KAQV AQV20190312220510903/12/19 22:05:31  5-MIN KAQV 130405Z AUTO VRB03KT 9SM OVC015 18/17 A3000 300 90 800 VRB/03 RMK AO2 T01830167
03949KAQV AQV20190312221010903/12/19 22:10:31  5-MIN KAQV 130410Z AUTO 00000KT 9SM OVC017 18/17 A3000 300 93 800 000/00 RMK AO2 T01830172
03949KAQV AQV20190312221510903/12/19 22:15:31  5-MIN KAQV 130415Z AUTO 00000KT 9SM OVC017 18/17 A3000 300 93 800 000/00 RMK AO2 T01830172
03949KAQV AQV20190312222010903/12/19 22:20:31  5-MIN KAQV 130420Z AUTO VRB03KT 9SM OVC017 18/17 A3000 310 93 800 VRB/03 RMK AO2 T01830172
03949KAQV AQV20190312222511603/12/19 22:25:31  5-MIN KAQV 130425Z AUTO VRB03KT 9SM BKN018 OVC028 18/17 A3000 310 90 800 VRB/03 RMK AO2 T01830167
03949KAQV AQV20190312223011603/12/19 22:30:31  5-MIN KAQV 130430Z AUTO 00000KT 8SM BKN018 OVC028 18/17 A2999 310 93 700 000/00 RMK AO2 T01780167
03949KAQV AQV20190312223511603/12/19 22:35:31  5-MIN KAQV 130435Z AUTO 00000KT 8SM SCT018 OVC026 18/17 A2999 310 93 800 000/00 RMK AO2 T01780167
03949KAQV AQV20190312224011603/12/19 22:40:31  5-MIN KAQV 130440Z AUTO 00000KT 7SM SCT019 OVC026 18/17 A2999 310 93 800 000/00 RMK AO2 T01780167
03949KAQV AQV20190312224510903/12/19 22:45:31  5-MIN KAQV 130445Z AUTO 00000KT 7SM OVC024 18/17 A2998 320 93 800 000/00 RMK AO2 T01780167
03949KAQV AQV20190312225011603/12/19 22:50:31  5-MIN KAQV 130450Z AUTO 00000KT 8SM OVC024 18/17 A2998 320 93 800 000/00 RMK AO2 SLP151 T01830172
03949KAQV AQV20190312225511603/12/19 22:55:31  5-MIN KAQV 130455Z AUTO 00000KT 8SM OVC024 18/17 A2998 320 90 800 000/00 RMK AO2 SLP150 T01830167
03949KAQV AQV20190312230010903/12/19 23:00:31  5-MIN KAQV 130500Z AUTO 00000KT 7SM BKN024 18/17 A2997 330 93 800 000/00 RMK AO2 T01780167
03949KAQV AQV20190312230510903/12/19 23:05:31  5-MIN KAQV 130505Z AUTO VRB03KT 7SM BKN024 18/17 A2997 330 93 800 VRB/03 RMK AO2 T01780167
03949KAQV AQV20190312231010903/12/19 23:10:31  5-MIN KAQV 130510Z AUTO 15003KT 7SM BKN024 18/17 A2997 330 93 800 140/03 RMK AO2 T01780167
03949KAQV AQV20190312231511603/12/19 23:15:31  5-MIN KAQV 130515Z AUTO VRB04KT 7SM BKN021 BKN026 18/17 A2997 330 93 800 VRB/04 RMK AO2 T01780167
03949KAQV AQV20190312232012303/12/19 23:20:31  5-MIN KAQV 130520Z AUTO 00000KT 7SM SCT019 BKN026 BKN038 18/17 A2996 340 93 800 000/00 RMK AO2 T01780167
03949KAQV AQV20190312232512303/12/19 23:25:31  5-MIN KAQV 130525Z AUTO VRB03KT 7SM SCT019 BKN026 BKN038 18/17 A2995 340 93 800 VRB/03 RMK AO2 T01780167
03949KAQV AQV20190312233012603/12/19 23:30:31  5-MIN KAQV 130530Z AUTO VRB04KT 6SM BR FEW006 SCT021 BKN026 18/17 A2995 350 93 800 VRB/04 RMK AO2 T01780167
03949KAQV AQV20190312233512303/12/19 23:35:31  5-MIN KAQV 130535Z AUTO VRB04KT 7SM FEW006 SCT019 BKN039 18/17 A2995 350 93 800 VRB/04 RMK AO2 T01780167
03949KAQV AQV20190312234012303/12/19 23:40:31  5-MIN KAQV 130540Z AUTO VRB03KT 7SM SCT006 SCT019 BKN026 18/17 A2995 350 96 800 VRB/03 RMK AO2 T01780172
03949KAQV AQV20190312234512303/12/19 23:45:31  5-MIN KAQV 130545Z AUTO VRB04KT 7SM SCT006 BKN019 BKN026 18/17 A2995 350 93 800 VRB/04 RMK AO2 T01780167
03949KAQV AQV20190312235011303/12/19 23:50:31  5-MIN KAQV 130550Z AUTO VRB03KT 7SM BKN006 BKN027 BKN039 18/17 A2995 350 90 900 VRB/03 RMK AO2
03949KAQV AQV20190312235515103/12/19 23:55:31  5-MIN KAQV 130555Z AUTO VRB04KT 7SM BKN006 BKN039 18/17 A2995 350 93 900 VRB/04 RMK AO2 SLP139 T01830172 10206 20178 402170128 58021
03949KAQV AQV20190313000011603/13/19 00:00:31  5-MIN KAQV 130600Z AUTO 15005KT 7SM BKN006 OVC039 18/17 A2995 350 93 900 150/05 RMK AO2 T01830172
03949KAQV AQV20190313000510903/13/19 00:05:31  5-MIN KAQV 130605Z AUTO VRB05KT 8SM OVC006 18/17 A2995 350 93 900 VRB/05 RMK AO2 T01830172
03949KAQV AQV20190313001010903/13/19 00:10:31  5-MIN KAQV 130610Z AUTO VRB03KT 8SM OVC006 18/17 A2994 360 93 900 VRB/03 RMK AO2 T01830172
03949KAQV AQV20190313001510903/13/19 00:15:31  5-MIN KAQV 130615Z AUTO VRB05KT 8SM OVC006 18/17 A2993 360 93 900 VRB/05 RMK AO2 T01830172
03949KAQV AQV20190313002010903/13/19 00:20:31  5-MIN KAQV 130620Z AUTO VRB06KT 8SM OVC006 18/17 A2994 360 93 900 VRB/06 RMK AO2 T01830172
03949KAQV AQV20190313002510903/13/19 00:25:31  5-MIN KAQV 130625Z AUTO VRB04KT 8SM OVC006 18/17 A2993 370 93 900 VRB/04 RMK AO2 T01830172
03949KAQV AQV20190313003010903/13/19 00:30:31  5-MIN KAQV 130630Z AUTO VRB05KT 8SM OVC006 18/17 A2993 370 93 900 VRB/05 RMK AO2 T01830172
03949KAQV AQV20190313003510903/13/19 00:35:31  5-MIN KAQV 130635Z AUTO VRB06KT 8SM OVC006 18/17 A2992 380 93 900 VRB/06 RMK AO2 T01830172
03949KAQV AQV20190313004012503/13/19 00:40:31  5-MIN KAQV 130640Z AUTO 15008KT 120V180 8SM OVC006 18/17 A2992 380 93 900 150/08 120V180 RMK AO2 T01830172
03949KAQV AQV20190313004512503/13/19 00:45:31  5-MIN KAQV 130645Z AUTO 16008KT 110V190 8SM OVC007 18/17 A2991 380 93 900 150/08 110V190 RMK AO2 T01830172
03949KAQV AQV20190313005011603/13/19 00:50:31  5-MIN KAQV 130650Z AUTO VRB06KT 7SM OVC007 18/17 A2991 390 93 900 VRB/06 RMK AO2 SLP127 T01830172
03949KAQV AQV20190313005511603/13/19 00:55:31  5-MIN KAQV 130655Z AUTO VRB06KT 7SM OVC007 18/17 A2991 390 90 900 VRB/06 RMK AO2 SLP125 T01830167
03949KAQV AQV20190313010012203/13/19 01:00:31  5-MIN KAQV 130700Z AUTO VRB06G16KT 7SM OVC007 18/17 A2990 400 90 900 VRB/06G16 RMK AO2 PRESFR T01830167
03949KAQV AQV20190313010513103/13/19 01:05:31  5-MIN KAQV 130705Z AUTO 16007G16KT 110V200 7SM OVC007 18/17 A2989 400 90 900 160/07G16 110V200 RMK AO2 T01830167
03949KAQV AQV20190313011010903/13/19 01:10:31  5-MIN KAQV 130710Z AUTO VRB06KT 7SM OVC007 18/17 A2989 400 90 900 VRB/06 RMK AO2 T01830167
03949KAQV AQV20190313011510903/13/19 01:15:31  5-MIN KAQV 130715Z AUTO VRB06KT 7SM OVC007 18/17 A2989 410 90 900 VRB/06 RMK AO2 T01830167
03949KAQV AQV20190313012010903/13/19 01:20:31  5-MIN KAQV 130720Z AUTO 14006KT 7SM OVC007 18/17 A2988 410 90 900 140/06 RMK AO2 T01830167
03949KAQV AQV20190313012510903/13/19 01:25:31  5-MIN KAQV 130725Z AUTO 16005KT 7SM OVC007 18/17 A2988 410 90 900 160/05 RMK AO2 T01830167
03949KAQV AQV20190313013012503/13/19 01:30:31  5-MIN KAQV 130730Z AUTO 16007KT 100V190 7SM OVC007 18/17 A2988 420 90 900 150/07 100V190 RMK AO2 T01830167
03949KAQV AQV20190313013510903/13/19 01:35:31  5-MIN KAQV 130735Z AUTO 17007KT 7SM OVC007 18/17 A2987 420 90 900 170/07 RMK AO2 T01830167
03949KAQV AQV20190313014011003/13/19 01:40:31  5-MIN KAQV 130740Z AUTO 17007KT 7SM OVC007 18/17 A2987 420 90 1000 160/07 RMK AO2 T01830167
03949KAQV AQV20190313014512603/13/19 01:45:31  5-MIN KAQV 130745Z AUTO 15007KT 100V190 7SM OVC006 18/17 A2986 430 90 1000 150/07 100V190 RMK AO2 T01830167
03949KAQV AQV20190313015011703/13/19 01:50:31  5-MIN KAQV 130750Z AUTO VRB06KT 7SM OVC006 18/17 A2986 430 90 1000 VRB/06 RMK AO2 SLP109 T01830167
03949KAQV AQV20190313015513303/13/19 01:55:31  5-MIN KAQV 130755Z AUTO 15007KT 120V190 7SM OVC006 18/17 A2986 430 90 1000 150/07 120V190 RMK AO2 SLP109 T01830167
03949KAQV AQV20190313020013503/13/19 02:00:31  5-MIN KAQV 130800Z AUTO 16007G16KT 110V190 6SM BR OVC006 18/17 A2985 440 90 1000 150/07G16 110V190 RMK AO2 T01830167
03949KAQV AQV20190313020511903/13/19 02:05:31  5-MIN KAQV 130805Z AUTO VRB06G16KT 6SM BR OVC006 18/17 A2985 440 90 1000 VRB/06G16 RMK AO2 T01830167
03949KAQV AQV20190313021011303/13/19 02:10:31  5-MIN KAQV 130810Z AUTO 16006KT 6SM BR OVC006 18/17 A2985 440 90 1000 150/06 RMK AO2 T01830167
03949KAQV AQV20190313021512903/13/19 02:15:31  5-MIN KAQV 130815Z AUTO 16008KT 110V200 6SM BR OVC006 18/17 A2985 440 90 1000 160/08 110V200 RMK AO2 T01830167
03949KAQV AQV20190313022011003/13/19 02:20:31  5-MIN KAQV 130820Z AUTO 16008KT 7SM OVC006 18/17 A2984 450 90 1000 160/08 RMK AO2 T01830167
03949KAQV AQV20190313022511603/13/19 02:25:31  5-MIN KAQV 130825Z AUTO 16011G18KT 7SM OVC006 18/17 A2984 450 90 1000 160/11G18 RMK AO2 T01830167
03949KAQV AQV20190313023011903/13/19 02:30:31  5-MIN KAQV 130830Z AUTO 17012G24KT 5SM BR OVC006 18/17 A2984 450 90 1000 170/12G24 RMK AO2 T01830167
03949KAQV AQV20190313023514703/13/19 02:35:31  5-MIN KAQV 130835Z AUTO 16007G24KT 120V190 5SM BR OVC006 18/17 A2984 460 90 1000 160/07G24 120V190 RMK AO2 CIG 005V010 T01830167
03949KAQV AQV20190313024013403/13/19 02:40:31  5-MIN KAQV 130840Z AUTO 16009G18KT 120V190 5SM BR OVC006 18/17 A2983 460 93 900 160/09G18 120V190 RMK AO2 T01780167
03949KAQV AQV20190313024514603/13/19 02:45:31  5-MIN KAQV 130845Z AUTO 16009G17KT 120V200 4SM BR OVC006 18/17 A2983 460 93 900 160/09G17 120V200 RMK AO2 CIG 005V009 T01780167
03949KAQV AQV20190313025014303/13/19 02:50:31  5-MIN KAQV 130850Z AUTO 17007G16KT 4SM BR OVC006 18/17 A2983 460 93 900 160/07G16 RMK AO2 CIG 005V010 SLP099 T01780167 56018
03949KAQV AQV20190313025515303/13/19 02:55:31  5-MIN KAQV 130855Z AUTO 16008KT 130V190 4SM BR OVC006 18/17 A2982 470 93 900 160/08 130V190 RMK AO2 CIG 005V010 SLP096 T01780167 56018
03949KAQV AQV20190313030013103/13/19 03:00:31  5-MIN KAQV 130900Z AUTO 16009G16KT 6SM BR OVC006 18/17 A2981 480 93 1000 160/09G16 RMK AO2 CIG 005V012 T01780167
03949KAQV AQV20190313030512803/13/19 03:05:31  5-MIN KAQV 130905Z AUTO VRB06G18KT 9SM OVC006 18/17 A2981 480 93 1000 VRB/06G18 RMK AO2 CIG 005V009 T01780167
03949KAQV AQV20190313031013603/13/19 03:10:31  5-MIN KAQV 130910Z AUTO VRB06G18KT 10SM BKN007 OVC012 18/17 A2981 480 93 1000 VRB/06G18 RMK AO2 CIG 005V009 T01780167
03949KAQV AQV20190313031514603/13/19 03:15:31  5-MIN KAQV 130915Z AUTO 16007KT 110V200 10SM BKN007 OVC011 18/17 A2980 480 93 1000 160/07 110V200 RMK AO2 CIG 005V010 T01780167
03949KAQV AQV20190313032012903/13/19 03:20:31  5-MIN KAQV 130920Z AUTO 17009G16KT 10SM OVC009 18/17 A2981 480 90 1000 160/09G16 RMK AO2 CIG 006V013 T01830167
03949KAQV AQV20190313032512903/13/19 03:25:31  5-MIN KAQV 130925Z AUTO 16008G16KT 10SM OVC009 18/17 A2980 490 90 1000 160/08G16 RMK AO2 CIG 007V013 T01830167
03949KAQV AQV20190313033014503/13/19 03:30:31  5-MIN KAQV 130930Z AUTO 16009G19KT 120V190 10SM OVC009 18/17 A2980 490 90 1000 150/09G19 120V190 RMK AO2 CIG 007V012 T01830167
03949KAQV AQV20190313033514503/13/19 03:35:31  5-MIN KAQV 130935Z AUTO 16008G19KT 130V210 10SM OVC008 18/17 A2980 490 90 1000 160/08G19 130V210 RMK AO2 CIG 007V012 T01830167
03949KAQV AQV20190313034013303/13/19 03:40:31  5-MIN KAQV 130940Z AUTO 16007G15KT 090V210 10SM OVC008 18/17 A2980 490 90 1000 160/07G15 090V210 RMK AO2 T01830167
03949KAQV AQV20190313034512903/13/19 03:45:31  5-MIN KAQV 130945Z AUTO VRB06G16KT 10SM OVC008 18/17 A2980 490 90 1000 VRB/06G16 RMK AO2 CIG 007V013 T01830167
03949KAQV AQV20190313035015203/13/19 03:50:31  5-MIN KAQV 130950Z AUTO 15008G16KT 120V190 10SM OVC008 18/17 A2980 490 90 1000 150/08G16 120V190 RMK AO2 CIG 007V013 SLP088 T01830167
03949KAQV AQV20190313035515203/13/19 03:55:31  5-MIN KAQV 130955Z AUTO 15008G17KT 120V200 10SM OVC008 18/17 A2980 490 90 1000 150/08G17 120V200 RMK AO2 CIG 007V013 SLP088 T01830167
03949KAQV AQV20190313040014503/13/19 04:00:31  5-MIN KAQV 131000Z AUTO 16010G17KT 130V190 10SM OVC009 18/17 A2979 490 90 1000 160/10G17 130V190 RMK AO2 CIG 007V012 T01830167
03949KAQV AQV20190313040514503/13/19 04:05:31  5-MIN KAQV 131005Z AUTO 16009G17KT 120V200 10SM OVC009 18/17 A2979 500 90 1000 160/09G17 120V200 RMK AO2 CIG 007V012 T01830167
03949KAQV AQV20190313041012903/13/19 04:10:31  5-MIN KAQV 131010Z AUTO 16007G18KT 10SM OVC009 18/17 A2978 510 90 1100 160/07G18 RMK AO2 CIG 007V012 T01830167
03949KAQV AQV20190313041514503/13/19 04:15:31  5-MIN KAQV 131015Z AUTO 16007G18KT 120V220 10SM OVC009 18/17 A2978 510 90 1100 160/07G18 120V220 RMK AO2 CIG 007V014 T01830167
03949KAQV AQV20190313042014503/13/19 04:20:31  5-MIN KAQV 131020Z AUTO 16009G15KT 110V180 10SM OVC010 18/17 A2978 510 90 1100 150/09G15 110V180 RMK AO2 CIG 007V014 T01830167
03949KAQV AQV20190313042513603/13/19 04:25:31  5-MIN KAQV 131025Z AUTO 16009G15KT 10SM BKN010 OVC015 19/17 A2978 510 87 1100 150/09G15 RMK AO2 CIG 008V012 T01890167
03949KAQV AQV20190313043015203/13/19 04:30:31  5-MIN KAQV 131030Z AUTO 15008G17KT 110V180 10SM BKN010 OVC015 19/17 A2978 510 87 1100 150/08G17 110V180 RMK AO2 CIG 008V012 T01890167
03949KAQV AQV20190313043513303/13/19 04:35:31  5-MIN KAQV 131035Z AUTO 15007G17KT 110V190 10SM OVC012 19/17 A2978 510 87 1100 150/07G17 110V190 RMK AO2 T01890167
03949KAQV AQV20190313044013603/13/19 04:40:31  5-MIN KAQV 131040Z AUTO VRB06G17KT 10SM BKN010 OVC015 19/17 A2978 510 87 1100 VRB/06G17 RMK AO2 CIG 008V012 T01890167
03949KAQV AQV20190313044512403/13/19 04:45:31  5-MIN KAQV 131045Z AUTO VRB06G17KT 10SM BKN012 OVC017 19/17 A2977 510 87 1100 VRB/06G17 RMK AO2 T01890167
03949KAQV AQV20190313045014703/13/19 04:50:31  5-MIN KAQV 131050Z AUTO 15008G15KT 100V180 10SM BKN012 OVC017 19/17 A2977 520 87 1100 140/08G15 100V180 RMK AO2 SLP079 T01890167
03949KAQV AQV20190313045512403/13/19 04:55:31  5-MIN KAQV 131055Z AUTO VRB06G16KT 10SM OVC012 19/17 A2976 520 87 1100 VRB/06G16 RMK AO2 SLP077 T01890167
03949KAQV AQV20190313050011703/13/19 05:00:31  5-MIN KAQV 131100Z AUTO 16008G16KT 10SM OVC012 19/17 A2976 520 87 1100 160/08G16 RMK AO2 T01890167
03949KAQV AQV20190313050513303/13/19 05:05:31  5-MIN KAQV 131105Z AUTO 16008G18KT 120V190 10SM OVC014 19/17 A2977 520 87 1100 160/08G18 120V190 RMK AO2 T01890167
03949KAQV AQV20190313051011703/13/19 05:10:31  5-MIN KAQV 131110Z AUTO VRB06G18KT 10SM OVC014 19/17 A2977 510 87 1100 VRB/06G18 RMK AO2 T01890167
03949KAQV AQV20190313051512403/13/19 05:15:31  5-MIN KAQV 131115Z AUTO 16008G15KT 10SM BKN014 OVC018 19/17 A2977 510 87 1100 150/08G15 RMK AO2 T01890167
03949KAQV AQV20190313052014003/13/19 05:20:31  5-MIN KAQV 131120Z AUTO 16008G15KT 100V190 10SM BKN014 OVC021 19/17 A2978 510 84 1200 150/08G15 100V190 RMK AO2 T01940167
03949KAQV AQV20190313052512403/13/19 05:25:31  5-MIN KAQV 131125Z AUTO 16009G15KT 10SM BKN014 OVC021 19/17 A2978 500 84 1200 160/09G15 RMK AO2 T01940167
03949KAQV AQV20190313053014003/13/19 05:30:31  5-MIN KAQV 131130Z AUTO 17009G15KT 140V200 10SM BKN014 OVC021 19/17 A2979 500 84 1200 160/09G15 140V200 RMK AO2 T01940167
03949KAQV AQV20190313053513103/13/19 05:35:31  5-MIN KAQV 131135Z AUTO 17009G16KT 10SM BKN016 OVC023 19/17 A2979 490 84 1200 160/09G16 RMK AO2 PRESRR T01940167
03949KAQV AQV20190313054012403/13/19 05:40:31  5-MIN KAQV 131140Z AUTO 16008G16KT 10SM BKN016 OVC023 19/17 A2980 490 84 1200 150/08G16 RMK AO2 T01940167
03949KAQV AQV20190313054512403/13/19 05:45:31  5-MIN KAQV 131145Z AUTO VRB06G16KT 10SM BKN016 OVC025 19/17 A2980 490 84 1200 VRB/06G16 RMK AO2 T01940167
03949KAQV AQV20190313055014903/13/19 05:50:31  5-MIN KAQV 131150Z AUTO VRB06G15KT 10SM BKN016 OVC026 19/17 A2981 480 84 1200 VRB/06G15 RMK AO2 SLP092 T01940167 10194 20178 56043
03949KAQV AQV20190313055516503/13/19 05:55:31  5-MIN KAQV 131155Z AUTO 17007G15KT 140V210 10SM BKN016 OVC023 19/17 A2981 480 84 1200 160/07G15 140V210 RMK AO2 SLP092 T01940167 10194 20178 56043
03949KAQV AQV20190313060011103/13/19 06:00:31  5-MIN KAQV 131200Z AUTO 16007KT 10SM OVC018 19/17 A2981 480 84 1200 160/07 RMK AO2 T01940167
03949KAQV AQV20190313060512503/13/19 06:05:31  5-MIN KAQV 131205Z AUTO 17008KT 10SM BKN018 BKN024 OVC030 19/17 A2981 480 84 1200 170/08 RMK AO2 T01940167
03949KAQV AQV20190313061013103/13/19 06:10:31  5-MIN KAQV 131210Z AUTO VRB05G15KT 10SM BKN018 BKN024 OVC034 20/17 A2981 480 81 1200 VRB/05G15 RMK AO2 T02000167
03949KAQV AQV20190313061513103/13/19 06:15:31  5-MIN KAQV 131215Z AUTO VRB04G15KT 10SM SCT017 BKN021 OVC034 20/17 A2982 470 81 1200 VRB/04G15 RMK AO2 T02000167
03949KAQV AQV20190313062014103/13/19 06:20:31  5-MIN KAQV 131220Z AUTO 18007KT 160V220 10SM BKN017 BKN026 OVC032 20/17 A2982 470 81 1200 180/07 160V220 RMK AO2 T02000167
03949KAQV AQV20190313062512503/13/19 06:25:31  5-MIN KAQV 131225Z AUTO 17007KT 10SM BKN017 BKN026 OVC038 20/17 A2982 470 81 1200 170/07 RMK AO2 T02000167
03949KAQV AQV20190313063012503/13/19 06:30:31  5-MIN KAQV 131230Z AUTO VRB05KT 10SM SCT017 BKN023 OVC038 20/17 A2982 470 81 1200 VRB/05 RMK AO2 T02000167
03949KAQV AQV20190313063512503/13/19 06:35:31  5-MIN KAQV 131235Z AUTO 17006KT 10SM SCT017 BKN023 OVC038 20/17 A2982 470 81 1200 160/06 RMK AO2 T02000167
03949KAQV AQV20190313064012503/13/19 06:40:31  5-MIN KAQV 131240Z AUTO 17006KT 10SM SCT017 BKN025 OVC034 20/17 A2982 470 81 1200 160/06 RMK AO2 T02000167
03949KAQV AQV20190313064512503/13/19 06:45:31  5-MIN KAQV 131245Z AUTO 17008KT 10SM FEW017 BKN023 OVC040 20/17 A2982 470 81 1200 170/08 RMK AO2 T02000167
03949KAQV AQV20190313065013803/13/19 06:50:31  5-MIN KAQV 131250Z AUTO 17009G15KT 10SM BKN020 BKN028 OVC039 20/17 A2982 470 81 1200 170/09G15 RMK AO2 SLP096 T02000167
03949KAQV AQV20190313065515403/13/19 06:55:31  5-MIN KAQV 131255Z AUTO 17008G15KT 140V210 10SM BKN022 BKN029 OVC039 20/17 A2981 480 81 1200 170/08G15 140V210 RMK AO2 SLP094 T02000167
03949KAQV AQV20190313070013103/13/19 07:00:31  5-MIN KAQV 131300Z AUTO 18005G14KT 10SM BKN022 BKN034 OVC042 20/17 A2981 470 81 1200 180/05G14 RMK AO2 T02000167
03949KAQV AQV20190313070512503/13/19 07:05:31  5-MIN KAQV 131305Z AUTO VRB06KT 10SM BKN022 BKN026 OVC034 20/17 A2981 480 81 1200 VRB/06 RMK AO2 T02000167
03949KAQV AQV20190313071012503/13/19 07:10:31  5-MIN KAQV 131310Z AUTO 17006KT 10SM BKN020 BKN026 OVC040 20/17 A2981 480 81 1200 170/06 RMK AO2 T02000167
03949KAQV AQV20190313071512503/13/19 07:15:31  5-MIN KAQV 131315Z AUTO 17007KT 10SM BKN020 BKN026 OVC035 20/17 A2981 480 84 1200 170/07 RMK AO2 T02000172
03949KAQV AQV20190313072014103/13/19 07:20:31  5-MIN KAQV 131320Z AUTO 17007KT 130V200 10SM BKN020 BKN026 OVC035 20/17 A2982 470 84 1200 170/07 130V200 RMK AO2 T02000172
03949KAQV AQV20190313072514703/13/19 07:25:31  5-MIN KAQV 131325Z AUTO 18008G16KT 130V200 10SM BKN020 BKN035 OVC044 21/17 A2982 470 81 1300 170/08G16 130V200 RMK AO2 T02060172
03949KAQV AQV20190313073013103/13/19 07:30:31  5-MIN KAQV 131330Z AUTO 17006G16KT 10SM BKN020 BKN025 OVC037 21/17 A2982 470 81 1300 170/06G16 RMK AO2 T02060172
03949KAQV AQV20190313073512503/13/19 07:35:31  5-MIN KAQV 131335Z AUTO VRB06KT 10SM BKN020 BKN025 OVC044 21/17 A2982 470 81 1300 VRB/06 RMK AO2 T02060172
03949KAQV AQV20190313074014003/13/19 07:40:31  5-MIN KAQV 131340Z AUTO 17009G15KT 130V210 10SM BKN022 OVC044 21/17 A2983 460 81 1300 170/09G15 130V210 RMK AO2 T02060172
03949KAQV AQV20190313074514703/13/19 07:45:31  5-MIN KAQV 131345Z AUTO 18007G15KT 150V230 10SM BKN020 BKN025 OVC044 21/17 A2983 460 81 1300 180/07G15 150V230 RMK AO2 T02060172
03949KAQV AQV20190313075012503/13/19 07:50:31  5-MIN KAQV 131350Z AUTO 17005KT 10SM BKN020 OVC044 21/17 A2983 460 81 1300 170/05 RMK AO2 SLP099 T02060172
03949KAQV AQV20190313075512403/13/19 07:55:31  5-MIN KAQV 131355Z AUTO 18010G19KT 10SM OVC022 21/17 A2983 460 78 1300 170/10G19 RMK AO2 SLP098 T02110172
03949KAQV AQV20190313080012303/13/19 08:00:31  5-MIN KAQV 131400Z AUTO 18010G19KT 9SM BKN022 OVC044 21/17 A2983 460 78 1300 170/10G19 RMK AO2 T02110172
03949KAQV AQV20190313080514603/13/19 08:05:31  5-MIN KAQV 131405Z AUTO 18007G17KT 130V220 8SM BKN022 BKN026 OVC045 21/17 A2983 460 78 1300 170/07G17 130V220 RMK AO2 T02110172
03949KAQV AQV20190313081013903/13/19 08:10:31  5-MIN KAQV 131410Z AUTO 17007G15KT 150V230 9SM BKN022 OVC028 21/17 A2982 470 78 1300 170/07G15 150V230 RMK AO2 T02110172
03949KAQV AQV20190313081512303/13/19 08:15:31  5-MIN KAQV 131415Z AUTO 17008G16KT 9SM BKN022 OVC028 21/17 A2982 470 78 1300 170/08G16 RMK AO2 T02110172
03949KAQV AQV20190313082014603/13/19 08:20:31  5-MIN KAQV 131420Z AUTO 17007G16KT 100V210 8SM SCT019 BKN025 OVC036 21/17 A2982 470 78 1300 160/07G16 100V210 RMK AO2 T02110172
03949KAQV AQV20190313082514603/13/19 08:25:31  5-MIN KAQV 131425Z AUTO 17009G17KT 140V200 8SM SCT019 BKN024 OVC041 22/17 A2982 470 75 1400 170/09G17 140V200 RMK AO2 T02170172
03949KAQV AQV20190313083013003/13/19 08:30:31  5-MIN KAQV 131430Z AUTO 18011G18KT 8SM FEW019 BKN026 OVC045 22/17 A2983 460 75 1400 170/11G18 RMK AO2 T02170172
03949KAQV AQV20190313083513003/13/19 08:35:31  5-MIN KAQV 131435Z AUTO VRB06G18KT 9SM BKN023 BKN028 BKN042 22/17 A2982 470 75 1400 VRB/06G18 RMK AO2 T02170172
03949KAQV AQV20190313084012303/13/19 08:40:31  5-MIN KAQV 131440Z AUTO 17009G18KT 8SM BKN023 OVC042 22/17 A2982 470 73 1500 170/09G18 RMK AO2 T02220172
03949KAQV AQV20190313084513903/13/19 08:45:31  5-MIN KAQV 131445Z AUTO 18010G18KT 140V210 7SM BKN023 OVC042 22/17 A2983 460 73 1500 170/10G18 140V210 RMK AO2 T02220172
03949KAQV AQV20190313085015203/13/19 08:50:31  5-MIN KAQV 131450Z AUTO 18010G21KT 140V210 7SM BKN023 OVC027 22/17 A2983 460 73 1400 170/10G21 140V210 RMK AO2 SLP098 T02220172 55003
03949KAQV AQV20190313085514803/13/19 08:55:31  5-MIN KAQV 131455Z AUTO 18009G21KT 150V220 6SM HZ OVC024 23/17 A2983 460 70 1500 170/09G21 150V220 RMK AO2 SLP099 T02280172 55003
03949KAQV AQV20190313090014203/13/19 09:00:31  5-MIN KAQV 131500Z AUTO 17010G20KT 140V200 5SM HZ BKN022 OVC028 22/17 A2983 460 73 1400 170/10G20 140V200 RMK AO2 T02220172
03949KAQV AQV20190313090514903/13/19 09:05:31  5-MIN KAQV 131505Z AUTO 17011G20KT 150V210 6SM HZ BKN022 BKN028 OVC041 22/17 A2983 460 73 1400 170/11G20 150V210 RMK AO2 T02220172
03949KAQV AQV20190313091014603/13/19 09:10:31  5-MIN KAQV 131510Z AUTO 17013G23KT 140V210 8SM SCT020 BKN026 OVC034 23/17 A2983 460 70 1500 160/13G23 140V210 RMK AO2 T02280172
03949KAQV AQV20190313091514603/13/19 09:15:31  5-MIN KAQV 131515Z AUTO 17010G23KT 130V200 8SM BKN024 BKN028 OVC034 23/17 A2983 460 70 1500 170/10G23 130V200 RMK AO2 T02280172
03949KAQV AQV20190313092014603/13/19 09:20:31  5-MIN KAQV 131520Z AUTO 18011G22KT 150V250 8SM BKN024 BKN028 OVC034 23/17 A2983 460 70 1500 180/11G22 150V250 RMK AO2 T02280172
03949KAQV AQV20190313092514603/13/19 09:25:31  5-MIN KAQV 131525Z AUTO 17009G22KT 130V200 9SM BKN023 BKN028 OVC042 22/17 A2983 460 73 1400 170/09G22 130V200 RMK AO2 T02220172
03949KAQV AQV20190313093014603/13/19 09:30:31  5-MIN KAQV 131530Z AUTO 18010G22KT 150V220 9SM SCT023 BKN030 OVC042 23/17 A2984 450 70 1500 180/10G22 150V220 RMK AO2 T02280172
03949KAQV AQV20190313093513103/13/19 09:35:31  5-MIN KAQV 131535Z AUTO 18008G21KT 10SM BKN023 BKN034 OVC042 23/17 A2984 450 70 1500 170/08G21 RMK AO2 T02280172
03949KAQV AQV20190313094013103/13/19 09:40:31  5-MIN KAQV 131540Z AUTO 18007G21KT 10SM SCT023 BKN028 OVC038 23/17 A2984 450 70 1500 170/07G21 RMK AO2 T02280172
03949KAQV AQV20190313094513103/13/19 09:45:31  5-MIN KAQV 131545Z AUTO 19007G16KT 10SM SCT023 BKN030 OVC040 23/17 A2984 460 70 1500 180/07G16 RMK AO2 T02280172
03949KAQV AQV20190313095013703/13/19 09:50:31  5-MIN KAQV 131550Z AUTO 18011G20KT 140V230 10SM FEW023 BKN030 OVC038 23/18 A2983 460 70 1600 170/11G20 140V230 RMK AO2
03949KAQV AQV20190313095513803/13/19 09:55:31  5-MIN KAQV 131555Z AUTO VRB06G21KT 10SM SCT025 BKN030 OVC038 23/17 A2983 460 68 1600 VRB/06G21 RMK AO2 SLP100 T02330172
03949KAQV AQV20190313100014003/13/19 10:00:31  5-MIN KAQV 131600Z AUTO 18007G21KT 120V210 10SM BKN027 OVC038 23/18 A2983 460 70 1600 170/07G21 120V210 RMK AO2 T02330178
03949KAQV AQV20190313100514003/13/19 10:05:31  5-MIN KAQV 131605Z AUTO 19011G16KT 170V240 10SM BKN029 OVC038 23/18 A2983 460 70 1600 190/11G16 170V240 RMK AO2 T02330178
03949KAQV AQV20190313101014003/13/19 10:10:31  5-MIN KAQV 131610Z AUTO 17007G20KT 130V200 10SM BKN029 OVC038 23/18 A2984 450 70 1600 160/07G20 130V200 RMK AO2 T02330178
03949KAQV AQV20190313101514703/13/19 10:15:31  5-MIN KAQV 131615Z AUTO 18012G22KT 120V210 10SM SCT025 BKN031 OVC047 24/18 A2983 460 68 1600 170/12G22 120V210 RMK AO2 T02390178
03949KAQV AQV20190313102014603/13/19 10:20:31  5-MIN KAQV 131620Z AUTO 18009G22KT 150V250 9SM BKN028 BKN032 OVC049 23/18 A2983 460 70 1600 180/09G22 150V250 RMK AO2 T02330178
03949KAQV AQV20190313102514003/13/19 10:25:31  5-MIN KAQV 131625Z AUTO 18010G20KT 150V210 10SM BKN028 OVC037 23/18 A2983 460 70 1600 180/10G20 150V210 RMK AO2 T02330178
03949KAQV AQV20190313103014003/13/19 10:30:31  5-MIN KAQV 131630Z AUTO 18007G19KT 130V230 10SM BKN028 OVC037 23/18 A2983 460 70 1600 180/07G19 130V230 RMK AO2 T02330178
03949KAQV AQV20190313103514203/13/19 10:35:31  5-MIN KAQV 131635Z AUTO 18009G16KT 150V220 10SM BKN028 OVC037 23/18 A2983 460 70 1600 180/09G16 150V220 RMK AO2 T T02390194
03949KAQV AQV20190313151514103/13/19 15:15:31  5-MIN KAQV 132115Z AUTO 17012G29KT 9SM BKN021 OVC030 24/19 A2965 630 76 1800 170/12G29 RMK AO2 PK WND 14029/2107 T02390194
03949KAQV AQV20190313152014203/13/19 15:20:31  5-MIN KAQV 132120Z AUTO 17010G20KT 10SM BKN019 OVC024 24/19 A2965 620 76 1800 170/10G20 RMK AO2 PK WND 14029/2107 T02390194
03949KAQV AQV20190313152515803/13/19 15:25:31  5-MIN KAQV 132125Z AUTO 17014G26KT 140V210 10SM BKN021 OVC029 24/19 A2965 630 76 1800 170/14G26 140V210 RMK AO2 PK WND 14029/2107 T02390194
03949KAQV AQV20190313153015803/13/19 15:30:31  5-MIN KAQV 132130Z AUTO 17011G32KT 130V190 10SM BKN021 OVC029 24/19 A2965 630 76 1800 170/11G32 130V190 RMK AO2 PK WND 17032/2126 T02390194
03949KAQV AQV20190313153515803/13/19 15:35:31  5-MIN KAQV 132135Z AUTO 17008G32KT 110V190 10SM BKN021 OVC027 24/19 A2964 630 76 1800 170/08G32 110V190 RMK AO2 PK WND 17032/2126 T02390194
03949KAQV AQV20190313154015803/13/19 15:40:31  5-MIN KAQV 132140Z AUTO 17007G25KT 130V200 10SM BKN021 OVC027 24/19 A2964 630 76 1900 170/07G25 130V200 RMK AO2 PK WND 17032/2126 T02390194
03949KAQV AQV20190313154511803/13/19 15:45:31  5-MIN KAQV 132145Z AUTOSM BKN021 OVC029 24/19 A2964 640 73 1900 170/09G27 130V210 RMK AO2 T02390189
03949KAQV AQV20190313154515803/13/19 15:45:31  5-MIN KAQV 132145Z AUTO 19009G25KT 150V240 10SM BKN023 OVC029 24/19 A2964 640 76 1900 180/09G25 150V240 RMK AO2 PK WND 17032/2126 T02390194
03949KAQV AQV20190313155016503/13/19 15:50:31  5-MIN KAQV 132150Z AUTO 16010G23KT 110V190 10SM BKN023 OVC029 24/19 A2963 640 76 1900 160/10G23 110V190 RMK AO2 PK WND 17032/2126 SLP032 T02390194
03949KAQV AQV20190313155514903/13/19 15:55:31  5-MIN KAQV 132155Z AUTO 17011G27KT 10SM BKN021 OVC029 24/19 A2964 640 73 1900 160/11G27 RMK AO2 PK WND 17032/2126 SLP032 T02390189
03949KAQV AQV20190313160014003/13/19 16:00:31  5-MIN KAQV 132200Z AUTO 18009G27KT 130V210 10SM BKN021 OVC029 24/19 A2964 640 73 1900 170/09G27 130V210 RMK AO2 T02390189
03949KAQV AQV20190313160515703/13/19 16:05:31  5-MIN KAQV 132205Z AUTO 18012G26KT 140V210 9SM BKN024 OVC028 24/19 A2964 640 73 1900 180/12G26 140V210 RMK AO2 PK WND 20026/2202 T02390189
03949KAQV AQV20190313161013403/13/19 16:10:31  5-MIN KAQV 132210Z AUTO 18013G27KT 9SM OVC024 24/19 A2964 640 73 1900 180/13G27 RMK AO2 PK WND 17027/2206 T02390189
03949KAQV AQV20190313161017603/13/19 16:10:31  5-MIN KAQV 132210Z AUTO 18013G27KT 9SM OVC024 24/19 A2964 640 73 1900 180/13G27 KT 10SM BKN021 OVC029 24/19 A2964 640 73 1900 160/11GETE, 144 5MIN(S) LISTED.
03949KAQV AQV20190313161515003/13/19 16:15:31  5-MIN KAQV 132215Z AUTO 17009G27KT 080V230 9SM OVC024 24/19 A2964 630 73 1800 160/09G27 080V230 RMK AO2 PK WND 17027/2206 T02390189
03949KAQV AQV20190313162015103/13/19 16:20:31  5-MIN KAQV 132220Z AUTO 19011G18KT 150V240 10SM OVC026 24/19 A2964 630 73 1900 190/11G18 150V240 RMK AO2 PK WND 17027/2206 T02390189
03949KAQV AQV20190313162514203/13/19 16:25:31  5-MIN KAQV 132225Z AUTO 18012G28KT 10SM BKN024 OVC030 24/19 A2965 630 73 1800 180/12G28 RMK AO2 PK WND 17028/2222 T02390189
03949KAQV AQV20190313163014103/13/19 16:30:31  5-MIN KAQV 132230Z AUTO 17013G28KT 9SM BKN026 OVC032 24/19 A2965 630 73 1800 170/13G28 RMK AO2 PK WND 17028/2222 T02390189
03949KAQV AQV20190313163515003/13/19 16:35:31  5-MIN KAQV 132235Z AUTO 17009G24KT 130V210 9SM OVC026 24/19 A2965 630 73 1800 170/09G24 130V210 RMK AO2 PK WND 17028/2222 T02390189
03949KAQV AQV20190313164016603/13/19 16:40:31  5-MIN KAQV 132240Z AUTO 19011G20KT 130V220 9SM -RA OVC026 24/19 A2965 630 73 1800 180/11G20 130V220 RMK AO2 PK WND 17028/2222 RAB39 P0000 T02390189
03949KAQV AQV20190313164515803/13/19 16:45:31  5-MIN KAQV 132245Z AUTO 17009G20KT 10SM -RA BKN024 OVC030 24/19 A2965 630 73 1800 170/09G20 RMK AO2 PK WND 17028/2222 RAB39 P0000 T02390189
03949KAQV AQV20190313165017203/13/19 16:50:31  5-MIN KAQV 132250Z AUTO 18011G31KT 140V240 9SM OVC026 24/19 A2965 630 73 1800 180/11G31 140V240 RMK AO2 PK WND 17031/2248 RAB39E48 SLP038 P0000 T02390189
03949KAQV AQV20190313165517303/13/19 16:55:31  5-MIN KAQV 132255Z AUTO 18013G31KT 140V230 7SM -RA OVC026 23/19 A2965 620 76 1800 180/13G31 140V230 RMK AO2 PK WND 17031/2248 RAB39 SLP038 P0000 T02330189
03949KAQV AQV20190313170014403/13/19 17:00:31  5-MIN KAQV 132300Z AUTO 18011G26KT 150V220 8SM OVC026 23/19 A2966 620 76 1800 180/11G26 150V220 RMK AO2 RAE00 P0000 T02330189
03949KAQV AQV20190313170514603/13/19 17:05:31  5-MIN KAQV 132305Z AUTO 18015G26KT 8SM OVC025 23/19 A2966 620 76 1800 180/15G26 RMK AO2 PK WND 18026/2303 RAE00 P0000 T02330189
03949KAQV AQV20190313171016203/13/19 17:10:31  5-MIN KAQV 132310Z AUTO 19008G26KT 170V230 8SM OVC025 23/19 A2966 620 76 1800 190/08G26 170V230 RMK AO2 PK WND 18026/2303 RAE00 P0000 T02330189
03949KAQV AQV20190313171514403/13/19 17:15:31  5-MIN KAQV 132315Z AUTO 18007G24KT 8SM -RA OVC023 23/19 A2966 610 76 1800 180/07G24 RMK AO2 PK WND 18026/2303 P0000 T02330189
03949KAQV AQV20190313172016003/13/19 17:20:31  5-MIN KAQV 132320Z AUTO 19011G21KT 170V240 7SM -RA OVC023 23/19 A2967 610 81 1700 180/11G21 170V240 RMK AO2 PK WND 18026/2303 P0000 T02280194
03949KAQV AQV20190313172516003/13/19 17:25:31  5-MIN KAQV 132325Z AUTO 18007G21KT 140V230 4SM -RA OVC023 23/19 A2967 610 81 1700 170/07G21 140V230 RMK AO2 PK WND 18026/2303 P0001 T02280194
03949KAQV AQV20190313173016703/13/19 17:30:31  5-MIN KAQV 132330Z AUTO 18011G19KT 150V210 5SM -RA BKN021 OVC027 22/19 A2967 610 84 1600 170/11G19 150V210 RMK AO2 PK WND 18026/2303 P0001 T02220194
03949KAQV AQV20190313173516903/13/19 17:35:31  5-MIN KAQV 132335Z AUTO 18009G19KT 090V240 8SM BKN021 OVC027 22/19 A2967 610 84 1600 180/09G19 090V240 RMK AO2 PK WND 18026/2303 RAE34 P0001 T02220194
03949KAQV AQV20190313174016203/13/19 17:40:31  5-MIN KAQV 132340Z AUTO 18009G19KT 150V230 9SM OVC021 22/19 A2967 610 84 1600 180/09G19 150V230 RMK AO2 PK WND 18026/2303 RAE34 P0001 T02220194
03949KAQV AQV20190313174514603/13/19 17:45:31  5-MIN KAQV 132345Z AUTO 18008G19KT 9SM OVC021 23/19 A2967 610 81 1700 170/08G19 RMK AO2 PK WND 18026/2303 RAE34 P0001 T02280194
03949KAQV AQV20190313175017703/13/19 17:50:31  5-MIN KAQV 132350Z AUTO 17012G22KT 9SM OVC021 23/19 A2967 610 81 1700 170/12G22 RMK AO2 PK WND 18026/2303 RAE34 SLP043 P0001 60001 T02280194 10239 20222 56041
03949KAQV AQV20190313175518403/13/19 17:55:31  5-MIN KAQV 132355Z AUTO 17008G22KT 7SM -RA OVC021 22/19 A2967 600 84 1600 160/08G22 RMK AO2 PK WND 18026/2303 RAE34B51 SLP045 P0001 60001 T02220194 10239 20222 56041
03949KAQV AQV20190313180012603/13/19 18:00:31  5-MIN KAQV 140000Z AUTO 16010G22KT 7SM -RA OVC021 22/19 A2967 610 84 1600 160/10G22 RMK AO2 P0000 T02220194
03949KAQV AQV20190313180514503/13/19 18:05:31  5-MIN KAQV 140005Z AUTO 17009G22KT 120V210 10SM OVC021 23/19 A2967 610 81 1700 170/09G22 120V210 RMK AO2 RAE01 P0000 T02280194
03949KAQV AQV20190313181014503/13/19 18:10:31  5-MIN KAQV 140010Z AUTO 17010G22KT 130V200 10SM OVC021 23/19 A2967 610 81 1700 170/10G22 130V200 RMK AO2 RAE01 P0000 T02280194
03949KAQV AQV20190313181512903/13/19 18:15:31  5-MIN KAQV 140015Z AUTO 18009G20KT 10SM OVC021 23/19 A2968 600 81 1700 180/09G20 RMK AO2 RAE01 P0000 T02280194
03949KAQV AQV20190313182014503/13/19 18:20:31  5-MIN KAQV 140020Z AUTO 18009G20KT 130V200 10SM OVC021 23/19 A2968 600 81 1700 180/09G20 130V200 RMK AO2 RAE01 P0000 T02280194
03949KAQV AQV20190313182514503/13/19 18:25:31  5-MIN KAQV 140025Z AUTO 18007G18KT 140V210 10SM OVC021 23/19 A2969 590 81 1700 180/07G18 140V210 RMK AO2 RAE01 P0000 T02280194
03949KAQV AQV20190313183013503/13/19 18:30:31  5-MIN KAQV 140030Z AUTO 18008G17KT 9SM -RA OVC019 22/19 A2969 590 84 1600 170/08G17 RMK AO2 RAE01B28 P0000 T02220194
03949KAQV AQV20190313183515203/13/19 18:35:31  5-MIN KAQV 140035Z AUTO 17011G18KT 130V190 10SM -RA OVC019 22/19 A2969 590 84 1600 160/11G18 130V190 RMK AO2 RAE01B28 P0000 T02220194
03949KAQV AQV20190313184013603/13/19 18:40:31  5-MIN KAQV 140040Z AUTO 17008G19KT 10SM -RA OVC018 23/19 A2968 590 81 1700 160/08G19 RMK AO2 RAE01B28 P0000 T02280194
03949KAQV AQV20190313184513503/13/19 18:45:31  5-MIN KAQV 140045Z AUTO VRB05G20KT 9SM -RA OVC018 22/19 A2969 590 84 1600 VRB/05G20 RMK AO2 RAE01B28 P0000 T02220194
03949KAQV AQV20190313185014203/13/19 18:50:31  5-MIN KAQV 140050Z AUTO 17009G20KT 8SM -RA OVC018 22/20 A2969 590 87 1600 170/09G20 RMK AO2 RAE01B28 SLP051 P0000 T02220200
03949KAQV AQV20190313185515803/13/19 18:55:31  5-MIN KAQV 140055Z AUTO 19008G16KT 160V240 9SM -RA OVC018 22/20 A2969 590 87 1600 180/08G16 160V240 RMK AO2 RAE01B28 SLP052 P0000 T02220200
03949KAQV AQV20190313190014703/13/19 19:00:31  5-MIN KAQV 140100Z AUTO 18007G17KT 160V220 10SM OVC018 22/20 A2969 590 87 1600 180/07G17 160V220 RMK AO2 RAE0057 P0000 T02220200
03949KAQV AQV20190313190513103/13/19 19:05:31  5-MIN KAQV 140105Z AUTO 18008G17KT 10SM OVC018 22/20 A2970 580 87 1600 170/08G17 RMK AO2 RAE0057 P0000 T02220200
03949KAQV AQV20190313191012503/13/19 19:10:31  5-MIN KAQV 140110Z AUTO 18007KT 10SM OVC018 22/20 A2970 580 87 1600 180/07 RMK AO2 RAE0057 P0000 T02220200
03949KAQV AQV20190313191513103/13/19 19:15:31  5-MIN KAQV 140115Z AUTO 18011G18KT 10SM OVC018 22/20 A2970 580 87 1600 170/11G18 RMK AO2 RAE0057 P0000 T02220200
03949KAQV AQV20190313192014703/13/19 19:20:31  5-MIN KAQV 140120Z AUTO 19008G20KT 150V240 10SM OVC018 23/19 A2970 580 81 1700 180/08G20 150V240 RMK AO2 RAE0057 P0000 T02280194
03949KAQV AQV20190313192514703/13/19 19:25:31  5-MIN KAQV 140125Z AUTO 19008G20KT 170V300 10SM OVC018 23/19 A2971 570 81 1600 190/08G20 170V300 RMK AO2 RAE0057 P0000 T02280194
03949KAQV AQV20190313193014703/13/19 19:30:31  5-MIN KAQV 140130Z AUTO 17007G21KT 120V200 10SM OVC018 23/19 A2971 570 81 1600 170/07G21 120V200 RMK AO2 RAE0057 P0000 T02280194
03949KAQV AQV20190313193513103/13/19 19:35:31  5-MIN KAQV 140135Z AUTO 17009G21KT 10SM OVC018 23/19 A2971 580 81 1700 170/09G21 RMK AO2 RAE0057 P0000 T02280194
03949KAQV AQV20190313194013103/13/19 19:40:31  5-MIN KAQV 140140Z AUTO 18010G17KT 10SM OVC019 23/19 A2971 570 81 1600 180/10G17 RMK AO2 RAE0057 P0000 T02280194
03949KAQV AQV20190313194514703/13/19 19:45:31  5-MIN KAQV 140145Z AUTO 19009G18KT 150V220 10SM OVC019 23/19 A2971 570 81 1600 190/09G18 150V220 RMK AO2 RAE0057 P0000 T02280194
03949KAQV AQV20190313195015403/13/19 19:50:31  5-MIN KAQV 140150Z AUTO 18008G18KT 150V220 10SM OVC019 23/19 A2971 570 81 1600 180/08G18 150V220 RMK AO2 RAE0057 SLP058 P0000 T02280194
03949KAQV AQV20190313195515403/13/19 19:55:31  5-MIN KAQV 140155Z AUTO 18009G16KT 140V210 10SM OVC019 23/19 A2971 570 81 1600 180/09G16 140V210 RMK AO2 RAE0057 SLP059 P0000 T02280194
03949KAQV AQV20190313200011703/13/19 20:00:31  5-MIN KAQV 140200Z AUTO 18007G16KT 10SM OVC019 23/19 A2972 570 81 1600 180/07G16 RMK AO2 T02280194
03949KAQV AQV20190313200514003/13/19 20:05:31  5-MIN KAQV 140205Z AUTO 19008G16KT 150V230 10SM BKN018 OVC025 23/19 A2971 570 81 1600 180/08G16 150V230 RMK AO2 T02280194
03949KAQV AQV20190313201011703/13/19 20:10:31  5-MIN KAQV 140210Z AUTO VRB05G17KT 10SM OVC018 23/19 A2972 560 81 1600 VRB/05G17 RMK AO2 T02280194
03949KAQV AQV20190313201511703/13/19 20:15:31  5-MIN KAQV 140215Z AUTO 18013G18KT 10SM OVC018 23/19 A2972 560 81 1600 170/13G18 RMK AO2 T02280194
03949KAQV AQV20190313202013303/13/19 20:20:31  5-MIN KAQV 140220Z AUTO 18010G21KT 150V210 10SM OVC018 23/19 A2972 560 81 1600 170/10G21 150V210 RMK AO2 T02280194
03949KAQV AQV20190313202511703/13/19 20:25:31  5-MIN KAQV 140225Z AUTO 18010G21KT 10SM OVC019 23/19 A2972 560 81 1600 180/10G21 RMK AO2 T02280194
03949KAQV AQV20190313203011703/13/19 20:30:31  5-MIN KAQV 140230Z AUTO 19008G15KT 10SM OVC019 23/19 A2973 560 81 1600 180/08G15 RMK AO2 T02280194
03949KAQV AQV20190313203513303/13/19 20:35:31  5-MIN KAQV 140235Z AUTO 19008G16KT 110V230 10SM OVC019 23/19 A2973 550 81 1600 180/08G16 110V230 RMK AO2 T02280194
03949KAQV AQV20190313204011703/13/19 20:40:31  5-MIN KAQV 140240Z AUTO VRB06G17KT 10SM OVC019 23/19 A2973 550 81 1600 VRB/06G17 RMK AO2 T02280194
03949KAQV AQV20190313204514003/13/19 20:45:31  5-MIN KAQV 140245Z AUTO 18010G18KT 150V210 10SM BKN019 OVC025 23/19 A2973 550 81 1600 180/10G18 150V210 RMK AO2 T02280194
03949KAQV AQV20190313205016603/13/19 20:50:31  5-MIN KAQV 140250Z AUTO 18010G18KT 150V210 10SM BKN019 BKN023 OVC028 23/19 A2973 550 78 1700 180/10G18 150V210 RMK AO2 SLP064 60000 T02330194 53003
03949KAQV AQV20190313205515903/13/19 20:55:31  5-MIN KAQV 140255Z AUTO 17008G17KT 150V220 10SM BKN019 OVC025 23/19 A2973 550 81 1600 170/08G17 150V220 RMK AO2 SLP065 60000 T02280194 53003
03949KAQV AQV20190313210012403/13/19 21:00:31  5-MIN KAQV 140300Z AUTO 18009G17KT 10SM BKN019 OVC028 23/19 A2973 550 78 1700 170/09G17 RMK AO2 T02330194
03949KAQV AQV20190313210513303/13/19 21:05:31  5-MIN KAQV 140305Z AUTO 18007G21KT 120V230 10SM OVC021 23/19 A2973 550 78 1700 170/07G21 120V230 RMK AO2 T02330194
03949KAQV AQV20190313211014003/13/19 21:10:31  5-MIN KAQV 140310Z AUTO 19008G21KT 160V250 10SM BKN021 OVC028 23/19 A2973 550 78 1700 180/08G21 160V250 RMK AO2 T02330194
03949KAQV AQV20190313211512403/13/19 21:15:31  5-MIN KAQV 140315Z AUTO 19009G18KT 10SM BKN019 OVC024 23/19 A2974 550 81 1600 180/09G18 RMK AO2 T02280194
03949KAQV AQV20190313212012403/13/19 21:20:31  5-MIN KAQV 140320Z AUTO 17010G19KT 10SM BKN019 OVC024 23/19 A2974 540 78 1700 170/10G19 RMK AO2 T02330194
03949KAQV AQV20190313212513303/13/19 21:25:31  5-MIN KAQV 140325Z AUTO 19007G19KT 160V240 10SM OVC019 23/19 A2974 540 81 1600 180/07G19 160V240 RMK AO2 T02280194
03949KAQV AQV20190313213014003/13/19 21:30:31  5-MIN KAQV 140330Z AUTO 18009G18KT 150V240 10SM BKN018 OVC024 23/19 A2975 540 81 1600 180/09G18 150V240 RMK AO2 T02280194
03949KAQV AQV20190313213513303/13/19 21:35:31  5-MIN KAQV 140335Z AUTO 18009G18KT 150V230 10SM OVC018 23/19 A2975 540 78 1700 180/09G18 150V230 RMK AO2 T02330194
03949KAQV AQV20190313214011703/13/19 21:40:31  5-MIN KAQV 140340Z AUTO 18011G18KT 10SM OVC018 23/19 A2975 540 78 1700 180/11G18 RMK AO2 T02330194
03949KAQV AQV20190313214511703/13/19 21:45:31  5-MIN KAQV 140345Z AUTO 18010G18KT 10SM OVC018 23/19 A2975 540 78 1700 180/10G18 RMK AO2 T02330194
03949KAQV AQV20190313215014003/13/19 21:50:31  5-MIN KAQV 140350Z AUTO 18009G18KT 160V230 10SM OVC018 23/19 A2975 530 78 1700 180/09G18 160V230 RMK AO2 SLP071 T02330194
03949KAQV AQV20190313215514003/13/19 21:55:31  5-MIN KAQV 140355Z AUTO 17011G19KT 140V200 10SM OVC018 23/19 A2975 530 78 1700 170/11G19 140V200 RMK AO2 SLP072 T02330194
03949KAQV AQV20190313220013303/13/19 22:00:31  5-MIN KAQV 140400Z AUTO 18009G19KT 160V220 10SM OVC018 23/19 A2976 530 78 1700 180/09G19 160V220 RMK AO2 T02330194
03949KAQV AQV20190313220513303/13/19 22:05:31  5-MIN KAQV 140405Z AUTO 18009G18KT 150V210 10SM OVC018 23/19 A2976 530 78 1700 170/09G18 150V210 RMK AO2 T02330194
03949KAQV AQV20190313221013303/13/19 22:10:31  5-MIN KAQV 140410Z AUTO 19009G18KT 150V250 10SM OVC018 23/19 A2976 530 78 1700 180/09G18 150V250 RMK AO2 T02330194
03949KAQV AQV20190313221514003/13/19 22:15:31  5-MIN KAQV 140415Z AUTO 18011G20KT 130V230 10SM BKN020 OVC024 23/19 A2976 520 78 1700 180/11G20 130V230 RMK AO2 T02330194
03949KAQV AQV20190313222014003/13/19 22:20:31  5-MIN KAQV 140420Z AUTO 19007G20KT 160V250 10SM BKN019 OVC023 23/19 A2976 520 78 1600 190/07G20 160V250 RMK AO2 T02330194
03949KAQV AQV20190313222514003/13/19 22:25:31  5-MIN KAQV 140425Z AUTO 18007G16KT 140V200 10SM BKN019 OVC023 23/19 A2976 520 78 1600 170/07G16 140V200 RMK AO2 T02330194
03949KAQV AQV20190313223012403/13/19 22:30:31  5-MIN KAQV 140430Z AUTO 17008G16KT 10SM BKN019 OVC024 23/19 A2976 520 78 1600 170/08G16 RMK AO2 T02330194
03949KAQV AQV20190313223514003/13/19 22:35:31  5-MIN KAQV 140435Z AUTO 19008G16KT 150V240 10SM BKN019 OVC026 23/19 A2977 520 78 1600 180/08G16 150V240 RMK AO2 T02330194
03949KAQV AQV20190313224014003/13/19 22:40:31  5-MIN KAQV 140440Z AUTO 18010G20KT 140V210 10SM BKN019 OVC023 23/19 A2977 520 81 1600 170/10G20 140V210 RMK AO2 T02280194
03949KAQV AQV20190313224511703/13/19 22:45:31  5-MIN KAQV 140445Z AUTO 18008G20KT 10SM OVC019 23/19 A2977 520 81 1600 170/08G20 RMK AO2 T02280194
03949KAQV AQV20190313225013803/13/19 22:50:31  5-MIN KAQV 140450Z AUTO 18010G17KT 10SM BKN019 BKN023 OVC029 23/19 A2977 520 81 1600 180/10G17 RMK AO2 SLP077 T02280194
03949KAQV AQV20190313225515403/13/19 22:55:31  5-MIN KAQV 140455Z AUTO 17009G17KT 140V200 10SM BKN019 BKN023 OVC030 23/19 A2976 520 81 1600 170/09G17 140V200 RMK AO2 SLP076 T02280194
03949KAQV AQV20190313230013103/13/19 23:00:31  5-MIN KAQV 140500Z AUTO 18008G17KT 10SM SCT017 BKN022 OVC030 23/19 A2977 520 81 1600 170/08G17 RMK AO2 T02280194
03949KAQV AQV20190313230513103/13/19 23:05:31  5-MIN KAQV 140505Z AUTO 18010G17KT 10SM BKN019 BKN024 OVC030 23/19 A2976 520 81 1600 180/10G17 RMK AO2 T02280194
03949KAQV AQV20190313231012403/13/19 23:10:31  5-MIN KAQV 140510Z AUTO 18008G17KT 10SM BKN019 OVC028 23/19 A2976 520 81 1600 180/08G17 RMK AO2 T02280194
03949KAQV AQV20190313231514703/13/19 23:15:31  5-MIN KAQV 140515Z AUTO 19007G16KT 170V240 10SM BKN019 BKN025 OVC030 23/19 A2977 520 81 1600 190/07G16 170V240 RMK AO2 T02280194
03949KAQV AQV20190313232013103/13/19 23:20:31  5-MIN KAQV 140520Z AUTO 19010G16KT 10SM SCT017 BKN023 OVC030 23/19 A2977 520 81 1600 180/10G16 RMK AO2 T02280194
03949KAQV AQV20190313232514003/13/19 23:25:31  5-MIN KAQV 140525Z AUTO 19011G18KT 160V250 10SM BKN019 OVC026 23/19 A2977 520 81 1600 180/11G18 160V250 RMK AO2 T02280194
03949KAQV AQV20190313233014703/13/19 23:30:31  5-MIN KAQV 140530Z AUTO 19008G18KT 160V250 10SM BKN019 BKN025 OVC030 23/19 A2977 510 81 1600 190/08G18 160V250 RMK AO2 T02280194
03949KAQV AQV20190313233512403/13/19 23:35:31  5-MIN KAQV 140535Z AUTO 18009G17KT 10SM BKN019 OVC025 23/19 A2977 510 81 1600 180/09G17 RMK AO2 T02280194
03949KAQV AQV20190313234012403/13/19 23:40:31  5-MIN KAQV 140540Z AUTO VRB05G18KT 10SM BKN019 OVC025 23/19 A2977 510 81 1600 VRB/05G18 RMK AO2 T02280194
03949KAQV AQV20190313234514003/13/19 23:45:31  5-MIN KAQV 140545Z AUTO 19007G18KT 150V230 10SM BKN017 OVC025 23/19 A2978 510 81 1600 190/07G18 150V230 RMK AO2 T02280194
03949KAQV AQV20190313235018103/13/19 23:50:31  5-MIN KAQV 140550Z AUTO 18010G17KT 140V220 10SM BKN017 OVC025 23/19 A2978 510 81 1600 170/10G17 140V220 RMK AO2 SLP081 60000 T02280194 10233 20222 402440178 52019
03949KAQV AQV20190313235517403/13/19 23:55:31  5-MIN KAQV 140555Z AUTO 19009G17KT 140V250 10SM OVC017 23/19 A2978 510 81 1600 180/09G17 140V250 RMK AO2 SLP081 60000 T02280194 10233 20222 402440178 52019
03949KAQV AQV20190314000014003/14/19 00:00:31  5-MIN KAQV 140600Z AUTO 19009G16KT 160V230 10SM BKN017 OVC024 23/19 A2978 510 81 1600 180/09G16 160V230 RMK AO2 T02280194
03949KAQV AQV20190314000511103/14/19 00:05:31  5-MIN KAQV 140605Z AUTO 18008KT 10SM OVC017 23/19 A2978 510 81 1600 180/08 RMK AO2 T02280194
03949KAQV AQV20190314001011803/14/19 00:10:31  5-MIN KAQV 140610Z AUTO 18007KT 10SM BKN017 OVC023 23/19 A2978 510 81 1600 180/07 RMK AO2 T02280194
03949KAQV AQV20190314001512403/14/19 00:15:31  5-MIN KAQV 140615Z AUTO 19009G18KT 10SM BKN017 OVC022 23/19 A2978 500 81 1600 190/09G18 RMK AO2 T02280194
03949KAQV AQV20190314002014003/14/19 00:20:31  5-MIN KAQV 140620Z AUTO 20009G18KT 170V300 10SM BKN017 OVC026 23/19 A2978 510 81 1600 190/09G18 170V300 RMK AO2 T02280194
03949KAQV AQV20190314002514003/14/19 00:25:31  5-MIN KAQV 140625Z AUTO 19007G15KT 170V230 10SM BKN017 OVC026 23/19 A2978 500 81 1600 190/07G15 170V230 RMK AO2 T02280194
03949KAQV AQV20190314003014703/14/19 00:30:31  5-MIN KAQV 140630Z AUTO 18007G16KT 150V220 10SM BKN017 BKN022 OVC030 23/19 A2978 510 81 1600 180/07G16 150V220 RMK AO2 T02280194
03949KAQV AQV20190314003512403/14/19 00:35:31  5-MIN KAQV 140635Z AUTO 18009G20KT 10SM BKN017 OVC028 23/19 A2978 510 81 1600 180/09G20 RMK AO2 T02280194
03949KAQV AQV20190314004014703/14/19 00:40:31  5-MIN KAQV 140640Z AUTO 18010G20KT 130V210 10SM SCT017 BKN026 OVC032 23/19 A2978 510 81 1600 170/10G20 130V210 RMK AO2 T02280194
03949KAQV AQV20190314004514703/14/19 00:45:31  5-MIN KAQV 140645Z AUTO 19009G17KT 150V230 10SM SCT016 BKN023 OVC029 23/19 A2977 510 81 1600 180/09G17 150V230 RMK AO2 T02280194
03949KAQV AQV20190314005013803/14/19 00:50:31  5-MIN KAQV 140650Z AUTO 18007G17KT 10SM BKN018 BKN024 OVC029 23/19 A2977 520 81 1600 170/07G17 RMK AO2 SLP078 T02280194
03949KAQV AQV20190314005513103/14/19 00:55:31  5-MIN KAQV 140655Z AUTO 18008G17KT 10SM BKN018 OVC029 23/19 A2977 520 81 1600 180/08G17 RMK AO2 SLP077 T02280194
03949KAQV AQV20190314010013103/14/19 01:00:31  5-MIN KAQV 140700Z AUTO 18009G17KT 10SM BKN018 BKN022 OVC028 23/19 A2976 520 81 1600 180/09G17 RMK AO2 T02280194
03949KAQV AQV20190314010512303/14/19 01:05:31  5-MIN KAQV 140705Z AUTO 18009G18KT 9SM BKN018 OVC025 23/19 A2977 520 81 1600 170/09G18 RMK AO2 T02280194
03949KAQV AQV20190314011012403/14/19 01:10:31  5-MIN KAQV 140710Z AUTO 18008G18KT 10SM BKN018 OVC025 23/19 A2977 520 81 1600 170/08G18 RMK AO2 T02280194
03949KAQV AQV20190314011512403/14/19 01:15:31  5-MIN KAQV 140715Z AUTO 19006G16KT 10SM BKN018 OVC024 22/19 A2977 520 84 1500 180/06G16 RMK AO2 T02220194
03949KAQV AQV20190314012012403/14/19 01:20:31  5-MIN KAQV 140720Z AUTO 18007G16KT 10SM BKN018 OVC024 22/19 A2977 520 84 1500 180/07G16 RMK AO2 T02220194
03949KAQV AQV20190314012514003/14/19 01:25:31  5-MIN KAQV 140725Z AUTO 18008G16KT 150V230 10SM BKN017 OVC024 23/19 A2976 520 81 1600 180/08G16 150V230 RMK AO2 T02280194
03949KAQV AQV20190314013012403/14/19 01:30:31  5-MIN KAQV 140730Z AUTO 17011G18KT 10SM BKN017 OVC024 23/19 A2976 530 81 1600 170/11G18 RMK AO2 T02280194
03949KAQV AQV20190314013512403/14/19 01:35:31  5-MIN KAQV 140735Z AUTO 18013G23KT 10SM BKN017 OVC024 23/19 A2975 540 81 1600 180/13G23 RMK AO2 T02280194
03949KAQV AQV20190314014014703/14/19 01:40:31  5-MIN KAQV 140740Z AUTO 18010G24KT 140V220 10SM BKN017 OVC024 23/19 A2973 550 81 1600 180/10G24 140V220 RMK AO2 PRESFR T02280194
03949KAQV AQV20190314014512403/14/19 01:45:31  5-MIN KAQV 140745Z AUTO 17012G24KT 10SM BKN015 OVC022 23/19 A2973 550 81 1600 170/12G24 RMK AO2 T02280194
03949KAQV AQV20190314015014703/14/19 01:50:31  5-MIN KAQV 140750Z AUTO 18010G22KT 160V230 10SM BKN017 OVC022 23/19 A2974 550 81 1600 180/10G22 160V230 RMK AO2 SLP067 T02280194
03949KAQV AQV20190314015514703/14/19 01:55:31  5-MIN KAQV 140755Z AUTO 18008G21KT 130V230 10SM BKN017 OVC024 22/19 A2974 550 84 1600 170/08G21 130V230 RMK AO2 SLP067 T02220194
03949KAQV AQV20190314020014203/14/19 02:00:31  5-MIN KAQV 140800Z AUTO 18014G27KT 10SM BKN017 OVC024 23/19 A2974 550 81 1600 180/14G27 RMK AO2 PK WND 18027/0800 T02280194
03949KAQV AQV20190314020514203/14/19 02:05:31  5-MIN KAQV 140805Z AUTO 18010G27KT 10SM BKN017 OVC024 23/19 A2974 550 81 1600 170/10G27 RMK AO2 PK WND 18027/0800 T02280194
03949KAQV AQV20190314021015803/14/19 02:10:31  5-MIN KAQV 140810Z AUTO 19007G24KT 160V230 10SM BKN017 OVC024 23/19 A2974 550 81 1600 190/07G24 160V230 RMK AO2 PK WND 18027/0800 T02280194
03949KAQV AQV20190314021514903/14/19 02:15:31  5-MIN KAQV 140815Z AUTO 17011G21KT 10SM BKN017 BKN022 OVC031 23/19 A2973 550 81 1600 170/11G21 RMK AO2 PK WND 18027/0800 T02280194
03949KAQV AQV20190314022009903/14/19 02:20:31  5-MIN KAQV 140820Z AUTO 18013G21KT 140V210 10SM BKN017 BKN021 OVC031FR T02220189
03949KAQV AQV20190314022016503/14/19 02:20:31  5-MIN KAQV 140820Z AUTO 18013G21KT 140V210 10SM BKN017 BKN021 OVC031 23/19 A2973 560 81 1600 170/13G21 140V210 RMK AO2 PK WND 18027/0800 T02280194
03949KAQV AQV20190314022515803/14/19 02:25:31  5-MIN KAQV 140825Z AUTO 17011G21KT 140V210 10SM BKN017 OVC033 23/19 A2972 560 81 1600 170/11G21 140V210 RMK AO2 PK WND 18027/0800 T02280194
03949KAQV AQV20190314023016503/14/19 02:30:31  5-MIN KAQV 140830Z AUTO 18012G20KT 150V220 10SM BKN017 BKN025 OVC035 22/19 A2972 560 84 1600 170/12G20 150V220 RMK AO2 PK WND 18027/0800 T02220194
03949KAQV AQV20190314023514203/14/19 02:35:31  5-MIN KAQV 140835Z AUTO 17011G20KT 10SM BKN017 OVC035 22/19 A2972 560 84 1600 170/11G20 RMK AO2 PK WND 18027/0800 T02220194
03949KAQV AQV20190314024016503/14/19 02:40:31  5-MIN KAQV 140840Z AUTO 18007G17KT 150V230 10SM BKN018 BKN028 OVC035 23/19 A2972 560 81 1600 180/07G17 150V230 RMK AO2 PK WND 18027/0800 T02280194
03949KAQV AQV20190314024514903/14/19 02:45:31  5-MIN KAQV 140845Z AUTO 18010G21KT 10SM BKN018 BKN026 OVC035 23/19 A2973 550 81 1600 170/10G21 RMK AO2 PK WND 18027/0800 T02280194
03949KAQV AQV20190314025017803/14/19 02:50:31  5-MIN KAQV 140850Z AUTO 19010G21KT 150V250 10SM BKN017 BKN022 OVC035 23/19 A2974 550 81 1600 190/10G21 150V250 RMK AO2 PK WND 18027/0800 SLP067 T02280194 51016
03949KAQV AQV20190314025517803/14/19 02:55:31  5-MIN KAQV 140855Z AUTO 17008G19KT 130V200 10SM BKN017 BKN022 OVC027 23/19 A2973 550 81 1600 160/08G19 130V200 RMK AO2 PK WND 18027/0800 SLP064 T02280194 51016
03949KAQV AQV20190314030013103/14/19 03:00:31  5-MIN KAQV 140900Z AUTO 17011G20KT 10SM BKN017 BKN027 OVC036 23/19 A2971 570 81 1600 170/11G20 RMK AO2 T02280194
03949KAQV AQV20190314030515403/14/19 03:05:31  5-MIN KAQV 140905Z AUTO 17010G23KT 110V190 10SM BKN017 BKN027 OVC034 22/19 A2970 580 81 1600 160/10G23 110V190 RMK AO2 PRESFR T02220189
03949KAQV AQV20190314031013103/14/19 03:10:31  5-MIN KAQV 140910Z AUTO 18009G23KT 10SM BKN017 BKN022 OVC034 22/19 A2971 570 81 1600 170/09G23 RMK AO2 T02220189
03949KAQV AQV20190314031513103/14/19 03:15:31  5-MIN KAQV 140915Z AUTO 18010G16KT 10SM BKN017 BKN023 OVC029 22/19 A2972 560 81 1600 170/10G16 RMK AO2 T02220189
03949KAQV AQV20190314032013103/14/19 03:20:31  5-MIN KAQV 140920Z AUTO 18010G19KT 10SM BKN017 BKN021 OVC029 22/19 A2973 550 81 1600 170/10G19 RMK AO2 T02220189
03949KAQV AQV20190314032514703/14/19 03:25:31  5-MIN KAQV 140925Z AUTO 18009G19KT 110V210 10SM BKN017 BKN027 OVC034 22/19 A2973 550 81 1600 170/09G19 110V210 RMK AO2 T02220189
03949KAQV AQV20190314033014703/14/19 03:30:31  5-MIN KAQV 140930Z AUTO 18010G18KT 140V210 10SM BKN017 BKN025 OVC034 22/19 A2974 550 81 1600 170/10G18 140V210 RMK AO2 T02220189
03949KAQV AQV20190314033513103/14/19 03:35:31  5-MIN KAQV 140935Z AUTO 18009G18KT 10SM BKN017 BKN025 OVC034 22/19 A2974 540 81 1500 170/09G18 RMK AO2 T02220189
03949KAQV AQV20190314034014703/14/19 03:40:31  5-MIN KAQV 140940Z AUTO 18012G21KT 140V210 10SM BKN017 BKN023 OVC034 22/19 A2974 550 81 1600 170/12G21 140V210 RMK AO2 T02220189
03949KAQV AQV20190314034512403/14/19 03:45:31  5-MIN KAQV 140945Z AUTO 18012G21KT 10SM BKN019 OVC034 23/19 A2974 540 78 1600 170/12G21 RMK AO2 T02280189
03949KAQV AQV20190314035014703/14/19 03:50:31  5-MIN KAQV 140950Z AUTO 18012G21KT 150V210 10SM BKN017 OVC032 23/19 A2974 540 81 1600 180/12G21 150V210 RMK AO2 SLP068 T02280194
03949KAQV AQV20190314035515403/14/19 03:55:31  5-MIN KAQV 140955Z AUTO 18009G21KT 150V230 10SM BKN017 BKN021 OVC032 23/19 A2973 550 81 1600 180/09G21 150V230 RMK AO2 SLP066 T02280194
03949KAQV AQV20190314040012403/14/19 04:00:31  5-MIN KAQV 141000Z AUTO 18010G19KT 10SM BKN017 OVC032 22/19 A2974 550 84 1600 170/10G19 RMK AO2 T02220194
03949KAQV AQV20190314040514003/14/19 04:05:31  5-MIN KAQV 141005Z AUTO 18009G19KT 140V210 10SM BKN017 OVC030 22/19 A2973 550 84 1600 170/09G19 140V210 RMK AO2 T02220194
03949KAQV AQV20190314041014703/14/19 04:10:31  5-MIN KAQV 141010Z AUTO 19008G17KT 170V260 10SM BKN017 BKN023 OVC030 22/19 A2973 550 84 1600 190/08G17 170V260 RMK AO2 T02220194
03949KAQV AQV20190314041514703/14/19 04:15:31  5-MIN KAQV 141015Z AUTO 19010G20KT 160V230 10SM BKN017 BKN023 OVC030 22/19 A2973 550 84 1600 180/10G20 160V230 RMK AO2 T02220194
03949KAQV AQV20190314042012403/14/19 04:20:31  5-MIN KAQV 141020Z AUTO 18009G20KT 10SM BKN017 OVC030 22/19 A2973 550 84 1600 170/09G20 RMK AO2 T02220194
03949KAQV AQV20190314042513103/14/19 04:25:31  5-MIN KAQV 141025Z AUTO 17010G19KT 10SM BKN017 BKN023 OVC031 22/19 A2973 560 84 1600 170/10G19 RMK AO2 T02220194
03949KAQV AQV20190314043012403/14/19 04:30:31  5-MIN KAQV 141030Z AUTO 18009G25KT 10SM BKN017 OVC031 22/19 A2973 560 84 1600 170/09G25 RMK AO2 T02220194
03949KAQV AQV20190314043513103/14/19 04:35:31  5-MIN KAQV 141035Z AUTO 18010G25KT 10SM BKN017 BKN022 OVC031 22/19 A2973 560 81 1600 180/10G25 RMK AO2 T02220189
03949KAQV AQV20190314044012403/14/19 04:40:31  5-MIN KAQV 141040Z AUTO 18008G17KT 10SM BKN017 OVC031 22/19 A2972 560 81 1600 180/08G17 RMK AO2 T02220189
03949KAQV AQV20190314044513103/14/19 04:45:31  5-MIN KAQV 141045Z AUTO 18009G17KT 10SM SCT017 BKN021 OVC032 22/19 A2972 560 81 1600 180/09G17 RMK AO2 T02220189
03949KAQV AQV20190314045013103/14/19 04:50:31  5-MIN KAQV 141050Z AUTO 19007G17KT 10SM BKN017 OVC032 22/19 A2973 550 81 1600 180/07G17 RMK AO2 SLP064 T02220189
03949KAQV AQV20190314045514703/14/19 04:55:31  5-MIN KAQV 141055Z AUTO 19007G16KT 150V230 10SM BKN017 OVC034 22/19 A2973 550 81 1600 180/07G16 150V230 RMK AO2 SLP066 T02220189
03949KAQV AQV20190314050014003/14/19 05:00:31  5-MIN KAQV 141100Z AUTO 18009G19KT 130V220 10SM BKN017 OVC034 22/19 A2973 550 81 1600 180/09G19 130V220 RMK AO2 T02220189
03949KAQV AQV20190314050514703/14/19 05:05:31  5-MIN KAQV 141105Z AUTO 18008G20KT 150V240 10SM BKN018 BKN029 OVC034 22/19 A2974 540 81 1500 180/08G20 150V240 RMK AO2 T02220189
03949KAQV AQV20190314051014003/14/19 05:10:31  5-MIN KAQV 141110Z AUTO 18009G20KT 160V240 10SM BKN018 OVC028 22/19 A2975 540 81 1500 180/09G20 160V240 RMK AO2 T02220189
03949KAQV AQV20190314051513803/14/19 05:15:31  5-MIN KAQV 141115Z AUTO VRB06G19KT 10SM BKN016 BKN022 OVC028 22/19 A2975 530 81 1500 VRB/06G19 RMK AO2 PRESRR T02220189
03949KAQV AQV20190314052014003/14/19 05:20:31  5-MIN KAQV 141120Z AUTO 18010G17KT 130V220 10SM BKN016 OVC029 22/19 A2976 530 81 1500 180/10G17 130V220 RMK AO2 T02220189
03949KAQV AQV20190314052513103/14/19 05:25:31  5-MIN KAQV 141125Z AUTO VRB05G17KT 10SM BKN016 OVC029 22/19 A2977 510 81 1500 VRB/05G17 RMK AO2 PRESRR T02220189
03949KAQV AQV20190314053013803/14/19 05:30:31  5-MIN KAQV 141130Z AUTO VRB04G15KT 10SM BKN016 BKN022 OVC029 22/19 A2978 500 81 1500 VRB/04G15 RMK AO2 PRESRR T02220189
03949KAQV AQV20190314053513203/14/19 05:35:31  5-MIN KAQV 141135Z AUTO 21005KT 10SM BKN016 BKN021 OVC028 22/19 A2979 500 81 1500 210/05 RMK AO2 PRESRR T02220189
03949KAQV AQV20190314054014703/14/19 05:40:31  5-MIN KAQV 141140Z AUTO 24009G16KT 220V280 10SM BKN016 OVC024 22/19 A2980 480 81 1500 240/09G16 220V280 RMK AO2 PRESRR T02220189
03949KAQV AQV20190314054514703/14/19 05:45:31  5-MIN KAQV 141145Z AUTO 24008G16KT 200V290 10SM BKN016 OVC024 22/19 A2982 460 81 1500 240/08G16 200V290 RMK AO2 PRESRR T02220189
03949KAQV AQV20190314055016203/14/19 05:50:31  5-MIN KAQV 141150Z AUTO VRB06G18KT 10SM BKN016 BKN021 OVC029 23/19 A2983 460 78 1500 VRB/06G18 RMK AO2 SLP097 70001 T02280189 10228 20222 56018
03949KAQV AQV20190314055516203/14/19 05:55:31  5-MIN KAQV 141155Z AUTO VRB06G18KT 10SM BKN018 OVC029 22/19 A2984 450 81 1400 VRB/06G18 RMK AO2 PRESRR SLP100 70001 T02220189 10228 20222 56018
03949KAQV AQV20190314060015003/14/19 06:00:31  5-MIN KAQV 141200Z AUTO 22007KT 160V260 5SM +RA SCT016 BKN024 OVC031 22/19 A2984 450 81 1400 210/07 160V260 RMK AO2 P0002 T02220189
03949KAQV AQV20190314060514303/14/19 06:05:31  5-MIN KAQV 141205Z AUTO VRB05G15KT 4SM -RA BR BKN019 BKN025 OVC031 22/19 A2984 450 87 1400 VRB/05G15 RMK AO2 P0003 T02170194
03949KAQV AQV20190314061014303/14/19 06:10:31  5-MIN KAQV 141210Z AUTO VRB06G15KT 6SM -RA BR BKN019 BKN029 OVC090 21/19 A2985 450 90 1300 VRB/06G15 RMK AO2 P0003 T02110194
03949KAQV AQV20190314061514003/14/19 06:15:31  5-MIN KAQV 141215Z AUTO VRB06G14KT 8SM -RA BKN019 BKN028 OVC100 21/19 A2985 440 90 1300 VRB/06G14 RMK AO2 P0003 T02110194
03949KAQV AQV20190314062014903/14/19 06:20:31  5-MIN KAQV 141220Z AUTO VRB06G14KT 9SM BKN017 BKN028 OVC090 21/19 A2986 430 90 1300 VRB/06G14 RMK AO2 RAE19 PRESRR P0003 T02110194
03949KAQV AQV20190314062516503/14/19 06:25:31  5-MIN KAQV 141225Z AUTO 27011G17KT 230V300 9SM BKN015 BKN030 OVC090 19/18 A2988 420 90 1100 270/11G17 230V300 RMK AO2 RAE19 PRESRR P0003 T01940178
03949KAQV AQV20190314063014803/14/19 06:30:31  5-MIN KAQV 141230Z AUTO 29009G17KT 240V360 9SM -RA BKN014 OVC024 17/14 A2988 410 83 700 290/09G17 240V360 RMK AO2 P0003 T01670139
03949KAQV AQV20190314063515603/14/19 06:35:31  5-MIN KAQV 141235Z AUTO 28008G16KT 250V310 10SM -RA SCT012 BKN018 OVC028 16/13 A2988 410 83 700 280/08G16 250V310 RMK AO2 P0003 T01610133
03949KAQV AQV20190314064013903/14/19 06:40:31  5-MIN KAQV 141240Z AUTO VRB04G16KT 8SM -RA SCT012 BKN018 OVC030 16/13 A2989 410 83 600 VRB/04G16 RMK AO2 P0004 T01560128
03949KAQV AQV20190314064513303/14/19 06:45:31  5-MIN KAQV 141245Z AUTO VRB03KT 8SM -RA FEW012 BKN018 OVC026 15/13 A2989 410 86 500 VRB/03 RMK AO2 P0004 T01500128
03949KAQV AQV20190314065014003/14/19 06:50:31  5-MIN KAQV 141250Z AUTO VRB04KT 8SM -RA FEW012 BKN023 OVC030 14/13 A2988 410 90 500 VRB/04 RMK AO2 SLP118 P0004 T01440128
03949KAQV AQV20190314065514003/14/19 06:55:31  5-MIN KAQV 141255Z AUTO VRB03KT 8SM -RA FEW014 BKN021 OVC029 14/13 A2988 410 90 500 VRB/03 RMK AO2 SLP118 P0004 T01440128
03949KAQV AQV20190314070012703/14/19 07:00:31  5-MIN KAQV 141300Z AUTO VRB03KT 10SM -RA BKN023 OVC030 14/13 A2988 410 90 500 VRB/03 RMK AO2 P0000 T01440128
03949KAQV AQV20190314070512703/14/19 07:05:31  5-MIN KAQV 141305Z AUTO 00000KT 10SM -RA BKN023 OVC031 15/13 A2988 410 86 500 000/00 RMK AO2 P0000 T01500128
03949KAQV AQV20190314071013603/14/19 07:10:31  5-MIN KAQV 141310Z AUTO 00000KT 5SM -RA BR BKN023 BKN033 OVC046 15/13 A2988 410 90 600 000/00 RMK AO2 P0001 T01500133
03949KAQV AQV20190314071513603/14/19 07:15:31  5-MIN KAQV 141315Z AUTO 32003KT 5SM -RA BR BKN023 BKN033 OVC047 15/13 A2988 420 90 600 320/03 RMK AO2 P0001 T01500133
03949KAQV AQV20190314072013603/14/19 07:20:31  5-MIN KAQV 141320Z AUTO 00000KT 10SM SCT023 BKN033 BKN042 15/13 A2988 420 86 600 000/00 RMK AO2 RAE20 P0001 T01500128
03949KAQV AQV20190314072513603/14/19 07:25:31  5-MIN KAQV 141325Z AUTO 00000KT 10SM SCT025 BKN039 BKN046 15/13 A2988 410 86 600 000/00 RMK AO2 RAE20 P0001 T01500128
03949KAQV AQV20190314073013603/14/19 07:30:31  5-MIN KAQV 141330Z AUTO 00000KT 10SM FEW027 BKN039 BKN047 15/13 A2988 410 86 600 000/00 RMK AO2 RAE20 P0001 T01500128
03949KAQV AQV20190314073512903/14/19 07:35:31  5-MIN KAQV 141335Z AUTO 00000KT 10SM BKN041 BKN065 15/13 A2988 410 90 500 000/00 RMK AO2 RAE20 P0001 T01500133
03949KAQV AQV20190314074013603/14/19 07:40:31  5-MIN KAQV 141340Z AUTO 18003KT 10SM BKN041 BKN050 OVC065 15/14 A2989 410 93 500 170/03 RMK AO2 RAE20 P0001 T01500139
03949KAQV AQV20190314074512903/14/19 07:45:31  5-MIN KAQV 141345Z AUTO 00000KT 10SM BKN041 BKN049 15/14 A2989 410 93 500 000/00 RMK AO2 RAE20 P0001 T01500139
03949KAQV AQV20190314075012903/14/19 07:50:31  5-MIN KAQV 141350Z AUTO 00000KT 10SM BKN043 16/13 A2989 410 86 600 000/00 RMK AO2 RAE20 SLP119 P0001 T01560133
03949KAQV AQV20190314075512903/14/19 07:55:31  5-MIN KAQV 141355Z AUTO 00000KT 10SM BKN043 16/14 A2989 400 90 600 000/00 RMK AO2 RAE20 SLP120 P0001 T01560139
03949KAQV AQV20190314080011003/14/19 08:00:31  5-MIN KAQV 141400Z AUTO 17003KT 10SM BKN043 16/14 A2989 400 90 600 170/03 RMK AO2 T01560139
03949KAQV AQV20190314080511003/14/19 08:05:31  5-MIN KAQV 141405Z AUTO 00000KT 10SM BKN043 16/14 A2990 400 90 600 000/00 RMK AO2 T01560139
03949KAQV AQV20190314081011703/14/19 08:10:31  5-MIN KAQV 141410Z AUTO 00000KT 10SM BKN042 BKN060 17/13 A2990 390 80 700 000/00 RMK AO2 T01670133
03949KAQV AQV20190314081511703/14/19 08:15:31  5-MIN KAQV 141415Z AUTO 00000KT 10SM BKN042 BKN055 17/14 A2991 390 80 800 000/00 RMK AO2 T01720139
03949KAQV AQV20190314082011703/14/19 08:20:31  5-MIN KAQV 141420Z AUTO VRB03KT 10SM BKN042 BKN055 17/13 A2991 390 78 800 VRB/03 RMK AO2 T01720133
03949KAQV AQV20190314082511703/14/19 08:25:31  5-MIN KAQV 141425Z AUTO 00000KT 10SM BKN044 OVC055 17/13 A2991 380 75 800 000/00 RMK AO2 T01720128
03949KAQV AQV20190314083011703/14/19 08:30:31  5-MIN KAQV 141430Z AUTO 00000KT 10SM BKN044 OVC055 17/13 A2991 380 75 800 000/00 RMK AO2 T01720128
03949KAQV AQV20190314083512403/14/19 08:35:31  5-MIN KAQV 141435Z AUTO 00000KT 10SM BKN046 BKN055 OVC070 18/13 A2991 390 75 800 000/00 RMK AO2 T01780133
03949KAQV AQV20190314084012403/14/19 08:40:31  5-MIN KAQV 141440Z AUTO 00000KT 10SM BKN046 BKN055 OVC065 18/13 A2991 390 75 800 000/00 RMK AO2 T01780133
03949KAQV AQV20190314084511703/14/19 08:45:31  5-MIN KAQV 141445Z AUTO 00000KT 10SM BKN046 OVC065 18/13 A2991 380 72 900 000/00 RMK AO2 T01830133
03949KAQV AQV20190314085013603/14/19 08:50:31  5-MIN KAQV 141450Z AUTO 00000KT 10SM BKN046 OVC065 18/13 A2991 390 72 900 000/00 RMK AO2 SLP126 60005 T01830133 53036
03949KAQV AQV20190314085513603/14/19 08:55:31  5-MIN KAQV 141455Z AUTO 00000KT 10SM BKN044 OVC065 18/13 A2991 380 70 900 000/00 RMK AO2 SLP128 60005 T01830128 53036
03949KAQV AQV20190314090012403/14/19 09:00:31  5-MIN KAQV 141500Z AUTO 00000KT 10SM BKN046 BKN055 OVC065 18/13 A2991 390 72 900 000/00 RMK AO2 T01830133
03949KAQV AQV20190314090512503/14/19 09:05:31  5-MIN KAQV 141505Z AUTO 00000KT 10SM BKN046 BKN055 OVC065 19/13 A2991 390 67 1000 000/00 RMK AO2 T01890128
03949KAQV AQV20190314091011803/14/19 09:10:31  5-MIN KAQV 141510Z AUTO 26004KT 10SM BKN046 OVC055 19/12 A2991 380 65 1000 260/04 RMK AO2 T01890122
03949KAQV AQV20190314091511803/14/19 09:15:31  5-MIN KAQV 141515Z AUTO VRB04KT 10SM BKN046 OVC055 19/12 A2992 380 65 1000 VRB/04 RMK AO2 T01890122
03949KAQV AQV20190314092011803/14/19 09:20:31  5-MIN KAQV 141520Z AUTO 00000KT 10SM BKN046 OVC055 19/13 A2992 380 67 1000 000/00 RMK AO2 T01890128
03949KAQV AQV20190314092511803/14/19 09:25:31  5-MIN KAQV 141525Z AUTO 00000KT 10SM BKN047 OVC055 19/13 A2992 380 65 1000 000/00 RMK AO2 T01940128
03949KAQV AQV20190314093011103/14/19 09:30:31  5-MIN KAQV 141530Z AUTO VRB03KT 10SM OVC049 20/13 A2991 380 63 1100 VRB/03 RMK AO2 T02000128
03949KAQV AQV20190314093511103/14/19 09:35:31  5-MIN KAQV 141535Z AUTO VRB03KT 10SM OVC049 21/13 A2991 380 60 1200 VRB/03 RMK AO2 T02060128
03949KAQV AQV20190314094011103/14/19 09:40:31  5-MIN KAQV 141540Z AUTO 26004KT 10SM OVC047 21/12 A2991 380 58 1200 260/04 RMK AO2 T02060122
03949KAQV AQV20190314094511003/14/19 09:45:31  5-MIN KAQV 141545Z AUTO VRB05KT 9SM OVC047 21/12 A2991 380 56 1200 VRB/05 RMK AO2 T02060117
03949KAQV AQV20190314095011703/14/19 09:50:31  5-MIN KAQV 141550Z AUTO VRB05KT 8SM OVC047 21/11 A2991 380 54 1200 VRB/05 RMK AO2 SLP127 T02060111
03949KAQV AQV20190314095511703/14/19 09:55:31  5-MIN KAQV 141555Z AUTO VRB04KT 7SM OVC047 21/11 A2992 380 52 1200 VRB/04 RMK AO2 SLP128 T02060106
03949KAQV AQV20190314100011703/14/19 10:00:31  5-MIN KAQV 141600Z AUTO 27004KT 7SM FEW023 OVC047 21/11 A2992 370 52 1200 270/04 RMK AO2 T02060106
03949KAQV AQV20190314100512403/14/19 10:05:31  5-MIN KAQV 141605Z AUTO 00000KT 7SM FEW023 BKN047 OVC055 21/11 A2992 380 52 1200 000/00 RMK AO2 T02110111
03949KAQV AQV20190314101011703/14/19 10:10:31  5-MIN KAQV 141610Z AUTO VRB06KT 7SM SCT023 OVC049 22/11 A2992 370 50 1300 VRB/06 RMK AO2 T02170111
03949KAQV AQV20190314101513603/14/19 10:15:31  5-MIN KAQV 141615Z AUTO 29007KT 250V330 6SM HZ FEW023 OVC049 21/10 A2992 370 48 1200 280/07 250V330 RMK AO2 T02110100
03949KAQV AQV20190314102012003/14/19 10:20:31  5-MIN KAQV 141620Z AUTO VRB06KT 6SM HZ FEW023 OVC049 21/10 A2993 360 48 1200 VRB/06 RMK AO2 T02110100
03949KAQV AQV20190314102511703/14/19 10:25:31  5-MIN KAQV 141625Z AUTO VRB05KT 7SM FEW023 OVC050 21/10 A2993 370 48 1200 VRB/05 RMK AO2 T02110100
03949KAQV AQV20190314103011703/14/19 10:30:31  5-MIN KAQV 141630Z AUTO VRB03KT 7SM FEW023 OVC050 22/10 A2993 360 47 1300 VRB/03 RMK AO2 T02170100
03949KAQV AQV20190314103511703/14/19 10:35:31  5-MIN KAQV 141635Z AUTO VRB04KT 7SM FEW023 OVC050 22/11 A2994 360 49 1300 VRB/04 RMK AO2 T02170106
03949KAQV AQV20190314104011003/14/19 10:40:31  5-MIN KAQV 141640Z AUTO VRB04KT 7SM OVC050 22/11 A2994 360 49 1300 VRB/04 RMK AO2 T02170106
03949KAQV AQV20190314104511003/14/19 10:45:31  5-MIN KAQV 141645Z AUTO VRB04KT 7SM OVC050 21/10 A2993 360 48 1200 VRB/04 RMK AO2 T02110100
03949KAQV AQV20190314105010703/14/19 10:50:31  5-MIN KAQV 141650Z AUTO 7SM OVC050 22/10 A2994 360 45 1300 M /M RMK AO2 SLP134 T02220100
03949KAQV AQV20190314105511703/14/19 10:55:31  5-MIN KAQV 141655Z AUTO 28006KT 7SM OVC055 22/10 A2994 360 47 1300 280/06 RMK AO2 SLP135 T02170100
03949KAQV AQV20190314110012003/14/19 11:00:31  5-MIN KAQV 141700Z AUTO VRB03KT 6SM HZ FEW021 OVC055 22/10 A2994 360 45 1300 VRB/03 RMK AO2 T02220100
03949KAQV AQV20190314110512003/14/19 11:05:31  5-MIN KAQV 141705Z AUTO VRB06KT 6SM HZ FEW021 OVC060 23/09 A2993 370 42 1400 VRB/06 RMK AO2 T02280094
03949KAQV AQV20190314111011303/14/19 11:10:31  5-MIN KAQV 141710Z AUTO VRB05KT 6SM HZ OVC055 23/08 A2994 360 39 1400 VRB/05 RMK AO2 T02280083
03949KAQV AQV20190314111513603/14/19 11:15:31  5-MIN KAQV 141715Z AUTO 29007KT 250V310 6SM HZ FEW021 OVC060 22/07 A2994 360 37 1300 280/07 250V310 RMK AO2 T02170067
03949KAQV AQV20190314112011003/14/19 11:20:31  5-MIN KAQV 141720Z AUTO VRB03KT 7SM OVC055 22/07 A2994 360 39 1300 VRB/03 RMK AO2 T02170072
03949KAQV AQV20190314112513603/14/19 11:25:31  5-MIN KAQV 141725Z AUTO 8SM OVC055 22/08 A2994 350 40 1300 M /M RMK AO2 T02170078360 35 1500 VRB/03 RMK AO2 T02330072
03949KAQV AQV20190314132510003/14/19 13:25:31  5-MIN KAQV 141925Z AUTO 9SM OVC060 23/07 A2993 370 36 1400 M /M RMK AO2 T02280072
03949KAQV AQV20190314133012703/14/19 13:30:31  5-MIN KAQV 141930Z AUTO 27007KT 230V300 10SM OVC060 23/08 A2993 370 36 1500 260/07 230V300 RMK AO2 T02330078
03949KAQV AQV20190314133510103/14/19 13:35:31  5-MIN KAQV 141935Z AUTO 10SM OVC060 23/08 A2993 370 37 1400 M /M RMK AO2 T02280078
03949KAQV AQV20190314134011103/14/19 13:40:31  5-MIN KAQV 141940Z AUTO VRB06KT 10SM OVC060 23/07 A2993 370 36 1400 VRB/06 RMK AO2 T02280072
03949KAQV AQV20190314134511103/14/19 13:45:31  5-MIN KAQV 141945Z AUTO VRB05KT 10SM OVC060 23/07 A2993 360 35 1400 VRB/05 RMK AO2 T02280067
03949KAQV AQV20190314135013403/14/19 13:50:31  5-MIN KAQV 141950Z AUTO 28007KT 230V310 10SM OVC065 23/06 A2993 360 32 1400 270/07 230V310 RMK AO2 SLP133 T02280056
03949KAQV AQV20190314135017103/14/19 13:50:31  5-MIN KAQV 141950Z AUTO 28007KT 230V310 10SM OVC065 23/06 A20Z AUTO 27007KT 230V300 10SM OVC060 23/08 A2993 370 36 1500 260/07 230V300 RMK AO2 T02330078
03949KAQV AQV20190314135513403/14/19 13:55:31  5-MIN KAQV 141955Z AUTO 28008KT 250V340 10SM OVC065 23/05 A2993 370 31 1400 280/08 250V340 RMK AO2 SLP133 T02280050
03949KAQV AQV20190314140010003/14/19 14:00:31  5-MIN KAQV 142000Z AUTO 9SM OVC065 23/05 A2993 370 30 1500 M /M RMK AO2 T02330050
03949KAQV AQV20190314140512603/14/19 14:05:31  5-MIN KAQV 142005Z AUTO 28007KT 250V330 8SM OVC065 23/04 A2993 370 30 1400 280/07 250V330 RMK AO2 T02280044
03949KAQV AQV20190314140522603/14/19 14:05:31  5-MIN KAQV 142005Z AUTO 28007KT 250V330 8SM OVC065 23/04 A2993 370 30 1400 280/07 250V330 RMK AO2 T0228004423/06 A2993  VRB/05 RMK AO2 T0233005023/05 A2993 370 31 1400 280/08 250V340 RMK AO2 SLP133 T02280050
03949KAQV AQV20190314141011003/14/19 14:10:31  5-MIN KAQV 142010Z AUTO VRB05KT 8SM OVC070 23/05 A2992 370 30 1500 VRB/05 RMK AO2 T02330050
03949KAQV AQV20190314141511103/14/19 14:15:31  5-MIN KAQV 142015Z AUTO VRB03KT 10SM OVC070 24/06 A2992 370 29 1600 VRB/03 RMK AO2 T02440056
03949KAQV AQV20190314142012703/14/19 14:20:31  5-MIN KAQV 142020Z AUTO 27007KT 220V290 10SM OVC070 24/06 A2993 370 29 1600 260/07 220V290 RMK AO2 T02440056
03949KAQV AQV20190314142513903/14/19 14:25:31  5-MIN KAQV 142025Z AUTO 29007G15KT 240V320 9SM FEW032 OVC070 23/04 A2993 370 29 1500 280/07G15 240V320 RMK AO2 T02330044
03949KAQV AQV20190314143011703/14/19 14:30:31  5-MIN KAQV 142030Z AUTO 28007G15KT 260V320 10SM FEW032  A2992 370 30 1500 VRB/05 RMK AO2 T02330050
03949KAQV AQV20190314143014003/14/19 14:30:31  5-MIN KAQV 142030Z AUTO 28007G15KT 260V320 10SM FEW032 OVC070 23/04 A2993 370 29 1500 280/07G15 260V320 RMK AO2 T02330044
03949KAQV AQV20190314143512403/14/19 14:35:31  5-MIN KAQV 142035Z AUTO VRB04G15KT 10SM FEW031 OVC070 24/04 A2993 370 27 1500 VRB/04G15 RMK AO2 T02390039
03949KAQV AQV20190314144012403/14/19 14:40:31  5-MIN KAQV 142040Z AUTO 28007G15KT 10SM FEW031 OVC070 23/04 A2993 370 28 1500 280/07G15 RMK AO2 T02330039
03949KAQV AQV20190314144511803/14/19 14:45:31  5-MIN KAQV 142045Z AUTO VRB05KT 10SM FEW031 OVC070 23/04 A2993 370 29 1400 VRB/05 RMK AO2 T02280039
03949KAQV AQV20190314144517803/14/19 14:45:31  5-MIN KAQV 142045Z AUTO VRB05KT 10SM FEW031 OVC070 23/04 A2993 370 29 1400 VRB/05 RMK AO2 T02280039OVC070 24/04 A2993 370 27 1500 VRB/04 RMK AO2 SLP132 T030044
03949KAQV AQV20190314145013803/14/19 14:50:31  5-MIN KAQV 142050Z AUTO VRB04KT 10SM FEW023 FEW031 OVC070 24/04 A2993 370 27 1500 VRB/04 RMK AO2 SLP132 T02390039 50008
03949KAQV AQV20190314145513803/14/19 14:55:31  5-MIN KAQV 142055Z AUTO VRB05KT 10SM FEW024 SCT029 OVC070 23/04 A2993 370 28 1500 VRB/05 RMK AO2 SLP131 T02330039 50008
03949KAQV AQV20190314150011803/14/19 15:00:31  5-MIN KAQV 142100Z AUTO VRB04KT 10SM SCT032 OVC070 24/03 A2993 370 25 1600 VRB/04 RMK AO2 T02440033
03949KAQV AQV20190314150510803/14/19 15:05:31  5-MIN KAQV 142105Z AUTO 10SM BKN032 OVC070 24/04 A2993 370 26 1600 M /M RMK AO2 T02440039
03949KAQV AQV20190314151011803/14/19 15:10:31  5-MIN KAQV 142110Z AUTO VRB05KT 10SM BKN032 OVC070 24/03 A2993 370 25 1500 VRB/05 RMK AO2 T02390028
03949KAQV AQV20190314151020903/14/19 15:10:31  5-MIN KAQV 142110Z AUTO VRB05KT 10SM BKN032 OVC070 24/034 A2993 370 27 1500 VRB/04 RMK AO2 SLP132 T02390039 500084 SCT029 OVC070 23/04 A2993 370 28 1500 VRB/05 RMK AO2 SLP131 T02330039 50008
03949KAQV AQV20190314151512403/14/19 15:15:31  5-MIN KAQV 142115Z AUTO 26010G15KT 10SM BKN033 OVC070 24/03 A2993 360 24 1600 260/10G15 RMK AO2 T02440028
03949KAQV AQV20190314152011703/14/19 15:20:31  5-MIN KAQV 142120Z AUTO 26007G15KT 10SM OVC033 24/02 A2993 360 24 1500 260/07G15 RMK AO2 T02390022
03949KAQV AQV20190314152511703/14/19 15:25:31  5-MIN KAQV 142125Z AUTO 25008G15KT 10SM OVC033 24/02 A2993 370 24 1500 240/08G15 RMK AO2 T02390022
03949KAQV AQV20190314153013303/14/19 15:30:31  5-MIN KAQV 142130Z AUTO 26008G15KT 220V280 10SM OVC033 24/03 A2994 360 25 1500 260/08G15 220V280 RMK AO2 T02390028
03949KAQV AQV20190314153511103/14/19 15:35:31  5-MIN KAQV 142135Z AUTO VRB06KT 10SM OVC033 24/03 A2993 360 25 1500 VRB/06 RMK AO2 T02390028
03949KAQV AQV20190314154011103/14/19 15:40:31  5-MIN KAQV 142140Z AUTO 26006KT 10SM OVC033 23/03 A2993 360 25 1500 260/06 RMK AO2 T02330028
03949KAQV AQV20190314154511103/14/19 15:45:31  5-MIN KAQV 142145Z AUTO VRB05KT 10SM OVC033 24/03 A2994 360 26 1500 VRB/05 RMK AO2 T02390033
03949KAQV AQV20190314155011803/14/19 15:50:31  5-MIN KAQV 142150Z AUTO VRB05KT 10SM OVC033 23/03 A2994 360 26 1500 VRB/05 RMK AO2 SLP135 T02330033
03949KAQV AQV20190314155511803/14/19 15:55:31  5-MIN KAQV 142155Z AUTO VRB05KT 10SM OVC033 23/03 A2994 360 26 1500 VRB/05 RMK AO2 SLP135 T02330033
03949KAQV AQV20190314160011103/14/19 16:00:31  5-MIN KAQV 142200Z AUTO VRB03KT 10SM OVC033 23/04 A2994 360 28 1400 VRB/03 RMK AO2 T02330039
03949KAQV AQV20190314160511803/14/19 16:05:31  5-MIN KAQV 142205Z AUTO VRB05KT 10SM BKN033 OVC075 23/04 A2994 360 30 1400 VRB/05 RMK AO2 T02280044
03949KAQV AQV20190314161011803/14/19 16:10:31  5-MIN KAQV 142210Z AUTO VRB05KT 10SM BKN034 OVC075 23/04 A2995 350 30 1400 VRB/05 RMK AO2 T02280044
03949KAQV AQV20190314161511803/14/19 16:15:31  5-MIN KAQV 142215Z AUTO VRB05KT 10SM BKN034 OVC070 23/04 A2995 350 29 1400 VRB/05 RMK AO2 T02330044
03949KAQV AQV20190314162011803/14/19 16:20:31  5-MIN KAQV 142220Z AUTO VRB06KT 10SM BKN035 OVC075 23/04 A2995 350 29 1400 VRB/06 RMK AO2 T02330044
03949KAQV AQV20190314162511803/14/19 16:25:31  5-MIN KAQV 142225Z AUTO VRB06KT 10SM BKN035 OVC075 23/04 A2995 350 30 1400 VRB/06 RMK AO2 T02280044
03949KAQV AQV20190314163011803/14/19 16:30:31  5-MIN KAQV 142230Z AUTO VRB03KT 10SM BKN034 OVC075 23/04 A2995 350 30 1400 VRB/03 RMK AO2 T02280044
03949KAQV AQV20190314163511103/14/19 16:35:31  5-MIN KAQV 142235Z AUTO VRB04KT 10SM OVC034 22/04 A2995 350 31 1300 VRB/04 RMK AO2 T02220044
03949KAQV AQV20190314164011103/14/19 16:40:31  5-MIN KAQV 142240Z AUTO VRB04KT 10SM OVC034 22/04 A2995 350 31 1300 VRB/04 RMK AO2 T02220044
03949KAQV AQV20190314164511103/14/19 16:45:31  5-MIN KAQV 142245Z AUTO VRB04KT 10SM OVC034 22/04 A2995 340 32 1200 VRB/04 RMK AO2 T02170044
03949KAQV AQV20190314165012503/14/19 16:50:31  5-MIN KAQV 142250Z AUTO VRB04KT 10SM BKN034 OVC070 22/05 A2996 340 32 1300 VRB/04 RMK AO2 SLP142 T02220050
03949KAQV AQV20190314165512503/14/19 16:55:31  5-MIN KAQV 142255Z AUTO VRB03KT 10SM BKN034 BKN070 22/05 A2996 340 32 1300 VRB/03 RMK AO2 SLP142 T02220050
03949KAQV AQV20190314170011803/14/19 17:00:31  5-MIN KAQV 142300Z AUTO VRB03KT 10SM SCT034 BKN070 22/04 A2996 340 31 1300 VRB/03 RMK AO2 T02220044
03949KAQV AQV20190314170511803/14/19 17:05:31  5-MIN KAQV 142305Z AUTO 35004KT 10SM SCT034 BKN070 22/04 A2996 340 32 1200 340/04 RMK AO2 T02170044
03949KAQV AQV20190314171011803/14/19 17:10:31  5-MIN KAQV 142310Z AUTO 34005KT 10SM FEW036 SCT070 21/04 A2996 340 33 1200 340/05 RMK AO2 T02110044
03949KAQV AQV20190314171511103/14/19 17:15:31  5-MIN KAQV 142315Z AUTO VRB05KT 10SM SCT070 22/04 A2996 340 32 1200 VRB/05 RMK AO2 T02170044
03949KAQV AQV20190314172011803/14/19 17:20:31  5-MIN KAQV 142320Z AUTO 00000KT 10SM FEW038 SCT070 22/04 A2996 340 32 1200 000/00 RMK AO2 T02170044
03949KAQV AQV20190314172511803/14/19 17:25:31  5-MIN KAQV 142325Z AUTO 00000KT 10SM FEW038 FEW075 21/04 A2997 330 33 1200 000/00 RMK AO2 T02110044
03949KAQV AQV20190314173011803/14/19 17:30:31  5-MIN KAQV 142330Z AUTO VRB04KT 10SM FEW038 FEW075 21/04 A2997 330 33 1200 VRB/04 RMK AO2 T02110044
03949KAQV AQV20190314173511803/14/19 17:35:31  5-MIN KAQV 142335Z AUTO VRB03KT 10SM FEW034 FEW075 21/05 A2997 330 35 1100 VRB/03 RMK AO2 T02060050
03949KAQV AQV20190314174011803/14/19 17:40:31  5-MIN KAQV 142340Z AUTO 31004KT 10SM FEW034 SCT075 21/05 A2997 330 35 1100 310/04 RMK AO2 T02060050
03949KAQV AQV20190314174511103/14/19 17:45:31  5-MIN KAQV 142345Z AUTO 32003KT 10SM SCT034 21/05 A2997 330 35 1100 310/03 RMK AO2 T02060050
03949KAQV AQV20190314175013603/14/19 17:50:31  5-MIN KAQV 142350Z AUTO VRB03KT 10SM SCT034 20/05 A2997 330 37 1000 VRB/03 RMK AO2 SLP147 T02000050 10244 20200 56003
03949KAQV AQV20190314175513603/14/19 17:55:31  5-MIN KAQV 142355Z AUTO 00000KT 10SM FEW034 20/05 A2998 320 37 1000 000/00 RMK AO2 SLP148 T02000050 10244 20200 56003
03949KAQV AQV20190314180011103/14/19 18:00:31  5-MIN KAQV 150000Z AUTO 00000KT 10SM SCT035 19/06 A2998 320 41 1000 000/00 RMK AO2 T01940061
03949KAQV AQV20190314180511003/14/19 18:05:31  5-MIN KAQV 150005Z AUTO 00000KT 10SM BKN035 19/07 A2998 320 44 900 000/00 RMK AO2 T01890067
03949KAQV AQV20190314181011003/14/19 18:10:31  5-MIN KAQV 150010Z AUTO 00000KT 10SM BKN037 18/07 A2998 320 48 800 000/00 RMK AO2 T01830072
03949KAQV AQV20190314181511003/14/19 18:15:31  5-MIN KAQV 150015Z AUTO 00000KT 10SM BKN037 18/07 A2998 320 48 800 000/00 RMK AO2 T01780067
03949KAQV AQV20190314182011003/14/19 18:20:31  5-MIN KAQV 150020Z AUTO 00000KT 10SM BKN037 17/07 A2998 320 51 700 000/00 RMK AO2 T01720072
03949KAQV AQV20190314182511003/14/19 18:25:31  5-MIN KAQV 150025Z AUTO 00000KT 10SM OVC037 17/07 A2999 310 51 700 000/00 RMK AO2 T01720072
03949KAQV AQV20190314183011003/14/19 18:30:31  5-MIN KAQV 150030Z AUTO 00000KT 10SM OVC036 17/07 A2999 310 53 600 000/00 RMK AO2 T01670072
03949KAQV AQV20190314183511003/14/19 18:35:31  5-MIN KAQV 150035Z AUTO 32003KT 10SM OVC036 17/08 A2999 310 55 600 320/03 RMK AO2 T01670078
03949KAQV AQV20190314184011003/14/19 18:40:31  5-MIN KAQV 150040Z AUTO 00000KT 10SM BKN036 17/07 A2999 310 53 600 000/00 RMK AO2 T01670072
03949KAQV AQV20190314184511003/14/19 18:45:31  5-MIN KAQV 150045Z AUTO 00000KT 10SM BKN036 17/07 A2999 310 49 700 000/00 RMK AO2 T01720067
03949KAQV AQV20190314185011703/14/19 18:50:31  5-MIN KAQV 150050Z AUTO 00000KT 10SM SCT036 17/06 A3000 300 47 700 000/00 RMK AO2 SLP158 T01720061
03949KAQV AQV20190314185511703/14/19 18:55:31  5-MIN KAQV 150055Z AUTO 00000KT 10SM FEW036 17/06 A3000 300 47 700 000/00 RMK AO2 SLP158 T01720061
03949KAQV AQV20190314190011003/14/19 19:00:31  5-MIN KAQV 150100Z AUTO VRB03KT 10SM FEW037 17/06 A3000 300 47 700 VRB/03 RMK AO2 T01720061
03949KAQV AQV20190314190510703/14/19 19:05:31  5-MIN KAQV 150105Z AUTO 00000KT 10SM CLR 17/06 A3001 300 49 600 000/00 RMK AO2 T01670061
03949KAQV AQV20190314191010703/14/19 19:10:31  5-MIN KAQV 150110Z AUTO 33003KT 10SM CLR 17/06 A3001 290 49 600 320/03 RMK AO2 T01670061
03949KAQV AQV20190314191510703/14/19 19:15:31  5-MIN KAQV 150115Z AUTO 00000KT 10SM CLR 16/06 A3001 290 51 500 000/00 RMK AO2 T01610061
03949KAQV AQV20190314192010703/14/19 19:20:31  5-MIN KAQV 150120Z AUTO 00000KT 10SM CLR 17/06 A3002 290 47 600 000/00 RMK AO2 T01670056
03949KAQV AQV20190314192510703/14/19 19:25:31  5-MIN KAQV 150125Z AUTO 00000KT 10SM CLR 16/06 A3002 290 51 500 000/00 RMK AO2 T01610061
03949KAQV AQV20190314193010703/14/19 19:30:31  5-MIN KAQV 150130Z AUTO 35003KT 10SM CLR 16/06 A3002 280 53 500 350/03 RMK AO2 T01560061
03949KAQV AQV20190314193510703/14/19 19:35:31  5-MIN KAQV 150135Z AUTO VRB03KT 10SM CLR 16/06 A3002 280 53 500 VRB/03 RMK AO2 T01560061
03949KAQV AQV20190314194011003/14/19 19:40:31  5-MIN KAQV 150140Z AUTO 00000KT 10SM FEW085 16/05 A3002 280 47 500 000/00 RMK AO2 T01610050
03949KAQV AQV20190314194511003/14/19 19:45:31  5-MIN KAQV 150145Z AUTO 00000KT 10SM SCT085 16/05 A3003 280 47 500 000/00 RMK AO2 T01610050
03949KAQV AQV20190314195011703/14/19 19:50:31  5-MIN KAQV 150150Z AUTO 00000KT 10SM SCT085 16/05 A3003 280 49 400 000/00 RMK AO2 SLP168 T01560050
03949KAQV AQV20190314195511703/14/19 19:55:31  5-MIN KAQV 150155Z AUTO VRB03KT 10SM SCT085 16/04 A3003 270 47 400 VRB/03 RMK AO2 SLP169 T01560044
03949KAQV AQV20190314200011003/14/19 20:00:31  5-MIN KAQV 150200Z AUTO 00000KT 10SM SCT085 16/04 A3003 270 47 400 000/00 RMK AO2 T01560044
03949KAQV AQV20190314200511003/14/19 20:05:31  5-MIN KAQV 150205Z AUTO VRB03KT 10SM FEW085 16/04 A3003 270 47 400 VRB/03 RMK AO2 T01560044
03949KAQV AQV20190314201011003/14/19 20:10:31  5-MIN KAQV 150210Z AUTO 00000KT 10SM FEW085 16/05 A3004 270 49 400 000/00 RMK AO2 T01560050
03949KAQV AQV20190314201511003/14/19 20:15:31  5-MIN KAQV 150215Z AUTO VRB03KT 10SM FEW085 15/06 A3004 270 53 400 VRB/03 RMK AO2 T01500056
03949KAQV AQV20190314202011003/14/19 20:20:31  5-MIN KAQV 150220Z AUTO 00000KT 10SM FEW085 15/05 A3004 260 51 400 000/00 RMK AO2 T01500050
03949KAQV AQV20190314202511003/14/19 20:25:31  5-MIN KAQV 150225Z AUTO 00000KT 10SM SCT085 15/05 A3005 260 51 400 000/00 RMK AO2 T01500050
03949KAQV AQV20190314203011003/14/19 20:30:31  5-MIN KAQV 150230Z AUTO 00000KT 10SM SCT085 15/05 A3006 250 51 400 000/00 RMK AO2 T01500050
03949KAQV AQV20190314203511703/14/19 20:35:31  5-MIN KAQV 150235Z AUTO 00000KT 10SM BKN085 15/05 A3006 240 51 300 000/00 RMK AO2 PRESRR T01500050
03949KAQV AQV20190314204011003/14/19 20:40:31  5-MIN KAQV 150240Z AUTO 00000KT 10SM BKN085 15/05 A3007 240 51 300 000/00 RMK AO2 T01500050
03949KAQV AQV20190314204511003/14/19 20:45:31  5-MIN KAQV 150245Z AUTO VRB03KT 10SM BKN085 15/04 A3007 240 49 300 VRB/03 RMK AO2 T01500044
03949KAQV AQV20190314205012303/14/19 20:50:31  5-MIN KAQV 150250Z AUTO 00000KT 10SM BKN085 15/04 A3007 230 49 300 000/00 RMK AO2 SLP183 T01500044 53017
03949KAQV AQV20190314205512303/14/19 20:55:31  5-MIN KAQV 150255Z AUTO 00000KT 10SM SCT085 15/05 A3007 230 51 300 000/00 RMK AO2 SLP183 T01500050 53017
03949KAQV AQV20190314210011003/14/19 21:00:31  5-MIN KAQV 150300Z AUTO 00000KT 10SM FEW085 15/05 A3008 230 51 300 000/00 RMK AO2 T01500050
03949KAQV AQV20190314210511003/14/19 21:05:31  5-MIN KAQV 150305Z AUTO VRB03KT 10SM FEW085 15/04 A3008 230 49 300 VRB/03 RMK AO2 T01500044
03949KAQV AQV20190314211010703/14/19 21:10:31  5-MIN KAQV 150310Z AUTO VRB03KT 10SM CLR 15/04 A3008 230 47 300 VRB/03 RMK AO2 T01500039
03949KAQV AQV20190314211510703/14/19 21:15:31  5-MIN KAQV 150315Z AUTO VRB03KT 10SM CLR 15/04 A3008 230 47 300 VRB/03 RMK AO2 T01500039
03949KAQV AQV20190314212010703/14/19 21:20:31  5-MIN KAQV 150320Z AUTO VRB03KT 10SM CLR 15/03 A3008 230 45 300 VRB/03 RMK AO2 T01500033
03949KAQV AQV20190314212510703/14/19 21:25:31  5-MIN KAQV 150325Z AUTO VRB03KT 10SM CLR 15/03 A3008 230 45 300 VRB/03 RMK AO2 T01500033
03949KAQV AQV20190314213010703/14/19 21:30:31  5-MIN KAQV 150330Z AUTO 00000KT 10SM CLR 15/03 A3008 230 45 300 000/00 RMK AO2 T01500033
03949KAQV AQV20190314213510703/14/19 21:35:31  5-MIN KAQV 150335Z AUTO VRB03KT 10SM CLR 15/03 A3009 220 45 300 VRB/03 RMK AO2 T01500033
03949KAQV AQV20190314214010703/14/19 21:40:31  5-MIN KAQV 150340Z AUTO VRB04KT 10SM CLR 15/03 A3009 220 45 300 VRB/04 RMK AO2 T01500033
03949KAQV AQV20190314214510703/14/19 21:45:31  5-MIN KAQV 150345Z AUTO VRB03KT 10SM CLR 15/03 A3009 220 45 300 VRB/03 RMK AO2 T01500033
03949KAQV AQV20190314215011403/14/19 21:50:31  5-MIN KAQV 150350Z AUTO VRB04KT 10SM CLR 15/03 A3010 210 45 300 VRB/04 RMK AO2 SLP190 T01500033
03949KAQV AQV20190314215511403/14/19 21:55:31  5-MIN KAQV 150355Z AUTO VRB04KT 10SM CLR 15/03 A3010 210 45 300 VRB/04 RMK AO2 SLP190 T01500033
03949KAQV AQV20190314220010703/14/19 22:00:31  5-MIN KAQV 150400Z AUTO VRB03KT 10SM CLR 15/03 A3010 210 45 300 VRB/03 RMK AO2 T01500033
03949KAQV AQV20190314220510703/14/19 22:05:31  5-MIN KAQV 150405Z AUTO VRB03KT 10SM CLR 15/03 A3010 210 43 300 VRB/03 RMK AO2 T01500028
03949KAQV AQV20190314221010703/14/19 22:10:31  5-MIN KAQV 150410Z AUTO VRB05KT 10SM CLR 15/03 A3010 210 43 300 VRB/05 RMK AO2 T01500028
03949KAQV AQV20190314221510703/14/19 22:15:31  5-MIN KAQV 150415Z AUTO VRB03KT 10SM CLR 15/03 A3011 200 43 300 VRB/03 RMK AO2 T01500028
03949KAQV AQV20190314222010703/14/19 22:20:31  5-MIN KAQV 150420Z AUTO VRB05KT 10SM CLR 15/03 A3011 210 43 300 VRB/05 RMK AO2 T01500028
03949KAQV AQV20190314222510703/14/19 22:25:31  5-MIN KAQV 150425Z AUTO VRB05KT 10SM CLR 14/03 A3011 200 45 200 VRB/05 RMK AO2 T01440028
03949KAQV AQV20190314223010703/14/19 22:30:31  5-MIN KAQV 150430Z AUTO VRB04KT 10SM CLR 14/03 A3011 200 45 200 VRB/04 RMK AO2 T01440028
03949KAQV AQV20190314223510703/14/19 22:35:31  5-MIN KAQV 150435Z AUTO VRB05KT 10SM CLR 14/03 A3011 200 45 200 VRB/05 RMK AO2 T01440028
03949KAQV AQV20190314224010703/14/19 22:40:31  5-MIN KAQV 150440Z AUTO VRB05KT 10SM CLR 14/03 A3011 200 45 200 VRB/05 RMK AO2 T01440028
03949KAQV AQV20190314224510703/14/19 22:45:31  5-MIN KAQV 150445Z AUTO VRB05KT 10SM CLR 14/03 A3011 200 45 200 VRB/05 RMK AO2 T01440028
03949KAQV AQV20190314225011703/14/19 22:50:31  5-MIN KAQV 150450Z AUTO VRB05KT 10SM FEW080 14/03 A3011 200 45 200 VRB/05 RMK AO2 SLP195 T01440028
03949KAQV AQV20190314225511703/14/19 22:55:31  5-MIN KAQV 150455Z AUTO VRB04KT 10SM FEW080 14/03 A3011 200 45 200 VRB/04 RMK AO2 SLP194 T01440028
03949KAQV AQV20190314230011003/14/19 23:00:31  5-MIN KAQV 150500Z AUTO VRB05KT 10SM FEW080 14/03 A3011 200 45 200 VRB/05 RMK AO2 T01440028
03949KAQV AQV20190314230511003/14/19 23:05:31  5-MIN KAQV 150505Z AUTO VRB03KT 10SM FEW080 14/03 A3011 200 45 200 VRB/03 RMK AO2 T01440028
03949KAQV AQV20190314231011003/14/19 23:10:31  5-MIN KAQV 150510Z AUTO VRB03KT 10SM FEW080 14/03 A3011 200 48 200 VRB/03 RMK AO2 T01390033
03949KAQV AQV20190314231511003/14/19 23:15:31  5-MIN KAQV 150515Z AUTO VRB03KT 10SM FEW080 14/03 A3012 200 47 100 VRB/03 RMK AO2 T01390028
03949KAQV AQV20190314232010703/14/19 23:20:31  5-MIN KAQV 150520Z AUTO VRB04KT 10SM CLR 14/03 A3012 190 45 200 VRB/04 RMK AO2 T01440028
03949KAQV AQV20190314232510703/14/19 23:25:31  5-MIN KAQV 150525Z AUTO VRB04KT 10SM CLR 14/03 A3012 190 47 100 VRB/04 RMK AO2 T01390028
03949KAQV AQV20190314233010703/14/19 23:30:31  5-MIN KAQV 150530Z AUTO VRB04KT 10SM CLR 14/03 A3012 190 47 100 VRB/04 RMK AO2 T01390028
03949KAQV AQV20190314233510703/14/19 23:35:31  5-MIN KAQV 150535Z AUTO VRB06KT 10SM CLR 14/03 A3012 190 47 100 VRB/06 RMK AO2 T01390028
03949KAQV AQV20190314234010703/14/19 23:40:31  5-MIN KAQV 150540Z AUTO VRB05KT 10SM CLR 14/03 A3012 190 47 100 VRB/05 RMK AO2 T01390028
03949KAQV AQV20190314234510703/14/19 23:45:31  5-MIN KAQV 150545Z AUTO VRB04KT 10SM CLR 14/03 A3012 190 47 100 VRB/04 RMK AO2 T01390028
03949KAQV AQV20190314235014203/14/19 23:50:31  5-MIN KAQV 150550Z AUTO VRB05KT 10SM CLR 14/03 A3012 190 47 100 VRB/05 RMK AO2 SLP199 T01390028 10200 20139 402440139 53033
03949KAQV AQV20190314235514203/14/19 23:55:31  5-MIN KAQV 150555Z AUTO VRB05KT 10SM CLR 14/03 A3012 190 47 100 VRB/05 RMK AO2 SLP199 T01390028 10200 20139 402440139 53033
03949KAQV AQV20190315000010703/15/19 00:00:31  5-MIN KAQV 150600Z AUTO VRB04KT 10SM CLR 14/03 A3012 190 47 100 VRB/04 RMK AO2 T01390028
03949KAQV AQV20190315000510703/15/19 00:05:31  5-MIN KAQV 150605Z AUTO VRB05KT 10SM CLR 14/03 A3012 190 47 100 VRB/05 RMK AO2 T01390028
03949KAQV AQV20190315001010703/15/19 00:10:31  5-MIN KAQV 150610Z AUTO 00000KT 10SM CLR 13/03 A3013 190 48 100 000/00 RMK AO2 T01330028
03949KAQV AQV20190315001510703/15/19 00:15:31  5-MIN KAQV 150615Z AUTO VRB05KT 10SM CLR 13/03 A3012 190 48 100 VRB/05 RMK AO2 T01330028
03949KAQV AQV20190315002010703/15/19 00:20:31  5-MIN KAQV 150620Z AUTO VRB04KT 10SM CLR 13/03 A3012 190 48 100 VRB/04 RMK AO2 T01330028
03949KAQV AQV20190315002510703/15/19 00:25:31  5-MIN KAQV 150625Z AUTO VRB04KT 10SM CLR 13/03 A3013 190 48 100 VRB/04 RMK AO2 T01330028
03949KAQV AQV20190315003010703/15/19 00:30:31  5-MIN KAQV 150630Z AUTO VRB03KT 10SM CLR 13/03 A3013 190 48 100 VRB/03 RMK AO2 T01330028
03949KAQV AQV20190315003510703/15/19 00:35:31  5-MIN KAQV 150635Z AUTO VRB03KT 10SM CLR 13/03 A3013 180 48 100 VRB/03 RMK AO2 T01330028
03949KAQV AQV20190315004010703/15/19 00:40:31  5-MIN KAQV 150640Z AUTO VRB05KT 10SM CLR 13/03 A3013 180 48 100 VRB/05 RMK AO2 T01330028
03949KAQV AQV20190315004510703/15/19 00:45:31  5-MIN KAQV 150645Z AUTO VRB04KT 10SM CLR 13/02 A3013 180 46 100 VRB/04 RMK AO2 T01330022
03949KAQV AQV20190315005011403/15/19 00:50:31  5-MIN KAQV 150650Z AUTO VRB05KT 10SM CLR 13/02 A3013 180 46 100 VRB/05 RMK AO2 SLP201 T01330022
03949KAQV AQV20190315005511403/15/19 00:55:31  5-MIN KAQV 150655Z AUTO VRB06KT 10SM CLR 13/02 A3013 180 46 100 VRB/06 RMK AO2 SLP201 T01330022
03949KAQV AQV20190315010012103/15/19 01:00:31  5-MIN KAQV 150700Z AUTO 34007KT 280V040 10SM CLR 13/03 A3013 180 50 0 330/07 280V040 RMK AO2 T01280028
03949KAQV AQV20190315010510503/15/19 01:05:31  5-MIN KAQV 150705Z AUTO VRB06KT 10SM CLR 13/02 A3013 180 48 0 VRB/06 RMK AO2 T01280022
03949KAQV AQV20190315011010503/15/19 01:10:31  5-MIN KAQV 150710Z AUTO VRB05KT 10SM CLR 13/02 A3013 180 48 0 VRB/05 RMK AO2 T01280022
03949KAQV AQV20190315011510503/15/19 01:15:31  5-MIN KAQV 150715Z AUTO VRB04KT 10SM CLR 13/02 A3014 180 48 0 VRB/04 RMK AO2 T01280022
03949KAQV AQV20190315012010503/15/19 01:20:31  5-MIN KAQV 150720Z AUTO VRB04KT 10SM CLR 12/02 A3014 180 50 0 VRB/04 RMK AO2 T01220022
03949KAQV AQV20190315012510503/15/19 01:25:31  5-MIN KAQV 150725Z AUTO VRB04KT 10SM CLR 12/02 A3014 170 50 0 VRB/04 RMK AO2 T01220022
03949KAQV AQV20190315013010503/15/19 01:30:31  5-MIN KAQV 150730Z AUTO VRB05KT 10SM CLR 12/02 A3014 170 50 0 VRB/05 RMK AO2 T01220022
03949KAQV AQV20190315013510503/15/19 01:35:31  5-MIN KAQV 150735Z AUTO VRB06KT 10SM CLR 12/02 A3014 170 50 0 VRB/06 RMK AO2 T01220022
03949KAQV AQV20190315014010503/15/19 01:40:31  5-MIN KAQV 150740Z AUTO VRB05KT 10SM CLR 12/02 A3015 170 50 0 VRB/05 RMK AO2 T01220022
03949KAQV AQV20190315014512103/15/19 01:45:31  5-MIN KAQV 150745Z AUTO 34007KT 300V020 10SM CLR 12/02 A3015 170 50 0 330/07 300V020 RMK AO2 T01220022
03949KAQV AQV20190315015011203/15/19 01:50:31  5-MIN KAQV 150750Z AUTO VRB06KT 10SM CLR 12/02 A3015 170 50 0 VRB/06 RMK AO2 SLP208 T01220022
03949KAQV AQV20190315015511503/15/19 01:55:31  5-MIN KAQV 150755Z AUTO VRB06KT 10SM CLR 12/02 A3015 160 52 -100 VRB/06 RMK AO2 SLP209 T01170022
03949KAQV AQV20190315020012403/15/19 02:00:31  5-MIN KAQV 150800Z AUTO 34007KT 300V030 10SM CLR 12/02 A3015 160 52 -100 340/07 300V030 RMK AO2 T01170022
03949KAQV AQV20190315020510803/15/19 02:05:31  5-MIN KAQV 150805Z AUTO 34006KT 10SM CLR 12/02 A3016 160 50 -100 340/06 RMK AO2 T01170017
03949KAQV AQV20190315021010803/15/19 02:10:31  5-MIN KAQV 150810Z AUTO 35007KT 10SM CLR 12/02 A3016 160 50 -100 340/07 RMK AO2 T01170017
03949KAQV AQV20190315021510803/15/19 02:15:31  5-MIN KAQV 150815Z AUTO VRB05KT 10SM CLR 12/02 A3016 150 50 -100 VRB/05 RMK AO2 T01170017
03949KAQV AQV20190315022009803/15/19 02:20:31  5-MIN KAQV 150820Z AUTO 10SM CLR 12/02 A3017 150 50 -100 M /M RMK AO2 T01170017
03949KAQV AQV20190315022510803/15/19 02:25:31  5-MIN KAQV 150825Z AUTO 35006KT 10SM CLR 12/02 A3016 150 52 -100 350/06 RMK AO2 T01170022
03949KAQV AQV20190315023010803/15/19 02:30:31  5-MIN KAQV 150830Z AUTO VRB06KT 10SM CLR 12/02 A3016 150 50 -100 VRB/06 RMK AO2 T01170017
03949KAQV AQV20190315023510803/15/19 02:35:31  5-MIN KAQV 150835Z AUTO VRB04KT 10SM CLR 12/02 A3017 150 50 -100 VRB/04 RMK AO2 T01170017
03949KAQV AQV20190315024010803/15/19 02:40:31  5-MIN KAQV 150840Z AUTO VRB04KT 10SM CLR 12/02 A3017 150 50 -100 VRB/04 RMK AO2 T01170017
03949KAQV AQV20190315024510803/15/19 02:45:31  5-MIN KAQV 150845Z AUTO VRB05KT 10SM CLR 11/02 A3017 150 52 -200 VRB/05 RMK AO2 T01110017
03949KAQV AQV20190315025012103/15/19 02:50:31  5-MIN KAQV 150850Z AUTO VRB05KT 10SM CLR 11/02 A3017 140 52 -200 VRB/05 RMK AO2 SLP216 T01110017 51016
03949KAQV AQV20190315025512103/15/19 02:55:31  5-MIN KAQV 150855Z AUTO VRB04KT 10SM CLR 11/02 A3018 140 52 -200 VRB/04 RMK AO2 SLP218 T01110017 51016
03949KAQV AQV20190315030010803/15/19 03:00:31  5-MIN KAQV 150900Z AUTO VRB04KT 10SM CLR 11/01 A3017 140 50 -200 VRB/04 RMK AO2 T01110011
03949KAQV AQV20190315030510803/15/19 03:05:31  5-MIN KAQV 150905Z AUTO 34006KT 10SM CLR 11/01 A3018 140 50 -200 340/06 RMK AO2 T01110011
03949KAQV AQV20190315031010803/15/19 03:10:31  5-MIN KAQV 150910Z AUTO 35009KT 10SM CLR 11/01 A3018 140 50 -200 350/09 RMK AO2 T01110011
03949KAQV AQV20190315031510803/15/19 03:15:31  5-MIN KAQV 150915Z AUTO VRB05KT 10SM CLR 11/01 A3018 140 50 -200 VRB/05 RMK AO2 T01110011
03949KAQV AQV20190315032010803/15/19 03:20:31  5-MIN KAQV 150920Z AUTO VRB05KT 10SM CLR 11/01 A3018 130 52 -300 VRB/05 RMK AO2 T01060011
03949KAQV AQV20190315032510803/15/19 03:25:31  5-MIN KAQV 150925Z AUTO 35006KT 10SM CLR 11/01 A3017 140 52 -300 350/06 RMK AO2 T01060011
03949KAQV AQV20190315033010803/15/19 03:30:31  5-MIN KAQV 150930Z AUTO VRB04KT 10SM CLR 11/01 A3018 140 50 -300 VRB/04 RMK AO2 T01060006
03949KAQV AQV20190315033510803/15/19 03:35:31  5-MIN KAQV 150935Z AUTO VRB04KT 10SM CLR 11/01 A3018 140 50 -300 VRB/04 RMK AO2 T01060006
03949KAQV AQV20190315034010803/15/19 03:40:31  5-MIN KAQV 150940Z AUTO VRB05KT 10SM CLR 11/01 A3018 140 50 -300 VRB/05 RMK AO2 T01060006
03949KAQV AQV20190315034510803/15/19 03:45:31  5-MIN KAQV 150945Z AUTO VRB06KT 10SM CLR 11/01 A3018 140 50 -300 VRB/06 RMK AO2 T01060006
03949KAQV AQV20190315035011503/15/19 03:50:31  5-MIN KAQV 150950Z AUTO VRB04KT 10SM CLR 11/01 A3018 140 50 -300 VRB/04 RMK AO2 SLP218 T01060006
03949KAQV AQV20190315035511503/15/19 03:55:31  5-MIN KAQV 150955Z AUTO VRB04KT 10SM CLR 10/01 A3019 130 52 -300 VRB/04 RMK AO2 SLP221 T01000006
03949KAQV AQV20190315040010803/15/19 04:00:31  5-MIN KAQV 151000Z AUTO 34006KT 10SM CLR 10/01 A3019 130 52 -300 340/06 RMK AO2 T01000006
03949KAQV AQV20190315040510803/15/19 04:05:31  5-MIN KAQV 151005Z AUTO VRB04KT 10SM CLR 10/01 A3019 130 52 -300 VRB/04 RMK AO2 T01000006
03949KAQV AQV20190315041010803/15/19 04:10:31  5-MIN KAQV 151010Z AUTO VRB04KT 10SM CLR 10/01 A3019 130 52 -300 VRB/04 RMK AO2 T01000006
03949KAQV AQV20190315041510803/15/19 04:15:31  5-MIN KAQV 151015Z AUTO VRB04KT 10SM CLR 10/00 A3019 130 49 -400 VRB/04 RMK AO2 T01000000
03949KAQV AQV20190315042010803/15/19 04:20:31  5-MIN KAQV 151020Z AUTO 36004KT 10SM CLR 09/00 A3019 130 51 -400 350/04 RMK AO2 T00940000
03949KAQV AQV20190315042510803/15/19 04:25:31  5-MIN KAQV 151025Z AUTO VRB03KT 10SM CLR 09/00 A3020 120 51 -400 VRB/03 RMK AO2 T00940000
03949KAQV AQV20190315043010803/15/19 04:30:31  5-MIN KAQV 151030Z AUTO VRB05KT 10SM CLR 09/00 A3019 120 51 -400 VRB/05 RMK AO2 T00940000
03949KAQV AQV20190315043510903/15/19 04:35:31  5-MIN KAQV 151035Z AUTO 36004KT 10SM CLR 09/M01 A3020 120 49 -400 360/04 RMK AO2 T00941006
03949KAQV AQV20190315044010903/15/19 04:40:31  5-MIN KAQV 151040Z AUTO 35004KT 10SM CLR 09/M01 A3020 120 49 -400 340/04 RMK AO2 T00941006
03949KAQV AQV20190315044510903/15/19 04:45:31  5-MIN KAQV 151045Z AUTO VRB03KT 10SM CLR 09/M01 A3021 110 49 -400 VRB/03 RMK AO2 T00941006
03949KAQV AQV20190315045011503/15/19 04:50:31  5-MIN KAQV 151050Z AUTO VRB03KT 10SM CLR 09/00 A3021 110 51 -400 VRB/03 RMK AO2 SLP228 T00940000
03949KAQV AQV20190315045511503/15/19 04:55:31  5-MIN KAQV 151055Z AUTO 35003KT 10SM CLR 09/01 A3021 110 56 -500 340/03 RMK AO2 SLP228 T00890006
03949KAQV AQV20190315050010803/15/19 05:00:31  5-MIN KAQV 151100Z AUTO 35004KT 10SM CLR 09/00 A3020 110 53 -500 350/04 RMK AO2 T00890000
03949KAQV AQV20190315050509803/15/19 05:05:31  5-MIN KAQV 151105Z AUTO 10SM CLR 08/01 A3021 110 58 -600 M /M RMK AO2 T00830006
03949KAQV AQV20190315051010803/15/19 05:10:31  5-MIN KAQV 151110Z AUTO 34003KT 10SM CLR 09/00 A3021 110 53 -500 340/03 RMK AO2 T00890000
03949KAQV AQV20190315051510803/15/19 05:15:31  5-MIN KAQV 151115Z AUTO 00000KT 10SM CLR 08/01 A3021 110 58 -600 000/00 RMK AO2 T00830006
03949KAQV AQV20190315052010803/15/19 05:20:31  5-MIN KAQV 151120Z AUTO 00000KT 10SM CLR 08/01 A3021 110 60 -600 000/00 RMK AO2 T00830011
03949KAQV AQV20190315052509803/15/19 05:25:31  5-MIN KAQV 151125Z AUTO 10SM CLR 08/01 A3022 100 58 -600 M /M RMK AO2 T00830006
03949KAQV AQV20190315053010803/15/19 05:30:31  5-MIN KAQV 151130Z AUTO 34003KT 10SM CLR 08/01 A3022 100 60 -600 340/03 RMK AO2 T00830011
03949KAQV AQV20190315053510803/15/19 05:35:31  5-MIN KAQV 151135Z AUTO 35003KT 10SM CLR 08/01 A3022 100 58 -600 350/03 RMK AO2 T00830006
03949KAQV AQV20190315054010803/15/19 05:40:31  5-MIN KAQV 151140Z AUTO 36004KT 10SM CLR 08/01 A3022 100 58 -600 350/04 RMK AO2 T00830006
03949KAQV AQV20190315054510703/15/19 05:45:31  5-MIN KAQV 151145Z AUTO 33004KT 10SM CLR 08/01 A3023 90 58 -600 330/04 RMK AO2 T00830006
03949KAQV AQV20190315055013803/15/19 05:50:31  5-MIN KAQV 151150Z AUTO VRB03KT 10SM CLR 08/01 A3024 90 58 -600 VRB/03 RMK AO2 SLP238 70005 T00830006 10139 20083 53018
03949KAQV AQV20190315055513803/15/19 05:55:31  5-MIN KAQV 151155Z AUTO VRB05KT 10SM CLR 08/01 A3023 90 58 -600 VRB/05 RMK AO2 SLP238 70005 T00830006 10139 20083 53018
03949KAQV AQV20190315060010703/15/19 06:00:31  5-MIN KAQV 151200Z AUTO 35005KT 10SM CLR 08/01 A3024 90 58 -600 340/05 RMK AO2 T00830006
03949KAQV AQV20190315060510703/15/19 06:05:31  5-MIN KAQV 151205Z AUTO 36005KT 10SM CLR 08/00 A3024 80 55 -600 360/05 RMK AO2 T00830000
03949KAQV AQV20190315061010703/15/19 06:10:31  5-MIN KAQV 151210Z AUTO VRB05KT 10SM CLR 08/00 A3024 80 55 -600 VRB/05 RMK AO2 T00830000
03949KAQV AQV20190315061510703/15/19 06:15:31  5-MIN KAQV 151215Z AUTO 35004KT 10SM CLR 08/00 A3025 80 55 -600 350/04 RMK AO2 T00830000
03949KAQV AQV20190315062010703/15/19 06:20:31  5-MIN KAQV 151220Z AUTO VRB05KT 10SM CLR 08/00 A3025 70 55 -600 VRB/05 RMK AO2 T00830000
03949KAQV AQV20190315062510703/15/19 06:25:31  5-MIN KAQV 151225Z AUTO 36003KT 10SM CLR 08/00 A3025 70 58 -700 360/03 RMK AO2 T00780000
03949KAQV AQV20190315063010703/15/19 06:30:31  5-MIN KAQV 151230Z AUTO VRB03KT 10SM CLR 08/00 A3025 70 58 -700 VRB/03 RMK AO2 T00780000
03949KAQV AQV20190315063510703/15/19 06:35:31  5-MIN KAQV 151235Z AUTO VRB04KT 10SM CLR 08/00 A3025 70 58 -700 VRB/04 RMK AO2 T00780000
03949KAQV AQV20190315064010703/15/19 06:40:31  5-MIN KAQV 151240Z AUTO 36003KT 10SM CLR 08/01 A3026 70 60 -700 350/03 RMK AO2 T00780006
03949KAQV AQV20190315064510703/15/19 06:45:31  5-MIN KAQV 151245Z AUTO 35003KT 10SM CLR 07/01 A3026 70 62 -800 350/03 RMK AO2 T00720006
03949KAQV AQV20190315065011403/15/19 06:50:31  5-MIN KAQV 151250Z AUTO 35004KT 10SM CLR 08/01 A3026 60 60 -700 350/04 RMK AO2 SLP247 T00780006
03949KAQV AQV20190315065511403/15/19 06:55:31  5-MIN KAQV 151255Z AUTO 36004KT 10SM CLR 08/00 A3026 60 58 -700 350/04 RMK AO2 SLP248 T00780000
03949KAQV AQV20190315070010703/15/19 07:00:31  5-MIN KAQV 151300Z AUTO 36005KT 10SM CLR 08/01 A3026 60 60 -700 350/05 RMK AO2 T00780006
03949KAQV AQV20190315070510703/15/19 07:05:31  5-MIN KAQV 151305Z AUTO 35006KT 10SM CLR 08/00 A3026 60 58 -700 350/06 RMK AO2 T00780000
03949KAQV AQV20190315071010703/15/19 07:10:31  5-MIN KAQV 151310Z AUTO 35004KT 10SM CLR 08/01 A3027 60 60 -700 350/04 RMK AO2 T00780006
03949KAQV AQV20190315071510703/15/19 07:15:31  5-MIN KAQV 151315Z AUTO 00000KT 10SM CLR 08/01 A3027 50 60 -700 000/00 RMK AO2 T00780006
03949KAQV AQV20190315072010703/15/19 07:20:31  5-MIN KAQV 151320Z AUTO 36004KT 10SM CLR 08/01 A3028 50 60 -700 350/04 RMK AO2 T00780006
03949KAQV AQV20190315072510703/15/19 07:25:31  5-MIN KAQV 151325Z AUTO 36004KT 10SM CLR 08/01 A3028 40 60 -700 360/04 RMK AO2 T00780006
03949KAQV AQV20190315073010703/15/19 07:30:31  5-MIN KAQV 151330Z AUTO 35005KT 10SM CLR 08/01 A3028 50 58 -700 350/05 RMK AO2 T00830006
03949KAQV AQV20190315073510703/15/19 07:35:31  5-MIN KAQV 151335Z AUTO 36004KT 10SM CLR 08/01 A3028 40 58 -700 350/04 RMK AO2 T00830006
03949KAQV AQV20190315074010703/15/19 07:40:31  5-MIN KAQV 151340Z AUTO 36005KT 10SM CLR 08/01 A3028 40 60 -700 350/05 RMK AO2 T00780006
03949KAQV AQV20190315074510703/15/19 07:45:31  5-MIN KAQV 151345Z AUTO VRB05KT 10SM CLR 08/01 A3029 40 58 -700 VRB/05 RMK AO2 T00830006
03949KAQV AQV20190315075011403/15/19 07:50:31  5-MIN KAQV 151350Z AUTO VRB03KT 10SM CLR 08/01 A3029 40 58 -700 VRB/03 RMK AO2 SLP258 T00830006
03949KAQV AQV20190315075511403/15/19 07:55:31  5-MIN KAQV 151355Z AUTO 36006KT 10SM CLR 08/01 A3029 30 58 -700 350/06 RMK AO2 SLP259 T00830006
03949KAQV AQV20190315080010703/15/19 08:00:31  5-MIN KAQV 151400Z AUTO VRB05KT 10SM CLR 08/01 A3030 30 58 -700 VRB/05 RMK AO2 T00830006
03949KAQV AQV20190315080510703/15/19 08:05:31  5-MIN KAQV 151405Z AUTO 35004KT 10SM CLR 09/01 A3030 30 56 -600 340/04 RMK AO2 T00890006
03949KAQV AQV20190315081012303/15/19 08:10:31  5-MIN KAQV 151410Z AUTO 35007KT 310V010 10SM CLR 09/01 A3030 30 53 -500 350/07 310V010 RMK AO2 T00940006
03949KAQV AQV20190315081510703/15/19 08:15:31  5-MIN KAQV 151415Z AUTO VRB06KT 10SM CLR 09/01 A3030 30 53 -500 VRB/06 RMK AO2 T00940006
03949KAQV AQV20190315082010703/15/19 08:20:31  5-MIN KAQV 151420Z AUTO 01005KT 10SM CLR 10/01 A3030 30 52 -500 360/05 RMK AO2 T01000006
03949KAQV AQV20190315082510703/15/19 08:25:31  5-MIN KAQV 151425Z AUTO VRB06KT 10SM CLR 10/01 A3030 30 52 -500 VRB/06 RMK AO2 T01000006
03949KAQV AQV20190315083010703/15/19 08:30:31  5-MIN KAQV 151430Z AUTO 36007KT 10SM CLR 10/01 A3030 30 52 -500 350/07 RMK AO2 T01000006
03949KAQV AQV20190315083512303/15/19 08:35:31  5-MIN KAQV 151435Z AUTO 35009KT 310V020 10SM CLR 10/01 A3030 20 52 -500 340/09 310V020 RMK AO2 T01000006
03949KAQV AQV20190315084010703/15/19 08:40:31  5-MIN KAQV 151440Z AUTO VRB06KT 10SM CLR 10/01 A3031 20 52 -500 VRB/06 RMK AO2 T01000006
03949KAQV AQV20190315084512903/15/19 08:45:31  5-MIN KAQV 151445Z AUTO 01010G15KT 330V050 10SM CLR 11/01 A3031 20 50 -400 010/10G15 330V050 RMK AO2 T01060006
03949KAQV AQV20190315085012603/15/19 08:50:31  5-MIN KAQV 151450Z AUTO 36009G15KT 10SM CLR 11/01 A3030 20 50 -400 360/09G15 RMK AO2 SLP263 T01060006 53018
03949KAQV AQV20190315085512603/15/19 08:55:31  5-MIN KAQV 151455Z AUTO 36013G19KT 10SM CLR 11/01 A3031 20 48 -300 360/13G19 RMK AO2 SLP264 T01110006 53018
03949KAQV AQV20190315090012903/15/19 09:00:31  5-MIN KAQV 151500Z AUTO 35007G19KT 310V040 10SM CLR 11/01 A3031 20 48 -300 350/07G19 310V040 RMK AO2 T01110006
03949KAQV AQV20190315090512903/15/19 09:05:31  5-MIN KAQV 151505Z AUTO 36007G16KT 310V040 10SM CLR 11/00 A3031 20 46 -400 350/07G16 310V040 RMK AO2 T01110000
03949KAQV AQV20190315091012903/15/19 09:10:31  5-MIN KAQV 151510Z AUTO 34011G17KT 300V010 10SM CLR 11/00 A3031 20 46 -400 340/11G17 300V010 RMK AO2 T01110000
03949KAQV AQV20190315091513003/15/19 09:15:31  5-MIN KAQV 151515Z AUTO 01012G21KT 310V040 10SM CLR 11/M01 A3031 20 44 -400 010/12G21 310V040 RMK AO2 T01111006
03949KAQV AQV20190315092011303/15/19 09:20:31  5-MIN KAQV 151520Z AUTO 36010G21KT 10SM CLR 12/00 A3031 20 44 -300 360/10G21 RMK AO2 T01170000
03949KAQV AQV20190315092511403/15/19 09:25:31  5-MIN KAQV 151525Z AUTO 01011G17KT 10SM CLR 12/M01 A3031 10 42 -300 360/11G17 RMK AO2 T01171006
03949KAQV AQV20190315093011303/15/19 09:30:31  5-MIN KAQV 151530Z AUTO 36009G17KT 10SM CLR 12/00 A3031 10 43 -200 360/09G17 RMK AO2 T01220000
03949KAQV AQV20190315093512903/15/19 09:35:31  5-MIN KAQV 151535Z AUTO 36013G20KT 300V040 10SM CLR 12/00 A3032 10 43 -200 350/13G20 300V040 RMK AO2 T01220000
03949KAQV AQV20190315094011303/15/19 09:40:31  5-MIN KAQV 151540Z AUTO VRB05G20KT 10SM CLR 13/00 A3032 10 41 -200 VRB/05G20 RMK AO2 T01280000
03949KAQV AQV20190315094511403/15/19 09:45:31  5-MIN KAQV 151545Z AUTO 36009G17KT 10SM CLR 12/M01 A3032 10 41 -200 360/09G17 RMK AO2 T01221006
03949KAQV AQV20190315095012003/15/19 09:50:31  5-MIN KAQV 151550Z AUTO 36009G17KT 10SM CLR 12/00 A3032 10 44 -300 360/09G17 RMK AO2 SLP268 T01170000
03949KAQV AQV20190315095511903/15/19 09:55:31  5-MIN KAQV 151555Z AUTO 36011G16KT 10SM CLR 12/00 A3032 0 44 -300 360/11G16 RMK AO2 SLP269 T01170000
03949KAQV AQV20190315100011203/15/19 10:00:31  5-MIN KAQV 151600Z AUTO VRB05G16KT 10SM CLR 12/01 A3033 0 44 -200 VRB/05G16 RMK AO2 T01220006
03949KAQV AQV20190315100511203/15/19 10:05:31  5-MIN KAQV 151605Z AUTO 36007G16KT 10SM CLR 13/01 A3033 0 41 -100 350/07G16 RMK AO2 T01330006
03949KAQV AQV20190315101012203/15/19 10:10:31  5-MIN KAQV 151610Z AUTO 34007KT 300V020 10SM CLR 13/01 A3033 0 41 -100 340/07 300V020 RMK AO2 T01330006
03949KAQV AQV20190315101511003/15/19 10:15:31  5-MIN KAQV 151615Z AUTO VRB05G15KT 10SM CLR 14/01 A3032 10 41 0 VRB/05G15 RMK AO2 T01390011
03949KAQV AQV20190315102012903/15/19 10:20:31  5-MIN KAQV 151620Z AUTO 35008G15KT 290V010 10SM CLR 13/01 A3032 10 41 -100 350/08G15 290V010 RMK AO2 T01330006
03949KAQV AQV20190315102512903/15/19 10:25:31  5-MIN KAQV 151625Z AUTO 35008G15KT 310V010 10SM CLR 13/01 A3032 10 43 -200 350/08G15 310V010 RMK AO2 T01280006
03949KAQV AQV20190315103012903/15/19 10:30:31  5-MIN KAQV 151630Z AUTO 35008G15KT 270V010 10SM CLR 13/01 A3032 10 41 -100 340/08G15 270V010 RMK AO2 T01330006
03949KAQV AQV20190315103512903/15/19 10:35:31  5-MIN KAQV 151635Z AUTO 35008G17KT 300V050 10SM CLR 13/00 A3032 10 40 -100 350/08G17 300V050 RMK AO2 T01330000
03949KAQV AQV20190315104011003/15/19 10:40:31  5-MIN KAQV 151640Z AUTO 02010G17KT 10SM CLR 14/01 A3031 20 40 0 020/10G17 RMK AO2 T01390006
03949KAQV AQV20190315104511303/15/19 10:45:31  5-MIN KAQV 151645Z AUTO 36006G17KT 10SM CLR 13/01 A3031 20 41 -100 360/06G17 RMK AO2 T01330006
03949KAQV AQV20190315105012003/15/19 10:50:31  5-MIN KAQV 151650Z AUTO 02008G15KT 10SM CLR 13/01 A3031 20 41 -100 010/08G15 RMK AO2 SLP262 T01330006
03949KAQV AQV20190315105511403/15/19 10:55:31  5-MIN KAQV 151655Z AUTO 01006KT 10SM CLR 13/01 A3031 20 41 -100 010/06 RMK AO2 SLP262 T01330006
03949KAQV AQV20190315110012903/15/19 11:00:31  5-MIN KAQV 151700Z AUTO 36007G16KT 350V050 10SM CLR 13/01 A3030 20 41 -100 360/07G16 350V050 RMK AO2 T01330006
03949KAQV AQV20190315110512603/15/19 11:05:31  5-MIN KAQV 151705Z AUTO 33008G16KT 240V020 10SM CLR 14/01 A3030 20 40 0 330/08G16 240V020 RMK AO2 T01440011
03949KAQV AQV20190315111012003/15/19 11:10:31  5-MIN KAQV 151710Z AUTO 35008KT 320V030 10SM CLR 14/01 A3030 20 40 0 340/08 320V030 RMK AO2 T01390006
03949KAQV AQV20190315111511003/15/19 11:15:31  5-MIN KAQV 151715Z AUTO 35011G15KT 10SM CLR 14/01 A3031 20 40 0 350/11G15 RMK AO2 T01390006
03949KAQV AQV20190315112012903/15/19 11:20:31  5-MIN KAQV 151720Z AUTO 36007G16KT 320V040 10SM CLR 13/00 A3030 20 40 -100 360/07G16 320V040 RMK AO2 T01330000
03949KAQV AQV20190315112511303/15/19 11:25:31  5-MIN KAQV 151725Z AUTO 36008G16KT 10SM CLR 13/00 A3030 20 40 -100 350/08G16 RMK AO2 T01330000
03949KAQV AQV20190315113011303/15/19 11:30:31  5-MIN KAQV 151730Z AUTO 35007G16KT 10SM CLR 13/01 A3030 20 41 -100 350/07G16 RMK AO2 T01330006
03949KAQV AQV20190315113511303/15/19 11:35:31  5-MIN KAQV 151735Z AUTO VRB06G15KT 10SM CLR 13/00 A3030 20 40 -100 VRB/06G15 RMK AO2 T01330000
03949KAQV AQV20190315114011003/15/19 11:40:31  5-MIN KAQV 151740Z AUTO 01011G16KT 10SM CLR 14/00 A3030 30 38 0 360/11G16 RMK AO2 T01390000
03949KAQV AQV20190315114512703/15/19 11:45:31  5-MIN KAQV 151745Z AUTO 36009G18KT 320V040 10SM CLR 14/M01 A3030 30 37 0 350/09G18 320V040 RMK AO2 T01391006
03949KAQV AQV20190315115015103/15/19 11:50:31  5-MIN KAQV 151750Z AUTO 01008G18KT 330V040 10SM CLR 14/00 A3030 20 38 0 010/08G18 330V040 RMK AO2 SLP261 T01390000 10144 20072 51025
03949KAQV AQV20190315115513703/15/19 11:55:31  5-MIN KAQV 151755Z AUTO VRB06G15KT 10SM CLR 15/00 A3030 30 35 100 VRB/06G15 RMK AO2 SLP259 T01500000 10150 20072 51025
03949KAQV AQV20190315120012803/15/19 12:00:31  5-MIN KAQV 151800Z AUTO 36008G15KT 340V050 10SM CLR 15/00 A3029 30 35 100 360/08G15 340V050 RMK AO2 T01500000
03949KAQV AQV20190315120512803/15/19 12:05:31  5-MIN KAQV 151805Z AUTO 36010G15KT 320V040 10SM CLR 15/00 A3030 30 35 100 360/10G15 320V040 RMK AO2 T01500000
03949KAQV AQV20190315121011103/15/19 12:10:31  5-MIN KAQV 151810Z AUTO 35009G17KT 10SM CLR 14/M01 A3029 30 35 0 350/09G17 RMK AO2 T01441006
03949KAQV AQV20190315121511103/15/19 12:15:31  5-MIN KAQV 151815Z AUTO VRB05G17KT 10SM CLR 14/M01 A3029 30 35 0 VRB/05G17 RMK AO2 T01441006
03949KAQV AQV20190315122011203/15/19 12:20:31  5-MIN KAQV 151820Z AUTO 36008G18KT 10SM CLR 15/00 A3030 30 35 100 360/08G18 RMK AO2 T01500000
03949KAQV AQV20190315122512803/15/19 12:25:31  5-MIN KAQV 151825Z AUTO 35007G18KT 310V020 10SM CLR 16/00 A3029 30 34 100 350/07G18 310V020 RMK AO2 T01560000
03949KAQV AQV20190315123011203/15/19 12:30:31  5-MIN KAQV 151830Z AUTO VRB03G17KT 10SM CLR 15/01 A3029 40 37 100 VRB/03G17 RMK AO2 T01500006
03949KAQV AQV20190315123511203/15/19 12:35:31  5-MIN KAQV 151835Z AUTO 03008G14KT 10SM CLR 16/01 A3029 40 36 200 030/08G14 RMK AO2 T01560006
03949KAQV AQV20190315124011203/15/19 12:40:31  5-MIN KAQV 151840Z AUTO 01010G14KT 10SM CLR 16/00 A3028 40 33 200 010/10G14 RMK AO2 T01610000
03949KAQV AQV20190315124511203/15/19 12:45:31  5-MIN KAQV 151845Z AUTO 36008G17KT 10SM CLR 16/00 A3028 40 34 200 360/08G17 RMK AO2 T01560000
03949KAQV AQV20190315125011903/15/19 12:50:31  5-MIN KAQV 151850Z AUTO 01007G17KT 10SM CLR 15/00 A3029 40 35 100 360/07G17 RMK AO2 SLP256 T01500000
03949KAQV AQV20190315125511303/15/19 12:55:31  5-MIN KAQV 151855Z AUTO 35006KT 10SM CLR 15/00 A3028 50 35 100 350/06 RMK AO2 SLP253 T01500000
03949KAQV AQV20190315130012203/15/19 13:00:31  5-MIN KAQV 151900Z AUTO 35008KT 320V030 10SM CLR 16/01 A3027 50 36 200 350/08 320V030 RMK AO2 T01560006
03949KAQV AQV20190315130510603/15/19 13:05:31  5-MIN KAQV 151905Z AUTO VRB05KT 10SM CLR 16/00 A3028 50 33 200 VRB/05 RMK AO2 T01610000
03949KAQV AQV20190315131010603/15/19 13:10:31  5-MIN KAQV 151910Z AUTO 36006KT 10SM CLR 16/00 A3027 50 33 200 350/06 RMK AO2 T01610000
03949KAQV AQV20190315131510603/15/19 13:15:31  5-MIN KAQV 151915Z AUTO 02009KT 10SM CLR 16/00 A3027 60 33 200 010/09 RMK AO2 T01610000
03949KAQV AQV20190315132012803/15/19 13:20:31  5-MIN KAQV 151920Z AUTO 35007G15KT 300V020 10SM CLR 16/00 A3027 50 34 200 350/07G15 300V020 RMK AO2 T01560000
03949KAQV AQV20190315132510703/15/19 13:25:31  5-MIN KAQV 151925Z AUTO 35010KT 10SM CLR 16/M01 A3027 50 33 200 350/10 RMK AO2 T01561006
03949KAQV AQV20190315133010703/15/19 13:30:31  5-MIN KAQV 151930Z AUTO 01006KT 10SM CLR 16/M01 A3027 60 33 200 360/06 RMK AO2 T01561006
03949KAQV AQV20190315133510603/15/19 13:35:31  5-MIN KAQV 151935Z AUTO 02005KT 10SM CLR 16/00 A3027 60 34 200 020/05 RMK AO2 T01560000
03949KAQV AQV20190315134010603/15/19 13:40:31  5-MIN KAQV 151940Z AUTO 36008KT 10SM CLR 16/00 A3026 60 33 200 350/08 RMK AO2 T01610000
03949KAQV AQV20190315134510703/15/19 13:45:31  5-MIN KAQV 151945Z AUTO 02007KT 10SM CLR 16/M01 A3026 70 32 300 010/07 RMK AO2 T01611006
03949KAQV AQV20190315135011403/15/19 13:50:31  5-MIN KAQV 151950Z AUTO 01009KT 10SM CLR 17/M01 A3026 70 31 300 010/09 RMK AO2 SLP245 T01671006
03949KAQV AQV20190315135511403/15/19 13:55:31  5-MIN KAQV 151955Z AUTO 02009KT 10SM CLR 16/M01 A3026 70 30 300 020/09 RMK AO2 SLP245 T01611011
03949KAQV AQV20190315140010703/15/19 14:00:31  5-MIN KAQV 152000Z AUTO 01006KT 10SM CLR 16/M01 A3025 70 30 300 360/06 RMK AO2 T01611011
03949KAQV AQV20190315140510703/15/19 14:05:31  5-MIN KAQV 152005Z AUTO 01008KT 10SM CLR 17/M01 A3025 70 29 300 360/08 RMK AO2 T01671011
03949KAQV AQV20190315141011303/15/19 14:10:31  5-MIN KAQV 152010Z AUTO 01010G17KT 10SM CLR 16/M01 A3025 80 30 300 010/10G17 RMK AO2 T01611011
03949KAQV AQV20190315141512903/15/19 14:15:31  5-MIN KAQV 152015Z AUTO 36009G17KT 320V030 10SM CLR 16/M01 A3025 80 30 300 360/09G17 320V030 RMK AO2 T01611011
03949KAQV AQV20190315142011303/15/19 14:20:31  5-MIN KAQV 152020Z AUTO 01009G17KT 10SM CLR 16/M01 A3024 80 30 300 010/09G17 RMK AO2 T01611011
03949KAQV AQV20190315142511303/15/19 14:25:31  5-MIN KAQV 152025Z AUTO 36006G15KT 10SM CLR 17/M01 A3024 90 29 300 360/06G15 RMK AO2 T01671011
03949KAQV AQV20190315143010703/15/19 14:30:31  5-MIN KAQV 152030Z AUTO VRB05KT 10SM CLR 17/M01 A3024 80 29 400 VRB/05 RMK AO2 T01721006
03949KAQV AQV20190315143510703/15/19 14:35:31  5-MIN KAQV 152035Z AUTO VRB06KT 10SM CLR 17/M01 A3024 90 28 400 VRB/06 RMK AO2 T01721011
03949KAQV AQV20190315144010703/15/19 14:40:31  5-MIN KAQV 152040Z AUTO 01010KT 10SM CLR 17/M01 A3024 80 29 300 360/10 RMK AO2 T01671011
03949KAQV AQV20190315144510703/15/19 14:45:31  5-MIN KAQV 152045Z AUTO 36007KT 10SM CLR 16/M01 A3024 80 30 300 350/07 RMK AO2 T01611011
03949KAQV AQV20190315145012003/15/19 14:50:31  5-MIN KAQV 152050Z AUTO VRB06KT 10SM CLR 16/M01 A3024 90 32 300 VRB/06 RMK AO2 SLP238 T01611006 58003
03949KAQV AQV20190315145511903/15/19 14:55:31  5-MIN KAQV 152055Z AUTO 35007KT 10SM CLR 16/00 A3024 90 33 300 350/07 RMK AO2 SLP238 T01610000 58003
03949KAQV AQV20190315150010603/15/19 15:00:31  5-MIN KAQV 152100Z AUTO VRB06KT 10SM CLR 16/00 A3024 80 33 300 VRB/06 RMK AO2 T01610000
03949KAQV AQV20190315150512203/15/19 15:05:31  5-MIN KAQV 152105Z AUTO 35007KT 310V020 10SM CLR 17/00 A3024 80 31 400 350/07 310V020 RMK AO2 T01720000
03949KAQV AQV20190315151010603/15/19 15:10:31  5-MIN KAQV 152110Z AUTO VRB06KT 10SM CLR 16/00 A3024 80 33 300 VRB/06 RMK AO2 T01610000
03949KAQV AQV20190315151510603/15/19 15:15:31  5-MIN KAQV 152115Z AUTO VRB06KT 10SM CLR 16/00 A3024 80 33 300 VRB/06 RMK AO2 T01610000
03949KAQV AQV20190315152010603/15/19 15:20:31  5-MIN KAQV 152120Z AUTO VRB06KT 10SM CLR 16/00 A3025 70 33 300 VRB/06 RMK AO2 T01610000
03949KAQV AQV20190315152510703/15/19 15:25:31  5-MIN KAQV 152125Z AUTO 02006KT 10SM CLR 17/M01 A3025 80 31 300 020/06 RMK AO2 T01671006
03949KAQV AQV20190315153010603/15/19 15:30:31  5-MIN KAQV 152130Z AUTO VRB04KT 10SM CLR 17/01 A3024 80 33 300 VRB/04 RMK AO2 T01670006
03949KAQV AQV20190315153510903/15/19 15:35:31  5-MIN KAQV 152135Z AUTO VRB04KT 10SM FEW120 17/01 A3024 80 33 300 VRB/04 RMK AO2 T01670006
03949KAQV AQV20190315154010903/15/19 15:40:31  5-MIN KAQV 152140Z AUTO VRB06KT 10SM FEW120 17/00 A3025 80 32 300 VRB/06 RMK AO2 T01670000
03949KAQV AQV20190315154510603/15/19 15:45:31  5-MIN KAQV 152145Z AUTO 01005KT 10SM CLR 17/00 A3024 80 32 300 010/05 RMK AO2 T01670000
03949KAQV AQV20190315155011303/15/19 15:50:31  5-MIN KAQV 152150Z AUTO VRB03KT 10SM CLR 16/00 A3024 80 33 300 VRB/03 RMK AO2 SLP242 T01610000
03949KAQV AQV20190315155511303/15/19 15:55:31  5-MIN KAQV 152155Z AUTO VRB05KT 10SM CLR 16/00 A3025 80 33 300 VRB/05 RMK AO2 SLP243 T01610000
03949KAQV AQV20190315160010703/15/19 16:00:31  5-MIN KAQV 152200Z AUTO VRB05KT 10SM CLR 16/M01 A3025 70 32 300 VRB/05 RMK AO2 T01611006
03949KAQV AQV20190315160510603/15/19 16:05:31  5-MIN KAQV 152205Z AUTO 01006KT 10SM CLR 16/00 A3025 70 33 300 010/06 RMK AO2 T01610000
03949KAQV AQV20190315161010603/15/19 16:10:31  5-MIN KAQV 152210Z AUTO 36004KT 10SM CLR 16/00 A3025 70 33 300 360/04 RMK AO2 T01610000
03949KAQV AQV20190315161510603/15/19 16:15:31  5-MIN KAQV 152215Z AUTO VRB04KT 10SM CLR 16/00 A3024 80 34 200 VRB/04 RMK AO2 T01560000
03949KAQV AQV20190315162010603/15/19 16:20:31  5-MIN KAQV 152220Z AUTO 34003KT 10SM CLR 16/00 A3025 80 34 200 340/03 RMK AO2 T01560000
03949KAQV AQV20190315162510603/15/19 16:25:31  5-MIN KAQV 152225Z AUTO 33003KT 10SM CLR 16/00 A3025 70 34 200 320/03 RMK AO2 T01560000
03949KAQV AQV20190315163010603/15/19 16:30:31  5-MIN KAQV 152230Z AUTO VRB04KT 10SM CLR 16/00 A3025 70 34 200 VRB/04 RMK AO2 T01560000
03949KAQV AQV20190315163510603/15/19 16:35:31  5-MIN KAQV 152235Z AUTO VRB04KT 10SM CLR 16/00 A3026 70 34 200 VRB/04 RMK AO2 T01560000
03949KAQV AQV20190315164010703/15/19 16:40:31  5-MIN KAQV 152240Z AUTO 35004KT 10SM CLR 16/M01 A3026 60 33 200 340/04 RMK AO2 T01561006
03949KAQV AQV20190315164510603/15/19 16:45:31  5-MIN KAQV 152245Z AUTO VRB03KT 10SM CLR 16/00 A3026 60 34 200 VRB/03 RMK AO2 T01560000
03949KAQV AQV20190315165011303/15/19 16:50:31  5-MIN KAQV 152250Z AUTO VRB04KT 10SM CLR 16/00 A3026 60 34 200 VRB/04 RMK AO2 SLP249 T01560000
03949KAQV AQV20190315165511703/15/19 16:55:31  5-MIN KAQV 152255Z AUTO VRB05KT 10SM FEW120 16/M01 A3026 60 33 200 VRB/05 RMK AO2 SLP248 T01561006
03949KAQV AQV20190315170011003/15/19 17:00:31  5-MIN KAQV 152300Z AUTO 36005KT 10SM SCT120 16/M01 A3026 60 33 200 360/05 RMK AO2 T01561006
03949KAQV AQV20190315170510903/15/19 17:05:31  5-MIN KAQV 152305Z AUTO VRB03KT 10SM BKN120 15/00 A3026 60 35 100 VRB/03 RMK AO2 T01500000
03949KAQV AQV20190315171010903/15/19 17:10:31  5-MIN KAQV 152310Z AUTO VRB04KT 10SM BKN120 15/00 A3026 60 35 100 VRB/04 RMK AO2 T01500000
03949KAQV AQV20190315171510903/15/19 17:15:31  5-MIN KAQV 152315Z AUTO VRB04KT 10SM BKN120 15/00 A3026 60 35 100 VRB/04 RMK AO2 T01500000
03949KAQV AQV20190315172010903/15/19 17:20:31  5-MIN KAQV 152320Z AUTO VRB04KT 10SM BKN120 14/00 A3026 60 37 100 VRB/04 RMK AO2 T01440000
03949KAQV AQV20190315172510803/15/19 17:25:31  5-MIN KAQV 152325Z AUTO 34005KT 10SM BKN120 14/M01 A3027 60 35 0 340/05 RMK AO2 T01441006
03949KAQV AQV20190315173010703/15/19 17:30:31  5-MIN KAQV 152330Z AUTO VRB04KT 10SM SCT120 14/00 A3027 50 37 0 VRB/04 RMK AO2 T01440000
03949KAQV AQV20190315173510703/15/19 17:35:31  5-MIN KAQV 152335Z AUTO 33003KT 10SM SCT120 14/01 A3027 50 38 0 330/03 RMK AO2 T01440006
03949KAQV AQV20190315174010703/15/19 17:40:31  5-MIN KAQV 152340Z AUTO VRB03KT 10SM SCT120 14/01 A3028 50 38 0 VRB/03 RMK AO2 T01440006
03949KAQV AQV20190315174510703/15/19 17:45:31  5-MIN KAQV 152345Z AUTO VRB03KT 10SM SCT120 14/01 A3028 50 38 0 VRB/03 RMK AO2 T01440006
03949KAQV AQV20190315175013203/15/19 17:50:31  5-MIN KAQV 152350Z AUTO 00000KT 10SM SCT120 14/00 A3028 40 38 0 000/00 RMK AO2 SLP254 T01390000 10172 20139 56020
03949KAQV AQV20190315175513203/15/19 17:55:31  5-MIN KAQV 152355Z AUTO VRB03KT 10SM FEW120 14/00 A3028 40 38 0 VRB/03 RMK AO2 SLP254 T01390000 10172 20139 56020
03949KAQV AQV20190315180010703/15/19 18:00:31  5-MIN KAQV 160000Z AUTO 00000KT 10SM FEW120 14/00 A3028 50 38 0 000/00 RMK AO2 T01390000
03949KAQV AQV20190315180510703/15/19 18:05:31  5-MIN KAQV 160005Z AUTO 00000KT 10SM SCT120 14/01 A3027 50 40 0 000/00 RMK AO2 T01390006
03949KAQV AQV20190315181010703/15/19 18:10:31  5-MIN KAQV 160010Z AUTO 35003KT 10SM BKN120 13/01 A3027 60 43 0 340/03 RMK AO2 T01330011
03949KAQV AQV20190315181510703/15/19 18:15:31  5-MIN KAQV 160015Z AUTO 00000KT 10SM SCT120 13/02 A3026 60 45 0 000/00 RMK AO2 T01330017
03949KAQV AQV20190315182010703/15/19 18:20:31  5-MIN KAQV 160020Z AUTO 00000KT 10SM SCT120 13/02 A3026 60 45 0 000/00 RMK AO2 T01330017
03949KAQV AQV20190315182510703/15/19 18:25:31  5-MIN KAQV 160025Z AUTO VRB03KT 10SM BKN120 13/02 A3027 60 46 0 VRB/03 RMK AO2 T01330022
03949KAQV AQV20190315183010703/15/19 18:30:31  5-MIN KAQV 160030Z AUTO 00000KT 10SM BKN120 13/01 A3027 50 43 0 000/00 RMK AO2 T01330011
03949KAQV AQV20190315183510703/15/19 18:35:31  5-MIN KAQV 160035Z AUTO 35004KT 10SM BKN120 13/02 A3027 50 45 0 340/04 RMK AO2 T01330017
03949KAQV AQV20190315184010703/15/19 18:40:31  5-MIN KAQV 160040Z AUTO VRB04KT 10SM BKN120 13/02 A3027 50 45 0 VRB/04 RMK AO2 T01330017
03949KAQV AQV20190315184511003/15/19 18:45:31  5-MIN KAQV 160045Z AUTO VRB03KT 10SM SCT120 13/01 A3028 50 44 -100 VRB/03 RMK AO2 T01280011
03949KAQV AQV20190315185011703/15/19 18:50:31  5-MIN KAQV 160050Z AUTO 34003KT 10SM SCT120 13/01 A3028 50 43 -100 340/03 RMK AO2 SLP254 T01330011
03949KAQV AQV20190315185511703/15/19 18:55:31  5-MIN KAQV 160055Z AUTO 34003KT 10SM FEW120 13/01 A3028 40 44 -100 340/03 RMK AO2 SLP255 T01280011
03949KAQV AQV20190315190011003/15/19 19:00:31  5-MIN KAQV 160100Z AUTO VRB04KT 10SM FEW120 13/01 A3029 40 44 -100 VRB/04 RMK AO2 T01280011
03949KAQV AQV20190315190511003/15/19 19:05:31  5-MIN KAQV 160105Z AUTO 36004KT 10SM FEW110 13/01 A3028 40 44 -100 350/04 RMK AO2 T01280011
03949KAQV AQV20190315191011003/15/19 19:10:31  5-MIN KAQV 160110Z AUTO 35006KT 10SM FEW110 13/01 A3028 40 43 -100 350/06 RMK AO2 T01280006
03949KAQV AQV20190315191511003/15/19 19:15:31  5-MIN KAQV 160115Z AUTO 35004KT 10SM FEW110 13/01 A3028 50 43 -100 340/04 RMK AO2 T01280006
03949KAQV AQV20190315192011003/15/19 19:20:31  5-MIN KAQV 160120Z AUTO 35005KT 10SM SCT110 13/01 A3028 50 43 -100 350/05 RMK AO2 T01280006
03949KAQV AQV20190315192511003/15/19 19:25:31  5-MIN KAQV 160125Z AUTO VRB04KT 10SM BKN110 13/01 A3028 40 43 -100 VRB/04 RMK AO2 T01280006
03949KAQV AQV20190315193011003/15/19 19:30:31  5-MIN KAQV 160130Z AUTO VRB03KT 10SM BKN110 13/00 A3029 30 41 -100 VRB/03 RMK AO2 T01280000
03949KAQV AQV20190315193511003/15/19 19:35:31  5-MIN KAQV 160135Z AUTO VRB04KT 10SM BKN110 13/01 A3030 30 43 -100 VRB/04 RMK AO2 T01280006
03949KAQV AQV20190315194011703/15/19 19:40:31  5-MIN KAQV 160140Z AUTO 36004KT 10SM FEW090 BKN110 13/00 A3030 30 41 -100 350/04 RMK AO2 T01280000
03949KAQV AQV20190315194512403/15/19 19:45:31  5-MIN KAQV 160145Z AUTO 36005KT 10SM FEW065 FEW080 OVC110 13/01 A3029 30 43 -100 350/05 RMK AO2 T01280006
03949KAQV AQV20190315195013103/15/19 19:50:31  5-MIN KAQV 160150Z AUTO 36005KT 10SM FEW065 FEW080 BKN110 13/00 A3029 40 41 -100 360/05 RMK AO2 SLP258 T01280000
03949KAQV AQV20190315195512403/15/19 19:55:31  5-MIN KAQV 160155Z AUTO 36004KT 10SM FEW080 BKN110 13/00 A3028 40 41 -100 350/04 RMK AO2 SLP256 T01280000
03949KAQV AQV20190315200011703/15/19 20:00:31  5-MIN KAQV 160200Z AUTO 35006KT 10SM FEW080 SCT110 13/00 A3028 40 41 -100 340/06 RMK AO2 T01280000
03949KAQV AQV20190315200511803/15/19 20:05:31  5-MIN KAQV 160205Z AUTO VRB05KT 10SM FEW080 FEW110 13/M01 A3029 40 39 -100 VRB/05 RMK AO2 T01281006
03949KAQV AQV20190315201010803/15/19 20:10:31  5-MIN KAQV 160210Z AUTO VRB05KT 10SM CLR 13/M01 A3029 40 39 -100 VRB/05 RMK AO2 T01281006
03949KAQV AQV20190315201510703/15/19 20:15:31  5-MIN KAQV 160215Z AUTO VRB03KT 10SM CLR 13/00 A3029 30 41 -100 VRB/03 RMK AO2 T01280000
03949KAQV AQV20190315202010803/15/19 20:20:31  5-MIN KAQV 160220Z AUTO 36004KT 10SM CLR 12/M01 A3029 40 41 -200 360/04 RMK AO2 T01221006
03949KAQV AQV20190315202510803/15/19 20:25:31  5-MIN KAQV 160225Z AUTO 36006KT 10SM CLR 12/M01 A3029 40 41 -200 360/06 RMK AO2 T01221006
03949KAQV AQV20190315203010703/15/19 20:30:31  5-MIN KAQV 160230Z AUTO 01004KT 10SM CLR 12/00 A3029 30 43 -200 360/04 RMK AO2 T01220000
03949KAQV AQV20190315203511003/15/19 20:35:31  5-MIN KAQV 160235Z AUTO 36005KT 10SM FEW120 12/00 A3030 30 43 -200 360/05 RMK AO2 T01220000
03949KAQV AQV20190315204011103/15/19 20:40:31  5-MIN KAQV 160240Z AUTO 36006KT 10SM FEW120 12/M01 A3030 30 41 -200 360/06 RMK AO2 T01221006
03949KAQV AQV20190315204511103/15/19 20:45:31  5-MIN KAQV 160245Z AUTO VRB03KT 10SM FEW120 12/M01 A3031 20 41 -200 VRB/03 RMK AO2 T01221006
03949KAQV AQV20190315205012403/15/19 20:50:31  5-MIN KAQV 160250Z AUTO VRB04KT 10SM FEW120 12/M01 A3030 20 41 -200 VRB/04 RMK AO2 SLP262 T01221006 53014
03949KAQV AQV20190315205512403/15/19 20:55:31  5-MIN KAQV 160255Z AUTO 35005KT 10SM FEW120 12/M01 A3031 20 41 -200 350/05 RMK AO2 SLP264 T01221006 53014
03949KAQV AQV20190315210011103/15/19 21:00:31  5-MIN KAQV 160300Z AUTO 00000KT 10SM FEW120 12/M01 A3031 20 41 -200 000/00 RMK AO2 T01221006
03949KAQV AQV20190315210510703/15/19 21:05:31  5-MIN KAQV 160305Z AUTO VRB04KT 10SM CLR 12/00 A3031 20 43 -200 VRB/04 RMK AO2 T01220000
03949KAQV AQV20190315211010703/15/19 21:10:31  5-MIN KAQV 160310Z AUTO 35005KT 10SM CLR 12/00 A3031 20 44 -300 350/05 RMK AO2 T01170000
03949KAQV AQV20190315211510803/15/19 21:15:31  5-MIN KAQV 160315Z AUTO 36004KT 10SM CLR 12/M01 A3030 20 42 -300 360/04 RMK AO2 T01171006
03949KAQV AQV20190315212010803/15/19 21:20:31  5-MIN KAQV 160320Z AUTO 35004KT 10SM CLR 12/M01 A3031 20 42 -300 340/04 RMK AO2 T01171006
03949KAQV AQV20190315212510803/15/19 21:25:31  5-MIN KAQV 160325Z AUTO VRB03KT 10SM CLR 12/M01 A3030 20 42 -300 VRB/03 RMK AO2 T01171006
03949KAQV AQV20190315213010803/15/19 21:30:31  5-MIN KAQV 160330Z AUTO 35005KT 10SM CLR 12/M01 A3030 20 42 -300 350/05 RMK AO2 T01171006
03949KAQV AQV20190315213510803/15/19 21:35:31  5-MIN KAQV 160335Z AUTO 36004KT 10SM CLR 12/M01 A3030 20 42 -300 360/04 RMK AO2 T01171006
03949KAQV AQV20190315214010803/15/19 21:40:31  5-MIN KAQV 160340Z AUTO VRB04KT 10SM CLR 12/M01 A3031 20 42 -300 VRB/04 RMK AO2 T01171006
03949KAQV AQV20190315214510803/15/19 21:45:31  5-MIN KAQV 160345Z AUTO 35003KT 10SM CLR 12/M01 A3031 20 42 -300 350/03 RMK AO2 T01171006
03949KAQV AQV20190315215011503/15/19 21:50:31  5-MIN KAQV 160350Z AUTO 36003KT 10SM CLR 12/M01 A3031 20 42 -300 350/03 RMK AO2 SLP264 T01171006
03949KAQV AQV20190315215511503/15/19 21:55:31  5-MIN KAQV 160355Z AUTO 36004KT 10SM CLR 12/M01 A3030 30 42 -300 350/04 RMK AO2 SLP262 T01171006
03949KAQV AQV20190315220010803/15/19 22:00:31  5-MIN KAQV 160400Z AUTO 36005KT 10SM CLR 11/M01 A3030 30 44 -300 350/05 RMK AO2 T01111006
03949KAQV AQV20190315220510803/15/19 22:05:31  5-MIN KAQV 160405Z AUTO VRB04KT 10SM CLR 11/M01 A3030 30 44 -300 VRB/04 RMK AO2 T01111006
03949KAQV AQV20190315221010803/15/19 22:10:31  5-MIN KAQV 160410Z AUTO 36004KT 10SM CLR 12/M01 A3030 30 42 -300 350/04 RMK AO2 T01171006
03949KAQV AQV20190315221510803/15/19 22:15:31  5-MIN KAQV 160415Z AUTO 36003KT 10SM CLR 12/M01 A3030 30 42 -300 360/03 RMK AO2 T01171006
03949KAQV AQV20190315222010803/15/19 22:20:31  5-MIN KAQV 160420Z AUTO 36004KT 10SM CLR 12/M01 A3029 30 42 -300 360/04 RMK AO2 T01171006
03949KAQV AQV20190315222510803/15/19 22:25:31  5-MIN KAQV 160425Z AUTO 36006KT 10SM CLR 12/M01 A3029 40 42 -300 360/06 RMK AO2 T01171006
03949KAQV AQV20190315223010803/15/19 22:30:31  5-MIN KAQV 160430Z AUTO 35006KT 10SM CLR 12/M01 A3029 40 41 -300 350/06 RMK AO2 T01171011
03949KAQV AQV20190315223510803/15/19 22:35:31  5-MIN KAQV 160435Z AUTO VRB04KT 10SM CLR 12/M01 A3029 30 41 -300 VRB/04 RMK AO2 T01171011
03949KAQV AQV20190315224010803/15/19 22:40:31  5-MIN KAQV 160440Z AUTO 36007KT 10SM CLR 12/M01 A3029 30 41 -300 360/07 RMK AO2 T01171011
03949KAQV AQV20190315224510803/15/19 22:45:31  5-MIN KAQV 160445Z AUTO VRB04KT 10SM CLR 12/M02 A3030 30 39 -300 VRB/04 RMK AO2 T01171017
03949KAQV AQV20190315225011503/15/19 22:50:31  5-MIN KAQV 160450Z AUTO 36005KT 10SM CLR 12/M01 A3030 30 41 -300 360/05 RMK AO2 SLP261 T01171011
03949KAQV AQV20190315225511503/15/19 22:55:31  5-MIN KAQV 160455Z AUTO VRB04KT 10SM CLR 12/M01 A3030 20 41 -300 VRB/04 RMK AO2 SLP262 T01171011
03949KAQV AQV20190315230010803/15/19 23:00:31  5-MIN KAQV 160500Z AUTO VRB03KT 10SM CLR 12/M01 A3031 20 41 -300 VRB/03 RMK AO2 T01171011
03949KAQV AQV20190315230510803/15/19 23:05:31  5-MIN KAQV 160505Z AUTO 01004KT 10SM CLR 11/M01 A3031 20 42 -300 010/04 RMK AO2 T01111011
03949KAQV AQV20190315231010803/15/19 23:10:31  5-MIN KAQV 160510Z AUTO 36006KT 10SM CLR 11/M01 A3031 20 42 -400 350/06 RMK AO2 T01111011
03949KAQV AQV20190315231510803/15/19 23:15:31  5-MIN KAQV 160515Z AUTO 36007KT 10SM CLR 11/M02 A3030 30 41 -300 350/07 RMK AO2 T01111017
03949KAQV AQV20190315232010803/15/19 23:20:31  5-MIN KAQV 160520Z AUTO 01006KT 10SM CLR 12/M02 A3030 30 39 -300 010/06 RMK AO2 T01171017
03949KAQV AQV20190315232510803/15/19 23:25:31  5-MIN KAQV 160525Z AUTO 36004KT 10SM CLR 11/M02 A3030 30 41 -300 350/04 RMK AO2 T01111017
03949KAQV AQV20190315233010803/15/19 23:30:31  5-MIN KAQV 160530Z AUTO 01007KT 10SM CLR 11/M02 A3029 40 41 -300 360/07 RMK AO2 T01111017
03949KAQV AQV20190315233510803/15/19 23:35:31  5-MIN KAQV 160535Z AUTO 36004KT 10SM CLR 11/M02 A3030 30 39 -300 350/04 RMK AO2 T01111022
03949KAQV AQV20190315234010803/15/19 23:40:31  5-MIN KAQV 160540Z AUTO VRB05KT 10SM CLR 11/M02 A3030 30 41 -300 VRB/05 RMK AO2 T01111017
03949KAQV AQV20190315234510803/15/19 23:45:31  5-MIN KAQV 160545Z AUTO 36005KT 10SM CLR 11/M02 A3029 40 39 -300 350/05 RMK AO2 T01111022
03949KAQV AQV20190315235014303/15/19 23:50:31  5-MIN KAQV 160550Z AUTO 36003KT 10SM CLR 11/M02 A3029 40 42 -400 350/03 RMK AO2 SLP257 T01061017 10139 20106 401720072 53010
03949KAQV AQV20190315235514303/15/19 23:55:31  5-MIN KAQV 160555Z AUTO 36004KT 10SM CLR 11/M02 A3029 40 42 -400 360/04 RMK AO2 SLP258 T01061017 10139 20106 401720072 53010
03949KAQV AQV20190316000010803/16/19 00:00:31  5-MIN KAQV 160600Z AUTO 35004KT 10SM CLR 11/M02 A3029 40 42 -400 350/04 RMK AO2 T01061017
03949KAQV AQV20190316000510803/16/19 00:05:31  5-MIN KAQV 160605Z AUTO VRB03KT 10SM CLR 11/M02 A3029 40 42 -400 VRB/03 RMK AO2 T01061017
03949KAQV AQV20190316001010803/16/19 00:10:31  5-MIN KAQV 160610Z AUTO VRB03KT 10SM CLR 11/M02 A3029 40 42 -400 VRB/03 RMK AO2 T01061017
03949KAQV AQV20190316001510803/16/19 00:15:31  5-MIN KAQV 160615Z AUTO 35004KT 10SM CLR 11/M02 A3029 40 42 -400 340/04 RMK AO2 T01061017
03949KAQV AQV20190316002010803/16/19 00:20:31  5-MIN KAQV 160620Z AUTO VRB03KT 10SM CLR 10/M02 A3029 30 44 -500 VRB/03 RMK AO2 T01001017
03949KAQV AQV20190316002510803/16/19 00:25:31  5-MIN KAQV 160625Z AUTO 36004KT 10SM CLR 10/M02 A3029 30 44 -500 360/04 RMK AO2 T01001017
03949KAQV AQV20190316003010803/16/19 00:30:31  5-MIN KAQV 160630Z AUTO 01004KT 10SM CLR 10/M02 A3029 40 44 -500 360/04 RMK AO2 T01001017
03949KAQV AQV20190316003510803/16/19 00:35:31  5-MIN KAQV 160635Z AUTO 01003KT 10SM CLR 10/M01 A3029 40 46 -500 010/03 RMK AO2 T01001011
03949KAQV AQV20190316004010803/16/19 00:40:31  5-MIN KAQV 160640Z AUTO 36004KT 10SM CLR 10/M01 A3029 40 46 -500 360/04 RMK AO2 T01001011
03949KAQV AQV20190316004510803/16/19 00:45:31  5-MIN KAQV 160645Z AUTO 35005KT 10SM CLR 10/M01 A3029 40 46 -500 350/05 RMK AO2 T01001011
03949KAQV AQV20190316005011503/16/19 00:50:31  5-MIN KAQV 160650Z AUTO VRB04KT 10SM CLR 10/M01 A3029 30 46 -500 VRB/04 RMK AO2 SLP258 T01001011
03949KAQV AQV20190316005511503/16/19 00:55:31  5-MIN KAQV 160655Z AUTO 01004KT 10SM CLR 10/M01 A3028 40 46 -500 010/04 RMK AO2 SLP256 T01001011
03949KAQV AQV20190316010010803/16/19 01:00:31  5-MIN KAQV 160700Z AUTO 36005KT 10SM CLR 10/M01 A3028 40 46 -500 360/05 RMK AO2 T01001011
03949KAQV AQV20190316010510803/16/19 01:05:31  5-MIN KAQV 160705Z AUTO 36003KT 10SM CLR 10/M01 A3029 40 46 -500 350/03 RMK AO2 T01001011
03949KAQV AQV20190316011010803/16/19 01:10:31  5-MIN KAQV 160710Z AUTO 02004KT 10SM CLR 10/M01 A3029 40 46 -500 020/04 RMK AO2 T01001011
03949KAQV AQV20190316011510803/16/19 01:15:31  5-MIN KAQV 160715Z AUTO 01004KT 10SM CLR 10/M01 A3029 30 46 -500 360/04 RMK AO2 T01001011
03949KAQV AQV20190316012010803/16/19 01:20:31  5-MIN KAQV 160720Z AUTO 01003KT 10SM CLR 10/M01 A3029 30 46 -500 010/03 RMK AO2 T01001011
03949KAQV AQV20190316012510803/16/19 01:25:31  5-MIN KAQV 160725Z AUTO 00000KT 10SM CLR 10/M01 A3030 30 46 -500 000/00 RMK AO2 T01001011
03949KAQV AQV20190316013010803/16/19 01:30:31  5-MIN KAQV 160730Z AUTO 03003KT 10SM CLR 10/M01 A3030 30 46 -500 020/03 RMK AO2 T01001011
03949KAQV AQV20190316013510803/16/19 01:35:31  5-MIN KAQV 160735Z AUTO 00000KT 10SM CLR 10/M01 A3030 30 47 -500 000/00 RMK AO2 T01001006
03949KAQV AQV20190316014010703/16/19 01:40:31  5-MIN KAQV 160740Z AUTO 00000KT 10SM CLR 09/00 A3030 30 51 -500 000/00 RMK AO2 T00940000
03949KAQV AQV20190316014510703/16/19 01:45:31  5-MIN KAQV 160745Z AUTO 00000KT 10SM CLR 09/01 A3030 30 53 -500 000/00 RMK AO2 T00940006
03949KAQV AQV20190316015011403/16/19 01:50:31  5-MIN KAQV 160750Z AUTO 00000KT 10SM CLR 09/01 A3030 20 56 -600 000/00 RMK AO2 SLP263 T00890006
03949KAQV AQV20190316015511403/16/19 01:55:31  5-MIN KAQV 160755Z AUTO 32003KT 10SM CLR 09/01 A3030 20 58 -600 320/03 RMK AO2 SLP263 T00890011
03949KAQV AQV20190316020010703/16/19 02:00:31  5-MIN KAQV 160800Z AUTO 00000KT 10SM CLR 09/02 A3031 20 63 -600 000/00 RMK AO2 T00890022
03949KAQV AQV20190316020510703/16/19 02:05:31  5-MIN KAQV 160805Z AUTO 00000KT 10SM CLR 08/02 A3031 20 63 -700 000/00 RMK AO2 T00830017
03949KAQV AQV20190316021009703/16/19 02:10:31  5-MIN KAQV 160810Z AUTO 10SM CLR 08/01 A3031 20 60 -700 M /M RMK AO2 T00830011
03949KAQV AQV20190316021510703/16/19 02:15:31  5-MIN KAQV 160815Z AUTO 00000KT 10SM CLR 08/02 A3031 20 63 -700 000/00 RMK AO2 T00830017
03949KAQV AQV20190316022010703/16/19 02:20:31  5-MIN KAQV 160820Z AUTO 00000KT 10SM CLR 08/01 A3031 20 60 -700 000/00 RMK AO2 T00830011
03949KAQV AQV20190316022510703/16/19 02:25:31  5-MIN KAQV 160825Z AUTO 00000KT 10SM CLR 08/02 A3030 20 63 -700 000/00 RMK AO2 T00830017
03949KAQV AQV20190316023009703/16/19 02:30:31  5-MIN KAQV 160830Z AUTO 10SM CLR 08/02 A3031 20 63 -700 M /M RMK AO2 T00830017
03949KAQV AQV20190316023509703/16/19 02:35:31  5-MIN KAQV 160835Z AUTO 10SM CLR 08/02 A3031 20 68 -800 M /M RMK AO2 T00780022
03949KAQV AQV20190316024010703/16/19 02:40:31  5-MIN KAQV 160840Z AUTO 00000KT 10SM CLR 08/02 A3031 20 68 -800 000/00 RMK AO2 T00780022
03949KAQV AQV20190316024510703/16/19 02:45:31  5-MIN KAQV 160845Z AUTO 00000KT 10SM CLR 08/02 A3031 20 68 -800 000/00 RMK AO2 T00780022
03949KAQV AQV20190316025012003/16/19 02:50:31  5-MIN KAQV 160850Z AUTO 00000KT 10SM CLR 08/02 A3031 20 68 -800 000/00 RMK AO2 SLP264 T00780022 58007
03949KAQV AQV20190316025512003/16/19 02:55:31  5-MIN KAQV 160855Z AUTO 00000KT 10SM CLR 08/02 A3031 20 68 -800 000/00 RMK AO2 SLP264 T00780022 58007
03949KAQV AQV20190316030009703/16/19 03:00:31  5-MIN KAQV 160900Z AUTO 10SM CLR 08/02 A3031 10 68 -800 M /M RMK AO2 T00780022
03949KAQV AQV20190316030510703/16/19 03:05:31  5-MIN KAQV 160905Z AUTO VRB03KT 10SM CLR 08/01 A3032 10 62 -800 VRB/03 RMK AO2 T00780011
03949KAQV AQV20190316031010703/16/19 03:10:31  5-MIN KAQV 160910Z AUTO 00000KT 10SM CLR 08/01 A3032 10 62 -800 000/00 RMK AO2 T00780011
03949KAQV AQV20190316031510703/16/19 03:15:31  5-MIN KAQV 160915Z AUTO VRB03KT 10SM CLR 08/02 A3032 10 65 -800 VRB/03 RMK AO2 T00780017
03949KAQV AQV20190316032010703/16/19 03:20:31  5-MIN KAQV 160920Z AUTO VRB03KT 10SM CLR 07/02 A3032 10 68 -800 VRB/03 RMK AO2 T00720017
03949KAQV AQV20190316032509703/16/19 03:25:31  5-MIN KAQV 160925Z AUTO 10SM CLR 08/02 A3032 10 65 -800 M /M RMK AO2 T00780017
03949KAQV AQV20190316033010603/16/19 03:30:31  5-MIN KAQV 160930Z AUTO 00000KT 10SM CLR 08/01 A3032 0 62 -800 000/00 RMK AO2 T00780011
03949KAQV AQV20190316033510703/16/19 03:35:31  5-MIN KAQV 160935Z AUTO 32005KT 10SM CLR 07/02 A3032 10 68 -800 320/05 RMK AO2 T00720017
03949KAQV AQV20190316034010703/16/19 03:40:31  5-MIN KAQV 160940Z AUTO 00000KT 10SM CLR 07/02 A3032 10 68 -800 000/00 RMK AO2 T00720017
03949KAQV AQV20190316034510703/16/19 03:45:31  5-MIN KAQV 160945Z AUTO 34003KT 10SM CLR 07/02 A3032 10 68 -800 340/03 RMK AO2 T00720017
03949KAQV AQV20190316035011303/16/19 03:50:31  5-MIN KAQV 160950Z AUTO 00000KT 10SM CLR 07/02 A3032 0 68 -800 000/00 RMK AO2 SLP269 T00720017
03949KAQV AQV20190316035511303/16/19 03:55:31  5-MIN KAQV 160955Z AUTO VRB03KT 10SM CLR 07/02 A3033 0 68 -800 VRB/03 RMK AO2 SLP271 T00720017
03949KAQV AQV20190316040010603/16/19 04:00:31  5-MIN KAQV 161000Z AUTO 00000KT 10SM CLR 07/01 A3032 0 65 -800 000/00 RMK AO2 T00720011
03949KAQV AQV20190316040510603/16/19 04:05:31  5-MIN KAQV 161005Z AUTO VRB03KT 10SM CLR 07/02 A3033 0 68 -900 VRB/03 RMK AO2 T00720017
03949KAQV AQV20190316041010603/16/19 04:10:31  5-MIN KAQV 161010Z AUTO 35003KT 10SM CLR 07/02 A3033 0 68 -800 350/03 RMK AO2 T00720017
03949KAQV AQV20190316041510603/16/19 04:15:31  5-MIN KAQV 161015Z AUTO 34003KT 10SM CLR 07/01 A3033 0 65 -800 330/03 RMK AO2 T00720011
03949KAQV AQV20190316042010603/16/19 04:20:31  5-MIN KAQV 161020Z AUTO 35003KT 10SM CLR 07/01 A3032 0 65 -800 340/03 RMK AO2 T00720011
03949KAQV AQV20190316042510703/16/19 04:25:31  5-MIN KAQV 161025Z AUTO VRB03KT 10SM CLR 07/01 A3032 10 65 -800 VRB/03 RMK AO2 T00720011
03949KAQV AQV20190316043010703/16/19 04:30:31  5-MIN KAQV 161030Z AUTO 35003KT 10SM CLR 07/01 A3032 10 65 -800 350/03 RMK AO2 T00720011
03949KAQV AQV20190316043510603/16/19 04:35:31  5-MIN KAQV 161035Z AUTO 33003KT 10SM CLR 07/01 A3033 0 65 -800 330/03 RMK AO2 T00720011
03949KAQV AQV20190316044010603/16/19 04:40:31  5-MIN KAQV 161040Z AUTO VRB04KT 10SM CLR 07/01 A3033 0 62 -800 VRB/04 RMK AO2 T00720006
03949KAQV AQV20190316044510603/16/19 04:45:31  5-MIN KAQV 161045Z AUTO VRB03KT 10SM CLR 07/01 A3033 0 62 -800 VRB/03 RMK AO2 T00720006
03949KAQV AQV20190316045011303/16/19 04:50:31  5-MIN KAQV 161050Z AUTO 35003KT 10SM CLR 07/01 A3033 0 67 -900 350/03 RMK AO2 SLP271 T00670011
03949KAQV AQV20190316045511303/16/19 04:55:31  5-MIN KAQV 161055Z AUTO 36003KT 10SM CLR 07/01 A3033 0 67 -900 360/03 RMK AO2 SLP273 T00670011
03949KAQV AQV20190316050010603/16/19 05:00:31  5-MIN KAQV 161100Z AUTO 36003KT 10SM CLR 07/01 A3034 0 65 -900 360/03 RMK AO2 T00670006
03949KAQV AQV20190316050510603/16/19 05:05:31  5-MIN KAQV 161105Z AUTO 01003KT 10SM CLR 07/01 A3033 0 62 -900 360/03 RMK AO2 T00720006
03949KAQV AQV20190316051010603/16/19 05:10:31  5-MIN KAQV 161110Z AUTO 01003KT 10SM CLR 07/01 A3033 0 62 -800 360/03 RMK AO2 T00720006
03949KAQV AQV20190316051510603/16/19 05:15:31  5-MIN KAQV 161115Z AUTO 36004KT 10SM CLR 07/00 A3034 0 62 -900 350/04 RMK AO2 T00670000
03949KAQV AQV20190316052010603/16/19 05:20:31  5-MIN KAQV 161120Z AUTO 34003KT 10SM CLR 07/00 A3034 0 62 -900 330/03 RMK AO2 T00670000
03949KAQV AQV20190316052510803/16/19 05:25:31  5-MIN KAQV 161125Z AUTO 33003KT 10SM CLR 07/01 A3035 -10 65 -900 320/03 RMK AO2 T00670006
03949KAQV AQV20190316053010803/16/19 05:30:31  5-MIN KAQV 161130Z AUTO VRB03KT 10SM CLR 07/01 A3035 -10 65 -900 VRB/03 RMK AO2 T00670006
03949KAQV AQV20190316053511503/16/19 05:35:31  5-MIN KAQV 161135Z AUTO VRB03KT 10SM CLR 07/01 A3036 -20 67 -900 VRB/03 RMK AO2 PRESRR T00670011
03949KAQV AQV20190316054010803/16/19 05:40:31  5-MIN KAQV 161140Z AUTO 36003KT 10SM CLR 07/00 A3036 -20 62 -900 360/03 RMK AO2 T00670000
03949KAQV AQV20190316054510803/16/19 05:45:31  5-MIN KAQV 161145Z AUTO 36005KT 10SM CLR 07/00 A3035 -20 62 -900 350/05 RMK AO2 T00670000
03949KAQV AQV20190316055013303/16/19 05:50:31  5-MIN KAQV 161150Z AUTO 36005KT 10SM CLR 07/01 A3036 -20 65 -900 350/05 RMK AO2 SLP280 T00670006 10106 20067 53006
03949KAQV AQV20190316055513303/16/19 05:55:31  5-MIN KAQV 161155Z AUTO 36004KT 10SM CLR 07/00 A3036 -20 62 -900 350/04 RMK AO2 SLP280 T00670000 10106 20067 53006
03949KAQV AQV20190316060010803/16/19 06:00:31  5-MIN KAQV 161200Z AUTO VRB04KT 10SM CLR 07/00 A3036 -20 62 -900 VRB/04 RMK AO2 T00670000
03949KAQV AQV20190316060510903/16/19 06:05:31  5-MIN KAQV 161205Z AUTO VRB03KT 10SM CLR 07/00 A3036 -30 62 -1000 VRB/03 RMK AO2 T00670000
03949KAQV AQV20190316061010903/16/19 06:10:31  5-MIN KAQV 161210Z AUTO 36005KT 10SM CLR 06/00 A3036 -20 65 -1000 360/05 RMK AO2 T00610000
03949KAQV AQV20190316061510903/16/19 06:15:31  5-MIN KAQV 161215Z AUTO 36003KT 10SM CLR 06/00 A3036 -30 65 -1000 360/03 RMK AO2 T00610000
03949KAQV AQV20190316062010903/16/19 06:20:31  5-MIN KAQV 161220Z AUTO 35004KT 10SM CLR 06/00 A3036 -20 65 -1000 350/04 RMK AO2 T00610000
03949KAQV AQV20190316062510903/16/19 06:25:31  5-MIN KAQV 161225Z AUTO 00000KT 10SM CLR 06/00 A3036 -20 65 -1000 000/00 RMK AO2 T00610000
03949KAQV AQV20190316063010903/16/19 06:30:31  5-MIN KAQV 161230Z AUTO 35003KT 10SM CLR 06/01 A3036 -30 67 -1000 350/03 RMK AO2 T00610006
03949KAQV AQV20190316063510903/16/19 06:35:31  5-MIN KAQV 161235Z AUTO 00000KT 10SM CLR 06/01 A3037 -30 67 -1000 000/00 RMK AO2 T00610006
03949KAQV AQV20190316064010903/16/19 06:40:31  5-MIN KAQV 161240Z AUTO 36003KT 10SM CLR 06/01 A3037 -30 67 -1000 350/03 RMK AO2 T00610006
03949KAQV AQV20190316064510903/16/19 06:45:31  5-MIN KAQV 161245Z AUTO 00000KT 10SM CLR 06/01 A3037 -30 67 -1000 000/00 RMK AO2 T00610006
03949KAQV AQV20190316065011603/16/19 06:50:31  5-MIN KAQV 161250Z AUTO 00000KT 10SM CLR 06/01 A3037 -40 70 -1000 000/00 RMK AO2 SLP286 T00610011
03949KAQV AQV20190316065511603/16/19 06:55:31  5-MIN KAQV 161255Z AUTO 36003KT 10SM CLR 06/01 A3037 -30 70 -1000 360/03 RMK AO2 SLP286 T00610011
03949KAQV AQV20190316070010903/16/19 07:00:31  5-MIN KAQV 161300Z AUTO 36004KT 10SM CLR 06/01 A3037 -30 70 -1000 350/04 RMK AO2 T00610011
03949KAQV AQV20190316070510903/16/19 07:05:31  5-MIN KAQV 161305Z AUTO 36005KT 10SM CLR 06/01 A3037 -40 67 -1000 350/05 RMK AO2 T00610006
03949KAQV AQV20190316071010903/16/19 07:10:31  5-MIN KAQV 161310Z AUTO 36004KT 10SM CLR 07/01 A3038 -40 65 -1000 360/04 RMK AO2 T00670006
03949KAQV AQV20190316071510903/16/19 07:15:31  5-MIN KAQV 161315Z AUTO 34003KT 10SM CLR 07/01 A3038 -40 65 -1000 340/03 RMK AO2 T00670006
03949KAQV AQV20190316072010903/16/19 07:20:31  5-MIN KAQV 161320Z AUTO 36004KT 10SM CLR 07/01 A3038 -40 67 -1000 350/04 RMK AO2 T00670011
03949KAQV AQV20190316072510903/16/19 07:25:31  5-MIN KAQV 161325Z AUTO 35003KT 10SM CLR 07/01 A3038 -40 67 -1000 350/03 RMK AO2 T00670011
03949KAQV AQV20190316073010903/16/19 07:30:31  5-MIN KAQV 161330Z AUTO 35003KT 10SM CLR 07/01 A3038 -40 67 -1000 350/03 RMK AO2 T00670011
03949KAQV AQV20190316073510803/16/19 07:35:31  5-MIN KAQV 161335Z AUTO 35003KT 10SM CLR 07/01 A3039 -50 62 -900 350/03 RMK AO2 T00720006
03949KAQV AQV20190316074010803/16/19 07:40:31  5-MIN KAQV 161340Z AUTO 36003KT 10SM CLR 07/01 A3039 -50 65 -900 360/03 RMK AO2 T00720011
03949KAQV AQV20190316074510803/16/19 07:45:31  5-MIN KAQV 161345Z AUTO VRB05KT 10SM CLR 07/01 A3038 -50 65 -900 VRB/05 RMK AO2 T00720011
03949KAQV AQV20190316075011503/16/19 07:50:31  5-MIN KAQV 161350Z AUTO 36006KT 10SM CLR 08/01 A3038 -40 62 -800 360/06 RMK AO2 SLP288 T00780011
03949KAQV AQV20190316075511503/16/19 07:55:31  5-MIN KAQV 161355Z AUTO 36004KT 10SM CLR 08/01 A3038 -40 60 -800 360/04 RMK AO2 SLP289 T00780006
03949KAQV AQV20190316080010803/16/19 08:00:31  5-MIN KAQV 161400Z AUTO 36005KT 10SM CLR 08/01 A3039 -50 60 -800 360/05 RMK AO2 T00780006
03949KAQV AQV20190316080510803/16/19 08:05:31  5-MIN KAQV 161405Z AUTO 36004KT 10SM CLR 08/01 A3039 -50 60 -800 360/04 RMK AO2 T00780006
03949KAQV AQV20190316081010803/16/19 08:10:31  5-MIN KAQV 161410Z AUTO 01005KT 10SM CLR 08/01 A3039 -50 58 -800 360/05 RMK AO2 T00830006
03949KAQV AQV20190316081510803/16/19 08:15:31  5-MIN KAQV 161415Z AUTO 02004KT 10SM CLR 08/01 A3039 -50 58 -800 010/04 RMK AO2 T00830006
03949KAQV AQV20190316082010803/16/19 08:20:31  5-MIN KAQV 161420Z AUTO 02005KT 10SM CLR 09/01 A3040 -60 56 -700 010/05 RMK AO2 T00890006
03949KAQV AQV20190316082510803/16/19 08:25:31  5-MIN KAQV 161425Z AUTO VRB05KT 10SM CLR 09/00 A3040 -60 53 -700 VRB/05 RMK AO2 T00890000
03949KAQV AQV20190316083010803/16/19 08:30:31  5-MIN KAQV 161430Z AUTO VRB04KT 10SM CLR 09/00 A3040 -60 53 -700 VRB/04 RMK AO2 T00890000
03949KAQV AQV20190316083510803/16/19 08:35:31  5-MIN KAQV 161435Z AUTO 02004KT 10SM CLR 09/00 A3040 -60 51 -700 020/04 RMK AO2 T00940000
03949KAQV AQV20190316084010903/16/19 08:40:31  5-MIN KAQV 161440Z AUTO VRB06KT 10SM CLR 09/M01 A3041 -60 49 -700 VRB/06 RMK AO2 T00941006
03949KAQV AQV20190316084512503/16/19 08:45:31  5-MIN KAQV 161445Z AUTO 04007KT 010V080 10SM CLR 09/M01 A3040 -60 47 -700 030/07 010V080 RMK AO2 T00941011
03949KAQV AQV20190316085012203/16/19 08:50:31  5-MIN KAQV 161450Z AUTO 02005KT 10SM CLR 10/M01 A3040 -60 46 -600 020/05 RMK AO2 SLP296 T01001011 53016
03949KAQV AQV20190316085512203/16/19 08:55:31  5-MIN KAQV 161455Z AUTO 02009KT 10SM CLR 10/M01 A3040 -60 46 -600 020/09 RMK AO2 SLP296 T01001011 53016
03949KAQV AQV20190316090010903/16/19 09:00:31  5-MIN KAQV 161500Z AUTO 03009KT 10SM CLR 10/M02 A3040 -60 44 -600 020/09 RMK AO2 T01001017
03949KAQV AQV20190316090510903/16/19 09:05:31  5-MIN KAQV 161505Z AUTO VRB06KT 10SM CLR 10/M01 A3041 -70 46 -600 VRB/06 RMK AO2 T01001011
03949KAQV AQV20190316091010903/16/19 09:10:31  5-MIN KAQV 161510Z AUTO 02005KT 10SM CLR 11/M01 A3041 -70 44 -500 020/05 RMK AO2 T01061011
03949KAQV AQV20190316091512503/16/19 09:15:31  5-MIN KAQV 161515Z AUTO 03007KT 360V080 10SM CLR 11/M02 A3041 -70 42 -500 030/07 360V080 RMK AO2 T01061017
03949KAQV AQV20190316092013103/16/19 09:20:31  5-MIN KAQV 161520Z AUTO 02009G15KT 320V050 10SM CLR 11/M02 A3041 -70 42 -500 010/09G15 320V050 RMK AO2 T01061017
03949KAQV AQV20190316092511503/16/19 09:25:31  5-MIN KAQV 161525Z AUTO 02009G15KT 10SM CLR 11/M02 A3041 -70 42 -500 020/09G15 RMK AO2 T01061017
03949KAQV AQV20190316093012503/16/19 09:30:31  5-MIN KAQV 161530Z AUTO 03007KT 350V060 10SM CLR 11/M02 A3041 -70 39 -500 020/07 350V060 RMK AO2 T01111022
03949KAQV AQV20190316093510903/16/19 09:35:31  5-MIN KAQV 161535Z AUTO 02005KT 10SM CLR 11/M02 A3041 -70 39 -500 010/05 RMK AO2 T01111022
03949KAQV AQV20190316094010903/16/19 09:40:31  5-MIN KAQV 161540Z AUTO VRB05KT 10SM CLR 12/M02 A3041 -70 39 -400 VRB/05 RMK AO2 T01171017
03949KAQV AQV20190316094510903/16/19 09:45:31  5-MIN KAQV 161545Z AUTO VRB06KT 10SM CLR 12/M02 A3041 -70 38 -400 VRB/06 RMK AO2 T01171022
03949KAQV AQV20190316095011603/16/19 09:50:31  5-MIN KAQV 161550Z AUTO 04009KT 10SM CLR 12/M02 A3041 -70 38 -400 030/09 RMK AO2 SLP298 T01171022
03949KAQV AQV20190316095513203/16/19 09:55:31  5-MIN KAQV 161555Z AUTO 02008KT 340V060 10SM CLR 12/M02 A3041 -70 38 -400 020/08 340V060 RMK AO2 SLP299 T01171022
03949KAQV AQV20190316100012503/16/19 10:00:31  5-MIN KAQV 161600Z AUTO 04007KT 350V080 10SM CLR 12/M03 A3041 -70 36 -400 040/07 350V080 RMK AO2 T01171028
03949KAQV AQV20190316100512503/16/19 10:05:31  5-MIN KAQV 161605Z AUTO 02007KT 340V080 10SM CLR 12/M02 A3041 -60 36 -300 010/07 340V080 RMK AO2 T01221022
03949KAQV AQV20190316101010903/16/19 10:10:31  5-MIN KAQV 161610Z AUTO 02008KT 10SM CLR 12/M02 A3040 -60 36 -300 020/08 RMK AO2 T01221022
03949KAQV AQV20190316101510903/16/19 10:15:31  5-MIN KAQV 161615Z AUTO 03006KT 10SM CLR 12/M02 A3041 -60 36 -300 020/06 RMK AO2 T01221022
03949KAQV AQV20190316102010903/16/19 10:20:31  5-MIN KAQV 161620Z AUTO VRB05KT 10SM CLR 13/M02 A3041 -70 35 -300 VRB/05 RMK AO2 T01281022
03949KAQV AQV20190316102510903/16/19 10:25:31  5-MIN KAQV 161625Z AUTO 02009KT 10SM CLR 13/M02 A3041 -70 35 -300 020/09 RMK AO2 T01281022
03949KAQV AQV20190316103010903/16/19 10:30:31  5-MIN KAQV 161630Z AUTO VRB06KT 10SM CLR 13/M02 A3041 -70 34 -200 VRB/06 RMK AO2 T01331022
03949KAQV AQV20190316103510903/16/19 10:35:31  5-MIN KAQV 161635Z AUTO VRB05KT 10SM CLR 13/M02 A3041 -70 34 -200 VRB/05 RMK AO2 T01331022
03949KAQV AQV20190316104012503/16/19 10:40:31  5-MIN KAQV 161640Z AUTO 02007KT 340V060 10SM CLR 14/M02 A3041 -70 32 -100 020/07 340V060 RMK AO2 T01391022
03949KAQV AQV20190316104512503/16/19 10:45:31  5-MIN KAQV 161645Z AUTO 02008KT 330V040 10SM CLR 14/M02 A3040 -60 31 -100 010/08 330V040 RMK AO2 T01441022
03949KAQV AQV20190316105013203/16/19 10:50:31  5-MIN KAQV 161650Z AUTO 06008KT 010V070 10SM CLR 14/M03 A3040 -60 31 -100 050/08 010V070 RMK AO2 SLP294 T01391028
03949KAQV AQV20190316105513203/16/19 10:55:31  5-MIN KAQV 161655Z AUTO 01007KT 340V070 10SM CLR 14/M03 A3040 -60 30 -100 010/07 340V070 RMK AO2 SLP294 T01391033
03949KAQV AQV20190316110010603/16/19 11:00:31  5-MIN KAQV 161700Z AUTO 02007KT 10SM CLR 14/M03 A3039 -50 29 0 020/07 RMK AO2 T01441033
03949KAQV AQV20190316110510603/16/19 11:05:31  5-MIN KAQV 161705Z AUTO VRB04KT 10SM CLR 14/M03 A3039 -50 29 0 VRB/04 RMK AO2 T01441033
03949KAQV AQV20190316111010603/16/19 11:10:31  5-MIN KAQV 161710Z AUTO 03009KT 10SM CLR 15/M03 A3040 -60 29 0 020/09 RMK AO2 T01501028
03949KAQV AQV20190316111512203/16/19 11:15:31  5-MIN KAQV 161715Z AUTO 02007KT 340V050 10SM CLR 14/M04 A3039 -50 28 0 020/07 340V050 RMK AO2 T01441039
03949KAQV AQV20190316112010603/16/19 11:20:31  5-MIN KAQV 161720Z AUTO 04010KT 10SM CLR 15/M04 A3039 -50 27 0 030/10 RMK AO2 T01501039
03949KAQV AQV20190316112510603/16/19 11:25:31  5-MIN KAQV 161725Z AUTO VRB06KT 10SM CLR 15/M03 A3038 -50 28 0 VRB/06 RMK AO2 T01501033
03949KAQV AQV20190316113010603/16/19 11:30:31  5-MIN KAQV 161730Z AUTO 06008KT 10SM CLR 15/M04 A3038 -40 27 0 060/08 RMK AO2 T01501039
03949KAQV AQV20190316113510603/16/19 11:35:31  5-MIN KAQV 161735Z AUTO VRB06KT 10SM CLR 15/M04 A3038 -40 27 0 VRB/06 RMK AO2 T01501039
03949KAQV AQV20190316114010603/16/19 11:40:31  5-MIN KAQV 161740Z AUTO 04007KT 10SM CLR 15/M04 A3038 -40 27 0 040/07 RMK AO2 T01501039
03949KAQV AQV20190316114511203/16/19 11:45:31  5-MIN KAQV 161745Z AUTO 04010G15KT 10SM CLR 15/M03 A3038 -40 28 0 040/10G15 RMK AO2 T01501033
03949KAQV AQV20190316115013703/16/19 11:50:31  5-MIN KAQV 161750Z AUTO VRB05G15KT 10SM CLR 15/M04 A3037 -30 27 0 VRB/05G15 RMK AO2 SLP286 T01501039 10156 20061 53016
03949KAQV AQV20190316115513303/16/19 11:55:31  5-MIN KAQV 161755Z AUTO 03005KT 10SM CLR 16/M03 A3037 -30 28 100 030/05 RMK AO2 SLP284 T01561028 10156 20061 53016
03949KAQV AQV20190316120012403/16/19 12:00:31  5-MIN KAQV 161800Z AUTO 03008KT 350V060 10SM CLR 16/M03 A3037 -30 27 100 030/08 350V060 RMK AO2 T01611028
03949KAQV AQV20190316120510803/16/19 12:05:31  5-MIN KAQV 161805Z AUTO VRB05KT 10SM CLR 16/M03 A3036 -30 27 100 VRB/05 RMK AO2 T01561033
03949KAQV AQV20190316121010803/16/19 12:10:31  5-MIN KAQV 161810Z AUTO 03009KT 10SM CLR 16/M03 A3037 -30 27 100 030/09 RMK AO2 T01561033
03949KAQV AQV20190316121510603/16/19 12:15:31  5-MIN KAQV 161815Z AUTO VRB03KT 10SM CLR 15/M04 A3036 -20 27 0 VRB/03 RMK AO2 T01501039
03949KAQV AQV20190316122010603/16/19 12:20:31  5-MIN KAQV 161820Z AUTO 05005KT 10SM CLR 15/M04 A3036 -20 27 0 050/05 RMK AO2 T01501039
03949KAQV AQV20190316122510803/16/19 12:25:31  5-MIN KAQV 161825Z AUTO VRB06KT 10SM CLR 16/M03 A3035 -20 27 100 VRB/06 RMK AO2 T01611028
03949KAQV AQV20190316123012403/16/19 12:30:31  5-MIN KAQV 161830Z AUTO 06007KT 020V110 10SM CLR 16/M04 A3035 -10 26 100 060/07 020V110 RMK AO2 T01561039
03949KAQV AQV20190316123510803/16/19 12:35:31  5-MIN KAQV 161835Z AUTO VRB06KT 10SM CLR 16/M04 A3035 -10 26 100 VRB/06 RMK AO2 T01561039
03949KAQV AQV20190316124010803/16/19 12:40:31  5-MIN KAQV 161840Z AUTO VRB06KT 10SM CLR 16/M03 A3035 -10 26 200 VRB/06 RMK AO2 T01611033
03949KAQV AQV20190316124510803/16/19 12:45:31  5-MIN KAQV 161845Z AUTO VRB06KT 10SM CLR 16/M04 A3034 -10 26 100 VRB/06 RMK AO2 T01561039
03949KAQV AQV20190316125011303/16/19 12:50:31  5-MIN KAQV 161850Z AUTO 02004KT 10SM CLR 16/M03 A3034 0 27 100 020/04 RMK AO2 SLP274 T01561033
03949KAQV AQV20190316125512903/16/19 12:55:31  5-MIN KAQV 161855Z AUTO 01009KT 340V060 10SM CLR 17/M03 A3034 0 26 200 010/09 340V060 RMK AO2 SLP273 T01671028
03949KAQV AQV20190316130012803/16/19 13:00:31  5-MIN KAQV 161900Z AUTO 35010G15KT 310V020 10SM CLR 16/M03 A3033 0 26 200 350/10G15 310V020 RMK AO2 T01611033
03949KAQV AQV20190316130511203/16/19 13:05:31  5-MIN KAQV 161905Z AUTO VRB05G15KT 10SM CLR 16/M03 A3033 0 27 100 VRB/05G15 RMK AO2 T01561033
03949KAQV AQV20190316131012303/16/19 13:10:31  5-MIN KAQV 161910Z AUTO 35008KT 320V050 10SM CLR 16/M03 A3032 10 26 200 350/08 320V050 RMK AO2 T01611033
03949KAQV AQV20190316131512303/16/19 13:15:31  5-MIN KAQV 161915Z AUTO 05008KT 350V090 10SM CLR 16/M03 A3032 10 26 200 050/08 350V090 RMK AO2 T01611033
03949KAQV AQV20190316132010703/16/19 13:20:31  5-MIN KAQV 161920Z AUTO 01007KT 10SM CLR 16/M03 A3032 10 27 200 010/07 RMK AO2 T01611028
03949KAQV AQV20190316132510703/16/19 13:25:31  5-MIN KAQV 161925Z AUTO 01007KT 10SM CLR 17/M03 A3031 20 25 300 010/07 RMK AO2 T01671033
03949KAQV AQV20190316133011303/16/19 13:30:31  5-MIN KAQV 161930Z AUTO 36009G14KT 10SM CLR 17/M03 A3031 20 25 300 360/09G14 RMK AO2 T01671033
03949KAQV AQV20190316133512903/16/19 13:35:31  5-MIN KAQV 161935Z AUTO 36008G14KT 330V040 10SM CLR 17/M03 A3031 20 25 300 360/08G14 330V040 RMK AO2 T01671033
03949KAQV AQV20190316134011303/16/19 13:40:31  5-MIN KAQV 161940Z AUTO 02004G16KT 10SM CLR 16/M03 A3031 20 26 200 010/04G16 RMK AO2 T01611033
03949KAQV AQV20190316134510703/16/19 13:45:31  5-MIN KAQV 161945Z AUTO 00000KT 10SM CLR 16/M04 A3030 30 25 200 000/00 RMK AO2 T01611039
03949KAQV AQV20190316135011403/16/19 13:50:31  5-MIN KAQV 161950Z AUTO 03009KT 10SM CLR 17/M03 A3029 30 26 300 030/09 RMK AO2 SLP259 T01671028
03949KAQV AQV20190316135511403/16/19 13:55:31  5-MIN KAQV 161955Z AUTO 34008KT 10SM CLR 17/M02 A3029 40 26 300 330/08 RMK AO2 SLP258 T01721022
03949KAQV AQV20190316140012003/16/19 14:00:31  5-MIN KAQV 162000Z AUTO 36010G16KT 10SM CLR 17/M03 A3028 40 25 300 350/10G16 RMK AO2 PRESFR T01671033
03949KAQV AQV20190316140511303/16/19 14:05:31  5-MIN KAQV 162005Z AUTO 01009G16KT 10SM CLR 17/M03 A3028 40 25 300 360/09G16 RMK AO2 T01671033
03949KAQV AQV20190316141012903/16/19 14:10:31  5-MIN KAQV 162010Z AUTO 35008G16KT 310V010 10SM CLR 17/M03 A3028 50 26 300 350/08G16 310V010 RMK AO2 T01671028
03949KAQV AQV20190316141510703/16/19 14:15:31  5-MIN KAQV 162015Z AUTO VRB06KT 10SM CLR 17/M03 A3028 50 26 300 VRB/06 RMK AO2 T01671028
03949KAQV AQV20190316142011303/16/19 14:20:31  5-MIN KAQV 162020Z AUTO 02009G15KT 10SM CLR 17/M03 A3028 50 26 300 010/09G15 RMK AO2 T01671028
03949KAQV AQV20190316142511303/16/19 14:25:31  5-MIN KAQV 162025Z AUTO VRB05G15KT 10SM CLR 17/M03 A3028 50 26 300 VRB/05G15 RMK AO2 T01671028
03949KAQV AQV20190316143009703/16/19 14:30:31  5-MIN KAQV 162030Z AUTO 10SM CLR 17/M02 A3027 50 27 300 M /M RMK AO2 T01671022
03949KAQV AQV20190316143510703/16/19 14:35:31  5-MIN KAQV 162035Z AUTO VRB05KT 10SM CLR 17/M02 A3027 50 27 300 VRB/05 RMK AO2 T01671022
03949KAQV AQV20190316144010703/16/19 14:40:31  5-MIN KAQV 162040Z AUTO 35008KT 10SM CLR 17/M03 A3028 50 26 300 350/08 RMK AO2 T01671028
03949KAQV AQV20190316144510703/16/19 14:45:31  5-MIN KAQV 162045Z AUTO 01009KT 10SM CLR 17/M03 A3028 50 26 300 010/09 RMK AO2 T01671028
03949KAQV AQV20190316145012003/16/19 14:50:31  5-MIN KAQV 162050Z AUTO VRB04KT 10SM CLR 16/M03 A3027 50 27 200 VRB/04 RMK AO2 SLP252 T01611028 58012
03949KAQV AQV20190316145511003/16/19 14:55:31  5-MIN KAQV 162055Z AUTO 10SM CLR 17/M02 A3028 50 27 300 M /M RMK AO2 SLP253 T01671022 58012
03949KAQV AQV20190316150010703/16/19 15:00:31  5-MIN KAQV 162100Z AUTO 03009KT 10SM CLR 16/M02 A3028 50 28 200 020/09 RMK AO2 T01611022
03949KAQV AQV20190316150510703/16/19 15:05:31  5-MIN KAQV 162105Z AUTO VRB05KT 10SM CLR 16/M02 A3028 50 28 200 VRB/05 RMK AO2 T01611022
03949KAQV AQV20190316151010703/16/19 15:10:31  5-MIN KAQV 162110Z AUTO VRB06KT 10SM CLR 16/M02 A3027 50 28 200 VRB/06 RMK AO2 T01611022
03949KAQV AQV20190316151510703/16/19 15:15:31  5-MIN KAQV 162115Z AUTO 36007KT 10SM CLR 16/M02 A3027 50 28 200 360/07 RMK AO2 T01611022
03949KAQV AQV20190316152010703/16/19 15:20:31  5-MIN KAQV 162120Z AUTO VRB06KT 10SM CLR 17/M02 A3027 50 27 300 VRB/06 RMK AO2 T01671022
03949KAQV AQV20190316152510703/16/19 15:25:31  5-MIN KAQV 162125Z AUTO VRB04KT 10SM CLR 17/M02 A3027 50 27 300 VRB/04 RMK AO2 T01671022
03949KAQV AQV20190316153010703/16/19 15:30:31  5-MIN KAQV 162130Z AUTO 01007KT 10SM CLR 16/M02 A3027 50 28 200 360/07 RMK AO2 T01611022
03949KAQV AQV20190316153510703/16/19 15:35:31  5-MIN KAQV 162135Z AUTO 01007KT 10SM CLR 16/M02 A3027 50 28 200 010/07 RMK AO2 T01611022
03949KAQV AQV20190316154010703/16/19 15:40:31  5-MIN KAQV 162140Z AUTO VRB05KT 10SM CLR 16/M02 A3027 50 28 200 VRB/05 RMK AO2 T01611022
03949KAQV AQV20190316154509703/16/19 15:45:31  5-MIN KAQV 162145Z AUTO 10SM CLR 16/M02 A3027 60 28 200 M /M RMK AO2 T01611022
03949KAQV AQV20190316155011403/16/19 15:50:31  5-MIN KAQV 162150Z AUTO 02008KT 10SM CLR 17/M02 A3027 50 28 300 020/08 RMK AO2 SLP251 T01671017
03949KAQV AQV20190316155506103/16/19 15:55:31  5-MIN KAQV 162155Z MK AO2 SLP262 T01000006
03949KAQV AQV20190316211511003/16/19 21:15:31  5-MIN KAQV 170315Z AUTO 00000KT 10SM BKN120 11/01 A3032 10 50 -400 000/00 RMK AO2 T01060006
03949KAQV AQV20190316212011003/16/19 21:20:31  5-MIN KAQV 170320Z AUTO 00000KT 10SM BKN120 11/01 A3032 10 52 -400 000/00 RMK AO2 T01060011
03949KAQV AQV20190316212511003/16/19 21:25:31  5-MIN KAQV 170325Z AUTO 00000KT 10SM BKN120 11/01 A3031 10 52 -400 000/00 RMK AO2 T01060011
03949KAQV AQV20190316213011003/16/19 21:30:31  5-MIN KAQV 170330Z AUTO 00000KT 10SM OVC120 11/01 A3031 20 52 -400 000/00 RMK AO2 T01060011
03949KAQV AQV20190316213511003/16/19 21:35:31  5-MIN KAQV 170335Z AUTO 00000KT 10SM OVC120 10/01 A3031 20 54 -500 000/00 RMK AO2 T01000011
03949KAQV AQV20190316214011003/16/19 21:40:31  5-MIN KAQV 170340Z AUTO 00000KT 10SM OVC120 10/01 A3031 20 54 -500 000/00 RMK AO2 T01000011
03949KAQV AQV20190316214511003/16/19 21:45:31  5-MIN KAQV 170345Z AUTO 04003KT 10SM BKN120 10/01 A3031 20 54 -500 040/03 RMK AO2 T01000011
03949KAQV AQV20190316215011703/16/19 21:50:31  5-MIN KAQV 170350Z AUTO 03003KT 10SM BKN120 10/01 A3030 30 54 -500 030/03 RMK AO2 SLP261 T01000011
03949KAQV AQV20190316215511703/16/19 21:55:31  5-MIN KAQV 170355Z AUTO 00000KT 10SM SCT120 10/01 A3030 20 52 -500 000/00 RMK AO2 SLP262 T01000006
03949KAQV AQV20190316220011003/16/19 22:00:31  5-MIN KAQV 170400Z AUTO 00000KT 10SM SCT120 10/01 A3031 20 52 -500 000/00 RMK AO2 T01000006
03949KAQV AQV20190316220511003/16/19 22:05:31  5-MIN KAQV 170405Z AUTO 05003KT 10SM SCT120 10/01 A3031 20 52 -500 050/03 RMK AO2 T01000006
03949KAQV AQV20190316221011003/16/19 22:10:31  5-MIN KAQV 170410Z AUTO 00000KT 10SM SCT120 10/00 A3031 20 49 -500 000/00 RMK AO2 T01000000
03949KAQV AQV20190316221511003/16/19 22:15:31  5-MIN KAQV 170415Z AUTO 00000KT 10SM SCT120 10/01 A3031 20 52 -500 000/00 RMK AO2 T01000006
03949KAQV AQV20190316222011003/16/19 22:20:31  5-MIN KAQV 170420Z AUTO 00000KT 10SM SCT120 09/01 A3031 20 56 -600 000/00 RMK AO2 T00940011
03949KAQV AQV20190316222511003/16/19 22:25:31  5-MIN KAQV 170425Z AUTO 00000KT 10SM FEW120 09/01 A3031 20 56 -600 000/00 RMK AO2 T00940011
03949KAQV AQV20190316223011003/16/19 22:30:31  5-MIN KAQV 170430Z AUTO 00000KT 10SM FEW120 09/01 A3031 10 56 -600 000/00 RMK AO2 T00940011
03949KAQV AQV20190316223511003/16/19 22:35:31  5-MIN KAQV 170435Z AUTO 00000KT 10SM FEW120 09/01 A3032 10 56 -600 000/00 RMK AO2 T00890006
03949KAQV AQV20190316224010703/16/19 22:40:31  5-MIN KAQV 170440Z AUTO 00000KT 10SM CLR 08/02 A3032 10 63 -700 000/00 RMK AO2 T00830017
03949KAQV AQV20190316224510703/16/19 22:45:31  5-MIN KAQV 170445Z AUTO 00000KT 10SM CLR 08/01 A3031 10 60 -700 000/00 RMK AO2 T00830011
03949KAQV AQV20190316225011403/16/19 22:50:31  5-MIN KAQV 170450Z AUTO 00000KT 10SM CLR 08/02 A3032 10 63 -700 000/00 RMK AO2 SLP266 T00830017
03949KAQV AQV20190316225511403/16/19 22:55:31  5-MIN KAQV 170455Z AUTO 00000KT 10SM CLR 08/02 A3032 10 68 -800 000/00 RMK AO2 SLP266 T00780022
03949KAQV AQV20190316230010703/16/19 23:00:31  5-MIN KAQV 170500Z AUTO 00000KT 10SM CLR 08/03 A3031 20 70 -800 000/00 RMK AO2 T00780028
03949KAQV AQV20190316230510703/16/19 23:05:31  5-MIN KAQV 170505Z AUTO 00000KT 10SM CLR 08/03 A3031 20 70 -800 000/00 RMK AO2 T00780028
03949KAQV AQV20190316231010703/16/19 23:10:31  5-MIN KAQV 170510Z AUTO 00000KT 10SM CLR 07/02 A3031 20 70 -800 000/00 RMK AO2 T00720022
03949KAQV AQV20190316231510703/16/19 23:15:31  5-MIN KAQV 170515Z AUTO 00000KT 10SM CLR 07/03 A3031 20 73 -800 000/00 RMK AO2 T00720028
03949KAQV AQV20190316232010703/16/19 23:20:31  5-MIN KAQV 170520Z AUTO 00000KT 10SM CLR 08/02 A3031 20 63 -700 000/00 RMK AO2 T00830017
03949KAQV AQV20190316232510703/16/19 23:25:31  5-MIN KAQV 170525Z AUTO 00000KT 10SM CLR 08/02 A3031 20 63 -700 000/00 RMK AO2 T00830017
03949KAQV AQV20190316233010703/16/19 23:30:31  5-MIN KAQV 170530Z AUTO 00000KT 10SM CLR 08/02 A3031 20 65 -800 000/00 RMK AO2 T00780017
03949KAQV AQV20190316233510703/16/19 23:35:31  5-MIN KAQV 170535Z AUTO 00000KT 10SM CLR 08/03 A3031 20 70 -800 000/00 RMK AO2 T00780028
03949KAQV AQV20190316234010703/16/19 23:40:31  5-MIN KAQV 170540Z AUTO 00000KT 10SM CLR 07/03 A3031 20 73 -800 000/00 RMK AO2 T00720028
03949KAQV AQV20190316234510703/16/19 23:45:31  5-MIN KAQV 170545Z AUTO 00000KT 10SM CLR 07/02 A3031 20 70 -800 000/00 RMK AO2 T00720022
03949KAQV AQV20190316235014203/16/19 23:50:31  5-MIN KAQV 170550Z AUTO 04003KT 10SM CLR 07/03 A3031 20 73 -800 030/03 RMK AO2 SLP263 T00720028 10133 20072 401720061 51014
03949KAQV AQV20190316235514203/16/19 23:55:31  5-MIN KAQV 170555Z AUTO 00000KT 10SM CLR 07/03 A3030 20 76 -800 000/00 RMK AO2 SLP263 T00720033 10133 20072 401720061 51014
03949KAQV AQV20190317000010703/17/19 00:00:31  5-MIN KAQV 170600Z AUTO 00000KT 10SM CLR 07/03 A3031 20 73 -800 000/00 RMK AO2 T00720028
03949KAQV AQV20190317000510703/17/19 00:05:31  5-MIN KAQV 170605Z AUTO 00000KT 10SM CLR 07/02 A3030 20 70 -900 000/00 RMK AO2 T00670017
03949KAQV AQV20190317001010703/17/19 00:10:31  5-MIN KAQV 170610Z AUTO 00000KT 10SM CLR 07/02 A3031 20 70 -900 000/00 RMK AO2 T00670017
03949KAQV AQV20190317001510703/17/19 00:15:31  5-MIN KAQV 170615Z AUTO 00000KT 10SM CLR 07/02 A3031 20 70 -900 000/00 RMK AO2 T00670017
03949KAQV AQV20190317002010703/17/19 00:20:31  5-MIN KAQV 170620Z AUTO 00000KT 10SM CLR 07/03 A3030 20 76 -900 000/00 RMK AO2 T00670028
03949KAQV AQV20190317002510803/17/19 00:25:31  5-MIN KAQV 170625Z AUTO 00000KT 10SM CLR 06/02 A3031 20 76 -1000 000/00 RMK AO2 T00610022
03949KAQV AQV20190317003010803/17/19 00:30:31  5-MIN KAQV 170630Z AUTO 00000KT 10SM CLR 06/03 A3031 20 79 -1000 000/00 RMK AO2 T00610028
03949KAQV AQV20190317003510803/17/19 00:35:31  5-MIN KAQV 170635Z AUTO 00000KT 10SM CLR 06/03 A3031 20 79 -1000 000/00 RMK AO2 T00610028
03949KAQV AQV20190317004010803/17/19 00:40:31  5-MIN KAQV 170640Z AUTO 01003KT 10SM CLR 06/03 A3030 20 82 -1000 010/03 RMK AO2 T00610033
03949KAQV AQV20190317004510803/17/19 00:45:31  5-MIN KAQV 170645Z AUTO 00000KT 10SM CLR 06/03 A3030 20 82 -1000 000/00 RMK AO2 T00610033
03949KAQV AQV20190317005011503/17/19 00:50:31  5-MIN KAQV 170650Z AUTO 00000KT 10SM CLR 06/03 A3030 20 82 -1000 000/00 RMK AO2 SLP262 T00610033
03949KAQV AQV20190317005511503/17/19 00:55:31  5-MIN KAQV 170655Z AUTO 00000KT 10SM CLR 06/03 A3030 20 79 -1000 000/00 RMK AO2 SLP262 T00610028
03949KAQV AQV20190317010010703/17/19 01:00:31  5-MIN KAQV 170700Z AUTO 00000KT 10SM CLR 07/03 A3030 30 76 -900 000/00 RMK AO2 T00670028
03949KAQV AQV20190317010510803/17/19 01:05:31  5-MIN KAQV 170705Z AUTO 00000KT 10SM CLR 06/03 A3030 20 79 -1000 000/00 RMK AO2 T00610028
03949KAQV AQV20190317011010703/17/19 01:10:31  5-MIN KAQV 170710Z AUTO 00000KT 10SM CLR 07/03 A3030 30 76 -900 000/00 RMK AO2 T00670028
03949KAQV AQV20190317011510703/17/19 01:15:31  5-MIN KAQV 170715Z AUTO 00000KT 10SM CLR 07/02 A3030 30 73 -900 000/00 RMK AO2 T00670022
03949KAQV AQV20190317012010703/17/19 01:20:31  5-MIN KAQV 170720Z AUTO 00000KT 10SM CLR 07/03 A3030 30 76 -900 000/00 RMK AO2 T00670028
03949KAQV AQV20190317012510703/17/19 01:25:31  5-MIN KAQV 170725Z AUTO 00000KT 10SM CLR 07/03 A3029 30 76 -900 000/00 RMK AO2 T00670028
03949KAQV AQV20190317013010803/17/19 01:30:31  5-MIN KAQV 170730Z AUTO 00000KT 10SM CLR 06/03 A3030 30 82 -1000 000/00 RMK AO2 T00610033
03949KAQV AQV20190317013510703/17/19 01:35:31  5-MIN KAQV 170735Z AUTO 00000KT 10SM CLR 06/03 A3030 30 82 -900 000/00 RMK AO2 T00610033
03949KAQV AQV20190317014010703/17/19 01:40:31  5-MIN KAQV 170740Z AUTO 00000KT 10SM CLR 06/03 A3029 30 79 -900 000/00 RMK AO2 T00610028
03949KAQV AQV20190317014510703/17/19 01:45:31  5-MIN KAQV 170745Z AUTO 00000KT 10SM CLR 06/03 A3029 40 79 -900 000/00 RMK AO2 T00610028
03949KAQV AQV20190317015011403/17/19 01:50:31  5-MIN KAQV 170750Z AUTO 00000KT 10SM CLR 06/03 A3029 40 79 -900 000/00 RMK AO2 SLP257 T00610028
03949KAQV AQV20190317015511503/17/19 01:55:31  5-MIN KAQV 170755Z AUTO 00000KT 10SM CLR 06/03 A3029 30 82 -1000 000/00 RMK AO2 SLP258 T00560028
03949KAQV AQV20190317020010803/17/19 02:00:31  5-MIN KAQV 170800Z AUTO 00000KT 10SM CLR 06/03 A3029 30 85 -1000 000/00 RMK AO2 T00560033
03949KAQV AQV20190317020510803/17/19 02:05:31  5-MIN KAQV 170805Z AUTO 00000KT 10SM CLR 06/03 A3029 30 85 -1000 000/00 RMK AO2 T00560033
03949KAQV AQV20190317021010803/17/19 02:10:31  5-MIN KAQV 170810Z AUTO 00000KT 10SM CLR 06/03 A3029 30 85 -1000 000/00 RMK AO2 T00560033
03949KAQV AQV20190317021510803/17/19 02:15:31  5-MIN KAQV 170815Z AUTO 19003KT 10SM CLR 06/03 A3030 30 85 -1000 190/03 RMK AO2 T00560033
03949KAQV AQV20190317022010803/17/19 02:20:31  5-MIN KAQV 170820Z AUTO 00000KT 10SM CLR 05/03 A3030 30 89 -1100 000/00 RMK AO2 T00500033
03949KAQV AQV20190317022510803/17/19 02:25:31  5-MIN KAQV 170825Z AUTO 00000KT 10SM CLR 06/03 A3030 30 85 -1000 000/00 RMK AO2 T00560033
03949KAQV AQV20190317023010803/17/19 02:30:31  5-MIN KAQV 170830Z AUTO 00000KT 10SM CLR 06/03 A3030 30 85 -1000 000/00 RMK AO2 T00560033
03949KAQV AQV20190317023510803/17/19 02:35:31  5-MIN KAQV 170835Z AUTO 00000KT 10SM CLR 06/04 A3029 30 89 -1000 000/00 RMK AO2 T00560039
03949KAQV AQV20190317024010803/17/19 02:40:31  5-MIN KAQV 170840Z AUTO 00000KT 10SM CLR 06/04 A3029 40 89 -1000 000/00 RMK AO2 T00560039
03949KAQV AQV20190317024510803/17/19 02:45:31  5-MIN KAQV 170845Z AUTO 00000KT 10SM CLR 06/04 A3029 40 89 -1000 000/00 RMK AO2 T00560039
03949KAQV AQV20190317025012003/17/19 02:50:31  5-MIN KAQV 170850Z AUTO 00000KT 10SM CLR 06/04 A3029 40 86 -900 000/00 RMK AO2 SLP256 T00610039 58003
03949KAQV AQV20190317025512103/17/19 02:55:31  5-MIN KAQV 170855Z AUTO 01003KT 10SM CLR 06/03 A3028 50 85 -1000 360/03 RMK AO2 SLP254 T00560033 58003
03949KAQV AQV20190317030010703/17/19 03:00:31  5-MIN KAQV 170900Z AUTO 36004KT 10SM CLR 06/03 A3028 50 79 -900 350/04 RMK AO2 T00610028
03949KAQV AQV20190317030510703/17/19 03:05:31  5-MIN KAQV 170905Z AUTO 36003KT 10SM CLR 06/03 A3028 50 79 -900 350/03 RMK AO2 T00610028
03949KAQV AQV20190317031010803/17/19 03:10:31  5-MIN KAQV 170910Z AUTO 00000KT 10SM CLR 06/03 A3027 50 82 -1000 000/00 RMK AO2 T00560028
03949KAQV AQV20190317031510803/17/19 03:15:31  5-MIN KAQV 170915Z AUTO 00000KT 10SM CLR 06/03 A3028 50 82 -1000 000/00 RMK AO2 T00560028
03949KAQV AQV20190317032010803/17/19 03:20:31  5-MIN KAQV 170920Z AUTO 00000KT 10SM CLR 06/03 A3028 50 82 -1000 000/00 RMK AO2 T00560028
03949KAQV AQV20190317032510703/17/19 03:25:31  5-MIN KAQV 170925Z AUTO 00000KT 10SM CLR 06/03 A3027 50 79 -900 000/00 RMK AO2 T00610028
03949KAQV AQV20190317033010703/17/19 03:30:31  5-MIN KAQV 170930Z AUTO 32004KT 10SM CLR 06/03 A3028 50 79 -900 310/04 RMK AO2 T00610028
03949KAQV AQV20190317033510803/17/19 03:35:31  5-MIN KAQV 170935Z AUTO 00000KT 10SM CLR 06/03 A3028 50 82 -1000 000/00 RMK AO2 T00560028
03949KAQV AQV20190317034010803/17/19 03:40:31  5-MIN KAQV 170940Z AUTO 00000KT 10SM CLR 06/03 A3027 50 82 -1000 000/00 RMK AO2 T00560028
03949KAQV AQV20190317034510803/17/19 03:45:31  5-MIN KAQV 170945Z AUTO 00000KT 10SM CLR 06/03 A3027 50 82 -1000 000/00 RMK AO2 T00560028
03949KAQV AQV20190317035011503/17/19 03:50:31  5-MIN KAQV 170950Z AUTO 00000KT 10SM CLR 06/03 A3027 50 82 -1000 000/00 RMK AO2 SLP252 T00560028
03949KAQV AQV20190317035511503/17/19 03:55:31  5-MIN KAQV 170955Z AUTO 00000KT 10SM CLR 05/02 A3027 50 82 -1100 000/00 RMK AO2 SLP252 T00500022
03949KAQV AQV20190317040010803/17/19 04:00:31  5-MIN KAQV 171000Z AUTO 00000KT 10SM CLR 05/02 A3027 50 82 -1100 000/00 RMK AO2 T00500022
03949KAQV AQV20190317040510703/17/19 04:05:31  5-MIN KAQV 171005Z AUTO 00000KT 9SM CLR 05/02 A3027 60 82 -1100 000/00 RMK AO2 T00500022
03949KAQV AQV20190317041010703/17/19 04:10:31  5-MIN KAQV 171010Z AUTO 00000KT 9SM CLR 05/02 A3028 50 82 -1100 000/00 RMK AO2 T00500022
03949KAQV AQV20190317041510803/17/19 04:15:31  5-MIN KAQV 171015Z AUTO 00000KT 10SM CLR 05/02 A3028 40 82 -1100 000/00 RMK AO2 T00500022
03949KAQV AQV20190317042010803/17/19 04:20:31  5-MIN KAQV 171020Z AUTO 00000KT 10SM CLR 05/02 A3029 40 79 -1100 000/00 RMK AO2 T00500017
03949KAQV AQV20190317042510803/17/19 04:25:31  5-MIN KAQV 171025Z AUTO 00000KT 10SM CLR 04/02 A3029 40 82 -1100 000/00 RMK AO2 T00440017
03949KAQV AQV20190317043010803/17/19 04:30:31  5-MIN KAQV 171030Z AUTO 00000KT 10SM CLR 04/02 A3028 40 82 -1100 000/00 RMK AO2 T00440017
03949KAQV AQV20190317043510803/17/19 04:35:31  5-MIN KAQV 171035Z AUTO 00000KT 10SM CLR 04/02 A3028 40 82 -1100 000/00 RMK AO2 T00440017
03949KAQV AQV20190317044010803/17/19 04:40:31  5-MIN KAQV 171040Z AUTO 00000KT 10SM CLR 04/02 A3028 40 85 -1100 000/00 RMK AO2 T00440022
03949KAQV AQV20190317044510803/17/19 04:45:31  5-MIN KAQV 171045Z AUTO 00000KT 10SM CLR 04/02 A3028 40 82 -1100 000/00 RMK AO2 T00440017
03949KAQV AQV20190317045011503/17/19 04:50:31  5-MIN KAQV 171050Z AUTO 00000KT 10SM CLR 04/02 A3029 40 89 -1200 000/00 RMK AO2 SLP257 T00390022
03949KAQV AQV20190317045511503/17/19 04:55:31  5-MIN KAQV 171055Z AUTO 00000KT 10SM CLR 04/02 A3029 40 85 -1200 000/00 RMK AO2 SLP258 T00390017
03949KAQV AQV20190317050010803/17/19 05:00:31  5-MIN KAQV 171100Z AUTO 00000KT 10SM CLR 04/02 A3029 40 89 -1200 000/00 RMK AO2 T00390022
03949KAQV AQV20190317050510803/17/19 05:05:31  5-MIN KAQV 171105Z AUTO 00000KT 10SM CLR 04/02 A3029 40 89 -1200 000/00 RMK AO2 T00390022
03949KAQV AQV20190317051009803/17/19 05:10:31  5-MIN KAQV 171110Z AUTO 10SM CLR 04/02 A3029 30 89 -1200 M /M RMK AO2 T00390022
03949KAQV AQV20190317051510803/17/19 05:15:31  5-MIN KAQV 171115Z AUTO 00000KT 10SM CLR 04/02 A3029 30 85 -1200 000/00 RMK AO2 T00390017
03949KAQV AQV20190317052010803/17/19 05:20:31  5-MIN KAQV 171120Z AUTO 00000KT 10SM CLR 04/02 A3030 30 89 -1200 000/00 RMK AO2 T00390022
03949KAQV AQV20190317052510803/17/19 05:25:31  5-MIN KAQV 171125Z AUTO 00000KT 10SM CLR 04/02 A3030 20 89 -1200 000/00 RMK AO2 T00390022
03949KAQV AQV20190317053010803/17/19 05:30:31  5-MIN KAQV 171130Z AUTO 00000KT 10SM CLR 04/02 A3030 20 89 -1200 000/00 RMK AO2 T00390022
03949KAQV AQV20190317053510803/17/19 05:35:31  5-MIN KAQV 171135Z AUTO 00000KT 10SM CLR 04/02 A3030 20 89 -1200 000/00 RMK AO2 T00390022
03949KAQV AQV20190317054010803/17/19 05:40:31  5-MIN KAQV 171140Z AUTO 00000KT 10SM CLR 04/02 A3030 20 89 -1200 000/00 RMK AO2 T00390022
03949KAQV AQV20190317054510803/17/19 05:45:31  5-MIN KAQV 171145Z AUTO 32003KT 10SM CLR 03/02 A3031 20 92 -1300 320/03 RMK AO2 T00330022
03949KAQV AQV20190317055013303/17/19 05:50:31  5-MIN KAQV 171150Z AUTO 00000KT 10SM CLR 03/02 A3031 20 89 -1300 000/00 RMK AO2 SLP264 T00330017 10072 20033 58009
03949KAQV AQV20190317055513303/17/19 05:55:31  5-MIN KAQV 171155Z AUTO 00000KT 10SM CLR 03/02 A3031 20 89 -1300 000/00 RMK AO2 SLP264 T00330017 10072 20033 58009
03949KAQV AQV20190317060010803/17/19 06:00:31  5-MIN KAQV 171200Z AUTO 00000KT 10SM CLR 03/02 A3031 20 89 -1300 000/00 RMK AO2 T00330017
03949KAQV AQV20190317060510803/17/19 06:05:31  5-MIN KAQV 171205Z AUTO 00000KT 10SM CLR 03/02 A3031 20 89 -1300 000/00 RMK AO2 T00330017
03949KAQV AQV20190317061010803/17/19 06:10:31  5-MIN KAQV 171210Z AUTO 00000KT 10SM CLR 03/02 A3031 10 92 -1400 000/00 RMK AO2 T00280017
03949KAQV AQV20190317061510803/17/19 06:15:31  5-MIN KAQV 171215Z AUTO 31003KT 10SM CLR 03/02 A3032 10 92 -1400 310/03 RMK AO2 T00280017
03949KAQV AQV20190317062010803/17/19 06:20:31  5-MIN KAQV 171220Z AUTO 00000KT 10SM CLR 03/02 A3032 10 92 -1400 000/00 RMK AO2 T00280017
03949KAQV AQV20190317062510803/17/19 06:25:31  5-MIN KAQV 171225Z AUTO 00000KT 10SM CLR 03/01 A3032 10 85 -1300 000/00 RMK AO2 T00330011
03949KAQV AQV20190317063010803/17/19 06:30:31  5-MIN KAQV 171230Z AUTO 00000KT 10SM CLR 03/02 A3032 10 89 -1300 000/00 RMK AO2 T00330017
03949KAQV AQV20190317063510803/17/19 06:35:31  5-MIN KAQV 171235Z AUTO 00000KT 10SM CLR 03/02 A3032 10 89 -1300 000/00 RMK AO2 T00330017
03949KAQV AQV20190317064010803/17/19 06:40:31  5-MIN KAQV 171240Z AUTO 00000KT 10SM CLR 03/02 A3032 10 89 -1300 000/00 RMK AO2 T00330017
03949KAQV AQV20190317064510803/17/19 06:45:31  5-MIN KAQV 171245Z AUTO 00000KT 10SM CLR 03/02 A3032 10 89 -1300 000/00 RMK AO2 T00330017
03949KAQV AQV20190317065011503/17/19 06:50:31  5-MIN KAQV 171250Z AUTO 00000KT 10SM CLR 04/02 A3032 10 89 -1300 000/00 RMK AO2 SLP270 T00390022
03949KAQV AQV20190317065511503/17/19 06:55:31  5-MIN KAQV 171255Z AUTO 00000KT 10SM CLR 04/03 A3032 10 92 -1300 000/00 RMK AO2 SLP270 T00390028
03949KAQV AQV20190317070010803/17/19 07:00:31  5-MIN KAQV 171300Z AUTO 00000KT 10SM CLR 04/03 A3032 10 89 -1200 000/00 RMK AO2 T00440028
03949KAQV AQV20190317070510803/17/19 07:05:31  5-MIN KAQV 171305Z AUTO 00000KT 10SM CLR 05/03 A3032 10 85 -1100 000/00 RMK AO2 T00500028
03949KAQV AQV20190317071010803/17/19 07:10:31  5-MIN KAQV 171310Z AUTO 00000KT 10SM CLR 05/03 A3032 10 85 -1100 000/00 RMK AO2 T00500028
03949KAQV AQV20190317071510803/17/19 07:15:31  5-MIN KAQV 171315Z AUTO VRB03KT 10SM CLR 06/02 A3032 10 79 -1000 VRB/03 RMK AO2 T00560022
03949KAQV AQV20190317072010803/17/19 07:20:31  5-MIN KAQV 171320Z AUTO 35003KT 10SM CLR 06/03 A3032 10 82 -1000 350/03 RMK AO2 T00560028
03949KAQV AQV20190317072510803/17/19 07:25:31  5-MIN KAQV 171325Z AUTO 35003KT 10SM CLR 06/02 A3032 10 76 -1000 350/03 RMK AO2 T00610022
03949KAQV AQV20190317073010703/17/19 07:30:31  5-MIN KAQV 171330Z AUTO 00000KT 10SM CLR 07/02 A3032 10 73 -900 000/00 RMK AO2 T00670022
03949KAQV AQV20190317073510703/17/19 07:35:31  5-MIN KAQV 171335Z AUTO 36003KT 10SM CLR 07/03 A3032 10 76 -900 360/03 RMK AO2 T00670028
03949KAQV AQV20190317074010603/17/19 07:40:31  5-MIN KAQV 171340Z AUTO 36003KT 10SM CLR 08/03 A3032 0 70 -800 360/03 RMK AO2 T00780028
03949KAQV AQV20190317074510603/17/19 07:45:31  5-MIN KAQV 171345Z AUTO VRB04KT 10SM CLR 08/02 A3033 0 65 -700 VRB/04 RMK AO2 T00830022
03949KAQV AQV20190317075011303/17/19 07:50:31  5-MIN KAQV 171350Z AUTO VRB03KT 10SM CLR 09/02 A3033 0 60 -600 VRB/03 RMK AO2 SLP273 T00890017
03949KAQV AQV20190317075511303/17/19 07:55:31  5-MIN KAQV 171355Z AUTO VRB04KT 10SM CLR 09/02 A3033 0 58 -600 VRB/04 RMK AO2 SLP273 T00940017
03949KAQV AQV20190317080010603/17/19 08:00:31  5-MIN KAQV 171400Z AUTO VRB05KT 10SM CLR 09/01 A3033 0 56 -600 VRB/05 RMK AO2 T00940011
03949KAQV AQV20190317080510603/17/19 08:05:31  5-MIN KAQV 171405Z AUTO 03005KT 10SM CLR 10/01 A3033 0 52 -500 020/05 RMK AO2 T01000006
03949KAQV AQV20190317081010603/17/19 08:10:31  5-MIN KAQV 171410Z AUTO 03005KT 10SM CLR 10/01 A3034 0 54 -500 020/05 RMK AO2 T01000011
03949KAQV AQV20190317081510603/17/19 08:15:31  5-MIN KAQV 171415Z AUTO 04006KT 10SM CLR 10/01 A3034 0 52 -500 030/06 RMK AO2 T01000006
03949KAQV AQV20190317082010603/17/19 08:20:31  5-MIN KAQV 171420Z AUTO 05005KT 10SM CLR 10/00 A3034 0 49 -500 050/05 RMK AO2 T01000000
03949KAQV AQV20190317082511103/17/19 08:25:31  5-MIN KAQV 171425Z AUTO 05006KT 10SM FEW002 10/00 A3034 -10 49 -500 040/06 RMK AO2 T01000000
03949KAQV AQV20190317083010803/17/19 08:30:31  5-MIN KAQV 171430Z AUTO 04006KT 10SM CLR 11/00 A3034 -10 48 -500 040/06 RMK AO2 T01060000
03949KAQV AQV20190317083510803/17/19 08:35:31  5-MIN KAQV 171435Z AUTO 04006KT 10SM CLR 11/00 A3034 -10 48 -500 040/06 RMK AO2 T01060000
03949KAQV AQV20190317084010803/17/19 08:40:31  5-MIN KAQV 171440Z AUTO 02006KT 10SM CLR 11/01 A3034 -10 48 -400 020/06 RMK AO2 T01110006
03949KAQV AQV20190317084510803/17/19 08:45:31  5-MIN KAQV 171445Z AUTO 03007KT 10SM CLR 12/01 A3034 -10 46 -300 030/07 RMK AO2 T01170006
03949KAQV AQV20190317085012103/17/19 08:50:31  5-MIN KAQV 171450Z AUTO VRB05KT 10SM CLR 12/00 A3034 -10 44 -300 VRB/05 RMK AO2 SLP275 T01170000 53009
03949KAQV AQV20190317085511903/17/19 08:55:31  5-MIN KAQV 171455Z AUTO VRB05KT 10SM CLR 12/01 A3034 0 44 -300 VRB/05 RMK AO2 SLP275 T01220006 53009
03949KAQV AQV20190317090010603/17/19 09:00:31  5-MIN KAQV 171500Z AUTO 04005KT 10SM CLR 13/01 A3034 0 43 -200 030/05 RMK AO2 T01280006
03949KAQV AQV20190317090510603/17/19 09:05:31  5-MIN KAQV 171505Z AUTO VRB05KT 10SM CLR 13/01 A3034 0 43 -200 VRB/05 RMK AO2 T01280006
03949KAQV AQV20190317091010803/17/19 09:10:31  5-MIN KAQV 171510Z AUTO VRB04KT 10SM CLR 13/01 A3034 -10 41 -100 VRB/04 RMK AO2 T01330006
03949KAQV AQV20190317091510803/17/19 09:15:31  5-MIN KAQV 171515Z AUTO VRB04KT 10SM CLR 13/00 A3034 -10 40 -100 VRB/04 RMK AO2 T01330000
03949KAQV AQV20190317092010803/17/19 09:20:31  5-MIN KAQV 171520Z AUTO VRB06KT 10SM CLR 13/00 A3034 -10 40 -100 VRB/06 RMK AO2 T01330000
03949KAQV AQV20190317092510803/17/19 09:25:31  5-MIN KAQV 171525Z AUTO VRB04KT 10SM CLR 14/00 A3035 -10 38 -100 VRB/04 RMK AO2 T01390000
03949KAQV AQV20190317093012503/17/19 09:30:31  5-MIN KAQV 171530Z AUTO 03007KT 350V060 10SM CLR 14/M01 A3034 -10 37 -100 020/07 350V060 RMK AO2 T01391006
03949KAQV AQV20190317093510903/17/19 09:35:31  5-MIN KAQV 171535Z AUTO VRB06KT 10SM CLR 13/M01 A3034 -10 36 -100 VRB/06 RMK AO2 T01331011
03949KAQV AQV20190317094010903/17/19 09:40:31  5-MIN KAQV 171540Z AUTO VRB06KT 10SM CLR 14/M02 A3034 -10 34 -100 VRB/06 RMK AO2 T01391017
03949KAQV AQV20190317094510603/17/19 09:45:31  5-MIN KAQV 171545Z AUTO 03005KT 10SM CLR 14/M01 A3034 -10 34 0 030/05 RMK AO2 T01441011
03949KAQV AQV20190317095011303/17/19 09:50:31  5-MIN KAQV 171550Z AUTO 03006KT 10SM CLR 14/M01 A3034 -10 34 0 020/06 RMK AO2 SLP275 T01441011
03949KAQV AQV20190317095511103/17/19 09:55:31  5-MIN KAQV 171555Z AUTO VRB05KT 10SM CLR 14/M01 A3034 0 34 0 VRB/05 RMK AO2 SLP274 T01441011
03949KAQV AQV20190317100010403/17/19 10:00:31  5-MIN KAQV 171600Z AUTO VRB04KT 10SM CLR 14/M01 A3034 0 34 0 VRB/04 RMK AO2 T01441011
03949KAQV AQV20190317100510403/17/19 10:05:31  5-MIN KAQV 171605Z AUTO VRB06KT 10SM CLR 15/M01 A3034 0 33 0 VRB/06 RMK AO2 T01501011
03949KAQV AQV20190317101012203/17/19 10:10:31  5-MIN KAQV 171610Z AUTO 02007KT 330V080 10SM CLR 15/M02 A3034 -10 31 0 020/07 330V080 RMK AO2 T01501017
03949KAQV AQV20190317101512203/17/19 10:15:31  5-MIN KAQV 171615Z AUTO 04007KT 010V080 10SM CLR 15/M02 A3034 -10 31 0 040/07 010V080 RMK AO2 T01501017
03949KAQV AQV20190317102012203/17/19 10:20:31  5-MIN KAQV 171620Z AUTO 04007KT 020V080 10SM CLR 15/M02 A3034 -10 31 0 040/07 020V080 RMK AO2 T01501017
03949KAQV AQV20190317102510603/17/19 10:25:31  5-MIN KAQV 171625Z AUTO 07007KT 10SM CLR 15/M02 A3034 -10 31 0 070/07 RMK AO2 T01501017
03949KAQV AQV20190317103012003/17/19 10:30:31  5-MIN KAQV 171630Z AUTO 01008KT 340V060 10SM CLR 15/M02 A3034 0 31 0 010/08 340V060 RMK AO2 T01501017
03949KAQV AQV20190317103510603/17/19 10:35:31  5-MIN KAQV 171635Z AUTO 03006KT 10SM CLR 16/M02 A3034 0 30 100 020/06 RMK AO2 T01561017
03949KAQV AQV20190317104012003/17/19 10:40:31  5-MIN KAQV 171640Z AUTO 03008KT 360V060 10SM CLR 15/M02 A3034 0 31 0 020/08 360V060 RMK AO2 T01501017
03949KAQV AQV20190317104510603/17/19 10:45:31  5-MIN KAQV 171645Z AUTO VRB06KT 10SM CLR 16/M02 A3034 0 30 100 VRB/06 RMK AO2 T01561017
03949KAQV AQV20190317105011303/17/19 10:50:31  5-MIN KAQV 171650Z AUTO VRB06KT 10SM CLR 16/M02 A3034 0 29 100 VRB/06 RMK AO2 SLP273 T01561022
03949KAQV AQV20190317105511303/17/19 10:55:31  5-MIN KAQV 171655Z AUTO VRB06KT 10SM CLR 16/M02 A3033 0 28 200 VRB/06 RMK AO2 SLP272 T01611022
03949KAQV AQV20190317110010603/17/19 11:00:31  5-MIN KAQV 171700Z AUTO 36008KT 10SM CLR 16/M03 A3033 0 27 200 360/08 RMK AO2 T01611028
03949KAQV AQV20190317110512203/17/19 11:05:31  5-MIN KAQV 171705Z AUTO 03007KT 350V060 10SM CLR 16/M03 A3033 0 27 200 020/07 350V060 RMK AO2 T01611028
03949KAQV AQV20190317111010603/17/19 11:10:31  5-MIN KAQV 171710Z AUTO 03008KT 10SM CLR 16/M03 A3033 0 27 200 030/08 RMK AO2 T01611028
03949KAQV AQV20190317111510603/17/19 11:15:31  5-MIN KAQV 171715Z AUTO VRB06KT 10SM CLR 16/M03 A3033 0 27 200 VRB/06 RMK AO2 T01611028
03949KAQV AQV20190317112010603/17/19 11:20:31  5-MIN KAQV 171720Z AUTO VRB04KT 10SM CLR 16/M03 A3033 0 27 200 VRB/04 RMK AO2 T01611028
03949KAQV AQV20190317112510703/17/19 11:25:31  5-MIN KAQV 171725Z AUTO VRB03KT 10SM CLR 16/M03 A3032 10 27 200 VRB/03 RMK AO2 T01611028
03949KAQV AQV20190317113009703/17/19 11:30:31  5-MIN KAQV 171730Z AUTO 10SM CLR 16/M03 A3032 10 27 200 M /M RMK AO2 T01611028
03949KAQV AQV20190317113510703/17/19 11:35:31  5-MIN KAQV 171735Z AUTO 06007KT 10SM CLR 16/M03 A3032 10 27 200 060/07 RMK AO2 T01611028
03949KAQV AQV20190317114010703/17/19 11:40:31  5-MIN KAQV 171740Z AUTO 01006KT 10SM CLR 17/M02 A3032 10 28 200 010/06 RMK AO2 T01671017
03949KAQV AQV20190317114512303/17/19 11:45:31  5-MIN KAQV 171745Z AUTO 04008KT 350V060 10SM CLR 17/M02 A3032 10 27 200 030/08 350V060 RMK AO2 T01671022
03949KAQV AQV20190317115013803/17/19 11:50:31  5-MIN KAQV 171750Z AUTO 02009G14KT 10SM CLR 17/M03 A3032 10 26 300 010/09G14 RMK AO2 SLP267 T01671028 10167 20028 51011
03949KAQV AQV20190317115513803/17/19 11:55:31  5-MIN KAQV 171755Z AUTO 04007G14KT 10SM CLR 16/M03 A3031 10 27 200 040/07G14 RMK AO2 SLP266 T01611028 10167 20028 51011
03949KAQV AQV20190317120010703/17/19 12:00:31  5-MIN KAQV 171800Z AUTO VRB05KT 10SM CLR 16/M03 A3031 20 26 200 VRB/05 RMK AO2 T01611033
03949KAQV AQV20190317120512303/17/19 12:05:31  5-MIN KAQV 171805Z AUTO 04007KT 360V070 10SM CLR 17/M02 A3031 20 27 300 030/07 360V070 RMK AO2 T01671022
03949KAQV AQV20190317121010703/17/19 12:10:31  5-MIN KAQV 171810Z AUTO 01008KT 10SM CLR 17/M02 A3030 20 27 300 010/08 RMK AO2 T01671022
03949KAQV AQV20190317121510703/17/19 12:15:31  5-MIN KAQV 171815Z AUTO 01003KT 10SM CLR 17/M02 A3030 30 28 300 010/03 RMK AO2 T01671017
03949KAQV AQV20190317122010703/17/19 12:20:31  5-MIN KAQV 171820Z AUTO 04004KT 10SM CLR 17/M02 A3030 30 27 300 040/04 RMK AO2 T01721017
03949KAQV AQV20190317122510703/17/19 12:25:31  5-MIN KAQV 171825Z AUTO 36006KT 10SM CLR 17/M02 A3030 30 27 300 360/06 RMK AO2 T01721017
03949KAQV AQV20190317123010703/17/19 12:30:31  5-MIN KAQV 171830Z AUTO 02010KT 10SM CLR 17/M02 A3030 30 27 300 020/10 RMK AO2 T01721017
03949KAQV AQV20190317123510703/17/19 12:35:31  5-MIN KAQV 171835Z AUTO VRB05KT 10SM CLR 17/M02 A3030 30 27 300 VRB/05 RMK AO2 T01721017
03949KAQV AQV20190317124010703/17/19 12:40:31  5-MIN KAQV 171840Z AUTO VRB04KT 10SM CLR 17/M02 A3029 30 28 300 VRB/04 RMK AO2 T01671017
03949KAQV AQV20190317124512303/17/19 12:45:31  5-MIN KAQV 171845Z AUTO 01007KT 340V040 10SM CLR 18/M01 A3029 30 27 400 010/07 340V040 RMK AO2 T01781011
03949KAQV AQV20190317125011403/17/19 12:50:31  5-MIN KAQV 171850Z AUTO VRB04KT 10SM CLR 17/M01 A3029 40 28 300 VRB/04 RMK AO2 SLP257 T01721011
03949KAQV AQV20190317125511403/17/19 12:55:31  5-MIN KAQV 171855Z AUTO VRB05KT 10SM CLR 17/M01 A3028 40 28 400 VRB/05 RMK AO2 SLP256 T01721011
03949KAQV AQV20190317130010703/17/19 13:00:31  5-MIN KAQV 171900Z AUTO 03009KT 10SM CLR 17/M02 A3028 40 27 400 030/09 RMK AO2 T01721017
03949KAQV AQV20190317130510703/17/19 13:05:31  5-MIN KAQV 171905Z AUTO 01003KT 10SM CLR 17/M01 A3028 50 28 400 360/03 RMK AO2 T01721011
03949KAQV AQV20190317131010703/17/19 13:10:31  5-MIN KAQV 171910Z AUTO 02006KT 10SM CLR 17/M01 A3027 50 28 400 010/06 RMK AO2 T01721011
03949KAQV AQV20190317131510703/17/19 13:15:31  5-MIN KAQV 171915Z AUTO VRB05KT 10SM CLR 18/M01 A3027 50 27 500 VRB/05 RMK AO2 T01831006
03949KAQV AQV20190317132010703/17/19 13:20:31  5-MIN KAQV 171920Z AUTO 35007KT 10SM CLR 18/M01 A3027 60 27 400 350/07 RMK AO2 T01781011
03949KAQV AQV20190317132510703/17/19 13:25:31  5-MIN KAQV 171925Z AUTO 03007KT 10SM CLR 18/M01 A3027 60 27 400 020/07 RMK AO2 T01781011
03949KAQV AQV20190317133010703/17/19 13:30:31  5-MIN KAQV 171930Z AUTO 01007KT 10SM CLR 18/M01 A3026 60 26 500 360/07 RMK AO2 T01831011
03949KAQV AQV20190317133509703/17/19 13:35:31  5-MIN KAQV 171935Z AUTO 10SM CLR 18/M02 A3026 60 26 400 M /M RMK AO2 T01781017
03949KAQV AQV20190317134010703/17/19 13:40:31  5-MIN KAQV 171940Z AUTO VRB05KT 10SM CLR 18/M02 A3026 60 25 400 VRB/05 RMK AO2 T01781022
03949KAQV AQV20190317134510703/17/19 13:45:31  5-MIN KAQV 171945Z AUTO VRB06KT 10SM CLR 18/M02 A3025 70 26 500 VRB/06 RMK AO2 T01781017
03949KAQV AQV20190317135011403/17/19 13:50:31  5-MIN KAQV 171950Z AUTO 04007KT 10SM CLR 18/M02 A3025 80 25 500 030/07 RMK AO2 SLP243 T01781022
03949KAQV AQV20190317135511403/17/19 13:55:31  5-MIN KAQV 171955Z AUTO 04008KT 10SM CLR 18/M02 A3025 80 25 500 040/08 RMK AO2 SLP243 T01831017
03949KAQV AQV20190317140010703/17/19 14:00:31  5-MIN KAQV 172000Z AUTO VRB04KT 10SM CLR 18/M02 A3024 80 25 500 VRB/04 RMK AO2 T01831017
03949KAQV AQV20190317140510703/17/19 14:05:31  5-MIN KAQV 172005Z AUTO VRB04KT 10SM CLR 18/M02 A3024 80 25 500 VRB/04 RMK AO2 T01831017
03949KAQV AQV20190317141009703/17/19 14:10:31  5-MIN KAQV 172010Z AUTO 10SM CLR 18/M02 A3024 90 24 500 M /M RMK AO2 T01831022
03949KAQV AQV20190317141510703/17/19 14:15:31  5-MIN KAQV 172015Z AUTO VRB05KT 10SM CLR 18/M02 A3023 90 25 500 VRB/05 RMK AO2 T01831017
03949KAQV AQV20190317142010703/17/19 14:20:31  5-MIN KAQV 172020Z AUTO VRB05KT 10SM CLR 19/M02 A3023 90 24 600 VRB/05 RMK AO2 T01891017
03949KAQV AQV20190317142510703/17/19 14:25:31  5-MIN KAQV 172025Z AUTO 03007KT 10SM CLR 19/M01 A3023 90 25 700 030/07 RMK AO2 T01941011
03949KAQV AQV20190317143010703/17/19 14:30:31  5-MIN KAQV 172030Z AUTO VRB06KT 10SM CLR 19/M01 A3023 90 25 700 VRB/06 RMK AO2 T01941011
03949KAQV AQV20190317143510803/17/19 14:35:31  5-MIN KAQV 172035Z AUTO 04007KT 10SM CLR 19/M01 A3022 100 25 700 030/07 RMK AO2 T01941011
03949KAQV AQV20190317144010803/17/19 14:40:31  5-MIN KAQV 172040Z AUTO 08005KT 10SM CLR 19/M02 A3022 100 24 600 070/05 RMK AO2 T01891017
03949KAQV AQV20190317144510803/17/19 14:45:31  5-MIN KAQV 172045Z AUTO 07007KT 10SM CLR 19/M01 A3022 100 25 700 070/07 RMK AO2 T01941011
03949KAQV AQV20190317145012103/17/19 14:50:31  5-MIN KAQV 172050Z AUTO 05008KT 10SM CLR 19/M02 A3022 100 24 700 040/08 RMK AO2 SLP234 T01941017 58008
03949KAQV AQV20190317145512103/17/19 14:55:31  5-MIN KAQV 172055Z AUTO 06007KT 10SM CLR 19/M02 A3022 100 24 600 060/07 RMK AO2 SLP235 T01891017 58008
03949KAQV AQV20190317150010803/17/19 15:00:31  5-MIN KAQV 172100Z AUTO VRB06KT 10SM CLR 19/M02 A3022 100 24 600 VRB/06 RMK AO2 T01891017
03949KAQV AQV20190317150510803/17/19 15:05:31  5-MIN KAQV 172105Z AUTO VRB04KT 10SM CLR 18/M02 A3022 100 25 600 VRB/04 RMK AO2 T01831017
03949KAQV AQV20190317151010803/17/19 15:10:31  5-MIN KAQV 172110Z AUTO 05004KT 10SM CLR 19/M02 A3022 100 24 600 050/04 RMK AO2 T01891017
03949KAQV AQV20190317151510803/17/19 15:15:31  5-MIN KAQV 172115Z AUTO VRB05KT 10SM CLR 19/M02 A3021 100 24 700 VRB/05 RMK AO2 T01941017
03949KAQV AQV20190317152010803/17/19 15:20:31  5-MIN KAQV 172120Z AUTO 01007KT 10SM CLR 19/M02 A3022 100 24 700 010/07 RMK AO2 T01941017
03949KAQV AQV20190317152510803/17/19 15:25:31  5-MIN KAQV 172125Z AUTO VRB03KT 10SM CLR 19/M02 A3022 100 24 600 VRB/03 RMK AO2 T01891017
03949KAQV AQV20190317153009803/17/19 15:30:31  5-MIN KAQV 172130Z AUTO 10SM CLR 19/M02 A3021 110 24 600 M /M RMK AO2 T01891017
03949KAQV AQV20190317153510803/17/19 15:35:31  5-MIN KAQV 172135Z AUTO VRB04KT 10SM CLR 19/M02 A3021 110 24 700 VRB/04 RMK AO2 T01941017
03949KAQV AQV20190317154010803/17/19 15:40:31  5-MIN KAQV 172140Z AUTO VRB03KT 10SM CLR 19/M02 A3021 110 24 600 VRB/03 RMK AO2 T01891017
03949KAQV AQV20190317154510803/17/19 15:45:31  5-MIN KAQV 172145Z AUTO 05005KT 10SM CLR 19/M02 A3021 110 23 600 040/05 RMK AO2 T01891022
03949KAQV AQV20190317155012103/17/19 15:50:31  5-MIN KAQV 172150Z AUTO 02009G14KT 10SM CLR 19/M02 A3021 110 23 600 020/09G14 RMK AO2 SLP231 T01891022
03949KAQV AQV20190317155512103/17/19 15:55:31  5-MIN KAQV 172155Z AUTO 02007G14KT 10SM CLR 19/M02 A3021 110 23 600 020/07G14 RMK AO2 SLP231 T01891022
03949KAQV AQV20190317160010803/17/19 16:00:31  5-MIN KAQV 172200Z AUTO 03005KT 10SM CLR 19/M02 A3021 110 23 600 020/05 RMK AO2 T01891022
03949KAQV AQV20190317160510803/17/19 16:05:31  5-MIN KAQV 172205Z AUTO 00000KT 10SM CLR 19/M02 A3021 110 23 700 000/00 RMK AO2 T01941022
03949KAQV AQV20190317161010803/17/19 16:10:31  5-MIN KAQV 172210Z AUTO 02006KT 10SM CLR 20/M02 A3021 110 23 800 020/06 RMK AO2 T02001017
03949KAQV AQV20190317161510803/17/19 16:15:31  5-MIN KAQV 172215Z AUTO 01005KT 10SM CLR 19/M02 A3021 110 23 700 360/05 RMK AO2 T01941022
03949KAQV AQV20190317162010803/17/19 16:20:31  5-MIN KAQV 172220Z AUTO 02007KT 10SM CLR 19/M02 A3021 110 23 600 020/07 RMK AO2 T01891022
03949KAQV AQV20190317162510803/17/19 16:25:31  5-MIN KAQV 172225Z AUTO 02008KT 10SM CLR 19/M02 A3021 110 23 600 010/08 RMK AO2 T01891022
03949KAQV AQV20190317163010803/17/19 16:30:31  5-MIN KAQV 172230Z AUTO 01006KT 10SM CLR 18/M03 A3021 110 23 600 360/06 RMK AO2 T01831028
03949KAQV AQV20190317163510803/17/19 16:35:31  5-MIN KAQV 172235Z AUTO 02004KT 10SM CLR 18/M02 A3021 110 24 600 020/04 RMK AO2 T01831022
03949KAQV AQV20190317164010803/17/19 16:40:31  5-MIN KAQV 172240Z AUTO 01005KT 10SM CLR 19/M02 A3021 110 24 600 360/05 RMK AO2 T01891017
03949KAQV AQV20190317164510803/17/19 16:45:31  5-MIN KAQV 172245Z AUTO VRB06KT 10SM CLR 19/M02 A3021 110 23 600 VRB/06 RMK AO2 T01891022
03949KAQV AQV20190317165011503/17/19 16:50:31  5-MIN KAQV 172250Z AUTO 05004KT 10SM CLR 19/M02 A3021 110 23 600 050/04 RMK AO2 SLP231 T01891022
03949KAQV AQV20190317165511503/17/19 16:55:31  5-MIN KAQV 172255Z AUTO 02005KT 10SM CLR 19/M02 A3021 110 24 600 020/05 RMK AO2 SLP231 T01891017
03949KAQV AQV20190317170010803/17/19 17:00:31  5-MIN KAQV 172300Z AUTO VRB03KT 10SM CLR 19/M02 A3021 110 23 600 VRB/03 RMK AO2 T01891022
03949KAQV AQV20190317170510803/17/19 17:05:31  5-MIN KAQV 172305Z AUTO VRB03KT 10SM CLR 19/M02 A3021 110 23 600 VRB/03 RMK AO2 T01891022
03949KAQV AQV20190317171010803/17/19 17:10:31  5-MIN KAQV 172310Z AUTO 04005KT 10SM CLR 19/M02 A3021 110 24 600 040/05 RMK AO2 T01891017
03949KAQV AQV20190317171510803/17/19 17:15:31  5-MIN KAQV 172315Z AUTO 02005KT 10SM CLR 18/M03 A3021 110 23 600 020/05 RMK AO2 T01831028
03949KAQV AQV20190317172010803/17/19 17:20:31  5-MIN KAQV 172320Z AUTO 00000KT 10SM CLR 18/M02 A3022 100 25 600 000/00 RMK AO2 T01831017
03949KAQV AQV20190317172510803/17/19 17:25:31  5-MIN KAQV 172325Z AUTO VRB03KT 10SM CLR 18/M02 A3022 100 24 600 VRB/03 RMK AO2 T01831022
03949KAQV AQV20190317173010803/17/19 17:30:31  5-MIN KAQV 172330Z AUTO 06005KT 10SM CLR 18/M02 A3022 100 24 600 060/05 RMK AO2 T01831022
03949KAQV AQV20190317173510803/17/19 17:35:31  5-MIN KAQV 172335Z AUTO VRB04KT 10SM CLR 18/M03 A3022 100 23 600 VRB/04 RMK AO2 T01831028
03949KAQV AQV20190317174010803/17/19 17:40:31  5-MIN KAQV 172340Z AUTO 03005KT 10SM CLR 18/M03 A3022 100 24 500 020/05 RMK AO2 T01781028
03949KAQV AQV20190317174510803/17/19 17:45:31  5-MIN KAQV 172345Z AUTO 05005KT 10SM CLR 18/M03 A3022 100 24 500 040/05 RMK AO2 T01781028
03949KAQV AQV20190317175013303/17/19 17:50:31  5-MIN KAQV 172350Z AUTO 00000KT 10SM CLR 17/M03 A3023 100 25 400 000/00 RMK AO2 SLP236 T01721028 10200 20161 56030
03949KAQV AQV20190317175513203/17/19 17:55:31  5-MIN KAQV 172355Z AUTO 00000KT 10SM CLR 17/M02 A3023 90 26 400 000/00 RMK AO2 SLP236 T01721022 10200 20161 56030
03949KAQV AQV20190317180010703/17/19 18:00:31  5-MIN KAQV 180000Z AUTO VRB03KT 10SM CLR 17/M02 A3023 90 27 400 VRB/03 RMK AO2 T01671022
03949KAQV AQV20190317180510703/17/19 18:05:31  5-MIN KAQV 180005Z AUTO 00000KT 10SM CLR 16/M01 A3023 90 33 200 000/00 RMK AO2 T01561006
03949KAQV AQV20190317181010703/17/19 18:10:31  5-MIN KAQV 180010Z AUTO 00000KT 10SM CLR 15/M01 A3023 90 34 200 000/00 RMK AO2 T01501006
03949KAQV AQV20190317181510403/17/19 18:15:31  5-MIN KAQV 180015Z AUTO 00000KT 10SM CLR 14/00 A3023 90 38 0 000/00 RMK AO2 T01390000
03949KAQV AQV20190317182010403/17/19 18:20:31  5-MIN KAQV 180020Z AUTO 00000KT 10SM CLR 13/02 A3023 90 46 0 000/00 RMK AO2 T01330022
03949KAQV AQV20190317182510703/17/19 18:25:31  5-MIN KAQV 180025Z AUTO 00000KT 10SM CLR 13/02 A3023 90 48 -100 000/00 RMK AO2 T01280022
03949KAQV AQV20190317183010703/17/19 18:30:31  5-MIN KAQV 180030Z AUTO 00000KT 10SM CLR 13/02 A3023 90 46 -100 000/00 RMK AO2 T01280017
03949KAQV AQV20190317183510703/17/19 18:35:31  5-MIN KAQV 180035Z AUTO 00000KT 10SM CLR 12/01 A3024 90 44 -100 000/00 RMK AO2 T01220006
03949KAQV AQV20190317184010703/17/19 18:40:31  5-MIN KAQV 180040Z AUTO 00000KT 10SM CLR 12/01 A3024 90 46 -200 000/00 RMK AO2 T01170006
03949KAQV AQV20190317184510703/17/19 18:45:31  5-MIN KAQV 180045Z AUTO 00000KT 10SM CLR 12/01 A3024 90 46 -200 000/00 RMK AO2 T01170006
03949KAQV AQV20190317185011403/17/19 18:50:31  5-MIN KAQV 180050Z AUTO 00000KT 10SM CLR 11/02 A3024 80 54 -300 000/00 RMK AO2 SLP242 T01110022
03949KAQV AQV20190317185511403/17/19 18:55:31  5-MIN KAQV 180055Z AUTO 00000KT 10SM CLR 11/02 A3024 80 54 -300 000/00 RMK AO2 SLP242 T01110022
03949KAQV AQV20190317190010703/17/19 19:00:31  5-MIN KAQV 180100Z AUTO 00000KT 10SM CLR 11/02 A3024 80 56 -300 000/00 RMK AO2 T01060022
03949KAQV AQV20190317190510703/17/19 19:05:31  5-MIN KAQV 180105Z AUTO 00000KT 10SM CLR 11/03 A3024 80 58 -300 000/00 RMK AO2 T01060028
03949KAQV AQV20190317191010703/17/19 19:10:31  5-MIN KAQV 180110Z AUTO 00000KT 10SM CLR 10/03 A3024 80 60 -400 000/00 RMK AO2 T01000028
03949KAQV AQV20190317191510703/17/19 19:15:31  5-MIN KAQV 180115Z AUTO 00000KT 10SM CLR 10/02 A3025 80 56 -400 000/00 RMK AO2 T01000017
03949KAQV AQV20190317191513903/17/19 19:15:31  5-MIN KAQV 180115Z AUTO 00000KT 10SM CLR 10/02 A3025 80 56 -400 000/00 RMK AO2 T0100001763 -600 000/00 RMK AO2 T00830017
03949KAQV AQV20190317192010703/17/19 19:20:31  5-MIN KAQV 180120Z AUTO 00000KT 10SM CLR 09/01 A3024 80 56 -500 000/00 RMK AO2 T00940011
03949KAQV AQV20190317192510703/17/19 19:25:31  5-MIN KAQV 180125Z AUTO 00000KT 10SM CLR 09/02 A3025 80 58 -500 000/00 RMK AO2 T00940017
03949KAQV AQV20190317193010703/17/19 19:30:31  5-MIN KAQV 180130Z AUTO 00000KT 10SM CLR 09/01 A3024 80 56 -500 000/00 RMK AO2 T00940011
03949KAQV AQV20190317193510703/17/19 19:35:31  5-MIN KAQV 180135Z AUTO 00000KT 10SM CLR 09/01 A3025 80 58 -500 000/00 RMK AO2 T00890011
03949KAQV AQV20190317194010703/17/19 19:40:31  5-MIN KAQV 180140Z AUTO 00000KT 10SM CLR 09/02 A3025 70 60 -600 000/00 RMK AO2 T00890017
03949KAQV AQV20190317194510703/17/19 19:45:31  5-MIN KAQV 180145Z AUTO 00000KT 10SM CLR 09/01 A3025 70 56 -600 000/00 RMK AO2 T00890006
03949KAQV AQV20190317195011403/17/19 19:50:31  5-MIN KAQV 180150Z AUTO 00000KT 10SM CLR 08/01 A3026 70 60 -600 000/00 RMK AO2 SLP247 T00830011
03949KAQV AQV20190317195511403/17/19 19:55:31  5-MIN KAQV 180155Z AUTO 00000KT 10SM CLR 08/02 A3026 70 63 -600 000/00 RMK AO2 SLP247 T00830017
03949KAQV AQV20190317200010703/17/19 20:00:31  5-MIN KAQV 180200Z AUTO 00000KT 10SM CLR 08/01 A3026 70 60 -600 000/00 RMK AO2 T00830011
03949KAQV AQV20190317200510703/17/19 20:05:31  5-MIN KAQV 180205Z AUTO 00000KT 10SM CLR 08/02 A3026 70 63 -600 000/00 RMK AO2 T00830017
03949KAQV AQV20190317201010703/17/19 20:10:31  5-MIN KAQV 180210Z AUTO 00000KT 10SM CLR 08/02 A3026 70 65 -700 000/00 RMK AO2 T00780017
03949KAQV AQV20190317201510703/17/19 20:15:31  5-MIN KAQV 180215Z AUTO 00000KT 10SM CLR 08/02 A3026 70 65 -700 000/00 RMK AO2 T00780017
03949KAQV AQV20190317202010703/17/19 20:20:31  5-MIN KAQV 180220Z AUTO 00000KT 10SM CLR 08/01 A3026 60 62 -700 000/00 RMK AO2 T00780011
03949KAQV AQV20190317202510703/17/19 20:25:31  5-MIN KAQV 180225Z AUTO 00000KT 10SM CLR 08/02 A3026 60 68 -700 000/00 RMK AO2 T00780022
03949KAQV AQV20190317203010703/17/19 20:30:31  5-MIN KAQV 180230Z AUTO 00000KT 10SM CLR 07/02 A3026 60 68 -800 000/00 RMK AO2 T00720017
03949KAQV AQV20190317203510703/17/19 20:35:31  5-MIN KAQV 180235Z AUTO 00000KT 10SM CLR 07/02 A3026 70 70 -800 000/00 RMK AO2 T00720022
03949KAQV AQV20190317204010703/17/19 20:40:31  5-MIN KAQV 180240Z AUTO 00000KT 10SM CLR 07/02 A3026 60 70 -800 000/00 RMK AO2 T00720022
03949KAQV AQV20190317204510703/17/19 20:45:31  5-MIN KAQV 180245Z AUTO 00000KT 10SM CLR 07/02 A3026 60 68 -800 000/00 RMK AO2 T00720017
03949KAQV AQV20190317205012003/17/19 20:50:31  5-MIN KAQV 180250Z AUTO 00000KT 10SM CLR 07/02 A3026 60 70 -800 000/00 RMK AO2 SLP248 T00720022 53001
03949KAQV AQV20190317205512003/17/19 20:55:31  5-MIN KAQV 180255Z AUTO 00000KT 10SM CLR 07/03 A3026 60 73 -800 000/00 RMK AO2 SLP247 T00720028 53001
03949KAQV AQV20190317210010703/17/19 21:00:31  5-MIN KAQV 180300Z AUTO 00000KT 10SM CLR 07/03 A3026 60 73 -800 000/00 RMK AO2 T00720028
03949KAQV AQV20190317210510703/17/19 21:05:31  5-MIN KAQV 180305Z AUTO 00000KT 10SM CLR 07/03 A3027 60 73 -800 000/00 RMK AO2 T00720028
03949KAQV AQV20190317211010703/17/19 21:10:31  5-MIN KAQV 180310Z AUTO 00000KT 10SM CLR 07/03 A3027 60 73 -800 000/00 RMK AO2 T00720028
03949KAQV AQV20190317211510703/17/19 21:15:31  5-MIN KAQV 180315Z AUTO 00000KT 10SM CLR 07/03 A3027 60 73 -800 000/00 RMK AO2 T00720028
03949KAQV AQV20190317212010703/17/19 21:20:31  5-MIN KAQV 180320Z AUTO 00000KT 10SM CLR 07/03 A3027 60 79 -800 000/00 RMK AO2 T00670033
03949KAQV AQV20190317212510703/17/19 21:25:31  5-MIN KAQV 180325Z AUTO 00000KT 10SM CLR 07/03 A3027 60 76 -800 000/00 RMK AO2 T00670028
03949KAQV AQV20190317213010703/17/19 21:30:31  5-MIN KAQV 180330Z AUTO 00000KT 10SM CLR 07/03 A3027 60 76 -800 000/00 RMK AO2 T00670028
03949KAQV AQV20190317213510703/17/19 21:35:31  5-MIN KAQV 180335Z AUTO 00000KT 10SM CLR 07/03 A3027 50 79 -800 000/00 RMK AO2 T00670033
03949KAQV AQV20190317214010703/17/19 21:40:31  5-MIN KAQV 180340Z AUTO 00000KT 10SM CLR 07/03 A3027 50 76 -800 000/00 RMK AO2 T00670028
03949KAQV AQV20190317214510703/17/19 21:45:31  5-MIN KAQV 180345Z AUTO 00000KT 10SM CLR 07/02 A3027 50 73 -800 000/00 RMK AO2 T00670022
03949KAQV AQV20190317215011403/17/19 21:50:31  5-MIN KAQV 180350Z AUTO 00000KT 10SM CLR 07/02 A3027 60 73 -800 000/00 RMK AO2 SLP250 T00670022
03949KAQV AQV20190317215511403/17/19 21:55:31  5-MIN KAQV 180355Z AUTO 00000KT 10SM CLR 07/03 A3027 60 76 -800 000/00 RMK AO2 SLP250 T00670028
03949KAQV AQV20190317220010703/17/19 22:00:31  5-MIN KAQV 180400Z AUTO 00000KT 10SM CLR 07/03 A3027 60 76 -800 000/00 RMK AO2 T00670028
03949KAQV AQV20190317220510703/17/19 22:05:31  5-MIN KAQV 180405Z AUTO 00000KT 10SM CLR 07/03 A3027 50 76 -800 000/00 RMK AO2 T00670028
03949KAQV AQV20190317221010703/17/19 22:10:31  5-MIN KAQV 180410Z AUTO 00000KT 10SM CLR 07/02 A3027 50 73 -800 000/00 RMK AO2 T00670022
03949KAQV AQV20190317221510703/17/19 22:15:31  5-MIN KAQV 180415Z AUTO 00000KT 10SM CLR 07/03 A3027 50 76 -800 000/00 RMK AO2 T00670028
03949KAQV AQV20190317222010703/17/19 22:20:31  5-MIN KAQV 180420Z AUTO 00000KT 10SM CLR 07/03 A3027 50 76 -800 000/00 RMK AO2 T00670028
03949KAQV AQV20190317222510703/17/19 22:25:31  5-MIN KAQV 180425Z AUTO 00000KT 10SM CLR 07/02 A3027 50 73 -900 000/00 RMK AO2 T00670022
03949KAQV AQV20190317223010703/17/19 22:30:31  5-MIN KAQV 180430Z AUTO 00000KT 10SM CLR 07/02 A3027 50 73 -900 000/00 RMK AO2 T00670022
03949KAQV AQV20190317223510703/17/19 22:35:31  5-MIN KAQV 180435Z AUTO 00000KT 10SM CLR 07/03 A3027 50 76 -900 000/00 RMK AO2 T00670028
03949KAQV AQV20190317224010703/17/19 22:40:31  5-MIN KAQV 180440Z AUTO 00000KT 10SM CLR 07/03 A3027 50 76 -800 000/00 RMK AO2 T00670028
03949KAQV AQV20190317224510703/17/19 22:45:31  5-MIN KAQV 180445Z AUTO 00000KT 10SM CLR 06/03 A3027 50 79 -900 000/00 RMK AO2 T00610028
03949KAQV AQV20190317225011403/17/19 22:50:31  5-MIN KAQV 180450Z AUTO 00000KT 10SM CLR 06/03 A3027 50 79 -900 000/00 RMK AO2 SLP251 T00610028
03949KAQV AQV20190317225511403/17/19 22:55:31  5-MIN KAQV 180455Z AUTO 00000KT 10SM CLR 06/03 A3027 50 79 -900 000/00 RMK AO2 SLP251 T00610028
03949KAQV AQV20190317230010703/17/19 23:00:31  5-MIN KAQV 180500Z AUTO 00000KT 10SM CLR 06/03 A3027 50 79 -900 000/00 RMK AO2 T00610028
03949KAQV AQV20190317230510803/17/19 23:05:31  5-MIN KAQV 180505Z AUTO 00000KT 10SM CLR 06/03 A3027 50 85 -1000 000/00 RMK AO2 T00560033
03949KAQV AQV20190317231010803/17/19 23:10:31  5-MIN KAQV 180510Z AUTO 00000KT 10SM CLR 06/03 A3027 60 85 -1000 000/00 RMK AO2 T00560033
03949KAQV AQV20190317231510803/17/19 23:15:31  5-MIN KAQV 180515Z AUTO 00000KT 10SM CLR 06/03 A3027 60 85 -1000 000/00 RMK AO2 T00560033
03949KAQV AQV20190317232010803/17/19 23:20:31  5-MIN KAQV 180520Z AUTO 00000KT 10SM CLR 06/03 A3027 60 85 -1000 000/00 RMK AO2 T00560033
03949KAQV AQV20190317232510803/17/19 23:25:31  5-MIN KAQV 180525Z AUTO 00000KT 10SM CLR 06/03 A3027 60 85 -1000 000/00 RMK AO2 T00560033
03949KAQV AQV20190317233010803/17/19 23:30:31  5-MIN KAQV 180530Z AUTO 00000KT 10SM CLR 06/03 A3027 60 82 -1000 000/00 RMK AO2 T00560028
03949KAQV AQV20190317233510803/17/19 23:35:31  5-MIN KAQV 180535Z AUTO 00000KT 10SM CLR 06/03 A3027 60 85 -1000 000/00 RMK AO2 T00560033
03949KAQV AQV20190317234010803/17/19 23:40:31  5-MIN KAQV 180540Z AUTO 00000KT 10SM CLR 06/03 A3027 60 85 -1000 000/00 RMK AO2 T00560033
03949KAQV AQV20190317234510803/17/19 23:45:31  5-MIN KAQV 180545Z AUTO 00000KT 10SM CLR 06/03 A3027 60 85 -1000 000/00 RMK AO2 T00560033
03949KAQV AQV20190317235014303/17/19 23:50:31  5-MIN KAQV 180550Z AUTO 00000KT 10SM CLR 06/03 A3026 60 85 -1000 000/00 RMK AO2 SLP249 T00560033 10167 20056 402000028 51011
03949KAQV AQV20190317235514303/17/19 23:55:31  5-MIN KAQV 180555Z AUTO 00000KT 10SM CLR 06/03 A3027 60 85 -1000 000/00 RMK AO2 SLP249 T00560033 10167 20056 402000028 51011
03949KAQV AQV20190318000010803/18/19 00:00:31  5-MIN KAQV 180600Z AUTO 00000KT 10SM CLR 06/03 A3027 60 85 -1000 000/00 RMK AO2 T00560033
03949KAQV AQV20190318000510803/18/19 00:05:31  5-MIN KAQV 180605Z AUTO 00000KT 10SM CLR 06/03 A3027 60 85 -1000 000/00 RMK AO2 T00560033
03949KAQV AQV20190318001010803/18/19 00:10:31  5-MIN KAQV 180610Z AUTO 00000KT 10SM CLR 06/03 A3026 60 82 -1000 000/00 RMK AO2 T00560028
03949KAQV AQV20190318001516803/18/19 00:15:31  5-MIN KAQV 180615Z AUTO 00000KT 10SM CLR 06/03 A3026 60 82 -1000 000/00 RM1240Z AUTO 00000KT 7SM CLR 04/03 A3027 50 92 -1200 000/00 RMK AO2 T00390028
03949KAQV AQV20190318061511003/18/19 06:15:31  5-MIN KAQV 181215Z AUTO 00000KT 4SM BR CLR 03/02 A3027 50 92 -1300 000/00 RMK AO2 T00330022
03949KAQV AQV20190318062011003/18/19 06:20:31  5-MIN KAQV 181220Z AUTO 00000KT 5SM BR CLR 03/02 A3027 50 92 -1300 000/00 RMK AO2 T00330022
03949KAQV AQV20190318062511003/18/19 06:25:31  5-MIN KAQV 181225Z AUTO 00000KT 5SM BR CLR 03/02 A3027 50 92 -1300 000/00 RMK AO2 T00330022
03949KAQV AQV20190318063011003/18/19 06:30:31  5-MIN KAQV 181230Z AUTO 00000KT 5SM BR CLR 03/02 A3027 50 92 -1300 000/00 RMK AO2 T00330022
03949KAQV AQV20190318063511003/18/19 06:35:31  5-MIN KAQV 181235Z AUTO 00000KT 6SM BR CLR 03/02 A3027 50 92 -1300 000/00 RMK AO2 T00330022
03949KAQV AQV20190318064010703/18/19 06:40:31  5-MIN KAQV 181240Z AUTO 00000KT 7SM CLR 04/03 A3027 50 92 -1200 000/00 RMK AO2 T00390028
03949KAQV AQV20190318064510703/18/19 06:45:31  5-MIN KAQV 181245Z AUTO 00000KT 9SM CLR 04/03 A3028 50 92 -1200 000/00 RMK AO2 T00390028
03949KAQV AQV20190318065011503/18/19 06:50:31  5-MIN KAQV 181250Z AUTO 00000KT 10SM CLR 04/03 A3028 40 92 -1200 000/00 RMK AO2 SLP255 T00390028
03949KAQV AQV20190318065511503/18/19 06:55:31  5-MIN KAQV 181255Z AUTO 00000KT 10SM CLR 04/03 A3028 50 92 -1200 000/00 RMK AO2 SLP255 T00390028
03949KAQV AQV20190318070010803/18/19 07:00:31  5-MIN KAQV 181300Z AUTO 00000KT 10SM CLR 04/03 A3028 50 92 -1200 000/00 RMK AO2 T00390028
03949KAQV AQV20190318070510803/18/19 07:05:31  5-MIN KAQV 181305Z AUTO 00000KT 10SM CLR 04/03 A3028 50 89 -1100 000/00 RMK AO2 T00440028
03949KAQV AQV20190318071010803/18/19 07:10:31  5-MIN KAQV 181310Z AUTO 00000KT 10SM CLR 04/03 A3028 50 92 -1100 000/00 RMK AO2 T00440033
03949KAQV AQV20190318071510803/18/19 07:15:31  5-MIN KAQV 181315Z AUTO 00000KT 10SM CLR 05/03 A3028 50 89 -1100 000/00 RMK AO2 T00500033
03949KAQV AQV20190318072010803/18/19 07:20:31  5-MIN KAQV 181320Z AUTO 00000KT 10SM CLR 06/03 A3028 40 85 -1000 000/00 RMK AO2 T00560033
03949KAQV AQV20190318072510703/18/19 07:25:31  5-MIN KAQV 181325Z AUTO 00000KT 10SM CLR 06/04 A3028 40 86 -900 000/00 RMK AO2 T00610039
03949KAQV AQV20190318073010703/18/19 07:30:31  5-MIN KAQV 181330Z AUTO 00000KT 10SM CLR 06/04 A3028 40 89 -900 000/00 RMK AO2 T00610044
03949KAQV AQV20190318073510703/18/19 07:35:31  5-MIN KAQV 181335Z AUTO 00000KT 10SM CLR 07/04 A3028 40 82 -800 000/00 RMK AO2 T00720044
03949KAQV AQV20190318074010703/18/19 07:40:31  5-MIN KAQV 181340Z AUTO 00000KT 10SM CLR 08/05 A3028 40 82 -700 000/00 RMK AO2 T00780050
03949KAQV AQV20190318074510603/18/19 07:45:31  5-MIN KAQV 181345Z AUTO 00000KT 8SM CLR 08/04 A3029 40 76 -700 000/00 RMK AO2 T00830044
03949KAQV AQV20190318075011303/18/19 07:50:31  5-MIN KAQV 181350Z AUTO 00000KT 8SM CLR 09/06 A3029 40 79 -600 000/00 RMK AO2 SLP259 T00890056
03949KAQV AQV20190318075511303/18/19 07:55:31  5-MIN KAQV 181355Z AUTO 00000KT 7SM CLR 09/06 A3029 30 76 -500 000/00 RMK AO2 SLP260 T00940056
03949KAQV AQV20190318080010603/18/19 08:00:31  5-MIN KAQV 181400Z AUTO 00000KT 7SM CLR 10/06 A3030 30 74 -500 000/00 RMK AO2 T01000056
03949KAQV AQV20190318080510603/18/19 08:05:31  5-MIN KAQV 181405Z AUTO 00000KT 9SM CLR 11/06 A3030 30 74 -400 000/00 RMK AO2 T01060061
03949KAQV AQV20190318081010703/18/19 08:10:31  5-MIN KAQV 181410Z AUTO 00000KT 10SM CLR 12/06 A3030 30 66 -300 000/00 RMK AO2 T01170056
03949KAQV AQV20190318081510703/18/19 08:15:31  5-MIN KAQV 181415Z AUTO VRB03KT 10SM CLR 12/05 A3030 30 61 -200 VRB/03 RMK AO2 T01220050
03949KAQV AQV20190318082010703/18/19 08:20:31  5-MIN KAQV 181420Z AUTO VRB04KT 10SM CLR 13/03 A3030 30 52 -100 VRB/04 RMK AO2 T01280033
03949KAQV AQV20190318082510703/18/19 08:25:31  5-MIN KAQV 181425Z AUTO 03003KT 10SM CLR 13/03 A3030 30 50 -100 020/03 RMK AO2 T01330033
03949KAQV AQV20190318083010403/18/19 08:30:31  5-MIN KAQV 181430Z AUTO 03004KT 10SM CLR 14/03 A3030 30 48 0 030/04 RMK AO2 T01390033
03949KAQV AQV20190318083510403/18/19 08:35:31  5-MIN KAQV 181435Z AUTO 04007KT 10SM CLR 14/03 A3030 30 47 0 040/07 RMK AO2 T01390028
03949KAQV AQV20190318084010403/18/19 08:40:31  5-MIN KAQV 181440Z AUTO VRB04KT 10SM CLR 14/02 A3031 20 43 0 VRB/04 RMK AO2 T01390017
03949KAQV AQV20190318084510403/18/19 08:45:31  5-MIN KAQV 181445Z AUTO VRB04KT 10SM CLR 14/02 A3031 20 43 0 VRB/04 RMK AO2 T01390017
03949KAQV AQV20190318085011703/18/19 08:50:31  5-MIN KAQV 181450Z AUTO 04007KT 10SM CLR 14/02 A3031 10 43 0 040/07 RMK AO2 SLP266 T01390017 53007
03949KAQV AQV20190318085511703/18/19 08:55:31  5-MIN KAQV 181455Z AUTO 04006KT 10SM CLR 14/02 A3032 10 41 0 040/06 RMK AO2 SLP267 T01440017 53007
03949KAQV AQV20190318090010403/18/19 09:00:31  5-MIN KAQV 181500Z AUTO VRB04KT 10SM CLR 14/02 A3032 10 41 0 VRB/04 RMK AO2 T01440017
03949KAQV AQV20190318090510403/18/19 09:05:31  5-MIN KAQV 181505Z AUTO VRB04KT 10SM CLR 15/02 A3032 10 40 0 VRB/04 RMK AO2 T01500017
03949KAQV AQV20190318091010503/18/19 09:10:31  5-MIN KAQV 181510Z AUTO VRB04KT 10SM CLR 16/02 A3032 0 40 100 VRB/04 RMK AO2 T01560022
03949KAQV AQV20190318091510503/18/19 09:15:31  5-MIN KAQV 181515Z AUTO 04006KT 10SM CLR 16/02 A3033 0 39 100 040/06 RMK AO2 T01560017
03949KAQV AQV20190318092010503/18/19 09:20:31  5-MIN KAQV 181520Z AUTO VRB04KT 10SM CLR 16/02 A3033 0 39 100 VRB/04 RMK AO2 T01560017
03949KAQV AQV20190318092510503/18/19 09:25:31  5-MIN KAQV 181525Z AUTO 06006KT 10SM CLR 16/02 A3033 0 39 100 060/06 RMK AO2 T01560017
03949KAQV AQV20190318093010503/18/19 09:30:31  5-MIN KAQV 181530Z AUTO 06005KT 10SM CLR 16/01 A3033 0 37 100 060/05 RMK AO2 T01560011
03949KAQV AQV20190318093510503/18/19 09:35:31  5-MIN KAQV 181535Z AUTO 04003KT 10SM CLR 16/02 A3033 0 39 100 040/03 RMK AO2 T01560017
03949KAQV AQV20190318094010503/18/19 09:40:31  5-MIN KAQV 181540Z AUTO VRB04KT 10SM CLR 17/02 A3033 0 37 200 VRB/04 RMK AO2 T01670022
03949KAQV AQV20190318094510503/18/19 09:45:31  5-MIN KAQV 181545Z AUTO VRB04KT 10SM CLR 17/02 A3033 0 37 200 VRB/04 RMK AO2 T01670022
03949KAQV AQV20190318095011203/18/19 09:50:31  5-MIN KAQV 181550Z AUTO 00000KT 10SM CLR 17/02 A3033 0 37 200 000/00 RMK AO2 SLP270 T01670022
03949KAQV AQV20190318095511203/18/19 09:55:31  5-MIN KAQV 181555Z AUTO VRB04KT 10SM CLR 17/03 A3033 0 37 300 VRB/04 RMK AO2 SLP270 T01720028
03949KAQV AQV20190318100010503/18/19 10:00:31  5-MIN KAQV 181600Z AUTO VRB03KT 10SM CLR 18/02 A3033 0 35 400 VRB/03 RMK AO2 T01780022
03949KAQV AQV20190318100510503/18/19 10:05:31  5-MIN KAQV 181605Z AUTO 08004KT 10SM CLR 17/01 A3033 0 33 300 080/04 RMK AO2 T01720011
03949KAQV AQV20190318101010503/18/19 10:10:31  5-MIN KAQV 181610Z AUTO VRB04KT 10SM CLR 17/01 A3033 0 33 300 VRB/04 RMK AO2 T01720011
03949KAQV AQV20190318101510503/18/19 10:15:31  5-MIN KAQV 181615Z AUTO 07006KT 10SM CLR 18/01 A3033 0 32 400 060/06 RMK AO2 T01780011
03949KAQV AQV20190318102010503/18/19 10:20:31  5-MIN KAQV 181620Z AUTO VRB04KT 10SM CLR 18/02 A3033 0 33 400 VRB/04 RMK AO2 T01780017
03949KAQV AQV20190318102510503/18/19 10:25:31  5-MIN KAQV 181625Z AUTO VRB04KT 10SM CLR 18/01 A3033 0 32 400 VRB/04 RMK AO2 T01780011
03949KAQV AQV20190318103010503/18/19 10:30:31  5-MIN KAQV 181630Z AUTO VRB03KT 10SM CLR 18/02 A3033 0 33 400 VRB/03 RMK AO2 T01780017
03949KAQV AQV20190318103510503/18/19 10:35:31  5-MIN KAQV 181635Z AUTO VRB04KT 10SM CLR 18/02 A3033 0 32 400 VRB/04 RMK AO2 T01830017
03949KAQV AQV20190318104010603/18/19 10:40:31  5-MIN KAQV 181640Z AUTO VRB05KT 10SM CLR 18/02 A3032 10 32 400 VRB/05 RMK AO2 T01830017
03949KAQV AQV20190318104510603/18/19 10:45:31  5-MIN KAQV 181645Z AUTO VRB06KT 10SM CLR 18/02 A3032 10 32 400 VRB/06 RMK AO2 T01830017
03949KAQV AQV20190318105011303/18/19 10:50:31  5-MIN KAQV 181650Z AUTO VRB04KT 10SM CLR 18/02 A3032 10 32 400 VRB/04 RMK AO2 SLP268 T01830017
03949KAQV AQV20190318105510303/18/19 10:55:31  5-MIN KAQV 181655Z AUTO 10SM CLR 19/02 A3032 10 31 600 M /M RMK AO2 SLP269 T01940022
03949KAQV AQV20190318110010603/18/19 11:00:31  5-MIN KAQV 181700Z AUTO VRB04KT 10SM CLR 19/02 A3032 10 31 500 VRB/04 RMK AO2 T01890017
03949KAQV AQV20190318110510603/18/19 11:05:31  5-MIN KAQV 181705Z AUTO VRB04KT 10SM CLR 19/02 A3032 10 32 500 VRB/04 RMK AO2 T01890022
03949KAQV AQV20190318111010603/18/19 11:10:31  5-MIN KAQV 181710Z AUTO VRB03KT 10SM CLR 19/02 A3032 10 31 500 VRB/03 RMK AO2 T01890017
03949KAQV AQV20190318111510603/18/19 11:15:31  5-MIN KAQV 181715Z AUTO VRB05KT 10SM CLR 19/02 A3032 10 30 600 VRB/05 RMK AO2 T01940017
03949KAQV AQV20190318112010603/18/19 11:20:31  5-MIN KAQV 181720Z AUTO VRB04KT 10SM CLR 19/02 A3032 10 30 600 VRB/04 RMK AO2 T01940017
03949KAQV AQV20190318112510603/18/19 11:25:31  5-MIN KAQV 181725Z AUTO VRB05KT 10SM CLR 19/02 A3032 10 30 600 VRB/05 RMK AO2 T01940017
03949KAQV AQV20190318113010603/18/19 11:30:31  5-MIN KAQV 181730Z AUTO VRB05KT 10SM CLR 19/02 A3031 20 30 600 VRB/05 RMK AO2 T01940017
03949KAQV AQV20190318113510603/18/19 11:35:31  5-MIN KAQV 181735Z AUTO VRB04KT 10SM CLR 19/02 A3031 20 30 600 VRB/04 RMK AO2 T01940017
03949KAQV AQV20190318114010603/18/19 11:40:31  5-MIN KAQV 181740Z AUTO VRB03KT 10SM CLR 19/02 A3030 20 30 600 VRB/03 RMK AO2 T01940017
03949KAQV AQV20190318114510603/18/19 11:45:31  5-MIN KAQV 181745Z AUTO 08006KT 10SM CLR 19/01 A3030 20 30 500 080/06 RMK AO2 T01890011
03949KAQV AQV20190318115013103/18/19 11:50:31  5-MIN KAQV 181750Z AUTO VRB05KT 10SM CLR 19/02 A3030 30 30 600 VRB/05 RMK AO2 SLP260 T01940017 10194 20028 53017
03949KAQV AQV20190318115514703/18/19 11:55:31  5-MIN KAQV 181755Z AUTO 04007KT 360V070 10SM CLR 20/02 A3030 30 29 700 040/07 360V070 RMK AO2 SLP260 T02000017 10200 20028 53017
03949KAQV AQV20190318120010603/18/19 12:00:31  5-MIN KAQV 181800Z AUTO VRB06KT 10SM CLR 20/02 A3029 30 29 700 VRB/06 RMK AO2 T02000017
03949KAQV AQV20190318120512203/18/19 12:05:31  5-MIN KAQV 181805Z AUTO 04008KT 010V070 10SM CLR 20/02 A3029 30 29 700 040/08 010V070 RMK AO2 T02000017
03949KAQV AQV20190318121010603/18/19 12:10:31  5-MIN KAQV 181810Z AUTO VRB05KT 10SM CLR 20/02 A3029 30 29 700 VRB/05 RMK AO2 T02000017
03949KAQV AQV20190318121510603/18/19 12:15:31  5-MIN KAQV 181815Z AUTO VRB06KT 10SM CLR 20/02 A3029 40 29 700 VRB/06 RMK AO2 T02000017
03949KAQV AQV20190318122010603/18/19 12:20:31  5-MIN KAQV 181820Z AUTO 00000KT 10SM CLR 20/01 A3029 40 28 700 000/00 RMK AO2 T02000011
03949KAQV AQV20190318122510603/18/19 12:25:31  5-MIN KAQV 181825Z AUTO VRB05KT 10SM CLR 21/02 A3029 40 28 700 VRB/05 RMK AO2 T02060017
03949KAQV AQV20190318123010603/18/19 12:30:31  5-MIN KAQV 181830Z AUTO 02008KT 10SM CLR 21/01 A3029 40 27 700 020/08 RMK AO2 T02060011
03949KAQV AQV20190318123510603/18/19 12:35:31  5-MIN KAQV 181835Z AUTO VRB03KT 10SM CLR 21/02 A3029 40 28 700 VRB/03 RMK AO2 T02060017
03949KAQV AQV20190318124010603/18/19 12:40:31  5-MIN KAQV 181840Z AUTO VRB04KT 10SM CLR 21/02 A3028 40 28 700 VRB/04 RMK AO2 T02060017
03949KAQV AQV20190318124510603/18/19 12:45:31  5-MIN KAQV 181845Z AUTO VRB04KT 10SM CLR 20/01 A3028 50 28 700 VRB/04 RMK AO2 T02000011
03949KAQV AQV20190318125011303/18/19 12:50:31  5-MIN KAQV 181850Z AUTO 02008KT 10SM CLR 21/01 A3028 50 27 700 010/08 RMK AO2 SLP253 T02060011
03949KAQV AQV20190318125511303/18/19 12:55:31  5-MIN KAQV 181855Z AUTO VRB05KT 10SM CLR 21/01 A3027 50 27 800 VRB/05 RMK AO2 SLP252 T02060011
03949KAQV AQV20190318130010603/18/19 13:00:31  5-MIN KAQV 181900Z AUTO VRB05KT 10SM CLR 21/02 A3027 50 28 800 VRB/05 RMK AO2 T02060017
03949KAQV AQV20190318130510603/18/19 13:05:31  5-MIN KAQV 181905Z AUTO 11005KT 10SM CLR 20/01 A3027 50 28 700 110/05 RMK AO2 T02000011
03949KAQV AQV20190318131010603/18/19 13:10:31  5-MIN KAQV 181910Z AUTO VRB03KT 10SM CLR 21/01 A3027 60 27 800 VRB/03 RMK AO2 T02060011
03949KAQV AQV20190318131510603/18/19 13:15:31  5-MIN KAQV 181915Z AUTO VRB05KT 10SM CLR 21/02 A3027 60 28 800 VRB/05 RMK AO2 T02060017
03949KAQV AQV20190318132010603/18/19 13:20:31  5-MIN KAQV 181920Z AUTO VRB03KT 10SM CLR 20/01 A3026 60 28 700 VRB/03 RMK AO2 T02000011
03949KAQV AQV20190318132510603/18/19 13:25:31  5-MIN KAQV 181925Z AUTO VRB06KT 10SM CLR 20/02 A3027 60 29 700 VRB/06 RMK AO2 T02000017
03949KAQV AQV20190318133010603/18/19 13:30:31  5-MIN KAQV 181930Z AUTO VRB05KT 10SM CLR 21/02 A3026 60 28 800 VRB/05 RMK AO2 T02060017
03949KAQV AQV20190318133510603/18/19 13:35:31  5-MIN KAQV 181935Z AUTO VRB05KT 10SM CLR 21/02 A3026 70 28 800 VRB/05 RMK AO2 T02060017
03949KAQV AQV20190318134010603/18/19 13:40:31  5-MIN KAQV 181940Z AUTO 09007KT 10SM CLR 21/02 A3026 70 28 800 080/07 RMK AO2 T02060017
03949KAQV AQV20190318134510603/18/19 13:45:31  5-MIN KAQV 181945Z AUTO 04003KT 10SM CLR 21/02 A3025 70 28 800 040/03 RMK AO2 T02060017
03949KAQV AQV20190318135011303/18/19 13:50:31  5-MIN KAQV 181950Z AUTO 00000KT 10SM CLR 21/02 A3025 70 28 800 000/00 RMK AO2 SLP244 T02060017
03949KAQV AQV20190318135511303/18/19 13:55:31  5-MIN KAQV 181955Z AUTO VRB03KT 10SM CLR 21/02 A3025 80 28 800 VRB/03 RMK AO2 SLP243 T02060017
03949KAQV AQV20190318140010603/18/19 14:00:31  5-MIN KAQV 182000Z AUTO VRB03KT 10SM CLR 21/02 A3024 80 28 800 VRB/03 RMK AO2 T02060017
03949KAQV AQV20190318140509603/18/19 14:05:31  5-MIN KAQV 182005Z AUTO 10SM CLR 21/02 A3024 80 27 900 M /M RMK AO2 T02110017
03949KAQV AQV20190318141010603/18/19 14:10:31  5-MIN KAQV 182010Z AUTO 05007KT 10SM CLR 21/02 A3024 80 28 800 050/07 RMK AO2 T02060017
03949KAQV AQV20190318141510603/18/19 14:15:31  5-MIN KAQV 182015Z AUTO 08004KT 10SM CLR 21/02 A3024 80 28 800 070/04 RMK AO2 T02060017
03949KAQV AQV20190318142010603/18/19 14:20:31  5-MIN KAQV 182020Z AUTO VRB04KT 10SM CLR 21/02 A3024 80 28 800 VRB/04 RMK AO2 T02060017
03949KAQV AQV20190318142510603/18/19 14:25:31  5-MIN KAQV 182025Z AUTO 00000KT 10SM CLR 21/02 A3024 80 27 900 000/00 RMK AO2 T02110017
03949KAQV AQV20190318143010503/18/19 14:30:31  5-MIN KAQV 182030Z AUTO VRB05KT 9SM CLR 21/02 A3024 80 28 800 VRB/05 RMK AO2 T02060017
03949KAQV AQV20190318143510503/18/19 14:35:31  5-MIN KAQV 182035Z AUTO VRB04KT 9SM CLR 21/02 A3024 90 27 900 VRB/04 RMK AO2 T02110017
03949KAQV AQV20190318144010603/18/19 14:40:31  5-MIN KAQV 182040Z AUTO VRB03KT 10SM CLR 21/01 A3024 90 26 900 VRB/03 RMK AO2 T02110011
03949KAQV AQV20190318144510603/18/19 14:45:31  5-MIN KAQV 182045Z AUTO VRB05KT 10SM CLR 21/01 A3024 90 27 800 VRB/05 RMK AO2 T02060011
03949KAQV AQV20190318145011903/18/19 14:50:31  5-MIN KAQV 182050Z AUTO 07004KT 10SM CLR 21/01 A3023 90 27 800 060/04 RMK AO2 SLP238 T02060011 58007
03949KAQV AQV20190318145511903/18/19 14:55:31  5-MIN KAQV 182055Z AUTO VRB04KT 10SM CLR 21/01 A3023 90 27 800 VRB/04 RMK AO2 SLP237 T02060011 58007
03949KAQV AQV20190318150010603/18/19 15:00:31  5-MIN KAQV 182100Z AUTO VRB03KT 10SM CLR 21/02 A3023 90 28 800 VRB/03 RMK AO2 T02060017
03949KAQV AQV20190318150510603/18/19 15:05:31  5-MIN KAQV 182105Z AUTO 06004KT 10SM CLR 21/02 A3023 90 28 800 060/04 RMK AO2 T02060017
03949KAQV AQV20190318151010703/18/19 15:10:31  5-MIN KAQV 182110Z AUTO 05006KT 10SM CLR 21/01 A3022 100 27 800 050/06 RMK AO2 T02060011
03949KAQV AQV20190318151510703/18/19 15:15:31  5-MIN KAQV 182115Z AUTO VRB03KT 10SM CLR 21/02 A3022 100 27 900 VRB/03 RMK AO2 T02110017
03949KAQV AQV20190318152009703/18/19 15:20:31  5-MIN KAQV 182120Z AUTO 10SM CLR 21/01 A3022 100 27 800 M /M RMK AO2 T02060011
03949KAQV AQV20190318152510703/18/19 15:25:31  5-MIN KAQV 182125Z AUTO 36004KT 10SM CLR 21/02 A3022 100 28 800 360/04 RMK AO2 T02060017
03949KAQV AQV20190318153010703/18/19 15:30:31  5-MIN KAQV 182130Z AUTO 02004KT 10SM CLR 21/02 A3022 100 28 800 020/04 RMK AO2 T02060017
03949KAQV AQV20190318153510703/18/19 15:35:31  5-MIN KAQV 182135Z AUTO VRB03KT 10SM CLR 21/02 A3022 100 28 800 VRB/03 RMK AO2 T02060017
03949KAQV AQV20190318154010703/18/19 15:40:31  5-MIN KAQV 182140Z AUTO VRB06KT 10SM CLR 21/02 A3022 100 27 900 VRB/06 RMK AO2 T02110017
03949KAQV AQV20190318154510703/18/19 15:45:31  5-MIN KAQV 182145Z AUTO 07003KT 10SM CLR 21/02 A3022 100 28 800 060/03 RMK AO2 T02060017
03949KAQV AQV20190318155011403/18/19 15:50:31  5-MIN KAQV 182150Z AUTO 00000KT 10SM CLR 21/02 A3022 100 29 800 000/00 RMK AO2 SLP234 T02060022
03949KAQV AQV20190318155511403/18/19 15:55:31  5-MIN KAQV 182155Z AUTO VRB03KT 10SM CLR 20/02 A3022 100 29 700 VRB/03 RMK AO2 SLP234 T02000017
03949KAQV AQV20190318160010703/18/19 16:00:31  5-MIN KAQV 182200Z AUTO VRB04KT 10SM CLR 21/02 A3022 100 29 800 VRB/04 RMK AO2 T02060022
03949KAQV AQV20190318160510703/18/19 16:05:31  5-MIN KAQV 182205Z AUTO VRB06KT 10SM CLR 21/02 A3022 100 28 900 VRB/06 RMK AO2 T02110022
03949KAQV AQV20190318161010703/18/19 16:10:31  5-MIN KAQV 182210Z AUTO 03006KT 10SM CLR 21/02 A3022 100 28 800 030/06 RMK AO2 T02060017
03949KAQV AQV20190318161510703/18/19 16:15:31  5-MIN KAQV 182215Z AUTO VRB04KT 10SM CLR 21/02 A3021 110 28 900 VRB/04 RMK AO2 T02110022
03949KAQV AQV20190318162010703/18/19 16:20:31  5-MIN KAQV 182220Z AUTO VRB04KT 10SM CLR 21/02 A3022 100 27 900 VRB/04 RMK AO2 T02110017
03949KAQV AQV20190318162510703/18/19 16:25:31  5-MIN KAQV 182225Z AUTO VRB04KT 10SM CLR 21/02 A3022 100 28 900 VRB/04 RMK AO2 T02110022
03949KAQV AQV20190318163010703/18/19 16:30:31  5-MIN KAQV 182230Z AUTO 06003KT 10SM CLR 21/03 A3022 100 29 900 050/03 RMK AO2 T02110028
03949KAQV AQV20190318163509703/18/19 16:35:31  5-MIN KAQV 182235Z AUTO 10SM CLR 21/03 A3022 100 29 900 M /M RMK AO2 T02110028
03949KAQV AQV20190318164010703/18/19 16:40:31  5-MIN KAQV 182240Z AUTO 03004KT 10SM CLR 21/02 A3022 100 29 800 020/04 RMK AO2 T02060022
03949KAQV AQV20190318164510703/18/19 16:45:31  5-MIN KAQV 182245Z AUTO VRB03KT 10SM CLR 21/02 A3022 100 28 900 VRB/03 RMK AO2 T02110022
03949KAQV AQV20190318165011403/18/19 16:50:31  5-MIN KAQV 182250Z AUTO 05004KT 10SM CLR 21/02 A3022 100 28 900 040/04 RMK AO2 SLP234 T02110022
03949KAQV AQV20190318165511403/18/19 16:55:31  5-MIN KAQV 182255Z AUTO VRB04KT 10SM CLR 21/02 A3022 100 29 800 VRB/04 RMK AO2 SLP235 T02060022
03949KAQV AQV20190318170010703/18/19 17:00:31  5-MIN KAQV 182300Z AUTO 05005KT 10SM CLR 21/02 A3022 100 29 800 050/05 RMK AO2 T02060022
03949KAQV AQV20190318170510703/18/19 17:05:31  5-MIN KAQV 182305Z AUTO 04005KT 10SM CLR 21/02 A3022 100 29 800 030/05 RMK AO2 T02060022
03949KAQV AQV20190318171010703/18/19 17:10:31  5-MIN KAQV 182310Z AUTO 03004KT 10SM CLR 21/02 A3022 100 29 800 030/04 RMK AO2 T02060022
03949KAQV AQV20190318171510703/18/19 17:15:31  5-MIN KAQV 182315Z AUTO VRB03KT 10SM CLR 21/03 A3022 100 30 800 VRB/03 RMK AO2 T02060028
03949KAQV AQV20190318172010703/18/19 17:20:31  5-MIN KAQV 182320Z AUTO 05005KT 10SM CLR 21/03 A3022 100 30 800 050/05 RMK AO2 T02060028
03949KAQV AQV20190318172510703/18/19 17:25:31  5-MIN KAQV 182325Z AUTO 00000KT 10SM CLR 20/03 A3022 100 31 700 000/00 RMK AO2 T02000028
03949KAQV AQV20190318173010603/18/19 17:30:31  5-MIN KAQV 182330Z AUTO VRB03KT 10SM CLR 20/03 A3023 90 31 700 VRB/03 RMK AO2 T02000028
03949KAQV AQV20190318173510603/18/19 17:35:31  5-MIN KAQV 182335Z AUTO 00000KT 10SM CLR 19/03 A3023 90 33 700 000/00 RMK AO2 T01940028
03949KAQV AQV20190318174010603/18/19 17:40:31  5-MIN KAQV 182340Z AUTO 00000KT 10SM CLR 19/03 A3023 90 33 700 000/00 RMK AO2 T01940028
03949KAQV AQV20190318174510603/18/19 17:45:31  5-MIN KAQV 182345Z AUTO 00000KT 10SM CLR 19/03 A3023 90 34 700 000/00 RMK AO2 T01940033
03949KAQV AQV20190318175013103/18/19 17:50:31  5-MIN KAQV 182350Z AUTO 00000KT 10SM CLR 19/04 A3023 90 36 600 000/00 RMK AO2 SLP237 T01890039 10211 20189 56022
03949KAQV AQV20190318175513103/18/19 17:55:31  5-MIN KAQV 182355Z AUTO 00000KT 10SM CLR 18/04 A3023 90 41 500 000/00 RMK AO2 SLP237 T01780044 10211 20178 56022
03949KAQV AQV20190318180010603/18/19 18:00:31  5-MIN KAQV 190000Z AUTO 00000KT 10SM CLR 17/04 A3023 90 42 400 000/00 RMK AO2 T01720044
03949KAQV AQV20190318180510603/18/19 18:05:31  5-MIN KAQV 190005Z AUTO 00000KT 10SM CLR 17/04 A3023 90 42 400 000/00 RMK AO2 T01720044
03949KAQV AQV20190318181010603/18/19 18:10:31  5-MIN KAQV 190010Z AUTO 00000KT 10SM CLR 17/05 A3023 90 44 400 000/00 RMK AO2 T01720050
03949KAQV AQV20190318181510603/18/19 18:15:31  5-MIN KAQV 190015Z AUTO 00000KT 10SM CLR 16/06 A3023 90 49 300 000/00 RMK AO2 T01610056
03949KAQV AQV20190318182010603/18/19 18:20:31  5-MIN KAQV 190020Z AUTO 00000KT 10SM CLR 16/05 A3023 90 49 200 000/00 RMK AO2 T01560050
03949KAQV AQV20190318182510603/18/19 18:25:31  5-MIN KAQV 190025Z AUTO 00000KT 10SM CLR 15/06 A3024 90 53 100 000/00 RMK AO2 T01500056
03949KAQV AQV20190318183010603/18/19 18:30:31  5-MIN KAQV 190030Z AUTO 00000KT 10SM CLR 14/07 A3024 90 59 100 000/00 RMK AO2 T01440067
03949KAQV AQV20190318183510403/18/19 18:35:31  5-MIN KAQV 190035Z AUTO 00000KT 10SM CLR 14/06 A3024 80 59 0 000/00 RMK AO2 T01390061
03949KAQV AQV20190318184010403/18/19 18:40:31  5-MIN KAQV 190040Z AUTO 00000KT 10SM CLR 14/06 A3024 90 59 0 000/00 RMK AO2 T01390061
03949KAQV AQV20190318184510403/18/19 18:45:31  5-MIN KAQV 190045Z AUTO 00000KT 10SM CLR 14/06 A3024 90 59 0 000/00 RMK AO2 T01390061
03949KAQV AQV20190318185011103/18/19 18:50:31  5-MIN KAQV 190050Z AUTO 00000KT 10SM CLR 13/06 A3024 90 61 0 000/00 RMK AO2 SLP240 T01330061
03949KAQV AQV20190318185511403/18/19 18:55:31  5-MIN KAQV 190055Z AUTO 00000KT 10SM CLR 13/07 A3024 90 66 -100 000/00 RMK AO2 SLP240 T01280067
03949KAQV AQV20190318190010703/18/19 19:00:31  5-MIN KAQV 190100Z AUTO 00000KT 10SM CLR 13/06 A3024 90 63 -100 000/00 RMK AO2 T01280061
03949KAQV AQV20190318190510703/18/19 19:05:31  5-MIN KAQV 190105Z AUTO 00000KT 10SM CLR 13/06 A3023 90 63 -100 000/00 RMK AO2 T01280061
03949KAQV AQV20190318191010703/18/19 19:10:31  5-MIN KAQV 190110Z AUTO 00000KT 10SM CLR 12/07 A3023 90 68 -100 000/00 RMK AO2 T01220067
03949KAQV AQV20190318191510703/18/19 19:15:31  5-MIN KAQV 190115Z AUTO 00000KT 10SM CLR 12/07 A3023 90 68 -100 000/00 RMK AO2 T01220067
03949KAQV AQV20190318192010703/18/19 19:20:31  5-MIN KAQV 190120Z AUTO 00000KT 10SM CLR 12/06 A3023 90 66 -100 000/00 RMK AO2 T01220061
03949KAQV AQV20190318192510703/18/19 19:25:31  5-MIN KAQV 190125Z AUTO 00000KT 10SM CLR 12/06 A3023 90 63 -100 000/00 RMK AO2 T01220056
03949KAQV AQV20190318193010703/18/19 19:30:31  5-MIN KAQV 190130Z AUTO 00000KT 10SM CLR 12/06 A3023 90 68 -200 000/00 RMK AO2 T01170061
03949KAQV AQV20190318193510703/18/19 19:35:31  5-MIN KAQV 190135Z AUTO 00000KT 10SM CLR 12/06 A3024 80 68 -200 000/00 RMK AO2 T01170061
03949KAQV AQV20190318194010703/18/19 19:40:31  5-MIN KAQV 190140Z AUTO 00000KT 10SM CLR 11/05 A3024 80 66 -300 000/00 RMK AO2 T01110050
03949KAQV AQV20190318194510703/18/19 19:45:31  5-MIN KAQV 190145Z AUTO 00000KT 10SM CLR 11/05 A3024 80 66 -300 000/00 RMK AO2 T01110050
03949KAQV AQV20190318195011403/18/19 19:50:31  5-MIN KAQV 190150Z AUTO 00000KT 10SM CLR 11/06 A3024 80 71 -300 000/00 RMK AO2 SLP242 T01060056
03949KAQV AQV20190318195511403/18/19 19:55:31  5-MIN KAQV 190155Z AUTO 00000KT 10SM CLR 11/06 A3025 80 71 -300 000/00 RMK AO2 SLP242 T01060056
03949KAQV AQV20190318200010703/18/19 20:00:31  5-MIN KAQV 190200Z AUTO 00000KT 10SM CLR 11/05 A3025 70 68 -300 000/00 RMK AO2 T01060050
03949KAQV AQV20190318200510703/18/19 20:05:31  5-MIN KAQV 190205Z AUTO 00000KT 10SM CLR 11/05 A3025 70 68 -400 000/00 RMK AO2 T01060050
03949KAQV AQV20190318201010703/18/19 20:10:31  5-MIN KAQV 190210Z AUTO 00000KT 10SM CLR 10/05 A3025 70 71 -400 000/00 RMK AO2 T01000050
03949KAQV AQV20190318201510703/18/19 20:15:31  5-MIN KAQV 190215Z AUTO 00000KT 10SM CLR 10/05 A3025 70 71 -400 000/00 RMK AO2 T01000050
03949KAQV AQV20190318202010703/18/19 20:20:31  5-MIN KAQV 190220Z AUTO 00000KT 10SM CLR 10/05 A3026 70 71 -400 000/00 RMK AO2 T01000050
03949KAQV AQV20190318202510703/18/19 20:25:31  5-MIN KAQV 190225Z AUTO 00000KT 10SM CLR 10/05 A3026 70 71 -400 000/00 RMK AO2 T01000050
03949KAQV AQV20190318203010703/18/19 20:30:31  5-MIN KAQV 190230Z AUTO 00000KT 10SM CLR 09/06 A3026 60 76 -500 000/00 RMK AO2 T00940056
03949KAQV AQV20190318203510703/18/19 20:35:31  5-MIN KAQV 190235Z AUTO 00000KT 10SM CLR 09/06 A3026 60 76 -500 000/00 RMK AO2 T00940056
03949KAQV AQV20190318204010703/18/19 20:40:31  5-MIN KAQV 190240Z AUTO 00000KT 10SM CLR 09/06 A3026 60 76 -500 000/00 RMK AO2 T00940056
03949KAQV AQV20190318204510703/18/19 20:45:31  5-MIN KAQV 190245Z AUTO 00000KT 10SM CLR 09/06 A3026 60 76 -500 000/00 RMK AO2 T00940056
03949KAQV AQV20190318205012003/18/19 20:50:31  5-MIN KAQV 190250Z AUTO 00000KT 10SM CLR 09/06 A3026 60 79 -600 000/00 RMK AO2 SLP249 T00890056 53000
03949KAQV AQV20190318205512003/18/19 20:55:31  5-MIN KAQV 190255Z AUTO 00000KT 10SM CLR 09/06 A3027 60 79 -600 000/00 RMK AO2 SLP249 T00890056 53000
03949KAQV AQV20190318210010703/18/19 21:00:31  5-MIN KAQV 190300Z AUTO 00000KT 10SM CLR 09/06 A3027 60 83 -600 000/00 RMK AO2 T00890061
03949KAQV AQV20190318210510703/18/19 21:05:31  5-MIN KAQV 190305Z AUTO 00000KT 10SM CLR 09/06 A3027 50 83 -600 000/00 RMK AO2 T00890061
03949KAQV AQV20190318211010703/18/19 21:10:31  5-MIN KAQV 190310Z AUTO 00000KT 10SM CLR 09/06 A3027 50 79 -600 000/00 RMK AO2 T00890056
03949KAQV AQV20190318211510703/18/19 21:15:31  5-MIN KAQV 190315Z AUTO 00000KT 10SM CLR 08/06 A3027 50 82 -600 000/00 RMK AO2 T00830056
03949KAQV AQV20190318212010703/18/19 21:20:31  5-MIN KAQV 190320Z AUTO 00000KT 10SM CLR 08/06 A3027 50 82 -600 000/00 RMK AO2 T00830056
03949KAQV AQV20190318212510703/18/19 21:25:31  5-MIN KAQV 190325Z AUTO 00000KT 10SM CLR 08/06 A3027 50 82 -600 000/00 RMK AO2 T00830056
03949KAQV AQV20190318213010703/18/19 21:30:31  5-MIN KAQV 190330Z AUTO 00000KT 10SM CLR 08/06 A3027 50 86 -700 000/00 RMK AO2 T00780056
03949KAQV AQV20190318213510703/18/19 21:35:31  5-MIN KAQV 190335Z AUTO 00000KT 10SM CLR 08/06 A3027 50 82 -600 000/00 RMK AO2 T00830056
03949KAQV AQV20190318214010703/18/19 21:40:31  5-MIN KAQV 190340Z AUTO 00000KT 10SM CLR 08/06 A3028 50 82 -700 000/00 RMK AO2 T00830056
03949KAQV AQV20190318214510703/18/19 21:45:31  5-MIN KAQV 190345Z AUTO 00000KT 10SM CLR 08/06 A3028 50 82 -700 000/00 RMK AO2 T00830056
03949KAQV AQV20190318215011403/18/19 21:50:31  5-MIN KAQV 190350Z AUTO 00000KT 10SM CLR 08/06 A3028 50 82 -700 000/00 RMK AO2 SLP254 T00830056
03949KAQV AQV20190318215511403/18/19 21:55:31  5-MIN KAQV 190355Z AUTO 00000KT 10SM CLR 08/06 A3028 50 82 -700 000/00 RMK AO2 SLP253 T00830056
03949KAQV AQV20190318220010703/18/19 22:00:31  5-MIN KAQV 190400Z AUTO 00000KT 10SM CLR 08/05 A3028 50 82 -700 000/00 RMK AO2 T00780050
03949KAQV AQV20190318220510703/18/19 22:05:31  5-MIN KAQV 190405Z AUTO 00000KT 10SM CLR 08/05 A3028 50 82 -700 000/00 RMK AO2 T00780050
03949KAQV AQV20190318221010703/18/19 22:10:31  5-MIN KAQV 190410Z AUTO 00000KT 10SM CLR 08/05 A3027 50 79 -600 000/00 RMK AO2 T00830050
03949KAQV AQV20190318221510703/18/19 22:15:31  5-MIN KAQV 190415Z AUTO 00000KT 10SM CLR 08/05 A3027 50 82 -700 000/00 RMK AO2 T00780050
03949KAQV AQV20190318222010703/18/19 22:20:31  5-MIN KAQV 190420Z AUTO 00000KT 10SM CLR 08/05 A3027 50 82 -700 000/00 RMK AO2 T00780050
03949KAQV AQV20190318222510703/18/19 22:25:31  5-MIN KAQV 190425Z AUTO 00000KT 10SM CLR 08/05 A3027 50 82 -700 000/00 RMK AO2 T00780050
03949KAQV AQV20190318223010703/18/19 22:30:31  5-MIN KAQV 190430Z AUTO 00000KT 10SM CLR 08/05 A3027 50 82 -700 000/00 RMK AO2 T00780050
03949KAQV AQV20190318223510703/18/19 22:35:31  5-MIN KAQV 190435Z AUTO 00000KT 10SM CLR 08/04 A3027 50 79 -700 000/00 RMK AO2 T00780044
03949KAQV AQV20190318224010703/18/19 22:40:31  5-MIN KAQV 190440Z AUTO 00000KT 10SM CLR 08/04 A3027 50 79 -700 000/00 RMK AO2 T00780044
03949KAQV AQV20190318224510703/18/19 22:45:31  5-MIN KAQV 190445Z AUTO 00000KT 10SM CLR 07/05 A3027 50 86 -800 000/00 RMK AO2 T00720050
03949KAQV AQV20190318225011403/18/19 22:50:31  5-MIN KAQV 190450Z AUTO 00000KT 10SM CLR 07/04 A3027 50 82 -800 000/00 RMK AO2 SLP251 T00720044
03949KAQV AQV20190318225511403/18/19 22:55:31  5-MIN KAQV 190455Z AUTO 00000KT 10SM CLR 07/04 A3027 60 82 -800 000/00 RMK AO2 SLP251 T00720044
03949KAQV AQV20190318230010703/18/19 23:00:31  5-MIN KAQV 190500Z AUTO 00000KT 10SM CLR 07/05 A3027 50 86 -800 000/00 RMK AO2 T00720050
03949KAQV AQV20190318230510703/18/19 23:05:31  5-MIN KAQV 190505Z AUTO 00000KT 10SM CLR 07/04 A3027 50 82 -800 000/00 RMK AO2 T00720044
03949KAQV AQV20190318231010703/18/19 23:10:31  5-MIN KAQV 190510Z AUTO 00000KT 10SM CLR 07/04 A3027 50 82 -800 000/00 RMK AO2 T00720044
03949KAQV AQV20190318231510703/18/19 23:15:31  5-MIN KAQV 190515Z AUTO 00000KT 10SM CLR 07/04 A3027 50 82 -800 000/00 RMK AO2 T00720044
03949KAQV AQV20190318232010703/18/19 23:20:31  5-MIN KAQV 190520Z AUTO 00000KT 10SM CLR 07/05 A3027 50 86 -800 000/00 RMK AO2 T00720050
03949KAQV AQV20190318232510703/18/19 23:25:31  5-MIN KAQV 190525Z AUTO 00000KT 10SM CLR 07/05 A3027 50 86 -800 000/00 RMK AO2 T00720050
03949KAQV AQV20190318233010703/18/19 23:30:31  5-MIN KAQV 190530Z AUTO 00000KT 10SM CLR 07/05 A3027 50 86 -800 000/00 RMK AO2 T00720050
03949KAQV AQV20190318233510703/18/19 23:35:31  5-MIN KAQV 190535Z AUTO 00000KT 10SM CLR 07/05 A3027 50 86 -800 000/00 RMK AO2 T00720050
03949KAQV AQV20190318234010703/18/19 23:40:31  5-MIN KAQV 190540Z AUTO 00000KT 10SM CLR 07/05 A3027 60 86 -800 000/00 RMK AO2 T00720050
03949KAQV AQV20190318234510703/18/19 23:45:31  5-MIN KAQV 190545Z AUTO 00000KT 10SM CLR 07/05 A3027 60 89 -800 000/00 RMK AO2 T00670050
03949KAQV AQV20190318235014203/18/19 23:50:31  5-MIN KAQV 190550Z AUTO 00000KT 10SM CLR 07/05 A3027 60 86 -800 000/00 RMK AO2 SLP249 T00720050 10172 20067 402110028 53012
03949KAQV AQV20190318235514203/18/19 23:55:31  5-MIN KAQV 190555Z AUTO 00000KT 10SM CLR 08/05 A3027 60 82 -700 000/00 RMK AO2 SLP248 T00780050 10172 20067 402110028 53012
03949KAQV AQV20190319000010703/19/19 00:00:31  5-MIN KAQV 190600Z AUTO 00000KT 10SM CLR 07/04 A3027 60 82 -800 000/00 RMK AO2 T00720044
03949KAQV AQV20190319000510703/19/19 00:05:31  5-MIN KAQV 190605Z AUTO 00000KT 10SM CLR 07/05 A3027 60 89 -800 000/00 RMK AO2 T00670050
03949KAQV AQV20190319001010703/19/19 00:10:31  5-MIN KAQV 190610Z AUTO 00000KT 10SM CLR 07/05 A3027 60 89 -800 000/00 RMK AO2 T00670050
03949KAQV AQV20190319001510703/19/19 00:15:31  5-MIN KAQV 190615Z AUTO 00000KT 10SM CLR 07/05 A3027 60 86 -800 000/00 RMK AO2 T00720050
03949KAQV AQV20190319002010703/19/19 00:20:31  5-MIN KAQV 190620Z AUTO 00000KT 10SM CLR 07/05 A3027 60 86 -800 000/00 RMK AO2 T00720050
03949KAQV AQV20190319002510703/19/19 00:25:31  5-MIN KAQV 190625Z AUTO 00000KT 10SM CLR 07/05 A3026 60 86 -800 000/00 RMK AO2 T00720050
03949KAQV AQV20190319003010703/19/19 00:30:31  5-MIN KAQV 190630Z AUTO 00000KT 10SM CLR 07/05 A3027 60 89 -800 000/00 RMK AO2 T00670050
03949KAQV AQV20190319003510703/19/19 00:35:31  5-MIN KAQV 190635Z AUTO 00000KT 10SM CLR 07/04 A3027 60 86 -800 000/00 RMK AO2 T00670044
03949KAQV AQV20190319004010703/19/19 00:40:31  5-MIN KAQV 190640Z AUTO 00000KT 10SM CLR 07/04 A3026 60 86 -800 000/00 RMK AO2 T00670044
03949KAQV AQV20190319004510703/19/19 00:45:31  5-MIN KAQV 190645Z AUTO 00000KT 10SM CLR 07/04 A3026 60 86 -800 000/00 RMK AO2 T00670044
03949KAQV AQV20190319005011403/19/19 00:50:31  5-MIN KAQV 190650Z AUTO 00000KT 10SM CLR 07/04 A3026 60 86 -800 000/00 RMK AO2 SLP248 T00670044
03949KAQV AQV20190319005511403/19/19 00:55:31  5-MIN KAQV 190655Z AUTO 00000KT 10SM CLR 07/04 A3026 60 86 -800 000/00 RMK AO2 SLP248 T00670044
03949KAQV AQV20190319010010703/19/19 01:00:31  5-MIN KAQV 190700Z AUTO 00000KT 10SM CLR 06/04 A3026 60 89 -900 000/00 RMK AO2 T00610044
03949KAQV AQV20190319010510703/19/19 01:05:31  5-MIN KAQV 190705Z AUTO 00000KT 10SM CLR 06/04 A3026 60 86 -900 000/00 RMK AO2 T00610039
03949KAQV AQV20190319011010703/19/19 01:10:31  5-MIN KAQV 190710Z AUTO 00000KT 10SM CLR 06/04 A3026 60 86 -900 000/00 RMK AO2 T00610039
03949KAQV AQV20190319011510703/19/19 01:15:31  5-MIN KAQV 190715Z AUTO 00000KT 10SM CLR 06/04 A3026 60 86 -900 000/00 RMK AO2 T00610039
03949KAQV AQV20190319012010703/19/19 01:20:31  5-MIN KAQV 190720Z AUTO 00000KT 10SM CLR 06/04 A3026 60 89 -900 000/00 RMK AO2 T00610044
03949KAQV AQV20190319012510703/19/19 01:25:31  5-MIN KAQV 190725Z AUTO 00000KT 10SM CLR 06/04 A3026 60 89 -900 000/00 RMK AO2 T00610044
03949KAQV AQV20190319013010703/19/19 01:30:31  5-MIN KAQV 190730Z AUTO 00000KT 10SM CLR 06/04 A3026 60 89 -900 000/00 RMK AO2 T00610044
03949KAQV AQV20190319013510703/19/19 01:35:31  5-MIN KAQV 190735Z AUTO 00000KT 10SM CLR 06/04 A3026 60 89 -900 000/00 RMK AO2 T00610044
03949KAQV AQV20190319014010703/19/19 01:40:31  5-MIN KAQV 190740Z AUTO 00000KT 10SM CLR 06/04 A3026 60 89 -900 000/00 RMK AO2 T00610044
03949KAQV AQV20190319014510703/19/19 01:45:31  5-MIN KAQV 190745Z AUTO 00000KT 10SM CLR 06/04 A3026 60 89 -900 000/00 RMK AO2 T00610044
03949KAQV AQV20190319015011403/19/19 01:50:31  5-MIN KAQV 190750Z AUTO 00000KT 10SM CLR 06/04 A3026 60 89 -900 000/00 RMK AO2 SLP248 T00610044
03949KAQV AQV20190319015511503/19/19 01:55:31  5-MIN KAQV 190755Z AUTO 00000KT 10SM CLR 06/04 A3026 60 92 -1000 000/00 RMK AO2 SLP248 T00560044
03949KAQV AQV20190319020010703/19/19 02:00:31  5-MIN KAQV 190800Z AUTO 00000KT 10SM CLR 06/04 A3026 60 89 -900 000/00 RMK AO2 T00610044
03949KAQV AQV20190319020510703/19/19 02:05:31  5-MIN KAQV 190805Z AUTO 00000KT 10SM CLR 06/04 A3026 60 89 -900 000/00 RMK AO2 T00610044
03949KAQV AQV20190319021010803/19/19 02:10:31  5-MIN KAQV 190810Z AUTO 00000KT 10SM CLR 06/04 A3026 60 92 -1000 000/00 RMK AO2 T00560044
03949KAQV AQV20190319021510803/19/19 02:15:31  5-MIN KAQV 190815Z AUTO 00000KT 10SM CLR 06/04 A3026 60 92 -1000 000/00 RMK AO2 T00560044
03949KAQV AQV20190319022010803/19/19 02:20:31  5-MIN KAQV 190820Z AUTO 00000KT 10SM CLR 06/04 A3026 70 89 -1000 000/00 RMK AO2 T00560039
03949KAQV AQV20190319022510803/19/19 02:25:31  5-MIN KAQV 190825Z AUTO 00000KT 10SM CLR 06/04 A3026 70 89 -1000 000/00 RMK AO2 T00560039
03949KAQV AQV20190319023010803/19/19 02:30:31  5-MIN KAQV 190830Z AUTO 00000KT 10SM CLR 06/04 A3026 70 89 -1000 000/00 RMK AO2 T00560039
03949KAQV AQV20190319023510803/19/19 02:35:31  5-MIN KAQV 190835Z AUTO 00000KT 10SM CLR 06/04 A3025 70 89 -1000 000/00 RMK AO2 T00560039
03949KAQV AQV20190319024010803/19/19 02:40:31  5-MIN KAQV 190840Z AUTO 00000KT 10SM CLR 06/04 A3025 70 89 -1000 000/00 RMK AO2 T00560039
03949KAQV AQV20190319024510803/19/19 02:45:31  5-MIN KAQV 190845Z AUTO 00000KT 10SM CLR 05/04 A3025 70 92 -1000 000/00 RMK AO2 T00500039
03949KAQV AQV20190319025012103/19/19 02:50:31  5-MIN KAQV 190850Z AUTO 00000KT 10SM CLR 05/04 A3025 70 92 -1000 000/00 RMK AO2 SLP244 T00500039 58000
03949KAQV AQV20190319025512103/19/19 02:55:31  5-MIN KAQV 190855Z AUTO 00000KT 10SM CLR 05/04 A3025 70 92 -1000 000/00 RMK AO2 SLP244 T00500039 58000
03949KAQV AQV20190319030010803/19/19 03:00:31  5-MIN KAQV 190900Z AUTO 00000KT 10SM CLR 05/04 A3025 70 92 -1000 000/00 RMK AO2 T00500039
03949KAQV AQV20190319030510803/19/19 03:05:31  5-MIN KAQV 190905Z AUTO 00000KT 10SM CLR 05/04 A3025 70 92 -1000 000/00 RMK AO2 T00500039
03949KAQV AQV20190319031010803/19/19 03:10:31  5-MIN KAQV 190910Z AUTO 00000KT 10SM CLR 05/04 A3025 70 92 -1000 000/00 RMK AO2 T00500039
03949KAQV AQV20190319031510803/19/19 03:15:31  5-MIN KAQV 190915Z AUTO 00000KT 10SM CLR 05/03 A3025 80 89 -1000 000/00 RMK AO2 T00500033
03949KAQV AQV20190319032010803/19/19 03:20:31  5-MIN KAQV 190920Z AUTO 00000KT 10SM CLR 05/04 A3025 80 92 -1000 000/00 RMK AO2 T00500039
03949KAQV AQV20190319032510803/19/19 03:25:31  5-MIN KAQV 190925Z AUTO 00000KT 10SM CLR 05/04 A3025 80 92 -1000 000/00 RMK AO2 T00500039
03949KAQV AQV20190319033010803/19/19 03:30:31  5-MIN KAQV 190930Z AUTO 00000KT 10SM CLR 05/03 A3025 70 89 -1000 000/00 RMK AO2 T00500033
03949KAQV AQV20190319033510803/19/19 03:35:31  5-MIN KAQV 190935Z AUTO 00000KT 10SM CLR 05/03 A3025 70 89 -1000 000/00 RMK AO2 T00500033
03949KAQV AQV20190319034010803/19/19 03:40:31  5-MIN KAQV 190940Z AUTO 00000KT 10SM CLR 05/03 A3025 70 89 -1000 000/00 RMK AO2 T00500033
03949KAQV AQV20190319034510803/19/19 03:45:31  5-MIN KAQV 190945Z AUTO 00000KT 10SM CLR 05/03 A3025 80 89 -1000 000/00 RMK AO2 T00500033
03949KAQV AQV20190319035011503/19/19 03:50:31  5-MIN KAQV 190950Z AUTO 00000KT 10SM CLR 05/04 A3025 70 92 -1000 000/00 RMK AO2 SLP243 T00500039
03949KAQV AQV20190319035511503/19/19 03:55:31  5-MIN KAQV 190955Z AUTO 00000KT 10SM CLR 05/04 A3025 70 92 -1000 000/00 RMK AO2 SLP244 T00500039
03949KAQV AQV20190319040010803/19/19 04:00:31  5-MIN KAQV 191000Z AUTO 00000KT 10SM CLR 05/04 A3025 70 92 -1000 000/00 RMK AO2 T00500039
03949KAQV AQV20190319040510803/19/19 04:05:31  5-MIN KAQV 191005Z AUTO 00000KT 10SM CLR 05/04 A3025 70 92 -1000 000/00 RMK AO2 T00500039
03949KAQV AQV20190319041010803/19/19 04:10:31  5-MIN KAQV 191010Z AUTO 00000KT 10SM CLR 05/04 A3025 70 92 -1000 000/00 RMK AO2 T00500039
03949KAQV AQV20190319041510803/19/19 04:15:31  5-MIN KAQV 191015Z AUTO 00000KT 10SM CLR 05/03 A3025 70 89 -1000 000/00 RMK AO2 T00500033
03949KAQV AQV20190319042010803/19/19 04:20:31  5-MIN KAQV 191020Z AUTO 00000KT 10SM CLR 05/03 A3025 70 89 -1000 000/00 RMK AO2 T00500033
03949KAQV AQV20190319042510803/19/19 04:25:31  5-MIN KAQV 191025Z AUTO 00000KT 10SM CLR 05/03 A3025 70 89 -1000 000/00 RMK AO2 T00500033
03949KAQV AQV20190319043010803/19/19 04:30:31  5-MIN KAQV 191030Z AUTO 00000KT 10SM CLR 05/03 A3025 70 89 -1000 000/00 RMK AO2 T00500033
03949KAQV AQV20190319043510803/19/19 04:35:31  5-MIN KAQV 191035Z AUTO 00000KT 10SM CLR 05/04 A3025 70 92 -1000 000/00 RMK AO2 T00500039
03949KAQV AQV20190319044010803/19/19 04:40:31  5-MIN KAQV 191040Z AUTO 00000KT 10SM CLR 05/04 A3026 70 92 -1000 000/00 RMK AO2 T00500039
03949KAQV AQV20190319044510803/19/19 04:45:31  5-MIN KAQV 191045Z AUTO 00000KT 10SM CLR 05/04 A3026 70 92 -1000 000/00 RMK AO2 T00500039
03949KAQV AQV20190319045011403/19/19 04:50:31  5-MIN KAQV 191050Z AUTO 00000KT 9SM CLR 05/04 A3026 70 92 -1000 000/00 RMK AO2 SLP247 T00500039
03949KAQV AQV20190319045511403/19/19 04:55:31  5-MIN KAQV 191055Z AUTO 00000KT 9SM CLR 05/04 A3026 60 92 -1000 000/00 RMK AO2 SLP247 T00500039
03949KAQV AQV20190319050010803/19/19 05:00:31  5-MIN KAQV 191100Z AUTO 00000KT 10SM CLR 06/04 A3026 60 89 -1000 000/00 RMK AO2 T00560039
03949KAQV AQV20190319050510803/19/19 05:05:31  5-MIN KAQV 191105Z AUTO 00000KT 10SM CLR 06/04 A3026 60 89 -1000 000/00 RMK AO2 T00560039
03949KAQV AQV20190319051010803/19/19 05:10:31  5-MIN KAQV 191110Z AUTO 00000KT 10SM CLR 06/04 A3026 60 89 -1000 000/00 RMK AO2 T00560039
03949KAQV AQV20190319051510803/19/19 05:15:31  5-MIN KAQV 191115Z AUTO 00000KT 10SM CLR 06/04 A3026 60 89 -1000 000/00 RMK AO2 T00560039
03949KAQV AQV20190319052010803/19/19 05:20:31  5-MIN KAQV 191120Z AUTO 00000KT 10SM CLR 06/04 A3027 60 89 -1000 000/00 RMK AO2 T00560039
03949KAQV AQV20190319052510803/19/19 05:25:31  5-MIN KAQV 191125Z AUTO 00000KT 10SM CLR 06/04 A3027 60 89 -1000 000/00 RMK AO2 T00560039
03949KAQV AQV20190319053010703/19/19 05:30:31  5-MIN KAQV 191130Z AUTO VRB03KT 10SM CLR 07/04 A3027 50 82 -800 VRB/03 RMK AO2 T00670039
03949KAQV AQV20190319053510703/19/19 05:35:31  5-MIN KAQV 191135Z AUTO 06003KT 10SM CLR 07/04 A3027 50 79 -800 060/03 RMK AO2 T00720039
03949KAQV AQV20190319054010703/19/19 05:40:31  5-MIN KAQV 191140Z AUTO 00000KT 10SM CLR 07/04 A3027 50 82 -900 000/00 RMK AO2 T00670039
03949KAQV AQV20190319054510703/19/19 05:45:31  5-MIN KAQV 191145Z AUTO 00000KT 10SM CLR 08/04 A3028 50 76 -700 000/00 RMK AO2 T00780039
03949KAQV AQV20190319055013203/19/19 05:50:31  5-MIN KAQV 191150Z AUTO VRB03KT 10SM CLR 08/03 A3028 50 73 -700 VRB/03 RMK AO2 SLP253 T00780033 10078 20050 58005
03949KAQV AQV20190319055513203/19/19 05:55:31  5-MIN KAQV 191155Z AUTO 00000KT 10SM CLR 08/03 A3028 50 73 -700 000/00 RMK AO2 SLP254 T00780033 10083 20050 58005
03949KAQV AQV20190319060010703/19/19 06:00:31  5-MIN KAQV 191200Z AUTO 00000KT 10SM CLR 08/03 A3028 40 70 -700 000/00 RMK AO2 T00830033
03949KAQV AQV20190319060510703/19/19 06:05:31  5-MIN KAQV 191205Z AUTO 00000KT 10SM CLR 08/03 A3028 40 73 -700 000/00 RMK AO2 T00780033
03949KAQV AQV20190319061010703/19/19 06:10:31  5-MIN KAQV 191210Z AUTO 00000KT 10SM CLR 08/03 A3028 40 73 -700 000/00 RMK AO2 T00780033
03949KAQV AQV20190319061510703/19/19 06:15:31  5-MIN KAQV 191215Z AUTO 00000KT 10SM CLR 08/03 A3028 40 73 -700 000/00 RMK AO2 T00780033
03949KAQV AQV20190319062010703/19/19 06:20:31  5-MIN KAQV 191220Z AUTO 00000KT 10SM CLR 08/03 A3029 40 70 -700 000/00 RMK AO2 T00830033
03949KAQV AQV20190319062510703/19/19 06:25:31  5-MIN KAQV 191225Z AUTO 07003KT 10SM CLR 08/03 A3029 40 73 -700 070/03 RMK AO2 T00780033
03949KAQV AQV20190319063010703/19/19 06:30:31  5-MIN KAQV 191230Z AUTO VRB04KT 10SM CLR 08/03 A3029 40 70 -700 VRB/04 RMK AO2 T00830033
03949KAQV AQV20190319063510703/19/19 06:35:31  5-MIN KAQV 191235Z AUTO VRB03KT 10SM CLR 08/04 A3029 40 73 -700 VRB/03 RMK AO2 T00830039
03949KAQV AQV20190319064010703/19/19 06:40:31  5-MIN KAQV 191240Z AUTO VRB03KT 10SM CLR 08/03 A3029 40 70 -700 VRB/03 RMK AO2 T00830033
03949KAQV AQV20190319064510703/19/19 06:45:31  5-MIN KAQV 191245Z AUTO 00000KT 10SM CLR 08/03 A3029 40 70 -700 000/00 RMK AO2 T00830033
03949KAQV AQV20190319065011403/19/19 06:50:31  5-MIN KAQV 191250Z AUTO VRB03KT 10SM CLR 08/03 A3029 30 70 -700 VRB/03 RMK AO2 SLP259 T00830033
03949KAQV AQV20190319065511403/19/19 06:55:31  5-MIN KAQV 191255Z AUTO 00000KT 10SM CLR 08/04 A3029 30 73 -700 000/00 RMK AO2 SLP259 T00830039
03949KAQV AQV20190319070010703/19/19 07:00:31  5-MIN KAQV 191300Z AUTO VRB03KT 10SM CLR 09/04 A3030 30 71 -600 VRB/03 RMK AO2 T00890039
03949KAQV AQV20190319070510703/19/19 07:05:31  5-MIN KAQV 191305Z AUTO 00000KT 10SM CLR 09/03 A3030 30 68 -600 000/00 RMK AO2 T00890033
03949KAQV AQV20190319071010703/19/19 07:10:31  5-MIN KAQV 191310Z AUTO 00000KT 10SM CLR 09/04 A3030 20 71 -600 000/00 RMK AO2 T00890039
03949KAQV AQV20190319071510703/19/19 07:15:31  5-MIN KAQV 191315Z AUTO 00000KT 10SM CLR 09/04 A3030 20 71 -600 000/00 RMK AO2 T00890039
03949KAQV AQV20190319072010703/19/19 07:20:31  5-MIN KAQV 191320Z AUTO 00000KT 10SM CLR 09/04 A3031 20 71 -600 000/00 RMK AO2 T00890039
03949KAQV AQV20190319072510703/19/19 07:25:31  5-MIN KAQV 191325Z AUTO 00000KT 10SM CLR 09/04 A3031 20 71 -600 000/00 RMK AO2 T00890039
03949KAQV AQV20190319073010703/19/19 07:30:31  5-MIN KAQV 191330Z AUTO 00000KT 10SM CLR 09/04 A3031 20 71 -600 000/00 RMK AO2 T00890039
03949KAQV AQV20190319073510703/19/19 07:35:31  5-MIN KAQV 191335Z AUTO 00000KT 10SM CLR 09/04 A3031 20 71 -600 000/00 RMK AO2 T00940044
03949KAQV AQV20190319074010703/19/19 07:40:31  5-MIN KAQV 191340Z AUTO 00000KT 10SM CLR 09/04 A3031 20 68 -600 000/00 RMK AO2 T00940039
03949KAQV AQV20190319074510703/19/19 07:45:31  5-MIN KAQV 191345Z AUTO 00000KT 10SM CLR 09/04 A3031 10 71 -600 000/00 RMK AO2 T00940044
03949KAQV AQV20190319075011403/19/19 07:50:31  5-MIN KAQV 191350Z AUTO 00000KT 10SM CLR 10/04 A3031 10 68 -500 000/00 RMK AO2 SLP266 T01000044
03949KAQV AQV20190319075511403/19/19 07:55:31  5-MIN KAQV 191355Z AUTO 00000KT 10SM CLR 10/04 A3032 10 65 -500 000/00 RMK AO2 SLP266 T01000039
03949KAQV AQV20190319080012703/19/19 08:00:31  5-MIN KAQV 191400Z AUTO 00000KT 10SM CLR 11/04 A3032 10 63 -400 000/00 RMK AO2 T01060039/M RMK AO2 T01610017
03949KAQV AQV20190319095011203/19/19 09:50:31  5-MIN KAQV 191550Z AUTO VRB06KT 10SM CLR 16/02 A3034 0 37 200 VRB/06 RMK AO2 SLP273 T01610017
03949KAQV AQV20190319095511203/19/19 09:55:31  5-MIN KAQV 191555Z AUTO VRB04KT 10SM CLR 16/02 A3034 0 37 200 VRB/04 RMK AO2 SLP274 T01610017
03949KAQV AQV20190319100009503/19/19 10:00:31  5-MIN KAQV 191600Z AUTO 10SM CLR 16/02 A3034 0 37 200 M /M RMK AO2 T01610017
03949KAQV AQV20190319100510503/19/19 10:05:31  5-MIN KAQV 191605Z AUTO 08005KT 10SM CLR 16/02 A3034 0 37 200 080/05 RMK AO2 T01610017
03949KAQV AQV20190319101007003/19/19 10:10:31  5-MIN KAQV 191610Z AUTO VRBVRB/05 RMK AO2 T01560017
03949KAQV AQV20190319101010503/19/19 10:10:31  5-MIN KAQV 191610Z AUTO VRB03KT 10SM CLR 17/02 A3034 0 36 300 VRB/03 RMK AO2 T01720022
03949KAQV AQV20190319101510503/19/19 10:15:31  5-MIN KAQV 191615Z AUTO VRB04KT 10SM CLR 17/02 A3034 0 35 300 VRB/04 RMK AO2 T01720017
03949KAQV AQV20190319102008203/19/19 10:20:31  5-MIN KAQV 191620Z AUTO V37 200 VRB/04 RMK AO2 SLP274 T01610017
03949KAQV AQV20190319102010503/19/19 10:20:31  5-MIN KAQV 191620Z AUTO VRB05KT 10SM CLR 17/02 A3034 0 36 300 VRB/05 RMK AO2 T01720022
03949KAQV AQV20190319102510503/19/19 10:25:31  5-MIN KAQV 191625Z AUTO VRB04KT 10SM CLR 17/02 A3033 0 35 300 VRB/04 RMK AO2 T01720017
03949KAQV AQV20190319102513603/19/19 10:25:31  5-MIN KAQV 191625Z AUTO VRB04KT 10SM CLR 17/02 A3033 0 35 300 VRB/04 RMK AO2 T0172001737 200 080/05 RMK AO2 T01610017
03949KAQV AQV20190319103010503/19/19 10:30:31  5-MIN KAQV 191630Z AUTO VRB06KT 10SM CLR 17/02 A3033 0 35 300 VRB/06 RMK AO2 T01720017
03949KAQV AQV20190319103510503/19/19 10:35:31  5-MIN KAQV 191635Z AUTO VRB04KT 10SM CLR 17/02 A3033 0 35 300 VRB/04 RMK AO2 T01720017
03949KAQV AQV20190319103513603/19/19 10:35:31  5-MIN KAQV 191635Z AUTO VRB04KT 10SM CLR 17/02 A3033 0 35 300 VRB/04 RMK AO2 T0172001735 300 VRB/04 RMK AO2 T01720017
03949KAQV AQV20190319104010503/19/19 10:40:31  5-MIN KAQV 191640Z AUTO VRB03KT 10SM CLR 17/02 A3033 0 36 300 VRB/03 RMK AO2 T01720022
03949KAQV AQV20190319104510503/19/19 10:45:31  5-MIN KAQV 191645Z AUTO VRB04KT 10SM CLR 18/02 A3033 0 34 400 VRB/04 RMK AO2 T01830022
03949KAQV AQV20190319104517703/19/19 10:45:31  5-MIN KAQV 191645Z AUTO VRB04KT 10SM CLR 18/02 A3033 0 34 400 VRB/04 RMK AO2 T0183002203/19/19 10:50:KT 10SM CLR 17/02 A3033 0 35 300 VRB/04 RMK AO2 T01720017
03949KAQV AQV20190319105011203/19/19 10:50:31  5-MIN KAQV 191650Z AUTO VRB03KT 10SM CLR 18/02 A3033 0 34 400 VRB/03 RMK AO2 SLP272 T01830022
03949KAQV AQV20190319105511203/19/19 10:55:31  5-MIN KAQV 191655Z AUTO VRB03KT 10SM CLR 18/02 A3033 0 32 400 VRB/03 RMK AO2 SLP271 T01830017
03949KAQV AQV20190319110010503/19/19 11:00:31  5-MIN KAQV 191700Z AUTO VRB04KT 10SM CLR 18/02 A3033 0 34 400 VRB/04 RMK AO2 T01830022
03949KAQV AQV20190319110510503/19/19 11:05:31  5-MIN KAQV 191705Z AUTO VRB03KT 10SM CLR 18/02 A3033 0 34 400 VRB/03 RMK AO2 T01830022
03949KAQV AQV20190319111010503/19/19 11:10:31  5-MIN KAQV 191710Z AUTO VRB05KT 10SM CLR 18/02 A3033 0 34 400 VRB/05 RMK AO2 T01830022
03949KAQV AQV20190319111510603/19/19 11:15:31  5-MIN KAQV 191715Z AUTO VRB03KT 10SM CLR 18/02 A3032 10 35 400 VRB/03 RMK AO2 T01780022
03949KAQV AQV20190319112010603/19/19 11:20:31  5-MIN KAQV 191720Z AUTO VRB03KT 10SM CLR 18/02 A3032 10 34 400 VRB/03 RMK AO2 T01830022
03949KAQV AQV20190319112510603/19/19 11:25:31  5-MIN KAQV 191725Z AUTO VRB04KT 10SM CLR 19/02 A3032 10 32 500 VRB/04 RMK AO2 T01890022
03949KAQV AQV20190319113010603/19/19 11:30:31  5-MIN KAQV 191730Z AUTO VRB04KT 10SM CLR 19/03 A3032 10 34 500 VRB/04 RMK AO2 T01890028
03949KAQV AQV20190319113510603/19/19 11:35:31  5-MIN KAQV 191735Z AUTO VRB06KT 10SM CLR 18/02 A3032 10 34 400 VRB/06 RMK AO2 T01830022
03949KAQV AQV20190319114009603/19/19 11:40:31  5-MIN KAQV 191740Z AUTO 10SM CLR 18/02 A3032 10 34 400 M /M RMK AO2 T01830022
03949KAQV AQV20190319114510603/19/19 11:45:31  5-MIN KAQV 191745Z AUTO VRB04KT 10SM CLR 19/02 A3031 10 32 500 VRB/04 RMK AO2 T01890022
03949KAQV AQV20190319115013103/19/19 11:50:31  5-MIN KAQV 191750Z AUTO VRB03KT 10SM CLR 19/02 A3031 10 32 500 VRB/03 RMK AO2 SLP266 T01890022 10189 20078 51016
03949KAQV AQV20190319115513103/19/19 11:55:31  5-MIN KAQV 191755Z AUTO VRB03KT 10SM CLR 19/02 A3031 20 32 500 VRB/03 RMK AO2 SLP264 T01890022 10189 20078 51016
03949KAQV AQV20190319120010603/19/19 12:00:31  5-MIN KAQV 191800Z AUTO VRB04KT 10SM CLR 19/02 A3031 20 31 500 VRB/04 RMK AO2 T01890017
03949KAQV AQV20190319120510603/19/19 12:05:31  5-MIN KAQV 191805Z AUTO 03004KT 10SM CLR 19/03 A3030 20 33 600 030/04 RMK AO2 T01940028
03949KAQV AQV20190319121010603/19/19 12:10:31  5-MIN KAQV 191810Z AUTO VRB03KT 10SM CLR 19/02 A3030 30 32 500 VRB/03 RMK AO2 T01890022
03949KAQV AQV20190319121510603/19/19 12:15:31  5-MIN KAQV 191815Z AUTO 00000KT 10SM CLR 19/02 A3030 30 31 500 000/00 RMK AO2 T01890017
03949KAQV AQV20190319122010903/19/19 12:20:31  5-MIN KAQV 191820Z AUTO 08006KT 10SM FEW060 19/02 A3030 30 31 600 070/06 RMK AO2 T01940022
03949KAQV AQV20190319122509903/19/19 12:25:31  5-MIN KAQV 191825Z AUTO 10SM FEW055 19/02 A3029 30 30 600 M /M RMK AO2 T01940017
03949KAQV AQV20190319123010903/19/19 12:30:31  5-MIN KAQV 191830Z AUTO 07007KT 10SM SCT055 19/02 A3029 40 31 600 070/07 RMK AO2 T01940022
03949KAQV AQV20190319123510903/19/19 12:35:31  5-MIN KAQV 191835Z AUTO VRB05KT 10SM BKN055 19/02 A3029 40 31 500 VRB/05 RMK AO2 T01890017
03949KAQV AQV20190319124010903/19/19 12:40:31  5-MIN KAQV 191840Z AUTO VRB05KT 10SM BKN050 19/02 A3028 40 31 500 VRB/05 RMK AO2 T01890017
03949KAQV AQV20190319124510903/19/19 12:45:31  5-MIN KAQV 191845Z AUTO VRB03KT 10SM BKN050 19/02 A3028 40 31 600 VRB/03 RMK AO2 T01890017
03949KAQV AQV20190319125012303/19/19 12:50:31  5-MIN KAQV 191850Z AUTO VRB04KT 10SM FEW039 OVC050 19/02 A3028 50 31 600 VRB/04 RMK AO2 SLP254 T01890017
03949KAQV AQV20190319125512303/19/19 12:55:31  5-MIN KAQV 191855Z AUTO 00000KT 10SM FEW040 OVC050 19/01 A3028 50 30 600 000/00 RMK AO2 SLP253 T01890011
03949KAQV AQV20190319130011603/19/19 13:00:31  5-MIN KAQV 191900Z AUTO VRB03KT 10SM BKN045 OVC055 19/02 A3027 50 30 600 VRB/03 RMK AO2 T01940017
03949KAQV AQV20190319130510603/19/19 13:05:31  5-MIN KAQV 191905Z AUTO 10SM BKN043 OVC055 20/02 A3027 50 30 700 M /M RMK AO2 T02000022
03949KAQV AQV20190319131011503/19/19 13:10:31  5-MIN KAQV 191910Z AUTO 00000KT 9SM BKN041 OVC050 19/02 A3027 60 30 600 000/00 RMK AO2 T01940017
03949KAQV AQV20190319131510803/19/19 13:15:31  5-MIN KAQV 191915Z AUTO VRB04KT 8SM BKN039 19/02 A3026 60 31 600 VRB/04 RMK AO2 T01940022
03949KAQV AQV20190319132011503/19/19 13:20:31  5-MIN KAQV 191920Z AUTO 13004KT 8SM FEW035 BKN041 19/02 A3026 60 31 600 120/04 RMK AO2 T01890017
03949KAQV AQV20190319132511503/19/19 13:25:31  5-MIN KAQV 191925Z AUTO 00000KT 9SM FEW035 BKN043 19/02 A3025 70 31 600 000/00 RMK AO2 T01890017
03949KAQV AQV20190319133011503/19/19 13:30:31  5-MIN KAQV 191930Z AUTO 03004KT 9SM FEW035 BKN045 20/02 A3025 70 30 700 020/04 RMK AO2 T02000022
03949KAQV AQV20190319133511503/19/19 13:35:31  5-MIN KAQV 191935Z AUTO 02006KT 7SM BKN040 BKN048 20/02 A3025 70 30 700 020/06 RMK AO2 T02000022
03949KAQV AQV20190319134011103/19/19 13:40:31  5-MIN KAQV 191940Z AUTO VRB03KT 6SM HZ BKN043 20/02 A3024 80 30 700 VRB/03 RMK AO2 T02000022
03949KAQV AQV20190319134511103/19/19 13:45:31  5-MIN KAQV 191945Z AUTO VRB03KT 6SM HZ BKN043 19/02 A3024 80 31 700 VRB/03 RMK AO2 T01940022
03949KAQV AQV20190319135011803/19/19 13:50:31  5-MIN KAQV 191950Z AUTO VRB04KT 6SM HZ BKN043 21/03 A3024 90 30 800 VRB/04 RMK AO2 SLP239 T02060028
03949KAQV AQV20190319135511803/19/19 13:55:31  5-MIN KAQV 191955Z AUTO VRB03KT 5SM HZ BKN043 21/02 A3023 90 29 800 VRB/03 RMK AO2 SLP238 T02060022
03949KAQV AQV20190319140011103/19/19 14:00:31  5-MIN KAQV 192000Z AUTO 09004KT 5SM HZ BKN041 20/02 A3023 90 30 700 090/04 RMK AO2 T02000022
03949KAQV AQV20190319140511103/19/19 14:05:31  5-MIN KAQV 192005Z AUTO 05005KT 5SM HZ BKN039 20/02 A3023 90 30 700 050/05 RMK AO2 T02000022
03949KAQV AQV20190319141011203/19/19 14:10:31  5-MIN KAQV 192010Z AUTO 17006KT 5SM HZ BKN037 21/03 A3023 100 30 800 160/06 RMK AO2 T02060028
03949KAQV AQV20190319141511203/19/19 14:15:31  5-MIN KAQV 192015Z AUTO 17004KT 4SM HZ BKN037 19/02 A3022 100 31 700 170/04 RMK AO2 T01940022
03949KAQV AQV20190319142010203/19/19 14:20:31  5-MIN KAQV 192020Z AUTO 4SM HZ OVC037 20/02 A3022 100 30 700 M /M RMK AO2 T02000022
03949KAQV AQV20190319142511203/19/19 14:25:31  5-MIN KAQV 192025Z AUTO VRB04KT 5SM HZ BKN037 21/03 A3022 100 29 900 VRB/04 RMK AO2 T02110028
03949KAQV AQV20190319143011203/19/19 14:30:31  5-MIN KAQV 192030Z AUTO VRB06KT 6SM HZ BKN037 21/02 A3022 100 28 900 VRB/06 RMK AO2 T02110022
03949KAQV AQV20190319143511203/19/19 14:35:31  5-MIN KAQV 192035Z AUTO 00000KT 6SM HZ BKN037 21/02 A3021 110 28 800 000/00 RMK AO2 T02060017
03949KAQV AQV20190319144011203/19/19 14:40:31  5-MIN KAQV 192040Z AUTO VRB03KT 5SM HZ BKN037 21/02 A3021 110 29 800 VRB/03 RMK AO2 T02060022
03949KAQV AQV20190319144511203/19/19 14:45:31  5-MIN KAQV 192045Z AUTO VRB03KT 5SM HZ BKN039 21/02 A3021 110 28 900 VRB/03 RMK AO2 T02110022
03949KAQV AQV20190319145012503/19/19 14:50:31  5-MIN KAQV 192050Z AUTO 07004KT 6SM HZ SCT039 21/03 A3021 110 29 900 070/04 RMK AO2 SLP231 T02110028 58006
03949KAQV AQV20190319145512303/19/19 14:55:31  5-MIN KAQV 192055Z AUTO VRB05KT 9SM SCT039 22/03 A3021 110 28 1000 VRB/05 RMK AO2 SLP230 T02170028 58006
03949KAQV AQV20190319150011103/19/19 15:00:31  5-MIN KAQV 192100Z AUTO VRB04KT 10SM FEW039 22/03 A3021 110 28 1000 VRB/04 RMK AO2 T02170028
03949KAQV AQV20190319150511103/19/19 15:05:31  5-MIN KAQV 192105Z AUTO VRB03KT 10SM FEW039 22/03 A3021 110 28 1000 VRB/03 RMK AO2 T02170028
03949KAQV AQV20190319151010803/19/19 15:10:31  5-MIN KAQV 192110Z AUTO VRB04KT 10SM CLR 22/03 A3020 110 28 1000 VRB/04 RMK AO2 T02170028
03949KAQV AQV20190319151512403/19/19 15:15:31  5-MIN KAQV 192115Z AUTO 05007KT 010V070 10SM CLR 22/02 A3020 110 27 1000 050/07 010V070 RMK AO2 T02170022
03949KAQV AQV20190319152010703/19/19 15:20:31  5-MIN KAQV 192120Z AUTO 05004KT 10SM CLR 21/02 A3020 120 28 800 040/04 RMK AO2 T02060017
03949KAQV AQV20190319152510703/19/19 15:25:31  5-MIN KAQV 192125Z AUTO 11003KT 10SM CLR 21/02 A3020 120 28 800 100/03 RMK AO2 T02060017
03949KAQV AQV20190319153009703/19/19 15:30:31  5-MIN KAQV 192130Z AUTO 10SM CLR 21/02 A3020 120 28 900 M /M RMK AO2 T02110022
03949KAQV AQV20190319153510803/19/19 15:35:31  5-MIN KAQV 192135Z AUTO 03007KT 10SM CLR 22/02 A3020 120 27 1000 030/07 RMK AO2 T02170022
03949KAQV AQV20190319154010703/19/19 15:40:31  5-MIN KAQV 192140Z AUTO VRB04KT 10SM CLR 21/02 A3020 120 28 900 VRB/04 RMK AO2 T02110022
03949KAQV AQV20190319154510703/19/19 15:45:31  5-MIN KAQV 192145Z AUTO 03005KT 10SM CLR 21/02 A3020 120 28 900 020/05 RMK AO2 T02110022
03949KAQV AQV20190319155011403/19/19 15:50:31  5-MIN KAQV 192150Z AUTO VRB05KT 10SM CLR 21/02 A3019 120 28 900 VRB/05 RMK AO2 SLP225 T02110022
03949KAQV AQV20190319155513003/19/19 15:55:31  5-MIN KAQV 192155Z AUTO 03007KT 010V070 10SM CLR 21/02 A3019 120 28 900 020/07 010V070 RMK AO2 SLP225 T02110022
03949KAQV AQV20190319160010703/19/19 16:00:31  5-MIN KAQV 192200Z AUTO VRB06KT 10SM CLR 21/02 A3019 120 28 900 VRB/06 RMK AO2 T02110022
03949KAQV AQV20190319160510703/19/19 16:05:31  5-MIN KAQV 192205Z AUTO VRB06KT 10SM CLR 21/02 A3019 130 28 800 VRB/06 RMK AO2 T02060017
03949KAQV AQV20190319161010703/19/19 16:10:31  5-MIN KAQV 192210Z AUTO 03007KT 10SM CLR 21/02 A3019 130 28 800 020/07 RMK AO2 T02060017
03949KAQV AQV20190319161510703/19/19 16:15:31  5-MIN KAQV 192215Z AUTO VRB04KT 10SM CLR 21/02 A3019 130 28 800 VRB/04 RMK AO2 T02060017
03949KAQV AQV20190319162010703/19/19 16:20:31  5-MIN KAQV 192220Z AUTO VRB05KT 10SM CLR 21/02 A3019 130 28 900 VRB/05 RMK AO2 T02110022
03949KAQV AQV20190319162510703/19/19 16:25:31  5-MIN KAQV 192225Z AUTO 03004KT 10SM CLR 21/02 A3019 120 28 800 030/04 RMK AO2 T02060017
03949KAQV AQV20190319163010703/19/19 16:30:31  5-MIN KAQV 192230Z AUTO 00000KT 10SM CLR 21/02 A3019 130 28 900 000/00 RMK AO2 T02110022
03949KAQV AQV20190319163510703/19/19 16:35:31  5-MIN KAQV 192235Z AUTO VRB04KT 10SM CLR 21/02 A3019 130 28 900 VRB/04 RMK AO2 T02110022
03949KAQV AQV20190319164010703/19/19 16:40:31  5-MIN KAQV 192240Z AUTO 05003KT 10SM CLR 21/02 A3019 130 28 900 050/03 RMK AO2 T02110022
03949KAQV AQV20190319164510703/19/19 16:45:31  5-MIN KAQV 192245Z AUTO 00000KT 10SM CLR 21/02 A3019 130 29 800 000/00 RMK AO2 T02060022
03949KAQV AQV20190319165011403/19/19 16:50:31  5-MIN KAQV 192250Z AUTO 00000KT 10SM CLR 21/02 A3019 130 28 800 000/00 RMK AO2 SLP224 T02060017
03949KAQV AQV20190319165511403/19/19 16:55:31  5-MIN KAQV 192255Z AUTO VRB03KT 10SM CLR 21/02 A3019 130 29 800 VRB/03 RMK AO2 SLP224 T02060022
03949KAQV AQV20190319170010703/19/19 17:00:31  5-MIN KAQV 192300Z AUTO VRB04KT 10SM CLR 21/02 A3019 130 29 800 VRB/04 RMK AO2 T02060022
03949KAQV AQV20190319170510703/19/19 17:05:31  5-MIN KAQV 192305Z AUTO 00000KT 10SM CLR 21/03 A3019 130 30 800 000/00 RMK AO2 T02060028
03949KAQV AQV20190319171010703/19/19 17:10:31  5-MIN KAQV 192310Z AUTO VRB03KT 10SM CLR 21/02 A3019 130 29 800 VRB/03 RMK AO2 T02060022
03949KAQV AQV20190319171510703/19/19 17:15:31  5-MIN KAQV 192315Z AUTO 02004KT 10SM CLR 21/03 A3019 130 30 800 020/04 RMK AO2 T02060028
03949KAQV AQV20190319172010703/19/19 17:20:31  5-MIN KAQV 192320Z AUTO 06003KT 10SM CLR 20/03 A3019 130 31 800 060/03 RMK AO2 T02000028
03949KAQV AQV20190319172510703/19/19 17:25:31  5-MIN KAQV 192325Z AUTO VRB03KT 10SM CLR 20/02 A3019 130 30 800 VRB/03 RMK AO2 T02000022
03949KAQV AQV20190319173010703/19/19 17:30:31  5-MIN KAQV 192330Z AUTO 00000KT 10SM CLR 20/03 A3019 130 31 800 000/00 RMK AO2 T02000028
03949KAQV AQV20190319173510703/19/19 17:35:31  5-MIN KAQV 192335Z AUTO 03004KT 10SM CLR 19/03 A3019 130 33 700 030/04 RMK AO2 T01940028
03949KAQV AQV20190319174010703/19/19 17:40:31  5-MIN KAQV 192340Z AUTO 04003KT 10SM CLR 19/03 A3019 130 33 700 040/03 RMK AO2 T01940028
03949KAQV AQV20190319174510703/19/19 17:45:31  5-MIN KAQV 192345Z AUTO 04003KT 10SM CLR 19/03 A3019 130 33 700 040/03 RMK AO2 T01940028
03949KAQV AQV20190319175013203/19/19 17:50:31  5-MIN KAQV 192350Z AUTO 04004KT 10SM CLR 19/03 A3019 130 35 700 040/04 RMK AO2 SLP224 T01890033 10222 20183 56033
03949KAQV AQV20190319175513203/19/19 17:55:31  5-MIN KAQV 192355Z AUTO 00000KT 10SM CLR 18/04 A3019 120 39 500 000/00 RMK AO2 SLP225 T01780039 10222 20178 56033
03949KAQV AQV20190319180010703/19/19 18:00:31  5-MIN KAQV 200000Z AUTO 06004KT 10SM CLR 18/03 A3020 120 38 500 060/04 RMK AO2 T01780033
03949KAQV AQV20190319180510903/19/19 18:05:31  5-MIN KAQV 200005Z AUTO VRB03KT 9SM FEW035 18/04 A3020 120 39 500 VRB/03 RMK AO2 T01780039
03949KAQV AQV20190319181010903/19/19 18:10:31  5-MIN KAQV 200010Z AUTO 00000KT 9SM SCT035 17/04 A3020 120 42 400 000/00 RMK AO2 T01720044
03949KAQV AQV20190319181510903/19/19 18:15:31  5-MIN KAQV 200015Z AUTO 00000KT 8SM BKN033 16/04 A3020 120 45 300 000/00 RMK AO2 T01610044
03949KAQV AQV20190319182010903/19/19 18:20:31  5-MIN KAQV 200020Z AUTO 00000KT 8SM BKN033 16/04 A3020 120 47 200 000/00 RMK AO2 T01560044
03949KAQV AQV20190319182510903/19/19 18:25:31  5-MIN KAQV 200025Z AUTO 00000KT 7SM BKN033 16/05 A3020 120 49 200 000/00 RMK AO2 T01560050
03949KAQV AQV20190319183010903/19/19 18:30:31  5-MIN KAQV 200030Z AUTO 00000KT 7SM OVC033 14/05 A3020 120 53 100 000/00 RMK AO2 T01440050
03949KAQV AQV20190319183510903/19/19 18:35:31  5-MIN KAQV 200035Z AUTO 00000KT 7SM OVC034 14/05 A3020 120 53 100 000/00 RMK AO2 T01440050
03949KAQV AQV20190319184010903/19/19 18:40:31  5-MIN KAQV 200040Z AUTO 00000KT 7SM OVC036 14/05 A3020 110 53 100 000/00 RMK AO2 T01440050
03949KAQV AQV20190319184510703/19/19 18:45:31  5-MIN KAQV 200045Z AUTO 00000KT 7SM OVC038 14/04 A3021 110 52 0 000/00 RMK AO2 T01390044
03949KAQV AQV20190319185011403/19/19 18:50:31  5-MIN KAQV 200050Z AUTO 00000KT 7SM OVC038 13/05 A3021 110 57 0 000/00 RMK AO2 SLP229 T01330050
03949KAQV AQV20190319185511403/19/19 18:55:31  5-MIN KAQV 200055Z AUTO 00000KT 7SM BKN040 13/04 A3021 110 54 0 000/00 RMK AO2 SLP230 T01330044
03949KAQV AQV20190319190011003/19/19 19:00:31  5-MIN KAQV 200100Z AUTO 00000KT 6SM HZ BKN040 13/05 A3021 110 59 0 000/00 RMK AO2 T01280050
03949KAQV AQV20190319190511003/19/19 19:05:31  5-MIN KAQV 200105Z AUTO 00000KT 6SM HZ BKN040 13/05 A3021 110 59 0 000/00 RMK AO2 T01280050
03949KAQV AQV20190319191011003/19/19 19:10:31  5-MIN KAQV 200110Z AUTO 00000KT 6SM HZ SCT040 13/05 A3021 110 59 0 000/00 RMK AO2 T01280050
03949KAQV AQV20190319191511003/19/19 19:15:31  5-MIN KAQV 200115Z AUTO 00000KT 6SM HZ SCT042 13/05 A3021 110 59 0 000/00 RMK AO2 T01280050
03949KAQV AQV20190319192011003/19/19 19:20:31  5-MIN KAQV 200120Z AUTO 00000KT 6SM HZ SCT055 13/04 A3021 110 56 0 000/00 RMK AO2 T01280044
03949KAQV AQV20190319192511003/19/19 19:25:31  5-MIN KAQV 200125Z AUTO VRB03KT 6SM HZ BKN060 13/04 A3021 110 52 0 VRB/03 RMK AO2 T01330039
03949KAQV AQV20190319193011003/19/19 19:30:31  5-MIN KAQV 200130Z AUTO 00000KT 6SM HZ BKN060 14/03 A3021 110 48 0 000/00 RMK AO2 T01390033
03949KAQV AQV20190319193510703/19/19 19:35:31  5-MIN KAQV 200135Z AUTO 00000KT 7SM BKN060 13/04 A3021 110 52 0 000/00 RMK AO2 T01330039
03949KAQV AQV20190319194010703/19/19 19:40:31  5-MIN KAQV 200140Z AUTO 00000KT 7SM BKN060 13/04 A3021 110 56 0 000/00 RMK AO2 T01280044
03949KAQV AQV20190319194511303/19/19 19:45:31  5-MIN KAQV 200145Z AUTO 00000KT 6SM HZ SCT060 12/06 A3022 100 66 -200 000/00 RMK AO2 T01170056
03949KAQV AQV20190319195012003/19/19 19:50:31  5-MIN KAQV 200150Z AUTO 00000KT 6SM HZ SCT060 11/06 A3022 100 68 -200 000/00 RMK AO2 SLP233 T01110056
03949KAQV AQV20190319195512003/19/19 19:55:31  5-MIN KAQV 200155Z AUTO 00000KT 6SM HZ FEW060 11/06 A3022 100 68 -300 000/00 RMK AO2 SLP234 T01110056
03949KAQV AQV20190319200011303/19/19 20:00:31  5-MIN KAQV 200200Z AUTO 00000KT 6SM HZ FEW060 11/06 A3022 100 68 -300 000/00 RMK AO2 T01110056
03949KAQV AQV20190319200511003/19/19 20:05:31  5-MIN KAQV 200205Z AUTO 00000KT 6SM HZ CLR 11/06 A3023 100 68 -300 000/00 RMK AO2 T01110056
03949KAQV AQV20190319201010903/19/19 20:10:31  5-MIN KAQV 200210Z AUTO 00000KT 6SM HZ CLR 11/06 A3023 90 71 -300 000/00 RMK AO2 T01060056
03949KAQV AQV20190319201510903/19/19 20:15:31  5-MIN KAQV 200215Z AUTO 00000KT 6SM HZ CLR 11/06 A3023 90 74 -300 000/00 RMK AO2 T01060061
03949KAQV AQV20190319202010903/19/19 20:20:31  5-MIN KAQV 200220Z AUTO 00000KT 6SM HZ CLR 11/06 A3023 90 71 -300 000/00 RMK AO2 T01060056
03949KAQV AQV20190319202510603/19/19 20:25:31  5-MIN KAQV 200225Z AUTO 00000KT 7SM CLR 11/05 A3023 90 68 -300 000/00 RMK AO2 T01060050
03949KAQV AQV20190319203010903/19/19 20:30:31  5-MIN KAQV 200230Z AUTO 00000KT 6SM HZ CLR 11/05 A3023 90 68 -300 000/00 RMK AO2 T01060050
03949KAQV AQV20190319203510903/19/19 20:35:31  5-MIN KAQV 200235Z AUTO 00000KT 6SM HZ CLR 11/05 A3023 90 68 -300 000/00 RMK AO2 T01060050
03949KAQV AQV20190319204010903/19/19 20:40:31  5-MIN KAQV 200240Z AUTO 00000KT 6SM HZ CLR 11/04 A3023 90 66 -300 000/00 RMK AO2 T01060044
03949KAQV AQV20190319204510603/19/19 20:45:31  5-MIN KAQV 200245Z AUTO 00000KT 7SM CLR 10/04 A3023 90 68 -400 000/00 RMK AO2 T01000044
03949KAQV AQV20190319205011903/19/19 20:50:31  5-MIN KAQV 200250Z AUTO 00000KT 7SM CLR 11/04 A3024 90 66 -300 000/00 RMK AO2 SLP239 T01060044 55005
03949KAQV AQV20190319205511903/19/19 20:55:31  5-MIN KAQV 200255Z AUTO 00000KT 8SM CLR 11/04 A3024 80 66 -300 000/00 RMK AO2 SLP240 T01060044 55005
03949KAQV AQV20190319210010603/19/19 21:00:31  5-MIN KAQV 200300Z AUTO 00000KT 8SM CLR 11/04 A3024 80 61 -300 000/00 RMK AO2 T01110039
03949KAQV AQV20190319210510603/19/19 21:05:31  5-MIN KAQV 200305Z AUTO 00000KT 9SM CLR 11/04 A3024 80 61 -300 000/00 RMK AO2 T01110039
03949KAQV AQV20190319211010603/19/19 21:10:31  5-MIN KAQV 200310Z AUTO 00000KT 9SM CLR 11/04 A3024 80 66 -300 000/00 RMK AO2 T01060044
03949KAQV AQV20190319211510603/19/19 21:15:31  5-MIN KAQV 200315Z AUTO 00000KT 8SM CLR 10/05 A3024 80 71 -400 000/00 RMK AO2 T01000050
03949KAQV AQV20190319212010603/19/19 21:20:31  5-MIN KAQV 200320Z AUTO 00000KT 8SM CLR 10/05 A3024 80 71 -400 000/00 RMK AO2 T01000050
03949KAQV AQV20190319212510603/19/19 21:25:31  5-MIN KAQV 200325Z AUTO 00000KT 7SM CLR 10/05 A3025 80 71 -400 000/00 RMK AO2 T01000050
03949KAQV AQV20190319213010603/19/19 21:30:31  5-MIN KAQV 200330Z AUTO 00000KT 7SM CLR 09/06 A3025 80 76 -500 000/00 RMK AO2 T00940056
03949KAQV AQV20190319213510603/19/19 21:35:31  5-MIN KAQV 200335Z AUTO 00000KT 8SM CLR 09/06 A3025 70 76 -500 000/00 RMK AO2 T00940056
03949KAQV AQV20190319214010603/19/19 21:40:31  5-MIN KAQV 200340Z AUTO 00000KT 9SM CLR 10/05 A3025 70 71 -400 000/00 RMK AO2 T01000050
03949KAQV AQV20190319214510603/19/19 21:45:31  5-MIN KAQV 200345Z AUTO 00000KT 9SM CLR 09/04 A3025 70 68 -500 000/00 RMK AO2 T00940039
03949KAQV AQV20190319215011403/19/19 21:50:31  5-MIN KAQV 200350Z AUTO 00000KT 10SM CLR 10/03 A3025 70 63 -400 000/00 RMK AO2 SLP244 T01000033
03949KAQV AQV20190319215511403/19/19 21:55:31  5-MIN KAQV 200355Z AUTO 00000KT 10SM CLR 10/03 A3025 70 63 -400 000/00 RMK AO2 SLP244 T01000033
03949KAQV AQV20190319220010703/19/19 22:00:31  5-MIN KAQV 200400Z AUTO 00000KT 10SM CLR 09/04 A3025 70 71 -500 000/00 RMK AO2 T00940044
03949KAQV AQV20190319220510703/19/19 22:05:31  5-MIN KAQV 200405Z AUTO 00000KT 10SM CLR 09/04 A3025 70 71 -500 000/00 RMK AO2 T00940044
03949KAQV AQV20190319221010703/19/19 22:10:31  5-MIN KAQV 200410Z AUTO 00000KT 10SM CLR 10/04 A3025 70 65 -400 000/00 RMK AO2 T01000039
03949KAQV AQV20190319221510703/19/19 22:15:31  5-MIN KAQV 200415Z AUTO 00000KT 10SM CLR 10/03 A3025 70 63 -400 000/00 RMK AO2 T01000033
03949KAQV AQV20190319222010703/19/19 22:20:31  5-MIN KAQV 200420Z AUTO 00000KT 10SM CLR 09/04 A3025 70 68 -500 000/00 RMK AO2 T00940039
03949KAQV AQV20190319222510703/19/19 22:25:31  5-MIN KAQV 200425Z AUTO 00000KT 10SM CLR 09/03 A3025 70 65 -500 000/00 RMK AO2 T00940033
03949KAQV AQV20190319223010703/19/19 22:30:31  5-MIN KAQV 200430Z AUTO 00000KT 10SM CLR 09/04 A3025 70 71 -600 000/00 RMK AO2 T00890039
03949KAQV AQV20190319223510703/19/19 22:35:31  5-MIN KAQV 200435Z AUTO 00000KT 10SM CLR 08/05 A3026 70 79 -600 000/00 RMK AO2 T00830050
03949KAQV AQV20190319224010703/19/19 22:40:31  5-MIN KAQV 200440Z AUTO 00000KT 10SM CLR 08/05 A3026 70 79 -600 000/00 RMK AO2 T00830050
03949KAQV AQV20190319224510703/19/19 22:45:31  5-MIN KAQV 200445Z AUTO 00000KT 10SM CLR 08/05 A3026 70 79 -600 000/00 RMK AO2 T00830050
03949KAQV AQV20190319225011403/19/19 22:50:31  5-MIN KAQV 200450Z AUTO 00000KT 10SM CLR 08/04 A3026 70 76 -600 000/00 RMK AO2 SLP246 T00830044
03949KAQV AQV20190319225511403/19/19 22:55:31  5-MIN KAQV 200455Z AUTO 00000KT 10SM CLR 08/05 A3026 70 82 -700 000/00 RMK AO2 SLP246 T00780050
03949KAQV AQV20190319230010703/19/19 23:00:31  5-MIN KAQV 200500Z AUTO 00000KT 10SM CLR 08/05 A3026 70 82 -700 000/00 RMK AO2 T00780050
03949KAQV AQV20190319230510703/19/19 23:05:31  5-MIN KAQV 200505Z AUTO 00000KT 10SM CLR 08/04 A3025 70 79 -700 000/00 RMK AO2 T00780044
03949KAQV AQV20190319231010703/19/19 23:10:31  5-MIN KAQV 200510Z AUTO 00000KT 10SM CLR 08/04 A3025 70 76 -600 000/00 RMK AO2 T00830044
03949KAQV AQV20190319231510703/19/19 23:15:31  5-MIN KAQV 200515Z AUTO 00000KT 10SM CLR 08/04 A3025 70 73 -600 000/00 RMK AO2 T00830039
03949KAQV AQV20190319232010703/19/19 23:20:31  5-MIN KAQV 200520Z AUTO 00000KT 10SM CLR 08/03 A3025 70 70 -600 000/00 RMK AO2 T00830033
03949KAQV AQV20190319232510703/19/19 23:25:31  5-MIN KAQV 200525Z AUTO 00000KT 10SM CLR 08/03 A3025 70 70 -600 000/00 RMK AO2 T00830033
03949KAQV AQV20190319233010703/19/19 23:30:31  5-MIN KAQV 200530Z AUTO 00000KT 10SM CLR 08/04 A3025 70 76 -700 000/00 RMK AO2 T00780039
03949KAQV AQV20190319233510703/19/19 23:35:31  5-MIN KAQV 200535Z AUTO 00000KT 10SM CLR 07/04 A3025 70 82 -800 000/00 RMK AO2 T00720044
03949KAQV AQV20190319234010703/19/19 23:40:31  5-MIN KAQV 200540Z AUTO 00000KT 10SM CLR 07/04 A3025 70 82 -800 000/00 RMK AO2 T00720044
03949KAQV AQV20190319234510703/19/19 23:45:31  5-MIN KAQV 200545Z AUTO 00000KT 10SM CLR 07/04 A3025 70 82 -800 000/00 RMK AO2 T00720044
03949KAQV AQV20190319235014203/19/19 23:50:31  5-MIN KAQV 200550Z AUTO 00000KT 10SM CLR 07/04 A3025 80 79 -800 000/00 RMK AO2 SLP243 T00720039 10183 20072 402220050 53015
03949KAQV AQV20190319235514203/19/19 23:55:31  5-MIN KAQV 200555Z AUTO 00000KT 10SM CLR 07/04 A3025 80 79 -800 000/00 RMK AO2 SLP243 T00720039 10183 20072 402220050 53015
03949KAQV AQV20190320000010703/20/19 00:00:31  5-MIN KAQV 200600Z AUTO 00000KT 10SM CLR 07/04 A3024 80 82 -800 000/00 RMK AO2 T00670039
03949KAQV AQV20190320000510703/20/19 00:05:31  5-MIN KAQV 200605Z AUTO 00000KT 10SM CLR 07/04 A3024 80 86 -800 000/00 RMK AO2 T00670044
03949KAQV AQV20190320001010703/20/19 00:10:31  5-MIN KAQV 200610Z AUTO 00000KT 10SM CLR 07/04 A3024 80 86 -800 000/00 RMK AO2 T00670044
03949KAQV AQV20190320001510703/20/19 00:15:31  5-MIN KAQV 200615Z AUTO 00000KT 10SM CLR 07/04 A3024 80 82 -800 000/00 RMK AO2 T00670039
03949KAQV AQV20190320002010703/20/19 00:20:31  5-MIN KAQV 200620Z AUTO 00000KT 10SM CLR 07/04 A3024 80 82 -800 000/00 RMK AO2 T00670039
03949KAQV AQV20190320002510703/20/19 00:25:31  5-MIN KAQV 200625Z AUTO 00000KT 10SM CLR 06/04 A3024 80 86 -900 000/00 RMK AO2 T00610039
03949KAQV AQV20190320003010703/20/19 00:30:31  5-MIN KAQV 200630Z AUTO 00000KT 10SM CLR 07/04 A3024 80 82 -800 000/00 RMK AO2 T00670039
03949KAQV AQV20190320003510703/20/19 00:35:31  5-MIN KAQV 200635Z AUTO 00000KT 10SM CLR 07/04 A3024 80 82 -800 000/00 RMK AO2 T00670039
03949KAQV AQV20190320004010703/20/19 00:40:31  5-MIN KAQV 200640Z AUTO 00000KT 10SM CLR 07/04 A3024 80 82 -800 000/00 RMK AO2 T00670039
03949KAQV AQV20190320004510703/20/19 00:45:31  5-MIN KAQV 200645Z AUTO 00000KT 10SM CLR 07/04 A3024 80 82 -800 000/00 RMK AO2 T00670039
03949KAQV AQV20190320005011403/20/19 00:50:31  5-MIN KAQV 200650Z AUTO 00000KT 10SM CLR 07/04 A3024 80 82 -800 000/00 RMK AO2 SLP240 T00670039
03949KAQV AQV20190320005511403/20/19 00:55:31  5-MIN KAQV 200655Z AUTO 00000KT 10SM CLR 07/04 A3024 80 82 -800 000/00 RMK AO2 SLP240 T00670039
03949KAQV AQV20190320010010703/20/19 01:00:31  5-MIN KAQV 200700Z AUTO 00000KT 10SM CLR 07/04 A3023 90 82 -800 000/00 RMK AO2 T00670039
03949KAQV AQV20190320010510703/20/19 01:05:31  5-MIN KAQV 200705Z AUTO 00000KT 10SM CLR 07/04 A3023 90 82 -800 000/00 RMK AO2 T00670039
03949KAQV AQV20190320011010703/20/19 01:10:31  5-MIN KAQV 200710Z AUTO 00000KT 10SM CLR 07/04 A3023 90 82 -800 000/00 RMK AO2 T00670039
03949KAQV AQV20190320011510703/20/19 01:15:31  5-MIN KAQV 200715Z AUTO 00000KT 10SM CLR 07/04 A3023 90 82 -800 000/00 RMK AO2 T00670039
03949KAQV AQV20190320012010803/20/19 01:20:31  5-MIN KAQV 200720Z AUTO 00000KT 10SM CLR 07/04 A3023 100 82 -800 000/00 RMK AO2 T00670039
03949KAQV AQV20190320012510803/20/19 01:25:31  5-MIN KAQV 200725Z AUTO 00000KT 10SM CLR 07/04 A3023 100 82 -800 000/00 RMK AO2 T00670039
03949KAQV AQV20190320013010803/20/19 01:30:31  5-MIN KAQV 200730Z AUTO 00000KT 10SM CLR 07/03 A3022 100 79 -800 000/00 RMK AO2 T00670033
03949KAQV AQV20190320013510803/20/19 01:35:31  5-MIN KAQV 200735Z AUTO 00000KT 10SM CLR 07/03 A3022 100 79 -800 000/00 RMK AO2 T00670033
03949KAQV AQV20190320014010803/20/19 01:40:31  5-MIN KAQV 200740Z AUTO 00000KT 10SM CLR 07/03 A3022 100 76 -800 000/00 RMK AO2 T00670028
03949KAQV AQV20190320014510803/20/19 01:45:31  5-MIN KAQV 200745Z AUTO 00000KT 10SM CLR 07/03 A3022 100 73 -700 000/00 RMK AO2 T00720028
03949KAQV AQV20190320015011503/20/19 01:50:31  5-MIN KAQV 200750Z AUTO 00000KT 10SM CLR 07/03 A3022 100 79 -800 000/00 RMK AO2 SLP232 T00670033
03949KAQV AQV20190320015511503/20/19 01:55:31  5-MIN KAQV 200755Z AUTO 00000KT 10SM CLR 07/04 A3022 100 82 -800 000/00 RMK AO2 SLP232 T00670039
03949KAQV AQV20190320020010803/20/19 02:00:31  5-MIN KAQV 200800Z AUTO 00000KT 10SM CLR 07/04 A3022 100 82 -800 000/00 RMK AO2 T00670039
03949KAQV AQV20190320020510803/20/19 02:05:31  5-MIN KAQV 200805Z AUTO 00000KT 10SM CLR 06/03 A3022 100 82 -900 000/00 RMK AO2 T00610033
03949KAQV AQV20190320021010803/20/19 02:10:31  5-MIN KAQV 200810Z AUTO 00000KT 10SM CLR 06/03 A3022 100 82 -900 000/00 RMK AO2 T00610033
03949KAQV AQV20190320021510803/20/19 02:15:31  5-MIN KAQV 200815Z AUTO 00000KT 10SM CLR 06/03 A3021 110 79 -900 000/00 RMK AO2 T00610028
03949KAQV AQV20190320022010803/20/19 02:20:31  5-MIN KAQV 200820Z AUTO 00000KT 10SM CLR 06/03 A3021 110 79 -900 000/00 RMK AO2 T00610028
03949KAQV AQV20190320022510803/20/19 02:25:31  5-MIN KAQV 200825Z AUTO 00000KT 10SM CLR 06/03 A3021 110 82 -800 000/00 RMK AO2 T00610033
03949KAQV AQV20190320023010803/20/19 02:30:31  5-MIN KAQV 200830Z AUTO 00000KT 10SM CLR 06/03 A3021 110 82 -800 000/00 RMK AO2 T00610033
03949KAQV AQV20190320023510803/20/19 02:35:31  5-MIN KAQV 200835Z AUTO 00000KT 10SM CLR 06/03 A3021 110 82 -900 000/00 RMK AO2 T00610033
03949KAQV AQV20190320024010803/20/19 02:40:31  5-MIN KAQV 200840Z AUTO 00000KT 10SM CLR 06/04 A3021 110 86 -800 000/00 RMK AO2 T00610039
03949KAQV AQV20190320024510803/20/19 02:45:31  5-MIN KAQV 200845Z AUTO 00000KT 10SM CLR 06/04 A3021 110 86 -800 000/00 RMK AO2 T00610039
03949KAQV AQV20190320025012103/20/19 02:50:31  5-MIN KAQV 200850Z AUTO 00000KT 10SM CLR 06/04 A3021 110 86 -800 000/00 RMK AO2 SLP229 T00610039 50002
03949KAQV AQV20190320025512103/20/19 02:55:31  5-MIN KAQV 200855Z AUTO 00000KT 10SM CLR 06/04 A3021 110 89 -800 000/00 RMK AO2 SLP228 T00610044 50002
03949KAQV AQV20190320030010803/20/19 03:00:31  5-MIN KAQV 200900Z AUTO 00000KT 10SM CLR 06/04 A3021 110 89 -800 000/00 RMK AO2 T00610044
03949KAQV AQV20190320030510803/20/19 03:05:31  5-MIN KAQV 200905Z AUTO 00000KT 10SM CLR 06/04 A3020 110 89 -800 000/00 RMK AO2 T00610044
03949KAQV AQV20190320031010803/20/19 03:10:31  5-MIN KAQV 200910Z AUTO 00000KT 10SM CLR 06/04 A3020 120 86 -800 000/00 RMK AO2 T00610039
03949KAQV AQV20190320031510803/20/19 03:15:31  5-MIN KAQV 200915Z AUTO 00000KT 10SM CLR 06/03 A3020 120 82 -800 000/00 RMK AO2 T00610033
03949KAQV AQV20190320032010803/20/19 03:20:31  5-MIN KAQV 200920Z AUTO 00000KT 10SM CLR 06/03 A3020 120 82 -800 000/00 RMK AO2 T00610033
03949KAQV AQV20190320032510803/20/19 03:25:31  5-MIN KAQV 200925Z AUTO 00000KT 10SM CLR 07/03 A3020 120 79 -800 000/00 RMK AO2 T00670033
03949KAQV AQV20190320033010803/20/19 03:30:31  5-MIN KAQV 200930Z AUTO 00000KT 10SM CLR 07/03 A3020 120 73 -700 000/00 RMK AO2 T00720028
03949KAQV AQV20190320033510803/20/19 03:35:31  5-MIN KAQV 200935Z AUTO 00000KT 10SM CLR 07/03 A3020 120 79 -800 000/00 RMK AO2 T00670033
03949KAQV AQV20190320034010803/20/19 03:40:31  5-MIN KAQV 200940Z AUTO VRB03KT 10SM CLR 06/04 A3020 120 86 -800 VRB/03 RMK AO2 T00610039
03949KAQV AQV20190320034510803/20/19 03:45:31  5-MIN KAQV 200945Z AUTO 00000KT 10SM CLR 07/03 A3020 120 76 -700 000/00 RMK AO2 T00720033
03949KAQV AQV20190320035011503/20/19 03:50:31  5-MIN KAQV 200950Z AUTO 00000KT 10SM CLR 07/04 A3019 120 82 -800 000/00 RMK AO2 SLP224 T00670039
03949KAQV AQV20190320035511503/20/19 03:55:31  5-MIN KAQV 200955Z AUTO 00000KT 10SM CLR 06/04 A3019 120 89 -800 000/00 RMK AO2 SLP224 T00610044
03949KAQV AQV20190320040010803/20/19 04:00:31  5-MIN KAQV 201000Z AUTO 00000KT 10SM CLR 06/04 A3019 120 89 -800 000/00 RMK AO2 T00610044
03949KAQV AQV20190320040510803/20/19 04:05:31  5-MIN KAQV 201005Z AUTO 00000KT 10SM CLR 06/04 A3019 120 89 -800 000/00 RMK AO2 T00610044
03949KAQV AQV20190320041010803/20/19 04:10:31  5-MIN KAQV 201010Z AUTO 00000KT 10SM CLR 06/04 A3020 120 89 -900 000/00 RMK AO2 T00560039
03949KAQV AQV20190320041510803/20/19 04:15:31  5-MIN KAQV 201015Z AUTO 00000KT 10SM CLR 06/04 A3020 120 89 -900 000/00 RMK AO2 T00560039
03949KAQV AQV20190320042011103/20/19 04:20:31  5-MIN KAQV 201020Z AUTO 00000KT 10SM FEW120 06/04 A3020 120 89 -900 000/00 RMK AO2 T00560039
03949KAQV AQV20190320042511103/20/19 04:25:31  5-MIN KAQV 201025Z AUTO 00000KT 10SM SCT120 06/04 A3020 120 89 -900 000/00 RMK AO2 T00560039
03949KAQV AQV20190320043011103/20/19 04:30:31  5-MIN KAQV 201030Z AUTO 00000KT 10SM SCT120 06/03 A3020 120 85 -900 000/00 RMK AO2 T00560033
03949KAQV AQV20190320043511703/20/19 04:35:31  5-MIN KAQV 201035Z AUTO 00000KT 10SM FEW120 06/03 A3020 A3023 90 89 -1100 000/00 RMK AO2 T00440028
03949KAQV AQV20190320061511403/20/19 06:15:31  5-MIN KAQV 201215Z AUTO 00000KT 1 1/4SM BR CLR 04/03 A3023 90 89 -1100 000/00 RMK AO2 T00440028
03949KAQV AQV20190320062011403/20/19 06:20:31  5-MIN KAQV 201220Z AUTO 00000KT 1 1/4SM BR CLR 04/03 A3023 90 89 -1100 000/00 RMK AO2 T00440028
03949KAQV AQV20190320062511403/20/19 06:25:31  5-MIN KAQV 201225Z AUTO 00000KT 1 1/2SM BR CLR 04/03 A3023 90 89 -1100 000/00 RMK AO2 T00440028
03949KAQV AQV20190320063011403/20/19 06:30:31  5-MIN KAQV 201230Z AUTO 00000KT 1 3/4SM BR CLR 04/03 A3023 90 89 -1100 000/00 RMK AO2 T00440028
03949KAQV AQV20190320063015203/20/19 06:30:31  5-MIN KAQV 201230Z AUTO 00000KT 1 3/4SM BR CLR 04/03 A3023 90 89 -1100 000/00 RMK AO2 T00440028 100 89 -1100 000/00 RMK AO2 T00440028
03949KAQV AQV20190320063511403/20/19 06:35:31  5-MIN KAQV 201235Z AUTO 00000KT 1 3/4SM BR CLR 04/03 A3023 90 89 -1100 000/00 RMK AO2 T00440028
03949KAQV AQV20190320064011403/20/19 06:40:31  5-MIN KAQV 201240Z AUTO 00000KT 1 1/2SM BR CLR 04/03 A3023 90 92 -1100 000/00 RMK AO2 T00440033
03949KAQV AQV20190320064015203/20/19 06:40:31  5-MIN KAQV 201240Z AUTO 00000KT 1 1/2SM BR CLR 04/03 A3023 90 92 -1100 000/00 RMK AR 04/03 A3023 90 89 -1100 000/00 RMK AO2 T00440028
03949KAQV AQV20190320064511403/20/19 06:45:31  5-MIN KAQV 201245Z AUTO 00000KT 1 1/2SM BR CLR 04/03 A3023 90 92 -1100 000/00 RMK AO2 T00440033
03949KAQV AQV20190320065012103/20/19 06:50:31  5-MIN KAQV 201250Z AUTO 00000KT 1 1/2SM BR CLR 04/03 A3023 90 92 -1100 000/00 RMK AO2 SLP239 T00440033
03949KAQV AQV20190320065015203/20/19 06:50:31  5-MIN KAQV 201250Z AUTO 00000KT 1 1/2SM BR CLR 04/03 A0Z AUTO 00000KT 1 3/4SM BR CLR 04/03 A3023 90 89 -1100 000/00 RMK AO2 T00440028
03949KAQV AQV20190320065512103/20/19 06:55:31  5-MIN KAQV 201255Z AUTO 00000KT 1 1/2SM BR CLR 05/03 A3024 90 89 -1000 000/00 RMK AO2 SLP240 T00500033
03949KAQV AQV20190320070011403/20/19 07:00:31  5-MIN KAQV 201300Z AUTO 00000KT 1 3/4SM BR CLR 05/03 A3024 80 89 -1000 000/00 RMK AO2 T00500033
03949KAQV AQV20190320070014003/20/19 07:00:31  5-MIN KAQV 201300Z AUTO 00000KT 1AQV 201240Z AUTO 00000KT 1 1/2SM BR CLR 04/03 A3023 90 92 -1100 000/00 RMK AO2 T00440033
03949KAQV AQV20190320070511303/20/19 07:05:31  5-MIN KAQV 201305Z AUTO 00000KT 2 1/2SM BR CLR 06/04 A3024 80 89 -900 000/00 RMK AO2 T00560039
03949KAQV AQV20190320070516203/20/19 07:05:31  5-MIN KAQV 201305Z AUTO 00000KT 2 1/2SM BR CLR 06/04 A3024 80 89 -900 000/00 RMK AO2 T00560039A3023 90 92 -1100 000/00 RMK AO2 SLP239 T00440033
03949KAQV AQV20190320071011003/20/19 07:10:31  5-MIN KAQV 201310Z AUTO 00000KT 3SM BR CLR 06/04 A3024 80 92 -1000 000/00 RMK AO2 T00560044
03949KAQV AQV20190320071510903/20/19 07:15:31  5-MIN KAQV 201315Z AUTO 00000KT 6SM BR CLR 06/04 A3024 80 89 -900 000/00 RMK AO2 T00610044
03949KAQV AQV20190320072010703/20/19 07:20:31  5-MIN KAQV 201320Z AUTO 00000KT 10SM CLR 07/04 A3024 80 82 -800 000/00 RMK AO2 T00670039
03949KAQV AQV20190320072510703/20/19 07:25:31  5-MIN KAQV 201325Z AUTO 00000KT 10SM CLR 07/04 A3024 80 82 -700 000/00 RMK AO2 T00720044
03949KAQV AQV20190320073010703/20/19 07:30:31  5-MIN KAQV 201330Z AUTO 00000KT 10SM CLR 08/05 A3024 80 79 -600 000/00 RMK AO2 T00830050
03949KAQV AQV20190320073510703/20/19 07:35:31  5-MIN KAQV 201335Z AUTO 00000KT 10SM CLR 09/06 A3025 80 79 -500 000/00 RMK AO2 T00890056
03949KAQV AQV20190320074010703/20/19 07:40:31  5-MIN KAQV 201340Z AUTO 00000KT 10SM CLR 09/06 A3025 80 79 -500 000/00 RMK AO2 T00940061
03949KAQV AQV20190320074510703/20/19 07:45:31  5-MIN KAQV 201345Z AUTO 00000KT 10SM CLR 10/06 A3025 80 77 -400 000/00 RMK AO2 T01000061
03949KAQV AQV20190320075011403/20/19 07:50:31  5-MIN KAQV 201350Z AUTO 00000KT 10SM CLR 11/06 A3025 80 74 -300 000/00 RMK AO2 SLP243 T01060061
03949KAQV AQV20190320075511403/20/19 07:55:31  5-MIN KAQV 201355Z AUTO 00000KT 10SM CLR 12/04 A3025 80 58 -200 000/00 RMK AO2 SLP243 T01170039
03949KAQV AQV20190320080010703/20/19 08:00:31  5-MIN KAQV 201400Z AUTO 00000KT 10SM CLR 12/03 A3025 70 54 -200 000/00 RMK AO2 T01170028
03949KAQV AQV20190320080510703/20/19 08:05:31  5-MIN KAQV 201405Z AUTO 00000KT 10SM CLR 12/03 A3025 70 54 -200 000/00 RMK AO2 T01170028
03949KAQV AQV20190320081010703/20/19 08:10:31  5-MIN KAQV 201410Z AUTO 00000KT 10SM CLR 12/02 A3025 70 50 -200 000/00 RMK AO2 T01220022
03949KAQV AQV20190320081510703/20/19 08:15:31  5-MIN KAQV 201415Z AUTO 00000KT 10SM CLR 12/02 A3025 70 48 -200 000/00 RMK AO2 T01220017
03949KAQV AQV20190320082010703/20/19 08:20:31  5-MIN KAQV 201420Z AUTO 00000KT 10SM CLR 12/02 A3025 70 48 -200 000/00 RMK AO2 T01220017
03949KAQV AQV20190320082510703/20/19 08:25:31  5-MIN KAQV 201425Z AUTO 00000KT 10SM CLR 13/02 A3025 70 46 -100 000/00 RMK AO2 T01280017
03949KAQV AQV20190320083010703/20/19 08:30:31  5-MIN KAQV 201430Z AUTO 18003KT 10SM CLR 13/01 A3025 70 44 -100 180/03 RMK AO2 T01280011
03949KAQV AQV20190320083510403/20/19 08:35:31  5-MIN KAQV 201435Z AUTO 00000KT 10SM CLR 13/02 A3026 70 45 0 000/00 RMK AO2 T01330017
03949KAQV AQV20190320084010403/20/19 08:40:31  5-MIN KAQV 201440Z AUTO 00000KT 10SM CLR 14/02 A3026 60 43 0 000/00 RMK AO2 T01390017
03949KAQV AQV20190320084510403/20/19 08:45:31  5-MIN KAQV 201445Z AUTO 00000KT 10SM CLR 14/02 A3026 60 43 0 000/00 RMK AO2 T01390017
03949KAQV AQV20190320085011903/20/19 08:50:31  5-MIN KAQV 201450Z AUTO 00000KT 10SM CLR 14/01 A3026 60 40 100 000/00 RMK AO2 SLP248 T01440011 53005
03949KAQV AQV20190320085511903/20/19 08:55:31  5-MIN KAQV 201455Z AUTO 00000KT 10SM CLR 14/01 A3026 60 38 100 000/00 RMK AO2 SLP247 T01440006 53005
03949KAQV AQV20190320090010603/20/19 09:00:31  5-MIN KAQV 201500Z AUTO 00000KT 10SM CLR 14/01 A3026 60 38 100 000/00 RMK AO2 T01440006
03949KAQV AQV20190320090510603/20/19 09:05:31  5-MIN KAQV 201505Z AUTO 00000KT 10SM CLR 15/00 A3026 60 35 100 000/00 RMK AO2 T01500000
03949KAQV AQV20190320091010703/20/19 09:10:31  5-MIN KAQV 201510Z AUTO 00000KT 10SM CLR 15/M01 A3026 60 34 100 000/00 RMK AO2 T01501006
03949KAQV AQV20190320091510703/20/19 09:15:31  5-MIN KAQV 201515Z AUTO 00000KT 10SM CLR 16/M01 A3026 60 33 200 000/00 RMK AO2 T01561006
03949KAQV AQV20190320092010603/20/19 09:20:31  5-MIN KAQV 201520Z AUTO VRB03KT 10SM CLR 16/00 A3026 60 33 200 VRB/03 RMK AO2 T01610000
03949KAQV AQV20190320092510703/20/19 09:25:31  5-MIN KAQV 201525Z AUTO 00000KT 10SM CLR 16/M01 A3026 60 33 200 000/00 RMK AO2 T01561006
03949KAQV AQV20190320093010603/20/19 09:30:31  5-MIN KAQV 201530Z AUTO VRB03KT 10SM CLR 17/00 A3026 60 32 300 VRB/03 RMK AO2 T01670000
03949KAQV AQV20190320093510503/20/19 09:35:31  5-MIN KAQV 201535Z AUTO 00000KT 8SM CLR 17/00 A3026 60 32 300 000/00 RMK AO2 T01670000
03949KAQV AQV20190320094010603/20/19 09:40:31  5-MIN KAQV 201540Z AUTO 17003KT 8SM CLR 16/M01 A3026 60 32 300 170/03 RMK AO2 T01611006
03949KAQV AQV20190320094510503/20/19 09:45:31  5-MIN KAQV 201545Z AUTO 00000KT 9SM CLR 17/00 A3026 70 32 300 000/00 RMK AO2 T01670000
03949KAQV AQV20190320095011303/20/19 09:50:31  5-MIN KAQV 201550Z AUTO 00000KT 10SM CLR 17/00 A3026 70 31 400 000/00 RMK AO2 SLP245 T01720000
03949KAQV AQV20190320095511403/20/19 09:55:31  5-MIN KAQV 201555Z AUTO 00000KT 10SM CLR 17/M01 A3026 70 29 400 000/00 RMK AO2 SLP245 T01721006
03949KAQV AQV20190320100010703/20/19 10:00:31  5-MIN KAQV 201600Z AUTO 00000KT 10SM CLR 18/M01 A3025 70 28 500 000/00 RMK AO2 T01781006
03949KAQV AQV20190320100510603/20/19 10:05:31  5-MIN KAQV 201605Z AUTO VRB03KT 10SM CLR 18/01 A3025 70 31 500 VRB/03 RMK AO2 T01780006
03949KAQV AQV20190320101010603/20/19 10:10:31  5-MIN KAQV 201610Z AUTO 00000KT 10SM CLR 18/00 A3025 70 30 500 000/00 RMK AO2 T01780000
03949KAQV AQV20190320101510603/20/19 10:15:31  5-MIN KAQV 201615Z AUTO 00000KT 10SM CLR 18/01 A3025 70 30 500 000/00 RMK AO2 T01830006
03949KAQV AQV20190320102010603/20/19 10:20:31  5-MIN KAQV 201620Z AUTO 36003KT 10SM CLR 19/01 A3025 80 29 600 360/03 RMK AO2 T01890006
03949KAQV AQV20190320102510603/20/19 10:25:31  5-MIN KAQV 201625Z AUTO 01003KT 10SM CLR 19/01 A3025 80 29 600 010/03 RMK AO2 T01890006
03949KAQV AQV20190320103010903/20/19 10:30:31  5-MIN KAQV 201630Z AUTO 00000KT 10SM FEW110 19/01 A3024 80 29 600 000/00 RMK AO2 T01890006
03949KAQV AQV20190320103510903/20/19 10:35:31  5-MIN KAQV 201635Z AUTO 00000KT 10SM FEW110 19/01 A3024 80 29 700 000/00 RMK AO2 T01940011
03949KAQV AQV20190320104010903/20/19 10:40:31  5-MIN KAQV 201640Z AUTO VRB03KT 10SM FEW110 19/01 A3024 80 29 700 VRB/03 RMK AO2 T01940011
03949KAQV AQV20190320104510803/20/19 10:45:31  5-MIN KAQV 201645Z AUTO 35005KT 8SM FEW110 19/01 A3024 80 29 700 340/05 RMK AO2 T01940011
03949KAQV AQV20190320105011503/20/19 10:50:31  5-MIN KAQV 201650Z AUTO VRB03KT 8SM FEW110 20/02 A3024 80 29 700 VRB/03 RMK AO2 SLP239 T02000017
03949KAQV AQV20190320105511603/20/19 10:55:31  5-MIN KAQV 201655Z AUTO 00000KT 10SM FEW110 20/02 A3024 90 29 700 000/00 RMK AO2 SLP238 T02000017
03949KAQV AQV20190320110010903/20/19 11:00:31  5-MIN KAQV 201700Z AUTO VRB05KT 10SM FEW110 19/02 A3023 90 30 700 VRB/05 RMK AO2 T01940017
03949KAQV AQV20190320110510603/20/19 11:05:31  5-MIN KAQV 201705Z AUTO VRB04KT 10SM CLR 20/02 A3023 90 30 700 VRB/04 RMK AO2 T02000022
03949KAQV AQV20190320111010603/20/19 11:10:31  5-MIN KAQV 201710Z AUTO 00000KT 10SM CLR 20/02 A3023 90 30 700 000/00 RMK AO2 T02000022
03949KAQV AQV20190320111510603/20/19 11:15:31  5-MIN KAQV 201715Z AUTO VRB03KT 10SM CLR 21/03 A3023 90 30 800 VRB/03 RMK AO2 T02060028
03949KAQV AQV20190320112010703/20/19 11:20:31  5-MIN KAQV 201720Z AUTO VRB04KT 10SM CLR 19/03 A3023 100 33 700 VRB/04 RMK AO2 T01940028
03949KAQV AQV20190320112510703/20/19 11:25:31  5-MIN KAQV 201725Z AUTO VRB04KT 10SM CLR 21/03 A3022 100 30 800 VRB/04 RMK AO2 T02060028
03949KAQV AQV20190320113010703/20/19 11:30:31  5-MIN KAQV 201730Z AUTO VRB03KT 10SM CLR 20/03 A3022 100 31 700 VRB/03 RMK AO2 T02000028
03949KAQV AQV20190320113510703/20/19 11:35:31  5-MIN KAQV 201735Z AUTO VRB03KT 10SM CLR 19/03 A3022 100 33 700 VRB/03 RMK AO2 T01940028
03949KAQV AQV20190320114010703/20/19 11:40:31  5-MIN KAQV 201740Z AUTO 03006KT 10SM CLR 20/03 A3022 100 31 800 030/06 RMK AO2 T02000028
03949KAQV AQV20190320114510703/20/19 11:45:31  5-MIN KAQV 201745Z AUTO 00000KT 10SM CLR 20/03 A3021 100 31 800 000/00 RMK AO2 T02000028
03949KAQV AQV20190320115013203/20/19 11:50:31  5-MIN KAQV 201750Z AUTO 00000KT 10SM CLR 21/03 A3021 110 30 900 000/00 RMK AO2 SLP230 T02110033 10211 20044 51013
03949KAQV AQV20190320115513303/20/19 11:55:31  5-MIN KAQV 201755Z AUTO VRB04KT 10SM CLR 22/04 A3021 110 31 1000 VRB/04 RMK AO2 SLP228 T02170039 10217 20044 51013
03949KAQV AQV20190320120010703/20/19 12:00:31  5-MIN KAQV 201800Z AUTO VRB04KT 10SM CLR 21/03 A3020 120 30 900 VRB/04 RMK AO2 T02110033
03949KAQV AQV20190320120510803/20/19 12:05:31  5-MIN KAQV 201805Z AUTO VRB03KT 10SM CLR 22/03 A3020 120 29 1000 VRB/03 RMK AO2 T02170033
03949KAQV AQV20190320121010703/20/19 12:10:31  5-MIN KAQV 201810Z AUTO VRB03KT 10SM CLR 21/04 A3020 120 32 900 VRB/03 RMK AO2 T02110039
03949KAQV AQV20190320121510703/20/19 12:15:31  5-MIN KAQV 201815Z AUTO VRB03KT 10SM CLR 21/03 A3020 120 30 900 VRB/03 RMK AO2 T02110033
03949KAQV AQV20190320122012403/20/19 12:20:31  5-MIN KAQV 201820Z AUTO 35007KT 320V030 10SM CLR 22/04 A3020 120 30 1000 350/07 320V030 RMK AO2 T02220039
03949KAQV AQV20190320122510803/20/19 12:25:31  5-MIN KAQV 201825Z AUTO VRB04KT 10SM CLR 22/04 A3019 120 31 1000 VRB/04 RMK AO2 T02170039
03949KAQV AQV20190320123010803/20/19 12:30:31  5-MIN KAQV 201830Z AUTO 00000KT 10SM CLR 22/04 A3019 130 30 1000 000/00 RMK AO2 T02220039
03949KAQV AQV20190320123510803/20/19 12:35:31  5-MIN KAQV 201835Z AUTO VRB05KT 10SM CLR 22/04 A3019 130 30 1000 VRB/05 RMK AO2 T02220039
03949KAQV AQV20190320124010803/20/19 12:40:31  5-MIN KAQV 201840Z AUTO VRB03KT 10SM CLR 22/04 A3019 130 31 1000 VRB/03 RMK AO2 T02170039
03949KAQV AQV20190320124509803/20/19 12:45:31  5-MIN KAQV 201845Z AUTO 10SM CLR 22/04 A3019 130 30 1000 M /M RMK AO2 T02220039
03949KAQV AQV20190320125011503/20/19 12:50:31  5-MIN KAQV 201850Z AUTO VRB03KT 10SM CLR 22/03 A3018 140 29 1000 VRB/03 RMK AO2 SLP220 T02170033
03949KAQV AQV20190320125511403/20/19 12:55:31  5-MIN KAQV 201855Z AUTO 03005KT 9SM CLR 22/03 A3018 140 28 1100 020/05 RMK AO2 SLP219 T02220033
03949KAQV AQV20190320130010703/20/19 13:00:31  5-MIN KAQV 201900Z AUTO VRB04KT 9SM CLR 22/04 A3018 140 30 1100 VRB/04 RMK AO2 T02220039
03949KAQV AQV20190320130510803/20/19 13:05:31  5-MIN KAQV 201905Z AUTO VRB04KT 10SM CLR 23/04 A3017 150 30 1100 VRB/04 RMK AO2 T02280044
03949KAQV AQV20190320131010803/20/19 13:10:31  5-MIN KAQV 201910Z AUTO VRB05KT 10SM CLR 23/04 A3017 150 30 1100 VRB/05 RMK AO2 T02280044
03949KAQV AQV20190320131510803/20/19 13:15:31  5-MIN KAQV 201915Z AUTO VRB04KT 10SM CLR 22/04 A3016 150 31 1100 VRB/04 RMK AO2 T02220044
03949KAQV AQV20190320132010803/20/19 13:20:31  5-MIN KAQV 201920Z AUTO 36007KT 10SM CLR 23/04 A3016 150 29 1200 350/07 RMK AO2 T02330044
03949KAQV AQV20190320132510803/20/19 13:25:31  5-MIN KAQV 201925Z AUTO VRB03KT 10SM CLR 22/04 A3016 160 30 1100 VRB/03 RMK AO2 T02220039
03949KAQV AQV20190320133009803/20/19 13:30:31  5-MIN KAQV 201930Z AUTO 10SM CLR 23/04 A3016 160 30 1100 M /M RMK AO2 T02280044
03949KAQV AQV20190320133510803/20/19 13:35:31  5-MIN KAQV 201935Z AUTO VRB04KT 10SM CLR 22/04 A3015 160 31 1100 VRB/04 RMK AO2 T02220044
03949KAQV AQV20190320134010803/20/19 13:40:31  5-MIN KAQV 201940Z AUTO VRB04KT 10SM CLR 22/04 A3015 170 30 1100 VRB/04 RMK AO2 T02220039
03949KAQV AQV20190320134510803/20/19 13:45:31  5-MIN KAQV 201945Z AUTO 00000KT 10SM CLR 23/04 A3014 170 30 1200 000/00 RMK AO2 T02280044
03949KAQV AQV20190320135011503/20/19 13:50:31  5-MIN KAQV 201950Z AUTO VRB03KT 10SM CLR 22/04 A3014 170 31 1100 VRB/03 RMK AO2 SLP207 T02220044
03949KAQV AQV20190320135511503/20/19 13:55:31  5-MIN KAQV 201955Z AUTO VRB03KT 10SM CLR 22/04 A3014 170 30 1100 VRB/03 RMK AO2 SLP206 T02220039
03949KAQV AQV20190320140010803/20/19 14:00:31  5-MIN KAQV 202000Z AUTO 15003KT 10SM CLR 22/04 A3014 180 31 1000 140/03 RMK AO2 T02170039
03949KAQV AQV20190320140509803/20/19 14:05:31  5-MIN KAQV 202005Z AUTO 10SM CLR 23/04 A3014 180 30 1200 M /M RMK AO2 T02280044
03949KAQV AQV20190320141010803/20/19 14:10:31  5-MIN KAQV 202010Z AUTO VRB05KT 10SM CLR 23/04 A3014 180 30 1200 VRB/05 RMK AO2 T02280044
03949KAQV AQV20190320141510803/20/19 14:15:31  5-MIN KAQV 202015Z AUTO VRB05KT 10SM CLR 23/04 A3014 180 29 1200 VRB/05 RMK AO2 T02330044
03949KAQV AQV20190320142010803/20/19 14:20:31  5-MIN KAQV 202020Z AUTO VRB03KT 10SM CLR 23/04 A3013 180 29 1200 VRB/03 RMK AO2 T02280039
03949KAQV AQV20190320142510803/20/19 14:25:31  5-MIN KAQV 202025Z AUTO VRB03KT 10SM CLR 23/04 A3013 180 29 1200 VRB/03 RMK AO2 T02280039
03949KAQV AQV20190320143011103/20/19 14:30:31  5-MIN KAQV 202030Z AUTO 24004KT 10SM FEW070 23/04 A3013 180 30 1200 230/04 RMK AO2 T02280044
03949KAQV AQV20190320143511103/20/19 14:35:31  5-MIN KAQV 202035Z AUTO VRB04KT 10SM FEW070 22/04 A3013 180 30 1100 VRB/04 RMK AO2 T02220039
03949KAQV AQV20190320144010703/20/19 14:40:31  5-MIN KAQV 202040Z AUTO VRB04KT 9SM CLR 22/04 A3013 180 31 1100 VRB/04 RMK AO2 T02220044
03949KAQV AQV20190320144511003/20/19 14:45:31  5-MIN KAQV 202045Z AUTO VRB05KT 9SM FEW090 21/04 A3013 180 32 1000 VRB/05 RMK AO2 T02110039
03949KAQV AQV20190320145012403/20/19 14:50:31  5-MIN KAQV 202050Z AUTO VRB04KT 10SM SCT090 22/03 A3013 190 29 1000 VRB/04 RMK AO2 SLP201 T02170033 58018
03949KAQV AQV20190320145512403/20/19 14:55:31  5-MIN KAQV 202055Z AUTO VRB04KT 10SM BKN090 23/04 A3013 190 29 1200 VRB/04 RMK AO2 SLP201 T02280039 58018
03949KAQV AQV20190320150011103/20/19 15:00:31  5-MIN KAQV 202100Z AUTO VRB06KT 10SM BKN090 23/04 A3012 190 29 1200 VRB/06 RMK AO2 T02330044
03949KAQV AQV20190320150511103/20/19 15:05:31  5-MIN KAQV 202105Z AUTO VRB05KT 10SM BKN090 23/04 A3013 190 30 1200 VRB/05 RMK AO2 T02280044
03949KAQV AQV20190320151011103/20/19 15:10:31  5-MIN KAQV 202110Z AUTO VRB05KT 10SM BKN090 23/05 A3012 190 31 1200 VRB/05 RMK AO2 T02280050
03949KAQV AQV20190320151511103/20/19 15:15:31  5-MIN KAQV 202115Z AUTO VRB06KT 10SM SCT090 23/04 A3012 190 30 1200 VRB/06 RMK AO2 T02280044
03949KAQV AQV20190320152012703/20/19 15:20:31  5-MIN KAQV 202120Z AUTO 28007KT 240V010 10SM BKN090 23/04 A3012 190 29 1200 280/07 240V010 RMK AO2 T02280039
03949KAQV AQV20190320152511103/20/19 15:25:31  5-MIN KAQV 202125Z AUTO VRB04KT 10SM BKN090 22/04 A3012 190 31 1100 VRB/04 RMK AO2 T02170039
03949KAQV AQV20190320153011103/20/19 15:30:31  5-MIN KAQV 202130Z AUTO VRB04KT 10SM SCT090 22/04 A3012 190 31 1100 VRB/04 RMK AO2 T02220044
03949KAQV AQV20190320153511103/20/19 15:35:31  5-MIN KAQV 202135Z AUTO VRB05KT 10SM BKN090 22/04 A3012 190 31 1100 VRB/05 RMK AO2 T02220044
03949KAQV AQV20190320154011103/20/19 15:40:31  5-MIN KAQV 202140Z AUTO VRB05KT 10SM BKN090 22/04 A3012 190 31 1100 VRB/05 RMK AO2 T02170039
03949KAQV AQV20190320154511103/20/19 15:45:31  5-MIN KAQV 202145Z AUTO VRB04KT 10SM OVC090 22/04 A3012 200 31 1100 VRB/04 RMK AO2 T02170039
03949KAQV AQV20190320155011803/20/19 15:50:31  5-MIN KAQV 202150Z AUTO VRB03KT 10SM BKN090 23/04 A3012 190 29 1200 VRB/03 RMK AO2 SLP198 T02280039
03949KAQV AQV20190320155513403/20/19 15:55:31  5-MIN KAQV 202155Z AUTO 29007KT 270V330 10SM BKN090 23/04 A3012 190 30 1200 290/07 270V330 RMK AO2 SLP198 T02280044
03949KAQV AQV20190320160011103/20/19 16:00:31  5-MIN KAQV 202200Z AUTO VRB03KT 10SM BKN090 22/04 A3012 200 32 1100 VRB/03 RMK AO2 T02170044
03949KAQV AQV20190320160511103/20/19 16:05:31  5-MIN KAQV 202205Z AUTO VRB04KT 10SM BKN090 22/04 A3012 200 32 1100 VRB/04 RMK AO2 T02170044
03949KAQV AQV20190320161011103/20/19 16:10:31  5-MIN KAQV 202210Z AUTO 00000KT 10SM BKN090 22/05 A3011 200 32 1100 000/00 RMK AO2 T02220050
03949KAQV AQV20190320161511103/20/19 16:15:31  5-MIN KAQV 202215Z AUTO VRB06KT 10SM SCT090 22/04 A3011 200 32 1100 VRB/06 RMK AO2 T02170044
03949KAQV AQV20190320162011103/20/19 16:20:31  5-MIN KAQV 202220Z AUTO VRB04KT 10SM SCT090 22/04 A3011 200 32 1100 VRB/04 RMK AO2 T02170044
03949KAQV AQV20190320162510103/20/19 16:25:31  5-MIN KAQV 202225Z AUTO 10SM SCT090 22/05 A3011 200 32 1100 M /M RMK AO2 T02220050
03949KAQV AQV20190320163011103/20/19 16:30:31  5-MIN KAQV 202230Z AUTO VRB03KT 10SM SCT090 22/04 A3011 200 32 1100 VRB/03 RMK AO2 T02170044
03949KAQV AQV20190320163511803/20/19 16:35:31  5-MIN KAQV 202235Z AUTO VRB04KT 10SM FEW070 FEW095 22/05 A3011 200 32 1100 VRB/04 RMK AO2 T02220050
03949KAQV AQV20190320164011803/20/19 16:40:31  5-MIN KAQV 202240Z AUTO VRB03KT 10SM FEW075 SCT095 21/04 A3011 200 33 1000 VRB/03 RMK AO2 T02110044
03949KAQV AQV20190320164511803/20/19 16:45:31  5-MIN KAQV 202245Z AUTO VRB04KT 10SM SCT080 SCT095 21/04 A3011 200 33 1000 VRB/04 RMK AO2 T02110044
03949KAQV AQV20190320165011703/20/19 16:50:31  5-MIN KAQV 202250Z AUTO VRB03KT 10SM BKN075 21/04 A3012 200 34 900 VRB/03 RMK AO2 SLP198 T02060044
03949KAQV AQV20190320165511703/20/19 16:55:31  5-MIN KAQV 202255Z AUTO VRB05KT 10SM BKN080 21/04 A3011 200 34 900 VRB/05 RMK AO2 SLP198 T02060044
03949KAQV AQV20190320170011003/20/19 17:00:31  5-MIN KAQV 202300Z AUTO VRB03KT 10SM BKN080 21/04 A3012 200 34 900 VRB/03 RMK AO2 T02060044
03949KAQV AQV20190320170511003/20/19 17:05:31  5-MIN KAQV 202305Z AUTO 00000KT 10SM OVC080 21/04 A3012 190 34 900 000/00 RMK AO2 T02060044
03949KAQV AQV20190320171011003/20/19 17:10:31  5-MIN KAQV 202310Z AUTO 00000KT 10SM OVC080 21/05 A3012 190 35 900 000/00 RMK AO2 T02060050
03949KAQV AQV20190320171511003/20/19 17:15:31  5-MIN KAQV 202315Z AUTO 30003KT 10SM OVC080 20/05 A3012 190 37 900 290/03 RMK AO2 T02000050
03949KAQV AQV20190320172011003/20/19 17:20:31  5-MIN KAQV 202320Z AUTO 00000KT 10SM OVC080 20/05 A3012 190 37 900 000/00 RMK AO2 T02000050
03949KAQV AQV20190320172511003/20/19 17:25:31  5-MIN KAQV 202325Z AUTO VRB03KT 10SM OVC080 20/05 A3012 190 37 900 VRB/03 RMK AO2 T02000050
03949KAQV AQV20190320173011003/20/19 17:30:31  5-MIN KAQV 202330Z AUTO 00000KT 10SM OVC075 20/06 A3012 190 38 900 000/00 RMK AO2 T02000056
03949KAQV AQV20190320173511703/20/19 17:35:31  5-MIN KAQV 202335Z AUTO 00000KT 10SM BKN080 OVC090 20/05 A3012 190 37 900 000/00 RMK AO2 T02000050
03949KAQV AQV20190320174011703/20/19 17:40:31  5-MIN KAQV 202340Z AUTO 00000KT 10SM BKN080 OVC090 20/06 A3012 190 38 900 000/00 RMK AO2 T02000056
03949KAQV AQV20190320174511703/20/19 17:45:31  5-MIN KAQV 202345Z AUTO 00000KT 10SM SCT075 OVC090 20/06 A3012 190 38 900 000/00 RMK AO2 T02000056
03949KAQV AQV20190320175014203/20/19 17:50:31  5-MIN KAQV 202350Z AUTO 00000KT 10SM SCT075 OVC090 19/06 A3012 190 40 800 000/00 RMK AO2 SLP200 T01940056 10233 20194 56026
03949KAQV AQV20190320175514203/20/19 17:55:31  5-MIN KAQV 202355Z AUTO 00000KT 10SM FEW075 OVC090 19/06 A3012 190 40 800 000/00 RMK AO2 SLP199 T01940056 10233 20194 56026
03949KAQV AQV20190320180011003/20/19 18:00:31  5-MIN KAQV 210000Z AUTO 00000KT 10SM OVC090 19/07 A3012 190 43 800 000/00 RMK AO2 T01940067
03949KAQV AQV20190320180511003/20/19 18:05:31  5-MIN KAQV 210005Z AUTO 00000KT 10SM OVC090 19/07 A3011 200 44 700 000/00 RMK AO2 T01890067
03949KAQV AQV20190320181011003/20/19 18:10:31  5-MIN KAQV 210010Z AUTO 00000KT 10SM BKN090 18/07 A3011 200 48 700 000/00 RMK AO2 T01830072
03949KAQV AQV20190320181511003/20/19 18:15:31  5-MIN KAQV 210015Z AUTO 00000KT 10SM BKN090 18/07 A3011 200 48 600 000/00 RMK AO2 T01780067
03949KAQV AQV20190320182011003/20/19 18:20:31  5-MIN KAQV 210020Z AUTO 00000KT 10SM SCT095 17/07 A3012 200 49 500 000/00 RMK AO2 T01720067
03949KAQV AQV20190320182511003/20/19 18:25:31  5-MIN KAQV 210025Z AUTO 00000KT 10SM FEW095 17/07 A3012 190 49 500 000/00 RMK AO2 T01720067
03949KAQV AQV20190320183011003/20/19 18:30:31  5-MIN KAQV 210030Z AUTO 00000KT 10SM FEW100 16/07 A3012 190 55 400 000/00 RMK AO2 T01610072
03949KAQV AQV20190320183510703/20/19 18:35:31  5-MIN KAQV 210035Z AUTO 00000KT 10SM CLR 16/07 A3012 190 55 400 000/00 RMK AO2 T01610072
03949KAQV AQV20190320184010703/20/19 18:40:31  5-MIN KAQV 210040Z AUTO 00000KT 10SM CLR 16/08 A3012 190 59 300 000/00 RMK AO2 T01560078
03949KAQV AQV20190320184511003/20/19 18:45:31  5-MIN KAQV 210045Z AUTO 00000KT 10SM SCT100 16/07 A3012 190 57 300 000/00 RMK AO2 T01560072
03949KAQV AQV20190320185011703/20/19 18:50:31  5-MIN KAQV 210050Z AUTO 00000KT 10SM SCT100 15/07 A3012 190 59 300 000/00 RMK AO2 SLP201 T01500072
03949KAQV AQV20190320185511703/20/19 18:55:31  5-MIN KAQV 210055Z AUTO 00000KT 10SM SCT100 15/07 A3013 190 59 300 000/00 RMK AO2 SLP202 T01500072
03949KAQV AQV20190320190011003/20/19 19:00:31  5-MIN KAQV 210100Z AUTO 00000KT 10SM FEW100 14/07 A3012 190 61 200 000/00 RMK AO2 T01440072
03949KAQV AQV20190320190511003/20/19 19:05:31  5-MIN KAQV 210105Z AUTO 00000KT 10SM SCT100 14/07 A3013 180 61 200 000/00 RMK AO2 T01440072
03949KAQV AQV20190320191011003/20/19 19:10:31  5-MIN KAQV 210110Z AUTO 00000KT 10SM BKN100 14/08 A3013 180 66 100 000/00 RMK AO2 T01390078
03949KAQV AQV20190320191511003/20/19 19:15:31  5-MIN KAQV 210115Z AUTO 00000KT 10SM BKN100 14/08 A3013 180 66 100 000/00 RMK AO2 T01390078
03949KAQV AQV20190320192011003/20/19 19:20:31  5-MIN KAQV 210120Z AUTO 00000KT 10SM BKN100 14/08 A3013 180 69 100 000/00 RMK AO2 T01390083
03949KAQV AQV20190320192511003/20/19 19:25:31  5-MIN KAQV 210125Z AUTO 00000KT 10SM BKN100 14/08 A3013 190 69 100 000/00 RMK AO2 T01390083
03949KAQV AQV20190320193011003/20/19 19:30:31  5-MIN KAQV 210130Z AUTO 00000KT 10SM OVC100 14/08 A3013 180 69 100 000/00 RMK AO2 T01390083
03949KAQV AQV20190320193511003/20/19 19:35:31  5-MIN KAQV 210135Z AUTO 00000KT 10SM OVC100 14/08 A3013 180 69 100 000/00 RMK AO2 T01390083
03949KAQV AQV20190320194011003/20/19 19:40:31  5-MIN KAQV 210140Z AUTO 00000KT 10SM OVC100 14/09 A3013 180 71 100 000/00 RMK AO2 T01390089
03949KAQV AQV20190320194511003/20/19 19:45:31  5-MIN KAQV 210145Z AUTO 00000KT 10SM OVC100 14/09 A3013 180 71 100 000/00 RMK AO2 T01390089
03949KAQV AQV20190320195012403/20/19 19:50:31  5-MIN KAQV 210150Z AUTO 00000KT 10SM BKN090 OVC100 14/08 A3014 180 69 100 000/00 RMK AO2 SLP206 T01390083
03949KAQV AQV20190320195511703/20/19 19:55:31  5-MIN KAQV 210155Z AUTO 00000KT 10SM OVC095 14/08 A3014 170 64 200 000/00 RMK AO2 SLP206 T01440078
03949KAQV AQV20190320200010903/20/19 20:00:31  5-MIN KAQV 210200Z AUTO 00000KT 9SM OVC095 14/08 A3014 180 66 200 000/00 RMK AO2 T01440083
03949KAQV AQV20190320200510903/20/19 20:05:31  5-MIN KAQV 210205Z AUTO 00000KT 8SM OVC095 14/08 A3014 170 66 200 000/00 RMK AO2 T01440083
03949KAQV AQV20190320201011603/20/19 20:10:31  5-MIN KAQV 210210Z AUTO 00000KT 9SM SCT080 OVC095 14/08 A3015 170 66 200 000/00 RMK AO2 T01440083
03949KAQV AQV20190320201513603/20/19 20:15:31  5-MIN KAQV 210215Z AUTO 9SM SCT080 OVC095 15/08 A3016 160 64 200 M /M RMK AO2 T0150008303/20/19E, 144 5MIN(S) LISTED.
03949KAQV AQV20190320221011003/20/19 22:10:31  5-MIN KAQV 210410Z AUTO 36006KT 10SM FEW065 14/07 A3020 120 61 100 360/06 RMK AO2 T01390067
03949KAQV AQV20190320221511003/20/19 22:15:31  5-MIN KAQV 210415Z AUTO 36008KT 10SM FEW065 14/06 A3020 120 59 100 360/08 RMK AO2 T01390061
03949KAQV AQV20190320222010703/20/19 22:20:31  5-MIN KAQV 210420Z AUTO 35006KT 10SM CLR 14/06 A3020 120 59 100 350/06 RMK AO2 T01390061
03949KAQV AQV20190320222510703/20/19 22:25:31  5-MIN KAQV 210425Z AUTO 36008KT 10SM CLR 14/06 A3020 120 59 100 360/08 RMK AO2 T01390061
03949KAQV AQV20190320223010703/20/19 22:30:31  5-MIN KAQV 210430Z AUTO 35005KT 10SM CLR 14/06 A3020 120 57 100 350/05 RMK AO2 T01390056
03949KAQV AQV20190320223510503/20/19 22:35:31  5-MIN KAQV 210435Z AUTO 36007KT 10SM CLR 13/06 A3020 120 59 0 360/07 RMK AO2 T01330056
03949KAQV AQV20190320224010503/20/19 22:40:31  5-MIN KAQV 210440Z AUTO 36005KT 10SM CLR 13/06 A3020 120 59 0 350/05 RMK AO2 T01330056
03949KAQV AQV20190320224510503/20/19 22:45:31  5-MIN KAQV 210445Z AUTO 35006KT 10SM CLR 13/06 A3020 120 59 0 350/06 RMK AO2 T01330056
03949KAQV AQV20190320225011203/20/19 22:50:31  5-MIN KAQV 210450Z AUTO 36004KT 10SM CLR 13/06 A3020 120 61 0 350/04 RMK AO2 SLP226 T01280056
03949KAQV AQV20190320225511203/20/19 22:55:31  5-MIN KAQV 210455Z AUTO 35004KT 10SM CLR 13/06 A3020 120 61 0 340/04 RMK AO2 SLP226 T01280056
03949KAQV AQV20190320230010503/20/19 23:00:31  5-MIN KAQV 210500Z AUTO 35005KT 10SM CLR 13/06 A3020 120 61 0 350/05 RMK AO2 T01280056
03949KAQV AQV20190320230510803/20/19 23:05:31  5-MIN KAQV 210505Z AUTO 35005KT 10SM CLR 12/06 A3020 120 63 -100 340/05 RMK AO2 T01220056
03949KAQV AQV20190320231010803/20/19 23:10:31  5-MIN KAQV 210510Z AUTO 35004KT 10SM CLR 12/06 A3020 120 63 -100 350/04 RMK AO2 T01220056
03949KAQV AQV20190320231510803/20/19 23:15:31  5-MIN KAQV 210515Z AUTO VRB03KT 10SM CLR 12/06 A3020 120 63 -100 VRB/03 RMK AO2 T01220056
03949KAQV AQV20190320232010803/20/19 23:20:31  5-MIN KAQV 210520Z AUTO 36004KT 10SM CLR 12/06 A3020 120 63 -100 360/04 RMK AO2 T01220056
03949KAQV AQV20190320232510803/20/19 23:25:31  5-MIN KAQV 210525Z AUTO VRB03KT 10SM CLR 12/06 A3020 120 63 -100 VRB/03 RMK AO2 T01220056
03949KAQV AQV20190320233010803/20/19 23:30:31  5-MIN KAQV 210530Z AUTO 36003KT 10SM CLR 12/05 A3020 120 63 -200 350/03 RMK AO2 T01170050
03949KAQV AQV20190320233510803/20/19 23:35:31  5-MIN KAQV 210535Z AUTO 35004KT 10SM CLR 12/05 A3020 120 63 -200 350/04 RMK AO2 T01170050
03949KAQV AQV20190320234010803/20/19 23:40:31  5-MIN KAQV 210540Z AUTO 35005KT 10SM CLR 12/05 A3020 120 63 -200 350/05 RMK AO2 T01170050
03949KAQV AQV20190320234510803/20/19 23:45:31  5-MIN KAQV 210545Z AUTO 35003KT 10SM CLR 12/05 A3020 120 63 -200 350/03 RMK AO2 T01170050
03949KAQV AQV20190320235014303/20/19 23:50:31  5-MIN KAQV 210550Z AUTO 35003KT 10SM CLR 11/05 A3020 120 66 -200 350/03 RMK AO2 SLP225 T01110050 10194 20111 402330044 53020
03949KAQV AQV20190320235514303/20/19 23:55:31  5-MIN KAQV 210555Z AUTO 35003KT 10SM CLR 11/05 A3020 120 66 -200 350/03 RMK AO2 SLP225 T01110050 10194 20111 402330044 53020
03949KAQV AQV20190321000010803/21/19 00:00:31  5-MIN KAQV 210600Z AUTO 00000KT 10SM CLR 11/05 A3020 120 68 -300 000/00 RMK AO2 T01060050
03949KAQV AQV20190321000510803/21/19 00:05:31  5-MIN KAQV 210605Z AUTO 00000KT 10SM CLR 11/05 A3020 120 68 -300 000/00 RMK AO2 T01060050
03949KAQV AQV20190321001010803/21/19 00:10:31  5-MIN KAQV 210610Z AUTO 00000KT 10SM CLR 10/05 A3019 120 71 -400 000/00 RMK AO2 T01000050
03949KAQV AQV20190321001510803/21/19 00:15:31  5-MIN KAQV 210615Z AUTO 00000KT 10SM CLR 10/05 A3019 120 71 -400 000/00 RMK AO2 T01000050
03949KAQV AQV20190321002010803/21/19 00:20:31  5-MIN KAQV 210620Z AUTO 00000KT 10SM CLR 09/05 A3019 120 74 -400 000/00 RMK AO2 T00940050
03949KAQV AQV20190321002510803/21/19 00:25:31  5-MIN KAQV 210625Z AUTO 00000KT 10SM CLR 09/05 A3019 120 76 -500 000/00 RMK AO2 T00890050
03949KAQV AQV20190321003010803/21/19 00:30:31  5-MIN KAQV 210630Z AUTO 00000KT 10SM CLR 09/05 A3020 120 76 -500 000/00 RMK AO2 T00890050
03949KAQV AQV20190321003510803/21/19 00:35:31  5-MIN KAQV 210635Z AUTO 00000KT 10SM CLR 08/05 A3020 120 79 -600 000/00 RMK AO2 T00830050
03949KAQV AQV20190321004010803/21/19 00:40:31  5-MIN KAQV 210640Z AUTO 00000KT 10SM CLR 08/05 A3020 120 79 -600 000/00 RMK AO2 T00830050
03949KAQV AQV20190321004510803/21/19 00:45:31  5-MIN KAQV 210645Z AUTO 00000KT 10SM CLR 08/05 A3020 120 79 -600 000/00 RMK AO2 T00830050
03949KAQV AQV20190321005011503/21/19 00:50:31  5-MIN KAQV 210650Z AUTO 00000KT 10SM CLR 08/04 A3020 120 79 -600 000/00 RMK AO2 SLP224 T00780044
03949KAQV AQV20190321005511503/21/19 00:55:31  5-MIN KAQV 210655Z AUTO 00000KT 10SM CLR 08/04 A3019 120 79 -600 000/00 RMK AO2 SLP224 T00780044
03949KAQV AQV20190321010010803/21/19 01:00:31  5-MIN KAQV 210700Z AUTO 00000KT 10SM CLR 08/05 A3019 130 82 -600 000/00 RMK AO2 T00780050
03949KAQV AQV20190321010510803/21/19 01:05:31  5-MIN KAQV 210705Z AUTO 00000KT 10SM CLR 07/04 A3019 120 82 -700 000/00 RMK AO2 T00720044
03949KAQV AQV20190321011010803/21/19 01:10:31  5-MIN KAQV 210710Z AUTO 00000KT 10SM CLR 07/04 A3019 120 82 -700 000/00 RMK AO2 T00720044
03949KAQV AQV20190321011513803/21/19 01:15:31  5-MIN KAQV 210715Z AUTO 00000KT 10SM CLR 07/04 A3019 130 82 -700 000/00 RMK A07 A3021 110 64 0 260/05 RMK AO2 T01390072
03949KAQV AQV20190321082510503/21/19 08:25:31  5-MIN KAQV 211425Z AUTO VRB04KT 10SM CLR 14/07 A3021 110 64 0 VRB/04 RMK AO2 T01390072
03949KAQV AQV20190321083005203/21/19 08:30:31  5-MIN KAQV 211430Z AU610067 51006
03949KAQV AQV20190321084516403/21/19 08:45:31  5-MIN KAQV 211445Z AUTO VRB03KT 10SM CLR 16/07 A3021 110 55 200 VRB/03 RMK AO2 T01560067 10SM CLR 17/06 A3021 110 49 400 VRB/05 RMK AO2 T01670061
03949KAQV AQV20190321085512003/21/19 08:55:31  5-MIN KAQV 211455Z AUTO 26004KT 10SM CLR 16/06 A3021 110 51 300 260/04 RMK AO2 SLP229 T01610061 51006
03949KAQV AQV20190321090014703/21/19 09:00:31  5-MIN KAQV 211500Z AUTO 10SM CLR 16/06 A3021 110 51 300 M /M RMK AO2 T0161006103/21/19 09:05:31  57 200 VRB/04 RMK AO2 T01560072
03949KAQV AQV20190321090505703/21/19 09:05:31  5-MIN KAQV 211505Z AUTO VRB0 T01720050
03949KAQV AQV20190321091010703/21/19 09:10:31  5-MIN KAQV 211510Z AUTO VRB05KT 10SM CLR 17/06 A3021 110 49 400 VRB/05 RMK AO2 T01670061
03949KAQV AQV20190321091510703/21/19 09:15:31  5-MIN KAQV 211515Z AUTO VRB05KT 10SM CLR 17/06 A3021 110 46 400 VRB/05 RMK AO2 T01720056
03949KAQV AQV20190321092009603/21/19 09:20:31  5-MIN KAQV 211520Z AUTO 31007KT 280V360 10SM CLR 17/06 M /M RMK AO2 T01610061
03949KAQV AQV20190321092012303/21/19 09:20:31  5-MIN KAQV 211520Z AUTO 31007KT 280V360 10SM CLR 17/06 A3021 110 46 400 310/07 280V360 RMK AO2 T01720056
03949KAQV AQV20190321092016403/21/19 09:20:31  5-MIN KAQV 211520Z AUTO 31007KT 280V360 10SM CLR 17/06 A3021 110 46 400 310/07 280V360 RMK SM CLR 18/05 A3021 110 41 600 VRB/06 RMK AO2 T01830050
03949KAQV AQV20190321092510703/21/19 09:25:31  5-MIN KAQV 211525Z AUTO VRB05KT 10SM CLR 17/05 A3021 110 44 400 VRB/05 RMK AO2 T01720050
03949KAQV AQV20190321093010703/21/19 09:30:31  5-MIN KAQV 211530Z AUTO VRB04KT 10SM CLR 18/06 A3021 110 42 600 VRB/04 RMK AO2 T01830056
03949KAQV AQV20190321093510703/21/19 09:35:31  5-MIN KAQV 211535Z AUTO VRB06KT 10SM CLR 18/05 A3021 110 42 500 VRB/06 RMK AO2 T01780050
03949KAQV AQV20190321093515503/21/19 09:35:31  5-MIN KAQV 211535Z AUTO VRB06KT 10SM CLR 18/05 A3021 110 42 500 VRB/06 RMK AO2 T0178005003/21/193021 110 46 400 VRB/05 RMK AO2 T01720056
03949KAQV AQV20190321094005503/21/19 09:40:31  5-MIN KAQV 211540Z AUTO VRBT01830056
03949KAQV AQV20190321094010703/21/19 09:40:31  5-MIN KAQV 211540Z AUTO VRB04KT 10SM CLR 18/05 A3021 110 41 600 VRB/04 RMK AO2 T01830050
03949KAQV AQV20190321094510703/21/19 09:45:31  5-MIN KAQV 211545Z AUTO VRB06KT 10SM CLR 18/05 A3021 110 41 600 VRB/06 RMK AO2 T01830050
03949KAQV AQV20190321095011403/21/19 09:50:31  5-MIN KAQV 211550Z AUTO VRB04KT 10SM CLR 18/05 A3021 110 41 600 VRB/04 RMK AO2 SLP228 T01830050
03949KAQV AQV20190321095511403/21/19 09:55:31  5-MIN KAQV 211555Z AUTO VRB05KT 10SM CLR 18/05 A3021 110 42 500 VRB/05 RMK AO2 SLP228 T01780050
03949KAQV AQV20190321095516603/21/19 09:55:31  5-MIN KAQV 211555Z AUTO VRB05KT 10SM CLR 18/05 A3021 110 42 500 VRB/05 RMK AZ AUTO VRB06KT 10SM CLR 18/05 A3021 110 42 500 VRB/06 RMK AO2 T01780050
03949KAQV AQV20190321100010703/21/19 10:00:31  5-MIN KAQV 211600Z AUTO VRB06KT 10SM CLR 18/06 A3021 110 42 600 VRB/06 RMK AO2 T01830056
03949KAQV AQV20190321100510703/21/19 10:05:31  5-MIN KAQV 211605Z AUTO VRB06KT 10SM CLR 19/06 A3020 110 41 600 VRB/06 RMK AO2 T01890056
03949KAQV AQV20190321101010703/21/19 10:10:31  5-MIN KAQV 211610Z AUTO VRB05KT 10SM CLR 18/06 A3020 120 42 600 VRB/05 RMK AO2 T01830056
03949KAQV AQV20190321101510703/21/19 10:15:31  5-MIN KAQV 211615Z AUTO VRB06KT 10SM CLR 18/06 A3020 120 42 600 VRB/06 RMK AO2 T01830056
03949KAQV AQV20190321102010703/21/19 10:20:31  5-MIN KAQV 211620Z AUTO VRB06KT 10SM CLR 19/06 A3020 120 41 600 VRB/06 RMK AO2 T01890056
03949KAQV AQV20190321102510703/21/19 10:25:31  5-MIN KAQV 211625Z AUTO VRB05KT 10SM CLR 19/06 A3020 120 43 600 VRB/05 RMK AO2 T01890061
03949KAQV AQV20190321103010703/21/19 10:30:31  5-MIN KAQV 211630Z AUTO VRB06KT 10SM CLR 19/06 A3020 120 40 700 VRB/06 RMK AO2 T01940056
03949KAQV AQV20190321103510703/21/19 10:35:31  5-MIN KAQV 211635Z AUTO VRB05KT 10SM CLR 19/06 A3020 120 40 700 VRB/05 RMK AO2 T01940056
03949KAQV AQV20190321104010703/21/19 10:40:31  5-MIN KAQV 211640Z AUTO VRB03KT 10SM CLR 19/06 A3020 120 40 700 VRB/03 RMK AO2 T01940056
03949KAQV AQV20190321104510703/21/19 10:45:31  5-MIN KAQV 211645Z AUTO VRB05KT 10SM CLR 19/05 A3019 120 38 700 VRB/05 RMK AO2 T01940050
03949KAQV AQV20190321105011403/21/19 10:50:31  5-MIN KAQV 211650Z AUTO VRB06KT 10SM CLR 20/05 A3019 130 37 800 VRB/06 RMK AO2 SLP223 T02000050
03949KAQV AQV20190321105511403/21/19 10:55:31  5-MIN KAQV 211655Z AUTO VRB05KT 10SM CLR 20/05 A3019 130 37 800 VRB/05 RMK AO2 SLP222 T02000050
03949KAQV AQV20190321110010703/21/19 11:00:31  5-MIN KAQV 211700Z AUTO VRB06KT 10SM CLR 20/06 A3019 130 38 800 VRB/06 RMK AO2 T02000056
03949KAQV AQV20190321110510703/21/19 11:05:31  5-MIN KAQV 211705Z AUTO 28004KT 10SM CLR 20/05 A3019 130 37 800 280/04 RMK AO2 T02000050
03949KAQV AQV20190321111009703/21/19 11:10:31  5-MIN KAQV 211710Z AUTO 10SM CLR 20/04 A3019 130 35 800 M /M RMK AO2 T02000044
03949KAQV AQV20190321111510703/21/19 11:15:31  5-MIN KAQV 211715Z AUTO VRB05KT 10SM CLR 21/04 A3018 130 33 900 VRB/05 RMK AO2 T02060039
03949KAQV AQV20190321112010703/21/19 11:20:31  5-MIN KAQV 211720Z AUTO VRB05KT 10SM CLR 21/04 A3018 140 34 900 VRB/05 RMK AO2 T02060044
03949KAQV AQV20190321112510703/21/19 11:25:31  5-MIN KAQV 211725Z AUTO VRB05KT 10SM CLR 21/04 A3018 140 34 900 VRB/05 RMK AO2 T02060044
03949KAQV AQV20190321113012303/21/19 11:30:31  5-MIN KAQV 211730Z AUTO 25008KT 200V280 10SM CLR 21/04 A3018 140 33 900 250/08 200V280 RMK AO2 T02110044
03949KAQV AQV20190321113512303/21/19 11:35:31  5-MIN KAQV 211735Z AUTO 29007KT 240V340 10SM CLR 21/04 A3018 140 33 900 290/07 240V340 RMK AO2 T02060039
03949KAQV AQV20190321114010703/21/19 11:40:31  5-MIN KAQV 211740Z AUTO 28007KT 10SM CLR 21/04 A3017 140 33 900 280/07 RMK AO2 T02060039
03949KAQV AQV20190321114510703/21/19 11:45:31  5-MIN KAQV 211745Z AUTO VRB04KT 10SM CLR 21/04 A3017 150 33 900 VRB/04 RMK AO2 T02060039
03949KAQV AQV20190321115014803/21/19 11:50:31  5-MIN KAQV 211750Z AUTO 33007KT 280V080 10SM CLR 21/04 A3017 150 32 900 330/07 280V080 RMK AO2 SLP216 T02110039 10211 20033 51009
03949KAQV AQV20190321115513203/21/19 11:55:31  5-MIN KAQV 211755Z AUTO VRB03KT 10SM CLR 21/04 A3017 150 33 900 VRB/03 RMK AO2 SLP216 T02110044 10211 20033 51009
03949KAQV AQV20190321120010703/21/19 12:00:31  5-MIN KAQV 211800Z AUTO VRB04KT 10SM CLR 21/04 A3016 150 32 900 VRB/04 RMK AO2 T02110039
03949KAQV AQV20190321120509703/21/19 12:05:31  5-MIN KAQV 211805Z AUTO 10SM CLR 21/04 A3016 150 33 900 M /M RMK AO2 T02110044
03949KAQV AQV20190321121011003/21/19 12:10:31  5-MIN KAQV 211810Z AUTO VRB04KT 10SM FEW031 21/04 A3016 160 33 900 VRB/04 RMK AO2 T02060039
03949KAQV AQV20190321121512503/21/19 12:15:31  5-MIN KAQV 211815Z AUTO 28008KT 230V320 9SM FEW031 21/04 A3016 160 33 900 270/08 230V320 RMK AO2 T02110044
03949KAQV AQV20190321122010703/21/19 12:20:31  5-MIN KAQV 211820Z AUTO 27007KT 9SM CLR 21/04 A3015 160 32 1000 270/07 RMK AO2 T02110039
03949KAQV AQV20190321122510703/21/19 12:25:31  5-MIN KAQV 211825Z AUTO VRB03KT 8SM CLR 21/04 A3015 160 33 1000 VRB/03 RMK AO2 T02110044
03949KAQV AQV20190321123010703/21/19 12:30:31  5-MIN KAQV 211830Z AUTO 26005KT 8SM CLR 22/04 A3015 170 32 1000 250/05 RMK AO2 T02170044
03949KAQV AQV20190321123510703/21/19 12:35:31  5-MIN KAQV 211835Z AUTO VRB05KT 8SM CLR 22/04 A3015 170 32 1000 VRB/05 RMK AO2 T02170044
03949KAQV AQV20190321124010703/21/19 12:40:31  5-MIN KAQV 211840Z AUTO VRB05KT 9SM CLR 22/04 A3014 170 32 1000 VRB/05 RMK AO2 T02170044
03949KAQV AQV20190321124512403/21/19 12:45:31  5-MIN KAQV 211845Z AUTO 29008KT 260V330 10SM CLR 22/04 A3014 170 30 1100 290/08 260V330 RMK AO2 T02220039
03949KAQV AQV20190321125011503/21/19 12:50:31  5-MIN KAQV 211850Z AUTO 28006KT 10SM CLR 22/04 A3014 170 31 1000 280/06 RMK AO2 SLP206 T02170039
03949KAQV AQV20190321125511403/21/19 12:55:31  5-MIN KAQV 211855Z AUTO VRB03KT 9SM CLR 21/04 A3014 180 32 1000 VRB/03 RMK AO2 SLP204 T02110039
03949KAQV AQV20190321130010703/21/19 13:00:31  5-MIN KAQV 211900Z AUTO VRB03KT 9SM CLR 22/04 A3013 180 32 1000 VRB/03 RMK AO2 T02170044
03949KAQV AQV20190321130510803/21/19 13:05:31  5-MIN KAQV 211905Z AUTO 00000KT 10SM CLR 22/04 A3013 180 32 1000 000/00 RMK AO2 T02170044
03949KAQV AQV20190321131010803/21/19 13:10:31  5-MIN KAQV 211910Z AUTO 27006KT 10SM CLR 22/03 A3013 180 28 1100 270/06 RMK AO2 T02220033
03949KAQV AQV20190321131510803/21/19 13:15:31  5-MIN KAQV 211915Z AUTO VRB06KT 10SM CLR 22/04 A3013 190 31 1000 VRB/06 RMK AO2 T02170039
03949KAQV AQV20190321132010803/21/19 13:20:31  5-MIN KAQV 211920Z AUTO VRB04KT 10SM CLR 22/04 A3012 190 31 1000 VRB/04 RMK AO2 T02170039
03949KAQV AQV20190321132510803/21/19 13:25:31  5-MIN KAQV 211925Z AUTO VRB05KT 10SM CLR 22/04 A3012 190 31 1100 VRB/05 RMK AO2 T02220044
03949KAQV AQV20190321133012403/21/19 13:30:31  5-MIN KAQV 211930Z AUTO 29007KT 250V320 10SM CLR 22/03 A3012 190 29 1100 280/07 250V320 RMK AO2 T02170033
03949KAQV AQV20190321133510703/21/19 13:35:31  5-MIN KAQV 211935Z AUTO 34004KT 9SM CLR 22/04 A3011 200 30 1100 330/04 RMK AO2 T02220039
03949KAQV AQV20190321134012303/21/19 13:40:31  5-MIN KAQV 211940Z AUTO 29007KT 240V360 9SM CLR 22/04 A3012 200 30 1100 290/07 240V360 RMK AO2 T02220039
03949KAQV AQV20190321134510803/21/19 13:45:31  5-MIN KAQV 211945Z AUTO VRB04KT 10SM CLR 22/04 A3011 200 30 1100 VRB/04 RMK AO2 T02220039
03949KAQV AQV20190321135011503/21/19 13:50:31  5-MIN KAQV 211950Z AUTO VRB04KT 10SM CLR 22/04 A3011 200 30 1100 VRB/04 RMK AO2 SLP196 T02220039
03949KAQV AQV20190321135511503/21/19 13:55:31  5-MIN KAQV 211955Z AUTO 23006KT 10SM CLR 23/04 A3011 200 29 1200 220/06 RMK AO2 SLP195 T02280039
03949KAQV AQV20190321140012403/21/19 14:00:31  5-MIN KAQV 212000Z AUTO 27007KT 200V300 10SM CLR 23/04 A3011 200 29 1200 260/07 200V300 RMK AO2 T02280039
03949KAQV AQV20190321140510803/21/19 14:05:31  5-MIN KAQV 212005Z AUTO VRB04KT 10SM CLR 22/03 A3010 210 28 1100 VRB/04 RMK AO2 T02220033
03949KAQV AQV20190321141010803/21/19 14:10:31  5-MIN KAQV 212010Z AUTO VRB05KT 10SM CLR 23/04 A3010 210 29 1200 VRB/05 RMK AO2 T02280039
03949KAQV AQV20190321141510803/21/19 14:15:31  5-MIN KAQV 212015Z AUTO VRB06KT 10SM CLR 23/04 A3010 210 28 1300 VRB/06 RMK AO2 T02330039
03949KAQV AQV20190321142012403/21/19 14:20:31  5-MIN KAQV 212020Z AUTO 31008KT 220V020 10SM CLR 23/03 A3010 210 27 1200 310/08 220V020 RMK AO2 T02280033
03949KAQV AQV20190321142510803/21/19 14:25:31  5-MIN KAQV 212025Z AUTO 30004KT 10SM CLR 22/03 A3010 210 27 1100 290/04 RMK AO2 T02220028
03949KAQV AQV20190321143010803/21/19 14:30:31  5-MIN KAQV 212030Z AUTO VRB04KT 10SM CLR 23/03 A3010 210 26 1300 VRB/04 RMK AO2 T02330033
03949KAQV AQV20190321143510803/21/19 14:35:31  5-MIN KAQV 212035Z AUTO VRB03KT 10SM CLR 23/03 A3009 220 27 1200 VRB/03 RMK AO2 T02280033
03949KAQV AQV20190321144010803/21/19 14:40:31  5-MIN KAQV 212040Z AUTO VRB05KT 10SM CLR 23/03 A3009 220 26 1300 VRB/05 RMK AO2 T02330033
03949KAQV AQV20190321144510803/21/19 14:45:31  5-MIN KAQV 212045Z AUTO VRB03KT 10SM CLR 23/03 A3009 220 26 1300 VRB/03 RMK AO2 T02330033
03949KAQV AQV20190321145012103/21/19 14:50:31  5-MIN KAQV 212050Z AUTO VRB06KT 10SM CLR 23/03 A3009 220 26 1300 VRB/06 RMK AO2 SLP188 T02330033 58014
03949KAQV AQV20190321145512103/21/19 14:55:31  5-MIN KAQV 212055Z AUTO VRB05KT 10SM CLR 23/03 A3009 220 26 1300 VRB/05 RMK AO2 SLP188 T02330033 58014
03949KAQV AQV20190321150010803/21/19 15:00:31  5-MIN KAQV 212100Z AUTO VRB05KT 10SM CLR 23/03 A3009 220 26 1300 VRB/05 RMK AO2 T02330033
03949KAQV AQV20190321150510803/21/19 15:05:31  5-MIN KAQV 212105Z AUTO VRB04KT 10SM CLR 23/03 A3009 220 26 1300 VRB/04 RMK AO2 T02330033
03949KAQV AQV20190321151010803/21/19 15:10:31  5-MIN KAQV 212110Z AUTO VRB06KT 10SM CLR 24/03 A3009 220 26 1300 VRB/06 RMK AO2 T02390033
03949KAQV AQV20190321151510803/21/19 15:15:31  5-MIN KAQV 212115Z AUTO 24007KT 10SM CLR 23/03 A3008 230 26 1300 240/07 RMK AO2 T02330033
03949KAQV AQV20190321152012403/21/19 15:20:31  5-MIN KAQV 212120Z AUTO 28007KT 220V360 10SM CLR 23/03 A3009 220 26 1300 280/07 220V360 RMK AO2 T02330033
03949KAQV AQV20190321152510803/21/19 15:25:31  5-MIN KAQV 212125Z AUTO VRB05KT 10SM CLR 23/03 A3008 230 26 1300 VRB/05 RMK AO2 T02330033
03949KAQV AQV20190321153012403/21/19 15:30:31  5-MIN KAQV 212130Z AUTO 34008KT 310V010 10SM CLR 24/03 A3008 230 26 1400 340/08 310V010 RMK AO2 T02390033
03949KAQV AQV20190321153510803/21/19 15:35:31  5-MIN KAQV 212135Z AUTO VRB04KT 10SM CLR 24/03 A3008 230 26 1400 VRB/04 RMK AO2 T02390033
03949KAQV AQV20190321154010703/21/19 15:40:31  5-MIN KAQV 212140Z AUTO VRB05KT 8SM CLR 23/03 A3008 230 26 1300 VRB/05 RMK AO2 T02330033
03949KAQV AQV20190321154510703/21/19 15:45:31  5-MIN KAQV 212145Z AUTO VRB03KT 8SM CLR 23/03 A3008 230 26 1300 VRB/03 RMK AO2 T02330033
03949KAQV AQV20190321155013003/21/19 15:50:31  5-MIN KAQV 212150Z AUTO 28007KT 250V310 9SM CLR 23/03 A3008 230 25 1300 280/07 250V310 RMK AO2 SLP185 T02330028
03949KAQV AQV20190321155511503/21/19 15:55:31  5-MIN KAQV 212155Z AUTO 25008KT 10SM CLR 23/03 A3008 230 25 1300 250/08 RMK AO2 SLP184 T02330028
03949KAQV AQV20190321160010803/21/19 16:00:31  5-MIN KAQV 212200Z AUTO VRB04KT 10SM CLR 23/03 A3008 230 26 1300 VRB/04 RMK AO2 T02330033
03949KAQV AQV20190321160510803/21/19 16:05:31  5-MIN KAQV 212205Z AUTO VRB04KT 10SM CLR 23/04 A3008 230 28 1300 VRB/04 RMK AO2 T02330039
03949KAQV AQV20190321161010803/21/19 16:10:31  5-MIN KAQV 212210Z AUTO VRB03KT 10SM CLR 24/04 A3008 230 27 1400 VRB/03 RMK AO2 T02390039
03949KAQV AQV20190321161510803/21/19 16:15:31  5-MIN KAQV 212215Z AUTO VRB04KT 10SM CLR 24/03 A3008 230 26 1400 VRB/04 RMK AO2 T02390033
03949KAQV AQV20190321162010803/21/19 16:20:31  5-MIN KAQV 212220Z AUTO VRB03KT 10SM CLR 23/03 A3008 230 26 1300 VRB/03 RMK AO2 T02330033
03949KAQV AQV20190321162510803/21/19 16:25:31  5-MIN KAQV 212225Z AUTO VRB06KT 10SM CLR 23/03 A3008 230 26 1300 VRB/06 RMK AO2 T02330033
03949KAQV AQV20190321163010803/21/19 16:30:31  5-MIN KAQV 212230Z AUTO VRB04KT 10SM CLR 23/03 A3008 230 25 1300 VRB/04 RMK AO2 T02330028
03949KAQV AQV20190321163510803/21/19 16:35:31  5-MIN KAQV 212235Z AUTO VRB04KT 10SM CLR 23/02 A3008 230 24 1300 VRB/04 RMK AO2 T02330022
03949KAQV AQV20190321164010803/21/19 16:40:31  5-MIN KAQV 212240Z AUTO 00000KT 10SM CLR 23/03 A3008 230 25 1300 000/00 RMK AO2 T02330028
03949KAQV AQV20190321164510803/21/19 16:45:31  5-MIN KAQV 212245Z AUTO VRB05KT 10SM CLR 23/03 A3008 230 26 1300 VRB/05 RMK AO2 T02330033
03949KAQV AQV20190321165011503/21/19 16:50:31  5-MIN KAQV 212250Z AUTO VRB04KT 10SM CLR 23/03 A3008 230 25 1300 VRB/04 RMK AO2 SLP184 T02330028
03949KAQV AQV20190321165511503/21/19 16:55:31  5-MIN KAQV 212255Z AUTO VRB03KT 10SM CLR 23/03 A3008 230 26 1300 VRB/03 RMK AO2 SLP184 T02330033
03949KAQV AQV20190321170009803/21/19 17:00:31  5-MIN KAQV 212300Z AUTO 10SM CLR 23/03 A3008 230 26 1200 M /M RMK AO2 T02280028
03949KAQV AQV20190321170510803/21/19 17:05:31  5-MIN KAQV 212305Z AUTO 00000KT 10SM CLR 23/03 A3007 230 27 1200 000/00 RMK AO2 T02280033
03949KAQV AQV20190321171010803/21/19 17:10:31  5-MIN KAQV 212310Z AUTO VRB04KT 10SM CLR 23/03 A3008 230 26 1200 VRB/04 RMK AO2 T02280028
03949KAQV AQV20190321171510803/21/19 17:15:31  5-MIN KAQV 212315Z AUTO VRB03KT 10SM CLR 23/03 A3008 230 27 1200 VRB/03 RMK AO2 T02280033
03949KAQV AQV20190321172010803/21/19 17:20:31  5-MIN KAQV 212320Z AUTO VRB03KT 10SM CLR 23/03 A3008 230 27 1200 VRB/03 RMK AO2 T02280033
03949KAQV AQV20190321172510803/21/19 17:25:31  5-MIN KAQV 212325Z AUTO VRB05KT 10SM CLR 23/03 A3007 230 26 1200 VRB/05 RMK AO2 T02280028
03949KAQV AQV20190321173010803/21/19 17:30:31  5-MIN KAQV 212330Z AUTO VRB04KT 10SM CLR 22/03 A3008 230 27 1200 VRB/04 RMK AO2 T02220028
03949KAQV AQV20190321173510803/21/19 17:35:31  5-MIN KAQV 212335Z AUTO VRB03KT 10SM CLR 22/03 A3008 230 27 1200 VRB/03 RMK AO2 T02220028
03949KAQV AQV20190321174010803/21/19 17:40:31  5-MIN KAQV 212340Z AUTO VRB05KT 10SM CLR 22/03 A3008 230 27 1200 VRB/05 RMK AO2 T02220028
03949KAQV AQV20190321174510803/21/19 17:45:31  5-MIN KAQV 212345Z AUTO 27004KT 10SM CLR 22/03 A3008 230 28 1100 270/04 RMK AO2 T02170028
03949KAQV AQV20190321175013303/21/19 17:50:31  5-MIN KAQV 212350Z AUTO 00000KT 10SM CLR 22/03 A3008 230 28 1100 000/00 RMK AO2 SLP186 T02170028 10239 20206 56027
03949KAQV AQV20190321175513303/21/19 17:55:31  5-MIN KAQV 212355Z AUTO VRB03KT 10SM CLR 22/03 A3008 230 28 1100 VRB/03 RMK AO2 SLP186 T02170028 10239 20206 56027
03949KAQV AQV20190321180010803/21/19 18:00:31  5-MIN KAQV 220000Z AUTO 00000KT 10SM CLR 21/03 A3008 230 30 1000 000/00 RMK AO2 T02110033
03949KAQV AQV20190321180510803/21/19 18:05:31  5-MIN KAQV 220005Z AUTO 00000KT 10SM CLR 21/03 A3008 230 30 1000 000/00 RMK AO2 T02110033
03949KAQV AQV20190321181010803/21/19 18:10:31  5-MIN KAQV 220010Z AUTO 00000KT 10SM CLR 21/03 A3008 230 32 1000 000/00 RMK AO2 T02060033
03949KAQV AQV20190321181510703/21/19 18:15:31  5-MIN KAQV 220015Z AUTO 00000KT 10SM CLR 20/03 A3008 230 33 900 000/00 RMK AO2 T02000033
03949KAQV AQV20190321182010703/21/19 18:20:31  5-MIN KAQV 220020Z AUTO 00000KT 10SM CLR 19/04 A3008 230 36 800 000/00 RMK AO2 T01890039
03949KAQV AQV20190321182510703/21/19 18:25:31  5-MIN KAQV 220025Z AUTO 00000KT 10SM CLR 18/04 A3008 230 38 700 000/00 RMK AO2 T01830039
03949KAQV AQV20190321183010703/21/19 18:30:31  5-MIN KAQV 220030Z AUTO 00000KT 10SM CLR 17/04 A3008 230 42 600 000/00 RMK AO2 T01720044
03949KAQV AQV20190321183510703/21/19 18:35:31  5-MIN KAQV 220035Z AUTO 00000KT 10SM CLR 17/04 A3008 230 42 600 000/00 RMK AO2 T01720044
03949KAQV AQV20190321184010703/21/19 18:40:31  5-MIN KAQV 220040Z AUTO 00000KT 10SM CLR 17/05 A3008 230 45 500 000/00 RMK AO2 T01670050
03949KAQV AQV20190321184510703/21/19 18:45:31  5-MIN KAQV 220045Z AUTO 00000KT 10SM CLR 16/05 A3008 230 47 500 000/00 RMK AO2 T01610050
03949KAQV AQV20190321185011403/21/19 18:50:31  5-MIN KAQV 220050Z AUTO 00000KT 10SM CLR 16/05 A3008 230 49 400 000/00 RMK AO2 SLP186 T01560050
03949KAQV AQV20190321185511303/21/19 18:55:31  5-MIN KAQV 220055Z AUTO 00000KT 9SM CLR 15/06 A3008 230 53 300 000/00 RMK AO2 SLP187 T01500056
03949KAQV AQV20190321190010603/21/19 19:00:31  5-MIN KAQV 220100Z AUTO 00000KT 9SM CLR 15/06 A3008 230 53 300 000/00 RMK AO2 T01500056
03949KAQV AQV20190321190510603/21/19 19:05:31  5-MIN KAQV 220105Z AUTO 00000KT 8SM CLR 14/06 A3008 230 55 300 000/00 RMK AO2 T01440056
03949KAQV AQV20190321191010603/21/19 19:10:31  5-MIN KAQV 220110Z AUTO 00000KT 8SM CLR 14/06 A3008 230 55 300 000/00 RMK AO2 T01440056
03949KAQV AQV20190321191510603/21/19 19:15:31  5-MIN KAQV 220115Z AUTO 00000KT 8SM CLR 14/06 A3008 230 57 200 000/00 RMK AO2 T01390056
03949KAQV AQV20190321192010603/21/19 19:20:31  5-MIN KAQV 220120Z AUTO 00000KT 9SM CLR 14/06 A3008 230 59 200 000/00 RMK AO2 T01390061
03949KAQV AQV20190321192510603/21/19 19:25:31  5-MIN KAQV 220125Z AUTO 00000KT 9SM CLR 14/06 A3008 220 59 200 000/00 RMK AO2 T01390061
03949KAQV AQV20190321193010603/21/19 19:30:31  5-MIN KAQV 220130Z AUTO 00000KT 8SM CLR 13/07 A3009 220 64 100 000/00 RMK AO2 T01330067
03949KAQV AQV20190321193510903/21/19 19:35:31  5-MIN KAQV 220135Z AUTO 00000KT 5SM HZ CLR 13/07 A3009 220 64 100 000/00 RMK AO2 T01330067
03949KAQV AQV20190321194010903/21/19 19:40:31  5-MIN KAQV 220140Z AUTO 00000KT 5SM HZ CLR 13/07 A3009 220 64 100 000/00 RMK AO2 T01330067
03949KAQV AQV20190321194510403/21/19 19:45:31  5-MIN KAQV 220145Z AUTO 00000KT 7SM CLR 13/07 A3009 220 66 0 000/00 RMK AO2 T01280067
03949KAQV AQV20190321195011103/21/19 19:50:31  5-MIN KAQV 220150Z AUTO 00000KT 7SM CLR 13/07 A3009 220 66 0 000/00 RMK AO2 SLP189 T01280067
03949KAQV AQV20190321195511103/21/19 19:55:31  5-MIN KAQV 220155Z AUTO 00000KT 7SM CLR 12/07 A3009 220 68 0 000/00 RMK AO2 SLP190 T01220067
03949KAQV AQV20190321200010403/21/19 20:00:31  5-MIN KAQV 220200Z AUTO 00000KT 7SM CLR 12/07 A3009 220 68 0 000/00 RMK AO2 T01220067
03949KAQV AQV20190321200510403/21/19 20:05:31  5-MIN KAQV 220205Z AUTO 00000KT 7SM CLR 12/07 A3009 220 71 0 000/00 RMK AO2 T01220072
03949KAQV AQV20190321201010403/21/19 20:10:31  5-MIN KAQV 220210Z AUTO 00000KT 7SM CLR 12/08 A3010 210 74 0 000/00 RMK AO2 T01220078
03949KAQV AQV20190321201510403/21/19 20:15:31  5-MIN KAQV 220215Z AUTO 00000KT 8SM CLR 12/07 A3010 210 71 0 000/00 RMK AO2 T01220072
03949KAQV AQV20190321202010403/21/19 20:20:31  5-MIN KAQV 220220Z AUTO 00000KT 9SM CLR 12/07 A3010 210 74 0 000/00 RMK AO2 T01170072
03949KAQV AQV20190321202504903/21/19 20:25:31  5-MIN KAQV 220225Z AUTO 000ED.
03949KAQV AQV20190321202510503/21/19 20:25:31  5-MIN KAQV 220225Z AUTO 00000KT 10SM CLR 12/07 A3010 210 71 0 000/00 RMK AO2 T01170067
03949KAQV AQV20190321203010803/21/19 20:30:31  5-MIN KAQV 220230Z AUTO 00000KT 10SM CLR 11/08 A3010 210 80 -100 000/00 RMK AO2 T01110078
03949KAQV AQV20190321203510803/21/19 20:35:31  5-MIN KAQV 220235Z AUTO 00000KT 10SM CLR 12/07 A3010 210 74 -100 000/00 RMK AO2 T01170072
03949KAQV AQV20190321204010803/21/19 20:40:31  5-MIN KAQV 220240Z AUTO 00000KT 10SM CLR 11/07 A3010 210 74 -100 000/00 RMK AO2 T01110067
03949KAQV AQV20190321204510803/21/19 20:45:31  5-MIN KAQV 220245Z AUTO 00000KT 10SM CLR 12/07 A3011 200 71 -100 000/00 RMK AO2 T01170067
03949KAQV AQV20190321205012103/21/19 20:50:31  5-MIN KAQV 220250Z AUTO 00000KT 10SM CLR 12/07 A3011 200 71 -100 000/00 RMK AO2 SLP196 T01170067 55002
03949KAQV AQV20190321205512103/21/19 20:55:31  5-MIN KAQV 220255Z AUTO 02003KT 10SM CLR 12/07 A3011 200 71 -100 020/03 RMK AO2 SLP196 T01170067 55002
03949KAQV AQV20190321210010803/21/19 21:00:31  5-MIN KAQV 220300Z AUTO 00000KT 10SM CLR 11/06 A3011 200 71 -100 000/00 RMK AO2 T01110061
03949KAQV AQV20190321210510803/21/19 21:05:31  5-MIN KAQV 220305Z AUTO 00000KT 10SM CLR 11/06 A3011 200 68 -100 000/00 RMK AO2 T01110056
03949KAQV AQV20190321211010803/21/19 21:10:31  5-MIN KAQV 220310Z AUTO 00000KT 10SM CLR 11/07 A3012 200 74 -100 000/00 RMK AO2 T01110067
03949KAQV AQV20190321211510803/21/19 21:15:31  5-MIN KAQV 220315Z AUTO 00000KT 10SM CLR 11/07 A3012 190 74 -100 000/00 RMK AO2 T01110067
03949KAQV AQV20190321212010803/21/19 21:20:31  5-MIN KAQV 220320Z AUTO 00000KT 10SM CLR 11/06 A3012 190 71 -100 000/00 RMK AO2 T01110061
03949KAQV AQV20190321212510803/21/19 21:25:31  5-MIN KAQV 220325Z AUTO 00000KT 10SM CLR 11/06 A3012 190 71 -100 000/00 RMK AO2 T01110061
03949KAQV AQV20190321213010803/21/19 21:30:31  5-MIN KAQV 220330Z AUTO 00000KT 10SM CLR 11/06 A3012 190 71 -100 000/00 RMK AO2 T01110061
03949KAQV AQV20190321213510803/21/19 21:35:31  5-MIN KAQV 220335Z AUTO 00000KT 10SM CLR 11/07 A3012 190 77 -200 000/00 RMK AO2 T01060067
03949KAQV AQV20190321214010803/21/19 21:40:31  5-MIN KAQV 220340Z AUTO 00000KT 10SM CLR 11/07 A3012 190 77 -200 000/00 RMK AO2 T01060067
03949KAQV AQV20190321214510803/21/19 21:45:31  5-MIN KAQV 220345Z AUTO 00000KT 10SM CLR 11/06 A3012 190 74 -200 000/00 RMK AO2 T01060061
03949KAQV AQV20190321215011503/21/19 21:50:31  5-MIN KAQV 220350Z AUTO 00000KT 10SM CLR 11/06 A3012 190 74 -200 000/00 RMK AO2 SLP199 T01060061
03949KAQV AQV20190321215511503/21/19 21:55:31  5-MIN KAQV 220355Z AUTO 00000KT 10SM CLR 10/07 A3012 190 80 -300 000/00 RMK AO2 SLP200 T01000067
03949KAQV AQV20190321220010803/21/19 22:00:31  5-MIN KAQV 220400Z AUTO 00000KT 10SM CLR 10/07 A3012 190 83 -300 000/00 RMK AO2 T01000072
03949KAQV AQV20190321220510803/21/19 22:05:31  5-MIN KAQV 220405Z AUTO 00000KT 10SM CLR 09/07 A3012 190 86 -300 000/00 RMK AO2 T00940072
03949KAQV AQV20190321221010803/21/19 22:10:31  5-MIN KAQV 220410Z AUTO 00000KT 10SM CLR 09/07 A3013 190 83 -300 000/00 RMK AO2 T00940067
03949KAQV AQV20190321221510803/21/19 22:15:31  5-MIN KAQV 220415Z AUTO 00000KT 10SM CLR 09/06 A3013 190 79 -300 000/00 RMK AO2 T00940061
03949KAQV AQV20190321222010803/21/19 22:20:31  5-MIN KAQV 220420Z AUTO 00000KT 10SM CLR 09/06 A3012 190 79 -300 000/00 RMK AO2 T00940061
03949KAQV AQV20190321222510803/21/19 22:25:31  5-MIN KAQV 220425Z AUTO 00000KT 10SM CLR 09/06 A3012 190 79 -300 000/00 RMK AO2 T00940061
03949KAQV AQV20190321223010803/21/19 22:30:31  5-MIN KAQV 220430Z AUTO 00000KT 10SM CLR 09/06 A3012 190 83 -400 000/00 RMK AO2 T00890061
03949KAQV AQV20190321223510803/21/19 22:35:31  5-MIN KAQV 220435Z AUTO 00000KT 10SM CLR 09/06 A3012 190 83 -400 000/00 RMK AO2 T00890061
03949KAQV AQV20190321224010803/21/19 22:40:31  5-MIN KAQV 220440Z AUTO 00000KT 10SM CLR 09/06 A3012 190 83 -400 000/00 RMK AO2 T00890061
03949KAQV AQV20190321224510803/21/19 22:45:31  5-MIN KAQV 220445Z AUTO 00000KT 10SM CLR 09/06 A3012 190 83 -400 000/00 RMK AO2 T00890061
03949KAQV AQV20190321225011503/21/19 22:50:31  5-MIN KAQV 220450Z AUTO 00000KT 10SM CLR 09/06 A3012 190 83 -400 000/00 RMK AO2 SLP200 T00890061
03949KAQV AQV20190321225511503/21/19 22:55:31  5-MIN KAQV 220455Z AUTO 00000KT 10SM CLR 09/06 A3012 190 83 -400 000/00 RMK AO2 SLP200 T00890061
03949KAQV AQV20190321230010803/21/19 23:00:31  5-MIN KAQV 220500Z AUTO 00000KT 10SM CLR 09/06 A3012 190 83 -400 000/00 RMK AO2 T00890061
03949KAQV AQV20190321230510803/21/19 23:05:31  5-MIN KAQV 220505Z AUTO 00000KT 10SM CLR 09/06 A3012 190 83 -400 000/00 RMK AO2 T00890061
03949KAQV AQV20190321231010803/21/19 23:10:31  5-MIN KAQV 220510Z AUTO 00000KT 10SM CLR 09/06 A3012 190 79 -300 000/00 RMK AO2 T00940061
03949KAQV AQV20190321231510803/21/19 23:15:31  5-MIN KAQV 220515Z AUTO 00000KT 10SM CLR 09/06 A3012 190 83 -400 000/00 RMK AO2 T00890061
03949KAQV AQV20190321232010803/21/19 23:20:31  5-MIN KAQV 220520Z AUTO 00000KT 10SM CLR 09/06 A3012 190 83 -400 000/00 RMK AO2 T00890061
03949KAQV AQV20190321232510803/21/19 23:25:31  5-MIN KAQV 220525Z AUTO 00000KT 10SM CLR 09/06 A3012 190 83 -400 000/00 RMK AO2 T00890061
03949KAQV AQV20190321233010803/21/19 23:30:31  5-MIN KAQV 220530Z AUTO 00000KT 10SM CLR 09/06 A3012 190 83 -400 000/00 RMK AO2 T00890061
03949KAQV AQV20190321233510803/21/19 23:35:31  5-MIN KAQV 220535Z AUTO 00000KT 10SM CLR 09/06 A3012 190 79 -300 000/00 RMK AO2 T00940061
03949KAQV AQV20190321234010803/21/19 23:40:31  5-MIN KAQV 220540Z AUTO 00000KT 10SM CLR 09/06 A3012 190 79 -300 000/00 RMK AO2 T00940061
03949KAQV AQV20190321234510803/21/19 23:45:31  5-MIN KAQV 220545Z AUTO 00000KT 10SM CLR 09/06 A3012 200 79 -300 000/00 RMK AO2 T00940061
03949KAQV AQV20190321235014203/21/19 23:50:31  5-MIN KAQV 220550Z AUTO 00000KT 9SM CLR 09/06 A3012 200 79 -300 000/00 RMK AO2 SLP197 T00940061 10217 20089 402390033 53010
03949KAQV AQV20190321235514203/21/19 23:55:31  5-MIN KAQV 220555Z AUTO 00000KT 9SM CLR 09/06 A3012 200 79 -300 000/00 RMK AO2 SLP197 T00940061 10217 20089 402390033 53010
03949KAQV AQV20190322000010703/22/19 00:00:31  5-MIN KAQV 220600Z AUTO 00000KT 9SM CLR 09/06 A3012 200 79 -300 000/00 RMK AO2 T00940061
03949KAQV AQV20190322000510703/22/19 00:05:31  5-MIN KAQV 220605Z AUTO 00000KT 9SM CLR 09/06 A3012 190 79 -300 000/00 RMK AO2 T00940061
03949KAQV AQV20190322001010703/22/19 00:10:31  5-MIN KAQV 220610Z AUTO 00000KT 9SM CLR 09/06 A3012 190 79 -400 000/00 RMK AO2 T00890056
03949KAQV AQV20190322001510703/22/19 00:15:31  5-MIN KAQV 220615Z AUTO 00000KT 8SM CLR 09/06 A3012 190 79 -400 000/00 RMK AO2 T00890056
03949KAQV AQV20190322002010703/22/19 00:20:31  5-MIN KAQV 220620Z AUTO 00000KT 7SM CLR 09/06 A3012 190 79 -400 000/00 RMK AO2 T00890056
03949KAQV AQV20190322002510703/22/19 00:25:31  5-MIN KAQV 220625Z AUTO 00000KT 7SM CLR 09/06 A3012 190 79 -400 000/00 RMK AO2 T00890056
03949KAQV AQV20190322003010703/22/19 00:30:31  5-MIN KAQV 220630Z AUTO 00000KT 7SM CLR 09/06 A3012 190 79 -400 000/00 RMK AO2 T00890056
03949KAQV AQV20190322003511003/22/19 00:35:31  5-MIN KAQV 220635Z AUTO 00000KT 6SM HZ CLR 09/06 A3012 190 79 -400 000/00 RMK AO2 T00890056
03949KAQV AQV20190322004011003/22/19 00:40:31  5-MIN KAQV 220640Z AUTO 00000KT 6SM HZ CLR 09/06 A3012 190 83 -400 000/00 RMK AO2 T00890061
03949KAQV AQV20190322004510703/22/19 00:45:31  5-MIN KAQV 220645Z AUTO 00000KT 7SM CLR 09/06 A3012 190 83 -400 000/00 RMK AO2 T00890061
03949KAQV AQV20190322005011703/22/19 00:50:31  5-MIN KAQV 220650Z AUTO 00000KT 6SM BR CLR 08/06 A3012 190 86 -500 000/00 RMK AO2 SLP199 T00830061
03949KAQV AQV20190322005511703/22/19 00:55:31  5-MIN KAQV 220655Z AUTO 00000KT 6SM BR CLR 08/06 A3012 190 86 -500 000/00 RMK AO2 SLP199 T00830061
03949KAQV AQV20190322010011003/22/19 01:00:31  5-MIN KAQV 220700Z AUTO 00000KT 6SM BR CLR 08/06 A3012 190 86 -500 000/00 RMK AO2 T00830061
03949KAQV AQV20190322010511003/22/19 01:05:31  5-MIN KAQV 220705Z AUTO 00000KT 6SM BR CLR 08/06 A3012 190 86 -500 000/00 RMK AO2 T00830061
03949KAQV AQV20190322011011003/22/19 01:10:31  5-MIN KAQV 220710Z AUTO 00000KT 6SM BR CLR 08/06 A3012 190 86 -500 000/00 RMK AO2 T00830061
03949KAQV AQV20190322011510703/22/19 01:15:31  5-MIN KAQV 220715Z AUTO 00000KT 8SM CLR 08/06 A3012 190 86 -500 000/00 RMK AO2 T00830061
03949KAQV AQV20190322012010803/22/19 01:20:31  5-MIN KAQV 220720Z AUTO 00000KT 10SM CLR 08/06 A3012 190 89 -500 000/00 RMK AO2 T00780061
03949KAQV AQV20190322012510803/22/19 01:25:31  5-MIN KAQV 220725Z AUTO 00000KT 10SM CLR 08/06 A3012 190 89 -500 000/00 RMK AO2 T00780061
03949KAQV AQV20190322013010803/22/19 01:30:31  5-MIN KAQV 220730Z AUTO 00000KT 10SM CLR 08/06 A3012 190 89 -500 000/00 RMK AO2 T00780061
03949KAQV AQV20190322013510803/22/19 01:35:31  5-MIN KAQV 220735Z AUTO 00000KT 10SM CLR 08/06 A3012 190 89 -500 000/00 RMK AO2 T00780061
03949KAQV AQV20190322014010803/22/19 01:40:31  5-MIN KAQV 220740Z AUTO 00000KT 10SM CLR 08/06 A3012 190 86 -500 000/00 RMK AO2 T00780056
03949KAQV AQV20190322014510803/22/19 01:45:31  5-MIN KAQV 220745Z AUTO 00000KT 10SM CLR 08/06 A3012 190 82 -500 000/00 RMK AO2 T00830056
03949KAQV AQV20190322015011503/22/19 01:50:31  5-MIN KAQV 220750Z AUTO 00000KT 10SM CLR 08/06 A3012 190 86 -500 000/00 RMK AO2 SLP198 T00780056
03949KAQV AQV20190322015511503/22/19 01:55:31  5-MIN KAQV 220755Z AUTO 00000KT 10SM CLR 08/06 A3012 190 86 -500 000/00 RMK AO2 SLP198 T00780056
03949KAQV AQV20190322020010803/22/19 02:00:31  5-MIN KAQV 220800Z AUTO 00000KT 10SM CLR 08/06 A3012 190 86 -500 000/00 RMK AO2 T00780056
03949KAQV AQV20190322020508303/22/19 02:05:31  5-MIN KAQV 220805Z AUTO 00000KT 9SM CLR 08/06 A3012 190 80720044
03949KAQV AQV20190322035011703/22/19 03:50:31  5-MIN KAQV 220950Z AUTO 00000KT 6SM HZ CLR 07/04 A3012 190 82 -600 000/00 RMK AO2 SLP199 T00720044
03949KAQV AQV20190322035511703/22/19 03:55:31  5-MIN KAQV 220955Z AUTO 00000KT 6SM HZ CLR 07/04 A3012 190 82 -600 000/00 RMK AO2 SLP199 T00720044
03949KAQV AQV20190322040011003/22/19 04:00:31  5-MIN KAQV 221000Z AUTO 00000KT 6SM BR CLR 07/04 A3012 190 86 -700 000/00 RMK AO2 T00670044
03949KAQV AQV20190322040511003/22/19 04:05:31  5-MIN KAQV 221005Z AUTO 00000KT 6SM BR CLR 07/04 A3012 190 86 -700 000/00 RMK AO2 T00670044
03949KAQV AQV20190322040515003/22/19 04:05:31  5-MIN KAQV 221005Z AUTO 00000KT 6SM BR CLR 07/04 A3012 190 86 -700000KT 6SM HZ CLR 07/04 A3012 190 82 -600 000/00 RMK AO2 T00720044
03949KAQV AQV20190322041011003/22/19 04:10:31  5-MIN KAQV 221010Z AUTO 00000KT 6SM BR CLR 07/04 A3012 190 86 -700 000/00 RMK AO2 T00670044
03949KAQV AQV20190322041511003/22/19 04:15:31  5-MIN KAQV 221015Z AUTO 00000KT 6SM BR CLR 07/04 A3012 190 86 -700 000/00 RMK AO2 T00670044
03949KAQV AQV20190322041516403/22/19 04:15:31  5-MIN KAQV 221015Z AUTO 00000KT 6SM BR CLR 07/04 A3012 190 20955Z AUTO 00000KT 6SM HZ CLR 07/04 A3012 190 82 -600 000/00 RMK AO2 SLP199 T00720044
03949KAQV AQV20190322042011003/22/19 04:20:31  5-MIN KAQV 221020Z AUTO 00000KT 5SM BR CLR 07/04 A3013 190 86 -700 000/00 RMK AO2 T00670044
03949KAQV AQV20190322042505403/22/19 04:25:31  5-MIN KAQV 221025Z AUTO 00000K70044
03949KAQV AQV20190322042511003/22/19 04:25:31  5-MIN KAQV 221025Z AUTO 00000KT 5SM BR CLR 07/04 A3013 180 86 -700 000/00 RMK AO2 T00670044
03949KAQV AQV20190322043011003/22/19 04:30:31  5-MIN KAQV 221030Z AUTO 00000KT 5SM BR CLR 06/04 A3013 180 89 -800 000/00 RMK AO2 T00610044
03949KAQV AQV20190322043511003/22/19 04:35:31  5-MIN KAQV 221035Z AUTO 00000KT 5SM BR CLR 06/04 A3013 180 89 -800 000/00 RMK AO2 T00610044
03949KAQV AQV20190322044011003/22/19 04:40:31  5-MIN KAQV 221040Z AUTO 00000KT 5SM BR CLR 06/04 A3014 180 89 -800 000/00 RMK AO2 T00610044
03949KAQV AQV20190322044016203/22/19 04:40:31  5-MIN KAQV 221040Z AUTO 00000KT 5SM BR CLR 06/04 A3014 180 89 -800 000/00 RMK AO2 T0061004403/22/19 043013 190 86 -700 000/00 RMK AO2 T00670044
03949KAQV AQV20190322044511003/22/19 04:45:31  5-MIN KAQV 221045Z AUTO 00000KT 5SM BR CLR 06/04 A3014 180 89 -800 000/00 RMK AO2 T00610044
03949KAQV AQV20190322045011703/22/19 04:50:31  5-MIN KAQV 221050Z AUTO 00000KT 6SM BR CLR 06/04 A3014 180 89 -800 000/00 RMK AO2 SLP205 T00610044
03949KAQV AQV20190322045511703/22/19 04:55:31  5-MIN KAQV 221055Z AUTO 00000KT 6SM BR CLR 06/04 A3014 170 86 -800 000/00 RMK AO2 SLP205 T00610039
03949KAQV AQV20190322050011003/22/19 05:00:31  5-MIN KAQV 221100Z AUTO 00000KT 6SM BR CLR 06/04 A3014 170 86 -800 000/00 RMK AO2 T00610039
03949KAQV AQV20190322050511003/22/19 05:05:31  5-MIN KAQV 221105Z AUTO 00000KT 6SM BR CLR 06/04 A3014 170 86 -800 000/00 RMK AO2 T00610039
03949KAQV AQV20190322051011003/22/19 05:10:31  5-MIN KAQV 221110Z AUTO 00000KT 6SM BR CLR 06/04 A3014 170 86 -800 000/00 RMK AO2 T00610039
03949KAQV AQV20190322051510703/22/19 05:15:31  5-MIN KAQV 221115Z AUTO 00000KT 7SM CLR 06/04 A3014 170 89 -800 000/00 RMK AO2 T00560039
03949KAQV AQV20190322052010703/22/19 05:20:31  5-MIN KAQV 221120Z AUTO 00000KT 7SM CLR 06/04 A3015 170 89 -800 000/00 RMK AO2 T00560039
03949KAQV AQV20190322052511003/22/19 05:25:31  5-MIN KAQV 221125Z AUTO 00000KT 6SM BR CLR 06/04 A3015 170 89 -800 000/00 RMK AO2 T00560039
03949KAQV AQV20190322053011003/22/19 05:30:31  5-MIN KAQV 221130Z AUTO 00000KT 6SM BR CLR 06/04 A3015 160 86 -800 000/00 RMK AO2 T00610039
03949KAQV AQV20190322053511003/22/19 05:35:31  5-MIN KAQV 221135Z AUTO 00000KT 6SM BR CLR 06/04 A3015 160 86 -800 000/00 RMK AO2 T00610039
03949KAQV AQV20190322054011003/22/19 05:40:31  5-MIN KAQV 221140Z AUTO 00000KT 6SM BR CLR 06/04 A3015 160 89 -800 000/00 RMK AO2 T00610044
03949KAQV AQV20190322054511003/22/19 05:45:31  5-MIN KAQV 221145Z AUTO 00000KT 6SM BR CLR 06/04 A3015 160 92 -900 000/00 RMK AO2 T00560044
03949KAQV AQV20190322055013503/22/19 05:50:31  5-MIN KAQV 221150Z AUTO 00000KT 5SM BR CLR 06/04 A3015 160 89 -900 000/00 RMK AO2 SLP211 T00560039 10094 20056 51001
03949KAQV AQV20190322055513903/22/19 05:55:31  5-MIN KAQV 221155Z AUTO 00000KT 1 3/4SM BR CLR 06/04 A3016 160 89 -900 000/00 RMK AO2 SLP211 T00560039 10094 20056 51001
03949KAQV AQV20190322060011403/22/19 06:00:31  5-MIN KAQV 221200Z AUTO 00000KT 1 1/4SM BR CLR 06/04 A3016 160 89 -900 000/00 RMK AO2 T00560039
03949KAQV AQV20190322060511003/22/19 06:05:31  5-MIN KAQV 221205Z AUTO 00000KT 2SM BR CLR 06/04 A3016 160 89 -900 000/00 RMK AO2 T00560039
03949KAQV AQV20190322061011003/22/19 06:10:31  5-MIN KAQV 221210Z AUTO 00000KT 4SM BR CLR 06/04 A3016 160 89 -900 000/00 RMK AO2 T00560039
03949KAQV AQV20190322061511003/22/19 06:15:31  5-MIN KAQV 221215Z AUTO 00000KT 4SM BR CLR 06/04 A3016 160 89 -900 000/00 RMK AO2 T00560039
03949KAQV AQV20190322062011003/22/19 06:20:31  5-MIN KAQV 221220Z AUTO 00000KT 4SM BR CLR 06/04 A3016 150 89 -900 000/00 RMK AO2 T00560039
03949KAQV AQV20190322062511003/22/19 06:25:31  5-MIN KAQV 221225Z AUTO 00000KT 4SM BR CLR 06/04 A3016 150 89 -900 000/00 RMK AO2 T00560039
03949KAQV AQV20190322063011003/22/19 06:30:31  5-MIN KAQV 221230Z AUTO 00000KT 4SM BR CLR 06/04 A3016 150 89 -900 000/00 RMK AO2 T00560039
03949KAQV AQV20190322063511003/22/19 06:35:31  5-MIN KAQV 221235Z AUTO 00000KT 4SM BR CLR 06/04 A3016 150 89 -900 000/00 RMK AO2 T00560039
03949KAQV AQV20190322064011003/22/19 06:40:31  5-MIN KAQV 221240Z AUTO 00000KT 5SM BR CLR 06/04 A3016 150 92 -900 000/00 RMK AO2 T00560044
03949KAQV AQV20190322064511003/22/19 06:45:31  5-MIN KAQV 221245Z AUTO 00000KT 5SM BR CLR 06/04 A3016 150 92 -900 000/00 RMK AO2 T00560044
03949KAQV AQV20190322065011703/22/19 06:50:31  5-MIN KAQV 221250Z AUTO 00000KT 5SM BR CLR 06/04 A3016 150 92 -900 000/00 RMK AO2 SLP215 T00560044
03949KAQV AQV20190322065511703/22/19 06:55:31  5-MIN KAQV 221255Z AUTO 00000KT 6SM BR CLR 06/04 A3017 150 89 -800 000/00 RMK AO2 SLP216 T00610044
03949KAQV AQV20190322070011003/22/19 07:00:31  5-MIN KAQV 221300Z AUTO 00000KT 6SM BR CLR 06/04 A3017 150 89 -800 000/00 RMK AO2 T00610044
03949KAQV AQV20190322070510703/22/19 07:05:31  5-MIN KAQV 221305Z AUTO 07003KT 7SM CLR 07/05 A3017 150 89 -700 070/03 RMK AO2 T00670050
03949KAQV AQV20190322071010703/22/19 07:10:31  5-MIN KAQV 221310Z AUTO VRB03KT 9SM CLR 08/06 A3017 150 86 -600 VRB/03 RMK AO2 T00780056
03949KAQV AQV20190322071510803/22/19 07:15:31  5-MIN KAQV 221315Z AUTO 00000KT 10SM CLR 09/06 A3017 150 76 -400 000/00 RMK AO2 T00940056
03949KAQV AQV20190322072010803/22/19 07:20:31  5-MIN KAQV 221320Z AUTO 00000KT 10SM CLR 11/06 A3017 150 71 -300 000/00 RMK AO2 T01060056
03949KAQV AQV20190322072510803/22/19 07:25:31  5-MIN KAQV 221325Z AUTO VRB03KT 10SM CLR 11/06 A3017 140 71 -200 VRB/03 RMK AO2 T01110061
03949KAQV AQV20190322073010803/22/19 07:30:31  5-MIN KAQV 221330Z AUTO VRB03KT 10SM CLR 11/06 A3017 140 68 -200 VRB/03 RMK AO2 T01110056
03949KAQV AQV20190322073510803/22/19 07:35:31  5-MIN KAQV 221335Z AUTO 00000KT 10SM CLR 12/06 A3018 140 66 -100 000/00 RMK AO2 T01170056
03949KAQV AQV20190322074010803/22/19 07:40:31  5-MIN KAQV 221340Z AUTO VRB03KT 10SM CLR 12/06 A3018 140 63 -100 VRB/03 RMK AO2 T01220056
03949KAQV AQV20190322074510503/22/19 07:45:31  5-MIN KAQV 221345Z AUTO 00000KT 10SM CLR 13/06 A3018 140 61 0 000/00 RMK AO2 T01280056
03949KAQV AQV20190322075011203/22/19 07:50:31  5-MIN KAQV 221350Z AUTO 00000KT 10SM CLR 13/05 A3018 140 59 0 000/00 RMK AO2 SLP219 T01280050
03949KAQV AQV20190322075511203/22/19 07:55:31  5-MIN KAQV 221355Z AUTO VRB03KT 10SM CLR 13/06 A3018 140 59 0 VRB/03 RMK AO2 SLP220 T01330056
03949KAQV AQV20190322080010703/22/19 08:00:31  5-MIN KAQV 221400Z AUTO 00000KT 10SM CLR 14/06 A3018 140 57 100 000/00 RMK AO2 T01390056
03949KAQV AQV20190322080510703/22/19 08:05:31  5-MIN KAQV 221405Z AUTO VRB03KT 10SM CLR 14/06 A3018 140 57 100 VRB/03 RMK AO2 T01390056
03949KAQV AQV20190322081010703/22/19 08:10:31  5-MIN KAQV 221410Z AUTO 00000KT 10SM CLR 14/05 A3018 140 55 100 000/00 RMK AO2 T01390050
03949KAQV AQV20190322081510703/22/19 08:15:31  5-MIN KAQV 221415Z AUTO 00000KT 10SM CLR 14/05 A3018 140 53 100 000/00 RMK AO2 T01440050
03949KAQV AQV20190322082010703/22/19 08:20:31  5-MIN KAQV 221420Z AUTO VRB03KT 10SM CLR 14/05 A3018 140 53 100 VRB/03 RMK AO2 T01440050
03949KAQV AQV20190322082510703/22/19 08:25:31  5-MIN KAQV 221425Z AUTO VRB04KT 10SM CLR 15/05 A3018 140 51 200 VRB/04 RMK AO2 T01500050
03949KAQV AQV20190322083010703/22/19 08:30:31  5-MIN KAQV 221430Z AUTO VRB03KT 10SM CLR 16/06 A3018 140 51 300 VRB/03 RMK AO2 T01560056
03949KAQV AQV20190322083510703/22/19 08:35:31  5-MIN KAQV 221435Z AUTO 00000KT 10SM CLR 16/06 A3018 130 49 300 000/00 RMK AO2 T01610056
03949KAQV AQV20190322084010703/22/19 08:40:31  5-MIN KAQV 221440Z AUTO 00000KT 10SM CLR 16/06 A3018 140 49 300 000/00 RMK AO2 T01610056
03949KAQV AQV20190322084510703/22/19 08:45:31  5-MIN KAQV 221445Z AUTO 12006KT 10SM CLR 16/05 A3018 140 49 300 120/06 RMK AO2 T01560050
03949KAQV AQV20190322085012003/22/19 08:50:31  5-MIN KAQV 221450Z AUTO VRB03KT 10SM CLR 16/04 A3018 140 45 300 VRB/03 RMK AO2 SLP219 T01610044 53012
03949KAQV AQV20190322085512003/22/19 08:55:31  5-MIN KAQV 221455Z AUTO VRB04KT 10SM CLR 16/04 A3018 140 45 300 VRB/04 RMK AO2 SLP218 T01610044 53012
03949KAQV AQV20190322090010703/22/19 09:00:31  5-MIN KAQV 221500Z AUTO VRB05KT 10SM CLR 17/04 A3018 140 44 400 VRB/05 RMK AO2 T01670044
03949KAQV AQV20190322090510703/22/19 09:05:31  5-MIN KAQV 221505Z AUTO VRB03KT 10SM CLR 17/04 A3018 140 42 500 VRB/03 RMK AO2 T01720044
03949KAQV AQV20190322091010703/22/19 09:10:31  5-MIN KAQV 221510Z AUTO VRB03KT 10SM CLR 18/04 A3018 140 41 500 VRB/03 RMK AO2 T01780044
03949KAQV AQV20190322091510703/22/19 09:15:31  5-MIN KAQV 221515Z AUTO VRB04KT 10SM CLR 18/04 A3018 140 41 500 VRB/04 RMK AO2 T01780044
03949KAQV AQV20190322092010703/22/19 09:20:31  5-MIN KAQV 221520Z AUTO VRB05KT 10SM CLR 18/04 A3018 130 39 600 VRB/05 RMK AO2 T01830044
03949KAQV AQV20190322092510703/22/19 09:25:31  5-MIN KAQV 221525Z AUTO VRB04KT 10SM CLR 19/05 A3018 130 39 700 VRB/04 RMK AO2 T01890050
03949KAQV AQV20190322093010703/22/19 09:30:31  5-MIN KAQV 221530Z AUTO VRB04KT 10SM CLR 18/04 A3018 130 39 600 VRB/04 RMK AO2 T01830044
03949KAQV AQV20190322093510703/22/19 09:35:31  5-MIN KAQV 221535Z AUTO VRB04KT 10SM CLR 19/04 A3019 130 38 700 VRB/04 RMK AO2 T01890044
03949KAQV AQV20190322094010703/22/19 09:40:31  5-MIN KAQV 221540Z AUTO VRB04KT 10SM CLR 19/04 A3019 130 37 700 VRB/04 RMK AO2 T01940044
03949KAQV AQV20190322094510703/22/19 09:45:31  5-MIN KAQV 221545Z AUTO VRB03KT 10SM CLR 19/05 A3019 130 38 700 VRB/03 RMK AO2 T01940050
03949KAQV AQV20190322095011403/22/19 09:50:31  5-MIN KAQV 221550Z AUTO 11004KT 10SM CLR 19/04 A3019 130 37 700 110/04 RMK AO2 SLP223 T01940044
03949KAQV AQV20190322095511403/22/19 09:55:31  5-MIN KAQV 221555Z AUTO VRB05KT 10SM CLR 20/05 A3019 130 37 800 VRB/05 RMK AO2 SLP224 T02000050
03949KAQV AQV20190322100010703/22/19 10:00:31  5-MIN KAQV 221600Z AUTO VRB05KT 10SM CLR 20/05 A3019 120 37 800 VRB/05 RMK AO2 T02000050
03949KAQV AQV20190322100510703/22/19 10:05:31  5-MIN KAQV 221605Z AUTO VRB04KT 10SM CLR 20/04 A3019 130 35 800 VRB/04 RMK AO2 T02000044
03949KAQV AQV20190322101010703/22/19 10:10:31  5-MIN KAQV 221610Z AUTO 00000KT 10SM CLR 21/05 A3019 130 35 800 000/00 RMK AO2 T02060050
03949KAQV AQV20190322101510703/22/19 10:15:31  5-MIN KAQV 221615Z AUTO VRB03KT 10SM CLR 21/05 A3019 130 34 900 VRB/03 RMK AO2 T02110050
03949KAQV AQV20190322102010703/22/19 10:20:31  5-MIN KAQV 221620Z AUTO VRB04KT 10SM CLR 21/05 A3019 130 34 900 VRB/04 RMK AO2 T02110050
03949KAQV AQV20190322102510703/22/19 10:25:31  5-MIN KAQV 221625Z AUTO VRB05KT 10SM CLR 21/04 A3019 130 34 800 VRB/05 RMK AO2 T02060044
03949KAQV AQV20190322103010703/22/19 10:30:31  5-MIN KAQV 221630Z AUTO 00000KT 10SM CLR 21/05 A3019 130 34 900 000/00 RMK AO2 T02110050
03949KAQV AQV20190322103510703/22/19 10:35:31  5-MIN KAQV 221635Z AUTO 00000KT 10SM CLR 21/04 A3019 130 33 900 000/00 RMK AO2 T02110044
03949KAQV AQV20190322104010703/22/19 10:40:31  5-MIN KAQV 221640Z AUTO VRB03KT 10SM CLR 21/04 A3019 130 33 900 VRB/03 RMK AO2 T02110044
03949KAQV AQV20190322104510703/22/19 10:45:31  5-MIN KAQV 221645Z AUTO 00000KT 10SM CLR 21/04 A3019 130 33 900 000/00 RMK AO2 T02110044
03949KAQV AQV20190322105011503/22/19 10:50:31  5-MIN KAQV 221650Z AUTO VRB03KT 10SM CLR 22/04 A3019 130 30 1000 VRB/03 RMK AO2 SLP221 T02220039
03949KAQV AQV20190322105511503/22/19 10:55:31  5-MIN KAQV 221655Z AUTO 02004KT 10SM CLR 23/04 A3019 130 30 1100 010/04 RMK AO2 SLP221 T02280044
03949KAQV AQV20190322110010803/22/19 11:00:31  5-MIN KAQV 221700Z AUTO 00000KT 10SM CLR 23/04 A3018 130 29 1200 000/00 RMK AO2 T02330044
03949KAQV AQV20190322110510803/22/19 11:05:31  5-MIN KAQV 221705Z AUTO VRB03KT 10SM CLR 23/04 A3018 140 28 1200 VRB/03 RMK AO2 T02330039
03949KAQV AQV20190322111010803/22/19 11:10:31  5-MIN KAQV 221710Z AUTO 33005KT 10SM CLR 23/03 A3018 140 27 1100 330/05 RMK AO2 T02280033
03949KAQV AQV20190322111510803/22/19 11:15:31  5-MIN KAQV 221715Z AUTO VRB03KT 10SM CLR 23/03 A3017 140 26 1200 VRB/03 RMK AO2 T02330033
03949KAQV AQV20190322112010803/22/19 11:20:31  5-MIN KAQV 221720Z AUTO VRB05KT 10SM CLR 23/03 A3017 140 26 1200 VRB/05 RMK AO2 T02330033
03949KAQV AQV20190322112510803/22/19 11:25:31  5-MIN KAQV 221725Z AUTO 00000KT 10SM CLR 23/02 A3017 140 24 1100 000/00 RMK AO2 T02280017
03949KAQV AQV20190322113010803/22/19 11:30:31  5-MIN KAQV 221730Z AUTO 36005KT 10SM CLR 23/02 A3017 150 24 1100 350/05 RMK AO2 T02280017
03949KAQV AQV20190322113510803/22/19 11:35:31  5-MIN KAQV 221735Z AUTO VRB04KT 10SM CLR 23/02 A3017 150 24 1200 VRB/04 RMK AO2 T02330017
03949KAQV AQV20190322114010803/22/19 11:40:31  5-MIN KAQV 221740Z AUTO 27005KT 10SM CLR 23/01 A3017 150 23 1100 270/05 RMK AO2 T02280011
03949KAQV AQV20190322114510803/22/19 11:45:31  5-MIN KAQV 221745Z AUTO 00000KT 10SM CLR 23/02 A3016 150 24 1100 000/00 RMK AO2 T02280017
03949KAQV AQV20190322115013303/22/19 11:50:31  5-MIN KAQV 221750Z AUTO VRB03KT 10SM CLR 23/02 A3016 150 24 1200 VRB/03 RMK AO2 SLP213 T02330017 10233 20056 50007
03949KAQV AQV20190322115512303/22/19 11:55:31  5-MIN KAQV 221755Z AUTO 10SM CLR 24/01 A3016 160 22 1300 M /M RMK AO2 SLP212 T02390011 10239 20056 50007
03949KAQV AQV20190322120010803/22/19 12:00:31  5-MIN KAQV 221800Z AUTO 01003KT 10SM CLR 24/01 A3016 160 22 1300 010/03 RMK AO2 T02390011
03949KAQV AQV20190322120509803/22/19 12:05:31  5-MIN KAQV 221805Z AUTO 10SM CLR 23/01 A3015 160 22 1200 M /M RMK AO2 T02330006
03949KAQV AQV20190322121010803/22/19 12:10:31  5-MIN KAQV 221810Z AUTO VRB06KT 10SM CLR 24/01 A3015 170 22 1300 VRB/06 RMK AO2 T02390011
03949KAQV AQV20190322121510803/22/19 12:15:31  5-MIN KAQV 221815Z AUTO VRB03KT 10SM CLR 24/01 A3015 170 22 1300 VRB/03 RMK AO2 T02390011
03949KAQV AQV20190322122010803/22/19 12:20:31  5-MIN KAQV 221820Z AUTO VRB05KT 10SM CLR 24/02 A3014 170 22 1300 VRB/05 RMK AO2 T02440017
03949KAQV AQV20190322122510803/22/19 12:25:31  5-MIN KAQV 221825Z AUTO 35005KT 10SM CLR 24/02 A3014 170 23 1300 340/05 RMK AO2 T02440022
03949KAQV AQV20190322123011103/22/19 12:30:31  5-MIN KAQV 221830Z AUTO VRB03KT 10SM FEW055 24/02 A3014 180 23 1300 VRB/03 RMK AO2 T02390017
03949KAQV AQV20190322123511103/22/19 12:35:31  5-MIN KAQV 221835Z AUTO VRB03KT 10SM FEW055 23/01 A3013 180 22 1200 VRB/03 RMK AO2 T02280006
03949KAQV AQV20190322124011103/22/19 12:40:31  5-MIN KAQV 221840Z AUTO 00000KT 10SM FEW055 23/01 A3013 180 23 1200 000/00 RMK AO2 T02330011
03949KAQV AQV20190322124511103/22/19 12:45:31  5-MIN KAQV 221845Z AUTO VRB03KT 10SM FEW055 24/01 A3013 180 22 1300 VRB/03 RMK AO2 T02390011
03949KAQV AQV20190322125011803/22/19 12:50:31  5-MIN KAQV 221850Z AUTO 04007KT 10SM FEW055 24/01 A3013 190 21 1400 040/07 RMK AO2 SLP201 T02440011
03949KAQV AQV20190322125511803/22/19 12:55:31  5-MIN KAQV 221855Z AUTO VRB05KT 10SM FEW055 24/01 A3012 190 20 1400 VRB/05 RMK AO2 SLP200 T02440006
03949KAQV AQV20190322130010803/22/19 13:00:31  5-MIN KAQV 221900Z AUTO 00000KT 10SM CLR 25/01 A3012 190 20 1400 000/00 RMK AO2 T02500011
03949KAQV AQV20190322130509803/22/19 13:05:31  5-MIN KAQV 221905Z AUTO 10SM CLR 25/01 A3012 190 20 1400 M /M RMK AO2 T02500011
03949KAQV AQV20190322131010803/22/19 13:10:31  5-MIN KAQV 221910Z AUTO 35005KT 10SM CLR 24/01 A3012 200 20 1400 340/05 RMK AO2 T02440006
03949KAQV AQV20190322131510803/22/19 13:15:31  5-MIN KAQV 221915Z AUTO 36005KT 10SM CLR 25/02 A3011 200 21 1400 360/05 RMK AO2 T02500017
03949KAQV AQV20190322132010803/22/19 13:20:31  5-MIN KAQV 221920Z AUTO VRB05KT 10SM CLR 25/02 A3011 200 21 1400 VRB/05 RMK AO2 T02500017
03949KAQV AQV20190322132510803/22/19 13:25:31  5-MIN KAQV 221925Z AUTO 00000KT 10SM CLR 24/01 A3011 200 21 1400 000/00 RMK AO2 T02440011
03949KAQV AQV20190322133010803/22/19 13:30:31  5-MIN KAQV 221930Z AUTO 26004KT 10SM CLR 24/01 A3011 200 21 1400 260/04 RMK AO2 T02440011
03949KAQV AQV20190322133510803/22/19 13:35:31  5-MIN KAQV 221935Z AUTO VRB03KT 10SM CLR 24/01 A3011 210 20 1400 VRB/03 RMK AO2 T02440006
03949KAQV AQV20190322134010803/22/19 13:40:31  5-MIN KAQV 221940Z AUTO 00000KT 10SM CLR 24/01 A3011 210 22 1300 000/00 RMK AO2 T02390011
03949KAQV AQV20190322134510803/22/19 13:45:31  5-MIN KAQV 221945Z AUTO 18004KT 10SM CLR 25/01 A3010 210 20 1500 170/04 RMK AO2 T02500011
03949KAQV AQV20190322135011503/22/19 13:50:31  5-MIN KAQV 221950Z AUTO VRB04KT 10SM CLR 26/02 A3010 210 21 1500 VRB/04 RMK AO2 SLP193 T02560017
03949KAQV AQV20190322135511503/22/19 13:55:31  5-MIN KAQV 221955Z AUTO VRB04KT 10SM CLR 25/01 A3010 210 20 1500 VRB/04 RMK AO2 SLP193 T02500011
03949KAQV AQV20190322140010803/22/19 14:00:31  5-MIN KAQV 222000Z AUTO 00000KT 10SM CLR 24/01 A3010 210 20 1400 000/00 RMK AO2 T02440006
03949KAQV AQV20190322140510803/22/19 14:05:31  5-MIN KAQV 222005Z AUTO 00000KT 10SM CLR 25/01 A3010 210 20 1500 000/00 RMK AO2 T02500006
03949KAQV AQV20190322141010803/22/19 14:10:31  5-MIN KAQV 222010Z AUTO VRB04KT 10SM CLR 26/01 A3010 210 20 1500 VRB/04 RMK AO2 T02560011
03949KAQV AQV20190322141510803/22/19 14:15:31  5-MIN KAQV 222015Z AUTO 00000KT 10SM CLR 25/00 A3010 210 19 1500 000/00 RMK AO2 T02500000
03949KAQV AQV20190322142010803/22/19 14:20:31  5-MIN KAQV 222020Z AUTO VRB03KT 10SM CLR 26/01 A3010 210 19 1500 VRB/03 RMK AO2 T02560006
03949KAQV AQV20190322142510803/22/19 14:25:31  5-MIN KAQV 222025Z AUTO VRB04KT 10SM CLR 26/01 A3010 210 20 1500 VRB/04 RMK AO2 T02560011
03949KAQV AQV20190322143010803/22/19 14:30:31  5-MIN KAQV 222030Z AUTO 03004KT 10SM CLR 26/01 A3009 220 20 1500 020/04 RMK AO2 T02560011
03949KAQV AQV20190322143510803/22/19 14:35:31  5-MIN KAQV 222035Z AUTO VRB04KT 10SM CLR 25/01 A3009 220 20 1500 VRB/04 RMK AO2 T02500011
03949KAQV AQV20190322144010803/22/19 14:40:31  5-MIN KAQV 222040Z AUTO 00000KT 10SM CLR 25/01 A3009 220 20 1500 000/00 RMK AO2 T02500011
03949KAQV AQV20190322144510803/22/19 14:45:31  5-MIN KAQV 222045Z AUTO 01004KT 10SM CLR 26/01 A3009 220 19 1500 010/04 RMK AO2 T02560006
03949KAQV AQV20190322145012103/22/19 14:50:31  5-MIN KAQV 222050Z AUTO 01004KT 10SM CLR 26/01 A3009 220 19 1500 010/04 RMK AO2 SLP188 T02560006 58006
03949KAQV AQV20190322145512103/22/19 14:55:31  5-MIN KAQV 222055Z AUTO 36003KT 10SM CLR 26/00 A3009 220 18 1500 350/03 RMK AO2 SLP187 T02560000 58006
03949KAQV AQV20190322150010803/22/19 15:00:31  5-MIN KAQV 222100Z AUTO 00000KT 10SM CLR 25/00 A3008 230 19 1500 000/00 RMK AO2 T02500000
03949KAQV AQV20190322150510703/22/19 15:05:31  5-MIN KAQV 222105Z AUTO 18003KT 9SM CLR 25/01 A3008 230 20 1500 170/03 RMK AO2 T02500006
03949KAQV AQV20190322151010703/22/19 15:10:31  5-MIN KAQV 222110Z AUTO 18003KT 8SM CLR 25/01 A3008 230 20 1500 170/03 RMK AO2 T02500006
03949KAQV AQV20190322151510703/22/19 15:15:31  5-MIN KAQV 222115Z AUTO 29004KT 8SM CLR 25/01 A3008 230 20 1500 290/04 RMK AO2 T02500006
03949KAQV AQV20190322152010803/22/19 15:20:31  5-MIN KAQV 222120Z AUTO 00000KT 10SM CLR 25/01 A3008 230 20 1500 000/00 RMK AO2 T02500006
03949KAQV AQV20190322152510803/22/19 15:25:31  5-MIN KAQV 222125Z AUTO VRB03KT 10SM CLR 26/01 A3008 230 20 1500 VRB/03 RMK AO2 T02560011
03949KAQV AQV20190322153010803/22/19 15:30:31  5-MIN KAQV 222130Z AUTO 00000KT 10SM CLR 26/01 A3007 230 18 1600 000/00 RMK AO2 T02610006
03949KAQV AQV20190322153510803/22/19 15:35:31  5-MIN KAQV 222135Z AUTO VRB04KT 10SM CLR 26/01 A3007 240 19 1600 VRB/04 RMK AO2 T02560006
03949KAQV AQV20190322154010803/22/19 15:40:31  5-MIN KAQV 222140Z AUTO 00000KT 10SM CLR 26/01 A3007 240 19 1600 000/00 RMK AO2 T02610011
03949KAQV AQV20190322154510803/22/19 15:45:31  5-MIN KAQV 222145Z AUTO 00000KT 10SM CLR 26/01 A3007 240 20 1600 000/00 RMK AO2 T02560011
03949KAQV AQV20190322155011503/22/19 15:50:31  5-MIN KAQV 222150Z AUTO VRB03KT 10SM CLR 26/01 A3006 240 20 1600 VRB/03 RMK AO2 SLP180 T02560011
03949KAQV AQV20190322155511503/22/19 15:55:31  5-MIN KAQV 222155Z AUTO 00000KT 10SM CLR 25/01 A3006 250 20 1500 000/00 RMK AO2 SLP179 T02500011
03949KAQV AQV20190322160010803/22/19 16:00:31  5-MIN KAQV 222200Z AUTO 00000KT 10SM CLR 25/01 A3006 250 20 1500 000/00 RMK AO2 T02500006
03949KAQV AQV20190322160510803/22/19 16:05:31  5-MIN KAQV 222205Z AUTO 03003KT 10SM CLR 26/01 A3006 250 20 1600 020/03 RMK AO2 T02560011
03949KAQV AQV20190322161010803/22/19 16:10:31  5-MIN KAQV 222210Z AUTO 00000KT 10SM CLR 25/01 A3006 250 20 1500 000/00 RMK AO2 T02500006
03949KAQV AQV20190322161510803/22/19 16:15:31  5-MIN KAQV 222215Z AUTO 00000KT 10SM CLR 24/01 A3006 250 20 1400 000/00 RMK AO2 T02440006
03949KAQV AQV20190322162010803/22/19 16:20:31  5-MIN KAQV 222220Z AUTO 00000KT 10SM CLR 25/01 A3006 250 20 1500 000/00 RMK AO2 T02500011
03949KAQV AQV20190322162510803/22/19 16:25:31  5-MIN KAQV 222225Z AUTO 00000KT 10SM CLR 26/01 A3006 250 19 1600 000/00 RMK AO2 T02560006
03949KAQV AQV20190322163010803/22/19 16:30:31  5-MIN KAQV 222230Z AUTO 00000KT 10SM CLR 26/01 A3006 250 19 1600 000/00 RMK AO2 T02560006
03949KAQV AQV20190322163510803/22/19 16:35:31  5-MIN KAQV 222235Z AUTO 00000KT 10SM CLR 26/01 A3006 250 20 1600 000/00 RMK AO2 T02560011
03949KAQV AQV20190322164010803/22/19 16:40:31  5-MIN KAQV 222240Z AUTO 00000KT 10SM CLR 24/01 A3006 250 20 1400 000/00 RMK AO2 T02440006
03949KAQV AQV20190322164510803/22/19 16:45:31  5-MIN KAQV 222245Z AUTO 02003KT 10SM CLR 25/02 A3006 250 21 1500 020/03 RMK AO2 T02500017
03949KAQV AQV20190322165011503/22/19 16:50:31  5-MIN KAQV 222250Z AUTO 00000KT 10SM CLR 25/02 A3006 250 22 1500 000/00 RMK AO2 SLP178 T02500022
03949KAQV AQV20190322165511503/22/19 16:55:31  5-MIN KAQV 222255Z AUTO 01004KT 10SM CLR 26/02 A3006 250 21 1600 360/04 RMK AO2 SLP178 T02560022
03949KAQV AQV20190322170010803/22/19 17:00:31  5-MIN KAQV 222300Z AUTO 02004KT 10SM CLR 25/02 A3006 250 21 1500 020/04 RMK AO2 T02500017
03949KAQV AQV20190322170510803/22/19 17:05:31  5-MIN KAQV 222305Z AUTO VRB04KT 10SM CLR 25/02 A3006 250 21 1500 VRB/04 RMK AO2 T02500017
03949KAQV AQV20190322171010803/22/19 17:10:31  5-MIN KAQV 222310Z AUTO 35003KT 10SM CLR 24/02 A3006 250 22 1400 350/03 RMK AO2 T02440017
03949KAQV AQV20190322171510803/22/19 17:15:31  5-MIN KAQV 222315Z AUTO VRB03KT 10SM CLR 23/02 A3006 240 24 1300 VRB/03 RMK AO2 T02330017
03949KAQV AQV20190322172010803/22/19 17:20:31  5-MIN KAQV 222320Z AUTO 00000KT 10SM CLR 23/02 A3006 240 24 1300 000/00 RMK AO2 T02330017
03949KAQV AQV20190322172510803/22/19 17:25:31  5-MIN KAQV 222325Z AUTO 00000KT 10SM CLR 23/02 A3006 240 24 1300 000/00 RMK AO2 T02330022
03949KAQV AQV20190322173010803/22/19 17:30:31  5-MIN KAQV 222330Z AUTO VRB03KT 10SM CLR 23/03 A3006 240 25 1300 VRB/03 RMK AO2 T02330028
03949KAQV AQV20190322173510803/22/19 17:35:31  5-MIN KAQV 222335Z AUTO 04003KT 10SM CLR 23/02 A3006 240 25 1200 030/03 RMK AO2 T02280022
03949KAQV AQV20190322174010803/22/19 17:40:31  5-MIN KAQV 222340Z AUTO 00000KT 10SM CLR 23/02 A3006 240 25 1200 000/00 RMK AO2 T02280022
03949KAQV AQV20190322174510803/22/19 17:45:31  5-MIN KAQV 222345Z AUTO 00000KT 10SM CLR 21/03 A3006 240 30 1100 000/00 RMK AO2 T02110033
03949KAQV AQV20190322175013303/22/19 17:50:31  5-MIN KAQV 222350Z AUTO 00000KT 10SM CLR 21/05 A3006 240 35 1000 000/00 RMK AO2 SLP181 T02060050 10261 20206 56024
03949KAQV AQV20190322175513303/22/19 17:55:31  5-MIN KAQV 222355Z AUTO 00000KT 10SM CLR 21/06 A3007 240 38 1000 000/00 RMK AO2 SLP182 T02060061 10261 20206 56024
03949KAQV AQV20190322180010703/22/19 18:00:31  5-MIN KAQV 230000Z AUTO 00000KT 10SM CLR 20/05 A3007 240 37 900 000/00 RMK AO2 T02000050
03949KAQV AQV20190322180510703/22/19 18:05:31  5-MIN KAQV 230005Z AUTO 00000KT 10SM CLR 19/05 A3007 240 38 900 000/00 RMK AO2 T01940050
03949KAQV AQV20190322181010703/22/19 18:10:31  5-MIN KAQV 230010Z AUTO 00000KT 10SM CLR 19/06 A3007 240 43 800 000/00 RMK AO2 T01890061
03949KAQV AQV20190322181510703/22/19 18:15:31  5-MIN KAQV 230015Z AUTO 00000KT 10SM CLR 18/07 A3007 240 49 700 000/00 RMK AO2 T01780072
03949KAQV AQV20190322182010703/22/19 18:20:31  5-MIN KAQV 230020Z AUTO 00000KT 10SM CLR 18/06 A3007 240 44 700 000/00 RMK AO2 T01780056
03949KAQV AQV20190322182510703/22/19 18:25:31  5-MIN KAQV 230025Z AUTO 00000KT 10SM CLR 17/06 A3007 240 47 600 000/00 RMK AO2 T01720061
03949KAQV AQV20190322183010703/22/19 18:30:31  5-MIN KAQV 230030Z AUTO 00000KT 10SM CLR 17/06 A3007 240 49 500 000/00 RMK AO2 T01670061
03949KAQV AQV20190322183510703/22/19 18:35:31  5-MIN KAQV 230035Z AUTO 00000KT 10SM CLR 17/06 A3007 240 49 500 000/00 RMK AO2 T01670061
03949KAQV AQV20190322184010703/22/19 18:40:31  5-MIN KAQV 230040Z AUTO 00000KT 10SM CLR 17/07 A3007 230 51 500 000/00 RMK AO2 T01670067
03949KAQV AQV20190322184510703/22/19 18:45:31  5-MIN KAQV 230045Z AUTO 00000KT 10SM CLR 16/07 A3008 230 53 500 000/00 RMK AO2 T01610067
03949KAQV AQV20190322185011403/22/19 18:50:31  5-MIN KAQV 230050Z AUTO 00000KT 10SM CLR 16/05 A3008 230 47 500 000/00 RMK AO2 SLP185 T01610050
03949KAQV AQV20190322185511403/22/19 18:55:31  5-MIN KAQV 230055Z AUTO 00000KT 10SM CLR 16/05 A3008 230 49 400 000/00 RMK AO2 SLP186 T01560050
03949KAQV AQV20190322190010703/22/19 19:00:31  5-MIN KAQV 230100Z AUTO 00000KT 10SM CLR 16/04 A3008 230 47 400 000/00 RMK AO2 T01560044
03949KAQV AQV20190322190510703/22/19 19:05:31  5-MIN KAQV 230105Z AUTO 00000KT 10SM CLR 15/05 A3008 230 51 300 000/00 RMK AO2 T01500050
03949KAQV AQV20190322191010703/22/19 19:10:31  5-MIN KAQV 230110Z AUTO 00000KT 10SM CLR 14/07 A3008 220 59 300 000/00 RMK AO2 T01440067
03949KAQV AQV20190322191510703/22/19 19:15:31  5-MIN KAQV 230115Z AUTO 00000KT 10SM CLR 14/07 A3009 220 64 200 000/00 RMK AO2 T01390072
03949KAQV AQV20190322192010703/22/19 19:20:31  5-MIN KAQV 230120Z AUTO 00000KT 10SM CLR 14/07 A3009 220 61 200 000/00 RMK AO2 T01390067
03949KAQV AQV20190322192510703/22/19 19:25:31  5-MIN KAQV 230125Z AUTO 00000KT 10SM CLR 14/06 A3009 220 59 200 000/00 RMK AO2 T01390061
03949KAQV AQV20190322193010703/22/19 19:30:31  5-MIN KAQV 230130Z AUTO 00000KT 10SM CLR 14/06 A3009 220 57 200 000/00 RMK AO2 T01390056
03949KAQV AQV20190322193510703/22/19 19:35:31  5-MIN KAQV 230135Z AUTO 00000KT 10SM CLR 13/06 A3009 220 61 100 000/00 RMK AO2 T01330061
03949KAQV AQV20190322194010703/22/19 19:40:31  5-MIN KAQV 230140Z AUTO 00000KT 10SM CLR 13/05 A3009 220 57 100 000/00 RMK AO2 T01330050
03949KAQV AQV20190322194510503/22/19 19:45:31  5-MIN KAQV 230145Z AUTO 00000KT 10SM CLR 13/06 A3009 220 61 0 000/00 RMK AO2 T01280056
03949KAQV AQV20190322195011203/22/19 19:50:31  5-MIN KAQV 230150Z AUTO 00000KT 10SM CLR 13/05 A3009 220 59 0 000/00 RMK AO2 SLP190 T01280050
03949KAQV AQV20190322195511203/22/19 19:55:31  5-MIN KAQV 230155Z AUTO 00000KT 10SM CLR 13/04 A3009 220 56 0 000/00 RMK AO2 SLP190 T01280044
03949KAQV AQV20190322200010503/22/19 20:00:31  5-MIN KAQV 230200Z AUTO 00000KT 10SM CLR 12/05 A3009 220 61 0 000/00 RMK AO2 T01220050
03949KAQV AQV20190322200510503/22/19 20:05:31  5-MIN KAQV 230205Z AUTO 00000KT 10SM CLR 12/05 A3009 220 61 0 000/00 RMK AO2 T01220050
03949KAQV AQV20190322201010503/22/19 20:10:31  5-MIN KAQV 230210Z AUTO 00000KT 10SM CLR 12/06 A3009 220 63 0 000/00 RMK AO2 T01220056
03949KAQV AQV20190322201510503/22/19 20:15:31  5-MIN KAQV 230215Z AUTO 00000KT 10SM CLR 12/05 A3009 220 61 0 000/00 RMK AO2 T01220050
03949KAQV AQV20190322202010503/22/19 20:20:31  5-MIN KAQV 230220Z AUTO 00000KT 10SM CLR 12/05 A3010 210 63 0 000/00 RMK AO2 T01170050
03949KAQV AQV20190322202510503/22/19 20:25:31  5-MIN KAQV 230225Z AUTO 00000KT 10SM CLR 12/04 A3010 210 61 0 000/00 RMK AO2 T01170044
03949KAQV AQV20190322203010503/22/19 20:30:31  5-MIN KAQV 230230Z AUTO 00000KT 10SM CLR 12/04 A3010 210 61 0 000/00 RMK AO2 T01170044
03949KAQV AQV20190322203510503/22/19 20:35:31  5-MIN KAQV 230235Z AUTO 00000KT 10SM CLR 12/05 A3010 210 63 0 000/00 RMK AO2 T01170050
03949KAQV AQV20190322204010803/22/19 20:40:31  5-MIN KAQV 230240Z AUTO 00000KT 10SM CLR 12/05 A3010 210 63 -100 000/00 RMK AO2 T01170050
03949KAQV AQV20190322204510803/22/19 20:45:31  5-MIN KAQV 230245Z AUTO 00000KT 10SM CLR 11/06 A3010 210 68 -100 000/00 RMK AO2 T01110056
03949KAQV AQV20190322205012103/22/19 20:50:31  5-MIN KAQV 230250Z AUTO 00000KT 10SM CLR 11/06 A3011 200 68 -100 000/00 RMK AO2 SLP194 T01110056 55006
03949KAQV AQV20190322205512103/22/19 20:55:31  5-MIN KAQV 230255Z AUTO 00000KT 10SM CLR 11/06 A3011 200 74 -200 000/00 RMK AO2 SLP196 T01060061 55006
03949KAQV AQV20190322210010803/22/19 21:00:31  5-MIN KAQV 230300Z AUTO 00000KT 10SM CLR 11/06 A3011 200 74 -200 000/00 RMK AO2 T01060061
03949KAQV AQV20190322210510803/22/19 21:05:31  5-MIN KAQV 230305Z AUTO 00000KT 10SM CLR 10/07 A3011 200 80 -300 000/00 RMK AO2 T01000067
03949KAQV AQV20190322211010803/22/19 21:10:31  5-MIN KAQV 230310Z AUTO 00000KT 10SM CLR 11/06 A3011 200 74 -200 000/00 RMK AO2 T01060061
03949KAQV AQV20190322211510803/22/19 21:15:31  5-MIN KAQV 230315Z AUTO 00000KT 10SM CLR 11/07 A3011 200 74 -100 000/00 RMK AO2 T01110067
03949KAQV AQV20190322212010803/22/19 21:20:31  5-MIN KAQV 230320Z AUTO 00000KT 10SM CLR 11/06 A3011 200 71 -100 000/00 RMK AO2 T01110061
03949KAQV AQV20190322212510803/22/19 21:25:31  5-MIN KAQV 230325Z AUTO 00000KT 10SM CLR 11/06 A3012 200 71 -200 000/00 RMK AO2 T01060056
03949KAQV AQV20190322213010803/22/19 21:30:31  5-MIN KAQV 230330Z AUTO 00000KT 10SM CLR 11/06 A3012 190 71 -200 000/00 RMK AO2 T01060056
03949KAQV AQV20190322213510803/22/19 21:35:31  5-MIN KAQV 230335Z AUTO 00000KT 10SM CLR 11/06 A3012 200 71 -200 000/00 RMK AO2 T01060056
03949KAQV AQV20190322214010803/22/19 21:40:31  5-MIN KAQV 230340Z AUTO 00000KT 10SM CLR 11/06 A3012 200 74 -200 000/00 RMK AO2 T01060061
03949KAQV AQV20190322214510803/22/19 21:45:31  5-MIN KAQV 230345Z AUTO 00000KT 10SM CLR 10/06 A3011 200 77 -300 000/00 RMK AO2 T01000061
03949KAQV AQV20190322215011503/22/19 21:50:31  5-MIN KAQV 230350Z AUTO 00000KT 10SM CLR 10/06 A3012 200 77 -300 000/00 RMK AO2 SLP197 T01000061
03949KAQV AQV20190322215511503/22/19 21:55:31  5-MIN KAQV 230355Z AUTO 00000KT 10SM CLR 11/06 A3011 200 71 -200 000/00 RMK AO2 SLP197 T01060056
03949KAQV AQV20190322220010803/22/19 22:00:31  5-MIN KAQV 230400Z AUTO 00000KT 10SM CLR 10/06 A3012 200 77 -300 000/00 RMK AO2 T01000061
03949KAQV AQV20190322220510803/22/19 22:05:31  5-MIN KAQV 230405Z AUTO 00000KT 10SM CLR 10/07 A3012 200 80 -300 000/00 RMK AO2 T01000067
03949KAQV AQV20190322221010803/22/19 22:10:31  5-MIN KAQV 230410Z AUTO 00000KT 10SM CLR 10/07 A3011 200 80 -300 000/00 RMK AO2 T01000067
03949KAQV AQV20190322221510803/22/19 22:15:31  5-MIN KAQV 230415Z AUTO 00000KT 10SM CLR 10/07 A3011 200 80 -300 000/00 RMK AO2 T01000067
03949KAQV AQV20190322222010803/22/19 22:20:31  5-MIN KAQV 230420Z AUTO 00000KT 10SM CLR 11/07 A3011 200 77 -200 000/00 RMK AO2 T01060067
03949KAQV AQV20190322222510803/22/19 22:25:31  5-MIN KAQV 230425Z AUTO 00000KT 10SM CLR 11/07 A3011 200 77 -200 000/00 RMK AO2 T01060067
03949KAQV AQV20190322223010803/22/19 22:30:31  5-MIN KAQV 230430Z AUTO 00000KT 10SM CLR 11/07 A3011 200 77 -200 000/00 RMK AO2 T01060067
03949KAQV AQV20190322223510803/22/19 22:35:31  5-MIN KAQV 230435Z AUTO 00000KT 10SM CLR 11/07 A3011 200 77 -200 000/00 RMK AO2 T01060067
03949KAQV AQV20190322224010803/22/19 22:40:31  5-MIN KAQV 230440Z AUTO 00000KT 10SM CLR 11/06 A3011 200 74 -200 000/00 RMK AO2 T01060061
03949KAQV AQV20190322224510803/22/19 22:45:31  5-MIN KAQV 230445Z AUTO 00000KT 10SM CLR 11/06 A3010 210 74 -200 000/00 RMK AO2 T01060061
03949KAQV AQV20190322225011503/22/19 22:50:31  5-MIN KAQV 230450Z AUTO 00000KT 10SM CLR 11/06 A3011 210 74 -200 000/00 RMK AO2 SLP194 T01060061
03949KAQV AQV20190322225511503/22/19 22:55:31  5-MIN KAQV 230455Z AUTO 00000KT 10SM CLR 11/06 A3011 200 74 -200 000/00 RMK AO2 SLP194 T01060061
03949KAQV AQV20190322230010803/22/19 23:00:31  5-MIN KAQV 230500Z AUTO 00000KT 10SM CLR 11/06 A3011 200 74 -200 000/00 RMK AO2 T01060061
03949KAQV AQV20190322230510803/22/19 23:05:31  5-MIN KAQV 230505Z AUTO 00000KT 10SM CLR 11/06 A3011 200 74 -200 000/00 RMK AO2 T01060061
03949KAQV AQV20190322231010803/22/19 23:10:31  5-MIN KAQV 230510Z AUTO 00000KT 10SM CLR 11/06 A3011 210 74 -200 000/00 RMK AO2 T01060061
03949KAQV AQV20190322231510803/22/19 23:15:31  5-MIN KAQV 230515Z AUTO 00000KT 10SM CLR 11/06 A3010 210 74 -200 000/00 RMK AO2 T01060061
03949KAQV AQV20190322232010803/22/19 23:20:31  5-MIN KAQV 230520Z AUTO 00000KT 10SM CLR 11/07 A3010 210 77 -200 000/00 RMK AO2 T01060067
03949KAQV AQV20190322232510803/22/19 23:25:31  5-MIN KAQV 230525Z AUTO 00000KT 10SM CLR 10/07 A3010 210 80 -200 000/00 RMK AO2 T01000067
03949KAQV AQV20190322233010803/22/19 23:30:31  5-MIN KAQV 230530Z AUTO 00000KT 10SM CLR 10/06 A3010 210 77 -200 000/00 RMK AO2 T01000061
03949KAQV AQV20190322233510803/22/19 23:35:31  5-MIN KAQV 230535Z AUTO 00000KT 10SM CLR 11/06 A3010 210 74 -200 000/00 RMK AO2 T01060061
03949KAQV AQV20190322234010803/22/19 23:40:31  5-MIN KAQV 230540Z AUTO 00000KT 10SM CLR 11/06 A3010 210 74 -200 000/00 RMK AO2 T01060061
03949KAQV AQV20190322234510803/22/19 23:45:31  5-MIN KAQV 230545Z AUTO 00000KT 10SM CLR 11/06 A3010 210 74 -200 000/00 RMK AO2 T01060061
03949KAQV AQV20190322235014303/22/19 23:50:31  5-MIN KAQV 230550Z AUTO 00000KT 10SM CLR 11/07 A3010 210 77 -200 000/00 RMK AO2 SLP190 T01060067 10200 20100 402610056 53014
03949KAQV AQV20190322235514303/22/19 23:55:31  5-MIN KAQV 230555Z AUTO 00000KT 10SM CLR 11/07 A3010 210 80 -200 000/00 RMK AO2 SLP189 T01060072 10200 20100 402610056 53014
03949KAQV AQV20190323000010803/23/19 00:00:31  5-MIN KAQV 230600Z AUTO 00000KT 10SM CLR 11/07 A3010 210 80 -200 000/00 RMK AO2 T01060072
03949KAQV AQV20190323000510803/23/19 00:05:31  5-MIN KAQV 230605Z AUTO 00000KT 10SM CLR 11/07 A3010 210 77 -200 000/00 RMK AO2 T01060067
03949KAQV AQV20190323001010803/23/19 00:10:31  5-MIN KAQV 230610Z AUTO 00000KT 10SM CLR 11/07 A3010 210 77 -200 000/00 RMK AO2 T01060067
03949KAQV AQV20190323001510803/23/19 00:15:31  5-MIN KAQV 230615Z AUTO 00000KT 10SM CLR 11/07 A3010 210 77 -200 000/00 RMK AO2 T01060067
03949KAQV AQV20190323002010803/23/19 00:20:31  5-MIN KAQV 230620Z AUTO 00000KT 10SM CLR 11/07 A3010 210 80 -200 000/00 RMK AO2 T01060072
03949KAQV AQV20190323002510803/23/19 00:25:31  5-MIN KAQV 230625Z AUTO 00000KT 10SM CLR 10/07 A3010 210 80 -200 000/00 RMK AO2 T01000067
03949KAQV AQV20190323003010803/23/19 00:30:31  5-MIN KAQV 230630Z AUTO 00000KT 10SM CLR 10/07 A3010 210 80 -200 000/00 RMK AO2 T01000067
03949KAQV AQV20190323003510803/23/19 00:35:31  5-MIN KAQV 230635Z AUTO 00000KT 10SM CLR 10/07 A3010 210 83 -200 000/00 RMK AO2 T01000072
03949KAQV AQV20190323004010803/23/19 00:40:31  5-MIN KAQV 230640Z AUTO 00000KT 10SM CLR 10/07 A3009 220 80 -200 000/00 RMK AO2 T01000067
03949KAQV AQV20190323004510803/23/19 00:45:31  5-MIN KAQV 230645Z AUTO 00000KT 10SM CLR 10/07 A3009 220 80 -200 000/00 RMK AO2 T01000067
03949KAQV AQV20190323005011503/23/19 00:50:31  5-MIN KAQV 230650Z AUTO 00000KT 10SM CLR 10/07 A3009 220 80 -200 000/00 RMK AO2 SLP189 T01000067
03949KAQV AQV20190323005511503/23/19 00:55:31  5-MIN KAQV 230655Z AUTO 00000KT 10SM CLR 10/07 A3009 220 83 -200 000/00 RMK AO2 SLP189 T01000072
03949KAQV AQV20190323010010803/23/19 01:00:31  5-MIN KAQV 230700Z AUTO 00000KT 10SM CLR 10/07 A3009 220 83 -200 000/00 RMK AO2 T01000072
03949KAQV AQV20190323010510803/23/19 01:05:31  5-MIN KAQV 230705Z AUTO 00000KT 10SM CLR 09/07 A3009 220 86 -300 000/00 RMK AO2 T00940072
03949KAQV AQV20190323011010803/23/19 01:10:31  5-MIN KAQV 230710Z AUTO 00000KT 10SM CLR 09/07 A3009 220 83 -300 000/00 RMK AO2 T00940067
03949KAQV AQV20190323011510803/23/19 01:15:31  5-MIN KAQV 230715Z AUTO 00000KT 10SM CLR 09/07 A3009 220 83 -300 000/00 RMK AO2 T00940067
03949KAQV AQV20190323012010803/23/19 01:20:31  5-MIN KAQV 230720Z AUTO 00000KT 10SM CLR 09/07 A3009 220 83 -300 000/00 RMK AO2 T00940067
03949KAQV AQV20190323012510803/23/19 01:25:31  5-MIN KAQV 230725Z AUTO 00000KT 10SM CLR 09/07 A3010 220 83 -300 000/00 RMK AO2 T00940067
03949KAQV AQV20190323013010803/23/19 01:30:31  5-MIN KAQV 230730Z AUTO 00000KT 10SM CLR 09/07 A3010 210 83 -300 000/00 RMK AO2 T00940067
03949KAQV AQV20190323013510803/23/19 01:35:31  5-MIN KAQV 230735Z AUTO 00000KT 10SM CLR 09/07 A3010 210 86 -400 000/00 RMK AO2 T00890067
03949KAQV AQV20190323014010803/23/19 01:40:31  5-MIN KAQV 230740Z AUTO 00000KT 10SM CLR 09/07 A3010 210 86 -400 000/00 RMK AO2 T00890067
03949KAQV AQV20190323014510803/23/19 01:45:31  5-MIN KAQV 230745Z AUTO 00000KT 10SM CLR 08/07 A3010 210 89 -400 000/00 RMK AO2 T00830067
03949KAQV AQV20190323015011503/23/19 01:50:31  5-MIN KAQV 230750Z AUTO 00000KT 10SM CLR 08/07 A3010 210 89 -400 000/00 RMK AO2 SLP190 T00830067
03949KAQV AQV20190323015511503/23/19 01:55:31  5-MIN KAQV 230755Z AUTO 00000KT 10SM CLR 08/07 A3010 210 89 -400 000/00 RMK AO2 SLP191 T00830067
03949KAQV AQV20190323020010803/23/19 02:00:31  5-MIN KAQV 230800Z AUTO 00000KT 10SM CLR 08/07 A3010 210 89 -400 000/00 RMK AO2 T00830067
03949KAQV AQV20190323020510803/23/19 02:05:31  5-MIN KAQV 230805Z AUTO 00000KT 10SM CLR 08/07 A3010 210 89 -500 000/00 RMK AO2 T00830067
03949KAQV AQV20190323021010803/23/19 02:10:31  5-MIN KAQV 230810Z AUTO 00000KT 10SM CLR 08/07 A3010 210 89 -500 000/00 RMK AO2 T00830067
03949KAQV AQV20190323021510803/23/19 02:15:31  5-MIN KAQV 230815Z AUTO 00000KT 10SM CLR 08/06 A3010 210 86 -400 000/00 RMK AO2 T00830061
03949KAQV AQV20190323022010803/23/19 02:20:31  5-MIN KAQV 230820Z AUTO 00000KT 10SM CLR 08/06 A3010 210 86 -400 000/00 RMK AO2 T00830061
03949KAQV AQV20190323022510803/23/19 02:25:31  5-MIN KAQV 230825Z AUTO 00000KT 10SM CLR 08/06 A3010 210 86 -400 000/00 RMK AO2 T00830061
03949KAQV AQV20190323023010803/23/19 02:30:31  5-MIN KAQV 230830Z AUTO 00000KT 10SM CLR 08/06 A3010 210 89 -500 000/00 RMK AO2 T00780061
03949KAQV AQV20190323023510803/23/19 02:35:31  5-MIN KAQV 230835Z AUTO 00000KT 10SM CLR 08/06 A3010 210 89 -500 000/00 RMK AO2 T00780061
03949KAQV AQV20190323024010803/23/19 02:40:31  5-MIN KAQV 230840Z AUTO 00000KT 10SM CLR 08/06 A3010 210 89 -500 000/00 RMK AO2 T00780061
03949KAQV AQV20190323024510803/23/19 02:45:31  5-MIN KAQV 230845Z AUTO 00000KT 10SM CLR 08/06 A3009 220 89 -500 000/00 RMK AO2 T00780061
03949KAQV AQV20190323025012103/23/19 02:50:31  5-MIN KAQV 230850Z AUTO 00000KT 10SM CLR 08/06 A3009 220 89 -500 000/00 RMK AO2 SLP189 T00780061 58005
03949KAQV AQV20190323025512103/23/19 02:55:31  5-MIN KAQV 230855Z AUTO 00000KT 10SM CLR 08/06 A3009 220 89 -500 000/00 RMK AO2 SLP189 T00780061 58005
03949KAQV AQV20190323030010803/23/19 03:00:31  5-MIN KAQV 230900Z AUTO 00000KT 10SM CLR 08/06 A3009 220 89 -500 000/00 RMK AO2 T00780061
03949KAQV AQV20190323030510803/23/19 03:05:31  5-MIN KAQV 230905Z AUTO 00000KT 10SM CLR 08/06 A3009 220 89 -500 000/00 RMK AO2 T00780061
03949KAQV AQV20190323031010803/23/19 03:10:31  5-MIN KAQV 230910Z AUTO 00000KT 10SM CLR 08/06 A3010 210 89 -500 000/00 RMK AO2 T00780061
03949KAQV AQV20190323031510803/23/19 03:15:31  5-MIN KAQV 230915Z AUTO 00000KT 10SM CLR 08/06 A3009 220 89 -500 000/00 RMK AO2 T00780061
03949KAQV AQV20190323032010803/23/19 03:20:31  5-MIN KAQV 230920Z AUTO 00000KT 10SM CLR 08/06 A3009 220 89 -500 000/00 RMK AO2 T00780061
03949KAQV AQV20190323032510803/23/19 03:25:31  5-MIN KAQV 230925Z AUTO 00000KT 10SM CLR 08/06 A3009 220 89 -500 000/00 RMK AO2 T00780061
03949KAQV AQV20190323033010803/23/19 03:30:31  5-MIN KAQV 230930Z AUTO 00000KT 10SM CLR 08/07 A3010 210 93 -500 000/00 RMK AO2 T00780067
03949KAQV AQV20190323033510803/23/19 03:35:31  5-MIN KAQV 230935Z AUTO 00000KT 10SM CLR 08/07 A3010 210 93 -500 000/00 RMK AO2 T00780067
03949KAQV AQV20190323034010803/23/19 03:40:31  5-MIN KAQV 230940Z AUTO 00000KT 10SM CLR 08/07 A3010 210 93 -500 000/00 RMK AO2 T00780067
03949KAQV AQV20190323034510803/23/19 03:45:31  5-MIN KAQV 230945Z AUTO 00000KT 10SM CLR 08/07 A3010 210 93 -500 000/00 RMK AO2 T00780067
03949KAQV AQV20190323035011503/23/19 03:50:31  5-MIN KAQV 230950Z AUTO 00000KT 10SM CLR 08/07 A3011 200 93 -500 000/00 RMK AO2 SLP195 T00780067
03949KAQV AQV20190323035511503/23/19 03:55:31  5-MIN KAQV 230955Z AUTO 00000KT 10SM CLR 08/06 A3011 200 89 -500 000/00 RMK AO2 SLP196 T00780061
03949KAQV AQV20190323040010803/23/19 04:00:31  5-MIN KAQV 231000Z AUTO 00000KT 10SM CLR 08/06 A3011 200 89 -500 000/00 RMK AO2 T00780061
03949KAQV AQV20190323040510803/23/19 04:05:31  5-MIN KAQV 231005Z AUTO 00000KT 10SM CLR 08/07 A3011 200 93 -500 000/00 RMK AO2 T00780067
03949KAQV AQV20190323041010803/23/19 04:10:31  5-MIN KAQV 231010Z AUTO 00000KT 10SM CLR 08/07 A3011 200 93 -500 000/00 RMK AO2 T00780067
03949KAQV AQV20190323041510803/23/19 04:15:31  5-MIN KAQV 231015Z AUTO 00000KT 10SM CLR 08/06 A3011 200 89 -500 000/00 RMK AO2 T00780061
03949KAQV AQV20190323042010803/23/19 04:20:31  5-MIN KAQV 231020Z AUTO 00000KT 10SM CLR 08/07 A3011 200 93 -500 000/00 RMK AO2 T00780067
03949KAQV AQV20190323042510803/23/19 04:25:31  5-MIN KAQV 231025Z AUTO 00000KT 10SM CLR 08/07 A3011 200 93 -500 000/00 RMK AO2 T00780067
03949KAQV AQV20190323043010803/23/19 04:30:31  5-MIN KAQV 231030Z AUTO 00000KT 10SM CLR 08/07 A3012 200 93 -500 000/00 RMK AO2 T00780067
03949KAQV AQV20190323043510803/23/19 04:35:31  5-MIN KAQV 231035Z AUTO 00000KT 10SM CLR 08/07 A3012 200 93 -500 000/00 RMK AO2 T00780067
03949KAQV AQV20190323044010803/23/19 04:40:31  5-MIN KAQV 231040Z AUTO 00000KT 10SM CLR 08/07 A3012 190 93 -500 000/00 RMK AO2 T00780067
03949KAQV AQV20190323044510803/23/19 04:45:31  5-MIN KAQV 231045Z AUTO 00000KT 10SM CLR 08/07 A3012 190 93 -500 000/00 RMK AO2 T00780067
03949KAQV AQV20190323045011503/23/19 04:50:31  5-MIN KAQV 231050Z AUTO 00000KT 10SM CLR 08/07 A3012 190 93 -500 000/00 RMK AO2 SLP199 T00780067
03949KAQV AQV20190323045511503/23/19 04:55:31  5-MIN KAQV 231055Z AUTO 00000KT 10SM CLR 08/07 A3012 190 93 -500 000/00 RMK AO2 SLP200 T00780067
03949KAQV AQV20190323050010803/23/19 05:00:31  5-MIN KAQV 231100Z AUTO 00000KT 10SM CLR 08/07 A3013 190 93 -500 000/00 RMK AO2 T00780067
03949KAQV AQV20190323050510803/23/19 05:05:31  5-MIN KAQV 231105Z AUTO 00000KT 10SM CLR 08/07 A3013 190 93 -500 000/00 RMK AO2 T00780067
03949KAQV AQV20190323051010803/23/19 05:10:31  5-MIN KAQV 231110Z AUTO 00000KT 10SM CLR 08/07 A3013 180 93 -600 000/00 RMK AO2 T00780067
03949KAQV AQV20190323051510803/23/19 05:15:31  5-MIN KAQV 231115Z AUTO 00000KT 10SM CLR 08/07 A3014 180 93 -600 000/00 RMK AO2 T00780067
03949KAQV AQV20190323052010803/23/19 05:20:31  5-MIN KAQV 231120Z AUTO 00000KT 10SM CLR 08/07 A3014 180 93 -600 000/00 RMK AO2 T00780067
03949KAQV AQV20190323052510803/23/19 05:25:31  5-MIN KAQV 231125Z AUTO 00000KT 10SM CLR 08/07 A3014 170 93 -600 000/00 RMK AO2 T00780067
03949KAQV AQV20190323053010803/23/19 05:30:31  5-MIN KAQV 231130Z AUTO 00000KT 10SM CLR 08/07 A3014 170 93 -600 000/00 RMK AO2 T00780067
03949KAQV AQV20190323053510803/23/19 05:35:31  5-MIN KAQV 231135Z AUTO 00000KT 10SM CLR 08/07 A3014 170 93 -600 000/00 RMK AO2 T00780067
03949KAQV AQV20190323054010703/23/19 05:40:31  5-MIN KAQV 231140Z AUTO 00000KT 9SM CLR 08/07 A3015 170 93 -600 000/00 RMK AO2 T00780067
03949KAQV AQV20190323054510703/23/19 05:45:31  5-MIN KAQV 231145Z AUTO 00000KT 9SM CLR 08/07 A3015 170 93 -600 000/00 RMK AO2 T00780067
03949KAQV AQV20190323055013203/23/19 05:50:31  5-MIN KAQV 231150Z AUTO 00000KT 9SM CLR 08/07 A3015 170 93 -600 000/00 RMK AO2 SLP209 T00780067 10106 20078 58001
03949KAQV AQV20190323055513203/23/19 05:55:31  5-MIN KAQV 231155Z AUTO 00000KT 9SM CLR 08/07 A3015 160 93 -600 000/00 RMK AO2 SLP210 T00780067 10106 20078 58001
03949KAQV AQV20190323060010703/23/19 06:00:31  5-MIN KAQV 231200Z AUTO 00000KT 8SM CLR 08/07 A3016 160 93 -600 000/00 RMK AO2 T00780067
03949KAQV AQV20190323060511003/23/19 06:05:31  5-MIN KAQV 231205Z AUTO 00000KT 6SM BR CLR 08/07 A3016 150 93 -600 000/00 RMK AO2 T00780067
03949KAQV AQV20190323061011003/23/19 06:10:31  5-MIN KAQV 231210Z AUTO 00000KT 6SM BR CLR 08/07 A3016 160 93 -600 000/00 RMK AO2 T00780067
03949KAQV AQV20190323061511003/23/19 06:15:31  5-MIN KAQV 231215Z AUTO 00000KT 6SM BR CLR 08/07 A3016 150 93 -600 000/00 RMK AO2 T00780067
03949KAQV AQV20190323062011003/23/19 06:20:31  5-MIN KAQV 231220Z AUTO 00000KT 6SM BR CLR 08/07 A3017 150 93 -600 000/00 RMK AO2 T00780067
03949KAQV AQV20190323062511003/23/19 06:25:31  5-MIN KAQV 231225Z AUTO 00000KT 5SM BR CLR 08/07 A3017 150 93 -600 000/00 RMK AO2 T00780067
03949KAQV AQV20190323063011003/23/19 06:30:31  5-MIN KAQV 231230Z AUTO 00000KT 5SM BR CLR 08/07 A3017 150 93 -600 000/00 RMK AO2 T00780067
03949KAQV AQV20190323063511003/23/19 06:35:31  5-MIN KAQV 231235Z AUTO 00000KT 6SM BR CLR 08/07 A3017 150 93 -600 000/00 RMK AO2 T00780067
03949KAQV AQV20190323064011003/23/19 06:40:31  5-MIN KAQV 231240Z AUTO 00000KT 6SM BR CLR 08/07 A3017 150 93 -600 000/00 RMK AO2 T00780067
03949KAQV AQV20190323064511003/23/19 06:45:31  5-MIN KAQV 231245Z AUTO 00000KT 6SM BR CLR 08/07 A3017 150 93 -600 000/00 RMK AO2 T00780067
03949KAQV AQV20190323065011703/23/19 06:50:31  5-MIN KAQV 231250Z AUTO 00000KT 5SM BR CLR 08/07 A3017 150 93 -600 000/00 RMK AO2 SLP216 T00780067
03949KAQV AQV20190323065511703/23/19 06:55:31  5-MIN KAQV 231255Z AUTO 00000KT 6SM BR CLR 08/07 A3017 150 93 -500 000/00 RMK AO2 SLP216 T00830072
03949KAQV AQV20190323070011003/23/19 07:00:31  5-MIN KAQV 231300Z AUTO 00000KT 6SM BR CLR 08/07 A3017 150 93 -500 000/00 RMK AO2 T00830072
03949KAQV AQV20190323070511003/23/19 07:05:31  5-MIN KAQV 231305Z AUTO 00000KT 6SM BR CLR 08/07 A3017 150 93 -500 000/00 RMK AO2 T00830072
03949KAQV AQV20190323071010703/23/19 07:10:31  5-MIN KAQV 231310Z AUTO 00000KT 7SM CLR 08/07 A3017 150 93 -500 000/00 RMK AO2 T00830072
03949KAQV AQV20190323071510703/23/19 07:15:31  5-MIN KAQV 231315Z AUTO 00000KT 7SM CLR 09/08 A3017 150 93 -500 000/00 RMK AO2 T00890078
03949KAQV AQV20190323072010703/23/19 07:20:31  5-MIN KAQV 231320Z AUTO 00000KT 7SM CLR 09/08 A3017 150 89 -400 000/00 RMK AO2 T00940078
03949KAQV AQV20190323072510703/23/19 07:25:31  5-MIN KAQV 231325Z AUTO 00000KT 8SM CLR 09/08 A3017 150 93 -400 000/00 RMK AO2 T00940083
03949KAQV AQV20190323073010703/23/19 07:30:31  5-MIN KAQV 231330Z AUTO 00000KT 8SM CLR 10/08 A3017 140 89 -300 000/00 RMK AO2 T01000083
03949KAQV AQV20190323073510703/23/19 07:35:31  5-MIN KAQV 231335Z AUTO 00000KT 8SM CLR 10/09 A3017 140 93 -300 000/00 RMK AO2 T01000089
03949KAQV AQV20190323074010703/23/19 07:40:31  5-MIN KAQV 231340Z AUTO 00000KT 8SM CLR 11/08 A3018 140 86 -300 000/00 RMK AO2 T01060083
03949KAQV AQV20190323074510703/23/19 07:45:31  5-MIN KAQV 231345Z AUTO 00000KT 8SM CLR 11/09 A3018 140 89 -300 000/00 RMK AO2 T01060089
03949KAQV AQV20190323075011703/23/19 07:50:31  5-MIN KAQV 231350Z AUTO 00000KT 6SM BR CLR 11/09 A3018 140 86 -200 000/00 RMK AO2 SLP220 T01110089
03949KAQV AQV20190323075511703/23/19 07:55:31  5-MIN KAQV 231355Z AUTO 00000KT 6SM BR CLR 11/09 A3018 140 86 -200 000/00 RMK AO2 SLP221 T01110089
03949KAQV AQV20190323080010703/23/19 08:00:31  5-MIN KAQV 231400Z AUTO 00000KT 8SM CLR 12/09 A3018 130 83 -100 000/00 RMK AO2 T01170089
03949KAQV AQV20190323080510703/23/19 08:05:31  5-MIN KAQV 231405Z AUTO 15003KT 7SM CLR 12/09 A3018 130 86 -100 150/03 RMK AO2 T01170094
03949KAQV AQV20190323081010703/23/19 08:10:31  5-MIN KAQV 231410Z AUTO 00000KT 7SM CLR 12/09 A3018 130 83 -100 000/00 RMK AO2 T01220094
03949KAQV AQV20190323081510703/23/19 08:15:31  5-MIN KAQV 231415Z AUTO 00000KT 7SM CLR 12/09 A3019 130 83 -100 000/00 RMK AO2 T01220094
03949KAQV AQV20190323082010703/23/19 08:20:31  5-MIN KAQV 231420Z AUTO 00000KT 6SM HZ CLR 13/10 A3019 130 83 0 000/00 RMK AO2 T01280100
03949KAQV AQV20190323082510403/23/19 08:25:31  5-MIN KAQV 231425Z AUTO 00000KT 7SM CLR 13/11 A3019 130 83 0 000/00 RMK AO2 T01330106
03949KAQV AQV20190323083010603/23/19 08:30:31  5-MIN KAQV 231430Z AUTO 00000KT 7SM CLR 14/11 A3019 130 80 100 000/00 RMK AO2 T01390106
03949KAQV AQV20190323083510603/23/19 08:35:31  5-MIN KAQV 231435Z AUTO 00000KT 8SM CLR 14/11 A3020 120 83 100 000/00 RMK AO2 T01390111
03949KAQV AQV20190323084010603/23/19 08:40:31  5-MIN KAQV 231440Z AUTO 00000KT 8SM CLR 14/12 A3020 120 83 100 000/00 RMK AO2 T01440117
03949KAQV AQV20190323084510603/23/19 08:45:31  5-MIN KAQV 231445Z AUTO 18003KT 8SM CLR 14/12 A3020 120 83 100 170/03 RMK AO2 T01440117
03949KAQV AQV20190323085011903/23/19 08:50:31  5-MIN KAQV 231450Z AUTO 17003KT 8SM CLR 15/12 A3020 120 80 200 170/03 RMK AO2 SLP228 T01500117 53021
03949KAQV AQV20190323085511903/23/19 08:55:31  5-MIN KAQV 231455Z AUTO 00000KT 9SM CLR 15/12 A3020 120 80 200 000/00 RMK AO2 SLP228 T01500117 53021
03949KAQV AQV20190323090010603/23/19 09:00:31  5-MIN KAQV 231500Z AUTO 00000KT 9SM CLR 16/12 A3020 120 77 300 000/00 RMK AO2 T01610122
03949KAQV AQV20190323090510703/23/19 09:05:31  5-MIN KAQV 231505Z AUTO 00000KT 10SM CLR 16/12 A3020 110 77 300 000/00 RMK AO2 T01610122
03949KAQV AQV20190323091010703/23/19 09:10:31  5-MIN KAQV 231510Z AUTO 19004KT 10SM CLR 17/12 A3020 110 75 400 190/04 RMK AO2 T01670122
03949KAQV AQV20190323091510703/23/19 09:15:31  5-MIN KAQV 231515Z AUTO 00000KT 10SM CLR 17/12 A3020 120 72 400 000/00 RMK AO2 T01720122
03949KAQV AQV20190323092010703/23/19 09:20:31  5-MIN KAQV 231520Z AUTO 00000KT 10SM CLR 17/12 A3020 120 72 400 000/00 RMK AO2 T01720122
03949KAQV AQV20190323092510703/23/19 09:25:31  5-MIN KAQV 231525Z AUTO VRB03KT 10SM CLR 18/13 A3020 120 72 500 VRB/03 RMK AO2 T01780128
03949KAQV AQV20190323093010703/23/19 09:30:31  5-MIN KAQV 231530Z AUTO VRB04KT 10SM CLR 18/12 A3021 110 67 600 VRB/04 RMK AO2 T01830122
03949KAQV AQV20190323093510703/23/19 09:35:31  5-MIN KAQV 231535Z AUTO 18005KT 10SM CLR 19/13 A3021 110 67 600 180/05 RMK AO2 T01890128
03949KAQV AQV20190323094010703/23/19 09:40:31  5-MIN KAQV 231540Z AUTO VRB03KT 10SM CLR 19/13 A3021 110 67 600 VRB/03 RMK AO2 T01890128
03949KAQV AQV20190323094510703/23/19 09:45:31  5-MIN KAQV 231545Z AUTO 17005KT 10SM CLR 19/12 A3020 110 62 700 160/05 RMK AO2 T01940122
03949KAQV AQV20190323095011403/23/19 09:50:31  5-MIN KAQV 231550Z AUTO VRB03KT 10SM CLR 19/12 A3020 120 62 700 VRB/03 RMK AO2 SLP227 T01940122
03949KAQV AQV20190323095505003/23/19 09:55:31  5-MIN KAQV 231555Z AUTO VR30078
03949KAQV AQV20190323114510803/23/19 11:45:31  5-MIN KAQV 231745Z AUTO 16008KT 10SM CLR 23/08 A3017 140 36 1200 160/08 RMK AO2 T02330078
03949KAQV AQV20190323115013303/23/19 11:50:31  5-MIN KAQV 231750Z AUTO VRB06KT 10SM CLR 23/08 A3017 150 38 1200 VRB/06 RMK AO2 SLP214 T02330083 10233 20078 53016
03949KAQV AQV20190323115513303/23/19 11:55:31  5-MIN KAQV 231755Z AUTO 17008KT 10SM CLR 23/08 A3017 150 36 1200 160/08 RMK AO2 SLP213 T02330078 10233 20078 53016
03949KAQV AQV20190323120010803/23/19 12:00:31  5-MIN KAQV 231800Z AUTO 19007KT 10SM CLR 23/08 A3016 150 36 1200 190/07 RMK AO2 T02330078
03949KAQV AQV20190323120012203/23/19 12:00:31  5-MIN KAQV 231800Z AUTO 19007KT 10SM CLR 23/08 A3016 1523/08 A3018 140 37 1100 160/08 RMK AO2 T02280078
03949KAQV AQV20190323120512403/23/19 12:05:31  5-MIN KAQV 231805Z AUTO 17008KT 140V200 10SM CLR 23/08 A3016 150 36 1200 170/08 140V200 RMK AO2 T02330078
03949KAQV AQV20190323120518203/23/19 12:05:31  5-MIN KAQV 231805Z AUTO 17008KT 140V200 10SM CLR 23/08 A3016 150 36 1200 170/08 140V200 RMK AO2 T02330078 38 1200 VRB/06 RMK AO2 SLP214 T02330083 10233 20078 53016
03949KAQV AQV20190323121012403/23/19 12:10:31  5-MIN KAQV 231810Z AUTO 15007KT 130V190 10SM CLR 24/08 A3016 150 35 1300 150/07 130V190 RMK AO2 T02390078
03949KAQV AQV20190323121510803/23/19 12:15:31  5-MIN KAQV 231815Z AUTO VRB06KT 10SM CLR 23/08 A3016 160 36 1200 VRB/06 RMK AO2 T02330078
03949KAQV AQV20190323121514003/23/19 12:15:31  5-MIN KAQV 231815Z AUTO VRB06KT 10SM CLR 23/08 A23/08 A3017 150 36 1200 160/08 RMK AO2 SLP213 T02330078 10233 20078 53016
03949KAQV AQV20190323122010803/23/19 12:20:31  5-MIN KAQV 231820Z AUTO 16007KT 10SM CLR 23/07 A3016 160 35 1200 160/07 RMK AO2 T02330072
03949KAQV AQV20190323122511403/23/19 12:25:31  5-MIN KAQV 231825Z AUTO VRB06G15KT 10SM CLR 23/07 A3015 160 35 1200 VRB/06G15 RMK AO2 T02330072
03949KAQV AQV20190323122515603/23/19 12:25:31  5-MIN KAQV 231825Z AUTO VRB06G15KT 10SMAQV 231805Z AUTO 17008KT 140V200 10SM CLR 23/08 A3016 150 36 1200 170/08 140V200 RMK AO2 T02330078
03949KAQV AQV20190323123011403/23/19 12:30:31  5-MIN KAQV 231830Z AUTO VRB05G15KT 10SM CLR 24/07 A3015 160 34 1300 VRB/05G15 RMK AO2 T02390072
03949KAQV AQV20190323123016403/23/19 12:30:31  5-MIN KAQV 231830Z AUTO VRB05G15KT 10SM CLR 24/07 A3015 160 34 1300 VRB/05G15 RMK AO2 T02390072A3016 150 35 1300 150/07 130V190 RMK AO2 T02390078
03949KAQV AQV20190323123510803/23/19 12:35:31  5-MIN KAQV 231835Z AUTO 17009KT 10SM CLR 24/08 A3015 170 34 1300 170/09 RMK AO2 T02440078
03949KAQV AQV20190323124011403/23/19 12:40:31  5-MIN KAQV 231840Z AUTO VRB06G15KT 10SM CLR 24/07 A3014 170 34 1300 VRB/06G15 RMK AO2 T02390072
03949KAQV AQV20190323124511403/23/19 12:45:31  5-MIN KAQV 231845Z AUTO VRB06G15KT 10SM CLR 24/07 A3014 170 34 1300 VRB/06G15 RMK AO2 T02390072
03949KAQV AQV20190323125013703/23/19 12:50:31  5-MIN KAQV 231850Z AUTO 16009G15KT 100V200 10SM CLR 24/07 A3014 180 34 1300 150/09G15 100V200 RMK AO2 SLP204 T02390072
03949KAQV AQV20190323125513703/23/19 12:55:31  5-MIN KAQV 231855Z AUTO 18007G15KT 140V220 10SM CLR 24/08 A3013 180 35 1300 170/07G15 140V220 RMK AO2 SLP202 T02390078
03949KAQV AQV20190323130011403/23/19 13:00:31  5-MIN KAQV 231900Z AUTO VRB06G15KT 10SM CLR 24/08 A3013 180 36 1300 VRB/06G15 RMK AO2 T02390083
03949KAQV AQV20190323130510803/23/19 13:05:31  5-MIN KAQV 231905Z AUTO 18007KT 10SM CLR 24/09 A3013 190 38 1300 180/07 RMK AO2 T02390089
03949KAQV AQV20190323131011403/23/19 13:10:31  5-MIN KAQV 231910Z AUTO 17009G14KT 10SM CLR 24/09 A3012 190 38 1300 160/09G14 RMK AO2 T02390089
03949KAQV AQV20190323131513003/23/19 13:15:31  5-MIN KAQV 231915Z AUTO 15008G14KT 110V180 10SM CLR 24/09 A3012 190 38 1300 150/08G14 110V180 RMK AO2 T02390089
03949KAQV AQV20190323132012403/23/19 13:20:31  5-MIN KAQV 231920Z AUTO 14007KT 100V160 10SM CLR 24/09 A3012 190 38 1300 140/07 100V160 RMK AO2 T02390089
03949KAQV AQV20190323132510803/23/19 13:25:31  5-MIN KAQV 231925Z AUTO VRB06KT 10SM CLR 24/09 A3011 200 38 1400 VRB/06 RMK AO2 T02440094
03949KAQV AQV20190323133011403/23/19 13:30:31  5-MIN KAQV 231930Z AUTO 16009G19KT 10SM CLR 24/09 A3011 200 38 1400 160/09G19 RMK AO2 T02440094
03949KAQV AQV20190323133511403/23/19 13:35:31  5-MIN KAQV 231935Z AUTO 16007G19KT 10SM CLR 24/08 A3011 200 35 1400 160/07G19 RMK AO2 T02440083
03949KAQV AQV20190323134012403/23/19 13:40:31  5-MIN KAQV 231940Z AUTO 17007KT 130V210 10SM CLR 24/08 A3011 200 35 1400 160/07 130V210 RMK AO2 T02440083
03949KAQV AQV20190323134511403/23/19 13:45:31  5-MIN KAQV 231945Z AUTO 16010G16KT 10SM CLR 24/07 A3010 210 33 1400 160/10G16 RMK AO2 T02440072
03949KAQV AQV20190323135012103/23/19 13:50:31  5-MIN KAQV 231950Z AUTO VRB06G16KT 10SM CLR 25/08 A3010 210 33 1500 VRB/06G16 RMK AO2 SLP192 T02500078
03949KAQV AQV20190323135511503/23/19 13:55:31  5-MIN KAQV 231955Z AUTO VRB06KT 10SM CLR 24/07 A3010 210 33 1400 VRB/06 RMK AO2 SLP191 T02440072
03949KAQV AQV20190323140010803/23/19 14:00:31  5-MIN KAQV 232000Z AUTO VRB06KT 10SM CLR 26/08 A3009 220 32 1500 VRB/06 RMK AO2 T02560078
03949KAQV AQV20190323140513003/23/19 14:05:31  5-MIN KAQV 232005Z AUTO 18010G15KT 150V220 10SM CLR 25/07 A3009 220 31 1500 180/10G15 150V220 RMK AO2 T02500072
03949KAQV AQV20190323141011403/23/19 14:10:31  5-MIN KAQV 232010Z AUTO VRB04G15KT 10SM CLR 25/07 A3009 220 31 1500 VRB/04G15 RMK AO2 T02500072
03949KAQV AQV20190323141513003/23/19 14:15:31  5-MIN KAQV 232015Z AUTO 14010G21KT 100V170 10SM CLR 25/07 A3009 220 31 1500 140/10G21 100V170 RMK AO2 T02500072
03949KAQV AQV20190323142013003/23/19 14:20:31  5-MIN KAQV 232020Z AUTO 16007G21KT 120V200 10SM CLR 25/07 A3009 220 31 1500 160/07G21 120V200 RMK AO2 T02500072
03949KAQV AQV20190323142511403/23/19 14:25:31  5-MIN KAQV 232025Z AUTO VRB04G14KT 10SM CLR 25/08 A3008 230 33 1500 VRB/04G14 RMK AO2 T02500078
03949KAQV AQV20190323143013003/23/19 14:30:31  5-MIN KAQV 232030Z AUTO 16007G16KT 120V210 10SM CLR 25/08 A3009 220 33 1500 160/07G16 120V210 RMK AO2 T02500078
03949KAQV AQV20190323143513003/23/19 14:35:31  5-MIN KAQV 232035Z AUTO 17008G16KT 130V250 10SM CLR 26/08 A3009 220 33 1500 160/08G16 130V250 RMK AO2 T02560083
03949KAQV AQV20190323144010803/23/19 14:40:31  5-MIN KAQV 232040Z AUTO VRB05KT 10SM CLR 26/08 A3009 220 33 1500 VRB/05 RMK AO2 T02560083
03949KAQV AQV20190323144510803/23/19 14:45:31  5-MIN KAQV 232045Z AUTO VRB06KT 10SM CLR 26/08 A3009 220 33 1500 VRB/06 RMK AO2 T02560083
03949KAQV AQV20190323145012103/23/19 14:50:31  5-MIN KAQV 232050Z AUTO 17007KT 10SM CLR 26/07 A3009 220 30 1500 170/07 RMK AO2 SLP190 T02560072 58012
03949KAQV AQV20190323145512103/23/19 14:55:31  5-MIN KAQV 232055Z AUTO VRB06KT 10SM CLR 25/08 A3009 220 33 1500 VRB/06 RMK AO2 SLP189 T02500078 58012
03949KAQV AQV20190323150011403/23/19 15:00:31  5-MIN KAQV 232100Z AUTO VRB04G14KT 10SM CLR 24/08 A3009 220 34 1400 VRB/04G14 RMK AO2 T02440078
03949KAQV AQV20190323150511403/23/19 15:05:31  5-MIN KAQV 232105Z AUTO 16004G14KT 10SM CLR 24/07 A3009 220 33 1400 160/04G14 RMK AO2 T02440072
03949KAQV AQV20190323151010803/23/19 15:10:31  5-MIN KAQV 232110Z AUTO 17007KT 10SM CLR 26/08 A3009 220 32 1500 170/07 RMK AO2 T02560078
03949KAQV AQV20190323151510803/23/19 15:15:31  5-MIN KAQV 232115Z AUTO VRB06KT 10SM CLR 25/08 A3008 230 33 1500 VRB/06 RMK AO2 T02500078
03949KAQV AQV20190323152010803/23/19 15:20:31  5-MIN KAQV 232120Z AUTO VRB06KT 10SM CLR 26/07 A3008 230 30 1500 VRB/06 RMK AO2 T02560072
03949KAQV AQV20190323152510803/23/19 15:25:31  5-MIN KAQV 232125Z AUTO VRB06KT 10SM CLR 25/07 A3008 230 30 1500 VRB/06 RMK AO2 T02500067
03949KAQV AQV20190323153012403/23/19 15:30:31  5-MIN KAQV 232130Z AUTO 17007KT 140V210 10SM CLR 24/07 A3008 230 31 1400 170/07 140V210 RMK AO2 T02440067
03949KAQV AQV20190323153510803/23/19 15:35:31  5-MIN KAQV 232135Z AUTO VRB05KT 10SM CLR 25/07 A3008 230 30 1500 VRB/05 RMK AO2 T02500067
03949KAQV AQV20190323154010803/23/19 15:40:31  5-MIN KAQV 232140Z AUTO VRB05KT 10SM CLR 25/07 A3008 230 30 1500 VRB/05 RMK AO2 T02500067
03949KAQV AQV20190323154510803/23/19 15:45:31  5-MIN KAQV 232145Z AUTO 16008KT 10SM CLR 25/07 A3008 230 31 1500 160/08 RMK AO2 T02500072
03949KAQV AQV20190323155011403/23/19 15:50:31  5-MIN KAQV 232150Z AUTO VRB04KT 9SM CLR 24/07 A3008 230 33 1400 VRB/04 RMK AO2 SLP186 T02440072
03949KAQV AQV20190323155513003/23/19 15:55:31  5-MIN KAQV 232155Z AUTO 18007KT 150V220 9SM CLR 24/07 A3008 230 33 1400 180/07 150V220 RMK AO2 SLP186 T02440072
03949KAQV AQV20190323160010803/23/19 16:00:31  5-MIN KAQV 232200Z AUTO 17006KT 10SM CLR 25/07 A3008 220 31 1500 170/06 RMK AO2 T02500072
03949KAQV AQV20190323160512403/23/19 16:05:31  5-MIN KAQV 232205Z AUTO 16007KT 100V190 10SM CLR 24/07 A3008 230 33 1400 160/07 100V190 RMK AO2 T02440072
03949KAQV AQV20190323161010803/23/19 16:10:31  5-MIN KAQV 232210Z AUTO 16006KT 10SM CLR 25/07 A3008 230 31 1500 160/06 RMK AO2 T02500072
03949KAQV AQV20190323161510803/23/19 16:15:31  5-MIN KAQV 232215Z AUTO 16007KT 10SM CLR 25/07 A3008 230 31 1500 150/07 RMK AO2 T02500072
03949KAQV AQV20190323162010803/23/19 16:20:31  5-MIN KAQV 232220Z AUTO VRB04KT 10SM CLR 24/07 A3008 230 33 1400 VRB/04 RMK AO2 T02440072
03949KAQV AQV20190323162510803/23/19 16:25:31  5-MIN KAQV 232225Z AUTO VRB04KT 10SM CLR 24/08 A3008 230 34 1400 VRB/04 RMK AO2 T02440078
03949KAQV AQV20190323163012403/23/19 16:30:31  5-MIN KAQV 232230Z AUTO 17007KT 130V210 10SM CLR 25/08 A3008 230 33 1500 160/07 130V210 RMK AO2 T02500078
03949KAQV AQV20190323163510803/23/19 16:35:31  5-MIN KAQV 232235Z AUTO 19007KT 10SM CLR 24/07 A3008 230 33 1400 190/07 RMK AO2 T02440072
03949KAQV AQV20190323164010803/23/19 16:40:31  5-MIN KAQV 232240Z AUTO 19006KT 10SM CLR 24/07 A3008 230 34 1300 190/06 RMK AO2 T02390072
03949KAQV AQV20190323164510803/23/19 16:45:31  5-MIN KAQV 232245Z AUTO 18007KT 10SM CLR 24/08 A3008 230 34 1400 180/07 RMK AO2 T02440078
03949KAQV AQV20190323165011503/23/19 16:50:31  5-MIN KAQV 232250Z AUTO VRB05KT 10SM CLR 24/08 A3008 220 35 1300 VRB/05 RMK AO2 SLP187 T02390078
03949KAQV AQV20190323165511503/23/19 16:55:31  5-MIN KAQV 232255Z AUTO VRB05KT 10SM CLR 24/08 A3009 220 34 1400 VRB/05 RMK AO2 SLP187 T02440078
03949KAQV AQV20190323170010803/23/19 17:00:31  5-MIN KAQV 232300Z AUTO VRB06KT 10SM CLR 24/08 A3009 220 35 1300 VRB/06 RMK AO2 T02390078
03949KAQV AQV20190323170510803/23/19 17:05:31  5-MIN KAQV 232305Z AUTO 17007KT 10SM CLR 24/08 A3009 220 35 1300 160/07 RMK AO2 T02390078
03949KAQV AQV20190323171010803/23/19 17:10:31  5-MIN KAQV 232310Z AUTO VRB05KT 10SM CLR 24/08 A3009 220 35 1300 VRB/05 RMK AO2 T02390078
03949KAQV AQV20190323171510803/23/19 17:15:31  5-MIN KAQV 232315Z AUTO VRB04KT 10SM CLR 23/08 A3009 220 36 1300 VRB/04 RMK AO2 T02330078
03949KAQV AQV20190323172010803/23/19 17:20:31  5-MIN KAQV 232320Z AUTO VRB05KT 10SM CLR 23/08 A3009 220 37 1200 VRB/05 RMK AO2 T02280078
03949KAQV AQV20190323172510803/23/19 17:25:31  5-MIN KAQV 232325Z AUTO VRB03KT 10SM CLR 23/08 A3009 220 38 1300 VRB/03 RMK AO2 T02330083
03949KAQV AQV20190323173010803/23/19 17:30:31  5-MIN KAQV 232330Z AUTO VRB05KT 10SM CLR 23/08 A3009 220 38 1300 VRB/05 RMK AO2 T02330083
03949KAQV AQV20190323173511103/23/19 17:35:31  5-MIN KAQV 232335Z AUTO 20004KT 10SM SCT095 23/08 A3009 220 39 1200 200/04 RMK AO2 T02280083
03949KAQV AQV20190323174012703/23/19 17:40:31  5-MIN KAQV 232340Z AUTO 17007KT 130V210 10SM SCT095 23/08 A3009 220 37 1200 170/07 130V210 RMK AO2 T02280078
03949KAQV AQV20190323174511103/23/19 17:45:31  5-MIN KAQV 232345Z AUTO VRB06KT 10SM FEW095 23/08 A3009 220 37 1200 VRB/06 RMK AO2 T02280078
03949KAQV AQV20190323175013603/23/19 17:50:31  5-MIN KAQV 232350Z AUTO VRB04KT 10SM FEW095 22/08 A3010 210 39 1100 VRB/04 RMK AO2 SLP191 T02220078 10256 20222 56025
03949KAQV AQV20190323175513603/23/19 17:55:31  5-MIN KAQV 232355Z AUTO 19005KT 10SM FEW095 22/08 A3010 210 39 1100 180/05 RMK AO2 SLP192 T02220078 10256 20222 56025
03949KAQV AQV20190323180011103/23/19 18:00:31  5-MIN KAQV 240000Z AUTO VRB03KT 10SM FEW095 22/08 A3010 210 40 1100 VRB/03 RMK AO2 T02170078
03949KAQV AQV20190323180510803/23/19 18:05:31  5-MIN KAQV 240005Z AUTO 17006KT 10SM CLR 22/08 A3010 210 40 1100 160/06 RMK AO2 T02170078
03949KAQV AQV20190323181010803/23/19 18:10:31  5-MIN KAQV 240010Z AUTO VRB05KT 10SM CLR 22/08 A3010 210 40 1100 VRB/05 RMK AO2 T02170078
03949KAQV AQV20190323181510803/23/19 18:15:31  5-MIN KAQV 240015Z AUTO VRB04KT 10SM CLR 21/08 A3009 220 42 1000 VRB/04 RMK AO2 T02110078
03949KAQV AQV20190323182010803/23/19 18:20:31  5-MIN KAQV 240020Z AUTO 17004KT 10SM CLR 21/08 A3010 210 43 1000 170/04 RMK AO2 T02060078
03949KAQV AQV20190323182510803/23/19 18:25:31  5-MIN KAQV 240025Z AUTO 17003KT 10SM CLR 21/08 A3010 210 43 1000 160/03 RMK AO2 T02060078
03949KAQV AQV20190323183010803/23/19 18:30:31  5-MIN KAQV 240030Z AUTO 18003KT 10SM CLR 21/08 A3010 210 43 1000 180/03 RMK AO2 T02110083
03949KAQV AQV20190323183510703/23/19 18:35:31  5-MIN KAQV 240035Z AUTO 00000KT 10SM CLR 20/08 A3010 210 46 900 000/00 RMK AO2 T02000083
03949KAQV AQV20190323184010703/23/19 18:40:31  5-MIN KAQV 240040Z AUTO 17003KT 10SM CLR 19/08 A3010 210 48 800 170/03 RMK AO2 T01940083
03949KAQV AQV20190323184510703/23/19 18:45:31  5-MIN KAQV 240045Z AUTO 00000KT 10SM CLR 19/08 A3010 210 48 800 000/00 RMK AO2 T01940083
03949KAQV AQV20190323185011403/23/19 18:50:31  5-MIN KAQV 240050Z AUTO 00000KT 10SM CLR 18/08 A3010 210 52 700 000/00 RMK AO2 SLP194 T01830083
03949KAQV AQV20190323185511403/23/19 18:55:31  5-MIN KAQV 240055Z AUTO VRB03KT 10SM CLR 18/08 A3010 210 52 700 VRB/03 RMK AO2 SLP195 T01830083
03949KAQV AQV20190323190010703/23/19 19:00:31  5-MIN KAQV 240100Z AUTO 00000KT 10SM CLR 18/08 A3011 200 53 600 000/00 RMK AO2 T01780083
03949KAQV AQV20190323190510703/23/19 19:05:31  5-MIN KAQV 240105Z AUTO 00000KT 10SM CLR 18/08 A3011 200 53 600 000/00 RMK AO2 T01780083
03949KAQV AQV20190323191010703/23/19 19:10:31  5-MIN KAQV 240110Z AUTO 00000KT 10SM CLR 17/08 A3011 200 55 500 000/00 RMK AO2 T01720083
03949KAQV AQV20190323191510703/23/19 19:15:31  5-MIN KAQV 240115Z AUTO 18003KT 10SM CLR 17/09 A3011 200 57 500 180/03 RMK AO2 T01720089
03949KAQV AQV20190323192010703/23/19 19:20:31  5-MIN KAQV 240120Z AUTO 00000KT 10SM CLR 17/09 A3011 200 60 500 000/00 RMK AO2 T01670089
03949KAQV AQV20190323192510603/23/19 19:25:31  5-MIN KAQV 240125Z AUTO VRB03KT 9SM CLR 17/09 A3012 200 57 500 VRB/03 RMK AO2 T01720089
03949KAQV AQV20190323193010603/23/19 19:30:31  5-MIN KAQV 240130Z AUTO VRB04KT 9SM CLR 18/09 A3012 200 55 600 VRB/04 RMK AO2 T01780089
03949KAQV AQV20190323193511003/23/19 19:35:31  5-MIN KAQV 240135Z AUTO 20004KT 10SM FEW090 18/09 A3012 190 55 600 190/04 RMK AO2 T01780089
03949KAQV AQV20190323194011003/23/19 19:40:31  5-MIN KAQV 240140Z AUTO VRB04KT 10SM SCT085 18/09 A3012 190 54 700 VRB/04 RMK AO2 T01830089
03949KAQV AQV20190323194511003/23/19 19:45:31  5-MIN KAQV 240145Z AUTO VRB04KT 10SM BKN085 18/08 A3012 190 52 700 VRB/04 RMK AO2 T01830083
03949KAQV AQV20190323195011703/23/19 19:50:31  5-MIN KAQV 240150Z AUTO VRB04KT 10SM BKN085 18/08 A3012 190 52 700 VRB/04 RMK AO2 SLP199 T01830083
03949KAQV AQV20190323195511703/23/19 19:55:31  5-MIN KAQV 240155Z AUTO VRB04KT 10SM BKN085 19/08 A3012 190 48 700 VRB/04 RMK AO2 SLP199 T01890078
03949KAQV AQV20190323200011003/23/19 20:00:31  5-MIN KAQV 240200Z AUTO 19005KT 10SM OVC085 19/08 A3012 190 48 700 190/05 RMK AO2 T01890078
03949KAQV AQV20190323200511003/23/19 20:05:31  5-MIN KAQV 240205Z AUTO VRB05KT 10SM OVC085 18/08 A3012 190 50 700 VRB/05 RMK AO2 T01830078
03949KAQV AQV20190323201011003/23/19 20:10:31  5-MIN KAQV 240210Z AUTO 19005KT 10SM OVC085 18/08 A3012 190 50 700 180/05 RMK AO2 T01830078
03949KAQV AQV20190323201511003/23/19 20:15:31  5-MIN KAQV 240215Z AUTO VRB04KT 10SM BKN085 18/08 A3012 190 50 700 VRB/04 RMK AO2 T01830078
03949KAQV AQV20190323202011003/23/19 20:20:31  5-MIN KAQV 240220Z AUTO 19005KT 10SM BKN085 18/08 A3012 190 50 700 190/05 RMK AO2 T01830078
03949KAQV AQV20190323202511003/23/19 20:25:31  5-MIN KAQV 240225Z AUTO 18005KT 10SM SCT085 18/08 A3012 190 50 700 180/05 RMK AO2 T01830078
03949KAQV AQV20190323203011003/23/19 20:30:31  5-MIN KAQV 240230Z AUTO 18005KT 10SM SCT085 18/08 A3012 190 51 600 180/05 RMK AO2 T01780078
03949KAQV AQV20190323203510003/23/19 20:35:31  5-MIN KAQV 240235Z AUTO VRB05KT 10SM SCT085 18/08 A3013  VRB/03 RMK AO2 T01610094
03949KAQV AQV20190323222511003/23/19 22:25:31  5-MIN KAQV 240425Z AUTO VRB03KT 10SM OVC085 16/09 A3014 170 64 400 VRB/03 RMK AO2 T01610094
03949KAQV AQV20190323223011003/23/19 22:30:31  5-MIN KAQV 240430Z AUTO 18003KT 10SM OVC085 16/09 A3014 170 64 400 180/03 RMK AO2 T01610094
03949KAQV AQV20190323223511003/23/19 22:35:31  5-MIN KAQV 240435Z AUTO 18003KT 10SM OVC085 16/09 A3014 170 62 400 170/03 RMK AO2 T01610089
03949KAQV AQV20190323224011003/23/19 22:40:31  5-MIN KAQV 240440Z AUTO 00000KT 10SM OVC085 16/09 A3014 170 64 400 000/00 RMK AO2 T01610094
03949KAQV AQV20190323224511003/23/19 22:45:31  5-MIN KAQV 240445Z AUTO 18003KT 10SM OVC085 16/09 A3014 170 62 400 180/03 RMK AO2 T01610089
03949KAQV AQV20190323225011703/23/19 22:50:31  5-MIN KAQV 240450Z AUTO 00000KT 10SM OVC085 16/09 A3014 170 64 400 000/00 RMK AO2 SLP205 T01610094
03949KAQV AQV20190323225016303/23/19 22:50:31  5-MIN KAQV 240450Z AUTO 00000KT 10SM OVC085 16/09 A3014 170 64 400 000/00 RMK AO2 SLP205 T0161009403/23/19 22170 64 400 180/03 RMK AO2 T01610094
03949KAQV AQV20190323225511703/23/19 22:55:31  5-MIN KAQV 240455Z AUTO 17003KT 10SM OVC085 16/09 A3014 170 64 400 160/03 RMK AO2 SLP205 T01610094
03949KAQV AQV20190323230011003/23/19 23:00:31  5-MIN KAQV 240500Z AUTO 17003KT 10SM OVC085 16/09 A3014 170 64 400 170/03 RMK AO2 T01610094
03949KAQV AQV20190323230014803/23/19 23:00:31  5-MIN KAQV 240500Z AUTO 17003KT 10SM OVC085 16/09 A3014 170 64 400 170/03 RMK AO2 T0161009414 170 64 400 000/00 RMK AO2 T01610094
03949KAQV AQV20190323230511003/23/19 23:05:31  5-MIN KAQV 240505Z AUTO 00000KT 10SM OVC085 16/09 A3014 170 64 400 000/00 RMK AO2 T01610094
03949KAQV AQV20190323231011003/23/19 23:10:31  5-MIN KAQV 240510Z AUTO 17003KT 10SM OVC085 16/09 A3014 170 64 400 170/03 RMK AO2 T01610094
03949KAQV AQV20190323231015703/23/19 23:10:31  5-MIN KAQV 240510Z AUTO 17003KT 10SM OVC085 16/09 A3014 170 64 400 170/03 RMK AO2 T016100 A3014 170 64 400 000/00 RMK AO2 SLP205 T01610094
03949KAQV AQV20190323231016603/23/19 23:10:31  5-MIN KAQV 240510Z AUTO 17003KT 10SM OVC085 16/09 A3014 170 64 400 170/03 RMK AO2 T016T 10SM OVC085 16/09 A3013 180 64 400 180/04 RMK AO2 T01610094
03949KAQV AQV20190323231511003/23/19 23:15:31  5-MIN KAQV 240515Z AUTO 00000KT 10SM OVC085 16/09 A3014 170 64 400 000/00 RMK AO2 T01610094
03949KAQV AQV20190323232016203/23/19 23:20:31  5-MIN KAQV 240520Z AUTO 17004KT 10SM OVC085 16/09 A3014 170 64 400 160/04 RMK AO2 T0161009403/23/19 23:2514 170 64 400 170/03 RMK AO2 T01610094
03949KAQV AQV20190323232511003/23/19 23:25:31  5-MIN KAQV 240525Z AUTO 00000KT 10SM OVC085 16/09 A3014 180 64 400 000/00 RMK AO2 T01610094
03949KAQV AQV20190323233009103/23/19 23:30:31  5-MIN KAQV 240530Z AUTO 18004LP200 T01610094 10217 20161 402560078 53013
03949KAQV AQV20190323234011003/23/19 23:40:31  5-MIN KAQV 240540Z AUTO 17004KT 10SM OVC085 16/09 A3013 180 64 400 170/04 RMK AO2 T01610094
03949KAQV AQV20190323234016603/23/19 23:40:31  5-MIN KAQV 240540Z AUTO 17004KT 10SM OVC08519 23:20:31  5-MIN KAQV 240520Z AUTO 17004KT 10SM OVC085 16/09 A3014 170 64 400 160/04 RMK AO2 T01610094
03949KAQV AQV20190323234512403/23/19 23:45:31  5-MIN KAQV 240545Z AUTO 18004KT 10SM OVC085 16/09 A3013 180 64 400 170/04 RMK AO2 T0164 RMK AO2 T01610094
03949KAQV AQV20190323235512903/23/19 23:55:31  5-MIN KAQV 240555Z AUTO 17004KT 10SM OVC085 16/09 A3013 190 67 30009 A3013 180 64 400 180/04 RMK AO2 T01610094
03949KAQV AQV20190323235514503/23/19 23:55:31  5-MIN KAQV 240555Z AUTO 17004KT 10SM OVC085 16/09 A3013 190 67 300 170/04 RMK AO2 SLP200 T01560094 10217 20156 402560078 53013
03949KAQV AQV20190324000016603/24/19 00:00:31  5-MIN KAQV 240600Z AUTO 19004KT 10SM OVC085 16/09 A3013 190 64 400 180/04 RAUTO VRB03KT 10SM OVC085 16/09 A3013 180 64 400 VRB/03 RMK AO2 T01610094
03949KAQV AQV20190324001011003/24/19 00:10:31  5-MIN KAQV 240610Z AUTO VRB03KT 10SM OVC085 16/09 A3013 180 64 400 VRB/03 RMK AO2 T01610094
03949KAQV AQV20190324001013103/24/19 00:10:31  5-MIN KAQV 240610Z AUTO VRB03KT 10SM OVC085 16/09 A3013 180 64 400 VSLP200 T01610094 10217 20161 402560078 53013
03949KAQV AQV20190324001511003/24/19 00:15:31  5-MIN KAQV 240615Z AUTO 18003KT 10SM OVC085 16/09 A3013 180 64 400 170/03 RMK AO2 T01610094
03949KAQV AQV20190324003011003/24/19 00:30:31  5-MIN KAQV 240630Z AUTO 00000KT 10SM OVC085 16/09 A3013 180 67 300 000/00 RMK AO2 T01560094
03949KAQV AQV20190324003511003/24/19 00:35:31  5-MIN KAQV 240635Z AUTO 00000KT 10SM OVC085 16/09 A3013 190 67 300 180/03 RMK AO2 T01560094
03949KAQV AQV20190324004516203/24/19 00:45:31  5-MIN KAQV 240645Z AUTO VRB03KT 10SM OVC090 16/09 A3013 180 67 300 VRB/03 RMK AO2 T0156009403/24/19 0 A3013 180 64 400 VRB/03 RMK AO2 T01610094
03949KAQV AQV20190324005011703/24/19 00:50:31  5-MIN KAQV 240650Z AUTO 17003KT 10SM OVC090 16/09 A3013 190 67 300 160/03 RMK AO2 SLP200 T01560094
03949KAQV AQV20190324010511003/24/19 01:05:31  5-MIN KAQV 240705Z AUTO 00000KT 10SM OVC090 16/09 A3012 190 67 300 000/00 RMK AO2 T01560094
03949KAQV AQV20190324010515203/24/19 01:05:31  5-MIN KAQV 240705Z AUTO 00000KT 10SM OVC  5-MIN KAQV 240645Z AUTO VRB03KT 10SM OVC090 16/09 A3013 180 67 300 VRB/03 RMK AO2 T01560094
03949KAQV AQV20190324011016603/24/19 01:10:31  5-MIN KAQV 240710Z AUTO 17004KT 10SM OVC090 16/10 A3012 190 69 3QV 240735Z AUTO 18003KT 10SM OVC090 16/10 A3012 190 69 300 180/03 RMK AO2 T01560100
03949KAQV AQV20190324012016403/24/19 01:20:31  5-MIN KAQV 240720Z AUTO 18004KT 10SM OVC090 16/10 A3012 190 69 300 170/04 RMK AO2 T01 10SM OVC090 16/09 A3013 190 67 300 180/03 RMK AO2 T01560094
03949KAQV AQV20190324012511003/24/19 01:25:31  5-MIN KAQV 240725Z AUTO 18004KT 10SM OVC090 16/10 A3012 190 69 300 170/04 RMK AO2 T01560100
03949KAQV AQV20190324014011003/24/19 01:40:31  5-MIN KAQV 240740Z AUTO 17003KT 10SM OVC090 16/10 A3012 190 69 300 170/03 RMK AO2 T01560100
03949KAQV AQV20190324014016603/24/19 01:40:31  5-MIN KAQV 240740Z AUTO 17003KT 10SM OVC090 1 01:20:31  5-MIN KAQV 240720Z AUTO 18004KT 10SM OVC090 16/10 A3012 190 69 300 170/04 RMK AO2 T01560100
03949KAQV AQV20190324014515703/24/19 01:45:31  5-MIN KAQV 240745Z AUTO 19003KT 10SM OVC090 16/10 A3012 190 72 300 160/03 RMK AO2 T0156010603/24/19 02:300 190/03 RMK AO2 SLP199 T01560100
03949KAQV AQV20190324015511703/24/19 01:55:31  5-MIN KAQV 240755Z AUTO 17004KT 10SM OVC090 16/10 A3012 190 69 300 170/04 RMK AO2 SLP199 T01560100
03949KAQV AQV20190324015515703/24/19 01:55:31  5-MIN KAQV 240755Z AUTO 17004KT 10SM OVC090 16/10 A3012 190 69 300 170/04 R3KT 10SM OVC090 16/10 A3012 190 69 300 180/03 RMK AO2 T01560100
03949KAQV AQV20190324020011003/24/19 02:00:31  5-MIN KAQV 240800Z AUTO 00000KT 10SM OVC090 16/11 A3012 190 72 300 000/00 RMK AO2 T01560106
03949KAQV AQV20190324021511003/24/19 02:15:31  5-MIN KAQV 240815Z AUTO VRB03KT 10SM OVC090 15/11 A3012 190 74 300 VRB/03 RMK AO2 T01500106
03949KAQV AQV20190324022021803/24/19 02:20:31  5-MIN KAQV 240820Z AUTO 17004KT 10SM OVC095 15/11 A3012 190 74 300 140845Z AUTO 16004KT 10SM OVC100 15/11 A3011 200 74 300 160/04 RMK AO2 T0150010603/24/1911 A3012 190 74 300 170/03 RMK AO2 T01500106
03949KAQV AQV20190324023011003/24/19 02:30:31  5-MIN KAQV 240830Z AUTO 17003KT 10SM OVC095 15/11 A3012 190 72 300 160/03 RMK AO2 T01560106
03949KAQV AQV20190324023011003/24/19 02:30:31  5-MIN KAQV 240830Z AUTO 17003KT 10SM OVC095 15/11 A3012 200 74 300 170/03 RMK AO2 T01500106
03949KAQV AQV20190324023511003/24/19 02:35:31  5-MIN KAQV 240835Z AUTO 18004KT 10SM OVC095 15/11 A3011 200 74 300 170/04 RMK AO2 T01500106
03949KAQV AQV20190324024011503/24/19 02:40:31  5-MIN KAQV 240840Z  A3010 210 74 300 160/04 RMK AO2 T01500106200 74 300 160/04 RMK AO2 T01500106
03949KAQV AQV20190324025012303/24/19 02:50:31  5-MIN KAQV 240850Z AUTO 17005KT 10SM OVC100 15/11 A3011 200 74 300 170/05 RMK AO2 SLP194 T01500106 58005
03949KAQV AQV20190324025511003/24/19 02:55:31  5-MIN KAQV 240855Z AUTO 16004KT 10SM OVC100 15/11 A3011 210 74 300 160/04 RMK AO2 T01500106
03949KAQV AQV20190324030511003/24/19 03:05:31  5-MIN KAQV 240905Z AUTO 17005KT 10SM OVC100 15/11 A3010 210 74 300 170/05 RMK AO2 T01500106
03949KAQV AQV20190324031016203/24/19 03:10:31  5-MIN KAQV 240910Z AUTO 17003KT 10SM OVC100 15/11 A3010 210 74 300 160/03 RMK AO2 T0150010603/0 15/11 A3011 200 74 300 170/03 RMK AO2 T01500106
03949KAQV AQV20190324031511003/24/19 03:15:31  5-MIN KAQV 240915Z AUTO 17003KT 10SM OVC100 15/11 A3011 200 74 300 170/03 RMK AO2 T01500106
03949KAQV AQV20190324032011003/24/19 03:20:31  5-MIN KAQV 240920Z AUTO 00000KT 10SM OVC100 15/11 A3011 210 74 300 000/00 RMK AO2 T01500106
03949KAQV AQV20190324032511003/24/19 03:25:31  5-MIN KAQV 240925Z AUTO 00000KT 10SM OVC100 15/11 A3010 210 77 300 000/00 RMK AO2 T01500111
03949KAQV AQV20190324033011003/24/19 03:30:31  5-MIN KAQV 240930Z AUTO VRB03KT 10SM OVC100 14/11 A3010 210 80 200 170/03 RMK AO2 T01440111
03949KAQV AQV20190324033011003/24/19 03:30:31  5-MIN KAQV 240930Z AUTO VRB03KT 10SM OVC100 14/11 A3010 210 80 200 VRB/03 RMK AO2 T01440111
03949KAQV AQV20190324033511003/24/19 03:35:31  5-MIN KAQV 240935Z AUTO 17003KT 10SM OVC100 14/11 A3010 210 80 200 170/03 RMK AO2 T01440111
03949KAQV AQV20190324034011003/24/19 03:40:31  5-MIN KAQV 240940Z AUTO 00000KT 10SM BKN100 14/11 A3010 210 80 200 000/00 RMK AO2 T01440111
03949KAQV AQV20190324034511003/24/19 03:45:31  5-MIN KAQV 240945Z AUTO 17003KT 10SM BKN100 14/11 A3010 210 80 200 160/03 RMK AO2 T01440111
03949KAQV AQV20190324035011703/24/19 03:50:31  5-MIN KAQV 240950Z AUTO VRB03KT 10SM OVC100 14/11 A3010 210 80 200 VRB/03 RMK AO2 SLP192 T01440111
03949KAQV AQV20190324035011903/24/19 03:50:31  5-MIN KAQV 240950Z AUTO V3010 210 80 200 180/03 RMK AO2 T0110 80 200 VRB/03 RMK AO2 SLP192 T01440111
03949KAQV AQV20190324035511703/24/19 03:55:31  5-MIN KAQV 240955Z AUTO 18003KT 10SM OVC100 14/11 A3010 210 80 200 170/03 RMK AO2 SLP192 T01440111
03949KAQV AQV20190324040011003/24/19 04:00:31  5-MIN KAQV 241000Z AUTO 00000KT 10SM OVC100 14/11 A3010 210 80 200 000/00 RMK AO2 T01440111
03949KAQV AQV20190324040511703/24/19 04:05:31  5-MIN KAQV 241005Z AUTO 18003KT 10SM FEW025 OVC100 14/11 A3011 210 80 200 180/03 RMK AO2 T01440111
03949KAQV AQV20190324041011703/24/19 04:10:31  5-MIN KAQV 241010Z AUTO 18003KT 10SM SCT025 OVC100 14/11 A3010 210 80 200 180/03 RMK AO2 T01440111
03949KAQV AQV20190324041511703/24/19 04:15:31  5-MIN KAQV 241015Z AUTO 00000KT 10SM SCT025 OVC100 14/11 A3011 210 80 200 000/00 RMK AO2 T01440111
03949KAQV AQV20190324042011703/24/19 04:20:31  5-MIN KAQV 241020Z AUTO 00000KT 10SM FEW025 OVC100 14/11 A3011 200 80 200 000/00 RMK AO2 T01440111
03949KAQV AQV20190324042511703/24/19 04:25:31  5-MIN KAQV 241025Z AUTO 00000KT 10SM FEW025 OVC100 14/11 A3011 210 80 200 000/00 RMK AO2 T01440111
03949KAQV AQV20190324043011703/24/19 04:30:31  5-MIN KAQV 241030Z AUTO 00000KT 10SM FEW025 OVC095 14/12 A3010 210 83 200 000/00 RMK AO2 T01440117
03949KAQV AQV20190324043511703/24/19 04:35:31  5-MIN KAQV 241035Z AUTO 00000KT 10SM FEW025 OVC095 14/12 A3010 210 83 200 000/00 RMK AO2 T01440117
03949KAQV AQV20190324044011003/24/19 04:40:31  5-MIN KAQV 241040Z AUTO VRB03KT 10SM OVC095 14/12 A3010 210 83 200 VRB/03 RMK AO2 T01440117
03949KAQV AQV20190324044511003/24/19 04:45:31  5-MIN KAQV 241045Z AUTO VRB03KT 10SM OVC100 14/12 A3010 210 83 200 VRB/03 RMK AO2 T01440117
03949KAQV AQV20190324045011703/24/19 04:50:31  5-MIN KAQV 241050Z AUTO 00000KT 10SM OVC100 14/12 A3010 210 83 200 000/00 RMK AO2 SLP192 T01440117
03949KAQV AQV20190324045511703/24/19 04:55:31  5-MIN KAQV 241055Z AUTO VRB03KT 10SM OVC095 14/12 A3010 210 83 200 VRB/03 RMK AO2 SLP193 T01440117
03949KAQV AQV20190324050011003/24/19 05:00:31  5-MIN KAQV 241100Z AUTO 16003KT 10SM OVC100 14/12 A3010 210 83 200 160/03 RMK AO2 T01440117
03949KAQV AQV20190324050511003/24/19 05:05:31  5-MIN KAQV 241105Z AUTO 00000KT 10SM OVC100 14/12 A3011 210 83 200 000/00 RMK AO2 T01440117
03949KAQV AQV20190324051011003/24/19 05:10:31  5-MIN KAQV 241110Z AUTO 00000KT 10SM OVC100 14/12 A3011 200 83 200 000/00 RMK AO2 T01440117
03949KAQV AQV20190324051511003/24/19 05:15:31  5-MIN KAQV 241115Z AUTO 00000KT 10SM BKN100 14/12 A3011 200 83 200 000/00 RMK AO2 T01440117
03949KAQV AQV20190324052011003/24/19 05:20:31  5-MIN KAQV 241120Z AUTO 00000KT 10SM BKN100 14/12 A3011 200 86 200 000/00 RMK AO2 T01390117
03949KAQV AQV20190324052511003/24/19 05:25:31  5-MIN KAQV 241125Z AUTO 00000KT 10SM BKN100 14/11 A3011 200 83 200 000/00 RMK AO2 T01390111
03949KAQV AQV20190324053011003/24/19 05:30:31  5-MIN KAQV 241130Z AUTO 00000KT 10SM SCT100 13/11 A3011 200 86 100 000/00 RMK AO2 T01330111
03949KAQV AQV20190324053511003/24/19 05:35:31  5-MIN KAQV 241135Z AUTO 00000KT 10SM SCT100 13/11 A3011 200 86 100 000/00 RMK AO2 T01330111
03949KAQV AQV20190324054011003/24/19 05:40:31  5-MIN KAQV 241140Z AUTO 00000KT 10SM FEW100 13/11 A3011 200 86 100 000/00 RMK AO2 T01330111
03949KAQV AQV20190324054511003/24/19 05:45:31  5-MIN KAQV 241145Z AUTO 00000KT 10SM FEW095 13/11 A3011 200 86 100 000/00 RMK AO2 T01330111
03949KAQV AQV20190324055013003/24/19 05:50:31  5-MIN KAQV 241150Z AUTO 16003KT 10SM CLR 13/11 A3011 200 89 0 150/03 RMK AO2 SLP196 T01280111 10161 20128 58006
03949KAQV AQV20190324055513003/24/19 05:55:31  5-MIN KAQV 241155Z AUTO 16003KT 10SM CLR 13/11 A3011 200 89 0 160/03 RMK AO2 SLP196 T01280111 10161 20128 58006
03949KAQV AQV20190324060010503/24/19 06:00:31  5-MIN KAQV 241200Z AUTO 17003KT 10SM CLR 13/11 A3011 200 89 0 160/03 RMK AO2 T01280111
03949KAQV AQV20190324060510803/24/19 06:05:31  5-MIN KAQV 241205Z AUTO 16003KT 10SM FEW021 13/11 A3011 200 89 0 160/03 RMK AO2 T01280111
03949KAQV AQV20190324061010803/24/19 06:10:31  5-MIN KAQV 241210Z AUTO 16004KT 10SM FEW021 13/11 A3011 200 89 0 160/04 RMK AO2 T01280111
03949KAQV AQV20190324061511003/24/19 06:15:31  5-MIN KAQV 241215Z AUTO 17004KT 10SM FEW021 13/12 A3011 200 89 100 160/04 RMK AO2 T01330117
03949KAQV AQV20190324062011003/24/19 06:20:31  5-MIN KAQV 241220Z AUTO 17004KT 10SM FEW021 13/11 A3011 200 86 100 160/04 RMK AO2 T01330111
03949KAQV AQV20190324062511003/24/19 06:25:31  5-MIN KAQV 241225Z AUTO 16003KT 10SM FEW021 13/11 A3011 200 86 100 160/03 RMK AO2 T01330111
03949KAQV AQV20190324063011003/24/19 06:30:31  5-MIN KAQV 241230Z AUTO 00000KT 10SM FEW021 13/11 A3011 200 86 100 000/00 RMK AO2 T01330111
03949KAQV AQV20190324063510703/24/19 06:35:31  5-MIN KAQV 241235Z AUTO 00000KT 10SM CLR 13/12 A3011 200 89 100 000/00 RMK AO2 T01330117
03949KAQV AQV20190324064010703/24/19 06:40:31  5-MIN KAQV 241240Z AUTO 00000KT 10SM CLR 13/12 A3012 200 89 100 000/00 RMK AO2 T01330117
03949KAQV AQV20190324064510703/24/19 06:45:31  5-MIN KAQV 241245Z AUTO 00000KT 10SM CLR 13/12 A3012 190 89 100 000/00 RMK AO2 T01330117
03949KAQV AQV20190324065011403/24/19 06:50:31  5-MIN KAQV 241250Z AUTO 00000KT 10SM CLR 13/12 A3012 190 89 100 000/00 RMK AO2 SLP199 T01330117
03949KAQV AQV20190324065511403/24/19 06:55:31  5-MIN KAQV 241255Z AUTO 00000KT 10SM CLR 13/12 A3012 190 89 100 000/00 RMK AO2 SLP199 T01330117
03949KAQV AQV20190324070010703/24/19 07:00:31  5-MIN KAQV 241300Z AUTO 00000KT 10SM CLR 13/12 A3012 190 89 100 000/00 RMK AO2 T01330117
03949KAQV AQV20190324070510703/24/19 07:05:31  5-MIN KAQV 241305Z AUTO 00000KT 10SM CLR 13/12 A3012 190 89 100 000/00 RMK AO2 T01330117
03949KAQV AQV20190324071010703/24/19 07:10:31  5-MIN KAQV 241310Z AUTO 00000KT 10SM CLR 14/12 A3012 190 86 100 000/00 RMK AO2 T01390117
03949KAQV AQV20190324071510703/24/19 07:15:31  5-MIN KAQV 241315Z AUTO 00000KT 10SM CLR 14/12 A3012 190 86 100 000/00 RMK AO2 T01390117
03949KAQV AQV20190324072010703/24/19 07:20:31  5-MIN KAQV 241320Z AUTO VRB03KT 10SM CLR 14/12 A3013 190 86 200 VRB/03 RMK AO2 T01440122
03949KAQV AQV20190324072510703/24/19 07:25:31  5-MIN KAQV 241325Z AUTO VRB04KT 10SM CLR 15/12 A3012 190 83 300 VRB/04 RMK AO2 T01500122
03949KAQV AQV20190324073010703/24/19 07:30:31  5-MIN KAQV 241330Z AUTO 16004KT 10SM CLR 15/12 A3012 190 83 300 160/04 RMK AO2 T01500122
03949KAQV AQV20190324073510703/24/19 07:35:31  5-MIN KAQV 241335Z AUTO VRB03KT 10SM CLR 15/12 A3012 190 83 300 VRB/03 RMK AO2 T01500122
03949KAQV AQV20190324074011003/24/19 07:40:31  5-MIN KAQV 241340Z AUTO VRB03KT 10SM FEW070 16/13 A3012 190 83 300 VRB/03 RMK AO2 T01560128
03949KAQV AQV20190324074511003/24/19 07:45:31  5-MIN KAQV 241345Z AUTO VRB04KT 10SM FEW070 16/13 A3012 190 80 400 VRB/04 RMK AO2 T01610128
03949KAQV AQV20190324075011703/24/19 07:50:31  5-MIN KAQV 241350Z AUTO 18006KT 10SM FEW070 16/13 A3012 190 80 400 180/06 RMK AO2 SLP199 T01610128
03949KAQV AQV20190324075513303/24/19 07:55:31  5-MIN KAQV 241355Z AUTO 15007KT 110V190 10SM FEW070 17/13 A3012 190 77 500 150/07 110V190 RMK AO2 SLP199 T01670128
03949KAQV AQV20190324080011003/24/19 08:00:31  5-MIN KAQV 241400Z AUTO VRB04KT 10SM FEW070 17/13 A3013 190 77 500 VRB/04 RMK AO2 T01670128
03949KAQV AQV20190324080511003/24/19 08:05:31  5-MIN KAQV 241405Z AUTO 17005KT 10SM FEW070 17/13 A3013 180 75 500 160/05 RMK AO2 T01720128
03949KAQV AQV20190324081010703/24/19 08:10:31  5-MIN KAQV 241410Z AUTO 18006KT 10SM CLR 17/13 A3013 180 78 500 180/06 RMK AO2 T01720133
03949KAQV AQV20190324081511003/24/19 08:15:31  5-MIN KAQV 241415Z AUTO VRB05KT 10SM FEW070 17/13 A3013 180 78 500 VRB/05 RMK AO2 T01720133
03949KAQV AQV20190324082011003/24/19 08:20:31  5-MIN KAQV 241420Z AUTO 17006KT 10SM FEW070 18/13 A3013 180 75 600 170/06 RMK AO2 T01780133
03949KAQV AQV20190324082511003/24/19 08:25:31  5-MIN KAQV 241425Z AUTO VRB05KT 10SM SCT075 18/13 A3014 180 75 600 VRB/05 RMK AO2 T01780133
03949KAQV AQV20190324083011003/24/19 08:30:31  5-MIN KAQV 241430Z AUTO VRB05KT 10SM BKN075 18/13 A3014 170 75 600 VRB/05 RMK AO2 T01780133
03949KAQV AQV20190324083511003/24/19 08:35:31  5-MIN KAQV 241435Z AUTO VRB05KT 10SM BKN075 18/13 A3014 170 72 600 VRB/05 RMK AO2 T01830133
03949KAQV AQV20190324084011003/24/19 08:40:31  5-MIN KAQV 241440Z AUTO VRB04KT 10SM OVC075 18/14 A3014 170 75 600 VRB/04 RMK AO2 T01830139
03949KAQV AQV20190324084511003/24/19 08:45:31  5-MIN KAQV 241445Z AUTO 17004KT 10SM OVC075 18/14 A3014 170 75 600 160/04 RMK AO2 T01830139
03949KAQV AQV20190324085012303/24/19 08:50:31  5-MIN KAQV 241450Z AUTO 00000KT 10SM OVC075 19/14 A3015 170 72 700 000/00 RMK AO2 SLP207 T01890139 53003
03949KAQV AQV20190324085513003/24/19 08:55:31  5-MIN KAQV 241455Z AUTO 18007KT 10SM FEW019 OVC075 19/14 A3015 170 72 700 170/07 RMK AO2 SLP207 T01890139 53003
03949KAQV AQV20190324090011703/24/19 09:00:31  5-MIN KAQV 241500Z AUTO VRB04KT 10SM FEW019 OVC075 19/14 A3015 170 72 700 VRB/04 RMK AO2 T01890139
03949KAQV AQV20190324090511703/24/19 09:05:31  5-MIN KAQV 241505Z AUTO VRB04KT 10SM SCT019 OVC075 19/14 A3015 170 72 800 VRB/04 RMK AO2 T01940144
03949KAQV AQV20190324091011703/24/19 09:10:31  5-MIN KAQV 241510Z AUTO VRB05KT 10SM BKN019 OVC075 19/14 A3015 170 72 800 VRB/05 RMK AO2 T01940144
03949KAQV AQV20190324091511703/24/19 09:15:31  5-MIN KAQV 241515Z AUTO 18008KT 10SM BKN019 OVC075 20/14 A3015 160 70 800 180/08 RMK AO2 T02000144
03949KAQV AQV20190324092011703/24/19 09:20:31  5-MIN KAQV 241520Z AUTO VRB03KT 10SM BKN019 OVC075 20/14 A3015 170 70 800 VRB/03 RMK AO2 T02000144
03949KAQV AQV20190324092511003/24/19 09:25:31  5-MIN KAQV 241525Z AUTO VRB04KT 10SM OVC019 20/14 A3015 170 70 800 VRB/04 RMK AO2 T02000144
03949KAQV AQV20190324093011703/24/19 09:30:31  5-MIN KAQV 241530Z AUTO VRB05KT 10SM BKN019 OVC026 21/14 A3015 160 67 900 VRB/05 RMK AO2 T02060144
03949KAQV AQV20190324093511003/24/19 09:35:31  5-MIN KAQV 241535Z AUTO VRB05KT 10SM OVC022 21/14 A3015 160 67 900 VRB/05 RMK AO2 T02060144
03949KAQV AQV20190324094011003/24/19 09:40:31  5-MIN KAQV 241540Z AUTO VRB05KT 10SM OVC022 21/15 A3015 160 70 900 VRB/05 RMK AO2 T02060150
03949KAQV AQV20190324094511703/24/19 09:45:31  5-MIN KAQV 241545Z AUTO VRB06KT 10SM BKN022 OVC027 21/15 A3015 160 70 900 VRB/06 RMK AO2 T02060150
03949KAQV AQV20190324095014003/24/19 09:50:31  5-MIN KAQV 241550Z AUTO 18007KT 140V220 10SM BKN022 OVC027 21/15 A3015 170 70 900 180/07 140V220 RMK AO2 SLP208 T02060150
03949KAQV AQV20190324095512503/24/19 09:55:31  5-MIN KAQV 241555Z AUTO VRB06KT 10SM BKN022 OVC027 21/15 A3015 160 68 1000 VRB/06 RMK AO2 SLP209 T02110150
03949KAQV AQV20190324100011803/24/19 10:00:31  5-MIN KAQV 241600Z AUTO VRB06KT 10SM BKN022 OVC028 21/15 A3015 160 68 1000 VRB/06 RMK AO2 T02110150
03949KAQV AQV20190324100513403/24/19 10:05:31  5-MIN KAQV 241605Z AUTO VRB06KT 10SM BKN022 OVC028 21/15 A3015 160 70 900 VRB/06 RMK A1500 170/05 RMK AO2 T02500150
03949KAQV AQV20190324141512503/24/19 14:15:31  5-MIN KAQV 242015Z AUTO VRB05KT 10SM FEW037 BKN046 OVC075 25/15 A3006 240 53 1500 VRB/05 RMK AO2 T02500150
03949KAQV AQV20190324142012503/24/19 14:20:31  5-MIN KAQV 242020Z AUTO 20006KT 10SM FEW043 SCT050 BKN075 25/14 A3006 240 51 1500 200/06 RMK AO2 T02500144
03949KAQV AQV20190324142512503/24/19 14:25:31  5-MIN KAQV 242025Z AUTO VRB05KT 10SM SCT045 BKN050 BKN075 24/14 A3006 240 53 1400 VRB/05 RMK AO2 T02440144
03949KAQV AQV20190324143012503/24/19 14:30:31  5-MIN KAQV 242030Z AUTO VRB03KT 10SM SCT045 SCT055 BKN075 26/15 A3006 250 50 1600 VRB/03 RMK AO2 T02610150
03949KAQV AQV20190324143512503/24/19 14:35:31  5-MIN KAQV 242035Z AUTO VRB05KT 10SM SCT043 SCT050 BKN075 25/14 A3006 250 51 1500 VRB/05 RMK AO2 T02500144
03949KAQV AQV20190324144012503/24/19 14:40:31  5-MIN KAQV 242040Z AUTO VRB04KT 10SM BKN043 BKN050 BKN075 25/15 A3006 250 53 1500 VRB/04 RMK AO2 T02500150
03949KAQV AQV20190324144512503/24/19 14:45:31  5-MIN KAQV 242045Z AUTO VRB05KT 10SM BKN043 BKN050 BKN070 25/15 A3006 250 53 1500 VRB/05 RMK AO2 T02500150
03949KAQV AQV20190324145013803/24/19 14:50:31  5-MIN KAQV 242050Z AUTO 18006KT 10SM BKN043 BKN050 OVC070 25/15 A3006 250 53 1500 170/06 RMK AO2 SLP178 T02500150 58006
03949KAQV AQV20190324145513103/24/19 14:55:31  5-MIN KAQV 242055Z AUTO VRB05KT 10SM BKN046 BKN075 24/14 A3006 250 53 1400 VRB/05 RMK AO2 SLP177 T02440144 58006
03949KAQV AQV20190324150011803/24/19 15:00:31  5-MIN KAQV 242100Z AUTO 19005KT 10SM BKN042 OVC049 24/15 A3006 250 55 1400 180/05 RMK AO2 T02440150
03949KAQV AQV20190324150512503/24/19 15:05:31  5-MIN KAQV 242105Z AUTO 17005KT 10SM BKN040 BKN049 OVC055 25/15 A3005 250 53 1500 170/05 RMK AO2 T02500150
03949KAQV AQV20190324151011803/24/19 15:10:31  5-MIN KAQV 242110Z AUTO 17006KT 10SM BKN040 OVC055 25/15 A3005 250 53 1500 170/06 RMK AO2 T02500150
03949KAQV AQV20190324151511803/24/19 15:15:31  5-MIN KAQV 242115Z AUTO VRB04KT 10SM BKN040 OVC050 26/15 A3005 260 51 1600 VRB/04 RMK AO2 T02560150
03949KAQV AQV20190324152012503/24/19 15:20:31  5-MIN KAQV 242120Z AUTO VRB06KT 10SM BKN040 BKN048 BKN055 26/15 A3005 260 51 1600 VRB/06 RMK AO2 T02560150
03949KAQV AQV20190324152511803/24/19 15:25:31  5-MIN KAQV 242125Z AUTO VRB06KT 10SM BKN040 BKN048 26/15 A3005 260 51 1600 VRB/06 RMK AO2 T02560150
03949KAQV AQV20190324153011103/24/19 15:30:31  5-MIN KAQV 242130Z AUTO 18007KT 10SM BKN040 26/15 A3005 260 51 1600 170/07 RMK AO2 T02560150
03949KAQV AQV20190324153511103/24/19 15:35:31  5-MIN KAQV 242135Z AUTO 19004KT 10SM BKN042 25/15 A3005 260 53 1500 180/04 RMK AO2 T02500150
03949KAQV AQV20190324154011803/24/19 15:40:31  5-MIN KAQV 242140Z AUTO VRB04KT 10SM BKN042 BKN070 25/15 A3005 260 53 1500 VRB/04 RMK AO2 T02500150
03949KAQV AQV20190324154512503/24/19 15:45:31  5-MIN KAQV 242145Z AUTO VRB05KT 10SM SCT040 BKN047 BKN070 25/15 A3004 260 53 1500 VRB/05 RMK AO2 T02500150
03949KAQV AQV20190324155013203/24/19 15:50:31  5-MIN KAQV 242150Z AUTO VRB05KT 10SM SCT040 BKN047 BKN070 25/15 A3004 260 53 1500 VRB/05 RMK AO2 SLP172 T02500150
03949KAQV AQV20190324155513203/24/19 15:55:31  5-MIN KAQV 242155Z AUTO VRB05KT 10SM BKN042 BKN055 BKN070 26/16 A3004 260 53 1600 VRB/05 RMK AO2 SLP171 T02560156
03949KAQV AQV20190324160012503/24/19 16:00:31  5-MIN KAQV 242200Z AUTO 19003KT 10SM BKN042 BKN055 BKN070 25/15 A3004 260 53 1500 190/03 RMK AO2 T02500150
03949KAQV AQV20190324160512503/24/19 16:05:31  5-MIN KAQV 242205Z AUTO 00000KT 10SM FEW040 BKN050 BKN070 24/15 A3004 260 55 1500 000/00 RMK AO2 T02440150
03949KAQV AQV20190324161012503/24/19 16:10:31  5-MIN KAQV 242210Z AUTO 18006KT 10SM FEW040 BKN048 BKN070 24/15 A3004 260 55 1500 180/06 RMK AO2 T02440150
03949KAQV AQV20190324161512503/24/19 16:15:31  5-MIN KAQV 242215Z AUTO VRB05KT 10SM SCT044 SCT055 BKN070 24/16 A3004 260 57 1500 VRB/05 RMK AO2 T02440156
03949KAQV AQV20190324162012503/24/19 16:20:31  5-MIN KAQV 242220Z AUTO VRB04KT 10SM FEW044 SCT055 BKN070 24/16 A3004 260 57 1500 VRB/04 RMK AO2 T02440156
03949KAQV AQV20190324162512503/24/19 16:25:31  5-MIN KAQV 242225Z AUTO VRB04KT 10SM FEW046 SCT055 BKN070 24/15 A3004 260 57 1400 VRB/04 RMK AO2 T02390150
03949KAQV AQV20190324163012503/24/19 16:30:31  5-MIN KAQV 242230Z AUTO VRB04KT 10SM SCT044 BKN055 BKN070 24/16 A3004 260 57 1500 VRB/04 RMK AO2 T02440156
03949KAQV AQV20190324163512503/24/19 16:35:31  5-MIN KAQV 242235Z AUTO 18006KT 10SM FEW042 SCT055 BKN070 24/16 A3004 260 59 1400 170/06 RMK AO2 T02390156
03949KAQV AQV20190324164008103/24/19 16:40:31  5-MIN KAQV 242240Z AUTO 19005KT 10SM FEW04AO2 SLP179 T01780161
03949KAQV AQV20190324230010703/24/19 23:00:31  5-MIN KAQV 250500Z AUTO 18005KT 10SM CLR 17/16 A3006 240 93 600 180/05 RMK AO2 T01720161
03949KAQV AQV20190324230515003/24/19 23:05:31  5-MIN KAQV 250505Z AUTO 18004KT 10SM CLR 17/16 A3006 240 93 600 188003KT 9SM BKN008 18/16 A3006 250 90 700 180/03 RMK AO2 T01780161
03949KAQV AQV20190324233510903/24/19 23:35:31  5-MIN KAQV 250535Z AUTO 19004KT 9SM BKN008 18/17 A3006 250 93 700 180/04 RMK AO2 T01780167
03949KAQV AQV20190324234015503/24/19 23:40:31  5-MIN KAQV 250540Z AUTO 18003KT 9SM BKN006 18/17 A3006 250 93 7Z AUTO 18006KT 9SM OVC006 18/17 A3006 250 93 700 180/06 RMK AO2 T01780167
03949KAQV AQV20190324234016903/24/19 23:40:31  5-MIN KAQV 250540Z AUTO 18003KT 9SM BKN006 183/24/19 23:20:31  5-MIN KAQV 250520Z AUTO 18004KT 9SM CLR 17/16 A3006 250 93 600 170/04 RMK AO2 T01720161
03949KAQV AQV20190324235015603/24/19 23:50:31  5-MIN KAQV 250550Z AUTO VRB05KT 9SM OVC006 18/17 A3006 250 93 700 VRB/05 RMK AO2 CIG 005V009 SLP178 T01780167 10228 20167 402610128 53006
03949KAQV AQV20190324235508603/24/19 23:55:31  5-MIN KAQV 250555Z AUTO 19004KT 9SM OVC000 180/05 RMK AO2 T01830167
03949KAQV AQV20190324235509603/24/19 23:55:31  5-MIN KAQV 250555Z AUTOBKN008 18/17 A3006 250 93 700 180/04 RMK AO2 T01780167
03949KAQV AQV20190325000510903/25/19 00:05:31  5-MIN KAQV 250605Z AUTO VRB04KT 9SM OVC006 18/17 A3006 250 90 700 VRB/04 RMK AO2 T01830167
03949KAQV AQV20190325001010903/25/19 00:10:31  5-MIN KAQV 250610Z AUTO 19006KT 9SM OVC006 18/17 A3005 260 93 700 VRB/05 RMK AO2 T01830172
03949KAQV AQV20190325001013203/25/19 00:10:31  5-MIN KAQV 250610Z AUTO 19006KT 9SM OVC006 18/17 A3005 2 CIG 005V009 SLP178 T01780167 10228 20167 402610128 53006
03949KAQV AQV20190325002011003/25/19 00:20:31  5-MIN KAQV 250620Z AUTO VRB06KT 10SM OVC006 18/17 A3005 250 90 700 VRB/06 RMK AO2 T01830167
03949KAQV AQV20190325002511003/25/19 00:25:31  5-MIN KAQV 250625Z AUTO VRB05KT 10SM OVC006 18/17 A3005 250 90 700 VRB/05 RMK AO2 T01830167
03949KAQV AQV20190325003005603/25/19 00:30:31  5-MIN KAQV 250630Z4 RMK AO2 T01830167
03949KAQV AQV20190325004011003/25/19 00:40:31  5-MIN KAQV 250640Z AUTO 20005KT 10SM OVC007 18/17 A3005 260 93 800 190/05 RMK AO2 T01830172
03949KAQV AQV20190325004508103/25/19 00:45:31  5-MIN KAQV 250645Z AUTO VRB05KT 10SM OVC007 19/17 A3004 890172
03949KAQV AQV20190325004522703/25/19 00:45:31  5-MIN KAQV 250645Z AUTO VRB05KT 10SM OVC007 19/17 A3004 260 90 800 VRB/05 RTO VRB05KT 10SM OVC006 18/17 A3005 250 90 700 VRB/05 RMK AO2 T0183016703/25/19 00:30:31  5-M60 90 800 190/04 RMK AO2 SLP170 T01890172
03949KAQV AQV20190325005511703/25/19 00:55:31  5-MIN KAQV 250655Z AUTO 19005KT 10SM OVC008 19/17 A3004 270 90 800 180/05 RMK AO2 SLP169 T01890172
03949KAQV AQV20190325010011003/25/19 01:00:31  5-MIN KAQV 250700Z AUTO VRB05KT 10SM OVC008 19/17 A3004 270 90 800 VRB/05 RMK AO2 T01890172
03949KAQV AQV20190325011012203/25/19 01:10:31  5-MIN KAQV 250710Z AUTO VRB04KT 10SM OVC008 19/17 A3003 270 90 800 VRB/04 RMK AO2 CIG 007V012 T01890172
03949KAQV AQV20190325011512203/25/19 01:15:31  5-MIN KAQV 250715Z AUTO VRB03KT 10SM OVC008 19/17 A3003 270 90 800 VRB/03 RMK AO2 CIG 007V013 T01890172
03949KAQV AQV20190325012012203/25/19 01:20:31  5-MIN KAQV 250720Z AUTO VRB04KT 10SM OVC010 19/17 A3003 270 90 800 VRB/04 RMK AO2 CIG 008V013 T01890172
03949KAQV AQV20190325012017703/25/19 01:20:31  5-MIN KAQV 250720Z AUTO VRB04KT 10700Z AUTO VRB05KT 10SM OVC008 19/17 A3004 270 90 800 VRB/05 RMK AO2 T01890172280 90 800 180/06 RMK AO2 CIG 008V013 T01890172
03949KAQV AQV20190325012512203/25/19 01:25:31  5-MIN KAQV 250725Z AUTO 19006KT 10SM OVC010 19/17 A3003 280 90 800 180/06 RMK AO2 CIG 008V013 T01890172
03949KAQV AQV20190325013011003/25/19 01:30:31  5-MIN KAQV 250730Z AUTO VRB04KT 10SM OVC010 19/17 A3003 270 90 800 VRB/04 RMK AO2 T01890172
03949KAQV AQV20190325013507003/25/19 01:35:31  5-MIN KAQV 250735Z AUTO VRBRMK AO2 SLP165 T01890172
03949KAQV AQV20190325013511003/25/19 01:35:31  5-MIN KAQV 250735Z AUTO VRB04KT 10SM OVC010 19/17 A3003 270 90 800 VRB/04 RMK AO2 T01890172
03949KAQV AQV20190325013522003/25/19 01:35:31  5-MIN KAQV 250735Z AUTO VRB04KT 10SM OVC010 19/17 A3003 270 90 800 VRB/04 RMK 0 90 800 VRB/03 RMK AO2 CIG 007V013 T0189017203/25/19 01:20:31  10SM OVC011 19/17 A3003 280 90 800 VRB/03 RMK AO2 T01890172
03949KAQV AQV20190325014011003/25/19 01:40:31  5-MIN KAQV 250740Z AUTO VRB03KT 10SM OVC011 19/17 A3003 280 90 800 VRB/03 RMK AO2 T01890172
03949KAQV AQV20190325014511003/25/19 01:45:31  5-MIN KAQV 250745Z AUTO VRB04KT 10SM OVC011 19/17 A3003 280 90 800 VRB/04 RMK AO2 T01890172
03949KAQV AQV20190325015011703/25/19 01:50:31  5-MIN KAQV 250750Z AUTO VRB06KT 10SM OVC011 19/17 A3003 280 90 800 VRB/06 RMK AO2 SLP165 T01890172
03949KAQV AQV20190325015504703/25/19 01:55:31  5-MIN KAQV 250755Z AU1890172
03949KAQV AQV20190325015511703/25/19 01:55:31  5-MIN KAQV 250755Z AUTO VRB04KT 10SM OVC010 19/17 A3003 280 90 800 VRB/04 RMK AO2 SLP165 T01890172
03949KAQV AQV20190325020011003/25/19 02:00:31  5-MIN KAQV 250800Z AUTO VRB03KT 10SM OVC010 19/17 A3003 280 90 800 VRB/03 RMK AO2 T01890172
03949KAQV AQV20190325020511003/25/19 02:05:31  5-MIN KAQV 250805Z AUTO VRB04KT 10SM OVC010 19/17 A3003 280 90 800 VRB/04 RMK AO2 T01890172
03949KAQV AQV20190325021012203/25/19 02:10:31  5-MIN KAQV 250810Z AUTO 20006KT 10SM OVC010 19/17 A3003 280 90 800 200/06 RMK AO2 CIG 009V015 T01890172
03949KAQV AQV20190325021016403/25/19 02:10:31  5-MIN KAQV 250810Z AUTO 20006KT 10SM OVC010 19/17 A3003 280 90 800 200/06 RMK AO2 CIG 017 A3003 280 90 800 VRB/06 RMK APLETE, 144 5MIN(S) LISTED.
03949KAQV AQV20190325021511003/25/19 02:15:31  5-MIN KAQV 250815Z AUTO VRB03KT 10SM OVC010 19/17 A3003 270 90 800 VRB/03 RMK AO2 T01890172
03949KAQV AQV20190325022012203/25/19 02:20:31  5-MIN KAQV 250820Z AUTO VRB05KT 10SM OVC010 19/17 A3004 270 87 900 VRB/05 RMK AO2 CIG 009V014 T01940172
03949KAQV AQV20190325022512203/25/19 02:25:31  5-MIN KAQV 250825Z AUTO VRB04KT 10SM OVC010 19/17 A3004 270 87 900 VRB/04 RMK AO2 CIG 009V013 T01940172
03949KAQV AQV20190325023012203/25/19 02:30:31  5-MIN KAQV 250830Z AUTO VRB05KT 10SM OVC010 19/17 A3003 270 87 900 VRB/05 RMK AO2 CIG 009V015 T01940172
03949KAQV AQV20190325023512203/25/19 02:35:31  5-MIN KAQV 250835Z AUTO VRB03KT 10SM OVC010 19/17 A3003 270 90 800 VRB/03 RMK AO2 CIG 009V015 T01890172
03949KAQV AQV20190325024012203/25/19 02:40:31  5-MIN KAQV 250840Z AUTO 22003KT 10SM OVC010 19/17 A3003 270 87 900 220/03 RMK AO2 CIG 009V015 T01940172
03949KAQV AQV20190325024511003/25/19 02:45:31  5-MIN KAQV 250845Z AUTO 00000KT 10SM OVC010 19/17 A3003 280 90 800 000/00 RMK AO2 T01890172
03949KAQV AQV20190325025013503/25/19 02:50:31  5-MIN KAQV 250850Z AUTO VRB05KT 10SM OVC010 19/17 A3003 280 90 800 VRB/05 RMK AO2 CIG 008V013 SLP166 T01890172 50001
03949KAQV AQV20190325025512303/25/19 02:55:31  5-MIN KAQV 250855Z AUTO 00000KT 10SM OVC010 19/17 A3004 270 90 800 000/00 RMK AO2 SLP168 T01890172 50001
03949KAQV AQV20190325030011003/25/19 03:00:31  5-MIN KAQV 250900Z AUTO 00000KT 10SM OVC012 19/17 A3003 270 90 800 000/00 RMK AO2 T01890172
03949KAQV AQV20190325030511003/25/19 03:05:31  5-MIN KAQV 250905Z AUTO 21003KT 10SM OVC012 19/17 A3003 270 90 800 210/03 RMK AO2 T01890172
03949KAQV AQV20190325031011003/25/19 03:10:31  5-MIN KAQV 250910Z AUTO VRB03KT 10SM OVC012 19/17 A3003 270 90 800 VRB/03 RMK AO2 T01890172
03949KAQV AQV20190325031511003/25/19 03:15:31  5-MIN KAQV 250915Z AUTO 19004KT 10SM OVC011 19/17 A3002 280 90 800 190/04 RMK AO2 T01890172
03949KAQV AQV20190325032010903/25/19 03:20:31  5-MIN KAQV 250920Z AUTO VRB04KT 9SM OVC011 19/17 A3002 290 90 800 VRB/04 RMK AO2 T01890172
03949KAQV AQV20190325032510903/25/19 03:25:31  5-MIN KAQV 250925Z AUTO 20004KT 9SM OVC011 19/17 A3002 290 90 800 200/04 RMK AO2 T01890172
03949KAQV AQV20190325033010903/25/19 03:30:31  5-MIN KAQV 250930Z AUTO VRB04KT 9SM OVC012 19/17 A3002 290 90 800 VRB/04 RMK AO2 T01890172
03949KAQV AQV20190325033510903/25/19 03:35:31  5-MIN KAQV 250935Z AUTO 00000KT 9SM OVC012 19/17 A3002 280 90 800 000/00 RMK AO2 T01890172
03949KAQV AQV20190325034011603/25/19 03:40:31  5-MIN KAQV 250940Z AUTO VRB03KT 9SM BKN011 OVC017 19/17 A3002 280 90 800 VRB/03 RMK AO2 T01890172
03949KAQV AQV20190325034512803/25/19 03:45:31  5-MIN KAQV 250945Z AUTO VRB03KT 9SM BKN011 OVC017 19/17 A3002 290 90 800 VRB/03 RMK AO2 CIG 007V014 T01890172
03949KAQV AQV20190325035013503/25/19 03:50:31  5-MIN KAQV 250950Z AUTO VRB05KT 9SM BKN010 OVC017 19/17 A3002 290 90 900 VRB/05 RMK AO2 CIG 007V013 SLP161 T01890172
03949KAQV AQV20190325035513503/25/19 03:55:31  5-MIN KAQV 250955Z AUTO VRB04KT 9SM BKN008 OVC018 19/17 A3002 290 90 800 VRB/04 RMK AO2 CIG 006V013 SLP162 T01890172
03949KAQV AQV20190325040012803/25/19 04:00:31  5-MIN KAQV 251000Z AUTO VRB03KT 9SM BKN008 OVC018 19/17 A3002 280 90 800 VRB/03 RMK AO2 CIG 006V013 T01890172
03949KAQV AQV20190325040512803/25/19 04:05:31  5-MIN KAQV 251005Z AUTO 00000KT 9SM BKN008 OVC018 19/17 A3003 280 90 800 000/00 RMK AO2 CIG 006V012 T01890172
03949KAQV AQV20190325041012803/25/19 04:10:31  5-MIN KAQV 251010Z AUTO VRB03KT 9SM OVC008 19/17 A3004 270 90 800 VRB/03 RMK AO2 CIG 006V011 PRESRR T01890172
03949KAQV AQV20190325041511603/25/19 04:15:31  5-MIN KAQV 251015Z AUTO 00000KT 9SM OVC008 19/17 A3004 260 90 800 000/00 RMK AO2 PRESRR T01890172
03949KAQV AQV20190325042011003/25/19 04:20:31  5-MIN KAQV 251020Z AUTO VRB05KT 10SM OVC007 19/17 A3005 260 90 800 VRB/05 RMK AO2 T01890172
03949KAQV AQV20190325042511003/25/19 04:25:31  5-MIN KAQV 251025Z AUTO 27004KT 10SM OVC007 19/17 A3005 260 90 800 270/04 RMK AO2 T01890172
03949KAQV AQV20190325043011003/25/19 04:30:31  5-MIN KAQV 251030Z AUTO 00000KT 10SM OVC007 19/17 A3005 260 90 800 000/00 RMK AO2 T01890172
03949KAQV AQV20190325043512203/25/19 04:35:31  5-MIN KAQV 251035Z AUTO 00000KT 10SM OVC008 19/17 A3005 250 87 900 000/00 RMK AO2 CIG 006V011 T01940172
03949KAQV AQV20190325044011003/25/19 04:40:31  5-MIN KAQV 251040Z AUTO 00000KT 10SM OVC008 19/17 A3006 250 87 900 000/00 RMK AO2 T01940172
03949KAQV AQV20190325044512203/25/19 04:45:31  5-MIN KAQV 251045Z AUTO 00000KT 10SM OVC008 19/17 A3006 250 87 900 000/00 RMK AO2 CIG 007V011 T01940172
03949KAQV AQV20190325045012903/25/19 04:50:31  5-MIN KAQV 251050Z AUTO 00000KT 10SM OVC008 19/17 A3006 250 87 900 000/00 RMK AO2 CIG 007V013 SLP177 T01940172
03949KAQV AQV20190325045512903/25/19 04:55:31  5-MIN KAQV 251055Z AUTO 00000KT 10SM OVC009 19/17 A3006 250 87 900 000/00 RMK AO2 CIG 008V013 SLP177 T01940172
03949KAQV AQV20190325050012103/25/19 05:00:31  5-MIN KAQV 251100Z AUTO VRB03KT 7SM OVC009 19/17 A3006 250 90 800 VRB/03 RMK AO2 CIG 008V013 T01890172
03949KAQV AQV20190325050512803/25/19 05:05:31  5-MIN KAQV 251105Z AUTO VRB04KT 7SM BKN011 OVC022 19/17 A3006 250 90 800 VRB/04 RMK AO2 CIG 008V013 T01890172
03949KAQV AQV20190325051012903/25/19 05:10:31  5-MIN KAQV 251110Z AUTO VRB03KT 10SM BKN011 OVC022 19/17 A3006 250 87 900 VRB/03 RMK AO2 CIG 008V013 T01940172
03949KAQV AQV20190325051512903/25/19 05:15:31  5-MIN KAQV 251115Z AUTO 00000KT 10SM BKN010 OVC025 19/17 A3007 240 87 900 000/00 RMK AO2 CIG 009V013 T01940172
03949KAQV AQV20190325052014303/25/19 05:20:31  5-MIN KAQV 251120Z AUTO 34005KT 10SM BKN010 BKN021 OVC025 19/17 A3008 230 90 800 340/05 RMK AO2 CIG 008V013 PRESRR T01890172
03949KAQV AQV20190325052515303/25/19 05:25:31  5-MIN KAQV 251125Z AUTO 35010G17KT 280V020 10SM SCT010 BKN021 OVC043 19/17 A3009 220 87 800 340/10G17 280V020 RMK AO2 PRESRR T01890167
03949KAQV AQV20190325053014503/25/19 05:30:31  5-MIN KAQV 251130Z AUTO 36010G20KT 9SM -RA FEW010 BKN026 OVC047 18/14 A3009 220 78 700 360/10G20 RMK AO2 RAB27 P0001 T01830144
03949KAQV AQV20190325053515203/25/19 05:35:31  5-MIN KAQV 251135Z AUTO VRB05G20KT 6SM TSRA FEW009 BKN046 OVC055 17/14 A3009 220 83 600 VRB/05G20 RMK AO2 RAB27 TSB34 P0002 T01720144
03949KAQV AQV20190325054015503/25/19 05:40:31  5-MIN KAQV 251140Z AUTO 34006G18KT 4SM TSRA BR FEW009 BKN048 OVC060 17/14 A3009 220 86 500 340/06G18 RMK AO2 RAB27 TSB34 P0005 T01670144
03949KAQV AQV20190325054515003/25/19 05:45:31  5-MIN KAQV 251145Z AUTO VRB04KT 2SM +TSRA BR FEW009 BKN038 OVC060 16/14 A3009 220 90 400 VRB/04 RMK AO2 RAB27 TSB34 P0011 T01610144
03949KAQV AQV20190325055019103/25/19 05:50:31  5-MIN KAQV 251150Z AUTO VRB04KT 1 1/2SM +TSRA BR BKN038 BKN047 OVC060 16/14 A3008 230 93 400 VRB/04 RMK AO2 RAB27 TSB34 SLP186 P0016 60016 70016 T01560144 10194 20156 55007
03949KAQV AQV20190325055519103/25/19 05:55:31  5-MIN KAQV 251155Z AUTO VRB03KT 1 1/4SM +TSRA BR BKN038 BKN047 OVC060 16/14 A3008 230 93 400 VRB/03 RMK AO2 RAB27 TSB34 SLP186 P0024 60024 70024 T01560144 10194 20156 55007
03949KAQV AQV20190325060013103/25/19 06:00:31  5-MIN KAQV 251200Z AUTO 00000KT 1SM +TSRA BR BKN040 OVC060 16/14 A3008 230 93 400 000/00 RMK AO2 P0004 T01560144
03949KAQV AQV20190325060513403/25/19 06:05:31  5-MIN KAQV 251205Z AUTO 00000KT 1 3/4SM TSRA BR BKN042 OVC070 16/14 A3008 230 93 400 000/00 RMK AO2 P0006 T01560144
03949KAQV AQV20190325061013103/25/19 06:10:31  5-MIN KAQV 251210Z AUTO 00000KT 3SM -TSRA BR BKN042 OVC075 16/15 A3008 230 96 400 000/00 RMK AO2 P0006 T01560150
03949KAQV AQV20190325061513103/25/19 06:15:31  5-MIN KAQV 251215Z AUTO 00000KT 5SM -TSRA BR SCT042 OVC080 16/15 A3008 230 96 400 000/00 RMK AO2 P0007 T01560150
03949KAQV AQV20190325062013003/25/19 06:20:31  5-MIN KAQV 251220Z AUTO 17003KT 5SM TSRA BR SCT042 OVC080 16/15 A3008 230 96 400 170/03 RMK AO2 P0008 T01560150
03949KAQV AQV20190325062513403/25/19 06:25:31  5-MIN KAQV 251225Z AUTO 18005KT 4SM RA BR FEW047 OVC090 16/15 A3007 240 96 400 170/05 RMK AO2 TSE21 P0010 T01560150
03949KAQV AQV20190325063013203/25/19 06:30:31  5-MIN KAQV 251230Z AUTO 00000KT 4SM TSRA BR OVC090 16/15 A3007 240 96 400 000/00 RMK AO2 TSE21B27 P0011 T01560150
03949KAQV AQV20190325063513903/25/19 06:35:31  5-MIN KAQV 251235Z AUTO 00000KT 4SM TSRA BR BKN080 OVC095 16/15 A3007 240 96 400 000/00 RMK AO2 TSE21B27 P0012 T01560150
03949KAQV AQV20190325064013903/25/19 06:40:31  5-MIN KAQV 251240Z AUTO 00000KT 4SM TSRA BR BKN080 OVC095 16/15 A3007 240 96 400 000/00 RMK AO2 TSE21B27 P0014 T01560150
03949KAQV AQV20190325064513203/25/19 06:45:31  5-MIN KAQV 251245Z AUTO 18003KT 3SM TSRA BR OVC090 16/15 A3006 240 96 400 170/03 RMK AO2 TSE21B27 P0015 T01560150
03949KAQV AQV20190325065013303/25/19 06:50:31  5-MIN KAQV 251250Z AUTO 00000KT 2 1/2SM TSRA BR SCT080 OVC100 16/15 A3007 240 96 400 000/00 RMK AO2 TSE21B27 P0016
03949KAQV AQV20190325065514703/25/19 06:55:31  5-MIN KAQV 251255Z AUTO 18004KT 3SM -TSRA BR SCT080 OVC095 16/15 A3006 250 96 400 170/04 RMK AO2 TSE21B27 SLP176 P0017 T01560150
03949KAQV AQV20190325070013103/25/19 07:00:31  5-MIN KAQV 251300Z AUTO VRB03KT 5SM -TSRA BR FEW075 OVC095 16/15 A3005 260 96 400 VRB/03 RMK AO2 P0000 T01560150
03949KAQV AQV20190325070512803/25/19 07:05:31  5-MIN KAQV 251305Z AUTO 00000KT 7SM -TSRA BKN090 OVC110 16/15 A3006 250 96 400 000/00 RMK AO2 P0000 T01560150
03949KAQV AQV20190325071013103/25/19 07:10:31  5-MIN KAQV 251310Z AUTO 00000KT 9SM TS BKN090 OVC110 16/15 A3005 250 96 400 000/00 RMK AO2 RAE07 P0000 T01560150
03949KAQV AQV20190325071512403/25/19 07:15:31  5-MIN KAQV 251315Z AUTO 00000KT 9SM TS OVC095 16/15 A3006 250 96 400 000/00 RMK AO2 RAE07 P0000 T01560150
03949KAQV AQV20190325072013103/25/19 07:20:31  5-MIN KAQV 251320Z AUTO VRB03KT 8SM TS BKN100 OVC120 16/15 A3005 250 93 500 VRB/03 RMK AO2 RAE07 P0000 T01610150
03949KAQV AQV20190325072513403/25/19 07:25:31  5-MIN KAQV 251325Z AUTO 17003KT 9SM FEW090 BKN110 16/16 A3006 250 96 500 160/03 RMK AO2 RAE07 TSE21 P0000 T01610156
03949KAQV AQV20190325073013503/25/19 07:30:31  5-MIN KAQV 251330Z AUTO VRB03KT 10SM FEW080 BKN110 16/16 A3006 250 96 500 VRB/03 RMK AO2 RAE07 TSE21 P0000 T01610156
03949KAQV AQV20190325073517103/25/19 07:35:31  5-MIN KAQV 251335Z AUTO 00000KT 10SM SCT110 17/16 A3006 250 93 500 000/00 RMK AO2 RAE07 TSE21 P0000 T01670156 A3006 240 61 1500 270/05 RMK AO2 T02500172
03949KAQV AQV20190325121511103/25/19 12:15:31  5-MIN KAQV 251815Z AUTO VRB04KT 10SM SCT027 24/17 A3008 230 61 1400 VRB/04 RMK AO2 T02440167
03949KAQV AQV20190325122010103/25/19 12:20:31  5-MIN KAQV 251820Z AUTO 10SM BKN027 24/17 A3008 230 63 1400 M /M RMK AO2 T02440172
03949KAQV AQV20190325122511103/25/19 12:25:31  5-MIN KAQV 251825Z AUTO VRB06KT 10SM BKN027 25/17 A3008 230 59 1500 VRB/06 RMK AO2 T02500167
03949KAQV AQV20190325123012503/25/19 12:30:31  5-MIN KAQV 251830Z AUTO 00000KT 10SM BKN027 BKN043 BKN075 25/17 A3008 230 61 1500 000/00 RMK AO2 T02500172
03949KAQV AQV20190325123511503/25/19 12:35:31  5-MIN KAQV 251835Z AUTO 10SM SCT027 BKN041 BKN065 24/17 A3008 230 61 1400 M /M RMK AO2 T02440167
03949KAQV AQV20190325124012503/25/19 12:40:31  5-MIN KAQV 251840Z AUTO VRB05KT 10SM SCT027 BKN039 BKN065 24/17 A3007 230 63 1400 VRB/05 RMK AO2 T02440172
03949KAQV AQV20190325124512503/25/19 12:45:31  5-MIN KAQV 251845Z AUTO 34005KT 10SM FEW027 SCT039 BKN060 24/17 A3007 240 61 1400 340/05 RMK AO2 T02440167
03949KAQV AQV20190325125013203/25/19 12:50:31  5-MIN KAQV 251850Z AUTO VRB06KT 10SM FEW029 BKN060 OVC075 24/17 A3007 240 63 1400 VRB/06 RMK AO2 SLP180 T02390167
03949KAQV AQV20190325125513203/25/19 12:55:31  5-MIN KAQV 251855Z AUTO VRB05KT 10SM FEW031 BKN060 BKN075 25/17 A3007 240 59 1500 VRB/05 RMK AO2 SLP179 T02500167
03949KAQV AQV20190325130014103/25/19 13:00:31  5-MIN KAQV 251900Z AUTO 26007KT 220V300 10SM FEW029 BKN060 BKN075 25/17 A3007 240 59 1500 260/07 220V300 RMK AO2 T02500167
03949KAQV AQV20190325130512503/25/19 13:05:31  5-MIN KAQV 251905Z AUTO VRB04KT 10SM FEW029 BKN060 BKN075 25/17 A3007 240 59 1500 VRB/04 RMK AO2 T02500167
03949KAQV AQV20190325131011803/25/19 13:10:31  5-MIN KAQV 251910Z AUTO 28005KT 10SM SCT029 BKN060 25/17 A3006 240 61 1500 270/05 RMK AO2 T02500172
03949KAQV AQV20190325131511803/25/19 13:15:31  5-MIN KAQV 251915Z AUTO VRB03KT 10SM SCT029 BKN060 26/17 A3006 240 57 1600 VRB/03 RMK AO2 T02560167
03949KAQV AQV20190325132012503/25/19 13:20:31  5-MIN KAQV 251920Z AUTO VRB04KT 10SM SCT029 SCT038 BKN060 26/16 A3006 250 55 1600 VRB/04 RMK AO2 T02560161
03949KAQV AQV20190325132512503/25/19 13:25:31  5-MIN KAQV 251925Z AUTO VRB04KT 10SM SCT029 SCT038 BKN060 25/16 A3006 250 57 1500 VRB/04 RMK AO2 T02500161
03949KAQV AQV20190325133011803/25/19 13:30:31  5-MIN KAQV 251930Z AUTO VRB06KT 10SM BKN032 BKN060 26/16 A3006 250 55 1600 VRB/06 RMK AO2 T02560161
03949KAQV AQV20190325133512503/25/19 13:35:31  5-MIN KAQV 251935Z AUTO VRB05KT 10SM FEW029 SCT035 BKN060 26/16 A3006 250 53 1600 VRB/05 RMK AO2 T02610161
03949KAQV AQV20190325134013403/25/19 13:40:31  5-MIN KAQV 251940Z AUTO 30008KT 260V340 10SM FEW030 SCT041 26/16 A3006 250 53 1600 290/08 260V340 RMK AO2 T02610161
03949KAQV AQV20190325134511803/25/19 13:45:31  5-MIN KAQV 251945Z AUTO VRB04KT 10SM FEW032 SCT041 25/16 A3006 250 55 1500 VRB/04 RMK AO2 T02500156
03949KAQV AQV20190325135012503/25/19 13:50:31  5-MIN KAQV 251950Z AUTO VRB06KT 10SM FEW032 FEW042 26/16 A3006 250 51 1600 VRB/06 RMK AO2 SLP175 T02610156
03949KAQV AQV20190325135512503/25/19 13:55:31  5-MIN KAQV 251955Z AUTO 27005KT 10SM FEW032 SCT042 25/16 A3005 250 55 1500 270/05 RMK AO2 SLP174 T02500156
03949KAQV AQV20190325140011103/25/19 14:00:31  5-MIN KAQV 252000Z AUTO VRB05KT 10SM FEW040 25/15 A3005 250 53 1500 VRB/05 RMK AO2 T02500150
03949KAQV AQV20190325140511103/25/19 14:05:31  5-MIN KAQV 252005Z AUTO VRB05KT 10SM FEW042 26/14 A3005 250 48 1600 VRB/05 RMK AO2 T02610144
03949KAQV AQV20190325141011103/25/19 14:10:31  5-MIN KAQV 252010Z AUTO VRB04KT 10SM FEW042 26/14 A3005 260 48 1600 VRB/04 RMK AO2 T02610144
03949KAQV AQV20190325141510103/25/19 14:15:31  5-MIN KAQV 252015Z AUTO 10SM FEW042 26/14 A3005 260 48 1600 M /M RMK AO2 T02610144
03949KAQV AQV20190325142011103/25/19 14:20:31  5-MIN KAQV 252020Z AUTO VRB06KT 10SM FEW040 27/14 A3005 260 46 1700 VRB/06 RMK AO2 T02670144
03949KAQV AQV20190325142510803/25/19 14:25:31  5-MIN KAQV 252025Z AUTO VRB03KT 10SM CLR 27/14 A3005 260 46 1700 VRB/03 RMK AO2 T02670144
03949KAQV AQV20190325143011103/25/19 14:30:31  5-MIN KAQV 252030Z AUTO VRB03KT 10SM SCT044 27/15 A3005 260 48 1700 VRB/03 RMK AO2 T02670150
03949KAQV AQV20190325143511103/25/19 14:35:31  5-MIN KAQV 252035Z AUTO VRB04KT 10SM BKN042 27/15 A3005 260 46 1800 VRB/04 RMK AO2 T02720150
03949KAQV AQV20190325144011103/25/19 14:40:31  5-MIN KAQV 252040Z AUTO VRB06KT 10SM BKN042 27/15 A3004 260 48 1700 VRB/06 RMK AO2 T02670150
03949KAQV AQV20190325144511103/25/19 14:45:31  5-MIN KAQV 252045Z AUTO VRB04KT 10SM BKN044 27/14 A3004 260 46 1700 VRB/04 RMK AO2 T02670144
03949KAQV AQV20190325145012403/25/19 14:50:31  5-MIN KAQV 252050Z AUTO VRB05KT 10SM SCT044 26/14 A3004 260 48 1600 VRB/05 RMK AO2 SLP171 T02610144 56003
03949KAQV AQV20190325145512403/25/19 14:55:31  5-MIN KAQV 252055Z AUTO VRB05KT 10SM SCT044 27/14 A3004 260 46 1700 VRB/05 RMK AO2 SLP170 T02670144 56003
03949KAQV AQV20190325150011103/25/19 15:00:31  5-MIN KAQV 252100Z AUTO 31006KT 10SM SCT044 27/14 A3004 260 46 1700 310/06 RMK AO2 T02670144
03949KAQV AQV20190325150511103/25/19 15:05:31  5-MIN KAQV 252105Z AUTO VRB03KT 10SM FEW043 26/14 A3004 260 48 1600 VRB/03 RMK AO2 T02560139
03949KAQV AQV20190325151010803/25/19 15:10:31  5-MIN KAQV 252110Z AUTO 00000KT 10SM CLR 27/14 A3004 270 45 1700 000/00 RMK AO2 T02670139
03949KAQV AQV20190325151511103/25/19 15:15:31  5-MIN KAQV 252115Z AUTO VRB06KT 10SM FEW047 27/13 A3004 270 43 1700 VRB/06 RMK AO2 T02670133
03949KAQV AQV20190325152011103/25/19 15:20:31  5-MIN KAQV 252120Z AUTO VRB06KT 10SM FEW049 26/12 A3004 270 41 1700 VRB/06 RMK AO2 T02610122
03949KAQV AQV20190325152511103/25/19 15:25:31  5-MIN KAQV 252125Z AUTO 28007KT 10SM FEW049 26/13 A3004 270 43 1700 280/07 RMK AO2 T02610128
03949KAQV AQV20190325153011103/25/19 15:30:31  5-MIN KAQV 252130Z AUTO VRB05KT 10SM FEW050 26/12 A3004 270 41 1700 VRB/05 RMK AO2 T02610122
03949KAQV AQV20190325153511103/25/19 15:35:31  5-MIN KAQV 252135Z AUTO 00000KT 10SM FEW050 27/13 A3004 270 41 1700 000/00 RMK AO2 T02670128
03949KAQV AQV20190325154011103/25/19 15:40:31  5-MIN KAQV 252140Z AUTO VRB03KT 10SM FEW050 27/12 A3004 270 40 1700 VRB/03 RMK AO2 T02670122
03949KAQV AQV20190325154511103/25/19 15:45:31  5-MIN KAQV 252145Z AUTO 36004KT 10SM FEW055 27/12 A3004 270 40 1700 360/04 RMK AO2 T02670122
03949KAQV AQV20190325155011503/25/19 15:50:31  5-MIN KAQV 252150Z AUTO VRB06KT 10SM CLR 27/12 A3003 270 40 1700 VRB/06 RMK AO2 SLP168 T02670122
03949KAQV AQV20190325155510503/25/19 15:55:31  5-MIN KAQV 252155Z AUTO 10SM CLR 27/11 A3003 270 37 1700 M /M RMK AO2 SLP167 T02670111
03949KAQV AQV20190325160010803/25/19 16:00:31  5-MIN KAQV 252200Z AUTO VRB06KT 10SM CLR 27/11 A3003 270 36 1700 VRB/06 RMK AO2 T02670106
03949KAQV AQV20190325160510803/25/19 16:05:31  5-MIN KAQV 252205Z AUTO VRB03KT 10SM CLR 27/11 A3003 270 37 1700 VRB/03 RMK AO2 T02670111
03949KAQV AQV20190325161010803/25/19 16:10:31  5-MIN KAQV 252210Z AUTO VRB06KT 10SM CLR 27/11 A3004 270 37 1700 VRB/06 RMK AO2 T02670111
03949KAQV AQV20190325161510803/25/19 16:15:31  5-MIN KAQV 252215Z AUTO 35006KT 10SM CLR 26/11 A3004 270 37 1700 350/06 RMK AO2 T02610106
03949KAQV AQV20190325162010803/25/19 16:20:31  5-MIN KAQV 252220Z AUTO 36007KT 10SM CLR 27/11 A3004 270 37 1700 360/07 RMK AO2 T02670111
03949KAQV AQV20190325162510803/25/19 16:25:31  5-MIN KAQV 252225Z AUTO VRB05KT 10SM CLR 26/12 A3004 270 40 1700 VRB/05 RMK AO2 T02610117
03949KAQV AQV20190325163011103/25/19 16:30:31  5-MIN KAQV 252230Z AUTO 36007KT 10SM FEW055 26/12 A3004 260 40 1600 360/07 RMK AO2 T02610117
03949KAQV AQV20190325163511103/25/19 16:35:31  5-MIN KAQV 252235Z AUTO VRB06KT 10SM FEW055 26/12 A3004 260 40 1600 VRB/06 RMK AO2 T02610117
03949KAQV AQV20190325164010803/25/19 16:40:31  5-MIN KAQV 252240Z AUTO 35006KT 10SM CLR 26/12 A3004 260 41 1600 350/06 RMK AO2 T02610122
03949KAQV AQV20190325164510803/25/19 16:45:31  5-MIN KAQV 252245Z AUTO 36008KT 10SM CLR 26/12 A3005 260 41 1600 350/08 RMK AO2 T02560117
03949KAQV AQV20190325165011503/25/19 16:50:31  5-MIN KAQV 252250Z AUTO VRB03KT 10SM CLR 26/12 A3005 260 41 1600 VRB/03 RMK AO2 SLP172 T02560117
03949KAQV AQV20190325165511503/25/19 16:55:31  5-MIN KAQV 252255Z AUTO 36006KT 10SM CLR 26/12 A3005 260 43 1600 350/06 RMK AO2 SLP172 T02560122
03949KAQV AQV20190325170010803/25/19 17:00:31  5-MIN KAQV 252300Z AUTO 36005KT 10SM CLR 26/12 A3005 260 43 1600 360/05 RMK AO2 T02560122
03949KAQV AQV20190325170510803/25/19 17:05:31  5-MIN KAQV 252305Z AUTO 35008KT 10SM CLR 25/12 A3005 260 44 1500 350/08 RMK AO2 T02500122
03949KAQV AQV20190325171013003/25/19 17:10:31  5-MIN KAQV 252310Z AUTO 35007G14KT 300V030 10SM CLR 25/12 A3005 260 43 1500 350/07G14 300V030 RMK AO2 T02500117
03949KAQV AQV20190325171511403/25/19 17:15:31  5-MIN KAQV 252315Z AUTO 35005G14KT 10SM CLR 24/12 A3005 260 44 1400 350/05G14 RMK AO2 T02440117
03949KAQV AQV20190325172010803/25/19 17:20:31  5-MIN KAQV 252320Z AUTO VRB06KT 10SM CLR 24/12 A3005 250 44 1400 VRB/06 RMK AO2 T02440117
03949KAQV AQV20190325172510803/25/19 17:25:31  5-MIN KAQV 252325Z AUTO VRB05KT 10SM CLR 24/12 A3005 250 44 1400 VRB/05 RMK AO2 T02440117
03949KAQV AQV20190325173010803/25/19 17:30:31  5-MIN KAQV 252330Z AUTO 01007KT 10SM CLR 24/12 A3006 250 46 1400 010/07 RMK AO2 T02440122
03949KAQV AQV20190325173510803/25/19 17:35:31  5-MIN KAQV 252335Z AUTO 36006KT 10SM CLR 24/13 A3006 250 49 1400 360/06 RMK AO2 T02390128
03949KAQV AQV20190325174010803/25/19 17:40:31  5-MIN KAQV 252340Z AUTO 36005KT 10SM CLR 24/13 A3006 250 49 1400 360/05 RMK AO2 T02390128
03949KAQV AQV20190325174510803/25/19 17:45:31  5-MIN KAQV 252345Z AUTO 36003KT 10SM CLR 24/13 A3006 250 49 1400 360/03 RMK AO2 T02390128
03949KAQV AQV20190325175013303/25/19 17:50:31  5-MIN KAQV 252350Z AUTO 36005KT 10SM CLR 23/13 A3006 240 51 1300 360/05 RMK AO2 SLP178 T02330128 10272 20233 56014
03949KAQV AQV20190325175513303/25/19 17:55:31  5-MIN KAQV 252355Z AUTO VRB03KT 10SM CLR 23/12 A3006 240 49 1300 VRB/03 RMK AO2 SLP179 T02330122 10272 20233 56014
03949KAQV AQV20190325180010803/25/19 18:00:31  5-MIN KAQV 260000Z AUTO 00000KT 10SM CLR 23/13 A3007 240 53 1200 000/00 RMK AO2 T02280128
03949KAQV AQV20190325180510803/25/19 18:05:31  5-MIN KAQV 260005Z AUTO 00000KT 10SM CLR 23/13 A3007 240 53 1200 000/00 RMK AO2 T02280128
03949KAQV AQV20190325181010803/25/19 18:10:31  5-MIN KAQV 260010Z AUTO 00000KT 10SM CLR 23/13 A3007 240 53 1200 000/00 RMK AO2 T02280128
03949KAQV AQV20190325181510803/25/19 18:15:31  5-MIN KAQV 260015Z AUTO 00000KT 10SM CLR 22/13 A3008 230 56 1100 000/00 RMK AO2 T02170128
03949KAQV AQV20190325182010803/25/19 18:20:31  5-MIN KAQV 260020Z AUTO 00000KT 10SM CLR 21/13 A3008 230 61 1000 000/00 RMK AO2 T02110133
03949KAQV AQV20190325182510803/25/19 18:25:31  5-MIN KAQV 260025Z AUTO 00000KT 10SM CLR 21/13 A3008 230 63 1000 000/00 RMK AO2 T02060133
03949KAQV AQV20190325183010803/25/19 18:30:31  5-MIN KAQV 260030Z AUTO 00000KT 10SM CLR 21/14 A3008 230 65 1000 000/00 RMK AO2 T02060139
03949KAQV AQV20190325183510703/25/19 18:35:31  5-MIN KAQV 260035Z AUTO 01003KT 10SM CLR 20/14 A3008 230 67 900 010/03 RMK AO2 T02000139
03949KAQV AQV20190325184010703/25/19 18:40:31  5-MIN KAQV 260040Z AUTO 01003KT 10SM CLR 19/14 A3008 230 70 800 010/03 RMK AO2 T01940139
03949KAQV AQV20190325184510703/25/19 18:45:31  5-MIN KAQV 260045Z AUTO 00000KT 10SM CLR 19/14 A3008 230 70 800 000/00 RMK AO2 T01940139
03949KAQV AQV20190325185011403/25/19 18:50:31  5-MIN KAQV 260050Z AUTO 00000KT 10SM CLR 19/14 A3009 220 72 800 000/00 RMK AO2 SLP186 T01890139
03949KAQV AQV20190325185511403/25/19 18:55:31  5-MIN KAQV 260055Z AUTO 00000KT 10SM CLR 19/14 A3009 220 72 800 000/00 RMK AO2 SLP187 T01890139
03949KAQV AQV20190325190010703/25/19 19:00:31  5-MIN KAQV 260100Z AUTO 36003KT 10SM CLR 19/14 A3009 220 72 800 360/03 RMK AO2 T01890139
03949KAQV AQV20190325190510703/25/19 19:05:31  5-MIN KAQV 260105Z AUTO 00000KT 10SM CLR 18/14 A3009 220 75 700 000/00 RMK AO2 T01830139
03949KAQV AQV20190325191010703/25/19 19:10:31  5-MIN KAQV 260110Z AUTO 36003KT 10SM CLR 18/14 A3010 210 78 700 360/03 RMK AO2 T01830144
03949KAQV AQV20190325191510703/25/19 19:15:31  5-MIN KAQV 260115Z AUTO 36004KT 10SM CLR 18/14 A3010 210 75 700 350/04 RMK AO2 T01830139
03949KAQV AQV20190325192010703/25/19 19:20:31  5-MIN KAQV 260120Z AUTO 36003KT 10SM CLR 19/13 A3010 210 70 800 350/03 RMK AO2 T01890133
03949KAQV AQV20190325192510703/25/19 19:25:31  5-MIN KAQV 260125Z AUTO 00000KT 10SM CLR 19/13 A3010 210 70 800 000/00 RMK AO2 T01890133
03949KAQV AQV20190325193010703/25/19 19:30:31  5-MIN KAQV 260130Z AUTO 00000KT 10SM CLR 18/13 A3011 210 72 700 000/00 RMK AO2 T01830133
03949KAQV AQV20190325193510703/25/19 19:35:31  5-MIN KAQV 260135Z AUTO 00000KT 10SM CLR 18/13 A3011 200 70 700 000/00 RMK AO2 T01830128
03949KAQV AQV20190325194010703/25/19 19:40:31  5-MIN KAQV 260140Z AUTO 00000KT 10SM CLR 18/13 A3011 200 72 600 000/00 RMK AO2 T01780128
03949KAQV AQV20190325194510703/25/19 19:45:31  5-MIN KAQV 260145Z AUTO 00000KT 10SM CLR 17/13 A3011 200 78 500 000/00 RMK AO2 T01720133
03949KAQV AQV20190325195011403/25/19 19:50:31  5-MIN KAQV 260150Z AUTO 00000KT 10SM CLR 17/13 A3011 200 75 500 000/00 RMK AO2 SLP195 T01720128
03949KAQV AQV20190325195511403/25/19 19:55:31  5-MIN KAQV 260155Z AUTO 00000KT 10SM CLR 17/13 A3012 200 80 500 000/00 RMK AO2 SLP196 T01670133
03949KAQV AQV20190325200010703/25/19 20:00:31  5-MIN KAQV 260200Z AUTO 00000KT 10SM CLR 17/13 A3012 190 75 500 000/00 RMK AO2 T01720128
03949KAQV AQV20190325200510703/25/19 20:05:31  5-MIN KAQV 260205Z AUTO 34003KT 10SM CLR 17/13 A3012 190 75 500 340/03 RMK AO2 T01720128
03949KAQV AQV20190325201010703/25/19 20:10:31  5-MIN KAQV 260210Z AUTO 34003KT 10SM CLR 17/12 A3012 190 72 500 340/03 RMK AO2 T01720122
03949KAQV AQV20190325201510703/25/19 20:15:31  5-MIN KAQV 260215Z AUTO 00000KT 10SM CLR 17/12 A3013 190 72 500 000/00 RMK AO2 T01720122
03949KAQV AQV20190325202010703/25/19 20:20:31  5-MIN KAQV 260220Z AUTO 00000KT 10SM CLR 17/13 A3013 180 77 500 000/00 RMK AO2 T01670128
03949KAQV AQV20190325202510703/25/19 20:25:31  5-MIN KAQV 260225Z AUTO 36003KT 10SM CLR 17/12 A3013 180 75 500 350/03 RMK AO2 T01670122
03949KAQV AQV20190325203010703/25/19 20:30:31  5-MIN KAQV 260230Z AUTO VRB03KT 10SM CLR 16/12 A3013 180 77 400 VRB/03 RMK AO2 T01610122
03949KAQV AQV20190325203510703/25/19 20:35:31  5-MIN KAQV 260235Z AUTO VRB03KT 10SM CLR 16/12 A3014 180 77 400 VRB/03 RMK AO2 T01610122
03949KAQV AQV20190325204010703/25/19 20:40:31  5-MIN KAQV 260240Z AUTO 00000KT 10SM CLR 16/12 A3014 180 75 400 000/00 RMK AO2 T01610117
03949KAQV AQV20190325204510703/25/19 20:45:31  5-MIN KAQV 260245Z AUTO 00000KT 10SM CLR 16/12 A3014 170 77 400 000/00 RMK AO2 T01610122
03949KAQV AQV20190325205012003/25/19 20:50:31  5-MIN KAQV 260250Z AUTO 00000KT 10SM CLR 16/12 A3014 170 80 300 000/00 RMK AO2 SLP206 T01560122 53008
03949KAQV AQV20190325205512003/25/19 20:55:31  5-MIN KAQV 260255Z AUTO 00000KT 10SM CLR 16/12 A3015 170 77 300 000/00 RMK AO2 SLP207 T01560117 53008
03949KAQV AQV20190325210010703/25/19 21:00:31  5-MIN KAQV 260300Z AUTO 00000KT 10SM CLR 16/12 A3015 170 80 300 000/00 RMK AO2 T01560122
03949KAQV AQV20190325210510703/25/19 21:05:31  5-MIN KAQV 260305Z AUTO 00000KT 10SM CLR 16/12 A3015 160 77 300 000/00 RMK AO2 T01560117
03949KAQV AQV20190325211010703/25/19 21:10:31  5-MIN KAQV 260310Z AUTO 00000KT 10SM CLR 16/12 A3015 160 80 300 000/00 RMK AO2 T01560122
03949KAQV AQV20190325211510703/25/19 21:15:31  5-MIN KAQV 260315Z AUTO 00000KT 10SM CLR 15/12 A3015 160 83 200 000/00 RMK AO2 T01500122
03949KAQV AQV20190325212010703/25/19 21:20:31  5-MIN KAQV 260320Z AUTO 00000KT 10SM CLR 15/12 A3015 160 83 200 000/00 RMK AO2 T01500122
03949KAQV AQV20190325212510703/25/19 21:25:31  5-MIN KAQV 260325Z AUTO 00000KT 10SM CLR 15/12 A3015 160 80 200 000/00 RMK AO2 T01500117
03949KAQV AQV20190325213010703/25/19 21:30:31  5-MIN KAQV 260330Z AUTO 35003KT 10SM CLR 14/12 A3015 160 83 200 350/03 RMK AO2 T01440117
03949KAQV AQV20190325213510703/25/19 21:35:31  5-MIN KAQV 260335Z AUTO 00000KT 10SM CLR 14/12 A3015 160 83 200 000/00 RMK AO2 T01440117
03949KAQV AQV20190325214010703/25/19 21:40:31  5-MIN KAQV 260340Z AUTO 35003KT 10SM CLR 14/11 A3016 160 80 200 350/03 RMK AO2 T01440111
03949KAQV AQV20190325214510703/25/19 21:45:31  5-MIN KAQV 260345Z AUTO 36004KT 10SM CLR 14/11 A3016 160 80 200 360/04 RMK AO2 T01440111
03949KAQV AQV20190325215011403/25/19 21:50:31  5-MIN KAQV 260350Z AUTO 35003KT 10SM CLR 15/11 A3016 150 77 200 350/03 RMK AO2 SLP212 T01500111
03949KAQV AQV20190325215511403/25/19 21:55:31  5-MIN KAQV 260355Z AUTO 35003KT 10SM CLR 14/11 A3016 150 80 200 350/03 RMK AO2 SLP213 T01440111
03949KAQV AQV20190325220010703/25/19 22:00:31  5-MIN KAQV 260400Z AUTO 36004KT 10SM CLR 14/11 A3017 150 80 200 350/04 RMK AO2 T01440111
03949KAQV AQV20190325220510703/25/19 22:05:31  5-MIN KAQV 260405Z AUTO 36005KT 10SM CLR 16/10 A3017 150 69 300 360/05 RMK AO2 T01560100
03949KAQV AQV20190325221010703/25/19 22:10:31  5-MIN KAQV 260410Z AUTO 36005KT 10SM CLR 16/10 A3017 150 69 300 350/05 RMK AO2 T01560100
03949KAQV AQV20190325221510703/25/19 22:15:31  5-MIN KAQV 260415Z AUTO 36005KT 10SM CLR 16/10 A3017 140 69 300 360/05 RMK AO2 T01560100
03949KAQV AQV20190325222010703/25/19 22:20:31  5-MIN KAQV 260420Z AUTO 36005KT 10SM CLR 16/10 A3017 140 69 300 350/05 RMK AO2 T01560100
03949KAQV AQV20190325222510703/25/19 22:25:31  5-MIN KAQV 260425Z AUTO 01004KT 10SM CLR 16/10 A3018 140 69 300 360/04 RMK AO2 T01560100
03949KAQV AQV20190325223010703/25/19 22:30:31  5-MIN KAQV 260430Z AUTO 36004KT 10SM CLR 16/10 A3018 140 69 300 350/04 RMK AO2 T01560100
03949KAQV AQV20190325223510703/25/19 22:35:31  5-MIN KAQV 260435Z AUTO 36005KT 10SM CLR 16/09 A3018 140 67 300 360/05 RMK AO2 T01560094
03949KAQV AQV20190325224010703/25/19 22:40:31  5-MIN KAQV 260440Z AUTO 01005KT 10SM CLR 16/09 A3018 140 67 300 360/05 RMK AO2 T01560094
03949KAQV AQV20190325224510703/25/19 22:45:31  5-MIN KAQV 260445Z AUTO 36006KT 10SM CLR 16/09 A3018 130 67 300 360/06 RMK AO2 T01560094
03949KAQV AQV20190325225011403/25/19 22:50:31  5-MIN KAQV 260450Z AUTO 01006KT 10SM CLR 16/09 A3018 130 67 300 360/06 RMK AO2 SLP219 T01560094
03949KAQV AQV20190325225511403/25/19 22:55:31  5-MIN KAQV 260455Z AUTO 01005KT 10SM CLR 16/09 A3018 130 67 300 360/05 RMK AO2 SLP219 T01560094
03949KAQV AQV20190325230010703/25/19 23:00:31  5-MIN KAQV 260500Z AUTO 02006KT 10SM CLR 16/09 A3018 130 67 300 020/06 RMK AO2 T01560094
03949KAQV AQV20190325230510703/25/19 23:05:31  5-MIN KAQV 260505Z AUTO 02007KT 10SM CLR 16/09 A3019 130 67 300 020/07 RMK AO2 T01560094
03949KAQV AQV20190325231010703/25/19 23:10:31  5-MIN KAQV 260510Z AUTO 02006KT 10SM CLR 16/09 A3019 130 64 300 020/06 RMK AO2 T01560089
03949KAQV AQV20190325231510703/25/19 23:15:31  5-MIN KAQV 260515Z AUTO 02005KT 10SM CLR 16/09 A3019 130 64 300 020/05 RMK AO2 T01560089
03949KAQV AQV20190325232005903/25/19 23:20:31  5-MIN KAQV 260520Z AUTO 02007KT 01500078
03949KAQV AQV20190325232010703/25/19 23:20:31  5-MIN KAQV 260520Z AUTO 02007KT 10SM CLR 16/09 A3019 130 64 300 020/07 RMK AO2 T01560089
03949KAQV AQV20190325232510703/25/19 23:25:31  5-MIN KAQV 260525Z AUTO 01005KT 10SM CLR 15/09 A3019 130 66 200 360/05 RMK AO2 T01500089
03949KAQV AQV20190325233012303/25/19 23:30:31  5-MIN KAQV 260530Z AUTO 01007KT 340V040 10SM CLR 15/09 A3019 130 66 200 010/07 340V040 RMK AO2 T01500089
03949KAQV AQV20190325233510703/25/19 23:35:31  5-MIN KAQV 260535Z AUTO 01006KT 10SM CLR 15/09 A3019 130 66 200 010/06 RMK AO2 T01500089
03949KAQV AQV20190325234010703/25/19 23:40:31  5-MIN KAQV 260540Z AUTO 01005KT 10SM CLR 15/08 A3019 130 64 200 010/05 RMK AO2 T01500083
03949KAQV AQV20190325234510703/25/19 23:45:31  5-MIN KAQV 260545Z AUTO 01007KT 10SM CLR 15/08 A3019 130 64 200 010/07 RMK AO2 T01500083
03949KAQV AQV20190325235014203/25/19 23:50:31  5-MIN KAQV 260550Z AUTO 01006KT 10SM CLR 15/08 A3019 120 64 200 010/06 RMK AO2 SLP223 T01500083 10233 20144 402720144 53027
03949KAQV AQV20190325235514203/25/19 23:55:31  5-MIN KAQV 260555Z AUTO VRB06KT 10SM CLR 15/08 A3019 120 64 200 VRB/06 RMK AO2 SLP223 T01500083 10233 20144 402720144 53027
03949KAQV AQV20190326000010703/26/19 00:00:31  5-MIN KAQV 260600Z AUTO 01006KT 10SM CLR 15/08 A3020 120 62 200 010/06 RMK AO2 T01500078
03949KAQV AQV20190326000510703/26/19 00:05:31  5-MIN KAQV 260605Z AUTO 02005KT 10SM CLR 15/08 A3020 120 62 200 010/05 RMK AO2 T01500078
03949KAQV AQV20190326001010703/26/19 00:10:31  5-MIN KAQV 260610Z AUTO 36006KT 10SM CLR 14/08 A3020 120 64 100 360/06 RMK AO2 T01440078
03949KAQV AQV20190326001510703/26/19 00:15:31  5-MIN KAQV 260615Z AUTO 01005KT 10SM CLR 15/08 A3020 120 62 200 010/05 RMK AO2 T01500078
03949KAQV AQV20190326002010703/26/19 00:20:31  5-MIN KAQV 260620Z AUTO 01006KT 10SM CLR 15/08 A3020 120 62 200 010/06 RMK AO2 T01500078
03949KAQV AQV20190326002510703/26/19 00:25:31  5-MIN KAQV 260625Z AUTO VRB05KT 10SM CLR 15/08 A3020 120 62 200 VRB/05 RMK AO2 T01500078
03949KAQV AQV20190326003010703/26/19 00:30:31  5-MIN KAQV 260630Z AUTO VRB05KT 10SM CLR 15/08 A3020 120 62 200 VRB/05 RMK AO2 T01500078
03949KAQV AQV20190326003510703/26/19 00:35:31  5-MIN KAQV 260635Z AUTO 36005KT 10SM CLR 14/08 A3020 120 64 100 360/05 RMK AO2 T01440078
03949KAQV AQV20190326004010703/26/19 00:40:31  5-MIN KAQV 260640Z AUTO 36005KT 10SM CLR 14/08 A3020 120 64 100 360/05 RMK AO2 T01440078
03949KAQV AQV20190326004510703/26/19 00:45:31  5-MIN KAQV 260645Z AUTO 36005KT 10SM CLR 14/08 A3020 120 64 100 360/05 RMK AO2 T01440078
03949KAQV AQV20190326005011403/26/19 00:50:31  5-MIN KAQV 260650Z AUTO 35004KT 10SM CLR 14/08 A3020 120 66 100 350/04 RMK AO2 SLP225 T01390078
03949KAQV AQV20190326005511203/26/19 00:55:31  5-MIN KAQV 260655Z AUTO 00000KT 10SM CLR 13/08 A3020 120 71 0 000/00 RMK AO2 SLP225 T01330083
03949KAQV AQV20190326010010503/26/19 01:00:31  5-MIN KAQV 260700Z AUTO 00000KT 10SM CLR 13/08 A3020 120 74 0 000/00 RMK AO2 T01280083
03949KAQV AQV20190326010510503/26/19 01:05:31  5-MIN KAQV 260705Z AUTO 00000KT 10SM CLR 13/08 A3020 120 74 0 000/00 RMK AO2 T01280083
03949KAQV AQV20190326011010803/26/19 01:10:31  5-MIN KAQV 260710Z AUTO 00000KT 10SM CLR 12/09 A3020 120 80 -100 000/00 RMK AO2 T01220089
03949KAQV AQV20190326011510803/26/19 01:15:31  5-MIN KAQV 260715Z AUTO 00000KT 10SM CLR 12/09 A3020 110 83 -200 000/00 RMK AO2 T01170089
03949KAQV AQV20190326012010803/26/19 01:20:31  5-MIN KAQV 260720Z AUTO 00000KT 10SM CLR 12/09 A3020 110 83 -200 000/00 RMK AO2 T01170089
03949KAQV AQV20190326012510803/26/19 01:25:31  5-MIN KAQV 260725Z AUTO 36003KT 10SM CLR 12/09 A3020 110 83 -200 350/03 RMK AO2 T01170089
03949KAQV AQV20190326013010803/26/19 01:30:31  5-MIN KAQV 260730Z AUTO VRB03KT 10SM CLR 12/09 A3021 110 83 -200 VRB/03 RMK AO2 T01170089
03949KAQV AQV20190326013510803/26/19 01:35:31  5-MIN KAQV 260735Z AUTO 01005KT 10SM CLR 12/09 A3020 110 80 -100 360/05 RMK AO2 T01220089
03949KAQV AQV20190326014010503/26/19 01:40:31  5-MIN KAQV 260740Z AUTO 01004KT 10SM CLR 13/08 A3020 110 74 0 360/04 RMK AO2 T01280083
03949KAQV AQV20190326014510503/26/19 01:45:31  5-MIN KAQV 260745Z AUTO VRB03KT 10SM CLR 13/08 A3021 110 74 0 VRB/03 RMK AO2 T01280083
03949KAQV AQV20190326015011503/26/19 01:50:31  5-MIN KAQV 260750Z AUTO 01004KT 10SM CLR 12/09 A3021 110 80 -100 360/04 RMK AO2 SLP227 T01220089
03949KAQV AQV20190326015511503/26/19 01:55:31  5-MIN KAQV 260755Z AUTO 36003KT 10SM CLR 12/08 A3021 110 77 -100 350/03 RMK AO2 SLP227 T01220083
03949KAQV AQV20190326020010803/26/19 02:00:31  5-MIN KAQV 260800Z AUTO 00000KT 10SM CLR 12/08 A3021 110 80 -200 000/00 RMK AO2 T01170083
03949KAQV AQV20190326020510803/26/19 02:05:31  5-MIN KAQV 260805Z AUTO 00000KT 10SM CLR 12/09 A3021 110 83 -200 000/00 RMK AO2 T01170089
03949KAQV AQV20190326021010803/26/19 02:10:31  5-MIN KAQV 260810Z AUTO 00000KT 10SM CLR 12/08 A3021 110 80 -200 000/00 RMK AO2 T01170083
03949KAQV AQV20190326021510803/26/19 02:15:31  5-MIN KAQV 260815Z AUTO 00000KT 10SM CLR 11/08 A3021 110 83 -200 000/00 RMK AO2 T01110083
03949KAQV AQV20190326022010803/26/19 02:20:31  5-MIN KAQV 260820Z AUTO 01003KT 10SM CLR 11/08 A3021 110 83 -200 010/03 RMK AO2 T01110083
03949KAQV AQV20190326022510803/26/19 02:25:31  5-MIN KAQV 260825Z AUTO 00000KT 10SM CLR 11/08 A3021 110 83 -200 000/00 RMK AO2 T01110083
03949KAQV AQV20190326023010803/26/19 02:30:31  5-MIN KAQV 260830Z AUTO VRB03KT 10SM CLR 11/08 A3021 110 83 -200 VRB/03 RMK AO2 T01110083
03949KAQV AQV20190326023510803/26/19 02:35:31  5-MIN KAQV 260835Z AUTO 00000KT 10SM CLR 11/08 A3021 110 83 -200 000/00 RMK AO2 T01110083
03949KAQV AQV20190326024010803/26/19 02:40:31  5-MIN KAQV 260840Z AUTO 00000KT 10SM CLR 11/08 A3021 110 83 -200 000/00 RMK AO2 T01110083
03949KAQV AQV20190326024510803/26/19 02:45:31  5-MIN KAQV 260845Z AUTO 00000KT 10SM CLR 11/08 A3020 110 86 -300 000/00 RMK AO2 T01060083
03949KAQV AQV20190326025012103/26/19 02:50:31  5-MIN KAQV 260850Z AUTO 00000KT 10SM CLR 11/08 A3021 110 86 -300 000/00 RMK AO2 SLP227 T01060083 51016
03949KAQV AQV20190326025512103/26/19 02:55:31  5-MIN KAQV 260855Z AUTO 00000KT 10SM CLR 10/08 A3021 110 89 -400 000/00 RMK AO2 SLP227 T01000083 51016
03949KAQV AQV20190326030010803/26/19 03:00:31  5-MIN KAQV 260900Z AUTO 00000KT 10SM CLR 10/08 A3021 110 86 -400 000/00 RMK AO2 T01000078
03949KAQV AQV20190326030510803/26/19 03:05:31  5-MIN KAQV 260905Z AUTO 00000KT 10SM CLR 10/08 A3021 110 86 -400 000/00 RMK AO2 T01000078
03949KAQV AQV20190326031010803/26/19 03:10:31  5-MIN KAQV 260910Z AUTO 00000KT 10SM CLR 10/08 A3021 110 89 -400 000/00 RMK AO2 T01000083
03949KAQV AQV20190326031510803/26/19 03:15:31  5-MIN KAQV 260915Z AUTO 00000KT 10SM CLR 10/08 A3021 110 89 -400 000/00 RMK AO2 T01000083
03949KAQV AQV20190326032010803/26/19 03:20:31  5-MIN KAQV 260920Z AUTO 36003KT 10SM CLR 09/08 A3021 110 93 -400 350/03 RMK AO2 T00940083
03949KAQV AQV20190326032510803/26/19 03:25:31  5-MIN KAQV 260925Z AUTO 00000KT 10SM CLR 09/08 A3021 110 93 -400 000/00 RMK AO2 T00940083
03949KAQV AQV20190326033010803/26/19 03:30:31  5-MIN KAQV 260930Z AUTO 00000KT 10SM CLR 09/08 A3021 110 93 -400 000/00 RMK AO2 T00940083
03949KAQV AQV20190326033510803/26/19 03:35:31  5-MIN KAQV 260935Z AUTO VRB03KT 10SM CLR 09/08 A3021 110 93 -400 VRB/03 RMK AO2 T00940083
03949KAQV AQV20190326034010803/26/19 03:40:31  5-MIN KAQV 260940Z AUTO 00000KT 10SM CLR 09/08 A3021 110 93 -400 000/00 RMK AO2 T00940083
03949KAQV AQV20190326034510803/26/19 03:45:31  5-MIN KAQV 260945Z AUTO 00000KT 10SM CLR 09/08 A3021 110 89 -400 000/00 RMK AO2 T00940078
03949KAQV AQV20190326035011503/26/19 03:50:31  5-MIN KAQV 260950Z AUTO 00000KT 10SM CLR 09/08 A3022 100 93 -400 000/00 RMK AO2 SLP231 T00940083
03949KAQV AQV20190326035511503/26/19 03:55:31  5-MIN KAQV 260955Z AUTO 00000KT 10SM CLR 09/08 A3022 100 93 -400 000/00 RMK AO2 SLP231 T00940083
03949KAQV AQV20190326040010803/26/19 04:00:31  5-MIN KAQV 261000Z AUTO 00000KT 10SM CLR 09/08 A3022 100 89 -400 000/00 RMK AO2 T00940078
03949KAQV AQV20190326040510803/26/19 04:05:31  5-MIN KAQV 261005Z AUTO 00000KT 10SM CLR 09/08 A3022 100 89 -400 000/00 RMK AO2 T00940078
03949KAQV AQV20190326041010803/26/19 04:10:31  5-MIN KAQV 261010Z AUTO 00000KT 10SM CLR 09/08 A3022 100 89 -400 000/00 RMK AO2 T00940078
03949KAQV AQV20190326041510803/26/19 04:15:31  5-MIN KAQV 261015Z AUTO 00000KT 10SM CLR 09/08 A3022 100 93 -500 000/00 RMK AO2 T00890078
03949KAQV AQV20190326042010803/26/19 04:20:31  5-MIN KAQV 261020Z AUTO 00000KT 10SM CLR 09/08 A3022 100 93 -500 000/00 RMK AO2 T00890078
03949KAQV AQV20190326042510803/26/19 04:25:31  5-MIN KAQV 261025Z AUTO 00000KT 10SM CLR 09/08 A3022 100 93 -500 000/00 RMK AO2 T00890078
03949KAQV AQV20190326043010803/26/19 04:30:31  5-MIN KAQV 261030Z AUTO 00000KT 10SM CLR 09/08 A3022 100 93 -500 000/00 RMK AO2 T00890078
03949KAQV AQV20190326043510703/26/19 04:35:31  5-MIN KAQV 261035Z AUTO 00000KT 10SM CLR 09/08 A3023 90 93 -500 000/00 RMK AO2 T00890078
03949KAQV AQV20190326044010703/26/19 04:40:31  5-MIN KAQV 261040Z AUTO 00000KT 10SM CLR 08/08 A3023 90 96 -600 000/00 RMK AO2 T00830078
03949KAQV AQV20190326044510703/26/19 04:45:31  5-MIN KAQV 261045Z AUTO 00000KT 10SM CLR 08/07 A3023 90 93 -600 000/00 RMK AO2 T00830072
03949KAQV AQV20190326045011403/26/19 04:50:31  5-MIN KAQV 261050Z AUTO 00000KT 9SM CLR 08/07 A3023 100 93 -600 000/00 RMK AO2 SLP234 T00830072
03949KAQV AQV20190326045511403/26/19 04:55:31  5-MIN KAQV 261055Z AUTO 00000KT 8SM CLR 08/07 A3022 100 93 -600 000/00 RMK AO2 SLP233 T00830072
03949KAQV AQV20190326050010703/26/19 05:00:31  5-MIN KAQV 261100Z AUTO 00000KT 9SM CLR 08/07 A3023 100 93 -600 000/00 RMK AO2 T00830072
03949KAQV AQV20190326050510003/26/19 05:05:31  5-MIN KAQV 261105Z AUTO 00018/08 A3031 20 52 500 360/08 320V030 RMK AO2 T01830083
03949KAQV AQV20190326101010903/26/19 10:10:31  5-MIN KAQV 261610Z AUTO 36008KT 10SM SCT024 17/08 A3031 20 57 300 350/08 RMK AO2 T01670083
03949KAQV AQV20190326101510903/26/19 10:15:31  5-MIN KAQV 261615Z AUTO 01008KT 10SM SCT025 17/08 A3031 20 57 300 010/08 RMK AO2 T01670083
03949KAQV AQV20190326102010903/26/19 10:20:31  5-MIN KAQV 261620Z AUTO 05008KT 10SM FEW025 17/08 A3031 20 57 300 050/08 RMK AO2 T01670083
03949KAQV AQV20190326102512503/26/19 10:25:31  5-MIN KAQV 261625Z AUTO 35009KT 310V030 10SM SCT028 17/08 A3031 20 57 300 350/09 310V030 RMK AO2 T01670083
03949KAQV AQV20190326103010903/26/19 10:30:31  5-MIN KAQV 261630Z AUTO VRB04KT 10SM SCT028 16/08 A3031 20 59 200 VRB/04 RMK AO2 T01610083
03949KAQV AQV20190326103510903/26/19 10:35:31  5-MIN KAQV 261635Z AUTO 36007KT 10SM SCT028 17/08 A3031 20 55 300 360/07 RMK AO2 T01720083
03949KAQV AQV20190326104009903/26/19 10:40:31  5-MIN KAQV 261640Z AUTO 10SM SCT028 18/08 A3031 20 53 400 M /M RMK AO2 T01780083
03949KAQV AQV20190326104510903/26/19 10:45:31  5-MIN KAQV 261645Z AUTO 36010KT 10SM SCT030 17/08 A3031 20 53 300 360/10 RMK AO2 T01720078
03949KAQV AQV20190326105011603/26/19 10:50:31  5-MIN KAQV 261650Z AUTO 02009KT 10SM FEW030 18/08 A3031 20 53 400 020/09 RMK AO2 SLP263 T01780083
03949KAQV AQV20190326105511603/26/19 10:55:31  5-MIN KAQV 261655Z AUTO VRB05KT 10SM FEW032 18/08 A3031 20 53 400 VRB/05 RMK AO2 SLP262 T01780083
03949KAQV AQV20190326110012503/26/19 11:00:31  5-MIN KAQV 261700Z AUTO 01008KT 320V030 10SM FEW032 18/08 A3031 20 52 500 360/08 320V030 RMK AO2 T01830083
03949KAQV AQV20190326110513103/26/19 11:05:31  5-MIN KAQV 261705Z AUTO 35009G16KT 320V030 10SM FEW032 18/08 A3030 20 50 500 350/09G16 320V030 RMK AO2 T01830078
03949KAQV AQV20190326111011503/26/19 11:10:31  5-MIN KAQV 261710Z AUTO 02008G16KT 10SM FEW036 19/08 A3030 20 50 500 020/08G16 RMK AO2 T01890083
03949KAQV AQV20190326111511503/26/19 11:15:31  5-MIN KAQV 261715Z AUTO 02010G16KT 10SM SCT036 19/08 A3030 20 48 500 010/10G16 RMK AO2 T01890078
03949KAQV AQV20190326112010903/26/19 11:20:31  5-MIN KAQV 261720Z AUTO 02009KT 10SM FEW036 19/08 A3030 30 48 500 010/09 RMK AO2 T01890078
03949KAQV AQV20190326112511503/26/19 11:25:31  5-MIN KAQV 261725Z AUTO VRB06G15KT 10SM SCT036 18/08 A3030 30 50 500 VRB/06G15 RMK AO2 T01830078
03949KAQV AQV20190326113011503/26/19 11:30:31  5-MIN KAQV 261730Z AUTO 02009G15KT 10SM BKN036 18/08 A3030 30 50 500 020/09G15 RMK AO2 T01830078
03949KAQV AQV20190326113513103/26/19 11:35:31  5-MIN KAQV 261735Z AUTO 01007G15KT 310V040 10SM BKN037 19/08 A3029 30 48 500 010/07G15 310V040 RMK AO2 T01890078
03949KAQV AQV20190326114011503/26/19 11:40:31  5-MIN KAQV 261740Z AUTO VRB06G14KT 10SM BKN037 18/08 A3029 30 52 500 VRB/06G14 RMK AO2 T01830083
03949KAQV AQV20190326114509903/26/19 11:45:31  5-MIN KAQV 261745Z AUTO 10SM SCT037 19/08 A3030 30 48 500 M /M RMK AO2 T01890078
03949KAQV AQV20190326115013403/26/19 11:50:31  5-MIN KAQV 261750Z AUTO VRB06KT 10SM SCT037 19/08 A3029 40 48 500 VRB/06 RMK AO2 SLP256 T01890078 10189 20078 53020
03949KAQV AQV20190326115513403/26/19 11:55:31  5-MIN KAQV 261755Z AUTO 01009KT 10SM FEW037 19/08 A3029 40 48 500 360/09 RMK AO2 SLP255 T01890078 10189 20078 53020
03949KAQV AQV20190326120011503/26/19 12:00:31  5-MIN KAQV 261800Z AUTO 02009G15KT 10SM FEW037 19/08 A3029 40 48 500 020/09G15 RMK AO2 T01890078
03949KAQV AQV20190326120512803/26/19 12:05:31  5-MIN KAQV 261805Z AUTO 01007G15KT 330V040 10SM CLR 19/08 A3028 40 46 600 010/07G15 330V040 RMK AO2 T01940078
03949KAQV AQV20190326121011203/26/19 12:10:31  5-MIN KAQV 261810Z AUTO VRB04G16KT 10SM CLR 19/08 A3028 40 48 600 VRB/04G16 RMK AO2 T01890078
03949KAQV AQV20190326121511503/26/19 12:15:31  5-MIN KAQV 261815Z AUTO 03008G16KT 10SM FEW042 19/08 A3028 50 46 600 030/08G16 RMK AO2 T01940078
03949KAQV AQV20190326122010903/26/19 12:20:31  5-MIN KAQV 261820Z AUTO VRB04KT 10SM FEW042 19/08 A3028 50 46 600 VRB/04 RMK AO2 T01940078
03949KAQV AQV20190326122509603/26/19 12:25:31  5-MIN KAQV 261825Z AUTO 10SM CLR 19/08 A3028 50 46 600 M /M RMK AO2 T01940078
03949KAQV AQV20190326123010603/26/19 12:30:31  5-MIN KAQV 261830Z AUTO 35009KT 10SM CLR 20/08 A3028 50 45 700 340/09 RMK AO2 T02000078
03949KAQV AQV20190326123510603/26/19 12:35:31  5-MIN KAQV 261835Z AUTO VRB05KT 10SM CLR 20/08 A3027 50 45 700 VRB/05 RMK AO2 T02000078
03949KAQV AQV20190326124010603/26/19 12:40:31  5-MIN KAQV 261840Z AUTO 02010KT 10SM CLR 20/08 A3027 50 45 700 010/10 RMK AO2 T02000078
03949KAQV AQV20190326124511203/26/19 12:45:31  5-MIN KAQV 261845Z AUTO 01012G17KT 10SM CLR 20/07 A3027 60 43 700 010/12G17 RMK AO2 T02000072
03949KAQV AQV20190326125013503/26/19 12:50:31  5-MIN KAQV 261850Z AUTO 35010G17KT 320V020 10SM CLR 19/07 A3027 60 44 600 350/10G17 320V020 RMK AO2 SLP249 T01940072
03949KAQV AQV20190326125513503/26/19 12:55:31  5-MIN KAQV 261855Z AUTO 35007G16KT 330V040 10SM CLR 19/07 A3027 60 44 600 350/07G16 330V040 RMK AO2 SLP248 T01940072
03949KAQV AQV20190326130010603/26/19 13:00:31  5-MIN KAQV 261900Z AUTO VRB03KT 10SM CLR 20/08 A3026 60 45 700 VRB/03 RMK AO2 T02000078
03949KAQV AQV20190326130510603/26/19 13:05:31  5-MIN KAQV 261905Z AUTO 29007KT 10SM CLR 20/08 A3026 60 45 700 290/07 RMK AO2 T02000078
03949KAQV AQV20190326131010603/26/19 13:10:31  5-MIN KAQV 261910Z AUTO 36007KT 10SM CLR 21/08 A3026 60 43 800 350/07 RMK AO2 T02060078
03949KAQV AQV20190326131512803/26/19 13:15:31  5-MIN KAQV 261915Z AUTO 33008G15KT 290V020 10SM CLR 21/08 A3026 70 43 800 330/08G15 290V020 RMK AO2 T02060078
03949KAQV AQV20190326132011203/26/19 13:20:31  5-MIN KAQV 261920Z AUTO 36010G17KT 10SM CLR 20/08 A3026 70 45 700 360/10G17 RMK AO2 T02000078
03949KAQV AQV20190326132511203/26/19 13:25:31  5-MIN KAQV 261925Z AUTO 35009G17KT 10SM CLR 20/08 A3026 70 45 700 350/09G17 RMK AO2 T02000078
03949KAQV AQV20190326133012803/26/19 13:30:31  5-MIN KAQV 261930Z AUTO 35007G15KT 300V030 10SM CLR 21/08 A3025 70 43 800 350/07G15 300V030 RMK AO2 T02060078
03949KAQV AQV20190326133511203/26/19 13:35:31  5-MIN KAQV 261935Z AUTO 36012G19KT 10SM CLR 20/08 A3025 70 45 700 360/12G19 RMK AO2 T02000078
03949KAQV AQV20190326134012803/26/19 13:40:31  5-MIN KAQV 261940Z AUTO 35009G19KT 320V020 10SM CLR 20/07 A3025 70 43 700 350/09G19 320V020 RMK AO2 T02000072
03949KAQV AQV20190326134511203/26/19 13:45:31  5-MIN KAQV 261945Z AUTO 01009G17KT 10SM CLR 21/08 A3025 70 42 800 010/09G17 RMK AO2 T02110078
03949KAQV AQV20190326135013503/26/19 13:50:31  5-MIN KAQV 261950Z AUTO 36007G15KT 310V030 10SM CLR 21/07 A3025 80 41 800 360/07G15 310V030 RMK AO2 SLP241 T02060072
03949KAQV AQV20190326135511903/26/19 13:55:31  5-MIN KAQV 261955Z AUTO 03011G15KT 10SM CLR 21/07 A3024 80 41 800 020/11G15 RMK AO2 SLP241 T02060072
03949KAQV AQV20190326140012803/26/19 14:00:31  5-MIN KAQV 262000Z AUTO 02011G19KT 010V090 10SM CLR 21/08 A3024 80 43 800 020/11G19 010V090 RMK AO2 T02060078
03949KAQV AQV20190326140511203/26/19 14:05:31  5-MIN KAQV 262005Z AUTO 01009G19KT 10SM CLR 21/08 A3024 80 43 800 360/09G19 RMK AO2 T02060078
03949KAQV AQV20190326141011203/26/19 14:10:31  5-MIN KAQV 262010Z AUTO VRB06G18KT 10SM CLR 21/07 A3024 80 41 800 VRB/06G18 RMK AO2 T02060072
03949KAQV AQV20190326141511203/26/19 14:15:31  5-MIN KAQV 262015Z AUTO VRB06G18KT 10SM CLR 21/08 A3023 90 43 800 VRB/06G18 RMK AO2 T02060078
03949KAQV AQV20190326142014603/26/19 14:20:31  5-MIN KAQV 262020Z AUTO 05010G16KT 10SM CLR 21/07 A3023 90 41 800 040/10G16 RMK AO2 T0206007203/26/19 14:25:0 RMK AO2 T02060056
03949KAQV AQV20190326161510703/26/19 16:15:31  5-MIN KAQV 262215Z AUTO VRB05KT 10SM CLR 21/06 A3022 100 37 800 VRB/05 RMK AO2 T02060056
03949KAQV AQV20190326162010703/26/19 16:20:31  5-MIN KAQV 262220Z AUTO 36006KT 10SM CLR 21/06 A3022 100 36 900 360/06 RMK AO2 T02110056
03949KAQV AQV20190326162512303/26/19 16:25:31  5-MIN KAQV 262225Z AUTO 01007KT 330V050 10SM CLR 21/06 A3022 100 36 900 010/07 330V050 RMK AO2 T02110056
03949KAQV AQV20190326163010703/26/19 16:30:31  5-MIN KAQV 262230Z AUTO 04009KT 10SM CLR 21/06 A3022 100 37 800 030/09 RMK AO2 T02060056
03949KAQV AQV20190326163510703/26/19 16:35:31  5-MIN KAQV 262235Z AUTO VRB05KT 10SM CLR 21/06 A3022 100 37 800 VRB/05 RMK AO2 T02060056
03949KAQV AQV20190326164010703/26/19 16:40:31  5-MIN KAQV 262240Z AUTO VRB06KT 10SM CLR 21/06 A3022 100 37 800 VRB/06 RMK AO2 T02060056
03949KAQV AQV20190326164510703/26/19 16:45:31  5-MIN KAQV 262245Z AUTO 01009KT 10SM CLR 20/06 A3022 100 38 800 360/09 RMK AO2 T02000056
03949KAQV AQV20190326165006603/26/19 16:50:31  5-MIN KAQV 262250Z AUTO VRB00 RMK AO2 T02110056
03949KAQV AQV20190326165011403/26/19 16:50:31  5-MIN KAQV 262250Z AUTO VRB06KT 10SM CLR 20/06 A3022 100 38 800 VRB/06 RMK AO2 SLP232 T02000056
03949KAQV AQV20190326165511403/26/19 16:55:31  5-MIN KAQV 262255Z AUTO 35006KT 10SM CLR 20/05 A3022 100 37 800 340/06 RMK AO2 SLP232 T02000050
03949KAQV AQV20190326170010703/26/19 17:00:31  5-MIN KAQV 262300Z AUTO 36006KT 10SM CLR 20/06 A3022 100 38 700 350/06 RMK AO2 T02000056
03949KAQV AQV20190326170510703/26/19 17:05:31  5-MIN KAQV 262305Z AUTO 02007KT 10SM CLR 20/05 A3022 100 37 700 010/07 RMK AO2 T02000050
03949KAQV AQV20190326171010703/26/19 17:10:31  5-MIN KAQV 262310Z AUTO VRB06KT 10SM CLR 20/05 A3022 100 37 700 VRB/06 RMK AO2 T02000050
03949KAQV AQV20190326171505903/26/19 17:15:31  5-MIN KAQV 262315ZK AO2 SLP232 T02000056
03949KAQV AQV20190326171510703/26/19 17:15:31  5-MIN KAQV 262315Z AUTO 02005KT 10SM CLR 20/06 A3022 100 38 700 010/05 RMK AO2 T02000056
03949KAQV AQV20190326172010603/26/19 17:20:31  5-MIN KAQV 262320Z AUTO VRB06KT 10SM CLR 20/06 A3023 90 38 700 VRB/06 RMK AO2 T02000056
03949KAQV AQV20190326172510603/26/19 17:25:31  5-MIN KAQV 262325Z AUTO 36005KT 10SM CLR 19/05 A3023 90 38 700 360/05 RMK AO2 T01940050
03949KAQV AQV20190326173010603/26/19 17:30:31  5-MIN KAQV 262330Z AUTO 35006KT 10SM CLR 19/05 A3023 90 38 700 350/06 RMK AO2 T01940050
03949KAQV AQV20190326173506903/26/19 17:35:31  5-MIN KAQV 262335Z AUTO 01004KT6 RMK AO2 T02000050
03949KAQV AQV20190326173510603/26/19 17:35:31  5-MIN KAQV 262335Z AUTO 01004KT 10SM CLR 19/05 A3023 90 38 700 360/04 RMK AO2 T01940050
03949KAQV AQV20190326174010603/26/19 17:40:31  5-MIN KAQV 262340Z AUTO 01006KT 10SM CLR 19/05 A3023 90 38 700 010/06 RMK AO2 T01940050
03949KAQV AQV20190326174510603/26/19 17:45:31  5-MIN KAQV 262345Z AUTO VRB05KT 10SM CLR 19/06 A3023 90 41 600 VRB/05 RMK AO2 T01890056
03949KAQV AQV20190326175013103/26/19 17:50:31  5-MIN KAQV 262350Z AUTO 02006KT 10SM CLR 19/06 A3023 90 41 600 010/06 RMK AO2 SLP237 T01890056 10217 20189 56022
03949KAQV AQV20190326175020703/26/19 17:50:31  5-MIN KAQV 262350Z AUTO 02006KT 10SM CLR 19/06 A3023 90 41 600 010/06 RMK AO2 SLP237 T01890056 10217 20189 5602241 600 010/04 RMK AO2 SLP237 T01890056 10217 20189 5602204 RMK AO2 T01940050
03949KAQV AQV20190326175513103/26/19 17:55:31  5-MIN KAQV 262355Z AUTO 02004KT 10SM CLR 19/06 A3023 90 41 600 010/04 RMK AO2 SLP237 T01890056 10217 20189 56022
03949KAQV AQV20190326180010603/26/19 18:00:31  5-MIN KAQV 270000Z AUTO 02004KT 10SM CLR 18/06 A3023 90 44 500 010/04 RMK AO2 T01830061
03949KAQV AQV20190326180510603/26/19 18:05:31  5-MIN KAQV 270005Z AUTO 02004KT 10SM CLR 18/06 A3023 90 42 500 020/04 RMK AO2 T01830056
03949KAQV AQV20190326181010603/26/19 18:10:31  5-MIN KAQV 270010Z AUTO VRB03KT 10SM CLR 18/06 A3023 90 44 500 VRB/03 RMK AO2 T01780056
03949KAQV AQV20190326181510603/26/19 18:15:31  5-MIN KAQV 270015Z AUTO 02004KT 10SM CLR 17/06 A3023 90 47 400 020/04 RMK AO2 T01720061
03949KAQV AQV20190326181517403/26/19 18:15:31  5-MIN KAQV 270015Z AUTO 02004KT 10SM CLR 17/06 A3023 90 47 400 020/04 RMK AO2 T0172006106 A3023 90 41 600 010/04 RMK AO2 SLP237 T01890056 10217 20189 56022
03949KAQV AQV20190326182010603/26/19 18:20:31  5-MIN KAQV 270020Z AUTO 02003KT 10SM CLR 17/06 A3023 90 49 300 010/03 RMK AO2 T01670061
03949KAQV AQV20190326182510603/26/19 18:25:31  5-MIN KAQV 270025Z AUTO 01003KT 10SM CLR 16/07 A3023 90 53 300 360/03 RMK AO2 T01610067
03949KAQV AQV20190326183010803/26/19 18:30:31  5-MIN KAQV 270030Z AUTO 00000KT 10SM CLR 17/07 A3024 90 49 400 000/00 RMK AO2 T01720067 $
03949KAQV AQV20190326183510803/26/19 18:35:31  5-MIN KAQV 270035Z AUTO 03003KT 10SM CLR 15/07 A3024 90 57 100 020/03 RMK AO2 T01500067 $
03949KAQV AQV20190326184010803/26/19 18:40:31  5-MIN KAQV 270040Z AUTO 02003KT 10SM CLR 15/07 A3024 80 59 100 020/03 RMK AO2 T01500072 $
03949KAQV AQV20190326184510803/26/19 18:45:31  5-MIN KAQV 270045Z AUTO 00000KT 10SM CLR 14/07 A3024 80 61 100 000/00 RMK AO2 T01440072 $
03949KAQV AQV20190326185011303/26/19 18:50:31  5-MIN KAQV 270050Z AUTO 00000KT 10SM CLR 14/07 A3024 80 64 0 000/00 RMK AO2 SLP241 T01390072 $
03949KAQV AQV20190326185511303/26/19 18:55:31  5-MIN KAQV 270055Z AUTO 00000KT 10SM CLR 14/07 A3024 80 64 0 000/00 RMK AO2 SLP242 T01390072 $
03949KAQV AQV20190326190010603/26/19 19:00:31  5-MIN KAQV 270100Z AUTO 00000KT 10SM CLR 13/07 A3025 80 66 0 000/00 RMK AO2 T01330072 $
03949KAQV AQV20190326190510603/26/19 19:05:31  5-MIN KAQV 270105Z AUTO 00000KT 10SM CLR 13/08 A3025 70 69 0 000/00 RMK AO2 T01330078 $
03949KAQV AQV20190326191010603/26/19 19:10:31  5-MIN KAQV 270110Z AUTO 00000KT 10SM CLR 13/08 A3025 70 69 0 000/00 RMK AO2 T01330078 $
03949KAQV AQV20190326191510603/26/19 19:15:31  5-MIN KAQV 270115Z AUTO 00000KT 10SM CLR 13/08 A3025 70 69 0 000/00 RMK AO2 T01330078 $
03949KAQV AQV20190326192010903/26/19 19:20:31  5-MIN KAQV 270120Z AUTO 00000KT 10SM CLR 13/08 A3025 70 71 -100 000/00 RMK AO2 T01280078 $
03949KAQV AQV20190326192510903/26/19 19:25:31  5-MIN KAQV 270125Z AUTO 00000KT 10SM CLR 13/08 A3025 70 71 -100 000/00 RMK AO2 T01280078 $
03949KAQV AQV20190326193010903/26/19 19:30:31  5-MIN KAQV 270130Z AUTO 00000KT 10SM CLR 13/08 A3026 70 71 -100 000/00 RMK AO2 T01280078 $
03949KAQV AQV20190326193510903/26/19 19:35:31  5-MIN KAQV 270135Z AUTO 00000KT 10SM CLR 13/08 A3026 70 71 -100 000/00 RMK AO2 T01280078 $
03949KAQV AQV20190326194010903/26/19 19:40:31  5-MIN KAQV 270140Z AUTO 00000KT 10SM CLR 12/08 A3026 70 74 -200 000/00 RMK AO2 T01220078 $
03949KAQV AQV20190326194510903/26/19 19:45:31  5-MIN KAQV 270145Z AUTO 00000KT 10SM CLR 12/08 A3026 60 77 -200 000/00 RMK AO2 T01220083 $
03949KAQV AQV20190326195011603/26/19 19:50:31  5-MIN KAQV 270150Z AUTO 00000KT 10SM CLR 12/08 A3026 60 80 -200 000/00 RMK AO2 SLP248 T01170083 $
03949KAQV AQV20190326195511603/26/19 19:55:31  5-MIN KAQV 270155Z AUTO 00000KT 10SM CLR 12/08 A3026 60 77 -200 000/00 RMK AO2 SLP248 T01170078 $
03949KAQV AQV20190326200010903/26/19 20:00:31  5-MIN KAQV 270200Z AUTO 00000KT 10SM CLR 12/08 A3027 60 77 -200 000/00 RMK AO2 T01170078 $
03949KAQV AQV20190326200510903/26/19 20:05:31  5-MIN KAQV 270205Z AUTO 00000KT 10SM CLR 11/08 A3027 60 83 -300 000/00 RMK AO2 T01110083 $
03949KAQV AQV20190326201010903/26/19 20:10:31  5-MIN KAQV 270210Z AUTO 00000KT 10SM CLR 11/08 A3027 50 80 -300 000/00 RMK AO2 T01110078 $
03949KAQV AQV20190326201510903/26/19 20:15:31  5-MIN KAQV 270215Z AUTO 00000KT 10SM CLR 11/08 A3027 50 80 -300 000/00 RMK AO2 T01110078 $
03949KAQV AQV20190326202010903/26/19 20:20:31  5-MIN KAQV 270220Z AUTO 00000KT 10SM CLR 11/08 A3027 50 80 -300 000/00 RMK AO2 T01110078 $
03949KAQV AQV20190326202510903/26/19 20:25:31  5-MIN KAQV 270225Z AUTO 00000KT 10SM CLR 11/08 A3027 50 80 -300 000/00 RMK AO2 T01110078 $
03949KAQV AQV20190326203010903/26/19 20:30:31  5-MIN KAQV 270230Z AUTO 00000KT 10SM CLR 11/08 A3027 50 83 -400 000/00 RMK AO2 T01060078 $
03949KAQV AQV20190326203510903/26/19 20:35:31  5-MIN KAQV 270235Z AUTO 00000KT 10SM CLR 11/08 A3028 50 80 -300 000/00 RMK AO2 T01110078 $
03949KAQV AQV20190326204010903/26/19 20:40:31  5-MIN KAQV 270240Z AUTO 00000KT 10SM CLR 11/08 A3028 50 80 -300 000/00 RMK AO2 T01110078 $
03949KAQV AQV20190326204510903/26/19 20:45:31  5-MIN KAQV 270245Z AUTO 00000KT 10SM CLR 11/07 A3028 50 80 -400 000/00 RMK AO2 T01060072 $
03949KAQV AQV20190326205012203/26/19 20:50:31  5-MIN KAQV 270250Z AUTO 03003KT 10SM CLR 11/07 A3028 50 80 -400 030/03 RMK AO2 SLP253 T01060072 53002 $
03949KAQV AQV20190326205512203/26/19 20:55:31  5-MIN KAQV 270255Z AUTO 00000KT 10SM CLR 11/07 A3028 50 80 -400 000/00 RMK AO2 SLP253 T01060072 53002 $
03949KAQV AQV20190326210010903/26/19 21:00:31  5-MIN KAQV 270300Z AUTO 00000KT 10SM CLR 11/07 A3028 50 77 -400 000/00 RMK AO2 T01060067 $
03949KAQV AQV20190326210510903/26/19 21:05:31  5-MIN KAQV 270305Z AUTO 00000KT 10SM CLR 11/07 A3028 40 80 -400 000/00 RMK AO2 T01060072 $
03949KAQV AQV20190326211010903/26/19 21:10:31  5-MIN KAQV 270310Z AUTO 00000KT 10SM CLR 11/07 A3028 40 80 -400 000/00 RMK AO2 T01060072 $
03949KAQV AQV20190326211510903/26/19 21:15:31  5-MIN KAQV 270315Z AUTO 00000KT 10SM CLR 10/07 A3028 40 83 -500 000/00 RMK AO2 T01000072 $
03949KAQV AQV20190326212010903/26/19 21:20:31  5-MIN KAQV 270320Z AUTO 00000KT 10SM CLR 10/07 A3029 40 83 -500 000/00 RMK AO2 T01000072 $
03949KAQV AQV20190326212510903/26/19 21:25:31  5-MIN KAQV 270325Z AUTO 00000KT 10SM CLR 10/07 A3029 40 80 -500 000/00 RMK AO2 T01000067 $
03949KAQV AQV20190326213010903/26/19 21:30:31  5-MIN KAQV 270330Z AUTO 00000KT 10SM CLR 10/07 A3029 40 80 -500 000/00 RMK AO2 T01000067 $
03949KAQV AQV20190326213510903/26/19 21:35:31  5-MIN KAQV 270335Z AUTO 00000KT 10SM CLR 10/07 A3029 40 83 -500 000/00 RMK AO2 T01000072 $
03949KAQV AQV20190326214010903/26/19 21:40:31  5-MIN KAQV 270340Z AUTO 00000KT 10SM CLR 10/07 A3029 30 80 -500 000/00 RMK AO2 T01000067 $
03949KAQV AQV20190326214510903/26/19 21:45:31  5-MIN KAQV 270345Z AUTO 00000KT 10SM CLR 10/07 A3029 30 80 -500 000/00 RMK AO2 T01000067 $
03949KAQV AQV20190326215011603/26/19 21:50:31  5-MIN KAQV 270350Z AUTO 00000KT 10SM CLR 10/07 A3029 30 80 -500 000/00 RMK AO2 SLP259 T01000067 $
03949KAQV AQV20190326215511603/26/19 21:55:31  5-MIN KAQV 270355Z AUTO 00000KT 10SM CLR 09/07 A3029 30 83 -500 000/00 RMK AO2 SLP259 T00940067 $
03949KAQV AQV20190326220010903/26/19 22:00:31  5-MIN KAQV 270400Z AUTO 00000KT 10SM CLR 09/07 A3029 30 83 -500 000/00 RMK AO2 T00940067 $
03949KAQV AQV20190326220510903/26/19 22:05:31  5-MIN KAQV 270405Z AUTO 00000KT 10SM CLR 09/06 A3029 30 79 -500 000/00 RMK AO2 T00940061 $
03949KAQV AQV20190326221010903/26/19 22:10:31  5-MIN KAQV 270410Z AUTO 00000KT 10SM CLR 09/07 A3029 30 83 -500 000/00 RMK AO2 T00940067 $
03949KAQV AQV20190326221510903/26/19 22:15:31  5-MIN KAQV 270415Z AUTO 00000KT 10SM CLR 09/07 A3029 30 83 -500 000/00 RMK AO2 T00940067 $
03949KAQV AQV20190326222010903/26/19 22:20:31  5-MIN KAQV 270420Z AUTO 00000KT 10SM CLR 09/07 A3029 30 83 -500 000/00 RMK AO2 T00940067 $
03949KAQV AQV20190326222510903/26/19 22:25:31  5-MIN KAQV 270425Z AUTO 00000KT 10SM CLR 09/07 A3030 30 86 -600 000/00 RMK AO2 T00890067 $
03949KAQV AQV20190326223010903/26/19 22:30:31  5-MIN KAQV 270430Z AUTO 00000KT 10SM CLR 09/07 A3030 30 86 -600 000/00 RMK AO2 T00890067 $
03949KAQV AQV20190326223510903/26/19 22:35:31  5-MIN KAQV 270435Z AUTO 00000KT 10SM CLR 09/07 A3030 30 86 -600 000/00 RMK AO2 T00890067 $
03949KAQV AQV20190326224010903/26/19 22:40:31  5-MIN KAQV 270440Z AUTO 00000KT 10SM CLR 09/07 A3029 30 86 -600 000/00 RMK AO2 T00890067 $
03949KAQV AQV20190326224510903/26/19 22:45:31  5-MIN KAQV 270445Z AUTO 00000KT 10SM CLR 09/07 A3029 30 86 -600 000/00 RMK AO2 T00890067 $
03949KAQV AQV20190326225011603/26/19 22:50:31  5-MIN KAQV 270450Z AUTO 00000KT 10SM CLR 09/07 A3029 30 86 -600 000/00 RMK AO2 SLP259 T00890067 $
03949KAQV AQV20190326225511603/26/19 22:55:31  5-MIN KAQV 270455Z AUTO 00000KT 10SM CLR 09/07 A3029 30 86 -600 000/00 RMK AO2 SLP259 T00890067 $
03949KAQV AQV20190326230010903/26/19 23:00:31  5-MIN KAQV 270500Z AUTO 00000KT 10SM CLR 09/07 A3030 30 86 -600 000/00 RMK AO2 T00890067 $
03949KAQV AQV20190326230510903/26/19 23:05:31  5-MIN KAQV 270505Z AUTO 00000KT 10SM CLR 08/07 A3030 30 89 -700 000/00 RMK AO2 T00830067 $
03949KAQV AQV20190326231010903/26/19 23:10:31  5-MIN KAQV 270510Z AUTO 00000KT 10SM CLR 08/07 A3030 30 89 -700 000/00 RMK AO2 T00830067 $
03949KAQV AQV20190326231510903/26/19 23:15:31  5-MIN KAQV 270515Z AUTO 00000KT 10SM CLR 08/07 A3030 30 89 -700 000/00 RMK AO2 T00830067 $
03949KAQV AQV20190326232010903/26/19 23:20:31  5-MIN KAQV 270520Z AUTO 00000KT 10SM CLR 09/07 A3030 30 86 -600 000/00 RMK AO2 T00890067 $
03949KAQV AQV20190326232510903/26/19 23:25:31  5-MIN KAQV 270525Z AUTO 00000KT 10SM CLR 08/07 A3030 30 89 -700 000/00 RMK AO2 T00830067 $
03949KAQV AQV20190326233010903/26/19 23:30:31  5-MIN KAQV 270530Z AUTO 00000KT 10SM CLR 08/07 A3030 30 93 -700 000/00 RMK AO2 T00780067 $
03949KAQV AQV20190326233510903/26/19 23:35:31  5-MIN KAQV 270535Z AUTO 00000KT 10SM CLR 08/07 A3030 30 93 -700 000/00 RMK AO2 T00780067 $
03949KAQV AQV20190326234010903/26/19 23:40:31  5-MIN KAQV 270540Z AUTO 00000KT 10SM CLR 08/06 A3030 30 89 -700 000/00 RMK AO2 T00780061 $
03949KAQV AQV20190326234510903/26/19 23:45:31  5-MIN KAQV 270545Z AUTO 00000KT 10SM CLR 08/07 A3030 30 89 -700 000/00 RMK AO2 T00830067 $
03949KAQV AQV20190326235014403/26/19 23:50:31  5-MIN KAQV 270550Z AUTO 00000KT 10SM CLR 08/06 A3030 30 86 -700 000/00 RMK AO2 SLP260 T00830061 10183 20078 402170078 51016 $
03949KAQV AQV20190326235514403/26/19 23:55:31  5-MIN KAQV 270555Z AUTO 00000KT 10SM CLR 08/06 A3030 30 86 -700 000/00 RMK AO2 SLP260 T00830061 10183 20078 402170078 51016 $
03949KAQV AQV20190327000010903/27/19 00:00:31  5-MIN KAQV 270600Z AUTO 00000KT 10SM CLR 08/06 A3030 30 89 -700 000/00 RMK AO2 T00780061 $
03949KAQV AQV20190327000510903/27/19 00:05:31  5-MIN KAQV 270605Z AUTO 00000KT 10SM CLR 08/06 A3030 30 89 -700 000/00 RMK AO2 T00780061 $
03949KAQV AQV20190327001010903/27/19 00:10:31  5-MIN KAQV 270610Z AUTO 00000KT 10SM CLR 08/06 A3029 30 89 -700 000/00 RMK AO2 T00780061 $
03949KAQV AQV20190327001510903/27/19 00:15:31  5-MIN KAQV 270615Z AUTO 00000KT 10SM CLR 08/06 A3029 30 89 -700 000/00 RMK AO2 T00780061 $
03949KAQV AQV20190327002010903/27/19 00:20:31  5-MIN KAQV 270620Z AUTO 00000KT 10SM CLR 08/06 A3029 30 89 -700 000/00 RMK AO2 T00780061 $
03949KAQV AQV20190327002510903/27/19 00:25:31  5-MIN KAQV 270625Z AUTO 00000KT 10SM CLR 07/06 A3029 30 93 -800 000/00 RMK AO2 T00720061 $
03949KAQV AQV20190327003010903/27/19 00:30:31  5-MIN KAQV 270630Z AUTO 00000KT 10SM CLR 07/06 A3030 30 89 -800 000/00 RMK AO2 T00720056 $
03949KAQV AQV20190327003510903/27/19 00:35:31  5-MIN KAQV 270635Z AUTO 00000KT 10SM CLR 07/06 A3030 30 93 -800 000/00 RMK AO2 T00720061 $
03949KAQV AQV20190327004010903/27/19 00:40:31  5-MIN KAQV 270640Z AUTO 00000KT 10SM CLR 07/06 A3030 30 93 -800 000/00 RMK AO2 T00720061 $
03949KAQV AQV20190327004510903/27/19 00:45:31  5-MIN KAQV 270645Z AUTO 00000KT 10SM CLR 08/06 A3029 30 86 -700 000/00 RMK AO2 T00780056 $
03949KAQV AQV20190327005011603/27/19 00:50:31  5-MIN KAQV 270650Z AUTO 00000KT 10SM CLR 07/06 A3029 30 89 -800 000/00 RMK AO2 SLP258 T00720056 $
03949KAQV AQV20190327005511603/27/19 00:55:31  5-MIN KAQV 270655Z AUTO 00000KT 10SM CLR 08/06 A3029 30 86 -700 000/00 RMK AO2 SLP257 T00780056 $
03949KAQV AQV20190327010010903/27/19 01:00:31  5-MIN KAQV 270700Z AUTO 00000KT 10SM CLR 08/06 A3029 30 82 -700 000/00 RMK AO2 T00830056 $
03949KAQV AQV20190327010510903/27/19 01:05:31  5-MIN KAQV 270705Z AUTO 00000KT 10SM CLR 08/06 A3029 30 82 -700 000/00 RMK AO2 T00830056 $
03949KAQV AQV20190327011010903/27/19 01:10:31  5-MIN KAQV 270710Z AUTO 00000KT 10SM CLR 08/06 A3029 40 82 -700 000/00 RMK AO2 T00830056 $
03949KAQV AQV20190327011510903/27/19 01:15:31  5-MIN KAQV 270715Z AUTO 00000KT 10SM CLR 08/06 A3029 40 86 -700 000/00 RMK AO2 T00780056 $
03949KAQV AQV20190327012010903/27/19 01:20:31  5-MIN KAQV 270720Z AUTO 00000KT 10SM CLR 08/06 A3029 40 86 -700 000/00 RMK AO2 T00780056 $
03949KAQV AQV20190327012510903/27/19 01:25:31  5-MIN KAQV 270725Z AUTO 00000KT 10SM CLR 08/06 A3029 40 86 -700 000/00 RMK AO2 T00780056 $
03949KAQV AQV20190327013010903/27/19 01:30:31  5-MIN KAQV 270730Z AUTO 00000KT 10SM CLR 07/06 A3029 40 89 -800 000/00 RMK AO2 T00720056 $
03949KAQV AQV20190327013510903/27/19 01:35:31  5-MIN KAQV 270735Z AUTO 00000KT 10SM CLR 08/06 A3029 40 86 -700 000/00 RMK AO2 T00780056 $
03949KAQV AQV20190327014010903/27/19 01:40:31  5-MIN KAQV 270740Z AUTO 00000KT 10SM CLR 07/05 A3029 40 86 -800 000/00 RMK AO2 T00720050 $
03949KAQV AQV20190327014510903/27/19 01:45:31  5-MIN KAQV 270745Z AUTO 00000KT 10SM CLR 07/05 A3029 40 86 -800 000/00 RMK AO2 T00720050 $
03949KAQV AQV20190327015011603/27/19 01:50:31  5-MIN KAQV 270750Z AUTO 00000KT 10SM CLR 07/05 A3029 40 86 -800 000/00 RMK AO2 SLP255 T00720050 $
03949KAQV AQV20190327015511603/27/19 01:55:31  5-MIN KAQV 270755Z AUTO 00000KT 10SM CLR 07/05 A3028 40 86 -800 000/00 RMK AO2 SLP254 T00720050 $
03949KAQV AQV20190327020010903/27/19 02:00:31  5-MIN KAQV 270800Z AUTO 00000KT 10SM CLR 07/05 A3028 40 86 -800 000/00 RMK AO2 T00720050 $
03949KAQV AQV20190327020510903/27/19 02:05:31  5-MIN KAQV 270805Z AUTO 00000KT 10SM CLR 07/05 A3028 50 86 -800 000/00 RMK AO2 T00720050 $
03949KAQV AQV20190327021010903/27/19 02:10:31  5-MIN KAQV 270810Z AUTO 00000KT 10SM CLR 07/05 A3028 50 89 -900 000/00 RMK AO2 T00670050 $
03949KAQV AQV20190327021514903/27/19 02:15:31  5-MIN KAQV 270815Z AUTO 00000KT 10SM 5:31AO2 SLP272 T01390033 AUTO 00000KT 10SM CLR 13/04 A3034 0 52 -100 000/00 RMK AO2 T01330039
03949KAQV AQV20190327081010603/27/19 08:10:31  5-MIN KAQV 271410Z AUTO VRB03KT 10SM CLR 12/04 A3033 0 58 -300 VRB/03 RMK AO2 T01170039
03949KAQV AQV20190327081510603/27/19 08:15:31  5-MIN KAQV 271415Z AUTO VRB03KT 10SM CLR 12/04 A3033 0 58 -300 VRB/03 RMK AO2 T01170039
03949KAQV AQV20190327082010603/27/19 08:20:31  5-MIN KAQV 271420Z AUTO VRB03KT 10SM CLR 12/04 A3033 0 56 -200 VRB/03 RMK AO2 T01220039
03949KAQV AQV20190327082510603/27/19 08:25:31  5-MIN KAQV 271425Z AUTO 00000KT 10SM CLR 12/04 A3033 0 56 -200 000/00 RMK AO2 T01220039
03949KAQV AQV20190327083010603/27/19 08:30:31  5-MIN KAQV 271430Z AUTO 00000KT 10SM CLR 13/04 A3033 0 54 -200 000/00 RMK AO2 T01280039
03949KAQV AQV20190327083510603/27/19 08:35:31  5-MIN KAQV 271435Z AUTO 00000KT 10SM CLR 13/04 A3034 0 52 -100 000/00 RMK AO2 T01330039
03949KAQV AQV20190327084010603/27/19 08:40:31  5-MIN KAQV 271440Z AUTO VRB04KT 10SM CLR 13/04 A3034 0 52 -100 VRB/04 RMK AO2 T01330039
03949KAQV AQV20190327084510303/27/19 08:45:31  5-MIN KAQV 271445Z AUTO VRB04KT 10SM CLR 14/04 A3033 0 50 0 VRB/04 RMK AO2 T01390039
03949KAQV AQV20190327084514203/27/19 08:45:31  5-MIN KAQV 271445Z AU3/27/19 09:10:31  5-MIN KAQV 271510Z AUTO VRB03KT 10SM CLR 14/03 A3034 0 45 0 VRB/03 RMK AO2 T01440028
03949KAQV AQV20190327085011603/27/19 08:50:31  5-MIN KAQV 271450Z AUTO VRB05KT 10SM CLR 14/03 A3033 0 48 0 VRB/05 RMK AO2 SLP272 T01390033 53010
03949KAQV AQV20190327085510603/27/19 08:55:31  5-MIN KAQV 271455Z AUTO 10SM CLR 14/03 A3033 0 48 0 M /M RMK AO2 SLP272 T01390033 53010
03949KAQV AQV20190327090010303/27/19 09:00:31  5-MIN KAQV 271500Z AUTO VRB05KT 10SM CLR 14/03 A3033 0 47 0 VRB/05 RMK AO2 T01390028
03949KAQV AQV20190327090510303/27/19 09:05:31  5-MIN KAQV 271505Z AUTO VRB04KT 10SM CLR 14/03 A3034 0 45 0 VRB/04 RMK AO2 T01440028
03949KAQV AQV20190327091010303/27/19 09:10:31  5-MIN KAQV 271510Z AUTO VRB03KT 10SM CLR 14/03 A3034 0 45 0 VRB/03 RMK AO2 T01440028
03949KAQV AQV20190327091510503/27/19 09:15:31  5-MIN KAQV 271515Z AUTO VRB06KT 10SM CLR 14/03 A3034 -10 45 0 VRB/06 RMK AO2 T01440028
03949KAQV AQV20190327092010503/27/19 09:20:31  5-MIN KAQV 271520Z AUTO VRB05KT 10SM CLR 14/02 A3034 -10 43 0 VRB/05 RMK AO2 T01440022
03949KAQV AQV20190327092510503/27/19 09:25:31  5-MIN KAQV 271525Z AUTO VRB04KT 10SM CLR 15/03 A3034 -10 43 0 VRB/04 RMK AO2 T01500028
03949KAQV AQV20190327093010703/27/19 09:30:31  5-MIN KAQV 271530Z AUTO VRB04KT 10SM CLR 16/02 A3035 -10 40 100 VRB/04 RMK AO2 T01560022
03949KAQV AQV20190327093510503/27/19 09:35:31  5-MIN KAQV 271535Z AUTO VRB03KT 10SM CLR 15/02 A3035 -10 42 0 VRB/03 RMK AO2 T01500022
03949KAQV AQV20190327094010703/27/19 09:40:31  5-MIN KAQV 271540Z AUTO VRB03KT 10SM CLR 16/02 A3035 -10 39 100 VRB/03 RMK AO2 T01560017
03949KAQV AQV20190327094510703/27/19 09:45:31  5-MIN KAQV 271545Z AUTO 00000KT 10SM CLR 16/02 A3035 -10 39 100 000/00 RMK AO2 T01610022
03949KAQV AQV20190327095011403/27/19 09:50:31  5-MIN KAQV 271550Z AUTO VRB03KT 10SM CLR 17/03 A3035 -10 39 200 VRB/03 RMK AO2 SLP278 T01670028
03949KAQV AQV20190327095511403/27/19 09:55:31  5-MIN KAQV 271555Z AUTO VRB03KT 10SM CLR 16/02 A3035 -10 37 200 VRB/03 RMK AO2 SLP277 T01610017
03949KAQV AQV20190327100010703/27/19 10:00:31  5-MIN KAQV 271600Z AUTO 05005KT 10SM CLR 17/01 A3035 -10 34 200 050/05 RMK AO2 T01670011
03949KAQV AQV20190327100510703/27/19 10:05:31  5-MIN KAQV 271605Z AUTO 04004KT 10SM CLR 17/01 A3035 -10 33 200 040/04 RMK AO2 T01670006
03949KAQV AQV20190327101010703/27/19 10:10:31  5-MIN KAQV 271610Z AUTO 01006KT 10SM CLR 17/00 A3035 -10 31 300 360/06 RMK AO2 T01720000
03949KAQV AQV20190327101510703/27/19 10:15:31  5-MIN KAQV 271615Z AUTO 05006KT 10SM CLR 17/00 A3035 -10 31 300 050/06 RMK AO2 T01720000
03949KAQV AQV20190327102010703/27/19 10:20:31  5-MIN KAQV 271620Z AUTO VRB04KT 10SM CLR 17/00 A3034 -10 31 300 VRB/04 RMK AO2 T01720000
03949KAQV AQV20190327102510703/27/19 10:25:31  5-MIN KAQV 271625Z AUTO VRB06KT 10SM CLR 18/00 A3034 -10 30 400 VRB/06 RMK AO2 T01780000
03949KAQV AQV20190327103010703/27/19 10:30:31  5-MIN KAQV 271630Z AUTO VRB04KT 10SM CLR 18/00 A3034 -10 30 400 VRB/04 RMK AO2 T01780000
03949KAQV AQV20190327103509703/27/19 10:35:31  5-MIN KAQV 271635Z AUTO 10SM CLR 18/00 A3035 -10 30 300 M /M RMK AO2 T01780000
03949KAQV AQV20190327104010703/27/19 10:40:31  5-MIN KAQV 271640Z AUTO VRB04KT 10SM CLR 18/01 A3035 -10 31 300 VRB/04 RMK AO2 T01780006
03949KAQV AQV20190327104510703/27/19 10:45:31  5-MIN KAQV 271645Z AUTO 00000KT 10SM CLR 17/01 A3035 -10 32 300 000/00 RMK AO2 T01720006
03949KAQV AQV20190327105011403/27/19 10:50:31  5-MIN KAQV 271650Z AUTO 03004KT 10SM CLR 18/01 A3034 -10 32 400 020/04 RMK AO2 SLP276 T01780011
03949KAQV AQV20190327105511403/27/19 10:55:31  5-MIN KAQV 271655Z AUTO VRB05KT 10SM CLR 19/01 A3034 -10 30 500 VRB/05 RMK AO2 SLP274 T01890011
03949KAQV AQV20190327110010703/27/19 11:00:31  5-MIN KAQV 271700Z AUTO VRB04KT 10SM CLR 19/01 A3034 -10 29 500 VRB/04 RMK AO2 T01890006
03949KAQV AQV20190327110510703/27/19 11:05:31  5-MIN KAQV 271705Z AUTO VRB06KT 10SM CLR 18/01 A3034 -10 31 400 VRB/06 RMK AO2 T01780006
03949KAQV AQV20190327111010503/27/19 11:10:31  5-MIN KAQV 271710Z AUTO VRB05KT 10SM CLR 18/01 A3034 0 30 400 VRB/05 RMK AO2 T01830006
03949KAQV AQV20190327111510503/27/19 11:15:31  5-MIN KAQV 271715Z AUTO 00000KT 10SM CLR 18/01 A3034 0 31 400 000/00 RMK AO2 T01830011
03949KAQV AQV20190327112010503/27/19 11:20:31  5-MIN KAQV 271720Z AUTO 00000KT 10SM CLR 19/01 A3033 0 30 500 000/00 RMK AO2 T01890011
03949KAQV AQV20190327112509503/27/19 11:25:31  5-MIN KAQV 271725Z AUTO 10SM CLR 19/01 A3034 0 30 500 M /M RMK AO2 T01890011
03949KAQV AQV20190327113010503/27/19 11:30:31  5-MIN KAQV 271730Z AUTO VRB04KT 10SM CLR 19/00 A3033 0 28 500 VRB/04 RMK AO2 T01890000
03949KAQV AQV20190327113510603/27/19 11:35:31  5-MIN KAQV 271735Z AUTO VRB05KT 10SM CLR 19/M01 A3033 0 26 500 VRB/05 RMK AO2 T01891006
03949KAQV AQV20190327114010503/27/19 11:40:31  5-MIN KAQV 271740Z AUTO VRB05KT 10SM CLR 19/00 A3033 0 27 600 VRB/05 RMK AO2 T01940000
03949KAQV AQV20190327114510503/27/19 11:45:31  5-MIN KAQV 271745Z AUTO VRB04KT 10SM CLR 19/01 A3033 0 28 600 VRB/04 RMK AO2 T01940006
03949KAQV AQV20190327115013003/27/19 11:50:31  5-MIN KAQV 271750Z AUTO VRB04KT 10SM CLR 19/01 A3033 0 28 600 VRB/04 RMK AO2 SLP269 T01940006 10200 20044 51010
03949KAQV AQV20190327115513103/27/19 11:55:31  5-MIN KAQV 271755Z AUTO VRB04KT 10SM CLR 19/00 A3032 10 28 500 VRB/04 RMK AO2 SLP268 T01890000 10200 20044 51010
03949KAQV AQV20190327120010603/27/19 12:00:31  5-MIN KAQV 271800Z AUTO VRB05KT 10SM CLR 20/M01 A3033 0 25 600 VRB/05 RMK AO2 T02001006
03949KAQV AQV20190327120510703/27/19 12:05:31  5-MIN KAQV 271805Z AUTO VRB03KT 10SM CLR 19/M02 A3032 10 24 600 VRB/03 RMK AO2 T01941017
03949KAQV AQV20190327121010603/27/19 12:10:31  5-MIN KAQV 271810Z AUTO VRB04KT 10SM CLR 19/M02 A3032 0 24 600 VRB/04 RMK AO2 T01941017
03949KAQV AQV20190327121510703/27/19 12:15:31  5-MIN KAQV 271815Z AUTO 28003KT 10SM CLR 20/M01 A3032 10 24 600 270/03 RMK AO2 T02001011
03949KAQV AQV20190327122010603/27/19 12:20:31  5-MIN KAQV 271820Z AUTO VRB03KT 9SM CLR 21/M01 A3031 10 24 700 VRB/03 RMK AO2 T02061006
03949KAQV AQV20190327122509603/27/19 12:25:31  5-MIN KAQV 271825Z AUTO 9SM CLR 21/M01 A3031 20 23 700 M /M RMK AO2 T02061011
03949KAQV AQV20190327123010703/27/19 12:30:31  5-MIN KAQV 271830Z AUTO VRB04KT 10SM CLR 21/M02 A3031 20 22 700 VRB/04 RMK AO2 T02061017
03949KAQV AQV20190327123510703/27/19 12:35:31  5-MIN KAQV 271835Z AUTO 00000KT 10SM CLR 20/M02 A3030 20 22 700 000/00 RMK AO2 T02001022
03949KAQV AQV20190327124010703/27/19 12:40:31  5-MIN KAQV 271840Z AUTO 06006KT 10SM CLR 21/M02 A3030 30 21 700 050/06 RMK AO2 T02061022
03949KAQV AQV20190327124510703/27/19 12:45:31  5-MIN KAQV 271845Z AUTO VRB04KT 10SM CLR 21/M02 A3030 30 21 800 VRB/04 RMK AO2 T02111017
03949KAQV AQV20190327125011403/27/19 12:50:31  5-MIN KAQV 271850Z AUTO VRB03KT 10SM CLR 21/M02 A3030 30 21 700 VRB/03 RMK AO2 SLP259 T02061022
03949KAQV AQV20190327125511403/27/19 12:55:31  5-MIN KAQV 271855Z AUTO VRB04KT 10SM CLR 21/M02 A3029 30 21 800 VRB/04 RMK AO2 SLP258 T02111017
03949KAQV AQV20190327130010703/27/19 13:00:31  5-MIN KAQV 271900Z AUTO VRB03KT 10SM CLR 21/M02 A3029 30 20 800 VRB/03 RMK AO2 T02111022
03949KAQV AQV20190327130510703/27/19 13:05:31  5-MIN KAQV 271905Z AUTO 00000KT 10SM CLR 21/M03 A3029 40 20 700 000/00 RMK AO2 T02061028
03949KAQV AQV20190327131010703/27/19 13:10:31  5-MIN KAQV 271910Z AUTO VRB03KT 10SM CLR 22/M01 A3029 40 21 900 VRB/03 RMK AO2 T02171011
03949KAQV AQV20190327131510703/27/19 13:15:31  5-MIN KAQV 271915Z AUTO 00000KT 10SM CLR 21/M01 A3028 40 22 800 000/00 RMK AO2 T02111011
03949KAQV AQV20190327132010703/27/19 13:20:31  5-MIN KAQV 271920Z AUTO VRB03KT 10SM CLR 22/M01 A3028 50 21 900 VRB/03 RMK AO2 T02171011
03949KAQV AQV20190327132510703/27/19 13:25:31  5-MIN KAQV 271925Z AUTO 01005KT 10SM CLR 22/M02 A3028 50 20 900 010/05 RMK AO2 T02171022
03949KAQV AQV20190327133010703/27/19 13:30:31  5-MIN KAQV 271930Z AUTO 02005KT 10SM CLR 22/M02 A3027 50 20 900 020/05 RMK AO2 T02171017
03949KAQV AQV20190327133510703/27/19 13:35:31  5-MIN KAQV 271935Z AUTO VRB05KT 10SM CLR 22/M02 A3027 50 19 900 VRB/05 RMK AO2 T02221022
03949KAQV AQV20190327134010803/27/19 13:40:31  5-MIN KAQV 271940Z AUTO 00000KT 10SM CLR 23/M02 A3026 60 19 1000 000/00 RMK AO2 T02281017
03949KAQV AQV20190327134509703/27/19 13:45:31  5-MIN KAQV 271945Z AUTO 10SM CLR 22/M03 A3026 60 19 900 M /M RMK AO2 T02171028
03949KAQV AQV20190327135011503/27/19 13:50:31  5-MIN KAQV 271950Z AUTO 00000KT 10SM CLR 22/M02 A3026 70 19 1000 000/00 RMK AO2 SLP246 T02221022
03949KAQV AQV20190327135511403/27/19 13:55:31  5-MIN KAQV 271955Z AUTO 00000KT 10SM CLR 22/M02 A3025 70 20 900 000/00 RMK AO2 SLP244 T02171022
03949KAQV AQV20190327140010803/27/19 14:00:31  5-MIN KAQV 272000Z AUTO VRB04KT 10SM CLR 22/M01 A3025 70 21 1000 VRB/04 RMK AO2 T02221011
03949KAQV AQV20190327140510703/27/19 14:05:31  5-MIN KAQV 272005Z AUTO 00000KT 10SM CLR 22/M01 A3024 80 21 900 000/00 RMK AO2 T02171011
03949KAQV AQV20190327141010803/27/19 14:10:31  5-MIN KAQV 272010Z AUTO 00000KT 10SM CLR 22/M01 A3025 80 21 1000 000/00 RMK AO2 T02221011
03949KAQV AQV20190327141510703/27/19 14:15:31  5-MIN KAQV 272015Z AUTO VRB03KT 10SM CLR 23/00 A3025 80 21 1100 VRB/03 RMK AO2 T02330000
03949KAQV AQV20190327142010703/27/19 14:20:31  5-MIN KAQV 272020Z AUTO VRB03KT 10SM CLR 23/00 A3024 80 22 1000 VRB/03 RMK AO2 T02280000
03949KAQV AQV20190327142510703/27/19 14:25:31  5-MIN KAQV 272025Z AUTO VRB05KT 10SM CLR 23/01 A3024 80 22 1000 VRB/05 RMK AO2 T02280006
03949KAQV AQV20190327143010703/27/19 14:30:31  5-MIN KAQV 272030Z AUTO VRB03KT 10SM CLR 22/00 A3024 80 22 1000 VRB/03 RMK AO2 T02220000
03949KAQV AQV20190327143510703/27/19 14:35:31  5-MIN KAQV 272035Z AUTO VRB03KT 10SM CLR 22/01 A3024 80 23 1000 VRB/03 RMK AO2 T02220006
03949KAQV AQV20190327144010703/27/19 14:40:31  5-MIN KAQV 272040Z AUTO 07005KT 10SM CLR 22/00 A3024 80 22 1000 070/05 RMK AO2 T02220000
03949KAQV AQV20190327144510703/27/19 14:45:31  5-MIN KAQV 272045Z AUTO VRB03KT 10SM CLR 22/01 A3023 90 23 1000 VRB/03 RMK AO2 T02220006
03949KAQV AQV20190327145012003/27/19 14:50:31  5-MIN KAQV 272050Z AUTO 00000KT 10SM CLR 22/00 A3023 90 22 1000 000/00 RMK AO2 SLP237 T02220000 58003
03949KAQV AQV20190327145512003/27/19 14:55:31  5-MIN KAQV 272055Z AUTO VRB04KT 10SM CLR 22/00 A3023 90 22 1000 VRB/04 RMK AO2 SLP237 T02220000 58003
03949KAQV AQV20190327150010703/27/19 15:00:31  5-MIN KAQV 272100Z AUTO VRB04KT 10SM CLR 22/00 A3023 90 22 1000 VRB/04 RMK AO2 T02220000
03949KAQV AQV20190327150510703/27/19 15:05:31  5-MIN KAQV 272105Z AUTO VRB03KT 10SM CLR 22/00 A3023 90 22 1000 VRB/03 RMK AO2 T02220000
03949KAQV AQV20190327151010703/27/19 15:10:31  5-MIN KAQV 272110Z AUTO 00000KT 10SM CLR 23/01 A3023 90 22 1100 000/00 RMK AO2 T02280006
03949KAQV AQV20190327151509703/27/19 15:15:31  5-MIN KAQV 272115Z AUTO 10SM CLR 23/00 A3023 90 22 1100 M /M RMK AO2 T02280000
03949KAQV AQV20190327152010803/27/19 15:20:31  5-MIN KAQV 272120Z AUTO VRB03KT 10SM CLR 22/00 A3022 100 22 1000 VRB/03 RMK AO2 T02220000
03949KAQV AQV20190327152510803/27/19 15:25:31  5-MIN KAQV 272125Z AUTO VRB04KT 10SM CLR 23/01 A3022 100 22 1100 VRB/04 RMK AO2 T02280006
03949KAQV AQV20190327153010803/27/19 15:30:31  5-MIN KAQV 272130Z AUTO 06004KT 10SM CLR 23/00 A3022 100 22 1100 060/04 RMK AO2 T02280000
03949KAQV AQV20190327153510903/27/19 15:35:31  5-MIN KAQV 272135Z AUTO VRB03KT 10SM CLR 23/M01 A3022 100 21 1100 VRB/03 RMK AO2 T02281006
03949KAQV AQV20190327154010903/27/19 15:40:31  5-MIN KAQV 272140Z AUTO VRB05KT 10SM CLR 23/M01 A3022 100 20 1100 VRB/05 RMK AO2 T02281011
03949KAQV AQV20190327154510903/27/19 15:45:31  5-MIN KAQV 272145Z AUTO 00000KT 10SM CLR 23/M01 A3022 100 21 1100 000/00 RMK AO2 T02281006
03949KAQV AQV20190327155011603/27/19 15:50:31  5-MIN KAQV 272150Z AUTO 00000KT 10SM CLR 23/M01 A3022 100 20 1100 000/00 RMK AO2 SLP233 T02281011
03949KAQV AQV20190327155511603/27/19 15:55:31  5-MIN KAQV 272155Z AUTO 00000KT 10SM CLR 22/M01 A3022 100 21 1000 000/00 RMK AO2 SLP232 T02221011
03949KAQV AQV20190327160010803/27/19 16:00:31  5-MIN KAQV 272200Z AUTO VRB04KT 10SM CLR 23/00 A3022 100 22 1100 VRB/04 RMK AO2 T02280000
03949KAQV AQV20190327160510903/27/19 16:05:31  5-MIN KAQV 272205Z AUTO VRB03KT 10SM CLR 23/M01 A3022 100 21 1100 VRB/03 RMK AO2 T02281006
03949KAQV AQV20190327161010903/27/19 16:10:31  5-MIN KAQV 272210Z AUTO 00000KT 10SM CLR 23/M01 A3022 100 21 1100 000/00 RMK AO2 T02281006
03949KAQV AQV20190327161510903/27/19 16:15:31  5-MIN KAQV 272215Z AUTO 00000KT 10SM CLR 22/M01 A3022 100 21 1000 000/00 RMK AO2 T02221011
03949KAQV AQV20190327162010903/27/19 16:20:31  5-MIN KAQV 272220Z AUTO 00000KT 10SM CLR 23/M02 A3021 110 19 1100 000/00 RMK AO2 T02281017
03949KAQV AQV20190327162510903/27/19 16:25:31  5-MIN KAQV 272225Z AUTO 00000KT 10SM CLR 23/M01 A3021 110 20 1100 000/00 RMK AO2 T02331006
03949KAQV AQV20190327163010903/27/19 16:30:31  5-MIN KAQV 272230Z AUTO 03003KT 10SM CLR 23/M01 A3020 110 20 1200 030/03 RMK AO2 T02331006
03949KAQV AQV20190327163510803/27/19 16:35:31  5-MIN KAQV 272235Z AUTO 07003KT 10SM CLR 23/00 A3020 120 22 1100 060/03 RMK AO2 T02280000
03949KAQV AQV20190327164010903/27/19 16:40:31  5-MIN KAQV 272240Z AUTO VRB03KT 10SM CLR 23/M01 A3020 120 21 1100 VRB/03 RMK AO2 T02281006
03949KAQV AQV20190327164510903/27/19 16:45:31  5-MIN KAQV 272245Z AUTO 05005KT 10SM CLR 23/M01 A3020 110 20 1100 050/05 RMK AO2 T02281011
03949KAQV AQV20190327165011603/27/19 16:50:31  5-MIN KAQV 272250Z AUTO VRB03KT 10SM CLR 23/M01 A3021 110 21 1100 VRB/03 RMK AO2 SLP228 T02281006
03949KAQV AQV20190327165511603/27/19 16:55:31  5-MIN KAQV 272255Z AUTO 00000KT 10SM CLR 22/M01 A3021 110 21 1000 000/00 RMK AO2 SLP228 T02221011
03949KAQV AQV20190327170010903/27/19 17:00:31  5-MIN KAQV 272300Z AUTO 06003KT 10SM CLR 23/M01 A3021 110 21 1100 060/03 RMK AO2 T02281006
03949KAQV AQV20190327170510803/27/19 17:05:31  5-MIN KAQV 272305Z AUTO VRB03KT 10SM CLR 22/00 A3020 120 22 1000 VRB/03 RMK AO2 T02220000
03949KAQV AQV20190327171010803/27/19 17:10:31  5-MIN KAQV 272310Z AUTO VRB03KT 10SM CLR 22/01 A3020 120 23 1000 VRB/03 RMK AO2 T02220006
03949KAQV AQV20190327171510803/27/19 17:15:31  5-MIN KAQV 272315Z AUTO 00000KT 10SM CLR 22/01 A3020 120 23 1000 000/00 RMK AO2 T02220006
03949KAQV AQV20190327172010803/27/19 17:20:31  5-MIN KAQV 272320Z AUTO 00000KT 10SM CLR 22/00 A3020 120 23 1000 000/00 RMK AO2 T02170000
03949KAQV AQV20190327172510803/27/19 17:25:31  5-MIN KAQV 272325Z AUTO VRB03KT 10SM CLR 22/01 A3020 120 24 1000 VRB/03 RMK AO2 T02170006
03949KAQV AQV20190327173010803/27/19 17:30:31  5-MIN KAQV 272330Z AUTO 00000KT 10SM CLR 22/00 A3020 110 23 1000 000/00 RMK AO2 T02170000
03949KAQV AQV20190327173510803/27/19 17:35:31  5-MIN KAQV 272335Z AUTO 00000KT 10SM CLR 22/01 A3021 110 24 1000 000/00 RMK AO2 T02170006
03949KAQV AQV20190327174010803/27/19 17:40:31  5-MIN KAQV 272340Z AUTO 00000KT 10SM CLR 22/01 A3021 110 25 1000 000/00 RMK AO2 T02170011
03949KAQV AQV20190327174510703/27/19 17:45:31  5-MIN KAQV 272345Z AUTO 00000KT 10SM CLR 21/02 A3020 120 27 900 000/00 RMK AO2 T02110017
03949KAQV AQV20190327175013203/27/19 17:50:31  5-MIN KAQV 272350Z AUTO 00000KT 10SM CLR 20/03 A3020 120 33 800 000/00 RMK AO2 SLP228 T02000033 10233 20189 56030
03949KAQV AQV20190327175513203/27/19 17:55:31  5-MIN KAQV 272355Z AUTO 00000KT 10SM CLR 19/05 A3020 110 38 700 000/00 RMK AO2 SLP229 T01940050 10233 20189 56030
03949KAQV AQV20190327180010703/27/19 18:00:31  5-MIN KAQV 280000Z AUTO 00000KT 10SM CLR 19/06 A3020 110 41 600 000/00 RMK AO2 T01890056
03949KAQV AQV20190327180510703/27/19 18:05:31  5-MIN KAQV 280005Z AUTO 00000KT 10SM CLR 18/05 A3020 110 41 600 000/00 RMK AO2 T01830050
03949KAQV AQV20190327181010703/27/19 18:10:31  5-MIN KAQV 280010Z AUTO 00000KT 10SM CLR 18/05 A3021 110 42 500 000/00 RMK AO2 T01780050
03949KAQV AQV20190327181510703/27/19 18:15:31  5-MIN KAQV 280015Z AUTO 00000KT 10SM CLR 17/05 A3021 110 44 400 000/00 RMK AO2 T01720050
03949KAQV AQV20190327182010703/27/19 18:20:31  5-MIN KAQV 280020Z AUTO 00000KT 10SM CLR 17/08 A3021 110 55 400 000/00 RMK AO2 T01670078
03949KAQV AQV20190327182510703/27/19 18:25:31  5-MIN KAQV 280025Z AUTO 00000KT 10SM CLR 16/08 A3021 110 57 300 000/00 RMK AO2 T01610078
03949KAQV AQV20190327183010703/27/19 18:30:31  5-MIN KAQV 280030Z AUTO 00000KT 10SM CLR 16/06 A3021 110 53 200 000/00 RMK AO2 T01560061
03949KAQV AQV20190327183510703/27/19 18:35:31  5-MIN KAQV 280035Z AUTO 00000KT 10SM CLR 15/07 A3021 110 59 200 000/00 RMK AO2 T01500072
03949KAQV AQV20190327184010703/27/19 18:40:31  5-MIN KAQV 280040Z AUTO 00000KT 10SM CLR 15/06 A3021 110 53 200 000/00 RMK AO2 T01500056
03949KAQV AQV20190327184510703/27/19 18:45:31  5-MIN KAQV 280045Z AUTO 00000KT 10SM CLR 14/06 A3021 110 55 100 000/00 RMK AO2 T01440056
03949KAQV AQV20190327185011203/27/19 18:50:31  5-MIN KAQV 280050Z AUTO 00000KT 10SM CLR 14/05 A3021 110 55 0 000/00 RMK AO2 SLP232 T01390050
03949KAQV AQV20190327185511203/27/19 18:55:31  5-MIN KAQV 280055Z AUTO 00000KT 10SM CLR 14/04 A3021 110 52 0 000/00 RMK AO2 SLP231 T01390044
03949KAQV AQV20190327190010503/27/19 19:00:31  5-MIN KAQV 280100Z AUTO 00000KT 10SM CLR 13/05 A3021 110 57 0 000/00 RMK AO2 T01330050
03949KAQV AQV20190327190510503/27/19 19:05:31  5-MIN KAQV 280105Z AUTO 00000KT 10SM CLR 13/06 A3021 110 59 0 000/00 RMK AO2 T01330056
03949KAQV AQV20190327191010503/27/19 19:10:31  5-MIN KAQV 280110Z AUTO 00000KT 10SM CLR 13/07 A3021 110 66 0 000/00 RMK AO2 T01280067
03949KAQV AQV20190327191510503/27/19 19:15:31  5-MIN KAQV 280115Z AUTO 00000KT 10SM CLR 13/07 A3021 110 69 0 000/00 RMK AO2 T01280072
03949KAQV AQV20190327192010503/27/19 19:20:31  5-MIN KAQV 280120Z AUTO 00000KT 10SM CLR 13/06 A3021 110 63 0 000/00 RMK AO2 T01280061
03949KAQV AQV20190327192510803/27/19 19:25:31  5-MIN KAQV 280125Z AUTO 00000KT 10SM CLR 12/06 A3021 110 66 -100 000/00 RMK AO2 T01220061
03949KAQV AQV20190327193010803/27/19 19:30:31  5-MIN KAQV 280130Z AUTO 00000KT 10SM CLR 12/06 A3021 110 66 -100 000/00 RMK AO2 T01220061
03949KAQV AQV20190327193510803/27/19 19:35:31  5-MIN KAQV 280135Z AUTO 00000KT 10SM CLR 12/06 A3022 100 63 -100 000/00 RMK AO2 T01220056
03949KAQV AQV20190327194010803/27/19 19:40:31  5-MIN KAQV 280140Z AUTO 00000KT 10SM CLR 12/05 A3022 100 63 -200 000/00 RMK AO2 T01170050
03949KAQV AQV20190327194510803/27/19 19:45:31  5-MIN KAQV 280145Z AUTO 00000KT 10SM CLR 12/04 A3022 100 61 -200 000/00 RMK AO2 T01170044
03949KAQV AQV20190327195011503/27/19 19:50:31  5-MIN KAQV 280150Z AUTO 00000KT 10SM CLR 12/05 A3022 100 63 -200 000/00 RMK AO2 SLP234 T01170050
03949KAQV AQV20190327195511503/27/19 19:55:31  5-MIN KAQV 280155Z AUTO 00000KT 10SM CLR 12/05 A3022 100 63 -200 000/00 RMK AO2 SLP234 T01170050
03949KAQV AQV20190327200010803/27/19 20:00:31  5-MIN KAQV 280200Z AUTO 00000KT 10SM CLR 11/06 A3022 100 68 -300 000/00 RMK AO2 T01110056
03949KAQV AQV20190327200510803/27/19 20:05:31  5-MIN KAQV 280205Z AUTO 00000KT 10SM CLR 11/05 A3022 100 66 -300 000/00 RMK AO2 T01110050
03949KAQV AQV20190327201010803/27/19 20:10:31  5-MIN KAQV 280210Z AUTO 00000KT 10SM CLR 11/06 A3022 100 68 -300 000/00 RMK AO2 T01110056
03949KAQV AQV20190327201510703/27/19 20:15:31  5-MIN KAQV 280215Z AUTO 00000KT 10SM CLR 11/05 A3023 90 68 -300 000/00 RMK AO2 T01060050
03949KAQV AQV20190327202010703/27/19 20:20:31  5-MIN KAQV 280220Z AUTO 00000KT 10SM CLR 11/05 A3023 90 68 -300 000/00 RMK AO2 T01060050
03949KAQV AQV20190327202510703/27/19 20:25:31  5-MIN KAQV 280225Z AUTO 00000KT 10SM CLR 11/06 A3023 90 71 -300 000/00 RMK AO2 T01060056
03949KAQV AQV20190327203010703/27/19 20:30:31  5-MIN KAQV 280230Z AUTO 00000KT 10SM CLR 11/06 A3023 90 74 -300 000/00 RMK AO2 T01060061
03949KAQV AQV20190327203510703/27/19 20:35:31  5-MIN KAQV 280235Z AUTO 00000KT 10SM CLR 10/06 A3023 90 74 -400 000/00 RMK AO2 T01000056
03949KAQV AQV20190327204010703/27/19 20:40:31  5-MIN KAQV 280240Z AUTO 00000KT 10SM CLR 10/07 A3023 90 80 -400 000/00 RMK AO2 T01000067
03949KAQV AQV20190327204510703/27/19 20:45:31  5-MIN KAQV 280245Z AUTO 00000KT 10SM CLR 10/07 A3023 90 83 -400 000/00 RMK AO2 T01000072
03949KAQV AQV20190327205012003/27/19 20:50:31  5-MIN KAQV 280250Z AUTO 00000KT 10SM CLR 10/06 A3023 90 77 -400 000/00 RMK AO2 SLP239 T01000061 56009
03949KAQV AQV20190327205512003/27/19 20:55:31  5-MIN KAQV 280255Z AUTO 00000KT 10SM CLR 10/06 A3024 80 77 -400 000/00 RMK AO2 SLP240 T01000061 56009
03949KAQV AQV20190327210010703/27/19 21:00:31  5-MIN KAQV 280300Z AUTO 00000KT 10SM CLR 10/06 A3024 80 77 -400 000/00 RMK AO2 T01000061
03949KAQV AQV20190327210510703/27/19 21:05:31  5-MIN KAQV 280305Z AUTO 00000KT 10SM CLR 10/06 A3024 80 77 -400 000/00 RMK AO2 T01000061
03949KAQV AQV20190327211010703/27/19 21:10:31  5-MIN KAQV 280310Z AUTO 00000KT 10SM CLR 10/07 A3024 80 80 -400 000/00 RMK AO2 T01000067
03949KAQV AQV20190327211510703/27/19 21:15:31  5-MIN KAQV 280315Z AUTO 00000KT 10SM CLR 10/06 A3024 80 77 -400 000/00 RMK AO2 T01000061
03949KAQV AQV20190327212010703/27/19 21:20:31  5-MIN KAQV 280320Z AUTO 00000KT 10SM CLR 09/06 A3024 80 79 -500 000/00 RMK AO2 T00940061
03949KAQV AQV20190327212510703/27/19 21:25:31  5-MIN KAQV 280325Z AUTO 00000KT 10SM CLR 09/06 A3024 80 79 -500 000/00 RMK AO2 T00940061
03949KAQV AQV20190327213010703/27/19 21:30:31  5-MIN KAQV 280330Z AUTO 00000KT 10SM CLR 09/06 A3024 80 79 -500 000/00 RMK AO2 T00940061
03949KAQV AQV20190327213510703/27/19 21:35:31  5-MIN KAQV 280335Z AUTO 00000KT 10SM CLR 09/07 A3024 80 83 -500 000/00 RMK AO2 T00940067
03949KAQV AQV20190327214010703/27/19 21:40:31  5-MIN KAQV 280340Z AUTO 00000KT 10SM CLR 09/06 A3024 80 79 -500 000/00 RMK AO2 T00940061
03949KAQV AQV20190327214510703/27/19 21:45:31  5-MIN KAQV 280345Z AUTO 00000KT 10SM CLR 09/06 A3024 80 79 -500 000/00 RMK AO2 T00940061
03949KAQV AQV20190327215011403/27/19 21:50:31  5-MIN KAQV 280350Z AUTO 00000KT 10SM CLR 09/06 A3023 90 76 -500 000/00 RMK AO2 SLP239 T00940056
03949KAQV AQV20190327215511403/27/19 21:55:31  5-MIN KAQV 280355Z AUTO 00000KT 10SM CLR 09/06 A3024 90 76 -500 000/00 RMK AO2 SLP239 T00940056
03949KAQV AQV20190327220010703/27/19 22:00:31  5-MIN KAQV 280400Z AUTO 00000KT 10SM CLR 09/06 A3023 90 79 -500 000/00 RMK AO2 T00940061
03949KAQV AQV20190327220510703/27/19 22:05:31  5-MIN KAQV 280405Z AUTO 00000KT 10SM CLR 09/06 A3023 90 83 -500 000/00 RMK AO2 T00890061
03949KAQV AQV20190327221010703/27/19 22:10:31  5-MIN KAQV 280410Z AUTO 00000KT 10SM CLR 09/06 A3024 90 83 -500 000/00 RMK AO2 T00890061
03949KAQV AQV20190327221510703/27/19 22:15:31  5-MIN KAQV 280415Z AUTO 00000KT 10SM CLR 09/06 A3024 90 83 -500 000/00 RMK AO2 T00890061
03949KAQV AQV20190327222010703/27/19 22:20:31  5-MIN KAQV 280420Z AUTO 00000KT 10SM CLR 09/06 A3024 80 83 -500 000/00 RMK AO2 T00890061
03949KAQV AQV20190327222510703/27/19 22:25:31  5-MIN KAQV 280425Z AUTO 00000KT 10SM CLR 09/06 A3024 80 83 -500 000/00 RMK AO2 T00890061
03949KAQV AQV20190327223010703/27/19 22:30:31  5-MIN KAQV 280430Z AUTO 00000KT 10SM CLR 09/07 A3024 90 86 -500 000/00 RMK AO2 T00890067
03949KAQV AQV20190327223510703/27/19 22:35:31  5-MIN KAQV 280435Z AUTO 00000KT 10SM CLR 09/06 A3024 80 83 -500 000/00 RMK AO2 T00890061
03949KAQV AQV20190327224010703/27/19 22:40:31  5-MIN KAQV 280440Z AUTO 00000KT 10SM CLR 09/06 A3024 90 83 -500 000/00 RMK AO2 T00890061
03949KAQV AQV20190327224510703/27/19 22:45:31  5-MIN KAQV 280445Z AUTO 00000KT 10SM CLR 09/06 A3023 90 83 -500 000/00 RMK AO2 T00890061
03949KAQV AQV20190327225011403/27/19 22:50:31  5-MIN KAQV 280450Z AUTO 00000KT 10SM CLR 09/06 A3023 90 83 -500 000/00 RMK AO2 SLP238 T00890061
03949KAQV AQV20190327225511403/27/19 22:55:31  5-MIN KAQV 280455Z AUTO 00000KT 10SM CLR 09/06 A3023 90 79 -500 000/00 RMK AO2 SLP237 T00940061
03949KAQV AQV20190327230010703/27/19 23:00:31  5-MIN KAQV 280500Z AUTO 00000KT 10SM CLR 09/06 A3023 90 79 -500 000/00 RMK AO2 T00940061
03949KAQV AQV20190327230510703/27/19 23:05:31  5-MIN KAQV 280505Z AUTO 00000KT 10SM CLR 10/06 A3024 90 77 -400 000/00 RMK AO2 T01000061
03949KAQV AQV20190327231010703/27/19 23:10:31  5-MIN KAQV 280510Z AUTO 00000KT 10SM CLR 11/06 A3023 90 74 -300 000/00 RMK AO2 T01060061
03949KAQV AQV20190327231510703/27/19 23:15:31  5-MIN KAQV 280515Z AUTO 00000KT 10SM CLR 10/07 A3024 80 80 -400 000/00 RMK AO2 T01000067
03949KAQV AQV20190327232010703/27/19 23:20:31  5-MIN KAQV 280520Z AUTO 00000KT 10SM CLR 11/06 A3024 80 74 -300 000/00 RMK AO2 T01060061
03949KAQV AQV20190327232510703/27/19 23:25:31  5-MIN KAQV 280525Z AUTO VRB03KT 10SM CLR 11/06 A3024 90 71 -300 VRB/03 RMK AO2 T01110061
03949KAQV AQV20190327233010703/27/19 23:30:31  5-MIN KAQV 280530Z AUTO 00000KT 10SM CLR 11/07 A3024 80 77 -300 000/00 RMK AO2 T01060067
03949KAQV AQV20190327233510703/27/19 23:35:31  5-MIN KAQV 280535Z AUTO 00000KT 10SM CLR 11/07 A3024 80 77 -300 000/00 RMK AO2 T01060067
03949KAQV AQV20190327234010703/27/19 23:40:31  5-MIN KAQV 280540Z AUTO 00000KT 10SM CLR 11/07 A3024 80 74 -300 000/00 RMK AO2 T01110067
03949KAQV AQV20190327234510703/27/19 23:45:31  5-MIN KAQV 280545Z AUTO 00000KT 10SM CLR 11/07 A3024 80 77 -300 000/00 RMK AO2 T01060067
03949KAQV AQV20190327235014203/27/19 23:50:31  5-MIN KAQV 280550Z AUTO 00000KT 10SM CLR 11/07 A3024 80 77 -300 000/00 RMK AO2 SLP238 T01060067 10194 20089 402330044 53011
03949KAQV AQV20190327235514203/27/19 23:55:31  5-MIN KAQV 280555Z AUTO 00000KT 10SM CLR 10/07 A3024 90 80 -400 000/00 RMK AO2 SLP238 T01000067 10194 20089 402330044 53011
03949KAQV AQV20190328000010703/28/19 00:00:31  5-MIN KAQV 280600Z AUTO 00000KT 10SM CLR 10/07 A3023 90 80 -400 000/00 RMK AO2 T01000067
03949KAQV AQV20190328000510703/28/19 00:05:31  5-MIN KAQV 280605Z AUTO 00000KT 10SM CLR 10/07 A3023 90 83 -400 000/00 RMK AO2 T01000072
03949KAQV AQV20190328001010703/28/19 00:10:31  5-MIN KAQV 280610Z AUTO 00000KT 10SM CLR 10/07 A3023 90 83 -400 000/00 RMK AO2 T01000072
03949KAQV AQV20190328001510703/28/19 00:15:31  5-MIN KAQV 280615Z AUTO 00000KT 10SM CLR 09/07 A3024 90 83 -500 000/00 RMK AO2 T00940067
03949KAQV AQV20190328002010703/28/19 00:20:31  5-MIN KAQV 280620Z AUTO 00000KT 10SM CLR 09/07 A3023 90 83 -500 000/00 RMK AO2 T00940067
03949KAQV AQV20190328002510703/28/19 00:25:31  5-MIN KAQV 280625Z AUTO 00000KT 10SM CLR 09/07 A3023 90 83 -500 000/00 RMK AO2 T00940067
03949KAQV AQV20190328003010703/28/19 00:30:31  5-MIN KAQV 280630Z AUTO 00000KT 10SM CLR 09/07 A3023 90 83 -500 000/00 RMK AO2 T00940067
03949KAQV AQV20190328003510703/28/19 00:35:31  5-MIN KAQV 280635Z AUTO 00000KT 10SM CLR 09/07 A3023 90 86 -500 000/00 RMK AO2 T00890067
03949KAQV AQV20190328004011003/28/19 00:40:31  5-MIN KAQV 280640Z AUTO 00000KT 10SM CLR 09/07 A3023 90 86 -500 000/00/00 RMK AO2 T00720067
03949KAQV AQV20190328061510903/28/19 06:15:31  5-MIN KAQV 281215Z AUTO 00000KT 3SM BR CLR 06/05 A3023 90 93 -900 000/00 RMK AO2 T00610050
03949KAQV AQV20190328062010903/28/19 06:20:31  5-MIN KAQV 281220Z AUTO 00000KT 3SM BR CLR 06/05 A3023 90 93 -900 000/00 RMK AO2 T00610050
03949KAQV AQV20190328062510903/28/19 06:25:31  5-MIN KAQV 281225Z AUTO 00000KT 3SM BR CLR 06/05 A3023 90 93 -900 000/00 RMK AO2 T00610050
03949KAQV AQV20190328063010903/28/19 06:30:31  5-MIN KAQV 281230Z AUTO 00000KT 4SM BR CLR 06/05 A3023 90 93 -900 000/00 RMK AO2 T00610050
03949KAQV AQV20190328063510903/28/19 06:35:31  5-MIN KAQV 281235Z AUTO 00000KT 4SM BR CLR 06/06 A3024 80 96 -900 000/00 RMK AO2 T00610056
03949KAQV AQV20190328064010903/28/19 06:40:31  5-MIN KAQV 281240Z AUTO 00000KT 4SM BR CLR 06/06 A3024 80 96 -900 000/00 RMK AO2 T00610056
03949KAQV AQV20190328064510903/28/19 06:45:31  5-MIN KAQV 281245Z AUTO 00000KT 4SM BR CLR 07/06 A3024 80 93 -800 000/00 RMK AO2 T00670056
03949KAQV AQV20190328065011603/28/19 06:50:31  5-MIN KAQV 281250Z AUTO 00000KT 3SM BR CLR 07/06 A3024 80 96 -800 000/00 RMK AO2 SLP241 T00670061
03949KAQV AQV20190328065511603/28/19 06:55:31  5-MIN KAQV 281255Z AUTO 00000KT 4SM BR CLR 07/06 A3025 80 93 -800 000/00 RMK AO2 SLP242 T00720061
03949KAQV AQV20190328070010903/28/19 07:00:31  5-MIN KAQV 281300Z AUTO 00000KT 5SM BR CLR 07/07 A3025 70 96 -800 000/00 RMK AO2 T00720067
03949KAQV AQV20190328070510903/28/19 07:05:31  5-MIN KAQV 281305Z AUTO 00000KT 5SM BR CLR 08/07 A3025 70 93 -700 000/00 RMK AO2 T00780067
03949KAQV AQV20190328071010903/28/19 07:10:31  5-MIN KAQV 281310Z AUTO 00000KT 5SM BR CLR 08/07 A3025 70 96 -700 000/00 RMK AO2 T00780072
03949KAQV AQV20190328071510903/28/19 07:15:31  5-MIN KAQV 281315Z AUTO 00000KT 5SM BR CLR 08/08 A3025 70 96 -600 000/00 RMK AO2 T00830078
03949KAQV AQV20190328072010903/28/19 07:20:31  5-MIN KAQV 281320Z AUTO 00000KT 5SM BR CLR 08/08 A3025 70 96 -600 000/00 RMK AO2 T00830078
03949KAQV AQV20190328072510903/28/19 07:25:31  5-MIN KAQV 281325Z AUTO 00000KT 5SM BR CLR 09/08 A3025 70 96 -600 000/00 RMK AO2 T00890083
03949KAQV AQV20190328073010903/28/19 07:30:31  5-MIN KAQV 281330Z AUTO 00000KT 6SM BR CLR 09/09 A3025 70 96 -500 000/00 RMK AO2 T00940089
03949KAQV AQV20190328073510903/28/19 07:35:31  5-MIN KAQV 281335Z AUTO 00000KT 6SM BR CLR 10/09 A3025 70 96 -400 000/00 RMK AO2 T01000094
03949KAQV AQV20190328074010903/28/19 07:40:31  5-MIN KAQV 281340Z AUTO 17003KT 5SM BR CLR 11/10 A3026 70 96 -400 170/03 RMK AO2 T01060100
03949KAQV AQV20190328074510903/28/19 07:45:31  5-MIN KAQV 281345Z AUTO 18004KT 5SM BR CLR 12/10 A3026 70 89 -200 170/04 RMK AO2 T01170100
03949KAQV AQV20190328075011303/28/19 07:50:31  5-MIN KAQV 281350Z AUTO 18003KT 7SM CLR 12/10 A3026 70 86 -200 170/03 RMK AO2 SLP247 T01220100
03949KAQV AQV20190328075511303/28/19 07:55:31  5-MIN KAQV 281355Z AUTO 17003KT 9SM CLR 12/11 A3026 70 89 -200 160/03 RMK AO2 SLP246 T01220106
03949KAQV AQV20190328080010403/28/19 08:00:31  5-MIN KAQV 281400Z AUTO 18003KT 10SM CLR 13/11 A3026 70 83 0 170/03 RMK AO2 T01330106
03949KAQV AQV20190328080510403/28/19 08:05:31  5-MIN KAQV 281405Z AUTO 17003KT 10SM CLR 14/11 A3026 70 80 0 170/03 RMK AO2 T01390106
03949KAQV AQV20190328081010403/28/19 08:10:31  5-MIN KAQV 281410Z AUTO 16005KT 10SM CLR 14/11 A3026 60 80 0 160/05 RMK AO2 T01390106
03949KAQV AQV20190328081510403/28/19 08:15:31  5-MIN KAQV 281415Z AUTO VRB04KT 10SM CLR 14/11 A3026 60 80 0 VRB/04 RMK AO2 T01390106
03949KAQV AQV20190328082010603/28/19 08:20:31  5-MIN KAQV 281420Z AUTO VRB04KT 10SM CLR 14/11 A3026 60 77 100 VRB/04 RMK AO2 T01440106
03949KAQV AQV20190328082510603/28/19 08:25:31  5-MIN KAQV 281425Z AUTO VRB05KT 10SM CLR 15/11 A3026 60 74 100 VRB/05 RMK AO2 T01500106
03949KAQV AQV20190328083010603/28/19 08:30:31  5-MIN KAQV 281430Z AUTO VRB04KT 10SM CLR 16/11 A3026 60 72 200 VRB/04 RMK AO2 T01560106
03949KAQV AQV20190328083510603/28/19 08:35:31  5-MIN KAQV 281435Z AUTO VRB04KT 10SM CLR 16/11 A3026 60 72 300 VRB/04 RMK AO2 T01610111
03949KAQV AQV20190328084010603/28/19 08:40:31  5-MIN KAQV 281440Z AUTO VRB05KT 10SM CLR 17/11 A3026 60 69 300 VRB/05 RMK AO2 T01670111
03949KAQV AQV20190328084510603/28/19 08:45:31  5-MIN KAQV 281445Z AUTO VRB03KT 10SM CLR 17/11 A3026 60 69 300 VRB/03 RMK AO2 T01670111
03949KAQV AQV20190328085011903/28/19 08:50:31  5-MIN KAQV 281450Z AUTO VRB05KT 10SM CLR 17/11 A3026 60 69 300 VRB/05 RMK AO2 SLP247 T01670111 53001
03949KAQV AQV20190328085511903/28/19 08:55:31  5-MIN KAQV 281455Z AUTO 16005KT 10SM CLR 17/11 A3026 60 69 300 160/05 RMK AO2 SLP248 T01670111 53001
03949KAQV AQV20190328090010603/28/19 09:00:31  5-MIN KAQV 281500Z AUTO VRB05KT 10SM CLR 17/11 A3026 60 67 400 VRB/05 RMK AO2 T01720111
03949KAQV AQV20190328090509603/28/19 09:05:31  5-MIN KAQV 281505Z AUTO 10SM CLR 18/11 A3026 60 64 400 M /M RMK AO2 T01780111
03949KAQV AQV20190328091012203/28/19 09:10:31  5-MIN KAQV 281510Z AUTO 16007KT 100V190 10SM CLR 17/11 A3026 60 64 400 150/07 100V190 RMK AO2 T01720106
03949KAQV AQV20190328091510603/28/19 09:15:31  5-MIN KAQV 281515Z AUTO VRB05KT 10SM CLR 18/11 A3026 60 62 400 VRB/05 RMK AO2 T01780106
03949KAQV AQV20190328092010603/28/19 09:20:31  5-MIN KAQV 281520Z AUTO 17008KT 10SM CLR 18/10 A3026 60 58 500 170/08 RMK AO2 T01830100
03949KAQV AQV20190328092512203/28/19 09:25:31  5-MIN KAQV 281525Z AUTO 16007KT 100V190 10SM CLR 18/10 A3026 60 58 500 150/07 100V190 RMK AO2 T01830100
03949KAQV AQV20190328093010603/28/19 09:30:31  5-MIN KAQV 281530Z AUTO 16007KT 10SM CLR 18/10 A3026 60 58 500 160/07 RMK AO2 T01830100
03949KAQV AQV20190328093510503/28/19 09:35:31  5-MIN KAQV 281535Z AUTO VRB06KT 8SM CLR 19/10 A3026 60 56 600 VRB/06 RMK AO2 T01890100
03949KAQV AQV20190328094012103/28/19 09:40:31  5-MIN KAQV 281540Z AUTO 18007KT 140V240 8SM CLR 19/10 A3026 60 54 600 170/07 140V240 RMK AO2 T01940100
03949KAQV AQV20190328094512203/28/19 09:45:31  5-MIN KAQV 281545Z AUTO 16007KT 110V200 10SM CLR 19/09 A3026 60 52 600 150/07 110V200 RMK AO2 T01940094
03949KAQV AQV20190328095010303/28/19 09:50:31  5-MIN KAQV 281550Z AUTO 10SM CLR 20/09 A3026 60 50 700 M /M RMK AO2 SLP246 T02000094
03949KAQV AQV20190328095511303/28/19 09:55:31  5-MIN KAQV 281555Z AUTO 18008KT 10SM CLR 19/09 A3026 60 52 600 180/08 RMK AO2 SLP247 T01940094
03949KAQV AQV20190328100011203/28/19 10:00:31  5-MIN KAQV 281600Z AUTO VRB06G14KT 10SM CLR 20/09 A3026 60 50 700 VRB/06G14 RMK AO2 T02000094
03949KAQV AQV20190328100510603/28/19 10:05:31  5-MIN KAQV 281605Z AUTO VRB04KT 10SM CLR 20/09 A3026 60 50 700 VRB/04 RMK AO2 T02000094
03949KAQV AQV20190328101010603/28/19 10:10:31  5-MIN KAQV 281610Z AUTO VRB05KT 10SM CLR 21/09 A3026 60 46 800 VRB/05 RMK AO2 T02060089
03949KAQV AQV20190328101510603/28/19 10:15:31  5-MIN KAQV 281615Z AUTO VRB06KT 10SM CLR 21/09 A3026 60 48 800 VRB/06 RMK AO2 T02060094
03949KAQV AQV20190328102012203/28/19 10:20:31  5-MIN KAQV 281620Z AUTO 17007KT 110V210 10SM CLR 20/09 A3026 60 50 700 160/07 110V210 RMK AO2 T02000094
03949KAQV AQV20190328102512203/28/19 10:25:31  5-MIN KAQV 281625Z AUTO 18007KT 140V240 10SM CLR 21/09 A3026 60 45 800 170/07 140V240 RMK AO2 T02110089
03949KAQV AQV20190328103012803/28/19 10:30:31  5-MIN KAQV 281630Z AUTO 17009G17KT 150V220 10SM CLR 21/08 A3026 60 43 800 170/09G17 150V220 RMK AO2 T02060078
03949KAQV AQV20190328103512803/28/19 10:35:31  5-MIN KAQV 281635Z AUTO 16007G17KT 110V200 10SM CLR 21/08 A3026 70 42 800 160/07G17 110V200 RMK AO2 T02110078
03949KAQV AQV20190328104011203/28/19 10:40:31  5-MIN KAQV 281640Z AUTO 17010G21KT 10SM CLR 21/08 A3026 70 43 800 170/10G21 RMK AO2 T02060078
03949KAQV AQV20190328104512803/28/19 10:45:31  5-MIN KAQV 281645Z AUTO 17009G21KT 130V200 10SM CLR 21/08 A3026 70 42 800 170/09G21 130V200 RMK AO2 T02110078
03949KAQV AQV20190328105013503/28/19 10:50:31  5-MIN KAQV 281650Z AUTO 16007G15KT 110V200 10SM CLR 21/08 A3026 70 43 800 160/07G15 110V200 RMK AO2 SLP245 T02110083
03949KAQV AQV20190328105512903/28/19 10:55:31  5-MIN KAQV 281655Z AUTO 17008KT 120V200 10SM CLR 21/08 A3025 70 42 800 170/08 120V200 RMK AO2 SLP244 T02110078
03949KAQV AQV20190328110010603/28/19 11:00:31  5-MIN KAQV 281700Z AUTO VRB06KT 10SM CLR 22/09 A3025 70 43 900 VRB/06 RMK AO2 T02170089
03949KAQV AQV20190328110512203/28/19 11:05:31  5-MIN KAQV 281705Z AUTO 14007KT 090V170 10SM CLR 22/08 A3025 70 42 900 140/07 090V170 RMK AO2 T02170083
03949KAQV AQV20190328111010703/28/19 11:10:31  5-MIN KAQV 281710Z AUTO VRB06KT 10SM CLR 22/09 A3025 80 42 1000 VRB/06 RMK AO2 T02220089
03949KAQV AQV20190328111512203/28/19 11:15:31  5-MIN KAQV 281715Z AUTO 16007KT 130V200 10SM CLR 22/09 A3024 80 43 900 160/07 130V200 RMK AO2 T02170089
03949KAQV AQV20190328112010703/28/19 11:20:31  5-MIN KAQV 281720Z AUTO VRB05KT 10SM CLR 23/09 A3024 80 40 1000 VRB/05 RMK AO2 T02280089
03949KAQV AQV20190328112510703/28/19 11:25:31  5-MIN KAQV 281725Z AUTO 17007KT 10SM CLR 22/08 A3024 80 40 1000 160/07 RMK AO2 T02220083
03949KAQV AQV20190328113012203/28/19 11:30:31  5-MIN KAQV 281730Z AUTO 17008KT 140V200 10SM CLR 22/09 A3024 80 43 900 170/08 140V200 RMK AO2 T02170089
03949KAQV AQV20190328113510703/28/19 11:35:31  5-MIN KAQV 281735Z AUTO 13005KT 10SM CLR 22/09 A3023 90 42 1000 120/05 RMK AO2 T02220089
03949KAQV AQV20190328114012203/28/19 11:40:31  5-MIN KAQV 281740Z AUTO 17007KT 110V180 10SM CLR 22/09 A3023 90 45 900 160/07 110V180 RMK AO2 T02170094
03949KAQV AQV20190328114512303/28/19 11:45:31  5-MIN KAQV 281745Z AUTO 17008KT 100V200 10SM CLR 22/09 A3023 90 43 1000 170/08 100V200 RMK AO2 T02220094
03949KAQV AQV20190328115014903/28/19 11:50:31  5-MIN KAQV 281750Z AUTO 17007KT 140V200 10SM CLR 22/09 A3023 100 42 1000 170/07 140V200 RMK AO2 SLP235 T02220089 10228 20061 51012
03949KAQV AQV20190328115513203/28/19 11:55:31  5-MIN KAQV 281755Z AUTO 18006KT 9SM CLR 23/09 A3022 100 42 1100 180/06 RMK AO2 SLP234 T02280094 10228 20061 51012
03949KAQV AQV20190328120012903/28/19 12:00:31  5-MIN KAQV 281800Z AUTO 13009G17KT 090V160 9SM CLR 23/10 A3022 100 44 1100 130/09G17 090V160 RMK AO2 T02280100
03949KAQV AQV20190328120513003/28/19 12:05:31  5-MIN KAQV 281805Z AUTO 19007G17KT 160V230 10SM CLR 23/10 A3022 100 44 1100 180/07G17 160V230 RMK AO2 T02280100
03949KAQV AQV20190328121013003/28/19 12:10:31  5-MIN KAQV 281810Z AUTO 18010G14KT 160V220 10SM CLR 23/09 A3022 100 42 1100 180/10G14 160V220 RMK AO2 T02280094
03949KAQV AQV20190328121511403/28/19 12:15:31  5-MIN KAQV 281815Z AUTO VRB06G14KT 10SM CLR 23/09 A3022 100 40 1100 VRB/06G14 RMK AO2 T02280089
03949KAQV AQV20190328122010803/28/19 12:20:31  5-MIN KAQV 281820Z AUTO VRB05KT 10SM CLR 23/09 A3021 110 42 1100 VRB/05 RMK AO2 T02280094
03949KAQV AQV20190328122510803/28/19 12:25:31  5-MIN KAQV 281825Z AUTO VRB05KT 10SM CLR 24/10 A3021 110 41 1200 VRB/05 RMK AO2 T02390100
03949KAQV AQV20190328123010803/28/19 12:30:31  5-MIN KAQV 281830Z AUTO 20006KT 10SM CLR 23/10 A3021 110 44 1100 190/06 RMK AO2 T02280100
03949KAQV AQV20190328123513003/28/19 12:35:31  5-MIN KAQV 281835Z AUTO 19007G15KT 170V230 10SM CLR 23/10 A3021 110 44 1100 190/07G15 170V230 RMK AO2 T02280100
03949KAQV AQV20190328124013303/28/19 12:40:31  5-MIN KAQV 281840Z AUTO 22007G15KT 190V260 10SM CLR 23180 54 900 VRB/03 RMK AO2 SLP206 T02060111 10244 20206 56024
03949KAQV AQV20190328171010803/28/19 17:10:31  5-MIN KAQV 282310Z AUTO 18006KT 10SM CLR 21/11 A3015 170 52 1000 180/06 RMK AO2 T02110111
03949KAQV AQV20190328171510803/28/19 17:15:31  5-MIN KAQV 282315Z AUTO 17006KT 10SM CLR 21/11 A3014 170 52 1000 170/06 RMK AO2 T02110111
03949KAQV AQV20190328172011103/28/19 17:20:31  5-MIN KAQV 282320Z AUTO 18005KT 10SM FEW046 21/11 A3014 170 52 1000 180/05 RMK AO2 T02110111
03949KAQV AQV20190328172511003/28/19 17:25:31  5-MIN KAQV 282325Z AUTO VRB06KT 10SM FEW046 21/11 A3014 170 54 900 VRB/06 RMK AO2 T02060111
03949KAQV AQV20190328173010703/28/19 17:30:31  5-MIN KAQV 282330Z AUTO 17007KT 10SM CLR 21/11 A3014 170 54 900 170/07 RMK AO2 T02060111
03949KAQV AQV20190328173510703/28/19 17:35:31  5-MIN KAQV 282335Z AUTO VRB05KT 10SM CLR 21/11 A3014 170 54 900 VRB/05 RMK AO2 T02060111
03949KAQV AQV20190328174010703/28/19 17:40:31  5-MIN KAQV 282340Z AUTO 17006KT 10SM CLR 21/11 A3014 170 54 900 170/06 RMK AO2 T02060111
03949KAQV AQV20190328174510803/28/19 17:45:31  5-MIN KAQV 282345Z AUTO 17004KT 10SM CLR 21/11 A3014 170 52 1000 170/04 RMK AO2 T02110111
03949KAQV AQV20190328175013203/28/19 17:50:31  5-MIN KAQV 282350Z AUTO 17006KT 10SM CLR 21/11 A3014 180 54 900 160/06 RMK AO2 SLP206 T02060111 10244 20206 56024
03949KAQV AQV20190328175513203/28/19 17:55:31  5-MIN KAQV 282355Z AUTO VRB03KT 10SM CLR 21/11 A3014 180 54 900 VRB/03 RMK AO2 SLP206 T02060111 10244 20206 56024
03949KAQV AQV20190328180010703/28/19 18:00:31  5-MIN KAQV 290000Z AUTO 16005KT 10SM CLR 21/11 A3014 180 54 900 160/05 RMK AO2 T02060111
03949KAQV AQV20190328180510703/28/19 18:05:31  5-MIN KAQV 290005Z AUTO 17004KT 10SM CLR 21/11 A3014 180 54 900 160/04 RMK AO2 T02060111
03949KAQV AQV20190328181010703/28/19 18:10:31  5-MIN KAQV 290010Z AUTO 17005KT 10SM CLR 21/11 A3014 180 54 900 170/05 RMK AO2 T02060111
03949KAQV AQV20190328181510703/28/19 18:15:31  5-MIN KAQV 290015Z AUTO VRB06KT 10SM CLR 20/11 A3014 180 56 800 VRB/06 RMK AO2 T02000111
03949KAQV AQV20190328182010703/28/19 18:20:31  5-MIN KAQV 290020Z AUTO VRB04KT 10SM CLR 20/11 A3014 180 56 800 VRB/04 RMK AO2 T02000111
03949KAQV AQV20190328182512303/28/19 18:25:31  5-MIN KAQV 290025Z AUTO 17007KT 120V190 10SM CLR 20/11 A3014 180 56 800 160/07 120V190 RMK AO2 T02000111
03949KAQV AQV20190328183010703/28/19 18:30:31  5-MIN KAQV 290030Z AUTO 17006KT 10SM CLR 20/11 A3014 180 56 800 160/06 RMK AO2 T02000111
03949KAQV AQV20190328183510703/28/19 18:35:31  5-MIN KAQV 290035Z AUTO 17005KT 10SM CLR 19/11 A3014 180 58 800 170/05 RMK AO2 T01940111
03949KAQV AQV20190328184010703/28/19 18:40:31  5-MIN KAQV 290040Z AUTO VRB04KT 10SM CLR 19/11 A3014 180 58 800 VRB/04 RMK AO2 T01940111
03949KAQV AQV20190328184510703/28/19 18:45:31  5-MIN KAQV 290045Z AUTO 18005KT 10SM CLR 19/11 A3014 180 58 800 170/05 RMK AO2 T01940111
03949KAQV AQV20190328185010403/28/19 18:50:31  5-MIN KAQV 290050Z AUTO 10SM CLR 19/11 A3014 180 60 700 M /M RMK AO2 SLP206 T01890111
03949KAQV AQV20190328185510403/28/19 18:55:31  5-MIN KAQV 290055Z AUTO 10SM CLR 19/11 A3014 170 60 700 M /M RMK AO2 SLP207 T01890111
03949KAQV AQV20190328190010703/28/19 19:00:31  5-MIN KAQV 290100Z AUTO 19004KT 10SM CLR 19/11 A3014 170 60 700 180/04 RMK AO2 T01890111
03949KAQV AQV20190328190510703/28/19 19:05:31  5-MIN KAQV 290105Z AUTO 18005KT 10SM CLR 18/11 A3015 170 62 600 180/05 RMK AO2 T01830111
03949KAQV AQV20190328191010703/28/19 19:10:31  5-MIN KAQV 290110Z AUTO 18004KT 10SM CLR 18/11 A3014 170 62 600 180/04 RMK AO2 T01830111
03949KAQV AQV20190328191510703/28/19 19:15:31  5-MIN KAQV 290115Z AUTO 00000KT 10SM CLR 18/11 A3015 170 62 600 000/00 RMK AO2 T01830111
03949KAQV AQV20190328192010703/28/19 19:20:31  5-MIN KAQV 290120Z AUTO 18003KT 10SM CLR 18/11 A3015 170 64 600 170/03 RMK AO2 T01780111
03949KAQV AQV20190328192510703/28/19 19:25:31  5-MIN KAQV 290125Z AUTO 00000KT 10SM CLR 18/11 A3015 160 64 600 000/00 RMK AO2 T01780111
03949KAQV AQV20190328193010703/28/19 19:30:31  5-MIN KAQV 290130Z AUTO 17004KT 10SM CLR 17/11 A3015 160 67 500 170/04 RMK AO2 T01720111
03949KAQV AQV20190328193510703/28/19 19:35:31  5-MIN KAQV 290135Z AUTO 17003KT 10SM CLR 17/11 A3015 160 67 500 170/03 RMK AO2 T01720111
03949KAQV AQV20190328194010703/28/19 19:40:31  5-MIN KAQV 290140Z AUTO 18004KT 10SM CLR 17/11 A3015 160 67 500 170/04 RMK AO2 T01720111
03949KAQV AQV20190328194510703/28/19 19:45:31  5-MIN KAQV 290145Z AUTO 17003KT 10SM CLR 17/11 A3015 160 67 500 170/03 RMK AO2 T01720111
03949KAQV AQV20190328195011703/28/19 19:50:31  5-MIN KAQV 290150Z AUTO 17004KT 10SM FEW037 17/11 A3016 160 67 500 170/04 RMK AO2 SLP211 T01720111
03949KAQV AQV20190328195511703/28/19 19:55:31  5-MIN KAQV 290155Z AUTO 17004KT 10SM FEW037 17/11 A3016 160 67 500 170/04 RMK AO2 SLP212 T01720111
03949KAQV AQV20190328200011003/28/19 20:00:31  5-MIN KAQV 290200Z AUTO 17003KT 10SM FEW038 17/11 A3016 160 67 500 170/03 RMK AO2 T01720111
03949KAQV AQV20190328200511003/28/19 20:05:31  5-MIN KAQV 290205Z AUTO 17003KT 10SM FEW038 17/11 A3016 150 67 500 170/03 RMK AO2 T01720111
03949KAQV AQV20190328201011003/28/19 20:10:31  5-MIN KAQV 290210Z AUTO VRB03KT 10SM FEW038 17/11 A3016 150 69 400 VRB/03 RMK AO2 T01670111
03949KAQV AQV20190328201511003/28/19 20:15:31  5-MIN KAQV 290215Z AUTO 18003KT 10SM FEW038 17/11 A3016 150 69 400 180/03 RMK AO2 T01670111
03949KAQV AQV20190328202010703/28/19 20:20:31  5-MIN KAQV 290220Z AUTO VRB03KT 10SM CLR 16/11 A3017 150 72 400 VRB/03 RMK AO2 T01610111
03949KAQV AQV20190328202510703/28/19 20:25:31  5-MIN KAQV 290225Z AUTO 17004KT 10SM CLR 16/11 A3017 150 72 400 170/04 RMK AO2 T01610111
03949KAQV AQV20190328203010703/28/19 20:30:31  5-MIN KAQV 290230Z AUTO VRB03KT 10SM CLR 17/11 A3017 140 69 400 VRB/03 RMK AO2 T01670111
03949KAQV AQV20190328203510703/28/19 20:35:31  5-MIN KAQV 290235Z AUTO 18004KT 10SM CLR 16/11 A3018 140 72 300 170/04 RMK AO2 T01610111
03949KAQV AQV20190328204010703/28/19 20:40:31  5-MIN KAQV 290240Z AUTO 17003KT 10SM CLR 16/11 A3017 140 72 300 160/03 RMK AO2 T01610111
03949KAQV AQV20190328204510703/28/19 20:45:31  5-MIN KAQV 290245Z AUTO VRB03KT 10SM CLR 16/11 A3017 140 72 300 VRB/03 RMK AO2 T01610111
03949KAQV AQV20190328205012003/28/19 20:50:31  5-MIN KAQV 290250Z AUTO 17003KT 10SM CLR 16/11 A3017 140 72 300 160/03 RMK AO2 SLP217 T01610111 56005
03949KAQV AQV20190328205512003/28/19 20:55:31  5-MIN KAQV 290255Z AUTO 17004KT 10SM CLR 16/11 A3017 140 74 300 170/04 RMK AO2 SLP217 T01560111 56005
03949KAQV AQV20190328210010703/28/19 21:00:31  5-MIN KAQV 290300Z AUTO 17003KT 10SM CLR 16/11 A3017 140 72 300 170/03 RMK AO2 T01610111
03949KAQV AQV20190328210510703/28/19 21:05:31  5-MIN KAQV 290305Z AUTO 17003KT 10SM CLR 16/11 A3017 140 74 300 160/03 RMK AO2 T01560111
03949KAQV AQV20190328211010703/28/19 21:10:31  5-MIN KAQV 290310Z AUTO VRB04KT 10SM CLR 16/11 A3017 150 74 300 VRB/04 RMK AO2 T01560111
03949KAQV AQV20190328211510703/28/19 21:15:31  5-MIN KAQV 290315Z AUTO 17004KT 10SM CLR 15/11 A3017 150 77 200 160/04 RMK AO2 T01500111
03949KAQV AQV20190328212010703/28/19 21:20:31  5-MIN KAQV 290320Z AUTO 17003KT 10SM CLR 15/11 A3017 150 77 200 160/03 RMK AO2 T01500111
03949KAQV AQV20190328212510703/28/19 21:25:31  5-MIN KAQV 290325Z AUTO 17003KT 10SM CLR 15/11 A3017 150 77 200 160/03 RMK AO2 T01500111
03949KAQV AQV20190328213010703/28/19 21:30:31  5-MIN KAQV 290330Z AUTO VRB03KT 10SM CLR 15/11 A3017 150 77 200 VRB/03 RMK AO2 T01500111
03949KAQV AQV20190328213510703/28/19 21:35:31  5-MIN KAQV 290335Z AUTO 18004KT 10SM CLR 14/11 A3017 150 80 200 180/04 RMK AO2 T01440111
03949KAQV AQV20190328214010703/28/19 21:40:31  5-MIN KAQV 290340Z AUTO 18003KT 10SM CLR 15/11 A3017 150 77 200 170/03 RMK AO2 T01500111
03949KAQV AQV20190328214510703/28/19 21:45:31  5-MIN KAQV 290345Z AUTO 18003KT 10SM CLR 14/11 A3016 150 80 200 180/03 RMK AO2 T01440111
03949KAQV AQV20190328215011403/28/19 21:50:31  5-MIN KAQV 290350Z AUTO 17003KT 10SM CLR 15/11 A3016 150 77 200 170/03 RMK AO2 SLP212 T01500111
03949KAQV AQV20190328215511403/28/19 21:55:31  5-MIN KAQV 290355Z AUTO 17003KT 10SM CLR 14/11 A3016 160 80 200 170/03 RMK AO2 SLP211 T01440111
03949KAQV AQV20190328220010703/28/19 22:00:31  5-MIN KAQV 290400Z AUTO 18003KT 10SM CLR 14/11 A3016 160 80 200 170/03 RMK AO2 T01440111
03949KAQV AQV20190328220510703/28/19 22:05:31  5-MIN KAQV 290405Z AUTO 18004KT 10SM CLR 14/11 A3016 160 80 200 170/04 RMK AO2 T01440111
03949KAQV AQV20190328221010703/28/19 22:10:31  5-MIN KAQV 290410Z AUTO 18004KT 10SM CLR 14/11 A3016 160 80 200 180/04 RMK AO2 T01440111
03949KAQV AQV20190328221510703/28/19 22:15:31  5-MIN KAQV 290415Z AUTO 18003KT 10SM CLR 14/11 A3016 160 80 200 180/03 RMK AO2 T01440111
03949KAQV AQV20190328222010703/28/19 22:20:31  5-MIN KAQV 290420Z AUTO 18004KT 10SM CLR 14/11 A3015 160 83 100 170/04 RMK AO2 T01390111
03949KAQV AQV20190328222510703/28/19 22:25:31  5-MIN KAQV 290425Z AUTO 17004KT 10SM CLR 14/11 A3015 160 83 100 170/04 RMK AO2 T01390111
03949KAQV AQV20190328223010703/28/19 22:30:31  5-MIN KAQV 290430Z AUTO VRB03KT 10SM CLR 14/11 A3015 160 83 100 VRB/03 RMK AO2 T01390111
03949KAQV AQV20190328223510703/28/19 22:35:31  5-MIN KAQV 290435Z AUTO 16004KT 10SM CLR 14/11 A3015 170 83 100 160/04 RMK AO2 T01390111
03949KAQV AQV20190328224010703/28/19 22:40:31  5-MIN KAQV 290440Z AUTO 18004KT 10SM CLR 14/11 A3015 170 80 200 170/04 RMK AO2 T01440111
03949KAQV AQV20190328224510703/28/19 22:45:31  5-MIN KAQV 290445Z AUTO 17003KT 10SM CLR 14/11 A3015 170 83 100 170/03 RMK AO2 T01390111
03949KAQV AQV20190328225011403/28/19 22:50:31  5-MIN KAQV 290450Z AUTO 17004KT 10SM CLR 14/11 A3014 170 80 200 170/04 RMK AO2 SLP206 T01440111
03949KAQV AQV20190328225511403/28/19 22:55:31  5-MIN KAQV 290455Z AUTO 16004KT 10SM CLR 14/11 A3014 170 83 100 160/04 RMK AO2 SLP205 T01390111
03949KAQV AQV20190328230010703/28/19 23:00:31  5-MIN KAQV 290500Z AUTO 17004KT 10SM CLR 14/11 A3014 170 83 100 170/04 RMK AO2 T01390111
03949KAQV AQV20190328230510703/28/19 23:05:31  5-MIN KAQV 290505Z AUTO 17004KT 10SM CLR 14/11 A3014 170 83 100 170/04 RMK AO2 T01390111
03949KAQV AQV20190328231010703/28/19 23:10:31  5-MIN KAQV 290510Z AUTO 18003KT 10SM CLR 14/11 A3014 170 83 100 180/03 RMK AO2 T01390111
03949KAQV AQV20190328231510703/28/19 23:15:31  5-MIN KAQV 290515Z AUTO 18003KT 10SM CLR 14/11 A3014 170 83 100 180/03 RMK AO2 T01390111
03949KAQV AQV20190328232010703/28/19 23:20:31  5-MIN KAQV 290520Z AUTO 18003KT 10SM CLR 14/11 A3014 170 83 100 180/03 RMK AO2 T01390111
03949KAQV AQV20190328232510703/28/19 23:25:31  5-MIN KAQV 290525Z AUTO 18004KT 10SM CLR 14/11 A3014 170 83 100 180/04 RMK AO2 T01390111
03949KAQV AQV20190328233010703/28/19 23:30:31  5-MIN KAQV 290530Z AUTO VRB03KT 10SM CLR 14/11 A3014 170 83 100 VRB/03 RMK AO2 T01390111
03949KAQV AQV20190328233510703/28/19 23:35:31  5-MIN KAQV 290535Z AUTO VRB03KT 10SM CLR 14/11 A3014 170 83 100 VRB/03 RMK AO2 T01390111
03949KAQV AQV20190328234010703/28/19 23:40:31  5-MIN KAQV 290540Z AUTO VRB03KT 10SM CLR 14/11 A3014 170 83 100 VRB/03 RMK AO2 T01390111
03949KAQV AQV20190328234510703/28/19 23:45:31  5-MIN KAQV 290545Z AUTO 17003KT 10SM CLR 13/11 A3014 170 86 100 170/03 RMK AO2 T01330111
03949KAQV AQV20190328235014203/28/19 23:50:31  5-MIN KAQV 290550Z AUTO 00000KT 10SM CLR 13/11 A3014 170 86 100 000/00 RMK AO2 SLP205 T01330111 10206 20133 402440061 53012
03949KAQV AQV20190328235514003/28/19 23:55:31  5-MIN KAQV 290555Z AUTO 00000KT 10SM CLR 13/11 A3014 170 89 0 000/00 RMK AO2 SLP206 T01280111 10206 20128 402440061 53012
03949KAQV AQV20190329000010503/29/19 00:00:31  5-MIN KAQV 290600Z AUTO 00000KT 10SM CLR 13/11 A3014 170 89 0 000/00 RMK AO2 T01280111
03949KAQV AQV20190329000510503/29/19 00:05:31  5-MIN KAQV 290605Z AUTO 16003KT 10SM CLR 12/11 A3014 170 89 0 150/03 RMK AO2 T01220106
03949KAQV AQV20190329001010503/29/19 00:10:31  5-MIN KAQV 290610Z AUTO 17003KT 10SM CLR 12/11 A3014 180 89 0 160/03 RMK AO2 T01220106
03949KAQV AQV20190329001510503/29/19 00:15:31  5-MIN KAQV 290615Z AUTO 00000KT 10SM CLR 12/11 A3014 180 89 0 000/00 RMK AO2 T01220106
03949KAQV AQV20190329002010803/29/19 00:20:31  5-MIN KAQV 290620Z AUTO 00000KT 10SM CLR 12/11 A3014 180 93 -100 000/00 RMK AO2 T01170106
03949KAQV AQV20190329002510803/29/19 00:25:31  5-MIN KAQV 290625Z AUTO 17003KT 10SM CLR 12/11 A3013 180 93 -100 160/03 RMK AO2 T01170106
03949KAQV AQV20190329003010803/29/19 00:30:31  5-MIN KAQV 290630Z AUTO 00000KT 10SM CLR 12/11 A3013 180 93 -100 000/00 RMK AO2 T01170106
03949KAQV AQV20190329003510803/29/19 00:35:31  5-MIN KAQV 290635Z AUTO 16003KT 10SM CLR 12/11 A3013 180 93 -100 150/03 RMK AO2 T01170106
03949KAQV AQV20190329004010803/29/19 00:40:31  5-MIN KAQV 290640Z AUTO 17004KT 10SM CLR 12/11 A3013 180 93 -100 160/04 RMK AO2 T01170106
03949KAQV AQV20190329004510503/29/19 00:45:31  5-MIN KAQV 290645Z AUTO 17003KT 10SM CLR 12/11 A3013 180 89 0 160/03 RMK AO2 T01220106
03949KAQV AQV20190329005011203/29/19 00:50:31  5-MIN KAQV 290650Z AUTO 17003KT 10SM CLR 12/11 A3013 190 89 0 160/03 RMK AO2 SLP200 T01220106
03949KAQV AQV20190329005511203/29/19 00:55:31  5-MIN KAQV 290655Z AUTO 16003KT 10SM CLR 12/11 A3013 190 89 0 150/03 RMK AO2 SLP200 T01220106
03949KAQV AQV20190329010010503/29/19 01:00:31  5-MIN KAQV 290700Z AUTO 16003KT 10SM CLR 13/11 A3012 190 89 0 150/03 RMK AO2 T01280111
03949KAQV AQV20190329010510503/29/19 01:05:31  5-MIN KAQV 290705Z AUTO 00000KT 10SM CLR 13/11 A3012 190 89 0 000/00 RMK AO2 T01280111
03949KAQV AQV20190329011010503/29/19 01:10:31  5-MIN KAQV 290710Z AUTO 15003KT 10SM CLR 13/11 A3012 190 89 0 150/03 RMK AO2 T01280111
03949KAQV AQV20190329011510503/29/19 01:15:31  5-MIN KAQV 290715Z AUTO 16003KT 10SM CLR 13/11 A3011 200 89 0 160/03 RMK AO2 T01280111
03949KAQV AQV20190329012010703/29/19 01:20:31  5-MIN KAQV 290720Z AUTO VRB03KT 10SM CLR 13/11 A3011 200 86 100 VRB/03 RMK AO2 T01330111
03949KAQV AQV20190329012510703/29/19 01:25:31  5-MIN KAQV 290725Z AUTO 17004KT 10SM CLR 13/11 A3011 210 86 100 160/04 RMK AO2 T01330111
03949KAQV AQV20190329013010703/29/19 01:30:31  5-MIN KAQV 290730Z AUTO 16006KT 10SM CLR 13/11 A3010 210 86 100 160/06 RMK AO2 T01330111
03949KAQV AQV20190329013510703/29/19 01:35:31  5-MIN KAQV 290735Z AUTO 16005KT 10SM CLR 13/12 A3010 210 89 100 160/05 RMK AO2 T01330117
03949KAQV AQV20190329014010703/29/19 01:40:31  5-MIN KAQV 290740Z AUTO 16005KT 10SM CLR 14/12 A3010 210 86 200 160/05 RMK AO2 T01390117
03949KAQV AQV20190329014510703/29/19 01:45:31  5-MIN KAQV 290745Z AUTO 17004KT 10SM CLR 14/12 A3010 210 86 200 160/04 RMK AO2 T01390117
03949KAQV AQV20190329015011403/29/19 01:50:31  5-MIN KAQV 290750Z AUTO VRB05KT 10SM CLR 14/12 A3009 220 86 200 VRB/05 RMK AO2 SLP188 T01390117
03949KAQV AQV20190329015513803/29/19 01:55:31  5-MIN KAQV 290755Z AUTO 16006KT 10SM CLR 14/12 A3009 220 8SM CLR 13/12 A3005 250 89 200 160/03 RMK AO2 SLP175 T01330117
03949KAQV AQV20190329035011403/29/19 03:50:31  5-MIN KAQV 290950Z AUTO 16003KT 10SM CLR 13/12 A3005 250 89 200 160/03 RMK AO2 SLP175 T01330117
03949KAQV AQV20190329035510703/29/19 03:55:31  5-MIN KAQV 290955Z AUTO 00000KT 10SM CLR 13/12 A3005 250 86 200 160/04 RMK AO2 T01390117
03949KAQV AQV20190329035511403/29/19 03:55:31  5-MIN KAQV 290955Z AUTO 00000KT 10SM CLR 13/12 A3005 250 89 200 000/00 RMK AO2 SLP175 T01330117
03949KAQV AQV20190329040010703/29/19 04:00:31  5-MIN KAQV 291000Z AUTO VRB03KT 10SM CLR 13/12 A3005 250 89 200 VRB/03 RMK AO2 T01330117
03949KAQV AQV20190329040510703/29/19 04:05:31  5-MIN KAQV 291005Z AUTO 00000KT 10SM CLR 13/12 A3006 250 89 200 000/00 RMK AO2 T01330117
03949KAQV AQV20190329041010703/29/19 04:10:31  5-MIN KAQV 291010Z AUTO VRB03KT 10SM CLR 13/12 A3006 250 89 100 VRB/03 RMK AO2 T01330117
03949KAQV AQV20190329041510703/29/19 04:15:31  5-MIN KAQV 291015Z AUTO VRB03KT 10SM CLR 13/12 A3006 250 89 100 VRB/03 RMK AO2 T01330117
03949KAQV AQV20190329041511403/29/19 04:15:31  5-MIN KAQV 291015Z AUTO VRB03KT 10SM CLR 13/12 A3006 250 89 200 000/00 R17003KT 10SM CLR 13/127
03949KAQV AQV20190329042010703/29/19 04:20:31  5-MIN KAQV 291020Z AUTO 17003KT 10SM CLR 13/12 A3007 240 89 100 170/03 RMK AO2 T01330117
03949KAQV AQV20190329042510703/29/19 04:25:31  5-MIN KAQV 291025Z AUTO 16003KT 10SM CLR 13/12 A3007 240 89 100 160/03 RMK AO2 T01330117
03949KAQV AQV20190329043010703/29/19 04:30:31  5-MIN KAQV 291030Z AUTO 00000KT 10SM CLR 13/12 A3007 240 89 100 000/00 RMK AO2 T01330117
03949KAQV AQV20190329043510703/29/19 04:35:31  5-MIN KAQV 291035Z AUTO 15003KT 10SM CLR 13/12 A3007 240 93 100 150/03 RMK AO2 T01280117
03949KAQV AQV20190329044010703/29/19 04:40:31  5-MIN KAQV 291040Z AUTO 16003KT 10SM CLR 13/12 A3007 240 89 100 170/03 RMK AO2 T01330117
03949KAQV AQV20190329044010703/29/19 04:40:31  5-MIN KAQV 291040Z AUTO 16003KT 10SM CLR 13/12 A3007 240 93 100 150/03 RMK AO2 T01280117
03949KAQV AQV20190329044510703/29/19 04:45:31  5-MIN KAQV 291045Z AUTO 00000KT 10SM CLR 13/12 A3007 240 93 100 000/00 RMK AO2 T01280117
03949KAQV AQV20190329045011403/29/19 04:50:31  5-MIN KAQV 291050Z AUTO VRB03KT 10SM CLR 13/12 A3007 240 93 100 VRB/03 RMK AO2 SLP181 T01280117
03949KAQV AQV20190329045511403/29/19 04:55:31  5-MIN KAQV 291055Z AUTO 00000KT 10SM CLR 13/12 A3007 240 93 100 000/00 RMK AO2 SLP181 T01280117
03949KAQV AQV20190329045516403/29/19 04:55:31  5-MIN KAQV 291055Z AUTO 00000KT 10SM CLR 13/12 A3007 240 93 100 000/00 RMK AO2 SLP181 T0128011703/29/19 05:00:31  93 100 150/03 RMK AO2 T01280117
03949KAQV AQV20190329050010703/29/19 05:00:31  5-MIN KAQV 291100Z AUTO 00000KT 10SM CLR 13/12 A3007 230 93 100 000/00 RMK AO2 T01280117
03949KAQV AQV20190329050510703/29/19 05:05:31  5-MIN KAQV 291105Z AUTO 00000KT 10SM CLR 13/12 A3008 230 93 100 000/00 RMK AO2 T01280117
03949KAQV AQV20190329051010703/29/19 05:10:31  5-MIN KAQV 291110Z AUTO 00000KT 10SM CLR 13/12 A3008 230 93 100 000/00 RMK AO2 T01280117
03949KAQV AQV20190329051510703/29/19 05:15:31  5-MIN KAQV 291115Z AUTO 00000KT 10SM CLR 13/12 A3008 230 93 100 000/00 RMK AO2 T01280117
03949KAQV AQV20190329052010703/29/19 05:20:31  5-MIN KAQV 291120Z AUTO 00000KT 10SM CLR 13/12 A3008 230 89 100 000/00 RMK AO2 T01330117
03949KAQV AQV20190329052510703/29/19 05:25:31  5-MIN KAQV 291125Z AUTO 00000KT 10SM CLR 13/12 A3008 230 89 100 000/00 RMK AO2 T01330117
03949KAQV AQV20190329053010703/29/19 05:30:31  5-MIN KAQV 291130Z AUTO 00000KT 10SM CLR 13/12 A3008 230 89 100 000/00 RMK AO2 T01330117
03949KAQV AQV20190329053510703/29/19 05:35:31  5-MIN KAQV 291135Z AUTO 00000KT 10SM CLR 13/12 A3008 230 89 100 000/00 RMK AO2 T01330117
03949KAQV AQV20190329054010703/29/19 05:40:31  5-MIN KAQV 291140Z AUTO VRB03KT 10SM CLR 13/12 A3008 230 89 100 VRB/03 RMK AO2 T01330117
03949KAQV AQV20190329054510703/29/19 05:45:31  5-MIN KAQV 291145Z AUTO 00000KT 10SM CLR 13/12 A3007 230 89 100 000/00 RMK AO2 T01330117
03949KAQV AQV20190329055013203/29/19 05:50:31  5-MIN KAQV 291150Z AUTO 00000KT 10SM CLR 13/12 A3008 230 93 100 000/00 RMK AO2 SLP183 T01330122 10139 20117 58027
03949KAQV AQV20190329055513503/29/19 05:55:31  5-MIN KAQV 291155Z AUTO 00000KT 10SM FEW037 13/12 A3008 230 93 100 000/00 RMK AO2 SLP184 T01330122 10139 20117 58027
03949KAQV AQV20190329060011003/29/19 06:00:31  5-MIN KAQV 291200Z AUTO 00000KT 10SM SCT037 13/12 A3008 230 93 100 000/00 RMK AO2 T01330122
03949KAQV AQV20190329060511003/29/19 06:05:31  5-MIN KAQV 291205Z AUTO 00000KT 10SM BKN037 13/12 A3008 230 93 100 000/00 RMK AO2 T01330122
03949KAQV AQV20190329061011003/29/19 06:10:31  5-MIN KAQV 291210Z AUTO 00000KT 10SM BKN037 13/12 A3008 230 93 100 000/00 RMK AO2 T01330122
03949KAQV AQV20190329061511003/29/19 06:15:31  5-MIN KAQV 291215Z AUTO 00000KT 10SM BKN037 13/12 A3009 220 93 100 000/00 RMK AO2 T01330122
03949KAQV AQV20190329062011003/29/19 06:20:31  5-MIN KAQV 291220Z AUTO 00000KT 10SM BKN037 13/12 A3009 220 93 100 000/00 RMK AO2 T01330122
03949KAQV AQV20190329062510903/29/19 06:25:31  5-MIN KAQV 291225Z AUTO 00000KT 9SM BKN037 13/12 A3009 220 93 100 000/00 RMK AO2 T01330122
03949KAQV AQV20190329063010903/29/19 06:30:31  5-MIN KAQV 291230Z AUTO 00000KT 8SM BKN037 13/12 A3009 220 93 100 000/00 RMK AO2 T01330122
03949KAQV AQV20190329063510903/29/19 06:35:31  5-MIN KAQV 291235Z AUTO 00000KT 8SM BKN037 13/12 A3010 210 93 100 000/00 RMK AO2 T01330122
03949KAQV AQV20190329064010903/29/19 06:40:31  5-MIN KAQV 291240Z AUTO 00000KT 8SM BKN037 13/12 A3010 210 93 100 000/00 RMK AO2 T01330122
03949KAQV AQV20190329064510903/29/19 06:45:31  5-MIN KAQV 291245Z AUTO 00000KT 9SM BKN037 13/12 A3010 210 93 100 000/00 RMK AO2 T01330122
03949KAQV AQV20190329065011603/29/19 06:50:31  5-MIN KAQV 291250Z AUTO 00000KT 9SM BKN037 13/12 A3010 210 93 100 000/00 RMK AO2 SLP193 T01330122
03949KAQV AQV20190329065511703/29/19 06:55:31  5-MIN KAQV 291255Z AUTO 00000KT 10SM BKN037 13/12 A3011 210 93 100 000/00 RMK AO2 SLP194 T01330122
03949KAQV AQV20190329070011003/29/19 07:00:31  5-MIN KAQV 291300Z AUTO 00000KT 10SM BKN036 13/12 A3011 200 93 100 000/00 RMK AO2 T01330122
03949KAQV AQV20190329070511003/29/19 07:05:31  5-MIN KAQV 291305Z AUTO 00000KT 10SM SCT036 14/12 A3011 200 90 200 000/00 RMK AO2 T01390122
03949KAQV AQV20190329071011003/29/19 07:10:31  5-MIN KAQV 291310Z AUTO 00000KT 10SM FEW036 14/12 A3011 200 90 200 000/00 RMK AO2 T01390122
03949KAQV AQV20190329071511003/29/19 07:15:31  5-MIN KAQV 291315Z AUTO 00000KT 10SM SCT038 14/12 A3012 190 90 100 000/00 RMK AO2 T01390122
03949KAQV AQV20190329072011003/29/19 07:20:31  5-MIN KAQV 291320Z AUTO 00000KT 10SM BKN040 14/12 A3012 190 90 100 000/00 RMK AO2 T01390122
03949KAQV AQV20190329072511003/29/19 07:25:31  5-MIN KAQV 291325Z AUTO 16003KT 10SM BKN040 14/12 A3012 190 90 100 150/03 RMK AO2 T01390122
03949KAQV AQV20190329073011003/29/19 07:30:31  5-MIN KAQV 291330Z AUTO 00000KT 10SM BKN042 14/12 A3013 190 90 100 000/00 RMK AO2 T01390122
03949KAQV AQV20190329073511003/29/19 07:35:31  5-MIN KAQV 291335Z AUTO 00000KT 10SM BKN042 14/12 A3013 180 90 100 000/00 RMK AO2 T01390122
03949KAQV AQV20190329074011003/29/19 07:40:31  5-MIN KAQV 291340Z AUTO 00000KT 10SM OVC041 14/13 A3013 180 90 200 000/00 RMK AO2 T01440128
03949KAQV AQV20190329074511003/29/19 07:45:31  5-MIN KAQV 291345Z AUTO 00000KT 10SM OVC041 14/13 A3013 180 90 200 000/00 RMK AO2 T01440128
03949KAQV AQV20190329075011703/29/19 07:50:31  5-MIN KAQV 291350Z AUTO 00000KT 10SM OVC043 14/13 A3013 180 90 200 000/00 RMK AO2 SLP202 T01440128
03949KAQV AQV20190329075511703/29/19 07:55:31  5-MIN KAQV 291355Z AUTO 00000KT 10SM OVC043 14/13 A3013 190 90 200 000/00 RMK AO2 SLP201 T01440128
03949KAQV AQV20190329080011003/29/19 08:00:31  5-MIN KAQV 291400Z AUTO 00000KT 10SM OVC043 14/13 A3013 190 90 200 000/00 RMK AO2 T01440128
03949KAQV AQV20190329080511003/29/19 08:05:31  5-MIN KAQV 291405Z AUTO 00000KT 10SM BKN044 14/13 A3013 190 90 200 000/00 RMK AO2 T01440128
03949KAQV AQV20190329081011003/29/19 08:10:31  5-MIN KAQV 291410Z AUTO 00000KT 10SM BKN044 14/13 A3013 190 90 200 000/00 RMK AO2 T01440128
03949KAQV AQV20190329081511003/29/19 08:15:31  5-MIN KAQV 291415Z AUTO 00000KT 10SM OVC044 15/13 A3013 190 86 300 000/00 RMK AO2 T01500128
03949KAQV AQV20190329082011003/29/19 08:20:31  5-MIN KAQV 291420Z AUTO 00000KT 10SM OVC044 15/13 A3013 190 86 300 000/00 RMK AO2 T01500128
03949KAQV AQV20190329082511003/29/19 08:25:31  5-MIN KAQV 291425Z AUTO 00000KT 10SM OVC044 16/13 A3013 180 86 300 000/00 RMK AO2 T01560133
03949KAQV AQV20190329083011703/29/19 08:30:31  5-MIN KAQV 291430Z AUTO 00000KT 10SM BKN044 OVC050 16/13 A3013 190 86 300 000/00 RMK AO2 T01560133
03949KAQV AQV20190329083511703/29/19 08:35:31  5-MIN KAQV 291435Z AUTO VRB03KT 10SM SCT042 BKN050 16/13 A3013 190 86 300 VRB/03 RMK AO2 T01560133
03949KAQV AQV20190329085506303/29/19 08:55:31  5-MIN KAQV 291455Z AUTO M M M M /M RMK AO2 $
03949KAQV AQV20190329091007603/29/19 09:10:31  5-MIN KAQV 291510Z AUTO M M M M /M RMK AO2 PWINO FZRANO $
03949KAQV AQV20190329093007903/29/19 09:30:31  5-MIN KAQV 291530Z AUTO VRB04KT A3013 M M M VRB/04 RMK AO2 $
03949KAQV AQV20190329093510503/29/19 09:35:31  5-MIN KAQV 291535Z AUTO 18004KT 10SM 19/14 A3012 190 75 700 170/04 RMK AO2 T01890144 $
03949KAQV AQV20190329094010503/29/19 09:40:31  5-MIN KAQV 291540Z AUTO VRB03KT 10SM 19/14 A3012 190 75 700 VRB/03 RMK AO2 T01890144 $
03949KAQV AQV20190329101007603/29/19 10:10:31  5-MIN KAQV 291610Z AUTO M M M M /M RMK AO2 PWINO FZRANO $
03949KAQV AQV20190329101510003/29/19 10:15:31  5-MIN KAQV 291615Z AUTO VRB04KT 20/14 A3012 190 70 900 VRB/04 RMK AO2 T02000144 $
03949KAQV AQV20190329102010503/29/19 10:20:31  5-MIN KAQV 291620Z AUTO VRB03KT 10SM 20/14 A3012 190 70 900 VRB/03 RMK AO2 T02000144 $
03949KAQV AQV20190329102510503/29/19 10:25:31  5-MIN KAQV 291625Z AUTO VRB05KT 10SM 20/14 A3012 190 70 900 VRB/05 RMK AO2 T02000144 $
03949KAQV AQV20190329111009203/29/19 11:10:31  5-MIN KAQV 291710Z AUTO VRB05KT A3011 M M M VRB/05 RMK AO2 PWINO FZRANO $
03949KAQV AQV20190329111510003/29/19 11:15:31  5-MIN KAQV 291715Z AUTO 16006KT 19/14 A3010 210 72 800 160/06 RMK AO2 T01940144 $
03949KAQV AQV20190329112010503/29/19 11:20:31  5-MIN KAQV 291720Z AUTO 16007KT 10SM 19/14 A3010 210 72 800 160/07 RMK AO2 T01940144 $
03949KAQV AQV20190329112510503/29/19 11:25:31  5-MIN KAQV 291725Z AUTO VRB05KT 10SM 19/14 A3009 220 72 800 VRB/05 RMK AO2 T01940144 $
03949KAQV AQV20190329113010503/29/19 11:30:31  5-MIN KAQV 291730Z AUTO 17004KT 10SM 19/14 A3009 220 72 800 170/04 RMK AO2 T01940144 $
03949KAQV AQV20190329113510503/29/19 11:35:31  5-MIN KAQV 291735Z AUTO VRB04KT 10SM 19/14 A3009 220 75 800 VRB/04 RMK AO2 T01890144 $
03949KAQV AQV20190329114012603/29/19 11:40:31  5-MIN KAQV 291740Z AUTO 16004KT 10SM FEW050 FEW095 BKN120 19/14 A3008 220 72 800 160/04 RMK AO2 T01940144 $
03949KAQV AQV20190329114507503/29/19 11:45:31  5-MIN KAQV 291745Z AUTO VRB03KT 10SM FEW049 BKN120 19/14
03949KAQV AQV20190329151014403/29/19 15:10:31  5-MIN KAQV 292110Z AUTO VRB04KT 10SM FEW033 SCT046 OVC060 21/15 A3000 300 68 1100 VRB/04 RMK AO2 RAB2058E08 P0000 T02110150 $
03949KAQV AQV20190329151514303/29/19 15:15:31  5-MIN KAQV 292115Z AUTO 10SM TS FEW033 FEW044 OVC060 22/15 A3000 300 65 1200 M /M RMK AO2 RAB2058E08 TSB13 P0000 T02170150 $
03949KAQV AQV20190329152014603/29/19 15:20:31  5-MIN KAQV 292120Z AUTO VRB03KT 10SM TS FEW030 OVC060 22/14 A3000 310 61 1300 VRB/03 RMK AO2 RAB2058E08 TSB13 P0000 T02220144 $
03949KAQV AQV20190329152513903/29/19 15:25:31  5-MIN KAQV 292125Z AUTO VRB05KT 10SM TS BKN060 22/14 A2999 310 59 1300 VRB/05 RMK AO2 RAB2058E08 TSB13 P0000 T02220139 $
03949KAQV AQV20190329153013903/29/19 15:30:31  5-MIN KAQV 292130Z AUTO VRB05KT 10SM BKN060 22/14 A2999 310 59 1300 VRB/05 RMK AO2 RAB2058E08 TSB13E28 P0000 T02220139 $
03949KAQV AQV20190329153514603/29/19 15:35:31  5-MIN KAQV 292135Z AUTO VRB04KT 10SM FEW037 BKN060 22/14 A2999 310 59 1300 VRB/04 RMK AO2 RAB2058E08 TSB13E28 P0000 T02220139 $
03949KAQV AQV20190329154013903/29/19 15:40:31  5-MIN KAQV 292140Z AUTO 18006KT 10SM BKN060 22/14 A2999 310 59 1300 180/06 RMK AO2 RAB2058E08 TSB13E28 P0000 T02220139 $
03949KAQV AQV20190329154515303/29/19 15:45:31  5-MIN KAQV 292145Z AUTO 17005KT 10SM FEW036 SCT047 BKN060 22/13 A2999 310 56 1300 170/05 RMK AO2 RAB2058E08 TSB13E28 P0000 T02220133 $
03949KAQV AQV20190329155016003/29/19 15:50:31  5-MIN KAQV 292150Z AUTO VRB06KT 10SM FEW036 SCT045 BKN055 22/14 A2999 310 61 1200 VRB/06 RMK AO2 RAB2058E08 TSB13E28 SLP153 P0000 T02170139 $
03949KAQV AQV20190329155516003/29/19 15:55:31  5-MIN KAQV 292155Z AUTO VRB04KT 10SM FEW036 FEW045 BKN060 22/14 A2999 310 59 1300 VRB/04 RMK AO2 RAB2058E08 TSB13E28 SLP153 P0000 T02220139 $
03949KAQV AQV20190329160012703/29/19 16:00:31  5-MIN KAQV 292200Z AUTO 17007KT 10SM FEW036 FEW045 BKN060 22/13 A2999 310 56 1300 170/07 RMK AO2 T02220133 $
03949KAQV AQV20190329160511703/29/19 16:05:31  5-MIN KAQV 292205Z AUTO 10SM FEW036 FEW045 OVC060 22/13 A2999 320 58 1200 M /M RMK AO2 T02170133 $
03949KAQV AQV20190329161012703/29/19 16:10:31  5-MIN KAQV 292210Z AUTO 00000KT 10SM FEW037 FEW045 OVC060 22/13 A2999 320 58 1200 000/00 RMK AO2 T02170133 $
03949KAQV AQV20190329161511303/29/19 16:15:31  5-MIN KAQV 292215Z AUTO VRB04KT 10SM OVC060 22/13 A2999 310 58 1200 VRB/04 RMK AO2 T02170133 $
03949KAQV AQV20190329162011303/29/19 16:20:31  5-MIN KAQV 292220Z AUTO VRB03KT 10SM OVC060 22/14 A2999 320 59 1300 VRB/03 RMK AO2 T02220139 $
03949KAQV AQV20190329162511303/29/19 16:25:31  5-MIN KAQV 292225Z AUTO VRB06KT 10SM BKN060 23/14 A2998 320 55 1400 VRB/06 RMK AO2 T02330139 $
03949KAQV AQV20190329163011303/29/19 16:30:31  5-MIN KAQV 292230Z AUTO VRB04KT 10SM BKN060 23/14 A2998 320 57 1300 VRB/04 RMK AO2 T02280139 $
03949KAQV AQV20190329163511703/29/19 16:35:31  5-MIN KAQV 292235Z AUTO 10SM FEW037 FEW048 BKN065 22/14 A2998 320 59 1300 M /M RMK AO2 T02220139 $
03949KAQV AQV20190329164012003/29/19 16:40:31  5-MIN KAQV 292240Z AUTO VRB04KT 10SM SCT040 BKN065 22/14 A2998 320 61 1200 VRB/04 RMK AO2 T02170139 $
03949KAQV AQV20190329164512703/29/19 16:45:31  5-MIN KAQV 292245Z AUTO 15006KT 10SM SCT040 SCT050 BKN065 22/14 A2998 320 61 1200 150/06 RMK AO2 T02170139 $
03949KAQV AQV20190329165013403/29/19 16:50:31  5-MIN KAQV 292250Z AUTO VRB06KT 10SM SCT040 BKN048 BKN065 22/14 A2998 320 61 1200 VRB/06 RMK AO2 SLP151 T02170139 $
03949KAQV AQV20190329165513403/29/19 16:55:31  5-MIN KAQV 292255Z AUTO VRB05KT 10SM SCT040 SCT048 OVC065 22/14 A2998 320 61 1200 VRB/05 RMK AO2 SLP152 T02170139 $
03949KAQV AQV20190329170012703/29/19 17:00:31  5-MIN KAQV 292300Z AUTO VRB04KT 10SM SCT040 SCT050 OVC065 22/14 A2998 320 61 1300 VRB/04 RMK AO2 T02220144 $
03949KAQV AQV20190329170512703/29/19 17:05:31  5-MIN KAQV 292305Z AUTO VRB05KT 10SM FEW040 SCT050 BKN065 22/14 A2998 320 61 1300 VRB/05 RMK AO2 T02220144 $
03949KAQV AQV20190329171012703/29/19 17:10:31  5-MIN KAQV 292310Z AUTO 16005KT 10SM SCT040 SCT049 BKN065 22/14 A2998 320 63 1200 150/05 RMK AO2 T02170144 $
03949KAQV AQV20190329171512003/29/19 17:15:31  5-MIN KAQV 292315Z AUTO 00000KT 10SM SCT040 BKN065 22/14 A2998 320 63 1200 000/00 RMK AO2 T02170144 $
03949KAQV AQV20190329172012003/29/19 17:20:31  5-MIN KAQV 292320Z AUTO VRB04KT 10SM FEW040 BKN065 21/14 A2998 320 65 1200 VRB/04 RMK AO2 T02110144 $
03949KAQV AQV20190329172512003/29/19 17:25:31  5-MIN KAQV 292325Z AUTO 17004KT 10SM FEW040 SCT065 21/14 A2998 320 65 1200 160/04 RMK AO2 T02110144 $
03949KAQV AQV20190329173012003/29/19 17:30:31  5-MIN KAQV 292330Z AUTO 17005KT 10SM FEW040 SCT060 21/14 A2998 320 65 1200 160/05 RMK AO2 T02110144 $
03949KAQV AQV20190329173512003/29/19 17:35:31  5-MIN KAQV 292335Z AUTO VRB03KT 10SM FEW040 BKN060 21/14 A2998 320 65 1200 VRB/03 RMK AO2 T02110144 $
03949KAQV AQV20190329174012003/29/19 17:40:31  5-MIN KAQV 292340Z AUTO VRB03KT 10SM FEW040 BKN060 21/14 A2998 320 65 1100 VRB/03 RMK AO2 T02110144 $
03949KAQV AQV20190329174511303/29/19 17:45:31  5-MIN KAQV 292345Z AUTO VRB03KT 10SM SCT060 21/14 A2998 320 65 1100 VRB/03 RMK AO2 T02110144 $
03949KAQV AQV20190329175013803/29/19 17:50:31  5-MIN KAQV 292350Z AUTO 16003KT 10SM SCT060 21/14 A2998 320 65 1100 150/03 RMK AO2 SLP150 6//// T02110144 10233 20189 $
03949KAQV AQV20190329175513803/29/19 17:55:31  5-MIN KAQV 292355Z AUTO 17004KT 10SM SCT060 21/14 A2998 320 67 1100 170/04 RMK AO2 SLP150 6//// T02060144 10233 20189 $
03949KAQV AQV20190329180011303/29/19 18:00:31  5-MIN KAQV 300000Z AUTO VRB03KT 10SM SCT060 21/14 A2998 320 67 1100 VRB/03 RMK AO2 T02060144 $
03949KAQV AQV20190329180511303/29/19 18:05:31  5-MIN KAQV 300005Z AUTO VRB03KT 10SM FEW060 21/14 A2997 330 67 1100 VRB/03 RMK AO2 T02060144 $
03949KAQV AQV20190329181011303/29/19 18:10:31  5-MIN KAQV 300010Z AUTO 17003KT 10SM FEW060 20/14 A2998 320 70 1000 170/03 RMK AO2 T02000144 $
03949KAQV AQV20190329181511303/29/19 18:15:31  5-MIN KAQV 300015Z AUTO 17004KT 10SM FEW060 20/14 A2998 320 70 1000 160/04 RMK AO2 T02000144 $
03949KAQV AQV20190329182011003/29/19 18:20:31  5-MIN KAQV 300020Z AUTO 17004KT 10SM CLR 19/14 A2997 330 72 1000 170/04 RMK AO2 T01940144 $
03949KAQV AQV20190329182511003/29/19 18:25:31  5-MIN KAQV 300025Z AUTO VRB04KT 10SM CLR 19/14 A2997 330 70 1000 VRB/04 RMK AO2 T01940139 $
03949KAQV AQV20190329183010903/29/19 18:30:31  5-MIN KAQV 300030Z AUTO VRB03KT 10SM CLR 19/14 A2997 330 72 900 VRB/03 RMK AO2 T01890139 $
03949KAQV AQV20190329183510903/29/19 18:35:31  5-MIN KAQV 300035Z AUTO VRB03KT 10SM CLR 19/14 A2997 330 72 900 VRB/03 RMK AO2 T01890139 $
03949KAQV AQV20190329184010903/29/19 18:40:31  5-MIN KAQV 300040Z AUTO VRB03KT 10SM CLR 19/14 A2997 330 72 900 VRB/03 RMK AO2 T01890139 $
03949KAQV AQV20190329184510903/29/19 18:45:31  5-MIN KAQV 300045Z AUTO 16003KT 10SM CLR 18/14 A2996 340 75 800 150/03 RMK AO2 T01830139 $
03949KAQV AQV20190329185011603/29/19 18:50:31  5-MIN KAQV 300050Z AUTO 16004KT 10SM CLR 19/14 A2996 340 72 900 160/04 RMK AO2 SLP144 T01890139 $
03949KAQV AQV20190329185511603/29/19 18:55:31  5-MIN KAQV 300055Z AUTO 15004KT 10SM CLR 19/14 A2996 340 72 900 150/04 RMK AO2 SLP144 T01890139 $
03949KAQV AQV20190329190010903/29/19 19:00:31  5-MIN KAQV 300100Z AUTO 16003KT 10SM CLR 18/14 A2996 340 75 900 150/03 RMK AO2 T01830139 $
03949KAQV AQV20190329190510903/29/19 19:05:31  5-MIN KAQV 300105Z AUTO VRB03KT 10SM CLR 18/14 A2996 340 75 900 VRB/03 RMK AO2 T01830139 $
03949KAQV AQV20190329191010903/29/19 19:10:31  5-MIN KAQV 300110Z AUTO 16003KT 10SM CLR 18/14 A2996 340 75 900 160/03 RMK AO2 T01830139 $
03949KAQV AQV20190329191510903/29/19 19:15:31  5-MIN KAQV 300115Z AUTO 00000KT 10SM CLR 18/14 A2996 340 75 800 000/00 RMK AO2 T01830139 $
03949KAQV AQV20190329192010703/29/19 19:20:31  5-MIN KAQV 300120Z AUTO 00000KT 10SM CLR 18/14 A2996 340 75 800 000/00 RMK AO2 T01830139
03949KAQV AQV20190329192510703/29/19 19:25:31  5-MIN KAQV 300125Z AUTO 17003KT 10SM CLR 18/14 A2997 330 78 800 160/03 RMK AO2 T01780139
03949KAQV AQV20190329193011003/29/19 19:30:31  5-MIN KAQV 300130Z AUTO 00000KT 10SM FEW034 18/14 A2997 330 78 800 000/00 RMK AO2 T01780139
03949KAQV AQV20190329193511003/29/19 19:35:31  5-MIN KAQV 300135Z AUTO 18003KT 10SM FEW034 17/14 A2997 330 80 700 180/03 RMK AO2 T01720139
03949KAQV AQV20190329194011003/29/19 19:40:31  5-MIN KAQV 300140Z AUTO VRB03KT 10SM FEW034 17/14 A2998 320 80 700 VRB/03 RMK AO2 T01720139
03949KAQV AQV20190329194511003/29/19 19:45:31  5-MIN KAQV 300145Z AUTO 00000KT 10SM FEW035 17/14 A2998 320 80 700 000/00 RMK AO2 T01720139
03949KAQV AQV20190329195011703/29/19 19:50:31  5-MIN KAQV 300150Z AUTO 00000KT 10SM FEW035 17/14 A2998 320 83 600 000/00 RMK AO2 SLP152 T01670139
03949KAQV AQV20190329195511703/29/19 19:55:31  5-MIN KAQV 300155Z AUTO 18003KT 10SM SCT034 17/14 A2998 320 83 600 180/03 RMK AO2 SLP152 T01670139
03949KAQV AQV20190329200011003/29/19 20:00:31  5-MIN KAQV 300200Z AUTO 00000KT 10SM BKN034 16/14 A2998 320 86 600 000/00 RMK AO2 T01610139
03949KAQV AQV20190329200511003/29/19 20:05:31  5-MIN KAQV 300205Z AUTO 00000KT 10SM BKN034 16/14 A2999 310 86 600 000/00 RMK AO2 T01610139
03949KAQV AQV20190329201011003/29/19 20:10:31  5-MIN KAQV 300210Z AUTO 17003KT 10SM BKN034 16/14 A2999 310 86 600 170/03 RMK AO2 T01610139
03949KAQV AQV20190329201511003/29/19 20:15:31  5-MIN KAQV 300215Z AUTO 17003KT 10SM BKN034 16/14 A2999 310 86 600 170/03 RMK AO2 T01610139
03949KAQV AQV20190329202011003/29/19 20:20:31  5-MIN KAQV 300220Z AUTO 00000KT 10SM BKN034 16/14 A2999 310 86 600 000/00 RMK AO2 T01610139
03949KAQV AQV20190329202511003/29/19 20:25:31  5-MIN KAQV 300225Z AUTO 16003KT 10SM BKN036 16/14 A2999 320 86 600 160/03 RMK AO2 T01610139
03949KAQV AQV20190329203011003/29/19 20:30:31  5-MIN KAQV 300230Z AUTO 16003KT 10SM BKN036 16/14 A2999 320 86 600 150/03 RMK AO2 T01610139
03949KAQV AQV20190329203511003/29/19 20:35:31  5-MIN KAQV 300235Z AUTO 00000KT 10SM SCT035 16/14 A2999 310 86 600 000/00 RMK AO2 T01610139
03949KAQV AQV20190329204011003/29/19 20:40:31  5-MIN KAQV 300240Z AUTO 17003KT 10SM FEW035 16/14 A2999 320 86 600 170/03 RMK AO2 T01610139
03949KAQV AQV20190329204511003/29/19 20:45:31  5-MIN KAQV 300245Z AUTO 17003KT 10SM FEW035 16/14 A2999 320 86 600 170/03 RMK AO2 T01610139
03949KAQV AQV20190329205012303/29/19 20:50:31  5-MIN KAQV 300250Z AUTO 00000KT 10SM FEW037 16/14 A2998 320 90 500 000/00 RMK AO2 SLP153 T01560139 56010
03949KAQV AQV20190329205512003/29/19 20:55:31  5-MIN KAQV 300255Z AUTO 00000KT 10SM CLR 16/14 A2998 320 90 500 000/00 RMK AO2 SLP152 T01560139 56010
03949KAQV AQV20190329210010703/29/19 21:00:31  5-MIN KAQV 300300Z AUTO 16003KT 10SM CLR 15/13 A2998 320 90 400 160/03 RMK AO2 T01500133
03949KAQV AQV20190329210510703/29/19 21:05:31  5-MIN KAQV 300305Z AUTO 00000KT 10SM CLR 15/13 A2998 320 90 400 000/00 RMK AO2 T01500133
03949KAQV AQV20190329211010703/29/19 21:10:31  5-MIN KAQV 300310Z AUTO 18003KT 10SM CLR 16/14 A2998 320 90 500 170/03 RMK AO2 T01560139
03949KAQV AQV20190329211510703/29/19 21:15:31  5-MIN KAQV 300315Z AUTO 17003KT 10SM CLR 16/14 A2998 320 90 500 170/03 RMK AO2 T01560139
03949KAQV AQV20190329212010703/29/19 21:20:31  5-MIN KAQV 300320Z AUTO 17003KT 10SM CLR 15/13 A2998 320 90 400 170/03 RMK AO2 T01500133
03949KAQV AQV20190329212510703/29/19 21:25:31  5-MIN KAQV 300325Z AUTO 17003KT 10SM CLR 15/13 A2998 320 90 400 170/03 RMK AO2 T01500133
03949KAQV AQV20190329213010703/29/19 21:30:31  5-MIN KAQV 300330Z AUTO 00000KT 10SM CLR 15/13 A2998 320 90 400 000/00 RMK AO2 T01500133
03949KAQV AQV20190329213510703/29/19 21:35:31  5-MIN KAQV 300335Z AUTO 00000KT 10SM CLR 15/13 A2998 320 90 400 000/00 RMK AO2 T01500133
03949KAQV AQV20190329214010703/29/19 21:40:31  5-MIN KAQV 300340Z AUTO 17003KT 10SM CLR 15/13 A2998 320 90 400 170/03 RMK AO2 T01500133
03949KAQV AQV20190329214510703/29/19 21:45:31  5-MIN KAQV 300345Z AUTO 17003KT 10SM CLR 15/13 A2997 330 90 400 170/03 RMK AO2 T01500133
03949KAQV AQV20190329215011403/29/19 21:50:31  5-MIN KAQV 300350Z AUTO 00000KT 10SM CLR 15/13 A2997 330 90 400 000/00 RMK AO2 SLP149 T01500133
03949KAQV AQV20190329215511403/29/19 21:55:31  5-MIN KAQV 300355Z AUTO 00000KT 10SM CLR 15/13 A2998 320 90 400 000/00 RMK AO2 SLP150 T01500133
03949KAQV AQV20190329220010703/29/19 22:00:31  5-MIN KAQV 300400Z AUTO 16003KT 10SM CLR 16/14 A2997 330 90 500 160/03 RMK AO2 T01560139
03949KAQV AQV20190329220510703/29/19 22:05:31  5-MIN KAQV 300405Z AUTO VRB03KT 10SM CLR 15/14 A2997 330 93 400 VRB/03 RMK AO2 T01500139
03949KAQV AQV20190329221010703/29/19 22:10:31  5-MIN KAQV 300410Z AUTO 17003KT 10SM CLR 15/13 A2997 330 90 400 170/03 RMK AO2 T01500133
03949KAQV AQV20190329221510703/29/19 22:15:31  5-MIN KAQV 300415Z AUTO 17003KT 10SM CLR 16/14 A2997 330 90 500 160/03 RMK AO2 T01560139
03949KAQV AQV20190329222010703/29/19 22:20:31  5-MIN KAQV 300420Z AUTO 18003KT 10SM CLR 16/14 A2997 330 90 500 180/03 RMK AO2 T01560139
03949KAQV AQV20190329222510703/29/19 22:25:31  5-MIN KAQV 300425Z AUTO 00000KT 10SM CLR 16/14 A2997 330 90 500 000/00 RMK AO2 T01560139
03949KAQV AQV20190329223010703/29/19 22:30:31  5-MIN KAQV 300430Z AUTO 17003KT 10SM CLR 15/13 A2998 330 90 400 160/03 RMK AO2 T01500133
03949KAQV AQV20190329223510703/29/19 22:35:31  5-MIN KAQV 300435Z AUTO 17003KT 10SM CLR 15/13 A2997 330 90 400 170/03 RMK AO2 T01500133
03949KAQV AQV20190329224010703/29/19 22:40:31  5-MIN KAQV 300440Z AUTO 00000KT 10SM CLR 15/14 A2997 330 93 400 000/00 RMK AO2 T01500139
03949KAQV AQV20190329224510703/29/19 22:45:31  5-MIN KAQV 300445Z AUTO 00000KT 10SM CLR 15/13 A2997 330 90 400 000/00 RMK AO2 T01500133
03949KAQV AQV20190329225011403/29/19 22:50:31  5-MIN KAQV 300450Z AUTO 17003KT 10SM CLR 15/14 A2997 330 93 500 160/03 RMK AO2 SLP145 T01500139
03949KAQV AQV20190329225511303/29/19 22:55:31  5-MIN KAQV 300455Z AUTO 17003KT 10SM CLR 15/14 A2996 340 93 500 170/03 RMK AO2 SLPNO T01500139
03949KAQV AQV20190329230010703/29/19 23:00:31  5-MIN KAQV 300500Z AUTO 00000KT 10SM CLR 15/14 A2996 340 93 500 000/00 RMK AO2 T01500139
03949KAQV AQV20190329230510703/29/19 23:05:31  5-MIN KAQV 300505Z AUTO 17003KT 10SM CLR 15/13 A2996 340 90 500 170/03 RMK AO2 T01500133
03949KAQV AQV20190329231010703/29/19 23:10:31  5-MIN KAQV 300510Z AUTO 00000KT 10SM CLR 15/13 A2996 340 90 500 000/00 RMK AO2 T01500133
03949KAQV AQV20190329231510703/29/19 23:15:31  5-MIN KAQV 300515Z AUTO 00000KT 10SM CLR 14/13 A2996 340 93 400 000/00 RMK AO2 T01440133
03949KAQV AQV20190329232010703/29/19 23:20:31  5-MIN KAQV 300520Z AUTO 17003KT 10SM CLR 14/13 A2996 340 93 400 170/03 RMK AO2 T01440133
03949KAQV AQV20190329232510703/29/19 23:25:31  5-MIN KAQV 300525Z AUTO 17003KT 10SM CLR 14/13 A2996 340 93 400 160/03 RMK AO2 T01440133
03949KAQV AQV20190329233010703/29/19 23:30:31  5-MIN KAQV 300530Z AUTO 17003KT 10SM CLR 14/13 A2995 350 93 400 160/03 RMK AO2 T01440133
03949KAQV AQV20190329233510703/29/19 23:35:31  5-MIN KAQV 300535Z AUTO 00000KT 10SM CLR 14/13 A2995 350 93 400 000/00 RMK AO2 T01440133
03949KAQV AQV20190329234010703/29/19 23:40:31  5-MIN KAQV 300540Z AUTO 00000KT 10SM CLR 14/13 A2995 350 93 400 000/00 RMK AO2 T01440133
03949KAQV AQV20190329234510703/29/19 23:45:31  5-MIN KAQV 300545Z AUTO 17003KT 10SM CLR 14/13 A2995 350 93 400 170/03 RMK AO2 T01440133
03949KAQV AQV20190329235014203/29/19 23:50:31  5-MIN KAQV 300550Z AUTO VRB03KT 10SM CLR 14/13 A2995 350 93 400 VRB/03 RMK AO2 SLP140 T01440133 10206 20144 402330117 53001
03949KAQV AQV20190329235514203/29/19 23:55:31  5-MIN KAQV 300555Z AUTO 17004KT 10SM CLR 14/13 A2995 350 93 400 160/04 RMK AO2 SLP140 T01440133 10206 20144 402330117 53001
03949KAQV AQV20190330000010703/30/19 00:00:31  5-MIN KAQV 300600Z AUTO 17003KT 10SM CLR 15/14 A2995 350 93 500 170/03 RMK AO2 T01500139
03949KAQV AQV20190330000510703/30/19 00:05:31  5-MIN KAQV 300605Z AUTO VRB03KT 10SM CLR 15/14 A2995 350 93 500 VRB/03 RMK AO2 T01500139
03949KAQV AQV20190330001010703/30/19 00:10:31  5-MIN KAQV 300610Z AUTO 18003KT 10SM CLR 15/14 A2995 350 93 500 170/03 RMK AO2 T01500139
03949KAQV AQV20190330001510703/30/19 00:15:31  5-MIN KAQV 300615Z AUTO 17003KT 10SM CLR 15/14 A2995 350 93 500 160/03 RMK AO2 T01500139
03949KAQV AQV20190330002010703/30/19 00:20:31  5-MIN KAQV 300620Z AUTO 17003KT 10SM CLR 15/14 A2994 360 93 500 170/03 RMK AO2 T01500139
03949KAQV AQV20190330002510703/30/19 00:25:31  5-MIN KAQV 300625Z AUTO 18003KT 10SM CLR 15/14 A2994 360 96 500 170/03 RMK AO2 T01500144
03949KAQV AQV20190330003010703/30/19 00:30:31  5-MIN KAQV 300630Z AUTO VRB03KT 10SM CLR 15/14 A2994 360 93 500 VRB/03 RMK AO2 T01500139
03949KAQV AQV20190330003510703/30/19 00:35:31  5-MIN KAQV 300635Z AUTO 18004KT 10SM CLR 16/14 A2994 360 90 600 170/04 RMK AO2 T01560139
03949KAQV AQV20190330004010703/30/19 00:40:31  5-MIN KAQV 300640Z AUTO VRB03KT 10SM CLR 16/14 A2994 360 93 600 VRB/03 RMK AO2 T01560144
03949KAQV AQV20190330004510703/30/19 00:45:31  5-MIN KAQV 300645Z AUTO 00000KT 10SM CLR 15/14 A2993 360 93 500 000/00 RMK AO2 T01500139
03949KAQV AQV20190330005011303/30/19 00:50:31  5-MIN KAQV 300650Z AUTO 17003KT 9SM CLR 15/14 A2993 370 93 500 170/03 RMK AO2 SLP134 T01500139
03949KAQV AQV20190330005511303/30/19 00:55:31  5-MIN KAQV 300655Z AUTO 17003KT 9SM CLR 15/14 A2993 370 93 500 170/03 RMK AO2 SLP133 T01500139
03949KAQV AQV20190330010010603/30/19 01:00:31  5-MIN KAQV 300700Z AUTO 18004KT 9SM CLR 15/14 A2993 370 93 500 170/04 RMK AO2 T01500139
03949KAQV AQV20190330010510603/30/19 01:05:31  5-MIN KAQV 300705Z AUTO 17003KT 9SM CLR 15/14 A2993 370 96 500 170/03 RMK AO2 T01500144
03949KAQV AQV20190330011010603/30/19 01:10:31  5-MIN KAQV 300710Z AUTO 18003KT 9SM CLR 15/14 A2992 370 96 500 180/03 RMK AO2 T01500144
03949KAQV AQV20190330011510603/30/19 01:15:31  5-MIN KAQV 300715Z AUTO 18005KT 9SM CLR 16/14 A2992 370 93 600 170/05 RMK AO2 T01560144
03949KAQV AQV20190330012010603/30/19 01:20:31  5-MIN KAQV 300720Z AUTO 17003KT 9SM CLR 15/14 A2992 380 96 500 170/03 RMK AO2 T01500144
03949KAQV AQV20190330012510603/30/19 01:25:31  5-MIN KAQV 300725Z AUTO 17003KT 9SM CLR 16/14 A2992 380 93 600 160/03 RMK AO2 T01560144
03949KAQV AQV20190330013010903/30/19 01:30:31  5-MIN KAQV 300730Z AUTO 17004KT 9SM FEW005 15/14 A2991 380 96 500 170/04 RMK AO2 T01500144
03949KAQV AQV20190330013510903/30/19 01:35:31  5-MIN KAQV 300735Z AUTO 17004KT 8SM SCT005 15/14 A2991 390 96 500 170/04 RMK AO2 T01500144
03949KAQV AQV20190330014010903/30/19 01:40:31  5-MIN KAQV 300740Z AUTO 17004KT 8SM BKN005 16/14 A2991 390 93 600 160/04 RMK AO2 T01560144
03949KAQV AQV20190330014510903/30/19 01:45:31  5-MIN KAQV 300745Z AUTO 18005KT 8SM BKN005 15/14 A2991 390 96 500 170/05 RMK AO2 T01500144
03949KAQV AQV20190330015011603/30/19 01:50:31  5-MIN KAQV 300750Z AUTO VRB04KT 8SM BKN005 15/14 A2990 390 96 500 VRB/04 RMK AO2 SLP124 T01500144
03949KAQV AQV20190330015511603/30/19 01:55:31  5-MIN KAQV 300755Z AUTO 17004KT 8SM BKN005 15/14 A2990 390 96 500 170/04 RMK AO2 SLP123 T01500144
03949KAQV AQV20190330020010903/30/19 02:00:31  5-MIN KAQV 300800Z AUTO VRB03KT 8SM BKN005 15/14 A2990 400 96 500 VRB/03 RMK AO2 T01500144
03949KAQV AQV20190330020510903/30/19 02:05:31  5-MIN KAQV 300805Z AUTO VRB03KT 7SM BKN005 15/14 A2989 400 96 500 VRB/03 RMK AO2 T01500144
03949KAQV AQV20190330021010903/30/19 02:10:31  5-MIN KAQV 300810Z AUTO 00000KT 7SM BKN005 15/14 A2989 400 96 500 000/00 RMK AO2 T01500144
03949KAQV AQV20190330021512103/30/19 02:15:31  5-MIN KAQV 300815Z AUTO 18003KT 7SM BKN004 15/14 A2989 400 96 500 170/03 RMK AO2 CIG 003V008 T01500144
03949KAQV AQV20190330022012403/30/19 02:20:31  5-MIN KAQV 300820Z AUTO 00000KT 6SM BR BKN004 15/14 A2989 400 96 500 000/00 RMK AO2 CIG 003V008 T01500144
03949KAQV AQV20190330022511203/30/19 02:25:31  5-MIN KAQV 300825Z AUTO 17003KT 5SM BR BKN004 15/14 A2989 400 93 500 170/03 RMK AO2 T01500139
03949KAQV AQV20190330023011203/30/19 02:30:31  5-MIN KAQV 300830Z AUTO 00000KT 5SM BR BKN004 14/14 A2989 410 96 500 000/00 RMK AO2 T01440139
03949KAQV AQV20190330023511203/30/19 02:35:31  5-MIN KAQV 300835Z AUTO 17003KT 5SM BR SCT004 14/14 A2989 410 96 500 160/03 RMK AO2 T01440139
03949KAQV AQV20190330024011203/30/19 02:40:31  5-MIN KAQV 300840Z AUTO 17003KT 4SM BR FEW004 14/13 A2988 410 93 500 160/03 RMK AO2 T01440133
03949KAQV AQV20190330024511203/30/19 02:45:31  5-MIN KAQV 300845Z AUTO 17003KT 3SM BR FEW004 14/13 A2988 420 96 400 160/03 RMK AO2 T01390133
03949KAQV AQV20190330025010603/30/19 02:50:31  5-MIN KAQV 300850Z AUTO 00000KT 2 1/2SM BR FEW004 14/13 A2987 420 96 400 000/00 RMK AO2
03949KAQV AQV20190330025513803/30/19 02:55:31  5-MIN KAQV 300855Z AUTO 17003KT 2 1/2SM BR CLR 14/13 A2987 420 93 400 170/03 RMK AO2 VIS 1 3/4V4 SLP114 T01390128 58025
03949KAQV AQV20190330030010903/30/19 03:00:31  5-MIN KAQV 300900Z AUTO 17003KT 3SM BR CLR 14/13 A2987 420 93 400 170/03 RMK AO2 T01390128
03949KAQV AQV20190330030511203/30/19 03:05:31  5-MIN KAQV 300905Z AUTO 17003KT 3SM BR FEW019 13/13 A2987 420 96 400 170/03 RMK AO2 T01330128
03949KAQV AQV20190330031011203/30/19 03:10:31  5-MIN KAQV 300910Z AUTO 00000KT 3SM BR FEW017 13/13 A2988 420 96 400 000/00 RMK AO2 T01330128
03949KAQV AQV20190330031512203/30/19 03:15:31  5-MIN KAQV 300915Z AUTO 00000KT 2SM BR SCT017 14/13 A2988 420 93 400 000/00 RMK AO2 VIS 3/4V5 T01390128
03949KAQV AQV20190330032011603/30/19 03:20:31  5-MIN KAQV 300920Z AUTO 00000KT 1 3/4SM BR SCT017 14/13 A2988 420 93 400 000/00 RMK AO2 T01390128
03949KAQV AQV20190330032511203/30/19 03:25:31  5-MIN KAQV 300925Z AUTO 00000KT 3SM BR SCT016 13/13 A2988 420 96 400 000/00 RMK AO2 T01330128
03949KAQV AQV20190330033011203/30/19 03:30:31  5-MIN KAQV 300930Z AUTO 00000KT 5SM BR FEW016 13/13 A2988 410 96 400 000/00 RMK AO2 T01330128
03949KAQV AQV20190330033511203/30/19 03:35:31  5-MIN KAQV 300935Z AUTO 00000KT 5SM BR FEW016 13/13 A2988 410 96 400 000/00 RMK AO2 T01330128
03949KAQV AQV20190330034011203/30/19 03:40:31  5-MIN KAQV 300940Z AUTO 00000KT 5SM BR FEW016 13/12 A2988 410 93 300 000/00 RMK AO2 T01330122
03949KAQV AQV20190330034511903/30/19 03:45:31  5-MIN KAQV 300945Z AUTO 00000KT 4SM BR FEW010 SCT018 13/12 A2988 410 93 300 000/00 RMK AO2 T01330122
03949KAQV AQV20190330035010903/30/19 03:50:31  5-MIN KAQV 300950Z AUTO 00000KT 4SM BR SCT010 BKN018 13/12 A2988 410 93 300 000/00 RMK AO2
03949KAQV AQV20190330035512603/30/19 03:55:31  5-MIN KAQV 300955Z AUTO 00000KT 4SM BR BKN010 BKN018 13/12 A2989 410 93 300 000/00 RMK AO2 SLP118 T01330122
03949KAQV AQV20190330040011903/30/19 04:00:31  5-MIN KAQV 301000Z AUTO 00000KT 5SM BR BKN010 BKN019 13/13 A2989 410 96 300 000/00 RMK AO2 T01330128
03949KAQV AQV20190330040511903/30/19 04:05:31  5-MIN KAQV 301005Z AUTO 00000KT 6SM BR BKN009 OVC019 13/13 A2989 410 96 300 000/00 RMK AO2 T01330128
03949KAQV AQV20190330041010903/30/19 04:10:31  5-MIN KAQV 301010Z AUTO 00000KT 7SM OVC009 14/13 A2989 410 93 400 000/00 RMK AO2 T01390128
03949KAQV AQV20190330041510903/30/19 04:15:31  5-MIN KAQV 301015Z AUTO 00000KT 8SM OVC007 14/13 A2989 410 96 400 000/00 RMK AO2 T01390133
03949KAQV AQV20190330042012103/30/19 04:20:31  5-MIN KAQV 301020Z AUTO 00000KT 8SM OVC007 14/13 A2989 400 96 400 000/00 RMK AO2 CIG 005V010 T01390133
03949KAQV AQV20190330042510903/30/19 04:25:31  5-MIN KAQV 301025Z AUTO 00000KT 8SM OVC005 14/13 A2989 400 93 500 000/00 RMK AO2 T01440133
03949KAQV AQV20190330043010903/30/19 04:30:31  5-MIN KAQV 301030Z AUTO 00000KT 8SM OVC005 14/14 A2989 400 96 500 000/00 RMK AO2 T01440139
03949KAQV AQV20190330043510903/30/19 04:35:31  5-MIN KAQV 301035Z AUTO 00000KT 8SM OVC005 14/14 A2989 400 96 500 000/00 RMK AO2 T01440139
03949KAQV AQV20190330044010903/30/19 04:40:31  5-MIN KAQV 301040Z AUTO 00000KT 7SM OVC005 14/14 A2989 400 96 500 000/00 RMK AO2 T01440139
03949KAQV AQV20190330044510903/30/19 04:45:31  5-MIN KAQV 301045Z AUTO 00000KT 7SM OVC005 15/14 A2989 400 93 500 000/00 RMK AO2 T01500139
03949KAQV AQV20190330045009903/30/19 04:50:31  5-MIN KAQV 301050Z AUTO 00000KT 7SM OVC004 15/14 A2990 400 96 500 000/00 RMK AO2
03949KAQV AQV20190330045511903/30/19 04:55:31  5-MIN KAQV 301055Z AUTO 00000KT 6SM BR OVC004 15/14 A2990 400 96 500 000/00 RMK AO2 SLP122 T01500144
03949KAQV AQV20190330050011203/30/19 05:00:31  5-MIN KAQV 301100Z AUTO 00000KT 4SM BR OVC004 15/14 A2990 400 96 500 000/00 RMK AO2 T01500144
03949KAQV AQV20190330050511203/30/19 05:05:31  5-MIN KAQV 301105Z AUTO 00000KT 3SM BR OVC003 15/14 A2990 400 96 500 000/00 RMK AO2 T01500144
03949KAQV AQV20190330051011603/30/19 05:10:31  5-MIN KAQV 301110Z AUTO 00000KT 2 1/2SM BR OVC003 16/14 A2990 400 93 600 000/00 RMK AO2 T01560144
03949KAQV AQV20190330051511203/30/19 05:15:31  5-MIN KAQV 301115Z AUTO 00000KT 2SM BR OVC002 15/14 A2990 390 96 500 000/00 RMK AO2 T01500144
03949KAQV AQV20190330052011603/30/19 05:20:31  5-MIN KAQV 301120Z AUTO 00000KT 1 3/4SM BR OVC002 16/14 A2990 390 93 600 000/00 RMK AO2 T01560144
03949KAQV AQV20190330052511603/30/19 05:25:31  5-MIN KAQV 301125Z AUTO 00000KT 1 3/4SM BR OVC002 16/14 A2990 390 93 600 000/00 RMK AO2 T01560144
03949KAQV AQV20190330053011603/30/19 05:30:31  5-MIN KAQV 301130Z AUTO 00000KT 1 3/4SM BR OVC002 16/15 A2990 400 96 600 000/00 RMK AO2 T01560150
03949KAQV AQV20190330053511603/30/19 05:35:31  5-MIN KAQV 301135Z AUTO 00000KT 1 3/4SM BR OVC002 16/15 A2990 390 96 600 000/00 RMK AO2 T01560150
03949KAQV AQV20190330054011603/30/19 05:40:31  5-MIN KAQV 301140Z AUTO VRB03KT 2 1/2SM BR OVC002 16/15 A2990 390 96 600 VRB/03 RMK AO2 T01560150
03949KAQV AQV20190330054511203/30/19 05:45:31  5-MIN KAQV 301145Z AUTO VRB03KT 3SM BR OVC002 16/16 A2990 390 96 700 VRB/03 RMK AO2 T01610156
03949KAQV AQV20190330055015503/30/19 05:50:31  5-MIN KAQV 301150Z AUTO VRB04KT 4SM BR OVC002 16/16 A2990 390 96 700 VRB/04 RMK AO2 CIG 002V007 SLP124 7//// T01610156 10161 20133 56018
03949KAQV AQV20190330055516203/30/19 05:55:31  5-MIN KAQV 301155Z AUTO VRB03KT 4SM BR BKN004 OVC011 17/16 A2990 390 93 700 VRB/03 RMK AO2 CIG 002V008 SLP123 7//// T01670156 10167 20133 56018
03949KAQV AQV20190330060013803/30/19 06:00:31  5-MIN KAQV 301200Z AUTO VRB03KT 5SM BR SCT004 BKN007 OVC013 17/16 A2990 390 93 700 VRB/03 RMK AO2 CIG 005V008 T01670156
03949KAQV AQV20190330060513803/30/19 06:05:31  5-MIN KAQV 301205Z AUTO VRB03KT 6SM BR BKN004 BKN009 OVC013 17/16 A2991 390 96 700 VRB/03 RMK AO2 CIG 002V006 T01670161
03949KAQV AQV20190330061013103/30/19 06:10:31  5-MIN KAQV 301210Z AUTO VRB03KT 6SM BR BKN006 OVC011 17/16 A2991 390 96 700 VRB/03 RMK AO2 CIG 002V008 T01670161
03949KAQV AQV20190330061513103/30/19 06:15:31  5-MIN KAQV 301215Z AUTO 19004KT 5SM BR BKN008 OVC011 17/16 A2991 390 96 700 190/04 RMK AO2 CIG 004V010 T01670161
03949KAQV AQV20190330062014703/30/19 06:20:31  5-MIN KAQV 301220Z AUTO VRB04KT 4SM -RA BR BKN008 OVC013 17/16 A2990 390 96 700 VRB/04 RMK AO2 RAB20 CIG 004V010 P0000 T01670161
03949KAQV AQV20190330062514703/30/19 06:25:31  5-MIN KAQV 301225Z AUTO 19004KT 3SM -RA BR BKN006 OVC011 17/16 A2990 390 96 700 190/04 RMK AO2 RAB20 CIG 004V010 P0001 T01670161
03949KAQV AQV20190330063014003/30/19 06:30:31  5-MIN KAQV 301230Z AUTO VRB03KT 3SM -RA BR OVC006 17/16 A2990 390 93 800 VRB/03 RMK AO2 RAB20 CIG 003V010 P0001 T01720161
03949KAQV AQV20190330063513903/30/19 06:35:31  5-MIN KAQV 301235Z AUTO VRB03KT 4SM BR OVC004 17/16 A2991 390 93 800 VRB/03 RMK AO2 RAB20E33 CIG 003V008 P0001 T01720161
03949KAQV AQV20190330064013903/30/19 06:40:31  5-MIN KAQV 301240Z AUTO 00000KT 4SM BR OVC006 17/16 A2991 380 93 800 000/00 RMK AO2 RAB20E33 CIG 003V007 P0001 T01720161
03949KAQV AQV20190330064513903/30/19 06:45:31  5-MIN KAQV 301245Z AUTO 00000KT 3SM BR OVC006 17/16 A2992 380 93 800 000/00 RMK AO2 RAB20E33 CIG 003V008 P0001 T01720161
03949KAQV AQV20190330065014603/30/19 06:50:31  5-MIN KAQV 301250Z AUTO 17003KT 4SM BR OVC005 17/16 A2991 380 93 800 170/03 RMK AO2 RAB20E33 CIG 003V009 SLP128 P0001 T01720161
03949KAQV AQV20190330065514603/30/19 06:55:31  5-MIN KAQV 301255Z AUTO 00000KT 4SM BR OVC005 17/16 A2992 380 93 800 000/00 RMK AO2 RAB20E33 CIG 003V009 SLP129 P0001 T01720161
03949KAQV AQV20190330070012403/30/19 07:00:31  5-MIN KAQV 301300Z AUTO 00000KT 4SM BR OVC005 17/16 A2992 380 93 800 000/00 RMK AO2 CIG 003V009 T01720161
03949KAQV AQV20190330070511903/30/19 07:05:31  5-MIN KAQV 301305Z AUTO 00000KT 4SM BR BKN005 OVC010 17/16 A2993 370 93 800 000/00 RMK AO2 T01720161
03949KAQV AQV20190330071011903/30/19 07:10:31  5-MIN KAQV 301310Z AUTO VRB03KT 4SM BR BKN005 OVC010 17/17 A2993 370 96 800 VRB/03 RMK AO2 T01720167
03949KAQV AQV20190330071512403/30/19 07:15:31  5-MIN KAQV 301315Z AUTO VRB03KT 5SM BR OVC005 17/16 A2993 370 93 800 VRB/03 RMK AO2 CIG 003V011 T01720161
03949KAQV AQV20190330072013103/30/19 07:20:31  5-MIN KAQV 301320Z AUTO 17003KT 6SM BR BKN007 OVC032 17/16 A2993 360 93 800 170/03 RMK AO2 CIG 003V011 T01720161
03949KAQV AQV20190330072512103/30/19 07:25:31  5-MIN KAQV 301325Z AUTO VRB04KT 7SM OVC007 17/17 A2994 360 96 700 VRB/04 RMK AO2 CIG 003V011 T01720167
03949KAQV AQV20190330073012103/30/19 07:30:31  5-MIN KAQV 301330Z AUTO VRB03KT 7SM OVC007 17/17 A2994 360 96 700 VRB/03 RMK AO2 CIG 003V010 T01720167
03949KAQV AQV20190330073512103/30/19 07:35:31  5-MIN KAQV 301335Z AUTO 00000KT 8SM OVC007 18/17 A2995 350 93 800 000/00 RMK AO2 CIG 003V009 T01780167
03949KAQV AQV20190330074012803/30/19 07:40:31  5-MIN KAQV 301340Z AUTO 00000KT 8SM OVC006 18/17 A2995 350 93 800 000/00 RMK AO2 CIG 003V009 PRESRR T01780167
03949KAQV AQV20190330074510903/30/19 07:45:31  5-MIN KAQV 301345Z AUTO 00000KT 8SM OVC006 18/17 A2996 340 93 800 000/00 RMK AO2 T01780167
03949KAQV AQV20190330075012803/30/19 07:50:31  5-MIN KAQV 301350Z AUTO 00000KT 8SM OVC006 18/17 A2996 340 93 800 000/00 RMK AO2 CIG 004V009 SLP142 T01780167
03949KAQV AQV20190330075511603/30/19 07:55:31  5-MIN KAQV 301355Z AUTO 00000KT 7SM OVC006 18/17 A2996 340 93 800 000/00 RMK AO2 SLP144 T01780167
03949KAQV AQV20190330080011903/30/19 08:00:31  5-MIN KAQV 301400Z AUTO 00000KT 7SM -RA OVC006 18/17 A2996 340 93 800 000/00 RMK AO2 P0000 T01780167
03949KAQV AQV20190330080512103/30/19 08:05:31  5-MIN KAQV 301405Z AUTO 00000KT 8SM OVC006 18/17 A2997 330 93 800 000/00 RMK AO2 RAE05 P0000 T01780167
03949KAQV AQV20190330081012103/30/19 08:10:31  5-MIN KAQV 301410Z AUTO 00000KT 8SM OVC006 18/17 A2997 330 93 800 000/00 RMK AO2 RAE05 P0000 T01780167
03949KAQV AQV20190330081513303/30/19 08:15:31  5-MIN KAQV 301415Z AUTO 00000KT 7SM OVC006 18/17 A2997 330 93 800 000/00 RMK AO2 RAE05 CIG 005V010 P0000 T01780167
03949KAQV AQV20190330082013103/30/19 08:20:31  5-MIN KAQV 301420Z AUTO 00000KT 6SM BR BKN006 OVC010 18/17 A2997 330 93 800 000/00 RMK AO2 RAE05 P0000 T01830172
03949KAQV AQV20190330082514703/30/19 08:25:31  5-MIN KAQV 301425Z AUTO 00000KT 7SM BKN006 BKN014 OVC046 18/17 A2997 330 93 800 000/00 RMK AO2 RAE05 CIG 005V010 P0000 T01830172
03949KAQV AQV20190330083014703/30/19 08:30:31  5-MIN KAQV 301430Z AUTO 00000KT 7SM BKN007 BKN014 OVC046 18/17 A2998 330 93 800 000/00 RMK AO2 RAE05 CIG 005V011 P0000 T01830172
03949KAQV AQV20190330083513503/30/19 08:35:31  5-MIN KAQV 301435Z AUTO 00000KT 8SM SCT007 BKN012 OVC048 18/17 A2998 330 93 800 000/00 RMK AO2 RAE05 P0000 T01830172
03949KAQV AQV20190330084013503/30/19 08:40:31  5-MIN KAQV 301440Z AUTO 00000KT 8SM SCT007 BKN014 OVC045 18/17 A2998 320 90 800 000/00 RMK AO2 RAE05 P0000 T01830167
03949KAQV AQV20190330084513503/30/19 08:45:31  5-MIN KAQV 301445Z AUTO 00000KT 8SM FEW007 BKN012 OVC025 18/17 A2998 320 90 800 000/00 RMK AO2 RAE05 P0000 T01830167
03949KAQV AQV20190330085012903/30/19 08:50:31  5-MIN KAQV 301450Z AUTO 00000KT 8SM BKN01225008KT 10SM SCT090 24/16 A2991 380 59 1600 240/08 RMK AO2 T02440161
03949KAQV AQV20190330131511803/30/19 13:15:31  5-MIN KAQV 301915Z AUTO VRB05KT 10SM SCT060 SCT070 23/17 A2993 370 66 1500 VRB/05 RMK AO2 T02330167
03949KAQV AQV20190330132011803/30/19 13:20:31  5-MIN KAQV 301920Z AUTO VRB06KT 10SM FEW060 FEW070 24/17 A2993 370 63 1500 VRB/06 RMK AO2 T02390167
03949KAQV AQV20190330132511103/30/19 13:25:31  5-MIN KAQV 301925Z AUTO VRB04KT 10SM FEW070 24/17 A2993 370 63 1500 VRB/04 RMK AO2 T02390167
03949KAQV AQV20190330133012703/30/19 13:30:31  5-MIN KAQV 301930Z AUTO 24007KT 180V260 10SM FEW080 23/17 A2993 370 66 1500 230/07 180V260 RMK AO2 T02330167
03949KAQV AQV20190330133511103/30/19 13:35:31  5-MIN KAQV 301935Z AUTO VRB03KT 10SM SCT080 23/17 A2993 370 66 1500 VRB/03 RMK AO2 T02330167
03949KAQV AQV20190330134011803/30/19 13:40:31  5-MIN KAQV 301940Z AUTO VRB06KT 10SM FEW075 BKN090 24/17 A2992 370 63 1500 VRB/06 RMK AO2 T02390167
03949KAQV AQV20190330134513403/30/19 13:45:31  5-MIN KAQV 301945Z AUTO 23008KT 190V280 10SM FEW024 BKN090 23/17 A2992 370 66 1500 230/08 190V280 RMK AO2 T02330167
03949KAQV AQV20190330135012503/30/19 13:50:31  5-MIN KAQV 301950Z AUTO VRB05KT 10SM FEW024 BKN090 24/16 A2992 380 59 1600 VRB/05 RMK AO2 SLP130 T02440161
03949KAQV AQV20190330135513403/30/19 13:55:31  5-MIN KAQV 301955Z AUTO 22007KT 170V270 10SM BKN090 24/17 A2992 380 61 1600 210/07 170V270 RMK AO2 SLP130 T02440167
03949KAQV AQV20190330140011103/30/19 14:00:31  5-MIN KAQV 302000Z AUTO 25008KT 10SM SCT090 24/16 A2991 380 59 1600 240/08 RMK AO2 T02440161
03949KAQV AQV20190330140511103/30/19 14:05:31  5-MIN KAQV 302005Z AUTO VRB05KT 10SM SCT095 24/16 A2991 380 59 1600 VRB/05 RMK AO2 T02440161
03949KAQV AQV20190330141011103/30/19 14:10:31  5-MIN KAQV 302010Z AUTO VRB06KT 10SM FEW100 24/16 A2991 380 59 1600 VRB/06 RMK AO2 T02440161
03949KAQV AQV20190330141511803/30/19 14:15:31  5-MIN KAQV 302015Z AUTO VRB05KT 10SM FEW032 SCT100 24/16 A2991 390 59 1600 VRB/05 RMK AO2 T02440161
03949KAQV AQV20190330142011803/30/19 14:20:31  5-MIN KAQV 302020Z AUTO VRB03KT 10SM FEW031 SCT038 24/16 A2991 390 61 1500 VRB/03 RMK AO2 T02390161
03949KAQV AQV20190330142511803/30/19 14:25:31  5-MIN KAQV 302025Z AUTO 25005KT 10SM FEW031 FEW038 24/17 A2991 390 61 1600 250/05 RMK AO2 T02440167
03949KAQV AQV20190330143012503/30/19 14:30:31  5-MIN KAQV 302030Z AUTO VRB05KT 10SM FEW031 SCT039 SCT100 24/17 A2991 390 61 1600 VRB/05 RMK AO2 T02440167
03949KAQV AQV20190330143512503/30/19 14:35:31  5-MIN KAQV 302035Z AUTO VRB03KT 10SM FEW029 BKN039 BKN100 24/17 A2990 390 63 1600 VRB/03 RMK AO2 T02390167
03949KAQV AQV20190330144011803/30/19 14:40:31  5-MIN KAQV 302040Z AUTO 00000KT 10SM FEW029 BKN035 24/17 A2990 390 63 1600 000/00 RMK AO2 T02390167
03949KAQV AQV20190330144512503/30/19 14:45:31  5-MIN KAQV 302045Z AUTO VRB04KT 10SM FEW029 SCT034 BKN040 24/17 A2990 400 61 1600 VRB/04 RMK AO2 T02440167
03949KAQV AQV20190330145014403/30/19 14:50:31  5-MIN KAQV 302050Z AUTO 26005KT 10SM FEW029 BKN039 BKN080 25/17 A2990 400 59 1700 260/05 RMK AO2 SLP122 60000 T02500167 58007
03949KAQV AQV20190330145514403/30/19 14:55:31  5-MIN KAQV 302055Z AUTO VRB04KT 10SM SCT032 BKN041 OVC100 25/17 A2990 400 61 1700 VRB/04 RMK AO2 SLP122 60000 T02500172 58007
03949KAQV AQV20190330150012503/30/19 15:00:31  5-MIN KAQV 302100Z AUTO 00000KT 10SM SCT030 BKN040 OVC100 24/17 A2990 400 63 1600 000/00 RMK AO2 T02390167
03949KAQV AQV20190330150512503/30/19 15:05:31  5-MIN KAQV 302105Z AUTO VRB04KT 10SM BKN030 BKN038 OVC080 24/17 A2990 400 63 1600 VRB/04 RMK AO2 T02390167
03949KAQV AQV20190330151012503/30/19 15:10:31  5-MIN KAQV 302110Z AUTO VRB04KT 10SM BKN030 BKN040 OVC100 24/17 A2990 390 63 1600 VRB/04 RMK AO2 T02390167
03949KAQV AQV20190330151512503/30/19 15:15:31  5-MIN KAQV 302115Z AUTO VRB04KT 10SM SCT030 BKN037 OVC100 24/17 A2990 390 63 1600 VRB/04 RMK AO2 T02390167
03949KAQV AQV20190330152012503/30/19 15:20:31  5-MIN KAQV 302120Z AUTO 25004KT 10SM FEW030 BKN037 OVC100 24/17 A2990 400 61 1600 240/04 RMK AO2 T02440167
03949KAQV AQV20190330152512503/30/19 15:25:31  5-MIN KAQV 302125Z AUTO 00000KT 10SM SCT029 BKN042 OVC050 24/17 A2990 390 63 1600 000/00 RMK AO2 T02390167
03949KAQV AQV20190330153012503/30/19 15:30:31  5-MIN KAQV 302130Z AUTO VRB04KT 10SM FEW029 BKN044 OVC050 24/17 A2990 390 63 1600 VRB/04 RMK AO2 T02390167
03949KAQV AQV20190330153512503/30/19 15:35:31  5-MIN KAQV 302135Z AUTO VRB03KT 10SM FEW032 BKN046 OVC060 24/17 A2990 390 63 1600 VRB/03 RMK AO2 T02390167
03949KAQV AQV20190330154012503/30/19 15:40:31  5-MIN KAQV 302140Z AUTO VRB05KT 10SM SCT030 BKN046 OVC060 23/17 A2990 390 66 1500 VRB/05 RMK AO2 T02330167
03949KAQV AQV20190330154514103/30/19 15:45:31  5-MIN KAQV 302145Z AUTO 32007KT 280V030 10SM FEW022 BKN028 OVC046 23/17 A2991 380 68 1400 310/07 280V030 RMK AO2 T02280167
03949KAQV AQV20190330155011503/30/19 15:50:31  5-MIN KAQV 302150Z AUTO VRB06KT 10SM SCT024 BKN029 OVC046 22/16 A2991 380 70 1300 VRB/06 RMK AO2
03949KAQV AQV20190330155512203/30/19 15:55:31  5-MIN KAQV 302155Z AUTO 10SM SCT024 BKN031 OVC044 22/17 A2991 380 73 1300 M /M RMK AO2 SLP127 T02170167
03949KAQV AQV20190330160012503/30/19 16:00:31  5-MIN KAQV 302200Z AUTO 34005KT 10SM FEW023 BKN030 OVC075 22/17 A2992 380 73 1300 340/05 RMK AO2 T02170167
03949KAQV AQV20190330160513103/30/19 16:05:31  5-MIN KAQV 302205Z AUTO VRB06G15KT 10SM SCT015 BKN027 OVC070 21/17 A2992 380 75 1200 VRB/06G15 RMK AO2 T02110167
03949KAQV AQV20190330161011503/30/19 16:10:31  5-MIN KAQV 302210Z AUTO 10SM SCT013 BKN025 OVC060 21/17 A2993 370 78 1100 M /M RMK AO2 T02060167
03949KAQV AQV20190330161514303/30/19 16:15:31  5-MIN KAQV 302215Z AUTO VRB05KT 10SM BKN011 BKN025 OVC060 19/16 A2994 360 84 900 VRB/05 RMK AO2 CIG 007V018 PRESRR T01890161
03949KAQV AQV20190330162015803/30/19 16:20:31  5-MIN KAQV 302220Z AUTO 32009G15KT 270V360 10SM BKN007 BKN014 OVC065 18/16 A2994 360 84 900 320/09G15 270V360 RMK AO2 CIG 006V012 T01830156
03949KAQV AQV20190330162515103/30/19 16:25:31  5-MIN KAQV 302225Z AUTO 34007G15KT 300V030 10SM BKN007 OVC014 17/15 A2995 350 87 700 330/07G15 300V030 RMK AO2 CIG 006V010 T01720150
03949KAQV AQV20190330163013503/30/19 16:30:31  5-MIN KAQV 302230Z AUTO VRB04G14KT 10SM BKN007 OVC014 17/14 A2995 350 83 700 VRB/04G14 RMK AO2 CIG 006V010 T01720144
03949KAQV AQV20190330163512203/30/19 16:35:31  5-MIN KAQV 302235Z AUTO 33006KT 10SM OVC007 17/14 A2996 340 86 700 330/06 RMK AO2 CIG 005V010 T01670144
03949KAQV AQV20190330164013203/30/19 16:40:31  5-MIN KAQV 302240Z AUTO 33008G14KT 270V010 10SM OVC007 16/14 A2996 340 86 600 320/08G14 270V010 RMK AO2 T01610139
03949KAQV AQV20190330164513203/30/19 16:45:31  5-MIN KAQV 302245Z AUTO 34008G14KT 260V010 10SM OVC007 16/13 A2996 340 86 500 330/08G14 260V010 RMK AO2 T01560133
03949KAQV AQV20190330165015103/30/19 16:50:31  5-MIN KAQV 302250Z AUTO 35010G17KT 270V020 10SM OVC007 16/13 A2996 340 83 500 340/10G17 270V020 RMK AO2 CIG 005V011 SLP145 T01560128
03949KAQV AQV20190330165513503/30/19 16:55:31  5-MIN KAQV 302255Z AUTO VRB06G17KT 10SM OVC007 16/12 A2996 340 80 500 VRB/06G17 RMK AO2 CIG 005V012 SLP146 T01560122
03949KAQV AQV20190330170014403/30/19 17:00:31  5-MIN KAQV 302300Z AUTO 32009G18KT 280V020 10SM OVC009 15/12 A2997 330 83 400 320/09G18 280V020 RMK AO2 CIG 005V012 T01500122
03949KAQV AQV20190330170514403/30/19 17:05:31  5-MIN KAQV 302305Z AUTO 32008G18KT 280V360 10SM OVC009 15/12 A2998 320 80 400 310/08G18 280V360 RMK AO2 CIG 006V012 T01500117
03949KAQV AQV20190330171012203/30/19 17:10:31  5-MIN KAQV 302310Z AUTO VRB05KT 10SM OVC009 15/12 A2998 320 80 400 VRB/05 RMK AO2 CIG 007V012 T01500117
03949KAQV AQV20190330171512603/30/19 17:15:31  5-MIN KAQV 302315Z AUTO 33007KT 280V360 10SM OVC009 14/12 A2998 320 83 400 330/07 280V360 RMK AO2 T01440117
03949KAQV AQV20190330172011603/30/19 17:20:31  5-MIN KAQV 302320Z AUTO VRB05G18KT 10SM OVC010 14/12 A2999 310 83 400 VRB/05G18 RMK AO2 T01440117
03949KAQV AQV20190330172511603/30/19 17:25:31  5-MIN KAQV 302325Z AUTO 36009G18KT 10SM OVC010 14/11 A2999 310 80 400 350/09G18 RMK AO2 T01440111
03949KAQV AQV20190330173011603/30/19 17:30:31  5-MIN KAQV 302330Z AUTO 34008G17KT 10SM OVC010 14/11 A3000 310 80 400 340/08G17 RMK AO2 T01440111
03949KAQV AQV20190330173511603/30/19 17:35:31  5-MIN KAQV 302335Z AUTO 35010G17KT 10SM OVC012 14/11 A3000 310 80 400 350/10G17 RMK AO2 T01440111
03949KAQV AQV20190330174013803/30/19 17:40:31  5-MIN KAQV 302340Z AUTO 35008G17KT 300V020 9SM BKN012 OVC025 14/11 A3000 300 83 300 340/08G17 300V020 RMK AO2 T01390111
03949KAQV AQV20190330174513903/30/19 17:45:31  5-MIN KAQV 302345Z AUTO 34009G16KT 260V020 10SM BKN012 OVC025 14/11 A3000 300 80 300 340/09G16 260V020 RMK AO2 T01390106
03949KAQV AQV20190330175012003/30/19 17:50:31  5-MIN KAQV 302350Z AUTO 36009G17KT 10SM SCT012 BKN017 OVC026 14/10 A3001 290 77 300 350/09G17 RMK AO2
03949KAQV AQV20190330175517003/30/19 17:55:31  5-MIN KAQV 302355Z AUTO 35007G17KT 300V020 10SM BKN015 OVC026 14/10 A3002 290 77 300 350/07G17 300V020 RMK AO2 SLP164 60000 T01390100 10250 20139 53035
03949KAQV AQV20190330180013003/30/19 18:00:31  5-MIN KAQV 310000Z AUTO 35009G15KT 10SM SCT015 SCT020 OVC026 14/10 A3002 290 77 300 350/09G15 RMK AO2 T01390100
03949KAQV AQV20190330180512303/30/19 18:05:31  5-MIN KAQV 310005Z AUTO VRB06G15KT 10SM SCT018 OVC026 14/10 A3002 290 77 300 VRB/06G15 RMK AO2 T01390100
03949KAQV AQV20190330181011703/30/19 18:10:31  5-MIN KAQV 310010Z AUTO VRB06KT 10SM BKN018 OVC026 14/10 A3002 280 77 300 VRB/06 RMK AO2 T01390100
03949KAQV AQV20190330181511703/30/19 18:15:31  5-MIN KAQV 310015Z AUTO VRB04KT 10SM BKN018 OVC026 14/10 A3003 280 77 300 VRB/04 RMK AO2 T01390100
03949KAQV AQV20190330182012403/30/19 18:20:31  5-MIN KAQV 310020Z AUTO VRB03KT 10SM BKN018 BKN022 OVC027 13/10 A3003 280 80 200 VRB/03 RMK AO2 T01330100
03949KAQV AQV20190330182512403/30/19 18:25:31  5-MIN KAQV 310025Z AUTO VRB05KT 10SM BKN016 BKN021 OVC027 13/10 A3003 270 80 200 VRB/05 RMK AO2 T01330100
03949KAQV AQV20190330183011703/30/19 18:30:31  5-MIN KAQV 310030Z AUTO VRB06KT 10SM BKN018 OVC027 13/10 A3003 270 80 200 VRB/06 RMK AO2 T01330100
03949KAQV AQV20190330183511003/30/19 18:35:31  5-MIN KAQV 310035Z AUTO VRB06KT 10SM OVC018 13/10 A3003 270 80 200 VRB/06 RMK AO2 T01330100
03949KAQV AQV20190330184011703/30/19 18:40:31  5-MIN KAQV 310040Z AUTO VRB04KT 10SM BKN018 OVC022 13/10 A3003 270 80 200 VRB/04 RMK AO2 T01330100
03949KAQV AQV20190330184511703/30/19 18:45:31  5-MIN KAQV 310045Z AUTO VRB03KT 10SM BKN018 OVC022 13/10 A3003 270 80 200 VRB/03 RMK AO2 T01330100
03949KAQV AQV20190330185011703/30/19 18:50:31  5-MIN KAQV 310050Z AUTO VRB06KT 10SM OVC019 13/09 A3004 270 77 200 VRB/06 RMK AO2 SLP171 T01330094
03949KAQV AQV20190330185511703/30/19 18:55:31  5-MIN KAQV 310055Z AUTO VRB06KT 10SM OVC019 13/09 A3004 260 77 200 VRB/06 RMK AO2 SLP172 T01330094
03949KAQV AQV20190330190011703/30/19 19:00:31  5-MIN KAQV 310100Z AUTO VRB05KT 10SM BKN017 OVC022 13/09 A3004 260 77 200 VRB/05 RMK AO2 T01330094
03949KAQV AQV20190330190511003/30/19 19:05:31  5-MIN KAQV 310105Z AUTO VRB06KT 10SM OVC019 13/09 A3004 260 77 200 VRB/06 RMK AO2 T01330094
03949KAQV AQV20190330191010303/30/19 19:10:31  5-MIN KAQV 310110Z AUTO 33009G16KT 300V360 10SM OVC019 13/09 A3005 26K AO2 T00940028
03949KAQV AQV20190331001513303/31/19 00:15:31  5-MIN KAQV 310615Z AUTO 36009G21KT 320V030 10SM OVC029 09/03 A3018 140 63 -400 360/09G21 320V030 RMK AO2 T00940028
03949KAQV AQV20190331002011703/31/19 00:20:31  5-MIN KAQV 310620Z AUTO 35005G21KT 10SM OVC029 09/03 A3018 140 63 -400 340/05G21 RMK AO2 T00940028
03949KAQV AQV20190331002511103/31/19 00:25:31  5-MIN KAQV 310625Z AUTO VRB06KT 10SM OVC031 09/03 A3019 130 63 -400 VRB/06 RMK AO2 T00940028
03949KAQV AQV20190331003012703/31/19 00:30:31  5-MIN KAQV 310630Z AUTO 36007KT 320V020 10SM OVC031 09/03 A3019 130 63 -400 360/07 320V020 RMK AO2 T00940028
03949KAQV AQV20190331003513303/31/19 00:35:31  5-MIN KAQV 310635Z AUTO 35010G17KT 310V010 10SM OVC031 09/03 A3019 130 63 -400 350/10G17 310V010 RMK AO2 T00940028
03949KAQV AQV20190331004012403/31/19 00:40:31  5-MIN KAQV 310640Z AUTO 36012G17KT 10SM BKN031 OVC070 09/03 A3019 130 63 -400 360/12G17 RMK AO2 T00940028
03949KAQV AQV20190331004512403/31/19 00:45:31  5-MIN KAQV 310645Z AUTO 01010G17KT 10SM BKN031 OVC065 09/02 A3017 140 60 -400 360/10G17 RMK AO2 T00940022
03949KAQV AQV20190331004513803/31/19 00:45:31  5-MIN KAQV 310645Z AUTO 01010G17KT 10SM BKN031 OVC065 09/02 A3017 140 60 -400 360/10G17 RMK AO2 10G17 RMK AO2 T00890022
03949KAQV AQV20190331005013103/31/19 00:50:31  5-MIN KAQV 310650Z AUTO 01010G16KT 10SM SCT031 OVC065 09/02 A3018 140 63 -500 010/10G16 RMK AO2 SLP220 T00890022
03949KAQV AQV20190331005513103/31/19 00:55:31  5-MIN KAQV 310655Z AUTO 36010G19KT 10SM SCT032 OVC065 09/02 A3019 130 63 -500 350/10G19 RMK AO2 SLP221 T00890022
03949KAQV AQV20190331010012403/31/19 01:00:31  5-MIN KAQV 310700Z AUTO 36011G19KT 10SM SCT032 OVC065 09/02 A3019 130 63 -500 360/11G19 RMK AO2 T00890022
03949KAQV AQV20190331010512403/31/19 01:05:31  5-MIN KAQV 310705Z AUTO 01010G17KT 10SM FEW032 OVC065 09/02 A3018 140 63 -500 360/10G17 RMK AO2 T00890022
03949KAQV AQV20190331011012403/31/19 01:10:31  5-MIN KAQV 310710Z AUTO 36009G17KT 10SM FEW032 OVC065 09/02 A3017 140 63 -500 360/09G17 RMK AO2 T00890022
03949KAQV AQV20190331011512403/31/19 01:15:31  5-MIN KAQV 310715Z AUTO 36007G16KT 10SM FEW032 OVC065 09/02 A3018 140 63 -500 360/07G16 RMK AO2 T00890022
03949KAQV AQV20190331012011803/31/19 01:20:31  5-MIN KAQV 310720Z AUTO 36007KT 10SM FEW032 OVC065 09/02 A3018 140 63 -500 350/07 RMK AO2 T00890022
03949KAQV AQV20190331012511103/31/19 01:25:31  5-MIN KAQV 310725Z AUTO 01008KT 10SM OVC070 09/02 A3018 140 63 -500 360/08 RMK AO2 T00890022
03949KAQV AQV20190331013011803/31/19 01:30:31  5-MIN KAQV 310730Z AUTO 01008KT 10SM FEW033 OVC070 09/02 A3019 130 63 -500 360/08 RMK AO2 T00890022
03949KAQV AQV20190331013513103/31/19 01:35:31  5-MIN KAQV 310735Z AUTO 36009G14KT 10SM SCT033 OVC070 09/02 A3020 120 63 -500 360/09G14 RMK AO2 PRESRR T00890022
03949KAQV AQV20190331014012403/31/19 01:40:31  5-MIN KAQV 310740Z AUTO VRB06G14KT 10SM BKN033 OVC070 09/02 A3020 120 63 -500 VRB/06G14 RMK AO2 T00890022
03949KAQV AQV20190331014511803/31/19 01:45:31  5-MIN KAQV 310745Z AUTO VRB05KT 10SM BKN033 OVC070 08/02 A3019 120 65 -600 VRB/05 RMK AO2 T00830022
03949KAQV AQV20190331015013103/31/19 01:50:31  5-MIN KAQV 310750Z AUTO VRB06G14KT 10SM BKN033 OVC070 08/02 A3019 130 65 -600 VRB/06G14 RMK AO2 SLP223 T00830022
03949KAQV AQV20190331015512403/31/19 01:55:31  5-MIN KAQV 310755Z AUTO 01010G17KT 10SM OVC033 08/02 A3019 130 63 -600 360/10G17 RMK AO2 SLP223 T00830017
03949KAQV AQV20190331020011703/31/19 02:00:31  5-MIN KAQV 310800Z AUTO 36008G17KT 10SM OVC033 08/02 A3019 130 63 -600 360/08G17 RMK AO2 T00830017
03949KAQV AQV20190331020511703/31/19 02:05:31  5-MIN KAQV 310805Z AUTO 01011G17KT 10SM OVC032 08/02 A3018 140 63 -500 360/11G17 RMK AO2 T00830017
03949KAQV AQV20190331021013303/31/19 02:10:31  5-MIN KAQV 310810Z AUTO 36009G17KT 320V020 10SM OVC032 08/02 A3018 130 63 -500 350/09G17 320V020 RMK AO2 T00830017
03949KAQV AQV20190331021511703/31/19 02:15:31  5-MIN KAQV 310815Z AUTO 36008G17KT 10SM OVC032 08/02 A3019 130 63 -600 350/08G17 RMK AO2 T00830017
03949KAQV AQV20190331022011703/31/19 02:20:31  5-MIN KAQV 310820Z AUTO 01008G16KT 10SM OVC032 08/02 A3019 130 65 -600 010/08G16 RMK AO2 T00830022
03949KAQV AQV20190331022511703/31/19 02:25:31  5-MIN KAQV 310825Z AUTO 01010G16KT 10SM OVC032 08/02 A3018 130 65 -500 360/10G16 RMK AO2 T00830022
03949KAQV AQV20190331023011703/31/19 02:30:31  5-MIN KAQV 310830Z AUTO 01010G16KT 10SM OVC032 08/02 A3017 140 63 -500 010/10G16 RMK AO2 T00830017
03949KAQV AQV20190331023511703/31/19 02:35:31  5-MIN KAQV 310835Z AUTO 01010G16KT 10SM OVC032 08/02 A3017 140 65 -500 010/10G16 RMK AO2 T00830022
03949KAQV AQV20190331024013303/31/19 02:40:31  5-MIN KAQV 310840Z AUTO 01008G16KT 310V040 10SM OVC031 08/02 A3017 140 63 -500 360/08G16 310V040 RMK AO2 T00830017
03949KAQV AQV20190331024513303/31/19 02:45:31  5-MIN KAQV 310845Z AUTO 01008G16KT 330V030 10SM OVC031 08/02 A3018 140 63 -500 360/08G16 330V030 RMK AO2 T00830017
03949KAQV AQV20190331025014003/31/19 02:50:31  5-MIN KAQV 310850Z AUTO 36008KT 320V040 10SM OVC031 08/02 A3018 140 63 -500 360/08 320V040 RMK AO2 SLP220 T00830017 51015
03949KAQV AQV20190331025514603/31/19 02:55:31  5-MIN KAQV 310855Z AUTO 01010G16KT 340V040 10SM OVC031 08/02 A3017 140 63 -500 360/10G16 340V040 RMK AO2 SLP217 T00830017 51015
03949KAQV AQV20190331030011703/31/19 03:00:31  5-MIN KAQV 310900Z AUTO 36012G20KT 10SM BKN031 08/02 A3017 150 63 -500 360/12G20 RMK AO2 T00830017
03949KAQV AQV20190331030511703/31/19 03:05:31  5-MIN KAQV 310905Z AUTO 01010G20KT 10SM BKN031 08/02 A3018 140 63 -500 360/10G20 RMK AO2 T00830017
03949KAQV AQV20190331031013303/31/19 03:10:31  5-MIN KAQV 310910Z AUTO 36008G19KT 320V030 10SM OVC031 08/02 A3019 130 63 -600 360/08G19 320V030 RMK AO2 T00830017
03949KAQV AQV20190331031513303/31/19 03:15:31  5-MIN KAQV 310915Z AUTO 36008G16KT 330V030 10SM BKN031 08/02 A3019 130 63 -600 360/08G16 330V030 RMK AO2 T00830017
03949KAQV AQV20190331032012403/31/19 03:20:31  5-MIN KAQV 310920Z AUTO 36012G19KT 10SM BKN032 BKN095 08/02 A3018 140 65 -600 360/12G19 RMK AO2 T00780017
03949KAQV AQV20190331032512403/31/19 03:25:31  5-MIN KAQV 310925Z AUTO 01010G19KT 10SM BKN032 OVC095 08/02 A3018 140 65 -600 010/10G19 RMK AO2 T00780017
03949KAQV AQV20190331033012403/31/19 03:30:31  5-MIN KAQV 310930Z AUTO 02009G16KT 10SM BKN032 OVC095 08/01 A3019 130 62 -600 020/09G16 RMK AO2 T00780011
03949KAQV AQV20190331033513403/31/19 03:35:31  5-MIN KAQV 310935Z AUTO 36007KT 320V030 10SM BKN032 BKN095 08/01 A3019 130 62 -600 360/07 320V030 RMK AO2 T00780011
03949KAQV AQV20190331034012403/31/19 03:40:31  5-MIN KAQV 310940Z AUTO 01012G17KT 10SM BKN032 BKN095 08/01 A3018 140 62 -600 360/12G17 RMK AO2 T00780011
03949KAQV AQV20190331034512403/31/19 03:45:31  5-MIN KAQV 310945Z AUTO 36007G17KT 10SM SCT032 SCT095 08/01 A3018 140 62 -600 360/07G17 RMK AO2 T00780011
03949KAQV AQV20190331035012403/31/19 03:50:31  5-MIN KAQV 310950Z AUTO 02011G15KT 10SM SCT032 08/01 A3018 130 62 -600 020/11G15 RMK AO2 SLP220 T00780011
03949KAQV AQV20190331035512403/31/19 03:55:31  5-MIN KAQV 310955Z AUTO 01013G20KT 10SM FEW032 08/01 A3018 140 60 -600 010/13G20 RMK AO2 SLP219 T00780006
03949KAQV AQV20190331040011703/31/19 04:00:31  5-MIN KAQV 311000Z AUTO 01011G20KT 10SM FEW032 08/01 A3019 130 60 -600 010/11G20 RMK AO2 T00780006
03949KAQV AQV20190331040511403/31/19 04:05:31  5-MIN KAQV 311005Z AUTO 01007G19KT 10SM CLR 08/01 A3019 130 60 -600 010/07G19 RMK AO2 T00780006
03949KAQV AQV20190331041011403/31/19 04:10:31  5-MIN KAQV 311010Z AUTO 01011G18KT 10SM CLR 08/01 A3019 130 60 -600 010/11G18 RMK AO2 T00780006
03949KAQV AQV20190331041511403/31/19 04:15:31  5-MIN KAQV 311015Z AUTO 36010G18KT 10SM CLR 08/01 A3019 130 60 -600 360/10G18 RMK AO2 T00780006
03949KAQV AQV20190331042011403/31/19 04:20:31  5-MIN KAQV 311020Z AUTO 01013G18KT 10SM CLR 08/01 A3019 130 60 -600 360/13G18 RMK AO2 T00780006
03949KAQV AQV20190331042511403/31/19 04:25:31  5-MIN KAQV 311025Z AUTO 01006G18KT 10SM CLR 07/01 A3020 120 62 -700 010/06G18 RMK AO2 T00720006
03949KAQV AQV20190331043011403/31/19 04:30:31  5-MIN KAQV 311030Z AUTO 02010G18KT 10SM CLR 07/01 A3020 120 62 -700 010/10G18 RMK AO2 T00720006
03949KAQV AQV20190331043513003/31/19 04:35:31  5-MIN KAQV 311035Z AUTO 02008G18KT 350V050 10SM CLR 07/01 A3019 130 62 -700 020/08G18 350V050 RMK AO2 T00720006
03949KAQV AQV20190331044010803/31/19 04:40:31  5-MIN KAQV 311040Z AUTO 02007KT 10SM CLR 07/01 A3019 130 62 -700 010/07 RMK AO2 T00720006
03949KAQV AQV20190331044511403/31/19 04:45:31  5-MIN KAQV 311045Z AUTO 01007G16KT 10SM CLR 07/01 A3019 120 62 -700 010/07G16 RMK AO2 T00720006
03949KAQV AQV20190331045013703/31/19 04:50:31  5-MIN KAQV 311050Z AUTO 02008G16KT 350V060 10SM CLR 07/01 A3020 120 62 -700 010/08G16 350V060 RMK AO2 SLP226 T00720006
03949KAQV AQV20190331045512103/31/19 04:55:31  5-MIN KAQV 311055Z AUTO 01012G19KT 10SM CLR 07/01 A3020 120 62 -700 360/12G19 RMK AO2 SLP227 T00720006
03949KAQV AQV20190331050011403/31/19 05:00:31  5-MIN KAQV 311100Z AUTO 01009G19KT 10SM CLR 07/01 A3020 120 62 -700 010/09G19 RMK AO2 T00720006
03949KAQV AQV20190331050511403/31/19 05:05:31  5-MIN KAQV 311105Z AUTO 01009G17KT 10SM CLR 07/01 A3021 110 62 -700 010/09G17 RMK AO2 T00720006
03949KAQV AQV20190331051011403/31/19 05:10:31  5-MIN KAQV 311110Z AUTO 01007G17KT 10SM CLR 07/01 A3021 110 62 -700 360/07G17 RMK AO2 T00720006
03949KAQV AQV20190331051511403/31/19 05:15:31  5-MIN KAQV 311115Z AUTO 01009G15KT 10SM CLR 07/01 A3021 110 62 -700 010/09G15 RMK AO2 T00720006
03949KAQV AQV20190331052011403/31/19 05:20:31  5-MIN KAQV 311120Z AUTO 02007G15KT 10SM CLR 07/01 A3021 110 62 -700 020/07G15 RMK AO2 T00720006
03949KAQV AQV20190331052510803/31/19 05:25:31  5-MIN KAQV 311125Z AUTO 01008KT 10SM CLR 07/01 A3021 100 62 -700 010/08 RMK AO2 T00720006
03949KAQV AQV20190331053010803/31/19 05:30:31  5-MIN KAQV 311130Z AUTO 01009KT 10SM CLR 07/01 A3022 100 62 -700 360/09 RMK AO2 T00720006
03949KAQV AQV20190331053511403/31/19 05:35:31  5-MIN KAQV 311135Z AUTO 01011G16KT 10SM CLR 07/00 A3022 100 60 -700 010/11G16 RMK AO2 T00720000
03949KAQV AQV20190331111011003/31/19 11:10:31  5-MIN KAQV 311710Z AUTO 01006KT 10SM OVC030 09/02 A3030 30 60 -600 010/06 RMK AO2 T00890017
03949KAQV AQV20190331111511003/31/19 11:15:31  5-MIN KAQV 311715Z AUTO 36008KT 10SM OVC030 08/02 A3030 30 63 -700 360/08 RMK AO2 T00830017
03949KAQV AQV20190331112012603/31/19 11:20:31  5-MIN KAQV 311720Z AUTO 35009KT 310V030 10SM OVC029 08/02 A3030 30 63 -700 350/09 310V030 RMK AO2 T00830017
03949KAQV AQV20190331112512603/31/19 11:25:31  5-MIN KAQV 311725Z AUTO 36010KT 310V020 10SM OVC029 09/02 A3030 30 60 -600 350/10 310V020 RMK AO2 T00890017
03949KAQV AQV20190331113011003/31/19 11:30:31  5-MIN KAQV 311730Z AUTO 36009KT 10SM OVC028 08/02 A3030 30 63 -700 360/09 RMK AO2 T00830017
03949KAQV AQV20190331113511003/31/19 11:35:31  5-MIN KAQV 311735Z AUTO VRB05KT 10SM OVC028 08/02 A3029 30 63 -700 VRB/05 RMK AO2 T00830017
03949KAQV AQV20190331114011003/31/19 11:40:31  5-MIN KAQV 311740Z AUTO 35008KT 10SM OVC028 08/02 A3029 40 65 -700 350/08 RMK AO2 T00830022
03949KAQV AQV20190331114512603/31/19 11:45:31  5-MIN KAQV 311745Z AUTO 01007KT 340V040 10SM OVC027 09/02 A3029 40 63 -600 010/07 340V040 RMK AO2 T00890022
03949KAQV AQV20190331115013503/31/19 11:50:31  5-MIN KAQV 311750Z AUTO 36008KT 10SM OVC027 08/02 A3029 40 65 -700 350/08 RMK AO2 SLP257 T00830022 10089 20072 51021
03949KAQV AQV20190331115513503/31/19 11:55:31  5-MIN KAQV 311755Z AUTO 01009KT 10SM OVC027 08/02 A3029 40 63 -700 010/09 RMK AO2 SLP257 T00830017 10089 20072 51021
03949KAQV AQV20190331120011603/31/19 12:00:31  5-MIN KAQV 311800Z AUTO 02010G15KT 10SM OVC027 08/02 A3028 40 63 -700 020/10G15 RMK AO2 T00830017
03949KAQV AQV20190331120511003/31/19 12:05:31  5-MIN KAQV 311805Z AUTO 36009KT 10SM OVC026 08/02 A3028 40 63 -700 360/09 RMK AO2 T00830017
03949KAQV AQV20190331121011003/31/19 12:10:31  5-MIN KAQV 311810Z AUTO 01010KT 10SM OVC026 08/02 A3028 50 63 -700 360/10 RMK AO2 T00830017
03949KAQV AQV20190331121512603/31/19 12:15:31  5-MIN KAQV 311815Z AUTO 36007KT 320V030 10SM OVC026 09/02 A3028 50 63 -600 350/07 320V030 RMK AO2 T00890022
03949KAQV AQV20190331122011003/31/19 12:20:31  5-MIN KAQV 311820Z AUTO 03007KT 10SM OVC026 09/02 A3028 50 60 -600 030/07 RMK AO2 T00890017
03949KAQV AQV20190331122512603/31/19 12:25:31  5-MIN KAQV 311825Z AUTO 36007KT 330V030 10SM OVC027 09/02 A3027 50 60 -600 360/07 330V030 RMK AO2 T00890017
03949KAQV AQV20190331123011003/31/19 12:30:31  5-MIN KAQV 311830Z AUTO 02008KT 10SM OVC027 09/02 A3027 50 60 -600 020/08 RMK AO2 T00890017
03949KAQV AQV20190331123511003/31/19 12:35:31  5-MIN KAQV 311835Z AUTO 35008KT 10SM OVC027 09/02 A3027 50 60 -600 350/08 RMK AO2 T00890017
03949KAQV AQV20190331124011003/31/19 12:40:31  5-MIN KAQV 311840Z AUTO 36007KT 10SM OVC027 09/02 A3027 50 60 -600 350/07 RMK AO2 T00890017
03949KAQV AQV20190331124512603/31/19 12:45:31  5-MIN KAQV 311845Z AUTO 02007KT 340V050 10SM OVC027 09/02 A3027 50 60 -500 020/07 340V050 RMK AO2 T00940022
03949KAQV AQV20190331125013303/31/19 12:50:31  5-MIN KAQV 311850Z AUTO 36008KT 320V030 10SM OVC027 09/02 A3027 60 60 -600 350/08 320V030 RMK AO2 SLP251 T00890017
03949KAQV AQV20190331125513303/31/19 12:55:31  5-MIN KAQV 311855Z AUTO 01008KT 330V060 10SM OVC027 09/02 A3027 60 58 -500 010/08 330V060 RMK AO2 SLP250 T00940017
03949KAQV AQV20190331130011003/31/19 13:00:31  5-MIN KAQV 311900Z AUTO 01008KT 10SM OVC027 09/02 A3027 60 58 -500 010/08 RMK AO2 T00940017
03949KAQV AQV20190331130512603/31/19 13:05:31  5-MIN KAQV 311905Z AUTO 02008KT 340V040 10SM OVC028 09/01 A3027 60 56 -500 010/08 340V040 RMK AO2 T00940011
03949KAQV AQV20190331131011003/31/19 13:10:31  5-MIN KAQV 311910Z AUTO 02011KT 10SM BKN030 09/01 A3027 60 56 -500 010/11 RMK AO2 T00940011
03949KAQV AQV20190331131511003/31/19 13:15:31  5-MIN KAQV 311915Z AUTO 02008KT 10SM BKN030 09/01 A3026 60 56 -500 020/08 RMK AO2 T00940011
03949KAQV AQV20190331132011003/31/19 13:20:31  5-MIN KAQV 311920Z AUTO 01006KT 10SM SCT030 10/01 A3026 60 54 -400 010/06 RMK AO2 T01000011
03949KAQV AQV20190331132511003/31/19 13:25:31  5-MIN KAQV 311925Z AUTO VRB06KT 10SM BKN030 10/01 A3026 60 54 -400 VRB/06 RMK AO2 T01000011
03949KAQV AQV20190331133011003/31/19 13:30:31  5-MIN KAQV 311930Z AUTO 01006KT 10SM BKN032 10/01 A3026 60 54 -400 010/06 RMK AO2 T01000011
03949KAQV AQV20190331133511603/31/19 13:35:31  5-MIN KAQV 311935Z AUTO 02009G14KT 10SM SCT032 10/01 A3026 60 54 -400 020/09G14 RMK AO2 T01000011
03949KAQV AQV20190331134011003/31/19 13:40:31  5-MIN KAQV 311940Z AUTO 01010KT 10SM SCT032 10/01 A3026 70 54 -400 010/10 RMK AO2 T01000011
03949KAQV AQV20190331134512603/31/19 13:45:31  5-MIN KAQV 311945Z AUTO 02008KT 350V060 10SM SCT032 10/01 A3026 70 54 -400 020/08 350V060 RMK AO2 T01000011
03949KAQV AQV20190331135011703/31/19 13:50:31  5-MIN KAQV 311950Z AUTO VRB05KT 10SM SCT032 11/01 A3025 70 52 -400 VRB/05 RMK AO2 SLP246 T01060011
03949KAQV AQV20190331135513303/31/19 13:55:31  5-MIN KAQV 311955Z AUTO 36007KT 310V030 10SM SCT034 11/01 A3025 70 52 -400 360/07 310V030 RMK AO2 SLP245 T01060011
03949KAQV AQV20190331140011003/31/19 14:00:31  5-MIN KAQV 312000Z AUTO 36007KT 10SM SCT034 11/02 A3025 70 54 -300 360/07 RMK AO2 T01060017
03949KAQV AQV20190331140511603/31/19 14:05:31  5-MIN KAQV 312005Z AUTO 02009G17KT 10SM FEW034 10/01 A3024 80 54 -400 020/09G17 RMK AO2 T01000011
03949KAQV AQV20190331141011603/31/19 14:10:31  5-MIN KAQV 312010Z AUTO 01011G17KT 10SM FEW034 10/01 A3024 80 54 -400 010/11G17 RMK AO2 T01000011
03949KAQV AQV20190331141513203/31/19 14:15:31  5-MIN KAQV 312015Z AUTO 02009G15KT 340V050 10SM FEW034 10/01 A3024 80 54 -400 010/09G15 340V050 RMK AO2 T01000011
03949KAQV AQV20190331142011403/31/19 14:20:31  5-MIN KAQV 312020Z AUTO 01009KT 10SM FEW034 10/01 A3023 90 54 -400 010/09 RMK AO2 T010000190022
03949KAQV AQV20190331204510803/31/19 20:45:31  5-MIN KAQV 010245Z AUTO 00000KT 10SM CLR 04/02 A3025 80 89 -1200 000/00 RMK AO2 T00390022
03949KAQV AQV20190331205007203/31/19 20:50:31  5-MIN KAQV 010250Z AUTO 00000KT 10SM CK AO2 T00330017
03949KAQV AQV20190331211510803/31/19 21:15:31  5-MIN KAQV 010315Z AUTO 00000KT 10SM CLR 03/02 A3025 70 89 -1200 000/00 RMK AO2 T00330017
03949KAQV AQV20190331212010803/31/19 21:20:31  5-MIN KAQV 010320Z AUTO 00000KT 10SM CLR 03/02 A3025 70 89 -1200 000/00 RMK AO2 T00330017
03949KAQV AQV20190331212510803/31/19 21:25:31  5-MIN KAQV 010325Z AUTO 00000KT 10SM CLR 03/02 A3025 70 89 -1200 000/00 RMK AO2 T00330017
03949KAQV AQV20190331213010803/31/19 21:30:31  5-MIN KAQV 010330Z AUTO 00000KT 10SM CLR 03/02 A3025 70 89 -1200 000/00 RMK AO2 T00330017
03949KAQV AQV20190331213510803/31/19 21:35:31  5-MIN KAQV 010335Z AUTO 00000KT 10SM CLR 03/02 A3025 70 89 -1200 000/00 RMK AO2 T00330017
03949KAQV AQV20190331214010803/31/19 21:40:31  5-MIN KAQV 010340Z AUTO 00000KT 10SM CLR 03/02 A3025 70 89 -1200 000/00 RMK AO2 T00330017
03949KAQV AQV20190331214514803/31/19 21:45:31  5-MIN KAQV 010345Z AUTO 00000KT 10SM CLR 03/02 A3025 80 89 -1200 000/00 RMK AO2 T0033001789 -1200 000/00 RMK AO2 SLP244 T00330017
03949KAQV AQV20190331215511503/31/19 21:55:31  5-MIN KAQV 010355Z AUTO 00000KT 10SM CLR 03/01 A3024 80 89 -1300 000/00 RMK AO2 SLP244 T00280011
03949KAQV AQV20190331220010803/31/19 22:00:31  5-MIN KAQV 010400Z AUTO 00000KT 10SM CLR 03/01 A3024 80 89 -1300 000/00 RMK AO2 T00280011
03949KAQV AQV20190331220511003/31/19 22:05:31  5-MIN KAQV 010405Z AUTO 00000KT 10SM CLR 03/0131  5-MIN KAQV 01300 000/00 RMK AO2 T00280011
03949KAQV AQV20190331221010803/31/19 22:10:31  5-MIN KAQV 010410Z AUTO 00000KT 10SM CLR 03/01 A3025 70 89 -1300 000/00 RMK AO2 T00280011
03949KAQV AQV20190331221510803/31/19 22:15:31  5-MIN KAQV 010415Z AUTO 00000KT 10SM CLR 03/01 A3025 70 89 -1300 000/00 RMK AO2 T00280011
03949KAQV AQV20190331222010803/31/19 22:20:31  5-MIN KAQV 010420Z AUTO 00000KT 10SM CLR 03/01 A3025 70 89 -1300 000/00 RMK AO2 T00280011
03949KAQV AQV20190331222021403/31/19 22:20:31  5-MIN KAQV 010420Z AUTO 00000KT 10SM CLR 03/01 A3025 70 89 -1300 000/00 RMK AO2 T0028001103/31/19 2R 03/01 A3024 80 89 -1300 000/00 RM0KT 10SM CLR 03/01 A3025 70 89 -1300 000/00 RMK AO2 T00280011
03949KAQV AQV20190331222510803/31/19 22:25:31  5-MIN KAQV 010425Z AUTO 00000KT 10SM CLR 03/01 A3025 70 89 -1300 000/00 RMK AO2 T00280011
03949KAQV AQV20190331223010803/31/19 22:30:31  5-MIN KAQV 010430Z AUTO 00000KT 10SM CLR 03/01 A3025 70 89 -1300 000/00 RMK AO2 T00280011
03949KAQV AQV20190331223510803/31/19 22:35:31  5-MIN KAQV 010435Z AUTO 00000KT 10SM CLR 02/01 A3025 70 92 -1400 000/00 RMK AO2 T00220011
03949KAQV AQV20190331224010803/31/19 22:40:31  5-MIN KAQV 010440Z AUTO 00000KT 10SM CLR 02/01 A3025 70 92 -1400 000/00 RMK AO2 T00220011
03949KAQV AQV20190331224510803/31/19 22:45:31  5-MIN KAQV 010445Z AUTO 00000KT 10SM CLR 02/01 A3025 80 92 -1400 000/00 RMK AO2 T00220011
03949KAQV AQV20190331225011503/31/19 22:50:31  5-MIN KAQV 010450Z AUTO 00000KT 10SM CLR 02/01 A3025 80 92 -1400 000/00 RMK AO2 SLP245 T00220011
03949KAQV AQV20190331225511503/31/19 22:55:31  5-MIN KAQV 010455Z AUTO 00000KT 10SM CLR 02/01 A3025 80 92 -1400 000/00 RMK AO2 SLP245 T00220011
03949KAQV AQV20190331225516603/31/19 22:55:31  5-MIN KAQV 010455Z AUTO 00000KT 10SM CLR 02/01 A3025 80 92 -1400 000/00 RMK AO2 T0022001103/31/19 22:40:3A3025 80 92 -1400 000/00 RMK AO2 T00220011
03949KAQV AQV20190331230010803/31/19 23:00:31  5-MIN KAQV 010500Z AUTO 00000KT 10SM CLR 02/01 A3025 80 92 -1400 000/00 RMK AO2 T00220011
03949KAQV AQV20190331230510803/31/19 23:05:31  5-MIN KAQV 010505Z AUTO 00000KT 10SM CLR 02/01 A3024 80 92 -1400 000/00 RMK AO2 T00220011
03949KAQV AQV20190331231010803/31/19 23:10:31  5-MIN KAQV 010510Z AUTO 00000KT 10SM CLR 02/01 A3024 80 89 -1400 000/00 RMK AO2 T00220006
03949KAQV AQV20190331231510803/31/19 23:15:31  5-MIN KAQV 010515Z AUTO 00000KT 10SM CLR 02/01 A3024 80 89 -1400 000/00 RMK AO2 T00220006
03949KAQV AQV20190331232010803/31/19 23:20:31  5-MIN KAQV 010520Z AUTO 00000KT 10SM CLR 02/01 A3024 80 89 -1400 000/00 RMK AO2 T00220006
03949KAQV AQV20190331232510803/31/19 23:25:31  5-MIN KAQV 010525Z AUTO 00000KT 10SM CLR 02/01 A3025 80 89 -1400 000/00 RMK AO2 T00220006
03949KAQV AQV20190331233010803/31/19 23:30:31  5-MIN KAQV 010530Z AUTO 00000KT 10SM CLR 02/01 A3025 70 89 -1400 000/00 RMK AO2 T00220006
03949KAQV AQV20190331233510803/31/19 23:35:31  5-MIN KAQV 010535Z AUTO 00000KT 10SM CLR 02/01 A3025 80 89 -1400 000/00 RMK AO2 T00220006
03949KAQV AQV20190331234010803/31/19 23:40:31  5-MIN KAQV 010540Z AUTO 00000KT 10SM CLR 02/01 A3024 80 89 -1400 000/00 RMK AO2 T00220006
03949KAQV AQV20190331234510803/31/19 23:45:31  5-MIN KAQV 010545Z AUTO 00000KT 10SM CLR 02/01 A3024 80 89 -1400 000/00 RMK AO2 T00220006
03949KAQV AQV20190331235014303/31/19 23:50:31  5-MIN KAQV 010550Z AUTO 00000KT 10SM CLR 02/01 A3024 80 92 -1400 000/00 RMK AO2 SLP242 T00170006 10100 20017 401110017 51012
03949KAQV AQV20190331235514303/31/19 23:55:31  5-MIN KAQV 010555Z AUTO 00000KT 10SM CLR 02/01 A3024 90 92 -1400 000/00 RMK AO2 SLP241 T00170006 10100 20017 401110017 51012
