12884KBVE BVE20191201000011812/01/19 00:00:31  5-MIN KBVE 010600Z AUTO 19009KT 4SM BR FEW004 BKN017 21/21 A2988 40 97 800 190/09 RMK AO2 T02110206
12884KBVE BVE20191201000511812/01/19 00:05:31  5-MIN KBVE 010605Z AUTO 19011KT 4SM BR FEW004 OVC017 21/21 A2987 50 97 800 190/11 RMK AO2 T02110206
12884KBVE BVE20191201001011812/01/19 00:10:31  5-MIN KBVE 010610Z AUTO 19010KT 4SM BR SCT004 OVC017 21/21 A2988 50 97 800 190/10 RMK AO2 T02110206
12884KBVE BVE20191201001511812/01/19 00:15:31  5-MIN KBVE 010615Z AUTO 20010KT 4SM BR SCT004 OVC016 21/21 A2988 40 97 800 200/10 RMK AO2 T02110206
12884KBVE BVE20191201002011812/01/19 00:20:31  5-MIN KBVE 010620Z AUTO 20010KT 4SM BR SCT003 OVC016 21/21 A2988 40 97 800 200/10 RMK AO2 T02110206
12884KBVE BVE20191201002511812/01/19 00:25:31  5-MIN KBVE 010625Z AUTO 20010KT 4SM BR BKN003 OVC016 21/21 A2988 40 97 800 200/10 RMK AO2 T02110206
12884KBVE BVE20191201003011812/01/19 00:30:31  5-MIN KBVE 010630Z AUTO 20010KT 4SM BR BKN003 OVC015 21/21 A2988 40 97 800 200/10 RMK AO2 T02110206
12884KBVE BVE20191201003511812/01/19 00:35:31  5-MIN KBVE 010635Z AUTO 20010KT 3SM BR BKN003 OVC015 21/21 A2988 40 97 800 200/10 RMK AO2 T02110206
12884KBVE BVE20191201004011812/01/19 00:40:31  5-MIN KBVE 010640Z AUTO 20010KT 3SM BR BKN003 OVC015 21/21 A2988 40 97 800 200/10 RMK AO2 T02110206
12884KBVE BVE20191201004511812/01/19 00:45:31  5-MIN KBVE 010645Z AUTO 20010KT 3SM BR OVC002 21/21 A2988 40 97 800 200/10 RMK AO2 SLP118 T02110206
12884KBVE BVE20191201005011812/01/19 00:50:31  5-MIN KBVE 010650Z AUTO 20010KT 3SM BR OVC002 21/21 A2988 40 97 800 200/10 RMK AO2 SLP117 T02110206
12884KBVE BVE20191201005511112/01/19 00:55:31  5-MIN KBVE 010655Z AUTO 20010KT 3SM BR OVC002 21/21 A2987 50 97 800 200/10 RMK AO2 T02110206
12884KBVE BVE20191201010011112/01/19 01:00:31  5-MIN KBVE 010700Z AUTO 20010KT 3SM BR OVC002 21/21 A2988 40 97 800 200/10 RMK AO2 T02110206
12884KBVE BVE20191201010511512/01/19 01:05:31  5-MIN KBVE 010705Z AUTO 20009KT 2 1/2SM BR OVC002 21/21 A2988 40 97 800 200/09 RMK AO2 T02110206
12884KBVE BVE20191201011011112/01/19 01:10:31  5-MIN KBVE 010710Z AUTO 20009KT 2SM BR OVC002 21/21 A2988 40 97 800 200/09 RMK AO2 T02110206
12884KBVE BVE20191201011511212/01/19 01:15:31  5-MIN KBVE 010715Z AUTO 20010KT 2SM BR OVC002 21/21 A2988 40 100 800 200/10 RMK AO2 T02110211
12884KBVE BVE20191201012011512/01/19 01:20:31  5-MIN KBVE 010720Z AUTO 20009KT 2 1/2SM BR OVC002 21/21 A2988 40 97 800 200/09 RMK AO2 T02110206
12884KBVE BVE20191201012511612/01/19 01:25:31  5-MIN KBVE 010725Z AUTO 20009KT 2 1/2SM BR OVC002 21/21 A2988 40 100 800 200/09 RMK AO2 T02110211
12884KBVE BVE20191201013011212/01/19 01:30:31  5-MIN KBVE 010730Z AUTO 20010KT 3SM BR OVC002 21/21 A2988 40 100 800 200/10 RMK AO2 T02110211
12884KBVE BVE20191201013511912/01/19 01:35:31  5-MIN KBVE 010735Z AUTO 20010KT 3SM BR BKN002 OVC060 21/21 A2987 50 100 800 200/10 RMK AO2 T02110211
12884KBVE BVE20191201014011912/01/19 01:40:31  5-MIN KBVE 010740Z AUTO 20010KT 3SM BR BKN002 OVC060 21/21 A2987 50 100 800 200/10 RMK AO2 T02110211
12884KBVE BVE20191201014512612/01/19 01:45:31  5-MIN KBVE 010745Z AUTO 20010KT 3SM BR BKN002 OVC060 21/21 A2987 50 100 800 200/10 RMK AO2 SLP115 T02110211
12884KBVE BVE20191201015012512/01/19 01:50:31  5-MIN KBVE 010750Z AUTO 20010KT 3SM BR BKN002 OVC060 21/21 A2987 50 97 800 200/10 RMK AO2 SLP114 T02110206
12884KBVE BVE20191201015512512/01/19 01:55:31  5-MIN KBVE 010755Z AUTO 20009KT 2SM BR BKN002 BKN007 OVC060 21/21 A2987 50 97 800 200/09 RMK AO2 T02110206
12884KBVE BVE20191201020012212/01/19 02:00:31  5-MIN KBVE 010800Z AUTO 20011KT 1 3/4SM BR BKN002 OVC060 21/21 A2987 50 97 800 200/11 RMK AO2 T02110206
12884KBVE BVE20191201020511812/01/19 02:05:31  5-MIN KBVE 010805Z AUTO 20011KT 2SM BR BKN002 OVC060 21/21 A2987 50 97 800 200/11 RMK AO2 T02110206
12884KBVE BVE20191201021011912/01/19 02:10:31  5-MIN KBVE 010810Z AUTO 20011KT 3SM BR BKN002 OVC055 21/21 A2987 50 100 800 200/11 RMK AO2 T02110211
12884KBVE BVE20191201021511812/01/19 02:15:31  5-MIN KBVE 010815Z AUTO 20010KT 3SM BR BKN002 OVC055 21/21 A2987 50 97 800 200/10 RMK AO2 T02110206
12884KBVE BVE20191201022011912/01/19 02:20:31  5-MIN KBVE 010820Z AUTO 20010KT 3SM BR SCT002 OVC055 21/21 A2986 50 100 800 200/10 RMK AO2 T02110211
12884KBVE BVE20191201022511912/01/19 02:25:31  5-MIN KBVE 010825Z AUTO 20011KT 4SM BR FEW002 OVC055 21/21 A2987 50 100 800 200/11 RMK AO2 T02110211
12884KBVE BVE20191201023011812/01/19 02:30:31  5-MIN KBVE 010830Z AUTO 20011KT 4SM BR FEW002 OVC055 22/21 A2987 50 97 900 200/11 RMK AO2 T02170211
12884KBVE BVE20191201023511112/01/19 02:35:31  5-MIN KBVE 010835Z AUTO 20012KT 4SM BR OVC055 22/21 A2986 50 97 900 200/12 RMK AO2 T02170211
12884KBVE BVE20191201024011212/01/19 02:40:31  5-MIN KBVE 010840Z AUTO 20009KT 4SM BR OVC060 21/21 A2986 60 100 800 200/09 RMK AO2 T02110211
12884KBVE BVE20191201024512512/01/19 02:45:31  5-MIN KBVE 010845Z AUTO 20010KT 4SM BR OVC060 21/21 A2986 60 100 800 200/10 RMK AO2 SLP111 T02110211 50001
12884KBVE BVE20191201025012412/01/19 02:50:31  5-MIN KBVE 010850Z AUTO 20010KT 4SM BR OVC060 22/21 A2986 60 97 900 200/10 RMK AO2 SLP111 T02170211 50001
12884KBVE BVE20191201025511112/01/19 02:55:31  5-MIN KBVE 010855Z AUTO 20010KT 4SM BR OVC065 22/21 A2986 60 97 900 200/10 RMK AO2 T02170211
12884KBVE BVE20191201030011212/01/19 03:00:31  5-MIN KBVE 010900Z AUTO 20009KT 4SM BR OVC065 21/21 A2986 60 100 800 200/09 RMK AO2 T02110211
12884KBVE BVE20191201030511212/01/19 03:05:31  5-MIN KBVE 010905Z AUTO 20011KT 4SM BR OVC065 21/21 A2986 60 100 800 200/11 RMK AO2 T02110211
12884KBVE BVE20191201031011112/01/19 03:10:31  5-MIN KBVE 010910Z AUTO 20010KT 4SM BR OVC065 22/21 A2986 60 97 900 200/10 RMK AO2 T02170211
12884KBVE BVE20191201031512612/01/19 03:15:31  5-MIN KBVE 010915Z AUTO 20009KT 4SM BR FEW039 FEW046 OVC070 21/21 A2986 60 100 800 200/09 RMK AO2 T02110211
12884KBVE BVE20191201032012512/01/19 03:20:31  5-MIN KBVE 010920Z AUTO 20010KT 4SM BR FEW039 FEW049 OVC070 21/21 A2986 60 97 800 200/10 RMK AO2 T02110206
12884KBVE BVE20191201032511812/01/19 03:25:31  5-MIN KBVE 010925Z AUTO 20010KT 4SM BR FEW041 OVC065 21/21 A2985 60 97 800 200/10 RMK AO2 T02110206
12884KBVE BVE20191201033011812/01/19 03:30:31  5-MIN KBVE 010930Z AUTO 20010KT 4SM BR FEW041 OVC065 21/21 A2985 70 97 800 200/10 RMK AO2 T02110206
12884KBVE BVE20191201033512512/01/19 03:35:31  5-MIN KBVE 010935Z AUTO 20009KT 4SM BR FEW033 SCT050 OVC070 21/21 A2985 70 97 800 200/09 RMK AO2 T02110206
12884KBVE BVE20191201034012512/01/19 03:40:31  5-MIN KBVE 010940Z AUTO 20010KT 4SM BR FEW031 SCT040 OVC070 21/21 A2985 70 97 800 200/10 RMK AO2 T02110206
12884KBVE BVE20191201034513212/01/19 03:45:31  5-MIN KBVE 010945Z AUTO 20011KT 4SM BR SCT031 BKN041 OVC070 21/21 A2985 70 97 800 200/11 RMK AO2 SLP107 T02110206
12884KBVE BVE20191201035013212/01/19 03:50:31  5-MIN KBVE 010950Z AUTO 20011KT 4SM BR BKN031 BKN041 OVC070 21/21 A2985 70 97 800 200/11 RMK AO2 SLP107 T02110206
12884KBVE BVE20191201035512512/01/19 03:55:31  5-MIN KBVE 010955Z AUTO 20010KT 4SM BR FEW023 BKN031 OVC070 22/21 A2985 70 97 900 200/10 RMK AO2 T02170211
12884KBVE BVE20191201040012612/01/19 04:00:31  5-MIN KBVE 011000Z AUTO 20011KT 4SM BR FEW023 BKN030 OVC090 21/21 A2985 70 100 800 200/11 RMK AO2 T02110211
12884KBVE BVE20191201040514112/01/19 04:05:31  5-MIN KBVE 011005Z AUTO 20012KT 3SM -RA BR FEW024 BKN030 OVC090 22/21 A2984 80 97 900 200/12 RMK AO2 RAB03 P0000 T02170211
12884KBVE BVE20191201041014812/01/19 04:10:31  5-MIN KBVE 011010Z AUTO 20016G25KT 3SM -RA BR FEW016 BKN031 OVC085 22/22 A2984 80 97 1000 200/16G25 RMK AO2 RAB03 P0003 T02220217
12884KBVE BVE20191201041514712/01/19 04:15:31  5-MIN KBVE 011015Z AUTO 22012G25KT 5SM -RA BR FEW014 BKN024 OVC070 22/21 A2985 70 97 900 220/12G25 RMK AO2 RAB03 P0003 T02170211
12884KBVE BVE20191201042014612/01/19 04:20:31  5-MIN KBVE 011020Z AUTO 21013G20KT 5SM BR FEW010 BKN022 OVC070 22/21 A2985 70 97 900 210/13G20 RMK AO2 RAB03E17 P0004 T02170211
12884KBVE BVE20191201042514612/01/19 04:25:31  5-MIN KBVE 011025Z AUTO 26010G20KT 5SM BR FEW014 BKN024 OVC075 22/21 A2985 60 97 900 260/10G20 RMK AO2 RAB03E17 P0004 T02170211
12884KBVE BVE20191201043014012/01/19 04:30:31  5-MIN KBVE 011030Z AUTO 24007KT 5SM BR FEW006 BKN018 OVC024 22/21 A2985 70 97 900 240/07 RMK AO2 RAB03E17 P0004 T02170211
12884KBVE BVE20191201043514012/01/19 04:35:31  5-MIN KBVE 011035Z AUTO 22011KT 4SM BR FEW006 BKN016 OVC022 22/21 A2985 70 97 900 220/11 RMK AO2 RAB03E17 P0004 T02170211
12884KBVE BVE20191201044014612/01/19 04:40:31  5-MIN KBVE 011040Z AUTO 21012G19KT 5SM BR FEW004 BKN018 OVC024 22/21 A2985 70 97 900 210/12G19 RMK AO2 RAB03E17 P0004 T02170211
12884KBVE BVE20191201044515312/01/19 04:45:31  5-MIN KBVE 011045Z AUTO 22013G19KT 5SM BR FEW004 BKN024 OVC029 22/21 A2985 70 97 900 220/13G19 RMK AO2 RAB03E17 SLP107 P0004 T02170211
12884KBVE BVE20191201045014712/01/19 04:50:31  5-MIN KBVE 011050Z AUTO 22013KT 5SM BR FEW005 BKN026 OVC038 22/21 A2985 70 97 900 220/13 RMK AO2 RAB03E17 SLP107 P0004 T02170211
12884KBVE BVE20191201045512512/01/19 04:55:31  5-MIN KBVE 011055Z AUTO 22011KT 5SM BR FEW005 SCT016 BKN026 22/21 A2985 70 97 900 220/11 RMK AO2 T02170211
12884KBVE BVE20191201050012512/01/19 05:00:31  5-MIN KBVE 011100Z AUTO 22012KT 5SM BR FEW016 BKN026 BKN080 22/21 A2985 70 97 900 220/12 RMK AO2 T02170211
12884KBVE BVE20191201050512512/01/19 05:05:31  5-MIN KBVE 011105Z AUTO 23011KT 5SM BR SCT018 BKN026 BKN080 22/21 A2985 70 97 900 230/11 RMK AO2 T02170211
12884KBVE BVE20191201051012512/01/19 05:10:31  5-MIN KBVE 011110Z AUTO 23012KT 5SM BR SCT018 BKN026 BKN080 22/21 A2986 60 97 900 230/12 RMK AO2 T02170211
12884KBVE BVE20191201051513112/01/19 05:15:31  5-MIN KBVE 011115Z AUTO 23012G18KT 4SM BR SCT018 BKN024 OVC080 22/21 A2986 60 97 900 230/12G18 RMK AO2 T02170211
12884KBVE BVE20191201052012512/01/19 05:20:31  5-MIN KBVE 011120Z AUTO 23010KT 4SM BR SCT018 BKN024 OVC080 22/21 A2987 50 97 900 230/10 RMK AO2 T02170211
12884KBVE BVE20191201052511812/01/19 05:25:31  5-MIN KBVE 011125Z AUTO 23010KT 4SM BR SCT020 OVC027 22/21 A2987 50 97 900 230/10 RMK AO2 T02170211
12884KBVE BVE20191201053012512/01/19 05:30:31  5-MIN KBVE 011130Z AUTO 23007KT 4SM BR SCT016 BKN021 OVC027 22/21 A2987 50 97 900 230/07 RMK AO2 T02170211
12884KBVE BVE20191201053514112/01/19 05:35:31  5-MIN KBVE 011135Z AUTO 23010KT 4SM -RA BR FEW016 BKN021 OVC029 22/21 A2987 50 97 900 230/10 RMK AO2 RAB35 P0000 T02170211
12884KBVE BVE20191201054014112/01/19 05:40:31  5-MIN KBVE 011140Z AUTO 26010KT 4SM -RA BR FEW007 BKN018 OVC029 22/21 A2988 40 97 900 260/10 RMK AO2 RAB35 P0000 T02170211
12884KBVE BVE20191201054517812/01/19 05:45:31  5-MIN KBVE 011145Z AUTO 25009KT 5SM -RA BR FEW007 BKN022 OVC031 22/21 A2988 40 97 900 250/09 RMK AO2 RAB35 SLP118 P0000 60004 70004 T02170211 10222 20211 58007
12884KBVE BVE20191201055019212/01/19 05:50:31  5-MIN KBVE 011150Z AUTO 33013G18KT 5SM -RA BR FEW007 BKN019 OVC030 21/21 A2990 20 100 700 330/13G18 RMK AO2 RAB35 PRESRR SLP123 P0000 60004 70004 T02060206 10222 20206 58007
12884KBVE BVE20191201055514712/01/19 05:55:31  5-MIN KBVE 011155Z AUTO 33011G18KT 7SM FEW007 SCT013 OVC018 17/13 A2991 20 80 300 330/11G18 RMK AO2 RAE55 PRESRR P0000 T01670133
12884KBVE BVE20191201060013712/01/19 06:00:31  5-MIN KBVE 011200Z AUTO 34009KT 10SM FEW010 BKN016 OVC026 17/12 A2990 20 75 300 340/09 RMK AO2 RAE1155 P0000 T01670122
12884KBVE BVE20191201060513312/01/19 06:05:31  5-MIN KBVE 011205Z AUTO 35008KT 10SM -RA FEW011 BKN020 OVC042 17/12 A2991 20 72 300 350/08 RMK AO2 P0000 T01670117
12884KBVE BVE20191201061013312/01/19 06:10:31  5-MIN KBVE 011210Z AUTO 34009KT 10SM -RA BKN014 BKN027 OVC090 17/12 A2991 20 75 300 340/09 RMK AO2 P0000 T01670122
12884KBVE BVE20191201061513312/01/19 06:15:31  5-MIN KBVE 011215Z AUTO 34008KT 10SM -RA SCT016 BKN027 OVC090 17/12 A2991 20 75 300 340/08 RMK AO2 P0000 T01670122
12884KBVE BVE20191201062013512/01/19 06:20:31  5-MIN KBVE 011220Z AUTO 34010KT 10SM FEW017 BKN025 OVC090 17/12 A2991 10 75 300 340/10 RMK AO2 RAE17 P0000 T01670122
12884KBVE BVE20191201062513512/01/19 06:25:31  5-MIN KBVE 011225Z AUTO 34009KT 10SM FEW021 BKN028 OVC090 17/12 A2992 10 75 200 340/09 RMK AO2 RAE17 P0000 T01670122
12884KBVE BVE20191201063013412/01/19 06:30:31  5-MIN KBVE 011230Z AUTO 34007KT 10SM BKN026 BKN032 OVC090 17/12 A2992 0 75 200 340/07 RMK AO2 RAE17 P0000 T01670122
12884KBVE BVE20191201063513412/01/19 06:35:31  5-MIN KBVE 011235Z AUTO 34006KT 10SM BKN026 BKN033 OVC090 17/12 A2992 0 75 200 340/06 RMK AO2 RAE17 P0000 T01670122
12884KBVE BVE20191201064012712/01/19 06:40:31  5-MIN KBVE 011240Z AUTO 35007KT 10SM BKN026 OVC033 17/12 A2992 0 75 200 350/07 RMK AO2 RAE17 P0000 T01670122
12884KBVE BVE20191201064512612/01/19 06:45:31  5-MIN KBVE 011245Z AUTO 35007KT 9SM BKN028 17/13 A2992 0 77 200 350/07 RMK AO2 RAE17 SLP132 P0000 T01670128
12884KBVE BVE20191201065012612/01/19 06:50:31  5-MIN KBVE 011250Z AUTO 34007KT 9SM BKN028 17/13 A2992 0 77 200 340/07 RMK AO2 RAE17 SLP133 P0000 T01670128
12884KBVE BVE20191201065511412/01/19 06:55:31  5-MIN KBVE 011255Z AUTO 34006KT 9SM SCT028 BKN033 17/13 A2993 0 77 200 340/06 RMK AO2 T01670128
12884KBVE BVE20191201070011412/01/19 07:00:31  5-MIN KBVE 011300Z AUTO 33006KT 9SM FEW028 SCT033 17/13 A2993 0 77 200 330/06 RMK AO2 T01670128
12884KBVE BVE20191201070510812/01/19 07:05:31  5-MIN KBVE 011305Z AUTO 34007KT 10SM FEW027 17/13 A2993 0 77 200 340/07 RMK AO2 T01670128
12884KBVE BVE20191201071011512/01/19 07:10:31  5-MIN KBVE 011310Z AUTO 34008KT 10SM FEW026 SCT032 17/13 A2993 0 77 200 340/08 RMK AO2 T01670128
12884KBVE BVE20191201071511012/01/19 07:15:31  5-MIN KBVE 011315Z AUTO 33008KT 10SM SCT034 17/13 A2994 -10 75 300 330/08 RMK AO2 T01720128
12884KBVE BVE20191201072011712/01/19 07:20:31  5-MIN KBVE 011320Z AUTO 33008KT 10SM FEW026 BKN036 17/13 A2994 -10 75 300 330/08 RMK AO2 T01720128
12884KBVE BVE20191201072511712/01/19 07:25:31  5-MIN KBVE 011325Z AUTO 33007KT 10SM SCT028 BKN036 17/13 A2994 -10 75 300 330/07 RMK AO2 T01720128
12884KBVE BVE20191201073011712/01/19 07:30:31  5-MIN KBVE 011330Z AUTO 34006KT 10SM FEW027 BKN035 17/13 A2994 -10 75 300 340/06 RMK AO2 T01720128
12884KBVE BVE20191201073512412/01/19 07:35:31  5-MIN KBVE 011335Z AUTO 34005KT 10SM SCT027 BKN035 OVC065 17/13 A2994 -10 75 300 340/05 RMK AO2 T01720128
12884KBVE BVE20191201074012412/01/19 07:40:31  5-MIN KBVE 011340Z AUTO 34005KT 10SM SCT027 BKN035 OVC065 17/13 A2994 -10 75 300 340/05 RMK AO2 T01720128
12884KBVE BVE20191201074511412/01/19 07:45:31  5-MIN KBVE 011345Z AUTO 34006KT 10SM BKN027 BKN035 OVC065 17/13 A2995 -10 75 300 340/06 RMK AO2
12884KBVE BVE20191201075013112/01/19 07:50:31  5-MIN KBVE 011350Z AUTO 34005KT 10SM BKN027 BKN033 OVC065 18/13 A2995 -20 72 300 340/05 RMK AO2 SLP141 T01780128
12884KBVE BVE20191201075511712/01/19 07:55:31  5-MIN KBVE 011355Z AUTO 33003KT 10SM BKN026 OVC065 18/13 A2995 -20 72 300 330/03 RMK AO2 T01780128
12884KBVE BVE20191201080011712/01/19 08:00:31  5-MIN KBVE 011400Z AUTO 33004KT 10SM BKN028 OVC065 18/13 A2995 -20 72 300 330/04 RMK AO2 T01780128
12884KBVE BVE20191201080511012/01/19 08:05:31  5-MIN KBVE 011405Z AUTO 34004KT 10SM OVC028 18/13 A2995 -20 75 300 340/04 RMK AO2 T01780133
12884KBVE BVE20191201081011012/01/19 08:10:31  5-MIN KBVE 011410Z AUTO 33005KT 10SM OVC028 18/13 A2996 -30 75 300 330/05 RMK AO2 T01780133
12884KBVE BVE20191201081511712/01/19 08:15:31  5-MIN KBVE 011415Z AUTO 33005KT 10SM BKN028 OVC041 18/13 A2996 -30 75 300 330/05 RMK AO2 T01780133
12884KBVE BVE20191201082011712/01/19 08:20:31  5-MIN KBVE 011420Z AUTO 33004KT 10SM BKN028 OVC041 18/13 A2996 -30 75 300 330/04 RMK AO2 T01780133
12884KBVE BVE20191201082511712/01/19 08:25:31  5-MIN KBVE 011425Z AUTO 33004KT 10SM BKN028 OVC041 18/13 A2996 -30 75 300 330/04 RMK AO2 T01780133
12884KBVE BVE20191201083011712/01/19 08:30:31  5-MIN KBVE 011430Z AUTO 33006KT 10SM BKN029 OVC040 18/13 A2996 -30 72 400 330/06 RMK AO2 T01830133
12884KBVE BVE20191201083512412/01/19 08:35:31  5-MIN KBVE 011435Z AUTO 33003KT 10SM BKN029 BKN040 OVC049 18/13 A2996 -30 72 400 330/03 RMK AO2 T01830133
12884KBVE BVE20191201084012412/01/19 08:40:31  5-MIN KBVE 011440Z AUTO 33004KT 10SM SCT029 BKN040 BKN049 18/13 A2995 -20 70 400 330/04 RMK AO2 T01830128
12884KBVE BVE20191201084513612/01/19 08:45:31  5-MIN KBVE 011445Z AUTO 33005KT 10SM BKN031 BKN049 19/13 A2996 -20 67 500 330/05 RMK AO2 SLP143 60000 T01890128 53013
12884KBVE BVE20191201085013612/01/19 08:50:31  5-MIN KBVE 011450Z AUTO 34006KT 10SM BKN031 BKN049 19/12 A2996 -30 62 500 340/06 RMK AO2 SLP144 60000 T01940122 53013
12884KBVE BVE20191201085511712/01/19 08:55:31  5-MIN KBVE 011455Z AUTO 33004KT 10SM BKN031 BKN049 19/12 A2996 -30 62 500 330/04 RMK AO2 T01940122
12884KBVE BVE20191201090011712/01/19 09:00:31  5-MIN KBVE 011500Z AUTO 32005KT 10SM BKN031 BKN049 19/12 A2996 -30 65 500 320/05 RMK AO2 T01890122
12884KBVE BVE20191201090511012/01/19 09:05:31  5-MIN KBVE 011505Z AUTO 32004KT 10SM OVC031 19/12 A2996 -30 62 500 320/04 RMK AO2 T01890117
12884KBVE BVE20191201091011012/01/19 09:10:31  5-MIN KBVE 011510Z AUTO 32003KT 10SM OVC031 19/12 A2997 -30 60 500 320/03 RMK AO2 T01940117
12884KBVE BVE20191201091511012/01/19 09:15:31  5-MIN KBVE 011515Z AUTO 32003KT 10SM OVC032 19/12 A2997 -40 62 500 320/03 RMK AO2 T01940122
12884KBVE BVE20191201092011712/01/19 09:20:31  5-MIN KBVE 011520Z AUTO 31004KT 10SM BKN032 OVC047 19/12 A2997 -40 65 400 310/04 RMK AO2 T01890122
12884KBVE BVE20191201092511712/01/19 09:25:31  5-MIN KBVE 011525Z AUTO 31004KT 10SM BKN032 OVC047 19/13 A2997 -40 67 400 310/04 RMK AO2 T01890128
12884KBVE BVE20191201093011712/01/19 09:30:31  5-MIN KBVE 011530Z AUTO 31004KT 10SM BKN032 OVC047 19/12 A2998 -40 62 500 310/04 RMK AO2 T01940122
12884KBVE BVE20191201093511712/01/19 09:35:31  5-MIN KBVE 011535Z AUTO 32006KT 10SM BKN032 OVC045 19/12 A2997 -40 62 400 320/06 RMK AO2 T01890117
12884KBVE BVE20191201094011712/01/19 09:40:31  5-MIN KBVE 011540Z AUTO 32005KT 10SM BKN034 OVC045 19/10 A2998 -40 56 400 320/05 RMK AO2 T01890100
12884KBVE BVE20191201094512412/01/19 09:45:31  5-MIN KBVE 011545Z AUTO 32003KT 10SM BKN034 OVC046 19/11 A2997 -40 58 400 320/03 RMK AO2 SLP149 T01890106
12884KBVE BVE20191201095012412/01/19 09:50:31  5-MIN KBVE 011550Z AUTO 30003KT 10SM SCT033 OVC046 19/11 A2997 -40 58 500 300/03 RMK AO2 SLP149 T01940111
12884KBVE BVE20191201095511712/01/19 09:55:31  5-MIN KBVE 011555Z AUTO VRB03KT 10SM SCT035 BKN047 20/12 A2998 -40 58 600 VRB/03 RMK AO2 T02000117
12884KBVE BVE20191201100011712/01/19 10:00:31  5-MIN KBVE 011600Z AUTO 31006KT 10SM FEW035 BKN045 21/11 A2998 -40 54 600 310/06 RMK AO2 T02060111
12884KBVE BVE20191201100512412/01/19 10:05:31  5-MIN KBVE 011605Z AUTO 30008KT 10SM FEW030 FEW037 OVC045 21/11 A2998 -50 54 600 300/08 RMK AO2 T02060111
12884KBVE BVE20191201101011012/01/19 10:10:31  5-MIN KBVE 011610Z AUTO 31006KT 10SM OVC045 21/11 A2998 -50 54 600 310/06 RMK AO2 T02060111
12884KBVE BVE20191201101511012/01/19 10:15:31  5-MIN KBVE 011615Z AUTO 32008KT 10SM OVC045 20/11 A2998 -40 56 600 320/08 RMK AO2 T02000111
12884KBVE BVE20191201102011712/01/19 10:20:31  5-MIN KBVE 011620Z AUTO 29006KT 10SM BKN045 OVC055 20/12 A2998 -50 58 600 290/06 RMK AO2 T02000117
12884KBVE BVE20191201102511712/01/19 10:25:31  5-MIN KBVE 011625Z AUTO 31006KT 10SM BKN047 OVC055 20/12 A2998 -40 58 600 310/06 RMK AO2 T02000117
12884KBVE BVE20191201103011712/01/19 10:30:31  5-MIN KBVE 011630Z AUTO 31005KT 10SM BKN047 OVC060 20/12 A2997 -40 60 600 310/05 RMK AO2 T02000122
12884KBVE BVE20191201103511712/01/19 10:35:31  5-MIN KBVE 011635Z AUTO 31006KT 10SM SCT045 OVC060 20/12 A2997 -40 60 600 310/06 RMK AO2 T02000122
12884KBVE BVE20191201104011712/01/19 10:40:31  5-MIN KBVE 011640Z AUTO 30006KT 10SM SCT045 OVC060 20/12 A2997 -40 58 600 300/06 RMK AO2 T02000117
12884KBVE BVE20191201104512412/01/19 10:45:31  5-MIN KBVE 011645Z AUTO 32008KT 10SM FEW047 OVC060 20/11 A2997 -40 56 600 320/08 RMK AO2 SLP148 T02000111
12884KBVE BVE20191201105012412/01/19 10:50:31  5-MIN KBVE 011650Z AUTO 32006KT 10SM FEW047 OVC060 20/11 A2997 -40 54 600 320/06 RMK AO2 SLP147 T02000106
12884KBVE BVE20191201105511712/01/19 10:55:31  5-MIN KBVE 011655Z AUTO 29006KT 10SM FEW047 OVC060 21/11 A2997 -30 54 600 290/06 RMK AO2 T02060111
12884KBVE BVE20191201110011712/01/19 11:00:31  5-MIN KBVE 011700Z AUTO 31010KT 10SM FEW046 OVC060 21/10 A2997 -30 50 600 310/10 RMK AO2 T02060100
12884KBVE BVE20191201110511712/01/19 11:05:31  5-MIN KBVE 011705Z AUTO 31007KT 10SM FEW046 OVC060 20/09 A2997 -30 50 600 310/07 RMK AO2 T02000094
12884KBVE BVE20191201111011012/01/19 11:10:31  5-MIN KBVE 011710Z AUTO 32009KT 10SM OVC060 20/09 A2996 -30 48 600 320/09 RMK AO2 T02000089
12884KBVE BVE20191201111511012/01/19 11:15:31  5-MIN KBVE 011715Z AUTO 32009KT 10SM OVC060 21/08 A2996 -30 45 600 320/09 RMK AO2 T02060083
12884KBVE BVE20191201112011012/01/19 11:20:31  5-MIN KBVE 011720Z AUTO VRB06KT 10SM BKN060 21/09 A2996 -30 46 600 VRB/06 RMK AO2 T02060089
12884KBVE BVE20191201112511612/01/19 11:25:31  5-MIN KBVE 011725Z AUTO 31008G14KT 10SM BKN060 21/08 A2996 -30 43 700 310/08G14 RMK AO2 T02110083
12884KBVE BVE20191201113011012/01/19 11:30:31  5-MIN KBVE 011730Z AUTO 32009KT 10SM BKN060 21/08 A2996 -30 43 700 320/09 RMK AO2 T02060078
12884KBVE BVE20191201113511012/01/19 11:35:31  5-MIN KBVE 011735Z AUTO 32008KT 10SM BKN060 20/08 A2996 -30 46 600 320/08 RMK AO2 T02000083
12884KBVE BVE20191201114011012/01/19 11:40:31  5-MIN KBVE 011740Z AUTO 32007KT 10SM SCT060 21/08 A2996 -30 45 700 320/07 RMK AO2 T02060083
12884KBVE BVE20191201114514112/01/19 11:45:31  5-MIN KBVE 011745Z AUTO 32011KT 10SM FEW060 21/09 A2996 -30 46 700 320/11 RMK AO2 SLP144 60000 T02060089 10211 20167 51011
12884KBVE BVE20191201115014112/01/19 11:50:31  5-MIN KBVE 011750Z AUTO 32008KT 10SM FEW060 21/08 A2995 -20 43 700 320/08 RMK AO2 SLP143 60000 T02060078 10211 20167 51011
12884KBVE BVE20191201115511612/01/19 11:55:31  5-MIN KBVE 011755Z AUTO 32010G16KT 10SM FEW060 21/07 A2995 -20 40 700 320/10G16 RMK AO2 T02110072
12884KBVE BVE20191201120011612/01/19 12:00:31  5-MIN KBVE 011800Z AUTO 32010G16KT 10SM FEW060 21/06 A2995 -20 37 700 320/10G16 RMK AO2 T02110061
12884KBVE BVE20191201120511012/01/19 12:05:31  5-MIN KBVE 011805Z AUTO 32009KT 10SM FEW060 21/04 A2995 -20 33 700 320/09 RMK AO2 T02060039
12884KBVE BVE20191201121011012/01/19 12:10:31  5-MIN KBVE 011810Z AUTO 33008KT 10SM FEW060 21/04 A2995 -20 34 700 330/08 RMK AO2 T02060044
12884KBVE BVE20191201121511012/01/19 12:15:31  5-MIN KBVE 011815Z AUTO 33009KT 10SM FEW060 21/05 A2995 -20 35 700 330/09 RMK AO2 T02060050
12884KBVE BVE20191201122011012/01/19 12:20:31  5-MIN KBVE 011820Z AUTO 32008KT 10SM FEW060 21/06 A2994 -10 36 700 320/08 RMK AO2 T02110056
12884KBVE BVE20191201122511012/01/19 12:25:31  5-MIN KBVE 011825Z AUTO 32008KT 10SM FEW060 21/06 A2994 -10 37 700 320/08 RMK AO2 T02060056
12884KBVE BVE20191201123011012/01/19 12:30:31  5-MIN KBVE 011830Z AUTO 32008KT 10SM FEW060 21/06 A2994 -10 37 700 320/08 RMK AO2 T02110061
12884KBVE BVE20191201123510712/01/19 12:35:31  5-MIN KBVE 011835Z AUTO 33008KT 10SM CLR 21/06 A2994 -10 37 700 330/08 RMK AO2 T02110061
12884KBVE BVE20191201124010512/01/19 12:40:31  5-MIN KBVE 011840Z AUTO 34009KT 10SM CLR 21/06 A2993 0 37 700 340/09 RMK AO2 T02110061
12884KBVE BVE20191201124511212/01/19 12:45:31  5-MIN KBVE 011845Z AUTO 33009KT 10SM CLR 21/06 A2993 0 37 700 330/09 RMK AO2 SLP135 T02110061
12884KBVE BVE20191201125011212/01/19 12:50:31  5-MIN KBVE 011850Z AUTO 32010KT 10SM CLR 21/06 A2993 0 36 700 320/10 RMK AO2 SLP135 T02110056
12884KBVE BVE20191201125510512/01/19 12:55:31  5-MIN KBVE 011855Z AUTO 34008KT 10SM CLR 21/06 A2993 0 37 800 340/08 RMK AO2 T02110061
12884KBVE BVE20191201130010512/01/19 13:00:31  5-MIN KBVE 011900Z AUTO 33008KT 10SM CLR 21/06 A2993 0 36 800 330/08 RMK AO2 T02110056
12884KBVE BVE20191201130510512/01/19 13:05:31  5-MIN KBVE 011905Z AUTO 33007KT 10SM CLR 21/06 A2993 0 36 800 330/07 RMK AO2 T02110056
12884KBVE BVE20191201131010512/01/19 13:10:31  5-MIN KBVE 011910Z AUTO 33006KT 10SM CLR 21/06 A2992 0 36 800 330/06 RMK AO2 T02110056
12884KBVE BVE20191201131510512/01/19 13:15:31  5-MIN KBVE 011915Z AUTO VRB06KT 10SM CLR 21/06 A2992 0 37 800 VRB/06 RMK AO2 T02110061
12884KBVE BVE20191201132010512/01/19 13:20:31  5-MIN KBVE 011920Z AUTO VRB05KT 10SM CLR 22/06 A2992 0 36 800 VRB/05 RMK AO2 T02170061
12884KBVE BVE20191201132510512/01/19 13:25:31  5-MIN KBVE 011925Z AUTO 31008KT 10SM CLR 22/07 A2992 0 37 800 310/08 RMK AO2 T02170067
12884KBVE BVE20191201133010612/01/19 13:30:31  5-MIN KBVE 011930Z AUTO 32008KT 10SM CLR 22/07 A2992 10 36 900 320/08 RMK AO2 T02220067
12884KBVE BVE20191201133510612/01/19 13:35:31  5-MIN KBVE 011935Z AUTO VRB05KT 10SM CLR 22/07 A2992 10 37 800 VRB/05 RMK AO2 T02170067
12884KBVE BVE20191201134010612/01/19 13:40:31  5-MIN KBVE 011940Z AUTO VRB03KT 10SM CLR 22/07 A2992 10 39 800 VRB/03 RMK AO2 T02170072
12884KBVE BVE20191201134511412/01/19 13:45:31  5-MIN KBVE 011945Z AUTO 29007KT 10SM CLR 23/07 A2992 10 36 1000 290/07 RMK AO2 SLP130 T02280072
12884KBVE BVE20191201135013612/01/19 13:50:31  5-MIN KBVE 011950Z AUTO 31007G15KT 260V340 10SM CLR 23/07 A2991 10 35 1000 310/07G15 260V340 RMK AO2 SLP129 T02280067
12884KBVE BVE20191201135511212/01/19 13:55:31  5-MIN KBVE 011955Z AUTO 29007G15KT 10SM CLR 22/07 A2991 10 36 900 290/07G15 RMK AO2 T02220067
12884KBVE BVE20191201140011312/01/19 14:00:31  5-MIN KBVE 012000Z AUTO 28010G16KT 10SM CLR 23/04 A2991 10 29 1000 280/10G16 RMK AO2 T02280039
12884KBVE BVE20191201140511312/01/19 14:05:31  5-MIN KBVE 012005Z AUTO 28011G16KT 10SM CLR 23/04 A2991 20 29 1000 280/11G16 RMK AO2 T02280039
12884KBVE BVE20191201141011312/01/19 14:10:31  5-MIN KBVE 012010Z AUTO 29010G16KT 10SM CLR 23/04 A2991 20 30 1000 290/10G16 RMK AO2 T02280044
12884KBVE BVE20191201141511212/01/19 14:15:31  5-MIN KBVE 012015Z AUTO 28012G17KT 10SM CLR 22/04 A2991 10 31 900 280/12G17 RMK AO2 T02220044
12884KBVE BVE20191201142011212/01/19 14:20:31  5-MIN KBVE 012020Z AUTO 28010G17KT 10SM CLR 22/05 A2991 10 32 900 280/10G17 RMK AO2 T02220050
12884KBVE BVE20191201142511312/01/19 14:25:31  5-MIN KBVE 012025Z AUTO 28007G15KT 10SM CLR 23/05 A2991 10 31 1000 280/07G15 RMK AO2 T02280050
12884KBVE BVE20191201143010712/01/19 14:30:31  5-MIN KBVE 012030Z AUTO 29009KT 10SM CLR 23/05 A2991 10 31 1000 290/09 RMK AO2 T02280050
12884KBVE BVE20191201143510612/01/19 14:35:31  5-MIN KBVE 012035Z AUTO 28009KT 10SM CLR 22/05 A2991 10 32 900 280/09 RMK AO2 T02220050
12884KBVE BVE20191201144010612/01/19 14:40:31  5-MIN KBVE 012040Z AUTO 28008KT 10SM CLR 22/06 A2991 10 33 900 280/08 RMK AO2 T02220056
12884KBVE BVE20191201144512512/01/19 14:45:31  5-MIN KBVE 012045Z AUTO 29009G16KT 10SM CLR 22/05 A2991 10 32 900 290/09G16 RMK AO2 SLP128 T02220050 58001
12884KBVE BVE20191201145011912/01/19 14:50:31  5-MIN KBVE 012050Z AUTO 29009KT 10SM CLR 22/04 A2991 10 31 900 290/09 RMK AO2 SLP128 T02220044 58001
12884KBVE BVE20191201145510612/01/19 14:55:31  5-MIN KBVE 012055Z AUTO 30007KT 10SM CLR 22/04 A2991 10 31 900 300/07 RMK AO2 T02220044
12884KBVE BVE20191201150010612/01/19 15:00:31  5-MIN KBVE 012100Z AUTO 31007KT 10SM CLR 22/05 A2991 10 32 900 310/07 RMK AO2 T02220050
12884KBVE BVE20191201150510612/01/19 15:05:31  5-MIN KBVE 012105Z AUTO 30008KT 10SM CLR 22/04 A2991 10 31 900 300/08 RMK AO2 T02220044
12884KBVE BVE20191201151010512/01/19 15:10:31  5-MIN KBVE 012110Z AUTO 30008KT 9SM CLR 22/04 A2991 10 32 800 300/08 RMK AO2 T02170044
12884KBVE BVE20191201151510512/01/19 15:15:31  5-MIN KBVE 012115Z AUTO 31007KT 9SM CLR 22/05 A2991 10 33 800 310/07 RMK AO2 T02170050
12884KBVE BVE20191201152010512/01/19 15:20:31  5-MIN KBVE 012120Z AUTO 29010KT 8SM CLR 22/04 A2991 10 32 800 290/10 RMK AO2 T02170044
12884KBVE BVE20191201152510512/01/19 15:25:31  5-MIN KBVE 012125Z AUTO 30009KT 8SM CLR 22/03 A2992 10 29 800 300/09 RMK AO2 T02170033
12884KBVE BVE20191201153010512/01/19 15:30:31  5-MIN KBVE 012130Z AUTO 30010KT 8SM CLR 21/03 A2992 10 30 800 300/10 RMK AO2 T02110033
12884KBVE BVE20191201153510512/01/19 15:35:31  5-MIN KBVE 012135Z AUTO 30007KT 8SM CLR 21/03 A2992 10 30 800 300/07 RMK AO2 T02110033
12884KBVE BVE20191201154011012/01/19 15:40:31  5-MIN KBVE 012140Z AUTO 30010G14KT 8SM CLR 21/03 A2992 0 30 800 300/10G14 RMK AO2 T02110033
12884KBVE BVE20191201154511712/01/19 15:45:31  5-MIN KBVE 012145Z AUTO 30007G14KT 8SM CLR 21/03 A2992 0 29 800 300/07G14 RMK AO2 SLP131 T02110028
12884KBVE BVE20191201155011112/01/19 15:50:31  5-MIN KBVE 012150Z AUTO 30006KT 9SM CLR 21/03 A2992 0 30 700 300/06 RMK AO2 SLP132 T02060028
12884KBVE BVE20191201155510412/01/19 15:55:31  5-MIN KBVE 012155Z AUTO 30006KT 9SM CLR 21/03 A2992 0 30 700 300/06 RMK AO2 T02060028
12884KBVE BVE20191201160010412/01/19 16:00:31  5-MIN KBVE 012200Z AUTO 30009KT 9SM CLR 21/03 A2993 0 30 700 300/09 RMK AO2 T02060028
12884KBVE BVE20191201160510412/01/19 16:05:31  5-MIN KBVE 012205Z AUTO 29007KT 9SM CLR 21/03 A2993 0 32 700 290/07 RMK AO2 T02060033
12884KBVE BVE20191201161010512/01/19 16:10:31  5-MIN KBVE 012210Z AUTO 30006KT 10SM CLR 20/03 A2993 0 33 600 300/06 RMK AO2 T02000033
12884KBVE BVE20191201161510512/01/19 16:15:31  5-MIN KBVE 012215Z AUTO 30007KT 10SM CLR 20/03 A2993 0 33 600 300/07 RMK AO2 T02000033
12884KBVE BVE20191201162010512/01/19 16:20:31  5-MIN KBVE 012220Z AUTO 30006KT 10SM CLR 19/03 A2993 0 34 600 300/06 RMK AO2 T01940033
12884KBVE BVE20191201162510512/01/19 16:25:31  5-MIN KBVE 012225Z AUTO 31006KT 10SM CLR 19/03 A2993 0 33 600 310/06 RMK AO2 T01940028
12884KBVE BVE20191201163010512/01/19 16:30:31  5-MIN KBVE 012230Z AUTO 30006KT 10SM CLR 19/03 A2993 0 34 500 300/06 RMK AO2 T01890028
12884KBVE BVE20191201163510512/01/19 16:35:31  5-MIN KBVE 012235Z AUTO 30006KT 10SM CLR 19/02 A2993 0 32 500 300/06 RMK AO2 T01890022
12884KBVE BVE20191201164010512/01/19 16:40:31  5-MIN KBVE 012240Z AUTO 30005KT 10SM CLR 18/02 A2993 0 34 400 300/05 RMK AO2 T01830022
12884KBVE BVE20191201164511212/01/19 16:45:31  5-MIN KBVE 012245Z AUTO 29004KT 10SM CLR 18/02 A2993 0 34 400 290/04 RMK AO2 SLP135 T01830022
12884KBVE BVE20191201165011212/01/19 16:50:31  5-MIN KBVE 012250Z AUTO 29005KT 10SM CLR 18/02 A2993 0 35 400 290/05 RMK AO2 SLP135 T01780022
12884KBVE BVE20191201165510512/01/19 16:55:31  5-MIN KBVE 012255Z AUTO 29004KT 10SM CLR 17/03 A2993 0 39 300 290/04 RMK AO2 T01720033
12884KBVE BVE20191201170010712/01/19 17:00:31  5-MIN KBVE 012300Z AUTO 29004KT 10SM CLR 17/04 A2993 -10 42 200 290/04 RMK AO2 T01670039
12884KBVE BVE20191201170510712/01/19 17:05:31  5-MIN KBVE 012305Z AUTO 29003KT 10SM CLR 16/04 A2994 -10 45 200 290/03 RMK AO2 T01610044
12884KBVE BVE20191201171010612/01/19 17:10:31  5-MIN KBVE 012310Z AUTO 29004KT 9SM CLR 16/04 A2994 -10 45 200 290/04 RMK AO2 T01610044
12884KBVE BVE20191201171510712/01/19 17:15:31  5-MIN KBVE 012315Z AUTO 29004KT 10SM CLR 16/05 A2994 -10 47 200 290/04 RMK AO2 T01610050
12884KBVE BVE20191201172010712/01/19 17:20:31  5-MIN KBVE 012320Z AUTO 30004KT 10SM CLR 16/05 A2994 -10 49 100 300/04 RMK AO2 T01560050
12884KBVE BVE20191201172510712/01/19 17:25:31  5-MIN KBVE 012325Z AUTO 30003KT 10SM CLR 16/05 A2994 -10 49 100 300/03 RMK AO2 T01560050
12884KBVE BVE20191201173010712/01/19 17:30:31  5-MIN KBVE 012330Z AUTO 31004KT 10SM CLR 16/05 A2994 -10 49 100 310/04 RMK AO2 T01560050
12884KBVE BVE20191201173510712/01/19 17:35:31  5-MIN KBVE 012335Z AUTO 30004KT 10SM CLR 16/06 A2995 -20 51 100 300/04 RMK AO2 T01560056
12884KBVE BVE20191201174010512/01/19 17:40:31  5-MIN KBVE 012340Z AUTO 29003KT 10SM CLR 15/06 A2995 -20 53 0 290/03 RMK AO2 T01500056
12884KBVE BVE20191201174513012/01/19 17:45:31  5-MIN KBVE 012345Z AUTO 00000KT 10SM CLR 14/06 A2995 -10 57 0 000/00 RMK AO2 SLP140 T01440061 10228 20144 56015
12884KBVE BVE20191201175013012/01/19 17:50:31  5-MIN KBVE 012350Z AUTO 29003KT 10SM CLR 14/07 A2995 -20 59 0 290/03 RMK AO2 SLP141 T01440067 10228 20144 56015
12884KBVE BVE20191201175510512/01/19 17:55:31  5-MIN KBVE 012355Z AUTO 30003KT 10SM CLR 14/07 A2995 -20 59 0 300/03 RMK AO2 T01440067
12884KBVE BVE20191201180010512/01/19 18:00:31  5-MIN KBVE 020000Z AUTO 29004KT 10SM CLR 14/07 A2995 -20 59 0 290/04 RMK AO2 T01440067
12884KBVE BVE20191201180510512/01/19 18:05:31  5-MIN KBVE 020005Z AUTO 28003KT 10SM CLR 14/07 A2995 -20 59 0 280/03 RMK AO2 T01440067
12884KBVE BVE20191201181010512/01/19 18:10:31  5-MIN KBVE 020010Z AUTO 28003KT 10SM CLR 14/07 A2995 -20 59 0 280/03 RMK AO2 T01440067
12884KBVE BVE20191201181510512/01/19 18:15:31  5-MIN KBVE 020015Z AUTO 00000KT 10SM CLR 14/07 A2995 -20 59 0 000/00 RMK AO2 T01440067
12884KBVE BVE20191201182010512/01/19 18:20:31  5-MIN KBVE 020020Z AUTO 30004KT 10SM CLR 14/07 A2995 -20 59 0 300/04 RMK AO2 T01440067
12884KBVE BVE20191201182510512/01/19 18:25:31  5-MIN KBVE 020025Z AUTO 30003KT 10SM CLR 14/06 A2996 -20 57 0 300/03 RMK AO2 T01440061
12884KBVE BVE20191201183010512/01/19 18:30:31  5-MIN KBVE 020030Z AUTO 31004KT 10SM CLR 14/06 A2996 -30 57 0 310/04 RMK AO2 T01440061
12884KBVE BVE20191201183510512/01/19 18:35:31  5-MIN KBVE 020035Z AUTO 30004KT 10SM CLR 14/06 A2996 -30 57 0 300/04 RMK AO2 T01440061
12884KBVE BVE20191201184010512/01/19 18:40:31  5-MIN KBVE 020040Z AUTO 29003KT 10SM CLR 14/06 A2996 -30 55 0 290/03 RMK AO2 T01440056
12884KBVE BVE20191201184511512/01/19 18:45:31  5-MIN KBVE 020045Z AUTO 29003KT 10SM CLR 14/07 A2997 -30 64 -100 290/03 RMK AO2 SLP147 T01390072
12884KBVE BVE20191201185011512/01/19 18:50:31  5-MIN KBVE 020050Z AUTO 28003KT 10SM CLR 13/07 A2997 -40 66 -200 280/03 RMK AO2 SLP147 T01330072
12884KBVE BVE20191201185510812/01/19 18:55:31  5-MIN KBVE 020055Z AUTO 00000KT 10SM CLR 13/07 A2997 -40 66 -200 000/00 RMK AO2 T01330072
12884KBVE BVE20191201190010812/01/19 19:00:31  5-MIN KBVE 020100Z AUTO 28004KT 10SM CLR 13/07 A2997 -40 66 -200 280/04 RMK AO2 T01330072
12884KBVE BVE20191201190510812/01/19 19:05:31  5-MIN KBVE 020105Z AUTO 29003KT 10SM CLR 13/08 A2997 -40 69 -200 290/03 RMK AO2 T01330078
12884KBVE BVE20191201191010812/01/19 19:10:31  5-MIN KBVE 020110Z AUTO 29004KT 10SM CLR 13/07 A2997 -40 66 -200 290/04 RMK AO2 T01330072
12884KBVE BVE20191201191510812/01/19 19:15:31  5-MIN KBVE 020115Z AUTO 29004KT 10SM CLR 13/07 A2997 -40 66 -200 290/04 RMK AO2 T01330072
12884KBVE BVE20191201192010812/01/19 19:20:31  5-MIN KBVE 020120Z AUTO 29006KT 10SM CLR 14/07 A2998 -40 64 -100 290/06 RMK AO2 T01390072
