13976KLFT LFT20190201021012602/01/19 02:10:31  5-MIN KLFT 010810Z AUTO 11006KT 10SM FEW028 BKN039 OVC048 13/10 A3013 -140 83 -400 110/06 RMK AO2 T01280100
13976KLFT LFT20190201021512602/01/19 02:15:31  5-MIN KLFT 010815Z AUTO VRB05KT 10SM FEW022 BKN039 BKN050 13/10 A3012 -140 83 -400 VRB/05 RMK AO2 T01280100
13976KLFT LFT20190201022012602/01/19 02:20:31  5-MIN KLFT 010820Z AUTO 10005KT 10SM FEW022 SCT042 OVC050 13/10 A3012 -130 83 -300 100/05 RMK AO2 T01280100
13976KLFT LFT20190201022511902/01/19 02:25:31  5-MIN KLFT 010825Z AUTO 09006KT 10SM FEW039 BKN050 13/10 A3012 -130 83 -300 090/06 RMK AO2 T01280100
13976KLFT LFT20190201023011902/01/19 02:30:31  5-MIN KLFT 010830Z AUTO 10007KT 10SM FEW039 BKN050 13/10 A3011 -130 83 -300 100/07 RMK AO2 T01280100
13976KLFT LFT20190201023511902/01/19 02:35:31  5-MIN KLFT 010835Z AUTO 11006KT 10SM FEW021 SCT050 13/10 A3012 -140 83 -300 110/06 RMK AO2 T01280100
13976KLFT LFT20190201024011902/01/19 02:40:31  5-MIN KLFT 010840Z AUTO VRB05KT 10SM SCT021 BKN050 13/10 A3012 -140 83 -400 VRB/05 RMK AO2 T01280100
13976KLFT LFT20190201024511902/01/19 02:45:31  5-MIN KLFT 010845Z AUTO VRB06KT 10SM BKN022 BKN050 13/10 A3013 -150 83 -400 VRB/06 RMK AO2 T01280100
13976KLFT LFT20190201025013102/01/19 02:50:31  5-MIN KLFT 010850Z AUTO VRB05KT 10SM BKN022 13/10 A3014 -150 83 -400 VRB/05 RMK AO2 SLP204 60001 T01280100 56012
13976KLFT LFT20190201025511202/01/19 02:55:31  5-MIN KLFT 010855Z AUTO 11005KT 10SM BKN020 13/10 A3013 -150 83 -400 110/05 RMK AO2 T01280100
13976KLFT LFT20190201030011202/01/19 03:00:31  5-MIN KLFT 010900Z AUTO VRB05KT 10SM OVC020 13/10 A3013 -140 83 -400 VRB/05 RMK AO2 T01280100
13976KLFT LFT20190201030511202/01/19 03:05:31  5-MIN KLFT 010905Z AUTO 11006KT 10SM OVC020 13/10 A3014 -150 83 -400 110/06 RMK AO2 T01280100
13976KLFT LFT20190201031011202/01/19 03:10:31  5-MIN KLFT 010910Z AUTO 12006KT 10SM OVC020 13/10 A3013 -150 83 -400 120/06 RMK AO2 T01280100
13976KLFT LFT20190201031511202/01/19 03:15:31  5-MIN KLFT 010915Z AUTO 12006KT 10SM OVC019 13/10 A3013 -150 83 -400 120/06 RMK AO2 T01280100
13976KLFT LFT20190201032011202/01/19 03:20:31  5-MIN KLFT 010920Z AUTO 10004KT 10SM OVC019 13/10 A3013 -140 83 -400 090/04 RMK AO2 T01280100
13976KLFT LFT20190201032511202/01/19 03:25:31  5-MIN KLFT 010925Z AUTO VRB05KT 10SM OVC019 13/10 A3012 -140 83 -400 VRB/05 RMK AO2 T01280100
13976KLFT LFT20190201033011202/01/19 03:30:31  5-MIN KLFT 010930Z AUTO VRB03KT 10SM OVC019 13/10 A3012 -140 83 -300 VRB/03 RMK AO2 T01280100
13976KLFT LFT20190201033511202/01/19 03:35:31  5-MIN KLFT 010935Z AUTO VRB05KT 10SM OVC019 13/10 A3012 -130 83 -300 VRB/05 RMK AO2 T01280100
13976KLFT LFT20190201034011202/01/19 03:40:31  5-MIN KLFT 010940Z AUTO 10005KT 10SM OVC019 13/10 A3012 -130 83 -300 100/05 RMK AO2 T01280100
13976KLFT LFT20190201034511202/01/19 03:45:31  5-MIN KLFT 010945Z AUTO 11005KT 10SM OVC017 13/11 A3012 -130 86 -300 110/05 RMK AO2 T01280106
13976KLFT LFT20190201035011902/01/19 03:50:31  5-MIN KLFT 010950Z AUTO VRB03KT 10SM OVC017 13/11 A3011 -130 86 -300 VRB/03 RMK AO2 SLP197 T01280106
13976KLFT LFT20190201035511202/01/19 03:55:31  5-MIN KLFT 010955Z AUTO VRB03KT 10SM OVC017 13/11 A3011 -130 86 -300 VRB/03 RMK AO2 T01280106
13976KLFT LFT20190201040011202/01/19 04:00:31  5-MIN KLFT 011000Z AUTO VRB06KT 10SM OVC017 13/11 A3011 -130 86 -300 VRB/06 RMK AO2 T01280106
13976KLFT LFT20190201040511202/01/19 04:05:31  5-MIN KLFT 011005Z AUTO 10003KT 10SM OVC017 13/11 A3011 -130 86 -300 100/03 RMK AO2 T01280106
13976KLFT LFT20190201041011202/01/19 04:10:31  5-MIN KLFT 011010Z AUTO VRB04KT 10SM OVC016 13/11 A3010 -120 86 -300 VRB/04 RMK AO2 T01280106
13976KLFT LFT20190201041511202/01/19 04:15:31  5-MIN KLFT 011015Z AUTO VRB04KT 10SM OVC016 13/11 A3011 -120 86 -300 VRB/04 RMK AO2 T01280106
13976KLFT LFT20190201042011202/01/19 04:20:31  5-MIN KLFT 011020Z AUTO VRB05KT 10SM OVC016 13/11 A3011 -120 86 -300 VRB/05 RMK AO2 T01280106
13976KLFT LFT20190201042511202/01/19 04:25:31  5-MIN KLFT 011025Z AUTO 09004KT 10SM OVC015 13/11 A3011 -120 86 -300 090/04 RMK AO2 T01280106
13976KLFT LFT20190201043011202/01/19 04:30:31  5-MIN KLFT 011030Z AUTO VRB04KT 10SM OVC015 13/11 A3011 -130 86 -300 VRB/04 RMK AO2 T01280106
13976KLFT LFT20190201043511202/01/19 04:35:31  5-MIN KLFT 011035Z AUTO VRB04KT 10SM OVC015 13/11 A3011 -130 86 -300 VRB/04 RMK AO2 T01280106
13976KLFT LFT20190201044011202/01/19 04:40:31  5-MIN KLFT 011040Z AUTO VRB03KT 10SM OVC014 13/11 A3011 -130 86 -300 VRB/03 RMK AO2 T01280106
13976KLFT LFT20190201044511202/01/19 04:45:31  5-MIN KLFT 011045Z AUTO 10004KT 10SM OVC014 13/11 A3011 -130 86 -300 100/04 RMK AO2 T01280106
13976KLFT LFT20190201045011902/01/19 04:50:31  5-MIN KLFT 011050Z AUTO VRB04KT 10SM OVC014 13/11 A3012 -130 86 -300 VRB/04 RMK AO2 SLP197 T01280106
13976KLFT LFT20190201045511202/01/19 04:55:31  5-MIN KLFT 011055Z AUTO 11004KT 10SM OVC014 13/11 A3012 -130 83 -300 110/04 RMK AO2 T01330106
13976KLFT LFT20190201050011202/01/19 05:00:31  5-MIN KLFT 011100Z AUTO VRB04KT 10SM OVC014 13/11 A3012 -140 83 -300 VRB/04 RMK AO2 T01330106
13976KLFT LFT20190201050511202/01/19 05:05:31  5-MIN KLFT 011105Z AUTO VRB03KT 10SM OVC014 13/11 A3012 -140 83 -300 VRB/03 RMK AO2 T01330106
13976KLFT LFT20190201051011202/01/19 05:10:31  5-MIN KLFT 011110Z AUTO 07004KT 10SM OVC014 13/11 A3012 -140 83 -300 070/04 RMK AO2 T01330106
13976KLFT LFT20190201051511202/01/19 05:15:31  5-MIN KLFT 011115Z AUTO 08004KT 10SM OVC014 13/11 A3012 -130 83 -300 080/04 RMK AO2 T01330106
13976KLFT LFT20190201052011202/01/19 05:20:31  5-MIN KLFT 011120Z AUTO 08005KT 10SM OVC014 13/11 A3012 -130 86 -300 080/05 RMK AO2 T01280106
13976KLFT LFT20190201052511202/01/19 05:25:31  5-MIN KLFT 011125Z AUTO VRB05KT 10SM OVC014 13/11 A3012 -130 89 -300 VRB/05 RMK AO2 T01280111
13976KLFT LFT20190201053010702/01/19 05:30:31  5-MIN KLFT 011130Z 08004KT 10SM OVC013 13/11 A3012 -130 89 -300 080/04 RMK AO2 T01280111
13976KLFT LFT20190201053510702/01/19 05:35:31  5-MIN KLFT 011135Z VRB03KT 10SM OVC013 13/11 A3012 -130 89 -300 VRB/03 RMK AO2 T01280111
13976KLFT LFT20190201054010702/01/19 05:40:31  5-MIN KLFT 011140Z 09004KT 10SM OVC013 13/11 A3012 -130 89 -300 090/04 RMK AO2 T01280111
13976KLFT LFT20190201054510702/01/19 05:45:31  5-MIN KLFT 011145Z VRB05KT 10SM OVC013 13/11 A3012 -140 89 -300 VRB/05 RMK AO2 T01280111
13976KLFT LFT20190201055014402/01/19 05:50:31  5-MIN KLFT 011150Z 08004KT 10SM OVC013 13/11 A3012 -140 86 -300 080/04 RMK AO2 SLP200 60001 70002 T01330111 10133 20117 56005
13976KLFT LFT20190201055510702/01/19 05:55:31  5-MIN KLFT 011155Z 08005KT 10SM OVC013 13/11 A3012 -140 86 -300 080/05 RMK AO2 T01330111
13976KLFT LFT20190201060010702/01/19 06:00:31  5-MIN KLFT 011200Z VRB03KT 10SM OVC013 13/11 A3012 -140 86 -300 VRB/03 RMK AO2 T01330111
13976KLFT LFT20190201060510702/01/19 06:05:31  5-MIN KLFT 011205Z 08005KT 10SM OVC013 13/11 A3012 -140 86 -300 080/05 RMK AO2 T01330111
13976KLFT LFT20190201061010702/01/19 06:10:31  5-MIN KLFT 011210Z VRB04KT 10SM OVC013 13/11 A3013 -140 86 -300 VRB/04 RMK AO2 T01330111
13976KLFT LFT20190201061510702/01/19 06:15:31  5-MIN KLFT 011215Z VRB03KT 10SM OVC013 13/11 A3013 -150 86 -300 VRB/03 RMK AO2 T01330111
13976KLFT LFT20190201062010702/01/19 06:20:31  5-MIN KLFT 011220Z 09005KT 10SM OVC013 13/11 A3013 -150 86 -300 090/05 RMK AO2 T01330111
13976KLFT LFT20190201062510702/01/19 06:25:31  5-MIN KLFT 011225Z VRB04KT 10SM OVC013 13/11 A3013 -140 86 -300 VRB/04 RMK AO2 T01330111
13976KLFT LFT20190201063010702/01/19 06:30:31  5-MIN KLFT 011230Z 08006KT 10SM OVC013 13/11 A3013 -150 86 -300 080/06 RMK AO2 T01330111
13976KLFT LFT20190201063510702/01/19 06:35:31  5-MIN KLFT 011235Z VRB04KT 10SM OVC013 13/11 A3014 -150 86 -300 VRB/04 RMK AO2 T01330111
13976KLFT LFT20190201064010702/01/19 06:40:31  5-MIN KLFT 011240Z 06006KT 10SM OVC013 13/11 A3014 -150 86 -300 060/06 RMK AO2 T01330111
13976KLFT LFT20190201064510702/01/19 06:45:31  5-MIN KLFT 011245Z 06005KT 10SM OVC012 13/11 A3014 -160 86 -300 060/05 RMK AO2 T01330111
13976KLFT LFT20190201065011402/01/19 06:50:31  5-MIN KLFT 011250Z 05005KT 10SM OVC012 13/11 A3015 -160 86 -300 050/05 RMK AO2 SLP208 T01330111
13976KLFT LFT20190201065510702/01/19 06:55:31  5-MIN KLFT 011255Z 06004KT 10SM OVC012 13/12 A3015 -160 89 -300 060/04 RMK AO2 T01330117
13976KLFT LFT20190201070010702/01/19 07:00:31  5-MIN KLFT 011300Z 06005KT 10SM OVC012 13/12 A3015 -160 89 -300 060/05 RMK AO2 T01330117
13976KLFT LFT20190201070510702/01/19 07:05:31  5-MIN KLFT 011305Z 06005KT 10SM OVC012 13/12 A3015 -160 89 -300 060/05 RMK AO2 T01330117
13976KLFT LFT20190201071010702/01/19 07:10:31  5-MIN KLFT 011310Z 07003KT 10SM OVC012 13/12 A3015 -160 89 -300 070/03 RMK AO2 T01330117
13976KLFT LFT20190201071510702/01/19 07:15:31  5-MIN KLFT 011315Z 07003KT 10SM OVC012 13/12 A3015 -160 89 -300 060/03 RMK AO2 T01330117
13976KLFT LFT20190201072010702/01/19 07:20:31  5-MIN KLFT 011320Z 06005KT 10SM OVC012 13/12 A3015 -160 89 -300 060/05 RMK AO2 T01330117
13976KLFT LFT20190201072510702/01/19 07:25:31  5-MIN KLFT 011325Z 07004KT 10SM OVC012 13/12 A3015 -160 89 -300 070/04 RMK AO2 T01330117
13976KLFT LFT20190201073010702/01/19 07:30:31  5-MIN KLFT 011330Z VRB03KT 10SM OVC012 13/12 A3015 -170 89 -300 VRB/03 RMK AO2 T01330117
13976KLFT LFT20190201073510702/01/19 07:35:31  5-MIN KLFT 011335Z 09003KT 10SM OVC012 14/12 A3015 -170 86 -300 090/03 RMK AO2 T01390117
13976KLFT LFT20190201074010702/01/19 07:40:31  5-MIN KLFT 011340Z 08003KT 10SM OVC012 14/12 A3015 -170 86 -300 080/03 RMK AO2 T01390117
13976KLFT LFT20190201074510702/01/19 07:45:31  5-MIN KLFT 011345Z VRB03KT 10SM OVC012 14/12 A3016 -170 86 -300 VRB/03 RMK AO2 T01390117
13976KLFT LFT20190201075011402/01/19 07:50:31  5-MIN KLFT 011350Z VRB04KT 10SM OVC012 14/12 A3016 -170 86 -300 VRB/04 RMK AO2 SLP213 T01390117
13976KLFT LFT20190201075510702/01/19 07:55:31  5-MIN KLFT 011355Z 08004KT 10SM OVC012 14/12 A3016 -180 86 -300 070/04 RMK AO2 T01390117
13976KLFT LFT20190201080010702/01/19 08:00:31  5-MIN KLFT 011400Z 07004KT 10SM OVC012 14/12 A3016 -180 86 -300 070/04 RMK AO2 T01390117
13976KLFT LFT20190201080510702/01/19 08:05:31  5-MIN KLFT 011405Z 07005KT 10SM OVC012 14/12 A3017 -180 86 -300 070/05 RMK AO2 T01390117
13976KLFT LFT20190201081010702/01/19 08:10:31  5-MIN KLFT 011410Z 06004KT 10SM OVC012 14/12 A3017 -180 86 -300 060/04 RMK AO2 T01390117
13976KLFT LFT20190201081510702/01/19 08:15:31  5-MIN KLFT 011415Z 07003KT 10SM OVC012 14/12 A3017 -180 86 -300 070/03 RMK AO2 T01390117
13976KLFT LFT20190201082010702/01/19 08:20:31  5-MIN KLFT 011420Z VRB04KT 10SM OVC012 14/12 A3018 -190 86 -200 VRB/04 RMK AO2 T01440122
13976KLFT LFT20190201082510702/01/19 08:25:31  5-MIN KLFT 011425Z 06003KT 10SM OVC012 14/12 A3018 -190 83 -200 060/03 RMK AO2 T01440117
13976KLFT LFT20190201083010702/01/19 08:30:31  5-MIN KLFT 011430Z 07005KT 10SM OVC012 14/12 A3018 -190 83 -200 070/05 RMK AO2 T01440117
13976KLFT LFT20190201083510702/01/19 08:35:31  5-MIN KLFT 011435Z 06005KT 10SM OVC012 14/12 A3018 -190 83 -200 060/05 RMK AO2 T01440117
13976KLFT LFT20190201084010702/01/19 08:40:31  5-MIN KLFT 011440Z 07004KT 10SM OVC012 14/12 A3018 -190 86 -200 070/04 RMK AO2 T01440122
13976KLFT LFT20190201084510702/01/19 08:45:31  5-MIN KLFT 011445Z 07005KT 10SM OVC012 14/12 A3019 -200 86 -200 070/05 RMK AO2 T01440122
13976KLFT LFT20190201085012002/01/19 08:50:31  5-MIN KLFT 011450Z 07005KT 10SM OVC010 14/12 A3019 -200 86 -200 070/05 RMK AO2 SLP221 T01440122 55004
13976KLFT LFT20190201085510702/01/19 08:55:31  5-MIN KLFT 011455Z 07006KT 10SM OVC012 14/12 A3019 -200 86 -200 070/06 RMK AO2 T01440122
13976KLFT LFT20190201090010702/01/19 09:00:31  5-MIN KLFT 011500Z 08005KT 10SM OVC012 15/12 A3019 -200 83 -200 080/05 RMK AO2 T01500122
13976KLFT LFT20190201090510702/01/19 09:05:31  5-MIN KLFT 011505Z 07006KT 10SM OVC012 15/12 A3019 -200 83 -200 070/06 RMK AO2 T01500122
13976KLFT LFT20190201091010702/01/19 09:10:31  5-MIN KLFT 011510Z 08008KT 10SM OVC012 15/12 A3019 -200 83 -200 080/08 RMK AO2 T01500122
13976KLFT LFT20190201091510702/01/19 09:15:31  5-MIN KLFT 011515Z VRB05KT 10SM OVC012 15/12 A3020 -210 83 -200 VRB/05 RMK AO2 T01500122
13976KLFT LFT20190201092010702/01/19 09:20:31  5-MIN KLFT 011520Z VRB06KT 10SM OVC012 15/13 A3020 -210 86 -200 VRB/06 RMK AO2 T01500128
13976KLFT LFT20190201092510702/01/19 09:25:31  5-MIN KLFT 011525Z VRB05KT 10SM OVC012 16/13 A3020 -210 83 -100 VRB/05 RMK AO2 T01560128
13976KLFT LFT20190201093010702/01/19 09:30:31  5-MIN KLFT 011530Z VRB03KT 10SM OVC012 16/13 A3020 -210 83 -100 VRB/03 RMK AO2 T01560128
13976KLFT LFT20190201093510702/01/19 09:35:31  5-MIN KLFT 011535Z 08005KT 10SM OVC012 16/13 A3020 -210 83 -100 080/05 RMK AO2 T01560128
13976KLFT LFT20190201094010702/01/19 09:40:31  5-MIN KLFT 011540Z 07007KT 10SM OVC012 16/13 A3020 -210 83 -100 070/07 RMK AO2 T01560128
13976KLFT LFT20190201094510702/01/19 09:45:31  5-MIN KLFT 011545Z 07006KT 10SM OVC013 16/13 A3021 -210 83 -100 070/06 RMK AO2 T01560128
13976KLFT LFT20190201095011402/01/19 09:50:31  5-MIN KLFT 011550Z VRB05KT 10SM OVC010 16/13 A3020 -210 83 -100 VRB/05 RMK AO2 SLP228 T01560128
13976KLFT LFT20190201095510702/01/19 09:55:31  5-MIN KLFT 011555Z 07007KT 10SM OVC013 16/13 A3020 -210 83 -100 070/07 RMK AO2 T01560128
13976KLFT LFT20190201100010402/01/19 10:00:31  5-MIN KLFT 011600Z 08005KT 10SM OVC013 16/13 A3020 -210 80 0 080/05 RMK AO2 T01610128
13976KLFT LFT20190201100512002/01/19 10:05:31  5-MIN KLFT 011605Z 08007KT 060V120 10SM OVC013 16/13 A3020 -210 80 0 080/07 060V120 RMK AO2 T01610128
13976KLFT LFT20190201101010402/01/19 10:10:31  5-MIN KLFT 011610Z 09006KT 10SM OVC013 17/13 A3020 -210 77 0 090/06 RMK AO2 T01670128
13976KLFT LFT20190201101510402/01/19 10:15:31  5-MIN KLFT 011615Z VRB06KT 10SM OVC013 17/13 A3020 -210 77 0 VRB/06 RMK AO2 T01670128
13976KLFT LFT20190201102011802/01/19 10:20:31  5-MIN KLFT 011620Z 08005KT 10SM BKN013 BKN019 OVC045 17/13 A3020 -210 77 0 080/05 RMK AO2 T01670128
13976KLFT LFT20190201102511802/01/19 10:25:31  5-MIN KLFT 011625Z 07007KT 10SM BKN013 BKN019 OVC045 17/13 A3020 -210 77 0 070/07 RMK AO2 T01670128
13976KLFT LFT20190201103011102/01/19 10:30:31  5-MIN KLFT 011630Z 08007KT 10SM BKN013 OVC045 17/13 A3020 -210 77 0 080/07 RMK AO2 T01670128
13976KLFT LFT20190201103511102/01/19 10:35:31  5-MIN KLFT 011635Z 09009KT 10SM BKN013 BKN045 17/13 A3020 -200 80 0 090/09 RMK AO2 T01670133
13976KLFT LFT20190201104011102/01/19 10:40:31  5-MIN KLFT 011640Z 08006KT 10SM BKN013 BKN045 17/13 A3020 -200 80 0 080/06 RMK AO2 T01670133
13976KLFT LFT20190201104511102/01/19 10:45:31  5-MIN KLFT 011645Z VRB05KT 10SM BKN013 BKN045 17/14 A3020 -200 80 0 VRB/05 RMK AO2 T01720139
13976KLFT LFT20190201105010302/01/19 10:50:31  5-MIN KLFT 011650Z 08006KT 10SM BKN015 BKN047 18/13 A3019 -200 75 100 080/06 RMK AO2
13976KLFT LFT20190201105511302/01/19 10:55:31  5-MIN KLFT 011655Z VRB04KT 10SM BKN015 OVC047 18/13 A3019 -200 75 100 VRB/04 RMK AO2 T01780133
13976KLFT LFT20190201110011302/01/19 11:00:31  5-MIN KLFT 011700Z VRB05KT 10SM BKN015 OVC047 18/14 A3019 -200 78 100 VRB/05 RMK AO2 T01780139
13976KLFT LFT20190201110511302/01/19 11:05:31  5-MIN KLFT 011705Z VRB06KT 10SM BKN015 OVC047 18/14 A3020 -200 78 100 VRB/06 RMK AO2 T01780139
13976KLFT LFT20190201111011302/01/19 11:10:31  5-MIN KLFT 011710Z VRB05KT 10SM BKN015 OVC047 18/14 A3020 -210 75 200 VRB/05 RMK AO2 T01830139
13976KLFT LFT20190201111511302/01/19 11:15:31  5-MIN KLFT 011715Z 09004KT 10SM BKN015 OVC047 18/14 A3019 -200 75 200 090/04 RMK AO2 T01830139
13976KLFT LFT20190201112011302/01/19 11:20:31  5-MIN KLFT 011720Z 09004KT 10SM BKN015 OVC047 18/14 A3019 -200 75 200 090/04 RMK AO2 T01830139
13976KLFT LFT20190201112511302/01/19 11:25:31  5-MIN KLFT 011725Z VRB03KT 10SM BKN015 OVC047 18/14 A3019 -200 75 200 VRB/03 RMK AO2 T01830139
13976KLFT LFT20190201113011302/01/19 11:30:31  5-MIN KLFT 011730Z 06005KT 10SM BKN015 OVC047 19/14 A3019 -200 72 200 060/05 RMK AO2 T01890139
13976KLFT LFT20190201113511302/01/19 11:35:31  5-MIN KLFT 011735Z 04006KT 10SM BKN015 OVC047 18/14 A3019 -200 75 200 040/06 RMK AO2 T01830139
13976KLFT LFT20190201114011302/01/19 11:40:31  5-MIN KLFT 011740Z 03005KT 10SM BKN015 OVC047 19/14 A3019 -200 72 200 030/05 RMK AO2 T01890139
13976KLFT LFT20190201114511302/01/19 11:45:31  5-MIN KLFT 011745Z 06005KT 10SM BKN015 OVC047 19/14 A3019 -200 72 200 060/05 RMK AO2 T01890139
13976KLFT LFT20190201115013802/01/19 11:50:31  5-MIN KLFT 011750Z VRB04KT 10SM BKN015 OVC047 19/14 A3019 -200 72 200 VRB/04 RMK AO2 SLP221 T01890139 10189 20133 51022
13976KLFT LFT20190201115511302/01/19 11:55:31  5-MIN KLFT 011755Z 07005KT 10SM FEW020 OVC050 19/14 A3018 -190 70 300 070/05 RMK AO2 T01940139
13976KLFT LFT20190201120011302/01/19 12:00:31  5-MIN KLFT 011800Z 04005KT 10SM BKN015 OVC050 19/14 A3018 -190 70 300 040/05 RMK AO2 T01940139
13976KLFT LFT20190201120511302/01/19 12:05:31  5-MIN KLFT 011805Z 08004KT 10SM BKN015 OVC050 19/14 A3018 -190 70 300 080/04 RMK AO2 T01940139
13976KLFT LFT20190201121011302/01/19 12:10:31  5-MIN KLFT 011810Z VRB04KT 10SM BKN015 OVC050 19/14 A3018 -190 70 300 VRB/04 RMK AO2 T01940139
13976KLFT LFT20190201121511302/01/19 12:15:31  5-MIN KLFT 011815Z VRB04KT 10SM BKN015 OVC050 19/14 A3018 -190 70 300 VRB/04 RMK AO2 T01940139
13976KLFT LFT20190201122011302/01/19 12:20:31  5-MIN KLFT 011820Z VRB03KT 10SM BKN015 OVC050 19/14 A3018 -190 72 300 VRB/03 RMK AO2 T01940144
13976KLFT LFT20190201122511302/01/19 12:25:31  5-MIN KLFT 011825Z 08005KT 10SM BKN015 OVC050 20/14 A3018 -190 70 400 080/05 RMK AO2 T02000144
13976KLFT LFT20190201123011302/01/19 12:30:31  5-MIN KLFT 011830Z VRB04KT 10SM BKN015 OVC050 19/14 A3018 -190 70 300 VRB/04 RMK AO2 T01940139
13976KLFT LFT20190201123511302/01/19 12:35:31  5-MIN KLFT 011835Z VRB04KT 10SM BKN015 OVC050 19/14 A3018 -190 72 300 VRB/04 RMK AO2 T01940144
13976KLFT LFT20190201124011302/01/19 12:40:31  5-MIN KLFT 011840Z 09005KT 10SM BKN018 OVC050 19/14 A3018 -190 70 300 090/05 RMK AO2 T01940139
13976KLFT LFT20190201124511302/01/19 12:45:31  5-MIN KLFT 011845Z VRB03KT 10SM BKN018 OVC050 19/14 A3018 -190 72 300 VRB/03 RMK AO2 T01940144
13976KLFT LFT20190201125012702/01/19 12:50:31  5-MIN KLFT 011850Z 13004KT 10SM BKN019 BKN030 OVC046 19/14 A3017 -180 72 300 130/04 RMK AO2 SLP217 T01940144
13976KLFT LFT20190201125512002/01/19 12:55:31  5-MIN KLFT 011855Z VRB05KT 10SM BKN022 BKN030 OVC046 19/14 A3017 -180 72 300 VRB/05 RMK AO2 T01940144
13976KLFT LFT20190201130011302/01/19 13:00:31  5-MIN KLFT 011900Z VRB03KT 10SM BKN022 OVC030 19/14 A3017 -180 72 300 VRB/03 RMK AO2 T01940144
13976KLFT LFT20190201130510602/01/19 13:05:31  5-MIN KLFT 011905Z VRB05KT 10SM OVC022 19/14 A3017 -180 72 300 VRB/05 RMK AO2 T01940144
13976KLFT LFT20190201131011302/01/19 13:10:31  5-MIN KLFT 011910Z 16003KT 10SM BKN022 OVC030 19/14 A3017 -180 72 300 160/03 RMK AO2 T01940144
13976KLFT LFT20190201131511302/01/19 13:15:31  5-MIN KLFT 011915Z VRB03KT 10SM BKN023 OVC030 19/14 A3017 -180 70 300 VRB/03 RMK AO2 T01940139
13976KLFT LFT20190201132010602/01/19 13:20:31  5-MIN KLFT 011920Z VRB04KT 10SM OVC023 19/14 A3017 -180 72 300 VRB/04 RMK AO2 T01890139
13976KLFT LFT20190201132510602/01/19 13:25:31  5-MIN KLFT 011925Z VRB03KT 10SM OVC023 19/14 A3017 -180 72 300 VRB/03 RMK AO2 T01890139
13976KLFT LFT20190201133010602/01/19 13:30:31  5-MIN KLFT 011930Z 00000KT 10SM OVC023 19/14 A3017 -180 72 300 000/00 RMK AO2 T01890139
13976KLFT LFT20190201133510602/01/19 13:35:31  5-MIN KLFT 011935Z VRB03KT 10SM OVC023 19/14 A3017 -180 72 300 VRB/03 RMK AO2 T01890139
13976KLFT LFT20190201134010602/01/19 13:40:31  5-MIN KLFT 011940Z 09003KT 10SM OVC024 19/14 A3016 -180 72 300 090/03 RMK AO2 T01890139
13976KLFT LFT20190201134510602/01/19 13:45:31  5-MIN KLFT 011945Z 00000KT 10SM OVC024 19/14 A3017 -180 72 300 000/00 RMK AO2 T01890139
13976KLFT LFT20190201135011302/01/19 13:50:31  5-MIN KLFT 011950Z 00000KT 10SM OVC024 19/14 A3016 -180 72 300 000/00 RMK AO2 SLP214 T01890139
13976KLFT LFT20190201135510602/01/19 13:55:31  5-MIN KLFT 011955Z 11003KT 10SM OVC023 19/14 A3016 -170 72 300 110/03 RMK AO2 T01890139
13976KLFT LFT20190201140010602/01/19 14:00:31  5-MIN KLFT 012000Z 13004KT 10SM OVC023 19/14 A3016 -170 72 300 130/04 RMK AO2 T01890139
13976KLFT LFT20190201140510602/01/19 14:05:31  5-MIN KLFT 012005Z 00000KT 10SM OVC023 19/14 A3016 -170 72 300 000/00 RMK AO2 T01890139
13976KLFT LFT20190207011010402/07/19 01:10:31  5-MIN KLFT 070710Z 18009KT 9SM OVC006 21/20 A2998 -10 93 700 180/09 RMK AO2 T02110200
13976KLFT LFT20190207011511002/07/19 01:15:31  5-MIN KLFT 070715Z 18009G17KT 9SM OVC006 21/20 A2999 -10 93 700 180/09G17 RMK AO2 T02110200
13976KLFT LFT20190207012011002/07/19 01:20:31  5-MIN KLFT 070720Z 18009G17KT 9SM OVC006 21/20 A2999 -20 97 700 180/09G17 RMK AO2 T02060200
13976KLFT LFT20190207012510402/07/19 01:25:31  5-MIN KLFT 070725Z 18009KT 9SM OVC006 21/20 A2999 -20 97 700 180/09 RMK AO2 T02060200
13976KLFT LFT20190207013011002/07/19 01:30:31  5-MIN KLFT 070730Z 19010G15KT 9SM OVC006 21/20 A2999 -20 97 700 190/10G15 RMK AO2 T02060200
13976KLFT LFT20190207013510402/07/19 01:35:31  5-MIN KLFT 070735Z 17009KT 9SM OVC006 21/20 A2999 -10 93 700 170/09 RMK AO2 T02110200
13976KLFT LFT20190207014010402/07/19 01:40:31  5-MIN KLFT 070740Z 19009KT 9SM OVC006 21/20 A2999 -20 93 700 180/09 RMK AO2 T02110200
13976KLFT LFT20190207014510402/07/19 01:45:31  5-MIN KLFT 070745Z 18006KT 9SM OVC006 21/20 A2999 -20 93 700 180/06 RMK AO2 T02110200
13976KLFT LFT20190207015011102/07/19 01:50:31  5-MIN KLFT 070750Z 19007KT 9SM OVC007 21/20 A2999 -20 93 700 190/07 RMK AO2 SLP155 T02110200
13976KLFT LFT20190207015510402/07/19 01:55:31  5-MIN KLFT 070755Z 19008KT 9SM OVC007 21/20 A2999 -20 93 700 190/08 RMK AO2 T02110200
13976KLFT LFT20190207020010502/07/19 02:00:31  5-MIN KLFT 070800Z 19007KT 10SM OVC007 21/20 A2999 -20 93 700 190/07 RMK AO2 T02110200
13976KLFT LFT20190207020510402/07/19 02:05:31  5-MIN KLFT 070805Z 18010KT 9SM OVC007 21/20 A2999 -20 93 700 180/10 RMK AO2 T02110200
13976KLFT LFT20190207021010402/07/19 02:10:31  5-MIN KLFT 070810Z 18008KT 9SM OVC007 21/20 A2999 -20 93 700 180/08 RMK AO2 T02110200
13976KLFT LFT20190207021510402/07/19 02:15:31  5-MIN KLFT 070815Z 18009KT 9SM OVC007 21/20 A2999 -10 93 700 180/09 RMK AO2 T02110200
13976KLFT LFT20190207022010402/07/19 02:20:31  5-MIN KLFT 070820Z 18010KT 9SM OVC007 21/20 A2999 -10 93 700 180/10 RMK AO2 T02110200
13976KLFT LFT20190207022510402/07/19 02:25:31  5-MIN KLFT 070825Z 19009KT 9SM OVC007 21/20 A2999 -10 93 700 190/09 RMK AO2 T02110200
13976KLFT LFT20190207023010402/07/19 02:30:31  5-MIN KLFT 070830Z 18010KT 9SM OVC007 21/20 A2999 -10 93 700 180/10 RMK AO2 T02110200
13976KLFT LFT20190207023510402/07/19 02:35:31  5-MIN KLFT 070835Z 19010KT 9SM OVC007 21/20 A2998 -10 93 700 190/10 RMK AO2 T02110200
13976KLFT LFT20190207024011002/07/19 02:40:31  5-MIN KLFT 070840Z 19014G22KT 8SM OVC007 21/20 A2998 -10 93 700 180/14G22 RMK AO2 T02110200
13976KLFT LFT20190207024511002/07/19 02:45:31  5-MIN KLFT 070845Z 19012G22KT 8SM OVC006 21/20 A2998 -10 97 700 190/12G22 RMK AO2 T02060200
13976KLFT LFT20190207025013002/07/19 02:50:31  5-MIN KLFT 070850Z 19011G19KT 8SM BKN006 OVC011 21/20 A2998 -10 97 700 190/11G19 RMK AO2 SLP151 T02060200 58007
13976KLFT LFT20190207025512302/07/19 02:55:31  5-MIN KLFT 070855Z 20010KT 9SM BKN006 OVC013 21/20 A2998 -10 97 700 200/10 RMK AO2 CIG 005V010 T02060200
13976KLFT LFT20190207030012202/07/19 03:00:31  5-MIN KLFT 070900Z 19009KT 10SM BKN008 OVC013 21/20 A2998 0 93 700 190/09 RMK AO2 CIG 005V010 T02110200
13976KLFT LFT20190207030512102/07/19 03:05:31  5-MIN KLFT 070905Z 19011KT 9SM BKN008 OVC013 21/20 A2998 0 93 700 190/11 RMK AO2 CIG 005V010 T02110200
13976KLFT LFT20190207031012102/07/19 03:10:31  5-MIN KLFT 070910Z 18011KT 9SM BKN008 OVC013 21/20 A2998 0 93 700 180/11 RMK AO2 CIG 005V010 T02110200
13976KLFT LFT20190207031512102/07/19 03:15:31  5-MIN KLFT 070915Z 18008KT 8SM BKN006 OVC013 21/20 A2998 0 93 700 180/08 RMK AO2 CIG 005V008 T02110200
13976KLFT LFT20190207032012002/07/19 03:20:31  5-MIN KLFT 070920Z 18009G21KT 8SM OVC006 21/20 A2997 0 93 700 180/09G21 RMK AO2 CIG 005V010 T02110200
13976KLFT LFT20190207032512002/07/19 03:25:31  5-MIN KLFT 070925Z 17010G21KT 7SM OVC006 21/20 A2997 0 97 700 170/10G21 RMK AO2 CIG 004V010 T02060200
13976KLFT LFT20190207033010202/07/19 03:30:31  5-MIN KLFT 070930Z 19012KT 7SM OVC006 21/20 A2997 0 97 700 190/12 RMK AO2 T02060200
13976KLFT LFT20190207033512002/07/19 03:35:31  5-MIN KLFT 070935Z 18009G16KT 8SM OVC006 21/20 A2997 0 97 700 180/09G16 RMK AO2 CIG 004V008 T02060200
13976KLFT LFT20190207034010802/07/19 03:40:31  5-MIN KLFT 070940Z 18010G17KT 8SM OVC006 21/20 A2997 0 97 700 180/10G17 RMK AO2 T02060200
13976KLFT LFT20190207034511502/07/19 03:45:31  5-MIN KLFT 070945Z 19010G17KT 9SM BKN006 OVC010 21/20 A2997 0 97 700 190/10G17 RMK AO2 T02060200
13976KLFT LFT20190207035012102/07/19 03:50:31  5-MIN KLFT 070950Z 19011KT 9SM OVC008 21/20 A2997 0 97 700 190/11 RMK AO2 CIG 004V011 SLP149 T02060200
13976KLFT LFT20190207035511502/07/19 03:55:31  5-MIN KLFT 070955Z 18008KT 10SM OVC008 21/20 A2997 0 93 800 180/08 RMK AO2 CIG 005V011 T02110200
13976KLFT LFT20190207040011502/07/19 04:00:31  5-MIN KLFT 071000Z 18008KT 10SM OVC006 21/20 A2997 0 93 800 180/08 RMK AO2 CIG 005V009 T02110200
13976KLFT LFT20190207040510202/07/19 04:05:31  5-MIN KLFT 071005Z 19010KT 8SM OVC006 21/20 A2997 0 93 800 180/10 RMK AO2 T02110200
13976KLFT LFT20190207041010202/07/19 04:10:31  5-MIN KLFT 071010Z 18008KT 8SM OVC006 21/20 A2997 0 93 800 180/08 RMK AO2 T02110200
13976KLFT LFT20190207041510202/07/19 04:15:31  5-MIN KLFT 071015Z 18009KT 9SM OVC006 21/20 A2996 0 93 800 180/09 RMK AO2 T02110200
13976KLFT LFT20190207042010302/07/19 04:20:31  5-MIN KLFT 071020Z 18008KT 10SM OVC006 21/20 A2997 0 93 800 180/08 RMK AO2 T02110200
13976KLFT LFT20190207042510802/07/19 04:25:31  5-MIN KLFT 071025Z 18011G17KT 9SM OVC006 21/20 A2997 0 93 800 180/11G17 RMK AO2 T02110200
13976KLFT LFT20190207043010202/07/19 04:30:31  5-MIN KLFT 071030Z 18010KT 7SM OVC006 21/20 A2997 0 93 800 180/10 RMK AO2 T02110200
13976KLFT LFT20190207043511402/07/19 04:35:31  5-MIN KLFT 071035Z 18011KT 7SM OVC006 21/20 A2997 0 97 700 180/11 RMK AO2 CIG 005V010 T02060200
13976KLFT LFT20190207044012702/07/19 04:40:31  5-MIN KLFT 071040Z 18011G21KT 8SM BKN006 OVC016 21/20 A2997 0 97 700 180/11G21 RMK AO2 CIG 005V011 T02060200
13976KLFT LFT20190207044512802/07/19 04:45:31  5-MIN KLFT 071045Z 18010G21KT 10SM BKN007 OVC016 21/20 A2997 0 97 700 180/10G21 RMK AO2 CIG 005V011 T02060200
13976KLFT LFT20190207045012902/07/19 04:50:31  5-MIN KLFT 071050Z 18011KT 10SM BKN007 OVC016 21/20 A2997 0 97 700 180/11 RMK AO2 CIG 005V010 SLP148 T02060200
13976KLFT LFT20190207045512202/07/19 04:55:31  5-MIN KLFT 071055Z 17008KT 10SM BKN007 OVC016 21/20 A2997 0 97 700 170/08 RMK AO2 CIG 005V011 T02060200
13976KLFT LFT20190207050012202/07/19 05:00:31  5-MIN KLFT 071100Z 18010KT 10SM BKN007 OVC016 21/20 A2997 0 97 700 180/10 RMK AO2 CIG 005V012 T02060200
13976KLFT LFT20190207050512202/07/19 05:05:31  5-MIN KLFT 071105Z 18007KT 10SM BKN007 OVC018 21/20 A2998 0 97 700 180/07 RMK AO2 CIG 006V012 T02060200
13976KLFT LFT20190207051011702/07/19 05:10:31  5-MIN KLFT 071110Z 18007KT 10SM BKN008 BKN014 OVC018 21/20 A2998 0 97 700 180/07 RMK AO2 T02060200
13976KLFT LFT20190207051511202/07/19 05:15:31  5-MIN KLFT 071115Z 18008KT 10SM BKN008 OVC018 21/19 A2998 -10 93 700 180/08 RMK AO2 T02060194
13976KLFT LFT20190207052011202/07/19 05:20:31  5-MIN KLFT 071120Z 19010KT 10SM BKN008 OVC018 21/19 A2998 -10 93 700 190/10 RMK AO2 T02060194
13976KLFT LFT20190207052511202/07/19 05:25:31  5-MIN KLFT 071125Z 18009KT 10SM BKN008 OVC019 21/19 A2998 -10 93 700 180/09 RMK AO2 T02060194
13976KLFT LFT20190207053011202/07/19 05:30:31  5-MIN KLFT 071130Z 18008KT 10SM BKN007 OVC019 21/19 A2998 -10 93 700 180/08 RMK AO2 T02060194
13976KLFT LFT20190207053510502/07/19 05:35:31  5-MIN KLFT 071135Z 18008KT 10SM OVC007 21/20 A2998 -10 97 700 180/08 RMK AO2 T02060200
13976KLFT LFT20190207054010502/07/19 05:40:31  5-MIN KLFT 071140Z 18010KT 10SM OVC007 21/20 A2999 -10 97 700 180/10 RMK AO2 T02060200
13976KLFT LFT20190207054510502/07/19 05:45:31  5-MIN KLFT 071145Z 19008KT 10SM OVC007 21/19 A2999 -10 93 700 190/08 RMK AO2 T02060194
13976KLFT LFT20190207055013002/07/19 05:50:31  5-MIN KLFT 071150Z 18008KT 10SM OVC006 21/20 A2999 -10 97 700 180/08 RMK AO2 SLP154 T02060200 10211 20206 50004
13976KLFT LFT20190207055510502/07/19 05:55:31  5-MIN KLFT 071155Z 18009KT 10SM OVC006 21/20 A2999 -10 97 700 180/09 RMK AO2 T02060200
13976KLFT LFT20190207060010502/07/19 06:00:31  5-MIN KLFT 071200Z 18007KT 10SM OVC006 21/20 A2999 -10 97 700 180/07 RMK AO2 T02060200
13976KLFT LFT20190207060510502/07/19 06:05:31  5-MIN KLFT 071205Z 18007KT 10SM OVC006 21/20 A2998 -10 97 700 180/07 RMK AO2 T02060200
13976KLFT LFT20190207061011202/07/19 06:10:31  5-MIN KLFT 071210Z 18008KT 10SM BKN006 OVC021 21/19 A2999 -10 93 700 180/08 RMK AO2 T02060194
13976KLFT LFT20190207061511202/07/19 06:15:31  5-MIN KLFT 071215Z 18009KT 10SM BKN006 OVC021 21/19 A2999 -20 93 700 180/09 RMK AO2 T02060194
13976KLFT LFT20190207062010502/07/19 06:20:31  5-MIN KLFT 071220Z 18008KT 10SM OVC006 21/20 A2999 -20 97 700 180/08 RMK AO2 T02060200
13976KLFT LFT20190207062510502/07/19 06:25:31  5-MIN KLFT 071225Z 18007KT 10SM OVC006 21/20 A2999 -20 97 700 180/07 RMK AO2 T02060200
13976KLFT LFT20190207063010502/07/19 06:30:31  5-MIN KLFT 071230Z 18007KT 10SM OVC006 21/20 A3000 -20 97 700 180/07 RMK AO2 T02060200
13976KLFT LFT20190207063510502/07/19 06:35:31  5-MIN KLFT 071235Z 18009KT 10SM OVC006 21/20 A3000 -20 97 700 180/09 RMK AO2 T02060200
13976KLFT LFT20190207064010402/07/19 06:40:31  5-MIN KLFT 071240Z 18007KT 9SM OVC006 21/20 A3000 -20 97 700 180/07 RMK AO2 T02060200
13976KLFT LFT20190207064510402/07/19 06:45:31  5-MIN KLFT 071245Z 19007KT 9SM OVC006 21/20 A3000 -30 97 700 190/07 RMK AO2 T02060200
13976KLFT LFT20190207065011102/07/19 06:50:31  5-MIN KLFT 071250Z 19009KT 9SM OVC006 21/20 A3000 -30 97 600 190/09 RMK AO2 SLP159 T02060200
13976KLFT LFT20190207065511102/07/19 06:55:31  5-MIN KLFT 071255Z 19007KT 9SM BKN006 OVC022 21/20 A3001 -40 97 600 190/07 RMK AO2 T02060200
13976KLFT LFT20190207070012302/07/19 07:00:31  5-MIN KLFT 071300Z 19007KT 9SM BKN006 OVC024 21/20 A3001 -40 97 600 190/07 RMK AO2 CIG 005V010 T02060200
13976KLFT LFT20190207070512302/07/19 07:05:31  5-MIN KLFT 071305Z 19005KT 8SM BKN006 OVC024 21/20 A3002 -40 97 600 190/05 RMK AO2 CIG 005V010 T02060200
13976KLFT LFT20190207071012302/07/19 07:10:31  5-MIN KLFT 071310Z 20005KT 7SM BKN006 OVC024 21/20 A3002 -50 97 600 200/05 RMK AO2 CIG 005V010 T02060200
13976KLFT LFT20190207071512302/07/19 07:15:31  5-MIN KLFT 071315Z 20006KT 7SM BKN006 OVC024 21/20 A3002 -50 97 600 200/06 RMK AO2 CIG 005V010 T02060200
13976KLFT LFT20190207072012302/07/19 07:20:31  5-MIN KLFT 071320Z 19006KT 7SM BKN006 OVC024 21/20 A3002 -50 97 600 190/06 RMK AO2 CIG 005V010 T02060200
13976KLFT LFT20190207072511102/07/19 07:25:31  5-MIN KLFT 071325Z 19006KT 7SM BKN006 OVC024 21/20 A3003 -50 97 600 190/06 RMK AO2 T02060200
13976KLFT LFT20190207073011102/07/19 07:30:31  5-MIN KLFT 071330Z 18008KT 8SM BKN006 OVC025 21/20 A3003 -50 97 600 180/08 RMK AO2 T02060200
13976KLFT LFT20190207073511102/07/19 07:35:31  5-MIN KLFT 071335Z 18005KT 7SM BKN006 BKN025 21/20 A3003 -50 97 600 180/05 RMK AO2 T02060200
13976KLFT LFT20190207074011102/07/19 07:40:31  5-MIN KLFT 071340Z 18005KT 7SM BKN006 BKN024 21/20 A3003 -50 97 600 180/05 RMK AO2 T02060200
13976KLFT LFT20190207074511102/07/19 07:45:31  5-MIN KLFT 071345Z 18006KT 7SM BKN006 BKN024 21/20 A3003 -60 97 600 180/06 RMK AO2 T02060200
13976KLFT LFT20190207075011802/07/19 07:50:31  5-MIN KLFT 071350Z 18005KT 7SM BKN006 BKN024 21/20 A3004 -60 97 600 180/05 RMK AO2 SLP171 T02060200
13976KLFT LFT20190207075511102/07/19 07:55:31  5-MIN KLFT 071355Z 19007KT 7SM BKN006 BKN024 21/20 A3004 -60 93 700 190/07 RMK AO2 T02110200
13976KLFT LFT20190207080011102/07/19 08:00:31  5-MIN KLFT 071400Z 19007KT 8SM BKN006 BKN023 21/20 A3004 -70 93 700 190/07 RMK AO2 T02110200
13976KLFT LFT20190207080511102/07/19 08:05:31  5-MIN KLFT 071405Z 19007KT 8SM BKN006 BKN027 21/20 A3004 -60 93 700 190/07 RMK AO2 T02110200
13976KLFT LFT20190207081011102/07/19 08:10:31  5-MIN KLFT 071410Z 18007KT 8SM SCT006 BKN027 21/21 A3004 -60 97 700 180/07 RMK AO2 T02110206
13976KLFT LFT20190207081511102/07/19 08:15:31  5-MIN KLFT 071415Z 18007KT 9SM SCT006 BKN027 22/21 A3004 -60 93 700 180/07 RMK AO2 T02170206
13976KLFT LFT20190207082011102/07/19 08:20:31  5-MIN KLFT 071420Z 19007KT 9SM SCT006 BKN027 22/21 A3004 -70 93 700 190/07 RMK AO2 T02170206
13976KLFT LFT20190207082511102/07/19 08:25:31  5-MIN KLFT 071425Z 18008KT 9SM SCT006 BKN027 22/21 A3005 -70 93 700 180/08 RMK AO2 T02170206
13976KLFT LFT20190207083011102/07/19 08:30:31  5-MIN KLFT 071430Z 18010KT 9SM BKN007 BKN027 22/21 A3005 -70 93 700 180/10 RMK AO2 T02170206
13976KLFT LFT20190207083511102/07/19 08:35:31  5-MIN KLFT 071435Z 18007KT 9SM BKN007 BKN027 22/21 A3005 -70 93 700 180/07 RMK AO2 T02170206
13976KLFT LFT20190207084010402/07/19 08:40:31  5-MIN KLFT 071440Z 18010KT 9SM BKN007 22/21 A3005 -70 90 800 180/10 RMK AO2 T02220206
13976KLFT LFT20190207084510402/07/19 08:45:31  5-MIN KLFT 071445Z 18008KT 9SM BKN007 22/21 A3005 -70 90 800 180/08 RMK AO2 T02220206
13976KLFT LFT20190207085011702/07/19 08:50:31  5-MIN KLFT 071450Z 19009KT 9SM BKN007 22/21 A3005 -70 90 800 190/09 RMK AO2 SLP175 T02220206 53001
13976KLFT LFT20190207085510402/07/19 08:55:31  5-MIN KLFT 071455Z 18009KT 9SM BKN007 22/21 A3005 -70 90 800 180/09 RMK AO2 T02220206
13976KLFT LFT20190207090011702/07/19 09:00:31  5-MIN KLFT 071500Z 19009KT 10SM BKN007 22/21 A3005 -70 90 800 190/09 RMK AO2 CIG 006V011 T02220206
13976KLFT LFT20190207090511702/07/19 09:05:31  5-MIN KLFT 071505Z 19009KT 10SM BKN008 23/21 A3005 -70 87 900 190/09 RMK AO2 CIG 007V012 T02280206
13976KLFT LFT20190207091012302/07/19 09:10:31  5-MIN KLFT 071510Z 19010G17KT 10SM BKN008 23/21 A3005 -70 87 900 190/10G17 RMK AO2 CIG 007V012 T02280206
13976KLFT LFT20190207091511702/07/19 09:15:31  5-MIN KLFT 071515Z 18011KT 10SM BKN010 23/21 A3005 -70 87 900 180/11 RMK AO2 CIG 007V013 T02280206
13976KLFT LFT20190207092010502/07/19 09:20:31  5-MIN KLFT 071520Z 19011KT 10SM BKN009 23/21 A3005 -70 87 900 190/11 RMK AO2 T02280206
13976KLFT LFT20190207092512702/07/19 09:25:31  5-MIN KLFT 071525Z 18010G18KT 150V210 10SM BKN009 23/21 A3005 -70 87 800 180/10G18 150V210 RMK AO2 T02280206
13976KLFT LFT20190207093011102/07/19 09:30:31  5-MIN KLFT 071530Z 18010G18KT 10SM BKN009 23/21 A3005 -70 87 800 180/10G18 RMK AO2 T02280206
13976KLFT LFT20190207093510502/07/19 09:35:31  5-MIN KLFT 071535Z 18010KT 10SM BKN009 23/21 A3005 -70 87 800 180/10 RMK AO2 T02280206
13976KLFT LFT20190207094011102/07/19 09:40:31  5-MIN KLFT 071540Z 19014G20KT 10SM BKN009 23/21 A3005 -70 87 900 190/14G20 RMK AO2 T02280206
13976KLFT LFT20190207094511002/07/19 09:45:31  5-MIN KLFT 071545Z 18012G20KT 9SM BKN009 23/21 A3005 -70 87 900 180/12G20 RMK AO2 T02280206
13976KLFT LFT20190207095010002/07/19 09:50:31  5-MIN KLFT 071550Z 18013G21KT 8SM BKN013 23/21 A3004 -70 84 900 180/13G21 RMK AO2
13976KLFT LFT20190207095511302/07/19 09:55:31  5-MIN KLFT 071555Z 17013G21KT 5SM BR BKN013 23/21 A3004 -60 87 900 170/13G21 RMK AO2 T02330211
13976KLFT LFT20190207100011402/07/19 10:00:31  5-MIN KLFT 071600Z 19014G21KT 5SM HZ BKN013 24/21 A3004 -60 81 1000 190/14G21 RMK AO2 T02390206
13976KLFT LFT20190207100511102/07/19 10:05:31  5-MIN KLFT 071605Z 18012G21KT 9SM BKN013 24/21 A3004 -60 81 1000 180/12G21 RMK AO2 T02390206
13976KLFT LFT20190207101011202/07/19 10:10:31  5-MIN KLFT 071610Z 18014G21KT 10SM SCT013 24/21 A3004 -60 81 1000 180/14G21 RMK AO2 T02390206
13976KLFT LFT20190207101511902/07/19 10:15:31  5-MIN KLFT 071615Z 18014G23KT 10SM BKN016 BKN020 24/21 A3004 -60 81 1000 180/14G23 RMK AO2 T02390206
13976KLFT LFT20190207102011902/07/19 10:20:31  5-MIN KLFT 071620Z 19012G23KT 10SM BKN016 BKN020 24/20 A3004 -60 76 1100 190/12G23 RMK AO2 T02440200
13976KLFT LFT20190207102511902/07/19 10:25:31  5-MIN KLFT 071625Z 18018G25KT 10SM BKN016 BKN020 24/21 A3005 -70 81 1000 180/18G25 RMK AO2 T02390206
13976KLFT LFT20190207103011902/07/19 10:30:31  5-MIN KLFT 071630Z 18013G25KT 10SM BKN016 BKN020 24/21 A3005 -70 81 1000 180/13G25 RMK AO2 T02390206
13976KLFT LFT20190207103511902/07/19 10:35:31  5-MIN KLFT 071635Z 18013G25KT 10SM BKN016 BKN020 24/21 A3004 -60 78 1100 170/13G25 RMK AO2 T02440206
13976KLFT LFT20190207104011902/07/19 10:40:31  5-MIN KLFT 071640Z 19018G24KT 10SM BKN016 BKN020 24/21 A3004 -60 78 1100 190/18G24 RMK AO2 T02440206
13976KLFT LFT20190207104511802/07/19 10:45:31  5-MIN KLFT 071645Z 18015G24KT 9SM BKN016 BKN020 24/21 A3004 -60 78 1100 180/15G24 RMK AO2 T02440206
13976KLFT LFT20190207105012502/07/19 10:50:31  5-MIN KLFT 071650Z 18016G25KT 9SM BKN016 BKN020 25/21 A3004 -60 76 1100 180/16G25 RMK AO2 SLP171 T02500206
13976KLFT LFT20190207105511202/07/19 10:55:31  5-MIN KLFT 071655Z 18012G25KT 10SM BKN020 24/20 A3004 -60 76 1100 180/12G25 RMK AO2 T02440200
13976KLFT LFT20190207110011202/07/19 11:00:31  5-MIN KLFT 071700Z 18015G22KT 10SM BKN020 25/21 A3004 -60 76 1100 180/15G22 RMK AO2 T02500206
13976KLFT LFT20190207110511202/07/19 11:05:31  5-MIN KLFT 071705Z 19013G22KT 10SM BKN020 25/21 A3004 -60 76 1100 190/13G22 RMK AO2 T02500206
13976KLFT LFT20190207111011202/07/19 11:10:31  5-MIN KLFT 071710Z 19012G19KT 10SM BKN020 25/21 A3004 -60 76 1100 190/12G19 RMK AO2 T02500206
13976KLFT LFT20190207111511202/07/19 11:15:31  5-MIN KLFT 071715Z 18016G22KT 10SM BKN019 25/21 A3004 -60 76 1100 180/16G22 RMK AO2 T02500206
13976KLFT LFT20190207112011202/07/19 11:20:31  5-MIN KLFT 071720Z 19015G23KT 10SM BKN019 26/21 A3004 -60 73 1200 190/15G23 RMK AO2 T02560206
13976KLFT LFT20190207112511202/07/19 11:25:31  5-MIN KLFT 071725Z 19015G23KT 10SM BKN020 26/21 A3004 -70 76 1200 190/15G23 RMK AO2 T02560211
13976KLFT LFT20190207113011902/07/19 11:30:31  5-MIN KLFT 071730Z 18015G21KT 10SM BKN020 BKN024 26/21 A3004 -70 73 1200 180/15G21 RMK AO2 T02560206
13976KLFT LFT20190207113511202/07/19 11:35:31  5-MIN KLFT 071735Z 20017G24KT 10SM BKN020 26/21 A3004 -70 73 1200 200/17G24 RMK AO2 T02560206
13976KLFT LFT20190207114011902/07/19 11:40:31  5-MIN KLFT 071740Z 19015G24KT 10SM BKN020 BKN027 26/21 A3004 -60 73 1200 190/15G24 RMK AO2 T02560206
13976KLFT LFT20190207114511902/07/19 11:45:31  5-MIN KLFT 071745Z 18015G25KT 10SM BKN020 BKN027 25/21 A3004 -60 76 1100 180/15G25 RMK AO2 T02500206
13976KLFT LFT20190207115014402/07/19 11:50:31  5-MIN KLFT 071750Z 20016G25KT 10SM BKN020 BKN027 26/21 A3004 -60 73 1200 200/16G25 RMK AO2 SLP172 T02560206 10256 20206 51021
13976KLFT LFT20190207115511902/07/19 11:55:31  5-MIN KLFT 071755Z 20016G24KT 10SM BKN021 BKN027 26/21 A3004 -60 73 1200 200/16G24 RMK AO2 T02560206
13976KLFT LFT20190207120011902/07/19 12:00:31  5-MIN KLFT 071800Z 20013G21KT 10SM BKN021 BKN027 26/20 A3004 -60 71 1200 190/13G21 RMK AO2 T02560200
13976KLFT LFT20190207120511202/07/19 12:05:31  5-MIN KLFT 071805Z 18013G21KT 10SM BKN023 25/20 A3004 -60 73 1100 180/13G21 RMK AO2 T02500200
13976KLFT LFT20190207121011202/07/19 12:10:31  5-MIN KLFT 071810Z 19013G21KT 10SM BKN023 26/21 A3003 -50 73 1200 190/13G21 RMK AO2 T02560206
13976KLFT LFT20190207121511202/07/19 12:15:31  5-MIN KLFT 071815Z 19015G20KT 10SM BKN023 26/20 A3003 -50 68 1300 190/15G20 RMK AO2 T02610200
13976KLFT LFT20190207122011902/07/19 12:20:31  5-MIN KLFT 071820Z 20015G22KT 10SM BKN023 BKN029 26/21 A3003 -50 73 1200 200/15G22 RMK AO2 T02560206
13976KLFT LFT20190207122511202/07/19 12:25:31  5-MIN KLFT 071825Z 19012G22KT 10SM BKN023 26/21 A3003 -50 73 1200 190/12G22 RMK AO2 T02560206
13976KLFT LFT20190207123011202/07/19 12:30:31  5-MIN KLFT 071830Z 20015G21KT 10SM BKN023 26/21 A3003 -50 71 1300 200/15G21 RMK AO2 T02610206
13976KLFT LFT20190207123511202/07/19 12:35:31  5-MIN KLFT 071835Z 19013G21KT 10SM BKN023 26/21 A3003 -50 71 1300 190/13G21 RMK AO2 T02610206
13976KLFT LFT20190207124011902/07/19 12:40:31  5-MIN KLFT 071840Z 19011G19KT 10SM BKN023 BKN030 26/20 A3003 -50 71 1200 190/11G19 RMK AO2 T02560200
13976KLFT LFT20190207124511902/07/19 12:45:31  5-MIN KLFT 071845Z 18010G18KT 10SM BKN023 BKN030 26/21 A3003 -50 73 1200 180/10G18 RMK AO2 T02560206
13976KLFT LFT20190207125012602/07/19 12:50:31  5-MIN KLFT 071850Z 21012G20KT 10SM BKN023 BKN030 26/21 A3003 -50 73 1200 210/12G20 RMK AO2 SLP167 T02560206
13976KLFT LFT20190207125511902/07/19 12:55:31  5-MIN KLFT 071855Z 19011G20KT 10SM BKN023 BKN030 26/21 A3003 -50 73 1200 190/11G20 RMK AO2 T02560206
13976KLFT LFT20190207130011902/07/19 13:00:31  5-MIN KLFT 071900Z 20013G19KT 10SM BKN023 OVC030 26/21 A3003 -50 73 1200 200/13G19 RMK AO2 T02560206
13976KLFT LFT20190207130511302/07/19 13:05:31  5-MIN KLFT 071905Z 19013KT 10SM BKN023 OVC030 25/21 A3002 -50 76 1100 190/13 RMK AO2 T02500206
13976KLFT LFT20190211231011302/11/19 23:10:31  5-MIN KLFT 120510Z AUTO 20009KT 5SM BR OVC003 20/19 A2990 70 97 700 200/09 RMK AO2 T02000194 $
13976KLFT LFT20190211231511302/11/19 23:15:31  5-MIN KLFT 120515Z AUTO 19008KT 5SM BR OVC003 20/19 A2989 70 97 700 190/08 RMK AO2 T02000194 $
13976KLFT LFT20190211232011302/11/19 23:20:31  5-MIN KLFT 120520Z AUTO 19007KT 5SM BR OVC003 20/19 A2989 70 97 700 190/07 RMK AO2 T02000194 $
13976KLFT LFT20190211232511302/11/19 23:25:31  5-MIN KLFT 120525Z AUTO 19007KT 5SM BR OVC003 20/19 A2989 70 97 700 190/07 RMK AO2 T02000194 $
13976KLFT LFT20190211233011302/11/19 23:30:31  5-MIN KLFT 120530Z AUTO 18006KT 6SM BR OVC003 20/19 A2989 80 97 700 180/06 RMK AO2 T02000194 $
13976KLFT LFT20190211233511402/11/19 23:35:31  5-MIN KLFT 120535Z AUTO 19010KT 5SM BR OVC003 20/20 A2989 70 100 700 190/10 RMK AO2 T02000200 $
13976KLFT LFT20190211234011302/11/19 23:40:31  5-MIN KLFT 120540Z AUTO 19007KT 4SM BR OVC003 20/19 A2989 70 97 700 190/07 RMK AO2 T02000194 $
13976KLFT LFT20190211234511302/11/19 23:45:31  5-MIN KLFT 120545Z AUTO 19008KT 4SM BR OVC003 20/19 A2989 70 97 700 190/08 RMK AO2 T02000194 $
13976KLFT LFT20190211235014902/11/19 23:50:31  5-MIN KLFT 120550Z AUTO 19008KT 3SM BR OVC002 20/20 A2989 70 100 700 190/08 RMK AO2 SLP121 T02000200 10211 20200 402390172 53004 $
13976KLFT LFT20190211235511302/11/19 23:55:31  5-MIN KLFT 120555Z AUTO 19008KT 3SM BR OVC002 20/19 A2989 70 97 700 190/08 RMK AO2 T02000194 $
13976KLFT LFT20190212000011302/12/19 00:00:31  5-MIN KLFT 120600Z AUTO 19006KT 3SM BR OVC002 20/19 A2989 70 97 700 190/06 RMK AO2 T02000194 $
13976KLFT LFT20190212000511402/12/19 00:05:31  5-MIN KLFT 120605Z AUTO 19008KT 3SM BR OVC002 20/20 A2989 70 100 700 190/08 RMK AO2 T02000200 $
13976KLFT LFT20190212001011402/12/19 00:10:31  5-MIN KLFT 120610Z AUTO 19008KT 4SM BR OVC002 20/20 A2989 70 100 700 190/08 RMK AO2 T02000200 $
13976KLFT LFT20190212001511402/12/19 00:15:31  5-MIN KLFT 120615Z AUTO 18007KT 4SM BR OVC002 20/20 A2988 80 100 700 180/07 RMK AO2 T02000200 $
13976KLFT LFT20190212002011402/12/19 00:20:31  5-MIN KLFT 120620Z AUTO 18009KT 5SM BR OVC002 20/20 A2988 80 100 700 180/09 RMK AO2 T02000200 $
13976KLFT LFT20190212002511402/12/19 00:25:31  5-MIN KLFT 120625Z AUTO 18008KT 5SM BR OVC002 20/20 A2988 80 100 700 180/08 RMK AO2 T02000200 $
13976KLFT LFT20190212003011402/12/19 00:30:31  5-MIN KLFT 120630Z AUTO 18006KT 6SM BR OVC002 20/20 A2988 80 100 700 180/06 RMK AO2 T02000200 $
13976KLFT LFT20190212003511102/12/19 00:35:31  5-MIN KLFT 120635Z AUTO 19008KT 7SM OVC003 20/20 A2988 80 100 700 190/08 RMK AO2 T02000200 $
13976KLFT LFT20190212004011102/12/19 00:40:31  5-MIN KLFT 120640Z AUTO 18008KT 8SM OVC003 20/20 A2988 90 100 700 180/08 RMK AO2 T02000200 $
13976KLFT LFT20190212004511102/12/19 00:45:31  5-MIN KLFT 120645Z AUTO 18008KT 8SM OVC003 20/20 A2987 90 100 700 180/08 RMK AO2 T02000200 $
13976KLFT LFT20190212005011802/12/19 00:50:31  5-MIN KLFT 120650Z AUTO 19008KT 9SM OVC003 20/20 A2987 90 100 700 190/08 RMK AO2 SLP115 T02000200 $
13976KLFT LFT20190212005511002/12/19 00:55:31  5-MIN KLFT 120655Z AUTO 20008KT 8SM OVC003 21/20 A2987 90 97 800 200/08 RMK AO2 T02060200 $
13976KLFT LFT20190212010013102/12/19 01:00:31  5-MIN KLFT 120700Z AUTO 18008KT 6SM RA BR OVC003 20/20 A2987 90 100 700 180/08 RMK AO2 RAB0656 P0000 T02000200 $
13976KLFT LFT20190212010513202/12/19 01:05:31  5-MIN KLFT 120705Z AUTO 18007KT 6SM -RA BR OVC003 20/20 A2987 90 100 700 180/07 RMK AO2 RAB0656 P0000 T02000200 $
13976KLFT LFT20190212011012802/12/19 01:10:31  5-MIN KLFT 120710Z AUTO 18009KT 9SM OVC003 20/20 A2987 90 100 700 180/09 RMK AO2 RAB0656E08 P0000 T02000200 $
13976KLFT LFT20190212011512802/12/19 01:15:31  5-MIN KLFT 120715Z AUTO 18010KT 10SM OVC003 21/20 A2987 90 97 800 180/10 RMK AO2 RAB0656E08 P0000 T02060200 $
13976KLFT LFT20190212012012802/12/19 01:20:31  5-MIN KLFT 120720Z AUTO 19010KT 10SM OVC003 21/20 A2987 90 97 800 190/10 RMK AO2 RAB0656E08 P0000 T02060200 $
13976KLFT LFT20190212012512702/12/19 01:25:31  5-MIN KLFT 120725Z AUTO 19009KT 9SM OVC003 21/20 A2987 90 97 800 190/09 RMK AO2 RAB0656E08 P0000 T02060200 $
13976KLFT LFT20190212013012702/12/19 01:30:31  5-MIN KLFT 120730Z AUTO 18010KT 9SM OVC003 21/20 A2987 90 97 800 180/10 RMK AO2 RAB0656E08 P0000 T02060200 $
13976KLFT LFT20190212013512702/12/19 01:35:31  5-MIN KLFT 120735Z AUTO 19010KT 9SM OVC003 21/20 A2987 90 97 800 190/10 RMK AO2 RAB0656E08 P0000 T02060200 $
13976KLFT LFT20190212014012702/12/19 01:40:31  5-MIN KLFT 120740Z AUTO 19009KT 9SM OVC003 21/20 A2987 90 97 800 190/09 RMK AO2 RAB0656E08 P0000 T02060200 $
13976KLFT LFT20190212014512702/12/19 01:45:31  5-MIN KLFT 120745Z AUTO 19009KT 9SM OVC004 21/20 A2987 90 97 800 190/09 RMK AO2 RAB0656E08 P0000 T02060200 $
13976KLFT LFT20190212015013402/12/19 01:50:31  5-MIN KLFT 120750Z AUTO 19008KT 9SM OVC004 21/20 A2987 90 97 800 190/08 RMK AO2 RAB0656E08 SLP115 P0000 T02060200 $
13976KLFT LFT20190212015511002/12/19 01:55:31  5-MIN KLFT 120755Z AUTO 19009KT 9SM OVC004 21/20 A2987 90 97 800 180/09 RMK AO2 T02060200 $
13976KLFT LFT20190212020011002/12/19 02:00:31  5-MIN KLFT 120800Z AUTO 19010KT 8SM OVC004 21/20 A2987 90 97 800 190/10 RMK AO2 T02060200 $
13976KLFT LFT20190212020511002/12/19 02:05:31  5-MIN KLFT 120805Z AUTO 19009KT 8SM OVC004 21/20 A2987 90 97 800 190/09 RMK AO2 T02060200 $
13976KLFT LFT20190212021011102/12/19 02:10:31  5-MIN KLFT 120810Z AUTO 20007KT 8SM OVC004 21/20 A2986 100 97 800 200/07 RMK AO2 T02060200 $
13976KLFT LFT20190212021511102/12/19 02:15:31  5-MIN KLFT 120815Z AUTO 19009KT 8SM OVC004 21/20 A2986 100 97 800 190/09 RMK AO2 T02060200 $
13976KLFT LFT20190212022012402/12/19 02:20:31  5-MIN KLFT 120820Z AUTO 20008KT 9SM OVC004 21/21 A2986 100 100 800 200/08 RMK AO2 CIG 003V008 T02060206 $
13976KLFT LFT20190212022512302/12/19 02:25:31  5-MIN KLFT 120825Z AUTO 21010KT 9SM OVC004 21/21 A2986 100 97 900 210/10 RMK AO2 CIG 003V008 T02110206 $
13976KLFT LFT20190212023012402/12/19 02:30:31  5-MIN KLFT 120830Z AUTO 21011KT 10SM OVC006 21/21 A2986 100 97 900 210/11 RMK AO2 CIG 003V008 T02110206 $
13976KLFT LFT20190212023512402/12/19 02:35:31  5-MIN KLFT 120835Z AUTO 21010KT 10SM OVC006 21/21 A2986 100 97 900 200/10 RMK AO2 CIG 004V008 T02110206 $
13976KLFT LFT20190212024012302/12/19 02:40:31  5-MIN KLFT 120840Z AUTO 21012KT 10SM OVC006 21/21 A2987 90 97 900 210/12 RMK AO2 CIG 004V011 T02110206 $
13976KLFT LFT20190212024512302/12/19 02:45:31  5-MIN KLFT 120845Z AUTO 21012KT 10SM OVC006 22/21 A2987 90 93 900 210/12 RMK AO2 CIG 005V011 T02170206 $
13976KLFT LFT20190212025013102/12/19 02:50:31  5-MIN KLFT 120850Z AUTO 21010KT 10SM OVC007 22/21 A2986 100 93 900 210/10 RMK AO2 SLP112 60000 T02170206 58005 $
13976KLFT LFT20190212025511202/12/19 02:55:31  5-MIN KLFT 120855Z AUTO 21011KT 10SM OVC007 22/21 A2986 100 97 900 210/11 RMK AO2 T02170211 $
13976KLFT LFT20190212030012402/12/19 03:00:31  5-MIN KLFT 120900Z AUTO 20009KT 10SM OVC007 22/21 A2985 110 97 900 200/09 RMK AO2 CIG 006V011 T02170211 $
13976KLFT LFT20190212030511802/12/19 03:05:31  5-MIN KLFT 120905Z AUTO 21012G17KT 10SM OVC007 22/21 A2985 100 97 900 210/12G17 RMK AO2 T02170211 $
13976KLFT LFT20190212031011902/12/19 03:10:31  5-MIN KLFT 120910Z AUTO 21012G18KT 10SM OVC007 22/21 A2985 110 97 1000 210/12G18 RMK AO2 T02170211 $
13976KLFT LFT20190212031512602/12/19 03:15:31  5-MIN KLFT 120915Z AUTO 21013G18KT 10SM BKN007 OVC012 22/21 A2985 110 97 1000 210/13G18 RMK AO2 T02170211 $
13976KLFT LFT20190212032013502/12/19 03:20:31  5-MIN KLFT 120920Z AUTO 21013KT 9SM -RA BKN008 OVC012 22/21 A2985 110 93 1000 210/13 RMK AO2 RAB18 P0000 T02170206 $
13976KLFT LFT20190212032514902/12/19 03:25:31  5-MIN KLFT 120925Z AUTO 23013KT 3SM +RA BR BKN008 OVC013 22/21 A2986 100 97 900 230/13 RMK AO2 LTG DSNT SE RAB18 P0011 T02170211 $
13976KLFT LFT20190212033015902/12/19 03:30:31  5-MIN KLFT 120930Z AUTO 24018G23KT 1 1/4SM +RA BR BKN008 OVC013 21/21 A2984 120 97 900 240/18G23 RMK AO2 LTG DSNT SE RAB18 P0025 T02110206 $
13976KLFT LFT20190212033517602/12/19 03:35:31  5-MIN KLFT 120935Z AUTO 22015G23KT 1 1/2SM +RA BR SCT008 BKN012 OVC042 21/21 A2984 120 97 900 220/15G23 RMK AO2 VIS 3/4V5 LTG DSNT SE RAB18 P0027 T02110206 $
13976KLFT LFT20190212034015102/12/19 03:40:31  5-MIN KLFT 120940Z AUTO 25013G22KT 6SM -RA BR FEW008 BKN012 OVC046 22/21 A2985 110 93 1000 250/13G22 RMK AO2 RAB18 P0027 T02170206 $
13976KLFT LFT20190212034514802/12/19 03:45:31  5-MIN KLFT 120945Z AUTO 28009G20KT 10SM FEW008 BKN014 OVC046 22/21 A2985 110 93 1000 280/09G20 RMK AO2 RAB18E44 P0027 T02170206 $
13976KLFT LFT20190212035014102/12/19 03:50:31  5-MIN KLFT 120950Z AUTO 26006KT 10SM BKN012 OVC044 21/19 A2985 110 90 900 260/06 RMK AO2 RAB18E44 SLP106 P0027 T02110194 $
13976KLFT LFT20190212035512702/12/19 03:55:31  5-MIN KLFT 120955Z AUTO 24010KT 10SM BKN012 BKN023 OVC044 22/20 A2985 110 90 1000 240/10 RMK AO2 T02170200 $
13976KLFT LFT20190212040015102/12/19 04:00:31  5-MIN KLFT 121000Z AUTO 29017G25KT 3SM -RA BR BKN012 BKN016 OVC025 21/20 A2987 90 93 900 290/17G25 RMK AO2 RAB0959 P0012 T02110200 $
13976KLFT LFT20190212040515602/12/19 04:05:31  5-MIN KLFT 121005Z AUTO 27013G25KT 1 3/4SM +RA BR FEW009 BKN012 OVC033 19/18 A2986 100 90 700 270/13G25 RMK AO2 RAB0959 P0018 T01940178 $
13976KLFT LFT20190212041016202/12/19 04:10:31  5-MIN KLFT 121010Z AUTO 27009G25KT 2SM +RA BR SCT011 BKN027 OVC060 19/18 A2986 100 90 700 270/09G25 RMK AO2 VIS 3/4V5 RAB0959 P0020 T01940178 $
13976KLFT LFT20190212041514602/12/19 04:15:31  5-MIN KLFT 121015Z AUTO 27006KT 6SM -RA BR SCT011 BKN029 OVC060 19/18 A2986 100 93 700 270/06 RMK AO2 RAB0959 P0020 T01940183 $
13976KLFT LFT20190212042014402/12/19 04:20:31  5-MIN KLFT 121020Z AUTO 27006KT 10SM -RA FEW011 BKN036 OVC065 19/18 A2986 100 93 700 270/06 RMK AO2 RAB0959 P0020 T01940183 $
13976KLFT LFT20190212042514302/12/19 04:25:31  5-MIN KLFT 121025Z AUTO 26006KT 10SM FEW011 SCT029 OVC070 19/18 A2986 100 93 700 260/06 RMK AO2 RAB0959E22 P0020 T01940183 $
13976KLFT LFT20190212043014902/12/19 04:30:31  5-MIN KLFT 121030Z AUTO 25006KT 9SM -RA FEW032 BKN070 OVC080 19/18 A2986 100 93 700 250/06 RMK AO2 RAB0959E22B28 P0020 T01940183 $
13976KLFT LFT20190212043514902/12/19 04:35:31  5-MIN KLFT 121035Z AUTO 23006KT 8SM -RA FEW039 BKN070 OVC085 19/18 A2986 100 93 700 230/06 RMK AO2 RAB0959E22B28 P0020 T01940183 $
13976KLFT LFT20190212044015002/12/19 04:40:31  5-MIN KLFT 121040Z AUTO 23006KT 10SM -RA SCT070 BKN085 OVC110 19/18 A2986 100 93 700 230/06 RMK AO2 RAB0959E22B28 P0020 T01940183 $
13976KLFT LFT20190212044514902/12/19 04:45:31  5-MIN KLFT 121045Z AUTO 24006KT 10SM SCT070 BKN090 OVC110 19/18 A2986 100 93 700 240/06 RMK AO2 RAB0959E22B28E43 P0020 T01940183 $
13976KLFT LFT20190212045015602/12/19 04:50:31  5-MIN KLFT 121050Z AUTO 26005KT 10SM FEW034 SCT070 BKN085 19/19 A2986 100 97 700 260/05 RMK AO2 RAB0959E22B28E43 SLP112 P0020 T01940189 $
13976KLFT LFT20190212045512502/12/19 04:55:31  5-MIN KLFT 121055Z AUTO 26005KT 10SM FEW034 BKN070 OVC110 19/19 A2987 90 97 700 260/05 RMK AO2 T01940189 $
13976KLFT LFT20190212050012502/12/19 05:00:31  5-MIN KLFT 121100Z AUTO 25006KT 10SM FEW033 BKN070 OVC110 19/18 A2987 90 93 700 250/06 RMK AO2 T01940183 $
13976KLFT LFT20190212050512602/12/19 05:05:31  5-MIN KLFT 121105Z AUTO 25006KT 10SM FEW020 BKN075 OVC110 19/18 A2986 100 93 700 250/06 RMK AO2 T01940183 $
13976KLFT LFT20190212051012502/12/19 05:10:31  5-MIN KLFT 121110Z AUTO 25007KT 10SM FEW020 SCT037 OVC070 19/18 A2987 90 93 700 250/07 RMK AO2 T01940183 $
13976KLFT LFT20190212051512602/12/19 05:15:31  5-MIN KLFT 121115Z AUTO 26008KT 10SM SCT020 BKN034 OVC075 20/18 A2987 100 90 700 260/08 RMK AO2 T02000183 $
13976KLFT LFT20190212052012002/12/19 05:20:31  5-MIN KLFT 121120Z 25008KT 10SM FEW017 BKN040 OVC075 20/18 A2987 90 90 700 250/08 RMK AO2 T02000183 $
13976KLFT LFT20190212052511302/12/19 05:25:31  5-MIN KLFT 121125Z 24010KT 10SM SCT018 OVC075 20/18 A2988 90 90 700 240/10 RMK AO2 T02000183 $
13976KLFT LFT20190212053012002/12/19 05:30:31  5-MIN KLFT 121130Z 24010KT 10SM FEW018 SCT022 OVC075 20/18 A2988 80 90 700 240/10 RMK AO2 T02000183 $
13976KLFT LFT20190212053512002/12/19 05:35:31  5-MIN KLFT 121135Z 25009KT 10SM FEW014 SCT020 OVC075 20/18 A2988 80 90 700 250/09 RMK AO2 T02000183 $
13976KLFT LFT20190212054012002/12/19 05:40:31  5-MIN KLFT 121140Z 25010KT 10SM FEW014 SCT020 OVC080 19/18 A2988 90 93 700 240/10 RMK AO2 T01940183 $
13976KLFT LFT20190212054512002/12/19 05:45:31  5-MIN KLFT 121145Z 25009KT 10SM FEW012 SCT018 OVC080 19/18 A2988 80 93 700 250/09 RMK AO2 T01940183 $
13976KLFT LFT20190212055015702/12/19 05:50:31  5-MIN KLFT 121150Z 26009KT 10SM SCT012 SCT019 OVC080 19/18 A2988 80 93 700 260/09 RMK AO2 SLP116 60047 70047 T01940183 10217 20194 56010 $
13976KLFT LFT20190212055511302/12/19 05:55:31  5-MIN KLFT 121155Z 27011KT 10SM SCT012 OVC080 19/18 A2988 80 93 700 270/11 RMK AO2 T01940183 $
13976KLFT LFT20190212060012002/12/19 06:00:31  5-MIN KLFT 121200Z 27012KT 10SM SCT012 SCT060 OVC080 19/18 A2988 80 93 700 270/12 RMK AO2 T01940183 $
13976KLFT LFT20190212060512002/12/19 06:05:31  5-MIN KLFT 121205Z 27010KT 10SM FEW012 SCT060 OVC085 19/18 A2989 80 93 700 270/10 RMK AO2 T01940183 $
13976KLFT LFT20190212061012002/12/19 06:10:31  5-MIN KLFT 121210Z 28008KT 10SM FEW014 FEW060 OVC090 19/19 A2989 80 97 700 280/08 RMK AO2 T01940189 $
13976KLFT LFT20190212061512002/12/19 06:15:31  5-MIN KLFT 121215Z 28011KT 10SM FEW012 SCT060 OVC090 19/19 A2989 80 97 700 280/11 RMK AO2 T01940189 $
13976KLFT LFT20190212062012002/12/19 06:20:31  5-MIN KLFT 121220Z 28012KT 10SM FEW013 SCT060 OVC090 19/19 A2989 80 97 700 280/12 RMK AO2 T01940189 $
13976KLFT LFT20190212062511302/12/19 06:25:31  5-MIN KLFT 121225Z 28010KT 10SM FEW018 OVC095 20/19 A2988 80 93 700 280/10 RMK AO2 T02000189 $
13976KLFT LFT20190212063012002/12/19 06:30:31  5-MIN KLFT 121230Z 28010KT 10SM FEW016 FEW023 OVC095 20/19 A2989 70 93 700 280/10 RMK AO2 T02000189 $
13976KLFT LFT20190212063511902/12/19 06:35:31  5-MIN KLFT 121235Z 28010G17KT 10SM FEW018 OVC095 20/18 A2990 70 90 700 280/10G17 RMK AO2 T02000183 $
13976KLFT LFT20190212064011902/12/19 06:40:31  5-MIN KLFT 121240Z 29011G17KT 10SM FEW018 OVC095 20/18 A2990 60 90 700 290/11G17 RMK AO2 T02000183 $
13976KLFT LFT20190212064512602/12/19 06:45:31  5-MIN KLFT 121245Z 28012G17KT 10SM FEW016 OVC090 20/18 A2991 50 90 700 280/12G17 RMK AO2 PRESRR T02000183 $
13976KLFT LFT20190212065012002/12/19 06:50:31  5-MIN KLFT 121250Z 29010KT 10SM FEW016 OVC090 20/18 A2992 50 90 700 290/10 RMK AO2 SLP129 T02000183 $
13976KLFT LFT20190212065511302/12/19 06:55:31  5-MIN KLFT 121255Z 29011KT 10SM FEW016 OVC090 20/18 A2992 50 90 700 290/11 RMK AO2 T02000183 $
13976KLFT LFT20190212070011302/12/19 07:00:31  5-MIN KLFT 121300Z 29011KT 10SM FEW019 OVC090 20/18 A2992 40 87 700 290/11 RMK AO2 T02000178 $
13976KLFT LFT20190212070511902/12/19 07:05:31  5-MIN KLFT 121305Z 29011G19KT 10SM FEW021 OVC090 20/18 A2992 40 87 700 290/11G19 RMK AO2 T02000178 $
13976KLFT LFT20190212071011302/12/19 07:10:31  5-MIN KLFT 121310Z 29011KT 10SM FEW021 OVC090 19/18 A2993 40 90 600 290/11 RMK AO2 T01940178 $
13976KLFT LFT20190212071512602/12/19 07:15:31  5-MIN KLFT 121315Z 28013G19KT 10SM FEW021 OVC090 19/17 A2994 30 84 600 280/13G19 RMK AO2 PRESRR T01940167 $
13976KLFT LFT20190212072012002/12/19 07:20:31  5-MIN KLFT 121320Z 29013KT 10SM FEW021 OVC090 19/16 A2995 20 81 600 280/13 RMK AO2 PRESRR T01940161 $
13976KLFT LFT20190212072512002/12/19 07:25:31  5-MIN KLFT 121325Z 29013KT 10SM FEW021 OVC090 19/16 A2995 10 78 600 290/13 RMK AO2 PRESRR T01940156 $
13976KLFT LFT20190212073011902/12/19 07:30:31  5-MIN KLFT 121330Z 29013G19KT 10SM OVC090 19/16 A2996 10 78 600 290/13G19 RMK AO2 PRESRR T01940156 $
13976KLFT LFT20190212073511802/12/19 07:35:31  5-MIN KLFT 121335Z 29010G17KT 10SM OVC090 19/16 A2997 0 78 600 290/10G17 RMK AO2 PRESRR T01940156 $
13976KLFT LFT20190212074011402/12/19 07:40:31  5-MIN KLFT 121340Z 29009KT 10SM OVC090 19/16 A2998 -10 78 500 290/09 RMK AO2 PRESRR T01940156 $
13976KLFT LFT20190212074511302/12/19 07:45:31  5-MIN KLFT 121345Z 30012G17KT 10SM OVC090 19/16 A2999 -10 81 500 300/12G17 RMK AO2 T01890156 $
13976KLFT LFT20190212075012702/12/19 07:50:31  5-MIN KLFT 121350Z 31018G22KT 10SM FEW015 OVC090 19/15 A2999 -10 78 500 310/18G22 RMK AO2 SLP154 T01890150 $
13976KLFT LFT20190212075511102/12/19 07:55:31  5-MIN KLFT 121355Z 30015G22KT 10SM OVC090 19/14 A2999 -10 75 500 300/15G22 RMK AO2 T01890144
13976KLFT LFT20190212080012902/12/19 08:00:31  5-MIN KLFT 121400Z 31016G23KT 10SM -RA OVC090 18/14 A2999 -10 75 400 310/16G23 RMK AO2 RAB1357 P0000 T01830139
13976KLFT LFT20190212080512902/12/19 08:05:31  5-MIN KLFT 121405Z 30018G25KT 10SM -RA OVC090 18/13 A3000 -20 72 300 300/18G25 RMK AO2 RAB1357 P0000 T01780128
13976KLFT LFT20190212081012902/12/19 08:10:31  5-MIN KLFT 121410Z 30017G25KT 10SM -RA OVC090 18/13 A3001 -30 72 300 300/17G25 RMK AO2 RAB1357 P0000 T01780128
13976KLFT LFT20190212081512902/12/19 08:15:31  5-MIN KLFT 121415Z 30014G23KT 10SM -RA OVC095 17/13 A3000 -30 75 300 300/14G23 RMK AO2 RAB1357 P0000 T01720128
13976KLFT LFT20190212082012902/12/19 08:20:31  5-MIN KLFT 121420Z 31012G22KT 10SM -RA OVC095 17/13 A3000 -30 75 300 310/12G22 RMK AO2 RAB1357 P0000 T01720128
13976KLFT LFT20190212082512302/12/19 08:25:31  5-MIN KLFT 121425Z 32016KT 10SM -RA OVC095 17/12 A3001 -30 72 300 320/16 RMK AO2 RAB1357 P0000 T01720122
13976KLFT LFT20190212083012302/12/19 08:30:31  5-MIN KLFT 121430Z 32012KT 10SM -RA OVC095 17/12 A3001 -30 72 200 320/12 RMK AO2 RAB1357 P0000 T01670117
13976KLFT LFT20190212083512902/12/19 08:35:31  5-MIN KLFT 121435Z 31013G21KT 10SM -RA OVC090 17/11 A3002 -40 67 200 310/13G21 RMK AO2 RAB1357 P0000 T01670106
13976KLFT LFT20190212084013402/12/19 08:40:31  5-MIN KLFT 121440Z 30012G21KT 10SM -RA OVC090 16/11 A3003 -60 72 0 300/12G21 RMK AO2 RAB1357 PRESRR P0000 T01560106
13976KLFT LFT20190212084512702/12/19 08:45:31  5-MIN KLFT 121445Z 30010KT 9SM -RA OVC090 16/11 A3004 -60 72 0 300/10 RMK AO2 RAB1357 PRESRR P0001 T01560106
13976KLFT LFT20190212085013902/12/19 08:50:31  5-MIN KLFT 121450Z 30009KT 9SM -RA OVC090 15/11 A3004 -60 77 0 300/09 RMK AO2 RAB1357 SLP173 P0001 60001 T01500111 53007
13976KLFT LFT20190212085512002/12/19 08:55:31  5-MIN KLFT 121455Z 30010KT 10SM -RA OVC090 15/11 A3005 -70 74 0 300/10 RMK AO2 PRESRR P0000 T01500106
13976KLFT LFT20190212090011302/12/19 09:00:31  5-MIN KLFT 121500Z 30008KT 10SM -RA OVC090 15/11 A3005 -70 74 0 300/08 RMK AO2 P0000 T01500106
13976KLFT LFT20190212090511302/12/19 09:05:31  5-MIN KLFT 121505Z 31008KT 10SM -RA OVC095 15/11 A3005 -70 77 0 300/08 RMK AO2 P0000 T01500111
13976KLFT LFT20190212091011602/12/19 09:10:31  5-MIN KLFT 121510Z 29007KT 10SM -RA OVC095 14/11 A3006 -80 80 -100 290/07 RMK AO2 P0001 T01440111
13976KLFT LFT20190212091511602/12/19 09:15:31  5-MIN KLFT 121515Z 30005KT 10SM -RA OVC095 14/11 A3006 -80 80 -100 300/05 RMK AO2 P0001 T01440111
13976KLFT LFT20190212092011402/12/19 09:20:31  5-MIN KLFT 121520Z 30004KT 8SM RA OVC095 14/11 A3005 -70 80 -100 300/04 RMK AO2 P0001 T01440111
13976KLFT LFT20190212092511402/12/19 09:25:31  5-MIN KLFT 121525Z 31005KT 6SM RA OVC100 14/11 A3005 -70 80 -100 310/05 RMK AO2 P0002 T01440111
13976KLFT LFT20190212093011502/12/19 09:30:31  5-MIN KLFT 121530Z 31006KT 8SM -RA OVC100 14/12 A3005 -70 83 -100 310/06 RMK AO2 P0002 T01440117
13976KLFT LFT20190212093511402/12/19 09:35:31  5-MIN KLFT 121535Z 32007KT 8SM RA OVC100 14/12 A3005 -70 83 -100 320/07 RMK AO2 P0003 T01440117
13976KLFT LFT20190212094011502/12/19 09:40:31  5-MIN KLFT 121540Z 31008KT 9SM -RA OVC100 14/12 A3005 -70 83 -100 310/08 RMK AO2 P0003 T01440117
13976KLFT LFT20190212094511502/12/19 09:45:31  5-MIN KLFT 121545Z 31005KT 9SM -RA OVC100 14/12 A3005 -70 83 -100 300/05 RMK AO2 P0003 T01440117
13976KLFT LFT20190212095012202/12/19 09:50:31  5-MIN KLFT 121550Z 31006KT 8SM -RA OVC100 14/12 A3005 -70 86 -100 310/06 RMK AO2 SLP174 P0004 T01390117
13976KLFT LFT20190212095511502/12/19 09:55:31  5-MIN KLFT 121555Z 30004KT 8SM -RA OVC100 14/12 A3005 -70 86 -100 300/04 RMK AO2 P0000 T01390117
13976KLFT LFT20190212100011502/12/19 10:00:31  5-MIN KLFT 121600Z 29005KT 9SM -RA OVC100 14/12 A3007 -80 86 -200 290/05 RMK AO2 P0001 T01390117
13976KLFT LFT20190212100511502/12/19 10:05:31  5-MIN KLFT 121605Z 30006KT 8SM -RA OVC100 14/12 A3006 -80 90 -100 300/06 RMK AO2 P0001 T01390122
13976KLFT LFT20190212101011502/12/19 10:10:31  5-MIN KLFT 121610Z 29005KT 8SM -RA OVC100 14/12 A3007 -90 86 -200 290/05 RMK AO2 P0001 T01390117
13976KLFT LFT20190212101512402/12/19 10:15:31  5-MIN KLFT 121615Z 28007KT 10SM -RA OVC100 14/12 A3009 -110 83 -100 280/07 RMK AO2 PRESRR P0001 T01440117
13976KLFT LFT20190212102011702/12/19 10:20:31  5-MIN KLFT 121620Z 28007KT 10SM -RA OVC100 14/12 A3009 -110 83 -100 280/07 RMK AO2 P0002 T01440117
13976KLFT LFT20190212102511502/12/19 10:25:31  5-MIN KLFT 121625Z 27004KT 9SM -RA OVC100 14/12 A3007 -90 86 -200 270/04 RMK AO2 P0002 T01390117
13976KLFT LFT20190212103011502/12/19 10:30:31  5-MIN KLFT 121630Z 00000KT 9SM -RA OVC100 14/11 A3007 -80 83 -200 000/00 RMK AO2 P0002 T01390111
13976KLFT LFT20190212103512202/12/19 10:35:31  5-MIN KLFT 121635Z 00000KT 8SM -RA OVC100 14/11 A3006 -80 83 -100 000/00 RMK AO2 PRESFR P0003 T01390111
13976KLFT LFT20190212104012102/12/19 10:40:31  5-MIN KLFT 121640Z 12004KT 7SM RA OVC100 14/11 A3005 -70 83 -100 120/04 RMK AO2 PRESFR P0004 T01390111
13976KLFT LFT20190212104511402/12/19 10:45:31  5-MIN KLFT 121645Z 00000KT 7SM RA OVC100 13/12 A3006 -80 89 -200 000/00 RMK AO2 P0005 T01330117
13976KLFT LFT20190212105013202/12/19 10:50:31  5-MIN KLFT 121650Z 27009KT 6SM RA BR OVC100 13/12 A3010 -120 89 -300 260/09 RMK AO2 PRESRR SLP193 P0005 T01330117
13976KLFT LFT20190212105512302/12/19 10:55:31  5-MIN KLFT 121655Z 27007KT 8SM -RA BKN090 OVC110 13/12 A3009 -110 89 -300 270/07 RMK AO2 P0000 T01330117
13976KLFT LFT20190212110013802/12/19 11:00:31  5-MIN KLFT 121700Z 26009KT 10SM -RA FEW038 BKN090 OVC110 13/12 A3011 -130 89 -300 260/09 RMK AO2 PRESRR P0000 T01330117
13976KLFT LFT20190212110513102/12/19 11:05:31  5-MIN KLFT 121705Z 25003KT 10SM -RA FEW038 SCT080 OVC100 13/12 A3010 -120 89 -300 250/03 RMK AO2 P0000 T01330117
13976KLFT LFT20190217221511302/17/19 22:15:31  5-MIN KLFT 180415Z 02014KT 10SM SCT011 OVC033 11/09 A2998 -10 89 -500 020/14 RMK AO2 T01060089
13976KLFT LFT20190217222011902/17/19 22:20:31  5-MIN KLFT 180420Z 02015G21KT 10SM FEW011 OVC033 11/09 A2998 -10 89 -500 020/15G21 RMK AO2 T01060089
13976KLFT LFT20190217222511902/17/19 22:25:31  5-MIN KLFT 180425Z 02013G21KT 10SM FEW011 OVC033 11/09 A2998 -10 89 -500 020/13G21 RMK AO2 T01060089
13976KLFT LFT20190217223011302/17/19 22:30:31  5-MIN KLFT 180430Z 03012KT 10SM FEW011 OVC033 11/09 A2999 -10 89 -500 030/12 RMK AO2 T01060089
13976KLFT LFT20190217223511102/17/19 22:35:31  5-MIN KLFT 180435Z AUTO 02013KT 10SM OVC033 11/09 A2999 -10 89 -500 020/13 RMK AO2 T01060089
13976KLFT LFT20190217224011102/17/19 22:40:31  5-MIN KLFT 180440Z AUTO 02013KT 10SM OVC033 11/09 A2999 -10 89 -500 020/13 RMK AO2 T01060089
13976KLFT LFT20190217224511102/17/19 22:45:31  5-MIN KLFT 180445Z AUTO 02012KT 10SM OVC033 11/09 A2999 -10 89 -500 020/12 RMK AO2 T01060089
13976KLFT LFT20190217225011802/17/19 22:50:31  5-MIN KLFT 180450Z AUTO 03013KT 10SM OVC033 11/09 A2999 -10 89 -500 030/13 RMK AO2 SLP153 T01060089
13976KLFT LFT20190217225511102/17/19 22:55:31  5-MIN KLFT 180455Z AUTO 02011KT 10SM OVC033 11/09 A2999 -10 89 -500 020/11 RMK AO2 T01060089
13976KLFT LFT20190217230011102/17/19 23:00:31  5-MIN KLFT 180500Z AUTO 01010KT 10SM OVC033 11/09 A2999 -10 89 -500 010/10 RMK AO2 T01060089
13976KLFT LFT20190217230511102/17/19 23:05:31  5-MIN KLFT 180505Z AUTO 01012KT 10SM OVC033 11/09 A2999 -20 89 -500 010/12 RMK AO2 T01060089
13976KLFT LFT20190217231011102/17/19 23:10:31  5-MIN KLFT 180510Z AUTO 02013KT 10SM OVC033 11/09 A2999 -20 89 -500 020/13 RMK AO2 T01060089
13976KLFT LFT20190217231511102/17/19 23:15:31  5-MIN KLFT 180515Z AUTO 01011KT 10SM OVC033 11/09 A2999 -20 89 -500 010/11 RMK AO2 T01060089
13976KLFT LFT20190217232011702/17/19 23:20:31  5-MIN KLFT 180520Z AUTO 01014G19KT 10SM OVC034 11/09 A2999 -10 89 -500 010/14G19 RMK AO2 T01060089
13976KLFT LFT20190217232511702/17/19 23:25:31  5-MIN KLFT 180525Z AUTO 02013G19KT 10SM OVC034 11/09 A2998 -10 89 -500 020/13G19 RMK AO2 T01060089
13976KLFT LFT20190217233011102/17/19 23:30:31  5-MIN KLFT 180530Z AUTO 02014KT 10SM OVC034 11/09 A2998 -10 89 -500 020/14 RMK AO2 T01060089
13976KLFT LFT20190217233511102/17/19 23:35:31  5-MIN KLFT 180535Z AUTO 02014KT 10SM OVC034 11/09 A2998 -10 89 -500 020/14 RMK AO2 T01060089
13976KLFT LFT20190217234011102/17/19 23:40:31  5-MIN KLFT 180540Z AUTO 02015KT 10SM OVC034 11/08 A2998 -10 86 -500 020/15 RMK AO2 T01060083
13976KLFT LFT20190217234511702/17/19 23:45:31  5-MIN KLFT 180545Z AUTO 02015G22KT 10SM OVC034 11/08 A2998 -10 86 -500 020/15G22 RMK AO2 T01060083
13976KLFT LFT20190217235015802/17/19 23:50:31  5-MIN KLFT 180550Z AUTO 02012G22KT 10SM OVC034 11/08 A2998 -10 86 -500 020/12G22 RMK AO2 SLP152 60000 T01060083 10128 20106 402560106 51023
13976KLFT LFT20190217235511102/17/19 23:55:31  5-MIN KLFT 180555Z AUTO 03014KT 10SM OVC034 11/08 A2998 -10 86 -500 030/14 RMK AO2 T01060083
13976KLFT LFT20190218000011102/18/19 00:00:31  5-MIN KLFT 180600Z AUTO 03012KT 10SM OVC034 11/08 A2998 -10 86 -500 030/12 RMK AO2 T01060083
13976KLFT LFT20190218000511102/18/19 00:05:31  5-MIN KLFT 180605Z AUTO 02014KT 10SM OVC034 11/08 A2998 -10 86 -500 020/14 RMK AO2 T01060083
13976KLFT LFT20190218001011102/18/19 00:10:31  5-MIN KLFT 180610Z AUTO 02013KT 10SM OVC034 11/08 A2999 -10 83 -500 020/13 RMK AO2 T01060078
13976KLFT LFT20190218001511102/18/19 00:15:31  5-MIN KLFT 180615Z AUTO 02014KT 10SM OVC035 11/08 A2999 -10 83 -500 020/14 RMK AO2 T01060078
13976KLFT LFT20190218002011102/18/19 00:20:31  5-MIN KLFT 180620Z AUTO 01012KT 10SM OVC035 11/08 A2999 -10 83 -500 010/12 RMK AO2 T01060078
13976KLFT LFT20190218002511102/18/19 00:25:31  5-MIN KLFT 180625Z AUTO 01013KT 10SM OVC035 11/08 A2999 -10 83 -500 010/13 RMK AO2 T01060078
13976KLFT LFT20190218003011102/18/19 00:30:31  5-MIN KLFT 180630Z AUTO 02010KT 10SM OVC035 11/08 A2999 -20 83 -500 020/10 RMK AO2 T01060078
13976KLFT LFT20190218003511102/18/19 00:35:31  5-MIN KLFT 180635Z AUTO 02011KT 10SM OVC035 11/08 A2999 -10 83 -500 020/11 RMK AO2 T01060078
13976KLFT LFT20190218004011102/18/19 00:40:31  5-MIN KLFT 180640Z AUTO 03012KT 10SM OVC035 11/08 A2999 -10 86 -500 030/12 RMK AO2 T01060083
13976KLFT LFT20190218004511102/18/19 00:45:31  5-MIN KLFT 180645Z AUTO 02013KT 10SM OVC035 11/08 A2999 -10 83 -500 020/13 RMK AO2 T01060078
13976KLFT LFT20190218005011802/18/19 00:50:31  5-MIN KLFT 180650Z AUTO 03012KT 10SM OVC035 11/08 A2999 -10 83 -500 030/12 RMK AO2 SLP154 T01060078
13976KLFT LFT20190218005511102/18/19 00:55:31  5-MIN KLFT 180655Z AUTO 03012KT 10SM OVC034 11/08 A2999 -20 83 -500 030/12 RMK AO2 T01060078
13976KLFT LFT20190218010011102/18/19 01:00:31  5-MIN KLFT 180700Z AUTO 02009KT 10SM OVC034 11/08 A2999 -20 83 -500 020/09 RMK AO2 T01060078
13976KLFT LFT20190218010511102/18/19 01:05:31  5-MIN KLFT 180705Z AUTO 03012KT 10SM OVC034 11/08 A3000 -20 83 -500 030/12 RMK AO2 T01060078
13976KLFT LFT20190218011011102/18/19 01:10:31  5-MIN KLFT 180710Z AUTO 02012KT 10SM OVC034 11/08 A3000 -20 83 -500 020/12 RMK AO2 T01060078
13976KLFT LFT20190218011511102/18/19 01:15:31  5-MIN KLFT 180715Z AUTO 02012KT 10SM OVC034 11/08 A3000 -20 83 -500 020/12 RMK AO2 T01060078
13976KLFT LFT20190218012011102/18/19 01:20:31  5-MIN KLFT 180720Z AUTO 02016KT 10SM OVC035 11/08 A3000 -30 83 -500 020/16 RMK AO2 T01060078
13976KLFT LFT20190218012511102/18/19 01:25:31  5-MIN KLFT 180725Z AUTO 02013KT 10SM OVC035 11/07 A3000 -30 80 -500 020/13 RMK AO2 T01060072
13976KLFT LFT20190218013011802/18/19 01:30:31  5-MIN KLFT 180730Z AUTO 02014KT 10SM BKN035 OVC049 11/07 A3001 -30 80 -500 020/14 RMK AO2 T01060072
13976KLFT LFT20190218013511802/18/19 01:35:31  5-MIN KLFT 180735Z AUTO 02013KT 10SM BKN036 OVC049 11/07 A3001 -30 77 -500 020/13 RMK AO2 T01060067
13976KLFT LFT20190218014011802/18/19 01:40:31  5-MIN KLFT 180740Z AUTO 02014KT 10SM BKN036 OVC049 11/07 A3001 -30 77 -500 020/14 RMK AO2 T01060067
13976KLFT LFT20190218014511802/18/19 01:45:31  5-MIN KLFT 180745Z AUTO 02013KT 10SM BKN036 OVC049 10/07 A3000 -30 80 -500 020/13 RMK AO2 T01000067
13976KLFT LFT20190218015013102/18/19 01:50:31  5-MIN KLFT 180750Z AUTO 03016G21KT 10SM SCT036 OVC048 10/07 A3000 -30 80 -500 030/16G21 RMK AO2 SLP160 T01000067
13976KLFT LFT20190218015512402/18/19 01:55:31  5-MIN KLFT 180755Z AUTO 02017G25KT 10SM BKN036 OVC048 10/07 A3000 -30 80 -500 020/17G25 RMK AO2 T01000067
13976KLFT LFT20190218020012402/18/19 02:00:31  5-MIN KLFT 180800Z AUTO 03017G25KT 10SM BKN036 OVC048 10/06 A3000 -30 77 -500 030/17G25 RMK AO2 T01000061
13976KLFT LFT20190218020512402/18/19 02:05:31  5-MIN KLFT 180805Z AUTO 03012G25KT 10SM BKN036 OVC048 10/07 A3001 -30 80 -600 030/12G25 RMK AO2 T01000067
13976KLFT LFT20190218021011802/18/19 02:10:31  5-MIN KLFT 180810Z AUTO 02011KT 10SM BKN036 OVC048 10/07 A3001 -30 80 -600 020/11 RMK AO2 T01000067
13976KLFT LFT20190218021511702/18/19 02:15:31  5-MIN KLFT 180815Z AUTO 02013G20KT 10SM OVC036 10/07 A3001 -30 80 -600 020/13G20 RMK AO2 T01000067
13976KLFT LFT20190218022011702/18/19 02:20:31  5-MIN KLFT 180820Z AUTO 02015G20KT 10SM OVC036 10/07 A3001 -40 83 -600 010/15G20 RMK AO2 T01000072
13976KLFT LFT20190218022511702/18/19 02:25:31  5-MIN KLFT 180825Z AUTO 01014G20KT 10SM OVC037 10/07 A3001 -40 80 -600 010/14G20 RMK AO2 T01000067
13976KLFT LFT20190218023011802/18/19 02:30:31  5-MIN KLFT 180830Z AUTO 02015KT 10SM BKN037 OVC048 10/07 A3002 -40 80 -600 020/15 RMK AO2 T01000067
13976KLFT LFT20190218023512402/18/19 02:35:31  5-MIN KLFT 180835Z AUTO 01014G20KT 10SM BKN037 OVC048 10/07 A3002 -40 80 -600 010/14G20 RMK AO2 T01000067
13976KLFT LFT20190218024012402/18/19 02:40:31  5-MIN KLFT 180840Z AUTO 02016G21KT 10SM BKN038 OVC048 10/07 A3002 -40 80 -600 020/16G21 RMK AO2 T01000067
13976KLFT LFT20190218024511802/18/19 02:45:31  5-MIN KLFT 180845Z AUTO 02016KT 10SM SCT038 OVC048 10/06 A3003 -50 77 -600 020/16 RMK AO2 T01000061
13976KLFT LFT20190218025013002/18/19 02:50:31  5-MIN KLFT 180850Z AUTO 02018G24KT 10SM OVC045 09/07 A3003 -50 83 -600 020/18G24 RMK AO2 SLP168 T00940067 50009
13976KLFT LFT20190218025511702/18/19 02:55:31  5-MIN KLFT 180855Z AUTO 01019G24KT 10SM OVC045 09/06 A3003 -50 79 -600 010/19G24 RMK AO2 T00940061
13976KLFT LFT20190218030012402/18/19 03:00:31  5-MIN KLFT 180900Z AUTO 02017G24KT 10SM SCT038 OVC047 09/06 A3003 -60 79 -700 020/17G24 RMK AO2 T00940061
13976KLFT LFT20190218030512402/18/19 03:05:31  5-MIN KLFT 180905Z AUTO 02014G21KT 10SM BKN038 OVC047 09/07 A3003 -60 83 -700 020/14G21 RMK AO2 T00940067
13976KLFT LFT20190218031012402/18/19 03:10:31  5-MIN KLFT 180910Z AUTO 01015G22KT 10SM BKN038 OVC047 09/06 A3004 -60 79 -700 010/15G22 RMK AO2 T00940061
13976KLFT LFT20190218031512402/18/19 03:15:31  5-MIN KLFT 180915Z AUTO 02016G23KT 10SM BKN037 OVC047 09/06 A3004 -60 79 -700 020/16G23 RMK AO2 T00940061
13976KLFT LFT20190218032012402/18/19 03:20:31  5-MIN KLFT 180920Z AUTO 02016G23KT 10SM BKN037 OVC047 09/06 A3004 -60 79 -700 020/16G23 RMK AO2 T00940061
13976KLFT LFT20190218032511702/18/19 03:25:31  5-MIN KLFT 180925Z AUTO 02017G24KT 10SM OVC037 09/06 A3004 -60 79 -700 020/17G24 RMK AO2 T00940061
13976KLFT LFT20190218033011702/18/19 03:30:31  5-MIN KLFT 180930Z AUTO 02017G24KT 10SM OVC037 09/06 A3005 -70 79 -700 020/17G24 RMK AO2 T00940061
13976KLFT LFT20190218033511702/18/19 03:35:31  5-MIN KLFT 180935Z AUTO 01012G23KT 10SM OVC037 09/06 A3005 -70 79 -700 010/12G23 RMK AO2 T00940061
13976KLFT LFT20190218034011702/18/19 03:40:31  5-MIN KLFT 180940Z AUTO 01016G21KT 10SM OVC037 09/06 A3005 -70 79 -700 010/16G21 RMK AO2 T00940061
13976KLFT LFT20190218034511702/18/19 03:45:31  5-MIN KLFT 180945Z AUTO 01016G21KT 10SM OVC037 09/06 A3005 -70 79 -700 010/16G21 RMK AO2 T00940061
13976KLFT LFT20190218035012402/18/19 03:50:31  5-MIN KLFT 180950Z AUTO 01015G21KT 10SM OVC037 09/06 A3005 -70 79 -700 010/15G21 RMK AO2 SLP177 T00940061
13976KLFT LFT20190218035511702/18/19 03:55:31  5-MIN KLFT 180955Z AUTO 02017G22KT 10SM OVC037 09/06 A3006 -80 79 -700 020/17G22 RMK AO2 T00940061
13976KLFT LFT20190218040011702/18/19 04:00:31  5-MIN KLFT 181000Z AUTO 01017G22KT 10SM OVC037 09/06 A3006 -80 79 -700 010/17G22 RMK AO2 T00940061
13976KLFT LFT20190218040513502/18/19 04:05:31  5-MIN KLFT 181005Z AUTO 02017G26KT 10SM OVC037 09/06 A3006 -80 79 -700 020/17G26 RMK AO2 PK WND 03026/1004 T00940061
13976KLFT LFT20190218041013502/18/19 04:10:31  5-MIN KLFT 181010Z AUTO 02016G26KT 10SM OVC037 09/06 A3006 -80 79 -700 010/16G26 RMK AO2 PK WND 03026/1004 T00940061
13976KLFT LFT20190218041513502/18/19 04:15:31  5-MIN KLFT 181015Z AUTO 02014G21KT 10SM OVC037 09/06 A3006 -80 79 -700 020/14G21 RMK AO2 PK WND 03026/1004 T00940061
13976KLFT LFT20190218042013502/18/19 04:20:31  5-MIN KLFT 181020Z AUTO 02017G21KT 10SM OVC037 09/06 A3006 -80 79 -700 020/17G21 RMK AO2 PK WND 03026/1004 T00940061
13976KLFT LFT20190218042513502/18/19 04:25:31  5-MIN KLFT 181025Z AUTO 02013G21KT 10SM OVC038 09/06 A3007 -90 83 -800 020/13G21 RMK AO2 PK WND 03026/1004 T00890061
13976KLFT LFT20190218043012902/18/19 04:30:31  5-MIN KLFT 181030Z AUTO 02015KT 10SM OVC038 09/06 A3007 -90 83 -800 020/15 RMK AO2 PK WND 03026/1004 T00890061
13976KLFT LFT20190218043512902/18/19 04:35:31  5-MIN KLFT 181035Z AUTO 02015KT 10SM OVC038 09/06 A3007 -90 83 -800 020/15 RMK AO2 PK WND 03026/1004 T00890061
13976KLFT LFT20190218044012902/18/19 04:40:31  5-MIN KLFT 181040Z AUTO 02015KT 10SM OVC038 09/06 A3007 -90 83 -800 020/15 RMK AO2 PK WND 03026/1004 T00890061
13976KLFT LFT20190218044513502/18/19 04:45:31  5-MIN KLFT 181045Z AUTO 02015G20KT 10SM OVC038 09/06 A3007 -90 83 -800 020/15G20 RMK AO2 PK WND 03026/1004 T00890061
13976KLFT LFT20190218045013602/18/19 04:50:31  5-MIN KLFT 181050Z AUTO 02015KT 10SM OVC039 09/06 A3007 -90 83 -800 020/15 RMK AO2 PK WND 03026/1004 SLP183 T00890061
13976KLFT LFT20190218045511702/18/19 04:55:31  5-MIN KLFT 181055Z AUTO 03015G20KT 10SM OVC039 09/06 A3007 -90 83 -800 020/15G20 RMK AO2 T00890061
13976KLFT LFT20190218050011702/18/19 05:00:31  5-MIN KLFT 181100Z AUTO 02016G21KT 10SM OVC039 09/06 A3007 -90 83 -800 020/16G21 RMK AO2 T00890061
13976KLFT LFT20190218050511802/18/19 05:05:31  5-MIN KLFT 181105Z AUTO 02015G21KT 10SM OVC039 09/06 A3008 -100 79 -800 020/15G21 RMK AO2 T00890056
13976KLFT LFT20190218051010702/18/19 05:10:31  5-MIN KLFT 181110Z 02016KT 10SM OVC039 09/06 A3008 -100 79 -800 020/16 RMK AO2 T00890056
13976KLFT LFT20190218051511302/18/19 05:15:31  5-MIN KLFT 181115Z 02016G22KT 10SM OVC040 09/06 A3008 -100 76 -700 020/16G22 RMK AO2 T00940056
13976KLFT LFT20190218052011302/18/19 05:20:31  5-MIN KLFT 181120Z 02017G22KT 10SM OVC042 09/06 A3009 -110 76 -700 020/17G22 RMK AO2 T00940056
13976KLFT LFT20190218052510702/18/19 05:25:31  5-MIN KLFT 181125Z 03016KT 10SM OVC042 09/06 A3009 -110 76 -700 030/16 RMK AO2 T00940056
13976KLFT LFT20190218053011302/18/19 05:30:31  5-MIN KLFT 181130Z 03016G23KT 10SM OVC042 09/06 A3009 -110 76 -700 030/16G23 RMK AO2 T00940056
13976KLFT LFT20190218053511302/18/19 05:35:31  5-MIN KLFT 181135Z 03015G23KT 10SM OVC044 09/06 A3009 -110 76 -700 020/15G23 RMK AO2 T00940056
13976KLFT LFT20190218054011302/18/19 05:40:31  5-MIN KLFT 181140Z 02017G22KT 10SM OVC044 09/06 A3010 -110 76 -700 020/17G22 RMK AO2 T00940056
13976KLFT LFT20190218054511302/18/19 05:45:31  5-MIN KLFT 181145Z 03016G22KT 10SM OVC044 09/05 A3010 -110 74 -700 030/16G22 RMK AO2 T00940050
13976KLFT LFT20190218055013802/18/19 05:50:31  5-MIN KLFT 181150Z 02017KT 10SM OVC046 09/05 A3010 -110 74 -700 020/17 RMK AO2 SLP191 70004 T00940050 10106 20089 53016
13976KLFT LFT20190218055511302/18/19 05:55:31  5-MIN KLFT 181155Z 03014G23KT 10SM OVC046 09/06 A3010 -110 76 -700 030/14G23 RMK AO2 T00940056
13976KLFT LFT20190218060011302/18/19 06:00:31  5-MIN KLFT 181200Z 03014G21KT 10SM OVC046 09/05 A3010 -110 74 -700 030/14G21 RMK AO2 T00940050
13976KLFT LFT20190218060511302/18/19 06:05:31  5-MIN KLFT 181205Z 03016G23KT 10SM OVC048 09/05 A3010 -120 74 -700 030/16G23 RMK AO2 T00940050
13976KLFT LFT20190218061011302/18/19 06:10:31  5-MIN KLFT 181210Z 04014G23KT 10SM OVC048 09/05 A3010 -120 74 -700 040/14G23 RMK AO2 T00940050
13976KLFT LFT20190218061511302/18/19 06:15:31  5-MIN KLFT 181215Z 03013G23KT 10SM OVC048 09/05 A3010 -120 74 -700 030/13G23 RMK AO2 T00940050
13976KLFT LFT20190218062011302/18/19 06:20:31  5-MIN KLFT 181220Z 03017G22KT 10SM OVC048 09/05 A3011 -120 74 -700 030/17G22 RMK AO2 T00940050
13976KLFT LFT20190218062511302/18/19 06:25:31  5-MIN KLFT 181225Z 02013G22KT 10SM OVC048 09/05 A3011 -120 74 -700 020/13G22 RMK AO2 T00940050
13976KLFT LFT20190218063011302/18/19 06:30:31  5-MIN KLFT 181230Z 03015G21KT 10SM OVC048 09/05 A3011 -120 74 -700 030/15G21 RMK AO2 T00940050
13976KLFT LFT20190218063510702/18/19 06:35:31  5-MIN KLFT 181235Z 02013KT 10SM OVC048 09/05 A3012 -130 74 -700 020/13 RMK AO2 T00940050
13976KLFT LFT20190218064010702/18/19 06:40:31  5-MIN KLFT 181240Z 03014KT 10SM OVC056 09/05 A3012 -130 74 -700 030/14 RMK AO2 T00940050
13976KLFT LFT20190218064510702/18/19 06:45:31  5-MIN KLFT 181245Z 03014KT 10SM OVC056 09/05 A3012 -130 74 -700 030/14 RMK AO2 T00940050
13976KLFT LFT20190218065011402/18/19 06:50:31  5-MIN KLFT 181250Z 02015KT 10SM OVC056 09/05 A3012 -140 74 -700 020/15 RMK AO2 SLP199 T00940050
13976KLFT LFT20190218065510702/18/19 06:55:31  5-MIN KLFT 181255Z 03012KT 10SM OVC050 09/05 A3012 -130 74 -700 030/12 RMK AO2 T00940050
13976KLFT LFT20190218070011402/18/19 07:00:31  5-MIN KLFT 181300Z 03014KT 10SM BKN050 OVC075 09/05 A3012 -140 74 -700 030/14 RMK AO2 T00940050
13976KLFT LFT20190218070511402/18/19 07:05:31  5-MIN KLFT 181305Z 04013KT 10SM BKN050 OVC075 09/04 A3012 -130 71 -700 040/13 RMK AO2 T00940044
13976KLFT LFT20190218071013102/18/19 07:10:31  5-MIN KLFT 181310Z 03018G26KT 10SM OVC055 09/04 A3012 -140 71 -800 030/18G26 RMK AO2 PK WND 04026/1310 T00940044
13976KLFT LFT20190218071513802/18/19 07:15:31  5-MIN KLFT 181315Z 03014G26KT 10SM BKN055 OVC075 09/04 A3013 -140 68 -800 030/14G26 RMK AO2 PK WND 04026/1310 T00940039
13976KLFT LFT20190218072013802/18/19 07:20:31  5-MIN KLFT 181320Z 03014G23KT 10SM BKN055 OVC075 09/04 A3013 -140 71 -800 030/14G23 RMK AO2 PK WND 04026/1310 T00940044
13976KLFT LFT20190218072513802/18/19 07:25:31  5-MIN KLFT 181325Z 04016G24KT 10SM BKN055 OVC075 09/04 A3013 -140 68 -800 030/16G24 RMK AO2 PK WND 04026/1310 T00940039
13976KLFT LFT20190218073013802/18/19 07:30:31  5-MIN KLFT 181330Z 04019G24KT 10SM BKN055 OVC075 09/03 A3013 -140 65 -800 030/19G24 RMK AO2 PK WND 04026/1310 T00940033
13976KLFT LFT20190218073513802/18/19 07:35:31  5-MIN KLFT 181335Z 04016G24KT 10SM SCT055 OVC075 09/03 A3013 -140 65 -800 040/16G24 RMK AO2 PK WND 04026/1310 T00940033
13976KLFT LFT20190218074013202/18/19 07:40:31  5-MIN KLFT 181340Z 04014KT 10SM SCT055 OVC075 09/03 A3014 -150 63 -800 040/14 RMK AO2 PK WND 04026/1310 T00940028
13976KLFT LFT20190218074513802/18/19 07:45:31  5-MIN KLFT 181345Z 03018G26KT 10SM FEW055 OVC075 09/03 A3014 -150 63 -800 030/18G26 RMK AO2 PK WND 05026/1342 T00940028
13976KLFT LFT20190218075014502/18/19 07:50:31  5-MIN KLFT 181350Z 04016G26KT 10SM BKN055 OVC075 09/03 A3014 -160 63 -800 040/16G26 RMK AO2 PK WND 05026/1342 SLP206 T00940028
13976KLFT LFT20190218075512702/18/19 07:55:31  5-MIN KLFT 181355Z 03019G25KT 10SM BKN055 OVC075 09/03 A3015 -160 63 -800 030/19G25 RMK AO2 PRESRR T00940028
13976KLFT LFT20190218080012002/18/19 08:00:31  5-MIN KLFT 181400Z 03016G25KT 10SM BKN055 OVC075 09/03 A3015 -170 63 -800 030/16G25 RMK AO2 T00940028
13976KLFT LFT20190218080512002/18/19 08:05:31  5-MIN KLFT 181405Z 04013G22KT 10SM BKN055 OVC075 09/03 A3015 -170 63 -800 040/13G22 RMK AO2 T00940028
13976KLFT LFT20190218081012002/18/19 08:10:31  5-MIN KLFT 181410Z 04015G22KT 10SM BKN055 OVC075 10/03 A3015 -170 60 -700 040/15G22 RMK AO2 T01000028
13976KLFT LFT20190218081512002/18/19 08:15:31  5-MIN KLFT 181415Z 04016G22KT 10SM BKN055 OVC075 10/02 A3016 -170 58 -700 030/16G22 RMK AO2 T01000022
13976KLFT LFT20190218082012002/18/19 08:20:31  5-MIN KLFT 181420Z 04017G23KT 10SM BKN055 OVC075 10/02 A3016 -170 58 -700 040/17G23 RMK AO2 T01000022
13976KLFT LFT20190218082512002/18/19 08:25:31  5-MIN KLFT 181425Z 04016G24KT 10SM BKN055 OVC075 10/02 A3016 -170 56 -700 040/16G24 RMK AO2 T01000017
13976KLFT LFT20190218083012002/18/19 08:30:31  5-MIN KLFT 181430Z 04015G24KT 10SM BKN055 OVC075 10/02 A3017 -180 56 -700 040/15G24 RMK AO2 T01000017
13976KLFT LFT20190218083512002/18/19 08:35:31  5-MIN KLFT 181435Z 04014G24KT 10SM BKN055 OVC075 10/02 A3017 -180 56 -700 040/14G24 RMK AO2 T01000017
13976KLFT LFT20190218084012002/18/19 08:40:31  5-MIN KLFT 181440Z 04016G24KT 10SM BKN055 OVC075 10/02 A3017 -180 56 -700 040/16G24 RMK AO2 T01000017
13976KLFT LFT20190218084511402/18/19 08:45:31  5-MIN KLFT 181445Z 04019KT 10SM BKN055 OVC075 10/02 A3017 -180 56 -700 030/19 RMK AO2 T01000017
13976KLFT LFT20190218085012702/18/19 08:50:31  5-MIN KLFT 181450Z 04015KT 10SM BKN060 OVC080 10/02 A3017 -180 56 -700 030/15 RMK AO2 SLP217 T01000017 51023
13976KLFT LFT20190218085512002/18/19 08:55:31  5-MIN KLFT 181455Z 04017G23KT 10SM FEW060 OVC080 11/02 A3018 -190 54 -700 040/17G23 RMK AO2 T01060017
13976KLFT LFT20190218090011302/18/19 09:00:31  5-MIN KLFT 181500Z 04017G23KT 10SM OVC080 11/02 A3018 -190 54 -700 030/17G23 RMK AO2 T01060017
13976KLFT LFT20190218090511302/18/19 09:05:31  5-MIN KLFT 181505Z 04015G23KT 10SM OVC080 11/01 A3018 -190 52 -700 040/15G23 RMK AO2 T01060011
13976KLFT LFT20190218091011302/18/19 09:10:31  5-MIN KLFT 181510Z 04013G22KT 10SM OVC080 11/01 A3018 -190 52 -700 040/13G22 RMK AO2 T01060011
13976KLFT LFT20190218091511302/18/19 09:15:31  5-MIN KLFT 181515Z 03014G22KT 10SM OVC080 11/02 A3018 -190 54 -700 030/14G22 RMK AO2 T01060017
13976KLFT LFT20190218092011302/18/19 09:20:31  5-MIN KLFT 181520Z 04013G22KT 10SM OVC080 11/01 A3018 -190 52 -700 040/13G22 RMK AO2 T01060011
13976KLFT LFT20190218092511302/18/19 09:25:31  5-MIN KLFT 181525Z 04013G22KT 10SM OVC080 11/01 A3018 -190 50 -600 040/13G22 RMK AO2 T01110011
13976KLFT LFT20190218093011302/18/19 09:30:31  5-MIN KLFT 181530Z 03015G21KT 10SM OVC080 11/01 A3018 -190 50 -600 030/15G21 RMK AO2 T01110011
13976KLFT LFT20190218093511302/18/19 09:35:31  5-MIN KLFT 181535Z 03017G21KT 10SM OVC080 11/01 A3018 -190 50 -600 030/17G21 RMK AO2 T01110011
13976KLFT LFT20190218094011302/18/19 09:40:31  5-MIN KLFT 181540Z 05014G22KT 10SM OVC080 12/01 A3018 -190 48 -500 040/14G22 RMK AO2 T01170011
13976KLFT LFT20190218094511302/18/19 09:45:31  5-MIN KLFT 181545Z 04014G24KT 10SM OVC085 12/00 A3018 -190 44 -500 040/14G24 RMK AO2 T01170000
13976KLFT LFT20190218095012002/18/19 09:50:31  5-MIN KLFT 181550Z 04013G24KT 10SM OVC085 12/01 A3018 -190 46 -500 040/13G24 RMK AO2 SLP218 T01170006
13976KLFT LFT20190218095511302/18/19 09:55:31  5-MIN KLFT 181555Z 03015G22KT 10SM OVC080 12/01 A3018 -190 46 -500 030/15G22 RMK AO2 T01220011
13976KLFT LFT20190218100011302/18/19 10:00:31  5-MIN KLFT 181600Z 03018G23KT 10SM OVC085 12/01 A3018 -190 46 -500 030/18G23 RMK AO2 T01220011
13976KLFT LFT20190218100511302/18/19 10:05:31  5-MIN KLFT 181605Z 05017G23KT 10SM OVC085 12/01 A3017 -180 46 -500 050/17G23 RMK AO2 T01170006
13976KLFT LFT20190218101011402/18/19 10:10:31  5-MIN KLFT 181610Z 04017G24KT 10SM OVC085 12/M01 A3017 -180 42 -500 040/17G24 RMK AO2 T01171006
13976KLFT LFT20190219181011202/19/19 18:10:31  5-MIN KLFT 200010Z VRB05KT 1 1/2SM BR OVC003 15/15 A2986 100 100 200 VRB/05 RMK AO2 T01500150
13976KLFT LFT20190219181511202/19/19 18:15:31  5-MIN KLFT 200015Z VRB05KT 1 1/2SM BR OVC003 15/15 A2986 100 100 200 VRB/05 RMK AO2 T01500150
13976KLFT LFT20190219182011202/19/19 18:20:31  5-MIN KLFT 200020Z 09005KT 1 1/2SM BR OVC003 15/15 A2986 100 100 200 090/05 RMK AO2 T01500150
13976KLFT LFT20190219182511202/19/19 18:25:31  5-MIN KLFT 200025Z 09005KT 1 1/2SM BR OVC003 15/15 A2985 110 100 200 090/05 RMK AO2 T01500150
13976KLFT LFT20190219183011202/19/19 18:30:31  5-MIN KLFT 200030Z 10004KT 1 1/2SM BR OVC003 15/15 A2985 100 100 200 100/04 RMK AO2 T01500150
13976KLFT LFT20190219183511202/19/19 18:35:31  5-MIN KLFT 200035Z VRB05KT 1 1/2SM BR OVC002 15/15 A2985 110 100 200 VRB/05 RMK AO2 T01500150
13976KLFT LFT20190219184011202/19/19 18:40:31  5-MIN KLFT 200040Z 10005KT 1 1/2SM BR OVC002 15/15 A2985 110 100 200 100/05 RMK AO2 T01500150
13976KLFT LFT20190219184511202/19/19 18:45:31  5-MIN KLFT 200045Z VRB05KT 1 1/2SM BR OVC002 15/15 A2985 110 100 200 VRB/05 RMK AO2 T01500150
13976KLFT LFT20190219185011902/19/19 18:50:31  5-MIN KLFT 200050Z 11004KT 1 1/2SM BR OVC003 15/15 A2985 110 100 200 110/04 RMK AO2 SLP108 T01500150
13976KLFT LFT20190219185510702/19/19 18:55:31  5-MIN KLFT 200055Z VRB03KT 3SM BR OVC003 16/15 A2985 110 96 200 VRB/03 RMK AO2 T01560150
13976KLFT LFT20190219190010702/19/19 19:00:31  5-MIN KLFT 200100Z 10004KT 3SM BR OVC002 16/15 A2985 110 96 200 100/04 RMK AO2 T01560150
13976KLFT LFT20190219190510702/19/19 19:05:31  5-MIN KLFT 200105Z VRB03KT 3SM BR OVC002 16/15 A2985 110 96 200 VRB/03 RMK AO2 T01560150
13976KLFT LFT20190219191011102/19/19 19:10:31  5-MIN KLFT 200110Z VRB05KT 1 1/2SM BR OVC002 16/15 A2985 110 96 200 VRB/05 RMK AO2 T01560150
13976KLFT LFT20190219191511202/19/19 19:15:31  5-MIN KLFT 200115Z VRB04KT 1 1/2SM BR OVC002 16/16 A2985 110 100 200 VRB/04 RMK AO2 T01560156
13976KLFT LFT20190219192011202/19/19 19:20:31  5-MIN KLFT 200120Z 12004KT 1 1/2SM BR OVC002 16/16 A2986 100 100 200 120/04 RMK AO2 T01560156
13976KLFT LFT20190219192511202/19/19 19:25:31  5-MIN KLFT 200125Z VRB03KT 1 1/2SM BR OVC002 16/16 A2986 100 100 200 VRB/03 RMK AO2 T01560156
13976KLFT LFT20190219193011202/19/19 19:30:31  5-MIN KLFT 200130Z 00000KT 1 1/2SM BR OVC002 16/16 A2986 100 100 200 000/00 RMK AO2 T01560156
13976KLFT LFT20190219193511102/19/19 19:35:31  5-MIN KLFT 200135Z 00000KT 1 1/2SM BR OVC002 16/16 A2986 100 96 300 000/00 RMK AO2 T01610156
13976KLFT LFT20190219194011202/19/19 19:40:31  5-MIN KLFT 200140Z 00000KT 1 1/2SM BR OVC002 16/16 A2986 100 100 300 000/00 RMK AO2 T01610161
13976KLFT LFT20190219194511202/19/19 19:45:31  5-MIN KLFT 200145Z VRB04KT 1 1/2SM BR OVC002 16/16 A2985 110 100 300 VRB/04 RMK AO2 T01610161
13976KLFT LFT20190219195011802/19/19 19:50:31  5-MIN KLFT 200150Z 08005KT 1 1/2SM BR OVC002 16/16 A2985 110 96 300 080/05 RMK AO2 SLP109 T01610156
13976KLFT LFT20190219195510802/19/19 19:55:31  5-MIN KLFT 200155Z 08004KT 3SM BR OVC002 16/16 A2986 100 100 300 080/04 RMK AO2 T01610161
13976KLFT LFT20190219200013002/19/19 20:00:31  5-MIN KLFT 200200Z VRB03KT 1 1/2SM -RA BR OVC002 16/16 A2985 100 100 300 VRB/03 RMK AO2 RAB0156 P0001 T01610161
13976KLFT LFT20190219200512902/19/19 20:05:31  5-MIN KLFT 200205Z 00000KT 1 1/2SM -RA BR OVC002 17/16 A2985 100 96 400 000/00 RMK AO2 RAB0156 P0001 T01670161
13976KLFT LFT20190219201012902/19/19 20:10:31  5-MIN KLFT 200210Z VRB03KT 1 1/2SM BR OVC002 17/17 A2985 110 100 400 VRB/03 RMK AO2 RAB0156E06 P0001 T01670167
13976KLFT LFT20190219201512902/19/19 20:15:31  5-MIN KLFT 200215Z 11003KT 1 1/2SM BR OVC002 17/17 A2985 110 100 400 110/03 RMK AO2 RAB0156E06 P0001 T01670167
13976KLFT LFT20190219202012902/19/19 20:20:31  5-MIN KLFT 200220Z 13003KT 1 1/2SM BR OVC002 17/17 A2985 110 100 400 130/03 RMK AO2 RAB0156E06 P0001 T01670167
13976KLFT LFT20190219202512902/19/19 20:25:31  5-MIN KLFT 200225Z VRB04KT 1 1/2SM BR OVC002 17/17 A2985 110 100 400 VRB/04 RMK AO2 RAB0156E06 P0001 T01670167
13976KLFT LFT20190219203012802/19/19 20:30:31  5-MIN KLFT 200230Z 10004KT 1 1/2SM BR OVC002 17/17 A2985 110 96 400 100/04 RMK AO2 RAB0156E06 P0001 T01720167
13976KLFT LFT20190219203512902/19/19 20:35:31  5-MIN KLFT 200235Z 12005KT 1 1/2SM BR OVC002 17/17 A2985 110 100 400 120/05 RMK AO2 RAB0156E06 P0001 T01720172
13976KLFT LFT20190219204012902/19/19 20:40:31  5-MIN KLFT 200240Z 10005KT 1 1/2SM BR OVC002 17/17 A2985 110 100 400 100/05 RMK AO2 RAB0156E06 P0001 T01720172
13976KLFT LFT20190219204513502/19/19 20:45:31  5-MIN KLFT 200245Z VRB05KT 1 1/2SM -RA BR OVC002 18/17 A2985 110 96 500 VRB/05 RMK AO2 RAB0156E06B42 P0001 T01780172
13976KLFT LFT20190219205015502/19/19 20:50:31  5-MIN KLFT 200250Z 11006KT 1 1/2SM -RA BR OVC002 18/18 A2985 110 100 500 110/06 RMK AO2 RAB0156E06B42 SLP107 P0001 60001 T01780178 56018
13976KLFT LFT20190219205512202/19/19 20:55:31  5-MIN KLFT 200255Z VRB05KT 1 1/2SM -RA BR OVC002 18/18 A2985 110 100 500 VRB/05 RMK AO2 P0000 T01780178
13976KLFT LFT20190219210012202/19/19 21:00:31  5-MIN KLFT 200300Z VRB05KT 1 1/2SM -RA BR OVC002 18/18 A2985 110 100 600 VRB/05 RMK AO2 P0000 T01830183
13976KLFT LFT20190219210512202/19/19 21:05:31  5-MIN KLFT 200305Z 11005KT 1 1/2SM -RA BR OVC002 18/18 A2984 110 100 600 110/05 RMK AO2 P0000 T01830183
13976KLFT LFT20190219211012202/19/19 21:10:31  5-MIN KLFT 200310Z 12005KT 1 1/2SM -RA BR OVC002 18/18 A2985 110 100 600 120/05 RMK AO2 P0000 T01830183
13976KLFT LFT20190219211512402/19/19 21:15:31  5-MIN KLFT 200315Z VRB04KT 1 1/2SM BR OVC002 18/18 A2985 110 100 600 VRB/04 RMK AO2 RAE12 P0000 T01830183
13976KLFT LFT20190219212012402/19/19 21:20:31  5-MIN KLFT 200320Z VRB03KT 1 1/2SM BR OVC002 18/18 A2985 110 100 600 VRB/03 RMK AO2 RAE12 P0000 T01830183
13976KLFT LFT20190219212512402/19/19 21:25:31  5-MIN KLFT 200325Z VRB04KT 1 1/2SM BR OVC002 19/19 A2985 110 100 600 VRB/04 RMK AO2 RAE12 P0000 T01890189
13976KLFT LFT20190219213013002/19/19 21:30:31  5-MIN KLFT 200330Z VRB04KT 1 1/2SM BR BKN002 OVC006 19/19 A2984 110 97 700 VRB/04 RMK AO2 RAE12 P0000 T01940189
13976KLFT LFT20190219213513102/19/19 21:35:31  5-MIN KLFT 200335Z 15006KT 1 1/2SM BR BKN004 OVC008 19/19 A2984 120 100 700 150/06 RMK AO2 RAE12 P0000 T01940194
13976KLFT LFT20190219214014302/19/19 21:40:31  5-MIN KLFT 200340Z 17010KT 1 1/2SM BR SCT004 OVC008 21/21 A2984 120 100 800 170/10 RMK AO2 RAE12 CIG 006V011 P0000 T02060206
13976KLFT LFT20190219214515602/19/19 21:45:31  5-MIN KLFT 200345Z 17011G18KT 1 1/2SM BR FEW004 BKN008 OVC012 22/21 A2984 120 97 1000 170/11G18 RMK AO2 RAE12 CIG 005V010 P0000 T02170211
13976KLFT LFT20190219215016402/19/19 21:50:31  5-MIN KLFT 200350Z 17013G20KT 1 1/2SM BR FEW003 BKN008 OVC012 22/22 A2984 120 100 1000 170/13G20 RMK AO2 RAE12 CIG 006V010 SLP103 P0000 T02170217
13976KLFT LFT20190219215513002/19/19 21:55:31  5-MIN KLFT 200355Z 16012G20KT 8SM BKN008 OVC012 22/22 A2984 120 97 1000 160/12G20 RMK AO2 CIG 004V010 T02220217
13976KLFT LFT20190219220012302/19/19 22:00:31  5-MIN KLFT 200400Z 17014G21KT 8SM OVC008 22/22 A2984 120 97 1000 170/14G21 RMK AO2 CIG 005V014 T02220217
13976KLFT LFT20190219220512302/19/19 22:05:31  5-MIN KLFT 200405Z 17013G21KT 8SM OVC009 22/22 A2984 120 97 1000 170/13G21 RMK AO2 CIG 007V014 T02220217
13976KLFT LFT20190219221013402/19/19 22:10:31  5-MIN KLFT 200410Z 17009G21KT 8SM OVC009 22/22 A2984 120 97 1000 170/09G21 RMK AO2 LTG DSNT W CIG 007V013 T02220217
13976KLFT LFT20190219221513402/19/19 22:15:31  5-MIN KLFT 200415Z 17013G18KT 8SM OVC009 22/22 A2984 120 97 1000 170/13G18 RMK AO2 LTG DSNT W CIG 007V012 T02220217
13976KLFT LFT20190219222013402/19/19 22:20:31  5-MIN KLFT 200420Z AUTO 17013G19KT 8SM BKN009 OVC012 22/22 A2984 120 97 1000 170/13G19 RMK AO2 LTG DSNT W T02220217
13976KLFT LFT20190219222512202/19/19 22:25:31  5-MIN KLFT 200425Z 17012G19KT 8SM OVC011 22/22 A2984 120 97 1000 170/12G19 RMK AO2 LTG DSNT W T02220217
13976KLFT LFT20190219223015102/19/19 22:30:31  5-MIN KLFT 200430Z AUTO 17011G20KT 8SM -RA BKN008 OVC013 22/22 A2984 120 97 1000 170/11G20 RMK AO2 RAB26 CIG 007V011 P0000 T02220217
13976KLFT LFT20190219223514402/19/19 22:35:31  5-MIN KLFT 200435Z AUTO 17015G20KT 8SM -RA OVC008 22/22 A2984 120 97 1000 170/15G20 RMK AO2 RAB26 CIG 007V012 P0000 T02220217
13976KLFT LFT20190219224013902/19/19 22:40:31  5-MIN KLFT 200440Z AUTO 17014G20KT 8SM -RA BKN008 OVC012 22/22 A2984 120 97 1000 170/14G20 RMK AO2 RAB26 P0000 T02220217
13976KLFT LFT20190219224513802/19/19 22:45:31  5-MIN KLFT 200445Z AUTO 17013G20KT 8SM BKN008 OVC012 22/22 A2984 120 97 1000 170/13G20 RMK AO2 RAB26E44 P0000 T02220217
13976KLFT LFT20190219225015102/19/19 22:50:31  5-MIN KLFT 200450Z AUTO 17012G21KT 8SM -RA OVC008 22/22 A2984 120 97 1000 170/12G21 RMK AO2 RAB26 CIG 007V011 SLP103 P0000 T02220217
13976KLFT LFT20190219225513802/19/19 22:55:31  5-MIN KLFT 200455Z AUTO 17015G21KT 8SM -RA OVC008 23/22 A2984 120 93 1100 170/15G21 RMK AO2 CIG 006V013 P0000 T02280217
13976KLFT LFT20190219230014002/19/19 23:00:31  5-MIN KLFT 200500Z AUTO 17011G20KT 6SM RA BR OVC008 22/22 A2984 120 97 1000 170/11G20 RMK AO2 CIG 006V012 P0002 T02220217
13976KLFT LFT20190219230513602/19/19 23:05:31  5-MIN KLFT 200505Z AUTO 17014G20KT 5SM -RA BR BKN008 OVC012 22/22 A2984 120 97 1000 170/14G20 RMK AO2 P0002 T02220217
13976KLFT LFT20190219231013302/19/19 23:10:31  5-MIN KLFT 200510Z AUTO 17014G20KT 7SM -RA BKN008 OVC012 22/22 A2984 120 97 1000 170/14G20 RMK AO2 P0002 T02220217
13976KLFT LFT20190219231513802/19/19 23:15:31  5-MIN KLFT 200515Z AUTO 17013G22KT 7SM -RA OVC010 22/22 A2984 120 97 1000 170/13G22 RMK AO2 CIG 006V013 P0002 T02220217
13976KLFT LFT20190219232013802/19/19 23:20:31  5-MIN KLFT 200520Z AUTO 17013G22KT 7SM -RA OVC010 22/22 A2984 120 97 1000 170/13G22 RMK AO2 CIG 006V013 P0002 T02220217
13976KLFT LFT20190219232514102/19/19 23:25:31  5-MIN KLFT 200525Z AUTO 17014G22KT 6SM -RA BR OVC010 22/22 A2983 130 97 1000 160/14G22 RMK AO2 CIG 006V013 P0002 T02220217
13976KLFT LFT20190219233014102/19/19 23:30:31  5-MIN KLFT 200530Z AUTO 16012G22KT 5SM -RA BR OVC007 22/22 A2983 130 97 1000 160/12G22 RMK AO2 CIG 006V011 P0003 T02220217
13976KLFT LFT20190219233514102/19/19 23:35:31  5-MIN KLFT 200535Z AUTO 17014G22KT 6SM -RA BR OVC009 22/22 A2983 130 97 1000 160/14G22 RMK AO2 CIG 006V013 P0003 T02220217
13976KLFT LFT20190219234013802/19/19 23:40:31  5-MIN KLFT 200540Z AUTO 17015G22KT 7SM -RA OVC009 22/22 A2982 130 97 1000 170/15G22 RMK AO2 CIG 006V011 P0003 T02220217
13976KLFT LFT20190219234514002/19/19 23:45:31  5-MIN KLFT 200545Z AUTO 17013G24KT 7SM OVC009 22/22 A2982 130 97 1000 170/13G24 RMK AO2 RAE42 CIG 006V011 P0003 T02220217
13976KLFT LFT20190219235018102/19/19 23:50:31  5-MIN KLFT 200550Z AUTO 17013G24KT 7SM OVC008 22/22 A2983 130 97 1000 170/13G24 RMK AO2 RAE42 CIG 006V011 SLP099 P0003 60004 T02220217 10228 20150 402280094 56005
13976KLFT LFT20190219235512802/19/19 23:55:31  5-MIN KLFT 200555Z AUTO 17013G23KT 7SM OVC008 22/22 A2983 130 97 1000 170/13G23 RMK AO2 CIG 006V011 T02220217
13976KLFT LFT20190220000012802/20/19 00:00:31  5-MIN KLFT 200600Z AUTO 17009G23KT 7SM OVC008 22/22 A2983 120 97 1000 170/09G23 RMK AO2 CIG 006V010 T02220217
13976KLFT LFT20190220000512802/20/19 00:05:31  5-MIN KLFT 200605Z AUTO 18011G20KT 7SM OVC008 22/22 A2983 120 97 1000 180/11G20 RMK AO2 CIG 006V010 T02220217
13976KLFT LFT20190220001012802/20/19 00:10:31  5-MIN KLFT 200610Z AUTO 18011G18KT 7SM OVC008 22/22 A2984 120 97 1000 170/11G18 RMK AO2 CIG 006V012 T02220217
13976KLFT LFT20190220001512802/20/19 00:15:31  5-MIN KLFT 200615Z AUTO 18011G20KT 7SM OVC007 22/22 A2984 120 97 1000 180/11G20 RMK AO2 CIG 006V012 T02220217
13976KLFT LFT20190220002012802/20/19 00:20:31  5-MIN KLFT 200620Z AUTO 17012G20KT 7SM OVC007 23/22 A2984 120 93 1100 170/12G20 RMK AO2 CIG 006V012 T02280217
13976KLFT LFT20190220002511002/20/19 00:25:31  5-MIN KLFT 200625Z AUTO 18012KT 7SM OVC007 23/22 A2984 120 93 1100 180/12 RMK AO2 T02280217
13976KLFT LFT20190220003012202/20/19 00:30:31  5-MIN KLFT 200630Z AUTO 18012KT 7SM OVC007 23/22 A2984 120 93 1100 180/12 RMK AO2 CIG 006V011 T02280217
13976KLFT LFT20190220003512802/20/19 00:35:31  5-MIN KLFT 200635Z AUTO 18010G20KT 8SM OVC007 23/22 A2984 120 97 1100 180/10G20 RMK AO2 CIG 007V013 T02280222
13976KLFT LFT20190220004012802/20/19 00:40:31  5-MIN KLFT 200640Z AUTO 18012G20KT 8SM OVC008 23/22 A2984 120 93 1100 180/12G20 RMK AO2 CIG 007V013 T02280217
13976KLFT LFT20190220004512802/20/19 00:45:31  5-MIN KLFT 200645Z AUTO 18013G20KT 8SM OVC008 23/22 A2984 120 93 1100 180/13G20 RMK AO2 CIG 007V013 T02280217
13976KLFT LFT20190220005013502/20/19 00:50:31  5-MIN KLFT 200650Z AUTO 18012G20KT 8SM OVC008 23/22 A2984 120 93 1100 180/12G20 RMK AO2 CIG 007V013 SLP103 T02280217
13976KLFT LFT20190220005512802/20/19 00:55:31  5-MIN KLFT 200655Z AUTO 18012G21KT 7SM OVC008 23/22 A2984 120 93 1100 180/12G21 RMK AO2 CIG 007V013 T02280217
13976KLFT LFT20190220010012302/20/19 01:00:31  5-MIN KLFT 200700Z AUTO 17015G24KT 7SM BKN008 OVC013 23/22 A2983 130 93 1100 170/15G24 RMK AO2 T02280217
13976KLFT LFT20190220010512802/20/19 01:05:31  5-MIN KLFT 200705Z AUTO 18015G24KT 8SM OVC008 23/22 A2983 130 93 1100 180/15G24 RMK AO2 CIG 007V012 T02280217
13976KLFT LFT20190220011012802/20/19 01:10:31  5-MIN KLFT 200710Z AUTO 18014G20KT 8SM OVC008 23/22 A2983 120 93 1100 180/14G20 RMK AO2 CIG 007V011 T02280217
13976KLFT LFT20190220011514402/20/19 01:15:31  5-MIN KLFT 200715Z AUTO 18013G19KT 7SM -RA OVC008 23/22 A2983 120 93 1100 180/13G19 RMK AO2 RAB13 CIG 007V011 P0000 T02280217
13976KLFT LFT20190220012014402/20/19 01:20:31  5-MIN KLFT 200720Z AUTO 18012G20KT 7SM -RA OVC008 23/22 A2983 120 93 1100 180/12G20 RMK AO2 RAB13 CIG 006V011 P0000 T02280217
13976KLFT LFT20190220012514702/20/19 01:25:31  5-MIN KLFT 200725Z AUTO 18011G22KT 6SM -RA BR OVC007 23/22 A2983 120 93 1100 180/11G22 RMK AO2 RAB13 CIG 006V011 P0000 T02280217
13976KLFT LFT20190220013014702/20/19 01:30:31  5-MIN KLFT 200730Z AUTO 18011G22KT 5SM -RA BR OVC007 22/22 A2983 120 97 1000 180/11G22 RMK AO2 RAB13 CIG 005V011 P0001 T02220217
13976KLFT LFT20190220013514702/20/19 01:35:31  5-MIN KLFT 200735Z AUTO 18012G19KT 6SM -RA BR OVC007 22/22 A2983 120 97 1000 180/12G19 RMK AO2 RAB13 CIG 005V010 P0001 T02220217
13976KLFT LFT20190220014013202/20/19 01:40:31  5-MIN KLFT 200740Z AUTO 18014G20KT 7SM -RA OVC007 22/22 A2984 120 97 1000 180/14G20 RMK AO2 RAB13 P0001 T02220217
13976KLFT LFT20190220014513102/20/19 01:45:31  5-MIN KLFT 200745Z AUTO 18013G21KT 7SM OVC007 22/22 A2984 120 97 1000 180/13G21 RMK AO2 RAB13E41 P0001 T02220217
13976KLFT LFT20190220015013802/20/19 01:50:31  5-MIN KLFT 200750Z AUTO 18016G22KT 7SM OVC007 22/22 A2983 120 97 1000 180/16G22 RMK AO2 RAB13E41 SLP102 P0001 T02220217
13976KLFT LFT20190220015511602/20/19 01:55:31  5-MIN KLFT 200755Z AUTO 18012G22KT 7SM OVC007 22/22 A2983 120 97 1000 180/12G22 RMK AO2 T02220217
13976KLFT LFT20190220020011602/20/19 02:00:31  5-MIN KLFT 200800Z AUTO 18014G19KT 7SM OVC007 22/22 A2983 130 97 1000 180/14G19 RMK AO2 T02220217
13976KLFT LFT20190220020511602/20/19 02:05:31  5-MIN KLFT 200805Z AUTO 18011G19KT 7SM OVC007 22/22 A2983 130 97 1000 180/11G19 RMK AO2 T02220217
13976KLFT LFT20190220021011602/20/19 02:10:31  5-MIN KLFT 200810Z AUTO 18014G19KT 7SM OVC006 22/22 A2983 130 97 1000 180/14G19 RMK AO2 T02220217
13976KLFT LFT20190220021511602/20/19 02:15:31  5-MIN KLFT 200815Z AUTO 18013G20KT 7SM OVC006 22/22 A2983 120 97 1000 180/13G20 RMK AO2 T02220217
13976KLFT LFT20190220022011602/20/19 02:20:31  5-MIN KLFT 200820Z AUTO 18013G20KT 8SM OVC006 22/22 A2983 120 97 1000 180/13G20 RMK AO2 T02220217
13976KLFT LFT20190220022511602/20/19 02:25:31  5-MIN KLFT 200825Z AUTO 18013G19KT 8SM OVC006 22/22 A2983 120 97 1000 180/13G19 RMK AO2 T02220217
13976KLFT LFT20190220023011002/20/19 02:30:31  5-MIN KLFT 200830Z AUTO 18010KT 7SM OVC006 22/22 A2984 120 97 1000 180/10 RMK AO2 T02220217
13976KLFT LFT20190220023511002/20/19 02:35:31  5-MIN KLFT 200835Z AUTO 19010KT 7SM OVC006 22/22 A2984 120 97 1000 190/10 RMK AO2 T02220217
13976KLFT LFT20190220024011002/20/19 02:40:31  5-MIN KLFT 200840Z AUTO 18012KT 7SM OVC006 22/22 A2984 120 97 1000 180/12 RMK AO2 T02220217
13976KLFT LFT20190220024511602/20/19 02:45:31  5-MIN KLFT 200845Z AUTO 19011G18KT 7SM OVC006 22/22 A2983 120 97 1000 190/11G18 RMK AO2 T02220217
13976KLFT LFT20190220025013502/20/19 02:50:31  5-MIN KLFT 200850Z AUTO 18013G18KT 7SM OVC006 22/22 A2983 130 97 1000 180/13G18 RMK AO2 SLP101 60001 T02220217 58003
13976KLFT LFT20190220025511602/20/19 02:55:31  5-MIN KLFT 200855Z AUTO 18010G18KT 7SM OVC006 22/22 A2983 130 97 1000 180/10G18 RMK AO2 T02220217
13976KLFT LFT20190220030011602/20/19 03:00:31  5-MIN KLFT 200900Z AUTO 18013G17KT 7SM OVC006 22/22 A2983 130 97 1000 180/13G17 RMK AO2 T02220217
13976KLFT LFT20190220030511602/20/19 03:05:31  5-MIN KLFT 200905Z AUTO 17011G18KT 7SM OVC006 22/22 A2982 130 97 1000 170/11G18 RMK AO2 T02220217
13976KLFT LFT20190220031011602/20/19 03:10:31  5-MIN KLFT 200910Z AUTO 18013G18KT 7SM OVC006 22/22 A2982 140 97 1000 180/13G18 RMK AO2 T02220217
13976KLFT LFT20190220031514602/20/19 03:15:31  5-MIN KLFT 200915Z AUTO 19009G17KT 7SM OVC006 22/22 A2982 140 97 1100 180/09G17 RMK AO2 LTG DSNT SE AND S CIG 005V010 T02220217
13976KLFT LFT20190220032013402/20/19 03:20:31  5-MIN KLFT 200920Z AUTO 19010G17KT 7SM OVC006 22/22 A2982 140 97 1100 180/10G17 RMK AO2 LTG DSNT SE AND S T02220217
13976KLFT LFT20190220032512802/20/19 03:25:31  5-MIN KLFT 200925Z AUTO 18010KT 7SM OVC006 22/22 A2982 140 97 1100 180/10 RMK AO2 LTG DSNT SE AND S T02220217
13976KLFT LFT20190220033012802/20/19 03:30:31  5-MIN KLFT 200930Z AUTO 19012KT 8SM VCTS OVC006 22/22 A2982 140 97 1100 190/12 RMK AO2 LTG DSNT E-S T02220217
13976KLFT LFT20190220033513302/20/19 03:35:31  5-MIN KLFT 200935Z AUTO 19011KT 8SM VCTS OVC006 22/22 A2981 140 97 1100 190/11 RMK AO2 LTG DSNT E AND SE T02220217
13976KLFT LFT20190220034013902/20/19 03:40:31  5-MIN KLFT 200940Z AUTO 18015G20KT 8SM VCTS OVC006 22/22 A2981 140 97 1100 180/15G20 RMK AO2 LTG DSNT E AND SE T02220217
13976KLFT LFT20190220034513402/20/19 03:45:31  5-MIN KLFT 200945Z AUTO 18010G20KT 9SM OVC006 22/22 A2981 140 97 1100 180/10G20 RMK AO2 LTG DSNT NE AND E T02220217
13976KLFT LFT20190220035012502/20/19 03:50:31  5-MIN KLFT 200950Z AUTO 19013G17KT 10SM OVC006 22/21 A2981 140 93 1100 190/13G17 RMK AO2 LTG DSNT NE AND E
13976KLFT LFT20190220035512902/20/19 03:55:31  5-MIN KLFT 200955Z AUTO 18013KT 10SM OVC006 22/21 A2981 140 93 1100 180/13 RMK AO2 LTG DSNT NE AND E T02220211
13976KLFT LFT20190220040012902/20/19 04:00:31  5-MIN KLFT 201000Z AUTO 19011KT 10SM OVC006 22/21 A2981 140 93 1100 190/11 RMK AO2 LTG DSNT NE AND E T02220211
13976KLFT LFT20190220040512902/20/19 04:05:31  5-MIN KLFT 201005Z AUTO 18012KT 10SM OVC006 22/21 A2981 150 93 1100 180/12 RMK AO2 LTG DSNT NE AND E T02220211
13976KLFT LFT20190220041013502/20/19 04:10:31  5-MIN KLFT 201010Z AUTO 18013G18KT 10SM OVC006 22/21 A2981 140 97 1000 180/13G18 RMK AO2 LTG DSNT NE AND E T02170211
13976KLFT LFT20190220041513402/20/19 04:15:31  5-MIN KLFT 201015Z AUTO 19011G18KT 9SM OVC006 22/21 A2981 140 97 1000 180/11G18 RMK AO2 LTG DSNT NE AND E T02170211
13976KLFT LFT20190220042013402/20/19 04:20:31  5-MIN KLFT 201020Z AUTO 19014G18KT 9SM OVC006 22/21 A2981 140 97 1000 180/14G18 RMK AO2 LTG DSNT NE AND E T02170211
13976KLFT LFT20190220042512202/20/19 04:25:31  5-MIN KLFT 201025Z AUTO 18012KT 8SM OVC006 22/21 A2981 140 97 1000 180/12 RMK AO2 LTG DSNT NE T02170211
13976KLFT LFT20190220043011002/20/19 04:30:31  5-MIN KLFT 201030Z AUTO 18009KT 8SM OVC005 22/21 A2981 140 97 1000 180/09 RMK AO2 T02170211
13976KLFT LFT20190220043511602/20/19 04:35:31  5-MIN KLFT 201035Z AUTO 18012G16KT 7SM OVC005 22/21 A2981 140 97 1000 180/12G16 RMK AO2 T02170211
13976KLFT LFT20190220044013002/20/19 04:40:31  5-MIN KLFT 201040Z AUTO 19010G16KT 6SM BR OVC004 22/21 A2982 140 97 1000 190/10G16 RMK AO2 LTG DSNT S T02170211
13976KLFT LFT20190220044513702/20/19 04:45:31  5-MIN KLFT 201045Z AUTO 18012G18KT 6SM BR OVC004 22/21 A2982 140 97 1000 180/12G18 RMK AO2 LTG DSNT SE AND S T02170211
13976KLFT LFT20190220045014402/20/19 04:50:31  5-MIN KLFT 201050Z AUTO 18009G18KT 6SM BR OVC004 22/21 A2982 140 97 1000 180/09G18 RMK AO2 LTG DSNT SE AND S SLP096 T02170211
13976KLFT LFT20190220045512502/20/19 04:55:31  5-MIN KLFT 201055Z AUTO 18009KT 6SM BR OVC004 22/21 A2982 140 97 1000 180/09 RMK AO2 LTG DSNT SE T02170211
13976KLFT LFT20190220050011002/20/19 05:00:31  5-MIN KLFT 201100Z AUTO 19010KT 7SM OVC004 22/21 A2982 140 97 1000 190/10 RMK AO2 T02170211
13976KLFT LFT20190220050511002/20/19 05:05:31  5-MIN KLFT 201105Z AUTO 18011KT 7SM OVC004 22/21 A2982 140 97 1000 180/11 RMK AO2 T02170211
13976KLFT LFT20190220051011102/20/19 05:10:31  5-MIN KLFT 201110Z 19012G20KT 7SM OVC004 22/21 A2982 140 97 1000 190/12G20 RMK AO2 T02170211
13976KLFT LFT20190220051511102/20/19 05:15:31  5-MIN KLFT 201115Z 18009G20KT 7SM OVC004 22/21 A2982 140 97 1000 180/09G20 RMK AO2 T02170211
13976KLFT LFT20190220052010502/20/19 05:20:31  5-MIN KLFT 201120Z 19011KT 8SM OVC004 22/21 A2982 140 97 1000 180/11 RMK AO2 T02170211
13976KLFT LFT20190220052511102/20/19 05:25:31  5-MIN KLFT 201125Z 19011G17KT 8SM OVC004 22/21 A2982 140 97 1000 180/11G17 RMK AO2 T02170211
13976KLFT LFT20190220053011102/20/19 05:30:31  5-MIN KLFT 201130Z 18012G18KT 8SM OVC004 22/21 A2982 140 97 1000 180/12G18 RMK AO2 T02170211
13976KLFT LFT20190220053511102/20/19 05:35:31  5-MIN KLFT 201135Z 19011G18KT 7SM OVC004 22/21 A2982 140 97 1000 180/11G18 RMK AO2 T02170211
13976KLFT LFT20190220054010502/20/19 05:40:31  5-MIN KLFT 201140Z 19012KT 8SM OVC004 22/21 A2982 140 97 1000 190/12 RMK AO2 T02170211
13976KLFT LFT20190220054511102/20/19 05:45:31  5-MIN KLFT 201145Z 18012G18KT 8SM OVC004 22/21 A2982 130 97 1000 180/12G18 RMK AO2 T02170211
13976KLFT LFT20190220055014802/20/19 05:50:31  5-MIN KLFT 201150Z 18009G18KT 8SM OVC004 22/21 A2983 130 97 1000 180/09G18 RMK AO2 SLP100 60001 70008 T02170211 10228 20217 50000
13976KLFT LFT20190220055510502/20/19 05:55:31  5-MIN KLFT 201155Z 19009KT 8SM OVC004 22/21 A2982 130 97 1000 190/09 RMK AO2 T02170211
13976KLFT LFT20190220060010502/20/19 06:00:31  5-MIN KLFT 201200Z 19010KT 8SM OVC004 22/21 A2982 130 97 1000 190/10 RMK AO2 T02170211
13976KLFT LFT20190220060512402/20/19 06:05:31  5-MIN KLFT 201205Z 19009KT 6SM -RA BR OVC004 22/21 A2983 130 97 1000 190/09 RMK AO2 RAB03 P0001 T02170211
13976KLFT LFT20190225065011202/25/19 06:50:31  5-MIN KLFT 251250Z 03006KT 10SM CLR 08/01 A3036 -350 62 -1200 030/06 RMK AO2 SLP278 T00780011
13976KLFT LFT20190225065511202/25/19 06:55:31  5-MIN KLFT 251255Z 04005KT 10SM CLR 08/01 A3036 -360 62 -1200 040/05 RMK AO2 PRESRR T00780011
13976KLFT LFT20190225070010502/25/19 07:00:31  5-MIN KLFT 251300Z 04005KT 10SM CLR 07/02 A3036 -360 68 -1300 040/05 RMK AO2 T00720017
13976KLFT LFT20190225070510502/25/19 07:05:31  5-MIN KLFT 251305Z 03006KT 10SM CLR 08/02 A3037 -360 65 -1200 030/06 RMK AO2 T00780017
13976KLFT LFT20190225071010502/25/19 07:10:31  5-MIN KLFT 251310Z 03005KT 10SM CLR 07/02 A3037 -360 68 -1300 030/05 RMK AO2 T00720017
13976KLFT LFT20190225071510502/25/19 07:15:31  5-MIN KLFT 251315Z 02005KT 10SM CLR 08/02 A3037 -360 65 -1200 020/05 RMK AO2 T00780017
13976KLFT LFT20190225072010502/25/19 07:20:31  5-MIN KLFT 251320Z 02004KT 10SM CLR 08/02 A3037 -370 68 -1200 020/04 RMK AO2 T00780022
13976KLFT LFT20190225072510502/25/19 07:25:31  5-MIN KLFT 251325Z 02005KT 10SM CLR 08/02 A3037 -370 68 -1200 020/05 RMK AO2 T00780022
13976KLFT LFT20190225073010502/25/19 07:30:31  5-MIN KLFT 251330Z 04004KT 10SM CLR 08/02 A3037 -370 63 -1200 040/04 RMK AO2 T00830017
13976KLFT LFT20190225073510502/25/19 07:35:31  5-MIN KLFT 251335Z 04004KT 10SM CLR 08/02 A3037 -360 65 -1200 040/04 RMK AO2 T00830022
13976KLFT LFT20190225074010502/25/19 07:40:31  5-MIN KLFT 251340Z 05004KT 10SM CLR 09/02 A3037 -360 63 -1100 050/04 RMK AO2 T00890022
13976KLFT LFT20190225074510502/25/19 07:45:31  5-MIN KLFT 251345Z 04005KT 10SM CLR 09/02 A3037 -370 58 -1000 040/05 RMK AO2 T00940017
13976KLFT LFT20190225075011202/25/19 07:50:31  5-MIN KLFT 251350Z 03004KT 10SM CLR 09/02 A3038 -370 60 -1000 030/04 RMK AO2 SLP286 T00940022
13976KLFT LFT20190225075510502/25/19 07:55:31  5-MIN KLFT 251355Z 04006KT 10SM CLR 09/02 A3037 -370 60 -1000 040/06 RMK AO2 T00940022
13976KLFT LFT20190225080010502/25/19 08:00:31  5-MIN KLFT 251400Z 05004KT 10SM CLR 10/02 A3038 -370 56 -1000 050/04 RMK AO2 T01000017
13976KLFT LFT20190225080510502/25/19 08:05:31  5-MIN KLFT 251405Z VRB05KT 10SM CLR 10/02 A3038 -380 56 -1000 VRB/05 RMK AO2 T01000017
13976KLFT LFT20190225081010502/25/19 08:10:31  5-MIN KLFT 251410Z VRB05KT 10SM CLR 10/01 A3038 -370 54 -1000 VRB/05 RMK AO2 T01000011
13976KLFT LFT20190225081510502/25/19 08:15:31  5-MIN KLFT 251415Z 07005KT 10SM CLR 10/01 A3038 -370 52 -1000 070/05 RMK AO2 T01000006
13976KLFT LFT20190225082010402/25/19 08:20:31  5-MIN KLFT 251420Z VRB05KT 10SM CLR 11/01 A3038 -370 50 -900 VRB/05 RMK AO2 T01060006
13976KLFT LFT20190225082510402/25/19 08:25:31  5-MIN KLFT 251425Z VRB06KT 10SM CLR 11/00 A3038 -370 48 -900 VRB/06 RMK AO2 T01060000
13976KLFT LFT20190225083010402/25/19 08:30:31  5-MIN KLFT 251430Z 07006KT 10SM CLR 11/00 A3038 -370 46 -800 070/06 RMK AO2 T01110000
13976KLFT LFT20190225083510402/25/19 08:35:31  5-MIN KLFT 251435Z 07006KT 10SM CLR 11/01 A3037 -370 48 -800 060/06 RMK AO2 T01110006
13976KLFT LFT20190225084011002/25/19 08:40:31  5-MIN KLFT 251440Z 06009G15KT 10SM CLR 11/00 A3038 -370 46 -800 060/09G15 RMK AO2 T01110000
13976KLFT LFT20190225084511002/25/19 08:45:31  5-MIN KLFT 251445Z VRB06G15KT 10SM CLR 11/00 A3038 -380 46 -800 VRB/06G15 RMK AO2 T01110000
13976KLFT LFT20190225085011702/25/19 08:50:31  5-MIN KLFT 251450Z 07007KT 10SM CLR 11/00 A3038 -380 46 -800 070/07 RMK AO2 SLP288 T01110000 53010
13976KLFT LFT20190225085510502/25/19 08:55:31  5-MIN KLFT 251455Z 06006KT 10SM CLR 12/M01 A3038 -370 42 -800 060/06 RMK AO2 T01171006
13976KLFT LFT20190225090010402/25/19 09:00:31  5-MIN KLFT 251500Z VRB05KT 10SM CLR 12/00 A3038 -380 44 -800 VRB/05 RMK AO2 T01170000
13976KLFT LFT20190225090510402/25/19 09:05:31  5-MIN KLFT 251505Z 06008KT 10SM CLR 12/00 A3039 -380 44 -800 060/08 RMK AO2 T01170000
13976KLFT LFT20190225091010502/25/19 09:10:31  5-MIN KLFT 251510Z 07007KT 10SM CLR 12/M01 A3039 -390 42 -800 070/07 RMK AO2 T01171006
13976KLFT LFT20190225091510502/25/19 09:15:31  5-MIN KLFT 251515Z 07009KT 10SM CLR 12/M01 A3039 -380 41 -700 070/09 RMK AO2 T01221006
13976KLFT LFT20190225092010502/25/19 09:20:31  5-MIN KLFT 251520Z 06009KT 10SM CLR 12/M01 A3039 -380 41 -800 060/09 RMK AO2 T01171011
13976KLFT LFT20190225092510502/25/19 09:25:31  5-MIN KLFT 251525Z 07008KT 10SM CLR 12/M01 A3039 -390 41 -800 070/08 RMK AO2 T01171011
13976KLFT LFT20190225093010502/25/19 09:30:31  5-MIN KLFT 251530Z 09007KT 10SM CLR 12/M01 A3040 -390 41 -800 090/07 RMK AO2 T01171011
13976KLFT LFT20190225093510502/25/19 09:35:31  5-MIN KLFT 251535Z 07006KT 10SM CLR 12/M01 A3040 -390 42 -800 070/06 RMK AO2 T01171006
13976KLFT LFT20190225094010402/25/19 09:40:31  5-MIN KLFT 251540Z 07004KT 10SM CLR 12/00 A3040 -390 43 -700 070/04 RMK AO2 T01220000
13976KLFT LFT20190225094510502/25/19 09:45:31  5-MIN KLFT 251545Z 07007KT 10SM CLR 12/M01 A3039 -390 41 -700 070/07 RMK AO2 T01221006
13976KLFT LFT20190225095011102/25/19 09:50:31  5-MIN KLFT 251550Z 07007KT 10SM CLR 12/00 A3040 -390 43 -700 060/07 RMK AO2 SLP292 T01220000
13976KLFT LFT20190225095510402/25/19 09:55:31  5-MIN KLFT 251555Z 06008KT 10SM CLR 12/00 A3039 -380 43 -700 060/08 RMK AO2 T01220000
13976KLFT LFT20190225100010402/25/19 10:00:31  5-MIN KLFT 251600Z 07007KT 10SM CLR 12/00 A3039 -380 43 -700 070/07 RMK AO2 T01220000
13976KLFT LFT20190225100510402/25/19 10:05:31  5-MIN KLFT 251605Z 06008KT 10SM CLR 13/00 A3038 -380 41 -600 060/08 RMK AO2 T01280000
13976KLFT LFT20190225101010402/25/19 10:10:31  5-MIN KLFT 251610Z 07007KT 10SM CLR 13/00 A3038 -370 41 -600 070/07 RMK AO2 T01280000
13976KLFT LFT20190225101511102/25/19 10:15:31  5-MIN KLFT 251615Z 07008G14KT 10SM CLR 13/M01 A3038 -380 39 -600 070/08G14 RMK AO2 T01281006
13976KLFT LFT20190225102010502/25/19 10:20:31  5-MIN KLFT 251620Z 07007KT 10SM CLR 13/M01 A3039 -380 39 -600 070/07 RMK AO2 T01281006
13976KLFT LFT20190225102511002/25/19 10:25:31  5-MIN KLFT 251625Z VRB05G14KT 10SM CLR 13/00 A3039 -380 40 -600 VRB/05G14 RMK AO2 T01330000
13976KLFT LFT20190225103010502/25/19 10:30:31  5-MIN KLFT 251630Z 06007KT 10SM CLR 13/M01 A3039 -380 38 -600 060/07 RMK AO2 T01331006
13976KLFT LFT20190225103510402/25/19 10:35:31  5-MIN KLFT 251635Z VRB03KT 10SM CLR 14/00 A3039 -380 38 -500 VRB/03 RMK AO2 T01390000
13976KLFT LFT20190225104010402/25/19 10:40:31  5-MIN KLFT 251640Z 07006KT 10SM CLR 14/00 A3038 -380 38 -500 070/06 RMK AO2 T01390000
13976KLFT LFT20190225104510402/25/19 10:45:31  5-MIN KLFT 251645Z 07006KT 10SM CLR 14/00 A3039 -380 37 -400 070/06 RMK AO2 T01440000
13976KLFT LFT20190225105011202/25/19 10:50:31  5-MIN KLFT 251650Z VRB05KT 10SM CLR 15/M01 A3039 -380 34 -400 VRB/05 RMK AO2 SLP289 T01501006
13976KLFT LFT20190225105512102/25/19 10:55:31  5-MIN KLFT 251655Z 08007KT 040V100 10SM CLR 15/M01 A3038 -380 33 -400 080/07 040V100 RMK AO2 T01501011
13976KLFT LFT20190225110010502/25/19 11:00:31  5-MIN KLFT 251700Z 07009KT 10SM CLR 14/M02 A3038 -380 33 -400 070/09 RMK AO2 T01441017
13976KLFT LFT20190225110510502/25/19 11:05:31  5-MIN KLFT 251705Z VRB05KT 10SM CLR 14/M02 A3038 -380 33 -400 VRB/05 RMK AO2 T01441017
13976KLFT LFT20190225111010502/25/19 11:10:31  5-MIN KLFT 251710Z VRB06KT 10SM CLR 14/M02 A3038 -380 33 -400 VRB/06 RMK AO2 T01441017
13976KLFT LFT20190225111510502/25/19 11:15:31  5-MIN KLFT 251715Z 11008KT 10SM CLR 14/M02 A3038 -380 31 -400 100/08 RMK AO2 T01441022
13976KLFT LFT20190225112010502/25/19 11:20:31  5-MIN KLFT 251720Z 09007KT 10SM CLR 14/M02 A3038 -370 31 -400 090/07 RMK AO2 T01441022
13976KLFT LFT20190225112510502/25/19 11:25:31  5-MIN KLFT 251725Z 08007KT 10SM CLR 14/M02 A3037 -370 31 -400 080/07 RMK AO2 T01441022
13976KLFT LFT20190225113011102/25/19 11:30:31  5-MIN KLFT 251730Z 10008G14KT 10SM CLR 14/M02 A3037 -370 33 -400 100/08G14 RMK AO2 T01441017
13976KLFT LFT20190225113511102/25/19 11:35:31  5-MIN KLFT 251735Z 08010G18KT 10SM CLR 15/M02 A3037 -360 31 -400 080/10G18 RMK AO2 T01501017
13976KLFT LFT20190225114011102/25/19 11:40:31  5-MIN KLFT 251740Z 10007G18KT 10SM CLR 15/M02 A3037 -360 31 -400 100/07G18 RMK AO2 T01501017
13976KLFT LFT20190225114512702/25/19 11:45:31  5-MIN KLFT 251745Z 11007G16KT 070V130 10SM CLR 14/M02 A3037 -370 33 -400 110/07G16 070V130 RMK AO2 T01441017
13976KLFT LFT20190225115013602/25/19 11:50:31  5-MIN KLFT 251750Z VRB06G14KT 10SM CLR 15/M02 A3037 -370 31 -400 VRB/06G14 RMK AO2 SLP285 T01501017 10150 20067 51016
13976KLFT LFT20190225115510502/25/19 11:55:31  5-MIN KLFT 251755Z 11008KT 10SM CLR 15/M02 A3037 -360 31 -400 110/08 RMK AO2 T01501017
13976KLFT LFT20190225120012102/25/19 12:00:31  5-MIN KLFT 251800Z 10007KT 060V130 10SM CLR 15/M02 A3036 -360 31 -400 100/07 060V130 RMK AO2 T01501017
13976KLFT LFT20190225120510502/25/19 12:05:31  5-MIN KLFT 251805Z 11005KT 10SM CLR 15/M01 A3036 -360 33 -400 110/05 RMK AO2 T01501011
13976KLFT LFT20190225121010502/25/19 12:10:31  5-MIN KLFT 251810Z VRB04KT 10SM CLR 15/M01 A3036 -360 33 -400 VRB/04 RMK AO2 T01501011
13976KLFT LFT20190225121511402/25/19 12:15:31  5-MIN KLFT 251815Z 09010G15KT 10SM SCT120 16/M01 A3036 -360 33 -300 090/10G15 RMK AO2 T01561006
13976KLFT LFT20190225122011402/25/19 12:20:31  5-MIN KLFT 251820Z VRB06G15KT 10SM SCT120 15/M01 A3036 -350 34 -400 VRB/06G15 RMK AO2 T01501006
13976KLFT LFT20190225122510702/25/19 12:25:31  5-MIN KLFT 251825Z 07008KT 10SM SCT120 16/00 A3036 -350 33 -200 070/08 RMK AO2 T01610000
13976KLFT LFT20190225123011302/25/19 12:30:31  5-MIN KLFT 251830Z VRB06G15KT 10SM SCT120 16/00 A3035 -350 33 -200 VRB/06G15 RMK AO2 T01610000
13976KLFT LFT20190225123510702/25/19 12:35:31  5-MIN KLFT 251835Z VRB06KT 10SM SCT120 16/00 A3035 -340 33 -200 VRB/06 RMK AO2 T01610000
13976KLFT LFT20190225124012302/25/19 12:40:31  5-MIN KLFT 251840Z 12007KT 080V150 10SM SCT120 16/00 A3035 -340 33 -200 120/07 080V150 RMK AO2 T01610000
13976KLFT LFT20190225124510702/25/19 12:45:31  5-MIN KLFT 251845Z 12008KT 10SM SCT120 17/01 A3034 -340 33 -100 120/08 RMK AO2 T01670006
13976KLFT LFT20190225125011402/25/19 12:50:31  5-MIN KLFT 251850Z VRB04KT 10SM FEW120 16/01 A3034 -340 34 -200 VRB/04 RMK AO2 SLP273 T01610006
13976KLFT LFT20190225125510702/25/19 12:55:31  5-MIN KLFT 251855Z 09007KT 10SM FEW120 16/01 A3033 -330 34 -200 080/07 RMK AO2 T01610006
13976KLFT LFT20190225130011402/25/19 13:00:31  5-MIN KLFT 251900Z VRB05KT 10SM FEW120 16/00 A3033 -330 33 -200 VRB/05 RMK AO2 PRESFR T01610000
13976KLFT LFT20190225130511402/25/19 13:05:31  5-MIN KLFT 251905Z 08008KT 10SM SCT110 16/01 A3032 -320 34 -200 080/08 RMK AO2 PRESFR T01610006
13976KLFT LFT20190225131011402/25/19 13:10:31  5-MIN KLFT 251910Z 09009KT 10SM BKN110 16/01 A3031 -310 34 -200 080/09 RMK AO2 PRESFR T01610006
13976KLFT LFT20190225131510702/25/19 13:15:31  5-MIN KLFT 251915Z VRB06KT 10SM BKN110 16/01 A3032 -320 34 -200 VRB/06 RMK AO2 T01610006
13976KLFT LFT20190225132010702/25/19 13:20:31  5-MIN KLFT 251920Z 08007KT 10SM BKN110 17/01 A3031 -310 34 -100 080/07 RMK AO2 T01670011
13976KLFT LFT20190225132510702/25/19 13:25:31  5-MIN KLFT 251925Z 08008KT 10SM BKN110 16/01 A3031 -310 34 -200 080/08 RMK AO2 T01610006
13976KLFT LFT20190225133010702/25/19 13:30:31  5-MIN KLFT 251930Z VRB06KT 10SM BKN110 17/01 A3031 -310 33 -100 VRB/06 RMK AO2 T01670006
13976KLFT LFT20190225133512302/25/19 13:35:31  5-MIN KLFT 251935Z 12007KT 090V150 10SM BKN110 16/01 A3031 -310 36 -200 110/07 090V150 RMK AO2 T01610011
13976KLFT LFT20190225134010702/25/19 13:40:31  5-MIN KLFT 251940Z VRB06KT 10SM OVC110 16/01 A3030 -300 36 -200 VRB/06 RMK AO2 T01610011
13976KLFT LFT20190225134512302/25/19 13:45:31  5-MIN KLFT 251945Z 09007KT 050V120 10SM OVC110 16/01 A3030 -300 36 -200 090/07 050V120 RMK AO2 T01610011
13976KLFT LFT20190225135011402/25/19 13:50:31  5-MIN KLFT 251950Z 11006KT 10SM BKN110 16/01 A3030 -300 36 -200 100/06 RMK AO2 SLP259 T01610011
13976KLFT LFT20190225135510702/25/19 13:55:31  5-MIN KLFT 251955Z 09006KT 10SM BKN110 17/02 A3029 -300 36 -100 090/06 RMK AO2 T01670017
13976KLFT LFT20190225140010702/25/19 14:00:31  5-MIN KLFT 252000Z 09010KT 10SM BKN110 17/01 A3029 -290 34 -100 090/10 RMK AO2 T01670011
13976KLFT LFT20190225140512302/25/19 14:05:31  5-MIN KLFT 252005Z 10007KT 050V130 10SM BKN110 17/01 A3029 -290 34 -100 090/07 050V130 RMK AO2 T01670011
13976KLFT LFT20190225141012302/25/19 14:10:31  5-MIN KLFT 252010Z 13007KT 090V170 10SM SCT110 16/01 A3029 -290 36 -100 130/07 090V170 RMK AO2 T01610011
13976KLFT LFT20190225141510702/25/19 14:15:31  5-MIN KLFT 252015Z 08006KT 10SM SCT110 16/01 A3029 -290 36 -100 080/06 RMK AO2 T01610011
13976KLFT LFT20190225142010702/25/19 14:20:31  5-MIN KLFT 252020Z VRB06KT 10SM SCT110 16/01 A3029 -290 36 -100 VRB/06 RMK AO2 T01610011
13976KLFT LFT20190225142510702/25/19 14:25:31  5-MIN KLFT 252025Z VRB03KT 10SM SCT110 16/02 A3029 -290 37 -100 VRB/03 RMK AO2 T01610017
13976KLFT LFT20190225143010702/25/19 14:30:31  5-MIN KLFT 252030Z VRB04KT 10SM SCT110 16/02 A3029 -290 37 -100 VRB/04 RMK AO2 T01610017
13976KLFT LFT20190225143510702/25/19 14:35:31  5-MIN KLFT 252035Z 00000KT 10SM SCT110 16/02 A3029 -290 37 -100 000/00 RMK AO2 T01610017
13976KLFT LFT20190225144009702/25/19 14:40:31  5-MIN KLFT 252040Z 10SM BKN110 16/02 A3029 -290 37 -100 M /M RMK AO2 T01610017
13976KLFT LFT20190225144510702/25/19 14:45:31  5-MIN KLFT 252045Z VRB06KT 10SM BKN110 16/02 A3029 -290 37 -100 VRB/06 RMK AO2 T01610017
13976KLFT LFT20190225145012002/25/19 14:50:31  5-MIN KLFT 252050Z 09005KT 10SM BKN110 16/02 A3029 -290 37 -100 090/05 RMK AO2 SLP256 T01610017 58003
13976KLFT LFT20190225145510702/25/19 14:55:31  5-MIN KLFT 252055Z 07004KT 10SM BKN110 16/02 A3029 -290 37 -100 070/04 RMK AO2 T01610017
13976KLFT LFT20190225150010702/25/19 15:00:31  5-MIN KLFT 252100Z VRB05KT 10SM BKN110 16/02 A3030 -300 37 -200 VRB/05 RMK AO2 T01610017
13976KLFT LFT20190225150510702/25/19 15:05:31  5-MIN KLFT 252105Z 09008KT 10SM OVC110 16/02 A3031 -300 37 -200 090/08 RMK AO2 T01610017
13976KLFT LFT20190225151011402/25/19 15:10:31  5-MIN KLFT 252110Z VRB05KT 10SM OVC110 16/02 A3032 -310 39 -200 VRB/05 RMK AO2 PRESRR T01560017
13976KLFT LFT20190225151510702/25/19 15:15:31  5-MIN KLFT 252115Z VRB03KT 10SM OVC110 16/02 A3032 -320 40 -200 VRB/03 RMK AO2 T01560022
13976KLFT LFT20190225152010702/25/19 15:20:31  5-MIN KLFT 252120Z 14003KT 10SM OVC110 16/03 A3032 -310 42 -200 130/03 RMK AO2 T01560028
13976KLFT LFT20190225152510702/25/19 15:25:31  5-MIN KLFT 252125Z VRB05KT 10SM OVC110 16/03 A3031 -310 42 -200 VRB/05 RMK AO2 T01560028
13976KLFT LFT20190225153010702/25/19 15:30:31  5-MIN KLFT 252130Z 12005KT 10SM OVC110 16/02 A3032 -320 40 -200 120/05 RMK AO2 T01560022
13976KLFT LFT20190225153510702/25/19 15:35:31  5-MIN KLFT 252135Z 11005KT 10SM OVC110 16/02 A3031 -310 40 -200 110/05 RMK AO2 T01560022
13976KLFT LFT20190225154010702/25/19 15:40:31  5-MIN KLFT 252140Z 11004KT 10SM BKN110 16/03 A3031 -310 42 -200 110/04 RMK AO2 T01560028
13976KLFT LFT20190225154510702/25/19 15:45:31  5-MIN KLFT 252145Z 11005KT 10SM BKN110 16/03 A3030 -300 42 -200 110/05 RMK AO2 T01560028
13976KLFT LFT20190225155012102/25/19 15:50:31  5-MIN KLFT 252150Z VRB03KT 10SM FEW060 BKN110 15/03 A3030 -300 43 -300 VRB/03 RMK AO2 SLP259 T01500028
13976KLFT LFT20190225155511402/25/19 15:55:31  5-MIN KLFT 252155Z 08003KT 10SM FEW060 BKN110 15/03 A3030 -300 45 -300 080/03 RMK AO2 T01500033
13976KLFT LFT20190225160012102/25/19 16:00:31  5-MIN KLFT 252200Z 06006KT 10SM FEW060 FEW100 SCT120 15/03 A3030 -300 45 -300 060/06 RMK AO2 T01500033
13976KLFT LFT20190225160511402/25/19 16:05:31  5-MIN KLFT 252205Z 05004KT 10SM FEW060 BKN110 15/03 A3030 -300 43 -300 050/04 RMK AO2 T01500028
13976KLFT LFT20190225161011402/25/19 16:10:31  5-MIN KLFT 252210Z 05004KT 10SM FEW060 BKN110 15/03 A3031 -310 45 -300 050/04 RMK AO2 T01500033
13976KLFT LFT20190225161513002/25/19 16:15:31  5-MIN KLFT 252215Z VRB04KT 10SM -RA FEW060 BKN110 15/04 A3031 -310 47 -300 VRB/04 RMK AO2 RAB11 P0000 T01500039
13976KLFT LFT20190225162012202/25/19 16:20:31  5-MIN KLFT 252220Z 10003KT 9SM -RA BKN100 14/04 A3031 -310 51 -400 100/03 RMK AO2 RAB11 P0000 T01440044
13976KLFT LFT20190225162512102/25/19 16:25:31  5-MIN KLFT 252225Z 09003KT 8SM RA OVC100 14/05 A3031 -310 55 -400 090/03 RMK AO2 RAB11 P0001 T01390050
13976KLFT LFT20190225163012102/25/19 16:30:31  5-MIN KLFT 252230Z 00000KT 8SM RA OVC100 13/06 A3031 -310 61 -500 000/00 RMK AO2 RAB11 P0002 T01330061
13976KLFT LFT20190225163512202/25/19 16:35:31  5-MIN KLFT 252235Z 08003KT 9SM -RA OVC100 13/06 A3031 -310 63 -600 080/03 RMK AO2 RAB11 P0002 T01280061
13976KLFT LFT20190225164012302/25/19 16:40:31  5-MIN KLFT 252240Z 06003KT 10SM -RA OVC100 13/07 A3031 -310 66 -600 060/03 RMK AO2 RAB11 P0002 T01280067
13976KLFT LFT20190225164512302/25/19 16:45:31  5-MIN KLFT 252245Z 00000KT 10SM -RA OVC100 13/07 A3032 -320 66 -600 000/00 RMK AO2 RAB11 P0002 T01280067
13976KLFT LFT20190225165013602/25/19 16:50:31  5-MIN KLFT 252250Z 00000KT 9SM -RA BKN090 OVC110 13/07 A3033 -320 66 -600 000/00 RMK AO2 RAB11 SLP268 P0003 T01280067
13976KLFT LFT20190225165513602/25/19 16:55:31  5-MIN KLFT 252255Z 00000KT 6SM RA FEW075 BKN090 OVC110 13/07 A3034 -330 66 -600 000/00 RMK AO2 PRESRR P0000 T01280067
13976KLFT LFT20190225170012202/25/19 17:00:31  5-MIN KLFT 252300Z 33003KT 5SM RA SCT075 OVC090 13/08 A3034 -340 71 -600 330/03 RMK AO2 P0001 T01280078
13976KLFT LFT20190225170512202/25/19 17:05:31  5-MIN KLFT 252305Z 31004KT 5SM RA FEW065 OVC085 12/08 A3034 -340 77 -700 310/04 RMK AO2 P0002 T01220083
13976KLFT LFT20190225171012902/25/19 17:10:31  5-MIN KLFT 252310Z 32004KT 5SM RA SCT065 BKN090 OVC110 12/09 A3034 -340 80 -700 320/04 RMK AO2 P0003 T01220089
13976KLFT LFT20190225171513002/25/19 17:15:31  5-MIN KLFT 252315Z 31005KT 7SM -RA FEW060 BKN090 OVC110 12/09 A3035 -340 83 -700 310/05 RMK AO2 P0003 T01220094
13976KLFT LFT20190225172012302/25/19 17:20:31  5-MIN KLFT 252320Z 32006KT 7SM -RA SCT080 OVC100 12/09 A3035 -350 83 -700 320/06 RMK AO2 P0003 T01220094
13976KLFT LFT20190225172513002/25/19 17:25:31  5-MIN KLFT 252325Z 34005KT 7SM -RA FEW065 BKN090 OVC110 12/09 A3035 -350 83 -700 340/05 RMK AO2 P0003 T01220094
13976KLFT LFT20190225173012302/25/19 17:30:31  5-MIN KLFT 252330Z 34004KT 9SM -RA FEW065 OVC100 12/09 A3035 -350 83 -700 340/04 RMK AO2 P0003 T01220094
13976KLFT LFT20190225173511702/25/19 17:35:31  5-MIN KLFT 252335Z 00000KT 10SM -RA OVC100 12/09 A3035 -340 83 -700 000/00 RMK AO2 P0003 T01220094
13976KLFT LFT20190225174011702/25/19 17:40:31  5-MIN KLFT 252340Z 12004KT 10SM -RA OVC100 12/09 A3034 -340 83 -700 120/04 RMK AO2 P0003 T01220094
13976KLFT LFT20190225174511702/25/19 17:45:31  5-MIN KLFT 252345Z 08003KT 10SM -RA OVC095 12/09 A3033 -330 86 -700 080/03 RMK AO2 P0003 T01170094
13976KLFT LFT20190225175014802/25/19 17:50:31  5-MIN KLFT 252350Z 07003KT 10SM -RA OVC095 12/09 A3033 -330 83 -700 070/03 RMK AO2 SLP269 P0004 60008 T01170089 10167 20117 56027
13976KLFT LFT20190225175511602/25/19 17:55:31  5-MIN KLFT 252355Z 07004KT 10SM RA OVC090 11/09 A3033 -330 86 -800 070/04 RMK AO2 P0000 T01110089
13976KLFT LFT20190225180011502/25/19 18:00:31  5-MIN KLFT 260000Z 07003KT 7SM RA OVC090 11/09 A3032 -320 86 -800 070/03 RMK AO2 P0001 T01110089
13976KLFT LFT20190225180511502/25/19 18:05:31  5-MIN KLFT 260005Z 06003KT 7SM RA OVC090 11/09 A3032 -320 86 -800 060/03 RMK AO2 P0002 T01110089
13976KLFT LFT20190225181012402/25/19 18:10:31  5-MIN KLFT 260010Z 07004KT 10SM -RA BKN085 OVC110 11/09 A3032 -310 86 -800 070/04 RMK AO2 P0002 T01110089
13976KLFT LFT20190225181512402/25/19 18:15:31  5-MIN KLFT 260015Z 07003KT 10SM -RA BKN085 OVC100 11/09 A3032 -320 86 -800 070/03 RMK AO2 P0002 T01110089
13976KLFT LFT20190225182012402/25/19 18:20:31  5-MIN KLFT 260020Z 08003KT 10SM -RA BKN090 OVC110 11/09 A3031 -310 86 -800 080/03 RMK AO2 P0002 T01110089
13976KLFT LFT20190225182512402/25/19 18:25:31  5-MIN KLFT 260025Z 09003KT 10SM -RA SCT090 OVC110 11/09 A3031 -310 89 -800 090/03 RMK AO2 P0002 T01110094
13976KLFT LFT20190225183012402/25/19 18:30:31  5-MIN KLFT 260030Z 09003KT 10SM -RA FEW090 OVC110 11/09 A3030 -300 89 -800 090/03 RMK AO2 P0002 T01110094
13976KLFT LFT20190225183511702/25/19 18:35:31  5-MIN KLFT 260035Z 11003KT 10SM -RA OVC100 11/09 A3030 -300 89 -800 110/03 RMK AO2 P0002 T01110094
13976KLFT LFT20190225184012402/25/19 18:40:31  5-MIN KLFT 260040Z 11005KT 10SM -RA OVC100 11/09 A3029 -290 86 -700 110/05 RMK AO2 PRESFR P0002 T01110089
13976KLFT LFT20190225184512402/25/19 18:45:31  5-MIN KLFT 260045Z 11006KT 10SM -RA OVC100 11/09 A3028 -280 86 -700 110/06 RMK AO2 PRESFR P0003 T01110089
13976KLFT LFT20190225185013102/25/19 18:50:31  5-MIN KLFT 260050Z 12006KT 10SM -RA OVC100 11/09 A3027 -270 86 -700 120/06 RMK AO2 PRESFR SLP250 P0003 T01110089
13976KLFT LFT20190225185512302/25/19 18:55:31  5-MIN KLFT 260055Z 13007G14KT 10SM -RA OVC100 11/09 A3027 -270 86 -700 130/07G14 RMK AO2 P0000 T01110089
13976KLFT LFT20190225190012302/25/19 19:00:31  5-MIN KLFT 260100Z 12007G14KT 10SM -RA OVC100 11/09 A3027 -270 86 -700 120/07G14 RMK AO2 P0000 T01110089
13976KLFT LFT20190225190513302/25/19 19:05:31  5-MIN KLFT 260105Z 12007KT 090V160 10SM -RA OVC100 11/09 A3027 -270 86 -700 120/07 090V160 RMK AO2 P0001 T01110089
13976KLFT LFT20190225191013302/25/19 19:10:31  5-MIN KLFT 260110Z 12008KT 090V160 10SM -RA OVC100 11/08 A3026 -270 83 -700 120/08 090V160 RMK AO2 P0001 T01110083
13976KLFT LFT20190225191512302/25/19 19:15:31  5-MIN KLFT 260115Z 11008G16KT 10SM -RA OVC100 11/08 A3026 -260 83 -700 110/08G16 RMK AO2 P0001 T01110083
13976KLFT LFT20190225192014602/25/19 19:20:31  5-MIN KLFT 260120Z 12010G18KT 100V160 10SM -RA OVC100 11/08 A3022 -230 83 -700 120/10G18 100V160 RMK AO2 PRESFR P0002 T01110083
13976KLFT LFT20190225192513902/25/19 19:25:31  5-MIN KLFT 260125Z 12008G21KT 090V160 10SM -RA OVC100 11/08 A3022 -230 83 -700 120/08G21 090V160 RMK AO2 P0002 T01110083
13976KLFT LFT20190225193012302/25/19 19:30:31  5-MIN KLFT 260130Z VRB06G21KT 10SM -RA OVC110 11/08 A3025 -250 83 -700 VRB/06G21 RMK AO2 P0002 T01110083
13976KLFT LFT20190225193513302/25/19 19:35:31  5-MIN KLFT 260135Z 10007KT 070V140 10SM -RA OVC110 11/08 A3025 -260 83 -700 100/07 070V140 RMK AO2 P0002 T01110083
13976KLFT LFT20190225194011702/25/19 19:40:31  5-MIN KLFT 260140Z VRB06KT 10SM -RA OVC110 11/08 A3025 -260 83 -700 VRB/06 RMK AO2 P0002 T01110083
13976KLFT LFT20190225194511702/25/19 19:45:31  5-MIN KLFT 260145Z 11008KT 10SM -RA OVC110 11/08 A3025 -250 83 -700 110/08 RMK AO2 P0003 T01110083
13976KLFT LFT20190225195012402/25/19 19:50:31  5-MIN KLFT 260150Z VRB04KT 10SM -RA OVC110 11/08 A3026 -270 83 -700 VRB/04 RMK AO2 SLP247 P0003 T01110083
13976KLFT LFT20190225195511702/25/19 19:55:31  5-MIN KLFT 260155Z 00000KT 10SM -RA OVC110 11/09 A3027 -270 86 -700 000/00 RMK AO2 P0000 T01110089
13976KLFT LFT20190225200011702/25/19 20:00:31  5-MIN KLFT 260200Z VRB03KT 10SM -RA OVC110 12/08 A3027 -270 80 -600 VRB/03 RMK AO2 P0000 T01170083
13976KLFT LFT20190225200511702/25/19 20:05:31  5-MIN KLFT 260205Z 10003KT 10SM -RA OVC110 11/08 A3027 -270 83 -700 100/03 RMK AO2 P0000 T01110083
13976KLFT LFT20190225201011702/25/19 20:10:31  5-MIN KLFT 260210Z VRB03KT 10SM -RA OVC110 11/08 A3028 -280 83 -700 VRB/03 RMK AO2 P0000 T01110083
13976KLFT LFT20190225201511702/25/19 20:15:31  5-MIN KLFT 260215Z 01006KT 10SM -RA OVC110 11/08 A3029 -290 83 -700 010/06 RMK AO2 P0001 T01110083
13976KLFT LFT20190225202011702/25/19 20:20:31  5-MIN KLFT 260220Z 02005KT 10SM -RA OVC110 11/08 A3027 -280 83 -700 020/05 RMK AO2 P0001 T01110083
13976KLFT LFT20190225202514002/25/19 20:25:31  5-MIN KLFT 260225Z 09007KT 060V130 10SM -RA OVC110 11/09 A3024 -240 86 -700 090/07 060V130 RMK AO2 PRESFR P0001 T01110089
13976KLFT LFT20190225203011702/25/19 20:30:31  5-MIN KLFT 260230Z VRB04KT 10SM -RA OVC100 11/09 A3027 -280 89 -800 VRB/04 RMK AO2 P0002 T01060089
13976KLFT LFT20190225203512402/25/19 20:35:31  5-MIN KLFT 260235Z 33008KT 10SM -RA FEW050 OVC100 11/09 A3029 -290 86 -700 330/08 RMK AO2 P0002 T01110089
13976KLFT LFT20190225204012402/25/19 20:40:31  5-MIN KLFT 260240Z 35006KT 10SM -RA SCT044 OVC100 11/09 A3028 -280 86 -700 350/06 RMK AO2 P0002 T01110089
13976KLFT LFT20190225204512402/25/19 20:45:31  5-MIN KLFT 260245Z 36005KT 10SM -RA SCT042 BKN100 11/09 A3029 -290 86 -700 350/05 RMK AO2 P0002 T01110089
13976KLFT LFT20190225205014502/25/19 20:50:31  5-MIN KLFT 260250Z 02006KT 10SM FEW044 BKN100 11/09 A3028 -290 86 -700 020/06 RMK AO2 RAE49 SLP254 P0002 60008 T01110089 50013
13976KLFT LFT20190225205511402/25/19 20:55:31  5-MIN KLFT 260255Z 05004KT 10SM FEW044 SCT100 11/09 A3028 -280 89 -800 050/04 RMK AO2 T01060089
13976KLFT LFT20190225210010702/25/19 21:00:31  5-MIN KLFT 260300Z 06004KT 10SM FEW044 11/09 A3028 -280 93 -800 060/04 RMK AO2 T01060094
13976KLFT LFT20190225210510702/25/19 21:05:31  5-MIN KLFT 260305Z 05003KT 10SM FEW037 11/09 A3029 -290 93 -800 050/03 RMK AO2 T01060094
13976KLFT LFT20190225211010702/25/19 21:10:31  5-MIN KLFT 260310Z 06005KT 10SM FEW120 11/09 A3028 -280 93 -800 060/05 RMK AO2 T01060094
13976KLFT LFT20190225211510702/25/19 21:15:31  5-MIN KLFT 260315Z 03004KT 10SM SCT110 11/09 A3029 -290 93 -800 030/04 RMK AO2 T01060094
13976KLFT LFT20190225212012102/25/19 21:20:31  5-MIN KLFT 260320Z 05003KT 10SM FEW065 FEW095 SCT110 11/09 A3029 -290 93 -800 050/03 RMK AO2 T01060094
13976KLFT LFT20190225212512102/25/19 21:25:31  5-MIN KLFT 260325Z 02004KT 10SM FEW065 FEW095 SCT110 11/09 A3030 -300 93 -800 020/04 RMK AO2 T01060094
13976KLFT LFT20190225213011402/25/19 21:30:31  5-MIN KLFT 260330Z 36003KT 10SM FEW095 FEW110 11/09 A3031 -310 89 -800 360/03 RMK AO2 T01110094
13976KLFT LFT20190225213511402/25/19 21:35:31  5-MIN KLFT 260335Z 00000KT 10SM FEW095 FEW110 11/09 A3030 -300 89 -800 000/00 RMK AO2 T01110094
13976KLFT LFT20190225214011402/25/19 21:40:31  5-MIN KLFT 260340Z 00000KT 10SM FEW095 FEW120 11/09 A3030 -300 89 -800 000/00 RMK AO2 T01110094
13976KLFT LFT20190225214511402/25/19 21:45:31  5-MIN KLFT 260345Z 00000KT 10SM FEW095 SCT120 11/09 A3031 -310 89 -800 000/00 RMK AO2 T01110094
13976KLFT LFT20190225215012102/25/19 21:50:31  5-MIN KLFT 260350Z 00000KT 10SM FEW080 BKN110 11/09 A3030 -300 89 -800 000/00 RMK AO2 SLP261 T01110094
13976KLFT LFT20190225215512202/25/19 21:55:31  5-MIN KLFT 260355Z 10003KT 9SM RA FEW090 BKN110 11/09 A3029 -290 89 -700 100/03 RMK AO2 P0001 T01110094
13976KLFT LFT20190225220012902/25/19 22:00:31  5-MIN KLFT 260400Z 00000KT 7SM RA FEW075 BKN100 BKN120 11/09 A3029 -300 93 -800 000/00 RMK AO2 P0002 T01060094
13976KLFT LFT20190225220513402/25/19 22:05:31  5-MIN KLFT 260405Z AUTO 05004KT 7SM RA FEW070 BKN100 OVC120 11/09 A3029 -290 93 -800 050/04 RMK AO2 P0002 T01060094
13976KLFT LFT20190225221013402/25/19 22:10:31  5-MIN KLFT 260410Z AUTO 06003KT 8SM RA FEW075 BKN095 OVC110 11/09 A3028 -290 93 -800 060/03 RMK AO2 P0003 T01060094
13976KLFT LFT20190225221513402/25/19 22:15:31  5-MIN KLFT 260415Z AUTO 07004KT 8SM RA FEW075 BKN095 OVC110 11/09 A3028 -290 93 -800 060/04 RMK AO2 P0004 T01060094
13976KLFT LFT20190225222013602/25/19 22:20:31  5-MIN KLFT 260420Z AUTO 06003KT 10SM -RA FEW028 BKN090 OVC110 11/09 A3029 -290 93 -800 060/03 RMK AO2 P0004 T01060094
13976KLFT LFT20190225222513602/25/19 22:25:31  5-MIN KLFT 260425Z AUTO 06003KT 10SM -RA FEW028 SCT075 BKN100 11/09 A3029 -290 93 -800 060/03 RMK AO2 P0004 T01060094
13976KLFT LFT20190225223013802/25/19 22:30:31  5-MIN KLFT 260430Z AUTO 04004KT 10SM FEW075 BKN100 BKN120 11/09 A3028 -290 93 -800 040/04 RMK AO2 RAE27 P0004 T01060094
13976KLFT LFT20190225223513802/25/19 22:35:31  5-MIN KLFT 260435Z AUTO 02005KT 10SM SCT038 SCT075 BKN100 11/09 A3029 -290 93 -800 020/05 RMK AO2 RAE27 P0004 T01060094
13976KLFT LFT20190225224013602/25/19 22:40:31  5-MIN KLFT 260440Z AUTO 36006KT 10SM -RA FEW032 BKN095 OVC120 11/09 A3029 -290 93 -800 360/06 RMK AO2 P0004 T01060094
13976KLFT LFT20190225224513602/25/19 22:45:31  5-MIN KLFT 260445Z AUTO 35005KT 10SM -RA FEW032 SCT041 BKN110 11/10 A3029 -290 96 -800 350/05 RMK AO2 P0004 T01060100
13976KLFT LFT20190225225014502/25/19 22:50:31  5-MIN KLFT 260450Z AUTO 01004KT 10SM SCT043 SCT090 BKN120 11/10 A3029 -290 96 -800 010/04 RMK AO2 RAE50 SLP256 P0004 T01060100
13976KLFT LFT20190225225514202/25/19 22:55:31  5-MIN KLFT 260455Z AUTO 36005KT 10SM -RA FEW040 SCT090 OVC120 11/10 A3030 -300 96 -800 360/05 RMK AO2 RAB55 P0000 T01060100
13976KLFT LFT20190225230014402/25/19 23:00:31  5-MIN KLFT 260500Z AUTO 05005KT 10SM -RA FEW040 SCT047 OVC110 11/10 A3028 -280 96 -800 050/05 RMK AO2 RAB0455 P0000 T01060100
13976KLFT LFT20190225230514402/25/19 23:05:31  5-MIN KLFT 260505Z AUTO 05004KT 10SM -RA FEW042 SCT095 OVC110 11/09 A3028 -280 93 -800 040/04 RMK AO2 RAB0455 P0000 T01060094
13976KLFT LFT20190225231014202/25/19 23:10:31  5-MIN KLFT 260510Z AUTO 05005KT 9SM RA FEW044 SCT100 OVC110 11/10 A3028 -280 96 -800 050/05 RMK AO2 RAB0455 P0001 T01060100
13976KLFT LFT20190225231513602/25/19 23:15:31  5-MIN KLFT 260515Z AUTO 07004KT 9SM -RA FEW100 OVC110 11/10 A3027 -270 96 -800 070/04 RMK AO2 RAB0455 P0001 T01060100
13976KLFT LFT20190225232013002/25/19 23:20:31  5-MIN KLFT 260520Z AUTO 00000KT 10SM -RA OVC110 11/10 A3028 -280 96 -800 000/00 RMK AO2 RAB0455 P0002 T01060100
13976KLFT LFT20190225232513702/25/19 23:25:31  5-MIN KLFT 260525Z AUTO 07004KT 10SM -RA FEW080 OVC110 11/10 A3026 -260 96 -800 070/04 RMK AO2 RAB0455 P0002 T01060100
13976KLFT LFT20190225233013002/25/19 23:30:31  5-MIN KLFT 260530Z AUTO 09003KT 10SM -RA OVC110 11/10 A3027 -270 96 -800 090/03 RMK AO2 RAB0455 P0002 T01060100
13976KLFT LFT20190225233513002/25/19 23:35:31  5-MIN KLFT 260535Z AUTO 06004KT 10SM -RA OVC110 11/10 A3025 -260 96 -800 060/04 RMK AO2 RAB0455 P0002 T01060100
13976KLFT LFT20190225234013702/25/19 23:40:31  5-MIN KLFT 260540Z AUTO 07004KT 10SM -RA FEW038 OVC110 11/10 A3025 -260 96 -800 070/04 RMK AO2 RAB0455 P0002 T01060100
13976KLFT LFT20190225234513702/25/19 23:45:31  5-MIN KLFT 260545Z AUTO 08005KT 10SM -RA FEW041 OVC110 11/10 A3025 -250 96 -800 080/05 RMK AO2 RAB0455 P0002 T01060100
13976KLFT LFT20190225235017002/25/19 23:50:31  5-MIN KLFT 260550Z AUTO 00000KT 10SM OVC100 11/10 A3026 -260 96 -800 000/00 RMK AO2 RAB0455E46 SLP245 P0002 60014 T01060100 10117 20106 401670067 55016
13976KLFT LFT20190225235511202/25/19 23:55:31  5-MIN KLFT 260555Z AUTO 09004KT 10SM OVC100 11/10 A3024 -250 96 -800 080/04 RMK AO2 T01060100
13976KLFT LFT20190226000011202/26/19 00:00:31  5-MIN KLFT 260600Z AUTO 05004KT 10SM OVC100 11/10 A3024 -250 96 -800 040/04 RMK AO2 T01060100
13976KLFT LFT20190226000511202/26/19 00:05:31  5-MIN KLFT 260605Z AUTO 03005KT 10SM OVC100 11/10 A3025 -250 96 -800 030/05 RMK AO2 T01060100
13976KLFT LFT20190226001011202/26/19 00:10:31  5-MIN KLFT 260610Z AUTO 04004KT 10SM OVC100 11/10 A3025 -250 96 -800 040/04 RMK AO2 T01060100
13976KLFT LFT20190226001511202/26/19 00:15:31  5-MIN KLFT 260615Z AUTO 04006KT 10SM OVC100 11/10 A3024 -240 96 -800 040/06 RMK AO2 T01060100
13976KLFT LFT20190226002011902/26/19 00:20:31  5-MIN KLFT 260620Z AUTO 04005KT 10SM BKN100 OVC110 11/10 A3024 -250 96 -800 040/05 RMK AO2 T01060100
13976KLFT LFT20190226002511902/26/19 00:25:31  5-MIN KLFT 260625Z AUTO 04005KT 10SM BKN100 OVC110 11/10 A3023 -240 96 -700 040/05 RMK AO2 T01060100
13976KLFT LFT20190226003011902/26/19 00:30:31  5-MIN KLFT 260630Z AUTO 04006KT 10SM FEW048 OVC100 11/10 A3023 -230 96 -700 040/06 RMK AO2 T01060100
13976KLFT LFT20190226003513502/26/19 00:35:31  5-MIN KLFT 260635Z AUTO 03005KT 10SM -RA FEW048 BKN100 11/10 A3023 -240 96 -700 030/05 RMK AO2 RAB31 P0000 T01060100
13976KLFT LFT20190226004013402/26/19 00:40:31  5-MIN KLFT 260640Z AUTO 04005KT 10SM FEW048 BKN095 11/10 A3023 -240 96 -700 040/05 RMK AO2 RAB31E40 P0000 T01060100
13976KLFT LFT20190226004513402/26/19 00:45:31  5-MIN KLFT 260645Z AUTO 00000KT 10SM FEW048 BKN090 11/10 A3024 -240 96 -700 000/00 RMK AO2 RAB31E40 P0000 T01060100
13976KLFT LFT20190226005014102/26/19 00:50:31  5-MIN KLFT 260650Z AUTO 05003KT 10SM FEW048 BKN090 11/10 A3024 -240 96 -700 050/03 RMK AO2 RAB31E40 SLP238 P0000 T01060100
13976KLFT LFT20190226005511902/26/19 00:55:31  5-MIN KLFT 260655Z AUTO 02003KT 10SM FEW048 OVC085 11/10 A3024 -250 96 -800 020/03 RMK AO2 T01060100
13976KLFT LFT20190226010011202/26/19 01:00:31  5-MIN KLFT 260700Z AUTO 02003KT 10SM OVC085 11/10 A3024 -250 96 -800 020/03 RMK AO2 T01060100
13976KLFT LFT20190226010511202/26/19 01:05:31  5-MIN KLFT 260705Z AUTO 02004KT 10SM OVC085 11/10 A3024 -250 96 -800 020/04 RMK AO2 T01060100
13976KLFT LFT20190226011011202/26/19 01:10:31  5-MIN KLFT 260710Z AUTO 36004KT 10SM OVC085 11/10 A3024 -250 93 -700 360/04 RMK AO2 T01110100
13976KLFT LFT20190226011511202/26/19 01:15:31  5-MIN KLFT 260715Z AUTO 36005KT 10SM OVC085 11/10 A3025 -250 93 -700 360/05 RMK AO2 T01110100
13976KLFT LFT20190226012011202/26/19 01:20:31  5-MIN KLFT 260720Z AUTO 01006KT 10SM OVC085 11/10 A3024 -250 93 -700 360/06 RMK AO2 T01110100
13976KLFT LFT20190226012511202/26/19 01:25:31  5-MIN KLFT 260725Z AUTO 02007KT 10SM OVC085 11/10 A3024 -240 93 -700 020/07 RMK AO2 T01110100
13976KLFT LFT20190226013011202/26/19 01:30:31  5-MIN KLFT 260730Z AUTO 01008KT 10SM OVC080 11/10 A3024 -240 93 -700 010/08 RMK AO2 T01110100
13976KLFT LFT20190226013512402/26/19 01:35:31  5-MIN KLFT 260735Z AUTO 02007KT 10SM OVC080 11/10 A3023 -230 93 -700 020/07 RMK AO2 LTG DSNT NW T01110100
13976KLFT LFT20190226014012402/26/19 01:40:31  5-MIN KLFT 260740Z AUTO 03008KT 10SM OVC080 11/10 A3023 -230 96 -700 030/08 RMK AO2 LTG DSNT NW T01060100
13976KLFT LFT20190226014513002/26/19 01:45:31  5-MIN KLFT 260745Z AUTO 04007KT 10SM OVC080 11/10 A3022 -230 96 -700 030/07 RMK AO2 LTG DSNT N AND NW T01060100
13976KLFT LFT20190226015013702/26/19 01:50:31  5-MIN KLFT 260750Z AUTO 04007KT 10SM OVC080 11/10 A3022 -230 96 -700 040/07 RMK AO2 LTG DSNT N AND NW SLP234 T01060100
13976KLFT LFT20190226015512902/26/19 01:55:31  5-MIN KLFT 260755Z AUTO 05005KT 9SM OVC080 11/10 A3023 -230 96 -700 040/05 RMK AO2 LTG DSNT N AND NW T01060100
13976KLFT LFT20190226020012302/26/19 02:00:31  5-MIN KLFT 260800Z AUTO 36005KT 8SM OVC080 11/10 A3024 -240 96 -700 360/05 RMK AO2 LTG DSNT NW T01060100
13976KLFT LFT20190226020512302/26/19 02:05:31  5-MIN KLFT 260805Z AUTO 36006KT 8SM OVC080 11/10 A3024 -240 96 -700 360/06 RMK AO2 LTG DSNT NW T01060100
13976KLFT LFT20190226021012202/26/19 02:10:31  5-MIN KLFT 260810Z AUTO 36007KT 8SM OVC080 11/10 A3024 -250 93 -700 360/07 RMK AO2 LTG DSNT N T01110100
13976KLFT LFT20190226021512202/26/19 02:15:31  5-MIN KLFT 260815Z AUTO 36008KT 7SM OVC080 11/10 A3024 -250 93 -700 360/08 RMK AO2 LTG DSNT N T01110100
13976KLFT LFT20190226022012202/26/19 02:20:31  5-MIN KLFT 260820Z AUTO 35008KT 7SM OVC080 11/10 A3025 -250 93 -700 350/08 RMK AO2 LTG DSNT N T01110100
13976KLFT LFT20190226022511102/26/19 02:25:31  5-MIN KLFT 260825Z AUTO 36009KT 7SM OVC080 11/10 A3025 -250 93 -700 360/09 RMK AO2 T01110100
13976KLFT LFT20190226023011102/26/19 02:30:31  5-MIN KLFT 260830Z AUTO 36009KT 7SM OVC080 11/10 A3024 -250 93 -700 360/09 RMK AO2 T01110100
13976KLFT LFT20190226023511102/26/19 02:35:31  5-MIN KLFT 260835Z AUTO 02009KT 7SM OVC080 11/10 A3024 -250 93 -700 010/09 RMK AO2 T01110100
13976KLFT LFT20190226024012302/26/19 02:40:31  5-MIN KLFT 260840Z AUTO 03009KT 8SM OVC080 11/09 A3024 -240 93 -700 020/09 RMK AO2 LTG DSNT NE T01060094
13976KLFT LFT20190226024512302/26/19 02:45:31  5-MIN KLFT 260845Z AUTO 04009KT 8SM OVC080 11/09 A3023 -240 93 -700 040/09 RMK AO2 LTG DSNT NE T01060094
13976KLFT LFT20190226025014202/26/19 02:50:31  5-MIN KLFT 260850Z AUTO 04008KT 8SM OVC080 11/09 A3023 -240 93 -700 040/08 RMK AO2 LTG DSNT NE SLP236 60000 T01060094 58012
13976KLFT LFT20190226025511102/26/19 02:55:31  5-MIN KLFT 260855Z AUTO 05006KT 8SM OVC080 11/09 A3023 -240 93 -700 050/06 RMK AO2 T01060094
13976KLFT LFT20190226030011102/26/19 03:00:31  5-MIN KLFT 260900Z AUTO 04007KT 9SM OVC080 11/09 A3023 -240 93 -700 040/07 RMK AO2 T01060094
13976KLFT LFT20190226030511102/26/19 03:05:31  5-MIN KLFT 260905Z AUTO 06006KT 9SM OVC080 11/09 A3022 -230 93 -700 060/06 RMK AO2 T01060094
13976KLFT LFT20190226031011102/26/19 03:10:31  5-MIN KLFT 260910Z AUTO 05006KT 9SM OVC080 11/09 A3023 -230 93 -700 050/06 RMK AO2 T01060094
13976KLFT LFT20190226031512702/26/19 03:15:31  5-MIN KLFT 260915Z AUTO 05007KT 9SM -RA OVC080 11/09 A3022 -230 93 -700 050/07 RMK AO2 RAB14 P0000 T01060094
13976KLFT LFT20190226032012702/26/19 03:20:31  5-MIN KLFT 260920Z AUTO 05005KT 10SM OVC080 11/09 A3023 -230 93 -700 050/05 RMK AO2 RAB14E19 P0000 T01060094
13976KLFT LFT20190226032512702/26/19 03:25:31  5-MIN KLFT 260925Z AUTO 06004KT 10SM OVC080 11/10 A3023 -230 96 -700 060/04 RMK AO2 RAB14E19 P0000 T01060100
13976KLFT LFT20190226033012702/26/19 03:30:31  5-MIN KLFT 260930Z AUTO 05004KT 10SM OVC080 11/10 A3023 -240 96 -700 050/04 RMK AO2 RAB14E19 P0000 T01060100
13976KLFT LFT20190226033512702/26/19 03:35:31  5-MIN KLFT 260935Z AUTO 03007KT 10SM OVC080 11/09 A3023 -240 93 -700 030/07 RMK AO2 RAB14E19 P0000 T01060094
13976KLFT LFT20190226034012702/26/19 03:40:31  5-MIN KLFT 260940Z AUTO 04006KT 10SM OVC080 11/09 A3023 -240 93 -700 040/06 RMK AO2 RAB14E19 P0000 T01060094
13976KLFT LFT20190226034512702/26/19 03:45:31  5-MIN KLFT 260945Z AUTO 03006KT 10SM OVC080 11/10 A3023 -240 96 -700 030/06 RMK AO2 RAB14E19 P0000 T01060100
13976KLFT LFT20190226035013402/26/19 03:50:31  5-MIN KLFT 260950Z AUTO 04008KT 10SM OVC080 11/09 A3022 -230 93 -700 040/08 RMK AO2 RAB14E19 SLP234 P0000 T01060094
13976KLFT LFT20190226035511202/26/19 03:55:31  5-MIN KLFT 260955Z AUTO 05007KT 10SM OVC080 11/09 A3022 -230 93 -700 050/07 RMK AO2 T01060094
13976KLFT LFT20190226040011202/26/19 04:00:31  5-MIN KLFT 261000Z AUTO 05005KT 10SM OVC075 11/09 A3022 -230 93 -700 050/05 RMK AO2 T01060094
13976KLFT LFT20190226040511202/26/19 04:05:31  5-MIN KLFT 261005Z AUTO 04006KT 10SM OVC075 11/10 A3022 -230 96 -700 040/06 RMK AO2 T01060100
13976KLFT LFT20190226041011202/26/19 04:10:31  5-MIN KLFT 261010Z AUTO 07004KT 10SM OVC075 11/09 A3022 -230 93 -700 070/04 RMK AO2 T01060094
13976KLFT LFT20190226041511202/26/19 04:15:31  5-MIN KLFT 261015Z AUTO 05005KT 10SM OVC070 11/10 A3022 -230 96 -700 050/05 RMK AO2 T01060100
13976KLFT LFT20190226042011202/26/19 04:20:31  5-MIN KLFT 261020Z AUTO 05005KT 10SM OVC070 11/10 A3022 -220 96 -700 050/05 RMK AO2 T01060100
13976KLFT LFT20190226042511202/26/19 04:25:31  5-MIN KLFT 261025Z AUTO 06005KT 10SM OVC070 11/10 A3022 -230 96 -700 060/05 RMK AO2 T01060100
13976KLFT LFT20190226043011202/26/19 04:30:31  5-MIN KLFT 261030Z AUTO 03007KT 10SM OVC070 11/09 A3022 -230 93 -700 030/07 RMK AO2 T01060094
13976KLFT LFT20190226043511202/26/19 04:35:31  5-MIN KLFT 261035Z AUTO 04006KT 10SM OVC070 11/09 A3022 -230 93 -700 040/06 RMK AO2 T01060094
13976KLFT LFT20190226044011202/26/19 04:40:31  5-MIN KLFT 261040Z AUTO 05008KT 10SM OVC070 11/09 A3021 -220 93 -700 050/08 RMK AO2 T01060094
13976KLFT LFT20190226044511202/26/19 04:45:31  5-MIN KLFT 261045Z AUTO 06006KT 10SM OVC070 11/09 A3021 -220 93 -700 050/06 RMK AO2 T01060094
13976KLFT LFT20190226045011902/26/19 04:50:31  5-MIN KLFT 261050Z AUTO 05009KT 10SM OVC070 11/09 A3021 -220 93 -700 050/09 RMK AO2 SLP230 T01060094
13976KLFT LFT20190226045511202/26/19 04:55:31  5-MIN KLFT 261055Z AUTO 05007KT 10SM OVC070 11/09 A3021 -220 93 -700 050/07 RMK AO2 T01060094
13976KLFT LFT20190226050011202/26/19 05:00:31  5-MIN KLFT 261100Z AUTO 05006KT 10SM OVC070 11/09 A3021 -220 93 -700 050/06 RMK AO2 T01060094
13976KLFT LFT20190226050511202/26/19 05:05:31  5-MIN KLFT 261105Z AUTO 04006KT 10SM OVC070 11/09 A3022 -230 93 -700 040/06 RMK AO2 T01060094
13976KLFT LFT20190226051011202/26/19 05:10:31  5-MIN KLFT 261110Z AUTO 04007KT 10SM OVC070 11/09 A3022 -230 93 -700 040/07 RMK AO2 T01060094
13976KLFT LFT20190226051511202/26/19 05:15:31  5-MIN KLFT 261115Z AUTO 05006KT 10SM OVC070 11/09 A3022 -220 93 -700 050/06 RMK AO2 T01060094
13976KLFT LFT20190226052010702/26/19 05:20:31  5-MIN KLFT 261120Z 05005KT 10SM OVC070 11/10 A3022 -220 96 -700 050/05 RMK AO2 T01060100
13976KLFT LFT20190226052510702/26/19 05:25:31  5-MIN KLFT 261125Z 05006KT 10SM OVC070 11/10 A3022 -220 96 -700 050/06 RMK AO2 T01060100
13976KLFT LFT20190226053010702/26/19 05:30:31  5-MIN KLFT 261130Z 05005KT 10SM OVC065 11/09 A3022 -230 93 -700 050/05 RMK AO2 T01060094
13976KLFT LFT20190226053510702/26/19 05:35:31  5-MIN KLFT 261135Z 05006KT 10SM OVC065 11/09 A3022 -230 93 -700 050/06 RMK AO2 T01060094
13976KLFT LFT20190226054010702/26/19 05:40:31  5-MIN KLFT 261140Z 06005KT 10SM OVC060 11/09 A3022 -230 93 -700 060/05 RMK AO2 T01060094
13976KLFT LFT20190226054510702/26/19 05:45:31  5-MIN KLFT 261145Z 05006KT 10SM OVC060 11/09 A3022 -230 93 -700 050/06 RMK AO2 T01060094
13976KLFT LFT20190226055014402/26/19 05:50:31  5-MIN KLFT 261150Z 05004KT 10SM OVC060 11/09 A3022 -230 93 -700 050/04 RMK AO2 SLP234 60000 70022 T01060094 10111 20106 55005
13976KLFT LFT20190226055510702/26/19 05:55:31  5-MIN KLFT 261155Z 05006KT 10SM OVC060 11/09 A3022 -230 93 -700 050/06 RMK AO2 T01060094
13976KLFT LFT20190226060010702/26/19 06:00:31  5-MIN KLFT 261200Z 05005KT 10SM OVC060 11/09 A3022 -230 93 -700 050/05 RMK AO2 T01060094
13976KLFT LFT20190226060510702/26/19 06:05:31  5-MIN KLFT 261205Z 06005KT 10SM OVC060 11/09 A3022 -230 93 -700 060/05 RMK AO2 T01060094
13976KLFT LFT20190226061010702/26/19 06:10:31  5-MIN KLFT 261210Z 04004KT 10SM OVC060 11/09 A3023 -230 93 -700 040/04 RMK AO2 T01060094
13976KLFT LFT20190226061510702/26/19 06:15:31  5-MIN KLFT 261215Z 07005KT 10SM OVC060 11/10 A3023 -230 96 -700 070/05 RMK AO2 T01060100
13976KLFT LFT20190226062010702/26/19 06:20:31  5-MIN KLFT 261220Z 07004KT 10SM OVC055 11/10 A3022 -230 96 -700 070/04 RMK AO2 T01060100
13976KLFT LFT20190226062510702/26/19 06:25:31  5-MIN KLFT 261225Z 06004KT 10SM OVC055 11/09 A3022 -230 93 -700 060/04 RMK AO2 T01060094
13976KLFT LFT20190226063010702/26/19 06:30:31  5-MIN KLFT 261230Z 06006KT 10SM OVC050 11/09 A3023 -230 93 -700 060/06 RMK AO2 T01060094
13976KLFT LFT20190226063510702/26/19 06:35:31  5-MIN KLFT 261235Z 05006KT 10SM OVC050 11/09 A3023 -240 93 -700 050/06 RMK AO2 T01060094
13976KLFT LFT20190226064010702/26/19 06:40:31  5-MIN KLFT 261240Z 07007KT 10SM OVC050 11/09 A3023 -230 93 -700 060/07 RMK AO2 T01060094
13976KLFT LFT20190226064510702/26/19 06:45:31  5-MIN KLFT 261245Z 08004KT 10SM OVC050 11/09 A3022 -230 93 -700 070/04 RMK AO2 T01060094
13976KLFT LFT20190226065011402/26/19 06:50:31  5-MIN KLFT 261250Z 07005KT 10SM OVC050 11/09 A3022 -230 93 -700 070/05 RMK AO2 SLP233 T01060094
13976KLFT LFT20190226065510702/26/19 06:55:31  5-MIN KLFT 261255Z VRB06KT 10SM OVC050 11/09 A3022 -230 93 -700 VRB/06 RMK AO2 T01060094
13976KLFT LFT20190226070010702/26/19 07:00:31  5-MIN KLFT 261300Z 07006KT 10SM OVC049 11/09 A3022 -230 89 -700 070/06 RMK AO2 T01110094
13976KLFT LFT20190226070511402/26/19 07:05:31  5-MIN KLFT 261305Z 06007KT 10SM BKN049 OVC070 11/09 A3022 -230 89 -700 060/07 RMK AO2 T01110094
13976KLFT LFT20190226071012102/26/19 07:10:31  5-MIN KLFT 261310Z 08005KT 10SM BKN049 BKN070 OVC100 11/09 A3022 -220 89 -700 080/05 RMK AO2 T01110094
13976KLFT LFT20190226071512102/26/19 07:15:31  5-MIN KLFT 261315Z VRB05KT 10SM SCT049 SCT070 OVC100 11/09 A3022 -220 89 -700 VRB/05 RMK AO2 T01110094
13976KLFT LFT20190226072012102/26/19 07:20:31  5-MIN KLFT 261320Z 06006KT 10SM SCT049 SCT070 OVC100 11/09 A3022 -230 89 -700 060/06 RMK AO2 T01110094
13976KLFT LFT20190226072512102/26/19 07:25:31  5-MIN KLFT 261325Z 07005KT 10SM FEW049 FEW070 OVC100 11/09 A3022 -230 89 -700 070/05 RMK AO2 T01110094
13976KLFT LFT20190226073011402/26/19 07:30:31  5-MIN KLFT 261330Z 06006KT 10SM FEW070 OVC100 11/10 A3022 -230 93 -700 060/06 RMK AO2 T01110100
13976KLFT LFT20190226073510702/26/19 07:35:31  5-MIN KLFT 261335Z 06005KT 10SM OVC100 11/09 A3022 -230 89 -700 060/05 RMK AO2 T01110094
13976KLFT LFT20190226074010702/26/19 07:40:31  5-MIN KLFT 261340Z 06007KT 10SM OVC095 12/10 A3022 -230 89 -600 060/07 RMK AO2 T01170100
13976KLFT LFT20190226074510702/26/19 07:45:31  5-MIN KLFT 261345Z VRB04KT 10SM OVC095 12/10 A3023 -230 89 -600 VRB/04 RMK AO2 T01170100
13976KLFT LFT20190226075012102/26/19 07:50:31  5-MIN KLFT 261350Z 06005KT 10SM BKN095 BKN120 12/10 A3023 -240 89 -600 060/05 RMK AO2 SLP236 T01170100
13976KLFT LFT20190226075511402/26/19 07:55:31  5-MIN KLFT 261355Z 07006KT 10SM BKN095 BKN120 12/10 A3023 -230 89 -600 070/06 RMK AO2 T01170100
13976KLFT LFT20190226080012302/26/19 08:00:31  5-MIN KLFT 261400Z 07007KT 040V110 10SM BKN090 12/09 A3022 -230 86 -600 070/07 040V110 RMK AO2 T01170094
13976KLFT LFT20190226080510702/26/19 08:05:31  5-MIN KLFT 261405Z 06005KT 10SM BKN090 12/09 A3023 -240 86 -600 060/05 RMK AO2 T01170094
13976KLFT LFT20190226081011402/26/19 08:10:31  5-MIN KLFT 261410Z VRB03KT 10SM BKN090 BKN110 12/10 A3024 -240 86 -500 VRB/03 RMK AO2 T01220100
13976KLFT LFT20190226081511402/26/19 08:15:31  5-MIN KLFT 261415Z 05006KT 10SM FEW046 BKN090 13/10 A3024 -250 83 -500 050/06 RMK AO2 T01280100
13976KLFT LFT20190226082011402/26/19 08:20:31  5-MIN KLFT 261420Z 07007KT 10SM BKN046 OVC090 13/09 A3024 -250 80 -500 070/07 RMK AO2 T01280094
13976KLFT LFT20190226082511402/26/19 08:25:31  5-MIN KLFT 261425Z 07005KT 10SM BKN046 OVC090 12/09 A3024 -250 83 -600 070/05 RMK AO2 T01220094
13976KLFT LFT20190226083011402/26/19 08:30:31  5-MIN KLFT 261430Z VRB04KT 10SM BKN046 OVC090 13/10 A3024 -250 83 -500 VRB/04 RMK AO2 T01280100
13976KLFT LFT20190226083510702/26/19 08:35:31  5-MIN KLFT 261435Z VRB03KT 10SM OVC045 13/10 A3024 -250 83 -500 VRB/03 RMK AO2 T01280100
13976KLFT LFT20190226084010702/26/19 08:40:31  5-MIN KLFT 261440Z 09005KT 10SM OVC045 13/10 A3025 -250 80 -400 090/05 RMK AO2 T01330100
13976KLFT LFT20190226084510702/26/19 08:45:31  5-MIN KLFT 261445Z VRB05KT 10SM OVC043 13/09 A3024 -250 77 -400 VRB/05 RMK AO2 T01330094
13976KLFT LFT20190226085012002/26/19 08:50:31  5-MIN KLFT 261450Z 09004KT 10SM OVC043 13/10 A3024 -250 80 -400 090/04 RMK AO2 SLP240 T01330100 55003
13976KLFT LFT20190226085510702/26/19 08:55:31  5-MIN KLFT 261455Z 08006KT 10SM OVC043 13/10 A3024 -250 80 -400 080/06 RMK AO2 T01330100
13976KLFT LFT20190226090010702/26/19 09:00:31  5-MIN KLFT 261500Z 07005KT 10SM OVC043 13/09 A3024 -250 77 -400 070/05 RMK AO2 T01330094
13976KLFT LFT20190226090510702/26/19 09:05:31  5-MIN KLFT 261505Z 08004KT 10SM OVC043 13/10 A3024 -250 80 -400 080/04 RMK AO2 T01330100
13976KLFT LFT20190226091010702/26/19 09:10:31  5-MIN KLFT 261510Z 07003KT 10SM OVC042 13/10 A3025 -250 80 -400 070/03 RMK AO2 T01330100
13976KLFT LFT20190226091510702/26/19 09:15:31  5-MIN KLFT 261515Z 05005KT 10SM OVC042 14/10 A3025 -260 77 -400 050/05 RMK AO2 T01390100
13976KLFT LFT20190226092010702/26/19 09:20:31  5-MIN KLFT 261520Z 06006KT 10SM OVC042 14/10 A3025 -260 77 -400 060/06 RMK AO2 T01390100
13976KLFT LFT20190226092510702/26/19 09:25:31  5-MIN KLFT 261525Z 05005KT 10SM OVC042 14/10 A3025 -260 77 -400 050/05 RMK AO2 T01390100
13976KLFT LFT20190226093010702/26/19 09:30:31  5-MIN KLFT 261530Z 05006KT 10SM OVC041 14/10 A3026 -260 77 -400 050/06 RMK AO2 T01390100
13976KLFT LFT20190226093510702/26/19 09:35:31  5-MIN KLFT 261535Z 05006KT 10SM OVC041 14/10 A3026 -260 77 -400 040/06 RMK AO2 T01390100
13976KLFT LFT20190226094010702/26/19 09:40:31  5-MIN KLFT 261540Z 05007KT 10SM OVC039 13/10 A3026 -260 80 -400 050/07 RMK AO2 T01330100
13976KLFT LFT20190226094510702/26/19 09:45:31  5-MIN KLFT 261545Z 05005KT 10SM OVC039 13/10 A3026 -260 80 -400 050/05 RMK AO2 T01330100
13976KLFT LFT20190226095011402/26/19 09:50:31  5-MIN KLFT 261550Z 05004KT 10SM OVC039 14/10 A3026 -270 77 -400 050/04 RMK AO2 SLP247 T01390100
13976KLFT LFT20190226095510702/26/19 09:55:31  5-MIN KLFT 261555Z 06004KT 10SM OVC039 14/10 A3026 -270 77 -400 060/04 RMK AO2 T01390100
13976KLFT LFT20190226100010702/26/19 10:00:31  5-MIN KLFT 261600Z 06005KT 10SM OVC039 14/10 A3026 -260 77 -400 060/05 RMK AO2 T01390100
13976KLFT LFT20190226100510702/26/19 10:05:31  5-MIN KLFT 261605Z 06005KT 10SM OVC038 14/10 A3026 -260 77 -400 060/05 RMK AO2 T01390100
13976KLFT LFT20190226101010702/26/19 10:10:31  5-MIN KLFT 261610Z 06006KT 10SM OVC038 14/11 A3026 -270 80 -400 060/06 RMK AO2 T01390106
13976KLFT LFT20190226101510702/26/19 10:15:31  5-MIN KLFT 261615Z 06007KT 10SM OVC038 14/11 A3026 -260 77 -300 060/07 RMK AO2 T01440106
13976KLFT LFT20190226102010702/26/19 10:20:31  5-MIN KLFT 261620Z 06006KT 10SM OVC038 14/10 A3026 -260 74 -300 060/06 RMK AO2 T01440100
13976KLFT LFT20190226102510702/26/19 10:25:31  5-MIN KLFT 261625Z 05008KT 10SM OVC038 15/11 A3026 -260 74 -200 050/08 RMK AO2 T01500106
13976KLFT LFT20190226103010702/26/19 10:30:31  5-MIN KLFT 261630Z VRB05KT 10SM OVC038 15/11 A3025 -260 74 -200 VRB/05 RMK AO2 T01500106
13976KLFT LFT20190226103510702/26/19 10:35:31  5-MIN KLFT 261635Z 05007KT 10SM OVC038 15/11 A3025 -260 74 -200 050/07 RMK AO2 T01500106
13976KLFT LFT20190226104010702/26/19 10:40:31  5-MIN KLFT 261640Z 04008KT 10SM OVC038 15/11 A3026 -260 74 -200 040/08 RMK AO2 T01500106
13976KLFT LFT20190226104510702/26/19 10:45:31  5-MIN KLFT 261645Z 06008KT 10SM OVC039 16/11 A3026 -260 72 -200 060/08 RMK AO2 T01560106
13976KLFT LFT20190226105011402/26/19 10:50:31  5-MIN KLFT 261650Z 07006KT 10SM OVC039 15/11 A3026 -260 74 -200 070/06 RMK AO2 SLP245 T01500106
13976KLFT LFT20190226105511402/26/19 10:55:31  5-MIN KLFT 261655Z 06006KT 10SM BKN040 OVC085 16/11 A3026 -260 74 -200 060/06 RMK AO2 T01560111
13976KLFT LFT20190226110011102/26/19 11:00:31  5-MIN KLFT 261700Z 06007KT 10SM BKN040 OVC085 17/12 A3026 -260 72 0 060/07 RMK AO2 T01670117
13976KLFT LFT20190226110511402/26/19 11:05:31  5-MIN KLFT 261705Z VRB06KT 10SM BKN040 OVC085 16/11 A3026 -260 72 -100 VRB/06 RMK AO2 T01610111
13976KLFT LFT20190226111011102/26/19 11:10:31  5-MIN KLFT 261710Z 06006KT 10SM BKN040 OVC080 17/12 A3026 -260 72 0 060/06 RMK AO2 T01670117
13976KLFT LFT20190226111511102/26/19 11:15:31  5-MIN KLFT 261715Z 04009KT 10SM BKN041 OVC075 17/11 A3026 -260 69 0 040/09 RMK AO2 T01670111
13976KLFT LFT20190226112011102/26/19 11:20:31  5-MIN KLFT 261720Z 07007KT 10SM BKN041 OVC075 17/11 A3026 -260 69 0 070/07 RMK AO2 T01670111
13976KLFT LFT20190226112511102/26/19 11:25:31  5-MIN KLFT 261725Z 05006KT 10SM BKN041 OVC075 17/11 A3025 -260 69 0 050/06 RMK AO2 T01670111
13976KLFT LFT20190226113010402/26/19 11:30:31  5-MIN KLFT 261730Z 04008KT 10SM OVC041 17/12 A3025 -250 72 0 040/08 RMK AO2 T01670117
13976KLFT LFT20190226113510702/26/19 11:35:31  5-MIN KLFT 261735Z 05008KT 10SM OVC041 16/11 A3025 -250 72 -100 050/08 RMK AO2 T01610111
13976KLFT LFT20190226114010702/26/19 11:40:31  5-MIN KLFT 261740Z 05007KT 10SM OVC041 16/11 A3025 -250 72 -100 050/07 RMK AO2 T01610111
13976KLFT LFT20190226114510402/26/19 11:45:31  5-MIN KLFT 261745Z 07006KT 10SM OVC041 17/11 A3024 -250 69 0 060/06 RMK AO2 T01670111
13976KLFT LFT20190226115012902/26/19 11:50:31  5-MIN KLFT 261750Z 05007KT 10SM OVC041 17/12 A3024 -250 72 0 050/07 RMK AO2 SLP240 T01670117 10167 20106 53007
13976KLFT LFT20190226115510402/26/19 11:55:31  5-MIN KLFT 261755Z 08005KT 10SM OVC041 17/11 A3024 -250 69 0 080/05 RMK AO2 T01670111
13976KLFT LFT20190226120010402/26/19 12:00:31  5-MIN KLFT 261800Z 05006KT 10SM OVC041 17/11 A3024 -250 69 0 050/06 RMK AO2 T01670111
13976KLFT LFT20190226120510702/26/19 12:05:31  5-MIN KLFT 261805Z 06008KT 10SM OVC042 16/11 A3024 -250 72 -100 060/08 RMK AO2 T01610111
13976KLFT LFT20190226121010702/26/19 12:10:31  5-MIN KLFT 261810Z 07006KT 10SM OVC042 16/11 A3024 -240 72 -100 060/06 RMK AO2 T01610111
13976KLFT LFT20190226121511402/26/19 12:15:31  5-MIN KLFT 261815Z 06007KT 10SM BKN042 OVC049 16/11 A3024 -240 72 -100 060/07 RMK AO2 T01610111
13976KLFT LFT20190226122011402/26/19 12:20:31  5-MIN KLFT 261820Z 06006KT 10SM BKN042 OVC049 16/11 A3023 -240 72 -100 060/06 RMK AO2 T01610111
13976KLFT LFT20190226122510702/26/19 12:25:31  5-MIN KLFT 261825Z 06008KT 10SM OVC044 16/11 A3023 -230 72 -100 060/08 RMK AO2 T01610111
13976KLFT LFT20190226123011102/26/19 12:30:31  5-MIN KLFT 261830Z 05008KT 10SM BKN043 OVC050 17/12 A3023 -230 72 0 050/08 RMK AO2 T01670117
13976KLFT LFT20190226123511102/26/19 12:35:31  5-MIN KLFT 261835Z 05006KT 10SM BKN045 OVC055 17/11 A3022 -230 69 0 050/06 RMK AO2 T01670111
13976KLFT LFT20190226124011402/26/19 12:40:31  5-MIN KLFT 261840Z 04008KT 10SM BKN047 OVC055 16/11 A3022 -230 72 -100 040/08 RMK AO2 T01610111
13976KLFT LFT20190226124511402/26/19 12:45:31  5-MIN KLFT 261845Z 05007KT 10SM BKN047 OVC055 16/11 A3022 -230 72 -100 050/07 RMK AO2 T01610111
13976KLFT LFT20190226125011102/26/19 12:50:31  5-MIN KLFT 261850Z 07006KT 10SM OVC050 17/12 A3022 -220 72 0 070/06 RMK AO2 SLP231 T01670117
13976KLFT LFT20190226125510402/26/19 12:55:31  5-MIN KLFT 261855Z 05007KT 10SM OVC050 17/12 A3021 -220 72 0 050/07 RMK AO2 T01670117
13976KLFT LFT20190226130010402/26/19 13:00:31  5-MIN KLFT 261900Z 04008KT 10SM BKN055 17/12 A3021 -220 72 0 040/08 RMK AO2 T01720122
13976KLFT LFT20190226130511102/26/19 13:05:31  5-MIN KLFT 261905Z 06006KT 10SM FEW025 BKN055 17/12 A3021 -210 69 0 060/06 RMK AO2 T01720117
13976KLFT LFT20190226131011102/26/19 13:10:31  5-MIN KLFT 261910Z 06007KT 10SM SCT025 OVC055 17/12 A3020 -210 69 0 060/07 RMK AO2 T01720117
13976KLFT LFT20190226131511302/26/19 13:15:31  5-MIN KLFT 261915Z 05007KT 10SM BKN023 OVC055 18/12 A3020 -210 67 100 050/07 RMK AO2 T01780117
13976KLFT LFT20190226132011302/26/19 13:20:31  5-MIN KLFT 261920Z VRB05KT 10SM BKN023 OVC055 18/12 A3020 -210 67 100 VRB/05 RMK AO2 T01780117
13976KLFT LFT20190226132511102/26/19 13:25:31  5-MIN KLFT 261925Z 05006KT 10SM BKN023 OVC055 17/12 A3020 -210 69 0 050/06 RMK AO2 T01720117
13976KLFT LFT20190226133010402/26/19 13:30:31  5-MIN KLFT 261930Z 05006KT 10SM OVC026 17/12 A3020 -210 69 0 050/06 RMK AO2 T01720117
13976KLFT LFT20190226133510402/26/19 13:35:31  5-MIN KLFT 261935Z 08004KT 10SM OVC026 17/12 A3020 -210 69 0 080/04 RMK AO2 T01720117
13976KLFT LFT20190226134010602/26/19 13:40:31  5-MIN KLFT 261940Z VRB04KT 10SM OVC026 18/12 A3020 -210 67 100 VRB/04 RMK AO2 T01780117
13976KLFT LFT20190226134510402/26/19 13:45:31  5-MIN KLFT 261945Z VRB03KT 10SM OVC026 17/12 A3020 -210 69 0 VRB/03 RMK AO2 T01720117
13976KLFT LFT20190226135011802/26/19 13:50:31  5-MIN KLFT 261950Z VRB04KT 10SM BKN026 OVC035 17/12 A3020 -200 69 0 VRB/04 RMK AO2 SLP224 T01720117
13976KLFT LFT20190226135511102/26/19 13:55:31  5-MIN KLFT 261955Z 05005KT 10SM BKN026 OVC035 17/12 A3020 -200 69 0 050/05 RMK AO2 T01720117
13976KLFT LFT20190226140010602/26/19 14:00:31  5-MIN KLFT 262000Z 08003KT 10SM OVC026 18/12 A3020 -210 69 100 080/03 RMK AO2 T01780122
13976KLFT LFT20190226140510602/26/19 14:05:31  5-MIN KLFT 262005Z 05005KT 10SM OVC026 18/12 A3019 -200 67 100 050/05 RMK AO2 T01780117
13976KLFT LFT20190226141010602/26/19 14:10:31  5-MIN KLFT 262010Z 09004KT 10SM OVC026 17/12 A3019 -200 69 100 090/04 RMK AO2 T01720117
13976KLFT LFT20190226141510602/26/19 14:15:31  5-MIN KLFT 262015Z 07006KT 10SM OVC026 17/12 A3018 -190 69 100 070/06 RMK AO2 T01720117
13976KLFT LFT20190226142010602/26/19 14:20:31  5-MIN KLFT 262020Z VRB05KT 10SM OVC024 17/12 A3019 -200 69 100 VRB/05 RMK AO2 T01720117
13976KLFT LFT20190226142510602/26/19 14:25:31  5-MIN KLFT 262025Z 05007KT 10SM OVC024 17/12 A3018 -190 69 100 050/07 RMK AO2 T01720117
13976KLFT LFT20190226143010602/26/19 14:30:31  5-MIN KLFT 262030Z 05006KT 10SM OVC024 17/12 A3018 -190 69 100 050/06 RMK AO2 T01720117
13976KLFT LFT20190226143510602/26/19 14:35:31  5-MIN KLFT 262035Z 06007KT 10SM OVC022 17/12 A3018 -190 69 100 060/07 RMK AO2 T01720117
13976KLFT LFT20190226144010602/26/19 14:40:31  5-MIN KLFT 262040Z 06006KT 10SM OVC022 18/12 A3018 -190 69 100 060/06 RMK AO2 T01780122
13976KLFT LFT20190226144510602/26/19 14:45:31  5-MIN KLFT 262045Z 07004KT 10SM OVC022 18/12 A3018 -190 69 100 070/04 RMK AO2 T01780122
13976KLFT LFT20190226145011902/26/19 14:50:31  5-MIN KLFT 262050Z VRB05KT 10SM OVC022 18/12 A3018 -190 69 100 VRB/05 RMK AO2 SLP219 T01780122 58001
13976KLFT LFT20190226145510602/26/19 14:55:31  5-MIN KLFT 262055Z VRB05KT 10SM OVC022 18/12 A3018 -190 69 100 VRB/05 RMK AO2 T01780122
13976KLFT LFT20190226150010602/26/19 15:00:31  5-MIN KLFT 262100Z 09004KT 10SM OVC022 18/12 A3018 -190 69 100 090/04 RMK AO2 T01780122
13976KLFT LFT20190226150510602/26/19 15:05:31  5-MIN KLFT 262105Z VRB05KT 10SM OVC022 18/12 A3018 -190 69 100 VRB/05 RMK AO2 T01780122
13976KLFT LFT20190226151010602/26/19 15:10:31  5-MIN KLFT 262110Z VRB04KT 10SM OVC022 18/12 A3018 -190 69 100 VRB/04 RMK AO2 T01780122
13976KLFT LFT20190226151510602/26/19 15:15:31  5-MIN KLFT 262115Z 09006KT 10SM OVC022 18/12 A3017 -180 67 200 090/06 RMK AO2 T01830122
13976KLFT LFT20190226152010602/26/19 15:20:31  5-MIN KLFT 262120Z VRB05KT 10SM OVC022 19/13 A3017 -180 67 300 VRB/05 RMK AO2 T01890128
13976KLFT LFT20190226152510602/26/19 15:25:31  5-MIN KLFT 262125Z 07006KT 10SM OVC022 19/13 A3017 -180 67 300 070/06 RMK AO2 T01890128
13976KLFT LFT20190226153010602/26/19 15:30:31  5-MIN KLFT 262130Z VRB05KT 10SM OVC020 18/12 A3017 -180 67 200 VRB/05 RMK AO2 T01830122
13976KLFT LFT20190226153510602/26/19 15:35:31  5-MIN KLFT 262135Z VRB05KT 10SM OVC020 18/12 A3017 -180 67 200 VRB/05 RMK AO2 T01830122
13976KLFT LFT20190226154010602/26/19 15:40:31  5-MIN KLFT 262140Z VRB05KT 10SM OVC020 18/12 A3017 -180 69 100 VRB/05 RMK AO2 T01780122
13976KLFT LFT20190226154510602/26/19 15:45:31  5-MIN KLFT 262145Z 11006KT 10SM OVC020 18/12 A3017 -180 69 100 110/06 RMK AO2 T01780122
13976KLFT LFT20190226155011302/26/19 15:50:31  5-MIN KLFT 262150Z 09006KT 10SM OVC020 18/12 A3016 -170 69 100 090/06 RMK AO2 SLP213 T01780122
13976KLFT LFT20190226155510602/26/19 15:55:31  5-MIN KLFT 262155Z 11006KT 10SM OVC020 18/12 A3016 -170 69 100 100/06 RMK AO2 T01780122
13976KLFT LFT20190226160010602/26/19 16:00:31  5-MIN KLFT 262200Z 08008KT 10SM OVC020 18/13 A3016 -170 70 200 080/08 RMK AO2 T01830128
13976KLFT LFT20190226160510602/26/19 16:05:31  5-MIN KLFT 262205Z VRB04KT 10SM OVC020 18/13 A3015 -170 70 200 VRB/04 RMK AO2 T01830128
13976KLFT LFT20190226161010602/26/19 16:10:31  5-MIN KLFT 262210Z 12004KT 10SM OVC020 18/13 A3015 -160 70 200 110/04 RMK AO2 T01830128
13976KLFT LFT20190226161510602/26/19 16:15:31  5-MIN KLFT 262215Z 10007KT 10SM OVC020 18/13 A3015 -160 70 200 100/07 RMK AO2 T01830128
13976KLFT LFT20190226162010602/26/19 16:20:31  5-MIN KLFT 262220Z VRB06KT 10SM OVC020 18/13 A3015 -160 72 200 VRB/06 RMK AO2 T01780128
13976KLFT LFT20190226162510602/26/19 16:25:31  5-MIN KLFT 262225Z 10007KT 10SM OVC019 18/13 A3015 -160 72 200 100/07 RMK AO2 T01780128
13976KLFT LFT20190226163010602/26/19 16:30:31  5-MIN KLFT 262230Z 11007KT 10SM OVC019 18/13 A3015 -170 72 200 110/07 RMK AO2 T01780128
13976KLFT LFT20190226163510602/26/19 16:35:31  5-MIN KLFT 262235Z 09005KT 10SM OVC019 18/13 A3015 -170 72 200 090/05 RMK AO2 T01780128
13976KLFT LFT20190226164010602/26/19 16:40:31  5-MIN KLFT 262240Z VRB05KT 10SM OVC019 17/13 A3016 -170 75 100 VRB/05 RMK AO2 T01720128
13976KLFT LFT20190226164510602/26/19 16:45:31  5-MIN KLFT 262245Z VRB04KT 10SM OVC019 17/13 A3016 -170 75 100 VRB/04 RMK AO2 T01720128
13976KLFT LFT20190226165011302/26/19 16:50:31  5-MIN KLFT 262250Z 11006KT 10SM OVC019 17/13 A3016 -170 75 100 110/06 RMK AO2 SLP211 T01720128
13976KLFT LFT20190226165510602/26/19 16:55:31  5-MIN KLFT 262255Z 11004KT 10SM OVC019 17/13 A3016 -170 75 100 110/04 RMK AO2 T01720128
13976KLFT LFT20190226170010602/26/19 17:00:31  5-MIN KLFT 262300Z VRB04KT 10SM OVC019 17/13 A3016 -170 75 100 VRB/04 RMK AO2 T01720128
13976KLFT LFT20190226170510602/26/19 17:05:31  5-MIN KLFT 262305Z 10006KT 10SM OVC019 17/13 A3016 -170 75 100 100/06 RMK AO2 T01720128
13976KLFT LFT20190226171010602/26/19 17:10:31  5-MIN KLFT 262310Z 09005KT 10SM OVC019 17/13 A3016 -170 75 100 090/05 RMK AO2 T01720128
13976KLFT LFT20190226171510602/26/19 17:15:31  5-MIN KLFT 262315Z VRB04KT 10SM OVC019 17/13 A3016 -170 75 100 VRB/04 RMK AO2 T01720128
13976KLFT LFT20190226172010602/26/19 17:20:31  5-MIN KLFT 262320Z VRB04KT 10SM OVC019 17/13 A3016 -170 75 100 VRB/04 RMK AO2 T01720128
13976KLFT LFT20190226172510602/26/19 17:25:31  5-MIN KLFT 262325Z 10006KT 10SM OVC019 17/13 A3015 -160 75 100 100/06 RMK AO2 T01720128
13976KLFT LFT20190226173010602/26/19 17:30:31  5-MIN KLFT 262330Z VRB06KT 10SM OVC019 17/13 A3015 -160 75 100 VRB/06 RMK AO2 T01720128
13976KLFT LFT20190226173510602/26/19 17:35:31  5-MIN KLFT 262335Z VRB04KT 10SM OVC018 17/13 A3015 -170 75 100 VRB/04 RMK AO2 T01720128
13976KLFT LFT20190226174010602/26/19 17:40:31  5-MIN KLFT 262340Z 10005KT 10SM OVC018 17/13 A3015 -160 78 100 100/05 RMK AO2 T01720133
13976KLFT LFT20190226174510602/26/19 17:45:31  5-MIN KLFT 262345Z 08005KT 10SM OVC018 17/13 A3015 -160 78 100 080/05 RMK AO2 T01720133
13976KLFT LFT20190226175013102/26/19 17:50:31  5-MIN KLFT 262350Z 09004KT 10SM OVC018 17/13 A3015 -160 78 100 090/04 RMK AO2 SLP210 T01720133 10189 20161 56021
13976KLFT LFT20190226175510602/26/19 17:55:31  5-MIN KLFT 262355Z 08006KT 10SM OVC018 17/13 A3015 -170 78 100 080/06 RMK AO2 T01720133
13976KLFT LFT20190226180012002/26/19 18:00:31  5-MIN KLFT 270000Z 10007KT 060V130 10SM OVC018 17/13 A3015 -170 80 0 090/07 060V130 RMK AO2 T01670133
13976KLFT LFT20190226180510402/26/19 18:05:31  5-MIN KLFT 270005Z 08005KT 10SM OVC018 17/13 A3016 -170 80 0 080/05 RMK AO2 T01670133
13976KLFT LFT20190226181010402/26/19 18:10:31  5-MIN KLFT 270010Z 08005KT 10SM OVC018 17/13 A3016 -170 80 0 070/05 RMK AO2 T01670133
13976KLFT LFT20190226181510402/26/19 18:15:31  5-MIN KLFT 270015Z 07006KT 10SM OVC018 17/13 A3016 -170 80 0 070/06 RMK AO2 T01670133
13976KLFT LFT20190226182010402/26/19 18:20:31  5-MIN KLFT 270020Z 07003KT 10SM OVC018 17/13 A3016 -170 80 0 070/03 RMK AO2 T01670133
13976KLFT LFT20190226182510402/26/19 18:25:31  5-MIN KLFT 270025Z VRB04KT 10SM OVC018 17/13 A3016 -170 80 0 VRB/04 RMK AO2 T01670133
13976KLFT LFT20190226183010402/26/19 18:30:31  5-MIN KLFT 270030Z 12003KT 10SM OVC019 17/13 A3017 -180 80 0 120/03 RMK AO2 T01670133
13976KLFT LFT20190226183510402/26/19 18:35:31  5-MIN KLFT 270035Z 10005KT 10SM OVC019 17/13 A3016 -180 80 0 100/05 RMK AO2 T01670133
13976KLFT LFT20190226184011902/26/19 18:40:31  5-MIN KLFT 270040Z VRB05KT 9SM -RA OVC019 17/13 A3016 -170 80 0 VRB/05 RMK AO2 RAB40 P0000 T01670133
13976KLFT LFT20190226184511902/26/19 18:45:31  5-MIN KLFT 270045Z 09005KT 7SM -RA OVC019 17/13 A3016 -170 80 0 080/05 RMK AO2 RAB40 P0000 T01670133
13976KLFT LFT20190226185012602/26/19 18:50:31  5-MIN KLFT 270050Z 09005KT 9SM -RA OVC020 16/13 A3015 -170 83 0 090/05 RMK AO2 RAB40 SLP210 P0000 T01610133
13976KLFT LFT20190226185510402/26/19 18:55:31  5-MIN KLFT 270055Z VRB04KT 10SM OVC020 16/14 A3015 -160 86 0 VRB/04 RMK AO2 T01610139
13976KLFT LFT20190226190010402/26/19 19:00:31  5-MIN KLFT 270100Z 08005KT 10SM OVC020 16/14 A3015 -160 86 0 080/05 RMK AO2 T01610139
13976KLFT LFT20190226190510402/26/19 19:05:31  5-MIN KLFT 270105Z 00000KT 10SM OVC020 16/14 A3016 -170 86 0 000/00 RMK AO2 T01610139
13976KLFT LFT20190226191010402/26/19 19:10:31  5-MIN KLFT 270110Z 10003KT 10SM OVC020 16/14 A3016 -170 86 0 090/03 RMK AO2 T01610139
13976KLFT LFT20190226191510402/26/19 19:15:31  5-MIN KLFT 270115Z 10005KT 10SM OVC020 16/14 A3015 -170 86 0 100/05 RMK AO2 T01610139
13976KLFT LFT20190226192010402/26/19 19:20:31  5-MIN KLFT 270120Z VRB05KT 10SM OVC020 16/13 A3015 -170 83 0 VRB/05 RMK AO2 T01610133
13976KLFT LFT20190226192510402/26/19 19:25:31  5-MIN KLFT 270125Z VRB04KT 10SM OVC021 16/13 A3016 -170 83 0 VRB/04 RMK AO2 T01610133
13976KLFT LFT20190226193010402/26/19 19:30:31  5-MIN KLFT 270130Z VRB04KT 10SM OVC021 16/13 A3016 -170 83 0 VRB/04 RMK AO2 T01610133
13976KLFT LFT20190226193510402/26/19 19:35:31  5-MIN KLFT 270135Z VRB04KT 10SM OVC021 16/14 A3016 -170 86 0 VRB/04 RMK AO2 T01610139
13976KLFT LFT20190226194010402/26/19 19:40:31  5-MIN KLFT 270140Z VRB04KT 10SM OVC021 16/14 A3015 -170 86 0 VRB/04 RMK AO2 T01610139
13976KLFT LFT20190226194510402/26/19 19:45:31  5-MIN KLFT 270145Z VRB06KT 10SM OVC021 16/14 A3016 -170 86 0 VRB/06 RMK AO2 T01610139
13976KLFT LFT20190226195011102/26/19 19:50:31  5-MIN KLFT 270150Z VRB03KT 10SM OVC021 16/14 A3016 -170 86 0 VRB/03 RMK AO2 SLP213 T01610139
13976KLFT LFT20190226195510402/26/19 19:55:31  5-MIN KLFT 270155Z VRB04KT 10SM OVC020 16/14 A3017 -180 86 0 VRB/04 RMK AO2 T01610139
13976KLFT LFT20190226200010402/26/19 20:00:31  5-MIN KLFT 270200Z VRB03KT 10SM OVC020 16/14 A3017 -180 86 0 VRB/03 RMK AO2 T01610139
13976KLFT LFT20190226200510402/26/19 20:05:31  5-MIN KLFT 270205Z 00000KT 10SM OVC020 16/14 A3017 -180 86 0 000/00 RMK AO2 T01610139
13976KLFT LFT20190226201010402/26/19 20:10:31  5-MIN KLFT 270210Z 08006KT 10SM OVC020 16/14 A3017 -180 86 0 080/06 RMK AO2 T01610139
13976KLFT LFT20190226201510402/26/19 20:15:31  5-MIN KLFT 270215Z 08004KT 10SM OVC020 16/14 A3017 -190 86 0 070/04 RMK AO2 T01610139
13976KLFT LFT20190226202010402/26/19 20:20:31  5-MIN KLFT 270220Z 08003KT 10SM OVC022 16/14 A3017 -180 86 0 080/03 RMK AO2 T01610139
13976KLFT LFT20190226202511502/26/19 20:25:31  5-MIN KLFT 270225Z 08004KT 10SM OVC022 16/14 A3017 -180 86 0 080/04 RMK AO2 LTG DSNT W T01610139
13976KLFT LFT20190226203011502/26/19 20:30:31  5-MIN KLFT 270230Z 08005KT 10SM OVC021 16/14 A3017 -180 86 0 070/05 RMK AO2 LTG DSNT W T01610139
13976KLFT LFT20190226203511502/26/19 20:35:31  5-MIN KLFT 270235Z 08003KT 10SM OVC021 16/14 A3016 -180 86 0 080/03 RMK AO2 LTG DSNT W T01610139
13976KLFT LFT20190226204012102/26/19 20:40:31  5-MIN KLFT 270240Z 09004KT 10SM OVC021 16/14 A3016 -170 86 0 090/04 RMK AO2 LTG DSNT N AND W T01610139
13976KLFT LFT20190226204511702/26/19 20:45:31  5-MIN KLFT 270245Z VRB04KT 10SM OVC021 16/14 A3016 -170 86 0 VRB/04 RMK AO2 LTG DSNT W-N T01610139
13976KLFT LFT20190226205013602/26/19 20:50:31  5-MIN KLFT 270250Z 09005KT 10SM OVC021 16/14 A3016 -170 86 0 090/05 RMK AO2 LTG DSNT W-N SLP213 60000 T01610139 56009
13976KLFT LFT20190226205511902/26/19 20:55:31  5-MIN KLFT 270255Z VRB03KT 10SM OVC021 16/14 A3018 -190 86 0 VRB/03 RMK AO2 LTG DSNT SW-NW T01610139
13976KLFT LFT20190226210011902/26/19 21:00:31  5-MIN KLFT 270300Z 00000KT 10SM OVC021 16/14 A3018 -190 86 0 000/00 RMK AO2 LTG DSNT SW-NW T01610139
13976KLFT LFT20190226210511902/26/19 21:05:31  5-MIN KLFT 270305Z 09003KT 10SM OVC021 16/14 A3017 -180 86 0 090/03 RMK AO2 LTG DSNT SW-NW T01610139
13976KLFT LFT20190226211012302/26/19 21:10:31  5-MIN KLFT 270310Z 10005KT 10SM OVC021 16/14 A3017 -180 86 0 100/05 RMK AO2 LTG DSNT SW AND NW T01610139
13976KLFT LFT20190226211513802/26/19 21:15:31  5-MIN KLFT 270315Z 11003KT 9SM -RA OVC021 16/14 A3017 -180 86 0 110/03 RMK AO2 LTG DSNT SW AND NW RAB15 P0001 T01610139
13976KLFT LFT20190226212013802/26/19 21:20:31  5-MIN KLFT 270320Z VRB03KT 7SM VCTS +RA OVC019 16/14 A3018 -190 86 0 VRB/03 RMK AO2 LTG DSNT SW-N RAB15 P0002 T01610139
13976KLFT LFT20190226212514002/26/19 21:25:31  5-MIN KLFT 270325Z 00000KT 6SM VCTS RA BR OVC019 16/14 A3018 -190 90 0 000/00 RMK AO2 LTG DSNT SW-N RAB15 P0003 T01610144
13976KLFT LFT20190226213014202/26/19 21:30:31  5-MIN KLFT 270330Z 11004KT 6SM VCTS -RA BR OVC020 16/14 A3018 -190 90 0 110/04 RMK AO2 LTG DSNT ALQDS RAB15 P0005 T01610144
13976KLFT LFT20190226213515202/26/19 21:35:31  5-MIN KLFT 270335Z 12004KT 4SM VCTS +RA BR BKN020 OVC042 16/14 A3017 -180 93 -100 120/04 RMK AO2 LTG DSNT ALQDS RAB15 P0008 T01560144
13976KLFT LFT20190226214016002/26/19 21:40:31  5-MIN KLFT 270340Z 12006KT 4SM RA BR BKN019 BKN044 OVC070 16/14 A3015 -160 93 -100 120/06 RMK AO2 LTG DSNT ALQDS RAB15 PRESFR P0009 T01560144
13976KLFT LFT20190226214515702/26/19 21:45:31  5-MIN KLFT 270345Z 11007KT 5SM RA BR SCT019 BKN048 OVC080 16/14 A3013 -150 93 0 110/07 RMK AO2 LTG DSNT ALQDS RAB15 PRESFR P0010 T01560144
13976KLFT LFT20190226215017002/26/19 21:50:31  5-MIN KLFT 270350Z 08008G15KT 5SM RA BR FEW019 BKN048 OVC120 16/14 A3012 -140 93 0 080/08G15 RMK AO2 LTG DSNT ALQDS RAB15 PRESFR SLP200 P0012 T01560144
13976KLFT LFT20190226215515302/26/19 21:55:31  5-MIN KLFT 270355Z 02005G15KT 6SM RA BR SCT019 BKN070 OVC120 16/14 A3016 -170 93 -100 010/05G15 RMK AO2 LTG DSNT ALQDS P0000 T01560144
13976KLFT LFT20190226220014202/26/19 22:00:31  5-MIN KLFT 270400Z 04010KT 8SM -RA SCT017 BKN050 OVC120 16/15 A3014 -150 96 0 040/10 RMK AO2 LTG DSNT ALQDS P0000 T01560150
13976KLFT LFT20190226220514502/26/19 22:05:31  5-MIN KLFT 270405Z 04006KT 9SM -RA BKN015 BKN060 OVC120 16/15 A3016 -170 96 -100 040/06 RMK AO2 LTG DSNT ALQDS P0000 T01560150
13976KLFT LFT20190226221014402/26/19 22:10:31  5-MIN KLFT 270410Z 05006KT 8SM RA SCT009 BKN017 OVC085 16/15 A3015 -170 96 -100 050/06 RMK AO2 LTG DSNT ALQDS P0001 T01560150
13976KLFT LFT20190226221515002/26/19 22:15:31  5-MIN KLFT 270415Z AUTO 04009KT 7SM -RA SCT009 BKN017 OVC120 16/15 A3016 -170 96 -100 040/09 RMK AO2 LTG DSNT ALQDS P0001 T01560150
13976KLFT LFT20190226222014602/26/19 22:20:31  5-MIN KLFT 270420Z AUTO 05007KT 6SM -RA BR SCT009 OVC017 16/15 A3016 -170 96 -100 050/07 RMK AO2 LTG DSNT ALQDS P0002 T01560150
13976KLFT LFT20190226222514502/26/19 22:25:31  5-MIN KLFT 270425Z AUTO 07003KT 5SM RA BR SCT009 OVC017 16/15 A3017 -180 96 -100 070/03 RMK AO2 LTG DSNT ALQDS P0003 T01560150
13976KLFT LFT20190226223015302/26/19 22:30:31  5-MIN KLFT 270430Z AUTO 06003KT 5SM RA BR SCT009 OVC017 16/16 A3018 -190 100 -100 060/03 RMK AO2 LTG DSNT ALQDS PRESRR P0003 T01560156
13976KLFT LFT20190226223515302/26/19 22:35:31  5-MIN KLFT 270435Z AUTO 01003KT 6SM -RA BR FEW009 OVC017 16/15 A3020 -200 96 -100 360/03 RMK AO2 LTG DSNT ALQDS PRESRR P0003 T01560150
13976KLFT LFT20190226224015002/26/19 22:40:31  5-MIN KLFT 270440Z AUTO 31015KT 7SM -RA SCT009 OVC017 16/15 A3021 -220 96 -100 310/15 RMK AO2 LTG DSNT ALQDS PRESRR P0003 T01560150
13976KLFT LFT20190226224514902/26/19 22:45:31  5-MIN KLFT 270445Z AUTO 33012G20KT 9SM -RA SCT009 OVC017 16/14 A3021 -210 93 -100 330/12G20 RMK AO2 LTG DSNT ALQDS P0003 T01560144
13976KLFT LFT20190226225013202/26/19 22:50:31  5-MIN KLFT 270450Z AUTO 33011KT 9SM RA BKN011 OVC017 16/14 A3021 -220 93 -100 330/11 RMK AO2 LTG DSNT ALQDS P0004
13976KLFT LFT20190226225513802/26/19 22:55:31  5-MIN KLFT 270455Z AUTO 35009KT 6SM RA BR OVC014 16/14 A3019 -200 93 -100 350/09 RMK AO2 LTG DSNT ALQDS P0000 T01560144
13976KLFT LFT20190226230013602/26/19 23:00:31  5-MIN KLFT 270500Z AUTO 36010KT 7SM -RA OVC014 16/14 A3020 -210 93 -100 360/10 RMK AO2 LTG DSNT ALQDS P0000 T01560144
13976KLFT LFT20190226230513702/26/19 23:05:31  5-MIN KLFT 270505Z AUTO 01007KT 10SM -RA OVC014 16/14 A3019 -200 93 -100 010/07 RMK AO2 LTG DSNT ALQDS P0000 T01560144
13976KLFT LFT20190226231013702/26/19 23:10:31  5-MIN KLFT 270510Z AUTO 02009KT 10SM -RA OVC014 16/15 A3019 -200 96 -100 020/09 RMK AO2 LTG DSNT ALQDS P0000 T01560150
13976KLFT LFT20190226231513502/26/19 23:15:31  5-MIN KLFT 270515Z AUTO 04008KT 8SM RA OVC014 16/15 A3018 -190 96 -100 040/08 RMK AO2 LTG DSNT ALQDS P0001 T01560150
13976KLFT LFT20190226232014502/26/19 23:20:31  5-MIN KLFT 270520Z AUTO 04008KT 6SM RA BR BKN014 OVC020 16/14 A3018 -190 93 -100 040/08 RMK AO2 LTG DSNT ALQDS P0002 T01560144
13976KLFT LFT20190226232515902/26/19 23:25:31  5-MIN KLFT 270525Z AUTO 07004KT 6SM RA BR SCT015 BKN021 OVC100 16/15 A3017 -180 96 -100 070/04 RMK AO2 LTG DSNT ALQDS PRESFR P0002 T01560150
13976KLFT LFT20190226233015602/26/19 23:30:31  5-MIN KLFT 270530Z AUTO 09004KT 7SM -RA SCT015 BKN021 OVC095 16/15 A3016 -170 96 -100 090/04 RMK AO2 LTG DSNT E-SW PRESFR P0002 T01560150
13976KLFT LFT20190226233514902/26/19 23:35:31  5-MIN KLFT 270535Z AUTO 09005KT 8SM -RA BKN019 OVC100 16/15 A3015 -160 96 -100 090/05 RMK AO2 LTG DSNT SE-W PRESFR P0003 T01560150
13976KLFT LFT20190226234015102/26/19 23:40:31  5-MIN KLFT 270540Z AUTO VRB04KT 8SM VCTS -RA SCT019 BKN090 OVC110 16/15 A3015 -160 96 0 VRB/04 RMK AO2 LTG DSNT SE-W P0003 T01560150
13976KLFT LFT20190226234515702/26/19 23:45:31  5-MIN KLFT 270545Z AUTO 16004KT 6SM VCTS RA BR FEW021 SCT075 OVC100 16/15 A3017 -180 96 -100 160/04 RMK AO2 LTG DSNT ALQDS P0004 T01560150
13976KLFT LFT20190226235019802/26/19 23:50:31  5-MIN KLFT 270550Z AUTO 00000KT 6SM VCTS RA BR FEW026 BKN090 OVC110 16/15 A3016 -180 96 -100 000/00 RMK AO2 LTG DSNT ALQDS SLP214 P0006 60024 T01560150 10172 20156 401890106 53007
13976KLFT LFT20190226235516702/26/19 23:55:31  5-MIN KLFT 270555Z AUTO VRB03KT 6SM VCTS RA BR FEW022 FEW070 OVC090 16/15 A3016 -170 96 -100 VRB/03 RMK AO2 LTG DSNT SE AND S AND NW P0000 T01560150
13976KLFT LFT20190227000014202/27/19 00:00:31  5-MIN KLFT 270600Z AUTO 11004KT 5SM RA BR FEW065 OVC085 16/14 A3015 -160 93 -100 110/04 RMK AO2 LTG DSNT SE P0002 T01560144
13976KLFT LFT20190227000515502/27/19 00:05:31  5-MIN KLFT 270605Z AUTO 09004KT 4SM +RA BR SCT055 BKN070 OVC090 16/14 A3013 -150 93 0 090/04 RMK AO2 LTG DSNT E-S PRESFR P0003 T01560144
13976KLFT LFT20190227001015502/27/19 00:10:31  5-MIN KLFT 270610Z AUTO 09004KT 3SM +RA BR SCT055 BKN070 OVC090 16/14 A3013 -140 93 0 090/04 RMK AO2 LTG DSNT E-S PRESFR P0005 T01560144
13976KLFT LFT20190227001515202/27/19 00:15:31  5-MIN KLFT 270615Z AUTO VRB03KT 4SM +RA BR SCT060 BKN075 OVC110 15/15 A3013 -140 100 -100 VRB/03 RMK AO2 LTG DSNT E-S P0006 T01500150
13976KLFT LFT20190227002015002/27/19 00:20:31  5-MIN KLFT 270620Z AUTO 09005KT 5SM -RA BR FEW060 BKN075 OVC110 15/15 A3012 -140 100 -100 090/05 RMK AO2 LTG DSNT S P0007 T01500150
13976KLFT LFT20190227002514802/27/19 00:25:31  5-MIN KLFT 270625Z AUTO 08006KT 7SM VCTS -RA FEW055 BKN090 OVC110 16/15 A3012 -130 96 0 080/06 RMK AO2 LTG DSNT S P0007 T01560150
13976KLFT LFT20190227003014702/27/19 00:30:31  5-MIN KLFT 270630Z AUTO VRB05KT 7SM VCTS RA FEW055 BKN090 OVC110 16/15 A3011 -130 96 0 VRB/05 RMK AO2 LTG DSNT S P0008 T01560150
13976KLFT LFT20190227003515802/27/19 00:35:31  5-MIN KLFT 270635Z AUTO VRB05KT 6SM VCTS -RA BR FEW070 SCT090 OVC110 16/15 A3012 -130 96 0 VRB/05 RMK AO2 LTG DSNT SE AND S P0008 T01560150
13976KLFT LFT20190227004014302/27/19 00:40:31  5-MIN KLFT 270640Z AUTO VRB06KT 7SM -RA FEW090 OVC110 16/15 A3011 -130 96 0 VRB/06 RMK AO2 LTG DSNT SE AND S P0008 T01560150
13976KLFT LFT20190227004514102/27/19 00:45:31  5-MIN KLFT 270645Z AUTO 12006KT 6SM -RA BR FEW090 OVC110 16/15 A3010 -120 96 0 120/06 RMK AO2 LTG DSNT E-S P0009 T01560150
13976KLFT LFT20190227005014102/27/19 00:50:31  5-MIN KLFT 270650Z AUTO 12008KT 6SM -RA BR OVC110 16/15 A3009 -110 96 0 120/08 RMK AO2 LTG DSNT E-S SLP190 P0009 T01560150
13976KLFT LFT20190227005513502/27/19 00:55:31  5-MIN KLFT 270655Z AUTO 14009KT 7SM -RA OVC110 16/15 A3010 -110 96 0 140/09 RMK AO2 LTG DSNT E AND S P0000 T01560150
13976KLFT LFT20190227010014502/27/19 01:00:31  5-MIN KLFT 270700Z AUTO 15007KT 120V180 9SM -RA OVC110 16/15 A3009 -110 96 0 150/07 120V180 RMK AO2 LTG DSNT S P0000 T01560150
13976KLFT LFT20190227010513702/27/19 01:05:31  5-MIN KLFT 270705Z AUTO VRB06KT 9SM -RA OVC110 16/16 A3009 -110 100 0 VRB/06 RMK AO2 LTG DSNT S AND SW P0000 T01560156
13976KLFT LFT20190227011013702/27/19 01:10:31  5-MIN KLFT 270710Z AUTO 16006KT 10SM -RA BKN110 16/16 A3009 -110 96 0 160/06 RMK AO2 LTG DSNT S AND SW P0000 T01610156
13976KLFT LFT20190227011513402/27/19 01:15:31  5-MIN KLFT 270715Z AUTO 16006KT 10SM -RA OVC110 16/16 A3009 -110 96 0 160/06 RMK AO2 LTG DSNT SE-SW P0001 T01610156
13976KLFT LFT20190227012013702/27/19 01:20:31  5-MIN KLFT 270720Z AUTO 18008KT 10SM -RA OVC110 16/16 A3010 -120 96 0 180/08 RMK AO2 LTG DSNT SE AND S P0001 T01610156
13976KLFT LFT20190227012513702/27/19 01:25:31  5-MIN KLFT 270725Z AUTO 18010KT 10SM -RA OVC110 16/16 A3010 -120 96 0 180/10 RMK AO2 LTG DSNT SE AND S P0001 T01610156
13976KLFT LFT20190227013013702/27/19 01:30:31  5-MIN KLFT 270730Z AUTO 17009KT 10SM -RA OVC110 16/16 A3011 -120 96 0 170/09 RMK AO2 LTG DSNT SE AND S P0001 T01610156
13976KLFT LFT20190227013513102/27/19 01:35:31  5-MIN KLFT 270735Z AUTO 17009KT 9SM -RA OVC110 16/16 A3011 -120 96 0 170/09 RMK AO2 LTG DSNT E-S P0001 T01610156
13976KLFT LFT20190227014013102/27/19 01:40:31  5-MIN KLFT 270740Z AUTO 16007KT 9SM -RA OVC110 16/16 A3010 -120 96 0 160/07 RMK AO2 LTG DSNT E-S P0001 T01610156
13976KLFT LFT20190227014513102/27/19 01:45:31  5-MIN KLFT 270745Z AUTO 17009KT 9SM -RA OVC110 16/16 A3011 -130 96 0 170/09 RMK AO2 LTG DSNT E-S P0001 T01610156
13976KLFT LFT20190227015013602/27/19 01:50:31  5-MIN KLFT 270750Z AUTO 15006KT 7SM RA OVC110 16/16 A3010 -110 96 0 150/06 RMK AO2 LTG DSNT SE SLP191 P0002 T01610156
13976KLFT LFT20190227015514602/27/19 01:55:31  5-MIN KLFT 270755Z AUTO 15008KT 110V170 7SM -RA OVC100 16/16 A3009 -110 96 0 150/08 110V170 RMK AO2 LTG DSNT SE P0000 T01610156
13976KLFT LFT20190227020014402/27/19 02:00:31  5-MIN KLFT 270800Z AUTO 14007G14KT 7SM -RA OVC110 16/16 A3007 -90 96 100 140/07G14 RMK AO2 LTG DSNT SE PRESFR P0000 T01610156
13976KLFT LFT20190227020512502/27/19 02:05:31  5-MIN KLFT 270805Z AUTO 16010G15KT 8SM -RA OVC110 16/16 A3007 -90 96 100 160/10G15 RMK AO2 P0000 T01610156
13976KLFT LFT20190227021012502/27/19 02:10:31  5-MIN KLFT 270810Z AUTO 16010G15KT 9SM -RA OVC110 16/16 A3007 -90 96 100 160/10G15 RMK AO2 P0000 T01610156
13976KLFT LFT20190227021512202/27/19 02:15:31  5-MIN KLFT 270815Z AUTO 17009KT 10SM OVC110 16/16 A3007 -90 96 100 170/09 RMK AO2 RAE13 P0000 T01610156
13976KLFT LFT20190227022012002/27/19 02:20:31  5-MIN KLFT 270820Z AUTO 17010KT 10SM -RA OVC110 16/16 A3007 -90 96 100 170/10 RMK AO2 P0000 T01610156
13976KLFT LFT20190227022512502/27/19 02:25:31  5-MIN KLFT 270825Z AUTO 16009G18KT 9SM -RA OVC110 16/16 A3006 -80 96 100 160/09G18 RMK AO2 P0001 T01610156
13976KLFT LFT20190227023014102/27/19 02:30:31  5-MIN KLFT 270830Z AUTO 16010G18KT 130V190 8SM -RA OVC110 16/16 A3005 -80 96 100 160/10G18 130V190 RMK AO2 P0001 T01610156
13976KLFT LFT20190227023513202/27/19 02:35:31  5-MIN KLFT 270835Z AUTO 16014G22KT 7SM -RA OVC110 16/16 A3003 -50 96 100 160/14G22 RMK AO2 PRESFR P0002 T01610156
13976KLFT LFT20190227024013202/27/19 02:40:31  5-MIN KLFT 270840Z AUTO 16012G22KT 9SM -RA OVC110 16/16 A3001 -40 96 100 160/12G22 RMK AO2 PRESFR P0002 T01610156
13976KLFT LFT20190227024514102/27/19 02:45:31  5-MIN KLFT 270845Z AUTO 15011G22KT 10SM -RA FEW075 BKN110 16/16 A3000 -20 100 100 150/11G22 RMK AO2 PRESFR P0002 T01610161
13976KLFT LFT20190227025015502/27/19 02:50:31  5-MIN KLFT 270850Z AUTO VRB04G18KT 10SM FEW080 BKN110 16/16 A3005 -70 100 100 VRB/04G18 RMK AO2 RAE47 SLP174 P0002 60013 T01610161 58004
13976KLFT LFT20190227025511402/27/19 02:55:31  5-MIN KLFT 270855Z AUTO 10SM FEW007 SCT080 BKN110 17/16 A3004 -60 96 200 M /M RMK AO2 T01670161
13976KLFT LFT20190227030013002/27/19 03:00:31  5-MIN KLFT 270900Z AUTO 34016G21KT 10SM SCT007 SCT080 BKN110 17/16 A3006 -80 96 100 340/16G21 RMK AO2 T01670161
13976KLFT LFT20190227030515002/27/19 03:05:31  5-MIN KLFT 270905Z AUTO 32012G21KT 10SM FEW007 BKN010 BKN080 17/17 A3007 -80 100 100 320/12G21 RMK AO2 CIG 009V013 PRESRR T01670167
13976KLFT LFT20190227031012602/27/19 03:10:31  5-MIN KLFT 270910Z AUTO 32013KT 10SM SCT009 BKN012 BKN080 17/17 A3008 -100 100 100 320/13 RMK AO2 T01670167
13976KLFT LFT20190227031512502/27/19 03:15:31  5-MIN KLFT 270915Z AUTO 32007KT 10SM SCT009 BKN012 BKN019 17/17 A3007 -90 100 100 320/07 RMK AO2 T01670167
13976KLFT LFT20190227032012602/27/19 03:20:31  5-MIN KLFT 270920Z AUTO 30007KT 10SM SCT008 BKN014 BKN019 17/17 A3009 -100 100 100 300/07 RMK AO2 T01670167
13976KLFT LFT20190227032511902/27/19 03:25:31  5-MIN KLFT 270925Z AUTO 30004KT 10SM FEW008 SCT014 17/17 A3008 -100 100 100 300/04 RMK AO2 T01670167
13976KLFT LFT20190227033011002/27/19 03:30:31  5-MIN KLFT 270930Z AUTO 01006KT 10SM SCT012 17/16 A3006 -80 96 100 010/06 RMK AO2 T01670161
13976KLFT LFT20190227033511002/27/19 03:35:31  5-MIN KLFT 270935Z AUTO 35005KT 10SM FEW012 17/16 A3007 -90 96 100 340/05 RMK AO2 T01670161
13976KLFT LFT20190227034011002/27/19 03:40:31  5-MIN KLFT 270940Z AUTO 01007KT 10SM FEW017 17/16 A3006 -80 93 100 010/07 RMK AO2 T01670156
13976KLFT LFT20190227034510702/27/19 03:45:31  5-MIN KLFT 270945Z AUTO 02007KT 10SM CLR 17/16 A3006 -80 93 100 020/07 RMK AO2 T01670156
13976KLFT LFT20190227035011402/27/19 03:50:31  5-MIN KLFT 270950Z AUTO 33004KT 10SM CLR 17/16 A3007 -90 96 100 330/04 RMK AO2 SLP180 T01670161
13976KLFT LFT20190227035510702/27/19 03:55:31  5-MIN KLFT 270955Z AUTO 32005KT 10SM CLR 17/16 A3007 -90 96 100 320/05 RMK AO2 T01670161
13976KLFT LFT20190227040010702/27/19 04:00:31  5-MIN KLFT 271000Z AUTO 33006KT 10SM CLR 17/16 A3007 -90 96 100 330/06 RMK AO2 T01670161
13976KLFT LFT20190227040510702/27/19 04:05:31  5-MIN KLFT 271005Z AUTO 34005KT 10SM CLR 17/16 A3007 -90 96 100 340/05 RMK AO2 T01670161
13976KLFT LFT20190227041010702/27/19 04:10:31  5-MIN KLFT 271010Z AUTO 36006KT 10SM CLR 17/16 A3007 -90 96 100 350/06 RMK AO2 T01670161
13976KLFT LFT20190227041510702/27/19 04:15:31  5-MIN KLFT 271015Z AUTO 36006KT 10SM CLR 16/16 A3007 -90 96 100 360/06 RMK AO2 T01610156
13976KLFT LFT20190227042010702/27/19 04:20:31  5-MIN KLFT 271020Z AUTO 36006KT 10SM CLR 16/16 A3007 -90 96 100 360/06 RMK AO2 T01610156
13976KLFT LFT20190227042510602/27/19 04:25:31  5-MIN KLFT 271025Z AUTO 36006KT 10SM CLR 16/16 A3008 -100 96 0 360/06 RMK AO2 T01610156
13976KLFT LFT20190227043010602/27/19 04:30:31  5-MIN KLFT 271030Z AUTO 35005KT 10SM CLR 16/16 A3008 -100 96 0 350/05 RMK AO2 T01610156
13976KLFT LFT20190227043510702/27/19 04:35:31  5-MIN KLFT 271035Z AUTO 35004KT 10SM CLR 16/16 A3009 -100 100 0 350/04 RMK AO2 T01610161
13976KLFT LFT20190227044010702/27/19 04:40:31  5-MIN KLFT 271040Z AUTO 33003KT 10SM CLR 16/16 A3009 -110 100 0 330/03 RMK AO2 T01610161
13976KLFT LFT20190227044511402/27/19 04:45:31  5-MIN KLFT 271045Z AUTO 00000KT 10SM CLR 16/16 A3010 -120 100 0 000/00 RMK AO2 PRESRR T01610161
13976KLFT LFT20190227045011702/27/19 04:50:31  5-MIN KLFT 271050Z AUTO 00000KT 10SM FEW090 16/16 A3010 -120 100 0 000/00 RMK AO2 SLP192 T01560156
13976KLFT LFT20190227045510902/27/19 04:55:31  5-MIN KLFT 271055Z AUTO 00000KT 10SM SCT085 16/15 A3010 -120 93 0 000/00 RMK AO2 T01610150
13976KLFT LFT20190227050010802/27/19 05:00:31  5-MIN KLFT 271100Z AUTO 00000KT 9SM SCT085 16/15 A3011 -120 93 0 000/00 RMK AO2 T01610150
13976KLFT LFT20190227050510802/27/19 05:05:31  5-MIN KLFT 271105Z AUTO 17003KT 8SM SCT090 16/16 A3011 -130 96 0 170/03 RMK AO2 T01610156
13976KLFT LFT20190227051010402/27/19 05:10:31  5-MIN KLFT 271110Z 19003KT 8SM SCT090 16/16 A3011 -130 100 0 190/03 RMK AO2 T01560156
13976KLFT LFT20190227051510402/27/19 05:15:31  5-MIN KLFT 271115Z 19003KT 8SM SCT095 16/16 A3011 -130 100 0 180/03 RMK AO2 T01560156
13976KLFT LFT20190227052010402/27/19 05:20:31  5-MIN KLFT 271120Z 00000KT 8SM BKN095 16/16 A3012 -130 100 0 000/00 RMK AO2 T01560156
13976KLFT LFT20190227052510302/27/19 05:25:31  5-MIN KLFT 271125Z 00000KT 8SM BKN095 16/16 A3012 -130 96 0 000/00 RMK AO2 T01610156
13976KLFT LFT20190227053010402/27/19 05:30:31  5-MIN KLFT 271130Z 00000KT 7SM BKN100 16/16 A3012 -130 100 0 000/00 RMK AO2 T01560156
13976KLFT LFT20190227053510602/27/19 05:35:31  5-MIN KLFT 271135Z 00000KT 6SM BR SCT095 16/16 A3012 -130 96 0 000/00 RMK AO2 T01610156
13976KLFT LFT20190227054010602/27/19 05:40:31  5-MIN KLFT 271140Z 00000KT 6SM BR SCT095 16/16 A3012 -130 96 0 000/00 RMK AO2 T01610156
13976KLFT LFT20190227054510702/27/19 05:45:31  5-MIN KLFT 271145Z 00000KT 5SM BR FEW100 16/16 A3012 -130 100 0 000/00 RMK AO2 T01560156
13976KLFT LFT20190227055014002/27/19 05:50:31  5-MIN KLFT 271150Z 03003KT 8SM FEW095 16/15 A3012 -130 96 0 030/03 RMK AO2 SLP197 60013 70037 T01560150 10167 20150 56038
13976KLFT LFT20190227055511302/27/19 05:55:31  5-MIN KLFT 271155Z 03004KT 8SM FEW003 FEW100 15/14 A3012 -130 96 -100 030/04 RMK AO2 T01500144
13976KLFT LFT20190227060011302/27/19 06:00:31  5-MIN KLFT 271200Z 03006KT 8SM FEW003 SCT100 14/14 A3011 -130 96 -100 030/06 RMK AO2 T01440139
13976KLFT LFT20190227060511302/27/19 06:05:31  5-MIN KLFT 271205Z 03005KT 8SM FEW003 FEW100 14/14 A3011 -130 96 -100 030/05 RMK AO2 T01440139
13976KLFT LFT20190227061012102/27/19 06:10:31  5-MIN KLFT 271210Z 04005KT 8SM FEW003 SCT075 SCT100 14/14 A3011 -130 100 -100 030/05 RMK AO2 T01440144
13976KLFT LFT20190227061512102/27/19 06:15:31  5-MIN KLFT 271215Z 04004KT 8SM FEW003 SCT075 SCT100 14/14 A3011 -130 100 -100 040/04 RMK AO2 T01440144
13976KLFT LFT20190227062012102/27/19 06:20:31  5-MIN KLFT 271220Z 03006KT 8SM FEW003 SCT075 SCT100 15/15 A3011 -130 100 -100 030/06 RMK AO2 T01500150
13976KLFT LFT20190227062511402/27/19 06:25:31  5-MIN KLFT 271225Z 04007KT 8SM SCT003 BKN075 15/15 A3011 -130 100 -100 040/07 RMK AO2 T01500150
13976KLFT LFT20190227063011702/27/19 06:30:31  5-MIN KLFT 271230Z 04005KT 2SM BR BKN003 BKN075 15/15 A3012 -130 100 -100 040/05 RMK AO2 T01500150
13976KLFT LFT20190227063511402/27/19 06:35:31  5-MIN KLFT 271235Z 05005KT 2SM BR BKN003 BKN075 16/16 A3012 -140 100 0 050/05 RMK AO2 T01560156
13976KLFT LFT20190227064010702/27/19 06:40:31  5-MIN KLFT 271240Z 05003KT 2SM BR BKN003 16/16 A3012 -140 100 0 050/03 RMK AO2 T01560156
13976KLFT LFT20190227064511102/27/19 06:45:31  5-MIN KLFT 271245Z 05004KT 1/2SM FG OVC002 16/16 A3013 -140 100 0 050/04 RMK AO2 T01560156 $
13976KLFT LFT20190227065011802/27/19 06:50:31  5-MIN KLFT 271250Z 06004KT 1/2SM FG OVC002 16/16 A3013 -140 100 0 060/04 RMK AO2 SLP201 T01560156 $
13976KLFT LFT20190227065511102/27/19 06:55:31  5-MIN KLFT 271255Z VRB03KT 1/4SM FG OVC002 16/16 A3013 -140 100 0 VRB/03 RMK AO2 T01560156 $
13976KLFT LFT20190227070011102/27/19 07:00:31  5-MIN KLFT 271300Z 05005KT 1/2SM FG OVC002 16/16 A3013 -140 100 0 050/05 RMK AO2 T01560156 $
13976KLFT LFT20190227070511102/27/19 07:05:31  5-MIN KLFT 271305Z 06005KT 1/4SM FG OVC002 16/16 A3012 -140 100 0 060/05 RMK AO2 T01560156 $
13976KLFT LFT20190227071011002/27/19 07:10:31  5-MIN KLFT 271310Z 06004KT 1/4SM FG VV002 16/16 A3012 -140 100 0 050/04 RMK AO2 T01560156 $
13976KLFT LFT20190227071511002/27/19 07:15:31  5-MIN KLFT 271315Z 07004KT 1/4SM FG VV002 16/16 A3012 -140 100 0 070/04 RMK AO2 T01560156 $
13976KLFT LFT20190227072011002/27/19 07:20:31  5-MIN KLFT 271320Z VRB04KT 1/4SM FG VV002 16/16 A3012 -140 100 0 VRB/04 RMK AO2 T01560156 $
13976KLFT LFT20190227072511002/27/19 07:25:31  5-MIN KLFT 271325Z 07003KT 1/4SM FG VV002 16/16 A3012 -140 100 0 070/03 RMK AO2 T01610161 $
13976KLFT LFT20190227073011002/27/19 07:30:31  5-MIN KLFT 271330Z 07004KT 1/4SM FG VV002 16/16 A3013 -140 100 0 070/04 RMK AO2 T01610161 $
13976KLFT LFT20190227073511002/27/19 07:35:31  5-MIN KLFT 271335Z 08004KT 1/4SM FG VV002 16/16 A3013 -140 100 0 080/04 RMK AO2 T01610161 $
13976KLFT LFT20190227074010802/27/19 07:40:31  5-MIN KLFT 271340Z VRB04KT 1/4SM FG VV002 16/16 A3013 -140 100 0 VRB/04 RMK AO2 T01610161
13976KLFT LFT20190227074510802/27/19 07:45:31  5-MIN KLFT 271345Z 08003KT 1/4SM FG VV002 16/16 A3013 -140 100 0 080/03 RMK AO2 T01610161
13976KLFT LFT20190227075011502/27/19 07:50:31  5-MIN KLFT 271350Z 08003KT 1/4SM FG VV002 16/16 A3013 -140 100 0 080/03 RMK AO2 SLP202 T01610161
13976KLFT LFT20190227075510802/27/19 07:55:31  5-MIN KLFT 271355Z 07004KT 1/4SM FG VV002 16/16 A3013 -140 100 0 070/04 RMK AO2 T01610161
13976KLFT LFT20190227080010802/27/19 08:00:31  5-MIN KLFT 271400Z 00000KT 1/4SM FG VV002 16/16 A3013 -150 100 0 000/00 RMK AO2 T01610161
13976KLFT LFT20190227080510802/27/19 08:05:31  5-MIN KLFT 271405Z 06003KT 1/4SM FG VV002 16/16 A3013 -150 100 0 060/03 RMK AO2 T01610161
13976KLFT LFT20190227081010802/27/19 08:10:31  5-MIN KLFT 271410Z 00000KT 1/4SM FG VV002 16/16 A3014 -150 100 0 000/00 RMK AO2 T01610161
13976KLFT LFT20190227081510802/27/19 08:15:31  5-MIN KLFT 271415Z 00000KT 1/4SM FG VV002 16/16 A3014 -150 100 0 000/00 RMK AO2 T01610161
13976KLFT LFT20190227082010802/27/19 08:20:31  5-MIN KLFT 271420Z 00000KT 1/4SM FG VV002 16/16 A3014 -150 100 0 000/00 RMK AO2 T01610161
13976KLFT LFT20190227082510802/27/19 08:25:31  5-MIN KLFT 271425Z 00000KT 1/4SM FG VV002 16/16 A3014 -150 100 0 000/00 RMK AO2 T01610161
13976KLFT LFT20190227083010702/27/19 08:30:31  5-MIN KLFT 271430Z 00000KT 1/4SM FG VV002 17/16 A3014 -160 96 0 000/00 RMK AO2 T01670161
13976KLFT LFT20190227083510702/27/19 08:35:31  5-MIN KLFT 271435Z 00000KT 1/4SM FG VV002 17/16 A3015 -160 96 0 000/00 RMK AO2 T01670161
13976KLFT LFT20190227084010802/27/19 08:40:31  5-MIN KLFT 271440Z 00000KT 1/4SM FG OVC002 17/16 A3014 -160 96 0 000/00 RMK AO2 T01670161
13976KLFT LFT20190227084510902/27/19 08:45:31  5-MIN KLFT 271445Z 00000KT 1/4SM FG OVC002 17/17 A3014 -160 100 0 000/00 RMK AO2 T01670167
13976KLFT LFT20190227085009702/27/19 08:50:31  5-MIN KLFT 271450Z 13003KT 1SM BR OVC002 17/17 A3014 -150 100 0 130/03 RMK AO2
13976KLFT LFT20190227085511102/27/19 08:55:31  5-MIN KLFT 271455Z 00000KT 1 3/4SM BR OVC002 17/17 A3014 -150 100 0 000/00 RMK AO2 T01670167
13976KLFT LFT20190227090012202/27/19 09:00:31  5-MIN KLFT 271500Z 00000KT 1/2SM FG OVC002 17/17 A3015 -160 100 100 000/00 RMK AO2 LTG DSNT E T01720172
13976KLFT LFT20190227090512102/27/19 09:05:31  5-MIN KLFT 271505Z 16004KT 1/2SM FG OVC002 17/17 A3014 -160 96 100 160/04 RMK AO2 LTG DSNT E T01720167
13976KLFT LFT20190227091011902/27/19 09:10:31  5-MIN KLFT 271510Z 00000KT 1SM BR OVC002 17/17 A3015 -160 96 100 000/00 RMK AO2 LTG DSNT E T01720167
13976KLFT LFT20190227091512002/27/19 09:15:31  5-MIN KLFT 271515Z 00000KT 1SM BR OVC002 17/17 A3014 -160 100 100 000/00 RMK AO2 LTG DSNT E T01720172
13976KLFT LFT20190227092011902/27/19 09:20:31  5-MIN KLFT 271520Z 00000KT 1SM BR OVC002 17/17 A3014 -160 96 100 000/00 RMK AO2 LTG DSNT E T01720167
13976KLFT LFT20190227092511902/27/19 09:25:31  5-MIN KLFT 271525Z 00000KT 1SM BR OVC002 18/17 A3015 -160 96 200 000/00 RMK AO2 LTG DSNT E T01780172
13976KLFT LFT20190227093011902/27/19 09:30:31  5-MIN KLFT 271530Z 17003KT 3SM BR OVC003 17/17 A3014 -160 96 100 160/03 RMK AO2 LTG DSNT E T01720167
13976KLFT LFT20190227093511902/27/19 09:35:31  5-MIN KLFT 271535Z VRB03KT 3SM BR OVC003 17/17 A3015 -160 96 100 VRB/03 RMK AO2 LTG DSNT E T01720167
13976KLFT LFT20190227094011902/27/19 09:40:31  5-MIN KLFT 271540Z 17003KT 3SM BR OVC003 17/17 A3015 -160 96 100 170/03 RMK AO2 LTG DSNT E T01720167
13976KLFT LFT20190227094511902/27/19 09:45:31  5-MIN KLFT 271545Z 15003KT 3SM BR OVC003 18/17 A3015 -160 93 200 150/03 RMK AO2 LTG DSNT E T01780167
13976KLFT LFT20190227095012602/27/19 09:50:31  5-MIN KLFT 271550Z 00000KT 3SM BR OVC003 18/17 A3015 -160 96 200 000/00 RMK AO2 LTG DSNT E SLP208 T01780172
13976KLFT LFT20190227095511902/27/19 09:55:31  5-MIN KLFT 271555Z 00000KT 5SM BR OVC003 18/17 A3015 -160 96 200 000/00 RMK AO2 LTG DSNT E T01780172
13976KLFT LFT20190227100011502/27/19 10:00:31  5-MIN KLFT 271600Z 17003KT 5SM BR BKN004 OVC022 18/18 A3015 -160 96 200 160/03 RMK AO2 T01830178
13976KLFT LFT20190227100512602/27/19 10:05:31  5-MIN KLFT 271605Z 00000KT 5SM BR BKN004 OVC022 18/17 A3014 -160 93 200 000/00 RMK AO2 LTG DSNT E T01830172
13976KLFT LFT20190227101012602/27/19 10:10:31  5-MIN KLFT 271610Z 00000KT 5SM BR BKN004 OVC022 18/17 A3014 -150 93 200 000/00 RMK AO2 LTG DSNT E T01830172
13976KLFT LFT20190227101513002/27/19 10:15:31  5-MIN KLFT 271615Z VRB04KT 5SM VCTS BR OVC004 18/17 A3014 -150 93 200 VRB/04 RMK AO2 LTG DSNT N AND E T01830172
13976KLFT LFT20190227102013002/27/19 10:20:31  5-MIN KLFT 271620Z 00000KT 4SM VCTS BR OVC004 18/17 A3014 -160 93 200 000/00 RMK AO2 LTG DSNT N AND E T01830172
13976KLFT LFT20190227102512402/27/19 10:25:31  5-MIN KLFT 271625Z 00000KT 4SM VCTS BR OVC004 18/17 A3015 -160 93 200 000/00 RMK AO2 LTG DSNT N T01830172
13976KLFT LFT20190227103012602/27/19 10:30:31  5-MIN KLFT 271630Z 00000KT 4SM BR OVC004 18/17 A3014 -160 93 200 000/00 RMK AO2 LTG DSNT NE AND E T01830172
13976KLFT LFT20190227103512102/27/19 10:35:31  5-MIN KLFT 271635Z 00000KT 4SM BR OVC004 18/18 A3015 -160 96 200 000/00 RMK AO2 LTG DSNT N-E T01830178
13976KLFT LFT20190227104012102/27/19 10:40:31  5-MIN KLFT 271640Z 00000KT 4SM BR OVC004 18/17 A3014 -160 93 200 000/00 RMK AO2 LTG DSNT N-E T01830172
13976KLFT LFT20190227104512102/27/19 10:45:31  5-MIN KLFT 271645Z 00000KT 4SM BR OVC004 18/17 A3015 -160 93 200 000/00 RMK AO2 LTG DSNT N-E T01830172
13976KLFT LFT20190227105011102/27/19 10:50:31  5-MIN KLFT 271650Z 00000KT 4SM BR OVC007 18/17 A3015 -160 93 200 000/00 RMK AO2 LTG DSNT N-E
13976KLFT LFT20190227105514002/27/19 10:55:31  5-MIN KLFT 271655Z 00000KT 5SM BR BKN007 OVC023 18/17 A3015 -160 93 200 000/00 RMK AO2 LTG DSNT N-E CIG 006V010 T01830172
13976KLFT LFT20190227110014002/27/19 11:00:31  5-MIN KLFT 271700Z 11003KT 5SM BR BKN007 OVC023 18/17 A3015 -160 93 200 110/03 RMK AO2 LTG DSNT N-E CIG 006V010 T01830172
13976KLFT LFT20190227110513202/27/19 11:05:31  5-MIN KLFT 271705Z 00000KT 5SM BR BKN008 OVC023 18/17 A3015 -160 93 200 000/00 RMK AO2 LTG DSNT N AND E T01830172
13976KLFT LFT20190227111012602/27/19 11:10:31  5-MIN KLFT 271710Z 10003KT 4SM BR BKN008 OVC023 18/18 A3015 -170 96 200 100/03 RMK AO2 LTG DSNT N T01830178
13976KLFT LFT20190227111512602/27/19 11:15:31  5-MIN KLFT 271715Z 09004KT 4SM BR BKN009 OVC023 18/18 A3015 -170 96 200 090/04 RMK AO2 LTG DSNT N T01830178
13976KLFT LFT20190227112011902/27/19 11:20:31  5-MIN KLFT 271720Z VRB03KT 4SM BR OVC009 19/18 A3015 -170 93 300 VRB/03 RMK AO2 LTG DSNT N T01890178
13976KLFT LFT20190227112512002/27/19 11:25:31  5-MIN KLFT 271725Z 00000KT 4SM BR OVC009 19/18 A3015 -170 93 300 000/00 RMK AO2 CIG 007V012 T01890178
13976KLFT LFT20190227113010802/27/19 11:30:31  5-MIN KLFT 271730Z 09003KT 5SM BR OVC009 19/18 A3015 -160 93 300 090/03 RMK AO2 T01890178
13976KLFT LFT20190227113510802/27/19 11:35:31  5-MIN KLFT 271735Z 00000KT 6SM BR OVC009 19/18 A3015 -160 93 300 000/00 RMK AO2 T01890178
13976KLFT LFT20190227114012002/27/19 11:40:31  5-MIN KLFT 271740Z VRB03KT 6SM BR OVC009 19/18 A3015 -160 93 300 VRB/03 RMK AO2 CIG 007V012 T01890178
13976KLFT LFT20190227114512002/27/19 11:45:31  5-MIN KLFT 271745Z VRB03KT 6SM BR OVC009 19/18 A3014 -150 93 300 VRB/03 RMK AO2 CIG 008V013 T01890178
13976KLFT LFT20190227115015202/27/19 11:50:31  5-MIN KLFT 271750Z VRB03KT 6SM BR BKN009 OVC025 19/18 A3014 -150 93 300 VRB/03 RMK AO2 CIG 008V013 SLP205 T01890178 10189 20144 53005
13976KLFT LFT20190227115512702/27/19 11:55:31  5-MIN KLFT 271755Z VRB04KT 6SM BR BKN009 OVC025 19/18 A3013 -150 93 400 VRB/04 RMK AO2 CIG 006V013 T01940183
13976KLFT LFT20190227120011202/27/19 12:00:31  5-MIN KLFT 271800Z 13003KT 7SM SCT009 OVC025 19/18 A3013 -140 93 400 130/03 RMK AO2 T01940183
13976KLFT LFT20190227120511202/27/19 12:05:31  5-MIN KLFT 271805Z 17003KT 8SM BKN005 OVC025 19/18 A3012 -140 93 400 170/03 RMK AO2 T01940183
13976KLFT LFT20190227121011302/27/19 12:10:31  5-MIN KLFT 271810Z 17005KT 10SM BKN005 OVC025 20/18 A3012 -140 90 500 170/05 RMK AO2 T02000183
13976KLFT LFT20190227121511302/27/19 12:15:31  5-MIN KLFT 271815Z 16005KT 10SM BKN005 OVC025 20/18 A3012 -130 90 500 160/05 RMK AO2 T02000183
13976KLFT LFT20190227122011302/27/19 12:20:31  5-MIN KLFT 271820Z 18006KT 10SM BKN005 OVC025 20/18 A3012 -130 90 500 180/06 RMK AO2 T02000183
13976KLFT LFT20190227122511302/27/19 12:25:31  5-MIN KLFT 271825Z 17006KT 10SM BKN005 OVC025 20/18 A3011 -130 87 500 170/06 RMK AO2 T02000178
13976KLFT LFT20190227123011302/27/19 12:30:31  5-MIN KLFT 271830Z 17007KT 10SM BKN005 OVC025 20/18 A3011 -130 87 500 170/07 RMK AO2 T02000178
13976KLFT LFT20190227123511302/27/19 12:35:31  5-MIN KLFT 271835Z 17007KT 10SM SCT010 OVC025 21/18 A3011 -120 84 500 170/07 RMK AO2 T02060178
13976KLFT LFT20190227124011302/27/19 12:40:31  5-MIN KLFT 271840Z 16005KT 10SM SCT010 OVC025 21/18 A3010 -120 84 500 160/05 RMK AO2 T02060178
13976KLFT LFT20190227124511302/27/19 12:45:31  5-MIN KLFT 271845Z 17005KT 10SM SCT010 OVC025 21/18 A3010 -120 84 500 160/05 RMK AO2 T02060178
13976KLFT LFT20190227125012002/27/19 12:50:31  5-MIN KLFT 271850Z 17005KT 10SM SCT010 OVC025 21/18 A3010 -110 84 500 170/05 RMK AO2 SLP191 T02060178
13976KLFT LFT20190227125510602/27/19 12:55:31  5-MIN KLFT 271855Z 18006KT 10SM OVC025 21/18 A3009 -110 81 600 180/06 RMK AO2 T02110178
13976KLFT LFT20190227130010602/27/19 13:00:31  5-MIN KLFT 271900Z 17005KT 10SM OVC025 21/18 A3009 -110 81 600 170/05 RMK AO2 T02110178
13976KLFT LFT20190227130510602/27/19 13:05:31  5-MIN KLFT 271905Z 16006KT 10SM OVC026 21/18 A3009 -100 81 600 160/06 RMK AO2 T02110178
13976KLFT LFT20190227131010602/27/19 13:10:31  5-MIN KLFT 271910Z 17006KT 10SM OVC026 21/18 A3008 -100 81 600 160/06 RMK AO2 T02110178
13976KLFT LFT20190227131510602/27/19 13:15:31  5-MIN KLFT 271915Z 17005KT 10SM OVC026 22/18 A3008 -100 78 800 170/05 RMK AO2 T02220183
13976KLFT LFT20190227132010602/27/19 13:20:31  5-MIN KLFT 271920Z 17007KT 10SM OVC026 22/18 A3008 -100 78 800 170/07 RMK AO2 T02220183
13976KLFT LFT20190227132510502/27/19 13:25:31  5-MIN KLFT 271925Z 19006KT 10SM OVC026 22/18 A3008 -90 78 700 190/06 RMK AO2 T02170178
13976KLFT LFT20190227133011202/27/19 13:30:31  5-MIN KLFT 271930Z 16006KT 10SM FEW017 OVC026 22/18 A3007 -90 78 700 160/06 RMK AO2 T02170178
13976KLFT LFT20190227133511202/27/19 13:35:31  5-MIN KLFT 271935Z 18007KT 10SM FEW017 OVC026 22/18 A3007 -90 78 800 180/07 RMK AO2 T02220183
13976KLFT LFT20190227134010502/27/19 13:40:31  5-MIN KLFT 271940Z 17007KT 10SM OVC026 23/18 A3007 -90 73 800 170/07 RMK AO2 T02280178
13976KLFT LFT20190227134510502/27/19 13:45:31  5-MIN KLFT 271945Z 19006KT 10SM OVC026 23/18 A3006 -80 73 800 190/06 RMK AO2 T02280178
13976KLFT LFT20190227135011202/27/19 13:50:31  5-MIN KLFT 271950Z 20008KT 10SM OVC026 23/18 A3006 -80 76 800 200/08 RMK AO2 SLP177 T02280183
13976KLFT LFT20190227135510502/27/19 13:55:31  5-MIN KLFT 271955Z 17008KT 10SM OVC023 23/18 A3005 -70 76 800 170/08 RMK AO2 T02280183
13976KLFT LFT20190227140010502/27/19 14:00:31  5-MIN KLFT 272000Z 17009KT 10SM BKN023 23/18 A3005 -70 73 800 170/09 RMK AO2 T02280178
13976KLFT LFT20190227140510502/27/19 14:05:31  5-MIN KLFT 272005Z 17007KT 10SM BKN023 23/18 A3005 -70 73 900 170/07 RMK AO2 T02280178
13976KLFT LFT20190227141010502/27/19 14:10:31  5-MIN KLFT 272010Z 17008KT 10SM BKN023 22/18 A3005 -70 75 800 170/08 RMK AO2 T02220178
13976KLFT LFT20190227141510502/27/19 14:15:31  5-MIN KLFT 272015Z 16006KT 10SM BKN023 23/18 A3005 -70 76 900 160/06 RMK AO2 T02280183
13976KLFT LFT20190227142010502/27/19 14:20:31  5-MIN KLFT 272020Z 18008KT 10SM BKN023 23/18 A3005 -70 76 900 180/08 RMK AO2 T02280183
13976KLFT LFT20190227142511102/27/19 14:25:31  5-MIN KLFT 272025Z 18007G14KT 10SM BKN023 23/18 A3005 -70 73 900 180/07G14 RMK AO2 T02330183
13976KLFT LFT20190227143010502/27/19 14:30:31  5-MIN KLFT 272030Z 18010KT 10SM BKN023 23/18 A3004 -70 73 900 180/10 RMK AO2 T02330183
13976KLFT LFT20190227143511202/27/19 14:35:31  5-MIN KLFT 272035Z 17007KT 10SM BKN020 BKN085 23/18 A3005 -70 73 900 170/07 RMK AO2 T02330183
13976KLFT LFT20190227144011202/27/19 14:40:31  5-MIN KLFT 272040Z 18008KT 10SM BKN020 BKN085 23/18 A3005 -70 73 900 180/08 RMK AO2 T02280178
13976KLFT LFT20190227144511202/27/19 14:45:31  5-MIN KLFT 272045Z 16008KT 10SM BKN020 BKN085 22/18 A3005 -70 75 800 160/08 RMK AO2 T02220178
13976KLFT LFT20190227145012502/27/19 14:50:31  5-MIN KLFT 272050Z 17010KT 10SM BKN020 BKN085 22/18 A3004 -70 75 800 170/10 RMK AO2 SLP173 T02220178 58002
13976KLFT LFT20190227145511202/27/19 14:55:31  5-MIN KLFT 272055Z 17010KT 10SM SCT022 BKN028 22/18 A3004 -60 75 800 170/10 RMK AO2 T02220178
13976KLFT LFT20190227150014102/27/19 15:00:31  5-MIN KLFT 272100Z 17007G15KT 130V190 10SM SCT022 BKN028 OVC046 22/18 A3004 -70 75 800 170/07G15 130V190 RMK AO2 T02220178
13976KLFT LFT20190227150512502/27/19 15:05:31  5-MIN KLFT 272105Z 17011G15KT 10SM SCT022 BKN028 OVC046 23/18 A3004 -60 73 900 170/11G15 RMK AO2 T02280178
13976KLFT LFT20190227151011902/27/19 15:10:31  5-MIN KLFT 272110Z 18012KT 10SM FEW022 BKN028 OVC044 22/17 A3004 -60 70 800 180/12 RMK AO2 T02220167
13976KLFT LFT20190227151511902/27/19 15:15:31  5-MIN KLFT 272115Z 18011KT 10SM FEW022 BKN028 BKN038 22/17 A3004 -60 70 800 180/11 RMK AO2 T02220167
13976KLFT LFT20190227152011902/27/19 15:20:31  5-MIN KLFT 272120Z 16011KT 10SM FEW022 BKN028 OVC045 22/17 A3004 -60 70 800 160/11 RMK AO2 T02220167
13976KLFT LFT20190227152511902/27/19 15:25:31  5-MIN KLFT 272125Z 17009KT 10SM FEW022 BKN028 OVC045 22/16 A3004 -60 70 700 160/09 RMK AO2 T02170161
13976KLFT LFT20190227153011202/27/19 15:30:31  5-MIN KLFT 272130Z 17005KT 10SM BKN028 BKN038 22/16 A3004 -60 70 700 170/05 RMK AO2 T02170161
13976KLFT LFT20190227153511202/27/19 15:35:31  5-MIN KLFT 272135Z 17008KT 10SM BKN028 OVC035 22/17 A3004 -60 73 700 170/08 RMK AO2 T02170167
13976KLFT LFT20190227154010502/27/19 15:40:31  5-MIN KLFT 272140Z 17006KT 10SM OVC028 22/17 A3004 -60 73 700 170/06 RMK AO2 T02170167
13976KLFT LFT20190227154511102/27/19 15:45:31  5-MIN KLFT 272145Z 17008G15KT 10SM OVC026 22/16 A3004 -60 70 700 160/08G15 RMK AO2 T02170161
13976KLFT LFT20190227155011802/27/19 15:50:31  5-MIN KLFT 272150Z 16009G15KT 10SM OVC026 22/16 A3004 -60 70 700 160/09G15 RMK AO2 SLP172 T02170161
13976KLFT LFT20190227155510502/27/19 15:55:31  5-MIN KLFT 272155Z 17011KT 10SM OVC026 22/16 A3004 -60 70 700 170/11 RMK AO2 T02170161
13976KLFT LFT20190227160010502/27/19 16:00:31  5-MIN KLFT 272200Z 17011KT 10SM OVC026 21/16 A3004 -60 73 700 170/11 RMK AO2 T02110161
13976KLFT LFT20190227160510502/27/19 16:05:31  5-MIN KLFT 272205Z 16008KT 10SM OVC026 21/16 A3004 -60 73 700 160/08 RMK AO2 T02110161
13976KLFT LFT20190227161010502/27/19 16:10:31  5-MIN KLFT 272210Z 17009KT 10SM OVC027 21/16 A3004 -60 73 700 160/09 RMK AO2 T02110161
13976KLFT LFT20190227161510502/27/19 16:15:31  5-MIN KLFT 272215Z 17009KT 10SM OVC027 21/16 A3004 -60 73 700 170/09 RMK AO2 T02110161
13976KLFT LFT20190227162010502/27/19 16:20:31  5-MIN KLFT 272220Z 16007KT 10SM OVC028 21/16 A3004 -60 73 700 160/07 RMK AO2 T02110161
13976KLFT LFT20190227162510502/27/19 16:25:31  5-MIN KLFT 272225Z 17009KT 10SM OVC028 21/17 A3004 -60 75 700 170/09 RMK AO2 T02110167
13976KLFT LFT20190227163010502/27/19 16:30:31  5-MIN KLFT 272230Z 17006KT 10SM OVC028 21/17 A3004 -60 75 700 170/06 RMK AO2 T02110167
13976KLFT LFT20190227163510502/27/19 16:35:31  5-MIN KLFT 272235Z 17008KT 10SM OVC028 21/17 A3004 -60 75 700 170/08 RMK AO2 T02110167
13976KLFT LFT20190227164010502/27/19 16:40:31  5-MIN KLFT 272240Z 16009KT 10SM OVC026 21/17 A3004 -60 75 700 160/09 RMK AO2 T02110167
13976KLFT LFT20190227164510502/27/19 16:45:31  5-MIN KLFT 272245Z VRB06KT 10SM OVC026 21/17 A3004 -60 75 700 VRB/06 RMK AO2 T02110167
13976KLFT LFT20190227165011202/27/19 16:50:31  5-MIN KLFT 272250Z 16008KT 10SM OVC024 21/17 A3004 -60 75 700 160/08 RMK AO2 SLP170 T02110167
13976KLFT LFT20190227165510502/27/19 16:55:31  5-MIN KLFT 272255Z 16007KT 10SM OVC024 21/17 A3004 -60 78 600 160/07 RMK AO2 T02060167
13976KLFT LFT20190227170010502/27/19 17:00:31  5-MIN KLFT 272300Z 17008KT 10SM OVC024 21/17 A3004 -60 78 600 170/08 RMK AO2 T02060167
13976KLFT LFT20190227170510502/27/19 17:05:31  5-MIN KLFT 272305Z 17006KT 10SM OVC023 21/17 A3004 -60 78 600 170/06 RMK AO2 T02060167
13976KLFT LFT20190227171010502/27/19 17:10:31  5-MIN KLFT 272310Z 17007KT 10SM OVC023 21/17 A3003 -60 81 600 160/07 RMK AO2 T02060172
13976KLFT LFT20190227171510502/27/19 17:15:31  5-MIN KLFT 272315Z 16006KT 10SM OVC023 21/17 A3003 -60 81 600 160/06 RMK AO2 T02060172
13976KLFT LFT20190227172010502/27/19 17:20:31  5-MIN KLFT 272320Z 17005KT 10SM OVC023 21/17 A3003 -60 81 600 170/05 RMK AO2 T02060172
13976KLFT LFT20190227172510502/27/19 17:25:31  5-MIN KLFT 272325Z 17006KT 10SM OVC024 21/17 A3003 -60 81 600 170/06 RMK AO2 T02060172
13976KLFT LFT20190227173010502/27/19 17:30:31  5-MIN KLFT 272330Z 17005KT 10SM OVC024 21/17 A3003 -50 81 600 160/05 RMK AO2 T02060172
13976KLFT LFT20190227173512102/27/19 17:35:31  5-MIN KLFT 272335Z 17004KT 10SM -RA OVC024 20/17 A3003 -60 84 600 170/04 RMK AO2 RAB31 P0000 T02000172
13976KLFT LFT20190227174012802/27/19 17:40:31  5-MIN KLFT 272340Z 17004KT 10SM -RA BKN024 OVC032 20/18 A3004 -60 87 500 170/04 RMK AO2 RAB31 P0000 T02000178
13976KLFT LFT20190227174512702/27/19 17:45:31  5-MIN KLFT 272345Z 17005KT 10SM BKN024 OVC032 20/18 A3004 -60 87 500 170/05 RMK AO2 RAB31E42 P0000 T02000178
13976KLFT LFT20190227175015802/27/19 17:50:31  5-MIN KLFT 272350Z 17005KT 10SM BKN024 OVC032 20/18 A3004 -60 87 500 170/05 RMK AO2 RAB31E42 SLP170 P0000 60000 T02000178 10233 20189 56030
13976KLFT LFT20190227175511902/27/19 17:55:31  5-MIN KLFT 272355Z 18004KT 10SM BKN024 BKN034 OVC100 20/18 A3004 -60 87 500 180/04 RMK AO2 T02000178
13976KLFT LFT20190227180011902/27/19 18:00:31  5-MIN KLFT 280000Z 18005KT 10SM BKN026 BKN038 OVC100 20/18 A3004 -60 87 500 180/05 RMK AO2 T02000178
13976KLFT LFT20190227180511902/27/19 18:05:31  5-MIN KLFT 280005Z 17003KT 10SM SCT024 BKN030 OVC070 20/18 A3004 -60 87 500 170/03 RMK AO2 T02000178
13976KLFT LFT20190227181011902/27/19 18:10:31  5-MIN KLFT 280010Z 00000KT 10SM FEW017 BKN026 OVC070 20/18 A3004 -60 87 500 000/00 RMK AO2 T02000178
13976KLFT LFT20190227181511902/27/19 18:15:31  5-MIN KLFT 280015Z 00000KT 10SM FEW017 BKN026 OVC070 20/18 A3004 -60 87 500 000/00 RMK AO2 T02000178
13976KLFT LFT20190227182011902/27/19 18:20:31  5-MIN KLFT 280020Z 00000KT 10SM SCT017 BKN026 OVC070 20/18 A3004 -60 87 500 000/00 RMK AO2 T02000178
13976KLFT LFT20190227182511202/27/19 18:25:31  5-MIN KLFT 280025Z 16004KT 10SM BKN017 OVC026 20/18 A3004 -60 87 500 160/04 RMK AO2 T02000178
13976KLFT LFT20190227183011202/27/19 18:30:31  5-MIN KLFT 280030Z 17003KT 10SM BKN017 OVC026 20/18 A3004 -60 87 500 160/03 RMK AO2 T02000178
13976KLFT LFT20190227183511202/27/19 18:35:31  5-MIN KLFT 280035Z 00000KT 10SM BKN017 OVC026 20/18 A3003 -50 87 600 000/00 RMK AO2 T02000178
13976KLFT LFT20190227184012002/27/19 18:40:31  5-MIN KLFT 280040Z 15004KT 9SM -RA OVC016 20/18 A3003 -50 87 600 150/04 RMK AO2 RAB40 P0000 T02000178
13976KLFT LFT20190227184512002/27/19 18:45:31  5-MIN KLFT 280045Z 16004KT 9SM -RA OVC014 19/18 A3003 -60 90 500 160/04 RMK AO2 RAB40 P0000 T01940178
13976KLFT LFT20190227185012802/27/19 18:50:31  5-MIN KLFT 280050Z 16003KT 10SM -RA OVC014 19/18 A3004 -60 90 500 160/03 RMK AO2 RAB40 SLP170 P0000 T01940178
13976KLFT LFT20190227185510502/27/19 18:55:31  5-MIN KLFT 280055Z 00000KT 10SM OVC014 19/18 A3004 -60 93 500 000/00 RMK AO2 T01940183
13976KLFT LFT20190227190010502/27/19 19:00:31  5-MIN KLFT 280100Z 00000KT 10SM OVC014 19/18 A3004 -60 93 500 000/00 RMK AO2 T01940183
13976KLFT LFT20190227190510502/27/19 19:05:31  5-MIN KLFT 280105Z 00000KT 10SM OVC013 19/18 A3004 -60 93 500 000/00 RMK AO2 T01940183
13976KLFT LFT20190227191010502/27/19 19:10:31  5-MIN KLFT 280110Z 00000KT 10SM OVC013 19/18 A3004 -60 93 500 000/00 RMK AO2 T01940183
13976KLFT LFT20190227191510502/27/19 19:15:31  5-MIN KLFT 280115Z 15003KT 10SM OVC013 19/18 A3004 -60 93 500 150/03 RMK AO2 T01940183
13976KLFT LFT20190227192010502/27/19 19:20:31  5-MIN KLFT 280120Z 00000KT 10SM OVC013 19/18 A3004 -60 93 500 000/00 RMK AO2 T01940183
13976KLFT LFT20190227192510502/27/19 19:25:31  5-MIN KLFT 280125Z 14003KT 10SM OVC013 19/18 A3004 -60 93 500 140/03 RMK AO2 T01940183
13976KLFT LFT20190227193010502/27/19 19:30:31  5-MIN KLFT 280130Z 00000KT 10SM OVC012 19/18 A3004 -60 93 500 000/00 RMK AO2 T01940183
13976KLFT LFT20190227193510502/27/19 19:35:31  5-MIN KLFT 280135Z 15003KT 10SM OVC012 19/18 A3004 -60 93 500 150/03 RMK AO2 T01940183
13976KLFT LFT20190227194010502/27/19 19:40:31  5-MIN KLFT 280140Z 15003KT 10SM OVC011 19/18 A3004 -60 93 500 150/03 RMK AO2 T01940183
13976KLFT LFT20190227194510502/27/19 19:45:31  5-MIN KLFT 280145Z 17004KT 10SM OVC011 19/18 A3004 -70 93 500 170/04 RMK AO2 T01940183
13976KLFT LFT20190227195012402/27/19 19:50:31  5-MIN KLFT 280150Z 16004KT 10SM OVC010 20/18 A3005 -70 90 500 160/04 RMK AO2 CIG 008V012 SLP174 T02000183
13976KLFT LFT20190227195510502/27/19 19:55:31  5-MIN KLFT 280155Z 15005KT 10SM OVC010 20/18 A3004 -60 90 500 150/05 RMK AO2 T02000183
13976KLFT LFT20190227200012102/27/19 20:00:31  5-MIN KLFT 280200Z 16005KT 10SM -RA OVC009 20/19 A3004 -60 93 500 160/05 RMK AO2 RAB00 P0000 T02000189
13976KLFT LFT20190227200512002/27/19 20:05:31  5-MIN KLFT 280205Z 17005KT 9SM -RA OVC009 20/19 A3004 -60 93 500 170/05 RMK AO2 RAB00 P0001 T02000189
13976KLFT LFT20190227201012102/27/19 20:10:31  5-MIN KLFT 280210Z 16006KT 10SM -RA OVC008 19/19 A3004 -60 97 500 160/06 RMK AO2 RAB00 P0001 T01940189
13976KLFT LFT20190227201512102/27/19 20:15:31  5-MIN KLFT 280215Z 17005KT 10SM -RA OVC008 19/19 A3004 -60 97 500 170/05 RMK AO2 RAB00 P0001 T01940189
13976KLFT LFT20190227202012002/27/19 20:20:31  5-MIN KLFT 280220Z 17004KT 10SM OVC007 19/19 A3004 -60 97 500 170/04 RMK AO2 RAB00E18 P0001 T01940189
13976KLFT LFT20190227202512002/27/19 20:25:31  5-MIN KLFT 280225Z 16004KT 10SM OVC007 19/19 A3004 -60 97 500 160/04 RMK AO2 RAB00E18 P0001 T01940189
13976KLFT LFT20190227203012002/27/19 20:30:31  5-MIN KLFT 280230Z 17006KT 10SM OVC007 19/19 A3004 -70 97 500 170/06 RMK AO2 RAB00E18 P0001 T01940189
13976KLFT LFT20190227203512002/27/19 20:35:31  5-MIN KLFT 280235Z 18004KT 10SM OVC007 19/19 A3005 -70 97 500 170/04 RMK AO2 RAB00E18 P0001 T01940189
13976KLFT LFT20190227204012002/27/19 20:40:31  5-MIN KLFT 280240Z 17005KT 10SM OVC007 19/19 A3005 -70 97 500 170/05 RMK AO2 RAB00E18 P0001 T01940189
13976KLFT LFT20190227204512002/27/19 20:45:31  5-MIN KLFT 280245Z 16007KT 10SM OVC007 19/19 A3004 -70 97 500 160/07 RMK AO2 RAB00E18 P0001 T01940189
13976KLFT LFT20190227205013902/27/19 20:50:31  5-MIN KLFT 280250Z 17005KT 10SM OVC007 20/19 A3004 -60 93 500 170/05 RMK AO2 RAB00E18 SLP173 P0001 60001 T02000189 56003
13976KLFT LFT20190227205510502/27/19 20:55:31  5-MIN KLFT 280255Z 16007KT 10SM OVC006 20/19 A3004 -60 93 500 160/07 RMK AO2 T02000189
13976KLFT LFT20190227210010402/27/19 21:00:31  5-MIN KLFT 280300Z 17005KT 9SM OVC006 20/19 A3005 -70 93 500 170/05 RMK AO2 T02000189
13976KLFT LFT20190227210510402/27/19 21:05:31  5-MIN KLFT 280305Z 17003KT 8SM OVC006 20/19 A3005 -70 93 500 170/03 RMK AO2 T02000189
13976KLFT LFT20190227211010402/27/19 21:10:31  5-MIN KLFT 280310Z 17005KT 7SM OVC006 20/19 A3005 -70 93 500 170/05 RMK AO2 T02000189
13976KLFT LFT20190227211510402/27/19 21:15:31  5-MIN KLFT 280315Z 18005KT 7SM OVC006 20/19 A3005 -70 97 500 180/05 RMK AO2 T02000194
13976KLFT LFT20190227212010702/27/19 21:20:31  5-MIN KLFT 280320Z 18005KT 6SM BR OVC004 20/19 A3005 -70 97 500 180/05 RMK AO2 T02000194
13976KLFT LFT20190227212510702/27/19 21:25:31  5-MIN KLFT 280325Z 18005KT 5SM BR OVC004 20/19 A3005 -70 97 500 180/05 RMK AO2 T02000194
13976KLFT LFT20190227213010702/27/19 21:30:31  5-MIN KLFT 280330Z 18006KT 4SM BR OVC004 20/19 A3004 -70 97 500 180/06 RMK AO2 T02000194
13976KLFT LFT20190227213510702/27/19 21:35:31  5-MIN KLFT 280335Z 18006KT 4SM BR OVC004 20/19 A3004 -60 97 500 180/06 RMK AO2 T02000194
13976KLFT LFT20190227214010702/27/19 21:40:31  5-MIN KLFT 280340Z 19006KT 4SM BR OVC004 20/19 A3004 -70 97 500 190/06 RMK AO2 T02000194
13976KLFT LFT20190227214510702/27/19 21:45:31  5-MIN KLFT 280345Z 19005KT 4SM BR OVC004 20/19 A3005 -70 97 500 190/05 RMK AO2 T02000194
13976KLFT LFT20190227215011402/27/19 21:50:31  5-MIN KLFT 280350Z 18006KT 5SM BR OVC004 20/19 A3004 -70 97 500 180/06 RMK AO2 SLP173 T02000194
13976KLFT LFT20190227215510702/27/19 21:55:31  5-MIN KLFT 280355Z 20008KT 5SM BR OVC003 20/19 A3004 -60 97 500 200/08 RMK AO2 T02000194
13976KLFT LFT20190227220010702/27/19 22:00:31  5-MIN KLFT 280400Z 20008KT 5SM BR OVC003 20/19 A3004 -60 97 500 190/08 RMK AO2 T02000194
13976KLFT LFT20190227220510802/27/19 22:05:31  5-MIN KLFT 280405Z 19007KT 6SM BR OVC003 19/19 A3004 -60 100 500 190/07 RMK AO2 T01940194
13976KLFT LFT20190227221011302/27/19 22:10:31  5-MIN KLFT 280410Z AUTO 19007KT 5SM BR OVC003 19/19 A3004 -60 100 500 190/07 RMK AO2 T01940194
13976KLFT LFT20190227221511302/27/19 22:15:31  5-MIN KLFT 280415Z AUTO 18005KT 5SM BR OVC003 19/19 A3004 -60 100 500 180/05 RMK AO2 T01940194
13976KLFT LFT20190227222011302/27/19 22:20:31  5-MIN KLFT 280420Z AUTO 19007KT 5SM BR OVC003 19/19 A3004 -60 100 500 190/07 RMK AO2 T01940194
13976KLFT LFT20190227222511302/27/19 22:25:31  5-MIN KLFT 280425Z AUTO 19008KT 4SM BR OVC003 19/19 A3004 -60 100 500 190/08 RMK AO2 T01940194
13976KLFT LFT20190227223011302/27/19 22:30:31  5-MIN KLFT 280430Z AUTO 19007KT 4SM BR OVC003 19/19 A3004 -60 100 500 190/07 RMK AO2 T01940194
13976KLFT LFT20190227223511302/27/19 22:35:31  5-MIN KLFT 280435Z AUTO 19006KT 3SM BR OVC003 19/19 A3004 -60 100 500 190/06 RMK AO2 T01940194
13976KLFT LFT20190227224011302/27/19 22:40:31  5-MIN KLFT 280440Z AUTO 19007KT 3SM BR OVC003 19/19 A3004 -60 100 500 190/07 RMK AO2 T01940194
13976KLFT LFT20190227224511702/27/19 22:45:31  5-MIN KLFT 280445Z AUTO 19007KT 1 3/4SM BR OVC003 19/19 A3004 -60 100 500 190/07 RMK AO2 T01940194
13976KLFT LFT20190227225012402/27/19 22:50:31  5-MIN KLFT 280450Z AUTO 19008KT 1 1/4SM BR OVC002 19/19 A3004 -60 100 500 190/08 RMK AO2 SLP171 T01940194
13976KLFT LFT20190227225511702/27/19 22:55:31  5-MIN KLFT 280455Z AUTO 19007KT 1 1/4SM BR OVC002 19/19 A3004 -60 100 500 190/07 RMK AO2 T01940194
13976KLFT LFT20190227230011702/27/19 23:00:31  5-MIN KLFT 280500Z AUTO 19006KT 1 1/4SM BR OVC002 19/19 A3003 -60 100 500 190/06 RMK AO2 T01940194
13976KLFT LFT20190227230511702/27/19 23:05:31  5-MIN KLFT 280505Z AUTO 19008KT 1 1/4SM BR OVC002 19/19 A3003 -50 100 500 190/08 RMK AO2 T01940194
13976KLFT LFT20190227231011702/27/19 23:10:31  5-MIN KLFT 280510Z AUTO 19006KT 1 1/4SM BR OVC002 19/19 A3003 -50 100 500 190/06 RMK AO2 T01940194
13976KLFT LFT20190227231511702/27/19 23:15:31  5-MIN KLFT 280515Z AUTO 19007KT 1 1/4SM BR OVC002 19/19 A3003 -50 100 500 190/07 RMK AO2 T01940194
13976KLFT LFT20190227232011702/27/19 23:20:31  5-MIN KLFT 280520Z AUTO 19007KT 1 1/4SM BR OVC002 19/19 A3003 -50 100 500 190/07 RMK AO2 T01940194
13976KLFT LFT20190227232511702/27/19 23:25:31  5-MIN KLFT 280525Z AUTO 18006KT 1 1/4SM BR OVC002 19/19 A3003 -50 100 500 180/06 RMK AO2 T01940194
13976KLFT LFT20190227233011702/27/19 23:30:31  5-MIN KLFT 280530Z AUTO 19006KT 1 1/4SM BR OVC002 19/19 A3003 -50 100 500 180/06 RMK AO2 T01940194
13976KLFT LFT20190227233511702/27/19 23:35:31  5-MIN KLFT 280535Z AUTO 19006KT 1 1/4SM BR OVC002 19/19 A3003 -50 100 500 190/06 RMK AO2 T01940194
13976KLFT LFT20190227234011702/27/19 23:40:31  5-MIN KLFT 280540Z AUTO 18006KT 1 1/4SM BR OVC002 19/19 A3002 -50 100 500 180/06 RMK AO2 T01940194
13976KLFT LFT20190227234511702/27/19 23:45:31  5-MIN KLFT 280545Z AUTO 19007KT 1 1/2SM BR OVC002 19/19 A3002 -40 100 500 190/07 RMK AO2 T01940194
13976KLFT LFT20190227235015802/27/19 23:50:31  5-MIN KLFT 280550Z AUTO 19007KT 1 1/2SM BR OVC002 19/19 A3002 -40 100 500 190/07 RMK AO2 SLP165 60001 T01940194 10200 20194 402330144 51002
13976KLFT LFT20190227235511702/27/19 23:55:31  5-MIN KLFT 280555Z AUTO 18006KT 1 1/2SM BR OVC002 19/19 A3002 -40 100 500 180/06 RMK AO2 T01940194
13976KLFT LFT20190228000011702/28/19 00:00:31  5-MIN KLFT 280600Z AUTO 19005KT 1 1/2SM BR OVC002 19/19 A3002 -50 100 500 190/05 RMK AO2 T01940194
13976KLFT LFT20190228000511702/28/19 00:05:31  5-MIN KLFT 280605Z AUTO 19006KT 1 1/2SM BR OVC002 19/19 A3002 -40 100 500 190/06 RMK AO2 T01940194
13976KLFT LFT20190228001011702/28/19 00:10:31  5-MIN KLFT 280610Z AUTO 19007KT 1 1/2SM BR OVC002 19/19 A3002 -40 100 500 190/07 RMK AO2 T01940194
13976KLFT LFT20190228001511302/28/19 00:15:31  5-MIN KLFT 280615Z AUTO 19005KT 2SM BR OVC002 19/19 A3001 -40 100 500 190/05 RMK AO2 T01940194
13976KLFT LFT20190228002011702/28/19 00:20:31  5-MIN KLFT 280620Z AUTO 20005KT 2 1/2SM BR OVC002 19/19 A3002 -40 100 500 200/05 RMK AO2 T01940194
13976KLFT LFT20190228002511702/28/19 00:25:31  5-MIN KLFT 280625Z AUTO 20005KT 2 1/2SM BR OVC002 19/19 A3002 -40 100 500 200/05 RMK AO2 T01940194
13976KLFT LFT20190228003011302/28/19 00:30:31  5-MIN KLFT 280630Z AUTO 19005KT 2SM BR OVC002 19/19 A3001 -40 100 500 190/05 RMK AO2 T01940194
13976KLFT LFT20190228003511202/28/19 00:35:31  5-MIN KLFT 280635Z AUTO 20005KT 2SM BR OVC002 20/19 A3001 -30 97 600 200/05 RMK AO2 T02000194
13976KLFT LFT20190228004011202/28/19 00:40:31  5-MIN KLFT 280640Z AUTO 18005KT 2SM BR OVC002 20/19 A3001 -30 97 600 180/05 RMK AO2 T02000194
13976KLFT LFT20190228004511602/28/19 00:45:31  5-MIN KLFT 280645Z AUTO 19006KT 1 3/4SM BR OVC002 20/19 A3001 -30 97 600 190/06 RMK AO2 T02000194
13976KLFT LFT20190228005010602/28/19 00:50:31  5-MIN KLFT 280650Z AUTO 19005KT 1 3/4SM BR OVC002 20/19 A3001 -30 97 600 190/05 RMK AO2
13976KLFT LFT20190228005511602/28/19 00:55:31  5-MIN KLFT 280655Z AUTO 19006KT 1 1/2SM BR OVC002 20/19 A3001 -30 97 600 190/06 RMK AO2 T02000194
13976KLFT LFT20190228010011602/28/19 01:00:31  5-MIN KLFT 280700Z AUTO 20007KT 1 1/2SM BR OVC002 20/19 A3001 -40 97 600 200/07 RMK AO2 T02000194
13976KLFT LFT20190228010511602/28/19 01:05:31  5-MIN KLFT 280705Z AUTO 20006KT 1 1/4SM BR OVC002 20/19 A3002 -40 97 600 200/06 RMK AO2 T02000194
13976KLFT LFT20190228011011102/28/19 01:10:31  5-MIN KLFT 280710Z AUTO 21006KT 1SM BR VV002 20/19 A3002 -40 97 600 200/06 RMK AO2 T02000194
13976KLFT LFT20190228011511302/28/19 01:15:31  5-MIN KLFT 280715Z AUTO 21006KT 3/4SM BR VV002 20/19 A3002 -40 97 600 210/06 RMK AO2 T02000194
13976KLFT LFT20190228012011102/28/19 01:20:31  5-MIN KLFT 280720Z AUTO 20007KT 1SM BR VV002 20/19 A3001 -40 97 600 200/07 RMK AO2 T02000194
13976KLFT LFT20190228012511202/28/19 01:25:31  5-MIN KLFT 280725Z AUTO 20006KT 1SM BR VV002 20/20 A3001 -30 100 600 200/06 RMK AO2 T02000200
13976KLFT LFT20190228013011302/28/19 01:30:31  5-MIN KLFT 280730Z AUTO 20006KT 3/4SM BR VV002 20/19 A3001 -30 97 600 200/06 RMK AO2 T02000194
13976KLFT LFT20190228013511402/28/19 01:35:31  5-MIN KLFT 280735Z AUTO 20005KT 3/4SM BR VV002 20/20 A3001 -30 100 600 200/05 RMK AO2 T02000200
13976KLFT LFT20190228014011402/28/19 01:40:31  5-MIN KLFT 280740Z AUTO 20004KT 3/4SM BR VV002 20/20 A3001 -30 100 600 200/04 RMK AO2 T02000200
13976KLFT LFT20190228014511402/28/19 01:45:31  5-MIN KLFT 280745Z AUTO 20005KT 3/4SM BR VV002 20/20 A3001 -30 100 600 200/05 RMK AO2 T02000200
13976KLFT LFT20190228015012102/28/19 01:50:31  5-MIN KLFT 280750Z AUTO 19005KT 1/2SM FG VV002 20/20 A3001 -30 100 600 190/05 RMK AO2 SLP161 T02000200
13976KLFT LFT20190228015511302/28/19 01:55:31  5-MIN KLFT 280755Z AUTO 20005KT 1/2SM FG VV002 20/19 A3001 -30 97 600 200/05 RMK AO2 T02000194
13976KLFT LFT20190228020011302/28/19 02:00:31  5-MIN KLFT 280800Z AUTO 20005KT 1/2SM FG VV002 20/19 A3001 -30 97 600 200/05 RMK AO2 T02000194
13976KLFT LFT20190228020511402/28/19 02:05:31  5-MIN KLFT 280805Z AUTO 18004KT 1/2SM FG VV002 20/20 A3000 -30 100 600 180/04 RMK AO2 T02000200
13976KLFT LFT20190228021011402/28/19 02:10:31  5-MIN KLFT 280810Z AUTO 18005KT 1/2SM FG VV002 20/20 A3001 -30 100 600 180/05 RMK AO2 T02000200
13976KLFT LFT20190228021511402/28/19 02:15:31  5-MIN KLFT 280815Z AUTO 19004KT 1/2SM FG VV002 19/19 A3001 -30 100 500 190/04 RMK AO2 T01940194
13976KLFT LFT20190228022011402/28/19 02:20:31  5-MIN KLFT 280820Z AUTO 18005KT 1/2SM FG VV002 19/19 A3000 -30 100 500 180/05 RMK AO2 T01940194
13976KLFT LFT20190228022511402/28/19 02:25:31  5-MIN KLFT 280825Z AUTO 18004KT 1/2SM FG VV002 19/19 A3000 -20 100 500 180/04 RMK AO2 T01940194
13976KLFT LFT20190228023011402/28/19 02:30:31  5-MIN KLFT 280830Z AUTO 18004KT 1/2SM FG VV002 19/19 A3000 -30 100 500 180/04 RMK AO2 T01940194
13976KLFT LFT20190228023511402/28/19 02:35:31  5-MIN KLFT 280835Z AUTO 20004KT 1/2SM FG VV002 19/19 A3001 -30 100 500 190/04 RMK AO2 T01940194
13976KLFT LFT20190228024011402/28/19 02:40:31  5-MIN KLFT 280840Z AUTO 18005KT 1/2SM FG VV002 19/19 A3000 -20 100 500 180/05 RMK AO2 T01940194
13976KLFT LFT20190228024511402/28/19 02:45:31  5-MIN KLFT 280845Z AUTO 17004KT 1/2SM FG VV002 19/19 A3000 -20 100 500 170/04 RMK AO2 T01940194
13976KLFT LFT20190228025012702/28/19 02:50:31  5-MIN KLFT 280850Z AUTO 18003KT 1/2SM FG VV002 19/19 A3000 -30 100 500 180/03 RMK AO2 SLP159 T01940194 58007
13976KLFT LFT20190228025511402/28/19 02:55:31  5-MIN KLFT 280855Z AUTO 20004KT 1/2SM FG VV002 19/19 A3000 -30 100 500 200/04 RMK AO2 T01940194
13976KLFT LFT20190228030011402/28/19 03:00:31  5-MIN KLFT 280900Z AUTO 20004KT 1/2SM FG VV002 19/19 A3000 -30 100 500 200/04 RMK AO2 T01940194
13976KLFT LFT20190228030511402/28/19 03:05:31  5-MIN KLFT 280905Z AUTO 17005KT 1/2SM FG VV002 19/19 A2999 -10 100 500 170/05 RMK AO2 T01940194
13976KLFT LFT20190228031011402/28/19 03:10:31  5-MIN KLFT 280910Z AUTO 18005KT 1/2SM FG VV002 19/19 A2999 -10 100 500 180/05 RMK AO2 T01940194
13976KLFT LFT20190228031511402/28/19 03:15:31  5-MIN KLFT 280915Z AUTO 19005KT 1/2SM FG VV002 19/19 A2999 -20 100 500 190/05 RMK AO2 T01940194
13976KLFT LFT20190228032011302/28/19 03:20:31  5-MIN KLFT 280920Z AUTO 19005KT 3/4SM BR VV002 20/19 A2999 -20 97 600 190/05 RMK AO2 T02000194
13976KLFT LFT20190228032511302/28/19 03:25:31  5-MIN KLFT 280925Z AUTO 20006KT 3/4SM BR VV002 20/19 A2999 -20 97 600 200/06 RMK AO2 T02000194
13976KLFT LFT20190228033011302/28/19 03:30:31  5-MIN KLFT 280930Z AUTO 20005KT 1/2SM FG VV002 20/19 A2999 -20 97 600 200/05 RMK AO2 T02000194
13976KLFT LFT20190228033511302/28/19 03:35:31  5-MIN KLFT 280935Z AUTO 19005KT 1/2SM FG VV002 20/19 A2999 -10 97 600 190/05 RMK AO2 T02000194
13976KLFT LFT20190228034011302/28/19 03:40:31  5-MIN KLFT 280940Z AUTO 20004KT 3/4SM BR VV002 20/19 A2999 -20 97 600 200/04 RMK AO2 T02000194
13976KLFT LFT20190228034511402/28/19 03:45:31  5-MIN KLFT 280945Z AUTO 19004KT 3/4SM BR VV002 20/20 A2999 -10 100 600 190/04 RMK AO2 T02000200
13976KLFT LFT20190228035012102/28/19 03:50:31  5-MIN KLFT 280950Z AUTO 18003KT 3/4SM BR VV002 20/20 A2999 -10 100 600 180/03 RMK AO2 SLP154 T02000200
13976KLFT LFT20190228035511402/28/19 03:55:31  5-MIN KLFT 280955Z AUTO 19003KT 1/2SM FG VV002 20/20 A2999 -10 100 600 190/03 RMK AO2 T02000200
13976KLFT LFT20190228040011402/28/19 04:00:31  5-MIN KLFT 281000Z AUTO 18003KT 1/2SM FG VV002 20/20 A2999 -10 100 600 180/03 RMK AO2 T02000200
13976KLFT LFT20190228040511402/28/19 04:05:31  5-MIN KLFT 281005Z AUTO 18004KT 1/2SM FG VV002 20/20 A2999 -10 100 600 180/04 RMK AO2 T02000200
13976KLFT LFT20190228041011402/28/19 04:10:31  5-MIN KLFT 281010Z AUTO 19004KT 1/2SM FG VV002 20/20 A2999 -10 100 600 190/04 RMK AO2 T02000200
13976KLFT LFT20190228041511402/28/19 04:15:31  5-MIN KLFT 281015Z AUTO 20004KT 1/2SM FG VV002 20/20 A2999 -20 100 600 190/04 RMK AO2 T02000200
13976KLFT LFT20190228042011402/28/19 04:20:31  5-MIN KLFT 281020Z AUTO 19003KT 1/2SM FG VV002 20/20 A2999 -10 100 600 190/03 RMK AO2 T02000200
13976KLFT LFT20190228042511402/28/19 04:25:31  5-MIN KLFT 281025Z AUTO 18004KT 1/2SM FG VV002 20/20 A2999 -20 100 600 180/04 RMK AO2 T02000200
13976KLFT LFT20190228043011402/28/19 04:30:31  5-MIN KLFT 281030Z AUTO 19005KT 1/2SM FG VV002 20/20 A3000 -20 100 600 190/05 RMK AO2 T02000200
13976KLFT LFT20190228043511402/28/19 04:35:31  5-MIN KLFT 281035Z AUTO 20004KT 1/2SM FG VV002 20/20 A3000 -30 100 600 200/04 RMK AO2 T02000200
13976KLFT LFT20190228044011302/28/19 04:40:31  5-MIN KLFT 281040Z AUTO 20004KT 1/2SM FG VV002 20/19 A3000 -30 97 600 200/04 RMK AO2 T02000194
13976KLFT LFT20190228044511302/28/19 04:45:31  5-MIN KLFT 281045Z AUTO 22003KT 1/2SM FG VV002 20/19 A3000 -30 97 600 220/03 RMK AO2 T02000194
13976KLFT LFT20190228045012002/28/19 04:50:31  5-MIN KLFT 281050Z AUTO 22003KT 1/2SM FG VV002 20/19 A3000 -30 97 600 220/03 RMK AO2 SLP160 T02000194
13976KLFT LFT20190228045510902/28/19 04:55:31  5-MIN KLFT 281055Z 00000KT 1/4SM FG VV002 20/20 A3000 -20 100 600 000/00 RMK AO2 T02000200
13976KLFT LFT20190228050010902/28/19 05:00:31  5-MIN KLFT 281100Z 19003KT 1/4SM FG VV002 20/20 A3000 -20 100 600 190/03 RMK AO2 T02000200
13976KLFT LFT20190228050510902/28/19 05:05:31  5-MIN KLFT 281105Z 00000KT 1/4SM FG VV002 20/20 A3000 -20 100 600 000/00 RMK AO2 T02000200
13976KLFT LFT20190228051010902/28/19 05:10:31  5-MIN KLFT 281110Z 16003KT 1/4SM FG VV002 20/20 A3000 -20 100 600 160/03 RMK AO2 T02000200
13976KLFT LFT20190228051510902/28/19 05:15:31  5-MIN KLFT 281115Z 16003KT 1/4SM FG VV002 20/20 A2999 -20 100 600 160/03 RMK AO2 T02000200
13976KLFT LFT20190228052010902/28/19 05:20:31  5-MIN KLFT 281120Z 19003KT 1/4SM FG VV002 20/20 A3000 -20 100 600 190/03 RMK AO2 T02000200
13976KLFT LFT20190228052510902/28/19 05:25:31  5-MIN KLFT 281125Z 18003KT 1/4SM FG VV002 20/20 A3000 -20 100 600 180/03 RMK AO2 T02000200
13976KLFT LFT20190228053010902/28/19 05:30:31  5-MIN KLFT 281130Z 17003KT 1/4SM FG VV002 20/20 A3000 -20 100 600 170/03 RMK AO2 T02000200
13976KLFT LFT20190228053510902/28/19 05:35:31  5-MIN KLFT 281135Z 16003KT 1/4SM FG VV002 20/20 A2999 -20 100 600 160/03 RMK AO2 T02000200
13976KLFT LFT20190228054010902/28/19 05:40:31  5-MIN KLFT 281140Z 17004KT 1/4SM FG VV002 20/20 A2999 -20 100 600 170/04 RMK AO2 T02000200
13976KLFT LFT20190228054510802/28/19 05:45:31  5-MIN KLFT 281145Z 18005KT 1/4SM FG VV002 20/19 A3000 -20 97 600 180/05 RMK AO2 T02000194
13976KLFT LFT20190228055013902/28/19 05:50:31  5-MIN KLFT 281150Z 18005KT 1/4SM FG VV002 20/19 A3000 -20 97 600 180/05 RMK AO2 SLP157 70001 T02000194 10200 20194 58002
13976KLFT LFT20190228055510802/28/19 05:55:31  5-MIN KLFT 281155Z 18004KT 1/4SM FG VV002 20/19 A3000 -20 97 600 180/04 RMK AO2 T02000194
13976KLFT LFT20190228060010902/28/19 06:00:31  5-MIN KLFT 281200Z 19003KT 1/4SM FG VV002 20/20 A3000 -20 100 600 190/03 RMK AO2 T02000200
13976KLFT LFT20190228060510902/28/19 06:05:31  5-MIN KLFT 281205Z 18003KT 1/2SM FG VV002 20/20 A3000 -20 100 600 180/03 RMK AO2 T02000200
13976KLFT LFT20190228061010902/28/19 06:10:31  5-MIN KLFT 281210Z 20005KT 1/4SM FG VV002 20/20 A3000 -30 100 600 200/05 RMK AO2 T02000200
13976KLFT LFT20190228061510802/28/19 06:15:31  5-MIN KLFT 281215Z 18003KT 1/4SM FG VV002 20/19 A3000 -20 97 600 180/03 RMK AO2 T02000194
13976KLFT LFT20190228062010902/28/19 06:20:31  5-MIN KLFT 281220Z 20004KT 1/4SM FG VV002 20/20 A3000 -30 100 600 200/04 RMK AO2 T02000200
13976KLFT LFT20190228062510802/28/19 06:25:31  5-MIN KLFT 281225Z 20005KT 1/4SM FG VV002 20/19 A3000 -30 97 600 200/05 RMK AO2 T02000194
13976KLFT LFT20190228063010802/28/19 06:30:31  5-MIN KLFT 281230Z 22003KT 1/4SM FG VV002 20/19 A3001 -30 97 600 220/03 RMK AO2 T02000194
13976KLFT LFT20190228063510802/28/19 06:35:31  5-MIN KLFT 281235Z 23003KT 1/4SM FG VV002 20/19 A3001 -30 97 600 230/03 RMK AO2 T02000194
13976KLFT LFT20190228064010802/28/19 06:40:31  5-MIN KLFT 281240Z 22003KT 1/4SM FG VV003 20/19 A3001 -30 97 600 220/03 RMK AO2 T02000194
13976KLFT LFT20190228064510902/28/19 06:45:31  5-MIN KLFT 281245Z 00000KT 1/4SM FG VV003 20/20 A3000 -30 100 600 000/00 RMK AO2 T02000200
13976KLFT LFT20190228065009902/28/19 06:50:31  5-MIN KLFT 281250Z 00000KT 1/2SM FG VV002 20/20 A3000 -30 100 600 000/00 RMK AO2
13976KLFT LFT20190228065510902/28/19 06:55:31  5-MIN KLFT 281255Z 00000KT 1/2SM FG VV002 20/20 A3000 -30 100 600 000/00 RMK AO2 T02000200
13976KLFT LFT20190228070010902/28/19 07:00:31  5-MIN KLFT 281300Z 20003KT 1/2SM FG VV002 20/20 A3000 -30 100 600 200/03 RMK AO2 T02000200
13976KLFT LFT20190228070510902/28/19 07:05:31  5-MIN KLFT 281305Z 21003KT 1/2SM FG VV002 20/20 A3000 -30 100 600 210/03 RMK AO2 T02000200
13976KLFT LFT20190228071010902/28/19 07:10:31  5-MIN KLFT 281310Z 00000KT 1/2SM FG VV002 20/20 A3000 -30 100 600 000/00 RMK AO2 T02000200
13976KLFT LFT20190228071510902/28/19 07:15:31  5-MIN KLFT 281315Z 20003KT 1/2SM FG VV002 20/20 A3001 -30 100 600 200/03 RMK AO2 T02000200
13976KLFT LFT20190228072010902/28/19 07:20:31  5-MIN KLFT 281320Z 19003KT 1/2SM FG VV002 20/20 A3001 -30 100 600 190/03 RMK AO2 T02000200
13976KLFT LFT20190228072511002/28/19 07:25:31  5-MIN KLFT 281325Z 19004KT 1/2SM FG OVC002 20/20 A3001 -30 100 600 190/04 RMK AO2 T02000200
13976KLFT LFT20190228073011002/28/19 07:30:31  5-MIN KLFT 281330Z 20003KT 1/2SM FG OVC002 20/20 A3001 -30 100 600 200/03 RMK AO2 T02000200
13976KLFT LFT20190228073511002/28/19 07:35:31  5-MIN KLFT 281335Z 19003KT 1/2SM FG OVC002 20/20 A3001 -40 100 600 190/03 RMK AO2 T02000200
13976KLFT LFT20190228074011002/28/19 07:40:31  5-MIN KLFT 281340Z 20003KT 1/2SM FG OVC002 20/20 A3002 -40 100 600 200/03 RMK AO2 T02000200
13976KLFT LFT20190228074511002/28/19 07:45:31  5-MIN KLFT 281345Z 00000KT 1/2SM FG OVC002 20/20 A3002 -40 100 600 000/00 RMK AO2 T02000200
13976KLFT LFT20190228075011602/28/19 07:50:31  5-MIN KLFT 281350Z 22003KT 3/4SM BR OVC002 21/20 A3003 -50 97 600 220/03 RMK AO2 SLP167 T02060200
13976KLFT LFT20190228075510702/28/19 07:55:31  5-MIN KLFT 281355Z 23003KT 2SM BR OVC002 21/20 A3003 -50 97 600 220/03 RMK AO2 T02060200
13976KLFT LFT20190228080011102/28/19 08:00:31  5-MIN KLFT 281400Z 23004KT 2 1/2SM BR OVC002 21/20 A3003 -50 97 600 230/04 RMK AO2 T02060200
13976KLFT LFT20190228080511102/28/19 08:05:31  5-MIN KLFT 281405Z 24005KT 1 1/2SM BR OVC003 21/20 A3003 -50 97 600 240/05 RMK AO2 T02060200
13976KLFT LFT20190228081011102/28/19 08:10:31  5-MIN KLFT 281410Z 24003KT 1 1/2SM BR OVC003 21/20 A3003 -60 97 600 240/03 RMK AO2 T02060200
13976KLFT LFT20190228081511102/28/19 08:15:31  5-MIN KLFT 281415Z 23004KT 1 1/2SM BR OVC003 21/20 A3004 -60 97 600 230/04 RMK AO2 T02060200
13976KLFT LFT20190228082011102/28/19 08:20:31  5-MIN KLFT 281420Z 23006KT 1 1/2SM BR OVC004 21/20 A3004 -60 97 600 230/06 RMK AO2 T02060200
13976KLFT LFT20190228082511102/28/19 08:25:31  5-MIN KLFT 281425Z 23006KT 1 1/2SM BR OVC004 21/20 A3004 -60 97 600 230/06 RMK AO2 T02060200
13976KLFT LFT20190228083011102/28/19 08:30:31  5-MIN KLFT 281430Z 22004KT 1 1/2SM BR OVC004 21/20 A3004 -60 97 600 220/04 RMK AO2 T02060200
13976KLFT LFT20190228083511202/28/19 08:35:31  5-MIN KLFT 281435Z 22004KT 1 1/2SM BR OVC004 21/21 A3004 -60 100 600 220/04 RMK AO2 T02060206
13976KLFT LFT20190228084011202/28/19 08:40:31  5-MIN KLFT 281440Z 22005KT 1 1/2SM BR OVC004 21/21 A3004 -60 100 600 220/05 RMK AO2 T02060206
13976KLFT LFT20190228084511102/28/19 08:45:31  5-MIN KLFT 281445Z 22006KT 1 1/2SM BR OVC004 21/20 A3004 -60 97 600 220/06 RMK AO2 T02060200
13976KLFT LFT20190228085012402/28/19 08:50:31  5-MIN KLFT 281450Z 23005KT 1 1/2SM BR OVC004 21/20 A3004 -60 97 600 230/05 RMK AO2 SLP173 T02060200 56003
13976KLFT LFT20190228085511102/28/19 08:55:31  5-MIN KLFT 281455Z 22006KT 1 1/2SM BR OVC004 21/20 A3004 -60 97 600 220/06 RMK AO2 T02060200
13976KLFT LFT20190228090011102/28/19 09:00:31  5-MIN KLFT 281500Z 23006KT 1 1/2SM BR OVC004 21/20 A3005 -70 97 600 230/06 RMK AO2 T02060200
13976KLFT LFT20190228090511102/28/19 09:05:31  5-MIN KLFT 281505Z 25007KT 1 1/2SM BR OVC004 21/20 A3005 -70 97 600 250/07 RMK AO2 T02060200
13976KLFT LFT20190228091011102/28/19 09:10:31  5-MIN KLFT 281510Z 24005KT 1 1/2SM BR OVC004 21/20 A3005 -70 97 600 240/05 RMK AO2 T02060200
13976KLFT LFT20190228091511102/28/19 09:15:31  5-MIN KLFT 281515Z 24005KT 1 1/2SM BR OVC004 21/20 A3004 -60 97 600 240/05 RMK AO2 T02060200
13976KLFT LFT20190228092011202/28/19 09:20:31  5-MIN KLFT 281520Z 25006KT 1 1/2SM BR OVC004 21/21 A3004 -60 100 600 250/06 RMK AO2 T02060206
13976KLFT LFT20190228092511102/28/19 09:25:31  5-MIN KLFT 281525Z 24005KT 1 1/2SM BR OVC004 21/20 A3004 -60 97 600 240/05 RMK AO2 T02060200
13976KLFT LFT20190228093011102/28/19 09:30:31  5-MIN KLFT 281530Z 24005KT 1 1/2SM BR OVC004 21/20 A3004 -60 97 600 240/05 RMK AO2 T02060200
13976KLFT LFT20190228093511102/28/19 09:35:31  5-MIN KLFT 281535Z 25004KT 1 1/2SM BR OVC004 21/20 A3004 -60 93 700 240/04 RMK AO2 T02110200
13976KLFT LFT20190228094011102/28/19 09:40:31  5-MIN KLFT 281540Z 22003KT 1 1/2SM BR OVC004 21/21 A3004 -60 97 700 220/03 RMK AO2 T02110206
13976KLFT LFT20190228094511102/28/19 09:45:31  5-MIN KLFT 281545Z 00000KT 1 1/2SM BR OVC004 21/21 A3004 -60 97 700 000/00 RMK AO2 T02110206
13976KLFT LFT20190228095009702/28/19 09:50:31  5-MIN KLFT 281550Z 00000KT 4SM BR OVC004 21/21 A3004 -60 97 700 000/00 RMK AO2
13976KLFT LFT20190228095510702/28/19 09:55:31  5-MIN KLFT 281555Z 22003KT 5SM BR OVC004 21/20 A3004 -60 93 700 220/03 RMK AO2 T02110200
13976KLFT LFT20190228100010702/28/19 10:00:31  5-MIN KLFT 281600Z 22004KT 6SM BR OVC004 21/20 A3004 -60 93 700 220/04 RMK AO2 T02110200
13976KLFT LFT20190228100510702/28/19 10:05:31  5-MIN KLFT 281605Z 22004KT 6SM BR OVC004 21/20 A3004 -60 93 700 220/04 RMK AO2 T02110200
13976KLFT LFT20190228101010402/28/19 10:10:31  5-MIN KLFT 281610Z 24004KT 7SM OVC004 21/20 A3004 -60 93 700 240/04 RMK AO2 T02110200
13976KLFT LFT20190228101511602/28/19 10:15:31  5-MIN KLFT 281615Z 26004KT 8SM OVC004 21/21 A3004 -60 97 700 260/04 RMK AO2 CIG 004V007 T02110206
13976KLFT LFT20190228102010402/28/19 10:20:31  5-MIN KLFT 281620Z 21004KT 8SM OVC005 22/21 A3004 -60 93 700 210/04 RMK AO2 T02170206
13976KLFT LFT20190228102510402/28/19 10:25:31  5-MIN KLFT 281625Z 21004KT 8SM OVC005 22/21 A3004 -60 93 700 200/04 RMK AO2 T02170206
13976KLFT LFT20190228103010402/28/19 10:30:31  5-MIN KLFT 281630Z 18003KT 8SM OVC006 22/21 A3004 -60 93 700 180/03 RMK AO2 T02170206
13976KLFT LFT20190228103510402/28/19 10:35:31  5-MIN KLFT 281635Z 21004KT 7SM OVC006 22/21 A3004 -60 93 700 210/04 RMK AO2 T02170206
13976KLFT LFT20190228104010402/28/19 10:40:31  5-MIN KLFT 281640Z 21004KT 7SM OVC006 22/21 A3004 -60 93 700 210/04 RMK AO2 T02170206
13976KLFT LFT20190228104511102/28/19 10:45:31  5-MIN KLFT 281645Z 20003KT 7SM BKN006 OVC010 22/21 A3004 -60 93 700 200/03 RMK AO2 T02170206
13976KLFT LFT20190228105012302/28/19 10:50:31  5-MIN KLFT 281650Z 20003KT 8SM OVC006 22/21 A3004 -60 93 700 200/03 RMK AO2 CIG 005V010 SLP170 T02170206
13976KLFT LFT20190228105512302/28/19 10:55:31  5-MIN KLFT 281655Z 16003KT 8SM BKN007 OVC013 22/21 A3003 -50 93 700 160/03 RMK AO2 CIG 005V010 T02170206
13976KLFT LFT20190228110013002/28/19 11:00:31  5-MIN KLFT 281700Z 00000KT 9SM BKN007 BKN013 OVC033 22/21 A3003 -50 90 800 000/00 RMK AO2 CIG 006V010 T02220206
13976KLFT LFT20190228110510402/28/19 11:05:31  5-MIN KLFT 281705Z 00000KT 9SM OVC007 22/21 A3003 -60 90 800 000/00 RMK AO2 T02220206
13976KLFT LFT20190228111010502/28/19 11:10:31  5-MIN KLFT 281710Z 00000KT 10SM OVC007 22/21 A3004 -60 90 800 000/00 RMK AO2 T02220206
13976KLFT LFT20190228111511902/28/19 11:15:31  5-MIN KLFT 281715Z 00000KT 10SM BKN008 BKN015 OVC033 22/21 A3004 -60 90 800 000/00 RMK AO2 T02220206
13976KLFT LFT20190228112011902/28/19 11:20:31  5-MIN KLFT 281720Z 27004KT 10SM BKN008 BKN015 OVC033 23/20 A3004 -60 84 900 270/04 RMK AO2 T02280200
13976KLFT LFT20190228112511902/28/19 11:25:31  5-MIN KLFT 281725Z 31005KT 10SM BKN008 BKN015 OVC033 23/21 A3004 -60 87 900 310/05 RMK AO2 T02280206
13976KLFT LFT20190228113011902/28/19 11:30:31  5-MIN KLFT 281730Z 30004KT 10SM BKN008 BKN015 OVC033 23/21 A3003 -60 84 900 300/04 RMK AO2 T02330206
13976KLFT LFT20190228113511902/28/19 11:35:31  5-MIN KLFT 281735Z 00000KT 10SM BKN008 BKN015 OVC033 23/21 A3004 -60 84 900 000/00 RMK AO2 T02330206
13976KLFT LFT20190228114011902/28/19 11:40:31  5-MIN KLFT 281740Z 00000KT 10SM BKN008 BKN015 OVC033 23/20 A3004 -60 84 900 000/00 RMK AO2 T02280200
13976KLFT LFT20190228114511902/28/19 11:45:31  5-MIN KLFT 281745Z 28005KT 10SM BKN008 BKN015 OVC033 23/20 A3004 -60 84 900 280/05 RMK AO2 T02280200
13976KLFT LFT20190228115014402/28/19 11:50:31  5-MIN KLFT 281750Z 29004KT 10SM BKN008 BKN015 OVC033 23/20 A3004 -60 84 900 290/04 RMK AO2 SLP172 T02280200 10233 20200 53017
13976KLFT LFT20190228115511902/28/19 11:55:31  5-MIN KLFT 281755Z 25004KT 10SM BKN008 BKN018 OVC033 23/20 A3004 -60 84 900 250/04 RMK AO2 T02280200
13976KLFT LFT20190228120011902/28/19 12:00:31  5-MIN KLFT 281800Z 26004KT 10SM BKN008 BKN018 OVC033 23/20 A3003 -50 84 900 260/04 RMK AO2 T02280200
13976KLFT LFT20190228120511902/28/19 12:05:31  5-MIN KLFT 281805Z 26003KT 10SM BKN008 BKN018 OVC033 23/20 A3003 -50 84 900 250/03 RMK AO2 T02280200
13976KLFT LFT20190228121011902/28/19 12:10:31  5-MIN KLFT 281810Z 24003KT 10SM BKN012 BKN028 OVC036 23/20 A3003 -50 84 900 240/03 RMK AO2 T02280200
13976KLFT LFT20190228121511902/28/19 12:15:31  5-MIN KLFT 281815Z 24005KT 10SM BKN012 BKN028 OVC036 23/20 A3003 -50 84 900 240/05 RMK AO2 T02280200
13976KLFT LFT20190228122011902/28/19 12:20:31  5-MIN KLFT 281820Z 24005KT 10SM BKN012 BKN028 OVC036 23/20 A3003 -50 84 900 240/05 RMK AO2 T02280200
13976KLFT LFT20190228122511902/28/19 12:25:31  5-MIN KLFT 281825Z 25004KT 10SM BKN012 BKN028 OVC036 23/20 A3003 -50 84 900 240/04 RMK AO2 T02280200
13976KLFT LFT20190228123011902/28/19 12:30:31  5-MIN KLFT 281830Z 21004KT 10SM BKN012 BKN028 OVC036 23/21 A3003 -50 87 900 210/04 RMK AO2 T02280206
13976KLFT LFT20190228123512002/28/19 12:35:31  5-MIN KLFT 281835Z 20004KT 10SM BKN012 BKN028 OVC036 23/21 A3002 -40 84 1000 200/04 RMK AO2 T02330206
13976KLFT LFT20190228124012002/28/19 12:40:31  5-MIN KLFT 281840Z 20003KT 10SM BKN012 BKN028 OVC036 23/21 A3002 -40 84 1000 200/03 RMK AO2 T02330206
13976KLFT LFT20190228124512002/28/19 12:45:31  5-MIN KLFT 281845Z 23004KT 10SM BKN012 BKN028 OVC036 23/20 A3002 -40 81 1000 230/04 RMK AO2 T02330200
13976KLFT LFT20190228125010302/28/19 12:50:31  5-MIN KLFT 281850Z 22004KT 10SM SCT012 BKN040 23/20 A3001 -40 81 1000 220/04 RMK AO2
13976KLFT LFT20190228125512402/28/19 12:55:31  5-MIN KLFT 281855Z 20004KT 10SM SCT040 SCT070 23/20 A3001 -30 81 1000 200/04 RMK AO2 LTG DSNT W T02330200
13976KLFT LFT20190228130012402/28/19 13:00:31  5-MIN KLFT 281900Z 23004KT 10SM SCT040 SCT070 23/21 A3000 -30 84 1000 230/04 RMK AO2 LTG DSNT W T02330206
13976KLFT LFT20190228130513802/28/19 13:05:31  5-MIN KLFT 281905Z 23006KT 10SM FEW039 BKN065 23/20 A3000 -20 81 1000 220/06 RMK AO2 LTG DSNT W AND NW PRESFR T02330200
13976KLFT LFT20190228131013102/28/19 13:10:31  5-MIN KLFT 281910Z 23004KT 10SM FEW039 SCT065 23/21 A2999 -20 84 1000 230/04 RMK AO2 LTG DSNT W AND NW T02330206
13976KLFT LFT20190228131513102/28/19 13:15:31  5-MIN KLFT 281915Z 21005KT 10SM FEW039 FEW065 24/21 A2999 -20 81 1000 210/05 RMK AO2 LTG DSNT W AND NW T02390206
13976KLFT LFT20190228132013802/28/19 13:20:31  5-MIN KLFT 281920Z 21005KT 10SM FEW031 FEW039 SCT065 24/20 A2999 -20 78 1000 210/05 RMK AO2 LTG DSNT W AND NW T02390200
13976KLFT LFT20190228132513302/28/19 13:25:31  5-MIN KLFT 281925Z 24006KT 10SM FEW018 SCT030 BKN065 23/20 A2999 -20 81 1000 240/06 RMK AO2 LTG DSNT W-N T02330200
13976KLFT LFT20190228133013702/28/19 13:30:31  5-MIN KLFT 281930Z 23007KT 10SM FEW018 BKN030 BKN065 23/19 A2999 -20 78 1000 230/07 RMK AO2 LTG DSNT N AND W T02330194
13976KLFT LFT20190228133513802/28/19 13:35:31  5-MIN KLFT 281935Z 25006KT 10SM SCT018 BKN030 BKN065 23/20 A2999 -20 81 1000 250/06 RMK AO2 LTG DSNT N AND NE T02330200
13976KLFT LFT20190228134013802/28/19 13:40:31  5-MIN KLFT 281940Z 24008KT 10SM SCT018 BKN030 BKN044 23/20 A2999 -20 81 1000 240/08 RMK AO2 LTG DSNT N AND NE T02330200
13976KLFT LFT20190228134513202/28/19 13:45:31  5-MIN KLFT 281945Z 27006KT 10SM FEW018 BKN030 OVC050 23/20 A2999 -10 81 1000 270/06 RMK AO2 LTG DSNT NE T02330200
13976KLFT LFT20190228135014002/28/19 13:50:31  5-MIN KLFT 281950Z 29003KT 5SM RA BKN018 BKN030 OVC060 23/20 A2997 0 84 900 290/03 RMK AO2 LTG DSNT NE RAB47 PRESFR P0002
13976KLFT LFT20190228135513802/28/19 13:55:31  5-MIN KLFT 281955Z 25005KT 4SM -RA BKN018 BKN047 OVC075 23/20 A2998 0 84 900 250/05 RMK AO2 LTG DSNT NE P0000 T02280200
13976KLFT LFT20190228140013802/28/19 14:00:31  5-MIN KLFT 282000Z 24005KT 8SM -RA BKN018 BKN047 OVC075 23/21 A2998 0 87 900 240/05 RMK AO2 LTG DSNT NE P0000 T02280206
13976KLFT LFT20190228140513902/28/19 14:05:31  5-MIN KLFT 282005Z 24004KT 10SM -RA BKN018 BKN047 OVC075 23/21 A2998 0 87 900 230/04 RMK AO2 LTG DSNT NE P0000 T02280206
13976KLFT LFT20190228141014102/28/19 14:10:31  5-MIN KLFT 282010Z 26005KT 10SM BKN018 BKN047 OVC075 23/21 A2998 0 87 900 260/05 RMK AO2 LTG DSNT NE RAE08 P0000 T02280206
13976KLFT LFT20190228141514302/28/19 14:15:31  5-MIN KLFT 282015Z 25007KT 10SM BKN018 BKN047 OVC075 23/20 A2998 -10 84 900 250/07 RMK AO2 LTG DSNT NE RAE08 P0000 T02280200
13976KLFT LFT20190228142013102/28/19 14:20:31  5-MIN KLFT 282020Z 24006KT 10SM BKN018 BKN047 OVC075 23/21 A2999 -10 87 900 240/06 RMK AO2 RAE08 P0000 T02280206
13976KLFT LFT20190228142513102/28/19 14:25:31  5-MIN KLFT 282025Z 24005KT 10SM BKN018 BKN047 OVC075 23/21 A2998 -10 87 900 240/05 RMK AO2 RAE08 P0000 T02280206
13976KLFT LFT20190228143013102/28/19 14:30:31  5-MIN KLFT 282030Z 23004KT 10SM BKN018 BKN047 OVC075 23/21 A2998 -10 87 900 230/04 RMK AO2 RAE08 P0000 T02280206
13976KLFT LFT20190228143513102/28/19 14:35:31  5-MIN KLFT 282035Z 23005KT 10SM BKN018 BKN047 OVC075 23/21 A2998 -10 87 900 230/05 RMK AO2 RAE08 P0000 T02280206
13976KLFT LFT20190228144013102/28/19 14:40:31  5-MIN KLFT 282040Z 24005KT 10SM BKN018 BKN047 OVC075 23/21 A2998 -10 87 900 240/05 RMK AO2 RAE08 P0000 T02280206
13976KLFT LFT20190228144513102/28/19 14:45:31  5-MIN KLFT 282045Z 26005KT 10SM BKN018 BKN047 OVC075 23/21 A2998 -10 87 900 260/05 RMK AO2 RAE08 P0000 T02280206
13976KLFT LFT20190228145014902/28/19 14:50:31  5-MIN KLFT 282050Z 24004KT 9SM BKN018 BKN047 OVC075 23/21 A2998 -10 87 900 240/04 RMK AO2 RAE08 SLP152 P0000 60002 T02280206 55001
13976KLFT LFT20190228145511702/28/19 14:55:31  5-MIN KLFT 282055Z 27006KT 5SM -RA BR SCT015 23/21 A2999 -10 87 900 270/06 RMK AO2 P0000 T02280206
13976KLFT LFT20190228150011702/28/19 15:00:31  5-MIN KLFT 282100Z 29004KT 5SM -RA BR SCT015 22/20 A2998 -10 87 900 290/04 RMK AO2 P0001 T02220200
13976KLFT LFT20190228150511702/28/19 15:05:31  5-MIN KLFT 282105Z 31004KT 5SM -RA BR SCT015 22/21 A2998 -10 90 900 310/04 RMK AO2 P0001 T02220206
13976KLFT LFT20190228151011502/28/19 15:10:31  5-MIN KLFT 282110Z 29003KT 5SM -RA BR SCT015 22/21 A2998 0 90 900 290/03 RMK AO2 P0001 T02220206
13976KLFT LFT20190228151511702/28/19 15:15:31  5-MIN KLFT 282115Z 29004KT 5SM -RA BR SCT015 22/21 A2998 -10 93 800 290/04 RMK AO2 P0001 T02170206
13976KLFT LFT20190228152012702/28/19 15:20:31  5-MIN KLFT 282120Z 28003KT 5SM -RA BR SCT015 22/21 A2997 0 93 800 270/03 RMK AO2 LTG DSNT SE P0002 T02170206
13976KLFT LFT20190228152513302/28/19 15:25:31  5-MIN KLFT 282125Z 00000KT 5SM +RA BR SCT015 22/21 A2997 0 93 800 000/00 RMK AO2 LTG DSNT SE AND S P0003 T02170206
13976KLFT LFT20190228153013302/28/19 15:30:31  5-MIN KLFT 282130Z 00000KT 5SM -RA BR SCT015 22/21 A2997 0 93 800 000/00 RMK AO2 LTG DSNT SE AND S P0004 T02170206
13976KLFT LFT20190228153513302/28/19 15:35:31  5-MIN KLFT 282135Z 00000KT 5SM -RA BR SCT015 22/21 A2997 0 93 800 000/00 RMK AO2 LTG DSNT SE AND S P0004 T02170206
13976KLFT LFT20190228154013302/28/19 15:40:31  5-MIN KLFT 282140Z 21003KT 5SM -RA BR SCT015 22/21 A2997 0 93 800 210/03 RMK AO2 LTG DSNT SE AND S P0004 T02170206
13976KLFT LFT20190228154513202/28/19 15:45:31  5-MIN KLFT 282145Z 21004KT 5SM RA BR SCT015 22/21 A2998 0 93 800 200/04 RMK AO2 LTG DSNT E AND SE P0005 T02170206
13976KLFT LFT20190228155014002/28/19 15:50:31  5-MIN KLFT 282150Z 17003KT 5SM -RA BR SCT015 22/21 A2997 0 93 800 170/03 RMK AO2 LTG DSNT E AND SE SLP148 P0005 T02170206
13976KLFT LFT20190228155513202/28/19 15:55:31  5-MIN KLFT 282155Z 20004KT 4SM RA BR OVC100 22/21 A2997 0 93 800 200/04 RMK AO2 LTG DSNT E AND SE P0001 T02170206
13976KLFT LFT20190228160013302/28/19 16:00:31  5-MIN KLFT 282200Z 21003KT 5SM -RA BR OVC100 22/21 A2997 0 93 800 210/03 RMK AO2 LTG DSNT E AND SE P0001 T02170206
13976KLFT LFT20190228160511202/28/19 16:05:31  5-MIN KLFT 282205Z 21003KT 7SM -RA OVC100 22/21 A2997 0 93 800 210/03 RMK AO2 P0001 T02170206
13976KLFT LFT20190228161012602/28/19 16:10:31  5-MIN KLFT 282210Z 20004KT 8SM -RA FEW011 SCT090 OVC110 22/21 A2997 0 93 800 200/04 RMK AO2 P0001 T02170206
13976KLFT LFT20190228161512802/28/19 16:15:31  5-MIN KLFT 282215Z 19003KT 7SM SCT009 BKN090 OVC110 22/21 A2997 0 97 800 180/03 RMK AO2 RAE13 P0001 T02170211
13976KLFT LFT20190228162015102/28/19 16:20:31  5-MIN KLFT 282220Z 18005KT 7SM BKN009 BKN090 OVC110 22/21 A2997 0 97 800 180/05 RMK AO2 LTG DSNT E RAE13 CIG 006V019 P0001 T02170211
13976KLFT LFT20190228162514202/28/19 16:25:31  5-MIN KLFT 282225Z 17004KT 6SM BR SCT009 BKN080 OVC110 22/21 A2997 0 97 800 170/04 RMK AO2 LTG DSNT E RAE13 P0001 T02170211
13976KLFT LFT20190228163014202/28/19 16:30:31  5-MIN KLFT 282230Z 18004KT 6SM BR BKN006 BKN080 OVC110 22/21 A2997 0 97 800 170/04 RMK AO2 LTG DSNT E RAE13 P0001 T02170211
13976KLFT LFT20190228163514202/28/19 16:35:31  5-MIN KLFT 282235Z 18005KT 5SM BR BKN006 BKN080 OVC110 22/21 A2997 0 97 800 180/05 RMK AO2 LTG DSNT E RAE13 P0001 T02170211
13976KLFT LFT20190228164014202/28/19 16:40:31  5-MIN KLFT 282240Z 18005KT 5SM BR BKN006 BKN080 OVC110 22/21 A2998 0 93 800 180/05 RMK AO2 LTG DSNT E RAE13 P0001 T02170206
13976KLFT LFT20190228164514202/28/19 16:45:31  5-MIN KLFT 282245Z 18005KT 6SM BR BKN006 BKN080 OVC110 22/21 A2998 0 93 800 180/05 RMK AO2 LTG DSNT E RAE13 P0001 T02170206
13976KLFT LFT20190228165013502/28/19 16:50:31  5-MIN KLFT 282250Z 19006KT 7SM BKN006 BKN080 OVC110 22/21 A2998 0 93 800 190/06 RMK AO2 RAE13 SLP151 P0001 T02170206
13976KLFT LFT20190228165511802/28/19 16:55:31  5-MIN KLFT 282255Z 19004KT 7SM BKN006 BKN017 OVC048 22/21 A2998 -10 93 800 190/04 RMK AO2 T02170206
13976KLFT LFT20190228170011102/28/19 17:00:31  5-MIN KLFT 282300Z 20006KT 7SM BKN008 BKN017 22/21 A2998 -10 93 800 200/06 RMK AO2 T02170206
13976KLFT LFT20190228170512702/28/19 17:05:31  5-MIN KLFT 282305Z 18008KT 7SM -RA BKN008 OVC018 21/21 A2998 -10 97 700 180/08 RMK AO2 RAB01 P0000 T02110206
13976KLFT LFT20190228171013402/28/19 17:10:31  5-MIN KLFT 282310Z 19005KT 8SM -RA BKN008 BKN018 OVC090 21/21 A2998 -10 97 700 190/05 RMK AO2 RAB01 P0000 T02110206
13976KLFT LFT20190228171513402/28/19 17:15:31  5-MIN KLFT 282315Z 20004KT 8SM -RA SCT008 BKN018 OVC110 21/21 A2998 -10 97 700 200/04 RMK AO2 RAB01 P0000 T02110206
13976KLFT LFT20190228172014602/28/19 17:20:31  5-MIN KLFT 282320Z 21005KT 8SM -RA BKN008 BKN017 OVC048 21/21 A2998 -10 97 700 210/05 RMK AO2 LTG DSNT NW RAB01 P0000 T02110206
13976KLFT LFT20190228172514602/28/19 17:25:31  5-MIN KLFT 282325Z 21004KT 8SM -RA BKN008 BKN017 OVC048 21/21 A2998 -10 97 700 210/04 RMK AO2 LTG DSNT NW RAB01 P0000 T02110206
13976KLFT LFT20190228173014602/28/19 17:30:31  5-MIN KLFT 282330Z 20004KT 8SM -RA BKN008 BKN017 OVC048 21/21 A2998 -10 97 700 200/04 RMK AO2 LTG DSNT NW RAB01 P0000 T02110206
13976KLFT LFT20190228173513502/28/19 17:35:31  5-MIN KLFT 282335Z 19003KT 8SM -RA BKN008 BKN017 OVC048 21/21 A2998 -10 100 700 190/03 RMK AO2 RAB01 P0000 T02060206
13976KLFT LFT20190228174013502/28/19 17:40:31  5-MIN KLFT 282340Z 20003KT 9SM -RA BKN008 BKN017 OVC048 21/21 A2999 -10 100 700 200/03 RMK AO2 RAB01 P0000 T02060206
13976KLFT LFT20190228174513402/28/19 17:45:31  5-MIN KLFT 282345Z 20005KT 8SM -RA BKN008 BKN017 OVC048 21/20 A2999 -10 97 700 200/05 RMK AO2 RAB01 P0000 T02060200
13976KLFT LFT20190228175016502/28/19 17:50:31  5-MIN KLFT 282350Z 19004KT 8SM -RA BKN008 BKN017 OVC048 21/20 A2999 -10 97 700 180/04 RMK AO2 RAB01 SLP154 P0000 60008 T02060200 10239 20206 55018
13976KLFT LFT20190228175511502/28/19 17:55:31  5-MIN KLFT 282355Z 19004KT 9SM -RA OVC110 21/21 A2999 -10 100 700 190/04 RMK AO2 P0000 T02060206
13976KLFT LFT20190228180011602/28/19 18:00:31  5-MIN KLFT 010000Z 00000KT 10SM -RA OVC110 21/21 A2998 -10 100 700 000/00 RMK AO2 P0000 T02060206
13976KLFT LFT20190228180511902/28/19 18:05:31  5-MIN KLFT 010005Z 00000KT 9SM -RA FEW048 OVC110 21/20 A2997 0 97 700 000/00 RMK AO2 P0000 T02060200
13976KLFT LFT20190228181012102/28/19 18:10:31  5-MIN KLFT 010010Z 00000KT 7SM -RA FEW048 OVC110 21/20 A2999 -10 97 700 000/00 RMK AO2 P0000 T02060200
13976KLFT LFT20190228181511402/28/19 18:15:31  5-MIN KLFT 010015Z 19004KT 7SM -RA OVC100 21/20 A3000 -20 97 700 190/04 RMK AO2 P0000 T02060200
13976KLFT LFT20190228182013102/28/19 18:20:31  5-MIN KLFT 010020Z 25003KT 6SM -RA BR FEW065 SCT080 OVC100 21/20 A2999 -20 97 700 240/03 RMK AO2 P0001 T02060200
13976KLFT LFT20190228182514202/28/19 18:25:31  5-MIN KLFT 010025Z 19003KT 4SM RA BR FEW060 SCT075 OVC100 21/20 A2999 -10 97 700 190/03 RMK AO2 LTG DSNT SW P0002 T02060200
13976KLFT LFT20190228183014302/28/19 18:30:31  5-MIN KLFT 010030Z 18006KT 4SM -RA BR FEW055 SCT080 OVC100 21/20 A3000 -20 97 700 180/06 RMK AO2 LTG DSNT SW P0003 T02060200
13976KLFT LFT20190228183514202/28/19 18:35:31  5-MIN KLFT 010035Z 20005KT 5SM RA BR FEW060 FEW080 OVC100 21/20 A3000 -20 97 700 200/05 RMK AO2 LTG DSNT SW P0003 T02060200
13976KLFT LFT20190228184014202/28/19 18:40:31  5-MIN KLFT 010040Z 20006KT 5SM RA BR FEW060 FEW080 OVC100 21/20 A3000 -20 97 700 200/06 RMK AO2 LTG DSNT SW P0004 T02060200
13976KLFT LFT20190228184514902/28/19 18:45:31  5-MIN KLFT 010045Z 21003KT 5SM RA BR FEW060 FEW075 OVC100 21/21 A2999 -20 100 700 210/03 RMK AO2 LTG DSNT S AND SW P0005 T02060206
13976KLFT LFT20190228185015002/28/19 18:50:31  5-MIN KLFT 010050Z 22006KT 5SM -RA BR FEW055 OVC110 21/21 A3000 -20 100 700 220/06 RMK AO2 LTG DSNT S AND SW SLP157 P0005 T02060206
13976KLFT LFT20190228185513502/28/19 18:55:31  5-MIN KLFT 010055Z 24006KT 5SM -RA BR OVC110 21/20 A3000 -20 97 700 240/06 RMK AO2 LTG DSNT S AND SW P0001 T02060200
13976KLFT LFT20190228190011402/28/19 19:00:31  5-MIN KLFT 010100Z 24005KT 8SM -RA OVC110 21/20 A3000 -30 97 700 230/05 RMK AO2 P0001 T02060200
13976KLFT LFT20190228190511402/28/19 19:05:31  5-MIN KLFT 010105Z 21007KT 8SM -RA OVC100 21/20 A3001 -40 97 600 210/07 RMK AO2 P0001 T02060200
13976KLFT LFT20190228191012802/28/19 19:10:31  5-MIN KLFT 010110Z 21006KT 6SM RA BR OVC100 21/20 A3002 -40 97 600 210/06 RMK AO2 LTG DSNT SE P0002 T02060200
13976KLFT LFT20190228191512902/28/19 19:15:31  5-MIN KLFT 010115Z 21006KT 6SM -RA BR OVC100 21/20 A3002 -40 97 600 210/06 RMK AO2 LTG DSNT SE P0002 T02060200
13976KLFT LFT20190228192012602/28/19 19:20:31  5-MIN KLFT 010120Z 20006KT 7SM -RA OVC110 21/20 A3001 -40 97 600 200/06 RMK AO2 LTG DSNT SE P0002 T02060200
13976KLFT LFT20190228192514302/28/19 19:25:31  5-MIN KLFT 010125Z 16004KT 6SM RA BR FEW008 SCT065 OVC100 21/21 A3000 -30 100 700 160/04 RMK AO2 LTG DSNT SE P0003 T02060206
13976KLFT LFT20190228193015002/28/19 19:30:31  5-MIN KLFT 010130Z 16005KT 4SM RA BR FEW006 SCT050 OVC100 21/21 A2999 -20 100 700 160/05 RMK AO2 LTG DSNT SE PRESFR P0004 T02060206
13976KLFT LFT20190228193515102/28/19 19:35:31  5-MIN KLFT 010135Z 00000KT 4SM -RA BR SCT004 BKN050 OVC100 21/21 A2999 -10 100 700 000/00 RMK AO2 LTG DSNT SE PRESFR P0004 T02060206
13976KLFT LFT20190228194014902/28/19 19:40:31  5-MIN KLFT 010140Z 08003KT 4SM -RA BR BKN004 BKN049 OVC100 21/21 A2998 0 100 700 080/03 RMK AO2 LTG DSNT SE PRESFR P0004 T02060206
13976KLFT LFT20190228194514102/28/19 19:45:31  5-MIN KLFT 010145Z 08003KT 4SM -RA BR BKN004 BKN049 OVC100 21/20 A2997 0 97 700 070/03 RMK AO2 LTG DSNT SE P0004 T02060200
13976KLFT LFT20190228195013102/28/19 19:50:31  5-MIN KLFT 010150Z 13003KT 4SM BR BKN004 OVC049 21/20 A2998 0 97 700 120/03 RMK AO2 RAE46 SLP150 P0004 T02060200
13976KLFT LFT20190228195511402/28/19 19:55:31  5-MIN KLFT 010155Z 00000KT 5SM BR BKN004 OVC100 21/20 A2999 -10 97 700 000/00 RMK AO2 T02060200
13976KLFT LFT20190228200011502/28/19 20:00:31  5-MIN KLFT 010200Z 00000KT 5SM BR BKN003 OVC090 21/21 A2999 -20 100 700 000/00 RMK AO2 T02060206
13976KLFT LFT20190228200512202/28/19 20:05:31  5-MIN KLFT 010205Z 00000KT 5SM BR BKN003 BKN100 OVC110 21/21 A2999 -20 100 700 000/00 RMK AO2 T02060206
13976KLFT LFT20190228201011402/28/19 20:10:31  5-MIN KLFT 010210Z 00000KT 5SM BR SCT003 OVC100 21/20 A2999 -10 97 700 000/00 RMK AO2 T02060200
13976KLFT LFT20190228201511502/28/19 20:15:31  5-MIN KLFT 010215Z 00000KT 5SM BR SCT003 OVC100 20/20 A2999 -20 100 600 000/00 RMK AO2 T02000200
13976KLFT LFT20190228202011502/28/19 20:20:31  5-MIN KLFT 010220Z 21003KT 4SM BR BKN003 OVC100 20/20 A2999 -20 100 600 210/03 RMK AO2 T02000200
13976KLFT LFT20190228202512202/28/19 20:25:31  5-MIN KLFT 010225Z 19004KT 4SM BR BKN003 BKN085 OVC110 20/20 A3000 -20 100 600 190/04 RMK AO2 T02000200
13976KLFT LFT20190228203011502/28/19 20:30:31  5-MIN KLFT 010230Z 18004KT 4SM BR BKN003 OVC110 20/20 A3000 -20 100 600 180/04 RMK AO2 T02000200
13976KLFT LFT20190228203511502/28/19 20:35:31  5-MIN KLFT 010235Z 18005KT 4SM BR BKN002 OVC110 20/20 A3000 -20 100 600 170/05 RMK AO2 T02000200
13976KLFT LFT20190228204011502/28/19 20:40:31  5-MIN KLFT 010240Z 17005KT 4SM BR BKN002 OVC110 20/20 A3000 -20 100 600 170/05 RMK AO2 T02000200
13976KLFT LFT20190228204511502/28/19 20:45:31  5-MIN KLFT 010245Z 18006KT 4SM BR BKN002 OVC110 20/20 A3000 -30 100 600 180/06 RMK AO2 T02000200
13976KLFT LFT20190228205014502/28/19 20:50:31  5-MIN KLFT 010250Z 18007KT 6SM BR BKN003 OVC100 20/19 A3001 -30 97 600 180/07 RMK AO2 CIG 002V007 SLP160 60009 T02000194 55000
13976KLFT LFT20190228205512302/28/19 20:55:31  5-MIN KLFT 010255Z 19008KT 8SM BKN003 OVC100 20/19 A3001 -30 97 600 190/08 RMK AO2 CIG 002V007 T02000194
13976KLFT LFT20190228210011102/28/19 21:00:31  5-MIN KLFT 010300Z 19008KT 9SM BKN003 OVC100 20/19 A3001 -40 97 600 190/08 RMK AO2 T02000194
13976KLFT LFT20190228210511102/28/19 21:05:31  5-MIN KLFT 010305Z 19009KT 9SM BKN003 OVC100 20/19 A3001 -40 97 600 180/09 RMK AO2 T02000194
13976KLFT LFT20190228211010402/28/19 21:10:31  5-MIN KLFT 010310Z 18009KT 9SM OVC003 20/19 A3001 -30 97 600 180/09 RMK AO2 T02000194
13976KLFT LFT20190228211510402/28/19 21:15:31  5-MIN KLFT 010315Z 18009KT 8SM OVC003 20/19 A3001 -30 97 600 180/09 RMK AO2 T02000194
13976KLFT LFT20190228212010502/28/19 21:20:31  5-MIN KLFT 010320Z 17006KT 8SM OVC003 19/19 A3000 -30 100 500 170/06 RMK AO2 T01940194
13976KLFT LFT20190228212510502/28/19 21:25:31  5-MIN KLFT 010325Z 17005KT 7SM OVC003 19/19 A3001 -30 100 500 170/05 RMK AO2 T01940194
13976KLFT LFT20190228213010502/28/19 21:30:31  5-MIN KLFT 010330Z 18005KT 7SM OVC003 19/19 A3001 -30 100 500 180/05 RMK AO2 T01940194
13976KLFT LFT20190228213510502/28/19 21:35:31  5-MIN KLFT 010335Z 18004KT 8SM OVC003 19/19 A3001 -30 100 500 180/04 RMK AO2 T01940194
13976KLFT LFT20190228214010502/28/19 21:40:31  5-MIN KLFT 010340Z 17005KT 8SM OVC003 19/19 A3001 -30 100 500 170/05 RMK AO2 T01940194
13976KLFT LFT20190228214510502/28/19 21:45:31  5-MIN KLFT 010345Z 18008KT 7SM OVC003 19/19 A3002 -40 100 500 180/08 RMK AO2 T01940194
13976KLFT LFT20190228215011202/28/19 21:50:31  5-MIN KLFT 010350Z 17006KT 8SM OVC003 19/19 A3001 -40 100 500 170/06 RMK AO2 SLP163 T01940194
13976KLFT LFT20190228215510502/28/19 21:55:31  5-MIN KLFT 010355Z 19005KT 9SM OVC003 19/19 A3002 -40 100 500 190/05 RMK AO2 T01940194
13976KLFT LFT20190228220010502/28/19 22:00:31  5-MIN KLFT 010400Z 19004KT 9SM OVC003 19/19 A3002 -40 100 500 180/04 RMK AO2 T01940194
13976KLFT LFT20190228220510502/28/19 22:05:31  5-MIN KLFT 010405Z 18006KT 9SM OVC003 19/19 A3002 -40 100 500 180/06 RMK AO2 T01940194
13976KLFT LFT20190228221011002/28/19 22:10:31  5-MIN KLFT 010410Z AUTO 19004KT 10SM OVC003 19/19 A3002 -40 97 500 190/04 RMK AO2 T01940189
13976KLFT LFT20190228221511002/28/19 22:15:31  5-MIN KLFT 010415Z AUTO 21005KT 10SM OVC004 19/19 A3002 -40 97 500 210/05 RMK AO2 T01940189
13976KLFT LFT20190228222011002/28/19 22:20:31  5-MIN KLFT 010420Z AUTO 22003KT 10SM OVC004 19/19 A3002 -40 97 500 220/03 RMK AO2 T01940189
13976KLFT LFT20190228222511002/28/19 22:25:31  5-MIN KLFT 010425Z AUTO 00000KT 10SM OVC004 19/19 A3002 -40 97 500 000/00 RMK AO2 T01940189
13976KLFT LFT20190228223011002/28/19 22:30:31  5-MIN KLFT 010430Z AUTO 00000KT 10SM OVC004 19/19 A3002 -40 97 500 000/00 RMK AO2 T01940189
13976KLFT LFT20190228223511002/28/19 22:35:31  5-MIN KLFT 010435Z AUTO 22003KT 10SM OVC004 19/19 A3002 -40 97 500 220/03 RMK AO2 T01940189
13976KLFT LFT20190228224011002/28/19 22:40:31  5-MIN KLFT 010440Z AUTO 23003KT 10SM OVC004 19/19 A3002 -40 97 500 230/03 RMK AO2 T01940189
13976KLFT LFT20190228224511102/28/19 22:45:31  5-MIN KLFT 010445Z AUTO 25003KT 10SM OVC004 19/19 A3002 -40 100 400 250/03 RMK AO2 T01890189
13976KLFT LFT20190228225012402/28/19 22:50:31  5-MIN KLFT 010450Z AUTO 26003KT 10SM BKN004 OVC100 19/19 A3002 -40 97 500 260/03 RMK AO2 SLP163 T01940189
13976KLFT LFT20190228225511702/28/19 22:55:31  5-MIN KLFT 010455Z AUTO 27004KT 10SM BKN004 OVC100 19/19 A3001 -40 97 500 270/04 RMK AO2 T01940189
13976KLFT LFT20190228230011702/28/19 23:00:31  5-MIN KLFT 010500Z AUTO 00000KT 10SM BKN005 OVC100 19/19 A3001 -30 97 500 000/00 RMK AO2 T01940189
13976KLFT LFT20190228230511702/28/19 23:05:31  5-MIN KLFT 010505Z AUTO 00000KT 10SM BKN005 OVC100 19/19 A3001 -30 97 500 000/00 RMK AO2 T01940189
13976KLFT LFT20190228231012402/28/19 23:10:31  5-MIN KLFT 010510Z AUTO 00000KT 10SM SCT005 BKN100 BKN120 19/19 A3001 -30 97 500 000/00 RMK AO2 T01940189
13976KLFT LFT20190228231511802/28/19 23:15:31  5-MIN KLFT 010515Z AUTO 00000KT 10SM BKN005 BKN100 19/19 A3001 -30 100 500 000/00 RMK AO2 T01890189
13976KLFT LFT20190228232011802/28/19 23:20:31  5-MIN KLFT 010520Z AUTO 00000KT 10SM SCT005 BKN100 19/19 A3000 -20 100 500 000/00 RMK AO2 T01890189
13976KLFT LFT20190228232511602/28/19 23:25:31  5-MIN KLFT 010525Z AUTO 00000KT 9SM SCT005 BKN100 19/18 A3000 -20 97 500 000/00 RMK AO2 T01890183
13976KLFT LFT20190228233011602/28/19 23:30:31  5-MIN KLFT 010530Z AUTO 01004KT 8SM FEW005 SCT100 19/18 A2999 -20 97 500 010/04 RMK AO2 T01890183
13976KLFT LFT20190228233511602/28/19 23:35:31  5-MIN KLFT 010535Z AUTO 36003KT 9SM FEW005 SCT100 19/18 A3000 -30 97 500 360/03 RMK AO2 T01890183
13976KLFT LFT20190228234010902/28/19 23:40:31  5-MIN KLFT 010540Z AUTO 35003KT 9SM SCT005 19/18 A3001 -30 97 500 350/03 RMK AO2 T01890183
13976KLFT LFT20190228234510902/28/19 23:45:31  5-MIN KLFT 010545Z AUTO 00000KT 9SM SCT005 19/19 A3001 -30 97 500 000/00 RMK AO2 T01940189
13976KLFT LFT20190228235015102/28/19 23:50:31  5-MIN KLFT 010550Z AUTO 34003KT 10SM SCT006 19/19 A3001 -30 97 500 340/03 RMK AO2 SLP160 60009 T01940189 10206 20189 402390189 53007
13976KLFT LFT20190228235512102/28/19 23:55:31  5-MIN KLFT 010555Z AUTO 03004KT 9SM BKN006 19/19 A3000 -20 97 500 030/04 RMK AO2 CIG 005V009 T01940189
