53988KBKB BKB20191001012011410/01/19 01:20:31  5-MIN KBKB 010720Z AUTO 00000KT 8SM RA CLR 21/20 A3000 220 93 1000 000/00 RMK AO2 T02110200 PNO
53988KBKB BKB20191001012511410/01/19 01:25:31  5-MIN KBKB 010725Z AUTO 00000KT 9SM RA CLR 21/20 A3000 220 93 1000 000/00 RMK AO2 T02110200 PNO
53988KBKB BKB20191001013010610/01/19 01:30:31  5-MIN KBKB 010730Z AUTO 00000KT 10SM RA CLR 21/220 97 1000 000/00 RMK AO2 T02060200 PNO
53988KBKB BKB20191001030011410/01/19 03:00:31  5-MIN KBKB 010900Z AUTO 00000KT 8SM RA CLR 21/20 A3000 220 97 1000 000/00 RMK AO2 T02060200 PNO
53988KBKB BKB20191001030511410/01/19 03:05:31  5-MIN KBKB 010905Z AUTO 00000KT 8SM RA CLR 21/20 A3000 220 97 1000 000/00 RMK AO2 T02060200 PNO
53988KBKB BKB20191001031011410/01/19 03:10:31  5-MIN KBKB 010910Z AUTO 00000KT 8SM RA CLR 21/20 A3000 220 97 1000 000/00 RMK AO2 T02060200 PNO
53988KBKB BKB20191001031511410/01/19 03:15:31  5-MIN KBKB 010915Z AUTO 00000KT 7SM RA CLR 21/20 A3000 220 97 1000 000/00 RMK AO2 T02060200 PNO
53988KBKB BKB20191001032011410/01/19 03:20:31  5-MIN KBKB 010920Z AUTO 00000KT 7SM RA CLR 21/19 A3000 220 93 1000 000/00 RMK AO2 T02060194 PNO
53988KBKB BKB20191001032511710/01/19 03:25:31  5-MIN KBKB 010925Z AUTO 00000KT 6SM RA BR CLR 21/19 A3000 220 93 1000 000/00 RMK AO2 T02060194 PNO
53988KBKB BKB20191001033011710/01/19 03:30:31  5-MIN KBKB 010930Z AUTO 00000KT 6SM RA BR CLR 21/19 A3000 220 93 1000 000/00 RMK AO2 T02060194 PNO
53988KBKB BKB20191001033514510/01/19 03:35:31  5-MIN KBKB 010935Z AUTO 00000KT 6SM RA BR CLR 21/19 A3001 220 93 1000 000/00 RMK AO2 T02060194 PNO1MPLETE, 144 5MIN(S) LISTED.
53988KBKB BKB20191001114011610/01/19 11:40:31  5-MIN KBKB 011740Z AUTO 09005KT 10SM -RA CLR 33/20 A3004 190 46 2300 090/05 RMK AO2 T03280200 PNO
53988KBKB BKB20191001114511610/01/19 11:45:31  5-MIN KBKB 011745Z AUTO VRB04KT 10SM -RA CLR 33/19 A3003 190 44 2300 VRB/04 RMK AO2 T03280194 PNO
53988KBKB BKB20191001115014710/01/19 11:50:31  5-MIN KBKB 011750Z AUTO VRB06KT 10SM -RA CLR 33/20 A3004 190 46 2300 VRB/06 RMK AO2 SLP196 6//// T03280200 10333 20194 51009 PNO
53988KBKB BKB20191001115511610/01/19 11:55:31  5-MIN KBKB 011755Z AUTO VRB04KT 10SM -RA CLR 33/20 A3003 190 46 2300 VRB/04 RMK AO2 T03280200 PNO
53988KBKB BKB20191001120011610/01/19 12:00:31  5-MIN KBKB 011800Z AUTO VRB03KT 10SM -RA CLR 33/20 A3003 200 45 2400 VRB/03 RMK AO2 T03330200 PNO
53988KBKB BKB20191001120511610/01/19 12:05:31  5-MIN KBKB 011805Z AUTO VRB04KT 10SM -RA CLR 34/20 A3003 200 43 2400 VRB/04 RMK AO2 T03390200 PNO
53988KBKB BKB20191001121011610/01/19 12:10:31  5-MIN KBKB 011810Z AUTO VRB03KT 10SM -RA CLR 33/20 A3002 200 45 2400 VRB/03 RMK AO2 T03330200 PNO
53988KBKB BKB20191001121511610/01/19 12:15:31  5-MIN KBKB 011815Z AUTO VRB05KT 10SM -RA CLR 34/20 A3002 210 43 2400 VRB/05 RMK AO2 T03390200 PNO
53988KBKB BKB20191001122011610/01/19 12:20:31  5-MIN KBKB 011820Z AUTO VRB05KT 10SM -RA CLR 33/19 A3002 210 43 2400 VRB/05 RMK AO2 T03330194 PNO
53988KBKB BKB20191001122511610/01/19 12:25:31  5-MIN KBKB 011825Z AUTO VRB05KT 10SM -RA CLR 33/19 A3002 210 43 2400 VRB/05 RMK AO2 T03330194 PNO
53988KBKB BKB20191001123011610/01/19 12:30:31  5-MIN KBKB 011830Z AUTO 00000KT 10SM -RA CLR 34/19 A3002 210 42 2400 000/00 RMK AO2 T03390194 PNO
53988KBKB BKB20191001123511610/01/19 12:35:31  5-MIN KBKB 011835Z AUTO VRB03KT 10SM -RA CLR 33/19 A3001 210 43 2400 VRB/03 RMK AO2 T03330194 PNO
53988KBKB BKB20191001124011610/01/19 12:40:31  5-MIN KBKB 011840Z AUTO VRB05KT 10SM -RA CLR 34/19 A3001 210 42 2500 VRB/05 RMK AO2 T03390194 PNO
53988KBKB BKB20191001124511610/01/19 12:45:31  5-MIN KBKB 011845Z AUTO VRB03KT 10SM -RA CLR 33/20 A3001 220 45 2400 VRB/03 RMK AO2 T03330200 PNO
53988KBKB BKB20191001125012310/01/19 12:50:31  5-MIN KBKB 011850Z AUTO VRB03KT 10SM -RA CLR 33/20 A3000 220 45 2400 VRB/03 RMK AO2 SLP185 T03330200 PNO
53988KBKB BKB20191001125511610/01/19 12:55:31  5-MIN KBKB 011855Z AUTO VRB04KT 10SM -RA CLR 33/20 A3000 220 45 2400 VRB/04 RMK AO2 T03330200 PNO
53988KBKB BKB20191001130011510/01/19 13:00:31  5-MIN KBKB 011900Z AUTO VRB04KT 9SM -RA CLR 33/19 A3000 220 43 2400 VRB/04 RMK AO2 T03330194 PNO
53988KBKB BKB20191001130511510/01/19 13:05:31  5-MIN KBKB 011905Z AUTO 21004KT 9SM -RA CLR 33/20 A3000 230 45 2400 200/04 RMK AO2 T03330200 PNO
53988KBKB BKB20191001131011610/01/19 13:10:31  5-MIN KBKB 011910Z AUTO VRB03KT 10SM -RA CLR 33/19 A3000 230 43 2400 VRB/03 RMK AO2 T03330194 PNO
53988KBKB BKB20191001131511610/01/19 13:15:31  5-MIN KBKB 011915Z AUTO VRB04KT 10SM -RA CLR 34/19 A2999 230 40 2500 VRB/04 RMK AO2 T03440194 PNO
53988KBKB BKB20191001132011610/01/19 13:20:31  5-MIN KBKB 011920Z AUTO VRB03KT 10SM -RA CLR 34/19 A2999 230 40 2500 VRB/03 RMK AO2 T03440194 PNO
53988KBKB BKB20191001132511610/01/19 13:25:31  5-MIN KBKB 011925Z AUTO VRB04KT 10SM -RA CLR 34/19 A2999 230 42 2500 VRB/04 RMK AO2 T03390194 PNO
53988KBKB BKB20191001133011910/01/19 13:30:31  5-MIN KBKB 011930Z AUTO VRB04KT 10SM -RA FEW055 33/19 A2999 240 43 2400 VRB/04 RMK AO2 T03330194 PNO
53988KBKB BKB20191001133511910/01/19 13:35:31  5-MIN KBKB 011935Z AUTO 15006KT 10SM -RA FEW055 34/19 A2999 240 40 2500 140/06 RMK AO2 T03390189 PNO
53988KBKB BKB20191001134011910/01/19 13:40:31  5-MIN KBKB 011940Z AUTO 00000KT 10SM -RA FEW055 34/19 A2998 240 40 2500 000/00 RMK AO2 T03390189 PNO
53988KBKB BKB20191001134511910/01/19 13:45:31  5-MIN KBKB 011945Z AUTO VRB06KT 10SM -RA FEW055 34/19 A2998 240 40 2500 VRB/06 RMK AO2 T03390189 PNO
53988KBKB BKB20191001135012610/01/19 13:50:31  5-MIN KBKB 011950Z AUTO 00000KT 10SM -RA FEW055 34/19 A2998 240 42 2500 000/00 RMK AO2 SLP177 T03390194 PNO
53988KBKB BKB20191001135511910/01/19 13:55:31  5-MIN KBKB 011955Z AUTO VRB03KT 10SM -RA FEW055 33/19 A2998 240 43 2400 VRB/03 RMK AO2 T03330194 PNO
53988KBKB BKB20191001140011610/01/19 14:00:31  5-MIN KBKB 012000Z AUTO VRB04KT 10SM -RA CLR 33/19 A2998 240 44 2400 VRB/04 RMK AO2 T03280194 PNO
53988KBKB BKB20191001140511610/01/19 14:05:31  5-MIN KBKB 012005Z AUTO VRB04KT 10SM -RA CLR 33/19 A2998 240 42 2400 VRB/04 RMK AO2 T03330189 PNO
53988KBKB BKB20191001141011610/01/19 14:10:31  5-MIN KBKB 012010Z AUTO 00000KT 10SM -RA CLR 33/19 A2998 250 43 2400 000/00 RMK AO2 T03280189 PNO
53988KBKB BKB20191001141511610/01/19 14:15:31  5-MIN KBKB 012015Z AUTO VRB05KT 10SM -RA CLR 34/19 A2997 250 40 2500 VRB/05 RMK AO2 T03390189 PNO
53988KBKB BKB20191001142011610/01/19 14:20:31  5-MIN KBKB 012020Z AUTO VRB06KT 10SM -RA CLR 34/18 A2997 250 39 2500 VRB/06 RMK AO2 T03390183 PNO
53988KBKB BKB20191001142511610/01/19 14:25:31  5-MIN KBKB 012025Z AUTO VRB05KT 10SM -RA CLR 34/19 A2997 250 39 2600 VRB/05 RMK AO2 T03440189 PNO
53988KBKB BKB20191001143011510/01/19 14:30:31  5-MIN KBKB 012030Z AUTO VRB03KT 9SM -RA CLR 34/19 A2997 250 40 2500 VRB/03 RMK AO2 T03390189 PNO
53988KBKB BKB20191001143511510/01/19 14:35:31  5-MIN KBKB 012035Z AUTO VRB03KT 9SM -RA CLR 34/19 A2997 250 39 2600 VRB/03 RMK AO2 T03440189 PNO
53988KBKB BKB20191001144011610/01/19 14:40:31  5-MIN KBKB 012040Z AUTO 00000KT 10SM -RA CLR 34/19 A2997 250 40 2500 000/00 RMK AO2 T03390189 PNO
53988KBKB BKB20191001144511610/01/19 14:45:31  5-MIN KBKB 012045Z AUTO VRB05KT 10SM -RA CLR 34/19 A2997 250 39 2600 VRB/05 RMK AO2 T03440189 PNO
53988KBKB BKB20191001145013510/01/19 14:50:31  5-MIN KBKB 012050Z AUTO VRB04KT 10SM -RA CLR 34/18 A2997 250 39 2500 VRB/04 RMK AO2 SLP173 6//// T03390183 58006 PNO
53988KBKB BKB20191001145511610/01/19 14:55:31  5-MIN KBKB 012055Z AUTO VRB05KT 10SM -RA CLR 34/18 A2997 260 39 2500 VRB/05 RMK AO2 T03390183 PNO
53988KBKB BKB20191001150011610/01/19 15:00:31  5-MIN KBKB 012100Z AUTO VRB03KT 10SM -RA CLR 34/19 A2997 260 39 2600 VRB/03 RMK AO2 T03440189 PNO
53988KBKB BKB20191001150511910/01/19 15:05:31  5-MIN KBKB 012105Z AUTO VRB06KT 10SM -RA FEW060 34/19 A2996 260 40 2500 VRB/06 RMK AO2 T03390189 PNO
53988KBKB BKB20191001151011910/01/19 15:10:31  5-MIN KBKB 012110Z AUTO VRB05KT 10SM -RA SCT060 34/19 A2996 260 39 2600 VRB/05 RMK AO2 T03440189 PNO
53988KBKB BKB20191001151511910/01/19 15:15:31  5-MIN KBKB 012115Z AUTO VRB04KT 10SM -RA SCT060 34/19 A2996 260 39 2600 VRB/04 RMK AO2 T03440189 PNO
53988KBKB BKB20191001152011910/01/19 15:20:31  5-MIN KBKB 012120Z AUTO 00000KT 10SM -RA SCT060 34/19 A2996 260 40 2500 000/00 RMK AO2 T03390189 PNO
53988KBKB BKB20191001152511910/01/19 15:25:31  5-MIN KBKB 012125Z AUTO VRB03KT 10SM -RA SCT060 34/19 A2996 260 40 2600 VRB/03 RMK AO2 T03440194 PNO
53988KBKB BKB20191001153011910/01/19 15:30:31  5-MIN KBKB 012130Z AUTO VRB04KT 10SM -RA BKN060 34/19 A2996 260 40 2500 VRB/04 RMK AO2 T03390189 PNO
53988KBKB BKB20191001153511910/01/19 15:35:31  5-MIN KBKB 012135Z AUTO VRB03KT 10SM -RA BKN060 34/19 A2996 260 39 2600 VRB/03 RMK AO2 T03440189 PNO
53988KBKB BKB20191001154011910/01/19 15:40:31  5-MIN KBKB 012140Z AUTO VRB03KT 10SM -RA SCT060 34/19 A2996 260 39 2600 VRB/03 RMK AO2 T03440189 PNO
53988KBKB BKB20191001154510810/01/19 15:45:31  5-MIN KBKB 012145Z AUTO 7SM -RA SCT060 33/19 A2996 260 42 2500 M /M RMK AO2 T03330189 PNO
53988KBKB BKB20191001155012510/01/19 15:50:31  5-MIN KBKB 012150Z AUTO VRB03KT 7SM -RA FEW060 33/19 A2996 260 42 2500 VRB/03 RMK AO2 SLP169 T03330189 PNO
53988KBKB BKB20191001155511910/01/19 15:55:31  5-MIN KBKB 012155Z AUTO VRB04KT 10SM -RA FEW060 34/19 A2996 260 40 2500 VRB/04 RMK AO2 T03390189 PNO
53988KBKB BKB20191001160011810/01/19 16:00:31  5-MIN KBKB 012200Z AUTO VRB03KT 6SM -RA FEW060 33/19 A2996 260 42 2500 VRB/03 RMK AO2 T03330189 PNO
53988KBKB BKB20191001160511810/01/19 16:05:31  5-MIN KBKB 012205Z AUTO VRB03KT 4SM -RA FEW060 33/19 A2996 270 42 2500 VRB/03 RMK AO2 T03330189 PNO
53988KBKB BKB20191001161011510/01/19 16:10:31  5-MIN KBKB 012210Z AUTO VRB03KT 6SM -RA CLR 33/19 A2996 270 42 2500 VRB/03 RMK AO2 T03330189 PNO
53988KBKB BKB20191001161511610/01/19 16:15:31  5-MIN KBKB 012215Z AUTO 00000KT 10SM -RA CLR 33/19 A2995 270 43 2500 000/00 RMK AO2 T03330194 PNO
53988KBKB BKB20191001162011610/01/19 16:20:31  5-MIN KBKB 012220Z AUTO 00000KT 10SM -RA CLR 33/19 A2995 270 43 2500 000/00 RMK AO2 T03330194 PNO
53988KBKB BKB20191001162511610/01/19 16:25:31  5-MIN KBKB 012225Z AUTO VRB03KT 10SM -RA CLR 33/19 A2995 270 44 2400 VRB/03 RMK AO2 T03280194 PNO
53988KBKB BKB20191001163011610/01/19 16:30:31  5-MIN KBKB 012230Z AUTO VRB03KT 10SM -RA CLR 33/19 A2995 270 43 2400 VRB/03 RMK AO2 T03280189 PNO
53988KBKB BKB20191001163511610/01/19 16:35:31  5-MIN KBKB 012235Z AUTO VRB03KT 10SM -RA CLR 33/19 A2995 270 43 2400 VRB/03 RMK AO2 T03280189 PNO
53988KBKB BKB20191001164011610/01/19 16:40:31  5-MIN KBKB 012240Z AUTO VRB04KT 10SM -RA CLR 32/19 A2995 270 46 2300 VRB/04 RMK AO2 T03220194 PNO
53988KBKB BKB20191001164511610/01/19 16:45:31  5-MIN KBKB 012245Z AUTO 00000KT 10SM -RA CLR 32/19 A2995 270 44 2300 000/00 RMK AO2 T03220189 PNO
53988KBKB BKB20191001165012310/01/19 16:50:31  5-MIN KBKB 012250Z AUTO VRB03KT 10SM -RA CLR 32/19 A2995 270 46 2300 VRB/03 RMK AO2 SLP167 T03220194 PNO
53988KBKB BKB20191001165511610/01/19 16:55:31  5-MIN KBKB 012255Z AUTO VRB03KT 10SM -RA CLR 32/19 A2995 270 47 2300 VRB/03 RMK AO2 T03170194 PNO
53988KBKB BKB20191001170011610/01/19 17:00:31  5-MIN KBKB 012300Z AUTO 00000KT 10SM -RA CLR 32/19 A2995 270 47 2300 000/00 RMK AO2 T03170194 PNO
53988KBKB BKB20191001170511510/01/19 17:05:31  5-MIN KBKB 012305Z AUTO 00000KT 6SM -RA CLR 31/19 A2995 270 49 2200 000/00 RMK AO2 T03110194 PNO
53988KBKB BKB20191001171011510/01/19 17:10:31  5-MIN KBKB 012310Z AUTO 00000KT 5SM -RA CLR 31/19 A2995 270 49 2200 000/00 RMK AO2 T03110194 PNO
53988KBKB BKB20191001171511510/01/19 17:15:31  5-MIN KBKB 012315Z AUTO 00000KT 8SM -RA CLR 31/20 A2995 270 52 2200 000/00 RMK AO2 T03060200 PNO
53988KBKB BKB20191001172011610/01/19 17:20:31  5-MIN KBKB 012320Z AUTO 00000KT 10SM -RA CLR 30/20 A2995 270 54 2100 000/00 RMK AO2 T03000200 PNO
53988KBKB BKB20191001172511610/01/19 17:25:31  5-MIN KBKB 012325Z AUTO 00000KT 10SM -RA CLR 29/20 A2995 270 56 2000 000/00 RMK AO2 T02940200 PNO
53988KBKB BKB20191001173011610/01/19 17:30:31  5-MIN KBKB 012330Z AUTO 00000KT 10SM -RA CLR 29/20 A2995 270 56 2000 000/00 RMK AO2 T02940200 PNO
53988KBKB BKB20191001173511610/01/19 17:35:31  5-MIN KBKB 012335Z AUTO 00000KT 10SM -RA CLR 29/21 A2996 270 58 2000 000/00 RMK AO2 T02940206 PNO
53988KBKB BKB20191001174011510/01/19 17:40:31  5-MIN KBKB 012340Z AUTO 00000KT 9SM -RA CLR 29/21 A2996 260 60 2000 000/00 RMK AO2 T02890206 PNO
53988KBKB BKB20191001174511510/01/19 17:45:31  5-MIN KBKB 012345Z AUTO 00000KT 4SM -RA CLR 28/21 A2995 270 62 1900 000/00 RMK AO2 T02830206 PNO
53988KBKB BKB20191001175014610/01/19 17:50:31  5-MIN KBKB 012350Z AUTO 00000KT 4SM -RA CLR 28/21 A2996 270 62 1900 000/00 RMK AO2 SLP170 6//// T02830206 10344 20283 56023 PNO
53988KBKB BKB20191001175511510/01/19 17:55:31  5-MIN KBKB 012355Z AUTO 00000KT 7SM -RA CLR 28/20 A2996 270 62 1800 000/00 RMK AO2 T02780200 PNO
53988KBKB BKB20191001180011510/01/19 18:00:31  5-MIN KBKB 020000Z AUTO 00000KT 8SM -RA CLR 28/20 A2996 260 62 1800 000/00 RMK AO2 T02780200 PNO
53988KBKB BKB20191001180511510/01/19 18:05:31  5-MIN KBKB 020005Z AUTO 00000KT 9SM -RA CLR 27/21 A2996 260 66 1800 000/00 RMK AO2 T02720206 PNO
53988KBKB BKB20191001181014510/01/19 18:10:31  5-MIN KBKB 020010Z AUTO 00000KT 10SM -RA CLR 27/2 A2997 250 78 1M -RA CLR 25/21 A2996 260 76 1500 000/00 RMK AO2 T02500206 PNO
53988KBKB BKB20191001192011610/01/19 19:20:31  5-MIN KBKB 020120Z AUTO 00000KT 10SM -RA CLR 25/21 A2997 260 76 1500 000/00 RMK AO2 T02500206 PNO
53988KBKB BKB20191001192511610/01/19 19:25:31  5-MIN KBKB 020125Z AUTO 00000KT 10SM -RA CLR 24/21 A2997 250 78 1400 000/00 RMK AO2 T02440206 PNO
53988KBKB BKB20191001193011610/01/19 19:30:31  5-MIN KBKB 020130Z AUTO 00000KT 10SM -RA CLR 24/21 A2997 250 78 1400 000/00 RMK AO2 T02440206 PNO
53988KBKB BKB20191001193511610/01/19 19:35:31  5-MIN KBKB 020135Z AUTO 00000KT 10SM -RA CLR 24/21 A2997 250 78 1400 000/00 RMK AO2 T02440206 PNO
53988KBKB BKB20191001194011610/01/19 19:40:31  5-MIN KBKB 020140Z AUTO 00000KT 10SM -RA CLR 24/21 A2997 250 78 1400 000/00 RMK AO2 T02440206 PNO
53988KBKB BKB20191001194511610/01/19 19:45:31  5-MIN KBKB 020145Z AUTO 00000KT 10SM -RA CLR 24/20 A2997 250 76 1400 000/00 RMK AO2 T02440200 PNO
53988KBKB BKB20191001194514610/01/19 19:45:31  5-MIN KBKB 020145Z AUTO 00000KT 10SM -RA CLR 24/20 A2997 00KT 10SM -RA CLR 24/21 A2997 250 78 1400 000/00 RMK AO2 T02440206 PNO
53988KBKB BKB20191001195012310/01/19 19:50:31  5-MIN KBKB 020150Z AUTO 00000KT 10SM -RA CLR 24/20 A2997 250 78 1400 000/00 RMK AO2 SLP174 T02390200 PNO
53988KBKB BKB20191001195511610/01/19 19:55:31  5-MIN KBKB 020155Z AUTO 00000KT 10SM -RA CLR 24/20 A2997 250 78 1400 000/00 RMK AO2 T02390200 PNO
53988KBKB BKB20191001195514110/01/19 19:55:31  5-MIN KBKB 020155Z AUTO 00000KT 10SM -RA CLR 24/20 000KT 10SM -RA CLR 24/21 A2997 250 78 1400 000/00 RMK AO2 T02440206 PNO
53988KBKB BKB20191001200011610/01/19 20:00:31  5-MIN KBKB 020200Z AUTO 00000KT 10SM -RA CLR 24/20 A2997 250 78 1400 000/00 RMK AO2 T02390200 PNO
53988KBKB BKB20191001200511610/01/19 20:05:31  5-MIN KBKB 020205Z AUTO 00000KT 10SM -RA CLR 24/20 A2998 250 78 1400 000/00 RMK AO2 T02390200 PNO
53988KBKB BKB20191001200514110/01/19 20:05:31  5-MIN KBKB 020205Z AUTO 00000KT 10SM -RA CLR 2TO 00000KT 10SM -RA CLR 24/20 A2997 250 76 1400 000/00 RMK AO2 T02440200 PNO
53988KBKB BKB20191001201011510/01/19 20:10:31  5-MIN KBKB 020210Z AUTO 00000KT 10SM RA CLR 24/20 A2998 250 78 1400 000/00 RMK AO2 T02390200 PNO
53988KBKB BKB20191001201511610/01/19 20:15:31  5-MIN KBKB 020215Z AUTO 00000KT 10SM -RA CLR 24/21 A2998 240 81 1400 000/00 RMK AO2 T02390206 PNO
53988KBKB BKB20191001202011510/01/19 20:20:31  5-MIN KBKB 020220Z AUTO 00000KT 10SM RA CLR 23/21 A2998 240 84 1300 000/00 RMK AO2 T02330206 PNO
53988KBKB BKB20191001202511610/01/19 20:25:31  5-MIN KBKB 020225Z AUTO 00000KT 10SM -RA CLR 23/21 A2998 240 84 1300 000/00 RMK AO2 T02330206 PNO
53988KBKB BKB20191001203011610/01/19 20:30:31  5-MIN KBKB 020230Z AUTO 00000KT 10SM -RA CLR 23/21 A2998 240 84 1300 000/00 RMK AO2 T02330206 PNO
53988KBKB BKB20191001203511610/01/19 20:35:31  5-MIN KBKB 020235Z AUTO 00000KT 10SM -RA CLR 23/21 A2998 240 84 1300 000/00 RMK AO2 T02330206 PNO
53988KBKB BKB20191001204011510/01/19 20:40:31  5-MIN KBKB 020240Z AUTO 00000KT 10SM RA CLR 23/21 A2998 240 84 1300 000/00 RMK AO2 T02330206 PNO
53988KBKB BKB20191001204511510/01/19 20:45:31  5-MIN KBKB 020245Z AUTO 00000KT 10SM RA CLR 24/21 A2998 240 81 1400 000/00 RMK AO2 T02390206 PNO
53988KBKB BKB20191001205013410/01/19 20:50:31  5-MIN KBKB 020250Z AUTO 00000KT 10SM RA CLR 23/21 A2998 240 84 1300 000/00 RMK AO2 SLP177 6//// T02330206 55004 PNO
53988KBKB BKB20191001205511510/01/19 20:55:31  5-MIN KBKB 020255Z AUTO 00000KT 10SM RA CLR 23/21 A2998 240 84 1300 000/00 RMK AO2 T02330206 PNO
53988KBKB BKB20191001210011510/01/19 21:00:31  5-MIN KBKB 020300Z AUTO 00000KT 10SM RA CLR 23/21 A2998 240 84 1300 000/00 RMK AO2 T02330206 PNO
53988KBKB BKB20191001210511510/01/19 21:05:31  5-MIN KBKB 020305Z AUTO 00000KT 10SM RA CLR 23/21 A2998 240 84 1300 000/00 RMK AO2 T02330206 PNO
53988KBKB BKB20191001211018310/01/19 21:10:31  5-MIN KBKB 020310Z AUTO 00000KT 10SM RA CLR 23/21 A2998 240 87 1200 000/00 RMK AO2 T02280206 PNO10/010SM RA CLR 22/20 A2997 250 87 1200 000/00 RMK AO2 T02220200 PNO
53988KBKB BKB20191001224011510/01/19 22:40:31  5-MIN KBKB 020440Z AUTO 00000KT 10SM RA CLR 22/20 A2997 250 90 1100 000/00 RMK AO2 T02170200 PNO
53988KBKB BKB20191001224511510/01/19 22:45:31  5-MIN KBKB 020445Z AUTO 00000KT 10SM RA CLR 22/20 A2997 250 87 1200 000/00 RMK AO2 T02220200 PNO
53988KBKB BKB20191001225012210/01/19 22:50:31  5-MIN KBKB 020450Z AUTO 00000KT 10SM RA CLR 22/20 A2997 250 90 1100 000/00 RMK AO2 SLP174 T02170200 PNO
53988KBKB BKB20191001225511510/01/19 22:55:31  5-MIN KBKB 020455Z AUTO 00000KT 10SM RA CLR 22/20 A2997 250 87 1200 000/00 RMK AO2 T02220200 PNO
53988KBKB BKB20191001230011510/01/19 23:00:31  5-MIN KBKB 020500Z AUTO 00000KT 10SM RA CLR 22/20 A2997 250 87 1200 000/00 RMK AO2 T02220200 PNO
53988KBKB BKB20191001230511510/01/19 23:05:31  5-MIN KBKB 020505Z AUTO 00000KT 10SM RA CLR 22/20 A2997 250 90 1100 000/00 RMK AO2 T02170200 PNO
53988KBKB BKB20191001231011510/01/19 23:10:31  5-MIN KBKB 020510Z AUTO 00000KT 10SM RA CLR 22/20 A2997 250 90 1100 000/00 RMK AO2 T02170200 PNO
53988KBKB BKB20191001231511510/01/19 23:15:31  5-MIN KBKB 020515Z AUTO 00000KT 10SM RA CLR 22/20 A2997 250 90 1100 000/00 RMK AO2 T02170200 PNO
53988KBKB BKB20191001232011510/01/19 23:20:31  5-MIN KBKB 020520Z AUTO 00000KT 10SM RA CLR 22/20 A2997 250 90 1100 000/00 RMK AO2 T02170200 PNO
53988KBKB BKB20191001232511510/01/19 23:25:31  5-MIN KBKB 020525Z AUTO 00000KT 10SM RA CLR 22/20 A2997 250 90 1100 000/00 RMK AO2 T02170200 PNO
53988KBKB BKB20191001232514910/01/19 23:25:31  5-MIN KBKB 020525Z AUTO 00000KT 10SM RA CLR 22/20 A2997 250 90 11 10SM RA CLR 22/20 A2997 250 90 1100 000/00 RMK AO2 T02170200 PNO
53988KBKB BKB20191001233011510/01/19 23:30:31  5-MIN KBKB 020530Z AUTO 00000KT 10SM RA CLR 22/20 A2997 250 90 1100 000/00 RMK AO2 T02170200 PNO
53988KBKB BKB20191001233511510/01/19 23:35:31  5-MIN KBKB 020535Z AUTO 00000KT 10SM RA CLR 22/20 A2997 250 90 1100 000/00 RMK AO2 T02170200 PNO
53988KBKB BKB20191001233515110/01/19 23:35:31  5-MIN KBKB 020535Z AUTO 00000KT 10SM RA C KBKB 020515Z AUTO 00000KT 10SM RA CLR 22/20 A2997 250 90 1100 000/00 RMK AO2 T02170200 PNO
53988KBKB BKB20191001234011510/01/19 23:40:31  5-MIN KBKB 020540Z AUTO 00000KT 10SM RA CLR 22/20 A2997 260 90 1100 000/00 RMK AO2 T02170200 PNO
53988KBKB BKB20191001234511510/01/19 23:45:31  5-MIN KBKB 020545Z AUTO 00000KT 10SM RA CLR 22/20 A2997 260 90 1100 000/00 RMK AO2 T02170200 PNO
53988KBKB BKB20191001235015610/01/19 23:50:31  5-MIN KBKB 020550Z AUTO 00000KT 10SM RA CLR 22/20 A2997 260 90 1100 000/00 RMK AO2 SLP172 6//// T02170200 10283 20217 403440194 52008 PNO
53988KBKB BKB20191001235511510/01/19 23:55:31  5-MIN KBKB 020555Z AUTO 00000KT 10SM RA CLR 22/20 A2997 260 90 1100 000/00 RMK AO2 T02170200 PNO
53988KBKB BKB20191002000011510/02/19 00:00:31  5-MIN KBKB 020600Z AUTO 00000KT 10SM RA CLR 22/20 A2996 260 90 1100 000/00 RMK AO2 T02170200 PNO
53988KBKB BKB20191002000511510/02/19 00:05:31  5-MIN KBKB 020605Z AUTO 00000KT 10SM RA CLR 22/20 A2996 260 90 1100 000/00 RMK AO2 T02170200 PNO
53988KBKB BKB20191002001011510/02/19 00:10:31  5-MIN KBKB 020610Z AUTO 00000KT 10SM RA CLR 22/20 A2996 260 90 1100 000/00 RMK AO2 T02170200 PNO
53988KBKB BKB20191002001511510/02/19 00:15:31  5-MIN KBKB 020615Z AUTO 00000KT 10SM RA CLR 22/20 A2996 260 90 1100 000/00 RMK AO2 T02170200 PNO
53988KBKB BKB20191002002011510/02/19 00:20:31  5-MIN KBKB 020620Z AUTO 00000KT 10SM RA CLR 22/20 A2996 260 90 1100 000/00 RMK AO2 T02170200 PNO
53988KBKB BKB20191002002511510/02/19 00:25:31  5-MIN KBKB 020625Z AUTO 00000KT 10SM RA CLR 22/20 A2996 260 90 1100 000/00 RMK AO2 T02170200 PNO
53988KBKB BKB20191002003011510/02/19 00:30:31  5-MIN KBKB 020630Z AUTO 00000KT 10SM RA CLR 22/20 A2996 260 90 1100 000/00 RMK AO2 T02170200 PNO
53988KBKB BKB20191002003511510/02/19 00:35:31  5-MIN KBKB 020635Z AUTO 00000KT 10SM RA CLR 22/20 A2996 260 90 1100 000/00 RMK AO2 T02170200 PNO
53988KBKB BKB20191002004011510/02/19 00:40:31  5-MIN KBKB 020640Z AUTO 00000KT 10SM RA CLR 21/20 A2996 260 93 1100 000/00 RMK AO2 T02110200 PNO
53988KBKB BKB20191002004511510/02/19 00:45:31  5-MIN KBKB 020645Z AUTO 00000KT 10SM RA CLR 21/20 A2996 260 93 1100 000/00 RMK AO2 T02110200 PNO
53988KBKB BKB20191002005012210/02/19 00:50:31  5-MIN KBKB 020650Z AUTO 00000KT 10SM RA CLR 21/20 A2996 260 93 1100 000/00 RMK AO2 SLP171 T02110200 PNO
53988KBKB BKB20191002005511510/02/19 00:55:31  5-MIN KBKB 020655Z AUTO 00000KT 10SM RA CLR 21/20 A2996 260 93 1100 000/00 RMK AO2 T02110200 PNO
53988KBKB BKB20191002010011510/02/19 01:00:31  5-MIN KBKB 020700Z AUTO 00000KT 10SM RA CLR 21/20 A2996 260 93 1100 000/00 RMK AO2 T02110200 PNO
53988KBKB BKB20191002010511510/02/19 01:05:31  5-MIN KBKB 020705Z AUTO 00000KT 10SM RA CLR 21/20 A2996 260 93 1100 000/00 RMK AO2 T02110200 PNO
53988KBKB BKB20191002011011510/02/19 01:10:31  5-MIN KBKB 020710Z AUTO 00000KT 10SM RA CLR 21/20 A2996 260 93 1100 000/00 RMK AO2 T02110200 PNO
53988KBKB BKB20191002011511510/02/19 01:15:31  5-MIN KBKB 020715Z AUTO 00000KT 10SM RA CLR 21/20 A2996 260 93 1100 000/00 RMK AO2 T02110200 PNO
53988KBKB BKB20191002012011510/02/19 01:20:31  5-MIN KBKB 020720Z AUTO 00000KT 10SM RA CLR 21/20 A2996 260 93 1100 000/00 RMK AO2 T02110200 PNO
53988KBKB BKB20191002012511510/02/19 01:25:31  5-MIN KBKB 020725Z AUTO 00000KT 10SM RA CLR 21/20 A2995 270 93 1100 000/00 RMK AO2 T02110200 PNO
53988KBKB BKB20191002013011410/02/19 01:30:31  5-MIN KBKB 020730Z AUTO 00000KT 9SM RA CLR 21/20 A2995 270 93 1100 000/00 RMK AO2 T02110200 PNO
53988KBKB BKB20191002013511410/02/19 01:35:31  5-MIN KBKB 020735Z AUTO 00000KT 9SM RA CLR 21/20 A2995 270 93 1100 000/00 RMK AO2 T02110200 PNO
53988KBKB BKB20191002014011410/02/19 01:40:31  5-MIN KBKB 020740Z AUTO 00000KT 9SM RA CLR 21/20 A2996 270 93 1100 000/00 RMK AO2 T02110200 PNO
53988KBKB BKB20191002014511410/02/19 01:45:31  5-MIN KBKB 020745Z AUTO 00000KT 9SM RA CLR 21/19 A2996 270 93 1000 000/00 RMK AO2 T02060194 PNO
53988KBKB BKB20191002015012110/02/19 01:50:31  5-MIN KBKB 020750Z AUTO 00000KT 8SM RA CLR 21/20 A2996 270 93 1100 000/00 RMK AO2 SLP169 T02110200 PNO
53988KBKB BKB20191002015511410/02/19 01:55:31  5-MIN KBKB 020755Z AUTO 00000KT 9SM RA CLR 21/19 A2995 270 90 1100 000/00 RMK AO2 T02110194 PNO
53988KBKB BKB20191002020011410/02/19 02:00:31  5-MIN KBKB 020800Z AUTO 00000KT 9SM RA CLR 21/19 A2995 270 93 1000 000/00 RMK AO2 T02060194 PNO
53988KBKB BKB20191002020511410/02/19 02:05:31  5-MIN KBKB 020805Z AUTO 00000KT 8SM RA CLR 21/19 A2995 270 93 1000 000/00 RMK AO2 T02060194 PNO
53988KBKB BKB20191002021011410/02/19 02:10:31  5-MIN KBKB 020810Z AUTO 00000KT 8SM RA CLR 21/19 A2995 270 93 1000 000/00 RMK AO2 T02060194 PNO
53988KBKB BKB20191002021511410/02/19 02:15:31  5-MIN KBKB 020815Z AUTO 00000KT 8SM RA CLR 21/19 A2995 270 93 1000 000/00 RMK AO2 T02060194 PNO
53988KBKB BKB20191002022011410/02/19 02:20:31  5-MIN KBKB 020820Z AUTO 00000KT 8SM RA CLR 21/19 A2995 270 93 1000 000/00 RMK AO2 T02060194 PNO
53988KBKB BKB20191002022511410/02/19 02:25:31  5-MIN KBKB 020825Z AUTO 00000KT 7SM RA CLR 21/19 A2995 270 93 1000 000/00 RMK AO2 T02060194 PNO
53988KBKB BKB20191002023011410/02/19 02:30:31  5-MIN KBKB 020830Z AUTO 00000KT 7SM RA CLR 21/19 A2995 270 93 1000 000/00 RMK AO2 T02060194 PNO
53988KBKB BKB20191002023511410/02/19 02:35:31  5-MIN KBKB 020835Z AUTO 00000KT 7SM RA CLR 21/19 A2995 270 93 1000 000/00 RMK AO2 T02060194 PNO
53988KBKB BKB20191002024011410/02/19 02:40:31  5-MIN KBKB 020840Z AUTO 00000KT 7SM RA CLR 21/19 A2995 270 93 1000 000/00 RMK AO2 T02060194 PNO
53988KBKB BKB20191002024511410/02/19 02:45:31  5-MIN KBKB 020845Z AUTO 00000KT 7SM RA CLR 21/19 A2996 270 93 1000 000/00 RMK AO2 T02060194 PNO
53988KBKB BKB20191002025013310/02/19 02:50:31  5-MIN KBKB 020850Z AUTO 00000KT 7SM RA CLR 21/19 A2996 260 93 1000 000/00 RMK AO2 SLP169 6//// T02060194 58004 PNO
53988KBKB BKB20191002025511410/02/19 02:55:31  5-MIN KBKB 020855Z AUTO 00000KT 7SM RA CLR 21/20 A2996 260 97 1000 000/00 RMK AO2 T02060200 PNO
53988KBKB BKB20191002030011410/02/19 03:00:31  5-MIN KBKB 020900Z AUTO 00000KT 7SM RA CLR 21/20 A2996 260 97 1000 000/00 RMK AO2 T02060200 PNO
53988KBKB BKB20191002030511410/02/19 03:05:31  5-MIN KBKB 020905Z AUTO 00000KT 7SM RA CLR 21/20 A2996 260 97 1000 000/00 RMK AO2 T02060200 PNO
53988KBKB BKB20191002031011410/02/19 03:10:31  5-MIN KBKB 020910Z AUTO 00000KT 7SM RA CLR 21/19 A2996 260 93 1000 000/00 RMK AO2 T02060194 PNO
53988KBKB BKB20191002031511410/02/19 03:15:31  5-MIN KBKB 020915Z AUTO 00000KT 7SM RA CLR 21/19 A2996 260 93 1000 000/00 RMK AO2 T02060194 PNO
53988KBKB BKB20191002032011410/02/19 03:20:31  5-MIN KBKB 020920Z AUTO 00000KT 7SM RA CLR 21/19 A2997 260 93 1000 000/00 RMK AO2 T02060194 PNO
53988KBKB BKB20191002032511410/02/19 03:25:31  5-MIN KBKB 020925Z AUTO 00000KT 7SM RA CLR 21/19 A2997 260 93 1000 000/00 RMK AO2 T02060194 PNO
53988KBKB BKB20191002033011410/02/19 03:30:31  5-MIN KBKB 020930Z AUTO 00000KT 7SM RA CLR 21/19 A2997 260 93 1000 000/00 RMK AO2 T02060194 PNO
53988KBKB BKB20191002033511410/02/19 03:35:31  5-MIN KBKB 020935Z AUTO 00000KT 7SM RA CLR 21/19 A2997 250 93 1000 000/00 RMK AO2 T02060194 PNO
53988KBKB BKB20191002034011410/02/19 03:40:31  5-MIN KBKB 020940Z AUTO 00000KT 7SM RA CLR 21/19 A2997 250 93 1000 000/00 RMK AO2 T02060194 PNO
53988KBKB BKB20191002034511410/02/19 03:45:31  5-MIN KBKB 020945Z AUTO 00000KT 7SM RA CLR 21/19 A2997 250 93 1000 000/00 RMK AO2 T02060194 PNO
53988KBKB BKB20191002035012110/02/19 03:50:31  5-MIN KBKB 020950Z AUTO 00000KT 7SM RA CLR 21/19 A2997 250 93 1000 000/00 RMK AO2 SLP174 T02060194 PNO
53988KBKB BKB20191002035511410/02/19 03:55:31  5-MIN KBKB 020955Z AUTO 00000KT 8SM RA CLR 21/19 A2997 250 93 1000 000/00 RMK AO2 T02060194 PNO
53988KBKB BKB20191002040011410/02/19 04:00:31  5-MIN KBKB 021000Z AUTO 00000KT 8SM RA CLR 21/19 A2997 250 93 1000 000/00 RMK AO2 T02060194 PNO
53988KBKB BKB20191002040511410/02/19 04:05:31  5-MIN KBKB 021005Z AUTO 00000KT 7SM RA CLR 21/19 A2997 250 93 1000 000/00 RMK AO2 T02060194 PNO
53988KBKB BKB20191002041011410/02/19 04:10:31  5-MIN KBKB 021010Z AUTO 00000KT 7SM RA CLR 21/19 A2998 250 93 1000 000/00 RMK AO2 T02060194 PNO
53988KBKB BKB20191002041511410/02/19 04:15:31  5-MIN KBKB 021015Z AUTO 00000KT 8SM RA CLR 21/19 A2998 240 93 1000 000/00 RMK AO2 T02060194 PNO
53988KBKB BKB20191002042011410/02/19 04:20:31  5-MIN KBKB 021020Z AUTO 00000KT 8SM RA CLR 21/19 A2998 240 93 1000 000/00 RMK AO2 T02060194 PNO
53988KBKB BKB20191002042511410/02/19 04:25:31  5-MIN KBKB 021025Z AUTO 00000KT 8SM RA CLR 21/20 A2998 240 97 1000 000/00 RMK AO2 T02060200 PNO
53988KBKB BKB20191002043011410/02/19 04:30:31  5-MIN KBKB 021030Z AUTO 00000KT 8SM RA CLR 21/20 A2999 240 97 1000 000/00 RMK AO2 T02060200 PNO
53988KBKB BKB20191002043511410/02/19 04:35:31  5-MIN KBKB 021035Z AUTO 00000KT 8SM RA CLR 21/19 A2999 240 93 1000 000/00 RMK AO2 T02060194 PNO
53988KBKB BKB20191002044011410/02/19 04:40:31  5-MIN KBKB 021040Z AUTO 00000KT 8SM RA CLR 21/20 A2999 240 97 1000 000/00 RMK AO2 T02060200 PNO
53988KBKB BKB20191002044511410/02/19 04:45:31  5-MIN KBKB 021045Z AUTO 00000KT 8SM RA CLR 21/20 A2999 230 97 1000 000/00 RMK AO2 T02060200 PNO
53988KBKB BKB20191002045012110/02/19 04:50:31  5-MIN KBKB 021050Z AUTO 00000KT 8SM RA CLR 21/20 A2999 230 93 1000 000/00 RMK AO2 SLP182 T02110200 PNO
53988KBKB BKB20191002045511410/02/19 04:55:31  5-MIN KBKB 021055Z AUTO 00000KT 8SM RA CLR 21/20 A2999 230 93 1000 000/00 RMK AO2 T02110200 PNO
53988KBKB BKB20191002050011410/02/19 05:00:31  5-MIN KBKB 021100Z AUTO 00000KT 7SM RA CLR 21/20 A3000 230 93 1000 000/00 RMK AO2 T02110200 PNO
53988KBKB BKB20191002050511410/02/19 05:05:31  5-MIN KBKB 021105Z AUTO 00000KT 7SM RA CLR 21/21 A3000 230 97 1000 000/00 RMK AO2 T02110206 PNO
53988KBKB BKB20191002051011710/02/19 05:10:31  5-MIN KBKB 021110Z AUTO 00000KT 6SM RA BR CLR 22/21 A3000 230 93 1100 000/00 RMK AO2 T02170206 PNO
53988KBKB BKB20191002051511710/02/19 05:15:31  5-MIN KBKB 021115Z AUTO 00000KT 6SM RA BR CLR 21/21 A3000 230 97 1000 000/00 RMK AO2 T02110206 PNO
53988KBKB BKB20191002052011710/02/19 05:20:31  5-MIN KBKB 021120Z AUTO 00000KT 6SM RA BR CLR 22/21 A3001 220 97 1000 000/00 RMK AO2 T02110206 PNO
53988KBKB BKB20191002061011710/02/19 06:10:31  5-MIN KBKB 021210Z AUTO 00000KT 4SM RA BR CLR 21/21 A3001 220 97 1000 000/00 RMK AO2 T02110206 PNO
53988KBKB BKB20191002061511710/02/19 06:15:31  5-MIN KBKB 021215Z AUTO 00000KT 3SM RA BR CLR 22/21 A3001 210 93 1100 000/00 RMK AO2 T02170206 PNO
53988KBKB BKB20191002062011710/02/19 06:20:31  5-MIN KBKB 021220Z AUTO 00000KT 3SM RA BR CLR 22/21 A3001 210 97 1100 000/00 RMK AO2 T02170211 PNO
53988KBKB BKB20191002062511710/02/19 06:25:31  5-MIN KBKB 021225Z AUTO 00000KT 3SM RA BR CLR 22/21 A3001 210 97 1100 000/00 RMK AO2 T02170211 PNO
53988KBKB BKB20191002063012110/02/19 06:30:31  5-MIN KBKB 021230Z AUTO 00000KT 2 1/2SM RA BR CLR 22/21 A3001 210 97 1100 000/00 RMK AO2 T02170211 PNO
53988KBKB BKB20191002063014310/02/19 06:30:31  5-MIN KBKB 021230Z AUTO 00000KT 2 1/2SM RA BR CLR 22/21 A3001 210 97 1100 000/00 RMK AO2 T02170211 PNO10/02/19 06:35:306 PNO
53988KBKB BKB20191002063511710/02/19 06:35:31  5-MIN KBKB 021235Z AUTO 00000KT 3SM RA BR CLR 22/21 A3001 210 93 1100 000/00 RMK AO2 T02220211 PNO
53988KBKB BKB20191002064011710/02/19 06:40:31  5-MIN KBKB 021240Z AUTO 00000KT 3SM RA BR CLR 22/21 A3001 210 93 1100 000/00 RMK AO2 T02220211 PNO
53988KBKB BKB20191002064014110/02/19 06:40:31  5-MIN KBKB 021240Z AUTO 00000KT 3SM RA BR CLR 22/21 A3001 210 93 1100 000/00 RMK AO2 T07 1100 000/00 RMK AO2 T02170211 PNO
53988KBKB BKB20191002064511710/02/19 06:45:31  5-MIN KBKB 021245Z AUTO 00000KT 4SM RA BR CLR 22/21 A3001 210 93 1100 000/00 RMK AO2 T02220211 PNO
53988KBKB BKB20191002065012410/02/19 06:50:31  5-MIN KBKB 021250Z AUTO 00000KT 5SM RA BR CLR 23/22 A3001 210 93 1200 000/00 RMK AO2 SLP189 T02280217 PNO
53988KBKB BKB20191002065511810/02/19 06:55:31  5-MIN KBKB 021255Z AUTO 00000KT 6SM -RA BR CLR 23/22 A3001 210 93 1200 000/00 RMK AO2 T02280217 PNO
53988KBKB BKB20191002070011510/02/19 07:00:31  5-MIN KBKB 021300Z AUTO 00000KT 7SM -RA CLR 23/22 A3001 210 93 1200 000/00 RMK AO2 T02280217 PNO
53988KBKB BKB20191002070511510/02/19 07:05:31  5-MIN KBKB 021305Z AUTO 00000KT 8SM -RA CLR 23/22 A3002 210 93 1300 000/00 RMK AO2 T02330222 PNO
53988KBKB BKB20191002071011510/02/19 07:10:31  5-MIN KBKB 021310Z AUTO 01003KT 9SM -RA CLR 24/22 A3002 210 90 1300 010/03 RMK AO2 T02390222 PNO
53988KBKB BKB20191002071511610/02/19 07:15:31  5-MIN KBKB 021315Z AUTO 00000KT 10SM -RA CLR 24/22 A3002 210 87 1400 000/00 RMK AO2 T02440222 PNO
53988KBKB BKB20191002072011610/02/19 07:20:31  5-MIN KBKB 021320Z AUTO 00000KT 10SM -RA CLR 24/22 A3002 210 87 1400 000/00 RMK AO2 T02440222 PNO
53988KBKB BKB20191002072511610/02/19 07:25:31  5-MIN KBKB 021325Z AUTO 00000KT 10SM -RA CLR 24/22 A3002 200 87 1400 000/00 RMK AO2 T02440222 PNO
53988KBKB BKB20191002073011610/02/19 07:30:31  5-MIN KBKB 021330Z AUTO VRB03KT 10SM -RA CLR 25/23 A3003 200 87 1400 VRB/03 RMK AO2 T02500228 PNO
53988KBKB BKB20191002073511610/02/19 07:35:31  5-MIN KBKB 021335Z AUTO VRB03KT 10SM -RA CLR 25/22 A3003 200 84 1400 VRB/03 RMK AO2 T02500222 PNO
53988KBKB BKB20191002074011610/02/19 07:40:31  5-MIN KBKB 021340Z AUTO VRB03KT 10SM -RA CLR 26/22 A3003 200 81 1500 VRB/03 RMK AO2 T02560222 PNO
53988KBKB BKB20191002074511610/02/19 07:45:31  5-MIN KBKB 021345Z AUTO 00000KT 10SM -RA CLR 26/23 A3003 200 84 1500 000/00 RMK AO2 T02560228 PNO
53988KBKB BKB20191002075012310/02/19 07:50:31  5-MIN KBKB 021350Z AUTO VRB03KT 10SM -RA CLR 26/22 A3003 200 81 1500 VRB/03 RMK AO2 SLP194 T02560222 PNO
53988KBKB BKB20191002075511610/02/19 07:55:31  5-MIN KBKB 021355Z AUTO VRB03KT 10SM -RA CLR 26/22 A3003 200 79 1600 VRB/03 RMK AO2 T02610222 PNO
53988KBKB BKB20191002080011610/02/19 08:00:31  5-MIN KBKB 021400Z AUTO 00000KT 10SM -RA CLR 26/22 A3003 200 79 1600 000/00 RMK AO2 T02610222 PNO
53988KBKB BKB20191002080511610/02/19 08:05:31  5-MIN KBKB 021405Z AUTO 00000KT 10SM -RA CLR 27/22 A3003 200 76 1600 000/00 RMK AO2 T02670222 PNO
53988KBKB BKB20191002081011810/02/19 08:10:31  5-MIN KBKB 021410Z AUTO 00000KT 10SM -RA CLR 27/22 A3003 200 76 1600 000/00 RMK AO2 T02670222 PNO $
53988KBKB BKB20191002081511310/02/19 08:15:31  5-MIN KBKB 021415Z AUTO VRB03KT -RA CLR 27/22 A3003 200 74 1700 VRB/03 RMK AO2 T02720222 PNO $
53988KBKB BKB20191002082010410/02/19 08:20:31  5-MIN KBKB 021420Z AUTO 00000KT -RA CLR 27/23 A3003 200 2200 000/00 RMK AO2 T03170222
53988KBKB BKB20191002100011110/02/19 10:00:31  5-MIN KBKB 021600Z AUTO VRB03KT CLR 31/22 A3003 200 58 2100 VRB/03 RMK AO2 T03110222 PWINO $
53988KBKB BKB20191002100510910/02/19 10:05:31  5-MIN KBKB 021605Z AUTO VRB03KT CLR 31/22 A3003 200 58 2100 VRB/03 RMK AO2 T03110222 PWINO
53988KBKB BKB20191002101010310/02/19 10:10:31  5-MIN KBKB 021610Z AUTO VRB03KT CLR 32/22 A3003 200 56 2200 VRB/03 RMK AO2 T03170222
53988KBKB BKB20191002101511110/02/19 10:15:31  5-MIN KBKB 021615Z AUTO 00000KT CLR 32/22 A3003 200 53 2200 000/00 RMK AO2 T03220217 PWINO $
53988KBKB BKB20191002102011110/02/19 10:20:31  5-MIN KBKB 021620Z AUTO VRB03KT CLR 31/21 A3003 200 54 2100 VRB/03 RMK AO2 T03110211 PWINO $
53988KBKB BKB20191002102511110/02/19 10:25:31  5-MIN KBKB 021625Z AUTO VRB03KT CLR 33/21 A3003 200 49 2300 VRB/03 RMK AO2 T03280211 PWINO $
53988KBKB BKB20191002102517110/02/19 10:25:31  5-MIN KBKB 021625Z AUTO VRB03KT CLR 33/21 A3003 200 10:05:31  5-MIN KBKB 021605Z AUTO VRB03KT CLR 31/22 A3003 200 58 2100 VRB/03 RMK AO2 T03110222 PWINO
53988KBKB BKB20191002103011110/02/19 10:30:31  5-MIN KBKB 021630Z AUTO VRB03KT CLR 32/21 A3003 200 51 2200 VRB/03 RMK AO2 T03170206 PWINO $
53988KBKB BKB20191002103511110/02/19 10:35:31  5-MIN KBKB 021635Z AUTO VRB03KT CLR 33/21 A3003 200 49 2300 VRB/03 RMK AO2 T03280211 PWINO $
53988KBKB BKB20191002103516310/02/19 10:35:31  5-MIN KBKB 021635Z AUTO VRB03KT CL0/02/19 10:15:31  5-MIN KBKB 021615Z AUTO 00000KT CLR 32/22 A3003 200 53 2200 000/00 RMK AO2 T03220217 PWINO $
53988KBKB BKB20191002222511010/02/19 22:25:31  5-MIN KBKB 030425Z AUTO 00000KT 9SM SCT110 24/22 A2996 260 90 1400 000/00 RMK AO2 T02390222
53988KBKB BKB20191002223011010/02/19 22:30:31  5-MIN KBKB 030430Z AUTO 00000KT 9SM SCT110 24/22 A2996 260 87 1400 000/00 RMK AO2 T02390217
53988KBKB BKB20191002223511010/02/19 22:35:31  5-MIN KBKB 030435Z AUTO 00000KT 9SM FEW110 24/22 A2996 260 87 1400 000/00 RMK AO2 T02390217
53988KBKB BKB20191002224011010/02/19 22:40:31  5-MIN KBKB 030440Z AUTO 00000KT 9SM FEW110 23/22 A2996 260 90 1300 000/00 RMK AO2 T02330217
53988KBKB BKB20191002224511010/02/19 22:45:31  5-MIN KBKB 030445Z AUTO 00000KT 9SM SCT110 23/22 A2996 260 90 1300 000/00 RMK AO2 T02330217
53988KBKB BKB20191002225011710/02/19 22:50:31  5-MIN KBKB 030450Z AUTO 00000KT 9SM SCT100 23/22 A2996 260 90 1300 000/00 RMK AO2 SLP171 T02330217
53988KBKB BKB20191002225511010/02/19 22:55:31  5-MIN KBKB 030455Z AUTO 00000KT 9SM SCT100 23/22 A2996 260 90 1300 000/00 RMK AO2 T02330217
53988KBKB BKB20191002230011010/02/19 23:00:31  5-MIN KBKB 030500Z AUTO 00000KT 9SM SCT100 23/22 A2996 260 90 1300 000/00 RMK AO2 T02330217
53988KBKB BKB20191002230511010/02/19 23:05:31  5-MIN KBKB 030505Z AUTO 00000KT 8SM SCT100 23/22 A2996 260 90 1300 000/00 RMK AO2 T02330217
53988KBKB BKB20191002231011010/02/19 23:10:31  5-MIN KBKB 030510Z AUTO 00000KT 8SM SCT100 23/22 A2996 260 90 1300 000/00 RMK AO2 T02330217
53988KBKB BKB20191002231511010/02/19 23:15:31  5-MIN KBKB 030515Z AUTO 00000KT 8SM SCT100 23/22 A2996 260 90 1300 000/00 RMK AO2 T02330217
53988KBKB BKB20191002232011010/02/19 23:20:31  5-MIN KBKB 030520Z AUTO 00000KT 9SM FEW100 23/22 A2996 260 90 1300 000/00 RMK AO2 T02330217
53988KBKB BKB20191002232511010/02/19 23:25:31  5-MIN KBKB 030525Z AUTO 00000KT 9SM FEW100 23/22 A2996 260 90 1300 000/00 RMK AO2 T02330217
53988KBKB BKB20191002233011010/02/19 23:30:31  5-MIN KBKB 030530Z AUTO 00000KT 8SM FEW100 23/22 A2996 260 93 1300 000/00 RMK AO2 T02280217
53988KBKB BKB20191002233511010/02/19 23:35:31  5-MIN KBKB 030535Z AUTO 00000KT 8SM FEW100 23/22 A2997 260 93 1300 000/00 RMK AO2 T02280217
53988KBKB BKB20191002234011010/02/19 23:40:31  5-MIN KBKB 030540Z AUTO 00000KT 8SM FEW100 23/22 A2996 260 93 1300 000/00 RMK AO2 T02280217
53988KBKB BKB20191002234510710/02/19 23:45:31  5-MIN KBKB 030545Z AUTO 00000KT 8SM CLR 23/22 A2996 260 93 1300 000/00 RMK AO2 T02280217
53988KBKB BKB20191002235014210/02/19 23:50:31  5-MIN KBKB 030550Z AUTO 00000KT 8SM CLR 23/21 A2996 260 90 1300 000/00 RMK AO2 SLP171 T02280211 10283 20228 403720206 51012
53988KBKB BKB20191002235510710/02/19 23:55:31  5-MIN KBKB 030555Z AUTO 00000KT 8SM CLR 23/21 A2996 260 90 1300 000/00 RMK AO2 T02280211
53988KBKB BKB20191003000010710/03/19 00:00:31  5-MIN KBKB 030600Z AUTO 00000KT 8SM CLR 23/21 A2996 260 90 1300 000/00 RMK AO2 T02280211
53988KBKB BKB20191003010510710/03/19 01:05:31  5-MIN KBKB 030705Z AUTO 00000KT 8SM CLR 23/21 A2997 250 90 1300 000/00 RMK AO2 T02280211
53988KBKB BKB20191003011010710/03/19 01:10:31  5-MIN KBKB 030710Z AUTO 00000KT 8SM CLR 23/21 A2997 250 90 1300 000/00 RMK AO2 T02280211
53988KBKB BKB20191003011511010/03/19 01:15:31  5-MIN KBKB 030715Z AUTO 00000KT 7SM FEW065 22/21 A2997 250 93 1200 000/00 RMK AO2 T02220211
53988KBKB BKB20191003012011010/03/19 01:20:31  5-MIN KBKB 030720Z AUTO 00000KT 7SM SCT065 23/21 A2997 250 90 1300 000/00 RMK AO2 T02280211
53988KBKB BKB20191003012511010/03/19 01:25:31  5-MIN KBKB 030725Z AUTO 00000KT 7SM SCT065 23/21 A2997 250 90 1200 000/00 RMK AO2 T02280211
53988KBKB BKB20191003013011010/03/19 01:30:31  5-MIN KBKB 030730Z AUTO 00000KT 7SM BKN060 23/21 A2998 250 90 1200 000/00 RMK AO2 T02280211
53988KBKB BKB20191003013511710/03/19 01:35:31  5-MIN KBKB 030735Z AUTO 00000KT 8SM BKN060 BKN075 23/21 A2998 250 90 1200 000/00 RMK AO2 T02280211
53988KBKB BKB20191003014011710/03/19 01:40:31  5-MIN KBKB 030740Z AUTO 00000KT 7SM BKN060 BKN080 23/21 A2997 250 90 1200 000/00 RMK AO2 T02280211
53988KBKB BKB20191003014511710/03/19 01:45:31  5-MIN KBKB 030745Z AUTO 00000KT 7SM BKN060 BKN080 23/21 A2997 250 90 1300 000/00 RMK AO2 T02280211
53988KBKB BKB20191003015012410/03/19 01:50:31  5-MIN KBKB 030750Z AUTO 00000KT 8SM SCT060 SCT075 23/21 A2997 250 90 1300 000/00 RMK AO2 SLP175 T02280211
53988KBKB BKB20191003015511010/03/19 01:55:31  5-MIN KBKB 030755Z AUTO 00000KT 7SM SCT060 23/21 A2997 250 90 1300 000/00 RMK AO2 T02280211
53988KBKB BKB20191003020011010/03/19 02:00:31  5-MIN KBKB 030800Z AUTO 00000KT 7SM FEW060 23/21 A2997 250 90 1300 000/00 RMK AO2 T02280211
53988KBKB BKB20191003020511010/03/19 02:05:31  5-MIN KBKB 030805Z AUTO 00000KT 7SM FEW060 23/21 A2997 250 90 1300 000/00 RMK AO2 T02280211
53988KBKB BKB20191003021011010/03/19 02:10:31  5-MIN KBKB 030810Z AUTO 00000KT 7SM FEW060 23/21 A2997 240 93 1100 000/00 RMK AO2 T02170206
53988KBKB BKB20191003041011010/03/19 04:10:31  5-MIN KBKB 031010Z AUTO 00000KT 5SM BR CLR 22/21 A2998 240 93 1100 000/00 RMK AO2 T02170206
53988KBKB BKB20191003041511010/03/19 04:15:31  5-MIN KBKB 031015Z AUTO 00000KT 4SM BR CLR 22/21 A2998 240 93 1100 000/00 RMK AO2 T02170206
53988KBKB BKB20191003042011010/03/19 04:20:31  5-MIN KBKB 031020Z AUTO 00000KT 4SM BR CLR 22/21 A2998 240 93 1100 000/00 RMK AO2 T02170206
53988KBKB BKB20191003042511010/03/19 04:25:31  5-MIN KBKB 031025Z AUTO 00000KT 4SM BR CLR 22/21 A2998 240 93 1100 000/00 RMK AO2 T02170206
53988KBKB BKB20191003043011010/03/19 04:30:31  5-MIN KBKB 031030Z AUTO 00000KT 4SM BR CLR 22/21 A2999 240 93 1100 000/00 RMK AO2 T02170206
53988KBKB BKB20191003043514510/03/19 04:35:31  5-MIN KBKB 031035Z AUTO 00000KT 4SM BR CLR 22/21 A2999 240 93 1100 000/00 RMK AO2 T0217020610/03/19 04:40:30 RMK AO2 T02110206
53988KBKB BKB20191003051511010/03/19 05:15:31  5-MIN KBKB 031115Z AUTO 00000KT 3SM BR CLR 21/21 A3000 230 97 1000 000/00 RMK AO2 T02110206
53988KBKB BKB20191003052011010/03/19 05:20:31  5-MIN KBKB 031120Z AUTO 00000KT 3SM BR CLR 21/21 A3000 230 97 1000 000/00 RMK AO2 T02110206
53988KBKB BKB20191003052511010/03/19 05:25:31  5-MIN KBKB 031125Z AUTO 00000KT 3SM BR CLR 21/21 A3000 230 97 1000 000/00 RMK AO2 T02110206
53988KBKB BKB20191003053012810/03/19 05:30:31  5-MIN KBKB 031130Z AUTO 00000KT 31440Z AUTO 00000KT 10SM CLR 29/23 A3002 200 67 1900 000/00 RMK AO2 T02940228
53988KBKB BKB20191003084510810/03/19 08:45:31  5-MIN KBKB 031445Z AUTO 00000KT 10SM CLR 30/23 A3002 200 65 2000 000/00 RMK AO2 T03000228
53988KBKB BKB20191003085012110/03/19 08:50:31  5-MIN KBKB 031450Z AUTO 28003KT 10SM CLR 30/23 A3002 200 65 2000 270/03 RMK AO2 SLP192 T03000228 53008
53988KBKB BKB20191003085510810/03/19 08:55:31  5-MIN KBKB 031455Z AUTO 00000KT 10SM CLR 30/23 A3002 200 65 2000 000/00 RMK AO2 T03000228
53988KBKB BKB20191003090010810/03/19 09:00:31  5-MIN KBKB 031500Z AUTO 34003KT 10SM CLR 30/23 A3003 200 65 2000 340/03 RMK AO2 T03000228
53988KBKB BKB20191003090510810/03/19 09:05:31  5-MIN KBKB 031505Z AUTO 00000KT 10SM CLR 31/23 A3003 200 62 2100 000/00 RMK AO2 T03060228
53988KBKB BKB20191003091010810/03/19 09:10:31  5-MIN KBKB 031510Z AUTO VRB03KT 10SM CLR 31/22 A3002 200 60 2100 VRB/03 RMK AO2 T03060222
53988KBKB BKB20191003091510810/03/19 09:15:31  5-MIN KBKB 031515Z AUTO VRB04KT 10SM CLR 31/22 A3002 200 56 2100 VRB/04 RMK AO2 T03110217
53988KBKB BKB20191003092010810/03/19 09:20:31  5-MIN KBKB 031520Z AUTO VRB03KT 10SM CLR 31/22 A3002 200 56 2100 VRB/03 RMK AO2 T03110217
53988KBKB BKB20191003092510810/03/19 09:25:31  5-MIN KBKB 031525Z AUTO 00000KT 10SM CLR 31/22 A3002 200 58 2100 000/00 RMK AO2 T03110222
53988KBKB BKB20191003093014410/03/19 09:30:31  5-MIN KBKB 031530Z AUTO VRB03KT 10SM CLR 32/22 A3002 200 56 2200 VRB/03 RMK AO2 T03170222103 RMK AO2 RAB03E13 P0000 T03280211
53988KBKB BKB20191003102012310/03/19 10:20:31  5-MIN KBKB 031620Z AUTO 34003KT 10SM CLR 33/21 A3002 210 48 2400 340/03 RMK AO2 RAB03E13 P0000 T03330211
53988KBKB BKB20191003184010810/03/19 18:40:31  5-MIN KBKB 040040Z AUTO 00000KT 10SM CLR 26/21 A2999 230 73 1500 000/00 RMK AO2 T02560206
53988KBKB BKB20191003184510810/03/19 18:45:31  5-MIN KBKB 040045Z AUTO 00000KT 10SM CLR 26/21 A2999 230 73 1500 000/00 RMK AO2 T02560206
53988KBKB BKB20191003185011510/03/19 18:50:31  5-MIN KBKB 040050Z AUTO 00000KT 10SM CLR 26/21 A2999 230 73 1500 000/00 RMK AO2 SLP183 T02560206
53988KBKB BKB20191003185510810/03/19 18:55:31  5-MIN KBKB 040055Z AUTO 00000KT 10SM CLR 25/21 A3000 230 76 1500 000/00 RMK AO2 T02500206
53988KBKB BKB20191003190010810/03/19 19:00:31  5-MIN KBKB 040100Z AUTO 00000KT 10SM CLR 25/21 A3000 230 76 1500 000/00 RMK AO2 T02500206
53988KBKB BKB20191003190510810/03/19 19:05:31  5-MIN KBKB 040105Z AUTO 00000KT 10SM CLR 25/21 A3000 220 76 1500 000/00 RMK AO2 T02500206
53988KBKB BKB20191003191010810/03/19 19:10:31  5-MIN KBKB 040110Z AUTO 00000KT 10SM CLR 25/21 A3000 220 76 1500 000/00 RMK AO2 T02500206
53988KBKB BKB20191003191510810/03/19 19:15:31  5-MIN KBKB 040115Z AUTO 00000KT 10SM CLR 25/21 A3000 220 76 1500 000/00 RMK AO2 T02500206
53988KBKB BKB20191003192010810/03/19 19:20:31  5-MIN KBKB 040120Z AUTO 00000KT 10SM CLR 25/21 A3000 220 76 1500 000/00 RMK AO2 T02500206
53988KBKB BKB20191003192510810/03/19 19:25:31  5-MIN KBKB 040125Z AUTO 00000KT 10SM CLR 25/21 A3000 220 76 1500 000/00 RMK AO2 T02500206
53988KBKB BKB20191003193010810/03/19 19:30:31  5-MIN KBKB 040130Z AUTO 00000KT 10SM CLR 24/21 A3000 220 78 1400 000/00 RMK AO2 T02440206
53988KBKB BKB20191003193510810/03/19 19:35:31  5-MIN KBKB 040135Z AUTO 00000KT 10SM CLR 24/21 A3001 220 78 1400 000/00 RMK AO2 T02440206
53988KBKB BKB20191003194010810/03/19 19:40:31  5-MIN KBKB 040140Z AUTO 00000KT 10SM CLR 24/21 A3001 220 78 1400 000/00 RMK AO2 T02440206
53988KBKB BKB20191003194510810/03/19 19:45:31  5-MIN KBKB 040145Z AUTO 00000KT 10SM CLR 24/21 A3001 210 78 1400 000/00 RMK AO2 T02440206
53988KBKB BKB20191003195011510/03/19 19:50:31  5-MIN KBKB 040150Z AUTO 00000KT 10SM CLR 24/21 A3002 210 81 1300 000/00 RMK AO2 SLP190 T02390206
53988KBKB BKB20191003195510810/03/19 19:55:31  5-MIN KBKB 040155Z AUTO 00000KT 10SM CLR 24/21 A3002 210 81 1300 000/00 RMK AO2 T02390206
53988KBKB BKB20191003200010810/03/19 20:00:31  5-MIN KBKB 040200Z AUTO 00000KT 10SM CLR 24/21 A3002 200 81 1300 000/00 RMK AO2 T02390206
53988KBKB BKB20191003200511110/03/19 20:05:31  5-MIN KBKB 040205Z AUTO 00000KT 10SM FEW065 24/21 A3002 200 84 1300 000/00 RMK AO2 T02390211
53988KBKB BKB20191003201011110/03/19 20:10:31  5-MIN KBKB 040210Z AUTO 00000KT 10SM FEW065 24/21 A3003 200 84 1300 000/00 RMK AO2 T02390211
53988KBKB BKB20191003201511110/03/19 20:15:31  5-MIN KBKB 040215Z AUTO 00000KT 10SM FEW065 24/21 A3003 200 84 1300 000/00 RMK AO2 T02390211
53988KBKB BKB20191003202011110/03/19 20:20:31  5-MIN KBKB 040220Z AUTO 00000KT 10SM FEW065 24/21 A3003 200 84 1300 000/00 RMK AO2 T02390211
53988KBKB BKB20191003202511110/03/19 20:25:31  5-MIN KBKB 040225Z AUTO 00000KT 10SM FEW065 24/21 A3003 190 84 1300 000/00 RMK AO2 T02390211
53988KBKB BKB20191003203011810/03/19 20:30:31  5-MIN KBKB 040230Z AUTO 00000KT 10SM FEW065 SCT100 24/21 A3004 190 84 1300 000/00 RMK AO2 T02390211
53988KBKB BKB20191003203511810/03/19 20:35:31  5-MIN KBKB 040235Z AUTO 00000KT 10SM FEW070 SCT100 24/21 A3004 180 84 1300 000/00 RMK AO2 T02390211
53988KBKB BKB20191003204011810/03/19 20:40:31  5-MIN KBKB 040240Z AUTO 00000KT 10SM FEW070 SCT100 24/21 A3005 180 84 1300 000/00 RMK AO2 T02390211
53988KBKB BKB20191003204511810/03/19 20:45:31  5-MIN KBKB 040245Z AUTO 00000KT 10SM FEW070 SCT100 24/21 A3005 180 81 1400 000/00 RMK AO2 T02440211
53988KBKB BKB20191003205013110/03/19 20:50:31  5-MIN KBKB 040250Z AUTO VRB03KT 10SM FEW070 SCT100 24/21 A3005 180 81 1400 VRB/03 RMK AO2 SLP202 T02440211 53023
53988KBKB BKB20191003205511810/03/19 20:55:31  5-MIN KBKB 040255Z AUTO 05003KT 10SM SCT065 BKN100 24/22 A3006 170 84 1300 050/03 RMK AO2 T02440217
53988KBKB BKB20191003210011810/03/19 21:00:31  5-MIN KBKB 040300Z AUTO VRB04KT 10SM BKN060 BKN100 24/22 A3007 160 84 1300 VRB/04 RMK AO2 T02440217
53988KBKB BKB20191003210511110/03/19 21:05:31  5-MIN KBKB 040305Z AUTO VRB05KT 10SM BKN060 24/22 A3007 160 84 1300 VRB/05 RMK AO2 T02440217
53988KBKB BKB20191003211011810/03/19 21:10:31  5-MIN KBKB 040310Z AUTO VRB03KT 10SM BKN060 BKN085 24/22 A3006 170 84 1300 VRB/03 RMK AO2 T02440217
53988KBKB BKB20191003211511810/03/19 21:15:31  5-MIN KBKB 040315Z AUTO VRB03KT 10SM BKN060 BKN085 24/22 A3006 170 84 1300 VRB/03 RMK AO2 T02440217
53988KBKB BKB20191003212011810/03/19 21:20:31  5-MIN KBKB 040320Z AUTO VRB03KT 10SM BKN060 BKN085 24/22 A3006 170 84 1300 VRB/03 RMK AO2 T02440217
53988KBKB BKB20191003212511110/03/19 21:25:31  5-MIN KBKB 040325Z AUTO VRB03KT 10SM SCT060 24/22 A3005 170 84 1300 VRB/03 RMK AO2 T02440217
53988KBKB BKB20191003213011110/03/19 21:30:31  5-MIN KBKB 040330Z AUTO 00000KT 10SM FEW060 24/22 A3005 170 87 1300 000/00 RMK AO2 T02390217
53988KBKB BKB20191003213511110/03/19 21:35:31  5-MIN KBKB 040335Z AUTO 00000KT 10SM FEW060 24/22 A3005 170 87 1300 000/00 RMK AO2 T02390217
53988KBKB BKB20191003214010810/03/19 21:40:31  5-MIN KBKB 040340Z AUTO VRB03KT 10SM CLR 24/22 A3006 170 87 1300 VRB/03 RMK AO2 T02390217
53988KBKB BKB20191003214510810/03/19 21:45:31  5-MIN KBKB 040345Z AUTO 00000KT 10SM CLR 24/22 A3005 170 87 1300 000/00 RMK AO2 T02390217
53988KBKB BKB20191003215011510/03/19 21:50:31  5-MIN KBKB 040350Z AUTO VRB03KT 10SM CLR 24/22 A3005 180 87 1300 VRB/03 RMK AO2 SLP202 T02390217
53988KBKB BKB20191003215510810/03/19 21:55:31  5-MIN KBKB 040355Z AUTO 00000KT 10SM CLR 24/22 A3005 180 87 1300 000/00 RMK AO2 T02390217
53988KBKB BKB20191003220010810/03/19 22:00:31  5-MIN KBKB 040400Z AUTO 00000KT 10SM CLR 24/21 A3005 180 84 1300 000/00 RMK AO2 T02390211
53988KBKB BKB20191003220510810/03/19 22:05:31  5-MIN KBKB 040405Z AUTO VRB04KT 10SM CLR 24/22 A3005 180 87 1300 VRB/04 RMK AO2 T02390217
53988KBKB BKB20191003221010810/03/19 22:10:31  5-MIN KBKB 040410Z AUTO VRB03KT 10SM CLR 24/22 A3005 180 87 1300 VRB/03 RMK AO2 T02390217
53988KBKB BKB20191003221510810/03/19 22:15:31  5-MIN KBKB 040415Z AUTO VRB03KT 10SM CLR 23/21 A3005 180 87 1200 VRB/03 RMK AO2 T02330211
53988KBKB BKB20191003222010810/03/19 22:20:31  5-MIN KBKB 040420Z AUTO VRB04KT 10SM CLR 23/21 A3004 190 87 1200 VRB/04 RMK AO2 T02330211
53988KBKB BKB20191003222510810/03/19 22:25:31  5-MIN KBKB 040425Z AUTO VRB04KT 10SM CLR 23/22 A3004 190 90 1200 VRB/04 RMK AO2 T02330217
53988KBKB BKB20191003223010810/03/19 22:30:31  5-MIN KBKB 040430Z AUTO VRB04KT 10SM CLR 23/22 A3004 190 90 1200 VRB/04 RMK AO2 T02330217
53988KBKB BKB20191003223510810/03/19 22:35:31  5-MIN KBKB 040435Z AUTO 01004KT 10SM CLR 23/22 A3004 190 90 1200 010/04 RMK AO2 T02330217
53988KBKB BKB20191003224010810/03/19 22:40:31  5-MIN KBKB 040440Z AUTO VRB04KT 10SM CLR 23/22 A3004 190 90 1200 VRB/04 RMK AO2 T02330217
53988KBKB BKB20191003224510810/03/19 22:45:31  5-MIN KBKB 040445Z AUTO 00000KT 10SM CLR 23/22 A3004 190 90 1200 000/00 RMK AO2 T02330217
53988KBKB BKB20191003225011510/03/19 22:50:31  5-MIN KBKB 040450Z AUTO VRB03KT 10SM CLR 23/22 A3004 190 90 1200 VRB/03 RMK AO2 SLP196 T02330217
53988KBKB BKB20191003225510810/03/19 22:55:31  5-MIN KBKB 040455Z AUTO VRB04KT 10SM CLR 23/22 A3004 190 90 1200 VRB/04 RMK AO2 T02330217
53988KBKB BKB20191003230010810/03/19 23:00:31  5-MIN KBKB 040500Z AUTO VRB04KT 10SM CLR 23/22 A3004 190 90 1200 VRB/04 RMK AO2 T02330217
53988KBKB BKB20191003230510810/03/19 23:05:31  5-MIN KBKB 040505Z AUTO VRB03KT 10SM CLR 23/22 A3004 190 90 1200 VRB/03 RMK AO2 T02330217
53988KBKB BKB20191003231010810/03/19 23:10:31  5-MIN KBKB 040510Z AUTO 00000KT 10SM CLR 23/22 A3004 190 90 1200 000/00 RMK AO2 T02330217
53988KBKB BKB20191003231510810/03/19 23:15:31  5-MIN KBKB 040515Z AUTO 00000KT 10SM CLR 23/22 A3004 190 90 1200 000/00 RMK AO2 T02330217
53988KBKB BKB20191003232010810/03/19 23:20:31  5-MIN KBKB 040520Z AUTO VRB04KT 10SM CLR 23/22 A3004 190 90 1200 VRB/04 RMK AO2 T02330217
53988KBKB BKB20191003232510810/03/19 23:25:31  5-MIN KBKB 040525Z AUTO VRB03KT 10SM CLR 23/22 A3004 190 90 1200 VRB/03 RMK AO2 T02330217
53988KBKB BKB20191003233010810/03/19 23:30:31  5-MIN KBKB 040530Z AUTO 01003KT 10SM CLR 23/22 A3004 190 93 1200 010/03 RMK AO2 T02280217
53988KBKB BKB20191003233510810/03/19 23:35:31  5-MIN KBKB 040535Z AUTO VRB03KT 10SM CLR 23/22 A3004 190 93 1200 VRB/03 RMK AO2 T02280217
53988KBKB BKB20191003234010810/03/19 23:40:31  5-MIN KBKB 040540Z AUTO 00000KT 10SM CLR 23/22 A3004 190 93 1200 000/00 RMK AO2 T02280217
53988KBKB BKB20191003234510810/03/19 23:45:31  5-MIN KBKB 040545Z AUTO VRB03KT 10SM CLR 23/22 A3004 190 93 1200 VRB/03 RMK AO2 T02280217
53988KBKB BKB20191003235014310/03/19 23:50:31  5-MIN KBKB 040550Z AUTO 00000KT 10SM CLR 23/22 A3004 190 93 1200 000/00 RMK AO2 SLP195 T02280217 10272 20228 403610211 53024
53988KBKB BKB20191003235510810/03/19 23:55:31  5-MIN KBKB 040555Z AUTO 00000KT 10SM CLR 23/22 A3004 190 93 1200 000/00 RMK AO2 T02280217
53988KBKB BKB20191004000010810/04/19 00:00:31  5-MIN KBKB 040600Z AUTO 00000KT 10SM CLR 23/22 A3004 190 93 1200 000/00 RMK AO2 T02280217
53988KBKB BKB20191004000510810/04/19 00:05:31  5-MIN KBKB 040605Z AUTO 01003KT 10SM CLR 23/22 A3003 190 93 1200 010/03 RMK AO2 T02280217
53988KBKB BKB20191004001010810/04/19 00:10:31  5-MIN KBKB 040610Z AUTO VRB03KT 10SM CLR 23/22 A3004 190 93 1200 VRB/03 RMK AO2 T02280217
53988KBKB BKB20191004001510810/04/19 00:15:31  5-MIN KBKB 040615Z AUTO 00000KT 10SM CLR 23/22 A3004 190 93 1200 000/00 RMK AO2 T02280217
53988KBKB BKB20191004002010810/04/19 00:20:31  5-MIN KBKB 040620Z AUTO 00000KT 10SM CLR 23/22 A3004 190 93 1200 000/00 RMK AO2 T02280217
53988KBKB BKB20191004002510810/04/19 00:25:31  5-MIN KBKB 040625Z AUTO 00000KT 10SM CLR 23/22 A3004 190 93 1200 000/00 RMK AO2 T02280217
53988KBKB BKB20191004003010810/04/19 00:30:31  5-MIN KBKB 040630Z AUTO 00000KT 10SM CLR 23/22 A3004 190 93 1200 000/00 RMK AO2 T02280217
53988KBKB BKB20191004003510810/04/19 00:35:31  5-MIN KBKB 040635Z AUTO VRB03KT 10SM CLR 23/22 A3004 190 93 1200 VRB/03 RMK AO2 T02280217
53988KBKB BKB20191004004010810/04/19 00:40:31  5-MIN KBKB 040640Z AUTO VRB03KT 10SM CLR 23/22 A3004 190 93 1200 VRB/03 RMK AO2 T02280217
53988KBKB BKB20191004004510810/04/19 00:45:31  5-MIN KBKB 040645Z AUTO 00000KT 10SM CLR 23/22 A3004 190 93 1200 000/00 RMK AO2 T02280217
53988KBKB BKB20191004005011510/04/19 00:50:31  5-MIN KBKB 040650Z AUTO 00000KT 10SM CLR 23/22 A3004 190 93 1200 000/00 RMK AO2 SLP196 T02280217
53988KBKB BKB20191004005510810/04/19 00:55:31  5-MIN KBKB 040655Z AUTO 00000KT 10SM CLR 23/22 A3004 190 93 1200 000/00 RMK AO2 T02280217
53988KBKB BKB20191004010010810/04/19 01:00:31  5-MIN KBKB 040700Z AUTO VRB03KT 10SM CLR 23/21 A3004 190 90 1200 VRB/03 RMK AO2 T02280211
53988KBKB BKB20191004010510810/04/19 01:05:31  5-MIN KBKB 040705Z AUTO VRB03KT 10SM CLR 23/21 A3004 190 90 1200 VRB/03 RMK AO2 T02280211
53988KBKB BKB20191004011010810/04/19 01:10:31  5-MIN KBKB 040710Z AUTO VRB03KT 10SM CLR 23/21 A3004 190 90 1200 VRB/03 RMK AO2 T02280211
53988KBKB BKB20191004011510810/04/19 01:15:31  5-MIN KBKB 040715Z AUTO 02003KT 10SM CLR 23/21 A3004 190 90 1200 020/03 RMK AO2 T02280211
53988KBKB BKB20191004012010810/04/19 01:20:31  5-MIN KBKB 040720Z AUTO VRB03KT 10SM CLR 23/21 A3004 190 90 1200 VRB/03 RMK AO2 T02280211
53988KBKB BKB20191004012510810/04/19 01:25:31  5-MIN KBKB 040725Z AUTO VRB03KT 10SM CLR 23/21 A3004 190 90 1200 VRB/03 RMK AO2 T02280211
53988KBKB BKB20191004013010810/04/19 01:30:31  5-MIN KBKB 040730Z AUTO 00000KT 10SM CLR 23/21 A3004 190 90 1200 000/00 RMK AO2 T02280211
53988KBKB BKB20191004013510810/04/19 01:35:31  5-MIN KBKB 040735Z AUTO 00000KT 10SM CLR 23/21 A3004 190 90 1200 000/00 RMK AO2 T02280211
53988KBKB BKB20191004014010810/04/19 01:40:31  5-MIN KBKB 040740Z AUTO 00000KT 10SM CLR 23/21 A3004 190 90 1200 000/00 RMK AO2 T02280211
53988KBKB BKB20191004014510810/04/19 01:45:31  5-MIN KBKB 040745Z AUTO 00000KT 10SM CLR 23/21 A3003 190 90 1200 000/00 RMK AO2 T02280211
53988KBKB BKB20191004015011510/04/19 01:50:31  5-MIN KBKB 040750Z AUTO 00000KT 10SM CLR 23/21 A3003 190 90 1200 000/00 RMK AO2 SLP194 T02280211
53988KBKB BKB20191004015510810/04/19 01:55:31  5-MIN KBKB 040755Z AUTO 00000KT 10SM CLR 23/21 A3003 200 90 1200 000/00 RMK AO2 T02280211
53988KBKB BKB20191004020010710/04/19 02:00:31  5-MIN KBKB 040800Z AUTO VRB03KT 9SM CLR 22/21 A3003 200 93 1100 VRB/03 RMK AO2 T02220211
53988KBKB BKB20191004020510710/04/19 02:05:31  5-MIN KBKB 040805Z AUTO 00000KT 9SM CLR 22/21 A3003 200 93 1100 000/00 RMK AO2 T02220211
53988KBKB BKB20191004021010710/04/19 02:10:31  5-MIN KBKB 040810Z AUTO 00000KT 9SM CLR 22/21 A3003 200 93 1100 000/00 RMK AO2 T02220211
53988KBKB BKB20191004021510710/04/19 02:15:31  5-MIN KBKB 040815Z AUTO 00000KT 9SM CLR 22/21 A3003 200 93 1100 000/00 RMK AO2 T02220211
53988KBKB BKB20191004022010710/04/19 02:20:31  5-MIN KBKB 040820Z AUTO 00000KT 9SM CLR 22/21 A3002 200 93 1100 000/00 RMK AO2 T02220211
53988KBKB BKB20191004022510710/04/19 02:25:31  5-MIN KBKB 040825Z AUTO 02003KT 9SM CLR 22/21 A3002 210 93 1100 020/03 RMK AO2 T02220211
53988KBKB BKB20191004023010710/04/19 02:30:31  5-MIN KBKB 040830Z AUTO 00000KT 9SM CLR 22/21 A3002 200 93 1100 000/00 RMK AO2 T02220211
53988KBKB BKB20191004023510710/04/19 02:35:31  5-MIN KBKB 040835Z AUTO 00000KT 9SM CLR 22/21 A3003 200 93 1100 000/00 RMK AO2 T02220211
53988KBKB BKB20191004024010710/04/19 02:40:31  5-MIN KBKB 040840Z AUTO 00000KT 9SM CLR 22/21 A3002 200 93 1100 000/00 RMK AO2 T02220211
53988KBKB BKB20191004024510710/04/19 02:45:31  5-MIN KBKB 040845Z AUTO 00000KT 9SM CLR 22/21 A3003 200 93 1100 000/00 RMK AO2 T02220211
53988KBKB BKB20191004025012010/04/19 02:50:31  5-MIN KBKB 040850Z AUTO 00000KT 9SM CLR 22/21 A3003 200 93 1100 000/00 RMK AO2 SLP192 T02220211 56008
53988KBKB BKB20191004025510710/04/19 02:55:31  5-MIN KBKB 040855Z AUTO 00000KT 8SM CLR 22/21 A3002 200 93 1100 000/00 RMK AO2 T02220211
53988KBKB BKB20191004030010710/04/19 03:00:31  5-MIN KBKB 040900Z AUTO VRB03KT 8SM CLR 22/21 A3002 200 93 1100 VRB/03 RMK AO2 T02220211
53988KBKB BKB20191004030510710/04/19 03:05:31  5-MIN KBKB 040905Z AUTO 00000KT 9SM CLR 22/21 A3002 200 93 1100 000/00 RMK AO2 T02220211
53988KBKB BKB20191004031010710/04/19 03:10:31  5-MIN KBKB 040910Z AUTO 00000KT 9SM CLR 22/21 A3002 200 93 1100 000/00 RMK AO2 T02220211
53988KBKB BKB20191004031510710/04/19 03:15:31  5-MIN KBKB 040915Z AUTO 00000KT 8SM CLR 22/21 A3002 210 93 1100 000/00 RMK AO2 T02220211
53988KBKB BKB20191004032010710/04/19 03:20:31  5-MIN KBKB 040920Z AUTO 00000KT 8SM CLR 22/21 A3002 210 93 1100 000/00 RMK AO2 T02220211
53988KBKB BKB20191004032510710/04/19 03:25:31  5-MIN KBKB 040925Z AUTO 00000KT 8SM CLR 22/21 A3002 210 93 1100 000/00 RMK AO2 T02220211
53988KBKB BKB20191004033010710/04/19 03:30:31  5-MIN KBKB 040930Z AUTO 00000KT 7SM CLR 22/21 A3002 210 93 1100 000/00 RMK AO2 T02170206
53988KBKB BKB20191004033510710/04/19 03:35:31  5-MIN KBKB 040935Z AUTO VRB03KT 7SM CLR 22/21 A3002 210 97 1100 VRB/03 RMK AO2 T02170211
53988KBKB BKB20191004034010710/04/19 03:40:31  5-MIN KBKB 040940Z AUTO 00000KT 7SM CLR 22/21 A3002 210 93 1100 000/00 RMK AO2 T02170206
53988KBKB BKB20191004034510710/04/19 03:45:31  5-MIN KBKB 040945Z AUTO 00000KT 7SM CLR 22/21 A3002 210 93 1100 000/00 RMK AO2 T02170206
53988KBKB BKB20191004035011410/04/19 03:50:31  5-MIN KBKB 040950Z AUTO 00000KT 7SM CLR 22/21 A3002 210 93 1100 000/00 RMK AO2 SLP190 T02170206
53988KBKB BKB20191004035510710/04/19 03:55:31  5-MIN KBKB 040955Z AUTO 00000KT 7SM CLR 22/21 A3002 210 93 1100 000/00 RMK AO2 T02170206
53988KBKB BKB20191004040010710/04/19 04:00:31  5-MIN KBKB 041000Z AUTO 00000KT 7SM CLR 22/21 A3002 210 93 1100 000/00 RMK AO2 T02170206
53988KBKB BKB20191004040510710/04/19 04:05:31  5-MIN KBKB 041005Z AUTO 00000KT 8SM CLR 22/21 A3002 210 93 1100 000/00 RMK AO2 T02170206
53988KBKB BKB20191004041010710/04/19 04:10:31  5-MIN KBKB 041010Z AUTO 00000KT 8SM CLR 22/21 A3002 210 93 1100 000/00 RMK AO2 T02170206
53988KBKB BKB20191004041510710/04/19 04:15:31  5-MIN KBKB 041015Z AUTO 00000KT 8SM CLR 22/21 A3002 210 93 1100 000/00 RMK AO2 T02170206
53988KBKB BKB20191004042010710/04/19 04:20:31  5-MIN KBKB 041020Z AUTO 00000KT 8SM CLR 22/21 A3002 210 93 1100 000/00 RMK AO2 T02170206
53988KBKB BKB20191004042510710/04/19 04:25:31  5-MIN KBKB 041025Z AUTO 00000KT 7SM CLR 22/21 A3002 210 93 1100 000/00 RMK AO2 T02170206
53988KBKB BKB20191004043010710/04/19 04:30:31  5-MIN KBKB 041030Z AUTO 00000KT 7SM CLR 22/21 A3002 210 93 1100 000/00 RMK AO2 T02170206
53988KBKB BKB20191004043511010/04/19 04:35:31  5-MIN KBKB 041035Z AUTO 00000KT 6SM BR CLR 21/21 A3002 210 97 1000 000/00 RMK AO2 T02110206
53988KBKB BKB20191004044011010/04/19 04:40:31  5-MIN KBKB 041040Z AUTO 00000KT 6SM BR CLR 22/21 A3002 210 93 1100 000/00 RMK AO2 T02170206
53988KBKB BKB20191004044511010/04/19 04:45:31  5-MIN KBKB 041045Z AUTO 00000KT 6SM BR CLR 21/21 A3002 200 97 1000 000/00 RMK AO2 T02110206
53988KBKB BKB20191004045011710/04/19 04:50:31  5-MIN KBKB 041050Z AUTO 00000KT 5SM BR CLR 21/21 A3002 210 97 1000 000/00 RMK AO2 SLP191 T02110206
53988KBKB BKB20191004045511010/04/19 04:55:31  5-MIN KBKB 041055Z AUTO 00000KT 5SM BR CLR 21/21 A3002 200 97 1000 000/00 RMK AO2 T02110206
53988KBKB BKB20191004050011010/04/19 05:00:31  5-MIN KBKB 041100Z AUTO 00000KT 5SM BR CLR 21/21 A3002 200 97 1000 000/00 RMK AO2 T02110206
53988KBKB BKB20191004050516610/04/19 05:05:31  5-MIN KBKB 041105Z AUTO 00000KT 4S7SM CLR 22/21 A3003 190 93 1100 0041130Z AUTO 00000KT 4SM BR CLR 21/20 A3003 190 93 1000 000/00 RMK AO2 T02110200
53988KBKB BKB20191004053511010/04/19 05:35:31  5-MIN KBKB 041135Z AUTO 00000KT 5SM BR CLR 21/21 A3003 200 97 1000 000/00 RMK AO2 T02110206
53988KBKB BKB20191004054011010/04/19 05:40:31  5-MIN KBKB 041140Z AUTO 00000KT 5SM BR CLR 21/21 A3003 190 97 1000 000/00 RMK AO2 T02110206
53988KBKB BKB20191004054511010/04/19 05:45:31  5-MIN KBKB 041145Z AUTO 00000KT 6SM BR CLR 21/21 A3003 190 97 1000 000/00 RMK AO2 T02110206
53988KBKB BKB20191004055013210/04/19 05:50:31  5-MIN KBKB 041150Z AUTO 00000KT 7SM CLR 22/21 A3003 190 93 1100 000/00 RMK AO2 SLP196 T02170206 10228 20211 58004
53988KBKB BKB20191004055510710/04/19 05:55:31  5-MIN KBKB 041155Z AUTO 00000KT 7SM CLR 22/21 A3003 190 93 1100 000/00 RMK AO2 T02170206
53988KBKB BKB20191004060010710/04/19 06:00:31  5-MIN KBKB 041200Z AUTO 00000KT 7SM CLR 22/21 A3003 190 93 1100 000/00 RMK AO2 T02170206
53988KBKB BKB20191004060014710/04/19 06:00:31  5-MIN KBKB 041200Z AUTO 00000KT 7SM CLR 22/21 A3003 19Z AUTO 00000KT 5SM BR CLR 21/21 A3003 190 97 1000 000/00 RMK AO2 T02110206
53988KBKB BKB20191004060511010/04/19 06:05:31  5-MIN KBKB 041205Z AUTO 00000KT 6SM BR CLR 22/21 A3004 190 93 1100 000/00 RMK AO2 T02170206
53988KBKB BKB20191004061011010/04/19 06:10:31  5-MIN KBKB 041210Z AUTO 00000KT 6SM BR CLR 22/21 A3004 190 93 1100 000/00 RMK AO2 T02170206
53988KBKB BKB20191004061511010/04/19 06:15:31  5-MIN KBKB 041215Z AUTO 00000KT 6SM BR CLR 22/21 A3004 190 93 1100 000/00 RMK AO2 T02170206
53988KBKB BKB20191004062011010/04/19 06:20:31  5-MIN KBKB 041220Z AUTO 00000KT 6SM BR CLR 22/21 A3004 190 93 1100 000/00 RMK AO2 T02170206
53988KBKB BKB20191004062510710/04/19 06:25:31  5-MIN KBKB 041225Z AUTO 00000KT 7SM CLR 22/21 A3004 190 93 1000 000/00 RMK AO2 T02170206
53988KBKB BKB20191004063010710/04/19 06:30:31  5-MIN KBKB 041230Z AUTO 00000KT 7SM CLR 22/21 A3004 190 93 1000 000/00 RMK AO2 T02170206
53988KBKB BKB20191004063510710/04/19 06:35:31  5-MIN KBKB 041235Z AUTO 00000KT 8SM CLR 22/21 A3004 190 90 1100 000/00 RMK AO2 T02220206
53988KBKB BKB20191004164510810/04/19 16:45:31  5-MIN KBKB 042245Z AUTO 00000KT 10SM CLR 30/22 A2995 270 62 2100 000/00 RMK AO2 T03000222
53988KBKB BKB20191004165011510/04/19 16:50:31  5-MIN KBKB 042250Z AUTO 00000KT 10SM CLR 30/22 A2995 270 62 2100 000/00 RMK AO2 SLP167 T03000222
53988KBKB BKB20191004165510810/04/19 16:55:31  5-MIN KBKB 042255Z AUTO VRB03KT 10SM CLR 30/22 A2995 270 62 2100 VRB/03 RMK AO2 T03000222
53988KBKB BKB20191004170012610/04/19 17:00:31  5-MIN KBKB 042300Z AUTO 00000KT 10SM -RA CLR 30/22 A2995 270 60 2100 000/00 RMK AO2 RAB2257 P0000 T03000217
53988KBKB BKB20191004170512510/04/19 17:05:31  5-MIN KBKB 042305Z AUTO 00000KT 10SM CLR 30/22 A2995 270 60 2100 000/00 RMK AO2 RAB2257E05 P0000 T03000217
53988KBKB BKB20191004171012510/04/19 17:10:31  5-MIN KBKB 042310Z AUTO 00000KT 10SM CLR 30/22 A2995 270 60 2100 000/00 RMK AO2 RAB2257E05 P0000 T03000217
53988KBKB BKB20191004171512510/04/19 17:15:31  5-MIN KBKB 042315Z AUTO VRB03KT 10SM CLR 30/22 A2995 270 60 2100 VRB/03 RMK AO2 RAB2257E05 P0000 T03000217
53988KBKB BKB20191004172012510/04/19 17:20:31  5-MIN KBKB 042320Z AUTO VRB03KT 10SM CLR 30/22 A2996 270 60 2100 VRB/03 RMK AO2 RAB2257E05 P0000 T03000217
53988KBKB BKB20191004172512510/04/19 17:25:31  5-MIN KBKB 042325Z AUTO VRB04KT 10SM CLR 30/22 A2995 270 62 2100 VRB/04 RMK AO2 RAB2257E05 P0000 T03000222
53988KBKB BKB20191004173012510/04/19 17:30:31  5-MIN KBKB 042330Z AUTO 00000KT 10SM CLR 30/22 A2995 270 62 2100 000/00 RMK AO2 RAB2257E05 P0000 T03000222
53988KBKB BKB20191004173512510/04/19 17:35:31  5-MIN KBKB 042335Z AUTO VRB03KT 10SM CLR 29/22 A2996 260 64 2000 VRB/03 RMK AO2 RAB2257E05 P0000 T02940222
53988KBKB BKB20191004174012510/04/19 17:40:31  5-MIN KBKB 042340Z AUTO VRB03KT 10SM CLR 29/22 A2996 260 64 2000 VRB/03 RMK AO2 RAB2257E05 P0000 T02940222
53988KBKB BKB20191004174512510/04/19 17:45:31  5-MIN KBKB 042345Z AUTO VRB03KT 10SM CLR 29/22 A2997 250 64 2000 VRB/03 RMK AO2 RAB2257E05 P0000 T02940222
53988KBKB BKB20191004175015610/04/19 17:50:31  5-MIN KBKB 042350Z AUTO VRB03KT 10SM CLR 29/22 A2998 250 64 2000 VRB/03 RMK AO2 RAB2257E05 SLP175 P0000 60000 T02940222 10356 20294 56021
53988KBKB BKB20191004175510810/04/19 17:55:31  5-MIN KBKB 042355Z AUTO VRB03KT 10SM CLR 29/22 A2997 250 64 2000 VRB/03 RMK AO2 T02940222
53988KBKB BKB20191004180010810/04/19 18:00:31  5-MIN KBKB 050000Z AUTO 00000KT 10SM CLR 29/22 A2997 250 67 1900 000/00 RMK AO2 T02890222
53988KBKB BKB20191004180510810/04/19 18:05:31  5-MIN KBKB 050005Z AUTO VRB05KT 10SM CLR 29/22 A2997 250 67 1900 VRB/05 RMK AO2 T02890222
53988KBKB BKB20191004181010810/04/19 18:10:31  5-MIN KBKB 050010Z AUTO VRB03KT 10SM CLR 29/22 A2997 250 64 1900 VRB/03 RMK AO2 T02890217
53988KBKB BKB20191004181510810/04/19 18:15:31  5-MIN KBKB 050015Z AUTO VRB03KT 10SM CLR 29/22 A2998 250 64 1900 VRB/03 RMK AO2 T02890217
53988KBKB BKB20191004182010810/04/19 18:20:31  5-MIN KBKB 050020Z AUTO VRB05KT 10SM CLR 28/22 A2998 250 66 1900 VRB/05 RMK AO2 T02830217
53988KBKB BKB20191004182510810/04/19 18:25:31  5-MIN KBKB 050025Z AUTO VRB04KT 10SM CLR 28/21 A2998 240 64 1900 VRB/04 RMK AO2 T02830211
53988KBKB BKB20191004183010810/04/19 18:30:31  5-MIN KBKB 050030Z AUTO VRB04KT 10SM CLR 28/21 A2998 240 64 1900 VRB/04 RMK AO2 T02830211
53988KBKB BKB20191004183510810/04/19 18:35:31  5-MIN KBKB 050035Z AUTO VRB03KT 10SM CLR 28/21 A2998 240 64 1900 VRB/03 RMK AO2 T02830211
53988KBKB BKB20191004184010810/04/19 18:40:31  5-MIN KBKB 050040Z AUTO VRB03KT 10SM CLR 28/21 A2998 240 66 1800 VRB/03 RMK AO2 T02780211
53988KBKB BKB20191004184510810/04/19 18:45:31  5-MIN KBKB 050045Z AUTO VRB05KT 10SM CLR 28/21 A2999 230 66 1800 VRB/05 RMK AO2 T02780211
53988KBKB BKB20191004211010810/04/19 21:10:31  5-MIN KBKB 050310Z AUTO VRB03KT 10SM CLR 26/21 A3001 220 73 1500 VRB/03 RMK AO2 T02560206
53988KBKB BKB20191004211510810/04/19 21:15:31  5-MIN KBKB 050315Z AUTO VRB03KT 10SM CLR 26/21 A3001 210 73 1500 VRB/03 RMK AO2 T02560206
53988KBKB BKB20191004212010810/04/19 21:20:31  5-MIN KBKB 050320Z AUTO 00000KT 10SM CLR 25/21 A3001 210 76 1500 000/00 RMK AO2 T02500206
53988KBKB BKB20191004212510810/04/19 21:25:31  5-MIN KBKB 050325Z AUTO 00000KT 10SM CLR 25/21 A3001 210 76 1500 000/00 RMK AO2 T02500206
53988KBKB BKB20191004213006210/04/19 21:30:31  5-MIN KBKB 050330Z AUTO 00000KT 2 T02560206
53988KBKB BKB20191004213010810/04/19 21:30:31  5-MIN KBKB 050330Z AUTO 00000KT 10SM CLR 25/21 A3002 210 76 1500 000/00 RMK AO2 T02500206
53988KBKB BKB20191004213510810/04/19 21:35:31  5-MIN KBKB 050335Z AUTO VRB04KT 10SM CLR 25/21 A3001 210 76 1500 VRB/04 RMK AO2 T02500206
53988KBKB BKB20191004214006210/04/19 21:40:31  5-MIN KBKB 050340Z AUTO 02005KT 10SM CLR 25
53988KBKB BKB20191004214010810/04/19 21:40:31  5-MIN KBKB 050340Z AUTO 02005KT 10SM CLR 25/21 A3001 210 76 1500 020/05 RMK AO2 T02500206
53988KBKB BKB20191004214510810/04/19 21:45:31  5-MIN KBKB 050345Z AUTO VRB03KT 10SM CLR 25/21 A3001 210 76 1500 VRB/03 RMK AO2 T02500206
53988KBKB BKB20191004215010810/04/19 21:50:31  5-MIN KBKB 050350Z AUTO VRB03KT 10SM CLR 25/21 A3001 220 76 1500 000/00 RMK AO2 T02500206
53988KBKB BKB20191004215011510/04/19 21:50:31  5-MIN KBKB 050350Z AUTO VRB03KT 10SM CLR 25/21 A3001 220 76 1500 VRB/03 RMK AO2 SLP187 T02500206
53988KBKB BKB20191004215510810/04/19 21:55:31  5-MIN KBKB 050355Z AUTO 03004KT 10SM CLR 24/20 A3001 220 76 1400 020/04 RMK AO2 T02440200
53988KBKB BKB20191004220005510/04/19 22:00:31  5-MIN KBKB 050400Z AUTO 00000KT 10S6
53988KBKB BKB20191004220010810/04/19 22:00:31  5-MIN KBKB 050400Z AUTO 00000KT 10SM CLR 25/20 A3001 220 73 1500 000/00 RMK AO2 T02500200
53988KBKB BKB20191004220510810/04/19 22:05:31  5-MIN KBKB 050405Z AUTO VRB04KT 10SM CLR 24/20 A3001 220 76 1400 VRB/04 RMK AO2 T02440200
53988KBKB BKB20191004221005510/04/19 22:10:31  5-MIN KBKB 050410Z AUTO VRB03KT 1206
53988KBKB BKB20191004221010810/04/19 22:10:31  5-MIN KBKB 050410Z AUTO VRB03KT 10SM CLR 24/20 A3001 220 76 1400 VRB/03 RMK AO2 T02440200
53988KBKB BKB20191004221510810/04/19 22:15:31  5-MIN KBKB 050415Z AUTO VRB03KT 10SM CLR 24/20 A3001 220 76 1400 VRB/03 RMK AO2 T02440200
53988KBKB BKB20191004222006210/04/19 22:20:31  5-MIN KBKB 050420Z AUTO VRB04KT 10SM CLR200
53988KBKB BKB20191004222010810/04/19 22:20:31  5-MIN KBKB 050420Z AUTO VRB04KT 10SM CLR 24/20 A3001 220 76 1400 VRB/04 RMK AO2 T02440200
53988KBKB BKB20191004222510810/04/19 22:25:31  5-MIN KBKB 050425Z AUTO VRB04KT 10SM CLR 24/20 A3001 220 76 1400 VRB/04 RMK AO2 T02440200
53988KBKB BKB20191004223015710/04/19 22:30:31  5-MIN KBKB 050430Z AUTO VRB04KT 10SM CLR 24/20 A04/19 22:10:31  5-MIN TO 00000KT 10SM CLR 22/20 A2999 240 87 1200 000/00 RMK AO2 T02220200
53988KBKB BKB20191005011010810/05/19 01:10:31  5-MIN KBKB 050710Z AUTO 00000KT 10SM CLR 22/20 A2999 240 87 1200 000/00 RMK AO2 T02220200
53988KBKB BKB20191005011510810/05/19 01:15:31  5-MIN KBKB 050715Z AUTO 00000KT 10SM CLR 22/20 A2998 240 87 1200 000/00 RMK AO2 T02220200
53988KBKB BKB20191005012010810/05/19 01:20:31  5-MIN KBKB 050720Z AUTO 00000KT 10SM CLR 22/20 A2998 240 87 1200 000/00 RMK AO2 T02220200
53988KBKB BKB20191005012510810/05/19 01:25:31  5-MIN KBKB 050725Z AUTO 00000KT 10SM CLR 22/20 A2998 240 87 1200 000/00 RMK AO2 T02220200
53988KBKB BKB20191005012517010/05/19 01:25:31  5-MIN KBKB 050725Z AUTO 00000KT 10SM CLR 22/20 A2998 240 87 1200 000/00 RMK AO2 T0UTO 00000KT 10SM CLR 22/20 A2999 230 87 1200 000/00 RMK AO2 T02220200
53988KBKB BKB20191005013010810/05/19 01:30:31  5-MIN KBKB 050730Z AUTO 00000KT 10SM CLR 22/20 A2998 250 87 1200 000/00 RMK AO2 T02220200
53988KBKB BKB20191005013510810/05/19 01:35:31  5-MIN KBKB 050735Z AUTO 00000KT 10SM CLR 22/20 A2998 240 87 1200 000/00 RMK AO2 T02220200
53988KBKB BKB20191005013516810/05/19 01:35:31  5-MIN KBKB 050735Z AUTO 00000KT 10SM CLR 22/20 A2998 240 87 1200 000/00 RMK AO2 T02220200KT 10SM CLR 22/20 A2998 240 87 1200 000/00 RMK AO2 T02220200
53988KBKB BKB20191005014010810/05/19 01:40:31  5-MIN KBKB 050740Z AUTO 00000KT 10SM CLR 22/20 A2998 250 90 1100 000/00 RMK AO2 T02170200
53988KBKB BKB20191005014510810/05/19 01:45:31  5-MIN KBKB 050745Z AUTO 00000KT 10SM CLR 22/19 A2998 250 87 1100 000/00 RMK AO2 T02170194
53988KBKB BKB20191005014516810/05/19 01:45:31  5-MIN KBKB 050745Z AUTO 00000KT 10SM CLR 22/19 A2998 250 87 1100 000/00 RMK AO2 T02170194KT 10SM CLR 22/20 A2998 240 87 1200 000/00 RMK AO2 T02220200
53988KBKB BKB20191005015011510/05/19 01:50:31  5-MIN KBKB 050750Z AUTO 00000KT 10SM CLR 22/19 A2997 250 87 1100 000/00 RMK AO2 SLP175 T02170194
53988KBKB BKB20191005015510810/05/19 01:55:31  5-MIN KBKB 050755Z AUTO 00000KT 10SM CLR 22/19 A2997 250 87 1100 000/00 RMK AO2 T02170194
53988KBKB BKB20191005015510810/05/19 01:55:31  5-MIN KBKB 050755Z AUTO 00000KT 10SM CLR 22/19 A2997 250 87 1200 000/00 RMK AO2 T02220200
53988KBKB BKB20191005020010810/05/19 02:00:31  5-MIN KBKB 050800Z AUTO 00000KT 10SM CLR 22/19 A2997 250 87 1100 000/00 RMK AO2 T02170194
53988KBKB BKB20191005020510810/05/19 02:05:31  5-MIN KBKB 050805Z AUTO 00000KT 10SM CLR 22/19 A2997 250 87 1100 000/00 RMK AO2 T02170194
53988KBKB BKB20191005021010810/05/19 02:10:31  5-MIN KBKB 050810Z AUTO 00000KT 10SM CLR 22/19 A2997 250 87 1100 000/00 RMK AO2 T02170194
53988KBKB BKB20191005021510810/05/19 02:15:31  5-MIN KBKB 050815Z AUTO 00000KT 10SM CLR 22/19 A2997 250 90 1000 000/00 RMK AO2 T02060189
53988KBKB BKB20191005034010810/05/19 03:40:31  5-MIN KBKB 050940Z AUTO 00000KT 10SM CLR 21/19 A2997 250 87 1100 000/00 RMK AO2 T02110189
53988KBKB BKB20191005034510810/05/19 03:45:31  5-MIN KBKB 050945Z AUTO 00000KT 10SM CLR 21/19 A2997 260 87 1100 000/00 RMK AO2 T02110189
53988KBKB BKB20191005035011510/05/19 03:50:31  5-MIN KBKB 050950Z AUTO 00000KT 10SM CLR 21/19 A2997 260 87 1100 000/00 RMK AO2 SLP172 T02110189
53988KBKB BKB20191005035510810/05/19 03:55:31  5-MIN KBKB 050955Z AUTO 00000KT 10SM CLR 21/19 A2996 260 87 1100 000/00 RMK AO2 T02110189
53988KBKB BKB20191005040010810/05/19 04:00:31  5-MIN KBKB 051000Z AUTO 00000KT 10SM CLR 21/19 A2996 260 87 1100 000/00 RMK AO2 T02110189
53988KBKB BKB20191005040510810/05/19 04:05:31  5-MIN KBKB 051005Z AUTO 00000KT 10SM CLR 21/19 A2996 260 87 1100 000/00 RMK AO2 T02110189
53988KBKB BKB20191005041010810/05/19 04:10:31  5-MIN KBKB 051010Z AUTO 00000KT 10SM CLR 21/19 A2996 260 90 1000 000/00 RMK AO2 T02060189
53988KBKB BKB20191005041510810/05/19 04:15:31  5-MIN KBKB 051015Z AUTO 00000KT 10SM CLR 21/19 A2996 260 87 1100 000/00 RMK AO2 T02110189
53988KBKB BKB20191005042010810/05/19 04:20:31  5-MIN KBKB 051020Z AUTO 00000KT 10SM CLR 21/19 A2996 260 90 1000 000/00 RMK AO2 T02060189
53988KBKB BKB20191005042510810/05/19 04:25:31  5-MIN KBKB 051025Z AUTO 00000KT 10SM CLR 21/19 A2996 260 90 1000 000/00 RMK AO2 T02060189
53988KBKB BKB20191005043010810/05/19 04:30:31  5-MIN KBKB 051030Z AUTO 00000KT 10SM CLR 21/19 A2997 250 90 1000 000/00 RMK AO2 T02060189
53988KBKB BKB20191005043510810/05/19 04:35:31  5-MIN KBKB 051035Z AUTO 00000KT 10SM CLR 21/19 A2997 250 90 1000 000/00 RMK AO2 T02060189
53988KBKB BKB20191005044010810/05/19 04:40:31  5-MIN KBKB 051040Z AUTO 00000KT 10SM CLR 21/19 A2997 250 90 1000 000/00 RMK AO2 T02060189
53988KBKB BKB20191005044510810/05/19 04:45:31  5-MIN KBKB 051045Z AUTO 00000KT 10SM CLR 21/19 A2997 250 90 1000 000/00 RMK AO2 T02060189
53988KBKB BKB20191005045011510/05/19 04:50:31  5-MIN KBKB 051050Z AUTO 00000KT 10SM CLR 21/19 A2997 250 90 1000 000/00 RMK AO2 SLP174 T02060189
53988KBKB BKB20191005045510810/05/19 04:55:31  5-MIN KBKB 051055Z AUTO 00000KT 10SM CLR 21/19 A2997 250 90 1000 000/00 RMK AO2 T02060189
53988KBKB BKB20191005050010810/05/19 05:00:31  5-MIN KBKB 051100Z AUTO 00000KT 10SM CLR 21/19 A2997 250 90 1000 000/00 RMK AO2 T02060189
53988KBKB BKB20191005050510810/05/19 05:05:31  5-MIN KBKB 051105Z AUTO 00000KT 10SM CLR 21/19 A2997 250 90 1000 000/00 RMK AO2 T02060189
53988KBKB BKB20191005051010810/05/19 05:10:31  5-MIN KBKB 051110Z AUTO 00000KT 10SM CLR 21/19 A2997 250 90 1000 000/00 RMK AO2 T02060189
53988KBKB BKB20191005051510810/05/19 05:15:31  5-MIN KBKB 051115Z AUTO 00000KT 10SM CLR 21/19 A2997 250 90 1000 000/00 RMK AO2 T02060189
53988KBKB BKB20191005052010810/05/19 05:20:31  5-MIN KBKB 051120Z AUTO 00000KT 10SM CLR 21/19 A2997 250 90 1000 000/00 RMK AO2 T02060189
53988KBKB BKB20191005052510810/05/19 05:25:31  5-MIN KBKB 051125Z AUTO 00000KT 10SM CLR 21/19 A2997 250 90 1000 000/00 RMK AO2 T02060189
53988KBKB BKB20191005053010810/05/19 05:30:31  5-MIN KBKB 051130Z AUTO 00000KT 10SM CLR 21/19 A2997 250 90 1000 000/00 RMK AO2 T02060189
53988KBKB BKB20191005053510810/05/19 05:35:31  5-MIN KBKB 051135Z AUTO 00000KT 10SM CLR 21/19 A2998 250 90 1000 000/00 RMK AO2 T02060189
53988KBKB BKB20191005054010810/05/19 05:40:31  5-MIN KBKB 051140Z AUTO 00000KT 10SM CLR 21/19 A2998 240 90 1000 000/00 RMK AO2 T02060189
53988KBKB BKB20191005054510810/05/19 05:45:31  5-MIN KBKB 051145Z AUTO 00000KT 10SM CLR 21/19 A2998 250 90 1000 000/00 RMK AO2 T02060189
53988KBKB BKB20191005055013310/05/19 05:50:31  5-MIN KBKB 051150Z AUTO 00000KT 10SM CLR 21/19 A2998 250 90 1000 000/00 RMK AO2 SLP176 T02060189 10233 20206 55011
53988KBKB BKB20191005055510810/05/19 05:55:31  5-MIN KBKB 051155Z AUTO 00000KT 10SM CLR 21/19 A2998 250 90 1000 000/00 RMK AO2 T02060189
53988KBKB BKB20191005060010710/05/19 06:00:31  5-MIN KBKB 051200Z AUTO 00000KT 10SM CLR 20/19 A2998 250 93 900 000/00 RMK AO2 T02000189
53988KBKB BKB20191005060510710/05/19 06:05:31  5-MIN KBKB 051205Z AUTO 00000KT 10SM CLR 20/19 A2998 250 93 900 000/00 RMK AO2 T02000189
53988KBKB BKB20191005061010710/05/19 06:10:31  5-MIN KBKB 051210Z AUTO 00000KT 10SM CLR 20/19 A2998 240 93 900 000/00 RMK AO2 T02000189
53988KBKB BKB20191005061510710/05/19 06:15:31  5-MIN KBKB 051215Z AUTO 00000KT 10SM CLR 20/19 A2998 240 93 900 000/00 RMK AO2 T02000189
53988KBKB BKB20191005062010710/05/19 06:20:31  5-MIN KBKB 051220Z AUTO 00000KT 10SM CLR 20/19 A2998 240 93 900 000/00 RMK AO2 T02000189
53988KBKB BKB20191005062510810/05/19 06:25:31  5-MIN KBKB 051225Z AUTO 00000KT 10SM CLR 21/19 A2998 240 90 1000 000/00 RMK AO2 T02060189
53988KBKB BKB20191005063010810/05/19 06:30:31  5-MIN KBKB 051230Z AUTO 00000KT 10SM CLR 21/19 A2998 240 90 1000 000/00 RMK AO2 T02060189
53988KBKB BKB20191005063510810/05/19 06:35:31  5-MIN KBKB 051235Z AUTO 00000KT 10SM CLR 21/19 A2998 240 90 1000 000/00 RMK AO2 T02060189
53988KBKB BKB20191005064010810/05/19 06:40:31  5-MIN KBKB 051240Z AUTO 00000KT 10SM CLR 21/19 A2998 240 90 1000 000/00 RMK AO2 T02060189
53988KBKB BKB20191005064510810/05/19 06:45:31  5-MIN KBKB 051245Z AUTO 00000KT 10SM CLR 21/19 A2999 240 87 1000 000/00 RMK AO2 T02110189
53988KBKB BKB20191005065011510/05/19 06:50:31  5-MIN KBKB 051250Z AUTO 00000KT 10SM CLR 21/19 A2999 240 87 1000 000/00 RMK AO2 SLP181 T02110189
53988KBKB BKB20191005065510810/05/19 06:55:31  5-MIN KBKB 051255Z AUTO VRB03KT 10SM CLR 21/19 A2999 240 90 1000 VRB/03 RMK AO2 T02110194
53988KBKB BKB20191005070010810/05/19 07:00:31  5-MIN KBKB 051300Z AUTO 00000KT 10SM CLR 22/19 A2999 240 84 1100 000/00 RMK AO2 T02170189
53988KBKB BKB20191005070510810/05/19 07:05:31  5-MIN KBKB 051305Z AUTO VRB04KT 10SM CLR 22/19 A2999 240 84 1100 VRB/04 RMK AO2 T02170189
53988KBKB BKB20191005071010810/05/19 07:10:31  5-MIN KBKB 051310Z AUTO VRB03KT 10SM CLR 22/19 A2999 240 81 1200 VRB/03 RMK AO2 T02220189
53988KBKB BKB20191005071510810/05/19 07:15:31  5-MIN KBKB 051315Z AUTO VRB03KT 10SM CLR 22/19 A2999 240 84 1200 VRB/03 RMK AO2 T02220194
53988KBKB BKB20191005072010810/05/19 07:20:31  5-MIN KBKB 051320Z AUTO VRB03KT 10SM CLR 23/19 A2999 230 81 1200 VRB/03 RMK AO2 T02280194
53988KBKB BKB20191005072510810/05/19 07:25:31  5-MIN KBKB 051325Z AUTO VRB03KT 10SM CLR 23/19 A2999 230 81 1200 VRB/03 RMK AO2 T02280194
53988KBKB BKB20191005073010810/05/19 07:30:31  5-MIN KBKB 051330Z AUTO VRB03KT 10SM CLR 23/19 A2999 230 81 1200 VRB/03 RMK AO2 T02280194
53988KBKB BKB20191005073510810/05/19 07:35:31  5-MIN KBKB 051335Z AUTO 00000KT 10SM CLR 23/19 A2999 230 78 1300 000/00 RMK AO2 T02330194
53988KBKB BKB20191005074010810/05/19 07:40:31  5-MIN KBKB 051340Z AUTO VRB03KT 10SM CLR 23/19 A2999 230 76 1300 VRB/03 RMK AO2 T02330189
53988KBKB BKB20191005074510810/05/19 07:45:31  5-MIN KBKB 051345Z AUTO 05004KT 10SM CLR 23/19 A2999 230 76 1300 040/04 RMK AO2 T02330189
53988KBKB BKB20191005075011510/05/19 07:50:31  5-MIN KBKB 051350Z AUTO VRB03KT 10SM CLR 24/19 A3000 230 73 1400 VRB/03 RMK AO2 SLP183 T02390189
53988KBKB BKB20191005075510810/05/19 07:55:31  5-MIN KBKB 051355Z AUTO 01003KT 10SM CLR 24/19 A3000 230 73 1400 360/03 RMK AO2 T02390189
53988KBKB BKB20191005080010810/05/19 08:00:31  5-MIN KBKB 051400Z AUTO 00000KT 10SM CLR 24/19 A3000 230 76 1400 000/00 RMK AO2 T02390194
53988KBKB BKB20191005080510810/05/19 08:05:31  5-MIN KBKB 051405Z AUTO VRB03KT 10SM CLR 24/19 A3000 230 73 1400 VRB/03 RMK AO2 T02440194
53988KBKB BKB20191005081010810/05/19 08:10:31  5-MIN KBKB 051410Z AUTO 00000KT 10SM CLR 24/19 A3000 230 73 1400 000/00 RMK AO2 T02440194
53988KBKB BKB20191005081510810/05/19 08:15:31  5-MIN KBKB 051415Z AUTO VRB05KT 10SM CLR 25/19 A3000 230 71 1500 VRB/05 RMK AO2 T02500194
53988KBKB BKB20191005082010810/05/19 08:20:31  5-MIN KBKB 051420Z AUTO VRB03KT 10SM CLR 25/19 A3000 230 71 1500 VRB/03 RMK AO2 T02500194
53988KBKB BKB20191005082510810/05/19 08:25:31  5-MIN KBKB 051425Z AUTO 00000KT 10SM CLR 25/19 A2999 230 71 1500 000/00 RMK AO2 T02500194
53988KBKB BKB20191005083010810/05/19 08:30:31  5-MIN KBKB 051430Z AUTO 00000KT 10SM CLR 26/20 A2999 230 71 1500 000/00 RMK AO2 T02560200
53988KBKB BKB20191005083510810/05/19 08:35:31  5-MIN KBKB 051435Z AUTO 10003KT 10SM CLR 26/20 A3000 230 71 1500 100/03 RMK AO2 T02560200
53988KBKB BKB20191005084010810/05/19 08:40:31  5-MIN KBKB 051440Z AUTO 00000KT 10SM CLR 26/20 A3000 230 68 1600 000/00 RMK AO2 T02610200
53988KBKB BKB20191005084510810/05/19 08:45:31  5-MIN KBKB 051445Z AUTO VRB03KT 10SM CLR 26/20 A3000 230 68 1600 VRB/03 RMK AO2 T02610200
53988KBKB BKB20191005085012110/05/19 08:50:31  5-MIN KBKB 051450Z AUTO 00000KT 10SM CLR 26/20 A3000 220 68 1600 000/00 RMK AO2 SLP184 T02610200 53001
53988KBKB BKB20191005085510810/05/19 08:55:31  5-MIN KBKB 051455Z AUTO VRB03KT 10SM CLR 27/20 A3000 220 66 1700 VRB/03 RMK AO2 T02670200
53988KBKB BKB20191005090010810/05/19 09:00:31  5-MIN KBKB 051500Z AUTO VRB03KT 10SM CLR 27/20 A3000 230 66 1700 VRB/03 RMK AO2 T02670200
53988KBKB BKB20191005090510810/05/19 09:05:31  5-MIN KBKB 051505Z AUTO 00000KT 10SM CLR 27/20 A3000 220 66 1700 000/00 RMK AO2 T02670200
53988KBKB BKB20191005091010810/05/19 09:10:31  5-MIN KBKB 051510Z AUTO 11003KT 10SM CLR 27/20 A3000 220 64 1700 100/03 RMK AO2 T02720200
53988KBKB BKB20191005091510810/05/19 09:15:31  5-MIN KBKB 051515Z AUTO 00000KT 10SM CLR 28/20 A3000 220 62 1800 000/00 RMK AO2 T02780200
53988KBKB BKB20191005092010810/05/19 09:20:31  5-MIN KBKB 051520Z AUTO 00000KT 10SM CLR 27/20 A3000 220 64 1700 000/00 RMK AO2 T02720200
53988KBKB BKB20191005092510810/05/19 09:25:31  5-MIN KBKB 051525Z AUTO 00000KT 10SM CLR 28/20 A3000 220 60 1900 000/00 RMK AO2 T02830200
53988KBKB BKB20191005093010810/05/19 09:30:31  5-MIN KBKB 051530Z AUTO 03004KT 10SM CLR 28/20 A3000 230 60 1900 030/04 RMK AO2 T02830200
53988KBKB BKB20191005093510810/05/19 09:35:31  5-MIN KBKB 051535Z AUTO 00000KT 10SM CLR 28/20 A3000 230 60 1900 000/00 RMK AO2 T02830200
53988KBKB BKB20191005094010810/05/19 09:40:31  5-MIN KBKB 051540Z AUTO 00000KT 10SM CLR 28/20 A3000 230 60 1900 000/00 RMK AO2 T02830200
53988KBKB BKB20191005094510810/05/19 09:45:31  5-MIN KBKB 051545Z AUTO 00000KT 10SM CLR 28/20 A3000 230 60 1900 000/00 RMK AO2 T02830200
53988KBKB BKB20191005095011510/05/19 09:50:31  5-MIN KBKB 051550Z AUTO 00000KT 10SM CLR 29/20 A2999 230 58 1900 000/00 RMK AO2 SLP182 T02890200
53988KBKB BKB20191005095510810/05/19 09:55:31  5-MIN KBKB 051555Z AUTO 00000KT 10SM CLR 29/20 A3000 230 58 1900 000/00 RMK AO2 T02890200
53988KBKB BKB20191005100010810/05/19 10:00:31  5-MIN KBKB 051600Z AUTO 20003KT 10SM CLR 29/21 A2999 230 60 1900 200/03 RMK AO2 T02890206
53988KBKB BKB20191005100510810/05/19 10:05:31  5-MIN KBKB 051605Z AUTO VRB03KT 10SM CLR 29/21 A2999 230 60 1900 VRB/03 RMK AO2 T02890206
53988KBKB BKB20191005101010810/05/19 10:10:31  5-MIN KBKB 051610Z AUTO 00000KT 10SM CLR 29/21 A2999 230 58 2000 000/00 RMK AO2 T02940206
53988KBKB BKB20191005101510810/05/19 10:15:31  5-MIN KBKB 051615Z AUTO 00000KT 10SM CLR 29/21 A2999 230 60 1900 000/00 RMK AO2 T02890206
53988KBKB BKB20191005102010810/05/19 10:20:31  5-MIN KBKB 051620Z AUTO 00000KT 10SM CLR 29/21 A2999 240 58 2000 000/00 RMK AO2 T02940206
53988KBKB BKB20191005102510810/05/19 10:25:31  5-MIN KBKB 051625Z AUTO 00000KT 10SM CLR 30/21 A2999 240 56 2100 000/00 RMK AO2 T03000206
53988KBKB BKB20191005103010810/05/19 10:30:31  5-MIN KBKB 051630Z AUTO VRB03KT 10SM CLR 30/21 A2998 240 56 2100 VRB/03 RMK AO2 T03000206
53988KBKB BKB20191005103512410/05/19 10:35:31  5-MIN KBKB 051635Z AUTO VRB03KT 10SM -RA CLR 30/21 A2998 240 56 2100 VRB/03 RMK AO2 RAB34 P0000 T03000206
53988KBKB BKB20191005104012310/05/19 10:40:31  5-MIN KBKB 051640Z AUTO 08003KT 10SM CLR 31/21 A2998 240 54 2100 070/03 RMK AO2 RAB34E36 P0000 T03060206
53988KBKB BKB20191005104512310/05/19 10:45:31  5-MIN KBKB 051645Z AUTO 00000KT 10SM CLR 31/21 A2998 240 53 2200 000/00 RMK AO2 RAB34E36 P0000 T03110206
53988KBKB BKB20191005105013010/05/19 10:50:31  5-MIN KBKB 051650Z AUTO 00000KT 10SM CLR 31/21 A2998 240 56 2100 000/00 RMK AO2 RAB34E36 SLP177 P0000 T03060211
53988KBKB BKB20191005105510810/05/19 10:55:31  5-MIN KBKB 051655Z AUTO VRB03KT 10SM CLR 31/21 A2998 240 54 2100 VRB/03 RMK AO2 T03060206
53988KBKB BKB20191005110010810/05/19 11:00:31  5-MIN KBKB 051700Z AUTO 00000KT 10SM CLR 31/21 A2998 250 54 2200 000/00 RMK AO2 T03110211
53988KBKB BKB20191005110510810/05/19 11:05:31  5-MIN KBKB 051705Z AUTO 00000KT 10SM CLR 31/21 A2997 250 53 2200 000/00 RMK AO2 T03110206
53988KBKB BKB20191005111010810/05/19 11:10:31  5-MIN KBKB 051710Z AUTO 00000KT 10SM CLR 31/21 A2997 250 53 2200 000/00 RMK AO2 T03110206
53988KBKB BKB20191005111510810/05/19 11:15:31  5-MIN KBKB 051715Z AUTO 00000KT 10SM CLR 31/21 A2997 250 53 2200 000/00 RMK AO2 T03110206
53988KBKB BKB20191005112010810/05/19 11:20:31  5-MIN KBKB 051720Z AUTO 00000KT 10SM CLR 32/21 A2997 260 53 2300 000/00 RMK AO2 T03170211
53988KBKB BKB20191005112510810/05/19 11:25:31  5-MIN KBKB 051725Z AUTO VRB03KT 10SM CLR 32/21 A2996 260 53 2300 VRB/03 RMK AO2 T03170211
53988KBKB BKB20191005113010810/05/19 11:30:31  5-MIN KBKB 051730Z AUTO VRB03KT 10SM CLR 32/21 A2996 260 51 2300 VRB/03 RMK AO2 T03170206
53988KBKB BKB20191005113510810/05/19 11:35:31  5-MIN KBKB 051735Z AUTO 00000KT 10SM CLR 32/21 A2996 260 51 2300 000/00 RMK AO2 T03220211
53988KBKB BKB20191005114010810/05/19 11:40:31  5-MIN KBKB 051740Z AUTO 00000KT 10SM CLR 32/21 A2996 260 51 2300 000/00 RMK AO2 T03220211
53988KBKB BKB20191005114510810/05/19 11:45:31  5-MIN KBKB 051745Z AUTO 00000KT 10SM CLR 32/21 A2996 260 51 2300 000/00 RMK AO2 T03170206
53988KBKB BKB20191005115013910/05/19 11:50:31  5-MIN KBKB 051750Z AUTO VRB03KT 10SM CLR 33/21 A2996 270 49 2400 VRB/03 RMK AO2 SLP169 60000 T03280211 10328 20200 51008
53988KBKB BKB20191005115510810/05/19 11:55:31  5-MIN KBKB 051755Z AUTO VRB03KT 10SM CLR 33/21 A2995 270 46 2500 VRB/03 RMK AO2 T03330206
53988KBKB BKB20191005120010810/05/19 12:00:31  5-MIN KBKB 051800Z AUTO VRB03KT 10SM CLR 33/21 A2995 270 48 2400 VRB/03 RMK AO2 T03280206
53988KBKB BKB20191005120510810/05/19 12:05:31  5-MIN KBKB 051805Z AUTO VRB03KT 10SM CLR 32/21 A2995 270 49 2300 VRB/03 RMK AO2 T03220206
53988KBKB BKB20191005121010810/05/19 12:10:31  5-MIN KBKB 051810Z AUTO VRB03KT 10SM CLR 33/21 A2995 270 49 2400 VRB/03 RMK AO2 T03280211
53988KBKB BKB20191005121510810/05/19 12:15:31  5-MIN KBKB 051815Z AUTO VRB03KT 10SM CLR 33/21 A2994 280 48 2400 VRB/03 RMK AO2 T03280206
53988KBKB BKB20191005122010810/05/19 12:20:31  5-MIN KBKB 051820Z AUTO 00000KT 10SM CLR 33/21 A2994 280 46 2500 000/00 RMK AO2 T03330206
53988KBKB BKB20191005122510810/05/19 12:25:31  5-MIN KBKB 051825Z AUTO VRB03KT 10SM CLR 33/21 A2994 280 48 2400 VRB/03 RMK AO2 T03280206
53988KBKB BKB20191005123010810/05/19 12:30:31  5-MIN KBKB 051830Z AUTO 00000KT 10SM CLR 34/21 A2994 280 46 2500 000/00 RMK AO2 T03390211
53988KBKB BKB20191005123517110/05/19 12:35:31  5-MIN KBKB 051835Z AUTO 00000KT 10SM CLR 34/21 A2994 280 46 250300 49 2400 000/00 RMK AO2 T032202FEW046 33/20 A2993 290 46 2400 000/00 RMK AO2 T03280200
53988KBKB BKB20191005130511110/05/19 13:05:31  5-MIN KBKB 051905Z AUTO 00000KT 10SM FEW046 32/20 A2992 290 48 2400 000/00 RMK AO2 T03220200
53988KBKB BKB20191005131011110/05/19 13:10:31  5-MIN KBKB 051910Z AUTO 03003KT 10SM FEW046 32/21 A2992 300 49 2400 020/03 RMK AO2 T03220206
53988KBKB BKB20191005131511110/05/19 13:15:31  5-MIN KBKB 051915Z AUTO 02003KT 10SM FEW046 32/20 A2992 300 48 2400 020/03 RMK AO2 T03220200
53988KBKB BKB20191005132010810/05/19 13:20:31  5-MIN KBKB 051920Z AUTO 00000KT 10SM CLR 32/21 A2992 300 49 2400 000/00 RMK AO2 T03220206
53988KBKB BKB20191005132510810/05/19 13:25:31  5-MIN KBKB 051925Z AUTO 00000KT 10SM CLR 33/21 A2991 300 48 2400 000/00 RMK AO2 T03280206
53988KBKB BKB20191005133010810/05/19 13:30:31  5-MIN KBKB 051930Z AUTO 00000KT 10SM CLR 33/20 A2991 310 46 2400 000/00 RMK AO2 T03280200
53988KBKB BKB20191005133016510/05/19 13:30:31  5-MIN KBKB 051930Z AUTO 00000KT 10SM CLR 33/20 A2991 310 46 2400 000/00 RMK AO2 T0328020010/EW046 32/21 A2992 300 49 2400 020/03 RMK AO2 T03220206
53988KBKB BKB20191005133510810/05/19 13:35:31  5-MIN KBKB 051935Z AUTO 00000KT 10SM CLR 32/20 A2991 310 48 2400 000/00 RMK AO2 T03220200
53988KBKB BKB20191005134010810/05/19 13:40:31  5-MIN KBKB 051940Z AUTO 00000KT 10SM CLR 32/20 A2991 310 48 2400 000/00 RMK AO2 T03220200
53988KBKB BKB20191005134510810/05/19 13:45:31  5-MIN KBKB 051945Z AUTO 00000KT 10SM CLR 33/20 A2991 310 45 2500 000/00 RMK AO2 T03330200
53988KBKB BKB20191005135011510/05/19 13:50:31  5-MIN KBKB 051950Z AUTO 00000KT 10SM CLR 34/20 A2991 310 42 2600 000/00 RMK AO2 SLP152 T03440200
53988KBKB BKB20191005135510810/05/19 13:55:31  5-MIN KBKB 051955Z AUTO 00000KT 10SM CLR 34/19 A2990 310 42 2600 000/00 RMK AO2 T03390194
53988KBKB BKB20191005140010810/05/19 14:00:31  5-MIN KBKB 052000Z AUTO VRB03KT 10SM CLR 34/19 A2990 320 39 2600 VRB/03 RMK AO2 T03440189
53988KBKB BKB20191005140510810/05/19 14:05:31  5-MIN KBKB 052005Z AUTO VRB03KT 10SM CLR 34/18 A2990 320 39 2600 VRB/03 RMK AO2 T03390183
53988KBKB BKB20191005141010810/05/19 14:10:31  5-MIN KBKB 052010Z AUTO 00000KT 10SM CLR 33/18 A2990 320 40 2500 000/00 RMK AO2 T03330183
53988KBKB BKB20191005141511110/05/19 14:15:31  5-MIN KBKB 052015Z AUTO 00000KT 10SM FEW110 33/19 A2990 320 42 2500 000/00 RMK AO2 T03330189
53988KBKB BKB20191005142011110/05/19 14:20:31  5-MIN KBKB 052020Z AUTO VRB03KT 10SM FEW060 34/20 A2990 320 42 2600 VRB/03 RMK AO2 T03440200
53988KBKB BKB20191005142511110/05/19 14:25:31  5-MIN KBKB 052025Z AUTO VRB03KT 10SM FEW060 34/20 A2989 320 43 2600 VRB/03 RMK AO2 T03390200
53988KBKB BKB20191005143011110/05/19 14:30:31  5-MIN KBKB 052030Z AUTO VRB03KT 10SM FEW060 34/20 A2989 320 42 2600 VRB/03 RMK AO2 T03440200
53988KBKB BKB20191005143511110/05/19 14:35:31  5-MIN KBKB 052035Z AUTO VRB04KT 10SM FEW060 34/20 A2989 330 43 2600 VRB/04 RMK AO2 T03390200
53988KBKB BKB20191005144011810/05/19 14:40:31  5-MIN KBKB 052040Z AUTO VRB03KT 10SM FEW060 FEW085 34/20 A2989 320 42 2600 VRB/03 RMK AO2 T03440200
53988KBKB BKB20191005144511810/05/19 14:45:31  5-MIN KBKB 052045Z AUTO 00000KT 10SM FEW060 SCT080 34/19 A2989 330 40 2600 000/00 RMK AO2 T03440194
53988KBKB BKB20191005145013110/05/19 14:50:31  5-MIN KBKB 052050Z AUTO VRB04KT 10SM FEW060 SCT080 34/19 A2989 330 40 2700 VRB/04 RMK AO2 SLP146 T03440194 58015
53988KBKB BKB20191005145511810/05/19 14:55:31  5-MIN KBKB 052055Z AUTO VRB04KT 10SM SCT060 BKN080 34/19 A2989 330 39 2700 VRB/04 RMK AO2 T03440189
53988KBKB BKB20191005150011810/05/19 15:00:31  5-MIN KBKB 052100Z AUTO VRB03KT 10SM SCT060 BKN080 34/19 A2988 330 40 2600 VRB/03 RMK AO2 T03390189
53988KBKB BKB20191005150511810/05/19 15:05:31  5-MIN KBKB 052105Z AUTO VRB03KT 10SM SCT060 BKN080 34/19 A2989 330 39 2700 VRB/03 RMK AO2 T03440189
53988KBKB BKB20191005151011810/05/19 15:10:31  5-MIN KBKB 052110Z AUTO 00000KT 10SM BKN060 BKN080 34/19 A2988 330 40 2700 000/00 RMK AO2 T03440194
53988KBKB BKB20191005151511810/05/19 15:15:31  5-MIN KBKB 052115Z AUTO 00000KT 10SM SCT060 BKN080 34/19 A2988 330 40 2700 000/00 RMK AO2 T03440194
53988KBKB BKB20191005152011810/05/19 15:20:31  5-MIN KBKB 052120Z AUTO VRB05KT 10SM SCT060 SCT080 34/19 A2988 330 42 2600 VRB/05 RMK AO2 T03390194
53988KBKB BKB20191005152511810/05/19 15:25:31  5-MIN KBKB 052125Z AUTO VRB03KT 10SM SCT055 BKN080 34/20 A2988 340 43 2600 VRB/03 RMK AO2 T03390200
53988KBKB BKB20191005153011110/05/19 15:30:31  5-MIN KBKB 052130Z AUTO VRB03KT 10SM SCT055 33/20 A2988 340 45 2500 VRB/03 RMK AO2 T03330200
53988KBKB BKB20191005153511110/05/19 15:35:31  5-MIN KBKB 052135Z AUTO VRB03KT 10SM FEW055 33/20 A2988 340 46 2500 VRB/03 RMK AO2 T03280200
53988KBKB BKB20191005163510810/05/19 16:35:31  5-MIN KBKB 052235Z AUTO 00000KT 10SM CLR 29/22 A2988 330 62 2100 000/00 RMK AO2 T02940217
53988KBKB BKB20191005164010810/05/19 16:40:31  5-MIN KBKB 052240Z AUTO 00000KT 10SM CLR 29/22 A2988 330 64 2000 000/00 RMK AO2 T02890217
53988KBKB BKB20191005164510810/05/19 16:45:31  5-MIN KBKB 052245Z AUTO 00000KT 10SM CLR 29/22 A2988 330 64 2000 000/00 RMK AO2 T02890217
53988KBKB BKB20191005165010110/05/19 16:50:31  5-MIN KBKB 052250Z AUTO 00000KT 10SM TS CLR 29/22 A2988 330 64 2000 000/00 RMK AO2
53988KBKB BKB20191005165511110/05/19 16:55:31  5-MIN KBKB 052255Z AUTO 00000KT 10SM TS CLR 28/22 A2989 330 69 2000 000/00 RMK AO2 T02830222
53988KBKB BKB20191005170012110/05/19 17:00:31  5-MIN KBKB 052300Z AUTO 00000KT 10SM VCTS CLR 29/22 A2989 330 64 2000 000/00 RMK AO2 TSE2256 T02890217
53988KBKB BKB20191005170512110/05/19 17:05:31  5-MIN KBKB 052305Z AUTO 00000KT 10SM VCTS CLR 29/21 A2989 330 62 2000 000/00 RMK AO2 TSE2256 T02890211
53988KBKB BKB20191005171012110/05/19 17:10:31  5-MIN KBKB 052310Z AUTO 00000KT 10SM VCTS CLR 28/22 A2989 330 66 2000 000/00 RMK AO2 TSE2256 T02830217
53988KBKB BKB20191005171511610/05/19 17:15:31  5-MIN KBKB 052315Z AUTO 00000KT 10SM CLR 28/22 A2989 320 66 2000 000/00 RMK AO2 TSE2256 T02830217
53988KBKB BKB20191005172011610/05/19 17:20:31  5-MIN KBKB 052320Z AUTO 00000KT 10SM CLR 29/22 A2989 320 67 2000 000/00 RMK AO2 TSE2256 T02890222
53988KBKB BKB20191005172511610/05/19 17:25:31  5-MIN KBKB 052325Z AUTO 00000KT 10SM CLR 29/22 A2990 320 64 2000 000/00 RMK AO2 TSE2256 T02890217
53988KBKB BKB20191005173011610/05/19 17:30:31  5-MIN KBKB 052330Z AUTO 00000KT 10SM CLR 29/21 A2990 320 62 2000 000/00 RMK AO2 TSE2256 T02890211
53988KBKB BKB20191005173511610/05/19 17:35:31  5-MIN KBKB 052335Z AUTO 00000KT 10SM CLR 29/21 A2990 320 62 2000 000/00 RMK AO2 TSE2256 T02890211
53988KBKB BKB20191005174011610/05/19 17:40:31  5-MIN KBKB 052340Z AUTO 00000KT 10SM CLR 29/21 A2990 320 62 2000 000/00 RMK AO2 TSE2256 T02890211
53988KBKB BKB20191005174511610/05/19 17:45:31  5-MIN KBKB 052345Z AUTO 00000KT 10SM CLR 28/21 A2990 320 64 2000 000/00 RMK AO2 TSE2256 T02830211
53988KBKB BKB20191005175014110/05/19 17:50:31  5-MIN KBKB 052350Z AUTO 00000KT 10SM CLR 28/21 A2990 320 64 2000 000/00 RMK AO2 TSE2256 SLP151 T02830211 10350 20283 56023
53988KBKB BKB20191005175510810/05/19 17:55:31  5-MIN KBKB 052355Z AUTO 00000KT 10SM CLR 28/21 A2990 320 64 2000 000/00 RMK AO2 T02830211
53988KBKB BKB20191005180019810/05/19 18:00:31  5-MIN KBKB 060000Z AUTO 00000KT 10SM CLR 28/21 A2990 320 64 2000 000/00 RMK AO2 T0283021110/05/19 18:05:31  5-MIBKN110 27/21 A2990 320 69 1800 000/00 RMK AO2 RAB25 P0000 T02720211
53988KBKB BKB20191005183014010/05/19 18:30:31  5-MIN KBKB 060030Z AUTO 00000KT 10SM RA FEW060 SCT080 BKN120 27/21 A2990 310 71 1800 000/00 RMK AO2 RAB25 P0000 T02670211
53988KBKB BKB20191005183517910/05/19 18:35:31  5-MIN KBKB 060035Z AUTO 00000KT 10SM RA FEW060 SCT080 SCT095 26/22 A2990 310 76 1700 000/00 RMK AO2 RAB25 P0000 T02610217 84 1400 000/00 RMK AO2 T02390211 PNO $
53988KBKB BKB20191005202011410/05/19 20:20:31  5-MIN KBKB 060220Z AUTO 00000KT 10SM CLR 24/21 A2993 290 84 1400 000/00 RMK AO2 T02390211 PNO $
53988KBKB BKB20191005202511410/05/19 20:25:31  5-MIN KBKB 060225Z AUTO 00000KT 10SM CLR 24/21 A2993 290 84 1400 000/00 RMK AO2 T02390211 PNO $
53988KBKB BKB20191005203008010/05/19 20:30:31  5-MIN KBKB 060230Z AUTO 00000KT 10SM CRMK AO2 T02280211 PNO $
53988KBKB BKB20191005221011710/05/19 22:10:31  5-MIN KBKB 060410Z AUTO 00000KT 10SM FEW050 23/21 A2994 280 90 1300 000/00 RMK AO2 T02280211 PNO $
53988KBKB BKB20191005221511710/05/19 22:15:31  5-MIN KBKB 060415Z AUTO 00000KT 10SM FEW050 23/21 A2994 280 90 1300 000/00 RMK AO2 T02280211 PNO $
53988KBKB BKB20191005222019010/05/19 22:20:31  5-MIN KBKB 060420Z AUTO 00000KT 10SM FEW050 23/21 A2995 270 90 1300 000/00 RMK AO2 T02280211 PNO $10/05/19 22:25:CLR 22/21 A2994 280 93 1200 000/00 RMK AO2 T02220211 PNO $
53988KBKB BKB20191005230011410/05/19 23:00:31  5-MIN KBKB 060500Z AUTO 00000KT 10SM CLR 22/21 A2994 280 93 1200 000/00 RMK AO2 T02220211 PNO $
53988KBKB BKB20191005230511410/05/19 23:05:31  5-MIN KBKB 060505Z AUTO 00000KT 10SM CLR 22/21 A2994 280 93 1200 000/00 RMK AO2 T02220211 PNO $
53988KBKB BKB20191005231011410/05/19 23:10:31  5-MIN KBKB 060510Z AUTO 00000KT 10SM CLR 22/21 A2993 280 90 1200 000/00 RMK AO2 T02220206 PNO $
53988KBKB BKB20191005231511410/05/19 23:15:31  5-MIN KBKB 060515Z AUTO 00000KT 10SM CLR 22/21 A2993 290 90 1200 000/00 RMK AO2 T02220206 PNO $
53988KBKB BKB20191005232011410/05/19 23:20:31  5-MIN KBKB 060520Z AUTO 00000KT 10SM CLR 22/21 A2993 290 90 1200 000/00 RMK AO2 T02220206 PNO $
53988KBKB BKB20191005232511310/05/19 23:25:31  5-MIN KBKB 060525Z AUTO 00000KT 9SM CLR 22/21 A2993 290 90 1200 000/00 RMK AO2 T02220206 PNO $
53988KBKB BKB20191005233011310/05/19 23:30:31  5-MIN KBKB 060530Z AUTO 00000KT 9SM CLR 22/21 A2993 290 90 1200 000/00 RMK AO2 T02220206 PNO $
53988KBKB BKB20191005233511410/05/19 23:35:31  5-MIN KBKB 060535Z AUTO 00000KT 10SM CLR 22/21 A2993 290 90 1200 000/00 RMK AO2 T02220206 PNO $
53988KBKB BKB20191005234011410/05/19 23:40:31  5-MIN KBKB 060540Z AUTO 00000KT 10SM CLR 22/21 A2993 290 90 1200 000/00 RMK AO2 T02220206 PNO $
53988KBKB BKB20191005234511410/05/19 23:45:31  5-MIN KBKB 060545Z AUTO 00000KT 10SM CLR 22/21 A2993 290 90 1200 000/00 RMK AO2 T02220206 PNO $
53988KBKB BKB20191005235015510/05/19 23:50:31  5-MIN KBKB 060550Z AUTO 00000KT 10SM CLR 22/21 A2992 300 90 1200 000/00 RMK AO2 SLP158 6//// T02220206 10283 20222 403500200 53011 PNO $
53988KBKB BKB20191005235511410/05/19 23:55:31  5-MIN KBKB 060555Z AUTO 00000KT 10SM CLR 22/21 A2992 300 90 1200 000/00 RMK AO2 T02220206 PNO $
53988KBKB BKB20191006000011410/06/19 00:00:31  5-MIN KBKB 060600Z AUTO 00000KT 10SM CLR 22/21 A2992 300 90 1200 000/00 RMK AO2 T02220206 PNO $
53988KBKB BKB20191006124011710/06/19 12:40:31  5-MIN KBKB 061840Z AUTO 11004KT 10SM FEW050 32/19 A2996 260 47 2300 110/04 RMK AO2 T03170194 PNO $
53988KBKB BKB20191006124511410/06/19 12:45:31  5-MIN KBKB 061845Z AUTO 00000KT 10SM CLR 32/19 A2996 260 46 2300 000/00 RMK AO2 T03220194 PNO $
53988KBKB BKB20191006125012110/06/19 12:50:31  5-MIN KBKB 061850Z AUTO 11003KT 10SM CLR 32/19 A2996 260 46 2300 100/03 RMK AO2 SLP170 T03170189 PNO $
53988KBKB BKB20191006125511710/06/19 12:55:31  5-MIN KBKB 061855Z AUTO 00000KT 10SM FEW050 32/19 A2996 260 46 2300 000/00 RMK AO2 T03170189 PNO $
53988KBKB BKB20191008024011010/08/19 02:40:31  5-MIN KBKB 080840Z AUTO 03005KT 10SM OVC010 17/15 A3003 190 87 500 030/05 RMK AO2 T01720150
53988KBKB BKB20191008024511010/08/19 02:45:31  5-MIN KBKB 080845Z AUTO VRB04KT 10SM OVC010 17/15 A3003 190 87 500 VRB/04 RMK AO2 T01720150
53988KBKB BKB20191008025012310/08/19 02:50:31  5-MIN KBKB 080850Z AUTO VRB03KT 10SM OVC010 17/15 A3003 190 87 500 VRB/03 RMK AO2 SLP196 T01720150 58014
53988KBKB BKB20191008025511010/08/19 02:55:31  5-MIN KBKB 080855Z AUTO VRB04KT 10SM OVC010 17/15 A3004 190 87 500 VRB/04 RMK AO2 T01720150
53988KBKB BKB20191008030011010/08/19 03:00:31  5-MIN KBKB 080900Z AUTO VRB03KT 10SM OVC010 17/15 A3004 190 87 500 VRB/03 RMK AO2 T01720150
53988KBKB BKB20191008030511010/08/19 03:05:31  5-MIN KBKB 080905Z AUTO VRB03KT 10SM OVC009 17/15 A3004 190 87 500 VRB/03 RMK AO2 T01720150
53988KBKB BKB20191008031011010/08/19 03:10:31  5-MIN KBKB 080910Z AUTO VRB04KT 10SM OVC009 17/15 A3003 190 87 500 VRB/04 RMK AO2 T01720150
53988KBKB BKB20191008031511010/08/19 03:15:31  5-MIN KBKB 080915Z AUTO VRB05KT 10SM OVC009 17/15 A3004 190 87 500 VRB/05 RMK AO2 T01720150
53988KBKB BKB20191008032011010/08/19 03:20:31  5-MIN KBKB 080920Z AUTO VRB05KT 10SM OVC009 17/15 A3003 190 87 500 VRB/05 RMK AO2 T01720150
53988KBKB BKB20191008032511010/08/19 03:25:31  5-MIN KBKB 080925Z AUTO VRB03KT 10SM OVC009 17/15 A3003 190 87 500 VRB/03 RMK AO2 T01720150
53988KBKB BKB20191008033011010/08/19 03:30:31  5-MIN KBKB 080930Z AUTO 00000KT 10SM OVC009 17/15 A3003 190 87 500 000/00 RMK AO2 T01720150
53988KBKB BKB20191008033511010/08/19 03:35:31  5-MIN KBKB 080935Z AUTO 00000KT 10SM OVC009 17/15 A3004 190 87 500 000/00 RMK AO2 T01720150
53988KBKB BKB20191008034011010/08/19 03:40:31  5-MIN KBKB 080940Z AUTO VRB03KT 10SM OVC009 17/15 A3003 190 87 500 VRB/03 RMK AO2 T01720150
53988KBKB BKB20191008034511010/08/19 03:45:31  5-MIN KBKB 080945Z AUTO VRB03KT 10SM OVC009 17/15 A3003 190 87 500 VRB/03 RMK AO2 T01720150
53988KBKB BKB20191008035011710/08/19 03:50:31  5-MIN KBKB 080950Z AUTO VRB03KT 10SM OVC009 17/15 A3003 190 87 500 VRB/03 RMK AO2 SLP196 T01720150
53988KBKB BKB20191008035511010/08/19 03:55:31  5-MIN KBKB 080955Z AUTO VRB04KT 10SM OVC009 17/15 A3003 190 87 500 VRB/04 RMK AO2 T01720150
53988KBKB BKB20191008040011010/08/19 04:00:31  5-MIN KBKB 081000Z AUTO 00000KT 10SM OVC009 17/15 A3003 190 87 500 000/00 RMK AO2 T01720150
53988KBKB BKB20191008040511010/08/19 04:05:31  5-MIN KBKB 081005Z AUTO VRB04KT 10SM OVC009 17/15 A3003 190 87 500 VRB/04 RMK AO2 T01720150
53988KBKB BKB20191008041011010/08/19 04:10:31  5-MIN KBKB 081010Z AUTO VRB03KT 10SM OVC009 17/15 A3003 190 87 500 VRB/03 RMK AO2 T01720150
53988KBKB BKB20191008041511010/08/19 04:15:31  5-MIN KBKB 081015Z AUTO VRB05KT 10SM OVC009 17/15 A3003 190 87 500 VRB/05 RMK AO2 T01720150
53988KBKB BKB20191008042010010/08/19 04:20:31  5-MIN KBKB 081020Z AUTO 10SM OVC009 17/15 A3004 190 87 500 M /M RMK AO2 T01720150
53988KBKB BKB20191008042511010/08/19 04:25:31  5-MIN KBKB 081025Z AUTO VRB04KT 10SM OVC009 17/15 A3004 190 87 500 VRB/04 RMK AO2 T01720150
53988KBKB BKB20191008043011010/08/19 04:30:31  5-MIN KBKB 081030Z AUTO 00000KT 10SM OVC009 17/15 A3004 190 87 500 000/00 RMK AO2 T01720150
53988KBKB BKB20191008043511010/08/19 04:35:31  5-MIN KBKB 081035Z AUTO VRB03KT 10SM OVC009 17/15 A3004 190 87 500 VRB/03 RMK AO2 T01720150
53988KBKB BKB20191008044011010/08/19 04:40:31  5-MIN KBKB 081040Z AUTO VRB03KT 10SM OVC009 17/15 A3004 190 87 500 VRB/03 RMK AO2 T01720150
53988KBKB BKB20191008044511010/08/19 04:45:31  5-MIN KBKB 081045Z AUTO 00000KT 10SM OVC008 17/15 A3004 190 87 500 000/00 RMK AO2 T01720150
53988KBKB BKB20191008045011710/08/19 04:50:31  5-MIN KBKB 081050Z AUTO VRB03KT 10SM OVC008 17/15 A3004 190 87 500 VRB/03 RMK AO2 SLP198 T01720150
53988KBKB BKB20191008045511010/08/19 04:55:31  5-MIN KBKB 081055Z AUTO 02004KT 10SM OVC008 17/15 A3004 190 87 500 020/04 RMK AO2 T01720150
53988KBKB BKB20191008050011010/08/19 05:00:31  5-MIN KBKB 081100Z AUTO 00000KT 10SM OVC008 17/15 A3003 190 87 500 000/00 RMK AO2 T01720150
53988KBKB BKB20191008050511010/08/19 05:05:31  5-MIN KBKB 081105Z AUTO VRB03KT 10SM OVC008 17/15 A3003 190 87 500 VRB/03 RMK AO2 T01720150
53988KBKB BKB20191008051011010/08/19 05:10:31  5-MIN KBKB 081110Z AUTO VRB04KT 10SM OVC009 17/15 A3004 190 87 500 VRB/04 RMK AO2 T01720150
53988KBKB BKB20191008051511010/08/19 05:15:31  5-MIN KBKB 081115Z AUTO VRB03KT 10SM OVC009 17/15 A3004 190 87 500 VRB/03 RMK AO2 T01720150
53988KBKB BKB20191008052011010/08/19 05:20:31  5-MIN KBKB 081120Z AUTO VRB04KT 10SM OVC009 17/15 A3004 190 87 500 VRB/04 RMK AO2 T01720150
53988KBKB BKB20191008052511010/08/19 05:25:31  5-MIN KBKB 081125Z AUTO 00000KT 10SM OVC009 17/15 A3004 190 87 500 000/00 RMK AO2 T01720150
53988KBKB BKB20191008053011010/08/19 05:30:31  5-MIN KBKB 081130Z AUTO VRB05KT 10SM OVC009 17/15 A3004 190 87 500 VRB/05 RMK AO2 T01720150
53988KBKB BKB20191008053511010/08/19 05:35:31  5-MIN KBKB 081135Z AUTO VRB03KT 10SM OVC009 17/15 A3004 190 87 500 VRB/03 RMK AO2 T01720150
53988KBKB BKB20191008054011010/08/19 05:40:31  5-MIN KBKB 081140Z AUTO 03007KT 10SM OVC009 17/15 A3004 190 87 500 030/07 RMK AO2 T01720150
53988KBKB BKB20191008054511010/08/19 05:45:31  5-MIN KBKB 081145Z AUTO VRB04KT 10SM OVC009 17/15 A3004 190 87 500 VRB/04 RMK AO2 T01720150
53988KBKB BKB20191008055014110/08/19 05:50:31  5-MIN KBKB 081150Z AUTO VRB04KT 10SM OVC009 17/15 A3004 190 87 500 VRB/04 RMK AO2 SLP199 7//// T01720150 10172 20167 56005
53988KBKB BKB20191008055511010/08/19 05:55:31  5-MIN KBKB 081155Z AUTO VRB03KT 10SM OVC009 17/15 A3004 190 87 500 VRB/03 RMK AO2 T01720150
53988KBKB BKB20191008060011010/08/19 06:00:31  5-MIN KBKB 081200Z AUTO VRB03KT 10SM OVC009 17/15 A3004 190 87 500 VRB/03 RMK AO2 T01720150
53988KBKB BKB20191008060511010/08/19 06:05:31  5-MIN KBKB 081205Z AUTO 00000KT 10SM OVC009 17/15 A3004 190 87 500 000/00 RMK AO2 T01720150
53988KBKB BKB20191008061011010/08/19 06:10:31  5-MIN KBKB 081210Z AUTO VRB03KT 10SM OVC009 17/15 A3004 190 87 500 VRB/03 RMK AO2 T01720150
53988KBKB BKB20191008061511010/08/19 06:15:31  5-MIN KBKB 081215Z AUTO 02004KT 10SM OVC009 17/15 A3004 190 87 500 010/04 RMK AO2 T01720150
53988KBKB BKB20191008062011010/08/19 06:20:31  5-MIN KBKB 081220Z AUTO VRB03KT 10SM OVC009 17/15 A3004 190 87 500 VRB/03 RMK AO2 T01720150
53988KBKB BKB20191008062511010/08/19 06:25:31  5-MIN KBKB 081225Z AUTO 00000KT 10SM OVC009 17/15 A3004 180 87 500 000/00 RMK AO2 T01720150
53988KBKB BKB20191008063011010/08/19 06:30:31  5-MIN KBKB 081230Z AUTO 00000KT 10SM OVC008 17/15 A3004 180 87 500 000/00 RMK AO2 T01720150
53988KBKB BKB20191008063511010/08/19 06:35:31  5-MIN KBKB 081235Z AUTO VRB03KT 10SM OVC008 17/15 A3004 180 87 500 VRB/03 RMK AO2 T01720150
53988KBKB BKB20191008064011010/08/19 06:40:31  5-MIN KBKB 081240Z AUTO VRB04KT 10SM OVC008 17/15 A3004 180 87 500 VRB/04 RMK AO2 T01720150
53988KBKB BKB20191008064511010/08/19 06:45:31  5-MIN KBKB 081245Z AUTO 00000KT 10SM OVC008 17/15 A3004 180 87 500 000/00 RMK AO2 T01720150
53988KBKB BKB20191008065011710/08/19 06:50:31  5-MIN KBKB 081250Z AUTO 00000KT 10SM OVC008 17/15 A3005 180 87 500 000/00 RMK AO2 SLP201 T01720150
53988KBKB BKB20191008065511010/08/19 06:55:31  5-MIN KBKB 081255Z AUTO VRB04KT 10SM OVC008 17/15 A3005 180 87 500 VRB/04 RMK AO2 T01720150
53988KBKB BKB20191008070011010/08/19 07:00:31  5-MIN KBKB 081300Z AUTO VRB03KT 10SM OVC008 17/15 A3005 180 87 500 VRB/03 RMK AO2 T01720150
53988KBKB BKB20191008070511010/08/19 07:05:31  5-MIN KBKB 081305Z AUTO VRB04KT 10SM OVC008 17/15 A3005 180 87 500 VRB/04 RMK AO2 T01720150
53988KBKB BKB20191008071011010/08/19 07:10:31  5-MIN KBKB 081310Z AUTO VRB03KT 10SM OVC008 17/15 A3005 180 87 500 VRB/03 RMK AO2 T01720150
53988KBKB BKB20191008071511010/08/19 07:15:31  5-MIN KBKB 081315Z AUTO VRB03KT 10SM OVC008 17/15 A3005 180 87 500 VRB/03 RMK AO2 T01720150
53988KBKB BKB20191008072011010/08/19 07:20:31  5-MIN KBKB 081320Z AUTO 00000KT 10SM OVC008 17/15 A3005 180 87 500 000/00 RMK AO2 T01720150
53988KBKB BKB20191008072511010/08/19 07:25:31  5-MIN KBKB 081325Z AUTO 00000KT 10SM OVC008 17/15 A3005 180 87 500 000/00 RMK AO2 T01720150
53988KBKB BKB20191008073011010/08/19 07:30:31  5-MIN KBKB 081330Z AUTO 00000KT 10SM OVC008 18/15 A3005 180 83 600 000/00 RMK AO2 T01780150
53988KBKB BKB20191008073511010/08/19 07:35:31  5-MIN KBKB 081335Z AUTO 00000KT 10SM OVC008 18/15 A3006 170 83 600 000/00 RMK AO2 T01780150
53988KBKB BKB20191008074011010/08/19 07:40:31  5-MIN KBKB 081340Z AUTO 00000KT 10SM OVC009 18/15 A3006 170 83 600 000/00 RMK AO2 T01780150
53988KBKB BKB20191008074511010/08/19 07:45:31  5-MIN KBKB 081345Z AUTO 00000KT 10SM OVC009 18/15 A3006 170 83 600 000/00 RMK AO2 T01780150
53988KBKB BKB20191008075011710/08/19 07:50:31  5-MIN KBKB 081350Z AUTO 00000KT 10SM OVC009 18/15 A3006 170 83 600 000/00 RMK AO2 SLP208 T01780150
53988KBKB BKB20191008075511010/08/19 07:55:31  5-MIN KBKB 081355Z AUTO 03004KT 10SM OVC009 18/15 A3007 160 83 600 030/04 RMK AO2 T01780150
53988KBKB BKB20191008080011010/08/19 08:00:31  5-MIN KBKB 081400Z AUTO 00000KT 10SM OVC009 18/15 A3007 160 83 600 000/00 RMK AO2 T01780150
53988KBKB BKB20191008080511010/08/19 08:05:31  5-MIN KBKB 081405Z AUTO 00000KT 10SM OVC009 18/15 A3007 160 83 600 000/00 RMK AO2 T01780150
53988KBKB BKB20191008081011010/08/19 08:10:31  5-MIN KBKB 081410Z AUTO VRB03KT 10SM OVC009 18/15 A3007 160 83 600 VRB/03 RMK AO2 T01780150
53988KBKB BKB20191008081511010/08/19 08:15:31  5-MIN KBKB 081415Z AUTO 02004KT 10SM OVC009 18/16 A3007 160 87 600 020/04 RMK AO2 T01780156
53988KBKB BKB20191008082011010/08/19 08:20:31  5-MIN KBKB 081420Z AUTO VRB03KT 10SM OVC009 18/15 A3007 160 83 600 VRB/03 RMK AO2 T01780150
53988KBKB BKB20191008082511010/08/19 08:25:31  5-MIN KBKB 081425Z AUTO 00000KT 10SM OVC009 18/15 A3007 160 83 600 000/00 RMK AO2 T01780150
53988KBKB BKB20191008083011010/08/19 08:30:31  5-MIN KBKB 081430Z AUTO VRB03KT 10SM OVC009 18/16 A3007 160 87 600 VRB/03 RMK AO2 T01780156
53988KBKB BKB20191008083511010/08/19 08:35:31  5-MIN KBKB 081435Z AUTO VRB03KT 10SM OVC009 18/15 A3007 160 83 600 VRB/03 RMK AO2 T01780150
53988KBKB BKB20191008084011010/08/19 08:40:31  5-MIN KBKB 081440Z AUTO 00000KT 10SM OVC009 18/15 A3008 150 83 600 000/00 RMK AO2 T01780150
53988KBKB BKB20191008084511010/08/19 08:45:31  5-MIN KBKB 081445Z AUTO 00000KT 10SM OVC009 18/15 A3008 150 83 600 000/00 RMK AO2 T01780150
53988KBKB BKB20191008085012310/08/19 08:50:31  5-MIN KBKB 081450Z AUTO VRB03KT 10SM OVC009 18/15 A3008 150 83 600 VRB/03 RMK AO2 SLP212 T01780150 53001
53988KBKB BKB20191008085511010/08/19 08:55:31  5-MIN KBKB 081455Z AUTO VRB04KT 10SM OVC009 18/16 A3008 150 84 600 VRB/04 RMK AO2 T01830156
53988KBKB BKB20191008090011210/08/19 09:00:31  5-MIN KBKB 081500Z AUTO VRB03KT 10SM OVC009 18/15 A3008 150 83 600 VRB/03 RMK AO2 T01780150 $
53988KBKB BKB20191008090510710/08/19 09:05:31  5-MIN KBKB 081505Z AUTO 00000KT OVC009 18/15 A3008 150 81 600 000/00 RMK AO2 T01830150 $
53988KBKB BKB20191008091010710/08/19 09:10:31  5-MIN KBKB 081510Z AUTO VRB03KT OVC009 18/16 A3008 150 84 600 VRB/03 RMK AO2 T01830156 $
53988KBKB BKB20191008091510710/08/19 09:15:31  5-MIN KBKB 081515Z AUTO 00000KT OVC009 18/16 A3008 150 84 600 000/00 RMK AO2 T01830156 $
53988KBKB BKB20191008092010710/08/19 09:20:31  5-MIN KBKB 081520Z AUTO VRB04KT OVC009 18/16 A3008 150 84 600 VRB/04 RMK AO2 T01830156 $
53988KBKB BKB20191008092510710/08/19 09:25:31  5-MIN KBKB 081525Z AUTO 03005KT OVC009 18/15 A3008 150 81 600 020/05 RMK AO2 T01830150 $
53988KBKB BKB20191008093010710/08/19 09:30:31  5-MIN KBKB 081530Z AUTO VRB03KT OVC009 18/15 A3008 150 81 600 VRB/03 RMK AO2 T01830150 $
53988KBKB BKB20191008093510710/08/19 09:35:31  5-MIN KBKB 081535Z AUTO 00000KT OVC009 18/15 A3008 150 81 600 000/00 RMK AO2 T01830150 $
53988KBKB BKB20191008094015510/08/19 09:40:31  5-MIN KBKB 081540Z AUTO 00000KT OVC009 18/16 A3008 150 84 600 000/00 RMK AO2 T01OVC009 19/16 A3007 160 81 700 VRB/04 RMK AO2 T01890156 $
53988KBKB BKB20191008101010710/08/19 10:10:31  5-MIN KBKB 081610Z AUTO VRB04KT OVC009 19/16 A3007 160 78 800 VRB/04 RMK AO2 T01940156 $
53988KBKB BKB20191008101510710/08/19 10:15:31  5-MIN KBKB 081615Z AUTO VRB03KT OVC010 19/16 A3007 160 81 700 VRB/03 RMK AO2 T01890156 $
53988KBKB BKB20191008102010710/08/19 10:20:31  5-MIN KBKB 081620Z AUTO VRB04KT OVC010 19/16 A3007 160 81 700 VRB/04 RMK AO2 T01890156 $
53988KBKB BKB20191008102510710/08/19 10:25:31  5-MIN KBKB 081625Z AUTO 00000KT OVC010 19/16 A3007 160 78 800 000/00 RMK AO2 T01940156 $
53988KBKB BKB20191008103010710/08/19 10:30:31  5-MIN KBKB 081630Z AUTO VRB03KT OVC011 20/16 A3006 170 75 800 VRB/03 RMK AO2 T02000156 $
53988KBKB BKB20191008103010710/08/19 10:30:31  5-MIN KBKB 081630Z AUTO VRB03KT OVC011 20/16 A3006 170 78 800 VRB/04 RMK AO2 T01940156 $
53988KBKB BKB20191008103510710/08/19 10:35:31  5-MIN KBKB 081635Z AUTO VRB04KT OVC011 20/16 A3006 170 75 800 VRB/04 RMK AO2 T02000156 $
53988KBKB BKB20191008104010710/08/19 10:40:31  5-MIN KBKB 081640Z AUTO 00000KT OVC011 20/16 A3006 170 75 800 000/00 RMK AO2 T02000156 $
53988KBKB BKB20191008104510710/08/19 10:45:31  5-MIN KBKB 081645Z AUTO VRB03KT OVC011 21/16 A3006 170 75 900 VRB/03 RMK AO2 T02060161 $
53988KBKB BKB20191008105011410/08/19 10:50:31  5-MIN KBKB 081650Z AUTO 03004KT OVC011 21/16 A3006 170 75 900 030/04 RMK AO2 SLP207 T02060161 $
53988KBKB BKB20191008105510710/08/19 10:55:31  5-MIN KBKB 081655Z AUTO VRB04KT OVC012 20/16 A3006 170 75 800 VRB/04 RMK AO2 T02000156 $
53988KBKB BKB20191008110010710/08/19 11:00:31  5-MIN KBKB 081700Z AUTO VRB03KT OVC012 20/16 A3006 170 75 800 VRB/03 RMK AO2 T02000156 $
53988KBKB BKB20191008110510710/08/19 11:05:31  5-MIN KBKB 081705Z AUTO VRB03KT OVC012 21/16 A3005 170 75 900 VRB/03 RMK AO2 T02060161 $
53988KBKB BKB20191008111010810/08/19 11:10:31  5-MIN KBKB 081710Z AUTO 00000KT OVC013 21/16 A3005 180 73 1000 000/00 RMK AO2 T02110161 $
53988KBKB BKB20191008111510810/08/19 11:15:31  5-MIN KBKB 081715Z AUTO VRB04KT OVC013 22/16 A3005 180 70 1000 VRB/04 RMK AO2 T02170161 $
53988KBKB BKB20191008112010810/08/19 11:20:31  5-MIN KBKB 081720Z AUTO 35006KT OVC013 21/16 A3005 180 73 1000 350/06 RMK AO2 T02110161 $
53988KBKB BKB20191008112510810/08/19 11:25:31  5-MIN KBKB 081725Z AUTO VRB03KT OVC013 22/16 A3005 180 70 1000 VRB/03 RMK AO2 T02170161 $
53988KBKB BKB20191008113010810/08/19 11:30:31  5-MIN KBKB 081730Z AUTO VRB03KT BKN015 21/16 A3005 180 73 1000 VRB/03 RMK AO2 T02110161 $
53988KBKB BKB20191008113510810/08/19 11:35:31  5-MIN KBKB 081735Z AUTO VRB03KT BKN015 22/16 A3004 190 70 1000 VRB/03 RMK AO2 T02170161 $
53988KBKB BKB20191008114010810/08/19 11:40:31  5-MIN KBKB 081740Z AUTO 00000KT BKN015 22/16 A3004 190 68 1100 000/00 RMK AO2 T02220161 $
53988KBKB BKB20191008114510810/08/19 11:45:31  5-MIN KBKB 081745Z AUTO VRB03KT SCT015 22/16 A3003 190 68 1100 VRB/03 RMK AO2 T02220161 $
53988KBKB BKB20191008115013310/08/19 11:50:31  5-MIN KBKB 081750Z AUTO VRB05KT SCT015 22/16 A3003 200 68 1100 VRB/05 RMK AO2 SLP197 T02220161 10222 20172 53014 $
53988KBKB BKB20191008115510810/08/19 11:55:31  5-MIN KBKB 081755Z AUTO 00000KT FEW015 22/16 A3003 200 68 1100 000/00 RMK AO2 T02220161 $
53988KBKB BKB20191008120010510/08/19 12:00:31  5-MIN KBKB 081800Z AUTO VRB03KT CLR 22/16 A3003 200 68 1100 VRB/03 RMK AO2 T02220161 $
53988KBKB BKB20191008120510510/08/19 12:05:31  5-MIN KBKB 081805Z AUTO VRB04KT CLR 23/17 A3002 200 68 1200 VRB/04 RMK AO2 T02280167 $
53988KBKB BKB20191008121010310/08/19 12:10:31  5-MIN KBKB 081810Z AUTO VRB03KT CLR 23/17 A3002 200 66 1300 VRB/03 RMK AO2 T02330167
53988KBKB BKB20191008121510310/08/19 12:15:31  5-MIN KBKB 081815Z AUTO VRB03KT CLR 23/17 A3002 200 66 1300 VRB/03 RMK AO2 T02330167
53988KBKB BKB20191008122010810/08/19 12:20:31  5-MIN KBKB 081820Z AUTO VRB03KT 10SM CLR 24/17 A3002 210 63 1300 VRB/03 RMK AO2 T02390167
53988KBKB BKB20191008122511110/08/19 12:25:31  5-MIN KBKB 081825Z AUTO 33005KT 10SM FEW021 23/17 A3002 210 66 1300 330/05 RMK AO2 T02330167
53988KBKB BKB20191008123011110/08/19 12:30:31  5-MIN KBKB 081830Z AUTO VRB03KT 10SM FEW021 25/17 A3002 210 61 1500 VRB/03 RMK AO2 T02500172
53988KBKB BKB20191008123510810/08/19 12:35:31  5-MIN KBKB 081835Z AUTO VRB04KT 10SM CLR 24/17 A3001 210 63 1300 VRB/04 RMK AO2 T02390167
53988KBKB BKB20191008124010810/08/19 12:40:31  5-MIN KBKB 081840Z AUTO 00000KT 10SM CLR 24/17 A3001 220 53 1700 350/03 RMK AO2 T02670167
53988KBKB BKB20191008141510810/08/19 14:15:31  5-MIN KBKB 082015Z AUTO 36003KT 10SM CLR 27/17 A2997 250 53 1700 350/03 RMK AO2 T02670167
53988KBKB BKB20191008142010810/08/19 14:20:31  5-MIN KBKB 082020Z AUTO 00000KT 10SM CLR 26/17 A2997 250 57 1600 000/00 RMK AO2 T02610172
53988KBKB BKB20191008142510810/08/19 14:25:31  5-MIN KBKB 082025Z AUTO VRB03KT 10SM CLR 27/17 A2997 250 55 1700 VRB/03 RMK AO2 T02670172
53988KBKB BKB20191008143010810/08/19 14:30:31  5-MIN KBKB 082030Z AUTO 02004KT 10SM CLR 27/17 A2997 260 55 1700 020/04 RMK AO2 T02670172
53988KBKB BKB20191008143016810/08/19 14:30:31  5-MIN KBKB 082030Z AUTO 02004KT 10SM CLR 27/17 A2997 260 55 1700 020/04 RMK AO2 T02670172KT 10SM CLR 26/17 A2997 250 55 1600 VRB/03 RMK AO2 T02610167
53988KBKB BKB20191008143510810/08/19 14:35:31  5-MIN KBKB 082035Z AUTO 00000KT 10SM CLR 27/17 A2997 260 55 1700 000/00 RMK AO2 T02670172
53988KBKB BKB20191009084010810/09/19 08:40:31  5-MIN KBKB 091440Z AUTO VRB03KT 10SM CLR 23/18 A3001 220 76 1200 VRB/03 RMK AO2 T02280183
53988KBKB BKB20191009084510810/09/19 08:45:31  5-MIN KBKB 091445Z AUTO 00000KT 10SM CLR 23/19 A3000 220 76 1300 000/00 RMK AO2 T02330189
53988KBKB BKB20191009085012110/09/19 08:50:31  5-MIN KBKB 091450Z AUTO 00000KT 10SM CLR 24/19 A3001 220 73 1300 000/00 RMK AO2 SLP188 T02390189 50004
53988KBKB BKB20191009085510810/09/19 08:55:31  5-MIN KBKB 091455Z AUTO 00000KT 10SM CLR 24/19 A3001 220 71 1400 000/00 RMK AO2 T02440189
53988KBKB BKB20191009090010810/09/19 09:00:31  5-MIN KBKB 091500Z AUTO 00000KT 10SM CLR 25/18 A3001 220 66 1500 000/00 RMK AO2 T02500183
53988KBKB BKB20191009090510810/09/19 09:05:31  5-MIN KBKB 091505Z AUTO VRB03KT 10SM CLR 25/19 A3001 220 68 1500 VRB/03 RMK AO2 T02500189
53988KBKB BKB20191009091010810/09/19 09:10:31  5-MIN KBKB 091510Z AUTO VRB03KT 10SM CLR 25/19 A3001 220 68 1500 VRB/03 RMK AO2 T02500189
53988KBKB BKB20191009091510810/09/19 09:15:31  5-MIN KBKB 091515Z AUTO 00000KT 10SM CLR 25/19 A3001 220 68 1500 000/00 RMK AO2 T02500189
53988KBKB BKB20191009092010810/09/19 09:20:31  5-MIN KBKB 091520Z AUTO 00000KT 10SM CLR 25/19 A3001 220 68 1500 000/00 RMK AO2 T02500189
53988KBKB BKB20191009092510810/09/19 09:25:31  5-MIN KBKB 091525Z AUTO VRB03KT 10SM CLR 26/19 A3001 220 66 1500 VRB/03 RMK AO2 T02560189
53988KBKB BKB20191009093010810/09/19 09:30:31  5-MIN KBKB 091530Z AUTO VRB03KT 10SM CLR 26/19 A3001 220 66 1500 VRB/03 RMK AO2 T02560189
53988KBKB BKB20191009093510810/09/19 09:35:31  5-MIN KBKB 091535Z AUTO 00000KT 10SM CLR 26/19 A3001 220 64 1600 000/00 RMK AO2 T02610189
53988KBKB BKB20191009094010810/09/19 09:40:31  5-MIN KBKB 091540Z AUTO VRB03KT 10SM CLR 26/19 A3001 220 64 1600 VRB/03 RMK AO2 T02610189
53988KBKB BKB20191009094510810/09/19 09:45:31  5-MIN KBKB 091545Z AUTO VRB05KT 10SM CLR 26/19 A3001 220 64 1600 VRB/05 RMK AO2 T02610189
53988KBKB BKB20191009095011510/09/19 09:50:31  5-MIN KBKB 091550Z AUTO VRB04KT 10SM CLR 27/19 A3001 220 62 1700 VRB/04 RMK AO2 SLP188 T02670189
53988KBKB BKB20191009095510810/09/19 09:55:31  5-MIN KBKB 091555Z AUTO 00000KT 10SM CLR 26/19 A3001 220 64 1600 000/00 RMK AO2 T02610189
53988KBKB BKB20191009100009810/09/19 10:00:31  5-MIN KBKB 091600Z AUTO 10SM CLR 27/19 A3000 220 62 1700 M /M RMK AO2 T02670189
53988KBKB BKB20191009100510810/09/19 10:05:31  5-MIN KBKB 091605Z AUTO VRB04KT 10SM CLR 27/19 A3000 220 60 1700 VRB/04 RMK AO2 T02720189
53988KBKB BKB20191009101011110/09/19 10:10:31  5-MIN KBKB 091610Z AUTO VRB03KT 10SM FEW030 28/19 A3000 220 60 1800 VRB/03 RMK AO2 T02780194
53988KBKB BKB20191009101511110/09/19 10:15:31  5-MIN KBKB 091615Z AUTO VRB03KT 10SM FEW030 27/19 A3000 220 60 1700 VRB/03 RMK AO2 T02720189
53988KBKB BKB20191009102011110/09/19 10:20:31  5-MIN KBKB 091620Z AUTO VRB03KT 10SM FEW027 28/19 A3000 230 60 1800 VRB/03 RMK AO2 T02780194
53988KBKB BKB20191009102510110/09/19 10:25:31  5-MIN KBKB 091625Z AUTO 10SM FEW027 26/19 A3000 230 64 1600 M /M RMK AO2 T02610189
53988KBKB BKB20191009103011110/09/19 10:30:31  5-MIN KBKB 091630Z AUTO 00000KT 10SM FEW029 26/19 A3000 230 64 1600 000/00 RMK AO2 T02610189
53988KBKB BKB20191009103511810/09/19 10:35:31  5-MIN KBKB 091635Z AUTO 00000KT 10SM FEW029 SCT055 27/19 A2999 230 62 1700 000/00 RMK AO2 T02670189
53988KBKB BKB20191009104011810/09/19 10:40:31  5-MIN KBKB 091640Z AUTO 00000KT 10SM FEW029 SCT055 27/19 A2999 230 60 1700 000/00 RMK AO2 T02720189
53988KBKB BKB20191009104511810/09/19 10:45:31  5-MIN KBKB 091645Z AUTO VRB03KT 10SM SCT029 SCT055 28/19 A2999 230 60 1800 VRB/03 RMK AO2 T02780194
53988KBKB BKB20191009105012510/09/19 10:50:31  5-MIN KBKB 091650Z AUTO VRB03KT 10SM FEW029 SCT055 28/19 A2999 230 58 1800 VRB/03 RMK AO2 SLP182 T02780189
53988KBKB BKB20191009105511810/09/19 10:55:31  5-MIN KBKB 091655Z AUTO VRB03KT 10SM SCT031 SCT055 28/19 A2999 230 58 1900 VRB/03 RMK AO2 T02830194
53988KBKB BKB20191009110011810/09/19 11:00:31  5-MIN KBKB 091700Z AUTO VRB05KT 10SM SCT031 SCT055 28/19 A2999 230 58 1800 VRB/05 RMK AO2 T02780189
53988KBKB BKB20191009110512510/09/19 11:05:31  5-MIN KBKB 091705Z AUTO 00000KT 10SM FEW031 SCT041 SCT055 28/18 A2999 240 56 1800 000/00 RMK AO2 T02780183
53988KBKB BKB20191009111011810/09/19 11:10:31  5-MIN KBKB 091710Z AUTO VRB03KT 10SM FEW031 FEW055 27/18 A2999 240 58 1700 VRB/03 RMK AO2 T02720183
53988KBKB BKB20191009111511110/09/19 11:15:31  5-MIN KBKB 091715Z AUTO 00000KT 10SM FEW033 28/19 A2998 240 56 1900 000/00 RMK AO2 T02830189
53988KBKB BKB20191009112011110/09/19 11:20:31  5-MIN KBKB 091720Z AUTO 00000KT 10SM FEW033 28/19 A2998 240 56 1900 000/00 RMK AO2 T02830189
53988KBKB BKB20191009112511110/09/19 11:25:31  5-MIN KBKB 091725Z AUTO VRB03KT 10SM FEW055 27/19 A2998 240 60 1700 VRB/03 RMK AO2 T02720189
53988KBKB BKB20191009113010810/09/19 11:30:31  5-MIN KBKB 091730Z AUTO VRB04KT 10SM CLR 28/19 A2998 250 56 1900 VRB/04 RMK AO2 T02830189
53988KBKB BKB20191009113510810/09/19 11:35:31  5-MIN KBKB 091735Z AUTO 00000KT 10SM CLR 28/18 A2997 250 54 1800 000/00 RMK AO2 T02780178
53988KBKB BKB20191009114010810/09/19 11:40:31  5-MIN KBKB 091740Z AUTO 00000KT 10SM CLR 29/18 A2997 250 50 1900 000/00 RMK AO2 T02890178
53988KBKB BKB20191009114510810/09/19 11:45:31  5-MIN KBKB 091745Z AUTO VRB03KT 10SM CLR 29/18 A2997 260 50 1900 VRB/03 RMK AO2 T02890178
53988KBKB BKB20191009115013310/09/19 11:50:31  5-MIN KBKB 091750Z AUTO VRB04KT 10SM CLR 29/18 A2997 260 50 2000 VRB/04 RMK AO2 SLP173 T02940183 10294 20161 51008
53988KBKB BKB20191009115511110/09/19 11:55:31  5-MIN KBKB 091755Z AUTO VRB04KT 10SM FEW055 29/18 A2996 260 50 2000 VRB/04 RMK AO2 T02940183
53988KBKB BKB20191009120011110/09/19 12:00:31  5-MIN KBKB 091800Z AUTO VRB04KT 10SM FEW055 29/18 A2996 260 50 2000 VRB/04 RMK AO2 T02940183
53988KBKB BKB20191009120511110/09/19 12:05:31  5-MIN KBKB 091805Z AUTO 00000KT 10SM FEW055 29/18 A2996 260 50 2000 000/00 RMK AO2 T02890178
53988KBKB BKB20191009121011110/09/19 12:10:31  5-MIN KBKB 091810Z AUTO 00000KT 10SM FEW055 28/17 A2996 270 50 1900 000/00 RMK AO2 T02830172
53988KBKB BKB20191009121511110/09/19 12:15:31  5-MIN KBKB 091815Z AUTO VRB06KT 10SM FEW055 29/18 A2995 270 50 2000 VRB/06 RMK AO2 T02890178
53988KBKB BKB20191009122011110/09/19 12:20:31  5-MIN KBKB 091820Z AUTO 00000KT 10SM FEW055 28/17 A2995 270 52 1800 000/00 RMK AO2 T02780172
53988KBKB BKB20191009122511110/09/19 12:25:31  5-MIN KBKB 091825Z AUTO VRB03KT 10SM FEW042 29/17 A2995 280 48 2000 VRB/03 RMK AO2 T02890172
53988KBKB BKB20191009123011110/09/19 12:30:31  5-MIN KBKB 091830Z AUTO VRB04KT 10SM FEW048 29/17 A2994 280 47 2000 VRB/04 RMK AO2 T02940172
53988KBKB BKB20191009123511110/09/19 12:35:31  5-MIN KBKB 091835Z AUTO VRB05KT 10SM SCT048 30/17 A2994 280 45 2100 VRB/05 RMK AO2 T03000172
53988KBKB BKB20191009124011110/09/19 12:40:31  5-MIN KBKB 091840Z AUTO VRB03KT 10SM SCT048 28/17 A2994 280 50 1900 VRB/03 RMK AO2 T02830172
53988KBKB BKB20191009124511810/09/19 12:45:31  5-MIN KBKB 091845Z AUTO VRB03KT 10SM SCT048 SCT065 28/17 A2994 280 50 1900 VRB/03 RMK AO2 T02830172
53988KBKB BKB20191009125015810/09/19 12:50:31  5-MIN KBKB 091850Z AUTO VRB04KT 10SM SCT048 SCT065 29/17 A2993 290 47 2000 VRB/04 RMK AO2 SLP162 T02940172 50 1900 VRB/03 RMK AO2 T02780167
53988KBKB BKB20191009164510810/09/19 16:45:31  5-MIN KBKB 092245Z AUTO 00000KT 10SM CLR 28/16 A2988 330 48 1900 000/00 RMK AO2 T02780161
53988KBKB BKB20191009165011510/09/19 16:50:31  5-MIN KBKB 092250Z AUTO 00000KT 10SM CLR 27/16 A2989 330 50 1900 000/00 RMK AO2 SLP146 T02720161
53988KBKB BKB20191009165510810/09/19 16:55:31  5-MIN KBKB 092255Z AUTO 00000KT 10SM CLR 27/17 A2989 330 55 1800 000/00 RMK AO2 T02670172
53988KBKB BKB20191009170010810/09/19 17:00:31  5-MIN KBKB 092300Z AUTO 00000KT 10SM CLR 26/17 A2989 330 55 1700 000/00 RMK AO2 T02610167
53988KBKB BKB20191009170510810/09/19 17:05:31  5-MIN KBKB 092305Z AUTO 00000KT 10SM CLR 26/17 A2989 330 55 1700 000/00 RMK AO2 T02610167
53988KBKB BKB20191009171010810/09/19 17:10:31  5-MIN KBKB 092310Z AUTO 00000KT 10SM CLR 26/17 A2989 330 59 1700 000/00 RMK AO2 T02560172
53988KBKB BKB20191009171510810/09/19 17:15:31  5-MIN KBKB 092315Z AUTO 00000KT 10SM CLR 26/17 A2989 330 57 1700 000/00 RMK AO2 T02560167
53988KBKB BKB20191009172010810/09/19 17:20:31  5-MIN KBKB 092320Z AUTO 00000KT 10SM CLR 25/17 A2989 330 59 1600 000/00 RMK AO2 T02500167
53988KBKB BKB20191009172027210/09/19 17:20:31  5-MIN KBKB 092320Z AUTO 00000KT 10SM CLR 25/17 A2989 330 59 1600 000/00 RMK AO2 T0250016710/09/19 1R 26/17 A2989 330 55 1700 000/00 RMK AO2 T0261016710A2989 330 59 1600 000/00 RMK AO2 T0250016710/09/19 17:30/17 A2989 330 55 1700 000/00 RMK AO2 T02610167
53988KBKB BKB20191009172510810/09/19 17:25:31  5-MIN KBKB 092325Z AUTO 00000KT 10SM CLR 25/17 A2989 330 59 1600 000/00 RMK AO2 T02500167
53988KBKB BKB20191009173010810/09/19 17:30:31  5-MIN KBKB 092330Z AUTO 00000KT 10SM CLR 24/17 A2989 330 61 1500 000/00 RMK AO2 T02440167
53988KBKB BKB20191009173510810/09/19 17:35:31  5-MIN KBKB 092335Z AUTO 00000KT 10SM CLR 24/17 A2989 330 63 1500 000/00 RMK AO2 T02390167
53988KBKB BKB20191009174010810/09/19 17:40:31  5-MIN KBKB 092340Z AUTO 00000KT 10SM CLR 24/17 A2989 330 63 1500 000/00 RMK AO2 T02390167
53988KBKB BKB20191009174510810/09/19 17:45:31  5-MIN KBKB 092345Z AUTO 00000KT 10SM CLR 23/17 A2989 330 66 1400 000/00 RMK AO2 T02330167
53988KBKB BKB20191009174516810/09/19 17:45:31  5-MIN KBKB 092345Z AUTO 00000KT 10SM CLR 23/17 A2989 330 66 1400 000/00 RMK AO2 T0233016710/09/19 17:50:31  5-MI 330 59 1600 000/00 RMK AO2 T02500167
53988KBKB BKB20191009175013310/09/19 17:50:31  5-MIN KBKB 092350Z AUTO 00000KT 10SM CLR 23/17 A2989 320 66 1400 000/00 RMK AO2 SLP149 T02330167 10306 20233 56024
53988KBKB BKB20191009175510810/09/19 17:55:31  5-MIN KBKB 092355Z AUTO 00000KT 10SM CLR 23/17 A2989 320 68 1300 000/00 RMK AO2 T02280167
53988KBKB BKB20191009180010810/09/19 18:00:31  5-MIN KBKB 100000Z AUTO 00000KT 10SM CLR 23/17 A2989 320 68 1300 000/00 RMK AO2 T02280167
53988KBKB BKB20191009180517110/09/19 18:05:31  5-MIN KBKB 100005Z AUTO 00000KT 10SM CLR 22N KBKB 092345Z AUTO 00000KT 10SM CLR 23/17 A2989 330 66 1400 000/00 R2993 290 90 800 000/00 RMK AO2 T01830167
53988KBKB BKB20191009203010710/09/19 20:30:31  5-MIN KBKB 100230Z AUTO 00000KT 10SM CLR 18/17 A2993 290 90 800 000/00 RMK AO2 T01830167
53988KBKB BKB20191009203510710/09/19 20:35:31  5-MIN KBKB 100235Z AUTO 00000KT 10SM CLR 18/17 A2993 290 90 800 000/00 RMK AO2 T01830167
53988KBKB BKB20191010174012310/10/19 17:40:31  5-MIN KBKB 102340Z AUTO 00000KT 10SM CLR 27/19 A2985 370 62 1800 000/00 RMK AO2 RAB09E16 P0000 T02670189
53988KBKB BKB20191010174512310/10/19 17:45:31  5-MIN KBKB 102345Z AUTO 00000KT 10SM CLR 27/18 A2985 370 60 1800 000/00 RMK AO2 RAB09E16 P0000 T02670183
53988KBKB BKB20191010175015410/10/19 17:50:31  5-MIN KBKB 102350Z AUTO 00000KT 10SM CLR 26/18 A2985 370 62 1800 000/00 RMK AO2 RAB09E16 SLP132 P0000 60000 T02610183 10328 20261 56023
53988KBKB BKB20191010175510810/10/19 17:55:31  5-MIN KBKB 102355Z AUTO 00000KT 10SM CLR 26/18 A2984 370 64 1700 000/00 RMK AO2 T02560183
53988KBKB BKB20191010180010810/10/19 18:00:31  5-MIN KBKB 110000Z AUTO 00000KT 10SM CLR 26/18 A2984 370 64 1700 000/00 RMK AO2 T02560183
53988KBKB BKB20191010180510810/10/19 18:05:31  5-MIN KBKB 110005Z AUTO 00000KT 10SM CLR 26/19 A2985 370 66 1700 000/00 RMK AO2 T02560189
53988KBKB BKB20191010181010810/10/19 18:10:31  5-MIN KBKB 110010Z AUTO 00000KT 10SM CLR 25/18 A2985 360 66 1600 000/00 RMK AO2 T02500183
53988KBKB BKB20191010181510810/10/19 18:15:31  5-MIN KBKB 110015Z AUTO 00000KT 10SM CLR 25/19 A2985 370 68 1600 000/00 RMK AO2 T02500189
53988KBKB BKB20191010182010810/10/19 18:20:31  5-MIN KBKB 110020Z AUTO 00000KT 10SM CLR 24/19 A2985 360 71 1600 000/00 RMK AO2 T02440189
53988KBKB BKB20191010182510810/10/19 18:25:31  5-MIN KBKB 110025Z AUTO 00000KT 10SM CLR 24/19 A2985 360 71 1600 000/00 RMK AO2 T02440189
53988KBKB BKB20191010183010810/10/19 18:30:31  5-MIN KBKB 110030Z AUTO 00000KT 10SM CLR 24/19 A2985 360 73 1600 000/00 RMK AO2 T02440194
53988KBKB BKB20191010183510810/10/19 18:35:31  5-MIN KBKB 110035Z AUTO 00000KT 10SM CLR 24/19 A2985 360 73 1600 000/00 RMK AO2 T02440194
53988KBKB BKB20191010184010810/10/19 18:40:31  5-MIN KBKB 110040Z AUTO 00000KT 10SM CLR 24/19 A2985 360 73 1600 000/00 RMK AO2 T02440194
53988KBKB BKB20191010184510810/10/19 18:45:31  5-MIN KBKB 110045Z AUTO 00000KT 10SM CLR 24/19 A2985 360 71 1600 000/00 RMK AO2 T02440189
53988KBKB BKB20191010185011510/10/19 18:50:31  5-MIN KBKB 110050Z AUTO 00000KT 10SM CLR 24/19 A2985 360 71 1600 000/00 RMK AO2 SLP135 T02440189
53988KBKB BKB20191010185510810/10/19 18:55:31  5-MIN KBKB 110055Z AUTO 00000KT 10SM CLR 24/19 A2985 360 71 1600 000/00 RMK AO2 T02440189
53988KBKB BKB20191010190010810/10/19 19:00:31  5-MIN KBKB 110100Z AUTO 00000KT 10SM CLR 24/19 A2986 360 73 1500 000/00 RMK AO2 T02390189
53988KBKB BKB20191010190510810/10/19 19:05:31  5-MIN KBKB 110105Z AUTO 00000KT 10SM CLR 24/19 A2986 350 71 1600 000/00 RMK AO2 T02440189
53988KBKB BKB20191010191010810/10/19 19:10:31  5-MIN KBKB 110110Z AUTO 00000KT 10SM CLR 24/19 A2986 350 71 1600 000/00 RMK AO2 T02440189
53988KBKB BKB20191010191510810/10/19 19:15:31  5-MIN KBKB 110115Z AUTO 00000KT 10SM CLR 24/19 A2986 350 71 1600 000/00 RMK AO2 T02440189
53988KBKB BKB20191010192010810/10/19 19:20:31  5-MIN KBKB 110120Z AUTO 00000KT 10SM CLR 24/19 A2987 350 71 1600 000/00 RMK AO2 T02440189
53988KBKB BKB20191010192510810/10/19 19:25:31  5-MIN KBKB 110125Z AUTO 00000KT 10SM CLR 24/19 A2987 350 73 1500 000/00 RMK AO2 T02390189
53988KBKB BKB20191010193010810/10/19 19:30:31  5-MIN KBKB 110130Z AUTO 00000KT 10SM CLR 24/19 A2987 340 71 1600 000/00 RMK AO2 T02440189
53988KBKB BKB20191010193510810/10/19 19:35:31  5-MIN KBKB 110135Z AUTO 00000KT 10SM CLR 24/19 A2987 340 73 1500 000/00 RMK AO2 T02390189
53988KBKB BKB20191010194010810/10/19 19:40:31  5-MIN KBKB 110140Z AUTO 00000KT 10SM CLR 24/19 A2988 340 73 1500 000/00 RMK AO2 T02390189
53988KBKB BKB20191010194510810/10/19 19:45:31  5-MIN KBKB 110145Z AUTO 00000KT 10SM CLR 24/19 A2988 340 71 1600 000/00 RMK AO2 T02440189
53988KBKB BKB20191010195011510/10/19 19:50:31  5-MIN KBKB 110150Z AUTO 00000KT 10SM CLR 25/19 A2988 340 68 1600 000/00 RMK AO2 SLP144 T02500189
53988KBKB BKB20191010195510810/10/19 19:55:31  5-MIN KBKB 110155Z AUTO 00000KT 10SM CLR 25/19 A2988 330 68 1600 000/00 RMK AO2 T02500189
53988KBKB BKB20191010200010810/10/19 20:00:31  5-MIN KBKB 110200Z AUTO 00000KT 10SM CLR 24/19 A2988 330 71 1500 000/00 RMK AO2 T02440189
53988KBKB BKB20191010200510810/10/19 20:05:31  5-MIN KBKB 110205Z AUTO 00000KT 10SM CLR 24/19 A2988 330 71 1500 000/00 RMK AO2 T02440189
53988KBKB BKB20191010201010810/10/19 20:10:31  5-MIN KBKB 110210Z AUTO 00000KT 10SM CLR 24/19 A2988 330 76 1500 000/00 RMK AO2 T02390194
53988KBKB BKB20191010201510810/10/19 20:15:31  5-MIN KBKB 110215Z AUTO 00000KT 10SM CLR 24/19 A2988 330 76 1500 000/00 RMK AO2 T02390194
53988KBKB BKB20191010202010810/10/19 20:20:31  5-MIN KBKB 110220Z AUTO 00000KT 10SM CLR 24/19 A2989 330 73 1500 000/00 RMK AO2 T02440194
53988KBKB BKB20191010202510810/10/19 20:25:31  5-MIN KBKB 110225Z AUTO 00000KT 10SM CLR 24/19 A2989 330 73 1500 000/00 RMK AO2 T02440194
53988KBKB BKB20191010203010810/10/19 20:30:31  5-MIN KBKB 110230Z AUTO 00000KT 10SM CLR 24/19 A2989 330 76 1500 000/00 RMK AO2 T02390194
53988KBKB BKB20191010203510810/10/19 20:35:31  5-MIN KBKB 110235Z AUTO 00000KT 10SM CLR 24/19 A2989 330 76 1500 000/00 RMK AO2 T02390194
53988KBKB BKB20191010204010810/10/19 20:40:31  5-MIN KBKB 110240Z AUTO 00000KT 10SM CLR 24/19 A2989 330 76 1500 000/00 RMK AO2 T02390194
53988KBKB BKB20191010204510810/10/19 20:45:31  5-MIN KBKB 110245Z AUTO 00000KT 10SM CLR 24/19 A2989 320 73 1500 000/00 RMK AO2 T02440194
53988KBKB BKB20191010205012110/10/19 20:50:31  5-MIN KBKB 110250Z AUTO 00000KT 10SM CLR 24/20 A2989 330 78 1500 000/00 RMK AO2 SLP147 T02390200 55005
53988KBKB BKB20191010205510810/10/19 20:55:31  5-MIN KBKB 110255Z AUTO 00000KT 10SM CLR 24/20 A2989 330 78 1500 000/00 RMK AO2 T02390200
53988KBKB BKB20191010210010810/10/19 21:00:31  5-MIN KBKB 110300Z AUTO 00000KT 10SM CLR 24/20 A2989 330 78 1500 000/00 RMK AO2 T02390200
53988KBKB BKB20191010210510810/10/19 21:05:31  5-MIN KBKB 110305Z AUTO 00000KT 10SM CLR 24/20 A2989 330 78 1500 000/00 RMK AO2 T02390200
53988KBKB BKB20191010211010810/10/19 21:10:31  5-MIN KBKB 110310Z AUTO VRB03KT 10SM CLR 24/20 A2989 330 78 1500 VRB/03 RMK AO2 T02390200
53988KBKB BKB20191010211510810/10/19 21:15:31  5-MIN KBKB 110315Z AUTO VRB03KT 10SM CLR 24/21 A2989 330 81 1500 VRB/03 RMK AO2 T02390206
53988KBKB BKB20191010212010810/10/19 21:20:31  5-MIN KBKB 110320Z AUTO VRB03KT 10SM CLR 24/21 A2989 320 81 1500 VRB/03 RMK AO2 T02390206
53988KBKB BKB20191010212510810/10/19 21:25:31  5-MIN KBKB 110325Z AUTO 00000KT 10SM CLR 24/21 A2989 320 81 1500 000/00 RMK AO2 T02440211
53988KBKB BKB20191010213010810/10/19 21:30:31  5-MIN KBKB 110330Z AUTO 00000KT 10SM CLR 24/21 A2989 320 84 1500 000/00 RMK AO2 T02390211
53988KBKB BKB20191010213510810/10/19 21:35:31  5-MIN KBKB 110335Z AUTO 00000KT 10SM CLR 24/21 A2989 320 84 1500 000/00 RMK AO2 T02390211
53988KBKB BKB20191010214010810/10/19 21:40:31  5-MIN KBKB 110340Z AUTO 00000KT 10SM CLR 24/21 A2990 320 84 1500 000/00 RMK AO2 T02390211
53988KBKB BKB20191010214510810/10/19 21:45:31  5-MIN KBKB 110345Z AUTO VRB03KT 10SM CLR 24/21 A2990 320 84 1500 VRB/03 RMK AO2 T02390211
53988KBKB BKB20191010215011510/10/19 21:50:31  5-MIN KBKB 110350Z AUTO 00000KT 10SM CLR 24/21 A2990 320 84 1500 000/00 RMK AO2 SLP149 T02390211
53988KBKB BKB20191010215510810/10/19 21:55:31  5-MIN KBKB 110355Z AUTO 00000KT 10SM CLR 24/21 A2990 320 84 1500 000/00 RMK AO2 T02390211
53988KBKB BKB20191010220010810/10/19 22:00:31  5-MIN KBKB 110400Z AUTO 00000KT 10SM CLR 24/22 A2990 310 87 1500 000/00 RMK AO2 T02390217
53988KBKB BKB20191010220510810/10/19 22:05:31  5-MIN KBKB 110405Z AUTO 00000KT 10SM CLR 24/22 A2990 320 87 1500 000/00 RMK AO2 T02390217
53988KBKB BKB20191010221010810/10/19 22:10:31  5-MIN KBKB 110410Z AUTO 00000KT 10SM CLR 24/22 A2990 320 87 1500 000/00 RMK AO2 T02390217
53988KBKB BKB20191010221510810/10/19 22:15:31  5-MIN KBKB 110415Z AUTO 00000KT 10SM CLR 24/22 A2991 310 87 1500 000/00 RMK AO2 T02390217
53988KBKB BKB20191010222010810/10/19 22:20:31  5-MIN KBKB 110420Z AUTO 00000KT 10SM CLR 24/22 A2990 310 87 1500 000/00 RMK AO2 T02390217
53988KBKB BKB20191010222510810/10/19 22:25:31  5-MIN KBKB 110425Z AUTO 00000KT 10SM CLR 24/22 A2990 310 87 1500 000/00 RMK AO2 T02390217
53988KBKB BKB20191010223010810/10/19 22:30:31  5-MIN KBKB 110430Z AUTO 00000KT 10SM CLR 23/22 A2991 310 90 1400 000/00 RMK AO2 T02330217
53988KBKB BKB20191010223510810/10/19 22:35:31  5-MIN KBKB 110435Z AUTO 00000KT 10SM CLR 23/22 A2991 310 90 1400 000/00 RMK AO2 T02330217
53988KBKB BKB20191010224010810/10/19 22:40:31  5-MIN KBKB 110440Z AUTO 00000KT 10SM CLR 23/22 A2990 310 90 1400 000/00 RMK AO2 T02330217
53988KBKB BKB20191010224510810/10/19 22:45:31  5-MIN KBKB 110445Z AUTO 00000KT 10SM CLR 23/22 A2990 310 90 1400 000/00 RMK AO2 T02330217
53988KBKB BKB20191010225011510/10/19 22:50:31  5-MIN KBKB 110450Z AUTO 00000KT 10SM CLR 23/22 A2990 310 93 1300 000/00 RMK AO2 SLP151 T02280217
53988KBKB BKB20191010225511110/10/19 22:55:31  5-MIN KBKB 110455Z AUTO 00000KT 10SM FEW014 23/21 A2990 310 90 1300 000/00 RMK AO2 T02280211
53988KBKB BKB20191010230011110/10/19 23:00:31  5-MIN KBKB 110500Z AUTO 00000KT 10SM FEW014 23/21 A2990 310 90 1300 000/00 RMK AO2 T02280211
53988KBKB BKB20191010230511110/10/19 23:05:31  5-MIN KBKB 110505Z AUTO 00000KT 10SM FEW014 23/21 A2990 320 90 1300 000/00 RMK AO2 T02280211
53988KBKB BKB20191010231011110/10/19 23:10:31  5-MIN KBKB 110510Z AUTO 00000KT 10SM FEW016 23/21 A2990 310 90 1300 000/00 RMK AO2 T02280211
53988KBKB BKB20191010231511110/10/19 23:15:31  5-MIN KBKB 110515Z AUTO 00000KT 10SM FEW016 23/21 A2990 320 90 1300 000/00 RMK AO2 T02280211
53988KBKB BKB20191010232011110/10/19 23:20:31  5-MIN KBKB 110520Z AUTO 00000KT 10SM FEW016 23/21 A2990 320 90 1300 000/00 RMK AO2 T02280211
53988KBKB BKB20191010232511110/10/19 23:25:31  5-MIN KBKB 110525Z AUTO 00000KT 10SM SCT017 23/22 A2990 310 93 1300 000/00 RMK AO2 T02280217
53988KBKB BKB20191010233011110/10/19 23:30:31  5-MIN KBKB 110530Z AUTO 00000KT 10SM SCT017 23/22 A2990 310 90 1400 000/00 RMK AO2 T02330217
53988KBKB BKB20191010233511110/10/19 23:35:31  5-MIN KBKB 110535Z AUTO 00000KT 10SM SCT019 23/22 A2990 310 90 1400 000/00 RMK AO2 T02330217
53988KBKB BKB20191010234011110/10/19 23:40:31  5-MIN KBKB 110540Z AUTO 00000KT 10SM SCT019 23/22 A2990 310 90 1400 000/00 RMK AO2 T02330217
53988KBKB BKB20191010234511110/10/19 23:45:31  5-MIN KBKB 110545Z AUTO 00000KT 10SM SCT019 23/22 A2991 310 90 1400 000/00 RMK AO2 T02330217
53988KBKB BKB20191010235015310/10/19 23:50:31  5-MIN KBKB 110550Z AUTO 00000KT 10SM FEW010 SCT019 23/22 A2991 310 90 1400 000/00 RMK AO2 SLP154 T02330217 10256 20228 403280178 51015
53988KBKB BKB20191010235512510/10/19 23:55:31  5-MIN KBKB 110555Z AUTO 00000KT 10SM FEW010 SCT016 BKN021 23/22 A2991 310 90 1400 000/00 RMK AO2 T02330217
53988KBKB BKB20191011000012510/11/19 00:00:31  5-MIN KBKB 110600Z AUTO 00000KT 10SM FEW010 BKN016 BKN034 23/22 A2991 300 90 1400 000/00 RMK AO2 T02330217
53988KBKB BKB20191011000512510/11/19 00:05:31  5-MIN KBKB 110605Z AUTO 00000KT 10SM FEW010 SCT016 BKN022 23/22 A2992 300 90 1400 000/00 RMK AO2 T02330217
53988KBKB BKB20191011001012510/11/19 00:10:31  5-MIN KBKB 110610Z AUTO 00000KT 10SM FEW010 SCT016 SCT022 23/22 A2992 300 90 1400 000/00 RMK AO2 T02330217
53988KBKB BKB20191011001512510/11/19 00:15:31  5-MIN KBKB 110615Z AUTO 12004KT 10SM FEW010 SCT016 SCT022 23/22 A2992 300 90 1400 120/04 RMK AO2 T02330217
53988KBKB BKB20191011002011810/11/19 00:20:31  5-MIN KBKB 110620Z AUTO 00000KT 10SM FEW010 FEW015 23/22 A2992 300 90 1400 000/00 RMK AO2 T02330217
53988KBKB BKB20191011002511110/11/19 00:25:31  5-MIN KBKB 110625Z AUTO VRB03KT 10SM FEW010 23/22 A2991 300 90 1400 VRB/03 RMK AO2 T02330217
53988KBKB BKB20191011003011110/11/19 00:30:31  5-MIN KBKB 110630Z AUTO 14003KT 10SM FEW009 23/22 A2991 310 90 1400 140/03 RMK AO2 T02330217
53988KBKB BKB20191011003511110/11/19 00:35:31  5-MIN KBKB 110635Z AUTO VRB03KT 10SM FEW009 23/22 A2991 310 93 1300 VRB/03 RMK AO2 T02280217
53988KBKB BKB20191011004011110/11/19 00:40:31  5-MIN KBKB 110640Z AUTO VRB03KT 10SM FEW009 23/22 A2991 310 93 1300 VRB/03 RMK AO2 T02280217
53988KBKB BKB20191011004511110/11/19 00:45:31  5-MIN KBKB 110645Z AUTO VRB03KT 10SM FEW009 23/22 A2990 310 90 1400 VRB/03 RMK AO2 T02330217
53988KBKB BKB20191011005011810/11/19 00:50:31  5-MIN KBKB 110650Z AUTO VRB04KT 10SM FEW009 23/22 A2990 310 93 1300 VRB/04 RMK AO2 SLP151 T02280217
53988KBKB BKB20191011005511110/11/19 00:55:31  5-MIN KBKB 110655Z AUTO VRB04KT 10SM FEW009 23/22 A2990 320 93 1300 VRB/04 RMK AO2 T02280217
53988KBKB BKB20191011010011110/11/19 01:00:31  5-MIN KBKB 110700Z AUTO VRB04KT 10SM SCT008 23/22 A2990 320 93 1300 VRB/04 RMK AO2 T02280217
53988KBKB BKB20191011010513010/11/19 01:05:31  5-MIN KBKB 110705Z AUTO VRB03KT 10SM FEW005 BKN010 23/22 A2990 320 93 1300 VRB/03 RMK AO2 CIG 008V013 T02280217
53988KBKB BKB20191011011011810/11/19 01:10:31  5-MIN KBKB 110710Z AUTO VRB04KT 10SM SCT006 BKN011 23/22 A2990 320 93 1300 VRB/04 RMK AO2 T02280217
53988KBKB BKB20191011011514810/11/19 01:15:31  5-MIN KBKB 110715Z AUTO VRB03KT 10SM BKN006 BKN011 23/22 A2990 320 93 1400 VRB/03 RMK AO2 T02320 93 1400 VRB/04 RMK AO2 T02330222
53988KBKB BKB20191011015011810/11/19 01:50:31  5-MIN KBKB 110750Z AUTO 00000KT 10SM OVC005 23/22 A2990 320 93 1400 000/00 RMK AO2 SLP150 T02330222
53988KBKB BKB20191011015511110/11/19 01:55:31  5-MIN KBKB 110755Z AUTO 00000KT 10SM OVC005 23/22 A2990 320 93 1400 000/00 RMK AO2 T02330222
53988KBKB BKB20191011020011110/11/19 02:00:31  5-MIN KBKB 110800Z AUTO VRB04KT 10SM OVC004 23/22 A2990 320 93 1400 VRB/04 RMK AO2 T02330222
53988KBKB BKB20191011020511110/11/19 02:05:31  5-MIN KBKB 110805Z AUTO VRB03KT 10SM OVC004 23/22 A2990 320 93 1400 VRB/03 RMK AO2 T02330222
53988KBKB BKB20191011020515610/11/19 02:05:31  5-MIN KBKB 110805Z AUTO VRB03KT 10SM OV5:31  5-MIN KBKB 110745Z AUTO VRB03KT 10SM OVC005 23/22 A2990 320 93 1400 VRB/03 RMK AO2 T02330222
53988KBKB BKB20191011021011110/11/19 02:10:31  5-MIN KBKB 110810Z AUTO VRB03KT 10SM OVC004 23/22 A2989 330 93 1400 VRB/03 RMK AO2 T02330222
53988KBKB BKB20191011021511110/11/19 02:15:31  5-MIN KBKB 110815Z AUTO VRB04KT 10SM OVC004 23/22 A2989 330 93 1400 VRB/04 RMK AO2 T02330222
53988KBKB BKB20191011021516310/11/19 02:15:31  5-MIN KBKB 110815Z AUTO VRB04KT 10SM OVC004 23/221  5-MIN KBKB 110755Z AUTO 00000KT 10SM OVC005 23/22 A2990 320 93 1400 000/00 RMK AO2 T02330222
53988KBKB BKB20191011022011010/11/19 02:20:31  5-MIN KBKB 110820Z AUTO VRB03KT 9SM OVC004 23/23 A2989 320 97 1400 VRB/03 RMK AO2 T02330228
53988KBKB BKB20191011022510010/11/19 02:25:31  5-MIN KBKB 110825Z AUTO 9SM OVC004 23/23 A2989 330 97 1400 M /M RMK AO2 T02330228
53988KBKB BKB20191011023011010/11/19 02:30:31  5-MIN KBKB 110830Z AUTO VRB04KT 8SM OVC004 23/23 A2989 330 97 1400 VRB/04 RMK AO2 T02330228
53988KBKB BKB20191011023511010/11/19 02:35:31  5-MIN KBKB 110835Z AUTO VRB04KT 8SM OVC003 23/23 A2989 330 97 1400 VRB/04 RMK AO2 T02330228
53988KBKB BKB20191011024011010/11/19 02:40:31  5-MIN KBKB 110840Z AUTO VRB03KT 7SM OVC003 23/23 A2989 320 97 1400 VRB/03 RMK AO2 T02330228
53988KBKB BKB20191011024511010/11/19 02:45:31  5-MIN KBKB 110845Z AUTO 00000KT 7SM OVC003 23/23 A2990 320 97 1400 000/00 RMK AO2 T02330228
53988KBKB BKB20191011025012310/11/19 02:50:31  5-MIN KBKB 110850Z AUTO 00000KT 7SM OVC003 24/23 A2990 320 93 1500 000/00 RMK AO2 SLP150 T02390228 52008
53988KBKB BKB20191011025511010/11/19 02:55:31  5-MIN KBKB 110855Z AUTO VRB03KT 7SM OVC003 24/23 A2990 310 93 1500 VRB/03 RMK AO2 T02390228
53988KBKB BKB20191011030011010/11/19 03:00:31  5-MIN KBKB 110900Z AUTO VRB03KT 8SM OVC003 24/23 A2990 310 93 1500 VRB/03 RMK AO2 T02390228
53988KBKB BKB20191011030511010/11/19 03:05:31  5-MIN KBKB 110905Z AUTO 00000KT 8SM OVC003 24/23 A2991 310 93 1500 000/00 RMK AO2 T02390228
53988KBKB BKB20191011031011010/11/19 03:10:31  5-MIN KBKB 110910Z AUTO 00000KT 8SM OVC003 24/23 A2991 310 93 1400 000/00 RMK AO2 T02390228
53988KBKB BKB20191011031511010/11/19 03:15:31  5-MIN KBKB 110915Z AUTO 00000KT 8SM OVC003 24/23 A2991 300 93 1400 000/00 RMK AO2 T02390228
53988KBKB BKB20191011032011010/11/19 03:20:31  5-MIN KBKB 110920Z AUTO 00000KT 8SM OVC003 24/23 A2992 300 93 1400 000/00 RMK AO2 T02390228
53988KBKB BKB20191011032511010/11/19 03:25:31  5-MIN KBKB 110925Z AUTO 00000KT 9SM OVC003 24/23 A2992 300 93 1400 000/00 RMK AO2 T02390228
53988KBKB BKB20191011033011010/11/19 03:30:31  5-MIN KBKB 110930Z AUTO 00000KT 9SM OVC004 24/23 A2992 300 93 1400 000/00 RMK AO2 T02390228
53988KBKB BKB20191011033511010/11/19 03:35:31  5-MIN KBKB 110935Z AUTO 00000KT 9SM OVC004 24/23 A2992 290 93 1400 000/00 RMK AO2 T02390228
53988KBKB BKB20191011034011010/11/19 03:40:31  5-MIN KBKB 110940Z AUTO 00000KT 9SM OVC005 24/23 A2993 290 93 1400 000/00 RMK AO2 T02390228
53988KBKB BKB20191011034511010/11/19 03:45:31  5-MIN KBKB 110945Z AUTO 00000KT 9SM OVC005 24/23 A2993 290 93 1400 000/00 RMK AO2 T02390228
53988KBKB BKB20191011035011710/11/19 03:50:31  5-MIN KBKB 110950Z AUTO 00000KT 9SM OVC005 24/23 A2993 290 93 1400 000/00 RMK AO2 SLP159 T02390228
53988KBKB BKB20191011035511010/11/19 03:55:31  5-MIN KBKB 110955Z AUTO 00000KT 9SM OVC005 24/23 A2993 290 93 1400 000/00 RMK AO2 T02390228
53988KBKB BKB20191011040011010/11/19 04:00:31  5-MIN KBKB 111000Z AUTO 00000KT 9SM OVC005 24/23 A2993 290 93 1400 000/00 RMK AO2 T02390228
53988KBKB BKB20191011040511010/11/19 04:05:31  5-MIN KBKB 111005Z AUTO 00000KT 9SM OVC004 24/23 A2993 290 93 1400 000/00 RMK AO2 T02390228
53988KBKB BKB20191011041011010/11/19 04:10:31  5-MIN KBKB 111010Z AUTO 00000KT 9SM OVC004 24/23 A2993 290 93 1400 000/00 RMK AO2 T02390228
53988KBKB BKB20191011041511010/11/19 04:15:31  5-MIN KBKB 111015Z AUTO 00000KT 9SM OVC004 24/23 A2994 280 93 1400 000/00 RMK AO2 T02390228
53988KBKB BKB20191011042011610/11/19 04:20:31  5-MIN KBKB 111020Z AUTO 00000KT 9SM OVC004 24/23 A2994 A2994 280 93 1500 000/00 RMK AO2 T02440233
53988KBKB BKB20191011053511310/11/19 05:35:31  5-MIN KBKB 111135Z AUTO 00000KT 5SM BR OVC004 24/23 A2995 270 97 1400 000/00 RMK AO2 T02390233
53988KBKB BKB20191011064011310/11/19 06:40:31  5-MIN KBKB 111240Z AUTO 00000KT 1SM BR OVC002 24/23 A2994 280 97 1400 000/00 RMK AO2 T02390233
53988KBKB BKB20191011064511510/11/19 06:45:31  5-MIN KBKB 111245Z AUTO 00000KT 3/4SM BR OVC002 23/23 A2994 280 97 1300 000/00 RMK AO2 T02330228
53988KBKB BKB20191011065012210/11/19 06:50:31  5-MIN KBKB 111250Z AUTO 00000KT 1/2SM FG OVC002 23/23 A2994 280 97 1300 000/00 RMK AO2 SLP166 T02330228
53988KBKB BKB20191011065511510/11/19 06:55:31  5-MIN KBKB 111255Z AUTO 00000KT 3/4SM BR OVC002 23/23 A2995 270 97 1300 000/00 RMK AO2 T02330228
53988KBKB BKB20191011070011310/11/19 07:00:31  5-MIN KBKB 111300Z AUTO 00000KT 1SM BR OVC002 23/23 A2995 270 97 1300 000/00 RMK AO2 T02330228
53988KBKB BKB20191011070511710/11/19 07:05:31  5-MIN KBKB 111305Z AUTO 00000KT 1 1/4SM BR OVC002 23/23 A2995 270 97 1300 000/00 RMK AO2 T02330228
53988KBKB BKB20191011071011710/11/19 07:10:31  5-MIN KBKB 111310Z AUTO 00000KT 1 3/4SM BR OVC002 23/23 A2995 270 97 1300 000/00 RMK AO2 T02330228
53988KBKB BKB20191011071511710/11/19 07:15:31  5-MIN KBKB 111315Z AUTO 00000KT 1 1/2SM BR OVC002 24/23 A2996 260 97 1400 000/00 RMK AO2 T02390233
53988KBKB BKB20191011072011310/11/19 07:20:31  5-MIN KBKB 111320Z AUTO 13003KT 1SM BR OVC002 23/23 A2996 260 97 1300 120/03 RMK AO2 T02330228
53988KBKB BKB20191011072511310/11/19 07:25:31  5-MIN KBKB 111325Z AUTO 00000KT 1SM BR OVC002 23/23 A2996 260 97 1300 000/00 RMK AO2 T02330228
53988KBKB BKB20191011073011710/11/19 07:30:31  5-MIN KBKB 111330Z AUTO 00000KT 1 1/4SM BR OVC002 24/23 A2996 260 97 1400 000/00 RMK AO2 T02390233
53988KBKB BKB20191011073511710/11/19 07:35:31  5-MIN KBKB 111335Z AUTO 00000KT 1 1/2SM BR OVC002 24/23 A2997 260 93 1400 000/00 RMK AO2 T02390228
53988KBKB BKB20191011074011710/11/19 07:40:31  5-MIN KBKB 111340Z AUTO 00000KT 1 1/4SM BR OVC002 24/23 A2996 260 93 1400 000/00 RMK AO2 T02390228
53988KBKB BKB20191011074511710/11/19 07:45:31  5-MIN KBKB 111345Z AUTO 00000KT 1 1/4SM BR OVC002 24/23 A2997 260 97 1400 000/00 RMK AO2 T02390233
53988KBKB BKB20191011075012410/11/19 07:50:31  5-MIN KBKB 111350Z AUTO 00000KT 1 3/4SM BR OVC002 24/23 A2997 250 93 1400 000/00 RMK AO2 SLP174 T02390228
53988KBKB BKB20191011075511310/11/19 07:55:31  5-MIN KBKB 111355Z AUTO VRB03KT 2SM BR OVC002 24/23 A2997 250 97 1400 VRB/03 RMK AO2 T02390233
53988KBKB BKB20191011080011310/11/19 08:00:31  5-MIN KBKB 111400Z AUTO 00000KT 3SM BR OVC002 24/23 A2997 250 97 1400 000/00 RMK AO2 T02390233
53988KBKB BKB20191011080517110/11/19 08:05:31  5-MIN KBKB 111405Z AUTO 00000KT 2 1/2SM BR OVC002 24/23 A2997 250 97 1400 000/00 RMK AO2 VIS 1 3/4V4 T02390233A2998 240 93 1400 000/00 RMK AO2 T02440233
53988KBKB BKB20191011083511310/11/19 08:35:31  5-MIN KBKB 111435Z AUTO 00000KT 6SM BR OVC003 24/23 A2998 240 93 1400 000/00 RMK AO2 T02440233
53988KBKB BKB20191011084011010/11/19 08:40:31  5-MIN KBKB 111440Z AUTO 00000KT 8SM OVC003 24/23 A2998 240 93 1400 000/00 RMK AO2 T02440233
53988KBKB BKB20191011084511010/11/19 08:45:31  5-MIN KBKB 111445Z AUTO 00000KT 8SM OVC003 25/23 A2999 240 90 1500 000/00 RMK AO2 T02500233
53988KBKB BKB20191011085012310/11/19 08:50:31  5-MIN KBKB 111450Z AUTO 00000KT 9SM OVC004 25/23 A2999 240 90 1500 000/00 RMK AO2 SLP180 T02500233 51014
53988KBKB BKB20191011085511110/11/19 08:55:31  5-MIN KBKB 111455Z AUTO VRB03KT 10SM OVC004 25/23 A2999 240 90 1500 VRB/03 RMK AO2 T02500233
53988KBKB BKB20191011090011110/11/19 09:00:31  5-MIN KBKB 111500Z AUTO 00000KT 10SM OVC005 25/23 A2999 240 90 1500 000/00 RMK AO2 T02500233
53988KBKB BKB20191011090506110/11/19 09:05:31  5-MIN KBKB 111505Z AUT00 RMK AO2 T02500233
53988KBKB BKB20191011093011110/11/19 09:30:31  5-MIN KBKB 111530Z AUTO 00000KT 10SM OVC006 26/23 A2998 240 87 1600 000/00 RMK AO2 T02560233
53988KBKB BKB20191011093511110/11/19 09:35:31  5-MIN KBKB 111535Z AUTO 00000KT 10SM OVC006 26/23 A2998 240 87 1600 000/00 RMK AO2 T02560233
53988KBKB BKB20191011094011110/11/19 09:40:31  5-MIN KBKB 111540Z AUTO 16003KT 10SM OVC006 26/23 A2998 240 87 1600 160/03 RMK AO2 T02560233
53988KBKB BKB20191011094511110/11/19 09:45:31  5-MIN KBKB 111545Z AUTO 00000KT 10SM OVC006 26/23 A2998 240 87 1600 000/00 RMK AO2 T02560233
53988KBKB BKB20191011095011810/11/19 09:50:31  5-MIN KBKB 111550Z AUTO 00000KT 10SM OVC007 26/23 A2998 240 87 1600 000/00 RMK AO2 SLP178 T02560233
53988KBKB BKB20191011095511110/11/19 09:55:31  5-MIN KBKB 111555Z AUTO 15003KT 10SM OVC007 26/23 A2998 240 87 1600 140/03 RMK AO2 T02560233
53988KBKB BKB20191011100011110/11/19 10:00:31  5-MIN KBKB 111600Z AUTO 21004KT 10SM OVC007 26/23 A2998 240 87 1600 210/04 RMK AO2 T02560233
53988KBKB BKB20191011100511110/11/19 10:05:31  5-MIN KBKB 111605Z AUTO 00000KT 10SM OVC007 26/23 A2999 240 87 1600 000/00 RMK AO2 T02560233
53988KBKB BKB20191011101011110/11/19 10:10:31  5-MIN KBKB 111610Z AUTO 00000KT 10SM OVC007 26/23 A2998 240 87 1600 000/00 RMK AO2 T02560233
53988KBKB BKB20191011101511110/11/19 10:15:31  5-MIN KBKB 111615Z AUTO VRB03KT 10SM OVC007 26/23 A2998 240 87 1600 VRB/03 RMK AO2 T02560233
53988KBKB BKB20191011102011110/11/19 10:20:31  5-MIN KBKB 111620Z AUTO 00000KT 10SM OVC007 26/23 A2998 240 87 1600 000/00 RMK AO2 T02560233
53988KBKB BKB20191011102511110/11/19 10:25:31  5-MIN KBKB 111625Z AUTO 00000KT 10SM OVC007 26/23 A2999 240 87 1600 000/00 RMK AO2 T02560233
53988KBKB BKB20191011103011110/11/19 10:30:31  5-MIN KBKB 111630Z AUTO 00000KT 10SM OVC007 26/23 A2998 240 87 1600 000/00 RMK AO2 T02560233
53988KBKB BKB20191011103512310/11/19 10:35:31  5-MIN KBKB 111635Z AUTO 00000KT 10SM OVC007 26/23 A2998 240 87 1600 000/00 RMK AO2 CIG 006V011 T02560233
53988KBKB BKB20191011104012310/11/19 10:40:31  5-MIN KBKB 111640Z AUTO 00000KT 10SM OVC007 26/23 A2998 240 87 1600 000/00 RMK AO2 CIG 006V012 T02560233
53988KBKB BKB20191011104512310/11/19 10:45:31  5-MIN KBKB 111645Z AUTO VRB03KT 10SM OVC007 26/23 A2998 240 87 1600 VRB/03 RMK AO2 CIG 006V012 T02560233
53988KBKB BKB20191011105013710/11/19 10:50:31  5-MIN KBKB 111650Z AUTO 00000KT 10SM BKN008 OVC017 26/23 A2998 240 87 1600 000/00 RMK AO2 CIG 006V012 SLP178 T02560233
53988KBKB BKB20191011105513510/11/19 10:55:31  5-MIN KBKB 111655Z AUTO VRB03KT 10SM -RA BKN008 BKN011 OVC015 26/23 A2998 240 87 1600 VRB/03 RMK AO2 P0000 T02560233
53988KBKB BKB20191011110013310/11/19 11:00:31  5-MIN KBKB 111700Z AUTO 00000KT 7SM RA BKN008 BKN011 OVC015 26/23 A2998 240 87 1600 000/00 RMK AO2 P0000 T02560233
53988KBKB BKB20191011110514110/11/19 11:05:31  5-MIN KBKB 111705Z AUTO 00000KT 6SM RA BR BKN008 OVC013 25/23 A2998 250 90 1500 000/00 RMK AO2 CIG 007V010 P0000 T02500233
53988KBKB BKB20191011111013810/11/19 11:10:31  5-MIN KBKB 111710Z AUTO 00000KT 7SM RA BKN010 OVC013 25/23 A2997 250 90 1500 000/00 RMK AO2 CIG 007V010 T02500233 PNO $
53988KBKB BKB20191011111519410/11/19 11:15:31  5-MIN KBKB 111715Z AUTO 00000KT 8SM RA BKN010 BKN014 OVC020 25/23 A2997 250 90 1500 000/00 RMK AO2 CIG 007V011 T02500233 PNO $93 800 M /M RMK AO2 CIG 005V011 P0000 T01940183 $
53988KBKB BKB20191011121014010/11/19 12:10:31  5-MIN KBKB 111810Z AUTO VRB05KT 9SM -RA BKN006 OVC010 19/18 A3003 190 93 700 VRB/05 RMK AO2 CIG 005V008 P0000 T01890178 $
53988KBKB BKB20191011121513110/11/19 12:15:31  5-MIN KBKB 111815Z AUTO VRB06KT 10SM BKN006 OVC010 18/17 A3003 200 93 700 VRB/06 RMK AO2 RAE13 P0000 T01830172 $
53988KBKB BKB20191011122014210/11/19 12:20:31  5-MIN KBKB 111820Z AUTO VRB05KT 9SM OTO VRB03KT 10SM CLR 19/16 A3002 210 81 800 VRB/03 RMK AO2 RAE01 SLP191 T01890156 PNO $
53988KBKB BKB20191011135511310/11/19 13:55:31  5-MIN KBKB 111955Z AUTO 35006KT 10SM CLR 18/15 A3002 210 81 700 340/06 RMK AO2 T01830150 PNO $
53988KBKB BKB20191011140011310/11/19 14:00:31  5-MIN KBKB 112000Z AUTO VRB04KT 10SM CLR 19/15 A3002 210 78 800 VRB/04 RMK AO2 T01890150 PNO $
53988KBKB BKB20191011140511110/11/19 14:05:31  5-MIN KBKB 112005Z AUTO VRB05KT 10SM CLR 19/16 A3A3002 200 70 900 VRB/04 RMK AO2 T02060150 $
53988KBKB BKB20191011154510610/11/19 15:45:31  5-MIN KBKB 112145Z AUTO VRB03KT 10SM 21/15 A3003 200 68 1000 VRB/03 RMK AO2 T02110150 $
53988KBKB BKB20191011155011710/11/19 15:50:31  5-MIN KBKB 112150Z AUTO VRB03KT 10SM CLR 22/15 A3003 200 65 1100 VRB/03 RMK AO2 SLP195 T02170150 $
53988KBKB BKB20191011155513510/11/19 15:55:31  5-MIN KBKB 112155Z AUTO VRB04KT 10SM CLR 22/14 A3003 190 63 1100 VRB/04 RMK AO2 T02170144 $10/11/19 16:IN(S) LISTED.
53988KBKB BKB20191012154511110/12/19 15:45:31  5-MIN KBKB 122145Z AUTO VRB03KT 10SM CLR 19/04 A3006 170 38 700 VRB/03 RMK AO2 T01890044 PNO
53988KBKB BKB20191012155011810/12/19 15:50:31  5-MIN KBKB 122150Z AUTO 00000KT 10SM CLR 18/05 A3006 160 41 600 000/00 RMK AO2 SLP209 T01830050 PNO
53988KBKB BKB20191012155511110/12/19 15:55:31  5-MIN KBKB 122155Z AUTO 00000KT 10SM CLR 18/05 A3006 170 41 600 000/00 RMK AO2 T01830050 PNO
53988KBKB BKB20191012160011110/12/19 16:00:31  5-MIN KBKB 122200Z AUTO 00000KT 10SM CLR 19/06 A3006 170 40 800 000/00 RMK AO2 T01940056 PNO
53988KBKB BKB20191012160511110/12/19 16:05:31  5-MIN KBKB 122205Z AUTO VRB03KT 10SM CLR 19/05 A3006 170 38 800 VRB/03 RMK AO2 T01940050 PNO
53988KBKB BKB20191012161011110/12/19 16:10:31  5-MIN KBKB 122210Z AUTO VRB03KT 10SM CLR 19/05 A3006 170 39 700 VRB/03 RMK AO2 T01890050 PNO
53988KBKB BKB20191012161511110/12/19 16:15:31  5-MIN KBKB 122215Z AUTO VRB04KT 10SM CLR 19/04 A3006 170 38 700 VRB/04 RMK AO2 T01890044 PNO
53988KBKB BKB20191012162011110/12/19 16:20:31  5-MIN KBKB 122220Z AUTO VRB04KT 10SM CLR 18/04 A3006 170 39 600 VRB/04 RMK AO2 T01830044 PNO
53988KBKB BKB20191012162511110/12/19 16:25:31  5-MIN KBKB 122225Z AUTO VRB03KT 10SM CLR 19/04 A3006 170 38 700 VRB/03 RMK AO2 T01890044 PNO
53988KBKB BKB20191012163011110/12/19 16:30:31  5-MIN KBKB 122230Z AUTO 00000KT 10SM CLR 19/05 A3006 170 39 700 000/00 RMK AO2 T01890050 PNO
53988KBKB BKB20191012163511110/12/19 16:35:31  5-MIN KBKB 122235Z AUTO VRB03KT 10SM CLR 18/05 A3006 170 41 600 VRB/03 RMK AO2 T01830050 PNO
53988KBKB BKB20191012164011110/12/19 16:40:31  5-MIN KBKB 122240Z AUTO 00000KT 10SM CLR 18/05 A3006 170 41 600 000/00 RMK AO2 T01830050 PNO
53988KBKB BKB20191012164511110/12/19 16:45:31  5-MIN KBKB 122245Z AUTO 00000KT 10SM CLR 18/06 A3006 170 44 600 000/00 RMK AO2 T01780056 PNO
53988KBKB BKB20191012165011810/12/19 16:50:31  5-MIN KBKB 122250Z AUTO 00000KT 10SM CLR 18/06 A3006 170 44 600 000/00 RMK AO2 SLP208 T01780056 PNO
53988KBKB BKB20191012165511110/12/19 16:55:31  5-MIN KBKB 122255Z AUTO 00000KT 10SM CLR 18/06 A3006 170 44 600 000/00 RMK AO2 T01780056 PNO
53988KBKB BKB20191012170011110/12/19 17:00:31  5-MIN KBKB 122300Z AUTO 00000KT 10SM CLR 18/06 A3007 160 46 600 000/00 RMK AO2 T01780061 PNO
53988KBKB BKB20191012170511110/12/19 17:05:31  5-MIN KBKB 122305Z AUTO 00000KT 10SM CLR 18/06 A3006 170 46 600 000/00 RMK AO2 T01780061 PNO
53988KBKB BKB20191012171011110/12/19 17:10:31  5-MIN KBKB 122310Z AUTO 00000KT 10SM CLR 18/06 A3006 170 46 600 000/00 RMK AO2 T01780061 PNO
53988KBKB BKB20191012171511110/12/19 17:15:31  5-MIN KBKB 122315Z AUTO 00000KT 10SM CLR 17/06 A3006 170 47 500 000/00 RMK AO2 T01720061 PNO
53988KBKB BKB20191012172011110/12/19 17:20:31  5-MIN KBKB 122320Z AUTO 00000KT 10SM CLR 17/06 A3006 170 47 500 000/00 RMK AO2 T01720061 PNO
53988KBKB BKB20191012172511110/12/19 17:25:31  5-MIN KBKB 122325Z AUTO 00000KT 10SM CLR 17/06 A3005 170 47 500 000/00 RMK AO2 T01720061 PNO
53988KBKB BKB20191012173011110/12/19 17:30:31  5-MIN KBKB 122330Z AUTO 00000KT 10SM CLR 17/06 A3005 170 49 500 000/00 RMK AO2 T01670061 PNO
53988KBKB BKB20191012173509510/12/19 17:35:31  5-MIN KBKB 122335Z AUTO 00000KT 10SM CLR 17/06 A300500 RMK AO2 T01330078 PNO
53988KBKB BKB20191012194011110/12/19 19:40:31  5-MIN KBKB 130140Z AUTO 00000KT 10SM CLR 13/08 A3005 180 69 100 000/00 RMK AO2 T01330078 PNO
53988KBKB BKB20191012194511110/12/19 19:45:31  5-MIN KBKB 130145Z AUTO 00000KT 10SM CLR 13/08 A3005 180 69 100 000/00 RMK AO2 T01330078 PNO
53988KBKB BKB20191012195011810/12/19 19:50:31  5-MIN KBKB 130150Z AUTO 00000KT 10SM CLR 13/08 A3005 180 69 100 000/00 RMK AO2 SLP206 T01330078 PNO
53988KBKB BKB20191012195511110/12/19 19:55:31  5-MIN KBKB 130155Z AUTO 00000KT 10SM CLR 13/07 A3005 180 66 100 000/00 RMK AO2 T01330072 PNO
53988KBKB BKB20191012200010910/12/19 20:00:31  5-MIN KBKB 130200Z AUTO 00000KT 10SM CLR 13/07 A3005 180 69 0 000/00 RMK AO2 T01280072 PNO
53988KBKB BKB20191012200510910/12/19 20:05:31  5-MIN KBKB 130205Z AUTO 00000KT 10SM CLR 13/08 A3005 180 71 0 000/00 RMK AO2 T01280078 PNO
53988KBKB BKB20191012201010910/12/19 20:10:31  5-MIN KBKB 130210Z AUTO 00000KT 10SM CLR 13/08 A3004 180 71 0 000/00 RMK AO2 T01280078 PNO
53988KBKB BKB20191012201510910/12/19 20:15:31  5-MIN KBKB 130215Z AUTO 00000KT 10SM CLR 12/08 A3004 180 74 0 000/00 RMK AO2 T01220078 PNO
53988KBKB BKB20191012202010910/12/19 20:20:31  5-MIN KBKB 130220Z AUTO 00000KT 10SM CLR 13/08 A3004 190 71 0 000/00 RMK AO2 T01280078 PNO
53988KBKB BKB20191012202510910/12/19 20:25:31  5-MIN KBKB 130225Z AUTO 00000KT 10SM CLR 13/07 A3005 180 69 0 000/00 RMK AO2 T01280072 PNO
53988KBKB BKB20191012203007010/12/19 20:30:31  5-MIN KBKB 130230Z AUTO 00000KT T01280083 58005 PNO
53988KBKB BKB20191012205510910/12/19 20:55:31  5-MIN KBKB 130255Z AUTO 00000KT 10SM CLR 13/08 A3004 190 71 0 000/00 RMK AO2 T01280078 PNO
53988KBKB BKB20191012210010910/12/19 21:00:31  5-MIN KBKB 130300Z AUTO 00000KT 10SM CLR 12/08 A3003 190 74 0 000/00 RMK AO2 T01220078 PNO
53988KBKB BKB20191012210510910/12/19 21:05:31  5-MIN KBKB 130305Z AUTO 00000KT 10SM CLR 12/08 A3003 200 74 0 000/00 RMK AO2 T01220078 PNO
53988KBKB BKB20191012211011910/12/19 21:10:31  5-MIN KBKB 130310Z AUTO 00000KT 10SM CLR 12/08 A3002 210 77 -100 000/00 RMK AO2 SLP193 T01170078 PNO
53988KBKB BKB20191012225511210/12/19 22:55:31  5-MIN KBKB 130455Z AUTO 00000KT 10SM CLR 12/08 A3002 200 77 -100 000/00 RMK AO2 T01170078 PNO
53988KBKB BKB20191012230011210/12/19 23:00:31  5-MIN KBKB 130500Z AUTO 00000KT 10SM CLR 12/08 A3002 200 77 -100 000/00 RMK AO2 T01170078 PNO
53988KBKB BKB20191012230511210/12/19 23:05:31  5-MIN KBKB 130505Z AUTO 00000KT 10SM CLR 12/08 A3002 210 89 -300 000/00 RMK AO2 T01000083 PNO
53988KBKB BKB20191013013511210/13/19 01:35:31  5-MIN KBKB 130735Z AUTO 00000KT 10SM CLR 10/08 A3004 190 89 -300 000/00 RMK AO2 T01000083 PNO
53988KBKB BKB20191013014011210/13/19 01:40:31  5-MIN KBKB 130740Z AUTO 00000KT 10SM CLR 10/08 A3004 190 89 -300 000/00 RMK AO2 T01000083 PNO
53988KBKB BKB20191013014513910/13/19 01:45:31  5-MIN KBKB 130745Z AUTO 00000KT 10SM CLR 10/08 A30 00000KT 10SM CLR 10/08 A3003 200 89 -300 000/00 RMK AO2 T01000083 PNO
53988KBKB BKB20191013023511210/13/19 02:35:31  5-MIN KBKB 130835Z AUTO 00000KT 10SM CLR 10/08 A3003 200 86 -300 000/00 RMK AO2 T01000078 PNO
53988KBKB BKB20191013024011210/13/19 02:40:31  5-MIN KBKB 130840Z AUTO 00000KT 10SM CLR 10/08 A3003 200 89 -300 000/00 RMK AO2 T01000083 PNO
53988KBKB BKB20191013024512710/13/19 02:45:31  5-MIN KBKB 130845Z AUTO 00000KT 10SM CLR 10/08 A3002 200 89 -300 000/00 RMK AO2 T01/00 RMK AO2 T01060083 PNO
53988KBKB BKB20191013093511110/13/19 09:35:31  5-MIN KBKB 131535Z AUTO 00000KT 10SM CLR 16/08 A3008 150 59 400 000/00 RMK AO2 T01610083 PNO
53988KBKB BKB20191013094011110/13/19 09:40:31  5-MIN KBKB 131540Z AUTO 00000KT 10SM CLR 16/09 A3008 150 62 400 000/00 RMK AO2 T01610089 PNO
53988KBKB BKB20191013094511110/13/19 09:45:31  5-MIN KBKB 131545Z AUTO 00000KT 10SM CLR 16/09 A3008 150 62 400 000/00 RMK AO2 T01610089 PNO
53988KBKB BKB20191013095012110/13/19 09:50:31  5-MIN KBKB 131550Z AUTO 00000KT 10SM FEW080 16/09 A3008 150 62 400 000/00 RMK AO2 SLP214 T01610089 PNO
53988KBKB BKB20191013095511410/13/19 09:55:31  5-MIN KBKB 131555Z AUTO 00000KT 10SM SCT080 17/09 A3008 150 60 400 000/00 RMK AO2 T01670089 PNO
53988KBKB BKB20191013100012610/13/19 10:00:31  5-MIN KBKB 131600Z AUTO 00000KT 10SM -RA BKN080 17/09 A3008 150 57 500 000/00 RMK AO2 RAB1557 T01720089 PNO
53988KBKB BKB20191013100512510/13/19 10:05:31  5-MIN KBKB 131605Z AUTO 00000KT 10SM BKN080 17/09 A3008 150 60 400 000/00 RMK AO2 RAB1557E03 T01670089 PNO
53988KBKB BKB20191013101012510/13/19 10:10:31  5-MIN KBKB 131610Z AUTO VRB03KT 10SM SCT080 17/09 A3008 150 57 500 VRB/03 RMK AO2 RAB1557E03 T01720089 PNO
53988KBKB BKB20191013101512510/13/19 10:15:31  5-MIN KBKB 131615Z AUTO VRB03KT 10SM SCT080 17/09 A3008 150 57 500 VRB/03 RMK AO2 RAB1557E03 T01720089 PNO
53988KBKB BKB20191013102012510/13/19 10:20:31  5-MIN KBKB 131620Z AUTO 00000KT 10SM SCT080 18/09 A3008 150 55 600 000/00 RMK AO2 RAB1557E03 T01780089 PNO
53988KBKB BKB20191013102513110/13/19 10:25:31  5-MIN KBKB 131625Z AUTO VRB04KT 10SM RA SCT080 18/09 A3008 150 56 600 VRB/04 RMK AO2 RAB1557E03B25 T01830094 PNO
53988KBKB BKB20191013103013210/13/19 10:30:31  5-MIN KBKB 131630Z AUTO 00000KT 10SM -RA SCT080 18/09 A3008 150 54 600 000/00 RMK AO2 RAB1557E03B25 T01830089 PNO
53988KBKB BKB20191013103513110/13/19 10:35:31  5-MIN KBKB 131635Z AUTO 00000KT 10SM BKN080 19/09 A3007 160 52 700 000/00 RMK AO2 RAB1557E03B25E35 T01890089 PNO
53988KBKB BKB20191013104013110/13/19 10:40:31  5-MIN KBKB 131640Z AUTO 00000KT 10SM SCT080 19/09 A3007 160 50 800 000/00 RMK AO2 RAB1557E03B25E35 T01940089 PNO
53988KBKB BKB20191013104513110/13/19 10:45:31  5-MIN KBKB 131645Z AUTO 01004KT 10SM SCT080 19/09 A3007 160 50 800 360/04 RMK AO2 RAB1557E03B25E35 T01940089 PNO
53988KBKB BKB20191013105013810/13/19 10:50:31  5-MIN KBKB 131650Z AUTO 00000KT 10SM SCT080 19/09 A3007 160 50 800 000/00 RMK AO2 RAB1557E03B25E35 SLP211 T01940089 PNO
53988KBKB BKB20191013105511410/13/19 10:55:31  5-MIN KBKB 131655Z AUTO VRB03KT 10SM SCT080 19/09 A3007 160 50 800 VRB/03 RMK AO2 T01940089 PNO
53988KBKB BKB20191013110011410/13/19 11:00:31  5-MIN KBKB 131700Z AUTO 00000KT 10SM FEW080 20/09 A3007 160 48 800 000/00 RMK AO2 T02000089 PNO
53988KBKB BKB20191013110511410/13/19 11:05:31  5-MIN KBKB 131705Z AUTO VRB03KT 10SM FEW080 19/09 A3007 160 50 800 VRB/03 RMK AO2 T01940089 PNO
53988KBKB BKB20191013111011410/13/19 11:10:31  5-MIN KBKB 131710Z AUTO 00000KT 10SM SCT080 20/09 A3007 160 48 800 000/00 RMK AO2 T02000089 PNO
53988KBKB BKB20191013111511410/13/19 11:15:31  5-MIN KBKB 131715Z AUTO VRB04KT 10SM BKN080 20/09 A3007 160 48 800 VRB/04 RMK AO2 T02000089 PNO
53988KBKB BKB20191013112006610/13/19 11:20:31  5-MIN KBKB 131720Z VRB/04 RMK AO2 T02280083 PNO
53988KBKB BKB20191013131512110/13/19 13:15:31  5-MIN KBKB 131915Z AUTO VRB03KT 10SM RA CLR 23/08 A3000 220 39 1200 VRB/03 RMK AO2 RAB12 T02280083 PNO
53988KBKB BKB20191013132012210/13/19 13:20:31  5-MIN KBKB 131920Z AUTO 00000KT 10SM -RA CLR 23/08 A3000 220 38 1300 000/00 RMK AO2 RAB12 T02330083 PNO
53988KBKB BKB20191013132512410/13/19 13:25:31  5-MIN KBKB 131925Z AUTO 00000KT 10SM FEW080 23/08 A3000 220 38 1300 000/00 RMK AO2 RAB12E22 T02330083 PNO
53988KBKB BKB20191013133012410/13/19 13:30:31  5-MIN KBKB 131930Z AUTO VRB05KT 10SM SCT080 23/08 A3000 230 38 1300 VRB/05 RMK AO2 RAB12E22 T02330083 PNO
53988KBKB BKB20191013133512410/13/19 13:35:31  5-MIN KBKB 131935Z AUTO 33005KT 10SM BKN075 24/08 A2999 230 35 1400 320/05 RMK AO2 RAB12E22 T02440083 PNO
53988KBKB BKB20191013134015210/13/19 13:40:31  5-MIN KBKB 131940Z AUTO 00000KT 10SM BKN075 24/08 A2999 230 34 1400 000/00 RMK AO2 RAB12E22 T02440078400 000/00 RMK AO2 T02440083 PNO
53988KBKB BKB20191013150011510/13/19 15:00:31  5-MIN KBKB 132100Z AUTO VRB04KT 10SM FEW075 24/09 A2999 230 36 1400 VRB/04 RMK AO2 T02440089 PNO
53988KBKB BKB20191013150511510/13/19 15:05:31  5-MIN KBKB 132105Z AUTO 03004KT 10SM FEW075 23/08 A2999 230 38 1300 030/04 RMK AO2 T02330083 PNO
53988KBKB BKB20191013151012610/13/19 15:10:31  5-MIN KBKB 132110Z AUTO 00000KT 10SM CLR 24/09 A2999 240 36 1400 000/00 RMK AO2 T02440089 PNO1002000100 PNO
53988KBKB BKB20191013182011910/13/19 18:20:31  5-MIN KBKB 140020Z AUTO 00000KT 10SM CLR 20/09 A3000 220 50 900 000/00 RMK AO2 RAE2357 T02000094 PNO
53988KBKB BKB20191013182511910/13/19 18:25:31  5-MIN KBKB 140025Z AUTO 00000KT 10SM CLR 20/10 A3000 230 52 900 000/00 RMK AO2 RAE2357 T02000100 PNO
53988KBKB BKB20191013183011910/13/19 18:30:31  5-MIN KBKB 140030Z AUTO 00000KT 10SM CLR 19/10 A3000 230 54 800 000/00 RMK AO2 RAE2357 T01940100 PNO
53988KBKB BKB20191013183511910/13/19 18:35:31  5-MIN KBKB 140035Z AUTO 00000KT 10SM CLR 19/10 A3000 230 54 800 000/00 RMK AO2 RAE2357 T01940100 PNO
53988KBKB BKB20191013184011910/13/19 18:40:31  5-MIN KBKB 140040Z AUTO 00000KT 10SM CLR 20/10 A3000 230 52 900 000/00 RMK AO2 RAE2357 T02000100 PNO
53988KBKB BKB20191013184511910/13/19 18:45:31  5-MIN KBKB 140045Z AUTO 00000KT 10SM CLR 20/10 A3000 230 52 900 000/00 RMK AO2 RAE2357 T02000100 PNO
53988KBKB BKB20191013185012610/13/19 18:50:31  5-MIN KBKB 140050Z AUTO 00000KT 10SM CLR 20/10 A3000 220 52 900 000/00 RMK AO2 RAE2357 SLP187 T02000100 PNO
53988KBKB BKB20191013185511110/13/19 18:55:31  5-MIN KBKB 140055Z AUTO 00000KT 10SM CLR 19/11 A3000 220 56 800 000/00 RMK AO2 T01940106 PNO
53988KBKB BKB20191013190011110/13/19 19:00:31  5-MIN KBKB 140100Z AUTO 00000KT 10SM CLR 19/10 A3001 220 54 800 000/00 RMK AO2 T01940100 PNO
53988KBKB BKB20191013190516710/13/19 19:05:31  5-MIN KBKB 140105Z AUTO 00000KT 10SM FEW120 19/09 A3001 220 52 800 000/00 RMK AO20000KT 10SM CLR 18/11 A3001 210 60 700 000/00 RMK AO2 T01830106 PNO
53988KBKB BKB20191013194511110/13/19 19:45:31  5-MIN KBKB 140145Z AUTO 00000KT 10SM CLR 18/11 A3001 220 60 700 000/00 RMK AO2 T01830106 PNO
53988KBKB BKB20191013195011810/13/19 19:50:31  5-MIN KBKB 140150Z AUTO 00000KT 10SM CLR 18/10 A3001 210 58 700 000/00 RMK AO2 SLP192 T01830100 PNO
53988KBKB BKB20191013195511410/13/19 19:55:31  5-MIN KBKB 140155Z AUTO 00000KT 10SM CLR 18/11 A3002 210210 75 600 000/00 RMK AO2 T01720128 PNO
53988KBKB BKB20191013213011410/13/19 21:30:31  5-MIN KBKB 140330Z AUTO 00000KT 10SM SCT065 17/12 A3002 210 72 600 000/00 RMK AO2 T01720122 PNO
53988KBKB BKB20191014235511910/14/19 23:55:31  5-MIN KBKB 150555Z AUTO 00000KT 5SM BR OVC004 21/21 A2998 240 97 1000 000/00 RMK AO2 T02110206 PNO $
53988KBKB BKB20191015000012610/15/19 00:00:31  5-MIN KBKB 150600Z AUTO 00000KT 5SM BR BKN004 OVC043 21/21 A2998 240 97 1000 000/00 RMK AO2 T02110206 PNO $
53988KBKB BKB20191015000513810/15/19 00:05:31  5-MIN KBKB 150605Z AUTO 00000KT 6SM BR BKN004 OVC007 21/21 A2998 240 97 1000 000/00 RMK AO2 CIG 003V007 T02110206 PNO $
53988KBKB BKB20191015001014110/15/19 00:10:31  5-MIN KBKB 150610Z AUTO 00000KT 6SM -RA BR OVC004 21/21 A2998 240 97 1100 000/00 RMK AO2 RAB07 CIG 003V008 T02110206 PNO $
53988KBKB BKB20191015001513710/15/19 00:15:31  5-MIN KBKB 150615Z AUTO 00000KT 7SM OVC006 21/21 A2998 240 97 1100 000/00 RMK AO2 RAB07E15 CIG 003V008 T02110206 PNO $
53988KBKB BKB20191015002013710/15/19 00:20:31  5-MIN KBKB 150620Z AUTO 00000KT 7SM OVC006 21/21 A2998 240 97 1100 000/00 RMK AO2 RAB07E15 CIG 003V008 T02110206 PNO $
53988KBKB BKB20191015002514010/15/19 00:25:31  5-MIN KBKB 150625Z AUTO 00000KT 6SM BR OVC005 21/21 A2998 240 97 1100 000/00 RMK AO2 RAB07E15 CIG 003V008 T02110206 PNO $
53988KBKB BKB20191015003013710/15/19 00:30:31  5-MIN KBKB 150630Z AUTO VRB03KT 7SM OVC005 21/21 A2998 240 97 1100 VRB/03 RMK AO2 RAB07E15 CIG 003V008 T02110206 PNO $
53988KBKB BKB20191015003514010/15/19 00:35:31  5-MIN KBKB 150635Z AUTO 00000KT 6SM BR OVC005 21/21 A2998 250 97 1100 000/00 RMK AO2 RAB07E15 CIG 003V008 T02110206 PNO $
53988KBKB BKB20191015004012810/15/19 00:40:31  5-MIN KBKB 150640Z AUTO 00000KT 5SM BR OVC005 21/21 A2997 250 97 1100 000/00 RMK AO2 RAB07E15 T02110206 PNO $
53988KBKB BKB20191015004514010/15/19 00:45:31  5-MIN KBKB 150645Z AUTO 00000KT 5SM BR OVC005 21/21 A2997 250 97 1100 000/00 RMK AO2 RAB07E15 CIG 003V007 T02110206 PNO $
53988KBKB BKB20191015005013510/15/19 00:50:31  5-MIN KBKB 150650Z AUTO 00000KT 6SM BR OVC005 21/21 A2997 250 97 1100 000/00 RMK AO2 RAB07E15 SLP176 T02110206 PNO $
53988KBKB BKB20191015005511910/15/19 00:55:31  5-MIN KBKB 150655Z AUTO VRB03KT 6SM BR OVC005 21/21 A2997 250 97 1100 VRB/03 RMK AO2 T02110206 PNO $
53988KBKB BKB20191015010023010/15/19 01:00:31  5-MIN KBKB 150700Z AUTO 00000KT 6SM BR OVC005 21/21 A2997 260 97 1100 000/00 RMK AO2 CIG 003V008 T02110206 PNO $10/15/BKB 150855Z AUTO 00000KT 4SM BR OVC003 21/21 A2995 270 97 1100 000/00 RMK AO2 T02110206 PNO $
53988KBKB BKB20191015030011910/15/19 03:00:31  5-MIN KBKB 150900Z AUTO 00000KT 4SM BR OVC003 21/21 A2995 270 97 1100 000/00 RMK AO2 T02110206 PNO $
53988KBKB BKB20191015030511910/15/19 03:05:31  5-MIN KBKB 150905Z AUTO 00000KT 4SM BR OVC003 21/21 A2995 270 97 1100 000/00 RMK AO2 T02110206 PNO $
53988KBKB BKB20191015031011910/15/19 03:10:31  5-MIN KBKB 150910Z AUTO 00000KT 4SM BR OVC003 21/21 A2995 270 97 1100 000/00 RMK AO2 T02110206 PNO $
53988KBKB BKB20191015031511910/15/19 03:15:31  5-MIN KBKB 150915Z AUTO 00000KT 3SM BR OVC003 22/21 A2995 270 93 1200 000/00 RMK AO2 T02170206 PNO $
53988KBKB BKB20191015032011910/15/19 03:20:31  5-MIN KBKB 150920Z AUTO 00000KT 3SM BR OVC003 21/21 A2994 280 97 1100 000/00 RMK AO2 T02110206 PNO $
53988KBKB BKB20191015032511910/15/19 03:25:31  5-MIN KBKB 150925Z AUTO 00000KT 3SM BR OVC002 21/21 A2994 280 97 1100 000/00 RMK AO2 T02110206 PNO $
53988KBKB BKB20191015033011910/15/19 03:30:31  5-MIN KBKB 150930Z AUTO VRB03KT 3SM BR OVC002 21/21 A2994 280 97 1100 VRB/03 RMK AO2 T02110206 PNO $
53988KBKB BKB20191015033512310/15/19 03:35:31  5-MIN KBKB 150935Z AUTO VRB03KT 2 1/2SM BR OVC002 21/21 A2994 280 97 1100 VRB/03 RMK AO2 T02110206 PNO $
53988KBKB BKB20191015034016210/15/19 03:40:31  5-MIN KBKB 150940Z AUTO 00000KT 2SM BR OVC002 21/21 A2994 280 97 1100 000/00 RMK AO2 T02110206 PNO $ 280 97 1100 VRB/03 RMK AO2 T02110206 PNO $
53988KBKB BKB20191015041012010/15/19 04:10:31  5-MIN KBKB 151010Z AUTO 00000KT 3/4SM BR VV002 21/21 A2994 280 97 1100 000/00 RMK AO2 T02110206 PNO $
53988KBKB BKB20191015041512010/15/19 04:15:31  5-MIN KBKB 151015Z AUTO 00000KT 3/4SM BR VV002 21/21 A2994 280 97 1100 000/00 RMK AO2 T02110206 PNO $
53988KBKB BKB20191015042012010/15/19 04:20:31  5-MIN KBKB 151020Z AUTO 00000KT 3/4SM BR VV002 21/21 A2994 280 97 1100 000/00 RMK AO2 T02110206 PNO $
53988KBKB BKB20191015042512110/15/19 04:25:31  5-MIN KBKB 151025Z AUTO 00000KT 3/4SM BR VV002 21/21 A2994 280 100 1100 000/00 RMK AO2 T02110211 PNO $
53988KBKB BKB20191015043012110/15/19 04:30:31  5-MIN KBKB 151030Z AUTO 00000KT 3/4SM BR VV002 21/21 A2994 280 100 1100 000/00 RMK AO2 T02110211 PNO $
53988KBKB BKB20191015043512110/15/19 04:35:31  5-MIN KBKB 151035Z AUTO VRB03KT 3/4SM BR VV002 21/21 A2994 280 100 1100 VRB/03 RMK AO2 T02110211 PNO $
53988KBKB BKB20191015044012110/15/19 04:40:31  5-MIN KBKB 151040Z AUTO 00000KT 1/2SM FG VV002 21/21 A2994 280 100 1100 000/00 RMK AO2 T02110211 PNO $
53988KBKB BKB20191015044512110/15/19 04:45:31  5-MIN KBKB 151045Z AUTO 00000KT 1/2SM FG VV002 21/21 A2995 270 100 1100 000/00 RMK AO2 T02110211 PNO $
53988KBKB BKB20191015045012810/15/19 04:50:31  5-MIN KBKB 151050Z AUTO 00000KT 1/2SM FG VV002 21/21 A2995 270 100 1100 000/00 RMK AO2 SLP167 T02110211 PNO $
53988KBKB BKB20191015045512110/15/19 04:55:31  5-MIN KBKB 151055Z AUTO 00000KT 1/2SM FG VV002 21/21 A2995 270 100 1100 000/00 RMK AO2 T02110211 PNO $
53988KBKB BKB20191015050012110/15/19 05:00:31  5-MIN KBKB 151100Z AUTO 00000KT 1/2SM FG VV002 21/21 A2995 270 100 1100 000/00 RMK AO2 T02110211 PNO $
53988KBKB BKB20191015050512110/15/19 05:05:31  5-MIN KBKB 151105Z AUTO 00000KT 1/2SM FG VV002 21/21 A2994 280 100 1100 000/00 RMK AO2 T02110211 PNO $
53988KBKB BKB20191015051012110/15/19 05:10:31  5-MIN KBKB 151110Z AUTO VRB03KT 1/2SM FG VV002 21/21 A2994 280 100 1100 VRB/03 RMK AO2 T02110211 PNO $
53988KBKB BKB20191015051512110/15/19 05:15:31  5-MIN KBKB 151115Z AUTO 00000KT 1/2SM FG VV002 21/21 A2994 280 100 1100 000/00 RMK AO2 T02110211 PNO $
53988KBKB BKB20191015052011910/15/19 05:20:31  5-MIN KBKB 151120Z AUTO 00000KT 1/2SM FG VV002 21/21 A2994 280 100 1100 000/00 RMK AO2 T02110211 PNO
53988KBKB BKB20191015052511910/15/19 05:25:31  5-MIN KBKB 151125Z AUTO 00000KT 1/2SM FG VV002 21/21 A2994 280 100 1100 000/00 RMK AO2 T02110211 PNO
53988KBKB BKB20191015053011810/15/19 05:30:31  5-MIN KBKB 151130Z AUTO VRB03KT 1/2SM FG VV002 22/21 A2994 280 97 1200 VRB/03 RMK AO2 T02170211 PNO
53988KBKB BKB20191015053511810/15/19 05:35:31  5-MIN KBKB 151135Z AUTO VRB03KT 1/2SM FG VV002 22/21 A2994 280 97 1200 VRB/03 RMK AO2 T02170211 PNO
53988KBKB BKB20191015054011810/15/19 05:40:31  5-MIN KBKB 151140Z AUTO 00000KT 1/2SM FG VV002 22/21 A2994 280 97 1200 000/00 RMK AO2 T02170211 PNO
53988KBKB BKB20191015054511810/15/19 05:45:31  5-MIN KBKB 151145Z AUTO 00000KT 1/2SM FG VV002 22/21 A2993 290 97 1200 000/00 RMK AO2 T02170211 PNO
53988KBKB BKB20191015055015510/15/19 05:50:31  5-MIN KBKB 151150Z AUTO 00000KT 1/2SM FG VV002 22/21 A2993 290 97 1200 000/00 RMK AO2 SLP161 6//// 7//// T02170211 10217 20211 56011 PNO
53988KBKB BKB20191015055514910/15/19 05:55:31  5-MIN KBKB 151155Z AUTO 00000KT 1/2SM FG VV002 22/21 A2993 290 97 1200 000/00 RMK AO2 T021702197 1300 000/00 RMK AO2 T02280222 PNO
53988KBKB BKB20191015081511810/15/19 08:15:31  5-MIN KBKB 151415Z AUTO 00000KT 1/4SM FG VV002 23/22 A2995 270 97 1300 000/00 RMK AO2 T02280222 PNO
53988KBKB BKB20191015082011810/15/19 08:20:31  5-MIN KBKB 151420Z AUTO 00000KT 1/4SM FG VV002 23/22 A2995 270 97 1300 000/00 RMK AO2 T02280222 PNO
53988KBKB BKB20191015082511810/15/19 08:25:31  5-MIN KBKB 151425Z AUTO 00000KT 1/4SM FG VV002 23/22 A2995 270 97 1300 000/00 RMK AO2 T02280222 PNO
53988KBKB BKB20191015083011810/15/19 08:30:31  5-MIN KBKB 151430Z AUTO VRB03KT 1/2SM FG VV002 23/22 A2995 270 97 1300 VRB/03 RMK AO2 T02280222 PNO
53988KBKB BKB20191015083511810/15/19 08:35:31  5-MIN KBKB 151435Z AUTO VRB04KT 1/2SM FG VV002 23/22 A2995 270 97 1300 VRB/04 RMK AO2 T02280222 PNO
53988KBKB BKB20191015084016510/15/19 08:40:31  5-MIN KBKB 151440Z AUTO VRB03KT 3/4SM BR VV002 23/23 A2995 270 100 1300 VRB/03 RMK AO2 T02280228 PNOA2995 270 97 1400 VRB/04 RMK AO2 T02390233 PNO
53988KBKB BKB20191015084511610/15/19 08:45:31  5-MIN KBKB 151445Z AUTO 00000KT 1SM BR VV002 23/23 A2995 270 97 1300 000/00 RMK AO2 T02330228 PNO
53988KBKB BKB20191015085013710/15/19 08:50:31  5-MIN KBKB 151450Z AUTO 00000KT 3/4SM BR VV002 23/23 A2995 270 97 1300 000/00 RMK AO2 SLP168 6//// T02330228 58007 PNO
53988KBKB BKB20191015085511810/15/19 08:55:31  5-MIN KBKB 151455Z AUTO 00000KT 3/4SM BR VV002 23/23 A2995 270 97 1300 000/00 RMK AO2 T02330228 PNO
53988KBKB BKB20191015090011810/15/19 09:00:31  5-MIN KBKB 151500Z AUTO 00000KT 3/4SM BR VV002 23/23 A2995 270 97 1300 000/00 RMK AO2 T02330228 PNO
53988KBKB BKB20191015090512110/15/19 09:05:31  5-MIN KBKB 151505Z AUTO VRB03KT 1 1/4SM BR OVC002 23/23 A2995 270 97 1300 VRB/03 RMK AO2 T02330228 PNO
53988KBKB BKB20191015091011710/15/19 09:10:31  5-MIN KBKB 151510Z AUTO 00000KT 2SM BR OVC002 23/23 A2995 270 97 1300 000/00 RMK AO2 T02330228 PNO
53988KBKB BKB20191015091511710/15/19 09:15:31  5-MIN KBKB 151515Z AUTO 22003KT 3SM BR OVC002 24/23 A2995 280 97 1400 210/03 RMK AO2 T02390233 PNO
53988KBKB BKB20191015092011710/15/19 09:20:31  5-MIN KBKB 151520Z AUTO VRB03KT 5SM BR OVC002 24/23 A2995 270 97 1400 VRB/03 RMK AO2 T02390233 PNO
53988KBKB BKB20191015092511710/15/19 09:25:31  5-MIN KBKB 151525Z AUTO VRB04KT 6SM BR OVC002 24/23 A2995 270 97 1400 VRB/04 RMK AO2 T02390233 PNO
53988KBKB BKB20191015093011710/15/19 09:30:31  5-MIN KBKB 151530Z AUTO 00000KT 5SM BR OVC002 24/23 A2995 270 97 1400 000/00 RMK AO2 T02390233 PNO
53988KBKB BKB20191015093511710/15/19 09:35:31  5-MIN KBKB 151535Z AUTO 00000KT 5SM BR OVC003 24/23 A2995 270 97 1400 000/00 RMK AO2 T02390233 PNO
53988KBKB BKB20191015094011710/15/19 09:40:31  5-MIN KBKB 151540Z AUTO 00000KT 5SM BR OVC003 24/24 A2995 270 97 1500 000/00 RMK AO2 T02440239 PNO
53988KBKB BKB20191015094018010/15/19 09:40:31  5-MIN KBKB 151540Z AUTO 00000KT 5SM BR 280 97 150/15/19 10:25:31  5-MIN KBKB 151625Z AUTO 00000KT 7SM OVC004 25/24 A2994 280 93 1500 000/00 RMK AO2 T02500239 PNO
53988KBKB BKB20191015094511710/15/19 09:45:31  5-MIN KBKB 151545Z AUTO 20004KT 4SM BR OVC003 24/24 A2995 270 97 1500 200/04 RMK AO2 T02440239 PNO
53988KBKB BKB20191015095012410/15/19 09:50:31  5-MIN KBKB 151550Z AUTO VRB03KT 5SM BR OVC003 24/24 A2994 280 97 1500 VRB/03 RMK AO2 SLP165 T02440239 PNO
53988KBKB BKB20191015095511710/15/19 09:55:31  5-MIN KBKB 151555Z AUTO VRB05KT 5SM BR OVC003 24/24 A2994 280 97 1500 VRB/05 RMK AO2 T02440239 PNO
53988KBKB BKB20191015100011710/15/19 10:00:31  5-MIN KBKB 151600Z AUTO VRB03KT 6SM BR OVC003 24/24 A2994 280 97 1500 VRB/03 RMK AO2 T02440239 PNO
53988KBKB BKB20191015100511710/15/19 10:05:31  5-MIN KBKB 151605Z AUTO 00000KT 6SM BR OVC003 24/24 A2994 280 97 1500 000/00 RMK AO2 T02440239 PNO
53988KBKB BKB20191015101011710/15/19 10:10:31  5-MIN KBKB 151610Z AUTO VRB04KT 6SM BR OVC003 24/24 A2994 280 97 1500 VRB/04 RMK AO2 T02440239 PNO
53988KBKB BKB20191015101511410/15/19 10:15:31  5-MIN KBKB 151615Z AUTO VRB04KT 7SM OVC003 24/24 A2994 280 97 1500 VRB/04 RMK AO2 T02440239 PNO
53988KBKB BKB20191015102011410/15/19 10:20:31  5-MIN KBKB 151620Z AUTO VRB04KT 7SM OVC004 24/24 A2994 280 97 1500 VRB/04 RMK AO2 T02440239 PNO
53988KBKB BKB20191015102511410/15/19 10:25:31  5-MIN KBKB 151625Z AUTO 00000KT 7SM OVC004 25/24 A2994 280 93 1500 000/00 RMK AO2 T02500239 PNO
53988KBKB BKB20191015103012610/15/19 10:30:31  5-MIN KBKB 151630Z AUTO VRB03KT 8SM OVC004 25/24 A2994 280 93 1500 VRB/03 RMK AO2 CIG 003V008 T02500239 PNO
53988KBKB BKB20191015103513310/15/19 10:35:31  5-MIN KBKB 151635Z AUTO 00000KT 9SM BKN006 OVC009 26/24 A2994 280 90 1600 000/00 RMK AO2 CIG 003V007 T02560239 PNO
53988KBKB BKB20191015103519910/15/19 10:35:31  5-MIN KBKB 151635Z AUTO 00000KT 9SM BKN006 OVC009 26/24 A2994 280 90 1600 000/00 RMK AO2 CIG 003V007 T02560239 PNO10/15/19 10:4 300 84 1800 VRB/05 RMK AO2 CIG 007V014 T02720244 PNO
53988KBKB BKB20191015104013310/15/19 10:40:31  5-MIN KBKB 151640Z AUTO VRB03KT 9SM BKN006 OVC015 26/24 A2993 290 90 1600 VRB/03 RMK AO2 CIG 004V011 T02560239 PNO
53988KBKB BKB20191015104513410/15/19 10:45:31  5-MIN KBKB 151645Z AUTO VRB04KT 10SM BKN006 OVC013 26/24 A2993 290 90 1700 VRB/04 RMK AO2 CIG 004V010 T02610244 PNO
53988KBKB BKB20191015105014110/15/19 10:50:31  5-MIN KBKB 151650Z AUTO 00000KT 10SM BKN008 OVC013 27/24 A2993 290 87 1700 000/00 RMK AO2 CIG 004V010 SLP161 T02670244 PNO
53988KBKB BKB20191015105514110/15/19 10:55:31  5-MIN KBKB 151655Z AUTO VRB03KT 10SM BKN008 BKN013 BKN021 28/24 A2993 290 82 1900 VRB/03 RMK AO2 CIG 006V010 T02780244 PNO
53988KBKB BKB20191015110012210/15/19 11:00:31  5-MIN KBKB 151700Z AUTO 00000KT 10SM SCT008 BKN013 28/24 A2992 290 82 1900 000/00 RMK AO2 T02780244 PNO
53988KBKB BKB20191015110514110/15/19 11:05:31  5-MIN KBKB 151705Z AUTO VRB05KT 10SM BKN010 BKN015 BKN021 27/24 A2992 300 84 1800 VRB/05 RMK AO2 CIG 007V014 T02720244 PNO
53988KBKB BKB20191015111012910/15/19 11:10:31  5-MIN KBKB 151710Z AUTO VRB04KT 10SM SCT010 BKN015 BKN021 27/24 A2992 300 82 1800 VRB/04 RMK AO2 T02720239 PNO
53988KBKB BKB20191015111512210/15/19 11:15:31  5-MIN KBKB 151715Z AUTO 00000KT 10SM BKN013 BKN020 28/24 A2992 300 82 1900 000/00 RMK AO2 T02780244 PNO
53988KBKB BKB20191015112012210/15/19 11:20:31  5-MIN KBKB 151720Z AUTO VRB03KT 10SM SCT013 BKN020 28/24 A2992 300 79 1900 VRB/03 RMK AO2 T02830244 PNO
53988KBKB BKB20191015112512210/15/19 11:25:31  5-MIN KBKB 151725Z AUTO VRB05KT 10SM SCT013 BKN020 28/24 A2992 300 79 1900 VRB/05 RMK AO2 T02780239 PNO
53988KBKB BKB20191015113012210/15/19 11:30:31  5-MIN KBKB 151730Z AUTO 00000KT 10SM BKN017 BKN024 28/24 A2992 300 79 1900 000/00 RMK AO2 T02830244 PNO
53988KBKB BKB20191015113512210/15/19 11:35:31  5-MIN KBKB 151735Z AUTO VRB04KT 10SM BKN017 BKN024 29/25 A2991 310 79 2000 VRB/04 RMK AO2 T02890250 PNO
53988KBKB BKB20191015114012210/15/19 11:40:31  5-MIN KBKB 151740Z AUTO 00000KT 10SM BKN018 BKN024 28/24 A2991 310 79 2000 000/00 RMK AO2 T02830244 PNO
53988KBKB BKB20191015114512210/15/19 11:45:31  5-MIN KBKB 151745Z AUTO VRB04KT 10SM BKN018 BKN024 28/24 A2991 310 79 1900 VRB/04 RMK AO2 T02780239 PNO
53988KBKB BKB20191015115016010/15/19 11:50:31  5-MIN KBKB 151750Z AUTO 00000KT 10SM BKN018 BKN024 BKN036 28/24 A2990 310 79 2000 000/00 RMK AO2 SLP151 6//// T02830244 10289 20217 53006 PNO
53988KBKB BKB20191015115512210/15/19 11:55:31  5-MIN KBKB 151755Z AUTO VRB03KT 10SM BKN018 BKN036 29/24 A2990 310 76 2000 VRB/03 RMK AO2 T02890244 PNO
53988KBKB BKB20191015120012910/15/19 12:00:31  5-MIN KBKB 151800Z AUTO VRB04KT 10SM SCT018 SCT024 BKN050 29/24 A2990 320 76 2000 VRB/04 RMK AO2 T02890244 PNO
53988KBKB BKB20191015120512910/15/19 12:05:31  5-MIN KBKB 151805Z AUTO 00000KT 10SM SCT018 SCT024 BKN050 28/24 A2990 320 76 2000 000/00 RMK AO2 T02830239 PNO
53988KBKB BKB20191015121012910/15/19 12:10:31  5-MIN KBKB 151810Z AUTO VRB03KT 10SM SCT018 SCT029 BKN040 29/24 A2989 320 76 2000 VRB/03 RMK AO2 T02890244 PNO
53988KBKB BKB20191015121512910/15/19 12:15:31  5-MIN KBKB 151815Z AUTO 28003KT 10SM FEW018 SCT029 BKN040 29/24 A2989 330 74 2000 280/03 RMK AO2 T02890239 PNO
53988KBKB BKB20191015122012910/15/19 12:20:31  5-MIN KBKB 151820Z AUTO VRB03KT 10SM FEW017 BKN027 BKN038 29/24 A2989 330 76 2000 VRB/03 RMK AO2 T02890244 PNO
53988KBKB BKB20191015122511910/15/19 12:25:31  5-MIN KBKB 151825Z AUTO 10SM FEW019 BKN027 BKN038 28/24 A2988 330 76 2000 M /M RMK AO2 T02830239 PNO
53988KBKB BKB20191015123012910/15/19 12:30:31  5-MIN KBKB 151830Z AUTO 27003KT 10SM FEW019 SCT027 BKN075 29/24 A2988 330 74 2000 260/03 RMK AO2 T02890239 PNO
53988KBKB BKB20191015123512910/15/19 12:35:31  5-MIN KBKB 151835Z AUTO VRB03KT 10SM FEW019 SCT030 SCT038 28/24 A2988 340 76 2000 VRB/03 RMK AO2 T02830239 PNO
53988KBKB BKB20191015124012210/15/19 12:40:31  5-MIN KBKB 151840Z AUTO 00000KT 10SM FEW021 SCT030 28/24 A2987 340 76 2000 000/00 RMK AO2 T02830239 PNO
53988KBKB BKB20191015124512910/15/19 12:45:31  5-MIN KBKB 151845Z AUTO 00000KT 10SM FEW021 SCT029 BKN044 28/24 A2987 340 76 2000 000/00 RMK AO2 T02830239 PNO
53988KBKB BKB20191015125014610/15/19 12:50:31  5-MIN KBKB 151850Z AUTO 00000KT 10SM -RA FEW019 SCT029 BKN100 28/24 A2987 350 79 2000 000/00 RMK AO2 RAB46 SLP139 T02830244 PNO
53988KBKB BKB20191015125512610/15/19 12:55:31  5-MIN KBKB 151855Z AUTO 00000KT 10SM -RA FEW022 SCT100 28/24 A2987 350 79 2000 000/00 RMK AO2 T02830244 PNO
53988KBKB BKB20191015130012810/15/19 13:00:31  5-MIN KBKB 151900Z AUTO 00000KT 10SM FEW020 FEW028 29/24 A2987 350 76 2100 000/00 RMK AO2 RAE00 T02890244 PNO
53988KBKB BKB20191015130512110/15/19 13:05:31  5-MIN KBKB 151905Z AUTO 00000KT 10SM FEW025 29/24 A2987 350 76 2100 000/00 RMK AO2 RAE00 T02890244 PNO
53988KBKB BKB20191015131012110/15/19 13:10:31  5-MIN KBKB 151910Z AUTO 24003KT 10SM FEW021 28/24 A2987 350 76 2000 230/03 RMK AO2 RAE00 T02830239 PNO
53988KBKB BKB20191015131512810/15/19 13:15:31  5-MIN KBKB 151915Z AUTO VRB05KT 10SM FEW021 FEW120 28/24 A2986 350 79 1900 VRB/05 RMK AO2 RAE00 T02780239 PNO
53988KBKB BKB20191015132013510/15/19 13:20:31  5-MIN KBKB 151920Z AUTO VRB03KT 10SM -RA FEW021 SCT120 28/24 A2986 350 79 1900 VRB/03 RMK AO2 RAE00B19 T02780239 PNO
53988KBKB BKB20191015132513510/15/19 13:25:31  5-MIN KBKB 151925Z AUTO 00000KT 10SM -RA FEW023 BKN110 28/24 A2986 360 79 1900 000/00 RMK AO2 RAE00B19 T02780239 PNO
53988KBKB BKB20191015133013410/15/19 13:30:31  5-MIN KBKB 151930Z AUTO 00000KT 10SM FEW023 BKN110 28/24 A2985 360 82 2000 000/00 RMK AO2 RAE00B19E29 T02780244 PNO
53988KBKB BKB20191015133513410/15/19 13:35:31  5-MIN KBKB 151935Z AUTO 00000KT 10SM FEW023 BKN110 28/24 A2985 360 79 2000 000/00 RMK AO2 RAE00B19E29 T02830244 PNO
53988KBKB BKB20191015134013410/15/19 13:40:31  5-MIN KBKB 151940Z AUTO 20003KT 10SM FEW023 SCT110 28/24 A2985 360 79 2000 200/03 RMK AO2 RAE00B19E29 T02830244 PNO
53988KBKB BKB20191015134513410/15/19 13:45:31  5-MIN KBKB 151945Z AUTO 00000KT 10SM FEW023 SCT110 28/24 A2985 370 82 2000 000/00 RMK AO2 RAE00B19E29 T02780244 PNO
53988KBKB BKB20191015135014110/15/19 13:50:31  5-MIN KBKB 151950Z AUTO VRB03KT 10SM FEW020 SCT110 28/24 A2984 370 79 2000 VRB/03 RMK AO2 RAE00B19E29 SLP130 T02830244 PNO
53988KBKB BKB20191015135512910/15/19 13:55:31  5-MIN KBKB 151955Z AUTO VRB03KT 10SM FEW017 FEW022 SCT110 28/24 A2983 380 79 2000 VRB/03 RMK AO2 T02830244 PNO
53988KBKB BKB20191015140012910/15/19 14:00:31  5-MIN KBKB 152000Z AUTO 22005KT 10SM FEW017 FEW022 SCT110 29/24 A2983 380 76 2100 220/05 RMK AO2 T02890244 PNO
53988KBKB BKB20191015140511110/15/19 14:05:31  5-MIN KBKB 152005Z AUTO 0KN026 OVC100 25/24 A2985 370 97 1600 000/00 RMK AO2 P0000 T02500244
53988KBKB BKB20191015145018110/15/19 14:50:31  5-MIN KBKB 152050Z AUTO 00000KT 1/2SM +TSRA FG SCT014 BKN026 OVC100 25/24 A2984 370 97 1700 000/00 RMK AO2 VIS M1/4V5 RAB20 TSB47 SLP131 6//// T02500244 58016 PNO
53988KBKB BKB20191015145514110/15/19 14:55:31  5-MIN KBKB 152055Z AUTO 00000KT 1/2SM -TSRA FG SCT014 BKN026 OVC100 25/24 A2985 370 97 1600 000/00 RMK AO2 P0000 T02500244
53988KBKB BKB20191015150013910/15/19 15:00:31  5-MIN KBKB 152100Z AUTO 00000KT 6SM -TSRA BR SCT014 BKN026 OVC080 25/24 A2986 360 93 1600 000/00 RMK AO2 P0000 T02500239
53988KBKB BKB20191015150017410/15/19 15:00:31  5-MIN KBKB 152100Z AUTO 00000KT 6SM -TSRA BR SCT014 BKN026 OVC080 25/24 A2986 360 93 1600 000/00 RMK AO2 P00 000/00 RMK AO2 VIS 1 1/4V5 RAB20 T02560244 PNO
53988KBKB BKB20191015150513610/15/19 15:05:31  5-MIN KBKB 152105Z AUTO VRB05KT 9SM -TSRA BKN014 BKN026 OVC075 24/24 A2985 370 97 1600 VRB/05 RMK AO2 P0000 T02440239
53988KBKB BKB20191015151008210/15/19 15:10:31  5-MIN KBKB 152110Z AUTO 00000KT 9SM -TSR/// T02500244 58016 PNO
53988KBKB BKB20191015151014810/15/19 15:10:31  5-MIN KBKB 152110Z AUTO 00000KT 9SM -TSRA BKN016 BKN029 OVC065 24/23 A2985 360 90 1600 000/00 RMK AO2 CIG 012V023 P0001 T02440228
53988KBKB BKB20191015151514710/15/19 15:15:31  5-MIN KBKB 152115Z AUTO 00000KT 9SM TSRA SCT014 BKN023 OVC044 24/23 A2985 360 93 1600 000/00 RMK AO2 CIG 017V032 P0001 T02440233
53988KBKB BKB20191015151521410/15/19 15:15:31  5-MIN KBKB 152115Z AUTO 00000KT 9SM TSRA SCT014 BKN023 OVC044 24/23 A2985 360 93 1600 000/00 RMK AO2 CIG 017V032 P0001 T024404 BKN026 OVC080 25/24 A2986 360 93 1600 000/00 RMK AO2 P0000 T02500239
53988KBKB BKB20191015152013910/15/19 15:20:31  5-MIN KBKB 152120Z AUTO 00000KT 2SM +TSRA BR BKN017 BKN027 OVC046 24/23 A2985 360 97 1500 000/00 RMK AO2 P0004 T02390233
53988KBKB BKB20191015152513910/15/19 15:25:31  5-MIN KBKB 152125Z AUTO 00000KT 1SM +TSRA BR SCT014 BKN022 OVC046 24/23 A2985 360 97 1500 000/00 RMK AO2 P0007 T02390233
53988KBKB BKB20191015153014310/15/19 15:30:31  5-MIN KBKB 152130Z AUTO 00000KT 1SM +RA BR SCT019 BKN042 OVC055 24/23 A2985 370 97 1500 000/00 RMK AO2 TSE26 P0011 T02390233
53988KBKB BKB20191015153514610/15/19 15:35:31  5-MIN KBKB 152135Z AUTO 00000KT 1 1/4SM RA BR SCT019 BKN040 OVC100 24/23 A2985 370 97 1500 000/00 RMK AO2 TSE26 P0012 T02390233
53988KBKB BKB20191015154014210/15/19 15:40:31  5-MIN KBKB 152140Z AUTO 00000KT 3SM RA BR SCT019 BKN050 OVC110 24/23 A2985 360 97 1500 000/00 RMK AO2 TSE26 P0012 T02390233
53988KBKB BKB20191015154514210/15/19 15:45:31  5-MIN KBKB 152145Z AUTO 00000KT 3SM RA BR FEW017 BKN070 OVC110 24/23 A2985 370 97 1500 000/00 RMK AO2 TSE26 P0013 T02390233
53988KBKB BKB20191015155013610/15/19 15:50:31  5-MIN KBKB 152150Z AUTO 00000KT 2 1/2SM RA BR FEW017 BKN070 OVC110 24/23 A2985 370 97 1500 000/00 RMK AO2 TSE26 P0014
53988KBKB BKB20191015155514110/15/19 15:55:31  5-MIN KBKB 152155Z AUTO 00000KT 2 1/2SM +RA BR SCT050 BKN070 OVC110 24/23 A2984 370 93 1600 000/00 RMK AO2 P0000 T02440233
53988KBKB BKB20191015160014010/15/19 16:00:31  5-MIN KBKB 152200Z AUTO 00000KT 2 1/2SM RA BR FEW015 BKN070 OVC110 24/23 A2984 380 93 1600 000/00 RMK AO2 P0001 T02440233
53988KBKB BKB20191015160513710/15/19 16:05:31  5-MIN KBKB 152205Z AUTO 00000KT 5SM -RA BR FEW006 BKN090 OVC110 24/23 A2984 370 93 1600 000/00 RMK AO2 P0001 T02440233
53988KBKB BKB20191015161013610/15/19 16:10:31  5-MIN KBKB 152210Z AUTO 00000KT 9SM FEW004 BKN090 OVC110 24/23 A2984 370 93 1600 000/00 RMK AO2 RAE09 P0001 T02440233
53988KBKB BKB20191015161513610/15/19 16:15:31  5-MIN KBKB 152215Z AUTO 00000KT 9SM FEW004 BKN085 OVC110 24/23 A2984 370 93 1600 000/00 RMK AO2 RAE09 P0001 T02440233
53988KBKB BKB20191015162013610/15/19 16:20:31  5-MIN KBKB 152220Z AUTO 00000KT 9SM FEW070 SCT080 OVC110 24/23 A2984 380 93 1600 000/00 RMK AO2 RAE09 P0001 T02440233
53988KBKB BKB20191015162513610/15/19 16:25:31  5-MIN KBKB 152225Z AUTO 00000KT 9SM FEW004 FEW075 BKN110 24/23 A2984 370 93 1600 000/00 RMK AO2 RAE09 P0001 T02440233
53988KBKB BKB20191015163014410/15/19 16:30:31  5-MIN KBKB 152230Z AUTO 00000KT 8SM 0000KT 5SM BR FEW002 SCT042 BKN110 24/23 A2986 350 97 1500 000/00 RMK AO2 TSE05 T02390233
53988KBKB BKB20191015172011010/15/19 17:20:31  5-MIN KBKB 152320Z AUTO 00000KT 2SM BR SCT0 1400 000/00 RMK AO2 RAE29 TSE07 P0001 T02330228
53988KBKB BKB20191015173023710/15/19 17:30:31  5-MIN KBKB 152330Z AUTO 00000KT 6SM BR FEW002 SCT044 BKN075 24/23 A2986 350 97 1500 000/00 RMK AO2 TSE05 T0239023310/15/19 17:35:0000KT 2SM BR SCT002 SCT075 BKN120 24/23 A2985 360 93 1600 000/00 RMK AO2 TSE05 T02440233
53988KBKB BKB20191015195012110/15/19 19:50:31  5-MIN KBKB 160150Z AUTO 00000KT 3SM BR BKN002 23/23 A2986 350 97 1400 000/00 RMK AO2 RAE29 TSE07 P0001
53988KBKB BKB20191015195511310/15/19 19:55:31  5-MIN KBKB 160155Z AUTO 00000KT 3SM BR OVC002 23/23 A2986 350 97 1400 000/00 RMK AO2 T02330228
53988KBKB BKB20191015200011310/15/19 20:00:31  5-MIN KBKB 160200Z AUTO 00000KT 4SM BR OVC002 23/23 A2987 350 97 1400 000/00 RMK AO2 T02330228
53988KBKB BKB20191015200511310/15/19 20:05:31  5-MIN KBKB 160205Z AUTO VRB03KT 5SM BR OVC002 23/23 A2987 340 97 1400 VRB/03 RMK AO2 T02330228
53988KBKB BKB20191015200514710/15/19 20:05:31  5-MIN KBKB 160205Z AUTO VRB03KT 5SM BR OVC002 23/23 A2987 342 23/23 A2986 350 97 1400 000/00 RMK AO2 RAE29 TSE07 P0001 T02330228
53988KBKB BKB20191015201011310/15/19 20:10:31  5-MIN KBKB 160210Z AUTO 00000KT 6SM BR OVC002 23/23 A2988 340 97 1400 000/00 RMK AO2 T02330228
53988KBKB BKB20191015201511310/15/19 20:15:31  5-MIN KBKB 160215Z AUTO VRB03KT 6SM BR OVC002 23/23 A2988 330 97 1400 VRB/03 RMK AO2 T02330228
53988KBKB BKB20191015201515710/15/19 20:15:31  5-MIN KBKB 160215Z AUTO VRB035/19 19:55:31  5-MIN KBKB 160155Z AUTO 00000KT 3SM BR OVC002 23/23 A2986 350 97 1400 000/00 RMK AO2 T02330228
53988KBKB BKB20191015202012910/15/19 20:20:31  5-MIN KBKB 160220Z AUTO 00000KT 5SM -RA BR OVC002 23/23 A2988 330 97 1400 000/00 RMK AO2 RAB20 P0000 T02330228
53988KBKB BKB20191015202512910/15/19 20:25:31  5-MIN KBKB 160225Z AUTO 00000KT 5SM -RA BR OVC002 23/23 A2988 330 97 1400 000/00 RMK AO2 RAB20 P0000 T02330228
53988KBKB BKB20191015202514110/15/19 20:25:31  5-MIN KBKB 160225Z20:05:31  5-MIN KBKB 160205Z AUTO VRB03KT 5SM BR OVC002 23/23 A2987 340 97 1400 VRB/03 RMK AO2 T02330228
53988KBKB BKB20191015203012510/15/19 20:30:31  5-MIN KBKB 160230Z AUTO VRB03KT 4SM BR OVC002 23/23 A2988 330 97 2988 340 97 1400 000/00 RMK AO2 T02330228
53988KBKB BKB20191015203012810/15/19 20:30:31  5-MIN KBKB 160230Z AUTO VRB03KT 4SM BR OVC002 23/23 A2988 330 97 1400 VRB/03 RMK AO2 RAB20E28 P0000 T02330228
53988KBKB BKB20191015203512810/15/19 20:35:31  5-MIN KBKB 160235Z AUTO VRB03KT 4SM BR OVC002 23/23 A2988 330 97 1400 VRB/03 RMK AO2 RAB20E28 P0000 T02330228
53988KBKB BKB20191015203518210/15/19 20:35:31  5-MIN KBKB 160235Z AUTO VRB03KT 4SM BR OVC002 23/23 A2988 330 97 1400 VRB/03 RMK AO2 RAB20E28 P0000 T02330228A2988 330 97 1400 000/00 RMK AO2 RAB20 P0000 T02330228
53988KBKB BKB20191015204012810/15/19 20:40:31  5-MIN KBKB 160240Z AUTO 19003KT 4SM BR OVC002 23/23 A2989 330 97 1400 190/03 RMK AO2 RAB20E28 P0000 T02330228
53988KBKB BKB20191016174512210/16/19 17:45:31  5-MIN KBKB 162345Z AUTO VRB03KT 10SM CLR 17/12 A3001 210 72 600 VRB/03 RMK AO2 RAB31E45 P0000 T01720122
53988KBKB BKB20191016175015310/16/19 17:50:31  5-MIN KBKB 162350Z AUTO VRB03KT 10SM CLR 17/12 A3001 220 72 500 VRB/03 RMK AO2 RAB31E45 SLP189 P0000 60000 T01670117 10206 20167 56014
53988KBKB BKB20191016175510710/16/19 17:55:31  5-MIN KBKB 162355Z AUTO 00000KT 10SM CLR 17/12 A3001 210 72 500 000/00 RMK AO2 T01670117
53988KBKB BKB20191016180010710/16/19 18:00:31  5-MIN KBKB 170000Z AUTO 00000KT 10SM CLR 17/12 A3002 210 72 500 000/00 RMK AO2 T01670117
53988KBKB BKB20191016180510710/16/19 18:05:31  5-MIN KBKB 170005Z AUTO 00000KT 10SM CLR 17/12 A3001 210 75 500 000/00 RMK AO2 T01670122
53988KBKB BKB20191016181010710/16/19 18:10:31  5-MIN KBKB 170010Z AUTO 00000KT 10SM CLR 17/12 A3001 210 75 500 000/00 RMK AO2 T01670122
53988KBKB BKB20191016181510710/16/19 18:15:31  5-MIN KBKB 170015Z AUTO VRB03KT 10SM CLR 17/12 A3001 210 72 500 VRB/03 RMK AO2 T01670117
53988KBKB BKB20191016182010710/16/19 18:20:31  5-MIN KBKB 170020Z AUTO 00000KT 10SM CLR 17/12 A3001 210 72 500 000/00 RMK AO2 T01670117
53988KBKB BKB20191016182510710/16/19 18:25:31  5-MIN KBKB 170025Z AUTO VRB04KT 10SM CLR 16/12 A3001 210 75 400 VRB/04 RMK AO2 T01610117
53988KBKB BKB20191016183010710/16/19 18:30:31  5-MIN KBKB 170030Z AUTO 00000KT 10SM CLR 16/12 A3001 210 75 400 000/00 RMK AO2 T01610117
53988KBKB BKB20191016183510710/16/19 18:35:31  5-MIN KBKB 170035Z AUTO VRB03KT 10SM CLR 16/12 A3001 210 75 400 VRB/03 RMK AO2 T01610117
53988KBKB BKB20191016184010710/16/19 18:40:31  5-MIN KBKB 170040Z AUTO VRB03KT 10SM CLR 16/12 A3002 210 75 400 VRB/03 RMK AO2 T01610117
53988KBKB BKB20191016184510710/16/19 18:45:31  5-MIN KBKB 170045Z AUTO VRB03KT 10SM CLR 16/11 A3002 210 74 400 VRB/03 RMK AO2 T01560111
53988KBKB BKB20191016185011410/16/19 18:50:31  5-MIN KBKB 170050Z AUTO VRB05KT 10SM CLR 16/11 A3001 210 74 400 VRB/05 RMK AO2 SLP190 T01560111
53988KBKB BKB20191016185510710/16/19 18:55:31  5-MIN KBKB 170055Z AUTO VRB03KT 10SM CLR 16/11 A3002 200 74 400 VRB/03 RMK AO2 T01560111
53988KBKB BKB20191016190010710/16/19 19:00:31  5-MIN KBKB 170100Z AUTO VRB04KT 10SM CLR 16/11 A3003 200 72 400 VRB/04 RMK AO2 T01560106
53988KBKB BKB20191016190510710/16/19 19:05:31  5-MIN KBKB 170105Z AUTO VRB04KT 10SM CLR 16/11 A3002 200 72 400 VRB/04 RMK AO2 T01560106
53988KBKB BKB20191016191010710/16/19 19:10:31  5-MIN KBKB 170110Z AUTO VRB04KT 10SM CLR 16/11 A3002 200 72 400 VRB/04 RMK AO2 T01560106
53988KBKB BKB20191016191510710/16/19 19:15:31  5-MIN KBKB 170115Z AUTO 01004KT 10SM CLR 15/11 A3003 200 74 300 010/04 RMK AO2 T01500106
53988KBKB BKB20191016192010710/16/19 19:20:31  5-MIN KBKB 170120Z AUTO VRB03KT 10SM CLR 15/11 A3003 200 74 300 VRB/03 RMK AO2 T01500106
53988KBKB BKB20191016192510710/16/19 19:25:31  5-MIN KBKB 170125Z AUTO 00000KT 10SM CLR 15/11 A3003 190 74 300 000/00 RMK AO2 T01500106
53988KBKB BKB20191016193010710/16/19 19:30:31  5-MIN KBKB 170130Z AUTO 00000KT 10SM CLR 15/11 A3004 190 74 300 000/00 RMK AO2 T01500106
53988KBKB BKB20191016193510710/16/19 19:35:31  5-MIN KBKB 170135Z AUTO 00000KT 10SM CLR 14/11 A3004 190 80 200 000/00 RMK AO2 T01440111
53988KBKB BKB20191016194010710/16/19 19:40:31  5-MIN KBKB 170140Z AUTO 00000KT 10SM CLR 14/11 A3004 190 77 200 000/00 RMK AO2 T01440106
53988KBKB BKB20191016194510710/16/19 19:45:31  5-MIN KBKB 170145Z AUTO 00000KT 10SM CLR 14/11 A3004 190 77 200 000/00 RMK AO2 T01440106
53988KBKB BKB20191016195011410/16/19 19:50:31  5-MIN KBKB 170150Z AUTO VRB03KT 10SM CLR 14/11 A3004 180 80 100 VRB/03 RMK AO2 SLP201 T01390106
53988KBKB BKB20191016195510710/16/19 19:55:31  5-MIN KBKB 170155Z AUTO 00000KT 10SM CLR 14/11 A3005 180 80 100 000/00 RMK AO2 T01390106
53988KBKB BKB20191016200010710/16/19 20:00:31  5-MIN KBKB 170200Z AUTO 00000KT 10SM CLR 14/11 A3005 170 80 100 000/00 RMK AO2 T01390106
53988KBKB BKB20191016200510710/16/19 20:05:31  5-MIN KBKB 170205Z AUTO 00000KT 10SM CLR 13/11 A3006 170 83 100 000/00 RMK AO2 T01330106
53988KBKB BKB20191016201010510/16/19 20:10:31  5-MIN KBKB 170210Z AUTO 00000KT 10SM CLR 13/11 A3006 170 83 0 000/00 RMK AO2 T01330106
53988KBKB BKB20191016201511210/16/19 20:15:31  5-MIN KBKB 170215Z AUTO 00000KT 10SM CLR 13/11 A3007 160 86 0 000/00 RMK AO2 PRESRR T01280106
53988KBKB BKB20191016202010510/16/19 20:20:31  5-MIN KBKB 170220Z AUTO 00000KT 10SM CLR 13/11 A3007 160 89 0 000/00 RMK AO2 T01280111
53988KBKB BKB20191016202510510/16/19 20:25:31  5-MIN KBKB 170225Z AUTO 00000KT 10SM CLR 12/11 A3007 160 89 0 000/00 RMK AO2 T01220106
53988KBKB BKB20191016203010510/16/19 20:30:31  5-MIN KBKB 170230Z AUTO 00000KT 10SM CLR 12/11 A3007 160 89 0 000/00 RMK AO2 T01220106
53988KBKB BKB20191016203510510/16/19 20:35:31  5-MIN KBKB 170235Z AUTO 00000KT 10SM CLR 12/11 A3007 160 93 0 000/00 RMK AO2 T01220111
53988KBKB BKB20191016204010510/16/19 20:40:31  5-MIN KBKB 170240Z AUTO 00000KT 10SM CLR 12/11 A3007 160 89 0 000/00 RMK AO2 T01220106
53988KBKB BKB20191016204510810/16/19 20:45:31  5-MIN KBKB 170245Z AUTO 00000KT 10SM CLR 12/11 A3007 160 93 -100 000/00 RMK AO2 T01170106
53988KBKB BKB20191016205012110/16/19 20:50:31  5-MIN KBKB 170250Z AUTO 00000KT 10SM CLR 12/11 A3007 160 93 -100 000/00 RMK AO2 SLP211 T01170106 55001
53988KBKB BKB20191016205510810/16/19 20:55:31  5-MIN KBKB 170255Z AUTO 00000KT 10SM CLR 12/11 A3007 160 93 -100 000/00 RMK AO2 T01170106
53988KBKB BKB20191016210010810/16/19 21:00:31  5-MIN KBKB 170300Z AUTO 00000KT 10SM CLR 12/11 A3007 160 93 -100 000/00 RMK AO2 T01170106
53988KBKB BKB20191016210510810/16/19 21:05:31  5-MIN KBKB 170305Z AUTO VRB03KT 10SM CLR 12/11 A3008 150 89 -100 VRB/03 RMK AO2 T01220106
53988KBKB BKB20191016211010510/16/19 21:10:31  5-MIN KBKB 170310Z AUTO 00000KT 10SM CLR 13/11 A3008 150 86 0 000/00 RMK AO2 T01280106
53988KBKB BKB20191016211510510/16/19 21:15:31  5-MIN KBKB 170315Z AUTO 00000KT 10SM CLR 12/11 A3008 160 89 0 000/00 RMK AO2 T01220106
53988KBKB BKB20191016212010810/16/19 21:20:31  5-MIN KBKB 170320Z AUTO 00000KT 10SM CLR 12/11 A3008 150 89 -100 000/00 RMK AO2 T01220106
53988KBKB BKB20191016212510510/16/19 21:25:31  5-MIN KBKB 170325Z AUTO 00000KT 10SM CLR 12/11 A3007 160 89 0 000/00 RMK AO2 T01220106
53988KBKB BKB20191016213010810/16/19 21:30:31  5-MIN KBKB 170330Z AUTO 00000KT 10SM CLR 12/11 A3007 160 93 -100 000/00 RMK AO2 T01170106
53988KBKB BKB20191016213510810/16/19 21:35:31  5-MIN KBKB 170335Z AUTO 00000KT 10SM CLR 12/11 A3008 160 93 -100 000/00 RMK AO2 T01170106
53988KBKB BKB20191016214010810/16/19 21:40:31  5-MIN KBKB 170340Z AUTO 00000KT 10SM CLR 12/10 A3008 150 89 -100 000/00 RMK AO2 T01170100
53988KBKB BKB20191016214510810/16/19 21:45:31  5-MIN KBKB 170345Z AUTO 00000KT 10SM CLR 12/10 A3008 150 89 -100 000/00 RMK AO2 T01170100
53988KBKB BKB20191016215011510/16/19 21:50:31  5-MIN KBKB 170350Z AUTO 00000KT 10SM CLR 12/10 A3008 160 89 -100 000/00 RMK AO2 SLP212 T01170100
53988KBKB BKB20191016215510810/16/19 21:55:31  5-MIN KBKB 170355Z AUTO 00000KT 10SM CLR 11/10 A3008 160 93 -200 000/00 RMK AO2 T01110100
53988KBKB BKB20191016220010810/16/19 22:00:31  5-MIN KBKB 170400Z AUTO 00000KT 10SM CLR 11/10 A3008 150 93 -200 000/00 RMK AO2 T01110100
53988KBKB BKB20191016220510810/16/19 22:05:31  5-MIN KBKB 170405Z AUTO 00000KT 10SM CLR 11/10 A3007 160 93 -200 000/00 RMK AO2 T01110100
53988KBKB BKB20191016221010810/16/19 22:10:31  5-MIN KBKB 170410Z AUTO 00000KT 10SM CLR 11/10 A3007 160 93 -200 000/00 RMK AO2 T01110100
53988KBKB BKB20191016221510810/16/19 22:15:31  5-MIN KBKB 170415Z AUTO 00000KT 10SM CLR 11/10 A3008 150 93 -200 000/00 RMK AO2 T01110100
53988KBKB BKB20191016222010810/16/19 22:20:31  5-MIN KBKB 170420Z AUTO 00000KT 10SM CLR 11/10 A3008 150 93 -200 000/00 RMK AO2 T01110100
53988KBKB BKB20191016222510810/16/19 22:25:31  5-MIN KBKB 170425Z AUTO 00000KT 10SM CLR 11/10 A3007 160 93 -200 000/00 RMK AO2 T01110100
53988KBKB BKB20191016223010810/16/19 22:30:31  5-MIN KBKB 170430Z AUTO 00000KT 10SM CLR 11/10 A3007 160 96 -200 000/00 RMK AO2 T01060100
53988KBKB BKB20191016223510810/16/19 22:35:31  5-MIN KBKB 170435Z AUTO 00000KT 10SM CLR 11/09 A3007 160 93 -200 000/00 RMK AO2 T01060094
53988KBKB BKB20191016224010810/16/19 22:40:31  5-MIN KBKB 170440Z AUTO 00000KT 10SM CLR 11/09 A3007 160 93 -200 000/00 RMK AO2 T01060094
53988KBKB BKB20191016224510810/16/19 22:45:31  5-MIN KBKB 170445Z AUTO 00000KT 10SM CLR 11/09 A3006 170 93 -200 000/00 RMK AO2 T01060094
53988KBKB BKB20191016225011510/16/19 22:50:31  5-MIN KBKB 170450Z AUTO 00000KT 10SM CLR 11/09 A3006 170 93 -200 000/00 RMK AO2 SLP208 T01060094
53988KBKB BKB20191016225510810/16/19 22:55:31  5-MIN KBKB 170455Z AUTO 00000KT 10SM CLR 11/09 A3006 170 93 -200 000/00 RMK AO2 T01060094
53988KBKB BKB20191016230010710/16/19 23:00:31  5-MIN KBKB 170500Z AUTO 00000KT 9SM CLR 11/09 A3006 170 93 -200 000/00 RMK AO2 T01060094
53988KBKB BKB20191016230510710/16/19 23:05:31  5-MIN KBKB 170505Z AUTO 00000KT 9SM CLR 11/09 A3006 170 93 -200 000/00 RMK AO2 T01060094
53988KBKB BKB20191016231010810/16/19 23:10:31  5-MIN KBKB 170510Z AUTO 00000KT 10SM CLR 11/09 A3006 170 93 -200 000/00 RMK AO2 T01060094
53988KBKB BKB20191016231510810/16/19 23:15:31  5-MIN KBKB 170515Z AUTO 00000KT 10SM CLR 11/09 A3006 170 93 -200 000/00 RMK AO2 T01060094
53988KBKB BKB20191016232010810/16/19 23:20:31  5-MIN KBKB 170520Z AUTO 00000KT 10SM CLR 11/09 A3006 170 93 -200 000/00 RMK AO2 T01060094
53988KBKB BKB20191016232510810/16/19 23:25:31  5-MIN KBKB 170525Z AUTO 00000KT 10SM CLR 11/09 A3006 170 93 -200 000/00 RMK AO2 T01060094
53988KBKB BKB20191016233010810/16/19 23:30:31  5-MIN KBKB 170530Z AUTO 00000KT 10SM CLR 11/09 A3005 180 93 -200 000/00 RMK AO2 T01060094
53988KBKB BKB20191016233510810/16/19 23:35:31  5-MIN KBKB 170535Z AUTO 00000KT 10SM CLR 11/09 A3005 180 93 -200 000/00 RMK AO2 T01060094
53988KBKB BKB20191016234010810/16/19 23:40:31  5-MIN KBKB 170540Z AUTO 00000KT 10SM CLR 11/09 A3005 180 93 -200 000/00 RMK AO2 T01060094
53988KBKB BKB20191016234510810/16/19 23:45:31  5-MIN KBKB 170545Z AUTO 00000KT 10SM CLR 11/09 A3005 180 93 -200 000/00 RMK AO2 T01060094
53988KBKB BKB20191016235014310/16/19 23:50:31  5-MIN KBKB 170550Z AUTO VRB03KT 10SM CLR 11/09 A3005 180 93 -200 VRB/03 RMK AO2 SLP203 T01060094 10167 20100 402280100 53021
53988KBKB BKB20191016235510810/16/19 23:55:31  5-MIN KBKB 170555Z AUTO 00000KT 10SM CLR 11/09 A3005 180 93 -200 000/00 RMK AO2 T01060094
53988KBKB BKB20191017000010810/17/19 00:00:31  5-MIN KBKB 170600Z AUTO 00000KT 10SM CLR 11/09 A3004 180 93 -200 000/00 RMK AO2 T01060094
53988KBKB BKB20191017000510810/17/19 00:05:31  5-MIN KBKB 170605Z AUTO 02003KT 10SM CLR 11/09 A3004 190 89 -200 010/03 RMK AO2 T01060089
53988KBKB BKB20191017001010810/17/19 00:10:31  5-MIN KBKB 170610Z AUTO 00000KT 10SM CLR 11/09 A3004 190 89 -200 000/00 RMK AO2 T01060089
53988KBKB BKB20191017001510810/17/19 00:15:31  5-MIN KBKB 170615Z AUTO 00000KT 10SM CLR 11/09 A3004 180 89 -200 000/00 RMK AO2 T01060089
53988KBKB BKB20191017002010810/17/19 00:20:31  5-MIN KBKB 170620Z AUTO 00000KT 10SM CLR 11/09 A3005 180 89 -200 000/00 RMK AO2 T01060089
53988KBKB BKB20191017002509610/17/19 00:25:31  5-MIN KBKB 170625Z A10SM CLR 10/09 A3004 190 93 -300 000/00 RMK AO2 T01000089
53988KBKB BKB20191017011010810/17/19 01:10:31  5-MIN KBKB 170710Z AUTO 00000KT 10SM CLR 10/09 A3004 190 93 -300 000/00 RMK AO2 T01000089
53988KBKB BKB20191017011510710/17/19 01:15:31  5-MIN KBKB 170715Z AUTO 00000KT 9SM CLR 10/09 A3003 200 93 -300 000/00 RMK AO2 T01000089
53988KBKB BKB20191017012010710/17/19 01:20:31  5-MIN KBKB 170720Z AUTO 00000KT 9SM CLR 10/09 A3003 200 93 -300 000/00 RMK AO2 T01000089
53988KBKB BKB20191017012510810/17/19 01:25:31  5-MIN KBKB 170725Z AUTO 00000KT 10SM CLR 10/09 A3002 200 93 -300 000/00 RMK AO2 T01000089
53988KBKB BKB20191017012517210/17/19 01:25:31  5-MIN KBKB 170725Z AUTO 00000KT 10SM CLR 10/09 A3002 200 93 -300 000/00 RMK AO2 T0100008900000KT 9SM CLR 10/09 A3004 190 93 -300 000/00 RMK AO2 T01000089
53988KBKB BKB20191017013010810/17/19 01:30:31  5-MIN KBKB 170730Z AUTO 00000KT 10SM CLR 10/09 A3002 200 93 -300 000/00 RMK AO2 T01000089
53988KBKB BKB20191017013510810/17/19 01:35:31  5-MIN KBKB 170735Z AUTO 00000KT 10SM CLR 10/09 A3002 200 93 -300 000/00 RMK AO2 T01000089
53988KBKB BKB20191017013517110/17/19 01:35:31  5-MIN KBKB 170735Z AUTO 00000KT 10SM CLR 10/09 A3002 200 93 -300 000/00BKB 170715Z AUTO 00000KT 9SM CLR 10/09 A3003 200 93 -300 000/00 RMK AO2 T01000089
53988KBKB BKB20191017014010810/17/19 01:40:31  5-MIN KBKB 170740Z AUTO 00000KT 10SM CLR 10/09 A3002 200 93 -300 000/00 RMK AO2 T01000089
53988KBKB BKB20191017014510810/17/19 01:45:31  5-MIN KBKB 170745Z AUTO 00000KT 10SM CLR 10/09 A3002 200 93 -300 000/00 RMK AO2 T01000089
53988KBKB BKB20191017015011510/17/19 01:50:31  5-MIN KBKB 170750Z AUTO 00000KT 10SM CLR 10/09 A3002 200 93 -300 000/00 RMK AO2 SLP195 T01000089
53988KBKB BKB20191017015510810/17/19 01:55:31  5-MIN KBKB 170755Z AUTO 00000KT 10SM CLR 10/09 A3002 200 93 -300 000/00 RMK AO2 T01000089
53988KBKB BKB20191017020010710/17/19 02:00:31  5-MIN KBKB 170800Z AUTO 00000KT 9SM CLR 10/09 A3002 200 93 -300 000/00 RMK AO2 T01000089
53988KBKB BKB20191017020510710/17/19 02:05:31  5-MIN KBKB 170805Z AUTO 00000KT 8SM CLR 10/09 A3002 210 93 -300 000/00 RMK AO2 T01000089
53988KBKB BKB20191017021011010/17/19 02:10:31  5-MIN KBKB 170810Z AUTO 00000KT 6SM BR CLR 10/09 A3002 210 93 -300 000/00 RMK AO2 T01000089
53988KBKB BKB20191017021511010/17/19 02:15:31  5-MIN KBKB 170815Z AUTO 00000KT 6SM BR CLR 10/09 A3001 210 93 -200 000/00 RMK AO2 T01000089
53988KBKB BKB20191017022010710/17/19 02:20:31  5-MIN KBKB 170820Z AUTO 00000KT 8SM CLR 10/09 A3001 210 93 -200 000/00 RMK AO2 T01000089
53988KBKB BKB20191017022510810/17/19 02:25:31  5-MIN KBKB 170825Z AUTO 00000KT 10SM CLR 10/09 A3002 210 93 -200 000/00 RMK AO2 T01000089
53988KBKB BKB20191017023010810/17/19 02:30:31  5-MIN KBKB 170830Z AUTO 00000KT 10SM CLR 10/09 A3002 210 93 -200 000/00 RMK AO2 T01000089
53988KBKB BKB20191017023510810/17/19 02:35:31  5-MIN KBKB 170835Z AUTO 00000KT 10SM CLR 10/09 A3002 210 93 -300 000/00 RMK AO2 T01000089
53988KBKB BKB20191017024010810/17/19 02:40:31  5-MIN KBKB 170840Z AUTO 00000KT 10SM CLR 10/09 A3002 200 93 -300 000/00 RMK AO2 T01000089
53988KBKB BKB20191017024510810/17/19 02:45:31  5-MIN KBKB 170845Z AUTO 00000KT 10SM CLR 10/09 A3002 210 93 -300 000/00 RMK AO2 T01000089
53988KBKB BKB20191017025012110/17/19 02:50:31  5-MIN KBKB 170850Z AUTO 00000KT 10SM CLR 10/09 A3002 210 93 -300 000/00 RMK AO2 SLP193 T01000089 58008
53988KBKB BKB20191017025510810/17/19 02:55:31  5-MIN KBKB 170855Z AUTO 00000KT 10SM CLR 10/09 A3002 200 93 -300 000/00 RMK AO2 T01000089
53988KBKB BKB20191017030010810/17/19 03:00:31  5-MIN KBKB 170900Z AUTO 00000KT 10SM CLR 10/09 A3002 200 93 -300 000/00 RMK AO2 T01000089
53988KBKB BKB20191017030510810/17/19 03:05:31  5-MIN KBKB 170905Z AUTO 00000KT 10SM CLR 10/09 A3002 210 93 -300 000/00 RMK AO2 T01000089
53988KBKB BKB20191017031010810/17/19 03:10:31  5-MIN KBKB 170910Z AUTO 00000KT 10SM CLR 10/09 A3002 210 93 -300 000/00 RMK AO2 T01000089
53988KBKB BKB20191017031510810/17/19 03:15:31  5-MIN KBKB 170915Z AUTO 00000KT 10SM CLR 10/09 A3002 200 93 -300 000/00 RMK AO2 T01000089
53988KBKB BKB20191017032010810/17/19 03:20:31  5-MIN KBKB 170920Z AUTO 00000KT 10SM CLR 10/09 A3002 200 93 -300 000/00 RMK AO2 T01000089
53988KBKB BKB20191017032514110/17/19 03:25:31  5-MIN KBKB 170925Z AUTO 00000KT 10SM CLR 10/09 A3002 200 93 -300 000/00 RMK AO2 T01000089 89 -300 000/00 RMK AO2 T01000083
53988KBKB BKB20191017053010810/17/19 05:30:31  5-MIN KBKB 171130Z AUTO 00000KT 10SM CLR 10/08 A3004 180 89 -300 000/00 RMK AO2 T01000083
53988KBKB BKB20191017053510810/17/19 05:35:31  5-MIN KBKB 171135Z AUTO VRB03KT 10SM CLR 10/08 A3004 190 89 -300 VRB/03 RMK AO2 T01000083
53988KBKB BKB20191017054010810/17/19 05:40:31  5-MIN KBKB 171140Z AUTO 00000KT 10SM CLR 10/08 A3004 180 89 -300 000/00 RMK AO2 T01000083
53988KBKB BKB20191018083511910/18/19 08:35:31  5-MIN KBKB 181435Z AUTO 00000KT 10SM CLR 14/11 A2991 310 80 400 000/00 RMK AO2 T01440111 PWINO PNO $
53988KBKB BKB20191018084011910/18/19 08:40:31  5-MIN KBKB 181440Z AUTO VRB03KT 10SM CLR 14/11 A2991 310 80 400 VRB/03 RMK AO2 T01440111 PWINO PNO $
53988KBKB BKB20191018084511910/18/19 08:45:31  5-MIN KBKB 181445Z AUTO VRB04KT 10SM CLR 14/11 A2991 310 80 400 VRB/04 RMK AO2 T01440111 PWINO PNO $
53988KBKB BKB20191018085013810/18/19 08:50:31  5-MIN KBKB 181450Z AUTO 00000KT 10SM CLR 14/11 A2991 310 77 400 000/00 RMK AO2 SLP156 6//// T01440106 55004 PWINO PNO $
53988KBKB BKB20191018085511910/18/19 08:55:31  5-MIN KBKB 181455Z AUTO 00000KT 10SM CLR 14/11 A2991 310 80 400 000/00 RMK AO2 T01440111 PWINO PNO $
53988KBKB BKB20191018090011910/18/19 09:00:31  5-MIN KBKB 181500Z AUTO 02003KT 10SM CLR 15/11 A2991 310 77 400 020/03 RMK AO2 T01500111 PWINO PNO $
53988KBKB BKB20191018090511910/18/19 09:05:31  5-MIN KBKB 181505Z AUTO VRB04KT 10SM CLR 16/11 A2991 310 74 500 VRB/04 RMK AO2 T01560111 PWINO PNO $
53988KBKB BKB20191018091011910/18/19 09:10:31  5-MIN KBKB 181510Z AUTO VRB03KT 10SM CLR 17/11 A2991 310 69 600 VRB/03 RMK AO2 T01670111 PWINO PNO $
53988KBKB BKB20191018091511910/18/19 09:15:31  5-MIN KBKB 181515Z AUTO 00000KT 10SM CLR 16/11 A2991 310 72 600 000/00 RMK AO2 T01610111 PWINO PNO $
53988KBKB BKB20191018092011910/18/19 09:20:31  5-MIN KBKB 181520Z AUTO VRB03KT 10SM CLR 16/11 A2991 310 72 600 VRB/03 RMK AO2 T01610111 PWINO PNO $
53988KBKB BKB20191018092511810/18/19 09:25:31  5-MIN KBKB 181525Z AUTO 00000KT 9SM CLR 17/11 A2990 320 69 600 000/00 RMK AO2 T01670111 PWINO PNO $
53988KBKB BKB20191018093011810/18/19 09:30:31  5-MIN KBKB 181530Z AUTO 00000KT 9SM CLR 17/11 A2990 320 67 700 000/00 RMK AO2 T01720111 PWINO PNO $
53988KBKB BKB20191018093511910/18/19 09:35:31  5-MIN KBKB 181535Z AUTO VRB04KT 10SM CLR 17/11 A2990 320 67 700 VRB/04 RMK AO2 T01720111 PWINO PNO $
53988KBKB BKB20191018094011910/18/19 09:40:31  5-MIN KBKB 181540Z AUTO 00000KT 10SM CLR 17/11 A2990 320 67 700 000/00 RMK AO2 T01720111 PWINO PNO $
53988KBKB BKB20191018094511910/18/19 09:45:31  5-MIN KBKB 181545Z AUTO VRB03KT 10SM CLR 18/11 A2990 320 64 800 VRB/03 RMK AO2 T01780111 PWINO PNO $
53988KBKB BKB20191018095020710/18/19 09:50:31  5-MIN KBKB 181550Z AUTO VRB04KT 10SM CLR 18/11 A2989 320 62 800 VRB/04 RMK AO2 SLP150 T01830111 PWINO PNO $ 58 1000 VRB/03 RMK AO2 T01940111 PWINO PNO $330 54 1000 VRB/04 RMK AO2 T02000106
53988KBKB BKB20191018102511110/18/19 10:25:31  5-MIN KBKB 181625Z AUTO VRB03KT 10SM BKN046 20/11 A2989 330 56 1000 VRB/03 RMK AO2 T02000111
53988KBKB BKB20191018103011110/18/19 10:30:31  5-MIN KBKB 181630Z AUTO VRB04KT 10SM BKN046 20/11 A2989 330 56 1000 VRB/04 RMK AO2 T02000111
53988KBKB BKB20191018103511110/18/19 10:35:31  5-MIN KBKB 181635Z AUTO 09004KT 10SM BKN046 21/11 A2988 330 54 1100 090/04 RMK AO2 T02060111
53988KBKB BKB20191018104011110/18/19 10:40:31  5-MIN KBKB 181640Z AUTO VRB04KT 10SM SCT046 21/11 A2988 340 54 1100 VRB/04 RMK AO2 T02060111
53988KBKB BKB20191018104511110/18/19 10:45:31  5-MIN KBKB 181645Z AUTO VRB03KT 10SM SCT046 21/11 A2987 340 54 1100 VRB/03 RMK AO2 T02060111
53988KBKB BKB20191018105010710/18/19 10:50:31  5-MIN KBKB 181650Z AUTO VRB04KT 10SM FEW046 22/11 A2987 340 50 1200 VRB/04 RMK A02280100
53988KBKB BKB20191018122510810/18/19 12:25:31  5-MIN KBKB 181825Z AUTO VRB04KT 10SM CLR 23/09 A2982 390 42 1400 VRB/04 RMK AO2 T02280094
53988KBKB BKB20191018123010810/18/19 12:30:31  5-MIN KBKB 181830Z AUTO VRB04KT 10SM CLR 24/10 A2982 390 41 1500 VRB/04 RMK AO2 T02390100
53988KBKB BKB20191018123510810/18/19 12:35:31  5-MIN KBKB 181835Z AUTO VRB04KT 10SM CLR 24/09 A2982 390 39 1600 VRB/04 RMK AO2 T02390094
53988KBKB BKB20191018124005310/18/19 12:40:31  5-MIN KBKB 181840Z AUTO VRB2280089
53988KBKB BKB20191018130510810/18/19 13:05:31  5-MIN KBKB 181905Z AUTO VRB03KT 10SM CLR 23/08 A2981 400 38 1500 VRB/03 RMK AO2 T02330083
53988KBKB BKB20191018131010810/18/19 13:10:31  5-MIN KBKB 181910Z AUTO VRB04KT 10SM CLR 24/08 A2981 400 35 1600 VRB/04 RMK AO2 T02390078
53988KBKB BKB20191018131510810/18/19 13:15:31  5-MIN KBKB 181915Z AUTO VRB04KT 10SM CLR 24/06 A2981 400 31 1600 VRB/04 RMK AO2 T02390061
53988KBKB BKB20191018132010810/18/19 13:20:31  5-MIN KBKB 181920Z AUTO VRB03KT 10SM CLR 24/07 A2981 400 32 1600 VRB/03 RMK AO2 T02390067
53988KBKB BKB20191018132510810/18/19 13:25:31  5-MIN KBKB 181925Z AUTO VRB05KT 10SM CLR 24/06 A2980 410 30 1600 VRB/05 RMK AO2 T02390056
53988KBKB BKB20191018133010810/18/19 13:30:31  5-MIN KBKB 181930Z AUTO VRB04KT 10SM CLR 24/05 A2980 410 29 1600 VRB/04 RMK AO2 T02390050
53988KBKB BKB20191018133512910/18/19 13:35:31  5-MIN KBKB 181935Z AUTO 06006KT 10SM CLR 24/06 A2980 410 30 1600 050/06 RMK20 36 1600 VRB/03 RMK AO2 T02390083
53988KBKB BKB20191018141510810/18/19 14:15:31  5-MIN KBKB 182015Z AUTO VRB04KT 10SM CLR 24/08 A2979 420 34 1700 VRB/04 RMK AO2 T02440078
53988KBKB BKB20191018142010810/18/19 14:20:31  5-MIN KBKB 182020Z AUTO VRB04KT 10SM CLR 24/07 A2978 420 32 1600 VRB/04 RMK AO2 T02390067
53988KBKB BKB20191018142517210/18/19 14:25:31  5-MIN KBKB 182025Z AUTO VRB04KT 10SM CLR 24/07 A2978 430 33 1700 VRB/04 RMK AO2 T0244007210/18/19 14:30: 23/09 A2977 440 41 1600 040/03 RMK AO2 T02330094
53988KBKB BKB20191018161510810/18/19 16:15:31  5-MIN KBKB 182215Z AUTO VRB03KT 10SM CLR 23/10 A2977 440 42 1600 VRB/03 RMK AO2 T02330100
53988KBKB BKB20191018162010810/18/19 16:20:31  5-MIN KBKB 182220Z AUTO 00000KT 10SM CLR 23/10 A2977 440 42 1500 000/00 RMK AO2 T02330100
53988KBKB BKB20191018162510810/18/19 16:25:31  5-MIN KBKB 182225Z AUTO VRB03KT 10SM CLR 23/10 A2977 440 44 1500 VRB/03 RMK AO2 T02280100
53988KBKB BKB20191018163010810/18/19 16:30:31  5-MIN KBKB 182230Z AUTO 00000KT 10SM CLR 23/09 A2977 440 42 1500 000/00 RMK AO2 T02280094
53988KBKB BKB20191018163510810/18/19 16:35:31  5-MIN KBKB 182235Z AUTO 00000KT 10SM CLR 22/10 A2976 440 47 1400 000/00 RMK AO2 T02170100
53988KBKB BKB20191018164010810/18/19 16:40:31  5-MIN KBKB 182240Z AUTO 00000KT 10SM CLR 22/09 A2977 440 45 1400 000/00 RMK AO2 T02170094
53988KBKB BKB20191018164510810/18/19 16:45:31  5-MIN KBKB 182245Z AUTO 00000KT 10SM CLR 21/10 A2977 440 48 1300 000/00 RMK AO2 T02110100
53988KBKB BKB20191018165011510/18/19 16:50:31  5-MIN KBKB 182250Z AUTO 00000KT 10SM CLR 21/10 A2977 440 50 1200 000/00 RMK AO2 SLP107 T02060100
53988KBKB BKB20191018165510810/18/19 16:55:31  5-MIN KBKB 182255Z AUTO 00000KT 10SM CLR 21/10 A2977 440 50 1200 000/00 RMK AO2 T02060100
53988KBKB BKB20191018170010810/18/19 17:00:31  5-MIN KBKB 182300Z AUTO 00000KT 10SM CLR 20/10 A2977 440 52 1200 000/00 RMK AO2 T02000100
53988KBKB BKB20191018170510810/18/19 17:05:31  5-MIN KBKB 182305Z AUTO 00000KT 10SM CLR 19/11 A2977 440 56 1100 000/00 RMK AO2 T01940106
53988KBKB BKB20191018171010810/18/19 17:10:31  5-MIN KBKB 182310Z AUTO 00000KT 10SM CLR 19/11 A2977 440 58 1000 000/00 RMK AO2 T01890106
53988KBKB BKB20191018171510810/18/19 17:15:31  5-MIN KBKB 182315Z AUTO 00000KT 10SM CLR 19/11 A2977 440 58 1000 000/00 RMK AO2 T01890106
53988KBKB BKB20191018172010810/18/19 17:20:31  5-MIN KBKB 182320Z AUTO 00000KT 10SM CLR 18/11 A2977 440 62 1000 000/00 RMK AO2 T01830111
53988KBKB BKB20191018172510810/18/19 17:25:31  5-MIN KBKB 182325Z AUTO 00000KT 10SM CLR 18/11 A2977 440 62 1000 000/00 RMK AO2 T01830111
53988KBKB BKB20191018173012310/18/19 17:30:31  5-MIN KBKB 182330Z AUTO 00000KT 10SM -RA CLR 18/11 A2977 440 64 900 000/00 RMK AO2 RAB27 P0000 T01780111
53988KBKB BKB20191018173512310/18/19 17:35:31  5-MIN KBKB 182335Z AUTO 00000KT 10SM -RA CLR 18/11 A2977 440 64 900 000/00 RMK AO2 RAB27 P0000 T01780111
53988KBKB BKB20191018174012310/18/19 17:40:31  5-MIN KBKB 182340Z AUTO 00000KT 10SM -RA CLR 17/11 A2977 440 67 800 000/00 RMK AO2 RAB27 P0000 T01720111
53988KBKB BKB20191018174512310/18/19 17:45:31  5-MIN KBKB 182345Z AUTO 00000KT 10SM -RA CLR 17/11 A2977 440 67 800 000/00 RMK AO2 RAB27 P0000 T01720111
53988KBKB BKB20191018175015410/18/19 17:50:31  5-MIN KBKB 182350Z AUTO 00000KT 10SM -RA CLR 17/11 A2976 440 67 800 000/00 RMK AO2 RAB27 SLP106 P0000 60000 T01720111 10250 20172 58020
53988KBKB BKB20191018175511710/18/19 17:55:31  5-MIN KBKB 182355Z AUTO 00000KT 10SM -RA CLR 17/11 A2976 440 69 800 000/00 RMK AO2 P0000 T01670111
53988KBKB BKB20191018180011910/18/19 18:00:31  5-MIN KBKB 190000Z AUTO 00000KT 10SM CLR 17/11 A2976 440 69 800 000/00 RMK AO2 RAE00 P0000 T01670111
53988KBKB BKB20191018180511910/18/19 18:05:31  5-MIN KBKB 190005Z AUTO 00000KT 10SM CLR 17/11 A2976 440 67 800 000/00 RMK AO2 RAE00 P0000 T01670106
53988KBKB BKB20191018180520510/18/19 18:05:31  5-MIN KBKB 190005Z AUTO 00000KT 10SM CLR 17/11 A2976 440 67 800 000/00 RMK AO2 RAE00 P0000 T0167010610/18/19 1 10SM CLR 16/12 A2977 440 77 600 000/00 RMK AO2 RAE00 SLP108 P0000 T01560117
53988KBKB BKB20191018181011910/18/19 18:10:31  5-MIN KBKB 190010Z AUTO 00000KT 10SM CLR 17/11 A2976 440 67 800 000/00 RMK AO2 RAE00 P0000 T01670106
53988KBKB BKB20191018181511910/18/19 18:15:31  5-MIN KBKB 190015Z AUTO 00000KT 10SM CLR 16/11 A2976 440 72 700 000/00 RMK AO2 RAE00 P0000 T01610111
53988KBKB BKB20191018182011910/18/19 18:20:31  5-MIN KBKB 190020Z AUTO 00000KT 10SM CLR 16/11 A2976 440 69 700 000/00 RMK AO2 RAE00 P0000 T01610106
53988KBKB BKB20191018182511910/18/19 18:25:31  5-MIN KBKB 190025Z AUTO 00000KT 10SM CLR 16/11 A2976 440 69 700 000/00 RMK AO2 RAE00 P0000 T01610106
53988KBKB BKB20191018183011910/18/19 18:30:31  5-MIN KBKB 190030Z AUTO 00000KT 10SM CLR 16/11 A2977 440 69 700 000/00 RMK AO2 RAE00 P0000 T01610106
53988KBKB BKB20191018183511910/18/19 18:35:31  5-MIN KBKB 190035Z AUTO 00000KT 10SM CLR 16/11 A2977 440 74 600 000/00 RMK AO2 RAE00 P0000 T01560111
53988KBKB BKB20191018184011910/18/19 18:40:31  5-MIN KBKB 190040Z AUTO 00000KT 10SM CLR 16/12 A2977 440 75 700 000/00 RMK AO2 RAE00 P0000 T01610117
53988KBKB BKB20191018184511910/18/19 18:45:31  5-MIN KBKB 190045Z AUTO 00000KT 10SM CLR 16/12 A2977 440 77 700 000/00 RMK AO2 RAE00 P0000 T01610122
53988KBKB BKB20191018185012610/18/19 18:50:31  5-MIN KBKB 190050Z AUTO 00000KT 10SM CLR 16/12 A2977 440 77 600 000/00 RMK AO2 RAE00 SLP108 P0000 T01560117
53988KBKB BKB20191018185510710/18/19 18:55:31  5-MIN KBKB 190055Z AUTO 00000KT 10SM CLR 16/12 A2977 440 77 600 000/00 RMK AO2 T01560117
53988KBKB BKB20191018190010710/18/19 19:00:31  5-MIN KBKB 190100Z AUTO 00000KT 10SM CLR 16/11 A2977 440 74 600 000/00 RMK AO2 T01560111
53988KBKB BKB20191018190510710/18/19 19:05:31  5-MIN KBKB 190105Z AUTO 00000KT 10SM CLR 15/11 A2977 440 77 600 000/00 RMK AO2 T01500111
53988KBKB BKB20191018191010710/18/19 19:10:31  5-MIN KBKB 190110Z AUTO 00000KT 10SM CLR 16/11 A2977 440 72 600 000/00 RMK AO2 T01560106
53988KBKB BKB20191018191510710/18/19 19:15:31  5-MIN KBKB 190115Z AUTO 00000KT 10SM CLR 16/11 A2977 440 69 700 000/00 RMK AO2 T01610106
53988KBKB BKB20191018192010710/18/19 19:20:31  5-MIN KBKB 190120Z AUTO 00000KT 10SM CLR 16/11 A2977 440 69 700 000/00 RMK AO2 T01610106
53988KBKB BKB20191018192510710/18/19 19:25:31  5-MIN KBKB 190125Z AUTO 00000KT 10SM CLR 17/09 A2977 440 62 800 000/00 RMK AO2 T01670094
53988KBKB BKB20191018193010710/18/19 19:30:31  5-MIN KBKB 190130Z AUTO 00000KT 10SM CLR 17/10 A2977 440 64 800 000/00 RMK AO2 T01670100
53988KBKB BKB20191018193510710/18/19 19:35:31  5-MIN KBKB 190135Z AUTO 00000KT 10SM CLR 17/09 A2977 440 62 800 000/00 RMK AO2 T01670094
53988KBKB BKB20191018194010710/18/19 19:40:31  5-MIN KBKB 190140Z AUTO 00000KT 10SM CLR 16/09 A2977 440 64 700 000/00 RMK AO2 T01610094
53988KBKB BKB20191018194510710/18/19 19:45:31  5-MIN KBKB 190145Z AUTO 00000KT 10SM CLR 16/11 A2977 440 72 600 000/00 RMK AO2 T01560106
53988KBKB BKB20191018195011410/18/19 19:50:31  5-MIN KBKB 190150Z AUTO 00000KT 10SM CLR 15/12 A2977 440 80 600 000/00 RMK AO2 SLP109 T01500117
53988KBKB BKB20191018195510710/18/19 19:55:31  5-MIN KBKB 190155Z AUTO 00000KT 10SM CLR 15/12 A2977 440 80 600 000/00 RMK AO2 T01500117
53988KBKB BKB20191018200010710/18/19 20:00:31  5-MIN KBKB 190200Z AUTO 00000KT 10SM CLR 15/11 A2977 440 77 600 000/00 RMK AO2 T01500111
53988KBKB BKB20191018200510710/18/19 20:05:31  5-MIN KBKB 190205Z AUTO VRB03KT 10SM CLR 16/11 A2977 440 72 600 VRB/03 RMK AO2 T01560106
53988KBKB BKB20191018201010710/18/19 20:10:31  5-MIN KBKB 190210Z AUTO 00000KT 10SM CLR 16/11 A2976 440 72 700 000/00 RMK AO2 T01560106
53988KBKB BKB20191018201510710/18/19 20:15:31  5-MIN KBKB 190215Z AUTO 00000KT 10SM CLR 16/10 A2976 450 67 700 000/00 RMK AO2 T01610100
53988KBKB BKB20191018202010710/18/19 20:20:31  5-MIN KBKB 190220Z AUTO 00000KT 10SM CLR 17/09 A2976 450 62 800 000/00 RMK AO2 T01670094
53988KBKB BKB20191018202510710/18/19 20:25:31  5-MIN KBKB 190225Z AUTO 00000KT 10SM CLR 17/09 A2976 450 62 800 000/00 RMK AO2 T01670094
53988KBKB BKB20191018203010710/18/19 20:30:31  5-MIN KBKB 190230Z AUTO 00000KT 10SM CLR 16/11 A2976 440 72 700 000/00 RMK AO2 T01560106
53988KBKB BKB20191018203510710/18/19 20:35:31  5-MIN KBKB 190235Z AUTO 00000KT 10SM CLR 15/12 A2976 440 80 600 000/00 RMK AO2 T01500117
53988KBKB BKB20191018204010710/18/19 20:40:31  5-MIN KBKB 190240Z AUTO 00000KT 10SM CLR 14/12 A2977 440 83 500 000/00 RMK AO2 T01440117
53988KBKB BKB20191018204510710/18/19 20:45:31  5-MIN KBKB 190245Z AUTO 00000KT 10SM CLR 14/12 A2977 440 86 500 000/00 RMK AO2 T01390117
53988KBKB BKB20191018205012610/18/19 20:50:31  5-MIN KBKB 190250Z AUTO 00000KT 10SM CLR 14/12 A2977 440 86 500 000/00 RMK AO2 SLP108 60000 T01390117 56004
53988KBKB BKB20191018205510710/18/19 20:55:31  5-MIN KBKB 190255Z AUTO 00000KT 10SM CLR 14/11 A2977 440 83 500 000/00 RMK AO2 T01390111
53988KBKB BKB20191018210010710/18/19 21:00:31  5-MIN KBKB 190300Z AUTO 00000KT 10SM CLR 14/11 A2977 440 80 400 000/00 RMK AO2 T01390106
53988KBKB BKB20191018210510710/18/19 21:05:31  5-MIN KBKB 190305Z AUTO 00000KT 10SM CLR 14/11 A2977 440 77 500 000/00 RMK AO2 T01440106
53988KBKB BKB20191018211015110/18/19 21:10:31  5-MIN KBKB 190310Z AUTO 00000KT 10SM CLR 14/11 A2977 430 77 500 000/00 RMK AO2 T0144010610/18/19 230 89 200 000/00 RMK AO2 T01170100
53988KBKB BKB20191019010510710/19/19 01:05:31  5-MIN KBKB 190705Z AUTO 00000KT 10SM CLR 12/10 A2977 430 89 200 000/00 RMK AO2 T01170100
53988KBKB BKB20191019011010810/19/19 01:10:31  5-MIN KBKB 190710Z AUTO 00000KT 10SM CLR 12/10 A2977 44031  5-MI 000/00 RMK AO2 T01170100
53988KBKB BKB20191019011510710/19/19 01:15:31  5-MIN KBKB 190715Z AUTO 00000KT 10SM CLR 12/10 A2977 440 89 200 000/00 RMK AO2 T01170100
53988KBKB BKB20191019012010710/19/19 01:20:31  5-MIN KBKB 190720Z AUTO 00000KT 10SM CLR 12/10 A2977 440 89 200 000/00 RMK AO2 T01170100
53988KBKB BKB20191019012510710/19/19 01:25:31  5-MIN KBKB 190725Z AUTO 00000KT 10SM CLR 12/10 A2977 440 89 200 000/00 RMK AO2 T01170100
53988KBKB BKB20191019012528010/19/19 01:25:31  5-MIN KBKB 190725Z AUTO 00000KT 10SM CLR 12/10 A2977 440 89 200 000/00 RMK A 190705Z AUTO 00000KT 10SM CLR 12/10 A2977 430 89 200 000/00 RMK AM CLR 12/11 A2977 440 93 200 000/00 RMK B 190710Z AUTO 00000KT 10SM CLR 12/10 A2977 440 89 200 000/00 RMK AO2 T01170100
53988KBKB BKB20191019013010710/19/19 01:30:31  5-MIN KBKB 190730Z AUTO 00000KT 10SM CLR 12/11 A2977 440 93 200 000/00 RMK AO2 T01170106
53988KBKB BKB20191019013510710/19/19 01:35:31  5-MIN KBKB 190735Z AUTO 00000KT 10SM CLR 12/11 A2976 440 93 200 000/00 RMK AO2 T01170106
53988KBKB BKB20191019014010610/19/19 01:40:31  5-MIN KBKB 190740Z AUTO 00000KT 9SM CLR 11/10 A2976 440 93 100 000/00 RMK AO2 T01110100
53988KBKB BKB20191019014510710/19/19 01:45:31  5-MIN KBKB 190745Z AUTO 00000KT 10SM CLR 11/10 A2976 450 93 100 000/00 RMK AO2 T01110100
53988KBKB BKB20191019015011410/19/19 01:50:31  5-MIN KBKB 190750Z AUTO 00000KT 10SM CLR 11/10 A2976 440 93 100 000/00 RMK AO2 SLP105 T01110100
53988KBKB BKB20191019015017410/19/19 01:50:31  5-MIN KBKB 190750Z AUTO 00000KT 10SM CLR 11/10 A2976 440 93 100 000/00 RMK AO2190730Z AUTO 00000KT 10SM CLR 12/11 A2977 440 93 200 000/00 RMK AO2 T01170106
53988KBKB BKB20191019015510710/19/19 01:55:31  5-MIN KBKB 190755Z AUTO 00000KT 10SM CLR 11/10 A2976 450 93 100 000/00 RMK AO2 T01110100
53988KBKB BKB20191019020010710/19/19 02:00:31  5-MIN KBKB 190800Z AUTO 00000KT 10SM CLR 12/10 A2976 450 89 200 000/00 RMK AO2 T01170100
53988KBKB BKB20191019020510610/19/19 02:05:31  5-MIN KBKB 190805Z AUTO 00000KT 9SM CLR 12/11 A2976 450 93 200 000/00 RMK AO2 T01170106
53988KBKB BKB20191019021011510/19/19 02:10:31  5-MIN KBKB 190810Z AUTO 00000KT 8SM CLR 12/11 A2976 450 93 200 0093 100 000/00 RMK AO2 T01110100
53988KBKB BKB20191019021020610/19/19 02:10:31  5-MIN KBKB 190810Z AUTO 00000KT 8SM CLR 12/11 A2976 450 93 200 000/00 RMK AO2 T0UTO 00000KT 10SM CLR 11/10 A2976 440 93 100 000/00 RMK AO2 SLP105 T01110100 93 100 000/00 RMK AO2 T01110100
53988KBKB BKB20191019050510610/19/19 05:05:31  5-MIN KBKB 191105Z AUTO 00000KT 8SM CLR 11/10 A2977 440 93 100 000/00 RMK AO2 T01110100
53988KBKB BKB20191019051011310/19/19 05:10:31  5-MIN KBKB 191110Z AUTO 00000KT 7SM CLR 11/10 A2978 430 93 100 000/00 RMK AO2 PRESRR T01110100
53988KBKB BKB20191019051510610/19/19 05:15:31  5-MIN KBKB 191115Z AUTO 00000KT 8SM CLR 11/10 A2978 430 93 100 000/00 RMK AO2 T01110100
53988KBKB BKB20191019052010410/19/19 05:20:31  5-MIN KBKB 191120Z AUTO 00000KT 7SM CLR 11/10 A2978 430 96 0 000/00 RMK AO2 T01060100
53988KBKB BKB20191019052016710/19/19 05:20:31  5-MIN KBKB 191120Z AUTO 00000KT 7SM CLR 11/10 A2978 430 96 0 000/00 RMK AO2 T0106010010/19/T 8SM CLR 11/10 A2977 440 93 100 000/00 RMK AO2 T01110100
53988KBKB BKB20191019052510710/19/19 05:25:31  5-MIN KBKB 191125Z AUTO 00000KT 6SM BR CLR 11/10 A2978 430 96 0 000/00 RMK AO2 T01060100
53988KBKB BKB20191019053010710/19/19 05:30:31  5-MIN KBKB 191130Z AUTO 00000KT 6SM BR CLR 11/09 A2978 430 93 0 000/00 RMK AO2 T01060094
53988KBKB BKB20191019053017510/19/19 05:30:31  5-MIN KBKB 191130Z AUTO 00000KT 6SM BR CLR 11/09 A2978 430 93 0 000/00 RMK AO2 T0106009410/19/19 05:R 11/10 A2978 430 93 100 000/00 RMK AO2 PRESRR T01110100
53988KBKB BKB20191019053510710/19/19 05:35:31  5-MIN KBKB 191135Z AUTO 00000KT 6SM BR CLR 11/09 A2978 430 93 0 000/00 RMK AO2 T01060094
53988KBKB BKB20191019054010710/19/19 05:40:31  5-MIN KBKB 191140Z AUTO 00000KT 6SM BR CLR 11/10 A2978 430 96 0 000/00 RMK AO2 T01060100
53988KBKB BKB20191019054013610/19/19 05:40:31  5-MIN KBKB 191140Z AUTO 00000KT 6SM BR CLR 11/10 A2978 430 96 0 000/00 RMK AO2 T0106010096 0 000/00 RMK AO2 T01060100
53988KBKB BKB20191019063510910/19/19 06:35:31  5-MIN KBKB 191235Z AUTO 00000KT 4SM BR CLR 11/10 A2978 430 93 100 000/00 RMK AO2 T01110100
53988KBKB BKB20191019064010910/19/19 06:40:31  5-MIN KBKB 191240Z AUTO 00000KT 3SM BR CLR 11/10 A2978 420 93 100 000/00 RMK AO2 T01110100
53988KBKB BKB20191019064510910/19/19 06:45:31  5-MIN KBKB 191245Z AUTO 00000KT 3SM BR CLR 11/10 A2979 420 93 100 000/00 RMK AO2 T01110100
53988KBKB BKB20191019065011610/19/19 06:50:31  5-MIN KBKB 191250Z AUTO 00000KT 3SM BR CLR 11/11 A2979 420 96 100 000/00 RMK AO2 SLP115 T01110106
53988KBKB BKB20191019065510910/19/19 06:55:31  5-MIN KBKB 191255Z AUTO 00000KT 3SM BR CLR 11/11 A2979 420 96 100 000/00 RMK AO2 T01110106
53988KBKB BKB20191019070010910/19/19 07:00:31  5-MIN KBKB 191300Z AUTO 00000KT 3SM BR CLR 11/11 A2979 420 96 100 000/00 RMK AO2 T01110106
53988KBKB BKB20191019070510910/19/19 07:05:31  5-MIN KBKB 191305Z AUTO 00000KT 3SM BR CLR 12/11 A2979 420 96 200 000/00 RMK AO2 T01170111
53988KBKB BKB20191019071010910/19/19 07:10:31  5-MIN KBKB 191310Z AUTO 00000KT 3SM BR CLR 12/12 A2979 420 96 200 000/00 RMK AO2 T01220117
53988KBKB BKB20191019071510910/19/19 07:15:31  5-MIN KBKB 191315Z AUTO 00000KT 4SM BR CLR 13/12 A2979 420 96 300 000/00 RMK AO2 T01280122
53988KBKB BKB20191019072010910/19/19 07:20:31  5-MIN KBKB 191320Z AUTO 00000KT 4SM BR CLR 13/12 A2979 420 93 400 000/00 RMK AO2 T01330122
53988KBKB BKB20191019072510910/19/19 07:25:31  5-MIN KBKB 191325Z AUTO 00000KT 4SM BR CLR 14/13 A2979 420 93 400 000/00 RMK AO2 T01390128
53988KBKB BKB20191019073010910/19/19 07:30:31  5-MIN KBKB 191330Z AUTO 00000KT 5SM BR CLR 14/13 A2979 420 90 500 000/00 RMK AO2 T01440128
53988KBKB BKB20191019073510910/19/19 07:35:31  5-MIN KBKB 191335Z AUTO 00000KT 5SM BR CLR 15/13 A2979 420 90 600 000/00 RMK AO2 T01500133
53988KBKB BKB20191019074010910/19/19 07:40:31  5-MIN KBKB 191340Z AUTO 00000KT 5SM BR CLR 15/13 A2979 420 86 600 000/00 RMK AO2 T01500128
53988KBKB BKB20191019074510910/19/19 07:45:31  5-MIN KBKB 191345Z AUTO 00000KT 6SM HZ CLR 16/12 A2979 420 80 600 000/00 RMK AO2 T01560122
53988KBKB BKB20191019075011610/19/19 07:50:31  5-MIN KBKB 191350Z AUTO 00000KT 6SM HZ CLR 16/12 A2980 410 77 700 000/00 RMK AO2 SLP117 T01610122
53988KBKB BKB20191019075510610/19/19 07:55:31  5-MIN KBKB 191355Z AUTO 00000KT 8SM CLR 17/12 A2980 410 72 700 000/00 RMK AO2 T01670117
53988KBKB BKB20191019080010710/19/19 08:00:31  5-MIN KBKB 191400Z AUTO 00000KT 10SM CLR 17/12 A2980 410 75 700 000/00 RMK AO2 T01670122
53988KBKB BKB20191019080510710/19/19 08:05:31  5-MIN KBKB 191405Z AUTO 00000KT 10SM CLR 17/12 A2980 410 69 800 000/00 RMK AO2 T01720117
53988KBKB BKB20191019081010710/19/19 08:10:31  5-MIN KBKB 191410Z AUTO 00000KT 10SM CLR 17/12 A2980 410 72 800 000/00 RMK AO2 T01720122
53988KBKB BKB20191019081510710/19/19 08:15:31  5-MIN KBKB 191415Z AUTO 00000KT 10SM CLR 18/12 A2980 410 67 900 000/00 RMK AO2 T01780117
53988KBKB BKB20191019082010710/19/19 08:20:31  5-MIN KBKB 191420Z AUTO 00000KT 10SM CLR 18/12 A2979 420 67 900 000/00 RMK AO2 T01780117
53988KBKB BKB20191019082510710/19/19 08:25:31  5-MIN KBKB 191425Z AUTO 00000KT 10SM CLR 18/12 A2979 420 67 900 000/00 RMK AO2 T01830122
53988KBKB BKB20191019083010710/19/19 08:30:31  5-MIN KBKB 191430Z AUTO 00000KT 10SM CLR 18/12 A2979 420 67 900 000/00 RMK AO2 T01830122
53988KBKB BKB20191019083510810/19/19 08:35:31  5-MIN KBKB 191435Z AUTO 00000KT 10SM CLR 19/12 A2979 420 65 1000 000/00 RMK AO2 T01890122
53988KBKB BKB20191019084010810/19/19 08:40:31  5-MIN KBKB 191440Z AUTO 00000KT 10SM CLR 19/12 A2980 410 62 1100 000/00 RMK AO2 T01940122
53988KBKB BKB20191019084509010/19/19 08:45:31  5-MIN KBKB 191445Z AUTO VRB03KT 10SM CLR 19/12 A2979 410K AO2 T02000122
53988KBKB BKB20191019090010810/19/19 09:00:31  5-MIN KBKB 191500Z AUTO 00000KT 10SM CLR 21/12 A2980 410 58 1200 000/00 RMK AO2 T02060122
53988KBKB BKB20191019090510810/19/19 09:05:31  5-MIN KBKB 191505Z AUTO 00000KT 10SM CLR 21/13 A2980 410 58 1300 000/00 RMK AO2 T02110128
53988KBKB BKB20191019091010810/19/19 09:10:31  5-MIN KBKB 191510Z AUTO 00000KT 10SM CLR 21/13 A2980 410 60 1200 000/00 RMK AO2 T02060128
53988KBKB BKB20191019091508510/19/19 09:15:31  5-MIN KBKB 191515Z AUTO 00000KT 10SM CL00 260/04 RMK AO2 T02560161
53988KBKB BKB20191019105011510/19/19 10:50:31  5-MIN KBKB 191650Z AUTO 00000KT 10SM CLR 26/16 A2978 430 53 1800 000/00 RMK AO2 SLP111 T02560156
53988KBKB BKB20191019105510810/19/19 10:55:31  5-MIN KBKB 191655Z AUTO VRB03KT 10SM CLR 26/16 A2978 430 51 1800 VRB/03 RMK AO2 T02610156
53988KBKB BKB20191019110013110/19/19 11:00:31  5-MIN KBKB 191700Z AUTO VRB04KT 10SM CLR 27/16 A2978 430 52 1900 VRB/04 RMK AO2 T0267016110/19/19 11:05:02780172
53988KBKB BKB20191019122510810/19/19 12:25:31  5-MIN KBKB 191825Z AUTO 27004KT 10SM CLR 28/17 A2974 460 50 2100 260/04 RMK AO2 T02830172
53988KBKB BKB20191019123010810/19/19 12:30:31  5-MIN KBKB 191830Z AUTO VRB03KT 10SM CLR 28/17 A2974 460 52 2100 VRB/03 RMK AO2 T02780172
53988KBKB BKB20191019123510810/19/19 12:35:31  5-MIN KBKB 191835Z AUTO 00000KT 10SM CLR 28/17 A2974 470 50 2100 000/00 RMK AO2 T02830172
53988KBKB BKB20191019124010810/19/19 12:40:31  5-MIN KBKB 191840Z AUTO VRB04KT 10SM CLR 29/17 A2973 470 48 2200 VRB/04 RMK AO2 T02890172
53988KBKB BKB20191019124510810/19/19 12:45:31  5-MIN KBKB 191845Z AUTO 00000KT 10SM CLR 28/17 A2973 470 52 2100 000/00 RMK AO2 T02780172
53988KBKB BKB20191019125011510/19/19 12:50:31  5-MIN KBKB 191850Z AUTO VRB03KT 10SM CLR 28/17 A2973 470 50 2200 VRB/03 RMK AO2 SLP094 T02830172
53988KBKB BKB20191019125510810/19/19 12:55:31  5-MIN KBKB 191855Z AUTO 00000KT 10SM CLR 28/17 A2973 480 50 2200 000/00 RMK AO2 T02830172
53988KBKB BKB20191019130010810/19/19 13:00:31  5-MIN KBKB 191900Z AUTO 00000KT 10SM CLR 28/17 A2973 480 50 2200 000/00 RMK AO2 T02830172
53988KBKB BKB20191019130511110/19/19 13:05:31  5-MIN KBKB 191905Z AUTO VRB05KT 10SM FEW042 29/17 A2972 480 48 2200 VRB/05 RMK AO2 T02890172
53988KBKB BKB20191019131011110/19/19 13:10:31  5-MIN KBKB 191910Z AUTO VRB04KT 10SM FEW042 28/17 A2972 480 50 2200 VRB/04 RMK AO2 T02830172
53988KBKB BKB20191019131511110/19/19 13:15:31  5-MIN KBKB 191915Z AUTO 00000KT 10SM FEW042 29/17 A2972 480 48 2200 000/00 RMK AO2 T02890172
53988KBKB BKB20191019132016210/19/19 13:20:31  5-MIN KBKB 191920Z AUTO VRB03KT 10SM FEW042 29/17 A2972 490 48 2200 VRB/03 RMK AO2 T0289017210/19/19 13971 490 54 2200 000/00 RMK AO2 T02830183
53988KBKB BKB20191019144511110/19/19 14:45:31  5-MIN KBKB 192045Z AUTO 00000KT 10SM OVC044 29/18 A2971 500 50 2300 000/00 RMK AO2 T02940183
53988KBKB BKB20191019145012410/19/19 14:50:31  5-MIN KBKB 192050Z AUTO 00000KT 10SM OVC044 28/18 A2971 490 54 2200 000/00 RMK AO2 SLP087 T02830183 58013
53988KBKB BKB20191019145507510/19/19 14:55:31  5-MIN KBKB 192055Z AUTO 00000KT 10SM OVC043 28/18 A2971 
53988KBKB BKB20191019173510810/19/19 17:35:31  5-MIN KBKB 192335Z AUTO 00000KT 10SM CLR 24/21 A2972 480 81 1700 000/00 RMK AO2 T02390206
53988KBKB BKB20191019174011110/19/19 17:40:31  5-MIN KBKB 192340Z AUTO 00000KT 10SM FEW043 24/21 A2972 480 81 1700 000/00 RMK AO2 T02390206
53988KBKB BKB20191019174511110/19/19 17:45:31  5-MIN KBKB 192345Z AUTO 00000KT 10SM FEW041 23/21 A2972 480 84 1600 000/00 RMK AO2 T02330206
53988KBKB BKB20191019175013610/19/19 17:50:31  5-MIN KBKB 192350Z AUTO 00000KT 10SM FEW041 23/20 A2972 480 84 1500 000/00 RMK AO2 SLP092 T02280200 10306 20228 55016
53988KBKB BKB20191019175511110/19/19 17:55:31  5-MIN KBKB 192355Z AUTO 00000KT 10SM FEW041 23/20 A2972 480 84 1500 000/00 RMK AO2 T02280200
53988KBKB BKB20191019180011110/19/19 18:00:31  5-MIN KBKB 200000Z AUTO 00000KT 10SM FEW042 23/20 A2972 480 84 1500 000/00 RMK AO2 T02280200
53988KBKB BKB20191019180511110/19/19 18:05:31  5-MIN KBKB 200005Z AUTO 00000KT 10SM FEW042 23/20 A2972 480 84 1500 000/00 RMK AO2 T02280200
53988KBKB BKB20191019181010810/19/19 18:10:31  5-MIN KBKB 200010Z AUTO 00000KT 10SM CLR 23/20 A2972 480 84 1500 000/00 RMK AO2 T02280200
53988KBKB BKB20191019181510810/19/19 18:15:31  5-MIN KBKB 200015Z AUTO 00000KT 10SM CLR 22/20 A2972 480 87 1500 000/00 RMK AO2 T02220200
53988KBKB BKB20191019182010810/19/19 18:20:31  5-MIN KBKB 200020Z AUTO 00000KT 10SM CLR 22/20 A2973 480 87 1500 000/00 RMK AO2 T02220200
53988KBKB BKB20191019182510810/19/19 18:25:31  5-MIN KBKB 200025Z AUTO 00000KT 10SM CLR 22/20 A2973 480 87 1500 000/00 RMK AO2 T02220200
53988KBKB BKB20191019183010810/19/19 18:30:31  5-MIN KBKB 200030Z AUTO 00000KT 10SM CLR 22/20 A2973 470 90 1400 000/00 RMK AO2 T02170200
53988KBKB BKB20191019183510810/19/19 18:35:31  5-MIN KBKB 200035Z AUTO 00000KT 10SM CLR 22/20 A2973 470 90 1400 000/00 RMK AO2 T02170200
53988KBKB BKB20191019184010810/19/19 18:40:31  5-MIN KBKB 200040Z AUTO 00000KT 10SM CLR 22/20 A2973 470 90 1400 000/00 RMK AO2 T02170200
53988KBKB BKB20191019184514410/19/19 18:45:31  5-MIN KBKB 200045Z AUTO 00000KT 10SM CLR 22/20 A2974 470 90 1400 000/00 RMK AO2 T02170200450 93 1300 000/00 RMK AO2 T02110200
53988KBKB BKB20191019200512510/19/19 20:05:31  5-MIN KBKB 200205Z AUTO 00000KT 10SM FEW034 BKN047 BKN060 21/20 A2976 450 93 1300 000/00 RMK AO2 T02110200
53988KBKB BKB20191019201015810/19/19 20:10:31  5-MIN KBKB 200210Z AUTO 00000KT 10SM FEW032 BKN049 BKN060 21/19 A2976 440 90 1300 000/00 RMK AO2 T02110194 93 1200 000/00 RMK AO2 T02060194
53988KBKB BKB20191019205012110/19/19 20:50:31  5-MIN KBKB 200250Z AUTO 00000KT 10SM CLR 21/19 A2977 440 93 1200 000/00 RMK AO2 SLP107 T02060194 53004
53988KBKB BKB20191019205510810/19/19 20:55:31  5-MIN KBKB 200255Z AUTO 00000KT 10SM CLR 21/19 A2977 440 93 1200 000/00 RMK AO2 T02060194
53988KBKB BKB20191019210017310/19/19 21:00:31  5-MIN KBKB 200300Z AUTO 00000KT 10SM CLR 21/19 A2977 440 93 1200 000/00 RMKB 200400Z AUTO 00000KT 7SM CLR 21/19 A2978 430 93 1200 000/00 RMK AO2 T02060194
53988KBKB BKB20191019220510710/19/19 22:05:31  5-MIN KBKB 200405Z AUTO 00000KT 7SM CLR 21/19 A2978 430 93 1200 000/00 RMK AO2 T02060194
53988KBKB BKB20191019221011010/19/19 22:10:31  5-MIN KBKB 200410Z AUTO 00000KT 6SM BR CLR 21/19 A2978 430 93 1200 000/00 RMK AO2 T02060194
53988KBKB BKB20191019221511010/19/19 22:15:31  5-MIN KBKB 200415Z AUTO 00000KT 5SM BR CLR 21/19 A2978 430 93 1200 000/00 RMK AO2 T02060194
53988KBKB BKB20191019222011010/19/19 22:20:31  5-MIN KBKB 200420Z AUTO 00000KT 5SM BR CLR 21/19 A2978 430 93 1200 000/00 RMK AO2 T02060194
53988KBKB BKB20191019222511010/19/19 22:25:31  5-MIN KBKB 200425Z AUTO 00000KT 4SM BR CLR 21/19 A2978 430 93 1200 000/00 RMK AO2 T02060194
53988KBKB BKB20191019223011010/19/19 22:30:31  5-MIN KBKB 200430Z AUTO 00000KT 4SM BR CLR 21/20 A2978 430 97 1200 000/00 RMK AO2 T02060200
53988KBKB BKB20191019223511010/19/19 22:35:31  5-MIN KBKB 200435Z AUTO 00000KT 4SM BR CLR 21/20 A2978 430 97 1200 000/00 RMK AO2 T02060200
53988KBKB BKB20191019224011010/19/19 22:40:31  5-MIN KBKB 200440Z AUTO 00000KT 3SM BR CLR 21/20 A2978 430 97 1200 000/00 RMK AO2 T02060200
53988KBKB BKB20191019224511010/19/19 22:45:31  5-MIN KBKB 200445Z AUTO 00000KT 3SM BR CLR 21/20 A2978 430 97 1200 000/00 RMK AO2 T02060200
53988KBKB BKB20191019225010410/19/19 22:50:31  5-MIN KBKB 200450Z AUTO 00000KT 2 1/2SM BR CLR 21/19 A2977 430 93 1200 000/00 RMK AO2
53988KBKB BKB20191019225511410/19/19 22:55:31  5-MIN KBKB 200455Z AUTO 00000KT 1 3/4SM BR CLR 20/19 A2977 440 97 1200 000/00 RMK AO2 T02000194
53988KBKB BKB20191019230011710/19/19 23:00:31  5-MIN KBKB 200500Z AUTO 00000KT 1 3/4SM BR FEW004 21/19 A2977 440 93 1200 000/00 RMK AO2 T02060194
53988KBKB BKB20191019230511310/19/19 23:05:31  5-MIN KBKB 200505Z AUTO 00000KT 2SM BR SCT004 21/20 A2977 440 97 1200 000/00 RMK AO2 T02060200
53988KBKB BKB20191019231011310/19/19 23:10:31  5-MIN KBKB 200510Z AUTO 00000KT 2SM BR SCT004 21/20 A2977 440 97 1200 000/00 RMK AO2 T02060200
53988KBKB BKB20191019231512910/19/19 23:15:31  5-MIN KBKB 200515Z AUTO 00000KT 2SM BR SCT004 21/20 A2977 430 97 1200 000/00 RMK AO2 VIS 1 1/2V2 1/2 T02060200
53988KBKB BKB20191019232011310/19/19 23:20:31  5-MIN KBKB 200520Z AUTO 00000KT 2SM BR BKN003 21/20 A2977 440 97 1200 000/00 RMK AO2 T02060200
53988KBKB BKB20191019232511710/19/19 23:25:31  5-MIN KBKB 200525Z AUTO 00000KT 2 1/2SM BR BKN003 21/20 A2977 430 97 1200 000/00 RMK AO2 T02060200
53988KBKB BKB20191019233012410/19/19 23:30:31  5-MIN KBKB 200530Z AUTO 00000KT 2 1/2SM BR BKN003 BKN013 21/20 A2977 440 97 1200 000/00 RMK AO2 T02060200
53988KBKB BKB20191019233512410/19/19 23:35:31  5-MIN KBKB 200535Z AUTO 00000KT 2 1/2SM BR BKN003 BKN013 21/20 A2977 430 97 1200 000/00 RMK AO2 T02060200
53988KBKB BKB20191019234012010/19/19 23:40:31  5-MIN KBKB 200540Z AUTO 00000KT 3SM BR BKN003 OVC014 21/20 A2977 430 93 1300 000/00 RMK AO2 T02110200
53988KBKB BKB20191019234512010/19/19 23:45:31  5-MIN KBKB 200545Z AUTO 00000KT 3SM BR BKN003 OVC014 21/20 A2977 440 93 1300 000/00 RMK AO2 T02110200
53988KBKB BKB20191019235015510/19/19 23:50:31  5-MIN KBKB 200550Z AUTO 00000KT 3SM BR BKN003 OVC014 21/21 A2977 440 97 1300 000/00 RMK AO2 SLP107 T02110206 10228 20200 403060106 51017
53988KBKB BKB20191019235514710/19/19 23:55:31  5-MIN KBKB 200555Z AUTO 00000KT 3SM BR BKN003 OVC014 21/20 A2977 430 93 1300 000/00 RMK AO2 T0211020000 000/00 RMK AO2 T02170211
53988KBKB BKB20191020004511310/20/19 00:45:31  5-MIN KBKB 200645Z AUTO 00000KT 3SM BR OVC002 22/21 A2977 430 97 1400 000/00 RMK AO2 T02170211
53988KBKB BKB20191020005012010/20/19 00:50:31  5-MIN KBKB 200650Z AUTO 00000KT 3SM BR OVC002 22/21 A2977 430 97 1400 000/00 RMK AO2 SLP107 T02170211
53988KBKB BKB20191020005511310/20/19 00:55:31  5-MIN KBKB 200655Z AUTO VRB03KT 3SM BR OVC002 22/21 A2977 430 97 1400 VRB/03 RMK AO2 T02170211
53988KBKB BKB20191020010011310/20/19 01:00:31  5-MIN KBKB 200700Z AUTO 00000KT 3SM BR OVC002 22/21 A2977 430 97 1400 000/00 RMK AO2 T02170211
53988KBKB BKB20191020010511310/20/19 01:05:31  5-MIN KBKB 200705Z AUTO 00000KT 3SM BR OVC002 22/21 A2977 440 97 1400 000/00 RMK AO2 T02170211
53988KBKB BKB20191020011011310/20/19 01:10:31  5-MIN KBKB 200710Z AUTO 00000KT 3SM BR OVC002 22/21 A2977 440 97 1400 000/00 RMK AO2 T02170211
53988KBKB BKB20191020011511310/20/19 01:15:31  5-MIN KBKB 200715Z AUTO 00000KT 3SM BR OVC002 22/21 A2977 430 97 1400 000/00 RMK AO2 T02170211
53988KBKB BKB20191020012011310/20/19 01:20:31  5-MIN KBKB 200720Z AUTO 00000KT 3SM BR OVC002 22/21 A2977 430 93 1400 000/00 RMK AO2 T02220211
53988KBKB BKB20191020012511310/20/19 01:25:31  5-MIN KBKB 200725Z AUTO 00000KT 4SM BR OVC002 22/21 A2978 430 93 1400 000/00 RMK AO2 T02220211
53988KBKB BKB20191020013011310/20/19 01:30:31  5-MIN KBKB 200730Z AUTO 00000KT 3SM BR OVC002 22/21 A2978 430 93 1400 000/00 RMK AO2 T02220211
53988KBKB BKB20191020013511310/20/19 01:35:31  5-MIN KBKB 200735Z AUTO VRB03KT 3SM BR OVC002 22/22 A2978 430 97 1400 VRB/03 RMK AO2 T02220217
53988KBKB BKB20191020014011310/20/19 01:40:31  5-MIN KBKB 200740Z AUTO VRB03KT 4SM BR OVC002 22/22 A2977 430 97 1400 VRB/03 RMK AO2 T02220217
53988KBKB BKB20191020014512510/20/19 01:45:31  5-MIN KBKB 200745Z AUTO 00000KT 4SM BR OVC002 22/22 A2977 440 97 1400 000/00 RMK AO2 CIG 002V006 T02220217
53988KBKB BKB20191020015012010/20/19 01:50:31  5-MIN KBKB 200750Z AUTO VRB03KT 4SM BR OVC003 22/22 A2978 430 97 1400 VRB/03 RMK AO2 SLP107 T02220217
53988KBKB BKB20191020015512510/20/19 01:55:31  5-MIN KBKB 200755Z AUTO VRB03KT 4SM BR OVC003 22/22 A2978 430 97 1400 VRB/03 RMK AO2 CIG 002V006 T02220217
53988KBKB BKB20191020020012510/20/19 02:00:31  5-MIN KBKB 200800Z AUTO 00000KT 4SM BR OVC003 22/22 A2977 430 97 1400 000/00 RMK AO2 CIG 002V006 T02220217
53988KBKB BKB20191020020511310/20/19 02:05:31  5-MIN KBKB 200805Z AUTO VRB03KT 4SM BR OVC003 22/22 A2977 430 97 1400 VRB/03 RMK AO2 T02220217
53988KBKB BKB20191020021011310/20/19 02:10:31  5-MIN KBKB 200810Z AUTO 00000KT 4SM BR OVC003 22/22 A2977 440 97 1400 000/00 RMK AO2 T02220217
53988KBKB BKB20191020021511310/20/19 02:15:31  5-MIN KBKB 200815Z AUTO 00000KT 4SM BR OVC003 22/22 A2977 440 97 1400 000/00 RMK AO2 T02220217
53988KBKB BKB20191020022011310/20/19 02:20:31  5-MIN KBKB 200820Z AUTO 00000KT 4SM BR OVC003 22/22 A2977 430 97 1400 000/00 RMK AO2 T02220217
53988KBKB BKB20191020022511310/20/19 02:25:31  5-MIN KBKB 200825Z AUTO 00000KT 4SM BR OVC003 22/22 A2977 430 97 1400 000/00 RMK AO2 T02220217
53988KBKB BKB20191020023011310/20/19 02:30:31  5-MIN KBKB 200830Z AUTO 00000KT 4SM BR OVC003 22/22 A2977 440 97 1400 000/00 RMK AO2 T02220217
53988KBKB BKB20191020023511310/20/19 02:35:31  5-MIN KBKB 200835Z AUTO 00000KT 4SM BR OVC003 22/22 A2977 430 97 1400 000/00 RMK AO2 T02220217
53988KBKB BKB20191020024011310/20/19 02:40:31  5-MIN KBKB 200840Z AUTO 00000KT 4SM BR OVC003 22/22 A2977 430 97 1400 000/00 RMK AO2 T02220217
53988KBKB BKB20191020024511310/20/19 02:45:31  5-MIN KBKB 200845Z AUTO 00000KT 4SM BR OVC003 22/22 A2977 430 97 1400 000/00 RMK AO2 T02220217
53988KBKB BKB20191020025010510/20/19 02:50:31  5-MIN KBKB 200850Z AUTO 00000KT 4SM BR OVC2 A2980 410 97 1400 200/03 RMK AO2 T02280222
53988KBKB BKB20191020050511710/20/19 05:05:31  5-MIN KBKB 201105Z AUTO VRB04KT 2 1/2SM BR OVC002 23/22 A2980 410 97 1400 VRB/04 RMK AO2 T02280222
53988KBKB BKB20191020051011710/20/19 05:10:31  5-MIN KBKB 201110Z AUTO VRB03KT 2 1/2SM BR OVC002 23/22 A2980 410 97 1400 VRB/03 RMK AO2 T02280222
53988KBKB BKB20191020051511710/20/19 05:15:31  5-MIN KBKB 201115Z AUTO 00000KT 2 1/2SM BR OVC002 23/22 A2980 410 97 1400 000/00 RMK AO2 T02280222
53988KBKB BKB20191020052013510/20/19 05:20:31  5-MIN KBKB 201120Z AUTO VRB03KT 3SM BR OVC002 23/22 A2980 410 97 1400 VRB/03 RMK AOING COMPLETE, 144 5MIN(S) LISTED.
53988KBKB BKB20191021194010910/21/19 19:40:31  5-MIN KBKB 220140Z AUTO 00000KT 4SM BR CLR 16/15 A2993 290 93 500 000/00 RMK AO2 T01610150
53988KBKB BKB20191021194510910/21/19 19:45:31  5-MIN KBKB 220145Z AUTO 00000KT 3SM BR CLR 16/15 A2993 290 96 500 000/00 RMK AO2 T01560150
53988KBKB BKB20191021195011610/21/19 19:50:31  5-MIN KBKB 220150Z AUTO 00000KT 3SM BR CLR 16/14 A2993 290 93 500 000/00 RMK AO2 SLP163 T01560144
53988KBKB BKB20191021195510910/21/19 19:55:31  5-MIN KBKB 220155Z AUTO 00000KT 4SM BR CLR 16/15 A2993 290 96 500 000/00 RMK AO2 T01560150
53988KBKB BKB20191021200011210/21/19 20:00:31  5-MIN KBKB 220200Z AUTO 00000KT 3SM BR FEW002 16/14 A2994 280 93 500 000/00 RMK AO2 T01560144
53988KBKB BKB20191021200511210/21/19 20:05:31  5-MIN KBKB 220205Z AUTO 00000KT 3SM BR FEW002 15/14 A2994 280 96 400 000/00 RMK AO2 T01500144
53988KBKB BKB20191021201012110/21/19 20:10:31  5-MIN KBKB 220210Z AUTO 00000KT 2SM BR CLR 16/14 A2994 280 93 500 000/00 RMK AO2 VIS 1 1/2V3 T01560144
53988KBKB BKB20191021201511610/21/19 20:15:31  5-MIN KBKB 220215Z AUTO 00000KT 1 3/4SM BR FEW002 15/14 A2994 280 96 400 000/00 RMK AO2 T01500144
53988KBKB BKB20191021202011210/21/19 20:20:31  5-MIN KBKB 220220Z AUTO 00000KT 2SM BR FEW002 15/14 A2995 270 96 400 000/00 RMK AO2 T01500144
53988KBKB BKB20191021202511610/21/19 20:25:31  5-MIN KBKB 220225Z AUTO 00000KT 2 1/2SM BR FEW002 15/14 A2995 270 93 400 000/00 RMK AO2 T01500139
53988KBKB BKB20191021203012510/21/19 20:30:31  5-MIN KBKB 220230Z AUTO 00000KT 2 1/2SM BR CLR 15/14 A2995 270 93 400 000/00 RMK AO2 VIS 1 3/4V4 T01500139
53988KBKB BKB20191021203510910/21/19 20:35:31  5-MIN KBKB 220235Z AUTO 00000KT 3SM BR CLR 15/14 A2995 270 93 400 000/00 RMK AO2 T01500139
53988KBKB BKB20191021204010910/21/19 20:40:31  5-MIN KBKB 220240Z AUTO 00000KT 4SM BR CLR 15/14 A2995 270 93 400 000/00 RMK AO2 T01500139
53988KBKB BKB20191021204510910/21/19 20:45:31  5-MIN KBKB 220245Z AUTO 00000KT 4SM BR CLR 15/14 A2996 260 93 400 000/00 RMK AO2 T01500139
53988KBKB BKB20191021205012210/21/19 20:50:31  5-MIN KBKB 220250Z AUTO 00000KT 4SM BR CLR 15/14 A2996 260 93 400 000/00 RMK AO2 SLP174 T01500139 53020
53988KBKB BKB20191021205510910/21/19 20:55:31  5-MIN KBKB 220255Z AUTO 00000KT 4SM BR CLR 15/14 A2996 260 93 400 000/00 RMK AO2 T01500139
53988KBKB BKB20191021210010910/21/19 21:00:31  5-MIN KBKB 220300Z AUTO 00000KT 4SM BR CLR 15/14 A2997 260 93 400 000/00 RMK AO2 T01500139
53988KBKB BKB20191021210510910/21/19 21:05:31  5-MIN KBKB 220305Z AUTO 00000KT 4SM BR CLR 14/14 A2997 250 96 300 000/00 RMK AO2 T01440139
53988KBKB BKB20191021211010910/21/19 21:10:31  5-MIN KBKB 220310Z AUTO 00000KT 5SM BR CLR 15/14 A2997 250 93 300 000/00 RMK AO2 T01500139
53988KBKB BKB20191021211510610/21/19 21:15:31  5-MIN KBKB 220315Z AUTO 00000KT 8SM CLR 14/14 A2998 250 96 300 000/00 RMK AO2 T01440139
53988KBKB BKB20191021212010610/21/19 21:20:31  5-MIN KBKB 220320Z AUTO 00000KT 7SM CLR 14/13 A2997 250 93 300 000/00 RMK AO2 T01440133
53988KBKB BKB20191021212510910/21/19 21:25:31  5-MIN KBKB 220325Z AUTO 00000KT 6SM BR CLR 14/13 A2997 250 93 300 000/00 RMK AO2 T01440133
53988KBKB BKB20191021213010910/21/19 21:30:31  5-MIN KBKB 220330Z AUTO 00000KT 6SM BR CLR 14/13 A2998 250 93 300 000/00 RMK AO2 T01440133
53988KBKB BKB20191021213510910/21/19 21:35:31  5-MIN KBKB 220335Z AUTO 00000KT 6SM BR CLR 14/13 A2998 250 93 300 000/00 RMK AO2 T01440133
53988KBKB BKB20191021214014010/21/19 21:40:31  5-MIN KBKB 220340Z AUTO 00000KT 5SM BR CLR 14/13 A2998 250 96 200 000/00 RMK AO2 T0139013310/21/19 21:42 SLP187 T01390117
53988KBKB BKB20191021225510710/21/19 22:55:31  5-MIN KBKB 220455Z AUTO 00000KT 10SM CLR 13/12 A3000 220 89 100 000/00 RMK AO2 T01330117
53988KBKB BKB20191021230010710/21/19 23:00:31  5-MIN KBKB 220500Z AUTO 00000KT 10SM CLR 13/12 A3000 220 89 100 000/00 RMK AO2 T01330117
53988KBKB BKB20191021230510710/21/19 23:05:31  5-MIN KBKB 220505Z AUTO 00000KT 10SM CLR 13/12 A3000 220 89 100 000/00 RMK AO2 T01330117
53988KBKB BKB20191021231014410/21/19 23:10:31  5-MIN KBKB 220510Z AUTO 00000KT 10SM C-MIN KBKB 220535Z AUTO 00000KT 10SM CLR 13/11 A3001 210 83 100 000/00 RMK AO2 T01330106
53988KBKB BKB20191021234010510/21/19 23:40:31  5-MIN KBKB 220540Z AUTO VRB03KT 10SM CLR 13/11 A3001 210 86 0 VRB/03 RMK AO2 T01280106
53988KBKB BKB20191021234510710/21/19 23:45:31  5-MIN KBKB 220545Z AUTO 00000KT 10SM CLR 13/11 A3001 210 83 100 000/00 RMK AO2 T01330106
53988KBKB BKB20191021235014010/21/19 23:50:31  5-MIN KBKB 220550Z AUTO 00000KT 10SM CLR 13/10 A3002 210 83 0 000/00 RMK AO2 SLP193 T01280100 10178 20128 402440128 51033
53988KBKB BKB20191021235510510/21/19 23:55:31  5-MIN KBKB 220555Z AUTO VRB03KT 10SM CLR 13/10 A3002 210 83 0 VRB/03 RMK AO2 T01280100
53988KBKB BKB20191022000010710/22/19 00:00:31  5-MIN KBKB 220600Z AUTO 00000KT 10SM CLR 13/10 A3002 210 80 100 000/00 RMK AO2 T01330100
53988KBKB BKB20191022000510510/22/19 00:05:31  5-MIN KBKB 220605Z AUTO 00000KT 10SM CLR 12/11 A3002 200 89 0 000/00 RMK AO2 T01220106
53988KBKB BKB20191022001007010/22/19 00:10:31  5-MIN KBKB 220610Z AUT-400 000/00 RMK AO2 T00890078
53988KBKB BKB20191022023010810/22/19 02:30:31  5-MIN KBKB 220830Z AUTO 00000KT 10SM CLR 09/08 A3003 190 93 -400 000/00 RMK AO2 T00890078
53988KBKB BKB20191022023510810/22/19 02:35:31  5-MIN KBKB 220835Z AUTO 00000KT 10SM CLR 09/08 A3003 200 89 -300 000/00 RMK AO2 T00940078
53988KBKB BKB20191022024010810/22/19 02:40:31  5-MIN KBKB 220840Z AUTO 00000KT 10SM CLR 09/08 A3003 190 93 -300 000/00 RMK AO2 T00940083
53988KBKB BKB20191022024510810/22/19 02:45:31  5-MIN KBKB 220845Z AUTO 00000KT 10SM CLR 09/08 A3003 190 93 -400 000/00 RMK AO2 T00890078
53988KBKB BKB20191022025012110/22/19 02:50:31  5-MIN KBKB 220850Z AUTO 00000KT 10SM CLR 09/08 A3003 190 93 -400 000/00 RMK AO2 SLP198 T00890078 53019
53988KBKB BKB20191022025510810/22/19 02:55:31  5-MIN KBKB 220855Z AUTO 00000KT 10SM CLR 09/08 A3004 190 93 -400 000/00 RMK AO2 T00890078
53988KBKB BKB20191022030010810/22/19 03:00:31  5-MIN KBKB 220900Z AUTO 00000KT 10SM CLR 09/08 A3004 190 93 -400 000/00 RMK AO2 T00890078
53988KBKB BKB20191022030510810/22/19 03:05:31  5-MIN KBKB 220905Z AUTO 00000KT 10SM CLR 09/08 A3004 190 93 -400 000/00 RMK AO2 T00890078
53988KBKB BKB20191022031010810/22/19 03:10:31  5-MIN KBKB 220910Z AUTO 00000KT 10SM CLR 08/08 A3004 190 96 -500 000/00 RMK AO2 T00830078
53988KBKB BKB20191022031510810/22/19 03:15:31  5-MIN KBKB 220915Z AUTO 00000KT 10SM CLR 08/07 A3004 180 93 -500 000/00 RMK AO2 T00830072
53988KBKB BKB20191022032008910/22/19 03:20:31  5-MIN KBKB 220920Z AUTO 00000KT 1 120 93 -700 000/00 RMK AO2 T00720061
53988KBKB BKB20191022062510810/22/19 06:25:31  5-MIN KBKB 221225Z AUTO 00000KT 10SM CLR 07/06 A3011 120 93 -700 000/00 RMK AO2 T00720061
53988KBKB BKB20191022063010810/22/19 06:30:31  5-MIN KBKB 221230Z AUTO 00000KT 10SM CLR 07/06 A3011 120 93 -700 000/00 RMK AO2 T00720061
53988KBKB BKB20191022063510810/22/19 06:35:31  5-MIN KBKB 221235Z AUTO 00000KT 10SM CLR 07/06 A3011 120 93 -700 000/00 RMK AO2 T00720061
53988KBKB BKB20191022064010810/22/19 06:40:31  5-MIN KBKB 221240Z AUTO 00000KT 10SM CLR 07/06 A3011 120 93 -700 000/00 RMK AO2 T00720061
53988KBKB BKB20191022064510810/22/19 06:45:31  5-MIN KBKB 221245Z AUTO 00000KT 10SM CLR 07/06 A3011 120 93 -700 000/00 RMK AO2 T00720061
53988KBKB BKB20191022065011510/22/19 06:50:31  5-MIN KBKB 221250Z AUTO 00000KT 10SM CLR 07/07 A3011 120 96 -700 000/00 RMK AO2 SLP227 T00720067
53988KBKB BKB20191022065510810/22/19 06:55:31  5-MIN KBKB 221255Z AUTO 00000KT 10SM CLR 08/07 A3012 120 93 -600 000/00 RMK AO2 T00780067
53988KBKB BKB20191022070010810/22/19 07:00:31  5-MIN KBKB 221300Z AUTO 00000KT 10SM CLR 08/07 A3012 110 93 -600 000/00 RMK AO2 T00780067
53988KBKB BKB20191022070510810/22/19 07:05:31  5-MIN KBKB 221305Z AUTO 00000KT 10SM CLR 08/08 A3012 110 96 -600 000/00 RMK AO2 T00830078
53988KBKB BKB20191022071010810/22/19 07:10:31  5-MIN KBKB 221310Z AUTO 00000KT 10SM CLR 09/08 A3012 110 96 -500 000/00 RMK AO2 T00890083
53988KBKB BKB20191022071504710/22/19 07:15:31  5-MIN KBKB 221315Z AUTO 0000
53988KBKB BKB20191023063511410/23/19 06:35:31  5-MIN KBKB 231235Z AUTO 00000KT 1 3/4SM BR CLR 06/05 A3014 100 93 -900 000/00 RMK AO2 T00610050
53988KBKB BKB20191023064011410/23/19 06:40:31  5-MIN KBKB 231240Z AUTO 00000KT 1 3/4SM BR CLR 06/06 A3014 100 96 -900 000/00 RMK AO2 T00610056
53988KBKB BKB20191023064511010/23/19 06:45:31  5-MIN KBKB 231245Z AUTO 00000KT 2SM BR CLR 06/06 A3014 100 96 -900 000/00 RMK AO2 T00610056
53988KBKB BKB20191023065011610/23/19 06:50:31  5-MIN KBKB 231250Z AUTO 00000KT 2SM BR CLR 07/06 A3014 90 93 -800 000/00 RMK AO2 SLP237 T00670056
53988KBKB BKB20191023065511310/23/19 06:55:31  5-MIN KBKB 231255Z AUTO 00000KT 2 1/2SM BR CLR 07/06 A3014 90 93 -800 000/00 RMK AO2 T00670056
53988KBKB BKB20191023070011310/23/19 07:00:31  5-MIN KBKB 231300Z AUTO 00000KT 2 1/2SM BR CLR 07/06 A3015 90 93 -800 000/00 RMK AO2 T00670056
53988KBKB BKB20191023070510910/23/19 07:05:31  5-MIN KBKB 231305Z AUTO 00000KT 2SM BR CLR 07/07 A3015 90 96 -700 000/00 RMK AO2 T00720067
53988KBKB BKB20191023071011010/23/19 07:10:31  5-MIN KBKB 231310Z AUTO 00000KT 2SM BR CLR 08/08 A3015 90 100 -700 000/00 RMK AO2 T00780078
53988KBKB BKB20191023071511310/23/19 07:15:31  5-MIN KBKB 231315Z AUTO 00000KT 2 1/2SM BR CLR 08/08 A3015 90 96 -600 000/00 RMK AO2 T00830078
53988KBKB BKB20191023072010910/23/19 07:20:31  5-MIN KBKB 231320Z AUTO 00000KT 3SM BR CLR 09/08 A3015 90 96 -500 000/00 RMK AO2 T00890083
53988KBKB BKB20191023072510910/23/19 07:25:31  5-MIN KBKB 231325Z AUTO 00000KT 3SM BR CLR 09/09 A3015 90 96 -500 000/00 RMK AO2 T00940089
53988KBKB BKB20191023073010910/23/19 07:30:31  5-MIN KBKB 231330Z AUTO 00000KT 3SM BR CLR 09/09 A3015 90 96 -500 000/00 RMK AO2 T00940089
53988KBKB BKB20191023073510910/23/19 07:35:31  5-MIN KBKB 231335Z AUTO 00000KT 4SM BR CLR 10/09 A3015 90 93 -400 000/00 RMK AO2 T01000089
53988KBKB BKB20191023074010910/23/19 07:40:31  5-MIN KBKB 231340Z AUTO 00000KT 4SM BR CLR 11/09 A3015 80 89 -300 000/00 RMK AO2 T01110094
53988KBKB BKB20191023074523210/23/19 07:45:31  5-MIN KBKB 231345Z AUTO 00000KT 4SM BR CLR 11/10 A3015 80 93 -300 000/00 RMK AO2 T0111010010/23/19 07:50:31  5UTO VRB03KT 10SM CLR 20/07 00006710/23/19 09:30:31  5-LR 21/06 A3017 70 37 800 000/00 RMK AO2 T02110061
53988KBKB BKB20191023094510610/23/19 09:45:31  5-MIN KBKB 231545Z AUTO VRB04KT 10SM CLR 21/05 A3017 70 34 800 VRB/04 RMK AO2 T02110050
53988KBKB BKB20191023095010310/23/19 09:50:31  5-MIN KBKB 231550Z AUTO 10SM CLR 21/05 A3017 70 34 800 M /M RMK AO2 SLP244 T02110050
53988KBKB BKB20191023095510610/23/19 09:55:31  5-MIN KBKB 231555Z AUTO 12006KT 10SM CLR 21/04 A3017 70 32 800 120/06 RMK AO2 T02110039
53988KBKB BKB20191023100009610/23/19 10:00:31  5-MIN KBKB 231600Z AUTO 10SM CLR 21/04 A3017 70 32 800 M /M RMK AO2 T02110039
53988KBKB BKB20191023100510610/23/19 10:05:31  5-MIN KBKB 231605Z AUTO VRB05KT 10SM CLR 22/04 A3017 70 31 900 VRB/05 RMK AO2 T02170039
53988KBKB BKB20191023101010610/23/19 10:10:31  5-MIN KBKB 231610Z AUTO VRB03KT 10SM CLR 21/04 A3016 70 32 800 VRB/03 RMK AO2 T02110039
53988KBKB BKB20191023101516410/23/19 10:15:31  5-MIN KBKB 231615Z AUTO VRB04KT 10SM CLR 22/04 A3016 70 30 1000 VRB007KT 090V260 10SM CLR 22/03 A3016 80 28 1000 120/07 090V260 RMK AO2 T02220033
53988KBKB BKB20191023104509710/23/19 10:45:31  5-MIN KBKB 231645Z AUTO 10SM CLR 22/04 A3016 80 30 1000 M /M RMK AO2 T02220039
53988KBKB BKB20191023105011410/23/19 10:50:31  5-MIN KBKB 231650Z AUTO VRB04KT 10SM CLR 23/04 A3016 80 29 1000 VRB/04 RMK AO2 SLP241 T02280039
53988KBKB BKB20191023105513410/23/19 10:55:31  5-MIN KBKB 231655Z AUTO VRB04KT 10SM CLR 23/04 A3015 80 30 1000 VRB/04  130 28 1200 VRB/05 RMK AO2 SLP220 T02330039
53988KBKB BKB20191023125509810/23/19 12:55:31  5-MIN KBKB 231855Z AUTO 10SM CLR 24/04 A3010 130 28 1200 M /M RMK AO2 T02390044
53988KBKB BKB20191023130010810/23/19 13:00:31  5-MIN KBKB 231900Z AUTO 14004KT 10SM CLR 23/04 A3009 140 29 1200 140/04 RMK AO2 T02330044
53988KBKB BKB20191023130517810/23/19 13:05:31  5-MIN KBKB 231905Z AUTO VRB05KT 10SM CLR 23/04 A3009 140 28 1200 VRB/05 RMK AO2 T0233003910/23/19 13:10:3M CLR 23/06 A3006 170 31 1200 VRB/04 RMK AO2 T02330056
53988KBKB BKB20191023153010810/23/19 15:30:31  5-MIN KBKB 232130Z AUTO 00000KT 10SM CLR 24/06 A3006 170 31 1300 000/00 RMK AO2 T02390061
53988KBKB BKB20191023153510810/23/19 15:35:31  5-MIN KBKB 232135Z AUTO VRB03KT 10SM CLR 24/07 A3006 170 32 1300 VRB/03 RMK AO2 T02390067
53988KBKB BKB20191023154010810/23/19 15:40:31  5-MIN KBKB 232140Z AUTO 00000KT 10SM CLR 23/06 A3006 170 32 1200 000/00 RMK AO2 T02330061
53988KBKB BKB20191023154510810/23/19 15:45:31  5-MIN KBKB 232145Z AUTO VRB03KT 10SM CLR 23/07 A3006 170 33 1200 VRB/03 RMK AO2 T02330067
53988KBKB BKB20191023155011510/23/19 15:50:31  5-MIN KBKB 232150Z AUTO 00000KT 10SM CLR 23/07 A3006 170 35 1200 000/00 RMK AO2 SLP206 T02330072
53988KBKB BKB20191023155510810/23/19 15:55:31  5-MIN KBKB 232155Z AUTO VRB03KT 10SM CLR 23/06 A3006 170 32 1200 VRB/03 RMK AO2 T02330061
53988KBKB BKB20191023160012410/23/19 16:00:31  5-MIN KBKB 232200Z AUTO 00000KT 10SM CLR00000KT 10SM CLR 22/07 A3005 180 39 1000 000/00 RMK AO2 T02170072
53988KBKB BKB20191023164010810/23/19 16:40:31  5-MIN KBKB 232240Z AUTO 00000KT 10SM CLR 21/07 A3005 180 40 1000 000/00 RMK AO2 T02110072
53988KBKB BKB20191023164510710/23/19 16:45:31  5-MIN KBKB 232245Z AUTO 00000KT 10SM CLR 21/08 A3005 180 43 900 000/00 RMK AO2 T02060078
53988KBKB BKB20191023165010710/23/19 16:50:31  5-MIN KBKB 232250Z AUTO 00000KT 10SM CLR 20/08 A3005 180 55 500 000/00 RMK AO2 T01720083
53988KBKB BKB20191023173510710/23/19 17:35:31  5-MIN KBKB 232335Z AUTO 00000KT 10SM CLR 17/08 A3006 170 55 500 000/00 RMK AO2 T01720083
53988KBKB BKB20191023174010710/23/19 17:40:31  5-MIN KBKB 232340Z AUTO 00000KT 10SM CLR 17/08 A3006 170 55 500 000/00 RMK AO2 T01720083
53988KBKB BKB20191023174510710/23/19 17:45:31  5-MIN KBKB 232345Z AUTO 00000KT 10SM CLR 17/08 A3006 170 57 400 000/00 RMK AO2 T01670083
53988KBKB BKB20191023175015410/23/19 17:50:31  5-MIN KBKB 232350Z AUTO 00000KT 10SM -RA CLR 16/08 A3006 170 59 400 000/00 RMK AO2 RAB49 SLP209 P0000 60000 T01610083 10244 20161 56025
53988KBKB BKB20191023175510710/23/19 17:55:31  5-MIN KBKB 232355Z AUTO 00000KT 10SM CLR 16/08 A3006 160 59 400 000/00 RMK AO2 T01610083
53988KBKB BKB20191023180010710/23/19 18:00:31  5-MIN KBKB 240000Z AUTO 00000KT 10SM CLR 16/08 A3007 160 57 400 000/00 RMK AO2 T01610078
53988KBKB BKB20191023180510710/23/19 18:05:31  5-MIN KBKB 240005Z AUTO 00000KT 10SM CLR 16/08 A3007 160 59 300 000/00 RMK AO2 T01560078
53988KBKB BKB20191023181010710/23/19 18:10:31  5-MIN KBKB 240010Z AUTO 00000KT 10SM CLR 16/08 A3007 160 59 300 000/00 RMK AO2 T01560078
53988KBKB BKB20191023181018010/23/19 18:10:31  5-MIN KBKB 240010Z AUTO 00000KT 10SM CLR 16/08 A3007 160 59 300 000/00 RMK AO2 T0156007825Z AUTO 00000KT 10SM CLR 15/08 A3008 150 62 200 000/00 RMK AO2 T01500078
53988KBKB BKB20191023181510710/23/19 18:15:31  5-MIN KBKB 240015Z AUTO 00000KT 10SM CLR 15/08 A3007 160 62 200 000/00 RMK AO2 T01500078
53988KBKB BKB20191023182010710/23/19 18:20:31  5-MIN KBKB 240020Z AUTO 00000KT 10SM CLR 15/08 A3008 150 62 200 000/00 RMK AO2 T01500078
53988KBKB BKB20191023182510710/23/19 18:25:31  5-MIN KBKB 240025Z AUTO 00000KT 10SM CLR 15/08 A3008 150 62 200 000/00 RMK AO2 T01500078
53988KBKB BKB20191023183010710/23/19 18:30:31  5-MIN KBKB 240030Z AUTO 00000KT 10SM CLR 14/08 A3008 150 64 200 000/00 RMK AO2 T01440078
53988KBKB BKB20191023183510710/23/19 18:35:31  5-MIN KBKB 240035Z AUTO 00000KT 10SM CLR 14/08 A3008 150 64 200 000/00 RMK AO2 T01440078
53988KBKB BKB20191023184010710/23/19 18:40:31  5-MIN KBKB 240040Z AUTO 00000KT 10SM CLR 14/07 A3008 150 61 200 000/00 RMK AO2 T01440072
53988KBKB BKB20191023184510710/23/19 18:45:31  5-MIN KBKB 240045Z AUTO 00000KT 10SM CLR 14/07 A3008 150 61 200 000/00 RMK AO2 T01440072
53988KBKB BKB20191023185011410/23/19 18:50:31  5-MIN KBKB 240050Z AUTO 00000KT 10SM CLR 14/08 A3008 150 66 100 000/00 RMK AO2 SLP216 T01390078
53988KBKB BKB20191023185510710/23/19 18:55:31  5-MIN KBKB 240055Z AUTO 00000KT 10SM CLR 14/07 A3009 150 64 100 000/00 RMK AO2 T01390072
53988KBKB BKB20191023190010710/23/19 19:00:31  5-MIN KBKB 240100Z AUTO 00000KT 10SM CLR 14/07 A3008 150 64 100 000/00 RMK AO2 T01390072
53988KBKB BKB20191023190510510/23/19 19:05:31  5-MIN KBKB 240105Z AUTO 00000KT 10SM CLR 13/07 A3008 150 66 0 000/00 RMK AO2 T01330072
53988KBKB BKB20191023191010510/23/19 19:10:31  5-MIN KBKB 240110Z AUTO 00000KT 10SM CLR 13/07 A3008 150 66 0 000/00 RMK AO2 T01330072
53988KBKB BKB20191023191510510/23/19 19:15:31  5-MIN KBKB 240115Z AUTO 00000KT 10SM CLR 13/07 A3008 150 66 0 000/00 RMK AO2 T01330072
53988KBKB BKB20191023192006710/23/19 19:20:31  5-MIN KBKB 240120Z AUTO 00000KTRMK AO2 T01170078
53988KBKB BKB20191023214010810/23/19 21:40:31  5-MIN KBKB 240340Z AUTO 00000KT 10SM CLR 12/08 A3009 140 77 -100 000/00 RMK AO2 T01170078
53988KBKB BKB20191023214510810/23/19 21:45:31  5-MIN KBKB 240345Z AUTO 00000KT 10SM CLR 12/08 A3009 140 80 -100 000/00 RMK AO2 T01170083
53988KBKB BKB20191023215011510/23/19 21:50:31  5-MIN KBKB 240350Z AUTO 00000KT 10SM CLR 12/08 A3009 140 80 -100 000/00 RMK AO2 SLP218 T01170083
53988KBKB BKB20191023215510810/23/19 21:55:31  5-MIN KBKB 240355Z AUTO 00000KT 10SM CLR 11/09 A3009 140 86 -200 000/00 RMK AO2 T01110089
53988KBKB BKB20191023220010810/23/19 22:00:31  5-MIN KBKB 240400Z AUTO 00000KT 10SM CLR 11/08 A3009 140 83 -200 000/00 RMK AO2 T01110083
53988KBKB BKB20191023220510810/23/19 22:05:31  5-MIN KBKB 240405Z AUTO 00000KT 10SM CLR 11/08 A3009 140 83 -200 000/00 RMK AO2 T01110083
53988KBKB BKB20191023221012310/23/19 22:10:31  5-MIN KBKB 240410Z AUTO 00000KT 10SM CLR 11/09 A3009 140 86 -200 000/00 RMK AO2 T01110089K AO2 T01170089
53988KBKB BKB20191023225011510/23/19 22:50:31  5-MIN KBKB 240450Z AUTO 00000KT 10SM CLR 12/08 A3008 150 80 -100 000/00 RMK AO2 SLP215 T01170083
53988KBKB BKB20191023225510810/23/19 22:55:31  5-MIN KBKB 240455Z AUTO 00000KT 10SM CLR 11/09 A3009 150 86 -200 000/00 RMK AO2 T01110089
53988KBKB BKB20191023230010810/23/19 23:00:31  5-MIN KBKB 240500Z AUTO 00000KT 10SM CLR 11/09 A3008 150 86 -200 000/00 RMK AO2 T01110089
53988KBKB BKB20191023230512410/23/19 23:05:31  5-MIN KBKB 240505Z AUTKBKB 240540Z AUTO 00000KT 10SM CLR 11/09 A3008 150 89 -300 000/00 RMK AO2 T01060089
53988KBKB BKB20191023234510810/23/19 23:45:31  5-MIN KBKB 240545Z AUTO 00000KT 10SM CLR 11/09 A3008 150 89 -300 000/00 RMK AO2 T01060089
53988KBKB BKB20191023235014310/23/19 23:50:31  5-MIN KBKB 240550Z AUTO 00000KT 10SM CLR 11/09 A3008 150 89 -300 000/00 RMK AO2 SLP215 T01060089 10161 20106 402440061 51008
53988KBKB BKB20191023235510810/23/19 23:55:31  5-MIN KBKB 240555Z AUTO 00000KT 10SM CLR 11/09 A3008 150 89 -300 000/00 RMK AO2 T01060089
53988KBKB BKB20191024000010810/24/19 00:00:31  5-MIN KBKB 240600Z AUTO 00000KT 10SM CLR 11/09 A3008 150 89 -300 000/00 RMK AO2 T01060089
53988KBKB BKB20191024000510810/24/19 00:05:31  5-MIN KBKB 240605Z AUTO 00000KT 10SM CLR 11/09 A3008 150 89 -300 000/00 RMK AO2 T01060089
53988KBKB BKB20191024001010810/24/19 00:10:31  5-MIN KBKB 240610Z AUTO 00000KT 10SM CLR 11/08 A3008 150 86 -300 000/00 RMK AO2 T01060083
53988KBKB BKB20191024001510810/24/19 00:15:31  5-MIN KBKB 240615Z AUTO 00000KT 10SM CLR 11/08 A3008 150 83 -200 000/00 RMK AO2 T01110083
53988KBKB BKB20191024002010810/24/19 00:20:31  5-MIN KBKB 240620Z AUTO 00000KT 10SM CLR 11/08 A3008 160 80 -200 000/00 RMK AO2 T01110078
53988KBKB BKB20191024002510810/24/19 00:25:31  5-MIN KBKB 240625Z AUTO 00000KT 10SM CLR 11/08 A3007 160 83 -200 000/00 RMK AO2 T01110083
53988KBKB BKB20191024003010810/24/19 00:30:31  5-MIN KBKB 240630Z AUTO 00000KT 10SM CLR 11/08 A3007 160 83 -200 000/00 RMK AO2 T01110083
53988KBKB BKB20191024003510810/24/19 00:35:31  5-MIN KBKB 240635Z AUTO 00000KT 10SM CLR 11/09 A3007 160 89 -200 000/00 RMK AO2 T01060089
53988KBKB BKB20191024004010810/24/19 00:40:31  5-MIN KBKB 240640Z AUTO 00000KT 10SM CLR 11/09 A3007 160 89 -200 000/00 RMK AO2 T01060089
53988KBKB BKB20191024004510810/24/19 00:45:31  5-MIN KBKB 240645Z AUTO 00000KT 10SM CLR 11/09 A3008 160 89 -200 000/00 RMK AO2 T01060089
53988KBKB BKB20191024005011510/24/19 00:50:31  5-MIN KBKB 240650Z AUTO 00000KT 10SM CLR 11/09 A3007 160 89 -200 000/00 RMK AO2 SLP211 T01060089
53988KBKB BKB20191024005510810/24/19 00:55:31  5-MIN KBKB 240655Z AUTO 00000KT 10SM CLR 11/08 A3008 150 86 -300 000/00 RMK AO2 T01060083
53988KBKB BKB20191024010010810/24/19 01:00:31  5-MIN KBKB 240700Z AUTO 00000KT 10SM CLR 11/08 A3008 150 83 -200 000/00 RMK AO2 T01110083
53988KBKB BKB20191024010510810/24/19 01:05:31  5-MIN KBKB 240705Z AUTO 00000KT 10SM CLR 12/08 A3008 150 80 -100 000/00 RMK AO2 T01170083
53988KBKB BKB20191024011010810/24/19 01:10:31  5-MIN KBKB 240710Z AUTO 00000KT 10SM CLR 12/08 A3008 150 80 -100 000/00 RMK AO2 T01170083
53988KBKB BKB20191024011510810/24/19 01:15:31  5-MIN KBKB 240715Z AUTO 00000KT 10SM CLR 12/08 A3008 150 80 -100 000/00 RMK AO2 T01170083
53988KBKB BKB20191024012010810/24/19 01:20:31  5-MIN KBKB 240720Z AUTO 00000KT 10SM CLR 12/08 A3008 150 80 -100 000/00 RMK AO2 T01170083
53988KBKB BKB20191024012510810/24/19 01:25:31  5-MIN KBKB 240725Z AUTO 00000KT 10SM CLR 12/08 A3008 150 77 -100 000/00 RMK AO2 T01220083
53988KBKB BKB20191024013010810/24/19 01:30:31  5-MIN KBKB 240730Z AUTO 00000KT 10SM CLR 12/08 A3008 150 80 -100 000/00 RMK AO2 T01170083
53988KBKB BKB20191024013510810/24/19 01:35:31  5-MIN KBKB 240735Z AUTO 00000KT 10SM CLR 12/08 A3008 150 80 -100 000/00 RMK AO2 T01170083
53988KBKB BKB20191024014017510/24/19 01:40:31  5-MIN KBKB 240740Z AUTO 00000KT 10SM CLR 12/08 A3008 150 80 -100 000/00 RMK AO2 T0117008310/2000KT 10SM CLR 11/08 A3006 170 83 -200 000/00 RMK AO2 T01110083
53988KBKB BKB20191024024510810/24/19 02:45:31  5-MIN KBKB 240845Z AUTO 00000KT 10SM CLR 11/08 A3006 170 83 -200 000/00 RMK AO2 T01110083
53988KBKB BKB20191024025012110/24/19 02:50:31  5-MIN KBKB 240850Z AUTO 00000KT 10SM CLR 11/08 A3006 170 83 -200 000/00 RMK AO2 SLP207 T01110083 58003
53988KBKB BKB20191024025516110/24/19 02:55:31  5-MIN KBKB 240855Z AUTO 00000KT 10SM CLR 11/08 A3006 170 83 -200 000/00 RMK AO0000KT 10SM CLR 10/08 A3006 160 89 -300 000/00 RMK AO2 T01000083
53988KBKB BKB20191024044510810/24/19 04:45:31  5-MIN KBKB 241045Z AUTO 00000KT 10SM CLR 10/08 A3007 160 89 -300 000/00 RMK AO2 T01000083
53988KBKB BKB20191024045011510/24/19 04:50:31  5-MIN KBKB 241050Z AUTO 00000KT 10SM CLR 10/08 A3007 160 89 -300 000/00 RMK AO2 SLP209 T01000083
53988KBKB BKB20191024045512410/24/19 04:55:31  5-MIN KBKB 241055Z AUTO 00000KT 10SM CLR 11/08 A3006 170 86 -200 000/00 RMK AO2 T010600 RMK AO2 T01000083
53988KBKB BKB20191026003512310/26/19 00:35:31  5-MIN KBKB 260635Z AUTO 7SM OVC004 14/13 A2977 430 96 400 M /M RMK AO2 RAE20 CIG 003V007 P0000 T01390133
53988KBKB BKB20191026004013610/26/19 00:40:31  5-MIN KBKB 260640Z AUTO VRB04KT 5SM BR OVC004 14/13 A2977 440 93 400 VRB/04 RMK AO2 RAE20 CIG 003V007 P0000 T01390128
53988KBKB BKB20191026004513610/26/19 00:45:31  5-MIN KBKB 260645Z AUTO VRB05KT 4SM BR OVC006 14/13 A2977 440 93 400 VRB/05 RMK AO2 RAE20 CIG 003V008 P0000 T01390128
53988KBKB BKB20191026005014310/26/19 00:50:31  5-MIN KBKB 260650Z AUTO VRB05KT 4SM BR OVC006 14/13 A2976 440 93 500 VRB/05 RMK AO2 RAE20 CIG 004V009 SLP106 P0000 T01390128
53988KBKB BKB20191026005511210/26/19 00:55:31  5-MIN KBKB 260655Z AUTO VRB03KT 3SM BR OVC006 14/13 A2976 450 93 500 VRB/03 RMK AO2 T01390128
53988KBKB BKB20191026010013010/26/19 01:00:31  5-MIN KBKB 260700Z AUTO VRB06KT 4SM BR OVC005 14/13 A2976 450 93 500 VRB/06 RMK AO2 CIG 004V007 P0001 T01390128
53988KBKB BKB20191026010513010/26/19 01:05:31  5-MIN KBKB 260705Z AUTO VRB04KT 4SM BR OVC005 14/13 A2976 450 93 500 VRB/04 RMK AO2 CIG 004V007 P0001 T01390128
53988KBKB BKB20191026011013010/26/19 01:10:31  5-MIN KBKB 260710Z AUTO VRB05KT 4SM BR OVC005 14/13 A2975 450 93 500 VRB/05 RMK AO2 CIG 003V009 P0001 T01390128
53988KBKB BKB20191026011511810/26/19 01:15:31  5-MIN KBKB 260715Z AUTO VRB03KT 4SM BR OVC005 14/13 A2975 460 93 500 VRB/03 RMK AO2 P0001 T01390128
53988KBKB BKB20191026012013010/26/19 01:20:31  5-MIN KBKB 260720Z AUTO VRB04KT 4SM BR OVC005 14/13 A2975 460 93 500 VRB/04 RMK AO2 CIG 003V009 P0001 T01390128
53988KBKB BKB20191026012512010/26/19 01:25:31  5-MIN KBKB 260725Z AUTO 5SM BR OVC005 13/13 A2975 460 96 400 M /M RMK AO2 CIG 003V008 P0001 T01330128
53988KBKB BKB20191026013013010/26/19 01:30:31  5-MIN KBKB 260730Z AUTO 34003KT 6SM BR OVC005 14/13 A2975 460 93 500 330/03 RMK AO2 CIG 003V010 P0001 T01390128
53988KBKB BKB20191026013513010/26/19 01:35:31  5-MIN KBKB 260735Z AUTO VRB03KT 6SM BR OVC005 13/13 A2975 460 96 400 VRB/03 RMK AO2 CIG 003V010 P0001 T01330128
53988KBKB BKB20191026014012710/26/19 01:40:31  5-MIN KBKB 260740Z AUTO 00000KT 7SM OVC005 13/13 A2975 460 96 400 000/00 RMK AO2 CIG 004V010 P0001 T01330128
53988KBKB BKB20191026014512710/26/19 01:45:31  5-MIN KBKB 260745Z AUTO VRB04KT 9SM OVC005 13/13 A2974 460 96 400 VRB/04 RMK AO2 CIG 004V010 P0001 T01330128
53988KBKB BKB20191026015013510/26/19 01:50:31  5-MIN KBKB 260750Z AUTO VRB04KT 10SM OVC005 13/13 A2974 470 96 400 VRB/04 RMK AO2 CIG 004V010 SLP098 P0001 T01330128
53988KBKB BKB20191026015512210/26/19 01:55:31  5-MIN KBKB 260755Z AUTO VRB04KT 10SM OVC005 13/13 A2973 470 96 400 VRB/04 RMK AO2 CIG 004V009 T01330128
53988KBKB BKB20191026020010010/26/19 02:00:31  5-MIN KBKB 260800Z AUTO 10SM OVC005 13/13 A2973 480 96 400 M /M RMK AO2 T01330128
53988KBKB BKB20191026020511010/26/19 02:05:31  5-MIN KBKB 260805Z AUTO 00000KT 10SM OVC005 13/13 A2973 480 96 400 000/00 RMK AO2 T01330128
53988KBKB BKB20191026021015610/26/19 02:10:31  5-MIN KBKB 260810Z AUTO VRB04KT 9SM OVC005 13/13 A2972 480 96 400 VRB/04 RMK AO2 T0133012810/26/19 02:15:31 RMK AO2 CIG 004V008 T01280122
53988KBKB BKB20191026050010010/26/19 05:00:31  5-MIN KBKB 261100Z AUTO 10SM OVC004 13/12 A2972 490 96 400 M /M RMK AO2 T01280122
53988KBKB BKB20191026050511010/26/19 05:05:31  5-MIN KBKB 261105Z AUTO VRB03KT 10SM OVC005 13/12 A2972 480 96 400 VRB/03 RMK AO2 T01280122
53988KBKB BKB20191026051011010/26/19 05:10:31  5-MIN KBKB 261110Z AUTO VRB05KT 10SM OVC005 13/12 A2972 480 96 400 VRB/05 RMK AO2 T01280122
53988KBKB BKB20191026051511010/26/19 05:15:31  5-MIN KBKB 261115Z AUTO VRB04KT 10SM OVC005 13/12 A2972 480 96 400 VRB/04 RMK AO2 T01280122
53988KBKB BKB20191026052011010/26/19 05:20:31  5-MIN KBKB 261120Z AUTO VRB04KT 10SM OVC005 13/12 A2972 480 93 400 VRB/04 RMK AO2 T01280117
53988KBKB BKB20191026052511210/26/19 05:25:31  5-MIN KBKB 261125Z AUTO 10SM OVC005 13/12 A2972 480 93 400 M /M RMK AO2 CIG 004V009 T01280117
53988KBKB BKB20191026053010510/26/19 05:30:31  5-MIN KBKB 261130Z AUTO 00000KT 10SM OVC005 13/12 A2972 480 91280117 10144 20128 56018
53988KBKB BKB20191026055511010/26/19 05:55:31  5-MIN KBKB 261155Z AUTO VRB05KT 10SM OVC006 13/12 A2973 480 93 400 VRB/05 RMK AO2 T01280117
53988KBKB BKB20191026060011010/26/19 06:00:31  5-MIN KBKB 261200Z AUTO VRB03KT 10SM OVC006 13/12 A2973 480 93 400 VRB/03 RMK AO2 T01280117
53988KBKB BKB20191026060511010/26/19 06:05:31  5-MIN KBKB 261205Z AUTO VRB03KT 10SM OVC006 13/12 A2973 470 93 400 VRB/03 RMK AO2 T01280117
53988KBKB BKB20191026061011010/26/19 06:10:31  5-MIN KBKB 261210Z AUTO VRB04KT 10SM OVC006 13/12 A2973 470 93 400 VRB/04 RMK AO2 T01280117
53988KBKB BKB20191026061510010/26/19 06:15:31  5-MIN KBKB 261215Z AUTO 10SM OVC006 13/12 A2974 470 93 400 M /M RMK AO2 T01280117
53988KBKB BKB20191026062012210/26/19 06:20:31  5-MIN KBKB 261220Z AUTO VRB04KT 10SM OVC006 13/12 A2974 470 93 400 VRB/04 RMK AO2 CIG 005V009 T01280117
53988KBKB BKB20191026062512210/26/19 06:25:31  5-MIN KBKB 261225Z AUTO VRB04KT 10SM OVC006 13/12 A2974 470 93 400 VRB/04 RMK AO2 CIG 005V009 T01280117
53988KBKB BKB20191026063010910/26/19 06:30:31  5-MIN KBKB 261230Z AUTO VRB05KT 9SM OVC006 13/12 A2974 460 93 300 VRB/05 RMK AO2 T01280117
53988KBKB BKB20191026063511010/26/19 06:35:31  5-MIN KBKB 261235Z AUTO VRB05KT 10SM OVC006 13/12 A2975 460 93 300 VRB/05 RMK AO2 T01280117
53988KBKB BKB20191026064015810/26/19 06:40:31  5-MIN KBKB 261240Z AUTO 9SM OVC006 13/12 A2975 450 93 300 M /M RMK AO2 T0128011710/26/19 06:45:31 A2983 380 80 400 VRB/03 RMK AO2 T01390106
53988KBKB BKB20191026120011710/26/19 12:00:31  5-MIN KBKB 261800Z AUTO VRB05KT 10SM BKN014 OVC023 14/11 A2983 380 83 400 VRB/05 RMK AO2 T01390111
53988KBKB BKB20191026120511710/26/19 12:05:31  5-MIN KBKB 261805Z AUTO VRB03KT 10SM BKN014 OVC023 13/11 A2983 380 86 300 VRB/03 RMK AO2 T01330111
53988KBKB BKB20191026121011710/26/19 12:10:31  5-MIN KBKB 261810Z AUTO 00000KT 10SM BKN014 OVC021 14/11 A2983 380 83 400 000/00 RMK AO2 T01390111
53988KBKB BKB20191026121510710/26/19 12:15:31  5-MIN KBKB 261815Z AUTO 10SM SCT014 OVC023 14/11 A2983 390 83 400 M /M RMK AO2 T01390111
53988KBKB BKB20191026122011710/26/19 12:20:31  5-MIN KBKB 261820Z AUTO VRB05KT 10SM SCT014 OVC023 14/11 A2983 390 80 400 VRB/05 RMK AO2 T01390106
53988KBKB BKB20191026122511710/26/19 12:25:31  5-MIN KBKB 261825Z AUTO VRB03KT 10SM FEW014 OVC021 14/11 A2983 390 80 400 VRB/03 RMK AO2 T01390106
53988KBKB BKB20191026123011710/26/19 12:30:31  5-MIN KBKB 261830Z AUTO VRB04KT 10SM FEW014 OVC021 14/10 A2982 390 77 400 VRB/04 RMK AO2 T01390100
53988KBKB BKB20191027192511010/27/19 19:25:31  5-MIN KBKB 280125Z AUTO 00000KT 10SM OVC012 15/13 A3001 220 86 300 000/00 RMK AO2 T01500128
53988KBKB BKB20191027193011010/27/19 19:30:31  5-MIN KBKB 280130Z AUTO 10005KT 10SM OVC012 15/13 A3001 220 86 300 100/05 RMK AO2 T01500128
53988KBKB BKB20191027193511010/27/19 19:35:31  5-MIN KBKB 280135Z AUTO VRB03KT 10SM OVC011 15/13 A3001 220 86 300 VRB/03 RMK AO2 T01500128
53988KBKB BKB20191027194012610/27/19 19:40:31  5-MIN KBKB 280140Z AUTO 00000KT 10SM -RA OVC011 15/13 A3001 220 86 300 000/00 RMK AO2 RAB36 P0000 T01500128
53988KBKB BKB20191027194512610/27/19 19:45:31  5-MIN KBKB 280145Z AUTO VRB04KT 10SM -RA OVC011 15/13 A3001 210 86 300 VRB/04 RMK AO2 RAB36 P0000 T01500128
53988KBKB BKB20191027195013310/27/19 19:50:31  5-MIN KBKB 280150Z AUTO VRB03KT 10SM -RA OVC011 15/13 A3001 210 86 300 VRB/03 RMK AO2 RAB36 SLP191 P0000 T01500128
53988KBKB BKB20191027195512010/27/19 19:55:31  5-MIN KBKB 280155Z AUTO 00000KT 10SM -RA OVC011 15/13 A3001 220 86 300 000/00 RMK AO2 P0000 T01500128
53988KBKB BKB20191027200012410/27/19 20:00:31  5-MIN KBKB 280200Z AUTO 09003KT 10SM OVC011 15/13 A3001 220 86 300 090/03 RMK AO2 RAE0158 P0000 T01500128
53988KBKB BKB20191027200512010/27/19 20:05:31  5-MIN KBKB 280205Z AUTO VRB03KT 10SM -RA OVC011 15/13 A3001 210 86 300 VRB/03 RMK AO2 P0000 T01500128
53988KBKB BKB20191027201012010/27/19 20:10:31  5-MIN KBKB 280210Z AUTO 12004KT 10SM -RA OVC011 15/13 A3001 210 86 300 120/04 RMK AO2 P0000 T01500128
53988KBKB BKB20191027201512010/27/19 20:15:31  5-MIN KBKB 280215Z AUTO 00000KT 10SM -RA OVC011 15/13 A3001 210 86 300 000/00 RMK AO2 P0000 T01500128
53988KBKB BKB20191027202012010/27/19 20:20:31  5-MIN KBKB 280220Z AUTO VRB03KT 10SM -RA OVC011 15/13 A3001 210 86 300 VRB/03 RMK AO2 P0000 T01500128
53988KBKB BKB20191027202512010/27/19 20:25:31  5-MIN KBKB 280225Z AUTO 00000KT 10SM -RA OVC011 15/13 A3001 210 86 300 000/00 RMK AO2 P0000 T01500128
53988KBKB BKB20191027203012210/27/19 20:30:31  5-MIN KBKB 280230Z AUTO 00000KT 10SM OVC011 15/13 A3002 210 86 300 000/00 RMK AO2 RAE28 P0000 T01500128
53988KBKB BKB20191027203512210/27/19 20:35:31  5-MIN KBKB 280235Z AUTO 00000KT 10SM OVC011 15/13 A3002 210 86 300 000/00 RMK AO2 RAE28 P0000 T01500128
53988KBKB BKB20191027204012210/27/19 20:40:31  5-MIN KBKB 280240Z AUTO 00000KT 10SM OVC010 15/13 A3002 210 86 300 000/00 RMK AO2 RAE28 P0000 T01500128
53988KBKB BKB20191027204512210/27/19 20:45:31  5-MIN KBKB 280245Z AUTO 00000KT 10SM OVC010 15/13 A3002 210 86 300 000/00 RMK AO2 RAE28 P0000 T01500128
53988KBKB BKB20191027205011210/27/19 20:50:31  5-MIN KBKB 280250Z AUTO VRB03KT 10SM OVC009 15/13 A3002 210 86 300 VRB/03 RMK AO2 RAE28 P0000
53988KBKB BKB20191027205511010/27/19 20:55:31  5-MIN KBKB 280255Z AUTO 00000KT 10SM OVC009 14/13 A3002 210 90 200 000/00 RMK AO2 T01440128
53988KBKB BKB20191027210011010/27/19 21:00:31  5-MIN KBKB 280300Z AUTO 00000KT 10SM OVC009 14/13 A3002 210 90 200 000/00 RMK AO2 T01440128
53988KBKB BKB20191027210511010/27/19 21:05:31  5-MIN KBKB 280305Z AUTO VRB03KT 10SM OVC008 14/13 A3002 210 90 200 VRB/03 RMK AO2 T01440128
53988KBKB BKB20191027211008410/27/19 21:10:31  5-MIN KBKB 280310Z AUTO VRB04KT 10SM OVC 000/00 RMK AO2 T01440128
53988KBKB BKB20191027212510010/27/19 21:25:31  5-MIN KBKB 280325Z AUTO 10SM OVC007 14/13 A3001 210 90 200 M /M RMK AO2 T01440128
53988KBKB BKB20191027213011010/27/19 21:30:31  5-MIN KBKB 280330Z AUTO 00000KT 10SM OVC007 14/13 A3001 210 90 200 000/00 RMK AO2 T01440128
53988KBKB BKB20191027213511010/27/19 21:35:31  5-MIN KBKB 280335Z AUTO VRB04KT 10SM OVC007 14/13 A3001 210 90 200 VRB/04 RMK AO2 T01440128
53988KBKB BKB20191027214010010/27/19 21:40:31  5-MIN KBKB 280340Z AUTO 00000K005 14/13 A3001 210 93 200 VRB/04 RMK AO2 T01390128
53988KBKB BKB20191027232511010/27/19 23:25:31  5-MIN KBKB 280525Z AUTO 00000KT 10SM OVC005 14/13 A3001 220 93 200 000/00 RMK AO2 T01390128
53988KBKB BKB20191027233011010/27/19 23:30:31  5-MIN KBKB 280530Z AUTO VRB03KT 10SM OVC005 14/13 A3001 220 93 200 VRB/03 RMK AO2 T01390128
53988KBKB BKB20191027233517910/27/19 23:35:31  5-MIN KBKB 280535Z AUTO VRB03KT 10SM OVC005 14/13 A3001 220 93 200 VRB/03 RMK AO2 T01390128O VRB03KT 10SM OVC005 14/12 A3000 220 90 200 VRB/03 RMK AO2 T01390122
53988KBKB BKB20191028001511010/28/19 00:15:31  5-MIN KBKB 280615Z AUTO VRB03KT 10SM OVC005 14/12 A3001 220 90 200 VRB/03 RMK AO2 T01390122
53988KBKB BKB20191028002011010/28/19 00:20:31  5-MIN KBKB 280620Z AUTO VRB03KT 10SM OVC005 14/12 A3001 220 90 200 VRB/03 RMK AO2 T01390122
53988KBKB BKB20191028002511010/28/19 00:25:31  5-MIN KBKB 280625Z AUTO 00000KT 10SM OVC005 14/12 A3001 220 90 200 000/00 RMK AO2 T01390122
53988KBKB BKB20191028003011010/28/19 00:30:31  5-MIN KBKB 280630Z AUTO 14004KT 10SM OVC005 14/13 A3001 220 93 200 130/04 RMK AO2 T01390128
53988KBKB BKB20191028003511010/28/19 00:35:31  5-MIN KBKB 280635Z AUTO VRB03KT 10SM OVC005 14/13 A3001 220 93 200 VRB/03 RMK AO2 T01390128
53988KBKB BKB20191028004011010/28/19 00:40:31  5-MIN KBKB 280640Z AUTO VRB03KT 10SM OVC005 14/13 A3001 210 93 200 VRB/03 RMK AO2 T01390128
53988KBKB BKB20191028004511010/28/19 00:45:31  5-MIN KBKB 280645Z AUTO VRB03KT 10SM OVC005 14/12 A3002 210 90 200 VRB/03 RMK AO2 T01390122
53988KBKB BKB20191028005011710/28/19 00:50:31  5-MIN KBKB 280650Z AUTO VRB04KT 10SM OVC005 14/13 A3002 210 93 200 VRB/04 RMK AO2 SLP191 T01390128
53988KBKB BKB20191028005511010/28/19 00:55:31  5-MIN KBKB 280655Z AUTO VRB04KT 10SM OVC005 14/12 A3002 210 90 200 VRB/04 RMK AO2 T01390122
53988KBKB BKB20191028010011010/28/19 01:00:31  5-MIN KBKB 280700Z AUTO VRB03KT 10SM OVC005 14/12 A3002 210 90 200 VRB/03 RMK AO2 T01390122
53988KBKB BKB20191028010511010/28/19 01:05:31  5-MIN KBKB 280705Z AUTO 00000KT 10SM OVC005 14/12 A3002 200 90 200 000/00 RMK AO2 T01390122
53988KBKB BKB20191028011011010/28/19 01:10:31  5-MIN KBKB 280710Z AUTO VRB03KT 10SM OVC005 14/12 A3002 200 90 200 VRB/03 RMK AO2 T01390122
53988KBKB BKB20191028011511010/28/19 01:15:31  5-MIN KBKB 280715Z AUTO 00000KT 10SM OVC005 14/12 A3002 200 90 200 000/00 RMK AO2 T01390122
53988KBKB BKB20191028012011010/28/19 01:20:31  5-MIN KBKB 280720Z AUTO 00000KT 10SM OVC005 14/13 A3002 200 93 200 000/00 RMK AO2 T01390128
53988KBKB BKB20191028012512210/28/19 01:25:31  5-MIN KBKB 280725Z AUTO 00000KT 10SM OVC006 14/13 A3002 200 93 200 000/00 RMK AO2 CIG 005V008 T01390128
53988KBKB BKB20191028013011010/28/19 01:30:31  5-MIN KBKB 280730Z AUTO 00000KT 10SM OVC006 14/13 A3002 200 90 200 000/00 RMK AO2 T01440128
53988KBKB BKB20191028013511010/28/19 01:35:31  5-MIN KBKB 280735Z AUTO 00000KT 10SM OVC008 14/13 A3002 200 90 200 000/00 RMK AO2 T01440128
53988KBKB BKB20191028014011010/28/19 01:40:31  5-MIN KBKB 280740Z AUTO 00000KT 10SM OVC008 14/13 A3002 210 90 200 000/00 RMK AO2 T01440128
53988KBKB BKB20191028014512210/28/19 01:45:31  5-MIN KBKB 280745Z AUTO 00000KT 10SM OVC008 14/13 A3002 210 90 200 000/00 RMK AO2 CIG 006V010 T01440128
53988KBKB BKB20191028015013310/28/19 01:50:31  5-MIN KBKB 280750Z AUTO 00000KT 10SM -RA OVC008 14/13 A3002 210 90 200 000/00 RMK AO2 RAB49 SLP193 P0000 T01440128
53988KBKB BKB20191028015513210/28/19 01:55:31  5-MIN KBKB 280755Z AUTO 00000KT 10SM -RA OVC008 14/13 A3002 210 90 200 000/00 RMK AO2 CIG 008V011 P0000 T01440128
53988KBKB BKB20191028020012010/28/19 02:00:31  5-MIN KBKB 280800Z AUTO 00000KT 10SM -RA OVC010 14/13 A3002 210 90 200 000/00 RMK AO2 P0000 T01440128
53988KBKB BKB20191028020512010/28/19 02:05:31  5-MIN KBKB 280805Z AUTO 00000KT 10SM -RA OVC010 14/13 A3002 210 90 200 000/00 RMK AO2 P0000 T01440128
53988KBKB BKB20191028021007110/28/19 02:10:31  5-MIN KBKB 280810Z AUTO 00000K0/00 RMK AO2 T01390133
53988KBKB BKB20191028044012810/28/19 04:40:31  5-MIN KBKB 281040Z AUTO 00000KT 6SM -RA BR OVC011 14/13 A3004 190 93 100 000/00 RMK AO2 RAB35 P0000 T01390128
53988KBKB BKB20191028044512710/28/19 04:45:31  5-MIN KBKB 281045Z AUTO 00000KT 6SM BR OVC011 14/13 A3004 190 93 100 000/00 RMK AO2 RAB35E45 P0000 T01390128
53988KBKB BKB20191028045014110/28/19 04:50:31  5-MIN KBKB 281050Z AUTO 00000KT 6SM BR FEW004 OVC011 14/13 A3004 190 93 100 000/00 RMK AO2 RAB35E45 SLP200 P0000 T01390128
53988KBKB BKB20191028045511910/28/19 04:55:31  5-MIN KBKB 281055Z AUTO 00000KT 6SM BR FEW004 OVC011 14/13 A3004 190 96 100 000/00 RMK AO2 T01390133
53988KBKB BKB20191028050011910/28/19 05:00:31  5-MIN KBKB 281100Z AUTO 00000KT 6SM BR FEW004 OVC011 14/13 A3004 190 96 100 000/00 RMK AO2 T01390133
53988KBKB BKB20191028050511910/28/19 05:05:31  5-MIN KBKB 281105Z AUTO 00000KT 6SM BR FEW004 OVC011 14/13 A3004 190 96 100 000/00 RMK AO2 T01390133
53988KBKB BKB20191028051011910/28/19 05:10:31  5-MIN KBKB 281110Z AUTO 00000KT 6SM BR FEW004 OVC013 14/13 A3004 190 93 100 000/00 RMK AO2 T01390128
53988KBKB BKB20191028051511610/28/19 05:15:31  5-MIN KBKB 281115Z AUTO 00000KT 7SM FEW004 OVC013 14/13 A3004 190 96 100 000/00 RMK AO2 T01390133
53988KBKB BKB20191028052010910/28/19 05:20:31  5-MIN KBKB 281120Z AUTO 00000KT 7SM OVC013 14/13 A3004 190 96 100 000/00 RMK AO2 T01390133
53988KBKB BKB20191028052510910/28/19 05:25:31  5-MIN KBKB 281125Z AUTO 00000KT 8SM OVC014 14/13 A3004 190 96 100 000/00 RMK AO2 T01390133
53988KBKB BKB20191028053010910/28/19 05:30:31  5-MIN KBKB 281130Z AUTO 00000KT 8SM OVC014 14/13 A3004 190 96 100 000/00 RMK AO2 T01390133
53988KBKB BKB20191028053510910/28/19 05:35:31  5-MIN KBKB 281135Z AUTO VRB03KT 8SM OVC014 14/13 A3004 190 96 100 VRB/03 RMK AO2 T01390133
53988KBKB BKB20191028054010910/28/19 05:40:31  5-MIN KBKB 281140Z AUTO 00000KT 8SM OVC014 14/13 A3004 190 93 100 000/00 RMK AO2 T01390128
53988KBKB BKB20191028054510910/28/19 05:45:31  5-MIN KBKB 281145Z AUTO 00000KT 8SM OVC014 14/13 A3004 180 93 100 000/00 RMK AO2 T01390128
53988KBKB BKB20191028055014010/28/19 05:50:31  5-MIN KBKB 281150Z AUTO 00000KT 9SM OVC014 14/13 A3004 180 96 100 000/00 RMK AO2 SLP202 60000 T01390133 10144 20139 51005
53988KBKB BKB20191028055510910/28/19 05:55:31  5-MIN KBKB 281155Z AUTO 00000KT 8SM OVC014 14/13 A3005 180 93 100 000/00 RMK AO2 T01390128
53988KBKB BKB20191028060010910/28/19 06:00:31  5-MIN KBKB 281200Z AUTO 03003KT 8SM OVC013 14/13 A3005 180 93 100 030/03 RMK AO2 T01390128
53988KBKB BKB20191028060510910/28/19 06:05:31  5-MIN KBKB 281205Z AUTO 00000KT 8SM OVC013 14/13 A3005 180 90 200 000/00 RMK AO2 T01440128
53988KBKB BKB20191028061010910/28/19 06:10:31  5-MIN KBKB 281210Z AUTO 00000KT 8SM OVC013 14/13 A3005 180 93 100 000/00 RMK AO2 T01390128
53988KBKB BKB20191028061510910/28/19 06:15:31  5-MIN KBKB 281215Z AUTO 00000KT 8SM OVC013 14/13 A3005 180 93 100 000/00 RMK AO2 T01390128
53988KBKB BKB20191028062010910/28/19 06:20:31  5-MIN KBKB 281220Z AUTO 00000KT 8SM OVC013 14/13 A3005 180 93 100 000/00 RMK AO2 T01390128
53988KBKB BKB20191028062510910/28/19 06:25:31  5-MIN KBKB 281225Z AUTO 00000KT 8SM OVC013 14/13 A3005 180 93 200 000/00 RMK AO2 T01440133
53988KBKB BKB20191028063010910/28/19 06:30:31  5-MIN KBKB 281230Z AUTO 00000KT 7SM OVC014 14/13 A3005 170 93 200 000/00 RMK AO2 T01440133
53988KBKB BKB20191028063010910/28/19 06:30:31  5-MIN KBKB 281230Z AUTO 00000KT 8SM OVC013 14/13 A3005 180 93 200 000/00 RMK AO2 T01440133
53988KBKB BKB20191028063510910/28/19 06:35:31  5-MIN KBKB 281235Z AUTO 00000KT 7SM OVC013 14/13 A3005 180 93 200 000/00 RMK AO2 T01440133
53988KBKB BKB20191028064010910/28/19 06:40:31  5-MIN KBKB 281240Z AUTO 00000KT 7SM OVC013 14/13 A3005 180 93 200 000/00 RMK AO2 T01440133
53988KBKB BKB20191028064510910/28/19 06:45:31  5-MIN KBKB 281245Z AUTO 00000KT 7SM OVC013 14/13 A3005 180 93 200 000/00 RMK AO2 T01440133
53988KBKB BKB20191028065011610/28/19 06:50:31  5-MIN KBKB 281250Z AUTO 00000KT 7SM OVC013 14/13 A3005 180 93 200 000/00 RMK AO2 SLP204 T01440133
53988KBKB BKB20191028065510910/28/19 06:55:31  5-MIN KBKB 281255Z AUTO 00000KT 7SM OVC013 14/13 A3005 180 93 200 000/00 RMK AO2 T01440133
53988KBKB BKB20191028070010910/28/19 07:00:31  5-MIN KBKB 281300Z AUTO 00000KT 7SM OVC014 14/13 A3005 180 93 200 000/00 RMK AO2 T01440133
53988KBKB BKB20191028070510910/28/19 07:05:31  5-MIN KBKB 281305Z AUTO 00000KT 7SM OVC014 14/13 A3005 170 93 200 000/00 RMK AO2 T01440133
53988KBKB BKB20191028071010910/28/19 07:10:31  5-MIN KBKB 281310Z AUTO 00000KT 7SM OVC014 14/13 A3005 170 93 200 000/00 RMK AO2 T01440133
53988KBKB BKB20191028071510910/28/19 07:15:31  5-MIN KBKB 281315Z AUTO 00000KT 7SM OVC014 14/13 A3005 170 93 200 000/00 RMK AO2 T01440133
53988KBKB BKB20191028072010910/28/19 07:20:31  5-MIN KBKB 281320Z AUTO 00000KT 7SM OVC014 14/13 A3006 170 93 200 000/00 RMK AO2 T01440133
53988KBKB BKB20191028072510910/28/19 07:25:31  5-MIN KBKB 281325Z AUTO 00000KT 7SM OVC014 14/13 A3006 170 93 200 000/00 RMK AO2 T01440133
53988KBKB BKB20191028073010910/28/19 07:30:31  5-MIN KBKB 281330Z AUTO 00000KT 8SM OVC014 15/13 A3005 170 90 300 000/00 RMK AO2 T01500133
53988KBKB BKB20191028073510910/28/19 07:35:31  5-MIN KBKB 281335Z AUTO 00000KT 8SM OVC014 15/13 A3006 170 90 300 000/00 RMK AO2 T01500133
53988KBKB BKB20191028074010910/28/19 07:40:31  5-MIN KBKB 281340Z AUTO 00000KT 8SM OVC014 15/13 A3005 170 90 300 000/00 RMK AO2 T01500133
53988KBKB BKB20191028074510910/28/19 07:45:31  5-MIN KBKB 281345Z AUTO 00000KT 8SM OVC014 15/13 A3006 170 90 300 000/00 RMK AO2 T01500133
53988KBKB BKB20191028075011610/28/19 07:50:31  5-MIN KBKB 281350Z AUTO 00000KT 8SM OVC014 15/13 A3006 170 90 300 000/00 RMK AO2 SLP207 T01500133
53988KBKB BKB20191028075510910/28/19 07:55:31  5-MIN KBKB 281355Z AUTO 00000KT 8SM OVC014 15/13 A3006 170 90 200 000/00 RMK AO2 T01500133
53988KBKB BKB20191028080010910/28/19 08:00:31  5-MIN KBKB 281400Z AUTO 00000KT 8SM OVC014 16/13 A3006 170 86 300 000/00 RMK AO2 T01560133
53988KBKB BKB20191028080510910/28/19 08:05:31  5-MIN KBKB 281405Z AUTO 00000KT 9SM OVC014 16/13 A3006 170 86 300 000/00 RMK AO2 T01560133
53988KBKB BKB20191028081010910/28/19 08:10:31  5-MIN KBKB 281410Z AUTO 00000KT 9SM OVC014 16/13 A3006 160 86 300 000/00 RMK AO2 T01560133
53988KBKB BKB20191028081510910/28/19 08:15:31  5-MIN KBKB 281415Z AUTO 00000KT 9SM OVC014 16/13 A3007 160 83 300 000/00 RMK AO2 T01560128
53988KBKB BKB20191028082010910/28/19 08:20:31  5-MIN KBKB 281420Z AUTO 00000KT 9SM OVC014 16/13 A3007 160 83 300 000/00 RMK AO2 T01560128
53988KBKB BKB20191028082510910/28/19 08:25:31  5-MIN KBKB 281425Z AUTO 00000KT 9SM OVC014 16/13 A3007 160 83 400 000/00 RMK AO2 T01610133
53988KBKB BKB20191028083010910/28/19 08:30:31  5-MIN KBKB 281430Z AUTO 00000KT 9SM OVC014 16/13 A3007 160 80 400 000/00 RMK AO2 T01610128
53988KBKB BKB20191028083510910/28/19 08:35:31  5-MIN KBKB 281435Z AUTO 00000KT 9SM OVC014 16/13 A3007 160 80 400 000/00 RMK AO2 T01610128
53988KBKB BKB20191028084010910/28/19 08:40:31  5-MIN KBKB 281440Z AUTO 00000KT 9SM OVC014 16/13 A3007 160 83 400 000/00 RMK AO2 T01610133
53988KBKB BKB20191028084510910/28/19 08:45:31  5-MIN KBKB 281445Z AUTO 00000KT 9SM OVC014 16/13 A3007 160 80 400 000/00 RMK AO2 T01610128
53988KBKB BKB20191028085009910/28/19 08:50:31  5-MIN KBKB 281450Z AUTO 00000KT 9SM OVC016 16/13 A3007 160 80 400 000/00 RMK AO2
53988KBKB BKB20191028085510910/28/19 08:55:31  5-MIN KBKB 281455Z AUTO 00000KT 9SM OVC016 16/13 A3007 160 83 400 000/00 RMK AO2 T01610133
53988KBKB BKB20191028090011010/28/19 09:00:31  5-MIN KBKB 281500Z AUTO 00000KT 10SM OVC016 17/13 A3007 160 77 400 000/00 RMK AO2 T01670128
53988KBKB BKB20191028090511010/28/19 09:05:31  5-MIN KBKB 281505Z AUTO 00000KT 10SM OVC016 17/13 A3007 160 80 400 000/00 RMK AO2 T01670133
53988KBKB BKB20191028091011010/28/19 09:10:31  5-MIN KBKB 281510Z AUTO 00000KT 10SM OVC016 17/13 A3007 160 78 500 000/00 RMK AO2 T01720133
53988KBKB BKB20191028091511010/28/19 09:15:31  5-MIN KBKB 281515Z AUTO VRB03KT 10SM OVC016 17/13 A3007 160 77 400 VRB/03 RMK AO2 T01670128
53988KBKB BKB20191028092011010/28/19 09:20:31  5-MIN KBKB 281520Z AUTO 00000KT 10SM OVC016 17/13 A3007 160 75 500 000/00 RMK AO2 T01720128
53988KBKB BKB20191028092511010/28/19 09:25:31  5-MIN KBKB 281525Z AUTO 00000KT 10SM OVC016 17/12 A3007 160 75 400 000/00 RMK AO2 T01670122
53988KBKB BKB20191028093011010/28/19 09:30:31  5-MIN KBKB 281530Z AUTO 00000KT 10SM OVC016 17/12 A3007 160 75 400 000/00 RMK AO2 T01670122
53988KBKB BKB20191028093511010/28/19 09:35:31  5-MIN KBKB 281535Z AUTO 00000KT 10SM OVC016 17/13 A3007 160 75 500 000/00 RMK AO2 T01720128
53988KBKB BKB20191028094011010/28/19 09:40:31  5-MIN KBKB 281540Z AUTO 00000KT 10SM OVC017 17/12 A3007 160 72 500 000/00 RMK AO2 T01720122
53988KBKB BKB20191028094511010/28/19 09:45:31  5-MIN KBKB 281545Z AUTO 00000KT 10SM OVC017 17/13 A3007 160 75 500 000/00 RMK AO2 T01720128
53988KBKB BKB20191028095011710/28/19 09:50:31  5-MIN KBKB 281550Z AUTO 00000KT 10SM OVC017 18/13 A3007 160 72 600 000/00 RMK AO2 SLP211 T01780128
53988KBKB BKB20191028095511010/28/19 09:55:31  5-MIN KBKB 281555Z AUTO 00000KT 10SM OVC017 18/13 A3007 160 72 600 000/00 RMK AO2 T01830133
53988KBKB BKB20191028100011010/28/19 10:00:31  5-MIN KBKB 281600Z AUTO VRB04KT 10SM OVC017 18/13 A3007 160 70 600 VRB/04 RMK AO2 T01830128
53988KBKB BKB20191028100511010/28/19 10:05:31  5-MIN KBKB 281605Z AUTO 11004KT 10SM OVC017 18/13 A3007 160 70 600 110/04 RMK AO2 T01830128
53988KBKB BKB20191028101011010/28/19 10:10:31  5-MIN KBKB 281610Z AUTO 00000KT 10SM OVC017 18/13 A3006 170 72 600 000/00 RMK AO2 T01830133
53988KBKB BKB20191028101511010/28/19 10:15:31  5-MIN KBKB 281615Z AUTO VRB03KT 10SM BKN017 18/13 A3006 170 70 600 VRB/03 RMK AO2 T01830128
53988KBKB BKB20191028102011010/28/19 10:20:31  5-MIN KBKB 281620Z AUTO 00000KT 10SM BKN017 19/13 A3006 170 67 800 000/00 RMK AO2 T01940133
53988KBKB BKB20191028102511010/28/19 10:25:31  5-MIN KBKB 281625Z AUTO VRB03KT 10SM SCT017 19/13 A3006 170 67 700 VRB/03 RMK AO2 T01890128
53988KBKB BKB20191028103011010/28/19 10:30:31  5-MIN KBKB 281630Z AUTO 09003KT 10SM SCT017 19/13 A3006 170 70 700 080/03 RMK AO2 T01890133
53988KBKB BKB20191028103511010/28/19 10:35:31  5-MIN KBKB 281635Z AUTO 12005KT 10SM FEW018 19/13 A3005 180 70 700 120/05 RMK AO2 T01890133
53988KBKB BKB20191028104010710/28/19 10:40:31  5-MIN KBKB 281640Z AUTO 00000KT 10SM CLR 19/13 A3005 180 67 800 000/00 RMK AO2 T01940133
53988KBKB BKB20191028104510710/28/19 10:45:31  5-MIN KBKB 281645Z AUTO VRB03KT 10SM CLR 20/13 A3005 180 65 800 VRB/03 RMK AO2 T02000133
53988KBKB BKB20191028105011710/28/19 10:50:31  5-MIN KBKB 281650Z AUTO VRB04KT 10SM FEW021 19/13 A3004 180 67 800 VRB/04 RMK AO2 SLP202 T01940133
53988KBKB BKB20191028105511010/28/19 10:55:31  5-MIN KBKB 281655Z AUTO VRB03KT 10SM FEW021 20/13 A3004 190 65 900 VRB/03 RMK AO2 T02000133
53988KBKB BKB20191028110011010/28/19 11:00:31  5-MIN KBKB 281700Z AUTO VRB03KT 10SM FEW021 19/13 A3004 190 67 800 VRB/03 RMK AO2 T01940133
53988KBKB BKB20191028110510710/28/19 11:05:31  5-MIN KBKB 281705Z AUTO 00000KT 10SM CLR 20/13 A3004 190 65 900 000/00 RMK AO2 T02000133
53988KBKB BKB20191028111010710/28/19 11:10:31  5-MIN KBKB 281710Z AUTO 07003KT 10SM CLR 20/13 A3003 190 65 900 060/03 RMK AO2 T02000133
53988KBKB BKB20191028111510710/28/19 11:15:31  5-MIN KBKB 281715Z AUTO 11004KT 10SM CLR 20/13 A3003 200 65 900 100/04 RMK AO2 T02000133
53988KBKB BKB20191028112010710/28/19 11:20:31  5-MIN KBKB 281720Z AUTO VRB04KT 10SM CLR 21/13 A3003 200 63 900 VRB/04 RMK AO2 T02060133
53988KBKB BKB20191028112510710/28/19 11:25:31  5-MIN KBKB 281725Z AUTO VRB04KT 10SM CLR 20/13 A3002 200 65 900 VRB/04 RMK AO2 T02000133
53988KBKB BKB20191028113010810/28/19 11:30:31  5-MIN KBKB 281730Z AUTO VRB04KT 10SM CLR 21/13 A3002 210 65 1000 000/00 RMK AO2 T02060139
53988KBKB BKB20191028122510810/28/19 12:25:31  5-MIN KBKB 281825Z AUTO 00000KT 10SM CLR 21/14 A2999 240 63 1000 000/00 RMK AO2 T02110139
53988KBKB BKB20191028123010810/28/19 12:30:31  5-MIN KBKB 281830Z AUTO 00000KT 10SM CLR 21/13 A2998 240 61 1000 000/00 RMK AO2 T02110133
53988KBKB BKB20191028123510810/28/19 12:35:31  5-MIN KBKB 281835Z AUTO 00000KT 10SM CLR 21/13 A2998 240 63 1000 000/00 RMK AO2 T02060133
53988KBKB BKB20191028124011110/28/19 12:40:31  5-MIN KBKB 281840Z AUTO VRB03KT 10SM FEW027 21/14 A2998 240 63 1100 VRB/03 RMK AO2 T02110139
53988KBKB BKB20191028124511110/28/19 12:45:31  5-MIN KBKB 281845Z AUTO 00000KT 10SM FEW027 21/14 A2998 240 63 1100 000/00 RMK AO2 T02110139
53988KBKB BKB20191028125011810/28/19 12:50:31  5-MIN KBKB 281850Z AUTO VRB05KT 10SM FEW027 21/14 A2998 240 63 1100 VRB/05 RMK AO2 SLP179 T02110139
53988KBKB BKB20191028125016410/28/19 12:50:31  5-MIN KBKB 281850Z AUTO VRB05KT 10SM FEW027 21/14 A2998 240 63 1100 V1830Z AUTO 00000KT 10SM CLR 21/13 A2998 240 61 1000 000/00 RMK AO2 T02110133
53988KBKB BKB20191028125511110/28/19 12:55:31  5-MIN KBKB 281855Z AUTO VRB04KT 10SM FEW029 21/14 A2998 250 63 1100 VRB/04 RMK AO2 T02110139
53988KBKB BKB20191028130011110/28/19 13:00:31  5-MIN KBKB 281900Z AUTO VRB03KT 10SM SCT029 21/13 A2997 250 63 1000 VRB/03 RMK AO2 T02060133
53988KBKB BKB20191028130015610/28/19 13:00:31  5-MIN KBKB 281900Z AUTO VRB03KT 10SM SCT029  5-MIN KBKB 281840Z AUTO VRB03KT 10SM FEW027 21/14 A2998 240 63 1100 VRB/03 RMK AO2 T02110139
53988KBKB BKB20191028130511110/28/19 13:05:31  5-MIN KBKB 281905Z AUTO 00000KT 10SM SCT028 21/13 A2997 250 61 1100 000/00 RMK AO2 T02110133
53988KBKB BKB20191028131011110/28/19 13:10:31  5-MIN KBKB 281910Z AUTO 00000KT 10SM SCT030 21/13 A2997 250 63 1000 000/00 RMK AO2 T02060133
53988KBKB BKB20191028131511110/28/19 13:15:31  5-MIN KBKB 281915Z AUTO 02004KT 10SM FEW030 21/14 A2997 250 63 1100 020/04 RMK AO2 T02110139
53988KBKB BKB20191028132011110/28/19 13:20:31  5-MIN KBKB 281920Z AUTO 00000KT 10SM FEW030 21/13 A2997 250 61 1100 000/00 RMK AO2 T02110133
53988KBKB BKB20191028132511110/28/19 13:25:31  5-MIN KBKB 281925Z AUTO 00000KT 10SM FEW030 21/13 A2997 250 61 1100 000/00 RMK AO2 T02110133
53988KBKB BKB20191028133011110/28/19 13:30:31  5-MIN KBKB 281930Z AUTO 00000KT 10SM FEW030 21/14 A2997 250 63 1100 000/00 RMK AO2 T02110139
53988KBKB BKB20191028133510810/28/19 13:35:31  5-MIN KBKB 281935Z AUTO 00000KT 10SM CLR 22/14 A2996 260 61 1100 000/00 RMK AO2 T02170139
53988KBKB BKB20191028134010810/28/19 13:40:31  5-MIN KBKB 281940Z AUTO 00000KT 10SM CLR 22/14 A2996 260 59 1200 000/00 RMK AO2 T02220139
53988KBKB BKB20191028134510810/28/19 13:45:31  5-MIN KBKB 281945Z AUTO VRB03KT 10SM CLR 22/14 A2996 260 59 1200 VRB/03 RMK AO2 T02220139
53988KBKB BKB20191028135011510/28/19 13:50:31  5-MIN KBKB 281950Z AUTO VRB03KT 10SM CLR 22/14 A2996 260 59 1200 VRB/03 RMK AO2 SLP172 T02220139
53988KBKB BKB20191028135510810/28/19 13:55:31  5-MIN KBKB 281955Z AUTO 00000KT 10SM CLR 23/14 A2996 260 57 1300 000/00 RMK AO2 T02280139
53988KBKB BKB20191028140010810/28/19 14:00:31  5-MIN KBKB 282000Z AUTO 00000KT 10SM CLR 23/14 A2996 260 57 1300 000/00 RMK AO2 T02280139
53988KBKB BKB20191028140510810/28/19 14:05:31  5-MIN KBKB 282005Z AUTO VRB03KT 10SM CLR 23/14 A2996 260 57 1300 VRB/03 RMK AO2 T02280139
53988KBKB BKB20191028141010810/28/19 14:10:31  5-MIN KBKB 282010Z AUTO 00000KT 10SM CLR 23/14 A2996 260 57 1300 000/00 RMK AO2 T02280139
53988KBKB BKB20191028141510810/28/19 14:15:31  5-MIN KBKB 282015Z AUTO 00000KT 10SM CLR 23/14 A2996 260 57 1300 000/00 RMK AO2 T02280139
53988KBKB BKB20191028142010810/28/19 14:20:31  5-MIN KBKB 282020Z AUTO 36004KT 10SM CLR 23/14 A2996 260 57 1300 360/04 RMK AO2 T02280139
53988KBKB BKB20191028142510810/28/19 14:25:31  5-MIN KBKB 282025Z AUTO VRB05KT 10SM CLR 23/14 A2996 260 55 1300 VRB/05 RMK AO2 T02330139
53988KBKB BKB20191028143010810/28/19 14:30:31  5-MIN KBKB 282030Z AUTO 36003KT 10SM CLR 23/14 A2996 260 57 1300 360/03 RMK AO2 T02280139
53988KBKB BKB20191028143509510/28/19 14:35:31  5-MIN KBKB 282035ZSM FEW035 21/14 A2996 260 67 1000 000/00 RMK AO2 T02060144
53988KBKB BKB20191028154511110/28/19 15:45:31  5-MIN KBKB 282145Z AUTO VRB03KT 10SM FEW035 22/14 A2996 260 61 1200 VRB/03 RMK AO2 T02220144
53988KBKB BKB20191028155011810/28/19 15:50:31  5-MIN KBKB 282150Z AUTO 08004KT 10SM FEW035 22/14 A2996 260 61 1200 070/04 RMK AO2 SLP172 T02220144
53988KBKB BKB20191028155511110/28/19 15:55:31  5-MIN KBKB 282155Z AUTO VRB04KT 10SM FEW035 22/14 A2996 260 61 1200 VRB/04 RMK AO2 T02220144
53988KBKB BKB20191028160011110/28/19 16:00:31  5-MIN KBKB 282200Z AUTO 00000KT 10SM FEW035 22/14 A2996 260 61 1200 000/00 RMK AO2 T02220144
53988KBKB BKB20191028160511110/28/19 16:05:31  5-MIN KBKB 282205Z AUTO 00000KT 10SM SCT035 22/14 A2996 260 63 1100 000/00 RMK AO2 T02170144
53988KBKB BKB20191028161011110/28/19 16:10:31  5-MIN KBKB 282210Z AUTO VRB03KT 10SM SCT035 22/14 A2996 260 63 1100 VRB/03 RMK AO2 T02170144
53988KBKB BKB20191028161511110/28/19 16:15:31  5-MIN KBKB 282215Z AUTO VRB03KT 10SM SCT035 21/14 A2996 260 65 1100 VRB/03 RMK AO2 T02110144
53988KBKB BKB20191028162011110/28/19 16:20:31  5-MIN KBKB 282220Z AUTO 00000KT 10SM FEW035 21/14 A2996 260 65 1100 000/00 RMK AO2 T02110144
53988KBKB BKB20191028162511110/28/19 16:25:31  5-MIN KBKB 282225Z AUTO 00000KT 10SM FEW035 21/14 A2996 260 67 1000 000/00 RMK AO2 T02060144
53988KBKB BKB20191028163011110/28/19 16:30:31  5-MIN KBKB 282230Z AUTO 00000KT 10SM FEW035 21/14 A2996 260 67 1000 000/00 RMK AO2 T02060144
53988KBKB BKB20191028163510810/28/19 16:35:31  5-MIN KBKB 282235Z AUTO VRB03KT 10SM CLR 21/14 A2996 260 67 1000 VRB/03 RMK AO2 T02060144
53988KBKB BKB20191028164010710/28/19 16:40:31  5-MIN KBKB 282240Z AUTO VRB03KT 10SM CLR 20/14 A2996 260 70 900 VRB/03 RMK AO2 T02000144
53988KBKB BKB20191028164510710/28/19 16:45:31  5-MIN KBKB 282245Z AUTO VRB03KT 10SM CLR 20/14 A2996 260 70 900 VRB/03 RMK AO2 T02000144
53988KBKB BKB20191028165011410/28/19 16:50:31  5-MIN KBKB 282250Z AUTO VRB03KT 10SM CLR 20/14 A2996 260 70 900 VRB/03 RMK AO2 SLP173 T02000144
53988KBKB BKB20191028165510710/28/19 16:55:31  5-MIN KBKB 282255Z AUTO 00000KT 10SM CLR 19/14 A2996 260 72 900 000/00 RMK AO2 T01940144
53988KBKB BKB20191028170010710/28/19 17:00:31  5-MIN KBKB 282300Z AUTO 00000KT 10SM CLR 19/14 A2996 260 72 900 000/00 RMK AO2 T01940144
53988KBKB BKB20191028170510710/28/19 17:05:31  5-MIN KBKB 282305Z AUTO 00000KT 10SM CLR 19/14 A2996 260 75 800 000/00 RMK AO2 T01890144
53988KBKB BKB20191028171010710/28/19 17:10:31  5-MIN KBKB 282310Z AUTO 00000KT 10SM CLR 18/15 A2996 260 81 800 000/00 RMK AO2 T01830150
53988KBKB BKB20191028171510710/28/19 17:15:31  5-MIN KBKB 282315Z AUTO 00000KT 10SM CLR 18/15 A2996 260 81 800 000/00 RMK AO2 T01830150
53988KBKB BKB20191028172010710/28/19 17:20:31  5-MIN KBKB 282320Z AUTO 00000KT 10SM CLR 18/14 A2996 260 78 800 000/00 RMK AO2 T01830144
53988KBKB BKB20191028172510710/28/19 17:25:31  5-MIN KBKB 282325Z AUTO 00000KT 10SM CLR 18/14 A2997 260 78 700 000/00 RMK AO2 T01830144
53988KBKB BKB20191028173010710/28/19 17:30:31  5-MIN KBKB 282330Z AUTO 00000KT 10SM CLR 18/14 A2997 250 78 700 000/00 RMK AO2 T01830144
53988KBKB BKB20191028173510710/28/19 17:35:31  5-MIN KBKB 282335Z AUTO VRB03KT 10SM CLR 18/14 A2997 250 78 700 VRB/03 RMK AO2 T01830144
53988KBKB BKB20191028174010710/28/19 17:40:31  5-MIN KBKB 282340Z AUTO 00000KT 10SM CLR 18/14 A2997 250 78 700 000/00 RMK AO2 T01830144
53988KBKB BKB20191028174510710/28/19 17:45:31  5-MIN KBKB 282345Z AUTO 00000KT 10SM CLR 18/14 A2997 250 81 700 000/00 RMK AO2 T01780144
53988KBKB BKB20191028175013210/28/19 17:50:31  5-MIN KBKB 282350Z AUTO 00000KT 10SM CLR 18/14 A2997 250 81 700 000/00 RMK AO2 SLP176 T01780144 10233 20178 56016
53988KBKB BKB20191028175510710/28/19 17:55:31  5-MIN KBKB 282355Z AUTO 00000KT 10SM CLR 18/14 A2997 250 81 700 000/00 RMK AO2 T01780144
53988KBKB BKB20191028180010710/28/19 18:00:31  5-MIN KBKB 290000Z AUTO 00000KT 10SM CLR 18/14 A2997 250 81 700 000/00 RMK AO2 T01780144
53988KBKB BKB20191028180512310/28/19 18:05:31  5-MIN KBKB 290005Z AUTO 00000KT 10SM -RA CLR 17/14 A2997 250 83 600 000/00 RMK AO2 RAB05 P0000 T01720144
53988KBKB BKB20191028181012310/28/19 18:10:31  5-MIN KBKB 290010Z AUTO 00000KT 10SM -RA CLR 17/14 A2997 250 83 600 000/00 RMK AO2 RAB05 P0000 T01720144
53988KBKB BKB20191028181512310/28/19 18:15:31  5-MIN KBKB 290015Z AUTO 00000KT 10SM -RA CLR 17/14 A2997 250 83 600 000/00 RMK AO2 RAB05 P0000 T01720144
53988KBKB BKB20191028182012210/28/19 18:20:31  5-MIN KBKB 290020Z AUTO 00000KT 10SM CLR 17/14 A2998 250 80 600 000/00 RMK AO2 RAB05E20 P0000 T01720139
53988KBKB BKB20191028182512210/28/19 18:25:31  5-MIN KBKB 290025Z AUTO 00000KT 10SM CLR 17/14 A2998 250 80 600 000/00 RMK AO2 RAB05E20 P0000 T01720139
53988KBKB BKB20191028183012210/28/19 18:30:31  5-MIN KBKB 290030Z AUTO 00000KT 10SM CLR 17/14 A2998 250 80 600 000/00 RMK AO2 RAB05E20 P0000 T01720139
53988KBKB BKB20191028183512210/28/19 18:35:31  5-MIN KBKB 290035Z AUTO 00000KT 10SM CLR 17/14 A2998 240 83 500 000/00 RMK AO2 RAB05E20 P0000 T01670139
53988KBKB BKB20191028184012210/28/19 18:40:31  5-MIN KBKB 290040Z AUTO 00000KT 10SM CLR 17/14 A2998 240 83 500 000/00 RMK AO2 RAB05E20 P0000 T01670139
53988KBKB BKB20191028184512210/28/19 18:45:31  5-MIN KBKB 290045Z AUTO 00000KT 10SM CLR 17/14 A2999 240 83 500 000/00 RMK AO2 RAB05E20 P0000 T01670139
53988KBKB BKB20191028185012910/28/19 18:50:31  5-MIN KBKB 290050Z AUTO 00000KT 10SM CLR 17/14 A2999 230 83 500 000/00 RMK AO2 RAB05E20 SLP183 P0000 T01670139
53988KBKB BKB20191028185510710/28/19 18:55:31  5-MIN KBKB 290055Z AUTO 00000KT 10SM CLR 16/14 A2999 230 86 500 000/00 RMK AO2 T01610139
53988KBKB BKB20191028190010710/28/19 19:00:31  5-MIN KBKB 290100Z AUTO 00000KT 10SM CLR 16/14 A3000 230 86 500 000/00 RMK AO2 T01610139
53988KBKB BKB20191028190510610/28/19 19:05:31  5-MIN KBKB 290105Z AUTO 00000KT 9SM CLR 16/14 A3000 230 86 500 000/00 RMK AO2 T01610139
53988KBKB BKB20191028191010610/28/19 19:10:31  5-MIN KBKB 290110Z AUTO 00000KT 9SM CLR 16/14 A3000 230 86 400 000/00 RMK AO2 T01610139
53988KBKB BKB20191028191510610/28/19 19:15:31  5-MIN KBKB 290115Z AUTO 00000KT 9SM CLR 16/14 A3000 230 86 400 000/00 RMK AO2 T01610139
53988KBKB BKB20191028192010610/28/19 19:20:31  5-MIN KBKB 290120Z AUTO 00000KT 9SM CLR 16/14 A3000 230 86 400 000/00 RMK AO2 T01610139
53988KBKB BKB20191028192510610/28/19 19:25:31  5-MIN KBKB 290125Z AUTO 00000KT 9SM CLR 16/14 A3000 220 86 400 000/00 RMK AO2 T01610139
53988KBKB BKB20191028193010610/28/19 19:30:31  5-MIN KBKB 290130Z AUTO 00000KT 9SM CLR 16/14 A3000 220 86 400 000/00 RMK AO2 T01610139
53988KBKB BKB20191028193510610/28/19 19:35:31  5-MIN KBKB 290135Z AUTO VRB03KT 9SM CLR 16/14 A3000 220 86 400 VRB/03 RMK AO2 T01610139
53988KBKB BKB20191028194010610/28/19 19:40:31  5-MIN KBKB 290140Z AUTO 00000KT 9SM CLR 16/14 A3001 220 86 400 000/00 RMK AO2 T01610139
53988KBKB BKB20191028194510610/28/19 19:45:31  5-MIN KBKB 290145Z AUTO 06003KT 9SM CLR 16/14 A3001 220 86 400 060/03 RMK AO2 T01610139
53988KBKB BKB20191028195011310/28/19 19:50:31  5-MIN KBKB 290150Z AUTO 00000KT 9SM CLR 16/14 A3001 220 90 400 000/00 RMK AO2 SLP189 T01560139
53988KBKB BKB20191028195510610/28/19 19:55:31  5-MIN KBKB 290155Z AUTO 00000KT 9SM CLR 16/14 A3001 220 90 400 000/00 RMK AO2 T01560139
53988KBKB BKB20191028200010610/28/19 20:00:31  5-MIN KBKB 290200Z AUTO 00000KT 8SM CLR 16/14 A3001 220 90 400 000/00 RMK AO2 T01560139
53988KBKB BKB20191028200510610/28/19 20:05:31  5-MIN KBKB 290205Z AUTO 00000KT 7SM CLR 16/13 A3001 210 86 400 000/00 RMK AO2 T01560133
53988KBKB BKB20191028201010910/28/19 20:10:31  5-MIN KBKB 290210Z AUTO 00000KT 6SM BR CLR 15/13 A3001 210 90 300 000/00 RMK AO2 T01500133
53988KBKB BKB20191028201510610/28/19 20:15:31  5-MIN KBKB 290215Z AUTO 00000KT 7SM CLR 15/13 A3002 210 90 300 000/00 RMK AO2 T01500133
53988KBKB BKB20191028202010610/28/19 20:20:31  5-MIN KBKB 290220Z AUTO VRB03KT 8SM CLR 15/13 A3002 210 90 300 VRB/03 RMK AO2 T01500133
53988KBKB BKB20191028202510610/28/19 20:25:31  5-MIN KBKB 290225Z AUTO 00000KT 8SM CLR 15/13 A3002 210 90 300 000/00 RMK AO2 T01500133
53988KBKB BKB20191028203010610/28/19 20:30:31  5-MIN KBKB 290230Z AUTO 00000KT 8SM CLR 15/13 A3002 210 90 300 000/00 RMK AO2 T01500133
53988KBKB BKB20191028203510610/28/19 20:35:31  5-MIN KBKB 290235Z AUTO 00000KT 8SM CLR 15/13 A3002 210 90 300 000/00 RMK AO2 T01500133
53988KBKB BKB20191028204010610/28/19 20:40:31  5-MIN KBKB 290240Z AUTO VRB03KT 8SM CLR 15/13 A3002 210 90 300 VRB/03 RMK AO2 T01500133
53988KBKB BKB20191028204510610/28/19 20:45:31  5-MIN KBKB 290245Z AUTO 00000KT 8SM CLR 15/13 A3002 200 90 300 000/00 RMK AO2 T01500133
53988KBKB BKB20191028205012510/28/19 20:50:31  5-MIN KBKB 290250Z AUTO 00000KT 7SM CLR 15/13 A3003 200 90 300 000/00 RMK AO2 SLP197 60000 T01500133 53004
53988KBKB BKB20191028205510910/28/19 20:55:31  5-MIN KBKB 290255Z AUTO 00000KT 7SM SCT031 14/13 A3003 190 93 200 000/00 RMK AO2 T01440133
53988KBKB BKB20191028210015610/28/19 21:00:31  5-MIN KBKB 290300Z AUTO VRB03KT 7SM BKN031 31  5-MIN KBKB 290455Z AUTO 00000KT 5SM BR CLR 13/12 A3004 180 93 100 000/00 RMK AO2 T01330122
53988KBKB BKB20191028225510910/28/19 22:55:31  5-MIN KBKB 290455Z AUTO 00000KT 5SM BR CLR 13/12 A3004 180 93 100 000/00 RMK AO2 T01330122
53988KBKB BKB20191028230010910/28/19 23:00:31  5-MIN KBKB 290500Z AUTO 00000KT 5SM BR CLR 13/12 A3005 180 93 100 000/00 RMK AO2 T01330122
53988KBKB BKB20191028230510910/28/19 23:05:31  5-MIN KBKB 290505Z AUTO VRB03KT 5SM BR CLR 13/12 A3005 180 93 100 VRB/03 RMK AO2 T01330122
53988KBKB BKB20191028231010910/28/19 23:10:31  5-MIN KBKB 290510Z AUTO 00000KT 5SM BR CLR 13/12 A3005 180 93 100 000/00 RMK AO2 T01330122
53988KBKB BKB20191028231505810/28/19 23:15:31  5-MIN KBKB 290515Z AUTO 00000KT 5SM0122
53988KBKB BKB20191028231508110/28/19 23:15:31  5-MIN KBKB 290515Z AUTO 00000KT 5SM BR CLR 13/12 AO2 T01390128
53988KBKB BKB20191028231510910/28/19 23:15:31  5-MIN KBKB 290515Z AUTO 00000KT 5SM BR CLR 13/12 A3005 180 93 100 000/00 RMK AO2 T01330122
53988KBKB BKB20191028232010910/28/19 23:20:31  5-MIN KBKB 290520Z AUTO 00000KT 5SM BR CLR 13/12 A3004 190 93 100 000/00 RMK AO2 T01330122
53988KBKB BKB20191028232505810/28/19 23:25:31  5-MIN KBKB 290525Z AUTO 00002 T01330122
53988KBKB BKB20191028232510910/28/19 23:25:31  5-MIN KBKB 290525Z AUTO 00000KT 5SM BR CLR 13/12 A3004 190 93 100 000/00 RMK AO2 T01330122
53988KBKB BKB20191028233010910/28/19 23:30:31  5-MIN KBKB 290530Z AUTO 00000KT 5SM BR CLR 13/12 A3004 190 93 100 000/00 RMK AO2 T01330122
53988KBKB BKB20191028233505810/28/19 23:35:31  5-MIN KBKB 290535Z AUTOMK AO2 T01330122
53988KBKB BKB20191029023011710/29/19 02:30:31  5-MIN KBKB 290830Z AUTO 00000KT 10SM SCT026 OVC038 14/13 A3003 200 93 200 000/00 RMK AO2 T01390128
53988KBKB BKB20191029023512410/29/19 02:35:31  5-MIN KBKB 290835Z AUTO 00000KT 10SM SCT027 BKN036 OVC045 14/13 A3003 200 93 200 000/00 RMK AO2 T01390128
53988KBKB BKB20191029024012410/29/19 02:40:31  5-MIN KBKB 290840Z AUTO 00000KT 10SM FEW027 BKN036 OVC045 14/13 A3003 200 93 200 000/00 RMK AO2 T01390128
53988KBKB BKB20191029024512410/29/19 02:45:31  5-MIN KBKB 290845Z AUTO 00000KT 10SM FEW027 BKN038 OVC045 14/13 A3003 200 93 200 000/00 RMK AO2 T01390128
53988KBKB BKB20191029024513110/29/19 02:45:31  5-MIN KBKB 290845Z AUBKB 290825Z AUTO VRB03KT 10SM BKN026 OVC038 14/13 A3003 190 93 100 VRB/03 RMK AO2 T01390128
53988KBKB BKB20191029025012310/29/19 02:50:31  5-MIN KBKB 290850Z AUTO 06003KT 10SM OVC040 14/13 A3003 200 93 200 050/03 RMK AO2 SLP196 T01390128 50004
53988KBKB BKB20191029025012510/29/19 02:50:31  5-MIN KBKB 290850Z AUTO 06003KT 10SM OVC040 14/13 A30VC046 14/13 A3003 200 90 200 000/00 RMK AO2 T01440128
53988KBKB BKB20191029025511010/29/19 02:55:31  5-MIN KBKB 290855Z AUTO VRB03KT 10SM OVC040 14/13 A3003 200 93 200 VRB/03 RMK AO2 T01390128
53988KBKB BKB20191029030011010/29/19 03:00:31  5-MIN KBKB 290900Z AUTO 00000KT 10SM OVC042 14/13 A3003 200 93 200 000/00 RMK AO2 T01390128
53988KBKB BKB20191029030013710/29/19 03:00:31  5-MIN KBKB 290900Z AUTO 00000KT 10SM OVC042 14/13 A3003 200 936 OVC045 14/13 A3003 200 93 200 000/00 RMK AO2 T01390128
53988KBKB BKB20191029030511010/29/19 03:05:31  5-MIN KBKB 290905Z AUTO 00000KT 10SM OVC044 14/13 A3003 200 93 200 000/00 RMK AO2 T01390128
53988KBKB BKB20191029031011010/29/19 03:10:31  5-MIN KBKB 290910Z AUTO 05003KT 10SM OVC044 14/13 A3003 200 93 200 050/03 RMK AO2 T01390128
53988KBKB BKB20191029031511010/29/19 03:15:31  5-MIN KBKB 290915Z AUTO 00000KT 10SM OVC045 14/13 A3003 200 90 200 000/00 RMK AO2 T01440128
53988KBKB BKB20191029032011010/29/19 03:20:31  5-MIN KBKB 290920Z AUTO 00000KT 10SM OVC045 14/13 A3003 200 90 200 000/00 RMK AO2 T01440128
53988KBKB BKB20191029032511010/29/19 03:25:31  5-MIN KBKB 290925Z AUTO 08003KT 10SM OVC046 14/13 A3003 200 90 200 080/03 RMK AO2 T01440128
53988KBKB BKB20191029033011010/29/19 03:30:31  5-MIN KBKB 290930Z AUTO 00000KT 10SM OVC046 14/13 A3003 200 90 200 000/00 RMK AO2 T01440128
53988KBKB BKB20191029033511010/29/19 03:35:31  5-MIN KBKB 290935Z AUTO 00000KT 10SM OVC046 14/13 A3003 200 90 200 000/00 RMK AO2 T01440128
53988KBKB BKB20191029034011010/29/19 03:40:31  5-MIN KBKB 290940Z AUTO VRB03KT 10SM OVC047 14/13 A3002 200 90 200 VRB/03 RMK AO2 T01440128
53988KBKB BKB20191029034511010/29/19 03:45:31  5-MIN KBKB 290945Z AUTO 00000KT 10SM OVC047 14/13 A3002 210 90 200 000/00 RMK AO2 T01440128
53988KBKB BKB20191029035011710/29/19 03:50:31  5-MIN KBKB 290950Z AUTO 00000KT 10SM OVC047 14/13 A3002 210 90 200 000/00 RMK AO2 SLP193 T01440128
53988KBKB BKB20191029035511010/29/19 03:55:31  5-MIN KBKB 290955Z AUTO 00000KT 10SM OVC047 15/13 A3002 210 86 300 000/00 RMK AO2 T01500128
53988KBKB BKB20191029040011010/29/19 04:00:31  5-MIN KBKB 291000Z AUTO 00000KT 10SM OVC047 15/13 A3002 210 90 300 000/00 RMK AO2 T01500133
53988KBKB BKB20191029040511010/29/19 04:05:31  5-MIN KBKB 291005Z AUTO 00000KT 10SM OVC047 15/13 A3002 210 90 300 000/00 RMK AO2 T01500133
53988KBKB BKB20191029041011010/29/19 04:10:31  5-MIN KBKB 291010Z AUTO 00000KT 10SM OVC047 15/13 A3002 210 90 300 000/00 RMK AO2 T01500133
53988KBKB BKB20191029041511010/29/19 04:15:31  5-MIN KBKB 291015Z AUTO 00000KT 10SM OVC047 15/13 A3002 210 90 300 000/00 RMK AO2 T01500133
53988KBKB BKB20191029042011010/29/19 04:20:31  5-MIN KBKB 291020Z AUTO 00000KT 10SM OVC047 15/13 A3001 210 90 300 000/00 RMK AO2 T01500133
53988KBKB BKB20191029042511010/29/19 04:25:31  5-MIN KBKB 291025Z AUTO 00000KT 10SM OVC047 15/13 A3001 210 90 300 000/00 RMK AO2 T01500133
53988KBKB BKB20191029043011010/29/19 04:30:31  5-MIN KBKB 291030Z AUTO 00000KT 10SM OVC047 15/13 A3001 220 90 300 000/00 RMK AO2 T01500133
53988KBKB BKB20191029043511010/29/19 04:35:31  5-MIN KBKB 291035Z AUTO 00000KT 10SM OVC047 15/13 A3001 220 90 300 000/00 RMK AO2 T01500133
53988KBKB BKB20191029044011010/29/19 04:40:31  5-MIN KBKB 291040Z AUTO 00000KT 10SM OVC047 15/13 A3001 220 90 300 000/00 RMK AO2 T01500133
53988KBKB BKB20191029044511010/29/19 04:45:31  5-MIN KBKB 291045Z AUTO 00000KT 10SM OVC049 15/13 A3001 210 90 300 000/00 RMK AO2 T01500133
53988KBKB BKB20191029045011710/29/19 04:50:31  5-MIN KBKB 291050Z AUTO 00000KT 10SM OVC049 15/13 A3001 210 90 300 000/00 RMK AO2 SLP190 T01500133
53988KBKB BKB20191029045511010/29/19 04:55:31  5-MIN KBKB 291055Z AUTO 00000KT 10SM OVC049 15/13 A3001 220 90 300 000/00 RMK AO2 T01500133
53988KBKB BKB20191029050011010/29/19 05:00:31  5-MIN KBKB 291100Z AUTO VRB03KT 10SM BKN050 15/13 A3001 220 90 300 VRB/03 RMK AO2 T01500133
53988KBKB BKB20191029050511010/29/19 05:05:31  5-MIN KBKB 291105Z AUTO 00000KT 10SM BKN050 15/13 A3001 220 90 300 000/00 RMK AO2 T01500133
53988KBKB BKB20191029051011010/29/19 05:10:31  5-MIN KBKB 291110Z AUTO 00000KT 10SM SCT050 15/13 A3001 210 90 300 000/00 RMK AO2 T01500133
53988KBKB BKB20191029051511010/29/19 05:15:31  5-MIN KBKB 291115Z AUTO 00000KT 10SM FEW050 14/13 A3001 210 93 200 000/00 RMK AO2 T01440133
53988KBKB BKB20191029052011010/29/19 05:20:31  5-MIN KBKB 291120Z AUTO 00000KT 10SM FEW050 14/13 A3001 210 93 200 000/00 RMK AO2 T01440133
53988KBKB BKB20191029052511010/29/19 05:25:31  5-MIN KBKB 291125Z AUTO 00000KT 10SM FEW050 14/13 A3001 220 93 200 000/00 RMK AO2 T01440133
53988KBKB BKB20191029053010710/29/19 05:30:31  5-MIN KBKB 291130Z AUTO 00000KT 10SM CLR 14/13 A3001 220 93 200 000/00 RMK AO2 T01440133
53988KBKB BKB20191029053510710/29/19 05:35:31  5-MIN KBKB 291135Z AUTO 00000KT 10SM CLR 14/13 A3001 220 93 200 000/00 RMK AO2 T01440133
53988KBKB BKB20191029054010610/29/19 05:40:31  5-MIN KBKB 291140Z AUTO 00000KT 9SM CLR 14/13 A3001 220 96 200 000/00 RMK AO2 T01390133
53988KBKB BKB20191029054510610/29/19 05:45:31  5-MIN KBKB 291145Z AUTO 00000KT 9SM CLR 14/13 A3001 220 96 200 000/00 RMK AO2 T01390133
53988KBKB BKB20191029055013110/29/19 05:50:31  5-MIN KBKB 291150Z AUTO 00000KT 9SM CLR 14/13 A3000 220 93 200 000/00 RMK AO2 SLP188 T01440133 10150 20133 58005
53988KBKB BKB20191029055510610/29/19 05:55:31  5-MIN KBKB 291155Z AUTO 00000KT 9SM CLR 14/13 A3000 220 93 200 000/00 RMK AO2 T01440133
53988KBKB BKB20191029060010610/29/19 06:00:31  5-MIN KBKB 291200Z AUTO 00000KT 9SM CLR 14/13 A3001 220 93 200 000/00 RMK AO2 T01440133
53988KBKB BKB20191029060510610/29/19 06:05:31  5-MIN KBKB 291205Z AUTO 00000KT 9SM CLR 14/13 A3000 220 93 200 000/00 RMK AO2 T01440133
53988KBKB BKB20191029061010610/29/19 06:10:31  5-MIN KBKB 291210Z AUTO 00000KT 9SM CLR 14/13 A3000 220 93 200 000/00 RMK AO2 T01440133
53988KBKB BKB20191029061510610/29/19 06:15:31  5-MIN KBKB 291215Z AUTO 00000KT 8SM CLR 14/13 A3000 220 93 200 000/00 RMK AO2 T01440133
53988KBKB BKB20191029062010610/29/19 06:20:31  5-MIN KBKB 291220Z AUTO 00000KT 8SM CLR 14/13 A3000 220 96 200 000/00 RMK AO2 T01390133
53988KBKB BKB20191029062510610/29/19 06:25:31  5-MIN KBKB 291225Z AUTO 00000KT 7SM CLR 14/13 A3000 220 96 200 000/00 RMK AO2 T01390133
53988KBKB BKB20191029063010610/29/19 06:30:31  5-MIN KBKB 291230Z AUTO 00000KT 7SM CLR 14/13 A3000 220 93 200 000/00 RMK AO2 T01440133
53988KBKB BKB20191029063510910/29/19 06:35:31  5-MIN KBKB 291235Z AUTO 00000KT 6SM BR CLR 14/13 A3001 220 93 200 000/00 RMK AO2 T01440133
53988KBKB BKB20191029064010610/29/19 06:40:31  5-MIN KBKB 291240Z AUTO 00000KT 7SM CLR 14/13 A3001 220 93 200 000/00 RMK AO2 T01440133
53988KBKB BKB20191029064510610/29/19 06:45:31  5-MIN KBKB 291245Z AUTO 00000KT 7SM CLR 14/13 A3001 220 93 200 000/00 RMK AO2 T01440133
53988KBKB BKB20191029065011310/29/19 06:50:31  5-MIN KBKB 291250Z AUTO 00000KT 7SM CLR 14/13 A3001 210 93 200 000/00 RMK AO2 SLP191 T01440133
53988KBKB BKB20191029065510610/29/19 06:55:31  5-MIN KBKB 291255Z AUTO 00000KT 7SM CLR 14/13 A3002 210 93 200 000/00 RMK AO2 T01440133
53988KBKB BKB20191029070010610/29/19 07:00:31  5-MIN KBKB 291300Z AUTO 00000KT 8SM CLR 14/13 A3002 200 93 200 000/00 RMK AO2 T01440133
53988KBKB BKB20191029070510610/29/19 07:05:31  5-MIN KBKB 291305Z AUTO 00000KT 8SM CLR 14/13 A3002 200 93 200 000/00 RMK AO2 T01440133
53988KBKB BKB20191029071010610/29/19 07:10:31  5-MIN KBKB 291310Z AUTO 00000KT 8SM CLR 15/14 A3002 200 93 300 000/00 RMK AO2 T01500139
53988KBKB BKB20191029071510910/29/19 07:15:31  5-MIN KBKB 291315Z AUTO VRB03KT 8SM FEW065 15/14 A3002 210 93 300 VRB/03 RMK AO2 T01500139
53988KBKB BKB20191029072010910/29/19 07:20:31  5-MIN KBKB 291320Z AUTO VRB03KT 8SM FEW065 16/14 A3001 210 90 400 VRB/03 RMK AO2 T01560139
53988KBKB BKB20191029072510610/29/19 07:25:31  5-MIN KBKB 291325Z AUTO 00000KT 8SM CLR 16/14 A3001 210 90 400 000/00 RMK AO2 T01560139
53988KBKB BKB20191029073010610/29/19 07:30:31  5-MIN KBKB 291330Z AUTO VRB03KT 9SM CLR 16/14 A3001 210 86 400 VRB/03 RMK AO2 T01610139
53988KBKB BKB20191029073510710/29/19 07:35:31  5-MIN KBKB 291335Z AUTO 00000KT 10SM CLR 17/14 A3001 220 83 500 000/00 RMK AO2 T01670139
53988KBKB BKB20191029074010710/29/19 07:40:31  5-MIN KBKB 291340Z AUTO 00000KT 10SM CLR 17/14 A3001 210 83 600 000/00 RMK AO2 T01720144
53988KBKB BKB20191029074510710/29/19 07:45:31  5-MIN KBKB 291345Z AUTO 00000KT 10SM CLR 17/14 A3001 210 83 600 000/00 RMK AO2 T01720144
53988KBKB BKB20191029075011410/29/19 07:50:31  5-MIN KBKB 291350Z AUTO VRB03KT 10SM CLR 18/14 A3001 210 81 600 VRB/03 RMK AO2 SLP190 T01780144
53988KBKB BKB20191029075510710/29/19 07:55:31  5-MIN KBKB 291355Z AUTO VRB03KT 10SM CLR 18/15 A3001 220 83 600 VRB/03 RMK AO2 T01780150
53988KBKB BKB20191029080010710/29/19 08:00:31  5-MIN KBKB 291400Z AUTO VRB03KT 10SM CLR 18/15 A3001 220 81 700 VRB/03 RMK AO2 T01830150
53988KBKB BKB20191029080510710/29/19 08:05:31  5-MIN KBKB 291405Z AUTO 00000KT 10SM CLR 19/15 A3001 210 78 800 000/00 RMK AO2 T01890150
53988KBKB BKB20191029081010710/29/19 08:10:31  5-MIN KBKB 291410Z AUTO 00000KT 10SM CLR 19/16 A3001 210 78 800 000/00 RMK AO2 T01940156
53988KBKB BKB20191029081510710/29/19 08:15:31  5-MIN KBKB 291415Z AUTO 11003KT 10SM CLR 19/16 A3001 210 78 800 110/03 RMK AO2 T01940156
53988KBKB BKB20191029082010710/29/19 08:20:31  5-MIN KBKB 291420Z AUTO 00000KT 10SM CLR 19/16 A3001 210 78 800 000/00 RMK AO2 T01940156
53988KBKB BKB20191029082510710/29/19 08:25:31  5-MIN KBKB 291425Z AUTO VRB04KT 10SM CLR 19/16 A3001 210 78 800 VRB/04 RMK AO2 T01940156
53988KBKB BKB20191029083010810/29/19 08:30:31  5-MIN KBKB 291430Z AUTO VRB03KT 10SM CLR 21/16 A3001 210 73 1000 VRB/03 RMK AO2 T02060156
53988KBKB BKB20191029083510710/29/19 08:35:31  5-MIN KBKB 291435Z AUTO 00000KT 10SM CLR 21/16 A3002 210 73 900 000/00 RMK AO2 T02060156
53988KBKB BKB20191029084010710/29/19 08:40:31  5-MIN KBKB 291440Z AUTO VRB03KT 10SM CLR 21/16 A3002 210 75 900 VRB/03 RMK AO2 T02060161
53988KBKB BKB20191029084510610/29/19 08:45:31  5-MIN KBKB 291445Z AUTO VRB03KT 9SM CLR 21/16 A3002 210 75 900 VRB/03 RMK AO2 T02060161
53988KBKB BKB20191029085012010/29/19 08:50:31  5-MIN KBKB 291450Z AUTO VRB03KT 7SM CLR 21/16 A3002 210 73 1000 VRB/03 RMK AO2 SLP192 T02110161 56008
53988KBKB BKB20191029085510710/29/19 08:55:31  5-MIN KBKB 291455Z AUTO VRB04KT 7SM CLR 21/16 A3002 210 73 1000 VRB/04 RMK AO2 T02110161
53988KBKB BKB20191029090010710/29/19 09:00:31  5-MIN KBKB 291500Z AUTO VRB03KT 7SM CLR 21/16 A3002 210 73 1000 VRB/03 RMK AO2 T02110161
53988KBKB BKB20191029090510710/29/19 09:05:31  5-MIN KBKB 291505Z AUTO VRB06KT 7SM CLR 21/16 A3002 210 73 1000 VRB/06 RMK AO2 T02110161
53988KBKB BKB20191029091010710/29/19 09:10:31  5-MIN KBKB 291510Z AUTO VRB06KT 8SM CLR 22/16 A3001 210 70 1100 VRB/06 RMK AO2 T02170161
53988KBKB BKB20191029091510810/29/19 09:15:31  5-MIN KBKB 291515Z AUTO VRB05KT 10SM CLR 22/16 A3001 210 70 1100 VRB/05 RMK AO2 T02170161
53988KBKB BKB20191029092010810/29/19 09:20:31  5-MIN KBKB 291520Z AUTO VRB04KT 10SM CLR 22/16 A3001 210 70 1100 VRB/04 RMK AO2 T02170161
53988KBKB BKB20191029092510810/29/19 09:25:31  5-MIN KBKB 291525Z AUTO VRB04KT 10SM CLR 22/16 A3002 210 70 1100 VRB/04 RMK AO2 T02170161
53988KBKB BKB20191029093010810/29/19 09:30:31  5-MIN KBKB 291530Z AUTO VRB04KT 10SM CLR 22/17 A3002 210 70 1100 VRB/04 RMK AO2 T02220167
53988KBKB BKB20191029093510810/29/19 09:35:31  5-MIN KBKB 291535Z AUTO VRB03KT 10SM CLR 23/17 A3002 200 68 1200 VRB/03 RMK AO2 T02280167
53988KBKB BKB20191029094010810/29/19 09:40:31  5-MIN KBKB 291540Z AUTO VRB03KT 10SM CLR 23/17 A3002 200 66 1300 VRB/03 RMK AO2 T02330167
53988KBKB BKB20191029094510810/29/19 09:45:31  5-MIN KBKB 291545Z AUTO VRB05KT 10SM CLR 23/17 A3002 210 66 1300 VRB/05 RMK AO2 T02330167
53988KBKB BKB20191029095011510/29/19 09:50:31  5-MIN KBKB 291550Z AUTO VRB04KT 10SM CLR 23/17 A3002 210 68 1200 VRB/04 RMK AO2 SLP192 T02280167
53988KBKB BKB20191029095510810/29/19 09:55:31  5-MIN KBKB 291555Z AUTO VRB04KT 10SM CLR 23/17 A3001 210 66 1300 VRB/04 RMK AO2 T02330167
53988KBKB BKB20191029100010810/29/19 10:00:31  5-MIN KBKB 291600Z AUTO VRB03KT 10SM CLR 23/17 A3001 220 66 1300 VRB/03 RMK AO2 T02330167
53988KBKB BKB20191029100510810/29/19 10:05:31  5-MIN KBKB 291605Z AUTO VRB04KT 10SM CLR 24/17 A3001 220 66 1300 VRB/04 RMK AO2 T02390172
53988KBKB BKB20191029101009910/29/19 10:10:31  5-MIN KBKB 291610Z AUTO VRB05KT 10SM CLR 00 230 61 1500 VRB/05 RMK AO2 T02500172
53988KBKB BKB20191029110010810/29/19 11:00:31  5-MIN KBKB 291700Z AUTO VRB06KT 10SM CLR 26/17 A3000 230 59 1500 VRB/06 RMK AO2 T02560172
53988KBKB BKB20191029110510810/29/19 11:05:31  5-MIN KBKB 291705Z AUTO VRB05KT 10SM CLR 25/17 A2999 230 61 1500 VRB/05 RMK AO2 T02500172
53988KBKB BKB20191029111010810/29/19 11:10:31  5-MIN KBKB 291710Z AUTO VRB06KT 10SM CLR 24/17 A2999 230 63 1400 VRB/06 RMK AO2 T02440172
53988KBKB BKB20191029111510810/29/19 11:15:31  5-MIN KBKB 291715Z AUTO VRB04KT 10SM CLR 25/17 A2999 240 61 1500 VRB/04 RMK AO2 T02500172
53988KBKB BKB20191029111517010/29/19 11:15:31  5-MIN KBKB 291715Z AUTO VRB04KT 10SM CLR 25/17 A2999 240 61 1500 VRB/04 RMK AO2 T02TO VRB05KT 10SM CLR 25/17 A3000 230 61 1500 VRB/05 RMK AO2 T02500172
53988KBKB BKB20191029112010810/29/19 11:20:31  5-MIN KBKB 291720Z AUTO VRB05KT 10SM CLR 26/17 A2999 240 59 1600 VRB/05 RMK AO2 T02560172
53988KBKB BKB20191029112512410/29/19 11:25:31  5-MIN KBKB 291725Z AUTO 09007KT 040V130 10SM CLR 25/17 A2998 240 59 1500 080/07 040V130 RMK AO2 T02500167
53988KBKB BKB20191029112517010/29/19 11:25:31  5-MIN KBKB 291725Z AUTO 09007KT 040V130 10SM CLR 25/17 A2998 240 59 1500 080/07 040V130 RMK AO20SM CLR 25/17 A2999 230 61 1500 VRB/05 RMK AO2 T02500172
53988KBKB BKB20191029113010810/29/19 11:30:31  5-MIN KBKB 291730Z AUTO VRB05KT 10SM CLR 25/17 A2998 240 59 1500 VRB/05 RMK AO2 T02500167
53988KBKB BKB20191029113510810/29/19 11:35:31  5-MIN KBKB 291735Z AUTO VRB05KT 10SM CLR 25/17 A2998 240 59 1500 VRB/05 RMK AO2 T02500167
53988KBKB BKB20191029114010810/29/19 11:40:31  5-MIN KBKB 291740Z AUTO VRB05KT 10SM CLR 25/17 A2998 250 59 1500 VRB/05 RMK AO2 T02500167
53988KBKB BKB20191029114510810/29/19 11:45:31  5-MIN KBKB 291745Z AUTO VRB05KT 10SM CLR 25/17 A2998 240 59 1500 VRB/05 RMK AO2 T02500167
53988KBKB BKB20191029115013310/29/19 11:50:31  5-MIN KBKB 291750Z AUTO VRB05KT 10SM CLR 25/17 A2998 250 59 1500 VRB/05 RMK AO2 SLP178 T02500167 10256 20139 51004
53988KBKB BKB20191029115510810/29/19 11:55:31  5-MIN KBKB 291755Z AUTO VRB04KT 10SM CLR 26/17 A2998 250 59 1600 VRB/04 RMK AO2 T02560172
53988KBKB BKB20191029120010810/29/19 12:00:31  5-MIN KBKB 291800Z AUTO VRB06KT 10SM CLR 26/17 A2997 250 57 1600 VRB/06 RMK AO2 T02560167
53988KBKB BKB20191029120510810/29/19 12:05:31  5-MIN KBKB 291805Z AUTO VRB04KT 10SM CLR 26/17 A2997 250 57 1600 VRB/04 RMK AO2 T02610172
53988KBKB BKB20191029121010810/29/19 12:10:31  5-MIN KBKB 291810Z AUTO VRB03KT 10SM CLR 26/17 A2997 250 57 1600 VRB/03 RMK AO2 T02610172
53988KBKB BKB20191029121510810/29/19 12:15:31  5-MIN KBKB 291815Z AUTO VRB04KT 10SM CLR 25/17 A2996 260 61 1500 VRB/04 RMK AO2 T02500172
53988KBKB BKB20191029122010810/29/19 12:20:31  5-MIN KBKB 291820Z AUTO VRB06KT 10SM CLR 26/17 A2996 260 59 1600 VRB/06 RMK AO2 T02560172
53988KBKB BKB20191029122510810/29/19 12:25:31  5-MIN KBKB 291825Z AUTO VRB04KT 10SM CLR 26/17 A2995 270 57 1600 VRB/04 RMK AO2 T02560167
53988KBKB BKB20191029123010810/29/19 12:30:31  5-MIN KBKB 291830Z AUTO VRB04KT 10SM CLR 27/17 A2995 270 55 1700 VRB/04 RMK AO2 T02670172
53988KBKB BKB20191029123510810/29/19 12:35:31  5-MIN KBKB 291835Z AUTO VRB03KT 10SM CLR 27/17 A2995 270 55 1700 VRB/03 RMK AO2 T02670172
53988KBKB BKB20191029124010810/29/19 12:40:31  5-MIN KBKB 291840Z AUTO 04004KT 10SM CLR 26/17 A2994 280 59 1600 040/04 RMK AO2 T02560172
53988KBKB BKB20191029124510810/29/19 12:45:31  5-MIN KBKB 291845Z AUTO VRB06KT 10SM CLR 25/17 A2994 280 61 1500 VRB/06 RMK AO2 T02500172
53988KBKB BKB20191029125011510/29/19 12:50:31  5-MIN KBKB 291850Z AUTO VRB04KT 10SM CLR 25/17 A2994 280 61 1500 VRB/04 RMK AO2 SLP165 T02500172
53988KBKB BKB20191029125510810/29/19 12:55:31  5-MIN KBKB 291855Z AUTO VRB04KT 10SM CLR 26/17 A2993 290 59 1600 VRB/04 RMK AO2 T02560172
53988KBKB BKB20191029130010810/29/19 13:00:31  5-MIN KBKB 291900Z AUTO VRB04KT 10SM CLR 27/18 A2993 290 56 1800 VRB/04 RMK AO2 T02720178
53988KBKB BKB20191029130514110/29/19 13:05:31  5-MIN KBKB 292030Z AUTO VRB04KT 10SM -RA FEW036 FEW070 SCT110 23/18 A2993 290 70 1400 VRB/04 RMK AO2 RAB13 P0000 T02330178
53988KBKB BKB20191029134011110/29/19 13:40:31  5-MIN KBKB 291940Z AUTO VRB03KT 10SM FEW090 24/17 A2993 290 63 1500 VRB/03 RMK AO2 T02440172
53988KBKB BKB20191029134511110/29/19 13:45:31  5-MIN KBKB 291945Z AUTO VRB04KT 10SM FEW090 24/17 A2993 290 61 1500 VRB/04 RMK AO2 T02440167
53988KBKB BKB20191029135011510/29/19 13:50:31  5-MIN KBKB 291950Z AUTO 00000KT 10SM CLR 24/17 A2994 280 61 1500 000/00 RMK AO2 SLP165 T02440167
53988KBKB BKB20191029135509810/29/19 13:55:31  5-MIN KBKB 291955Z AUTO 10SM CLR 24/17 A2994 280 63 1400 M /M RMK AO2 T02390167
53988KBKB BKB20191029140010810/29/19 14:00:31  5-MIN KBKB 292000Z AUTO VRB05KT 10SM CLR 24/17 A2994 280 66 1400 VRB/05 RMK AO2 T02390172
53988KBKB BKB20191029140511810/29/19 14:05:31  5-MIN KBKB 292005Z AUTO VRB03KT 10SM FEW070 FEW095 24/17 A2994 280 63 1400 VRB/03 RMK AO2 T02390167
53988KBKB BKB20191029141012510/29/19 14:10:31  5-MIN KBKB 292010Z AUTO VRB03KT 10SM FEW050 SCT070 SCT090 24/17 A2993 290 66 1400 VRB/03 RMK AO2 T02390172
53988KBKB BKB20191029141514110/29/19 14:15:31  5-MIN KBKB 292015Z AUTO VRB03KT 10SM -RA FEW037 SCT070 SCT100 24/17 A2993 290 66 1400 VRB/03 RMK AO2 RAB13 P0000 T02390172
53988KBKB BKB20191029142014110/29/19 14:20:31  5-MIN KBKB 292020Z AUTO VRB03KT 10SM -RA FEW032 SCT090 BKN110 24/17 A2993 290 66 1400 VRB/03 RMK AO2 RAB13 P0000 T02390172
53988KBKB BKB20191029142514110/29/19 14:25:31  5-MIN KBKB 292025Z AUTO VRB03KT 10SM -RA FEW036 SCT090 SCT110 23/17 A2993 290 68 1400 VRB/03 RMK AO2 RAB13 P0000 T02330172
53988KBKB BKB20191029143014110/29/19 14:30:31  5-MIN KBKB 292030Z AUTO VRB04KT 10SM -RA FEW036 FEW070 SCT110 23/18 A2993 290 70 1400 VRB/04 RMK AO2 RAB13 P0000 T02330178
53988KBKB BKB20191029143513310/29/19 14:35:31  5-MIN KBKB 292035Z AUTO VRB03KT 10SM FEW036 FEW110 23/17 A2993 290 68 1400 VRB/03 RMK AO2 RAB13E35 P0000 T02330172
53988KBKB BKB20191029144012610/29/19 14:40:31  5-MIN KBKB 292040Z AUTO 00000KT 10SM FEW110 23/17 A2994 280 68 1400 000/00 RMK AO2 RAB13E35 P0000 T02330172
53988KBKB BKB20191029144512610/29/19 14:45:31  5-MIN KBKB 292045Z AUTO VRB04KT 10SM FEW110 23/17 A2993 290 68 1400 VRB/04 RMK AO2 RAB13E35 P0000 T02330172
53988KBKB BKB20191029145014210/29/19 14:50:31  5-MIN KBKB 292050Z AUTO VRB04KT 10SM CLR 23/17 A2993 290 68 1400 VRB/04 RMK AO2 RAB13E35 SLP163 P0000 60000 T02330172 58014
53988KBKB BKB20191029145510810/29/19 14:55:31  5-MIN KBKB 292055Z AUTO VRB04KT 10SM CLR 23/17 A2993 290 68 1400 VRB/04 RMK AO2 T02330172
53988KBKB BKB20191029150010810/29/19 15:00:31  5-MIN KBKB 292100Z AUTO 00000KT 10SM CLR 23/17 A2993 280 68 1400 000/00 RMK AO2 T02330172
53988KBKB BKB20191029150510810/29/19 15:05:31  5-MIN KBKB 292105Z AUTO VRB04KT 10SM CLR 24/17 A2993 290 66 1400 VRB/04 RMK AO2 T02390172
53988KBKB BKB20191029151010810/29/19 15:10:31  5-MIN KBKB 292110Z AUTO VRB05KT 10SM CLR 24/17 A2993 290 66 1400 VRB/05 RMK AO2 T02390172
53988KBKB BKB20191029151510810/29/19 15:15:31  5-MIN KBKB 292115Z AUTO VRB03KT 10SM CLR 23/17 A2994 280 68 1400 VRB/03 RMK AO2 T02330172
53988KBKB BKB20191029152011110/29/19 15:20:31  5-MIN KBKB 292120Z AUTO VRB04KT 10SM FEW095 23/17 A2994 280 68 1400 VRB/04 RMK AO2 T02330172
53988KBKB BKB20191029152511110/29/19 15:25:31  5-MIN KBKB 292125Z AUTO VRB03KT 10SM FEW095 23/17 A2994 280 68 1400 VRB/03 RMK AO2 T02330172
53988KBKB BKB20191029153011110/29/19 15:30:31  5-MIN KBKB 292130Z AUTO VRB06KT 10SM FEW095 24/17 A2993 290 66 1400 VRB/06 RMK AO2 T02390172
53988KBKB BKB20191029153511110/29/19 15:35:31  5-MIN KBKB 292135Z AUTO VRB05KT 10SM FEW095 23/17 A2993 290 68 1400 VRB/05 RMK AO2 T02330172
53988KBKB BKB20191029154011110/29/19 15:40:31  5-MIN KBKB 292140Z AUTO 00000KT 10SM FEW095 23/17 A2993 290 68 1400 000/00 RMK AO2 T02330172
53988KBKB BKB20191029154511110/29/19 15:45:31  5-MIN KBKB 292145Z AUTO 06003KT 10SM FEW095 23/17 A2993 290 68 1400 060/03 RMK AO2 T02330172
53988KBKB BKB20191029155011510/29/19 15:50:31  5-MIN KBKB 292150Z AUTO VRB03KT 10SM CLR 23/17 A2992 290 68 1400 VRB/03 RMK AO2 SLP160 T02330172
53988KBKB BKB20191029155510810/29/19 15:55:31  5-MIN KBKB 292155Z AUTO VRB03KT 10SM CLR 23/17 A2992 300 70 1300 VRB/03 RMK AO2 T02280172
53988KBKB BKB20191029160010810/29/19 16:00:31  5-MIN KBKB 292200Z AUTO 07005KT 10SM CLR 23/17 A2992 300 70 1300 070/05 RMK AO2 T02280172
53988KBKB BKB20191029160511110/29/19 16:05:31  5-MIN KBKB 292205Z AUTO 00000KT 10SM FEW120 23/17 A2992 300 70 1300 000/00 RMK AO2 T02280172
53988KBKB BKB20191029161011110/29/19 16:10:31  5-MIN KBKB 292210Z AUTO VRB03KT 10SM FEW026 23/17 A2993 290 70 1300 VRB/03 RMK AO2 T02280172
53988KBKB BKB20191029161511110/29/19 16:15:31  5-MIN KBKB 292215Z AUTO VRB04KT 10SM FEW026 23/17 A2992 300 70 1300 VRB/04 RMK AO2 T02280172
53988KBKB BKB20191029162011110/29/19 16:20:31  5-MIN KBKB 292220Z AUTO VRB03KT 10SM FEW026 23/17 A2992 300 70 1300 VRB/03 RMK AO2 T02280172
53988KBKB BKB20191029162511810/29/19 16:25:31  5-MIN KBKB 292225Z AUTO 00000KT 10SM FEW026 FEW095 22/17 A2991 300 73 1300 000/00 RMK AO2 T02220172
53988KBKB BKB20191029163012510/29/19 16:30:31  5-MIN KBKB 292230Z AUTO 00000KT 10SM FEW026 SCT060 SCT090 22/17 A2992 300 73 1300 000/00 RMK AO2 T02220172
53988KBKB BKB20191029163512510/29/19 16:35:31  5-MIN KBKB 292235Z AUTO VRB03KT 10SM FEW026 BKN060 BKN090 22/17 A2992 300 73 1300 VRB/03 RMK AO2 T02220172
53988KBKB BKB20191029164013410/29/19 16:40:31  5-MIN KBKB 292240Z AUTO 00000KT 10SM -RA SCT060 BKN090 22/17 A2992 300 73 1200 000/00 RMK AO2 RAB40 P0000 T02220172
53988KBKB BKB20191029164513310/29/19 16:45:31  5-MIN KBKB 292245Z AUTO 00000KT 6SM -RA SCT060 BKN090 22/18 A2992 300 78 1200 000/00 RMK AO2 RAB40 P0000 T02170178
53988KBKB BKB20191029165014310/29/19 16:50:31  5-MIN KBKB 292250Z AUTO 00000KT 5SM -RA BR SCT065 OVC090 21/18 A2993 290 87 1000 000/00 RMK AO2 RAB40 SLP162 P0001 T02060183
53988KBKB BKB20191029165514410/29/19 16:55:31  5-MIN KBKB 292255Z AUTO 00000KT 5SM -RA BR FEW027 BKN065 OVC090 20/18 A2994 280 90 1000 000/00 RMK AO2 PRESRR P0000 T02000183
53988KBKB BKB20191029170013710/29/19 17:00:31  5-MIN KBKB 292300Z AUTO 00000KT 6SM -RA BR SCT025 BKN060 OVC090 20/19 A2994 280 93 1000 000/00 RMK AO2 P0000 T02000189
53988KBKB BKB20191029170513610/29/19 17:05:31  5-MIN KBKB 292305Z AUTO 00000KT 5SM RA BR BKN025 BKN065 OVC090 20/19 A2994 280 93 1000 000/00 RMK AO2 P0001 T02000189
53988KBKB BKB20191029171013710/29/19 17:10:31  5-MIN KBKB 292310Z AUTO 00000KT 5SM -RA BR BKN024 BKN065 OVC085 20/18 A2994 280 90 1000 000/00 RMK AO2 P0001 T02000183
53988KBKB BKB20191029171512910/29/19 17:15:31  5-MIN KBKB 292315Z AUTO 00000KT 8SM BKN024 OVC090 20/18 A2994 280 90 1000 000/00 RMK AO2 RAE15 P0002 T02000183
53988KBKB BKB20191029172012010/29/19 17:20:31  5-MIN KBKB 292320Z AUTO VRB03KT 7SM -RA OVC024 20/19 A2994 280 93 1000 VRB/03 RMK AO2 P0002 T02000189
53988KBKB BKB20191029172512010/29/19 17:25:31  5-MIN KBKB 292325Z AUTO 00000KT 7SM -RA OVC024 20/19 A2993 290 93 1000 000/00 RMK AO2 P0002 T02000189
53988KBKB BKB20191029173012110/29/19 17:30:31  5-MIN KBKB 292330Z AUTO VRB03KT 9SM OVC022 19/19 A2992 290 97 900 VRB/03 RMK AO2 RAE26 P0002 T01940189
53988KBKB BKB20191029173512210/29/19 17:35:31  5-MIN KBKB 292335Z AUTO 06003KT 10SM OVC022 19/18 A2992 300 93 900 060/03 RMK AO2 RAE26 P0002 T01940183
53988KBKB BKB20191029174012910/29/19 17:40:31  5-MIN KBKB 292340Z AUTO 00000KT 10SM BKN022 OVC060 19/18 A2992 300 93 900 000/00 RMK AO2 RAE26 P0002 T01940183
53988KBKB BKB20191029174512110/29/19 17:45:31  5-MIN KBKB 292345Z AUTO 00000KT 9SM OVC023 19/18 A2992 300 93 900 000/00 RMK AO2 RAE26 P0002 T01940183
53988KBKB BKB20191029175015910/29/19 17:50:31  5-MIN KBKB 292350Z AUTO 00000KT 9SM -RA OVC023 19/18 A2992 300 93 900 000/00 RMK AO2 RAE26B47 SLP159 P0002 60003 T01940183 10272 20194 56014
53988KBKB BKB20191029175512010/29/19 17:55:31  5-MIN KBKB 292355Z AUTO VRB03KT 10SM -RA OVC022 19/18 A2992 300 93 900 VRB/03 RMK AO2 P0000 T01940183
53988KBKB BKB20191029180012710/29/19 18:00:31  5-MIN KBKB 300000Z AUTO VRB04KT 10SM -RA FEW014 OVC022 19/18 A2992 300 93 900 VRB/04 RMK AO2 P0000 T01940183
53988KBKB BKB20191029180513510/29/19 18:05:31  5-MIN KBKB 300005Z AUTO 09003KT 10SM -TSRA SCT012 OVC021 19/18 A2992 290 93 900 090/03 RMK AO2 TSB01 P0000 T01940183
53988KBKB BKB20191029181013510/29/19 18:10:31  5-MIN KBKB 300010Z AUTO VRB03KT 7SM -TSRA SCT012 OVC021 20/18 A2994 280 90 1000 VRB/03 RMK AO2 TSB01 P0001 T02000183
53988KBKB BKB20191029181514410/29/19 18:15:31  5-MIN KBKB 300015Z AUTO 00000KT 4SM TSRA BR BKN012 OVC021 20/18 A2995 270 90 1000 000/00 RMK AO2 TSB01 PRESRR P0003 T02000183
53988KBKB BKB20191029182015910/29/19 18:20:31  5-MIN KBKB 300020Z AUTO 24003KT 2 1/2SM TSRA BR BKN010 OVC021 19/18 A2996 260 93 900 240/03 RMK AO2 TSB01 CIG 008V015 PRESRR P0005 T01940183
53988KBKB BKB20191029182515510/29/19 18:25:31  5-MIN KBKB 300025Z AUTO VRB03KT 1 1/2SM TSRA BR OVC010 19/19 A2997 250 97 900 VRB/03 RMK AO2 TSB01B22 CIG 007V015 PRESRR P0009 T01940189
53988KBKB BKB20191029183015210/29/19 18:30:31  5-MIN KBKB 300030Z AUTO 00000KT 1SM +TSRA BR BKN008 OVC012 19/19 A2997 260 97 900 000/00 RMK AO2 TSB01B22 CIG 004V011 P0017 T01940189
53988KBKB BKB20191029183514510/29/19 18:35:31  5-MIN KBKB 300035Z AUTO 00000KT 1SM +TSRA BR OVC008 19/18 A2997 250 93 900 000/00 RMK AO2 TSB01B22 CIG 004V012 P0022 T01940183
53988KBKB BKB20191029184015210/29/19 18:40:31  5-MIN KBKB 300040Z AUTO 00000KT 1SM +TSRA BR BKN008 OVC014 19/19 A2997 250 97 900 000/00 RMK AO2 TSB01B22 CIG 007V011 P0027 T01940189
53988KBKB BKB20191029184515010/29/19 18:45:31  5-MIN KBKB 300045Z AUTO 00000KT 1 1/4SM VCTS +RA BR BKN009 OVC014 19/19 A2997 250 97 900 000/00 RMK AO2 TSB01B22E43 P0034 T01940189
53988KBKB BKB20191029185013510/29/19 18:50:31  5-MIN KBKB 300050Z AUTO 00000KT 1 1/2SM +RA BR SCT007 OVC014 19/19 A2997 250 97 900 000/00 RMK AO2 TSB01B22E43 P0039
53988KBKB BKB20191029185513910/29/19 18:55:31  5-MIN KBKB 300055Z AUTO 05003KT 1 3/4SM RA BR FEW007 BKN014 OVC019 19/18 A2996 260 93 900 050/03 RMK AO2 P0000 T01940183
53988KBKB BKB20191029190013510/29/19 19:00:31  5-MIN KBKB 300100Z AUTO VRB03KT 2SM RA BR BKN014 BKN019 OVC024 19/18 A2996 270 97 800 VRB/03 RMK AO2 P0002 T01890183
53988KBKB BKB20191029190513210/29/19 19:05:31  5-MIN KBKB 300105Z AUTO 00000KT 2 1/2SM RA BR BKN014 OVC021 19/18 A2996 260 97 800 000/00 RMK AO2 P0003 T01890183
53988KBKB BKB20191029191012910/29/19 19:10:31  5-MIN KBKB 300110Z AUTO VRB03KT 3SM -RA BR BKN014 OVC021 19/18 A2996 260 93 900 VRB/03 RMK AO2 P0004 T01940183
53988KBKB BKB20191029191512910/29/19 19:15:31  5-MIN KBKB 300115Z AUTO VRB03KT 4SM -RA BR SCT014 OVC021 19/18 A2995 270 93 900 VRB/03 RMK AO2 P0005 T01940183
53988KBKB BKB20191029192012910/29/19 19:20:31  5-MIN KBKB 300120Z AUTO VRB03KT 4SM -RA BR SCT016 OVC021 19/18 A2995 270 93 900 VRB/03 RMK AO2 P0005 T01940183
53988KBKB BKB20191029192513610/29/19 19:25:31  5-MIN KBKB 300125Z AUTO VRB03KT 4SM -RA BR FEW009 BKN016 OVC021 19/18 A2995 270 97 800 VRB/03 RMK AO2 P0005 T01890183
53988KBKB BKB20191029193012610/29/19 19:30:31  5-MIN KBKB 300130Z AUTO 00000KT 3SM -RA BR FEW009 BKN014 OVC021 19/18 A2995 270 9 19/18 A2994 280 971940183
53988KBKB BKB20191029203013510/29/19 20:30:31  5-MIN KBKB 300230Z AUTO 00000KT 3SM RA BR FEW005 SCT010 OVC015 19/18 A2995 270 93 900 000/00 RMK AO2 P0002 T01940183
53988KBKB BKB20191029203512810/29/19 20:35:31  5-MIN KBKB 300235Z AUTO 04003KT 2SM RA BR SCT010 OVC015 19/18 A2995 270 97 800 040/03 RMK AO2 P0005 T01890183
53988KBKB BKB20191029204013210/29/19 20:40:31  5-MIN KBKB 300240Z AUTO 00000KT 1 3/4SM RA BR FEW008 OVC015 19/18 A2994 280 97 800 000/00 RMK AO2 P0007 T01890183
53988KBKB BKB20191029204512910/29/19 20:45:31  5-MIN KBKB 300245Z AUTO 00000KT 2SM -RA BR SCT006 OVC015 19/18 A2994 280 97 800 000/00 RMK AO2 P0007 T01890183
53988KBKB BKB20191029205016710/29/19 20:50:31  5-MIN KBKB 300250Z AUTO 10004KT 3SM -RA BR SCT006 BKN009 OVC013 19/18 A2994 280 97 800 100/04 RMK AO2 CIG 008V011 SLP164 P0007 60055 T01890183 58005
53988KBKB BKB20191029205023310/29/19 20:50:31  5-MIN KBKB 300250Z AUTO 10004KT 3SM -RA BR SCT006 BKN009 OVC013 19/18 A2994 280 97 800 100/04 RMK AO2 CIG 008V011 SLP164 P0007 60055 T01890183 5800510/29/19 20: 19/18 A2995 270 97 800 040/03 RMK AO2 P0005 T01890183
53988KBKB BKB20191029205512910/29/19 20:55:31  5-MIN KBKB 300255Z AUTO VRB03KT 4SM -RA BR FEW006 OVC013 19/18 A2994 280 97 800 VRB/03 RMK AO2 P0000 T01890183
53988KBKB BKB20191029210013110/29/19 21:00:31  5-MIN KBKB 300300Z AUTO VRB03KT 5SM BR FEW006 OVC013 19/18 A2994 280 97 800 VRB/03 RMK AO2 RAE00 P0000 T01890183
53988KBKB BKB20191029210020010/29/19 21:00:31  5-MIN KBKB 300300Z AUTO VRB03KT 5SM BR FEW006 OVC013 19/18 A2994 280 97 800 VRB/03 RMK AO2 UTO 00000KT 2SM -RA BR SCT006 OVC015 19/18 A2994 280 97 800 000/00 RMK AO2 P0007 T01890183
53988KBKB BKB20191029210512910/29/19 21:05:31  5-MIN KBKB 300305Z AUTO VRB03KT 3SM -RA BR FEW006 OVC011 19/18 A2994 280 97 800 VRB/03 RMK AO2 P0000 T01890183
53988KBKB BKB20191029211010710/29/19 21:10:31  5-MIN KBKB 300310Z AUTO 00000KT 2SM -RA BR FEW008V011 SLP164 P0007 60055 T01890183 58005
53988KBKB BKB20191029211012910/29/19 21:10:31  5-MIN KBKB 300310Z AUTO 00000KT 2SM -RA BR FEW006 OVC011 19/18 A2994 280 97 800 000/00 RMK AO2 P0001 T01890183
53988KBKB BKB20191029211513310/29/19 21:15:31  5-MIN KBKB 300315Z AUTO 00000KT 2 1/2SM -RA BR SCT006 OVC011 19/18 A2994 280 97 800 000/00 RMK AO2 P0001 T01890183
53988KBKB BKB20191029212013410/29/19 21:20:31  5-MIN KBKB 300320Z AUTO 00000KT 3SM -RA BR OVC009 19/18 A2994 280 97 800 000/00 RMK AO2 CIG 005V013 P0001 T01890183
53988KBKB BKB20191029212513610/29/19 21:25:31  5-MIN KBKB 300325Z AUTO 00000KT 4SM BR OVC009 19/18 A2994 280 97 800 000/00 RMK AO2 RAE22 CIG 004V013 P0001 T01890183
53988KBKB BKB20191029213015210/29/19 21:30:31  5-MIN KBKB 300330Z AUTO 00000KT 2 1/2SM BR OVC009 19/18 A2994 280 97 800 000/00 RMK AO2 VIS 1 3/4V4 RAE22 CIG 004V013 P0001 T01890183
53988KBKB BKB20191029213515910/29/19 21:35:31  5-MIN KBKB 300335Z AUTO 02003KT 2 1/2SM -RA BR OVC006 19/18 A2994 280 97 800 020/03 RMK AO2 VIS 1 3/4V3 RAE22B34 CIG 004V012 P0001 T01890183
53988KBKB BKB20191029214014710/29/19 21:40:31  5-MIN KBKB 300340Z AUTO VRB03KT 2 1/2SM -RA BR OVC006 19/18 A2994 280 97 800 VRB/03 RMK AO2 RAE22B34 CIG 004V011 P0001 T01890183
53988KBKB BKB20191029214514910/29/19 21:45:31  5-MIN KBKB 300345Z AUTO VRB03KT 3SM BR BKN006 OVC010 19/18 A2993 290 97 800 VRB/03 RMK AO2 RAE22B34E44 CIG 003V008 P0001 T01890183
53988KBKB BKB20191029215014910/29/19 21:50:31  5-MIN KBKB 300350Z AUTO VRB03KT 3SM BR OVC006 19/18 A2993 290 97 900 VRB/03 RMK AO2 RAE22B34E44 CIG 003V010 SLP160 P0001 T01890183
53988KBKB BKB20191029215512410/29/19 21:55:31  5-MIN KBKB 300355Z AUTO 00000KT 4SM BR OVC006 19/18 A2992 300 97 900 000/00 RMK AO2 CIG 003V010 T01890183
53988KBKB BKB20191029220012410/29/19 22:00:31  5-MIN KBKB 300400Z AUTO VRB04KT 4SM BR OVC007 19/18 A2992 300 97 900 VRB/04 RMK AO2 CIG 003V011 T01890183
53988KBKB BKB20191029220512410/29/19 22:05:31  5-MIN KBKB 300405Z AUTO VRB03KT 5SM BR OVC007 19/18 A2992 300 97 900 VRB/03 RMK AO2 CIG 003V011 T01890183
53988KBKB BKB20191029221012110/29/19 22:10:31  5-MIN KBKB 300410Z AUTO VRB04KT 7SM OVC007 19/18 A2991 300 97 900 VRB/04 RMK AO2 CIG 003V011 T01890183
53988KBKB BKB20191029221511610/29/19 22:15:31  5-MIN KBKB 300415Z AUTO VRB03KT 7SM BKN005 OVC009 19/18 A2988 330 96 800 VRB/03 RMK AO2 T01830178
53988KBKB BKB20191029234010910/29/19 23:40:31  5-MIN KBKB 300540Z AUTO VRB03KT 7SM OVC004 19/18 A2989 320 93 900 VRB/03 RMK AO2 T01890178
53988KBKB BKB20191029234510910/29/19 23:45:31  5-MIN KBKB 300545Z AUTO VRB03KT 7SM OVC004 19/18 A2989 330 93 900 VRB/03 RMK AO2 T01890178
53988KBKB BKB20191029235015310/29/19 23:50:31  5-MIN KBKB 300550Z AUTO 00000KT 6SM BR OVC004 19/18 A2989 330 93 900 000/00 RMK AO2 SLP147 60056 T01890178 10200 20183 402720133 50006
53988KBKB BKB20191029235511210/29/19 23:55:31  5-MIN KBKB 300555Z AUTO 00000KT 5SM BR OVC003 18/18 A2989 330 96 800 000/00 RMK AO2 T01830178
53988KBKB BKB20191030000011210/30/19 00:00:31  5-MIN KBKB 300600Z AUTO 00000KT 5SM BR OVC003 18/18 A2988 330 96 800 000/00 RMK AO2 T01830178
53988KBKB BKB20191030000511210/30/19 00:05:31  5-MIN KBKB 300605Z AUTO VRB03KT 5SM BR OVC003 18/18 A2988 330 96 800 VRB/03 RMK AO2 T01830178
53988KBKB BKB20191030001011210/30/19 00:10:31  5-MIN KBKB 300610Z AUTO 00000KT 5SM BR OVC003 18/18 A2988 330 96 800 000/00 RMK AO2 T01830178
53988KBKB BKB20191030001511210/30/19 00:15:31  5-MIN KBKB 300615Z AUTO 00000KT 5SM BR OVC003 18/18 A2988 330 96 800 000/00 RMK AO2 T01830178
53988KBKB BKB20191030002011210/30/19 00:20:31  5-MIN KBKB 300620Z AUTO 00000KT 5SM BR OVC003 18/18 A2989 330 96 800 000/00 RMK AO2 T01830178
53988KBKB BKB20191030002015610/30/19 00:20:31  5-MIN KBKB 300620Z AUTO 00000KT 5SM BR OVC003 18/18 A2989 330 96 800 000/00 RMK AO2 T0183017818 A2988 330 96 800 000/00 RMK AO2 T01830178
53988KBKB BKB20191030002511210/30/19 00:25:31  5-MIN KBKB 300625Z AUTO 00000KT 4SM BR OVC003 19/18 A2988 330 93 900 000/00 RMK AO2 T01890178
53988KBKB BKB20191030003011210/30/19 00:30:31  5-MIN KBKB 300630Z AUTO 00000KT 3SM BR OVC003 19/18 A2988 330 93 900 000/00 RMK AO2 T01890178
53988KBKB BKB20191030003015810/30/19 00:30:31  5-MIN KBKB 300630Z AUTO 00000KT 3SM BR OVC003 19/18 A2988 330 93 900 000/00 RMK AO2 T018903 18/18 A2988 330 96 800 000/00 RMK AO2 T01830178
53988KBKB BKB20191030003511610/30/19 00:35:31  5-MIN KBKB 300635Z AUTO 00000KT 2 1/2SM BR OVC003 19/18 A2988 330 93 900 000/00 RMK AO2 T01890178
53988KBKB BKB20191030004011210/30/19 00:40:31  5-MIN KBKB 300640Z AUTO 00000KT 2SM BR OVC003 19/18 A2988 330 93 900 000/00 RMK AO2 T01890178
53988KBKB BKB20191030004015410/30/19 00:40:31  5-MIN KBKB 300640Z AUTO 00000KT 2SM BR OVC003 19/18 A2988 330 93 900 000/00 RMK AO2 T03 18/18 A2989 330 96 800 000/00 RMK AO2 T01830178
53988KBKB BKB20191030004511610/30/19 00:45:31  5-MIN KBKB 300645Z AUTO 00000KT 1 3/4SM BR OVC003 19/18 A2988 330 93 900 000/00 RMK AO2 T01890178
53988KBKB BKB20191030005010610/30/19 00:50:31  5-MIN KBKB 300650Z AUTO 00000KT 1 3/4SM BR OVC003 19/18 A2988 340 93 900 000/00 RMK AO2
53988KBKB BKB20191030005015010/30/19 00:50:31  5-MIN KBKB 300650Z AUTO 00000KT 1 3/4SM BR OVC003 19/18 A2988 340 93 900M BR OVC003 19/18 A2988 330 93 900 000/00 RMK AO2 T01890178
53988KBKB BKB20191030005511610/30/19 00:55:31  5-MIN KBKB 300655Z AUTO 00000KT 1 3/4SM BR OVC003 19/18 A2988 340 93 900 000/00 RMK AO2 T01890178
53988KBKB BKB20191030010011610/30/19 01:00:31  5-MIN KBKB 300700Z AUTO 00000KT 1 3/4SM BR OVC003 19/18 A2988 340 93 900 000/00 RMK AO2 T01890178
53988KBKB BKB20191030010015610/30/19 01:00:31  5-MIN KBKB 300700Z AUTO 00000KT 1 3/4SM BR OVC003 19/18 A2988 340 93 900 00 2SM BR OVC003 19/18 A2988 330 93 900 000/00 RMK AO2 T01890178
53988KBKB BKB20191030010511610/30/19 01:05:31  5-MIN KBKB 300705Z AUTO 00000KT 1 3/4SM BR OVC003 19/18 A2987 340 93 900 000/00 RMK AO2 T01890178
53988KBKB BKB20191030010518810/30/19 01:05:31  5-MIN KBKB 300705Z AUTO 00000KT 1 3/4SM BR OVC003 19/18 A2987 340 93 900 000/00 RMK AO2 T018901781O 00000KT 2SM BR OVC003 19/18 A2987 340 93 900 000/00 RMK AO2 T01890178
53988KBKB BKB20191030011011610/30/19 01:10:31  5-MIN KBKB 300710Z AUTO 00000KT 1 3/4SM BR OVC003 19/18 A2987 340 93 900 000/00 RMK AO2 T01890178
53988KBKB BKB20191030011511610/30/19 01:15:31  5-MIN KBKB 300715Z AUTO 00000KT 1 3/4SM BR OVC003 19/18 A2987 340 93 900 000/00 RMK AO2 T01890178
53988KBKB BKB20191030012011210/30/19 01:20:31  5-MIN KBKB 300720Z AUTO 00000KT 2SM BR OVC003 19/18 A2987 340 93 900 000/00 RMK AO2 T01890178
53988KBKB BKB20191030012511210/30/19 01:25:31  5-MIN KBKB 300725Z AUTO 00000KT 2SM BR OVC003 19/18 A2987 340 93 900 000/00 RMK AO2 T01890178
53988KBKB BKB20191030013011210/30/19 01:30:31  5-MIN KBKB 300730Z AUTO 00000KT 2SM BR OVC003 19/18 A2987 340 93 900 000/00 RMK AO2 T01890178
53988KBKB BKB20191030013511610/30/19 01:35:31  5-MIN KBKB 300735Z AUTO 00000KT 1 3/4SM BR OVC002 19/18 A2987 340 93 900 000/00 RMK AO2 T01890178
53988KBKB BKB20191030014011610/30/19 01:40:31  5-MIN KBKB 300740Z AUTO 00000KT 1 1/2SM BR OVC002 19/18 A2987 350 93 900 000/00 RMK AO2 T01890178
53988KBKB BKB20191030014511610/30/19 01:45:31  5-MIN KBKB 300745Z AUTO 00000KT 1 1/2SM BR OVC002 19/18 A2987 350 93 900 000/00 RMK AO2 T01890178
53988KBKB BKB20191030015012310/30/19 01:50:31  5-MIN KBKB 300750Z AUTO 00000KT 1 1/2SM BR OVC002 19/18 A2987 340 93 900 000/00 RMK AO2 SLP141 T01890178
53988KBKB BKB20191030015508610/30/19 01:55:31  5-MIN KBKB 300755Z AUTO 00000KT 1 1/2SM BR OVC000 RMK AO2 T01830178
53988KBKB BKB20191030022011610/30/19 02:20:31  5-MIN KBKB 300820Z AUTO 00000KT 1 1/2SM BR OVC002 18/18 A2987 340 96 900 000/00 RMK AO2 T01830178
53988KBKB BKB20191030022511610/30/19 02:25:31  5-MIN KBKB 300825Z AUTO 00000KT 1 1/2SM BR OVC002 18/18 A2987 340 96 900 000/00 RMK AO2 T01830178
53988KBKB BKB20191030023014810/30/19 02:30:31  5-MIN KBKB 300830Z AUTO 00000KT 1 3/4SM BR OVC002 18/18 A2987 340 96 900 000/00 RMK AO2 T0183017810/30/19 02:35:31  5-M T01830178
53988KBKB BKB20191030032011610/30/19 03:20:31  5-MIN KBKB 300920Z AUTO 00000KT 1 1/2SM BR OVC003 18/18 A2988 340 96 800 000/00 RMK AO2 T01830178
53988KBKB BKB20191030032511610/30/19 03:25:31  5-MIN KBKB 300925Z AUTO 00000KT 1 3/4SM BR OVC003 18/18 A2988 340 96 800 000/00 RMK AO2 T01830178
53988KBKB BKB20191030033011610/30/19 03:30:31  5-MIN KBKB 300930Z AUTO 00000KT 1 3/4SM BR OVC003 18/18 A2988 340 96 800 000/00 RMK AO2 T01830178
53988KBKB BKB20191030033514310/30/19 03:35:31  5-MIN KBKB 300935Z  07:00:31  5-MIN KBKB 301300Z AUTO 00000KT 1/2SM FG VV002 19/18 A2991 310 97 900 000/00 RMK AO2 T01890183
53988KBKB BKB20191030070511310/30/19 07:05:31  5-MIN KBKB 301305Z AUTO 00000KT 1/4SM FG VV002 19/18 A2991 310 97 900 000/00 RMK AO2 T01890183
53988KBKB BKB20191030071011310/30/19 07:10:31  5-MIN KBKB 301310Z AUTO 00000KT 1/4SM FG VV002 19/18 A2990 310 97 900 000/00 RMK AO2 T01890183
53988KBKB BKB20191030071507110/30/19 07:15:31  5-MIN KBKB 301315Z AUTO 00000KT 1/4SM FG V T01940189
53988KBKB BKB20191030074011310/30/19 07:40:31  5-MIN KBKB 301340Z AUTO 00000KT 1/2SM FG VV003 19/18 A2992 300 97 900 000/00 RMK AO2 T01890183
53988KBKB BKB20191030074511410/30/19 07:45:31  5-MIN KBKB 301345Z AUTO 00000KT 1/2SM FG VV003 19/19 A2992 300 100 900 000/00 RMK AO2 T01890189
53988KBKB BKB20191030075012010/30/19 07:50:31  5-MIN KBKB 301350Z AUTO 00000KT 3/4SM BR VV003 19/19 A2992 300 97 900 000/00 RMK AO2 SLP159 T01940189
53988KBKB BKB20191030075511310/30/19 07:55:31  5-MIN KBKB 301355Z AUTO 00000KT 3/4SM BR VV002 19/19 A2992 300 97 900 000/00 RMK AO2 T01940189
53988KBKB BKB20191030080011110/30/19 08:00:31  5-MIN KBKB 301400Z AUTO 00000KT 1SM BR VV002 19/19 A2992 290 97 900 000/00 RMK AO2 T01940189
53988KBKB BKB20191030080511310/30/19 08:05:31  5-MIN KBKB 301405Z AUTO 00000KT 3/4SM BR VV002 19/19 A2993 290 97 900 000/00 RMK AO2 T01940189
53988KBKB BKB20191030081011410/30/19 08:10:31  5-MIN KBKB 301410Z AUTO 00000KT 3/4SM BR OVC002 19/19 A2992 300 97 900 000/00 RMK AO2 T01940189
53988KBKB BKB20191030081511410/30/19 08:15:31  5-MIN KBKB 301415Z AUTO 00000KT 3/4SM BR OVC002 19/19 A2992 300 97 900 000/00 RMK AO2 T01940189
53988KBKB BKB20191030082011610/30/19 08:20:31  5-MIN KBKB 301420Z AUTO 00000KT 1 1/4SM BR OVC002 19/19 A2992 300 97 900 000/00 RMK AO2 T01940189
53988KBKB BKB20191030082515210/30/19 08:25:31  5-MIN KBKB 301425Z AUTO 00000KT 2 1/2SM BR OVC002 19/19 A2992 300 97 900 000/00 RMK AO2 T01940189300 97 1100 VRB/03 RMK AO2 T02060200
53988KBKB BKB20191030095011710/30/19 09:50:31  5-MIN KBKB 301550Z AUTO 00000KT 7SM OVC003 21/20 A2992 300 97 1100 000/00 RMK AO2 SLP157 T02060200
53988KBKB BKB20191030095511010/30/19 09:55:31  5-MIN KBKB 301555Z AUTO 19003KT 7SM OVC003 21/20 A2992 300 97 1100 180/03 RMK AO2 T02060200
53988KBKB BKB20191030100016610/30/19 10:00:31  5-MIN KBKB 301600Z AUTO 00000KT 6SM BR OVC003 21/20 A2992 300 93 1100 000/00 RMK AO2 T0211020010/30/3/21 A2991 310 90 1300 000/00 RMK AO2 T02280211
53988KBKB BKB20191030112511010/30/19 11:25:31  5-MIN KBKB 301725Z AUTO 00000KT 8SM OVC004 23/21 A2990 310 90 1300 000/00 RMK AO2 T02280211
53988KBKB BKB20191030113011010/30/19 11:30:31  5-MIN KBKB 301730Z AUTO 00000KT 8SM OVC004 23/21 A2990 320 90 1300 000/00 RMK AO2 T02280211
53988KBKB BKB20191030113511010/30/19 11:35:31  5-MIN KBKB 301735Z AUTO 00000KT 8SM OVC005 23/21 A2990 320 90 1300 000/00 RMK AO2 T02280211
53988KBKB BKB20191030214014210/30/19 21:40:31  5-MIN KBKB 310340Z AUTO 34007KT 290V060 10SM OVC010 10/09 A3001 220 93 -200 340/07 290V060 RMK AO2 RAB05E16 P0000 T01000089
53988KBKB BKB20191030214511610/30/19 21:45:31  5-MIN KBKB 310345Z AUTO 10SM OVC010 10/09 A3001 220 93 -200 M /M RMK AO2 RAB05E16 P0000 T01000089
53988KBKB BKB20191030215013310/30/19 21:50:31  5-MIN KBKB 310350Z AUTO VRB04KT 10SM OVC010 10/08 A3000 220 89 -200 VRB/04 RMK AO2 RAB05E16 SLP188 P0000 T01000083
53988KBKB BKB20191030215511110/30/19 21:55:31  5-MIN KBKB 310355Z AUTO VRB05KT 10SM OVC010 10/08 A3002 210 89 -200 VRB/05 RMK AO2 T01000083
53988KBKB BKB20191030220013310/30/19 22:00:31  5-MIN KBKB 310400Z AUTO VRB05KT 9SM -RA OVC010 10/08 A3004 190 89 -300 VRB/05 RMK AO2 RAB00 PRESRR P0000 T01000083
53988KBKB BKB20191030220513610/30/19 22:05:31  5-MIN KBKB 310405Z AUTO VRB05KT 4SM -RA BR BKN010 OVC015 09/08 A3001 210 93 -300 VRB/05 RMK AO2 RAB00 P0009 T00940083
53988KBKB BKB20191030221011910/30/19 22:10:31  5-MIN KBKB 310410Z AUTO 1SM +RA BR OVC010 09/08 A3001 210 93 -300 M /M RMK AO2 RAB00 P0019 T00940083
53988KBKB BKB20191030221512910/30/19 22:15:31  5-MIN KBKB 310415Z AUTO VRB05KT 1SM +RA BR OVC010 09/08 A3001 210 96 -400 VRB/05 RMK AO2 RAB00 P0024 T00890083
53988KBKB BKB20191030222014910/30/19 22:20:31  5-MIN KBKB 310420Z AUTO 33007KT 290V020 1 1/4SM +RA BR OVC010 09/08 A3001 210 96 -400 330/07 290V020 RMK AO2 RAB00 P0030 T00890083
53988KBKB BKB20191030222513310/30/19 22:25:31  5-MIN KBKB 310425Z AUTO VRB05KT 1 3/4SM -RA BR OVC010 09/08 A3002 210 96 -400 VRB/05 RMK AO2 RAB00 P0031 T00890083
53988KBKB BKB20191030223012910/30/19 22:30:31  5-MIN KBKB 310430Z AUTO VRB06KT 6SM -RA BR OVC009 09/08 A3002 200 96 -400 VRB/06 RMK AO2 RAB00 P0031 T00890083
53988KBKB BKB20191030223512610/30/19 22:35:31  5-MIN KBKB 310435Z AUTO VRB06KT 9SM -RA OVC009 09/08 A3002 210 93 -400 VRB/06 RMK AO2 RAB00 P0031 T00890078
53988KBKB BKB20191030224011710/30/19 22:40:31  5-MIN KBKB 310440Z AUTO 10SM -RA OVC009 09/08 A3003 200 93 -400 M /M RMK AO2 RAB00 P0031 T00890078
53988KBKB BKB20191030224513410/30/19 22:45:31  5-MIN KBKB 310445Z AUTO VRB05KT 10SM -RA OVC009 09/08 A3004 190 93 -400 VRB/05 RMK AO2 RAB00 PRESRR P0032 T00890078
53988KBKB BKB20191030225013710/30/19 22:50:31  5-MIN KBKB 310450Z AUTO 5SM RA BR OVC009 09/08 A3004 190 93 -400 M /M RMK AO2 RAB00 CIG 007V011 SLP201 P0033 T00890078
53988KBKB BKB20191030225513010/30/19 22:55:31  5-MIN KBKB 310455Z AUTO VRB06KT 4SM -RA BR BKN009 OVC014 08/07 A3003 190 93 -500 VRB/06 RMK AO2 P0000 T00830072
53988KBKB BKB20191030230012710/30/19 23:00:31  5-MIN KBKB 310500Z AUTO VRB05KT 7SM -RA BKN009 OVC014 08/07 A3004 190 93 -500 VRB/05 RMK AO2 P0000 T00830072
53988KBKB BKB20191030230512710/30/19 23:05:31  5-MIN KBKB 310505Z AUTO VRB05KT 8SM -RA BKN009 OVC016 08/07 A3004 190 93 -500 VRB/05 RMK AO2 P0001 T00830072
53988KBKB BKB20191030231012710/30/19 23:10:31  5-MIN KBKB 310510Z AUTO 6SM -RA BR BKN009 BKN014 OVC038 08/07 A3005 180 93 -500 M /M RMK AO2 P0001 T00830072
53988KBKB BKB20191030231513010/30/19 23:15:31  5-MIN KBKB 310515Z AUTO VRB04KT 6SM -RA BR BKN009 OVC014 08/07 A3005 180 93 -500 VRB/04 RMK AO2 P0002 T00830072
53988KBKB BKB20191030232018210/30/19 23:20:31  5-MIN KBKB 310520Z AUTO 6SM -RA BR BKN009 OVC014 08/07 A3006 170 93 -500 M /M RMK AO2 PRESRR P0002 T00830072A3011 130 93 -700 VRB/03 RMK AO2 PRESRR P0001 T00720061
53988KBKB BKB20191031011512310/31/19 01:15:31  5-MIN KBKB 310715Z AUTO VRB05KT 4SM -RA BR OVC011 07/06 A3010 130 93 -700 VRB/05 RMK AO2 P0002 T00720061
53988KBKB BKB20191031012012210/31/19 01:20:31  5-MIN KBKB 310720Z AUTO VRB06KT 4SM RA BR OVC011 07/06 A3008 150 93 -700 VRB/06 RMK AO2 P0004 T00670056
53988KBKB BKB20191031012512210/31/19 01:25:31  5-MIN KBKB 310725Z AUTO VRB06KT 3SM RA BR OVC011 07/06 A3008 150 93 -700 VRB/06 RMK AO2 P0005 T00670056
53988KBKB BKB20191031013014610/31/19 01:30:31  5-MIN KBKB 310730Z AUTO 35007KT 290V020 4SM -RA BR BKN011 OVC017 07/06 A3008 150 93 -700 340/07 290V020 RMK AO2 P0006 T00670056
53988KBKB BKB20191031013520410/31/19 01:35:31  5-MIN KBKB 310735Z AUTO VRB05KT 7SM -RA BKN011 OVC015 07/06 A3008 160 93 -700 VRB/05 RMK AO2 P0006 T0067005610/31/19 01:40: 110 89 -800 VRB/05 RMK AO2 SLP229 P0011 60018 T00610044 50015
53988KBKB BKB20191031025511810/31/19 02:55:31  5-MIN KBKB 310855Z AUTO VRB03KT 10SM BKN010 OVC017 06/04 A3012 110 89 -800 VRB/03 RMK AO2 T00610044
53988KBKB BKB20191031030013610/31/19 03:00:31  5-MIN KBKB 310900Z AUTO VRB05KT 10SM -RA FEW010 OVC015 06/05 A3012 120 96 -900 VRB/05 RMK AO2 RAB0856 P0000 T00560050
53988KBKB BKB20191031030516610/31/19 03:05:31  5-MIN KBKB 310905Z AUTO VRB03KT 10SM -RA SCT010 OVAUTO VRB05KT 10SM FEW010 OVC017 06/04 A3013 110 89 -900 VRB/05 RMK AO2 RAB0856E13 P0000 T00560039
53988KBKB BKB20191031032014210/31/19 03:20:31  5-MIN KBKB 310920Z AUTO VRB04KT 10SM FEW010 BKN015 OVC019 06/04 A3013 110 89 -900 VRB/04 RMK AO2 RAB0856E13 P0000 T00560039
53988KBKB BKB20191031032514210/31/19 03:25:31  5-MIN KBKB 310925Z AUTO 30006KT 10SM -RA FEW009 OVC017 06/04 A3015 90 89 -900 290/06 RMK AO2 RAB0856 PRESRR P0000 T00560039
53988KBKB BKB20191031033013510/31/19 03:30:31  5-MIN KBKB 310930Z AUTO VRB06KT 10SM -RA BKN015 OVC020 06/04 A3014 90 89 -900 VRB/06 RMK AO2 RAB0856 P0000 T00560039
53988KBKB BKB20191031033512810/31/19 03:35:31  5-MIN KBKB 310935Z AUTO VRB06KT 10SM -RA OVC017 06/04 A3015 90 89 -900 VRB/06 RMK AO2 RAB0856 P0000 T00560039
53988KBKB BKB20191031034013510/31/19 03:40:31  5-MIN KBKB 310940Z AUTO 00000KT 10SM -RA BKN015 OVC020 06/04 A3015 90 89 -900 000/00 RMK AO2 RAB0856 P0000 T00560039
53988KBKB BKB20191031193510910/31/19 19:35:31  5-MIN KBKB 010135Z AUTO 00000KT 10SM CLR 05/01 A3034 -90 73 -1200 000/00 RMK AO2 T00500006
53988KBKB BKB20191031194010910/31/19 19:40:31  5-MIN KBKB 010140Z AUTO 00000KT 10SM CLR 05/01 A3034 -90 73 -1200 000/00 RMK AO2 T00500006
53988KBKB BKB20191031194510910/31/19 19:45:31  5-MIN KBKB 010145Z AUTO 00000KT 10SM CLR 05/01 A3034 -90 76 -1200 000/00 RMK AO2 T00500011
53988KBKB BKB20191031195011610/31/19 19:50:31  5-MIN KBKB 010150Z AUTO 00000KT 10SM CLR 05/01 A3034 -90 76 -1200 000/00 RMK AO2 SLP307 T00500011
53988KBKB BKB20191031195510910/31/19 19:55:31  5-MIN KBKB 010155Z AUTO 00000KT 10SM CLR 05/01 A3035 -90 76 -1200 000/00 RMK AO2 T00500011
53988KBKB BKB20191031200010910/31/19 20:00:31  5-MIN KBKB 010200Z AUTO 00000KT 10SM CLR 05/01 A3035 -90 73 -1200 000/00 RMK AO2 T00500006
53988KBKB BKB20191031200510910/31/19 20:05:31  5-MIN KBKB 010205Z AUTO 00000KT 10SM CLR 04/01 A3035 -90 79 -1300 000/00 RMK AO2 T00440011
53988KBKB BKB20191031201010910/31/19 20:10:31  5-MIN KBKB 010210Z AUTO 00000KT 10SM CLR 05/01 A3035 -90 76 -1200 000/00 RMK AO2 T00500011
53988KBKB BKB20191031201510910/31/19 20:15:31  5-MIN KBKB 010215Z AUTO 00000KT 10SM CLR 04/01 A3035 -90 79 -1300 000/00 RMK AO2 T00440011
53988KBKB BKB20191031202010910/31/19 20:20:31  5-MIN KBKB 010220Z AUTO 00000KT 10SM CLR 04/01 A3035 -90 79 -1300 000/00 RMK AO2 T00440011
53988KBKB BKB20191031202511010/31/19 20:25:31  5-MIN KBKB 010225Z AUTO 00000KT 10SM CLR 04/01 A3035 -100 79 -1300 000/00 RMK AO2 T00440011
53988KBKB BKB20191031203011010/31/19 20:30:31  5-MIN KBKB 010230Z AUTO 35003KT 10SM CLR 04/01 A3035 -100 79 -1300 350/03 RMK AO2 T00440011
53988KBKB BKB20191031203511010/31/19 20:35:31  5-MIN KBKB 010235Z AUTO 00000KT 10SM CLR 04/01 A3035 -100 79 -1300 000/00 RMK AO2 T00440011
53988KBKB BKB20191031204011010/31/19 20:40:31  5-MIN KBKB 010240Z AUTO 00000KT 10SM CLR 04/01 A3035 -100 76 -1300 000/00 RMK AO2 T00440006
53988KBKB BKB20191031204510910/31/19 20:45:31  5-MIN KBKB 010245Z AUTO 35003KT 10SM CLR 04/01 A3035 -90 76 -1300 350/03 RMK AO2 T00440006
53988KBKB BKB20191031205012210/31/19 20:50:31  5-MIN KBKB 010250Z AUTO VRB03KT 10SM CLR 04/01 A3035 -90 79 -1300 VRB/03 RMK AO2 SLP309 T00440011 53014
53988KBKB BKB20191031205510910/31/19 20:55:31  5-MIN KBKB 010255Z AUTO 00000KT 10SM CLR 05/01 A3035 -90 73 -1200 000/00 RMK AO2 T00500006
53988KBKB BKB20191031210010910/31/19 21:00:31  5-MIN KBKB 010300Z AUTO VRB03KT 10SM CLR 05/01 A3035 -90 73 -1200 VRB/03 RMK AO2 T00500006
53988KBKB BKB20191031210510910/31/19 21:05:31  5-MIN KBKB 010305Z AUTO VRB03KT 10SM CLR 04/01 A3035 -90 76 -1300 VRB/03 RMK AO2 T00440006
53988KBKB BKB20191031211010910/31/19 21:10:31  5-MIN KBKB 010310Z AUTO 00000KT 10SM CLR 05/01 A3035 -90 73 -1200 000/00 RMK AO2 T00500006
53988KBKB BKB20191031211516210/31/19 21:15:31  5-MIN KBKB 010400Z AUTO 00000KT 10SM CLR 003 RMK AO2 T00440006B 010425Z AUTO 34003KT 10SM CLR 04/01 A3035 -90 76 -1300 330/03 RMK AO2 T00440006
53988KBKB BKB20191031223010910/31/19 22:30:31  5-MIN KBKB 010430Z AUTO 00000KT 10SM CLR 04/01 A3035 -90 79 -1400 000/00 RMK AO2 T00390006
53988KBKB BKB20191031223510910/31/19 22:35:31  5-MIN KBKB 010435Z AUTO 00000KT 10SM CLR 03/01 A3035 -90 82 -1400 000/00 RMK AO2 T00330006
53988KBKB BKB20191031224010910/31/19 22:40:31  5-MIN KBKB 010440Z AUTO 00000KT 10SM CLR 03/01 A3035 -90 82 -1400 000/00 RMK AO2 T00330006
53988KBKB BKB20191031224510910/31/19 22:45:31  5-MIN KBKB 010445Z AUTO 00000KT 10SM CLR 03/01 A3035 -90 82 -1400 000/00 RMK AO2 T00330006
53988KBKB BKB20191031225011610/31/19 22:50:31  5-MIN KBKB 010450Z AUTO 00000KT 10SM CLR 03/01 A3035 -90 82 -1400 000/00 RMK AO2 SLP306 T00330006
53988KBKB BKB20191031225510910/31/19 22:55:31  5-MIN KBKB 010455Z AUTO 00000KT 10SM CLR 03/01 A3034 -90 82 -1400 000/00 RMK AO2 T00330006
53988KBKB BKB20191031230010910/31/19 23:00:31  5-MIN KBKB 010500Z AUTO 00000KT 10SM CLR 03/01 A3034 -90 85 -1500 000/00 RMK AO2 T00280006
53988KBKB BKB20191031230510910/31/19 23:05:31  5-MIN KBKB 010505Z AUTO 00000KT 10SM CLR 03/01 A3034 -90 89 -1500 000/00 RMK AO2 T00280011
53988KBKB BKB20191031231010910/31/19 23:10:31  5-MIN KBKB 010510Z AUTO 00000KT 10SM CLR 03/01 A3034 -90 89 -1500 000/00 RMK AO2 T00280011
53988KBKB BKB20191031231510910/31/19 23:15:31  5-MIN KBKB 010515Z AUTO 00000KT 10SM CLR 03/01 A3034 -90 85 -1500 000/00 RMK AO2 T00280006
53988KBKB BKB20191031232010910/31/19 23:20:31  5-MIN KBKB 010520Z AUTO 00000KT 10SM CLR 03/01 A3034 -90 85 -1500 000/00 RMK AO2 T00280006
53988KBKB BKB20191031232510910/31/19 23:25:31  5-MIN KBKB 010525Z AUTO 00000KT 10SM CLR 03/01 A3034 -90 85 -1500 000/00 RMK AO2 T00280006
53988KBKB BKB20191031233010910/31/19 23:30:31  5-MIN KBKB 010530Z AUTO 00000KT 10SM CLR 03/01 A3034 -90 85 -1500 000/00 RMK AO2 T00280006
53988KBKB BKB20191031233516710/31/19 23:35:31  5-MIN KBKB 010535Z AUTO 00000KT 10SM CLR 03/01 A00:55:31  5-MIN KBKB 010655Z AUTO 00000KT 10SM CLR 02/01 A3034 -90 92 -1600 000/00 RMK AO2 T00170006
