03949KAQV AQV20190401000010804/01/19 00:00:31  5-MIN KAQV 010600Z AUTO 00000KT 10SM CLR 02/01 A3023 90 92 -1400 000/00 RMK AO2 T00170006
03949KAQV AQV20190401000510804/01/19 00:05:31  5-MIN KAQV 010605Z AUTO 00000KT 10SM CLR 02/01 A3023 90 92 -1400 000/00 RMK AO2 T00170006
03949KAQV AQV20190401001010804/01/19 00:10:31  5-MIN KAQV 010610Z AUTO 02003KT 10SM CLR 02/01 A3023 90 92 -1400 020/03 RMK AO2 T00170006
03949KAQV AQV20190401001510804/01/19 00:15:31  5-MIN KAQV 010615Z AUTO 00000KT 10SM CLR 02/01 A3023 90 92 -1400 000/00 RMK AO2 T00170006
03949KAQV AQV20190401002010804/01/19 00:20:31  5-MIN KAQV 010620Z AUTO 00000KT 10SM CLR 02/01 A3023 90 92 -1400 000/00 RMK AO2 T00170006
03949KAQV AQV20190401002510804/01/19 00:25:31  5-MIN KAQV 010625Z AUTO 00000KT 10SM CLR 02/01 A3023 90 92 -1400 000/00 RMK AO2 T00170006
03949KAQV AQV20190401003010804/01/19 00:30:31  5-MIN KAQV 010630Z AUTO 00000KT 10SM CLR 02/01 A3023 90 89 -1400 000/00 RMK AO2 T00220006
03949KAQV AQV20190401003510804/01/19 00:35:31  5-MIN KAQV 010635Z AUTO 00000KT 10SM CLR 02/01 A3023 90 89 -1400 000/00 RMK AO2 T00220006
03949KAQV AQV20190401004010804/01/19 00:40:31  5-MIN KAQV 010640Z AUTO 00000KT 10SM CLR 02/01 A3023 90 89 -1300 000/00 RMK AO2 T00220006
03949KAQV AQV20190401004510904/01/19 00:45:31  5-MIN KAQV 010645Z AUTO 00000KT 10SM CLR 02/01 A3022 100 92 -1400 000/00 RMK AO2 T00170006
03949KAQV AQV20190401005011604/01/19 00:50:31  5-MIN KAQV 010650Z AUTO 02003KT 10SM CLR 02/01 A3022 100 92 -1400 010/03 RMK AO2 SLP237 T00170006
03949KAQV AQV20190401005511604/01/19 00:55:31  5-MIN KAQV 010655Z AUTO 01003KT 10SM CLR 02/01 A3022 100 92 -1400 010/03 RMK AO2 SLP237 T00170006
03949KAQV AQV20190401010010904/01/19 01:00:31  5-MIN KAQV 010700Z AUTO 36003KT 10SM CLR 02/01 A3022 100 92 -1400 360/03 RMK AO2 T00170006
03949KAQV AQV20190401010510904/01/19 01:05:31  5-MIN KAQV 010705Z AUTO 01003KT 10SM CLR 02/01 A3022 100 89 -1300 010/03 RMK AO2 T00220006
03949KAQV AQV20190401011010904/01/19 01:10:31  5-MIN KAQV 010710Z AUTO 02003KT 10SM CLR 02/01 A3022 100 89 -1300 020/03 RMK AO2 T00220006
03949KAQV AQV20190401011510904/01/19 01:15:31  5-MIN KAQV 010715Z AUTO 02003KT 10SM CLR 02/01 A3022 100 89 -1300 010/03 RMK AO2 T00220006
03949KAQV AQV20190401012010904/01/19 01:20:31  5-MIN KAQV 010720Z AUTO 01003KT 10SM CLR 02/01 A3022 100 92 -1400 010/03 RMK AO2 T00170006
03949KAQV AQV20190401012510904/01/19 01:25:31  5-MIN KAQV 010725Z AUTO 02003KT 10SM CLR 02/01 A3022 100 89 -1300 020/03 RMK AO2 T00220006
03949KAQV AQV20190401013010904/01/19 01:30:31  5-MIN KAQV 010730Z AUTO 02003KT 10SM CLR 03/01 A3022 100 85 -1300 010/03 RMK AO2 T00280006
03949KAQV AQV20190401013510904/01/19 01:35:31  5-MIN KAQV 010735Z AUTO 02003KT 10SM CLR 03/01 A3022 100 85 -1300 020/03 RMK AO2 T00280006
03949KAQV AQV20190401014010904/01/19 01:40:31  5-MIN KAQV 010740Z AUTO 03004KT 10SM CLR 03/01 A3022 100 82 -1200 030/04 RMK AO2 T00330006
03949KAQV AQV20190401014510904/01/19 01:45:31  5-MIN KAQV 010745Z AUTO VRB03KT 10SM CLR 03/01 A3022 100 82 -1200 VRB/03 RMK AO2 T00330006
03949KAQV AQV20190401015011604/01/19 01:50:31  5-MIN KAQV 010750Z AUTO 03004KT 10SM CLR 04/00 A3022 100 76 -1100 020/04 RMK AO2 SLP235 T00390000
03949KAQV AQV20190401015511604/01/19 01:55:31  5-MIN KAQV 010755Z AUTO 03004KT 10SM CLR 04/00 A3022 100 76 -1100 020/04 RMK AO2 SLP235 T00390000
03949KAQV AQV20190401020010904/01/19 02:00:31  5-MIN KAQV 010800Z AUTO VRB03KT 10SM CLR 04/00 A3022 100 76 -1100 VRB/03 RMK AO2 T00390000
03949KAQV AQV20190401020511004/01/19 02:05:31  5-MIN KAQV 010805Z AUTO 03004KT 10SM CLR 04/M01 A3022 100 73 -1100 030/04 RMK AO2 T00391006
03949KAQV AQV20190401021011004/01/19 02:10:31  5-MIN KAQV 010810Z AUTO 03003KT 10SM CLR 04/M01 A3022 100 73 -1100 030/03 RMK AO2 T00391006
03949KAQV AQV20190401021511004/01/19 02:15:31  5-MIN KAQV 010815Z AUTO 03004KT 10SM CLR 04/M01 A3022 100 73 -1100 030/04 RMK AO2 T00391006
03949KAQV AQV20190401022011004/01/19 02:20:31  5-MIN KAQV 010820Z AUTO 03004KT 10SM CLR 04/M01 A3022 100 73 -1100 030/04 RMK AO2 T00391006
03949KAQV AQV20190401022511004/01/19 02:25:31  5-MIN KAQV 010825Z AUTO 02003KT 10SM CLR 04/M01 A3022 100 73 -1100 020/03 RMK AO2 T00391006
03949KAQV AQV20190401023011004/01/19 02:30:31  5-MIN KAQV 010830Z AUTO VRB03KT 10SM CLR 03/M01 A3022 100 76 -1200 VRB/03 RMK AO2 T00331006
03949KAQV AQV20190401023511004/01/19 02:35:31  5-MIN KAQV 010835Z AUTO 01003KT 10SM CLR 03/M01 A3022 100 76 -1200 010/03 RMK AO2 T00331006
03949KAQV AQV20190401024011004/01/19 02:40:31  5-MIN KAQV 010840Z AUTO 01003KT 10SM CLR 03/M01 A3022 100 76 -1200 010/03 RMK AO2 T00331006
03949KAQV AQV20190401024510904/01/19 02:45:31  5-MIN KAQV 010845Z AUTO 00000KT 10SM CLR 02/00 A3022 100 85 -1300 000/00 RMK AO2 T00220000
03949KAQV AQV20190401025012204/01/19 02:50:31  5-MIN KAQV 010850Z AUTO 00000KT 10SM CLR 02/00 A3022 100 85 -1300 000/00 RMK AO2 SLP237 T00220000 58005
03949KAQV AQV20190401025512204/01/19 02:55:31  5-MIN KAQV 010855Z AUTO 00000KT 10SM CLR 02/00 A3022 100 85 -1300 000/00 RMK AO2 SLP236 T00220000 58005
03949KAQV AQV20190401030010904/01/19 03:00:31  5-MIN KAQV 010900Z AUTO 00000KT 10SM CLR 02/00 A3022 100 89 -1400 000/00 RMK AO2 T00170000
03949KAQV AQV20190401030511004/01/19 03:05:31  5-MIN KAQV 010905Z AUTO 00000KT 10SM CLR 02/M01 A3022 100 85 -1400 000/00 RMK AO2 T00171006
03949KAQV AQV20190401031011004/01/19 03:10:31  5-MIN KAQV 010910Z AUTO 00000KT 10SM CLR 02/M01 A3023 100 85 -1400 000/00 RMK AO2 T00171006
03949KAQV AQV20190401031511004/01/19 03:15:31  5-MIN KAQV 010915Z AUTO 00000KT 10SM CLR 02/M01 A3022 100 85 -1400 000/00 RMK AO2 T00171006
03949KAQV AQV20190401032011004/01/19 03:20:31  5-MIN KAQV 010920Z AUTO 00000KT 10SM CLR 01/M01 A3022 100 89 -1500 000/00 RMK AO2 T00111006
03949KAQV AQV20190401032511004/01/19 03:25:31  5-MIN KAQV 010925Z AUTO 00000KT 10SM CLR 01/M01 A3022 100 89 -1500 000/00 RMK AO2 T00111006
03949KAQV AQV20190401033011004/01/19 03:30:31  5-MIN KAQV 010930Z AUTO 00000KT 10SM CLR 01/M01 A3022 100 89 -1500 000/00 RMK AO2 T00111006
03949KAQV AQV20190401033511004/01/19 03:35:31  5-MIN KAQV 010935Z AUTO 00000KT 10SM CLR 01/M01 A3022 100 89 -1500 000/00 RMK AO2 T00111006
03949KAQV AQV20190401034011004/01/19 03:40:31  5-MIN KAQV 010940Z AUTO 00000KT 10SM CLR 01/M01 A3022 100 89 -1500 000/00 RMK AO2 T00111006
03949KAQV AQV20190401034511004/01/19 03:45:31  5-MIN KAQV 010945Z AUTO 00000KT 10SM CLR 01/M01 A3022 100 89 -1500 000/00 RMK AO2 T00111006
03949KAQV AQV20190401035011704/01/19 03:50:31  5-MIN KAQV 010950Z AUTO 00000KT 10SM CLR 01/M01 A3022 100 92 -1500 000/00 RMK AO2 SLP235 T00061006
03949KAQV AQV20190401035511704/01/19 03:55:31  5-MIN KAQV 010955Z AUTO 00000KT 10SM CLR 01/M01 A3022 100 89 -1500 000/00 RMK AO2 SLP235 T00111006
03949KAQV AQV20190401040011004/01/19 04:00:31  5-MIN KAQV 011000Z AUTO 00000KT 10SM CLR 01/M01 A3022 100 92 -1600 000/00 RMK AO2 T00061006
03949KAQV AQV20190401040511004/01/19 04:05:31  5-MIN KAQV 011005Z AUTO 00000KT 10SM CLR 01/M01 A3022 100 92 -1600 000/00 RMK AO2 T00061006
03949KAQV AQV20190401041011004/01/19 04:10:31  5-MIN KAQV 011010Z AUTO 03003KT 10SM CLR 01/M01 A3022 100 92 -1500 030/03 RMK AO2 T00061006
03949KAQV AQV20190401041511004/01/19 04:15:31  5-MIN KAQV 011015Z AUTO 02003KT 10SM CLR 02/M01 A3022 100 85 -1400 020/03 RMK AO2 T00171006
03949KAQV AQV20190401042011004/01/19 04:20:31  5-MIN KAQV 011020Z AUTO 03003KT 10SM CLR 02/M01 A3021 110 85 -1400 030/03 RMK AO2 T00171006
03949KAQV AQV20190401042511004/01/19 04:25:31  5-MIN KAQV 011025Z AUTO 00000KT 10SM CLR 02/M01 A3021 110 78 -1300 000/00 RMK AO2 T00221011
03949KAQV AQV20190401043011004/01/19 04:30:31  5-MIN KAQV 011030Z AUTO 02003KT 10SM CLR 02/M01 A3021 110 78 -1300 020/03 RMK AO2 T00221011
03949KAQV AQV20190401043511004/01/19 04:35:31  5-MIN KAQV 011035Z AUTO 03003KT 10SM CLR 02/M01 A3021 110 78 -1300 020/03 RMK AO2 T00221011
03949KAQV AQV20190401044011004/01/19 04:40:31  5-MIN KAQV 011040Z AUTO 04003KT 10SM CLR 02/M01 A3021 110 78 -1300 040/03 RMK AO2 T00221011
03949KAQV AQV20190401044511004/01/19 04:45:31  5-MIN KAQV 011045Z AUTO 03003KT 10SM CLR 02/M01 A3021 110 78 -1300 030/03 RMK AO2 T00221011
03949KAQV AQV20190401045011704/01/19 04:50:31  5-MIN KAQV 011050Z AUTO 03003KT 10SM CLR 02/M01 A3021 110 78 -1300 030/03 RMK AO2 SLP231 T00221011
03949KAQV AQV20190401045511704/01/19 04:55:31  5-MIN KAQV 011055Z AUTO 03004KT 10SM CLR 02/M01 A3021 110 78 -1300 030/04 RMK AO2 SLP230 T00221011
03949KAQV AQV20190401050011004/01/19 05:00:31  5-MIN KAQV 011100Z AUTO 02003KT 10SM CLR 02/M01 A3021 110 78 -1300 020/03 RMK AO2 T00221011
03949KAQV AQV20190401050511004/01/19 05:05:31  5-MIN KAQV 011105Z AUTO 03003KT 10SM CLR 02/M01 A3021 110 78 -1300 020/03 RMK AO2 T00221011
03949KAQV AQV20190401051011004/01/19 05:10:31  5-MIN KAQV 011110Z AUTO 00000KT 10SM CLR 02/M01 A3021 110 78 -1300 000/00 RMK AO2 T00221011
03949KAQV AQV20190401051511004/01/19 05:15:31  5-MIN KAQV 011115Z AUTO 01003KT 10SM CLR 02/M01 A3021 110 78 -1300 010/03 RMK AO2 T00221011
03949KAQV AQV20190401052011004/01/19 05:20:31  5-MIN KAQV 011120Z AUTO 00000KT 10SM CLR 02/M01 A3022 100 82 -1400 000/00 RMK AO2 T00171011
03949KAQV AQV20190401052511004/01/19 05:25:31  5-MIN KAQV 011125Z AUTO 00000KT 10SM CLR 02/M01 A3023 100 82 -1400 000/00 RMK AO2 T00171011
03949KAQV AQV20190401053010904/01/19 05:30:31  5-MIN KAQV 011130Z AUTO 00000KT 10SM CLR 02/M01 A3023 90 82 -1400 000/00 RMK AO2 T00171011
03949KAQV AQV20190401053510904/01/19 05:35:31  5-MIN KAQV 011135Z AUTO 00000KT 10SM CLR 02/M01 A3023 90 82 -1400 000/00 RMK AO2 T00171011
03949KAQV AQV20190401054010904/01/19 05:40:31  5-MIN KAQV 011140Z AUTO 00000KT 10SM CLR 01/M01 A3024 80 85 -1500 000/00 RMK AO2 T00111011
03949KAQV AQV20190401054510904/01/19 05:45:31  5-MIN KAQV 011145Z AUTO 00000KT 10SM CLR 01/M01 A3024 80 89 -1500 000/00 RMK AO2 T00111006
03949KAQV AQV20190401055013404/01/19 05:50:31  5-MIN KAQV 011150Z AUTO 00000KT 10SM CLR 01/M01 A3025 80 89 -1500 000/00 RMK AO2 SLP245 T00111006 10039 20006 55003
03949KAQV AQV20190401055513404/01/19 05:55:31  5-MIN KAQV 011155Z AUTO 00000KT 10SM CLR 01/M01 A3025 70 89 -1500 000/00 RMK AO2 SLP246 T00111006 10039 20006 55003
03949KAQV AQV20190401060010904/01/19 06:00:31  5-MIN KAQV 011200Z AUTO 00000KT 10SM CLR 01/M01 A3025 70 92 -1600 000/00 RMK AO2 T00061006
03949KAQV AQV20190401060510904/01/19 06:05:31  5-MIN KAQV 011205Z AUTO 00000KT 10SM CLR 01/M01 A3026 70 92 -1600 000/00 RMK AO2 T00061006
03949KAQV AQV20190401061010904/01/19 06:10:31  5-MIN KAQV 011210Z AUTO 00000KT 10SM CLR 01/M01 A3026 70 89 -1600 000/00 RMK AO2 T00061011
03949KAQV AQV20190401061510904/01/19 06:15:31  5-MIN KAQV 011215Z AUTO 00000KT 10SM CLR 01/M01 A3026 60 89 -1600 000/00 RMK AO2 T00061011
03949KAQV AQV20190401062010904/01/19 06:20:31  5-MIN KAQV 011220Z AUTO 00000KT 10SM CLR 00/M01 A3026 70 92 -1700 000/00 RMK AO2 T00001011
03949KAQV AQV20190401062510904/01/19 06:25:31  5-MIN KAQV 011225Z AUTO 00000KT 10SM CLR 01/M01 A3025 70 89 -1600 000/00 RMK AO2 T00061011
03949KAQV AQV20190401063010904/01/19 06:30:31  5-MIN KAQV 011230Z AUTO 00000KT 10SM CLR 01/M01 A3025 70 92 -1600 000/00 RMK AO2 T00061006
03949KAQV AQV20190401063510904/01/19 06:35:31  5-MIN KAQV 011235Z AUTO 00000KT 10SM CLR 01/M01 A3025 70 92 -1600 000/00 RMK AO2 T00061006
03949KAQV AQV20190401064010904/01/19 06:40:31  5-MIN KAQV 011240Z AUTO 00000KT 10SM CLR 01/M01 A3025 70 92 -1600 000/00 RMK AO2 T00061006
03949KAQV AQV20190401064510904/01/19 06:45:31  5-MIN KAQV 011245Z AUTO 00000KT 10SM CLR 01/M01 A3025 70 89 -1500 000/00 RMK AO2 T00111006
03949KAQV AQV20190401065011504/01/19 06:50:31  5-MIN KAQV 011250Z AUTO VRB03KT 10SM CLR 02/00 A3025 70 89 -1400 VRB/03 RMK AO2 SLP246 T00170000
03949KAQV AQV20190401065511504/01/19 06:55:31  5-MIN KAQV 011255Z AUTO 36003KT 10SM CLR 02/00 A3025 80 85 -1400 350/03 RMK AO2 SLP245 T00220000
03949KAQV AQV20190401070010804/01/19 07:00:31  5-MIN KAQV 011300Z AUTO 01003KT 10SM CLR 03/00 A3025 70 79 -1200 010/03 RMK AO2 T00330000
03949KAQV AQV20190401070510804/01/19 07:05:31  5-MIN KAQV 011305Z AUTO VRB04KT 10SM CLR 04/00 A3025 70 76 -1200 VRB/04 RMK AO2 T00390000
03949KAQV AQV20190401071010804/01/19 07:10:31  5-MIN KAQV 011310Z AUTO 01004KT 10SM CLR 04/00 A3025 70 76 -1200 010/04 RMK AO2 T00390000
03949KAQV AQV20190401071510804/01/19 07:15:31  5-MIN KAQV 011315Z AUTO VRB03KT 10SM CLR 04/00 A3025 70 73 -1100 VRB/03 RMK AO2 T00440000
03949KAQV AQV20190401072010804/01/19 07:20:31  5-MIN KAQV 011320Z AUTO 03006KT 10SM CLR 04/00 A3025 70 73 -1100 020/06 RMK AO2 T00440000
03949KAQV AQV20190401072510804/01/19 07:25:31  5-MIN KAQV 011325Z AUTO 02005KT 10SM CLR 05/00 A3025 70 70 -1000 020/05 RMK AO2 T00500000
03949KAQV AQV20190401073010804/01/19 07:30:31  5-MIN KAQV 011330Z AUTO 05003KT 10SM CLR 05/00 A3025 70 70 -1000 050/03 RMK AO2 T00500000
03949KAQV AQV20190401073510804/01/19 07:35:31  5-MIN KAQV 011335Z AUTO 07006KT 10SM CLR 05/00 A3025 80 70 -1000 060/06 RMK AO2 T00500000
03949KAQV AQV20190401074010804/01/19 07:40:31  5-MIN KAQV 011340Z AUTO 05006KT 10SM CLR 06/00 A3025 80 67 -1000 040/06 RMK AO2 T00560000
03949KAQV AQV20190401074510804/01/19 07:45:31  5-MIN KAQV 011345Z AUTO 03006KT 10SM CLR 06/00 A3025 80 67 -1000 030/06 RMK AO2 T00560000
03949KAQV AQV20190401075011504/01/19 07:50:31  5-MIN KAQV 011350Z AUTO VRB06KT 10SM CLR 06/00 A3025 70 67 -1000 VRB/06 RMK AO2 SLP246 T00560000
03949KAQV AQV20190401075511404/01/19 07:55:31  5-MIN KAQV 011355Z AUTO VRB04KT 10SM CLR 06/01 A3025 70 67 -900 VRB/04 RMK AO2 SLP247 T00610006
03949KAQV AQV20190401080009704/01/19 08:00:31  5-MIN KAQV 011400Z AUTO 10SM CLR 07/01 A3025 70 65 -800 M /M RMK AO2 T00670006
03949KAQV AQV20190401080510704/01/19 08:05:31  5-MIN KAQV 011405Z AUTO VRB05KT 10SM CLR 07/01 A3025 70 62 -800 VRB/05 RMK AO2 T00720006
03949KAQV AQV20190401081010704/01/19 08:10:31  5-MIN KAQV 011410Z AUTO VRB05KT 10SM CLR 07/01 A3026 70 62 -800 VRB/05 RMK AO2 T00720006
03949KAQV AQV20190401081510704/01/19 08:15:31  5-MIN KAQV 011415Z AUTO VRB04KT 10SM CLR 08/01 A3026 70 60 -700 VRB/04 RMK AO2 T00780006
03949KAQV AQV20190401082010704/01/19 08:20:31  5-MIN KAQV 011420Z AUTO 04006KT 10SM CLR 08/01 A3025 70 60 -600 030/06 RMK AO2 T00830011
03949KAQV AQV20190401082510704/01/19 08:25:31  5-MIN KAQV 011425Z AUTO VRB05KT 10SM CLR 08/01 A3025 70 58 -600 VRB/05 RMK AO2 T00830006
03949KAQV AQV20190401083010704/01/19 08:30:31  5-MIN KAQV 011430Z AUTO 07006KT 10SM CLR 09/01 A3025 70 56 -600 070/06 RMK AO2 T00890006
03949KAQV AQV20190401083510704/01/19 08:35:31  5-MIN KAQV 011435Z AUTO VRB05KT 10SM CLR 09/01 A3025 70 56 -600 VRB/05 RMK AO2 T00890006
03949KAQV AQV20190401084010704/01/19 08:40:31  5-MIN KAQV 011440Z AUTO VRB05KT 10SM CLR 09/00 A3025 70 53 -600 VRB/05 RMK AO2 T00890000
03949KAQV AQV20190401084510704/01/19 08:45:31  5-MIN KAQV 011445Z AUTO VRB03KT 10SM CLR 09/01 A3026 70 53 -500 VRB/03 RMK AO2 T00940006
03949KAQV AQV20190401085012004/01/19 08:50:31  5-MIN KAQV 011450Z AUTO VRB04KT 10SM CLR 09/00 A3025 70 53 -600 VRB/04 RMK AO2 SLP246 T00890000 53008
03949KAQV AQV20190401085512004/01/19 08:55:31  5-MIN KAQV 011455Z AUTO VRB05KT 10SM CLR 10/01 A3025 70 52 -400 VRB/05 RMK AO2 SLP247 T01000006 53008
03949KAQV AQV20190401090010704/01/19 09:00:31  5-MIN KAQV 011500Z AUTO VRB05KT 10SM CLR 10/00 A3026 60 49 -400 VRB/05 RMK AO2 T01000000
03949KAQV AQV20190401090510704/01/19 09:05:31  5-MIN KAQV 011505Z AUTO VRB03KT 10SM CLR 09/00 A3026 60 51 -500 VRB/03 RMK AO2 T00940000
03949KAQV AQV20190401091010704/01/19 09:10:31  5-MIN KAQV 011510Z AUTO VRB03KT 10SM CLR 10/00 A3027 60 49 -400 VRB/03 RMK AO2 T01000000
03949KAQV AQV20190401091510704/01/19 09:15:31  5-MIN KAQV 011515Z AUTO 01003KT 10SM CLR 11/01 A3027 60 50 -400 360/03 RMK AO2 T01060006
03949KAQV AQV20190401092010704/01/19 09:20:31  5-MIN KAQV 011520Z AUTO 02004KT 10SM CLR 10/00 A3027 60 49 -400 020/04 RMK AO2 T01000000
03949KAQV AQV20190401092510704/01/19 09:25:31  5-MIN KAQV 011525Z AUTO 04004KT 10SM CLR 11/00 A3027 50 48 -400 040/04 RMK AO2 T01060000
03949KAQV AQV20190401093010704/01/19 09:30:31  5-MIN KAQV 011530Z AUTO 02005KT 10SM CLR 11/01 A3027 60 50 -400 010/05 RMK AO2 T01060006
03949KAQV AQV20190401093510704/01/19 09:35:31  5-MIN KAQV 011535Z AUTO 02004KT 10SM CLR 11/00 A3027 60 48 -400 020/04 RMK AO2 T01060000
03949KAQV AQV20190401094010704/01/19 09:40:31  5-MIN KAQV 011540Z AUTO VRB04KT 10SM CLR 12/01 A3027 50 46 -200 VRB/04 RMK AO2 T01170006
03949KAQV AQV20190401094510704/01/19 09:45:31  5-MIN KAQV 011545Z AUTO VRB03KT 10SM CLR 11/01 A3027 50 48 -300 VRB/03 RMK AO2 T01110006
03949KAQV AQV20190401095011404/01/19 09:50:31  5-MIN KAQV 011550Z AUTO VRB03KT 10SM CLR 12/01 A3027 60 46 -200 VRB/03 RMK AO2 SLP251 T01170006
03949KAQV AQV20190401095511404/01/19 09:55:31  5-MIN KAQV 011555Z AUTO VRB03KT 10SM CLR 12/01 A3027 50 44 -200 VRB/03 RMK AO2 SLP252 T01220006
03949KAQV AQV20190401100010704/01/19 10:00:31  5-MIN KAQV 011600Z AUTO 01005KT 10SM CLR 13/01 A3027 50 43 -100 010/05 RMK AO2 T01280006
03949KAQV AQV20190401100510704/01/19 10:05:31  5-MIN KAQV 011605Z AUTO 00000KT 10SM CLR 12/01 A3027 50 44 -200 000/00 RMK AO2 T01220006
03949KAQV AQV20190401101010004/01/19 10:10:31  5-MIN KAQV 011610Z AUTO 10SM FEW120 12/00 A3028 50 44 -200 M /M RMK AO2 T01170000
03949KAQV AQV20190401101511104/01/19 10:15:31  5-MIN KAQV 011615Z AUTO 00000KT 10SM SCT120 11/M01 A3027 50 44 -300 000/00 RMK AO2 T01111006
03949KAQV AQV20190401102011004/01/19 10:20:31  5-MIN KAQV 011620Z AUTO VRB04KT 10SM SCT120 12/00 A3028 50 43 -200 VRB/04 RMK AO2 T01220000
03949KAQV AQV20190401102511004/01/19 10:25:31  5-MIN KAQV 011625Z AUTO 02003KT 10SM BKN120 13/00 A3027 50 41 -100 020/03 RMK AO2 T01280000
03949KAQV AQV20190401103010104/01/19 10:30:31  5-MIN KAQV 011630Z AUTO 10SM BKN120 13/M01 A3027 60 39 -100 M /M RMK AO2 T01281006
03949KAQV AQV20190401103510804/01/19 10:35:31  5-MIN KAQV 011635Z AUTO VRB04KT 10SM BKN120 13/M01 A3026 60 38 0 VRB/04 RMK AO2 T01331006
03949KAQV AQV20190401104011104/01/19 10:40:31  5-MIN KAQV 011640Z AUTO VRB03KT 10SM SCT120 13/M01 A3026 60 39 -100 VRB/03 RMK AO2 T01281006
03949KAQV AQV20190401104510104/01/19 10:45:31  5-MIN KAQV 011645Z AUTO 10SM FEW120 13/M01 A3026 70 39 -100 M /M RMK AO2 T01281006
03949KAQV AQV20190401105011804/01/19 10:50:31  5-MIN KAQV 011650Z AUTO 06005KT 10SM SCT120 13/M01 A3026 70 39 -100 060/05 RMK AO2 SLP247 T01281006
03949KAQV AQV20190401105511804/01/19 10:55:31  5-MIN KAQV 011655Z AUTO VRB03KT 10SM SCT120 12/M01 A3025 70 39 -200 VRB/03 RMK AO2 SLP245 T01221011
03949KAQV AQV20190401110011104/01/19 11:00:31  5-MIN KAQV 011700Z AUTO 09004KT 10SM SCT120 12/M01 A3025 80 39 -100 090/04 RMK AO2 T01221011
03949KAQV AQV20190401110511004/01/19 11:05:31  5-MIN KAQV 011705Z AUTO VRB03KT 10SM BKN120 13/00 A3025 80 41 -100 VRB/03 RMK AO2 T01280000
03949KAQV AQV20190401111011104/01/19 11:10:31  5-MIN KAQV 011710Z AUTO 00000KT 10SM BKN120 13/M01 A3025 80 39 -100 000/00 RMK AO2 T01281006
03949KAQV AQV20190401111511004/01/19 11:15:31  5-MIN KAQV 011715Z AUTO VRB04KT 10SM BKN120 13/00 A3025 80 41 -100 VRB/04 RMK AO2 T01280000
03949KAQV AQV20190401112023004/01/19 11:20:31  5-MIN KAQV 011720Z AUTO 00000KT 10SM BKN120 12/M01 A3025 70 41 -100 000/00 RMK AO2 T01Z AUTO 35003KT 10SM FEW080 12/02 A3017 150 50 -100 350/03 RMK AO2 T01170N080 11/02 A3017 150 52 -200 350/03 RMK AO2 T01110017
03949KAQV AQV20190401173011104/01/19 17:30:31  5-MIN KAQV 012330Z AUTO 35004KT 10SM SCT080 11/02 A3017 150 54 -300 340/04 RMK AO2 T01060017
03949KAQV AQV20190401173510804/01/19 17:35:31  5-MIN KAQV 012335Z AUTO 36005KT 10SM FEW080 11/02 A3017  54 -300 VRB/03 RMK AO2 T01060017
03949KAQV AQV20190401180510804/01/19 18:05:31  5-MIN KAQV 020005Z AUTO 35004KT 10SM CLR 11/02 A3017 140 54 -300 350/04 RMK AO2 T01060017
03949KAQV AQV20190401181010804/01/19 18:10:31  5-MIN KAQV 020010Z AUTO VRB03KT 10SM CLR 10/02 A3018 140 56 -300 VRB/03 RMK AO2 T01000017
03949KAQV AQV20190401181510804/01/19 18:15:31  5-MIN KAQV 020015Z AUTO VRB03KT 10SM CLR 10/02 A3018 140 56 -300 VRB/03 RMK AO2 T01000017
03949KAQV AQV20190401182010804/01/19 18:20:31  5-MIN KAQV 020020Z AUTO VRB03KT 10SM CLR 09/02 A3018 140 60 -400 VRB/03 RMK AO2 T00940022
03949KAQV AQV20190401182510804/01/19 18:25:31  5-MIN KAQV 020025Z AUTO 00000KT 10SM CLR 09/02 A3018 140 63 -500 000/00 RMK AO2 T00890022
03949KAQV AQV20190401183014104/01/19 18:30:31  5-MIN KAQV 020030Z AUTO 00000KT 10SM CLR 09/02 A3018 140 63 -500 000/00 RMK AO2 T00890022 68 -500 000/00 RMK AO2 T00830028
03949KAQV AQV20190401184010804/01/19 18:40:31  5-MIN KAQV 020040Z AUTO 00000KT 10SM CLR 08/03 A3018 140 70 -600 000/00 RMK AO2 T00780028
03949KAQV AQV20190401184510804/01/19 18:45:31  5-MIN KAQV 020045Z AUTO 00000KT 10SM CLR 08/03 A3018 140 70 -600 000/00 RMK AO2 T00780028
03949KAQV AQV20190401185011704/01/19 18:50:31  5-MIN KAQV 020050Z AUTO 00000KT 10SM CLR 07/004/01/19 18:30:31-700 000/00 RMK AO2 SLP223 T00720028
03949KAQV AQV20190401185511504/01/19 18:55:31  5-MIN KAQV 020055Z AUTO 00000KT 10SM CLR 07/03 A3018 130 73 -700 000/00 RMK AO2 SLP223 T00720028
03949KAQV AQV20190401190010804/01/19 19:00:31  5-MIN KAQV 020100Z AUTO 00000KT 10SM CLR 07/03 A3019 130 79 -800 000/00 RMK AO2 T00670033
03949KAQV AQV20190401190515404/01/19 19:05:31  5-MIN KAQV 020105Z AUTO 00000KT 10SM CLR 07/03 A3019 130 76 -800 000/00 RMK AO2 T0067002804/01/018 140 79 -800 000/00 RMK AO2 T00670033
03949KAQV AQV20190401191510804/01/19 19:15:31  5-MIN KAQV 020115Z AUTO 00000KT 10SM CLR 07/03 A3019 130 79 -800 000/00 RMK AO2 T00670033
03949KAQV AQV20190401192010804/01/19 19:20:31  5-MIN KAQV 020120Z AUTO 00000KT 10SM CLR 06/03 A3019 130 82 -800 000/00 RMK AO2 T00610033
03949KAQV AQV20190401192510804/01/19 19:25:31  5-MIN KAQV 020125Z AUTO 00000KT 10SM CLR 06/03 A3019 120 79 -800MIN0/00 RMK AO2 T00610028
03949KAQV AQV20190401193010804/01/19 19:30:31  5-MIN KAQV 020130Z AUTO 00000KT 10SM CLR 06/03 A3019 120 82 -900 000/00 RMK AO2 T00560028
03949KAQV AQV20190401193510804/01/19 19:35:31  5-MIN KAQV 020135Z AUTO 00000KT 10SM CLR 06/03 A3020 120 82 -900 000/00 RMK AO2 T00560028
03949KAQV AQV20190401194021404/01/19 19:40:31  5-MIN KAQV 020140Z AUTO 35003KT 10SM CLR 06/03 A3020 120 82 -900 350/03 RMK AO2 T0056002804/01/M CLR 06/03 A3019 130 82 -800 000/00 RM4KT 10SM CLR 06/03 A3020 120 79 -800 350/04 RMK AO2 T00610028
03949KAQV AQV20190401195011504/01/19 19:50:31  5-MIN KAQV 020150Z AUTO VRB04KT 10SM CLR 06/03 A3020 120 79 -800 VRB/04 RMK AO2 SLP230 T00610028
03949KAQV AQV20190401195511504/01/19 19:55:31  5-MIN KAQV 020155Z AUTO 34003KT 10SM CLR 06/03 A3021 110 79 -800 330/03 RMK AO2 SLP231 T00610028
03949KAQV AQV20190401200011004/01/19 20:00:31  5-MIN KAQV 020200Z AUTO 00000KT 10SM CLR 0640:31  5-MIN KAQV 020140Z AUTO 3MK AO2 T00610028
03949KAQV AQV20190401200510804/01/19 20:05:31  5-MIN KAQV 020205Z AUTO 00000KT 10SM CLR 06/03 A3021 110 82 -900 000/00 RMK AO2 T00560028
03949KAQV AQV20190401201010804/01/19 20:10:31  5-MIN KAQV 020210Z AUTO 00000KT 10SM CLR 06/03 A3021 110 82 -900 000/00 RMK AO2 T00560028
03949KAQV AQV20190401201510804/01/19 20:15:31  5-MIN KAQV 020215Z AUTO 00000KT 10SM CLR 06/03 A3022 100 82 -900 000/00 RMK AO2 T00560028
03949KAQV AQV20190401201515904/01/19 20:15:31  5-MIN KAQV 020215Z AUTO 00000KT 10SM CLR 06/00:31  5-MIN KAQV 020240Z AUTO 00000KT 10SM CLR 04/03 A3023 90 89 -1100 000/00 RMK AO2 T00440028
03949KAQV AQV20190401201521504/01/19 20:15:31  5-MIN KAQV 020215Z AUTO 00000KT 10SM CLR 06/03 A3022 100 82 -900 000/00 RMK AO2 T0056002804/01/19 20A3021 110 79 -800 330/03 RMK AO2 SLP231 T00CLR 05/03 A3022 100 85 -1000 000/00 RMK AO2 T00500028
03949KAQV AQV20190401202010904/01/19 20:20:31  5-MIN KAQV 020220Z AUTO 00000KT 10SM CLR 05/03 A3022 100 85 -1000 000/00 RMK AO2 T00500028
03949KAQV AQV20190401202510904/01/19 20:25:31  5-MIN KAQV 020225Z AUTO 34003KT 10SM CLR 05/03 A3022 100 85 -1000 330/03 RMK AO2 T00500028
03949KAQV AQV20190401203010904/01/19 20:30:31  5-MIN KAQV 020230Z AUTO 00000KT 10SM CLR 05/03 A3022 100 85 -1000 000/00 RMK AO2 T00500028
03949KAQV AQV20190401203505904/01/19 20:35:31  5-MIN KAQV 020235Z AUTO 000002 T00560028
03949KAQV AQV20190401203510804/01/19 20:35:31  5-MIN KAQV 020235Z AUTO 00000KT 10SM CLR 05/03 A3023 90 85 -1000 000/00 RMK AO2 T00500028
03949KAQV AQV20190401204010804/01/19 20:40:31  5-MIN KAQV 020240Z AUTO 00000KT 10SM CLR 04/03 A3023 90 89 -1100 000/00 RMK AO2 T00440028
03949KAQV AQV20190401204510804/01/19 20:45:31  5-MIN KAQV 020245Z AUTO 00000KT 10SM CLR 04/03 A3023 90 89 -1100 000/00 RMK AO2 T00440028
03949KAQV AQV20190401205012104/01/19 20:50:31  5-MIN KAQV 020250Z AUTO 00000KT 10SM CLR 04/02 A3023 90 85 -1100 000/00 RMK AO2 SLP237 T00440022 56003
03949KAQV AQV20190401205024004/01/19 20:50:31  5-MIN KAQV 020250Z AUTO 00000KT 10SM CLR 04/02 A3023 90 85 -1100 000/00 RMK AO2 SLP237 T00440022 5CLR 05/03 A3022 100 85 -1000 000/00 RMK AO2 T0050002804/01/19 20:35:31  3 90 89 -1100 000/00 RMK AO2 SLP237 T00440028 56003
03949KAQV AQV20190401205512104/01/19 20:55:31  5-MIN KAQV 020255Z AUTO 00000KT 10SM CLR 04/03 A3023 90 89 -1100 000/00 RMK AO2 SLP237 T00440028 56003
03949KAQV AQV20190401210010804/01/19 21:00:31  5-MIN KAQV 020300Z AUTO 00000KT 10SM CLR 04/03 A3023 90 89 -1100 000/00 RMK AO2 T00440028
03949KAQV AQV20190401210510804/01/19 21:05:31  5-MIN KAQV 020305Z AUTO 33003KT 10SM CLR 04/03 A3023 90 89 -1100 320/03 RMK AO2 T00440028
03949KAQV AQV20190401211010804/01/19 21:10:31  5-MIN KAQV 020310Z AUTO 00000KT 10SM CLR 04/03 A3023 90 92 -1100 000/00 RMK AO2 T00390028
03949KAQV AQV20190401211510804/01/19 21:15:31  5-MIN KAQV 020315Z AUTO 00000KT 10SM CLR 04/03 A3023 90 92 -1100 000/00 RMK AO2 T00390028
03949KAQV AQV20190401212010804/01/19 21:20:31  5-MIN KAQV 020320Z AUTO 00000KT 10SM CLR 04/02 A3023 90 89 -1100 000/00 RMK AO2 T00390022
03949KAQV AQV20190401212510804/01/19 21:25:31  5-MIN KAQV 020325Z AUTO 00000KT 10SM CLR 04/02 A3023 90 89 -1100 000/00 RMK AO2 T00390022
03949KAQV AQV20190401213010804/01/19 21:30:31  5-MIN KAQV 020330Z AUTO 00000KT 10SM CLR 04/02 A3023 90 89 -1100 000/00 RMK AO2 T00390022
03949KAQV AQV20190401213510804/01/19 21:35:31  5-MIN KAQV 020335Z AUTO 00000KT 10SM CLR 04/02 A3023 90 89 -1100 000/00 RMK AO2 T00390022
03949KAQV AQV20190401214010804/01/19 21:40:31  5-MIN KAQV 020340Z AUTO 00000KT 10SM CLR 03/02 A3023 90 92 -1200 000/00 RMK AO2 T00330022
03949KAQV AQV20190401214510804/01/19 21:45:31  5-MIN KAQV 020345Z AUTO 00000KT 10SM CLR 03/02 A3023 90 92 -1200 000/00 RMK AO2 T00330022
03949KAQV AQV20190401215011504/01/19 21:50:31  5-MIN KAQV 020350Z AUTO 00000KT 10SM CLR 03/02 A3024 90 92 -1200 000/00 RMK AO2 SLP240 T00330022
03949KAQV AQV20190401215511504/01/19 21:55:31  5-MIN KAQV 020355Z AUTO 00000KT 10SM CLR 03/02 A3024 80 92 -1200 000/00 RMK AO2 SLP241 T00330022
03949KAQV AQV20190401220010804/01/19 22:00:31  5-MIN KAQV 020400Z AUTO 33003KT 10SM CLR 03/02 A3024 80 92 -1200 330/03 RMK AO2 T00330022
03949KAQV AQV20190401220510804/01/19 22:05:31  5-MIN KAQV 020405Z AUTO 00000KT 10SM CLR 03/02 A3024 80 89 -1200 000/00 RMK AO2 T00330017
03949KAQV AQV20190401221010804/01/19 22:10:31  5-MIN KAQV 020410Z AUTO 00000KT 10SM CLR 03/02 A3024 80 89 -1200 000/00 RMK AO2 T00330017
03949KAQV AQV20190401221510804/01/19 22:15:31  5-MIN KAQV 020415Z AUTO 00000KT 10SM CLR 03/02 A3024 80 89 -1200 000/00 RMK AO2 T00330017
03949KAQV AQV20190401222010804/01/19 22:20:31  5-MIN KAQV 020420Z AUTO 00000KT 10SM CLR 03/02 A3024 80 89 -1200 000/00 RMK AO2 T00330017
03949KAQV AQV20190401222510804/01/19 22:25:31  5-MIN KAQV 020425Z AUTO 00000KT 10SM CLR 03/02 A3024 80 92 -1200 000/00 RMK AO2 T00330022
03949KAQV AQV20190401223010804/01/19 22:30:31  5-MIN KAQV 020430Z AUTO 00000KT 10SM CLR 03/02 A3024 80 89 -1200 000/00 RMK AO2 T00330017
03949KAQV AQV20190401223510804/01/19 22:35:31  5-MIN KAQV 020435Z AUTO 00000KT 10SM CLR 03/02 A3024 80 89 -1200 000/00 RMK AO2 T00330017
03949KAQV AQV20190401224010804/01/19 22:40:31  5-MIN KAQV 020440Z AUTO 00000KT 10SM CLR 03/02 A3024 80 92 -1300 000/00 RMK AO2 T00280017
03949KAQV AQV20190401224510804/01/19 22:45:31  5-MIN KAQV 020445Z AUTO 00000KT 10SM CLR 03/02 A3024 80 92 -1300 000/00 RMK AO2 T00280017
03949KAQV AQV20190401225011504/01/19 22:50:31  5-MIN KAQV 020450Z AUTO 00000KT 10SM CLR 03/02 A3024 80 92 -1300 000/00 RMK AO2 SLP242 T00280017
03949KAQV AQV20190401225511504/01/19 22:55:31  5-MIN KAQV 020455Z AUTO 00000KT 10SM CLR 03/02 A3024 80 92 -1300 000/00 RMK AO2 SLP242 T00280017
03949KAQV AQV20190401230010804/01/19 23:00:31  5-MIN KAQV 020500Z AUTO 00000KT 10SM CLR 03/02 A3024 80 92 -1300 000/00 RMK AO2 T00280017
03949KAQV AQV20190401230510804/01/19 23:05:31  5-MIN KAQV 020505Z AUTO 00000KT 10SM CLR 03/02 A3024 80 92 -1300 000/00 RMK AO2 T00280017
03949KAQV AQV20190401231010804/01/19 23:10:31  5-MIN KAQV 020510Z AUTO 00000KT 10SM CLR 03/01 A3024 80 89 -1300 000/00 RMK AO2 T00280011
03949KAQV AQV20190401231510804/01/19 23:15:31  5-MIN KAQV 020515Z AUTO 00000KT 10SM CLR 03/01 A3024 80 89 -1300 000/00 RMK AO2 T00280011
03949KAQV AQV20190401232010804/01/19 23:20:31  5-MIN KAQV 020520Z AUTO 00000KT 10SM CLR 03/01 A3024 80 89 -1300 000/00 RMK AO2 T00280011
03949KAQV AQV20190401232510804/01/19 23:25:31  5-MIN KAQV 020525Z AUTO 00000KT 10SM CLR 02/01 A3024 80 92 -1400 000/00 RMK AO2 T00220011
03949KAQV AQV20190401233010804/01/19 23:30:31  5-MIN KAQV 020530Z AUTO 00000KT 10SM CLR 02/01 A3024 80 92 -1400 000/00 RMK AO2 T00220011
03949KAQV AQV20190401233510804/01/19 23:35:31  5-MIN KAQV 020535Z AUTO 00000KT 10SM CLR 02/01 A3024 80 92 -1400 000/00 RMK AO2 T00220011
03949KAQV AQV20190401234010804/01/19 23:40:31  5-MIN KAQV 020540Z AUTO 00000KT 10SM CLR 02/01 A3024 80 92 -1400 000/00 RMK AO2 T00220011
03949KAQV AQV20190401234510804/01/19 23:45:31  5-MIN KAQV 020545Z AUTO 00000KT 10SM CLR 02/01 A3024 80 92 -1400 000/00 RMK AO2 T00220011
03949KAQV AQV20190401235014304/01/19 23:50:31  5-MIN KAQV 020550Z AUTO 00000KT 10SM CLR 02/01 A3024 80 92 -1400 000/00 RMK AO2 SLP243 T00220011 10111 20022 401500000 53020
03949KAQV AQV20190401235514304/01/19 23:55:31  5-MIN KAQV 020555Z AUTO 00000KT 10SM CLR 02/01 A3024 80 92 -1400 000/00 RMK AO2 SLP243 T00220011 10111 20022 401500000 53020
03949KAQV AQV20190402000010804/02/19 00:00:31  5-MIN KAQV 020600Z AUTO 00000KT 10SM CLR 02/01 A3024 80 92 -1400 000/00 RMK AO2 T00220011
03949KAQV AQV20190402000510804/02/19 00:05:31  5-MIN KAQV 020605Z AUTO 00000KT 10SM CLR 02/01 A3024 80 92 -1400 000/00 RMK AO2 T00220011
03949KAQV AQV20190402001010804/02/19 00:10:31  5-MIN KAQV 020610Z AUTO 00000KT 10SM CLR 02/01 A3024 80 89 -1400 000/00 RMK AO2 T00220006
03949KAQV AQV20190402001510704/02/19 00:15:31  5-MIN KAQV 020615Z AUTO 00000KT 9SM CLR 02/01 A3024 80 92 -1400 000/00 RMK AO2 T00170006
03949KAQV AQV20190402002010704/02/19 00:20:31  5-MIN KAQV 020620Z AUTO 00000KT 9SM CLR 02/01 A3024 80 92 -1400 000/00 RMK AO2 T00170006
03949KAQV AQV20190402002510704/02/19 00:25:31  5-MIN KAQV 020625Z AUTO 00000KT 9SM CLR 02/01 A3024 80 92 -1400 000/00 RMK AO2 T00170006
03949KAQV AQV20190402003010704/02/19 00:30:31  5-MIN KAQV 020630Z AUTO 00000KT 9SM CLR 02/01 A3024 90 92 -1400 000/00 RMK AO2 T00170006
03949KAQV AQV20190402003510704/02/19 00:35:31  5-MIN KAQV 020635Z AUTO 00000KT 9SM CLR 02/01 A3024 90 92 -1400 000/00 RMK AO2 T00170006
03949KAQV AQV20190402004010704/02/19 00:40:31  5-MIN KAQV 020640Z AUTO 00000KT 9SM CLR 02/01 A3024 90 92 -1400 000/00 RMK AO2 T00170006
03949KAQV AQV20190402004510704/02/19 00:45:31  5-MIN KAQV 020645Z AUTO 00000KT 9SM CLR 02/01 A3024 90 92 -1400 000/00 RMK AO2 T00170006
03949KAQV AQV20190402005011404/02/19 00:50:31  5-MIN KAQV 020650Z AUTO 00000KT 9SM CLR 02/01 A3023 90 92 -1400 000/00 RMK AO2 SLP239 T00170006
03949KAQV AQV20190402005511404/02/19 00:55:31  5-MIN KAQV 020655Z AUTO 00000KT 9SM CLR 02/01 A3023 90 92 -1400 000/00 RMK AO2 SLP239 T00170006
03949KAQV AQV20190402010010804/02/19 01:00:31  5-MIN KAQV 020700Z AUTO 00000KT 10SM CLR 02/01 A3023 90 92 -1400 000/00 RMK AO2 T00170006
03949KAQV AQV20190402010510804/02/19 01:05:31  5-MIN KAQV 020705Z AUTO 00000KT 10SM CLR 02/01 A3023 90 92 -1400 000/00 RMK AO2 T00170006
03949KAQV AQV20190402011010804/02/19 01:10:31  5-MIN KAQV 020710Z AUTO 00000KT 10SM CLR 02/01 A3023 90 92 -1400 000/00 RMK AO2 T00170006
03949KAQV AQV20190402011510804/02/19 01:15:31  5-MIN KAQV 020715Z AUTO 00000KT 10SM CLR 02/01 A3023 90 92 -1400 000/00 RMK AO2 T00170006
03949KAQV AQV20190402012010804/02/19 01:20:31  5-MIN KAQV 020720Z AUTO 00000KT 10SM CLR 02/01 A3023 90 92 -1400 000/00 RMK AO2 T00170006
03949KAQV AQV20190402012510904/02/19 01:25:31  5-MIN KAQV 020725Z AUTO 00000KT 10SM CLR 02/01 A3023 100 92 -1400 000/00 RMK AO2 T00170006
03949KAQV AQV20190402013010804/02/19 01:30:31  5-MIN KAQV 020730Z AUTO 00000KT 8SM CLR 01/01 A3022 100 96 -1500 000/00 RMK AO2 T00110006
03949KAQV AQV20190402013510804/02/19 01:35:31  5-MIN KAQV 020735Z AUTO 00000KT 7SM CLR 02/00 A3022 100 89 -1400 000/00 RMK AO2 T00170000
03949KAQV AQV20190402014010804/02/19 01:40:31  5-MIN KAQV 020740Z AUTO 00000KT 8SM CLR 02/00 A3022 100 89 -1400 000/00 RMK AO2 T00170000
03949KAQV AQV20190402014510804/02/19 01:45:31  5-MIN KAQV 020745Z AUTO 00000KT 9SM CLR 02/00 A3022 100 89 -1400 000/00 RMK AO2 T00170000
03949KAQV AQV20190402015011604/02/19 01:50:31  5-MIN KAQV 020750Z AUTO 00000KT 10SM CLR 02/00 A3022 100 89 -1400 000/00 RMK AO2 SLP234 T00170000
03949KAQV AQV20190402015511604/02/19 01:55:31  5-MIN KAQV 020755Z AUTO 00000KT 10SM CLR 01/00 A3021 110 92 -1500 000/00 RMK AO2 SLP233 T00110000
03949KAQV AQV20190402020010904/02/19 02:00:31  5-MIN KAQV 020800Z AUTO 00000KT 10SM CLR 01/00 A3021 110 92 -1500 000/00 RMK AO2 T00110000
03949KAQV AQV20190402020510904/02/19 02:05:31  5-MIN KAQV 020805Z AUTO 00000KT 10SM CLR 01/00 A3021 110 92 -1500 000/00 RMK AO2 T00110000
03949KAQV AQV20190402021010904/02/19 02:10:31  5-MIN KAQV 020810Z AUTO 00000KT 10SM CLR 01/00 A3020 110 92 -1500 000/00 RMK AO2 T00110000
03949KAQV AQV20190402021510804/02/19 02:15:31  5-MIN KAQV 020815Z AUTO 00000KT 9SM CLR 01/00 A3020 110 92 -1500 000/00 RMK AO2 T00110000
03949KAQV AQV20190402022010804/02/19 02:20:31  5-MIN KAQV 020820Z AUTO 00000KT 7SM CLR 01/00 A3020 110 92 -1500 000/00 RMK AO2 T00110000
03949KAQV AQV20190402022510804/02/19 02:25:31  5-MIN KAQV 020825Z AUTO 00000KT 7SM CLR 01/00 A3020 120 92 -1500 000/00 RMK AO2 T00110000
03949KAQV AQV20190402023010804/02/19 02:30:31  5-MIN KAQV 020830Z AUTO 00000KT 7SM CLR 01/00 A3020 120 92 -1500 000/00 RMK AO2 T00110000
03949KAQV AQV20190402023510804/02/19 02:35:31  5-MIN KAQV 020835Z AUTO 00000KT 7SM CLR 01/00 A3020 120 96 -1500 000/00 RMK AO2 T00060000
03949KAQV AQV20190402024010804/02/19 02:40:31  5-MIN KAQV 020840Z AUTO 00000KT 7SM CLR 01/00 A3020 120 96 -1500 000/00 RMK AO2 T00060000
03949KAQV AQV20190402024510804/02/19 02:45:31  5-MIN KAQV 020845Z AUTO 00000KT 7SM CLR 01/00 A3020 120 96 -1500 000/00 RMK AO2 T00060000
03949KAQV AQV20190402025012204/02/19 02:50:31  5-MIN KAQV 020850Z AUTO 00000KT 7SM CLR 01/M01 A3020 120 92 -1500 000/00 RMK AO2 SLP228 T00061006 51005
03949KAQV AQV20190402025512204/02/19 02:55:31  5-MIN KAQV 020855Z AUTO 00000KT 7SM CLR 01/M01 A3020 120 92 -1500 000/00 RMK AO2 SLP229 T00061006 51005
03949KAQV AQV20190402030010904/02/19 03:00:31  5-MIN KAQV 020900Z AUTO 00000KT 7SM CLR 01/M01 A3020 120 92 -1500 000/00 RMK AO2 T00061006
03949KAQV AQV20190402030510904/02/19 03:05:31  5-MIN KAQV 020905Z AUTO 00000KT 7SM CLR 01/M01 A3020 120 92 -1500 000/00 RMK AO2 T00061006
03949KAQV AQV20190402031010904/02/19 03:10:31  5-MIN KAQV 020910Z AUTO 00000KT 7SM CLR 01/M01 A3020 120 92 -1500 000/00 RMK AO2 T00061006
03949KAQV AQV20190402031510904/02/19 03:15:31  5-MIN KAQV 020915Z AUTO 00000KT 7SM CLR 01/M01 A3020 120 92 -1500 000/00 RMK AO2 T00061006
03949KAQV AQV20190402032010904/02/19 03:20:31  5-MIN KAQV 020920Z AUTO 00000KT 7SM CLR 00/M01 A3020 120 96 -1600 000/00 RMK AO2 T00001006
03949KAQV AQV20190402032510904/02/19 03:25:31  5-MIN KAQV 020925Z AUTO 00000KT 7SM CLR 00/M01 A3019 120 96 -1600 000/00 RMK AO2 T00001006
03949KAQV AQV20190402033010904/02/19 03:30:31  5-MIN KAQV 020930Z AUTO 00000KT 7SM CLR 00/M01 A3019 130 96 -1600 000/00 RMK AO2 T00001006
03949KAQV AQV20190402033511204/02/19 03:35:31  5-MIN KAQV 020935Z AUTO 00000KT 6SM BR CLR 00/M01 A3019 130 96 -1600 000/00 RMK AO2 T00001006
03949KAQV AQV20190402034010904/02/19 03:40:31  5-MIN KAQV 020940Z AUTO 00000KT 7SM CLR 00/M01 A3019 130 92 -1600 000/00 RMK AO2 T00001011
03949KAQV AQV20190402034510904/02/19 03:45:31  5-MIN KAQV 020945Z AUTO 00000KT 7SM CLR 00/M01 A3019 130 92 -1600 000/00 RMK AO2 T00001011
03949KAQV AQV20190402035011604/02/19 03:50:31  5-MIN KAQV 020950Z AUTO 00000KT 7SM CLR 00/M01 A3019 130 92 -1600 000/00 RMK AO2 SLP226 T00001011
03949KAQV AQV20190402035511604/02/19 03:55:31  5-MIN KAQV 020955Z AUTO 00000KT 7SM CLR 00/M01 A3019 130 92 -1600 000/00 RMK AO2 SLP226 T00001011
03949KAQV AQV20190402040010904/02/19 04:00:31  5-MIN KAQV 021000Z AUTO 00000KT 7SM CLR 00/M01 A3019 130 92 -1600 000/00 RMK AO2 T00001011
03949KAQV AQV20190402040510904/02/19 04:05:31  5-MIN KAQV 021005Z AUTO 00000KT 7SM CLR 00/M01 A3019 130 92 -1600 000/00 RMK AO2 T00001011
03949KAQV AQV20190402041010904/02/19 04:10:31  5-MIN KAQV 021010Z AUTO 00000KT 7SM CLR 00/M01 A3019 120 92 -1600 000/00 RMK AO2 T00001011
03949KAQV AQV20190402041510904/02/19 04:15:31  5-MIN KAQV 021015Z AUTO 00000KT 7SM CLR 00/M01 A3019 120 92 -1600 000/00 RMK AO2 T00001011
03949KAQV AQV20190402042010904/02/19 04:20:31  5-MIN KAQV 021020Z AUTO 00000KT 7SM CLR 00/M01 A3020 120 92 -1600 000/00 RMK AO2 T00001011
03949KAQV AQV20190402042510904/02/19 04:25:31  5-MIN KAQV 021025Z AUTO 00000KT 7SM CLR 00/M01 A3020 120 92 -1600 000/00 RMK AO2 T00001011
03949KAQV AQV20190402043010904/02/19 04:30:31  5-MIN KAQV 021030Z AUTO 00000KT 7SM CLR 00/M01 A3019 120 92 -1600 000/00 RMK AO2 T00001011
03949KAQV AQV20190402043510904/02/19 04:35:31  5-MIN KAQV 021035Z AUTO 00000KT 7SM CLR 00/M01 A3019 120 92 -1600 000/00 RMK AO2 T00001011
03949KAQV AQV20190402044010904/02/19 04:40:31  5-MIN KAQV 021040Z AUTO 00000KT 7SM CLR 00/M01 A3019 130 92 -1600 000/00 RMK AO2 T00001011
03949KAQV AQV20190402044510904/02/19 04:45:31  5-MIN KAQV 021045Z AUTO 00000KT 7SM CLR 00/M01 A3019 120 92 -1600 000/00 RMK AO2 T00001011
03949KAQV AQV20190402045011704/02/19 04:50:31  5-MIN KAQV 021050Z AUTO 00000KT 7SM CLR M01/M01 A3019 130 96 -1700 000/00 RMK AO2 SLP226 T10061011
03949KAQV AQV20190402045511704/02/19 04:55:31  5-MIN KAQV 021055Z AUTO 00000KT 8SM CLR M01/M02 A3019 130 92 -1700 000/00 RMK AO2 SLP227 T10061017
03949KAQV AQV20190402050010904/02/19 05:00:31  5-MIN KAQV 021100Z AUTO 00000KT 8SM CLR 00/M02 A3019 130 88 -1600 000/00 RMK AO2 T00001017
03949KAQV AQV20190402050511004/02/19 05:05:31  5-MIN KAQV 021105Z AUTO 00000KT 8SM CLR M01/M02 A3019 120 92 -1700 000/00 RMK AO2 T10061017
03949KAQV AQV20190402051010904/02/19 05:10:31  5-MIN KAQV 021110Z AUTO 00000KT 7SM CLR 00/M02 A3020 120 88 -1600 000/00 RMK AO2 T00001017
03949KAQV AQV20190402051510904/02/19 05:15:31  5-MIN KAQV 021115Z AUTO 00000KT 7SM CLR 00/M01 A3020 120 92 -1600 000/00 RMK AO2 T00001011
03949KAQV AQV20190402052010904/02/19 05:20:31  5-MIN KAQV 021120Z AUTO 00000KT 8SM CLR 00/M02 A3020 120 88 -1600 000/00 RMK AO2 T00001017
03949KAQV AQV20190402052510904/02/19 05:25:31  5-MIN KAQV 021125Z AUTO 00000KT 8SM CLR 00/M01 A3020 120 92 -1600 000/00 RMK AO2 T00001011
03949KAQV AQV20190402053010904/02/19 05:30:31  5-MIN KAQV 021130Z AUTO 00000KT 8SM CLR 00/M01 A3020 120 92 -1600 000/00 RMK AO2 T00001011
03949KAQV AQV20190402053511004/02/19 05:35:31  5-MIN KAQV 021135Z AUTO 00000KT 8SM CLR M01/M01 A3020 120 96 -1700 000/00 RMK AO2 T10061011
03949KAQV AQV20190402054011004/02/19 05:40:31  5-MIN KAQV 021140Z AUTO 00000KT 8SM CLR M01/M01 A3020 120 96 -1700 000/00 RMK AO2 T10061011
03949KAQV AQV20190402054510904/02/19 05:45:31  5-MIN KAQV 021145Z AUTO 00000KT 8SM CLR 00/M01 A3020 120 92 -1600 000/00 RMK AO2 T00001011
03949KAQV AQV20190402055013404/02/19 05:50:31  5-MIN KAQV 021150Z AUTO 00000KT 9SM CLR 00/M01 A3020 120 92 -1600 000/00 RMK AO2 SLP229 T00001011 10022 21006 58015
03949KAQV AQV20190402055513604/02/19 05:55:31  5-MIN KAQV 021155Z AUTO 00000KT 10SM CLR M01/M02 A3020 120 92 -1700 000/00 RMK AO2 SLP229 T10061017 10022 21006 58015
03949KAQV AQV20190402060010904/02/19 06:00:31  5-MIN KAQV 021200Z AUTO 00000KT 9SM CLR 00/M01 A3020 120 92 -1600 000/00 RMK AO2 T00001011
03949KAQV AQV20190402060511004/02/19 06:05:31  5-MIN KAQV 021205Z AUTO 00000KT 7SM CLR M01/M01 A3020 120 96 -1700 000/00 RMK AO2 T10061011
03949KAQV AQV20190402061011304/02/19 06:10:31  5-MIN KAQV 021210Z AUTO 00000KT 6SM BR CLR M01/M01 A3020 120 96 -1700 000/00 RMK AO2 T10061011
03949KAQV AQV20190402061511204/02/19 06:15:31  5-MIN KAQV 021215Z AUTO 00000KT 6SM BR CLR 00/M01 A3020 120 92 -1600 000/00 RMK AO2 T00001011
03949KAQV AQV20190402062011204/02/19 06:20:31  5-MIN KAQV 021220Z AUTO 00000KT 6SM BR CLR 00/M01 A3021 110 92 -1600 000/00 RMK AO2 T00001011
03949KAQV AQV20190402062511204/02/19 06:25:31  5-MIN KAQV 021225Z AUTO 00000KT 6SM BR CLR 00/M01 A3020 110 92 -1600 000/00 RMK AO2 T00001011
03949KAQV AQV20190402063010904/02/19 06:30:31  5-MIN KAQV 021230Z AUTO 00000KT 7SM CLR 00/M01 A3020 110 92 -1600 000/00 RMK AO2 T00001011
03949KAQV AQV20190402063510904/02/19 06:35:31  5-MIN KAQV 021235Z AUTO 00000KT 7SM CLR 00/M01 A3020 110 92 -1600 000/00 RMK AO2 T00001011
03949KAQV AQV20190402064010904/02/19 06:40:31  5-MIN KAQV 021240Z AUTO 00000KT 7SM CLR 00/M01 A3021 110 96 -1600 000/00 RMK AO2 T00001006
03949KAQV AQV20190402064510904/02/19 06:45:31  5-MIN KAQV 021245Z AUTO 00000KT 7SM CLR 00/M01 A3021 110 96 -1600 000/00 RMK AO2 T00001006
03949KAQV AQV20190402065011604/02/19 06:50:31  5-MIN KAQV 021250Z AUTO 00000KT 7SM CLR 01/M01 A3021 110 92 -1500 000/00 RMK AO2 SLP232 T00061006
03949KAQV AQV20190402065511604/02/19 06:55:31  5-MIN KAQV 021255Z AUTO 00000KT 7SM CLR 01/M01 A3021 110 92 -1500 000/00 RMK AO2 SLP231 T00061006
03949KAQV AQV20190402070010804/02/19 07:00:31  5-MIN KAQV 021300Z AUTO 00000KT 7SM CLR 01/00 A3020 120 92 -1500 000/00 RMK AO2 T00110000
03949KAQV AQV20190402070510804/02/19 07:05:31  5-MIN KAQV 021305Z AUTO 00000KT 9SM CLR 02/01 A3021 110 92 -1300 000/00 RMK AO2 T00220011
03949KAQV AQV20190402071010804/02/19 07:10:31  5-MIN KAQV 021310Z AUTO 00000KT 9SM CLR 03/02 A3021 110 96 -1300 000/00 RMK AO2 T00280022
03949KAQV AQV20190402071510904/02/19 07:15:31  5-MIN KAQV 021315Z AUTO 00000KT 8SM CLR 03/03 A3021 110 100 -1300 000/00 RMK AO2 T00280028
03949KAQV AQV20190402072010804/02/19 07:20:31  5-MIN KAQV 021320Z AUTO 00000KT 7SM CLR 04/04 A3021 110 96 -1100 000/00 RMK AO2 T00440039
03949KAQV AQV20190402072510804/02/19 07:25:31  5-MIN KAQV 021325Z AUTO 00000KT 8SM CLR 05/04 A3021 110 96 -1000 000/00 RMK AO2 T00500044
03949KAQV AQV20190402073010804/02/19 07:30:31  5-MIN KAQV 021330Z AUTO 00000KT 10SM CLR 06/04 A3021 110 89 -800 000/00 RMK AO2 T00610044
03949KAQV AQV20190402073510804/02/19 07:35:31  5-MIN KAQV 021335Z AUTO 00000KT 10SM CLR 07/04 A3021 110 82 -700 000/00 RMK AO2 T00720044
03949KAQV AQV20190402074010804/02/19 07:40:31  5-MIN KAQV 021340Z AUTO 03003KT 10SM CLR 08/04 A3021 110 79 -600 030/03 RMK AO2 T00780044
03949KAQV AQV20190402074510804/02/19 07:45:31  5-MIN KAQV 021345Z AUTO 00000KT 10SM CLR 08/04 A3022 100 76 -700 000/00 RMK AO2 T00780039
03949KAQV AQV20190402075011504/02/19 07:50:31  5-MIN KAQV 021350Z AUTO 00000KT 10SM CLR 08/04 A3022 100 73 -600 000/00 RMK AO2 SLP233 T00830039
03949KAQV AQV20190402075511504/02/19 07:55:31  5-MIN KAQV 021355Z AUTO 00000KT 10SM CLR 08/04 A3022 100 73 -600 000/00 RMK AO2 SLP233 T00830039
03949KAQV AQV20190402080010804/02/19 08:00:31  5-MIN KAQV 021400Z AUTO 00000KT 10SM CLR 09/04 A3022 100 71 -500 000/00 RMK AO2 T00890039
03949KAQV AQV20190402080510804/02/19 08:05:31  5-MIN KAQV 021405Z AUTO 00000KT 10SM CLR 09/03 A3022 100 65 -500 000/00 RMK AO2 T00940033
03949KAQV AQV20190402081010804/02/19 08:10:31  5-MIN KAQV 021410Z AUTO 04003KT 10SM CLR 09/03 A3022 100 65 -500 040/03 RMK AO2 T00940033
03949KAQV AQV20190402081510804/02/19 08:15:31  5-MIN KAQV 021415Z AUTO 00000KT 10SM CLR 09/03 A3022 100 65 -500 000/00 RMK AO2 T00940033
03949KAQV AQV20190402082010804/02/19 08:20:31  5-MIN KAQV 021420Z AUTO 03003KT 10SM CLR 09/03 A3022 100 65 -500 030/03 RMK AO2 T00940033
03949KAQV AQV20190402082510804/02/19 08:25:31  5-MIN KAQV 021425Z AUTO 00000KT 10SM CLR 11/03 A3022 100 61 -300 000/00 RMK AO2 T01060033
03949KAQV AQV20190402083010804/02/19 08:30:31  5-MIN KAQV 021430Z AUTO 00000KT 10SM CLR 10/03 A3022 100 60 -400 000/00 RMK AO2 T01000028
03949KAQV AQV20190402083510804/02/19 08:35:31  5-MIN KAQV 021435Z AUTO 00000KT 10SM CLR 11/03 A3022 100 61 -300 000/00 RMK AO2 T01060033
03949KAQV AQV20190402084010804/02/19 08:40:31  5-MIN KAQV 021440Z AUTO 00000KT 10SM CLR 11/03 A3022 100 58 -300 000/00 RMK AO2 T01060028
03949KAQV AQV20190402084510804/02/19 08:45:31  5-MIN KAQV 021445Z AUTO 00000KT 10SM CLR 11/03 A3022 100 56 -300 000/00 RMK AO2 T01110028
03949KAQV AQV20190402085012004/02/19 08:50:31  5-MIN KAQV 021450Z AUTO 02003KT 10SM CLR 12/02 A3023 90 52 -200 020/03 RMK AO2 SLP237 T01170022 55000
03949KAQV AQV20190402085512004/02/19 08:55:31  5-MIN KAQV 021455Z AUTO 00000KT 10SM CLR 12/02 A3023 90 52 -200 000/00 RMK AO2 SLP238 T01170022 55000
03949KAQV AQV20190402090010704/02/19 09:00:31  5-MIN KAQV 021500Z AUTO VRB04KT 10SM CLR 12/02 A3023 90 50 -100 VRB/04 RMK AO2 T01220022
03949KAQV AQV20190402090510704/02/19 09:05:31  5-MIN KAQV 021505Z AUTO 00000KT 10SM CLR 13/02 A3023 90 46 -100 000/00 RMK AO2 T01280017
03949KAQV AQV20190402091010704/02/19 09:10:31  5-MIN KAQV 021510Z AUTO VRB03KT 10SM CLR 12/02 A3024 90 50 -200 VRB/03 RMK AO2 T01170017
03949KAQV AQV20190402091510704/02/19 09:15:31  5-MIN KAQV 021515Z AUTO VRB03KT 10SM CLR 12/02 A3024 80 48 -100 VRB/03 RMK AO2 T01220017
03949KAQV AQV20190402092010704/02/19 09:20:31  5-MIN KAQV 021520Z AUTO 00000KT 10SM CLR 12/02 A3024 80 48 -100 000/00 RMK AO2 T01220017
03949KAQV AQV20190402092510404/02/19 09:25:31  5-MIN KAQV 021525Z AUTO 00000KT 10SM CLR 13/01 A3024 80 41 0 000/00 RMK AO2 T01330006
03949KAQV AQV20190402093009404/02/19 09:30:31  5-MIN KAQV 021530Z AUTO 10SM CLR 14/00 A3024 80 38 0 M /M RMK AO2 T01390000
03949KAQV AQV20190402093510504/02/19 09:35:31  5-MIN KAQV 021535Z AUTO VRB04KT 10SM CLR 14/M01 A3024 90 37 0 VRB/04 RMK AO2 T01391006
03949KAQV AQV20190402094010404/02/19 09:40:31  5-MIN KAQV 021540Z AUTO VRB03KT 10SM CLR 14/01 A3024 90 40 0 VRB/03 RMK AO2 T01390006
03949KAQV AQV20190402094509604/02/19 09:45:31  5-MIN KAQV 021545Z AUTO 10SM CLR 14/00 A3024 80 37 100 M /M RMK AO2 T01440000
03949KAQV AQV20190402095011404/02/19 09:50:31  5-MIN KAQV 021550Z AUTO VRB04KT 10SM CLR 14/M01 A3024 80 35 100 VRB/04 RMK AO2 SLP241 T01441006
03949KAQV AQV20190402095511304/02/19 09:55:31  5-MIN KAQV 021555Z AUTO VRB05KT 10SM CLR 15/00 A3024 80 35 100 VRB/05 RMK AO2 SLP240 T01500000
03949KAQV AQV20190402100010604/02/19 10:00:31  5-MIN KAQV 021600Z AUTO VRB03KT 10SM CLR 15/00 A3023 90 35 100 VRB/03 RMK AO2 T01500000
03949KAQV AQV20190402100510604/02/19 10:05:31  5-MIN KAQV 021605Z AUTO 00000KT 10SM CLR 14/00 A3024 90 37 100 000/00 RMK AO2 T01440000
03949KAQV AQV20190402101010604/02/19 10:10:31  5-MIN KAQV 021610Z AUTO 06005KT 10SM CLR 15/00 A3024 90 35 100 050/05 RMK AO2 T01500000
03949KAQV AQV20190402101510704/02/19 10:15:31  5-MIN KAQV 021615Z AUTO VRB04KT 10SM CLR 15/M01 A3024 80 33 100 VRB/04 RMK AO2 T01501011
03949KAQV AQV20190402102010704/02/19 10:20:31  5-MIN KAQV 021620Z AUTO VRB03KT 10SM CLR 15/M01 A3024 80 34 100 VRB/03 RMK AO2 T01501006
03949KAQV AQV20190402102509704/02/19 10:25:31  5-MIN KAQV 021625Z AUTO 10SM CLR 16/M01 A3024 80 31 200 M /M RMK AO2 T01561011
03949KAQV AQV20190402103010704/02/19 10:30:31  5-MIN KAQV 021630Z AUTO 13003KT 10SM CLR 15/M02 A3024 80 31 100 130/03 RMK AO2 T01501017
03949KAQV AQV20190402103510704/02/19 10:35:31  5-MIN KAQV 021635Z AUTO VRB04KT 10SM CLR 15/M01 A3024 80 33 100 VRB/04 RMK AO2 T01501011
03949KAQV AQV20190402104009704/02/19 10:40:31  5-MIN KAQV 021640Z AUTO 10SM CLR 15/M01 A3024 80 34 100 M /M RMK AO2 T01501006
03949KAQV AQV20190402104510704/02/19 10:45:31  5-MIN KAQV 021645Z AUTO VRB04KT 10SM CLR 16/M01 A3024 80 33 200 VRB/04 RMK AO2 T01561006
03949KAQV AQV20190402105011404/02/19 10:50:31  5-MIN KAQV 021650Z AUTO VRB03KT 10SM CLR 15/M01 A3024 90 34 100 VRB/03 RMK AO2 SLP240 T01501006
03949KAQV AQV20190402105511304/02/19 10:55:31  5-MIN KAQV 021655Z AUTO 00000KT 10SM CLR 16/00 A3023 90 34 200 000/00 RMK AO2 SLP240 T01560000
03949KAQV AQV20190402110010604/02/19 11:00:31  5-MIN KAQV 021700Z AUTO 00000KT 10SM CLR 16/00 A3023 90 34 200 000/00 RMK AO2 T01560000
03949KAQV AQV20190402110510604/02/19 11:05:31  5-MIN KAQV 021705Z AUTO 28003KT 10SM CLR 17/00 A3023 90 32 300 280/03 RMK AO2 T01670000
03949KAQV AQV20190402111010604/02/19 11:10:31  5-MIN KAQV 021710Z AUTO 02004KT 10SM CLR 17/00 A3023 90 32 300 010/04 RMK AO2 T01670000
03949KAQV AQV20190402111510604/02/19 11:15:31  5-MIN KAQV 021715Z AUTO 36005KT 10SM CLR 17/00 A3023 90 31 400 350/05 RMK AO2 T01720000
03949KAQV AQV20190402112010604/02/19 11:20:31  5-MIN KAQV 021720Z AUTO 30005KT 10SM CLR 17/00 A3023 90 31 400 290/05 RMK AO2 T01720000
03949KAQV AQV20190402112510604/02/19 11:25:31  5-MIN KAQV 021725Z AUTO 00000KT 10SM CLR 17/00 A3023 90 31 400 000/00 RMK AO2 T01720000
03949KAQV AQV20190402113010604/02/19 11:30:31  5-MIN KAQV 021730Z AUTO VRB03KT 10SM CLR 17/00 A3023 90 31 400 VRB/03 RMK AO2 T01720000
03949KAQV AQV20190402113510804/02/19 11:35:31  5-MIN KAQV 021735Z AUTO VRB04KT 10SM CLR 17/M01 A3023 100 28 400 VRB/04 RMK AO2 T01721011
03949KAQV AQV20190402114010804/02/19 11:40:31  5-MIN KAQV 021740Z AUTO VRB03KT 10SM CLR 17/M01 A3022 100 29 400 VRB/03 RMK AO2 T01671011
03949KAQV AQV20190402114510804/02/19 11:45:31  5-MIN KAQV 021745Z AUTO VRB03KT 10SM CLR 17/M01 A3023 100 28 400 VRB/03 RMK AO2 T01721011
03949KAQV AQV20190402115013304/02/19 11:50:31  5-MIN KAQV 021750Z AUTO 00000KT 10SM CLR 17/M01 A3022 100 29 400 000/00 RMK AO2 SLP235 T01721006 10172 21006 53010
03949KAQV AQV20190402115513304/02/19 11:55:31  5-MIN KAQV 021755Z AUTO VRB04KT 10SM CLR 18/M01 A3022 100 28 500 VRB/04 RMK AO2 SLP234 T01781006 10183 21006 53010
03949KAQV AQV20190402120010804/02/19 12:00:31  5-MIN KAQV 021800Z AUTO VRB03KT 10SM CLR 18/M01 A3022 100 27 600 VRB/03 RMK AO2 T01831006
03949KAQV AQV20190402120510804/02/19 12:05:31  5-MIN KAQV 021805Z AUTO VRB03KT 10SM CLR 18/M01 A3022 100 27 600 VRB/03 RMK AO2 T01831006
03949KAQV AQV20190402121010804/02/19 12:10:31  5-MIN KAQV 021810Z AUTO 03006KT 10SM CLR 18/M01 A3022 100 26 600 030/06 RMK AO2 T01831011
03949KAQV AQV20190402121510804/02/19 12:15:31  5-MIN KAQV 021815Z AUTO VRB04KT 10SM CLR 18/M02 A3022 100 25 600 VRB/04 RMK AO2 T01831017
03949KAQV AQV20190402122010804/02/19 12:20:31  5-MIN KAQV 021820Z AUTO VRB03KT 10SM CLR 18/M01 A3022 100 26 600 VRB/03 RMK AO2 T01831011
03949KAQV AQV20190402122510804/02/19 12:25:31  5-MIN KAQV 021825Z AUTO 36005KT 10SM CLR 18/M01 A3022 100 26 600 360/05 RMK AO2 T01831011
03949KAQV AQV20190402123010804/02/19 12:30:31  5-MIN KAQV 021830Z AUTO VRB04KT 10SM CLR 18/M02 A3021 100 26 500 VRB/04 RMK AO2 T01781017
03949KAQV AQV20190402123510804/02/19 12:35:31  5-MIN KAQV 021835Z AUTO VRB03KT 10SM CLR 18/M02 A3021 110 25 600 VRB/03 RMK AO2 T01831017
03949KAQV AQV20190402124010804/02/19 12:40:31  5-MIN KAQV 021840Z AUTO VRB06KT 10SM CLR 19/M02 A3021 110 24 600 VRB/06 RMK AO2 T01891017
03949KAQV AQV20190402124510804/02/19 12:45:31  5-MIN KAQV 021845Z AUTO 02006KT 10SM CLR 19/M01 A3021 110 26 700 010/06 RMK AO2 T01941006
03949KAQV AQV20190402125011504/02/19 12:50:31  5-MIN KAQV 021850Z AUTO 00000KT 10SM CLR 19/M01 A3020 110 25 600 000/00 RMK AO2 SLP228 T01891011
03949KAQV AQV20190402125511504/02/19 12:55:31  5-MIN KAQV 021855Z AUTO 00000KT 10SM CLR 18/M01 A3020 120 26 600 000/00 RMK AO2 SLP227 T01831011
03949KAQV AQV20190402130010804/02/19 13:00:31  5-MIN KAQV 021900Z AUTO VRB04KT 10SM CLR 19/M02 A3019 120 24 600 VRB/04 RMK AO2 T01891017
03949KAQV AQV20190402130510804/02/19 13:05:31  5-MIN KAQV 021905Z AUTO 00000KT 10SM CLR 19/M01 A3019 130 25 700 000/00 RMK AO2 T01891011
03949KAQV AQV20190402131010804/02/19 13:10:31  5-MIN KAQV 021910Z AUTO VRB06KT 10SM CLR 20/M01 A3019 130 25 800 VRB/06 RMK AO2 T02001006
03949KAQV AQV20190402131510804/02/19 13:15:31  5-MIN KAQV 021915Z AUTO 02007KT 10SM CLR 20/M01 A3019 130 24 800 010/07 RMK AO2 T02001011
03949KAQV AQV20190402132010804/02/19 13:20:31  5-MIN KAQV 021920Z AUTO 35005KT 10SM CLR 19/M02 A3019 130 24 700 340/05 RMK AO2 T01941017
03949KAQV AQV20190402132510804/02/19 13:25:31  5-MIN KAQV 021925Z AUTO VRB04KT 10SM CLR 19/M02 A3019 130 24 700 VRB/04 RMK AO2 T01941017
03949KAQV AQV20190402133010804/02/19 13:30:31  5-MIN KAQV 021930Z AUTO 04004KT 10SM CLR 20/M02 A3018 130 23 800 030/04 RMK AO2 T02001017
03949KAQV AQV20190402133510804/02/19 13:35:31  5-MIN KAQV 021935Z AUTO 05005KT 10SM CLR 20/M02 A3018 130 23 800 050/05 RMK AO2 T02001017
03949KAQV AQV20190402134010804/02/19 13:40:31  5-MIN KAQV 021940Z AUTO VRB03KT 10SM CLR 20/M02 A3018 140 23 800 VRB/03 RMK AO2 T02001017
03949KAQV AQV20190402134510804/02/19 13:45:31  5-MIN KAQV 021945Z AUTO 04005KT 10SM CLR 21/M02 A3018 140 22 900 030/05 RMK AO2 T02061017
03949KAQV AQV20190402135011504/02/19 13:50:31  5-MIN KAQV 021950Z AUTO VRB05KT 10SM CLR 20/M02 A3018 140 23 800 VRB/05 RMK AO2 SLP220 T02001017
03949KAQV AQV20190402135511504/02/19 13:55:31  5-MIN KAQV 021955Z AUTO 02007KT 10SM CLR 20/M02 A3018 140 23 800 020/07 RMK AO2 SLP219 T02001017
03949KAQV AQV20190402140010804/02/19 14:00:31  5-MIN KAQV 022000Z AUTO VRB03KT 10SM CLR 19/M02 A3017 150 23 700 VRB/03 RMK AO2 T01941022
03949KAQV AQV20190402140510804/02/19 14:05:31  5-MIN KAQV 022005Z AUTO VRB03KT 10SM CLR 21/M01 A3017 150 22 900 VRB/03 RMK AO2 T02111011
03949KAQV AQV20190402141010804/02/19 14:10:31  5-MIN KAQV 022010Z AUTO VRB05KT 10SM CLR 21/M01 A3017 150 22 900 VRB/05 RMK AO2 T02111011
03949KAQV AQV20190402141510804/02/19 14:15:31  5-MIN KAQV 022015Z AUTO VRB05KT 10SM CLR 20/M02 A3016 150 23 800 VRB/05 RMK AO2 T02001017
03949KAQV AQV20190402142010804/02/19 14:20:31  5-MIN KAQV 022020Z AUTO 00000KT 10SM CLR 20/M02 A3016 150 23 800 000/00 RMK AO2 T02001017
03949KAQV AQV20190402142510804/02/19 14:25:31  5-MIN KAQV 022025Z AUTO 00000KT 10SM CLR 20/M02 A3016 150 23 800 000/00 RMK AO2 T02001017
03949KAQV AQV20190402143010804/02/19 14:30:31  5-MIN KAQV 022030Z AUTO 00000KT 10SM CLR 19/M02 A3016 150 24 800 000/00 RMK AO2 T01941017
03949KAQV AQV20190402143510804/02/19 14:35:31  5-MIN KAQV 022035Z AUTO VRB04KT 10SM CLR 19/M02 A3016 150 24 800 VRB/04 RMK AO2 T01941017
03949KAQV AQV20190402144010804/02/19 14:40:31  5-MIN KAQV 022040Z AUTO 35004KT 10SM CLR 21/M02 A3016 160 22 900 340/04 RMK AO2 T02061017
03949KAQV AQV20190402144510804/02/19 14:45:31  5-MIN KAQV 022045Z AUTO 05005KT 10SM CLR 21/M02 A3016 160 22 900 040/05 RMK AO2 T02061017
03949KAQV AQV20190402145012104/02/19 14:50:31  5-MIN KAQV 022050Z AUTO 00000KT 10SM CLR 21/M02 A3016 160 22 900 000/00 RMK AO2 SLP213 T02061017 58003
03949KAQV AQV20190402145512104/02/19 14:55:31  5-MIN KAQV 022055Z AUTO VRB04KT 10SM CLR 20/M02 A3016 160 23 800 VRB/04 RMK AO2 SLP212 T02001017 58003
03949KAQV AQV20190402150010804/02/19 15:00:31  5-MIN KAQV 022100Z AUTO 00000KT 10SM CLR 20/M02 A3015 160 23 800 000/00 RMK AO2 T02001017
03949KAQV AQV20190402150510804/02/19 15:05:31  5-MIN KAQV 022105Z AUTO 00000KT 10SM CLR 20/M01 A3015 160 24 800 000/00 RMK AO2 T02001011
03949KAQV AQV20190402151010804/02/19 15:10:31  5-MIN KAQV 022110Z AUTO VRB05KT 10SM CLR 21/M01 A3015 160 23 900 VRB/05 RMK AO2 T02061011
03949KAQV AQV20190402151510804/02/19 15:15:31  5-MIN KAQV 022115Z AUTO VRB04KT 10SM CLR 20/M02 A3015 160 23 800 VRB/04 RMK AO2 T02001017
03949KAQV AQV20190402152010804/02/19 15:20:31  5-MIN KAQV 022120Z AUTO VRB03KT 10SM CLR 20/M02 A3015 160 23 800 VRB/03 RMK AO2 T02001017
03949KAQV AQV20190402152510804/02/19 15:25:31  5-MIN KAQV 022125Z AUTO 00000KT 10SM CLR 20/M02 A3015 160 23 800 000/00 RMK AO2 T02001017
03949KAQV AQV20190402153009804/02/19 15:30:31  5-MIN KAQV 022130Z AUTO 10SM CLR 21/M01 A3015 170 23 900 M /M RMK AO2 T02061011
03949KAQV AQV20190402153510804/02/19 15:35:31  5-MIN KAQV 022135Z AUTO 03004KT 10SM CLR 21/M01 A3014 170 23 900 030/04 RMK AO2 T02061011
03949KAQV AQV20190402154010804/02/19 15:40:31  5-MIN KAQV 022140Z AUTO VRB04KT 10SM CLR 21/00 A3014 170 24 1000 VRB/04 RMK AO2 T02110000
03949KAQV AQV20190402154510804/02/19 15:45:31  5-MIN KAQV 022145Z AUTO VRB04KT 10SM CLR 21/M02 A3014 170 22 900 VRB/04 RMK AO2 T02061017
03949KAQV AQV20190402155011504/02/19 15:50:31  5-MIN KAQV 022150Z AUTO VRB03KT 10SM CLR 21/M01 A3014 170 23 900 VRB/03 RMK AO2 SLP208 T02061011
03949KAQV AQV20190402155511504/02/19 15:55:31  5-MIN KAQV 022155Z AUTO 00000KT 10SM CLR 20/M01 A3014 170 24 800 000/00 RMK AO2 SLP207 T02001011
03949KAQV AQV20190402160010904/02/19 16:00:31  5-MIN KAQV 022200Z AUTO VRB06KT 10SM CLR 21/M01 A3014 170 23 1000 VRB/06 RMK AO2 T02111006
03949KAQV AQV20190402160510804/02/19 16:05:31  5-MIN KAQV 022205Z AUTO 07004KT 10SM CLR 20/M01 A3014 170 24 800 060/04 RMK AO2 T02001011
03949KAQV AQV20190402161009804/02/19 16:10:31  5-MIN KAQV 022210Z AUTO 10SM CLR 20/M01 A3014 180 25 800 M /M RMK AO2 T02001006
03949KAQV AQV20190402161510804/02/19 16:15:31  5-MIN KAQV 022215Z AUTO 03004KT 10SM CLR 20/M01 A3014 180 25 800 030/04 RMK AO2 T02001006
03949KAQV AQV20190402162010804/02/19 16:20:31  5-MIN KAQV 022220Z AUTO VRB04KT 10SM CLR 20/M01 A3013 180 25 800 VRB/04 RMK AO2 T02001006
03949KAQV AQV20190402162510704/02/19 16:25:31  5-MIN KAQV 022225Z AUTO 05005KT 10SM CLR 20/00 A3013 180 26 800 050/05 RMK AO2 T02000000
03949KAQV AQV20190402163010804/02/19 16:30:31  5-MIN KAQV 022230Z AUTO VRB03KT 10SM CLR 20/M01 A3013 180 25 800 VRB/03 RMK AO2 T02001006
03949KAQV AQV20190402163510704/02/19 16:35:31  5-MIN KAQV 022235Z AUTO VRB04KT 10SM CLR 21/00 A3013 180 25 900 VRB/04 RMK AO2 T02060000
03949KAQV AQV20190402164010804/02/19 16:40:31  5-MIN KAQV 022240Z AUTO VRB05KT 10SM CLR 20/M01 A3013 180 25 800 VRB/05 RMK AO2 T02001006
03949KAQV AQV20190402164510804/02/19 16:45:31  5-MIN KAQV 022245Z AUTO 02004KT 10SM CLR 21/M01 A3014 180 24 900 020/04 RMK AO2 T02061006
03949KAQV AQV20190402165011504/02/19 16:50:31  5-MIN KAQV 022250Z AUTO VRB05KT 10SM CLR 20/M01 A3014 180 25 800 VRB/05 RMK AO2 SLP205 T02001006
03949KAQV AQV20190402165511504/02/19 16:55:31  5-MIN KAQV 022255Z AUTO 07003KT 10SM CLR 19/M01 A3014 170 25 800 060/03 RMK AO2 SLP207 T01941011
03949KAQV AQV20190402170010804/02/19 17:00:31  5-MIN KAQV 022300Z AUTO 01004KT 10SM CLR 20/M01 A3014 170 25 800 360/04 RMK AO2 T02001006
03949KAQV AQV20190402170510804/02/19 17:05:31  5-MIN KAQV 022305Z AUTO 01004KT 10SM CLR 20/M01 A3014 170 25 800 360/04 RMK AO2 T02001006
03949KAQV AQV20190402171010804/02/19 17:10:31  5-MIN KAQV 022310Z AUTO 35003KT 10SM CLR 19/M01 A3014 170 25 800 350/03 RMK AO2 T01941011
03949KAQV AQV20190402171510804/02/19 17:15:31  5-MIN KAQV 022315Z AUTO 36003KT 10SM CLR 19/M01 A3014 170 26 800 360/03 RMK AO2 T01941006
03949KAQV AQV20190402172010804/02/19 17:20:31  5-MIN KAQV 022320Z AUTO 35003KT 10SM CLR 19/M01 A3014 170 26 800 350/03 RMK AO2 T01941006
03949KAQV AQV20190402172510804/02/19 17:25:31  5-MIN KAQV 022325Z AUTO 00000KT 10SM CLR 19/M01 A3014 170 26 800 000/00 RMK AO2 T01941006
03949KAQV AQV20190402173010704/02/19 17:30:31  5-MIN KAQV 022330Z AUTO 03005KT 10SM CLR 19/00 A3014 170 27 800 020/05 RMK AO2 T01940000
03949KAQV AQV20190402173510704/02/19 17:35:31  5-MIN KAQV 022335Z AUTO 04004KT 10SM CLR 19/00 A3014 170 28 700 040/04 RMK AO2 T01890000
03949KAQV AQV20190402174010704/02/19 17:40:31  5-MIN KAQV 022340Z AUTO 04005KT 10SM CLR 18/00 A3014 180 29 600 040/05 RMK AO2 T01830000
03949KAQV AQV20190402174510704/02/19 17:45:31  5-MIN KAQV 022345Z AUTO 04004KT 10SM CLR 18/01 A3014 180 30 600 040/04 RMK AO2 T01830006
03949KAQV AQV20190402175013204/02/19 17:50:31  5-MIN KAQV 022350Z AUTO 03005KT 10SM CLR 18/01 A3014 170 31 600 030/05 RMK AO2 SLP208 T01780006 10211 20178 56022
03949KAQV AQV20190402175513204/02/19 17:55:31  5-MIN KAQV 022355Z AUTO VRB03KT 10SM CLR 18/01 A3014 170 32 600 VRB/03 RMK AO2 SLP209 T01780011 10211 20178 56022
03949KAQV AQV20190402180010704/02/19 18:00:31  5-MIN KAQV 030000Z AUTO 03003KT 10SM CLR 17/01 A3014 170 33 500 030/03 RMK AO2 T01720011
03949KAQV AQV20190402180510704/02/19 18:05:31  5-MIN KAQV 030005Z AUTO 03003KT 10SM CLR 17/01 A3014 170 33 500 030/03 RMK AO2 T01720011
03949KAQV AQV20190402181010704/02/19 18:10:31  5-MIN KAQV 030010Z AUTO 04003KT 10SM CLR 17/01 A3015 170 34 400 040/03 RMK AO2 T01670011
03949KAQV AQV20190402181510704/02/19 18:15:31  5-MIN KAQV 030015Z AUTO 00000KT 10SM CLR 17/02 A3015 170 36 400 000/00 RMK AO2 T01670017
03949KAQV AQV20190402182010704/02/19 18:20:31  5-MIN KAQV 030020Z AUTO 03003KT 10SM CLR 16/02 A3015 170 40 300 030/03 RMK AO2 T01560022
03949KAQV AQV20190402182510704/02/19 18:25:31  5-MIN KAQV 030025Z AUTO 00000KT 10SM CLR 15/03 A3014 170 43 300 000/00 RMK AO2 T01500028
03949KAQV AQV20190402183010704/02/19 18:30:31  5-MIN KAQV 030030Z AUTO 00000KT 10SM CLR 14/03 A3014 170 48 100 000/00 RMK AO2 T01390033
03949KAQV AQV20190402183510704/02/19 18:35:31  5-MIN KAQV 030035Z AUTO 00000KT 10SM CLR 13/04 A3014 170 52 100 000/00 RMK AO2 T01330039
03949KAQV AQV20190402184010704/02/19 18:40:31  5-MIN KAQV 030040Z AUTO 00000KT 10SM CLR 13/03 A3015 170 50 100 000/00 RMK AO2 T01330033
03949KAQV AQV20190402184510504/02/19 18:45:31  5-MIN KAQV 030045Z AUTO 00000KT 10SM CLR 13/04 A3014 170 56 0 000/00 RMK AO2 T01280044
03949KAQV AQV20190402185011204/02/19 18:50:31  5-MIN KAQV 030050Z AUTO 00000KT 10SM CLR 12/04 A3014 170 59 0 000/00 RMK AO2 SLP209 T01220044
03949KAQV AQV20190402185511204/02/19 18:55:31  5-MIN KAQV 030055Z AUTO 00000KT 10SM CLR 12/03 A3015 170 52 0 000/00 RMK AO2 SLP210 T01220028
03949KAQV AQV20190402190010804/02/19 19:00:31  5-MIN KAQV 030100Z AUTO 00000KT 10SM CLR 12/03 A3015 170 56 -100 000/00 RMK AO2 T01170033
03949KAQV AQV20190402190510804/02/19 19:05:31  5-MIN KAQV 030105Z AUTO 00000KT 10SM CLR 11/03 A3015 170 58 -200 000/00 RMK AO2 T01110033
03949KAQV AQV20190402191010804/02/19 19:10:31  5-MIN KAQV 030110Z AUTO 00000KT 10SM CLR 11/04 A3015 170 63 -200 000/00 RMK AO2 T01110044
03949KAQV AQV20190402191510804/02/19 19:15:31  5-MIN KAQV 030115Z AUTO 00000KT 10SM CLR 11/04 A3015 170 63 -200 000/00 RMK AO2 T01110044
03949KAQV AQV20190402192010804/02/19 19:20:31  5-MIN KAQV 030120Z AUTO 00000KT 10SM CLR 11/04 A3015 170 63 -200 000/00 RMK AO2 T01060039
03949KAQV AQV20190402192510804/02/19 19:25:31  5-MIN KAQV 030125Z AUTO 00000KT 10SM CLR 11/04 A3015 170 66 -200 000/00 RMK AO2 T01060044
03949KAQV AQV20190402193010804/02/19 19:30:31  5-MIN KAQV 030130Z AUTO 00000KT 10SM CLR 10/04 A3015 170 65 -300 000/00 RMK AO2 T01000039
03949KAQV AQV20190402193510804/02/19 19:35:31  5-MIN KAQV 030135Z AUTO 00000KT 10SM CLR 10/03 A3015 160 60 -300 000/00 RMK AO2 T01000028
03949KAQV AQV20190402194010804/02/19 19:40:31  5-MIN KAQV 030140Z AUTO 00000KT 10SM CLR 09/04 A3015 160 68 -400 000/00 RMK AO2 T00940039
03949KAQV AQV20190402194510804/02/19 19:45:31  5-MIN KAQV 030145Z AUTO 00000KT 10SM CLR 09/03 A3016 160 65 -400 000/00 RMK AO2 T00940033
03949KAQV AQV20190402195011504/02/19 19:50:31  5-MIN KAQV 030150Z AUTO 00000KT 10SM CLR 09/03 A3016 160 63 -400 000/00 RMK AO2 SLP214 T00940028
03949KAQV AQV20190402195511504/02/19 19:55:31  5-MIN KAQV 030155Z AUTO 00000KT 10SM CLR 09/03 A3016 160 65 -400 000/00 RMK AO2 SLP214 T00940033
03949KAQV AQV20190402200010804/02/19 20:00:31  5-MIN KAQV 030200Z AUTO 00000KT 10SM CLR 09/03 A3016 160 65 -400 000/00 RMK AO2 T00940033
03949KAQV AQV20190402200510804/02/19 20:05:31  5-MIN KAQV 030205Z AUTO 00000KT 10SM CLR 09/03 A3016 150 68 -500 000/00 RMK AO2 T00890033
03949KAQV AQV20190402201010804/02/19 20:10:31  5-MIN KAQV 030210Z AUTO 00000KT 10SM CLR 09/04 A3016 150 71 -500 000/00 RMK AO2 T00890039
03949KAQV AQV20190402201510804/02/19 20:15:31  5-MIN KAQV 030215Z AUTO 00000KT 10SM CLR 09/04 A3017 150 73 -500 000/00 RMK AO2 T00890044
03949KAQV AQV20190402202010804/02/19 20:20:31  5-MIN KAQV 030220Z AUTO 00000KT 10SM CLR 08/04 A3017 150 73 -500 000/00 RMK AO2 T00830039
03949KAQV AQV20190402202510804/02/19 20:25:31  5-MIN KAQV 030225Z AUTO 00000KT 10SM CLR 08/04 A3017 150 73 -500 000/00 RMK AO2 T00830039
03949KAQV AQV20190402203010804/02/19 20:30:31  5-MIN KAQV 030230Z AUTO 00000KT 10SM CLR 08/04 A3017 150 76 -500 000/00 RMK AO2 T00830044
03949KAQV AQV20190402203510804/02/19 20:35:31  5-MIN KAQV 030235Z AUTO 00000KT 10SM CLR 08/03 A3017 140 70 -500 000/00 RMK AO2 T00830033
03949KAQV AQV20190402204010804/02/19 20:40:31  5-MIN KAQV 030240Z AUTO 00000KT 10SM CLR 08/03 A3017 150 68 -500 000/00 RMK AO2 T00830028
03949KAQV AQV20190402204510804/02/19 20:45:31  5-MIN KAQV 030245Z AUTO 00000KT 10SM CLR 08/03 A3017 140 70 -500 000/00 RMK AO2 T00830033
03949KAQV AQV20190402205012104/02/19 20:50:31  5-MIN KAQV 030250Z AUTO 00000KT 10SM CLR 08/03 A3017 140 68 -500 000/00 RMK AO2 SLP218 T00830028 55004
03949KAQV AQV20190402205512104/02/19 20:55:31  5-MIN KAQV 030255Z AUTO 00000KT 10SM CLR 08/03 A3017 140 70 -600 000/00 RMK AO2 SLP218 T00780028 55004
03949KAQV AQV20190402210010804/02/19 21:00:31  5-MIN KAQV 030300Z AUTO 00000KT 10SM CLR 08/03 A3018 140 70 -600 000/00 RMK AO2 T00780028
03949KAQV AQV20190402210510804/02/19 21:05:31  5-MIN KAQV 030305Z AUTO 00000KT 10SM CLR 08/03 A3018 140 70 -600 000/00 RMK AO2 T00780028
03949KAQV AQV20190402211010804/02/19 21:10:31  5-MIN KAQV 030310Z AUTO 00000KT 10SM CLR 08/03 A3018 140 73 -600 000/00 RMK AO2 T00780033
03949KAQV AQV20190402211510804/02/19 21:15:31  5-MIN KAQV 030315Z AUTO 00000KT 10SM CLR 08/04 A3019 130 76 -600 000/00 RMK AO2 T00780039
03949KAQV AQV20190402212010804/02/19 21:20:31  5-MIN KAQV 030320Z AUTO 00000KT 10SM CLR 08/04 A3019 130 79 -600 000/00 RMK AO2 T00780044
03949KAQV AQV20190402212510804/02/19 21:25:31  5-MIN KAQV 030325Z AUTO 00000KT 10SM CLR 07/04 A3019 130 82 -700 000/00 RMK AO2 T00720044
03949KAQV AQV20190402213010804/02/19 21:30:31  5-MIN KAQV 030330Z AUTO 00000KT 10SM CLR 07/05 A3018 130 86 -700 000/00 RMK AO2 T00720050
03949KAQV AQV20190402213510804/02/19 21:35:31  5-MIN KAQV 030335Z AUTO 00000KT 10SM CLR 07/04 A3019 130 82 -700 000/00 RMK AO2 T00720044
03949KAQV AQV20190402214010804/02/19 21:40:31  5-MIN KAQV 030340Z AUTO 00000KT 10SM CLR 07/04 A3018 130 79 -700 000/00 RMK AO2 T00720039
03949KAQV AQV20190402214510804/02/19 21:45:31  5-MIN KAQV 030345Z AUTO 00000KT 10SM CLR 07/04 A3018 130 79 -700 000/00 RMK AO2 T00720039
03949KAQV AQV20190402215011504/02/19 21:50:31  5-MIN KAQV 030350Z AUTO 00000KT 10SM CLR 07/04 A3018 130 79 -700 000/00 RMK AO2 SLP222 T00720039
03949KAQV AQV20190402215511504/02/19 21:55:31  5-MIN KAQV 030355Z AUTO 00000KT 10SM CLR 07/04 A3018 130 79 -700 000/00 RMK AO2 SLP222 T00720039
03949KAQV AQV20190402220010804/02/19 22:00:31  5-MIN KAQV 030400Z AUTO 00000KT 10SM CLR 07/03 A3018 130 76 -700 000/00 RMK AO2 T00720033
03949KAQV AQV20190402220510804/02/19 22:05:31  5-MIN KAQV 030405Z AUTO 00000KT 10SM CLR 07/04 A3019 130 79 -700 000/00 RMK AO2 T00720039
03949KAQV AQV20190402221010804/02/19 22:10:31  5-MIN KAQV 030410Z AUTO 00000KT 10SM CLR 07/04 A3019 130 86 -800 000/00 RMK AO2 T00670044
03949KAQV AQV20190402221510804/02/19 22:15:31  5-MIN KAQV 030415Z AUTO 00000KT 10SM CLR 07/04 A3019 130 82 -800 000/00 RMK AO2 T00670039
03949KAQV AQV20190402222010804/02/19 22:20:31  5-MIN KAQV 030420Z AUTO 00000KT 10SM CLR 07/04 A3019 130 82 -800 000/00 RMK AO2 T00670039
03949KAQV AQV20190402222510804/02/19 22:25:31  5-MIN KAQV 030425Z AUTO 00000KT 10SM CLR 07/04 A3019 130 82 -800 000/00 RMK AO2 T00670039
03949KAQV AQV20190402223010804/02/19 22:30:31  5-MIN KAQV 030430Z AUTO 00000KT 10SM CLR 07/04 A3019 130 82 -800 000/00 RMK AO2 T00670039
03949KAQV AQV20190402223510804/02/19 22:35:31  5-MIN KAQV 030435Z AUTO 00000KT 10SM CLR 07/03 A3019 130 79 -800 000/00 RMK AO2 T00670033
03949KAQV AQV20190402224010804/02/19 22:40:31  5-MIN KAQV 030440Z AUTO 00000KT 10SM CLR 06/03 A3019 130 82 -800 000/00 RMK AO2 T00610033
03949KAQV AQV20190402224510804/02/19 22:45:31  5-MIN KAQV 030445Z AUTO 00000KT 10SM CLR 06/04 A3019 130 86 -800 000/00 RMK AO2 T00610039
03949KAQV AQV20190402225011504/02/19 22:50:31  5-MIN KAQV 030450Z AUTO 00000KT 10SM CLR 06/03 A3019 130 82 -800 000/00 RMK AO2 SLP224 T00610033
03949KAQV AQV20190402225511504/02/19 22:55:31  5-MIN KAQV 030455Z AUTO 00000KT 10SM CLR 06/03 A3019 130 82 -800 000/00 RMK AO2 SLP224 T00610033
03949KAQV AQV20190402230010804/02/19 23:00:31  5-MIN KAQV 030500Z AUTO 00000KT 10SM CLR 06/04 A3019 130 86 -800 000/00 RMK AO2 T00610039
03949KAQV AQV20190402230510804/02/19 23:05:31  5-MIN KAQV 030505Z AUTO 00000KT 10SM CLR 06/03 A3019 130 82 -800 000/00 RMK AO2 T00610033
03949KAQV AQV20190402231010804/02/19 23:10:31  5-MIN KAQV 030510Z AUTO 00000KT 10SM CLR 06/03 A3019 120 82 -800 000/00 RMK AO2 T00610033
03949KAQV AQV20190402231510804/02/19 23:15:31  5-MIN KAQV 030515Z AUTO 00000KT 10SM CLR 06/03 A3019 120 85 -900 000/00 RMK AO2 T00560033
03949KAQV AQV20190402232010804/02/19 23:20:31  5-MIN KAQV 030520Z AUTO 00000KT 10SM CLR 06/03 A3019 120 85 -900 000/00 RMK AO2 T00560033
03949KAQV AQV20190402232510804/02/19 23:25:31  5-MIN KAQV 030525Z AUTO 00000KT 10SM CLR 06/03 A3019 120 85 -900 000/00 RMK AO2 T00560033
03949KAQV AQV20190402233010804/02/19 23:30:31  5-MIN KAQV 030530Z AUTO 00000KT 10SM CLR 06/03 A3019 130 85 -900 000/00 RMK AO2 T00560033
03949KAQV AQV20190402233510804/02/19 23:35:31  5-MIN KAQV 030535Z AUTO 00000KT 10SM CLR 06/03 A3019 120 85 -900 000/00 RMK AO2 T00560033
03949KAQV AQV20190402234010804/02/19 23:40:31  5-MIN KAQV 030540Z AUTO 00000KT 10SM CLR 06/03 A3019 120 85 -900 000/00 RMK AO2 T00560033
03949KAQV AQV20190402234510804/02/19 23:45:31  5-MIN KAQV 030545Z AUTO 00000KT 10SM CLR 06/03 A3020 120 85 -900 000/00 RMK AO2 T00560033
03949KAQV AQV20190402235014304/02/19 23:50:31  5-MIN KAQV 030550Z AUTO 00000KT 10SM CLR 06/03 A3020 120 85 -900 000/00 RMK AO2 SLP226 T00560033 10178 20056 402111006 53010
03949KAQV AQV20190402235514304/02/19 23:55:31  5-MIN KAQV 030555Z AUTO 00000KT 10SM CLR 06/03 A3019 120 85 -900 000/00 RMK AO2 SLP225 T00560033 10178 20056 402111006 53010
03949KAQV AQV20190403000010904/03/19 00:00:31  5-MIN KAQV 030600Z AUTO 00000KT 10SM CLR 05/03 A3020 120 89 -1000 000/00 RMK AO2 T00500033
03949KAQV AQV20190403000510904/03/19 00:05:31  5-MIN KAQV 030605Z AUTO 00000KT 10SM CLR 05/03 A3020 120 89 -1000 000/00 RMK AO2 T00500033
03949KAQV AQV20190403001010904/03/19 00:10:31  5-MIN KAQV 030610Z AUTO 00000KT 10SM CLR 05/03 A3019 120 89 -1000 000/00 RMK AO2 T00500033
03949KAQV AQV20190403001510904/03/19 00:15:31  5-MIN KAQV 030615Z AUTO 00000KT 10SM CLR 05/03 A3019 120 89 -1000 000/00 RMK AO2 T00500033
03949KAQV AQV20190403002010904/03/19 00:20:31  5-MIN KAQV 030620Z AUTO 00000KT 10SM CLR 05/03 A3019 130 89 -1000 000/00 RMK AO2 T00500033
03949KAQV AQV20190403002510904/03/19 00:25:31  5-MIN KAQV 030625Z AUTO 00000KT 10SM CLR 05/03 A3019 130 89 -1000 000/00 RMK AO2 T00500033
03949KAQV AQV20190403003010904/03/19 00:30:31  5-MIN KAQV 030630Z AUTO 00000KT 10SM CLR 05/03 A3019 130 85 -1000 000/00 RMK AO2 T00500028
03949KAQV AQV20190403003510904/03/19 00:35:31  5-MIN KAQV 030635Z AUTO 00000KT 10SM CLR 05/03 A3019 130 89 -1000 000/00 RMK AO2 T00500033
03949KAQV AQV20190403004010904/03/19 00:40:31  5-MIN KAQV 030640Z AUTO 00000KT 10SM CLR 05/03 A3019 130 89 -1000 000/00 RMK AO2 T00500033
03949KAQV AQV20190403004510904/03/19 00:45:31  5-MIN KAQV 030645Z AUTO 00000KT 10SM CLR 04/03 A3019 130 92 -1000 000/00 RMK AO2 T00440033
03949KAQV AQV20190403005011604/03/19 00:50:31  5-MIN KAQV 030650Z AUTO 00000KT 10SM CLR 04/03 A3019 130 92 -1000 000/00 RMK AO2 SLP223 T00440033
03949KAQV AQV20190403005511604/03/19 00:55:31  5-MIN KAQV 030655Z AUTO 00000KT 10SM CLR 04/03 A3019 130 92 -1000 000/00 RMK AO2 SLP222 T00440033
03949KAQV AQV20190403010010904/03/19 01:00:31  5-MIN KAQV 030700Z AUTO 00000KT 10SM CLR 04/03 A3019 130 92 -1000 000/00 RMK AO2 T00440033
03949KAQV AQV20190403010510904/03/19 01:05:31  5-MIN KAQV 030705Z AUTO 00000KT 10SM CLR 04/03 A3018 130 92 -1000 000/00 RMK AO2 T00440033
03949KAQV AQV20190403011010904/03/19 01:10:31  5-MIN KAQV 030710Z AUTO 00000KT 10SM CLR 05/03 A3018 130 89 -1000 000/00 RMK AO2 T00500033
03949KAQV AQV20190403011510904/03/19 01:15:31  5-MIN KAQV 030715Z AUTO 00000KT 10SM CLR 04/03 A3018 130 92 -1000 000/00 RMK AO2 T00440033
03949KAQV AQV20190403012010904/03/19 01:20:31  5-MIN KAQV 030720Z AUTO 00000KT 10SM CLR 04/03 A3018 130 92 -1000 000/00 RMK AO2 T00440033
03949KAQV AQV20190403012510904/03/19 01:25:31  5-MIN KAQV 030725Z AUTO 00000KT 10SM CLR 04/03 A3018 130 92 -1000 000/00 RMK AO2 T00440033
03949KAQV AQV20190403013010904/03/19 01:30:31  5-MIN KAQV 030730Z AUTO 00000KT 10SM CLR 05/03 A3018 130 89 -1000 000/00 RMK AO2 T00500033
03949KAQV AQV20190403013510904/03/19 01:35:31  5-MIN KAQV 030735Z AUTO 00000KT 10SM CLR 04/03 A3018 130 92 -1000 000/00 RMK AO2 T00440033
03949KAQV AQV20190403014010904/03/19 01:40:31  5-MIN KAQV 030740Z AUTO 00000KT 10SM CLR 04/03 A3018 130 92 -1000 000/00 RMK AO2 T00440033
03949KAQV AQV20190403014510904/03/19 01:45:31  5-MIN KAQV 030745Z AUTO 00000KT 10SM CLR 04/03 A3018 130 92 -1000 000/00 RMK AO2 T00440033
03949KAQV AQV20190403015011604/03/19 01:50:31  5-MIN KAQV 030750Z AUTO 00000KT 10SM CLR 04/03 A3018 140 92 -1000 000/00 RMK AO2 SLP221 T00440033
03949KAQV AQV20190403015511604/03/19 01:55:31  5-MIN KAQV 030755Z AUTO 00000KT 10SM CLR 04/03 A3018 140 92 -1000 000/00 RMK AO2 SLP220 T00440033
03949KAQV AQV20190403020010904/03/19 02:00:31  5-MIN KAQV 030800Z AUTO 00000KT 10SM CLR 04/03 A3018 140 92 -1000 000/00 RMK AO2 T00440033
03949KAQV AQV20190403020519204/03/19 02:05:31  5-MIN KAQV 030805Z AUTO 00000KT 10SM CLR 04/03 A3018 140 92AQV 031150Z AUTO 00000KT 1 3/4SM BR CLR 04/03 A3022 100 92 -1100 000/00 RMK AO2 SLP234 T00390028 10050 20039 56007
03949KAQV AQV20190403051511104/03/19 05:15:31  5-MIN KAQV 031115Z AUTO 00000KT 5SM BR CLR 04/03 A3021 110 92 -1100 000/00 RMK AO2 T00390028
03949KAQV AQV20190403052011104/03/19 05:20:31  5-MIN KAQV 031120Z AUTO 00000KT 5SM BR CLR 04/03 A3021 110 92 -1100 000/00 RMK AO2 T00390028
03949KAQV AQV20190403052511104/03/19 05:25:31  5-MIN KAQV 031125Z AUTO 00000KT 6SM BR CLR 04/03 A3021 110 92 -1100 000/00 RMK AO2 T00390028
03949KAQV AQV20190403053011104/03/19 05:30:31  5-MIN KAQV 031130Z AUTO 00000KT 6SM BR CLR 04/03 A3021 110 92 -1100 000/00 RMK AO2 T00390028
03949KAQV AQV20190403053511104/03/19 05:35:31  5-MIN KAQV 031135Z AUTO 00000KT 6SM BR CLR 04/03 A3022 100 92 -1100 000/00 RMK AO2 T00390028
03949KAQV AQV20190403054011104/03/19 05:40:31  5-MIN KAQV 031140Z AUTO 00000KT 6SM BR CLR 04/03 A3022 100 92 -1100 000/00 RMK AO2 T00390028
03949KAQV AQV20190403054511504/03/19 05:45:31  5-MIN KAQV 031145Z AUTO 00000KT 2 1/2SM BR CLR 04/03 A3022 100 92 -1100 000/00 RMK AO2 T00390028
03949KAQV AQV20190403055014004/03/19 05:50:31  5-MIN KAQV 031150Z AUTO 00000KT 1 3/4SM BR CLR 04/03 A3022 100 92 -1100 000/00 RMK AO2 SLP234 T00390028 10050 20039 56007
03949KAQV AQV20190403055511504/03/19 05:55:31  5-MIN KAQV 031155Z AUTO 00000KT 2 1/2SM BR CLR 04/03 A3022 100 92 -1100 000/00 RMK AO2 T00390028
03949KAQV AQV20190403060011104/03/19 06:00:31  5-MIN KAQV 031200Z AUTO 00000KT 4SM BR CLR 04/03 A3022 100 92 -1100 000/00 RMK AO2 T00390028
03949KAQV AQV20190403060511104/03/19 06:05:31  5-MIN KAQV 031205Z AUTO 00000KT 6SM BR CLR 04/03 A3022 100 92 -1100 000/00 RMK AO2 T00390028
03949KAQV AQV20190403061011104/03/19 06:10:31  5-MIN KAQV 031210Z AUTO 00000KT 5SM BR CLR 04/03 A3022 100 92 -1100 000/00 RMK AO2 T00390028
03949KAQV AQV20190403061511104/03/19 06:15:31  5-MIN KAQV 031215Z AUTO 00000KT 4SM BR CLR 04/03 A3023 100 92 -1100 000/00 RMK AO2 T00390028
03949KAQV AQV20190403062011004/03/19 06:20:31  5-MIN KAQV 031220Z AUTO 00000KT 5SM BR CLR 04/03 A3023 90 92 -1100 000/00 RMK AO2 T00390028
03949KAQV AQV20190403062511004/03/19 06:25:31  5-MIN KAQV 031225Z AUTO 00000KT 6SM BR CLR 04/03 A3023 90 92 -1100 000/00 RMK AO2 T00390028
03949KAQV AQV20190403063011004/03/19 06:30:31  5-MIN KAQV 031230Z AUTO 00000KT 6SM BR CLR 04/03 A3023 90 92 -1100 000/00 RMK AO2 T00390028
03949KAQV AQV20190403063511004/03/19 06:35:31  5-MIN KAQV 031235Z AUTO 00000KT 6SM BR CLR 04/03 A3023 90 92 -1100 000/00 RMK AO2 T00440033
03949KAQV AQV20190403064011004/03/19 06:40:31  5-MIN KAQV 031240Z AUTO 00000KT 6SM BR CLR 04/03 A3023 90 92 -1100 000/00 RMK AO2 T00440033
03949KAQV AQV20190403064511004/03/19 06:45:31  5-MIN KAQV 031245Z AUTO 00000KT 6SM BR CLR 04/04 A3024 90 96 -1100 000/00 RMK AO2 T00440039
03949KAQV AQV20190403065011704/03/19 06:50:31  5-MIN KAQV 031250Z AUTO 00000KT 6SM BR CLR 05/04 A3024 80 92 -1000 000/00 RMK AO2 SLP241 T00500039
03949KAQV AQV20190403065511604/03/19 06:55:31  5-MIN KAQV 031255Z AUTO 00000KT 6SM BR CLR 06/04 A3024 90 92 -900 000/00 RMK AO2 SLP240 T00560044
03949KAQV AQV20190403070010604/03/19 07:00:31  5-MIN KAQV 031300Z AUTO 00000KT 7SM CLR 06/04 A3024 80 89 -900 000/00 RMK AO2 T00560039
03949KAQV AQV20190403070510604/03/19 07:05:31  5-MIN KAQV 031305Z AUTO 00000KT 8SM CLR 06/04 A3024 90 89 -900 000/00 RMK AO2 T00610044
03949KAQV AQV20190403071010604/03/19 07:10:31  5-MIN KAQV 031310Z AUTO 00000KT 8SM CLR 06/04 A3024 90 89 -900 000/00 RMK AO2 T00610044
03949KAQV AQV20190403071510604/03/19 07:15:31  5-MIN KAQV 031315Z AUTO 00000KT 8SM CLR 07/06 A3024 80 89 -700 000/00 RMK AO2 T00720056
03949KAQV AQV20190403072010604/03/19 07:20:31  5-MIN KAQV 031320Z AUTO 00000KT 9SM CLR 08/06 A3024 80 86 -700 000/00 RMK AO2 T00780056
03949KAQV AQV20190403072510704/03/19 07:25:31  5-MIN KAQV 031325Z AUTO 00000KT 10SM CLR 08/06 A3024 80 82 -600 000/00 RMK AO2 T00830056
03949KAQV AQV20190403073010704/03/19 07:30:31  5-MIN KAQV 031330Z AUTO 00000KT 10SM CLR 09/06 A3024 80 83 -500 000/00 RMK AO2 T00890061
03949KAQV AQV20190403073510704/03/19 07:35:31  5-MIN KAQV 031335Z AUTO 00000KT 10SM CLR 09/06 A3024 80 79 -500 000/00 RMK AO2 T00940061
03949KAQV AQV20190403074010704/03/19 07:40:31  5-MIN KAQV 031340Z AUTO 00000KT 10SM CLR 10/06 A3024 80 77 -400 000/00 RMK AO2 T01000061
03949KAQV AQV20190403074510704/03/19 07:45:31  5-MIN KAQV 031345Z AUTO 00000KT 10SM CLR 10/06 A3024 80 74 -400 000/00 RMK AO2 T01000056
03949KAQV AQV20190403075011404/03/19 07:50:31  5-MIN KAQV 031350Z AUTO 00000KT 10SM CLR 11/06 A3024 80 71 -300 000/00 RMK AO2 SLP241 T01060056
03949KAQV AQV20190403075511404/03/19 07:55:31  5-MIN KAQV 031355Z AUTO 00000KT 10SM CLR 11/06 A3024 80 68 -300 000/00 RMK AO2 SLP242 T01110056
03949KAQV AQV20190403080010704/03/19 08:00:31  5-MIN KAQV 031400Z AUTO VRB03KT 10SM CLR 11/04 A3024 80 63 -300 VRB/03 RMK AO2 T01110044
03949KAQV AQV20190403080510704/03/19 08:05:31  5-MIN KAQV 031405Z AUTO 00000KT 10SM CLR 11/04 A3025 80 63 -300 000/00 RMK AO2 T01110044
03949KAQV AQV20190403081010704/03/19 08:10:31  5-MIN KAQV 031410Z AUTO VRB03KT 10SM CLR 12/05 A3025 70 63 -200 VRB/03 RMK AO2 T01170050
03949KAQV AQV20190403081510704/03/19 08:15:31  5-MIN KAQV 031415Z AUTO 00000KT 10SM CLR 12/04 A3025 80 58 -200 000/00 RMK AO2 T01170039
03949KAQV AQV20190403082010704/03/19 08:20:31  5-MIN KAQV 031420Z AUTO VRB03KT 10SM CLR 12/04 A3025 70 58 -200 VRB/03 RMK AO2 T01170039
03949KAQV AQV20190403082510704/03/19 08:25:31  5-MIN KAQV 031425Z AUTO 00000KT 10SM CLR 12/04 A3025 70 58 -200 000/00 RMK AO2 T01170039
03949KAQV AQV20190403083010704/03/19 08:30:31  5-MIN KAQV 031430Z AUTO 00000KT 10SM CLR 12/04 A3025 70 59 -200 000/00 RMK AO2 T01220044
03949KAQV AQV20190403083510704/03/19 08:35:31  5-MIN KAQV 031435Z AUTO 00000KT 10SM CLR 12/04 A3025 70 59 -200 000/00 RMK AO2 T01220044
03949KAQV AQV20190403084010704/03/19 08:40:31  5-MIN KAQV 031440Z AUTO VRB03KT 10SM CLR 13/04 A3025 70 54 -100 VRB/03 RMK AO2 T01280039
03949KAQV AQV20190403084510404/03/19 08:45:31  5-MIN KAQV 031445Z AUTO VRB04KT 10SM CLR 13/04 A3025 70 52 0 VRB/04 RMK AO2 T01330039
03949KAQV AQV20190403085011704/03/19 08:50:31  5-MIN KAQV 031450Z AUTO VRB04KT 10SM CLR 13/04 A3025 70 52 0 VRB/04 RMK AO2 SLP245 T01330039 52016
03949KAQV AQV20190403085511704/03/19 08:55:31  5-MIN KAQV 031455Z AUTO 00000KT 10SM CLR 13/04 A3026 70 54 0 000/00 RMK AO2 SLP246 T01330044 52016
03949KAQV AQV20190403090010404/03/19 09:00:31  5-MIN KAQV 031500Z AUTO 00000KT 10SM CLR 14/05 A3026 60 55 0 000/00 RMK AO2 T01390050
03949KAQV AQV20190403090510604/03/19 09:05:31  5-MIN KAQV 031505Z AUTO 00000KT 10SM CLR 14/05 A3026 70 53 100 000/00 RMK AO2 T01440050
03949KAQV AQV20190403091010604/03/19 09:10:31  5-MIN KAQV 031510Z AUTO 00000KT 10SM CLR 14/05 A3026 70 53 100 000/00 RMK AO2 T01440050
03949KAQV AQV20190403091510604/03/19 09:15:31  5-MIN KAQV 031515Z AUTO 00000KT 10SM CLR 14/05 A3026 60 53 100 000/00 RMK AO2 T01440050
03949KAQV AQV20190403092010604/03/19 09:20:31  5-MIN KAQV 031520Z AUTO VRB04KT 10SM CLR 14/05 A3026 60 53 100 VRB/04 RMK AO2 T01440050
03949KAQV AQV20190403092510604/03/19 09:25:31  5-MIN KAQV 031525Z AUTO VRB03KT 10SM CLR 14/04 A3026 70 51 100 VRB/03 RMK AO2 T01440044
03949KAQV AQV20190403093010604/03/19 09:30:31  5-MIN KAQV 031530Z AUTO VRB03KT 10SM CLR 14/05 A3026 70 53 100 VRB/03 RMK AO2 T01440050
03949KAQV AQV20190403093510604/03/19 09:35:31  5-MIN KAQV 031535Z AUTO 00000KT 10SM CLR 15/05 A3026 70 51 100 000/00 RMK AO2 T01500050
03949KAQV AQV20190403094010604/03/19 09:40:31  5-MIN KAQV 031540Z AUTO 00000KT 10SM CLR 15/06 A3026 60 53 100 000/00 RMK AO2 T01500056
03949KAQV AQV20190403094510604/03/19 09:45:31  5-MIN KAQV 031545Z AUTO VRB03KT 10SM CLR 16/05 A3026 60 49 200 VRB/03 RMK AO2 T01560050
03949KAQV AQV20190403095011304/03/19 09:50:31  5-MIN KAQV 031550Z AUTO 00000KT 10SM CLR 16/06 A3026 70 51 200 000/00 RMK AO2 SLP246 T01560056
03949KAQV AQV20190403095511304/03/19 09:55:31  5-MIN KAQV 031555Z AUTO VRB04KT 10SM CLR 17/06 A3026 70 47 300 VRB/04 RMK AO2 SLP247 T01670056
03949KAQV AQV20190403100010604/03/19 10:00:31  5-MIN KAQV 031600Z AUTO VRB04KT 10SM CLR 16/06 A3026 70 49 300 VRB/04 RMK AO2 T01610056
03949KAQV AQV20190403100510604/03/19 10:05:31  5-MIN KAQV 031605Z AUTO VRB03KT 10SM CLR 17/06 A3026 70 47 300 VRB/03 RMK AO2 T01670056
03949KAQV AQV20190403101010604/03/19 10:10:31  5-MIN KAQV 031610Z AUTO 00000KT 10SM CLR 17/05 A3025 70 45 300 000/00 RMK AO2 T01670050
03949KAQV AQV20190403101510604/03/19 10:15:31  5-MIN KAQV 031615Z AUTO VRB03KT 10SM CLR 17/05 A3025 70 45 300 VRB/03 RMK AO2 T01670050
03949KAQV AQV20190403102010604/03/19 10:20:31  5-MIN KAQV 031620Z AUTO 00000KT 10SM CLR 17/06 A3025 70 46 400 000/00 RMK AO2 T01720056
03949KAQV AQV20190403102510604/03/19 10:25:31  5-MIN KAQV 031625Z AUTO VRB04KT 10SM CLR 17/06 A3025 70 46 400 VRB/04 RMK AO2 T01720056
03949KAQV AQV20190403103010604/03/19 10:30:31  5-MIN KAQV 031630Z AUTO VRB03KT 10SM CLR 17/06 A3025 70 46 400 VRB/03 RMK AO2 T01720056
03949KAQV AQV20190403103507604/03/19 10:35:31  5-MIN KAQV 031635Z AUTO VRB04KT 10SM CLR SLP200 T02170061
03949KAQV AQV20190403161511104/03/19 16:15:31  5-MIN KAQV 032215Z AUTO VRB05KT 10SM SCT080 22/06 A3012 190 35 1100 VRB/05 RMK AO2 T02220061
03949KAQV AQV20190403162011104/03/19 16:20:31  5-MIN KAQV 032220Z AUTO VRB05KT 10SM BKN075 22/06 A3012 190 36 1100 VRB/05 RMK AO2 T02170061
03949KAQV AQV20190403162511104/03/19 16:25:31  5-MIN KAQV 032225Z AUTO VRB05KT 10SM BKN075 21/06 A3012 190 37 1000 VRB/05 RMK AO2 T02110061
03949KAQV AQV20190403163011104/03/19 16:30:31  5-MIN KAQV 032230Z AUTO 19004KT 10SM BKN070 21/06 A3012 190 37 1000 180/04 RMK AO2 T02110061
03949KAQV AQV20190403163511104/03/19 16:35:31  5-MIN KAQV 032235Z AUTO VRB05KT 10SM BKN070 21/06 A3013 190 37 1000 VRB/05 RMK AO2 T02110061
03949KAQV AQV20190403164011104/03/19 16:40:31  5-MIN KAQV 032240Z AUTO VRB03KT 10SM OVC070 21/06 A3012 190 37 1000 VRB/03 RMK AO2 T02110061
03949KAQV AQV20190403164511104/03/19 16:45:31  5-MIN KAQV 032245Z AUTO VRB03KT 10SM OVC070 22/07 A3012 190 37 1100 VRB/03 RMK AO2 T02170067
03949KAQV AQV20190403165012504/03/19 16:50:31  5-MIN KAQV 032250Z AUTO VRB05KT 10SM BKN070 OVC110 22/07 A3012 190 37 1100 VRB/05 RMK AO2 SLP200 T02170067
03949KAQV AQV20190403165513204/03/19 16:55:31  5-MIN KAQV 032255Z AUTO VRB03KT 10SM BKN070 BKN090 OVC110 22/06 A3012 190 36 1100 VRB/03 RMK AO2 SLP200 T02170061
03949KAQV AQV20190403170012504/03/19 17:00:31  5-MIN KAQV 032300Z AUTO VRB04KT 10SM SCT070 BKN090 OVC110 22/06 A3012 190 36 1100 VRB/04 RMK AO2 T02170061
03949KAQV AQV20190403170512504/03/19 17:05:31  5-MIN KAQV 032305Z AUTO 16005KT 10SM SCT070 BKN090 OVC110 21/07 A3012 190 38 1000 160/05 RMK AO2 T02110067
03949KAQV AQV20190403171012504/03/19 17:10:31  5-MIN KAQV 032310Z AUTO VRB05KT 10SM FEW070 BKN090 OVC110 21/07 A3012 190 38 1000 VRB/05 RMK AO2 T02110067
03949KAQV AQV20190403171512504/03/19 17:15:31  5-MIN KAQV 032315Z AUTO VRB04KT 10SM FEW080 BKN090 OVC110 21/07 A3012 190 38 1000 VRB/04 RMK AO2 T02110067
03949KAQV AQV20190403172012504/03/19 17:20:31  5-MIN KAQV 032320Z AUTO 15005KT 10SM SCT080 BKN090 OVC110 21/07 A3012 200 38 1000 150/05 RMK AO2 T02110067
03949KAQV AQV20190403172512504/03/19 17:25:31  5-MIN KAQV 032325Z AUTO 17004KT 10SM SCT080 BKN090 OVC110 21/07 A3012 200 38 1000 170/04 RMK AO2 T02110067
03949KAQV AQV20190403173012504/03/19 17:30:31  5-MIN KAQV 032330Z AUTO VRB04KT 10SM BKN075 BKN090 OVC110 21/07 A3012 200 38 1000 VRB/04 RMK AO2 T02110067
03949KAQV AQV20190403173512404/03/19 17:35:31  5-MIN KAQV 032335Z AUTO VRB05KT 10SM BKN075 BKN090 OVC110 21/07 A3012 200 40 900 VRB/05 RMK AO2 T02060067
03949KAQV AQV20190403174012404/03/19 17:40:31  5-MIN KAQV 032340Z AUTO VRB03KT 10SM BKN075 BKN090 OVC110 21/07 A3012 200 41 900 VRB/03 RMK AO2 T02060072
03949KAQV AQV20190403174511704/03/19 17:45:31  5-MIN KAQV 032345Z AUTO VRB03KT 10SM BKN075 OVC090 21/07 A3012 190 41 900 VRB/03 RMK AO2 T02060072
03949KAQV AQV20190403175014204/03/19 17:50:31  5-MIN KAQV 032350Z AUTO VRB04KT 10SM BKN075 OVC090 21/07 A3012 190 41 900 VRB/04 RMK AO2 SLP199 T02060072 10239 20206 58030
03949KAQV AQV20190403175514204/03/19 17:55:31  5-MIN KAQV 032355Z AUTO 17004KT 10SM BKN075 OVC090 21/07 A3012 190 40 900 170/04 RMK AO2 SLP199 T02060067 10239 20206 58030
03949KAQV AQV20190403180011704/03/19 18:00:31  5-MIN KAQV 040000Z AUTO VRB04KT 10SM BKN075 OVC090 20/07 A3012 190 41 900 VRB/04 RMK AO2 T02000067
03949KAQV AQV20190403180512404/03/19 18:05:31  5-MIN KAQV 040005Z AUTO 17005KT 10SM BKN075 BKN090 OVC110 20/07 A3012 200 41 900 160/05 RMK AO2 T02000067
03949KAQV AQV20190403181012404/03/19 18:10:31  5-MIN KAQV 040010Z AUTO 17005KT 10SM BKN075 BKN090 OVC100 20/07 A3012 200 41 900 170/05 RMK AO2 T02000067
03949KAQV AQV20190403181511004/03/19 18:15:31  5-MIN KAQV 040015Z AUTO VRB04KT 10SM OVC080 20/07 A3012 200 41 900 VRB/04 RMK AO2 T02000067
03949KAQV AQV20190403182011704/03/19 18:20:31  5-MIN KAQV 040020Z AUTO 16006KT 10SM BKN070 OVC085 20/07 A3011 200 41 900 160/06 RMK AO2 T02000067
03949KAQV AQV20190403182511004/03/19 18:25:31  5-MIN KAQV 040025Z AUTO VRB04KT 10SM OVC080 20/06 A3011 200 40 900 VRB/04 RMK AO2 T02000061
03949KAQV AQV20190403183011004/03/19 18:30:31  5-MIN KAQV 040030Z AUTO 16004KT 10SM OVC080 19/07 A3012 200 43 800 160/04 RMK AO2 T01940067
03949KAQV AQV20190403183511704/03/19 18:35:31  5-MIN KAQV 040035Z AUTO 16003KT 10SM BKN080 OVC100 19/07 A3012 200 44 700 150/03 RMK AO2 T01890067
03949KAQV AQV20190403184011704/03/19 18:40:31  5-MIN KAQV 040040Z AUTO 17003KT 10SM BKN080 OVC100 19/07 A3012 190 44 700 170/03 RMK AO2 T01890067
03949KAQV AQV20190403184511704/03/19 18:45:31  5-MIN KAQV 040045Z AUTO VRB04KT 10SM BKN080 OVC100 19/07 A3011 200 44 700 VRB/04 RMK AO2 T01890067
03949KAQV AQV20190403185012404/03/19 18:50:31  5-MIN KAQV 040050Z AUTO 17003KT 10SM BKN080 OVC100 19/07 A3012 200 44 700 170/03 RMK AO2 SLP199 T01890067
03949KAQV AQV20190403185512404/03/19 18:55:31  5-MIN KAQV 040055Z AUTO 17004KT 10SM BKN075 OVC100 19/07 A3012 200 44 700 160/04 RMK AO2 SLP198 T01890067
03949KAQV AQV20190403190011004/03/19 19:00:31  5-MIN KAQV 040100Z AUTO VRB03KT 10SM OVC075 19/07 A3011 200 44 700 VRB/03 RMK AO2 T01890067
03949KAQV AQV20190403190511704/03/19 19:05:31  5-MIN KAQV 040105Z AUTO 16004KT 10SM BKN075 OVC100 19/07 A3011 200 44 700 160/04 RMK AO2 T01890067
03949KAQV AQV20190403191011704/03/19 19:10:31  5-MIN KAQV 040110Z AUTO 16003KT 10SM BKN075 OVC100 18/07 A3011 200 48 700 160/03 RMK AO2 T01830072
03949KAQV AQV20190403191511704/03/19 19:15:31  5-MIN KAQV 040115Z AUTO VRB03KT 10SM BKN075 OVC100 18/07 A3011 200 48 700 VRB/03 RMK AO2 T01830072
03949KAQV AQV20190403192011704/03/19 19:20:31  5-MIN KAQV 040120Z AUTO VRB03KT 10SM BKN075 OVC100 18/07 A3011 200 48 700 VRB/03 RMK AO2 T01830072
03949KAQV AQV20190403192512404/03/19 19:25:31  5-MIN KAQV 040125Z AUTO VRB03KT 10SM BKN075 BKN090 OVC100 18/07 A3011 200 49 600 VRB/03 RMK AO2 T01780072
03949KAQV AQV20190403193012404/03/19 19:30:31  5-MIN KAQV 040130Z AUTO 17003KT 10SM BKN075 BKN090 OVC100 18/07 A3011 200 49 600 170/03 RMK AO2 T01780072
03949KAQV AQV20190403193511704/03/19 19:35:31  5-MIN KAQV 040135Z AUTO 18003KT 10SM BKN075 OVC110 17/08 A3012 190 53 500 170/03 RMK AO2 T01720078
03949KAQV AQV20190403194011704/03/19 19:40:31  5-MIN KAQV 040140Z AUTO 18003KT 10SM SCT075 OVC110 17/08 A3012 190 53 500 170/03 RMK AO2 T01720078
03949KAQV AQV20190403194512404/03/19 19:45:31  5-MIN KAQV 040145Z AUTO 17004KT 10SM SCT070 BKN085 OVC110 17/08 A3012 190 53 500 170/04 RMK AO2 T01720078
03949KAQV AQV20190403195012404/03/19 19:50:31  5-MIN KAQV 040150Z AUTO 17006KT 10SM BKN070 OVC110 18/08 A3012 190 51 600 160/06 RMK AO2 SLP199 T01780078
03949KAQV AQV20190403195512404/03/19 19:55:31  5-MIN KAQV 040155Z AUTO VRB05KT 10SM BKN070 OVC110 18/08 A3012 190 51 600 VRB/05 RMK AO2 SLP200 T01780078
03949KAQV AQV20190403200011704/03/19 20:00:31  5-MIN KAQV 040200Z AUTO 18004KT 10SM BKN070 OVC110 18/08 A3013 190 51 600 180/04 RMK AO2 T01780078
03949KAQV AQV20190403200511004/03/19 20:05:31  5-MIN KAQV 040205Z AUTO VRB05KT 10SM OVC070 18/08 A3013 190 53 600 VRB/05 RMK AO2 T01780083
03949KAQV AQV20190403201011704/03/19 20:10:31  5-MIN KAQV 040210Z AUTO VRB04KT 10SM BKN070 BKN110 18/08 A3013 180 53 600 VRB/04 RMK AO2 T01780083
03949KAQV AQV20190403201511704/03/19 20:15:31  5-MIN KAQV 040215Z AUTO VRB04KT 10SM BKN070 BKN110 17/08 A3013 180 55 500 VRB/04 RMK AO2 T01720083
03949KAQV AQV20190403202011704/03/19 20:20:31  5-MIN KAQV 040220Z AUTO VRB04KT 10SM SCT070 BKN110 17/08 A3013 190 55 500 VRB/04 RMK AO2 T01720083
03949KAQV AQV20190403202511704/03/19 20:25:31  5-MIN KAQV 040225Z AUTO 17004KT 10SM SCT070 BKN110 17/08 A3013 180 55 500 160/04 RMK AO2 T01720083
03949KAQV AQV20190403203011704/03/19 20:30:31  5-MIN KAQV 040230Z AUTO VRB03KT 10SM FEW070 BKN110 17/08 A3013 180 55 500 VRB/03 RMK AO2 T01720083
03949KAQV AQV20190403203511004/03/19 20:35:31  5-MIN KAQV 040235Z AUTO 16004KT 10SM BKN110 17/08 A3013 180 57 500 160/04 RMK AO2 T01670083
03949KAQV AQV20190403204011004/03/19 20:40:31  5-MIN KAQV 040240Z AUTO 18003KT 10SM BKN110 17/08 A3014 180 57 500 170/03 RMK AO2 T01670083
03949KAQV AQV20190403204511004/03/19 20:45:31  5-MIN KAQV 040245Z AUTO VRB03KT 10SM BKN110 17/08 A3014 180 57 500 VRB/03 RMK AO2 T01670083
03949KAQV AQV20190403205012304/03/19 20:50:31  5-MIN KAQV 040250Z AUTO VRB05KT 10SM BKN110 17/08 A3013 180 57 500 VRB/05 RMK AO2 SLP204 T01670083 56003
03949KAQV AQV20190403205512304/03/19 20:55:31  5-MIN KAQV 040255Z AUTO 17004KT 10SM BKN110 17/08 A3014 180 57 500 160/04 RMK AO2 SLP204 T01670083 56003
03949KAQV AQV20190403210011704/03/19 21:00:31  5-MIN KAQV 040300Z AUTO VRB03KT 10SM FEW070 OVC110 17/08 A3014 180 57 500 VRB/03 RMK AO2 T01670083
03949KAQV AQV20190403210511704/03/19 21:05:31  5-MIN KAQV 040305Z AUTO VRB03KT 10SM FEW070 OVC110 17/08 A3014 180 57 500 VRB/03 RMK AO2 T01670083
03949KAQV AQV20190403211011704/03/19 21:10:31  5-MIN KAQV 040310Z AUTO VRB03KT 10SM FEW070 OVC110 17/08 A3014 180 57 500 VRB/03 RMK AO2 T01670083
03949KAQV AQV20190403211511704/03/19 21:15:31  5-MIN KAQV 040315Z AUTO 00000KT 10SM FEW090 OVC110 17/09 A3014 180 60 500 000/00 RMK AO2 T01670089
03949KAQV AQV20190403212011704/03/19 21:20:31  5-MIN KAQV 040320Z AUTO 00000KT 10SM SCT090 OVC110 17/09 A3014 180 60 500 000/00 RMK AO2 T01670089
03949KAQV AQV20190403212511704/03/19 21:25:31  5-MIN KAQV 040325Z AUTO 00000KT 10SM FEW090 OVC110 17/09 A3013 180 60 500 000/00 RMK AO2 T01670089
03949KAQV AQV20190403213011704/03/19 21:30:31  5-MIN KAQV 040330Z AUTO 15003KT 10SM FEW090 OVC110 17/09 A3014 180 60 500 140/03 RMK AO2 T01670089
03949KAQV AQV20190403213511704/03/19 21:35:31  5-MIN KAQV 040335Z AUTO 16003KT 10SM SCT085 OVC110 17/09 A3013 180 60 500 160/03 RMK AO2 T01670089
03949KAQV AQV20190403214011704/03/19 21:40:31  5-MIN KAQV 040340Z AUTO 15004KT 10SM SCT085 OVC110 17/09 A3013 180 60 500 150/04 RMK AO2 T01670089
03949KAQV AQV20190403214511704/03/19 21:45:31  5-MIN KAQV 040345Z AUTO 15004KT 10SM SCT085 OVC110 17/09 A3013 180 60 500 150/04 RMK AO2 T01670089
03949KAQV AQV20190403215012404/03/19 21:50:31  5-MIN KAQV 040350Z AUTO VRB03KT 10SM SCT080 OVC110 17/09 A3013 180 60 500 VRB/03 RMK AO2 SLP203 T01670089
03949KAQV AQV20190403215512404/03/19 21:55:31  5-MIN KAQV 040355Z AUTO VRB03KT 10SM SCT080 OVC110 17/09 A3013 180 60 500 VRB/03 RMK AO2 SLP202 T01670089
03949KAQV AQV20190403220011704/03/19 22:00:31  5-MIN KAQV 040400Z AUTO VRB03KT 10SM SCT080 OVC110 17/09 A3013 180 60 500 VRB/03 RMK AO2 T01670089
03949KAQV AQV20190403220511704/03/19 22:05:31  5-MIN KAQV 040405Z AUTO VRB03KT 10SM SCT080 OVC110 17/09 A3013 180 60 500 VRB/03 RMK AO2 T01670089
03949KAQV AQV20190403221011704/03/19 22:10:31  5-MIN KAQV 040410Z AUTO VRB03KT 10SM FEW080 OVC110 17/09 A3013 180 60 500 VRB/03 RMK AO2 T01670089
03949KAQV AQV20190403221511704/03/19 22:15:31  5-MIN KAQV 040415Z AUTO VRB03KT 10SM FEW080 OVC110 17/09 A3013 180 60 500 VRB/03 RMK AO2 T01670089
03949KAQV AQV20190403222011704/03/19 22:20:31  5-MIN KAQV 040420Z AUTO VRB03KT 10SM FEW080 OVC110 17/09 A3013 180 60 500 VRB/03 RMK AO2 T01670089
03949KAQV AQV20190403222511004/03/19 22:25:31  5-MIN KAQV 040425Z AUTO VRB04KT 10SM OVC110 17/09 A3013 190 60 500 VRB/04 RMK AO2 T01670089
03949KAQV AQV20190403223011004/03/19 22:30:31  5-MIN KAQV 040430Z AUTO VRB05KT 10SM OVC110 17/09 A3013 190 60 500 VRB/05 RMK AO2 T01670089
03949KAQV AQV20190403223511004/03/19 22:35:31  5-MIN KAQV 040435Z AUTO VRB04KT 10SM OVC110 17/09 A3013 190 60 500 VRB/04 RMK AO2 T01670089
03949KAQV AQV20190403224011704/03/19 22:40:31  5-MIN KAQV 040440Z AUTO VRB03KT 10SM FEW090 OVC110 17/09 A3012 190 62 500 VRB/03 RMK AO2 T01670094
03949KAQV AQV20190403224511704/03/19 22:45:31  5-MIN KAQV 040445Z AUTO VRB03KT 10SM SCT095 OVC110 17/09 A3012 190 62 500 VRB/03 RMK AO2 T01670094
03949KAQV AQV20190403225012404/03/19 22:50:31  5-MIN KAQV 040450Z AUTO VRB03KT 10SM SCT095 OVC120 17/09 A3012 190 60 500 VRB/03 RMK AO2 SLP197 T01720094
03949KAQV AQV20190403225512404/03/19 22:55:31  5-MIN KAQV 040455Z AUTO VRB04KT 10SM SCT095 OVC120 17/09 A3012 190 60 500 VRB/04 RMK AO2 SLP197 T01720094
03949KAQV AQV20190403230011704/03/19 23:00:31  5-MIN KAQV 040500Z AUTO VRB04KT 10SM SCT095 OVC120 17/09 A3012 200 60 500 VRB/04 RMK AO2 T01720094
03949KAQV AQV20190403230511704/03/19 23:05:31  5-MIN KAQV 040505Z AUTO VRB06KT 10SM SCT095 OVC120 17/09 A3012 190 60 500 VRB/06 RMK AO2 T01720094
03949KAQV AQV20190403231011704/03/19 23:10:31  5-MIN KAQV 040510Z AUTO 15005KT 10SM FEW095 BKN120 17/10 A3012 190 64 500 150/05 RMK AO2 T01670100
03949KAQV AQV20190403231511704/03/19 23:15:31  5-MIN KAQV 040515Z AUTO VRB06KT 10SM FEW095 BKN120 17/10 A3012 190 64 500 VRB/06 RMK AO2 T01670100
03949KAQV AQV20190403232011004/03/19 23:20:31  5-MIN KAQV 040520Z AUTO VRB04KT 10SM BKN120 17/10 A3011 200 64 500 VRB/04 RMK AO2 T01670100
03949KAQV AQV20190403232510004/03/19 23:25:31  5-MIN KAQV 040525Z AUTO 10SM BKN120 17/10 A3011 200 64 500 M /M RMK AO2 T01670100
03949KAQV AQV20190403233011004/03/19 23:30:31  5-MIN KAQV 040530Z AUTO VRB04KT 10SM SCT120 17/10 A3011 200 64 500 VRB/04 RMK AO2 T01670100
03949KAQV AQV20190403233511004/03/19 23:35:31  5-MIN KAQV 040535Z AUTO VRB04KT 10SM FEW120 17/10 A3011 200 64 500 VRB/04 RMK AO2 T01670100
03949KAQV AQV20190403234011004/03/19 23:40:31  5-MIN KAQV 040540Z AUTO VRB05KT 10SM FEW120 17/10 A3010 210 64 500 VRB/05 RMK AO2 T01670100
03949KAQV AQV20190403234511004/03/19 23:45:31  5-MIN KAQV 040545Z AUTO VRB04KT 10SM FEW120 17/11 A3010 210 67 500 VRB/04 RMK AO2 T01670106
03949KAQV AQV20190403235014504/03/19 23:50:31  5-MIN KAQV 040550Z AUTO VRB03KT 10SM FEW120 17/11 A3010 210 67 500 VRB/03 RMK AO2 SLP193 T01670106 10206 20167 402390039 53007
03949KAQV AQV20190403235514504/03/19 23:55:31  5-MIN KAQV 040555Z AUTO VRB04KT 10SM FEW120 17/11 A3011 200 67 500 VRB/04 RMK AO2 SLP193 T01670106 10206 20167 402390039 53007
03949KAQV AQV20190404000011004/04/19 00:00:31  5-MIN KAQV 040600Z AUTO 15004KT 10SM FEW120 16/11 A3011 200 69 400 140/04 RMK AO2 T01610106
03949KAQV AQV20190404000511004/04/19 00:05:31  5-MIN KAQV 040605Z AUTO VRB04KT 10SM FEW120 16/11 A3011 200 69 400 VRB/04 RMK AO2 T01610106
03949KAQV AQV20190404001011704/04/19 00:10:31  5-MIN KAQV 040610Z AUTO 15004KT 10SM FEW024 SCT120 16/11 A3011 200 69 400 150/04 RMK AO2 T01610106
03949KAQV AQV20190404001512404/04/19 00:15:31  5-MIN KAQV 040615Z AUTO VRB03KT 10SM FEW024 SCT060 SCT120 16/11 A3010 210 69 400 VRB/03 RMK AO2 T01610106
03949KAQV AQV20190404002012404/04/19 00:20:31  5-MIN KAQV 040620Z AUTO VRB04KT 10SM FEW024 BKN060 BKN120 16/11 A3010 210 69 400 VRB/04 RMK AO2 T01610106
03949KAQV AQV20190404002511704/04/19 00:25:31  5-MIN KAQV 040625Z AUTO VRB04KT 10SM FEW024 BKN060 16/11 A3010 210 72 400 VRB/04 RMK AO2 T01610111
03949KAQV AQV20190404003011704/04/19 00:30:31  5-MIN KAQV 040630Z AUTO VRB04KT 10SM FEW024 SCT060 16/11 A3010 210 72 400 VRB/04 RMK AO2 T01610111
03949KAQV AQV20190404003512404/04/19 00:35:31  5-MIN KAQV 040635Z AUTO VRB03KT 10SM FEW024 FEW034 SCT060 16/11 A3010 210 72 400 VRB/03 RMK AO2 T01610111
03949KAQV AQV20190404004011704/04/19 00:40:31  5-MIN KAQV 040640Z AUTO VRB03KT 10SM SCT031 BKN060 16/11 A3009 220 72 400 VRB/03 RMK AO2 T01610111
03949KAQV AQV20190404004512404/04/19 00:45:31  5-MIN KAQV 040645Z AUTO VRB04KT 10SM SCT031 BKN050 BKN060 16/11 A3009 220 72 400 VRB/04 RMK AO2 T01610111
03949KAQV AQV20190404005011704/04/19 00:50:31  5-MIN KAQV 040650Z AUTO 00000KT 10SM BKN031 16/11 A3009 220 72 400 000/00 RMK AO2 SLP188 T01610111
03949KAQV AQV20190404005511704/04/19 00:55:31  5-MIN KAQV 040655Z AUTO 00000KT 10SM BKN030 16/11 A3008 230 72 400 000/00 RMK AO2 SLP185 T01610111
03949KAQV AQV20190404010011704/04/19 01:00:31  5-MIN KAQV 040700Z AUTO VRB04KT 10SM BKN028 OVC033 16/11 A3008 230 72 500 VRB/04 RMK AO2 T01610111
03949KAQV AQV20190404010511704/04/19 01:05:31  5-MIN KAQV 040705Z AUTO VRB04KT 10SM BKN028 OVC049 16/11 A3008 220 72 400 VRB/04 RMK AO2 T01610111
03949KAQV AQV20190404011011704/04/19 01:10:31  5-MIN KAQV 040710Z AUTO VRB04KT 10SM BKN028 OVC049 16/11 A3007 240 72 500 VRB/04 RMK AO2 T01610111
03949KAQV AQV20190404011512404/04/19 01:15:31  5-MIN KAQV 040715Z AUTO VRB04KT 10SM BKN026 OVC047 16/11 A3006 250 72 500 VRB/04 RMK AO2 PRESFR T01610111
03949KAQV AQV20190404012011704/04/19 01:20:31  5-MIN KAQV 040720Z AUTO VRB03KT 10SM BKN026 OVC045 16/11 A3006 250 72 500 VRB/03 RMK AO2 T01610111
03949KAQV AQV20190404012512604/04/19 01:25:31  5-MIN KAQV 040725Z AUTO VRB04KT 10SM TS BKN026 OVC045 16/11 A3006 250 72 500 VRB/04 RMK AO2 TSB23 T01610111
03949KAQV AQV20190404013012604/04/19 01:30:31  5-MIN KAQV 040730Z AUTO 00000KT 10SM TS BKN024 OVC045 16/11 A3005 250 72 500 000/00 RMK AO2 TSB23 T01610111
03949KAQV AQV20190404013512604/04/19 01:35:31  5-MIN KAQV 040735Z AUTO VRB04KT 10SM TS BKN024 OVC045 16/12 A3005 250 75 500 VRB/04 RMK AO2 TSB23 T01610117
03949KAQV AQV20190404014012504/04/19 01:40:31  5-MIN KAQV 040740Z AUTO VRB04KT 9SM TS BKN024 OVC045 16/12 A3006 250 75 500 VRB/04 RMK AO2 TSB23 T01610117
03949KAQV AQV20190404014513204/04/19 01:45:31  5-MIN KAQV 040745Z AUTO VRB03KT 7SM TSRA OVC022 15/12 A3006 250 83 400 VRB/03 RMK AO2 RAB41 TSB23 P0001 T01500122
03949KAQV AQV20190404015014004/04/19 01:50:31  5-MIN KAQV 040750Z AUTO 15004KT 7SM -TSRA OVC022 15/12 A3006 250 83 300 150/04 RMK AO2 RAB41 TSB23 SLP176 P0002 T01500122
03949KAQV AQV20190404015514804/04/19 01:55:31  5-MIN KAQV 040755Z AUTO 16003KT 10SM -TSRA BKN020 OVC025 14/13 A3006 250 90 300 160/03 RMK AO2 RAB41 TSB23 SLP177 P0002 T01440128
03949KAQV AQV20190404020012204/04/19 02:00:31  5-MIN KAQV 040800Z AUTO VRB03KT 10SM -TSRA OVC020 14/13 A3006 250 90 300 VRB/03 RMK AO2 P0000 T01440128
03949KAQV AQV20190404020512504/04/19 02:05:31  5-MIN KAQV 040805Z AUTO 18004KT 10SM TS OVC020 14/13 A3006 240 90 300 170/04 RMK AO2 RAE01 P0000 T01440128
03949KAQV AQV20190404021012704/04/19 02:10:31  5-MIN KAQV 040810Z AUTO VRB03KT 9SM -TSRA OVC020 14/13 A3006 250 90 300 VRB/03 RMK AO2 TSB07 P0000 T01440128
03949KAQV AQV20190404021514104/04/19 02:15:31  5-MIN KAQV 040815Z AUTO 00000KT 9SM -TSRA BKN020 BKN029 OVC043 14/13 A3005 260 90 300 000/00 RMK AO2 TSB07 P0000 T01440128
03949KAQV AQV20190404022014204/04/19 02:20:31  5-MIN KAQV 040820Z AUTO 18004KT 10SM -TSRA BKN021 BKN031 OVC110 14/13 A3007 240 93 300 180/04 RMK AO2 TSB07 P0000 T01440133
03949KAQV AQV20190404022514504/04/19 02:25:31  5-MIN KAQV 040825Z AUTO VRB05KT 10SM TS BKN021 BKN042 OVC110 14/13 A3007 240 93 300 VRB/05 RMK AO2 RAE22 TSB07 P0000 T01440133
03949KAQV AQV20190404023014404/04/19 02:30:31  5-MIN KAQV 040830Z AUTO 15005KT 9SM TS BKN021 BKN042 OVC110 15/13 A3006 250 90 300 150/05 RMK AO2 RAE22 TSB07 P0001 T01500133
03949KAQV AQV20190404023514304/04/19 02:35:31  5-MIN KAQV 040835Z AUTO VRB04KT 4SM TSRA BR BKN019 BKN042 OVC110 15/13 A3005 260 90 400 VRB/04 RMK AO2 TSB07 P0004 T01500133
03949KAQV AQV20190404024013304/04/19 02:40:31  5-MIN KAQV 040840Z AUTO 3SM TSRA BR FEW006 BKN035 OVC080 14/13 A3005 260 93 300 M /M RMK AO2 TSB07 P0005 T01440133
03949KAQV AQV20190404024514404/04/19 02:45:31  5-MIN KAQV 040845Z AUTO 17006KT 6SM -TSRA BR FEW005 BKN035 OVC075 15/14 A3005 260 93 400 170/06 RMK AO2 TSB07 P0005 T01500139
03949KAQV AQV20190404025016404/04/19 02:50:31  5-MIN KAQV 040850Z AUTO 16006KT 10SM TS SCT017 BKN041 OVC070 15/14 A3005 260 93 400 160/06 RMK AO2 RAE49 TSB07 SLP173 P0005 60007 T01500139 58010
03949KAQV AQV20190404025516404/04/19 02:55:31  5-MIN KAQV 040855Z AUTO 18005KT 10SM TS FEW016 BKN035 OVC043 15/14 A3005 260 93 400 180/05 RMK AO2 RAE49 TSB07 SLP173 P0005 60007 T01500139 58010
03949KAQV AQV20190404030014604/04/19 03:00:31  5-MIN KAQV 040900Z AUTO 00000KT 3SM +TSRA BR SCT016 BKN029 OVC039 15/14 A3004 260 93 400 000/00 RMK AO2 RAB0858 P0004 T01500139
03949KAQV AQV20190404030515004/04/19 03:05:31  5-MIN KAQV 040905Z AUTO 00000KT 2 1/2SM -TSRA BR SCT017 BKN030 OVC070 15/14 A3004 270 93 400 000/00 RMK AO2 RAB0858 P0004 T01500139
03949KAQV AQV20190404031014304/04/19 03:10:31  5-MIN KAQV 040910Z AUTO 17004KT 7SM -TSRA SCT019 BKN031 OVC070 15/14 A3004 260 93 400 170/04 RMK AO2 RAB0858 P0004 T01500139
03949KAQV AQV20190404031514404/04/19 03:15:31  5-MIN KAQV 040915Z AUTO VRB04KT 10SM TS BKN017 BKN031 OVC040 15/14 A3005 260 93 400 VRB/04 RMK AO2 RAB0858E15 P0004 T01500139
03949KAQV AQV20190404032014404/04/19 03:20:31  5-MIN KAQV 040920Z AUTO VRB04KT 10SM TS BKN017 BKN029 OVC038 15/14 A3003 270 93 400 VRB/04 RMK AO2 RAB0858E15 P0004 T01500139
03949KAQV AQV20190404032514704/04/19 03:25:31  5-MIN KAQV 040925Z AUTO VRB03KT 10SM BKN017 BKN029 OVC060 15/14 A3004 270 93 400 VRB/03 RMK AO2 RAB0858E15 TSE24 P0004 T01500139
03949KAQV AQV20190404033014704/04/19 03:30:31  5-MIN KAQV 040930Z AUTO VRB03KT 10SM BKN017 BKN032 OVC060 15/14 A3003 280 93 400 VRB/03 RMK AO2 RAB0858E15 TSE24 P0004 T01500139
03949KAQV AQV20190404033514704/04/19 03:35:31  5-MIN KAQV 040935Z AUTO 00000KT 10SM BKN017 BKN030 OVC070 15/14 A3003 280 93 400 000/00 RMK AO2 RAB0858E15 TSE24 P0004 T01500139
03949KAQV AQV20190404034014704/04/19 03:40:31  5-MIN KAQV 040940Z AUTO VRB03KT 10SM SCT017 BKN060 OVC070 15/14 A3003 280 93 400 VRB/03 RMK AO2 RAB0858E15 TSE24 P0004 T01500139
03949KAQV AQV20190404034514704/04/19 03:45:31  5-MIN KAQV 040945Z AUTO VRB04KT 10SM SCT017 BKN050 OVC070 15/14 A3003 280 93 400 VRB/04 RMK AO2 RAB0858E15 TSE24 P0004 T01500139
03949KAQV AQV20190404035014304/04/19 03:50:31  5-MIN KAQV 040950Z AUTO 00000KT 10SM TS FEW017 BKN048 OVC070 15/14 A3002 280 93 400 000/00 RMK AO2 RAB0858E15 TSE24B47 P0004
03949KAQV AQV20190404035516004/04/19 03:55:31  5-MIN KAQV 040955Z AUTO 00000KT 10SM TS FEW015 BKN046 OVC070 15/14 A3002 280 93 400 000/00 RMK AO2 RAB0858E15 TSE24B47 SLP164 P0004 T01500139
03949KAQV AQV20190404040012704/04/19 04:00:31  5-MIN KAQV 041000Z AUTO 13003KT 10SM TS BKN043 BKN050 OVC070 15/14 A3002 290 93 400 120/03 RMK AO2 T01500139
03949KAQV AQV20190404040512704/04/19 04:05:31  5-MIN KAQV 041005Z AUTO VRB03KT 10SM TS BKN041 BKN050 OVC065 15/14 A3002 290 93 400 VRB/03 RMK AO2 T01500139
03949KAQV AQV20190404041013304/04/19 04:10:31  5-MIN KAQV 041010Z AUTO VRB03KT 10SM TS BKN041 BKN050 OVC080 15/14 A3001 290 93 400 VRB/03 RMK AO2 TSB06 T01500139
03949KAQV AQV20190404041513304/04/19 04:15:31  5-MIN KAQV 041015Z AUTO 18006KT 10SM TS BKN041 BKN050 OVC080 15/14 A3003 280 93 400 170/06 RMK AO2 TSB06 T01500139
03949KAQV AQV20190404042012604/04/19 04:20:31  5-MIN KAQV 041020Z AUTO VRB03KT 10SM TS FEW015 OVC038 15/14 A3003 270 93 400 VRB/03 RMK AO2 TSB06 T01500139
03949KAQV AQV20190404042513204/04/19 04:25:31  5-MIN KAQV 041025Z AUTO VRB03KT 9SM FEW015 BKN038 OVC050 15/14 A3002 280 93 400 VRB/03 RMK AO2 TSB06E22 T01500139
03949KAQV AQV20190404043014804/04/19 04:30:31  5-MIN KAQV 041030Z AUTO VRB04KT 9SM -RA FEW015 BKN038 OVC050 15/14 A3002 290 93 400 VRB/04 RMK AO2 RAB27 TSB06E22 P0000 T01500139
03949KAQV AQV20190404043514804/04/19 04:35:31  5-MIN KAQV 041035Z AUTO 17004KT 10SM FEW015 SCT038 OVC050 15/14 A3002 280 93 400 160/04 RMK AO2 RAB27E33 TSB06E22 P0000 T01500139
03949KAQV AQV20190404044014804/04/19 04:40:31  5-MIN KAQV 041040Z AUTO VRB05KT 10SM FEW015 BKN048 OVC055 15/14 A3002 280 93 400 VRB/05 RMK AO2 RAB27E33 TSB06E22 P0000 T01500139
03949KAQV AQV20190404044514804/04/19 04:45:31  5-MIN KAQV 041045Z AUTO VRB04KT 10SM FEW013 BKN045 OVC060 15/14 A3001 290 93 400 VRB/04 RMK AO2 RAB27E33 TSB06E22 P0000 T01500139
03949KAQV AQV20190404045013704/04/19 04:50:31  5-MIN KAQV 041050Z AUTO VRB05KT 9SM FEW005 BKN047 OVC060 15/14 A3002 280 93 400 VRB/05 RMK AO2 RAB27E33 TSB06E22 P0000
03949KAQV AQV20190404045516104/04/19 04:55:31  5-MIN KAQV 041055Z AUTO VRB05KT 9SM -RA FEW005 BKN047 OVC060 15/14 A3003 280 93 400 VRB/05 RMK AO2 RAB27E33B51 TSB06E22 SLP167 P0000 T01500139
03949KAQV AQV20190404050013604/04/19 05:00:31  5-MIN KAQV 041100Z AUTO VRB04KT 10SM FEW005 BKN037 OVC060 15/14 A3003 270 96 400 VRB/04 RMK AO2 RAE00 P0000 T01500144
03949KAQV AQV20190404050513604/04/19 05:05:31  5-MIN KAQV 041105Z AUTO 18005KT 10SM SCT004 BKN037 OVC060 15/14 A3004 270 96 400 180/05 RMK AO2 RAE00 P0000 T01500144
03949KAQV AQV20190404051013604/04/19 05:10:31  5-MIN KAQV 041110Z AUTO VRB04KT 10SM FEW004 BKN034 OVC060 16/14 A3003 270 93 400 VRB/04 RMK AO2 RAE00 P0000 T01560144
03949KAQV AQV20190404051513604/04/19 05:15:31  5-MIN KAQV 041115Z AUTO VRB04KT 10SM FEW004 BKN040 OVC075 16/14 A3003 270 93 400 VRB/04 RMK AO2 RAE00 P0000 T01560144
03949KAQV AQV20190404052014304/04/19 05:20:31  5-MIN KAQV 041120Z AUTO VRB05KT 10SM -RA FEW004 BKN025 OVC055 16/14 A3003 280 93 500 VRB/05 RMK AO2 RAE00B19 P0000 T01560144
03949KAQV AQV20190404052514304/04/19 05:25:31  5-MIN KAQV 041125Z AUTO VRB04KT 10SM -RA FEW004 BKN045 OVC080 16/14 A3002 280 93 500 VRB/04 RMK AO2 RAE00B19 P0000 T01560144
03949KAQV AQV20190404053014204/04/19 05:30:31  5-MIN KAQV 041130Z AUTO VRB04KT 10SM FEW004 BKN045 OVC080 16/15 A3002 280 93 500 VRB/04 RMK AO2 RAE00B19E28 P0000 T01610150
03949KAQV AQV20190404053514204/04/19 05:35:31  5-MIN KAQV 041135Z AUTO 17005KT 10SM BKN020 BKN045 OVC080 16/15 A3002 280 93 500 170/05 RMK AO2 RAE00B19E28 P0000 T01610150
03949KAQV AQV20190404054014204/04/19 05:40:31  5-MIN KAQV 041140Z AUTO VRB05KT 10SM BKN020 BKN065 OVC080 16/15 A3002 280 93 500 VRB/05 RMK AO2 RAE00B19E28 P0000 T01610150
03949KAQV AQV20190404054514304/04/19 05:45:31  5-MIN KAQV 041145Z AUTO VRB03KT 10SM -RA BKN020 BKN042 OVC085 16/15 A3001 290 93 500 VRB/03 RMK AO2 RAE00B19 P0000 T01610150
03949KAQV AQV20190404055018004/04/19 05:50:31  5-MIN KAQV 041150Z AUTO 00000KT 10SM -RA BKN020 BKN042 OVC085 16/15 A3002 290 93 500 000/00 RMK AO2 RAE00B19 SLP163 P0000 60011 70011 T01610150 10167 20144 56019
03949KAQV AQV20190404055517904/04/19 05:55:31  5-MIN KAQV 041155Z AUTO VRB04KT 10SM BKN020 BKN044 OVC055 16/15 A3002 280 93 500 VRB/04 RMK AO2 RAE00B19E54 SLP164 P0000 60011 70011 T01610150 10167 20144 56019
03949KAQV AQV20190404060012404/04/19 06:00:31  5-MIN KAQV 041200Z AUTO 16004KT 10SM BKN020 BKN042 OVC049 17/16 A3002 280 93 600 160/04 RMK AO2 T01670156
03949KAQV AQV20190404060512404/04/19 06:05:31  5-MIN KAQV 041205Z AUTO VRB06KT 10SM BKN018 BKN042 OVC050 17/16 A3002 280 93 600 VRB/06 RMK AO2 T01670156
03949KAQV AQV20190404061012404/04/19 06:10:31  5-MIN KAQV 041210Z AUTO VRB05KT 10SM BKN018 BKN042 OVC050 17/16 A3003 280 93 600 VRB/05 RMK AO2 T01670156
03949KAQV AQV20190404061511404/04/19 06:15:31  5-MIN KAQV 041215Z AUTO 10SM BKN018 BKN042 OVC050 17/16 A3002 280 93 600 M /M RMK AO2 T01670156
03949KAQV AQV20190404062011004/04/19 06:20:31  5-MIN KAQV 041220Z AUTO 15005KT 10SM BKN016 17/16 A3002 290 93 600 150/05 RMK AO2 T01670156
03949KAQV AQV20190404062511004/04/19 06:25:31  5-MIN KAQV 041225Z AUTO VRB05KT 10SM OVC016 17/16 A3001 290 93 600 VRB/05 RMK AO2 T01670156
03949KAQV AQV20190404063011004/04/19 06:30:31  5-MIN KAQV 041230Z AUTO VRB05KT 10SM OVC014 17/16 A3001 290 93 600 VRB/05 RMK AO2 T01670156
03949KAQV AQV20190404063511004/04/19 06:35:31  5-MIN KAQV 041235Z AUTO VRB04KT 10SM OVC014 17/16 A3001 290 93 700 VRB/04 RMK AO2 T01720161
03949KAQV AQV20190404064011004/04/19 06:40:31  5-MIN KAQV 041240Z AUTO 16006KT 10SM OVC014 17/16 A3001 290 93 700 160/06 RMK AO2 T01720161
03949KAQV AQV20190404064511004/04/19 06:45:31  5-MIN KAQV 041245Z AUTO VRB04KT 10SM OVC014 17/16 A3001 290 93 700 VRB/04 RMK AO2 T01720161
03949KAQV AQV20190404065013304/04/19 06:50:31  5-MIN KAQV 041250Z AUTO 15008KT 120V190 10SM OVC013 17/16 A3001 290 93 700 150/08 120V190 RMK AO2 SLP162 T01720161
03949KAQV AQV20190404065512404/04/19 06:55:31  5-MIN KAQV 041255Z AUTO VRB05KT 10SM FEW007 OVC013 17/16 A3002 290 93 700 VRB/05 RMK AO2 SLP163 T01720161
03949KAQV AQV20190404070011704/04/19 07:00:31  5-MIN KAQV 041300Z AUTO VRB05KT 10SM FEW007 OVC013 17/16 A3002 290 93 700 VRB/05 RMK AO2 T01720161
03949KAQV AQV20190404070511704/04/19 07:05:31  5-MIN KAQV 041305Z AUTO VRB04KT 10SM FEW007 OVC013 17/16 A3002 290 93 700 VRB/04 RMK AO2 T01720161
03949KAQV AQV20190404071011704/04/19 07:10:31  5-MIN KAQV 041310Z AUTO VRB06KT 10SM FEW007 OVC013 17/16 A3003 280 93 600 VRB/06 RMK AO2 T01720161
03949KAQV AQV20190404071511704/04/19 07:15:31  5-MIN KAQV 041315Z AUTO VRB05KT 10SM SCT007 OVC013 17/16 A3003 280 93 600 VRB/05 RMK AO2 T01720161
03949KAQV AQV20190404072011004/04/19 07:20:31  5-MIN KAQV 041320Z AUTO VRB06KT 10SM OVC011 17/16 A3003 270 93 600 VRB/06 RMK AO2 T01720161
03949KAQV AQV20190404072512904/04/19 07:25:31  5-MIN KAQV 041325Z AUTO 16006KT 10SM BKN008 OVC011 17/16 A3004 270 93 600 150/06 RMK AO2 CIG 006V011 T01720161
03949KAQV AQV20190404073012204/04/19 07:30:31  5-MIN KAQV 041330Z AUTO 16006KT 10SM OVC010 17/16 A3004 260 93 600 160/06 RMK AO2 CIG 006V015 T01720161
03949KAQV AQV20190404073512204/04/19 07:35:31  5-MIN KAQV 041335Z AUTO VRB06KT 10SM OVC010 17/16 A3004 270 93 600 VRB/06 RMK AO2 CIG 006V015 T01720161
03949KAQV AQV20190404074012204/04/19 07:40:31  5-MIN KAQV 041340Z AUTO 16006KT 10SM OVC008 17/16 A3004 270 93 600 160/06 RMK AO2 CIG 006V012 T01720161
03949KAQV AQV20190404074512204/04/19 07:45:31  5-MIN KAQV 041345Z AUTO 17006KT 10SM OVC008 17/16 A3004 270 93 600 170/06 RMK AO2 CIG 006V011 T01720161
03949KAQV AQV20190404075014504/04/19 07:50:31  5-MIN KAQV 041350Z AUTO VRB05KT 10SM -RA OVC008 18/16 A3003 270 90 700 VRB/05 RMK AO2 RAB49 CIG 006V011 SLP168 P0000 T01780161
03949KAQV AQV20190404075515204/04/19 07:55:31  5-MIN KAQV 041355Z AUTO 15005KT 10SM -RA BKN008 OVC036 18/16 A3002 280 90 700 150/05 RMK AO2 RAB49 CIG 006V011 SLP165 P0000 T01780161
03949KAQV AQV20190404080014304/04/19 08:00:31  5-MIN KAQV 041400Z AUTO VRB04KT 10SM BKN008 OVC038 18/17 A3002 280 93 700 VRB/04 RMK AO2 RAE1359 CIG 006V011 P0000 T01780167
03949KAQV AQV20190404080514304/04/19 08:05:31  5-MIN KAQV 041405Z AUTO VRB04KT 10SM BKN008 OVC038 18/17 A3003 280 93 700 VRB/04 RMK AO2 RAE1359 CIG 006V011 P0000 T01780167
03949KAQV AQV20190404081014304/04/19 08:10:31  5-MIN KAQV 041410Z AUTO VRB06KT 10SM BKN008 OVC038 18/16 A3003 280 90 700 VRB/06 RMK AO2 RAE1359 CIG 006V011 P0000 T01780161
03949KAQV AQV20190404081514304/04/19 08:15:31  5-MIN KAQV 041415Z AUTO VRB05KT 10SM BKN008 OVC038 18/16 A3003 270 90 700 VRB/05 RMK AO2 RAE1359 CIG 006V011 P0000 T01780161
03949KAQV AQV20190404082014304/04/19 08:20:31  5-MIN KAQV 041420Z AUTO VRB06KT 10SM BKN008 OVC038 18/17 A3004 270 93 700 VRB/06 RMK AO2 RAE1359 CIG 006V012 P0000 T01780167
03949KAQV AQV20190404082514304/04/19 08:25:31  5-MIN KAQV 041425Z AUTO 17005KT 10SM BKN008 OVC038 18/17 A3003 270 93 700 170/05 RMK AO2 RAE1359 CIG 006V012 P0000 T01780167
03949KAQV AQV20190404083013104/04/19 08:30:31  5-MIN KAQV 041430Z AUTO VRB05KT 10SM BKN008 OVC036 18/17 A3002 280 93 700 VRB/05 RMK AO2 RAE1359 P0000 T01780167
03949KAQV AQV20190404083513104/04/19 08:35:31  5-MIN KAQV 041435Z AUTO 18005KT 10SM BKN008 OVC036 18/17 A3002 280 93 700 170/05 RMK AO2 RAE1359 P0000 T01780167
03949KAQV AQV20190404084013104/04/19 08:40:31  5-MIN KAQV 041440Z AUTO 18005KT 10SM BKN008 OVC036 18/17 A3002 280 90 800 180/05 RMK AO2 RAE1359 P0000 T01830167
03949KAQV AQV20190404084514704/04/19 08:45:31  5-MIN KAQV 041445Z AUTO 16007KT 130V190 10SM BKN008 OVC036 18/17 A3002 290 90 800 160/07 130V190 RMK AO2 RAE1359 P0000 T01830167
03949KAQV AQV20190404085016604/04/19 08:50:31  5-MIN KAQV 041450Z AUTO 17007KT 130V200 10SM BKN008 OVC036 18/17 A3001 290 90 800 160/07 130V200 RMK AO2 RAE1359 SLP161 P0000 60000 T01830167 50000
03949KAQV AQV20190404085516304/04/19 08:55:31  5-MIN KAQV 041455Z AUTO 17008G17KT 10SM BKN008 BKN032 OVC040 19/17 A3001 290 90 900 170/08G17 RMK AO2 RAE1359 SLP161 P0000 60000 T01890172 50000
03949KAQV AQV20190404090012304/04/19 09:00:31  5-MIN KAQV 041500Z AUTO 17005G17KT 10SM BKN008 BKN032 19/17 A3001 290 90 900 170/05G17 RMK AO2 T01890172
03949KAQV AQV20190404090514004/04/19 09:05:31  5-MIN KAQV 041505Z AUTO 17008G16KT 140V200 10SM BKN008 BKN032 20/18 A3001 300 87 1000 170/08G16 140V200 RMK AO2 T02000178
03949KAQV AQV20190404091011004/04/19 09:10:31  5-MIN KAQV 041510Z AUTO VRB05KT 10SM BKN008 19/17 A3000 300 87 900 VRB/05 RMK AO2 T01940172
03949KAQV AQV20190404091511604/04/19 09:15:31  5-MIN KAQV 041515Z AUTO 17006G20KT 10SM BKN008 19/17 A3000 300 84 900 170/06G20 RMK AO2 T01940167
03949KAQV AQV20190404092011604/04/19 09:20:31  5-MIN KAQV 041520Z AUTO 18011G20KT 10SM BKN008 19/17 A3002 290 87 900 170/11G20 RMK AO2 T01890167
03949KAQV AQV20190404092514904/04/19 09:25:31  5-MIN KAQV 041525Z AUTO 17006G18KT 10SM -TSRA OVC008 19/17 A3001 290 87 900 160/06G18 RMK AO2 RAB24 P000 AO2 CIG 003V008 T01940183
03949KAQV AQV20190404141013904/04/19 14:10:31  5-MIN KAQV 042010Z AUTO 20004KT 5SM -TSRA BR FEW009 BKN028 OVC040 19/18 A2994 360 93 1000 190/04 RMK AO2 P0001 T01940183
03949KAQV AQV20190404141515104/04/19 14:15:31  5-MIN KAQV 042015Z AUTO VRB03KT 4SM -TSRA BR SCT009 BKN019 OVC037 19/18 A2994 360 93 1000 VRB/03 RMK AO2 CIG 013V025 P0001 T01940183
03949KAQV AQV20190404142013904/04/19 14:20:31  5-MIN KAQV 042020Z AUTO VRB05KT 6SM -TSRA BR SCT007 BKN014 OVC032 19/19 A2994 360 97 1000 VRB/05 RMK AO2 P0001 T01940189
03949KAQV AQV20190404142513904/04/19 14:25:31  5-MIN KAQV 042025Z AUTO 18006KT 9SM TS FEW007 BKN012 OVC032 19/18 A2993 360 93 1000 170/06 RMK AO2 RAE23 P0001 T01940183
03949KAQV AQV20190404143013904/04/19 14:30:31  5-MIN KAQV 042030Z AUTO 18004KT 7SM TS SCT007 BKN012 OVC019 19/18 A2993 360 93 1000 180/04 RMK AO2 RAE23 P0001 T01940183
03949KAQV AQV20190404143513504/04/19 14:35:31  5-MIN KAQV 042035Z AUTO 19005KT 5SM TS BR BKN009 OVC015 19/18 A2993 360 93 1000 190/05 RMK AO2 RAE23 P0001 T01940183
03949KAQV AQV20190404144014204/04/19 14:40:31  5-MIN KAQV 042040Z AUTO 18005KT 5SM TS BR BKN007 BKN010 OVC013 19/18 A2993 370 93 1000 180/05 RMK AO2 RAE23 P0001 T01940183
03949KAQV AQV20190404144514504/04/19 14:45:31  5-MIN KAQV 042045Z AUTO VRB05KT 5SM BR BKN007 BKN010 OVC013 19/19 A2993 360 97 1000 VRB/05 RMK AO2 RAE23 TSE42 P0001 T01940189
03949KAQV AQV20190404145015704/04/19 14:50:31  5-MIN KAQV 042050Z AUTO VRB03KT 5SM BR BKN005 OVC008 19/18 A2994 360 93 1000 VRB/03 RMK AO2 RAE23 TSE42 SLP135 P0001 60053 T01940183 58007
03949KAQV AQV20190404145515704/04/19 14:55:31  5-MIN KAQV 042055Z AUTO 18004KT 4SM BR BKN005 OVC008 19/18 A2994 360 93 1000 170/04 RMK AO2 RAE23 TSE42 SLP135 P0001 60053 T01940183 58007
03949KAQV AQV20190404150012504/04/19 15:00:31  5-MIN KAQV 042100Z AUTO VRB03KT 4SM BR OVC004 19/18 A2993 370 93 1000 VRB/03 RMK AO2 CIG 003V008 T01940183
03949KAQV AQV20190404150511304/04/19 15:05:31  5-MIN KAQV 042105Z AUTO VRB04KT 4SM BR OVC004 19/18 A2993 370 93 1000 VRB/04 RMK AO2 T01940183
03949KAQV AQV20190404151011304/04/19 15:10:31  5-MIN KAQV 042110Z AUTO VRB04KT 5SM BR OVC004 19/18 A2993 370 93 1000 VRB/04 RMK AO2 T01940183
03949KAQV AQV20190404151513704/04/19 15:15:31  5-MIN KAQV 042115Z AUTO VRB05KT 4SM -TSRA BR OVC004 19/18 A2993 370 93 1000 VRB/05 RMK AO2 RAB13 TSB15 P0000 T01940183
03949KAQV AQV20190404152014004/04/19 15:20:31  5-MIN KAQV 042120Z AUTO VRB03KT 2 1/2SM TSRA BR OVC004 19/19 A2992 370 97 1000 VRB/03 RMK AO2 RAB13 TSB15 P0001 T01940189
03949KAQV AQV20190404152514104/04/19 15:25:31  5-MIN KAQV 042125Z AUTO 19004KT 2 1/2SM -TSRA BR OVC003 19/18 A2993 370 93 1000 190/04 RMK AO2 RAB13 TSB15 P0002 T01940183
03949KAQV AQV20190404153013704/04/19 15:30:31  5-MIN KAQV 042130Z AUTO 00000KT 1SM +TSRA BR OVC003 19/18 A2993 370 93 1000 000/00 RMK AO2 RAB13 TSB15 P0009 T01940183
03949KAQV AQV20190404153513904/04/19 15:35:31  5-MIN KAQV 042135Z AUTO 00000KT 1/2SM +TSRA FG OVC003 19/18 A2992 370 93 1000 000/00 RMK AO2 RAB13 TSB15 P0014 T01940183
03949KAQV AQV20190404154013904/04/19 15:40:31  5-MIN KAQV 042140Z AUTO 00000KT 1/4SM +TSRA FG OVC003 19/19 A2993 370 97 1000 000/00 RMK AO2 RAB13 TSB15 P0032 T01940189
03949KAQV AQV20190404154514604/04/19 15:45:31  5-MIN KAQV 042145Z AUTO 16005KT 1/4SM +TSRA FG SCT003 OVC009 19/19 A2992 380 97 1000 160/05 RMK AO2 RAB13 TSB15 P0051 T01940189
03949KAQV AQV20190404155015304/04/19 15:50:31  5-MIN KAQV 042150Z AUTO 17007KT 1/4SM +TSRA FG FEW003 OVC009 19/19 A2992 380 97 1000 160/07 RMK AO2 RAB13 TSB15 SLP129 P0074 T01940189
03949KAQV AQV20190404155515904/04/19 15:55:31  5-MIN KAQV 042155Z AUTO VRB05KT 1/4SM TSRA FG FEW003 BKN009 OVC034 19/19 A2992 380 97 1000 VRB/05 RMK AO2 RAB13 TSB15 SLP130 P0076 T01940189
03949KAQV AQV20190404160014304/04/19 16:00:31  5-MIN KAQV 042200Z AUTO VRB03KT 1 1/2SM -TSRA BR FEW003 BKN009 OVC032 19/19 A2993 370 97 1000 VRB/03 RMK AO2 P0001 T01940189
03949KAQV AQV20190404160513904/04/19 16:05:31  5-MIN KAQV 042205Z AUTO VRB05KT 4SM -TSRA BR FEW003 BKN011 OVC030 19/19 A2993 370 97 1000 VRB/05 RMK AO2 P0001 T01940189
03949KAQV AQV20190404161013904/04/19 16:10:31  5-MIN KAQV 042210Z AUTO 23004KT 6SM -TSRA BR FEW005 BKN011 OVC032 20/19 A2993 370 93 1100 220/04 RMK AO2 P0001 T02000189
03949KAQV AQV20190404161513904/04/19 16:15:31  5-MIN KAQV 042215Z AUTO 21003KT 9SM TS FEW005 BKN011 OVC032 20/19 A2993 370 93 1100 210/03 RMK AO2 RAE13 P0001 T02000189
03949KAQV AQV20190404162014004/04/19 16:20:31  5-MIN KAQV 042220Z AUTO VRB03KT 10SM TS FEW005 BKN011 OVC032 20/19 A2993 370 97 1100 VRB/03 RMK AO2 RAE13 P0001 T02000194
03949KAQV AQV20190404162515404/04/19 16:25:31  5-MIN KAQV 042225Z AUTO VRB04KT 9SM SCT005 BKN011 OVC014 20/19 A2993 370 93 1100 VRB/04 RMK AO2 RAE13 TSE23 CIG 008V011 P0001 T02000189
03949KAQV AQV20190404163014704/04/19 16:30:31  5-MIN KAQV 042230Z AUTO 19003KT 7SM BKN007 OVC011 20/19 A2993 370 93 1100 190/03 RMK AO2 RAE13 TSE23 CIG 003V010 P0001 T02000189
03949KAQV AQV20190404163513804/04/19 16:35:31  5-MIN KAQV 042235Z AUTO 00000KT 6SM BR BKN005 OVC009 20/19 A2993 370 93 1100 000/00 RMK AO2 RAE13 TSE23 P0001 T02000189
03949KAQV AQV20190404164015004/04/19 16:40:31  5-MIN KAQV 042240Z AUTO 00000KT 5SM BR BKN005 OVC009 20/19 A2993 370 93 1100 000/00 RMK AO2 RAE13 TSE23 CIG 003V008 P0001 T02000189
03949KAQV AQV20190404164513804/04/19 16:45:31  5-MIN KAQV 042245Z AUTO 19003KT 5SM BR BKN004 OVC009 20/19 A2993 370 93 1100 180/03 RMK AO2 RAE13 TSE23 P0001 T02000189
03949KAQV AQV20190404165013804/04/19 16:50:31  5-MIN KAQV 042250Z AUTO 18003KT 4SM BR OVC004 20/19 A2994 360 93 1100 180/03 RMK AO2 RAE13 TSE23 SLP135 P0001 T02000189
03949KAQV AQV20190404165513804/04/19 16:55:31  5-MIN KAQV 042255Z AUTO 17003KT 4SM BR OVC004 20/19 A2993 370 97 1100 160/03 RMK AO2 RAE13 TSE23 SLP133 P0001 T02000194
03949KAQV AQV20190404170011304/04/19 17:00:31  5-MIN KAQV 042300Z AUTO VRB03KT 4SM BR OVC003 20/19 A2993 370 97 1100 VRB/03 RMK AO2 T02000194
03949KAQV AQV20190404170511304/04/19 17:05:31  5-MIN KAQV 042305Z AUTO 00000KT 5SM BR OVC003 20/19 A2993 370 97 1100 000/00 RMK AO2 T02000194
03949KAQV AQV20190404171011304/04/19 17:10:31  5-MIN KAQV 042310Z AUTO 00000KT 6SM BR OVC003 20/19 A2993 370 97 1100 000/00 RMK AO2 T02000194
03949KAQV AQV20190404171511304/04/19 17:15:31  5-MIN KAQV 042315Z AUTO 16003KT 6SM BR OVC003 20/19 A2993 370 93 1100 150/03 RMK AO2 T02000189
03949KAQV AQV20190404172011004/04/19 17:20:31  5-MIN KAQV 042320Z AUTO 00000KT 7SM OVC003 20/19 A2993 370 93 1100 000/00 RMK AO2 T02000189
03949KAQV AQV20190404172511004/04/19 17:25:31  5-MIN KAQV 042325Z AUTO 00000KT 8SM OVC003 21/19 A2993 370 93 1100 000/00 RMK AO2 T02060194
03949KAQV AQV20190404173011904/04/19 17:30:31  5-MIN KAQV 042330Z AUTO VRB03KT 8SM TS OVC003 21/19 A2993 370 93 1100 VRB/03 RMK AO2 TSB26 T02060194
03949KAQV AQV20190404173511904/04/19 17:35:31  5-MIN KAQV 042335Z AUTO 00000KT 8SM TS OVC004 21/19 A2993 360 93 1100 000/00 RMK AO2 TSB26 T02060194
03949KAQV AQV20190404174011904/04/19 17:40:31  5-MIN KAQV 042340Z AUTO 17003KT 7SM TS OVC004 21/19 A2994 360 93 1100 170/03 RMK AO2 TSB26 T02060194
03949KAQV AQV20190404174512204/04/19 17:45:31  5-MIN KAQV 042345Z AUTO 00000KT 6SM BR OVC004 21/19 A2993 360 93 1100 000/00 RMK AO2 TSB26E41 T02060194
03949KAQV AQV20190404175015304/04/19 17:50:31  5-MIN KAQV 042350Z AUTO 15004KT 5SM BR OVC003 21/19 A2993 370 93 1100 150/04 RMK AO2 TSB26E41 SLP133 60130 T02060194 10206 20183 55007
03949KAQV AQV20190404175515304/04/19 17:55:31  5-MIN KAQV 042355Z AUTO VRB04KT 4SM BR OVC003 21/19 A2993 370 93 1100 VRB/04 RMK AO2 TSB26E41 SLP134 60130 T02060194 10206 20183 55007
03949KAQV AQV20190404180011304/04/19 18:00:31  5-MIN KAQV 050000Z AUTO 16006KT 4SM BR OVC003 21/19 A2993 370 93 1100 160/06 RMK AO2 T02060194
03949KAQV AQV20190404180511704/04/19 18:05:31  5-MIN KAQV 050005Z AUTO 17004KT 2 1/2SM BR OVC003 21/19 A2993 360 93 1100 170/04 RMK AO2 T02060194
03949KAQV AQV20190404181012604/04/19 18:10:31  5-MIN KAQV 050010Z AUTO 16003KT 2 1/2SM TS BR OVC003 21/19 A2993 360 93 1100 150/03 RMK AO2 TSB08 T02060194
03949KAQV AQV20190404181512604/04/19 18:15:31  5-MIN KAQV 050015Z AUTO VRB04KT 2 1/2SM TS BR OVC002 21/19 A2993 370 93 1100 VRB/04 RMK AO2 TSB08 T02060194
03949KAQV AQV20190404182012204/04/19 18:20:31  5-MIN KAQV 050020Z AUTO 00000KT 3SM TS BR OVC002 21/19 A2993 370 93 1100 000/00 RMK AO2 TSB08 T02060194
03949KAQV AQV20190404182512204/04/19 18:25:31  5-MIN KAQV 050025Z AUTO 00000KT 3SM BR OVC002 21/19 A2993 370 93 1100 000/00 RMK AO2 TSB08E23 T02060194
03949KAQV AQV20190404183012204/04/19 18:30:31  5-MIN KAQV 050030Z AUTO 00000KT 3SM BR OVC002 21/19 A2994 360 93 1100 000/00 RMK AO2 TSB08E23 T02060194
03949KAQV AQV20190404183512204/04/19 18:35:31  5-MIN KAQV 050035Z AUTO 00000KT 4SM BR OVC002 21/19 A2994 360 93 1100 000/00 RMK AO2 TSB08E23 T02060194
03949KAQV AQV20190404184012204/04/19 18:40:31  5-MIN KAQV 050040Z AUTO 05003KT 4SM BR OVC002 21/19 A2994 360 93 1100 050/03 RMK AO2 TSB08E23 T02060194
03949KAQV AQV20190404184512204/04/19 18:45:31  5-MIN KAQV 050045Z AUTO 03003KT 3SM BR OVC002 21/19 A2994 360 93 1100 020/03 RMK AO2 TSB08E23 T02060194
03949KAQV AQV20190404185012904/04/19 18:50:31  5-MIN KAQV 050050Z AUTO 00000KT 3SM BR OVC002 21/19 A2995 350 93 1100 000/00 RMK AO2 TSB08E23 SLP139 T02060194
03949KAQV AQV20190404185512904/04/19 18:55:31  5-MIN KAQV 050055Z AUTO 06003KT 3SM BR OVC002 21/19 A2994 360 93 1100 060/03 RMK AO2 TSB08E23 SLP137 T02060194
03949KAQV AQV20190404190011304/04/19 19:00:31  5-MIN KAQV 050100Z AUTO VRB04KT 2SM BR OVC002 20/19 A2994 360 97 1100 VRB/04 RMK AO2 T02000194
03949KAQV AQV20190404190511704/04/19 19:05:31  5-MIN KAQV 050105Z AUTO 07003KT 1 1/2SM BR OVC002 20/19 A2994 350 97 1100 060/03 RMK AO2 T02000194
03949KAQV AQV20190404191011704/04/19 19:10:31  5-MIN KAQV 050110Z AUTO 06004KT 1 3/4SM BR OVC002 20/19 A2995 350 97 1100 060/04 RMK AO2 T02000194
03949KAQV AQV20190404191511704/04/19 19:15:31  5-MIN KAQV 050115Z AUTO VRB03KT 1 3/4SM BR OVC002 20/19 A2995 350 97 1100 VRB/03 RMK AO2 T02000194
03949KAQV AQV20190404192011704/04/19 19:20:31  5-MIN KAQV 050120Z AUTO 08003KT 1 3/4SM BR OVC002 20/19 A2995 350 97 1000 070/03 RMK AO2 T02000194
03949KAQV AQV20190404192511704/04/19 19:25:31  5-MIN KAQV 050125Z AUTO VRB03KT 1 3/4SM BR OVC002 20/19 A2996 340 97 1000 VRB/03 RMK AO2 T02000194
03949KAQV AQV20190404193011704/04/19 19:30:31  5-MIN KAQV 050130Z AUTO VRB03KT 1 1/2SM BR OVC002 20/19 A2996 340 97 1000 VRB/03 RMK AO2 T02000194
03949KAQV AQV20190404193511704/04/19 19:35:31  5-MIN KAQV 050135Z AUTO VRB03KT 1 1/2SM BR OVC002 20/19 A2996 340 97 1000 VRB/03 RMK AO2 T02000194
03949KAQV AQV20190404194011704/04/19 19:40:31  5-MIN KAQV 050140Z AUTO VRB03KT 1 1/4SM BR OVC002 20/19 A2996 340 93 1000 VRB/03 RMK AO2 T02000189
03949KAQV AQV20190404194511704/04/19 19:45:31  5-MIN KAQV 050145Z AUTO VRB04KT 1 1/2SM BR OVC002 20/19 A2997 330 93 1000 VRB/04 RMK AO2 T02000189
03949KAQV AQV20190404195012404/04/19 19:50:31  5-MIN KAQV 050150Z AUTO 00000KT 1 1/2SM BR OVC002 20/19 A2997 330 93 1000 000/00 RMK AO2 SLP146 T02000189
03949KAQV AQV20190404195512404/04/19 19:55:31  5-MIN KAQV 050155Z AUTO 00000KT 1 1/2SM BR OVC002 19/19 A2997 330 97 1000 000/00 RMK AO2 SLP148 T01940189
03949KAQV AQV20190404200011704/04/19 20:00:31  5-MIN KAQV 050200Z AUTO VRB03KT 1 1/2SM BR OVC002 19/19 A2997 330 97 1000 VRB/03 RMK AO2 T01940189
03949KAQV AQV20190404200511704/04/19 20:05:31  5-MIN KAQV 050205Z AUTO VRB03KT 1 1/2SM BR OVC002 19/19 A2998 330 97 1000 VRB/03 RMK AO2 T01940189
03949KAQV AQV20190404201011704/04/19 20:10:31  5-MIN KAQV 050210Z AUTO VRB03KT 1 1/2SM BR OVC002 19/19 A2997 330 97 1000 VRB/03 RMK AO2 T01940189
03949KAQV AQV20190404201511704/04/19 20:15:31  5-MIN KAQV 050215Z AUTO 00000KT 1 3/4SM BR OVC002 19/19 A2998 330 97 1000 000/00 RMK AO2 T01940189
03949KAQV AQV20190404202011304/04/19 20:20:31  5-MIN KAQV 050220Z AUTO VRB03KT 2SM BR OVC002 19/19 A2997 330 97 1000 VRB/03 RMK AO2 T01940189
03949KAQV AQV20190404202511304/04/19 20:25:31  5-MIN KAQV 050225Z AUTO VRB03KT 2SM BR OVC002 19/19 A2997 330 97 1000 VRB/03 RMK AO2 T01940189
03949KAQV AQV20190404203011304/04/19 20:30:31  5-MIN KAQV 050230Z AUTO 00000KT 2SM BR OVC002 19/18 A2997 330 93 1000 000/00 RMK AO2 T01940183
03949KAQV AQV20190404203511704/04/19 20:35:31  5-MIN KAQV 050235Z AUTO VRB03KT 1 3/4SM BR OVC002 19/18 A2998 320 93 1000 VRB/03 RMK AO2 T01940183
03949KAQV AQV20190404204011704/04/19 20:40:31  5-MIN KAQV 050240Z AUTO 00000KT 1 1/2SM BR OVC002 19/18 A2998 320 93 1000 000/00 RMK AO2 T01940183
03949KAQV AQV20190404204511604/04/19 20:45:31  5-MIN KAQV 050245Z AUTO 00000KT 1 1/2SM BR OVC002 19/18 A2999 320 93 900 000/00 RMK AO2 T01940183
03949KAQV AQV20190404205013004/04/19 20:50:31  5-MIN KAQV 050250Z AUTO VRB03KT 1 1/2SM BR OVC002 19/18 A2999 320 93 1000 VRB/03 RMK AO2 SLP152 T01940183 55002
03949KAQV AQV20190404205512904/04/19 20:55:31  5-MIN KAQV 050255Z AUTO VRB03KT 1 1/4SM BR OVC002 19/18 A2999 310 97 900 VRB/03 RMK AO2 SLP153 T01890183 55002
03949KAQV AQV20190404210011604/04/19 21:00:31  5-MIN KAQV 050300Z AUTO 00000KT 1 1/4SM BR OVC002 19/18 A2999 310 97 900 000/00 RMK AO2 T01890183
03949KAQV AQV20190404210511604/04/19 21:05:31  5-MIN KAQV 050305Z AUTO VRB03KT 1 1/4SM BR OVC002 19/18 A2999 320 97 900 VRB/03 RMK AO2 T01890183
03949KAQV AQV20190404211011204/04/19 21:10:31  5-MIN KAQV 050310Z AUTO VRB03KT 1SM BR OVC002 19/18 A2998 320 97 900 VRB/03 RMK AO2 T01890183
03949KAQV AQV20190404211511204/04/19 21:15:31  5-MIN KAQV 050315Z AUTO VRB03KT 1SM BR OVC002 19/18 A2999 310 97 900 VRB/03 RMK AO2 T01890183
03949KAQV AQV20190404212011204/04/19 21:20:31  5-MIN KAQV 050320Z AUTO 00000KT 1SM BR OVC002 19/18 A2999 310 97 900 000/00 RMK AO2 T01890183
03949KAQV AQV20190404212511104/04/19 21:25:31  5-MIN KAQV 050325Z AUTO VRB04KT 1SM BR VV002 19/18 A2999 310 97 900 VRB/04 RMK AO2 T01890183
03949KAQV AQV20190404213011104/04/19 21:30:31  5-MIN KAQV 050330Z AUTO 00000KT 1SM BR VV002 19/18 A2999 310 97 900 000/00 RMK AO2 T01890183
03949KAQV AQV20190404213511104/04/19 21:35:31  5-MIN KAQV 050335Z AUTO 00000KT 1SM BR VV002 19/18 A2999 310 97 900 000/00 RMK AO2 T01890183
03949KAQV AQV20190404214011104/04/19 21:40:31  5-MIN KAQV 050340Z AUTO 00000KT 1SM BR VV002 19/18 A2999 310 97 900 000/00 RMK AO2 T01890183
03949KAQV AQV20190404214511204/04/19 21:45:31  5-MIN KAQV 050345Z AUTO VRB03KT 1SM BR OVC002 19/18 A2999 310 93 900 VRB/03 RMK AO2 T01890178
03949KAQV AQV20190404215012304/04/19 21:50:31  5-MIN KAQV 050350Z AUTO VRB03KT 1 1/4SM BR OVC002 19/18 A3000 310 93 900 VRB/03 RMK AO2 SLP156 T01890178
03949KAQV AQV20190404215512304/04/19 21:55:31  5-MIN KAQV 050355Z AUTO VRB04KT 1 1/4SM BR OVC002 19/18 A3000 300 93 900 VRB/04 RMK AO2 SLP156 T01890178
03949KAQV AQV20190404220011604/04/19 22:00:31  5-MIN KAQV 050400Z AUTO VRB03KT 1 1/2SM BR OVC002 18/18 A3000 310 96 800 VRB/03 RMK AO2 T01830178
03949KAQV AQV20190404220511604/04/19 22:05:31  5-MIN KAQV 050405Z AUTO VRB03KT 1 3/4SM BR OVC002 18/18 A3000 310 96 800 VRB/03 RMK AO2 T01830178
03949KAQV AQV20190404221011204/04/19 22:10:31  5-MIN KAQV 050410Z AUTO 00000KT 2SM BR OVC002 18/18 A2999 310 96 800 000/00 RMK AO2 T01830178
03949KAQV AQV20190404221511204/04/19 22:15:31  5-MIN KAQV 050415Z AUTO 00000KT 2SM BR OVC002 18/18 A2999 310 96 800 000/00 RMK AO2 T01830178
03949KAQV AQV20190404222011204/04/19 22:20:31  5-MIN KAQV 050420Z AUTO VRB03KT 2SM BR OVC002 18/18 A2999 310 96 800 VRB/03 RMK AO2 T01830178
03949KAQV AQV20190404222511204/04/19 22:25:31  5-MIN KAQV 050425Z AUTO 00000KT 2SM BR OVC002 18/18 A2999 310 96 800 000/00 RMK AO2 T01830178
03949KAQV AQV20190404223011204/04/19 22:30:31  5-MIN KAQV 050430Z AUTO VRB03KT 2SM BR OVC002 18/18 A2999 310 96 800 VRB/03 RMK AO2 T01830178
03949KAQV AQV20190404223511204/04/19 22:35:31  5-MIN KAQV 050435Z AUTO VRB03KT 2SM BR OVC002 18/18 A3000 310 96 800 VRB/03 RMK AO2 T01830178
03949KAQV AQV20190404224011604/04/19 22:40:31  5-MIN KAQV 050440Z AUTO 11004KT 2 1/2SM BR OVC002 18/18 A3000 300 96 800 110/04 RMK AO2 T01830178
03949KAQV AQV20190404224511604/04/19 22:45:31  5-MIN KAQV 050445Z AUTO VRB03KT 2 1/2SM BR OVC002 18/17 A3000 300 93 800 VRB/03 RMK AO2 T01830172
03949KAQV AQV20190404225011904/04/19 22:50:31  5-MIN KAQV 050450Z AUTO VRB04KT 2SM BR OVC002 18/17 A3001 300 93 800 VRB/04 RMK AO2 SLP159 T01830172
03949KAQV AQV20190404225511904/04/19 22:55:31  5-MIN KAQV 050455Z AUTO 13003KT 2SM BR OVC002 18/17 A3001 300 96 700 130/03 RMK AO2 SLP160 T01780172
03949KAQV AQV20190404230011204/04/19 23:00:31  5-MIN KAQV 050500Z AUTO 00000KT 2SM BR OVC002 18/17 A3001 290 96 700 000/00 RMK AO2 T01780172
03949KAQV AQV20190404230511204/04/19 23:05:31  5-MIN KAQV 050505Z AUTO VRB03KT 2SM BR OVC002 18/17 A3001 290 96 700 VRB/03 RMK AO2 T01780172
03949KAQV AQV20190404231011204/04/19 23:10:31  5-MIN KAQV 050510Z AUTO VRB03KT 2SM BR OVC002 18/17 A3001 290 96 700 VRB/03 RMK AO2 T01780172
03949KAQV AQV20190404231511204/04/19 23:15:31  5-MIN KAQV 050515Z AUTO 00000KT 2SM BR OVC002 18/17 A3001 290 96 700 000/00 RMK AO2 T01780172
03949KAQV AQV20190404232011204/04/19 23:20:31  5-MIN KAQV 050520Z AUTO VRB03KT 2SM BR OVC002 18/17 A3001 300 96 700 VRB/03 RMK AO2 T01780172
03949KAQV AQV20190404232511604/04/19 23:25:31  5-MIN KAQV 050525Z AUTO 00000KT 1 3/4SM BR OVC002 18/17 A3001 290 96 700 000/00 RMK AO2 T01780172
03949KAQV AQV20190404233011604/04/19 23:30:31  5-MIN KAQV 050530Z AUTO VRB03KT 1 3/4SM BR OVC002 18/17 A3001 290 96 700 VRB/03 RMK AO2 T01780172
03949KAQV AQV20190404233511204/04/19 23:35:31  5-MIN KAQV 050535Z AUTO 00000KT 2SM BR OVC002 18/17 A3001 300 96 700 000/00 RMK AO2 T01780172
03949KAQV AQV20190404234011604/04/19 23:40:31  5-MIN KAQV 050540Z AUTO 00000KT 1 3/4SM BR OVC002 18/17 A3001 300 96 700 000/00 RMK AO2 T01780172
03949KAQV AQV20190404234511604/04/19 23:45:31  5-MIN KAQV 050545Z AUTO 00000KT 1 3/4SM BR OVC002 18/17 A3001 300 96 700 000/00 RMK AO2 T01780172
03949KAQV AQV20190404235015104/04/19 23:50:31  5-MIN KAQV 050550Z AUTO 00000KT 1 3/4SM BR OVC002 18/17 A3001 300 96 700 000/00 RMK AO2 SLP159 T01780172 10206 20178 402060144 53019
03949KAQV AQV20190404235515104/04/19 23:55:31  5-MIN KAQV 050555Z AUTO 00000KT 1 1/2SM BR OVC002 18/17 A3001 300 96 700 000/00 RMK AO2 SLP159 T01780172 10206 20178 402060144 53019
03949KAQV AQV20190405000011604/05/19 00:00:31  5-MIN KAQV 050600Z AUTO 00000KT 1 1/2SM BR OVC002 18/17 A3000 300 96 700 000/00 RMK AO2 T01780172
03949KAQV AQV20190405000511604/05/19 00:05:31  5-MIN KAQV 050605Z AUTO VRB04KT 1 1/2SM BR OVC002 18/17 A3000 300 96 700 VRB/04 RMK AO2 T01780172
03949KAQV AQV20190405001011604/05/19 00:10:31  5-MIN KAQV 050610Z AUTO VRB04KT 1 1/2SM BR OVC002 18/17 A3000 300 93 700 VRB/04 RMK AO2 T01780167
03949KAQV AQV20190405001511604/05/19 00:15:31  5-MIN KAQV 050615Z AUTO 16005KT 1 3/4SM BR OVC002 18/17 A3000 300 93 700 160/05 RMK AO2 T01780167
03949KAQV AQV20190405002011604/05/19 00:20:31  5-MIN KAQV 050620Z AUTO VRB04KT 1 3/4SM BR OVC002 18/17 A3000 310 93 700 VRB/04 RMK AO2 T01780167
03949KAQV AQV20190405002511604/05/19 00:25:31  5-MIN KAQV 050625Z AUTO VRB03KT 1 3/4SM BR OVC002 17/17 A3000 310 96 700 VRB/03 RMK AO2 T01720167
03949KAQV AQV20190405003011604/05/19 00:30:31  5-MIN KAQV 050630Z AUTO VRB04KT 1 3/4SM BR OVC002 17/17 A2999 310 96 700 VRB/04 RMK AO2 T01720167
03949KAQV AQV20190405003511604/05/19 00:35:31  5-MIN KAQV 050635Z AUTO VRB03KT 1 3/4SM BR OVC002 17/17 A2999 310 96 700 VRB/03 RMK AO2 T01720167
03949KAQV AQV20190405004010604/05/19 00:40:31  5-MIN KAQV 050640Z AUTO 1 3/4SM BR OVC002 17/17 A2999 310 96 700 M /M RMK AO2 T01720167
03949KAQV AQV20190405004511604/05/19 00:45:31  5-MIN KAQV 050645Z AUTO VRB03KT 1 1/2SM BR OVC002 17/17 A2999 310 96 700 VRB/03 RMK AO2 T01720167
03949KAQV AQV20190405005012304/05/19 00:50:31  5-MIN KAQV 050650Z AUTO VRB03KT 1 1/2SM BR OVC002 17/17 A2999 310 96 700 VRB/03 RMK AO2 SLP153 T01720167
03949KAQV AQV20190405005512304/05/19 00:55:31  5-MIN KAQV 050655Z AUTO VRB03KT 1 1/2SM BR OVC002 17/17 A2999 310 96 700 VRB/03 RMK AO2 SLP153 T01720167
03949KAQV AQV20190405010011604/05/19 01:00:31  5-MIN KAQV 050700Z AUTO 00000KT 1 1/4SM BR OVC002 17/17 A2999 310 96 700 000/00 RMK AO2 T01720167
03949KAQV AQV20190405010511204/05/19 01:05:31  5-MIN KAQV 050705Z AUTO VRB03KT 1SM BR OVC002 17/17 A2999 310 96 700 VRB/03 RMK AO2 T01720167
03949KAQV AQV20190405011011104/05/19 01:10:31  5-MIN KAQV 050710Z AUTO 15003KT 1SM BR VV002 17/17 A2999 310 96 700 140/03 RMK AO2 T01720167
03949KAQV AQV20190405011511104/05/19 01:15:31  5-MIN KAQV 050715Z AUTO 00000KT 1SM BR VV003 17/17 A2999 320 96 700 000/00 RMK AO2 T01720167
03949KAQV AQV20190405012011104/05/19 01:20:31  5-MIN KAQV 050720Z AUTO VRB03KT 1SM BR VV003 17/17 A2999 310 96 700 VRB/03 RMK AO2 T01720167
03949KAQV AQV20190405012511604/05/19 01:25:31  5-MIN KAQV 050725Z AUTO 00000KT 1 1/4SM BR OVC003 17/17 A2999 310 96 700 000/00 RMK AO2 T01720167
03949KAQV AQV20190405013011604/05/19 01:30:31  5-MIN KAQV 050730Z AUTO VRB04KT 1 1/4SM BR OVC003 17/17 A2999 310 96 700 VRB/04 RMK AO2 T01720167
03949KAQV AQV20190405013511604/05/19 01:35:31  5-MIN KAQV 050735Z AUTO 00000KT 1 1/4SM BR OVC003 17/17 A2999 310 96 700 000/00 RMK AO2 T01720167
03949KAQV AQV20190405014011604/05/19 01:40:31  5-MIN KAQV 050740Z AUTO VRB04KT 1 1/4SM BR OVC003 17/17 A2999 310 96 700 VRB/04 RMK AO2 T01720167
03949KAQV AQV20190405014511604/05/19 01:45:31  5-MIN KAQV 050745Z AUTO 00000KT 1 1/4SM BR OVC002 17/17 A2999 310 96 700 000/00 RMK AO2 T01720167
03949KAQV AQV20190405015012304/05/19 01:50:31  5-MIN KAQV 050750Z AUTO 00000KT 1 1/4SM BR OVC002 17/17 A2999 310 96 700 000/00 RMK AO2 SLP153 T01720167
03949KAQV AQV20190405015512304/05/19 01:55:31  5-MIN KAQV 050755Z AUTO 00000KT 1 1/4SM BR OVC002 17/17 A2999 310 96 700 000/00 RMK AO2 SLP153 T01720167
03949KAQV AQV20190405020011604/05/19 02:00:31  5-MIN KAQV 050800Z AUTO VRB03KT 1 1/4SM BR OVC002 17/17 A2999 320 96 700 VRB/03 RMK AO2 T01720167
03949KAQV AQV20190405020511604/05/19 02:05:31  5-MIN KAQV 050805Z AUTO VRB03KT 1 1/4SM BR OVC002 17/17 A2999 320 96 700 VRB/03 RMK AO2 T01720167
03949KAQV AQV20190405021011204/05/19 02:10:31  5-MIN KAQV 050810Z AUTO 00000KT 1SM BR OVC002 17/17 A2998 320 96 700 000/00 RMK AO2 T01720167
03949KAQV AQV20190405021511204/05/19 02:15:31  5-MIN KAQV 050815Z AUTO 00000KT 1SM BR OVC002 17/17 A2998 320 96 700 000/00 RMK AO2 T01720167
03949KAQV AQV20190405022011104/05/19 02:20:31  5-MIN KAQV 050820Z AUTO 00000KT 1SM BR VV003 17/17 A2998 320 96 700 000/00 RMK AO2 T01720167
03949KAQV AQV20190405022511304/05/19 02:25:31  5-MIN KAQV 050825Z AUTO 00000KT 3/4SM BR VV003 17/17 A2998 320 96 700 000/00 RMK AO2 T01720167
03949KAQV AQV20190405023011304/05/19 02:30:31  5-MIN KAQV 050830Z AUTO 00000KT 3/4SM BR VV003 17/17 A2998 320 96 700 000/00 RMK AO2 T01720167
03949KAQV AQV20190405023511304/05/19 02:35:31  5-MIN KAQV 050835Z AUTO 00000KT 3/4SM BR VV003 17/17 A2997 330 96 700 000/00 RMK AO2 T01720167
03949KAQV AQV20190405024011304/05/19 02:40:31  5-MIN KAQV 050840Z AUTO 00000KT 3/4SM BR VV003 17/17 A2998 330 96 700 000/00 RMK AO2 T01720167
03949KAQV AQV20190405024511104/05/19 02:45:31  5-MIN KAQV 050845Z AUTO 00000KT 1SM BR VV003 17/17 A2998 330 96 700 000/00 RMK AO2 T01720167
03949KAQV AQV20190405025010604/05/19 02:50:31  5-MIN KAQV 050850Z AUTO 00000KT 1 1/4SM BR OVC003 17/17 A2997 330 96 700 000/00 RMK AO2
03949KAQV AQV20190405025512904/05/19 02:55:31  5-MIN KAQV 050855Z AUTO 00000KT 1 3/4SM BR OVC003 17/17 A2998 330 96 700 000/00 RMK AO2 SLP149 T01720167 50006
03949KAQV AQV20190405030011604/05/19 03:00:31  5-MIN KAQV 050900Z AUTO 00000KT 1 3/4SM BR OVC003 17/17 A2998 330 96 700 000/00 RMK AO2 T01720167
03949KAQV AQV20190405030511604/05/19 03:05:31  5-MIN KAQV 050905Z AUTO 00000KT 1 1/4SM BR OVC002 17/17 A2997 330 96 700 000/00 RMK AO2 T01720167
03949KAQV AQV20190405031011104/05/19 03:10:31  5-MIN KAQV 050910Z AUTO 00000KT 1SM BR VV003 17/17 A2997 330 96 700 000/00 RMK AO2 T01720167
03949KAQV AQV20190405031511304/05/19 03:15:31  5-MIN KAQV 050915Z AUTO 00000KT 3/4SM BR VV003 17/16 A2997 330 93 700 000/00 RMK AO2 T01720161
03949KAQV AQV20190405032011404/05/19 03:20:31  5-MIN KAQV 050920Z AUTO 00000KT 3/4SM BR OVC002 17/16 A2997 330 93 700 000/00 RMK AO2 T01720161
03949KAQV AQV20190405032511104/05/19 03:25:31  5-MIN KAQV 050925Z AUTO 00000KT 1SM BR VV003 17/17 A2997 330 96 700 000/00 RMK AO2 T01720167
03949KAQV AQV20190405033011304/05/19 03:30:31  5-MIN KAQV 050930Z AUTO 00000KT 3/4SM BR VV003 17/17 A2997 330 96 700 000/00 RMK AO2 T01720167
03949KAQV AQV20190405033511304/05/19 03:35:31  5-MIN KAQV 050935Z AUTO 00000KT 3/4SM BR VV003 17/17 A2997 330 96 700 000/00 RMK AO2 T01720167
03949KAQV AQV20190405034011304/05/19 03:40:31  5-MIN KAQV 050940Z AUTO 00000KT 1/2SM FG VV003 17/17 A2997 330 96 700 000/00 RMK AO2 T01720167
03949KAQV AQV20190405034511304/05/19 03:45:31  5-MIN KAQV 050945Z AUTO 00000KT 1/2SM FG VV003 17/17 A2997 330 96 700 000/00 RMK AO2 T01720167
03949KAQV AQV20190405035012004/05/19 03:50:31  5-MIN KAQV 050950Z AUTO 00000KT 1/2SM FG VV003 17/17 A2997 330 96 700 000/00 RMK AO2 SLP148 T01720167
03949KAQV AQV20190405035512004/05/19 03:55:31  5-MIN KAQV 050955Z AUTO 00000KT 1/2SM FG VV003 17/17 A2997 330 96 700 000/00 RMK AO2 SLP148 T01720167
03949KAQV AQV20190405040011304/05/19 04:00:31  5-MIN KAQV 051000Z AUTO 00000KT 1/2SM FG VV002 17/17 A2997 330 96 700 000/00 RMK AO2 T01720167
03949KAQV AQV20190405040511304/05/19 04:05:31  5-MIN KAQV 051005Z AUTO 00000KT 1/2SM FG VV002 17/17 A2997 330 96 700 000/00 RMK AO2 T01720167
03949KAQV AQV20190405041011304/05/19 04:10:31  5-MIN KAQV 051010Z AUTO 00000KT 1/2SM FG VV002 17/17 A2998 330 96 700 000/00 RMK AO2 T01720167
03949KAQV AQV20190405041511304/05/19 04:15:31  5-MIN KAQV 051015Z AUTO 00000KT 1/2SM FG VV002 17/17 A2997 330 96 700 000/00 RMK AO2 T01720167
03949KAQV AQV20190405042011304/05/19 04:20:31  5-MIN KAQV 051020Z AUTO 00000KT 1/2SM FG VV002 17/17 A2998 330 96 700 000/00 RMK AO2 T01720167
03949KAQV AQV20190405042511304/05/19 04:25:31  5-MIN KAQV 051025Z AUTO 00000KT 1/2SM FG VV003 17/17 A2998 320 96 700 000/00 RMK AO2 T01720167
03949KAQV AQV20190405043011304/05/19 04:30:31  5-MIN KAQV 051030Z AUTO 01003KT 1/2SM FG VV003 17/17 A2998 320 96 700 010/03 RMK AO2 T01720167
03949KAQV AQV20190405043511304/05/19 04:35:31  5-MIN KAQV 051035Z AUTO 00000KT 1/2SM FG VV003 17/17 A2997 330 96 700 000/00 RMK AO2 T01720167
03949KAQV AQV20190405044011304/05/19 04:40:31  5-MIN KAQV 051040Z AUTO 00000KT 3/4SM BR VV003 17/17 A2998 320 96 700 000/00 RMK AO2 T01720167
03949KAQV AQV20190405044511304/05/19 04:45:31  5-MIN KAQV 051045Z AUTO 01003KT 3/4SM BR VV003 17/17 A2998 320 96 700 360/03 RMK AO2 T01720167
03949KAQV AQV20190405045012004/05/19 04:50:31  5-MIN KAQV 051050Z AUTO 01003KT 3/4SM BR VV003 17/17 A2998 320 96 700 010/03 RMK AO2 SLP149 T01720167
03949KAQV AQV20190405045512004/05/19 04:55:31  5-MIN KAQV 051055Z AUTO 04003KT 3/4SM BR VV003 17/17 A2998 320 96 700 030/03 RMK AO2 SLP150 T01720167
03949KAQV AQV20190405050011304/05/19 05:00:31  5-MIN KAQV 051100Z AUTO 03003KT 3/4SM BR VV003 17/17 A2998 320 96 700 020/03 RMK AO2 T01720167
03949KAQV AQV20190405050511204/05/19 05:05:31  5-MIN KAQV 051105Z AUTO 04003KT 1SM BR OVC002 17/17 A2998 320 96 700 030/03 RMK AO2 T01720167
03949KAQV AQV20190405051011404/05/19 05:10:31  5-MIN KAQV 051110Z AUTO 03004KT 3/4SM BR OVC002 17/17 A2998 320 96 700 020/04 RMK AO2 T01720167
03949KAQV AQV20190405051511404/05/19 05:15:31  5-MIN KAQV 051115Z AUTO 05003KT 3/4SM BR OVC002 17/17 A2998 320 96 700 040/03 RMK AO2 T01720167
03949KAQV AQV20190405052011404/05/19 05:20:31  5-MIN KAQV 051120Z AUTO 00000KT 3/4SM BR OVC002 17/17 A2999 310 96 700 000/00 RMK AO2 T01720167
03949KAQV AQV20190405052511404/05/19 05:25:31  5-MIN KAQV 051125Z AUTO 03003KT 3/4SM BR OVC002 17/17 A2999 310 96 700 030/03 RMK AO2 T01720167
03949KAQV AQV20190405053011404/05/19 05:30:31  5-MIN KAQV 051130Z AUTO 02003KT 3/4SM BR OVC002 17/17 A2999 310 96 700 020/03 RMK AO2 T01720167
03949KAQV AQV20190405053511404/05/19 05:35:31  5-MIN KAQV 051135Z AUTO 02003KT 3/4SM BR OVC002 17/17 A2999 310 96 700 020/03 RMK AO2 T01720167
03949KAQV AQV20190405054011204/05/19 05:40:31  5-MIN KAQV 051140Z AUTO 00000KT 1SM BR OVC002 17/17 A2999 310 96 700 000/00 RMK AO2 T01720167
03949KAQV AQV20190405054511204/05/19 05:45:31  5-MIN KAQV 051145Z AUTO 00000KT 1SM BR OVC002 17/17 A3000 310 96 700 000/00 RMK AO2 T01720167
03949KAQV AQV20190405055014304/05/19 05:50:31  5-MIN KAQV 051150Z AUTO 00000KT 1SM BR OVC002 17/17 A3000 300 96 700 000/00 RMK AO2 SLP156 70172 T01720167 10172 20172 56010
03949KAQV AQV20190405055514304/05/19 05:55:31  5-MIN KAQV 051155Z AUTO 00000KT 1SM BR OVC002 17/17 A3000 300 96 700 000/00 RMK AO2 SLP156 70172 T01720167 10172 20172 56010
03949KAQV AQV20190405060011204/05/19 06:00:31  5-MIN KAQV 051200Z AUTO 00000KT 1SM BR OVC002 17/17 A3000 300 96 700 000/00 RMK AO2 T01720167
03949KAQV AQV20190405060511204/05/19 06:05:31  5-MIN KAQV 051205Z AUTO 00000KT 1SM BR OVC002 17/17 A3000 300 96 700 000/00 RMK AO2 T01720167
03949KAQV AQV20190405061011404/05/19 06:10:31  5-MIN KAQV 051210Z AUTO 00000KT 3/4SM BR OVC002 17/17 A3000 300 96 700 000/00 RMK AO2 T01720167
03949KAQV AQV20190405061511404/05/19 06:15:31  5-MIN KAQV 051215Z AUTO 07003KT 3/4SM BR OVC002 17/17 A3001 300 96 700 060/03 RMK AO2 T01720167
03949KAQV AQV20190405062011404/05/19 06:20:31  5-MIN KAQV 051220Z AUTO 00000KT 3/4SM BR OVC002 17/17 A3001 300 96 700 000/00 RMK AO2 T01720167
03949KAQV AQV20190405062511404/05/19 06:25:31  5-MIN KAQV 051225Z AUTO 00000KT 3/4SM BR OVC002 17/17 A3001 290 96 700 000/00 RMK AO2 T01720167
03949KAQV AQV20190405063011204/05/19 06:30:31  5-MIN KAQV 051230Z AUTO 05003KT 1SM BR OVC002 17/17 A3001 290 96 700 050/03 RMK AO2 T01720167
03949KAQV AQV20190405063511604/05/19 06:35:31  5-MIN KAQV 051235Z AUTO 06003KT 1 1/2SM BR OVC002 17/17 A3001 290 96 700 060/03 RMK AO2 T01720167
03949KAQV AQV20190405064011604/05/19 06:40:31  5-MIN KAQV 051240Z AUTO 05003KT 1 1/2SM BR OVC002 17/17 A3001 290 96 700 050/03 RMK AO2 T01720167
03949KAQV AQV20190405064511604/05/19 06:45:31  5-MIN KAQV 051245Z AUTO 00000KT 1 3/4SM BR OVC002 17/17 A3001 290 96 700 000/00 RMK AO2 T01720167
03949KAQV AQV20190405065012304/05/19 06:50:31  5-MIN KAQV 051250Z AUTO 00000KT 1 3/4SM BR OVC002 17/17 A3002 290 96 700 000/00 RMK AO2 SLP162 T01720167
03949KAQV AQV20190405065512304/05/19 06:55:31  5-MIN KAQV 051255Z AUTO 03003KT 1 1/4SM BR OVC002 17/17 A3002 290 96 700 030/03 RMK AO2 SLP163 T01720167
03949KAQV AQV20190405070011604/05/19 07:00:31  5-MIN KAQV 051300Z AUTO 00000KT 1 1/4SM BR OVC003 17/17 A3002 290 96 700 000/00 RMK AO2 T01720167
03949KAQV AQV20190405070511204/05/19 07:05:31  5-MIN KAQV 051305Z AUTO 04003KT 1SM BR OVC003 17/17 A3002 290 96 700 040/03 RMK AO2 T01720167
03949KAQV AQV20190405071011204/05/19 07:10:31  5-MIN KAQV 051310Z AUTO VRB03KT 1SM BR OVC003 17/17 A3002 280 96 700 VRB/03 RMK AO2 T01720167
03949KAQV AQV20190405071511604/05/19 07:15:31  5-MIN KAQV 051315Z AUTO VRB03KT 1 1/4SM BR OVC003 17/17 A3002 280 96 600 VRB/03 RMK AO2 T01720167
03949KAQV AQV20190405072011604/05/19 07:20:31  5-MIN KAQV 051320Z AUTO 05003KT 1 1/4SM BR OVC003 17/17 A3002 280 96 700 040/03 RMK AO2 T01720167
03949KAQV AQV20190405072511604/05/19 07:25:31  5-MIN KAQV 051325Z AUTO 03003KT 1 1/4SM BR OVC003 17/17 A3002 280 96 700 020/03 RMK AO2 T01720167
03949KAQV AQV20190405073011604/05/19 07:30:31  5-MIN KAQV 051330Z AUTO 04004KT 1 1/4SM BR OVC003 17/17 A3002 290 96 700 030/04 RMK AO2 T01720167
03949KAQV AQV20190405073511604/05/19 07:35:31  5-MIN KAQV 051335Z AUTO VRB04KT 1 1/4SM BR OVC003 17/17 A3002 280 96 700 VRB/04 RMK AO2 T01720167
03949KAQV AQV20190405074011604/05/19 07:40:31  5-MIN KAQV 051340Z AUTO 06004KT 1 1/2SM BR OVC002 17/17 A3002 280 96 700 060/04 RMK AO2 T01720167
03949KAQV AQV20190405074511604/05/19 07:45:31  5-MIN KAQV 051345Z AUTO 07004KT 1 3/4SM BR OVC002 17/17 A3002 280 96 600 070/04 RMK AO2 T01720167
03949KAQV AQV20190405075012304/05/19 07:50:31  5-MIN KAQV 051350Z AUTO 06004KT 1 3/4SM BR OVC003 17/17 A3002 280 96 600 050/04 RMK AO2 SLP165 T01720167
03949KAQV AQV20190405075512304/05/19 07:55:31  5-MIN KAQV 051355Z AUTO 05004KT 1 3/4SM BR OVC003 17/17 A3002 280 96 600 040/04 RMK AO2 SLP165 T01720167
03949KAQV AQV20190405080011604/05/19 08:00:31  5-MIN KAQV 051400Z AUTO VRB04KT 1 3/4SM BR OVC003 17/17 A3002 280 96 600 VRB/04 RMK AO2 T01720167
03949KAQV AQV20190405080511604/05/19 08:05:31  5-MIN KAQV 051405Z AUTO VRB04KT 1 1/2SM BR OVC003 17/17 A3002 280 96 600 VRB/04 RMK AO2 T01720167
03949KAQV AQV20190405081011604/05/19 08:10:31  5-MIN KAQV 051410Z AUTO VRB03KT 1 1/2SM BR OVC003 17/17 A3002 280 96 600 VRB/03 RMK AO2 T01720167
03949KAQV AQV20190405081511604/05/19 08:15:31  5-MIN KAQV 051415Z AUTO 03005KT 1 3/4SM BR OVC003 17/17 A3002 280 96 700 030/05 RMK AO2 T01720167
03949KAQV AQV20190405082011204/05/19 08:20:31  5-MIN KAQV 051420Z AUTO VRB03KT 2SM BR OVC003 17/17 A3002 280 96 700 VRB/03 RMK AO2 T01720167
03949KAQV AQV20190405082511604/05/19 08:25:31  5-MIN KAQV 051425Z AUTO VRB04KT 1 3/4SM BR OVC003 17/17 A3002 280 96 700 VRB/04 RMK AO2 T01720167
03949KAQV AQV20190405083011604/05/19 08:30:31  5-MIN KAQV 051430Z AUTO 04004KT 1 3/4SM BR OVC003 17/17 A3002 280 96 600 030/04 RMK AO2 T01720167
03949KAQV AQV20190405083511604/05/19 08:35:31  5-MIN KAQV 051435Z AUTO VRB03KT 1 3/4SM BR OVC003 17/17 A3003 280 96 600 VRB/03 RMK AO2 T01720167
03949KAQV AQV20190405084011204/05/19 08:40:31  5-MIN KAQV 051440Z AUTO 04005KT 2SM BR OVC003 17/17 A3003 280 96 600 040/05 RMK AO2 T01720167
03949KAQV AQV20190405084521104/05/19 08:45:31  5-MIN KAQV 051445Z AUTO 04006KT 3SM BR OVC005 18/17 A3003 270 93 700 040/06 RMK AO2 CIG 003V007 T 052050Z AUTO VRB04KT 10SM OVC010 20/17 A2999 310 84 1000 VRB/04 RMK AO2 SLP153 T02000172 58003
03949KAQV AQV20190405145512004/05/19 14:55:31  5-MIN KAQV 052055Z AUTO 00000KT 10SM OVC009 20/17 A2 320 84 1100 VRB/03 RMK AO2 CIG 008V014 T02060178
03949KAQV AQV20190405151012104/05/19 15:10:31  5-MIN KAQV 052110Z AUTO VRB03KT 10SM OVC011 20/17 A2998 320 84998 320 81 1100 030/03 RMK AO2 T02060172
03949KAQV AQV20190405151012304/05/19 15:10:31  5-MIN KAQV 052110Z AUTO VRB03KT 10SM OVC011 20/17 A2998 320 84 1000 VRB/03 RMK AO2 CIG 008V013 T02000172
03949KAQV AQV20190405151512304/05/19 15:15:31  5-MIN KAQV 052115Z AUTO VRB03KT 10SM OVC010 21/18 A2998 320 84 1100 VRB/03 RMK AO2 CIG 008V014 T02060178
03949KAQV AQV20190405152012304/05/19 15:20:31  5-MIN KAQV 052120Z AUTO VRB04KT 10SM OVC010 20/17 A2998 320 84 1000 VRB/04 RMK AO2 CIG 009V012 T02000172
03949KAQV AQV20190405152511804/05/19 15:25:31  5-MIN KAQV 052125Z AUTO 04004KT 10SM BKN010 OVC014 20/17320 81 1100 VRB/04 RMK AO2 SLP149 T02060172
03949KAQV AQV20190405152512704/05/19 15:25:31  5-MIN KAQV 052125Z AUTO 04004KT 10S 10SM OVC011 20/17 A2998 320 84 1000 030/04 RMK AO2 CIG 008V013 T02000172
03949KAQV AQV20190405152513004/05/19 15:25:31  5-MIN KAQV 052125Z AUTO 04004KT 10SM BKN010 OVC014 20/17 A2998 320 84 1000 040/04 RMK AO2 CIG 008V012 T02000172
03949KAQV AQV20190405153011804/05/19 15:30:31  5-MIN KAQV 052130Z AUTO 04003KT 10SM BKN010 OVC014 21/17 A2998 320 81 1100 030/03 RMK AO2 T02060172
03949KAQV AQV20190405153511104/05/19 15:35:31  5-MIN KAQV 052135Z AUTO 03004KT 10SM OVC012 21/17 A2998 320 81 1100 030/04 RMK AO2 T02060172
03949KAQV AQV20190405154011804/05/19 15:40:31  5-MIN KAQV 052140Z AUTO 00000KT 10SM SCT009 OVC012 21/18 A2998 320 84 1100 000/00 RMK AO2 T02060178
03949KAQV AQV20190405154013504/05/19 15:40:31  5-MIN KAQV 052140Z AUTO 00000KT 10SM SCT009 OVC012 21/18 A2998 2998 320 84 1000 VRB/04 RMK AO2 CIG 009V012 T02000172
03949KAQV AQV20190405154021204/05/19 15:40:31  5-MIN KAQV 052140Z AUTO 00000KT 10SM SCT009 OVC012 21/18 A2998 320 84 1100 000/00 RMK AO2 T0206017804/05/19 205Z AUTO 03003KT 10SM BKN009 OVC012 21/17 A2997 330 81 1100 030/03 RMK AO2 T02060172
03949KAQV AQV20190405154511804/05/19 15:45:31  5-MIN KAQV 052145Z AUTO 05003KT 10SM SCT009 OVC012 21/17 A2998 320 81 1100 040/03 RMK AO2 T02060172
03949KAQV AQV20190405155011804/05/19 15:50:31  5-MIN KAQV 052150Z AUTO VRB04KT 10SM OVC012 21/17 A2998 320 81 1100 VRB/04 RMK AO2 SLP149 T02060172
03949KAQV AQV20190405155511804/05/19 15:55:31  5-MIN KAQV 052155Z AUTO VRB03KT 10SM OVC012 21/17 A2997 330 81 1100 VRB/03 RMK AO2 SLP149 T02060172
03949KAQV AQV20190405155514204/05/19 15:55:31  5-MIN KAQV 052155Z AUTO VRB03KT 10SM OVC012 21/17 A2997 330 81 1100 VRB/03 RMK AO2 SLP149 T01 1100 030/04 RMK AO2 T02060172
03949KAQV AQV20190405160011804/05/19 16:00:31  5-MIN KAQV 052200Z AUTO VRB03KT 10SM BKN009 OVC012 21/17 A2997 330 81 1100 VRB/03 RMK AO2 T02060172
03949KAQV AQV20190405160511804/05/19 16:05:31  5-MIN KAQV 052205Z AUTO 03003KT 10SM BKN009 OVC012 21/17 A2997 330 81 1100 030/03 RMK AO2 T02060172
03949KAQV AQV20190405161011104/05/19 16:10:31  5-MIN KAQV 052210Z AUTO VRB03KT 10SM OVC011 21/18 A2997 330 84 1100 VRB/03 RMK AO2 T02060178
03949KAQV AQV20190405161512304/05/19 16:15:31  5-MIN KAQV 052215Z AUTO VRB03KT 10SM OVC011 21/17 A2997 330 81 1100 VRB/03 RMK AO2 CIG 009V013 T02060172
03949KAQV AQV20190405162011104/05/19 16:20:31  5-MIN KAQV 052220Z AUTO 00000KT 10SM OVC011 21/17 A2997 330 81 1100 000/00 RMK AO2 T02060172
03949KAQV AQV20190405162511104/05/19 16:25:31  5-MIN KAQV 052225Z AUTO 05004KT 10SM OVC011 21/17 A2997 330 81 1100 050/04 RMK AO2 T02060172
03949KAQV AQV20190405163011104/05/19 16:30:31  5-MIN KAQV 052230Z AUTO 00000KT 10SM OVC011 21/17 A2997 330 81 1100 000/00 RMK AO2 T02060172
03949KAQV AQV20190405163511104/05/19 16:35:31  5-MIN KAQV 052235Z AUTO 00000KT 10SM OVC011 21/17 A2997 330 81 1100 000/00 RMK AO2 T02060172
03949KAQV AQV20190405164011104/05/19 16:40:31  5-MIN KAQV 052240Z AUTO 03004KT 10SM OVC012 21/17 A2998 330 81 1100 020/04 RMK AO2 T02060172
03949KAQV AQV20190405164511104/05/19 16:45:31  5-MIN KAQV 052245Z AUTO 03003KT 10SM OVC012 21/17 A2998 330 81 1100 020/03 RMK AO2 T02060172
03949KAQV AQV20190405165011804/05/19 16:50:31  5-MIN KAQV 052250Z AUTO VRB03KT 10SM OVC014 21/17 A2998 330 81 1100 VRB/03 RMK AO2 SLP149 T02060172
03949KAQV AQV20190405165511804/05/19 16:55:31  5-MIN KAQV 052255Z AUTO VRB04KT 10SM OVC014 21/17 A2997 330 81 1100 VRB/04 RMK AO2 SLP148 T02060172
03949KAQV AQV20190405170011104/05/19 17:00:31  5-MIN KAQV 052300Z AUTO 06003KT 10SM OVC014 21/17 A2997 330 81 1100 050/03 RMK AO2 T02060172
03949KAQV AQV20190405170511104/05/19 17:05:31  5-MIN KAQV 052305Z AUTO 03003KT 10SM OVC015 21/17 A2997 330 81 1100 020/03 RMK AO2 T02060172
03949KAQV AQV20190405171011104/05/19 17:10:31  5-MIN KAQV 052310Z AUTO VRB04KT 10SM OVC015 21/17 A2997 330 81 1100 VRB/04 RMK AO2 T02060172
03949KAQV AQV20190405171511104/05/19 17:15:31  5-MIN KAQV 052315Z AUTO VRB04KT 10SM OVC015 20/17 A2998 320 84 1000 VRB/04 RMK AO2 T02000172
03949KAQV AQV20190405172011104/05/19 17:20:31  5-MIN KAQV 052320Z AUTO 05003KT 10SM OVC015 20/17 A2998 330 84 1000 040/03 RMK AO2 T02000172
03949KAQV AQV20190405172511104/05/19 17:25:31  5-MIN KAQV 052325Z AUTO 04003KT 10SM OVC015 20/17 A2998 320 84 1000 030/03 RMK AO2 T02000172
03949KAQV AQV20190405173011104/05/19 17:30:31  5-MIN KAQV 052330Z AUTO 05003KT 10SM OVC015 20/18 A2997 330 87 1000 040/03 RMK AO2 T02000178
03949KAQV AQV20190405173511104/05/19 17:35:31  5-MIN KAQV 052335Z AUTO 00000KT 10SM OVC015 20/17 A2997 330 84 1000 000/00 RMK AO2 T02000172
03949KAQV AQV20190405174011104/05/19 17:40:31  5-MIN KAQV 052340Z AUTO 04003KT 10SM OVC015 20/18 A2998 330 87 1000 040/03 RMK AO2 T02000178
03949KAQV AQV20190405174511104/05/19 17:45:31  5-MIN KAQV 052345Z AUTO 00000KT 10SM OVC015 20/18 A2998 330 87 1000 000/00 RMK AO2 T02000178
03949KAQV AQV20190405175013604/05/19 17:50:31  5-MIN KAQV 052350Z AUTO 00000KT 10SM OVC015 20/18 A2998 320 87 1000 000/00 RMK AO2 SLP149 T02000178 10206 20194 58014
03949KAQV AQV20190405175513604/05/19 17:55:31  5-MIN KAQV 052355Z AUTO 00000KT 10SM OVC015 20/18 A2998 320 87 1000 000/00 RMK AO2 SLP149 T02000178 10206 20194 58014
03949KAQV AQV20190405180011104/05/19 18:00:31  5-MIN KAQV 060000Z AUTO 00000KT 10SM OVC015 20/18 A2998 320 87 1000 000/00 RMK AO2 T02000178
03949KAQV AQV20190405180511104/05/19 18:05:31  5-MIN KAQV 060005Z AUTO 00000KT 10SM OVC015 20/18 A2997 330 87 1000 000/00 RMK AO2 T02000178
03949KAQV AQV20190405181011104/05/19 18:10:31  5-MIN KAQV 060010Z AUTO 01003KT 10SM OVC015 20/18 A2997 330 87 1000 010/03 RMK AO2 T02000178
03949KAQV AQV20190405181511104/05/19 18:15:31  5-MIN KAQV 060015Z AUTO 36003KT 10SM OVC015 20/18 A2997 330 87 1000 360/03 RMK AO2 T02000178
03949KAQV AQV20190405182011104/05/19 18:20:31  5-MIN KAQV 060020Z AUTO 03004KT 10SM OVC015 20/18 A2997 330 87 1000 030/04 RMK AO2 T02000178
03949KAQV AQV20190405182511104/05/19 18:25:31  5-MIN KAQV 060025Z AUTO 01003KT 10SM OVC013 19/17 A2997 330 87 1000 010/03 RMK AO2 T01940172
03949KAQV AQV20190405183011104/05/19 18:30:31  5-MIN KAQV 060030Z AUTO 03003KT 10SM OVC013 19/17 A2997 330 87 1000 030/03 RMK AO2 T01940172
03949KAQV AQV20190405183511004/05/19 18:35:31  5-MIN KAQV 060035Z AUTO 04003KT 9SM OVC013 19/17 A2997 330 87 1000 030/03 RMK AO2 T01940172
03949KAQV AQV20190405184011004/05/19 18:40:31  5-MIN KAQV 060040Z AUTO 02004KT 9SM OVC013 19/17 A2997 330 87 1000 020/04 RMK AO2 T01940172
03949KAQV AQV20190405184511004/05/19 18:45:31  5-MIN KAQV 060045Z AUTO 02003KT 9SM OVC011 19/17 A2997 330 87 1000 020/03 RMK AO2 T01940172
03949KAQV AQV20190405185011704/05/19 18:50:31  5-MIN KAQV 060050Z AUTO 00000KT 9SM OVC011 19/17 A2998 320 87 1000 000/00 RMK AO2 SLP149 T01940172
03949KAQV AQV20190405185512904/05/19 18:55:31  5-MIN KAQV 060055Z AUTO 03003KT 9SM OVC011 19/17 A2998 320 87 1000 030/03 RMK AO2 CIG 009V013 SLP149 T01940172
03949KAQV AQV20190405190012204/05/19 19:00:31  5-MIN KAQV 060100Z AUTO 02004KT 8SM OVC010 19/17 A2998 330 87 1000 020/04 RMK AO2 CIG 007V013 T01940172
03949KAQV AQV20190405190512404/05/19 19:05:31  5-MIN KAQV 060105Z AUTO 02004KT 5SM BR OVC010 19/17 A2998 320 90 900 010/04 RMK AO2 CIG 007V013 T01890172
03949KAQV AQV20190405191012404/05/19 19:10:31  5-MIN KAQV 060110Z AUTO 02004KT 5SM BR OVC010 19/17 A2998 330 90 900 020/04 RMK AO2 CIG 007V014 T01890172
03949KAQV AQV20190405191512404/05/19 19:15:31  5-MIN KAQV 060115Z AUTO 03003KT 5SM BR OVC010 19/18 A2998 330 93 900 020/03 RMK AO2 CIG 007V012 T01890178
03949KAQV AQV20190405192012404/05/19 19:20:31  5-MIN KAQV 060120Z AUTO 03003KT 6SM BR OVC010 19/18 A2997 330 93 900 030/03 RMK AO2 CIG 007V014 T01890178
03949KAQV AQV20190405192512404/05/19 19:25:31  5-MIN KAQV 060125Z AUTO VRB03KT 6SM BR OVC009 19/18 A2997 330 93 900 VRB/03 RMK AO2 CIG 007V014 T01890178
03949KAQV AQV20190405193011204/05/19 19:30:31  5-MIN KAQV 060130Z AUTO 03003KT 6SM BR OVC009 19/18 A2997 330 93 900 030/03 RMK AO2 T01890178
03949KAQV AQV20190405193511204/05/19 19:35:31  5-MIN KAQV 060135Z AUTO 05003KT 6SM BR OVC009 19/17 A2998 320 90 900 040/03 RMK AO2 T01890172
03949KAQV AQV20190405194012104/05/19 19:40:31  5-MIN KAQV 060140Z AUTO 04004KT 7SM OVC009 19/18 A2998 320 93 900 040/04 RMK AO2 CIG 005V012 T01890178
03949KAQV AQV20190405194510904/05/19 19:45:31  5-MIN KAQV 060145Z AUTO VRB03KT 8SM OVC009 19/17 A2998 320 90 900 VRB/03 RMK AO2 T01890172
03949KAQV AQV20190405195012804/05/19 19:50:31  5-MIN KAQV 060150Z AUTO 04003KT 8SM OVC009 19/17 A2998 320 90 900 040/03 RMK AO2 CIG 005V010 SLP152 T01890172
03949KAQV AQV20190405195512804/05/19 19:55:31  5-MIN KAQV 060155Z AUTO 04004KT 8SM OVC009 19/18 A2998 320 93 900 030/04 RMK AO2 CIG 005V010 SLP152 T01890178
03949KAQV AQV20190405200012104/05/19 20:00:31  5-MIN KAQV 060200Z AUTO 00000KT 8SM OVC009 19/17 A2999 310 90 900 000/00 RMK AO2 CIG 005V010 T01890172
03949KAQV AQV20190405200512104/05/19 20:05:31  5-MIN KAQV 060205Z AUTO 00000KT 9SM OVC008 19/17 A2999 310 90 900 000/00 RMK AO2 CIG 005V010 T01890172
03949KAQV AQV20190405201012904/05/19 20:10:31  5-MIN KAQV 060210Z AUTO 06004KT 10SM BKN008 OVC018 19/17 A2999 310 90 900 060/04 RMK AO2 CIG 005V010 T01890172
03949KAQV AQV20190405201512904/05/19 20:15:31  5-MIN KAQV 060215Z AUTO 05003KT 10SM BKN008 OVC018 19/17 A2999 310 90 900 040/03 RMK AO2 CIG 005V010 T01890172
03949KAQV AQV20190405202011704/05/19 20:20:31  5-MIN KAQV 060220Z AUTO 05003KT 10SM SCT008 OVC018 19/17 A3000 310 90 900 040/03 RMK AO2 T01890172
03949KAQV AQV20190405202511704/05/19 20:25:31  5-MIN KAQV 060225Z AUTO 00000KT 10SM SCT008 OVC018 19/17 A3000 310 90 900 000/00 RMK AO2 T01890172
03949KAQV AQV20190405203011704/05/19 20:30:31  5-MIN KAQV 060230Z AUTO 02003KT 10SM FEW008 OVC019 19/17 A2999 310 90 900 020/03 RMK AO2 T01890172
03949KAQV AQV20190405203511004/05/19 20:35:31  5-MIN KAQV 060235Z AUTO 01004KT 10SM OVC019 19/17 A2999 310 90 900 360/04 RMK AO2 T01890172
03949KAQV AQV20190405204011004/05/19 20:40:31  5-MIN KAQV 060240Z AUTO 02004KT 10SM OVC019 19/17 A2999 310 90 900 010/04 RMK AO2 T01890172
03949KAQV AQV20190405204511704/05/19 20:45:31  5-MIN KAQV 060245Z AUTO 05004KT 10SM SCT019 OVC026 19/17 A3000 310 90 900 040/04 RMK AO2 T01890172
03949KAQV AQV20190405205013004/05/19 20:50:31  5-MIN KAQV 060250Z AUTO 03004KT 10SM BKN020 OVC026 19/17 A3000 310 90 900 030/04 RMK AO2 SLP156 T01890172 55003
03949KAQV AQV20190405205513004/05/19 20:55:31  5-MIN KAQV 060255Z AUTO 04003KT 10SM BKN022 OVC028 19/17 A3000 300 90 900 030/03 RMK AO2 SLP156 T01890172 55003
03949KAQV AQV20190405210011704/05/19 21:00:31  5-MIN KAQV 060300Z AUTO VRB03KT 10SM SCT022 OVC028 18/17 A3000 300 93 800 VRB/03 RMK AO2 T01830172
03949KAQV AQV20190405210511704/05/19 21:05:31  5-MIN KAQV 060305Z AUTO VRB03KT 10SM FEW022 OVC028 18/17 A3000 300 93 800 VRB/03 RMK AO2 T01830172
03949KAQV AQV20190405211011704/05/19 21:10:31  5-MIN KAQV 060310Z AUTO 03003KT 10SM FEW022 OVC028 18/17 A3000 300 93 800 030/03 RMK AO2 T01830172
03949KAQV AQV20190405211511704/05/19 21:15:31  5-MIN KAQV 060315Z AUTO 05003KT 10SM FEW022 OVC029 18/17 A3000 300 93 800 040/03 RMK AO2 T01830172
03949KAQV AQV20190405212011704/05/19 21:20:31  5-MIN KAQV 060320Z AUTO 00000KT 10SM FEW006 OVC029 18/17 A3000 300 93 800 000/00 RMK AO2 T01830172
03949KAQV AQV20190405212511704/05/19 21:25:31  5-MIN KAQV 060325Z AUTO 06003KT 10SM FEW006 OVC031 18/17 A3000 300 93 800 050/03 RMK AO2 T01830172
03949KAQV AQV20190405213011704/05/19 21:30:31  5-MIN KAQV 060330Z AUTO 00000KT 10SM SCT006 OVC031 18/17 A3000 300 93 800 000/00 RMK AO2 T01830172
03949KAQV AQV20190405213511704/05/19 21:35:31  5-MIN KAQV 060335Z AUTO 04003KT 10SM BKN006 OVC031 18/17 A3000 300 93 800 030/03 RMK AO2 T01830172
03949KAQV AQV20190405214011704/05/19 21:40:31  5-MIN KAQV 060340Z AUTO 00000KT 10SM BKN006 OVC031 18/17 A3001 300 93 800 000/00 RMK AO2 T01830172
03949KAQV AQV20190405214511704/05/19 21:45:31  5-MIN KAQV 060345Z AUTO 05003KT 10SM BKN006 OVC033 18/17 A3001 300 90 800 050/03 RMK AO2 T01830167
03949KAQV AQV20190405215012404/05/19 21:50:31  5-MIN KAQV 060350Z AUTO 00000KT 10SM BKN006 OVC033 18/17 A3001 300 90 800 000/00 RMK AO2 SLP159 T01830167
03949KAQV AQV20190405215511704/05/19 21:55:31  5-MIN KAQV 060355Z AUTO VRB04KT 10SM OVC006 18/17 A3000 300 90 800 VRB/04 RMK AO2 SLP159 T01830167
03949KAQV AQV20190405220011004/05/19 22:00:31  5-MIN KAQV 060400Z AUTO 06003KT 10SM OVC006 18/17 A3000 300 90 800 060/03 RMK AO2 T01830167
03949KAQV AQV20190405220511904/05/19 22:05:31  5-MIN KAQV 060405Z AUTO 060C024 17/16 A2998 320 93 700 060/03 R9 310 93 700 VRB/03 RMK AO2 T01720161
03949KAQV AQV20190405233517304/05/19 23:35:31  5-MIN KAQV 060535Z AUTO 05004KT 10SM FEW005 BKN024 OVC070 17N024 OVC055 17/16 A2998 320 93 700 050/03 RMK AO2 SLP151 T01720161 10200 20172 402060172 53007
03949KAQV AQV20190406000012404/06/19 00:00:31  5-MIN KAQV 060600Z AUTO VRB03KT 10SM FEW005 BKN024 OVC055 17/16 A2998 320 96 600 VRB/03 RMK AO2 T01670161
03949KAQV AQV20190406000512404/06/19 00:05:31  5-MIN KAQV 060605Z AUTO VRB04KT 10SM FEW006 BKN024 BKN031 17/16 A2998 320 93 700 VRB/04 RMK AO2 T01720161
03949KAQV AQV20190406000537004/06/19 00:05:31  5-MIN KAQV 060605Z AUTO VRB04KT 10SM FEW006 BKN024 BKN031 17/16 A2998 320 93 700 VRB/04 RMK AO2 T0172016104 17/16 A2998 320 93 700 060/03 RZ AUTO VRB03KT 10SM SCT006 BKN024 BKN031 17/16 A2998 320 90 700 VRB/03 RMK AO2 T017201565Z AUTO 06003KT 10SM FEW005 BKN024 OVC055 17/16 A2998 320 93 700 050/03 RMK AO2 SLP151 T01720161 10200 20172 402060172 53007
03949KAQV AQV20190406001012404/06/19 00:10:31  5-MIN KAQV 060610Z AUTO VRB03KT 10SM SCT006 BKN024 BKN031 17/16 A2998 320 90 700 VRB/03 RMK AO2 T01720156
03949KAQV AQV20190406001512404/06/19 00:15:31  5-MIN KAQV 060615Z AUTO 07003KT 10SM SCT006 BKN024 BKN032 17/16 A2998 320 90 700 070/03 RMK AO2 T01720156
03949KAQV AQV20190406001512404/06/19 00:15:31  5-MIN KAQV 060615Z AUTO 07003KT 10SM SEW006 BKN024 BKN032 17/16 A2998 320 90 700 070/03 RMK AO2 T01720156
03949KAQV AQV20190406002012404/06/19 00:20:31  5-MIN KAQV 060620Z AUTO VRB03KT 10SM SCT006 BKN024 BKN034 17/16 A2998 320 90 700 VRB/03 RMK AO2 T01720156
03949KAQV AQV20190406002512404/06/19 00:25:31  5-MIN KAQV 060625Z AUTO VRB04KT 10SM SCT006 BKN022 BKN034 17/16 A2998 320 90 700 VRB/04 RMK AO2 T01720156
03949KAQV AQV20190406003012404/06/19 00:30:31  5-MIN KAQV 060630Z AUTO VRB03KT 10SM FEW006 BKN022 BKN031 17/16 A2998 320 90 700 VRB/03 RMK AO2 T01720156
03949KAQV AQV20190406003012404/06/19 00:30:31  5-MIN KAQV 060630Z AUTO VRB03KT 10SM FEW006 BKN022 OVC034 17/16 A2998 320 90 700 VRB/03 RMK AO2 T01720156
03949KAQV AQV20190406003512404/06/19 00:35:31  5-MIN KAQV 060635Z AUTO 00000KT 10SM FEW006 BKN020 OVC034 17/16 A2997 330 90 700 000/00 RMK AO2 T01720156
03949KAQV AQV20190406004012404/06/19 00:40:31  5-MIN KAQV 060640Z AUTO 00000KT 10SM FEW006 BKN020 OVC035 17/16 A2998 320 90 700 000/00 RMK AO2 T01720156
03949KAQV AQV20190406004511704/06/19 00:45:31  5-MIN KAQV 060645Z AUTO 06003KT 10SM FEW006 OVC020 17/16 A2998 320 90 700 050/03 RMK AO2 T01720156
03949KAQV AQV20190406005012404/06/19 00:50:31  5-MIN KAQV 060650Z AUTO 05003KT 10SM FEW006 OVC020 17/16 A2998 320 90 700 040/03 RMK AO2 SLP149 T01720156
03949KAQV AQV20190406005017804/06/19 00:50:31  5-MIN KAQV 060650Z AUTO 05003KT 10SM FEW006 OVC020 17/16 A2998 320 90 700 040/03 RMK AO2 SLP149 T01720156OVC034 17/16 A2997 330 90 700 000/00 RMK AO2 T01720156
03949KAQV AQV20190406005512404/06/19 00:55:31  5-MIN KAQV 060655Z AUTO 00000KT 10SM FEW006 OVC020 17/16 A2998 320 90 700 000/00 RMK AO2 SLP149 T01720156
03949KAQV AQV20190406010011704/06/19 01:00:31  5-MIN KAQV 060700Z AUTO 04003KT 10SM FEW006 OVC020 17/16 A2998 320 90 700 040/03 RMK AO2 T01720156
03949KAQV AQV20190406010511704/06/19 01:05:31  5-MIN KAQV 060705Z AUTO VRB04KT 10SM FEW006 OVC020 17/16 A2998 320 90 700 VRB/04 RMK AO2 T01720156
03949KAQV AQV20190406010516604/06/19 01:05:31  5-MIN KAQV 060705Z AUTO VRB04KT 10SM FEW006 OVC020 17/16 A2998 320 90 700 VRB/04 RMK AO2 T01720156 A2998 320 90 700 000/00 RMK AO2 SLP149 T01720156
03949KAQV AQV20190406011011704/06/19 01:10:31  5-MIN KAQV 060710Z AUTO 04003KT 10SM FEW006 OVC019 17/16 A2998 330 90 700 040/03 RMK AO2 T01720156
03949KAQV AQV20190406011511704/06/19 01:15:31  5-MIN KAQV 060715Z AUTO 00000KT 10SM BKN019 OVC024 17/16 A2997 330 90 700 000/00 RMK AO2 T01720156
03949KAQV AQV20190406012011704/06/19 01:20:31  5-MIN KAQV 060720Z AUTO 05004KT 10SM BKN019 OVC026 17/16 A2997 330 90 700 050/04 RMK AO2 T01720156
03949KAQV AQV20190406012511704/06/19 01:25:31  5-MIN KAQV 060725Z AUTO 06003KT 10SM SCT019 OVC026 17/16 A2997 330 90 700 060/03 RMK AO2 T01720156
03949KAQV AQV20190406013012404/06/19 01:30:31  5-MIN KAQV 060730Z AUTO VRB03KT 10SM SCT019 SCT023 OVC028 17/16 A2997 330 90 700 VRB/03 RMK AO2 T01720156
03949KAQV AQV20190406013014504/06/19 01:30:31  5-MIN KAQV 060730Z AUTO VRB03KT 10SM SCT019 SCT023 OVC028 17/16 A2997 330 90 700 VRB/03 RMK AO2 T01720156/03 RMK AO2 T01720156
03949KAQV AQV20190406013511704/06/19 01:35:31  5-MIN KAQV 060735Z AUTO 00000KT 10SM SCT017 OVC028 17/16 A2997 330 90 700 000/00 RMK AO2 T01720156
03949KAQV AQV20190406014011704/06/19 01:40:31  5-MIN KAQV 060740Z AUTO 00000KT 10SM SCT015 OVC028 17/16 A2997 330 90 700 000/00 RMK AO2 T01720156
03949KAQV AQV20190406014511704/06/19 01:45:31  5-MIN KAQV 060745Z AUTO VRB03KT 10SM BKN015 OVC028 17/16 A2996 340 90 700 VRB/03 RMK AO2 T01720156
03949KAQV AQV20190406015012404/06/19 01:50:31  5-MIN KAQV 060750Z AUTO 00000KT 10SM BKN015 OVC028 17/16 A2997 330 90 700 000/00 RMK AO2 SLP145 T01720156
03949KAQV AQV20190406015512404/06/19 01:55:31  5-MIN KAQV 060755Z AUTO VRB03KT 10SM BKN015 OVC028 17/16 A2997 330 90 700 VRB/03 RMK AO2 SLP146 T01720156
03949KAQV AQV20190406020011704/06/19 02:00:31  5-MIN KAQV 060800Z AUTO VRB04KT 10SM BKN013 OVC024 17/16 A2996 340 93 700 VRB/04 RMK AO2 T01670156
03949KAQV AQV20190406020512404/06/19 02:05:31  5-MIN KAQV 060805Z AUTO 00000KT 10SM BKN013 BKN024 OVC032 17/16 A2996 340 93 700 000/00 RMK AO2 T01670156
03949KAQV AQV20190406021012404/06/19 02:10:31  5-MIN KAQV 060810Z AUTO VRB03KT 10SM BKN013 BKN023 OVC032 17/16 A2996 340 93 700 VRB/03 RMK AO2 T01670156
03949KAQV AQV20190406021511704/06/19 02:15:31  5-MIN KAQV 060815Z AUTO 07003KT 10SM BKN014 OVC023 17/16 A2995 350 93 700 070/03 RMK AO2 T01670156
03949KAQV AQV20190406022011704/06/19 02:20:31  5-MIN KAQV 060820Z AUTO VRB03KT 10SM BKN014 OVC023 17/16 A2995 350 93 700 VRB/03 RMK AO2 T01670156
03949KAQV AQV20190406022511704/06/19 02:25:31  5-MIN KAQV 060825Z AUTO VRB03KT 10SM BKN014 OVC023 17/16 A2994 350 93 700 VRB/03 RMK AO2 T01670156
03949KAQV AQV20190406023011004/06/19 02:30:31  5-MIN KAQV 060830Z AUTO VRB03KT 10SM OVC014 17/16 A2994 360 93 700 VRB/03 RMK AO2 T01670156
03949KAQV AQV20190406023511704/06/19 02:35:31  5-MIN KAQV 060835Z AUTO 06003KT 10SM BKN012 OVC017 17/16 A2994 360 93 700 060/03 RMK AO2 T01670156
03949KAQV AQV20190406024011704/06/19 02:40:31  5-MIN KAQV 060840Z AUTO VRB03KT 10SM BKN012 OVC017 17/16 A2994 360 93 700 VRB/03 RMK AO2 T01670156
03949KAQV AQV20190406024511704/06/19 02:45:31  5-MIN KAQV 060845Z AUTO 00000KT 10SM BKN010 OVC017 17/16 A2994 350 93 700 000/00 RMK AO2 T01670156
03949KAQV AQV20190406025013504/06/19 02:50:31  5-MIN KAQV 060850Z AUTO 00000KT 10SM OVC010 17/16 A2995 350 93 700 000/00 RMK AO2 CIG 007V013 SLP138 T01670156 58005
03949KAQV AQV20190406025513504/06/19 02:55:31  5-MIN KAQV 060855Z AUTO 00000KT 10SM OVC010 17/16 A2995 350 93 700 000/00 RMK AO2 CIG 007V013 SLP139 T01670156 58005
03949KAQV AQV20190406030012204/06/19 03:00:31  5-MIN KAQV 060900Z AUTO 00000KT 10SM OVC008 17/16 A2995 350 93 700 000/00 RMK AO2 CIG 006V011 T01670156
03949KAQV AQV20190406030512204/06/19 03:05:31  5-MIN KAQV 060905Z AUTO 00000KT 10SM OVC008 17/16 A2995 350 93 700 000/00 RMK AO2 CIG 006V011 T01670156
03949KAQV AQV20190406031012204/06/19 03:10:31  5-MIN KAQV 060910Z AUTO 00000KT 10SM OVC006 17/16 A2995 350 93 700 000/00 RMK AO2 CIG 005V009 T01670156
03949KAQV AQV20190406031512204/06/19 03:15:31  5-MIN KAQV 060915Z AUTO 00000KT 10SM OVC006 17/16 A2995 350 93 700 000/00 RMK AO2 CIG 005V009 T01670156
03949KAQV AQV20190406032011004/06/19 03:20:31  5-MIN KAQV 060920Z AUTO 00000KT 10SM OVC006 17/16 A2994 360 93 700 000/00 RMK AO2 T01670156
03949KAQV AQV20190406032511004/06/19 03:25:31  5-MIN KAQV 060925Z AUTO 00000KT 10SM OVC006 17/16 A2994 360 93 700 000/00 RMK AO2 T01670156
03949KAQV AQV20190406033010904/06/19 03:30:31  5-MIN KAQV 060930Z AUTO 08003KT 9SM OVC005 17/16 A2994 360 93 700 070/03 RMK AO2 T01670156
03949KAQV AQV20190406033510904/06/19 03:35:31  5-MIN KAQV 060935Z AUTO 00000KT 9SM OVC005 17/16 A2994 360 93 700 000/00 RMK AO2 T01670156
03949KAQV AQV20190406034010904/06/19 03:40:31  5-MIN KAQV 060940Z AUTO 00000KT 8SM OVC004 17/16 A2995 350 93 700 000/00 RMK AO2 T01670156
03949KAQV AQV20190406034510904/06/19 03:45:31  5-MIN KAQV 060945Z AUTO 00000KT 8SM OVC004 17/16 A2995 340 93 700 000/00 RMK AO2 T01670156
03949KAQV AQV20190406035011604/06/19 03:50:31  5-MIN KAQV 060950Z AUTO 00000KT 7SM OVC004 17/16 A2995 350 93 700 000/00 RMK AO2 SLP141 T01670156
03949KAQV AQV20190406035511904/06/19 03:55:31  5-MIN KAQV 060955Z AUTO 00000KT 6SM BR OVC004 17/16 A2995 350 93 700 000/00 RMK AO2 SLP139 T01670156
03949KAQV AQV20190406040011204/06/19 04:00:31  5-MIN KAQV 061000Z AUTO 00000KT 5SM BR OVC004 17/16 A2995 350 93 700 000/00 RMK AO2 T01670156
03949KAQV AQV20190406040511204/06/19 04:05:31  5-MIN KAQV 061005Z AUTO 06004KT 4SM BR OVC003 17/16 A2995 350 93 700 050/04 RMK AO2 T01670156
03949KAQV AQV20190406041011204/06/19 04:10:31  5-MIN KAQV 061010Z AUTO 00000KT 3SM BR OVC003 17/16 A2996 340 93 700 000/00 RMK AO2 T01670156
03949KAQV AQV20190406041511604/06/19 04:15:31  5-MIN KAQV 061015Z AUTO 03003KT 2 1/2SM BR OVC003 17/16 A2995 350 93 700 020/03 RMK AO2 T01670156
03949KAQV AQV20190406042011604/06/19 04:20:31  5-MIN KAQV 061020Z AUTO 03003KT 1 3/4SM BR OVC003 17/16 A2995 350 93 700 020/03 RMK AO2 T01670156
03949KAQV AQV20190406042511604/06/19 04:25:31  5-MIN KAQV 061025Z AUTO 00000KT 1 1/4SM BR OVC003 17/16 A2995 350 93 700 000/00 RMK AO2 T01670156
03949KAQV AQV20190406043011604/06/19 04:30:31  5-MIN KAQV 061030Z AUTO 05004KT 1 1/4SM BR OVC003 17/16 A2994 360 93 700 040/04 RMK AO2 T01670156
03949KAQV AQV20190406043511204/06/19 04:35:31  5-MIN KAQV 061035Z AUTO 02004KT 1SM BR OVC002 17/16 A2994 360 93 700 010/04 RMK AO2 T01670156
03949KAQV AQV20190406044011904/06/19 04:40:31  5-MIN KAQV 061040Z AUTO 04005KT 1SM BR OVC002 17/16 A2992 370 93 700 030/05 RMK AO2 PRESFR T01670156
03949KAQV AQV20190406044511904/06/19 04:45:31  5-MIN KAQV 061045Z AUTO 03007KT 1SM BR OVC002 17/16 A2991 380 93 700 030/07 RMK AO2 PRESFR T01670156
03949KAQV AQV20190406045013504/06/19 04:50:31  5-MIN KAQV 061050Z AUTO 06006KT 1SM -RA BR OVC002 17/16 A2991 390 93 700 060/06 RMK AO2 RAB49 SLP127 P0000 T01670156
03949KAQV AQV20190406045513504/06/19 04:55:31  5-MIN KAQV 061055Z AUTO 00000KT 1SM -RA BR OVC002 17/16 A2994 360 96 700 000/00 RMK AO2 RAB49 SLP138 P0000 T01670161
03949KAQV AQV20190406050013704/06/19 05:00:31  5-MIN KAQV 061100Z AUTO 18003KT 1 1/2SM BR OVC002 17/16 A2995 350 96 700 170/03 RMK AO2 RAE1059 PRESRR P0000 T01670161
03949KAQV AQV20190406050513004/06/19 05:05:31  5-MIN KAQV 061105Z AUTO 00000KT 1 3/4SM BR OVC002 17/16 A2995 350 96 700 000/00 RMK AO2 RAE1059 P0000 T01670161
03949KAQV AQV20190406051013004/06/19 05:10:31  5-MIN KAQV 061110Z AUTO 00000KT 1 1/2SM BR OVC002 17/16 A2995 350 96 700 000/00 RMK AO2 RAE1059 P0000 T01670161
03949KAQV AQV20190406051513004/06/19 05:15:31  5-MIN KAQV 061115Z AUTO VRB04KT 1 1/2SM BR OVC002 17/16 A2994 360 96 700 VRB/04 RMK AO2 RAE1059 P0000 T01670161
03949KAQV AQV20190406052013004/06/19 05:20:31  5-MIN KAQV 061120Z AUTO 00000KT 1 1/4SM BR OVC002 17/16 A2995 340 96 700 000/00 RMK AO2 RAE1059 P0000 T01670161
03949KAQV AQV20190406052513004/06/19 05:25:31  5-MIN KAQV 061125Z AUTO VRB03KT 1 1/4SM BR OVC002 17/16 A2996 340 96 700 VRB/03 RMK AO2 RAE1059 P0000 T01670161
03949KAQV AQV20190406053012604/06/19 05:30:31  5-MIN KAQV 061130Z AUTO VRB03KT 1SM BR OVC002 17/16 A2996 340 96 600 VRB/03 RMK AO2 RAE1059 P0000 T01670161
03949KAQV AQV20190406053512604/06/19 05:35:31  5-MIN KAQV 061135Z AUTO 00000KT 1SM BR OVC002 17/16 A2997 330 96 600 000/00 RMK AO2 RAE1059 P0000 T01670161
03949KAQV AQV20190406054012604/06/19 05:40:31  5-MIN KAQV 061140Z AUTO 00000KT 1SM BR OVC002 17/16 A2997 330 96 600 000/00 RMK AO2 RAE1059 P0000 T01670161
03949KAQV AQV20190406054512804/06/19 05:45:31  5-MIN KAQV 061145Z AUTO VRB03KT 3/4SM BR OVC002 17/16 A2996 340 96 700 VRB/03 RMK AO2 RAE1059 P0000 T01670161
03949KAQV AQV20190406055015904/06/19 05:50:31  5-MIN KAQV 061150Z AUTO 00000KT 3/4SM BR OVC002 17/16 A2996 340 96 700 000/00 RMK AO2 RAE1059 SLP143 P0000 60000 T01670161 10172 20167 58012
03949KAQV AQV20190406055515804/06/19 05:55:31  5-MIN KAQV 061155Z AUTO 00000KT 3/4SM BR VV003 17/16 A2996 340 96 700 000/00 RMK AO2 RAE1059 SLP145 P0000 60000 T01670161 10172 20167 58012
03949KAQV AQV20190406060011304/06/19 06:00:31  5-MIN KAQV 061200Z AUTO 06003KT 3/4SM BR VV003 17/16 A2996 340 96 700 050/03 RMK AO2 T01670161
03949KAQV AQV20190406060511304/06/19 06:05:31  5-MIN KAQV 061205Z AUTO 00000KT 3/4SM BR VV003 17/16 A2997 330 96 600 000/00 RMK AO2 T01670161
03949KAQV AQV20190406061011304/06/19 06:10:31  5-MIN KAQV 061210Z AUTO 00000KT 3/4SM BR VV003 17/16 A2998 330 96 600 000/00 RMK AO2 T01670161
03949KAQV AQV20190406061516104/06/19 06:15:31  5-MIN KAQV 061215Z AUTO 00000KT 3/4SM BR VV003 17/16 A2997 330 96 600 000/00 RMK AO2 R OVC004 22/20 A2991 380 87 1400 000/00 RMK AO2 T02220200
03949KAQV AQV20190406131512804/06/19 13:15:31  5-MIN KAQV 061915Z AUTO 35003KT 3SM TS BR OVC006 21/19 A2993 360 93 1100 350/03 RMK AO2 RAE07 P0000 T02060194
03949KAQV AQV20190406132013104/06/19 13:20:31  5-MIN KAQV 061920Z AUTO 00000KT 4SM BR OVC005 21/19 A2993 370 93 1100 000/00 RMK AO2 RAE07 TSE16 P0000 T02060194
03949KAQV AQV20190406132513804/06/19 13:25:31  5-MIN KAQV 061925Z AUTO 00000KT 4SM BR OVC005 21/19 A2992 380 90 1200 000/00 RMK AO2 RAE07 TSE16 PRESFR P0000 T02110194
03949KAQV AQV20190406133013804/06/19 13:30:31  5-MIN KAQV 061930Z AUTO 06003KT 5SM BR OVC005 22/20 A2990 400 90 1300 060/03 RMK AO2 RAE07 TSE16 PRESFR P0000 T02170200
03949KAQV AQV20190406133513104/06/19 13:35:31  5-MIN KAQV 061935Z AUTO 04003KT 5SM BR OVC005 21/20 A2990 400 93 1200 040/03 RMK AO2 RAE07 TSE16 P0000 T02110200
03949KAQV AQV20190406134013104/06/19 13:40:31  5-MIN KAQV 061940Z AUTO 00000KT 5SM BR OVC005 22/20 A2990 390 90 1300 000/00 RMK AO2 RAE07 TSE16 P0000 T02170200
03949KAQV AQV20190406134513104/06/19 13:45:31  5-MIN KAQV 061945Z AUTO 00000KT 5SM BR OVC004 22/20 A2990 390 87 1400 000/00 RMK AO2 RAE07 TSE16 P0000 T02220200
03949KAQV AQV20190406135012104/06/19 13:50:31  5-MIN KAQV 061950Z AUTO 00000KT 5SM BR OVC004 22/20 A2990 390 87 1400 000/00 RMK AO2 RAE07 TSE16 P0000
03949KAQV AQV20190406135513804/06/19 13:55:31  5-MIN KAQV 061955Z AUTO 00000KT 5SM BR OVC004 23/21 A2991 390 87 1400 000/00 RMK AO2 RAE07 TSE16 SLP126 P0000 T02280206
03949KAQV AQV20190406140011304/06/19 14:00:31  5-MIN KAQV 062000Z AUTO 00000KT 6SM BR OVC004 22/20 A2991 380 87 1400 000/00 RMK AO2 T02220200
03949KAQV AQV20190406140512004/06/19 14:05:31  5-MIN KAQV 062005Z AUTO 00000KT 6SM BR BKN004 OVC012 22/21 A2992 380 90 1300 000/00 RMK AO2 T02220206
03949KAQV AQV20190406141013204/06/19 14:10:31  5-MIN KAQV 062010Z AUTO 00000KT 6SM BR BKN004 OVC012 23/21 A2992 380 87 1400 000/00 RMK AO2 CIG 004V007 T02280206
03949KAQV AQV20190406141513904/06/19 14:15:31  5-MIN KAQV 062015Z AUTO 00000KT 5SM BR SCT004 BKN008 OVC014 23/21 A2991 390 87 1400 000/00 RMK AO2 CIG 006V011 T02280206
03949KAQV AQV20190406142012004/06/19 14:20:31  5-MIN KAQV 062020Z AUTO 00000KT 5SM HZ SCT006 OVC012 23/21 A2991 380 84 1500 000/00 RMK AO2 T02330206
03949KAQV AQV20190406142512704/06/19 14:25:31  5-MIN KAQV 062025Z AUTO 00000KT 5SM BR FEW006 BKN012 OVC040 23/21 A2991 390 87 1500 000/00 RMK AO2 T02330211
03949KAQV AQV20190406143012704/06/19 14:30:31  5-MIN KAQV 062030Z AUTO 00000KT 5SM BR SCT012 BKN035 OVC043 23/21 A2990 390 87 1500 000/00 RMK AO2 T02330211
03949KAQV AQV20190406143512704/06/19 14:35:31  5-MIN KAQV 062035Z AUTO 00000KT 5SM HZ SCT012 SCT020 BKN035 24/21 A2990 400 84 1600 000/00 RMK AO2 T02390211
03949KAQV AQV20190406144012704/06/19 14:40:31  5-MIN KAQV 062040Z AUTO 04003KT 5SM BR FEW007 SCT012 BKN035 23/21 A2990 400 87 1500 040/03 RMK AO2 T02330211
03949KAQV AQV20190406144512704/06/19 14:45:31  5-MIN KAQV 062045Z AUTO VRB04KT 5SM BR FEW007 BKN015 BKN030 23/21 A2990 400 87 1500 VRB/04 RMK AO2 T02330211
03949KAQV AQV20190406145011704/06/19 14:50:31  5-MIN KAQV 062050Z AUTO 00000KT 5SM BR FEW008 SCT030 BKN039 23/21 A2990 390 90 1400 000/00 RMK AO2
03949KAQV AQV20190406145514604/06/19 14:55:31  5-MIN KAQV 062055Z AUTO 00000KT 5SM BR FEW008 FEW037 SCT044 23/21 A2991 390 87 1500 000/00 RMK AO2 SLP125 60004 T02330211 56015
03949KAQV AQV20190406150012004/06/19 15:00:31  5-MIN KAQV 062100Z AUTO 00000KT 5SM BR FEW009 SCT046 24/22 A2991 390 87 1500 000/00 RMK AO2 T02390217
03949KAQV AQV20190406150512704/06/19 15:05:31  5-MIN KAQV 062105Z AUTO 00000KT 6SM HZ FEW009 SCT044 SCT055 24/22 A2990 390 84 1600 000/00 RMK AO2 T02440217
03949KAQV AQV20190406151012704/06/19 15:10:31  5-MIN KAQV 062110Z AUTO 00000KT 6SM HZ FEW031 SCT048 BKN060 24/22 A2990 390 84 1600 000/00 RMK AO2 T02440217
03949KAQV AQV20190406151511704/06/19 15:15:31  5-MIN KAQV 062115Z AUTO 00000KT 7SM SCT050 BKN060 25/22 A2990 390 81 1700 000/00 RMK AO2 T02500217
03949KAQV AQV20190406152011704/06/19 15:20:31  5-MIN KAQV 062120Z AUTO VRB04KT 8SM FEW044 BKN055 26/22 A2990 390 79 1700 VRB/04 RMK AO2 T02560217
03949KAQV AQV20190406152511704/06/19 15:25:31  5-MIN KAQV 062125Z AUTO VRB04KT 9SM SCT050 SCT060 26/21 A2990 390 76 1700 VRB/04 RMK AO2 T02560211
03949KAQV AQV20190406153011804/06/19 15:30:31  5-MIN KAQV 062130Z AUTO VRB03KT 10SM FEW050 SCT060 26/21 A2990 390 76 1700 VRB/03 RMK AO2 T02560211
03949KAQV AQV20190406153511104/06/19 15:35:31  5-MIN KAQV 062135Z AUTO VRB03KT 10SM SCT055 26/22 A2990 390 76 1800 VRB/03 RMK AO2 T02610217
03949KAQV AQV20190406154011104/06/19 15:40:31  5-MIN KAQV 062140Z AUTO VRB05KT 10SM FEW055 26/21 A2990 390 76 1700 VRB/05 RMK AO2 T02560211
03949KAQV AQV20190406154510104/06/19 15:45:31  5-MIN KAQV 062145Z AUTO 10SM FEW032 26/21 A2991 390 73 1800 M /M RMK AO2 T02610211
03949KAQV AQV20190406155012504/06/19 15:50:31  5-MIN KAQV 062150Z AUTO 16008KT 10SM FEW032 FEW050 26/21 A2991 390 73 1700 160/08 RMK AO2 SLP124 T02560206
03949KAQV AQV20190406155513104/06/19 15:55:31  5-MIN KAQV 062155Z AUTO 17007KT 130V190 10SM CLR 26/19 A2991 390 68 1700 170/07 130V190 RMK AO2 SLP125 T02560194
03949KAQV AQV20190406160010804/06/19 16:00:31  5-MIN KAQV 062200Z AUTO VRB04KT 10SM CLR 26/19 A2991 390 68 1700 VRB/04 RMK AO2 T02560194
03949KAQV AQV20190406160510804/06/19 16:05:31  5-MIN KAQV 062205Z AUTO 17004KT 10SM CLR 26/20 A2991 390 71 1700 160/04 RMK AO2 T02560200
03949KAQV AQV20190406161010804/06/19 16:10:31  5-MIN KAQV 062210Z AUTO 00000KT 10SM CLR 26/20 A2991 390 71 1700 000/00 RMK AO2 T02560200
03949KAQV AQV20190406161510804/06/19 16:15:31  5-MIN KAQV 062215Z AUTO 00000KT 10SM CLR 26/20 A2991 390 71 1700 000/00 RMK AO2 T02560200
03949KAQV AQV20190406162010804/06/19 16:20:31  5-MIN KAQV 062220Z AUTO VRB03KT 10SM CLR 26/20 A2991 390 71 1700 VRB/03 RMK AO2 T02560200
03949KAQV AQV20190406162510804/06/19 16:25:31  5-MIN KAQV 062225Z AUTO VRB04KT 10SM CLR 26/19 A2990 390 68 1700 VRB/04 RMK AO2 T02560194
03949KAQV AQV20190406163010804/06/19 16:30:31  5-MIN KAQV 062230Z AUTO VRB04KT 10SM CLR 25/19 A2990 390 71 1700 VRB/04 RMK AO2 T02500194
03949KAQV AQV20190406163510804/06/19 16:35:31  5-MIN KAQV 062235Z AUTO 16004KT 10SM CLR 25/19 A2990 390 71 1700 160/04 RMK AO2 T02500194
03949KAQV AQV20190406164010804/06/19 16:40:31  5-MIN KAQV 062240Z AUTO 00000KT 10SM CLR 25/19 A2990 390 71 1700 000/00 RMK AO2 T02500194
03949KAQV AQV20190406164510804/06/19 16:45:31  5-MIN KAQV 062245Z AUTO 00000KT 10SM CLR 25/19 A2990 390 71 1700 000/00 RMK AO2 T02500194
03949KAQV AQV20190406165011504/06/19 16:50:31  5-MIN KAQV 062250Z AUTO 00000KT 10SM CLR 25/19 A2991 390 71 1700 000/00 RMK AO2 SLP125 T02500194
03949KAQV AQV20190406165511504/06/19 16:55:31  5-MIN KAQV 062255Z AUTO 00000KT 10SM CLR 25/19 A2991 390 71 1700 000/00 RMK AO2 SLP125 T02500194
03949KAQV AQV20190406170010804/06/19 17:00:31  5-MIN KAQV 062300Z AUTO 00000KT 10SM CLR 24/20 A2991 390 76 1600 000/00 RMK AO2 T02440200
03949KAQV AQV20190406170510804/06/19 17:05:31  5-MIN KAQV 062305Z AUTO 17003KT 10SM CLR 24/21 A2991 380 78 1600 170/03 RMK AO2 T02440206
03949KAQV AQV20190406171010804/06/19 17:10:31  5-MIN KAQV 062310Z AUTO 00000KT 10SM CLR 24/21 A2991 390 81 1500 000/00 RMK AO2 T02390206
03949KAQV AQV20190406171510804/06/19 17:15:31  5-MIN KAQV 062315Z AUTO 00000KT 10SM CLR 24/21 A2991 390 78 1600 000/00 RMK AO2 T02440206
03949KAQV AQV20190406172010804/06/19 17:20:31  5-MIN KAQV 062320Z AUTO 00000KT 10SM CLR 24/21 A2990 390 81 1600 000/00 RMK AO2 T02390206
03949KAQV AQV20190406172510804/06/19 17:25:31  5-MIN KAQV 062325Z AUTO 00000KT 10SM CLR 24/21 A2991 390 81 1600 000/00 RMK AO2 T02390206
03949KAQV AQV20190406173011104/06/19 17:30:31  5-MIN KAQV 062330Z AUTO 00000KT 10SM FEW075 24/21 A2991 390 81 1500 000/00 RMK AO2 T02390206
03949KAQV AQV20190406173511804/06/19 17:35:31  5-MIN KAQV 062335Z AUTO 00000KT 10SM FEW038 FEW075 24/21 A2991 380 81 1500 000/00 RMK AO2 T02390206
03949KAQV AQV20190406174011104/06/19 17:40:31  5-MIN KAQV 062340Z AUTO 00000KT 10SM SCT040 24/21 A2991 380 81 1500 000/00 RMK AO2 T02390206
03949KAQV AQV20190406174511704/06/19 17:45:31  5-MIN KAQV 062345Z AUTO 00000KT 9SM SCT038 BKN045 23/21 A2992 370 87 1500 000/00 RMK AO2 T02330211
03949KAQV AQV20190406175017404/06/19 17:50:31  5-MIN KAQV 062350Z AUTO 00000KT 5SM -RA BR FEW029 BKN036 BKN045 23/21 A2993 370 90 1400 000/00 RMK AO2 RAB47 SLP132 P0001 60005 T02280211 10261 20189 51001
03949KAQV AQV20190406175517404/06/19 17:55:31  5-MIN KAQV 062355Z AUTO 00000KT 5SM -RA BR FEW029 BKN036 BKN045 23/21 A2992 370 90 1400 000/00 RMK AO2 RAB47 SLP131 P0001 60005 T02280211 10261 20189 51001
03949KAQV AQV20190406180013004/06/19 18:00:31  5-MIN KAQV 070000Z AUTO 00000KT 5SM -RA BR BKN036 BKN045 23/21 A2993 370 90 1400 000/00 RMK AO2 P0000 T02280211
03949KAQV AQV20190406180513004/06/19 18:05:31  5-MIN KAQV 070005Z AUTO 00000KT 4SM -RA BR BKN036 OVC045 22/21 A2993 370 93 1300 000/00 RMK AO2 P0000 T02220211
03949KAQV AQV20190406181013204/06/19 18:10:31  5-MIN KAQV 070010Z AUTO 00000KT 3SM BR BKN036 OVC045 22/21 A2993 370 93 1300 000/00 RMK AO2 RAE08 P0000 T02220211
03949KAQV AQV20190406181514104/06/19 18:15:31  5-MIN KAQV 070015Z AUTO 00000KT 2SM TS BR BKN034 OVC043 22/21 A2992 370 93 1300 000/00 RMK AO2 RAE08 TSB14 P0000 T02220211
03949KAQV AQV20190406182013404/06/19 18:20:31  5-MIN KAQV 070020Z AUTO 00000KT 2SM TS BR OVC036 22/21 A2993 370 93 1300 000/00 RMK AO2 RAE08 TSB14 P0000 T02220211
03949KAQV AQV20190406182514104/06/19 18:25:31  5-MIN KAQV 070025Z AUTO 00000KT 2SM TS BR BKN032 OVC042 22/21 A2994 360 93 1300 000/00 RMK AO2 RAE08 TSB14 P0000 T02220211
03949KAQV AQV20190406183014104/06/19 18:30:31  5-MIN KAQV 070030Z AUTO 00000KT 2SM TS BR BKN032 OVC041 22/21 A2993 370 97 1300 000/00 RMK AO2 RAE08 TSB14 P0000 T02170211
03949KAQV AQV20190406183515304/06/19 18:35:31  5-MIN KAQV 070035Z AUTO 00000KT 2 1/2SM TS BR OVC032 22/21 A2993 370 93 1300 000/00 RMK AO2 VIS 1 3/4V3 RAE08 TSB14B34 P0000 T02170206
03949KAQV AQV20190406184014004/06/19 18:40:31  5-MIN KAQV 070040Z AUTO 00000KT 3SM TS BR OVC030 22/21 A2994 360 97 1300 000/00 RMK AO2 RAE08 TSB14B34B39 P0000 T02170211
03949KAQV AQV20190406184514704/06/19 18:45:31  5-MIN KAQV 070045Z AUTO 00000KT 4SM TS BR BKN030 OVC037 22/21 A2994 360 93 1300 000/00 RMK AO2 RAE08 TSB14B34B39 P0000 T02170206
03949KAQV AQV20190406185014704/06/19 18:50:31  5-MIN KAQV 070050Z AUTO 00000KT 3SM TS BR OVC030 22/21 A2995 350 93 1300 000/00 RMK AO2 RAE08 TSB14B34B39 SLP139 P0000 T02170206
03949KAQV AQV20190406185515104/06/19 18:55:31  5-MIN KAQV 070055Z AUTO 00000KT 2 1/2SM TS BR OVC030 22/21 A2994 350 93 1300 000/00 RMK AO2 RAE08 TSB14B34B39 SLP138 P0000 T02170206
03949KAQV AQV20190406190012704/06/19 19:00:31  5-MIN KAQV 070100Z AUTO 00000KT 2 1/2SM TS BR FEW019 OVC030 22/21 A2995 350 93 1300 000/00 RMK AO2 T02170206
03949KAQV AQV20190406190512304/06/19 19:05:31  5-MIN KAQV 070105Z AUTO VRB03KT 4SM TS BR FEW019 OVC028 22/21 A2994 360 93 1300 VRB/03 RMK AO2 T02170206
03949KAQV AQV20190406191012004/06/19 19:10:31  5-MIN KAQV 070110Z AUTO 00000KT 7SM TS FEW021 OVC028 22/20 A2994 360 90 1300 000/00 RMK AO2 T02170200
03949KAQV AQV20190406191514204/06/19 19:15:31  5-MIN KAQV 070115Z AUTO 18006KT 1 1/4SM +TSRA BR SCT019 OVC028 21/20 A2996 340 93 1200 180/06 RMK AO2 RAB11 P0020 T02110200
03949KAQV AQV20190406192014004/06/19 19:20:31  5-MIN KAQV 070120Z AUTO VRB03KT 3/4SM +TSRA BR SCT017 OVC026 21/21 A2995 350 97 1200 VRB/03 RMK AO2 RAB11 P0025 T02110206
03949KAQV AQV20190406192514204/06/19 19:25:31  5-MIN KAQV 070125Z AUTO VRB04KT 1 3/4SM -TSRA BR SCT017 OVC026 22/20 A2995 350 90 1200 VRB/04 RMK AO2 RAB11 P0025 T02170200
03949KAQV AQV20190406193014504/06/19 19:30:31  5-MIN KAQV 070130Z AUTO VRB04KT 5SM -TSRA BR FEW017 BKN026 OVC034 22/20 A2995 350 90 1300 VRB/04 RMK AO2 RAB11 P0027 T02170200
03949KAQV AQV20190406193514504/06/19 19:35:31  5-MIN KAQV 070135Z AUTO VRB03KT 5SM -TSRA BR BKN021 BKN025 OVC032 22/20 A2994 360 90 1300 VRB/03 RMK AO2 RAB11 P0028 T02170200
03949KAQV AQV20190406194013804/06/19 19:40:31  5-MIN KAQV 070140Z AUTO 00000KT 6SM -TSRA BR FEW016 OVC021 22/21 A2995 350 93 1300 000/00 RMK AO2 RAB11 P0028 T02170206
03949KAQV AQV20190406194513504/06/19 19:45:31  5-MIN KAQV 070145Z AUTO 00000KT 7SM -TSRA BKN023 OVC040 22/20 A2994 360 90 1300 000/00 RMK AO2 RAB11 P0028 T02170200
03949KAQV AQV20190406195014204/06/19 19:50:31  5-MIN KAQV 070150Z AUTO 00000KT 7SM TS BKN023 OVC035 21/20 A2994 360 93 1200 000/00 RMK AO2 RAB11E47 SLP137 P0028 T02110200
03949KAQV AQV20190406195515104/06/19 19:55:31  5-MIN KAQV 070155Z AUTO 00000KT 4SM TSRA BR BKN021 BKN030 OVC036 21/20 A2994 360 93 1200 000/00 RMK AO2 RAB11 SLP135 P0030 T02110200
03949KAQV AQV20190406200014204/06/19 20:00:31  5-MIN KAQV 070200Z AUTO 00000KT 2 1/2SM TSRA BR BKN023 BKN030 OVC034 21/20 A2994 360 93 1200 000/00 RMK AO2 P0001 T02110200
03949KAQV AQV20190406200514804/06/19 20:05:31  5-MIN KAQV 070205Z AUTO 00000KT 2 1/2SM -TSRA BR BKN021 OVC027 21/20 A2994 350 93 1200 000/00 RMK AO2 VIS 1 1/2V4 P0001 T02110200
03949KAQV AQV20190406201013904/06/19 20:10:31  5-MIN KAQV 070210Z AUTO 00000KT 3SM -TSRA BR BKN017 BKN023 OVC030 21/20 A2994 360 93 1200 000/00 RMK AO2 P0001 T02110200
03949KAQV AQV20190406201513904/06/19 20:15:31  5-MIN KAQV 070215Z AUTO 00000KT 4SM -TSRA BR BKN018 BKN023 OVC030 21/20 A2995 350 93 1200 000/00 RMK AO2 P0001 T02110200
03949KAQV AQV20190406202013804/06/19 20:20:31  5-MIN KAQV 070220Z AUTO 00000KT 5SM BR BKN018 OVC023 21/20 A2995 350 93 1200 000/00 RMK AO2 RAE17 TSE17 P0001 T02110200
03949KAQV AQV20190406202512904/06/19 20:25:31  5-MIN KAQV 070225Z AUTO 00000KT 4SM -RA BR OVC016 21/20 A2995 350 93 1200 000/00 RMK AO2 TSE17 P0001 T02110200
03949KAQV AQV20190406203012904/06/19 20:30:31  5-MIN KAQV 070230Z AUTO 00000KT 4SM -RA BR OVC016 21/20 A2996 340 93 1200 000/00 RMK AO2 TSE17 P0001 T02110200
03949KAQV AQV20190406203513304/06/19 20:35:31  5-MIN KAQV 070235Z AUTO 00000KT 2 1/2SM -RA BR OVC016 21/20 A2995 340 93 1200 000/00 RMK AO2 TSE17 P0002 T02110200
03949KAQV AQV20190406204014504/06/19 20:40:31  5-MIN KAQV 070240Z AUTO 00000KT 2 1/2SM -RA BR OVC016 21/20 A2995 350 93 1200 000/00 RMK AO2 VIS 1 3/4V3 TSE17 P0002 T02110200
03949KAQV AQV20190406204514504/06/19 20:45:31  5-MIN KAQV 070245Z AUTO 00000KT 2 1/2SM -RA BR OVC013 21/20 A2995 350 93 1200 000/00 RMK AO2 VIS 1 1/2V4 TSE17 P0002 T02110200
03949KAQV AQV20190406205015404/06/19 20:50:31  5-MIN KAQV 070250Z AUTO 00000KT 2 1/2SM BR OVC013 21/20 A2995 350 93 1200 000/00 RMK AO2 RAE46 TSE17 SLP141 P0002 60032 T02110200 53006
03949KAQV AQV20190406205515004/06/19 20:55:31  5-MIN KAQV 070255Z AUTO 00000KT 3SM BR OVC013 21/20 A2995 350 93 1200 000/00 RMK AO2 RAE46 TSE17 SLP141 P0002 60032 T02110200 53006
03949KAQV AQV20190406210011304/06/19 21:00:31  5-MIN KAQV 070300Z AUTO 00000KT 3SM BR OVC012 21/20 A2995 350 93 1200 000/00 RMK AO2 T02110200
03949KAQV AQV20190406210511704/06/19 21:05:31  5-MIN KAQV 070305Z AUTO 00000KT 2 1/2SM BR OVC012 21/20 A2995 350 93 1200 000/00 RMK AO2 T02110200
03949KAQV AQV20190406211011304/06/19 21:10:31  5-MIN KAQV 070310Z AUTO 00000KT 3SM BR OVC012 21/20 A2995 350 93 1200 000/00 RMK AO2 T02110200
03949KAQV AQV20190406211511304/06/19 21:15:31  5-MIN KAQV 070315Z AUTO 16003KT 3SM BR OVC011 21/20 A2995 350 93 1200 160/03 RMK AO2 T02110200
03949KAQV AQV20190406212011304/06/19 21:20:31  5-MIN KAQV 070320Z AUTO 17003KT 4SM BR OVC011 21/20 A2995 350 93 1200 170/03 RMK AO2 T02110200
03949KAQV AQV20190406212511304/06/19 21:25:31  5-MIN KAQV 070325Z AUTO 16003KT 4SM BR OVC011 21/20 A2995 350 93 1200 150/03 RMK AO2 T02110200
03949KAQV AQV20190406213013404/06/19 21:30:31  5-MIN KAQV 070330Z AUTO 16003KT 4SM TS BR OVC011 21/20 A2995 350 93 1200 150/03 RMK AO2 TSB29 CIG 008V013 T02110200
03949KAQV AQV20190406213513404/06/19 21:35:31  5-MIN KAQV 070335Z AUTO 16003KT 4SM TS BR OVC010 21/20 A2995 350 93 1200 150/03 RMK AO2 TSB29 CIG 007V013 T02110200
03949KAQV AQV20190406214013404/06/19 21:40:31  5-MIN KAQV 070340Z AUTO 16003KT 4SM TS BR OVC010 21/20 A2995 350 93 1200 160/03 RMK AO2 TSB29 CIG 006V013 T02110200
03949KAQV AQV20190406214514104/06/19 21:45:31  5-MIN KAQV 070345Z AUTO 18003KT 4SM BR BKN007 OVC012 21/21 A2995 350 97 1200 170/03 RMK AO2 TSB29E45 CIG 005V010 T02110206
03949KAQV AQV20190406215014804/06/19 21:50:31  5-MIN KAQV 070350Z AUTO VRB03KT 4SM BR BKN007 OVC012 21/21 A2995 350 97 1200 VRB/03 RMK AO2 TSB29E45 CIG 003V010 SLP140 T02110206
03949KAQV AQV20190406215514804/06/19 21:55:31  5-MIN KAQV 070355Z AUTO 17003KT 4SM BR BKN007 OVC011 21/21 A2995 350 97 1200 160/03 RMK AO2 TSB29E45 CIG 003V010 SLP140 T02110206
03949KAQV AQV20190406220013204/06/19 22:00:31  5-MIN KAQV 070400Z AUTO 00000KT 4SM BR BKN005 OVC011 21/21 A2995 350 97 1200 000/00 RMK AO2 CIG 003V008 T02110206
03949KAQV AQV20190406220513204/06/19 22:05:31  5-MIN KAQV 070405Z AUTO VRB03KT 4SM BR BKN005 OVC011 21/21 A2995 350 97 1200 VRB/03 RMK AO2 CIG 003V008 T02110206
03949KAQV AQV20190406221012504/06/19 22:10:31  5-MIN KAQV 070410Z AUTO 18003KT 4SM BR OVC005 21/21 A2995 350 97 1200 180/03 RMK AO2 CIG 003V008 T02110206
03949KAQV AQV20190406221512504/06/19 22:15:31  5-MIN KAQV 070415Z AUTO VRB03KT 4SM BR OVC005 22/21 A2995 350 93 1300 VRB/03 RMK AO2 CIG 003V008 T02170206
03949KAQV AQV20190406222012004/06/19 22:20:31  5-MIN KAQV 070420Z AUTO 18003KT 4SM BR BKN005 OVC009 22/21 A2995 350 93 1300 180/03 RMK AO2 T02170206
03949KAQV AQV20190406222513204/06/19 22:25:31  5-MIN KAQV 070425Z AUTO VRB03KT 4SM BR BKN005 OVC009 22/21 A2994 350 93 1300 VRB/03 RMK AO2 CIG 003V006 T02170206
03949KAQV AQV20190406223012004/06/19 22:30:31  5-MIN KAQV 070430Z AUTO 18003KT 4SM BR BKN005 OVC009 22/21 A2994 350 93 1300 170/03 RMK AO2 T02170206
03949KAQV AQV20190406223513204/06/19 22:35:31  5-MIN KAQV 070435Z AUTO 00000KT 4SM BR BKN005 OVC009 22/21 A2995 350 93 1200 000/00 RMK AO2 CIG 003V008 T02170206
03949KAQV AQV20190406224013204/06/19 22:40:31  5-MIN KAQV 070440Z AUTO 00000KT 4SM BR BKN005 OVC009 22/21 A2995 350 93 1200 000/00 RMK AO2 CIG 003V008 T02170206
03949KAQV AQV20190406224512504/06/19 22:45:31  5-MIN KAQV 070445Z AUTO VRB03KT 4SM BR OVC005 22/21 A2995 350 93 1200 VRB/03 RMK AO2 CIG 003V008 T02170206
03949KAQV AQV20190406225013904/06/19 22:50:31  5-MIN KAQV 070450Z AUTO 00000KT 4SM BR BKN005 OVC009 22/21 A2995 350 93 1200 000/00 RMK AO2 CIG 003V007 SLP140 T02170206
03949KAQV AQV20190406225513204/06/19 22:55:31  5-MIN KAQV 070455Z AUTO 00000KT 4SM BR OVC007 22/21 A2995 350 93 1300 000/00 RMK AO2 CIG 004V011 SLP139 T02170206
03949KAQV AQV20190406230012504/06/19 23:00:31  5-MIN KAQV 070500Z AUTO 00000KT 4SM BR OVC007 22/21 A2995 350 93 1200 000/00 RMK AO2 CIG 004V011 T02170206
03949KAQV AQV20190406230512504/06/19 23:05:31  5-MIN KAQV 070505Z AUTO 00000KT 4SM BR OVC007 22/21 A2995 350 93 1200 000/00 RMK AO2 CIG 004V011 T02170206
03949KAQV AQV20190406231012504/06/19 23:10:31  5-MIN KAQV 070510Z AUTO 00000KT 5SM BR OVC007 22/21 A2995 350 93 1200 000/00 RMK AO2 CIG 004V011 T02170206
03949KAQV AQV20190406231512504/06/19 23:15:31  5-MIN KAQV 070515Z AUTO 00000KT 5SM BR OVC007 22/21 A2995 350 93 1200 000/00 RMK AO2 CIG 005V011 T02170206
03949KAQV AQV20190406232012504/06/19 23:20:31  5-MIN KAQV 070520Z AUTO 00000KT 5SM BR OVC007 22/21 A2995 350 93 1300 000/00 RMK AO2 CIG 005V009 T02170206
03949KAQV AQV20190406232512504/06/19 23:25:31  5-MIN KAQV 070525Z AUTO 00000KT 4SM BR OVC007 22/21 A2995 350 93 1200 000/00 RMK AO2 CIG 005V009 T02170206
03949KAQV AQV20190406233012504/06/19 23:30:31  5-MIN KAQV 070530Z AUTO 16004KT 4SM BR OVC007 22/21 A2995 350 97 1200 160/04 RMK AO2 CIG 005V009 T02170211
03949KAQV AQV20190406233512504/06/19 23:35:31  5-MIN KAQV 070535Z AUTO 16003KT 4SM BR OVC007 22/21 A2995 350 93 1300 160/03 RMK AO2 CIG 004V009 T02220211
03949KAQV AQV20190406234011304/06/19 23:40:31  5-MIN KAQV 070540Z AUTO 00000KT 4SM BR OVC005 22/21 A2995 350 93 1300 000/00 RMK AO2 T02220211
03949KAQV AQV20190406234511304/06/19 23:45:31  5-MIN KAQV 070545Z AUTO VRB04KT 4SM BR OVC005 22/21 A2995 350 93 1300 VRB/04 RMK AO2 T02220211
03949KAQV AQV20190406235016604/06/19 23:50:31  5-MIN KAQV 070550Z AUTO VRB04KT 4SM BR OVC005 22/21 A2995 350 93 1300 VRB/04 RMK AO2 CIG 004V009 SLP141 60032 T02220211 10228 20211 402610167 51010
03949KAQV AQV20190406235516604/06/19 23:55:31  5-MIN KAQV 070555Z AUTO VRB03KT 4SM BR OVC005 22/21 A2995 350 93 1300 VRB/03 RMK AO2 CIG 004V009 SLP139 60032 T02220211 10228 20211 402610167 51010
03949KAQV AQV20190407000012504/07/19 00:00:31  5-MIN KAQV 070600Z AUTO VRB05KT 5SM BR OVC005 22/21 A2995 350 93 1300 VRB/05 RMK AO2 CIG 004V010 T02220211
03949KAQV AQV20190407000513204/07/19 00:05:31  5-MIN KAQV 070605Z AUTO 17004KT 5SM BR BKN005 OVC010 22/21 A2995 350 93 1300 170/04 RMK AO2 CIG 004V008 T02220211
03949KAQV AQV20190407001012504/07/19 00:10:31  5-MIN KAQV 070610Z AUTO 15005KT 5SM BR OVC007 22/21 A2995 350 93 1300 150/05 RMK AO2 CIG 005V009 T02220211
03949KAQV AQV20190407001512504/07/19 00:15:31  5-MIN KAQV 070615Z AUTO VRB04KT 5SM BR OVC007 22/21 A2995 350 93 1300 VRB/04 RMK AO2 CIG 005V011 T02220211
03949KAQV AQV20190407002012504/07/19 00:20:31  5-MIN KAQV 070620Z AUTO VRB04KT 5SM BR OVC007 22/21 A2995 350 93 1300 VRB/04 RMK AO2 CIG 005V011 T02220211
03949KAQV AQV20190407002512504/07/19 00:25:31  5-MIN KAQV 070625Z AUTO VRB04KT 5SM BR OVC007 22/21 A2995 350 93 1300 VRB/04 RMK AO2 CIG 005V011 T02220211
03949KAQV AQV20190407003013204/07/19 00:30:31  5-MIN KAQV 070630Z AUTO VRB03KT 5SM BR BKN007 OVC012 22/21 A2995 350 93 1300 VRB/03 RMK AO2 CIG 005V009 T02220211
03949KAQV AQV20190407003512504/07/19 00:35:31  5-MIN KAQV 070635Z AUTO VRB04KT 5SM BR OVC007 22/21 A2995 350 93 1300 VRB/04 RMK AO2 CIG 005V012 T02220211
03949KAQV AQV20190407004012504/07/19 00:40:31  5-MIN KAQV 070640Z AUTO 16005KT 6SM BR OVC008 22/21 A2995 350 93 1300 160/05 RMK AO2 CIG 006V012 T02220211
03949KAQV AQV20190407004512504/07/19 00:45:31  5-MIN KAQV 070645Z AUTO 16003KT 6SM BR OVC008 22/21 A2995 350 93 1300 160/03 RMK AO2 CIG 006V012 T02220211
03949KAQV AQV20190407005013204/07/19 00:50:31  5-MIN KAQV 070650Z AUTO 16005KT 5SM BR OVC008 22/21 A2995 350 93 1300 160/05 RMK AO2 CIG 006V012 SLP138 T02220211
03949KAQV AQV20190407005513204/07/19 00:55:31  5-MIN KAQV 070655Z AUTO VRB04KT 6SM BR OVC008 22/21 A2994 350 93 1300 VRB/04 RMK AO2 CIG 006V012 SLP137 T02220211
03949KAQV AQV20190407010012504/07/19 01:00:31  5-MIN KAQV 070700Z AUTO VRB05KT 6SM BR OVC008 22/21 A2994 350 93 1300 VRB/05 RMK AO2 CIG 006V011 T02220211
03949KAQV AQV20190407010512504/07/19 01:05:31  5-MIN KAQV 070705Z AUTO 17006KT 6SM BR OVC008 22/21 A2994 350 93 1300 160/06 RMK AO2 CIG 006V011 T02220211
03949KAQV AQV20190407011012504/07/19 01:10:31  5-MIN KAQV 070710Z AUTO VRB04KT 6SM BR OVC008 22/21 A2994 350 93 1300 VRB/04 RMK AO2 CIG 005V012 T02220211
03949KAQV AQV20190407011512504/07/19 01:15:31  5-MIN KAQV 070715Z AUTO VRB05KT 6SM BR OVC008 22/21 A2994 350 93 1300 VRB/05 RMK AO2 CIG 005V012 T02220211
03949KAQV AQV20190407012012504/07/19 01:20:31  5-MIN KAQV 070720Z AUTO VRB06KT 6SM BR OVC008 22/21 A2994 360 90 1300 VRB/06 RMK AO2 CIG 005V010 T02220206
03949KAQV AQV20190407012514104/07/19 01:25:31  5-MIN KAQV 070725Z AUTO 16007KT 130V190 6SM BR OVC006 22/21 A2994 360 90 1300 160/07 130V190 RMK AO2 CIG 005V010 T02220206
03949KAQV AQV20190407013012504/07/19 01:30:31  5-MIN KAQV 070730Z AUTO VRB05KT 6SM BR OVC006 22/21 A2994 360 90 1300 VRB/05 RMK AO2 CIG 005V009 T02220206
03949KAQV AQV20190407013512504/07/19 01:35:31  5-MIN KAQV 070735Z AUTO VRB05KT 6SM BR OVC008 22/21 A2994 360 90 1300 VRB/05 RMK AO2 CIG 005V011 T02220206
03949KAQV AQV20190407014012504/07/19 01:40:31  5-MIN KAQV 070740Z AUTO VRB04KT 6SM BR OVC008 22/21 A2994 360 90 1300 VRB/04 RMK AO2 CIG 005V011 T02220206
03949KAQV AQV20190407014512504/07/19 01:45:31  5-MIN KAQV 070745Z AUTO VRB04KT 6SM BR OVC008 22/21 A2994 360 90 1300 VRB/04 RMK AO2 CIG 005V011 T02220206
03949KAQV AQV20190407015013204/07/19 01:50:31  5-MIN KAQV 070750Z AUTO VRB04KT 6SM BR OVC008 22/21 A2995 350 90 1300 VRB/04 RMK AO2 CIG 005V011 SLP138 T02220206
03949KAQV AQV20190407015513204/07/19 01:55:31  5-MIN KAQV 070755Z AUTO 16005KT 6SM BR OVC008 22/21 A2994 350 90 1300 160/05 RMK AO2 CIG 005V010 SLP137 T02220206
03949KAQV AQV20190407020014104/07/19 02:00:31  5-MIN KAQV 070800Z AUTO 16007KT 120V190 6SM BR OVC008 22/21 A2994 350 90 1300 160/07 120V190 RMK AO2 CIG 005V010 T02220206
03949KAQV AQV20190407020512504/07/19 02:05:31  5-MIN KAQV 070805Z AUTO 17005KT 6SM BR OVC008 22/21 A2994 360 90 1300 170/05 RMK AO2 CIG 005V013 T02220206
03949KAQV AQV20190407021014104/07/19 02:10:31  5-MIN KAQV 070810Z AUTO 17007KT 080V220 6SM BR OVC008 22/21 A2994 360 90 1300 160/07 080V220 RMK AO2 CIG 005V012 T02220206
03949KAQV AQV20190407021512504/07/19 02:15:31  5-MIN KAQV 070815Z AUTO 16005KT 6SM BR OVC008 22/21 A2994 360 90 1300 160/05 RMK AO2 CIG 005V010 T02220206
03949KAQV AQV20190407022012504/07/19 02:20:31  5-MIN KAQV 070820Z AUTO 17006KT 6SM BR OVC008 22/21 A2994 360 90 1300 160/06 RMK AO2 CIG 005V012 T02220206
03949KAQV AQV20190407022512504/07/19 02:25:31  5-MIN KAQV 070825Z AUTO 16004KT 6SM BR OVC008 22/21 A2994 360 90 1300 160/04 RMK AO2 CIG 005V012 T02220206
03949KAQV AQV20190407023012504/07/19 02:30:31  5-MIN KAQV 070830Z AUTO 17005KT 6SM BR OVC008 22/21 A2994 360 90 1300 160/05 RMK AO2 CIG 005V012 T02220206
03949KAQV AQV20190407023512504/07/19 02:35:31  5-MIN KAQV 070835Z AUTO VRB06KT 6SM BR OVC008 22/21 A2994 360 90 1300 VRB/06 RMK AO2 CIG 005V012 T02220206
03949KAQV AQV20190407024012504/07/19 02:40:31  5-MIN KAQV 070840Z AUTO 16006KT 5SM BR OVC008 22/21 A2994 360 90 1300 160/06 RMK AO2 CIG 005V012 T02220206
03949KAQV AQV20190407024512504/07/19 02:45:31  5-MIN KAQV 070845Z AUTO VRB06KT 5SM BR OVC008 22/21 A2994 360 93 1300 VRB/06 RMK AO2 CIG 005V010 T02170206
03949KAQV AQV20190407025013804/07/19 02:50:31  5-MIN KAQV 070850Z AUTO 16006KT 6SM BR OVC007 22/21 A2994 360 93 1300 160/06 RMK AO2 CIG 005V010 SLP134 T02170206 55002
03949KAQV AQV20190407025513804/07/19 02:55:31  5-MIN KAQV 070855Z AUTO VRB04KT 5SM BR OVC007 22/21 A2993 360 93 1300 VRB/04 RMK AO2 CIG 005V010 SLP134 T02170206 55002
03949KAQV AQV20190407030012504/07/19 03:00:31  5-MIN KAQV 070900Z AUTO VRB06KT 5SM BR OVC007 22/21 A2993 370 93 1300 VRB/06 RMK AO2 CIG 005V010 T02170206
03949KAQV AQV20190407030512504/07/19 03:05:31  5-MIN KAQV 070905Z AUTO 16005KT 5SM BR OVC007 22/21 A2993 370 93 1300 160/05 RMK AO2 CIG 005V010 T02170206
03949KAQV AQV20190407031014804/07/19 03:10:31  5-MIN KAQV 070910Z AUTO 16007KT 120V190 5SM BR BKN007 OVC013 22/21 A2992 370 93 1300 150/07 120V190 RMK AO2 CIG 005V010 T02170206
03949KAQV AQV20190407031513204/07/19 03:15:31  5-MIN KAQV 070915Z AUTO 16007KT 6SM BR BKN007 OVC013 22/21 A2992 370 93 1300 160/07 RMK AO2 CIG 005V010 T02170206
03949KAQV AQV20190407032013204/07/19 03:20:31  5-MIN KAQV 070920Z AUTO VRB05KT 6SM BR BKN007 OVC012 22/21 A2992 370 93 1300 VRB/05 RMK AO2 CIG 005V010 T02170206
03949KAQV AQV20190407032513204/07/19 03:25:31  5-MIN KAQV 070925Z AUTO 16006KT 6SM BR BKN008 OVC012 22/21 A2992 370 93 1300 160/06 RMK AO2 CIG 005V010 T02170206
03949KAQV AQV20190407033012904/07/19 03:30:31  5-MIN KAQV 070930Z AUTO 16008KT 7SM BKN008 OVC012 22/21 A2993 370 93 1300 160/08 RMK AO2 CIG 005V010 T02170206
03949KAQV AQV20190407033512204/07/19 03:35:31  5-MIN KAQV 070935Z AUTO VRB05KT 7SM OVC010 22/21 A2993 370 93 1300 VRB/05 RMK AO2 CIG 006V014 T02170206
03949KAQV AQV20190407034012204/07/19 03:40:31  5-MIN KAQV 070940Z AUTO VRB06KT 7SM OVC010 22/21 A2993 370 93 1300 VRB/06 RMK AO2 CIG 006V014 T02170206
03949KAQV AQV20190407034512904/07/19 03:45:31  5-MIN KAQV 070945Z AUTO VRB05KT 7SM BKN008 OVC012 22/21 A2993 370 93 1300 VRB/05 RMK AO2 CIG 006V010 T02170206
03949KAQV AQV20190407035012904/07/19 03:50:31  5-MIN KAQV 070950Z AUTO VRB04KT 8SM OVC010 22/21 A2992 380 93 1300 VRB/04 RMK AO2 CIG 006V013 SLP129 T02170206
03949KAQV AQV20190407035512904/07/19 03:55:31  5-MIN KAQV 070955Z AUTO 16006KT 8SM OVC010 22/21 A2992 380 93 1300 150/06 RMK AO2 CIG 006V013 SLP128 T02170206
03949KAQV AQV20190407040012204/07/19 04:00:31  5-MIN KAQV 071000Z AUTO VRB06KT 8SM OVC010 22/21 A2992 370 93 1300 VRB/06 RMK AO2 CIG 006V013 T02170206
03949KAQV AQV20190407040512204/07/19 04:05:31  5-MIN KAQV 071005Z AUTO 18007KT 8SM OVC010 22/21 A2993 370 90 1300 180/07 RMK AO2 CIG 007V013 T02220206
03949KAQV AQV20190407041012204/07/19 04:10:31  5-MIN KAQV 071010Z AUTO 18007KT 8SM OVC008 22/21 A2993 370 93 1300 170/07 RMK AO2 CIG 007V013 T02170206
03949KAQV AQV20190407041512204/07/19 04:15:31  5-MIN KAQV 071015Z AUTO 18005KT 8SM OVC008 22/21 A2993 370 93 1300 170/05 RMK AO2 CIG 006V013 T02170206
03949KAQV AQV20190407042012204/07/19 04:20:31  5-MIN KAQV 071020Z AUTO 16006KT 8SM OVC008 22/21 A2992 370 93 1300 160/06 RMK AO2 CIG 006V012 T02170206
03949KAQV AQV20190407042512204/07/19 04:25:31  5-MIN KAQV 071025Z AUTO 16006KT 8SM OVC008 22/21 A2992 370 93 1300 150/06 RMK AO2 CIG 006V014 T02170206
03949KAQV AQV20190407043012204/07/19 04:30:31  5-MIN KAQV 071030Z AUTO VRB06KT 8SM OVC008 22/21 A2992 380 93 1300 VRB/06 RMK AO2 CIG 006V014 T02170206
03949KAQV AQV20190407043512904/07/19 04:35:31  5-MIN KAQV 071035Z AUTO VRB05KT 8SM BKN009 OVC019 22/21 A2992 380 93 1300 VRB/05 RMK AO2 CIG 006V014 T02170206
03949KAQV AQV20190407044012904/07/19 04:40:31  5-MIN KAQV 071040Z AUTO VRB06KT 8SM BKN009 OVC019 22/21 A2992 370 93 1300 VRB/06 RMK AO2 CIG 006V014 T02170206
03949KAQV AQV20190407044511704/07/19 04:45:31  5-MIN KAQV 071045Z AUTO VRB06KT 8SM SCT009 OVC018 22/21 A2992 380 93 1300 VRB/06 RMK AO2 T02170206
03949KAQV AQV20190407045012404/07/19 04:50:31  5-MIN KAQV 071050Z AUTO VRB06KT 8SM SCT009 OVC018 22/21 A2992 380 93 1300 VRB/06 RMK AO2 SLP129 T02170206
03949KAQV AQV20190407045512404/07/19 04:55:31  5-MIN KAQV 071055Z AUTO 17004KT 8SM SCT009 OVC018 22/21 A2992 370 93 1300 170/04 RMK AO2 SLP130 T02170206
03949KAQV AQV20190407050013304/07/19 05:00:31  5-MIN KAQV 071100Z AUTO 17007KT 130V210 8SM BKN011 OVC018 22/20 A2992 370 90 1300 160/07 130V210 RMK AO2 T02170200
03949KAQV AQV20190407050511704/07/19 05:05:31  5-MIN KAQV 071105Z AUTO VRB04KT 9SM BKN011 OVC019 22/20 A2992 370 90 1300 VRB/04 RMK AO2 T02170200
03949KAQV AQV20190407051011704/07/19 05:10:31  5-MIN KAQV 071110Z AUTO 18006KT 9SM BKN011 OVC021 22/20 A2993 370 90 1300 170/06 RMK AO2 T02170200
03949KAQV AQV20190407051513604/07/19 05:15:31  5-MIN KAQV 071115Z AUTO VRB05KT 9SM BKN011 BKN014 OVC021 22/20 A2993 370 90 1300 VRB/05 RMK AO2 CIG 008V012 T02170200
03949KAQV AQV20190407052013604/07/19 05:20:31  5-MIN KAQV 071120Z AUTO 18005KT 9SM BKN011 BKN014 OVC021 22/20 A2993 370 90 1300 180/05 RMK AO2 CIG 008V012 T02170200
03949KAQV AQV20190407052511704/07/19 05:25:31  5-MIN KAQV 071125Z AUTO 17006KT 9SM BKN012 OVC021 22/20 A2993 370 90 1300 170/06 RMK AO2 T02170200
03949KAQV AQV20190407053013704/07/19 05:30:31  5-MIN KAQV 071130Z AUTO VRB05KT 10SM BKN010 BKN014 OVC021 22/20 A2993 370 90 1300 VRB/05 RMK AO2 CIG 008V012 T02170200
03949KAQV AQV20190407053511804/07/19 05:35:31  5-MIN KAQV 071135Z AUTO 18005KT 10SM BKN012 OVC021 22/20 A2993 360 90 1300 170/05 RMK AO2 T02170200
03949KAQV AQV20190407054011804/07/19 05:40:31  5-MIN KAQV 071140Z AUTO 17006KT 10SM BKN010 OVC021 22/20 A2993 370 90 1300 160/06 RMK AO2 T02170200
03949KAQV AQV20190407054511804/07/19 05:45:31  5-MIN KAQV 071145Z AUTO 17007KT 10SM BKN012 OVC019 22/20 A2993 370 90 1300 170/07 RMK AO2 T02170200
03949KAQV AQV20190407055014904/07/19 05:50:31  5-MIN KAQV 071150Z AUTO VRB05KT 10SM BKN012 OVC019 22/20 A2993 370 90 1300 VRB/05 RMK AO2 SLP132 70119 T02170200 10222 20217 58005
03949KAQV AQV20190407055514904/07/19 05:55:31  5-MIN KAQV 071155Z AUTO 17005KT 10SM BKN012 OVC019 22/20 A2993 370 90 1300 160/05 RMK AO2 SLP131 70119 T02170200 10222 20217 58005
03949KAQV AQV20190407060013004/07/19 06:00:31  5-MIN KAQV 071200Z AUTO 16005KT 10SM BKN010 OVC018 22/20 A2993 370 90 1300 160/05 RMK AO2 CIG 008V012 T02170200
03949KAQV AQV20190407060512504/07/19 06:05:31  5-MIN KAQV 071205Z AUTO 17005KT 10SM SCT010 BKN016 OVC021 22/20 A2994 360 90 1300 160/05 RMK AO2 T02170200
03949KAQV AQV20190407061013604/07/19 06:10:31  5-MIN KAQV 071210Z AUTO 17006KT 9SM BKN010 BKN016 OVC021 22/20 A2994 360 90 1300 170/06 RMK AO2 CIG 008V014 T02170200
03949KAQV AQV20190407061512404/07/19 06:15:31  5-MIN KAQV 071215Z AUTO 18006KT 9SM BKN012 OVC019 22/20 A2995 350 90 1200 180/06 RMK AO2 PRESRR T02170200
03949KAQV AQV20190407062010704/07/19 06:20:31  5-MIN KAQV 071220Z AUTO 9SM BKN012 OVC022 22/20 A2995 350 90 1300 M /M RMK AO2 T02170200
03949KAQV AQV20190407062512404/07/19 06:25:31  5-MIN KAQV 071225Z AUTO 17004KT 9SM SCT010 BKN016 OVC022 22/20 A2995 350 90 1300 170/04 RMK AO2 T02170200
03949KAQV AQV20190407063012404/07/19 06:30:31  5-MIN KAQV 071230Z AUTO 17005KT 9SM SCT010 BKN016 OVC022 22/20 A2994 350 90 1300 160/05 RMK AO2 T02170200
03949KAQV AQV20190407063511704/07/19 06:35:31  5-MIN KAQV 071235Z AUTO 15006KT 9SM SCT012 OVC020 22/20 A2994 360 90 1300 150/06 RMK AO2 T02170200
03949KAQV AQV20190407064011704/07/19 06:40:31  5-MIN KAQV 071240Z AUTO VRB06KT 9SM SCT012 OVC020 22/20 A2993 360 90 1300 VRB/06 RMK AO2 T02170200
03949KAQV AQV20190407064511804/07/19 06:45:31  5-MIN KAQV 071245Z AUTO 16006KT 10SM BKN014 OVC020 22/20 A2993 360 87 1300 160/06 RMK AO2 T02220200
03949KAQV AQV20190407065012504/07/19 06:50:31  5-MIN KAQV 071250Z AUTO VRB04KT 10SM BKN014 OVC020 22/20 A2993 360 87 1300 VRB/04 RMK AO2 SLP134 T02220200
03949KAQV AQV20190407065512504/07/19 06:55:31  5-MIN KAQV 071255Z AUTO VRB04KT 10SM BKN014 OVC021 22/20 A2993 360 87 1300 VRB/04 RMK AO2 SLP133 T02220200
03949KAQV AQV20190407070011804/07/19 07:00:31  5-MIN KAQV 071300Z AUTO 16006KT 10SM BKN014 OVC019 22/20 A2993 370 87 1300 160/06 RMK AO2 T02220200
03949KAQV AQV20190407070511104/07/19 07:05:31  5-MIN KAQV 071305Z AUTO VRB04KT 10SM OVC014 22/20 A2992 370 87 1300 VRB/04 RMK AO2 T02220200
03949KAQV AQV20190407071011104/07/19 07:10:31  5-MIN KAQV 071310Z AUTO 17006KT 10SM OVC014 22/20 A2993 370 87 1300 170/06 RMK AO2 T02220200
03949KAQV AQV20190407071511104/07/19 07:15:31  5-MIN KAQV 071315Z AUTO VRB05KT 10SM OVC014 22/20 A2993 360 87 1300 VRB/05 RMK AO2 T02220200
03949KAQV AQV20190407072011804/07/19 07:20:31  5-MIN KAQV 071320Z AUTO VRB06KT 10SM BKN012 OVC017 22/20 A2993 370 87 1300 VRB/06 RMK AO2 T02220200
03949KAQV AQV20190407072511804/07/19 07:25:31  5-MIN KAQV 071325Z AUTO 16007KT 10SM BKN012 OVC017 22/20 A2993 370 87 1300 150/07 RMK AO2 T02220200
03949KAQV AQV20190407073013404/07/19 07:30:31  5-MIN KAQV 071330Z AUTO 17007KT 130V190 10SM BKN012 OVC019 22/20 A2993 370 87 1300 170/07 130V190 RMK AO2 T02220200
03949KAQV AQV20190407073512704/07/19 07:35:31  5-MIN KAQV 071335Z AUTO 16008KT 120V190 10SM OVC014 23/21 A2992 370 87 1400 160/08 120V190 RMK AO2 T02280206
03949KAQV AQV20190407074011804/07/19 07:40:31  5-MIN KAQV 071340Z AUTO VRB06KT 10SM BKN014 OVC020 23/21 A2993 370 87 1400 VRB/06 RMK AO2 T02280206
03949KAQV AQV20190407074511804/07/19 07:45:31  5-MIN KAQV 071345Z AUTO 17005KT 10SM BKN014 BKN020 23/21 A2993 370 87 1400 170/05 RMK AO2 T02280206
03949KAQV AQV20190407075014104/07/19 07:50:31  5-MIN KAQV 071350Z AUTO 17007KT 120V210 10SM BKN014 BKN020 23/21 A2993 360 87 1400 170/07 120V210 RMK AO2 SLP133 T02280206
03949KAQV AQV20190407075511804/07/19 07:55:31  5-MIN KAQV 071355Z AUTO VRB06KT 10SM BKN012 23/21 A2993 370 84 1500 VRB/06 RMK AO2 SLP133 T02330206
03949KAQV AQV20190407080013304/07/19 08:00:31  5-MIN KAQV 071400Z AUTO 17007G16KT 140V220 10SM BKN014 23/21 A2993 360 84 1500 160/07G16 140V220 RMK AO2 T02330206
03949KAQV AQV20190407080510104/07/19 08:05:31  5-MIN KAQV 071405Z AUTO 10SM BKN014 23/21 A2994 360 84 1400 M /M RMK AO2 T02330206
03949KAQV AQV20190407081011104/07/19 08:10:31  5-MIN KAQV 071410Z AUTO 18009KT 10SM BKN014 23/21 A2995 350 84 1400 170/09 RMK AO2 T02330206
03949KAQV AQV20190407081514104/07/19 08:15:31  5-MIN KAQV 071415Z AUTO 18007KT 150V210 10SM BKN014 BKN039 23/21 A2996 340 84 1400 180/07 150V210 RMK AO2 PRESRR T02330206
03949KAQV AQV20190407082012504/07/19 08:20:31  5-MIN KAQV 071420Z AUTO VRB06KT 10SM BKN014 BKN020 BKN047 23/21 A2996 340 84 1400 VRB/06 RMK AO2 T02330206
03949KAQV AQV20190407082512504/07/19 08:25:31  5-MIN KAQV 071425Z AUTO VRB05KT 10SM SCT014 BKN018 BKN037 24/21 A2995 350 81 1500 VRB/05 RMK AO2 T02390206
03949KAQV AQV20190407083014104/07/19 08:30:31  5-MIN KAQV 071430Z AUTO 17008KT 140V200 10SM SCT014 BKN020 BKN050 23/21 A2995 350 84 1400 170/08 140V200 RMK AO2 T02330206
03949KAQV AQV20190407083514104/07/19 08:35:31  5-MIN KAQV 071435Z AUTO 16007KT 130V200 10SM SCT014 SCT019 SCT036 23/21 A2994 350 84 1400 160/07 130V200 RMK AO2 T02330206
03949KAQV AQV20190407084014704/07/19 08:40:31  5-MIN KAQV 071440Z AUTO 17007G15KT 110V200 10SM FEW014 SCT019 SCT036 24/21 A2994 360 81 1500 170/07G15 110V200 RMK AO2 T02390206
03949KAQV AQV20190407084514004/07/19 08:45:31  5-MIN KAQV 071445Z AUTO 17008G17KT 130V190 10SM FEW014 FEW021 24/21 A2994 360 81 1500 160/08G17 130V190 RMK AO2 T02390206
03949KAQV AQV20190407085014604/07/19 08:50:31  5-MIN KAQV 071450Z AUTO 17007G17KT 120V190 10SM FEW015 24/21 A2994 360 81 1500 160/07G17 120V190 RMK AO2 SLP134 T02390206 55002
03949KAQV AQV20190407085513004/07/19 08:55:31  5-MIN KAQV 071455Z AUTO 17010G16KT 10SM FEW015 24/21 A2994 360 81 1500 160/10G16 RMK AO2 SLP136 T02390206 55002
03949KAQV AQV20190407090011704/07/19 09:00:31  5-MIN KAQV 071500Z AUTO VRB06G18KT 10SM SCT015 24/21 A2994 350 81 1500 VRB/06G18 RMK AO2 T02390206
03949KAQV AQV20190407090512404/07/19 09:05:31  5-MIN KAQV 071505Z AUTO 16009G18KT 10SM BKN015 BKN020 24/21 A2995 350 81 1500 160/09G18 RMK AO2 T02390206
03949KAQV AQV20190407091011704/07/19 09:10:31  5-MIN KAQV 071510Z AUTO VRB06G15KT 10SM BKN015 24/21 A2995 350 81 1500 VRB/06G15 RMK AO2 T02390206
03949KAQV AQV20190407091513304/07/19 09:15:31  5-MIN KAQV 071515Z AUTO 17008G14KT 140V200 10SM BKN015 24/21 A2995 350 78 1600 170/08G14 140V200 RMK AO2 T02440206
03949KAQV AQV20190407092011104/07/19 09:20:31  5-MIN KAQV 071520Z AUTO VRB06KT 10SM BKN015 24/21 A2995 350 78 1600 VRB/06 RMK AO2 T02440206
03949KAQV AQV20190407092511804/07/19 09:25:31  5-MIN KAQV 071525Z AUTO 16007KT 10SM BKN015 BKN024 24/21 A2995 350 78 1600 160/07 RMK AO2 T02440206
03949KAQV AQV20190407093011804/07/19 09:30:31  5-MIN KAQV 071530Z AUTO VRB06KT 10SM BKN015 OVC024 24/21 A2996 340 78 1600 VRB/06 RMK AO2 T02440206
03949KAQV AQV20190407093511804/07/19 09:35:31  5-MIN KAQV 071535Z AUTO VRB05KT 10SM BKN016 BKN024 24/21 A2996 340 78 1500 VRB/05 RMK AO2 T02440206
03949KAQV AQV20190407094011804/07/19 09:40:31  5-MIN KAQV 071540Z AUTO VRB04KT 10SM BKN016 BKN024 25/21 A2997 330 76 1600 VRB/04 RMK AO2 T02500206
03949KAQV AQV20190407094513404/07/19 09:45:31  5-MIN KAQV 071545Z AUTO 17007KT 140V210 10SM BKN018 OVC024 24/21 A2997 330 78 1500 170/07 140V210 RMK AO2 T02440206
03949KAQV AQV20190407095012504/07/19 09:50:31  5-MIN KAQV 071550Z AUTO VRB04KT 10SM BKN018 OVC024 24/20 A2998 320 76 1500 VRB/04 RMK AO2 SLP148 T02440200
03949KAQV AQV20190407095512504/07/19 09:55:31  5-MIN KAQV 071555Z AUTO 18003KT 10SM BKN018 OVC024 24/20 A2998 320 76 1500 180/03 RMK AO2 SLP149 T02440200
03949KAQV AQV20190407100012504/07/19 10:00:31  5-MIN KAQV 071600Z AUTO 18005KT 10SM BKN018 BKN026 OVC034 24/21 A2998 320 78 1500 170/05 RMK AO2 T02440206
03949KAQV AQV20190407100512504/07/19 10:05:31  5-MIN KAQV 071605Z AUTO VRB06KT 10SM BKN020 BKN026 OVC034 26/21 A2998 320 73 1700 VRB/06 RMK AO2 T02560206
03949KAQV AQV20190407101018804/07/19 10:10:31  5-MIN KAQV 071610Z AUTO VRB06KT 10SM BKN020 BKN025 BKN043 25/21 A2998 320 76 1600 VRB/06 RMK AO2 TTO VRB03KT 10SM SCT042 27/22 A2993 370 73 1800 VRB/03 RMK AO2 T02670217
03949KAQV AQV20190407111013104/07/19 11:10:31  5-MIN KAQV 071710Z AUTO VRB06G15KT 10SM SCT025 BKN033 BKN042 26/20 A2999 320 71 1600 VRB/06G15 RMK AO2 T02560200
03949KAQV AQV20190407111512504/07/19 11:15:31  5-MIN KAQV 071715Z AUTO VRB04KT 10SM FEW021 BKN029 BKN040 26/20 A2998 320 71 1700 VRB/04 RMK AO2 T02560200
03949KAQV AQV20190407112012504/07/19 11:20:31  5-MIN KAQV 071720Z AUTO VRB03KT 10SM BKN022 BKN029 BKN065 26/20 A2997 330 71 1700 VRB/03 RMK AO2 T02560200
03949KAQV AQV20190407112514004/07/19 11:25:31  5-MIN KAQV 071725Z AUTO VRB03KT 7SM -RA SCT022 BKN028 OVC065 24/21 A2997 330 81 1500 VRB/03 RMK AO2 RAB21 P0001 T02440211
03949KAQV AQV20190407113014804/07/19 11:30:31  5-MIN KAQV 071730Z AUTO VRB04KT 4SM -TSRA SCT022 BKN027 OVC060 24/21 A2997 330 81 1500 VRB/04 RMK AO2 RAB21 TSB30 P0002 T02440211
03949KAQV AQV20190407113515104/07/19 11:35:31  5-MIN KAQV 071735Z AUTO VRB03KT 3SM -TSRA BR BKN022 BKN027 OVC070 23/21 A2997 330 87 1400 VRB/03 RMK AO2 RAB21 TSB30 P0003 T02330211
03949KAQV AQV20190407114014804/07/19 11:40:31  5-MIN KAQV 071740Z AUTO 00000KT 5SM -TSRA SCT021 BKN027 BKN042 24/21 A2996 340 84 1500 000/00 RMK AO2 RAB21 TSB30 P0003 T02390211
03949KAQV AQV20190407114514804/07/19 11:45:31  5-MIN KAQV 071745Z AUTO VRB04KT 8SM TS SCT023 SCT034 BKN045 24/22 A2996 340 84 1600 VRB/04 RMK AO2 RAB21E43 TSB30 P0003 T02440217
03949KAQV AQV20190407115013104/07/19 11:50:31  5-MIN KAQV 071750Z AUTO 19005KT 9SM TS SCT023 BKN040 25/22 A2995 350 81 1600 180/05 RMK AO2 RAB21E43 TSB30 P0003
03949KAQV AQV20190407115518004/07/19 11:55:31  5-MIN KAQV 071755Z AUTO VRB03KT 10SM SCT023 BKN040 26/22 A2994 360 79 1800 VRB/03 RMK AO2 RAB21E43 TSB30E54 PRESFR SLP135 P0003 60003 T02610222 10267 20222 53005
03949KAQV AQV20190407120012504/07/19 12:00:31  5-MIN KAQV 071800Z AUTO VRB05KT 10SM FEW023 BKN042 26/22 A2993 370 76 1800 VRB/05 RMK AO2 PRESFR T02610217
03949KAQV AQV20190407120511104/07/19 12:05:31  5-MIN KAQV 071805Z AUTO VRB03KT 10SM SCT042 27/22 A2993 370 73 1800 VRB/03 RMK AO2 T02670217
03949KAQV AQV20190407121012504/07/19 12:10:31  5-MIN KAQV 071810Z AUTO VRB04KT 10SM FEW042 SCT075 26/21 A2991 380 73 1800 VRB/04 RMK AO2 PRESFR T02610211
03949KAQV AQV20190407121512504/07/19 12:15:31  5-MIN KAQV 071815Z AUTO 14005KT 10SM SCT039 SCT075 26/21 A2991 390 73 1800 140/05 RMK AO2 PRESFR T02610211
03949KAQV AQV20190407122012504/07/19 12:20:31  5-MIN KAQV 071820Z AUTO VRB03KT 10SM SCT035 SCT042 26/21 A2989 410 73 1800 VRB/03 RMK AO2 PRESFR T02560206
03949KAQV AQV20190407122512504/07/19 12:25:31  5-MIN KAQV 071825Z AUTO VRB03KT 10SM FEW024 SCT035 BKN043 26/21 A2989 400 73 1800 VRB/03 RMK AO2 T02560206
03949KAQV AQV20190407123011804/07/19 12:30:31  5-MIN KAQV 071830Z AUTO VRB05KT 10SM FEW024 BKN036 25/21 A2990 400 79 1700 VRB/05 RMK AO2 T02500211
03949KAQV AQV20190407123512504/07/19 12:35:31  5-MIN KAQV 071835Z AUTO VRB04KT 10SM FEW026 BKN036 BKN050 24/21 A2989 410 78 1600 VRB/04 RMK AO2 T02440206
03949KAQV AQV20190407124014004/07/19 12:40:31  5-MIN KAQV 071840Z AUTO 00000KT 8SM -RA FEW026 BKN034 BKN048 24/21 A2988 410 81 1600 000/00 RMK AO2 RAB40 P0000 T02440211
03949KAQV AQV20190407124514004/07/19 12:45:31  5-MIN KAQV 071845Z AUTO 16003KT 6SM -RA FEW027 BKN045 OVC090 24/21 A2989 410 84 1600 160/03 RMK AO2 RAB40 P0000 T02390211
03949KAQV AQV20190407125015004/07/19 12:50:31  5-MIN KAQV 071850Z AUTO 00000KT 5SM -RA BR FEW027 BKN036 OVC090 24/22 A2988 410 87 1600 000/00 RMK AO2 RAB40 SLP115 P0001 T02390217
03949KAQV AQV20190407125515004/07/19 12:55:31  5-MIN KAQV 071855Z AUTO 00000KT 6SM -RA BR FEW026 SCT034 BKN045 24/22 A2988 420 87 1600 000/00 RMK AO2 RAB40 SLP115 P0001 T02390217
03949KAQV AQV20190407130014104/07/19 13:00:31  5-MIN KAQV 071900Z AUTO VRB03KT 6SM BR FEW026 SCT038 SCT070 24/22 A2988 420 87 1600 VRB/03 RMK AO2 RAE1857 P0000 T02390217
03949KAQV AQV20190407130513804/07/19 13:05:31  5-MIN KAQV 071905Z AUTO 00000KT 7SM SCT036 SCT050 BKN090 24/22 A2987 430 87 1600 000/00 RMK AO2 RAE1857 P0000 T02390217
03949KAQV AQV20190407131013804/07/19 13:10:31  5-MIN KAQV 071910Z AUTO 00000KT 7SM FEW031 SCT046 BKN090 24/21 A2986 430 84 1600 000/00 RMK AO2 RAE1857 P0000 T02390211
03949KAQV AQV20190407131514104/07/19 13:15:31  5-MIN KAQV 071915Z AUTO 00000KT 6SM -RA FEW033 SCT044 BKN070 24/21 A2985 440 84 1600 000/00 RMK AO2 PRESFR P0000 T02390211
03949KAQV AQV20190407132015204/07/19 13:20:31  5-MIN KAQV 071920Z AUTO 00000KT 4SM -TSRA BR SCT033 BKN049 BKN070 23/22 A2984 450 90 1600 000/00 RMK AO2 TSB20 PRESFR P0001 T02330217
03949KAQV AQV20190407132515504/07/19 13:25:31  5-MIN KAQV 071925Z AUTO 00000KT 2 1/2SM TSRA BR SCT033 BKN042 BKN090 23/22 A2983 460 93 1500 000/00 RMK AO2 TSB20 PRESFR P0002 T02280217
03949KAQV AQV20190407133014504/07/19 13:30:31  5-MIN KAQV 071930Z AUTO 11003KT 2SM -TSRA BR SCT029 BKN042 OVC090 23/22 A2983 460 93 1500 100/03 RMK AO2 TSB20 P0002 T02280217
03949KAQV AQV20190407133515504/07/19 13:35:31  5-MIN KAQV 071935Z AUTO VRB04KT 1SM -TSRA BR FEW009 BKN030 OVC090 23/22 A2984 450 93 1500 VRB/04 RMK AO2 VIS 1/4V3 TSB20 P0012 T02280217
03949KAQV AQV20190407134016304/07/19 13:40:31  5-MIN KAQV 071940Z AUTO 15008KT 100V180 1/2SM +TSRA FG FEW009 BKN022 OVC034 22/21 A2986 440 93 1400 150/08 100V180 RMK AO2 TSB20 P0029 T02170206
03949KAQV AQV20190407134514404/07/19 13:45:31  5-MIN KAQV 071945Z AUTO 1/4SM +TSRA FG FEW006 BKN019 OVC031 21/20 A2987 430 93 1300 M /M RMK AO2 TSB20 PRESRR P0042 T02110200
03949KAQV AQV20190407135014404/07/19 13:50:31  5-MIN KAQV 071950Z AUTO 28004KT 1/2SM +TSRA FG FEW004 BKN014 OVC024 20/19 A2987 420 93 1100 270/04 RMK AO2 TSB20 PRESRR P0046
03949KAQV AQV20190407135515104/07/19 13:55:31  5-MIN KAQV 071955Z AUTO VRB03KT 1SM TSRA BR FEW004 BKN010 OVC024 20/19 A2988 420 93 1100 VRB/03 RMK AO2 TSB20 SLP114 P0050 T02000189
03949KAQV AQV20190407140013804/07/19 14:00:31  5-MIN KAQV 072000Z AUTO VRB04KT 2SM TSRA BR FEW004 BKN010 OVC015 20/19 A2988 420 93 1100 VRB/04 RMK AO2 P0001 T02000189
03949KAQV AQV20190407140513104/07/19 14:05:31  5-MIN KAQV 072005Z AUTO VRB03KT 2SM TSRA BR BKN012 OVC025 20/19 A2987 430 93 1100 VRB/03 RMK AO2 P0004 T02000189
03949KAQV AQV20190407141015304/07/19 14:10:31  5-MIN KAQV 072010Z AUTO 03005KT 1 3/4SM +TSRA BR BKN012 BKN023 OVC038 20/19 A2986 430 93 1200 030/05 RMK AO2 VIS 3/4V5 P0007 T02000189
03949KAQV AQV20190407141514304/07/19 14:15:31  5-MIN KAQV 072015Z AUTO VRB03KT 1 1/4SM +TSRA BR BKN012 BKN023 OVC037 20/19 A2986 430 93 1200 VRB/03 RMK AO2 P0015 T02000189
03949KAQV AQV20190407142014304/07/19 14:20:31  5-MIN KAQV 072020Z AUTO 06005KT 1 1/4SM -TSRA BR SCT012 BKN019 OVC035 20/19 A2987 420 93 1100 050/05 RMK AO2 P0016 T02000189
03949KAQV AQV20190407142514204/07/19 14:25:31  5-MIN KAQV 072025Z AUTO 00000KT 2 1/2SM TSRA BR FEW011 BKN019 OVC035 19/18 A2988 420 93 1100 000/00 RMK AO2 P0017 T01940183
03949KAQV AQV20190407143014104/07/19 14:30:31  5-MIN KAQV 072030Z AUTO 1 3/4SM +TSRA BR FEW014 BKN023 OVC038 20/19 A2988 410 93 1100 M /M RMK AO2 VIS 1V5 P0023 T02000189
03949KAQV AQV20190407143519504/07/19 14:35:31  5-MIN KAQV 072035Z AUTO VRB05KT 3/4SM +TSRA BR FEW016 BKN023 OVC036 19/18 A2988 410 93 1100 VRB/05 RMK AO2 P0038 T01940183OVC100 18/17 A2987 420 96 900 VRB/06 RMK AO2 T01780172
03949KAQV AQV20190407202008404/07/19 20:20:31  5-MIN KAQV 080220Z AUTO VRB03KT 10SM FEW 000/00 RMK AO2 T01780167
03949KAQV AQV20190407203511004/07/19 20:35:31  5-MIN KAQV 080235Z AUTO 00000KT 10SM FEW003 OVC090 18/17420 93 900 000/00 RMK AO2 T01780167
03949KAQV AQV20190407204511004/07/19 20:45:31  5-MIN KAQV 080245Z AUTO 00000KT 10SM OVC090 18/17 A2988 420 93 900 000/00 RMK AO2 T01780167
03949KAQV AQV20190407205015704/07/19 20:50:31  5-MIN KAQV 080250Z AUTO 00000KT 10SM OVC085 18/17 A2988 420 93 900 000/00 RMK AO2 SLP11090 18/17 A2987 420 93 900 060/03 RMK AO2 T01780167
03949KAQV AQV20190407210522504/07/19 21:05:31  5-MIN KAQV 080305Z AUTO 00000KT 10SM OVC085 18/17 A2988 420 93 900 000/00 RMK AO2 T01780167420 93 900 000/00 RMK AO2 SLP114 T01780167 5501604/07/19 20:55:3085 18/17 A2988 410 93 900 000/00 RMK AO2 T01780167
03949KAQV AQV20190407211016804/07/19 21:10:31  5-MIN KAQV 080310Z AUTO 00000KT 10SM OVC0857/19 21:35:31  5-MIN KAQV 080335Z AUTO 07003KT 10SM OVC085 18/17 A2989 410 93 900 060/03 RMK AO2 T01780167
03949KAQV AQV20190407212011004/07/19 21:20:31  5-MIN KAQV 080320Z AUTO 00000KT 10SM OVC085 18/17 A2988 410 93 900 000/00 RMK AO2 T01780167
03949KAQV AQV20190407212511004/07/19 21:25:31  5-MIN KAQV 080325Z AUTO 07003KT 10SM OVC085 18/17 A2988 420 93 900 000/00 RMK AO2 T01780167
03949KAQV AQV20190407212520604/07/19 21:25:31  5-MIN KAQV 080325Z AUTO 07003KT 10SM OVC085 18/17 A2988 410 93 900 060/03 RMK AO2 T017801670Z AUTO 00000KT 10SM SCT004 BKN055 OVC085 18/17 A2989 410 93 900 000/00 RMK AO2 SLP119 T01780167
03949KAQV AQV20190407214016404/07/19 21:40:31  5-MIN KAQV 080340Z AUTO VRB03KT 10SM FEW004 OVC085 18/17 A2989 410 93 900 VRB/03 RMK AO2 T0178016704/07/19 21:410 93 900 000/00 RMK AO2 T01780167
03949KAQV AQV20190407214513104/07/19 21:45:31  5-MIN KAQV 080345Z AUTOV 080405Z AUTO 00000KT 10SM BKN003 OVC055 18/17 A2989 410 93 900 000/00 RMK AO2 T01780167
03949KAQV AQV20190407215517304/07/19 21:55:31  5-MIN KAQV 080355Z AUTO 00000KT 10SM BKN003 BKN055 OVC085 18/17 A2989 400 93 900 000/00 RMK AO2 SLP119 T01780167 A2989 410 93 900 VRB/03 RMK AO2 T01780167
03949KAQV AQV20190407220007704/07/19 22:00:31  5-MIN KAQV 080400Z AUTO 00000K900 VRB/03 RMK AO2 T01780167
03949KAQV AQV20190407221011004/07/19 22:10:31  5-MIN KAQV 080410Z AUTO 00000KT 10SM OVC003 18/17 A2988 410 93 900 000/00 RMK AO2 T01780167
03949KAQV AQV20190407221511004/07/19 22:15:31  5-MIN KAQV 080415Z AUTO 00000KT 10SM OVC003 18/17 A2989 400 93 900 VRB/03 RMK AO2 T01780167
03949KAQV AQV20190407221511004/07/19 22:15:31  5-MIN KAQV 080415Z AUTO 00000KT 10SM OVC003 18/17 A2989 410 93 900 000/00 RMK AO2 T01780167
03949KAQV AQV20190407221514304/07/19 22:15:31  5-MIN KAQV 080415Z AUTO 00000KT 10SM OVC003 18/17 A2989 410055 OVC085 18/17 A2989 400 93 900 000/00 RMK AO2 SLP119 T01780167
03949KAQV AQV20190407222011004/07/19 22:20:31  5-MIN KAQV 080420Z AUTO VRB03KT 10SM OVC003 18/17 A2989 400 93 900 VRB/03 RMK AO2 T01780167
03949KAQV AQV20190407222511004/07/19 22:25:31  5-MIN KAQV 080425Z AUTO VRB03KT 10SM OVC003 18/17 A2989 400 93 900 VRB/03 RMK AO2 T01780167
03949KAQV AQV20190407223011004/07/19 22:30:31  5-MIN KAQV 080430Z AUTO 00000KT 10SM OVC003 18/17 A2989 400 93 900 000/00 RMK AO2 T01780167
03949KAQV AQV20190407223511004/07/19 22:35:31  5-MIN KAQV 080435Z AUTO 00000KT 10SM OVC003 18/17 A2989 400 93 900 000/00 RMK AO2 T01780167
03949KAQV AQV20190407224011004/07/19 22:40:31  5-MIN KAQV 080440Z AUTO VRB03KT 10SM OVC003 18/17 A2989 400 93 900 VRB/03 RMK AO2 T01780167
03949KAQV AQV20190407224511004/07/19 22:45:31  5-MIN KAQV 080445Z AUTO VRB03KT 10SM OVC003 18/17 A2989 400 93 900 VRB/03 RMK AO2 T01780167
03949KAQV AQV20190407225011704/07/19 22:50:31  5-MIN KAQV 080450Z AUTO 00000KT 10SM OVC003 18/17 A2989 410 93 900 000/00 RMK AO2 SLP117 T01780167
03949KAQV AQV20190407225023204/07/19 22:50:31  5-MIN KAQV 080450Z AUTO 00000KT 10SM OVC003 18/17 A2989 410 93 900 0430Z AUTO 00000KT 10SM OVC003 18/17 A2989 400 93 900 000/00 RMK AO2 T0178016704/07/19 22:35:3/17 A2988 410 93 900 000/00 RMK AO2 SLP115 T01780167
03949KAQV AQV20190407225511704/07/19 22:55:31  5-MIN KAQV 080455Z AUTO 00000KT 10SM OVC003 18/17 A2988 410 93 900 000/00 RMK AO2 SLP115 T01780167
03949KAQV AQV20190407230011004/07/19 23:00:31  5-MIN KAQV 080500Z AUTO 00000KT 10SM OVC003 18/17 A2988 410 93 900 000/00 RMK AO2 T01780167
03949KAQV AQV20190407230511004/07/19 23:05:31  5-MIN KAQV 080505Z AUTO 00000KT 10SM OVC003 18/17 A2988 410 96 900 000/00 RMK AO2 T01780172
03949KAQV AQV20190407231011004/07/19 23:10:31  5-MIN KAQV 080510Z AUTO VRB03KT 10SM OVC003 18/17 A2987 420 93 900 VRB/03 RMK AO2 T01780167
03949KAQV AQV20190407231511004/07/19 23:15:31  5-MIN KAQV 080515Z AUTO VRB03KT 10SM OVC003 18/17 A2987 420 96 900 VRB/03 RMK AO2 T01780172
03949KAQV AQV20190407232011004/07/19 23:20:31  5-MIN KAQV 080520Z AUTO 00000KT 10SM OVC003 18/17 A2987 420 96 900 000/00 RMK AO2 T01780172
03949KAQV AQV20190407232511004/07/19 23:25:31  5-MIN KAQV 080525Z AUTO VRB03KT 10SM OVC003 18/17 A2987 420 96 900 VRB/03 RMK AO2 T01780172
03949KAQV AQV20190407233012504/07/19 23:30:31  5-MIN KAQV 080530Z AUTO VRB03KT 9SM -RA OVC003 18/17 A2987 430 96 900 VRB/03 RMK AO2 RAB28 P0000 T01780172
03949KAQV AQV20190407233512504/07/19 23:35:31  5-MIN KAQV 080535Z AUTO VRB03KT 7SM -RA OVC003 18/17 A2987 430 96 900 VRB/03 RMK AO2 RAB28 P0000 T01780172
03949KAQV AQV20190407234012504/07/19 23:40:31  5-MIN KAQV 080540Z AUTO 00000KT 8SM -RA OVC003 18/17 A2986 430 96 900 000/00 RMK AO2 RAB28 P0000 T01780172
03949KAQV AQV20190407234512504/07/19 23:45:31  5-MIN KAQV 080545Z AUTO 06003KT 10SM OVC003 18/17 A2986 430 96 900 060/03 RMK AO2 RAB28E43 P0000 T01780172
03949KAQV AQV20190407235016604/07/19 23:50:31  5-MIN KAQV 080550Z AUTO VRB04KT 10SM OVC003 18/17 A2986 430 96 900 VRB/04 RMK AO2 RAB28E43 SLP109 P0000 60000 T01780172 10183 20178 402670178 53010
03949KAQV AQV20190407235516504/07/19 23:55:31  5-MIN KAQV 080555Z AUTO 00000KT 9SM OVC003 18/17 A2986 430 96 900 000/00 RMK AO2 RAB28E43 SLP108 P0000 60000 T01780172 10183 20178 402670178 53010
03949KAQV AQV20190408000010904/08/19 00:00:31  5-MIN KAQV 080600Z AUTO 00000KT 9SM OVC003 18/17 A2986 440 96 900 000/00 RMK AO2 T01780172
03949KAQV AQV20190408000511504/08/19 00:05:31  5-MIN KAQV 080605Z AUTO 00000KT 7SM OVC003 18/17 A2985 440 96 900 000/00 RMK AO2 P0001 T01780172
03949KAQV AQV20190408001012504/08/19 00:10:31  5-MIN KAQV 080610Z AUTO 00000KT 7SM -RA OVC003 18/17 A2984 450 96 900 000/00 RMK AO2 RAB07 P0001 T01780172
03949KAQV AQV20190408001512504/08/19 00:15:31  5-MIN KAQV 080615Z AUTO 00000KT 8SM -RA OVC003 18/17 A2984 450 96 900 000/00 RMK AO2 RAB07 P0001 T01780172
03949KAQV AQV20190408002012404/08/19 00:20:31  5-MIN KAQV 080620Z AUTO 00000KT 9SM OVC003 18/17 A2984 450 96 900 000/00 RMK AO2 RAB07E17 P0001 T01780172
03949KAQV AQV20190408002512504/08/19 00:25:31  5-MIN KAQV 080625Z AUTO 00000KT 10SM OVC003 18/17 A2984 450 96 900 000/00 RMK AO2 RAB07E17 P0001 T01780172
03949KAQV AQV20190408003012504/08/19 00:30:31  5-MIN KAQV 080630Z AUTO 00000KT 10SM OVC003 18/17 A2984 450 96 900 000/00 RMK AO2 RAB07E17 P0001 T01780172
03949KAQV AQV20190408003512404/08/19 00:35:31  5-MIN KAQV 080635Z AUTO 00000KT 9SM OVC003 18/17 A2984 450 96 900 000/00 RMK AO2 RAB07E17 P0001 T01780172
03949KAQV AQV20190408004013104/08/19 00:40:31  5-MIN KAQV 080640Z AUTO 00000KT 9SM -RA OVC003 18/17 A2984 450 96 900 000/00 RMK AO2 RAB07E17B36 P0001 T01780172
03949KAQV AQV20190408004513204/08/19 00:45:31  5-MIN KAQV 080645Z AUTO 00000KT 10SM -RA OVC003 18/17 A2984 450 96 900 000/00 RMK AO2 RAB07E17B36 P0001 T01780172
03949KAQV AQV20190408005013804/08/19 00:50:31  5-MIN KAQV 080650Z AUTO 00000KT 10SM OVC003 18/17 A2984 450 96 900 000/00 RMK AO2 RAB07E17B36E48 SLP102 P0001 T01780172
03949KAQV AQV20190408005513704/08/19 00:55:31  5-MIN KAQV 080655Z AUTO 00000KT 9SM OVC003 18/17 A2983 460 96 900 000/00 RMK AO2 RAB07E17B36E48 SLP099 P0001 T01780172
03949KAQV AQV20190408010010904/08/19 01:00:31  5-MIN KAQV 080700Z AUTO 10003KT 8SM OVC003 18/17 A2983 460 96 900 100/03 RMK AO2 T01780172
03949KAQV AQV20190408010510904/08/19 01:05:31  5-MIN KAQV 080705Z AUTO 00000KT 9SM OVC003 18/17 A2983 460 96 900 000/00 RMK AO2 T01780172
03949KAQV AQV20190408011011004/08/19 01:10:31  5-MIN KAQV 080710Z AUTO VRB03KT 10SM OVC003 18/17 A2983 460 96 900 VRB/03 RMK AO2 T01780172
03949KAQV AQV20190408011512504/08/19 01:15:31  5-MIN KAQV 080715Z AUTO 00000KT 9SM -RA OVC003 18/17 A2982 470 96 900 000/00 RMK AO2 RAB13 P0000 T01780172
03949KAQV AQV20190408032011104/08/19 03:20:31  5-MIN KAQV 080920Z AUTO 02003KT 10SM OVC005 18/17 A2977 520 96 1000 010/03 RMK AO2 T01780172
03949KAQV AQV20190408032511104/08/19 03:25:31  5-MIN KAQV 080925Z AUTO 05003KT 10SM OVC005 18/17 A2977 510 96 1000 050/03 RMK AO2 T01780172
03949KAQV AQV20190408033012304/08/19 03:30:31  5-MIN KAQV 080930Z AUTO 05003KT 10SM OVC005 18/17 A2977 510 96 1000 050/03 RMK AO2 CIG 003V008 T01780172
03949KAQV AQV20190408033512304/08/19 03:35:31  5-MIN KAQV 080935Z AUTO 06003KT 10SM OVC005 18/17 A2977 510 96 1000 060/03 RMK AO2 CIG 003V008 T01780172
03949KAQV AQV20190408033515104/08/19 03:35:31  5-MIN KAQV 080935Z AUTO 06003KT 10SM OVC005 18/17 A2977 510 96 1000 060/03 RMK AO2 CIG 003V008 T017801 RMK AO2 CIG 003V007 T01780172
03949KAQV AQV20190408034012304/08/19 03:40:31  5-MIN KAQV 080940Z AUTO 00000KT 10SM OVC005 18/17 A2977 510 96 1000 000/00 RMK AO2 CIG 003V008 T01780172
03949KAQV AQV20190408034512304/08/19 03:45:31  5-MIN KAQV 080945Z AUTO 00000KT 10SM OVC005 18/17 A2977 520 96 1000 000/00 RMK AO2 CIG 004V008 T01780172
03949KAQV AQV20190408034512704/08/19 03:45:31  5-MIN KAQV 080945Z AUTO 00000KT 10SM OVC005 18/17 A2977 520 96 1000 000/00 RMK 1000 050/03 RMK AO2 T01780172
03949KAQV AQV20190408035013004/08/19 03:50:31  5-MIN KAQV 080950Z AUTO 00000KT 10SM OVC005 18/17 A2977 520 93 1000 000/00 RMK AO2 CIG 004V008 SLP078 T01780167
03949KAQV AQV20190408035512204/08/19 03:55:31  5-MIN KAQV 080955Z AUTO 00000KT 10SM OVC005 18/17 A2977 10 96 1000 060/03 RMK AO2 CIG 003V008 T01780172
03949KAQV AQV20190408035513004/08/19 03:55:31  5-MIN KAQV 080955Z AUTO 00000KT 10SM OVC005 18/17 A2977 520 93 1000 000/00 RMK AO2 CIG 004V008 SLP079 T01780167
03949KAQV AQV20190408040011104/08/19 04:00:31  5-MIN KAQV 081000Z AUTO 00000KT 10SM OVC005 18/17 A2978 510 96 1000 000/00 RMK AO2 T01780172
03949KAQV AQV20190408040512504/08/19 04:05:31  5-MIN KAQV 081005Z AUTO 00000KT 3SM RA BRC005 18/17 A2977 520 96 1000 000/00 RMK AO2 CIG 004V008 T01780172
03949KAQV AQV20190408040512804/08/19 04:05:31  5-MIN KAQV 081005Z AUTO 00000KT 3SM RA BR OVC005 18/17 A2978 510 96 1000 000/00 RMK AO2 RAB03 P0005 T01780172
03949KAQV AQV20190408041013304/08/19 04:10:31  5-MIN KAQV 081010Z AUTO 05003KT 2 1/2SM +RA BR OVC005 18/17 A2977 510 96 1000 040/03 RMK AO2 RAB03 P0008 T01780172
03949KAQV AQV20190408041018804/08/19 04:10:31  5-MIN KAQV 081010Z AUTO 05003KT 2 1/2SM +RA BR OVC005 18/17 A2977 510 96 1000 040/03 RMK AO2 RAB03 P0008 T01780172520 93 1000 000/00 RMK AO2 CIG 004V008 SLP079 T01780167
03949KAQV AQV20190408041512904/08/19 04:15:31  5-MIN KAQV 081015Z AUTO 05004KT 4SM -RA BR OVC005 18/17 A2977 510 93 1000 040/04 RMK AO2 RAB03 P0008 T01780167
03949KAQV AQV20190408042010604/08/19 04:20:31  5-MIN KAQV 081020Z AUTO 03004KT 9SM -RA OVC005 18/17 A2977 510 93 1000 030/02 T01780172
03949KAQV AQV20190408042012604/08/19 04:20:31  5-MIN KAQV 081020Z AUTO 03004KT 9SM -RA OVC005 18/17 A2977 510 93 1000 030/04 RMK AO2 RAB03 P0008 T01780167
03949KAQV AQV20190408042512604/08/19 04:25:31  5-MIN KAQV 081025Z AUTO 00000KT 10SM OVC005 18/17 A2977 510 93 1000 000/00 RMK AO2 RAB03E22 P0008 T01780167
03949KAQV AQV20190408043012704/08/19 04:30:31  5-MIN KAQV 081030Z AUTO 04003KT 10SM -RA OVC005 18/17 A2977 520 93 1000 040/03 RMK AO2 RAB03 P0008 T01780167
03949KAQV AQV20190408043512704/08/19 04:35:31  5-MIN KAQV 081035Z AUTO VRB03KT 10SM -RA OVC005 18/17 A2977 520 93 1000 VRB/03 RMK AO2 RAB03 P0008 T01780167
03949KAQV AQV20190408044012604/08/19 04:40:31  5-MIN KAQV 081040Z AUTO 00000KT 10SM OVC005 18/17 A2977 520 93 1000 000/00 RMK AO2 RAB03E36 P0008 T01780167
03949KAQV AQV20190408044512604/08/19 04:45:31  5-MIN KAQV 081045Z AUTO VRB03KT 10SM OVC005 18/17 A2977 520 93 1000 VRB/03 RMK AO2 RAB03E36 P0008 T01780167
03949KAQV AQV20190408045013304/08/19 04:50:31  5-MIN KAQV 081050Z AUTO 05003KT 10SM OVC005 18/17 A2977 510 93 1000 050/03 RMK AO2 RAB03E36 SLP080 P0008 T01780167
03949KAQV AQV20190408045513304/08/19 04:55:31  5-MIN KAQV 081055Z AUTO 00000KT 10SM OVC005 18/17 A2977 510 93 1000 000/00 RMK AO2 RAB03E36 SLP080 P0008 T01780167
03949KAQV AQV20190408050011104/08/19 05:00:31  5-MIN KAQV 081100Z AUTO 00000KT 10SM OVC005 18/17 A2978 510 93 1000 000/00 RMK AO2 T01780167
03949KAQV AQV20190408050511104/08/19 05:05:31  5-MIN KAQV 081105Z AUTO 04003KT 10SM OVC005 18/17 A2977 510 93 1000 030/03 RMK AO2 T01780167
03949KAQV AQV20190408051011104/08/19 05:10:31  5-MIN KAQV 081110Z AUTO 02003KT 10SM OVC004 18/17 A2977 510 93 1000 020/03 RMK AO2 T01780167
03949KAQV AQV20190408051511104/08/19 05:15:31  5-MIN KAQV 081115Z AUTO 01003KT 10SM OVC004 18/17 A2977 520 93 1000 010/03 RMK AO2 T01780167
03949KAQV AQV20190408052011804/08/19 05:20:31  5-MIN KAQV 081120Z AUTO 00000KT 10SM BKN004 OVC050 18/17 A2977 510 93 1000 000/00 RMK AO2 T01780167
03949KAQV AQV20190408052512304/08/19 05:25:31  5-MIN KAQV 081125Z AUTO 00000KT 10SM OVC004 18/17 A2977 510 93 1000 000/00 RMK AO2 CIG 003V007 T01780167
03949KAQV AQV20190408053013004/08/19 05:30:31  5-MIN KAQV 081130Z AUTO 02003KT 10SM BKN004 OVC050 18/17 A2977 510 93 1000 020/03 RMK AO2 CIG 003V007 T01780167
03949KAQV AQV20190408053513004/08/19 05:35:31  5-MIN KAQV 081135Z AUTO 03004KT 10SM BKN006 OVC050 18/17 A2977 510 93 1000 030/04 RMK AO2 CIG 004V007 T01780167
03949KAQV AQV20190408054012304/08/19 05:40:31  5-MIN KAQV 081140Z AUTO 00000KT 10SM OVC006 18/17 A2978 510 93 1000 000/00 RMK AO2 CIG 004V009 T01780167
03949KAQV AQV20190408054512304/08/19 05:45:31  5-MIN KAQV 081145Z AUTO 00000KT 10SM OVC006 18/17 A2977 510 93 1000 000/00 RMK AO2 CIG 004V009 T01780167
03949KAQV AQV20190408055016004/08/19 05:50:31  5-MIN KAQV 081150Z AUTO 00000KT 10SM OVC006 18/17 A2978 510 93 1000 000/00 RMK AO2 CIG 004V009 SLP081 60009 70225 T01780167 10183 20178 56017
03949KAQV AQV20190408055516004/08/19 05:55:31  5-MIN KAQV 081155Z AUTO 04003KT 10SM OVC006 18/17 A2978 510 93 1000 040/03 RMK AO2 CIG 004V009 SLP083 60009 70225 T01780167 10183 20178 56017
03949KAQV AQV20190408060011104/08/19 06:00:31  5-MIN KAQV 081200Z AUTO 03003KT 10SM OVC005 18/17 A2978 500 93 1000 030/03 RMK AO2 T01780167
03949KAQV AQV20190408060512304/08/19 06:05:31  5-MIN KAQV 081205Z AUTO 00000KT 10SM OVC005 18/17 A2979 500 93 1000 000/00 RMK AO2 CIG 003V009 T01780167
03949KAQV AQV20190408061012304/08/19 06:10:31  5-MIN KAQV 081210Z AUTO 35003KT 10SM OVC005 18/17 A2979 500 93 1000 350/03 RMK AO2 CIG 003V008 T01780167
03949KAQV AQV20190408061512504/08/19 06:15:31  5-MIN KAQV 081215Z AUTO 02003KT 10SM BKN005 BKN038 OVC046 18/17 A2979 500 93 1000 020/03 RMK AO2 T01780167
03949KAQV AQV20190408062011804/08/19 06:20:31  5-MIN KAQV 081220Z AUTO 02003KT 10SM SCT005 OVC036 18/17 A2979 500 93 1000 020/03 RMK AO2 T01780167
03949KAQV AQV20190408062511804/08/19 06:25:31  5-MIN KAQV 081225Z AUTO 01004KT 10SM SCT005 OVC036 18/17 A2979 500 93 1000 010/04 RMK AO2 T01780167
03949KAQV AQV20190408063013004/08/19 06:30:31  5-MIN KAQV 081230Z AUTO 01004KT 10SM BKN005 OVC036 18/17 A2979 500 93 1000 010/04 RMK AO2 CIG 003V008 T01780167
03949KAQV AQV20190408063512904/08/19 06:35:31  5-MIN KAQV 081235Z AUTO 01004KT 9SM BKN005 OVC036 18/17 A2979 500 93 1000 010/04 RMK AO2 CIG 003V008 T01780167
03949KAQV AQV20190408064012904/08/19 06:40:31  5-MIN KAQV 081240Z AUTO 36004KT 9SM BKN005 OVC036 18/17 A2979 490 93 1000 360/04 RMK AO2 CIG 003V008 T01780167
03949KAQV AQV20190408064512904/08/19 06:45:31  5-MIN KAQV 081245Z AUTO 01005KT 9SM BKN005 OVC036 18/17 A2979 490 93 1000 010/05 RMK AO2 CIG 003V008 T01780167
03949KAQV AQV20190408065012904/08/19 06:50:31  5-MIN KAQV 081250Z AUTO 01003KT 9SM OVC005 18/17 A2980 490 93 1000 010/03 RMK AO2 CIG 003V008 SLP088 T01780167
03949KAQV AQV20190408065516204/08/19 06:55:31  5-MIN KAQV 081255Z AUTO 36004KT 10SM OVC005 18/17 A2980 490 93 1000 360/008 18/17 A2981 470 93 1000 VRB/05 RMK AO2 CIG 006V010 SLP094 T01830172
03949KAQV AQV20190408091513004/08/19 09:15:31  5-MIN KAQV 081515Z AUTO 34005KT 10SM BKN007 OVC011 18/17 A2980 490 93 1000 340/05 RMK AO2 CIG 005V009 T01830172
03949KAQV AQV20190408092012304/08/19 09:20:31  5-MIN KAQV 081520Z AUTO VRB05KT 10SM OVC009 18/17 A2980 480 93 1000 VRB/05 RMK AO2 CIG 005V012 T01830172
03949KAQV AQV20190408092512304/08/19 09:25:31  5-MIN KAQV 081525Z AUTO VRB04KT 10SM OVC009 19/17 A2980 480 90 1100 VRB/04 RMK AO2 CIG 005V013 T01890172
03949KAQV AQV20190408093012304/08/19 09:30:31  5-MIN KAQV 081530Z AUTO VRB05KT 10SM OVC009 19/17 A2981 480 90 1100 VRB/05 RMK AO2 CIG 005V013 T01890172
03949KAQV AQV20190408093513004/08/19 09:35:31  5-MIN KAQV 081535Z AUTO VRB06KT 10SM BKN007 OVC012 18/17 A2981 480 93 1000 VRB/06 RMK AO2 CIG 005V010 T01830172
03949KAQV AQV20190408094012304/08/19 09:40:31  5-MIN KAQV 081540Z AUTO 36006KT 10SM OVC007 18/17 A2981 480 90 1000 350/06 RMK AO2 CIG 005V010 T01830167
03949KAQV AQV20190408094512304/08/19 09:45:31  5-MIN KAQV 081545Z AUTO VRB05KT 10SM OVC008 18/17 A2981 470 90 1000 VRB/05 RMK AO2 CIG 006V013 T01830167
03949KAQV AQV20190408095013004/08/19 09:50:31  5-MIN KAQV 081550Z AUTO VRB05KT 10SM OVC008 18/17 A2981 470 90 1000 VRB/05 RMK AO2 CIG 006V013 SLP094 T01830167
03949KAQV AQV20190408095513004/08/19 09:55:31  5-MIN KAQV 081555Z AUTO VRB05KT 10SM OVC008 18/17 A2981 470 93 1000 VRB/05 RMK AO2 CIG 006V010 SLP094 T01830172
03949KAQV AQV20190408100012304/08/19 10:00:31  5-MIN KAQV 081600Z AUTO VRB05KT 10SM OVC008 18/17 A2982 470 90 1000 VRB/05 RMK AO2 CIG 006V013 T01830167
03949KAQV AQV20190408100512304/08/19 10:05:31  5-MIN KAQV 081605Z AUTO 35006KT 10SM OVC008 18/17 A2982 470 90 1000 340/06 RMK AO2 CIG 006V011 T01830167
03949KAQV AQV20190408101012304/08/19 10:10:31  5-MIN KAQV 081610Z AUTO 35005KT 10SM OVC008 18/17 A2982 470 93 1000 350/05 RMK AO2 CIG 006V012 T01830172
03949KAQV AQV20190408101513004/08/19 10:15:31  5-MIN KAQV 081615Z AUTO VRB05KT 10SM BKN008 OVC013 18/17 A2982 470 93 1000 VRB/05 RMK AO2 CIG 006V010 T01830172
03949KAQV AQV20190408102012304/08/19 10:20:31  5-MIN KAQV 081620Z AUTO VRB05KT 10SM OVC008 19/17 A2982 470 90 1100 VRB/05 RMK AO2 CIG 006V010 T01890172
03949KAQV AQV20190408102512304/08/19 10:25:31  5-MIN KAQV 081625Z AUTO 35007KT 10SM OVC008 19/17 A2982 470 90 1100 340/07 RMK AO2 CIG 006V010 T01890172
03949KAQV AQV20190408103011804/08/19 10:30:31  5-MIN KAQV 081630Z AUTO VRB05KT 10SM BKN008 OVC013 19/17 A2982 470 90 1100 VRB/05 RMK AO2 T01890172
03949KAQV AQV20190408103513304/08/19 10:35:31  5-MIN KAQV 081635Z AUTO 36008KT 8SM -RA BKN008 OVC013 18/17 A2982 470 90 1000 360/08 RMK AO2 RAB34 P0000 T01830167
03949KAQV AQV20190408104013504/08/19 10:40:31  5-MIN KAQV 081640Z AUTO 34006KT 4SM RA BR BKN008 OVC013 18/17 A2982 470 93 1000 340/06 RMK AO2 RAB34 P0001 T01830172
03949KAQV AQV20190408104513904/08/19 10:45:31  5-MIN KAQV 081645Z AUTO VRB04KT 2 1/2SM RA BR BKN008 OVC013 18/17 A2982 470 93 1000 VRB/04 RMK AO2 RAB34 P0003 T01830172
03949KAQV AQV20190408105012504/08/19 10:50:31  5-MIN KAQV 081650Z AUTO VRB03KT 2SM RA BR BKN008 OVC013 18/17 A2982 470 93 1000 VRB/03 RMK AO2 RAB34 P0005
03949KAQV AQV20190408105514604/08/19 10:55:31  5-MIN KAQV 081655Z AUTO VRB03KT 2 1/2SM RA BR BKN008 OVC015 18/17 A2982 470 93 1000 VRB/03 RMK AO2 RAB34 SLP097 P0006 T01830172
03949KAQV AQV20190408110013304/08/19 11:00:31  5-MIN KAQV 081700Z AUTO 35004KT 2 1/2SM RA BR BKN010 OVC015 18/17 A2982 470 93 1000 340/04 RMK AO2 P0002 T01830172
03949KAQV AQV20190408110513004/08/19 11:05:31  5-MIN KAQV 081705Z AUTO VRB04KT 2SM +RA BR BKN008 OVC015 18/17 A2982 470 93 1000 VRB/04 RMK AO2 P0004 T01830172
03949KAQV AQV20190408111012904/08/19 11:10:31  5-MIN KAQV 081710Z AUTO 35003KT 2SM RA BR SCT006 OVC012 18/17 A2982 470 93 1000 340/03 RMK AO2 P0005 T01830172
03949KAQV AQV20190408111513304/08/19 11:15:31  5-MIN KAQV 081715Z AUTO VRB05KT 2 1/2SM RA BR SCT006 OVC012 18/17 A2982 470 93 1000 VRB/05 RMK AO2 P0006 T01830172
03949KAQV AQV20190408112013304/08/19 11:20:31  5-MIN KAQV 081720Z AUTO VRB05KT 2 1/2SM RA BR SCT006 OVC011 18/17 A2982 470 93 1000 VRB/05 RMK AO2 P0008 T01830172
03949KAQV AQV20190408112512904/08/19 11:25:31  5-MIN KAQV 081725Z AUTO VRB04KT 2SM RA BR BKN006 OVC013 18/17 A2982 470 93 1000 VRB/04 RMK AO2 P0010 T01830172
03949KAQV AQV20190408113013604/08/19 11:30:31  5-MIN KAQV 081730Z AUTO 35006KT 2SM RA BR BKN006 BKN013 OVC017 18/17 A2982 470 93 1000 340/06 RMK AO2 P0011 T01830172
03949KAQV AQV20190408113514004/08/19 11:35:31  5-MIN KAQV 081735Z AUTO 34007KT 2 1/2SM RA BR BKN007 BKN016 OVC024 18/17 A2982 470 93 1000 330/07 RMK AO2 P0012 T01830172
03949KAQV AQV20190408114013704/08/19 11:40:31  5-MIN KAQV 081740Z AUTO VRB05KT 3SM -RA BR BKN007 BKN013 OVC027 18/17 A2982 470 93 1000 VRB/05 RMK AO2 P0012 T01830172
03949KAQV AQV20190408114513704/08/19 11:45:31  5-MIN KAQV 081745Z AUTO VRB05KT 3SM -RA BR FEW007 BKN017 OVC028 18/17 A2982 470 93 1000 VRB/05 RMK AO2 P0013 T01830172
03949KAQV AQV20190408115016704/08/19 11:50:31  5-MIN KAQV 081750Z AUTO 35007KT 3SM RA BR SCT007 BKN017 OVC050 18/17 A2982 470 93 1000 350/07 RMK AO2 SLP096 P0014 60021 T01830172 10189 20178 53001
03949KAQV AQV20190408115516704/08/19 11:55:31  5-MIN KAQV 081755Z AUTO VRB05KT 3SM RA BR SCT007 BKN017 OVC050 18/17 A2982 470 93 1000 VRB/05 RMK AO2 SLP097 P0015 60022 T01830172 10189 20178 53001
03949KAQV AQV20190408120013604/08/19 12:00:31  5-MIN KAQV 081800Z AUTO 01005KT 3SM RA BR SCT007 BKN017 OVC050 18/18 A2982 470 96 1000 360/05 RMK AO2 P0001 T01830178
03949KAQV AQV20190408120513604/08/19 12:05:31  5-MIN KAQV 081805Z AUTO VRB05KT 3SM RA BR BKN005 BKN017 OVC050 18/17 A2982 470 93 1000 VRB/05 RMK AO2 P0002 T01830172
03949KAQV AQV20190408121013704/08/19 12:10:31  5-MIN KAQV 081810Z AUTO 36006KT 3SM -RA BR BKN005 BKN015 OVC055 19/18 A2982 470 93 1100 360/06 RMK AO2 P0003 T01890178
03949KAQV AQV20190408121513704/08/19 12:15:31  5-MIN KAQV 081815Z AUTO 35005KT 4SM -RA BR SCT007 BKN049 OVC095 19/17 A2982 470 90 1100 350/05 RMK AO2 P0003 T01890172
03949KAQV AQV20190408122013704/08/19 12:20:31  5-MIN KAQV 081820Z AUTO VRB03KT 6SM -RA BR SCT007 BKN049 OVC100 19/18 A2982 470 93 1100 VRB/03 RMK AO2 P0003 T01890178
03949KAQV AQV20190408122513404/08/19 12:25:31  5-MIN KAQV 081825Z AUTO 01005KT 9SM -RA SCT007 BKN038 OVC100 19/18 A2982 470 93 1100 010/05 RMK AO2 P0003 T01890178
03949KAQV AQV20190408123013504/08/19 12:30:31  5-MIN KAQV 081830Z AUTO VRB06KT 10SM -RA SCT007 BKN036 OVC095 19/18 A2982 470 93 1100 VRB/06 RMK AO2 P0003 T01890178
03949KAQV AQV20190408123513704/08/19 12:35:31  5-MIN KAQV 081835Z AUTO 36004KT 10SM SCT009 BKN036 OVC095 19/18 A2982 470 93 1100 360/04 RMK AO2 RAE33 P0003 T01890178
03949KAQV AQV20190408124013704/08/19 12:40:31  5-MIN KAQV 081840Z AUTO 36005KT 10SM FEW006 BKN009 OVC095 19/18 A2982 470 90 1100 360/05 RMK AO2 RAE33 P0003 T01940178
03949KAQV AQV20190408124514904/08/19 12:45:31  5-MIN KAQV 081845Z AUTO 36006KT 10SM BKN008 BKN012 OVC100 19/18 A2982 470 93 1100 350/06 RMK AO2 RAE33 CIG 005V011 P0003 T01940183
03949KAQV AQV20190408125013204/08/19 12:50:31  5-MIN KAQV 081850Z AUTO VRB05KT 10SM BKN008 OVC036 20/18 A2982 470 90 1200 VRB/05 RMK AO2 RAE33 CIG 005V013 P0003
03949KAQV AQV20190408125514904/08/19 12:55:31  5-MIN KAQV 081855Z AUTO VRB04KT 10SM BKN008 OVC012 20/18 A2982 470 87 1200 VRB/04 RMK AO2 RAE33 CIG 006V011 SLP096 P0003 T02000178
03949KAQV AQV20190408130012304/08/19 13:00:31  5-MIN KAQV 081900Z AUTO VRB04KT 10SM OVC008 19/18 A2982 470 90 1100 VRB/04 RMK AO2 CIG 006V010 T01940178
03949KAQV AQV20190408130512004/08/19 13:05:31  5-MIN KAQV 081905Z AUTO 10SM BKN008 OVC013 19/18 A2982 470 90 1100 M /M RMK AO2 CIG 006V010 T01940178
03949KAQV AQV20190408131012304/08/19 13:10:31  5-MIN KAQV 081910Z AUTO 36006KT 10SM OVC010 19/17 A2982 470 87 1100 360/06 RMK AO2 CIG 006V014 T01940172
03949KAQV AQV20190408131513004/08/19 13:15:31  5-MIN KAQV 081915Z AUTO VRB06KT 10SM BKN010 OVC016 19/17 A2982 470 87 1100 VRB/06 RMK AO2 CIG 006V014 T01940172
03949KAQV AQV20190408132013004/08/19 13:20:31  5-MIN KAQV 081920Z AUTO 35005KT 10SM BKN010 OVC016 19/17 A2982 470 87 1100 350/05 RMK AO2 CIG 006V014 T01940172
03949KAQV AQV20190408132512504/08/19 13:25:31  5-MIN KAQV 081925Z AUTO 35005KT 10SM SCT010 BKN014 OVC022 19/17 A2982 470 87 1100 340/05 RMK AO2 T01940172
03949KAQV AQV20190408133012504/08/19 13:30:31  5-MIN KAQV 081930Z AUTO VRB04KT 10SM SCT010 BKN013 OVC020 19/17 A2982 470 87 1100 VRB/04 RMK AO2 T01940172
03949KAQV AQV20190408133512504/08/19 13:35:31  5-MIN KAQV 081935Z AUTO VRB04KT 10SM BKN011 BKN016 OVC021 19/18 A2981 470 90 1100 VRB/04 RMK AO2 T01940178
03949KAQV AQV20190408134011804/08/19 13:40:31  5-MIN KAQV 081940Z AUTO VRB04KT 10SM SCT011 OVC018 19/17 A2981 470 87 1100 VRB/04 RMK AO2 T01940172
03949KAQV AQV20190408134512504/08/19 13:45:31  5-MIN KAQV 081945Z AUTO VRB04KT 10SM SCT011 BKN018 OVC022 19/18 A2981 480 90 1100 VRB/04 RMK AO2 T01940178
03949KAQV AQV20190408135012504/08/19 13:50:31  5-MIN KAQV 081950Z AUTO 32005KT 10SM FEW011 OVC018 19/17 A2981 480 87 1100 320/05 RMK AO2 SLP093 T01940172
03949KAQV AQV20190408135513204/08/19 13:55:31  5-MIN KAQV 081955Z AUTO 32004KT 10SM FEW011 BKN016 OVC021 19/17 A2981 480 87 1100 320/04 RMK AO2 SLP093 T01940172
03949KAQV AQV20190408140012504/08/19 14:00:31  5-MIN KAQV 082000Z AUTO 00000KT 10SM FEW012 BKN018 OVC025 20/18 A2981 480 87 1200 000/00 RMK AO2 T02000178
03949KAQV AQV20190408140512504/08/19 14:05:31  5-MIN KAQV 082005Z AUTO VRB03KT 10SM SCT012 BKN020 OVC025 20/18 A2981 480 87 1200 VRB/03 RMK AO2 T02000178
03949KAQV AQV20190408141012504/08/19 14:10:31  5-MIN KAQV 082010Z AUTO VRB04KT 10SM SCT014 BKN020 OVC031 20/18 A2981 480 87 1200 VRB/04 RMK AO2 T02000178
03949KAQV AQV20190408141512504/08/19 14:15:31  5-MIN KAQV 082015Z AUTO VRB03KT 10SM SCT016 BKN027 OVC032 20/17 A2981 480 84 1200 VRB/03 RMK AO2 T02000172
03949KAQV AQV20190408142013404/08/19 14:20:31  5-MIN KAQV 082020Z AUTO VRB04KT 10SM -RA SCT016 OVC027 20/17 A2981 480 84 1200 VRB/04 RMK AO2 RAB18 P0000 T02000172
03949KAQV AQV20190408142514004/08/19 14:25:31  5-MIN KAQV 082025Z AUTO VRB05KT 8SM -RA FEW011 BKN019 OVC027 19/17 A2981 480 87 1100 VRB/05 RMK AO2 RAB18 P0001 T01940172
03949KAQV AQV20190408143014004/08/19 14:30:31  5-MIN KAQV 082030Z AUTO VRB04KT 7SM -RA SCT011 BKN017 OVC029 19/17 A2981 480 90 1100 VRB/04 RMK AO2 RAB18 P0001 T01890172
03949KAQV AQV20190408143514004/08/19 14:35:31  5-MIN KAQV 082035Z AUTO 00000KT 8SM -RA FEW010 SCT018 OVC032 19/18 A2981 480 93 1100 000/00 RMK AO2 RAB18 P0001 T01890178
03949KAQV AQV20190408144013104/08/19 14:40:31  5-MIN KAQV 082040Z AUTO 10SM -RA FEW011 SCT018 BKN033 19/18 A2981 480 90 1200 M /M RMK AO2 RAB18 P0001 T01940178
03949KAQV AQV20190408144514104/08/19 14:45:31  5-MIN KAQV 082045Z AUTO VRB04KT 10SM -RA FEW011 SCT018 BKN033 20/18 A2981 480 87 1200 VRB/04 RMK AO2 RAB18 P0001 T02000178
03949KAQV AQV20190408145015904/08/19 14:50:31  5-MIN KAQV 082050Z AUTO VRB04KT 10SM SCT010 SCT016 BKN033 20/18 A2981 480 87 1200 VRB/04 RMK AO2 RAB18E46 SLP093 P0001 60004 T02000178 50008
03949KAQV AQV20190408145515904/08/19 14:55:31  5-MIN KAQV 082055Z AUTO VRB06KT 10SM SCT010 BKN016 BKN033 20/18 A2981 480 87 1200 VRB/06 RMK AO2 RAB18E46 SLP093 P0001 60004 T02000178 50008
03949KAQV AQV20190408150012504/08/19 15:00:31  5-MIN KAQV 082100Z AUTO VRB04KT 10SM SCT010 BKN016 BKN033 20/18 A2981 480 87 1200 VRB/04 RMK AO2 T02000178
03949KAQV AQV20190408150512504/08/19 15:05:31  5-MIN KAQV 082105Z AUTO VRB03KT 10SM BKN010 BKN019 BKN060 20/18 A2981 470 87 1200 VRB/03 RMK AO2 T02000178
03949KAQV AQV20190408151013704/08/19 15:10:31  5-MIN KAQV 082110Z AUTO VRB04KT 10SM BKN010 BKN020 BKN060 20/18 A2981 470 87 1200 VRB/04 RMK AO2 CIG 007V014 T02000178
03949KAQV AQV20190408151512504/08/19 15:15:31  5-MIN KAQV 082115Z AUTO VRB04KT 10SM BKN010 BKN014 OVC080 20/18 A2981 480 87 1200 VRB/04 RMK AO2 T02000178
03949KAQV AQV20190408152014004/08/19 15:20:31  5-MIN KAQV 082120Z AUTO VRB03KT 9SM -RA BKN010 BKN022 OVC085 20/18 A2981 480 87 1200 VRB/03 RMK AO2 RAB16 P0001 T02000178
03949KAQV AQV20190408152514104/08/19 15:25:31  5-MIN KAQV 082125Z AUTO VRB05KT 10SM -RA SCT010 BKN022 OVC100 19/18 A2981 480 90 1100 VRB/05 RMK AO2 RAB16 P0001 T01940178
03949KAQV AQV20190408153014104/08/19 15:30:31  5-MIN KAQV 082130Z AUTO VRB04KT 10SM -RA SCT010 BKN060 OVC085 19/18 A2981 480 90 1100 VRB/04 RMK AO2 RAB16 P0001 T01940178
03949KAQV AQV20190408153514004/08/19 15:35:31  5-MIN KAQV 082135Z AUTO VRB03KT 8SM -RA SCT012 BKN070 OVC090 19/18 A2981 480 90 1100 VRB/03 RMK AO2 RAB16 P0001 T01940178
03949KAQV AQV20190408154014004/08/19 15:40:31  5-MIN KAQV 082140Z AUTO VRB03KT 7SM -RA FEW010 BKN070 OVC090 20/18 A2981 480 90 1200 VRB/03 RMK AO2 RAB16 P0001 T02000183
03949KAQV AQV20190408154514104/08/19 15:45:31  5-MIN KAQV 082145Z AUTO VRB04KT 10SM -RA FEW017 SCT055 BKN090 20/18 A2981 480 90 1200 VRB/04 RMK AO2 RAB16 P0001 T02000183
03949KAQV AQV20190408155014704/08/19 15:50:31  5-MIN KAQV 082150Z AUTO 00000KT 10SM FEW033 SCT050 BKN065 20/18 A2981 480 87 1200 000/00 RMK AO2 RAB16E46 SLP093 P0001 T02000178
03949KAQV AQV20190408155514704/08/19 15:55:31  5-MIN KAQV 082155Z AUTO 00000KT 10SM FEW037 BKN050 BKN065 20/18 A2981 480 87 1200 000/00 RMK AO2 RAB16E46 SLP093 P0001 T02000178
03949KAQV AQV20190408160012504/08/19 16:00:31  5-MIN KAQV 082200Z AUTO 00000KT 10SM FEW030 SCT046 BKN065 19/18 A2981 480 90 1100 000/00 RMK AO2 T01940178
03949KAQV AQV20190408160512504/08/19 16:05:31  5-MIN KAQV 082205Z AUTO 00000KT 10SM FEW026 SCT046 BKN090 20/18 A2981 480 90 1200 000/00 RMK AO2 T02000183
03949KAQV AQV20190408161012504/08/19 16:10:31  5-MIN KAQV 082210Z AUTO VRB03KT 10SM FEW019 BKN085 OVC110 20/18 A2981 480 87 1200 VRB/03 RMK AO2 T02000178
03949KAQV AQV20190408161512504/08/19 16:15:31  5-MIN KAQV 082215Z AUTO VRB03KT 10SM FEW016 SCT044 BKN070 21/18 A2981 480 84 1300 VRB/03 RMK AO2 T02060178
03949KAQV AQV20190408162012504/08/19 16:20:31  5-MIN KAQV 082220Z AUTO VRB03KT 10SM FEW016 SCT070 BKN090 21/18 A2981 480 81 1300 VRB/03 RMK AO2 T02110178
03949KAQV AQV20190408162512504/08/19 16:25:31  5-MIN KAQV 082225Z AUTO 02005KT 10SM FEW029 SCT070 BKN120 21/18 A2981 480 81 1300 020/05 RMK AO2 T02110178
03949KAQV AQV20190408163012504/08/19 16:30:31  5-MIN KAQV 082230Z AUTO 36003KT 10SM FEW033 SCT048 BKN100 21/18 A2981 480 81 1300 360/03 RMK AO2 T02110178
03949KAQV AQV20190408163512504/08/19 16:35:31  5-MIN KAQV 082235Z AUTO 36003KT 10SM SCT043 BKN100 OVC120 21/18 A2981 480 81 1300 350/03 RMK AO2 T02110178
03949KAQV AQV20190408164014104/08/19 16:40:31  5-MIN KAQV 082240Z AUTO 01004KT 10SM -RA FEW047 SCT070 BKN100 21/18 A2981 480 84 1300 010/04 RMK AO2 RAB36 P0000 T02060178
03949KAQV AQV20190408164515104/08/19 16:45:31  5-MIN KAQV 082245Z AUTO 34003KT 5SM -TSRA BR FEW017 BKN095 OVC120 21/18 A2982 470 87 1300 330/03 RMK AO2 RAB36 TSB42 P0001 T02060183
03949KAQV AQV20190408165014804/08/19 16:50:31  5-MIN KAQV 082250Z AUTO VRB03KT 2SM TSRA BR FEW013 BKN041 OVC120 20/18 A2982 470 90 1200 VRB/03 RMK AO2 VIS 1V5 RAB36 TSB42 P0004
03949KAQV AQV20190408165517004/08/19 16:55:31  5-MIN KAQV 082255Z AUTO 36007KT 2 1/2SM -TSRA BR FEW013 BKN043 OVC120 19/17 A2982 470 87 1100 350/07 RMK AO2 VIS 1V5 RAB36 TSB42 SLP095 P0004 T01940172
03949KAQV AQV20190408170013604/08/19 17:00:31  5-MIN KAQV 082300Z AUTO 00000KT 7SM -TSRA FEW013 SCT042 BKN080 19/17 A2982 470 87 1100 000/00 RMK AO2 P0000 T01890167
03949KAQV AQV20190408170514004/08/19 17:05:31  5-MIN KAQV 082305Z AUTO 00000KT 10SM TS FEW013 BKN060 BKN090 19/17 A2982 470 87 1100 000/00 RMK AO2 RAE02 P0000 T01940172
03949KAQV AQV20190408171014304/08/19 17:10:31  5-MIN KAQV 082310Z AUTO 00000KT 10SM FEW015 SCT050 BKN085 19/17 A2982 470 84 1100 000/00 RMK AO2 RAE02 TSE06 P0000 T01940167
03949KAQV AQV20190408171513604/08/19 17:15:31  5-MIN KAQV 082315Z AUTO 00000KT 10SM FEW013 SCT060 19/17 A2982 470 87 1100 000/00 RMK AO2 RAE02 TSE06 P0000 T01940172
03949KAQV AQV20190408172014904/08/19 17:20:31  5-MIN KAQV 082320Z AUTO 00000KT 10SM TS FEW041 SCT060 BKN095 20/17 A2982 470 84 1200 000/00 RMK AO2 RAE02 TSE06B19 P0000 T02000172
03949KAQV AQV20190408172515404/08/19 17:25:31  5-MIN KAQV 082325Z AUTO 01003KT 8SM -TSRA FEW037 SCT075 BKN095 20/17 A2982 470 84 1200 010/03 RMK AO2 RAE02B21 TSE06B19 P0000 T02000172
03949KAQV AQV20190408173015604/08/19 17:30:31  5-MIN KAQV 082330Z AUTO 36005KT 5SM TSRA BR FEW015 SCT038 BKN090 19/17 A2983 460 87 1100 360/05 RMK AO2 RAE02B21 TSE06B19 P0002 T01940172
03949KAQV AQV20190408173515804/08/19 17:35:31  5-MIN KAQV 082335Z AUTO VRB06KT 3SM +RA BR SCT013 SCT039 BKN080 19/18 A2984 450 90 1100 VRB/06 RMK AO2 RAE02B21 TSE06B19E34 P0004 T01940178
03949KAQV AQV20190408174015704/08/19 17:40:31  5-MIN KAQV 082340Z AUTO 36005KT 3SM RA BR SCT011 BKN047 OVC100 19/18 A2983 460 93 1100 360/05 RMK AO2 RAE02B21 TSE06B19E34 P0005 T01890178
03949KAQV AQV20190408174515804/08/19 17:45:31  5-MIN KAQV 082345Z AUTO VRB03KT 4SM -RA BR FEW011 SCT040 OVC080 19/18 A2983 460 93 1100 VRB/03 RMK AO2 RAE02B21 TSE06B19E34 P0006 T01890178
03949KAQV AQV20190408175018904/08/19 17:50:31  5-MIN KAQV 082350Z AUTO 00000KT 5SM -RA BR FEW011 BKN075 OVC090 19/18 A2984 450 93 1100 000/00 RMK AO2 RAE02B21 TSE06B19E34 SLP101 P0006 60015 T01890178 10211 20183 56004
03949KAQV AQV20190408175518604/08/19 17:55:31  5-MIN KAQV 082355Z AUTO VRB03KT 7SM -RA FEW011 SCT033 OVC095 19/18 A2984 450 93 1100 VRB/03 RMK AO2 RAE02B21 TSE06B19E34 SLP101 P0006 60015 T01890178 10211 20183 56004
03949KAQV AQV20190408180013504/08/19 18:00:31  5-MIN KAQV 090000Z AUTO 03003KT 10SM -RA FEW013 SCT075 OVC100 19/17 A2983 460 90 1100 020/03 RMK AO2 P0000 T01890172
03949KAQV AQV20190408180513504/08/19 18:05:31  5-MIN KAQV 090005Z AUTO 00000KT 10SM -RA SCT080 BKN100 OVC120 19/17 A2983 460 90 1100 000/00 RMK AO2 P0000 T01890172
03949KAQV AQV20190408181014604/08/19 18:10:31  5-MIN KAQV 090010Z AUTO 00000KT 10SM TS FEW080 BKN100 OVC120 19/17 A2983 460 90 1100 000/00 RMK AO2 RAE09 TSB06 P0000 T01890172
03949KAQV AQV20190408181513904/08/19 18:15:31  5-MIN KAQV 090015Z AUTO 00000KT 10SM TS BKN100 BKN120 19/17 A2984 460 90 1100 000/00 RMK AO2 RAE09 TSB06 P0000 T01890172
03949KAQV AQV20190408182013904/08/19 18:20:31  5-MIN KAQV 090020Z AUTO 00000KT 10SM TS SCT100 SCT120 18/17 A2983 460 93 1000 000/00 RMK AO2 RAE09 TSB06 P0000 T01830172
03949KAQV AQV20190408182513904/08/19 18:25:31  5-MIN KAQV 090025Z AUTO 00000KT 10SM SCT100 SCT120 18/17 A2983 460 93 1000 000/00 RMK AO2 RAE09 TSB06E25 P0000 T01830172
03949KAQV AQV20190408183013204/08/19 18:30:31  5-MIN KAQV 090030Z AUTO 00000KT 10SM FEW110 18/17 A2984 450 93 1000 000/00 RMK AO2 RAE09 TSB06E25 P0000 T01830172
03949KAQV AQV20190408183513204/08/19 18:35:31  5-MIN KAQV 090035Z AUTO 00000KT 10SM FEW100 18/17 A2984 450 93 1000 000/00 RMK AO2 RAE09 TSB06E25 P0000 T01830172
03949KAQV AQV20190408184012704/08/19 18:40:31  5-MIN KAQV 090040Z AUTO 00000KT 8SM CLR 18/17 A2984 450 96 900 000/00 RMK AO2 RAE09 TSB06E25 P0000 T01780172
03949KAQV AQV20190408184513304/08/19 18:45:31  5-MIN KAQV 090045Z AUTO 00000KT 6SM BR SCT055 18/17 A2984 450 96 900 000/00 RMK AO2 RAE09 TSB06E25 P0000 T01780172
03949KAQV AQV20190408185014004/08/19 18:50:31  5-MIN KAQV 090050Z AUTO 00000KT 6SM BR SCT055 18/17 A2984 450 96 900 000/00 RMK AO2 RAE09 TSB06E25 SLP103 P0000 T01780172
03949KAQV AQV20190408185514004/08/19 18:55:31  5-MIN KAQV 090055Z AUTO 00000KT 6SM BR SCT055 18/17 A2984 450 93 900 000/00 RMK AO2 RAE09 TSB06E25 SLP102 P0000 T01780167
03949KAQV AQV20190408190011204/08/19 19:00:31  5-MIN KAQV 090100Z AUTO 00000KT 6SM BR FEW055 18/17 A2984 450 93 900 000/00 RMK AO2 T01780167
03949KAQV AQV20190408190511204/08/19 19:05:31  5-MIN KAQV 090105Z AUTO 00000KT 5SM BR FEW055 18/17 A2984 450 93 900 000/00 RMK AO2 T01780167
03949KAQV AQV20190408191012604/08/19 19:10:31  5-MIN KAQV 090110Z AUTO 00000KT 6SM BR FEW042 SCT055 SCT070 18/17 A2984 450 93 900 000/00 RMK AO2 T01780167
03949KAQV AQV20190408191514204/08/19 19:15:31  5-MIN KAQV 090115Z AUTO 00000KT 6SM -RA BR FEW042 SCT055 BKN070 18/17 A2984 450 93 900 000/00 RMK AO2 RAB12 P0000 T01780167
03949KAQV AQV20190408192013904/08/19 19:20:31  5-MIN KAQV 090120Z AUTO 00000KT 7SM -RA SCT042 SCT055 BKN070 18/17 A2984 450 93 900 000/00 RMK AO2 RAB12 P0000 T01780167
03949KAQV AQV20190408192513904/08/19 19:25:31  5-MIN KAQV 090125Z AUTO 00000KT 8SM -RA SCT042 SCT055 BKN070 18/17 A2984 450 93 900 000/00 RMK AO2 RAB12 P0000 T01780167
03949KAQV AQV20190408193013804/08/19 19:30:31  5-MIN KAQV 090130Z AUTO 00000KT 9SM FEW042 SCT055 SCT070 17/17 A2984 450 96 900 000/00 RMK AO2 RAB12E27 P0000 T01720167
03949KAQV AQV20190408193513904/08/19 19:35:31  5-MIN KAQV 090135Z AUTO 00000KT 10SM FEW042 SCT055 SCT070 17/17 A2984 450 96 900 000/00 RMK AO2 RAB12E27 P0000 T01720167
03949KAQV AQV20190408194013104/08/19 19:40:31  5-MIN KAQV 090140Z AUTO 00000KT 9SM FEW042 FEW060 17/16 A2985 440 93 800 000/00 RMK AO2 RAB12E27 P0000 T01720161
03949KAQV AQV20190408194512404/08/19 19:45:31  5-MIN KAQV 090145Z AUTO 00000KT 9SM FEW042 17/16 A2985 440 93 800 000/00 RMK AO2 RAB12E27 P0000 T01720161
03949KAQV AQV20190408195012904/08/19 19:50:31  5-MIN KAQV 090150Z AUTO 00000KT 10SM CLR 17/16 A2985 440 93 800 000/00 RMK AO2 RAB12E27 SLP106 P0000 T01720161
03949KAQV AQV20190408195512904/08/19 19:55:31  5-MIN KAQV 090155Z AUTO 00000KT 10SM CLR 17/16 A2985 440 93 800 000/00 RMK AO2 RAB12E27 SLP106 P0000 T01720161
03949KAQV AQV20190408200010604/08/19 20:00:31  5-MIN KAQV 090200Z AUTO 00000KT 9SM CLR 17/16 A2985 440 96 800 000/00 RMK AO2 T01670161
03949KAQV AQV20190408200510604/08/19 20:05:31  5-MIN KAQV 090205Z AUTO 00000KT 9SM CLR 17/16 A2985 440 93 800 000/00 RMK AO2 T01720161
03949KAQV AQV20190408201010704/08/19 20:10:31  5-MIN KAQV 090210Z AUTO 00000KT 10SM CLR 17/16 A2986 440 96 800 000/00 RMK AO2 T01670161
03949KAQV AQV20190408201510604/08/19 20:15:31  5-MIN KAQV 090215Z AUTO 00000KT 9SM CLR 17/16 A2986 430 93 800 000/00 RMK AO2 T01670156
03949KAQV AQV20190408202010604/08/19 20:20:31  5-MIN KAQV 090220Z AUTO 00000KT 8SM CLR 17/16 A2986 430 93 800 000/00 RMK AO2 T01670156
03949KAQV AQV20190408202510604/08/19 20:25:31  5-MIN KAQV 090225Z AUTO 28003KT 8SM CLR 17/16 A2986 430 93 800 270/03 RMK AO2 T01670156
03949KAQV AQV20190408203010604/08/19 20:30:31  5-MIN KAQV 090230Z AUTO 27003KT 9SM CLR 17/16 A2986 430 93 800 270/03 RMK AO2 T01670156
03949KAQV AQV20190408203510704/08/19 20:35:31  5-MIN KAQV 090235Z AUTO 00000KT 10SM CLR 17/16 A2986 430 93 800 000/00 RMK AO2 T01670156
03949KAQV AQV20190408204010704/08/19 20:40:31  5-MIN KAQV 090240Z AUTO 00000KT 10SM CLR 17/16 A2986 430 93 800 000/00 RMK AO2 T01670156
03949KAQV AQV20190408204510704/08/19 20:45:31  5-MIN KAQV 090245Z AUTO 00000KT 10SM CLR 17/16 A2986 430 93 800 000/00 RMK AO2 T01670156
03949KAQV AQV20190408205012604/08/19 20:50:31  5-MIN KAQV 090250Z AUTO 00000KT 10SM CLR 17/16 A2986 430 93 800 000/00 RMK AO2 SLP111 60000 T01670156 53008
03949KAQV AQV20190408205512604/08/19 20:55:31  5-MIN KAQV 090255Z AUTO 27003KT 10SM CLR 17/16 A2986 430 93 800 270/03 RMK AO2 SLP111 60000 T01670156 53008
03949KAQV AQV20190408210010704/08/19 21:00:31  5-MIN KAQV 090300Z AUTO 00000KT 10SM CLR 17/16 A2986 430 93 800 000/00 RMK AO2 T01670156
03949KAQV AQV20190408210510704/08/19 21:05:31  5-MIN KAQV 090305Z AUTO 00000KT 10SM CLR 16/16 A2987 430 96 700 000/00 RMK AO2 T01610156
03949KAQV AQV20190408211010704/08/19 21:10:31  5-MIN KAQV 090310Z AUTO 00000KT 10SM CLR 16/16 A2987 430 96 700 000/00 RMK AO2 T01610156
03949KAQV AQV20190408211510704/08/19 21:15:31  5-MIN KAQV 090315Z AUTO 00000KT 10SM CLR 16/16 A2987 430 96 700 000/00 RMK AO2 T01610156
03949KAQV AQV20190408212010704/08/19 21:20:31  5-MIN KAQV 090320Z AUTO 00000KT 10SM CLR 16/16 A2986 430 96 700 000/00 RMK AO2 T01610156
03949KAQV AQV20190408212510604/08/19 21:25:31  5-MIN KAQV 090325Z AUTO 00000KT 8SM CLR 16/15 A2986 430 93 700 000/00 RMK AO2 T01610150
03949KAQV AQV20190408213010604/08/19 21:30:31  5-MIN KAQV 090330Z AUTO 00000KT 7SM CLR 16/15 A2986 430 93 700 000/00 RMK AO2 T01610150
03949KAQV AQV20190408213510604/08/19 21:35:31  5-MIN KAQV 090335Z AUTO 28003KT 8SM CLR 16/15 A2986 430 93 700 270/03 RMK AO2 T01610150
03949KAQV AQV20190408214010604/08/19 21:40:31  5-MIN KAQV 090340Z AUTO 00000KT 9SM CLR 16/15 A2986 440 93 700 000/00 RMK AO2 T01610150
03949KAQV AQV20190408214510604/08/19 21:45:31  5-MIN KAQV 090345Z AUTO 00000KT 9SM CLR 16/15 A2985 440 93 700 000/00 RMK AO2 T01610150
03949KAQV AQV20190408215011404/08/19 21:50:31  5-MIN KAQV 090350Z AUTO 00000KT 10SM CLR 16/15 A2985 440 96 600 000/00 RMK AO2 SLP107 T01560150
03949KAQV AQV20190408215511304/08/19 21:55:31  5-MIN KAQV 090355Z AUTO 00000KT 9SM CLR 16/15 A2985 440 96 700 000/00 RMK AO2 SLP106 T01560150
03949KAQV AQV20190408220010604/08/19 22:00:31  5-MIN KAQV 090400Z AUTO 00000KT 7SM CLR 16/15 A2985 440 96 700 000/00 RMK AO2 T01560150
03949KAQV AQV20190408220510904/08/19 22:05:31  5-MIN KAQV 090405Z AUTO 00000KT 6SM BR CLR 16/15 A2985 440 96 700 000/00 RMK AO2 T01560150
03949KAQV AQV20190408221010904/08/19 22:10:31  5-MIN KAQV 090410Z AUTO 00000KT 6SM BR CLR 16/15 A2985 440 96 700 000/00 RMK AO2 T01560150
03949KAQV AQV20190408221510904/08/19 22:15:31  5-MIN KAQV 090415Z AUTO 00000KT 6SM BR CLR 16/15 A2985 440 96 700 000/00 RMK AO2 T01560150
03949KAQV AQV20190408222013104/08/19 22:20:31  5-MIN KAQV 090420Z AUTO 00000KT 5SM BR CLR 16/TO 00000KT 7SM CLR 13/12 A2987 420 93 400 000/00 RMK AO2 T01330122
03949KAQV AQV20190409062014804/09/19 06:20:31  5-MIN KAQV 091220Z AUTO 00000KT 7SM CLR 13/12 A2988 420 93 400 000/00 RMK AO2 T0133012204/09/19 06:2 500 000/00 RMK AO2 T01440133
03949KAQV AQV20190409064010704/09/19 06:40:31  5-MIN KAQV 091240Z AUTO 00000KT 10SM CLR 14/13 A2988 410 93 600 000/00 RMK AO2 T01560144
03949KAQV AQV20190409065011404/09/19 06:50:31  5-MIN KAQV 091250Z AUTO 00000KT 10SM CLR 14/13 A2989 410 93 500 000/00 RMK AO2 SLP120 T01440133
03949KAQV AQV20190409065511404/09/19 06:55:31  5-MIN KAQV 091255Z AUTO 00000KT 10SM CLR 15/14 A2989 410 93 500 000/00 RMK AO2 SLP120 T01500139
03949KAQV AQV20190409065516604/09/19 06:55:31  5-MIN KAQV 091255Z AUTO 00000KT 10SM CLR 15/14 A2989 410 93 500 000/00 RMK AO2 SLP100000KT 10SM CLR 14/13 A2988 410 93 400 000/00 RMK AO2 T01390128
03949KAQV AQV20190409071010704/09/19 07:10:31  5-MIN KAQV 091310Z AUTO 00000KT 10SM CLR 16/14 A2989 400 86 700 000/00 RMK AO2 T01610139
03949KAQV AQV20190409071505904/09/19 07:15:31  5-MIN KAQV 091315Z AUTO 00000KT 01440133
03949KAQV AQV20190409071510704/09/19 07:15:31  5-MIN KAQV 091315Z AUTO 00000KT 10SM CLR 17/14 A2989 400 83 700 000/00 RMK AO2 T01670139
03949KAQV AQV20190409071514804/09/19 07:15:31  5-MIN KAQV 091315Z AUTO 00000KT 10SM CLR 17/14 A2989 400 83 700 000/00 RMK AO CLR 18/13 A2989 400 75 900 000/00 RMK AO2 T01780133
03949KAQV AQV20190409072010704/09/19 07:20:31  5-MIN KAQV 091320Z AUTO 00000KT 10SM CLR 17/14 A2989 400 83 700 000/00 RMK AO2 T01670139
03949KAQV AQV20190409072510704/09/19 07:25:31  5-MIN KAQV 091325Z AUTO 00000KT 10SM CLR 17/14 A2989 400 80 800 000/00 RMK AO2 T01720139
03949KAQV AQV20190409073010704/09/19 07:30:31  5-MIN KAQV 091330Z AUTO 00000KT 10SM CLR 17/14 A2989 400 80 800 000/00 RMK AO2 T01720139
03949KAQV AQV20190409073017104/09/19 07:30:31  5-MIN KAQV 091330Z AUTO 00000KT 10SM CLR 17/14 A2989 400 80 800 000/00 RMK AO2 T0172013904/09/19 07: CLR 16/14 A2989 400 86 700 000/00 RMK AO2 T01610139
03949KAQV AQV20190409073505504/09/19 07:35:31  5-MIN KAQV 091335Z AUTO VRB03KT 1139
03949KAQV AQV20190409073510704/09/19 07:35:31  5-MIN KAQV 091335Z AUTO VRB03KT 10SM CLR 17/14 A2989 400 80 800 VRB/03 RMK AO2 T01720139
03949KAQV AQV20190409074010704/09/19 07:40:31  5-MIN KAQV 091340Z AUTO 00000KT 10SM CLR 18/13 A2989 400 75 900 000/00 RMK AO2 T01780133
03949KAQV AQV20190409074510704/09/19 07:45:31  5-MIN KAQV 091345Z AUTO 00000KT 10SM CLR 18/14 A2989 400 78 900 000/00 RMK AO2 T01830144
03949KAQV AQV20190409075011404/09/19 07:50:31  5-MIN KAQV 091350Z AUTO VRB03KT 10SM CLR 18/14 A2990 400 75 900 VRB/03 RMK AO2 SLP122 T01830139
03949KAQV AQV20190409075017504/09/19 07:50:31  5-MIN KAQV 091350Z AUTO VRB03KT 10SM CLR 18/14 A2990 9/19 07:30:31  5-MIN KAQV 091330Z AUTO 00000KT 10SM CLR 17/14 A2989 400 80 800 000/00 RMK AO2 T01720139
03949KAQV AQV20190409075511404/09/19 07:55:31  5-MIN KAQV 091355Z AUTO 00000KT 10SM CLR 18/14 A2990 400 75 900 000/00 RMK AO2 SLP122 T01830139
03949KAQV AQV20190409080010704/09/19 08:00:31  5-MIN KAQV 091400Z AUTO 00000KT 10SM CLR 18/14 A2990 400 75 900 000/00 RMK AO2 T01830139
03949KAQV AQV20190409080510804/09/19 08:05:31  5-MIN KAQV 091405Z AUTO VRB04KT 10SM CLR 19/14 A2990 400 72 1000 VRB/04 RMK AO2 T01890139
03949KAQV AQV20190409080515704/09/19 08:05:31  5-MIN KAQV 091405Z AUTO VRB04KT 10SM CLR 19/14 A2990 400 72 1000 VRB/04 RMK AO2 T0189013904/09/19 0989 400 78 900 000/00 RMK AO2 T01830144
03949KAQV AQV20190409081010804/09/19 08:10:31  5-MIN KAQV 091410Z AUTO 36004KT 10SM CLR 19/14 A2990 400 70 1100 350/04 RMK AO2 T01940139
03949KAQV AQV20190409081510804/09/19 08:15:31  5-MIN KAQV 091415Z AUTO 36004KT 10SM CLR 19/14 A2990 390 70 1000 350/04 RMK AO2 T01940139
03949KAQV AQV20190409082010804/09/19 08:20:31  5-MIN KAQV 091420Z AUTO 35005KT 10SM CLR 19/14 A2990 390 72 1000 350/05 RMK AO2 T01940144
03949KAQV AQV20190409082510804/09/19 08:25:31  5-MIN KAQV 091425Z AUTO 01005KT 10SM CLR 19/14 A2990 390 70 1000 360/05 RMK AO2 T01940139
03949KAQV AQV20190409083010804/09/19 08:30:31  5-MIN KAQV 091430Z AUTO VRB04KT 10SM CLR 20/14 A2990 390 67 1100 VRB/04 RMK AO2 T02000139
03949KAQV AQV20190409083510804/09/19 08:35:31  5-MIN KAQV 091435Z AUTO 35004KT 10SM CLR 20/14 A2990 400 67 1100 340/04 RMK AO2 T02000139
03949KAQV AQV20190409084010804/09/19 08:40:31  5-MIN KAQV 091440Z AUTO 36004KT 10SM CLR 21/14 A2990 400 67 1200 360/04 RMK AO2 T02060144
03949KAQV AQV20190409084510804/09/19 08:45:31  5-MIN KAQV 091445Z AUTO VRB03KT 10SM CLR 21/14 A2990 400 67 1200 VRB/03 RMK AO2 T02060144
03949KAQV AQV20190409085012104/09/19 08:50:31  5-MIN KAQV 091450Z AUTO VRB03KT 10SM CLR 21/14 A2989 400 65 1200 VRB/03 RMK AO2 SLP121 T02110144 53008
03949KAQV AQV20190409085512104/09/19 08:55:31  5-MIN KAQV 091455Z AUTO VRB03KT 10SM CLR 22/14 A2989 400 63 1300 VRB/03 RMK AO2 SLP121 T02170144 53008
03949KAQV AQV20190409090010804/09/19 09:00:31  5-MIN KAQV 091500Z AUTO VRB03KT 10SM CLR 22/14 A2989 400 63 1300 VRB/03 RMK AO2 T02170144
03949KAQV AQV20190409090510804/09/19 09:05:31  5-MIN KAQV 091505Z AUTO 00000KT 10SM CLR 22/14 A2989 400 63 1300 000/00 RMK AO2 T02170144
03949KAQV AQV20190409091010804/09/19 09:10:31  5-MIN KAQV 091510Z AUTO 02004KT 10SM CLR 22/14 A2990 400 63 1300 020/04 RMK AO2 T02170144
03949KAQV AQV20190409091510804/09/19 09:15:31  5-MIN KAQV 091515Z AUTO 04004KT 10SM CLR 22/14 A2990 400 61 1400 040/04 RMK AO2 T02220144
03949KAQV AQV20190409092010804/09/19 09:20:31  5-MIN KAQV 091520Z AUTO VRB03KT 10SM CLR 22/14 A2990 400 61 1400 VRB/03 RMK AO2 T02220144
03949KAQV AQV20190409092510804/09/19 09:25:31  5-MIN KAQV 091525Z AUTO VRB03KT 10SM CLR 23/15 A2990 400 61 1400 VRB/03 RMK AO2 T02280150
03949KAQV AQV20190409093010804/09/19 09:30:31  5-MIN KAQV 091530Z AUTO 01004KT 10SM CLR 23/15 A2990 400 61 1400 010/04 RMK AO2 T02280150
03949KAQV AQV20190409093510804/09/19 09:35:31  5-MIN KAQV 091535Z AUTO 03004KT 10SM CLR 23/15 A2990 400 59 1500 020/04 RMK AO2 T02330150
03949KAQV AQV20190409094010804/09/19 09:40:31  5-MIN KAQV 091540Z AUTO 36005KT 10SM CLR 23/15 A2989 400 59 1500 360/05 RMK AO2 T02330150
03949KAQV AQV20190409094510804/09/19 09:45:31  5-MIN KAQV 091545Z AUTO 01003KT 10SM CLR 24/15 A2989 400 57 1600 360/03 RMK AO2 T02390150
03949KAQV AQV20190409095011504/09/19 09:50:31  5-MIN KAQV 091550Z AUTO 01004KT 10SM CLR 24/15 A2989 400 57 1600 010/04 RMK AO2 SLP121 T02390150
03949KAQV AQV20190409095511504/09/19 09:55:31  5-MIN KAQV 091555Z AUTO 35003KT 10SM CLR 24/15 A2989 400 57 1600 350/03 RMK AO2 SLP121 T02390150
03949KAQV AQV20190409100010804/09/19 10:00:31  5-MIN KAQV 091600Z AUTO VRB04KT 10SM CLR 24/15 A2990 400 55 1600 VRB/04 RMK AO2 T02440150
03949KAQV AQV20190409100510804/09/19 10:05:31  5-MIN KAQV 091605Z AUTO 04004KT 10SM CLR 24/15 A2990 400 55 1600 040/04 RMK AO2 T02440150
03949KAQV AQV20190409101010804/09/19 10:10:31  5-MIN KAQV 091610Z AUTO 05003KT 10SM CLR 24/15 A2990 390 57 1600 040/03 RMK AO2 T02390150
03949KAQV AQV20190409101510804/09/19 10:15:31  5-MIN KAQV 091615Z AUTO 36004KT 10SM CLR 25/16 A2990 390 55 1700 350/04 RMK AO2 T02500156
03949KAQV AQV20190409102010804/09/19 10:20:31  5-MIN KAQV 091620Z AUTO VRB03KT 10SM CLR 24/16 A2990 390 57 1600 VRB/03 RMK AO2 T02440156
03949KAQV AQV20190409102510804/09/19 10:25:31  5-MIN KAQV 091625Z AUTO 00000KT 10SM CLR 24/15 A2990 390 55 1600 000/00 RMK AO2 T02440150
03949KAQV AQV20190409103010804/09/19 10:30:31  5-MIN KAQV 091630Z AUTO 00000KT 10SM CLR 24/16 A2990 390 57 1600 000/00 RMK AO2 T02440156
03949KAQV AQV20190409103510804/09/19 10:35:31  5-MIN KAQV 091635Z AUTO 35003KT 10SM CLR 25/16 A2990 390 55 1700 350/03 RMK AO2 T02500156
03949KAQV AQV20190409104010804/09/19 10:40:31  5-MIN KAQV 091640Z AUTO 00000KT 10SM CLR 25/16 A2990 390 55 1700 000/00 RMK AO2 T02500156
03949KAQV AQV20190409104510804/09/19 10:45:31  5-MIN KAQV 091645Z AUTO VRB03KT 10SM CLR 26/16 A2990 390 53 1700 VRB/03 RMK AO2 T02560156
03949KAQV AQV20190409105011504/09/19 10:50:31  5-MIN KAQV 091650Z AUTO VRB03KT 10SM CLR 26/16 A2990 390 53 1700 VRB/03 RMK AO2 SLP123 T02560156
03949KAQV AQV20190409105511504/09/19 10:55:31  5-MIN KAQV 091655Z AUTO 00000KT 10SM CLR 26/16 A2990 400 53 1700 000/00 RMK AO2 SLP123 T02560156
03949KAQV AQV20190409110010804/09/19 11:00:31  5-MIN KAQV 091700Z AUTO 02004KT 10SM CLR 26/16 A2990 400 51 1800 020/04 RMK AO2 T02610156
03949KAQV AQV20190409110510804/09/19 11:05:31  5-MIN KAQV 091705Z AUTO VRB03KT 10SM CLR 26/16 A2990 400 53 1700 VRB/03 RMK AO2 T02560156
03949KAQV AQV20190409111010804/09/19 11:10:31  5-MIN KAQV 091710Z AUTO VRB04KT 10SM CLR 26/16 A2990 400 51 1800 VRB/04 RMK AO2 T02610156
03949KAQV AQV20190409111510804/09/19 11:15:31  5-MIN KAQV 091715Z AUTO 32003KT 10SM CLR 26/15 A2989 400 50 1800 320/03 RMK AO2 T02610150
03949KAQV AQV20190409112010804/09/19 11:20:31  5-MIN KAQV 091720Z AUTO VRB04KT 10SM CLR 27/15 A2989 400 48 1900 VRB/04 RMK AO2 T02670150
03949KAQV AQV20190409112509804/09/19 11:25:31  5-MIN KAQV 091725Z AUTO 10SM CLR 27/14 A2989 400 46 1900 M /M RMK AO2 T02670144
03949KAQV AQV20190409113010804/09/19 11:30:31  5-MIN KAQV 091730Z AUTO 36003KT 10SM CLR 27/15 A2989 410 48 1900 350/03 RMK AO2 T02670150
03949KAQV AQV20190409113510804/09/19 11:35:31  5-MIN KAQV 091735Z AUTO VRB03KT 10SM CLR 27/15 A2989 410 48 1900 VRB/03 RMK AO2 T02670150
03949KAQV AQV20190409114010804/09/19 11:40:31  5-MIN KAQV 091740Z AUTO VRB04KT 10SM CLR 27/16 A2989 410 48 1900 VRB/04 RMK AO2 T02720156
03949KAQV AQV20190409114510804/09/19 11:45:31  5-MIN KAQV 091745Z AUTO VRB04KT 10SM CLR 26/15 A2988 410 50 1800 VRB/04 RMK AO2 T02610150
03949KAQV AQV20190409115013304/09/19 11:50:31  5-MIN KAQV 091750Z AUTO 00000KT 10SM CLR 27/16 A2988 410 48 2000 000/00 RMK AO2 SLP116 T02720156 10272 20133 50009
03949KAQV AQV20190409115513304/09/19 11:55:31  5-MIN KAQV 091755Z AUTO 33004KT 10SM CLR 27/16 A2988 410 50 1900 330/04 RMK AO2 SLP116 T02670156 10272 20133 50009
03949KAQV AQV20190409120010804/09/19 12:00:31  5-MIN KAQV 091800Z AUTO 28004KT 10SM CLR 28/14 A2988 410 43 2000 280/04 RMK AO2 T02780144
03949KAQV AQV20190409120510804/09/19 12:05:31  5-MIN KAQV 091805Z AUTO VRB05KT 10SM CLR 28/14 A2988 410 43 2000 VRB/05 RMK AO2 T02780144
03949KAQV AQV20190409121010804/09/19 12:10:31  5-MIN KAQV 091810Z AUTO VRB04KT 10SM CLR 28/14 A2988 410 42 2000 VRB/04 RMK AO2 T02780139
03949KAQV AQV20190409121510804/09/19 12:15:31  5-MIN KAQV 091815Z AUTO VRB03KT 10SM CLR 28/13 A2988 410 39 2100 VRB/03 RMK AO2 T02830133
03949KAQV AQV20190409122010804/09/19 12:20:31  5-MIN KAQV 091820Z AUTO 01005KT 10SM CLR 28/13 A2987 420 39 2100 360/05 RMK AO2 T02830133
03949KAQV AQV20190409122510804/09/19 12:25:31  5-MIN KAQV 091825Z AUTO VRB06KT 10SM CLR 28/13 A2987 420 37 2100 VRB/06 RMK AO2 T02830128
03949KAQV AQV20190409123012404/09/19 12:30:31  5-MIN KAQV 091830Z AUTO 01007KT 330V040 10SM CLR 28/13 A2987 420 39 2000 360/07 330V040 RMK AO2 T02780128
03949KAQV AQV20190409123511404/09/19 12:35:31  5-MIN KAQV 091835Z AUTO 01007G14KT 10SM CLR 28/12 A2987 420 36 2100 010/07G14 RMK AO2 T02830122
03949KAQV AQV20190409124011404/09/19 12:40:31  5-MIN KAQV 091840Z AUTO VRB06G14KT 10SM CLR 28/12 A2987 420 35 2100 VRB/06G14 RMK AO2 T02830117
03949KAQV AQV20190409124510804/09/19 12:45:31  5-MIN KAQV 091845Z AUTO 36006KT 10SM CLR 29/12 A2987 420 35 2200 360/06 RMK AO2 T02890122
03949KAQV AQV20190409125010504/09/19 12:50:31  5-MIN KAQV 091850Z AUTO 10SM CLR 28/12 A2987 420 36 2100 M /M RMK AO2 SLP112 T02830122
03949KAQV AQV20190409125511504/09/19 12:55:31  5-MIN KAQV 091855Z AUTO 02008KT 10SM CLR 29/13 A2987 430 36 2200 020/08 RMK AO2 SLP111 T02890128
03949KAQV AQV20190409130010804/09/19 13:00:31  5-MIN KAQV 091900Z AUTO 36004KT 10SM CLR 28/12 A2986 430 36 2100 360/04 RMK AO2 T02830122
03949KAQV AQV20190409130510804/09/19 13:05:31  5-MIN KAQV 091905Z AUTO 01004KT 10SM CLR 28/12 A2986 430 36 2100 010/04 RMK AO2 T02830122
03949KAQV AQV20190409131010804/09/19 13:10:31  5-MIN KAQV 091910Z AUTO 00000KT 10SM CLR 28/13 A2986 430 37 2100 000/00 RMK AO2 T02830128
03949KAQV AQV20190409131510804/09/19 13:15:31  5-MIN KAQV 091915Z AUTO VRB03KT 10SM CLR 29/13 A2986 440 36 2200 VRB/03 RMK AO2 T02890128
03949KAQV AQV20190409132009804/09/19 13:20:31  5-MIN KAQV 091920Z AUTO 10SM CLR 29/13 A2986 440 36 2200 M /M RMK AO2 T02890128
03949KAQV AQV20190409132510804/09/19 13:25:31  5-MIN KAQV 091925Z AUTO 00000KT 10SM CLR 29/13 A2985 440 35 2200 000/00 RMK AO2 T02940128
03949KAQV AQV20190409133010804/09/19 13:30:31  5-MIN KAQV 091930Z AUTO VRB04KT 10SM CLR 29/13 A2985 440 35 2200 VRB/04 RMK AO2 T02940128
03949KAQV AQV20190409133510804/09/19 13:35:31  5-MIN KAQV 091935Z AUTO 34004KT 10SM CLR 29/12 A2985 440 35 2200 340/04 RMK AO2 T02890122
03949KAQV AQV20190409134010804/09/19 13:40:31  5-MIN KAQV 091940Z AUTO 01011KT 10SM CLR 29/12 A2985 450 34 2200 010/11 RMK AO2 T02890117
03949KAQV AQV20190409134510804/09/19 13:45:31  5-MIN KAQV 091945Z AUTO VRB04KT 10SM CLR 29/12 A2985 440 33 2200 VRB/04 RMK AO2 T02940117
03949KAQV AQV20190409135011504/09/19 13:50:31  5-MIN KAQV 091950Z AUTO VRB05KT 10SM CLR 29/11 A2985 450 31 2200 VRB/05 RMK AO2 SLP104 T02940111
03949KAQV AQV20190409135511504/09/19 13:55:31  5-MIN KAQV 091955Z AUTO 33006KT 10SM CLR 29/12 A2985 450 34 2200 330/06 RMK AO2 SLP104 T02890117
03949KAQV AQV20190409140010804/09/19 14:00:31  5-MIN KAQV 092000Z AUTO VRB05KT 10SM CLR 29/12 A2985 450 33 2200 VRB/05 RMK AO2 T02940117
03949KAQV AQV20190409140510804/09/19 14:05:31  5-MIN KAQV 092005Z AUTO VRB04KT 10SM CLR 29/10 A2984 450 30 2200 VRB/04 RMK AO2 T02890100
03949KAQV AQV20190409141010804/09/19 14:10:31  5-MIN KAQV 092010Z AUTO 00000KT 10SM CLR 29/10 A2984 450 30 2200 000/00 RMK AO2 T02890100
03949KAQV AQV20190409141510804/09/19 14:15:31  5-MIN KAQV 092015Z AUTO VRB05KT 10SM CLR 29/11 A2984 450 31 2300 VRB/05 RMK AO2 T02940111
03949KAQV AQV20190409142010804/09/19 14:20:31  5-MIN KAQV 092020Z AUTO VRB06KT 10SM CLR 29/12 A2984 450 33 2300 VRB/06 RMK AO2 T02940117
03949KAQV AQV20190409142510804/09/19 14:25:31  5-MIN KAQV 092025Z AUTO VRB03KT 10SM CLR 29/12 A2984 450 33 2300 VRB/03 RMK AO2 T02940117
03949KAQV AQV20190409143010804/09/19 14:30:31  5-MIN KAQV 092030Z AUTO 36004KT 10SM CLR 29/11 A2983 460 31 2300 350/04 RMK AO2 T02940111
03949KAQV AQV20190409143510804/09/19 14:35:31  5-MIN KAQV 092035Z AUTO VRB03KT 10SM CLR 29/11 A2983 460 30 2300 VRB/03 RMK AO2 T02940106
03949KAQV AQV20190409144010804/09/19 14:40:31  5-MIN KAQV 092040Z AUTO VRB05KT 10SM CLR 30/11 A2983 460 30 2300 VRB/05 RMK AO2 T03000111
03949KAQV AQV20190409144510804/09/19 14:45:31  5-MIN KAQV 092045Z AUTO VRB04KT 10SM CLR 29/11 A2983 460 31 2300 VRB/04 RMK AO2 T02940111
03949KAQV AQV20190409145012104/09/19 14:50:31  5-MIN KAQV 092050Z AUTO VRB05KT 10SM CLR 29/11 A2983 460 31 2300 VRB/05 RMK AO2 SLP097 T02940111 58005
03949KAQV AQV20190409145512104/09/19 14:55:31  5-MIN KAQV 092055Z AUTO VRB05KT 10SM CLR 29/10 A2982 470 30 2200 VRB/05 RMK AO2 SLP096 T02890100 58005
03949KAQV AQV20190409150010804/09/19 15:00:31  5-MIN KAQV 092100Z AUTO VRB03KT 10SM CLR 29/11 A2982 470 30 2300 VRB/03 RMK AO2 T02940106
03949KAQV AQV20190409150512404/09/19 15:05:31  5-MIN KAQV 092105Z AUTO 02007KT 330V050 10SM CLR 29/11 A2982 470 30 2300 010/07 330V050 RMK AO2 T02940106
03949KAQV AQV20190409151010804/09/19 15:10:31  5-MIN KAQV 092110Z AUTO VRB05KT 10SM CLR 29/11 A2982 470 31 2200 VRB/05 RMK AO2 T02890106
03949KAQV AQV20190409151510804/09/19 15:15:31  5-MIN KAQV 092115Z AUTO VRB06KT 10SM CLR 30/11 A2982 470 29 2300 VRB/06 RMK AO2 T03000106
03949KAQV AQV20190409152010804/09/19 15:20:31  5-MIN KAQV 092120Z AUTO VRB04KT 10SM CLR 30/11 A2982 470 29 2300 VRB/04 RMK AO2 T03000106
03949KAQV AQV20190409152510804/09/19 15:25:31  5-MIN KAQV 092125Z AUTO 04004KT 10SM CLR 30/11 A2982 470 30 2300 030/04 RMK AO2 T03000111
03949KAQV AQV20190409153010804/09/19 15:30:31  5-MIN KAQV 092130Z AUTO 03006KT 10SM CLR 30/11 A2982 470 29 2300 020/06 RMK AO2 T03000106
03949KAQV AQV20190409153510804/09/19 15:35:31  5-MIN KAQV 092135Z AUTO 01005KT 10SM CLR 30/11 A2982 470 29 2300 360/05 RMK AO2 T03000106
03949KAQV AQV20190409154010804/09/19 15:40:31  5-MIN KAQV 092140Z AUTO VRB05KT 10SM CLR 29/10 A2981 480 29 2300 VRB/05 RMK AO2 T02940100
03949KAQV AQV20190409154510804/09/19 15:45:31  5-MIN KAQV 092145Z AUTO 01006KT 10SM CLR 30/11 A2981 480 29 2300 010/06 RMK AO2 T03000106
03949KAQV AQV20190409155011504/09/19 15:50:31  5-MIN KAQV 092150Z AUTO VRB03KT 10SM CLR 30/11 A2981 480 29 2300 VRB/03 RMK AO2 SLP092 T03000106
03949KAQV AQV20190409155511504/09/19 15:55:31  5-MIN KAQV 092155Z AUTO 36007KT 10SM CLR 30/10 A2981 480 28 2300 350/07 RMK AO2 SLP092 T03000100
03949KAQV AQV20190409160010804/09/19 16:00:31  5-MIN KAQV 092200Z AUTO 04006KT 10SM CLR 29/09 A2981 480 28 2300 040/06 RMK AO2 T02940094
03949KAQV AQV20190409160510804/09/19 16:05:31  5-MIN KAQV 092205Z AUTO 00000KT 10SM CLR 30/10 A2981 480 28 2300 000/00 RMK AO2 T03000100
03949KAQV AQV20190409161010804/09/19 16:10:31  5-MIN KAQV 092210Z AUTO VRB04KT 10SM CLR 30/09 A2981 480 27 2300 VRB/04 RMK AO2 T03000094
03949KAQV AQV20190409161518404/09/19 16:15:31  5-MIN KAQV 092215Z AUTO VRB05KT 10SM CLR 29/09 A2981 470 28 2300 VRB/05 RMK AO2 T0294009404/09/19 1 00000KT 10SM CLR 25/12 A2981 470 44 1800 000/00 RMK AO2 T02500122
03949KAQV AQV20190409181010804/09/19 18:10:31  5-MIN KAQV 100010Z AUTO 00000KT 10SM CLR 25/12 A2981 470 44 1800 000/00 RMK AO2 T02500122
03949KAQV AQV20190409181510804/09/19 18:15:31  5-MIN KAQV 100015Z AUTO 00000KT 10SM CLR 24/12 A2981 470 46 1700 000/00 RMK AO2 T02440122
03949KAQV AQV20190409182010804/09/19 18:20:31  5-MIN KAQV 100020Z AUTO 00000KT 10SM CLR 24/13 A2981 470 49 1700 000/00 RMK AO2 T02390128
03949KAQV AQV20190409182510804/09/19 18:25:31  5-MIN KAQV 100025Z AUTO 00000KT 10SM CLR 23/14 A2982 470 59 1500 000/00 RMK AO2 T02280144
03949KAQV AQV20190409182517004/09/19 18:25:31  5-MIN KAQV 100025Z AUTO 00000KT 10SM CLR 23/14 A2982 470 59 1500 000/00  100005Z AUTO 00000KT 10SM CLR 26/12 A2981 470 41 1800 000/00 RMK AO2 T02560117
03949KAQV AQV20190409183010804/09/19 18:30:31  5-MIN KAQV 100030Z AUTO 00000KT 10SM CLR 22/15 A2982 470 63 1500 000/00 RMK AO2 T02220150
03949KAQV AQV20190409183510804/09/19 18:35:31  5-MIN KAQV 100035Z AUTO 00000KT 10SM CLR 22/14 A2982 470 46 1700 000/00 RMK AO2 T02440122
03949KAQV AQV20190409183510804/09/19 18:35:31  5-MIN KAQV 100035Z AUTO 00000KT 10SM CLR 22/14 A2982 470 63 1400 000/00 RMK AO2 T02170144
03949KAQV AQV20190409184010804/09/19 18:40:31  5-MIN KAQV 100040Z AUTO 00000KT 10SM CLR 22/15 A2982 470 65 1400 000/00 RMK AO2 T02170150
03949KAQV AQV20190409184510804/09/19 18:45:31  5-MIN KAQV 100045Z AUTO 00000KT 10SM CLR 21/16 A2982 470 70 1300 000/00 RMK AO2 T02110156
03949KAQV AQV20190409184517204/09/19 18:45:31  5-MIN KAQV 100045Z AUTO 00000KT 10SM CLR 21/16 A2982 470:25:31  5-MIN KAQV 100025Z AUTO 00000KT 10SM CLR 23/14 A2982 470 59 1500 000/00 RMK AO2 T02280144
03949KAQV AQV20190409185011504/09/19 18:50:31  5-MIN KAQV 100050Z AUTO 00000KT 10SM CLR 21/15 A2982 470 70 1300 000/00 RMK AO2 SLP097 T02060150
03949KAQV AQV20190409185505504/09/19 18:55:31  5-MIN KAQV 100055Z RMK AO2 T02220150
03949KAQV AQV20190409185511504/09/19 18:55:31  5-MIN KAQV 100055Z AUTO 00000KT 10SM CLR 21/14 A2982 470 67 1300 000/00 RMK AO2 SLP097 T02060144
03949KAQV AQV20190409190010804/09/19 19:00:31  5-MIN KAQV 100100Z AUTO 00000KT 10SM CLR 20/14 A2982 470 70 1200 000/00 RMK AO2 T02000144
03949KAQV AQV20190409190015604/09/19 19:00:31  5-MIN KAQV 100100Z AUTO 00000KT 10SM CLR 20/14 A2982 470QV 100040Z AUTO 00000KT 10SM CLR 22/15 A2982 470 65 1400 000/00 RMK AO2 T02170150
03949KAQV AQV20190409190510804/09/19 19:05:31  5-MIN KAQV 100105Z AUTO 00000KT 10SM CLR 20/14 A2982 470 67 1200 000/00 RMK AO2 T02000139
03949KAQV AQV20190409191010804/09/19 19:10:31  5-MIN KAQV 100110Z AUTO 00000KT 10SM CLR 19/14 A2982 470 72 1100 000/00 RMK AO2 T01940144
03949KAQV AQV20190409191510804/09/19 19:15:31  5-MIN KAQV 100115Z AUTO 00000KT 10SM CLR 19/14 A2982 470 75 1100 000/00 RMK AO2 T01890144
03949KAQV AQV20190409192010804/09/19 19:20:31  5-MIN KAQV 100120Z AUTO 00000KT 10SM CLR 19/14 A2983 460 75 1100 000/00 RMK AO2 T01890144
03949KAQV AQV20190409192510804/09/19 19:25:31  5-MIN KAQV 100125Z AUTO 00000KT 10SM CLR 19/14 A2983 460 72 1100 000/00 RMK AO2 T01890139
03949KAQV AQV20190409193010804/09/19 19:30:31  5-MIN KAQV 100130Z AUTO 00000KT 10SM CLR 18/14 A2983 460 78 1000 000/00 RMK AO2 T01830144
03949KAQV AQV20190409193510804/09/19 19:35:31  5-MIN KAQV 100135Z AUTO 00000KT 10SM CLR 18/14 A2983 460 78 1000 000/00 RMK AO2 T01830144
03949KAQV AQV20190409194010804/09/19 19:40:31  5-MIN KAQV 100140Z AUTO 00000KT 10SM CLR 18/14 A2984 450 78 1000 000/00 RMK AO2 T01830144
03949KAQV AQV20190409194510704/09/19 19:45:31  5-MIN KAQV 100145Z AUTO 00000KT 10SM CLR 18/14 A2984 450 81 900 000/00 RMK AO2 T01780144
03949KAQV AQV20190409195011404/09/19 19:50:31  5-MIN KAQV 100150Z AUTO 00000KT 10SM CLR 18/14 A2984 450 81 900 000/00 RMK AO2 SLP102 T01780144
03949KAQV AQV20190409195511404/09/19 19:55:31  5-MIN KAQV 100155Z AUTO 00000KT 10SM CLR 18/14 A2984 450 81 900 000/00 RMK AO2 SLP103 T01780144
03949KAQV AQV20190409200010704/09/19 20:00:31  5-MIN KAQV 100200Z AUTO 00000KT 10SM CLR 17/15 A2984 450 87 900 000/00 RMK AO2 T01720150
03949KAQV AQV20190409200510704/09/19 20:05:31  5-MIN KAQV 100205Z AUTO 00000KT 10SM CLR 17/14 A2984 450 83 900 000/00 RMK AO2 T01720144
03949KAQV AQV20190409201010704/09/19 20:10:31  5-MIN KAQV 100210Z AUTO 00000KT 10SM CLR 17/15 A2984 450 87 900 000/00 RMK AO2 T01720150
03949KAQV AQV20190409201510704/09/19 20:15:31  5-MIN KAQV 100215Z AUTO 00000KT 10SM CLR 17/14 A2984 450 83 900 000/00 RMK AO2 T01720144
03949KAQV AQV20190409202010704/09/19 20:20:31  5-MIN KAQV 100220Z AUTO 00000KT 10SM CLR 17/14 A2984 450 86 800 000/00 RMK AO2 T01670144
03949KAQV AQV20190409202510704/09/19 20:25:31  5-MIN KAQV 100225Z AUTO 00000KT 10SM CLR 17/14 A2984 450 86 800 000/00 RMK AO2 T01670144
03949KAQV AQV20190409203010704/09/19 20:30:31  5-MIN KAQV 100230Z AUTO 00000KT 10SM CLR 16/14 A2984 450 90 700 000/00 RMK AO2 T01610144
03949KAQV AQV20190409203510704/09/19 20:35:31  5-MIN KAQV 100235Z AUTO 00000KT 10SM CLR 16/14 A2984 450 90 700 000/00 RMK AO2 T01610144
03949KAQV AQV20190409204010704/09/19 20:40:31  5-MIN KAQV 100240Z AUTO 00000KT 10SM CLR 16/14 A2984 450 86 700 000/00 RMK AO2 T01610139
03949KAQV AQV20190409204510704/09/19 20:45:31  5-MIN KAQV 100245Z AUTO 00000KT 10SM CLR 16/14 A2985 450 86 700 000/00 RMK AO2 T01610139
03949KAQV AQV20190409205012004/09/19 20:50:31  5-MIN KAQV 100250Z AUTO 00000KT 10SM CLR 16/14 A2985 440 86 700 000/00 RMK AO2 SLP105 T01610139 55003
03949KAQV AQV20190409205512004/09/19 20:55:31  5-MIN KAQV 100255Z AUTO 00000KT 10SM CLR 16/14 A2985 440 86 700 000/00 RMK AO2 SLP106 T01610139 55003
03949KAQV AQV20190409210010704/09/19 21:00:31  5-MIN KAQV 100300Z AUTO 00000KT 10SM CLR 16/14 A2985 440 90 600 000/00 RMK AO2 T01560139
03949KAQV AQV20190409210510704/09/19 21:05:31  5-MIN KAQV 100305Z AUTO 00000KT 10SM CLR 16/14 A2985 440 90 600 000/00 RMK AO2 T01560139
03949KAQV AQV20190409211010704/09/19 21:10:31  5-MIN KAQV 100310Z AUTO 00000KT 10SM CLR 16/14 A2986 440 90 600 000/00 RMK AO2 T01560139
03949KAQV AQV20190409211510704/09/19 21:15:31  5-MIN KAQV 100315Z AUTO 00000KT 10SM CLR 16/14 A2986 440 90 600 000/00 RMK AO2 T01560139
03949KAQV AQV20190409212010704/09/19 21:20:31  5-MIN KAQV 100320Z AUTO 00000KT 10SM CLR 16/14 A2986 440 90 600 000/00 RMK AO2 T01560139
03949KAQV AQV20190409212510704/09/19 21:25:31  5-MIN KAQV 100325Z AUTO 00000KT 10SM CLR 16/14 A2986 430 90 600 000/00 RMK AO2 T01560139
03949KAQV AQV20190409213010704/09/19 21:30:31  5-MIN KAQV 100330Z AUTO 00000KT 10SM CLR 16/13 A2986 440 86 600 000/00 RMK AO2 T01560133
03949KAQV AQV20190409213510704/09/19 21:35:31  5-MIN KAQV 100335Z AUTO 00000KT 10SM CLR 15/13 A2986 440 90 600 000/00 RMK AO2 T01500133
03949KAQV AQV20190409214010704/09/19 21:40:31  5-MIN KAQV 100340Z AUTO 00000KT 10SM CLR 15/13 A2986 430 90 600 000/00 RMK AO2 T01500133
03949KAQV AQV20190409214510704/09/19 21:45:31  5-MIN KAQV 100345Z AUTO 00000KT 10SM CLR 15/13 A2986 430 90 600 000/00 RMK AO2 T01500133
03949KAQV AQV20190409215011404/09/19 21:50:31  5-MIN KAQV 100350Z AUTO 00000KT 10SM CLR 15/13 A2986 440 90 600 000/00 RMK AO2 SLP108 T01500133
03949KAQV AQV20190409215511404/09/19 21:55:31  5-MIN KAQV 100355Z AUTO 00000KT 10SM CLR 15/13 A2986 440 90 600 000/00 RMK AO2 SLP108 T01500133
03949KAQV AQV20190409220010704/09/19 22:00:31  5-MIN KAQV 100400Z AUTO 00000KT 10SM CLR 15/13 A2985 440 90 600 000/00 RMK AO2 T01500133
03949KAQV AQV20190409220510704/09/19 22:05:31  5-MIN KAQV 100405Z AUTO 00000KT 10SM CLR 15/13 A2985 440 90 600 000/00 RMK AO2 T01500133
03949KAQV AQV20190409221010704/09/19 22:10:31  5-MIN KAQV 100410Z AUTO 00000KT 10SM CLR 15/13 A2985 440 90 600 000/00 RMK AO2 T01500133
03949KAQV AQV20190409221510704/09/19 22:15:31  5-MIN KAQV 100415Z AUTO 00000KT 10SM CLR 15/13 A2985 440 90 600 000/00 RMK AO2 T01500133
03949KAQV AQV20190409222010704/09/19 22:20:31  5-MIN KAQV 100420Z AUTO 00000KT 10SM CLR 14/13 A2985 440 93 500 000/00 RMK AO2 T01440133
03949KAQV AQV20190409222510704/09/19 22:25:31  5-MIN KAQV 100425Z AUTO 00000KT 10SM CLR 14/13 A2985 440 93 500 000/00 RMK AO2 T01440133
03949KAQV AQV20190409223010704/09/19 22:30:31  5-MIN KAQV 100430Z AUTO 00000KT 10SM CLR 14/13 A2985 440 93 500 000/00 RMK AO2 T01440133
03949KAQV AQV20190409223510704/09/19 22:35:31  5-MIN KAQV 100435Z AUTO 00000KT 10SM CLR 14/13 A2985 440 93 500 000/00 RMK AO2 T01440133
03949KAQV AQV20190409224010704/09/19 22:40:31  5-MIN KAQV 100440Z AUTO 00000KT 10SM CLR 14/13 A2985 440 93 500 000/00 RMK AO2 T01440133
03949KAQV AQV20190409224510704/09/19 22:45:31  5-MIN KAQV 100445Z AUTO 00000KT 10SM CLR 14/13 A2985 440 93 500 000/00 RMK AO2 T01440133
03949KAQV AQV20190409225011404/09/19 22:50:31  5-MIN KAQV 100450Z AUTO 00000KT 10SM CLR 14/13 A2985 440 93 500 000/00 RMK AO2 SLP107 T01440133
03949KAQV AQV20190409225511404/09/19 22:55:31  5-MIN KAQV 100455Z AUTO 00000KT 10SM CLR 14/13 A2985 440 90 500 000/00 RMK AO2 SLP106 T01440128
03949KAQV AQV20190409230010704/09/19 23:00:31  5-MIN KAQV 100500Z AUTO 00000KT 10SM CLR 14/13 A2985 440 90 500 000/00 RMK AO2 T01440128
03949KAQV AQV20190409230510704/09/19 23:05:31  5-MIN KAQV 100505Z AUTO 00000KT 10SM CLR 14/13 A2985 450 90 500 000/00 RMK AO2 T01440128
03949KAQV AQV20190409231010704/09/19 23:10:31  5-MIN KAQV 100510Z AUTO 00000KT 10SM CLR 14/13 A2984 450 93 500 000/00 RMK AO2 T01390128
03949KAQV AQV20190409231510704/09/19 23:15:31  5-MIN KAQV 100515Z AUTO 00000KT 10SM CLR 14/13 A2984 450 93 500 000/00 RMK AO2 T01390128
03949KAQV AQV20190409232010704/09/19 23:20:31  5-MIN KAQV 100520Z AUTO 00000KT 10SM CLR 14/13 A2984 450 93 500 000/00 RMK AO2 T01390128
03949KAQV AQV20190409232510704/09/19 23:25:31  5-MIN KAQV 100525Z AUTO 00000KT 10SM CLR 14/13 A2984 450 93 500 000/00 RMK AO2 T01390128
03949KAQV AQV20190409233010704/09/19 23:30:31  5-MIN KAQV 100530Z AUTO 00000KT 10SM CLR 14/13 A2984 450 93 500 000/00 RMK AO2 T01390128
03949KAQV AQV20190409233510704/09/19 23:35:31  5-MIN KAQV 100535Z AUTO 00000KT 10SM CLR 14/13 A2984 450 93 500 000/00 RMK AO2 T01390128
03949KAQV AQV20190410051510604/10/19 05:15:31  5-MIN KAQV 101115Z AUTO 00000KT 8SM CLR 13/12 A2981 480 93 400 000/00 RMK AO2 T01280117
03949KAQV AQV20190410052010604/10/19 05:20:31  5-MIN KAQV 101120Z AUTO 00000KT 8SM CLR 13/12 A2981 480 93 400 000/00 RMK AO2 T01280117
03949KAQV AQV20190410052510604/10/19 05:25:31  5-MIN KAQV 101125Z AUTO 00000KT 8SM CLR 13/12 A2981 470 93 400 000/00 RMK AO2 T01280117
03949KAQV AQV20190410053010604/10/19 05:30:31  5-MIN KAQV 101130Z AUTO 00000KT 7SM CLR 13/12 A2981 470 93 400 000/00 RMK AO2 T01280117
03949KAQV AQV20190410053510904/10/19 05:35:31  5-MIN KAQV 101135Z AUTO 00000KT 6SM BR CLR 13/12 A2981 470 93 400 000/00 RMK AO2 T01280117
03949KAQV AQV20190410054010904/10/19 05:40:31  5-MIN KAQV 101140Z AUTO 00000KT 6SM BR CLR 13/12 A2982 470 93 400 000/00 RMK AO2 T01280117
03949KAQV AQV20190410054510604/10/19 05:45:31  5-MIN KAQV 101145Z AUTO 00000KT 7SM CLR 13/12 A2982 470 93 400 000/00 RMK AO2 T01280117
03949KAQV AQV20190410055013404/10/19 05:50:31  5-MIN KAQV 101150Z AUTO 00000KT 6SM BR CLR 13/12 A2982 470 93 400 000/00 RMK AO2 SLP096 T01280117 10139 20128 58008
03949KAQV AQV20190410055513404/10/19 05:55:31  5-MIN KAQV 101155Z AUTO 00000KT 5SM BR CLR 13/12 A2982 470 93 400 000/00 RMK AO2 SLP096 T01280117 10139 20122 58008
03949KAQV AQV20190410060010904/10/19 06:00:31  5-MIN KAQV 101200Z AUTO 15003KT 5SM BR CLR 13/12 A2982 470 93 400 140/03 RMK AO2 T01280117
03949KAQV AQV20190410060510904/10/19 06:05:31  5-MIN KAQV 101205Z AUTO 16003KT 5SM BR CLR 13/12 A2982 470 93 400 150/03 RMK AO2 T01280117
03949KAQV AQV20190410061010904/10/19 06:10:31  5-MIN KAQV 101210Z AUTO 00000KT 6SM BR CLR 13/12 A2982 470 93 400 000/00 RMK AO2 T01280117
03949KAQV AQV20190410061510604/10/19 06:15:31  5-MIN KAQV 101215Z AUTO 16003KT 7SM CLR 13/12 A2982 470 93 400 160/03 RMK AO2 T01280117
03949KAQV AQV20190410062010604/10/19 06:20:31  5-MIN KAQV 101220Z AUTO VRB03KT 8SM CLR 13/12 A2982 470 96 400 VRB/03 RMK AO2 T01280122
03949KAQV AQV20190410062510604/10/19 06:25:31  5-MIN KAQV 101225Z AUTO 00000KT 7SM CLR 13/12 A2982 470 96 400 000/00 RMK AO2 T01280122
03949KAQV AQV20190410063010604/10/19 06:30:31  5-MIN KAQV 101230Z AUTO 00000KT 7SM CLR 13/12 A2982 470 93 400 000/00 RMK AO2 T01330122
03949KAQV AQV20190410063510604/10/19 06:35:31  5-MIN KAQV 101235Z AUTO 00000KT 8SM CLR 13/13 A2982 470 96 400 000/00 RMK AO2 T01330128
03949KAQV AQV20190410064010704/10/19 06:40:31  5-MIN KAQV 101240Z AUTO 17003KT 10SM CLR 14/13 A2982 460 93 500 160/03 RMK AO2 T01390128
03949KAQV AQV20190410064510704/10/19 06:45:31  5-MIN KAQV 101245Z AUTO 17004KT 10SM CLR 14/13 A2983 460 93 500 160/04 RMK AO2 T01440133
03949KAQV AQV20190410065011404/10/19 06:50:31  5-MIN KAQV 101250Z AUTO 16003KT 10SM CLR 14/13 A2983 460 93 500 150/03 RMK AO2 SLP099 T01440133
03949KAQV AQV20190410065511404/10/19 06:55:31  5-MIN KAQV 101255Z AUTO 17003KT 10SM CLR 16/14 A2983 460 90 700 160/03 RMK AO2 SLP099 T01560139
03949KAQV AQV20190410070010704/10/19 07:00:31  5-MIN KAQV 101300Z AUTO 00000KT 10SM CLR 16/14 A2983 460 90 700 000/00 RMK AO2 T01560139
03949KAQV AQV20190410070510704/10/19 07:05:31  5-MIN KAQV 101305Z AUTO VRB03KT 10SM CLR 17/14 A2983 460 86 800 VRB/03 RMK AO2 T01670144
03949KAQV AQV20190410071010704/10/19 07:10:31  5-MIN KAQV 101310Z AUTO VRB03KT 10SM CLR 17/14 A2983 460 83 900 VRB/03 RMK AO2 T01720144
03949KAQV AQV20190410071510704/10/19 07:15:31  5-MIN KAQV 101315Z AUTO 16003KT 10SM CLR 18/14 A2983 460 81 900 160/03 RMK AO2 T01780144
03949KAQV AQV20190410072010804/10/19 07:20:31  5-MIN KAQV 101320Z AUTO VRB04KT 10SM CLR 18/14 A2983 460 78 1000 VRB/04 RMK AO2 T01830144
03949KAQV AQV20190410072510804/10/19 07:25:31  5-MIN KAQV 101325Z AUTO VRB04KT 10SM CLR 18/14 A2983 460 78 1000 VRB/04 RMK AO2 T01830144
03949KAQV AQV20190410073010804/10/19 07:30:31  5-MIN KAQV 101330Z AUTO 15004KT 10SM CLR 19/14 A2983 460 75 1100 150/04 RMK AO2 T01890144
03949KAQV AQV20190410073510804/10/19 07:35:31  5-MIN KAQV 101335Z AUTO VRB05KT 10SM CLR 19/14 A2983 460 75 1100 VRB/05 RMK AO2 T01890144
03949KAQV AQV20190410074010804/10/19 07:40:31  5-MIN KAQV 101340Z AUTO VRB04KT 10SM CLR 19/14 A2983 460 72 1100 VRB/04 RMK AO2 T01940144
03949KAQV AQV20190410074510804/10/19 07:45:31  5-MIN KAQV 101345Z AUTO VRB05KT 10SM CLR 19/14 A2983 460 72 1100 VRB/05 RMK AO2 T01940144
03949KAQV AQV20190410075011504/10/19 07:50:31  5-MIN KAQV 101350Z AUTO VRB04KT 10SM CLR 20/14 A2983 460 70 1200 VRB/04 RMK AO2 SLP099 T02000144
03949KAQV AQV20190410075511504/10/19 07:55:31  5-MIN KAQV 101355Z AUTO VRB04KT 10SM CLR 20/14 A2983 460 70 1200 VRB/04 RMK AO2 SLP100 T02000144
03949KAQV AQV20190410080010804/10/19 08:00:31  5-MIN KAQV 101400Z AUTO VRB04KT 10SM CLR 21/15 A2983 460 70 1300 VRB/04 RMK AO2 T02060150
03949KAQV AQV20190410080510804/10/19 08:05:31  5-MIN KAQV 101405Z AUTO VRB03KT 10SM CLR 21/16 A2983 460 70 1300 VRB/03 RMK AO2 T02110156
03949KAQV AQV20190410081010804/10/19 08:10:31  5-MIN KAQV 101410Z AUTO VRB04KT 10SM CLR 22/15 A2984 450 65 1400 VRB/04 RMK AO2 T02170150
03949KAQV AQV20190410081510804/10/19 08:15:31  5-MIN KAQV 101415Z AUTO 17006KT 10SM CLR 22/15 A2984 450 65 1400 160/06 RMK AO2 T02170150
03949KAQV AQV20190410082010804/10/19 08:20:31  5-MIN KAQV 101420Z AUTO 18007KT 10SM CLR 22/15 A2984 450 65 1400 170/07 RMK AO2 T02170150
03949KAQV AQV20190410082510804/10/19 08:25:31  5-MIN KAQV 101425Z AUTO VRB06KT 10SM CLR 22/15 A2984 450 65 1400 VRB/06 RMK AO2 T02170150
03949KAQV AQV20190410083010804/10/19 08:30:31  5-MIN KAQV 101430Z AUTO 18006KT 10SM CLR 22/15 A2984 450 63 1400 170/06 RMK AO2 T02220150
03949KAQV AQV20190410083509804/10/19 08:35:31  5-MIN KAQV 101435Z AUTO 10SM CLR 23/15 A2984 450 61 1500 M /M RMK AO2 T02280150
03949KAQV AQV20190410084010804/10/19 08:40:31  5-MIN KAQV 101440Z AUTO VRB05KT 10SM CLR 23/15 A2984 450 61 1500 VRB/05 RMK AO2 T02280150
03949KAQV AQV20190410084510804/10/19 08:45:31  5-MIN KAQV 101445Z AUTO VRB05KT 10SM CLR 23/15 A2984 450 59 1600 VRB/05 RMK AO2 T02330150
03949KAQV AQV20190410085013704/10/19 08:50:31  5-MIN KAQV 101450Z AUTO 18007KT 140V210 10SM CLR 24/15 A2984 450 57 1600 170/07 140V210 RMK AO2 SLP103 T02390150 53002
03949KAQV AQV20190410085512104/10/19 08:55:31  5-MIN KAQV 101455Z AUTO VRB03KT 10SM CLR 24/15 A2984 450 57 1600 VRB/03 RMK AO2 SLP103 T02390150 53002
03949KAQV AQV20190410090010804/10/19 09:00:31  5-MIN KAQV 101500Z AUTO VRB05KT 10SM CLR 24/15 A2984 450 55 1700 VRB/05 RMK AO2 T02440150
03949KAQV AQV20190410090510804/10/19 09:05:31  5-MIN KAQV 101505Z AUTO VRB05KT 10SM CLR 24/15 A2984 450 55 1700 VRB/05 RMK AO2 T02440150
03949KAQV AQV20190410091010804/10/19 09:10:31  5-MIN KAQV 101510Z AUTO VRB06KT 10SM CLR 24/15 A2984 450 55 1700 VRB/06 RMK AO2 T02440150
03949KAQV AQV20190410091510804/10/19 09:15:31  5-MIN KAQV 101515Z AUTO VRB06KT 10SM CLR 25/15 A2984 450 53 1800 VRB/06 RMK AO2 T02500150
03949KAQV AQV20190410092012404/10/19 09:20:31  5-MIN KAQV 101520Z AUTO 16007KT 120V180 10SM CLR 25/15 A2984 450 53 1800 160/07 120V180 RMK AO2 T02500150
03949KAQV AQV20190410092510804/10/19 09:25:31  5-MIN KAQV 101525Z AUTO VRB03KT 10SM CLR 26/15 A2984 450 51 1800 VRB/03 RMK AO2 T02560150
03949KAQV AQV20190410093010804/10/19 09:30:31  5-MIN KAQV 101530Z AUTO 18004KT 10SM CLR 26/16 A2984 450 53 1800 180/04 RMK AO2 T02560156
03949KAQV AQV20190410093512404/10/19 09:35:31  5-MIN KAQV 101535Z AUTO 15007KT 080V180 10SM CLR 26/15 A2983 460 51 1800 140/07 080V180 RMK AO2 T02560150
03949KAQV AQV20190410094010804/10/19 09:40:31  5-MIN KAQV 101540Z AUTO VRB04KT 10SM CLR 26/15 A2983 460 50 1900 VRB/04 RMK AO2 T02610150
03949KAQV AQV20190410094510804/10/19 09:45:31  5-MIN KAQV 101545Z AUTO VRB06KT 10SM CLR 27/16 A2983 460 50 2000 VRB/06 RMK AO2 T02670156
03949KAQV AQV20190410095011504/10/19 09:50:31  5-MIN KAQV 101550Z AUTO VRB06KT 10SM CLR 27/15 A2983 460 48 2000 VRB/06 RMK AO2 SLP098 T02670150
03949KAQV AQV20190410095511504/10/19 09:55:31  5-MIN KAQV 101555Z AUTO VRB05KT 10SM CLR 27/15 A2983 460 48 2000 VRB/05 RMK AO2 SLP098 T02670150
03949KAQV AQV20190410100010804/10/19 10:00:31  5-MIN KAQV 101600Z AUTO VRB05KT 10SM CLR 27/15 A2983 460 48 2000 VRB/05 RMK AO2 T02670150
03949KAQV AQV20190410100510804/10/19 10:05:31  5-MIN KAQV 101605Z AUTO VRB05KT 10SM CLR 27/16 A2983 460 48 2000 VRB/05 RMK AO2 T02720156
03949KAQV AQV20190410101010804/10/19 10:10:31  5-MIN KAQV 101610Z AUTO 16008KT 10SM CLR 27/15 A2982 470 46 2000 160/08 RMK AO2 T02720150
03949KAQV AQV20190410101510804/10/19 10:15:31  5-MIN KAQV 101615Z AUTO VRB05KT 10SM CLR 27/15 A2982 470 46 2000 VRB/05 RMK AO2 T02720150
03949KAQV AQV20190410102015204/10/19 10:20:31  5-MIN KAQV 101620Z AUTO 18008KT 100V200 10SM CLR 28/15 A2982O VRB06G16KT 10SM CLR 29/14 A2969 590 38 2400 VRB/06G16 RMK AO2 T02940139
03949KAQV AQV20190410161513004/10/19 16:15:31  5-MIN KAQV 102215Z AUTO 18007G16KT 140V230 10SM CLR 29/13 A2969 590 38 2400 180/11G16 150V220 RMK AO2 T02890133
03949KAQV AQV20190410161513004/10/19 16:15:31  5-MIN KAQV 102215Z AUTO 18007G16KT 140V230 10SM CLR 29/14 A2969 590 38 2400 180/07G16 140V230 RMK AO2 T02940139
03949KAQV AQV20190410162013004/10/19 16:20:31  5-MIN KAQV 102220Z AUTO 18007G15KT 120V220 10SM CLR 29/14 A2969 590 38 2400 170/07G15 120V220 RMK AO2 T02940139
03949KAQV AQV20190410162510804/10/19 16:25:31  5-MIN KAQV 102225Z AUTO 17008KT 10SM CLR 29/14 A2969 590 38 2400 160/08 RMK AO2 T02940139
03949KAQV AQV20190410163010804/10/19 16:30:31  5-MIN KAQV 102230Z AUTO VRB05KT 10SM CLR 29/13 A2969 590 36 2400 VRB/05 RMK AO2 T02940133
03949KAQV AQV20190410163510804/10/19 16:35:31  5-MIN KAQV 102235Z AUTO VRB05KT 10SM CLR 29/14 A2969 590 38 2400 VRB/05 RMK AO2 T02940139
03949KAQV AQV20190410164013004/10/19 16:40:31  5-MIN KAQV 102240Z AUTO 18011G16KT 150V220 10SM CLR 29/13 A2969 590 38 2400 180/11G16 150V220 RMK AO2 T02890133
03949KAQV AQV20190410164511404/10/19 16:45:31  5-MIN KAQV 102245Z AUTO 18010G17KT 10SM CLR 29/13 A2969 590 36 2400 180/10G17 RMK AO2 T02890128
03949KAQV AQV20190410165013704/10/19 16:50:31  5-MIN KAQV 102250Z AUTO 17009G17KT 120V230 10SM CLR 29/13 A2969 590 36 2400 170/09G17 120V230 RMK AO2 SLP050 T02890128
03949KAQV AQV20190410165513704/10/19 16:55:31  5-MIN KAQV 102255Z AUTO 18010G16KT 150V220 10SM CLR 28/13 A2969 590 37 2300 180/10G16 150V220 RMK AO2 SLP050 T02830128
03949KAQV AQV20190410170011404/10/19 17:00:31  5-MIN KAQV 102300Z AUTO 18011G17KT 10SM CLR 28/13 A2969 590 37 2300 180/11G17 RMK AO2 T02830128
03949KAQV AQV20190410170513004/10/19 17:05:31  5-MIN KAQV 102305Z AUTO 18008G17KT 150V210 10SM CLR 28/12 A2969 590 36 2300 170/08G17 150V210 RMK AO2 T02830122
03949KAQV AQV20190410171013004/10/19 17:10:31  5-MIN KAQV 102310Z AUTO 18007G17KT 120V240 10SM CLR 28/12 A2968 600 37 2200 180/07G17 120V240 RMK AO2 T02780122
03949KAQV AQV20190410171511404/10/19 17:15:31  5-MIN KAQV 102315Z AUTO 18009G21KT 10SM CLR 28/12 A2968 600 37 2200 180/09G21 RMK AO2 T02780122
03949KAQV AQV20190410172011404/10/19 17:20:31  5-MIN KAQV 102320Z AUTO 18011G21KT 10SM CLR 28/12 A2968 600 36 2200 180/11G21 RMK AO2 T02780117
03949KAQV AQV20190410172513004/10/19 17:25:31  5-MIN KAQV 102325Z AUTO 18007G18KT 140V200 10SM CLR 28/12 A2968 600 36 2200 170/07G18 140V200 RMK AO2 T02780117
03949KAQV AQV20190410173011404/10/19 17:30:31  5-MIN KAQV 102330Z AUTO 17006G17KT 10SM CLR 27/12 A2968 600 37 2200 170/06G17 RMK AO2 T02720117
03949KAQV AQV20190410173513004/10/19 17:35:31  5-MIN KAQV 102335Z AUTO 18007G15KT 150V220 10SM CLR 27/12 A2968 600 39 2200 170/07G15 150V220 RMK AO2 T02720122
03949KAQV AQV20190410174011404/10/19 17:40:31  5-MIN KAQV 102340Z AUTO 18007G16KT 10SM CLR 27/12 A2968 600 37 2200 170/07G16 RMK AO2 T02720117
03949KAQV AQV20190410174511404/10/19 17:45:31  5-MIN KAQV 102345Z AUTO 17009G16KT 10SM CLR 27/12 A2967 610 38 2100 170/09G16 RMK AO2 T02670117
03949KAQV AQV20190410175015504/10/19 17:50:31  5-MIN KAQV 102350Z AUTO 18007G15KT 140V210 10SM CLR 27/11 A2967 600 37 2100 170/07G15 140V210 RMK AO2 SLP047 T02670111 10311 20267 58025
03949KAQV AQV20190410175513904/10/19 17:55:31  5-MIN KAQV 102355Z AUTO 17009G14KT 10SM CLR 27/11 A2968 600 37 2100 170/09G14 RMK AO2 SLP047 T02670111 10311 20267 58025
03949KAQV AQV20190410180011404/10/19 18:00:31  5-MIN KAQV 110000Z AUTO VRB05G15KT 10SM CLR 26/11 A2968 600 38 2100 VRB/05G15 RMK AO2 T02610111
03949KAQV AQV20190410180511404/10/19 18:05:31  5-MIN KAQV 110005Z AUTO 17008G16KT 10SM CLR 26/12 A2967 600 40 2100 170/08G16 RMK AO2 T02610117
03949KAQV AQV20190410181013004/10/19 18:10:31  5-MIN KAQV 110010Z AUTO 18008G16KT 150V220 10SM CLR 26/12 A2968 600 41 2000 170/08G16 150V220 RMK AO2 T02560117
03949KAQV AQV20190410181513004/10/19 18:15:31  5-MIN KAQV 110015Z AUTO 18007G16KT 140V220 10SM CLR 26/11 A2968 600 40 2000 170/07G16 140V220 RMK AO2 T02560111
03949KAQV AQV20190410182012404/10/19 18:20:31  5-MIN KAQV 110020Z AUTO 18007KT 130V210 10SM CLR 26/11 A2968 600 40 2000 170/07 130V210 RMK AO2 T02560111
03949KAQV AQV20190410182512404/10/19 18:25:31  5-MIN KAQV 110025Z AUTO 18007KT 160V220 10SM CLR 25/12 A2968 600 43 1900 180/07 160V220 RMK AO2 T02500117
03949KAQV AQV20190410183010804/10/19 18:30:31  5-MIN KAQV 110030Z AUTO 17005KT 10SM CLR 25/12 A2967 600 43 1900 170/05 RMK AO2 T02500117
03949KAQV AQV20190410183510804/10/19 18:35:31  5-MIN KAQV 110035Z AUTO 17004KT 10SM CLR 24/12 A2967 600 44 1900 160/04 RMK AO2 T02440117
03949KAQV AQV20190410184010804/10/19 18:40:31  5-MIN KAQV 110040Z AUTO 17005KT 10SM CLR 24/12 A2967 600 44 1900 170/05 RMK AO2 T02440117
03949KAQV AQV20190410184510804/10/19 18:45:31  5-MIN KAQV 110045Z AUTO 17005KT 10SM CLR 24/12 A2967 600 46 1800 160/05 RMK AO2 T02390117
03949KAQV AQV20190410185011504/10/19 18:50:31  5-MIN KAQV 110050Z AUTO 17004KT 10SM CLR 24/12 A2967 610 47 1800 170/04 RMK AO2 SLP046 T02390122
03949KAQV AQV20190410185511504/10/19 18:55:31  5-MIN KAQV 110055Z AUTO 18005KT 10SM CLR 23/12 A2968 600 49 1700 170/05 RMK AO2 SLP047 T02330122
03949KAQV AQV20190410190010804/10/19 19:00:31  5-MIN KAQV 110100Z AUTO 17004KT 10SM CLR 23/12 A2967 600 49 1700 170/04 RMK AO2 T02330122
03949KAQV AQV20190410190510804/10/19 19:05:31  5-MIN KAQV 110105Z AUTO 17006KT 10SM CLR 23/12 A2968 600 49 1700 170/06 RMK AO2 T02330122
03949KAQV AQV20190410191010804/10/19 19:10:31  5-MIN KAQV 110110Z AUTO 17005KT 10SM CLR 23/12 A2968 600 51 1700 170/05 RMK AO2 T02280122
03949KAQV AQV20190410191510804/10/19 19:15:31  5-MIN KAQV 110115Z AUTO VRB04KT 10SM CLR 23/12 A2968 600 51 1700 VRB/04 RMK AO2 T02280122
03949KAQV AQV20190410192010804/10/19 19:20:31  5-MIN KAQV 110120Z AUTO 17004KT 10SM CLR 22/12 A2968 600 52 1600 160/04 RMK AO2 T02220122
03949KAQV AQV20190410192510804/10/19 19:25:31  5-MIN KAQV 110125Z AUTO 17005KT 10SM CLR 22/12 A2968 600 52 1600 160/05 RMK AO2 T02220122
03949KAQV AQV20190410193010804/10/19 19:30:31  5-MIN KAQV 110130Z AUTO 17006KT 10SM CLR 23/12 A2967 600 49 1700 160/06 RMK AO2 T02280117
03949KAQV AQV20190410193510804/10/19 19:35:31  5-MIN KAQV 110135Z AUTO VRB05KT 10SM CLR 22/12 A2967 600 51 1600 VRB/05 RMK AO2 T02220117
03949KAQV AQV20190410194010804/10/19 19:40:31  5-MIN KAQV 110140Z AUTO 16005KT 10SM CLR 22/12 A2967 610 52 1600 160/05 RMK AO2 T02220122
03949KAQV AQV20190410194510804/10/19 19:45:31  5-MIN KAQV 110145Z AUTO 16005KT 10SM CLR 22/12 A2967 610 54 1600 160/05 RMK AO2 T02170122
03949KAQV AQV20190410195011504/10/19 19:50:31  5-MIN KAQV 110150Z AUTO VRB05KT 10SM CLR 22/12 A2967 600 52 1600 VRB/05 RMK AO2 SLP045 T02170117
03949KAQV AQV20190410195511504/10/19 19:55:31  5-MIN KAQV 110155Z AUTO VRB06KT 10SM CLR 22/12 A2967 600 54 1600 VRB/06 RMK AO2 SLP046 T02170122
03949KAQV AQV20190410200010804/10/19 20:00:31  5-MIN KAQV 110200Z AUTO VRB05KT 10SM CLR 22/12 A2968 600 54 1600 VRB/05 RMK AO2 T02170122
03949KAQV AQV20190410200510804/10/19 20:05:31  5-MIN KAQV 110205Z AUTO 17005KT 10SM CLR 21/12 A2968 600 56 1500 170/05 RMK AO2 T02110122
03949KAQV AQV20190410201010804/10/19 20:10:31  5-MIN KAQV 110210Z AUTO 16006KT 10SM CLR 21/12 A2968 600 56 1500 160/06 RMK AO2 T02110122
03949KAQV AQV20190410201510804/10/19 20:15:31  5-MIN KAQV 110215Z AUTO 16005KT 10SM CLR 22/12 A2968 600 54 1600 160/05 RMK AO2 T02170122
03949KAQV AQV20190410202010804/10/19 20:20:31  5-MIN KAQV 110220Z AUTO VRB04KT 10SM CLR 21/12 A2968 600 56 1500 VRB/04 RMK AO2 T02110122
03949KAQV AQV20190410202510804/10/19 20:25:31  5-MIN KAQV 110225Z AUTO 17004KT 10SM CLR 21/12 A2968 600 56 1500 160/04 RMK AO2 T02110122
03949KAQV AQV20190410203010804/10/19 20:30:31  5-MIN KAQV 110230Z AUTO 17004KT 10SM CLR 21/12 A2968 600 58 1400 160/04 RMK AO2 T02060122
03949KAQV AQV20190410203510804/10/19 20:35:31  5-MIN KAQV 110235Z AUTO 17004KT 10SM CLR 21/12 A2967 600 58 1400 160/04 RMK AO2 T02060122
03949KAQV AQV20190410204010804/10/19 20:40:31  5-MIN KAQV 110240Z AUTO 16004KT 10SM CLR 21/12 A2967 600 58 1400 160/04 RMK AO2 T02060122
03949KAQV AQV20190410204510804/10/19 20:45:31  5-MIN KAQV 110245Z AUTO VRB04KT 10SM CLR 21/12 A2967 600 58 1400 VRB/04 RMK AO2 T02060122
03949KAQV AQV20190410205012104/10/19 20:50:31  5-MIN KAQV 110250Z AUTO 16005KT 10SM CLR 21/12 A2967 600 58 1400 160/05 RMK AO2 SLP046 T02060122 58009
03949KAQV AQV20190410205512104/10/19 20:55:31  5-MIN KAQV 110255Z AUTO 16005KT 10SM CLR 21/13 A2967 610 60 1400 160/05 RMK AO2 SLP045 T02060128 58009
03949KAQV AQV20190410210010804/10/19 21:00:31  5-MIN KAQV 110300Z AUTO VRB05KT 10SM CLR 21/13 A2967 610 60 1400 VRB/05 RMK AO2 T02060128
03949KAQV AQV20190410210510804/10/19 21:05:31  5-MIN KAQV 110305Z AUTO VRB05KT 10SM CLR 20/13 A2967 610 63 1400 VRB/05 RMK AO2 T02000128
03949KAQV AQV20190410211010804/10/19 21:10:31  5-MIN KAQV 110310Z AUTO 16007KT 10SM CLR 20/13 A2967 610 65 1400 160/07 RMK AO2 T02000133
03949KAQV AQV20190410211510804/10/19 21:15:31  5-MIN KAQV 110315Z AUTO 16006KT 10SM CLR 20/13 A2967 610 65 1400 160/06 RMK AO2 T02000133
03949KAQV AQV20190410212010804/10/19 21:20:31  5-MIN KAQV 110320Z AUTO 16005KT 10SM CLR 20/13 A2967 610 65 1400 160/05 RMK AO2 T02000133
03949KAQV AQV20190410212510804/10/19 21:25:31  5-MIN KAQV 110325Z AUTO VRB05KT 10SM CLR 20/14 A2967 610 67 1400 VRB/05 RMK AO2 T02000139
03949KAQV AQV20190410213021204/10/19 21:30:31  5-MIN KAQV 110330Z AUTO 180 10/19 23:25:31  5-MIN KAQV 110525Z AUTO 17005KT 10SM CLR 19/17 A2967 610 84 1300 170/05 RMK AO2 T0194016704/10/19CLR 19/17 A2967 610 84 1300 180/05 RMK AO2 T01940167
03949KAQV AQV20190410231015404/10/19 23:10:31  5-MIN KAQV 110510Z AUTO 17006KT 10SM CLR 19/17 A2967 610 84 1300 17TO 17005KT 10SM CLR 19/17 A2967 610 87 1200 160/05 RMK AO2 T01890167
03949KAQV AQV20190410232510804/10/19 23:25:31  5-MIN KAQV 110525Z AUTO 17005KT 10SM CLR 19/17 A2967 610 84 1300 170/05 RMK AO2 T01940167
03949KAQV AQV20190410233010804/10/19 23:30:31  5-MIN KAQV 110530Z AUTO VRB06KT 10SM CLR 19/17 A2967 610 87 1200 VRB/06 RMK AO2 T01890167
03949KAQV AQV20190410233510804/10/19 23:35:31  5-MIN KAQV 110535Z AUTO 17005KT 10SM CLR 19/17 A2967 610 87 1200 160/05 RMK AO2 T01890167
03949KAQV AQV20190410234010804/10/19 23:40:31  5-MIN KAQV 110540Z AUTO 17006KT 10SM CLR 19/17 A2967 610 87 1200 170/06 RMK AO2 T01890167
03949KAQV AQV20190410234510804/10/19 23:45:31  5-MIN KAQV 110545Z AUTO 17005KT 10SM CLR 19/17 A2967 610 87 1200 160/05 RMK AO2 T01890167
03949KAQV AQV20190410235014304/10/19 23:50:31  5-MIN KAQV 110550Z AUTO 17007KT 10SM CLR 19/17 A2967 610 87 1300 160/07 RMK AO2 SLP043 T01890167 10267 20189 403110122 58001
03949KAQV AQV20190410235514304/10/19 23:55:31  5-MIN KAQV 110555Z AUTO VRB04KT 10SM CLR 19/17 A2967 610 87 1300 VRB/04 RMK AO2 SLP043 T01890167 10267 20189 403110122 58001
03949KAQV AQV20190411000010804/11/19 00:00:31  5-MIN KAQV 110600Z AUTO 17004KT 10SM CLR 20/17 A20 87 1200 170/06 RMK04 RMK AO2 T02000167
03949KAQV AQV20190411000010804/11/19 00:00:31  5-MIN KAQV 110600Z AUTO 17004KT 10SM CLR 20/17 A2967 610 81 1400 160/04 RMK AO2 T02000167
03949KAQV AQV20190411000510404/11/19 00:05:31  5-MIN KAQV 110605Z AUTO VRB05KT 10SM CLR 19/17 A2966 87 1200 160/05 RMK AO2 T01890167
03949KAQV AQV20190411000510804/11/19 00:05:31  5-MIN KAQV 110605Z AUTO VRB05KT 10SM CLR 19/17 A2966 610 87 1300 VRB/05 RMK AO2 T01890167
03949KAQV AQV20190411001010804/11/19 00:10:31  5-MIN KAQV 110610Z AUTO 17006KT 10SM CLR 19/17 A2966 610 87 1300 160/06 RMK AO2 T01890167
03949KAQV AQV20190411001510804/11/19 00:15:31  5-MIN KAQV 110615Z AUTO VRB06KT 10SM CLR 19/17 A2966 620 87 1300 VRB/06 RMK AO2 T01890167
03949KAQV AQV20190411002010804/11/19 00:20:31  5-MIN KAQV 110620Z AUTO VRB06KT 10SM CLR 19/17 A2966 620 87 1300 VRB/06 RMK AO2 T01890167
03949KAQV AQV20190411002510804/11/19 00:25:31  5-MIN KAQV 110625Z AUTO 17007KT 10SM CLR 19/17 A2966 620 87 1300 170/07 RMK AO2 T01890167
03949KAQV AQV20190411002520304/11/19 00:25:31  5-MIN KAQV 110625Z AUTO 17007KT 10SM CLR 19/17 A2966 620 87 1300 170/07V 110605Z AUTO VRB05KT 10SM CLR 19/17 A2966 610 87 1300 VRB/05 RMK AO2 T01890167 87 1300 160/06 RMK AO2 T01890167
03949KAQV AQV20190411003010804/11/19 00:30:31  5-MIN KAQV 110630Z AUTO 18007KT 10SM CLR 19/17 A2966 620 87 1300 170/07 RMK AO2 T01890167
03949KAQV AQV20190411003510804/11/19 00:35:31  5-MIN KAQV 110635Z AUTO 17005KT 10SM CLR 19/17 A2966 620 90 1300 170/05 RMK AO2 T01890172
03949KAQV AQV20190411004010804/11/19 00:40:31  5-MIN KAQV 110640Z AUTO 17005KT 10SM CLR 19/17 A2965 620 87 1300 170/05 RMK AO2 T01890167
03949KAQV AQV20190411004510804/11/19 00:45:31  5-MIN KAQV 110645Z AUTO 17005KT 10SM CLR 19/17 A2965 620 90 1300 170/05 RMK AO2 T01890172
03949KAQV AQV20190411005011504/11/19 00:50:31  5-MIN KAQV 110650Z AUTO VRB04KT 10SM CLR 19/17 A2965 620 90 1300 VRB/04 RMK AO2 SLP037 T01890172
03949KAQV AQV20190411005016804/11/19 00:50:31  5-MIN KAQV 110650Z AUTO VRB04KT 10SM CLR 19/17 A2965 620 90 1300 VRB/04 RMK AO2 SLP037 T01890172 CLR 19/17 A2966 620 87 1300 170/07 RMK AO2 T01890167
03949KAQV AQV20190411005511504/11/19 00:55:31  5-MIN KAQV 110655Z AUTO 17006KT 10SM CLR 19/17 A2965 630 90 1300 170/06 RMK AO2 SLP037 T01890172
03949KAQV AQV20190411010010804/11/19 01:00:31  5-MIN KAQV 110700Z AUTO VRB06KT 10SM CLR 19/17 A2965 630 90 1300 VRB/06 RMK AO2 T01890172
03949KAQV AQV20190411010510804/11/19 01:05:31  5-MIN KAQV 110705Z AUTO 17006KT 10SM CLR 19/17 A2965 630 90 1300 170/06 RMK AO2 T01890172
03949KAQV AQV20190411011010804/11/19 01:10:31  5-MIN KAQV 110710Z AUTO VRB05KT 10SM CLR 19/17 A2964 630 90 1300 VRB/05 RMK AO2 T01890172
03949KAQV AQV20190411011027404/11/19 01:10:31  5-MIN KAQV 110710Z AUTO VRB05KT 10SM CLR 19/17 A2964 630 90 1300 VRB/05 RMK AO2 T0189017204/11/19  620 90 1300 VRB/04 10715Z AUTO VRB06KT 10SM CLR 19/17 A2964 640 90 1300 VRB/06 RMK AO2 T0189017204/11/19 01:2965 630 90 1300 170/06 RMK AO2 SLP037 T01890172
03949KAQV AQV20190411011510804/11/19 01:15:31  5-MIN KAQV 110715Z AUTO VRB06KT 10SM CLR 19/17 A2964 640 90 1300 VRB/06 RMK AO2 T01890172
03949KAQV AQV20190411012010804/11/19 01:20:31  5-MIN KAQV 110720Z AUTO 16006KT 10SM CLR 19/17 A2964 640 90 1300 160/06 RMK AO2 T01890172
03949KAQV AQV20190411012516104/11/19 01:25:31  5-MIN KAQV 110725Z AUTO VRB06KT 10SM CLR 19/17 A2964 640 90 1300 VRB0SM FEW012 19/17 A2960 670 90 1300 160/07 130V190 RMK AO2 SLP020 T01890172
03949KAQV AQV20190411031511704/11/19 03:15:31  5-MIN KAQV 110915Z AUTO 17007G16KT 10SM BKN013 19/17 A2960 670 87 1400 160/07G16 RMK AO2 T01940172
03949KAQV AQV20190411032011704/11/19 03:20:31  5-MIN KAQV 110920Z AUTO 17009G17KT 10SM BKN013 19/17 A2960 670 87 1400 160/09G17 RMK AO2 T01940172
03949KAQV AQV20190411032511704/11/19 03:25:31  5-MIN KAQV 110925Z AUTO 17006G17KT 10SM BKN012 19/17 A2960 670 87 1400 170/06G17 RMK AO2 T01940172
03949KAQV AQV20190411033011704/11/19 03:30:31  5-MIN KAQV 110930Z AUTO 16008G15KT 10SM SCT012 19/17 A2960 670 90 1300 160/08G15 RMK AO2 T01890172
03949KAQV AQV20190411033511704/11/19 03:35:31  5-MIN KAQV 110935Z AUTO 17008G15KT 10SM SCT012 19/17 A2960 670 90 1300 160/08G15 RMK AO2 T01890172
03949KAQV AQV20190411034011704/11/19 03:40:31  5-MIN KAQV 110940Z AUTO VRB06G15KT 10SM SCT012 19/17 A2960 670 90 1300 VRB/06G15 RMK AO2 T01890172
03949KAQV AQV20190411034511704/11/19 03:45:31  5-MIN KAQV 110945Z AUTO 17008G14KT 10SM FEW012 19/17 A2960 670 90 1300 160/08G14 RMK AO2 T01890172
03949KAQV AQV20190411035012404/11/19 03:50:31  5-MIN KAQV 110950Z AUTO 17006G14KT 10SM FEW012 19/17 A2960 670 90 1300 170/06G14 RMK AO2 SLP021 T01890172
03949KAQV AQV20190411035513404/11/19 03:55:31  5-MIN KAQV 110955Z AUTO 17007KT 130V190 10SM FEW012 19/17 A2960 670 90 1300 160/07 130V190 RMK AO2 SLP020 T01890172
03949KAQV AQV20190411040011104/11/19 04:00:31  5-MIN KAQV 111000Z AUTO 17006KT 10SM FEW012 19/17 A2960 670 87 1300 170/06 RMK AO2 T01890167
03949KAQV AQV20190411040512704/11/19 04:05:31  5-MIN KAQV 111005Z AUTO 17007KT 120V190 10SM FEW012 19/17 A2960 680 87 1300 160/07 120V190 RMK AO2 T01890167
03949KAQV AQV20190411041011704/11/19 04:10:31  5-MIN KAQV 111010Z AUTO VRB06G16KT 10SM FEW012 19/17 A2960 680 87 1300 VRB/06G16 RMK AO2 T01890167
03949KAQV AQV20190411041511704/11/19 04:15:31  5-MIN KAQV 111015Z AUTO 17007G16KT 10SM FEW012 19/17 A2960 680 87 1300 170/07G16 RMK AO2 T01890167
03949KAQV AQV20190411042011704/11/19 04:20:31  5-MIN KAQV 111020Z AUTO 17008G16KT 10SM FEW012 19/17 A2960 680 87 1300 160/08G16 RMK AO2 T01890167
03949KAQV AQV20190411042511704/11/19 04:25:31  5-MIN KAQV 111025Z AUTO 17007G16KT 10SM SCT012 19/17 A2960 680 87 1300 160/07G16 RMK AO2 T01890167
03949KAQV AQV20190411043013304/11/19 04:30:31  5-MIN KAQV 111030Z AUTO 17008G15KT 130V200 10SM SCT012 19/17 A2960 680 90 1300 160/08G15 130V200 RMK AO2 T01890172
03949KAQV AQV20190411043511704/11/19 04:35:31  5-MIN KAQV 111035Z AUTO 17008G19KT 10SM SCT012 19/17 A2960 680 90 1300 170/08G19 RMK AO2 T01890172
03949KAQV AQV20190411044011704/11/19 04:40:31  5-MIN KAQV 111040Z AUTO 16007G19KT 10SM SCT012 19/17 A2960 680 87 1300 160/07G19 RMK AO2 T01890167
03949KAQV AQV20190411044511104/11/19 04:45:31  5-MIN KAQV 111045Z AUTO 17007KT 10SM BKN012 19/17 A2960 680 87 1300 170/07 RMK AO2 T01890167
03949KAQV AQV20190411045014004/11/19 04:50:31  5-MIN KAQV 111050Z AUTO 17008G17KT 130V190 10SM BKN012 19/17 A2960 680 87 1300 170/08G17 130V190 RMK AO2 SLP019 T01890167
03949KAQV AQV20190411045512404/11/19 04:55:31  5-MIN KAQV 111055Z AUTO VRB06G17KT 10SM SCT013 19/17 A2960 670 87 1300 VRB/06G17 RMK AO2 SLP020 T01890167
03949KAQV AQV20190411050011104/11/19 05:00:31  5-MIN KAQV 111100Z AUTO VRB06KT 10SM SCT013 19/17 A2960 670 87 1300 VRB/06 RMK AO2 T01890167
03949KAQV AQV20190411050511104/11/19 05:05:31  5-MIN KAQV 111105Z AUTO VRB06KT 10SM SCT013 19/17 A2960 670 87 1300 VRB/06 RMK AO2 T01890167
03949KAQV AQV20190411051012704/11/19 05:10:31  5-MIN KAQV 111110Z AUTO 17008KT 130V200 10SM FEW013 19/17 A2960 670 87 1300 160/08 130V200 RMK AO2 T01890167
03949KAQV AQV20190411051512704/11/19 05:15:31  5-MIN KAQV 111115Z AUTO 17007KT 110V200 10SM FEW013 19/17 A2960 670 87 1300 170/07 110V200 RMK AO2 T01890167
03949KAQV AQV20190411052011104/11/19 05:20:31  5-MIN KAQV 111120Z AUTO 17006KT 10SM FEW015 19/17 A2960 670 87 1300 170/06 RMK AO2 T01890167
03949KAQV AQV20190411052511104/11/19 05:25:31  5-MIN KAQV 111125Z AUTO VRB04KT 10SM FEW015 19/17 A2961 660 87 1300 VRB/04 RMK AO2 T01890167
03949KAQV AQV20190411053011804/11/19 05:30:31  5-MIN KAQV 111130Z AUTO VRB03KT 10SM FEW015 19/17 A2964 640 87 1300 VRB/03 RMK AO2 PRESRR T01890167
03949KAQV AQV20190411053511804/11/19 05:35:31  5-MIN KAQV 111135Z AUTO 30005KT 10SM SCT017 19/17 A2968 600 87 1200 300/05 RMK AO2 PRESRR T01890167
03949KAQV AQV20190411054012504/11/19 05:40:31  5-MIN KAQV 111140Z AUTO VRB04KT 10SM SCT015 BKN020 19/17 A2969 590 87 1200 VRB/04 RMK AO2 PRESRR T01890167
03949KAQV AQV20190411054511104/11/19 05:45:31  5-MIN KAQV 111145Z AUTO VRB06KT 10SM BKN017 19/17 A2967 610 87 1300 VRB/06 RMK AO2 T01890167
03949KAQV AQV20190411055014304/11/19 05:50:31  5-MIN KAQV 111150Z AUTO 00000KT 10SM BKN017 BKN024 19/17 A2968 600 87 1200 000/00 RMK AO2 SLP047 T01890167 10200 20183 58020
03949KAQV AQV20190411055513604/11/19 05:55:31  5-MIN KAQV 111155Z AUTO VRB04KT 10SM BKN017 19/17 A2969 590 87 1200 VRB/04 RMK AO2 SLP052 T01890167 10200 20183 58020
03949KAQV AQV20190411060011104/11/19 06:00:31  5-MIN KAQV 111200Z AUTO VRB04KT 10SM OVC017 19/17 A2969 590 84 1300 VRB/04 RMK AO2 T01940167
03949KAQV AQV20190411060511804/11/19 06:05:31  5-MIN KAQV 111205Z AUTO VRB04KT 10SM BKN015 BKN021 19/17 A2968 600 87 1200 VRB/04 RMK AO2 T01890167
03949KAQV AQV20190411061011804/11/19 06:10:31  5-MIN KAQV 111210Z AUTO VRB03KT 10SM BKN018 BKN024 19/17 A2970 580 87 1200 VRB/03 RMK AO2 T01890167
03949KAQV AQV20190411061511804/11/19 06:15:31  5-MIN KAQV 111215Z AUTO VRB03KT 10SM BKN019 OVC026 19/17 A2970 580 84 1300 VRB/03 RMK AO2 T01940167
03949KAQV AQV20190411062012504/11/19 06:20:31  5-MIN KAQV 111220Z AUTO 18004KT 10SM SCT017 BKN022 OVC026 19/17 A2969 590 84 1300 180/04 RMK AO2 T01940167
03949KAQV AQV20190411062511804/11/19 06:25:31  5-MIN KAQV 111225Z AUTO 21004KT 10SM BKN019 BKN027 19/17 A2970 580 84 1300 210/04 RMK AO2 T01940167
03949KAQV AQV20190411063011804/11/19 06:30:31  5-MIN KAQV 111230Z AUTO VRB05KT 10SM BKN019 BKN027 19/17 A2970 580 84 1300 VRB/05 RMK AO2 T01940167
03949KAQV AQV20190411063511804/11/19 06:35:31  5-MIN KAQV 111235Z AUTO 18007KT 10SM SCT019 BKN027 19/17 A2970 590 84 1300 180/07 RMK AO2 T01940167
03949KAQV AQV20190411064011804/11/19 06:40:31  5-MIN KAQV 111240Z AUTO 21004KT 10SM SCT020 BKN027 19/17 A2971 580 84 1300 200/04 RMK AO2 T01940167
03949KAQV AQV20190411064511804/11/19 06:45:31  5-MIN KAQV 111245Z AUTO 19004KT 10SM FEW020 BKN027 19/17 A2971 570 84 1300 190/04 RMK AO2 T01940167
03949KAQV AQV20190411065012504/11/19 06:50:31  5-MIN KAQV 111250Z AUTO VRB05KT 10SM FEW020 BKN027 19/17 A2970 580 84 1300 VRB/05 RMK AO2 SLP056 T01940167
03949KAQV AQV20190411065512504/11/19 06:55:31  5-MIN KAQV 111255Z AUTO 19006KT 10SM FEW019 BKN027 19/17 A2971 570 84 1300 190/06 RMK AO2 SLP057 T01940167
03949KAQV AQV20190411070011804/11/19 07:00:31  5-MIN KAQV 111300Z AUTO VRB05KT 10SM FEW022 BKN027 20/17 A2971 570 84 1300 VRB/05 RMK AO2 T02000172
03949KAQV AQV20190411070511104/11/19 07:05:31  5-MIN KAQV 111305Z AUTO VRB05KT 10SM BKN027 20/17 A2971 570 81 1300 VRB/05 RMK AO2 T02000167
03949KAQV AQV20190411071011104/11/19 07:10:31  5-MIN KAQV 111310Z AUTO 19004KT 10SM SCT027 20/17 A2971 570 81 1300 180/04 RMK AO2 T02000167
03949KAQV AQV20190411071511104/11/19 07:15:31  5-MIN KAQV 111315Z AUTO VRB04KT 10SM SCT027 20/17 A2971 570 84 1300 VRB/04 RMK AO2 T02000172
03949KAQV AQV20190411072011804/11/19 07:20:31  5-MIN KAQV 111320Z AUTO VRB05KT 10SM FEW019 BKN027 20/17 A2971 570 84 1300 VRB/05 RMK AO2 T02000172
03949KAQV AQV20190411072512504/11/19 07:25:31  5-MIN KAQV 111325Z AUTO VRB04KT 10SM FEW017 SCT021 BKN027 20/17 A2971 580 84 1300 VRB/04 RMK AO2 T02000172
03949KAQV AQV20190411073011804/11/19 07:30:31  5-MIN KAQV 111330Z AUTO VRB03KT 10SM SCT017 BKN027 21/17 A2971 570 81 1400 VRB/03 RMK AO2 T02060172
03949KAQV AQV20190411073511804/11/19 07:35:31  5-MIN KAQV 111335Z AUTO VRB04KT 10SM SCT017 BKN027 21/17 A2971 570 81 1400 VRB/04 RMK AO2 T02060172
03949KAQV AQV20190411074011804/11/19 07:40:31  5-MIN KAQV 111340Z AUTO VRB04KT 10SM SCT017 BKN025 21/17 A2971 570 81 1400 VRB/04 RMK AO2 T02060172
03949KAQV AQV20190411074511804/11/19 07:45:31  5-MIN KAQV 111345Z AUTO 19006KT 10SM SCT017 BKN025 21/17 A2971 570 81 1400 190/06 RMK AO2 T02060172
03949KAQV AQV20190411075012504/11/19 07:50:31  5-MIN KAQV 111350Z AUTO VRB04KT 10SM BKN017 BKN025 21/17 A2971 570 81 1400 VRB/04 RMK AO2 SLP057 T02060172
03949KAQV AQV20190411075512504/11/19 07:55:31  5-MIN KAQV 111355Z AUTO 20005KT 10SM SCT017 BKN023 21/17 A2971 570 81 1400 190/05 RMK AO2 SLP058 T02060172
03949KAQV AQV20190411080013404/11/19 08:00:31  5-MIN KAQV 111400Z AUTO 18007KT 150V210 10SM SCT017 BKN023 21/17 A2971 570 81 1400 170/07 150V210 RMK AO2 T02060172
03949KAQV AQV20190411080511804/11/19 08:05:31  5-MIN KAQV 111405Z AUTO VRB05KT 10SM SCT017 OVC025 21/17 A2971 570 75 1500 VRB/05 RMK AO2 T02110167
03949KAQV AQV20190411081011804/11/19 08:10:31  5-MIN KAQV 111410Z AUTO 22004KT 10SM BKN017 BKN025 21/17 A2970 580 78 1500 220/04 RMK AO2 T02110172
03949KAQV AQV20190411081511804/11/19 08:15:31  5-MIN KAQV 111415Z AUTO VRB05KT 10SM BKN017 OVC025 22/17 A2971 570 73 1600 VRB/05 RMK AO2 T02220172
03949KAQV AQV20190411082011804/11/19 08:20:31  5-MIN KAQV 111420Z AUTO 18008KT 10SM BKN017 OVC025 22/17 A2971 570 73 1600 170/08 RMK AO2 T02220172
03949KAQV AQV20190411082511804/11/19 08:25:31  5-MIN KAQV 111425Z AUTO 16008KT 10SM BKN019 OVC025 23/17 A2970 580 70 1700 160/08 RMK AO2 T02280172
03949KAQV AQV20190411083011804/11/19 08:30:31  5-MIN KAQV 111430Z AUTO 18008KT 10SM BKN019 OVC027 22/17 A2970 580 73 1600 180/08 RMK AO2 T02220172
03949KAQV AQV20190411083511804/11/19 08:35:31  5-MIN KAQV 111435Z AUTO 18009KT 10SM BKN019 BKN027 23/17 A2971 570 70 1700 180/09 RMK AO2 T02280172
03949KAQV AQV20190411084011804/11/19 08:40:31  5-MIN KAQV 111440Z AUTO 18007KT 10SM BKN019 BKN027 23/17 A2971 580 66 1700 180/07 RMK AO2 T02330167
03949KAQV AQV20190411084512404/11/19 08:45:31  5-MIN KAQV 111445Z AUTO 19009G15KT 10SM BKN019 BKN025 23/17 A2971 570 66 1700 180/09G15 RMK AO2 T02330167
03949KAQV AQV20190411085013704/11/19 08:50:31  5-MIN KAQV 111450Z AUTO VRB04G16KT 10SM SCT021 BKN025 23/17 A2971 570 68 1600 VRB/04G16 RMK AO2 SLP059 T02280167 53029
03949KAQV AQV20190411085513004/11/19 08:55:31  5-MIN KAQV 111455Z AUTO VRB06G16KT 10SM BKN023 24/17 A2972 570 63 1800 VRB/06G16 RMK AO2 SLP060 T02390167 53029
03949KAQV AQV20190411090012704/11/19 09:00:31  5-MIN KAQV 111500Z AUTO 18007KT 150V240 10SM BKN023 23/17 A2971 570 68 1600 180/07 150V240 RMK AO2 T02280167
03949KAQV AQV20190411090511104/11/19 09:05:31  5-MIN KAQV 111505Z AUTO VRB06KT 10SM SCT025 23/17 A2971 570 68 1600 VRB/06 RMK AO2 T02280167
03949KAQV AQV20190411091013404/11/19 09:10:31  5-MIN KAQV 111510Z AUTO 18007KT 160V230 10SM SCT025 SCT031 23/17 A2971 570 66 1700 180/07 160V230 RMK AO2 T02330167
03949KAQV AQV20190411091512404/11/19 09:15:31  5-MIN KAQV 111515Z AUTO 17011G17KT 10SM SCT025 SCT031 23/17 A2971 570 66 1700 170/11G17 RMK AO2 T02330167
03949KAQV AQV20190411092011704/11/19 09:20:31  5-MIN KAQV 111520Z AUTO VRB06G17KT 10SM FEW027 23/17 A2971 570 68 1600 VRB/06G17 RMK AO2 T02280167
03949KAQV AQV20190411092511104/11/19 09:25:31  5-MIN KAQV 111525Z AUTO VRB06KT 10SM FEW024 23/17 A2971 570 66 1700 VRB/06 RMK AO2 T02330167
03949KAQV AQV20190411093011704/11/19 09:30:31  5-MIN KAQV 111530Z AUTO 17008G16KT 10SM FEW026 23/16 A2970 580 63 1700 170/08G16 RMK AO2 T02330161
03949KAQV AQV20190411093510104/11/19 09:35:31  5-MIN KAQV 111535Z AUTO 10SM SCT026 24/17 A2970 580 63 1800 M /M RMK AO2 T02390167
03949KAQV AQV20190411094011104/11/19 09:40:31  5-MIN KAQV 111540Z AUTO VRB06KT 10SM SCT028 24/17 A2970 580 61 1800 VRB/06 RMK AO2 T02440167
03949KAQV AQV20190411094514004/11/19 09:45:31  5-MIN KAQV 111545Z AUTO 18011G19KT 140V230 10SM SCT028 BKN037 25/17 A2970 580 59 1900 180/11G19 140V230 RMK AO2 T02500167
03949KAQV AQV20190411095014704/11/19 09:50:31  5-MIN KAQV 111550Z AUTO 17009G19KT 140V220 10SM SCT028 BKN035 24/16 A2970 580 61 1800 170/09G19 140V220 RMK AO2 SLP054 T02390161
03949KAQV AQV20190411095514704/11/19 09:55:31  5-MIN KAQV 111555Z AUTO 20007G17KT 140V240 10SM FEW028 SCT035 24/16 A2970 580 59 1900 200/07G17 140V240 RMK AO2 SLP053 T02440161
03949KAQV AQV20190411100013304/11/19 10:00:31  5-MIN KAQV 111600Z AUTO 18007G16KT 140V230 10SM SCT030 24/16 A2969 590 61 1800 180/07G16 140V230 RMK AO2 T02390161
03949KAQV AQV20190411100511704/11/19 10:05:31  5-MIN KAQV 111605Z AUTO VRB06G18KT 10SM BKN032 25/17 A2970 580 59 1900 VRB/06G18 RMK AO2 T02500167
03949KAQV AQV20190411101013304/11/19 10:10:31  5-MIN KAQV 111610Z AUTO 18009G18KT 160V240 10SM BKN032 25/16 A2969 590 57 1900 180/09G18 160V240 RMK AO2 T02500161
03949KAQV AQV20190411101513304/11/19 10:15:31  5-MIN KAQV 111615Z AUTO 19008G19KT 120V230 10SM FEW033 25/16 A2969 590 57 1900 180/08G19 120V230 RMK AO2 T02500161
03949KAQV AQV20190411102013304/11/19 10:20:31  5-MIN KAQV 111620Z AUTO 17010G19KT 100V190 10SM FEW033 25/16 A2969 590 57 1900 160/10G19 100V190 RMK AO2 T02500161
03949KAQV AQV20190411102511704/11/19 10:25:31  5-MIN KAQV 111625Z AUTO 18010G20KT 10SM FEW034 24/16 A2969 590 59 1900 170/10G20 RMK AO2 T02440161
03949KAQV AQV20190411103013304/11/19 10:30:31  5-MIN KAQV 111630Z AUTO 21007G20KT 170V250 10SM FEW034 26/16 A2969 590 55 2000 210/07G20 170V250 RMK AO2 T02560161
03949KAQV AQV20190411103514004/11/19 10:35:31  5-MIN KAQV 111635Z AUTO 18010G14KT 160V220 10SM FEW034 SCT041 26/16 A2969 590 55 2000 180/10G14 160V220 RMK AO2 T02560161
03949KAQV AQV20190411104014004/11/19 10:40:31  5-MIN KAQV 111640Z AUTO 19008G19KT 160V230 10SM SCT034 SCT041 25/16 A2969 590 57 1900 180/08G19 160V230 RMK AO2 T02500161
03949KAQV AQV20190411104512404/11/19 10:45:31  5-MIN KAQV 111645Z AUTO VRB06G19KT 10SM SCT034 BKN041 25/16 A2969 590 57 1900 VRB/06G19 RMK AO2 T02500161
03949KAQV AQV20190411105014104/11/19 10:50:31  5-MIN KAQV 111650Z AUTO 19007KT 150V230 10SM BKN036 BKN043 26/16 A2968 600 55 2000 190/07 150V230 RMK AO2 SLP049 T02560161
03949KAQV AQV20190411105514704/11/19 10:55:31  5-MIN KAQV 111655Z AUTO 17010G20KT 140V200 10SM BKN036 BKN043 26/16 A2968 600 55 2000 170/10G20 140V200 RMK AO2 SLP049 T02560161
03949KAQV AQV20190411110013304/11/19 11:00:31  5-MIN KAQV 111700Z AUTO 20008G20KT 160V240 10SM BKN036 27/16 A2968 600 52 2100 200/08G20 160V240 RMK AO2 T02670161
03949KAQV AQV20190411110511804/11/19 11:05:31  5-MIN KAQV 111705Z AUTO VRB06KT 10SM SCT035 BKN042 26/17 A2968 600 55 2100 VRB/06 RMK AO2 T02610167
03949KAQV AQV20190411111014004/11/19 11:10:31  5-MIN KAQV 111710Z AUTO 16008G15KT 110V200 10SM SCT037 SCT043 27/16 A2968 600 52 2100 160/08G15 110V200 RMK AO2 T02670161
03949KAQV AQV20190411111513304/11/19 11:15:31  5-MIN KAQV 111715Z AUTO 19008G16KT 120V310 10SM SCT037 27/16 A2968 600 52 2100 180/08G16 120V310 RMK AO2 T02670161
03949KAQV AQV20190411112013304/11/19 11:20:31  5-MIN KAQV 111720Z AUTO 22008G16KT 170V260 10SM SCT039 26/16 A2968 600 51 2100 220/08G16 170V260 RMK AO2 T02610156
03949KAQV AQV20190411112513304/11/19 11:25:31  5-MIN KAQV 111725Z AUTO 16008G16KT 120V210 10SM SCT039 27/16 A2968 600 50 2200 160/08G16 120V210 RMK AO2 T02720161
03949KAQV AQV20190411113012704/11/19 11:30:31  5-MIN KAQV 111730Z AUTO 17009KT 100V190 10SM FEW039 27/16 A2968 600 50 2200 160/09 100V190 RMK AO2 T02720161
03949KAQV AQV20190411113513304/11/19 11:35:31  5-MIN KAQV 111735Z AUTO 19007G20KT 160V230 10SM SCT041 27/16 A2968 600 50 2100 190/07G20 160V230 RMK AO2 T02670156
03949KAQV AQV20190411114013304/11/19 11:40:31  5-MIN KAQV 111740Z AUTO 21008G20KT 170V260 10SM FEW041 27/16 A2968 600 50 2100 210/08G20 170V260 RMK AO2 T02670156
03949KAQV AQV20190411114513304/11/19 11:45:31  5-MIN KAQV 111745Z AUTO 21010G18KT 170V250 10SM FEW041 27/15 A2968 600 48 2100 210/10G18 170V250 RMK AO2 T02670150
03949KAQV AQV20190411115014204/11/19 11:50:31  5-MIN KAQV 111750Z AUTO VRB06G18KT 10SM FEW043 27/16 A2968 600 50 2100 VRB/06G18 RMK AO2 SLP047 T02670156 10272 20189 51007
03949KAQV AQV20190411115514204/11/19 11:55:31  5-MIN KAQV 111755Z AUTO 18009G17KT 10SM SCT043 27/16 A2968 600 48 2200 180/09G17 RMK AO2 SLP047 T02720156 10272 20189 51007
03949KAQV AQV20190411120013304/11/19 12:00:31  5-MIN KAQV 111800Z AUTO 17010G19KT 050V250 10SM SCT043 27/16 A2968 600 50 2100 160/10G19 050V250 RMK AO2 T02670156
03949KAQV AQV20190411120513304/11/19 12:05:31  5-MIN KAQV 111805Z AUTO 19008G19KT 160V230 10SM SCT044 27/16 A2968 600 48 2200 180/08G19 160V230 RMK AO2 T02720156
03949KAQV AQV20190411121012404/11/19 12:10:31  5-MIN KAQV 111810Z AUTO 19010G15KT 10SM SCT044 SCT060 28/16 A2968 600 46 2200 180/10G15 RMK AO2 T02780156
03949KAQV AQV20190411121514004/11/19 12:15:31  5-MIN KAQV 111815Z AUTO 18008G20KT 140V230 10SM FEW044 SCT055 27/16 A2969 590 48 2200 170/08G20 140V230 RMK AO2 T02720156
03949KAQV AQV20190411122014004/11/19 12:20:31  5-MIN KAQV 111820Z AUTO 19009G20KT 160V220 10SM SCT044 SCT055 27/15 A2969 590 48 2100 180/09G20 160V220 RMK AO2 T02670150
03949KAQV AQV20190411122512404/11/19 12:25:31  5-MIN KAQV 111825Z AUTO VRB06G15KT 10SM SCT046 BKN055 26/15 A2969 590 50 2100 VRB/06G15 RMK AO2 T02610150
03949KAQV AQV20190411123013404/11/19 12:30:31  5-MIN KAQV 111830Z AUTO 19009KT 170V240 10SM SCT046 BKN060 27/16 A2969 590 50 2100 190/09 170V240 RMK AO2 T02670156
03949KAQV AQV20190411123512504/11/19 12:35:31  5-MIN KAQV 111835Z AUTO VRB06KT 10SM SCT046 BKN060 BKN070 26/15 A2969 590 50 2100 VRB/06 RMK AO2 T02610150
03949KAQV AQV20190411124011804/11/19 12:40:31  5-MIN KAQV 111840Z AUTO VRB04KT 10SM BKN046 BKN060 27/16 A2969 590 48 2200 VRB/04 RMK AO2 T02720156
03949KAQV AQV20190411124514104/11/19 12:45:31  5-MIN KAQV 111845Z AUTO 20008KT 160V230 10SM SCT045 BKN060 BKN075 28/16 A2969 590 47 2300 190/08 160V230 RMK AO2 T02830161
03949KAQV AQV20190411125014804/11/19 12:50:31  5-MIN KAQV 111850Z AUTO 19007KT 130V250 10SM SCT045 BKN065 BKN075 28/16 A2968 600 47 2300 180/07 130V250 RMK AO2 SLP049 T02830161
03949KAQV AQV20190411125514704/11/19 12:55:31  5-MIN KAQV 111855Z AUTO 20008G15KT 160V230 10SM FEW045 BKN070 27/15 A2969 590 46 2200 190/08G15 160V230 RMK AO2 SLP050 T02720150
03949KAQV AQV20190411130014004/11/19 13:00:31  5-MIN KAQV 111900Z AUTO 24007G16KT 200V260 10SM FEW045 BKN070 27/15 A2969 590 46 2200 230/07G16 200V260 RMK AO2 T02720150
03949KAQV AQV20190411130514704/11/19 13:05:31  5-MIN KAQV 111905Z AUTO 20008G17KT 170V240 10SM FEW045 BKN065 BKN075 27/14 A2969 590 46 2100 200/08G17 170V240 RMK AO2 T02670144
03949KAQV AQV20190411131014004/11/19 13:10:31  5-MIN KAQV 111910Z AUTO 20008G17KT 170V250 10SM FEW045 BKN070 27/15 A2968 600 46 2200 200/08G17 170V250 RMK AO2 T02720150
03949KAQV AQV20190411131513104/11/19 13:15:31  5-MIN KAQV 111915Z AUTO 19009G18KT 10SM FEW045 BKN070 BKN080 27/15 A2969 590 48 2100 190/09G18 RMK AO2 T02670150
03949KAQV AQV20190411132013104/11/19 13:20:31  5-MIN KAQV 111920Z AUTO VRB05G18KT 10SM FEW048 SCT060 BKN075 26/15 A2968 600 50 2100 VRB/05G18 RMK AO2 T02610150
03949KAQV AQV20190411132512504/11/19 13:25:31  5-MIN KAQV 111925Z AUTO VRB05KT 10SM FEW048 BKN060 BKN075 27/16 A2968 600 48 2200 VRB/05 RMK AO2 T02720156
03949KAQV AQV20190411133014704/11/19 13:30:31  5-MIN KAQV 111930Z AUTO 22009G16KT 170V260 10SM FEW048 SCT060 BKN075 28/16 A2968 600 45 2300 220/09G16 170V260 RMK AO2 T02830156
03949KAQV AQV20190411133514004/11/19 13:35:31  5-MIN KAQV 111935Z AUTO 21009G17KT 130V250 10SM FEW050 SCT070 28/15 A2968 600 45 2200 200/09G17 130V250 RMK AO2 T02780150
03949KAQV AQV20190411134013104/11/19 13:40:31  5-MIN KAQV 111940Z AUTO 18009G17KT 10SM FEW050 SCT070 SCT080 27/15 A2968 600 46 2200 180/09G17 RMK AO2 T02720150
03949KAQV AQV20190411134512404/11/19 13:45:31  5-MIN KAQV 111945Z AUTO 20008G17KT 10SM FEW048 SCT065 28/15 A2967 600 45 2300 190/08G17 RMK AO2 T02780150
03949KAQV AQV20190411135012404/11/19 13:50:31  5-MIN KAQV 111950Z AUTO 19009G17KT 10SM SCT050 28/15 A2967 610 45 2300 180/09G17 RMK AO2 SLP045 T02780150
03949KAQV AQV20190411135514004/11/19 13:55:31  5-MIN KAQV 111955Z AUTO 19009G17KT 140V240 10SM FEW050 28/15 A2967 610 45 2300 180/09G17 140V240 RMK AO2 SLP044 T02780150
03949KAQV AQV20190411140011704/11/19 14:00:31  5-MIN KAQV 112000Z AUTO 18013G19KT 10SM FEW049 28/15 A2967 610 45 2300 180/13G19 RMK AO2 T02780150
03949KAQV AQV20190411140511704/11/19 14:05:31  5-MIN KAQV 112005Z AUTO VRB06G19KT 10SM FEW049 28/15 A2967 610 45 2300 VRB/06G19 RMK AO2 T02780150
03949KAQV AQV20190411141011704/11/19 14:10:31  5-MIN KAQV 112010Z AUTO 19010G18KT 10SM FEW049 28/15 A2967 610 43 2300 180/10G18 RMK AO2 T02830150
03949KAQV AQV20190411141511404/11/19 14:15:31  5-MIN KAQV 112015Z AUTO 19012G19KT 10SM CLR 27/14 A2967 610 43 2200 180/12G19 RMK AO2 T02720139
03949KAQV AQV20190411142011704/11/19 14:20:31  5-MIN KAQV 112020Z AUTO 18009G19KT 10SM FEW050 27/14 A2966 610 45 2200 170/09G19 RMK AO2 T02720144
03949KAQV AQV20190411142513204/11/19 14:25:31  5-MIN KAQV 112025Z AUTO 18010G18KT 150V220 8SM SCT050 28/15 A2966 620 45 2300 180/10G18 150V220 RMK AO2 T02780150
03949KAQV AQV20190411143013204/11/19 14:30:31  5-MIN KAQV 112030Z AUTO 18007G18KT 150V220 8SM SCT050 28/14 A2966 620 43 2300 180/07G18 150V220 RMK AO2 T02780144
03949KAQV AQV20190411143513304/11/19 14:35:31  5-MIN KAQV 112035Z AUTO 18008G17KT 150V210 10SM SCT050 28/14 A2966 620 43 2300 180/08G17 150V210 RMK AO2 T02780144
03949KAQV AQV20190411144011704/11/19 14:40:31  5-MIN KAQV 112040Z AUTO 17008G17KT 10SM SCT050 28/14 A2966 620 43 2300 170/08G17 RMK AO2 T02780144
03949KAQV AQV20190411144514704/11/19 14:45:31  5-MIN KAQV 112045Z AUTO 17008G17KT 130V220 10SM SCT050 BKN065 BKN090 28/15 A2965 620 45 2300 170/08G17 130V220 RMK AO2 T02780150
03949KAQV AQV20190411145016004/11/19 14:50:31  5-MIN KAQV 112050Z AUTO 19010G17KT 160V230 10SM SCT050 BKN065 BKN085 27/15 A2966 620 46 2200 180/10G17 160V230 RMK AO2 SLP040 T02720150 56012
03949KAQV AQV20190411145514404/11/19 14:55:31  5-MIN KAQV 112055Z AUTO 18009G18KT 10SM SCT050 SCT060 BKN080 27/14 A2966 620 46 2100 180/09G18 RMK AO2 SLP040 T02670144 56012
03949KAQV AQV20190411150014704/11/19 15:00:31  5-MIN KAQV 112100Z AUTO 19007G18KT 160V230 10SM FEW050 SCT060 BKN075 27/14 A2966 620 46 2100 190/07G18 160V230 RMK AO2 T02670144
03949KAQV AQV20190411150514704/11/19 15:05:31  5-MIN KAQV 112105Z AUTO 17007G17KT 120V210 10SM FEW050 SCT060 BKN075 26/15 A2966 620 50 2100 170/07G17 120V210 RMK AO2 T02610150
03949KAQV AQV20190411151014704/11/19 15:10:31  5-MIN KAQV 112110Z AUTO 19007G18KT 160V220 10SM FEW050 BKN075 OVC090 26/14 A2966 620 48 2100 180/07G18 160V220 RMK AO2 T02610144
03949KAQV AQV20190411151514004/11/19 15:15:31  5-MIN KAQV 112115Z AUTO 18008G18KT 150V220 10SM FEW050 BKN080 27/15 A2965 620 48 2100 180/08G18 150V220 RMK AO2 T02670150
03949KAQV AQV20190411152011804/11/19 15:20:31  5-MIN KAQV 112120Z AUTO 17007KT 10SM FEW055 OVC080 26/14 A2965 620 48 2100 170/07 RMK AO2 T02610144
03949KAQV AQV20190411152514704/11/19 15:25:31  5-MIN KAQV 112125Z AUTO 18009G16KT 150V220 10SM FEW060 BKN080 BKN095 27/15 A2965 620 48 2200 180/09G16 150V220 RMK AO2 T02670150
03949KAQV AQV20190411153013104/11/19 15:30:31  5-MIN KAQV 112130Z AUTO 18008G16KT 10SM FEW060 BKN080 BKN090 27/15 A2965 620 48 2200 180/08G16 RMK AO2 T02670150
03949KAQV AQV20190411153513204/11/19 15:35:31  5-MIN KAQV 112135Z AUTO 19008G15KT 150V230 9SM SCT080 27/15 A2965 630 48 2200 190/08G15 150V230 RMK AO2 T02670150
03949KAQV AQV20190411154011604/11/19 15:40:31  5-MIN KAQV 112140Z AUTO 18008G17KT 9SM SCT085 26/15 A2965 630 50 2100 180/08G17 RMK AO2 T02610150
03949KAQV AQV20190411154511704/11/19 15:45:31  5-MIN KAQV 112145Z AUTO 18008G17KT 10SM FEW080 27/15 A2965 630 48 2200 180/08G17 RMK AO2 T02670150
03949KAQV AQV20190411155013704/11/19 15:50:31  5-MIN KAQV 112150Z AUTO 19007G16KT 150V220 10SM CLR 27/15 A2965 630 48 2200 180/07G16 150V220 RMK AO2 SLP036 T02670150
03949KAQV AQV20190411155513704/11/19 15:55:31  5-MIN KAQV 112155Z AUTO 18010G15KT 150V220 10SM CLR 26/15 A2964 630 50 2100 180/10G15 150V220 RMK AO2 SLP035 T02610150
03949KAQV AQV20190411160011404/11/19 16:00:31  5-MIN KAQV 112200Z AUTO 19010G17KT 10SM CLR 26/15 A2965 630 50 2100 180/10G17 RMK AO2 T02610150
03949KAQV AQV20190411160513004/11/19 16:05:31  5-MIN KAQV 112205Z AUTO 19008G17KT 160V250 10SM CLR 26/15 A2965 630 50 2100 180/08G17 160V250 RMK AO2 T02610150
03949KAQV AQV20190411161013304/11/19 16:10:31  5-MIN KAQV 112210Z AUTO 19009G17KT 160V240 10SM FEW045 26/16 A2966 620 53 2000 190/09G17 160V240 RMK AO2 T02560156
03949KAQV AQV20190411161511704/11/19 16:15:31  5-MIN KAQV 112215Z AUTO 17011G19KT 10SM FEW045 26/15 A2966 620 51 2000 170/11G19 RMK AO2 T02560150
03949KAQV AQV20190411162011704/11/19 16:20:31  5-MIN KAQV 112220Z AUTO 19008G19KT 10SM FEW049 26/16 A2966 620 53 2000 190/08G19 RMK AO2 T02560156
03949KAQV AQV20190411162511704/11/19 16:25:31  5-MIN KAQV 112225Z AUTO 19009G16KT 10SM SCT049 26/16 A2966 620 53 2000 190/09G16 RMK AO2 T02560156
03949KAQV AQV20190411163012404/11/19 16:30:31  5-MIN KAQV 112230Z AUTO 19008G17KT 10SM SCT047 BKN060 25/16 A2966 610 55 2000 190/08G17 RMK AO2 T02500156
03949KAQV AQV20190411163512404/11/19 16:35:31  5-MIN KAQV 112235Z AUTO VRB06G17KT 10SM FEW047 SCT060 25/16 A2966 610 55 2000 VRB/06G17 RMK AO2 T02500156
03949KAQV AQV20190411164011804/11/19 16:40:31  5-MIN KAQV 112240Z AUTO VRB06KT 10SM FEW050 SCT060 24/16 A2966 620 57 1900 VRB/06 RMK AO2 T02440156
03949KAQV AQV20190411164512504/11/19 16:45:31  5-MIN KAQV 112245Z AUTO VRB05KT 10SM FEW048 SCT060 BKN090 24/16 A2966 610 59 1900 VRB/05 RMK AO2 T02440161
03949KAQV AQV20190411165014804/11/19 16:50:31  5-MIN KAQV 112250Z AUTO 18007KT 140V220 10SM FEW038 SCT048 BKN090 25/16 A2966 610 57 2000 180/07 140V220 RMK AO2 SLP042 T02500161
03949KAQV AQV20190411165513204/11/19 16:55:31  5-MIN KAQV 112255Z AUTO 18009KT 10SM SCT038 SCT050 BKN060 25/16 A2966 610 57 2000 170/09 RMK AO2 SLP042 T02500161
03949KAQV AQV20190411170012504/11/19 17:00:31  5-MIN KAQV 112300Z AUTO 16008KT 10SM SCT038 BKN050 BKN060 24/16 A2967 610 59 1900 160/08 RMK AO2 T02440161
03949KAQV AQV20190411170512504/11/19 17:05:31  5-MIN KAQV 112305Z AUTO 17006KT 10SM SCT038 BKN055 OVC090 24/16 A2967 610 59 1900 160/06 RMK AO2 T02440161
03949KAQV AQV20190411171013104/11/19 17:10:31  5-MIN KAQV 112310Z AUTO 17007G15KT 10SM BKN038 BKN050 OVC090 24/16 A2967 610 59 1900 160/07G15 RMK AO2 T02440161
03949KAQV AQV20190411171513104/11/19 17:15:31  5-MIN KAQV 112315Z AUTO VRB05G15KT 10SM BKN038 BKN050 OVC080 24/16 A2967 610 61 1800 VRB/05G15 RMK AO2 T02390161
03949KAQV AQV20190411172012504/11/19 17:20:31  5-MIN KAQV 112320Z AUTO VRB06KT 10SM SCT038 BKN048 OVC080 24/16 A2967 610 61 1800 VRB/06 RMK AO2 T02390161
03949KAQV AQV20190411172512504/11/19 17:25:31  5-MIN KAQV 112325Z AUTO 18004KT 10SM SCT038 BKN048 OVC080 24/16 A2967 600 61 1800 170/04 RMK AO2 T02390161
03949KAQV AQV20190411173012504/11/19 17:30:31  5-MIN KAQV 112330Z AUTO VRB06KT 10SM SCT038 BKN049 OVC080 24/16 A2967 610 61 1800 VRB/06 RMK AO2 T02390161
03949KAQV AQV20190411173512504/11/19 17:35:31  5-MIN KAQV 112335Z AUTO 18007KT 10SM FEW036 SCT049 OVC075 24/16 A2967 600 61 1800 180/07 RMK AO2 T02390161
03949KAQV AQV20190411174012504/11/19 17:40:31  5-MIN KAQV 112340Z AUTO 19005KT 10SM FEW036 FEW049 OVC075 24/16 A2968 600 61 1800 180/05 RMK AO2 T02390161
03949KAQV AQV20190411174512504/11/19 17:45:31  5-MIN KAQV 112345Z AUTO 19006KT 10SM FEW036 FEW049 OVC070 23/16 A2968 600 63 1700 180/06 RMK AO2 T02330161
03949KAQV AQV20190411175013604/11/19 17:50:31  5-MIN KAQV 112350Z AUTO VRB04KT 10SM OVC070 23/16 A2968 600 63 1700 VRB/04 RMK AO2 SLP047 T02330161 10283 20233 58007
03949KAQV AQV20190411175513604/11/19 17:55:31  5-MIN KAQV 112355Z AUTO VRB04KT 10SM OVC070 23/16 A2968 600 63 1700 VRB/04 RMK AO2 SLP048 T02330161 10283 20233 58007
03949KAQV AQV20190411180011104/11/19 18:00:31  5-MIN KAQV 120000Z AUTO VRB05KT 10SM OVC070 23/16 A2968 600 63 1700 VRB/05 RMK AO2 T02330161
03949KAQV AQV20190411180511104/11/19 18:05:31  5-MIN KAQV 120005Z AUTO 18005KT 10SM OVC065 23/16 A2968 600 63 1700 180/05 RMK AO2 T02330161
03949KAQV AQV20190411181011804/11/19 18:10:31  5-MIN KAQV 120010Z AUTO VRB03KT 10SM FEW033 OVC065 23/16 A2968 600 63 1700 VRB/03 RMK AO2 T02330161
03949KAQV AQV20190411181513404/11/19 18:15:31  5-MIN KAQV 120015Z AUTO 18007KT 150V210 10SM FEW033 OVC065 23/17 A2968 600 66 1700 180/07 150V210 RMK AO2 T02330167
03949KAQV AQV20190411182012504/11/19 18:20:31  5-MIN KAQV 120020Z AUTO 18005KT 10SM FEW033 SCT047 OVC065 23/17 A2968 590 66 1700 170/05 RMK AO2 T02330167
03949KAQV AQV20190411182512504/11/19 18:25:31  5-MIN KAQV 120025Z AUTO VRB06KT 10SM FEW033 BKN045 OVC065 23/17 A2968 600 68 1700 VRB/06 RMK AO2 T02280167
03949KAQV AQV20190411183012504/11/19 18:30:31  5-MIN KAQV 120030Z AUTO VRB06KT 10SM FEW034 BKN044 OVC065 23/17 A2968 600 68 1700 VRB/06 RMK AO2 T02280167
03949KAQV AQV20190411183512504/11/19 18:35:31  5-MIN KAQV 120035Z AUTO 17006KT 10SM FEW034 BKN048 OVC060 23/17 A2968 600 68 1700 170/06 RMK AO2 T02280167
03949KAQV AQV20190411184012504/11/19 18:40:31  5-MIN KAQV 120040Z AUTO 17004KT 10SM FEW031 BKN048 OVC060 23/17 A2968 600 68 1700 170/04 RMK AO2 T02280167
03949KAQV AQV20190411184512504/11/19 18:45:31  5-MIN KAQV 120045Z AUTO 17004KT 10SM FEW031 BKN042 OVC070 23/17 A2968 600 68 1700 160/04 RMK AO2 T02280167
03949KAQV AQV20190411185013204/11/19 18:50:31  5-MIN KAQV 120050Z AUTO VRB03KT 10SM SCT037 BKN044 OVC055 23/17 A2969 590 68 1700 VRB/03 RMK AO2 SLP049 T02280167
03949KAQV AQV20190411185513204/11/19 18:55:31  5-MIN KAQV 120055Z AUTO 17004KT 10SM BKN035 BKN048 OVC060 23/17 A2969 590 68 1700 170/04 RMK AO2 SLP049 T02280167
03949KAQV AQV20190411190012504/11/19 19:00:31  5-MIN KAQV 120100Z AUTO 19003KT 10SM FEW028 BKN035 OVC060 23/17 A2969 590 68 1700 190/03 RMK AO2 T02280167
03949KAQV AQV20190411190508504/11/19 19:05:31  5-MIN KAQV 120105Z AUTO 0A2982 460 83 600 VRB/03 RMK AO2 T01500122
03949KAQV AQV20190412003011004/12/19 00:30:31  5-MIN KAQV 120630Z AUTO 35003KT 10SM BKN070 15/12 A2982 470 83 600 350/03 RMK AO2 T01500122
03949KAQV AQV20190412010011004/12/19 01:00:31  5-MIN KAQV 120700Z AUTO 34003KT 10SM TS CLR 14/11 A2981 480 80 600 340/03 RMK AO2 T01440111
03949KAQV AQV20190412010511004/12/19 01:05:31  5-MIN KAQV 120705Z AUTO 34003KT 10SM TS CLR 14/11 A2981 480 77 600 340/03 RMK AO2 T01440106
03949KAQV AQV20190412011014804/12/19 01:10:31  5-MIN KAQV 120710Z AUTO 35003KT 10SM TS CLR 14/11 A2981 480 80 500 340/03 RMK AO2 T0139010611 480 74 600 360/04 RMK AO2 T01440100
03949KAQV AQV20190412011511004/12/19 01:15:31  5-MIN KAQV 120715Z AUTO 36004KT 10SM TS CLR 14/10 A2981 480 74 600 360/04 RMK AO2 T01440100
03949KAQV AQV20190412012011004/12/19 01:20:31  5-MIN KAQV 120720Z AUTO VRB04KT 10SM TS CLR 14/11 A2981 480 80 500 VRB/04 RMK AO2 T01390106
03949KAQV AQV20190412012511304/12/19 01:25:31  5-MIN KAQV 120725Z AUTO 00000KT 10SM CLR 14/11 A2982 470 80 500 000/00 RMK AO2 TSE24 T01390106
03949KAQV AQV20190412013011304/12/19 01:30:31  5-MIN KAQV 120730Z AUTO 00000KT 10S4/12/19 01:10:983 460 77 500 000/00 RMK AO2 TSE24 T01390100
03949KAQV AQV20190412013011304/12/19 01:30:31  5-MIN KAQV 120730Z AUTO 00000KT 10SM CLR 14/10 A2983 460 77 500 000/00 RMK AO2 TSE24 T01390100
03949KAQV AQV20190412013511304/12/19 01:35:31  5-MIN KAQV 120735Z AUTO 00000KT 10SM CLR 14/11 A2982 470 80 500 000/00 RMK AO2 TSE24 T01390106
03949KAQV AQV20190412014011304/12/19 01:40:31  5-MIN KAQV 120740Z AUTO 00000KT 10SM CLR 14/11 A2982 470 80 500 000/00 RMK AO2 TSE24 T01390106
03949KAQV AQV20190412014511304/12/19 01:45:31  5-MIN KAQV 120745Z AUTO 00000KT 10SM CLR 13/11 A2982 470 86 400 000/00 RMK AO2 TSE24 T01330111
03949KAQV AQV20190412014516204/12/19 01:45:31  5-MIN KAQV 120745Z AUTO 00000KT 10SM CLR 13/11 A2982 470 86 400 000/00 RM 10SM CLR 14/11 A2982 470 86 400 000/00 RMK AO2 TSE24 SLP097 T01330111
03949KAQV AQV20190412015012004/12/19 01:50:31  5-MIN KAQV 120750Z AUTO 00000KT 10SM CLR 13/11 A2982 470 86 400 000/00 RMK AO2 TSE24 SLP097 T01330111
03949KAQV AQV20190412015512004/12/19 01:55:31  5-MIN KAQV 120755Z AUTO 00000KT 10SM CLR 13/11 A2982 470 86 400 000/00 RMK AO2 TSE24 SLP097 T01330111
03949KAQV AQV20190412020010704/12/19 02:00:31  5-MIN KAQV 120800Z AUTO 00000KT 10SM CLR 14/11 A2982 470 83 500 000/00 RMK AO2 T01390111
03949KAQV AQV20190412020021204/12/19 02:00:31  5-MIN KAQV 120800Z AUTO 00000KT 10SM CLR 14/11 A2982 470 83 500 000/00 RMK AO2 T0139011104/12/19 0 RMK AO2 TSE24 T0139010604/12/100000KT 10SM CLR 13/12 A2982 470 89 400 000/00 RMK AO2 T01330117
03949KAQV AQV20190412020510704/12/19 02:05:31  5-MIN KAQV 120805Z AUTO 00000KT 10SM CLR 13/12 A2982 470 89 400 000/00 RMK AO2 T01330117
03949KAQV AQV20190412021010704/12/19 02:10:31  5-MIN KAQV 120810Z AUTO VRB03KT 10SM CLR 14/11 A2982 470 83 500 VRB/03 RMK AO2 T01390111
03949KAQV AQV20190412021510704/12/19 02:15:31  5-MIN KAQV 120815Z AUTO 01003KT 10SM CLR 14/10 A2982 470 77 500 010/03 RMK AO2 T01390100
03949KAQV AQV20190412022010704/12/19 02:20:31  5-MIN KAQV 120820Z AUTO 00000KT 10SM CLR 14/10 A2982 470 77 500 000/00 RMK AO2 T01390100
03949KAQV AQV20190412022510704/12/19 02:25:31  5-MIN KAQV 120825Z AUTO 02003KT 10SM CLR 14/10 A2982 470 77 500 010/03 RMK AO2 T01390100
03949KAQV AQV20190412023010704/12/19 02:30:31  5-MIN KAQV 120830Z AUTO 00000KT 10SM CLR 14/10 A2982 470 77 500 000/00 RMK AO2 T01390100
03949KAQV AQV20190412023510704/12/19 02:35:31  5-MIN KAQV 120835Z AUTO 36004KT 10SM CLR 14/11 A2982 470 80 500 360/04 RMK AO2 T01390106
03949KAQV AQV20190412024010704/12/19 02:40:31  5-MIN KAQV 120840Z AUTO 01003KT 10SM CLR 13/11 A2982 470 83 400 360/03 RMK AO2 T01330106
03949KAQV AQV20190412024510704/12/19 02:45:31  5-MIN KAQV 120845Z AUTO 02003KT 10SM CLR 14/11 A2982 470 80 500 020/03 RMK AO2 T01390106
03949KAQV AQV20190412025012004/12/19 02:50:31  5-MIN KAQV 120850Z AUTO 03003KT 10SM CLR 14/10 A2982 470 77 500 030/03 RMK AO2 SLP095 T01390100 51019
03949KAQV AQV20190412025512004/12/19 02:55:31  5-MIN KAQV 120855Z AUTO 00000KT 10SM CLR 14/10 A2982 470 77 500 000/00 RMK AO2 SLP097 T01390100 51019
03949KAQV AQV20190412030010704/12/19 03:00:31  5-MIN KAQV 120900Z AUTO 05003KT 10SM CLR 14/10 A2983 460 77 500 040/03 RMK AO2 T01390100
03949KAQV AQV20190412030510704/12/19 03:05:31  5-MIN KAQV 120905Z AUTO 00000KT 10SM CLR 14/10 A2983 460 77 500 000/00 RMK AO2 T01390100
03949KAQV AQV20190412031010704/12/19 03:10:31  5-MIN KAQV 120910Z AUTO 00000KT 10SM CLR 14/10 A2983 460 77 500 000/00 RMK AO2 T01390100
03949KAQV AQV20190412031510704/12/19 03:15:31  5-MIN KAQV 120915Z AUTO 06004KT 10SM CLR 14/10 A2983 460 77 500 050/04 RMK AO2 T01390100
03949KAQV AQV20190412032010704/12/19 03:20:31  5-MIN KAQV 120920Z AUTO VRB03KT 10SM CLR 14/10 A2983 460 77 500 VRB/03 RMK AO2 T01390100
03949KAQV AQV20190412032510704/12/19 03:25:31  5-MIN KAQV 120925Z AUTO VRB03KT 10SM CLR 14/10 A2983 460 77 500 VRB/03 RMK AO2 T01390100
03949KAQV AQV20190412033010704/12/19 03:30:31  5-MIN KAQV 120930Z AUTO 02003KT 10SM CLR 14/10 A2983 460 77 500 010/03 RMK AO2 T01390100
03949KAQV AQV20190412033510704/12/19 03:35:31  5-MIN KAQV 120935Z AUTO 01003KT 10SM CLR 14/10 A2982 470 77 500 360/03 RMK AO2 T01390100
03949KAQV AQV20190412034010704/12/19 03:40:31  5-MIN KAQV 120940Z AUTO VRB03KT 10SM CLR 14/10 A2982 470 77 500 VRB/03 RMK AO2 T01390100
03949KAQV AQV20190412034510704/12/19 03:45:31  5-MIN KAQV 120945Z AUTO 00000KT 10SM CLR 14/10 A2983 460 77 500 000/00 RMK AO2 T01390100
03949KAQV AQV20190412035011404/12/19 03:50:31  5-MIN KAQV 120950Z AUTO 06003KT 10SM CLR 14/10 A2982 470 77 500 060/03 RMK AO2 SLP096 T01390100
03949KAQV AQV20190412035511404/12/19 03:55:31  5-MIN KAQV 120955Z AUTO 00000KT 10SM CLR 13/10 A2983 460 80 400 000/00 RMK AO2 SLP099 T01330100
03949KAQV AQV20190412040010704/12/19 04:00:31  5-MIN KAQV 121000Z AUTO 00000KT 10SM CLR 13/10 A2984 450 80 400 000/00 RMK AO2 T01330100
03949KAQV AQV20190412040510704/12/19 04:05:31  5-MIN KAQV 121005Z AUTO 00000KT 10SM CLR 13/11 A2983 460 83 400 000/00 RMK AO2 T01330106
03949KAQV AQV20190412041010704/12/19 04:10:31  5-MIN KAQV 121010Z AUTO 36003KT 10SM CLR 13/11 A2983 460 86 400 360/03 RMK AO2 T01330111
03949KAQV AQV20190412041510704/12/19 04:15:31  5-MIN KAQV 121015Z AUTO 36003KT 10SM CLR 13/11 A2984 450 83 400 350/03 RMK AO2 T01330106
03949KAQV AQV20190412042010704/12/19 04:20:31  5-MIN KAQV 121020Z AUTO 03003KT 10SM CLR 13/11 A2983 460 83 400 020/03 RMK AO2 T01330106
03949KAQV AQV20190412042510704/12/19 04:25:31  5-MIN KAQV 121025Z AUTO 01003KT 10SM CLR 13/09 A2983 460 77 400 010/03 RMK AO2 T01330094
03949KAQV AQV20190412043010704/12/19 04:30:31  5-MIN KAQV 121030Z AUTO 36004KT 10SM CLR 14/09 A2984 450 74 500 350/04 RMK AO2 T01390094
03949KAQV AQV20190412043510704/12/19 04:35:31  5-MIN KAQV 121035Z AUTO 00000KT 10SM CLR 13/10 A2985 440 80 400 000/00 RMK AO2 T01330100
03949KAQV AQV20190412044010704/12/19 04:40:31  5-MIN KAQV 121040Z AUTO 03003KT 10SM CLR 14/09 A2985 440 74 500 020/03 RMK AO2 T01390094
03949KAQV AQV20190412044510704/12/19 04:45:31  5-MIN KAQV 121045Z AUTO VRB03KT 10SM CLR 13/09 A2985 440 77 400 VRB/03 RMK AO2 T01330094
03949KAQV AQV20190412045011404/12/19 04:50:31  5-MIN KAQV 121050Z AUTO VRB03KT 10SM CLR 14/09 A2986 430 71 400 VRB/03 RMK AO2 SLP109 T01390089
03949KAQV AQV20190412045511404/12/19 04:55:31  5-MIN KAQV 121055Z AUTO 36003KT 10SM CLR 13/09 A2986 430 77 400 360/03 RMK AO2 SLP109 T01330094
03949KAQV AQV20190412050010704/12/19 05:00:31  5-MIN KAQV 121100Z AUTO 00000KT 10SM CLR 13/09 A2986 430 77 400 000/00 RMK AO2 T01330094
03949KAQV AQV20190412050510704/12/19 05:05:31  5-MIN KAQV 121105Z AUTO 05003KT 10SM CLR 13/09 A2986 440 77 400 050/03 RMK AO2 T01330094
03949KAQV AQV20190412051010704/12/19 05:10:31  5-MIN KAQV 121110Z AUTO 00000KT 10SM CLR 13/09 A2986 430 77 400 000/00 RMK AO2 T01330094
03949KAQV AQV20190412051510704/12/19 05:15:31  5-MIN KAQV 121115Z AUTO 02003KT 10SM CLR 13/09 A2986 430 77 400 020/03 RMK AO2 T01330094
03949KAQV AQV20190412052010704/12/19 05:20:31  5-MIN KAQV 121120Z AUTO 00000KT 10SM CLR 13/09 A2987 430 77 400 000/00 RMK AO2 T01330094
03949KAQV AQV20190412052510704/12/19 05:25:31  5-MIN KAQV 121125Z AUTO 03004KT 10SM CLR 13/10 A2987 420 80 400 020/04 RMK AO2 T01330100
03949KAQV AQV20190412053010704/12/19 05:30:31  5-MIN KAQV 121130Z AUTO 00000KT 10SM CLR 13/10 A2988 420 80 400 000/00 RMK AO2 T01330100
03949KAQV AQV20190412053511404/12/19 05:35:31  5-MIN KAQV 121135Z AUTO 00000KT 10SM CLR 13/10 A2988 410 80 300 000/00 RMK AO2 PRESRR T01330100
03949KAQV AQV20190412054010704/12/19 05:40:31  5-MIN KAQV 121140Z AUTO 00000KT 10SM CLR 13/10 A2989 410 80 300 000/00 RMK AO2 T01330100
03949KAQV AQV20190412054510704/12/19 05:45:31  5-MIN KAQV 121145Z AUTO 36003KT 10SM CLR 13/10 A2989 400 80 300 350/03 RMK AO2 T01330100
03949KAQV AQV20190412055013804/12/19 05:50:31  5-MIN KAQV 121150Z AUTO 03003KT 10SM CLR 13/11 A2989 400 83 300 030/03 RMK AO2 SLP120 70057 T01330106 10156 20133 53006
03949KAQV AQV20190412055513804/12/19 05:55:31  5-MIN KAQV 121155Z AUTO 00000KT 10SM CLR 13/10 A2989 400 83 300 000/00 RMK AO2 SLP120 70057 T01280100 10156 20128 53006
03949KAQV AQV20190412060010704/12/19 06:00:31  5-MIN KAQV 121200Z AUTO 00000KT 10SM CLR 13/11 A2989 400 83 300 000/00 RMK AO2 T01330106
03949KAQV AQV20190412060510704/12/19 06:05:31  5-MIN KAQV 121205Z AUTO 36003KT 10SM CLR 13/11 A2989 400 86 300 360/03 RMK AO2 T01280106
03949KAQV AQV20190412061010704/12/19 06:10:31  5-MIN KAQV 121210Z AUTO 00000KT 10SM CLR 13/11 A2990 390 83 300 000/00 RMK AO2 T01330106
03949KAQV AQV20190412061510704/12/19 06:15:31  5-MIN KAQV 121215Z AUTO 02003KT 10SM CLR 13/11 A2989 400 89 300 020/03 RMK AO2 T01280111
03949KAQV AQV20190412062010704/12/19 06:20:31  5-MIN KAQV 121220Z AUTO VRB03KT 10SM CLR 13/11 A2989 400 89 300 VRB/03 RMK AO2 T01280111
03949KAQV AQV20190412062510704/12/19 06:25:31  5-MIN KAQV 121225Z AUTO 01003KT 10SM CLR 13/11 A2989 410 86 300 010/03 RMK AO2 T01280106
03949KAQV AQV20190412063010704/12/19 06:30:31  5-MIN KAQV 121230Z AUTO 02003KT 10SM CLR 13/11 A2989 410 86 300 010/03 RMK AO2 T01330111
03949KAQV AQV20190412063510704/12/19 06:35:31  5-MIN KAQV 121235Z AUTO 36003KT 10SM CLR 13/11 A2989 410 89 300 350/03 RMK AO2 T01280111
03949KAQV AQV20190412064010704/12/19 06:40:31  5-MIN KAQV 121240Z AUTO 00000KT 10SM CLR 13/11 A2989 400 86 300 000/00 RMK AO2 T01330111
03949KAQV AQV20190412064510704/12/19 06:45:31  5-MIN KAQV 121245Z AUTO 00000KT 10SM CLR 13/11 A2990 400 86 300 000/00 RMK AO2 T01330111
03949KAQV AQV20190412065011404/12/19 06:50:31  5-MIN KAQV 121250Z AUTO 02003KT 10SM CLR 13/11 A2989 400 86 300 020/03 RMK AO2 SLP121 T01330111
03949KAQV AQV20190412065511404/12/19 06:55:31  5-MIN KAQV 121255Z AUTO VRB04KT 10SM CLR 13/11 A2989 410 86 300 VRB/04 RMK AO2 SLP119 T01330111
03949KAQV AQV20190412070010704/12/19 07:00:31  5-MIN KAQV 121300Z AUTO 00000KT 10SM CLR 13/11 A2989 400 83 300 000/00 RMK AO2 T01330106
03949KAQV AQV20190412070510704/12/19 07:05:31  5-MIN KAQV 121305Z AUTO 00000KT 10SM CLR 13/11 A2990 400 86 300 000/00 RMK AO2 T01330111
03949KAQV AQV20190412071010704/12/19 07:10:31  5-MIN KAQV 121310Z AUTO 02003KT 10SM CLR 13/11 A2989 400 83 300 010/03 RMK AO2 T01330106
03949KAQV AQV20190412071510704/12/19 07:15:31  5-MIN KAQV 121315Z AUTO VRB03KT 10SM CLR 13/11 A2989 410 83 300 VRB/03 RMK AO2 T01330106
03949KAQV AQV20190412072010704/12/19 07:20:31  5-MIN KAQV 121320Z AUTO 00000KT 10SM CLR 13/11 A2989 410 86 300 000/00 RMK AO2 T01330111
03949KAQV AQV20190412072511404/12/19 07:25:31  5-MIN KAQV 121325Z AUTO VRB03KT 10SM CLR 13/11 A2987 420 83 400 VRB/03 RMK AO2 PRESFR T01330106
03949KAQV AQV20190412073010704/12/19 07:30:31  5-MIN KAQV 121330Z AUTO VRB03KT 10SM CLR 13/11 A2990 400 86 300 VRB/03 RMK AO2 T01330111
03949KAQV AQV20190412073511004/12/19 07:35:31  5-MIN KAQV 121335Z AUTO 00000KT 10SM FEW120 13/11 A2990 400 86 300 000/00 RMK AO2 T01330111
03949KAQV AQV20190412074011004/12/19 07:40:31  5-MIN KAQV 121340Z AUTO 00000KT 10SM FEW120 13/11 A2990 400 86 300 000/00 RMK AO2 T01330111
03949KAQV AQV20190412074511004/12/19 07:45:31  5-MIN KAQV 121345Z AUTO VRB03KT 10SM FEW120 13/11 A2990 400 86 300 VRB/03 RMK AO2 T01330111
03949KAQV AQV20190412075012104/12/19 07:50:31  5-MIN KAQV 121350Z AUTO VRB06KT 10SM CLR 13/11 A2987 420 86 400 VRB/06 RMK AO2 PRESFR SLP114 T01330111
03949KAQV AQV20190412075511404/12/19 07:55:31  5-MIN KAQV 121355Z AUTO 31004KT 10SM CLR 13/11 A2991 390 86 300 300/04 RMK AO2 SLP127 T01330111
03949KAQV AQV20190412080010704/12/19 08:00:31  5-MIN KAQV 121400Z AUTO 04004KT 10SM CLR 13/11 A2990 400 86 300 040/04 RMK AO2 T01330111
03949KAQV AQV20190412080510704/12/19 08:05:31  5-MIN KAQV 121405Z AUTO VRB04KT 10SM CLR 13/11 A2990 400 86 300 VRB/04 RMK AO2 T01330111
03949KAQV AQV20190412081010704/12/19 08:10:31  5-MIN KAQV 121410Z AUTO 00000KT 10SM CLR 14/11 A2990 400 83 400 000/00 RMK AO2 T01390111
03949KAQV AQV20190412081510704/12/19 08:15:31  5-MIN KAQV 121415Z AUTO VRB03KT 10SM CLR 14/12 A2991 390 86 400 VRB/03 RMK AO2 T01390117
03949KAQV AQV20190412082010704/12/19 08:20:31  5-MIN KAQV 121420Z AUTO 00000KT 10SM CLR 14/12 A2990 390 86 400 000/00 RMK AO2 T01390117
03949KAQV AQV20190412082510704/12/19 08:25:31  5-MIN KAQV 121425Z AUTO VRB04KT 10SM CLR 14/12 A2988 410 86 400 VRB/04 RMK AO2 T01390117
03949KAQV AQV20190412083010704/12/19 08:30:31  5-MIN KAQV 121430Z AUTO 35003KT 10SM CLR 14/12 A2990 400 86 400 350/03 RMK AO2 T01390117
03949KAQV AQV20190412083510704/12/19 08:35:31  5-MIN KAQV 121435Z AUTO 07003KT 10SM CLR 14/12 A2990 400 90 400 070/03 RMK AO2 T01390122
03949KAQV AQV20190412084010704/12/19 08:40:31  5-MIN KAQV 121440Z AUTO 05005KT 10SM CLR 14/12 A2989 410 86 400 040/05 RMK AO2 T01390117
03949KAQV AQV20190412084510704/12/19 08:45:31  5-MIN KAQV 121445Z AUTO 35004KT 10SM CLR 14/12 A2990 400 83 500 350/04 RMK AO2 T01440117
03949KAQV AQV20190412085012004/12/19 08:50:31  5-MIN KAQV 121450Z AUTO 01003KT 10SM CLR 14/12 A2990 400 83 500 010/03 RMK AO2 SLP124 T01440117 53023
03949KAQV AQV20190412085512704/12/19 08:55:31  5-MIN KAQV 121455Z AUTO VRB04KT 10SM CLR 14/12 A2992 380 83 400 VRB/04 RMK AO2 PRESRR SLP130 T01440117 53023
03949KAQV AQV20190412090010704/12/19 09:00:31  5-MIN KAQV 121500Z AUTO 01003KT 10SM CLR 14/12 A2991 380 83 400 360/03 RMK AO2 T01440117
03949KAQV AQV20190412090510704/12/19 09:05:31  5-MIN KAQV 121505Z AUTO VRB04KT 10SM CLR 14/12 A2990 400 86 500 VRB/04 RMK AO2 T01440122
03949KAQV AQV20190412091010704/12/19 09:10:31  5-MIN KAQV 121510Z AUTO 01005KT 10SM CLR 15/12 A2991 390 83 500 010/05 RMK AO2 T01500122
03949KAQV AQV20190412091510704/12/19 09:15:31  5-MIN KAQV 121515Z AUTO 00000KT 10SM CLR 15/12 A2991 390 83 500 000/00 RMK AO2 T01500122
03949KAQV AQV20190412092010704/12/19 09:20:31  5-MIN KAQV 121520Z AUTO VRB04KT 10SM CLR 15/12 A2990 390 83 500 VRB/04 RMK AO2 T01500122
03949KAQV AQV20190412092511004/12/19 09:25:31  5-MIN KAQV 121525Z AUTO VRB06KT 10SM FEW075 15/12 A2992 380 83 500 VRB/06 RMK AO2 T01500122
03949KAQV AQV20190412093011004/12/19 09:30:31  5-MIN KAQV 121530Z AUTO 04004KT 10SM FEW075 15/12 A2991 380 83 500 030/04 RMK AO2 T01500122
03949KAQV AQV20190412093511004/12/19 09:35:31  5-MIN KAQV 121535Z AUTO VRB04KT 10SM FEW075 16/12 A2991 380 80 600 VRB/04 RMK AO2 T01560122
03949KAQV AQV20190412094010004/12/19 09:40:31  5-MIN KAQV 121540Z AUTO 10SM FEW075 16/12 A2992 380 80 600 M /M RMK AO2 T01560122
03949KAQV AQV20190412094512604/12/19 09:45:31  5-MIN KAQV 121545Z AUTO 01007KT 330V050 10SM FEW075 16/12 A2993 370 80 600 010/07 330V050 RMK AO2 T01560122
03949KAQV AQV20190412095011704/12/19 09:50:31  5-MIN KAQV 121550Z AUTO VRB03KT 10SM FEW075 16/12 A2993 370 77 600 VRB/03 RMK AO2 SLP134 T01560117
03949KAQV AQV20190412095511404/12/19 09:55:31  5-MIN KAQV 121555Z AUTO VRB04KT 10SM CLR 16/12 A2993 370 77 600 VRB/04 RMK AO2 SLP134 T01610122
03949KAQV AQV20190412100010704/12/19 10:00:31  5-MIN KAQV 121600Z AUTO VRB04KT 10SM CLR 16/12 A2993 370 75 600 VRB/04 RMK AO2 T01610117
03949KAQV AQV20190412100510704/12/19 10:05:31  5-MIN KAQV 121605Z AUTO VRB05KT 10SM CLR 16/12 A2994 360 75 600 VRB/05 RMK AO2 T01610117
03949KAQV AQV20190412101011004/12/19 10:10:31  5-MIN KAQV 121610Z AUTO 05006KT 10SM FEW080 16/12 A2994 360 75 600 050/06 RMK AO2 T01610117
03949KAQV AQV20190412101511004/12/19 10:15:31  5-MIN KAQV 121615Z AUTO VRB05KT 10SM SCT080 16/12 A2994 350 75 600 VRB/05 RMK AO2 T01610117
03949KAQV AQV20190412102011004/12/19 10:20:31  5-MIN KAQV 121620Z AUTO VRB03KT 10SM SCT080 16/12 A2995 350 75 600 VRB/03 RMK AO2 T01610117
03949KAQV AQV20190412102511004/12/19 10:25:31  5-MIN KAQV 121625Z AUTO 05006KT 10SM SCT080 17/12 A2994 360 72 700 050/06 RMK AO2 T01670117
03949KAQV AQV20190412103011004/12/19 10:30:31  5-MIN KAQV 121630Z AUTO 06003KT 10SM SCT080 17/12 A2994 360 72 700 060/03 RMK AO2 T01670117
03949KAQV AQV20190412103511004/12/19 10:35:31  5-MIN KAQV 121635Z AUTO 04005KT 10SM BKN080 17/12 A2995 350 72 700 040/05 RMK AO2 T01670117
03949KAQV AQV20190412104011004/12/19 10:40:31  5-MIN KAQV 121640Z AUTO 04003KT 10SM BKN080 17/12 A2996 340 72 700 030/03 RMK AO2 T01670117
03949KAQV AQV20190412104511004/12/19 10:45:31  5-MIN KAQV 121645Z AUTO 04005KT 10SM BKN080 17/12 A2995 350 72 700 030/05 RMK AO2 T01670117
03949KAQV AQV20190412105011704/12/19 10:50:31  5-MIN KAQV 121650Z AUTO 08004KT 10SM BKN080 17/12 A2996 340 72 700 080/04 RMK AO2 SLP144 T01670117
03949KAQV AQV20190412105511704/12/19 10:55:31  5-MIN KAQV 121655Z AUTO 00000KT 10SM BKN080 17/12 A2995 340 72 700 000/00 RMK AO2 SLP142 T01670117
03949KAQV AQV20190412110011004/12/19 11:00:31  5-MIN KAQV 121700Z AUTO 06006KT 10SM SCT080 17/11 A2995 350 69 700 060/06 RMK AO2 T01670111
03949KAQV AQV20190412110511004/12/19 11:05:31  5-MIN KAQV 121705Z AUTO 03004KT 10SM SCT085 17/11 A2994 360 69 700 030/04 RMK AO2 T01670111
03949KAQV AQV20190412111011004/12/19 11:10:31  5-MIN KAQV 121710Z AUTO 05007KT 10SM BKN085 17/12 A2994 360 72 700 050/07 RMK AO2 T01670117
03949KAQV AQV20190412111511004/12/19 11:15:31  5-MIN KAQV 121715Z AUTO 05006KT 10SM FEW090 16/11 A2994 360 72 600 050/06 RMK AO2 T01610111
03949KAQV AQV20190412112011004/12/19 11:20:31  5-MIN KAQV 121720Z AUTO 04006KT 10SM FEW090 16/12 A2993 370 75 600 030/06 RMK AO2 T01610117
03949KAQV AQV20190412112511004/12/19 11:25:31  5-MIN KAQV 121725Z AUTO VRB04KT 10SM FEW090 16/12 A2993 370 75 600 VRB/04 RMK AO2 T01610117
03949KAQV AQV20190412113011004/12/19 11:30:31  5-MIN KAQV 121730Z AUTO VRB04KT 10SM FEW090 16/12 A2993 370 75 600 VRB/04 RMK AO2 T01610117
03949KAQV AQV20190412113510704/12/19 11:35:31  5-MIN KAQV 121735Z AUTO VRB03KT 10SM CLR 16/12 A2993 370 75 600 VRB/03 RMK AO2 T01610117
03949KAQV AQV20190412114010704/12/19 11:40:31  5-MIN KAQV 121740Z AUTO 03006KT 10SM CLR 16/12 A2992 380 75 600 030/06 RMK AO2 T01610117
03949KAQV AQV20190412114510704/12/19 11:45:31  5-MIN KAQV 121745Z AUTO 02006KT 10SM CLR 16/12 A2992 380 75 600 020/06 RMK AO2 T01610117
03949KAQV AQV20190412115013204/12/19 11:50:31  5-MIN KAQV 121750Z AUTO 02006KT 10SM CLR 17/12 A2992 380 72 700 020/06 RMK AO2 SLP130 T01670117 10167 20128 53009
03949KAQV AQV20190412115513204/12/19 11:55:31  5-MIN KAQV 121755Z AUTO 02008KT 10SM CLR 17/12 A2991 380 72 700 020/08 RMK AO2 SLP128 T01670117 10167 20128 53009
03949KAQV AQV20190412120012304/12/19 12:00:31  5-MIN KAQV 121800Z AUTO 04007KT 020V080 10SM CLR 16/12 A2991 380 75 600 040/07 020V080 RMK AO2 T01610117
03949KAQV AQV20190412120510704/12/19 12:05:31  5-MIN KAQV 121805Z AUTO VRB04KT 10SM CLR 16/12 A2991 380 75 600 VRB/04 RMK AO2 T01610117
03949KAQV AQV20190412121010704/12/19 12:10:31  5-MIN KAQV 121810Z AUTO VRB04KT 10SM CLR 17/12 A2991 380 75 700 VRB/04 RMK AO2 T01670122
03949KAQV AQV20190412121510704/12/19 12:15:31  5-MIN KAQV 121815Z AUTO 03005KT 10SM CLR 17/12 A2992 380 72 700 020/05 RMK AO2 T01670117
03949KAQV AQV20190412122010704/12/19 12:20:31  5-MIN KAQV 121820Z AUTO VRB04KT 10SM CLR 17/12 A2991 380 72 700 VRB/04 RMK AO2 T01670117
03949KAQV AQV20190412122510704/12/19 12:25:31  5-MIN KAQV 121825Z AUTO 07006KT 10SM CLR 16/12 A2991 390 75 700 060/06 RMK AO2 T01610117
03949KAQV AQV20190412123010704/12/19 12:30:31  5-MIN KAQV 121830Z AUTO VRB03KT 10SM CLR 16/12 A2991 380 75 600 VRB/03 RMK AO2 T01610117
03949KAQV AQV20190412123510704/12/19 12:35:31  5-MIN KAQV 121835Z AUTO VRB04KT 10SM CLR 16/12 A2990 400 75 700 VRB/04 RMK AO2 T01610117
03949KAQV AQV20190412124011004/12/19 12:40:31  5-MIN KAQV 121840Z AUTO VRB04KT 10SM FEW120 16/12 A2989 400 75 700 VRB/04 RMK AO2 T01610117
03949KAQV AQV20190412124511004/12/19 12:45:31  5-MIN KAQV 121845Z AUTO VRB03KT 10SM FEW120 16/12 A2990 400 77 700 VRB/03 RMK AO2 T01610122
03949KAQV AQV20190412125011704/12/19 12:50:31  5-MIN KAQV 121850Z AUTO VRB05KT 10SM SCT120 16/12 A2990 400 77 700 VRB/05 RMK AO2 SLP123 T01610122
03949KAQV AQV20190412125511704/12/19 12:55:31  5-MIN KAQV 121855Z AUTO VRB06KT 10SM SCT110 16/12 A2989 410 77 700 VRB/06 RMK AO2 SLP120 T01610122
03949KAQV AQV20190412130011004/12/19 13:00:31  5-MIN KAQV 121900Z AUTO VRB03KT 10SM BKN110 16/12 A2990 390 77 700 VRB/03 RMK AO2 T01610122
03949KAQV AQV20190412130512404/12/19 13:05:31  5-MIN KAQV 121905Z AUTO 01006KT 10SM FEW060 FEW080 BKN110 16/12 A2990 390 75 700 360/06 RMK AO2 T01610117
03949KAQV AQV20190412131012404/12/19 13:10:31  5-MIN KAQV 121910Z AUTO VRB05KT 10SM FEW060 BKN100 BKN120 16/12 A2989 410 77 700 VRB/05 RMK AO2 T01610122
03949KAQV AQV20190412131512404/12/19 13:15:31  5-MIN KAQV 121915Z AUTO VRB04KT 10SM FEW055 BKN100 OVC120 16/12 A2988 410 80 600 VRB/04 RMK AO2 T01560122
03949KAQV AQV20190412132012404/12/19 13:20:31  5-MIN KAQV 121920Z AUTO 36005KT 10SM FEW055 FEW070 OVC110 16/12 A2989 410 80 600 360/05 RMK AO2 T01560122
03949KAQV AQV20190412132512404/12/19 13:25:31  5-MIN KAQV 121925Z AUTO 04008KT 10SM FEW055 FEW075 BKN110 16/12 A2988 410 80 600 030/08 RMK AO2 T01560122
03949KAQV AQV20190412133012404/12/19 13:30:31  5-MIN KAQV 121930Z AUTO 08006KT 10SM FEW065 SCT095 OVC120 16/12 A2987 420 80 600 070/06 RMK AO2 T01560122
03949KAQV AQV20190412133511004/12/19 13:35:31  5-MIN KAQV 121935Z AUTO VRB04KT 10SM BKN110 16/12 A2987 420 77 600 VRB/04 RMK AO2 T01560117
03949KAQV AQV20190412134011004/12/19 13:40:31  5-MIN KAQV 121940Z AUTO 36004KT 10SM BKN110 16/12 A2988 420 77 700 350/04 RMK AO2 T01610122
03949KAQV AQV20190412134511004/12/19 13:45:31  5-MIN KAQV 121945Z AUTO 02005KT 10SM BKN110 16/12 A2987 420 77 700 010/05 RMK AO2 T01610122
03949KAQV AQV20190412135011704/12/19 13:50:31  5-MIN KAQV 121950Z AUTO 01005KT 10SM BKN110 16/12 A2987 420 77 700 010/05 RMK AO2 SLP115 T01610122
03949KAQV AQV20190412135511704/12/19 13:55:31  5-MIN KAQV 121955Z AUTO 01006KT 10SM SCT110 16/12 A2988 420 77 700 360/06 RMK AO2 SLP116 T01610122
03949KAQV AQV20190412140011004/12/19 14:00:31  5-MIN KAQV 122000Z AUTO 03005KT 10SM BKN110 16/12 A2987 420 77 700 020/05 RMK AO2 T01610122
03949KAQV AQV20190412140511004/12/19 14:05:31  5-MIN KAQV 122005Z AUTO 03004KT 10SM BKN110 16/12 A2987 420 77 700 030/04 RMK AO2 T01610122
03949KAQV AQV20190412141011004/12/19 14:10:31  5-MIN KAQV 122010Z AUTO 01006KT 10SM BKN110 16/12 A2986 430 77 700 010/06 RMK AO2 T01610122
03949KAQV AQV20190412141511004/12/19 14:15:31  5-MIN KAQV 122015Z AUTO 04007KT 10SM BKN110 16/12 A2986 440 77 700 040/07 RMK AO2 T01610122
03949KAQV AQV20190412142011004/12/19 14:20:31  5-MIN KAQV 122020Z AUTO 03006KT 10SM BKN110 16/12 A2985 440 77 700 030/06 RMK AO2 T01610122
03949KAQV AQV20190412142511004/12/19 14:25:31  5-MIN KAQV 122025Z AUTO VRB05KT 10SM BKN110 17/12 A2986 430 75 800 VRB/05 RMK AO2 T01670122
03949KAQV AQV20190412143011004/12/19 14:30:31  5-MIN KAQV 122030Z AUTO VRB06KT 10SM BKN110 17/12 A2985 440 75 800 VRB/06 RMK AO2 T01670122
03949KAQV AQV20190412143510004/12/19 14:35:31  5-MIN KAQV 122035Z AUTO 10SM SCT110 17/12 A2986 430 75 800 M /M RMK AO2 T01670122
03949KAQV AQV20190412144011004/12/19 14:40:31  5-MIN KAQV 122040Z AUTO 35005KT 10SM BKN110 17/12 A2987 430 72 800 350/05 RMK AO2 T01720122
03949KAQV AQV20190412144511004/12/19 14:45:31  5-MIN KAQV 122045Z AUTO VRB03KT 10SM BKN120 17/13 A2985 440 75 800 VRB/03 RMK AO2 T01720128
03949KAQV AQV20190412145012304/12/19 14:50:31  5-MIN KAQV 122050Z AUTO 05005KT 10SM BKN120 17/12 A2984 450 72 900 040/05 RMK AO2 SLP103 T01720122 58002
03949KAQV AQV20190412145512304/12/19 14:55:31  5-MIN KAQV 122055Z AUTO 03007KT 10SM BKN120 18/12 A2984 450 69 900 030/07 RMK AO2 SLP105 T01780122 58002
03949KAQV AQV20190412150011004/12/19 15:00:31  5-MIN KAQV 122100Z AUTO 03008KT 10SM BKN110 18/12 A2985 440 69 900 030/08 RMK AO2 T01780122
03949KAQV AQV20190412150511704/12/19 15:05:31  5-MIN KAQV 122105Z AUTO 07007KT 10SM FEW019 OVC110 18/12 A2985 440 69 900 070/07 RMK AO2 T01780122
03949KAQV AQV20190412151011804/12/19 15:10:31  5-MIN KAQV 122110Z AUTO VRB06KT 10SM SCT019 OVC110 18/12 A2985 440 67 1000 VRB/06 RMK AO2 T01830122
03949KAQV AQV20190412151513304/12/19 15:15:31  5-MIN KAQV 122115Z AUTO 08007KT 040V110 10SM SCT019 OVC110 18/12 A2985 440 69 900 080/07 040V110 RMK AO2 T01780122
03949KAQV AQV20190412152011804/12/19 15:20:31  5-MIN KAQV 122120Z AUTO 07006KT 10SM SCT019 OVC110 18/13 A2986 430 70 1000 070/06 RMK AO2 T01830128
03949KAQV AQV20190412152513304/12/19 15:25:31  5-MIN KAQV 122125Z AUTO 06007KT 040V100 10SM BKN019 OVC110 18/13 A2985 440 72 900 060/07 040V100 RMK AO2 T01780128
03949KAQV AQV20190412153011704/12/19 15:30:31  5-MIN KAQV 122130Z AUTO 07007KT 10SM BKN020 OVC110 18/13 A2985 440 72 900 070/07 RMK AO2 T01780128
03949KAQV AQV20190412153511704/12/19 15:35:31  5-MIN KAQV 122135Z AUTO VRB05KT 10SM BKN020 OVC110 18/13 A2985 440 72 900 VRB/05 RMK AO2 T01780128
03949KAQV AQV20190412154011704/12/19 15:40:31  5-MIN KAQV 122140Z AUTO VRB05KT 10SM BKN019 OVC110 17/13 A2985 440 75 800 VRB/05 RMK AO2 T01720128
03949KAQV AQV20190412154511704/12/19 15:45:31  5-MIN KAQV 122145Z AUTO VRB04KT 10SM BKN019 OVC110 17/13 A2985 440 75 800 VRB/04 RMK AO2 T01720128
03949KAQV AQV20190412155010704/12/19 15:50:31  5-MIN KAQV 122150Z AUTO VRB04KT 10SM SCT019 OVC110 17/13 A2985 440 77 800 VRB/04 RMK AO2
03949KAQV AQV20190412155512404/12/19 15:55:31  5-MIN KAQV 122155Z AUTO VRB04KT 10SM FEW019 OVC110 17/13 A2985 440 77 800 VRB/04 RMK AO2 SLP107 T01670128
03949KAQV AQV20190412160011704/12/19 16:00:31  5-MIN KAQV 122200Z AUTO VRB03KT 10SM FEW019 OVC110 17/13 A2985 440 80 800 VRB/03 RMK AO2 T01670133
03949KAQV AQV20190412160511004/12/19 16:05:31  5-MIN KAQV 122205Z AUTO VRB03KT 10SM OVC110 17/13 A2985 440 80 800 VRB/03 RMK AO2 T01670133
03949KAQV AQV20190412161011004/12/19 16:10:31  5-MIN KAQV 122210Z AUTO VRB03KT 10SM OVC110 17/13 A2985 440 80 800 VRB/03 RMK AO2 T01670133
03949KAQV AQV20190412161511004/12/19 16:15:31  5-MIN KAQV 122215Z AUTO VRB04KT 10SM OVC110 17/13 A2984 450 78 900 VRB/04 RMK AO2 T01720133
03949KAQV AQV20190412162011004/12/19 16:20:31  5-MIN KAQV 122220Z AUTO VRB03KT 10SM OVC110 17/13 A2984 450 78 900 VRB/03 RMK AO2 T01720133
03949KAQV AQV20190412162511004/12/19 16:25:31  5-MIN KAQV 122225Z AUTO VRB05KT 10SM OVC110 17/13 A2984 450 78 900 VRB/05 RMK AO2 T01720133
03949KAQV AQV20190412163011004/12/19 16:30:31  5-MIN KAQV 122230Z AUTO VRB03KT 10SM OVC110 17/13 A2984 450 78 900 VRB/03 RMK AO2 T01720133
03949KAQV AQV20190412163511004/12/19 16:35:31  5-MIN KAQV 122235Z AUTO VRB04KT 10SM OVC110 18/13 A2983 460 75 900 VRB/04 RMK AO2 T01780133
03949KAQV AQV20190412164011004/12/19 16:40:31  5-MIN KAQV 122240Z AUTO VRB04KT 10SM BKN110 18/13 A2984 450 75 900 VRB/04 RMK AO2 T01780133
03949KAQV AQV20190412164511004/12/19 16:45:31  5-MIN KAQV 122245Z AUTO VRB03KT 10SM BKN110 18/14 A2985 440 78 900 VRB/03 RMK AO2 T01780139
03949KAQV AQV20190412165011704/12/19 16:50:31  5-MIN KAQV 122250Z AUTO VRB03KT 10SM SCT110 18/13 A2985 440 75 900 VRB/03 RMK AO2 SLP107 T01780133
03949KAQV AQV20190412165511704/12/19 16:55:31  5-MIN KAQV 122255Z AUTO VRB04KT 10SM FEW110 17/14 A2985 440 80 800 VRB/04 RMK AO2 SLP107 T01720139
03949KAQV AQV20190412170011004/12/19 17:00:31  5-MIN KAQV 122300Z AUTO VRB04KT 10SM FEW110 17/13 A2985 450 78 900 VRB/04 RMK AO2 T01720133
03949KAQV AQV20190412170511004/12/19 17:05:31  5-MIN KAQV 122305Z AUTO VRB03KT 10SM SCT110 17/14 A2984 450 80 900 VRB/03 RMK AO2 T01720139
03949KAQV AQV20190412171011004/12/19 17:10:31  5-MIN KAQV 122310Z AUTO 06004KT 10SM SCT110 17/14 A2984 450 80 900 060/04 RMK AO2 T01720139
03949KAQV AQV20190412171511004/12/19 17:15:31  5-MIN KAQV 122315Z AUTO VRB03KT 10SM BKN100 17/14 A2984 450 80 900 VRB/03 RMK AO2 T01720139
03949KAQV AQV20190412172011004/12/19 17:20:31  5-MIN KAQV 122320Z AUTO VRB03KT 10SM BKN100 18/14 A2984 450 78 900 VRB/03 RMK AO2 T01780139
03949KAQV AQV20190412172511004/12/19 17:25:31  5-MIN KAQV 122325Z AUTO VRB03KT 10SM OVC100 18/14 A2984 450 78 900 VRB/03 RMK AO2 T01780139
03949KAQV AQV20190412173011004/12/19 17:30:31  5-MIN KAQV 122330Z AUTO VRB04KT 10SM OVC100 18/14 A2984 450 78 900 VRB/04 RMK AO2 T01780139
03949KAQV AQV20190412173511004/12/19 17:35:31  5-MIN KAQV 122335Z AUTO 03003KT 10SM OVC100 18/14 A2983 460 78 900 020/03 RMK AO2 T01780139
03949KAQV AQV20190412174011004/12/19 17:40:31  5-MIN KAQV 122340Z AUTO 02004KT 10SM OVC100 18/14 A2983 460 78 900 020/04 RMK AO2 T01780139
03949KAQV AQV20190412174511004/12/19 17:45:31  5-MIN KAQV 122345Z AUTO 05005KT 10SM OVC100 18/14 A2984 450 78 900 040/05 RMK AO2 T01780139
03949KAQV AQV20190412175013504/12/19 17:50:31  5-MIN KAQV 122350Z AUTO 04006KT 10SM OVC100 17/14 A2984 450 80 900 030/06 RMK AO2 SLP103 T01720139 10183 20156 58023
03949KAQV AQV20190412175513504/12/19 17:55:31  5-MIN KAQV 122355Z AUTO 03004KT 10SM OVC100 17/14 A2984 450 80 900 030/04 RMK AO2 SLP103 T01720139 10183 20156 58023
03949KAQV AQV20190412180011004/12/19 18:00:31  5-MIN KAQV 130000Z AUTO 04005KT 10SM OVC100 17/14 A2984 450 80 900 030/05 RMK AO2 T01720139
03949KAQV AQV20190412180511004/12/19 18:05:31  5-MIN KAQV 130005Z AUTO 03005KT 10SM OVC100 17/14 A2984 450 80 900 030/05 RMK AO2 T01720139
03949KAQV AQV20190412181011004/12/19 18:10:31  5-MIN KAQV 130010Z AUTO VRB04KT 10SM OVC100 17/14 A2984 450 80 900 VRB/04 RMK AO2 T01720139
03949KAQV AQV20190412181511004/12/19 18:15:31  5-MIN KAQV 130015Z AUTO 03004KT 10SM OVC100 17/14 A2984 450 80 900 020/04 RMK AO2 T01720139
03949KAQV AQV20190412182011004/12/19 18:20:31  5-MIN KAQV 130020Z AUTO 03004KT 10SM OVC100 17/14 A2984 450 80 900 020/04 RMK AO2 T01720139
03949KAQV AQV20190412182511004/12/19 18:25:31  5-MIN KAQV 130025Z AUTO 03003KT 10SM OVC100 17/14 A2985 450 80 900 020/03 RMK AO2 T01720139
03949KAQV AQV20190412183011004/12/19 18:30:31  5-MIN KAQV 130030Z AUTO 02004KT 10SM OVC100 17/14 A2984 450 83 800 020/04 RMK AO2 T01670139
03949KAQV AQV20190412183511004/12/19 18:35:31  5-MIN KAQV 130035Z AUTO 03004KT 10SM OVC100 17/14 A2984 450 83 800 030/04 RMK AO2 T01670139
03949KAQV AQV20190412184011004/12/19 18:40:31  5-MIN KAQV 130040Z AUTO VRB03KT 10SM OVC100 17/14 A2984 450 83 800 VRB/03 RMK AO2 T01670139
03949KAQV AQV20190412184511004/12/19 18:45:31  5-MIN KAQV 130045Z AUTO 04004KT 10SM BKN100 17/14 A2984 450 83 800 030/04 RMK AO2 T01670139
03949KAQV AQV20190412185011704/12/19 18:50:31  5-MIN KAQV 130050Z AUTO 05005KT 10SM BKN100 17/14 A2984 450 83 800 050/05 RMK AO2 SLP104 T01670139
03949KAQV AQV20190412185511704/12/19 18:55:31  5-MIN KAQV 130055Z AUTO 03004KT 10SM BKN100 17/14 A2984 450 83 800 030/04 RMK AO2 SLP103 T01670139
03949KAQV AQV20190412190011004/12/19 19:00:31  5-MIN KAQV 130100Z AUTO 04003KT 10SM BKN100 17/14 A2984 450 83 800 040/03 RMK AO2 T01670139
03949KAQV AQV20190412190511704/12/19 19:05:31  5-MIN KAQV 130105Z AUTO 04004KT 10SM SCT095 BKN110 17/14 A2984 450 83 800 040/04 RMK AO2 T01670139
03949KAQV AQV20190412191011004/12/19 19:10:31  5-MIN KAQV 130110Z AUTO 03004KT 10SM BKN110 17/14 A2984 450 83 800 020/04 RMK AO2 T01670139
03949KAQV AQV20190412191511004/12/19 19:15:31  5-MIN KAQV 130115Z AUTO 04003KT 10SM BKN110 17/14 A2984 450 86 800 040/03 RMK AO2 T01670144
03949KAQV AQV20190412192011004/12/19 19:20:31  5-MIN KAQV 130120Z AUTO 06004KT 10SM BKN110 17/14 A2983 460 86 800 050/04 RMK AO2 T01670144
03949KAQV AQV20190412192511004/12/19 19:25:31  5-MIN KAQV 130125Z AUTO 06003KT 10SM OVC110 17/14 A2983 460 86 800 060/03 RMK AO2 T01670144
03949KAQV AQV20190412193011004/12/19 19:30:31  5-MIN KAQV 130130Z AUTO 05003KT 10SM OVC110 17/14 A2983 460 86 800 040/03 RMK AO2 T01670144
03949KAQV AQV20190412193511004/12/19 19:35:31  5-MIN KAQV 130135Z AUTO 05004KT 10SM OVC110 16/14 A2983 460 90 700 050/04 RMK AO2 T01610144
03949KAQV AQV20190412194011004/12/19 19:40:31  5-MIN KAQV 130140Z AUTO 02004KT 10SM BKN110 16/14 A2983 460 90 700 020/04 RMK AO2 T01610144
03949KAQV AQV20190412194511004/12/19 19:45:31  5-MIN KAQV 130145Z AUTO 01004KT 10SM BKN110 16/14 A2984 450 90 700 010/04 RMK AO2 T01610144
03949KAQV AQV20190412195011704/12/19 19:50:31  5-MIN KAQV 130150Z AUTO 03004KT 10SM BKN110 16/14 A2984 450 90 700 030/04 RMK AO2 SLP104 T01610144
03949KAQV AQV20190412195511704/12/19 19:55:31  5-MIN KAQV 130155Z AUTO 03004KT 10SM BKN100 16/14 A2984 450 90 700 020/04 RMK AO2 SLP104 T01610144
03949KAQV AQV20190412200011004/12/19 20:00:31  5-MIN KAQV 130200Z AUTO 03005KT 10SM BKN100 16/14 A2984 450 90 700 020/05 RMK AO2 T01610144
03949KAQV AQV20190412200511004/12/19 20:05:31  5-MIN KAQV 130205Z AUTO VRB04KT 10SM BKN100 16/14 A2984 450 90 700 VRB/04 RMK AO2 T01610144
03949KAQV AQV20190412201011704/12/19 20:10:31  5-MIN KAQV 130210Z AUTO 03003KT 10SM FEW007 OVC100 16/14 A2984 450 90 700 020/03 RMK AO2 T01610144
03949KAQV AQV20190412201511704/12/19 20:15:31  5-MIN KAQV 130215Z AUTO 05003KT 10SM FEW007 OVC100 16/14 A2985 440 90 700 050/03 RMK AO2 T01610144
03949KAQV AQV20190412202011704/12/19 20:20:31  5-MIN KAQV 130220Z AUTO 05004KT 10SM FEW007 OVC100 16/14 A2985 440 90 700 040/04 RMK AO2 T01610144
03949KAQV AQV20190412202511904/12/19 20:25:31  5-MIN KAQV 130225Z AUTO VRB03KT 10SM TS OVC100 16/14 A2985 440 90 700 VRB/03 RMK AO2 TSB21 T01610144
03949KAQV AQV20190412203011904/12/19 20:30:31  5-MIN KAQV 130230Z AUTO 02005KT 10SM TS OVC100 16/14 A2985 440 90 700 020/05 RMK AO2 TSB21 T01610144
03949KAQV AQV20190412203511904/12/19 20:35:31  5-MIN KAQV 130235Z AUTO 03004KT 10SM TS OVC100 16/14 A2985 440 90 700 030/04 RMK AO2 TSB21 T01610144
03949KAQV AQV20190412204011904/12/19 20:40:31  5-MIN KAQV 130240Z AUTO 05005KT 10SM OVC100 16/14 A2985 440 90 700 050/05 RMK AO2 TSB21E36 T01610144
03949KAQV AQV20190412204511904/12/19 20:45:31  5-MIN KAQV 130245Z AUTO VRB03KT 10SM OVC100 16/14 A2986 440 90 700 VRB/03 RMK AO2 TSB21E36 T01610144
03949KAQV AQV20190412205013204/12/19 20:50:31  5-MIN KAQV 130250Z AUTO 03005KT 10SM OVC100 16/14 A2985 440 90 700 030/05 RMK AO2 TSB21E36 SLP108 T01610144 58004
03949KAQV AQV20190412205513904/12/19 20:55:31  5-MIN KAQV 130255Z AUTO 02005KT 10SM FEW031 OVC095 16/14 A2986 440 90 700 020/05 RMK AO2 TSB21E36 SLP109 T01610144 58004
03949KAQV AQV20190412210011704/12/19 21:00:31  5-MIN KAQV 130300Z AUTO 03003KT 10SM FEW031 OVC090 16/14 A2986 430 90 700 020/03 RMK AO2 T01610144
03949KAQV AQV20190412210511004/12/19 21:05:31  5-MIN KAQV 130305Z AUTO 02004KT 10SM OVC090 16/14 A2986 430 90 700 020/04 RMK AO2 T01610144
03949KAQV AQV20190412211011004/12/19 21:10:31  5-MIN KAQV 130310Z AUTO 04004KT 10SM OVC090 16/14 A2986 430 90 700 040/04 RMK AO2 T01610144
03949KAQV AQV20190412211511704/12/19 21:15:31  5-MIN KAQV 130315Z AUTO 04005KT 10SM FEW028 OVC090 16/14 A2986 440 90 700 040/05 RMK AO2 T01610144
03949KAQV AQV20190412212011704/12/19 21:20:31  5-MIN KAQV 130320Z AUTO 04004KT 10SM FEW028 OVC090 16/14 A2985 440 90 700 040/04 RMK AO2 T01610144
03949KAQV AQV20190412212511704/12/19 21:25:31  5-MIN KAQV 130325Z AUTO 03004KT 10SM FEW028 OVC090 16/14 A2985 440 90 700 030/04 RMK AO2 T01610144
03949KAQV AQV20190412213012404/12/19 21:30:31  5-MIN KAQV 130330Z AUTO VRB03KT 10SM FEW028 BKN090 OVC110 16/14 A2985 440 90 700 VRB/03 RMK AO2 T01610144
03949KAQV AQV20190412213512404/12/19 21:35:31  5-MIN KAQV 130335Z AUTO 04004KT 10SM FEW028 BKN090 BKN110 16/14 A2985 450 90 700 040/04 RMK AO2 T01610144
03949KAQV AQV20190412214012404/12/19 21:40:31  5-MIN KAQV 130340Z AUTO 03004KT 10SM FEW028 BKN090 OVC110 16/14 A2985 440 90 700 030/04 RMK AO2 T01610144
03949KAQV AQV20190412214513304/12/19 21:45:31  5-MIN KAQV 130345Z AUTO 03004KT 10SM TS SCT048 BKN090 OVC110 16/14 A2985 450 90 700 030/04 RMK AO2 TSB41 T01610144
03949KAQV AQV20190412215014004/12/19 21:50:31  5-MIN KAQV 130350Z AUTO VRB04KT 10SM TS FEW020 BKN090 OVC110 16/14 A2985 440 90 700 VRB/04 RMK AO2 TSB41 SLP108 T01610144
03949KAQV AQV20190412215514004/12/19 21:55:31  5-MIN KAQV 130355Z AUTO 02004KT 10SM TS SCT020 BKN049 OVC110 16/14 A2985 440 90 700 020/04 RMK AO2 TSB41 SLP107 T01610144
03949KAQV AQV20190412220012704/12/19 22:00:31  5-MIN KAQV 130400Z AUTO VRB03KT 10SM TS BKN020 BKN049 OVC090 16/14 A2985 440 90 700 VRB/03 RMK AO2 T01610144
03949KAQV AQV20190412220512704/12/19 22:05:31  5-MIN KAQV 130405Z AUTO VRB03KT 10SM TS BKN020 BKN049 OVC090 16/14 A2986 440 90 700 VRB/03 RMK AO2 T01610144
03949KAQV AQV20190412221012004/12/19 22:10:31  5-MIN KAQV 130410Z AUTO 02004KT 10SM TS BKN020 OVC047 16/14 A2985 440 90 700 010/04 RMK AO2 T01610144
03949KAQV AQV20190412221512804/12/19 22:15:31  5-MIN KAQV 130415Z AUTO 02004KT 10SM -TSRA OVC020 16/14 A2985 440 90 700 010/04 RMK AO2 RAB12 P0001 T01610144
03949KAQV AQV20190412222013204/12/19 22:20:31  5-MIN KAQV 130420Z AUTO VRB03KT 10SM -RA OVC020 16/14 A2985 440 90 700 VRB/03 RMK AO2 RAB12 TSE18 P0001 T01610144
03949KAQV AQV20190412222513104/12/19 22:25:31  5-MIN KAQV 130425Z AUTO VRB03KT 10SM OVC020 16/14 A2985 440 90 700 VRB/03 RMK AO2 RAB12E24 TSE18 P0001 T01610144
03949KAQV AQV20190412223013104/12/19 22:30:31  5-MIN KAQV 130430Z AUTO 05003KT 10SM OVC020 16/14 A2984 450 90 700 050/03 RMK AO2 RAB12E24 TSE18 P0001 T01610144
03949KAQV AQV20190412223513104/12/19 22:35:31  5-MIN KAQV 130435Z AUTO VRB04KT 10SM OVC019 16/14 A2984 450 90 700 VRB/04 RMK AO2 RAB12E24 TSE18 P0001 T01610144
03949KAQV AQV20190412224014504/12/19 22:40:31  5-MIN KAQV 130440Z AUTO VRB04KT 10SM BKN019 BKN028 OVC038 16/14 A2984 450 90 700 VRB/04 RMK AO2 RAB12E24 TSE18 P0001 T01610144
03949KAQV AQV20190412224514504/12/19 22:45:31  5-MIN KAQV 130445Z AUTO VRB04KT 10SM BKN019 BKN026 OVC050 16/14 A2984 450 90 700 VRB/04 RMK AO2 RAB12E24 TSE18 P0001 T01610144
03949KAQV AQV20190412225015204/12/19 22:50:31  5-MIN KAQV 130450Z AUTO VRB04KT 10SM BKN021 BKN030 OVC075 16/14 A2984 450 90 700 VRB/04 RMK AO2 RAB12E24 TSE18 SLP102 P0001 T01610144
03949KAQV AQV20190412225515204/12/19 22:55:31  5-MIN KAQV 130455Z AUTO VRB04KT 10SM SCT023 BKN044 OVC100 16/14 A2983 460 90 700 VRB/04 RMK AO2 RAB12E24 TSE18 SLP101 P0001 T01610144
03949KAQV AQV20190412230012404/12/19 23:00:31  5-MIN KAQV 130500Z AUTO VRB06KT 10SM SCT023 BKN044 OVC100 16/14 A2982 470 90 700 VRB/06 RMK AO2 T01610144
03949KAQV AQV20190412230512404/12/19 23:05:31  5-MIN KAQV 130505Z AUTO 05005KT 10SM SCT023 BKN035 BKN050 16/14 A2982 470 90 800 040/05 RMK AO2 T01610144
03949KAQV AQV20190412231012404/12/19 23:10:31  5-MIN KAQV 130510Z AUTO 06005KT 10SM SCT023 SCT035 BKN050 16/14 A2981 470 90 800 050/05 RMK AO2 T01610144
03949KAQV AQV20190412231512404/12/19 23:15:31  5-MIN KAQV 130515Z AUTO 07005KT 10SM SCT023 BKN050 BKN060 16/14 A2981 480 90 800 060/05 RMK AO2 T01610144
03949KAQV AQV20190412232013604/12/19 23:20:31  5-MIN KAQV 130520Z AUTO 06006KT 10SM BKN018 BKN046 BKN060 16/14 A2980 480 90 800 060/06 RMK AO2 CIG 014V027 T01610144
03949KAQV AQV20190412232513104/12/19 23:25:31  5-MIN KAQV 130525Z AUTO VRB05KT 10SM BKN015 BKN022 OVC055 16/14 A2980 490 90 800 VRB/05 RMK AO2 PRESFR T01610144
03949KAQV AQV20190412233012404/12/19 23:30:31  5-MIN KAQV 130530Z AUTO VRB03KT 10SM BKN015 BKN022 OVC055 16/14 A2980 480 90 800 VRB/03 RMK AO2 T01610144
03949KAQV AQV20190412233512404/12/19 23:35:31  5-MIN KAQV 130535Z AUTO VRB04KT 10SM BKN014 BKN050 OVC060 16/14 A2981 480 90 800 VRB/04 RMK AO2 T01610144
03949KAQV AQV20190412234011004/12/19 23:40:31  5-MIN KAQV 130540Z AUTO VRB05KT 10SM OVC014 16/14 A2980 490 90 800 VRB/05 RMK AO2 T01610144
03949KAQV AQV20190412234511004/12/19 23:45:31  5-MIN KAQV 130545Z AUTO VRB05KT 10SM OVC014 16/14 A2980 490 90 800 VRB/05 RMK AO2 T01610144
03949KAQV AQV20190412235016704/12/19 23:50:31  5-MIN KAQV 130550Z AUTO VRB05KT 10SM -RA OVC013 16/14 A2980 490 90 800 VRB/05 RMK AO2 RAB47 SLP089 P0000 60001 T01610144 10172 20161 401830128 53006
03949KAQV AQV20190412235517404/12/19 23:55:31  5-MIN KAQV 130555Z AUTO VRB03KT 10SM -RA OVC013 16/15 A2978 500 93 800 VRB/03 RMK AO2 RAB47 PRESFR SLP085 P0000 60001 T01610150 10172 20161 401830128 53006
03949KAQV AQV20190413000012004/13/19 00:00:31  5-MIN KAQV 130600Z AUTO VRB04KT 10SM -RA OVC013 16/15 A2979 500 93 800 VRB/04 RMK AO2 P0001 T01610150
03949KAQV AQV20190413000512004/13/19 00:05:31  5-MIN KAQV 130605Z AUTO VRB03KT 10SM -RA OVC013 16/15 A2978 500 93 800 VRB/03 RMK AO2 P0001 T01610150
03949KAQV AQV20190413001012004/13/19 00:10:31  5-MIN KAQV 130610Z AUTO VRB05KT 10SM -RA OVC013 16/15 A2978 510 93 800 VRB/05 RMK AO2 P0001 T01610150
03949KAQV AQV20190413001512204/13/19 00:15:31  5-MIN KAQV 130615Z AUTO 07005KT 10SM OVC013 16/15 A2977 520 93 800 060/05 RMK AO2 RAE11 P0001 T01610150
03949KAQV AQV20190413002012204/13/19 00:20:31  5-MIN KAQV 130620Z AUTO VRB05KT 10SM OVC012 16/15 A2977 520 93 800 VRB/05 RMK AO2 RAE11 P0001 T01610150
03949KAQV AQV20190413002512204/13/19 00:25:31  5-MIN KAQV 130625Z AUTO VRB06KT 10SM OVC012 17/15 A2977 520 90 900 VRB/06 RMK AO2 RAE11 P0001 T01670150
03949KAQV AQV20190413003015704/13/19 00:30:31  5-MIN KAQV 130630Z AUTO 06008KT 030V100 10SM OVC010 17/15 A2975 540 90 900 060/08 030V100 RMK AO2 RAE11 CIG 007V013 PRESFR P0001 T01670150
03949KAQV AQV20190413003515604/13/19 00:35:31  5-MIN KAQV 130635Z AUTO 07009G15KT 10SM TS OVC010 17/15 A2974 550 90 900 060/09G15 RMK AO2 RAE11 TSB33 CIG 007V013 PRESFR P0001 T01670150
03949KAQV AQV20190413004016304/13/19 00:40:31  5-MIN KAQV 130640Z AUTO 07007G16KT 10SM TS BKN008 OVC012 17/15 A2972 560 90 900 070/07G16 RMK AO2 RAE11 TSB33 CIG 007V010 PRESFR P0001 T01670150
03949KAQV AQV20190413004516504/13/19 00:45:31  5-MIN KAQV 130645Z AUTO 06007G17KT 020V100 10SM TS OVC008 17/15 A2972 560 90 900 060/07G17 020V100 RMK AO2 RAE11 TSB33 CIG 006V010 P0001 T01670150
03949KAQV AQV20190413005015604/13/19 00:50:31  5-MIN KAQV 130650Z AUTO VRB06G17KT 10SM TS OVC008 17/16 A2974 550 93 900 VRB/06G17 RMK AO2 RAE11 TSB33 CIG 006V010 SLP068 P0001 T01670156
03949KAQV AQV20190413005516404/13/19 00:55:31  5-MIN KAQV 130655Z AUTO 07009G17KT 10SM TS OVC006 17/16 A2969 590 93 1000 070/09G17 RMK AO2 RAE11 TSB33 CIG 005V009 PRESFR SLP053 P0001 T01670156
03949KAQV AQV20190413010015504/13/19 01:00:31  5-MIN KAQV 130700Z AUTO 07011G19KT 050V110 10SM TS OVC006 17/16 A2962 650 93 1000 070/11G19 050V110 RMK AO2 CIG 004V010 PRESFR T01670156
03949KAQV AQV20190413010514804/13/19 01:05:31  5-MIN KAQV 130705Z AUTO 03007G25KT 320V080 10SM TS OVC006 17/16 A2965 620 93 1000 030/07G25 320V080 RMK AO2 CIG 004V008 T01670156
03949KAQV AQV20190413011012504/13/19 01:10:31  5-MIN KAQV 130710Z AUTO 23014G25KT 9SM TS OVC006 17/16 A2977 510 93 900 220/14G25 RMK AO2 PRESRR T01720161
03949KAQV AQV20190413011515904/13/19 01:15:31  5-MIN KAQV 130715Z AUTO 26008G24KT 120V330 1SM +TSRA BR OVC006 17/16 A2979 500 90 900 260/08G24 120V330 RMK AO2 RAB11 PRESRR P0029 T01720156
03949KAQV AQV20190413012014504/13/19 01:20:31  5-MIN KAQV 130720Z AUTO VRB06G22KT 1/2SM +TSRA FG OVC006 17/16 A2981 480 93 800 VRB/06G22 RMK AO2 RAB11 PRESRR P0063 T01670156
03949KAQV AQV20190413012514504/13/19 01:25:31  5-MIN KAQV 130725Z AUTO VRB03G15KT 1/2SM +TSRA FG BKN006 OVC021 17/16 A2978 510 93 900 VRB/03G15 RMK AO2 RAB11 P0066 T01670156
03949KAQV AQV20190413013013704/13/19 01:30:31  5-MIN KAQV 130730Z AUTO VRB06KT 2SM -TSRA BR BKN006 OVC019 17/16 A2977 510 93 900 VRB/06 RMK AO2 RAB11 P0066 T01670156
03949KAQV AQV20190413013514104/13/19 01:35:31  5-MIN KAQV 130735Z AUTO 13003KT 8SM -TSRA SCT006 BKN013 OVC018 17/16 A2977 520 93 900 120/03 RMK AO2 RAB11 P0067 T01720161
03949KAQV AQV20190413014014504/13/19 01:40:31  5-MIN KAQV 130740Z AUTO 15004KT 7SM -RA FEW006 BKN013 OVC020 17/16 A2977 520 93 900 150/04 RMK AO2 RAB11 TSE40 P0068 T01720161
03949KAQV AQV20190413014514504/13/19 01:45:31  5-MIN KAQV 130745Z AUTO VRB06KT 7SM -RA FEW006 BKN011 OVC020 17/16 A2976 520 93 900 VRB/06 RMK AO2 RAB11 TSE40 P0069 T01720161
03949KAQV AQV20190413015013604/13/19 01:50:31  5-MIN KAQV 130750Z AUTO 17003KT 8SM -RA BKN009 BKN013 OVC019 18/17 A2977 520 93 1000 170/03 RMK AO2 RAB11 TSE40 P0069
03949KAQV AQV20190413015515704/13/19 01:55:31  5-MIN KAQV 130755Z AUTO VRB04KT 8SM -RA BKN009 OVC015 17/17 A2977 520 96 900 VRB/04 RMK AO2 RAB11 TSE40 CIG 007V012 SLP079 P0069 T01720167
03949KAQV AQV20190413020013204/13/19 02:00:31  5-MIN KAQV 130800Z AUTO 00000KT 8SM -RA OVC009 18/17 A2976 520 93 1000 000/00 RMK AO2 CIG 006V014 P0000 T01780167
03949KAQV AQV20190413020513304/13/19 02:05:31  5-MIN KAQV 130805Z AUTO 00000KT 10SM -RA OVC009 18/17 A2976 520 93 1000 000/00 RMK AO2 CIG 004V012 P0000 T01780167
03949KAQV AQV20190413021013204/13/19 02:10:31  5-MIN KAQV 130810Z AUTO 00000KT 9SM -RA OVC007 18/17 A2976 530 93 1000 000/00 RMK AO2 CIG 004V012 P0000 T01780167
03949KAQV AQV20190413021514104/13/19 02:15:31  5-MIN KAQV 130815Z AUTO VRB04KT 9SM BKN004 OVC009 18/17 A2976 530 93 1000 VRB/04 RMK AO2 RAE13 CIG 003V007 P0000 T01780167
03949KAQV AQV20190413022012904/13/19 02:20:31  5-MIN KAQV 130820Z AUTO VRB03KT 7SM BKN004 OVC009 18/17 A2975 530 96 1000 VRB/03 RMK AO2 RAE13 P0000 T01780172
03949KAQV AQV20190413022513404/13/19 02:25:31  5-MIN KAQV 130825Z AUTO VRB03KT 7SM OVC004 18/17 A2975 540 93 1100 VRB/03 RMK AO2 RAE13 CIG 003V008 P0000 T01830172
03949KAQV AQV20190413023012204/13/19 02:30:31  5-MIN KAQV 130830Z AUTO VRB03KT 7SM OVC004 18/17 A2975 540 93 1100 VRB/03 RMK AO2 RAE13 P0000 T01830172
03949KAQV AQV20190413023512904/13/19 02:35:31  5-MIN KAQV 130835Z AUTO VRB03KT 7SM BKN004 OVC012 18/17 A2975 540 93 1100 VRB/03 RMK AO2 RAE13 P0000 T01830172
03949KAQV AQV20190413024012904/13/19 02:40:31  5-MIN KAQV 130840Z AUTO VRB05KT 7SM BKN004 OVC012 18/17 A2975 540 93 1100 VRB/05 RMK AO2 RAE13 P0000 T01830172
03949KAQV AQV20190413024512904/13/19 02:45:31  5-MIN KAQV 130845Z AUTO VRB04KT 7SM BKN004 OVC012 18/17 A2974 540 93 1100 VRB/04 RMK AO2 RAE13 P0000 T01830172
03949KAQV AQV20190413025011904/13/19 02:50:31  5-MIN KAQV 130850Z AUTO VRB05KT 7SM BKN005 OVC012 18/17 A2974 540 93 1100 VRB/05 RMK AO2 RAE13 P0000
03949KAQV AQV20190413025514804/13/19 02:55:31  5-MIN KAQV 130855Z AUTO VRB05KT 7SM BKN005 OVC011 18/17 A2974 540 93 1100 VRB/05 RMK AO2 RAE13 SLP070 P0001 60071 T01830172 50021
03949KAQV AQV20190413030011704/13/19 03:00:31  5-MIN KAQV 130900Z AUTO 10006KT 7SM BKN005 OVC011 18/17 A2974 540 93 1100 100/06 RMK AO2 T01830172
03949KAQV AQV20190413030511304/13/19 03:05:31  5-MIN KAQV 130905Z AUTO VRB03KT 6SM BR OVC005 18/17 A2974 540 93 1100 VRB/03 RMK AO2 T01830172
03949KAQV AQV20190413031011004/13/19 03:10:31  5-MIN KAQV 130910Z AUTO VRB05KT 7SM OVC004 18/17 A2974 540 93 1100 VRB/05 RMK AO2 T01830172
03949KAQV AQV20190413031511004/13/19 03:15:31  5-MIN KAQV 130915Z AUTO VRB04KT 7SM OVC004 18/17 A2974 540 93 1100 VRB/04 RMK AO2 T01830172
03949KAQV AQV20190413032011004/13/19 03:20:31  5-MIN KAQV 130920Z AUTO VRB03KT 7SM OVC004 18/17 A2974 550 93 1100 VRB/03 RMK AO2 T01830172
03949KAQV AQV20190413032511304/13/19 03:25:31  5-MIN KAQV 130925Z AUTO VRB05KT 6SM BR OVC004 18/17 A2974 550 93 1100 VRB/05 RMK AO2 T01830172
03949KAQV AQV20190413033011304/13/19 03:30:31  5-MIN KAQV 130930Z AUTO VRB04KT 6SM BR OVC004 18/17 A2973 550 93 1100 VRB/04 RMK AO2 T01830172
03949KAQV AQV20190413033511304/13/19 03:35:31  5-MIN KAQV 130935Z AUTO 07006KT 6SM BR OVC004 18/17 A2973 550 93 1100 070/06 RMK AO2 T01830172
03949KAQV AQV20190413034011304/13/19 03:40:31  5-MIN KAQV 130940Z AUTO VRB04KT 6SM BR OVC004 18/17 A2973 550 93 1100 VRB/04 RMK AO2 T01830172
03949KAQV AQV20190413034511304/13/19 03:45:31  5-MIN KAQV 130945Z AUTO VRB05KT 6SM BR OVC004 18/17 A2973 550 96 1000 VRB/05 RMK AO2 T01780172
03949KAQV AQV20190413035012004/13/19 03:50:31  5-MIN KAQV 130950Z AUTO 07006KT 6SM BR OVC004 18/17 A2973 550 96 1000 070/06 RMK AO2 SLP066 T01780172
03949KAQV AQV20190413035512004/13/19 03:55:31  5-MIN KAQV 130955Z AUTO VRB04KT 6SM BR OVC004 18/17 A2973 550 96 1000 VRB/04 RMK AO2 SLP065 T01780172
03949KAQV AQV20190413040011304/13/19 04:00:31  5-MIN KAQV 131000Z AUTO VRB04KT 6SM BR OVC003 18/17 A2973 550 96 1000 VRB/04 RMK AO2 T01780172
03949KAQV AQV20190413040511304/13/19 04:05:31  5-MIN KAQV 131005Z AUTO VRB03KT 6SM BR OVC003 18/17 A2973 560 96 1100 VRB/03 RMK AO2 T01780172
03949KAQV AQV20190413041010304/13/19 04:10:31  5-MIN KAQV 131010Z AUTO 6SM BR OVC003 18/17 A2973 550 93 1100 M /M RMK AO2 T01830172
03949KAQV AQV20190413041511304/13/19 04:15:31  5-MIN KAQV 131015Z AUTO VRB03KT 6SM BR OVC003 18/17 A2973 550 93 1100 VRB/03 RMK AO2 T01830172
03949KAQV AQV20190413042011304/13/19 04:20:31  5-MIN KAQV 131020Z AUTO 00000KT 6SM BR OVC003 18/17 A2973 550 93 1100 000/00 RMK AO2 T01830172
03949KAQV AQV20190413042511304/13/19 04:25:31  5-MIN KAQV 131025Z AUTO VRB06KT 6SM BR OVC003 18/17 A2973 550 93 1100 VRB/06 RMK AO2 T01830172
03949KAQV AQV20190413043011004/13/19 04:30:31  5-MIN KAQV 131030Z AUTO VRB03KT 7SM OVC003 18/17 A2973 550 93 1100 VRB/03 RMK AO2 T01830172
03949KAQV AQV20190413043511304/13/19 04:35:31  5-MIN KAQV 131035Z AUTO 08006KT 6SM BR OVC003 18/17 A2973 550 93 1100 070/06 RMK AO2 T01830172
03949KAQV AQV20190413044011304/13/19 04:40:31  5-MIN KAQV 131040Z AUTO 08007KT 6SM BR OVC003 18/17 A2974 550 93 1100 070/07 RMK AO2 T01830172
03949KAQV AQV20190413044511004/13/19 04:45:31  5-MIN KAQV 131045Z AUTO VRB03KT 7SM OVC004 18/17 A2974 540 93 1100 VRB/03 RMK AO2 T01830172
03949KAQV AQV20190413045011704/13/19 04:50:31  5-MIN KAQV 131050Z AUTO VRB03KT 7SM OVC004 18/17 A2974 540 93 1100 VRB/03 RMK AO2 SLP070 T01830172
03949KAQV AQV20190413045511704/13/19 04:55:31  5-MIN KAQV 131055Z AUTO VRB03KT 7SM OVC004 18/17 A2974 540 93 1100 VRB/03 RMK AO2 SLP070 T01830172
03949KAQV AQV20190413050011004/13/19 05:00:31  5-MIN KAQV 131100Z AUTO VRB03KT 7SM OVC004 18/17 A2975 540 93 1100 VRB/03 RMK AO2 T01830172
03949KAQV AQV20190413050511004/13/19 05:05:31  5-MIN KAQV 131105Z AUTO VRB04KT 7SM OVC004 18/17 A2975 540 93 1100 VRB/04 RMK AO2 T01830172
03949KAQV AQV20190413051011004/13/19 05:10:31  5-MIN KAQV 131110Z AUTO VRB05KT 7SM OVC004 18/17 A2975 530 93 1100 VRB/05 RMK AO2 T01830172
03949KAQV AQV20190413051511004/13/19 05:15:31  5-MIN KAQV 131115Z AUTO VRB04KT 7SM OVC004 18/17 A2975 530 93 1100 VRB/04 RMK AO2 T01830172
03949KAQV AQV20190413052011304/13/19 05:20:31  5-MIN KAQV 131120Z AUTO VRB04KT 6SM BR OVC004 18/17 A2975 530 93 1100 VRB/04 RMK AO2 T01830172
03949KAQV AQV20190413052511304/13/19 05:25:31  5-MIN KAQV 131125Z AUTO VRB05KT 6SM BR OVC004 18/17 A2976 530 93 1100 VRB/05 RMK AO2 T01830172
03949KAQV AQV20190413053011304/13/19 05:30:31  5-MIN KAQV 131130Z AUTO VRB04KT 6SM BR OVC004 18/17 A2976 530 93 1100 VRB/04 RMK AO2 T01830172
03949KAQV AQV20190413053511304/13/19 05:35:31  5-MIN KAQV 131135Z AUTO VRB04KT 6SM BR OVC004 18/17 A2975 530 93 1100 VRB/04 RMK AO2 T01830172
03949KAQV AQV20190413054011304/13/19 05:40:31  5-MIN KAQV 131140Z AUTO VRB04KT 5SM BR OVC004 18/17 A2976 530 93 1100 VRB/04 RMK AO2 T01830172
03949KAQV AQV20190413054511304/13/19 05:45:31  5-MIN KAQV 131145Z AUTO VRB04KT 6SM BR OVC004 18/17 A2976 520 93 1100 VRB/04 RMK AO2 T01830172
03949KAQV AQV20190413055015004/13/19 05:50:31  5-MIN KAQV 131150Z AUTO VRB04KT 6SM BR OVC004 18/17 A2976 520 93 1100 VRB/04 RMK AO2 SLP076 60071 70072 T01830172 10183 20161 56008
03949KAQV AQV20190413055515004/13/19 05:55:31  5-MIN KAQV 131155Z AUTO VRB06KT 6SM BR OVC004 18/17 A2976 520 93 1100 VRB/06 RMK AO2 SLP076 60071 70072 T01830172 10183 20161 56008
03949KAQV AQV20190413060011304/13/19 06:00:31  5-MIN KAQV 131200Z AUTO VRB03KT 6SM BR OVC004 18/17 A2976 520 93 1100 VRB/03 RMK AO2 T01830172
03949KAQV AQV20190413060511304/13/19 06:05:31  5-MIN KAQV 131205Z AUTO VRB03KT 5SM BR OVC004 18/17 A2976 520 93 1100 VRB/03 RMK AO2 T01830172
03949KAQV AQV20190413061011304/13/19 06:10:31  5-MIN KAQV 131210Z AUTO 06007KT 5SM BR OVC003 18/17 A2976 520 93 1100 060/07 RMK AO2 T01830172
03949KAQV AQV20190413061511304/13/19 06:15:31  5-MIN KAQV 131215Z AUTO VRB03KT 4SM BR OVC003 18/17 A2976 520 93 1100 VRB/03 RMK AO2 T01830172
03949KAQV AQV20190413062011304/13/19 06:20:31  5-MIN KAQV 131220Z AUTO VRB04KT 4SM BR OVC003 18/17 A2976 520 93 1100 VRB/04 RMK AO2 T01830172
03949KAQV AQV20190413062511304/13/19 06:25:31  5-MIN KAQV 131225Z AUTO VRB03KT 4SM BR OVC003 18/17 A2976 520 93 1100 VRB/03 RMK AO2 T01830172
03949KAQV AQV20190413063011304/13/19 06:30:31  5-MIN KAQV 131230Z AUTO VRB05KT 4SM BR OVC003 18/17 A2976 520 93 1100 VRB/05 RMK AO2 T01830172
03949KAQV AQV20190413063511304/13/19 06:35:31  5-MIN KAQV 131235Z AUTO VRB05KT 5SM BR OVC003 18/17 A2976 520 93 1100 VRB/05 RMK AO2 T01830172
03949KAQV AQV20190413064011304/13/19 06:40:31  5-MIN KAQV 131240Z AUTO VRB04KT 5SM BR OVC003 18/17 A2976 530 93 1100 VRB/04 RMK AO2 T01830172
03949KAQV AQV20190413064511304/13/19 06:45:31  5-MIN KAQV 131245Z AUTO 05006KT 5SM BR OVC003 18/17 A2976 530 93 1100 050/06 RMK AO2 T01830172
03949KAQV AQV20190413065012004/13/19 06:50:31  5-MIN KAQV 131250Z AUTO 06006KT 5SM BR OVC003 18/17 A2976 530 93 1100 060/06 RMK AO2 SLP075 T01830172
03949KAQV AQV20190413065512004/13/19 06:55:31  5-MIN KAQV 131255Z AUTO VRB03KT 5SM BR OVC004 19/18 A2976 520 93 1100 VRB/03 RMK AO2 SLP076 T01890178
03949KAQV AQV20190413070011304/13/19 07:00:31  5-MIN KAQV 131300Z AUTO 06005KT 5SM BR OVC004 18/17 A2976 520 93 1100 050/05 RMK AO2 T01830172
03949KAQV AQV20190413070511304/13/19 07:05:31  5-MIN KAQV 131305Z AUTO 03005KT 5SM BR OVC004 18/17 A2976 520 93 1100 030/05 RMK AO2 T01830172
03949KAQV AQV20190413071011304/13/19 07:10:31  5-MIN KAQV 131310Z AUTO 04006KT 5SM BR OVC004 18/17 A2976 520 93 1100 040/06 RMK AO2 T01830172
03949KAQV AQV20190413071511304/13/19 07:15:31  5-MIN KAQV 131315Z AUTO 05005KT 4SM BR OVC004 18/17 A2976 520 93 1100 050/05 RMK AO2 T01830172
03949KAQV AQV20190413072011304/13/19 07:20:31  5-MIN KAQV 131320Z AUTO 04005KT 4SM BR OVC003 18/17 A2976 520 93 1100 040/05 RMK AO2 T01830172
03949KAQV AQV20190413072511304/13/19 07:25:31  5-MIN KAQV 131325Z AUTO VRB04KT 4SM BR OVC003 18/17 A2976 520 93 1100 VRB/04 RMK AO2 T01830172
03949KAQV AQV20190413073011304/13/19 07:30:31  5-MIN KAQV 131330Z AUTO VRB04KT 4SM BR OVC003 18/17 A2976 520 93 1100 VRB/04 RMK AO2 T01830172
03949KAQV AQV20190413073511304/13/19 07:35:31  5-MIN KAQV 131335Z AUTO VRB05KT 4SM BR OVC003 18/17 A2976 520 93 1100 VRB/05 RMK AO2 T01830172
03949KAQV AQV20190413074011304/13/19 07:40:31  5-MIN KAQV 131340Z AUTO VRB05KT 4SM BR OVC003 18/17 A2976 520 93 1100 VRB/05 RMK AO2 T01830172
03949KAQV AQV20190413074511304/13/19 07:45:31  5-MIN KAQV 131345Z AUTO VRB04KT 4SM BR OVC003 18/17 A2976 520 93 1100 VRB/04 RMK AO2 T01830172
03949KAQV AQV20190413075012004/13/19 07:50:31  5-MIN KAQV 131350Z AUTO 04006KT 4SM BR OVC003 18/17 A2976 530 93 1100 040/06 RMK AO2 SLP076 T01830172
03949KAQV AQV20190413075512004/13/19 07:55:31  5-MIN KAQV 131355Z AUTO 04007KT 3SM BR OVC003 18/17 A2976 530 93 1100 040/07 RMK AO2 SLP074 T01830172
03949KAQV AQV20190413080011304/13/19 08:00:31  5-MIN KAQV 131400Z AUTO VRB04KT 3SM BR OVC003 18/17 A2975 530 93 1100 VRB/04 RMK AO2 T01830172
03949KAQV AQV20190413080511704/13/19 08:05:31  5-MIN KAQV 131405Z AUTO 04006KT 2 1/2SM BR OVC003 18/17 A2975 540 93 1000 040/06 RMK AO2 T01780167
03949KAQV AQV20190413081011304/13/19 08:10:31  5-MIN KAQV 131410Z AUTO 03007KT 2SM BR OVC003 18/17 A2974 540 93 1000 030/07 RMK AO2 T01780167
03949KAQV AQV20190413081512004/13/19 08:15:31  5-MIN KAQV 131415Z AUTO 03004KT 2SM BR OVC002 18/17 A2973 550 93 1000 030/04 RMK AO2 PRESFR T01780167
03949KAQV AQV20190413082011304/13/19 08:20:31  5-MIN KAQV 131420Z AUTO 06006KT 2SM BR OVC002 18/17 A2973 550 93 1000 050/06 RMK AO2 T01780167
03949KAQV AQV20190413082511304/13/19 08:25:31  5-MIN KAQV 131425Z AUTO VRB06KT 2SM BR OVC002 17/17 A2972 560 96 1000 VRB/06 RMK AO2 T01720167
03949KAQV AQV20190413083014504/13/19 08:30:31  5-MIN KAQV 131430Z AUTO 04007KT 010V080 2SM -RA BR OVC002 17/17 A2972 560 96 1000 040/07 010V080 RMK AO2 RAB29 P0000 T01720167
03949KAQV AQV20190413083513304/13/19 08:35:31  5-MIN KAQV 131435Z AUTO 06007KT 2 1/2SM -RA BR OVC002 17/16 A2971 570 93 1000 050/07 RMK AO2 RAB29 P0000 T01720161
03949KAQV AQV20190413084015104/13/19 08:40:31  5-MIN KAQV 131440Z AUTO 04007KT 010V080 3SM BR OVC002 17/16 A2970 580 93 1000 040/07 010V080 RMK AO2 RAB29E40 PRESFR P0000 T01720161
03949KAQV AQV20190413084513904/13/19 08:45:31  5-MIN KAQV 131445Z AUTO VRB06G14KT 2 1/2SM -RA BR OVC002 17/16 A2970 580 93 1000 VRB/06G14 RMK AO2 RAB29 P0000 T01720161
03949KAQV AQV20190413085013704/13/19 08:50:31  5-MIN KAQV 131450Z AUTO VRB03G14KT 2 1/2SM -TSRA BR OVC002 17/16 A2970 590 93 1000 VRB/03G14 RMK AO2 RAB29 TSB50 P0001
03949KAQV AQV20190413085516304/13/19 08:55:31  5-MIN KAQV 131455Z AUTO 05008KT 3SM -TSRA BR OVC002 17/16 A2968 600 93 1000 050/08 RMK AO2 RAB29 TSB50 PRESFR SLP050 P0001 60001 T01720161 53007
03949KAQV AQV20190413090012504/13/19 09:00:31  5-MIN KAQV 131500Z AUTO VRB03KT 4SM -TSRA BR OVC002 17/16 A2969 590 93 1000 VRB/03 RMK AO2 P0000 T01720161
03949KAQV AQV20190413090512804/13/19 09:05:31  5-MIN KAQV 131505Z AUTO 06007KT 4SM TS BR OVC002 17/16 A2968 600 93 1000 050/07 RMK AO2 RAE03 P0000 T01720161
03949KAQV AQV20190413091012504/13/19 09:10:31  5-MIN KAQV 131510Z AUTO VRB06KT 4SM -TSRA BR OVC002 17/16 A2967 610 93 1000 VRB/06 RMK AO2 P0000 T01720161
03949KAQV AQV20190413091512504/13/19 09:15:31  5-MIN KAQV 131515Z AUTO VRB06KT 4SM -TSRA BR OVC003 17/16 A2967 610 93 1100 VRB/06 RMK AO2 P0000 T01720161
03949KAQV AQV20190413092012504/13/19 09:20:31  5-MIN KAQV 131520Z AUTO 06008KT 4SM -TSRA BR OVC003 17/16 A2966 620 93 1100 060/08 RMK AO2 P0000 T01720161
03949KAQV AQV20190413092514704/13/19 09:25:31  5-MIN KAQV 131525Z AUTO 09008G14KT 060V130 4SM -TSRA BR OVC003 17/16 A2966 620 93 1100 090/08G14 060V130 RMK AO2 P0001 T01720161
03949KAQV AQV20190413093013504/13/19 09:30:31  5-MIN KAQV 131530Z AUTO VRB03G14KT 4SM -RA BR OVC003 17/16 A2966 620 93 1100 VRB/03G14 RMK AO2 TSE30 P0001 T01720161
03949KAQV AQV20190413093512904/13/19 09:35:31  5-MIN KAQV 131535Z AUTO VRB05KT 4SM -RA BR OVC003 17/17 A2966 620 96 1100 VRB/05 RMK AO2 TSE30 P0001 T01720167
03949KAQV AQV20190413094012904/13/19 09:40:31  5-MIN KAQV 131540Z AUTO VRB06KT 4SM -RA BR OVC003 17/17 A2965 630 96 1100 VRB/06 RMK AO2 TSE30 P0001 T01720167
03949KAQV AQV20190413094512904/13/19 09:45:31  5-MIN KAQV 131545Z AUTO VRB06KT 5SM -RA BR OVC003 18/17 A2965 630 93 1100 VRB/06 RMK AO2 TSE30 P0001 T01780167
03949KAQV AQV20190413095014304/13/19 09:50:31  5-MIN KAQV 131550Z AUTO VRB05KT 5SM -RA BR OVC003 18/17 A2964 640 93 1200 VRB/05 RMK AO2 TSE30 PRESFR SLP035 P0001 T01780167
03949KAQV AQV20190413095515204/13/19 09:55:31  5-MIN KAQV 131555Z AUTO 08007KT 030V140 5SM -RA BR OVC003 18/17 A2964 640 93 1200 080/07 030V140 RMK AO2 TSE30 SLP034 P0002 T01780167
03949KAQV AQV20190413100014104/13/19 10:00:31  5-MIN KAQV 131600Z AUTO 12007KT 310V170 6SM BR OVC003 18/17 A2963 640 93 1200 110/07 310V170 RMK AO2 RAE00 P0000 T01780167
03949KAQV AQV20190413100512304/13/19 10:05:31  5-MIN KAQV 131605Z AUTO VRB05KT 4SM -RA BR OVC003 18/17 A2963 650 93 1200 VRB/05 RMK AO2 P0000 T01780167
03949KAQV AQV20190413101012304/13/19 10:10:31  5-MIN KAQV 131610Z AUTO VRB03KT 4SM -RA BR OVC003 18/17 A2962 650 93 1200 VRB/03 RMK AO2 P0000 T01780167
03949KAQV AQV20190413101511504/13/19 10:15:31  5-MIN KAQV 131615Z AUTO 4SM BR OVC003 18/17 A2962 650 96 1200 M /M RMK AO2 RAE15 P0000 T01780172
03949KAQV AQV20190413102012504/13/19 10:20:31  5-MIN KAQV 131620Z AUTO VRB05KT 4SM BR OVC003 18/17 A2962 660 96 1200 VRB/05 RMK AO2 RAE15 P0000 T01780172
03949KAQV AQV20190413102512504/13/19 10:25:31  5-MIN KAQV 131625Z AUTO VRB05KT 4SM BR OVC003 18/17 A2961 660 93 1200 VRB/05 RMK AO2 RAE15 P0000 T01830172
03949KAQV AQV20190413103011504/13/19 10:30:31  5-MIN KAQV 131630Z AUTO 5SM BR OVC003 18/18 A2962 660 96 1200 M /M RMK AO2 RAE15 P0000 T01830178
03949KAQV AQV20190413103512504/13/19 10:35:31  5-MIN KAQV 131635Z AUTO VRB03KT 5SM BR OVC003 18/18 A2962 660 96 1200 VRB/03 RMK AO2 RAE15 P0000 T01830178
03949KAQV AQV20190413104012504/13/19 10:40:31  5-MIN KAQV 131640Z AUTO VRB03KT 5SM BR OVC003 19/18 A2961 660 93 1300 VRB/03 RMK AO2 RAE15 P0000 T01890178
03949KAQV AQV20190413104512504/13/19 10:45:31  5-MIN KAQV 131645Z AUTO VRB05KT 4SM BR OVC003 19/18 A2961 660 93 1300 VRB/05 RMK AO2 RAE15 P0000 T01890178
03949KAQV AQV20190413105013204/13/19 10:50:31  5-MIN KAQV 131650Z AUTO VRB04KT 4SM BR OVC003 19/18 A2961 670 97 1300 VRB/04 RMK AO2 RAE15 SLP023 P0000 T01890183
03949KAQV AQV20190413105513204/13/19 10:55:31  5-MIN KAQV 131655Z AUTO VRB05KT 4SM BR OVC003 19/18 A2960 680 93 1400 VRB/05 RMK AO2 RAE15 SLP021 P0000 T01940183
03949KAQV AQV20190413110012004/13/19 11:00:31  5-MIN KAQV 131700Z AUTO VRB05KT 4SM BR OVC003 19/18 A2959 680 93 1400 VRB/05 RMK AO2 PRESFR T01940183
03949KAQV AQV20190413110512004/13/19 11:05:31  5-MIN KAQV 131705Z AUTO VRB04KT 4SM BR OVC003 19/18 A2959 690 93 1400 VRB/04 RMK AO2 PRESFR T01940183
03949KAQV AQV20190413111011304/13/19 11:10:31  5-MIN KAQV 131710Z AUTO VRB04KT 4SM BR OVC003 19/19 A2958 690 97 1400 VRB/04 RMK AO2 T01940189
03949KAQV AQV20190413111512004/13/19 11:15:31  5-MIN KAQV 131715Z AUTO VRB05KT 4SM BR OVC003 20/19 A2957 700 93 1500 VRB/05 RMK AO2 PRESFR T02000189
03949KAQV AQV20190413112011304/13/19 11:20:31  5-MIN KAQV 131720Z AUTO VRB03KT 4SM BR OVC003 20/19 A2957 700 93 1500 VRB/03 RMK AO2 T02000189
03949KAQV AQV20190413112512004/13/19 11:25:31  5-MIN KAQV 131725Z AUTO VRB03KT 4SM BR OVC003 20/19 A2956 710 93 1500 VRB/03 RMK AO2 PRESFR T02000189
03949KAQV AQV20190413113012004/13/19 11:30:31  5-MIN KAQV 131730Z AUTO VRB05KT 4SM BR OVC003 20/19 A2955 720 93 1500 VRB/05 RMK AO2 PRESFR T02000189
03949KAQV AQV20190413113511304/13/19 11:35:31  5-MIN KAQV 131735Z AUTO VRB04KT 4SM BR OVC003 21/19 A2955 720 93 1600 VRB/04 RMK AO2 T02060194
03949KAQV AQV20190413114012004/13/19 11:40:31  5-MIN KAQV 131740Z AUTO VRB03KT 4SM BR OVC003 21/19 A2954 730 93 1600 VRB/03 RMK AO2 PRESFR T02060194
03949KAQV AQV20190413114513104/13/19 11:45:31  5-MIN KAQV 131745Z AUTO 4SM -RA BR OVC003 21/19 A2954 730 93 1600 M /M RMK AO2 RAB45 CIG 003V007 P0000 T02060194
03949KAQV AQV20190413115013504/13/19 11:50:31  5-MIN KAQV 131750Z AUTO VRB06KT 2 1/2SM -RA BR OVC003 21/20 A2953 740 93 1700 VRB/06 RMK AO2 RAB45 CIG 003V007 P0000
03949KAQV AQV20190413115517604/13/19 11:55:31  5-MIN KAQV 131755Z AUTO VRB05KT 1 3/4SM -RA BR OVC005 21/20 A2953 740 93 1700 VRB/05 RMK AO2 RAB45 CIG 003V009 SLP996 P0000 60003 T02110200 10211 20172 58027
03949KAQV AQV20190413120013904/13/19 12:00:31  5-MIN KAQV 131800Z AUTO VRB06KT 1 3/4SM -RA BR OVC005 22/21 A2953 740 93 1700 VRB/06 RMK AO2 CIG 003V010 P0001 T02170206
03949KAQV AQV20190413120513904/13/19 12:05:31  5-MIN KAQV 131805Z AUTO VRB06KT 1 3/4SM -RA BR OVC005 22/21 A2952 740 93 1800 VRB/06 RMK AO2 CIG 003V008 P0001 T02220211
03949KAQV AQV20190413121014104/13/19 12:10:31  5-MIN KAQV 131810Z AUTO 17008G15KT 2SM -RA BR OVC006 22/21 A2952 750 93 1800 170/08G15 RMK AO2 CIG 004V011 P0001 T02220211
03949KAQV AQV20190413121514504/13/19 12:15:31  5-MIN KAQV 131815Z AUTO 17007G15KT 2 1/2SM -RA BR OVC008 22/21 A2951 760 93 1800 170/07G15 RMK AO2 CIG 004V011 P0001 T02220211
03949KAQV AQV20190413122016604/13/19 12:20:31  5-MIN KAQV 131820Z AUTO 18010G20KT 140V210 3SM BR OVC008 23/21 A2950 760 90 1900 170/10G20 140V210 RMK AO2 RAE18 CIG 004V011 PRESFR P0001 T02280211
03949KAQV AQV20190413122514704/13/19 12:25:31  5-MIN KAQV 131825Z AUTO 18012G20KT 2SM RA BR BKN008 OVC011 23/22 A2950 770 93 1900 170/12G20 RMK AO2 CIG 005V009 P0003 T02280217
03949KAQV AQV20190413123015604/13/19 12:30:31  5-MIN KAQV 131830Z AUTO 18008G20KT 150V230 1 3/4SM -RA BR BKN008 OVC011 23/22 A2950 770 93 1900 170/08G20 150V230 RMK AO2 P0003 T02280217
03949KAQV AQV20190413123514104/13/19 12:35:31  5-MIN KAQV 131835Z AUTO 18009G20KT 2SM -RA BR OVC007 23/22 A2949 770 93 1900 170/09G20 RMK AO2 CIG 005V013 P0004 T02280217
03949KAQV AQV20190413124014504/13/19 12:40:31  5-MIN KAQV 131840Z AUTO 19006G19KT 2 1/2SM -RA BR OVC007 23/22 A2949 780 93 1900 180/06G19 RMK AO2 CIG 005V010 P0004 T02280217
03949KAQV AQV20190413124515704/13/19 12:45:31  5-MIN KAQV 131845Z AUTO 18011G20KT 140V210 3SM -RA BR OVC007 23/22 A2949 780 93 1900 180/11G20 140V210 RMK AO2 CIG 005V011 P0004 T02280217
03949KAQV AQV20190413125015604/13/19 12:50:31  5-MIN KAQV 131850Z AUTO 17009G23KT 4SM -TSRA BR OVC007 23/22 A2948 780 93 1900 170/09G23 RMK AO2 TSB48 CIG 005V012 SLP982 P0004 T02280217
03949KAQV AQV20190413125517604/13/19 12:55:31  5-MIN KAQV 131855Z AUTO 19011G23KT 140V220 7SM -TSRA BKN007 OVC012 23/22 A2949 780 93 1900 190/11G23 140V220 RMK AO2 TSB48 CIG 005V010 SLP984 P0004 T02280217
03949KAQV AQV20190413130015504/13/19 13:00:31  5-MIN KAQV 131900Z AUTO 18008G21KT 8SM -TSRA BKN008 OVC012 23/22 A2949 770 93 1900 170/08G21 RMK AO2 RAB1859 CIG 005V011 P0001 T02280217
03949KAQV AQV20190413130517404/13/19 13:05:31  5-MIN KAQV 131905Z AUTO 18012G21KT 150V210 5SM -TSRA BR BKN008 OVC016 23/22 A2948 780 93 1900 180/12G21 150V210 RMK AO2 RAB1859 CIG 005V012 P0002 T02280217
03949KAQV AQV20190413131017404/13/19 13:10:31  5-MIN KAQV 131910Z AUTO 18010G23KT 120V220 5SM -TSRA BR BKN008 OVC016 23/22 A2949 780 93 1900 180/10G23 120V220 RMK AO2 RAB1859 CIG 007V013 P0002 T02280217
03949KAQV AQV20190413131518104/13/19 13:15:31  5-MIN KAQV 131915Z AUTO 18012G23KT 160V220 4SM -TSRA BR BKN010 BKN016 OVC022 23/22 A2949 770 93 1900 180/12G23 160V220 RMK AO2 RAB1859 CIG 007V013 P0003 T02280217
03949KAQV AQV20190413132016604/13/19 13:20:31  5-MIN KAQV 131920Z AUTO 19014G21KT 1 1/4SM TSRA BR FEW008 BKN013 OVC020 23/22 A2949 780 93 1900 190/14G21 RMK AO2 VIS 1/4V5 RAB1859 P0009 T02280217
03949KAQV AQV20190413132516604/13/19 13:25:31  5-MIN KAQV 131925Z AUTO 19009G21KT 1 1/4SM TSRA BR FEW008 BKN013 OVC020 22/21 A2950 770 93 1800 180/09G21 RMK AO2 VIS 1/4V4 RAB1859 P0010 T02220211
03949KAQV AQV20190413133016904/13/19 13:30:31  5-MIN KAQV 131930Z AUTO 18010G20KT 140V250 4SM -TSRA BR BKN013 BKN020 OVC025 23/21 A2948 780 90 1900 170/10G20 140V250 RMK AO2 RAB1859 P0011 T02280211
03949KAQV AQV20190413133515404/13/19 13:35:31  5-MIN KAQV 131935Z AUTO 18007G20KT 7SM -RA BKN013 BKN018 OVC025 23/22 A2948 790 93 1900 180/07G20 RMK AO2 RAB1859 TSE33 P0011 T02280217
03949KAQV AQV20190413134015404/13/19 13:40:31  5-MIN KAQV 131940Z AUTO 19013G19KT 8SM -RA BKN013 BKN018 OVC027 23/22 A2948 790 90 2000 190/13G19 RMK AO2 RAB1859 TSE33 P0011 T02330217
03949KAQV AQV20190413134515404/13/19 13:45:31  5-MIN KAQV 131945Z AUTO 19009G23KT 8SM -RA BKN013 BKN018 OVC029 23/22 A2947 790 90 2000 180/09G23 RMK AO2 RAB1859 TSE33 P0011 T02330217
03949KAQV AQV20190413135017704/13/19 13:50:31  5-MIN KAQV 131950Z AUTO 19013G25KT 160V220 8SM -RA BKN013 BKN018 OVC030 23/22 A2947 800 90 2000 190/13G25 160V220 RMK AO2 RAB1859 TSE33 SLP977 P0011 T02330217
03949KAQV AQV20190413135516904/13/19 13:55:31  5-MIN KAQV 131955Z AUTO 19012G25KT 170V240 8SM BKN015 OVC024 23/22 A2947 790 90 2000 190/12G25 170V240 RMK AO2 RAB1859E55 TSE33 SLP978 P0011 T02330217
03949KAQV AQV20190413140013004/13/19 14:00:31  5-MIN KAQV 132000Z AUTO 18011G28KT 9SM BKN015 BKN024 OVC029 23/22 A2948 790 90 2000 180/11G28 RMK AO2 T02330217
03949KAQV AQV20190413140513904/13/19 14:05:31  5-MIN KAQV 132005Z AUTO 18009G28KT 140V220 8SM BKN015 OVC022 23/22 A2947 790 90 2000 180/09G28 140V220 RMK AO2 T02330217
03949KAQV AQV20190413211511804/13/19 21:15:31  5-MIN KAQV 140315Z AUTO 24003KT 10SM 16/15 A2961 670 96 900 240/03 RMK AO2 RAB0215E0225 T01560150 $
03949KAQV AQV20190413212011804/13/19 21:20:31  5-MIN KAQV 140320Z AUTO 22004KT 10SM 16/15 A2961 670 96 900 210/04 RMK AO2 RAB0215E0225 T01560150 $
03949KAQV AQV20190413212512504/13/19 21:25:31  5-MIN KAQV 140325Z AUTO 20004KT 10SM FEW032 16/14 A2961 660 93 900 190/04 RMK AO2 RAB0215E0225 T01560144 $
03949KAQV AQV20190413213013204/13/19 21:30:31  5-MIN KAQV 140330Z AUTO 23005KT 10SM FEW015 SCT032 16/14 A2962 660 93 900 230/05 RMK AO2 RAB0215E0225 T01560144 $
03949KAQV AQV20190413213021904/13/19 21:30:31  5-MIN KAQV 140330Z AUTO 23005KT 10SM FEW015 SCT032 16/14 A2962 660 93 900 230/05 RMK AO2 RAB0215E0225KT 10SM SCT009 BKN014 BKN023 16/15 A2962 650 93 1000 VRB/04 RMK AO2 RAB0215E0225 SLP028 T01610150 $
03949KAQV AQV20190413213514004/13/19 21:35:31  5-MIN KAQV 140335Z AUTO VRB04KT 10SM SCT015 SCT021 BKN031 16/15 A2962 660 93 1000 VRB/04 RMK AO2 RAB0215E0225 T01610150 $
03949KAQV AQV20190413214015604/13/19 21:40:31  5-MIN KAQV 140340Z AUTO 24007KT 210V280 10SM FEW009 BKN014 BKN023 16/15 A2962 660 93 1000 240/07 210V280 RMK AO2 RAB0215E0225 T01610150 $
03949KAQV AQV20190413214514004/13/19 21:45:31  5-MIN KAQV 140345Z AUTO 25008KT 10SM SCT009 BKN014 BKN023 16/15 A2962 650 93 1000 240/08 RMK AO2 RAB0215E0225 T01610150 $
03949KAQV AQV20190413215014704/13/19 21:50:31  5-MIN KAQV 140350Z AUTO VRB04KT 10SM SCT009 BKN014 BKN023 16/15 A2962 650 93 1000 VRB/04 RMK AO2 RAB0215E0225 SLP028 T01610150 $
03949KAQV AQV20190413215513604/13/19 21:55:31  5-MIN KAQV 140355Z AUTO 10SM FEW009 BKN014 BKN023 16/14 A2962 650 90 900 M /M RMK AO2 RAB0215E0225 SLP029 T01560139 $
03949KAQV AQV20190413220011904/13/19 22:00:31  5-MIN KAQV 140400Z AUTO VRB06KT 10SM SCT009 SCT016 16/14 A2962 650 90 900 VRB/06 RMK AO2 T01560139 $
03949KAQV AQV20190413220514104/13/19 22:05:31  5-MIN KAQV 140405Z AUTO 24007G14KT 160V270 10SM SCT009 SCT014 16/13 A2962 650 83 900 230/07G14 160V270 RMK AO2 T01560128 $
03949KAQV AQV20190413221011804/13/19 22:10:31  5-MIN KAQV 140410Z AUTO VRB05G16KT 10SM FEW009 15/13 A2963 650 86 800 VRB/05G16 RMK AO2 T01500128 $
03949KAQV AQV20190413221511504/13/19 22:15:31  5-MIN KAQV 140415Z AUTO VRB06G16KT 10SM CLR 15/12 A2962 650 83 800 VRB/06G16 RMK AO2 T01500122 $
03949KAQV AQV20190413222010904/13/19 22:20:31  5-MIN KAQV 140420Z AUTO VRB05KT 10SM CLR 14/12 A2963 650 86 800 VRB/05 RMK AO2 T01440122 $
03949KAQV AQV20190413222512504/13/19 22:25:31  5-MIN KAQV 140425Z AUTO 23007KT 210V270 10SM CLR 14/12 A2963 650 86 700 230/07 210V270 RMK AO2 T01390117 $
03949KAQV AQV20190413223012504/13/19 22:30:31  5-MIN KAQV 140430Z AUTO 23007KT 180V300 10SM CLR 14/11 A2963 650 83 700 220/07 180V300 RMK AO2 T01390111 $
03949KAQV AQV20190413223513104/13/19 22:35:31  5-MIN KAQV 140435Z AUTO 25009G16KT 180V290 10SM CLR 13/11 A2963 650 83 600 250/09G16 180V290 RMK AO2 T01330106 $
03949KAQV AQV20190413224013104/13/19 22:40:31  5-MIN KAQV 140440Z AUTO 24007G16KT 210V280 10SM CLR 13/10 A2963 650 80 600 240/07G16 210V280 RMK AO2 T01330100 $
03949KAQV AQV20190413224510904/13/19 22:45:31  5-MIN KAQV 140445Z AUTO 23006KT 10SM CLR 13/10 A2964 640 80 600 230/06 RMK AO2 T01330100 $
03949KAQV AQV20190413225011604/13/19 22:50:31  5-MIN KAQV 140450Z AUTO VRB05KT 10SM CLR 13/10 A2963 640 83 600 VRB/05 RMK AO2 SLP034 T01280100 $
03949KAQV AQV20190413225511604/13/19 22:55:31  5-MIN KAQV 140455Z AUTO 24005KT 10SM CLR 13/10 A2964 630 83 600 230/05 RMK AO2 SLP037 T01280100 $
03949KAQV AQV20190413230010904/13/19 23:00:31  5-MIN KAQV 140500Z AUTO VRB06KT 10SM CLR 13/10 A2964 640 83 600 VRB/06 RMK AO2 T01280100 $
03949KAQV AQV20190413230512504/13/19 23:05:31  5-MIN KAQV 140505Z AUTO 24007KT 220V280 10SM CLR 13/10 A2964 640 83 600 240/07 220V280 RMK AO2 T01280100 $
03949KAQV AQV20190413231010904/13/19 23:10:31  5-MIN KAQV 140510Z AUTO VRB05KT 10SM CLR 13/10 A2964 640 83 600 VRB/05 RMK AO2 T01280100 $
03949KAQV AQV20190413231512504/13/19 23:15:31  5-MIN KAQV 140515Z AUTO 24007KT 190V280 10SM CLR 12/10 A2965 630 86 500 230/07 190V280 RMK AO2 T01220100 $
03949KAQV AQV20190413232010904/13/19 23:20:31  5-MIN KAQV 140520Z AUTO VRB06KT 10SM CLR 12/09 A2964 640 83 500 VRB/06 RMK AO2 T01220094 $
03949KAQV AQV20190413232512504/13/19 23:25:31  5-MIN KAQV 140525Z AUTO 25007KT 190V290 10SM CLR 12/09 A2964 640 83 500 240/07 190V290 RMK AO2 T01220094 $
03949KAQV AQV20190413233010904/13/19 23:30:31  5-MIN KAQV 140530Z AUTO VRB05KT 10SM CLR 12/09 A2964 630 83 500 VRB/05 RMK AO2 T01220094 $
03949KAQV AQV20190413233510904/13/19 23:35:31  5-MIN KAQV 140535Z AUTO VRB04KT 10SM CLR 12/09 A2965 630 83 500 VRB/04 RMK AO2 T01220094 $
03949KAQV AQV20190413234010904/13/19 23:40:31  5-MIN KAQV 140540Z AUTO VRB05KT 10SM CLR 12/09 A2964 630 83 500 VRB/05 RMK AO2 T01220094 $
03949KAQV AQV20190413234510904/13/19 23:45:31  5-MIN KAQV 140545Z AUTO VRB06KT 10SM CLR 12/09 A2965 630 83 500 VRB/06 RMK AO2 T01220094 $
03949KAQV AQV20190413235016004/13/19 23:50:31  5-MIN KAQV 140550Z AUTO 23008KT 200V270 10SM CLR 12/09 A2965 630 86 400 220/08 200V270 RMK AO2 SLP038 6//// T01170094 10228 20117 402330117 $
03949KAQV AQV20190413235516004/13/19 23:55:31  5-MIN KAQV 140555Z AUTO 24007KT 200V280 10SM CLR 12/09 A2964 630 86 400 240/07 200V280 RMK AO2 SLP037 6//// T01170094 10228 20117 402330117 $
03949KAQV AQV20190414000013404/14/19 00:00:31  5-MIN KAQV 140600Z AUTO 23009G20KT 200V270 10SM FEW031 12/08 A2964 630 80 400 230/09G20 200V270 RMK AO2 T01170083 $
03949KAQV AQV20190414000511804/14/19 00:05:31  5-MIN KAQV 140605Z AUTO VRB06G20KT 10SM FEW031 12/08 A2964 630 80 400 VRB/06G20 RMK AO2 T01170083 $
03949KAQV AQV20190414001011804/14/19 00:10:31  5-MIN KAQV 140610Z AUTO 23009G19KT 10SM FEW031 11/08 A2965 630 80 400 230/09G19 RMK AO2 T01110078 $
03949KAQV AQV20190414001513404/14/19 00:15:31  5-MIN KAQV 140615Z AUTO 24009G18KT 210V270 10SM FEW031 11/08 A2965 630 80 400 240/09G18 210V270 RMK AO2 T01110078 $
03949KAQV AQV20190414002013404/14/19 00:20:31  5-MIN KAQV 140620Z AUTO 24007G18KT 170V280 10SM FEW031 11/08 A2965 630 80 400 240/07G18 170V280 RMK AO2 T01110078 $
03949KAQV AQV20190414002513404/14/19 00:25:31  5-MIN KAQV 140625Z AUTO 24008G16KT 200V280 10SM FEW031 11/07 A2965 630 77 400 230/08G16 200V280 RMK AO2 T01110072 $
03949KAQV AQV20190414003011804/14/19 00:30:31  5-MIN KAQV 140630Z AUTO VRB05G14KT 10SM FEW031 11/07 A2965 630 80 300 VRB/05G14 RMK AO2 T01060072 $
03949KAQV AQV20190414003513404/14/19 00:35:31  5-MIN KAQV 140635Z AUTO 24007G14KT 180V270 10SM SCT031 11/07 A2965 630 77 400 230/07G14 180V270 RMK AO2 T01110072 $
03949KAQV AQV20190414004011804/14/19 00:40:31  5-MIN KAQV 140640Z AUTO VRB06G19KT 10SM BKN031 11/07 A2965 630 77 400 VRB/06G19 RMK AO2 T01110072 $
03949KAQV AQV20190414004513404/14/19 00:45:31  5-MIN KAQV 140645Z AUTO 24008G19KT 210V300 10SM BKN031 11/07 A2965 630 77 400 240/08G19 210V300 RMK AO2 T01110072 $
03949KAQV AQV20190414005011904/14/19 00:50:31  5-MIN KAQV 140650Z AUTO VRB05KT 10SM BKN030 11/07 A2965 630 77 400 VRB/05 RMK AO2 SLP039 T01110072 $
03949KAQV AQV20190414005511904/14/19 00:55:31  5-MIN KAQV 140655Z AUTO VRB04KT 10SM BKN030 11/07 A2965 630 80 300 VRB/04 RMK AO2 SLP038 T01060072 $
03949KAQV AQV20190414010012804/14/19 01:00:31  5-MIN KAQV 140700Z AUTO 23007KT 190V270 10SM BKN030 11/07 A2965 630 77 300 230/07 190V270 RMK AO2 T01060067 $
03949KAQV AQV20190414010511204/14/19 01:05:31  5-MIN KAQV 140705Z AUTO VRB06KT 10SM SCT030 11/07 A2965 630 77 300 VRB/06 RMK AO2 T01060067 $
03949KAQV AQV20190414011011204/14/19 01:10:31  5-MIN KAQV 140710Z AUTO VRB05KT 10SM SCT030 11/07 A2965 630 77 300 VRB/05 RMK AO2 T01060067 $
03949KAQV AQV20190414011511204/14/19 01:15:31  5-MIN KAQV 140715Z AUTO VRB05KT 10SM SCT031 11/07 A2965 630 77 300 VRB/05 RMK AO2 T01060067 $
03949KAQV AQV20190414012011204/14/19 01:20:31  5-MIN KAQV 140720Z AUTO VRB05KT 10SM BKN031 10/07 A2965 630 80 200 VRB/05 RMK AO2 T01000067 $
03949KAQV AQV20190414012511204/14/19 01:25:31  5-MIN KAQV 140725Z AUTO VRB06KT 10SM BKN032 11/07 A2965 630 77 300 VRB/06 RMK AO2 T01060067 $
03949KAQV AQV20190414013011204/14/19 01:30:31  5-MIN KAQV 140730Z AUTO VRB05KT 10SM BKN032 11/07 A2964 630 77 300 VRB/05 RMK AO2 T01060067 $
03949KAQV AQV20190414013511204/14/19 01:35:31  5-MIN KAQV 140735Z AUTO VRB05KT 10SM BKN032 11/07 A2964 630 77 300 VRB/05 RMK AO2 T01060067 $
03949KAQV AQV20190414014011204/14/19 01:40:31  5-MIN KAQV 140740Z AUTO 24005KT 10SM BKN032 11/07 A2964 630 77 300 240/05 RMK AO2 T01060067 $
03949KAQV AQV20190414014512804/14/19 01:45:31  5-MIN KAQV 140745Z AUTO 24007KT 210V300 10SM BKN032 10/07 A2965 630 80 200 240/07 210V300 RMK AO2 T01000067 $
03949KAQV AQV20190414015011904/14/19 01:50:31  5-MIN KAQV 140750Z AUTO VRB05KT 10SM BKN032 10/07 A2965 630 80 200 VRB/05 RMK AO2 SLP038 T01000067 $
03949KAQV AQV20190414015511904/14/19 01:55:31  5-MIN KAQV 140755Z AUTO VRB04KT 10SM BKN032 10/07 A2965 630 80 200 VRB/04 RMK AO2 SLP038 T01000067 $
03949KAQV AQV20190414020011904/14/19 02:00:31  5-MIN KAQV 140800Z AUTO VRB04KT 10SM BKN029 BKN034 11/07 A2965 630 77 300 VRB/04 RMK AO2 T01060067 $
03949KAQV AQV20190414020513504/14/19 02:05:31  5-MIN KAQV 140805Z AUTO 26007KT 220V310 10SM FEW024 BKN032 11/07 A2965 620 77 300 260/07 220V310 RMK AO2 T01060067 $
03949KAQV AQV20190414021014104/14/19 02:10:31  5-MIN KAQV 140810Z AUTO 26008G16KT 210V300 10SM SCT026 OVC032 11/07 A2965 620 77 300 260/08G16 210V300 RMK AO2 T01060067 $
03949KAQV AQV20190414021515904/14/19 02:15:31  5-MIN KAQV 140815Z AUTO 25011G26KT 220V280 10SM SCT024 OVC032 11/07 A2966 620 77 300 250/11G26 220V280 RMK AO2 PK WND 26026/0813 T01060067 $
03949KAQV AQV20190414022015904/14/19 02:20:31  5-MIN KAQV 140820Z AUTO 27007G26KT 230V300 10SM SCT026 OVC032 11/06 A2966 620 74 300 260/07G26 230V300 RMK AO2 PK WND 26026/0813 T01060061 $
03949KAQV AQV20190414022515904/14/19 02:25:31  5-MIN KAQV 140825Z AUTO 26007G17KT 220V310 10SM BKN028 OVC035 11/06 A2966 620 74 300 260/07G17 220V310 RMK AO2 PK WND 26026/0813 T01060061 $
03949KAQV AQV20190414023016004/14/19 02:30:31  5-MIN KAQV 140830Z AUTO 26007KT 230V300 10SM FEW024 BKN030 OVC035 11/06 A2965 620 74 300 260/07 230V300 RMK AO2 PK WND 26026/0813 T01060061 $
03949KAQV AQV20190414023515204/14/19 02:35:31  5-MIN KAQV 140835Z AUTO 26009G16KT 210V280 10SM OVC030 11/06 A2966 620 74 300 260/09G16 210V280 RMK AO2 PK WND 26026/0813 T01060061 $
03949KAQV AQV20190414024015204/14/19 02:40:31  5-MIN KAQV 140840Z AUTO 23007G16KT 160V310 10SM OVC030 11/06 A2966 610 74 300 230/07G16 160V310 RMK AO2 PK WND 26026/0813 T01060061 $
03949KAQV AQV20190414024515204/14/19 02:45:31  5-MIN KAQV 140845Z AUTO 27009G17KT 240V310 10SM OVC030 11/06 A2967 610 74 300 260/09G17 240V310 RMK AO2 PK WND 26026/0813 T01060061 $
03949KAQV AQV20190414025012604/14/19 02:50:31  5-MIN KAQV 140850Z AUTO VRB06G17KT 10SM OVC029 11/06 A2967 610 74 300 VRB/06G17 RMK AO2 PK WND 26026/0813 $
03949KAQV AQV20190414025515904/14/19 02:55:31  5-MIN KAQV 140855Z AUTO 26007KT 190V280 10SM OVC029 11/06 A2967 610 74 300 260/07 190V280 RMK AO2 PK WND 26026/0813 SLP044 T01060061 53008 $
03949KAQV AQV20190414030014104/14/19 03:00:31  5-MIN KAQV 140900Z AUTO 26009G18KT 220V290 10SM BKN027 OVC032 10/06 A2967 610 77 200 250/09G18 220V290 RMK AO2 T01000061 $
03949KAQV AQV20190414030513404/14/19 03:05:31  5-MIN KAQV 140905Z AUTO 26012G20KT 220V290 10SM OVC029 10/06 A2968 600 77 200 250/12G20 220V290 RMK AO2 T01000061 $
03949KAQV AQV20190414031014104/14/19 03:10:31  5-MIN KAQV 140910Z AUTO 25009G22KT 190V310 10SM BKN025 OVC032 10/06 A2968 600 74 200 240/09G22 190V310 RMK AO2 T01000056 $
03949KAQV AQV20190414031514804/14/19 03:15:31  5-MIN KAQV 140915Z AUTO 26010G22KT 220V300 10SM BKN023 OVC029 10/06 A2969 590 74 200 260/10G22 220V300 RMK AO2 PRESRR T01000056 $
03949KAQV AQV20190414032012504/14/19 03:20:31  5-MIN KAQV 140920Z AUTO 26008G19KT 10SM BKN023 OVC029 10/06 A2969 590 74 200 260/08G19 RMK AO2 T01000056 $
03949KAQV AQV20190414032514104/14/19 03:25:31  5-MIN KAQV 140925Z AUTO 24007G19KT 200V280 10SM BKN023 OVC029 10/06 A2970 580 74 200 240/07G19 200V280 RMK AO2 T01000056 $
03949KAQV AQV20190414033012504/14/19 03:30:31  5-MIN KAQV 140930Z AUTO VRB04G16KT 10SM BKN023 OVC029 10/06 A2970 580 74 200 VRB/04G16 RMK AO2 T01000056 $
03949KAQV AQV20190414033513404/14/19 03:35:31  5-MIN KAQV 140935Z AUTO 25007G19KT 200V290 10SM OVC022 10/06 A2970 580 74 200 250/07G19 200V290 RMK AO2 T01000056 $
03949KAQV AQV20190414034013404/14/19 03:40:31  5-MIN KAQV 140940Z AUTO 26009G19KT 230V310 10SM OVC022 09/06 A2970 580 76 100 260/09G19 230V310 RMK AO2 T00940056 $
03949KAQV AQV20190414034513404/14/19 03:45:31  5-MIN KAQV 140945Z AUTO 25009G18KT 210V300 10SM OVC020 09/06 A2970 580 76 100 250/09G18 210V300 RMK AO2 T00940056 $
03949KAQV AQV20190414035014104/14/19 03:50:31  5-MIN KAQV 140950Z AUTO 25010G22KT 190V280 10SM OVC020 09/06 A2971 570 76 100 240/10G22 190V280 RMK AO2 SLP060 T00940056 $
03949KAQV AQV20190414035514104/14/19 03:55:31  5-MIN KAQV 140955Z AUTO 24010G22KT 210V280 10SM OVC021 09/06 A2971 570 76 100 240/10G22 210V280 RMK AO2 SLP060 T00940056 $
03949KAQV AQV20190414040011804/14/19 04:00:31  5-MIN KAQV 141000Z AUTO 26009G21KT 10SM OVC021 09/05 A2971 570 74 100 250/09G21 RMK AO2 T00940050 $
03949KAQV AQV20190414040511804/14/19 04:05:31  5-MIN KAQV 141005Z AUTO 25010G24KT 10SM OVC021 09/05 A2972 560 74 100 240/10G24 RMK AO2 T00940050 $
03949KAQV AQV20190414041011804/14/19 04:10:31  5-MIN KAQV 141010Z AUTO VRB05G24KT 10SM OVC021 09/05 A2972 560 74 100 VRB/05G24 RMK AO2 T00940050 $
03949KAQV AQV20190414041510004/14/19 04:15:31  5-MIN KAQV 141015Z AUTO 10SM OVC021 09/05 A2972 560 76 0 M /M RMK AO2 T00890050 $
03949KAQV AQV20190414042013204/14/19 04:20:31  5-MIN KAQV 141020Z AUTO 25008G18KT 210V300 10SM OVC020 09/05 A2972 560 76 0 250/08G18 210V300 RMK AO2 T00890050 $
03949KAQV AQV20190414042513204/14/19 04:25:31  5-MIN KAQV 141025Z AUTO 26010G20KT 230V290 10SM OVC020 09/05 A2972 560 76 0 260/10G20 230V290 RMK AO2 T00890050 $
03949KAQV AQV20190414043013204/14/19 04:30:31  5-MIN KAQV 141030Z AUTO 26008G20KT 220V290 10SM OVC020 09/04 A2973 550 73 0 250/08G20 220V290 RMK AO2 T00890044 $
03949KAQV AQV20190414043513204/14/19 04:35:31  5-MIN KAQV 141035Z AUTO 27008G18KT 190V320 10SM OVC020 09/05 A2974 550 76 0 260/08G18 190V320 RMK AO2 T00890050 $
03949KAQV AQV20190414044013204/14/19 04:40:31  5-MIN KAQV 141040Z AUTO 24007G18KT 210V280 10SM OVC020 09/05 A2974 540 76 0 240/07G18 210V280 RMK AO2 T00890050 $
03949KAQV AQV20190414044513204/14/19 04:45:31  5-MIN KAQV 141045Z AUTO 26008G15KT 220V300 10SM OVC020 09/05 A2974 540 76 0 250/08G15 220V300 RMK AO2 T00890050 $
03949KAQV AQV20190414045013304/14/19 04:50:31  5-MIN KAQV 141050Z AUTO 25007KT 220V290 10SM OVC019 09/05 A2974 550 76 0 250/07 220V290 RMK AO2 SLP069 T00890050 $
03949KAQV AQV20190414045513904/14/19 04:55:31  5-MIN KAQV 141055Z AUTO 27011G18KT 230V300 10SM OVC019 09/04 A2974 540 73 0 270/11G18 230V300 RMK AO2 SLP069 T00890044 $
03949KAQV AQV20190414050011604/14/19 05:00:31  5-MIN KAQV 141100Z AUTO VRB06G18KT 10SM OVC019 09/04 A2974 540 73 0 VRB/06G18 RMK AO2 T00890044 $
03949KAQV AQV20190414050513204/14/19 05:05:31  5-MIN KAQV 141105Z AUTO 25008G14KT 220V300 10SM OVC019 09/04 A2974 540 73 0 250/08G14 220V300 RMK AO2 T00890044 $
03949KAQV AQV20190414051011004/14/19 05:10:31  5-MIN KAQV 141110Z AUTO VRB06KT 10SM OVC021 09/04 A2974 540 73 0 VRB/06 RMK AO2 T00890044 $
03949KAQV AQV20190414051511604/14/19 05:15:31  5-MIN KAQV 141115Z AUTO 26007G17KT 10SM OVC021 09/04 A2974 540 73 0 260/07G17 RMK AO2 T00890044 $
03949KAQV AQV20190414052011604/14/19 05:20:31  5-MIN KAQV 141120Z AUTO 27008G17KT 10SM OVC021 09/04 A2975 540 73 0 260/08G17 RMK AO2 T00890044 $
03949KAQV AQV20190414052511004/14/19 05:25:31  5-MIN KAQV 141125Z AUTO VRB06KT 10SM OVC021 09/04 A2975 530 73 0 VRB/06 RMK AO2 T00890044 $
03949KAQV AQV20190414053011004/14/19 05:30:31  5-MIN KAQV 141130Z AUTO VRB06KT 10SM OVC021 09/04 A2975 530 73 0 VRB/06 RMK AO2 T00890044 $
03949KAQV AQV20190414053511604/14/19 05:35:31  5-MIN KAQV 141135Z AUTO 27008G15KT 10SM OVC021 09/04 A2975 530 73 0 270/08G15 RMK AO2 T00890044 $
03949KAQV AQV20190414054010004/14/19 05:40:31  5-MIN KAQV 141140Z AUTO 10SM OVC021 09/04 A2976 530 73 0 M /M RMK AO2 T00890044 $
03949KAQV AQV20190414054511004/14/19 05:45:31  5-MIN KAQV 141145Z AUTO VRB06KT 10SM OVC020 09/04 A2976 520 73 0 VRB/06 RMK AO2 T00890044 $
03949KAQV AQV20190414055015704/14/19 05:50:31  5-MIN KAQV 141150Z AUTO 26007KT 230V290 10SM OVC020 09/04 A2977 520 73 0 260/07 230V290 RMK AO2 SLP079 7//// T00890044 10117 20089 52007 $
03949KAQV AQV20190414055515704/14/19 05:55:31  5-MIN KAQV 141155Z AUTO 27008KT 230V310 10SM OVC020 09/04 A2977 510 73 0 260/08 230V310 RMK AO2 SLP081 7//// T00890044 10117 20089 52007 $
03949KAQV AQV20190414060010004/14/19 06:00:31  5-MIN KAQV 141200Z AUTO 10SM OVC021 09/04 A2978 510 73 0 M /M RMK AO2 T00890044 $
03949KAQV AQV20190414060512904/14/19 06:05:31  5-MIN KAQV 141205Z AUTO 26008KT 240V310 10SM OVC021 08/04 A2978 510 76 -100 260/08 240V310 RMK AO2 T00830044 $
03949KAQV AQV20190414061011004/14/19 06:10:31  5-MIN KAQV 141210Z AUTO 27008KT 10SM OVC021 09/04 A2978 510 73 0 270/08 RMK AO2 T00890044 $
03949KAQV AQV20190414061512604/14/19 06:15:31  5-MIN KAQV 141215Z AUTO 27008KT 240V300 10SM OVC021 09/04 A2978 500 73 0 260/08 240V300 RMK AO2 T00890044 $
03949KAQV AQV20190414062012604/14/19 06:20:31  5-MIN KAQV 141220Z AUTO 27007KT 230V300 10SM OVC021 09/04 A2979 500 73 0 260/07 230V300 RMK AO2 T00890044 $
03949KAQV AQV20190414062513204/14/19 06:25:31  5-MIN KAQV 141225Z AUTO 27008G18KT 230V310 10SM OVC021 09/04 A2979 500 73 0 270/08G18 230V310 RMK AO2 T00890044 $
03949KAQV AQV20190414063011604/14/19 06:30:31  5-MIN KAQV 141230Z AUTO VRB06G18KT 10SM OVC023 09/04 A2979 500 73 0 VRB/06G18 RMK AO2 T00890044 $
03949KAQV AQV20190414063511004/14/19 06:35:31  5-MIN KAQV 141235Z AUTO VRB05KT 10SM OVC023 09/04 A2979 490 73 0 VRB/05 RMK AO2 T00890044 $
03949KAQV AQV20190414064011604/14/19 06:40:31  5-MIN KAQV 141240Z AUTO 26010G20KT 10SM OVC023 09/04 A2980 490 73 0 260/10G20 RMK AO2 T00890044 $
03949KAQV AQV20190414064513204/14/19 06:45:31  5-MIN KAQV 141245Z AUTO 28009G20KT 250V320 10SM OVC022 09/04 A2980 490 73 0 280/09G20 250V320 RMK AO2 T00890044 $
03949KAQV AQV20190414065010704/14/19 06:50:31  5-MIN KAQV 141250Z AUTO 10SM OVC022 09/04 A2980 490 73 0 M /M RMK AO2 SLP091 T00890044 $
03949KAQV AQV20190414065512304/14/19 06:55:31  5-MIN KAQV 141255Z AUTO 27012G17KT 10SM OVC022 09/04 A2980 490 73 0 270/12G17 RMK AO2 SLP092 T00890044 $
03949KAQV AQV20190414070011604/14/19 07:00:31  5-MIN KAQV 141300Z AUTO 27010G18KT 10SM OVC022 09/04 A2980 490 73 0 270/10G18 RMK AO2 T00890044 $
03949KAQV AQV20190414070513204/14/19 07:05:31  5-MIN KAQV 141305Z AUTO 27009G20KT 230V320 10SM OVC022 09/04 A2981 480 73 0 270/09G20 230V320 RMK AO2 T00890044 $
03949KAQV AQV20190414071014404/14/19 07:10:31  5-MIN KAQV 141310Z AUTO 27009G20KT 230V310 10SM OVC022 09/04 A2981 480 73 0 270/09G20 230V310 RMK AO2 T0080 RMK AO2 T00890039
03949KAQV AQV20190414081513304/14/19 08:15:31  5-MIN KAQV 141415Z AUTO 27007G19KT 230V310 10SM OVC021 09/04 A2985 450 73 -100 260/07G19 230V310 RMK AO2 T00890044
03949KAQV AQV20190414082013304/14/19 08:20:31  5-MIN KAQV 141420Z AUTO 28008G19KT 230V070 10SM OVC021 09/04 A2985 440 73 -100 280/08G19 230V070 RMK AO2 T00890044
03949KAQV AQV20190414082513304/14/19 08:25:31  5-MIN KAQV 141425Z AUTO 28007G19KT 130V330 10SM OVC023 09/04 A2985 440 73 -100 280/07G19 130V330 RMK AO2 T00890044
03949KAQV AQV20190414083011404/14/19 08:30:31  5-MIN KAQV 141430Z AUTO VRB05G18KT 10SM OVC023 09/04 A2985 440 71 0 VRB/05G18 RMK AO2 T00940044
03949KAQV AQV20190414083513004/14/19 08:35:31  5-MIN KAQV 141435Z AUTO 29008G19KT 220V330 10SM OVC023 09/04 A2986 440 71 0 280/08G19 220V330 RMK AO2 T00940044
03949KAQV AQV20190414084013704/14/19 08:40:31  5-MIN KAQV 141440Z AUTO 29008G20KT 210V320 10SM BKN023 OVC028 09/04 A2986 430 71 0 290/08G20 210V320 RMK AO2 T00940044
03949KAQV AQV20190414084513004/14/19 08:45:31  5-MIN KAQV 141445Z AUTO 30011G20KT 260V360 10SM OVC025 09/04 A2986 430 71 0 300/11G20 260V360 RMK AO2 T00940044
03949KAQV AQV20190414085013004/14/19 08:50:31  5-MIN KAQV 141450Z AUTO 27012G21KT 10SM OVC025 09/04 A2987 430 73 -100 270/12G21 RMK AO2 SLP113 T00890044 51036
03949KAQV AQV20190414085514504/14/19 08:55:31  5-MIN KAQV 141455Z AUTO 27011G25KT 220V310 10SM OVC025 09/04 A2987 420 71 -100 270/11G25 220V310 RMK AO2 SLPNO T00890039 51036
03949KAQV AQV20190414090013304/14/19 09:00:31  5-MIN KAQV 141500Z AUTO 28010G25KT 240V310 10SM OVC025 09/04 A2988 420 71 -100 280/10G25 240V310 RMK AO2 T00890039
03949KAQV AQV20190414090513304/14/19 09:05:31  5-MIN KAQV 141505Z AUTO 28008G24KT 230V340 10SM OVC025 09/04 A2987 420 71 -100 270/08G24 230V340 RMK AO2 T00890039
03949KAQV AQV20190414091011704/14/19 09:10:31  5-MIN KAQV 141510Z AUTO VRB05G24KT 10SM OVC025 09/04 A2988 410 73 -100 VRB/05G24 RMK AO2 T00890044
03949KAQV AQV20190414091513304/14/19 09:15:31  5-MIN KAQV 141515Z AUTO 29008G19KT 250V330 10SM OVC024 09/04 A2989 410 73 -100 280/08G19 250V330 RMK AO2 T00890044
03949KAQV AQV20190414092013304/14/19 09:20:31  5-MIN KAQV 141520Z AUTO 29008G19KT 250V330 10SM OVC024 09/04 A2989 400 71 -100 290/08G19 250V330 RMK AO2 T00940044
03949KAQV AQV20190414092513304/14/19 09:25:31  5-MIN KAQV 141525Z AUTO 30009G19KT 260V350 10SM OVC024 09/04 A2990 400 68 -100 290/09G19 260V350 RMK AO2 T00940039
03949KAQV AQV20190414093013304/14/19 09:30:31  5-MIN KAQV 141530Z AUTO 29008G19KT 260V320 10SM OVC024 09/04 A2990 400 71 -100 280/08G19 260V320 RMK AO2 T00940044
03949KAQV AQV20190414093512704/14/19 09:35:31  5-MIN KAQV 141535Z AUTO 27008KT 230V300 10SM OVC024 09/04 A2990 390 71 -100 270/08 230V300 RMK AO2 T00940044
03949KAQV AQV20190414094011704/14/19 09:40:31  5-MIN KAQV 141540Z AUTO VRB04G18KT 10SM OVC026 09/04 A2991 390 71 -100 VRB/04G18 RMK AO2 T00940044
03949KAQV AQV20190414094513304/14/19 09:45:31  5-MIN KAQV 141545Z AUTO 30009G17KT 250V060 10SM OVC026 09/04 A2990 390 71 -100 290/09G17 250V060 RMK AO2 T00940044
03949KAQV AQV20190414095012104/14/19 09:50:31  5-MIN KAQV 141550Z AUTO VRB04G17KT 10SM OVC026 10/04 A2991 390 68 0 VRB/04G17 RMK AO2 SLP128 T01000044
03949KAQV AQV20190414095513704/14/19 09:55:31  5-MIN KAQV 141555Z AUTO 29009G17KT 240V360 10SM OVC026 10/04 A2991 390 68 0 290/09G17 240V360 RMK AO2 SLP128 T01000044
03949KAQV AQV20190414100013004/14/19 10:00:31  5-MIN KAQV 141600Z AUTO 28007G17KT 200V350 10SM OVC026 10/04 A2991 390 68 0 280/07G17 200V350 RMK AO2 T01000044
03949KAQV AQV20190414100513004/14/19 10:05:31  5-MIN KAQV 141605Z AUTO 29008G16KT 230V340 10SM OVC028 11/04 A2991 380 66 0 290/08G16 230V340 RMK AO2 T01060044
03949KAQV AQV20190414101013004/14/19 10:10:31  5-MIN KAQV 141610Z AUTO 27009G20KT 120V310 10SM OVC028 11/04 A2991 380 66 0 270/09G20 120V310 RMK AO2 T01060044
03949KAQV AQV20190414101511604/14/19 10:15:31  5-MIN KAQV 141615Z AUTO VRB06G20KT 10SM OVC028 11/05 A2991 380 66 100 VRB/06G20 RMK AO2 T01110050
03949KAQV AQV20190414102011604/14/19 10:20:31  5-MIN KAQV 141620Z AUTO 29009G20KT 10SM OVC028 12/05 A2991 390 63 100 280/09G20 RMK AO2 T01170050
03949KAQV AQV20190414102511604/14/19 10:25:31  5-MIN KAQV 141625Z AUTO VRB05G20KT 10SM BKN028 12/05 A2991 390 61 200 VRB/05G20 RMK AO2 T01220050
03949KAQV AQV20190414103013204/14/19 10:30:31  5-MIN KAQV 141630Z AUTO 29008G16KT 240V350 10SM BKN028 12/05 A2991 380 61 200 290/08G16 240V350 RMK AO2 T01220050
03949KAQV AQV20190414103513204/14/19 10:35:31  5-MIN KAQV 141635Z AUTO 30007G16KT 240V110 10SM BKN028 13/06 A2991 380 61 200 300/07G16 240V110 RMK AO2 T01280056
03949KAQV AQV20190414104013204/14/19 10:40:31  5-MIN KAQV 141640Z AUTO 28011G21KT 240V330 10SM BKN028 12/05 A2992 380 61 200 270/11G21 240V330 RMK AO2 T01220050
03949KAQV AQV20190414104513204/14/19 10:45:31  5-MIN KAQV 141645Z AUTO 29008G22KT 220V350 10SM SCT028 13/05 A2991 380 59 200 290/08G22 220V350 RMK AO2 T01280050
03949KAQV AQV20190414105009004/14/19 10:50:31  5-MIN KAQV 141650Z AUTO 10SM SCT028 13/06 A2992 380 59 300 M /M RMK AO2
03949KAQV AQV20190414105513904/14/19 10:55:31  5-MIN KAQV 141655Z AUTO 28009G18KT 200V320 10SM SCT030 13/06 A2992 380 61 200 280/09G18 200V320 RMK AO2 SLP132 T01280056
03949KAQV AQV20190414110013204/14/19 11:00:31  5-MIN KAQV 141700Z AUTO 29009G18KT 250V340 10SM SCT030 13/06 A2992 380 59 300 290/09G18 250V340 RMK AO2 T01330056
03949KAQV AQV20190414110513204/14/19 11:05:31  5-MIN KAQV 141705Z AUTO 32008G16KT 270V020 10SM SCT032 14/06 A2992 380 57 400 320/08G16 270V020 RMK AO2 T01390056
03949KAQV AQV20190414111011604/14/19 11:10:31  5-MIN KAQV 141710Z AUTO VRB05G18KT 10SM SCT032 14/06 A2992 380 55 400 VRB/05G18 RMK AO2 T01440056
03949KAQV AQV20190414111513204/14/19 11:15:31  5-MIN KAQV 141715Z AUTO 32008G18KT 280V360 10SM SCT032 14/06 A2992 380 55 400 320/08G18 280V360 RMK AO2 T01440056
03949KAQV AQV20190414112013204/14/19 11:20:31  5-MIN KAQV 141720Z AUTO 33007G18KT 230V010 10SM SCT031 14/06 A2992 370 55 400 320/07G18 230V010 RMK AO2 T01440056
03949KAQV AQV20190414112510004/14/19 11:25:31  5-MIN KAQV 141725Z AUTO 10SM SCT031 14/06 A2992 370 55 400 M /M RMK AO2 T01440056
03949KAQV AQV20190414113011604/14/19 11:30:31  5-MIN KAQV 141730Z AUTO VRB06G14KT 10SM SCT032 14/06 A2992 370 55 400 VRB/06G14 RMK AO2 T01440056
03949KAQV AQV20190414113513204/14/19 11:35:31  5-MIN KAQV 141735Z AUTO 29008G14KT 220V350 10SM SCT032 15/06 A2992 370 55 500 280/08G14 220V350 RMK AO2 T01500061
03949KAQV AQV20190414114013204/14/19 11:40:31  5-MIN KAQV 141740Z AUTO 29008G18KT 240V360 10SM SCT032 14/06 A2992 370 57 400 290/08G18 240V360 RMK AO2 T01440061
03949KAQV AQV20190414114511604/14/19 11:45:31  5-MIN KAQV 141745Z AUTO VRB04G17KT 10SM SCT034 15/06 A2992 370 55 500 VRB/04G17 RMK AO2 T01500061
03949KAQV AQV20190414115014104/14/19 11:50:31  5-MIN KAQV 141750Z AUTO 29010G20KT 10SM SCT034 14/06 A2992 380 55 400 290/10G20 RMK AO2 SLP132 T01440056 10150 20083 53033
03949KAQV AQV20190414115514104/14/19 11:55:31  5-MIN KAQV 141755Z AUTO VRB04G20KT 10SM BKN034 15/06 A2992 380 55 500 VRB/04G20 RMK AO2 SLP132 T01500061 10150 20083 53033
03949KAQV AQV20190414120010004/14/19 12:00:31  5-MIN KAQV 141800Z AUTO 10SM BKN034 15/06 A2992 380 55 500 M /M RMK AO2 T01500061
03949KAQV AQV20190414120510004/14/19 12:05:31  5-MIN KAQV 141805Z AUTO 10SM SCT034 15/06 A2992 380 55 500 M /M RMK AO2 T01500061
03949KAQV AQV20190414121012604/14/19 12:10:31  5-MIN KAQV 141810Z AUTO 30007KT 260V040 10SM SCT034 16/06 A2992 380 51 600 300/07 260V040 RMK AO2 T01610061
03949KAQV AQV20190414121511604/14/19 12:15:31  5-MIN KAQV 141815Z AUTO VRB05G18KT 10SM FEW034 14/06 A2992 370 55 400 VRB/05G18 RMK AO2 T01440056
03949KAQV AQV20190414122013204/14/19 12:20:31  5-MIN KAQV 141820Z AUTO 30009G18KT 230V340 10SM FEW034 15/06 A2992 380 53 500 290/09G18 230V340 RMK AO2 T01500056
03949KAQV AQV20190414122513204/14/19 12:25:31  5-MIN KAQV 141825Z AUTO 30008G20KT 200V020 10SM FEW034 15/06 A2992 380 53 500 300/08G20 200V020 RMK AO2 T01500056
03949KAQV AQV20190414123010004/14/19 12:30:31  5-MIN KAQV 141830Z AUTO 10SM FEW034 16/06 A2992 380 51 600 M /M RMK AO2 T01560056
03949KAQV AQV20190414123511604/14/19 12:35:31  5-MIN KAQV 141835Z AUTO VRB05G14KT 10SM FEW035 16/06 A2992 370 53 600 VRB/05G14 RMK AO2 T01560061
03949KAQV AQV20190414124011104/14/19 12:40:31  5-MIN KAQV 141840Z AUTO VRB05G17KT 10SM FEW035 16/06  74 300 000/00 RMK AO2 SLP144 T01330089
03949KAQV AQV20190414185515304/14/19 18:55:31  5-MIN KAQV 150055Z AUTO 00000KT 10SM CLR 13/09 A2995 340 80 200 000/00 RMK AO2 SLP144 T01280094996 340 86 100 000/00 RMK AO2 T01170094
03949KAQV AQV20190414191510704/14/19 19:15:31  5-MIN KAQV 150115Z AUTO 00000KT 10SM CLR 12/09 A2996 340 86 100 000/00 RMK AO2 T01170094
03949KAQV AQV20190414191514204/14/19 19:15:31  5-MIN KAQV 150115Z AUTO 00000KT 10SM CLR 12/09 A150140Z AUTO 00000KT 10SM CLR 11/09 A2997 330 86 0 000/00 RMK AO2 T01110089
03949KAQV AQV20190414192010704/14/19 19:20:31  5-MIN KAQV 150120Z AUTO 00000KT 10SM CLR 12/09 A2996 340 86 100 000/00 RMK AO2 T01170094
03949KAQV AQV20190414192510504/14/19 19:25:31  5-MIN KAQV 150125Z AUTO 00000KT 10SM CLR 11/09 A2997 330 86 0 000/00 RMK AO2 T01110089
03949KAQV AQV20190414193010504/14/19 19:30:31  5-MIN KAQV 150130Z AUTO 00000KT 10SM CLR 11/09 A2997 330 86 0 000/00 RMK AO2 T01110089
03949KAQV AQV20190414193507004/14/19 19:35:31  5-MIN KAQV 150135Z AUTO 00000KT 10SM CAO2 T01170094
03949KAQV AQV20190414193510504/14/19 19:35:31  5-MIN KAQV 150135Z AUTO 00000KT 10SM CLR 11/09 A2997 330 89 0 000/00 RMK AO2 T01110094
03949KAQV AQV20190414194010504/14/19 19:40:31  5-MIN KAQV 150140Z AUTO 00000KT 10SM CLR 11/09 A2997 330 86 0 000/00 RMK AO2 T01110089
03949KAQV AQV20190414194510504/14/19 19:45:31  5-MIN KAQV 150145Z AUTO 00000KT 10SM CLR 11/09 A2998 330 89 0 000/00 RMK AO2 T01060089
03949KAQV AQV20190414195011204/14/19 19:50:31  5-MIN KAQV 150150Z AUTO 00000KT 10SM CLR 11/09 A2998 320 89 0 000/00 RMK AO2 SLP151 T01060089
03949KAQV AQV20190414195017704/14/19 19:50:31  5-MIN KAQV 150150Z AUTO 00000KT 10SM CLR 11/09 A2998 320 89 0 000/00 RMK AO2 SLP151 T010600890O 00000KT 10SM CLR 11/09 A2997 330 86 0 000/00 RMK AO2 T01110089
03949KAQV AQV20190414195511204/14/19 19:55:31  5-MIN KAQV 150155Z AUTO 00000KT 10SM CLR 11/09 A2998 320 89 0 000/00 RMK AO2 SLP152 T01060089
03949KAQV AQV20190414200010504/14/19 20:00:31  5-MIN KAQV 150200Z AUTO 00000KT 10SM CLR 11/09 A2998 320 89 0 000/00 RMK AO2 T01060089
03949KAQV AQV20190414200510504/14/19 20:05:31  5-MIN KAQV 150205Z AUTO 00000KT 10SM CLR 11/09 A2998 320 89 0 000/00 RMK AO2 T01060089
03949KAQV AQV20190414201010804/14/19 20:10:31  5-MIN KAQV 150210Z AUTO 00000KT 10SM CLR 10/09 A2998 320 93 -100 000/00 RMK AO2 T01000089
03949KAQV AQV20190414201011204/14/19 20:10:31  5-MIN KAQV 150210Z AUTO 00000KT 10SM CLR 10/09 A2998 320 89 0 000/00 RMK AO2 SLP151 T01060089
03949KAQV AQV20190414201510804/14/19 20:15:31  5-MIN KAQV 150215Z AUTO 00000KT 10SM CLR 10/09 A2999 310 93 -100 000/00 RMK AO2 T01000089
03949KAQV AQV20190414202010804/14/19 20:20:31  5-MIN KAQV 150220Z AUTO 00000KT 10SM CLR 10/08 A2999 310 89 -100 000/00 RMK AO2 T01000083
03949KAQV AQV20190414202510804/14/19 20:25:31  5-MIN KAQV 150225Z AUTO 00000KT 10SM CLR 10/08 A2999 310 89 -100 000/00 RMK AO2 T01000083
03949KAQV AQV20190414203010804/14/19 20:30:31  5-MIN KAQV 150230Z AUTO 00000KT 10SM CLR 10/08 A2999 310 89 -100 000/00 RMK AO2 T01000083
03949KAQV AQV20190414203510804/14/19 20:35:31  5-MIN KAQV 150235Z AUTO 00000KT 10SM CLR 09/08 A2999 310 93 -200 000/00 RMK AO2 T00940083
03949KAQV AQV20190414204010804/14/19 20:40:31  5-MIN KAQV 150240Z AUTO 00000KT 10SM CLR 10/08 A2999 310 89 -100 000/00 RMK AO2 T01000083
03949KAQV AQV20190414204510804/14/19 20:45:31  5-MIN KAQV 150245Z AUTO 00000KT 10SM CLR 10/08 A2999 310 89 -100 000/00 RMK AO2 T01000083
03949KAQV AQV20190414205012104/14/19 20:50:31  5-MIN KAQV 150250Z AUTO 00000KT 10SM CLR 10/08 A2999 310 89 -100 000/00 RMK AO2 SLP157 T01000083 53006
03949KAQV AQV20190414205512104/14/19 20:55:31  5-MIN KAQV 150255Z AUTO 00000KT 10SM CLR 09/08 A3000 310 93 -200 000/00 RMK AO2 SLP159 T00940083 53006
03949KAQV AQV20190414210010804/14/19 21:00:31  5-MIN KAQV 150300Z AUTO 00000KT 10SM CLR 09/08 A3000 300 93 -200 000/00 RMK AO2 T00940083
03949KAQV AQV20190414210510804/14/19 21:05:31  5-MIN KAQV 150305Z AUTO 00000KT 10SM CLR 09/08 A3000 300 93 -200 000/00 RMK AO2 T00940083
03949KAQV AQV20190414211010804/14/19 21:10:31  5-MIN KAQV 150310Z AUTO 00000KT 10SM CLR 09/08 A3000 300 93 -200 000/00 RMK AO2 T00940083
03949KAQV AQV20190414211510804/14/19 21:15:31  5-MIN KAQV 150315Z AUTO 00000KT 10SM CLR 09/08 A3001 300 93 -200 000/00 RMK AO2 T00940083
03949KAQV AQV20190414212010804/14/19 21:20:31  5-MIN KAQV 150320Z AUTO 00000KT 10SM CLR 09/08 A3001 300 96 -300 000/00 RMK AO2 T00890083
03949KAQV AQV20190414212510804/14/19 21:25:31  5-MIN KAQV 150325Z AUTO 00000KT 10SM CLR 09/08 A3001 290 96 -300 000/00 RMK AO2 T00890083
03949KAQV AQV20190414213010804/14/19 21:30:31  5-MIN KAQV 150330Z AUTO 00000KT 10SM CLR 09/08 A3001 290 93 -300 000/00 RMK AO2 T00890078
03949KAQV AQV20190414213510804/14/19 21:35:31  5-MIN KAQV 150335Z AUTO 00000KT 10SM CLR 09/08 A3001 290 93 -300 000/00 RMK AO2 T00890078
03949KAQV AQV20190414214010804/14/19 21:40:31  5-MIN KAQV 150340Z AUTO 00000KT 10SM CLR 09/08 A3001 290 93 -300 000/00 RMK AO2 T00890078
03949KAQV AQV20190414214510804/14/19 21:45:31  5-MIN KAQV 150345Z AUTO 00000KT 10SM CLR 09/08 A3001 290 93 -300 000/00 RMK AO2 T00890078
03949KAQV AQV20190414215011504/14/19 21:50:31  5-MIN KAQV 150350Z AUTO 00000KT 10SM CLR 09/08 A3002 290 93 -300 000/00 RMK AO2 SLP166 T00890078
03949KAQV AQV20190414215511504/14/19 21:55:31  5-MIN KAQV 150355Z AUTO 00000KT 10SM CLR 09/08 A3002 290 93 -300 000/00 RMK AO2 SLP165 T00890078
03949KAQV AQV20190414220010804/14/19 22:00:31  5-MIN KAQV 150400Z AUTO 00000KT 10SM CLR 09/08 A3001 290 93 -300 000/00 RMK AO2 T00890078
03949KAQV AQV20190414220510804/14/19 22:05:31  5-MIN KAQV 150405Z AUTO 00000KT 10SM CLR 08/08 A3001 290 96 -400 000/00 RMK AO2 T00830078
03949KAQV AQV20190414221010804/14/19 22:10:31  5-MIN KAQV 150410Z AUTO 00000KT 10SM CLR 08/08 A3002 290 96 -400 000/00 RMK AO2 T00830078
03949KAQV AQV20190414221510804/14/19 22:15:31  5-MIN KAQV 150415Z AUTO 00000KT 10SM CLR 09/08 A3002 290 93 -300 000/00 RMK AO2 T00890078
03949KAQV AQV20190414222010804/14/19 22:20:31  5-MIN KAQV 150420Z AUTO 00000KT 10SM CLR 08/08 A3002 290 96 -400 000/00 RMK AO2 T00830078
03949KAQV AQV20190414222510804/14/19 22:25:31  5-MIN KAQV 150425Z AUTO 00000KT 10SM CLR 08/07 A3002 290 93 -400 000/00 RMK AO2 T00830072
03949KAQV AQV20190414223010804/14/19 22:30:31  5-MIN KAQV 150430Z AUTO 00000KT 10SM CLR 08/07 A3002 290 93 -400 000/00 RMK AO2 T00830072
03949KAQV AQV20190414223510804/14/19 22:35:31  5-MIN KAQV 150435Z AUTO 00000KT 10SM CLR 08/07 A3001 290 93 -400 000/00 RMK AO2 T00830072
03949KAQV AQV20190414224010804/14/19 22:40:31  5-MIN KAQV 150440Z AUTO 00000KT 10SM CLR 08/07 A3001 290 93 -400 000/00 RMK AO2 T00830072
03949KAQV AQV20190414224510804/14/19 22:45:31  5-MIN KAQV 150445Z AUTO 00000KT 10SM CLR 08/07 A3002 290 93 -400 000/00 RMK AO2 T00830072
03949KAQV AQV20190414225012104/14/19 22:50:31  5-MIN KAQV 150450Z AUTO 00000KT 10SM CLR 08/07 A3002 290 95 A3007 240 93 -700 000/00 RMK AO2 T00610050
03949KAQV AQV20190415054010704/15/19 05:40:31  5-MIN KAQV 151140Z AUTO 00000KT 9SM CLR 06/05 A3007 240 93 -700 000/00 RMK AO2 T00610050
03949KAQV AQV20190415054513204/15/19 05:45:31  5-MIN KAQV 151145Z AUTO 00000KT 8SM CLR 06/05 A3007 240 93 -700 000/00 RMK AO2 SLP183 T00610050 10083 20061 53002
03949KAQV AQV20190415055513204/15/19 05:55:31  5-MIN KAQV 151155Z AUTO 00000KT 7SM CLR 06/05 A3007 240 93 -700 000/00 RMK AO2 SLP184 T00610050 10083 20061 53002
03949KAQV AQV20190415060014704/15/19 06:00:31  5-MIN KAQV 151200Z AUTO 00000KT 8SM CLR 06/05 A3007 230 93 -700 000/00 RMK AO2 T0061005004/9 22093 -700 000/00 RMK AO2 T00610050
03949KAQV AQV20190415061010704/15/19 06:10:31  5-MIN KAQV 151210Z AUTO 00000KT 8SM CLR 06/06 A3008 230 96 -700 000/00 RMK AO2 T00610056
03949KAQV AQV20190415061510704/15/19 06:15:31  5-MIN KAQV 151215Z AUTO 00000KT 9SM CLR 06/06 A3008 230 96 -700 000/00 RMK AO2 T00610056
03949KAQV AQV20190415062010804/15/19 06:20:31  5-MIN KAQV 151220Z AUTO 00000KT 10SM CLR 07/06 A3009 220 93 -600 000/00 RMK AO2 T00670056
03949KAQV AQV20190415062011004/15/19 06:20:31  5-MIN KAQV 151220Z AUTO 00000KT 10SM CLR 07/06 A3009 2 KAQV 151245Z AUTO 00000KT 10SM C0056
03949KAQV AQV20190415062510804/15/19 06:25:31  5-MIN KAQV 151225Z AUTO 00000KT 10SM CLR 07/06 A3009 220 93 -600 000/00 RMK AO2 T00670056
03949KAQV AQV20190415063010804/15/19 06:30:31  5-MIN KAQV 151230Z AUTO 00000KT 10SM CLR 07/06 A3009 220 96 -600 000/00 RMK AO2 T00670061
03949KAQV AQV20190415063510804/15/19 06:35:31  5-MIN KAQV 151235Z AUTO 00000KT 10SM CLR 07/07 A3009 220 96 -600 000/00 RMK AO2 T00720067
03949KAQV AQV20190415063515404/15/19 06:35:31  5-MIN KAQV 151235Z AUTO 00000KT 10SM CLR 07/07 A3009 220 96 -600 000/00 RMK AO2 T0072006704/13010 210 100 -600 000/00 RMK AO2 T00720072
03949KAQV AQV20190415064010904/15/19 06:40:31  5-MIN KAQV 151240Z AUTO 00000KT 10SM CLR 07/07 A3010 210 100 -600 000/00 RMK AO2 T00720072
03949KAQV AQV20190415064510804/15/19 06:45:31  5-MIN KAQV 151245Z AUTO 00000KT 10SM CLR 08/07 A3010 210 96 -500 000/00 RMK AO2 T00780072
03949KAQV AQV20190415065011504/15/19 06:50:31  5-MIN KAQV 151250Z AUTO 00000KT 10SM CLR 09/08 A3010 210 93 -400 000/00 RMK AO2 SLP193 T00890078
03949KAQV AQV20190415065511504/15/19 06:55:31  5-MIN KAQV 151255Z AUTO 17003KT 10SM CLR 09/08 A3010 210 96 -400 170/03 RMK AO2 SLP195 T00890083
03949KAQV AQV20190415070010804/15/19 07:00:31  5-MIN KAQV 151300Z AUTO 18004KT 10SM CLR 10/08 A3010 210 89 -300 170/04 RMK AO2 T01000083
03949KAQV AQV20190415070510804/15/19 07:05:31  5-MIN KAQV 151305Z AUTO 17003KT 10SM CLR 11/08 A3011 200 86 -200 170/03 RMK AO2 T01060083
03949KAQV AQV20190415071010804/15/19 07:10:31  5-MIN KAQV 151310Z AUTO VRB03KT 10SM CLR 11/09 A3011 200 86 -100 VRB/03 RMK AO2 T01110089
03949KAQV AQV20190415071510804/15/19 07:15:31  5-MIN KAQV 151315Z AUTO 17004KT 10SM CLR 12/08 A3011 200 80 -100 170/04 RMK AO2 T01170083
03949KAQV AQV20190415072010504/15/19 07:20:31  5-MIN KAQV 151320Z AUTO 18003KT 10SM CLR 12/09 A3011 200 80 0 170/03 RMK AO2 T01220089
03949KAQV AQV20190415072510504/15/19 07:25:31  5-MIN KAQV 151325Z AUTO 18003KT 10SM CLR 12/09 A3011 200 80 0 180/03 RMK AO2 T01220089
03949KAQV AQV20190415073010504/15/19 07:30:31  5-MIN KAQV 151330Z AUTO 00000KT 10SM CLR 13/09 A3012 190 77 0 000/00 RMK AO2 T01280089
03949KAQV AQV20190415073510504/15/19 07:35:31  5-MIN KAQV 151335Z AUTO VRB03KT 10SM CLR 13/09 A3012 190 77 0 VRB/03 RMK AO2 T01280089
03949KAQV AQV20190415074010704/15/19 07:40:31  5-MIN KAQV 151340Z AUTO VRB04KT 10SM CLR 13/10 A3012 190 80 100 VRB/04 RMK AO2 T01330100
03949KAQV AQV20190415074510704/15/19 07:45:31  5-MIN KAQV 151345Z AUTO VRB04KT 10SM CLR 13/09 A3012 190 77 100 VRB/04 RMK AO2 T01330094
03949KAQV AQV20190415075011404/15/19 07:50:31  5-MIN KAQV 151350Z AUTO 18003KT 10SM CLR 14/09 A3012 190 74 100 180/03 RMK AO2 SLP200 T01390094
03949KAQV AQV20190415075511404/15/19 07:55:31  5-MIN KAQV 151355Z AUTO 18005KT 10SM CLR 14/10 A3012 190 77 100 170/05 RMK AO2 SLP201 T01390100
03949KAQV AQV20190415080010704/15/19 08:00:31  5-MIN KAQV 151400Z AUTO 18006KT 10SM CLR 14/09 A3012 190 74 100 180/06 RMK AO2 T01390094
03949KAQV AQV20190415080510704/15/19 08:05:31  5-MIN KAQV 151405Z AUTO VRB05KT 10SM CLR 14/09 A3012 190 72 200 VRB/05 RMK AO2 T01440094
03949KAQV AQV20190415081010704/15/19 08:10:31  5-MIN KAQV 151410Z AUTO VRB04KT 10SM CLR 15/10 A3012 190 72 300 VRB/04 RMK AO2 T01500100
03949KAQV AQV20190415081510704/15/19 08:15:31  5-MIN KAQV 151415Z AUTO VRB03KT 10SM CLR 15/10 A3012 190 72 300 VRB/03 RMK AO2 T01500100
03949KAQV AQV20190415082010704/15/19 08:20:31  5-MIN KAQV 151420Z AUTO VRB04KT 10SM CLR 16/10 A3013 190 67 400 VRB/04 RMK AO2 T01610100
03949KAQV AQV20190415082510704/15/19 08:25:31  5-MIN KAQV 151425Z AUTO 17004KT 10SM CLR 16/10 A3013 190 69 300 160/04 RMK AO2 T01560100
03949KAQV AQV20190415083010704/15/19 08:30:31  5-MIN KAQV 151430Z AUTO 19005KT 10SM CLR 16/10 A3013 190 67 400 180/05 RMK AO2 T01610100
03949KAQV AQV20190415083510704/15/19 08:35:31  5-MIN KAQV 151435Z AUTO VRB04KT 10SM CLR 17/10 A3013 190 64 500 VRB/04 RMK AO2 T01670100
03949KAQV AQV20190415084010704/15/19 08:40:31  5-MIN KAQV 151440Z AUTO 19004KT 10SM CLR 17/10 A3013 180 64 500 180/04 RMK AO2 T01670100
03949KAQV AQV20190415084510704/15/19 08:45:31  5-MIN KAQV 151445Z AUTO 18005KT 10SM CLR 17/10 A3013 180 62 500 170/05 RMK AO2 T01720100
03949KAQV AQV20190415085012004/15/19 08:50:31  5-MIN KAQV 151450Z AUTO VRB04KT 10SM CLR 18/10 A3013 180 60 600 VRB/04 RMK AO2 SLP202 T01780100 51013
03949KAQV AQV20190415085512004/15/19 08:55:31  5-MIN KAQV 151455Z AUTO VRB05KT 10SM CLR 18/09 A3013 180 58 600 VRB/05 RMK AO2 SLP202 T01780094 51013
03949KAQV AQV20190415090010704/15/19 09:00:31  5-MIN KAQV 151500Z AUTO 18004KT 10SM CLR 18/09 A3013 180 58 600 180/04 RMK AO2 T01780094
03949KAQV AQV20190415090510704/15/19 09:05:31  5-MIN KAQV 151505Z AUTO VRB04KT 10SM CLR 18/10 A3013 180 58 700 VRB/04 RMK AO2 T01830100
03949KAQV AQV20190415091010704/15/19 09:10:31  5-MIN KAQV 151510Z AUTO VRB05KT 10SM CLR 19/10 A3013 180 56 700 VRB/05 RMK AO2 T01890100
03949KAQV AQV20190415091510704/15/19 09:15:31  5-MIN KAQV 151515Z AUTO 17005KT 10SM CLR 18/09 A3014 180 56 600 170/05 RMK AO2 T01830094
03949KAQV AQV20190415092010704/15/19 09:20:31  5-MIN KAQV 151520Z AUTO 18005KT 10SM CLR 19/09 A3014 180 54 700 170/05 RMK AO2 T01890094
03949KAQV AQV20190415092510704/15/19 09:25:31  5-MIN KAQV 151525Z AUTO 19006KT 10SM CLR 19/09 A3014 180 52 800 190/06 RMK AO2 T01940094
03949KAQV AQV20190415093010704/15/19 09:30:31  5-MIN KAQV 151530Z AUTO VRB04KT 10SM CLR 20/09 A3014 180 50 800 VRB/04 RMK AO2 T02000094
03949KAQV AQV20190415093510704/15/19 09:35:31  5-MIN KAQV 151535Z AUTO 00000KT 10SM CLR 20/08 A3014 180 46 800 000/00 RMK AO2 T02000083
03949KAQV AQV20190415094010704/15/19 09:40:31  5-MIN KAQV 151540Z AUTO VRB05KT 10SM CLR 20/08 A3014 170 46 800 VRB/05 RMK AO2 T02000083
03949KAQV AQV20190415094510704/15/19 09:45:31  5-MIN KAQV 151545Z AUTO VRB04KT 10SM CLR 20/08 A3014 170 46 800 VRB/04 RMK AO2 T02000083
03949KAQV AQV20190415095011404/15/19 09:50:31  5-MIN KAQV 151550Z AUTO VRB05KT 10SM CLR 20/08 A3014 170 46 800 VRB/05 RMK AO2 SLP206 T02000083
03949KAQV AQV20190415095511504/15/19 09:55:31  5-MIN KAQV 151555Z AUTO 00000KT 10SM CLR 22/09 A3014 170 43 1000 000/00 RMK AO2 SLP207 T02170089
03949KAQV AQV20190415100010804/15/19 10:00:31  5-MIN KAQV 151600Z AUTO VRB05KT 10SM CLR 21/08 A3014 170 43 1000 VRB/05 RMK AO2 T02110083
03949KAQV AQV20190415100510704/15/19 10:05:31  5-MIN KAQV 151605Z AUTO VRB04KT 10SM CLR 21/08 A3014 170 43 900 VRB/04 RMK AO2 T02060078
03949KAQV AQV20190415101012304/15/19 10:10:31  5-MIN KAQV 151610Z AUTO 17007KT 110V220 10SM CLR 21/07 A3014 170 40 900 170/07 110V220 RMK AO2 T02060067
03949KAQV AQV20190415101510804/15/19 10:15:31  5-MIN KAQV 151615Z AUTO VRB06KT 10SM CLR 21/07 A3015 170 40 1000 VRB/06 RMK AO2 T02110072
03949KAQV AQV20190415102010804/15/19 10:20:31  5-MIN KAQV 151620Z AUTO VRB04KT 10SM CLR 21/07 A3015 170 40 1000 VRB/04 RMK AO2 T02110072
03949KAQV AQV20190415102510804/15/19 10:25:31  5-MIN KAQV 151625Z AUTO VRB05KT 10SM CLR 21/07 A3015 170 40 1000 VRB/05 RMK AO2 T02110072
03949KAQV AQV20190415103010804/15/19 10:30:31  5-MIN KAQV 151630Z AUTO 19006KT 10SM CLR 21/07 A3014 170 40 1000 180/06 RMK AO2 T02110072
03949KAQV AQV20190415103510804/15/19 10:35:31  5-MIN KAQV 151635Z AUTO VRB04KT 10SM CLR 21/07 A3014 170 40 1000 VRB/04 RMK AO2 T02110072
03949KAQV AQV20190415104010804/15/19 10:40:31  5-MIN KAQV 151640Z AUTO VRB05KT 10SM CLR 22/07 A3014 170 39 1000 VRB/05 RMK AO2 T02170072
03949KAQV AQV20190415104510804/15/19 10:45:31  5-MIN KAQV 151645Z AUTO VRB04KT 10SM CLR 22/07 A3014 170 39 1000 VRB/04 RMK AO2 T02170072
03949KAQV AQV20190415105011504/15/19 10:50:31  5-MIN KAQV 151650Z AUTO VRB06KT 10SM CLR 22/07 A3014 170 37 1100 VRB/06 RMK AO2 SLP206 T02220072
03949KAQV AQV20190415105511504/15/19 10:55:31  5-MIN KAQV 151655Z AUTO VRB05KT 10SM CLR 22/07 A3014 170 37 1000 VRB/05 RMK AO2 SLP206 T02170067
03949KAQV AQV20190415110010804/15/19 11:00:31  5-MIN KAQV 151700Z AUTO VRB06KT 10SM CLR 22/07 A3014 180 37 1000 VRB/06 RMK AO2 T02170067
03949KAQV AQV20190415110510804/15/19 11:05:31  5-MIN KAQV 151705Z AUTO 19006KT 10SM CLR 22/07 A3014 180 37 1100 190/06 RMK AO2 T02220072
03949KAQV AQV20190415111010804/15/19 11:10:31  5-MIN KAQV 151710Z AUTO VRB05KT 10SM CLR 23/07 A3013 180 35 1200 VRB/05 RMK AO2 T02280067
03949KAQV AQV20190415111512404/15/19 11:15:31  5-MIN KAQV 151715Z AUTO 23007KT 200V270 10SM CLR 23/06 A3013 180 33 1200 230/07 200V270 RMK AO2 T02280061
03949KAQV AQV20190415112010804/15/19 11:20:31  5-MIN KAQV 151720Z AUTO VRB05KT 10SM CLR 22/05 A3013 180 32 1100 VRB/05 RMK AO2 T02220050
03949KAQV AQV20190415112510804/15/19 11:25:31  5-MIN KAQV 151725Z AUTO 21004KT 10SM CLR 22/06 A3013 180 35 1100 210/04 RMK AO2 T02220061
03949KAQV AQV20190415113010804/15/19 11:30:31  5-MIN KAQV 151730Z AUTO VRB05KT 10SM CLR 23/07 A3013 180 35 1200 VRB/05 RMK AO2 T02280067
03949KAQV AQV20190415113510804/15/19 11:35:31  5-MIN KAQV 151735Z AUTO VRB05KT 10SM CLR 23/06 A3013 190 33 1200 VRB/05 RMK AO2 T02280061
03949KAQV AQV20190415114010804/15/19 11:40:31  5-MIN KAQV 151740Z AUTO VRB03KT 10SM CLR 23/07 A3012 190 35 1200 VRB/03 RMK AO2 T02280067
03949KAQV AQV20190415114509804/15/19 11:45:31  5-MIN KAQV 151745Z AUTO 10SM CLR 23/07 A3012 190 35 1200 M /M RMK AO2 T02280067
03949KAQV AQV20190415115013304/15/19 11:50:31  5-MIN KAQV 151750Z AUTO 17004KT 10SM CLR 23/06 A3012 190 32 1200 160/04 RMK AO2 SLP198 T02280056 10228 20061 51019
03949KAQV AQV20190415115513304/15/19 11:55:31  5-MIN KAQV 151755Z AUTO VRB03KT 10SM CLR 23/06 A3012 200 32 1200 VRB/03 RMK AO2 SLP198 T02330061 10233 20061 51019
03949KAQV AQV20190415120010804/15/19 12:00:31  5-MIN KAQV 151800Z AUTO VRB05KT 10SM CLR 23/06 A3012 200 32 1200 VRB/05 RMK AO2 T02330061
03949KAQV AQV20190415120510804/15/19 12:05:31  5-MIN KAQV 151805Z AUTO VRB03KT 10SM CLR 23/06 A3011 200 32 1300 VRB/03 RMK AO2 T02330061
03949KAQV AQV20190415121010804/15/19 12:10:31  5-MIN KAQV 151810Z AUTO VRB06KT 10SM CLR 24/06 A3011 200 31 1300 VRB/06 RMK AO2 T02390061
03949KAQV AQV20190415121510804/15/19 12:15:31  5-MIN KAQV 151815Z AUTO 20005KT 10SM CLR 23/06 A3011 200 31 1300 200/05 RMK AO2 T02330056
03949KAQV AQV20190415122010804/15/19 12:20:31  5-MIN KAQV 151820Z AUTO VRB04KT 10SM CLR 23/06 A3011 200 31 1300 VRB/04 RMK AO2 T02330056
03949KAQV AQV20190415122510804/15/19 12:25:31  5-MIN KAQV 151825Z AUTO VRB05KT 10SM CLR 24/06 A3011 200 31 1300 VRB/05 RMK AO2 T02390061
03949KAQV AQV20190415123010804/15/19 12:30:31  5-MIN KAQV 151830Z AUTO 19004KT 10SM CLR 24/06 A3011 200 30 1300 180/04 RMK AO2 T02390056
03949KAQV AQV20190415123510804/15/19 12:35:31  5-MIN KAQV 151835Z AUTO VRB05KT 10SM CLR 24/06 A3011 200 31 1300 VRB/05 RMK AO2 T02390061
03949KAQV AQV20190415124010804/15/19 12:40:31  5-MIN KAQV 151840Z AUTO VRB05KT 10SM CLR 25/06 A3011 210 29 1500 VRB/05 RMK AO2 T02500061
03949KAQV AQV20190415124510804/15/19 12:45:31  5-MIN KAQV 151845Z AUTO 17004KT 10SM CLR 24/06 A3010 210 31 1300 170/04 RMK AO2 T02390061
03949KAQV AQV20190415125010504/15/19 12:50:31  5-MIN KAQV 151850Z AUTO 10SM CLR 24/06 A3010 210 31 1300 M /M RMK AO2 SLP193 T02390061
03949KAQV AQV20190415125513104/15/19 12:55:31  5-MIN KAQV 151855Z AUTO 14007KT 110V180 10SM CLR 24/07 A3010 210 31 1400 140/07 110V180 RMK AO2 SLP192 T02440067
03949KAQV AQV20190415130010804/15/19 13:00:31  5-MIN KAQV 151900Z AUTO VRB05KT 10SM CLR 25/07 A3010 210 30 1500 VRB/05 RMK AO2 T02500067
03949KAQV AQV20190415130512404/15/19 13:05:31  5-MIN KAQV 151905Z AUTO 16007KT 100V180 10SM CLR 25/07 A3009 220 31 1500 150/07 100V180 RMK AO2 T02500072
03949KAQV AQV20190415131010804/15/19 13:10:31  5-MIN KAQV 151910Z AUTO VRB04KT 10SM CLR 24/07 A3009 220 31 1400 VRB/04 RMK AO2 T02440067
03949KAQV AQV20190415131510804/15/19 13:15:31  5-MIN KAQV 151915Z AUTO VRB03KT 10SM CLR 25/08 A3009 220 33 1500 VRB/03 RMK AO2 T02500078
03949KAQV AQV20190415132010804/15/19 13:20:31  5-MIN KAQV 151920Z AUTO VRB03KT 10SM CLR 24/07 A3009 220 33 1400 VRB/03 RMK AO2 T02440072
03949KAQV AQV20190415132510804/15/19 13:25:31  5-MIN KAQV 151925Z AUTO 19007KT 10SM CLR 24/07 A3009 220 33 1400 180/07 RMK AO2 T02440072
03949KAQV AQV20190415133010804/15/19 13:30:31  5-MIN KAQV 151930Z AUTO VRB05KT 10SM CLR 25/07 A3009 220 31 1500 VRB/05 RMK AO2 T02500072
03949KAQV AQV20190415133510804/15/19 13:35:31  5-MIN KAQV 151935Z AUTO VRB06KT 10SM CLR 25/07 A3009 220 31 1500 VRB/06 RMK AO2 T02500072
03949KAQV AQV20190415134010804/15/19 13:40:31  5-MIN KAQV 151940Z AUTO 21006KT 10SM CLR 25/07 A3009 220 31 1500 210/06 RMK AO2 T02500072
03949KAQV AQV20190415134510804/15/19 13:45:31  5-MIN KAQV 151945Z AUTO VRB06KT 10SM CLR 24/07 A3009 220 31 1400 VRB/06 RMK AO2 T02440067
03949KAQV AQV20190415135011504/15/19 13:50:31  5-MIN KAQV 151950Z AUTO VRB04KT 10SM CLR 25/08 A3008 230 33 1500 VRB/04 RMK AO2 SLP187 T02500078
03949KAQV AQV20190415135511504/15/19 13:55:31  5-MIN KAQV 151955Z AUTO VRB04KT 10SM CLR 26/08 A3008 230 33 1500 VRB/04 RMK AO2 SLP186 T02560083
03949KAQV AQV20190415140010804/15/19 14:00:31  5-MIN KAQV 152000Z AUTO 20007KT 10SM CLR 25/07 A3008 230 31 1500 190/07 RMK AO2 T02500072
03949KAQV AQV20190415140510804/15/19 14:05:31  5-MIN KAQV 152005Z AUTO VRB05KT 10SM CLR 25/07 A3008 230 31 1500 VRB/05 RMK AO2 T02500072
03949KAQV AQV20190415141010804/15/19 14:10:31  5-MIN KAQV 152010Z AUTO 16005KT 10SM CLR 25/08 A3007 230 33 1500 160/05 RMK AO2 T02500078
03949KAQV AQV20190415141510804/15/19 14:15:31  5-MIN KAQV 152015Z AUTO VRB05KT 10SM CLR 26/08 A3007 240 33 1600 VRB/05 RMK AO2 T02560083
03949KAQV AQV20190415142012404/15/19 14:20:31  5-MIN KAQV 152020Z AUTO 21007KT 190V260 10SM CLR 26/08 A3007 240 33 1600 210/07 190V260 RMK AO2 T02560083
03949KAQV AQV20190415142510804/15/19 14:25:31  5-MIN KAQV 152025Z AUTO VRB05KT 10SM CLR 26/08 A3007 240 33 1600 VRB/05 RMK AO2 T02560083
03949KAQV AQV20190415143010804/15/19 14:30:31  5-MIN KAQV 152030Z AUTO VRB06KT 10SM CLR 26/09 A3007 240 34 1600 VRB/06 RMK AO2 T02560089
03949KAQV AQV20190415143510804/15/19 14:35:31  5-MIN KAQV 152035Z AUTO 15008KT 10SM CLR 26/09 A3006 240 34 1600 150/08 RMK AO2 T02560089
03949KAQV AQV20190415144010804/15/19 14:40:31  5-MIN KAQV 152040Z AUTO VRB04KT 10SM CLR 26/08 A3006 240 33 1600 VRB/04 RMK AO2 T02560083
03949KAQV AQV20190415144510804/15/19 14:45:31  5-MIN KAQV 152045Z AUTO VRB04KT 10SM CLR 26/08 A3006 250 33 1600 VRB/04 RMK AO2 T02560083
03949KAQV AQV20190415145012104/15/19 14:50:31  5-MIN KAQV 152050Z AUTO VRB05KT 10SM CLR 26/08 A3006 250 33 1600 VRB/05 RMK AO2 SLP178 T02560083 58005
03949KAQV AQV20190415145512104/15/19 14:55:31  5-MIN KAQV 152055Z AUTO 17005KT 10SM CLR 26/09 A3005 250 33 1600 170/05 RMK AO2 SLP177 T02610089 58005
03949KAQV AQV20190415150012404/15/19 15:00:31  5-MIN KAQV 152100Z AUTO 24007KT 190V280 10SM CLR 26/08 A3005 250 33 1600 230/07 190V280 RMK AO2 T02560083
03949KAQV AQV20190415150510804/15/19 15:05:31  5-MIN KAQV 152105Z AUTO VRB06KT 10SM CLR 26/08 A3005 250 32 1600 VRB/06 RMK AO2 T02560078
03949KAQV AQV20190415151010804/15/19 15:10:31  5-MIN KAQV 152110Z AUTO VRB04KT 10SM CLR 26/08 A3005 250 33 1600 VRB/04 RMK AO2 T02560083
03949KAQV AQV20190415151512404/15/19 15:15:31  5-MIN KAQV 152115Z AUTO 20007KT 170V250 10SM CLR 26/09 A3005 250 34 1600 200/07 170V250 RMK AO2 T02560089
03949KAQV AQV20190415152012404/15/19 15:20:31  5-MIN KAQV 152120Z AUTO 18008KT 140V210 10SM CLR 26/08 A3005 260 33 1600 180/08 140V210 RMK AO2 T02560083
03949KAQV AQV20190415152510804/15/19 15:25:31  5-MIN KAQV 152125Z AUTO VRB05KT 10SM CLR 26/09 A3005 250 34 1600 VRB/05 RMK AO2 T02560089
03949KAQV AQV20190415153010804/15/19 15:30:31  5-MIN KAQV 152130Z AUTO VRB05KT 10SM CLR 26/09 A3005 260 34 1600 VRB/05 RMK AO2 T02560089
03949KAQV AQV20190415153510804/15/19 15:35:31  5-MIN KAQV 152135Z AUTO VRB06KT 10SM CLR 26/09 A3005 260 34 1600 VRB/06 RMK AO2 T02560089
03949KAQV AQV20190415154010804/15/19 15:40:31  5-MIN KAQV 152140Z AUTO VRB05KT 10SM CLR 26/09 A3005 260 34 1600 VRB/05 RMK AO2 T02560089
03949KAQV AQV20190415154510804/15/19 15:45:31  5-MIN KAQV 152145Z AUTO 17005KT 10SM CLR 26/09 A3005 260 35 1600 170/05 RMK AO2 T02560094
03949KAQV AQV20190415155013104/15/19 15:50:31  5-MIN KAQV 152150Z AUTO 19007KT 170V250 10SM CLR 26/09 A3005 260 35 1600 190/07 170V250 RMK AO2 SLP174 T02560094
03949KAQV AQV20190415155511504/15/19 15:55:31  5-MIN KAQV 152155Z AUTO VRB05KT 10SM CLR 26/09 A3005 260 35 1600 VRB/05 RMK AO2 SLP174 T02560094
03949KAQV AQV20190415160010804/15/19 16:00:31  5-MIN KAQV 152200Z AUTO VRB06KT 10SM CLR 26/09 A3004 260 34 1600 VRB/06 RMK AO2 T02560089
03949KAQV AQV20190415160510804/15/19 16:05:31  5-MIN KAQV 152205Z AUTO 16005KT 10SM CLR 26/09 A3004 260 35 1600 160/05 RMK AO2 T02560094
03949KAQV AQV20190415161010804/15/19 16:10:31  5-MIN KAQV 152210Z AUTO VRB05KT 10SM CLR 26/09 A3004 260 35 1600 VRB/05 RMK AO2 T02560094
03949KAQV AQV20190415161510804/15/19 16:15:31  5-MIN KAQV 152215Z AUTO VRB06KT 10SM CLR 26/09 A3004 260 35 1600 VRB/06 RMK AO2 T02560094
03949KAQV AQV20190415162010804/15/19 16:20:31  5-MIN KAQV 152220Z AUTO 19005KT 10SM CLR 25/09 A3004 260 35 1500 190/05 RMK AO2 T02500089
03949KAQV AQV20190415162510804/15/19 16:25:31  5-MIN KAQV 152225Z AUTO 20006KT 10SM CLR 26/09 A3004 260 35 1600 190/06 RMK AO2 T02560094
03949KAQV AQV20190415163010804/15/19 16:30:31  5-MIN KAQV 152230Z AUTO VRB03KT 10SM CLR 25/09 A3004 260 37 1500 VRB/03 RMK AO2 T02500094
03949KAQV AQV20190415163510804/15/19 16:35:31  5-MIN KAQV 152235Z AUTO 19004KT 10SM CLR 24/10 A3004 260 39 1500 180/04 RMK AO2 T02440100
03949KAQV AQV20190415164010804/15/19 16:40:31  5-MIN KAQV 152240Z AUTO 19005KT 10SM CLR 24/10 A3005 260 39 1500 190/05 RMK AO2 T02440100
03949KAQV AQV20190415164510804/15/19 16:45:31  5-MIN KAQV 152245Z AUTO 19005KT 10SM CLR 24/09 A3005 260 38 1500 190/05 RMK AO2 T02440094
03949KAQV AQV20190415165011504/15/19 16:50:31  5-MIN KAQV 152250Z AUTO VRB04KT 10SM CLR 25/10 A3005 260 38 1500 VRB/04 RMK AO2 SLP175 T02500100
03949KAQV AQV20190415165511504/15/19 16:55:31  5-MIN KAQV 152255Z AUTO VRB06KT 10SM CLR 25/10 A3005 260 38 1500 VRB/06 RMK AO2 SLP175 T02500100
03949KAQV AQV20190415170010804/15/19 17:00:31  5-MIN KAQV 152300Z AUTO 00000KT 10SM CLR 25/10 A3005 260 38 1500 000/00 RMK AO2 T02500100
03949KAQV AQV20190415170510804/15/19 17:05:31  5-MIN KAQV 152305Z AUTO VRB04KT 10SM CLR 25/10 A3005 250 38 1500 VRB/04 RMK AO2 T02500100
03949KAQV AQV20190415171010804/15/19 17:10:31  5-MIN KAQV 152310Z AUTO 18004KT 10SM CLR 24/10 A3005 250 39 1400 170/04 RMK AO2 T02440100
03949KAQV AQV20190415171510804/15/19 17:15:31  5-MIN KAQV 152315Z AUTO VRB03KT 10SM CLR 25/10 A3005 260 38 1500 VRB/03 RMK AO2 T02500100
03949KAQV AQV20190415172010804/15/19 17:20:31  5-MIN KAQV 152320Z AUTO 19004KT 10SM CLR 24/09 A3005 250 38 1400 190/04 RMK AO2 T02440094
03949KAQV AQV20190415172510804/15/19 17:25:31  5-MIN KAQV 152325Z AUTO 17005KT 10SM CLR 24/10 A3005 250 39 1400 170/05 RMK AO2 T02440100
03949KAQV AQV20190415173010804/15/19 17:30:31  5-MIN KAQV 152330Z AUTO VRB06KT 10SM CLR 24/09 A3005 250 38 1400 VRB/06 RMK AO2 T02440094
03949KAQV AQV20190415173510804/15/19 17:35:31  5-MIN KAQV 152335Z AUTO 18006KT 10SM CLR 24/10 A3006 250 41 1400 180/06 RMK AO2 T02390100
03949KAQV AQV20190415174010804/15/19 17:40:31  5-MIN KAQV 152340Z AUTO VRB05KT 10SM CLR 24/10 A3006 250 41 1400 VRB/05 RMK AO2 T02390100
03949KAQV AQV20190415174510804/15/19 17:45:31  5-MIN KAQV 152345Z AUTO VRB04KT 10SM CLR 24/10 A3006 250 41 1400 VRB/04 RMK AO2 T02390100
03949KAQV AQV20190415175013304/15/19 17:50:31  5-MIN KAQV 152350Z AUTO VRB04KT 10SM CLR 23/10 A3006 250 42 1300 VRB/04 RMK AO2 SLP177 T02330100 10261 20233 58021
03949KAQV AQV20190415175513304/15/19 17:55:31  5-MIN KAQV 152355Z AUTO 19004KT 10SM CLR 23/10 A3006 250 42 1300 180/04 RMK AO2 SLP178 T02330100 10261 20233 58021
03949KAQV AQV20190415180010804/15/19 18:00:31  5-MIN KAQV 160000Z AUTO 19005KT 10SM CLR 23/10 A3006 250 44 1300 190/05 RMK AO2 T02280100
03949KAQV AQV20190415180510804/15/19 18:05:31  5-MIN KAQV 160005Z AUTO VRB05KT 10SM CLR 23/10 A3006 250 44 1200 VRB/05 RMK AO2 T02280100
03949KAQV AQV20190415181010804/15/19 18:10:31  5-MIN KAQV 160010Z AUTO VRB05KT 10SM CLR 22/11 A3006 250 47 1200 VRB/05 RMK AO2 T02220106
03949KAQV AQV20190415181510804/15/19 18:15:31  5-MIN KAQV 160015Z AUTO VRB04KT 10SM CLR 22/11 A3006 240 47 1200 VRB/04 RMK AO2 T02220106
03949KAQV AQV20190415182010804/15/19 18:20:31  5-MIN KAQV 160020Z AUTO VRB05KT 10SM CLR 22/11 A3006 240 49 1100 VRB/05 RMK AO2 T02170106
03949KAQV AQV20190415182510804/15/19 18:25:31  5-MIN KAQV 160025Z AUTO VRB06KT 10SM CLR 22/11 A3006 240 49 1100 VRB/06 RMK AO2 T02170106
03949KAQV AQV20190415183010804/15/19 18:30:31  5-MIN KAQV 160030Z AUTO 19004KT 10SM CLR 21/11 A3007 240 50 1100 190/04 RMK AO2 T02110106
03949KAQV AQV20190415183510804/15/19 18:35:31  5-MIN KAQV 160035Z AUTO 19005KT 10SM CLR 21/11 A3007 240 50 1100 190/05 RMK AO2 T02110106
03949KAQV AQV20190415184010804/15/19 18:40:31  5-MIN KAQV 160040Z AUTO 19005KT 10SM CLR 21/11 A3007 240 50 1100 180/05 RMK AO2 T02110106
03949KAQV AQV20190415184510804/15/19 18:45:31  5-MIN KAQV 160045Z AUTO 18004KT 10SM CLR 21/11 A3006 240 52 1000 180/04 RMK AO2 T02060106
03949KAQV AQV20190415185011404/15/19 18:50:31  5-MIN KAQV 160050Z AUTO 18004KT 10SM CLR 20/11 A3006 250 54 900 180/04 RMK AO2 SLP179 T02000106
03949KAQV AQV20190415185511404/15/19 18:55:31  5-MIN KAQV 160055Z AUTO 18004KT 10SM CLR 20/11 A3006 250 56 900 180/04 RMK AO2 SLP179 T02000111
03949KAQV AQV20190415190010704/15/19 19:00:31  5-MIN KAQV 160100Z AUTO 19003KT 10SM CLR 19/11 A3006 240 58 900 190/03 RMK AO2 T01940111
03949KAQV AQV20190415190510704/15/19 19:05:31  5-MIN KAQV 160105Z AUTO VRB03KT 10SM CLR 19/11 A3006 240 58 900 VRB/03 RMK AO2 T01940111
03949KAQV AQV20190415191010704/15/19 19:10:31  5-MIN KAQV 160110Z AUTO 18004KT 10SM CLR 19/11 A3007 240 60 800 180/04 RMK AO2 T01890111
03949KAQV AQV20190415191510704/15/19 19:15:31  5-MIN KAQV 160115Z AUTO 18004KT 10SM CLR 18/11 A3007 240 62 700 170/04 RMK AO2 T01830111
03949KAQV AQV20190415192010704/15/19 19:20:31  5-MIN KAQV 160120Z AUTO VRB04KT 10SM CLR 18/11 A3007 240 62 700 VRB/04 RMK AO2 T01830111
03949KAQV AQV20190415192510704/15/19 19:25:31  5-MIN KAQV 160125Z AUTO 18004KT 10SM CLR 19/11 A3007 240 60 800 180/04 RMK AO2 T01890111
03949KAQV AQV20190415193010704/15/19 19:30:31  5-MIN KAQV 160130Z AUTO 19003KT 10SM CLR 18/11 A3007 240 62 700 180/03 RMK AO2 T01830111
03949KAQV AQV20190415193510704/15/19 19:35:31  5-MIN KAQV 160135Z AUTO 18004KT 10SM CLR 18/11 A3007 240 64 700 180/04 RMK AO2 T01780111
03949KAQV AQV20190415194010704/15/19 19:40:31  5-MIN KAQV 160140Z AUTO 19003KT 10SM CLR 18/11 A3007 240 64 700 180/03 RMK AO2 T01780111
03949KAQV AQV20190415194510704/15/19 19:45:31  5-MIN KAQV 160145Z AUTO 18003KT 10SM CLR 18/12 A3007 230 67 700 170/03 RMK AO2 T01780117
03949KAQV AQV20190415195011404/15/19 19:50:31  5-MIN KAQV 160150Z AUTO VRB04KT 10SM CLR 17/12 A3008 230 69 600 VRB/04 RMK AO2 SLP184 T01720117
03949KAQV AQV20190415195511404/15/19 19:55:31  5-MIN KAQV 160155Z AUTO 18003KT 10SM CLR 17/12 A3008 230 69 600 180/03 RMK AO2 SLP185 T01720117
03949KAQV AQV20190415200010704/15/19 20:00:31  5-MIN KAQV 160200Z AUTO 18004KT 10SM CLR 17/12 A3008 230 69 600 180/04 RMK AO2 T01720117
03949KAQV AQV20190415200510704/15/19 20:05:31  5-MIN KAQV 160205Z AUTO 18005KT 10SM CLR 17/12 A3008 230 69 600 180/05 RMK AO2 T01720117
03949KAQV AQV20190415201010704/15/19 20:10:31  5-MIN KAQV 160210Z AUTO 17004KT 10SM CLR 17/12 A3008 230 69 600 170/04 RMK AO2 T01720117
03949KAQV AQV20190415201510704/15/19 20:15:31  5-MIN KAQV 160215Z AUTO 18004KT 10SM CLR 17/12 A3008 220 72 500 170/04 RMK AO2 T01670117
03949KAQV AQV20190415202010704/15/19 20:20:31  5-MIN KAQV 160220Z AUTO 18004KT 10SM CLR 17/12 A3009 220 72 500 170/04 RMK AO2 T01670117
03949KAQV AQV20190415202510704/15/19 20:25:31  5-MIN KAQV 160225Z AUTO VRB04KT 10SM CLR 17/11 A3008 220 69 500 VRB/04 RMK AO2 T01670111
03949KAQV AQV20190415203010704/15/19 20:30:31  5-MIN KAQV 160230Z AUTO 18004KT 10SM CLR 17/11 A3009 220 69 500 170/04 RMK AO2 T01670111
03949KAQV AQV20190415203510704/15/19 20:35:31  5-MIN KAQV 160235Z AUTO VRB04KT 10SM CLR 17/11 A3009 220 69 500 VRB/04 RMK AO2 T01670111
03949KAQV AQV20190415204010704/15/19 20:40:31  5-MIN KAQV 160240Z AUTO 18005KT 10SM CLR 17/11 A3009 220 69 500 170/05 RMK AO2 T01670111
03949KAQV AQV20190415204510704/15/19 20:45:31  5-MIN KAQV 160245Z AUTO VRB03KT 10SM CLR 17/11 A3009 220 69 500 VRB/03 RMK AO2 T01670111
03949KAQV AQV20190415205012004/15/19 20:50:31  5-MIN KAQV 160250Z AUTO 18004KT 10SM CLR 16/11 A3009 220 72 400 180/04 RMK AO2 SLP189 T01610111 53001
03949KAQV AQV20190415205512004/15/19 20:55:31  5-MIN KAQV 160255Z AUTO VRB03KT 10SM CLR 16/12 A3009 220 75 400 VRB/03 RMK AO2 SLP187 T01610117 53001
03949KAQV AQV20190415210010704/15/19 21:00:31  5-MIN KAQV 160300Z AUTO 18004KT 10SM CLR 16/12 A3009 220 75 400 170/04 RMK AO2 T01610117
03949KAQV AQV20190415210510704/15/19 21:05:31  5-MIN KAQV 160305Z AUTO 17004KT 10SM CLR 16/11 A3009 220 72 400 170/04 RMK AO2 T01610111
03949KAQV AQV20190415211010704/15/19 21:10:31  5-MIN KAQV 160310Z AUTO 17003KT 10SM CLR 16/12 A3009 220 77 400 170/03 RMK AO2 T01560117
03949KAQV AQV20190415211510704/15/19 21:15:31  5-MIN KAQV 160315Z AUTO 18003KT 10SM CLR 16/11 A3009 220 74 400 180/03 RMK AO2 T01560111
03949KAQV AQV20190415212010704/15/19 21:20:31  5-MIN KAQV 160320Z AUTO 18004KT 10SM CLR 15/11 A3010 210 77 300 170/04 RMK AO2 T01500111
03949KAQV AQV20190415212510704/15/19 21:25:31  5-MIN KAQV 160325Z AUTO 19003KT 10SM CLR 15/11 A3010 210 77 300 180/03 RMK AO2 T01500111
03949KAQV AQV20190415213010704/15/19 21:30:31  5-MIN KAQV 160330Z AUTO VRB03KT 10SM CLR 15/12 A3010 210 80 300 VRB/03 RMK AO2 T01500117
03949KAQV AQV20190415213510704/15/19 21:35:31  5-MIN KAQV 160335Z AUTO 18003KT 10SM CLR 15/12 A3010 210 80 300 170/03 RMK AO2 T01500117
03949KAQV AQV20190415214010704/15/19 21:40:31  5-MIN KAQV 160340Z AUTO 17004KT 10SM CLR 15/12 A3010 210 80 300 170/04 RMK AO2 T01500117
03949KAQV AQV20190415214510704/15/19 21:45:31  5-MIN KAQV 160345Z AUTO 17003KT 10SM CLR 15/12 A3010 210 80 300 170/03 RMK AO2 T01500117
03949KAQV AQV20190415215011404/15/19 21:50:31  5-MIN KAQV 160350Z AUTO 17004KT 10SM CLR 15/12 A3010 210 80 300 160/04 RMK AO2 SLP191 T01500117
03949KAQV AQV20190415215511404/15/19 21:55:31  5-MIN KAQV 160355Z AUTO 17003KT 10SM CLR 15/12 A3010 210 80 300 170/03 RMK AO2 SLP191 T01500117
03949KAQV AQV20190415220010704/15/19 22:00:31  5-MIN KAQV 160400Z AUTO 17003KT 10SM CLR 15/12 A3010 210 80 300 170/03 RMK AO2 T01500117
03949KAQV AQV20190415220510704/15/19 22:05:31  5-MIN KAQV 160405Z AUTO 18003KT 10SM CLR 14/12 A3010 210 83 200 170/03 RMK AO2 T01440117
03949KAQV AQV20190415221010704/15/19 22:10:31  5-MIN KAQV 160410Z AUTO 17003KT 10SM CLR 14/12 A3010 210 83 200 170/03 RMK AO2 T01440117
03949KAQV AQV20190415221510704/15/19 22:15:31  5-MIN KAQV 160415Z AUTO 18003KT 10SM CLR 14/12 A3010 210 83 200 170/03 RMK AO2 T01440117
03949KAQV AQV20190415222010704/15/19 22:20:31  5-MIN KAQV 160420Z AUTO VRB03KT 10SM CLR 14/11 A3010 210 80 200 VRB/03 RMK AO2 T01440111
03949KAQV AQV20190415222510704/15/19 22:25:31  5-MIN KAQV 160425Z AUTO VRB04KT 10SM CLR 14/12 A3010 210 86 200 VRB/04 RMK AO2 T01390117
03949KAQV AQV20190415223010704/15/19 22:30:31  5-MIN KAQV 160430Z AUTO 18004KT 10SM CLR 14/11 A3009 220 83 200 170/04 RMK AO2 T01390111
03949KAQV AQV20190415223510704/15/19 22:35:31  5-MIN KAQV 160435Z AUTO 17004KT 10SM CLR 14/11 A3009 220 83 200 170/04 RMK AO2 T01390111
03949KAQV AQV20190415224010704/15/19 22:40:31  5-MIN KAQV 160440Z AUTO 17004KT 10SM CLR 14/11 A3010 210 83 200 160/04 RMK AO2 T01390111
03949KAQV AQV20190415224510704/15/19 22:45:31  5-MIN KAQV 160445Z AUTO 17004KT 10SM CLR 14/11 A3009 220 83 200 170/04 RMK AO2 T01390111
03949KAQV AQV20190415225011404/15/19 22:50:31  5-MIN KAQV 160450Z AUTO VRB04KT 10SM CLR 14/11 A3009 220 80 200 VRB/04 RMK AO2 SLP189 T01440111
03949KAQV AQV20190415225511404/15/19 22:55:31  5-MIN KAQV 160455Z AUTO 18006KT 10SM CLR 14/11 A3009 220 83 200 170/06 RMK AO2 SLP188 T01390111
03949KAQV AQV20190415230010704/15/19 23:00:31  5-MIN KAQV 160500Z AUTO VRB05KT 10SM CLR 14/11 A3009 220 80 200 VRB/05 RMK AO2 T01440111
03949KAQV AQV20190415230510704/15/19 23:05:31  5-MIN KAQV 160505Z AUTO 18005KT 10SM CLR 14/11 A3009 220 83 200 180/05 RMK AO2 T01390111
03949KAQV AQV20190415231010704/15/19 23:10:31  5-MIN KAQV 160510Z AUTO VRB03KT 10SM CLR 14/11 A3010 210 83 200 VRB/03 RMK AO2 T01390111
03949KAQV AQV20190415231510704/15/19 23:15:31  5-MIN KAQV 160515Z AUTO 17003KT 10SM CLR 14/11 A3010 220 83 200 160/03 RMK AO2 T01390111
03949KAQV AQV20190415232010704/15/19 23:20:31  5-MIN KAQV 160520Z AUTO 18005KT 10SM CLR 14/11 A3010 210 83 200 180/05 RMK AO2 T01390111
03949KAQV AQV20190415232510704/15/19 23:25:31  5-MIN KAQV 160525Z AUTO VRB03KT 10SM CLR 13/11 A3010 210 86 100 VRB/03 RMK AO2 T01330111
03949KAQV AQV20190415233010704/15/19 23:30:31  5-MIN KAQV 160530Z AUTO 18004KT 10SM CLR 13/11 A3010 210 86 100 180/04 RMK AO2 T01330111
03949KAQV AQV20190415233510704/15/19 23:35:31  5-MIN KAQV 160535Z AUTO VRB05KT 10SM CLR 14/11 A3010 210 83 200 VRB/05 RMK AO2 T01390111
03949KAQV AQV20190415234010704/15/19 23:40:31  5-MIN KAQV 160540Z AUTO 18004KT 10SM CLR 14/11 A3010 210 83 200 180/04 RMK AO2 T01390111
03949KAQV AQV20190415234510704/15/19 23:45:31  5-MIN KAQV 160545Z AUTO VRB03KT 10SM CLR 14/11 A3010 210 80 200 VRB/03 RMK AO2 T01390106
03949KAQV AQV20190415235014204/15/19 23:50:31  5-MIN KAQV 160550Z AUTO 18003KT 10SM CLR 14/11 A3009 220 80 200 170/03 RMK AO2 SLP189 T01390106 10233 20133 402610061 53010
03949KAQV AQV20190415235514204/15/19 23:55:31  5-MIN KAQV 160555Z AUTO 18004KT 10SM CLR 13/11 A3009 220 83 100 180/04 RMK AO2 SLP187 T01330106 10233 20133 402610061 53010
03949KAQV AQV20190416000010004/16/19 00:00:31  5-MIN KAQV 160600Z AUTO 18005K8 A3008 230 93 -300 000/00 RMK AO2 SLP183 T00940083
03949KAQV AQV20190416041510804/16/19 04:15:31  5-MIN KAQV 161015Z AUTO 00000KT 10SM CLR 09/08 A3007 240 93 -300 000/00 RMK AO2 T00940083
03949KAQV AQV20190416042010804/16/19 04:20:31  5-MIN KAQV 161020Z AUTO 00000KT 10SM CLR 10/09 A3007 230 93 -200 000/00 RMK AO2 T01000089
03949KAQV AQV20190416042510804/16/19 04:25:31  5-MIN KAQV 161025Z AUTO 00000KT 10SM CLR 09/08 A3007 230 93 -300 000/00 RMK AO2 T00940083
03949KAQV AQV20190416043010804/16/19 04:30:31  5-MIN KAQV 161030Z AUTO 00000KT 10SM CLR 09/08 A3008 230 93 -300 000/00 RMK AO2 T00940083
03949KAQV AQV20190416043510804/16/19 04:35:31  5-MIN KAQV 161035Z AUTO 00000KT 10SM CLR 09/08 A3008 230 93 -300 000/00 RMK AO2 T00940083
03949KAQV AQV20190416044010804/16/19 04:40:31  5-MIN KAQV 161040Z AUTO 00000KT 10SM CLR 09/08 A3008 230 93 -300 000/00 RMK AO2 T00940083
03949KAQV AQV20190416044510804/16/19 04:45:31  5-MIN KAQV 161045Z AUTO 00000KT 10SM CLR 09/08 A3008 230 93 -300 000/00 RMK AO2 T00940083
03949KAQV AQV20190416045011504/16/19 04:50:31  5-MIN KAQV 161050Z AUTO 00000KT 10SM CLR 09/08 A3008 230 93 -300 000/00 RMK AO2 SLP183 T00940083
03949KAQV AQV20190416045511504/16/19 04:55:31  5-MIN KAQV 161055Z AUTO 00000KT 10SM CLR 09/08 A3008 230 93 -300 000/00 RMK AO2 SLP183 T00940083
03949KAQV AQV20190416050010804/16/19 05:00:31  5-MIN KAQV 161100Z AUTO 16003KT 10SM CLR 09/08 A3008 230 93 -300 150/03 RMK AO2 T00940083
03949KAQV AQV20190416050510804/16/19 05:05:31  5-MIN KAQV 161105Z AUTO 16003KT 10SM CLR 09/08 A3008 230 93 -300 150/03 RMK AO2 T00940083
03949KAQV AQV20190416051010804/16/19 05:10:31  5-MIN KAQV 161110Z AUTO VRB03KT 10SM CLR 10/09 A3008 230 93 -200 VRB/03 RMK AO2 T01000089
03949KAQV AQV20190416051510804/16/19 05:15:31  5-MIN KAQV 161115Z AUTO VRB03KT 10SM CLR 10/09 A3008 230 93 -200 VRB/03 RMK AO2 T01000089
03949KAQV AQV20190416052010804/16/19 05:20:31  5-MIN KAQV 161120Z AUTO 16003KT 10SM CLR 10/09 A3008 230 93 -200 160/03 RMK AO2 T01000089
03949KAQV AQV20190416052510804/16/19 05:25:31  5-MIN KAQV 161125Z AUTO 00000KT 10SM CLR 10/09 A3008 230 93 -200 000/00 RMK AO2 T01000089
03949KAQV AQV20190416053010804/16/19 05:30:31  5-MIN KAQV 161130Z AUTO VRB03KT 10SM CLR 10/09 A3008 230 96 -200 VRB/03 RMK AO2 T01000094
03949KAQV AQV20190416053510804/16/19 05:35:31  5-MIN KAQV 161135Z AUTO 17003KT 10SM CLR 10/09 A3008 230 93 -200 160/03 RMK AO2 T01000089
03949KAQV AQV20190416054010804/16/19 05:40:31  5-MIN KAQV 161140Z AUTO VRB03KT 10SM CLR 11/09 A3008 230 93 -200 VRB/03 RMK AO2 T01060094
03949KAQV AQV20190416054510804/16/19 05:45:31  5-MIN KAQV 161145Z AUTO 17003KT 10SM CLR 11/09 A3008 230 93 -200 160/03 RMK AO2 T01060094
03949KAQV AQV20190416055013204/16/19 05:50:31  5-MIN KAQV 161150Z AUTO 16003KT 9SM CLR 11/09 A3009 220 93 -200 160/03 RMK AO2 SLP186 T01060094 10133 20094 58005
03949KAQV AQV20190416055513204/16/19 05:55:31  5-MIN KAQV 161155Z AUTO 17003KT 9SM CLR 11/09 A3009 220 93 -200 170/03 RMK AO2 SLP187 T01060094 10133 20094 58005
03949KAQV AQV20190416060010804/16/19 06:00:31  5-MIN KAQV 161200Z AUTO 17003KT 10SM CLR 11/09 A3010 210 93 -200 170/03 RMK AO2 T01060094
03949KAQV AQV20190416060510804/16/19 06:05:31  5-MIN KAQV 161205Z AUTO 17003KT 10SM CLR 11/09 A3010 210 93 -200 170/03 RMK AO2 T01060094
03949KAQV AQV20190416061010804/16/19 06:10:31  5-MIN KAQV 161210Z AUTO 00000KT 10SM CLR 10/09 A3010 210 96 -200 000/00 RMK AO2 T01000094
03949KAQV AQV20190416061510704/16/19 06:15:31  5-MIN KAQV 161215Z AUTO 00000KT 9SM CLR 10/09 A3010 210 96 -200 000/00 RMK AO2 T01000094
03949KAQV AQV20190416062010704/16/19 06:20:31  5-MIN KAQV 161220Z AUTO 17003KT 9SM CLR 10/09 A3010 210 96 -300 160/03 RMK AO2 T01000094
03949KAQV AQV20190416062510804/16/19 06:25:31  5-MIN KAQV 161225Z AUTO 00000KT 10SM CLR 11/09 A3010 210 93 -200 000/00 RMK AO2 T01060094
03949KAQV AQV20190416063010804/16/19 06:30:31  5-MIN KAQV 161230Z AUTO VRB03KT 10SM CLR 11/10 A3011 210 96 -200 VRB/03 RMK AO2 T01060100
03949KAQV AQV20190416063510904/16/19 06:35:31  5-MIN KAQV 161235Z AUTO 00000KT 10SM CLR 11/11 A3011 200 100 -200 000/00 RMK AO2 T01060106
03949KAQV AQV20190416064010804/16/19 06:40:31  5-MIN KAQV 161240Z AUTO VRB03KT 10SM CLR 11/11 A3011 200 96 -100 VRB/03 RMK AO2 T01110106
03949KAQV AQV20190416064510804/16/19 06:45:31  5-MIN KAQV 161245Z AUTO 15003KT 10SM CLR 12/11 A3011 200 93 -100 150/03 RMK AO2 T01170106
03949KAQV AQV20190416065011204/16/19 06:50:31  5-MIN KAQV 161250Z AUTO 16004KT 10SM CLR 12/11 A3011 200 93 0 150/04 RMK AO2 SLP196 T01220111
03949KAQV AQV20190416065511204/16/19 06:55:31  5-MIN KAQV 161255Z AUTO VRB03KT 10SM CLR 13/12 A3011 200 93 0 VRB/03 RMK AO2 SLP197 T01280117
03949KAQV AQV20190416070010704/16/19 07:00:31  5-MIN KAQV 161300Z AUTO 16004KT 10SM CLR 13/12 A3012 190 89 100 160/04 RMK AO2 T01330117
03949KAQV AQV20190416070510704/16/19 07:05:31  5-MIN KAQV 161305Z AUTO VRB04KT 10SM CLR 13/12 A3012 190 93 100 VRB/04 RMK AO2 T01330122
03949KAQV AQV20190416071010704/16/19 07:10:31  5-MIN KAQV 161310Z AUTO 17004KT 10SM CLR 14/12 A3012 190 90 100 170/04 RMK AO2 T01390122
03949KAQV AQV20190416071510704/16/19 07:15:31  5-MIN KAQV 161315Z AUTO 18005KT 10SM CLR 14/13 A3012 190 90 200 170/05 RMK AO2 T01440128
03949KAQV AQV20190416072010704/16/19 07:20:31  5-MIN KAQV 161320Z AUTO 17006KT 10SM CLR 14/12 A3012 190 86 200 160/06 RMK AO2 T01440122
03949KAQV AQV20190416072510704/16/19 07:25:31  5-MIN KAQV 161325Z AUTO 18004KT 10SM CLR 14/12 A3012 190 86 200 180/04 RMK AO2 T01440122
03949KAQV AQV20190416073010704/16/19 07:30:31  5-MIN KAQV 161330Z AUTO 17004KT 10SM CLR 15/13 A3012 190 86 300 160/04 RMK AO2 T01500128
03949KAQV AQV20190416073510704/16/19 07:35:31  5-MIN KAQV 161335Z AUTO 16004KT 10SM CLR 16/13 A3013 190 83 300 150/04 RMK AO2 T01560128
03949KAQV AQV20190416074010704/16/19 07:40:31  5-MIN KAQV 161340Z AUTO 17004KT 10SM CLR 16/13 A3013 190 83 300 170/04 RMK AO2 T01560128
03949KAQV AQV20190416074510704/16/19 07:45:31  5-MIN KAQV 161345Z AUTO 16006KT 10SM CLR 16/13 A3013 180 83 300 160/06 RMK AO2 T01560128
03949KAQV AQV20190416075011404/16/19 07:50:31  5-MIN KAQV 161350Z AUTO 16004KT 10SM CLR 16/13 A3013 180 80 400 150/04 RMK AO2 SLP202 T01610128
03949KAQV AQV20190416075511404/16/19 07:55:31  5-MIN KAQV 161355Z AUTO VRB04KT 10SM CLR 17/13 A3013 180 80 500 VRB/04 RMK AO2 SLP202 T01670133
03949KAQV AQV20190416080010704/16/19 08:00:31  5-MIN KAQV 161400Z AUTO 15005KT 10SM CLR 17/13 A3013 180 80 500 150/05 RMK AO2 T01670133
03949KAQV AQV20190416080510704/16/19 08:05:31  5-MIN KAQV 161405Z AUTO VRB04KT 10SM CLR 17/13 A3013 180 78 500 VRB/04 RMK AO2 T01720133
03949KAQV AQV20190416081010704/16/19 08:10:31  5-MIN KAQV 161410Z AUTO VRB05KT 10SM CLR 17/13 A3013 180 78 500 VRB/05 RMK AO2 T01720133
03949KAQV AQV20190416081510704/16/19 08:15:31  5-MIN KAQV 161415Z AUTO VRB05KT 10SM CLR 17/13 A3013 180 78 500 VRB/05 RMK AO2 T01720133
03949KAQV AQV20190416082010704/16/19 08:20:31  5-MIN KAQV 161420Z AUTO VRB04KT 10SM CLR 18/13 A3014 180 75 600 VRB/04 RMK AO2 T01780133
03949KAQV AQV20190416082510704/16/19 08:25:31  5-MIN KAQV 161425Z AUTO VRB05KT 10SM CLR 18/14 A3014 180 75 700 VRB/05 RMK AO2 T01830139
03949KAQV AQV20190416083010704/16/19 08:30:31  5-MIN KAQV 161430Z AUTO VRB06KT 10SM CLR 18/13 A3014 180 72 700 VRB/06 RMK AO2 T01830133
03949KAQV AQV20190416083510704/16/19 08:35:31  5-MIN KAQV 161435Z AUTO VRB05KT 10SM CLR 19/13 A3013 180 70 700 VRB/05 RMK AO2 T01890133
03949KAQV AQV20190416084010704/16/19 08:40:31  5-MIN KAQV 161440Z AUTO 17009KT 10SM CLR 19/13 A3014 180 67 700 160/09 RMK AO2 T01890128
03949KAQV AQV20190416084510704/16/19 08:45:31  5-MIN KAQV 161445Z AUTO VRB06KT 10SM CLR 19/13 A3013 180 65 800 VRB/06 RMK AO2 T01940128
03949KAQV AQV20190416085012004/16/19 08:50:31  5-MIN KAQV 161450Z AUTO VRB06KT 10SM CLR 19/13 A3013 180 65 800 VRB/06 RMK AO2 SLP202 T01940128 53006
03949KAQV AQV20190416085512004/16/19 08:55:31  5-MIN KAQV 161455Z AUTO 15007KT 10SM CLR 20/13 A3013 180 63 800 150/07 RMK AO2 SLP202 T02000128 53006
03949KAQV AQV20190416090010704/16/19 09:00:31  5-MIN KAQV 161500Z AUTO 18005KT 10SM CLR 20/12 A3013 180 60 800 170/05 RMK AO2 T02000122
03949KAQV AQV20190416090510704/16/19 09:05:31  5-MIN KAQV 161505Z AUTO 16008KT 10SM CLR 21/12 A3013 180 56 900 160/08 RMK AO2 T02060117
03949KAQV AQV20190416091010704/16/19 09:10:31  5-MIN KAQV 161510Z AUTO VRB05KT 10SM CLR 21/12 A3013 180 58 900 VRB/05 RMK AO2 T02060122
03949KAQV AQV20190416091510804/16/19 09:15:31  5-MIN KAQV 161515Z AUTO VRB06KT 10SM CLR 21/12 A3013 180 56 1000 VRB/06 RMK AO2 T02110122
03949KAQV AQV20190416092010804/16/19 09:20:31  5-MIN KAQV 161520Z AUTO VRB06KT 10SM CLR 22/12 A3013 180 52 1000 VRB/06 RMK AO2 T02170117
03949KAQV AQV20190416092510804/16/19 09:25:31  5-MIN KAQV 161525Z AUTO 15008KT 10SM CLR 21/12 A3013 180 54 1000 150/08 RMK AO2 T02110117
03949KAQV AQV20190416093010804/16/19 09:30:31  5-MIN KAQV 161530Z AUTO VRB06KT 10SM CLR 22/12 A3013 180 52 1000 VRB/06 RMK AO2 T02170117
03949KAQV AQV20190416093510804/16/19 09:35:31  5-MIN KAQV 161535Z AUTO VRB05KT 10SM CLR 22/12 A3013 180 52 1000 VRB/05 RMK AO2 T02170117
03949KAQV AQV20190416094010804/16/19 09:40:31  5-MIN KAQV 161540Z AUTO 17009KT 10SM CLR 22/11 A3013 180 50 1000 170/09 RMK AO2 T02170111
03949KAQV AQV20190416094510804/16/19 09:45:31  5-MIN KAQV 161545Z AUTO VRB06KT 10SM CLR 22/11 A3014 180 49 1000 VRB/06 RMK AO2 T02170106
03949KAQV AQV20190416095011504/16/19 09:50:31  5-MIN KAQV 161550Z AUTO 17006KT 10SM CLR 22/11 A3014 180 49 1100 160/06 RMK AO2 SLP204 T02220111
03949KAQV AQV20190416095511504/16/19 09:55:31  5-MIN KAQV 161555Z AUTO 16007KT 10SM CLR 22/11 A3014 180 49 1000 150/07 RMK AO2 SLP203 T02170106
03949KAQV AQV20190416100012404/16/19 10:00:31  5-MIN KAQV 161600Z AUTO 16008KT 130V200 10SM CLR 22/11 A3014 180 49 1100 160/08 130V200 RMK AO2 T02220111
03949KAQV AQV20190416100513004/16/19 10:05:31  5-MIN KAQV 161605Z AUTO 16007G15KT 110V180 10SM CLR 22/11 A3014 180 47 1100 150/07G15 110V180 RMK AO2 T02220106
03949KAQV AQV20190416101011404/16/19 10:10:31  5-MIN KAQV 161610Z AUTO VRB06G15KT 10SM CLR 22/11 A3014 170 47 1100 VRB/06G15 RMK AO2 T02220106
03949KAQV AQV20190416101510804/16/19 10:15:31  5-MIN KAQV 161615Z AUTO VRB06KT 10SM CLR 22/11 A3014 170 49 1100 VRB/06 RMK AO2 T02220111
03949KAQV AQV20190416102012404/16/19 10:20:31  5-MIN KAQV 161620Z AUTO 17007KT 140V220 10SM CLR 23/11 A3014 170 47 1200 170/07 140V220 RMK AO2 T02280111
03949KAQV AQV20190416102510804/16/19 10:25:31  5-MIN KAQV 161625Z AUTO 18007KT 10SM CLR 23/11 A3014 170 47 1200 180/07 RMK AO2 T02280111
03949KAQV AQV20190416103011404/16/19 10:30:31  5-MIN KAQV 161630Z AUTO VRB05G17KT 10SM CLR 23/11 A3014 170 45 1200 VRB/05G17 RMK AO2 T02280106
03949KAQV AQV20190416103511404/16/19 10:35:31  5-MIN KAQV 161635Z AUTO VRB06G17KT 10SM CLR 22/10 A3014 180 45 1100 VRB/06G17 RMK AO2 T02220100
03949KAQV AQV20190416104010804/16/19 10:40:31  5-MIN KAQV 161640Z AUTO VRB04KT 10SM CLR 23/11 A3013 180 45 1200 VRB/04 RMK AO2 T02280106
03949KAQV AQV20190416104510804/16/19 10:45:31  5-MIN KAQV 161645Z AUTO 19006KT 10SM CLR 23/11 A3013 180 45 1200 190/06 RMK AO2 T02330111
03949KAQV AQV20190416105011504/16/19 10:50:31  5-MIN KAQV 161650Z AUTO VRB06KT 10SM CLR 23/11 A3013 180 44 1200 VRB/06 RMK AO2 SLP202 T02330106
03949KAQV AQV20190416105511504/16/19 10:55:31  5-MIN KAQV 161655Z AUTO VRB06KT 10SM CLR 23/11 A3013 180 45 1200 VRB/06 RMK AO2 SLP202 T02330111
03949KAQV AQV20190416110010804/16/19 11:00:31  5-MIN KAQV 161700Z AUTO VRB06KT 10SM CLR 24/11 A3013 180 44 1300 VRB/06 RMK AO2 T02390111
03949KAQV AQV20190416110510804/16/19 11:05:31  5-MIN KAQV 161705Z AUTO VRB04KT 10SM CLR 23/11 A3013 190 44 1200 VRB/04 RMK AO2 T02330106
03949KAQV AQV20190416111010804/16/19 11:10:31  5-MIN KAQV 161710Z AUTO VRB06KT 10SM CLR 24/11 A3012 190 44 1300 VRB/06 RMK AO2 T02390111
03949KAQV AQV20190416111513004/16/19 11:15:31  5-MIN KAQV 161715Z AUTO 19009G16KT 140V220 10SM CLR 24/11 A3012 190 42 1300 180/09G16 140V220 RMK AO2 T02390106
03949KAQV AQV20190416112013004/16/19 11:20:31  5-MIN KAQV 161720Z AUTO 14007G16KT 080V180 10SM CLR 24/11 A3012 200 44 1300 140/07G16 080V180 RMK AO2 T02390111
03949KAQV AQV20190416112510804/16/19 11:25:31  5-MIN KAQV 161725Z AUTO VRB04KT 10SM CLR 24/11 A3011 200 42 1400 VRB/04 RMK AO2 T02440111
03949KAQV AQV20190416113009804/16/19 11:30:31  5-MIN KAQV 161730Z AUTO 10SM CLR 25/11 A3011 200 41 1400 M /M RMK AO2 T02500111
03949KAQV AQV20190416113510804/16/19 11:35:31  5-MIN KAQV 161735Z AUTO 18007KT 10SM CLR 24/12 A3011 200 44 1400 180/07 RMK AO2 T02440117
03949KAQV AQV20190416114013004/16/19 11:40:31  5-MIN KAQV 161740Z AUTO 17009G16KT 110V200 10SM CLR 24/12 A3010 210 44 1400 160/09G16 110V200 RMK AO2 T02440117
03949KAQV AQV20190416114511404/16/19 11:45:31  5-MIN KAQV 161745Z AUTO VRB05G16KT 10SM CLR 24/12 A3010 210 44 1400 VRB/05G16 RMK AO2 T02440117
03949KAQV AQV20190416115014904/16/19 11:50:31  5-MIN KAQV 161750Z AUTO 15007KT 110V180 10SM CLR 25/12 A3010 210 44 1500 140/07 110V180 RMK AO2 SLP191 T02500122 10250 20100 51015
03949KAQV AQV20190416115513304/16/19 11:55:31  5-MIN KAQV 161755Z AUTO VRB06KT 10SM CLR 24/12 A3010 210 44 1400 VRB/06 RMK AO2 SLP191 T02440117 10250 20100 51015
03949KAQV AQV20190416120009804/16/19 12:00:31  5-MIN KAQV 161800Z AUTO 10SM CLR 24/12 A3010 210 46 1300 M /M RMK AO2 T02390117
03949KAQV AQV20190416120510804/16/19 12:05:31  5-MIN KAQV 161805Z AUTO 16006KT 10SM CLR 24/12 A3010 210 46 1300 150/06 RMK AO2 T02390117
03949KAQV AQV20190416121010804/16/19 12:10:31  5-MIN KAQV 161810Z AUTO VRB05KT 10SM CLR 25/12 A3009 220 44 1500 VRB/05 RMK AO2 T02500122
03949KAQV AQV20190416121510804/16/19 12:15:31  5-MIN KAQV 161815Z AUTO 18008KT 10SM CLR 24/12 A3009 220 44 1400 180/08 RMK AO2 T02440117
03949KAQV AQV20190416122010804/16/19 12:20:31  5-MIN KAQV 161820Z AUTO 19009KT 10SM CLR 24/12 A3009 220 44 1400 180/09 RMK AO2 T02440117
03949KAQV AQV20190416122510804/16/19 12:25:31  5-MIN KAQV 161825Z AUTO 16006KT 10SM CLR 25/12 A3009 220 44 1500 160/06 RMK AO2 T02500122
03949KAQV AQV20190416123010804/16/19 12:30:31  5-MIN KAQV 161830Z AUTO 17008KT 10SM CLR 25/12 A3009 220 44 1500 160/08 RMK AO2 T02500122
03949KAQV AQV20190416123510804/16/19 12:35:31  5-MIN KAQV 161835Z AUTO VRB05KT 10SM CLR 24/12 A3009 220 44 1400 VRB/05 RMK AO2 T02440117
03949KAQV AQV20190416124012404/16/19 12:40:31  5-MIN KAQV 161840Z AUTO 16007KT 110V210 10SM CLR 26/12 A3009 220 43 1500 160/07 110V210 RMK AO2 T02560122
03949KAQV AQV20190416124512404/16/19 12:45:31  5-MIN KAQV 161845Z AUTO 15007KT 040V190 10SM CLR 24/12 A3009 220 46 1400 150/07 040V190 RMK AO2 T02440122
03949KAQV AQV20190416125012104/16/19 12:50:31  5-MIN KAQV 161850Z AUTO VRB04G15KT 10SM CLR 25/12 A3008 220 43 1500 VRB/04G15 RMK AO2 SLP186 T02500117
03949KAQV AQV20190416125513704/16/19 12:55:31  5-MIN KAQV 161855Z AUTO 18008G15KT 160V220 10SM CLR 26/13 A3008 220 44 1500 180/08G15 160V220 RMK AO2 SLP186 T02560128
03949KAQV AQV20190416130010804/16/19 13:00:31  5-MIN KAQV 161900Z AUTO VRB05KT 10SM CLR 25/13 A3008 230 46 1500 VRB/05 RMK AO2 T02500128
03949KAQV AQV20190416130510804/16/19 13:05:31  5-MIN KAQV 161905Z AUTO 18008KT 10SM CLR 26/13 A3008 230 44 1500 180/08 RMK AO2 T02560128
03949KAQV AQV20190416131010804/16/19 13:10:31  5-MIN KAQV 161910Z AUTO VRB06KT 10SM CLR 26/13 A3008 230 44 1500 VRB/06 RMK AO2 T02560128
03949KAQV AQV20190416131510804/16/19 13:15:31  5-MIN KAQV 161915Z AUTO VRB06KT 10SM CLR 25/12 A3007 240 44 1500 VRB/06 RMK AO2 T02500122
03949KAQV AQV20190416132010804/16/19 13:20:31  5-MIN KAQV 161920Z AUTO 16007KT 10SM CLR 25/12 A3007 240 44 1500 150/07 RMK AO2 T02500122
03949KAQV AQV20190416132510804/16/19 13:25:31  5-MIN KAQV 161925Z AUTO VRB06KT 10SM CLR 25/12 A3007 240 44 1500 VRB/06 RMK AO2 T02500122
03949KAQV AQV20190416133010804/16/19 13:30:31  5-MIN KAQV 161930Z AUTO VRB05KT 10SM CLR 26/13 A3007 240 44 1600 VRB/05 RMK AO2 T02560128
03949KAQV AQV20190416133511404/16/19 13:35:31  5-MIN KAQV 161935Z AUTO 13009G14KT 10SM CLR 26/13 A3006 240 44 1600 130/09G14 RMK AO2 T02610133
03949KAQV AQV20190416134013004/16/19 13:40:31  5-MIN KAQV 161940Z AUTO 16007G14KT 090V200 10SM CLR 26/13 A3006 250 44 1600 160/07G14 090V200 RMK AO2 T02560128
03949KAQV AQV20190416134510804/16/19 13:45:31  5-MIN KAQV 161945Z AUTO VRB04KT 10SM CLR 26/13 A3006 250 44 1600 VRB/04 RMK AO2 T02610133
03949KAQV AQV20190416135013104/16/19 13:50:31  5-MIN KAQV 161950Z AUTO 17008KT 110V200 10SM CLR 26/13 A3006 250 44 1600 160/08 110V200 RMK AO2 SLP176 T02610133
03949KAQV AQV20190416135511504/16/19 13:55:31  5-MIN KAQV 161955Z AUTO VRB05KT 10SM CLR 27/13 A3006 250 41 1700 VRB/05 RMK AO2 SLP176 T02670128
03949KAQV AQV20190416140012404/16/19 14:00:31  5-MIN KAQV 162000Z AUTO 17007KT 100V210 10SM CLR 27/13 A3005 250 41 1700 170/07 100V210 RMK AO2 T02670128
03949KAQV AQV20190416140513004/16/19 14:05:31  5-MIN KAQV 162005Z AUTO 18011G15KT 170V240 10SM CLR 27/13 A3005 250 41 1700 180/11G15 170V240 RMK AO2 T02670128
03949KAQV AQV20190416141013004/16/19 14:10:31  5-MIN KAQV 162010Z AUTO 17008G15KT 130V200 10SM CLR 26/13 A3005 260 43 1600 160/08G15 130V200 RMK AO2 T02610128
03949KAQV AQV20190416141510804/16/19 14:15:31  5-MIN KAQV 162015Z AUTO VRB05KT 10SM CLR 27/13 A3005 260 43 1700 VRB/05 RMK AO2 T02670133
03949KAQV AQV20190416142012404/16/19 14:20:31  5-MIN KAQV 162020Z AUTO 15008KT 120V190 10SM CLR 27/13 A3005 260 41 1700 150/08 120V190 RMK AO2 T02670128
03949KAQV AQV20190416142512404/16/19 14:25:31  5-MIN KAQV 162025Z AUTO 16007KT 120V210 10SM CLR 26/12 A3004 260 41 1600 160/07 120V210 RMK AO2 T02610122
03949KAQV AQV20190416143011404/16/19 14:30:31  5-MIN KAQV 162030Z AUTO 18009G14KT 10SM CLR 26/12 A3004 270 41 1700 180/09G14 RMK AO2 T02610122
03949KAQV AQV20190416143511404/16/19 14:35:31  5-MIN KAQV 162035Z AUTO 16008G14KT 10SM CLR 26/13 A3004 270 43 1700 160/08G14 RMK AO2 T02610128
03949KAQV AQV20190416144010804/16/19 14:40:31  5-MIN KAQV 162040Z AUTO VRB06KT 10SM CLR 26/12 A3004 270 43 1600 VRB/06 RMK AO2 T02560122
03949KAQV AQV20190416144510804/16/19 14:45:31  5-MIN KAQV 162045Z AUTO 18007KT 10SM CLR 26/12 A3003 270 43 1600 170/07 RMK AO2 T02560122
03949KAQV AQV20190416145012104/16/19 14:50:31  5-MIN KAQV 162050Z AUTO 17008KT 10SM CLR 27/13 A3003 270 43 1700 170/08 RMK AO2 SLP168 T02670133 58012
03949KAQV AQV20190416145513704/16/19 14:55:31  5-MIN KAQV 162055Z AUTO 17008KT 110V190 10SM CLR 26/13 A3003 280 44 1700 170/08 110V190 RMK AO2 SLP167 T02610133 58012
03949KAQV AQV20190416150009804/16/19 15:00:31  5-MIN KAQV 162100Z AUTO 10SM CLR 26/13 A3003 280 44 1600 M /M RMK AO2 T02560128
03949KAQV AQV20190416150512404/16/19 15:05:31  5-MIN KAQV 162105Z AUTO 18008KT 160V220 10SM CLR 26/13 A3003 280 46 1600 180/08 160V220 RMK AO2 T02560133
03949KAQV AQV20190416151010804/16/19 15:10:31  5-MIN KAQV 162110Z AUTO VRB03KT 10SM CLR 27/13 A3003 280 43 1700 VRB/03 RMK AO2 T02670133
03949KAQV AQV20190416151512404/16/19 15:15:31  5-MIN KAQV 162115Z AUTO 16007KT 120V200 10SM CLR 26/13 A3002 280 43 1700 160/07 120V200 RMK AO2 T02610128
03949KAQV AQV20190416152010804/16/19 15:20:31  5-MIN KAQV 162120Z AUTO VRB06KT 10SM CLR 27/13 A3003 280 43 1700 VRB/06 RMK AO2 T02670133
03949KAQV AQV20190416152510804/16/19 15:25:31  5-MIN KAQV 162125Z AUTO VRB04KT 10SM CLR 26/13 A3002 280 44 1700 VRB/04 RMK AO2 T02610133
03949KAQV AQV20190416153010804/16/19 15:30:31  5-MIN KAQV 162130Z AUTO VRB05KT 10SM CLR 27/14 A3002 280 45 1700 VRB/05 RMK AO2 T02670139
03949KAQV AQV20190416153510804/16/19 15:35:31  5-MIN KAQV 162135Z AUTO VRB06KT 10SM CLR 26/14 A3002 280 46 1700 VRB/06 RMK AO2 T02610139
03949KAQV AQV20190416154010804/16/19 15:40:31  5-MIN KAQV 162140Z AUTO VRB06KT 10SM CLR 26/14 A3002 290 48 1600 VRB/06 RMK AO2 T02560139
03949KAQV AQV20190416154512404/16/19 15:45:31  5-MIN KAQV 162145Z AUTO 16007KT 130V190 10SM CLR 24/13 A3002 290 49 1500 160/07 130V190 RMK AO2 T02440133
03949KAQV AQV20190416155011504/16/19 15:50:31  5-MIN KAQV 162150Z AUTO VRB05KT 10SM CLR 25/13 A3002 290 48 1500 VRB/05 RMK AO2 SLP163 T02500133
03949KAQV AQV20190416155511504/16/19 15:55:31  5-MIN KAQV 162155Z AUTO VRB05KT 10SM CLR 26/13 A3002 290 46 1600 VRB/05 RMK AO2 SLP163 T02560133
03949KAQV AQV20190416160010804/16/19 16:00:31  5-MIN KAQV 162200Z AUTO VRB05KT 10SM CLR 26/14 A3002 290 48 1600 VRB/05 RMK AO2 T02560139
03949KAQV AQV20190416160510804/16/19 16:05:31  5-MIN KAQV 162205Z AUTO VRB06KT 10SM CLR 26/14 A3002 290 48 1600 VRB/06 RMK AO2 T02560139
03949KAQV AQV20190416161010804/16/19 16:10:31  5-MIN KAQV 162210Z AUTO VRB06KT 10SM CLR 26/14 A3001 290 46 1700 VRB/06 RMK AO2 T02610139
03949KAQV AQV20190416161510804/16/19 16:15:31  5-MIN KAQV 162215Z AUTO VRB04KT 10SM CLR 26/14 A3001 290 46 1700 VRB/04 RMK AO2 T02610139
03949KAQV AQV20190416162012404/16/19 16:20:31  5-MIN KAQV 162220Z AUTO 18007KT 150V210 10SM CLR 26/14 A3001 300 46 1700 170/07 150V210 RMK AO2 T02610139
03949KAQV AQV20190416162512404/16/19 16:25:31  5-MIN KAQV 162225Z AUTO 15008KT 110V180 10SM CLR 25/13 A3001 300 48 1600 150/08 110V180 RMK AO2 T02500133
03949KAQV AQV20190416163010804/16/19 16:30:31  5-MIN KAQV 162230Z AUTO VRB06KT 10SM CLR 26/13 A3001 300 46 1600 VRB/06 RMK AO2 T02560133
03949KAQV AQV20190416163510804/16/19 16:35:31  5-MIN KAQV 162235Z AUTO VRB05KT 10SM CLR 25/13 A3001 300 48 1600 VRB/05 RMK AO2 T02500133
03949KAQV AQV20190416164010804/16/19 16:40:31  5-MIN KAQV 162240Z AUTO VRB06KT 10SM CLR 25/13 A3000 300 48 1600 VRB/06 RMK AO2 T02500133
03949KAQV AQV20190416164510804/16/19 16:45:31  5-MIN KAQV 162245Z AUTO VRB04KT 10SM CLR 24/13 A3001 300 49 1500 VRB/04 RMK AO2 T02440133
03949KAQV AQV20190416165011504/16/19 16:50:31  5-MIN KAQV 162250Z AUTO VRB05KT 10SM CLR 24/14 A3001 300 51 1500 VRB/05 RMK AO2 SLP159 T02440139
03949KAQV AQV20190416165511504/16/19 16:55:31  5-MIN KAQV 162255Z AUTO VRB05KT 10SM CLR 24/14 A3000 300 51 1500 VRB/05 RMK AO2 SLP158 T02440139
03949KAQV AQV20190416170010804/16/19 17:00:31  5-MIN KAQV 162300Z AUTO 17005KT 10SM CLR 26/14 A3000 300 48 1600 160/05 RMK AO2 T02560139
03949KAQV AQV20190416170512404/16/19 17:05:31  5-MIN KAQV 162305Z AUTO 16007KT 130V190 10SM CLR 25/14 A3000 300 49 1600 160/07 130V190 RMK AO2 T02500139
03949KAQV AQV20190416171010804/16/19 17:10:31  5-MIN KAQV 162310Z AUTO VRB05KT 10SM CLR 25/14 A3000 300 49 1600 VRB/05 RMK AO2 T02500139
03949KAQV AQV20190416171510804/16/19 17:15:31  5-MIN KAQV 162315Z AUTO VRB05KT 10SM CLR 24/14 A3000 300 51 1500 VRB/05 RMK AO2 T02440139
03949KAQV AQV20190416172010804/16/19 17:20:31  5-MIN KAQV 162320Z AUTO VRB05KT 10SM CLR 24/13 A3000 310 49 1500 VRB/05 RMK AO2 T02440133
03949KAQV AQV20190416172510804/16/19 17:25:31  5-MIN KAQV 162325Z AUTO 15004KT 10SM CLR 24/13 A3000 300 51 1400 150/04 RMK AO2 T02390133
03949KAQV AQV20190416173010804/16/19 17:30:31  5-MIN KAQV 162330Z AUTO 16004KT 10SM CLR 24/13 A3000 300 51 1400 150/04 RMK AO2 T02390133
03949KAQV AQV20190416173510804/16/19 17:35:31  5-MIN KAQV 162335Z AUTO VRB04KT 10SM CLR 24/13 A3000 300 51 1400 VRB/04 RMK AO2 T02390133
03949KAQV AQV20190416174010804/16/19 17:40:31  5-MIN KAQV 162340Z AUTO 00000KT 10SM CLR 24/13 A3000 310 51 1400 000/00 RMK AO2 T02390133
03949KAQV AQV20190416174510804/16/19 17:45:31  5-MIN KAQV 162345Z AUTO VRB04KT 10SM CLR 23/13 A3000 310 53 1400 VRB/04 RMK AO2 T02330133
03949KAQV AQV20190416175013304/16/19 17:50:31  5-MIN KAQV 162350Z AUTO VRB06KT 10SM CLR 23/13 A3000 310 53 1400 VRB/06 RMK AO2 SLP156 T02330133 10272 20233 58023
03949KAQV AQV20190416175513304/16/19 17:55:31  5-MIN KAQV 162355Z AUTO VRB05KT 10SM CLR 23/13 A3000 310 53 1400 VRB/05 RMK AO2 SLP155 T02330133 10272 20233 58023
03949KAQV AQV20190416180010804/16/19 18:00:31  5-MIN KAQV 170000Z AUTO VRB04KT 10SM CLR 23/13 A3000 300 51 1400 VRB/04 RMK AO2 T02330128
03949KAQV AQV20190416180510804/16/19 18:05:31  5-MIN KAQV 170005Z AUTO VRB05KT 10SM CLR 23/13 A3000 300 53 1300 VRB/05 RMK AO2 T02280128
03949KAQV AQV20190416181010804/16/19 18:10:31  5-MIN KAQV 170010Z AUTO VRB04KT 10SM CLR 23/13 A3001 300 53 1300 VRB/04 RMK AO2 T02280128
03949KAQV AQV20190416181510804/16/19 18:15:31  5-MIN KAQV 170015Z AUTO 17004KT 10SM CLR 22/13 A3001 290 54 1200 160/04 RMK AO2 T02220128
03949KAQV AQV20190416182010804/16/19 18:20:31  5-MIN KAQV 170020Z AUTO 17005KT 10SM CLR 22/13 A3001 290 54 1200 170/05 RMK AO2 T02220128
03949KAQV AQV20190416182510804/16/19 18:25:31  5-MIN KAQV 170025Z AUTO 17004KT 10SM CLR 22/13 A3001 290 56 1200 170/04 RMK AO2 T02170128
03949KAQV AQV20190416183010804/16/19 18:30:31  5-MIN KAQV 170030Z AUTO VRB04KT 10SM CLR 22/13 A3001 290 56 1200 VRB/04 RMK AO2 T02170128
03949KAQV AQV20190416183510804/16/19 18:35:31  5-MIN KAQV 170035Z AUTO 18005KT 10SM CLR 22/13 A3001 290 56 1200 170/05 RMK AO2 T02170128
03949KAQV AQV20190416184010804/16/19 18:40:31  5-MIN KAQV 170040Z AUTO 17006KT 10SM CLR 21/13 A3001 290 58 1100 170/06 RMK AO2 T02110128
03949KAQV AQV20190416184510804/16/19 18:45:31  5-MIN KAQV 170045Z AUTO VRB04KT 10SM CLR 21/12 A3001 290 56 1100 VRB/04 RMK AO2 T02110122
03949KAQV AQV20190416185011504/16/19 18:50:31  5-MIN KAQV 170050Z AUTO VRB05KT 10SM CLR 21/12 A3000 300 56 1100 VRB/05 RMK AO2 SLP160 T02110122
03949KAQV AQV20190416185511504/16/19 18:55:31  5-MIN KAQV 170055Z AUTO VRB05KT 10SM CLR 21/12 A3000 300 56 1100 VRB/05 RMK AO2 SLP157 T02110122
03949KAQV AQV20190416190010804/16/19 19:00:31  5-MIN KAQV 170100Z AUTO VRB04KT 10SM CLR 21/12 A3000 300 56 1100 VRB/04 RMK AO2 T02110122
03949KAQV AQV20190416190510804/16/19 19:05:31  5-MIN KAQV 170105Z AUTO 16005KT 10SM CLR 21/12 A3000 300 58 1100 160/05 RMK AO2 T02060122
03949KAQV AQV20190416191010804/16/19 19:10:31  5-MIN KAQV 170110Z AUTO VRB05KT 10SM CLR 21/12 A3000 300 58 1100 VRB/05 RMK AO2 T02060122
03949KAQV AQV20190416191510804/16/19 19:15:31  5-MIN KAQV 170115Z AUTO 18006KT 10SM CLR 21/12 A3001 300 58 1100 170/06 RMK AO2 T02060122
03949KAQV AQV20190416192010804/16/19 19:20:31  5-MIN KAQV 170120Z AUTO VRB04KT 10SM CLR 21/12 A3001 300 58 1100 VRB/04 RMK AO2 T02060122
03949KAQV AQV20190416192510804/16/19 19:25:31  5-MIN KAQV 170125Z AUTO 17005KT 10SM CLR 20/12 A3001 290 60 1000 170/05 RMK AO2 T02000122
03949KAQV AQV20190416193010804/16/19 19:30:31  5-MIN KAQV 170130Z AUTO 17004KT 10SM CLR 20/12 A3001 300 60 1000 160/04 RMK AO2 T02000122
03949KAQV AQV20190416193510804/16/19 19:35:31  5-MIN KAQV 170135Z AUTO 17004KT 10SM CLR 20/12 A3001 290 60 1000 170/04 RMK AO2 T02000122
03949KAQV AQV20190416194010704/16/19 19:40:31  5-MIN KAQV 170140Z AUTO 18004KT 10SM CLR 19/12 A3002 290 62 900 180/04 RMK AO2 T01940122
03949KAQV AQV20190416194510704/16/19 19:45:31  5-MIN KAQV 170145Z AUTO 18004KT 10SM CLR 19/12 A3002 290 62 900 180/04 RMK AO2 T01940122
03949KAQV AQV20190416195011404/16/19 19:50:31  5-MIN KAQV 170150Z AUTO VRB04KT 10SM CLR 19/12 A3002 290 62 900 VRB/04 RMK AO2 SLP163 T01940122
03949KAQV AQV20190416195511404/16/19 19:55:31  5-MIN KAQV 170155Z AUTO 18003KT 10SM CLR 19/12 A3002 280 65 800 170/03 RMK AO2 SLP164 T01890122
03949KAQV AQV20190416200010704/16/19 20:00:31  5-MIN KAQV 170200Z AUTO VRB03KT 10SM CLR 19/12 A3002 280 65 800 VRB/03 RMK AO2 T01890122
03949KAQV AQV20190416200510704/16/19 20:05:31  5-MIN KAQV 170205Z AUTO 17004KT 10SM CLR 19/12 A3002 280 65 800 170/04 RMK AO2 T01890122
03949KAQV AQV20190416201010704/16/19 20:10:31  5-MIN KAQV 170210Z AUTO 17003KT 10SM CLR 19/12 A3002 280 65 800 170/03 RMK AO2 T01890122
03949KAQV AQV20190416201510704/16/19 20:15:31  5-MIN KAQV 170215Z AUTO 18005KT 10SM CLR 19/12 A3002 280 65 800 170/05 RMK AO2 T01890122
03949KAQV AQV20190416202010704/16/19 20:20:31  5-MIN KAQV 170220Z AUTO 18004KT 10SM CLR 19/13 A3002 280 67 800 170/04 RMK AO2 T01890128
03949KAQV AQV20190416202510704/16/19 20:25:31  5-MIN KAQV 170225Z AUTO 18004KT 10SM CLR 19/13 A3003 280 67 800 170/04 RMK AO2 T01890128
03949KAQV AQV20190416203010704/16/19 20:30:31  5-MIN KAQV 170230Z AUTO VRB04KT 10SM CLR 19/13 A3003 280 67 800 VRB/04 RMK AO2 T01890128
03949KAQV AQV20190416203510704/16/19 20:35:31  5-MIN KAQV 170235Z AUTO VRB04KT 10SM CLR 18/13 A3003 270 70 800 VRB/04 RMK AO2 T01830128
03949KAQV AQV20190416204010704/16/19 20:40:31  5-MIN KAQV 170240Z AUTO VRB04KT 10SM CLR 18/13 A3003 270 70 800 VRB/04 RMK AO2 T01830128
03949KAQV AQV20190416204510704/16/19 20:45:31  5-MIN KAQV 170245Z AUTO 18004KT 10SM CLR 18/13 A3003 270 70 800 180/04 RMK AO2 T01830128
03949KAQV AQV20190416205012004/16/19 20:50:31  5-MIN KAQV 170250Z AUTO VRB04KT 10SM CLR 18/13 A3003 270 70 800 VRB/04 RMK AO2 SLP168 T01830128 56010
03949KAQV AQV20190416205512004/16/19 20:55:31  5-MIN KAQV 170255Z AUTO 17005KT 10SM CLR 18/13 A3003 280 70 800 170/05 RMK AO2 SLP167 T01830128 56010
03949KAQV AQV20190416210010704/16/19 21:00:31  5-MIN KAQV 170300Z AUTO 18005KT 10SM CLR 18/13 A3003 280 70 800 170/05 RMK AO2 T01830128
03949KAQV AQV20190416210510704/16/19 21:05:31  5-MIN KAQV 170305Z AUTO 18006KT 10SM CLR 18/13 A3003 280 70 800 180/06 RMK AO2 T01830128
03949KAQV AQV20190416211010704/16/19 21:10:31  5-MIN KAQV 170310Z AUTO 18004KT 10SM CLR 18/13 A3003 280 70 800 180/04 RMK AO2 T01830128
03949KAQV AQV20190416211510704/16/19 21:15:31  5-MIN KAQV 170315Z AUTO 18005KT 10SM CLR 18/13 A3003 280 70 800 170/05 RMK AO2 T01830128
03949KAQV AQV20190416212010704/16/19 21:20:31  5-MIN KAQV 170320Z AUTO VRB04KT 10SM CLR 18/13 A3003 280 70 800 VRB/04 RMK AO2 T01830128
03949KAQV AQV20190416212510704/16/19 21:25:31  5-MIN KAQV 170325Z AUTO 18004KT 10SM CLR 18/13 A3003 280 70 800 170/04 RMK AO2 T01830128
03949KAQV AQV20190416213010704/16/19 21:30:31  5-MIN KAQV 170330Z AUTO 18004KT 10SM CLR 18/13 A3003 280 72 700 180/04 RMK AO2 T01780128
03949KAQV AQV20190416213510704/16/19 21:35:31  5-MIN KAQV 170335Z AUTO VRB04KT 10SM CLR 18/13 A3003 280 72 700 VRB/04 RMK AO2 T01780128
03949KAQV AQV20190416214010704/16/19 21:40:31  5-MIN KAQV 170340Z AUTO VRB03KT 10SM CLR 18/13 A3003 280 72 700 VRB/03 RMK AO2 T01780128
03949KAQV AQV20190416214510704/16/19 21:45:31  5-MIN KAQV 170345Z AUTO VRB05KT 10SM CLR 18/13 A3002 280 72 700 VRB/05 RMK AO2 T01780128
03949KAQV AQV20190416215011404/16/19 21:50:31  5-MIN KAQV 170350Z AUTO 16004KT 10SM CLR 18/13 A3002 280 72 700 160/04 RMK AO2 SLP164 T01780128
03949KAQV AQV20190416215511404/16/19 21:55:31  5-MIN KAQV 170355Z AUTO VRB05KT 10SM CLR 18/13 A3002 290 75 700 VRB/05 RMK AO2 SLP163 T01780133
03949KAQV AQV20190416220010704/16/19 22:00:31  5-MIN KAQV 170400Z AUTO VRB04KT 10SM CLR 18/13 A3002 280 75 700 VRB/04 RMK AO2 T01780133
03949KAQV AQV20190416220510704/16/19 22:05:31  5-MIN KAQV 170405Z AUTO 18004KT 10SM CLR 18/13 A3002 280 75 700 170/04 RMK AO2 T01780133
03949KAQV AQV20190416221010704/16/19 22:10:31  5-MIN KAQV 170410Z AUTO 18004KT 10SM CLR 18/13 A3002 280 75 700 170/04 RMK AO2 T01780133
03949KAQV AQV20190416221512004/16/19 22:15:31  5-MIN KAQV 170415Z AUTO VRB05KT 10SM CLR 18/13 A3002 280 90 600 VRB/03 RMK AO2 SLP146 T01610144 56004
03949KAQV AQV20190417021510704/17/19 02:15:31  5-MIN KAQV 170815Z AUTO VRB03KT 10SM CLR 16/14 A2998 330 90 600 VRB/03 RMK AO2 T01610144
03949KAQV AQV20190417022010704/17/19 02:20:31  5-MIN KAQV 170820Z AUTO 16003KT 10SM CLR 16/14 A2998 330 90 600 160/03 RMK AO2 T01610144
03949KAQV AQV20190417022510704/17/19 02:25:31  5-MIN KAQV 170825Z AUTO 16003KT 10SM CLR 16/14 A2997 330 90 600 160/03 RMK AO2 T01610144
03949KAQV AQV20190417023010704/17/19 02:30:31  5-MIN KAQV 170830Z AUTO 16003KT 10SM CLR 16/14 A2997 330 90 600 160/03 RMK AO2 T01610144
03949KAQV AQV20190417023510704/17/19 02:35:31  5-MIN KAQV 170835Z AUTO 15003KT 10SM CLR 16/14 A2997 330 90 600 150/03 RMK AO2 T01610144
03949KAQV AQV20190417024010704/17/19 02:40:31  5-MIN KAQV 170840Z AUTO 17003KT 10SM CLR 16/14 A2997 330 90 600 160/03 RMK AO2 T01610144
03949KAQV AQV20190417024510704/17/19 02:45:31  5-MIN KAQV 170845Z AUTO 17004KT 10SM CLR 16/14 A2997 330 90 600 160/04 RMK AO2 T01610144
03949KAQV AQV20190417025012004/17/19 02:50:31  5-MIN KAQV 170850Z AUTO VRB03KT 10SM CLR 16/14 A2997 330 90 600 VRB/03 RMK AO2 SLP146 T01610144 56004
03949KAQV AQV20190417025512004/17/19 02:55:31  5-MIN KAQV 170855Z AUTO VRB03KT 10SM CLR 16/14 A2996 340 90 600 VRB/03 RMK AO2 SLP143 T01610144 56004
03949KAQV AQV20190417030011004/17/19 03:00:31  5-MIN KAQV 170900Z AUTO VRB03KT 10SM SCT018 16/14 A2996 340 90 600 VRB/03 RMK AO2 T01610144
03949KAQV AQV20190417030511004/17/19 03:05:31  5-MIN KAQV 170905Z AUTO VRB03KT 10SM BKN018 16/14 A2996 340 90 600 VRB/03 RMK AO2 T01610144
03949KAQV AQV20190417031011004/17/19 03:10:31  5-MIN KAQV 170910Z AUTO 16003KT 10SM BKN018 16/14 A2996 340 90 600 160/03 RMK AO2 T01610144
03949KAQV AQV20190417031511004/17/19 03:15:31  5-MIN KAQV 170915Z AUTO VRB03KT 10SM BKN018 16/14 A2996 340 90 600 VRB/03 RMK AO2 T01610144
03949KAQV AQV20190417032011004/17/19 03:20:31  5-MIN KAQV 170920Z AUTO 17004KT 10SM BKN018 16/14 A2996 340 90 600 170/04 RMK AO2 T01610144
03949KAQV AQV20190417032511004/17/19 03:25:31  5-MIN KAQV 170925Z AUTO VRB03KT 10SM BKN018 16/14 A2996 340 90 600 VRB/03 RMK AO2 T01610144
03949KAQV AQV20190417033011004/17/19 03:30:31  5-MIN KAQV 170930Z AUTO 17005KT 10SM BKN018 16/14 A2996 340 90 600 170/05 RMK AO2 T01610144
03949KAQV AQV20190417033511004/17/19 03:35:31  5-MIN KAQV 170935Z AUTO VRB04KT 10SM BKN018 16/14 A2996 340 90 600 VRB/04 RMK AO2 T01610144
03949KAQV AQV20190417034011004/17/19 03:40:31  5-MIN KAQV 170940Z AUTO 17005KT 10SM BKN019 17/15 A2996 340 90 700 160/05 RMK AO2 T01670150
03949KAQV AQV20190417034511004/17/19 03:45:31  5-MIN KAQV 170945Z AUTO 17004KT 10SM OVC019 17/15 A2996 340 90 700 170/04 RMK AO2 T01670150
03949KAQV AQV20190417035011704/17/19 03:50:31  5-MIN KAQV 170950Z AUTO 19004KT 10SM OVC019 17/15 A2996 340 90 700 180/04 RMK AO2 SLP143 T01670150
03949KAQV AQV20190417035511704/17/19 03:55:31  5-MIN KAQV 170955Z AUTO 18004KT 10SM OVC020 17/15 A2996 340 90 700 170/04 RMK AO2 SLP143 T01670150
03949KAQV AQV20190417040011004/17/19 04:00:31  5-MIN KAQV 171000Z AUTO VRB03KT 10SM OVC020 17/15 A2996 340 90 700 VRB/03 RMK AO2 T01670150
03949KAQV AQV20190417040511004/17/19 04:05:31  5-MIN KAQV 171005Z AUTO VRB03KT 10SM OVC020 17/15 A2996 340 90 700 VRB/03 RMK AO2 T01670150
03949KAQV AQV20190417041011004/17/19 04:10:31  5-MIN KAQV 171010Z AUTO VRB03KT 10SM OVC020 17/15 A2996 340 90 700 VRB/03 RMK AO2 T01670150
03949KAQV AQV20190417041511004/17/19 04:15:31  5-MIN KAQV 171015Z AUTO VRB03KT 10SM OVC020 17/15 A2995 350 90 700 VRB/03 RMK AO2 T01670150
03949KAQV AQV20190417042011004/17/19 04:20:31  5-MIN KAQV 171020Z AUTO 16005KT 10SM OVC020 17/15 A2995 350 90 700 160/05 RMK AO2 T01670150
03949KAQV AQV20190417042511004/17/19 04:25:31  5-MIN KAQV 171025Z AUTO VRB03KT 10SM BKN020 17/15 A2995 350 90 700 VRB/03 RMK AO2 T01670150
03949KAQV AQV20190417043011004/17/19 04:30:31  5-MIN KAQV 171030Z AUTO VRB05KT 10SM BKN020 17/15 A2995 350 90 700 VRB/05 RMK AO2 T01670150
03949KAQV AQV20190417043511004/17/19 04:35:31  5-MIN KAQV 171035Z AUTO 17003KT 10SM BKN020 17/15 A2995 350 90 700 160/03 RMK AO2 T01670150
03949KAQV AQV20190417044011004/17/19 04:40:31  5-MIN KAQV 171040Z AUTO 16004KT 10SM SCT021 17/15 A2994 350 90 700 160/04 RMK AO2 T01670150
03949KAQV AQV20190417044511004/17/19 04:45:31  5-MIN KAQV 171045Z AUTO VRB05KT 10SM SCT021 17/15 A2994 350 90 700 VRB/05 RMK AO2 T01670150
03949KAQV AQV20190417045011704/17/19 04:50:31  5-MIN KAQV 171050Z AUTO VRB03KT 10SM SCT021 17/15 A2995 350 90 700 VRB/03 RMK AO2 SLP139 T01670150
03949KAQV AQV20190417045511704/17/19 04:55:31  5-MIN KAQV 171055Z AUTO 17005KT 10SM SCT021 17/15 A2995 350 90 700 160/05 RMK AO2 SLP139 T01670150
03949KAQV AQV20190417050011004/17/19 05:00:31  5-MIN KAQV 171100Z AUTO 15004KT 10SM FEW022 17/15 A2994 350 90 700 150/04 RMK AO2 T01670150
03949KAQV AQV20190417050511004/17/19 05:05:31  5-MIN KAQV 171105Z AUTO VRB04KT 10SM FEW022 17/15 A2994 350 90 700 VRB/04 RMK AO2 T01670150
03949KAQV AQV20190417051011004/17/19 05:10:31  5-MIN KAQV 171110Z AUTO 16004KT 10SM FEW022 17/15 A2994 350 90 700 160/04 RMK AO2 T01670150
03949KAQV AQV20190417051511004/17/19 05:15:31  5-MIN KAQV 171115Z AUTO VRB04KT 10SM FEW022 17/16 A2994 350 93 700 VRB/04 RMK AO2 T01670156
03949KAQV AQV20190417052010704/17/19 05:20:31  5-MIN KAQV 171120Z AUTO 17004KT 10SM CLR 17/16 A2995 350 93 700 160/04 RMK AO2 T01670156
03949KAQV AQV20190417052510704/17/19 05:25:31  5-MIN KAQV 171125Z AUTO VRB04KT 10SM CLR 17/16 A2995 350 93 700 VRB/04 RMK AO2 T01670156
03949KAQV AQV20190417053010704/17/19 05:30:31  5-MIN KAQV 171130Z AUTO 17004KT 10SM CLR 17/16 A2995 350 93 700 160/04 RMK AO2 T01670156
03949KAQV AQV20190417053510704/17/19 05:35:31  5-MIN KAQV 171135Z AUTO VRB03KT 10SM CLR 17/16 A2995 350 93 700 VRB/03 RMK AO2 T01670156
03949KAQV AQV20190417054010704/17/19 05:40:31  5-MIN KAQV 171140Z AUTO 17004KT 10SM CLR 17/16 A2995 350 93 700 170/04 RMK AO2 T01670156
03949KAQV AQV20190417054510704/17/19 05:45:31  5-MIN KAQV 171145Z AUTO 17003KT 10SM CLR 17/16 A2995 350 93 700 160/03 RMK AO2 T01670156
03949KAQV AQV20190417055013204/17/19 05:50:31  5-MIN KAQV 171150Z AUTO 16004KT 10SM CLR 17/16 A2995 350 93 700 160/04 RMK AO2 SLP141 T01670156 10172 20161 56020
03949KAQV AQV20190417055513204/17/19 05:55:31  5-MIN KAQV 171155Z AUTO 15005KT 10SM CLR 17/16 A2995 350 90 700 150/05 RMK AO2 SLP140 T01720156 10172 20161 56020
03949KAQV AQV20190417060010704/17/19 06:00:31  5-MIN KAQV 171200Z AUTO VRB03KT 10SM CLR 17/16 A2995 350 90 700 VRB/03 RMK AO2 T01720156
03949KAQV AQV20190417060510704/17/19 06:05:31  5-MIN KAQV 171205Z AUTO VRB03KT 10SM CLR 17/16 A2996 340 90 700 VRB/03 RMK AO2 T01720156
03949KAQV AQV20190417061010604/17/19 06:10:31  5-MIN KAQV 171210Z AUTO VRB04KT 9SM CLR 17/16 A2996 340 90 700 VRB/04 RMK AO2 T01720156
03949KAQV AQV20190417061510604/17/19 06:15:31  5-MIN KAQV 171215Z AUTO 16003KT 9SM CLR 17/16 A2996 340 93 700 160/03 RMK AO2 T01720161
03949KAQV AQV20190417062010704/17/19 06:20:31  5-MIN KAQV 171220Z AUTO VRB03KT 10SM CLR 17/16 A2996 340 93 700 VRB/03 RMK AO2 T01720161
03949KAQV AQV20190417062510704/17/19 06:25:31  5-MIN KAQV 171225Z AUTO 16004KT 10SM CLR 17/16 A2996 340 93 700 160/04 RMK AO2 T01720161
03949KAQV AQV20190417063010704/17/19 06:30:31  5-MIN KAQV 171230Z AUTO 16004KT 10SM CLR 17/16 A2996 340 93 700 160/04 RMK AO2 T01720161
03949KAQV AQV20190417063510704/17/19 06:35:31  5-MIN KAQV 171235Z AUTO VRB03KT 10SM CLR 18/16 A2996 340 90 800 VRB/03 RMK AO2 T01780161
03949KAQV AQV20190417064010704/17/19 06:40:31  5-MIN KAQV 171240Z AUTO VRB04KT 10SM CLR 18/16 A2996 340 90 800 VRB/04 RMK AO2 T01780161
03949KAQV AQV20190417064510704/17/19 06:45:31  5-MIN KAQV 171245Z AUTO VRB04KT 10SM CLR 18/16 A2996 340 90 800 VRB/04 RMK AO2 T01780161
03949KAQV AQV20190417065011404/17/19 06:50:31  5-MIN KAQV 171250Z AUTO VRB04KT 10SM CLR 18/16 A2996 340 90 800 VRB/04 RMK AO2 SLP143 T01780161
03949KAQV AQV20190417065511404/17/19 06:55:31  5-MIN KAQV 171255Z AUTO VRB04KT 10SM CLR 18/16 A2996 340 90 800 VRB/04 RMK AO2 SLP142 T01780161
03949KAQV AQV20190417070010704/17/19 07:00:31  5-MIN KAQV 171300Z AUTO VRB04KT 10SM CLR 18/16 A2996 340 90 800 VRB/04 RMK AO2 T01780161
03949KAQV AQV20190417070511004/17/19 07:05:31  5-MIN KAQV 171305Z AUTO 16004KT 10SM FEW007 18/16 A2995 340 90 800 150/04 RMK AO2 T01780161
03949KAQV AQV20190417071011004/17/19 07:10:31  5-MIN KAQV 171310Z AUTO VRB04KT 10SM SCT007 18/16 A2996 340 90 800 VRB/04 RMK AO2 T01780161
03949KAQV AQV20190417071511004/17/19 07:15:31  5-MIN KAQV 171315Z AUTO VRB04KT 10SM SCT007 18/17 A2995 340 90 900 VRB/04 RMK AO2 T01830167
03949KAQV AQV20190417072011004/17/19 07:20:31  5-MIN KAQV 171320Z AUTO VRB05KT 10SM BKN007 18/17 A2995 340 90 900 VRB/05 RMK AO2 T01830167
03949KAQV AQV20190417072511004/17/19 07:25:31  5-MIN KAQV 171325Z AUTO VRB04KT 10SM BKN007 18/17 A2995 350 90 900 VRB/04 RMK AO2 T01830167
03949KAQV AQV20190417073011004/17/19 07:30:31  5-MIN KAQV 171330Z AUTO VRB04KT 10SM BKN007 18/17 A2995 350 90 900 VRB/04 RMK AO2 T01830167
03949KAQV AQV20190417073511004/17/19 07:35:31  5-MIN KAQV 171335Z AUTO VRB05KT 10SM OVC007 19/17 A2995 350 87 900 VRB/05 RMK AO2 T01890167
03949KAQV AQV20190417074011004/17/19 07:40:31  5-MIN KAQV 171340Z AUTO VRB05KT 10SM OVC007 19/17 A2995 350 87 900 VRB/05 RMK AO2 T01890167
03949KAQV AQV20190417074511004/17/19 07:45:31  5-MIN KAQV 171345Z AUTO VRB06KT 10SM OVC007 19/17 A2995 350 90 900 VRB/06 RMK AO2 T01890172
03949KAQV AQV20190417075011804/17/19 07:50:31  5-MIN KAQV 171350Z AUTO VRB05KT 10SM OVC007 19/17 A2995 350 87 1000 VRB/05 RMK AO2 SLP140 T01940172
03949KAQV AQV20190417075511804/17/19 07:55:31  5-MIN KAQV 171355Z AUTO VRB05KT 10SM OVC007 19/17 A2995 350 87 1000 VRB/05 RMK AO2 SLP141 T01940172
03949KAQV AQV20190417080011104/17/19 08:00:31  5-MIN KAQV 171400Z AUTO VRB06KT 10SM OVC008 19/17 A2995 350 87 1000 VRB/06 RMK AO2 T01940172
03949KAQV AQV20190417080513904/17/19 08:05:31  5-MIN KAQV 171405Z AUTO 17007KT 130V190 10SM OVC008 19/17 A2995 350 87 1000 170/07 130V190 RMK AO2 CIG 007V012 T01940172
03949KAQV AQV20190417081012704/17/19 08:10:31  5-MIN KAQV 171410Z AUTO 16007KT 130V190 10SM OVC008 20/17 A2995 350 84 1100 150/07 130V190 RMK AO2 T02000172
03949KAQV AQV20190417081512304/17/19 08:15:31  5-MIN KAQV 171415Z AUTO VRB04KT 10SM BKN008 20/17 A2996 340 84 1000 VRB/04 RMK AO2 CIG 007V012 T02000172
03949KAQV AQV20190417082012304/17/19 08:20:31  5-MIN KAQV 171420Z AUTO VRB06KT 10SM BKN008 20/17 A2995 350 84 1100 VRB/06 RMK AO2 CIG 007V012 T02000172
03949KAQV AQV20190417082512304/17/19 08:25:31  5-MIN KAQV 171425Z AUTO VRB06KT 10SM BKN009 20/17 A2995 340 84 1000 VRB/06 RMK AO2 CIG 008V012 T02000172
03949KAQV AQV20190417083012804/17/19 08:30:31  5-MIN KAQV 171430Z AUTO VRB05G14KT 9SM BKN009 21/17 A2996 340 81 1100 VRB/05G14 RMK AO2 CIG 008V012 T02060172
03949KAQV AQV20190417083511604/17/19 08:35:31  5-MIN KAQV 171435Z AUTO VRB06G14KT 9SM SCT009 21/17 A2995 350 81 1100 VRB/06G14 RMK AO2 T02060172
03949KAQV AQV20190417084011104/17/19 08:40:31  5-MIN KAQV 171440Z AUTO 16006KT 10SM SCT011 21/17 A2995 350 81 1100 160/06 RMK AO2 T02060172
03949KAQV AQV20190417084511004/17/19 08:45:31  5-MIN KAQV 171445Z AUTO VRB05KT 9SM SCT011 21/18 A2995 350 84 1100 VRB/05 RMK AO2 T02060178
03949KAQV AQV20190417085012304/17/19 08:50:31  5-MIN KAQV 171450Z AUTO 17005KT 9SM SCT011 21/18 A2995 350 84 1100 160/05 RMK AO2 SLP141 T02060178 55003
03949KAQV AQV20190417085512404/17/19 08:55:31  5-MIN KAQV 171455Z AUTO 16004KT 10SM SCT011 21/18 A2995 350 84 1100 160/04 RMK AO2 SLP140 T02060178 55003
03949KAQV AQV20190417090011104/17/19 09:00:31  5-MIN KAQV 171500Z AUTO VRB05KT 10SM FEW011 21/18 A2995 350 81 1200 VRB/05 RMK AO2 T02110178
03949KAQV AQV20190417090511104/17/19 09:05:31  5-MIN KAQV 171505Z AUTO VRB06KT 10SM FEW012 21/18 A2995 350 81 1200 VRB/06 RMK AO2 T02110178
03949KAQV AQV20190417091011104/17/19 09:10:31  5-MIN KAQV 171510Z AUTO 16007KT 10SM FEW012 21/18 A2995 350 81 1200 160/07 RMK AO2 T02110178
03949KAQV AQV20190417091511104/17/19 09:15:31  5-MIN KAQV 171515Z AUTO VRB05KT 10SM FEW014 22/18 A2995 350 78 1200 VRB/05 RMK AO2 T02170178
03949KAQV AQV20190417092011004/17/19 09:20:31  5-MIN KAQV 171520Z AUTO VRB06KT 9SM FEW014 22/18 A2995 350 75 1300 VRB/06 RMK AO2 T02220178
03949KAQV AQV20190417092511004/17/19 09:25:31  5-MIN KAQV 171525Z AUTO 18007KT 9SM FEW014 22/18 A2996 340 78 1200 170/07 RMK AO2 T02170178
03949KAQV AQV20190417093011104/17/19 09:30:31  5-MIN KAQV 171530Z AUTO VRB05KT 10SM FEW014 22/17 A2996 340 75 1200 VRB/05 RMK AO2 T02170172
03949KAQV AQV20190417093512704/17/19 09:35:31  5-MIN KAQV 171535Z AUTO 16007KT 110V190 10SM SCT015 22/17 A2997 330 75 1200 150/07 110V190 RMK AO2 T02170172
03949KAQV AQV20190417094011104/17/19 09:40:31  5-MIN KAQV 171540Z AUTO 18006KT 10SM SCT015 22/17 A2997 330 75 1200 170/06 RMK AO2 T02170172
03949KAQV AQV20190417094511104/17/19 09:45:31  5-MIN KAQV 171545Z AUTO 17006KT 10SM SCT017 22/17 A2997 330 73 1300 170/06 RMK AO2 T02220172
03949KAQV AQV20190417095010104/17/19 09:50:31  5-MIN KAQV 171550Z AUTO VRB04KT 10SM BKN017 22/18 A2997 330 78 1200 VRB/04 RMK AO2
03949KAQV AQV20190417095511804/17/19 09:55:31  5-MIN KAQV 171555Z AUTO 17006KT 10SM BKN017 22/18 A2997 330 78 1200 160/06 RMK AO2 SLP146 T02170178
03949KAQV AQV20190417100011104/17/19 10:00:31  5-MIN KAQV 171600Z AUTO 15007KT 10SM BKN017 21/17 A2997 330 78 1200 150/07 RMK AO2 T02110172
03949KAQV AQV20190417100511104/17/19 10:05:31  5-MIN KAQV 171605Z AUTO 18006KT 10SM BKN019 22/17 A2996 340 75 1200 170/06 RMK AO2 T02170172
03949KAQV AQV20190417101011104/17/19 10:10:31  5-MIN KAQV 171610Z AUTO VRB06KT 10SM BKN019 22/17 A2996 340 75 1200 VRB/06 RMK AO2 T02170172
03949KAQV AQV20190417101511104/17/19 10:15:31  5-MIN KAQV 171615Z AUTO VRB04KT 10SM BKN019 22/18 A2996 340 78 1200 VRB/04 RMK AO2 T02170178
03949KAQV AQV20190417102011104/17/19 10:20:31  5-MIN KAQV 171620Z AUTO VRB03KT 10SM SCT019 22/18 A2996 340 78 1200 VRB/03 RMK AO2 T02170178
03949KAQV AQV20190417102511104/17/19 10:25:31  5-MIN KAQV 171625Z AUTO VRB05KT 10SM SCT019 22/18 A2996 340 78 1200 VRB/05 RMK AO2 T02170178
03949KAQV AQV20190417103011104/17/19 10:30:31  5-MIN KAQV 171630Z AUTO VRB04KT 10SM FEW019 22/18 A2996 340 78 1200 VRB/04 RMK AO2 T02170178
03949KAQV AQV20190417103511104/17/19 10:35:31  5-MIN KAQV 171635Z AUTO VRB04KT 10SM FEW019 22/18 A2996 340 75 1300 VRB/04 RMK AO2 T02220178
03949KAQV AQV20190417104010804/17/19 10:40:31  5-MIN KAQV 171640Z AUTO 15005KT 10SM CLR 22/18 A2996 340 75 1300 150/05 RMK AO2 T02220178
03949KAQV AQV20190417104510804/17/19 10:45:31  5-MIN KAQV 171645Z AUTO 16005KT 10SM CLR 23/18 A2996 340 73 1400 160/05 RMK AO2 T02280178
03949KAQV AQV20190417105011804/17/19 10:50:31  5-MIN KAQV 171650Z AUTO VRB06KT 10SM FEW022 23/18 A2996 340 73 1400 VRB/06 RMK AO2 SLP142 T02330183
03949KAQV AQV20190417105511804/17/19 10:55:31  5-MIN KAQV 171655Z AUTO VRB04KT 10SM SCT022 23/18 A2996 340 73 1400 VRB/04 RMK AO2 SLP143 T02330183
03949KAQV AQV20190417110011104/17/19 11:00:31  5-MIN KAQV 171700Z AUTO VRB06KT 10SM BKN021 23/18 A2996 340 73 1400 VRB/06 RMK AO2 T02330183
03949KAQV AQV20190417110511104/17/19 11:05:31  5-MIN KAQV 171705Z AUTO VRB04KT 10SM BKN021 23/18 A2996 340 73 1400 VRB/04 RMK AO2 T02280178
03949KAQV AQV20190417111011104/17/19 11:10:31  5-MIN KAQV 171710Z AUTO VRB06KT 10SM BKN021 23/18 A2996 340 73 1400 VRB/06 RMK AO2 T02280178
03949KAQV AQV20190417111511104/17/19 11:15:31  5-MIN KAQV 171715Z AUTO VRB06KT 10SM OVC021 23/18 A2996 340 73 1400 VRB/06 RMK AO2 T02280178
03949KAQV AQV20190417112011104/17/19 11:20:31  5-MIN KAQV 171720Z AUTO VRB05KT 10SM OVC021 23/18 A2996 340 73 1400 VRB/05 RMK AO2 T02330183
03949KAQV AQV20190417112511004/17/19 11:25:31  5-MIN KAQV 171725Z AUTO VRB05KT 9SM OVC021 23/18 A2995 350 70 1400 VRB/05 RMK AO2 T02330178
03949KAQV AQV20190417113011704/17/19 11:30:31  5-MIN KAQV 171730Z AUTO 17006KT 8SM BKN021 OVC027 23/18 A2995 350 73 1400 170/06 RMK AO2 T02330183
03949KAQV AQV20190417113511704/17/19 11:35:31  5-MIN KAQV 171735Z AUTO 18006KT 9SM BKN021 OVC027 23/18 A2995 350 73 1400 170/06 RMK AO2 T02330183
03949KAQV AQV20190417114011804/17/19 11:40:31  5-MIN KAQV 171740Z AUTO VRB04KT 10SM SCT021 OVC027 24/18 A2995 350 71 1500 VRB/04 RMK AO2 T02390183
03949KAQV AQV20190417114511804/17/19 11:45:31  5-MIN KAQV 171745Z AUTO 17008KT 10SM BKN023 BKN029 24/18 A2994 350 71 1500 170/08 RMK AO2 T02390183
03949KAQV AQV20190417115015004/17/19 11:50:31  5-MIN KAQV 171750Z AUTO VRB06KT 10SM SCT021 BKN027 BKN032 24/18 A2994 360 68 1600 VRB/06 RMK AO2 SLP135 T02440183 10244 20172 50000
03949KAQV AQV20190417115514304/17/19 11:55:31  5-MIN KAQV 171755Z AUTO 18006KT 10SM SCT021 BKN027 24/18 A2994 360 68 1600 180/06 RMK AO2 SLP134 T02440183 10244 20172 50000
03949KAQV AQV20190417120011804/17/19 12:00:31  5-MIN KAQV 171800Z AUTO VRB05KT 10SM FEW021 BKN027 25/18 A2993 370 66 1600 VRB/05 RMK AO2 T02500183
03949KAQV AQV20190417120513404/17/19 12:05:31  5-MIN KAQV 171805Z AUTO 16008KT 110V200 10SM SCT020 BKN027 25/18 A2993 370 66 1700 160/08 110V200 RMK AO2 T02500183
03949KAQV AQV20190417121012404/17/19 12:10:31  5-MIN KAQV 171810Z AUTO VRB05G16KT 10SM FEW020 BKN025 24/18 A2992 370 66 1600 VRB/05G16 RMK AO2 T02440178
03949KAQV AQV20190417121512404/17/19 12:15:31  5-MIN KAQV 171815Z AUTO 17010G19KT 10SM SCT023 BKN028 24/18 A2993 370 66 1600 170/10G19 RMK AO2 T02440178
03949KAQV AQV20190417122012404/17/19 12:20:31  5-MIN KAQV 171820Z AUTO 18007G19KT 10SM SCT026 BKN032 24/18 A2993 370 66 1600 170/07G19 RMK AO2 T02440178
03949KAQV AQV20190417122514004/17/19 12:25:31  5-MIN KAQV 171825Z AUTO 17007G18KT 140V210 10SM SCT026 BKN032 25/18 A2992 370 64 1700 170/07G18 140V210 RMK AO2 T02500178
03949KAQV AQV20190417123013404/17/19 12:30:31  5-MIN KAQV 171830Z AUTO 16007KT 080V190 10SM SCT024 BKN032 26/18 A2992 370 62 1800 150/07 080V190 RMK AO2 T02610183
03949KAQV AQV20190417123512704/17/19 12:35:31  5-MIN KAQV 171835Z AUTO 16008KT 130V190 10SM BKN029 26/18 A2992 370 61 1700 150/08 130V190 RMK AO2 T02560178
03949KAQV AQV20190417124010004/17/19 12:40:31  5-MIN KAQV 171840Z AUTO VRB06KT 10SM BKN 64 1700 160/08 120V190 RMK AO2 T02500178
03949KAQV AQV20190417131511104/17/19 13:15:31  5-MIN KAQV 171915Z AUTO 17006KT 10SM BKN033 25/18 A2992 380 64 1700 170/06 RMK AO2 T02500178
03949KAQV AQV20190417132011104/17/19 13:20:31  5-MIN KAQV 171920Z AUTO VRB04KT 10SM SCT035 25/18 A2992 380 64 1700 VRB/04 RMK AO2 T02500178
03949KAQV AQV20190417132511104/17/19 13:25:31  5-MIN KAQV 171925Z AUTO VRB04KT 10SM SCT037 25/18 A2991 380 64 1700 VRB/04 RMK AO2 T02500178
03949KAQV AQV20190417133011104/17/19 13:30:31  5-MIN KAQV 171930Z AUTO 16005KT 10SM BKN037 24/18 A2990 390 66 1600 150/05 RMK AO2 T02440178
03949KAQV AQV20190417133511104/17/19 13:35:31  5-MIN KAQV 171935Z AUTO 15006KT 10SM BKN037 24/18 A2990 400 66 1600 150/06 RMK AO2 T02440178
03949KAQV AQV20190417134011104/17/19 13:40:31  5-MIN KAQV 171940Z AUTO VRB04KT 10SM SCT037 25/18 A2989 400 64 1700 VRB/04 RMK AO2 T02500178
03949KAQV AQV20190417134511804/17/19 13:45:31  5-MIN KAQV 171945Z AUTO VRB06KT 10SM FEW035 25/18 A2988 410 66 1700 VRB/06 RMK AO2 PRESFR T02500183
03949KAQV AQV20190417135011704/17/19 13:50:31  5-MIN KAQV 171950Z AUTO VRB04KT 9SM FEW036 25/18 A2988 410 64 1700 VRB/04 RMK AO2 SLP116 T02500178
03949KAQV AQV20190417135512204/17/19 13:55:31  5-MIN KAQV 171955Z AUTO 15005KT 10SM CLR 25/18 A2987 420 64 1700 140/05 RMK AO2 PRESFR SLP112 T02500178
03949KAQV AQV20190417140013104/17/19 14:00:31  5-MIN KAQV 172000Z AUTO 16007KT 120V200 10SM CLR 25/18 A2986 430 64 1700 160/07 120V200 RMK AO2 PRESFR T02500178
03949KAQV AQV20190417140512404/17/19 14:05:31  5-MIN KAQV 172005Z AUTO 16008KT 120V190 10SM CLR 25/18 A2986 430 64 1700 160/08 120V190 RMK AO2 T02500178
03949KAQV AQV20190417141011404/17/19 14:10:31  5-MIN KAQV 172010Z AUTO 16007G14KT 10SM CLR 25/18 A2986 430 64 1700 160/07G14 RMK AO2 T02500178
03949KAQV AQV20190417141513004/17/19 14:15:31  5-MIN KAQV 172015Z AUTO 16011G19KT 140V200 10SM CLR 25/18 A2986 440 64 1700 160/11G19 140V200 RMK AO2 T02500178
03949KAQV AQV20190417142013004/17/19 14:20:31  5-MIN KAQV 172020Z AUTO 15009G19KT 120V190 10SM CLR 25/18 A2986 430 64 1700 150/09G19 120V190 RMK AO2 T02500178
03949KAQV AQV20190417142513304/17/19 14:25:31  5-MIN KAQV 172025Z AUTO 16007G19KT 110V210 10SM FEW030 25/18 A2986 440 64 1700 150/07G19 110V210 RMK AO2 T02500178
03949KAQV AQV20190417143013304/17/19 14:30:31  5-MIN KAQV 172030Z AUTO 15007G15KT 100V190 10SM FEW030 24/18 A2985 440 66 1700 150/07G15 100V190 RMK AO2 T02440178
03949KAQV AQV20190417143512704/17/19 14:35:31  5-MIN KAQV 172035Z AUTO 15007KT 110V180 10SM FEW029 24/18 A2985 440 66 1700 140/07 110V180 RMK AO2 T02440178
03949KAQV AQV20190417144011104/17/19 14:40:31  5-MIN KAQV 172040Z AUTO VRB05KT 10SM FEW029 24/18 A2985 440 66 1700 VRB/05 RMK AO2 T02440178
03949KAQV AQV20190417144512704/17/19 14:45:31  5-MIN KAQV 172045Z AUTO 16008KT 100V190 10SM FEW029 25/18 A2984 450 64 1700 160/08 100V190 RMK AO2 T02500178
03949KAQV AQV20190417145012404/17/19 14:50:31  5-MIN KAQV 172050Z AUTO VRB06KT 10SM FEW029 25/18 A2984 450 64 1800 VRB/06 RMK AO2 SLP103 T02500178 58011
03949KAQV AQV20190417145514604/17/19 14:55:31  5-MIN KAQV 172055Z AUTO 16008G15KT 100V200 10SM FEW029 25/18 A2984 450 64 1800 160/08G15 100V200 RMK AO2 SLP102 T02500178 58011
03949KAQV AQV20190417150011704/17/19 15:00:31  5-MIN KAQV 172100Z AUTO VRB05G15KT 10SM FEW029 25/18 A2984 450 64 1800 VRB/05G15 RMK AO2 T02500178
03949KAQV AQV20190417150511104/17/19 15:05:31  5-MIN KAQV 172105Z AUTO VRB05KT 10SM FEW029 25/18 A2984 450 64 1800 VRB/05 RMK AO2 T02500178
03949KAQV AQV20190417151011104/17/19 15:10:31  5-MIN KAQV 172110Z AUTO VRB06KT 10SM FEW029 24/18 A2984 450 66 1700 VRB/06 RMK AO2 T02440178
03949KAQV AQV20190417151511104/17/19 15:15:31  5-MIN KAQV 172115Z AUTO VRB05KT 10SM SCT031 24/18 A2984 450 66 1700 VRB/05 RMK AO2 T02440178
03949KAQV AQV20190417152012704/17/19 15:20:31  5-MIN KAQV 172120Z AUTO 17007KT 120V210 10SM SCT031 24/18 A2984 450 66 1700 160/07 120V210 RMK AO2 T02440178
03949KAQV AQV20190417152511104/17/19 15:25:31  5-MIN KAQV 172125Z AUTO 16008KT 10SM SCT031 24/17 A2984 450 63 1700 150/08 RMK AO2 T02440172
03949KAQV AQV20190417153011704/17/19 15:30:31  5-MIN KAQV 172130Z AUTO VRB06G16KT 10SM SCT031 24/17 A2984 450 63 1700 VRB/06G16 RMK AO2 T02440172
03949KAQV AQV20190417153511604/17/19 15:35:31  5-MIN KAQV 172135Z AUTO VRB04G16KT 8SM FEW031 25/18 A2984 450 64 1800 VRB/04G16 RMK AO2 T02500178
03949KAQV AQV20190417154011604/17/19 15:40:31  5-MIN KAQV 172140Z AUTO 16009G16KT 7SM FEW031 25/17 A2984 450 61 1800 160/09G16 RMK AO2 T02500172
03949KAQV AQV20190417154511604/17/19 15:45:31  5-MIN KAQV 172145Z AUTO 17009G16KT 9SM FEW032 25/17 A2984 450 61 1800 160/09G16 RMK AO2 T02500172
03949KAQV AQV20190417155014004/17/19 15:50:31  5-MIN KAQV 172150Z AUTO 16008G15KT 140V200 10SM FEW032 25/18 A2984 450 64 1800 160/08G15 140V200 RMK AO2 SLP101 T02500178
03949KAQV AQV20190417155513704/17/19 15:55:31  5-MIN KAQV 172155Z AUTO 18011G18KT 140V210 10SM CLR 25/17 A2983 460 61 1800 180/11G18 140V210 RMK AO2 SLP100 T02500172
03949KAQV AQV20190417160013004/17/19 16:00:31  5-MIN KAQV 172200Z AUTO 16009G18KT 120V190 10SM CLR 25/17 A2984 450 61 1800 160/09G18 120V190 RMK AO2 T02500172
03949KAQV AQV20190417160513004/17/19 16:05:31  5-MIN KAQV 172205Z AUTO 17008G17KT 120V200 10SM CLR 24/17 A2983 460 63 1700 170/08G17 120V200 RMK AO2 T02440172
03949KAQV AQV20190417161011404/17/19 16:10:31  5-MIN KAQV 172210Z AUTO VRB04G15KT 10SM CLR 24/18 A2982 460 66 1700 VRB/04G15 RMK AO2 T02440178
03949KAQV AQV20190417161509804/17/19 16:15:31  5-MIN KAQV 172215Z AUTO 10SM CLR 24/17 A2982 460 63 1700 M /M RMK AO2 T02440172
03949KAQV AQV20190417162010804/17/19 16:20:31  5-MIN KAQV 172220Z AUTO VRB05KT 10SM CLR 24/17 A2982 470 63 1700 VRB/05 RMK AO2 T02440172
03949KAQV AQV20190417162512404/17/19 16:25:31  5-MIN KAQV 172225Z AUTO 17007KT 120V200 10SM CLR 24/17 A2982 470 63 1700 170/07 120V200 RMK AO2 T02440172
03949KAQV AQV20190417163013004/17/19 16:30:31  5-MIN KAQV 172230Z AUTO 16008G15KT 120V220 10SM CLR 24/17 A2982 470 63 1700 160/08G15 120V220 RMK AO2 T02440172
03949KAQV AQV20190417163509804/17/19 16:35:31  5-MIN KAQV 172235Z AUTO 10SM CLR 24/17 A2982 470 63 1700 M /M RMK AO2 T02440172
03949KAQV AQV20190417164013004/17/19 16:40:31  5-MIN KAQV 172240Z AUTO 16008G18KT 130V190 10SM CLR 24/17 A2982 470 61 1700 160/08G18 130V190 RMK AO2 T02440167
03949KAQV AQV20190417164511404/17/19 16:45:31  5-MIN KAQV 172245Z AUTO 18006G18KT 10SM CLR 24/17 A2984 450 63 1600 180/06G18 RMK AO2 T02390167
03949KAQV AQV20190417165012104/17/19 16:50:31  5-MIN KAQV 172250Z AUTO 17008G17KT 10SM CLR 24/17 A2984 450 63 1600 170/08G17 RMK AO2 SLP102 T02390167
03949KAQV AQV20190417165513704/17/19 16:55:31  5-MIN KAQV 172255Z AUTO 16007G17KT 110V190 10SM CLR 24/17 A2983 460 63 1600 150/07G17 110V190 RMK AO2 SLP100 T02390167
03949KAQV AQV20190417170011404/17/19 17:00:31  5-MIN KAQV 172300Z AUTO 17009G17KT 10SM CLR 24/17 A2984 450 63 1600 170/09G17 RMK AO2 T02390167
03949KAQV AQV20190417170511404/17/19 17:05:31  5-MIN KAQV 172305Z AUTO 18008G14KT 10SM CLR 24/17 A2983 460 63 1600 170/08G14 RMK AO2 T02390167
03949KAQV AQV20190417171013004/17/19 17:10:31  5-MIN KAQV 172310Z AUTO 17009G18KT 150V220 10SM CLR 23/17 A2983 460 66 1600 160/09G18 150V220 RMK AO2 T02330167
03949KAQV AQV20190417171511404/17/19 17:15:31  5-MIN KAQV 172315Z AUTO 17008G18KT 10SM CLR 23/17 A2983 460 66 1600 170/08G18 RMK AO2 T02330167
03949KAQV AQV20190417172013004/17/19 17:20:31  5-MIN KAQV 172320Z AUTO 18008G16KT 150V220 10SM CLR 23/17 A2983 460 66 1600 180/08G16 150V220 RMK AO2 T02330167
03949KAQV AQV20190417172510804/17/19 17:25:31  5-MIN KAQV 172325Z AUTO 16007KT 10SM CLR 23/17 A2983 460 66 1600 160/07 RMK AO2 T02330167
03949KAQV AQV20190417173010804/17/19 17:30:31  5-MIN KAQV 172330Z AUTO 17007KT 10SM CLR 23/17 A2983 460 66 1600 170/07 RMK AO2 T02330167
03949KAQV AQV20190417173510804/17/19 17:35:31  5-MIN KAQV 172335Z AUTO VRB06KT 10SM CLR 23/17 A2983 460 68 1600 VRB/06 RMK AO2 T02330172
03949KAQV AQV20190417174010804/17/19 17:40:31  5-MIN KAQV 172340Z AUTO VRB05KT 10SM CLR 23/17 A2983 460 68 1600 VRB/05 RMK AO2 T02330172
03949KAQV AQV20190417174510804/17/19 17:45:31  5-MIN KAQV 172345Z AUTO VRB05KT 10SM CLR 23/17 A2983 460 68 1600 VRB/05 RMK AO2 T02330172
03949KAQV AQV20190417175013304/17/19 17:50:31  5-MIN KAQV 172350Z AUTO VRB06KT 10SM CLR 23/17 A2983 460 68 1600 VRB/06 RMK AO2 SLP099 T02330172 10261 20233 58033
03949KAQV AQV20190417175514904/17/19 17:55:31  5-MIN KAQV 172355Z AUTO 17007KT 130V220 10SM CLR 23/17 A2983 460 68 1600 160/07 130V220 RMK AO2 SLP099 T02330172 10261 20233 58033
03949KAQV AQV20190417180011104/17/19 18:00:31  5-MIN KAQV 180000Z AUTO VRB06KT 10SM FEW031 23/17 A2983 460 70 1500 VRB/06 RMK AO2 T02280172
03949KAQV AQV20190417180511104/17/19 18:05:31  5-MIN KAQV 180005Z AUTO 17007KT 10SM SCT029 23/17 A2983 460 70 1500 170/07 RMK AO2 T02280172
03949KAQV AQV20190417181011104/17/19 18:10:31  5-MIN KAQV 180010Z AUTO VRB05KT 10SM SCT029 23/17 A2983 460 70 1500 VRB/05 RMK AO2 T02280172
03949KAQV AQV20190417181511104/17/19 18:15:31  5-MIN KAQV 180015Z AUTO VRB04KT 10SM BKN029 23/17 A2982 470 70 1500 VRB/04 RMK AO2 T02280172
03949KAQV AQV20190417182011104/17/19 18:20:31  5-MIN KAQV 180020Z AUTO 16007KT 10SM BKN029 23/17 A2982 470 70 1500 160/07 RMK AO2 T02280172
03949KAQV AQV20190417182511104/17/19 18:25:31  5-MIN KAQV 180025Z AUTO 18005KT 10SM BKN029 22/17 A2983 460 73 1400 180/05 RMK AO2 T02220172
03949KAQV AQV20190417183011104/17/19 18:30:31  5-MIN KAQV 180030Z AUTO VRB04KT 10SM BKN027 22/17 A2982 470 73 1500 VRB/04 RMK AO2 T02220172
03949KAQV AQV20190417183511104/17/19 18:35:31  5-MIN KAQV 180035Z AUTO VRB05KT 10SM BKN027 22/17 A2982 470 73 1500 VRB/05 RMK AO2 T02220172
03949KAQV AQV20190417184011104/17/19 18:40:31  5-MIN KAQV 180040Z AUTO VRB04KT 10SM OVC025 22/17 A2981 480 73 1500 VRB/04 RMK AO2 T02220172
03949KAQV AQV20190417184511104/17/19 18:45:31  5-MIN KAQV 180045Z AUTO VRB05KT 10SM OVC025 22/17 A2981 480 73 1500 VRB/05 RMK AO2 T02220172
03949KAQV AQV20190417185011804/17/19 18:50:31  5-MIN KAQV 180050Z AUTO VRB05KT 10SM OVC025 22/17 A2981 480 73 1500 VRB/05 RMK AO2 SLP093 T02220172
03949KAQV AQV20190417185511804/17/19 18:55:31  5-MIN KAQV 180055Z AUTO VRB03KT 10SM OVC025 22/17 A2981 480 73 1500 VRB/03 RMK AO2 SLP092 T02220172
03949KAQV AQV20190417190011104/17/19 19:00:31  5-MIN KAQV 180100Z AUTO VRB03KT 10SM OVC025 22/17 A2981 480 73 1500 VRB/03 RMK AO2 T02220172
03949KAQV AQV20190417190511104/17/19 19:05:31  5-MIN KAQV 180105Z AUTO 17004KT 10SM OVC025 22/17 A2981 480 73 1500 160/04 RMK AO2 T02220172
03949KAQV AQV20190417191011104/17/19 19:10:31  5-MIN KAQV 180110Z AUTO 18005KT 10SM OVC025 22/18 A2981 480 75 1500 170/05 RMK AO2 T02220178
03949KAQV AQV20190417191511104/17/19 19:15:31  5-MIN KAQV 180115Z AUTO VRB03KT 10SM OVC025 22/18 A2981 480 75 1500 VRB/03 RMK AO2 T02220178
03949KAQV AQV20190417192011104/17/19 19:20:31  5-MIN KAQV 180120Z AUTO 00000KT 10SM OVC025 22/18 A2981 480 78 1400 000/00 RMK AO2 T02170178
03949KAQV AQV20190417192511104/17/19 19:25:31  5-MIN KAQV 180125Z AUTO VRB05KT 10SM OVC025 22/18 A2981 480 78 1400 VRB/05 RMK AO2 T02170178
03949KAQV AQV20190417193011104/17/19 19:30:31  5-MIN KAQV 180130Z AUTO VRB04KT 10SM OVC025 22/18 A2981 480 78 1400 VRB/04 RMK AO2 T02170178
03949KAQV AQV20190417193511104/17/19 19:35:31  5-MIN KAQV 180135Z AUTO VRB03KT 10SM OVC025 22/18 A2981 480 78 1400 VRB/03 RMK AO2 T02170178
03949KAQV AQV20190417194011104/17/19 19:40:31  5-MIN KAQV 180140Z AUTO 00000KT 10SM OVC024 22/18 A2982 470 78 1400 000/00 RMK AO2 T02170178
03949KAQV AQV20190417194511104/17/19 19:45:31  5-MIN KAQV 180145Z AUTO 18003KT 10SM OVC024 22/18 A2983 460 78 1400 180/03 RMK AO2 T02170178
03949KAQV AQV20190417195011804/17/19 19:50:31  5-MIN KAQV 180150Z AUTO VRB03KT 10SM OVC024 22/18 A2983 460 78 1400 VRB/03 RMK AO2 SLP099 T02170178
03949KAQV AQV20190417195511804/17/19 19:55:31  5-MIN KAQV 180155Z AUTO VRB03KT 10SM OVC024 22/18 A2983 460 78 1400 VRB/03 RMK AO2 SLP099 T02170178
03949KAQV AQV20190417200011104/17/19 20:00:31  5-MIN KAQV 180200Z AUTO 00000KT 10SM OVC024 22/18 A2983 460 78 1400 000/00 RMK AO2 T02170178
03949KAQV AQV20190417200511104/17/19 20:05:31  5-MIN KAQV 180205Z AUTO VRB03KT 10SM OVC023 22/18 A2983 460 78 1400 VRB/03 RMK AO2 T02170178
03949KAQV AQV20190417201011104/17/19 20:10:31  5-MIN KAQV 180210Z AUTO 16005KT 10SM OVC023 22/18 A2983 460 78 1400 160/05 RMK AO2 T02170178
03949KAQV AQV20190417201511104/17/19 20:15:31  5-MIN KAQV 180215Z AUTO 17004KT 10SM OVC021 22/18 A2983 460 78 1400 160/04 RMK AO2 T02170178
03949KAQV AQV20190417202011104/17/19 20:20:31  5-MIN KAQV 180220Z AUTO 17005KT 10SM OVC021 22/18 A2983 460 78 1400 160/05 RMK AO2 T02170178
03949KAQV AQV20190417202511104/17/19 20:25:31  5-MIN KAQV 180225Z AUTO VRB05KT 10SM OVC020 22/18 A2983 460 78 1400 VRB/05 RMK AO2 T02170178
03949KAQV AQV20190417203011104/17/19 20:30:31  5-MIN KAQV 180230Z AUTO 16004KT 10SM OVC018 22/18 A2983 460 78 1400 160/04 RMK AO2 T02170178
03949KAQV AQV20190417203511104/17/19 20:35:31  5-MIN KAQV 180235Z AUTO 18005KT 10SM OVC018 22/18 A2983 460 81 1400 170/05 RMK AO2 T02170183
03949KAQV AQV20190417204011104/17/19 20:40:31  5-MIN KAQV 180240Z AUTO VRB05KT 10SM OVC018 22/18 A2983 460 81 1400 VRB/05 RMK AO2 T02170183
03949KAQV AQV20190417204511104/17/19 20:45:31  5-MIN KAQV 180245Z AUTO VRB04KT 10SM OVC017 22/18 A2983 460 81 1400 VRB/04 RMK AO2 T02170183
03949KAQV AQV20190417205012404/17/19 20:50:31  5-MIN KAQV 180250Z AUTO 17006KT 10SM OVC017 22/18 A2983 460 81 1400 170/06 RMK AO2 SLP099 T02170183 58003
03949KAQV AQV20190417205512404/17/19 20:55:31  5-MIN KAQV 180255Z AUTO 16005KT 10SM OVC016 22/18 A2983 460 81 1400 160/05 RMK AO2 SLP099 T02170183 58003
03949KAQV AQV20190417210011104/17/19 21:00:31  5-MIN KAQV 180300Z AUTO 17005KT 10SM OVC016 22/18 A2983 460 81 1400 160/05 RMK AO2 T02170183
03949KAQV AQV20190417210511104/17/19 21:05:31  5-MIN KAQV 180305Z AUTO 16006KT 10SM OVC016 22/18 A2983 460 81 1400 160/06 RMK AO2 T02170183
03949KAQV AQV20190417211011104/17/19 21:10:31  5-MIN KAQV 180310Z AUTO 16005KT 10SM OVC015 22/18 A2983 460 81 1400 160/05 RMK AO2 T02170183
03949KAQV AQV20190417211511104/17/19 21:15:31  5-MIN KAQV 180315Z AUTO VRB05KT 10SM OVC015 22/18 A2982 470 81 1400 VRB/05 RMK AO2 T02170183
03949KAQV AQV20190417212011104/17/19 21:20:31  5-MIN KAQV 180320Z AUTO 16004KT 10SM OVC015 22/18 A2982 470 81 1400 160/04 RMK AO2 T02170183
03949KAQV AQV20190417212511104/17/19 21:25:31  5-MIN KAQV 180325Z AUTO VRB06KT 10SM OVC014 22/18 A2982 470 81 1400 VRB/06 RMK AO2 T02170183
03949KAQV AQV20190417213011104/17/19 21:30:31  5-MIN KAQV 180330Z AUTO VRB05KT 10SM OVC014 22/18 A2981 470 81 1400 VRB/05 RMK AO2 T02170183
03949KAQV AQV20190417213511104/17/19 21:35:31  5-MIN KAQV 180335Z AUTO VRB04KT 10SM OVC014 22/18 A2981 480 81 1400 VRB/04 RMK AO2 T02170183
03949KAQV AQV20190417214011104/17/19 21:40:31  5-MIN KAQV 180340Z AUTO 17006KT 10SM OVC014 22/18 A2981 480 81 1400 160/06 RMK AO2 T02170183
03949KAQV AQV20190417214511104/17/19 21:45:31  5-MIN KAQV 180345Z AUTO VRB04KT 10SM OVC013 21/18 A2981 480 84 1300 VRB/04 RMK AO2 T02110183
03949KAQV AQV20190417215011804/17/19 21:50:31  5-MIN KAQV 180350Z AUTO VRB05KT 10SM OVC013 21/18 A2980 490 84 1400 VRB/05 RMK AO2 SLP088 T02110183
03949KAQV AQV20190417215511804/17/19 21:55:31  5-MIN KAQV 180355Z AUTO VRB06KT 10SM OVC013 21/18 A2979 490 84 1400 VRB/06 RMK AO2 SLP086 T02110183
03949KAQV AQV20190417220011104/17/19 22:00:31  5-MIN KAQV 180400Z AUTO 16007KT 10SM OVC013 21/18 A2979 500 84 1400 160/07 RMK AO2 T02110183
03949KAQV AQV20190417220511104/17/19 22:05:31  5-MIN KAQV 180405Z AUTO 17005KT 10SM OVC013 21/18 A2979 500 84 1400 160/05 RMK AO2 T02110183
03949KAQV AQV20190417221011104/17/19 22:10:31  5-MIN KAQV 180410Z AUTO VRB06KT 10SM OVC012 21/18 A2979 500 84 1400 VRB/06 RMK AO2 T02110183
03949KAQV AQV20190417221511104/17/19 22:15:31  5-MIN KAQV 180415Z AUTO VRB06KT 10SM OVC012 21/18 A2978 510 84 1400 VRB/06 RMK AO2 T02110183
03949KAQV AQV20190417222012704/17/19 22:20:31  5-MIN KAQV 180420Z AUTO 15008KT 100V180 10SM OVC012 21/18 A2977 510 84 1400 150/08 100V180 RMK AO2 T02110183
03949KAQV AQV20190417222511704/17/19 22:25:31  5-MIN KAQV 180425Z AUTO VRB06G16KT 10SM OVC012 21/18 A2977 510 84 1400 VRB/06G16 RMK AO2 T02110183
03949KAQV AQV20190417223013304/17/19 22:30:31  5-MIN KAQV 180430Z AUTO 16008G16KT 130V210 10SM OVC012 21/18 A2977 520 84 1400 160/08G16 130V210 RMK AO2 T02110183
03949KAQV AQV20190417223513304/17/19 22:35:31  5-MIN KAQV 180435Z AUTO 17007G16KT 140V200 10SM OVC012 21/18 A2976 520 84 1400 160/07G16 140V200 RMK AO2 T02110183
03949KAQV AQV20190417224011704/17/19 22:40:31  5-MIN KAQV 180440Z AUTO 17008G16KT 10SM OVC012 21/18 A2976 520 84 1400 160/08G16 RMK AO2 T02110183
03949KAQV AQV20190417224511704/17/19 22:45:31  5-MIN KAQV 180445Z AUTO 16009G16KT 10SM OVC012 22/18 A2976 520 81 1500 160/09G16 RMK AO2 T02170183
03949KAQV AQV20190417225014004/17/19 22:50:31  5-MIN KAQV 180450Z AUTO 16009G19KT 120V200 10SM OVC012 22/18 A2975 530 81 1500 160/09G19 120V200 RMK AO2 SLP072 T02170183
03949KAQV AQV20190417225512404/17/19 22:55:31  5-MIN KAQV 180455Z AUTO 17009G19KT 10SM OVC013 22/19 A2975 530 84 1500 160/09G19 RMK AO2 SLP071 T02170189
03949KAQV AQV20190417230013304/17/19 23:00:31  5-MIN KAQV 180500Z AUTO 16010G19KT 130V190 10SM OVC013 22/19 A2975 530 84 1500 160/10G19 130V190 RMK AO2 T02170189
03949KAQV AQV20190417230512404/17/19 23:05:31  5-MIN KAQV 180505Z AUTO VRB06G19KT 10SM BKN013 OVC026 22/19 A2976 530 84 1500 VRB/06G19 RMK AO2 T02170189
03949KAQV AQV20190417231012404/17/19 23:10:31  5-MIN KAQV 180510Z AUTO VRB06G16KT 10SM BKN013 OVC026 22/19 A2976 530 84 1500 VRB/06G16 RMK AO2 T02170189
03949KAQV AQV20190417231514004/17/19 23:15:31  5-MIN KAQV 180515Z AUTO 17009G14KT 140V230 10SM BKN013 OVC026 22/19 A2976 520 84 1500 170/09G14 140V230 RMK AO2 T02170189
03949KAQV AQV20190417232012404/17/19 23:20:31  5-MIN KAQV 180520Z AUTO 17009G17KT 10SM BKN013 OVC028 22/19 A2976 520 84 1500 170/09G17 RMK AO2 T02170189
03949KAQV AQV20190417232514004/17/19 23:25:31  5-MIN KAQV 180525Z AUTO 18007G17KT 130V290 10SM BKN013 OVC028 22/19 A2977 520 84 1500 170/07G17 130V290 RMK AO2 T02170189
03949KAQV AQV20190417233013404/17/19 23:30:31  5-MIN KAQV 180530Z AUTO 17008KT 140V210 10SM BKN014 OVC028 22/19 A2976 520 84 1500 170/08 140V210 RMK AO2 T02170189
03949KAQV AQV20190417233513404/17/19 23:35:31  5-MIN KAQV 180535Z AUTO 17009KT 100V200 10SM BKN014 OVC028 22/19 A2976 520 84 1500 160/09 100V200 RMK AO2 T02170189
03949KAQV AQV20190417234012704/17/19 23:40:31  5-MIN KAQV 180540Z AUTO 16008KT 130V190 10SM OVC014 22/19 A2976 530 84 1500 160/08 130V190 RMK AO2 T02170189
03949KAQV AQV20190417234513304/17/19 23:45:31  5-MIN KAQV 180545Z AUTO 17010G17KT 130V200 10SM OVC014 22/19 A2976 530 84 1500 170/10G17 130V200 RMK AO2 T02170189
03949KAQV AQV20190417235016804/17/19 23:50:31  5-MIN KAQV 180550Z AUTO 16007G17KT 110V180 10SM OVC013 22/19 A2976 530 84 1500 160/07G17 110V180 RMK AO2 SLP074 T02170189 10233 20211 402610161 53001
03949KAQV AQV20190417235516804/17/19 23:55:31  5-MIN KAQV 180555Z AUTO 16007G15KT 090V200 10SM OVC013 22/19 A2976 520 84 1500 160/07G15 090V200 RMK AO2 SLP076 T02170189 10233 20211 402610161 53001
03949KAQV AQV20190418000010104/18/19 00:00:31  5-MIN KAQV 180600Z AUTO 10SM OVC013 22/19 A2977 520 84 1500 M /M RMK AO2 T02170189
03949KAQV AQV20190418000511104/18/19 00:05:31  5-MIN KAQV 180605Z AUTO 18006KT 10SM OVC013 22/19 A2976 520 84 1500 180/06 RMK AO2 T02170189
03949KAQV AQV20190418001012704/18/19 00:10:31  5-MIN KAQV 180610Z AUTO 17007KT 130V240 10SM OVC013 22/19 A2977 520 84 1500 160/07 130V240 RMK AO2 T02170189
03949KAQV AQV20190418001511104/18/19 00:15:31  5-MIN KAQV 180615Z AUTO VRB04KT 10SM OVC013 22/19 A2976 520 84 1500 VRB/04 RMK AO2 T02170189
03949KAQV AQV20190418002011104/18/19 00:20:31  5-MIN KAQV 180620Z AUTO VRB06KT 10SM OVC013 22/19 A2976 520 84 1500 VRB/06 RMK AO2 T02170189
03949KAQV AQV20190418002511104/18/19 00:25:31  5-MIN KAQV 180625Z AUTO VRB06KT 10SM OVC013 22/19 A2975 530 84 1500 VRB/06 RMK AO2 T02170189
03949KAQV AQV20190418003012504/18/19 00:30:31  5-MIN KAQV 180630Z AUTO VRB05KT 10SM BKN013 OVC018 22/19 A2974 540 84 1500 VRB/05 RMK AO2 PRESFR T02170189
03949KAQV AQV20190418003513804/18/19 00:35:31  5-MIN KAQV 180635Z AUTO 16008G15KT 10SM BKN013 BKN020 OVC027 22/19 A2973 550 84 1500 150/08G15 RMK AO2 PRESFR T02170189
03949KAQV AQV20190418004013104/18/19 00:40:31  5-MIN KAQV 180640Z AUTO 16006G15KT 10SM BKN015 OVC020 22/19 A2973 550 84 1500 160/06G15 RMK AO2 PRESFR T02170189
03949KAQV AQV20190418004513404/18/19 00:45:31  5-MIN KAQV 180645Z AUTO 17007KT 140V210 10SM BKN015 OVC022 22/19 A2973 560 84 1500 160/07 140V210 RMK AO2 T02170189
03949KAQV AQV20190418005012504/18/19 00:50:31  5-MIN KAQV 180650Z AUTO VRB06KT 10SM BKN017 OVC027 22/19 A2972 560 84 1500 VRB/06 RMK AO2 SLP061 T02170189
03949KAQV AQV20190418005512504/18/19 00:55:31  5-MIN KAQV 180655Z AUTO VRB05KT 10SM BKN017 OVC026 22/19 A2971 570 84 1500 VRB/05 RMK AO2 SLP059 T02170189
03949KAQV AQV20190418010013404/18/19 01:00:31  5-MIN KAQV 180700Z AUTO 15007KT 080V190 10SM OVC017 22/19 A2970 580 84 1500 150/07 080V190 RMK AO2 PRESFR T02170189
03949KAQV AQV20190418010511804/18/19 01:05:31  5-MIN KAQV 180705Z AUTO 16006KT 10SM OVC017 22/19 A2970 580 84 1500 160/06 RMK AO2 PRESFR T02170189
03949KAQV AQV20190418011011804/18/19 01:10:31  5-MIN KAQV 180710Z AUTO VRB06KT 10SM OVC017 22/19 A2969 590 84 1500 VRB/06 RMK AO2 PRESFR T02170189
03949KAQV AQV20190418011514004/18/19 01:15:31  5-MIN KAQV 180715Z AUTO 17008G16KT 130V190 10SM OVC017 22/19 A2968 600 84 1600 160/08G16 130V190 RMK AO2 PRESFR T02170189
03949KAQV AQV20190418012012404/18/19 01:20:31  5-MIN KAQV 180720Z AUTO VRB05G16KT 10SM OVC017 22/19 A2967 610 84 1600 VRB/05G16 RMK AO2 PRESFR T02170189
03949KAQV AQV20190418012511104/18/19 01:25:31  5-MIN KAQV 180725Z AUTO VRB06KT 10SM OVC017 22/19 A2967 610 84 1600 VRB/06 RMK AO2 T02170189
03949KAQV AQV20190418013012704/18/19 01:30:31  5-MIN KAQV 180730Z AUTO 16007KT 110V190 10SM OVC017 22/19 A2967 610 84 1600 150/07 110V190 RMK AO2 T02170189
03949KAQV AQV20190418013511104/18/19 01:35:31  5-MIN KAQV 180735Z AUTO VRB06KT 10SM OVC017 22/19 A2968 600 84 1600 VRB/06 RMK AO2 T02170189
03949KAQV AQV20190418014011104/18/19 01:40:31  5-MIN KAQV 180740Z AUTO VRB05KT 10SM OVC017 22/19 A2969 590 84 1500 VRB/05 RMK AO2 T02170189
03949KAQV AQV20190418014511804/18/19 01:45:31  5-MIN KAQV 180745Z AUTO VRB05KT 10SM BKN017 OVC024 22/19 A2969 590 84 1500 VRB/05 RMK AO2 T02170189
03949KAQV AQV20190418015012504/18/19 01:50:31  5-MIN KAQV 180750Z AUTO 17006KT 10SM BKN017 OVC024 22/19 A2969 590 81 1600 160/06 RMK AO2 SLP049 T02220189
03949KAQV AQV20190418015512504/18/19 01:55:31  5-MIN KAQV 180755Z AUTO VRB05KT 10SM BKN017 OVC024 22/19 A2968 600 81 1600 VRB/05 RMK AO2 SLP048 T02220189
03949KAQV AQV20190418020011804/18/19 02:00:31  5-MIN KAQV 180800Z AUTO 16007KT 10SM BKN017 OVC027 22/19 A2968 600 81 1600 160/07 RMK AO2 T02220189
03949KAQV AQV20190418020511804/18/19 02:05:31  5-MIN KAQV 180805Z AUTO 17006KT 10SM BKN019 OVC027 22/19 A2969 590 81 1600 170/06 RMK AO2 T02220189
03949KAQV AQV20190418021011804/18/19 02:10:31  5-MIN KAQV 180810Z AUTO 16005KT 10SM BKN019 OVC025 22/19 A2968 600 81 1600 160/05 RMK AO2 T02220189
03949KAQV AQV20190418021511804/18/19 02:15:31  5-MIN KAQV 180815Z AUTO 16007KT 10SM BKN019 OVC025 22/19 A2968 600 81 1600 160/07 RMK AO2 T02220189
03949KAQV AQV20190418022011804/18/19 02:20:31  5-MIN KAQV 180820Z AUTO VRB06KT 10SM BKN019 OVC028 22/19 A2969 590 81 1600 VRB/06 RMK AO2 T02220189
03949KAQV AQV20190418022511804/18/19 02:25:31  5-MIN KAQV 180825Z AUTO 18008KT 10SM BKN019 OVC026 22/19 A2969 590 81 1600 170/08 RMK AO2 T02220189
03949KAQV AQV20190418023011504/18/19 02:30:31  5-MIN KAQV 180830Z AUTO 10SM SCT019 BKN026 OVC038 22/19 A2969 590 81 1600 M /M RMK AO2 T02220189
03949KAQV AQV20190418023512504/18/19 02:35:31  5-MIN KAQV 180835Z AUTO 18006KT 10SM SCT019 BKN028 OVC037 22/19 A2970 580 81 1600 180/06 RMK AO2 T02220189
03949KAQV AQV20190418024012504/18/19 02:40:31  5-MIN KAQV 180840Z AUTO VRB05KT 10SM SCT019 BKN028 OVC035 22/19 A2970 580 81 1600 VRB/05 RMK AO2 T02220189
03949KAQV AQV20190418024512504/18/19 02:45:31  5-MIN KAQV 180845Z AUTO 18008KT 10SM SCT021 BKN025 OVC033 22/19 A2970 580 81 1600 170/08 RMK AO2 T02220189
03949KAQV AQV20190418025013104/18/19 02:50:31  5-MIN KAQV 180850Z AUTO VRB04KT 10SM SCT021 OVC029 22/19 A2970 580 81 1600 VRB/04 RMK AO2 SLP055 T02220189 55022
03949KAQV AQV20190418025515404/18/19 02:55:31  5-MIN KAQV 180855Z AUTO 18007KT 150V210 10SM SCT023 BKN027 OVC033 22/19 A2970 580 81 1600 180/07 150V210 RMK AO2 SLP055 T02220189 55022
03949KAQV AQV20190418030012504/18/19 03:00:31  5-MIN KAQV 180900Z AUTO VRB05KT 10SM SCT021 BKN029 OVC036 22/19 A2970 580 81 1600 VRB/05 RMK AO2 T02220189
03949KAQV AQV20190418030512504/18/19 03:05:31  5-MIN KAQV 180905Z AUTO 00000KT 10SM BKN021 BKN029 OVC036 22/19 A2971 570 81 1600 000/00 RMK AO2 T02220189
03949KAQV AQV20190418031012504/18/19 03:10:31  5-MIN KAQV 180910Z AUTO 19004KT 10SM BKN021 BKN028 OVC035 22/19 A2971 570 81 1600 190/04 RMK AO2 T02220189
03949KAQV AQV20190418031511804/18/19 03:15:31  5-MIN KAQV 180915Z AUTO VRB03KT 10SM BKN021 OVC028 22/19 A2971 570 81 1600 VRB/03 RMK AO2 T02220189
03949KAQV AQV20190418032012504/18/19 03:20:31  5-MIN KAQV 180920Z AUTO 18005KT 10SM SCT021 BKN025 OVC036 22/19 A2972 560 81 1600 180/05 RMK AO2 T02220189
03949KAQV AQV20190418032512504/18/19 03:25:31  5-MIN KAQV 180925Z AUTO VRB03KT 10SM BKN021 BKN027 OVC038 22/19 A2972 560 81 1600 VRB/03 RMK AO2 T02220189
03949KAQV AQV20190418033012504/18/19 03:30:31  5-MIN KAQV 180930Z AUTO 19005KT 10SM BKN021 BKN027 OVC036 22/19 A2973 560 81 1600 190/05 RMK AO2 T02220189
03949KAQV AQV20190418033512504/18/19 03:35:31  5-MIN KAQV 180935Z AUTO VRB04KT 10SM BKN021 BKN030 OVC038 22/19 A2973 550 81 1600 VRB/04 RMK AO2 T02220189
03949KAQV AQV20190418034012504/18/19 03:40:31  5-MIN KAQV 180940Z AUTO 00000KT 10SM BKN021 BKN028 OVC039 22/19 A2973 550 81 1600 000/00 RMK AO2 T02220189
03949KAQV AQV20190418034512504/18/19 03:45:31  5-MIN KAQV 180945Z AUTO VRB03KT 10SM SCT021 BKN026 OVC039 22/19 A2973 550 81 1600 VRB/03 RMK AO2 T02220189
03949KAQV AQV20190418035012504/18/19 03:50:31  5-MIN KAQV 180950Z AUTO VRB04KT 10SM BKN021 OVC041 22/19 A2973 550 81 1600 VRB/04 RMK AO2 SLP065 T02220189
03949KAQV AQV20190418035512504/18/19 03:55:31  5-MIN KAQV 180955Z AUTO 00000KT 10SM BKN021 OVC038 22/19 A2973 550 81 1600 000/00 RMK AO2 SLP066 T02220189
03949KAQV AQV20190418040011104/18/19 04:00:31  5-MIN KAQV 181000Z AUTO 00000KT 10SM OVC021 22/19 A2974 550 81 1600 000/00 RMK AO2 T02220189
03949KAQV AQV20190418040511104/18/19 04:05:31  5-MIN KAQV 181005Z AUTO VRB03KT 10SM OVC021 22/19 A2974 550 81 1600 VRB/03 RMK AO2 T02220189
03949KAQV AQV20190418041011104/18/19 04:10:31  5-MIN KAQV 181010Z AUTO VRB03KT 10SM OVC021 22/19 A2974 550 81 1600 VRB/03 RMK AO2 T02220189
03949KAQV AQV20190418041512504/18/19 04:15:31  5-MIN KAQV 181015Z AUTO 19003KT 10SM BKN019 BKN024 OVC034 22/19 A2974 540 81 1500 180/03 RMK AO2 T02220189
03949KAQV AQV20190418042011804/18/19 04:20:31  5-MIN KAQV 181020Z AUTO 00000KT 10SM BKN019 OVC024 22/19 A2975 540 81 1500 000/00 RMK AO2 T02220189
03949KAQV AQV20190418042511804/18/19 04:25:31  5-MIN KAQV 181025Z AUTO VRB03KT 10SM BKN019 OVC024 22/19 A2975 540 81 1500 VRB/03 RMK AO2 T02220189
03949KAQV AQV20190418043011804/18/19 04:30:31  5-MIN KAQV 181030Z AUTO 00000KT 10SM BKN019 OVC025 22/19 A2975 530 81 1500 000/00 RMK AO2 T02220189
03949KAQV AQV20190418043512504/18/19 04:35:31  5-MIN KAQV 181035Z AUTO 00000KT 10SM BKN017 BKN023 OVC029 22/19 A2975 530 81 1500 000/00 RMK AO2 T02220189
03949KAQV AQV20190418044011804/18/19 04:40:31  5-MIN KAQV 181040Z AUTO 00000KT 10SM BKN019 OVC026 22/19 A2975 530 81 1500 000/00 RMK AO2 T02220189
03949KAQV AQV20190418044512504/18/19 04:45:31  5-MIN KAQV 181045Z AUTO 00000KT 10SM SCT017 BKN022 OVC028 22/19 A2975 530 81 1500 000/00 RMK AO2 T02220189
03949KAQV AQV20190418045013204/18/19 04:50:31  5-MIN KAQV 181050Z AUTO 00000KT 10SM BKN017 BKN025 OVC045 22/19 A2976 530 81 1500 000/00 RMK AO2 SLP074 T02220189
03949KAQV AQV20190418045513204/18/19 04:55:31  5-MIN KAQV 181055Z AUTO 00000KT 10SM SCT017 BKN022 OVC050 22/19 A2976 530 84 1500 000/00 RMK AO2 SLP073 T02170189
03949KAQV AQV20190418050012404/18/19 05:00:31  5-MIN KAQV 181100Z AUTO 00000KT 8SM SCT017 BKN022 OVC065 22/19 A2975 530 84 1500 000/00 RMK AO2 T02170189
03949KAQV AQV20190418050512404/18/19 05:05:31  5-MIN KAQV 181105Z AUTO 00000KT 9SM BKN021 BKN029 OVC065 22/19 A2975 530 84 1500 000/00 RMK AO2 T02170189
03949KAQV AQV20190418051012504/18/19 05:10:31  5-MIN KAQV 181110Z AUTO 00000KT 10SM SCT020 BKN025 OVC048 22/19 A2975 540 84 1500 000/00 RMK AO2 T02170189
03949KAQV AQV20190418051512504/18/19 05:15:31  5-MIN KAQV 181115Z AUTO 00000KT 10SM BKN020 BKN028 OVC055 22/19 A2975 540 84 1500 000/00 RMK AO2 T02170189
03949KAQV AQV20190418052012504/18/19 05:20:31  5-MIN KAQV 181120Z AUTO 00000KT 10SM SCT021 BKN028 OVC047 22/19 A2975 530 84 1500 000/00 RMK AO2 T02170189
03949KAQV AQV20190418052512504/18/19 05:25:31  5-MIN KAQV 181125Z AUTO 00000KT 10SM FEW019 BKN025 OVC047 22/19 A2975 530 84 1500 000/00 RMK AO2 T02170189
03949KAQV AQV20190418053012504/18/19 05:30:31  5-MIN KAQV 181130Z AUTO 00000KT 10SM FEW019 BKN024 OVC047 22/19 A2975 530 84 1500 000/00 RMK AO2 T02170189
03949KAQV AQV20190418053512504/18/19 05:35:31  5-MIN KAQV 181135Z AUTO 00000KT 10SM FEW018 BKN034 OVC065 22/19 A2975 530 84 1500 000/00 RMK AO2 T02170189
03949KAQV AQV20190418054012504/18/19 05:40:31  5-MIN KAQV 181140Z AUTO 00000KT 10SM SCT022 BKN032 OVC070 22/19 A2975 530 84 1500 000/00 RMK AO2 T02170189
03949KAQV AQV20190418054512504/18/19 05:45:31  5-MIN KAQV 181145Z AUTO 00000KT 10SM SCT024 BKN032 OVC080 22/19 A2976 530 84 1500 000/00 RMK AO2 T02170189
03949KAQV AQV20190418055014904/18/19 05:50:31  5-MIN KAQV 181150Z AUTO 00000KT 9SM FEW024 BKN032 OVC080 21/19 A2975 530 90 1400 000/00 RMK AO2 SLP072 T02110194 10222 20211 55021
03949KAQV AQV20190418055515004/18/19 05:55:31  5-MIN KAQV 181155Z AUTO 00000KT 10SM FEW024 SCT032 BKN065 21/19 A2975 540 87 1400 000/00 RMK AO2 SLP070 T02110189 10222 20211 55021
03949KAQV AQV20190418060012504/18/19 06:00:31  5-MIN KAQV 181200Z AUTO 00000KT 10SM FEW029 SCT070 BKN085 21/19 A2974 540 87 1400 000/00 RMK AO2 T02110189
03949KAQV AQV20190418060512504/18/19 06:05:31  5-MIN KAQV 181205Z AUTO 00000KT 10SM FEW024 SCT070 SCT085 21/19 A2974 550 90 1400 000/00 RMK AO2 T02060189
03949KAQV AQV20190418061011704/18/19 06:10:31  5-MIN KAQV 181210Z AUTO 00000KT 9SM FEW070 FEW085 21/19 A2975 540 90 1400 000/00 RMK AO2 T02060189
03949KAQV AQV20190418061511704/18/19 06:15:31  5-MIN KAQV 181215Z AUTO 00000KT 9SM FEW085 FEW110 21/19 A2974 540 90 1400 000/00 RMK AO2 T02060189
03949KAQV AQV20190418062011704/18/19 06:20:31  5-MIN KAQV 181220Z AUTO 00000KT 8SM FEW085 FEW110 21/19 A2974 540 90 1400 000/00 RMK AO2 T02060189
03949KAQV AQV20190418062511004/18/19 06:25:31  5-MIN KAQV 181225Z AUTO 00000KT 8SM FEW110 21/19 A2974 540 90 1400 000/00 RMK AO2 T02060189
03949KAQV AQV20190418063011004/18/19 06:30:31  5-MIN KAQV 181230Z AUTO 00000KT 8SM FEW110 21/19 A2975 540 90 1400 000/00 RMK AO2 T02060189
03949KAQV AQV20190418063511004/18/19 06:35:31  5-MIN KAQV 181235Z AUTO 00000KT 8SM FEW110 21/19 A2974 540 90 1400 000/00 RMK AO2 T02060189
03949KAQV AQV20190418064011704/18/19 06:40:31  5-MIN KAQV 181240Z AUTO VRB03KT 8SM FEW050 SCT110 21/19 A2974 540 93 1400 VRB/03 RMK AO2 T02060194
03949KAQV AQV20190418064511004/18/19 06:45:31  5-MIN KAQV 181245Z AUTO 00000KT 8SM SCT050 21/19 A2973 550 93 1400 000/00 RMK AO2 T02060194
03949KAQV AQV20190418065011704/18/19 06:50:31  5-MIN KAQV 181250Z AUTO 00000KT 8SM SCT050 21/19 A2973 550 90 1400 000/00 RMK AO2 SLP065 T02110194
03949KAQV AQV20190418065512404/18/19 06:55:31  5-MIN KAQV 181255Z AUTO 00000KT 9SM SCT050 BKN060 21/19 A2974 550 90 1400 000/00 RMK AO2 SLP067 T02110194
03949KAQV AQV20190418070012604/18/19 07:00:31  5-MIN KAQV 181300Z AUTO 00000KT 9SM TS SCT046 BKN055 21/19 A2974 540 90 1400 000/00 RMK AO2 TSB00 T02110194
03949KAQV AQV20190418070512604/18/19 07:05:31  5-MIN KAQV 181305Z AUTO 00000KT 8SM TS SCT041 OVC055 21/19 A2973 550 93 1400 000/00 RMK AO2 TSB00 T02060194
03949KAQV AQV20190418071012304/18/19 07:10:31  5-MIN KAQV 181310Z AUTO 8SM TS FEW012 BKN041 OVC055 20/18 A2972 560 90 1300 M /M RMK AO2 TSB00 T02000183
03949KAQV AQV20190418071514604/18/19 07:15:31  5-MIN KAQV 181315Z AUTO 35009G16KT 9SM TS FEW012 BKN020 OVC055 20/17 A2971 570 84 1300 340/09G16 RMK AO2 TSB00 PRESFR T02000172
03949KAQV AQV20190418072017304/18/19 07:20:31  5-MIN KAQV 181320Z AUTO 29007G16KT 260V340 2SM +TSRA BR FEW010 BKN026 OVC046 19/17 A2973 550 87 1200 290/07G16 260V340 RMK AO2 RAB19 TSB00 P0012 T01890167
03949KAQV AQV20190418072515304/18/19 07:25:31  5-MIN KAQV 181325Z AUTO VRB03KT 1/4SM +TSRA FG SCT006 BKN018 OVC042 18/17 A2974 540 93 1000 VRB/03 RMK AO2 RAB19 TSB00 P0054 T01780167
03949KAQV AQV20190418073015304/18/19 07:30:31  5-MIN KAQV 181330Z AUTO VRB05KT 1/4SM +TSRA FG SCT006 BKN018 OVC042 18/17 A2973 550 96 1000 VRB/05 RMK AO2 RAB19 TSB00 P0059 T01780172
03949KAQV AQV20190418073515104/18/19 07:35:31  5-MIN KAQV 181335Z AUTO VRB04KT 1SM -TSRA BR SCT005 BKN017 OVC065 18/17 A2973 550 96 1000 VRB/04 RMK AO2 RAB19 TSB00 P0060 T01780172
03949KAQV AQV20190418074015104/18/19 07:40:31  5-MIN KAQV 181340Z AUTO VRB04KT 6SM -TSRA BR SCT005 BKN029 OVC060 18/17 A2973 550 93 1000 VRB/04 RMK AO2 RAB19 TSB00 P0060 T01780167
03949KAQV AQV20190418074514904/18/19 07:45:31  5-MIN KAQV 181345Z AUTO VRB03KT 10SM TS SCT007 BKN029 OVC060 18/17 A2974 550 93 1000 VRB/03 RMK AO2 RAB19E42 TSB00 P0060 T01780167
03949KAQV AQV20190418075015604/18/19 07:50:31  5-MIN KAQV 181350Z AUTO VRB04KT 10SM SCT007 BKN031 OVC060 18/17 A2974 540 93 1000 VRB/04 RMK AO2 RAB19E42 TSB00E48 SLP069 P0060 T01780167
03949KAQV AQV20190418075516304/18/19 07:55:31  5-MIN KAQV 181355Z AUTO 00000KT 10SM SCT007 BKN050 OVC060 18/17 A2975 530 96 1000 000/00 RMK AO2 RAB19E42 TSB00E48 PRESRR SLP074 P0060 T01780172
03949KAQV AQV20190418080012504/18/19 08:00:31  5-MIN KAQV 181400Z AUTO 34003KT 10SM SCT007 BKN050 OVC060 18/17 A2975 530 96 1000 340/03 RMK AO2 T01780172
03949KAQV AQV20190418080514004/18/19 08:05:31  5-MIN KAQV 181405Z AUTO VRB03KT 8SM -RA SCT007 BKN048 OVC060 18/17 A2975 530 93 1100 VRB/03 RMK AO2 RAB02 P0000 T01830172
03949KAQV AQV20190418081015904/18/19 08:10:31  5-MIN KAQV 181410Z AUTO VRB03KT 2 1/2SM +RA BR SCT007 SCT039 OVC050 18/17 A2975 530 96 1000 VRB/03 RMK AO2 VIS 1 1/4V5 RAB02 P0004 T01780172
03949KAQV AQV20190418081515904/18/19 08:15:31  5-MIN KAQV 181415Z AUTO VRB05KT 1 3/4SM +RA BR SCT009 BKN034 OVC050 18/17 A2975 530 93 1000 VRB/05 RMK AO2 VIS 1 1/4V3 RAB02 P0006 T01780167
03949KAQV AQV20190418082015004/18/19 08:20:31  5-MIN KAQV 181420Z AUTO VRB04KT 2SM TSRA BR SCT005 BKN010 OVC048 18/17 A2976 520 93 1000 VRB/04 RMK AO2 RAB02 TSB20 P0007 T01780167
03949KAQV AQV20190418082516104/18/19 08:25:31  5-MIN KAQV 181425Z AUTO VRB05KT 2 1/2SM TSRA BR FEW005 BKN010 OVC048 18/17 A2977 510 93 1000 VRB/05 RMK AO2 RAB02 TSB20 PRESRR P0008 T01780167
03949KAQV AQV20190418083015004/18/19 08:30:31  5-MIN KAQV 181430Z AUTO VRB03KT 2SM TSRA BR FEW004 BKN035 OVC046 18/17 A2978 510 96 1000 VRB/03 RMK AO2 RAB02 TSB20 P0011 T01780172
03949KAQV AQV20190418083514104/18/19 08:35:31  5-MIN KAQV 181435Z AUTO 1SM +TSRA BR SCT006 BKN025 OVC046 18/17 A2976 520 93 1000 M /M RMK AO2 RAB02 TSB20 P0019 T01780167
03949KAQV AQV20190418084015104/18/19 08:40:31  5-MIN KAQV 181440Z AUTO VRB06KT 1SM +TSRA BR SCT007 BKN020 OVC036 18/17 A2976 520 93 1000 VRB/06 RMK AO2 RAB02 TSB20 P0022 T01780167
03949KAQV AQV20190418084515404/18/19 08:45:31  5-MIN KAQV 181445Z AUTO VRB05KT 1 3/4SM TSRA BR SCT007 BKN024 OVC038 18/17 A2976 530 93 1000 VRB/05 RMK AO2 RAB02 TSB20 P0023 T01780167
03949KAQV AQV20190418085014304/18/19 08:50:31  5-MIN KAQV 181450Z AUTO VRB06KT 2 1/2SM TSRA BR SCT007 BKN024 OVC055 17/17 A2977 520 96 900 VRB/06 RMK AO2 RAB02 TSB20 P0025
03949KAQV AQV20190418085517304/18/19 08:55:31  5-MIN KAQV 181455Z AUTO VRB06KT 2 1/2SM RA BR FEW009 BKN027 OVC050 17/16 A2977 520 93 900 VRB/06 RMK AO2 RAB02 TSB20E55 SLP079 P0027 60087 T01720161 53010
03949KAQV AQV20190418090014904/18/19 09:00:31  5-MIN KAQV 181500Z AUTO VRB06KT 2 1/2SM TSRA BR SCT009 BKN025 OVC060 17/16 A2977 520 93 900 VRB/06 RMK AO2 TSB1458 P0001 T01720161
03949KAQV AQV20190418090515804/18/19 09:05:31  5-MIN KAQV 181505Z AUTO 35008KT 2 1/2SM +TSRA BR SCT009 BKN033 OVC065 17/16 A2973 550 93 1000 340/08 RMK AO2 TSB1458 PRESFR P0004 T01720161
03949KAQV AQV20190418091014704/18/19 09:10:31  5-MIN KAQV 181510Z AUTO VRB04KT 2SM +TSRA BR SCT007 BKN041 OVC060 17/16 A2974 540 93 1000 VRB/04 RMK AO2 TSB1458 P0006 T01720161
03949KAQV AQV20190418091515004/18/19 09:15:31  5-MIN KAQV 181515Z AUTO VRB05KT 2 1/2SM TSRA BR SCT007 BKN044 OVC080 17/16 A2974 540 93 1000 VRB/05 RMK AO2 TSB1458 P0007 T01720161
03949KAQV AQV20190418092014604/18/19 09:20:31  5-MIN KAQV 181520Z AUTO 36007KT 4SM TSRA BR SCT007 BKN047 OVC100 17/16 A2974 540 93 1000 360/07 RMK AO2 TSB1458 P0009 T01720161
03949KAQV AQV20190418092514904/18/19 09:25:31  5-MIN KAQV 181525Z AUTO VRB04KT 3SM TSRA BR FEW007 BKN070 OVC100 17/16 A2976 530 93 1000 VRB/04 RMK AO2 TSB1458B24 P0010 T01720161
03949KAQV AQV20190418093015504/18/19 09:30:31  5-MIN KAQV 181530Z AUTO VRB04KT 4SM TSRA BR FEW006 BKN075 OVC095 17/16 A2977 520 96 900 VRB/04 RMK AO2 TSB1458B24 PRESRR P0011 T01670161
03949KAQV AQV20190418093516004/18/19 09:35:31  5-MIN KAQV 181535Z AUTO VRB04KT 2 1/2SM +TSRA BR FEW006 BKN055 OVC095 17/16 A2978 510 96 900 VRB/04 RMK AO2 TSB1458B24 PRESRR P0014 T01670161
03949KAQV AQV20190418094015204/18/19 09:40:31  5-MIN KAQV 181540Z AUTO 01008KT 2SM +TSRA BR FEW006 BKN024 OVC095 17/16 A2974 540 96 900 010/08 RMK AO2 TSB1458B24B37 P0017 T01670161
03949KAQV AQV20190418094515604/18/19 09:45:31  5-MIN KAQV 181545Z AUTO 35004KT 1 3/4SM +TSRA BR FEW006 BKN029 OVC095 17/16 A2975 530 96 900 350/04 RMK AO2 TSB1458B24B37 P0020 T01670161
03949KAQV AQV20190418095015904/18/19 09:50:31  5-MIN KAQV 181550Z AUTO VRB04KT 3SM -TSRA BR SCT006 BKN031 OVC090 17/16 A2976 520 96 900 VRB/04 RMK AO2 TSB1458B24B37 SLP076 P0020 T01670161
03949KAQV AQV20190418095515704/18/19 09:55:31  5-MIN KAQV 181555Z AUTO VRB06KT 8SM -RA BKN006 BKN029 OVC070 17/16 A2976 530 96 900 VRB/06 RMK AO2 TSB1458B24B37E54 SLP075 P0020 T01670161
03949KAQV AQV20190418100012704/18/19 10:00:31  5-MIN KAQV 181600Z AUTO VRB05KT 10SM -RA BKN006 OVC025 17/16 A2975 530 96 900 VRB/05 RMK AO2 P0000 T01670161
03949KAQV AQV20190418100512704/18/19 10:05:31  5-MIN KAQV 181605Z AUTO VRB06KT 10SM -RA BKN007 OVC027 17/16 A2976 530 96 900 VRB/06 RMK AO2 P0000 T01670161
03949KAQV AQV20190418101014504/18/19 10:10:31  5-MIN KAQV 181610Z AUTO 36007KT 320V020 10SM BKN007 OVC037 17/16 A2975 540 96 900 350/07 320V020 RMK AO2 RAE06 P0000 T01670161
03949KAQV AQV20190418101515704/18/19 10:15:31  5-MIN KAQV 181615Z AUTO 36007KT 320V020 10SM OVC006 17/16 A2973 550 93 900 350/07 320V020 RMK AO2 RAE06 CIG 004V011 PRESFR P0000 T01670156
03949KAQV AQV20190418102013504/18/19 10:20:31  5-MIN KAQV 181620Z AUTO 36005KT 10SM OVC006 17/16 A2974 550 93 1000 350/05 RMK AO2 RAE06 CIG 004V011 P0000 T01720161
03949KAQV AQV20190418102513504/18/19 10:25:31  5-MIN KAQV 181625Z AUTO VRB04KT 10SM OVC006 17/16 A2974 550 93 1000 VRB/04 RMK AO2 RAE06 CIG 004V009 P0000 T01720161
03949KAQV AQV20190418103013504/18/19 10:30:31  5-MIN KAQV 181630Z AUTO VRB06KT 10SM OVC006 17/16 A2974 540 93 1000 VRB/06 RMK AO2 RAE06 CIG 004V009 P0000 T01720161
03949KAQV AQV20190418103513504/18/19 10:35:31  5-MIN KAQV 181635Z AUTO 36007KT 10SM OVC006 17/16 A2974 540 90 1000 360/07 RMK AO2 RAE06 CIG 004V009 P0000 T01720156
03949KAQV AQV20190418104013404/18/19 10:40:31  5-MIN KAQV 181640Z AUTO 36008KT 10SM OVC006 17/16 A2974 550 93 900 350/08 RMK AO2 RAE06 CIG 004V011 P0000 T01670156
03949KAQV AQV20190418104514104/18/19 10:45:31  5-MIN KAQV 181645Z AUTO VRB03KT 10SM OVC007 17/16 A2976 530 93 900 VRB/03 RMK AO2 RAE06 CIG 005V011 PRESRR P0000 T01670156
03949KAQV AQV20190418105015504/18/19 10:50:31  5-MIN KAQV 181650Z AUTO 01006KT 10SM -RA BKN007 OVC060 17/16 A2975 540 93 900 360/06 RMK AO2 RAE06B50 CIG 005V011 SLP072 P0000 T01670156
03949KAQV AQV20190418105516304/18/19 10:55:31  5-MIN KAQV 181655Z AUTO 02009KT 5SM RA BR BKN007 BKN060 OVC075 17/16 A2973 550 93 900 020/09 RMK AO2 RAE06B50 CIG 005V011 SLP065 P0001 T01670156
03949KAQV AQV20190418110014204/18/19 11:00:31  5-MIN KAQV 181700Z AUTO 01006KT 3SM RA BR BKN007 BKN060 OVC075 17/16 A2970 580 93 900 360/06 RMK AO2 PRESFR P0001 T01670156
03949KAQV AQV20190418110513604/18/19 11:05:31  5-MIN KAQV 181705Z AUTO 36007KT 4SM -RA BR BKN007 BKN050 OVC095 17/16 A2971 570 93 900 360/07 RMK AO2 P0001 T01670156
03949KAQV AQV20190418111013404/18/19 11:10:31  5-MIN KAQV 181710Z AUTO 01007KT 10SM -RA BKN007 BKN060 OVC095 17/16 A2971 570 93 900 010/07 RMK AO2 P0001 T01670156
03949KAQV AQV20190418111513504/18/19 11:15:31  5-MIN KAQV 181715Z AUTO 01008KT 10SM -RA BKN007 BKN060 OVC100 17/16 A2969 590 93 1000 010/08 RMK AO2 P0001 T01670156
03949KAQV AQV20190418112013404/18/19 11:20:31  5-MIN KAQV 181720Z AUTO 01008KT 9SM -RA BKN007 BKN075 OVC100 17/16 A2969 590 93 1000 010/08 RMK AO2 P0002 T01670156
03949KAQV AQV20190418112513404/18/19 11:25:31  5-MIN KAQV 181725Z AUTO VRB06KT 8SM -RA SCT006 BKN075 OVC095 17/16 A2968 600 93 1000 VRB/06 RMK AO2 P0003 T01670156
03949KAQV AQV20190418113014104/18/19 11:30:31  5-MIN KAQV 181730Z AUTO 05009KT 8SM -RA SCT006 BKN070 OVC095 17/16 A2966 610 93 1000 050/09 RMK AO2 PRESFR P0003 T01670156
03949KAQV AQV20190418113513304/18/19 11:35:31  5-MIN KAQV 181735Z AUTO VRB04KT 7SM RA SCT006 BKN075 OVC095 17/16 A2967 610 93 1000 VRB/04 RMK AO2 P0004 T01670156
03949KAQV AQV20190418114013604/18/19 11:40:31  5-MIN KAQV 181740Z AUTO 04007KT 6SM RA BR SCT008 BKN070 OVC095 17/16 A2968 600 93 1000 030/07 RMK AO2 P0005 T01670156
03949KAQV AQV20190418114513604/18/19 11:45:31  5-MIN KAQV 181745Z AUTO VRB06KT 5SM RA BR SCT008 BKN075 OVC100 17/16 A2968 600 93 1000 VRB/06 RMK AO2 P0007 T01670156
03949KAQV AQV20190418115016704/18/19 11:50:31  5-MIN KAQV 181750Z AUTO VRB04KT 4SM RA BR FEW008 BKN080 OVC100 17/16 A2968 600 93 1000 VRB/04 RMK AO2 SLP050 P0008 60117 T01670156 10211 20167 50010
03949KAQV AQV20190418115516704/18/19 11:55:31  5-MIN KAQV 181755Z AUTO 06008KT 4SM RA BR FEW008 BKN070 OVC100 17/16 A2965 620 93 1000 060/08 RMK AO2 SLP040 P0010 60119 T01670156 10211 20167 50010
03949KAQV AQV20190418120013604/18/19 12:00:31  5-MIN KAQV 181800Z AUTO 04005KT 4SM RA BR FEW008 BKN080 OVC100 17/16 A2965 630 93 1000 040/05 RMK AO2 P0001 T01670156
03949KAQV AQV20190418120515104/18/19 12:05:31  5-MIN KAQV 181805Z AUTO 04007KT 5SM TSRA BR SCT008 BKN080 OVC100 17/16 A2964 630 93 1000 030/07 RMK AO2 TSB02 PRESFR P0002 T01670156
03949KAQV AQV20190418121014304/18/19 12:10:31  5-MIN KAQV 181810Z AUTO 06005KT 5SM TSRA BR SCT008 BKN080 OVC100 16/16 A2965 620 96 900 050/05 RMK AO2 TSB02 P0003 T01610156
03949KAQV AQV20190418121516004/18/19 12:15:31  5-MIN KAQV 181815Z AUTO 05007KT 010V090 6SM TSRA BR SCT007 BKN080 OVC100 16/16 A2964 640 96 1000 040/07 010V090 RMK AO2 TSB02 P0004 T01610156
03949KAQV AQV20190418122015104/18/19 12:20:31  5-MIN KAQV 181820Z AUTO 04007KT 5SM TSRA BR SCT007 BKN046 OVC100 16/15 A2962 650 93 1000 040/07 RMK AO2 TSB02 PRESFR P0005 T01610150
03949KAQV AQV20190418122514304/18/19 12:25:31  5-MIN KAQV 181825Z AUTO 02006KT 5SM TSRA BR BKN007 BKN044 OVC100 16/15 A2965 630 93 900 010/06 RMK AO2 TSB02 P0006 T01610150
03949KAQV AQV20190418123014204/18/19 12:30:31  5-MIN KAQV 181830Z AUTO 03008KT 7SM -TSRA BKN007 BKN044 OVC090 16/15 A2963 650 93 1000 030/08 RMK AO2 TSB02 P0006 T01610150
03949KAQV AQV20190418123514904/18/19 12:35:31  5-MIN KAQV 181835Z AUTO VRB05KT 10SM -TSRA SCT007 BKN044 OVC100 16/15 A2967 610 93 900 VRB/05 RMK AO2 TSB02 PRESRR P0007 T01610150
03949KAQV AQV20190418124014204/18/19 12:40:31  5-MIN KAQV 181840Z AUTO 01003KT 10SM -TSRA BKN007 BKN047 OVC080 16/15 A2966 620 93 900 010/03 RMK AO2 TSB02 P0007 T01610150
03949KAQV AQV20190418124514204/18/19 12:45:31  5-MIN KAQV 181845Z AUTO VRB03KT 10SM -TSRA BKN007 BKN047 OVC075 16/16 A2965 630 96 900 VRB/03 RMK AO2 TSB02 P0007 T01610156
03949KAQV AQV20190418125015004/18/19 12:50:31  5-MIN KAQV 181850Z AUTO 03004KT 10SM -RA BKN007 BKN055 OVC075 16/16 A2966 620 96 900 030/04 RMK AO2 TSB02E46 SLP042 P0007 T01610156
03949KAQV AQV20190418125516204/18/19 12:55:31  5-MIN KAQV 181855Z AUTO 03005KT 10SM -RA BKN007 BKN055 OVC080 16/15 A2965 620 93 900 030/05 RMK AO2 TSB02E46 CIG 005V009 SLP040 P0007 T01610150
03949KAQV AQV20190418130012804/18/19 13:00:31  5-MIN KAQV 181900Z AUTO 00000KT 10SM -RA SCT007 OVC050 17/16 A2966 620 93 1000 000/00 RMK AO2 P0000 T01670156
03949KAQV AQV20190418130512704/18/19 13:05:31  5-MIN KAQV 181905Z AUTO 00000KT 9SM -RA SCT007 OVC050 17/16 A2966 620 93 1000 000/00 RMK AO2 P0001 T01670156
03949KAQV AQV20190418131013004/18/19 13:10:31  5-MIN KAQV 181910Z AUTO 00000KT 6SM -RA BR SCT007 OVC055 17/16 A2966 620 93 1000 000/00 RMK AO2 P0001 T01670156
03949KAQV AQV20190418131513004/18/19 13:15:31  5-MIN KAQV 181915Z AUTO 00000KT 5SM -RA BR SCT007 OVC055 17/16 A2966 620 93 1000 000/00 RMK AO2 P0001 T01670156
03949KAQV AQV20190418132012704/18/19 13:20:31  5-MIN KAQV 181920Z AUTO 00000KT 7SM -RA SCT007 OVC055 17/16 A2965 620 93 1000 000/00 RMK AO2 P0001 T01670156
03949KAQV AQV20190418132514104/18/19 13:25:31  5-MIN KAQV 181925Z AUTO 05004KT 10SM SCT007 OVC055 17/16 A296 18/16 A2967 610 90 1100 260/03 RMK AO2 CIG 007V011 T01780161
03949KAQV AQV20190418150513004/18/19 15:05:31  5-MIN KAQV 182105Z AUTO 28003KT 10SM BKN009 OVC039 18/16 A2967 610 87 1200 280/03 RMK AO2 CIG 007V013 T01830161
03949KAQV AQV20190418151013004/18/19 15:10:31  5-MIN KAQV 182110Z AUTO VRB03KT 10SM BKN009 OVC039 18/16 A2966 610 90 1100 VRB/03 RMK AO2 CIG 007V013 T01780161
03949KAQV AQV20190418151511104/18/19 15:15:31  5-MIN KAQV 182115Z AUTO 00000KT 10SM BKN010 18/17 A2966 620 90 1200 000/00 RMK AO2 T01830167
03949KAQV AQV20190418152011104/18/19 15:20:31  5-MIN KAQV 182120Z AUTO VRB03KT 10SM BKN010 18/17 A2966 620 90 1200 VRB/03 RMK AO2 T01830167
03949KAQV AQV20190418152511104/18/19 15:25:31  5-MIN KAQV 182125Z AUTO VRB03KT 10SM BKN010 19/17 A2966 620 87 1300 VRB/03 RMK AO2 T01890167
03949KAQV AQV20190418153011804/18/19 15:30:31  5-MIN KAQV 182130Z AUTO VRB04KT 10SM BKN010 OVC016 19/17 A2966 620 84 1300 VRB/04 RMK AO2 T01940167
03949KAQV AQV20190418153511804/18/19 15:35:31  5-MIN KAQV 182135Z AUTO VRB03KT 10SM BKN010 OVC013 19/16 A2966 620 84 1300 VRB/03 RMK AO2 T01890161
03949KAQV AQV20190418153515604/18/19 15:35:31  5-MIN KAQV 182135Z AUTO VRB03KT 10SM5:15:31  5-MIN KAQV 182115Z AUTO 00000KT 10SM BKN010 18/17 A2966 620 90 1200 000/00 RMK AO2 T01830167
03949KAQV AQV20190418154011804/18/19 15:40:31  5-MIN KAQV 182140Z AUTO VRB04KT 10SM BKN010 OVC015 19/16 A2966 620 84 1300 VRB/04 RMK AO2 T01890161
03949KAQV AQV20190418154511804/18/19 15:45:31  5-MIN KAQV 182145Z AUTO 26006KT 10SM SCT009 OVC014 19/16 A2966 620 81 1300 260/06 RMK AO2 T01940161
03949KAQV AQV20190418155010804/18/19 15:50:31  5-MIN KAQV 182150Z AUTO VRB04KT 10SM BKN014 OVC020 19/16 A2966 620 81 1300 VRB/04 RMK AO2
03949KAQV AQV20190418155513204/18/19 15:55:31  5-MIN KAQV 182155Z AUTO 00000KT 10SM FEW010 BKN014 OVC020 19/16 A2966 620 84 1300 000/00 RMK AO2 SLP043 T01890161
03949KAQV AQV20190418155517504/18/19 15:55:31  5-MIN KAQV 182155Z AUTO 00000KT 10SM FEW010 BKN014 OVC020 19/16 A2966 620 84 1300 000/00 RMK AO2 SLP043 T01890161 A2966 620 84 1300 VRB/04 RMK AO2 T01890161
03949KAQV AQV20190418160011804/18/19 16:00:31  5-MIN KAQV 182200Z AUTO VRB03KT 10SM BKN014 OVC020 19/16 A2966 620 84 1300 VRB/03 RMK AO2 T01890161
03949KAQV AQV20190418160512504/18/19 16:05:31  5-MIN KAQV 182205Z AUTO VRB04KT 10SM BKN014 BKN022 OVC026 19/16 A2966 620 84 1300 VRB/04 RMK AO2 T01890161
03949KAQV AQV20190418161011804/18/19 16:10:31  5-MIN KAQV 182210Z AUTO VRB03KT 10SM BKN014 OVC025 19/16 A2966 620 81 1300 VRB/03 RMK AO2 T01890156
03949KAQV AQV20190418161511804/18/19 16:15:31  5-MIN KAQV 182215Z AUTO VRB03KT 10SM SCT013 OVC023 19/16 A2966 610 81 1300 VRB/03 RMK AO2 T01890156
03949KAQV AQV20190418161519604/18/19 16:15:31  5-MIN KAQV 182215Z AUTO VRB03KT 10SM SCT013 OVC023 19/16 A2966 610 81 1300 VRB/03 RMK AO2 T018901O2 SLP043 T0189016119/16 A2967 610 84 1200 250/06 RMK00 VRB/03 RMK AO2 T01890161
03949KAQV AQV20190418162013404/18/19 16:20:31  5-MIN KAQV 182220Z AUTO 26006KT 10SM -RA BKN016 OVC023 19/16 A2967 610 84 1200 250/06 RMK AO2 RAB20 P0000 T01890161
03949KAQV AQV20190418162513404/18/19 16:25:31  5-MIN KAQV 182225Z AUTO VRB05KT 10SM -RA BKN014 OVC023 18/16 A2967 610 87 1200 VRB/05 RMK AO2 RAB20 P0000 T01830161
03949KAQV AQV20190418163013304/18/19 16:30:31  5-MIN KAQV 182230Z AUTO VRB06KT 10SM BKN014 OVC023 18/16 A2967 610 87 1200 VRB/06 RMK AO2 RAB20E29 P0000 T01830161
03949KAQV AQV20190418163513304/18/19 16:35:31  5-MIN KAQV 182235Z AUTO VRB04KT 10SM BKN015 OVC024 19/16 A2967 610 84 1200 VRB/04 RMK AO2 RAB20E29 P0000 T01890161
03949KAQV AQV20190418163522904/18/19 16:35:31  5-MIN KAQV 182235Z AUTO VRB04KT 10SM BKN015 OVC024 19/16 A2967 610 84 1200 VRB/04 RMK AO2 RAB20E29 P0000 T0189016104/18/19 1KT 10SM -RA BKN016 OVC023 19/16 A2967 610 84 1200 250/06 RMK AO2 RAB20 P0000 T01890161
03949KAQV AQV20190418164013304/18/19 16:40:31  5-MIN KAQV 182240Z AUTO VRB06KT 10SM BKN015 OVC025 19/16 A2967 610 81 1300 VRB/06 RMK AO2 RAB20E29 P0000 T01940161
03949KAQV AQV20190418164514004/18/19 16:45:31  5-MIN KAQV 182245Z AUTO VRB04KT 10SM BKN015 BKN024 OVC033 19/16 A2966 620 84 1300 VRB/04 RMK AO2 RAB20E29 P0000 T01890161
03949KAQV AQV20190418165013004/18/19 16:50:31  5-MIN KAQV 182250Z AUTO VRB04KT 10SM BKN014 BKN023 OVC036 19/16 A2966 620 81 1300 VRB/04 RMK AO2 RAB20E29 P0000
03949KAQV AQV20190418165514704/18/19 16:55:31  5-MIN KAQV 182255Z AUTO VRB04KT 10SM BKN014 BKN020 OVC028 19/16 A2966 610 84 1300 VRB/04 RMK AO2 RAB20E29 SLP043 P0000 T01890161
03949KAQV AQV20190418165522404/18/19 16:55:31  5-MIN KAQV 182255Z AUTO VRB04KT 10SM BKN014 BKN020 OVC028 19/16 A2966 610 84 1300 VRB/04 RMK AO2 RAB20E29 SLP043 P0000 T01890161BKN015 OVC025 19/16 A2967 610 81 1300 VRB/06 RMK AO2 RAB20E29 P0000 T01940161
03949KAQV AQV20190418170012504/18/19 17:00:31  5-MIN KAQV 182300Z AUTO 00000KT 10SM BKN014 BKN020 OVC028 19/16 A2967 610 81 1300 000/00 RMK AO2 T01890156
03949KAQV AQV20190418170511504/18/19 17:05:31  5-MIN KAQV 182305Z AUTO 10SM BKN014 BKN022 OVC028 19/16 A2966 620 84 1300 M /M RMK AO2 T01890161
03949KAQV AQV20190418171012504/18/19 17:10:31  5-MIN KAQV 182310Z AUTO VRB04KT 10SM BKN014 BKN022 BKN032 19/16 A2965 620 81 1300 VRB/04 RMK AO2 T01940161
03949KAQV AQV20190418171511104/18/19 17:15:31  5-MIN KAQV 182315Z AUTO VRB03KT 10SM BKN014 19/16 A2965 620 81 1300 VRB/03 RMK AO2 T01940161
03949KAQV AQV20190418172011104/18/19 17:20:31  5-MIN KAQV 182320Z AUTO 00000KT 10SM SCT014 19/16 A2965 620 81 1300 000/00 RMK AO2 T01940161
03949KAQV AQV20190418172511104/18/19 17:25:31  5-MIN KAQV 182325Z AUTO VRB05KT 10SM SCT014 19/16 A2965 620 84 1300 VRB/05 RMK AO2 T01890161
03949KAQV AQV20190418173012504/18/19 17:30:31  5-MIN KAQV 182330Z AUTO VRB03KT 10SM FEW014 SCT019 SCT028 19/16 A2965 620 81 1300 VRB/03 RMK AO2 T01890156
03949KAQV AQV20190418173511804/18/19 17:35:31  5-MIN KAQV 182335Z AUTO VRB03KT 10SM FEW019 SCT028 18/16 A2965 630 84 1200 VRB/03 RMK AO2 T01830156
03949KAQV AQV20190418174011804/18/19 17:40:31  5-MIN KAQV 182340Z AUTO VRB04KT 10SM FEW018 SCT023 18/16 A2965 620 87 1200 VRB/04 RMK AO2 T01830161
03949KAQV AQV20190418174511104/18/19 17:45:31  5-MIN KAQV 182345Z AUTO 00000KT 10SM SCT021 18/16 A2966 620 84 1200 000/00 RMK AO2 T01830156
03949KAQV AQV20190418175010804/18/19 17:50:31  5-MIN KAQV 182350Z AUTO VRB04KT 10SM BKN021 BKN026 18/16 A2966 620 84 1200 VRB/04 RMK AO2
03949KAQV AQV20190418175515604/18/19 17:55:31  5-MIN KAQV 182355Z AUTO VRB03KT 10SM BKN021 BKN028 BKN046 18/16 A2966 620 84 1200 VRB/03 RMK AO2 SLP041 60008 T01830156 10194 20161 58002
03949KAQV AQV20190418180014104/18/19 18:00:31  5-MIN KAQV 190000Z AUTO VRB04KT 10SM -RA FEW017 SCT021 BKN028 18/16 A2966 620 84 1200 VRB/04 RMK AO2 RAB00 P0000 T01830156
03949KAQV AQV20190418180514304/18/19 18:05:31  5-MIN KAQV 190005Z AUTO VRB03KT 2SM +RA BR FEW017 BKN022 OVC046 18/16 A2967 610 90 1100 VRB/03 RMK AO2 RAB00 P0003 T01780161
03949KAQV AQV20190418181014304/18/19 18:10:31  5-MIN KAQV 190010Z AUTO VRB05KT 1SM +RA BR FEW009 BKN020 OVC027 18/16 A2967 610 90 1100 VRB/05 RMK AO2 RAB00 P0007 T01780161
03949KAQV AQV20190418181513704/18/19 18:15:31  5-MIN KAQV 190015Z AUTO 1 3/4SM -RA BR BKN011 BKN020 OVC027 17/16 A2968 600 93 1000 M /M RMK AO2 RAB00 P0007 T01720161
03949KAQV AQV20190418182014704/18/19 18:20:31  5-MIN KAQV 190020Z AUTO 29004KT 9SM -RA SCT009 BKN024 OVC028 17/16 A2968 600 90 1000 290/04 RMK AO2 RAB00 PRESRR P0007 T01720156
03949KAQV AQV20190418182516904/18/19 18:25:31  5-MIN KAQV 190025Z AUTO 30009G16KT 270V350 10SM SCT011 BKN021 OVC026 17/15 A2969 590 90 1000 290/09G16 270V350 RMK AO2 RAB00E21 PRESRR P0007 T01670150
03949KAQV AQV20190418183014604/18/19 18:30:31  5-MIN KAQV 190030Z AUTO VRB04G16KT 10SM FEW009 BKN013 OVC023 17/15 A2969 590 90 1000 VRB/04G16 RMK AO2 RAB00E21 P0007 T01670150
03949KAQV AQV20190418183514604/18/19 18:35:31  5-MIN KAQV 190035Z AUTO VRB06KT 10SM FEW009 BKN013 OVC023 17/14 A2970 580 86 900 VRB/06 RMK AO2 RAB00E21 PRESRR P0007 T01670144
03949KAQV AQV20190418184013904/18/19 18:40:31  5-MIN KAQV 190040Z AUTO VRB06KT 10SM BKN013 OVC023 16/14 A2971 570 90 900 VRB/06 RMK AO2 RAB00E21 PRESRR P0007 T01610144
03949KAQV AQV20190418184512904/18/19 18:45:31  5-MIN KAQV 190045Z AUTO 10SM BKN015 OVC023 16/14 A2971 570 90 900 M /M RMK AO2 RAB00E21 PRESRR P0007 T01610144
03949KAQV AQV20190418185013904/18/19 18:50:31  5-MIN KAQV 190050Z AUTO VRB04KT 10SM BKN015 OVC023 16/14 A2972 570 86 900 VRB/04 RMK AO2 RAB00E21 SLP061 P0007 T01610139
03949KAQV AQV20190418185516804/18/19 18:55:31  5-MIN KAQV 190055Z AUTO 33009G15KT 290V010 10SM BKN015 BKN019 OVC023 16/14 A2972 560 90 800 320/09G15 290V010 RMK AO2 RAB00E21 SLP063 P0007 T01560139
03949KAQV AQV20190418190011404/18/19 19:00:31  5-MIN KAQV 190100Z AUTO 10SM SCT015 BKN019 OVC026 16/13 A2973 560 86 800 M /M RMK AO2 T01560133
03949KAQV AQV20190418190514604/18/19 19:05:31  5-MIN KAQV 190105Z AUTO 32009G15KT 280V350 10SM SCT013 BKN019 OVC033 16/13 A2973 550 83 800 320/09G15 280V350 RMK AO2 T01560128
03949KAQV AQV20190418191013704/18/19 19:10:31  5-MIN KAQV 190110Z AUTO 34009G16KT 10SM FEW015 BKN027 OVC035 16/13 A2974 550 83 800 340/09G16 RMK AO2 PRESRR T01560128
03949KAQV AQV20190418191513704/18/19 19:15:31  5-MIN KAQV 190115Z AUTO VRB05G16KT 10SM FEW015 BKN035 OVC055 16/12 A2974 540 80 800 VRB/05G16 RMK AO2 PRESRR T01560122
03949KAQV AQV20190418192013104/18/19 19:20:31  5-MIN KAQV 190120Z AUTO VRB06KT 10SM FEW019 BKN035 OVC070 15/12 A2975 540 83 700 VRB/06 RMK AO2 PRESRR T01500122
03949KAQV AQV20190418192514004/18/19 19:25:31  5-MIN KAQV 190125Z AUTO 33007KT 270V020 10SM FEW026 BKN055 OVC070 15/12 A2975 530 80 700 330/07 270V020 RMK AO2 T01500117
03949KAQV AQV20190418193013104/18/19 19:30:31  5-MIN KAQV 190130Z AUTO VRB05KT 10SM FEW035 SCT055 BKN070 15/12 A2976 520 80 700 VRB/05 RMK AO2 PRESRR T01500117
03949KAQV AQV20190418193513104/18/19 19:35:31  5-MIN KAQV 190135Z AUTO VRB04KT 10SM FEW035 FEW055 BKN070 15/12 A2977 520 83 700 VRB/04 RMK AO2 PRESRR T01500122
03949KAQV AQV20190418194012404/18/19 19:40:31  5-MIN KAQV 190140Z AUTO VRB04KT 10SM FEW055 BKN070 15/12 A2977 510 83 700 VRB/04 RMK AO2 PRESRR T01500122
03949KAQV AQV20190418194511004/18/19 19:45:31  5-MIN KAQV 190145Z AUTO VRB03KT 10SM BKN070 14/12 A2977 510 86 600 VRB/03 RMK AO2 T01440122
03949KAQV AQV20190418195011704/18/19 19:50:31  5-MIN KAQV 190150Z AUTO 00000KT 10SM BKN075 14/12 A2978 510 86 600 000/00 RMK AO2 SLP083 T01440122
03949KAQV AQV20190418195511704/18/19 19:55:31  5-MIN KAQV 190155Z AUTO 32005KT 10SM SCT075 14/12 A2978 510 86 600 320/05 RMK AO2 SLP084 T01440122
03949KAQV AQV20190418200011004/18/19 20:00:31  5-MIN KAQV 190200Z AUTO 00000KT 10SM FEW075 14/12 A2978 500 86 600 000/00 RMK AO2 T01440122
03949KAQV AQV20190418200511004/18/19 20:05:31  5-MIN KAQV 190205Z AUTO VRB04KT 10SM FEW075 14/12 A2979 500 86 600 VRB/04 RMK AO2 T01440122
03949KAQV AQV20190418201013204/18/19 20:10:31  5-MIN KAQV 190210Z AUTO VRB03KT 10SM FE0 000000KT 10SM CLR 13/12 A2983 460 93 300 000/00 RMK AO2 SLP102 T01280117
03949KAQV AQV20190418221510604/18/19 22:15:31  5-MIN KAQV 190415Z AUTO 00000KT 8SM CLR 13/12 A2983 460 93 300 000/00 RMK AO2 T01280117
03949KAQV AQV20190418222010604/18/19 22:20:31  5-MIN KAQV 190420Z AUTO 00000KT 9SM CLR 13/12 A2983 460 93 300 000/00 RMK AO2 T01280117
03949KAQV AQV20190418222510604/18/19 22:25:31  5-MIN KAQV 190425Z AUTO 00000KT 9SM CLR 13/12 A2983 460 93 300 000/00 RMK AO2 T01280117
03949KAQV AQV20190418223010704/18/19 22:30:31  5-MIN KAQV 190430Z AUTO 00000KT 10SM CLR 13/12 A2983 460 93 300 000/00 RMK AO2 T01280117
03949KAQV AQV20190418223510704/18/19 22:35:31  5-MIN KAQV 190435Z AUTO 00000KT 10SM CLR 13/12 A2983 460 93 300 000/00 RMK AO2 T01280117
03949KAQV AQV20190418224010704/18/19 22:40:31  5-MIN KAQV 190440Z AUTO 00000KT 10SM CLR 13/12 A2984 450 93 300 000/00 RMK AO2 T01280117
03949KAQV AQV20190418224510704/18/19 22:45:31  5-MIN KAQV 190445Z AUTO 00000KT 10SM CLR 13/12 A2984 450 93 300 000/00 RMK AO2 T01280117
03949KAQV AQV20190418225011404/18/19 22:50:31  5-MIN KAQV 190450Z AUTO 00000KT 10SM CLR 13/12 A2983 460 93 300 000/00 RMK AO2 SLP102 T01280117
03949KAQV AQV20190418225511404/18/19 22:55:31  5-MIN KAQV 190455Z AUTO VRB03KT 10SM CLR 13/12 A2983 460 93 300 VRB/03 RMK AO2 SLP102 T01280117
03949KAQV AQV20190418230010704/18/19 23:00:31  5-MIN KAQV 190500Z AUTO 00000KT 10SM CLR 13/12 A2984 460 93 300 000/00 RMK AO2 T01280117
03949KAQV AQV20190418230510704/18/19 23:05:31  5-MIN KAQV 190505Z AUTO VRB03KT 10SM CLR 13/12 A2983 460 93 300 VRB/03 RMK AO2 T01280117
03949KAQV AQV20190418231005204/18/19 23:10:31  5-MIN KAQV 190510Z  AO2 T01280117
03949KAQV AQV20190418231010704/18/19 23:10:31  5-MIN KAQV 190510Z AUTO 00000KT 10SM CLR 13/12 A2983 460 93 300 000/00 RMK AO2 T01280117
03949KAQV AQV20190418231510704/18/19 23:15:31  5-MIN KAQV 190515Z AUTO 00000KT 10SM CLR 13/12 A2983 460 93 300 000/00 RMK AO2 T01280117
03949KAQV AQV20190418232010704/18/19 23:20:31  5-MIN KAQV 190520Z AUTO 00000KT 10SM CLR 13/12 A2984 450 93 300 000/00 RMK AO2 T01280117
03949KAQV AQV20190418232510704/18/19 23:25:31  5-MIN KAQV 190525Z AUTO 34003KT 10SM CLR 13/12 A2984 450 93 300 340/03 RMK AO2 T01280117
03949KAQV AQV20190418233010704/18/19 23:30:31  5-MIN KAQV 190530Z AUTO VRB03KT 10SM CLR 13/12 A2984 450 93 300 VRB/03 RMK AO2 T01280117
03949KAQV AQV20190418233510704/18/19 23:35:31  5-MIN KAQV 190535Z AUTO 00000KT 10SM CLR 13/12 A2984 450 93 300 000/00 RMK AO2 T01280117
03949KAQV AQV20190418234010704/18/19 23:40:31  5-MIN KAQV 190540Z AUTO 00000KT 10SM CLR 13/12 A2984 450 93 300 000/00 RMK AO2 T01280117
03949KAQV AQV20190418234510704/18/19 23:45:31  5-MIN KAQV 190545Z AUTO 00000KT 10SM CLR 13/12 A2984 450 93 300 000/00 RMK AO2 T01280117
03949KAQV AQV20190418235014804/18/19 23:50:31  5-MIN KAQV 190550Z AUTO 00000KT 10SM CLR 13/12 A2984 450 93 300 000/00 RMK AO2 SLP103 60007 T01280117 10183 20128 402220128 51052
03949KAQV AQV20190418235514804/18/19 23:55:31  5-MIN KAQV 190555Z AUTO 00000KT 10SM CLR 12/11 A2984 450 93 300 000/00 RMK AO2 SLP103 60007 T01220111 10183 20122 402220122 51052
03949KAQV AQV20190419000010704/19/19 00:00:31  5-MIN KAQV 190600Z AUTO 00000KT 10SM CLR 12/11 A2983 460 93 300 000/00 RMK AO2 T01220111
03949KAQV AQV20190419000510704/19/19 00:05:31  5-MIN KAQV 190605Z AUTO 00000KT 10SM CLR 12/11 A2983 460 93 300 000/00 RMK AO2 T01220111
03949KAQV AQV20190419001010704/19/19 00:10:31  5-MIN KAQV 190610Z AUTO 00000KT 10SM CLR 12/11 A2983 460 93 300 000/00 RMK AO2 T01220111
03949KAQV AQV20190419001510704/19/19 00:15:31  5-MIN KAQV 190615Z AUTO 00000KT 10SM CLR 12/11 A2983 460 93 300 000/00 RMK AO2 T01220111
03949KAQV AQV20190419002010704/19/19 00:20:31  5-MIN KAQV 190620Z AUTO 00000KT 10SM CLR 12/11 A2983 460 93 300 000/00 RMK AO2 T01220111
03949KAQV AQV20190419002510604/19/19 00:25:31  5-MIN KAQV 190625Z AUTO 00000KT 9SM CLR 12/11 A2983 460 93 200 000/00 RMK AO2 T01170106
03949KAQV AQV20190419003010904/19/19 00:30:31  5-MIN KAQV 190630Z AUTO 00000KT 6SM BR CLR 12/11 A2983 460 93 200 000/00 RMK AO2 T01170106
03949KAQV AQV20190419003510904/19/19 00:35:31  5-MIN KAQV 190635Z AUTO 00000KT 6SM BR CLR 12/11 A2983 460 93 200 000/00 RMK AO2 T01170106
03949KAQV AQV20190419004010904/19/19 00:40:31  5-MIN KAQV 190640Z AUTO 00000KT 5SM BR CLR 12/11 A2983 460 93 200 000/00 RMK AO2 T01170106
03949KAQV AQV20190419004510904/19/19 00:45:31  5-MIN KAQV 190645Z AUTO 00000KT 4SM BR CLR 12/11 A2983 460 93 200 000/00 RMK AO2 T01170106
03949KAQV AQV20190419005011604/19/19 00:50:31  5-MIN KAQV 190650Z AUTO 00000KT 4SM BR CLR 12/11 A2983 460 93 200 000/00 RMK AO2 SLP101 T01170106
03949KAQV AQV20190419005511604/19/19 00:55:31  5-MIN KAQV 190655Z AUTO 00000KT 5SM BR CLR 11/11 A2983 460 96 100 000/00 RMK AO2 SLP101 T01110106
03949KAQV AQV20190419010010904/19/19 01:00:31  5-MIN KAQV 190700Z AUTO 00000KT 5SM BR CLR 11/10 A2983 460 93 100 000/00 RMK AO2 T01110100
03949KAQV AQV20190419010510904/19/19 01:05:31  5-MIN KAQV 190705Z AUTO 00000KT 5SM BR CLR 11/10 A2983 460 93 100 000/00 RMK AO2 T01110100
03949KAQV AQV20190419011010904/19/19 01:10:31  5-MIN KAQV 190710Z AUTO 00000KT 6SM BR CLR 11/10 A2982 470 93 200 000/00 RMK AO2 T01110100
03949KAQV AQV20190419011510904/19/19 01:15:31  5-MIN KAQV 190715Z AUTO 00000KT 5SM BR CLR 11/10 A2982 470 93 200 000/00 RMK AO2 T01110100
03949KAQV AQV20190419012010904/19/19 01:20:31  5-MIN KAQV 190720Z AUTO 00000KT 6SM BR CLR 11/10 A2982 460 93 200 000/00 RMK AO2 T01110100
03949KAQV AQV20190419012510604/19/19 01:25:31  5-MIN KAQV 190725Z AUTO 00000KT 9SM CLR 11/10 A2982 470 93 200 000/00 RMK AO2 T01110100
03949KAQV AQV20190419013010604/19/19 01:30:31  5-MIN KAQV 190730Z AUTO 00000KT 9SM CLR 11/10 A2982 470 93 200 000/00 RMK AO2 T01110100
03949KAQV AQV20190419013510604/19/19 01:35:31  5-MIN KAQV 190735Z AUTO 00000KT 8SM CLR 11/10 A2982 470 93 200 000/00 RMK AO2 T01110100
03949KAQV AQV20190419014010604/19/19 01:40:31  5-MIN KAQV 190740Z AUTO 00000KT 7SM CLR 11/10 A2982 470 93 200 000/00 RMK AO2 T01110100
03949KAQV AQV20190419014510604/19/19 01:45:31  5-MIN KAQV 190745Z AUTO 00000KT 7SM CLR 11/10 A2982 470 93 200 000/00 RMK AO2 T01110100
03949KAQV AQV20190419015011404/19/19 01:50:31  5-MIN KAQV 190750Z AUTO 00000KT 10SM CLR 11/10 A2982 470 93 200 000/00 RMK AO2 SLP097 T01110100
03949KAQV AQV20190419015511304/19/19 01:55:31  5-MIN KAQV 190755Z AUTO 00000KT 9SM CLR 11/10 A2982 470 93 200 000/00 RMK AO2 SLP097 T01110100
03949KAQV AQV20190419020010904/19/19 02:00:31  5-MIN KAQV 190800Z AUTO 00000KT 6SM BR CLR 11/10 A2982 470 93 200 000/00 RMK AO2 T01110100
03949KAQV AQV20190419020510904/19/19 02:05:31  5-MIN KAQV 190805Z AUTO 00000KT 6SM BR CLR 11/10 A2982 470 93 200 000/00 RMK AO2 T01110100
03949KAQV AQV20190419021011204/19/19 02:10:31  5-MIN KAQV 190810Z AUTO 00000KT 6SM BR FEW090 11/10 A2982 470 93 200 000/00 RMK AO2 T01110100
03949KAQV AQV20190419021511204/19/19 02:15:31  5-MIN KAQV 190815Z AUTO 00000KT 5SM BR FEW090 11/09 A2981 470 93 100 000/00 RMK AO2 T01060094
03949KAQV AQV20190419022011204/19/19 02:20:31  5-MIN KAQV 190820Z AUTO 00000KT 5SM BR FEW095 11/09 A2982 470 93 100 000/00 RMK AO2 T01060094
03949KAQV AQV20190419022511204/19/19 02:25:31  5-MIN KAQV 190825Z AUTO 00000KT 5SM BR SCT100 11/09 A2982 470 93 100 000/00 RMK AO2 T01060094
03949KAQV AQV20190419023011204/19/19 02:30:31  5-MIN KAQV 190830Z AUTO 00000KT 5SM BR BKN095 11/09 A2982 470 93 100 000/00 RMK AO2 T01060094
03949KAQV AQV20190419023511204/19/19 02:35:31  5-MIN KAQV 190835Z AUTO 00000KT 5SM BR BKN100 11/09 A2982 470 93 100 000/00 RMK AO2 T01060094
03949KAQV AQV20190419024011204/19/19 02:40:31  5-MIN KAQV 190840Z AUTO 00000KT 5SM BR BKN100 11/10 A2982 470 96 100 000/00 RMK AO2 T01060100
03949KAQV AQV20190419024511904/19/19 02:45:31  5-MIN KAQV 190845Z AUTO 00000KT 5SM BR FEW037 BKN100 11/10 A2982 470 96 100 000/00 RMK AO2 T01060100
03949KAQV AQV20190419025013204/19/19 02:50:31  5-MIN KAQV 190850Z AUTO 00000KT 5SM BR FEW037 OVC100 11/10 A2982 470 93 200 000/00 RMK AO2 SLP096 T01110100 51007
03949KAQV AQV20190419025513204/19/19 02:55:31  5-MIN KAQV 190855Z AUTO 00000KT 5SM BR SCT037 OVC110 11/10 A2982 470 93 200 000/00 RMK AO2 SLP096 T01110100 51007
03949KAQV AQV20190419030011904/19/19 03:00:31  5-MIN KAQV 190900Z AUTO 00000KT 5SM BR BKN035 OVC110 11/10 A2982 470 93 200 000/00 RMK AO2 T01110100
03949KAQV AQV20190419030511904/19/19 03:05:31  5-MIN KAQV 190905Z AUTO 00000KT 5SM BR BKN035 OVC110 11/10 A2982 470 93 200 000/00 RMK AO2 T01110100
03949KAQV AQV20190419031011904/19/19 03:10:31  5-MIN KAQV 190910Z AUTO 00000KT 5SM BR BKN035 OVC110 11/11 A2982 470 96 200 000/00 RMK AO2 T01110106
03949KAQV AQV20190419031511904/19/19 03:15:31  5-MIN KAQV 190915Z AUTO 00000KT 6SM BR BKN035 OVC110 11/11 A2982 470 96 200 000/00 RMK AO2 T01110106
03949KAQV AQV20190419032011904/19/19 03:20:31  5-MIN KAQV 190920Z AUTO 00000KT 6SM BR BKN035 OVC090 11/10 A2982 470 93 200 000/00 RMK AO2 T01110100
03949KAQV AQV20190419032511904/19/19 03:25:31  5-MIN KAQV 190925Z AUTO 00000KT 6SM BR BKN035 OVC090 11/11 A2982 470 96 200 000/00 RMK AO2 T01110106
03949KAQV AQV20190419033007604/19/19 03:30:31  5-MIN KAQV 190930Z AUTO 00000KT 8SM BKN035 OVC09T01110100
03949KAQV AQV20190419051516004/19/19 05:15:31  5-MIN KAQV 191115Z AUTO 00000KT 6SM BR FEW029 SCT110 11/10 A2983 460 93 100 000/00 RMK AO2 T01110100A2983 460 93 100 000/00 RMK AO2 T01110100
03949KAQV AQV20190419052511904/19/19 05:25:31  5-MIN KAQV 191125Z AUTO 00000KT 6SM BR FEW030 SCT110 11/10 A2983 460 96 100 000/00 RMK AO2 T01060100
03949KAQV AQV20190419053011904/19/19 05:30:31  5-MIN KAQV 191130Z AUTO 00000KT 5SM BR FEW030 BKN110 11/10 A2984 450 96 100 000/00 RMK AO2 T01060100
03949KAQV AQV20190419053511904/19/19 05:35:31  5-MIN KAQV 191135Z AUTO 00000KT 4SM BR FEW030 BKN110 11/10 A2984 450 96 100 000/00 RMK AO2 T01060100
03949KAQV AQV20190419054011904/19/19 05:40:31  5-MIN KAQV 191140Z AUTO 00000KT 5SM BR FEW030 BKN110 11/09 A2984 450 93 100 000/00 RMK AO2 T01060094
03949KAQV AQV20190419054013904/19/19 05:40:31  5-MIN KAQV 191140Z AUTO 00000KT 5SM BR FEW030 BKN110 11/09 A2984 450 93 100 000/0983 460 93 100 000/00 RMK AO2 T01110100
03949KAQV AQV20190419054511904/19/19 05:45:31  5-MIN KAQV 191145Z AUTO 00000KT 6SM BR FEW028 BKN110 11/09 A2984 450 93 100 000/00 RMK AO2 T01060094
03949KAQV AQV20190419055014004/19/19 05:50:31  5-MIN KAQV 191150Z AUTO 00000KT 8SM BKN110 11/10 A2985 450 96 100 000/00 RMK AO2 SLP106 70134 T01060100 10122 20106 57007
03949KAQV AQV20190419055514104/19/19 05:55:31  5-MIN KAQV 191155Z AUTO 00000KT 10SM OVC100 11/10 A2985 440 93 100 000/00 RMK AO2 SLP106 70134 T01110100 10122 20106 57007
03949KAQV AQV20190419055518804/19/19 05:55:31  5-MIN KAQV 191155Z AUTO 00000KT 10SM OVC100 11/10 A2985 440 93 100 000/00 RMK AO2 SLP106 70134 T01110100 10122 20106 5700711/09 A2984 450 93 100 000/00 RMK AO2 T01060094
03949KAQV AQV20190419060011004/19/19 06:00:31  5-MIN KAQV 191200Z AUTO 00000KT 10SM OVC100 11/10 A2985 440 93 100 000/00 RMK AO2 T01110100
03949KAQV AQV20190419060511004/19/19 06:05:31  5-MIN KAQV 191205Z AUTO 00000KT 10SM OVC100 11/10 A2986 430 93 100 000/00 RMK AO2 T01110100
03949KAQV AQV20190419061011704/19/19 06:10:31  5-MIN KAQV 191210Z AUTO 00000KT 10SM FEW080 OVC110 11/10 A2986 430 93 100 000/00 RMK AO2 T01110100
03949KAQV AQV20190419061511704/19/19 06:15:31  5-MIN KAQV 191215Z AUTO 28003KT 10SM SCT085 OVC100 11/10 A2986 430 93 100 280/03 RMK AO2 T01110100
03949KAQV AQV20190419062011704/19/19 06:20:31  5-MIN KAQV 191220Z AUTO 00000KT 10SM SCT090 OVC110 11/10 A2986 430 93 100 000/00 RMK AO2 T01110100
03949KAQV AQV20190419062015004/19/19 06:20:31  5-MIN KAQV 191220Z AUTO 00000KT 10SM SCT090 OVC110 11/10 A2986 430 93 100 000/0C100 11/10 A2985 440 93 100 000/00 RMK AO2 T01110100
03949KAQV AQV20190419062511004/19/19 06:25:31  5-MIN KAQV 191225Z AUTO VRB03KT 10SM OVC100 11/10 A2987 420 93 100 VRB/03 RMK AO2 T01110100
03949KAQV AQV20190419063011004/19/19 06:30:31  5-MIN KAQV 191230Z AUTO VRB03KT 10SM OVC100 12/10 A2987 420 89 200 VRB/03 RMK AO2 T01170100
03949KAQV AQV20190419063511704/19/19 06:35:31  5-MIN KAQV 191235Z AUTO 00000KT 10SM BKN090 OVC100 12/10 A2987 420 89 200 000/00 RMK AO2 T01170100
03949KAQV AQV20190419064011004/19/19 06:40:31  5-MIN KAQV 191240Z AUTO 00000KT 10SM OVC095 12/10 A2987 420 89 200 000/00 RMK AO2 T01170100
03949KAQV AQV20190419064015704/19/19 06:40:31  5-MIN KAQV 191240Z AUTO 00000KT 10SM OVC095 12/10 A2987 420 89 200 00KT 10SM SCT090 OVC110 11/10 A2986 430 93 100 000/00 RMK AO2 T01110100
03949KAQV AQV20190419064511004/19/19 06:45:31  5-MIN KAQV 191245Z AUTO VRB03KT 10SM OVC100 12/10 A2988 420 89 200 VRB/03 RMK AO2 T01170100
03949KAQV AQV20190419065012404/19/19 06:50:31  5-MIN KAQV 191250Z AUTO VRB03KT 10SM BKN085 OVC100 12/11 A2988 410 89 200 VRB/03 RMK AO2 SLP117 T01220106
03949KAQV AQV20190419065512404/19/19 06:55:31  5-MIN KAQV 191255Z AUTO VRB03KT 10SM BKN085 OVC100 12/10 A2989 410 89 100 VRB/03 RMK AO2 SLP119 T01170100
03949KAQV AQV20190419065518504/19/19 06:55:31  5-MIN KAQV 191255Z AUTO VRB03KT 10SM BKN085 OVC100 12/10 A2989 410 89 100 VRB/03 RMK AO2 SLP119 T01170100410 89 100 280/03 RMK AO2 T0117010004/19/19 RMK AO2 T01170100
03949KAQV AQV20190419070011004/19/19 07:00:31  5-MIN KAQV 191300Z AUTO 28003KT 10SM OVC085 12/10 A2989 410 89 100 280/03 RMK AO2 T01170100
03949KAQV AQV20190419070511004/19/19 07:05:31  5-MIN KAQV 191305Z AUTO VRB03KT 10SM OVC085 12/10 A2989 410 89 100 VRB/03 RMK AO2 T01170100
03949KAQV AQV20190419071011004/19/19 07:10:31  5-MIN KAQV 191310Z AUTO 00000KT 10SM OVC080 12/10 A2989 410 89 100 000/00 RMK AO2 T01170100
03949KAQV AQV20190419071511004/19/19 07:15:31  5-MIN KAQV 191315Z AUTO VRB04KT 10SM OVC080 12/10 A2989 410 86 200 VRB/04 RMK AO2 T01220100
03949KAQV AQV20190419072011004/19/19 07:20:31  5-MIN KAQV 191320Z AUTO VRB03KT 10SM OVC080 12/10 A2989 410 86 200 VRB/03 RMK AO2 T01220100
03949KAQV AQV20190419072511704/19/19 07:25:31  5-MIN KAQV 191325Z AUTO VRB04KT 10SM BKN080 OVC100 12/10 A2989 400 86 200 VRB/04 RMK AO2 T01220100
03949KAQV AQV20190419073011704/19/19 07:30:31  5-MIN KAQV 191330Z AUTO VRB03KT 10SM BKN080 OVC100 12/10 A2989 400 86 200 VRB/03 RMK AO2 T01220100
03949KAQV AQV20190419073511704/19/19 07:35:31  5-MIN KAQV 191335Z AUTO VRB04KT 10SM BKN080 OVC110 12/10 A2990 400 86 200 VRB/04 RMK AO2 T01220100
03949KAQV AQV20190419074011704/19/19 07:40:31  5-MIN KAQV 191340Z AUTO VRB03KT 10SM BKN080 OVC110 13/11 A2990 400 86 300 VRB/03 RMK AO2 T01280106
03949KAQV AQV20190419074511704/19/19 07:45:31  5-MIN KAQV 191345Z AUTO VRB04KT 10SM BKN080 OVC110 13/10 A2990 400 83 300 VRB/04 RMK AO2 T01280100
03949KAQV AQV20190419075012404/19/19 07:50:31  5-MIN KAQV 191350Z AUTO VRB04KT 10SM BKN080 OVC100 13/11 A2990 390 83 300 VRB/04 RMK AO2 SLP124 T01330106
03949KAQV AQV20190419075512404/19/19 07:55:31  5-MIN KAQV 191355Z AUTO VRB04KT 10SM BKN080 OVC110 13/10 A2990 400 83 300 VRB/04 RMK AO2 SLP124 T01280100
03949KAQV AQV20190419080011704/19/19 08:00:31  5-MIN KAQV 191400Z AUTO VRB03KT 10SM BKN080 BKN110 13/10 A2990 400 83 300 VRB/03 RMK AO2 T01280100
03949KAQV AQV20190419080511704/19/19 08:05:31  5-MIN KAQV 191405Z AUTO VRB03KT 10SM BKN080 BKN110 13/11 A2990 400 83 300 VRB/03 RMK AO2 T01330106
03949KAQV AQV20190419081011004/19/19 08:10:31  5-MIN KAQV 191410Z AUTO VRB05KT 10SM BKN080 13/10 A2990 400 80 300 VRB/05 RMK AO2 T01330100
03949KAQV AQV20190419081511704/19/19 08:15:31  5-MIN KAQV 191415Z AUTO VRB05KT 10SM BKN080 BKN090 13/09 A2990 400 77 300 VRB/05 RMK AO2 T01330094
03949KAQV AQV20190419082011704/19/19 08:20:31  5-MIN KAQV 191420Z AUTO VRB04KT 10SM BKN080 BKN090 13/09 A2990 400 77 300 VRB/04 RMK AO2 T01330094
03949KAQV AQV20190419082511704/19/19 08:25:31  5-MIN KAQV 191425Z AUTO VRB05KT 10SM BKN080 BKN100 13/10 A2990 390 80 300 VRB/05 RMK AO2 T01330100
03949KAQV AQV20190419083011704/19/19 08:30:31  5-MIN KAQV 191430Z AUTO VRB03KT 10SM BKN080 BKN100 14/10 A2990 390 77 400 VRB/03 RMK AO2 T01390100
03949KAQV AQV20190419083511704/19/19 08:35:31  5-MIN KAQV 191435Z AUTO VRB05KT 10SM BKN075 BKN100 14/10 A2990 390 74 500 VRB/05 RMK AO2 T01440100
03949KAQV AQV20190419084011704/19/19 08:40:31  5-MIN KAQV 191440Z AUTO VRB04KT 10SM BKN075 BKN100 14/09 A2990 390 74 400 VRB/04 RMK AO2 T01390094
03949KAQV AQV20190419084510704/19/19 08:45:31  5-MIN KAQV 191445Z AUTO 10SM BKN075 BKN100 14/09 A2990 390 72 500 M /M RMK AO2 T01440094
03949KAQV AQV20190419085013004/19/19 08:50:31  5-MIN KAQV 191450Z AUTO VRB03KT 10SM SCT070 BKN100 15/10 A2991 390 72 500 VRB/03 RMK AO2 SLP126 T01500100 53011
03949KAQV AQV20190419085512304/19/19 08:55:31  5-MIN KAQV 191455Z AUTO VRB05KT 10SM SCT070 16/09 A2991 390 67 600 VRB/05 RMK AO2 SLP127 T01560094 53011
03949KAQV AQV20190419090011704/19/19 09:00:31  5-MIN KAQV 191500Z AUTO VRB05KT 10SM SCT070 SCT085 16/09 A2991 390 67 600 VRB/05 RMK AO2 T01560094
03949KAQV AQV20190419090513304/19/19 09:05:31  5-MIN KAQV 191505Z AUTO 35007KT 320V040 10SM FEW070 BKN085 16/09 A2991 380 67 600 340/07 320V040 RMK AO2 T01560094
03949KAQV AQV20190419091011704/19/19 09:10:31  5-MIN KAQV 191510Z AUTO VRB03KT 10SM FEW070 BKN090 16/09 A2991 380 67 600 VRB/03 RMK AO2 T01560094
03949KAQV AQV20190419091511704/19/19 09:15:31  5-MIN KAQV 191515Z AUTO 34005KT 10SM FEW075 BKN090 16/09 A2991 380 62 600 330/05 RMK AO2 T01610089
03949KAQV AQV20190419092011704/19/19 09:20:31  5-MIN KAQV 191520Z AUTO VRB05KT 10SM FEW075 BKN090 17/09 A2991 380 60 700 VRB/05 RMK AO2 T01670089
03949KAQV AQV20190419092511704/19/19 09:25:31  5-MIN KAQV 191525Z AUTO VRB04KT 10SM FEW028 BKN085 16/09 A2991 380 64 600 VRB/04 RMK AO2 T01610094
03949KAQV AQV20190419093010704/19/19 09:30:31  5-MIN KAQV 191530Z AUTO 10SM FEW030 OVC085 16/09 A2992 380 62 600 M /M RMK AO2 T01610089
03949KAQV AQV20190419093513804/19/19 09:35:31  5-MIN KAQV 191535Z AUTO 28007KT 250V320 10SM FEW030 FEW038 OVC085 16/09 A2992 380 62 600 280/07 2K AO2 SLP132 T01670089
03949KAQV AQV20190419093514004/19/19 09:35:31  5-MIN KAQV 191535Z AUTO 28007KT 250V320 10SM FEW030 FEW038 OVC085 16/09 A2992 380 62 600 280/07 250V320 RMK AO2 T01610089
03949KAQV AQV20190419094012404/19/19 09:40:31  5-MIN KAQV 191540Z AUTO VRB06KT 10SM FEW030 FEW038 BKN085 16/08 A2992 380 59 600 VRB/06 RMK AO2 T01610083
03949KAQV AQV20190419094512304/19/19 09:45:31  5-MIN KAQV 191545Z AUTO 27009G15KT 10SM FEW030 SCT085 17/09 A2992 380 62 700 270/09G15 RMK AO2 T01670094
03949KAQV AQV20190419100011704/19/19 10:00:31  5-MIN KAQV 191600Z AUTO 33006KT 10SM FEW036 FEW080 17/09 A2992 370 57 800 320/06 RMK AO2 T01720089
03949KAQV AQV20190419100512604/19/19 10:05:31  5-MIN KAQV 191605Z AUTO 35008KT 300V020 10SM FEW038 18/08 A2992 370 53 800 350/08 300V020 RMK AO2 T01780083
03949KAQV AQV20190419101011004/19/19 10:10:31  5-MIN KAQV 191610Z AUTO VRB05KT 10SM FEW040 18/08 A2993 370 53 800 VRB/05 RMK AO2 T01780083
03949KAQV AQV20190419163513904/19/19 16:35:31  5-MIN KAQV 192235Z AUTO VRB05KT 10SM SCFEW055 FEW080 17/06 A2990 400 47 800 320/08G14 280V350 RMK AO2 SLP123 T01720061 $
03949KAQV AQV20190419170012504/19/19 17:00:31  5-MIN KAQV 192300Z AUTO VRB04G14KT 10SM FEW055 FEW080 17/06 A2990 400 46 800 VRB/04G14 RMK AO2 T01720056 $
03949KAQV AQV20190419170510204/19/19 17:05:31  5-MIN KAQV 192305Z AUTO 10SM FEW060 17/05 A2990 400 44 800 M /M RMK AO2 T01720050 $
03949KAQV AQV20190419171011904/19/19 17:10:31  5-MIN KAQV 192310Z AUTO VRB06KT 10SM FEW065 FEW080 18/05 A2990 400 42 900 VRB/06 RMK AO2 T01780050 $
03949KAQV AQV20190419171511204/19/19 17:15:31  5-MIN KAQV 192315Z AUTO VRB06KT 10SM FEW070 18/05 A2990 390 42 900 VRB/06 RMK AO2 T01780050 $
03949KAQV AQV20190419172012804/19/19 17:20:31  5-MIN KAQV 192320Z AUTO 32007KT 280V350 10SM FEW070 18/05 A2990 390 42 800 310/07 280V350 RMK AO2 T01780050 $
03949KAQV AQV20190419172511204/19/19 17:25:31  5-MIN KAQV 192325Z AUTO VRB05KT 10SM FEW070 17/05 A2991 390 44 800 VRB/05 RMK AO2 T01720050 $
03949KAQV AQV20190419173011904/19/19 17:30:31  5-MIN KAQV 192330Z AUTO VRB04KT 10SM FEW070 FEW085 17/05 A2991 390 44 800 VRB/04 RMK AO2 T01720050 $
03949KAQV AQV20190419173511904/19/19 17:35:31  5-MIN KAQV 192335Z AUTO VRB06KT 10SM FEW070 FEW085 17/05 A2991 390 44 800 VRB/06 RMK AO2 T01720050 $
03949KAQV AQV20190419174011204/19/19 17:40:31  5-MIN KAQV 192340Z AUTO VRB05KT 10SM FEW065 17/05 A2991 390 45 700 VRB/05 RMK AO2 T01670050 $
03949KAQV AQV20190419174510904/19/19 17:45:31  5-MIN KAQV 192345Z AUTO VRB04KT 10SM CLR 17/05 A2991 390 45 700 VRB/04 RMK AO2 T01670050 $
03949KAQV AQV20190419175013404/19/19 17:50:31  5-MIN KAQV 192350Z AUTO 00000KT 10SM CLR 17/05 A2991 390 45 700 000/00 RMK AO2 SLP128 6//// T01670050 10189 20122 $
03949KAQV AQV20190419175513404/19/19 17:55:31  5-MIN KAQV 192355Z AUTO VRB05KT 10SM CLR 17/05 A2991 380 45 700 VRB/05 RMK AO2 SLP128 6//// T01670050 10189 20122 $
03949KAQV AQV20190419180010904/19/19 18:00:31  5-MIN KAQV 200000Z AUTO VRB04KT 10SM CLR 17/05 A2991 380 45 700 VRB/04 RMK AO2 T01670050 $
03949KAQV AQV20190419180510904/19/19 18:05:31  5-MIN KAQV 200005Z AUTO VRB05KT 10SM CLR 17/05 A2991 380 45 700 VRB/05 RMK AO2 T01670050 $
03949KAQV AQV20190419181012504/19/19 18:10:31  5-MIN KAQV 200010Z AUTO 32007KT 270V050 10SM CLR 16/04 A2991 380 45 600 320/07 270V050 RMK AO2 T01610044 $
03949KAQV AQV20190419181509904/19/19 18:15:31  5-MIN KAQV 200015Z AUTO 10SM CLR 16/04 A2992 380 45 600 M /M RMK AO2 T01610044 $
03949KAQV AQV20190419182010904/19/19 18:20:31  5-MIN KAQV 200020Z AUTO VRB04KT 10SM CLR 16/05 A2992 380 47 600 VRB/04 RMK AO2 T01610050 $
03949KAQV AQV20190419182510904/19/19 18:25:31  5-MIN KAQV 200025Z AUTO VRB03KT 10SM CLR 16/05 A2992 380 49 600 VRB/03 RMK AO2 T01560050 $
03949KAQV AQV20190419183010904/19/19 18:30:31  5-MIN KAQV 200030Z AUTO VRB03KT 10SM CLR 16/05 A2992 380 59 300 VRB/04 RMK AO2 T01330056 $
03949KAQV AQV20190419201510904/19/19 20:15:31  5-MIN KAQV 200215Z AUTO 27003KT 10SM CLR 13/06 A2995 340 63 200 270/03 RMK AO2 T01280061 $
03949KAQV AQV20190419202010904/19/19 20:20:31  5-MIN KAQV 200220Z AUTO 00000KT 10SM CLR 13/06 A2996 340 61 300 000/00 RMK AO2 T01330061 $
03949KAQV AQV20190419202510904/19/19 20:25:31  5-MIN KAQV 200225Z AUTO VRB04KT 10SM CLR 13/06 A2996 340 63 200 VRB/04 RMK AO2 T01280061 $
03949KAQV AQV20190419203010904/19/19 20:30:31  5-MIN KAQV 200230Z AUTO 28003KT 10SM CLR 13/06 A2996 340 63 200 280/03 RMK AO2 T01280061 $
03949KAQV AQV20190419203510904/19/19 20:35:31  5-MIN KAQV 200235Z AUTO VRB03KT 10SM CLR 13/06 A2996 340 59 300 VRB/03 RMK AO2 T01330056 $
03949KAQV AQV20190419204010904/19/19 20:40:31  5-MIN KAQV 200240Z AUTO VRB03KT 10SM CLR 13/06 A2996 340 61 300 VRB/03 RMK AO2 T01330061 $
03949KAQV AQV20190419204510904/19/19 20:45:31  5-MIN KAQV 200245Z AUTO VRB03KT 10SM CLR 13/06 A2996 340 59 300 VRB/03 RMK AO2 T01330056 $
03949KAQV AQV20190419205012204/19/19 20:50:31  5-MIN KAQV 200250Z AUTO 28003KT 10SM CLR 13/06 A2997 330 59 300 270/03 RMK AO2 SLP148 T01330056 53008 $
03949KAQV AQV20190419205512204/19/19 20:55:31  5-MIN KAQV 200255Z AUTO VRB03KT 10SM CLR 13/06 A2997 330 59 300 VRB/03 RMK AO2 SLP148 T01330056 53008 $
03949KAQV AQV20190419210010904/19/19 21:00:31  5-MIN KAQV 200300Z AUTO VRB03KT 10SM CLR 13/06 A2997 330 59 300 VRB/03 RMK AO2 T01330056 $
03949KAQV AQV20190419210510904/19/19 21:05:31  5-MIN KAQV 200305Z AUTO VRB04KT 10SM CLR 13/06 A2997 330 59 300 VRB/04 RMK AO2 T01330056 $
03949KAQV AQV20190419211010904/19/19 21:10:31  5-MIN KAQV 200310Z AUTO VRB04KT 10SM CLR 13/06 A2997 330 59 300 VRB/04 RMK AO2 T01330056 $
03949KAQV AQV20190419211510904/19/19 21:15:31  5-MIN KAQV 200315Z AUTO VRB03KT 10SM CLR 13/06 A2997 330 63 200 VRB/03 RMK AO2 T01280061 $
03949KAQV AQV20190419212010904/19/19 21:20:31  5-MIN KAQV 200320Z AUTO VRB03KT 10SM CLR 13/06 A2997 330 63 200 VRB/03 RMK AO2 T01280061 $
03949KAQV AQV20190419212510904/19/19 21:25:31  5-MIN KAQV 200325Z AUTO VRB04KT 10SM CLR 13/06 A2997 330 63 200 VRB/04 RMK AO2 T01280061 $
03949KAQV AQV20190419213010904/19/19 21:30:31  5-MIN KAQV 200330Z AUTO VRB03KT 10SM CLR 13/06 A2997 330 63 200 VRB/03 RMK AO2 T01280061 $
03949KAQV AQV20190419213510904/19/19 21:35:31  5-MIN KAQV 200335Z AUTO 27003KT 10SM CLR 13/06 A2997 330 63 200 270/03 RMK AO2 T01280061 $
03949KAQV AQV20190419214010904/19/19 21:40:31  5-MIN KAQV 200340Z AUTO 27004KT 10SM CLR 13/06 A2997 330 63 200 270/04 RMK AO2 T01280061 $
03949KAQV AQV20190419214510904/19/19 21:45:31  5-MIN KAQV 200345Z AUTO VRB03KT 10SM CLR 13/06 A2997 330 63 200 VRB/03 RMK AO2 T01280061 $
03949KAQV AQV20190419215011604/19/19 21:50:31  5-MIN KAQV 200350Z AUTO VRB04KT 10SM CLR 13/06 A2997 330 63 200 VRB/04 RMK AO2 SLP150 T01280061 $
03949KAQV AQV20190419215511604/19/19 21:55:31  5-MIN KAQV 200355Z AUTO VRB04KT 10SM CLR 13/06 A2998 330 63 200 VRB/04 RMK AO2 SLP150 T01280061 $
03949KAQV AQV20190419220010904/19/19 22:00:31  5-MIN KAQV 200400Z AUTO 27004KT 10SM CLR 13/06 A2998 320 63 200 270/04 RMK AO2 T01280061 $
03949KAQV AQV20190419220510904/19/19 22:05:31  5-MIN KAQV 200405Z AUTO 00000KT 10SM CLR 13/06 A2998 320 61 200 000/00 RMK AO2 T01330061 $
03949KAQV AQV20190419221011204/19/19 22:10:31  5-MIN KAQV 200410Z AUTO VRB03KT 10SM FEW080 13/06 A2998 320 63 200 VRB/03 RMK AO2 T01280061 $
03949KAQV AQV20190419221511204/19/19 22:15:31  5-MIN KAQV 200415Z AUTO VRB05KT 10SM FEW080 13/06 A2998 320 63 200 VRB/05 RMK AO2 T01280061 $
03949KAQV AQV20190419222011204/19/19 22:20:31  5-MIN KAQV 200420Z AUTO VRB04KT 10SM FEW080 13/06 A2998 320 61 200 VRB/04 RMK AO2 T01330061 $
03949KAQV AQV20190419222511204/19/19 22:25:31  5-MIN KAQV 200425Z AUTO 27004KT 10SM FEW080 13/06 A2998 320 63 200 270/04 RMK AO2 T01280061 $
03949KAQV AQV20190419223011204/19/19 22:30:31  5-MIN KAQV 200430Z AUTO 26003KT 10SM FEW080 13/06 A2998 320 63 200 260/03 RMK AO2 T01280061 $
03949KAQV AQV20190419223511204/19/19 22:35:31  5-MIN KAQV 200435Z AUTO VRB03KT 10SM FEW080 13/06 A2998 320 63 200 VRB/03 RMK AO2 T01280061 $
03949KAQV AQV20190419224011204/19/19 22:40:31  5-MIN KAQV 200440Z AUTO VRB03KT 10SM FEW080 13/06 A2998 320 63 200 VRB/03 RMK AO2 T01280061 $
03949KAQV AQV20190419224511204/19/19 22:45:31  5-MIN KAQV 200445Z AUTO VRB03KT 10SM FEW080 13/06 A2998 320 63 200 VRB/03 RMK AO2 T01280061 $
03949KAQV AQV20190419225011904/19/19 22:50:31  5-MIN KAQV 200450Z AUTO VRB03KT 10SM SCT080 13/06 A2998 320 63 200 VRB/03 RMK AO2 SLP152 T01280061 $
03949KAQV AQV20190419225511904/19/19 22:55:31  5-MIN KAQV 200455Z AUTO VRB03KT 10SM SCT080 13/06 A2998 320 61 200 VRB/03 RMK AO2 SLP152 T01280056 $
03949KAQV AQV20190419230011204/19/19 23:00:31  5-MIN KAQV 200500Z AUTO VRB03KT 10SM SCT080 13/06 A2998 320 63 200 VRB/03 RMK AO2 T01280061 $
03949KAQV AQV20190419230511204/19/19 23:05:31  5-MIN KAQV 200505Z AUTO VRB04KT 10SM BKN080 13/06 A2998 320 63 200 VRB/04 RMK AO2 T01280061 $
03949KAQV AQV20190419231011204/19/19 23:10:31  5-MIN KAQV 200510Z AUTO VRB04KT 10SM BKN080 13/06 A2998 320 61 200 VRB/04 RMK AO2 T01280056 $
03949KAQV AQV20190419231511204/19/19 23:15:31  5-MIN KAQV 200515Z AUTO VRB03KT 10SM BKN080 13/06 A2998 320 63 200 VRB/03 RMK AO2 T01280061 $
03949KAQV AQV20190419232011204/19/19 23:20:31  5-MIN KAQV 200520Z AUTO VRB04KT 10SM BKN080 13/06 A2998 320 59 200 VRB/04 RMK AO2 T01330056 $
03949KAQV AQV20190419232511204/19/19 23:25:31  5-MIN KAQV 200525Z AUTO VRB04KT 10SM BKN080 13/06 A2998 320 63 200 VRB/04 RMK AO2 T01280061 $
03949KAQV AQV20190419233011204/19/19 23:30:31  5-MIN KAQV 200530Z AUTO VRB03KT 10SM BKN080 13/06 A2998 320 63 200 VRB/03 RMK AO2 T01280061 $
03949KAQV AQV20190419233511204/19/19 23:35:31  5-MIN KAQV 200535Z AUTO 27003KT 10SM BKN080 13/06 A2998 320 63 200 270/03 RMK AO2 T01280061 $
03949KAQV AQV20190419234011204/19/19 23:40:31  5-MIN KAQV 200540Z AUTO 00000KT 10SM BKN080 13/06 A2998 320 63 200 000/00 RMK AO2 T01280061 $
03949KAQV AQV20190419234510204/19/19 23:45:31  5-MIN KAQV 200545Z AUTO 10SM BKN080 13/06 A2998 320 63 200 M /M RMK AO2 T01280061 $
03949KAQV AQV20190419235014704/19/19 23:50:31  5-MIN KAQV 200550Z AUTO VRB03KT 10SM BKN080 13/06 A2998 320 63 200 VRB/03 RMK AO2 SLP152 T01280061 10167 20128 401890106 53019 $
03949KAQV AQV20190419235514704/19/19 23:55:31  5-MIN KAQV 200555Z AUTO VRB04KT 10SM BKN080 13/06 A2998 320 63 200 VRB/04 RMK AO2 SLP152 T01280061 10167 20128 401890106 53019 $
03949KAQV AQV20190420000011204/20/19 00:00:31  5-MIN KAQV 200600Z AUTO VRB04KT 10SM BKN080 13/06 A2998 320 63 200 VRB/04 RMK AO2 T01280061 $
03949KAQV AQV20190420000511204/20/19 00:05:31  5-MIN KAQV 200605Z AUTO VRB04KT 10SM BKN080 12/06 A2998 320 66 100 VRB/04 RMK AO2 T01220061 $
03949KAQV AQV20190420001011204/20/19 00:10:31  5-MIN KAQV 200610Z AUTO VRB04KT 10SM BKN080 12/06 A2998 320 66 100 VRB/04 RMK AO2 T01220061 $
03949KAQV AQV20190420001511204/20/19 00:15:31  5-MIN KAQV 200615Z AUTO 27004KT 10SM SCT080 12/06 A2999 320 66 100 270/04 RMK AO2 T01220061 $
03949KAQV AQV20190420002011204/20/19 00:20:31  5-MIN KAQV 200620Z AUTO VRB04KT 10SM SCT080 12/06 A2999 320 66 100 VRB/04 RMK AO2 T01220061 $
03949KAQV AQV20190420002511204/20/19 00:25:31  5-MIN KAQV 200625Z AUTO 00000KT 10SM FEW080 12/06 A2999 320 66 100 000/00 RMK AO2 T01220061 $
03949KAQV AQV20190420003011004/20/19 00:30:31  5-MIN KAQV 200630Z AUTO VRB03KT 10SM FEW080 12/06 A2998 320 68 0 VRB/03 RMK AO2 T01170061 $
03949KAQV AQV20190420003511004/20/19 00:35:31  5-MIN KAQV 200635Z AUTO 00000KT 10SM FEW080 12/06 A2998 320 68 0 000/00 RMK AO2 T01170061 $
03949KAQV AQV20190420004010704/20/19 00:40:31  5-MIN KAQV 200640Z AUTO 00000KT 10SM CLR 12/06 A2999 320 68 0 000/00 RMK AO2 T01170061 $
03949KAQV AQV20190420004510704/20/19 00:45:31  5-MIN KAQV 200645Z AUTO 28003KT 10SM CLR 12/06 A2999 320 68 0 280/03 RMK AO2 T01170061 $
03949KAQV AQV20190420005011404/20/19 00:50:31  5-MIN KAQV 200650Z AUTO 00000KT 10SM CLR 11/06 A2999 310 71 0 000/00 RMK AO2 SLP155 T01110061 $
03949KAQV AQV20190420005511404/20/19 00:55:31  5-MIN KAQV 200655Z AUTO 00000KT 10SM CLR 11/06 A2998 320 71 0 000/00 RMK AO2 SLP154 T01110061 $
03949KAQV AQV20190420010010704/20/19 01:00:31  5-MIN KAQV 200700Z AUTO 00000KT 10SM CLR 11/06 A2998 320 71 0 000/00 RMK AO2 T01110061 $
03949KAQV AQV20190420010510704/20/19 01:05:31  5-MIN KAQV 200705Z AUTO 00000KT 10SM CLR 11/06 A2998 320 71 0 000/00 RMK AO2 T01110061 $
03949KAQV AQV20190420011010704/20/19 01:10:31  5-MIN KAQV 200710Z AUTO 00000KT 10SM CLR 11/06 A2998 320 71 0 000/00 RMK AO2 T01110061 $
03949KAQV AQV20190420011510704/20/19 01:15:31  5-MIN KAQV 200715Z AUTO 00000KT 10SM CLR 11/06 A2998 320 74 0 000/00 RMK AO2 T01060061 $
03949KAQV AQV20190420012010704/20/19 01:20:31  5-MIN KAQV 200720Z AUTO VRB03KT 10SM CLR 11/06 A2998 320 74 0 VRB/03 RMK AO2 T01060061 $
03949KAQV AQV20190420012510704/20/19 01:25:31  5-MIN KAQV 200725Z AUTO VRB03KT 10SM CLR 11/06 A2998 320 74 0 VRB/03 RMK AO2 T01060061 $
03949KAQV AQV20190420013010704/20/19 01:30:31  5-MIN KAQV 200730Z AUTO 00000KT 10SM CLR 11/06 A2998 320 74 0 000/00 RMK AO2 T01060061 $
03949KAQV AQV20190420013510704/20/19 01:35:31  5-MIN KAQV 200735Z AUTO 00000KT 10SM CLR 11/06 A2998 320 74 0 000/00 RMK AO2 T01060061 $
03949KAQV AQV20190420014011004/20/19 01:40:31  5-MIN KAQV 200740Z AUTO 00000KT 10SM CLR 10/06 A2998 320 77 -100 000/00 RMK AO2 T01000061 $
03949KAQV AQV20190420014510704/20/19 01:45:31  5-MIN KAQV 200745Z AUTO 00000KT 10SM CLR 11/06 A2998 320 74 0 000/00 RMK AO2 T01060061 $
03949KAQV AQV20190420015011404/20/19 01:50:31  5-MIN KAQV 200750Z AUTO 00000KT 10SM CLR 11/06 A2998 320 74 0 000/00 RMK AO2 SLP153 T01060061 $
03949KAQV AQV20190420015511404/20/19 01:55:31  5-MIN KAQV 200755Z AUTO VRB03KT 10SM CLR 11/06 A2998 320 74 0 VRB/03 RMK AO2 SLP154 T01060061 $
03949KAQV AQV20190420020011004/20/19 02:00:31  5-MIN KAQV 200800Z AUTO 00000KT 10SM CLR 11/06 A2999 320 74 -100 000/00 RMK AO2 T01060061 $
03949KAQV AQV20190420020511004/20/19 02:05:31  5-MIN KAQV 200805Z AUTO 00000KT 10SM CLR 11/06 A2999 320 74 -100 000/00 RMK AO2 T01060061 $
03949KAQV AQV20190420021010704/20/19 02:10:31  5-MIN KAQV 200810Z AUTO 00000KT 10SM CLR 11/06 A2999 320 74 0 000/00 RMK AO2 T01060061 $
03949KAQV AQV20190420021511004/20/19 02:15:31  5-MIN KAQV 200815Z AUTO 00000KT 10SM CLR 11/06 A2999 320 74 -100 000/00 RMK AO2 T01060061 $
03949KAQV AQV20190420022010704/20/19 02:20:31  5-MIN KAQV 200820Z AUTO 00000KT 10SM CLR 11/06 A2998 320 71 0 000/00 RMK AO2 T01060056 $
03949KAQV AQV20190420022511004/20/19 02:25:31  5-MIN KAQV 200825Z AUTO 00000KT 10SM CLR 11/06 A2999 320 71 -100 000/00 RMK AO2 T01060056 $
03949KAQV AQV20190420023011004/20/19 02:30:31  5-MIN KAQV 200830Z AUTO 00000KT 10SM CLR 11/06 A2999 310 71 -100 000/00 RMK AO2 T01060056 $
03949KAQV AQV20190420023511004/20/19 02:35:31  5-MIN KAQV 200835Z AUTO 00000KT 10SM CLR 11/06 A2999 310 71 -100 000/00 RMK AO2 T01060056 $
03949KAQV AQV20190420024011004/20/19 02:40:31  5-MIN KAQV 200840Z AUTO 00000KT 10SM CLR 10/06 A2999 310 74 -100 000/00 RMK AO2 T01000056 $
03949KAQV AQV20190420024511004/20/19 02:45:31  5-MIN KAQV 200845Z AUTO 00000KT 10SM CLR 10/06 A2999 310 74 -100 000/00 RMK AO2 T01000056 $
03949KAQV AQV20190420025012304/20/19 02:50:31  5-MIN KAQV 200850Z AUTO 00000KT 10SM CLR 10/06 A2999 310 74 -100 000/00 RMK AO2 SLP156 T01000056 51005 $
03949KAQV AQV20190420025512304/20/19 02:55:31  5-MIN KAQV 200855Z AUTO 00000KT 10SM CLR 11/06 A2999 310 71 -100 000/00 RMK AO2 SLP156 T01060056 51005 $
03949KAQV AQV20190420030011004/20/19 03:00:31  5-MIN KAQV 200900Z AUTO 00000KT 10SM CLR 11/06 A2999 310 71 -100 000/00 RMK AO2 T01060056 $
03949KAQV AQV20190420030511004/20/19 03:05:31  5-MIN KAQV 200905Z AUTO 00000KT 10SM CLR 10/06 A3000 310 74 -100 000/00 RMK AO2 T01000056 $
03949KAQV AQV20190420031011004/20/19 03:10:31  5-MIN KAQV 200910Z AUTO 00000KT 10SM CLR 10/06 A3000 310 74 -100 000/00 RMK AO2 T01000056 $
03949KAQV AQV20190420031511004/20/19 03:15:31  5-MIN KAQV 200915Z AUTO 00000KT 10SM CLR 10/06 A3000 300 74 -100 000/00 RMK AO2 T01000056 $
03949KAQV AQV20190420032011004/20/19 03:20:31  5-MIN KAQV 200920Z AUTO 00000KT 10SM CLR 10/06 A3000 300 74 -100 000/00 RMK AO2 T01000056 $
03949KAQV AQV20190420032511004/20/19 03:25:31  5-MIN KAQV 200925Z AUTO 00000KT 10SM CLR 10/06 A3000 300 74 -100 000/00 RMK AO2 T01000056 $
03949KAQV AQV20190420033014404/20/19 03:30:31  5-MIN KAQV 200930Z AUTO 00000KT 10SM CLR 10/06 A3000 300 74 -100 000/00 RMK AO2 T01000056 $ 59 300 000/00 RMK AO2 T01440067 $
03949KAQV AQV20190420071510704/20/19 07:15:31  5-MIN KAQV 201315Z AUTO 27004KT 10SM CLR 12/07 A3006 240 68 0 270/04 RMK AO2 T01220067 $
03949KAQV AQV20190420072010704/20/19 07:20:31  5-MIN KAQV 201320Z AUTO VRB03KT 10SM CLR 12/07 A3006 240 68 0 VRB/03 RMK AO2 T01220067 $
03949KAQV AQV20190420072510904/20/19 07:25:31  5-MIN KAQV 201325Z AUTO VRB04KT 10SM CLR 13/07 A3006 250 66 100 VRB/04 RMK AO2 T01280067 $
03949KAQV AQV20190420073010904/20/19 07:30:31  5-MIN KAQV 201330Z AUTO 30004KT 10SM CLR 13/07 A3006 250 66 100 300/04 RMK AO2 T01280067 $
03949KAQV AQV20190420073510904/20/19 07:35:31  5-MIN KAQV 201335Z AUTO VRB03KT 10SM CLR 13/07 A3007 240 64 100 VRB/03 RMK AO2 T01330067 $
03949KAQV AQV20190420074010904/20/19 07:40:31  5-MIN KAQV 201340Z AUTO VRB04KT 10SM CLR 14/06 A3007 240 59 200 VRB/04 RMK AO2 T01390061 $
03949KAQV AQV20190420074510904/20/19 07:45:31  5-MIN KAQV 201345Z AUTO 00000KT 10SM CLR 14/07 A3007 240 61 200 000/00 RMK AO2 T01390067 $
03949KAQV AQV20190420075011604/20/19 07:50:31  5-MIN KAQV 201350Z AUTO VRB04KT 10SM CLR 14/07 A3007 240 61 200 VRB/04 RMK AO2 SLP180 T01390067 $
03949KAQV AQV20190420075511604/20/19 07:55:31  5-MIN KAQV 201355Z AUTO VRB04KT 10SM CLR 14/06 A3007 240 57 300 VRB/04 RMK AO2 SLP180 T01440061 $
03949KAQV AQV20190420080010904/20/19 08:00:31  5-MIN KAQV 201400Z AUTO 00000KT 10SM CLR 14/07 A3007 240 59 300 000/00 RMK AO2 T01440067 $
03949KAQV AQV20190420080510904/20/19 08:05:31  5-MIN KAQV 201405Z AUTO VRB04KT 10SM CLR 16/07 A3007 240 55 400 VRB/04 RMK AO2 T01560067 $
03949KAQV AQV20190420081010904/20/19 08:10:31  5-MIN KAQV 201410Z AUTO VRB03KT 10SM CLR 15/06 A3007 240 55 300 VRB/03 RMK AO2 T01500061 $
03949KAQV AQV20190420081510904/20/19 08:15:31  5-MIN KAQV 201415Z AUTO VRB03KT 10SM CLR 15/06 A3007 240 55 300 VRB/03 RMK AO2 T01500061 $
03949KAQV AQV20190420082010904/20/19 08:20:31  5-MIN KAQV 201420Z AUTO VRB03KT 10SM CLR 16/06 A3007 240 53 400 VRB/03 RMK AO2 T01560061 $
03949KAQV AQV20190420082510904/20/19 08:25:31  5-MIN KAQV 201425Z AUTO VRB03KT 10SM CLR 16/06 A3007 240 51 400 VRB/03 RMK AO2 T01560056 $
03949KAQV AQV20190420083010904/20/19 08:30:31  5-MIN KAQV 201430Z AUTO VRB03KT 10SM CLR 16/06 A3007 230 51 400 VRB/03 RMK AO2 T01560056 $
03949KAQV AQV20190420083510904/20/19 08:35:31  5-MIN KAQV 201435Z AUTO VRB03KT 10SM CLR 16/06 A3008 230 51 400 VRB/03 RMK AO2 T01560056 $
03949KAQV AQV20190420084010904/20/19 08:40:31  5-MIN KAQV 201440Z AUTO VRB03KT 10SM CLR 16/06 A3008 230 51 500 VRB/03 RMK AO2 T01610061 $
03949KAQV AQV20190420084510904/20/19 08:45:31  5-MIN KAQV 201445Z AUTO VRB04KT 10SM CLR 17/05 A3008 230 45 500 VRB/04 RMK AO2 T01670050 $
03949KAQV AQV20190420085012204/20/19 08:50:31  5-MIN KAQV 201450Z AUTO 00000KT 10SM CLR 17/05 A3008 220 45 500 000/00 RMK AO2 SLP187 T01670050 53014 $
03949KAQV AQV20190420085512204/20/19 08:55:31  5-MIN KAQV 201455Z AUTO VRB05KT 10SM CLR 17/06 A3008 220 46 600 VRB/05 RMK AO2 SLP187 T01720056 53014 $
03949KAQV AQV20190420090010904/20/19 09:00:31  5-MIN KAQV 201500Z AUTO VRB04KT 10SM CLR 18/06 A3009 220 46 600 VRB/04 RMK AO2 T01780061 $
03949KAQV AQV20190420090510904/20/19 09:05:31  5-MIN KAQV 201505Z AUTO VRB05KT 10SM CLR 18/04 A3009 220 41 600 VRB/05 RMK AO2 T01780044 $
03949KAQV AQV20190420091010904/20/19 09:10:31  5-MIN KAQV 201510Z AUTO VRB03KT 10SM CLR 17/04 A3008 220 42 600 VRB/03 RMK AO2 T01720044 $
03949KAQV AQV20190420091510904/20/19 09:15:31  5-MIN KAQV 201515Z AUTO VRB03KT 10SM CLR 17/05 A3009 220 44 600 VRB/03 RMK AO2 T01720050 $
03949KAQV AQV20190420092010904/20/19 09:20:31  5-MIN KAQV 201520Z AUTO VRB06KT 10SM CLR 18/03 A3009 220 38 600 VRB/06 RMK AO2 T01780033 $
03949KAQV AQV20190420092510904/20/19 09:25:31  5-MIN KAQV 201525Z AUTO VRB04KT 10SM CLR 18/04 A3009 220 39 600 VRB/04 RMK AO2 T01780039 $
03949KAQV AQV20190420093010904/20/19 09:30:31  5-MIN KAQV 201530Z AUTO VRB04KT 10SM CLR 18/04 A3009 220 38 700 VRB/04 RMK AO2 T01830039 $
03949KAQV AQV20190420093510904/20/19 09:35:31  5-MIN KAQV 201535Z AUTO VRB04KT 10SM CLR 19/04 A3009 220 36 800 VRB/04 RMK AO2 T01890039 $
03949KAQV AQV20190420094010904/20/19 09:40:31  5-MIN KAQV 201540Z AUTO VRB03KT 10SM CLR 19/03 A3010 210 35 800 VRB/03 RMK AO2 T01890033 $
03949KAQV AQV20190420094510904/20/19 09:45:31  5-MIN KAQV 201545Z AUTO VRB04KT 10SM CLR 18/03 A3010 210 35 700 VRB/04 RMK AO2 T01830028 $
03949KAQV AQV20190420095011604/20/19 09:50:31  5-MIN KAQV 201550Z AUTO VRB05KT 10SM CLR 19/03 A3010 210 34 800 VRB/05 RMK AO2 SLP192 T01890028 $
03949KAQV AQV20190420095511604/20/19 09:55:31  5-MIN KAQV 201555Z AUTO VRB04KT 10SM CLR 19/03 A3010 210 35 800 VRB/04 RMK AO2 SLP192 T01890033 $
03949KAQV AQV20190420100010904/20/19 10:00:31  5-MIN KAQV 201600Z AUTO VRB04KT 10SM CLR 18/03 A3010 210 35 700 VRB/04 RMK AO2 T01830028 $
03949KAQV AQV20190420100510904/20/19 10:05:31  5-MIN KAQV 201605Z AUTO VRB04KT 10SM CLR 19/03 A3010 210 35 800 VRB/04 RMK AO2 T01890033 $
03949KAQV AQV20190420101010904/20/19 10:10:31  5-MIN KAQV 201610Z AUTO VRB04KT 10SM CLR 19/03 A3009 220 35 800 VRB/04 RMK AO2 T01890033 $
03949KAQV AQV20190420101510904/20/19 10:15:31  5-MIN KAQV 201615Z AUTO VRB04KT 10SM CLR 19/03 A3009 220 34 800 VRB/04 RMK AO2 T01940033 $
03949KAQV AQV20190420102010904/20/19 10:20:31  5-MIN KAQV 201620Z AUTO 00000KT 10SM CLR 19/03 A3009 220 34 800 000/00 RMK AO2 T01940033 $
03949KAQV AQV20190420102510904/20/19 10:25:31  5-MIN KAQV 201625Z AUTO 00000KT 10SM CLR 19/03 A3009 220 34 800 000/00 RMK AO2 T01890028 $
03949KAQV AQV20190420103010904/20/19 10:30:31  5-MIN KAQV 201630Z AUTO 36005KT 10SM CLR 19/03 A3009 220 33 800 360/05 RMK AO2 T01940028 $
03949KAQV AQV20190420103510904/20/19 10:35:31  5-MIN KAQV 201635Z AUTO 00000KT 10SM CLR 20/03 A3009 220 31 900 000/00 RMK AO2 T02000028 $
03949KAQV AQV20190420104010904/20/19 10:40:31  5-MIN KAQV 201640Z AUTO VRB03KT 10SM CLR 20/03 A3009 220 33 900 VRB/03 RMK AO2 T02000033 $
03949KAQV AQV20190420104510904/20/19 10:45:31  5-MIN KAQV 201645Z AUTO VRB04KT 10SM CLR 20/03 A3009 220 33 900 VRB/04 RMK AO2 T02000033 $
03949KAQV AQV20190420105011604/20/19 10:50:31  5-MIN KAQV 201650Z AUTO VRB05KT 10SM CLR 20/03 A3009 220 33 900 VRB/05 RMK AO2 SLP188 T02000033 $
03949KAQV AQV20190420105511604/20/19 10:55:31  5-MIN KAQV 201655Z AUTO VRB05KT 10SM CLR 20/03 A3009 220 31 900 VRB/05 RMK AO2 SLP189 T02000028 $
03949KAQV AQV20190420110010904/20/19 11:00:31  5-MIN KAQV 201700Z AUTO VRB04KT 10SM CLR 20/02 A3009 220 30 900 VRB/04 RMK AO2 T02000022 $
03949KAQV AQV20190420110510904/20/19 11:05:31  5-MIN KAQV 201705Z AUTO VRB04KT 10SM CLR 20/03 A3009 220 31 900 VRB/04 RMK AO2 T02000028 $
03949KAQV AQV20190420111010904/20/19 11:10:31  5-MIN KAQV 201710Z AUTO VRB04KT 10SM CLR 20/02 A3008 230 30 900 VRB/04 RMK AO2 T02000022 $
03949KAQV AQV20190420111510904/20/19 11:15:31  5-MIN KAQV 201715Z AUTO VRB04KT 10SM CLR 20/03 A3008 230 31 900 VRB/04 RMK AO2 T02000028 $
03949KAQV AQV20190420112010904/20/19 11:20:31  5-MIN KAQV 201720Z AUTO 30006KT 10SM CLR 20/02 A3008 230 30 900 290/06 RMK AO2 T02000022 $
03949KAQV AQV20190420112511004/20/19 11:25:31  5-MIN KAQV 201725Z AUTO VRB05KT 10SM CLR 21/03 A3007 240 30 1000 VRB/05 RMK AO2 T02060028 $
03949KAQV AQV20190420113011004/20/19 11:30:31  5-MIN KAQV 201730Z AUTO 36008KT 10SM CLR 21/03 A3007 240 30 1000 350/08 RMK AO2 T02110033 $
03949KAQV AQV20190420113511004/20/19 11:35:31  5-MIN KAQV 201735Z AUTO 36007KT 10SM CLR 21/03 A3007 240 30 1000 360/07 RMK AO2 T02110033 $
03949KAQV AQV20190420114011004/20/19 11:40:31  5-MIN KAQV 201740Z AUTO VRB04KT 10SM CLR 21/03 A3007 240 32 1000 VRB/04 RMK AO2 T02060033 $
03949KAQV AQV20190420114511004/20/19 11:45:31  5-MIN KAQV 201745Z AUTO VRB04KT 10SM CLR 21/03 A3007 240 30 1000 VRB/04 RMK AO2 T02110033 $
03949KAQV AQV20190420115013504/20/19 11:50:31  5-MIN KAQV 201750Z AUTO VRB04KT 10SM CLR 21/02 A3007 240 28 1100 VRB/04 RMK AO2 SLP179 T02110022 10211 20072 51016 $
03949KAQV AQV20190420115513504/20/19 11:55:31  5-MIN KAQV 201755Z AUTO VRB04KT 10SM CLR 22/03 A3006 240 29 1100 VRB/04 RMK AO2 SLP179 T02170033 10217 20072 51016 $
03949KAQV AQV20190420120011004/20/19 12:00:31  5-MIN KAQV 201800Z AUTO VRB04KT 10SM CLR 21/02 A3006 250 28 1100 VRB/04 RMK AO2 T02110022 $
03949KAQV AQV20190420120511004/20/19 12:05:31  5-MIN KAQV 201805Z AUTO 00000KT 10SM CLR 21/03 A3006 250 29 1100 000/00 RMK AO2 T02110028 $
03949KAQV AQV20190420121010004/20/19 12:10:31  5-MIN KAQV 201810Z AUTO 10SM CLR 21/03 A3006 250 30 1100 M /M RMK AO2 T02110033 $
03949KAQV AQV20190420121511004/20/19 12:15:31  5-MIN KAQV 201815Z AUTO VRB04KT 10SM CLR 21/03 A3005 250 30 1100 VRB/04 RMK AO2 T02110033 $
03949KAQV AQV20190420122011004/20/19 12:20:31  5-MIN KAQV 201820Z AUTO VRB05KT 10SM CLR 22/04 A3006 250 32 1100 VRB/05 RMK AO2 T02170044 $
03949KAQV AQV20190420122511004/20/19 12:25:31  5-MIN KAQV 201825Z AUTO VRB06KT 10SM CLR 22/04 A3006 250 31 1100 VRB/06 RMK AO2 T02170039 $
03949KAQV AQV20190420123011004/20/19 12:30:31  5-MIN KAQV 201830Z AUTO 00000KT 10SM CLR 21/03 A3005 250 30 1100 000/00 RMK AO2 T02110033 $
03949KAQV AQV20190420123510004/20/19 12:35:31  5-MIN KAQV 201835Z AUTO 10SM CLR 22/04 A3005 250 30 1200 M /M RMK AO2 T02220039 $
03949KAQV AQV20190420124011004/20/19 12:40:31  5-MIN KAQV 201840Z AUTO VRB04KT 10SM CLR 22/04 A3005 260 30 1200 VRB/04 RMK AO2 T02220039 $
03949KAQV AQV20190420124511004/20/19 12:45:31  5-MIN KAQV 201845Z AUTO 00000KT 10SM CLR 22/03 A3005 260 28 1100 000/00 RMK AO2 T02170028 $
03949KAQV AQV20190420125010704/20/19 12:50:31  5-MIN KAQV 201850Z AUTO 10SM CLR 22/03 A3005 260 27 1200 M /M RMK AO2 SLP174 T02220028 $
03949KAQV AQV20190420125511704/20/19 12:55:31  5-MIN KAQV 201855Z AUTO VRB04KT 10SM CLR 22/03 A3005 260 27 1200 VRB/04 RMK AO2 SLP174 T02220028 $
03949KAQV AQV20190420130011004/20/19 13:00:31  5-MIN KAQV 201900Z AUTO VRB04KT 10SM CLR 22/03 A3005 260 27 1200 VRB/04 RMK AO2 T02220028 $
03949KAQV AQV20190420130510004/20/19 13:05:31  5-MIN KAQV 201905Z AUTO 10SM CLR 22/03 A3004 260 28 1200 M /M RMK AO2 T02220033 $
03949KAQV AQV20190420131011004/20/19 13:10:31  5-MIN KAQV 201910Z AUTO VRB05KT 10SM CLR 22/03 A3004 260 27 1200 VRB/05 RMK AO2 T02220028 $
03949KAQV AQV20190420131511004/20/19 13:15:31  5-MIN KAQV 201915Z AUTO VRB05KT 10SM CLR 22/03 A3004 260 27 1200 VRB/05 RMK AO2 T02220028 $
03949KAQV AQV20190420132011004/20/19 13:20:31  5-MIN KAQV 201920Z AUTO VRB03KT 10SM CLR 23/03 A3004 260 27 1300 VRB/03 RMK AO2 T02280033 $
03949KAQV AQV20190420132511004/20/19 13:25:31  5-MIN KAQV 201925Z AUTO VRB05KT 10SM CLR 23/03 A3004 270 26 1300 VRB/05 RMK AO2 T02280028 $
03949KAQV AQV20190420133011004/20/19 13:30:31  5-MIN KAQV 201930Z AUTO VRB04KT 10SM CLR 23/03 A3003 270 26 1300 VRB/04 RMK AO2 T02280028 $
03949KAQV AQV20190420133511004/20/19 13:35:31  5-MIN KAQV 201935Z AUTO 35004KT 10SM CLR 23/03 A3003 270 25 1300 350/04 RMK AO2 T02330028 $
03949KAQV AQV20190420134011004/20/19 13:40:31  5-MIN KAQV 201940Z AUTO VRB06KT 10SM CLR 23/03 A3003 270 26 1300 VRB/06 RMK AO2 T02330033 $
03949KAQV AQV20190420134511004/20/19 13:45:31  5-MIN KAQV 201945Z AUTO VRB03KT 10SM CLR 23/03 A3003 270 26 1300 VRB/03 RMK AO2 T02280028 $
03949KAQV AQV20190420135010704/20/19 13:50:31  5-MIN KAQV 201950Z AUTO 10SM CLR 23/02 A3003 280 25 1300 M /M RMK AO2 SLP168 T02280022 $
03949KAQV AQV20190420135511704/20/19 13:55:31  5-MIN KAQV 201955Z AUTO VRB05KT 10SM CLR 24/03 A3003 280 25 1400 VRB/05 RMK AO2 SLP166 T02390028 $
03949KAQV AQV20190420140009204/20/19 14:00:31  5-MIN KAQV 202000Z AU CLR 15/10 A2999 310 72 400 000/00 RMK AO2 T01500100
03949KAQV AQV20190420181510604/20/19 18:15:31  5-MIN KAQV 210015Z AUTO 00000KT 8SM CLR 19/07 A2999 310 43 900 000/00 RMK AO2 T01940067
03949KAQV AQV20190420182010604/20/19 18:20:31  5-MIN KAQV 210020Z AUTO 00000KT 7SM CLR 19/08 A2999 310 48 900 000/00 RMK AO2 T01890078
03949KAQV AQV20190420182510604/20/19 18:25:31  5-MIN KAQV 210025Z AUTO 00000KT 7SM CLR 18/09 A2999 310 54 800 000/00 RMK AO2 T01830089
03949KAQV AQV20190420183010604/20/19 18:30:31  5-MIN KAQV 210030Z AUTO 00000KT 7SM CLR 18/09 A2999 310 54 800 000/00 RMK AO2 T01830089
03949KAQV AQV20190420183510604/20/19 18:35:31  5-MIN KAQV 210035Z AUTO 00000KT 7SM CLR 18/09 A2999 310 55 800 000/00 RMK AO2 T01780089
03949KAQV AQV20190420184010604/20/19 18:40:31  5-MIN KAQV 210040Z AUTO 00000KT 8SM CLR 17/09 A2999 310 60 700 000/00 RMK AO2 T01720094
03949KAQV AQV20190420184510704/20/19 18:45:31  5-MIN KAQV 210045Z AUTO 00000KT 10SM CLR 17/09 A2999 310 62 600 000/00 RMK AO2 T01670094
03949KAQV AQV20190420185011404/20/19 18:50:31  5-MIN KAQV 210050Z AUTO 00000KT 10SM CLR 16/09 A2999 310 64 600 000/00 RMK AO2 SLP155 T01610094
03949KAQV AQV20190420185511404/20/19 18:55:31  5-MIN KAQV 210055Z AUTO 00000KT 10SM CLR 16/11 A2999 310 69 600 000/00 RMK AO2 SLP154 T01610106
03949KAQV AQV20190420190010704/20/19 19:00:31  5-MIN KAQV 210100Z AUTO 00000KT 10SM CLR 16/10 A2999 310 69 500 000/00 RMK AO2 T01560100
03949KAQV AQV20190420190510704/20/19 19:05:31  5-MIN KAQV 210105Z AUTO 00000KT 10SM CLR 15/10 A2999 310 72 400 000/00 RMK AO2 T01500100
03949KAQV AQV20190420191010604/20/19 19:10:31  5-MIN KAQV 210110Z AUTO 00000KT 9SM CLR 15/10 A2999 310 72 400 000/00 RMK AO2 T01500100
03949KAQV AQV20190420191510604/20/19 19:15:31  5-MIN KAQV 210115Z AUTO 00000KT 7SM CLR 14/10 A2999 310 74 400 000/00 RMK AO2 T01440100
03949KAQV AQV20190420192010604/20/19 19:20:31  5-MIN KAQV 210120Z AUTO 00000KT 7SM CLR 14/10 A2999 310 74 400 000/00 RMK AO2 T01440100
03949KAQV AQV20190420192510704/20/19 19:25:31  5-MIN KAQV 210125Z AUTO 00000KT 10SM CLR 14/10 A3000 310 77 300 000/00 RMK AO2 T01390100
03949KAQV AQV20190420193010704/20/19 19:30:31  5-MIN KAQV 210130Z AUTO 00000KT 10SM CLR 14/09 A3000 310 74 300 000/00 RMK AO2 T01390094
03949KAQV AQV20190420193510704/20/19 19:35:31  5-MIN KAQV 210135Z AUTO 00000KT 10SM CLR 14/09 A3000 310 74 300 000/00 RMK AO2 T01390094
03949KAQV AQV20190420194010704/20/19 19:40:31  5-MIN KAQV 210140Z AUTO 00000KT 10SM CLR 13/09 A3000 310 77 200 000/00 RMK AO2 T01330094
03949KAQV AQV20190420194510704/20/19 19:45:31  5-MIN KAQV 210145Z AUTO 00000KT 10SM CLR 13/09 A3000 310 77 200 000/00 RMK AO2 T01330094
03949KAQV AQV20190420195011404/20/19 19:50:31  5-MIN KAQV 210150Z AUTO 00000KT 10SM CLR 13/09 A3000 310 77 200 000/00 RMK AO2 SLP157 T01330094
03949KAQV AQV20190420195511404/20/19 19:55:31  5-MIN KAQV 210155Z AUTO 00000KT 10SM CLR 13/10 A3000 300 80 200 000/00 RMK AO2 SLP158 T01330100
03949KAQV AQV20190420200010704/20/19 20:00:31  5-MIN KAQV 210200Z AUTO 00000KT 10SM CLR 13/10 A3000 300 83 200 000/00 RMK AO2 T01280100
03949KAQV AQV20190420200510704/20/19 20:05:31  5-MIN KAQV 210205Z AUTO 00000KT 10SM CLR 13/09 A3000 300 80 100 000/00 RMK AO2 T01280094
03949KAQV AQV20190420201010704/20/19 20:10:31  5-MIN KAQV 210210Z AUTO 00000KT 10SM CLR 13/09 A3000 300 80 100 000/00 RMK AO2 T01280094
03949KAQV AQV20190420201510704/20/19 20:15:31  5-MIN KAQV 210215Z AUTO 00000KT 10SM CLR 12/09 A3000 300 83 100 000/00 RMK AO2 T01220094
03949KAQV AQV20190420202010704/20/19 20:20:31  5-MIN KAQV 210220Z AUTO 00000KT 10SM CLR 12/09 A3000 300 83 100 000/00 RMK AO2 T01220094
03949KAQV AQV20190420202510704/20/19 20:25:31  5-MIN KAQV 210225Z AUTO 00000KT 10SM CLR 12/09 A3001 300 83 100 000/00 RMK AO2 T01220094
03949KAQV AQV20190420203010704/20/19 20:30:31  5-MIN KAQV 210230Z AUTO 00000KT 10SM CLR 12/09 A3001 300 83 100 000/00 RMK AO2 T01220094
03949KAQV AQV20190420203510504/20/19 20:35:31  5-MIN KAQV 210235Z AUTO 00000KT 10SM CLR 12/09 A3001 300 86 0 000/00 RMK AO2 T01170094
03949KAQV AQV20190420204010504/20/19 20:40:31  5-MIN KAQV 210240Z AUTO 00000KT 10SM CLR 12/09 A3001 300 86 0 000/00 RMK AO2 T01170094
03949KAQV AQV20190420204510504/20/19 20:45:31  5-MIN KAQV 210245Z AUTO 00000KT 10SM CLR 12/09 A3001 300 86 0 000/00 RMK AO2 T01170094
03949KAQV AQV20190420205011804/20/19 20:50:31  5-MIN KAQV 210250Z AUTO 00000KT 10SM CLR 12/09 A3001 290 83 0 000/00 RMK AO2 SLP161 T01170089 55008
03949KAQV AQV20190420205511804/20/19 20:55:31  5-MIN KAQV 210255Z AUTO 00000KT 10SM CLR 12/09 A3001 290 86 0 000/00 RMK AO2 SLP161 T01170094 55008
03949KAQV AQV20190420210010504/20/19 21:00:31  5-MIN KAQV 210300Z AUTO 00000KT 10SM CLR 11/09 A3001 290 86 0 000/00 RMK AO2 T01110089
03949KAQV AQV20190420210510504/20/19 21:05:31  5-MIN KAQV 210305Z AUTO 00000KT 10SM CLR 11/09 A3001 290 86 0 000/00 RMK AO2 T01110089
03949KAQV AQV20190420211010504/20/19 21:10:31  5-MIN KAQV 210310Z AUTO 00000KT 10SM CLR 11/09 A3001 290 89 0 000/00 RMK AO2 T01110094
03949KAQV AQV20190420211510504/20/19 21:15:31  5-MIN KAQV 210315Z AUTO 00000KT 10SM CLR 11/10 A3002 290 93 0 000/00 RMK AO2 T01110100
03949KAQV AQV20190420212010804/20/19 21:20:31  5-MIN KAQV 210320Z AUTO 00000KT 10SM CLR 11/09 A3001 290 93 -100 000/00 RMK AO2 T01060094
03949KAQV AQV20190420212510804/20/19 21:25:31  5-MIN KAQV 210325Z AUTO 00000KT 10SM CLR 11/09 A3002 290 93 -100 000/00 RMK AO2 T01060094
03949KAQV AQV20190420213010504/20/19 21:30:31  5-MIN KAQV 210330Z AUTO 00000KT 10SM CLR 11/09 A3002 290 86 0 000/00 RMK AO2 T01110089
03949KAQV AQV20190420213510804/20/19 21:35:31  5-MIN KAQV 210335Z AUTO 00000KT 10SM CLR 11/09 A3001 290 89 -100 000/00 RMK AO2 T01060089
03949KAQV AQV20190420214010804/20/19 21:40:31  5-MIN KAQV 210340Z AUTO 00000KT 10SM CLR 11/09 A3001 290 89 -100 000/00 RMK AO2 T01060089
03949KAQV AQV20190420214510804/20/19 21:45:31  5-MIN KAQV 210345Z AUTO 00000KT 10SM CLR 11/08 A3001 290 86 -100 000/00 RMK AO2 T01060083
03949KAQV AQV20190420215011504/20/19 21:50:31  5-MIN KAQV 210350Z AUTO 00000KT 10SM CLR 11/09 A3001 290 89 -100 000/00 RMK AO2 SLP163 T01060089
03949KAQV AQV20190420215511504/20/19 21:55:31  5-MIN KAQV 210355Z AUTO 00000KT 10SM CLR 11/09 A3002 290 89 -100 000/00 RMK AO2 SLP163 T01060089
03949KAQV AQV20190420220010804/20/19 22:00:31  5-MIN KAQV 210400Z AUTO 00000KT 10SM CLR 11/08 A3002 290 86 -100 000/00 RMK AO2 T01060083
03949KAQV AQV20190420220510804/20/19 22:05:31  5-MIN KAQV 210405Z AUTO 00000KT 10SM CLR 11/08 A3001 290 86 -100 000/00 RMK AO2 T01060083
03949KAQV AQV20190420221010804/20/19 22:10:31  5-MIN KAQV 210410Z AUTO 00000KT 10SM CLR 11/08 A3001 290 86 -100 000/00 RMK AO2 T01060083
03949KAQV AQV20190420221510804/20/19 22:15:31  5-MIN KAQV 210415Z AUTO 00000KT 10SM CLR 10/08 A3001 290 89 -100 000/00 RMK AO2 T01000083
03949KAQV AQV20190420222010804/20/19 22:20:31  5-MIN KAQV 210420Z AUTO 00000KT 10SM CLR 11/09 A3001 290 89 -100 000/00 RMK AO2 T01060089
03949KAQV AQV20190420222510804/20/19 22:25:31  5-MIN KAQV 210425Z AUTO 00000KT 10SM CLR 11/09 A3001 290 89 -100 000/00 RMK AO2 T01060089
03949KAQV AQV20190420223010804/20/19 22:30:31  5-MIN KAQV 210430Z AUTO 00000KT 10SM CLR 11/09 A3001 290 89 -100 000/00 RMK AO2 T01060089
03949KAQV AQV20190420223510804/20/19 22:35:31  5-MIN KAQV 210435Z AUTO 00000KT 10SM CLR 10/09 A3001 290 93 -100 000/00 RMK AO2 T01000089
03949KAQV AQV20190420224010704/20/19 22:40:31  5-MIN KAQV 210440Z AUTO 00000KT 9SM CLR 10/09 A3001 290 93 -100 000/00 RMK AO2 T01000089
03949KAQV AQV20190420224510704/20/19 22:45:31  5-MIN KAQV 210445Z AUTO 00000KT 9SM CLR 10/09 A3001 290 93 -100 000/00 RMK AO2 T01000089
03949KAQV AQV20190420225011404/20/19 22:50:31  5-MIN KAQV 210450Z AUTO 00000KT 9SM CLR 10/08 A3002 290 89 -200 000/00 RMK AO2 SLP163 T01000083
03949KAQV AQV20190420225511404/20/19 22:55:31  5-MIN KAQV 210455Z AUTO 00000KT 8SM CLR 10/08 A3002 290 89 -200 000/00 RMK AO2 SLP163 T01000083
03949KAQV AQV20190420230010704/20/19 23:00:31  5-MIN KAQV 210500Z AUTO 00000KT 8SM CLR 10/08 A3002 290 89 -200 000/00 RMK AO2 T01000083
03949KAQV AQV20190420230510804/20/19 23:05:31  5-MIN KAQV 210505Z AUTO 00000KT 10SM CLR 10/08 A3002 290 86 -200 000/00 RMK AO2 T01000078
03949KAQV AQV20190420231010804/20/19 23:10:31  5-MIN KAQV 210510Z AUTO 00000KT 10SM CLR 10/08 A3001 290 89 -100 000/00 RMK AO2 T01000083
03949KAQV AQV20190420231510704/20/19 23:15:31  5-MIN KAQV 210515Z AUTO 19003KT 9SM CLR 10/08 A3002 290 86 -200 190/03 RMK AO2 T01000078
03949KAQV AQV20190420232010704/20/19 23:20:31  5-MIN KAQV 210520Z AUTO 00000KT 9SM CLR 10/08 A3002 280 89 -200 000/00 RMK AO2 T01000083
03949KAQV AQV20190420232510804/20/19 23:25:31  5-MIN KAQV 210525Z AUTO 19003KT 10SM CLR 10/08 A3002 280 89 -200 180/03 RMK AO2 T01000083
03949KAQV AQV20190420233010804/20/19 23:30:31  5-MIN KAQV 210530Z AUTO 00000KT 10SM CLR 10/08 A3002 280 89 -200 000/00 RMK AO2 T01000083
03949KAQV AQV20190420233510804/20/19 23:35:31  5-MIN KAQV 210535Z AUTO 00000KT 10SM CLR 10/08 A3002 280 89 -200 000/00 RMK AO2 T01000083
03949KAQV AQV20190420234010804/20/19 23:40:31  5-MIN KAQV 210540Z AUTO 00000KT 10SM CLR 10/08 A3002 290 89 -200 000/00 RMK AO2 T01000083
03949KAQV AQV20190420234510804/20/19 23:45:31  5-MIN KAQV 210545Z AUTO 00000KT 10SM CLR 10/08 A3002 280 86 -200 000/00 RMK AO2 T01000078
03949KAQV AQV20190420235014304/20/19 23:50:31  5-MIN KAQV 210550Z AUTO 00000KT 10SM CLR 10/08 A3002 280 86 -200 000/00 RMK AO2 SLP165 T01000078 10211 20100 402390067 53008
03949KAQV AQV20190420235514304/20/19 23:55:31  5-MIN KAQV 210555Z AUTO 00000KT 10SM CLR 10/08 A3002 290 89 -200 000/00 RMK AO2 SLP165 T01000083 10211 20100 402390067 53008
03949KAQV AQV20190421000010804/21/19 00:00:31  5-MIN KAQV 210600Z AUTO 00000KT 10SM CLR 10/08 A3002 290 89 -200 000/00 RMK AO2 T01000083
03949KAQV AQV20190421000510804/21/19 00:05:31  5-MIN KAQV 210605Z AUTO 00000KT 10SM CLR 11/08 A3002 290 86 -100 000/00 RMK AO2 T01060083
03949KAQV AQV20190421001010804/21/19 00:10:31  5-MIN KAQV 210610Z AUTO 00000KT 10SM CLR 11/08 A3001 290 86 -100 000/00 RMK AO2 T01060083
03949KAQV AQV20190421001510504/21/19 00:15:31  5-MIN KAQV 210615Z AUTO 00000KT 10SM CLR 11/08 A3001 290 83 0 000/00 RMK AO2 T01110083
03949KAQV AQV20190421002010504/21/19 00:20:31  5-MIN KAQV 210620Z AUTO 17003KT 10SM CLR 11/08 A3001 290 83 0 170/03 RMK AO2 T01110083
03949KAQV AQV20190421002510504/21/19 00:25:31  5-MIN KAQV 210625Z AUTO 00000KT 10SM CLR 11/09 A3001 290 86 0 000/00 RMK AO2 T01110089
03949KAQV AQV20190421003010504/21/19 00:30:31  5-MIN KAQV 210630Z AUTO 17003KT 10SM CLR 11/09 A3001 290 86 0 170/03 RMK AO2 T01110089
03949KAQV AQV20190421003510504/21/19 00:35:31  5-MIN KAQV 210635Z AUTO VRB03KT 10SM CLR 11/09 A3001 290 86 0 VRB/03 RMK AO2 T01110089
03949KAQV AQV20190421004010504/21/19 00:40:31  5-MIN KAQV 210640Z AUTO 17003KT 10SM CLR 11/09 A3001 290 86 0 170/03 RMK AO2 T01110089
03949KAQV AQV20190421004510504/21/19 00:45:31  5-MIN KAQV 210645Z AUTO 00000KT 10SM CLR 11/09 A3001 300 86 0 000/00 RMK AO2 T01110089
03949KAQV AQV20190421005011204/21/19 00:50:31  5-MIN KAQV 210650Z AUTO 00000KT 10SM CLR 11/09 A3001 300 86 0 000/00 RMK AO2 SLP160 T01110089
03949KAQV AQV20190421005511204/21/19 00:55:31  5-MIN KAQV 210655Z AUTO 00000KT 10SM CLR 11/09 A3000 300 86 0 000/00 RMK AO2 SLP160 T01110089
03949KAQV AQV20190421010010504/21/19 01:00:31  5-MIN KAQV 210700Z AUTO 00000KT 10SM CLR 11/09 A3000 300 86 0 000/00 RMK AO2 T01110089
03949KAQV AQV20190421010510504/21/19 01:05:31  5-MIN KAQV 210705Z AUTO 00000KT 10SM CLR 11/09 A3000 300 86 0 000/00 RMK AO2 T01110089
03949KAQV AQV20190421011010804/21/19 01:10:31  5-MIN KAQV 210710Z AUTO 00000KT 10SM CLR 11/09 A3000 300 89 -100 000/00 RMK AO2 T01060089
03949KAQV AQV20190421011510804/21/19 01:15:31  5-MIN KAQV 210715Z AUTO 00000KT 10SM CLR 11/09 A3001 300 89 -100 000/00 RMK AO2 T01060089
03949KAQV AQV20190421012010804/21/19 01:20:31  5-MIN KAQV 210720Z AUTO 00000KT 10SM CLR 11/09 A3001 300 89 -100 000/00 RMK AO2 T01060089
03949KAQV AQV20190421012510804/21/19 01:25:31  5-MIN KAQV 210725Z AUTO 00000KT 10SM CLR 11/09 A3001 300 89 -100 000/00 RMK AO2 T01060089
03949KAQV AQV20190421013010804/21/19 01:30:31  5-MIN KAQV 210730Z AUTO 00000KT 10SM CLR 11/09 A3001 300 89 -100 000/00 RMK AO2 T01060089
03949KAQV AQV20190421013510804/21/19 01:35:31  5-MIN KAQV 210735Z AUTO 00000KT 10SM CLR 11/09 A3001 300 89 -100 000/00 RMK AO2 T01060089
03949KAQV AQV20190421014010804/21/19 01:40:31  5-MIN KAQV 210740Z AUTO 00000KT 10SM CLR 11/09 A3001 300 89 -100 000/00 RMK AO2 T01060089
03949KAQV AQV20190421014510804/21/19 01:45:31  5-MIN KAQV 210745Z AUTO 00000KT 10SM CLR 11/09 A3001 290 89 -100 000/00 RMK AO2 T01060089
03949KAQV AQV20190421015011504/21/19 01:50:31  5-MIN KAQV 210750Z AUTO 00000KT 10SM CLR 11/09 A3001 290 89 -100 000/00 RMK AO2 SLP161 T01060089
03949KAQV AQV20190421015511504/21/19 01:55:31  5-MIN KAQV 210755Z AUTO 00000KT 10SM CLR 11/09 A3001 300 89 -100 000/00 RMK AO2 SLP160 T01060089
03949KAQV AQV20190421020010804/21/19 02:00:31  5-MIN KAQV 210800Z AUTO 00000KT 10SM CLR 11/09 A3001 300 89 -100 000/00 RMK AO2 T01060089
03949KAQV AQV20190421020510804/21/19 02:05:31  5-MIN KAQV 210805Z AUTO 00000KT 10SM CLR 11/09 A3001 300 89 -100 000/00 RMK AO2 T01060089
03949KAQV AQV20190421021010804/21/19 02:10:31  5-MIN KAQV 210810Z AUTO 00000KT 10SM CLR 10/09 A3001 300 93 -100 000/00 RMK AO2 T01000089
03949KAQV AQV20190421021510804/21/19 02:15:31  5-MIN KAQV 210815Z AUTO 00000KT 10SM CLR 10/09 A3001 290 93 -100 000/00 RMK AO2 T01000089
03949KAQV AQV20190421022010804/21/19 02:20:31  5-MIN KAQV 210820Z AUTO 00000KT 10SM CLR 10/09 A3001 290 93 -100 000/00 RMK AO2 T01000089
03949KAQV AQV20190421022510804/21/19 02:25:31  5-MIN KAQV 210825Z AUTO 00000KT 10SM CLR 10/09 A3001 290 93 -100 000/00 RMK AO2 T01000089
03949KAQV AQV20190421023010804/21/19 02:30:31  5-MIN KAQV 210830Z AUTO 00000KT 10SM CLR 10/09 A3001 290 93 -100 000/00 RMK AO2 T01000089
03949KAQV AQV20190421023510804/21/19 02:35:31  5-MIN KAQV 210835Z AUTO 00000KT 10SM CLR 10/09 A3001 290 93 -100 000/00 RMK AO2 T01000089
03949KAQV AQV20190421024010804/21/19 02:40:31  5-MIN KAQV 210840Z AUTO 00000KT 10SM CLR 10/09 A3001 290 93 -100 000/00 RMK AO2 T01000089
03949KAQV AQV20190421024510804/21/19 02:45:31  5-MIN KAQV 210845Z AUTO 00000KT 10SM CLR 10/09 A3001 290 93 -100 000/00 RMK AO2 T01000089
03949KAQV AQV20190421025012104/21/19 02:50:31  5-MIN KAQV 210850Z AUTO 00000KT 10SM CLR 10/08 A3001 290 89 -100 000/00 RMK AO2 SLP162 T01000083 51003
03949KAQV AQV20190421025512104/21/19 02:55:31  5-MIN KAQV 210855Z AUTO 00000KT 10SM CLR 10/09 A3001 290 93 -100 000/00 RMK AO2 SLP162 T01000089 51003
03949KAQV AQV20190421030010804/21/19 03:00:31  5-MIN KAQV 210900Z AUTO 00000KT 10SM CLR 10/09 A3001 290 93 -100 000/00 RMK AO2 T01000089
03949KAQV AQV20190421030510804/21/19 03:05:31  5-MIN KAQV 210905Z AUTO 00000KT 10SM CLR 10/09 A3001 290 93 -100 000/00 RMK AO2 T01000089
03949KAQV AQV20190421031010804/21/19 03:10:31  5-MIN KAQV 210910Z AUTO 00000KT 10SM CLR 10/09 A3001 290 93 -100 000/00 RMK AO2 T01000089
03949KAQV AQV20190421031510804/21/19 03:15:31  5-MIN KAQV 210915Z AUTO 00000KT 10SM CLR 10/09 A3001 290 93 -100 000/00 RMK AO2 T01000089
03949KAQV AQV20190421032010804/21/19 03:20:31  5-MIN KAQV 210920Z AUTO 00000KT 10SM CLR 09/08 A3001 290 93 -200 000/00 RMK AO2 T00940083
03949KAQV AQV20190421032510804/21/19 03:25:31  5-MIN KAQV 210925Z AUTO 00000KT 10SM CLR 09/08 A3001 290 93 -200 000/00 RMK AO2 T00940083
03949KAQV AQV20190421033010804/21/19 03:30:31  5-MIN KAQV 210930Z AUTO 00000KT 10SM CLR 09/08 A3002 290 93 -200 000/00 RMK AO2 T00940083
03949KAQV AQV20190421033510804/21/19 03:35:31  5-MIN KAQV 210935Z AUTO 00000KT 10SM CLR 09/08 A3002 290 93 -200 000/00 RMK AO2 T00940083
03949KAQV AQV20190421034010804/21/19 03:40:31  5-MIN KAQV 210940Z AUTO 00000KT 10SM CLR 09/08 A3002 290 93 -200 000/00 RMK AO2 T00940083
03949KAQV AQV20190421034510804/21/19 03:45:31  5-MIN KAQV 210945Z AUTO 00000KT 10SM CLR 09/08 A3002 290 93 -200 000/00 RMK AO2 T00940083
03949KAQV AQV20190421035011404/21/19 03:50:31  5-MIN KAQV 210950Z AUTO 00000KT 9SM CLR 09/08 A3002 290 93 -200 000/00 RMK AO2 SLP164 T00940083
03949KAQV AQV20190421035511404/21/19 03:55:31  5-MIN KAQV 210955Z AUTO 00000KT 8SM CLR 09/08 A3002 290 93 -200 000/00 RMK AO2 SLP163 T00940083
03949KAQV AQV20190421040010704/21/19 04:00:31  5-MIN KAQV 211000Z AUTO 00000KT 8SM CLR 09/08 A3001 290 93 -200 000/00 RMK AO2 T00940083
03949KAQV AQV20190421040510704/21/19 04:05:31  5-MIN KAQV 211005Z AUTO 00000KT 8SM CLR 09/08 A3001 290 93 -200 000/00 RMK AO2 T00940083
03949KAQV AQV20190421041010704/21/19 04:10:31  5-MIN KAQV 211010Z AUTO 00000KT 8SM CLR 09/08 A3002 290 93 -200 000/00 RMK AO2 T00940083
03949KAQV AQV20190421041510704/21/19 04:15:31  5-MIN KAQV 211015Z AUTO 00000KT 9SM CLR 09/08 A3002 290 93 -200 000/00 RMK AO2 T00940083
03949KAQV AQV20190421042010704/21/19 04:20:31  5-MIN KAQV 211020Z AUTO 00000KT 8SM CLR 09/08 A3002 280 93 -200 000/00 RMK AO2 T00940083
03949KAQV AQV20190421042510704/21/19 04:25:31  5-MIN KAQV 211025Z AUTO 00000KT 8SM CLR 09/08 A3002 280 93 -200 000/00 RMK AO2 T00940083
03949KAQV AQV20190421043010704/21/19 04:30:31  5-MIN KAQV 211030Z AUTO 00000KT 8SM CLR 09/08 A3002 280 93 -200 000/00 RMK AO2 T00940083
03949KAQV AQV20190421043510704/21/19 04:35:31  5-MIN KAQV 211035Z AUTO 00000KT 9SM CLR 09/08 A3002 280 93 -200 000/00 RMK AO2 T00940083
03949KAQV AQV20190421044010804/21/19 04:40:31  5-MIN KAQV 211040Z AUTO 00000KT 10SM CLR 09/08 A3002 280 93 -200 000/00 RMK AO2 T00940083
03949KAQV AQV20190421044510804/21/19 04:45:31  5-MIN KAQV 211045Z AUTO 00000KT 10SM CLR 09/08 A3002 280 93 -200 000/00 RMK AO2 T00940083
03949KAQV AQV20190421045011404/21/19 04:50:31  5-MIN KAQV 211050Z AUTO 00000KT 9SM CLR 09/08 A3002 280 93 -200 000/00 RMK AO2 SLP166 T00940083
03949KAQV AQV20190421045511404/21/19 04:55:31  5-MIN KAQV 211055Z AUTO 00000KT 8SM CLR 09/08 A3003 280 93 -200 000/00 RMK AO2 SLP167 T00940083
03949KAQV AQV20190421050010704/21/19 05:00:31  5-MIN KAQV 211100Z AUTO 00000KT 8SM CLR 09/08 A3003 280 93 -200 000/00 RMK AO2 T00940083
03949KAQV AQV20190421050510704/21/19 05:05:31  5-MIN KAQV 211105Z AUTO 00000KT 8SM CLR 09/08 A3003 280 93 -200 000/00 RMK AO2 T00940083
03949KAQV AQV20190421051010704/21/19 05:10:31  5-MIN KAQV 211110Z AUTO 00000KT 7SM CLR 09/08 A3003 280 93 -200 000/00 RMK AO2 T00940083
03949KAQV AQV20190421051510704/21/19 05:15:31  5-MIN KAQV 211115Z AUTO 00000KT 7SM CLR 09/08 A3003 270 93 -200 000/00 RMK AO2 T00940083
03949KAQV AQV20190421052010704/21/19 05:20:31  5-MIN KAQV 211120Z AUTO 00000KT 7SM CLR 09/08 A3003 270 93 -200 000/00 RMK AO2 T00940083
03949KAQV AQV20190421052510704/21/19 05:25:31  5-MIN KAQV 211125Z AUTO 00000KT 7SM CLR 09/08 A3003 270 93 -200 000/00 RMK AO2 T00940083
03949KAQV AQV20190421053010704/21/19 05:30:31  5-MIN KAQV 211130Z AUTO 00000KT 7SM CLR 09/08 A3004 270 93 -200 000/00 RMK AO2 T00940083
03949KAQV AQV20190421053511004/21/19 05:35:31  5-MIN KAQV 211135Z AUTO 00000KT 6SM BR CLR 09/08 A3004 270 93 -200 000/00 RMK AO2 T00940083
03949KAQV AQV20190421054011004/21/19 05:40:31  5-MIN KAQV 211140Z AUTO 00000KT 5SM BR CLR 09/08 A3004 270 93 -200 000/00 RMK AO2 T00940083
03949KAQV AQV20190421054511004/21/19 05:45:31  5-MIN KAQV 211145Z AUTO 00000KT 6SM BR CLR 09/08 A3004 260 93 -200 000/00 RMK AO2 T00940083
03949KAQV AQV20190421055013504/21/19 05:50:31  5-MIN KAQV 211150Z AUTO 00000KT 6SM BR CLR 09/08 A3004 260 93 -300 000/00 RMK AO2 SLP173 T00940083 10111 20094 55002
03949KAQV AQV20190421055513504/21/19 05:55:31  5-MIN KAQV 211155Z AUTO 00000KT 6SM BR CLR 09/08 A3004 260 93 -300 000/00 RMK AO2 SLP173 T00940083 10111 20094 55002
03949KAQV AQV20190421060011004/21/19 06:00:31  5-MIN KAQV 211200Z AUTO 00000KT 6SM BR CLR 09/08 A3005 260 93 -300 000/00 RMK AO2 T00940083
03949KAQV AQV20190421060511004/21/19 06:05:31  5-MIN KAQV 211205Z AUTO 00000KT 6SM BR CLR 09/08 A3005 260 93 -300 000/00 RMK AO2 T00940083
03949KAQV AQV20190421061011004/21/19 06:10:31  5-MIN KAQV 211210Z AUTO 00000KT 6SM BR CLR 09/09 A3005 260 96 -300 000/00 RMK AO2 T00940089
03949KAQV AQV20190421061511104/21/19 06:15:31  5-MIN KAQV 211215Z AUTO 17003KT 6SM BR CLR 09/09 A3005 250 100 -300 170/03 RMK AO2 T00940094
03949KAQV AQV20190421062010704/21/19 06:20:31  5-MIN KAQV 211220Z AUTO 00000KT 7SM CLR 10/09 A3006 250 96 -200 000/00 RMK AO2 T01000094
03949KAQV AQV20190421062510704/21/19 06:25:31  5-MIN KAQV 211225Z AUTO 00000KT 7SM CLR 10/09 A3006 250 96 -200 000/00 RMK AO2 T01000094
03949KAQV AQV20190421063010804/21/19 06:30:31  5-MIN KAQV 211230Z AUTO 00000KT 8SM CLR 10/10 A3006 250 100 -200 000/00 RMK AO2 T01000100
03949KAQV AQV20190421063510704/21/19 06:35:31  5-MIN KAQV 211235Z AUTO 00000KT 9SM CLR 11/10 A3006 240 96 -100 000/00 RMK AO2 T01060100
03949KAQV AQV20190421064010804/21/19 06:40:31  5-MIN KAQV 211240Z AUTO VRB03KT 10SM CLR 11/10 A3007 240 96 -100 VRB/03 RMK AO2 T01060100
03949KAQV AQV20190421064510504/21/19 06:45:31  5-MIN KAQV 211245Z AUTO 18003KT 10SM CLR 12/11 A3007 240 93 0 170/03 RMK AO2 T01170106
03949KAQV AQV20190421065011204/21/19 06:50:31  5-MIN KAQV 211250Z AUTO 18004KT 10SM CLR 12/11 A3007 240 93 0 180/04 RMK AO2 SLP181 T01220111
03949KAQV AQV20190421065511404/21/19 06:55:31  5-MIN KAQV 211255Z AUTO 18003KT 10SM CLR 13/11 A3007 240 86 100 180/03 RMK AO2 SLP182 T01330111
03949KAQV AQV20190421070010704/21/19 07:00:31  5-MIN KAQV 211300Z AUTO 18004KT 10SM CLR 14/11 A3007 240 83 200 180/04 RMK AO2 T01390111
03949KAQV AQV20190421070510704/21/19 07:05:31  5-MIN KAQV 211305Z AUTO 17004KT 10SM CLR 14/12 A3007 240 83 300 170/04 RMK AO2 T01440117
03949KAQV AQV20190421071010704/21/19 07:10:31  5-MIN KAQV 211310Z AUTO 18004KT 10SM CLR 14/12 A3007 240 83 300 170/04 RMK AO2 T01440117
03949KAQV AQV20190421071510704/21/19 07:15:31  5-MIN KAQV 211315Z AUTO 18005KT 10SM CLR 15/12 A3007 240 80 300 180/05 RMK AO2 T01500117
03949KAQV AQV20190421072010704/21/19 07:20:31  5-MIN KAQV 211320Z AUTO VRB04KT 10SM CLR 16/12 A3007 230 80 400 VRB/04 RMK AO2 T01560122
03949KAQV AQV20190421072510704/21/19 07:25:31  5-MIN KAQV 211325Z AUTO VRB05KT 10SM CLR 16/12 A3008 230 77 400 VRB/05 RMK AO2 T01560117
03949KAQV AQV20190421073010704/21/19 07:30:31  5-MIN KAQV 211330Z AUTO 18005KT 10SM CLR 16/12 A3008 230 77 500 170/05 RMK AO2 T01610122
03949KAQV AQV20190421073510704/21/19 07:35:31  5-MIN KAQV 211335Z AUTO VRB04KT 10SM CLR 16/12 A3008 230 77 500 VRB/04 RMK AO2 T01610122
03949KAQV AQV20190421074010704/21/19 07:40:31  5-MIN KAQV 211340Z AUTO 18005KT 10SM CLR 17/12 A3008 230 75 500 180/05 RMK AO2 T01670122
03949KAQV AQV20190421074510704/21/19 07:45:31  5-MIN KAQV 211345Z AUTO 18006KT 10SM CLR 17/13 A3008 230 75 600 180/06 RMK AO2 T01720128
03949KAQV AQV20190421075011404/21/19 07:50:31  5-MIN KAQV 211350Z AUTO 18005KT 10SM CLR 17/12 A3008 230 72 600 170/05 RMK AO2 SLP185 T01720122
03949KAQV AQV20190421075511404/21/19 07:55:31  5-MIN KAQV 211355Z AUTO VRB05KT 10SM CLR 17/13 A3008 230 75 600 VRB/05 RMK AO2 SLP186 T01720128
03949KAQV AQV20190421080010704/21/19 08:00:31  5-MIN KAQV 211400Z AUTO VRB03KT 10SM CLR 18/13 A3008 230 72 600 VRB/03 RMK AO2 T01780128
03949KAQV AQV20190421080510704/21/19 08:05:31  5-MIN KAQV 211405Z AUTO VRB04KT 10SM CLR 18/13 A3008 230 72 600 VRB/04 RMK AO2 T01780128
03949KAQV AQV20190421081010704/21/19 08:10:31  5-MIN KAQV 211410Z AUTO VRB04KT 10SM CLR 18/13 A3009 220 70 700 VRB/04 RMK AO2 T01830128
03949KAQV AQV20190421081510704/21/19 08:15:31  5-MIN KAQV 211415Z AUTO VRB06KT 10SM CLR 18/13 A3009 220 72 700 VRB/06 RMK AO2 T01830133
03949KAQV AQV20190421082010704/21/19 08:20:31  5-MIN KAQV 211420Z AUTO VRB05KT 10SM CLR 19/13 A3009 220 70 800 VRB/05 RMK AO2 T01890133
03949KAQV AQV20190421082510704/21/19 08:25:31  5-MIN KAQV 211425Z AUTO 19005KT 10SM CLR 19/13 A3009 220 70 800 180/05 RMK AO2 T01890133
03949KAQV AQV20190421083010704/21/19 08:30:31  5-MIN KAQV 211430Z AUTO 19006KT 10SM CLR 19/13 A3009 220 67 800 180/06 RMK AO2 T01940133
03949KAQV AQV20190421083509704/21/19 08:35:31  5-MIN KAQV 211435Z AUTO 10SM CLR 19/13 A3009 220 67 800 M /M RMK AO2 T01940133
03949KAQV AQV20190421084010704/21/19 08:40:31  5-MIN KAQV 211440Z AUTO VRB06KT 10SM CLR 20/13 A3009 220 65 900 VRB/06 RMK AO2 T02000133
03949KAQV AQV20190421084510704/21/19 08:45:31  5-MIN KAQV 211445Z AUTO VRB04KT 10SM CLR 20/13 A3009 220 65 900 VRB/04 RMK AO2 T02000133
03949KAQV AQV20190421085012104/21/19 08:50:31  5-MIN KAQV 211450Z AUTO VRB06KT 10SM CLR 21/13 A3009 220 60 1000 VRB/06 RMK AO2 SLP187 T02060128 53011
03949KAQV AQV20190421085512104/21/19 08:55:31  5-MIN KAQV 211455Z AUTO VRB04KT 10SM CLR 21/13 A3009 220 61 1000 VRB/04 RMK AO2 SLP188 T02110133 53011
03949KAQV AQV20190421090010804/21/19 09:00:31  5-MIN KAQV 211500Z AUTO 17008KT 10SM CLR 21/13 A3009 220 63 1000 170/08 RMK AO2 T02060133
03949KAQV AQV20190421090510804/21/19 09:05:31  5-MIN KAQV 211505Z AUTO VRB05KT 10SM CLR 21/12 A3009 220 58 1000 VRB/05 RMK AO2 T02060122
03949KAQV AQV20190421091012404/21/19 09:10:31  5-MIN KAQV 211510Z AUTO 17007KT 140V200 10SM CLR 21/13 A3009 220 58 1000 160/07 140V200 RMK AO2 T02110128
03949KAQV AQV20190421091510804/21/19 09:15:31  5-MIN KAQV 211515Z AUTO 20005KT 10SM CLR 21/12 A3009 220 56 1000 190/05 RMK AO2 T02110122
03949KAQV AQV20190421092010804/21/19 09:20:31  5-MIN KAQV 211520Z AUTO VRB05KT 10SM CLR 22/12 A3009 220 54 1100 VRB/05 RMK AO2 T02170122
03949KAQV AQV20190421092510804/21/19 09:25:31  5-MIN KAQV 211525Z AUTO 18007KT 10SM CLR 21/12 A3010 210 56 1000 170/07 RMK AO2 T02110122
03949KAQV AQV20190421093010804/21/19 09:30:31  5-MIN KAQV 211530Z AUTO 19006KT 10SM CLR 22/12 A3010 210 52 1100 190/06 RMK AO2 T02220122
03949KAQV AQV20190421093510804/21/19 09:35:31  5-MIN KAQV 211535Z AUTO VRB04KT 10SM CLR 22/12 A3010 210 52 1100 VRB/04 RMK AO2 T02170117
03949KAQV AQV20190421094010804/21/19 09:40:31  5-MIN KAQV 211540Z AUTO VRB05KT 10SM CLR 22/12 A3010 210 51 1100 VRB/05 RMK AO2 T02220117
03949KAQV AQV20190421094512404/21/19 09:45:31  5-MIN KAQV 211545Z AUTO 15007KT 110V180 10SM CLR 23/12 A3010 210 49 1200 150/07 110V180 RMK AO2 T02280117
03949KAQV AQV20190421095013104/21/19 09:50:31  5-MIN KAQV 211550Z AUTO 17007KT 090V200 10SM CLR 22/11 A3010 210 47 1100 170/07 090V200 RMK AO2 SLP193 T02220106
03949KAQV AQV20190421095513704/21/19 09:55:31  5-MIN KAQV 211555Z AUTO 17007G15KT 120V200 10SM CLR 22/10 A3010 210 45 1100 170/07G15 120V200 RMK AO2 SLP194 T02220100
03949KAQV AQV20190421100011404/21/19 10:00:31  5-MIN KAQV 211600Z AUTO 19007G15KT 10SM CLR 23/09 A3011 210 42 1200 180/07G15 RMK AO2 T02280094
03949KAQV AQV20190421100513004/21/19 10:05:31  5-MIN KAQV 211605Z AUTO 18008G14KT 150V230 10SM CLR 22/10 A3011 200 45 1100 180/08G14 150V230 RMK AO2 T02220100
03949KAQV AQV20190421101011404/21/19 10:10:31  5-MIN KAQV 211610Z AUTO 17007G15KT 10SM CLR 23/09 A3011 200 42 1200 170/07G15 RMK AO2 T02280094
03949KAQV AQV20190421101511404/21/19 10:15:31  5-MIN KAQV 211615Z AUTO VRB06G15KT 10SM CLR 23/10 A3011 200 44 1200 VRB/06G15 RMK AO2 T02280100
03949KAQV AQV20190421102011404/21/19 10:20:31  5-MIN KAQV 211620Z AUTO 19008G15KT 10SM CLR 23/10 A3011 200 42 1300 190/08G15 RMK AO2 T02330100
03949KAQV AQV20190421102511404/21/19 10:25:31  5-MIN KAQV 211625Z AUTO VRB05G15KT 10SM CLR 23/10 A3011 200 42 1300 VRB/05G15 RMK AO2 T02330100
03949KAQV AQV20190421103010804/21/19 10:30:31  5-MIN KAQV 211630Z AUTO 15007KT 10SM CLR 23/11 A3010 210 44 1300 150/07 RMK AO2 T02330106
03949KAQV AQV20190421103512404/21/19 10:35:31  5-MIN KAQV 211635Z AUTO 16007KT 120V190 10SM CLR 23/11 A3010 210 44 1300 160/07 120V190 RMK AO2 T02330106
03949KAQV AQV20190421104010804/21/19 10:40:31  5-MIN KAQV 211640Z AUTO VRB06KT 10SM CLR 23/10 A3010 210 42 1300 VRB/06 RMK AO2 T02330100
03949KAQV AQV20190421104510804/21/19 10:45:31  5-MIN KAQV 211645Z AUTO VRB04KT 10SM CLR 24/11 A3010 210 42 1300 VRB/04 RMK AO2 T02390106
03949KAQV AQV20190421105011504/21/19 10:50:31  5-MIN KAQV 211650Z AUTO VRB06KT 10SM CLR 24/11 A3010 210 42 1300 VRB/06 RMK AO2 SLP191 T02390106
03949KAQV AQV20190421105511504/21/19 10:55:31  5-MIN KAQV 211655Z AUTO 17006KT 10SM CLR 24/11 A3010 210 42 1300 170/06 RMK AO2 SLP191 T02390106
03949KAQV AQV20190421110010804/21/19 11:00:31  5-MIN KAQV 211700Z AUTO VRB05KT 10SM CLR 24/10 A3010 210 39 1400 VRB/05 RMK AO2 T02440100
03949KAQV AQV20190421110510804/21/19 11:05:31  5-MIN KAQV 211705Z AUTO VRB06KT 10SM CLR 24/11 A3010 210 42 1300 VRB/06 RMK AO2 T02390106
03949KAQV AQV20190421111010804/21/19 11:10:31  5-MIN KAQV 211710Z AUTO VRB04KT 10SM CLR 24/11 A3010 210 42 1400 VRB/04 RMK AO2 T02440111
03949KAQV AQV20190421111510804/21/19 11:15:31  5-MIN KAQV 211715Z AUTO VRB06KT 10SM CLR 25/11 A3010 210 39 1500 VRB/06 RMK AO2 T02500106
03949KAQV AQV20190421112010804/21/19 11:20:31  5-MIN KAQV 211720Z AUTO VRB06KT 10SM CLR 24/10 A3010 210 39 1400 VRB/06 RMK AO2 T02440100
03949KAQV AQV20190421112512404/21/19 11:25:31  5-MIN KAQV 211725Z AUTO 18008KT 130V210 10SM CLR 24/09 A3010 210 38 1400 170/08 130V210 RMK AO2 T02440094
03949KAQV AQV20190421113011404/21/19 11:30:31  5-MIN KAQV 211730Z AUTO 17010G16KT 10SM CLR 24/09 A3010 210 38 1400 170/10G16 RMK AO2 T02440094
03949KAQV AQV20190421113513004/21/19 11:35:31  5-MIN KAQV 211735Z AUTO 20007G16KT 150V240 10SM CLR 24/08 A3009 220 36 1300 200/07G16 150V240 RMK AO2 T02390083
03949KAQV AQV20190421114011404/21/19 11:40:31  5-MIN KAQV 211740Z AUTO VRB05G15KT 10SM CLR 24/09 A3009 220 36 1400 VRB/05G15 RMK AO2 T02440089
03949KAQV AQV20190421114512404/21/19 11:45:31  5-MIN KAQV 211745Z AUTO 16007KT 100V210 10SM CLR 25/09 A3009 220 37 1500 160/07 100V210 RMK AO2 T02500094
03949KAQV AQV20190421115013304/21/19 11:50:31  5-MIN KAQV 211750Z AUTO VRB06KT 10SM CLR 24/09 A3009 220 38 1400 VRB/06 RMK AO2 SLP188 T02440094 10250 20094 51014
03949KAQV AQV20190421115513904/21/19 11:55:31  5-MIN KAQV 211755Z AUTO 18009G15KT 10SM CLR 24/09 A3009 220 38 1400 170/09G15 RMK AO2 SLP188 T02440094 10250 20094 51014
03949KAQV AQV20190421120011404/21/19 12:00:31  5-MIN KAQV 211800Z AUTO VRB06G15KT 10SM CLR 25/09 A3009 220 37 1500 VRB/06G15 RMK AO2 T02500094
03949KAQV AQV20190421120510804/21/19 12:05:31  5-MIN KAQV 211805Z AUTO VRB05KT 10SM CLR 25/09 A3009 220 37 1500 VRB/05 RMK AO2 T02500094
03949KAQV AQV20190421121012404/21/19 12:10:31  5-MIN KAQV 211810Z AUTO 20007KT 130V250 10SM CLR 25/09 A3009 220 37 1500 190/07 130V250 RMK AO2 T02500094
03949KAQV AQV20190421121512404/21/19 12:15:31  5-MIN KAQV 211815Z AUTO 17009KT 140V220 10SM CLR 25/09 A3009 220 35 1500 170/09 140V220 RMK AO2 T02500089
03949KAQV AQV20190421122012404/21/19 12:20:31  5-MIN KAQV 211820Z AUTO 20010KT 170V240 10SM CLR 25/08 A3009 220 33 1500 200/10 170V240 RMK AO2 T02500078
03949KAQV AQV20190421122513004/21/19 12:25:31  5-MIN KAQV 211825Z AUTO 20010G14KT 170V250 10SM CLR 25/07 A3009 220 31 1500 190/10G14 170V250 RMK AO2 T02500072
03949KAQV AQV20190421123013004/21/19 12:30:31  5-MIN KAQV 211830Z AUTO 19008G14KT 160V290 10SM CLR 25/07 A3009 220 31 1500 190/08G14 160V290 RMK AO2 T02500072
03949KAQV AQV20190421123510804/21/19 12:35:31  5-MIN KAQV 211835Z AUTO VRB04KT 10SM CLR 26/08 A3009 220 32 1500 VRB/04 RMK AO2 T02560078
03949KAQV AQV20190421124009804/21/19 12:40:31  5-MIN KAQV 211840Z AUTO 10SM CLR 26/08 A3009 220 33 1500 M /M RMK AO2 T02560083
03949KAQV AQV20190421124510804/21/19 12:45:31  5-MIN KAQV 211845Z AUTO VRB06KT 10SM CLR 26/08 A3008 230 32 1600 VRB/06 RMK AO2 T02610083
03949KAQV AQV20190421125013104/21/19 12:50:31  5-MIN KAQV 211850Z AUTO 17007KT 100V210 10SM CLR 26/09 A3008 230 33 1600 160/07 100V210 RMK AO2 SLP185 T02610089
03949KAQV AQV20190421125513104/21/19 12:55:31  5-MIN KAQV 211855Z AUTO 19007KT 160V230 10SM CLR 26/08 A3008 230 32 1500 190/07 160V230 RMK AO2 SLP185 T02560078
03949KAQV AQV20190421130013004/21/19 13:00:31  5-MIN KAQV 211900Z AUTO 20007G15KT 160V240 10SM CLR 26/08 A3008 230 32 1500 190/07G15 160V240 RMK AO2 T02560078
03949KAQV AQV20190421130512404/21/19 13:05:31  5-MIN KAQV 211905Z AUTO 16008KT 130V190 10SM CLR 26/08 A3008 230 31 1600 160/08 130V190 RMK AO2 T02610078
03949KAQV AQV20190421131011404/21/19 13:10:31  5-MIN KAQV 211910Z AUTO VRB05G15KT 10SM CLR 26/07 A3008 230 30 1500 VRB/05G15 RMK AO2 T02560072
03949KAQV AQV20190421131511404/21/19 13:15:31  5-MIN KAQV 211915Z AUTO VRB03G15KT 10SM CLR 26/08 A3007 230 31 1600 VRB/03G15 RMK AO2 T02610078
03949KAQV AQV20190421132010804/21/19 13:20:31  5-MIN KAQV 211920Z AUTO 15005KT 10SM CLR 27/09 A3007 240 32 1700 150/05 RMK AO2 T02670089
03949KAQV AQV20190421132510804/21/19 13:25:31  5-MIN KAQV 211925Z AUTO VRB06KT 10SM CLR 26/08 A3007 230 31 1600 VRB/06 RMK AO2 T02610078
03949KAQV AQV20190421133010804/21/19 13:30:31  5-MIN KAQV 211930Z AUTO 20006KT 10SM CLR 26/07 A3007 240 29 1600 190/06 RMK AO2 T02610072
03949KAQV AQV20190421133511404/21/19 13:35:31  5-MIN KAQV 211935Z AUTO 17009G16KT 10SM CLR 27/07 A3007 240 28 1700 170/09G16 RMK AO2 T02670072
03949KAQV AQV20190421134013004/21/19 13:40:31  5-MIN KAQV 211940Z AUTO 17007G16KT 130V200 10SM CLR 27/07 A3007 240 27 1700 170/07G16 130V200 RMK AO2 T02670067
03949KAQV AQV20190421134512404/21/19 13:45:31  5-MIN KAQV 211945Z AUTO 18008KT 150V240 10SM CLR 27/07 A3007 240 27 1700 180/08 150V240 RMK AO2 T02670067
03949KAQV AQV20190421135011504/21/19 13:50:31  5-MIN KAQV 211950Z AUTO VRB05KT 10SM CLR 27/06 A3006 240 26 1700 VRB/05 RMK AO2 SLP179 T02670061
03949KAQV AQV20190421135513104/21/19 13:55:31  5-MIN KAQV 211955Z AUTO 19007KT 160V230 10SM CLR 27/06 A3006 250 25 1800 180/07 160V230 RMK AO2 SLP178 T02720061
03949KAQV AQV20190421140010804/21/19 14:00:31  5-MIN KAQV 212000Z AUTO VRB06KT 10SM CLR 27/06 A3006 250 26 1700 VRB/06 RMK AO2 T02670061
03949KAQV AQV20190421140510804/21/19 14:05:31  5-MIN KAQV 212005Z AUTO VRB04KT 10SM CLR 27/07 A3006 250 27 1700 VRB/04 RMK AO2 T02670067
03949KAQV AQV20190421141011404/21/19 14:10:31  5-MIN KAQV 212010Z AUTO 20007G15KT 10SM CLR 27/06 A3006 250 26 1700 190/07G15 RMK AO2 T02670061
03949KAQV AQV20190421141511404/21/19 14:15:31  5-MIN KAQV 212015Z AUTO 18008G15KT 10SM CLR 27/06 A3005 250 25 1700 180/08G15 RMK AO2 T02670056
03949KAQV AQV20190421142010804/21/19 14:20:31  5-MIN KAQV 212020Z AUTO VRB04KT 10SM CLR 27/06 A3005 250 26 1700 VRB/04 RMK AO2 T02670061
03949KAQV AQV20190421142512404/21/19 14:25:31  5-MIN KAQV 212025Z AUTO 21008KT 180V240 10SM CLR 27/06 A3005 260 25 1700 210/08 180V240 RMK AO2 T02670056
03949KAQV AQV20190421143012404/21/19 14:30:31  5-MIN KAQV 212030Z AUTO 19008KT 160V250 10SM CLR 27/06 A3005 260 26 1700 190/08 160V250 RMK AO2 T02670061
03949KAQV AQV20190421143512404/21/19 14:35:31  5-MIN KAQV 212035Z AUTO 22007KT 180V270 10SM CLR 27/06 A3005 260 25 1700 210/07 180V270 RMK AO2 T02670056
03949KAQV AQV20190421144010804/21/19 14:40:31  5-MIN KAQV 212040Z AUTO VRB06KT 10SM CLR 27/07 A3004 260 27 1700 VRB/06 RMK AO2 T02670067
03949KAQV AQV20190421144510804/21/19 14:45:31  5-MIN KAQV 212045Z AUTO VRB06KT 10SM CLR 27/07 A3004 260 26 1800 VRB/06 RMK AO2 T02720067
03949KAQV AQV20190421145012104/21/19 14:50:31  5-MIN KAQV 212050Z AUTO VRB04KT 10SM CLR 27/07 A3004 270 27 1800 VRB/04 RMK AO2 SLP170 T02720072 50001
03949KAQV AQV20190421145512104/21/19 14:55:31  5-MIN KAQV 212055Z AUTO 19006KT 10SM CLR 27/07 A3004 270 26 1800 190/06 RMK AO2 SLP170 T02720067 50001
03949KAQV AQV20190421150009804/21/19 15:00:31  5-MIN KAQV 212100Z AUTO 10SM CLR 27/06 A3004 270 26 1700 M /M RMK AO2 T02670061
03949KAQV AQV20190421150510804/21/19 15:05:31  5-MIN KAQV 212105Z AUTO VRB06KT 10SM CLR 27/06 A3004 270 26 1700 VRB/06 RMK AO2 T02670061
03949KAQV AQV20190421151010804/21/19 15:10:31  5-MIN KAQV 212110Z AUTO VRB05KT 10SM CLR 27/06 A3003 270 26 1700 VRB/05 RMK AO2 T02670061
03949KAQV AQV20190421151510704/21/19 15:15:31  5-MIN KAQV 212115Z AUTO VRB06KT 8SM CLR 27/07 A3003 270 26 1800 VRB/06 RMK AO2 T02720067
03949KAQV AQV20190421152011004/21/19 15:20:31  5-MIN KAQV 212120Z AUTO VRB06KT 6SM HZ CLR 27/06 A3003 280 26 1700 VRB/06 RMK AO2 T02670061
03949KAQV AQV20190421152510704/21/19 15:25:31  5-MIN KAQV 212125Z AUTO VRB05KT 7SM CLR 27/07 A3003 270 26 1800 VRB/05 RMK AO2 T02720067
03949KAQV AQV20190421153012404/21/19 15:30:31  5-MIN KAQV 212130Z AUTO 22007KT 160V260 10SM CLR 27/07 A3003 270 28 1700 220/07 160V260 RMK AO2 T02670072
03949KAQV AQV20190421153513904/21/19 15:35:31  5-MIN KAQV 212135Z AUTO VRB04KT 10SM CLR 27/07 A3003 270 28 1700 VRB/04 RMK AO2 IN LISTING COMPLETE, 144 5MIN(S) LISTED.
03949KAQV AQV20190421161510804/21/19 16:15:31  5-MIN KAQV 212215Z AUTO VRB06KT 10SM CLR 26/07 A3004 270 29 1700 VRB/06 RMK AO2 T02610072
03949KAQV AQV20190421162011004/21/19 16:20:31  5-MIN KAQV 212220Z AUTO VRB06KT 6SM HZ CLR 26/08 A3004 270 31 1700 VRB/06 RMK AO2 T02610078
03949KAQV AQV20190421162511004/21/19 16:25:31  5-MIN KAQV 212225Z AUTO VRB06KT 6SM HZ CLR 26/08 A3004 270 31 1700 VRB/06 RMK AO2 T02610078
03949KAQV AQV20190421163010704/21/19 16:30:31  5-MIN KAQV 212230Z AUTO 21005KT 9SM CLR 26/07 A3004 270 29 1700 210/05 RMK AO2 T02610072
03949KAQV AQV20190421163510804/21/19 16:35:31  5-MIN KAQV 212235Z AUTO VRB06KT 10SM CLR 26/08 A3004 270 31 1700 VRB/06 RMK AO2 T02610078
03949KAQV AQV20190421164010804/21/19 16:40:31  5-MIN KAQV 212240Z AUTO VRB06KT 10SM CLR 26/08 A3004 270 31 1700 VRB/06 RMK AO2 T02610078
03949KAQV AQV20190421164510804/21/19 16:45:31  5-MIN KAQV 212245Z AUTO VRB06KT 10SM CLR 26/08 A3004 260 33 1600 VRB/06 RMK AO2 T02560083
03949KAQV AQV20190421165011504/21/19 16:50:31  5-MIN KAQV 212250Z AUTO 19007KT 10SM CLR 26/08 A3004 260 33 1600 180/07 RMK AO2 SLP172 T02560083
03949KAQV AQV20190421165511504/21/19 16:55:31  5-MIN KAQV 212255Z AUTO VRB05KT 10SM CLR 26/08 A3005 260 33 1600 VRB/05 RMK AO2 SLP172 T02560083
03949KAQV AQV20190421170010804/21/19 17:00:31  5-MIN KAQV 212300Z AUTO 17008KT 10SM CLR 26/08 A3005 260 33 1600 170/08 RMK AO2 T02560083
03949KAQV AQV20190421170510804/21/19 17:05:31  5-MIN KAQV 212305Z AUTO VRB05KT 10SM CLR 26/08 A3005 260 33 1600 VRB/05 RMK AO2 T02560083
03949KAQV AQV20190421171010804/21/19 17:10:31  5-MIN KAQV 212310Z AUTO VRB06KT 10SM CLR 25/08 A3005 260 34 1500 VRB/06 RMK AO2 T02500083
03949KAQV AQV20190421171510804/21/19 17:15:31  5-MIN KAQV 212315Z AUTO 18006KT 10SM CLR 25/08 A3005 260 34 1500 180/06 RMK AO2 T02500083
03949KAQV AQV20190421172010804/21/19 17:20:31  5-MIN KAQV 212320Z AUTO VRB05KT 10SM CLR 25/09 A3005 260 35 1500 VRB/05 RMK AO2 T02500089
03949KAQV AQV20190421172512404/21/19 17:25:31  5-MIN KAQV 212325Z AUTO 19007KT 160V230 10SM CLR 25/08 A3005 260 34 1500 190/07 160V230 RMK AO2 T02500083
03949KAQV AQV20190421173010804/21/19 17:30:31  5-MIN KAQV 212330Z AUTO VRB06KT 10SM CLR 24/08 A3005 260 35 1500 VRB/06 RMK AO2 T02440083
03949KAQV AQV20190421173510804/21/19 17:35:31  5-MIN KAQV 212335Z AUTO VRB05KT 10SM CLR 24/08 A3005 260 35 1500 VRB/05 RMK AO2 T02440083
03949KAQV AQV20190421174010804/21/19 17:40:31  5-MIN KAQV 212340Z AUTO VRB05KT 10SM CLR 24/08 A3005 260 35 1500 VRB/05 RMK AO2 T02440083
03949KAQV AQV20190421174510804/21/19 17:45:31  5-MIN KAQV 212345Z AUTO VRB06KT 10SM CLR 24/09 A3005 260 36 1500 VRB/06 RMK AO2 T02440089
03949KAQV AQV20190421175013304/21/19 17:50:31  5-MIN KAQV 212350Z AUTO 16005KT 10SM CLR 24/09 A3005 260 38 1400 150/05 RMK AO2 SLP174 T02390089 10272 20239 58018
03949KAQV AQV20190421175513304/21/19 17:55:31  5-MIN KAQV 212355Z AUTO VRB05KT 10SM CLR 23/09 A3005 260 41 1300 VRB/05 RMK AO2 SLP174 T02330094 10272 20233 58018
03949KAQV AQV20190421180010804/21/19 18:00:31  5-MIN KAQV 220000Z AUTO VRB05KT 10SM CLR 23/09 A3005 260 42 1300 VRB/05 RMK AO2 T02280094
03949KAQV AQV20190421180510804/21/19 18:05:31  5-MIN KAQV 220005Z AUTO VRB06KT 10SM CLR 23/09 A3005 260 42 1300 VRB/06 RMK AO2 T02280094
03949KAQV AQV20190421181010804/21/19 18:10:31  5-MIN KAQV 220010Z AUTO VRB05KT 10SM CLR 23/09 A3005 260 42 1300 VRB/05 RMK AO2 T02280094
03949KAQV AQV20190421181510804/21/19 18:15:31  5-MIN KAQV 220015Z AUTO VRB05KT 10SM CLR 23/09 A3005 260 40 1300 VRB/05 RMK AO2 T02280089
03949KAQV AQV20190421182010804/21/19 18:20:31  5-MIN KAQV 220020Z AUTO VRB04KT 10SM CLR 22/09 A3005 260 42 1200 VRB/04 RMK AO2 T02220089
03949KAQV AQV20190421182510804/21/19 18:25:31  5-MIN KAQV 220025Z AUTO 17006KT 10SM CLR 22/09 A3005 260 45 1100 160/06 RMK AO2 T02170094
03949KAQV AQV20190421183010804/21/19 18:30:31  5-MIN KAQV 220030Z AUTO 17006KT 10SM CLR 22/09 A3005 250 43 1100 160/06 RMK AO2 T02170089
03949KAQV AQV20190421183510804/21/19 18:35:31  5-MIN KAQV 220035Z AUTO VRB05KT 10SM CLR 22/09 A3005 250 43 1100 VRB/05 RMK AO2 T02170089
03949KAQV AQV20190421184010804/21/19 18:40:31  5-MIN KAQV 220040Z AUTO VRB04KT 10SM CLR 21/09 A3005 250 47 1100 VRB/04 RMK AO2 T02110094
03949KAQV AQV20190421184510804/21/19 18:45:31  5-MIN KAQV 220045Z AUTO 17004KT 10SM CLR 21/09 A3006 250 48 1000 160/04 RMK AO2 T02060094
03949KAQV AQV20190421185011504/21/19 18:50:31  5-MIN KAQV 220050Z AUTO 17004KT 10SM CLR 21/09 A3006 250 48 1000 160/04 RMK AO2 SLP177 T02060094
03949KAQV AQV20190421185511404/21/19 18:55:31  5-MIN KAQV 220055Z AUTO 17004KT 10SM CLR 20/09 A3006 250 50 900 160/04 RMK AO2 SLP178 T02000094
03949KAQV AQV20190421190010704/21/19 19:00:31  5-MIN KAQV 220100Z AUTO VRB04KT 10SM CLR 20/10 A3006 250 52 900 VRB/04 RMK AO2 T02000100
03949KAQV AQV20190421190510704/21/19 19:05:31  5-MIN KAQV 220105Z AUTO 17005KT 10SM CLR 19/10 A3006 250 54 900 170/05 RMK AO2 T01940100
03949KAQV AQV20190421191010704/21/19 19:10:31  5-MIN KAQV 220110Z AUTO VRB04KT 10SM CLR 19/10 A3006 240 54 900 VRB/04 RMK AO2 T01940100
03949KAQV AQV20190421191510704/21/19 19:15:31  5-MIN KAQV 220115Z AUTO 17005KT 10SM CLR 19/10 A3006 240 54 900 170/05 RMK AO2 T01940100
03949KAQV AQV20190421192010704/21/19 19:20:31  5-MIN KAQV 220120Z AUTO 17004KT 10SM CLR 19/10 A3007 240 56 800 170/04 RMK AO2 T01890100
03949KAQV AQV20190421192510704/21/19 19:25:31  5-MIN KAQV 220125Z AUTO VRB03KT 10SM CLR 19/10 A3007 240 56 800 VRB/03 RMK AO2 T01890100
03949KAQV AQV20190421193010704/21/19 19:30:31  5-MIN KAQV 220130Z AUTO VRB04KT 10SM CLR 19/10 A3007 240 56 800 VRB/04 RMK AO2 T01890100
03949KAQV AQV20190421193510704/21/19 19:35:31  5-MIN KAQV 220135Z AUTO 18004KT 10SM CLR 18/10 A3007 240 58 700 170/04 RMK AO2 T01830100
03949KAQV AQV20190421194010704/21/19 19:40:31  5-MIN KAQV 220140Z AUTO VRB04KT 10SM CLR 18/10 A3007 240 58 700 VRB/04 RMK AO2 T01830100
03949KAQV AQV20190421194510704/21/19 19:45:31  5-MIN KAQV 220145Z AUTO 17004KT 10SM CLR 18/10 A3007 240 58 700 170/04 RMK AO2 T01830100
03949KAQV AQV20190421195011404/21/19 19:50:31  5-MIN KAQV 220150Z AUTO VRB03KT 10SM CLR 18/10 A3007 230 58 700 VRB/03 RMK AO2 SLP182 T01830100
03949KAQV AQV20190421195511404/21/19 19:55:31  5-MIN KAQV 220155Z AUTO 17004KT 10SM CLR 18/10 A3007 230 60 700 160/04 RMK AO2 SLP182 T01780100
03949KAQV AQV20190421200010704/21/19 20:00:31  5-MIN KAQV 220200Z AUTO 17003KT 10SM CLR 18/10 A3008 230 60 700 170/03 RMK AO2 T01780100
03949KAQV AQV20190421200510704/21/19 20:05:31  5-MIN KAQV 220205Z AUTO VRB03KT 10SM CLR 18/10 A3008 230 60 600 VRB/03 RMK AO2 T01780100
03949KAQV AQV20190421201010704/21/19 20:10:31  5-MIN KAQV 220210Z AUTO 17003KT 10SM CLR 18/10 A3008 230 60 600 160/03 RMK AO2 T01780100
03949KAQV AQV20190421201510704/21/19 20:15:31  5-MIN KAQV 220215Z AUTO VRB03KT 10SM CLR 18/10 A3008 230 60 600 VRB/03 RMK AO2 T01780100
03949KAQV AQV20190421202010704/21/19 20:20:31  5-MIN KAQV 220220Z AUTO 17004KT 10SM CLR 17/11 A3009 220 64 600 160/04 RMK AO2 T01720106
03949KAQV AQV20190421202510704/21/19 20:25:31  5-MIN KAQV 220225Z AUTO 17003KT 10SM CLR 17/11 A3009 220 64 600 160/03 RMK AO2 T01720106
03949KAQV AQV20190421203010704/21/19 20:30:31  5-MIN KAQV 220230Z AUTO 17003KT 10SM CLR 17/11 A3009 220 67 500 170/03 RMK AO2 T01670106
03949KAQV AQV20190421203510704/21/19 20:35:31  5-MIN KAQV 220235Z AUTO 16003KT 10SM CLR 17/11 A3009 220 67 500 160/03 RMK AO2 T01670106
03949KAQV AQV20190421204010704/21/19 20:40:31  5-MIN KAQV 220240Z AUTO 00000KT 10SM CLR 16/11 A3009 220 69 400 000/00 RMK AO2 T01610106
03949KAQV AQV20190421204510704/21/19 20:45:31  5-MIN KAQV 220245Z AUTO 00000KT 10SM CLR 16/11 A3009 220 69 400 000/00 RMK AO2 T01610106
03949KAQV AQV20190421205012004/21/19 20:50:31  5-MIN KAQV 220250Z AUTO 00000KT 10SM CLR 16/11 A3009 220 72 400 000/00 RMK AO2 SLP188 T01560106 53003
03949KAQV AQV20190421205512004/21/19 20:55:31  5-MIN KAQV 220255Z AUTO 15003KT 10SM CLR 16/11 A3009 220 74 400 150/03 RMK AO2 SLP188 T01560111 53003
03949KAQV AQV20190421210010704/21/19 21:00:31  5-MIN KAQV 220300Z AUTO 16003KT 10SM CLR 16/11 A3009 220 74 400 150/03 RMK AO2 T01560111
03949KAQV AQV20190421210510704/21/19 21:05:31  5-MIN KAQV 220305Z AUTO VRB03KT 10SM CLR 16/11 A3010 210 72 400 VRB/03 RMK AO2 T01560106
03949KAQV AQV20190421211010704/21/19 21:10:31  5-MIN KAQV 220310Z AUTO 16003KT 10SM CLR 16/11 A3009 220 74 400 160/03 RMK AO2 T01560111
03949KAQV AQV20190421211510704/21/19 21:15:31  5-MIN KAQV 220315Z AUTO 00000KT 10SM CLR 16/11 A3009 220 74 400 000/00 RMK AO2 T01560111
03949KAQV AQV20190421212010704/21/19 21:20:31  5-MIN KAQV 220320Z AUTO 17003KT 10SM CLR 16/11 A3009 220 74 400 160/03 RMK AO2 T01560111
03949KAQV AQV20190421212510704/21/19 21:25:31  5-MIN KAQV 220325Z AUTO 00000KT 10SM CLR 15/11 A3009 220 77 300 000/00 RMK AO2 T01500111
03949KAQV AQV20190421213010704/21/19 21:30:31  5-MIN KAQV 220330Z AUTO 16003KT 10SM CLR 15/11 A3009 220 77 300 150/03 RMK AO2 T01500111
03949KAQV AQV20190421213510704/21/19 21:35:31  5-MIN KAQV 220335Z AUTO 16003KT 10SM CLR 14/12 A3009 220 83 200 160/03 RMK AO2 T01440117
03949KAQV AQV20190421214010704/21/19 21:40:31  5-MIN KAQV 220340Z AUTO 17003KT 10SM CLR 14/11 A3009 220 80 200 160/03 RMK AO2 T01440111
03949KAQV AQV20190421214510704/21/19 21:45:31  5-MIN KAQV 220345Z AUTO 16003KT 10SM CLR 14/11 A3009 220 83 200 160/03 RMK AO2 T01390111
03949KAQV AQV20190421215011404/21/19 21:50:31  5-MIN KAQV 220350Z AUTO 17003KT 10SM CLR 14/11 A3009 220 80 200 160/03 RMK AO2 SLP188 T01440111
03949KAQV AQV20190421215511404/21/19 21:55:31  5-MIN KAQV 220355Z AUTO 17003KT 10SM CLR 14/11 A3009 220 80 200 160/03 RMK AO2 SLP188 T01440111
03949KAQV AQV20190421220010704/21/19 22:00:31  5-MIN KAQV 220400Z AUTO 17003KT 10SM CLR 14/11 A3009 220 83 200 160/03 RMK AO2 T01390111
03949KAQV AQV20190421220510704/21/19 22:05:31  5-MIN KAQV 220405Z AUTO VRB04KT 10SM CLR 14/11 A3009 220 80 200 VRB/04 RMK AO2 T01440111
03949KAQV AQV20190421221010704/21/19 22:10:31  5-MIN KAQV 220410Z AUTO VRB04KT 10SM CLR 15/11 A3009 220 77 300 VRB/04 RMK AO2 T01500111
03949KAQV AQV20190421221510704/21/19 22:15:31  5-MIN KAQV 220415Z AUTO 17003KT 10SM CLR 15/11 A3009 220 77 300 160/03 RMK AO2 T01500111
03949KAQV AQV20190421222010704/21/19 22:20:31  5-MIN KAQV 220420Z AUTO 17004KT 10SM CLR 14/11 A3009 220 80 200 170/04 RMK AO2 T01440111
03949KAQV AQV20190421222510704/21/19 22:25:31  5-MIN KAQV 220425Z AUTO 17003KT 10SM CLR 14/11 A3009 220 80 200 170/03 RMK AO2 T01440111
03949KAQV AQV20190421223010604/21/19 22:30:31  5-MIN KAQV 220430Z AUTO 16004KT 9SM CLR 14/11 A3009 220 83 200 160/04 RMK AO2 T01390111
03949KAQV AQV20190421223510704/21/19 22:35:31  5-MIN KAQV 220435Z AUTO 17003KT 10SM CLR 14/11 A3009 220 83 200 160/03 RMK AO2 T01390111
03949KAQV AQV20190421224010704/21/19 22:40:31  5-MIN KAQV 220440Z AUTO 17003KT 10SM CLR 14/11 A3009 220 83 200 160/03 RMK AO2 T01390111
03949KAQV AQV20190421224510704/21/19 22:45:31  5-MIN KAQV 220445Z AUTO 17004KT 10SM CLR 14/11 A3009 220 83 200 160/04 RMK AO2 T01390111
03949KAQV AQV20190421225011404/21/19 22:50:31  5-MIN KAQV 220450Z AUTO 15004KT 10SM CLR 14/11 A3009 220 80 200 150/04 RMK AO2 SLP188 T01440111
03949KAQV AQV20190421225511404/21/19 22:55:31  5-MIN KAQV 220455Z AUTO VRB04KT 10SM CLR 14/11 A3009 220 80 200 VRB/04 RMK AO2 SLP188 T01440111
03949KAQV AQV20190421230010704/21/19 23:00:31  5-MIN KAQV 220500Z AUTO 17004KT 10SM CLR 14/11 A3009 220 80 200 170/04 RMK AO2 T01440111
03949KAQV AQV20190421230510704/21/19 23:05:31  5-MIN KAQV 220505Z AUTO 16004KT 10SM CLR 14/11 A3009 220 80 200 160/04 RMK AO2 T01440111
03949KAQV AQV20190421231010704/21/19 23:10:31  5-MIN KAQV 220510Z AUTO 17004KT 10SM CLR 14/12 A3009 220 83 200 160/04 RMK AO2 T01440117
03949KAQV AQV20190421231510704/21/19 23:15:31  5-MIN KAQV 220515Z AUTO 17004KT 10SM CLR 14/12 A3009 220 86 200 170/04 RMK AO2 T01390117
03949KAQV AQV20190421232010704/21/19 23:20:31  5-MIN KAQV 220520Z AUTO 17004KT 10SM CLR 14/12 A3009 220 86 200 160/04 RMK AO2 T01390117
03949KAQV AQV20190421232510704/21/19 23:25:31  5-MIN KAQV 220525Z AUTO 17004KT 10SM CLR 14/12 A3010 210 86 200 170/04 RMK AO2 T01390117
03949KAQV AQV20190421233010704/21/19 23:30:31  5-MIN KAQV 220530Z AUTO 17004KT 10SM CLR 14/12 A3009 220 86 200 160/04 RMK AO2 T01390117
03949KAQV AQV20190421233510704/21/19 23:35:31  5-MIN KAQV 220535Z AUTO 00000KT 10SM CLR 14/12 A3010 210 86 200 000/00 RMK AO2 T01390117
03949KAQV AQV20190421234010704/21/19 23:40:31  5-MIN KAQV 220540Z AUTO 16003KT 10SM CLR 14/12 A3009 220 86 200 160/03 RMK AO2 T01390117
03949KAQV AQV20190421234510704/21/19 23:45:31  5-MIN KAQV 220545Z AUTO 16003KT 10SM CLR 13/12 A3009 220 89 100 160/03 RMK AO2 T01330117
03949KAQV AQV20190421235014204/21/19 23:50:31  5-MIN KAQV 220550Z AUTO 17003KT 10SM CLR 13/12 A3009 220 89 100 160/03 RMK AO2 SLP188 T01330117 10233 20133 402720094 53015
03949KAQV AQV20190421235514204/21/19 23:55:31  5-MIN KAQV 220555Z AUTO 15003KT 10SM CLR 13/12 A3009 220 89 100 150/03 RMK AO2 SLP188 T01330117 10233 20133 402720094 53015
03949KAQV AQV20190422000010704/22/19 00:00:31  5-MIN KAQV 220600Z AUTO 00000KT 10SM CLR 13/12 A3009 220 89 100 000/00 RMK AO2 T01330117
03949KAQV AQV20190422000510704/22/19 00:05:31  5-MIN KAQV 220605Z AUTO 16003KT 10SM CLR 13/12 A3009 220 89 100 160/03 RMK AO2 T01330117
03949KAQV AQV20190422001010504/22/19 00:10:31  5-MIN KAQV 220610Z AUTO 17003KT 10SM CLR 13/12 A3009 220 93 0 170/03 RMK AO2 T01280117
03949KAQV AQV20190422001510504/22/19 00:15:31  5-MIN KAQV 220615Z AUTO 00000KT 10SM CLR 13/11 A3009 220 89 0 000/00 RMK AO2 T01280111
03949KAQV AQV20190422002010504/22/19 00:20:31  5-MIN KAQV 220620Z AUTO 17003KT 10SM CLR 13/11 A3009 220 89 0 160/03 RMK AO2 T01280111
03949KAQV AQV20190422002510504/22/19 00:25:31  5-MIN KAQV 220625Z AUTO 17003KT 10SM CLR 13/11 A3009 220 89 0 170/03 RMK AO2 T01280111
03949KAQV AQV20190422003010504/22/19 00:30:31  5-MIN KAQV 220630Z AUTO 17003KT 10SM CLR 13/11 A3009 220 89 0 170/03 RMK AO2 T01280111
03949KAQV AQV20190422003510504/22/19 00:35:31  5-MIN KAQV 220635Z AUTO 17003KT 10SM CLR 12/11 A3009 220 93 0 160/03 RMK AO2 T01220111
03949KAQV AQV20190422004010504/22/19 00:40:31  5-MIN KAQV 220640Z AUTO 17003KT 10SM CLR 12/11 A3009 220 93 0 170/03 RMK AO2 T01220111
03949KAQV AQV20190422004510504/22/19 00:45:31  5-MIN KAQV 220645Z AUTO 17004KT 10SM CLR 12/11 A3009 220 93 0 160/04 RMK AO2 T01220111
03949KAQV AQV20190422005011204/22/19 00:50:31  5-MIN KAQV 220650Z AUTO VRB04KT 10SM CLR 13/11 A3009 220 89 0 VRB/04 RMK AO2 SLP189 T01280111
03949KAQV AQV20190422005511204/22/19 00:55:31  5-MIN KAQV 220655Z AUTO 17003KT 10SM CLR 12/11 A3009 220 93 0 170/03 RMK AO2 SLP189 T01220111
03949KAQV AQV20190422010010504/22/19 01:00:31  5-MIN KAQV 220700Z AUTO 00000KT 10SM CLR 12/11 A3009 220 93 0 000/00 RMK AO2 T01220111
03949KAQV AQV20190422010510504/22/19 01:05:31  5-MIN KAQV 220705Z AUTO 00000KT 10SM CLR 12/11 A3009 220 93 0 000/00 RMK AO2 T01220111
03949KAQV AQV20190422011010504/22/19 01:10:31  5-MIN KAQV 220710Z AUTO 00000KT 10SM CLR 12/11 A3009 220 93 0 000/00 RMK AO2 T01220111
03949KAQV AQV20190422011510504/22/19 01:15:31  5-MIN KAQV 220715Z AUTO 00000KT 10SM CLR 12/11 A3009 220 93 0 000/00 RMK AO2 T01220111
03949KAQV AQV20190422012010504/22/19 01:20:31  5-MIN KAQV 220720Z AUTO 00000KT 10SM CLR 12/11 A3009 220 89 0 000/00 RMK AO2 T01220106
03949KAQV AQV20190422012510504/22/19 01:25:31  5-MIN KAQV 220725Z AUTO 00000KT 10SM CLR 12/11 A3009 220 93 0 000/00 RMK AO2 T01220111
03949KAQV AQV20190422013010504/22/19 01:30:31  5-MIN KAQV 220730Z AUTO 00000KT 10SM CLR 12/11 A3009 220 93 0 000/00 RMK AO2 T01220111
03949KAQV AQV20190422013510504/22/19 01:35:31  5-MIN KAQV 220735Z AUTO 00000KT 10SM CLR 12/11 A3009 220 93 0 000/00 RMK AO2 T01220111
03949KAQV AQV20190422014010504/22/19 01:40:31  5-MIN KAQV 220740Z AUTO 00000KT 10SM CLR 12/11 A3009 220 93 0 000/00 RMK AO2 T01220111
03949KAQV AQV20190422014510504/22/19 01:45:31  5-MIN KAQV 220745Z AUTO 17003KT 10SM CLR 12/11 A3009 220 93 0 170/03 RMK AO2 T01220111
03949KAQV AQV20190422015011204/22/19 01:50:31  5-MIN KAQV 220750Z AUTO 00000KT 10SM CLR 12/11 A3009 220 93 0 000/00 RMK AO2 SLP187 T01220111
03949KAQV AQV20190422015511204/22/19 01:55:31  5-MIN KAQV 220755Z AUTO 17003KT 10SM CLR 12/11 A3009 220 93 0 160/03 RMK AO2 SLP187 T01220111
03949KAQV AQV20190422020010504/22/19 02:00:31  5-MIN KAQV 220800Z AUTO 18003KT 10SM CLR 12/11 A3009 220 93 0 170/03 RMK AO2 T01220111
03949KAQV AQV20190422020510504/22/19 02:05:31  5-MIN KAQV 220805Z AUTO 17003KT 10SM CLR 12/11 A3008 220 93 0 170/03 RMK AO2 T01220111
03949KAQV AQV20190422021010504/22/19 02:10:31  5-MIN KAQV 220810Z AUTO 00000KT 10SM CLR 12/11 A3008 230 93 0 000/00 RMK AO2 T01220111
03949KAQV AQV20190422021510504/22/19 02:15:31  5-MIN KAQV 220815Z AUTO 00000KT 10SM CLR 12/11 A3008 230 93 0 000/00 RMK AO2 T01220111
03949KAQV AQV20190422022010504/22/19 02:20:31  5-MIN KAQV 220820Z AUTO 00000KT 10SM CLR 12/11 A3008 230 93 0 000/00 RMK AO2 T01220111
03949KAQV AQV20190422022510504/22/19 02:25:31  5-MIN KAQV 220825Z AUTO 17003KT 10SM CLR 12/11 A3008 230 93 0 170/03 RMK AO2 T01220111
03949KAQV AQV20190422023010504/22/19 02:30:31  5-MIN KAQV 220830Z AUTO 00000KT 10SM CLR 12/11 A3007 230 93 0 000/00 RMK AO2 T01220111
03949KAQV AQV20190422023510504/22/19 02:35:31  5-MIN KAQV 220835Z AUTO 18003KT 10SM CLR 12/11 A3007 230 93 0 170/03 RMK AO2 T01220111
03949KAQV AQV20190422024010504/22/19 02:40:31  5-MIN KAQV 220840Z AUTO 16003KT 10SM CLR 12/11 A3007 240 93 0 160/03 RMK AO2 T01220111
03949KAQV AQV20190422024510504/22/19 02:45:31  5-MIN KAQV 220845Z AUTO 16003KT 10SM CLR 12/11 A3007 240 93 0 160/03 RMK AO2 T01220111
03949KAQV AQV20190422025011804/22/19 02:50:31  5-MIN KAQV 220850Z AUTO 15003KT 10SM CLR 12/11 A3007 240 93 0 150/03 RMK AO2 SLP181 T01220111 56001
03949KAQV AQV20190422025511804/22/19 02:55:31  5-MIN KAQV 220855Z AUTO 00000KT 10SM CLR 12/11 A3007 240 93 0 000/00 RMK AO2 SLP181 T01220111 56001
03949KAQV AQV20190422030010504/22/19 03:00:31  5-MIN KAQV 220900Z AUTO 16003KT 10SM CLR 12/11 A3007 240 93 0 160/03 RMK AO2 T01220111
03949KAQV AQV20190422030510504/22/19 03:05:31  5-MIN KAQV 220905Z AUTO 17003KT 10SM CLR 12/12 A3007 240 96 0 170/03 RMK AO2 T01220117
03949KAQV AQV20190422031010504/22/19 03:10:31  5-MIN KAQV 220910Z AUTO 16003KT 10SM CLR 12/12 A3007 240 96 0 160/03 RMK AO2 T01220117
03949KAQV AQV20190422031510704/22/19 03:15:31  5-MIN KAQV 220915Z AUTO 17003KT 10SM CLR 13/12 A3008 230 93 100 170/03 RMK AO2 T01280117
03949KAQV AQV20190422032010704/22/19 03:20:31  5-MIN KAQV 220920Z AUTO 16003KT 10SM CLR 13/12 A3007 230 93 100 160/03 RMK AO2 T01280117
03949KAQV AQV20190422032510704/22/19 03:25:31  5-MIN KAQV 220925Z AUTO 00000KT 10SM CLR 13/12 A3008 230 93 100 000/00 RMK AO2 T01280117
03949KAQV AQV20190422033010704/22/19 03:30:31  5-MIN KAQV 220930Z AUTO 17003KT 10SM CLR 13/12 A3008 230 93 100 160/03 RMK AO2 T01280117
03949KAQV AQV20190422033510704/22/19 03:35:31  5-MIN KAQV 220935Z AUTO 18003KT 10SM CLR 13/12 A3008 230 93 100 170/03 RMK AO2 T01280117
03949KAQV AQV20190422034010704/22/19 03:40:31  5-MIN KAQV 220940Z AUTO 17003KT 10SM CLR 13/12 A3008 230 93 100 170/03 RMK AO2 T01280117
03949KAQV AQV20190422034510704/22/19 03:45:31  5-MIN KAQV 220945Z AUTO 17003KT 10SM CLR 13/12 A3008 230 93 100 170/03 RMK AO2 T01280117
03949KAQV AQV20190422035011404/22/19 03:50:31  5-MIN KAQV 220950Z AUTO 16004KT 10SM CLR 13/12 A3008 230 93 100 160/04 RMK AO2 SLP183 T01280117
03949KAQV AQV20190422035511304/22/19 03:55:31  5-MIN KAQV 220955Z AUTO 17004KT 9SM CLR 13/12 A3008 230 96 100 160/04 RMK AO2 SLP184 T01280122
03949KAQV AQV20190422040010604/22/19 04:00:31  5-MIN KAQV 221000Z AUTO VRB03KT 9SM CLR 13/12 A3008 230 96 100 VRB/03 RMK AO2 T01280122
03949KAQV AQV20190422040510704/22/19 04:05:31  5-MIN KAQV 221005Z AUTO VRB03KT 10SM CLR 13/12 A3008 230 93 100 VRB/03 RMK AO2 T01280117
03949KAQV AQV20190422041010704/22/19 04:10:31  5-MIN KAQV 221010Z AUTO 17003KT 10SM CLR 13/12 A3008 230 93 100 160/03 RMK AO2 T01280117
03949KAQV AQV20190422041510704/22/19 04:15:31  5-MIN KAQV 221015Z AUTO 16004KT 10SM CLR 13/12 A3008 230 93 100 160/04 RMK AO2 T01280117
03949KAQV AQV20190422042010704/22/19 04:20:31  5-MIN KAQV 221020Z AUTO 00000KT 10SM CLR 13/12 A3008 230 93 100 000/00 RMK AO2 T01280117
03949KAQV AQV20190422042510704/22/19 04:25:31  5-MIN KAQV 221025Z AUTO 00000KT 10SM CLR 13/12 A3008 230 93 100 000/00 RMK AO2 T01280117
03949KAQV AQV20190422043010704/22/19 04:30:31  5-MIN KAQV 221030Z AUTO 00000KT 10SM CLR 13/12 A3008 230 93 100 000/00 RMK AO2 T01280117
03949KAQV AQV20190422043510704/22/19 04:35:31  5-MIN KAQV 221035Z AUTO 16003KT 10SM CLR 13/12 A3008 220 93 100 150/03 RMK AO2 T01280117
03949KAQV AQV20190422044010704/22/19 04:40:31  5-MIN KAQV 221040Z AUTO 14003KT 10SM CLR 13/12 A3009 220 93 100 140/03 RMK AO2 T01280117
03949KAQV AQV20190422044510404/22/19 04:45:31  5-MIN KAQV 221045Z AUTO 00000KT 9SM CLR 13/12 A3009 220 93 0 000/00 RMK AO2 T01280117
03949KAQV AQV20190422045011104/22/19 04:50:31  5-MIN KAQV 221050Z AUTO 00000KT 9SM CLR 12/12 A3009 220 96 0 000/00 RMK AO2 SLP187 T01220117
03949KAQV AQV20190422045511104/22/19 04:55:31  5-MIN KAQV 221055Z AUTO 00000KT 9SM CLR 12/12 A3008 230 96 0 000/00 RMK AO2 SLP186 T01220117
03949KAQV AQV20190422050010404/22/19 05:00:31  5-MIN KAQV 221100Z AUTO 16003KT 9SM CLR 12/11 A3008 230 93 0 150/03 RMK AO2 T01220111
03949KAQV AQV20190422050510404/22/19 05:05:31  5-MIN KAQV 221105Z AUTO VRB03KT 9SM CLR 12/12 A3008 230 96 0 VRB/03 RMK AO2 T01220117
03949KAQV AQV20190422051010404/22/19 05:10:31  5-MIN KAQV 221110Z AUTO 00000KT 9SM CLR 12/12 A3008 230 96 0 000/00 RMK AO2 T01220117
03949KAQV AQV20190422051510404/22/19 05:15:31  5-MIN KAQV 221115Z AUTO 00000KT 9SM CLR 12/12 A3009 220 96 0 000/00 RMK AO2 T01220117
03949KAQV AQV20190422052010404/22/19 05:20:31  5-MIN KAQV 221120Z AUTO 00000KT 9SM CLR 13/12 A3009 220 93 0 000/00 RMK AO2 T01280117
03949KAQV AQV20190422052510404/22/19 05:25:31  5-MIN KAQV 221125Z AUTO 00000KT 9SM CLR 12/11 A3009 220 93 0 000/00 RMK AO2 T01220111
03949KAQV AQV20190422053010404/22/19 05:30:31  5-MIN KAQV 221130Z AUTO 00000KT 7SM CLR 12/11 A3009 220 96 0 000/00 RMK AO2 T01170111
03949KAQV AQV20190422053510704/22/19 05:35:31  5-MIN KAQV 221135Z AUTO 00000KT 6SM BR CLR 12/11 A3009 220 93 0 000/00 RMK AO2 T01220111
03949KAQV AQV20190422054010404/22/19 05:40:31  5-MIN KAQV 221140Z AUTO 00000KT 7SM CLR 12/11 A3009 220 93 0 000/00 RMK AO2 T01220111
03949KAQV AQV20190422054510404/22/19 05:45:31  5-MIN KAQV 221145Z AUTO 00000KT 8SM CLR 12/11 A3009 220 96 0 000/00 RMK AO2 T01170111
03949KAQV AQV20190422055012904/22/19 05:50:31  5-MIN KAQV 221150Z AUTO 00000KT 8SM CLR 12/11 A3009 220 93 0 000/00 RMK AO2 SLP189 T01220111 10133 20117 58006
03949KAQV AQV20190422055512904/22/19 05:55:31  5-MIN KAQV 221155Z AUTO 00000KT 7SM CLR 12/12 A3010 210 96 0 000/00 RMK AO2 SLP191 T01220117 10133 20117 58006
03949KAQV AQV20190422060010704/22/19 06:00:31  5-MIN KAQV 221200Z AUTO 00000KT 5SM BR CLR 12/12 A3011 200 96 0 000/00 RMK AO2 T01220117
03949KAQV AQV20190422060513904/22/19 06:05:31  5-MIN KAQV 221205Z AUTO 00000KT 5SM BR CLR 12/12 A3011 200 96 0 000/00 RMK AO2 T01220117 83 600 VRB/04 RMK AO2 T01780150
03949KAQV AQV20190422080510704/22/19 08:05:31  5-MIN KAQV 221405Z AUTO VRB04KT 10SM CLR 18/15 A3013 180 83 600 VRB/04 RMK AO2 T01780150
03949KAQV AQV20190422081010704/22/19 08:10:31  5-MIN KAQV 221410Z AUTO VRB05KT 10SM CLR 18/15 A3013 180 81 700 VRB/05 RMK AO2 T01830150
03949KAQV AQV20190422081510704/22/19 08:15:31  5-MIN KAQV 221415Z AUTO 18006KT 10SM CLR 18/15 A3013 180 81 700 170/06 RMK AO2 T01830150
03949KAQV AQV20190422082012204/22/19 08:20:31  5-MIN KAQV 221420Z AUTO 16007KT 110V180 9SM CLR 18/14 A3013 180 78 700 160/07 110V180 RMK AO2 T01830144
03949KAQV AQV20190422082017304/22/19 08:20:31  5-MIN KAQV 221420Z AUTO 16007KT 110V180 9SM CLR 18/14 A3013 180 78 700 160/07 110V180 RMK AO2 3KT 10SM CLR 17/14 A3013 190 83 500 VRB/03 RMK AO2 T01720144
03949KAQV AQV20190422082510604/22/19 08:25:31  5-MIN KAQV 221425Z AUTO VRB05KT 9SM CLR 18/14 A3014 180 78 700 VRB/05 RMK AO2 T01830144
03949KAQV AQV20190422083010704/22/19 08:30:31  5-MIN KAQV 221430Z AUTO 18007KT 10SM CLR 18/14 A3014 180 78 700 180/07 RMK AO2 T01830144
03949KAQV AQV20190422083510704/22/19 08:35:31  5-MIN KAQV 221435Z AUTO 18006KT 10SM CLR 19/14 A3014 180 75 700 170/06 RMK AO2 T01890144
03949KAQV AQV20190422084010704/22/19 08:40:31  5-MIN KAQV 221440Z AUTO VRB06KT 10SM CLR 19/15 A3014 180 75 800 VRB/06 RMK AO2 T01940150
03949KAQV AQV20190422084022004/22/19 08:40:31  5-MIN KAQV 221440Z AUTO VRB06KT 10SM CLR 19/15 A3014 180 75 800 VRB/06 RMK AO2 T0194015004/22/1LR 18/14 A3014 170 72 800 160/07 100V190 RMK AO2 T01940144 18/14 A3014 180 78 700 VRB/05 RMK AO2 T01830144
03949KAQV AQV20190422084512304/22/19 08:45:31  5-MIN KAQV 221445Z AUTO 17007KT 100V190 10SM CLR 19/14 A3014 170 72 800 160/07 100V190 RMK AO2 T01940144
03949KAQV AQV20190422085012604/22/19 08:50:31  5-MIN KAQV 221450Z AUTO 18007G15KT 10SM CLR 19/14 A3014 170 72 800 180/07G15 RMK AO2 SLP204 T01940144 53010
03949KAQV AQV20190422085512604/22/19 08:55:31  5-MIN KAQV 221455Z AUTO VRB06G15KT 10SM CLR 20/15 A3014 180 72 800 VRB/06G15 RMK AO2 SLP204 T02000150 53010
03949KAQV AQV20190422090012304/22/19 09:00:31  5-MIN KAQV 221500Z AUTO 17009KT 130V200 10SM CLR 20/14 A3014 170 70 800 160/09 130V200 RMK AO2 T02000144
03949KAQV AQV20190422090510704/22/19 09:05:31  5-MIN KAQV 221505Z AUTO 17007KT 10SM CLR 20/14 A3014 180 70 800 160/07 RMK AO2 T02000144
03949KAQV AQV20190422090512104/22/19 09:05:31  5-MIN KAQV 221505Z AUTO 17007KT 10SM CLR 20/14 A3014 A3014 170 72 800 160/07 100V190 RMK AO2 T01940144
03949KAQV AQV20190422091010704/22/19 09:10:31  5-MIN KAQV 221510Z AUTO 17007KT 10SM CLR 20/14 A3013 180 70 800 170/07 RMK AO2 T02000144
03949KAQV AQV20190422091510704/22/19 09:15:31  5-MIN KAQV 221515Z AUTO VRB04KT 10SM CLR 21/15 A3013 180 70 900 VRB/04 RMK AO2 T02060150
03949KAQV AQV20190422092012404/22/19 09:20:31  5-MIN KAQV 221520Z AUTO 16007KT 090V190 10SM CLR 21/15 A3013 180 68 1000 150/07 090V190 RMK AO2 T02110150
03949KAQV AQV20190422092510804/22/19 09:25:31  5-MIN KAQV 221525Z AUTO VRB03KT 10SM CLR 22/15 A3013 180 65 1000 VRB/03 RMK AO2 T02170150
03949KAQV AQV20190422093010804/22/19 09:30:31  5-MIN KAQV 221530Z AUTO VRB06KT 10SM CLR 21/15 A3014 180 68 1000 VRB/06 RMK AO2 T02110150
03949KAQV AQV20190422093510804/22/19 09:35:31  5-MIN KAQV 221535Z AUTO 15006KT 10SM CLR 22/15 A3013 180 65 1000 150/06 RMK AO2 T02170150
03949KAQV AQV20190422094010704/22/19 09:40:31  5-MIN KAQV 221540Z AUTO VRB06KT 9SM CLR 22/15 A3013 180 65 1000 VRB/06 RMK AO2 T02170150
03949KAQV AQV20190422094510704/22/19 09:45:31  5-MIN KAQV 221545Z AUTO VRB05KT 9SM CLR 22/15 A3013 180 63 1100 VRB/05 RMK AO2 T02220150
03949KAQV AQV20190422095011504/22/19 09:50:31  5-MIN KAQV 221550Z AUTO VRB04KT 10SM CLR 22/15 A3013 180 63 1100 VRB/04 RMK AO2 SLP201 T02220150
03949KAQV AQV20190422095511504/22/19 09:55:31  5-MIN KAQV 221555Z AUTO VRB06KT 10SM CLR 22/14 A3013 180 61 1100 VRB/06 RMK AO2 SLP201 T02220144
03949KAQV AQV20190422100010804/22/19 10:00:31  5-MIN KAQV 221600Z AUTO 18007KT 10SM CLR 22/14 A3013 190 61 1100 180/07 RMK AO2 T02220144
03949KAQV AQV20190422100512404/22/19 10:05:31  5-MIN KAQV 221605Z AUTO 18007KT 140V220 10SM CLR 22/14 A3012 190 59 1100 180/07 140V220 RMK AO2 T02220139
03949KAQV AQV20190422101012404/22/19 10:10:31  5-MIN KAQV 221610Z AUTO 17007KT 130V210 10SM CLR 23/14 A3013 180 59 1200 170/07 130V210 RMK AO2 T02280144
03949KAQV AQV20190422101512404/22/19 10:15:31  5-MIN KAQV 221615Z AUTO 15007KT 110V180 10SM CLR 23/14 A3013 180 57 1200 150/07 110V180 RMK AO2 T02280139
03949KAQV AQV20190422102010804/22/19 10:20:31  5-MIN KAQV 221620Z AUTO 18008KT 10SM CLR 23/13 A3013 190 55 1200 180/08 RMK AO2 T02280133
03949KAQV AQV20190422102510804/22/19 10:25:31  5-MIN KAQV 221625Z AUTO 17006KT 10SM CLR 23/14 A3013 190 57 1200 170/06 RMK AO2 T02280139
03949KAQV AQV20190422103010804/22/19 10:30:31  5-MIN KAQV 221630Z AUTO 16007KT 10SM CLR 23/14 A3012 190 55 1200 160/07 RMK AO2 T02330139
03949KAQV AQV20190422103512404/22/19 10:35:31  5-MIN KAQV 221635Z AUTO 18007KT 140V210 10SM CLR 23/13 A3012 190 53 1200 180/07 140V210 RMK AO2 T02330133
03949KAQV AQV20190422104010804/22/19 10:40:31  5-MIN KAQV 221640Z AUTO 19006KT 10SM CLR 23/13 A3012 190 53 1200 180/06 RMK AO2 T02330133
03949KAQV AQV20190422104510704/22/19 10:45:31  5-MIN KAQV 221645Z AUTO VRB06KT 9SM CLR 23/13 A3012 190 53 1200 VRB/06 RMK AO2 T02330133
03949KAQV AQV20190422105010404/22/19 10:50:31  5-MIN KAQV 221650Z AUTO 9SM CLR 24/13 A3013 190 51 1300 M /M RMK AO2 SLP200 T02390133
03949KAQV AQV20190422105511504/22/19 10:55:31  5-MIN KAQV 221655Z AUTO 18005KT 10SM CLR 23/13 A3013 190 53 1200 170/05 RMK AO2 SLP200 T02330133
03949KAQV AQV20190422110010704/22/19 11:00:31  5-MIN KAQV 221700Z AUTO VRB05KT 7SM CLR 23/14 A3013 180 55 1200 VRB/05 RMK AO2 T02330139
03949KAQV AQV20190422110510704/22/19 11:05:31  5-MIN KAQV 221705Z AUTO 19005KT 7SM CLR 23/13 A3013 180 53 1200 180/05 RMK AO2 T02330133
03949KAQV AQV20190422111010804/22/19 11:10:31  5-MIN KAQV 221710Z AUTO VRB05KT 10SM CLR 23/13 A3014 180 53 1200 VRB/05 RMK AO2 T02330133
03949KAQV AQV20190422111510804/22/19 11:15:31  5-MIN KAQV 221715Z AUTO 21006KT 10SM CLR 24/14 A3014 180 53 1300 210/06 RMK AO2 T02390139
03949KAQV AQV20190422112010804/22/19 11:20:31  5-MIN KAQV 221720Z AUTO 19006KT 10SM CLR 24/14 A3013 180 53 1300 190/06 RMK AO2 T02390139
03949KAQV AQV20190422112510804/22/19 11:25:31  5-MIN KAQV 221725Z AUTO VRB05KT 10SM CLR 24/14 A3014 180 53 1300 VRB/05 RMK AO2 T02390139
03949KAQV AQV20190422113010704/22/19 11:30:31  5-MIN KAQV 221730Z AUTO VRB04KT 8SM CLR 24/14 A3014 180 53 1300 VRB/04 RMK AO2 T02390139
03949KAQV AQV20190422113510704/22/19 11:35:31  5-MIN KAQV 221735Z AUTO 15008KT 8SM CLR 24/13 A3014 180 51 1300 140/08 RMK AO2 T02390133
03949KAQV AQV20190422114010804/22/19 11:40:31  5-MIN KAQV 221740Z AUTO VRB06KT 10SM CLR 24/14 A3013 180 51 1400 VRB/06 RMK AO2 T02440139
03949KAQV AQV20190422114510804/22/19 11:45:31  5-MIN KAQV 221745Z AUTO VRB05KT 10SM CLR 24/14 A3013 180 53 1400 VRB/05 RMK AO2 T02440144
03949KAQV AQV20190422115014904/22/19 11:50:31  5-MIN KAQV 221750Z AUTO 15008KT 110V200 10SM CLR 24/14 A3013 180 51 1400 150/08 110V200 RMK AO2 SLP201 T02440139 10244 20122 51013
03949KAQV AQV20190422115513304/22/19 11:55:31  5-MIN KAQV 221755Z AUTO VRB04KT 10SM CLR 25/13 A3013 190 48 1400 VRB/04 RMK AO2 SLP200 T02500133 10250 20122 51013
03949KAQV AQV20190422120010804/22/19 12:00:31  5-MIN KAQV 221800Z AUTO VRB04KT 10SM CLR 24/14 A3013 190 51 1400 VRB/04 RMK AO2 T02440139
03949KAQV AQV20190422120510804/22/19 12:05:31  5-MIN KAQV 221805Z AUTO VRB06KT 10SM CLR 24/14 A3012 190 51 1400 VRB/06 RMK AO2 T02440139
03949KAQV AQV20190422121010804/22/19 12:10:31  5-MIN KAQV 221810Z AUTO VRB05KT 10SM CLR 24/13 A3012 190 49 1400 VRB/05 RMK AO2 T02440133
03949KAQV AQV20190422121510804/22/19 12:15:31  5-MIN KAQV 221815Z AUTO 17006KT 10SM CLR 25/14 A3012 190 49 1400 170/06 RMK AO2 T02500139
03949KAQV AQV20190422122010804/22/19 12:20:31  5-MIN KAQV 221820Z AUTO VRB04KT 10SM CLR 25/14 A3012 200 49 1400 VRB/04 RMK AO2 T02500139
03949KAQV AQV20190422122510804/22/19 12:25:31  5-MIN KAQV 221825Z AUTO VRB06KT 10SM CLR 25/14 A3011 200 51 1400 VRB/06 RMK AO2 T02500144
03949KAQV AQV20190422123010804/22/19 12:30:31  5-MIN KAQV 221830Z AUTO VRB03KT 10SM CLR 26/14 A3011 200 49 1500 VRB/03 RMK AO2 T02560144
03949KAQV AQV20190422123510804/22/19 12:35:31  5-MIN KAQV 221835Z AUTO 00000KT 10SM CLR 26/14 A3011 200 49 1500 000/00 RMK AO2 T02560144
03949KAQV AQV20190422124010804/22/19 12:40:31  5-MIN KAQV 221840Z AUTO VRB05KT 10SM CLR 26/14 A3011 200 48 1600 VRB/05 RMK AO2 T02610144
03949KAQV AQV20190422124510804/22/19 12:45:31  5-MIN KAQV 221845Z AUTO VRB03KT 10SM CLR 26/14 A3011 200 48 1500 VRB/03 RMK AO2 T02560139
03949KAQV AQV20190422125011504/22/19 12:50:31  5-MIN KAQV 221850Z AUTO VRB05KT 10SM CLR 26/14 A3010 210 48 1600 VRB/05 RMK AO2 SLP193 T02610144
03949KAQV AQV20190422125511504/22/19 12:55:31  5-MIN KAQV 221855Z AUTO VRB03KT 10SM CLR 26/14 A3010 210 48 1500 VRB/03 RMK AO2 SLP191 T02560139
03949KAQV AQV20190422130010804/22/19 13:00:31  5-MIN KAQV 221900Z AUTO VRB06KT 10SM CLR 26/14 A3010 210 46 1600 VRB/06 RMK AO2 T02610139
03949KAQV AQV20190422130510804/22/19 13:05:31  5-MIN KAQV 221905Z AUTO VRB04KT 10SM CLR 26/13 A3010 210 44 1600 VRB/04 RMK AO2 T02610133
03949KAQV AQV20190422131010804/22/19 13:10:31  5-MIN KAQV 221910Z AUTO 18007KT 10SM CLR 26/14 A3010 210 46 1600 170/07 RMK AO2 T02610139
03949KAQV AQV20190422131510804/22/19 13:15:31  5-MIN KAQV 221915Z AUTO VRB06KT 10SM CLR 26/14 A3010 210 46 1600 VRB/06 RMK AO2 T02610139
03949KAQV AQV20190422132012304/22/19 13:20:31  5-MIN KAQV 221920Z AUTO 22007KT 170V240 8SM CLR 26/13 A3009 220 44 1600 210/07 170V240 RMK AO2 T02610133
03949KAQV AQV20190422132510704/22/19 13:25:31  5-MIN KAQV 221925Z AUTO VRB05KT 8SM CLR 26/13 A3009 220 44 1600 VRB/05 RMK AO2 T02610133
03949KAQV AQV20190422133010804/22/19 13:30:31  5-MIN KAQV 221930Z AUTO 19006KT 10SM CLR 26/13 A3009 220 43 1600 180/06 RMK AO2 T02610128
03949KAQV AQV20190422133510804/22/19 13:35:31  5-MIN KAQV 221935Z AUTO VRB04KT 10SM CLR 27/14 A3009 220 45 1700 VRB/04 RMK AO2 T02670139
03949KAQV AQV20190422134010804/22/19 13:40:31  5-MIN KAQV 221940Z AUTO VRB03KT 10SM CLR 27/13 A3009 220 43 1700 VRB/03 RMK AO2 T02670133
03949KAQV AQV20190422134511004/22/19 13:45:31  5-MIN KAQV 221945Z AUTO 17009KT 6SM HZ CLR 27/13 A3009 220 43 1700 170/09 RMK AO2 T02670133
03949KAQV AQV20190422135011704/22/19 13:50:31  5-MIN KAQV 221950Z AUTO VRB03KT 5SM HZ CLR 27/14 A3008 220 45 1700 VRB/03 RMK AO2 SLP186 T02670139
03949KAQV AQV20190422135511404/22/19 13:55:31  5-MIN KAQV 221955Z AUTO 21007KT 7SM CLR 26/13 A3009 220 44 1600 200/07 RMK AO2 SLP186 T02610133
03949KAQV AQV20190422140012404/22/19 14:00:31  5-MIN KAQV 222000Z AUTO 22007KT 160V250 10SM CLR 27/13 A3008 230 43 1700 220/07 160V250 RMK AO2 T02670133
03949KAQV AQV20190422140510804/22/19 14:05:31  5-MIN KAQV 222005Z AUTO 18007KT 10SM CLR 26/13 A3008 230 43 1600 170/07 RMK AO2 T02610128
03949KAQV AQV20190422141010804/22/19 14:10:31  5-MIN KAQV 222010Z AUTO VRB05KT 10SM CLR 26/13 A3008 230 43 1600 VRB/05 RMK AO2 T02610128
03949KAQV AQV20190422141510804/22/19 14:15:31  5-MIN KAQV 222015Z AUTO 18006KT 10SM CLR 27/13 A3008 230 43 1700 180/06 RMK AO2 T02670133
03949KAQV AQV20190422142010804/22/19 14:20:31  5-MIN KAQV 222020Z AUTO VRB05KT 10SM CLR 27/14 A3008 230 43 1700 VRB/05 RMK AO2 T02720139
03949KAQV AQV20190422142510804/22/19 14:25:31  5-MIN KAQV 222025Z AUTO VRB06KT 10SM CLR 27/14 A3008 230 45 1700 VRB/06 RMK AO2 T02670139
03949KAQV AQV20190422143010804/22/19 14:30:31  5-MIN KAQV 222030Z AUTO VRB05KT 10SM CLR 26/13 A3008 230 46 1500 VRB/05 RMK AO2 T02560133
03949KAQV AQV20190422143510804/22/19 14:35:31  5-MIN KAQV 222035Z AUTO 19005KT 10SM CLR 26/14 A3008 230 48 1500 180/05 RMK AO2 T02560139
03949KAQV AQV20190422144010704/22/19 14:40:31  5-MIN KAQV 222040Z AUTO 18004KT 9SM CLR 26/14 A3007 240 46 1600 180/04 RMK AO2 T02610139
03949KAQV AQV20190422144510704/22/19 14:45:31  5-MIN KAQV 222045Z AUTO 17008KT 9SM CLR 27/14 A3007 230 45 1700 170/08 RMK AO2 T02670139
03949KAQV AQV20190422145012104/22/19 14:50:31  5-MIN KAQV 222050Z AUTO VRB04KT 10SM CLR 27/13 A3007 240 43 1700 VRB/04 RMK AO2 SLP182 T02670133 56004
03949KAQV AQV20190422145512104/22/19 14:55:31  5-MIN KAQV 222055Z AUTO 17007KT 10SM CLR 27/14 A3007 240 45 1700 170/07 RMK AO2 SLP180 T02670139 56004
03949KAQV AQV20190422150010804/22/19 15:00:31  5-MIN KAQV 222100Z AUTO VRB05KT 10SM CLR 27/14 A3007 240 45 1700 VRB/05 RMK AO2 T02670139
03949KAQV AQV20190422150511104/22/19 15:05:31  5-MIN KAQV 222105Z AUTO VRB05KT 10SM FEW047 27/14 A3007 240 45 1700 VRB/05 RMK AO2 T02670139
03949KAQV AQV20190422151012704/22/19 15:10:31  5-MIN KAQV 222110Z AUTO 16007KT 130V190 10SM FEW047 27/14 A3007 240 45 1700 160/07 130V190 RMK AO2 T02670139
03949KAQV AQV20190422151511104/22/19 15:15:31  5-MIN KAQV 222115Z AUTO VRB06KT 10SM FEW047 26/13 A3006 240 44 1600 VRB/06 RMK AO2 T02610133
03949KAQV AQV20190422152011104/22/19 15:20:31  5-MIN KAQV 222120Z AUTO VRB06KT 10SM FEW047 27/13 A3007 240 43 1700 VRB/06 RMK AO2 T02670133
03949KAQV AQV20190422152511104/22/19 15:25:31  5-MIN KAQV 222125Z AUTO VRB06KT 10SM FEW047 26/13 A3007 240 44 1600 VRB/06 RMK AO2 T02610133
03949KAQV AQV20190422153012704/22/19 15:30:31  5-MIN KAQV 222130Z AUTO 18008KT 150V220 10SM FEW047 27/14 A3007 240 45 1700 180/08 150V220 RMK AO2 T02670139
03949KAQV AQV20190422153511104/22/19 15:35:31  5-MIN KAQV 222135Z AUTO VRB05KT 10SM FEW047 26/14 A3007 240 48 1600 VRB/05 RMK AO2 T02560139
03949KAQV AQV20190422154011104/22/19 15:40:31  5-MIN KAQV 222140Z AUTO VRB03KT 10SM FEW047 26/13 A3007 240 44 1600 VRB/03 RMK AO2 T02610133
03949KAQV AQV20190422154510804/22/19 15:45:31  5-MIN KAQV 222145Z AUTO VRB06KT 10SM CLR 26/14 A3007 240 46 1600 VRB/06 RMK AO2 T02610139
03949KAQV AQV20190422155011504/22/19 15:50:31  5-MIN KAQV 222150Z AUTO VRB05KT 10SM CLR 26/14 A3007 240 46 1600 VRB/05 RMK AO2 SLP180 T02610139
03949KAQV AQV20190422155511504/22/19 15:55:31  5-MIN KAQV 222155Z AUTO VRB04KT 10SM CLR 26/14 A3007 240 46 1600 VRB/04 RMK AO2 SLP180 T02610139
03949KAQV AQV20190422160011104/22/19 16:00:31  5-MIN KAQV 222200Z AUTO VRB04KT 10SM FEW047 26/14 A3007 240 48 1600 VRB/04 RMK AO2 T02560139
03949KAQV AQV20190422160511104/22/19 16:05:31  5-MIN KAQV 222205Z AUTO 16005KT 10SM SCT047 26/14 A3007 240 48 1600 160/05 RMK AO2 T02610144
03949KAQV AQV20190422161011104/22/19 16:10:31  5-MIN KAQV 222210Z AUTO VRB03KT 10SM SCT047 26/14 A3007 240 48 1600 VRB/03 RMK AO2 T02610144
03949KAQV AQV20190422161511104/22/19 16:15:31  5-MIN KAQV 222215Z AUTO VRB05KT 10SM SCT047 26/14 A3007 240 48 1600 VRB/05 RMK AO2 T02560139
03949KAQV AQV20190422162011104/22/19 16:20:31  5-MIN KAQV 222220Z AUTO 18005KT 10SM SCT047 26/14 A3007 240 49 1600 170/05 RMK AO2 T02560144
03949KAQV AQV20190422162511104/22/19 16:25:31  5-MIN KAQV 222225Z AUTO 19003KT 10SM SCT048 26/14 A3007 240 49 1600 180/03 RMK AO2 T02560144
03949KAQV AQV20190422163011104/22/19 16:30:31  5-MIN KAQV 222230Z AUTO VRB05KT 10SM SCT048 25/14 A3007 240 49 1500 VRB/05 RMK AO2 T02500139
03949KAQV AQV20190422163511104/22/19 16:35:31  5-MIN KAQV 222235Z AUTO VRB04KT 10SM FEW048 26/14 A3006 240 49 1600 VRB/04 RMK AO2 T02560144
03949KAQV AQV20190422164011104/22/19 16:40:31  5-MIN KAQV 222240Z AUTO 20006KT 10SM FEW048 25/14 A3007 240 51 1500 200/06 RMK AO2 T02500144
03949KAQV AQV20190422164510804/22/19 16:45:31  5-MIN KAQV 222245Z AUTO VRB04KT 10SM CLR 25/14 A3007 240 49 1500 VRB/04 RMK AO2 T02500139
03949KAQV AQV20190422165011504/22/19 16:50:31  5-MIN KAQV 222250Z AUTO VRB06KT 10SM CLR 24/14 A3007 240 53 1400 VRB/06 RMK AO2 SLP180 T02440144
03949KAQV AQV20190422165511504/22/19 16:55:31  5-MIN KAQV 222255Z AUTO VRB04KT 10SM CLR 25/14 A3007 240 51 1500 VRB/04 RMK AO2 SLP180 T02500144
03949KAQV AQV20190422170010804/22/19 17:00:31  5-MIN KAQV 222300Z AUTO 18004KT 10SM CLR 26/14 A3007 240 49 1600 180/04 RMK AO2 T02560144
03949KAQV AQV20190422170510804/22/19 17:05:31  5-MIN KAQV 222305Z AUTO 19005KT 10SM CLR 25/14 A3007 240 49 1500 180/05 RMK AO2 T02500139
03949KAQV AQV20190422171010804/22/19 17:10:31  5-MIN KAQV 222310Z AUTO VRB04KT 10SM CLR 26/14 A3007 240 49 1600 VRB/04 RMK AO2 T02560144
03949KAQV AQV20190422171510804/22/19 17:15:31  5-MIN KAQV 222315Z AUTO VRB04KT 10SM CLR 25/14 A3007 240 51 1500 VRB/04 RMK AO2 T02500144
03949KAQV AQV20190422172010804/22/19 17:20:31  5-MIN KAQV 222320Z AUTO VRB04KT 10SM CLR 25/14 A3006 240 51 1500 VRB/04 RMK AO2 T02500144
03949KAQV AQV20190422172510804/22/19 17:25:31  5-MIN KAQV 222325Z AUTO VRB06KT 10SM CLR 25/14 A3006 240 51 1500 VRB/06 RMK AO2 T02500144
03949KAQV AQV20190422173010804/22/19 17:30:31  5-MIN KAQV 222330Z AUTO VRB04KT 10SM CLR 24/14 A3006 240 53 1400 VRB/04 RMK AO2 T02440144
03949KAQV AQV20190422173510804/22/19 17:35:31  5-MIN KAQV 222335Z AUTO VRB04KT 10SM CLR 24/14 A3006 240 55 1400 VRB/04 RMK AO2 T02390144
03949KAQV AQV20190422174010804/22/19 17:40:31  5-MIN KAQV 222340Z AUTO 17003KT 10SM CLR 23/15 A3006 250 59 1300 160/03 RMK AO2 T02330150
03949KAQV AQV20190422174510804/22/19 17:45:31  5-MIN KAQV 222345Z AUTO VRB04KT 10SM CLR 23/14 A3006 250 57 1300 VRB/04 RMK AO2 T02330144
03949KAQV AQV20190422175013304/22/19 17:50:31  5-MIN KAQV 222350Z AUTO 00000KT 10SM CLR 24/14 A3006 250 55 1400 000/00 RMK AO2 SLP177 T02390144 10272 20233 56019
03949KAQV AQV20190422175513304/22/19 17:55:31  5-MIN KAQV 222355Z AUTO 00000KT 10SM CLR 23/14 A3006 250 57 1300 000/00 RMK AO2 SLP178 T02330144 10272 20233 56019
03949KAQV AQV20190422180010804/22/19 18:00:31  5-MIN KAQV 230000Z AUTO 00000KT 10SM CLR 23/15 A3006 250 59 1300 000/00 RMK AO2 T02330150
03949KAQV AQV20190422180510804/22/19 18:05:31  5-MIN KAQV 230005Z AUTO VRB03KT 10SM CLR 23/15 A3006 250 59 1300 VRB/03 RMK AO2 T02330150
03949KAQV AQV20190422181010804/22/19 18:10:31  5-MIN KAQV 230010Z AUTO VRB04KT 10SM CLR 23/15 A3006 250 61 1200 VRB/04 RMK AO2 T02280150
03949KAQV AQV20190422181510804/22/19 18:15:31  5-MIN KAQV 230015Z AUTO 17003KT 10SM CLR 23/15 A3006 240 61 1200 160/03 RMK AO2 T02280150
03949KAQV AQV20190422182010804/22/19 18:20:31  5-MIN KAQV 230020Z AUTO 17004KT 10SM CLR 23/15 A3006 250 61 1200 170/04 RMK AO2 T02280150
03949KAQV AQV20190422182510804/22/19 18:25:31  5-MIN KAQV 230025Z AUTO 00000KT 10SM CLR 22/15 A3006 250 63 1200 000/00 RMK AO2 T02220150
03949KAQV AQV20190422183010804/22/19 18:30:31  5-MIN KAQV 230030Z AUTO 00000KT 10SM CLR 22/15 A3006 250 63 1200 000/00 RMK AO2 T02220150
03949KAQV AQV20190422183510804/22/19 18:35:31  5-MIN KAQV 230035Z AUTO 17003KT 10SM CLR 22/15 A3006 250 65 1100 170/03 RMK AO2 T02170150
03949KAQV AQV20190422184010804/22/19 18:40:31  5-MIN KAQV 230040Z AUTO 16003KT 10SM CLR 22/15 A3006 250 65 1100 160/03 RMK AO2 T02170150
03949KAQV AQV20190422184510804/22/19 18:45:31  5-MIN KAQV 230045Z AUTO 00000KT 10SM CLR 22/15 A3006 240 65 1100 000/00 RMK AO2 T02170150
03949KAQV AQV20190422185011504/22/19 18:50:31  5-MIN KAQV 230050Z AUTO 17004KT 10SM CLR 21/15 A3006 240 68 1100 160/04 RMK AO2 SLP179 T02110150
03949KAQV AQV20190422185511504/22/19 18:55:31  5-MIN KAQV 230055Z AUTO 18003KT 10SM CLR 21/15 A3007 240 68 1100 180/03 RMK AO2 SLP179 T02110150
03949KAQV AQV20190422190010804/22/19 19:00:31  5-MIN KAQV 230100Z AUTO 18003KT 10SM CLR 21/15 A3007 240 68 1000 170/03 RMK AO2 T02110150
03949KAQV AQV20190422190510804/22/19 19:05:31  5-MIN KAQV 230105Z AUTO 17003KT 10SM CLR 21/16 A3007 240 73 1000 170/03 RMK AO2 T02060156
03949KAQV AQV20190422191010804/22/19 19:10:31  5-MIN KAQV 230110Z AUTO 00000KT 10SM CLR 21/16 A3007 240 73 1000 000/00 RMK AO2 T02060156
03949KAQV AQV20190422191510804/22/19 19:15:31  5-MIN KAQV 230115Z AUTO 00000KT 10SM CLR 21/16 A3007 240 73 1000 000/00 RMK AO2 T02060156
03949KAQV AQV20190422192010704/22/19 19:20:31  5-MIN KAQV 230120Z AUTO 00000KT 10SM CLR 20/16 A3006 240 75 900 000/00 RMK AO2 T02000156
03949KAQV AQV20190422192510704/22/19 19:25:31  5-MIN KAQV 230125Z AUTO 16003KT 10SM CLR 20/16 A3007 240 75 900 160/03 RMK AO2 T02000156
03949KAQV AQV20190422193010704/22/19 19:30:31  5-MIN KAQV 230130Z AUTO 00000KT 10SM CLR 20/16 A3007 240 75 900 000/00 RMK AO2 T02000156
03949KAQV AQV20190422193510704/22/19 19:35:31  5-MIN KAQV 230135Z AUTO 18003KT 10SM CLR 20/16 A3007 240 75 900 170/03 RMK AO2 T02000156
03949KAQV AQV20190422194010704/22/19 19:40:31  5-MIN KAQV 230140Z AUTO 00000KT 10SM CLR 20/16 A3007 240 75 900 000/00 RMK AO2 T02000156
03949KAQV AQV20190422194510704/22/19 19:45:31  5-MIN KAQV 230145Z AUTO 17003KT 10SM CLR 20/16 A3007 240 75 900 170/03 RMK AO2 T02000156
03949KAQV AQV20190422195011404/22/19 19:50:31  5-MIN KAQV 230150Z AUTO 17003KT 10SM CLR 19/16 A3007 240 78 900 170/03 RMK AO2 SLP181 T01940156
03949KAQV AQV20190422195511404/22/19 19:55:31  5-MIN KAQV 230155Z AUTO 17003KT 10SM CLR 19/16 A3007 240 78 900 160/03 RMK AO2 SLP182 T01940156
03949KAQV AQV20190422200010704/22/19 20:00:31  5-MIN KAQV 230200Z AUTO 17003KT 10SM CLR 19/16 A3007 240 78 900 170/03 RMK AO2 T01940156
03949KAQV AQV20190422200510704/22/19 20:05:31  5-MIN KAQV 230205Z AUTO VRB03KT 10SM CLR 19/15 A3007 230 75 800 VRB/03 RMK AO2 T01940150
03949KAQV AQV20190422201010704/22/19 20:10:31  5-MIN KAQV 230210Z AUTO 18004KT 10SM CLR 19/15 A3008 230 75 800 170/04 RMK AO2 T01940150
03949KAQV AQV20190422201510704/22/19 20:15:31  5-MIN KAQV 230215Z AUTO 18003KT 10SM CLR 19/15 A3008 230 75 800 180/03 RMK AO2 T01940150
03949KAQV AQV20190422201510704/22/19 20:15:31  5-MIN KAQV 230215Z AUTO 18003KT 10SM CLR 19/15 A3008 230 90 500 000/00 RMK AO2 T01670150
03949KAQV AQV20190422202010704/22/19 20:20:31  5-MIN KAQV 230220Z AUTO VRB03KT 10SM CLR 19/15 A3008 230 75 800 VRB/03 RMK AO2 T01940150
03949KAQV AQV20190422202510704/22/19 20:25:31  5-MIN KAQV 230225Z AUTO 17004KT 10SM CLR 19/15 A3008 230 75 800 170/04 RMK AO2 T01940150
03949KAQV AQV20190422203010704/22/19 20:30:31  5-MIN KAQV 230230Z AUTO 17004KT 10SM CLR 19/15 A3008 230 75 800 170/04 RMK AO2 T01940150
03949KAQV AQV20190422203510704/22/19 20:35:31  5-MIN KAQV 230235Z AUTO VRB03KT 10SM CLR 19/15 A3008 230 75 800 VRB/03 RMK AO2 T01940150
03949KAQV AQV20190422204010704/22/19 20:40:31  5-MIN KAQV 230240Z AUTO 17003KT 10SM CLR 19/15 A3008 220 78 800 170/03 RMK AO2 T01890150
03949KAQV AQV20190422204510704/22/19 20:45:31  5-MIN KAQV 230245Z AUTO VRB03KT 10SM CLR 19/15 A3008 230 78 800 VRB/03 RMK AO2 T01890150
03949KAQV AQV20190422205012004/22/19 20:50:31  5-MIN KAQV 230250Z AUTO VRB03KT 10SM CLR 19/15 A3009 220 78 800 VRB/03 RMK AO2 SLP187 T01890150 58002
03949KAQV AQV20190422205512004/22/19 20:55:31  5-MIN KAQV 230255Z AUTO 00000KT 10SM CLR 18/15 A3009 220 81 700 000/00 RMK AO2 SLP187 T01830150 58002
03949KAQV AQV20190422210010704/22/19 21:00:31  5-MIN KAQV 230300Z AUTO 00000KT 10SM CLR 18/15 A3009 220 83 600 000/00 RMK AO2 T01780150
03949KAQV AQV20190422210510704/22/19 21:05:31  5-MIN KAQV 230305Z AUTO 00000KT 10SM CLR 18/15 A3009 220 83 600 000/00 RMK AO2 T01780150
03949KAQV AQV20190422211010704/22/19 21:10:31  5-MIN KAQV 230310Z AUTO 00000KT 10SM CLR 18/15 A3009 220 83 600 000/00 RMK AO2 T01780150
03949KAQV AQV20190422211510704/22/19 21:15:31  5-MIN KAQV 230315Z AUTO 00000KT 10SM CLR 18/15 A3009 220 83 600 000/00 RMK AO2 T01780150
03949KAQV AQV20190422212010704/22/19 21:20:31  5-MIN KAQV 230320Z AUTO 00000KT 10SM CLR 18/15 A3009 220 83 600 000/00 RMK AO2 T01780150
03949KAQV AQV20190422212510704/22/19 21:25:31  5-MIN KAQV 230325Z AUTO 00000KT 10SM CLR 17/15 A3009 220 87 600 000/00 RMK AO2 T01720150
03949KAQV AQV20190422213010704/22/19 21:30:31  5-MIN KAQV 230330Z AUTO 00000KT 10SM CLR 17/15 A3009 220 87 600 000/00 RMK AO2 T01720150
03949KAQV AQV20190422213510704/22/19 21:35:31  5-MIN KAQV 230335Z AUTO 00000KT 10SM CLR 17/15 A3009 220 87 600 000/00 RMK AO2 T01720150
03949KAQV AQV20190422214010704/22/19 21:40:31  5-MIN KAQV 230340Z AUTO 00000KT 10SM CLR 17/15 A3009 220 87 600 000/00 RMK AO2 T01720150
03949KAQV AQV20190422214510704/22/19 21:45:31  5-MIN KAQV 230345Z AUTO 00000KT 10SM CLR 17/15 A3008 220 90 500 000/00 RMK AO2 T01670150
03949KAQV AQV20190422215011404/22/19 21:50:31  5-MIN KAQV 230350Z AUTO 00000KT 10SM CLR 17/15 A3009 220 90 500 000/00 RMK AO2 SLP186 T01670150
03949KAQV AQV20190422215511404/22/19 21:55:31  5-MIN KAQV 230355Z AUTO 00000KT 10SM CLR 17/15 A3009 220 90 500 000/00 RMK AO2 SLP186 T01670150
03949KAQV AQV20190422220010704/22/19 22:00:31  5-MIN KAQV 230400Z AUTO 00000KT 10SM CLR 16/15 A3008 230 93 400 000/00 RMK AO2 T01610150
03949KAQV AQV20190422220510704/22/19 22:05:31  5-MIN KAQV 230405Z AUTO 00000KT 10SM CLR 16/14 A3008 230 90 500 000/00 RMK AO2 T01610144
03949KAQV AQV20190422221010704/22/19 22:10:31  5-MIN KAQV 230410Z AUTO 00000KT 10SM CLR 16/15 A3008 230 93 500 000/00 RMK AO2 T01610150
03949KAQV AQV20190422221510704/22/19 22:15:31  5-MIN KAQV 230415Z AUTO 00000KT 10SM CLR 16/14 A3008 230 90 500 000/00 RMK AO2 T01610144
03949KAQV AQV20190422222010704/22/19 22:20:31  5-MIN KAQV 230420Z AUTO 00000KT 10SM CLR 16/14 A3008 230 90 500 000/00 RMK AO2 T01610144
03949KAQV AQV20190422222510704/22/19 22:25:31  5-MIN KAQV 230425Z AUTO 00000KT 10SM CLR 16/14 A3008 230 93 400 000/00 RMK AO2 T01560144
03949KAQV AQV20190422223010704/22/19 22:30:31  5-MIN KAQV 230430Z AUTO 00000KT 10SM CLR 16/14 A3008 230 93 400 000/00 RMK AO2 T01560144
03949KAQV AQV20190422223510704/22/19 22:35:31  5-MIN KAQV 230435Z AUTO 00000KT 10SM CLR 16/14 A3008 230 93 400 000/00 RMK AO2 T01560144
03949KAQV AQV20190422224010704/22/19 22:40:31  5-MIN KAQV 230440Z AUTO 00000KT 10SM CLR 16/14 A3008 230 93 400 000/00 RMK AO2 T01560144
03949KAQV AQV20190422224510704/22/19 22:45:31  5-MIN KAQV 230445Z AUTO 00000KT 10SM CLR 16/14 A3007 230 93 400 000/00 RMK AO2 T01560144
03949KAQV AQV20190422225011404/22/19 22:50:31  5-MIN KAQV 230450Z AUTO 00000KT 10SM CLR 16/14 A3007 230 93 400 000/00 RMK AO2 SLP182 T01560144
03949KAQV AQV20190422225511404/22/19 22:55:31  5-MIN KAQV 230455Z AUTO 17003KT 10SM CLR 16/14 A3007 240 93 400 160/03 RMK AO2 SLP181 T01560144
03949KAQV AQV20190422230010704/22/19 23:00:31  5-MIN KAQV 230500Z AUTO 18004KT 10SM CLR 16/14 A3007 240 93 400 170/04 RMK AO2 T01560144
03949KAQV AQV20190422230510704/22/19 23:05:31  5-MIN KAQV 230505Z AUTO 16003KT 10SM CLR 16/14 A3007 240 93 400 160/03 RMK AO2 T01560144
03949KAQV AQV20190422231010704/22/19 23:10:31  5-MIN KAQV 230510Z AUTO 17003KT 10SM CLR 16/14 A3007 240 90 500 170/03 RMK AO2 T01610144
03949KAQV AQV20190422231510704/22/19 23:15:31  5-MIN KAQV 230515Z AUTO 17003KT 10SM CLR 16/14 A3007 240 90 500 170/03 RMK AO2 T01610144
03949KAQV AQV20190422232010704/22/19 23:20:31  5-MIN KAQV 230520Z AUTO 18003KT 10SM CLR 16/14 A3007 240 90 500 180/03 RMK AO2 T01610144
03949KAQV AQV20190422232510704/22/19 23:25:31  5-MIN KAQV 230525Z AUTO 18004KT 10SM CLR 17/14 A3007 230 86 500 180/04 RMK AO2 T01670144
03949KAQV AQV20190422233010704/22/19 23:30:31  5-MIN KAQV 230530Z AUTO 19003KT 10SM CLR 17/15 A3007 230 90 500 190/03 RMK AO2 T01670150
03949KAQV AQV20190422233510704/22/19 23:35:31  5-MIN KAQV 230535Z AUTO VRB04KT 10SM CLR 17/15 A3007 230 90 500 VRB/04 RMK AO2 T01670150
03949KAQV AQV20190422234010704/22/19 23:40:31  5-MIN KAQV 230540Z AUTO 17003KT 10SM CLR 17/15 A3007 240 87 600 170/03 RMK AO2 T01720150
03949KAQV AQV20190422234510704/22/19 23:45:31  5-MIN KAQV 230545Z AUTO 17003KT 10SM CLR 17/15 A3007 240 87 600 170/03 RMK AO2 T01720150
03949KAQV AQV20190422235014204/22/19 23:50:31  5-MIN KAQV 230550Z AUTO 18003KT 10SM CLR 17/15 A3007 240 87 600 180/03 RMK AO2 SLP179 T01720150 10233 20156 402720117 53009
03949KAQV AQV20190422235514204/22/19 23:55:31  5-MIN KAQV 230555Z AUTO 18004KT 10SM CLR 17/15 A3007 240 87 600 180/04 RMK AO2 SLP179 T01720150 10233 20156 402720117 53009
03949KAQV AQV20190423000010704/23/19 00:00:31  5-MIN KAQV 230600Z AUTO VRB03KT 10SM CLR 17/15 A3007 240 87 600 VRB/03 RMK AO2 T01720150
03949KAQV AQV20190423000510704/23/19 00:05:31  5-MIN KAQV 230605Z AUTO 18004KT 10SM CLR 17/15 A3007 240 87 600 180/04 RMK AO2 T01720150
03949KAQV AQV20190423001010704/23/19 00:10:31  5-MIN KAQV 230610Z AUTO 18003KT 10SM CLR 17/15 A3007 240 87 600 180/03 RMK AO2 T01720150
03949KAQV AQV20190423001510704/23/19 00:15:31  5-MIN KAQV 230615Z AUTO 18003KT 10SM CLR 17/15 A3007 240 87 600 180/03 RMK AO2 T01720150
03949KAQV AQV20190423002010704/23/19 00:20:31  5-MIN KAQV 230620Z AUTO 00000KT 10SM CLR 17/15 A3007 230 87 600 000/00 RMK AO2 T01720150
03949KAQV AQV20190423002510704/23/19 00:25:31  5-MIN KAQV 230625Z AUTO 00000KT 10SM CLR 17/15 A3008 230 87 600 000/00 RMK AO2 T01720150
03949KAQV AQV20190423003010704/23/19 00:30:31  5-MIN KAQV 230630Z AUTO 19003KT 10SM CLR 17/15 A3007 230 90 500 180/03 RMK AO2 T01670150
03949KAQV AQV20190423003510704/23/19 00:35:31  5-MIN KAQV 230635Z AUTO 17004KT 10SM CLR 17/15 A3007 240 87 600 170/04 RMK AO2 T01720150
03949KAQV AQV20190423004010704/23/19 00:40:31  5-MIN KAQV 230640Z AUTO VRB03KT 10SM CLR 17/15 A3007 240 87 600 VRB/03 RMK AO2 T01720150
03949KAQV AQV20190423004510704/23/19 00:45:31  5-MIN KAQV 230645Z AUTO 00000KT 10SM CLR 17/15 A3007 240 87 600 000/00 RMK AO2 T01720150
03949KAQV AQV20190423005011404/23/19 00:50:31  5-MIN KAQV 230650Z AUTO 17003KT 10SM CLR 17/15 A3007 240 87 600 170/03 RMK AO2 SLP178 T01720150
03949KAQV AQV20190423005511404/23/19 00:55:31  5-MIN KAQV 230655Z AUTO 17003KT 10SM CLR 17/15 A3006 240 87 600 160/03 RMK AO2 SLP177 T01720150
03949KAQV AQV20190423010010704/23/19 01:00:31  5-MIN KAQV 230700Z AUTO 18003KT 10SM CLR 17/15 A3006 250 87 600 170/03 RMK AO2 T01720150
03949KAQV AQV20190423010510704/23/19 01:05:31  5-MIN KAQV 230705Z AUTO 00000KT 10SM CLR 17/15 A3006 250 87 600 000/00 RMK AO2 T01720150
03949KAQV AQV20190423011010704/23/19 01:10:31  5-MIN KAQV 230710Z AUTO VRB03KT 10SM CLR 17/15 A3006 250 87 600 VRB/03 RMK AO2 T01720150
03949KAQV AQV20190423011510704/23/19 01:15:31  5-MIN KAQV 230715Z AUTO 18003KT 10SM CLR 17/15 A3006 250 90 500 180/03 RMK AO2 T01670150
03949KAQV AQV20190423012010704/23/19 01:20:31  5-MIN KAQV 230720Z AUTO VRB03KT 10SM CLR 17/15 A3006 250 90 500 VRB/03 RMK AO2 T01670150
03949KAQV AQV20190423012510704/23/19 01:25:31  5-MIN KAQV 230725Z AUTO 00000KT 10SM CLR 17/15 A3006 250 90 500 000/00 RMK AO2 T01670150
03949KAQV AQV20190423013010704/23/19 01:30:31  5-MIN KAQV 230730Z AUTO 00000KT 10SM CLR 17/15 A3006 250 90 500 000/00 RMK AO2 T01670150
03949KAQV AQV20190423013510704/23/19 01:35:31  5-MIN KAQV 230735Z AUTO 00000KT 10SM CLR 17/15 A3006 250 90 500 000/00 RMK AO2 T01670150
03949KAQV AQV20190423014010704/23/19 01:40:31  5-MIN KAQV 230740Z AUTO 00000KT 10SM CLR 17/15 A3006 250 90 500 000/00 RMK AO2 T01670150
03949KAQV AQV20190423014510704/23/19 01:45:31  5-MIN KAQV 230745Z AUTO 00000KT 10SM CLR 17/15 A3005 250 90 500 000/00 RMK AO2 T01670150
03949KAQV AQV20190423015011404/23/19 01:50:31  5-MIN KAQV 230750Z AUTO 00000KT 10SM CLR 17/15 A3006 250 90 500 000/00 RMK AO2 SLP176 T01670150
03949KAQV AQV20190423015511404/23/19 01:55:31  5-MIN KAQV 230755Z AUTO 00000KT 10SM CLR 17/15 A3006 250 90 500 000/00 RMK AO2 SLP176 T01670150
03949KAQV AQV20190423020010704/23/19 02:00:31  5-MIN KAQV 230800Z AUTO 00000KT 10SM CLR 17/15 A3006 250 90 500 000/00 RMK AO2 T01670150
03949KAQV AQV20190423020510704/23/19 02:05:31  5-MIN KAQV 230805Z AUTO 00000KT 10SM CLR 17/15 A3005 250 90 600 000/00 RMK AO2 T01670150
03949KAQV AQV20190423025006704/23/19 02:50:31  5-MIN KAQV 230850Z AUTO 00000KT 10SM CLR 1610150
03949KAQV AQV20190423031510704/23/19 03:15:31  5-MIN KAQV 230915Z AUTO 00000KT 10SM CLR 16/15 A3005 250 93 500 000/00 RMK AO2 T01610150
03949KAQV AQV20190423032010704/23/19 03:20:31  5-MIN KAQV 230920Z AUTO 00000KT 10SM CLR 16/15 A3005 250 93 500 000/00 RMK AO2 T01610150
03949KAQV AQV20190423032510704/23/19 03:25:31  5-MIN KAQV 230925Z AUTO 00000KT 10SM CLR 16/15 A3005 250 93 500 000/00 RMK AO2 T01610150
03949KAQV AQV20190423033010704/23/19 03:30:31  5-MIN KAQV 230930Z AUTO 00000KT 10SM CLR 16/15 A3005 250 93 500 000/00 RMK AO2 T01610150
03949KAQV AQV20190423033510704/23/19 03:35:31  5-MIN KAQV 230935Z AUTO 00000KT 10SM CLR 16/15 A3005 250 93 500 000/00 RMK AO2 T01610150
03949KAQV AQV20190423034010704/23/19 03:40:31  5-MIN KAQV 230940Z AUTO 00000KT 10SM CLR 16/15 A3005 250 93 500 000/00 RMK AO2 T01610150
03949KAQV AQV20190423034510704/23/19 03:45:31  5-MIN KAQV 230945Z AUTO 00000KT 10SM CLR 16/15 A3006 250 93 500 000/00 RMK AO2 T01610150
03949KAQV AQV20190423035011404/23/19 03:50:31  5-MIN KAQV 230950Z AUTO 00000KT 10SM CLR 16/15 A3006 250 93 500 000/00 RMK AO2 SLP176 T01610150
03949KAQV AQV20190423035511404/23/19 03:55:31  5-MIN KAQV 230955Z AUTO 00000KT 10SM CLR 16/15 A3006 250 93 500 000/00 RMK AO2 SLP176 T01610150
03949KAQV AQV20190423040011004/23/19 04:00:31  5-MIN KAQV 231000Z AUTO 00000KT 10SM FEW032 16/15 A3006 250 93 500 000/00 RMK AO2 T01610150
03949KAQV AQV20190423040511004/23/19 04:05:31  5-MIN KAQV 231005Z AUTO 00000KT 10SM FEW032 16/15 A3006 250 93 500 000/00 RMK AO2 T01610150
03949KAQV AQV20190423041011004/23/19 04:10:31  5-MIN KAQV 231010Z AUTO 00000KT 10SM FEW032 16/15 A3006 250 93 500 000/00 RMK AO2 T01610150
03949KAQV AQV20190423041511004/23/19 04:15:31  5-MIN KAQV 231015Z AUTO 00000KT 10SM FEW032 16/15 A3006 250 96 400 000/00 RMK AO2 T01560150
03949KAQV AQV20190423042011004/23/19 04:20:31  5-MIN KAQV 231020Z AUTO 00000KT 10SM FEW032 16/14 A3005 250 93 400 000/00 RMK AO2 T01560144
03949KAQV AQV20190423042510904/23/19 04:25:31  5-MIN KAQV 231025Z AUTO 00000KT 9SM FEW032 16/14 A3005 250 93 400 000/00 RMK AO2 T01560144
03949KAQV AQV20190423043010904/23/19 04:30:31  5-MIN KAQV 231030Z AUTO 00000KT 9SM FEW032 16/14 A3005 260 93 400 000/00 RMK AO2 T01560144
03949KAQV AQV20190423043510604/23/19 04:35:31  5-MIN KAQV 231035Z AUTO 00000KT 9SM CLR 16/14 A3005 260 93 400 000/00 RMK AO2 T01560144
03949KAQV AQV20190423044010604/23/19 04:40:31  5-MIN KAQV 231040Z AUTO 00000KT 9SM CLR 16/14 A3005 260 93 400 000/00 RMK AO2 T01560144
03949KAQV AQV20190423044510604/23/19 04:45:31  5-MIN KAQV 231045Z AUTO 00000KT 9SM CLR 16/14 A3005 260 93 400 000/00 RMK AO2 T01560144
03949KAQV AQV20190423045011304/23/19 04:50:31  5-MIN KAQV 231050Z AUTO 00000KT 9SM CLR 16/15 A3005 260 93 500 000/00 RMK AO2 SLP173 T01610150
03949KAQV AQV20190423045511304/23/19 04:55:31  5-MIN KAQV 231055Z AUTO 00000KT 9SM CLR 16/15 A3005 260 93 500 000/00 RMK AO2 SLP174 T01610150
03949KAQV AQV20190423050010604/23/19 05:00:31  5-MIN KAQV 231100Z AUTO 00000KT 9SM CLR 16/15 A3005 260 93 500 000/00 RMK AO2 T01610150
03949KAQV AQV20190423050510704/23/19 05:05:31  5-MIN KAQV 231105Z AUTO 00000KT 10SM CLR 16/15 A3005 260 93 500 000/00 RMK AO2 T01610150
03949KAQV AQV20190423051010704/23/19 05:10:31  5-MIN KAQV 231110Z AUTO 00000KT 10SM CLR 16/15 A3005 260 93 500 000/00 RMK AO2 T01610150
03949KAQV AQV20190423051510704/23/19 05:15:31  5-MIN KAQV 231115Z AUTO 00000KT 10SM CLR 16/15 A3005 260 93 500 000/00 RMK AO2 T01610150
03949KAQV AQV20190423052010704/23/19 05:20:31  5-MIN KAQV 231120Z AUTO 00000KT 10SM CLR 16/16 A3005 250 96 500 000/00 RMK AO2 T01610156
03949KAQV AQV20190423052511004/23/19 05:25:31  5-MIN KAQV 231125Z AUTO 00000KT 10SM FEW003 16/16 A3006 250 96 500 000/00 RMK AO2 T01610156
03949KAQV AQV20190423053011004/23/19 05:30:31  5-MIN KAQV 231130Z AUTO 00000KT 10SM SCT003 16/16 A3006 250 96 500 000/00 RMK AO2 T01610156
03949KAQV AQV20190423053510904/23/19 05:35:31  5-MIN KAQV 231135Z AUTO 00000KT 9SM FEW003 16/15 A3006 250 93 500 000/00 RMK AO2 T01610150
03949KAQV AQV20190423053511204/23/19 05:35:31  5-MIN KAQV 231135Z AUTO 00000KT 9SM FEW003 16/15 A3006 250 93 500 000/10150 10172 20156 55003
03949KAQV AQV20190423054010904/23/19 05:40:31  5-MIN KAQV 231140Z AUTO 00000KT 9SM SCT003 16/15 A3007 240 93 500 000/00 RMK AO2 T01610150
03949KAQV AQV20190423054511204/23/19 05:45:31  5-MIN KAQV 231145Z AUTO 00000KT 6SM BR SCT003 16/15 A3007 240 93 500 000/00 RMK AO2 T01610150
03949KAQV AQV20190423055013704/23/19 05:50:31  5-MIN KAQV 231150Z AUTO 00000KT 3SM BR SCT003 16/15 A3007 240 93 500 000/00 RMK AO2 SLP181 T01610150 10172 20156 55003
03949KAQV AQV20190423055514104/23/19 05:55:31  5-MIN KAQV 231155Z AUTO 00000KT 2 1/2SM BR FEW003 16/15 A3008 230 93 500 000/00 RMK AO2 SLP184 T01610150 10172 20156 55003
03949KAQV AQV20190423060012404/23/19 06:00:31  5-MIN KAQV 231200Z AUTO 00000KT 2 1/2SM BR FEW003 16/15 A3008 230 93 500 000/00 RMK AO2 VIS 2V4 T01610150
03949KAQV AQV20190423060511604/23/19 06:05:31  5-MIN KAQV 231205Z AUTO 00000KT 2 1/2SM BR FEW003 16/15 A3008 230 93 400 000/00 RMK AO2 T01610150
03949KAQV AQV20190423061011204/23/19 06:10:31  5-MIN KAQV 231210Z AUTO 00000KT 3SM BR FEW003 16/16 A3009 220 96 400 000/00 RMK AO2 T01610156
03949KAQV AQV20190423061511204/23/19 06:15:31  5-MIN KAQV 231215Z AUTO 00000KT 3SM BR FEW031 16/16 A3009 220 96 400 000/00 RMK AO2 T01610156
03949KAQV AQV20190423062011204/23/19 06:20:31  5-MIN KAQV 231220Z AUTO 00000KT 3SM BR SCT031 16/16 A3009 220 96 400 000/00 RMK AO2 T01610156
03949KAQV AQV20190423062511204/23/19 06:25:31  5-MIN KAQV 231225Z AUTO 00000KT 5SM BR SCT031 16/16 A3009 220 96 400 000/00 RMK AO2 T01610156
03949KAQV AQV20190423063010904/23/19 06:30:31  5-MIN KAQV 231230Z AUTO 00000KT 7SM SCT031 16/16 A3009 220 96 400 000/00 RMK AO2 T01610156
03949KAQV AQV20190423063510904/23/19 06:35:31  5-MIN KAQV 231235Z AUTO 00000KT 7SM SCT031 17/16 A3009 220 93 500 000/00 RMK AO2 T01670156
03949KAQV AQV20190423064010904/23/19 06:40:31  5-MIN KAQV 231240Z AUTO 00000KT 8SM SCT032 17/16 A3009 220 93 500 000/00 RMK AO2 T01670156
03949KAQV AQV20190423064510904/23/19 06:45:31  5-MIN KAQV 231245Z AUTO 00000KT 9SM FEW032 17/16 A3009 220 93 500 000/00 RMK AO2 T01670156
03949KAQV AQV20190423065011604/23/19 06:50:31  5-MIN KAQV 231250Z AUTO 00000KT 9SM FEW031 17/16 A3009 220 93 500 000/00 RMK AO2 SLP189 T01670156
03949KAQV AQV20190423065511604/23/19 06:55:31  5-MIN KAQV 231255Z AUTO 00000KT 9SM FEW031 17/16 A3009 220 96 500 000/00 RMK AO2 SLP189 T01670161
03949KAQV AQV20190423070010704/23/19 07:00:31  5-MIN KAQV 231300Z AUTO 00000KT 10SM CLR 17/16 A3009 220 93 600 000/00 RMK AO2 T01720161
03949KAQV AQV20190423070510704/23/19 07:05:31  5-MIN KAQV 231305Z AUTO 00000KT 10SM CLR 17/16 A3009 220 93 600 000/00 RMK AO2 T01720161
03949KAQV AQV20190423071010704/23/19 07:10:31  5-MIN KAQV 231310Z AUTO 00000KT 10SM CLR 17/16 A3009 220 93 600 000/00 RMK AO2 T01720161
03949KAQV AQV20190423071511004/23/19 07:15:31  5-MIN KAQV 231315Z AUTO 00000KT 10SM FEW003 17/16 A3009 220 93 600 000/00 RMK AO2 T01720161
03949KAQV AQV20190423072011004/23/19 07:20:31  5-MIN KAQV 231320Z AUTO 00000KT 10SM FEW003 17/16 A3009 220 93 600 000/00 RMK AO2 T01720161
03949KAQV AQV20190423072511004/23/19 07:25:31  5-MIN KAQV 231325Z AUTO 00000KT 10SM FEW003 17/16 A3009 220 93 600 000/00 RMK AO2 T01720161
03949KAQV AQV20190423073011004/23/19 07:30:31  5-MIN KAQV 231330Z AUTO 00000KT 10SM FEW003 18/17 A3009 220 93 600 000/00 RMK AO2 T01780167
03949KAQV AQV20190423073511004/23/19 07:35:31  5-MIN KAQV 231335Z AUTO VRB03KT 10SM FEW003 18/17 A3009 220 93 600 VRB/03 RMK AO2 T01780167
03949KAQV AQV20190423074011004/23/19 07:40:31  5-MIN KAQV 231340Z AUTO 00000KT 10SM SCT003 18/17 A3009 220 93 600 000/00 RMK AO2 T01780167
03949KAQV AQV20190423074511004/23/19 07:45:31  5-MIN KAQV 231345Z AUTO VRB03KT 10SM SCT003 18/17 A3010 210 90 700 VRB/03 RMK AO2 T01830167
03949KAQV AQV20190423075011704/23/19 07:50:31  5-MIN KAQV 231350Z AUTO 00000KT 10SM SCT003 18/17 A3010 210 90 700 000/00 RMK AO2 SLP191 T01830167
03949KAQV AQV20190423075511704/23/19 07:55:31  5-MIN KAQV 231355Z AUTO VRB03KT 10SM SCT003 18/17 A3010 210 90 700 VRB/03 RMK AO2 SLP190 T01830167
03949KAQV AQV20190423080012204/23/19 08:00:31  5-MIN KAQV 231400Z AUTO VRB03KT 10SM BKN005 19/17 A3010 210 90 800 VRB/03 RMK AO2 CIG 003V007 T01890172
03949KAQV AQV20190423080510904/23/19 08:05:31  5-MIN KAQV 231405Z AUTO VRB03KT 9SM BKN005 19/17 A3010 210 90 800 VRB/03 RMK AO2 T01890172
03949KAQV AQV20190423081012104/23/19 08:10:31  5-MIN KAQV 231410Z AUTO VRB03KT 9SM BKN005 19/17 A3010 210 87 800 VRB/03 RMK AO2 CIG 004V009 T01940172
03949KAQV AQV20190423081512204/23/19 08:15:31  5-MIN KAQV 231415Z AUTO 00000KT 10SM BKN006 19/17 A3010 210 87 800 000/00 RMK AO2 CIG 005V009 T01940172
03949KAQV AQV20190423082012204/23/19 08:20:31  5-MIN KAQV 231420Z AUTO 17005KT 10SM BKN006 19/17 A3010 210 87 800 160/05 RMK AO2 CIG 005V009 T01940172
03949KAQV AQV20190423082512104/23/19 08:25:31  5-MIN KAQV 231425Z AUTO VRB03KT 9SM BKN006 19/17 A3010 210 87 800 VRB/03 RMK AO2 CIG 005V010 T01940172
03949KAQV AQV20190423083012104/23/19 08:30:31  5-MIN KAQV 231430Z AUTO VRB05KT 9SM BKN008 20/17 A3009 220 84 900 VRB/05 RMK AO2 CIG 006V010 T02000172
03949KAQV AQV20190423083511004/23/19 08:35:31  5-MIN KAQV 231435Z AUTO VRB03KT 10SM BKN008 20/17 A3009 220 84 900 VRB/03 RMK AO2 T02000172
03949KAQV AQV20190423084011004/23/19 08:40:31  5-MIN KAQV 231440Z AUTO 12005KT 10SM BKN008 20/17 A3009 220 84 900 120/05 RMK AO2 T02000172
03949KAQV AQV20190423084511004/23/19 08:45:31  5-MIN KAQV 231445Z AUTO VRB03KT 10SM BKN008 20/17 A3009 220 84 900 VRB/03 RMK AO2 T02000172
03949KAQV AQV20190423085012404/23/19 08:50:31  5-MIN KAQV 231450Z AUTO VRB04KT 10SM BKN008 21/17 A3009 220 81 1000 VRB/04 RMK AO2 SLP187 T02060172 53007
03949KAQV AQV20190423085513604/23/19 08:55:31  5-MIN KAQV 231455Z AUTO VRB03KT 10SM BKN008 21/18 A3009 220 84 1000 VRB/03 RMK AO2 CIG 008V012 SLP188 T02060178 53007
03949KAQV AQV20190423090011104/23/19 09:00:31  5-MIN KAQV 231500Z AUTO VRB04KT 10SM SCT009 21/17 A3009 220 81 1000 VRB/04 RMK AO2 T02060172
03949KAQV AQV20190423090511104/23/19 09:05:31  5-MIN KAQV 231505Z AUTO VRB04KT 10SM SCT011 21/17 A3009 220 78 1000 VRB/04 RMK AO2 T02110172
03949KAQV AQV20190423091011104/23/19 09:10:31  5-MIN KAQV 231510Z AUTO VRB06KT 10SM SCT011 21/17 A3009 220 78 1000 VRB/06 RMK AO2 T02110172
03949KAQV AQV20190423091511104/23/19 09:15:31  5-MIN KAQV 231515Z AUTO 16006KT 10SM SCT010 21/17 A3009 220 78 1000 160/06 RMK AO2 T02110172
03949KAQV AQV20190423092011104/23/19 09:20:31  5-MIN KAQV 231520Z AUTO VRB05KT 10SM SCT012 22/17 A3009 220 75 1100 VRB/05 RMK AO2 T02170172
03949KAQV AQV20190423092511104/23/19 09:25:31  5-MIN KAQV 231525Z AUTO 18007KT 10SM SCT012 22/17 A3009 220 75 1100 180/07 RMK AO2 T02170172
03949KAQV AQV20190423093011104/23/19 09:30:31  5-MIN KAQV 231530Z AUTO VRB06KT 10SM FEW012 21/17 A3009 220 78 1000 VRB/06 RMK AO2 T02110172
03949KAQV AQV20190423093511104/23/19 09:35:31  5-MIN KAQV 231535Z AUTO VRB05KT 10SM FEW012 22/17 A3008 220 75 1100 VRB/05 RMK AO2 T02170172
03949KAQV AQV20190423094011104/23/19 09:40:31  5-MIN KAQV 231540Z AUTO 16006KT 10SM FEW013 22/17 A3008 230 75 1100 150/06 RMK AO2 T02170172
03949KAQV AQV20190423094511104/23/19 09:45:31  5-MIN KAQV 231545Z AUTO 17004KT 10SM FEW013 22/18 A3008 230 78 1100 170/04 RMK AO2 T02170178
03949KAQV AQV20190423095011804/23/19 09:50:31  5-MIN KAQV 231550Z AUTO 17006KT 10SM FEW013 22/17 A3008 230 75 1100 170/06 RMK AO2 SLP184 T02170172
03949KAQV AQV20190423095511504/23/19 09:55:31  5-MIN KAQV 231555Z AUTO VRB05KT 10SM CLR 22/17 A3007 240 75 1100 VRB/05 RMK AO2 SLP182 T02170172
03949KAQV AQV20190423100010804/23/19 10:00:31  5-MIN KAQV 231600Z AUTO VRB05KT 10SM CLR 22/17 A3007 240 75 1100 VRB/05 RMK AO2 T02170172
03949KAQV AQV20190423100509804/23/19 10:05:31  5-MIN KAQV 231605Z AUTO 10SM CLR 22/17 A3007 240 75 1100 M /M RMK AO2 T02170172
03949KAQV AQV20190423101010804/23/19 10:10:31  5-MIN KAQV 231610Z AUTO 15005KT 10SM CLR 22/17 A3008 230 75 1100 150/05 RMK AO2 T02170172
03949KAQV AQV20190423101510804/23/19 10:15:31  5-MIN KAQV 231615Z AUTO 18006KT 10SM CLR 22/17 A3007 230 75 1100 170/06 RMK AO2 T02170172
03949KAQV AQV20190423102010804/23/19 10:20:31  5-MIN KAQV 231620Z AUTO VRB03KT 10SM CLR 22/17 A3008 230 73 1200 VRB/03 RMK AO2 T02220172
03949KAQV AQV20190423102511104/23/19 10:25:31  5-MIN KAQV 231625Z AUTO 18003KT 10SM FEW017 22/17 A3008 230 73 1200 170/03 RMK AO2 T02220172
03949KAQV AQV20190423103011104/23/19 10:30:31  5-MIN KAQV 231630Z AUTO 18005KT 10SM FEW017 22/18 A3008 230 75 1200 180/05 RMK AO2 T02220178
03949KAQV AQV20190423103511104/23/19 10:35:31  5-MIN KAQV 231635Z AUTO VRB04KT 10SM FEW017 22/17 A3008 230 73 1200 VRB/04 RMK AO2 T02220172
03949KAQV AQV20190423104011104/23/19 10:40:31  5-MIN KAQV 231640Z AUTO VRB04KT 10SM FEW017 22/18 A3008 230 75 1200 VRB/04 RMK AO2 T02220178
03949KAQV AQV20190423104511104/23/19 10:45:31  5-MIN KAQV 231645Z AUTO VRB06KT 10SM SCT017 22/17 A3009 220 73 1200 VRB/06 RMK AO2 T02220172
03949KAQV AQV20190423105012504/23/19 10:50:31  5-MIN KAQV 231650Z AUTO VRB04KT 10SM SCT019 SCT025 22/17 A3008 230 73 1200 VRB/04 RMK AO2 SLP185 T02220172
03949KAQV AQV20190423105512504/23/19 10:55:31  5-MIN KAQV 231655Z AUTO VRB05KT 10SM SCT019 SCT025 23/17 A3008 230 70 1200 VRB/05 RMK AO2 SLP184 T02280172
03949KAQV AQV20190423110011104/23/19 11:00:31  5-MIN KAQV 231700Z AUTO VRB04KT 10SM SCT019 23/17 A3008 230 70 1200 VRB/04 RMK AO2 T02280172
03949KAQV AQV20190423110511104/23/19 11:05:31  5-MIN KAQV 231705Z AUTO 18006KT 10SM FEW019 22/17 A3008 230 73 1200 180/06 RMK AO2 T02220172
03949KAQV AQV20190423111011104/23/19 11:10:31  5-MIN KAQV 231710Z AUTO VRB04KT 10SM SCT020 23/18 A3008 230 73 1200 VRB/04 RMK AO2 T02280178
03949KAQV AQV20190423111511104/23/19 11:15:31  5-MIN KAQV 231715Z AUTO VRB04KT 10SM SCT020 23/17 A3008 230 70 1200 VRB/04 RMK AO2 T02280172
03949KAQV AQV20190423112011104/23/19 11:20:31  5-MIN KAQV 231720Z AUTO VRB04KT 10SM SCT020 23/17 A3008 230 70 1200 VRB/04 RMK AO2 T02280172
03949KAQV AQV20190423112511304/23/19 11:25:31  5-MIN KAQV 231725Z AUTO VRB04KT 6SM HZ FEW020 23/18 A3008 230 73 1200 VRB/04 RMK AO2 T02280178
03949KAQV AQV20190423113012004/23/19 11:30:31  5-MIN KAQV 231730Z AUTO VRB05KT 6SM HZ SCT020 SCT029 23/17 A3008 230 70 1200 VRB/05 RMK AO2 T02280172
03949KAQV AQV20190423113511704/23/19 11:35:31  5-MIN KAQV 231735Z AUTO VRB04KT 9SM SCT020 SCT029 23/18 A3008 230 73 1200 VRB/04 RMK AO2 T02280178
03949KAQV AQV20190423114011104/23/19 11:40:31  5-MIN KAQV 231740Z AUTO 17006KT 10SM FEW021 23/18 A3007 240 73 1200 160/06 RMK AO2 T02280178
03949KAQV AQV20190423114511104/23/19 11:45:31  5-MIN KAQV 231745Z AUTO VRB05KT 10SM FEW021 23/17 A3007 240 70 1200 VRB/05 RMK AO2 T02280172
03949KAQV AQV20190423115013604/23/19 11:50:31  5-MIN KAQV 231750Z AUTO 15005KT 10SM FEW021 23/17 A3007 240 68 1300 150/05 RMK AO2 SLP180 T02330172 10233 20161 50003
03949KAQV AQV20190423115513604/23/19 11:55:31  5-MIN KAQV 231755Z AUTO VRB04KT 10SM FEW021 23/17 A3007 240 70 1200 VRB/04 RMK AO2 SLP180 T02280172 10233 20161 50003
03949KAQV AQV20190423120011104/23/19 12:00:31  5-MIN KAQV 231800Z AUTO 19006KT 10SM FEW022 23/17 A3007 240 68 1300 190/06 RMK AO2 T02330172
03949KAQV AQV20190423120511104/23/19 12:05:31  5-MIN KAQV 231805Z AUTO VRB04KT 10SM FEW022 23/17 A3008 230 70 1200 VRB/04 RMK AO2 T02280172
03949KAQV AQV20190423121011804/23/19 12:10:31  5-MIN KAQV 231810Z AUTO VRB05KT 10SM FEW022 SCT033 23/17 A3008 230 70 1200 VRB/05 RMK AO2 T02280172
03949KAQV AQV20190423121511804/23/19 12:15:31  5-MIN KAQV 231815Z AUTO VRB06KT 10SM FEW021 SCT033 23/17 A3008 230 70 1200 VRB/06 RMK AO2 T02280172
03949KAQV AQV20190423122011804/23/19 12:20:31  5-MIN KAQV 231820Z AUTO VRB03KT 10SM FEW021 SCT034 23/17 A3007 230 68 1300 VRB/03 RMK AO2 T02330172
03949KAQV AQV20190423122510804/23/19 12:25:31  5-MIN KAQV 231825Z AUTO 10SM FEW021 FEW034 23/17 A3007 240 68 1300 M /M RMK AO2 T02330172
03949KAQV AQV20190423123011804/23/19 12:30:31  5-MIN KAQV 231830Z AUTO 17005KT 10SM FEW021 FEW034 23/17 A3007 240 68 1300 170/05 RMK AO2 T02330172
03949KAQV AQV20190423123510804/23/19 12:35:31  5-MIN KAQV 231835Z AUTO VRB03KT 10SM CLR 23/17 A3007 240 70 1200 VRB/03 RMK AO2 T02280172
03949KAQV AQV20190423124010104/23/19 12:40:31  5-MIN KAQV 231840Z AUTO 10SM FEW022 23/17 A3007 240 70 1200 M /M RMK AO2 T02280172
03949KAQV AQV20190423124511104/23/19 12:45:31  5-MIN KAQV 231845Z AUTO 19004KT 10SM FEW022 23/17 A3007 240 70 1200 190/04 RMK AO2 T02280172
03949KAQV AQV20190423125012504/23/19 12:50:31  5-MIN KAQV 231850Z AUTO VRB04KT 10SM SCT024 SCT030 23/17 A3007 240 70 1200 VRB/04 RMK AO2 SLP181 T02280172
03949KAQV AQV20190423125512504/23/19 12:55:31  5-MIN KAQV 231855Z AUTO VRB05KT 10SM SCT024 BKN030 22/17 A3007 240 73 1200 VRB/05 RMK AO2 SLP180 T02220172
03949KAQV AQV20190423130012504/23/19 13:00:31  5-MIN KAQV 231900Z AUTO VRB05KT 10SM FEW022 SCT026 BKN039 22/17 A3006 240 73 1200 VRB/05 RMK AO2 T02220172
03949KAQV AQV20190423130512404/23/19 13:05:31  5-MIN KAQV 231905Z AUTO 20004KT 9SM SCT024 SCT029 BKN039 22/17 A3006 250 73 1200 190/04 RMK AO2 T02220172
03949KAQV AQV20190423131012404/23/19 13:10:31  5-MIN KAQV 231910Z AUTO 18003KT 9SM FEW024 SCT029 BKN039 23/17 A3006 250 70 1300 170/03 RMK AO2 T02280172
03949KAQV AQV20190423131512504/23/19 13:15:31  5-MIN KAQV 231915Z AUTO 18004KT 10SM FEW024 SCT030 BKN039 23/17 A3005 250 70 1300 180/04 RMK AO2 T02280172
03949KAQV AQV20190423132012504/23/19 13:20:31  5-MIN KAQV 231920Z AUTO 17004KT 10SM FEW022 FEW027 SCT039 23/17 A3005 250 70 1300 170/04 RMK AO2 T02280172
03949KAQV AQV20190423132511104/23/19 13:25:31  5-MIN KAQV 231925Z AUTO VRB03KT 10SM FEW039 23/17 A3005 250 70 1300 VRB/03 RMK AO2 T02280172
03949KAQV AQV20190423133011804/23/19 13:30:31  5-MIN KAQV 231930Z AUTO VRB04KT 10SM FEW029 FEW037 23/17 A3005 260 70 1300 VRB/04 RMK AO2 T02280172
03949KAQV AQV20190423133512504/23/19 13:35:31  5-MIN KAQV 231935Z AUTO 17005KT 10SM FEW020 FEW029 SCT037 23/17 A3004 260 70 1300 170/05 RMK AO2 T02280172
03949KAQV AQV20190423134011804/23/19 13:40:31  5-MIN KAQV 231940Z AUTO VRB03KT 10SM FEW020 FEW029 23/17 A3004 270 70 1300 VRB/03 RMK AO2 T02280172
03949KAQV AQV20190423134511804/23/19 13:45:31  5-MIN KAQV 231945Z AUTO VRB04KT 10SM FEW021 FEW029 23/17 A3003 270 70 1300 VRB/04 RMK AO2 T02280172
03949KAQV AQV20190423135012404/23/19 13:50:31  5-MIN KAQV 231950Z AUTO VRB04KT 9SM FEW021 FEW029 23/17 A3003 280 68 1300 VRB/04 RMK AO2 SLP167 T02330172
03949KAQV AQV20190423135510404/23/19 13:55:31  5-MIN KAQV 231955Z AUTO 9SM CLR 23/17 A3003 280 68 1400 M /M RMK AO2 SLP166 T02330172
03949KAQV AQV20190423140010804/23/19 14:00:31  5-MIN KAQV 232000Z AUTO 16007KT 10SM CLR 23/17 A3002 280 68 1400 160/07 RMK AO2 T02330172
03949KAQV AQV20190423140510804/23/19 14:05:31  5-MIN KAQV 232005Z AUTO VRB05KT 10SM CLR 23/17 A3002 290 68 1400 VRB/05 RMK AO2 T02330172
03949KAQV AQV20190423141010804/23/19 14:10:31  5-MIN KAQV 232010Z AUTO 18005KT 10SM CLR 23/17 A3001 290 68 1300 170/05 RMK AO2 T02280167
03949KAQV AQV20190423141510804/23/19 14:15:31  5-MIN KAQV 232015Z AUTO VRB05KT 10SM CLR 23/17 A3001 290 68 1300 VRB/05 RMK AO2 T02280167
03949KAQV AQV20190423142010804/23/19 14:20:31  5-MIN KAQV 232020Z AUTO VRB04KT 10SM CLR 23/17 A3001 290 70 1300 VRB/04 RMK AO2 T02280172
03949KAQV AQV20190423142511104/23/19 14:25:31  5-MIN KAQV 232025Z AUTO VRB04KT 10SM FEW027 23/17 A3001 290 70 1300 VRB/04 RMK AO2 T02280172
03949KAQV AQV20190423143011104/23/19 14:30:31  5-MIN KAQV 232030Z AUTO VRB04KT 10SM FEW027 23/17 A3001 290 70 1300 VRB/04 RMK AO2 T02280172
03949KAQV AQV20190423143511104/23/19 14:35:31  5-MIN KAQV 232035Z AUTO 00000KT 10SM FEW026 23/17 A3001 300 70 1300 000/00 RMK AO2 T02280172
03949KAQV AQV20190423144011104/23/19 14:40:31  5-MIN KAQV 232040Z AUTO 00000KT 10SM FEW026 23/17 A3000 300 70 1300 000/00 RMK AO2 T02280172
03949KAQV AQV20190423144511104/23/19 14:45:31  5-MIN KAQV 232045Z AUTO VRB05KT 10SM FEW025 23/17 A3001 300 70 1300 VRB/05 RMK AO2 T02280172
03949KAQV AQV20190423145012404/23/19 14:50:31  5-MIN KAQV 232050Z AUTO VRB04KT 10SM FEW025 23/17 A3001 290 68 1400 VRB/04 RMK AO2 SLP160 T02330172 56007
03949KAQV AQV20190423145512104/23/19 14:55:31  5-MIN KAQV 232055Z AUTO VRB03KT 10SM CLR 23/17 A3001 300 68 1400 VRB/03 RMK AO2 SLP159 T02330172 56007
03949KAQV AQV20190423150010804/23/19 15:00:31  5-MIN KAQV 232100Z AUTO VRB03KT 10SM CLR 23/17 A3000 300 68 1400 VRB/03 RMK AO2 T02330172
03949KAQV AQV20190423150510804/23/19 15:05:31  5-MIN KAQV 232105Z AUTO VRB05KT 10SM CLR 23/17 A3000 300 68 1400 VRB/05 RMK AO2 T02330172
03949KAQV AQV20190423151010804/23/19 15:10:31  5-MIN KAQV 232110Z AUTO VRB04KT 10SM CLR 23/17 A3000 300 68 1400 VRB/04 RMK AO2 T02330172
03949KAQV AQV20190423151510804/23/19 15:15:31  5-MIN KAQV 232115Z AUTO VRB03KT 10SM CLR 23/17 A3000 300 66 1400 VRB/03 RMK AO2 T02330167
03949KAQV AQV20190423152011804/23/19 15:20:31  5-MIN KAQV 232120Z AUTO 00000KT 10SM FEW027 FEW034 23/17 A3000 300 66 1400 000/00 RMK AO2 T02330167
03949KAQV AQV20190423152511804/23/19 15:25:31  5-MIN KAQV 232125Z AUTO 17004KT 10SM FEW025 SCT034 23/17 A3000 300 68 1400 170/04 RMK AO2 T02330172
03949KAQV AQV20190423153011804/23/19 15:30:31  5-MIN KAQV 232130Z AUTO VRB03KT 10SM FEW025 SCT034 23/17 A3000 310 68 1400 VRB/03 RMK AO2 T02330172
03949KAQV AQV20190423153511804/23/19 15:35:31  5-MIN KAQV 232135Z AUTO VRB04KT 10SM FEW026 SCT033 24/17 A3000 310 66 1400 VRB/04 RMK AO2 T02390172
03949KAQV AQV20190423154011804/23/19 15:40:31  5-MIN KAQV 232140Z AUTO 17004KT 10SM FEW026 SCT033 24/17 A3000 300 63 1400 170/04 RMK AO2 T02390167
03949KAQV AQV20190423154511804/23/19 15:45:31  5-MIN KAQV 232145Z AUTO 00000KT 10SM FEW026 SCT033 24/17 A3000 300 63 1400 000/00 RMK AO2 T02390167
03949KAQV AQV20190423155012504/23/19 15:50:31  5-MIN KAQV 232150Z AUTO 17004KT 10SM SCT028 BKN035 24/17 A3000 300 63 1400 170/04 RMK AO2 SLP157 T02390167
03949KAQV AQV20190423155512504/23/19 15:55:31  5-MIN KAQV 232155Z AUTO 19003KT 10SM BKN028 BKN037 24/17 A3000 300 63 1400 180/03 RMK AO2 SLP158 T02390167
03949KAQV AQV20190423160011804/23/19 16:00:31  5-MIN KAQV 232200Z AUTO VRB04KT 10SM SCT028 SCT036 24/17 A3000 300 63 1400 VRB/04 RMK AO2 T02390167
03949KAQV AQV20190423160510804/23/19 16:05:31  5-MIN KAQV 232205Z AUTO 10SM SCT030 BKN038 24/17 A3001 290 63 1400 M /M RMK AO2 T02390167
03949KAQV AQV20190423161011804/23/19 16:10:31  5-MIN KAQV 232210Z AUTO 21005KT 10SM FEW028 BKN040 23/17 A3002 290 66 1400 200/05 RMK AO2 T02330167
03949KAQV AQV20190423161512504/23/19 16:15:31  5-MIN KAQV 232215Z AUTO VRB03KT 10SM FEW028 SCT033 BKN042 23/16 A3002 290 63 1400 VRB/03 RMK AO2 T02330161
03949KAQV AQV20190423162012504/23/19 16:20:31  5-MIN KAQV 232220Z AUTO 00000KT 10SM FEW027 BKN042 BKN048 23/17 A3002 280 66 1400 000/00 RMK AO2 T02330167
03949KAQV AQV20190423162512504/23/19 16:25:31  5-MIN KAQV 232225Z AUTO 20003KT 10SM FEW031 BKN042 OVC048 23/17 A3002 280 66 1400 190/03 RMK AO2 T02330167
03949KAQV AQV20190423163012504/23/19 16:30:31  5-MIN KAQV 232230Z AUTO 19003KT 10SM FEW031 BKN042 OVC050 23/17 A3002 290 68 1300 190/03 RMK AO2 T02280167
03949KAQV AQV20190423163512504/23/19 16:35:31  5-MIN KAQV 232235Z AUTO 00000KT 10SM FEW029 SCT039 OVC048 22/17 A3002 290 70 1200 000/00 RMK AO2 T02220167
03949KAQV AQV20190423164012504/23/19 16:40:31  5-MIN KAQV 232240Z AUTO 00000KT 10SM FEW031 SCT040 OVC049 23/17 A3002 290 68 1300 000/00 RMK AO2 T02280167
03949KAQV AQV20190423164511804/23/19 16:45:31  5-MIN KAQV 232245Z AUTO 00000KT 10SM SCT035 OVC046 23/17 A3002 290 70 1300 000/00 RMK AO2 T02280172
03949KAQV AQV20190423165013204/23/19 16:50:31  5-MIN KAQV 232250Z AUTO 00000KT 10SM FEW030 SCT040 OVC048 23/17 A3001 290 70 1300 000/00 RMK AO2 SLP161 T02280172
03949KAQV AQV20190423165512504/23/19 16:55:31  5-MIN KAQV 232255Z AUTO VRB03KT 10SM FEW040 BKN048 23/17 A3001 290 68 1300 VRB/03 RMK AO2 SLP161 T02280167
03949KAQV AQV20190423170011804/23/19 17:00:31  5-MIN KAQV 232300Z AUTO VRB03KT 10SM FEW038 BKN048 23/17 A3001 290 68 1300 VRB/03 RMK AO2 T02280167
03949KAQV AQV20190423170511804/23/19 17:05:31  5-MIN KAQV 232305Z AUTO 18003KT 10SM FEW038 BKN048 23/17 A3001 290 68 1300 170/03 RMK AO2 T02280167
03949KAQV AQV20190423171011804/23/19 17:10:31  5-MIN KAQV 232310Z AUTO 00000KT 10SM FEW040 SCT048 23/17 A3001 290 70 1300 000/00 RMK AO2 T02280172
03949KAQV AQV20190423171511104/23/19 17:15:31  5-MIN KAQV 232315Z AUTO 00000KT 10SM FEW048 23/17 A3001 290 70 1300 000/00 RMK AO2 T02280172
03949KAQV AQV20190423172010804/23/19 17:20:31  5-MIN KAQV 232320Z AUTO 00000KT 10SM CLR 23/17 A3001 300 70 1300 000/00 RMK AO2 T02280172
03949KAQV AQV20190423172511104/23/19 17:25:31  5-MIN KAQV 232325Z AUTO 00000KT 10SM FEW050 23/17 A3000 300 70 1300 000/00 RMK AO2 T02280172
03949KAQV AQV20190423173011104/23/19 17:30:31  5-MIN KAQV 232330Z AUTO 00000KT 10SM FEW055 22/18 A3000 300 75 1300 000/00 RMK AO2 T02220178
03949KAQV AQV20190423173510804/23/19 17:35:31  5-MIN KAQV 232335Z AUTO 00000KT 10SM CLR 22/18 A3000 300 75 1300 000/00 RMK AO2 T02220178
03949KAQV AQV20190423174011104/23/19 17:40:31  5-MIN KAQV 232340Z AUTO 00000KT 10SM FEW055 22/18 A3000 310 75 1300 000/00 RMK AO2 T02220178
03949KAQV AQV20190423174511104/23/19 17:45:31  5-MIN KAQV 232345Z AUTO 00000KT 10SM FEW050 22/18 A2999 310 78 1200 000/00 RMK AO2 T02170178
03949KAQV AQV20190423175013604/23/19 17:50:31  5-MIN KAQV 232350Z AUTO 00000KT 10SM FEW050 22/17 A2999 310 75 1200 000/00 RMK AO2 SLP153 T02170172 10239 20217 58021
03949KAQV AQV20190423175513604/23/19 17:55:31  5-MIN KAQV 232355Z AUTO 00000KT 10SM FEW050 22/17 A2998 320 75 1200 000/00 RMK AO2 SLP152 T02170172 10239 20217 58021
03949KAQV AQV20190423180011104/23/19 18:00:31  5-MIN KAQV 240000Z AUTO 00000KT 10SM FEW050 22/17 A2999 320 75 1200 000/00 RMK AO2 T02170172
03949KAQV AQV20190423180511104/23/19 18:05:31  5-MIN KAQV 240005Z AUTO 00000KT 10SM FEW050 22/17 A2999 310 75 1200 000/00 RMK AO2 T02170172
03949KAQV AQV20190423181011104/23/19 18:10:31  5-MIN KAQV 240010Z AUTO 17003KT 10SM SCT050 22/17 A2999 310 75 1200 160/03 RMK AO2 T02170172
03949KAQV AQV20190423181511104/23/19 18:15:31  5-MIN KAQV 240015Z AUTO 16003KT 10SM BKN048 22/18 A2999 320 78 1200 160/03 RMK AO2 T02170178
03949KAQV AQV20190423182011104/23/19 18:20:31  5-MIN KAQV 240020Z AUTO 00000KT 10SM BKN046 22/17 A2998 320 75 1200 000/00 RMK AO2 T02170172
03949KAQV AQV20190423182511804/23/19 18:25:31  5-MIN KAQV 240025Z AUTO VRB03KT 10SM FEW030 BKN046 22/17 A2998 320 75 1200 VRB/03 RMK AO2 T02170172
03949KAQV AQV20190423183012504/23/19 18:30:31  5-MIN KAQV 240030Z AUTO 00000KT 10SM FEW030 FEW035 OVC046 22/18 A2997 330 78 1200 000/00 RMK AO2 T02170178
03949KAQV AQV20190423183511804/23/19 18:35:31  5-MIN KAQV 240035Z AUTO 00000KT 10SM FEW032 OVC046 22/18 A2998 320 78 1200 000/00 RMK AO2 T02170178
03949KAQV AQV20190423184012504/23/19 18:40:31  5-MIN KAQV 240040Z AUTO 26003KT 10SM FEW024 SCT032 OVC044 21/17 A3000 310 78 1100 250/03 RMK AO2 T02110172
03949KAQV AQV20190423184512504/23/19 18:45:31  5-MIN KAQV 240045Z AUTO 00000KT 10SM SCT024 BKN029 OVC044 21/18 A3000 300 81 1100 000/00 RMK AO2 T02110178
03949KAQV AQV20190423185011504/23/19 18:50:31  5-MIN KAQV 240050Z AUTO VRB03KT 10SM BKN026 BKN032 OVC044 21/18 A3000 300 81 1100 VRB/03 RMK AO2
03949KAQV AQV20190423185513204/23/19 18:55:31  5-MIN KAQV 240055Z AUTO 00000KT 10SM FEW024 BKN030 OVC044 21/18 A3000 300 81 1100 000/00 RMK AO2 SLP158 T02110178
03949KAQV AQV20190423190012504/23/19 19:00:31  5-MIN KAQV 240100Z AUTO 00000KT 10SM FEW024 BKN039 OVC046 21/18 A3000 300 81 1100 000/00 RMK AO2 T02110178
03949KAQV AQV20190423190512504/23/19 19:05:31  5-MIN KAQV 240105Z AUTO 00000KT 10SM FEW024 SCT029 BKN039 21/18 A3000 300 81 1100 000/00 RMK AO2 T02110178
03949KAQV AQV20190423191012504/23/19 19:10:31  5-MIN KAQV 240110Z AUTO 00000KT 10SM FEW024 SCT029 BKN037 21/18 A3000 300 84 1100 000/00 RMK AO2 T02060178
03949KAQV AQV20190423191512504/23/19 19:15:31  5-MIN KAQV 240115Z AUTO 00000KT 10SM FEW029 BKN046 OVC055 21/18 A3000 300 81 1100 000/00 RMK AO2 T02110178
03949KAQV AQV20190423192012504/23/19 19:20:31  5-MIN KAQV 240120Z AUTO 00000KT 10SM FEW036 BKN047 BKN055 21/18 A3000 300 84 1100 000/00 RMK AO2 T02060178
03949KAQV AQV20190423192511804/23/19 19:25:31  5-MIN KAQV 240125Z AUTO 00000KT 10SM FEW038 BKN049 21/18 A3000 300 84 1100 000/00 RMK AO2 T02060178
03949KAQV AQV20190423193011104/23/19 19:30:31  5-MIN KAQV 240130Z AUTO 00000KT 10SM BKN050 20/18 A3000 300 87 1000 000/00 RMK AO2 T02000178
03949KAQV AQV20190423193511104/23/19 19:35:31  5-MIN KAQV 240135Z AUTO 00000KT 10SM BKN050 20/18 A3000 300 87 1000 000/00 RMK AO2 T02000178
03949KAQV AQV20190423194011104/23/19 19:40:31  5-MIN KAQV 240140Z AUTO 00000KT 10SM BKN050 20/18 A3000 300 87 1000 000/00 RMK AO2 T02000178
03949KAQV AQV20190423194511004/23/19 19:45:31  5-MIN KAQV 240145Z AUTO 00000KT 10SM SCT050 19/18 A3000 300 90 900 000/00 RMK AO2 T01940178
03949KAQV AQV20190423195011704/23/19 19:50:31  5-MIN KAQV 240150Z AUTO 00000KT 10SM SCT050 19/18 A3000 300 90 900 000/00 RMK AO2 SLP158 T01940178
03949KAQV AQV20190423195511704/23/19 19:55:31  5-MIN KAQV 240155Z AUTO 00000KT 10SM FEW050 19/18 A3000 300 90 900 000/00 RMK AO2 SLP157 T01940178
03949KAQV AQV20190423200010704/23/19 20:00:31  5-MIN KAQV 240200Z AUTO 00000KT 10SM CLR 19/18 A3000 300 90 900 000/00 RMK AO2 T01940178
03949KAQV AQV20190423200510704/23/19 20:05:31  5-MIN KAQV 240205Z AUTO 00000KT 10SM CLR 19/18 A3000 300 90 900 000/00 RMK AO2 T01940178
03949KAQV AQV20190423201010704/23/19 20:10:31  5-MIN KAQV 240210Z AUTO 00000KT 10SM CLR 19/18 A3000 310 93 900 000/00 RMK AO2 T01890178
03949KAQV AQV20190423201510704/23/19 20:15:31  5-MIN KAQV 240215Z AUTO 17003KT 10SM CLR 19/17 A3000 310 90 900 170/03 RMK AO2 T01890172
03949KAQV AQV20190423202010704/23/19 20:20:31  5-MIN KAQV 240220Z AUTO 17003KT 10SM CLR 19/17 A2999 310 90 900 170/03 RMK AO2 T01890172
03949KAQV AQV20190423202510704/23/19 20:25:31  5-MIN KAQV 240225Z AUTO 00000KT 10SM CLR 19/17 A3000 310 90 900 000/00 RMK AO2 T01890172
03949KAQV AQV20190423203010704/23/19 20:30:31  5-MIN KAQV 240230Z AUTO 00000KT 10SM CLR 18/17 A3000 310 93 800 000/00 RMK AO2 T01830172
03949KAQV AQV20190423203510704/23/19 20:35:31  5-MIN KAQV 240235Z AUTO 00000KT 10SM CLR 18/17 A3000 310 93 800 000/00 RMK AO2 T01830172
03949KAQV AQV20190423204010704/23/19 20:40:31  5-MIN KAQV 240240Z AUTO 00000KT 10SM CLR 18/17 A3000 300 93 800 000/00 RMK AO2 T01830172
03949KAQV AQV20190423204510704/23/19 20:45:31  5-MIN KAQV 240245Z AUTO 00000KT 10SM CLR 18/17 A3000 300 93 800 000/00 RMK AO2 T01830172
03949KAQV AQV20190423205012004/23/19 20:50:31  5-MIN KAQV 240250Z AUTO 00000KT 10SM CLR 18/17 A3000 300 93 800 000/00 RMK AO2 SLP158 T01830172 58007
03949KAQV AQV20190423205512004/23/19 20:55:31  5-MIN KAQV 240255Z AUTO 00000KT 10SM CLR 18/17 A3000 300 93 800 000/00 RMK AO2 SLP157 T01830172 58007
03949KAQV AQV20190423210010704/23/19 21:00:31  5-MIN KAQV 240300Z AUTO 00000KT 10SM CLR 18/17 A3000 300 93 800 000/00 RMK AO2 T01830172
03949KAQV AQV20190423210510704/23/19 21:05:31  5-MIN KAQV 240305Z AUTO 00000KT 10SM CLR 18/17 A3000 300 93 800 000/00 RMK AO2 T01830172
03949KAQV AQV20190423211010704/23/19 21:10:31  5-MIN KAQV 240310Z AUTO 00000KT 10SM CLR 18/17 A3000 300 93 800 000/00 RMK AO2 T01830172
03949KAQV AQV20190423211510704/23/19 21:15:31  5-MIN KAQV 240315Z AUTO 00000KT 10SM CLR 18/17 A3000 310 93 800 000/00 RMK AO2 T01830172
03949KAQV AQV20190423212010704/23/19 21:20:31  5-MIN KAQV 240320Z AUTO 00000KT 10SM CLR 18/17 A2999 310 93 800 000/00 RMK AO2 T01830172
03949KAQV AQV20190423212510704/23/19 21:25:31  5-MIN KAQV 240325Z AUTO 00000KT 10SM CLR 18/17 A2999 310 90 800 000/00 RMK AO2 T01830167
03949KAQV AQV20190423213010704/23/19 21:30:31  5-MIN KAQV 240330Z AUTO 00000KT 10SM CLR 18/17 A2999 310 93 700 000/00 RMK AO2 T01780167
03949KAQV AQV20190423213510704/23/19 21:35:31  5-MIN KAQV 240335Z AUTO 00000KT 10SM CLR 18/17 A2999 310 93 800 000/00 RMK AO2 T01780167
03949KAQV AQV20190423214010704/23/19 21:40:31  5-MIN KAQV 240340Z AUTO 00000KT 10SM CLR 18/17 A2999 310 93 800 000/00 RMK AO2 T01780167
03949KAQV AQV20190423214510704/23/19 21:45:31  5-MIN KAQV 240345Z AUTO 00000KT 10SM CLR 18/17 A2999 310 93 800 000/00 RMK AO2 T01780167
03949KAQV AQV20190423215011404/23/19 21:50:31  5-MIN KAQV 240350Z AUTO 00000KT 10SM CLR 18/17 A2999 310 93 800 000/00 RMK AO2 SLP153 T01780167
03949KAQV AQV20190423215511304/23/19 21:55:31  5-MIN KAQV 240355Z AUTO 00000KT 9SM CLR 18/17 A2999 320 93 800 000/00 RMK AO2 SLP152 T01780167
03949KAQV AQV20190423220010604/23/19 22:00:31  5-MIN KAQV 240400Z AUTO 00000KT 9SM CLR 18/17 A2998 320 93 800 000/00 RMK AO2 T01780167
03949KAQV AQV20190423220510704/23/19 22:05:31  5-MIN KAQV 240405Z AUTO 00000KT 10SM CLR 17/17 A2999 320 96 700 000/00 RMK AO2 T01720167
03949KAQV AQV20190423221010604/23/19 22:10:31  5-MIN KAQV 240410Z AUTO 00000KT 9SM CLR 17/16 A2999 310 93 700 000/00 RMK AO2 T01720161
03949KAQV AQV20190423221510604/23/19 22:15:31  5-MIN KAQV 240415Z AUTO 00000KT 8SM CLR 17/16 A2999 310 93 700 000/00 RMK AO2 T01720161
03949KAQV AQV20190423222010604/23/19 22:20:31  5-MIN KAQV 240420Z AUTO 00000KT 8SM CLR 17/16 A2999 310 93 700 000/00 RMK AO2 T01720161
03949KAQV AQV20190423222510604/23/19 22:25:31  5-MIN KAQV 240425Z AUTO 00000KT 8SM CLR 17/16 A2999 310 93 700 000/00 RMK AO2 T01720161
03949KAQV AQV20190423223010604/23/19 22:30:31  5-MIN KAQV 240430Z AUTO 00000KT 8SM CLR 17/16 A2999 320 93 700 000/00 RMK AO2 T01720161
03949KAQV AQV20190423223510604/23/19 22:35:31  5-MIN KAQV 240435Z AUTO 00000KT 9SM CLR 17/16 A2999 320 93 700 000/00 RMK AO2 T01720161
03949KAQV AQV20190423224010604/23/19 22:40:31  5-MIN KAQV 240440Z AUTO 00000KT 9SM CLR 17/16 A2999 310 93 700 000/00 RMK AO2 T01720161
03949KAQV AQV20190423224510604/23/19 22:45:31  5-MIN KAQV 240445Z AUTO 00000KT 9SM CLR 17/16 A2999 310 93 700 000/00 RMK AO2 T01720161
03949KAQV AQV20190423225011304/23/19 22:50:31  5-MIN KAQV 240450Z AUTO 00000KT 9SM CLR 17/16 A2999 310 93 700 000/00 RMK AO2 SLP155 T01720161
03949KAQV AQV20190423225511304/23/19 22:55:31  5-MIN KAQV 240455Z AUTO 00000KT 9SM CLR 17/16 A2999 310 93 700 000/00 RMK AO2 SLP154 T01720161
03949KAQV AQV20190423230010604/23/19 23:00:31  5-MIN KAQV 240500Z AUTO 00000KT 9SM CLR 17/16 A2999 310 93 700 000/00 RMK AO2 T01720161
03949KAQV AQV20190423230510604/23/19 23:05:31  5-MIN KAQV 240505Z AUTO 00000KT 9SM CLR 17/16 A2999 310 93 700 000/00 RMK AO2 T01720161
03949KAQV AQV20190423231010604/23/19 23:10:31  5-MIN KAQV 240510Z AUTO 00000KT 9SM CLR 17/16 A2999 320 93 700 000/00 RMK AO2 T01720161
03949KAQV AQV20190423231510604/23/19 23:15:31  5-MIN KAQV 240515Z AUTO 00000KT 9SM CLR 17/16 A2998 320 93 700 000/00 RMK AO2 T01720161
03949KAQV AQV20190423232010604/23/19 23:20:31  5-MIN KAQV 240520Z AUTO 00000KT 9SM CLR 17/16 A2998 320 93 700 000/00 RMK AO2 T01720161
03949KAQV AQV20190423232510604/23/19 23:25:31  5-MIN KAQV 240525Z AUTO 00000KT 9SM CLR 17/16 A2999 320 93 700 000/00 RMK AO2 T01720161
03949KAQV AQV20190423233010604/23/19 23:30:31  5-MIN KAQV 240530Z AUTO 00000KT 9SM CLR 17/16 A2998 320 93 700 000/00 RMK AO2 T01720161
03949KAQV AQV20190423233510604/23/19 23:35:31  5-MIN KAQV 240535Z AUTO 00000KT 9SM CLR 17/16 A2998 320 93 700 000/00 RMK AO2 T01720161
03949KAQV AQV20190423234010604/23/19 23:40:31  5-MIN KAQV 240540Z AUTO 00000KT 9SM CLR 17/16 A2998 320 93 700 000/00 RMK AO2 T01720161
03949KAQV AQV20190423234510604/23/19 23:45:31  5-MIN KAQV 240545Z AUTO 00000KT 9SM CLR 17/16 A2998 320 93 700 000/00 RMK AO2 T01720161
03949KAQV AQV20190423235014104/23/19 23:50:31  5-MIN KAQV 240550Z AUTO 00000KT 9SM CLR 17/16 A2998 320 93 700 000/00 RMK AO2 SLP150 T01720161 10217 20172 402390156 55000
03949KAQV AQV20190423235514104/23/19 23:55:31  5-MIN KAQV 240555Z AUTO 00000KT 9SM CLR 17/16 A2998 320 93 700 000/00 RMK AO2 SLP150 T01720161 10217 20172 402390156 55000
03949KAQV AQV20190424000010604/24/19 00:00:31  5-MIN KAQV 240600Z AUTO 00000KT 8SM CLR 17/16 A2998 330 93 700 000/00 RMK AO2 T01720161
03949KAQV AQV20190424000510604/24/19 00:05:31  5-MIN KAQV 240605Z AUTO 00000KT 9SM CLR 17/16 A2998 330 93 700 000/00 RMK AO2 T01720161
03949KAQV AQV20190424001010704/24/19 00:10:31  5-MIN KAQV 240610Z AUTO 00000KT 10SM CLR 17/16 A2997 330 93 700 000/00 RMK AO2 T01720161
03949KAQV AQV20190424001510604/24/19 00:15:31  5-MIN KAQV 240615Z AUTO 00000KT 9SM CLR 17/16 A2998 330 93 700 000/00 RMK AO2 T01720161
03949KAQV AQV20190424002010604/24/19 00:20:31  5-MIN KAQV 240620Z AUTO 00000KT 8SM CLR 17/16 A2998 320 93 700 000/00 RMK AO2 T01720161
03949KAQV AQV20190424002510604/24/19 00:25:31  5-MIN KAQV 240625Z AUTO 00000KT 8SM CLR 17/16 A2998 320 93 700 000/00 RMK AO2 T01720161
03949KAQV AQV20190424003010604/24/19 00:30:31  5-MIN KAQV 240630Z AUTO 00000KT 7SM CLR 17/16 A2998 320 96 600 000/00 RMK AO2 T01670161
03949KAQV AQV20190424003510904/24/19 00:35:31  5-MIN KAQV 240635Z AUTO 00000KT 6SM BR CLR 17/16 A2998 320 96 600 000/00 RMK AO2 T01670161
03949KAQV AQV20190424004010904/24/19 00:40:31  5-MIN KAQV 240640Z AUTO 00000KT 6SM BR CLR 17/16 A2999 320 93 600 000/00 RMK AO2 T01670156
03949KAQV AQV20190424004510904/24/19 00:45:31  5-MIN KAQV 240645Z AUTO 00000KT 6SM BR CLR 17/16 A2999 320 93 600 000/00 RMK AO2 T01670156
03949KAQV AQV20190424005011304/24/19 00:50:31  5-MIN KAQV 240650Z AUTO 00000KT 7SM CLR 17/16 A2999 320 93 600 000/00 RMK AO2 SLP152 T01670156
03949KAQV AQV20190424005511304/24/19 00:55:31  5-MIN KAQV 240655Z AUTO 00000KT 7SM CLR 17/16 A2999 310 93 600 000/00 RMK AO2 SLP153 T01670156
03949KAQV AQV20190424010017904/24/19 01:00:31  5-MIN KAQV 240700Z AUTO 00000KT 8SM CLR 17/16 A2998 320 93 600 000/00 RMK AO2 T0167015604/24/19 01:05:31  BR CLR 15/14 A2995 350 93 500 000/00 RMK AO2 T01500139
03949KAQV AQV20190424031510904/24/19 03:15:31  5-MIN KAQV 240915Z AUTO 00000KT 3SM BR CLR 16/14 A2996 340 93 500 000/00 RMK AO2 T01560144
03949KAQV AQV20190424032010904/24/19 03:20:31  5-MIN KAQV 240920Z AUTO 00000KT 4SM BR CLR 16/15 A2996 340 96 500 000/00 RMK AO2 T01560150
03949KAQV AQV20190424032510904/24/19 03:25:31  5-MIN KAQV 240925Z AUTO 00000KT 4SM BR CLR 16/15 A2996 340 96 500 000/00 RMK AO2 T01560150
03949KAQV AQV20190424033010904/24/19 03:30:31  5-MIN KAQV 240930Z AUTO 00000KT 5SM BR CLR 16/14 A2996 340 93 500 000/00 RMK AO2 T01560144
03949KAQV AQV20190424033510904/24/19 03:35:31  5-MIN KAQV 240935Z AUTO 00000KT 6SM BR CLR 16/14 A2996 340 93 500 000/00 RMK AO2 T01560144
03949KAQV AQV20190424034010904/24/19 03:40:31  5-MIN KAQV 240940Z AUTO 00000KT 5SM BR CLR 15/14 A2996 340 96 500 000/00 RMK AO2 T01500144
03949KAQV AQV20190424034510904/24/19 03:45:31  5-MIN KAQV 240945Z AUTO 00000KT 5SM BR CLR 15/14 A2995 350 93 500 000/00 RMK AO2 T01500139
03949KAQV AQV20190424035011604/24/19 03:50:31  5-MIN KAQV 240950Z AUTO 00000KT 5SM BR CLR 15/14 A2995 350 93 500 000/00 RMK AO2 SLP140 T01500139
03949KAQV AQV20190424035511604/24/19 03:55:31  5-MIN KAQV 240955Z AUTO 00000KT 6SM BR CLR 15/14 A2995 350 93 500 000/00 RMK AO2 SLP140 T01500139
03949KAQV AQV20190424040010904/24/19 04:00:31  5-MIN KAQV 241000Z AUTO 00000KT 5SM BR CLR 15/14 A2995 350 93 500 000/00 RMK AO2 T01500139
03949KAQV AQV20190424040510904/24/19 04:05:31  5-MIN KAQV 241005Z AUTO 00000KT 5SM BR CLR 15/14 A2995 350 93 500 000/00 RMK AO2 T01500139
03949KAQV AQV20190424041010904/24/19 04:10:31  5-MIN KAQV 241010Z AUTO 00000KT 6SM BR CLR 15/14 A2995 350 93 500 000/00 RMK AO2 T01500139
03949KAQV AQV20190424041510904/24/19 04:15:31  5-MIN KAQV 241015Z AUTO 00000KT 6SM BR CLR 16/14 A2996 340 93 500 000/00 RMK AO2 T01560144
03949KAQV AQV20190424042010904/24/19 04:20:31  5-MIN KAQV 241020Z AUTO 00000KT 5SM BR CLR 16/14 A2996 340 93 500 000/00 RMK AO2 T01560144
03949KAQV AQV20190424042510904/24/19 04:25:31  5-MIN KAQV 241025Z AUTO 00000KT 6SM BR CLR 16/14 A2996 340 93 500 000/00 RMK AO2 T01560144
03949KAQV AQV20190424043010604/24/19 04:30:31  5-MIN KAQV 241030Z AUTO 00000KT 7SM CLR 15/14 A2995 340 96 500 000/00 RMK AO2 T01500144
03949KAQV AQV20190424043510604/24/19 04:35:31  5-MIN KAQV 241035Z AUTO 00000KT 9SM CLR 15/14 A2995 350 93 500 000/00 RMK AO2 T01500139
03949KAQV AQV20190424044010604/24/19 04:40:31  5-MIN KAQV 241040Z AUTO 00000KT 9SM CLR 15/14 A2995 350 93 500 000/00 RMK AO2 T01500139
03949KAQV AQV20190424044510604/24/19 04:45:31  5-MIN KAQV 241045Z AUTO 00000KT 8SM CLR 14/14 A2995 350 96 400 000/00 RMK AO2 T01440139
03949KAQV AQV20190424045009904/24/19 04:50:31  5-MIN KAQV 241050Z AUTO 00000KT 7SM FEW006 14/14 A2995 350 96 400 000/00 RMK AO2
03949KAQV AQV20190424045511904/24/19 04:55:31  5-MIN KAQV 241055Z AUTO 00000KT 6SM BR FEW006 14/13 A2995 350 96 300 000/00 RMK AO2 SLP139 T01390133
03949KAQV AQV20190424050011204/24/19 05:00:31  5-MIN KAQV 241100Z AUTO 17003KT 4SM BR FEW006 14/13 A2995 350 93 400 170/03 RMK AO2 T01440133
03949KAQV AQV20190424050511604/24/19 05:05:31  5-MIN KAQV 241105Z AUTO 17003KT 2 1/2SM BR FEW006 14/13 A2994 350 96 300 170/03 RMK AO2 T01390133
03949KAQV AQV20190424051011604/24/19 05:10:31  5-MIN KAQV 241110Z AUTO 18003KT 2 1/2SM BR FEW006 14/13 A2995 350 93 400 170/03 RMK AO2 T01440133
03949KAQV AQV20190424051511204/24/19 05:15:31  5-MIN KAQV 241115Z AUTO 17003KT 4SM BR SCT005 15/14 A2995 350 93 500 170/03 RMK AO2 T01500139
03949KAQV AQV20190424052011204/24/19 05:20:31  5-MIN KAQV 241120Z AUTO 17003KT 6SM BR FEW003 15/14 A2995 350 96 500 160/03 RMK AO2 T01500144
03949KAQV AQV20190424052511204/24/19 05:25:31  5-MIN KAQV 241125Z AUTO 17003KT 6SM BR FEW003 15/14 A2995 350 96 500 170/03 RMK AO2 T01500144
03949KAQV AQV20190424053011204/24/19 05:30:31  5-MIN KAQV 241130Z AUTO 18003KT 6SM BR FEW003 16/14 A2995 350 93 500 170/03 RMK AO2 T01560144
03949KAQV AQV20190424053511204/24/19 05:35:31  5-MIN KAQV 241135Z AUTO 00000KT 4SM BR FEW003 16/15 A2995 350 96 500 000/00 RMK AO2 T01560150
03949KAQV AQV20190424054011204/24/19 05:40:31  5-MIN KAQV 241140Z AUTO 00000KT 2SM BR FEW003 16/14 A2996 340 93 500 000/00 RMK AO2 T01560144
03949KAQV AQV20190424054511604/24/19 05:45:31  5-MIN KAQV 241145Z AUTO 17003KT 1 1/2SM BR SCT004 16/14 A2996 340 93 500 170/03 RMK AO2 T01560144
03949KAQV AQV20190424055010204/24/19 05:50:31  5-MIN KAQV 241150Z AUTO 17003KT 2SM BR SCT004 16/14 A2996 340 93 500 170/03 RMK AO2
03949KAQV AQV20190424055512904/24/19 05:55:31  5-MIN KAQV 241155Z AUTO 18003KT 3SM BR BKN004 16/14 A2996 340 93 500 170/03 RMK AO2 SLP143 T01560144 10172 200
03949KAQV AQV20190424120011804/24/19 12:00:31  5-MIN KAQV 241800Z AUTO VRB06KT 10SM FEW034 FEW042 26/16 A2991 390 55 1700 VRB/06 RMK AO2 T02560161
03949KAQV AQV20190424120505804/24/19 12:05:31  5-MIN KAQV 241805Z AUTO VRB04KT02610167
03949KAQV AQV20190424123011104/24/19 12:30:31  5-MIN KAQV 241830Z AUTO VRB06KT 10SM BKN037 27/17 A2989 410 53 1900 VRB/06 RMK AO2 T02670167
03949KAQV AQV20190424123512704/24/19 12:35:31  5-MIN KAQV 241835Z AUTO 20007KT 170V240 10SM SCT037 26/16 A2989 410 53 1800 200/07 170V240 RMK AO2 T02610161
03949KAQV AQV20190424124014504/24/19 12:40:31  5-MIN KAQV 241840Z AUTO VRB05KT 9SM SCT037 26/16 A2989 4O 18006KT 10SM BKN036 26/17 A2989 410 55 1800 VRB/06 RMK AO2 T02610167
03949KAQV AQV20190424125011804/24/19 12:50:31  5-MIN KAQV 241850Z AUTO 17007KT 10SM FEW037 26/16 A2988 420 53 1800 160/07 RMK AO2 SLP115 T02610161
03949KAQV AQV20190424125518504/24/19 12:55:31  5-MIN KAQV 241855Z AUTO 15006KT 10SM FEW039 26/16 A2988 420 55 1800 150/06 RMK AO2 SLP114 T0256016104/2RB04KT 8SM CLR 26/16 A2987 420 55 1800 VRB/04 RMK AO2 T02560161
03949KAQV AQV20190424130511004/24/19 13:05:31  5-MIN KAQV 241905Z AUTO 17006KT 7SM FEW041 26/17 A2987 420 57 1800 170/06 RMK AO2 T02560167
03949KAQV AQV20190424131011004/24/19 13:10:31  5-MIN KAQV 241910Z AUTO VRB06KT 8SM SCT039 26/17 A2988 420 57 1800 VRB/06 RMK AO2 T02560167
03949KAQV AQV20190424131511104/24/19 13:15:31  5-MIN KAQV 241915Z AUTO VRB03KT 10SM FEW039 26/17 A2987 AQV 241855Z VRB/03 RMK AO2 T02560167
03949KAQV AQV20190424132010104/24/19 13:20:31  5-MIN KAQV 241920Z AUTO 10SM FEW039 26/17 A2987 420 57 1800 M /M RMK AO2 T02560167
03949KAQV AQV20190424132512704/24/19 13:25:31  5-MIN KAQV 241925Z AUTO 18007KT 160V220 10SM FEW039 26/17 A2987 420 57 1800 180/07 160V220 RMK AO2 T02560167
03949KAQV AQV20190424133015304/24/19 13:30:31  5-MIN KAQV 241930Z AUTO 17006KT 10SM FEW040 25/16 A2986 430 57 1700 170/06 RMK AO2 T0250016104/24 440 57 1700 170/06 RMK AO2 T02500161
03949KAQV AQV20190424134010804/24/19 13:40:31  5-MIN KAQV 241940Z AUTO 17006KT 10SM CLR 25/16 A2985 440 57 1700 160/06 RMK AO2 T02500161
03949KAQV AQV20190424134511004/24/19 13:45:31  5-MIN KAQV 241945Z AUTO VRB04KT 7SM FEW110 25/17 A2986 430 59 1700 VRB/04 RMK AO2 T02500167
03949KAQV AQV20190424135012204/24/19 13:50:31  5-MIN KAQV 241950Z AUTO VRB04KT 6SM HZ FEW110 2 OVC045 24/18 A2985 440 66 1700 170/04 RMK AO2 T02440178
03949KAQV AQV20190424141013704/24/19 14:10:31  5-MIN KAQV 242010Z AUTO VRB05KT 10SM FEW037 SCT050 SCT110 25/17 A2987 420 61 1700 VRB/05 RMK AO2 RAE04 P0000 T02500172
03949KAQV AQV20190424141513704/24/19 14:15:31  5-MIN KAQV 242015Z AUTO 18004KT 10SM FEW037 SCT049 SCT110 25/17 A2987 420 61 1700 170/04 RMK AO2 RAE04 P0000 T02500172
03949KAQV AQV20190424142013004/24/19 14:20:31  5-MIN KAQV 242020Z AUTO VRB04KT 10SM FEW038 FEW049 25/17 A2987 420 61 1700 VRB/04 RMK AO2 RAE04 P0000 T02500172
03949KAQV AQV20190424142513004/24/19 14:25:31  5-MIN KAQV 242025Z AUTO 16005KT 10SM FEW036 FEW044 25/17 A2987 420 61 1700 160/05 RMK AO2 RAE04 P0000 T02500172
03949KAQV AQV20190424143012304/24/19 14:30:31  5-MIN KAQV 242030Z AUTO VRB03KT 10SM SCT042 25/17 A2987 420 61 1700 VRB/03 RMK AO2 RAE04 P0000 T02500172
03949KAQV AQV20190424143512304/24/19 14:35:31  5-MIN KAQV 242035Z AUTO VRB03KT 10SM SCT042 25/17 A2987 430 61 1700 VRB/03 RMK AO2 RAE04 P0000 T02500172
03949KAQV AQV20190424144013004/24/19 14:40:31  5-MIN KAQV 242040Z AUTO 18003KT 10SM SCT040 BKN047 25/17 A2987 430 61 1700 170/03 RMK AO2 RAE04 P0000 T02500172
03949KAQV AQV20190424144513004/24/19 14:45:31  5-MIN KAQV 242045Z AUTO 00000KT 10SM SCT037 BKN045 26/18 A2986 430 61 1800 000/00 RMK AO2 RAE04 P0000 T02560178
03949KAQV AQV20190424145014904/24/19 14:50:31  5-MIN KAQV 242050Z AUTO 19003KT 10SM SCT035 BKN045 25/18 A2986 430 64 1700 180/03 RMK AO2 RAE04 SLP110 P0000 60000 T02500178 58017
03949KAQV AQV20190424145514804/24/19 14:55:31  5-MIN KAQV 242055Z AUTO 16003KT 9SM BKN033 BKN043 24/18 A2986 430 66 1700 160/03 RMK AO2 RAE04 SLP109 P0000 60000 T02440178 58017
03949KAQV AQV20190424150011704/24/19 15:00:31  5-MIN KAQV 242100Z AUTO 17005KT 8SM BKN033 OVC045 24/17 A2985 440 63 1700 170/05 RMK AO2 T02440172
03949KAQV AQV20190424150511804/24/19 15:05:31  5-MIN KAQV 242105Z AUTO 17004KT 10SM BKN033 OVC045 24/18 A2985 440 66 1700 170/04 RMK AO2 T02440178
03949KAQV AQV20190424151012504/24/19 15:10:31  5-MIN KAQV 242110Z AUTO VRB03KT 10SM SCT033 BKN047 OVC055 24/18 A2985 440 66 1700 VRB/03 RMK AO2 T02440178
03949KAQV AQV20190424151511804/24/19 15:15:31  5-MIN KAQV 242115Z AUTO VRB05KT 10SM SCT033 OVC050 24/18 A2985 450 66 1700 VRB/05 RMK AO2 T02440178
03949KAQV AQV20190424152011804/24/19 15:20:31  5-MIN KAQV 242120Z AUTO 17004KT 10SM FEW033 OVC050 24/18 A2984 450 66 1700 160/04 RMK AO2 T02440178
03949KAQV AQV20190424152511804/24/19 15:25:31  5-MIN KAQV 242125Z AUTO VRB04KT 10SM FEW035 OVC050 24/17 A2984 450 63 1700 VRB/04 RMK AO2 T02440172
03949KAQV AQV20190424153011804/24/19 15:30:31  5-MIN KAQV 242130Z AUTO VRB05KT 10SM FEW040 OVC050 24/18 A2984 450 66 1700 VRB/05 RMK AO2 T02440178
03949KAQV AQV20190424153511704/24/19 15:35:31  5-MIN KAQV 242135Z AUTO 17005KT 9SM SCT040 OVC050 24/18 A2984 450 66 1700 160/05 RMK AO2 T02440178
03949KAQV AQV20190424154011704/24/19 15:40:31  5-MIN KAQV 242140Z AUTO VRB03KT 8SM SCT040 OVC050 24/18 A2983 460 66 1700 VRB/03 RMK AO2 T02440178
03949KAQV AQV20190424154511704/24/19 15:45:31  5-MIN KAQV 242145Z AUTO 15004KT 9SM BKN040 OVC050 24/18 A2983 460 68 1600 140/04 RMK AO2 T02390178
03949KAQV AQV20190424155012404/24/19 15:50:31  5-MIN KAQV 242150Z AUTO 00000KT 9SM SCT042 OVC050 24/18 A2983 460 68 1600 000/00 RMK AO2 SLP099 T02390178
03949KAQV AQV20190424155512404/24/19 15:55:31  5-MIN KAQV 242155Z AUTO VRB03KT 7SM SCT042 OVC050 24/18 A2983 460 68 1600 VRB/03 RMK AO2 SLP100 T02390178
03949KAQV AQV20190424160011704/24/19 16:00:31  5-MIN KAQV 242200Z AUTO VRB03KT 8SM FEW040 OVC050 24/18 A2983 460 68 1600 VRB/03 RMK AO2 T02390178
03949KAQV AQV20190424160511804/24/19 16:05:31  5-MIN KAQV 242205Z AUTO VRB04KT 10SM FEW040 OVC050 25/18 A2982 460 64 1800 VRB/04 RMK AO2 T02500178
03949KAQV AQV20190424161011104/24/19 16:10:31  5-MIN KAQV 242210Z AUTO 16004KT 10SM OVC050 25/18 A2982 470 64 1800 150/04 RMK AO2 T02500178
03949KAQV AQV20190424161511104/24/19 16:15:31  5-MIN KAQV 242215Z AUTO VRB06KT 10SM BKN050 25/18 A2981 470 64 1800 VRB/06 RMK AO2 T02500178
03949KAQV AQV20190424162011104/24/19 16:20:31  5-MIN KAQV 242220Z AUTO VRB05KT 10SM BKN050 24/18 A2981 480 66 1700 VRB/05 RMK AO2 T02440178
03949KAQV AQV20190424162511104/24/19 16:25:31  5-MIN KAQV 242225Z AUTO VRB05KT 10SM SCT050 24/17 A2981 480 66 1700 VRB/05 RMK AO2 T02390172
03949KAQV AQV20190424163011104/24/19 16:30:31  5-MIN KAQV 242230Z AUTO VRB05KT 10SM SCT050 24/18 A2981 480 66 1700 VRB/05 RMK AO2 T02440178
03949KAQV AQV20190424163511104/24/19 16:35:31  5-MIN KAQV 242235Z AUTO VRB04KT 10SM SCT048 24/18 A2981 480 66 1700 VRB/04 RMK AO2 T02440178
03949KAQV AQV20190424164011104/24/19 16:40:31  5-MIN KAQV 242240Z AUTO VRB04KT 10SM BKN048 24/18 A2981 480 66 1700 VRB/04 RMK AO2 T02440178
03949KAQV AQV20190424164511104/24/19 16:45:31  5-MIN KAQV 242245Z AUTO 16005KT 10SM BKN046 24/18 A2981 480 68 1700 160/05 RMK AO2 T02390178
03949KAQV AQV20190424165011804/24/19 16:50:31  5-MIN KAQV 242250Z AUTO VRB03KT 10SM BKN046 24/18 A2981 480 68 1700 VRB/03 RMK AO2 SLP092 T02390178
03949KAQV AQV20190424165511804/24/19 16:55:31  5-MIN KAQV 242255Z AUTO 16004KT 10SM BKN046 24/18 A2981 480 68 1700 160/04 RMK AO2 SLP092 T02390178
03949KAQV AQV20190424170011104/24/19 17:00:31  5-MIN KAQV 242300Z AUTO 16006KT 10SM BKN046 24/18 A2981 480 68 1700 160/06 RMK AO2 T02390178
03949KAQV AQV20190424170511104/24/19 17:05:31  5-MIN KAQV 242305Z AUTO VRB04KT 10SM BKN046 24/18 A2981 480 68 1700 VRB/04 RMK AO2 T02390178
03949KAQV AQV20190424171011104/24/19 17:10:31  5-MIN KAQV 242310Z AUTO 18004KT 10SM SCT046 24/17 A2981 480 66 1700 180/04 RMK AO2 T02390172
03949KAQV AQV20190424171511104/24/19 17:15:31  5-MIN KAQV 242315Z AUTO 17004KT 10SM SCT044 24/18 A2981 480 68 1700 170/04 RMK AO2 T02390178
03949KAQV AQV20190424172011104/24/19 17:20:31  5-MIN KAQV 242320Z AUTO 00000KT 10SM SCT044 24/18 A2981 480 68 1700 000/00 RMK AO2 T02390178
03949KAQV AQV20190424172511804/24/19 17:25:31  5-MIN KAQV 242325Z AUTO VRB03KT 10SM FEW044 SCT095 24/18 A2981 480 68 1700 VRB/03 RMK AO2 T02390178
03949KAQV AQV20190424173011804/24/19 17:30:31  5-MIN KAQV 242330Z AUTO 00000KT 10SM SCT044 SCT100 24/18 A2981 480 68 1700 000/00 RMK AO2 T02390178
03949KAQV AQV20190424173512504/24/19 17:35:31  5-MIN KAQV 242335Z AUTO VRB03KT 10SM FEW040 SCT047 BKN100 23/18 A2981 480 70 1600 VRB/03 RMK AO2 T02330178
03949KAQV AQV20190424174012504/24/19 17:40:31  5-MIN KAQV 242340Z AUTO VRB03KT 10SM FEW040 BKN047 BKN100 23/18 A2980 490 70 1600 VRB/03 RMK AO2 T02330178
03949KAQV AQV20190424174511804/24/19 17:45:31  5-MIN KAQV 242345Z AUTO VRB03KT 10SM BKN047 BKN100 23/18 A2980 490 70 1600 VRB/03 RMK AO2 T02330178
03949KAQV AQV20190424175014904/24/19 17:50:31  5-MIN KAQV 242350Z AUTO VRB03KT 10SM BKN047 BKN100 23/18 A2980 490 70 1600 VRB/03 RMK AO2 SLP090 60000 T02330178 10267 20233 56017
03949KAQV AQV20190424175514204/24/19 17:55:31  5-MIN KAQV 242355Z AUTO VRB03KT 10SM BKN047 23/17 A2980 480 68 1600 VRB/03 RMK AO2 SLP091 60000 T02330172 10267 20233 56017
03949KAQV AQV20190424180011104/24/19 18:00:31  5-MIN KAQV 250000Z AUTO 00000KT 10SM OVC047 23/17 A2981 480 68 1600 000/00 RMK AO2 T02330172
03949KAQV AQV20190424180511104/24/19 18:05:31  5-MIN KAQV 250005Z AUTO 00000KT 10SM OVC047 23/17 A2980 490 68 1600 000/00 RMK AO2 T02330172
03949KAQV AQV20190424181011104/24/19 18:10:31  5-MIN KAQV 250010Z AUTO VRB03KT 10SM OVC045 23/17 A2980 490 68 1600 VRB/03 RMK AO2 T02330172
03949KAQV AQV20190424181511104/24/19 18:15:31  5-MIN KAQV 250015Z AUTO 15004KT 10SM BKN045 23/17 A2980 490 70 1500 150/04 RMK AO2 T02280172
03949KAQV AQV20190424182011104/24/19 18:20:31  5-MIN KAQV 250020Z AUTO 15004KT 10SM BKN045 23/17 A2980 490 70 1500 150/04 RMK AO2 T02280172
03949KAQV AQV20190424182511104/24/19 18:25:31  5-MIN KAQV 250025Z AUTO 17005KT 10SM SCT045 23/17 A2979 490 70 1600 160/05 RMK AO2 T02280172
03949KAQV AQV20190424183011104/24/19 18:30:31  5-MIN KAQV 250030Z AUTO 17004KT 10SM SCT045 23/17 A2979 490 70 1600 160/04 RMK AO2 T02280172
03949KAQV AQV20190424183511804/24/19 18:35:31  5-MIN KAQV 250035Z AUTO 17005KT 10SM FEW045 SCT085 23/17 A2979 490 70 1600 170/05 RMK AO2 T02280172
03949KAQV AQV20190424184011804/24/19 18:40:31  5-MIN KAQV 250040Z AUTO 17003KT 10SM FEW045 SCT080 22/17 A2980 490 73 1500 170/03 RMK AO2 T02220172
03949KAQV AQV20190424184511104/24/19 18:45:31  5-MIN KAQV 250045Z AUTO VRB05KT 10SM FEW080 22/17 A2980 490 73 1500 VRB/05 RMK AO2 T02220172
03949KAQV AQV20190424185011804/24/19 18:50:31  5-MIN KAQV 250050Z AUTO 17003KT 10SM FEW080 22/17 A2980 490 73 1500 170/03 RMK AO2 SLP089 T02220172
03949KAQV AQV20190424185511804/24/19 18:55:31  5-MIN KAQV 250055Z AUTO 18004KT 10SM FEW080 22/17 A2981 480 73 1500 180/04 RMK AO2 SLP091 T02220172
03949KAQV AQV20190424190011104/24/19 19:00:31  5-MIN KAQV 250100Z AUTO 18003KT 10SM FEW080 22/17 A2981 470 73 1500 170/03 RMK AO2 T02220172
03949KAQV AQV20190424190511104/24/19 19:05:31  5-MIN KAQV 250105Z AUTO VRB03KT 10SM SCT075 22/17 A2982 470 73 1500 VRB/03 RMK AO2 T02220172
03949KAQV AQV20190424191011104/24/19 19:10:31  5-MIN KAQV 250110Z AUTO 18003KT 10SM SCT075 22/17 A2982 470 75 1400 170/03 RMK AO2 T02170172
03949KAQV AQV20190424191511104/24/19 19:15:31  5-MIN KAQV 250115Z AUTO 17004KT 10SM BKN070 22/17 A2982 470 75 1400 170/04 RMK AO2 T02170172
03949KAQV AQV20190424192011104/24/19 19:20:31  5-MIN KAQV 250120Z AUTO VRB03KT 10SM BKN070 22/17 A2982 470 75 1400 VRB/03 RMK AO2 T02170172
03949KAQV AQV20190424192511104/24/19 19:25:31  5-MIN KAQV 250125Z AUTO 17003KT 10SM BKN075 22/17 A2982 470 75 1400 170/03 RMK AO2 T02170172
03949KAQV AQV20190424193011104/24/19 19:30:31  5-MIN KAQV 250130Z AUTO VRB04KT 10SM BKN075 22/17 A2982 470 75 1400 VRB/04 RMK AO2 T02170172
03949KAQV AQV20190424193511104/24/19 19:35:31  5-MIN KAQV 250135Z AUTO 17003KT 10SM BKN075 22/17 A2982 470 75 1400 170/03 RMK AO2 T02170172
03949KAQV AQV20190424194011804/24/19 19:40:31  5-MIN KAQV 250140Z AUTO 16003KT 10SM FEW043 BKN075 22/17 A2981 480 75 1400 150/03 RMK AO2 T02170172
03949KAQV AQV20190424194511804/24/19 19:45:31  5-MIN KAQV 250145Z AUTO VRB03KT 10SM SCT045 BKN075 22/17 A2981 480 75 1400 VRB/03 RMK AO2 T02170172
03949KAQV AQV20190424195012504/24/19 19:50:31  5-MIN KAQV 250150Z AUTO VRB03KT 10SM BKN045 BKN075 22/17 A2981 480 75 1400 VRB/03 RMK AO2 SLP092 T02170172
03949KAQV AQV20190424195512504/24/19 19:55:31  5-MIN KAQV 250155Z AUTO VRB04KT 10SM SCT045 BKN075 22/17 A2981 480 75 1400 VRB/04 RMK AO2 SLP092 T02170172
03949KAQV AQV20190424200011804/24/19 20:00:31  5-MIN KAQV 250200Z AUTO VRB03KT 10SM SCT045 SCT075 21/17 A2981 480 78 1300 VRB/03 RMK AO2 T02110172
03949KAQV AQV20190424200511104/24/19 20:05:31  5-MIN KAQV 250205Z AUTO 17004KT 10SM SCT044 22/17 A2981 480 75 1400 170/04 RMK AO2 T02170172
03949KAQV AQV20190424201011104/24/19 20:10:31  5-MIN KAQV 250210Z AUTO VRB05KT 10SM FEW044 22/17 A2981 480 75 1400 VRB/05 RMK AO2 T02170172
03949KAQV AQV20190424201511104/24/19 20:15:31  5-MIN KAQV 250215Z AUTO 17005KT 10SM FEW044 22/17 A2982 470 75 1400 170/05 RMK AO2 T02170172
03949KAQV AQV20190424202010804/24/19 20:20:31  5-MIN KAQV 250220Z AUTO VRB04KT 10SM CLR 22/17 A2982 470 75 1400 VRB/04 RMK AO2 T02170172
03949KAQV AQV20190424202510804/24/19 20:25:31  5-MIN KAQV 250225Z AUTO VRB03KT 10SM CLR 22/17 A2982 460 75 1400 VRB/03 RMK AO2 T02170172
03949KAQV AQV20190424203010804/24/19 20:30:31  5-MIN KAQV 250230Z AUTO VRB05KT 10SM CLR 22/18 A2983 460 78 1400 VRB/05 RMK AO2 T02170178
03949KAQV AQV20190424203510804/24/19 20:35:31  5-MIN KAQV 250235Z AUTO VRB04KT 10SM CLR 21/18 A2982 470 81 1300 VRB/04 RMK AO2 T02110178
03949KAQV AQV20190424204010804/24/19 20:40:31  5-MIN KAQV 250240Z AUTO VRB05KT 10SM CLR 21/18 A2982 470 81 1300 VRB/05 RMK AO2 T02110178
03949KAQV AQV20190424204510804/24/19 20:45:31  5-MIN KAQV 250245Z AUTO VRB04KT 10SM CLR 21/18 A2982 470 81 1300 VRB/04 RMK AO2 T02110178
03949KAQV AQV20190424205012104/24/19 20:50:31  5-MIN KAQV 250250Z AUTO 15004KT 10SM CLR 21/18 A2981 480 81 1300 140/04 RMK AO2 SLP091 T02110178 56018
03949KAQV AQV20190424205512104/24/19 20:55:31  5-MIN KAQV 250255Z AUTO 16005KT 10SM CLR 21/18 A2981 480 81 1300 160/05 RMK AO2 SLP093 T02110178 56018
03949KAQV AQV20190424210010804/24/19 21:00:31  5-MIN KAQV 250300Z AUTO VRB04KT 10SM CLR 21/18 A2982 470 81 1300 VRB/04 RMK AO2 T02110178
03949KAQV AQV20190424210510804/24/19 21:05:31  5-MIN KAQV 250305Z AUTO 17006KT 10SM CLR 21/18 A2982 470 81 1300 170/06 RMK AO2 T02110178
03949KAQV AQV20190424211010804/24/19 21:10:31  5-MIN KAQV 250310Z AUTO 17004KT 10SM CLR 21/18 A2982 470 81 1300 160/04 RMK AO2 T02110178
03949KAQV AQV20190424211510804/24/19 21:15:31  5-MIN KAQV 250315Z AUTO VRB05KT 10SM CLR 21/18 A2981 480 81 1300 VRB/05 RMK AO2 T02110178
03949KAQV AQV20190424212010804/24/19 21:20:31  5-MIN KAQV 250320Z AUTO VRB06KT 10SM CLR 21/18 A2982 470 81 1300 VRB/06 RMK AO2 T02110178
03949KAQV AQV20190424212510804/24/19 21:25:31  5-MIN KAQV 250325Z AUTO VRB06KT 10SM CLR 21/18 A2981 480 81 1300 VRB/06 RMK AO2 T02110178
03949KAQV AQV20190424213014804/24/19 21:30:31  5-MIN KAQV 250330Z AUTO 17006KT 10SM CLR 21/18 A2982 470 81 1300 170/0974 540 87 1500 VRB/03 RMK AO2 CIG 007V011 SLP069 T02170194
03949KAQV AQV20190424223012504/24/19 22:30:31  5-MIN KAQV 250430Z AUTO VRB05KT 10SM FEW014 BKN110 21/19 A2976 520 87 1400 VRB/05 RMK AO2 PRESFR T02110189
03949KAQV AQV20190424223511804/24/19 22:35:31  5-MIN KAQV 250435Z AUTO VRB06KT 10SM SCT014 BKN110 22/19 A2976 520 84 1500 VRB/06 RMK AO2 T02170189
03949KAQV AQV20190424224012404/24/19 22:40:31  5-MIN KAQV 250440Z AUTO VRB06G15KT 10SM SCT013 BKN110 22/19 A2978 500 84 1400 VRB/06G15 RMK AO2 T02170189
03949KAQV AQV20190424224512404/24/19 22:45:31  5-MIN KAQV 250445Z AUTO VRB06G15KT 10SM BKN013 BKN110 22/19 A2979 500 84 1400 VRB/06G15 RMK AO2 T02170189
03949KAQV AQV20190424225011804/24/19 22:50:31  5-MIN KAQV 250450Z AUTO 17008KT 10SM BKN013 22/19 A2979 500 84 1400 160/08 RMK AO2 SLP084 T02170189
03949KAQV AQV20190424225511804/24/19 22:55:31  5-MIN KAQV 250455Z AUTO VRB06KT 10SM BKN013 22/19 A2979 500 84 1400 VRB/06 RMK AO2 SLP083 T02170189
03949KAQV AQV20190424225513004/24/19 22:55:31  5-MIN KAQV 250455Z AUTO VRB06KT 10SM BKN013 22/19 A2979 500 84 1400 VRB/06 RMK AO2 SLP0VRB/06 RMK AO2 T02170189
03949KAQV AQV20190424230011104/24/19 23:00:31  5-MIN KAQV 250500Z AUTO 17006KT 10SM OVC013 22/19 A2978 510 84 1400 160/06 RMK AO2 T02170189
03949KAQV AQV20190424230512704/24/19 23:05:31  5-MIN KAQV 250505Z AUTO 17007KT 140V200 10SM OVC013 22/19 A2979 500 84 1400 170/07 140V200 RMK AO2 T02170189
03949KAQV AQV20190424231011104/24/19 23:10:31  5-MIN KAQV 250510Z AUTO VRB04KT 10SM OVC013 22/19 A2978 510 84 1400 VRB/04 RMK AO2 T02170189
03949KAQV AQV20190424231511104/24/19 23:15:31  5-MIN KAQV 250515Z AUTO 16008KT 10SM OVC013 22/19 A2978 510 84 1400 160/08 RMK AO2 T02170189
03949KAQV AQV20190424231525904/24/19 23:15:31  5-MIN KAQV 250515Z AUTO 16008KT 10SM OVC013 22/19UTO VRB06KT 10SM BKN013 22/19 A2979 500 84 1400 VRB/06 RMK AO2 SLP083 T0QV 250520Z AUTO 17009KT 150V210 10SM OVC013 Z AUTO 17006KT 10SM OVC013 22/19 A2978 510 84 1400 160/06 RMK AO2 T02170189
03949KAQV AQV20190424232012704/24/19 23:20:31  5-MIN KAQV 250520Z AUTO 17009KT 150V210 10SM OVC013 22/19 A2978 510 84 1400 170/09 150V210 RMK AO2 T02170189
03949KAQV AQV20190424232511104/24/19 23:25:31  5-MIN KAQV 250525Z AUTO VRB06KT 10SM OVC013 22/19 A2978 510 84 1400 VRB/06 RMK AO2 T02170189
03949KAQV AQV20190424233011704/24/19 23:30:31  5-MIN KAQV 250530Z AUTO 18008G17KT 10SM OVC013 22/19 A2979 500 81 1500 180/08G17 RMK AO2 T02220189
03949KAQV AQV20190424233511704/24/19 23:35:31  5-MIN KAQV 250535Z AUTO VRB06G17KT 10SM OVC013 22/19 A2979 490 81 1500 VRB/06G17 RMK AO2 T02220189
03949KAQV AQV20190424234011104/24/19 23:40:31  5-MIN KAQV 250540Z AUTO VRB04KT 10SM OVC013 22/19 A2979 490 84 1500 VRB/04 RMK AO2 T02220194
03949KAQV AQV20190424234015104/24/19 23:40:31  5-MIN KAQV 250540Z AUTO VRB04KTAQV 250520Z AUTO 17009KT 150V210 10SM OVC013 22/19 A2978 510 84 1400 170/09 150V210 RMK AO2 T02170189
03949KAQV AQV20190424234511104/24/19 23:45:31  5-MIN KAQV 250545Z AUTO 17007KT 10SM OVC013 22/19 A2978 510 84 1500 170/07 RMK AO2 T02220194
03949KAQV AQV20190424235015304/24/19 23:50:31  5-MIN KAQV 250550Z AUTO 17008KT 10SM BKN014 OVC021 22/19 A2978 510 84 1500 170/08 RMK AO2 SLP080 T02220194 10233 20211 402670139 53004
03949KAQV AQV20190424235515304/24/19 23:55:31  5-MIN KAQV 250555Z AUTO 18007KT 10SM BKN014 OVC021 22/19 A2977 510 84 1500 180/07 RMK AO2 SLP079 T02220194 10233 20211 402670139 53004
03949KAQV AQV20190425000007704/25/19 00:00:31  5-MIN KAQV 250600Z AUTO VRB04KT 10SM OVC014 22/19 A2978 94
03949KAQV AQV20190425000011104/25/19 00:00:31  5-MIN KAQV 250600Z AUTO VRB04KT 10SM OVC014 22/19 A2978 510 87 1400 VRB/04 RMK AO2 T02170194
03949KAQV AQV20190425000512704/25/19 00:05:31  5-MIN KAQV 250605Z AUTO 10SM BKN014 OVC021 22/19 A2978 510 84 1500 M /M RMK AO2 T0222019404/25/8 20183 56013
03949KAQV AQV20190425020012204/25/19 02:00:31  5-MIN KAQV 250800Z AUTO VRB05KT 8SM OVC009 22/19 A2974 540 87 1500 VRB/05 RMK AO2 CIG 007V012 T02170194
03949KAQV AQV20190425020511004/25/19 02:05:31  5-MIN KAQV 250805Z AUTO 19005KT 8SM OVC009 22/20 A2974 550 90 1500 180/05 RMK AO2 T02170200
03949KAQV AQV20190425051513704/25/19 05:15:31  5-MIN KAQV 251115Z AUTO 00000KT 10SM -TSRA FEW022 BKN031 OVC060 18/18 A2972 560 96 1100 000/00 RMK AO2 P0000 T01830178
03949KAQV AQV20190425052014004/25/19 05:20:31  5-MIN KAQV 251120Z AUTO 00000KT 10SM TS FEW022 BKN050 OVC060 18/18 A2973 550 96 1100 000/00 RMK AO2 RAE20 P0000 T01830178
03949KAQV AQV20190425052513904/25/19 05:25:31  5-MIN KAQV 251125Z AUTO 00000KT 8SM TS SCT024 BKN048 OVC060 18/18 A2973 550 96 1100 000/00 RMK AO2 RAE20 P0000 T01830178
03949KAQV AQV20190425053013904/25/19 05:30:31  5-MIN KAQV 251130Z AUTO 00000KT 7SM TS BKN024 BKN046 OVC060 18/18 A2973 550 96 1100 000/00 RMK AO2 RAE20 P0000 T01830178
03949KAQV AQV20190425053514204/25/19 05:35:31  5-MIN KAQV 251135Z AUTO 00000KT 7SM BKN023 BKN045 OVC060 18/18 A2973 550 96 1100 000/00 RMK AO2 RAE20 TSE32 P0000 T01830178
03949KAQV AQV20190425054014204/25/19 05:40:31  5-MIN KAQV 251140Z AUTO 00000KT 8SM BKN023 BKN029 OVC060 18/18 A2973 550 96 1100 000/00 RMK AO2 RAE20 TSE32 P0000 T01830178
03949KAQV AQV20190425054514204/25/19 05:45:31  5-MIN KAQV 251145Z AUTO 00000KT 9SM BKN023 BKN027 OVC060 19/18 A2973 550 93 1200 000/00 RMK AO2 RAE20 TSE32 P0000 T01890178
03949KAQV AQV20190425055017204/25/19 05:50:31  5-MIN KAQV 251150Z AUTO 00000KT 9SM BKN022 OVC029 19/18 A2973 550 93 1200 000/00 RMK AO2 RAE20 TSE32 SLP065 P0000 60074 70074 T01890178 10228 20183 56013
03949KAQV AQV20190425055517204/25/19 05:55:31  5-MIN KAQV 251155Z AUTO 00000KT 8SM BKN024 OVC029 18/18 A2973 550 96 1100 000/00 RMK AO2 RAE20 TSE32 SLP065 P0000 60074 70074 T01830178 10228 20183 56013
03949KAQV AQV20190425060012004/25/19 06:00:31  5-MIN KAQV 251200Z AUTO 00000KT 6SM BR BKN024 OVC029 18/18 A2974 550 96 1100 000/00 RMK AO2 T01830178
03949KAQV AQV20190425060511004/25/19 06:05:31  5-MIN KAQV 251205Z AUTO 00000KT 7SM OVC027 19/18 A2973 550 93 1200 000/00 RMK AO2 T01890178
03949KAQV AQV20190425061011004/25/19 06:10:31  5-MIN KAQV 251210Z AUTO 00000KT 7SM OVC027 19/18 A2973 550 93 1200 000/00 RMK AO2 T01890178
03949KAQV AQV20190425061511304/25/19 06:15:31  5-MIN KAQV 251215Z AUTO 00000KT 6SM BR OVC027 19/18 A2973 550 93 1200 000/00 RMK AO2 T01890178
03949KAQV AQV20190425062011004/25/19 06:20:31  5-MIN KAQV 251220Z AUTO 00000KT 7SM OVC027 19/18 A2974 540 93 1200 000/00 RMK AO2 T01890178
03949KAQV AQV20190425062511004/25/19 06:25:31  5-MIN KAQV 251225Z AUTO 00000KT 9SM OVC029 19/18 A2974 540 93 1200 000/00 RMK AO2 T01890178
03949KAQV AQV20190425063011704/25/19 06:30:31  5-MIN KAQV 251230Z AUTO 00000KT 9SM BKN029 OVC060 19/18 A2974 540 93 1200 000/00 RMK AO2 T01890178
03949KAQV AQV20190425063512504/25/19 06:35:31  5-MIN KAQV 251235Z AUTO 27003KT 10SM BKN029 BKN039 OVC060 19/18 A2974 540 93 1200 270/03 RMK AO2 T01890178
03949KAQV AQV20190425064012504/25/19 06:40:31  5-MIN KAQV 251240Z AUTO 00000KT 10SM BKN029 BKN039 BKN095 19/18 A2975 540 93 1200 000/00 RMK AO2 T01890178
03949KAQV AQV20190425064512504/25/19 06:45:31  5-MIN KAQV 251245Z AUTO VRB04KT 10SM SCT029 BKN060 BKN095 19/18 A2975 540 93 1200 VRB/04 RMK AO2 T01890178
03949KAQV AQV20190425065013204/25/19 06:50:31  5-MIN KAQV 251250Z AUTO VRB03KT 10SM FEW009 SCT031 BKN060 19/18 A2976 530 93 1100 VRB/03 RMK AO2 SLP074 T01890178
03949KAQV AQV20190425065513204/25/19 06:55:31  5-MIN KAQV 251255Z AUTO 00000KT 10SM SCT007 SCT031 BKN060 19/18 A2976 530 93 1100 000/00 RMK AO2 SLP075 T01890178
03949KAQV AQV20190425070013704/25/19 07:00:31  5-MIN KAQV 251300Z AUTO VRB04KT 10SM BKN009 BKN028 BKN095 19/18 A2976 520 93 1100 VRB/04 RMK AO2 CIG 005V012 T01890178
03949KAQV AQV20190425070512504/25/19 07:05:31  5-MIN KAQV 251305Z AUTO 00000KT 10SM FEW006 BKN011 BKN060 19/18 A2976 520 93 1100 000/00 RMK AO2 T01890178
03949KAQV AQV20190425071012504/25/19 07:10:31  5-MIN KAQV 251310Z AUTO VRB04KT 10SM SCT006 BKN011 BKN060 19/18 A2976 520 93 1100 VRB/04 RMK AO2 T01890178
03949KAQV AQV20190425071513004/25/19 07:15:31  5-MIN KAQV 251315Z AUTO 00000KT 10SM BKN008 OVC011 19/17 A2977 520 90 1100 000/00 RMK AO2 CIG 005V011 T01890172
03949KAQV AQV20190425072013004/25/19 07:20:31  5-MIN KAQV 251320Z AUTO 00000KT 10SM BKN008 OVC012 19/17 A2977 510 90 1100 000/00 RMK AO2 CIG 005V010 T01890172
03949KAQV AQV20190425072513004/25/19 07:25:31  5-MIN KAQV 251325Z AUTO 00000KT 10SM BKN008 OVC012 19/18 A2977 510 90 1200 000/00 RMK AO2 CIG 006V010 T01940178
03949KAQV AQV20190425073013004/25/19 07:30:31  5-MIN KAQV 251330Z AUTO 00000KT 10SM BKN008 OVC012 19/18 A2977 510 93 1100 000/00 RMK AO2 CIG 006V011 T01890178
03949KAQV AQV20190425073512304/25/19 07:35:31  5-MIN KAQV 251335Z AUTO 00000KT 10SM OVC008 19/17 A2977 510 87 1200 000/00 RMK AO2 CIG 006V012 T01940172
03949KAQV AQV20190425074007904/25/19 07:40:31  5-MIN KAQV 251340Z AUTO VRB04KT A2978 M M M VRB/04 RMK AO2 $
03949KAQV AQV20190425074510104/25/19 07:45:31  5-MIN KAQV 251345Z AUTO 00000KT 19/17 A2978 510 87 1200 000/00 RMK AO2 T01940172 $
03949KAQV AQV20190425075011304/25/19 07:50:31  5-MIN KAQV 251350Z AUTO 29003KT 10SM 19/17 A2978 510 90 1100 280/03 RMK AO2 SLP082 T01890172 $
03949KAQV AQV20190425075511104/25/19 07:55:31  5-MIN KAQV 251355Z AUTO 00000KT 10SM 19/17 A2978 500 90 1100 000/00 RMK AO2 SLP083 T01890172
03949KAQV AQV20190425080010404/25/19 08:00:31  5-MIN KAQV 251400Z AUTO 29003KT 10SM 19/17 A2979 500 90 1100 280/03 RMK AO2 T01890172
03949KAQV AQV20190425080510404/25/19 08:05:31  5-MIN KAQV 251405Z AUTO VRB03KT 10SM 19/17 A2979 500 90 1100 VRB/03 RMK AO2 T01890172
03949KAQV AQV20190425081011104/25/19 08:10:31  5-MIN KAQV 251410Z AUTO VRB03KT 10SM OVC013 19/17 A2979 500 87 1100 VRB/03 RMK AO2 T01890167
03949KAQV AQV20190425081511104/25/19 08:15:31  5-MIN KAQV 251415Z AUTO 00000KT 10SM OVC013 19/17 A2979 500 87 1100 000/00 RMK AO2 T01890167
03949KAQV AQV20190425082011104/25/19 08:20:31  5-MIN KAQV 251420Z AUTO VRB04KT 10SM OVC012 19/17 A2979 490 87 1100 VRB/04 RMK AO2 T01890167
03949KAQV AQV20190425082511104/25/19 08:25:31  5-MIN KAQV 251425Z AUTO 29003KT 10SM OVC012 19/17 A2980 490 87 1100 280/03 RMK AO2 T01890167
03949KAQV AQV20190425083011104/25/19 08:30:31  5-MIN KAQV 251430Z AUTO 00000KT 10SM OVC012 19/17 A2980 490 87 1100 000/00 RMK AO2 T01890167
03949KAQV AQV20190425083512504/25/19 08:35:31  5-MIN KAQV 251435Z AUTO VRB03KT 10SM SCT011 BKN016 OVC026 19/17 A2980 490 87 1100 VRB/03 RMK AO2 T01890167
03949KAQV AQV20190425084012504/25/19 08:40:31  5-MIN KAQV 251440Z AUTO VRB04KT 10SM SCT011 BKN016 OVC026 19/17 A2980 490 87 1200 VRB/04 RMK AO2 T01940172
03949KAQV AQV20190425084512504/25/19 08:45:31  5-MIN KAQV 251445Z AUTO VRB03KT 10SM SCT015 SCT022 BKN027 20/17 A2980 490 84 1200 VRB/03 RMK AO2 T02000172
03949KAQV AQV20190425085013204/25/19 08:50:31  5-MIN KAQV 251450Z AUTO 26005KT 10SM FEW015 SCT022 BKN027 20/17 A2980 490 84 1200 260/05 RMK AO2 SLP089 T02000172
03949KAQV AQV20190425085513204/25/19 08:55:31  5-MIN KAQV 251455Z AUTO VRB04KT 10SM SCT013 SCT018 BKN027 20/17 A2980 490 81 1200 VRB/04 RMK AO2 SLP088 T02000167
03949KAQV AQV20190425090012504/25/19 09:00:31  5-MIN KAQV 251500Z AUTO VRB03KT 10SM SCT013 BKN021 BKN027 21/17 A2980 490 81 1300 VRB/03 RMK AO2 T02060172
03949KAQV AQV20190425090512504/25/19 09:05:31  5-MIN KAQV 251505Z AUTO VRB04KT 10SM SCT013 BKN017 BKN027 21/17 A2980 490 78 1300 VRB/04 RMK AO2 T02060167
03949KAQV AQV20190425091012504/25/19 09:10:31  5-MIN KAQV 251510Z AUTO VRB04KT 10SM SCT013 BKN017 BKN025 21/17 A2980 490 78 1300 VRB/04 RMK AO2 T02060167
03949KAQV AQV20190425091512504/25/19 09:15:31  5-MIN KAQV 251515Z AUTO VRB04KT 10SM SCT014 BKN025 BKN036 21/17 A2981 480 78 1300 VRB/04 RMK AO2 T02060167
03949KAQV AQV20190425092014104/25/19 09:20:31  5-MIN KAQV 251520Z AUTO 31007KT 280V360 10SM SCT014 BKN027 OVC034 20/17 A2981 480 81 1200 310/07 280V360 RMK AO2 T02000167
03949KAQV AQV20190425092512504/25/19 09:25:31  5-MIN KAQV 251525Z AUTO VRB04KT 10SM SCT012 BKN023 OVC034 19/16 A2981 480 81 1100 VRB/04 RMK AO2 T01940161
03949KAQV AQV20190425093012504/25/19 09:30:31  5-MIN KAQV 251530Z AUTO VRB04KT 10SM FEW014 BKN028 OVC033 20/16 A2981 480 78 1200 VRB/04 RMK AO2 T02000161
03949KAQV AQV20190425093511804/25/19 09:35:31  5-MIN KAQV 251535Z AUTO VRB04KT 10SM FEW016 OVC031 20/16 A2981 480 78 1200 VRB/04 RMK AO2 T02000161
03949KAQV AQV20190425094011804/25/19 09:40:31  5-MIN KAQV 251540Z AUTO VRB03KT 10SM BKN028 BKN033 20/16 A2981 480 78 1200 VRB/03 RMK AO2 T02000161
03949KAQV AQV20190425094512504/25/19 09:45:31  5-MIN KAQV 251545Z AUTO VRB05KT 10SM FEW014 FEW023 OVC030 21/16 A2981 480 75 1300 VRB/05 RMK AO2 T02060161
03949KAQV AQV20190425095013204/25/19 09:50:31  5-MIN KAQV 251550Z AUTO VRB04KT 10SM FEW014 BKN028 BKN033 21/16 A2981 480 70 1300 VRB/04 RMK AO2 SLP091 T02110156
03949KAQV AQV20190425095512504/25/19 09:55:31  5-MIN KAQV 251555Z AUTO 00000KT 10SM FEW016 BKN028 21/16 A2981 480 73 1300 000/00 RMK AO2 SLP092 T02110161
03949KAQV AQV20190425100011804/25/19 10:00:31  5-MIN KAQV 251600Z AUTO VRB03KT 10SM FEW016 SCT029 22/16 A2981 470 70 1400 VRB/03 RMK AO2 T02170161
03949KAQV AQV20190425100511804/25/19 10:05:31  5-MIN KAQV 251605Z AUTO 00000KT 10SM FEW020 SCT029 22/16 A2982 470 68 1500 000/00 RMK AO2 T02220161
03949KAQV AQV20190425101011804/25/19 10:10:31  5-MIN KAQV 251610Z AUTO VRB04KT 10SM FEW020 SCT029 22/16 A2982 470 68 1400 VRB/04 RMK AO2 T02170156
03949KAQV AQV20190425101512504/25/19 10:15:31  5-MIN KAQV 251615Z AUTO VRB04KT 10SM FEW022 FEW027 SCT033 22/15 A2982 470 63 1500 VRB/04 RMK AO2 T02220150
03949KAQV AQV20190425102011804/25/19 10:20:31  5-MIN KAQV 251620Z AUTO VRB05KT 10SM SCT022 SCT030 21/16 A2982 470 70 1300 VRB/05 RMK AO2 T02110156
03949KAQV AQV20190425102511804/25/19 10:25:31  5-MIN KAQV 251625Z AUTO VRB03KT 10SM SCT022 BKN030 21/16 A2982 470 70 1300 VRB/03 RMK AO2 T02110156
03949KAQV AQV20190425103012504/25/19 10:30:31  5-MIN KAQV 251630Z AUTO VRB04KT 10SM FEW022 SCT030 BKN036 22/16 A2982 470 68 1500 VRB/04 RMK AO2 T02220161
03949KAQV AQV20190425103515604/25/19 10:35:31  5-MIN KAQV 251635Z AUTO VRB04KT 10SM FEW022 SCT030 BKN036 22/16 A2982 470 65 1500 VRB/04 RMK AO2 T0222015604/25/19 10:40:31  6:5T02500144
03949KAQV AQV20190425163011804/25/19 16:30:31  5-MIN KAQV 252230Z AUTO VRB05KT 10SM FEW044 SCT055 25/14 A2980 490 51 1800 VRB/05 RMK AO2 T02500144
03949KAQV AQV20190425163510104/25/19 16:35:31  5-MIN KAQV 252235Z AUTO VRB05KT 10SM SCT044 SCT055 24/14 A2MK AO2 SLP090 T02440150
03949KAQV AQV20190425170011104/25/19 17:00:31  5-MIN KAQV 252300Z AUTO VRB04KT 10SM SCT047 24/15 A2981 480 55 1700 VRB/04 RMK AO2 T02440150
03949KAQV AQV20190425170510104/25/19 17:05:31  5-MIN KAQV 252305Z AUTO 10SM SCT047 24/15 A2981 480 57 1700 M /M RMK AO2 T02390150
03949KAQV AQV20190425171011104/25/19 17:10:31  5-MIN KAQV 252310Z AUTO 29004KT 10SM FEW045 24/14 A2981 480 55 1700 290/04 RMK AO2 T02390144
03949KAQV AQV20190425173010804/25/19 17:30:31  5-MIN KAQV 252330Z AUTO VRB05KT 10SM CLR 23/14 A2982 470 57 1600 VRB/05 RMK AO2 T02330144
03949KAQV AQV20190425173510804/25/19 17:35:31  5-MIN KAQV 252335Z AUTO VRB04KT 10SM CLR 23/14 A2981 470 57 1600 VRB/04 RMK AO2 T02330144
03949KAQV AQV20190425174010804/25/19 17:40:31  5-MIN KAQV 252340Z AUTO VRB03KT 10SM CLR 23/14 A2982 470 57 1600 VRB/03 RMK AO2 T02330144
03949KAQV AQV20190425174510804/25/19 17:45:31  5-MIN KAQV 252345Z AUTO VRB03KT 10SM CLR 23/15 A2982 470 59 1600 VRB/03 RMK AO2 T02330150
03949KAQV AQV20190425175013304/25/19 17:50:31  5-MIN KAQV 252350Z AUTO 00000KT 10SM CLR 23/15 A2982 470 59 1600 000/00 RMK AO2 SLP096 T02330150 10256 20222 55006
03949KAQV AQV20190425175513304/25/19 17:55:31  5-MIN KAQV 252355Z AUTO VRB03KT 10SM CLR 23/15 A2982 470 59 1600 VRB/03 RMK AO2 SLP097 T02330150 10256 20222 55006
03949KAQV AQV20190425180010804/25/19 18:00:31  5-MIN KAQV 260000Z AUTO VRB04KT 10SM CLR 23/14 A2983 460 57 1600 VRB/04 RMK AO2 T02330144
03949KAQV AQV20190425180510804/25/19 18:05:31  5-MIN KAQV 260005Z AUTO VRB03KT 10SM CLR 23/14 A2983 460 57 1600 VRB/03 RMK AO2 T02330144
03949KAQV AQV20190425181010804/25/19 18:10:31  5-MIN KAQV 260010Z AUTO 00000KT 10SM CLR 23/14 A2983 460 59 1500 000/00 RMK AO2 T02280144
03949KAQV AQV20190425181510804/25/19 18:15:31  5-MIN KAQV 260015Z AUTO VRB04KT 10SM CLR 23/14 A2983 460 59 1500 VRB/04 RMK AO2 T02280144
03949KAQV AQV20190425182010804/25/19 18:20:31  5-MIN KAQV 260020Z AUTO VRB05KT 10SM CLR 23/14 A2984 450 59 1500 VRB/05 RMK AO2 T02280144
03949KAQV AQV20190425182510804/25/19 18:25:31  5-MIN KAQV 260025Z AUTO 00000KT 10SM CLR 22/14 A2984 450 61 1400 000/00 RMK AO2 T02220144
03949KAQV AQV20190425183010804/25/19 18:30:31  5-MIN KAQV 260030Z AUTO 29003KT 10SM CLR 22/14 A2984 450 61 1400 290/03 RMK AO2 T02220144
03949KAQV AQV20190425183510804/25/19 18:35:31  5-MIN KAQV 260035Z AUTO 27003KT 10SM CLR 22/15 A2984 450 65 1400 270/03 RMK AO2 T02170150
03949KAQV AQV20190425184010804/25/19 18:40:31  5-MIN KAQV 260040Z AUTO 00000KT 10SM CLR 22/15 A2984 450 65 1400 000/00 RMK AO2 T02170150
03949KAQV AQV20190425184510804/25/19 18:45:31  5-MIN KAQV 260045Z AUTO 00000KT 10SM CLR 21/15 A2984 450 68 1300 000/00 RMK AO2 T02110150
03949KAQV AQV20190425185011504/25/19 18:50:31  5-MIN KAQV 260050Z AUTO 00000KT 10SM CLR 21/16 A2985 450 73 1200 000/00 RMK AO2 SLP105 T02060156
03949KAQV AQV20190425185511504/25/19 18:55:31  5-MIN KAQV 260055Z AUTO 00000KT 10SM CLR 20/16 A2985 440 75 1200 000/00 RMK AO2 SLP106 T02000156
03949KAQV AQV20190425190010804/25/19 19:00:31  5-MIN KAQV 260100Z AUTO 00000KT 10SM CLR 20/16 A2985 440 75 1200 000/00 RMK AO2 T02000156
03949KAQV AQV20190425190510804/25/19 19:05:31  5-MIN KAQV 260105Z AUTO 00000KT 10SM CLR 19/16 A2986 440 81 1100 000/00 RMK AO2 T01940161
03949KAQV AQV20190425191010804/25/19 19:10:31  5-MIN KAQV 260110Z AUTO 00000KT 10SM CLR 19/16 A2986 430 81 1100 000/00 RMK AO2 T01940161
03949KAQV AQV20190425191510804/25/19 19:15:31  5-MIN KAQV 260115Z AUTO 00000KT 10SM CLR 19/16 A2986 430 81 1100 000/00 RMK AO2 T01940161
03949KAQV AQV20190425192010804/25/19 19:20:31  5-MIN KAQV 260120Z AUTO 00000KT 10SM CLR 19/16 A2986 430 84 1000 000/00 RMK AO2 T01890161
03949KAQV AQV20190425192510804/25/19 19:25:31  5-MIN KAQV 260125Z AUTO 00000KT 10SM CLR 19/16 A2986 430 84 1000 000/00 RMK AO2 T01890161
03949KAQV AQV20190425193010804/25/19 19:30:31  5-MIN KAQV 260130Z AUTO 00000KT 10SM CLR 19/16 A2986 430 81 1000 000/00 RMK AO2 T01890156
03949KAQV AQV20190425193510804/25/19 19:35:31  5-MIN KAQV 260135Z AUTO 00000KT 10SM CLR 19/16 A2986 430 81 1000 000/00 RMK AO2 T01890156
03949KAQV AQV20190425194010804/25/19 19:40:31  5-MIN KAQV 260140Z AUTO 00000KT 10SM CLR 19/16 A2987 430 84 1000 000/00 RMK AO2 T01890161
03949KAQV AQV20190425194510804/25/19 19:45:31  5-MIN KAQV 260145Z AUTO 00000KT 10SM CLR 18/16 A2987 420 87 1000 000/00 RMK AO2 T01830161
03949KAQV AQV20190425195011504/25/19 19:50:31  5-MIN KAQV 260150Z AUTO 00000KT 10SM CLR 18/16 A2987 420 84 1000 000/00 RMK AO2 SLP112 T01830156
03949KAQV AQV20190425195511404/25/19 19:55:31  5-MIN KAQV 260155Z AUTO 00000KT 10SM CLR 18/16 A2987 420 87 900 000/00 RMK AO2 SLP114 T01830161
03949KAQV AQV20190425200010704/25/19 20:00:31  5-MIN KAQV 260200Z AUTO 00000KT 10SM CLR 18/16 A2988 420 87 900 000/00 RMK AO2 T01830161
03949KAQV AQV20190425200510704/25/19 20:05:31  5-MIN KAQV 260205Z AUTO 00000KT 10SM CLR 18/16 A2988 420 87 900 000/00 RMK AO2 T01830161
03949KAQV AQV20190425201010704/25/19 20:10:31  5-MIN KAQV 260210Z AUTO 00000KT 10SM CLR 18/16 A2988 410 90 900 000/00 RMK AO2 T01780161
03949KAQV AQV20190425201510704/25/19 20:15:31  5-MIN KAQV 260215Z AUTO 00000KT 10SM CLR 18/16 A2988 410 90 900 000/00 RMK AO2 T01780161
03949KAQV AQV20190425202010704/25/19 20:20:31  5-MIN KAQV 260220Z AUTO 00000KT 10SM CLR 17/16 A2989 410 93 800 000/00 RMK AO2 T01720161
03949KAQV AQV20190425202510704/25/19 20:25:31  5-MIN KAQV 260225Z AUTO 00000KT 10SM CLR 17/16 A2989 400 90 800 000/00 RMK AO2 T01720156
03949KAQV AQV20190425203010704/25/19 20:30:31  5-MIN KAQV 260230Z AUTO 00000KT 10SM CLR 17/16 A2989 400 90 800 000/00 RMK AO2 T01720156
03949KAQV AQV20190425203510704/25/19 20:35:31  5-MIN KAQV 260235Z AUTO 00000KT 10SM CLR 17/16 A2990 400 90 800 000/00 RMK AO2 T01720156
03949KAQV AQV20190425204010704/25/19 20:40:31  5-MIN KAQV 260240Z AUTO 00000KT 10SM CLR 17/16 A2990 400 90 800 000/00 RMK AO2 T01720156
03949KAQV AQV20190425204510704/25/19 20:45:31  5-MIN KAQV 260245Z AUTO 00000KT 10SM CLR 17/16 A2990 390 90 800 000/00 RMK AO2 T01720156
03949KAQV AQV20190425205012004/25/19 20:50:31  5-MIN KAQV 260250Z AUTO 00000KT 10SM CLR 17/16 A2991 390 90 800 000/00 RMK AO2 SLP125 T01720156 53012
03949KAQV AQV20190425205512004/25/19 20:55:31  5-MIN KAQV 260255Z AUTO 00000KT 10SM CLR 17/16 A2991 390 90 800 000/00 RMK AO2 SLP126 T01720156 53012
03949KAQV AQV20190425210010704/25/19 21:00:31  5-MIN KAQV 260300Z AUTO 00000KT 10SM CLR 17/16 A2991 380 90 800 000/00 RMK AO2 T01720156
03949KAQV AQV20190425210510704/25/19 21:05:31  5-MIN KAQV 260305Z AUTO 00000KT 10SM CLR 17/16 A2992 380 90 800 000/00 RMK AO2 T01720156
03949KAQV AQV20190425211010704/25/19 21:10:31  5-MIN KAQV 260310Z AUTO 00000KT 10SM CLR 17/16 A2992 380 90 800 000/00 RMK AO2 T01720156
03949KAQV AQV20190425211510704/25/19 21:15:31  5-MIN KAQV 260315Z AUTO 00000KT 10SM CLR 17/16 A2992 370 90 800 000/00 RMK AO2 T01720156
03949KAQV AQV20190425212010704/25/19 21:20:31  5-MIN KAQV 260320Z AUTO 00000KT 10SM CLR 17/16 A2993 370 90 800 000/00 RMK AO2 T01720156
03949KAQV AQV20190425212510704/25/19 21:25:31  5-MIN KAQV 260325Z AUTO 00000KT 10SM CLR 17/16 A2993 370 90 800 000/00 RMK AO2 T01720156
03949KAQV AQV20190425213010704/25/19 21:30:31  5-MIN KAQV 260330Z AUTO 00000KT 10SM CLR 18/16 A2993 370 87 800 000/00 RMK AO2 T01780156
03949KAQV AQV20190425213510704/25/19 21:35:31  5-MIN KAQV 260335Z AUTO 00000KT 10SM CLR 18/16 A2993 360 84 900 000/00 RMK AO2 T01830156
03949KAQV AQV20190425214010704/25/19 21:40:31  5-MIN KAQV 260340Z AUTO 00000KT 10SM CLR 18/16 A2994 360 84 900 000/00 RMK AO2 T01830156
03949KAQV AQV20190425214510704/25/19 21:45:31  5-MIN KAQV 260345Z AUTO 00000KT 10SM CLR 18/15 A2994 360 81 900 000/00 RMK AO2 T01830150
03949KAQV AQV20190425215011404/25/19 21:50:31  5-MIN KAQV 260350Z AUTO VRB03KT 10SM CLR 18/15 A2994 360 81 900 VRB/03 RMK AO2 SLP135 T01830150
03949KAQV AQV20190425215511404/25/19 21:55:31  5-MIN KAQV 260355Z AUTO VRB03KT 10SM CLR 18/15 A2993 360 81 900 VRB/03 RMK AO2 SLP134 T01830150
03949KAQV AQV20190425220010704/25/19 22:00:31  5-MIN KAQV 260400Z AUTO 00000KT 10SM CLR 18/15 A2993 360 83 800 000/00 RMK AO2 T01780150
03949KAQV AQV20190425220510704/25/19 22:05:31  5-MIN KAQV 260405Z AUTO 00000KT 10SM CLR 18/15 A2994 360 83 800 000/00 RMK AO2 T01780150
03949KAQV AQV20190425221010704/25/19 22:10:31  5-MIN KAQV 260410Z AUTO VRB03KT 10SM CLR 18/15 A2994 360 83 800 VRB/03 RMK AO2 T01780150
03949KAQV AQV20190425221510704/25/19 22:15:31  5-MIN KAQV 260415Z AUTO 00000KT 10SM CLR 18/15 A2994 360 83 800 000/00 RMK AO2 T01780150
03949KAQV AQV20190425222010704/25/19 22:20:31  5-MIN KAQV 260420Z AUTO 00000KT 10SM CLR 18/15 A2994 360 83 800 000/00 RMK AO2 T01780150
03949KAQV AQV20190425222510704/25/19 22:25:31  5-MIN KAQV 260425Z AUTO VRB03KT 10SM CLR 18/15 A2994 360 83 800 VRB/03 RMK AO2 T01780150
03949KAQV AQV20190425223010704/25/19 22:30:31  5-MIN KAQV 260430Z AUTO 00000KT 10SM CLR 18/15 A2994 360 83 800 000/00 RMK AO2 T01780150
03949KAQV AQV20190425223510704/25/19 22:35:31  5-MIN KAQV 260435Z AUTO 00000KT 10SM CLR 18/15 A2994 360 83 800 000/00 RMK AO2 T01780150
03949KAQV AQV20190425224010704/25/19 22:40:31  5-MIN KAQV 260440Z AUTO 00000KT 10SM CLR 18/15 A2994 360 83 800 000/00 RMK AO2 T01780150
03949KAQV AQV20190425224510704/25/19 22:45:31  5-MIN KAQV 260445Z AUTO 00000KT 10SM CLR 18/15 A2994 360 83 800 000/00 RMK AO2 T01780150
03949KAQV AQV20190425225011404/25/19 22:50:31  5-MIN KAQV 260450Z AUTO 00000KT 10SM CLR 17/15 A2994 360 87 700 000/00 RMK AO2 SLP137 T01720150
03949KAQV AQV20190425225511404/25/19 22:55:31  5-MIN KAQV 260455Z AUTO 00000KT 10SM CLR 17/15 A2994 360 90 700 000/00 RMK AO2 SLP137 T01670150
03949KAQV AQV20190425230010704/25/19 23:00:31  5-MIN KAQV 260500Z AUTO 00000KT 10SM CLR 16/15 A2994 360 93 600 000/00 RMK AO2 T01610150
03949KAQV AQV20190425230510704/25/19 23:05:31  5-MIN KAQV 260505Z AUTO 00000KT 10SM CLR 16/14 A2994 360 90 600 000/00 RMK AO2 T01610144
03949KAQV AQV20190425231010704/25/19 23:10:31  5-MIN KAQV 260510Z AUTO 00000KT 10SM CLR 16/14 A2994 350 90 600 000/00 RMK AO2 T01610144
03949KAQV AQV20190425231510704/25/19 23:15:31  5-MIN KAQV 260515Z AUTO 00000KT 10SM CLR 16/14 A2994 350 93 500 000/00 RMK AO2 T01560144
03949KAQV AQV20190425232010704/25/19 23:20:31  5-MIN KAQV 260520Z AUTO 00000KT 10SM CLR 16/14 A2995 350 93 500 000/00 RMK AO2 T01560144
03949KAQV AQV20190425232510704/25/19 23:25:31  5-MIN KAQV 260525Z AUTO 00000KT 10SM CLR 16/14 A2995 350 93 500 000/00 RMK AO2 T01560144
03949KAQV AQV20190425233010704/25/19 23:30:31  5-MIN KAQV 260530Z AUTO 00000KT 10SM CLR 16/14 A2995 350 93 500 000/00 RMK AO2 T01560144
03949KAQV AQV20190425233510704/25/19 23:35:31  5-MIN KAQV 260535Z AUTO 00000KT 10SM CLR 16/14 A2995 350 93 500 000/00 RMK AO2 T01560144
03949KAQV AQV20190425234010704/25/19 23:40:31  5-MIN KAQV 260540Z AUTO 00000KT 10SM CLR 15/14 A2995 350 93 500 000/00 RMK AO2 T01500139
03949KAQV AQV20190425234510604/25/19 23:45:31  5-MIN KAQV 260545Z AUTO 00000KT 9SM CLR 15/14 A2995 350 93 500 000/00 RMK AO2 T01500139
03949KAQV AQV20190425235014104/25/19 23:50:31  5-MIN KAQV 260550Z AUTO 00000KT 8SM CLR 15/14 A2995 350 93 500 000/00 RMK AO2 SLP140 T01500139 10233 20150 402560150 53029
03949KAQV AQV20190425235514104/25/19 23:55:31  5-MIN KAQV 260555Z AUTO 00000KT 7SM CLR 15/14 A2995 350 93 500 000/00 RMK AO2 SLP141 T01500139 10233 20150 402560150 53029
03949KAQV AQV20190426000010604/26/19 00:00:31  5-MIN KAQV 260600Z AUTO 00000KT 7SM CLR 15/14 A2995 350 93 500 000/00 RMK AO2 T01500139
03949KAQV AQV20190426000507504/26/19 00:05:31  5-MIN KAQV 260605Z AUTO 00000KT 8SM CLR 15/14 A2995 350 
03949KAQV AQV20190426031510604/26/19 03:15:31  5-MIN KAQV 260915Z AUTO 00000KT 9SM CLR 14/13 A2995 350 93 400 000/00 RMK AO2 T01440133
03949KAQV AQV20190426032010704/26/19 03:20:31  5-MIN KAQV 260920Z AUTO VRB03KT 10SM CLR 14/13 A2995 340 93 400 VRB/03 RMK AO2 T01440133
03949KAQV AQV20190426032510704/26/19 03:25:31  5-MIN KAQV 260925Z AUTO 00000KT 10SM CLR 14/13 A2996 340 93 400 000/00 RMK AO2 T01440133
03949KAQV AQV20190426033010704/26/19 03:30:31  5-MIN KAQV 260930Z AUTO 00000KT 10SM CLR 14/13 A2996 340 93 400 000/00 RMK AO2 T01440133
03949KAQV AQV20190426033510704/26/19 03:35:31  5-MIN KAQV 260935Z AUTO 00000KT 10SM CLR 14/13 A2996 340 93 400 000/00 RMK AO2 T01440133
03949KAQV AQV20190426034010704/26/19 03:40:31  5-MIN KAQV 260940Z AUTO 00000KT 10SM CLR 14/13 A2996 340 93 400 000/00 RMK AO2 T01440133
03949KAQV AQV20190426034510704/26/19 03:45:31  5-MIN KAQV 260945Z AUTO 00000KT 10SM CLR 14/13 A2996 340 93 400 000/00 RMK AO2 T01440133
03949KAQV AQV20190426035011304/26/19 03:50:31  5-MIN KAQV 260950Z AUTO 00000KT 9SM CLR 14/13 A2996 340 93 400 000/00 RMK AO2 SLP145 T01440133
03949KAQV AQV20190426035511304/26/19 03:55:31  5-MIN KAQV 260955Z AUTO 00000KT 9SM CLR 14/13 A2996 340 93 400 000/00 RMK AO2 SLP145 T01440133
03949KAQV AQV20190426040010604/26/19 04:00:31  5-MIN KAQV 261000Z AUTO 00000KT 8SM CLR 14/13 A2996 340 93 400 000/00 RMK AO2 T01440133
03949KAQV AQV20190426040510604/26/19 04:05:31  5-MIN KAQV 261005Z AUTO 00000KT 8SM CLR 14/13 A2996 340 93 400 000/00 RMK AO2 T01440133
03949KAQV AQV20190426041010604/26/19 04:10:31  5-MIN KAQV 261010Z AUTO 00000KT 8SM CLR 14/13 A2997 330 93 400 000/00 RMK AO2 T01440133
03949KAQV AQV20190426041510604/26/19 04:15:31  5-MIN KAQV 261015Z AUTO 00000KT 9SM CLR 14/13 A2997 330 93 400 000/00 RMK AO2 T01440133
03949KAQV AQV20190426042010604/26/19 04:20:31  5-MIN KAQV 261020Z AUTO 00000KT 9SM CLR 14/13 A2997 330 93 400 000/00 RMK AO2 T01440133
03949KAQV AQV20190426042510604/26/19 04:25:31  5-MIN KAQV 261025Z AUTO 00000KT 8SM CLR 14/13 A2997 330 93 400 000/00 RMK AO2 T01440133
03949KAQV AQV20190426043010604/26/19 04:30:31  5-MIN KAQV 261030Z AUTO 00000KT 8SM CLR 14/13 A2997 330 93 400 000/00 RMK AO2 T01440133
03949KAQV AQV20190426043510604/26/19 04:35:31  5-MIN KAQV 261035Z AUTO 00000KT 8SM CLR 14/13 A2997 330 93 400 000/00 RMK AO2 T01440133
03949KAQV AQV20190426044010604/26/19 04:40:31  5-MIN KAQV 261040Z AUTO 00000KT 8SM CLR 14/13 A2998 320 93 400 000/00 RMK AO2 T01440133
03949KAQV AQV20190426044510604/26/19 04:45:31  5-MIN KAQV 261045Z AUTO 00000KT 7SM CLR 14/13 A2998 320 93 400 000/00 RMK AO2 T01440133
03949KAQV AQV20190426045011604/26/19 04:50:31  5-MIN KAQV 261050Z AUTO 00000KT 6SM BR CLR 14/13 A2998 320 93 400 000/00 RMK AO2 SLP151 T01440133
03949KAQV AQV20190426045511304/26/19 04:55:31  5-MIN KAQV 261055Z AUTO 00000KT 7SM CLR 14/13 A2998 320 96 300 000/00 RMK AO2 SLP151 T01390133
03949KAQV AQV20190426050010604/26/19 05:00:31  5-MIN KAQV 261100Z AUTO 00000KT 8SM CLR 14/13 A2999 320 93 400 000/00 RMK AO2 T01440133
03949KAQV AQV20190426050510604/26/19 05:05:31  5-MIN KAQV 261105Z AUTO 00000KT 9SM CLR 14/13 A2999 310 93 400 000/00 RMK AO2 T01440133
03949KAQV AQV20190426051010704/26/19 05:10:31  5-MIN KAQV 261110Z AUTO 00000KT 10SM CLR 14/13 A2999 310 93 400 000/00 RMK AO2 T01440133
03949KAQV AQV20190426051510704/26/19 05:15:31  5-MIN KAQV 261115Z AUTO 00000KT 10SM CLR 14/13 A3000 300 93 300 000/00 RMK AO2 T01440133
03949KAQV AQV20190426052010704/26/19 05:20:31  5-MIN KAQV 261120Z AUTO 34003KT 10SM CLR 15/13 A3000 300 90 400 330/03 RMK AO2 T01500133
03949KAQV AQV20190426052510704/26/19 05:25:31  5-MIN KAQV 261125Z AUTO VRB03KT 10SM CLR 15/13 A3001 300 90 400 VRB/03 RMK AO2 T01500133
03949KAQV AQV20190426053010704/26/19 05:30:31  5-MIN KAQV 261130Z AUTO VRB03KT 10SM CLR 15/13 A3001 290 90 400 VRB/03 RMK AO2 T01500133
03949KAQV AQV20190426053510704/26/19 05:35:31  5-MIN KAQV 261135Z AUTO VRB03KT 10SM CLR 14/13 A3001 290 93 300 VRB/03 RMK AO2 T01440133
03949KAQV AQV20190426054010704/26/19 05:40:31  5-MIN KAQV 261140Z AUTO 34004KT 10SM CLR 15/13 A3001 290 90 400 340/04 RMK AO2 T01500133
03949KAQV AQV20190426054510704/26/19 05:45:31  5-MIN KAQV 261145Z AUTO VRB03KT 10SM CLR 15/13 A3002 290 90 400 VRB/03 RMK AO2 T01500133
03949KAQV AQV20190426055013204/26/19 05:50:31  5-MIN KAQV 261150Z AUTO 35004KT 10SM CLR 15/13 A3002 280 90 400 350/04 RMK AO2 SLP165 T01500133 10156 20139 55001
03949KAQV AQV20190426055513204/26/19 05:55:31  5-MIN KAQV 261155Z AUTO 35004KT 10SM CLR 15/14 A3002 280 93 400 340/04 RMK AO2 SLP165 T01500139 10156 20139 55001
03949KAQV AQV20190426060010704/26/19 06:00:31  5-MIN KAQV 261200Z AUTO 35003KT 10SM CLR 16/14 A3003 280 90 400 340/03 RMK AO2 T01560139
03949KAQV AQV20190426060510704/26/19 06:05:31  5-MIN KAQV 261205Z AUTO VRB03KT 10SM CLR 16/14 A3003 270 90 400 VRB/03 RMK AO2 T01560139
03949KAQV AQV20190426061010504/26/19 06:10:31  5-MIN KAQV 261210Z AUTO VRB04KT 10SM CLR 16/14 A3003 270 90 400 VRB/04MK AO2 T01940139
03949KAQV AQV20190426080012304/26/19 08:00:31  5-MIN KAQV 261400Z AUTO 02007KT 350V060 10SM CLR 19/14 A3008 230 70 800 020/07 350V060 RMK AO2 T01940139
03949KAQV AQV20190426080510704/26/19 08:05:31  5-MIN KAQV 261405Z AUTO 01007KT 10SM CLR 19/14 A3008 230 70 800 010/07 RMK AO2 T01940139
03949KAQV AQV20190426081010704/26/19 08:10:31  5-MIN KAQV 261410Z AUTO 01008KT 10SM CLR 19/14 A3008 230 70 800 010/08 RMK AO2 T01940139
03949KAQV AQV20190426081512904/26/19 08:15:31  5-MIN KAQV 261415Z AUTO 01008G15KT 320V030 10SM CLR 20/13 A3008 220 65 900 010/08G15 320V030 RMK AO2 T02000133
03949KAQV AQV20190426081515704/26/19 08:15:31  5-MIN KAQV 261415Z AUTO 01008G15KT 320V030 10SM CLR 20/13 A3008 220 65 900SM CLR 19/14 A3008 230 72 800 360/08G16 RMK AO2 SLP183 T01890139
03949KAQV AQV20190426082011304/26/19 08:20:31  5-MIN KAQV 261420Z AUTO 02007G15KT 10SM CLR 20/13 A3008 220 65 900 010/07G15 RMK AO2 T02000133
03949KAQV AQV20190426082510704/26/19 08:25:31  5-MIN KAQV 261425Z AUTO 01008KT 10SM CLR 20/13 A3009 220 65 900 360/08 RMK AO2 T02000133
03949KAQV AQV20190426082514704/26/19 08:25:31  5-MIN KAQV 261425Z AUTO 01008KT 10SM CLR 20/N KAQV 261405Z AUTO 01007KT 10SM CLR 19/14 A3008 230 70 800 010/07 RMK AO2 T01940139
03949KAQV AQV20190426083010804/26/19 08:30:31  5-MIN KAQV 261430Z AUTO 36006KT 10SM CLR 21/13 A3009 220 63 1000 350/06 RMK AO2 T02060133
03949KAQV AQV20190426083511404/26/19 08:35:31  5-MIN KAQV 261435Z AUTO 01012G18KT 10SM CLR 21/13 A3009 220 60 1000 360/12G18 RMK AO2 T02060128
03949KAQV AQV20190426083516804/26/19 08:35:31  5-MIN KAQV 261435Z AUTO 01012G8:15:31  5-MIN KAQV 261415Z AUTO 01008G15KT 320V030 10SM CLR 20/13 A3008 220 65 900 010/08G15 320V030 RMK AO2 T02000133
03949KAQV AQV20190426084011404/26/19 08:40:31  5-MIN KAQV 261440Z AUTO 36009G18KT 10SM CLR 21/13 A3009 220 60 1000 350/09G18 RMK AO2 T02060128
03949KAQV AQV20190426084511404/26/19 08:45:31  5-MIN KAQV 261445Z AUTO 05010G16KT 10SM CLR 21/13 A3009 220 60 1000 040/10G16 RMK AO2 T02060128
03949KAQV AQV20190426085012704/26/19 08:50:31  5-MIN KAQV 261450Z AUTO 36006G16KT 10SM CLR 21/13 A3010 210 58 1000 360/06G16 RMK AO2 SLP190 T02110128 53026
03949KAQV AQV20190426085015204/26/19 08:50:31  5-MIN KAQV 261450Z AUTO 36006G16KT 10SM CLR 21/13 A3010 210 58 1000 360/06G16 RMK AO2 SLP190 T02110128 53026 350/06 RMK AO2 T02060133
03949KAQV AQV20190426085514304/26/19 08:55:31  5-MIN KAQV 261455Z AUTO 01009G14KT 320V040 10SM CLR 21/13 A3010 210 58 1000 360/09G14 320V040 RMK AO2 SLP191 T02110128 53026
03949KAQV AQV20190426090011404/26/19 09:00:31  5-MIN KAQV 261500Z AUTO 36009G16KT 10SM CLR 21/13 A3010 210 58 1000 360/09G16 RMK AO2 T02110128
03949KAQV AQV20190426090511404/26/19 09:05:31  5-MIN KAQV 261505Z AUTO 361100 VRB/00SM CLR 21/13 A3010 210 58 1000 360/08G16 RMK AO2 T02110128
03949KAQV AQV20190426091013004/26/19 09:10:31  5-MIN KAQV 261510Z AUTO 36007G14KT 320V030 10SM CLR 21/13 A3010 210 58 1000 350/07G14 320V030 RMK AO2 T02110128
03949KAQV AQV20190426091510804/26/19 09:15:31  5-MIN KAQV 261515Z AUTO 01009KT 10SM CLR 22/13 A3010 210 56 1100 360/09 RMK AO2 T02170128
03949KAQV AQV20190426092007504/26/19 09:20:31  5-MIN KAQV 261520Z AUTO 02009KT 10SM CLR 22/13 A3010 210
03949KAQV AQV20190426092510804/26/19 09:25:31  5-MIN KAQV 261525Z AUTO VRB06KT 10SM CLR 22/13 A3010 210 54 1100 VRB/06 RMK AO2 T02220128
03949KAQV AQV20190426093010804/26/19 09:30:31  5-MIN KAQV 261530Z AUTO 35009KT 10SM CLR 22/12 A3010 210 52 1100 350/09 RMK AO2 T02220122
03949KAQV AQV20190426093510804/26/19 09:35:31  5-MIN KAQV 261535Z AUTO 01010KT 10SM CLR 22/12 A3010 210 52 1100 010/10 RMK AO2 T02170117
03949KAQV AQV20190426094012204/26/19 09:40:31  5-MIN KAQV 261540Z CLR 23/12 A3011 200 0SM CLR 22/12 A3010 210 52 1100 040/08 020V080 RMK AO2 T02220122
03949KAQV AQV20190426094510804/26/19 09:45:31  5-MIN KAQV 261545Z AUTO 02007KT 10SM CLR 22/12 A3010 210 52 1100 010/07 RMK AO2 T02220122
03949KAQV AQV20190426095011504/26/19 09:50:31  5-MIN KAQV 261550Z AUTO VRB06KT 10SM CLR 22/12 A3010 210 52 1100 VRB/06 RMK AO2 SLP193 T02220122
03949KAQV AQV20190426095512904/26/19 09:55:31  5-MIN KAQV 261555Z AUTO 02008KT 310V050 10SM CLR 23/12 A3011 12204/26/19 1/08 310V050 RMK AO2 SLP193 T02280122
03949KAQV AQV20190426100010804/26/19 10:00:31  5-MIN KAQV 261600Z AUTO 01009KT 10SM CLR 23/12 A3011 200 51 1200 360/09 RMK AO2 T02280122
03949KAQV AQV20190426100510804/26/19 10:05:31  5-MIN KAQV 261605Z AUTO VRB06KT 10SM CLR 23/12 A3011 200 51 1200 VRB/06 RMK AO2 T02280122
03949KAQV AQV20190426101012404/26/19 10:10:31  5-MIN KAQV 261610Z AUTO 01007KT 330V060 10SM CLR 23/13 A3011 200 51 1300 010/07 330V060 RMK AO2 T02330128
03949KAQV AQV20190426101510804/26/19 10:15:31  5-MIN KAQV 261615Z AUTO VRB06KT 10SM CLR 23/12 A3011 200 51 1200 VRB/06 RMK AO2 T02280122
03949KAQV AQV20190426102009804/26/19 10:20:31  5-MIN KAQV 261620Z AUTO 10SM CLR 23/12 A3011 200 49 1300 M /M RMK AO2 T02330122
03949KAQV AQV20190426102510804/26/19 10:25:31  5-MIN KAQV 261625Z AUTO 01009KT 10SM CLR 23/12 A3011 200 49 1300 010/09 RMK AO2 T02330122
03949KAQV AQV20190426103010804/26/19 10:30:31  5-MIN KAQV 261630Z AUTO 01007KT 10SM CLR 23/12 A3011 200 47 1300 360/07 RMK AO2 T02330117
03949KAQV AQV20190426103510804/26/19 10:35:31  5-MIN KAQV 261635Z AUTO 36007KT 10SM CLR 23/12 A3011 200 47 1300 350/07 RMK AO2 T02330117
03949KAQV AQV20190426104010804/26/19 10:40:31  5-MIN KAQV 261640Z AUTO 03009KT 10SM CLR 23/12 A3011 200 47 1300 030/09 RMK AO2 T02330117
03949KAQV AQV20190426104510804/26/19 10:45:31  5-MIN KAQV 261645Z AUTO VRB04KT 10SM CLR 23/12 A3011 200 47 1300 VRB/04 RMK AO2 T02330117
03949KAQV AQV20190426105012104/26/19 10:50:31  5-MIN KAQV 261710Z AUTO 01010G15KT 10SM CLR 24/11 A3011 200 42 1300 010/10G15 RMK AO2 SLP194 T02390106
03949KAQV AQV20190426105513704/26/19 10:55:31  5-MIN KAQV 261655Z AUTO 05009G15KT 010V090 10SM CLR 24/10 A3011 200 41 1300 040/09G15 010V090 RMK AO2 SLP194 T02390100
03949KAQV AQV20190426110010804/26/19 11:00:31  5-MIN KAQV 261700Z AUTO 03009KT 10SM CLR 24/10 A3011 200 41 1300 020/09 RMK AO2 T02390100
03949KAQV AQV20190426110513004/26/19 11:05:31  5-MIN KAQV 261705Z AUTO 36007G15KT 300V030 10SM CLR 24/09 A3010 210 39 1300 360/07G15 300V030 RMK AO2 T02390094
03949KAQV AQV20190426111012404/26/19 11:10:31  5-MIN KAQV 261710Z AUTO 05007KT 020V080 10SM CLR 24/10 A3010 210 39 1400 050/07 020V080 RMK AO2 T02440100
03949KAQV AQV20190426111510804/26/19 11:15:31  5-MIN KAQV 261715Z AUTO VRB05KT 10SM CLR 24/10 A3010 210 39 1400 VRB/05 RMK AO2 T02440100
03949KAQV AQV20190426112010804/26/19 11:20:31  5-MIN KAQV 261720Z AUTO 02005KT 10SM CLR 25/11 A3010 210 39 1500 020/05 RMK AO2 T02500106
03949KAQV AQV20190426112511404/26/19 11:25:31  5-MIN KAQV 261725Z AUTO 36007G17KT 10SM CLR 24/09 A3010 210 38 1400 360/07G17 RMK AO2 T02440094
03949KAQV AQV20190426113011404/26/19 11:30:31  5-MIN KAQV 261730Z AUTO 03006G17KT 10SM CLR 24/09 A3010 210 38 1400 020/06G17 RMK AO2 T02440094
03949KAQV AQV20190426113510804/26/19 11:35:31  5-MIN KAQV 261735Z AUTO 02010KT 10SM CLR 25/09 A3010 210 35 1500 020/10 RMK AO2 T02500089
03949KAQV AQV20190426114010804/26/19 11:40:31  5-MIN KAQV 261740Z AUTO 05008KT 10SM CLR 24/08 A3010 210 35 1400 050/08 RMK AO2 T02440083
03949KAQV AQV20190426114510804/26/19 11:45:31  5-MIN KAQV 261745Z AUTO 07008KT 10SM CLR 24/08 A3009 220 35 1400 060/08 RMK AO2 T02440083
03949KAQV AQV20190426115013904/26/19 11:50:31  5-MIN KAQV 261750Z AUTO 02008G14KT 10SM CLR 25/08 A3009 220 34 1500 010/08G14 RMK AO2 SLP189 T02500083 10250 20150 51025
03949KAQV AQV20190426115513904/26/19 11:55:31  5-MIN KAQV 261755Z AUTO VRB05G14KT 10SM CLR 26/08 A3009 220 33 1500 VRB/05G14 RMK AO2 SLP188 T02560083 10256 20150 51025
03949KAQV AQV20190426120009804/26/19 12:00:31  5-MIN KAQV 261800Z AUTO 10SM CLR 25/08 A3009 220 34 1500 M /M RMK AO2 T02500083
03949KAQV AQV20190426120510804/26/19 12:05:31  5-MIN KAQV 261805Z AUTO 04009KT 10SM CLR 25/08 A3009 220 33 1500 040/09 RMK AO2 T02500078
03949KAQV AQV20190426121011404/26/19 12:10:31  5-MIN KAQV 261810Z AUTO 01010G16KT 10SM CLR 25/07 A3009 220 31 1500 010/10G16 RMK:31  T02500072
03949KAQV AQV20190426121511404/26/19 12:15:31  5-MIN KAQV 261815Z AUTO 03007G16KT 10SM CLR 25/07 A3009 220 30 1500 030/07G16 RMK AO2 T02500067
03949KAQV AQV20190426122012404/26/19 12:20:31  5-MIN KAQV 261820Z AUTO 03007KT 350V060 10SM CLR 26/06 A3008 220 28 1500 030/07 350V060 RMK AO2 T02560061
03949KAQV AQV20190426122511404/26/19 12:25:31  5-MIN KAQV 261825Z AUTO 04009G14KT 10SM CLR 26/06 A3009 220 28 1500 030/09G14 RMK AO2 T02560061
03949KAQV AQV20190426123011404/26/19 12:30:31  5-MIN KAQV 261830Z AUTO 02007G14KT 10SM CLR 26/07 A3008 230 29 1500 010/07G14 RMK AO2 T02560067
03949KAQV AQV20190426123510804/26/19 12:35:31  5-MIN KAQV 261835Z AUTO 03007KT 10SM CLR 26/07 A3008 230 29 1500 030/07 RMK AO2 T02560067
03949KAQV AQV20190426124009804/26/19 12:40:31  5-MIN KAQV 261840Z AUTO 10SM CLR 26/06 A3008 230 28 1500 M /M RMK AO2 T02560061
03949KAQV AQV20190426124510804/26/19 12:45:31  5-MIN KAQV 261845Z AUTO VRB06KT 10SM CLR 26/07 A3008 230 29 1600 VRB/06 RMK AO2 T02610072
03949KAQV AQV20190426125011504/26/19 12:50:31  5-MIN KAQV 261850Z AUTO 04006KT 10SM CLR 26/07 A3008 230 28 1600 040/06 RMK AO2 SLP185 T02610067
03949KAQV AQV20190426125511504/26/19 12:55:31  5-MIN KAQV 261855Z AUTO 05007KT 10SM CLR 26/07 A3008 230 29 1500 040/07 RMK AO2 SLP185 T02560067
03949KAQV AQV20190426130010804/26/19 13:00:31  5-MIN KAQV 261900Z AUTO 36008KT 10SM CLR 26/06 A3008 230 26 1600 360/08 RMK AO2 T02610056
03949KAQV AQV20190426130510804/26/19 13:05:31  5-MIN KAQV 261905Z AUTO 03007KT 10SM CLR 26/06 A3008 230 26 1600 030/07 RMK AO2 T02610056
03949KAQV AQV20190426131010804/26/19 13:10:31  5-MIN KAQV 261910Z AUTO VRB05KT 10SM CLR 26/06 A3008 230 26 1600 VRB/05 RMK AO2 T02610056
03949KAQV AQV20190426131510804/26/19 13:15:31  5-MIN KAQV 261915Z AUTO 03007KT 10SM CLR 26/06 A3008 230 26 1600 030/07 RMK AO2 T02610056
03949KAQV AQV20190426132012404/26/19 13:20:31  5-MIN KAQV 261920Z AUTO 01007KT 340V050 10SM CLR 27/06 A3008 230 26 1700 010/07 340V050 RMK AO2 T02670061
03949KAQV AQV20190426132510804/26/19 13:25:31  5-MIN KAQV 261925Z AUTO VRB05KT 10SM CLR 26/05 A3008 230 25 1600 VRB/05 RMK AO2 T02610050
03949KAQV AQV20190426133012404/26/19 13:30:31  5-MIN KAQV 261930Z AUTO 02007KT 360V060 10SM CLR 27/05 A3008 230 24 1700 020/07 360V060 RMK AO2 T02670050
03949KAQV AQV20190426133510804/26/19 13:35:31  5-MIN KAQV 261935Z AUTO 36006KT 10SM CLR 27/05 A3007 230 24 1700 350/06 RMK AO2 T02670050
03949KAQV AQV20190426134010804/26/19 13:40:31  5-MIN KAQV 261940Z AUTO VRB06KT 10SM CLR 27/05 A3007 230 24 1700 VRB/06 RMK AO2 T02670050
03949KAQV AQV20190426134510804/26/19 13:45:31  5-MIN KAQV 261945Z AUTO 35009KT 10SM CLR 27/04 A3007 240 23 1700 350/09 RMK AO2 T02670044
03949KAQV AQV20190426135011504/26/19 13:50:31  5-MIN KAQV 261950Z AUTO 02007KT 10SM CLR 27/04 A3007 240 23 1700 010/07 RMK AO2 SLP180 T02670044
03949KAQV AQV20190426135511304/26/19 13:55:31  5-MIN KAQV 261955Z AUTO 050067004404/2 27/04 A3007 240 23 1700 050/06 RMK AO2 SLP180 T02670044
03949KAQV AQV20190426140010804/26/19 14:00:31  5-MIN KAQV 262000Z AUTO 03005KT 10SM CLR 27/04 A3007 240 23 1700 030/05 RMK AO2 T02670044
03949KAQV AQV20190426140510804/26/19 14:05:31  5-MIN KAQV 262005Z AUTO 06005KT 10SM CLR 27/06 A3007 240 25 1700 060/05 RMK AO2 T02670056
03949KAQV AQV20190426141015404/26/19 14:10:31  5-MIN KAQV 262010Z AUTO VRB04KT 10SM CLR 27/05 A3007 240 24 1700 VRB/04 RMK AO2 T02CLR 27/06 A3006 250 23 1700 030/06 RMK AO2 T02670044
03949KAQV AQV20190426141510804/26/19 14:15:31  5-MIN KAQV 262015Z AUTO 04006KT 10SM CLR 27/04 A3007 240 23 1700 030/06 RMK AO2 T02670044
03949KAQV AQV20190426142010804/26/19 14:20:31  5-MIN KAQV 262020Z AUTO 03007KT 10SM CLR 27/04 A3007 240 22 1700 020/07 RMK AO2 T02670039
03949KAQV AQV20190426142510804/26/19 14:25:31  5-MIN KAQV 262025Z AUTO VRB04KT 10SM CLR 27/04 A3007 240 23 1700 VRB/04 RMK AO2 T02720044
03949KAQV AQV20190426143010804/26/19 14:30:31  5-MIN KAQV 262030Z AUTO 35005KT 10 5800304/26/19 14:55:31  5-800 350/05 RMK AO2 T02720050
03949KAQV AQV20190426143010804/26/19 14:30:31  5-MIN KAQV 262030Z AUTO 35005KT 10SM CLR 27/05 A3006 250 24 1800 350/05 RMK AO2 T02720050
03949KAQV AQV20190426143510804/26/19 14:35:31  5-MIN KAQV 262035Z AUTO VRB04KT 10SM CLR 27/06 A3006 250 24 1800 VRB/04 RMK AO2 T02720056
03949KAQV AQV20190426144010804/26/19 14:40:31  5-MIN KAQV 262040Z AUTO 34003KT 10SM CLR 27/06 A3006 250 24 1800 340/03 RMK AO2 T02720056
03949KAQV AQV20190426144510804/26/19 14:45:31  5-MIN KAQV 262045Z AUTO VRB05KT 10SM CLR 27/05 A3005 250 24 1800 VRB/05 RMK AO2 T02720050
03949KAQV AQV20190426144515404/26/19 14:45:31  5-MIN KAQV 262045Z AUTO VRB05KT 10SM CLR 27/05 A3005 250 24 1800 VRB/05 RMK AO2 T02720050 24 1800 VRB/04 RMK AO2 SLP174 T02720056 58003
03949KAQV AQV20190426145012104/26/19 14:50:31  5-MIN KAQV 262050Z AUTO VRB04KT 10SM CLR 27/06 A3005 250 24 1800 VRB/04 RMK AO2 SLP174 T02720056 58003
03949KAQV AQV20190426145512104/26/19 14:55:31  5-MIN KAQV 262055Z AUTO 06006KT 10SM CLR 27/04 A3005 250 23 1800 060/06 RMK AO2 SLP174 T02720044 58003
03949KAQV AQV20190426150010804/26/19 15:00:31  5-MIN KAQV 262100Z AUTO 10005KT 10SM CLR 27/04 A3005 260 23 1700 100/05 RMK AO2 T02670044
03949KAQV AQV20190426150512404/26/19 15:05:31  5-MIN KAQV 262105Z AUTO 03007KT 360V060 10SM CLR 27/05 A3005 260 24 1800 030/07 360V060 RMK AO2 T02720050
03949KAQV AQV20190426151010804/26/19 15:10:31  5-MIN KAQV 262110Z AUTO VRB05KT 10SM CLR 27/06 A3005 260 24 1800 VRB/05 RMK AO2 T02720056
03949KAQV AQV20190426151510804/26/19 15:15:31  5-MIN KAQV 262115Z AUTO 01005KT 10SM CLR 27/05 A3005 260 24 1800 010/05 RMK AO2 T02720050
03949KAQV AQV20190426152010804/26/19 15:20:31  5-MIN KAQV 262120Z AUTO 04004KT 10SM CLR 27/05 A3004 260 24 1800 030/04 RMK AO2 T02720050
03949KAQV AQV20190426152510804/26/19 15:25:31  5-MIN KAQV 262125Z AUTO VRB06KT 10SM CLR 27/04 A3004 260 23 1800 VRB/06 RMK AO2 T02720044
03949KAQV AQV20190426153012404/26/19 15:30:31  5-MIN KAQV 262130Z AUTO 05007KT 010V080 10SM CLR 27/04 A3004 270 23 1700 050/07 010V080 RMK AO2 T02670044
03949KAQV AQV20190426153510804/26/19 15:35:31  5-MIN KAQV 262135Z AUTO 36004KT 10SM CLR 27/05 A3004 270 24 1700 360/04 RMK AO2 T02670050
03949KAQV AQV20190426154009804/26/19 15:40:31  5-MIN KAQV 262140Z AUTO 10SM CLR 27/06 A3004 270 25 1800 M /M RMK AO2 T02720061
03949KAQV AQV20190426154509804/26/19 15:45:31  5-MIN KAQV 262145Z AUTO 10SM CLR 27/06 A3004 270 24 1800 M /M RMK AO2 T02720056
03949KAQV AQV20190426155011504/26/19 15:50:31  5-MIN KAQV 262150Z AUTO 04004KT 10SM CLR 27/06 A3004 270 24 1800 030/04 RMK AO2 SLP169 T02720056
03949KAQV AQV20190426155511504/26/19 15:55:31  5-MIN KAQV 262155Z AUTO 00000KT 10SM CLR 27/06 A3004 270 24 1800 000/00 RMK AO2 SLP169 T02720056
03949KAQV AQV20190426160010804/26/19 16:00:31  5-MIN KAQV 262200Z AUTO VRB05KT 10SM CLR 28/06 A3004 270 24 1800 VRB/05 RMK AO2 T02780056
03949KAQV AQV20190426160510804/26/19 16:05:31  5-MIN KAQV 262205Z AUTO 06005KT 10SM CLR 27/05 A3004 270 24 1800 050/05 RMK AO2 T02720050
03949KAQV AQV20190426161010804/26/19 16:10:31  5-MIN KAQV 262210Z AUTO 04005KT 10SM CLR 27/05 A3004 270 24 1700 030/05 RMK AO2 T02670050
03949KAQV AQV20190426161510804/26/19 16:15:31  5-MIN KAQV 262215Z AUTO VRB05KT 10SM CLR 27/05 A3004 270 24 1800 VRB/05 RMK AO2 T02720050
03949KAQV AQV20190426162010804/26/19 16:20:31  5-MIN KAQV 262220Z AUTO 04005KT 10SM CLR 27/05 A3003 270 24 1700 040/05 RMK AO2 T02670050
03949KAQV AQV20190426162510804/26/19 16:25:31  5-MIN KAQV 262225Z AUTO 00000KT 10SM CLR 27/05 A3003 270 24 1800 000/00 RMK AO2 T02720050
03949KAQV AQV20190426163010804/26/19 16:30:31  5-MIN KAQV 262230Z AUTO 00000KT 10SM CLR 27/06 A3003 270 25 1800 000/00 RMK AO2 T02720061
03949KAQV AQV20190426163510804/26/19 16:35:31  5-MIN KAQV 262235Z AUTO VRB03KT 10SM CLR 27/04 A3003 270 23 1700 VRB/03 RMK AO2 T02670044
03949KAQV AQV20190426164010804/26/19 16:40:31  5-MIN KAQV 262240Z AUTO 05005KT 10SM CLR 27/05 A3003 270 24 1700 050/05 RMK AO2 T02670050
03949KAQV AQV20190426164510804/26/19 16:45:31  5-MIN KAQV 262245Z AUTO 00000KT 10SM CLR 26/05 A3003 270 25 1700 000/00 RMK AO2 T02610050
03949KAQV AQV20190426165011504/26/19 16:50:31  5-MIN KAQV 262250Z AUTO 03005KT 10SM CLR 27/06 A3003 270 26 1700 020/05 RMK AO2 SLP167 T02670061
03949KAQV AQV20190426165511504/26/19 16:55:31  5-MIN KAQV 262255Z AUTO VRB04KT 10SM CLR 27/06 A3003 280 25 1700 VRB/04 RMK AO2 SLP167 T02670056
03949KAQV AQV20190426170010804/26/19 17:00:31  5-MIN KAQV 262300Z AUTO VRB04KT 10SM CLR 26/06 A3003 280 27 1700 VRB/04 RMK AO2 T02610061
03949KAQV AQV20190426170510804/26/19 17:05:31  5-MIN KAQV 262305Z AUTO VRB05KT 10SM CLR 26/07 A3003 280 28 1700 VRB/05 RMK AO2 T02610067
03949KAQV AQV20190426171010804/26/19 17:10:31  5-MIN KAQV 262310Z AUTO 07004KT 10SM CLR 26/06 A3003 280 26 1700 060/04 RMK AO2 T02610056
03949KAQV AQV20190426171510804/26/19 17:15:31  5-MIN KAQV 262315Z AUTO 00000KT 10SM CLR 26/05 A3003 280 25 1700 000/00 RMK AO2 T02610050
03949KAQV AQV20190426172010804/26/19 17:20:31  5-MIN KAQV 262320Z AUTO 05004KT 10SM CLR 26/06 A3003 280 27 1700 050/04 RMK AO2 T02610061
03949KAQV AQV20190426172517604/26/19 17:25:31  5-MIN KAQV 262325Z AUTO 03004KT 10SM CLR 26/06 A3003 280 26 1700 030/04 RMK AO2 T02610056UTO 00000KT 10SM CLR 17/13 A3004 270 78 600 000/00 RMK AO2 T01720133
03949KAQV AQV20190426191510704/26/19 19:15:31  5-MIN KAQV 270115Z AUTO 00000KT 10SM CLR 17/14 A3004 270 80 600 000/00 RMK AO2 T01720139
03949KAQV AQV20190426192010704/26/19 19:20:31  5-MIN KAQV 270120Z AUTO 00000KT 10SM CLR 17/13 A3004 270 78 600 000/00 RMK AO2 T01720133
03949KAQV AQV20190426192510704/26/19 19:25:31  5-MIN KAQV 270125Z AUTO 00000KT 10SM CLR 17/13 A3004 270 77 600 000/00 RMK AO2 T01670128
03949KAQV AQV20190426193010704/26/19 19:30:31  5-MIN KAQV 270130Z AUTO 00000KT 10SM CLR 17/13 A3004 260 78 700 000/00 RMK AO2 T01780139
03949KAQV AQV20190426193010704/26/19 19:30:31  5-MIN KAQV 270130Z AUTO 00000KT 10SM CLR 17/13 A3004 260 80 600 000/00 RMK AO2 T01670133
03949KAQV AQV20190426193510704/26/19 19:35:31  5-MIN KAQV 270135Z AUTO 00000KT 10SM CLR 17/13 A3004 260 80 600 000/00 RMK AO2 T01670133
03949KAQV AQV20190426194010704/26/19 19:40:31  5-MIN KAQV 270140Z AUTO 00000KT 10SM CLR 16/13 A3005 260 80 500 000/00 RMK AO2 T01610128
03949KAQV AQV20190426194017504/26/19 19:40:31  5-MIN KAQV 270140Z AUTO 00000KT 10SM CLR 16/13 A300/26/19 19:20:31  5-MIN KAQV 270120Z AUTO 00000KT 10SM CLR 17/13 A3004 270 78 600 000/00 RMK AO2 T01720133
03949KAQV AQV20190426194510704/26/19 19:45:31  5-MIN KAQV 270145Z AUTO 00000KT 10SM CLR 16/13 A3005 260 80 500 000/00 RMK AO2 T01610128
03949KAQV AQV20190426195006604/26/19 19:50:31  5-MIN KAQV 270150Z A00 000/00 RMK AO2 T01670128
03949KAQV AQV20190426195011404/26/19 19:50:31  5-MIN KAQV 270150Z AUTO 00000KT 10SM CLR 16/13 A3005 260 83 400 000/00 RMK AO2 SLP174 T01560128
03949KAQV AQV20190426195511404/26/19 19:55:31  5-MIN KAQV 270155Z AUTO 00000KT 10SM CLR 16/12 A3005 260 80 400 000/00 RMK AO2 SLP174 T01560122
03949KAQV AQV20190426195516504/26/19 19:55:31  5-MIN KAQV 270155Z AUTO 00000KT 10SM CLR 16/12 A3005 260 80 400 000/00 RMK AO2 SLP174 T0156012204/26/19 20:00:31   80 600 000/00 RMK AO2 T01670133
03949KAQV AQV20190426200010704/26/19 20:00:31  5-MIN KAQV 270200Z AUTO 00000KT 10SM CLR 16/12 A3005 260 80 400 000/00 RMK AO2 T01560122
03949KAQV AQV20190426200510704/26/19 20:05:31  5-MIN KAQV 270205Z AUTO 00000KT 10SM CLR 16/13 A3005 260 83 400 000/00 RMK AO2 T01560128
03949KAQV AQV20190426200515704/26/19 20:05:31  5-MIN KAQV 270205Z AUTO 00000KT 10SM CLR 16/13 A3005 260 83 400 000/00 RMK AO2 T0156012804/26/19 20:10:360 80 500 000/00 RMK AO2 T01610128
03949KAQV AQV20190426201010704/26/19 20:10:31  5-MIN KAQV 270210Z AUTO 00000KT 10SM CLR 16/13 A3005 260 83 400 000/00 RMK AO2 T01560128
03949KAQV AQV20190426201510704/26/19 20:15:31  5-MIN KAQV 270215Z AUTO 00000KT 10SM CLR 15/12 A3005 250 83 400 000/00 RMK AO2 T01500122
03949KAQV AQV20190426202010704/26/19 20:20:31  5-MIN KAQV 270220Z AUTO 00000KT 10SM CLR 15/12 A3005 250 83 400 000/00 RMK AO2 T01500122
03949KAQV AQV20190426202510704/26/19 20:25:31  5-MIN KAQV 270225Z AUTO 00000KT 10SM CLR 15/12 A3006 250 83 300 000/00 RMK AO2 T01500122
03949KAQV AQV20190426203010704/26/19 20:30:31  5-MIN KAQV 270230Z AUTO 00000KT 10SM CLR 15/12 A3006 250 83 300 000/00 RMK AO2 T01500122
03949KAQV AQV20190426203510704/26/19 20:35:31  5-MIN KAQV 270235Z AUTO 00000KT 10SM CLR 14/12 A3006 250 86 300 000/00 RMK AO2 T01440122
03949KAQV AQV20190426204010704/26/19 20:40:31  5-MIN KAQV 270240Z AUTO 00000KT 10SM CLR 14/12 A3006 250 86 300 000/00 RMK AO2 T01440122
03949KAQV AQV20190426204510704/26/19 20:45:31  5-MIN KAQV 270245Z AUTO 00000KT 10SM CLR 14/12 A3006 250 86 300 000/00 RMK AO2 T01440122
03949KAQV AQV20190426205012004/26/19 20:50:31  5-MIN KAQV 270250Z AUTO 00000KT 10SM CLR 14/12 A3006 250 86 300 000/00 RMK AO2 SLP178 T01440122 56009
03949KAQV AQV20190426205512004/26/19 20:55:31  5-MIN KAQV 270255Z AUTO 00000KT 10SM CLR 14/12 A3006 240 90 200 000/00 RMK AO2 SLP178 T01390122 56009
03949KAQV AQV20190426210010704/26/19 21:00:31  5-MIN KAQV 270300Z AUTO 00000KT 10SM CLR 14/12 A3006 240 90 200 000/00 RMK AO2 T01390122
03949KAQV AQV20190426210510704/26/19 21:05:31  5-MIN KAQV 270305Z AUTO 00000KT 10SM CLR 14/12 A3007 240 90 200 000/00 RMK AO2 T01390122
03949KAQV AQV20190426211010704/26/19 21:10:31  5-MIN KAQV 270310Z AUTO 00000KT 10SM CLR 14/12 A3006 240 90 200 000/00 RMK AO2 T01390122
03949KAQV AQV20190426211510704/26/19 21:15:31  5-MIN KAQV 270315Z AUTO 00000KT 10SM CLR 14/12 A3007 240 90 200 000/00 RMK AO2 T01390122
03949KAQV AQV20190426212010704/26/19 21:20:31  5-MIN KAQV 270320Z AUTO 00000KT 10SM CLR 14/12 A3007 240 90 200 000/00 RMK AO2 T01390122
03949KAQV AQV20190426212510704/26/19 21:25:31  5-MIN KAQV 270325Z AUTO 00000KT 10SM CLR 14/12 A3007 240 90 200 000/00 RMK AO2 T01390122
03949KAQV AQV20190426213010704/26/19 21:30:31  5-MIN KAQV 270330Z AUTO 00000KT 10SM CLR 13/12 A3007 240 93 100 000/00 RMK AO2 T01330122
03949KAQV AQV20190426213510704/26/19 21:35:31  5-MIN KAQV 270335Z AUTO 00000KT 10SM CLR 13/12 A3007 240 89 100 000/00 RMK AO2 T01330117
03949KAQV AQV20190426214010704/26/19 21:40:31  5-MIN KAQV 270340Z AUTO 00000KT 10SM CLR 13/12 A3007 240 89 100 000/00 RMK AO2 T01330117
03949KAQV AQV20190426214510704/26/19 21:45:31  5-MIN KAQV 270345Z AUTO 00000KT 10SM CLR 13/12 A3006 240 89 100 000/00 RMK AO2 T01330117
03949KAQV AQV20190426215011404/26/19 21:50:31  5-MIN KAQV 270350Z AUTO 00000KT 10SM CLR 13/12 A3006 240 89 100 000/00 RMK AO2 SLP179 T01330117
03949KAQV AQV20190426215511404/26/19 21:55:31  5-MIN KAQV 270355Z AUTO 00000KT 10SM CLR 13/12 A3006 240 89 100 000/00 RMK AO2 SLP179 T01330117
03949KAQV AQV20190426220010704/26/19 22:00:31  5-MIN KAQV 270400Z AUTO 00000KT 10SM CLR 13/12 A3006 240 89 100 000/00 RMK AO2 T01330117
03949KAQV AQV20190426220510704/26/19 22:05:31  5-MIN KAQV 270405Z AUTO 00000KT 10SM CLR 13/12 A3006 240 89 100 000/00 RMK AO2 T01330117
03949KAQV AQV20190426221010704/26/19 22:10:31  5-MIN KAQV 270410Z AUTO 00000KT 10SM CLR 13/12 A3006 250 89 100 000/00 RMK AO2 T01330117
03949KAQV AQV20190426221510704/26/19 22:15:31  5-MIN KAQV 270415Z AUTO 00000KT 10SM CLR 13/12 A3006 250 93 100 000/00 RMK AO2 T01280117
03949KAQV AQV20190426222010704/26/19 22:20:31  5-MIN KAQV 270420Z AUTO 00000KT 10SM CLR 13/11 A3006 240 89 100 000/00 RMK AO2 T01280111
03949KAQV AQV20190426222510704/26/19 22:25:31  5-MIN KAQV 270425Z AUTO 00000KT 10SM CLR 13/12 A3006 240 93 100 000/00 RMK AO2 T01280117
03949KAQV AQV20190426223010704/26/19 22:30:31  5-MIN KAQV 270430Z AUTO 00000KT 10SM CLR 13/12 A3006 250 93 100 000/00 RMK AO2 T01280117
03949KAQV AQV20190426223510704/26/19 22:35:31  5-MIN KAQV 270435Z AUTO 00000KT 10SM CLR 13/11 A3006 250 89 100 000/00 RMK AO2 T01280111
03949KAQV AQV20190426224010704/26/19 22:40:31  5-MIN KAQV 270440Z AUTO 00000KT 10SM CLR 13/11 A3006 250 89 100 000/00 RMK AO2 T01280111
03949KAQV AQV20190426224510704/26/19 22:45:31  5-MIN KAQV 270445Z AUTO 00000KT 10SM CLR 13/11 A3006 250 89 100 000/00 RMK AO2 T01280111
03949KAQV AQV20190426225011404/26/19 22:50:31  5-MIN KAQV 270450Z AUTO 00000KT 10SM CLR 13/11 A3006 250 89 100 000/00 RMK AO2 SLP177 T01280111
03949KAQV AQV20190426225511404/26/19 22:55:31  5-MIN KAQV 270455Z AUTO 00000KT 10SM CLR 13/11 A3006 250 89 100 000/00 RMK AO2 SLP178 T01280111
03949KAQV AQV20190426230010704/26/19 23:00:31  5-MIN KAQV 270500Z AUTO 00000KT 10SM CLR 13/11 A3006 250 89 100 000/00 RMK AO2 T01280111
03949KAQV AQV20190426230510504/26/19 23:05:31  5-MIN KAQV 270505Z AUTO 00000KT 10SM CLR 12/11 A3006 250 93 0 000/00 RMK AO2 T01220111
03949KAQV AQV20190426231010504/26/19 23:10:31  5-MIN KAQV 270510Z AUTO 00000KT 10SM CLR 12/11 A3006 250 93 0 000/00 RMK AO2 T01220111
03949KAQV AQV20190426231510504/26/19 23:15:31  5-MIN KAQV 270515Z AUTO 00000KT 10SM CLR 12/11 A3006 250 89 0 000/00 RMK AO2 T01220106
03949KAQV AQV20190426232010504/26/19 23:20:31  5-MIN KAQV 270520Z AUTO 00000KT 10SM CLR 12/11 A3005 250 93 0 000/00 RMK AO2 T01220111
03949KAQV AQV20190426232510504/26/19 23:25:31  5-MIN KAQV 270525Z AUTO 00000KT 10SM CLR 12/11 A3005 250 89 0 000/00 RMK AO2 T01220106
03949KAQV AQV20190426233010504/26/19 23:30:31  5-MIN KAQV 270530Z AUTO 00000KT 10SM CLR 12/11 A3005 250 89 0 000/00 RMK AO2 T01220106
03949KAQV AQV20190426233510504/26/19 23:35:31  5-MIN KAQV 270535Z AUTO 00000KT 10SM CLR 12/11 A3005 260 93 0 000/00 RMK AO2 T01170106
03949KAQV AQV20190426234010504/26/19 23:40:31  5-MIN KAQV 270540Z AUTO 00000KT 10SM CLR 12/11 A3005 260 89 0 000/00 RMK AO2 T01220106
03949KAQV AQV20190426234510504/26/19 23:45:31  5-MIN KAQV 270545Z AUTO 00000KT 10SM CLR 12/11 A3005 260 89 0 000/00 RMK AO2 T01220106
03949KAQV AQV20190426235014004/26/19 23:50:31  5-MIN KAQV 270550Z AUTO 00000KT 10SM CLR 12/11 A3005 260 93 0 000/00 RMK AO2 SLP174 T01170106 10239 20117 402780117 53012
03949KAQV AQV20190426235514004/26/19 23:55:31  5-MIN KAQV 270555Z AUTO 00000KT 10SM CLR 12/11 A3005 260 93 0 000/00 RMK AO2 SLP173 T01170106 10239 20117 402780117 53012
03949KAQV AQV20190427000010504/27/19 00:00:31  5-MIN KAQV 270600Z AUTO 00000KT 10SM CLR 12/10 A3005 260 89 0 000/00 RMK AO2 T01170100
03949KAQV AQV20190427000510504/27/19 00:05:31  5-MIN KAQV 270605Z AUTO 00000KT 10SM CLR 12/11 A3005 260 93 0 000/00 RMK AO2 T01170106
03949KAQV AQV20190427001010504/27/19 00:10:31  5-MIN KAQV 270610Z AUTO 00000KT 10SM CLR 12/11 A3005 260 93 0 000/00 RMK AO2 T01170106
03949KAQV AQV20190427001510504/27/19 00:15:31  5-MIN KAQV 270615Z AUTO 00000KT 10SM CLR 12/11 A3005 260 93 0 000/00 RMK AO2 T01170106
03949KAQV AQV20190427002010504/27/19 00:20:31  5-MIN KAQV 270620Z AUTO 00000KT 10SM CLR 12/10 A3005 260 89 0 000/00 RMK AO2 T01170100
03949KAQV AQV20190427002510504/27/19 00:25:31  5-MIN KAQV 270625Z AUTO 00000KT 10SM CLR 12/10 A3005 260 89 0 000/00 RMK AO2 T01170100
03949KAQV AQV20190427003010504/27/19 00:30:31  5-MIN KAQV 270630Z AUTO 00000KT 10SM CLR 12/10 A3005 260 89 0 000/00 RMK AO2 T01170100
03949KAQV AQV20190427003510504/27/19 00:35:31  5-MIN KAQV 270635Z AUTO 00000KT 10SM CLR 12/10 A3005 260 89 0 000/00 RMK AO2 T01170100
03949KAQV AQV20190427004010504/27/19 00:40:31  5-MIN KAQV 270640Z AUTO 00000KT 10SM CLR 12/10 A3005 260 89 0 000/00 RMK AO2 T01170100
03949KAQV AQV20190427004510504/27/19 00:45:31  5-MIN KAQV 270645Z AUTO 00000KT 10SM CLR 12/10 A3005 260 89 0 000/00 RMK AO2 T01170100
03949KAQV AQV20190427005011204/27/19 00:50:31  5-MIN KAQV 270650Z AUTO 00000KT 10SM CLR 12/10 A3005 260 89 0 000/00 RMK AO2 SLP173 T01170100
03949KAQV AQV20190427005511204/27/19 00:55:31  5-MIN KAQV 270655Z AUTO 00000KT 10SM CLR 12/10 A3005 260 89 0 000/00 RMK AO2 SLP173 T01170100
03949KAQV AQV20190427010010504/27/19 01:00:31  5-MIN KAQV 270700Z AUTO 00000KT 10SM CLR 12/10 A3004 260 89 0 000/00 RMK AO2 T01170100
03949KAQV AQV20190427010510504/27/19 01:05:31  5-MIN KAQV 270705Z AUTO 00000KT 10SM CLR 11/10 A3004 270 93 0 000/00 RMK AO2 T01110100
03949KAQV AQV20190427011010504/27/19 01:10:31  5-MIN KAQV 270710Z AUTO 00000KT 10SM CLR 11/10 A3004 270 93 0 000/00 RMK AO2 T01110100
03949KAQV AQV20190427011510504/27/19 01:15:31  5-MIN KAQV 270715Z AUTO 00000KT 10SM CLR 11/10 A3004 270 93 0 000/00 RMK AO2 T01110100
03949KAQV AQV20190427012010504/27/19 01:20:31  5-MIN KAQV 270720Z AUTO 00000KT 10SM CLR 11/10 A3004 270 93 0 000/00 RMK AO2 T01110100
03949KAQV AQV20190427012510504/27/19 01:25:31  5-MIN KAQV 270725Z AUTO 00000KT 10SM CLR 11/09 A3004 270 89 0 000/00 RMK AO2 T01110094
03949KAQV AQV20190427013010504/27/19 01:30:31  5-MIN KAQV 270730Z AUTO 00000KT 10SM CLR 11/10 A3003 270 93 0 000/00 RMK AO2 T01110100
03949KAQV AQV20190427013510504/27/19 01:35:31  5-MIN KAQV 270735Z AUTO 00000KT 10SM CLR 11/10 A3003 270 93 0 000/00 RMK AO2 T01110100
03949KAQV AQV20190427014010504/27/19 01:40:31  5-MIN KAQV 270740Z AUTO 00000KT 10SM CLR 12/10 A3003 270 89 0 000/00 RMK AO2 T01170100
03949KAQV AQV20190427014510504/27/19 01:45:31  5-MIN KAQV 270745Z AUTO 00000KT 10SM CLR 12/10 A3003 270 89 0 000/00 RMK AO2 T01170100
03949KAQV AQV20190427015011204/27/19 01:50:31  5-MIN KAQV 270750Z AUTO 00000KT 10SM CLR 11/10 A3003 280 93 0 000/00 RMK AO2 SLP167 T01110100
03949KAQV AQV20190427015511204/27/19 01:55:31  5-MIN KAQV 270755Z AUTO 00000KT 10SM CLR 11/10 A3003 280 93 0 000/00 RMK AO2 SLP167 T01110100
03949KAQV AQV20190427020010504/27/19 02:00:31  5-MIN KAQV 270800Z AUTO 00000KT 10SM CLR 11/10 A3003 280 93 0 000/00 RMK AO2 T01110100
03949KAQV AQV20190427020510504/27/19 02:05:31  5-MIN KAQV 270805Z AUTO 00000KT 10SM CLR 11/09 A3002 280 89 0 000/00 RMK AO2 T01110094
03949KAQV AQV20190427021010504/27/19 02:10:31  5-MIN KAQV 270810Z AUTO 00000KT 10SM CLR 11/09 A3002 280 89 0 000/00 RMK AO2 T01110094
03949KAQV AQV20190427021510504/27/19 02:15:31  5-MIN KAQV 270815Z AUTO 00000KT 10SM CLR 11/09 A3002 290 89 0 000/00 RMK AO2 T01110094
03949KAQV AQV20190427022010804/27/19 02:20:31  5-MIN KAQV 270820Z AUTO 00000KT 10SM CLR 11/09 A3002 290 93 -100 000/00 RMK AO2 T01060094
03949KAQV AQV20190427022510504/27/19 02:25:31  5-MIN KAQV 270825Z AUTO 00000KT 10SM CLR 11/09 A3002 290 89 0 000/00 RMK AO2 T01110094
03949KAQV AQV20190427023010504/27/19 02:30:31  5-MIN KAQV 270830Z AUTO 00000KT 10SM CLR 11/09 A3001 290 89 0 000/00 RMK AO2 T01110094
03949KAQV AQV20190427023510504/27/19 02:35:31  5-MIN KAQV 270835Z AUTO 00000KT 10SM CLR 11/09 A3001 290 89 0 000/00 RMK AO2 T01110094
03949KAQV AQV20190427024010804/27/19 02:40:31  5-MIN KAQV 270840Z AUTO 00000KT 10SM CLR 11/09 A3001 290 93 -100 000/00 RMK AO2 T01060094
03949KAQV AQV20190427024510504/27/19 02:45:31  5-MIN KAQV 270845Z AUTO 00000KT 10SM CLR 11/09 A3001 290 89 0 000/00 RMK AO2 T01110094
03949KAQV AQV20190427025011804/27/19 02:50:31  5-MIN KAQV 270850Z AUTO 00000KT 10SM CLR 11/09 A3001 300 89 0 000/00 RMK AO2 SLP160 T01110094 58005
03949KAQV AQV20190427025512104/27/19 02:55:31  5-MIN KAQV 270855Z AUTO 00000KT 10SM CLR 11/09 A3001 300 93 -100 000/00 RMK AO2 SLP160 T01060094 58005
03949KAQV AQV20190427030010804/27/19 03:00:31  5-MIN KAQV 270900Z AUTO 00000KT 10SM CLR 11/09 A3001 300 93 -100 000/00 RMK AO2 T01060094
03949KAQV AQV20190427030510804/27/19 03:05:31  5-MIN KAQV 270905Z AUTO 00000KT 10SM CLR 11/09 A3000 300 93 -100 000/00 RMK AO2 T01060094
03949KAQV AQV20190427031010804/27/19 03:10:31  5-MIN KAQV 270910Z AUTO 00000KT 10SM CLR 11/09 A3001 300 93 -100 000/00 RMK AO2 T01060094
03949KAQV AQV20190427031510804/27/19 03:15:31  5-MIN KAQV 270915Z AUTO 00000KT 10SM CLR 11/09 A3001 300 93 -100 000/00 RMK AO2 T01060094
03949KAQV AQV20190427032010804/27/19 03:20:31  5-MIN KAQV 270920Z AUTO 00000KT 10SM CLR 11/09 A3001 300 93 -100 000/00 RMK AO2 T01060094
03949KAQV AQV20190427032510804/27/19 03:25:31  5-MIN KAQV 270925Z AUTO 00000KT 10SM CLR 11/09 A3001 300 93 -100 000/00 RMK AO2 T01060094
03949KAQV AQV20190427033010804/27/19 03:30:31  5-MIN KAQV 270930Z AUTO 00000KT 10SM CLR 11/09 A3001 300 89 -100 000/00 RMK AO2 T01060089
03949KAQV AQV20190427033510804/27/19 03:35:31  5-MIN KAQV 270935Z AUTO 00000KT 10SM CLR 11/09 A3001 290 93 -100 000/00 RMK AO2 T01060094
03949KAQV AQV20190427034010804/27/19 03:40:31  5-MIN KAQV 270940Z AUTO 00000KT 10SM CLR 11/09 A3001 290 93 -100 000/00 RMK AO2 T01060094
03949KAQV AQV20190427034510804/27/19 03:45:31  5-MIN KAQV 270945Z AUTO 00000KT 10SM CLR 11/09 A3001 290 93 -100 000/00 RMK AO2 T01060094
03949KAQV AQV20190427035011504/27/19 03:50:31  5-MIN KAQV 270950Z AUTO 00000KT 10SM CLR 11/09 A3001 290 89 -100 000/00 RMK AO2 SLP161 T01060089
03949KAQV AQV20190427035511504/27/19 03:55:31  5-MIN KAQV 270955Z AUTO 00000KT 10SM CLR 10/09 A3001 290 93 -100 000/00 RMK AO2 SLP160 T01000089
03949KAQV AQV20190427040010804/27/19 04:00:31  5-MIN KAQV 271000Z AUTO 00000KT 10SM CLR 10/09 A3001 290 93 -100 000/00 RMK AO2 T01000089
03949KAQV AQV20190427040510804/27/19 04:05:31  5-MIN KAQV 271005Z AUTO 00000KT 10SM CLR 10/09 A3001 290 93 -100 000/00 RMK AO2 T01000089
03949KAQV AQV20190427041010804/27/19 04:10:31  5-MIN KAQV 271010Z AUTO 00000KT 10SM CLR 10/09 A3001 290 93 -100 000/00 RMK AO2 T01000089
03949KAQV AQV20190427041510804/27/19 04:15:31  5-MIN KAQV 271015Z AUTO 00000KT 10SM CLR 10/09 A3001 290 93 -100 000/00 RMK AO2 T01000089
03949KAQV AQV20190427042010804/27/19 04:20:31  5-MIN KAQV 271020Z AUTO 00000KT 10SM CLR 10/09 A3001 290 93 -100 000/00 RMK AO2 T01000089
03949KAQV AQV20190427042510804/27/19 04:25:31  5-MIN KAQV 271025Z AUTO 00000KT 10SM CLR 10/08 A3001 290 89 -100 000/00 RMK AO2 T01000083
03949KAQV AQV20190427043010804/27/19 04:30:31  5-MIN KAQV 271030Z AUTO 00000KT 10SM CLR 10/08 A3001 290 89 -100 000/00 RMK AO2 T01000083
03949KAQV AQV20190427043510804/27/19 04:35:31  5-MIN KAQV 271035Z AUTO 00000KT 10SM CLR 10/08 A3001 290 89 -100 000/00 RMK AO2 T01000083
03949KAQV AQV20190427044010704/27/19 04:40:31  5-MIN KAQV 271040Z AUTO 19003KT 9SM CLR 10/08 A3001 290 89 -100 180/03 RMK AO2 T01000083
03949KAQV AQV20190427044510704/27/19 04:45:31  5-MIN KAQV 271045Z AUTO 00000KT 8SM CLR 10/08 A3001 300 89 -100 000/00 RMK AO2 T01000083
03949KAQV AQV20190427045011404/27/19 04:50:31  5-MIN KAQV 271050Z AUTO 00000KT 8SM CLR 10/08 A3001 300 89 -100 000/00 RMK AO2 SLP159 T01000083
03949KAQV AQV20190427045511404/27/19 04:55:31  5-MIN KAQV 271055Z AUTO 00000KT 9SM CLR 10/08 A3001 300 89 -100 000/00 RMK AO2 SLP159 T01000083
03949KAQV AQV20190427050010804/27/19 05:00:31  5-MIN KAQV 271100Z AUTO 00000KT 10SM CLR 10/08 A3001 290 89 -100 000/00 RMK AO2 T01000083
03949KAQV AQV20190427050510804/27/19 05:05:31  5-MIN KAQV 271105Z AUTO 00000KT 10SM CLR 10/08 A3001 290 89 -100 000/00 RMK AO2 T01000083
03949KAQV AQV20190427051010804/27/19 05:10:31  5-MIN KAQV 271110Z AUTO 00000KT 10SM CLR 10/08 A3001 290 89 -100 000/00 RMK AO2 T01000083
03949KAQV AQV20190427051510804/27/19 05:15:31  5-MIN KAQV 271115Z AUTO 00000KT 10SM CLR 10/08 A3001 290 89 -100 000/00 RMK AO2 T01000083
03949KAQV AQV20190427052010804/27/19 05:20:31  5-MIN KAQV 271120Z AUTO 00000KT 10SM CLR 11/08 A3001 290 86 -100 000/00 RMK AO2 T01060083
03949KAQV AQV20190427052510804/27/19 05:25:31  5-MIN KAQV 271125Z AUTO 00000KT 10SM CLR 11/09 A3001 290 89 -100 000/00 RMK AO2 T01060089
03949KAQV AQV20190427053010804/27/19 05:30:31  5-MIN KAQV 271130Z AUTO 00000KT 10SM CLR 11/09 A3001 290 89 -100 000/00 RMK AO2 T01060089
03949KAQV AQV20190427053510804/27/19 05:35:31  5-MIN KAQV 271135Z AUTO 00000KT 10SM CLR 11/09 A3001 290 89 -100 000/00 RMK AO2 T01060089
03949KAQV AQV20190427054010804/27/19 05:40:31  5-MIN KAQV 271140Z AUTO 00000KT 10SM CLR 11/09 A3001 290 89 -100 000/00 RMK AO2 T01060089
03949KAQV AQV20190427054510804/27/19 05:45:31  5-MIN KAQV 271145Z AUTO 00000KT 10SM CLR 11/09 A3001 290 89 -100 000/00 RMK AO2 T01060089
03949KAQV AQV20190427055013304/27/19 05:50:31  5-MIN KAQV 271150Z AUTO 00000KT 10SM CLR 11/09 A3002 290 89 -100 000/00 RMK AO2 SLP163 T01060089 10117 20100 58014
03949KAQV AQV20190427055513304/27/19 05:55:31  5-MIN KAQV 271155Z AUTO 00000KT 10SM CLR 11/09 A3002 290 93 -100 000/00 RMK AO2 SLP164 T01060094 10117 20100 58014
03949KAQV AQV20190427060010804/27/19 06:00:31  5-MIN KAQV 271200Z AUTO 00000KT 10SM CLR 11/09 A3002 290 93 -100 000/00 RMK AO2 T01060094
03949KAQV AQV20190427060510804/27/19 06:05:31  5-MIN KAQV 271205Z AUTO 00000KT 10SM CLR 11/10 A3002 280 96 -100 000/00 RMK AO2 T01060100
03949KAQV AQV20190427061010504/27/19 06:10:31  5-MIN KAQV 271210Z AUTO 17003KT 10SM CLR 11/10 A3002 280 93 0 170/03 RMK AO2 T01110100
03949KAQV AQV20190427061510504/27/19 06:15:31  5-MIN KAQV 271215Z AUTO 17004KT 10SM CLR 11/09 A3002 280 89 0 170/04 RMK AO2 T01110094
03949KAQV AQV20190427062010504/27/19 06:20:31  5-MIN KAQV 271220Z AUTO 17004KT 10SM CLR 12/09 A3002 280 86 0 170/04 RMK AO2 T01170094
03949KAQV AQV20190427062510704/27/19 06:25:31  5-MIN KAQV 271225Z AUTO 17004KT 10SM CLR 12/09 A3002 280 80 100 170/04 RMK AO2 T01220089
03949KAQV AQV20190427063010704/27/19 06:30:31  5-MIN KAQV 271230Z AUTO 18003KT 10SM CLR 13/09 A3003 280 77 100 180/03 RMK AO2 T01280089
03949KAQV AQV20190427063510704/27/19 06:35:31  5-MIN KAQV 271235Z AUTO 18003KT 10SM CLR 13/09 A3003 280 77 100 170/03 RMK AO2 T01280089
03949KAQV AQV20190427064010704/27/19 06:40:31  5-MIN KAQV 271240Z AUTO 18004KT 10SM CLR 13/09 A3003 280 77 200 180/04 RMK AO2 T01330094
03949KAQV AQV20190427064510704/27/19 06:45:31  5-MIN KAQV 271245Z AUTO 17004KT 10SM CLR 14/09 A3003 280 71 200 170/04 RMK AO2 T01390089
03949KAQV AQV20190427065011404/27/19 06:50:31  5-MIN KAQV 271250Z AUTO 17004KT 10SM CLR 14/09 A3003 280 69 300 170/04 RMK AO2 SLP168 T01440089
03949KAQV AQV20190427065518104/27/19 06:55:31  5-MIN KAQV 271255Z AUTO 17004KT 10SM CLR 14/09 A3003 284/27/19 10:45:31  5-MIN KAQV 271645Z AUTO VRB06KT 10SM CLR 26/11 A3000 310 38 1600 VRB/05 RMK AO2 T02500100
03949KAQV AQV20190427103010804/27/19 10:30:31  5-MIN KAQV 271630Z AUTO VRB05KT 10SM CLR 25/10 A3001 300 38 1600 VRB/05 RMK AO2 T02500100
03949KAQV AQV20190427103509804/27/19 10:35:31  5-MIN KAQV 271635Z AUTO 10SM CLR 25/11 A3000 300 39 1600 M /M RMK AO2 T02500106
03949KAQV AQV20190427104010804/27/19 10:40:31  5-MIN KAQV 271640Z AUTO VRB05KT 10SM CLR 25/11 A3000 300 39 1600 VRB/05 RMK AO2 T02500106
03949KAQV AQV20190427104510804/27/19 10:45:31  5-MIN KAQV 271645Z AUTO VRB06KT 10SM CLR 26/11 A3000 310 40 1600 VRB/06 RMK AO2 T02560111
03949KAQV AQV20190427105013104/27/19 10:50:31  5-MIN KAQV 271650Z AUTO 18007KT 140V210 10SM CLR 26/11 A2999 310 40 1600 180/07 140V210 RMK AO2 SLP155 T02560111
03949KAQV AQV20190427105511504/27/19 10:55:31  5-MIN KAQV 271655Z AUTO VRB05KT 10SM CLR 26/12 A2999 310 41 1600 VRB/05 RMK AO2 SLP154 T02560117
03949KAQV AQV20190427105514904/27/19 10:55:31  5-MIN KAQV 271655Z AUTO VRB05KT 10SM CLR 26/12 A29 5-MIN KAQV 271635Z AUTO 10SM CLR 25/11 A3000 300 39 1600 M /M RMK AO2 T02500106
03949KAQV AQV20190427110010804/27/19 11:00:31  5-MIN KAQV 271700Z AUTO VRB03KT 10SM CLR 26/12 A2999 310 41 1700 VRB/03 RMK AO2 T02610122
03949KAQV AQV20190427110510804/27/19 11:05:31  5-MIN KAQV 271705Z AUTO 21008KT 10SM CLR 26/12 A2999 310 41 1600 200/08 RMK AO2 T02560117
03949KAQV AQV20190427110514204/27/19 11:05:31  5-MIN KAQV 271705Z AUTO 21008KT 10SM CLR AQV 271645Z AUTO VRB06KT 10SM CLR 26/11 A3000 310 40 1600 VRB/06 RMK AO2 T02560111
03949KAQV AQV20190427111010804/27/19 11:10:31  5-MIN KAQV 271710Z AUTO VRB06KT 10SM CLR 25/11 A2999 310 41 1600 VRB/06 RMK AO2 T02500111
03949KAQV AQV20190427111510804/27/19 11:15:31  5-MIN KAQV 271715Z AUTO VRB06KT 10SM CLR 26/12 A2998 320 40 1700 VRB/06 RMK AO2 T02610117
03949KAQV AQV20190427111517204/27/19 11:15:31  5-MIN KAQV 271715Z AUTO VRB06KT 10SM CLR 26/12 A2998 32  5-MIN KAQV 271655Z AUTO VRB05KT 10SM CLR 26/12 A2999 310 41 1600 VRB/05 RMK AO2 SLP154 T02560117
03949KAQV AQV20190427112012404/27/19 11:20:31  5-MIN KAQV 271720Z AUTO 19008KT 140V220 10SM CLR 26/12 A2998 320 41 1700 180/08 140V220 RMK AO2 T02610122
03949KAQV AQV20190427112504604/27/19 11:25:31  5-MIN KAQV 271725Z AUTO0122
03949KAQV AQV20190427112512404/27/19 11:25:31  5-MIN KAQV 271725Z AUTO 19007KT 130V230 10SM CLR 26/12 A2998 320 40 1700 180/07 130V230 RMK AO2 T02610117
03949KAQV AQV20190427113012404/27/19 11:30:31  5-MIN KAQV 271730Z AUTO 19008KT 160V240 10SM CLR 26/12 A2997 330 41 1700 180/08 160V240 RMK AO2 T02560117
03949KAQV AQV20190427113014004/27/19 11:30:31  5-MIN KAQV 271730Z AUTO 19008KT 160V240 10SM CLR 26/12 A2997 330 41 1700 180/08 160V240 RMK AO2 TVRB/06 RMK AO2 T02500111
03949KAQV AQV20190427113510804/27/19 11:35:31  5-MIN KAQV 271735Z AUTO VRB05KT 10SM CLR 27/12 A2997 330 40 1800 VRB/05 RMK AO2 T02670122
03949KAQV AQV20190427114010804/27/19 11:40:31  5-MIN KAQV 271740Z AUTO VRB05KT 10SM CLR 26/12 A2997 330 40 1700 VRB/05 RMK AO2 T02610117
03949KAQV AQV20190427114013804/27/19 11:40:31  5-MIN KAQV 271740Z AUTO VRB05KT 10SM CLR 26/12 A2997 330 40 1700 VRB/05 RMK AO2 T026101170/08 140V220 RMK AO2 T02610122
03949KAQV AQV20190427114512404/27/19 11:45:31  5-MIN KAQV 271745Z AUTO 18008KT 130V210 10SM CLR 26/12 A2996 340 40 1700 170/08 130V210 RMK AO2 T02610117
03949KAQV AQV20190427115013904/27/19 11:50:31  5-MIN KAQV 271750Z AUTO 19008G16KT 10SM CLR 26/11 A2996 340 37 1700 180/08G16 RMK AO2 SLP144 T02610106 10267 20106 58002
03949KAQV AQV20190427115015604/27/19 11:50:31  5-MIN KAQV 271750Z AUTO 19008G16KT 10SM CLR 26/11 A2996 340 37 1700 180/08G16 RMK AO2 SLP144 T02610106 10267 20106 5840 RMK AO2 T02560117
03949KAQV AQV20190427115513904/27/19 11:55:31  5-MIN KAQV 271755Z AUTO VRB06G16KT 10SM CLR 27/12 A2996 340 38 1800 VRB/06G16 RMK AO2 SLP142 T02670117 10267 20106 58002
03949KAQV AQV20190427120010804/27/19 12:00:31  5-MIN KAQV 271800Z AUTO VRB06KT 10SM CLR 27/12 A2995 350 38 1800 VRB/06 RMK AO2 T02670117
03949KAQV AQV20190427120513004/27/19 12:05:31  5-MIN KAQV 271805Z AUTO 18008G15KT 110V230 10SM CLR 26/11 A2995 350 38 1800 180/08G15 110V230 RMK AO2 T02610111
03949KAQV AQV20190427121013004/27/19 12:10:31  5-MIN KAQV 271810Z AUTO 19007G15KT 160V240 10SM CLR 26/11 A2995 350 38 1800 180/07G15 160V240 RMK AO2 T02610111
03949KAQV AQV20190427121509804/27/19 12:15:31  5-MIN KAQV 271815Z AUTO 10SM CLR 27/11 A2995 350 36 1800 M /M RMK AO2 T02670106
03949KAQV AQV20190427121512804/27/19 12:15:31  5-MIN KAQV 271815Z 16KT 10SM CLR 27/12 A2996 340 38 1800 VRB/06G16 RMK AO2 SLP142 T02670117 10267 20106 58002
03949KAQV AQV20190427121515004/27/19 12:15:31  5-MIN KAQV 271815Z AUTO 10SM CLR 27/11 A2995 350 36 1800 M /M RMKMK AO2 T02720106A2994 350 36 1900 160/09 130V200 RMK AO2 T02720111
03949KAQV AQV20190427122012404/27/19 12:20:31  5-MIN KAQV 271820Z AUTO 17009KT 130V200 10SM CLR 27/11 A2994 350 36 1900 160/09 130V200 RMK AO2 T02720111
03949KAQV AQV20190427122511404/27/19 12:25:31  5-MIN KAQV 271825Z AUTO VRB06G17KT 10SM CLR 27/11 A2994 360 34 1900 VRB/06G17 RMK AO2 T02720106
03949KAQV AQV20190427123013004/27/19 12:30:31  5-MIN KAQV 271830Z AUTO 19008G17KT 150V230 10SM CLR 27/11 A2994 360 34 1900 180/08G17 150V230 RMK AO2 T02720106
03949KAQV AQV20190427123015804/27/19 12:30:31  5-MIN KAQV 271830Z AUTO 19008G17KT 150V230 10SM CLR 27/11 A2994 360 34 1900 180/08G17 150V230 RMK AO2 T0272010604/27/19 12:35:31  5-M610111
03949KAQV AQV20190427123513004/27/19 12:35:31  5-MIN KAQV 271835Z AUTO 20007G16KT 170V240 10SM CLR 27/11 A2994 360 34 1900 200/07G16 170V240 RMK AO2 T02720106
03949KAQV AQV20190427124011404/27/19 12:40:31  5-MIN KAQV 271840Z AUTO 18008G16KT 10SM CLR 27/11 A2994 360 36 1800 180/08G16 RMK AO2 T02670106
03949KAQV AQV20190427124511404/27/19 12:45:31  5-MIN KAQV 271845Z AUTO 19008G15KT 10SM CLR 27/11 A2994 360 34 1900 190/08G15 RMK AO2 T02720106
03949KAQV AQV20190427125013704/27/19 12:50:31  5-MIN KAQV 271850Z AUTO 18007G18KT 130V240 10SM CLR 27/10 A2994 360 34 1800 180/07G18 130V240 RMK AO2 SLP137 T02670100
03949KAQV AQV20190427125513704/27/19 12:55:31  5-MIN KAQV 271855Z AUTO 15008G18KT 120V190 10SM CLR 27/11 A2994 360 34 1900 150/08G18 120V190 RMK AO2 SLP137 T02720106
03949KAQV AQV20190427130013004/27/19 13:00:31  5-MIN KAQV 271900Z AUTO 18009G17KT 150V210 10SM CLR 28/11 A2994 360 33 2000 170/09G17 150V210 RMK AO2 T02780106
03949KAQV AQV20190427130511404/27/19 13:05:31  5-MIN KAQV 271905Z AUTO 19009G17KT 10SM CLR 27/11 A2994 360 34 1900 180/09G17 RMK AO2 T02720106
03949KAQV AQV20190427131013004/27/19 13:10:31  5-MIN KAQV 271910Z AUTO 18010G16KT 170V230 10SM CLR 28/11 A2994 360 33 2000 180/10G16 170V230 RMK AO2 T02780106
03949KAQV AQV20190427131513004/27/19 13:15:31  5-MIN KAQV 271915Z AUTO 17007G16KT 160V230 10SM CLR 27/11 A2993 370 34 1900 170/07G16 160V230 RMK AO2 T02720106
03949KAQV AQV20190427132010804/27/19 13:20:31  5-MIN KAQV 271920Z AUTO VRB05KT 10SM CLR 28/12 A2993 370 35 2000 VRB/05 RMK AO2 T02830117
03949KAQV AQV20190427132510804/27/19 13:25:31  5-MIN KAQV 271925Z AUTO VRB06KT 10SM CLR 28/11 A2993 370 35 2000 VRB/06 RMK AO2 T02780111
03949KAQV AQV20190427133010804/27/19 13:30:31  5-MIN KAQV 271930Z AUTO 18007KT 10SM CLR 28/11 A2992 370 33 2000 180/07 RMK AO2 T02780106
03949KAQV AQV20190427133511404/27/19 13:35:31  5-MIN KAQV 271935Z AUTO 18010G15KT 10SM CLR 28/11 A2992 370 33 2000 180/10G15 RMK AO2 T02830111
03949KAQV AQV20190427134011404/27/19 13:40:31  5-MIN KAQV 271940Z AUTO VRB06G15KT 10SM CLR 28/11 A2992 380 33 2000 VRB/06G15 RMK AO2 T02780106
03949KAQV AQV20190427134513004/27/19 13:45:31  5-MIN KAQV 271945Z AUTO 19008G14KT 150V250 10SM CLR 28/11 A2992 380 35 2000 190/08G14 150V250 RMK AO2 T02780111
03949KAQV AQV20190427135012104/27/19 13:50:31  5-MIN KAQV 271950Z AUTO 19006G14KT 10SM CLR 28/11 A2992 380 33 2000 180/06G14 RMK AO2 SLP129 T02780106
03949KAQV AQV20190427135513104/27/19 13:55:31  5-MIN KAQV 271955Z AUTO 18008KT 140V210 10SM CLR 28/11 A2992 380 33 2000 170/08 140V210 RMK AO2 SLP128 T02830111
03949KAQV AQV20190427140009804/27/19 14:00:31  5-MIN KAQV 272000Z AUTO 10SM CLR 28/12 A2991 380 35 2000 M /M RMK AO2 T02830117
03949KAQV AQV20190427140510804/27/19 14:05:31  5-MIN KAQV 272005Z AUTO VRB05KT 10SM CLR 28/12 A2991 380 35 2000 VRB/05 RMK AO2 T02830117
03949KAQV AQV20190427141013004/27/19 14:10:31  5-MIN KAQV 272010Z AUTO 19010G15KT 160V220 10SM CLR 28/11 A2991 380 33 2000 180/10G15 160V220 RMK AO2 T02830111
03949KAQV AQV20190427141513004/27/19 14:15:31  5-MIN KAQV 272015Z AUTO 19007G15KT 170V240 10SM CLR 28/11 A2991 390 35 2000 190/07G15 170V240 RMK AO2 T02780111
03949KAQV AQV20190427142011404/27/19 14:20:31  5-MIN KAQV 272020Z AUTO VRB06G15KT 10SM CLR 28/11 A2991 390 33 2000 VRB/06G15 RMK AO2 T02830111
03949KAQV AQV20190427142511404/27/19 14:25:31  5-MIN KAQV 272025Z AUTO 18008G16KT 10SM CLR 28/11 A2991 390 35 2000 180/08G16 RMK AO2 T02780111
03949KAQV AQV20190427143013004/27/19 14:30:31  5-MIN KAQV 272030Z AUTO 19009G17KT 150V240 10SM CLR 28/11 A2990 390 33 2100 180/09G17 150V240 RMK AO2 T02830111
03949KAQV AQV20190427143513004/27/19 14:35:31  5-MIN KAQV 272035Z AUTO 17011G18KT 100V200 10SM CLR 28/12 A2990 400 35 2100 160/11G18 100V200 RMK AO2 T02830117
03949KAQV AQV20190427144013004/27/19 14:40:31  5-MIN KAQV 272040Z AUTO 20007G18KT 160V240 10SM CLR 28/12 A2990 400 35 2100 190/07G18 160V240 RMK AO2 T02830117
03949KAQV AQV20190427144513004/27/19 14:45:31  5-MIN KAQV 272045Z AUTO 22008G17KT 130V270 10SM CLR 28/11 A2990 400 33 2100 220/08G17 130V270 RMK AO2 T02830111
03949KAQV AQV20190427145014304/27/19 14:50:31  5-MIN KAQV 272050Z AUTO 19009G16KT 140V210 10SM CLR 28/11 A2990 400 33 2100 180/09G16 140V210 RMK AO2 SLP122 T02830111 58020
03949KAQV AQV20190427145514304/27/19 14:55:31  5-MIN KAQV 272055Z AUTO 21007G16KT 180V250 10SM CLR 28/11 A2989 400 33 2100 200/07G16 180V250 RMK AO2 SLP121 T02830111 58020
03949KAQV AQV20190427150013004/27/19 15:00:31  5-MIN KAQV 272100Z AUTO 19009G15KT 160V250 10SM CLR 28/11 A2989 400 33 2100 180/09G15 160V250 RMK AO2 T02830111
03949KAQV AQV20190427150513004/27/19 15:05:31  5-MIN KAQV 272105Z AUTO 22008G15KT 170V270 10SM CLR 28/11 A2989 400 33 2100 210/08G15 170V270 RMK AO2 T02830111
03949KAQV AQV20190427151013004/27/19 15:10:31  5-MIN KAQV 272110Z AUTO 19007G17KT 160V240 10SM CLR 28/12 A2989 410 35 2100 190/07G17 160V240 RMK AO2 T02830117
03949KAQV AQV20190427151511404/27/19 15:15:31  5-MIN KAQV 272115Z AUTO 20009G17KT 10SM CLR 28/12 A2988 410 35 2100 190/09G17 RMK AO2 T02830117
03949KAQV AQV20190427152013004/27/19 15:20:31  5-MIN KAQV 272120Z AUTO 21007G15KT 180V250 10SM CLR 28/12 A2988 410 36 2100 210/07G15 180V250 RMK AO2 T02830122
03949KAQV AQV20190427152512404/27/19 15:25:31  5-MIN KAQV 272125Z AUTO 19007KT 140V240 10SM CLR 28/12 A2988 410 36 2100 190/07 140V240 RMK AO2 T02830122
03949KAQV AQV20190427153012404/27/19 15:30:31  5-MIN KAQV 272130Z AUTO 18007KT 140V220 10SM CLR 28/12 A2988 410 36 2100 180/07 140V220 RMK AO2 T02830122
03949KAQV AQV20190427153513004/27/19 15:35:31  5-MIN KAQV 272135Z AUTO 18007G17KT 130V210 10SM CLR 28/12 A2988 410 37 2000 170/07G17 130V210 RMK AO2 T02780122
03949KAQV AQV20190427154013004/27/19 15:40:31  5-MIN KAQV 272140Z AUTO 17007G17KT 130V200 10SM CLR 28/13 A2988 410 39 2000 160/07G17 130V200 RMK AO2 T02780128
03949KAQV AQV20190427154511404/27/19 15:45:31  5-MIN KAQV 272145Z AUTO 18009G14KT 10SM CLR 28/13 A2988 410 37 2100 180/09G14 RMK AO2 T02830128
03949KAQV AQV20190427155013104/27/19 15:50:31  5-MIN KAQV 272150Z AUTO 18007KT 150V240 10SM CLR 28/13 A2988 410 39 2000 180/07 150V240 RMK AO2 SLP117 T02780128
03949KAQV AQV20190427155511504/27/19 15:55:31  5-MIN KAQV 272155Z AUTO 17008KT 10SM CLR 28/13 A2988 410 37 2100 170/08 RMK AO2 SLP117 T02830128
03949KAQV AQV20190427160010804/27/19 16:00:31  5-MIN KAQV 272200Z AUTO VRB05KT 10SM CLR 28/13 A2989 410 39 2000 VRB/05 RMK AO2 T02780128
03949KAQV AQV20190427160510804/27/19 16:05:31  5-MIN KAQV 272205Z AUTO 18008KT 10SM CLR 28/13 A2989 400 39 2000 180/08 RMK AO2 T02780128
03949KAQV AQV20190427161010804/27/19 16:10:31  5-MIN KAQV 272210Z AUTO VRB06KT 10SM CLR 28/12 A2989 400 37 2000 VRB/06 RMK AO2 T02780122
03949KAQV AQV20190427161510804/27/19 16:15:31  5-MIN KAQV 272215Z AUTO 17006KT 10SM CLR 28/12 A2990 400 37 2000 170/06 RMK AO2 T02780122
03949KAQV AQV20190427162010804/27/19 16:20:31  5-MIN KAQV 272220Z AUTO VRB06KT 10SM CLR 28/12 A2989 400 37 2000 VRB/06 RMK AO2 T02780122
03949KAQV AQV20190427162510804/27/19 16:25:31  5-MIN KAQV 272225Z AUTO VRB06KT 10SM CLR 28/13 A2989 410 39 2000 VRB/06 RMK AO2 T02780128
03949KAQV AQV20190427163010804/27/19 16:30:31  5-MIN KAQV 272230Z AUTO 17007KT 10SM CLR 28/12 A2988 410 37 2000 160/07 RMK AO2 T02780122
03949KAQV AQV20190427163512404/27/19 16:35:31  5-MIN KAQV 272235Z AUTO 20007KT 170V250 10SM CLR 27/12 A2989 410 39 1900 200/07 170V250 RMK AO2 T02720122
03949KAQV AQV20190427164010804/27/19 16:40:31  5-MIN KAQV 272240Z AUTO VRB05KT 10SM CLR 27/12 A2989 400 39 1900 VRB/05 RMK AO2 T02720122
03949KAQV AQV20190427164510804/27/19 16:45:31  5-MIN KAQV 272245Z AUTO 23006KT 10SM CLR 27/12 A2989 400 37 1900 220/06 RMK AO2 T02720117
03949KAQV AQV20190427165011504/27/19 16:50:31  5-MIN KAQV 272250Z AUTO VRB06KT 10SM CLR 27/12 A2989 400 37 1900 VRB/06 RMK AO2 SLP121 T02720117
03949KAQV AQV20190427165511504/27/19 16:55:31  5-MIN KAQV 272255Z AUTO VRB06KT 10SM CLR 27/12 A2989 400 39 1900 VRB/06 RMK AO2 SLP120 T02720122
03949KAQV AQV20190427170010804/27/19 17:00:31  5-MIN KAQV 272300Z AUTO VRB06KT 10SM CLR 27/12 A2989 410 39 1900 VRB/06 RMK AO2 T02720122
03949KAQV AQV20190427170510804/27/19 17:05:31  5-MIN KAQV 272305Z AUTO VRB06KT 10SM CLR 27/12 A2989 400 38 1900 VRB/06 RMK AO2 T02670117
03949KAQV AQV20190427171012404/27/19 17:10:31  5-MIN KAQV 272310Z AUTO 20007KT 150V230 10SM CLR 27/12 A2989 410 38 1900 200/07 150V230 RMK AO2 T02670117
03949KAQV AQV20190427171510804/27/19 17:15:31  5-MIN KAQV 272315Z AUTO VRB06KT 10SM CLR 27/12 A2989 410 40 1900 VRB/06 RMK AO2 T02670122
03949KAQV AQV20190427172010804/27/19 17:20:31  5-MIN KAQV 272320Z AUTO VRB06KT 10SM CLR 27/12 A2989 410 40 1900 VRB/06 RMK AO2 T02670122
03949KAQV AQV20190427172510804/27/19 17:25:31  5-MIN KAQV 272325Z AUTO 19004KT 10SM CLR 26/12 A2989 410 40 1800 180/04 RMK AO2 T02610117
03949KAQV AQV20190427173010804/27/19 17:30:31  5-MIN KAQV 272330Z AUTO VRB06KT 10SM CLR 26/12 A2988 410 40 1800 VRB/06 RMK AO2 T02610117
03949KAQV AQV20190427173510804/27/19 17:35:31  5-MIN KAQV 272335Z AUTO VRB05KT 10SM CLR 26/12 A2988 410 41 1800 VRB/05 RMK AO2 T02610122
03949KAQV AQV20190427174010804/27/19 17:40:31  5-MIN KAQV 272340Z AUTO 17007KT 10SM CLR 26/12 A2988 410 41 1800 170/07 RMK AO2 T02610122
03949KAQV AQV20190427174510804/27/19 17:45:31  5-MIN KAQV 272345Z AUTO VRB05KT 10SM CLR 26/12 A2988 410 43 1800 VRB/05 RMK AO2 T02560122
03949KAQV AQV20190427175013304/27/19 17:50:31  5-MIN KAQV 272350Z AUTO VRB04KT 10SM CLR 26/13 A2988 410 44 1800 VRB/04 RMK AO2 SLP118 T02560128 10283 20256 58021
03949KAQV AQV20190427175513304/27/19 17:55:31  5-MIN KAQV 272355Z AUTO 19005KT 10SM CLR 25/13 A2988 410 46 1700 190/05 RMK AO2 SLP117 T02500128 10283 20250 58021
03949KAQV AQV20190427180010804/27/19 18:00:31  5-MIN KAQV 280000Z AUTO VRB05KT 10SM CLR 25/13 A2988 410 46 1700 VRB/05 RMK AO2 T02500128
03949KAQV AQV20190427180510804/27/19 18:05:31  5-MIN KAQV 280005Z AUTO VRB03KT 10SM CLR 25/13 A2988 410 46 1700 VRB/03 RMK AO2 T02500128
03949KAQV AQV20190427181010804/27/19 18:10:31  5-MIN KAQV 280010Z AUTO VRB05KT 10SM CLR 24/13 A2988 410 47 1600 VRB/05 RMK AO2 T02440128
03949KAQV AQV20190427181509804/27/19 18:15:31  5-MIN KAQV 280015Z AUTO 10SM CLR 24/13 A2988 410 49 1600 M /M RMK AO2 T02440133
03949KAQV AQV20190427182010804/27/19 18:20:31  5-MIN KAQV 280020Z AUTO 17005KT 10SM CLR 24/13 A2988 420 49 1600 170/05 RMK AO2 T02440133
03949KAQV AQV20190427182510804/27/19 18:25:31  5-MIN KAQV 280025Z AUTO 17004KT 10SM CLR 24/13 A2988 420 51 1600 170/04 RMK AO2 T02390133
03949KAQV AQV20190427183010804/27/19 18:30:31  5-MIN KAQV 280030Z AUTO 18003KT 10SM CLR 23/14 A2988 410 55 1500 180/03 RMK AO2 T02330139
03949KAQV AQV20190427183510804/27/19 18:35:31  5-MIN KAQV 280035Z AUTO 18003KT 10SM CLR 23/14 A2988 410 55 1500 170/03 RMK AO2 T02330139
03949KAQV AQV20190427184010804/27/19 18:40:31  5-MIN KAQV 280040Z AUTO 17004KT 10SM CLR 23/14 A2988 420 59 1500 170/04 RMK AO2 T02280144
03949KAQV AQV20190427184510804/27/19 18:45:31  5-MIN KAQV 280045Z AUTO 17005KT 10SM CLR 22/14 A2988 420 61 1400 170/05 RMK AO2 T02220144
03949KAQV AQV20190427185011504/27/19 18:50:31  5-MIN KAQV 280050Z AUTO 18004KT 10SM CLR 22/14 A2988 410 61 1400 170/04 RMK AO2 SLP116 T02220144
03949KAQV AQV20190427185511504/27/19 18:55:31  5-MIN KAQV 280055Z AUTO VRB04KT 10SM CLR 22/14 A2988 410 61 1400 VRB/04 RMK AO2 SLP117 T02220144
03949KAQV AQV20190427190010804/27/19 19:00:31  5-MIN KAQV 280100Z AUTO VRB04KT 10SM CLR 22/14 A2988 410 63 1300 VRB/04 RMK AO2 T02170144
03949KAQV AQV20190427190510804/27/19 19:05:31  5-MIN KAQV 280105Z AUTO 18003KT 10SM CLR 22/14 A2989 410 63 1300 180/03 RMK AO2 T02170144
03949KAQV AQV20190427191010804/27/19 19:10:31  5-MIN KAQV 280110Z AUTO 17003KT 10SM CLR 21/14 A2989 410 65 1300 170/03 RMK AO2 T02110144
03949KAQV AQV20190427191510804/27/19 19:15:31  5-MIN KAQV 280115Z AUTO 17004KT 10SM CLR 21/14 A2989 410 65 1300 170/04 RMK AO2 T02110144
03949KAQV AQV20190427192010804/27/19 19:20:31  5-MIN KAQV 280120Z AUTO 18004KT 10SM CLR 21/14 A2989 400 65 1300 180/04 RMK AO2 T02110144
03949KAQV AQV20190427192510804/27/19 19:25:31  5-MIN KAQV 280125Z AUTO VRB04KT 10SM CLR 21/14 A2989 410 67 1200 VRB/04 RMK AO2 T02060144
03949KAQV AQV20190427193010804/27/19 19:30:31  5-MIN KAQV 280130Z AUTO 17004KT 10SM CLR 21/14 A2989 400 67 1200 170/04 RMK AO2 T02060144
03949KAQV AQV20190427193510804/27/19 19:35:31  5-MIN KAQV 280135Z AUTO 18004KT 10SM CLR 21/14 A2989 400 67 1200 180/04 RMK AO2 T02060144
03949KAQV AQV20190427194010804/27/19 19:40:31  5-MIN KAQV 280140Z AUTO 17004KT 10SM CLR 21/14 A2990 400 67 1200 170/04 RMK AO2 T02060144
03949KAQV AQV20190427194510804/27/19 19:45:31  5-MIN KAQV 280145Z AUTO 17005KT 10SM CLR 21/14 A2989 400 67 1200 170/05 RMK AO2 T02060144
03949KAQV AQV20190427195011504/27/19 19:50:31  5-MIN KAQV 280150Z AUTO 18006KT 10SM CLR 21/14 A2989 400 67 1200 170/06 RMK AO2 SLP120 T02060144
03949KAQV AQV20190427195511504/27/19 19:55:31  5-MIN KAQV 280155Z AUTO 18004KT 10SM CLR 20/14 A2989 400 70 1100 180/04 RMK AO2 SLP121 T02000144
03949KAQV AQV20190427200010804/27/19 20:00:31  5-MIN KAQV 280200Z AUTO 18004KT 10SM CLR 20/14 A2989 400 70 1100 170/04 RMK AO2 T02000144
03949KAQV AQV20190427200510804/27/19 20:05:31  5-MIN KAQV 280205Z AUTO 18005KT 10SM CLR 20/14 A2990 400 67 1100 180/05 RMK AO2 T02000139
03949KAQV AQV20190427201010804/27/19 20:10:31  5-MIN KAQV 280210Z AUTO 18005KT 10SM CLR 20/14 A2990 400 67 1100 180/05 RMK AO2 T02000139
03949KAQV AQV20190427201510804/27/19 20:15:31  5-MIN KAQV 280215Z AUTO VRB04KT 10SM CLR 20/14 A2991 390 67 1100 VRB/04 RMK AO2 T02000139
03949KAQV AQV20190427202010804/27/19 20:20:31  5-MIN KAQV 280220Z AUTO 18005KT 10SM CLR 20/14 A2991 390 67 1100 170/05 RMK AO2 T02000139
03949KAQV AQV20190427202510804/27/19 20:25:31  5-MIN KAQV 280225Z AUTO VRB04KT 10SM CLR 20/14 A2991 380 67 1100 VRB/04 RMK AO2 T02000139
03949KAQV AQV20190427203010804/27/19 20:30:31  5-MIN KAQV 280230Z AUTO 18005KT 10SM CLR 20/14 A2991 380 67 1100 170/05 RMK AO2 T02000139
03949KAQV AQV20190427203510804/27/19 20:35:31  5-MIN KAQV 280235Z AUTO VRB04KT 10SM CLR 19/14 A2992 380 70 1000 VRB/04 RMK AO2 T01940139
03949KAQV AQV20190427204010804/27/19 20:40:31  5-MIN KAQV 280240Z AUTO 18004KT 10SM CLR 19/14 A2992 380 70 1000 180/04 RMK AO2 T01940139
03949KAQV AQV20190427204510804/27/19 20:45:31  5-MIN KAQV 280245Z AUTO 18005KT 10SM CLR 19/14 A2992 380 70 1000 170/05 RMK AO2 T01940139
03949KAQV AQV20190427205012104/27/19 20:50:31  5-MIN KAQV 280250Z AUTO 18003KT 10SM CLR 19/14 A2992 380 70 1000 180/03 RMK AO2 SLP130 T01940139 56004
03949KAQV AQV20190427205512104/27/19 20:55:31  5-MIN KAQV 280255Z AUTO 18003KT 10SM CLR 19/14 A2992 380 72 1000 180/03 RMK AO2 SLP129 T01890139 56004
03949KAQV AQV20190427210010804/27/19 21:00:31  5-MIN KAQV 280300Z AUTO VRB03KT 10SM CLR 19/14 A2992 380 72 1000 VRB/03 RMK AO2 T01890139
03949KAQV AQV20190427210510804/27/19 21:05:31  5-MIN KAQV 280305Z AUTO 00000KT 10SM CLR 19/14 A2992 380 72 1000 000/00 RMK AO2 T01890139
03949KAQV AQV20190427211010804/27/19 21:10:31  5-MIN KAQV 280310Z AUTO 00000KT 10SM CLR 19/14 A2992 370 72 1000 000/00 RMK AO2 T01890139
03949KAQV AQV20190427211510704/27/19 21:15:31  5-MIN KAQV 280315Z AUTO 00000KT 10SM CLR 18/14 A2993 370 75 900 000/00 RMK AO2 T01830139
03949KAQV AQV20190427212010704/27/19 21:20:31  5-MIN KAQV 280320Z AUTO 00000KT 10SM CLR 18/14 A2993 370 75 900 000/00 RMK AO2 T01830139
03949KAQV AQV20190427212510704/27/19 21:25:31  5-MIN KAQV 280325Z AUTO 00000KT 10SM CLR 18/14 A2994 360 75 900 000/00 RMK AO2 T01830139
03949KAQV AQV20190427213010704/27/19 21:30:31  5-MIN KAQV 280330Z AUTO 00000KT 10SM CLR 18/14 A2994 360 75 900 000/00 RMK AO2 T01830139
03949KAQV AQV20190427213510704/27/19 21:35:31  5-MIN KAQV 280335Z AUTO 00000KT 10SM CLR 18/14 A2994 360 78 800 000/00 RMK AO2 T01780139
03949KAQV AQV20190427214010704/27/19 21:40:31  5-MIN KAQV 280340Z AUTO 00000KT 10SM CLR 17/14 A2994 360 80 700 000/00 RMK AO2 T01720139
03949KAQV AQV20190427214510704/27/19 21:45:31  5-MIN KAQV 280345Z AUTO 00000KT 10SM CLR 17/14 A2994 360 80 700 000/00 RMK AO2 T01720139
03949KAQV AQV20190427215011404/27/19 21:50:31  5-MIN KAQV 280350Z AUTO 00000KT 10SM CLR 17/14 A2994 360 83 700 000/00 RMK AO2 SLP137 T01670139
03949KAQV AQV20190427215511404/27/19 21:55:31  5-MIN KAQV 280355Z AUTO 00000KT 10SM CLR 17/14 A2994 360 83 700 000/00 RMK AO2 SLP136 T01670139
03949KAQV AQV20190427220010704/27/19 22:00:31  5-MIN KAQV 280400Z AUTO 00000KT 10SM CLR 17/14 A2994 360 83 700 000/00 RMK AO2 T01670139
03949KAQV AQV20190427220510704/27/19 22:05:31  5-MIN KAQV 280405Z AUTO 00000KT 10SM CLR 16/14 A2994 360 86 600 000/00 RMK AO2 T01610139
03949KAQV AQV20190427221010704/27/19 22:10:31  5-MIN KAQV 280410Z AUTO 00000KT 10SM CLR 16/14 A2994 360 86 600 000/00 RMK AO2 T01610139
03949KAQV AQV20190427221510704/27/19 22:15:31  5-MIN KAQV 280415Z AUTO 00000KT 10SM CLR 16/13 A2994 360 86 600 000/00 RMK AO2 T01560133
03949KAQV AQV20190427222010704/27/19 22:20:31  5-MIN KAQV 280420Z AUTO 00000KT 10SM CLR 16/14 A2994 360 90 600 000/00 RMK AO2 T01560139
03949KAQV AQV20190427222510704/27/19 22:25:31  5-MIN KAQV 280425Z AUTO 00000KT 10SM CLR 16/14 A2993 360 90 600 000/00 RMK AO2 T01560139
03949KAQV AQV20190427223010704/27/19 22:30:31  5-MIN KAQV 280430Z AUTO 00000KT 10SM CLR 16/14 A2994 360 86 600 000/00 RMK AO2 T01610139
03949KAQV AQV20190427223510704/27/19 22:35:31  5-MIN KAQV 280435Z AUTO 00000KT 10SM CLR 16/13 A2994 360 86 600 000/00 RMK AO2 T01560133
03949KAQV AQV20190427224010704/27/19 22:40:31  5-MIN KAQV 280440Z AUTO 00000KT 10SM CLR 16/13 A2994 360 83 600 000/00 RMK AO2 T01610133
03949KAQV AQV20190427224510704/27/19 22:45:31  5-MIN KAQV 280445Z AUTO 00000KT 10SM CLR 16/14 A2994 360 86 600 000/00 RMK AO2 T01610139
03949KAQV AQV20190427225011404/27/19 22:50:31  5-MIN KAQV 280450Z AUTO 00000KT 10SM CLR 16/14 A2994 360 90 500 000/00 RMK AO2 SLP137 T01560139
03949KAQV AQV20190427225511404/27/19 22:55:31  5-MIN KAQV 280455Z AUTO 00000KT 10SM CLR 16/14 A2994 360 90 500 000/00 RMK AO2 SLP137 T01560139
03949KAQV AQV20190427230010704/27/19 23:00:31  5-MIN KAQV 280500Z AUTO 00000KT 10SM CLR 16/13 A2994 360 86 500 000/00 RMK AO2 T01560133
03949KAQV AQV20190427230510704/27/19 23:05:31  5-MIN KAQV 280505Z AUTO 00000KT 10SM CLR 16/13 A2994 350 86 500 000/00 RMK AO2 T01560133
03949KAQV AQV20190427231010704/27/19 23:10:31  5-MIN KAQV 280510Z AUTO 00000KT 10SM CLR 16/13 A2995 350 86 500 000/00 RMK AO2 T01560133
03949KAQV AQV20190427231510704/27/19 23:15:31  5-MIN KAQV 280515Z AUTO 00000KT 10SM CLR 16/13 A2995 350 86 500 000/00 RMK AO2 T01560133
03949KAQV AQV20190427232010704/27/19 23:20:31  5-MIN KAQV 280520Z AUTO VRB03KT 10SM CLR 16/13 A2995 350 86 500 VRB/03 RMK AO2 T01560133
03949KAQV AQV20190427232510704/27/19 23:25:31  5-MIN KAQV 280525Z AUTO 00000KT 10SM CLR 16/13 A2995 350 83 600 000/00 RMK AO2 T01610133
03949KAQV AQV20190427233010704/27/19 23:30:31  5-MIN KAQV 280530Z AUTO VRB03KT 10SM CLR 16/13 A2995 350 83 600 VRB/03 RMK AO2 T01610133
03949KAQV AQV20190427233510704/27/19 23:35:31  5-MIN KAQV 280535Z AUTO 18003KT 10SM CLR 16/13 A2995 350 86 500 180/03 RMK AO2 T01560133
03949KAQV AQV20190427234010704/27/19 23:40:31  5-MIN KAQV 280540Z AUTO 18004KT 10SM CLR 16/13 A2994 350 83 600 170/04 RMK AO2 T01610133
03949KAQV AQV20190427234510704/27/19 23:45:31  5-MIN KAQV 280545Z AUTO 19005KT 10SM CLR 16/13 A2994 360 83 600 180/05 RMK AO2 T01610133
03949KAQV AQV20190427235014204/27/19 23:50:31  5-MIN KAQV 280550Z AUTO 19003KT 10SM CLR 16/13 A2995 350 83 600 180/03 RMK AO2 SLP137 T01610133 10250 20156 402830100 53012
03949KAQV AQV20190427235514204/27/19 23:55:31  5-MIN KAQV 280555Z AUTO 20003KT 10SM CLR 16/13 A2995 350 83 600 200/03 RMK AO2 SLP139 T01610133 10250 20156 402830100 53012
03949KAQV AQV20190428000010704/28/19 00:00:31  5-MIN KAQV 280600Z AUTO 00000KT 10SM CLR 16/13 A2995 350 83 600 000/00 RMK AO2 T01610133
03949KAQV AQV20190428000510704/28/19 00:05:31  5-MIN KAQV 280605Z AUTO 19003KT 10SM CLR 16/13 A2995 350 83 600 180/03 RMK AO2 T01610133
03949KAQV AQV20190428001010704/28/19 00:10:31  5-MIN KAQV 280610Z AUTO 00000KT 10SM CLR 16/13 A2995 350 83 600 000/00 RMK AO2 T01610133
03949KAQV AQV20190428001510704/28/19 00:15:31  5-MIN KAQV 280615Z AUTO 00000KT 10SM CLR 17/13 A2995 350 80 700 000/00 RMK AO2 T01670133
03949KAQV AQV20190428002010704/28/19 00:20:31  5-MIN KAQV 280620Z AUTO VRB03KT 10SM CLR 17/13 A2995 350 80 700 VRB/03 RMK AO2 T01670133
03949KAQV AQV20190428002510704/28/19 00:25:31  5-MIN KAQV 280625Z AUTO 19003KT 10SM CLR 17/13 A2995 350 80 700 190/03 RMK AO2 T01670133
03949KAQV AQV20190428003010704/28/19 00:30:31  5-MIN KAQV 280630Z AUTO 00000KT 10SM CLR 17/13 A2995 350 80 700 000/00 RMK AO2 T01670133
03949KAQV AQV20190428003510704/28/19 00:35:31  5-MIN KAQV 280635Z AUTO VRB03KT 10SM CLR 16/13 A2995 350 83 600 VRB/03 RMK AO2 T01610133
03949KAQV AQV20190428004010704/28/19 00:40:31  5-MIN KAQV 280640Z AUTO VRB03KT 10SM CLR 17/13 A2995 350 80 700 VRB/03 RMK AO2 T01670133
03949KAQV AQV20190428004510704/28/19 00:45:31  5-MIN KAQV 280645Z AUTO 20003KT 10SM CLR 17/13 A2995 350 80 700 190/03 RMK AO2 T01670133
03949KAQV AQV20190428005011404/28/19 00:50:31  5-MIN KAQV 280650Z AUTO VRB04KT 10SM CLR 17/13 A2994 360 80 700 VRB/04 RMK AO2 SLP136 T01670133
03949KAQV AQV20190428005511404/28/19 00:55:31  5-MIN KAQV 280655Z AUTO 00000KT 10SM CLR 17/13 A2994 360 80 700 000/00 RMK AO2 SLP136 T01670133
03949KAQV AQV20190428010010704/28/19 01:00:31  5-MIN KAQV 280700Z AUTO 19003KT 10SM CLR 16/13 A2994 360 83 600 190/03 RMK AO2 T01610133
03949KAQV AQV20190428010510704/28/19 01:05:31  5-MIN KAQV 280705Z AUTO 19003KT 10SM CLR 16/13 A2994 360 83 600 180/03 RMK AO2 T01610133
03949KAQV AQV20190428011010704/28/19 01:10:31  5-MIN KAQV 280710Z AUTO VRB03KT 10SM CLR 16/13 A2994 360 83 600 VRB/03 RMK AO2 T01610133
03949KAQV AQV20190428011510704/28/19 01:15:31  5-MIN KAQV 280715Z AUTO 00000KT 10SM CLR 16/13 A2994 360 83 600 000/00 RMK AO2 T01610133
03949KAQV AQV20190428012010704/28/19 01:20:31  5-MIN KAQV 280720Z AUTO 00000KT 10SM CLR 17/13 A2994 350 80 700 000/00 RMK AO2 T01670133
03949KAQV AQV20190428012510704/28/19 01:25:31  5-MIN KAQV 280725Z AUTO 00000KT 10SM CLR 17/13 A2995 350 80 700 000/00 RMK AO2 T01670133
03949KAQV AQV20190428013010704/28/19 01:30:31  5-MIN KAQV 280730Z AUTO 00000KT 10SM CLR 16/13 A2995 350 83 600 000/00 RMK AO2 T01610133
03949KAQV AQV20190428013510704/28/19 01:35:31  5-MIN KAQV 280735Z AUTO VRB03KT 10SM CLR 16/13 A2995 350 83 600 VRB/03 RMK AO2 T01610133
03949KAQV AQV20190428014010704/28/19 01:40:31  5-MIN KAQV 280740Z AUTO 00000KT 10SM CLR 16/13 A2995 350 83 600 000/00 RMK AO2 T01610133
03949KAQV AQV20190428014510704/28/19 01:45:31  5-MIN KAQV 280745Z AUTO 00000KT 10SM CLR 16/13 A2995 350 83 600 000/00 RMK AO2 T01610133
03949KAQV AQV20190428015011404/28/19 01:50:31  5-MIN KAQV 280750Z AUTO 00000KT 10SM CLR 16/13 A2995 350 86 500 000/00 RMK AO2 SLP138 T01560133
03949KAQV AQV20190428015511404/28/19 01:55:31  5-MIN KAQV 280755Z AUTO 00000KT 10SM CLR 16/13 A2994 360 86 500 000/00 RMK AO2 SLP137 T01560133
03949KAQV AQV20190428020010704/28/19 02:00:31  5-MIN KAQV 280800Z AUTO 00000KT 10SM CLR 16/13 A2994 350 86 500 000/00 RMK AO2 T01560133
03949KAQV AQV20190428020510704/28/19 02:05:31  5-MIN KAQV 280805Z AUTO 00000KT 10SM CLR 16/13 A2994 360 86 500 000/00 RMK AO2 T01560133
03949KAQV AQV20190428021010704/28/19 02:10:31  5-MIN KAQV 280810Z AUTO 00000KT 10SM CLR 16/13 A2994 360 86 500 000/00 RMK AO2 T01560133
03949KAQV AQV20190428021510704/28/19 02:15:31  5-MIN KAQV 280815Z AUTO 00000KT 10SM CLR 16/13 A2994 360 86 500 000/00 RMK AO2 T01560133
03949KAQV AQV20190428022010704/28/19 02:20:31  5-MIN KAQV 280820Z AUTO 00000KT 10SM CLR 16/13 A2994 350 86 500 000/00 RMK AO2 T01560133
03949KAQV AQV20190428022510704/28/19 02:25:31  5-MIN KAQV 280825Z AUTO 00000KT 10SM CLR 15/13 A2995 350 90 500 000/00 RMK AO2 T01500133
03949KAQV AQV20190428023010704/28/19 02:30:31  5-MIN KAQV 280830Z AUTO 00000KT 10SM CLR 15/13 A2995 350 90 500 000/00 RMK AO2 T01500133
03949KAQV AQV20190428023510704/28/19 02:35:31  5-MIN KAQV 280835Z AUTO 00000KT 10SM CLR 15/13 A2995 350 90 500 000/00 RMK AO2 T01500133
03949KAQV AQV20190428024006704/28/19 02:40:31  5-MIN KAQV 280840Z AUTO 00000K RMK AO2 T01500133
03949KAQV AQV20190428030510704/28/19 03:05:31  5-MIN KAQV 280905Z AUTO 00000KT 10SM CLR 15/13 A2996 340 90 500 000/00 RMK AO2 T01500133
03949KAQV AQV20190428031010704/28/19 03:10:31  5-MIN KAQV 280910Z AUTO 00000KT 10SM CLR 14/13 A2996 340 93 400 000/00 RMK AO2 T01440133
03949KAQV AQV20190428031510604/28/19 03:15:31  5-MIN KAQV 280915Z AUTO 00000KT 8SM CLR 14/13 A2996 340 93 400 000/00 RMK AO2 T01440133
03949KAQV AQV20190428032010604/28/19 03:20:31  5-MIN KAQV 280920Z AUTO 00000KT 7SM CLR 14/13 A2996 340 93 300 000/00 RMK AO2 T01390128
03949KAQV AQV20190428032514904/28/19 03:25:31  5-MIN KAQV 280925Z AUTO 00000KT 8SM CLR 14/13 A2995 340 93 300 000/00 RMK AO24/13 A2996 340 93 300 000/00 RMK AO2 SLP141 T01390128
03949KAQV AQV20190428035511304/28/19 03:55:31  5-MIN KAQV 280955Z AUTO 00000KT 7SM CLR 14/13 A2996 340 93 300 000/00 RMK AO2 SLP142 T01390128
03949KAQV AQV20190428040010604/28/19 04:00:31  5-MIN KAQV 281000Z AUTO 00000KT 7SM CLR 14/13 A2996 340 93 300 000/00 RMK AO2 T01390128
03949KAQV AQV20190428040510904/28/19 04:05:31  5-MIN KAQV 281005Z AUTO 00000KT 6SM BR CLR 14/13 A2996 340 93 300 000/00 RMK AO2 T01390128
03949KAQV AQV20190428041010904/28/19 04:10:31  5-MIN KAQV 281010Z AUTO 00000KT 6SM BR CLR 14/13 A2996 340 93 300 000/00 RMK AO2 T01390128
03949KAQV AQV20190428041516004/28/19 04:15:31  5-MIN KAQV 281015Z AUTO 00000KT 5SM BR CLR 13/13 A2996 340 QV 281040Z AUTO 00000KT 4SM BR CLR 13/12 A2995 350 93 300 000/00 RMK AO2 T01330122
03949KAQV AQV20190428044510904/28/19 04:45:31  5-MIN KAQV 281045Z AUTO 00000KT 4SM BR CLR 13/12 A2995 350 93 300 000/00 RMK AO2 T01330122
03949KAQV AQV20190428045011604/28/19 04:50:31  5-MIN KAQV 281050Z AUTO 00000KT 4SM BR CLR 13/12 A2995 350 93 300 000/00 RMK AO2 SLP139 T01330122
03949KAQV AQV20190428045511604/28/19 04:55:31  5-MIN KAQV 281055Z AUTO 00000KT 4SM BR CLR 13/12 A2995 350 93 300 000/00 RMK AO2 SLP139 T01330122
03949KAQV AQV20190428050016004/28/19 05:00:31  5-MIN KAQV 281100Z AUTO 00000KT 5SM BR CLR 13/12 A2995 350 93 300 000/00 RMK AO2 T013M BR CLR 13/13 A2995 350 96 300 000/00 RMK AO2 T01330128
03949KAQV AQV20190428053010904/28/19 05:30:31  5-MIN KAQV 281130Z AUTO 00000KT 6SM BR CLR 14/13 A2996 340 93 300 000/00 RMK AO2 T01390128
03949KAQV AQV20190428053510904/28/19 05:35:31  5-MIN KAQV 281135Z AUTO 00000KT 6SM BR CLR 14/13 A2996 340 93 300 000/00 RMK AO2 T01390128
03949KAQV AQV20190428054010904/28/19 05:40:31  5-MIN KAQV 281140Z AUTO 00000KT 6SM BR CLR 14/13 A2996 340 93 300 000/00 RMK AO2 T01390128
03949KAQV AQV20190428054510904/28/19 05:45:31  5-MIN KAQV 281145Z AUTO 00000KT 5SM BR CLR 14/13 A2996 340 93 300 000/00 RMK AO2 T01390128
03949KAQV AQV20190428055010004/28/19 05:50:31  5-MIN KAQV 281150Z AUTO 00000KT 5SM BR CLR 14/330 96 400 000/00 RMK AO2 T01440139
03949KAQV AQV20190428061510904/28/19 06:15:31  5-MIN KAQV 281215Z AUTO 00000KT 5SM BR CLR 15/14 A2997 330 93 400 000/00 RMK AO2 T01500139
03949KAQV AQV20190428062010904/28/19 06:20:31  5-MIN KAQV 281220Z AUTO 15004KT 6SM BR CLR 15/14 A2996 340 93 500 150/04 RMK AO2 T01500139
03949KAQV AQV20190428062510604/28/19 06:25:31  5-MIN KAQV 281225Z AUTO 16004KT 8SM CLR 16/14 A2996 340 93 500 160/04 RMK AO2 T01560144
03949KAQV AQV20190428063010704/28/19 06:30:31  5-MIN KAQV 281230Z AUTO 00000KT 10SM CLR 16/14 A2997 330 90 500 000/00 RMK AO2 T01560139
03949KAQV AQV20190428063505504/28/19 06:35:31  5-MIN KAQV 281235Z AUTO VRB03KT 10SM
03949KAQV AQV20190428070011404/28/19 07:00:31  5-MIN KAQV 281300Z AUTO 28003KT 10SM CLR 17/14 A2999 310 83 700 280/03 RMK AO2 PRESRR T01720144
03949KAQV AQV20190428070511404/28/19 07:05:31  5-MIN KAQV 281305Z AUTO VRB03KT 10SM CLR 18/15 A3000 300 83 700 VRB/03 RMK AO2 PRESRR T01780150
03949KAQV AQV20190428071011404/28/19 07:10:31  5-MIN KAQV 281310Z AUTO VRB03KT 10SM CLR 18/15 A3001 290 81 800 VRB/03 RMK AO2 PRESRR T01830150
03949KAQV AQV20190428071510704/28/19 07:15:31  5-MIN KAQV 281315Z AUTO VRB04KT 10SM CLR 18/15 A3001 290 81 800 VRB/04 RMK AO2 T01830150
03949KAQV AQV20190428072015204/28/19 07:20:31  5-MIN KAQV 281320Z AUTO VRB03KT 10SM CLR 19/15 A3001 290 7845Z AUTO VRB04KT 10SM CLR 21/16 A3002 290 73 1000 VRB/04 RMK AO2 T02060156
03949KAQV AQV20190428075011504/28/19 07:50:31  5-MIN KAQV 281350Z AUTO VRB04KT 10SM CLR 20/15 A3001 290 72 1000 VRB/04 RMK AO2 SLP161 T02000150
03949KAQV AQV20190428075511404/28/19 07:55:31  5-MIN KAQV 281355Z AUTO VRB03KT 10SM CLR 19/15 A3001 290 75 900 VRB/03 RMK AO2 SLP161 T01940150
03949KAQV AQV20190428080010704/28/19 08:00:31  5-MIN KAQV 281400Z AUTO 00000KT 10SM CLR 19/15 A3001 290 75 900 000/00 RMK AO2 T01940150
03949KAQV AQV20190428080515204/28/19 08:05:31  5-MIN KAQV 281405Z AUTO 18003KT 10SM CLR 20/15 A3001 290 72 1000 170/03 RMK AO2 T0200015004/28/19 00 73 1000 000/00 RMK AO2 T02060156
03949KAQV AQV20190428083510804/28/19 08:35:31  5-MIN KAQV 281435Z AUTO 27003KT 10SM CLR 21/16 A3002 280 73 1000 270/03 RMK AO2 T02060156
03949KAQV AQV20190428084010804/28/19 08:40:31  5-MIN KAQV 281440Z AUTO VRB03KT 10SM CLR 21/16 A3002 280 73 1000 VRB/03 RMK AO2 T02060156
03949KAQV AQV20190428084510804/28/19 08:45:31  5-MIN KAQV 281445Z AUTO VRB03KT 10SM CLR 21/16 A3003 280 73 1000 VRB/03 RMK AO2 T02060156
03949KAQV AQV20190428085012104/28/19 08:50:31  5-MIN KAQV 281450Z AUTO 00000KT 10SM CLR 21/16 A3002 280 73 1000 000/00 RMK AO2 SLP165 T02060156 53002
03949KAQV AQV20190428085505904/28/19 08:55:31  5-MIN KAQV 281455Z AUTO VRB04KT 10SM CL6
03949KAQV AQV20190428092011104/28/19 09:20:31  5-MIN KAQV 281520Z AUTO VRB03KT 10SM FEW023 23/16 A3003 280 63 1300 VRB/03 RMK AO2 T02280156
03949KAQV AQV20190428092511104/28/19 09:25:31  5-MIN KAQV 281525Z AUTO VRB05KT 10SM FEW023 23/16 A3003 280 63 1300 VRB/05 RMK AO2 T02280156
03949KAQV AQV20190428093011104/28/19 09:30:31  5-MIN KAQV 281530Z AUTO VRB05KT 10SM FEW023 22/16 A3003 280 65 1200 VRB/05 RMK AO2 T02220156
03949KAQV AQV20190428093511104/28/19 09:35:31  5-MIN KAQV 281535Z AUTO VRB04KT 10SM FEW024 23/15 A3003 280 61 1300 VRB/04 RMK AO2 T02280150
03949KAQV AQV20190428094010404/28/19 09:40:31  5-MIN KAQV 281540Z AUTO 24007KT 210V280 10SM FEW024  59 1400 VRB/03 RMK AO2 T02390156
03949KAQV AQV20190428101011104/28/19 10:10:31  5-MIN KAQV 281610Z AUTO 18005KT 10SM FEW029 24/16 A3002 280 59 1400 180/05 RMK AO2 T02390156
03949KAQV AQV20190428101511104/28/19 10:15:31  5-MIN KAQV 281615Z AUTO 22004KT 10SM FEW029 24/16 A3002 280 57 1500 210/04 RMK AO2 T02440156
03949KAQV AQV20190428102011104/28/19 10:20:31  5-MIN KAQV 281620Z AUTO VRB04KT 10SM FEW031 24/16 A3003 280 57 1500 VRB/04 RMK AO2 T02440156
03949KAQV AQV20190428102517904/28/19 10:25:31  5-MIN KAQV 281625Z AUTO VRB03KT 10SM SCT031 24/15 A3002 280 55 1500 VRB/03 RMK AO2 T024B04KT 10SM FEW031 25/15 A3001 290 53 1600 VRB/04 RMK AO2 SLP162 T02500150
03949KAQV AQV20190428105511804/28/19 10:55:31  5-MIN KAQV 281655Z AUTO VRB04KT 10SM FEW034 25/15 A3002 290 53 1500 VRB/04 RMK AO2 SLP163 T02500150
03949KAQV AQV20190428110011104/28/19 11:00:31  5-MIN KAQV 281700Z AUTO VRB05KT 10SM FEW034 26/15 A3002 290 51 1600 VRB/05 RMK AO2 T02560150
03949KAQV AQV20190428110511104/28/19 11:05:31  5-MIN KAQV 281705Z AUTO 00000KT 10SM FEW036 25/15 A3002 290 53 1500 000/00 RMK AO2 T02500150
03949KAQV AQV20190428113010804/28/19 11:30:31  5-MIN KAQV 281730Z AUTO VRB03KT 10SM CLR 26/14 A3001 290 49 1600 VRB/03 RMK AO2 T02560144
03949KAQV AQV20190428113510804/28/19 11:35:31  5-MIN KAQV 281735Z AUTO VRB03KT 10SM CLR 26/15 A3001 290 50 1700 VRB/03 RMK AO2 T02610150
03949KAQV AQV20190428114010804/28/19 11:40:31  5-MIN KAQV 281740Z AUTO VRB04KT 10SM CLR 26/15 A3001 300 51 1600 VRB/04 RMK AO2 T02560150
03949KAQV AQV20190428114510804/28/19 11:45:31  5-MIN KAQV 281745Z AUTO 16006KT 10SM CLR 26/15 A3001 300 51 1600 160/06 RMK AO2 T02560150
03949KAQV AQV20190428115013304/28/19 11:50:31  5-MIN KAQV 281750Z AUTO VRB03KT 10SM CLR 25/14 A3000 300 51 1600 VRB/03 RMK AO2 SLP158 T02500144 10261 20139 53019
03949KAQV AQV20190428115512304/28/19 11:55:31  5-MIN KAQV 281755Z AUTO 10SM CLR 26/15 A3000 300 50 1700 M /M RMK AO2 SLP156 T02610150 10261 20139 53019
03949KAQV AQV20190428120010804/28/19 12:00:31  5-MIN KAQV 281800Z AUTO VRB05KT 10SM CLR 26/15 A3000 310 50 1700 VRB/05 RMK AO2 T02610150
03949KAQV AQV20190428120510804/28/19 12:05:31  5-MIN KAQV 281805Z AUTO 19005KT 10SM CLR 26/15 A2999 310 50 1700 190/05 RMK AO2 T02610150
03949KAQV AQV20190428121010804/28/19 12:10:31  5-MIN KAQV 281810Z AUTO VRB03KT 10SM CLR 26/14 A2999 310 49 1600 VRB/03 RMK AO2 T02560144
03949KAQV AQV20190428121510804/28/19 12:15:31  5-MIN KAQV 281815Z AUTO 17006KT 10SM CLR 26/14 A2999 310 46 1700 160/06 RMK AO2 T02610139
03949KAQV AQV20190428122010804/28/19 12:20:31  5-MIN KAQV 281820Z AUTO VRB04KT 10SM CLR 26/14 A2999 310 46 1700 VRB/04 RMK AO2 T02610139
03949KAQV AQV20190428122510804/28/19 12:25:31  5-MIN KAQV 281825Z AUTO VRB05KT 10SM CLR 26/14 A2999 310 46 1700 VRB/05 RMK AO2 T02610139
03949KAQV AQV20190428123010804/28/19 12:30:31  5-MIN KAQV 281830Z AUTO VRB06KT 10SM CLR 26/14 A2998 320 48 1700 VRB/06 RMK AO2 T02610144
03949KAQV AQV20190428123510804/28/19 12:35:31  5-MIN KAQV 281835Z AUTO VRB06KT 10SM CLR 27/14 A2998 320 46 1800 VRB/06 RMK AO2 T02670144
03949KAQV AQV20190428124012404/28/19 12:40:31  5-MIN KAQV 281840Z AUTO 16007KT 120V180 10SM CLR 27/14 A2998 320 46 1800 160/07 120V180 RMK AO2 T02670144
03949KAQV AQV20190428124510804/28/19 12:45:31  5-MIN KAQV 281845Z AUTO VRB05KT 10SM CLR 27/15 A2998 320 48 1800 VRB/05 RMK AO2 T02670150
03949KAQV AQV20190428125011504/28/19 12:50:31  5-MIN KAQV 281850Z AUTO VRB04KT 10SM CLR 27/14 A2998 320 46 1800 VRB/04 RMK AO2 SLP149 T02670144
03949KAQV AQV20190428125511504/28/19 12:55:31  5-MIN KAQV 281855Z AUTO VRB06KT 10SM CLR 27/14 A2997 330 46 1800 VRB/06 RMK AO2 SLP147 T02670144
03949KAQV AQV20190428130010804/28/19 13:00:31  5-MIN KAQV 281900Z AUTO VRB05KT 10SM CLR 27/14 A2997 330 45 1900 VRB/05 RMK AO2 T02720144
03949KAQV AQV20190428130510804/28/19 13:05:31  5-MIN KAQV 281905Z AUTO VRB05KT 10SM CLR 27/14 A2997 330 45 1900 VRB/05 RMK AO2 T02720144
03949KAQV AQV20190428131010804/28/19 13:10:31  5-MIN KAQV 281910Z AUTO 18008KT 10SM CLR 27/14 A2997 330 45 1900 170/08 RMK AO2 T02720144
03949KAQV AQV20190428131510804/28/19 13:15:31  5-MIN KAQV 281915Z AUTO VRB03KT 10SM CLR 27/14 A2997 330 43 1900 VRB/03 RMK AO2 T02720139
03949KAQV AQV20190428132009804/28/19 13:20:31  5-MIN KAQV 281920Z AUTO 10SM CLR 27/14 A2997 330 43 1900 M /M RMK AO2 T02720139
03949KAQV AQV20190428132511104/28/19 13:25:31  5-MIN KAQV 281925Z AUTO VRB03KT 10SM FEW046 27/14 A2997 330 45 1900 VRB/03 R
03949KAQV AQV20190428211510704/28/19 21:15:31  5-MIN KAQV 290315Z AUTO VRB03KT 10SM CLR 19/14 A2998 320 75 900 VRB/03 RMK AO2 T01890144
03949KAQV AQV20190428212010704/28/19 21:20:31  5-MIN KAQV 290320Z AUTO 00000KT 10SM CLR 19/15 A2998 320 78 900 000/00 RMK AO2 T01890150
03949KAQV AQV20190428212510704/28/19 21:25:31  5-MIN KAQV 290325Z AUTO 16003KT 10SM CLR 18/15 A2998 320 81 800 150/03 RMK AO2 T01830150
03949KAQV AQV20190428213010704/28/19 21:30:31  5-MIN KAQV 290330Z AUTO 16003KT 10SM CLR 18/15 A2998 320 83 800 160/03 RMK AO2 T01780150
03949KAQV AQV20190428213510704/28/19 21:35:31  5-MIN KAQV 290335Z AUTO 17003KT 10SM CLR 18/14 A2998 320 81 800 170/03 RMK AO2 T01780144
03949KAQV AQV20190428214010704/28/19 21:40:31  5-MIN KAQV 290340Z AUTO 17003KT 10SM CLR 18/14 A2998 320 81 800 160/03 RMK AO2 T01780144
03949KAQV AQV20190428214510704/28/19 21:45:31  5-MIN KAQV 290345Z AUTO 00000KT 10SM CLR 18/15 A2998 320 83 800 000/00 RMK AO2 T01780150
03949KAQV AQV20190428215011404/28/19 21:50:31  5-MIN KAQV 290350Z AUTO 00000KT 10SM CLR 18/15 A2998 320 83 800 000/00 RMK AO2 SLP152 T01780150
03949KAQV AQV20190428215511404/28/19 21:55:31  5-MIN KAQV 290355Z AUTO 00000KT 10SM CLR 17/15 A2999 320 87 700 000/00 RMK AO2 SLP152 T01720150
03949KAQV AQV20190428220010704/28/19 22:00:31  5-MIN KAQV 290400Z AUTO 17003KT 10SM CLR 17/14 A2998 320 83 700 160/03 RMK AO2 T01720144
03949KAQV AQV20190428220510704/28/19 22:05:31  5-MIN KAQV 290405Z AUTO 17003KT 10SM CLR 17/14 A2998 320 83 700 160/03 RMK AO2 T01720144
03949KAQV AQV20190428221010704/28/19 22:10:31  5-MIN KAQV 290410Z AUTO 17004KT 10SM CLR 17/15 A2998 320 87 700 170/04 RMK AO2 T01720150
03949KAQV AQV20190428221510704/28/19 22:15:31  5-MIN KAQV 290415Z AUTO 17004KT 10SM CLR 18/14 A2998 320 81 800 170/04 RMK AO2 T01780144
03949KAQV AQV20190428222010704/28/19 22:20:31  5-MIN KAQV 290420Z AUTO 17005KT 10SM CLR 18/14 A2998 320 81 800 170/05 RMK AO2 T01780144
03949KAQV AQV20190428222510704/28/19 22:25:31  5-MIN KAQV 290425Z AUTO 18004KT 10SM CLR 18/14 A2998 320 81 800 170/04 RMK AO2 T01780144
03949KAQV AQV20190428223010704/28/19 22:30:31  5-MIN KAQV 290430Z AUTO 18004KT 10SM CLR 18/14 A2998 320 81 800 170/04 RMK AO2 T01780144
03949KAQV AQV20190428223510704/28/19 22:35:31  5-MIN KAQV 290435Z AUTO 17005KT 10SM CLR 18/14 A2998 320 81 800 170/05 RMK AO2 T01780144
03949KAQV AQV20190428224010704/28/19 22:40:31  5-MIN KAQV 290440Z AUTO 18005KT 10SM CLR 18/14 A2998 320 81 800 170/05 RMK AO2 T01780144
03949KAQV AQV20190428224510704/28/19 22:45:31  5-MIN KAQV 290445Z AUTO 18005KT 10SM CLR 17/14 A2998 320 83 700 170/05 RMK AO2 T01720144
03949KAQV AQV20190428225011404/28/19 22:50:31  5-MIN KAQV 290450Z AUTO 18004KT 10SM CLR 18/14 A2998 320 81 800 180/04 RMK AO2 SLP148 T01780144
03949KAQV AQV20190428225511404/28/19 22:55:31  5-MIN KAQV 290455Z AUTO 18004KT 10SM CLR 17/14 A2998 320 83 700 170/04 RMK AO2 SLP148 T01720144
03949KAQV AQV20190428230010704/28/19 23:00:31  5-MIN KAQV 290500Z AUTO 18004KT 10SM CLR 17/14 A2998 320 83 700 170/04 RMK AO2 T01720144
03949KAQV AQV20190428230510704/28/19 23:05:31  5-MIN KAQV 290505Z AUTO 18003KT 10SM CLR 17/14 A2998 320 83 700 180/03 RMK AO2 T01720144
03949KAQV AQV20190428231010704/28/19 23:10:31  5-MIN KAQV 290510Z AUTO 18004KT 10SM CLR 17/14 A2998 320 83 700 170/04 RMK AO2 T01720144
03949KAQV AQV20190428231510704/28/19 23:15:31  5-MIN KAQV 290515Z AUTO 18005KT 10SM CLR 17/14 A2997 330 83 700 170/05 RMK AO2 T01720144
03949KAQV AQV20190428232010704/28/19 23:20:31  5-MIN KAQV 290520Z AUTO 17004KT 10SM CLR 17/14 A2997 330 83 700 170/04 RMK AO2 T01720144
03949KAQV AQV20190428232510704/28/19 23:25:31  5-MIN KAQV 290525Z AUTO VRB03KT 10SM CLR 17/14 A2998 330 83 700 VRB/03 RMK AO2 T01720144
03949KAQV AQV20190428233010704/28/19 23:30:31  5-MIN KAQV 290530Z AUTO 17005KT 10SM CLR 17/14 A2998 320 83 700 170/05 RMK AO2 T01720144
03949KAQV AQV20190428233510704/28/19 23:35:31  5-MIN KAQV 290535Z AUTO 17003KT 10SM CLR 17/14 A2998 320 83 700 170/03 RMK AO2 T01720144
03949KAQV AQV20190428234010704/28/19 23:40:31  5-MIN KAQV 290540Z AUTO 17004KT 10SM CLR 17/14 A2998 320 83 700 170/04 RMK A
03949KAQV AQV20190429081511104/29/19 08:15:31  5-MIN KAQV 291415Z AUTO VRB06KT 10SM OVC009 22/19 A3002 280 84 1200 VRB/06 RMK AO2 T02220194
03949KAQV AQV20190429082011104/29/19 08:20:31  5-MIN KAQV 291420Z AUTO VRB03KT 10SM OVC009 22/19 A3002 280 84 1200 VRB/03 RMK AO2 T02220194
03949KAQV AQV20190429082512304/29/19 08:25:31  5-MIN KAQV 291425Z AUTO VRB05KT 10SM OVC009 22/19 A3002 280 84 1200 VRB/05 RMK AO2 CIG 008V013 T02220194
03949KAQV AQV20190429083012304/29/19 08:30:31  5-MIN KAQV 291430Z AUTO VRB06KT 10SM OVC009 22/19 A3002 280 84 1200 VRB/06 RMK AO2 CIG 009V012 T02220194
03949KAQV AQV20190429083512304/29/19 08:35:31  5-MIN KAQV 291435Z AUTO 17008KT 10SM OVC010 22/19 A3002 280 84 1200 160/08 RMK AO2 CIG 009V012 T02220194
03949KAQV AQV20190429084011104/29/19 08:40:31  5-MIN KAQV 291440Z AUTO 16005KT 10SM OVC010 22/19 A3002 280 84 1200 160/05 RMK AO2 T02220194
03949KAQV AQV20190429084511104/29/19 08:45:31  5-MIN KAQV 291445Z AUTO 17007KT 10SM OVC010 22/19 A3002 280 84 1200 170/07 RMK AO2 T02220194
03949KAQV AQV20190429085012404/29/19 08:50:31  5-MIN KAQV 291450Z AUTO VRB03KT 10SM OVC010 22/19 A3002 280 84 1200 VRB/03 RMK AO2 SLP164 T02220194 53009
03949KAQV AQV20190429085514004/29/19 08:55:31  5-MIN KAQV 291455Z AUTO 16007KT 130V200 10SM OVC011 22/19 A3002 280 84 1200 160/07 130V200 RMK AO2 SLP163 T02220194 53009
03949KAQV AQV20190429090011104/29/19 09:00:31  5-MIN KAQV 291500Z AUTO 17006KT 10SM OVC011 23/19 A3002 280 81 1300 170/06 RMK AO2 T02280194
03949KAQV AQV20190429090511104/29/19 09:05:31  5-MIN KAQV 291505Z AUTO VRB06KT 10SM OVC011 23/19 A3002 280 81 1300 VRB/06 RMK AO2 T02280194
03949KAQV AQV20190429091011804/29/19 09:10:31  5-MIN KAQV 291510Z AUTO 18007KT 10SM BKN013 OVC020 23/20 A3002 280 81 1400 180/07 RMK AO2 T02330200
03949KAQV AQV20190429091511804/29/19 09:15:31  5-MIN KAQV 291515Z AUTO 17007KT 10SM BKN013 OVC018 23/20 A3002 280 81 1400 160/07 RMK AO2 T02330200
03949KAQV AQV20190429092011804/29/19 09:20:31  5-MIN KAQV 291520Z AUTO VRB06KT 10SM BKN013 OVC018 23/20 A3002 280 81 1400 VRB/06 RMK AO2 T02330200
03949KAQV AQV20190429092511804/29/19 09:25:31  5-MIN KAQV 291525Z AUTO VRB06KT 10SM BKN013 OVC021 24/20 A3002 280 78 1400 VRB/06 RMK AO2 T02390200
03949KAQV AQV20190429093011804/29/19 09:30:31  5-MIN KAQV 291530Z AUTO 18005KT 10SM BKN013 OVC021 24/20 A3002 280 76 1500 180/05 RMK AO2 T02440200
03949KAQV AQV20190429093512504/29/19 09:35:31  5-MIN KAQV 291535Z AUTO VRB05KT 10SM SCT013 BKN017 OVC023 24/20 A3002 280 76 1500 VRB/05 RMK AO2 T02440200
03949KAQV AQV20190429094011804/29/19 09:40:31  5-MIN KAQV 291540Z AUTO VRB05KT 10SM BKN017 OVC023 24/20 A3002 280 76 1500 VRB/05 RMK AO2 T02440200
03949KAQV AQV20190429094514104/29/19 09:45:31  5-MIN KAQV 291545Z AUTO 17008KT 130V210 10SM SCT015 BKN022 OVC029 24/20 A3002 280 76 1500 170/08 130V210 RMK AO2 T02440200
03949KAQV AQV20190429095012504/29/19 09:50:31  5-MIN KAQV 291550Z AUTO VRB05KT 10SM BKN017 OVC027 24/20 A3002 280 76 1500 VRB/05 RMK AO2 SLP165 T02440200
03949KAQV AQV20190429095511504/29/19 09:55:31  5-MIN KAQV 291555Z AUTO 10SM BKN017 OVC026 25/20 A3003 280 73 1500 M /M RMK AO2 SLP165 T02500200
03949KAQV AQV20190429100012504/29/19 10:00:31  5-MIN KAQV 291600Z AUTO VRB06KT 10SM BKN017 BKN024 OVC028 25/20 A3002 280 73 1500 VRB/06 RMK AO2 T02500200
03949KAQV AQV20190429100511804/29/19 10:05:31  5-MIN KAQV 291605Z AUTO VRB06KT 10SM BKN017 OVC026 25/20 A3002 280 73 1500 VRB/06 RMK AO2 T02500200
03949KAQV AQV20190429101014104/29/19 10:10:31  5-MIN KAQV 291610Z AUTO 16009KT 110V190 10SM SCT017 BKN023 OVC038 25/20 A3002 280 73 1500 160/09 110V190 RMK AO2 T02500200
03949KAQV AQV20190429101513104/29/19 10:15:31  5-MIN KAQV 291615Z AUTO 18009G16KT 10SM SCT019 BKN025 OVC031 25/20 A3002 280 73 1500 180/09G16 RMK AO2 T02500200
03949KAQV AQV20190429102014704/29/19 10:20:31  5-MIN KAQV 291620Z AUTO 18007G16KT 160V230 10SM BKN019 BKN027 OVC032 25/20 A3002 280 73 1500 180/07G16 160V230 RMK AO2 T02500200
03949KAQV AQV20190429102514704/29/19 10:25:31  5-MIN KAQV 291625Z AUTO 17010G17KT 130V200 10SM SCT019 BKN027 BKN038 27/20 A3002 280 66 1700 170/10G17 130V200 RMK AO2 T02670200
03949KAQV AQV20190429103013104/29/19 10:30:31  5-MIN KAQV 291630Z AUTO 15009G17KT 10SM SCT021 BKN028 BKN038 26/20 A3002 290 71 1600 150/09G17 RMK AO2 T02560200
03949KAQV AQV20190429103512504/29/19 10:35:31  5-MIN KAQV 291635Z AUTO 16007KT 10SM SCT021 BKN028 BKN042 27/20 A3002 290 66 1700 150/07 RMK AO2 T02670200
03949KAQV AQV20190429104014704/29/19 10:40:31  5-MIN KAQV 291640Z AUTO 16009G17KT 110V190 10SM SCT021 BKN028 BKN040 27/20 A3002 290 66 1700 150/09G17 110V190 RMK AO2 T02670200
03949KAQV AQV20190429104514704/29/19 10:45:31  5-MIN KAQV 291645Z AUTO 16007G17KT 060V230 10SM SCT023 SCT035 BKN042 27/20 A3002 290 66 1700 160/07G17 060V230 RMK AO2 T02670200
03949KAQV AQV20190429105015404/29/19 10:50:31  5-MIN KAQV 291650Z AUTO 17008G17KT 120V180 10SM FEW023 SCT028 BKN041 26/19 A3001 290 66 1700 160/08G17 120V180 RMK AO2 SLP161 T02610194
03949KAQV AQV20190429105515404/29/19 10:55:31  5-MIN KAQV 291655Z AUTO 19007G17KT 160V230 10SM FEW022 SCT028 BKN038 26/20 A3001 290 68 1700 180/07G17 160V230 RMK AO2 SLP160 T02610200
03949KAQV AQV20190429110014104/29/19 11:00:31  5-MIN KAQV 291700Z AUTO 19008KT 170V230 10SM FEW022 SCT033 BKN041 27/20 A3001 290 64 1800 190/08 170V230 RMK AO2 T02720200
03949KAQV AQV20190429110512504/29/19 11:05:31  5-MIN KAQV 291705Z AUTO 18006KT 10SM FEW022 SCT027 BKN038 27/20 A3001 300 66 1700 170/06 RMK AO2 T02670200
03949KAQV AQV20190429111012504/29/19 11:10:31  5-MIN KAQV 291710Z AUTO 18005KT 10SM FEW024 BKN031 BKN042 27/21 A3001 300 66 1800 180/05 RMK AO2 T02720206
03949KAQV AQV20190429111512504/29/19 11:15:31  5-MIN KAQV 291715Z AUTO VRB05KT 10SM FEW024 SCT029 BKN039 28/21 A3001 300 64 1900 VRB/05 RMK AO2 T02780206
03949KAQV AQV20190429112011804/29/19 11:20:31  5-MIN KAQV 291720Z AUTO VRB05KT 10SM SCT027 OVC039 27/20 A3001 300 64 1800 VRB/05 RMK AO2 T02720200
03949KAQV AQV20190429112514104/29/19 11:25:31  5-MIN KAQV 291725Z AUTO 19008KT 140V210 10SM BKN027 BKN033 OVC041 26/20 A3001 300 68 1700 180/08 140V210 RMK AO2 T02610200
03949KAQV AQV20190429113012504/29/19 11:30:31  5-MIN KAQV 291730Z AUTO VRB06KT 10SM BKN026 BKN033 BKN046 27/20 A3001 300 64 1800 VRB/06 RMK AO2 T02720200
03949KAQV AQV20190429113512504/29/19 11:35:31  5-MIN KAQV 291735Z AUTO 18007KT 10SM SCT026 BKN033 BKN046 27/20 A3000 300 64 1800 180/07 RMK AO2 T02720200
03949KAQV AQV20190429114013104/29/19 11:40:31  5-MIN KAQV 291740Z AUTO 18009G15KT 10SM SCT026 BKN033 OVC048 28/20 A3000 300 62 1900 180/09G15 RMK AO2 T02780200
03949KAQV AQV20190429114514704/29/19 11:45:31  5-MIN KAQV 291745Z AUTO 19008G17KT 160V230 10SM SCT026 BKN033 BKN048 28/20 A3000 300 60 1900 190/08G17 160V230 RMK AO2 T02830200
03949KAQV AQV20190429115015604/29/19 11:50:31  5-MIN KAQV 291750Z AUTO VRB06G17KT 10SM SCT026 SCT035 BKN048 28/20 A3000 300 60 1900 VRB/06G17 RMK AO2 SLP156 T02830200 10283 20200 51013
03949KAQV AQV20190429115516504/29/19 11:55:31  5-MIN KAQV 291755Z AUTO 17007G16KT 120V230 10SM FEW029 BKN048 29/21 A3000 310 60 2000 170/07G16 120V230 RMK AO2 SLP155 T02890206 10289 20200 51013
03949KAQV AQV20190429120014004/29/19 12:00:31  5-MIN KAQV 291800Z AUTO 18007G17KT 140V220 10SM SCT030 BKN050 28/20 A3000 300 60 1900 170/07G17 140V220 RMK AO2 T02830200
03949KAQV AQV20190429120512404/29/19 12:05:31  5-MIN KAQV 291805Z AUTO 16007G17KT 10SM FEW030 BKN050 29/20 A3000 300 58 2000 160/07G17 RMK AO2 T02890200
03949KAQV AQV20190429121012404/29/19 12:10:31  5-MIN KAQV 291810Z AUTO 17011G19KT 10SM FEW030 BKN050 29/20 A3000 300 58 2000 170/11G19 RMK AO2 T02890200
03949KAQV AQV20190429121512404/29/19 12:15:31  5-MIN KAQV 291815Z AUTO VRB06G19KT 10SM FEW030 BKN050 29/21 A3000 310 58 2100 VRB/06G19 RMK AO2 T02940206
03949KAQV AQV20190429122014104/29/19 12:20:31  5-MIN KAQV 291820Z AUTO 17007KT 130V200 10SM FEW032 SCT050 BKN055 29/21 A2999 310 58 2100 170/07 130V200 RMK AO2 T02940206
03949KAQV AQV20190429122514104/29/19 12:25:31  5-MIN KAQV 291825Z AUTO 17007KT 130V200 10SM FEW033 SCT050 BKN055 29/21 A2999 310 58 2100 170/07 130V200 RMK AO2 T02940206
03949KAQV AQV20190429123011804/29/19 12:30:31  5-MIN KAQV 291830Z AUTO VRB06KT 10SM SCT033 BKN049 29/21 A3000 310 60 2000 VRB/06 RMK AO2 T02890206
03949KAQV AQV20190429123512504/29/19 12:35:31  5-MIN KAQV 291835Z AUTO VRB05KT 10SM BKN035 BKN044 BKN055 28/20 A3000 300 62 1900 VRB/05 RMK AO2 T02780200
03949KAQV AQV20190429124011804/29/19 12:40:31  5-MIN KAQV 291840Z AUTO VRB05KT 10SM BKN035 BKN044 28/20 A3000 300 62 1900 VRB/05 RMK AO2 T02780200
03949KAQV AQV20190429124514104/29/19 12:45:31  5-MIN KAQV 291845Z AUTO 20007KT 150V280 10SM BKN035 BKN047 OVC055 28/20 A3000 300 62 1900 190/07 150V280 RMK AO2 T02780200
03949KAQV AQV20190429125013204/29/19 12:50:31  5-MIN KAQV 291850Z AUTO VRB05KT 10SM BKN033 BKN044 OVC055 28/20 A3000 300 62 1900 VRB/05 RMK AO2 SLP156 T02780200
03949KAQV AQV20190429125514804/29/19 12:55:31  5-MIN KAQV 291855Z AUTO 20008KT 160V240 10SM SCT033 BKN044 OVC055 28/20 A3000 300 62 1900 200/08 160V240 RMK AO2 SLP156 T02780200
03949KAQV AQV20190429130012504/29/19 13:00:31  5-MIN KAQV 291900Z AUTO VRB06KT 10SM FEW033 SCT046 OVC055 28/20 A3000 310 60 1900 VRB/06 RMK AO2 T02830200
03949KAQV AQV20190429130514104/29/19 13:05:31  5-MIN KAQV 291905Z AUTO 21007KT 170V250 10SM FEW033 FEW044 OVC055 28/20 A3000 300 62 1900 200/07 170V250 RMK AO2 T02780200
03949KAQV AQV20190429131012504/29/19 13:10:31  5-MIN KAQV 291910Z AUTO VRB04KT 10SM FEW033 FEW043 OVC055 28/19 A3000 300 60 1900 VRB/04 RMK AO2 T02780194
03949KAQV AQV20190429131511804/29/19 13:15:31  5-MIN KAQV 291915Z AUTO VRB06KT 10SM SCT043 OVC055 28/19 A3000 300 60 1900 VRB/06 RMK AO2 T02780194
03949KAQV AQV20190429132013404/29/19 13:20:31  5-MIN KAQV 291920Z AUTO 18007KT 140V210 10SM SCT043 OVC060 28/19 A3000 300 60 1900 180/07 140V210 RMK AO2 T02780194
03949KAQV AQV20190429132513404/29/19 13:25:31  5-MIN KAQV 291925Z AUTO 19007KT 150V220 10SM FEW043 OVC060 28/19 A3000 300 60 1900 180/07 150V220 RMK AO2 T02780194
03949KAQV AQV20190429133011804/29/19 13:30:31  5-MIN KAQV 291930Z AUTO VRB06KT 10SM FEW043 OVC060 28/19 A3000 300 58 1900 VRB/06 RMK AO2 T02830194
03949KAQV AQV20190429133511804/29/19 13:35:31  5-MIN KAQV 291935Z AUTO 19006KT 10SM FEW043 OVC060 28/19 A3000 300 58 1900 180/06 RMK AO2 T02830194
03949KAQV AQV20190429134011804/29/19 13:40:31  5-MIN KAQV 291940Z AUTO VRB06KT 10SM FEW045 OVC060 28/19 A3000 300 60 1900 VRB/06 RMK AO2 T02780194
03949KAQV AQV20190429134511104/29/19 13:45:31  5-MIN KAQV 291945Z AUTO 17007KT 10SM OVC060 28/19 A3000 310 58 1900 170/07 RMK AO2 T02830194
03949KAQV AQV20190429135012504/29/19 13:50:31  5-MIN KAQV 291950Z AUTO 18006KT 10SM FEW039 OVC060 28/19 A3000 310 60 1900 170/06 RMK AO2 SLP155 T02780194
03949KAQV AQV20190429135512504/29/19 13:55:31  5-MIN KAQV 291955Z AUTO VRB03KT 10SM SCT039 OVC060 28/19 A3000 300 60 1900 VRB/03 RMK AO2 SLP156 T02780194
03949KAQV AQV20190429140013404/29/19 14:00:31  5-MIN KAQV 292000Z AUTO 20007KT 170V250 10SM SCT037 OVC060 28/19 A3000 310 58 1900 190/07 170V250 RMK AO2 T02830194
03949KAQV AQV20190429140511804/29/19 14:05:31  5-MIN KAQV 292005Z AUTO VRB04KT 10SM FEW037 OVC065 29/20 A3000 310 56 2100 VRB/04 RMK AO2 T02940200
03949KAQV AQV20190429141011804/29/19 14:10:31  5-MIN KAQV 292010Z AUTO VRB03KT 10SM FEW037 OVC065 28/20 A3000 310 60 1900 VRB/03 RMK AO2 T02830200
03949KAQV AQV20190429141511804/29/19 14:15:31  5-MIN KAQV 292015Z AUTO VRB03KT 10SM FEW037 OVC065 28/20 A3000 310 60 1900 VRB/03 RMK AO2 T02830200
03949KAQV AQV20190429142011804/29/19 14:20:31  5-MIN KAQV 292020Z AUTO VRB03KT 10SM SCT039 OVC065 28/20 A3000 310 60 1900 VRB/03 RMK AO2 T02830200
03949KAQV AQV20190429142511804/29/19 14:25:31  5-MIN KAQV 292025Z AUTO VRB04KT 10SM SCT039 OVC065 28/20 A2999 310 60 2000 VRB/04 RMK AO2 T02830200
03949KAQV AQV20190429143011804/29/19 14:30:31  5-MIN KAQV 292030Z AUTO VRB05KT 10SM SCT039 OVC065 28/20 A2999 310 60 2000 VRB/05 RMK AO2 T02830200
03949KAQV AQV20190429143511804/29/19 14:35:31  5-MIN KAQV 292035Z AUTO 22004KT 10SM SCT039 OVC065 28/19 A2999 310 58 2000 210/04 RMK AO2 T02830194
03949KAQV AQV20190429144011804/29/19 14:40:31  5-MIN KAQV 292040Z AUTO VRB05KT 10SM SCT039 OVC060 28/19 A2999 310 60 1900 VRB/05 RMK AO2 T02780194
03949KAQV AQV20190429144511804/29/19 14:45:31  5-MIN KAQV 292045Z AUTO VRB04KT 10SM SCT039 OVC070 28/20 A2999 310 60 2000 VRB/04 RMK AO2 T02830200
03949KAQV AQV20190429145013104/29/19 14:50:31  5-MIN KAQV 292050Z AUTO 19004KT 10SM FEW039 OVC070 28/20 A2999 310 60 2000 180/04 RMK AO2 SLP154 T02830200 58008
03949KAQV AQV20190429145513104/29/19 14:55:31  5-MIN KAQV 292055Z AUTO VRB05KT 10SM FEW039 OVC070 28/20 A2999 310 62 1900 VRB/05 RMK AO2 SLP153 T02780200 58008
03949KAQV AQV20190429150011704/29/19 15:00:31  5-MIN KAQV 292100Z AUTO 00000KT 7SM FEW039 OVC070 28/21 A2999 310 62 2000 000/00 RMK AO2 T02830206
03949KAQV AQV20190429150511704/29/19 15:05:31  5-MIN KAQV 292105Z AUTO VRB06KT 7SM FEW041 OVC070 28/19 A2999 310 58 2000 VRB/06 RMK AO2 T02830194
03949KAQV AQV20190429151011804/29/19 15:10:31  5-MIN KAQV 292110Z AUTO 19004KT 10SM FEW041 OVC070 28/20 A2999 310 60 2000 190/04 RMK AO2 T02830200
03949KAQV AQV20190429151511804/29/19 15:15:31  5-MIN KAQV 292115Z AUTO VRB03KT 10SM SCT039 OVC070 28/20 A2999 310 62 1900 VRB/03 RMK AO2 T02780200
03949KAQV AQV20190429152012004/29/19 15:20:31  5-MIN KAQV 292120Z AUTO 20004KT 6SM HZ BKN039 OVC070 28/20 A2999 310 62 1900 200/04 RMK AO2 T02780200
03949KAQV AQV20190429152512704/29/19 15:25:31  5-MIN KAQV 292125Z AUTO 00000KT 6SM HZ BKN039 BKN050 OVC075 28/20 A2999 310 62 1900 000/00 RMK AO2 T02780200
03949KAQV AQV20190429153012404/29/19 15:30:31  5-MIN KAQV 292130Z AUTO VRB03KT 9SM SCT039 BKN050 BKN075 28/20 A2999 310 62 1900 VRB/03 RMK AO2 T02780200
03949KAQV AQV20190429153513304/29/19 15:35:31  5-MIN KAQV 292135Z AUTO 18007KT 150V260 8SM SCT039 BKN075 28/20 A2999 310 60 2000 180/07 150V260 RMK AO2 T02830200
03949KAQV AQV20190429154011704/29/19 15:40:31  5-MIN KAQV 292140Z AUTO VRB04KT 8SM SCT039 BKN075 29/20 A2999 310 58 2000 VRB/04 RMK AO2 T02890200
03949KAQV AQV20190429154511804/29/19 15:45:31  5-MIN KAQV 292145Z AUTO VRB03KT 10SM FEW039 BKN075 29/20 A2999 310 58 2000 VRB/03 RMK AO2 T02890200
03949KAQV AQV20190429155011704/29/19 15:50:31  5-MIN KAQV 292150Z AUTO VRB06KT 9SM BKN075 29/20 A2999 310 58 2000 VRB/06 RMK AO2 SLP154 T02890200
03949KAQV AQV20190429155511704/29/19 15:55:31  5-MIN KAQV 292155Z AUTO 19007KT 9SM BKN075 28/19 A2999 310 58 2000 180/07 RMK AO2 SLP154 T02830194
03949KAQV AQV20190429160011104/29/19 16:00:31  5-MIN KAQV 292200Z AUTO 00000KT 10SM BKN075 29/20 A2999 310 58 2000 000/00 RMK AO2 T02890200
03949KAQV AQV20190429160510104/29/19 16:05:31  5-MIN KAQV 292205Z AUTO 10SM BKN075 29/20 A2999 310 58 2000 M /M RMK AO2 T02890200
03949KAQV AQV20190429161011104/29/19 16:10:31  5-MIN KAQV 292210Z AUTO VRB03KT 10SM SCT075 28/20 A2999 320 60 2000 VRB/03 RMK AO2 T02830200
03949KAQV AQV20190429161511104/29/19 16:15:31  5-MIN KAQV 292215Z AUTO VRB04KT 10SM SCT075 29/20 A2999 310 58 2000 VRB/04 RMK AO2 T02890200
03949KAQV AQV20190429162011804/29/19 16:20:31  5-MIN KAQV 292220Z AUTO VRB04KT 10SM FEW040 SCT075 29/21 A2998 320 60 2000 VRB/04 RMK AO2 T02890206
03949KAQV AQV20190429162511804/29/19 16:25:31  5-MIN KAQV 292225Z AUTO 20006KT 10SM FEW040 SCT075 29/20 A2998 320 58 2000 190/06 RMK AO2 T02890200
03949KAQV AQV20190429163013404/29/19 16:30:31  5-MIN KAQV 292230Z AUTO 20007KT 170V240 10SM FEW040 SCT048 29/20 A2999 320 58 2000 200/07 170V240 RMK AO2 T02890200
03949KAQV AQV20190429163512504/29/19 16:35:31  5-MIN KAQV 292235Z AUTO VRB05KT 10SM FEW040 SCT048 BKN070 29/20 A2999 310 58 2000 VRB/05 RMK AO2 T02890200
03949KAQV AQV20190429164012504/29/19 16:40:31  5-MIN KAQV 292240Z AUTO 17004KT 10SM FEW040 FEW050 BKN065 29/20 A2999 320 58 2000 170/04 RMK AO2 T02890200
03949KAQV AQV20190429164512504/29/19 16:45:31  5-MIN KAQV 292245Z AUTO VRB04KT 10SM FEW040 FEW048 BKN065 28/21 A2999 310 62 2000 VRB/04 RMK AO2 T02830206
03949KAQV AQV20190429165013204/29/19 16:50:31  5-MIN KAQV 292250Z AUTO VRB05KT 10SM FEW040 FEW048 BKN065 28/20 A2999 310 60 2000 VRB/05 RMK AO2 SLP152 T02830200
03949KAQV AQV20190429165512504/29/19 16:55:31  5-MIN KAQV 292255Z AUTO VRB04KT 10SM FEW050 BKN065 29/20 A2999 310 58 2000 VRB/04 RMK AO2 SLP152 T02890200
03949KAQV AQV20190429170011104/29/19 17:00:31  5-MIN KAQV 292300Z AUTO 18008KT 10SM SCT065 28/20 A2999 310 60 2000 180/08 RMK AO2 T02830200
03949KAQV AQV20190429170511104/29/19 17:05:31  5-MIN KAQV 292305Z AUTO VRB06KT 10SM SCT060 28/19 A2999 310 58 2000 VRB/06 RMK AO2 T02830194
03949KAQV AQV20190429171011104/29/19 17:10:31  5-MIN KAQV 292310Z AUTO VRB05KT 10SM FEW065 28/19 A2999 310 60 1900 VRB/05 RMK AO2 T02780194
03949KAQV AQV20190429171510804/29/19 17:15:31  5-MIN KAQV 292315Z AUTO VRB05KT 10SM CLR 28/19 A2999 310 58 2000 VRB/05 RMK AO2 T02830194
03949KAQV AQV20190429172010804/29/19 17:20:31  5-MIN KAQV 292320Z AUTO VRB06KT 10SM CLR 28/19 A2999 310 58 2000 VRB/06 RMK AO2 T02830194
03949KAQV AQV20190429172510804/29/19 17:25:31  5-MIN KAQV 292325Z AUTO 18007KT 10SM CLR 28/19 A2999 310 60 1900 170/07 RMK AO2 T02780194
03949KAQV AQV20190429173010804/29/19 17:30:31  5-MIN KAQV 292330Z AUTO 18006KT 10SM CLR 28/19 A2999 310 60 1900 180/06 RMK AO2 T02780194
03949KAQV AQV20190429173511104/29/19 17:35:31  5-MIN KAQV 292335Z AUTO 17005KT 10SM FEW041 28/19 A2999 310 60 1900 170/05 RMK AO2 T02780194
03949KAQV AQV20190429174011104/29/19 17:40:31  5-MIN KAQV 292340Z AUTO 18004KT 10SM FEW041 28/20 A2999 310 62 1900 180/04 RMK AO2 T02780200
03949KAQV AQV20190429174511104/29/19 17:45:31  5-MIN KAQV 292345Z AUTO 18004KT 10SM FEW041 27/20 A2999 310 64 1800 170/04 RMK AO2 T02720200
03949KAQV AQV20190429175013304/29/19 17:50:31  5-MIN KAQV 292350Z AUTO 18006KT 10SM CLR 27/20 A2999 310 66 1800 180/06 RMK AO2 SLP152 T02670200 10294 20267 58003
03949KAQV AQV20190429175513304/29/19 17:55:31  5-MIN KAQV 292355Z AUTO 17006KT 10SM CLR 27/20 A2999 310 66 1800 170/06 RMK AO2 SLP152 T02670200 10294 20267 58003
03949KAQV AQV20190429180010804/29/19 18:00:31  5-MIN KAQV 300000Z AUTO 17005KT 10SM CLR 26/20 A2999 320 68 1700 160/05 RMK AO2 T02610200
03949KAQV AQV20190429180510804/29/19 18:05:31  5-MIN KAQV 300005Z AUTO VRB04KT 10SM CLR 26/20 A2999 310 68 1700 VRB/04 RMK AO2 T02610200
03949KAQV AQV20190429181010804/29/19 18:10:31  5-MIN KAQV 300010Z AUTO VRB04KT 10SM CLR 26/20 A2999 310 68 1700 VRB/04 RMK AO2 T02610200
03949KAQV AQV20190429181510804/29/19 18:15:31  5-MIN KAQV 300015Z AUTO 18003KT 10SM CLR 26/20 A2999 310 68 1700 170/03 RMK AO2 T02610200
03949KAQV AQV20190429182011104/29/19 18:20:31  5-MIN KAQV 300020Z AUTO VRB03KT 10SM FEW039 26/20 A2999 310 71 1600 VRB/03 RMK AO2 T02560200
03949KAQV AQV20190429182511104/29/19 18:25:31  5-MIN KAQV 300025Z AUTO 18003KT 10SM FEW037 26/20 A2999 310 71 1600 170/03 RMK AO2 T02560200
03949KAQV AQV20190429183011104/29/19 18:30:31  5-MIN KAQV 300030Z AUTO 17004KT 10SM SCT034 26/20 A2999 310 71 1600 170/04 RMK AO2 T02560200
03949KAQV AQV20190429183511104/29/19 18:35:31  5-MIN KAQV 300035Z AUTO VRB03KT 10SM SCT034 26/20 A2999 310 71 1600 VRB/03 RMK AO2 T02560200
03949KAQV AQV20190429184011104/29/19 18:40:31  5-MIN KAQV 300040Z AUTO 17005KT 10SM SCT034 26/20 A3000 310 71 1600 160/05 RMK AO2 T02560200
03949KAQV AQV20190429184511104/29/19 18:45:31  5-MIN KAQV 300045Z AUTO VRB03KT 10SM FEW034 25/20 A3000 310 73 1600 VRB/03 RMK AO2 T02500200
03949KAQV AQV20190429185011804/29/19 18:50:31  5-MIN KAQV 300050Z AUTO 17004KT 10SM FEW034 25/20 A3000 300 73 1600 160/04 RMK AO2 SLP156 T02500200
03949KAQV AQV20190429185511804/29/19 18:55:31  5-MIN KAQV 300055Z AUTO 17003KT 10SM FEW034 25/20 A3000 300 73 1600 170/03 RMK AO2 SLP158 T02500200
03949KAQV AQV20190429190010804/29/19 19:00:31  5-MIN KAQV 300100Z AUTO 00000KT 10SM CLR 24/20 A3001 300 76 1500 000/00 RMK AO2 T02440200
03949KAQV AQV20190429190510804/29/19 19:05:31  5-MIN KAQV 300105Z AUTO 00000KT 10SM CLR 24/20 A3001 290 76 1500 000/00 RMK AO2 T02440200
03949KAQV AQV20190429191010804/29/19 19:10:31  5-MIN KAQV 300110Z AUTO 16003KT 10SM CLR 24/20 A3001 290 76 1500 160/03 RMK AO2 T02440200
03949KAQV AQV20190429191510804/29/19 19:15:31  5-MIN KAQV 300115Z AUTO 16003KT 10SM CLR 24/20 A3001 290 76 1500 160/03 RMK AO2 T02440200
03949KAQV AQV20190429192011104/29/19 19:20:31  5-MIN KAQV 300120Z AUTO 16003KT 10SM FEW032 24/21 A3002 290 81 1400 160/03 RMK AO2 T02390206
03949KAQV AQV20190429192511104/29/19 19:25:31  5-MIN KAQV 300125Z AUTO VRB04KT 10SM FEW032 24/21 A3002 290 81 1400 VRB/04 RMK AO2 T02390206
03949KAQV AQV20190429193010804/29/19 19:30:31  5-MIN KAQV 300130Z AUTO VRB04KT 10SM CLR 24/20 A3002 280 78 1400 VRB/04 RMK AO2 T02390200
03949KAQV AQV20190429193510804/29/19 19:35:31  5-MIN KAQV 300135Z AUTO VRB03KT 10SM CLR 24/20 A3002 280 78 1400 VRB/03 RMK AO2 T02390200
03949KAQV AQV20190429194010804/29/19 19:40:31  5-MIN KAQV 300140Z AUTO 16005KT 10SM CLR 24/20 A3002 280 78 1400 160/05 RMK AO2 T02390200
03949KAQV AQV20190429194510804/29/19 19:45:31  5-MIN KAQV 300145Z AUTO 16004KT 10SM CLR 24/21 A3003 280 81 1400 160/04 RMK AO2 T02390206
03949KAQV AQV20190429195011504/29/19 19:50:31  5-MIN KAQV 300150Z AUTO VRB06KT 10SM CLR 24/21 A3003 280 81 1400 VRB/06 RMK AO2 SLP166 T02390206
03949KAQV AQV20190429195511504/29/19 19:55:31  5-MIN KAQV 300155Z AUTO VRB04KT 10SM CLR 24/20 A3003 280 78 1400 VRB/04 RMK AO2 SLP166 T02390200
03949KAQV AQV20190429200010804/29/19 20:00:31  5-MIN KAQV 300200Z AUTO VRB04KT 10SM CLR 24/20 A3003 280 78 1400 VRB/04 RMK AO2 T02390200
03949KAQV AQV20190429200510804/29/19 20:05:31  5-MIN KAQV 300205Z AUTO 17005KT 10SM CLR 24/21 A3003 270 81 1400 170/05 RMK AO2 T02390206
03949KAQV AQV20190429201010804/29/19 20:10:31  5-MIN KAQV 300210Z AUTO 16004KT 10SM CLR 24/21 A3003 270 81 1400 160/04 RMK AO2 T02390206
03949KAQV AQV20190429201510804/29/19 20:15:31  5-MIN KAQV 300215Z AUTO VRB03KT 10SM CLR 23/21 A3003 270 84 1300 VRB/03 RMK AO2 T02330206
03949KAQV AQV20190429202010804/29/19 20:20:31  5-MIN KAQV 300220Z AUTO 16003KT 10SM CLR 23/21 A3003 270 84 1300 160/03 RMK AO2 T02330206
03949KAQV AQV20190429202510804/29/19 20:25:31  5-MIN KAQV 300225Z AUTO VRB03KT 10SM CLR 23/21 A3003 270 84 1300 VRB/03 RMK AO2 T02330206
03949KAQV AQV20190429203010804/29/19 20:30:31  5-MIN KAQV 300230Z AUTO VRB04KT 10SM CLR 23/21 A3004 270 84 1300 VRB/04 RMK AO2 T02330206
03949KAQV AQV20190429203510804/29/19 20:35:31  5-MIN KAQV 300235Z AUTO 18004KT 10SM CLR 23/21 A3004 270 84 1300 170/04 RMK AO2 T02330206
03949KAQV AQV20190429204010804/29/19 20:40:31  5-MIN KAQV 300240Z AUTO 00000KT 10SM CLR 23/21 A3004 270 84 1300 000/00 RMK AO2 T02330206
03949KAQV AQV20190429204510804/29/19 20:45:31  5-MIN KAQV 300245Z AUTO VRB03KT 10SM CLR 23/21 A3004 270 84 1300 VRB/03 RMK AO2 T02330206
03949KAQV AQV20190429205012104/29/19 20:50:31  5-MIN KAQV 300250Z AUTO 18004KT 10SM CLR 23/21 A3004 260 84 1300 180/04 RMK AO2 SLP170 T02330206 58001
03949KAQV AQV20190429205512104/29/19 20:55:31  5-MIN KAQV 300255Z AUTO VRB03KT 10SM CLR 23/21 A3004 260 84 1300 VRB/03 RMK AO2 SLP171 T02330206 58001
03949KAQV AQV20190429210010804/29/19 21:00:31  5-MIN KAQV 300300Z AUTO VRB03KT 10SM CLR 23/21 A3004 260 87 1300 VRB/03 RMK AO2 T02280206
03949KAQV AQV20190429210510804/29/19 21:05:31  5-MIN KAQV 300305Z AUTO 16003KT 10SM CLR 23/21 A3004 260 87 1300 160/03 RMK AO2 T02280206
03949KAQV AQV20190429211010804/29/19 21:10:31  5-MIN KAQV 300310Z AUTO VRB03KT 10SM CLR 23/21 A3004 270 87 1300 VRB/03 RMK AO2 T02280206
03949KAQV AQV20190429211510804/29/19 21:15:31  5-MIN KAQV 300315Z AUTO 17004KT 10SM CLR 23/21 A3004 270 87 1300 170/04 RMK AO2 T02280206
03949KAQV AQV20190429212010804/29/19 21:20:31  5-MIN KAQV 300320Z AUTO 16004KT 10SM CLR 23/21 A3004 270 87 1300 160/04 RMK AO2 T02280206
03949KAQV AQV20190429212510804/29/19 21:25:31  5-MIN KAQV 300325Z AUTO VRB03KT 10SM CLR 23/21 A3004 260 87 1300 VRB/03 RMK AO2 T02280206
03949KAQV AQV20190429213010804/29/19 21:30:31  5-MIN KAQV 300330Z AUTO VRB03KT 10SM CLR 23/21 A3004 260 87 1300 VRB/03 RMK AO2 T02280206
03949KAQV AQV20190429213510804/29/19 21:35:31  5-MIN KAQV 300335Z AUTO 17004KT 10SM CLR 23/21 A3004 260 87 1300 160/04 RMK AO2 T02280206
03949KAQV AQV20190429214010804/29/19 21:40:31  5-MIN KAQV 300340Z AUTO VRB04KT 10SM CLR 23/21 A3004 260 87 1300 VRB/04 RMK AO2 T02280206
03949KAQV AQV20190429214510804/29/19 21:45:31  5-MIN KAQV 300345Z AUTO 00000KT 10SM CLR 23/21 A3004 260 87 1300 000/00 RMK AO2 T02280206
03949KAQV AQV20190429215011504/29/19 21:50:31  5-MIN KAQV 300350Z AUTO VRB03KT 10SM CLR 23/21 A3004 260 87 1300 VRB/03 RMK AO2 SLP171 T02280206
03949KAQV AQV20190429215511504/29/19 21:55:31  5-MIN KAQV 300355Z AUTO 00000KT 10SM CLR 23/21 A3004 260 87 1300 000/00 RMK AO2 SLP171 T02280206
03949KAQV AQV20190429220011104/29/19 22:00:31  5-MIN KAQV 300400Z AUTO VRB03KT 10SM FEW017 23/21 A3004 260 87 1300 VRB/03 RMK AO2 T02280206
03949KAQV AQV20190429220511104/29/19 22:05:31  5-MIN KAQV 300405Z AUTO VRB03KT 10SM SCT017 23/21 A3004 260 87 1300 VRB/03 RMK AO2 T02280206
03949KAQV AQV20190429221011104/29/19 22:10:31  5-MIN KAQV 300410Z AUTO VRB03KT 10SM BKN016 23/21 A3004 270 87 1300 VRB/03 RMK AO2 T02280206
03949KAQV AQV20190429221511104/29/19 22:15:31  5-MIN KAQV 300415Z AUTO 00000KT 10SM BKN016 23/21 A3004 270 87 1300 000/00 RMK AO2 T02280206
03949KAQV AQV20190429222011104/29/19 22:20:31  5-MIN KAQV 300420Z AUTO VRB03KT 10SM BKN016 23/21 A3004 270 87 1300 VRB/03 RMK AO2 T02280206
03949KAQV AQV20190429222511104/29/19 22:25:31  5-MIN KAQV 300425Z AUTO VRB03KT 10SM BKN016 23/21 A3004 270 87 1300 VRB/03 RMK AO2 T02280206
03949KAQV AQV20190429223011104/29/19 22:30:31  5-MIN KAQV 300430Z AUTO VRB04KT 10SM BKN016 23/21 A3004 270 87 1300 VRB/04 RMK AO2 T02280206
03949KAQV AQV20190429223511104/29/19 22:35:31  5-MIN KAQV 300435Z AUTO VRB06KT 10SM BKN016 23/21 A3003 270 87 1300 VRB/06 RMK AO2 T02280206
03949KAQV AQV20190429224011804/29/19 22:40:31  5-MIN KAQV 300440Z AUTO VRB06KT 10SM SCT013 BKN018 23/21 A3003 270 87 1300 VRB/06 RMK AO2 T02280206
03949KAQV AQV20190429224511104/29/19 22:45:31  5-MIN KAQV 300445Z AUTO VRB05KT 10SM SCT013 23/21 A3003 270 87 1300 VRB/05 RMK AO2 T02280206
03949KAQV AQV20190429225011804/29/19 22:50:31  5-MIN KAQV 300450Z AUTO VRB04KT 10SM BKN015 23/21 A3003 270 87 1300 VRB/04 RMK AO2 SLP167 T02280206
03949KAQV AQV20190429225511804/29/19 22:55:31  5-MIN KAQV 300455Z AUTO VRB06KT 10SM BKN015 23/21 A3003 270 87 1300 VRB/06 RMK AO2 SLP167 T02280206
03949KAQV AQV20190429230011104/29/19 23:00:31  5-MIN KAQV 300500Z AUTO 16005KT 10SM BKN015 23/21 A3003 270 84 1300 160/05 RMK AO2 T02330206
03949KAQV AQV20190429230511104/29/19 23:05:31  5-MIN KAQV 300505Z AUTO VRB04KT 10SM BKN015 23/21 A3003 270 87 1300 VRB/04 RMK AO2 T02330211
03949KAQV AQV20190429231011104/29/19 23:10:31  5-MIN KAQV 300510Z AUTO 16008KT 10SM OVC015 23/21 A3003 280 84 1300 160/08 RMK AO2 T02330206
03949KAQV AQV20190429231511104/29/19 23:15:31  5-MIN KAQV 300515Z AUTO VRB05KT 10SM OVC015 23/21 A3003 280 84 1400 VRB/05 RMK AO2 T02330206
03949KAQV AQV20190429232011104/29/19 23:20:31  5-MIN KAQV 300520Z AUTO VRB06KT 10SM OVC015 23/21 A3003 280 84 1400 VRB/06 RMK AO2 T02330206
03949KAQV AQV20190429232511104/29/19 23:25:31  5-MIN KAQV 300525Z AUTO VRB06KT 10SM OVC015 23/21 A3002 280 84 1400 VRB/06 RMK AO2 T02330206
03949KAQV AQV20190429233011104/29/19 23:30:31  5-MIN KAQV 300530Z AUTO VRB05KT 10SM OVC015 23/21 A3002 280 84 1400 VRB/05 RMK AO2 T02330206
03949KAQV AQV20190429233511104/29/19 23:35:31  5-MIN KAQV 300535Z AUTO 17005KT 10SM OVC015 23/21 A3002 280 84 1400 170/05 RMK AO2 T02330206
03949KAQV AQV20190429234011104/29/19 23:40:31  5-MIN KAQV 300540Z AUTO 17005KT 10SM OVC015 23/21 A3002 280 84 1400 170/05 RMK AO2 T02330206
03949KAQV AQV20190429234511104/29/19 23:45:31  5-MIN KAQV 300545Z AUTO VRB06KT 10SM OVC015 23/21 A3002 280 84 1400 VRB/06 RMK AO2 T02330206
03949KAQV AQV20190429235014604/29/19 23:50:31  5-MIN KAQV 300550Z AUTO VRB05KT 10SM OVC015 23/21 A3002 280 84 1400 VRB/05 RMK AO2 SLP163 T02330206 10261 20228 402940167 51019
03949KAQV AQV20190429235516804/29/19 23:55:31  5-MIN KAQV 300555Z AUTO 17009G15KT 130V220 10SM OVC015 23/21 A3002 280 84 1400 170/09G15 130V220 RMK AO2 SLP163 T02330206 10261 20228 402940167 51019
03949KAQV AQV20190430000011704/30/19 00:00:31  5-MIN KAQV 300600Z AUTO VRB06G15KT 10SM OVC015 23/21 A3002 280 84 1400 VRB/06G15 RMK AO2 T02330206
03949KAQV AQV20190430000511704/30/19 00:05:31  5-MIN KAQV 300605Z AUTO 18006G15KT 10SM OVC015 23/21 A3002 280 84 1400 170/06G15 RMK AO2 T02330206
03949KAQV AQV20190430001011104/30/19 00:10:31  5-MIN KAQV 300610Z AUTO 17006KT 10SM OVC015 23/21 A3002 280 84 1400 160/06 RMK AO2 T02330206
03949KAQV AQV20190430001511104/30/19 00:15:31  5-MIN KAQV 300615Z AUTO 16008KT 10SM OVC015 23/21 A3002 290 84 1400 160/08 RMK AO2 T02330206
03949KAQV AQV20190430002011104/30/19 00:20:31  5-MIN KAQV 300620Z AUTO VRB05KT 10SM OVC015 23/21 A3001 290 84 1400 VRB/05 RMK AO2 T02330206
03949KAQV AQV20190430002511104/30/19 00:25:31  5-MIN KAQV 300625Z AUTO VRB04KT 10SM OVC015 23/21 A3001 290 84 1400 VRB/04 RMK AO2 T02330206
03949KAQV AQV20190430003012704/30/19 00:30:31  5-MIN KAQV 300630Z AUTO 17007KT 110V220 10SM OVC015 23/21 A3001 290 84 1400 160/07 110V220 RMK AO2 T02330206
03949KAQV AQV20190430003511104/30/19 00:35:31  5-MIN KAQV 300635Z AUTO VRB05KT 10SM OVC015 23/21 A3001 300 84 1400 VRB/05 RMK AO2 T02330206
03949KAQV AQV20190430004011104/30/19 00:40:31  5-MIN KAQV 300640Z AUTO 16006KT 10SM OVC015 23/21 A3000 300 84 1400 160/06 RMK AO2 T02330206
03949KAQV AQV20190430004511104/30/19 00:45:31  5-MIN KAQV 300645Z AUTO VRB06KT 10SM OVC015 23/21 A3000 300 84 1400 VRB/06 RMK AO2 T02330206
03949KAQV AQV20190430005013404/30/19 00:50:31  5-MIN KAQV 300650Z AUTO 15007KT 110V190 10SM OVC015 23/20 A3000 300 81 1400 150/07 110V190 RMK AO2 SLP156 T02330200
03949KAQV AQV20190430005513404/30/19 00:55:31  5-MIN KAQV 300655Z AUTO 16008KT 120V190 10SM OVC015 23/20 A3000 300 81 1400 160/08 120V190 RMK AO2 SLP156 T02330200
03949KAQV AQV20190430010011104/30/19 01:00:31  5-MIN KAQV 300700Z AUTO VRB06KT 10SM OVC013 23/20 A3000 300 81 1400 VRB/06 RMK AO2 T02330200
03949KAQV AQV20190430010510104/30/19 01:05:31  5-MIN KAQV 300705Z AUTO 10SM OVC013 23/20 A3001 300 81 1400 M /M RMK AO2 T02330200
03949KAQV AQV20190430011012704/30/19 01:10:31  5-MIN KAQV 300710Z AUTO 17007KT 130V200 10SM OVC014 23/20 A3001 300 81 1400 170/07 130V200 RMK AO2 T02330200
03949KAQV AQV20190430011511104/30/19 01:15:31  5-MIN KAQV 300715Z AUTO VRB05KT 10SM OVC014 23/20 A3001 300 81 1400 VRB/05 RMK AO2 T02330200
03949KAQV AQV20190430012011104/30/19 01:20:31  5-MIN KAQV 300720Z AUTO VRB05KT 10SM OVC014 23/20 A3001 300 81 1400 VRB/05 RMK AO2 T02330200
03949KAQV AQV20190430012511804/30/19 01:25:31  5-MIN KAQV 300725Z AUTO VRB06KT 10SM BKN014 OVC020 23/20 A3001 300 81 1400 VRB/06 RMK AO2 T02330200
03949KAQV AQV20190430013011804/30/19 01:30:31  5-MIN KAQV 300730Z AUTO VRB05KT 10SM BKN014 OVC023 23/20 A3001 300 81 1400 VRB/05 RMK AO2 T02330200
03949KAQV AQV20190430013511804/30/19 01:35:31  5-MIN KAQV 300735Z AUTO VRB06KT 10SM BKN014 OVC023 23/20 A3001 300 84 1300 VRB/06 RMK AO2 T02280200
03949KAQV AQV20190430014011804/30/19 01:40:31  5-MIN KAQV 300740Z AUTO 17006KT 10SM BKN014 OVC023 23/20 A3001 300 84 1300 170/06 RMK AO2 T02280200
03949KAQV AQV20190430014511804/30/19 01:45:31  5-MIN KAQV 300745Z AUTO VRB05KT 10SM BKN014 OVC023 23/20 A3001 290 84 1300 VRB/05 RMK AO2 T02280200
03949KAQV AQV20190430015012504/30/19 01:50:31  5-MIN KAQV 300750Z AUTO 17005KT 10SM BKN014 OVC025 23/21 A3001 290 87 1300 170/05 RMK AO2 SLP158 T02280206
03949KAQV AQV20190430015512504/30/19 01:55:31  5-MIN KAQV 300755Z AUTO VRB03KT 10SM BKN016 OVC025 23/21 A3001 290 87 1300 VRB/03 RMK AO2 SLP158 T02280206
03949KAQV AQV20190430020012504/30/19 02:00:31  5-MIN KAQV 300800Z AUTO 16005KT 10SM BKN014 BKN020 OVC026 23/21 A3001 290 87 1300 160/05 RMK AO2 T02280206
03949KAQV AQV20190430020511804/30/19 02:05:31  5-MIN KAQV 300805Z AUTO VRB05KT 10SM BKN016 OVC024 23/21 A3001 290 87 1300 VRB/05 RMK AO2 T02280206
03949KAQV AQV20190430021011804/30/19 02:10:31  5-MIN KAQV 300810Z AUTO VRB05KT 10SM BKN016 OVC024 23/21 A3001 290 87 1300 VRB/05 RMK AO2 T02280206
03949KAQV AQV20190430021511804/30/19 02:15:31  5-MIN KAQV 300815Z AUTO 16004KT 10SM BKN016 OVC024 23/21 A3001 290 87 1300 160/04 RMK AO2 T02280206
03949KAQV AQV20190430022011804/30/19 02:20:31  5-MIN KAQV 300820Z AUTO 16006KT 10SM BKN014 OVC020 23/21 A3001 290 87 1300 160/06 RMK AO2 T02280206
03949KAQV AQV20190430022511804/30/19 02:25:31  5-MIN KAQV 300825Z AUTO VRB04KT 10SM BKN016 OVC023 23/21 A3001 290 87 1300 VRB/04 RMK AO2 T02280206
03949KAQV AQV20190430023012504/30/19 02:30:31  5-MIN KAQV 300830Z AUTO VRB04KT 10SM BKN016 BKN021 OVC027 23/21 A3001 290 87 1300 VRB/04 RMK AO2 T02280206
03949KAQV AQV20190430023512504/30/19 02:35:31  5-MIN KAQV 300835Z AUTO VRB03KT 10SM BKN016 BKN020 OVC027 24/21 A3001 300 81 1400 VRB/03 RMK AO2 T02390206
03949KAQV AQV20190430024012504/30/19 02:40:31  5-MIN KAQV 300840Z AUTO VRB06KT 10SM BKN016 BKN020 OVC026 23/21 A3001 290 87 1300 VRB/06 RMK AO2 T02280206
03949KAQV AQV20190430024511804/30/19 02:45:31  5-MIN KAQV 300845Z AUTO VRB06KT 10SM BKN016 OVC023 23/21 A3001 300 87 1300 VRB/06 RMK AO2 T02280206
03949KAQV AQV20190430025013104/30/19 02:50:31  5-MIN KAQV 300850Z AUTO VRB03KT 10SM BKN016 OVC023 23/21 A3001 300 87 1300 VRB/03 RMK AO2 SLP157 T02280206 58007
03949KAQV AQV20190430025513104/30/19 02:55:31  5-MIN KAQV 300855Z AUTO VRB03KT 10SM BKN016 OVC022 23/21 A3001 300 87 1300 VRB/03 RMK AO2 SLP157 T02280206 58007
03949KAQV AQV20190430030011104/30/19 03:00:31  5-MIN KAQV 300900Z AUTO 00000KT 10SM OVC016 23/21 A3001 300 87 1300 000/00 RMK AO2 T02280206
03949KAQV AQV20190430030511104/30/19 03:05:31  5-MIN KAQV 300905Z AUTO VRB06KT 10SM OVC016 23/20 A3001 300 84 1300 VRB/06 RMK AO2 T02280200
03949KAQV AQV20190430031011104/30/19 03:10:31  5-MIN KAQV 300910Z AUTO VRB03KT 10SM OVC016 23/20 A3001 300 84 1300 VRB/03 RMK AO2 T02280200
03949KAQV AQV20190430031511104/30/19 03:15:31  5-MIN KAQV 300915Z AUTO VRB04KT 10SM OVC016 23/20 A3001 300 84 1300 VRB/04 RMK AO2 T02280200
03949KAQV AQV20190430032011104/30/19 03:20:31  5-MIN KAQV 300920Z AUTO VRB04KT 10SM OVC014 23/20 A3001 300 84 1300 VRB/04 RMK AO2 T02280200
03949KAQV AQV20190430032510104/30/19 03:25:31  5-MIN KAQV 300925Z AUTO 10SM OVC014 23/20 A3001 300 84 1300 M /M RMK AO2 T02280200
03949KAQV AQV20190430033011104/30/19 03:30:31  5-MIN KAQV 300930Z AUTO VRB05KT 10SM OVC014 23/20 A3000 300 84 1300 VRB/05 RMK AO2 T02280200
03949KAQV AQV20190430033511104/30/19 03:35:31  5-MIN KAQV 300935Z AUTO 16005KT 10SM OVC014 23/20 A3000 300 84 1300 150/05 RMK AO2 T02280200
03949KAQV AQV20190430034011104/30/19 03:40:31  5-MIN KAQV 300940Z AUTO VRB04KT 10SM OVC014 23/19 A3000 300 81 1300 VRB/04 RMK AO2 T02280194
03949KAQV AQV20190430034511104/30/19 03:45:31  5-MIN KAQV 300945Z AUTO VRB04KT 10SM OVC016 23/19 A3001 300 81 1300 VRB/04 RMK AO2 T02280194
03949KAQV AQV20190430035011804/30/19 03:50:31  5-MIN KAQV 300950Z AUTO VRB04KT 10SM OVC016 22/19 A3001 300 84 1200 VRB/04 RMK AO2 SLP157 T02220194
03949KAQV AQV20190430035511804/30/19 03:55:31  5-MIN KAQV 300955Z AUTO VRB04KT 10SM OVC016 23/19 A3001 300 81 1300 VRB/04 RMK AO2 SLP158 T02280194
03949KAQV AQV20190430040011104/30/19 04:00:31  5-MIN KAQV 301000Z AUTO VRB05KT 10SM OVC016 22/19 A3001 300 84 1200 VRB/05 RMK AO2 T02220194
03949KAQV AQV20190430040511104/30/19 04:05:31  5-MIN KAQV 301005Z AUTO VRB06KT 10SM OVC016 22/19 A3001 290 84 1200 VRB/06 RMK AO2 T02220194
03949KAQV AQV20190430041011104/30/19 04:10:31  5-MIN KAQV 301010Z AUTO VRB05KT 10SM OVC016 22/19 A3002 290 84 1200 VRB/05 RMK AO2 T02220194
03949KAQV AQV20190430041511104/30/19 04:15:31  5-MIN KAQV 301015Z AUTO 17004KT 10SM OVC014 22/19 A3002 290 84 1200 170/04 RMK AO2 T02220194
03949KAQV AQV20190430042011104/30/19 04:20:31  5-MIN KAQV 301020Z AUTO VRB05KT 10SM OVC014 22/19 A3001 290 84 1200 VRB/05 RMK AO2 T02220194
03949KAQV AQV20190430042511104/30/19 04:25:31  5-MIN KAQV 301025Z AUTO VRB04KT 10SM OVC014 22/19 A3001 290 84 1200 VRB/04 RMK AO2 T02220194
03949KAQV AQV20190430043011104/30/19 04:30:31  5-MIN KAQV 301030Z AUTO 00000KT 10SM OVC013 22/19 A3002 290 84 1200 000/00 RMK AO2 T02220194
03949KAQV AQV20190430043511104/30/19 04:35:31  5-MIN KAQV 301035Z AUTO VRB03KT 10SM OVC013 22/19 A3002 290 84 1200 VRB/03 RMK AO2 T02220194
03949KAQV AQV20190430044011104/30/19 04:40:31  5-MIN KAQV 301040Z AUTO VRB04KT 10SM OVC013 22/19 A3002 280 84 1200 VRB/04 RMK AO2 T02220194
03949KAQV AQV20190430044511104/30/19 04:45:31  5-MIN KAQV 301045Z AUTO 15003KT 10SM OVC012 22/19 A3002 280 84 1200 150/03 RMK AO2 T02220194
03949KAQV AQV20190430045011804/30/19 04:50:31  5-MIN KAQV 301050Z AUTO VRB03KT 10SM OVC012 22/19 A3002 280 84 1200 VRB/03 RMK AO2 SLP163 T02220194
03949KAQV AQV20190430045511804/30/19 04:55:31  5-MIN KAQV 301055Z AUTO 00000KT 10SM OVC012 22/19 A3003 280 84 1200 000/00 RMK AO2 SLP164 T02220194
03949KAQV AQV20190430050011104/30/19 05:00:31  5-MIN KAQV 301100Z AUTO 00000KT 10SM OVC013 22/19 A3003 280 81 1200 000/00 RMK AO2 T02220189
03949KAQV AQV20190430050511104/30/19 05:05:31  5-MIN KAQV 301105Z AUTO VRB03KT 10SM OVC013 22/19 A3003 280 81 1200 VRB/03 RMK AO2 T02220189
03949KAQV AQV20190430051011104/30/19 05:10:31  5-MIN KAQV 301110Z AUTO VRB05KT 10SM OVC013 22/19 A3003 280 81 1200 VRB/05 RMK AO2 T02220189
03949KAQV AQV20190430051511104/30/19 05:15:31  5-MIN KAQV 301115Z AUTO VRB03KT 10SM OVC013 22/19 A3003 280 81 1200 VRB/03 RMK AO2 T02220189
03949KAQV AQV20190430052011104/30/19 05:20:31  5-MIN KAQV 301120Z AUTO VRB03KT 10SM OVC013 22/19 A3003 270 84 1200 VRB/03 RMK AO2 T02170189
03949KAQV AQV20190430052511104/30/19 05:25:31  5-MIN KAQV 301125Z AUTO 13003KT 10SM OVC013 22/19 A3003 270 84 1200 130/03 RMK AO2 T02170189
03949KAQV AQV20190430053011104/30/19 05:30:31  5-MIN KAQV 301130Z AUTO VRB03KT 10SM OVC012 22/19 A3003 270 84 1200 VRB/03 RMK AO2 T02170189
03949KAQV AQV20190430053511104/30/19 05:35:31  5-MIN KAQV 301135Z AUTO VRB03KT 10SM OVC012 22/19 A3003 270 84 1200 VRB/03 RMK AO2 T02170189
03949KAQV AQV20190430054011104/30/19 05:40:31  5-MIN KAQV 301140Z AUTO 00000KT 10SM OVC012 22/19 A3003 270 84 1200 000/00 RMK AO2 T02170189
03949KAQV AQV20190430054511004/30/19 05:45:31  5-MIN KAQV 301145Z AUTO VRB04KT 9SM OVC012 22/19 A3004 270 84 1100 VRB/04 RMK AO2 T02170189
03949KAQV AQV20190430055013504/30/19 05:50:31  5-MIN KAQV 301150Z AUTO 15003KT 8SM OVC012 22/19 A3004 270 84 1100 140/03 RMK AO2 SLP169 T02170189 10239 20217 56005
03949KAQV AQV20190430055513504/30/19 05:55:31  5-MIN KAQV 301155Z AUTO 00000KT 8SM OVC012 22/19 A3004 270 84 1100 000/00 RMK AO2 SLP169 T02170189 10239 20217 56005
03949KAQV AQV20190430060011104/30/19 06:00:31  5-MIN KAQV 301200Z AUTO 00000KT 10SM OVC012 22/19 A3004 270 84 1100 000/00 RMK AO2 T02170189
03949KAQV AQV20190430060511104/30/19 06:05:31  5-MIN KAQV 301205Z AUTO 00000KT 10SM OVC012 22/19 A3004 270 84 1100 000/00 RMK AO2 T02170189
03949KAQV AQV20190430061011104/30/19 06:10:31  5-MIN KAQV 301210Z AUTO 00000KT 10SM OVC012 22/19 A3004 270 84 1100 000/00 RMK AO2 T02170189
03949KAQV AQV20190430061511104/30/19 06:15:31  5-MIN KAQV 301215Z AUTO 00000KT 10SM OVC012 22/19 A3004 260 84 1100 000/00 RMK AO2 T02170189
03949KAQV AQV20190430062011104/30/19 06:20:31  5-MIN KAQV 301220Z AUTO 00000KT 10SM OVC012 22/19 A3004 260 84 1100 000/00 RMK AO2 T02170189
03949KAQV AQV20190430062511104/30/19 06:25:31  5-MIN KAQV 301225Z AUTO 00000KT 10SM OVC012 22/19 A3004 260 84 1100 000/00 RMK AO2 T02170189
03949KAQV AQV20190430063011104/30/19 06:30:31  5-MIN KAQV 301230Z AUTO 00000KT 10SM OVC012 22/19 A3004 260 84 1100 000/00 RMK AO2 T02170189
03949KAQV AQV20190430063511104/30/19 06:35:31  5-MIN KAQV 301235Z AUTO 00000KT 10SM OVC011 22/19 A3005 260 84 1100 000/00 RMK AO2 T02170189
03949KAQV AQV20190430064011104/30/19 06:40:31  5-MIN KAQV 301240Z AUTO VRB04KT 10SM OVC011 22/19 A3005 260 84 1100 VRB/04 RMK AO2 T02170189
03949KAQV AQV20190430064511104/30/19 06:45:31  5-MIN KAQV 301245Z AUTO 00000KT 10SM OVC011 22/19 A3005 260 84 1100 000/00 RMK AO2 T02170189
03949KAQV AQV20190430065011804/30/19 06:50:31  5-MIN KAQV 301250Z AUTO VRB03KT 10SM OVC012 22/19 A3005 260 84 1100 VRB/03 RMK AO2 SLP172 T02170189
03949KAQV AQV20190430065511804/30/19 06:55:31  5-MIN KAQV 301255Z AUTO VRB03KT 10SM OVC012 22/19 A3004 260 84 1100 VRB/03 RMK AO2 SLP171 T02170189
03949KAQV AQV20190430070011104/30/19 07:00:31  5-MIN KAQV 301300Z AUTO 00000KT 10SM OVC012 22/19 A3004 260 84 1100 000/00 RMK AO2 T02170189
03949KAQV AQV20190430070511104/30/19 07:05:31  5-MIN KAQV 301305Z AUTO 00000KT 10SM OVC012 22/19 A3005 260 84 1100 000/00 RMK AO2 T02170189
03949KAQV AQV20190430071011104/30/19 07:10:31  5-MIN KAQV 301310Z AUTO 00000KT 10SM OVC012 22/19 A3005 260 84 1100 000/00 RMK AO2 T02170189
03949KAQV AQV20190430071511104/30/19 07:15:31  5-MIN KAQV 301315Z AUTO 00000KT 10SM OVC012 22/19 A3005 260 84 1100 000/00 RMK AO2 T02170189
03949KAQV AQV20190430072011104/30/19 07:20:31  5-MIN KAQV 301320Z AUTO 14003KT 10SM OVC012 22/19 A3004 260 84 1100 140/03 RMK AO2 T02170189
03949KAQV AQV20190430072511104/30/19 07:25:31  5-MIN KAQV 301325Z AUTO VRB04KT 10SM OVC012 22/19 A3004 260 84 1100 VRB/04 RMK AO2 T02170189
03949KAQV AQV20190430073011104/30/19 07:30:31  5-MIN KAQV 301330Z AUTO VRB03KT 10SM OVC012 22/19 A3004 260 81 1200 VRB/03 RMK AO2 T02220189
03949KAQV AQV20190430073511104/30/19 07:35:31  5-MIN KAQV 301335Z AUTO VRB03KT 10SM OVC012 22/19 A3004 260 81 1200 VRB/03 RMK AO2 T02220189
03949KAQV AQV20190430074011104/30/19 07:40:31  5-MIN KAQV 301340Z AUTO VRB03KT 10SM OVC012 22/19 A3005 260 81 1200 VRB/03 RMK AO2 T02220189
03949KAQV AQV20190430074511104/30/19 07:45:31  5-MIN KAQV 301345Z AUTO VRB06KT 10SM OVC013 22/19 A3005 260 81 1200 VRB/06 RMK AO2 T02220189
03949KAQV AQV20190430075011804/30/19 07:50:31  5-MIN KAQV 301350Z AUTO VRB06KT 10SM OVC013 22/19 A3005 260 81 1200 VRB/06 RMK AO2 SLP173 T02220189
03949KAQV AQV20190430075511804/30/19 07:55:31  5-MIN KAQV 301355Z AUTO VRB05KT 10SM OVC013 22/19 A3005 260 81 1200 VRB/05 RMK AO2 SLP173 T02220189
03949KAQV AQV20190430080011104/30/19 08:00:31  5-MIN KAQV 301400Z AUTO VRB05KT 10SM OVC011 22/19 A3005 260 81 1200 VRB/05 RMK AO2 T02220189
03949KAQV AQV20190430080511104/30/19 08:05:31  5-MIN KAQV 301405Z AUTO VRB03KT 10SM OVC011 23/19 A3005 250 81 1300 VRB/03 RMK AO2 T02280194
03949KAQV AQV20190430081010104/30/19 08:10:31  5-MIN KAQV 301410Z AUTO 10SM OVC012 23/19 A3005 250 81 1300 M /M RMK AO2 T02280194
03949KAQV AQV20190430081511004/30/19 08:15:31  5-MIN KAQV 301415Z AUTO VRB05KT 9SM OVC012 22/19 A3005 250 84 1200 VRB/05 RMK AO2 T02220194
03949KAQV AQV20190430082011004/30/19 08:20:31  5-MIN KAQV 301420Z AUTO 16005KT 9SM OVC012 22/19 A3005 250 84 1200 160/05 RMK AO2 T02220194
03949KAQV AQV20190430082511104/30/19 08:25:31  5-MIN KAQV 301425Z AUTO VRB05KT 10SM OVC012 22/19 A3005 250 84 1200 VRB/05 RMK AO2 T02220194
03949KAQV AQV20190430083011104/30/19 08:30:31  5-MIN KAQV 301430Z AUTO 17006KT 10SM OVC013 22/19 A3005 250 84 1200 160/06 RMK AO2 T02220194
03949KAQV AQV20190430083511804/30/19 08:35:31  5-MIN KAQV 301435Z AUTO VRB04KT 10SM BKN013 OVC019 23/19 A3005 250 81 1300 VRB/04 RMK AO2 T02280194
03949KAQV AQV20190430084011104/30/19 08:40:31  5-MIN KAQV 301440Z AUTO 17006KT 10SM OVC015 23/19 A3005 250 78 1300 170/06 RMK AO2 T02330194
03949KAQV AQV20190430084511104/30/19 08:45:31  5-MIN KAQV 301445Z AUTO 15008KT 10SM OVC015 23/19 A3005 250 78 1300 150/08 RMK AO2 T02330194
03949KAQV AQV20190430085013104/30/19 08:50:31  5-MIN KAQV 301450Z AUTO VRB06KT 10SM BKN015 OVC021 24/19 A3005 260 76 1400 VRB/06 RMK AO2 SLP174 T02390194 53010
03949KAQV AQV20190430085513004/30/19 08:55:31  5-MIN KAQV 301455Z AUTO VRB06G15KT 10SM OVC017 24/19 A3005 260 76 1400 VRB/06G15 RMK AO2 SLP173 T02390194 53010
03949KAQV AQV20190430090013304/30/19 09:00:31  5-MIN KAQV 301500Z AUTO 15008G15KT 110V190 10SM BKN017 24/19 A3005 260 76 1400 140/08G15 110V190 RMK AO2 T02390194
03949KAQV AQV20190430090513304/30/19 09:05:31  5-MIN KAQV 301505Z AUTO 17009G16KT 140V220 10SM BKN017 24/19 A3005 260 76 1400 170/09G16 140V220 RMK AO2 T02390194
03949KAQV AQV20190430091013304/30/19 09:10:31  5-MIN KAQV 301510Z AUTO 14007G16KT 090V190 10SM BKN017 24/19 A3005 260 73 1500 140/07G16 090V190 RMK AO2 T02440194
03949KAQV AQV20190430091513304/30/19 09:15:31  5-MIN KAQV 301515Z AUTO 14008G15KT 090V190 10SM BKN017 24/19 A3005 260 73 1500 140/08G15 090V190 RMK AO2 T02440194
03949KAQV AQV20190430092012704/30/19 09:20:31  5-MIN KAQV 301520Z AUTO 15008KT 110V190 10SM BKN017 24/19 A3005 260 73 1500 150/08 110V190 RMK AO2 T02440194
03949KAQV AQV20190430092511804/30/19 09:25:31  5-MIN KAQV 301525Z AUTO 16008KT 10SM BKN017 BKN022 24/19 A3005 260 73 1500 160/08 RMK AO2 T02440194
03949KAQV AQV20190430093013404/30/19 09:30:31  5-MIN KAQV 301530Z AUTO 15008KT 100V190 10SM SCT017 BKN022 25/19 A3005 260 71 1500 150/08 100V190 RMK AO2 T02500194
03949KAQV AQV20190430093513404/30/19 09:35:31  5-MIN KAQV 301535Z AUTO 17008KT 110V200 10SM SCT017 BKN023 26/19 A3004 260 68 1600 160/08 110V200 RMK AO2 T02560194
03949KAQV AQV20190430094013304/30/19 09:40:31  5-MIN KAQV 301540Z AUTO 17009G17KT 120V200 10SM BKN019 26/19 A3004 260 68 1600 160/09G17 120V200 RMK AO2 T02560194
03949KAQV AQV20190430094513304/30/19 09:45:31  5-MIN KAQV 301545Z AUTO 14009G17KT 110V210 10SM BKN019 26/19 A3005 260 66 1600 140/09G17 110V210 RMK AO2 T02610194
03949KAQV AQV20190430095014004/30/19 09:50:31  5-MIN KAQV 301550Z AUTO 15007G16KT 080V190 10SM BKN021 26/19 A3005 260 66 1600 150/07G16 080V190 RMK AO2 SLP172 T02610194
03949KAQV AQV20190430095513104/30/19 09:55:31  5-MIN KAQV 301555Z AUTO 16008G15KT 10SM SCT021 BKN028 26/19 A3005 260 66 1600 150/08G15 RMK AO2 SLP172 T02610194
03949KAQV AQV20190430100011704/30/19 10:00:31  5-MIN KAQV 301600Z AUTO VRB05G16KT 10SM SCT021 26/19 A3005 260 66 1600 VRB/05G16 RMK AO2 T02610194
03949KAQV AQV20190430100511604/30/19 10:05:31  5-MIN KAQV 301605Z AUTO 16008G16KT 9SM SCT023 27/19 A3005 260 64 1700 160/08G16 RMK AO2 T02670194
03949KAQV AQV20190430101013904/30/19 10:10:31  5-MIN KAQV 301610Z AUTO 17008G14KT 140V200 8SM SCT023 SCT029 27/19 A3005 260 64 1700 170/08G14 140V200 RMK AO2 T02670194
03949KAQV AQV20190430101512304/30/19 10:15:31  5-MIN KAQV 301615Z AUTO 16009G14KT 7SM FEW023 SCT029 27/19 A3005 260 64 1700 160/09G14 RMK AO2 T02670194
03949KAQV AQV20190430102013204/30/19 10:20:31  5-MIN KAQV 301620Z AUTO 16008G14KT 120V190 8SM FEW025 27/19 A3004 260 62 1800 160/08G14 120V190 RMK AO2 T02720194
03949KAQV AQV20190430102511004/30/19 10:25:31  5-MIN KAQV 301625Z AUTO VRB06KT 9SM FEW025 27/19 A3005 260 62 1700 VRB/06 RMK AO2 T02670189
03949KAQV AQV20190430103011804/30/19 10:30:31  5-MIN KAQV 301630Z AUTO VRB06KT 10SM FEW025 SCT032 27/19 A3005 260 62 1800 VRB/06 RMK AO2 T02720194
03949KAQV AQV20190430103512304/30/19 10:35:31  5-MIN KAQV 301635Z AUTO 16008G14KT 9SM FEW027 SCT032 27/19 A3005 260 62 1700 160/08G14 RMK AO2 T02670189
03949KAQV AQV20190430104013904/30/19 10:40:31  5-MIN KAQV 301640Z AUTO 16009G18KT 130V200 9SM FEW027 FEW032 27/19 A3005 260 60 1800 160/09G18 130V200 RMK AO2 T02720189
03949KAQV AQV20190430104513304/30/19 10:45:31  5-MIN KAQV 301645Z AUTO 16009G18KT 140V220 10SM FEW029 28/19 A3005 260 60 1800 150/09G18 140V220 RMK AO2 T02780194
03949KAQV AQV20190430105013104/30/19 10:50:31  5-MIN KAQV 301650Z AUTO 17010G18KT 10SM FEW027 SCT034 27/19 A3005 260 60 1800 160/10G18 RMK AO2 SLP171 T02720189
03949KAQV AQV20190430105513804/30/19 10:55:31  5-MIN KAQV 301655Z AUTO 18013G20KT 10SM FEW027 SCT033 SCT042 27/19 A3005 260 60 1800 170/13G20 RMK AO2 SLP171 T02720189
03949KAQV AQV20190430110014704/30/19 11:00:31  5-MIN KAQV 301700Z AUTO 19007G20KT 160V240 10SM FEW027 FEW033 SCT042 28/19 A3004 260 60 1800 180/07G20 160V240 RMK AO2 T02780194
03949KAQV AQV20190430110514004/30/19 11:05:31  5-MIN KAQV 301705Z AUTO 16007G16KT 110V200 10SM FEW029 FEW035 28/19 A3005 260 60 1800 160/07G16 110V200 RMK AO2 T02780194
03949KAQV AQV20190430111012404/30/19 11:10:31  5-MIN KAQV 301710Z AUTO 18008G16KT 10SM SCT031 SCT040 27/19 A3005 260 60 1800 180/08G16 RMK AO2 T02720189
03949KAQV AQV20190430111512404/30/19 11:15:31  5-MIN KAQV 301715Z AUTO VRB06G16KT 10SM SCT031 SCT040 27/19 A3005 260 60 1800 VRB/06G16 RMK AO2 T02720189
03949KAQV AQV20190430112012404/30/19 11:20:31  5-MIN KAQV 301720Z AUTO VRB05G15KT 10SM SCT031 SCT041 28/19 A3005 260 60 1800 VRB/05G15 RMK AO2 T02780194
03949KAQV AQV20190430112514004/30/19 11:25:31  5-MIN KAQV 301725Z AUTO 16009G15KT 100V220 10SM FEW031 SCT041 29/19 A3005 260 56 2000 150/09G15 100V220 RMK AO2 T02890194
03949KAQV AQV20190430113014004/30/19 11:30:31  5-MIN KAQV 301730Z AUTO 15010G22KT 110V180 10SM SCT034 SCT043 28/19 A3004 260 58 1800 150/10G22 110V180 RMK AO2 T02780189
03949KAQV AQV20190430113512404/30/19 11:35:31  5-MIN KAQV 301735Z AUTO 16008G22KT 10SM SCT032 SCT040 27/19 A3004 260 60 1800 150/08G22 RMK AO2 T02720189
03949KAQV AQV20190430114012304/30/19 11:40:31  5-MIN KAQV 301740Z AUTO 17007G18KT 9SM SCT032 BKN041 27/19 A3004 260 60 1800 160/07G18 RMK AO2 T02720189
03949KAQV AQV20190430114511704/30/19 11:45:31  5-MIN KAQV 301745Z AUTO VRB05KT 8SM SCT034 BKN043 28/19 A3004 260 58 1800 VRB/05 RMK AO2 T02780189
03949KAQV AQV20190430115015804/30/19 11:50:31  5-MIN KAQV 301750Z AUTO 16007KT 140V210 9SM BKN034 BKN045 28/19 A3004 270 60 1800 160/07 140V210 RMK AO2 SLP169 T02780194 10289 20217 51004
03949KAQV AQV20190430115516504/30/19 11:55:31  5-MIN KAQV 301755Z AUTO 16009G16KT 130V200 10SM SCT034 BKN045 28/19 A3004 270 58 1800 160/09G16 130V200 RMK AO2 SLP168 T02780189 10289 20217 51004
03949KAQV AQV20190430120014004/30/19 12:00:31  5-MIN KAQV 301800Z AUTO 16007G16KT 140V200 10SM BKN036 BKN045 28/19 A3004 270 60 1800 160/07G16 140V200 RMK AO2 T02780194
03949KAQV AQV20190430120512404/30/19 12:05:31  5-MIN KAQV 301805Z AUTO VRB06G16KT 10SM SCT036 BKN045 29/19 A3003 270 56 2000 VRB/06G16 RMK AO2 T02890194
03949KAQV AQV20190430121013404/30/19 12:10:31  5-MIN KAQV 301810Z AUTO 16007KT 100V190 10SM SCT034 BKN045 29/19 A3003 270 56 2000 150/07 100V190 RMK AO2 T02890194
03949KAQV AQV20190430121513104/30/19 12:15:31  5-MIN KAQV 301815Z AUTO VRB06G17KT 10SM FEW032 BKN043 BKN055 28/19 A3003 270 56 1900 VRB/06G17 RMK AO2 T02830189
03949KAQV AQV20190430122014704/30/19 12:20:31  5-MIN KAQV 301820Z AUTO 16008G17KT 130V200 10SM BKN041 BKN048 BKN055 28/19 A3003 270 56 1900 160/08G17 130V200 RMK AO2 T02830189
03949KAQV AQV20190430122514004/30/19 12:25:31  5-MIN KAQV 301825Z AUTO 17011G17KT 130V190 10SM SCT039 BKN050 28/18 A3003 270 56 1800 170/11G17 130V190 RMK AO2 T02780183
03949KAQV AQV20190430123014004/30/19 12:30:31  5-MIN KAQV 301830Z AUTO 17007G16KT 120V230 10SM SCT041 BKN050 29/19 A3003 270 54 2000 170/07G16 120V230 RMK AO2 T02890189
03949KAQV AQV20190430123513404/30/19 12:35:31  5-MIN KAQV 301835Z AUTO 15007KT 120V200 10SM BKN041 BKN050 28/19 A3003 280 56 1900 150/07 120V200 RMK AO2 T02830189
03949KAQV AQV20190430124013404/30/19 12:40:31  5-MIN KAQV 301840Z AUTO 17008KT 140V220 10SM BKN041 BKN050 29/19 A3003 280 54 2000 170/08 140V220 RMK AO2 T02890189
03949KAQV AQV20190430124512404/30/19 12:45:31  5-MIN KAQV 301845Z AUTO 18009G14KT 10SM BKN041 BKN050 28/18 A3003 280 54 1900 170/09G14 RMK AO2 T02830183
03949KAQV AQV20190430125014704/30/19 12:50:31  5-MIN KAQV 301850Z AUTO 18012G23KT 140V210 10SM SCT041 BKN050 29/18 A3002 280 52 2000 180/12G23 140V210 RMK AO2 SLP162 T02890183
03949KAQV AQV20190430125514704/30/19 12:55:31  5-MIN KAQV 301855Z AUTO 15007G23KT 100V200 10SM SCT041 BKN050 29/18 A3002 280 52 2000 150/07G23 100V200 RMK AO2 SLP162 T02890183
03949KAQV AQV20190430130013404/30/19 13:00:31  5-MIN KAQV 301900Z AUTO 16007KT 130V210 10SM SCT043 BKN050 29/19 A3002 280 54 2000 160/07 130V210 RMK AO2 T02890189
03949KAQV AQV20190430130514004/30/19 13:05:31  5-MIN KAQV 301905Z AUTO 16008G18KT 120V180 10SM SCT045 BKN050 28/18 A3002 280 52 1900 160/08G18 120V180 RMK AO2 T02830178
03949KAQV AQV20190430131012404/30/19 13:10:31  5-MIN KAQV 301910Z AUTO VRB06G18KT 10SM SCT045 SCT050 29/18 A3002 290 52 2000 VRB/06G18 RMK AO2 T02890183
03949KAQV AQV20190430131513304/30/19 13:15:31  5-MIN KAQV 301915Z AUTO 16011G19KT 110V180 10SM SCT045 29/18 A3001 290 52 2000 150/11G19 110V180 RMK AO2 T02890183
03949KAQV AQV20190430132011704/30/19 13:20:31  5-MIN KAQV 301920Z AUTO 17009G19KT 10SM FEW045 29/18 A3001 290 50 2100 170/09G19 RMK AO2 T02940183
03949KAQV AQV20190430132513304/30/19 13:25:31  5-MIN KAQV 301925Z AUTO 17009G21KT 130V190 10SM FEW047 29/18 A3001 290 52 2000 160/09G21 130V190 RMK AO2 T02890183
03949KAQV AQV20190430133014004/30/19 13:30:31  5-MIN KAQV 301930Z AUTO 17009G21KT 110V240 10SM FEW043 FEW050 29/18 A3001 300 52 2000 160/09G21 110V240 RMK AO2 T02890183
03949KAQV AQV20190430133512404/30/19 13:35:31  5-MIN KAQV 301935Z AUTO 19009G18KT 10SM FEW043 FEW055 29/19 A3000 300 54 2000 180/09G18 RMK AO2 T02890189
03949KAQV AQV20190430134012404/30/19 13:40:31  5-MIN KAQV 301940Z AUTO VRB06G17KT 10SM SCT043 SCT055 29/18 A3000 300 52 2000 VRB/06G17 RMK AO2 T02890183
03949KAQV AQV20190430134512304/30/19 13:45:31  5-MIN KAQV 301945Z AUTO 17008G15KT 9SM FEW043 SCT055 28/19 A3000 300 56 1900 160/08G15 RMK AO2 T02830189
03949KAQV AQV20190430135012404/30/19 13:50:31  5-MIN KAQV 301950Z AUTO 17007KT 9SM FEW043 FEW055 28/19 A3001 300 56 1900 170/07 RMK AO2 SLP157 T02830189
03949KAQV AQV20190430135512504/30/19 13:55:31  5-MIN KAQV 301955Z AUTO VRB06KT 10SM FEW043 SCT055 28/19 A3000 300 56 1900 VRB/06 RMK AO2 SLP157 T02830189
03949KAQV AQV20190430140014004/30/19 14:00:31  5-MIN KAQV 302000Z AUTO 17009G16KT 140V240 10SM FEW042 FEW050 29/19 A3000 300 54 2000 170/09G16 140V240 RMK AO2 T02890189
03949KAQV AQV20190430140511704/30/19 14:05:31  5-MIN KAQV 302005Z AUTO 18010G16KT 10SM FEW042 29/19 A3000 300 52 2100 180/10G16 RMK AO2 T02940189
03949KAQV AQV20190430141013004/30/19 14:10:31  5-MIN KAQV 302010Z AUTO 16011G17KT 120V210 10SM CLR 29/19 A3000 300 54 2000 150/11G17 120V210 RMK AO2 T02890189
03949KAQV AQV20190430141512404/30/19 14:15:31  5-MIN KAQV 302015Z AUTO 18008G17KT 10SM FEW044 FEW055 29/19 A3000 310 52 2100 180/08G17 RMK AO2 T02940189
03949KAQV AQV20190430142012404/30/19 14:20:31  5-MIN KAQV 302020Z AUTO VRB05G14KT 10SM FEW044 SCT050 30/19 A2999 310 52 2100 VRB/05G14 RMK AO2 T03000194
03949KAQV AQV20190430142513004/30/19 14:25:31  5-MIN KAQV 302025Z AUTO 17010G17KT 9SM SCT044 SCT050 SCT065 29/19 A2999 310 52 2100 170/10G17 RMK AO2 T02940189
03949KAQV AQV20190430143014604/30/19 14:30:31  5-MIN KAQV 302030Z AUTO 17010G17KT 140V200 9SM FEW043 SCT050 SCT065 29/18 A2999 310 52 2000 160/10G17 140V200 RMK AO2 T02890183
03949KAQV AQV20190430143514704/30/19 14:35:31  5-MIN KAQV 302035Z AUTO 18007G16KT 160V240 10SM FEW043 SCT055 SCT070 29/19 A2999 310 52 2100 180/07G16 160V240 RMK AO2 T02940189
03949KAQV AQV20190430144013404/30/19 14:40:31  5-MIN KAQV 302040Z AUTO 18009KT 130V240 10SM FEW043 SCT055 29/19 A2999 310 52 2100 180/09 130V240 RMK AO2 T02940189
03949KAQV AQV20190430144514004/30/19 14:45:31  5-MIN KAQV 302045Z AUTO 18008G18KT 090V210 10SM FEW043 SCT055 29/19 A2999 320 52 2100 170/08G18 090V210 RMK AO2 T02940189
03949KAQV AQV20190430145013704/30/19 14:50:31  5-MIN KAQV 302050Z AUTO VRB06G18KT 10SM FEW043 FEW060 30/19 A2998 320 52 2200 VRB/06G18 RMK AO2 SLP149 T03000194 58004
03949KAQV AQV20190430145511404/30/19 14:55:31  5-MIN KAQV 302055Z AUTO 10SM FEW043 29/19 A2998 320 52 2100 M /M RMK AO2 SLP148 T02940189 58004
03949KAQV AQV20190430150014004/30/19 15:00:31  5-MIN KAQV 302100Z AUTO 17009G15KT 130V210 10SM FEW055 FEW075 29/19 A2998 320 54 2000 170/09G15 130V210 RMK AO2 T02890189
03949KAQV AQV20190430150514004/30/19 15:05:31  5-MIN KAQV 302105Z AUTO 17008G17KT 140V210 10SM FEW042 SCT075 28/19 A2998 320 56 2000 170/08G17 140V210 RMK AO2 T02830189
03949KAQV AQV20190430151014004/30/19 15:10:31  5-MIN KAQV 302110Z AUTO 17007G17KT 140V200 10SM FEW042 FEW075 29/19 A2997 330 52 2100 160/07G17 140V200 RMK AO2 T02940189
03949KAQV AQV20190430151513104/30/19 15:15:31  5-MIN KAQV 302115Z AUTO VRB06G15KT 10SM FEW042 FEW055 SCT075 29/19 A2997 330 52 2100 VRB/06G15 RMK AO2 T02940189
03949KAQV AQV20190430152013104/30/19 15:20:31  5-MIN KAQV 302120Z AUTO VRB05G15KT 10SM SCT042 SCT055 SCT075 29/19 A2997 330 54 2100 VRB/05G15 RMK AO2 T02940194
03949KAQV AQV20190430152514104/30/19 15:25:31  5-MIN KAQV 302125Z AUTO 17009KT 140V210 10SM FEW042 SCT055 BKN075 29/19 A2997 330 54 2000 170/09 140V210 RMK AO2 T02890189
03949KAQV AQV20190430153014704/30/19 15:30:31  5-MIN KAQV 302130Z AUTO 17010G19KT 130V200 10SM FEW042 SCT055 BKN070 28/19 A2997 330 56 2000 170/10G19 130V200 RMK AO2 T02830189
03949KAQV AQV20190430153514204/30/19 15:35:31  5-MIN KAQV 302135Z AUTO 16008G19KT 130V190 6SM HZ FEW042 SCT055 29/19 A2997 330 54 2000 160/08G19 130V190 RMK AO2 T02890189
03949KAQV AQV20190430154014904/30/19 15:40:31  5-MIN KAQV 302140Z AUTO 17007G16KT 120V210 5SM HZ FEW042 SCT055 SCT070 29/19 A2997 330 54 2000 170/07G16 120V210 RMK AO2 T02890189
03949KAQV AQV20190430154513004/30/19 15:45:31  5-MIN KAQV 302145Z AUTO VRB06G15KT 7SM FEW044 SCT055 SCT070 28/19 A2997 330 56 2000 VRB/06G15 RMK AO2 T02830189
03949KAQV AQV20190430155013004/30/19 15:50:31  5-MIN KAQV 302150Z AUTO 17009G15KT 9SM FEW055 SCT075 28/19 A2997 330 56 2000 160/09G15 RMK AO2 SLP144 T02830189
03949KAQV AQV20190430155514604/30/19 15:55:31  5-MIN KAQV 302155Z AUTO 16007G15KT 130V200 9SM FEW055 FEW075 28/18 A2997 330 56 1900 160/07G15 130V200 RMK AO2 SLP144 T02780183
03949KAQV AQV20190430160011004/30/19 16:00:31  5-MIN KAQV 302200Z AUTO 16007KT 9SM FEW060 29/19 A2996 340 54 2000 160/07 RMK AO2 T02890189
03949KAQV AQV20190430160513304/30/19 16:05:31  5-MIN KAQV 302205Z AUTO 16008G17KT 110V190 10SM FEW043 29/19 A2996 340 54 2000 150/08G17 110V190 RMK AO2 T02890189
03949KAQV AQV20190430161012404/30/19 16:10:31  5-MIN KAQV 302210Z AUTO VRB06G17KT 10SM FEW043 SCT050 29/19 A2996 340 52 2100 VRB/06G17 RMK AO2 T02940189
03949KAQV AQV20190430161513304/30/19 16:15:31  5-MIN KAQV 302215Z AUTO 17008G15KT 120V200 10SM BKN048 29/19 A2996 340 52 2100 160/08G15 120V200 RMK AO2 T02940189
03949KAQV AQV20190430162012404/30/19 16:20:31  5-MIN KAQV 302220Z AUTO 16009G16KT 10SM FEW042 SCT050 28/19 A2996 340 56 2000 160/09G16 RMK AO2 T02830189
03949KAQV AQV20190430162512404/30/19 16:25:31  5-MIN KAQV 302225Z AUTO 17005G16KT 10SM FEW045 SCT055 28/19 A2996 340 58 1900 160/05G16 RMK AO2 T02780189
03949KAQV AQV20190430163011804/30/19 16:30:31  5-MIN KAQV 302230Z AUTO 17008KT 10SM FEW045 SCT055 28/19 A2996 340 58 1900 160/08 RMK AO2 T02780189
03949KAQV AQV20190430163513304/30/19 16:35:31  5-MIN KAQV 302235Z AUTO 18008G15KT 140V210 10SM FEW050 28/18 A2996 340 56 1900 170/08G15 140V210 RMK AO2 T02780183
03949KAQV AQV20190430164013304/30/19 16:40:31  5-MIN KAQV 302240Z AUTO 16007G15KT 130V190 10SM FEW050 28/18 A2996 340 56 1900 160/07G15 130V190 RMK AO2 T02780183
03949KAQV AQV20190430164512704/30/19 16:45:31  5-MIN KAQV 302245Z AUTO 16007KT 120V210 10SM FEW055 28/19 A2996 340 58 1900 160/07 120V210 RMK AO2 T02780189
03949KAQV AQV20190430165011804/30/19 16:50:31  5-MIN KAQV 302250Z AUTO VRB05KT 10SM SCT055 28/19 A2996 340 56 2000 VRB/05 RMK AO2 SLP142 T02830189
03949KAQV AQV20190430165513404/30/19 16:55:31  5-MIN KAQV 302255Z AUTO 17007KT 130V210 10SM SCT055 28/18 A2996 340 54 2000 160/07 130V210 RMK AO2 SLP142 T02830183
03949KAQV AQV20190430170011104/30/19 17:00:31  5-MIN KAQV 302300Z AUTO 17007KT 10SM BKN055 28/18 A2996 340 54 2000 160/07 RMK AO2 T02830183
03949KAQV AQV20190430170511804/30/19 17:05:31  5-MIN KAQV 302305Z AUTO VRB06KT 10SM SCT050 BKN055 28/18 A2996 340 54 2000 VRB/06 RMK AO2 T02830183
03949KAQV AQV20190430171012404/30/19 17:10:31  5-MIN KAQV 302310Z AUTO 18006G15KT 10SM FEW045 BKN055 28/18 A2996 340 54 2000 180/06G15 RMK AO2 T02830183
03949KAQV AQV20190430171514004/30/19 17:15:31  5-MIN KAQV 302315Z AUTO 17008G17KT 090V200 10SM BKN048 BKN060 28/18 A2996 340 54 2000 170/08G17 090V200 RMK AO2 T02830183
03949KAQV AQV20190430172012404/30/19 17:20:31  5-MIN KAQV 302320Z AUTO 17013G19KT 10SM BKN049 BKN060 28/18 A2996 340 56 1900 170/13G19 RMK AO2 T02780183
03949KAQV AQV20190430172514004/30/19 17:25:31  5-MIN KAQV 302325Z AUTO 16008G19KT 120V190 10SM BKN049 BKN060 28/19 A2996 340 58 1900 160/08G19 120V190 RMK AO2 T02780189
03949KAQV AQV20190430173011804/30/19 17:30:31  5-MIN KAQV 302330Z AUTO 16007KT 10SM FEW043 BKN055 28/19 A2996 340 58 1900 160/07 RMK AO2 T02780189
03949KAQV AQV20190430173513404/30/19 17:35:31  5-MIN KAQV 302335Z AUTO 16007KT 120V210 10SM SCT049 BKN060 28/19 A2996 340 58 1900 160/07 120V210 RMK AO2 T02780189
03949KAQV AQV20190430174011804/30/19 17:40:31  5-MIN KAQV 302340Z AUTO VRB05KT 10SM SCT048 SCT055 28/19 A2996 340 58 1900 VRB/05 RMK AO2 T02780189
03949KAQV AQV20190430174513404/30/19 17:45:31  5-MIN KAQV 302345Z AUTO 17007KT 140V210 10SM SCT048 SCT055 28/19 A2996 340 58 1900 170/07 140V210 RMK AO2 T02780189
03949KAQV AQV20190430175015904/30/19 17:50:31  5-MIN KAQV 302350Z AUTO 17008KT 120V220 10SM SCT048 SCT055 27/19 A2996 340 60 1900 160/08 120V220 RMK AO2 SLP142 T02720189 10300 20272 58020
03949KAQV AQV20190430175515904/30/19 17:55:31  5-MIN KAQV 302355Z AUTO 16007KT 110V200 10SM FEW048 SCT055 27/19 A2996 340 60 1900 160/07 110V200 RMK AO2 SLP142 T02720189 10300 20272 58020
03949KAQV AQV20190430180011804/30/19 18:00:31  5-MIN KAQV 010000Z AUTO VRB05KT 10SM FEW045 SCT050 27/19 A2996 340 62 1900 VRB/05 RMK AO2 T02720194
03949KAQV AQV20190430180511804/30/19 18:05:31  5-MIN KAQV 010005Z AUTO 16006KT 10SM FEW043 SCT049 27/19 A2996 340 64 1800 160/06 RMK AO2 T02670194
03949KAQV AQV20190430181011804/30/19 18:10:31  5-MIN KAQV 010010Z AUTO 16006KT 10SM SCT043 SCT049 27/19 A2996 340 64 1800 160/06 RMK AO2 T02670194
03949KAQV AQV20190430181512504/30/19 18:15:31  5-MIN KAQV 010015Z AUTO 14006KT 10SM FEW037 SCT045 BKN049 27/19 A2996 340 64 1800 140/06 RMK AO2 T02670194
03949KAQV AQV20190430182011804/30/19 18:20:31  5-MIN KAQV 010020Z AUTO 16007KT 10SM FEW037 BKN050 26/19 A2996 340 66 1700 160/07 RMK AO2 T02610194
03949KAQV AQV20190430182511804/30/19 18:25:31  5-MIN KAQV 010025Z AUTO VRB06KT 10SM FEW037 SCT050 26/19 A2996 340 66 1700 VRB/06 RMK AO2 T02610194
03949KAQV AQV20190430183013404/30/19 18:30:31  5-MIN KAQV 010030Z AUTO 16008KT 120V200 10SM FEW037 BKN048 26/19 A2995 340 64 1700 160/08 120V200 RMK AO2 T02610189
03949KAQV AQV20190430183513404/30/19 18:35:31  5-MIN KAQV 010035Z AUTO 16007KT 110V180 10SM FEW037 SCT048 26/19 A2995 350 66 1700 150/07 110V180 RMK AO2 T02560189
03949KAQV AQV20190430184011804/30/19 18:40:31  5-MIN KAQV 010040Z AUTO VRB05KT 10SM FEW037 FEW048 26/19 A2995 350 66 1700 VRB/05 RMK AO2 T02560189
03949KAQV AQV20190430184512704/30/19 18:45:31  5-MIN KAQV 010045Z AUTO 16007KT 120V190 10SM FEW048 26/19 A2995 350 66 1700 150/07 120V190 RMK AO2 T02560189
03949KAQV AQV20190430185012404/30/19 18:50:31  5-MIN KAQV 010050Z AUTO VRB06G15KT 10SM FEW048 26/19 A2995 350 66 1700 VRB/06G15 RMK AO2 SLP138 T02560189
03949KAQV AQV20190430185512104/30/19 18:55:31  5-MIN KAQV 010055Z AUTO VRB06G15KT 10SM CLR 25/19 A2995 350 68 1600 VRB/06G15 RMK AO2 SLP138 T02500189
03949KAQV AQV20190430190010804/30/19 19:00:31  5-MIN KAQV 010100Z AUTO 16006KT 10SM CLR 25/19 A2995 350 68 1600 160/06 RMK AO2 T02500189
03949KAQV AQV20190430190510804/30/19 19:05:31  5-MIN KAQV 010105Z AUTO VRB05KT 10SM CLR 25/19 A2995 350 68 1600 VRB/05 RMK AO2 T02500189
03949KAQV AQV20190430191010804/30/19 19:10:31  5-MIN KAQV 010110Z AUTO VRB06KT 10SM CLR 25/19 A2995 350 68 1600 VRB/06 RMK AO2 T02500189
03949KAQV AQV20190430191510804/30/19 19:15:31  5-MIN KAQV 010115Z AUTO VRB06KT 10SM CLR 25/19 A2995 350 68 1600 VRB/06 RMK AO2 T02500189
03949KAQV AQV20190430192010804/30/19 19:20:31  5-MIN KAQV 010120Z AUTO VRB06KT 10SM CLR 24/19 A2995 350 71 1600 VRB/06 RMK AO2 T02440189
03949KAQV AQV20190430192510804/30/19 19:25:31  5-MIN KAQV 010125Z AUTO 16007KT 10SM CLR 24/19 A2995 350 71 1600 160/07 RMK AO2 T02440189
03949KAQV AQV20190430193010804/30/19 19:30:31  5-MIN KAQV 010130Z AUTO 17006KT 10SM CLR 24/19 A2995 340 71 1600 160/06 RMK AO2 T02440189
03949KAQV AQV20190430193510804/30/19 19:35:31  5-MIN KAQV 010135Z AUTO 17007KT 10SM CLR 24/18 A2995 350 68 1600 160/07 RMK AO2 T02440183
03949KAQV AQV20190430194010804/30/19 19:40:31  5-MIN KAQV 010140Z AUTO VRB05KT 10SM CLR 24/18 A2995 350 68 1600 VRB/05 RMK AO2 T02440183
03949KAQV AQV20190430194512404/30/19 19:45:31  5-MIN KAQV 010145Z AUTO 17007KT 130V200 10SM CLR 24/18 A2995 340 68 1600 160/07 130V200 RMK AO2 T02440183
03949KAQV AQV20190430195013704/30/19 19:50:31  5-MIN KAQV 010150Z AUTO 16007G17KT 120V190 10SM CLR 24/18 A2996 340 68 1600 160/07G17 120V190 RMK AO2 SLP141 T02440183
03949KAQV AQV20190430195513704/30/19 19:55:31  5-MIN KAQV 010155Z AUTO 17008G17KT 140V200 10SM CLR 24/18 A2996 340 68 1600 160/08G17 140V200 RMK AO2 SLP142 T02440183
03949KAQV AQV20190430200010804/30/19 20:00:31  5-MIN KAQV 010200Z AUTO VRB06KT 10SM CLR 24/18 A2996 340 68 1600 VRB/06 RMK AO2 T02440183
03949KAQV AQV20190430200510804/30/19 20:05:31  5-MIN KAQV 010205Z AUTO 17007KT 10SM CLR 24/18 A2996 340 71 1500 160/07 RMK AO2 T02390183
03949KAQV AQV20190430201012404/30/19 20:10:31  5-MIN KAQV 010210Z AUTO 17007KT 120V200 10SM CLR 24/18 A2996 340 71 1500 170/07 120V200 RMK AO2 T02390183
03949KAQV AQV20190430201510804/30/19 20:15:31  5-MIN KAQV 010215Z AUTO VRB06KT 10SM CLR 24/18 A2996 340 71 1500 VRB/06 RMK AO2 T02390183
03949KAQV AQV20190430202010804/30/19 20:20:31  5-MIN KAQV 010220Z AUTO 16005KT 10SM CLR 24/18 A2996 340 71 1500 150/05 RMK AO2 T02390183
03949KAQV AQV20190430202510804/30/19 20:25:31  5-MIN KAQV 010225Z AUTO 16007KT 10SM CLR 24/18 A2996 330 71 1500 150/07 RMK AO2 T02390183
03949KAQV AQV20190430203010804/30/19 20:30:31  5-MIN KAQV 010230Z AUTO VRB04KT 10SM CLR 24/18 A2997 330 71 1500 VRB/04 RMK AO2 T02390183
03949KAQV AQV20190430203510804/30/19 20:35:31  5-MIN KAQV 010235Z AUTO VRB04KT 10SM CLR 23/18 A2997 330 73 1400 VRB/04 RMK AO2 T02330183
03949KAQV AQV20190430204010804/30/19 20:40:31  5-MIN KAQV 010240Z AUTO VRB05KT 10SM CLR 23/18 A2997 330 73 1400 VRB/05 RMK AO2 T02330183
03949KAQV AQV20190430204510804/30/19 20:45:31  5-MIN KAQV 010245Z AUTO 17004KT 10SM CLR 23/18 A2998 320 73 1400 160/04 RMK AO2 T02330183
03949KAQV AQV20190430205012104/30/19 20:50:31  5-MIN KAQV 010250Z AUTO VRB03KT 10SM CLR 23/19 A2998 320 76 1400 VRB/03 RMK AO2 SLP149 T02330189 56007
03949KAQV AQV20190430205512404/30/19 20:55:31  5-MIN KAQV 010255Z AUTO VRB03KT 10SM FEW021 23/19 A2998 320 76 1400 VRB/03 RMK AO2 SLP149 T02330189 56007
03949KAQV AQV20190430210010804/30/19 21:00:31  5-MIN KAQV 010300Z AUTO VRB04KT 10SM CLR 23/19 A2998 320 76 1400 VRB/04 RMK AO2 T02330189
03949KAQV AQV20190430210510804/30/19 21:05:31  5-MIN KAQV 010305Z AUTO VRB06KT 10SM CLR 23/19 A2998 320 76 1400 VRB/06 RMK AO2 T02330189
03949KAQV AQV20190430211010804/30/19 21:10:31  5-MIN KAQV 010310Z AUTO VRB04KT 10SM CLR 23/19 A2998 320 76 1400 VRB/04 RMK AO2 T02330189
03949KAQV AQV20190430211512404/30/19 21:15:31  5-MIN KAQV 010315Z AUTO 16007KT 110V190 10SM CLR 23/19 A2998 320 76 1400 160/07 110V190 RMK AO2 T02330189
03949KAQV AQV20190430212010804/30/19 21:20:31  5-MIN KAQV 010320Z AUTO VRB05KT 10SM CLR 23/19 A2998 320 76 1400 VRB/05 RMK AO2 T02330189
03949KAQV AQV20190430212510804/30/19 21:25:31  5-MIN KAQV 010325Z AUTO VRB05KT 10SM CLR 23/19 A2998 320 76 1400 VRB/05 RMK AO2 T02330189
03949KAQV AQV20190430213010804/30/19 21:30:31  5-MIN KAQV 010330Z AUTO 16005KT 10SM CLR 23/19 A2998 330 76 1400 150/05 RMK AO2 T02330189
03949KAQV AQV20190430213510804/30/19 21:35:31  5-MIN KAQV 010335Z AUTO VRB04KT 10SM CLR 23/19 A2998 330 76 1400 VRB/04 RMK AO2 T02330189
03949KAQV AQV20190430214010804/30/19 21:40:31  5-MIN KAQV 010340Z AUTO VRB04KT 10SM CLR 23/19 A2997 330 78 1300 VRB/04 RMK AO2 T02280189
03949KAQV AQV20190430214510804/30/19 21:45:31  5-MIN KAQV 010345Z AUTO 16006KT 10SM CLR 23/19 A2998 330 78 1300 160/06 RMK AO2 T02280189
03949KAQV AQV20190430215011804/30/19 21:50:31  5-MIN KAQV 010350Z AUTO 17006KT 10SM FEW019 23/19 A2998 320 78 1300 170/06 RMK AO2 SLP148 T02280189
03949KAQV AQV20190430215511804/30/19 21:55:31  5-MIN KAQV 010355Z AUTO 17006KT 10SM FEW019 23/19 A2998 320 78 1300 170/06 RMK AO2 SLP148 T02280189
03949KAQV AQV20190430220011104/30/19 22:00:31  5-MIN KAQV 010400Z AUTO VRB04KT 10SM FEW019 23/19 A2998 330 78 1300 VRB/04 RMK AO2 T02280189
03949KAQV AQV20190430220511104/30/19 22:05:31  5-MIN KAQV 010405Z AUTO VRB05KT 10SM FEW019 23/19 A2998 320 81 1300 VRB/05 RMK AO2 T02280194
03949KAQV AQV20190430221011104/30/19 22:10:31  5-MIN KAQV 010410Z AUTO 18005KT 10SM FEW019 23/19 A2998 320 81 1300 170/05 RMK AO2 T02280194
03949KAQV AQV20190430221511104/30/19 22:15:31  5-MIN KAQV 010415Z AUTO 16006KT 10SM SCT021 23/19 A2998 320 81 1300 150/06 RMK AO2 T02280194
03949KAQV AQV20190430222011104/30/19 22:20:31  5-MIN KAQV 010420Z AUTO 16003KT 10SM BKN021 23/19 A2998 320 81 1300 160/03 RMK AO2 T02280194
03949KAQV AQV20190430222511104/30/19 22:25:31  5-MIN KAQV 010425Z AUTO VRB05KT 10SM BKN021 23/19 A2998 320 81 1300 VRB/05 RMK AO2 T02280194
03949KAQV AQV20190430223011104/30/19 22:30:31  5-MIN KAQV 010430Z AUTO VRB04KT 10SM BKN021 23/19 A2998 320 81 1300 VRB/04 RMK AO2 T02280194
03949KAQV AQV20190430223511104/30/19 22:35:31  5-MIN KAQV 010435Z AUTO VRB05KT 10SM SCT021 23/19 A2998 320 81 1300 VRB/05 RMK AO2 T02280194
03949KAQV AQV20190430224011104/30/19 22:40:31  5-MIN KAQV 010440Z AUTO 17005KT 10SM SCT021 23/19 A2997 330 81 1300 160/05 RMK AO2 T02280194
03949KAQV AQV20190430224511104/30/19 22:45:31  5-MIN KAQV 010445Z AUTO 15005KT 10SM SCT020 23/19 A2997 330 81 1300 150/05 RMK AO2 T02280194
03949KAQV AQV20190430225012504/30/19 22:50:31  5-MIN KAQV 010450Z AUTO VRB05KT 10SM FEW020 SCT110 23/19 A2997 330 81 1400 VRB/05 RMK AO2 SLP145 T02280194
03949KAQV AQV20190430225513204/30/19 22:55:31  5-MIN KAQV 010455Z AUTO VRB04KT 10SM FEW020 FEW090 SCT110 23/19 A2998 320 81 1300 VRB/04 RMK AO2 SLP148 T02280194
03949KAQV AQV20190430230011804/30/19 23:00:31  5-MIN KAQV 010500Z AUTO VRB05KT 10SM FEW090 FEW110 23/19 A2998 320 81 1300 VRB/05 RMK AO2 T02280194
03949KAQV AQV20190430230511104/30/19 23:05:31  5-MIN KAQV 010505Z AUTO VRB04KT 10SM FEW110 23/19 A2998 320 81 1300 VRB/04 RMK AO2 T02280194
03949KAQV AQV20190430231011104/30/19 23:10:31  5-MIN KAQV 010510Z AUTO 17005KT 10SM FEW110 22/19 A2998 320 84 1300 170/05 RMK AO2 T02220194
03949KAQV AQV20190430231511104/30/19 23:15:31  5-MIN KAQV 010515Z AUTO 17005KT 10SM FEW110 22/19 A2998 320 84 1300 170/05 RMK AO2 T02220194
03949KAQV AQV20190430232011104/30/19 23:20:31  5-MIN KAQV 010520Z AUTO VRB05KT 10SM FEW110 22/19 A2998 320 84 1300 VRB/05 RMK AO2 T02220194
03949KAQV AQV20190430232511104/30/19 23:25:31  5-MIN KAQV 010525Z AUTO 17005KT 10SM FEW016 22/19 A2998 320 84 1300 160/05 RMK AO2 T02220194
03949KAQV AQV20190430233011104/30/19 23:30:31  5-MIN KAQV 010530Z AUTO VRB04KT 10SM FEW016 22/19 A2998 320 84 1300 VRB/04 RMK AO2 T02220194
03949KAQV AQV20190430233511104/30/19 23:35:31  5-MIN KAQV 010535Z AUTO 16005KT 10SM FEW017 22/19 A2998 320 84 1300 160/05 RMK AO2 T02220194
03949KAQV AQV20190430234011104/30/19 23:40:31  5-MIN KAQV 010540Z AUTO 17003KT 10SM SCT017 22/19 A2998 320 84 1300 160/03 RMK AO2 T02220194
03949KAQV AQV20190430234511104/30/19 23:45:31  5-MIN KAQV 010545Z AUTO VRB04KT 10SM SCT017 22/19 A2998 320 84 1300 VRB/04 RMK AO2 T02220194
03949KAQV AQV20190430235014604/30/19 23:50:31  5-MIN KAQV 010550Z AUTO VRB05KT 10SM SCT017 22/19 A2998 320 84 1300 VRB/05 RMK AO2 SLP148 T02220194 10272 20222 403000217 53006
03949KAQV AQV20190430235514604/30/19 23:55:31  5-MIN KAQV 010555Z AUTO VRB05KT 10SM SCT017 22/19 A2998 320 84 1300 VRB/05 RMK AO2 SLP148 T02220194 10272 20222 403000217 53006
