13976KLFT LFT20190601000010706/01/19 00:00:31  5-MIN KLFT 010600Z AUTO 00000KT 10SM CLR 24/22 A2995 20 90 1100 000/00 RMK AO2 T02390222
13976KLFT LFT20190601000510706/01/19 00:05:31  5-MIN KLFT 010605Z AUTO 00000KT 10SM CLR 24/22 A2995 20 90 1100 000/00 RMK AO2 T02390222
13976KLFT LFT20190601001010706/01/19 00:10:31  5-MIN KLFT 010610Z AUTO 32003KT 10SM CLR 24/22 A2995 20 87 1200 320/03 RMK AO2 T02440222
13976KLFT LFT20190601001510706/01/19 00:15:31  5-MIN KLFT 010615Z AUTO 00000KT 10SM CLR 24/22 A2995 20 87 1200 000/00 RMK AO2 T02440222
13976KLFT LFT20190601002010706/01/19 00:20:31  5-MIN KLFT 010620Z AUTO 30004KT 10SM CLR 24/22 A2995 20 90 1100 300/04 RMK AO2 T02390222
13976KLFT LFT20190601002510706/01/19 00:25:31  5-MIN KLFT 010625Z AUTO 32003KT 10SM CLR 24/22 A2995 20 87 1200 320/03 RMK AO2 T02440222
13976KLFT LFT20190601003010706/01/19 00:30:31  5-MIN KLFT 010630Z AUTO 03003KT 10SM CLR 24/22 A2995 20 90 1100 020/03 RMK AO2 T02390222
13976KLFT LFT20190601003510706/01/19 00:35:31  5-MIN KLFT 010635Z AUTO 36003KT 10SM CLR 24/22 A2995 20 87 1100 360/03 RMK AO2 T02390217
13976KLFT LFT20190601004010706/01/19 00:40:31  5-MIN KLFT 010640Z AUTO 32003KT 10SM CLR 24/22 A2994 20 90 1100 320/03 RMK AO2 T02390222
13976KLFT LFT20190601004510706/01/19 00:45:31  5-MIN KLFT 010645Z AUTO 32003KT 10SM CLR 24/22 A2994 30 90 1100 320/03 RMK AO2 T02390222
13976KLFT LFT20190601005011406/01/19 00:50:31  5-MIN KLFT 010650Z AUTO 00000KT 10SM CLR 24/22 A2994 30 90 1100 000/00 RMK AO2 SLP138 T02390222
13976KLFT LFT20190601005510706/01/19 00:55:31  5-MIN KLFT 010655Z AUTO 31003KT 10SM CLR 24/22 A2994 30 90 1100 310/03 RMK AO2 T02390222
13976KLFT LFT20190601010010706/01/19 01:00:31  5-MIN KLFT 010700Z AUTO 00000KT 10SM CLR 24/22 A2994 30 90 1100 000/00 RMK AO2 T02390222
13976KLFT LFT20190601010510706/01/19 01:05:31  5-MIN KLFT 010705Z AUTO 00000KT 10SM CLR 24/22 A2994 30 90 1100 000/00 RMK AO2 T02390222
13976KLFT LFT20190601011010706/01/19 01:10:31  5-MIN KLFT 010710Z AUTO 00000KT 10SM CLR 24/22 A2994 30 90 1100 000/00 RMK AO2 T02390222
13976KLFT LFT20190601011510706/01/19 01:15:31  5-MIN KLFT 010715Z AUTO 36003KT 10SM CLR 24/22 A2994 30 90 1100 360/03 RMK AO2 T02390222
13976KLFT LFT20190601012010706/01/19 01:20:31  5-MIN KLFT 010720Z AUTO 34003KT 10SM CLR 24/22 A2993 30 90 1100 340/03 RMK AO2 T02390222
13976KLFT LFT20190601012510706/01/19 01:25:31  5-MIN KLFT 010725Z AUTO 33003KT 10SM CLR 24/22 A2993 30 90 1100 330/03 RMK AO2 T02390222
13976KLFT LFT20190601013010706/01/19 01:30:31  5-MIN KLFT 010730Z AUTO 00000KT 10SM CLR 24/22 A2993 30 90 1100 000/00 RMK AO2 T02390222
13976KLFT LFT20190601013510706/01/19 01:35:31  5-MIN KLFT 010735Z AUTO 00000KT 10SM CLR 24/22 A2993 30 90 1100 000/00 RMK AO2 T02390222
13976KLFT LFT20190601014010706/01/19 01:40:31  5-MIN KLFT 010740Z AUTO 00000KT 10SM CLR 24/22 A2993 40 90 1100 000/00 RMK AO2 T02390222
13976KLFT LFT20190601014510706/01/19 01:45:31  5-MIN KLFT 010745Z AUTO 00000KT 10SM CLR 24/23 A2993 40 93 1100 000/00 RMK AO2 T02390228
13976KLFT LFT20190601015011406/01/19 01:50:31  5-MIN KLFT 010750Z AUTO 00000KT 10SM CLR 24/22 A2993 30 90 1100 000/00 RMK AO2 SLP135 T02390222
13976KLFT LFT20190601015510706/01/19 01:55:31  5-MIN KLFT 010755Z AUTO 00000KT 10SM CLR 24/22 A2993 30 90 1100 000/00 RMK AO2 T02390222
13976KLFT LFT20190601020010706/01/19 02:00:31  5-MIN KLFT 010800Z AUTO 00000KT 10SM CLR 24/22 A2993 30 90 1100 000/00 RMK AO2 T02390222
13976KLFT LFT20190601020510706/01/19 02:05:31  5-MIN KLFT 010805Z AUTO 00000KT 10SM CLR 24/23 A2993 30 93 1100 000/00 RMK AO2 T02390228
13976KLFT LFT20190601021010706/01/19 02:10:31  5-MIN KLFT 010810Z AUTO 11003KT 10SM CLR 24/22 A2993 30 90 1100 110/03 RMK AO2 T02390222
13976KLFT LFT20190601021510706/01/19 02:15:31  5-MIN KLFT 010815Z AUTO 00000KT 10SM CLR 24/23 A2994 30 93 1100 000/00 RMK AO2 T02390228
13976KLFT LFT20190601022010706/01/19 02:20:31  5-MIN KLFT 010820Z AUTO 00000KT 10SM CLR 24/23 A2994 30 93 1100 000/00 RMK AO2 T02390228
13976KLFT LFT20190601022510706/01/19 02:25:31  5-MIN KLFT 010825Z AUTO 00000KT 10SM CLR 23/22 A2993 30 93 1000 000/00 RMK AO2 T02330222
13976KLFT LFT20190601023010706/01/19 02:30:31  5-MIN KLFT 010830Z AUTO 00000KT 10SM CLR 23/22 A2993 30 93 1000 000/00 RMK AO2 T02330222
13976KLFT LFT20190601023510706/01/19 02:35:31  5-MIN KLFT 010835Z AUTO 00000KT 10SM CLR 23/23 A2993 30 97 1000 000/00 RMK AO2 T02330228
13976KLFT LFT20190601024010706/01/19 02:40:31  5-MIN KLFT 010840Z AUTO 00000KT 10SM CLR 23/23 A2993 30 97 1100 000/00 RMK AO2 T02330228
13976KLFT LFT20190601024510706/01/19 02:45:31  5-MIN KLFT 010845Z AUTO 21003KT 10SM CLR 23/22 A2993 30 93 1100 210/03 RMK AO2 T02330222
13976KLFT LFT20190601025012006/01/19 02:50:31  5-MIN KLFT 010850Z AUTO 16003KT 10SM CLR 23/22 A2993 30 93 1100 160/03 RMK AO2 SLP135 T02330222 50011
13976KLFT LFT20190601025510706/01/19 02:55:31  5-MIN KLFT 010855Z AUTO 00000KT 10SM CLR 23/23 A2993 40 97 1100 000/00 RMK AO2 T02330228
13976KLFT LFT20190601030010706/01/19 03:00:31  5-MIN KLFT 010900Z AUTO 00000KT 10SM CLR 23/23 A2993 40 97 1100 000/00 RMK AO2 T02330228
13976KLFT LFT20190601030510706/01/19 03:05:31  5-MIN KLFT 010905Z AUTO 00000KT 10SM CLR 23/23 A2993 40 97 1100 000/00 RMK AO2 T02330228
13976KLFT LFT20190601031010706/01/19 03:10:31  5-MIN KLFT 010910Z AUTO 00000KT 10SM CLR 23/23 A2992 40 97 1100 000/00 RMK AO2 T02330228
13976KLFT LFT20190601031510706/01/19 03:15:31  5-MIN KLFT 010915Z AUTO 00000KT 10SM CLR 23/23 A2992 40 97 1100 000/00 RMK AO2 T02330228
13976KLFT LFT20190601032010706/01/19 03:20:31  5-MIN KLFT 010920Z AUTO 00000KT 10SM CLR 23/22 A2992 40 93 1100 000/00 RMK AO2 T02330222
13976KLFT LFT20190601032511006/01/19 03:25:31  5-MIN KLFT 010925Z AUTO 00000KT 10SM FEW003 23/22 A2992 40 93 1100 000/00 RMK AO2 T02330222
13976KLFT LFT20190601033011006/01/19 03:30:31  5-MIN KLFT 010930Z AUTO 00000KT 10SM FEW003 23/23 A2992 40 97 1100 000/00 RMK AO2 T02330228
13976KLFT LFT20190601033510706/01/19 03:35:31  5-MIN KLFT 010935Z AUTO 00000KT 10SM CLR 23/23 A2992 40 97 1100 000/00 RMK AO2 T02330228
13976KLFT LFT20190601034010706/01/19 03:40:31  5-MIN KLFT 010940Z AUTO 18003KT 10SM CLR 23/22 A2993 40 93 1100 170/03 RMK AO2 T02330222
13976KLFT LFT20190601034511006/01/19 03:45:31  5-MIN KLFT 010945Z AUTO 15003KT 10SM FEW003 23/22 A2993 40 93 1100 150/03 RMK AO2 T02330222
13976KLFT LFT20190601035011706/01/19 03:50:31  5-MIN KLFT 010950Z AUTO 00000KT 10SM FEW003 23/23 A2993 40 97 1100 000/00 RMK AO2 SLP134 T02330228
13976KLFT LFT20190601035510706/01/19 03:55:31  5-MIN KLFT 010955Z AUTO 00000KT 10SM CLR 23/23 A2993 40 97 1100 000/00 RMK AO2 T02330228
13976KLFT LFT20190601040010706/01/19 04:00:31  5-MIN KLFT 011000Z AUTO 00000KT 10SM CLR 23/23 A2993 40 97 1100 000/00 RMK AO2 T02330228
13976KLFT LFT20190601040510706/01/19 04:05:31  5-MIN KLFT 011005Z AUTO 00000KT 10SM CLR 23/23 A2993 40 97 1100 000/00 RMK AO2 T02330228
13976KLFT LFT20190601041010706/01/19 04:10:31  5-MIN KLFT 011010Z AUTO 00000KT 10SM CLR 23/23 A2993 40 97 1100 000/00 RMK AO2 T02330228
13976KLFT LFT20190601041510706/01/19 04:15:31  5-MIN KLFT 011015Z AUTO 00000KT 10SM CLR 23/23 A2993 40 97 1100 000/00 RMK AO2 T02330228
13976KLFT LFT20190601042010706/01/19 04:20:31  5-MIN KLFT 011020Z AUTO 00000KT 10SM CLR 23/23 A2993 40 97 1100 000/00 RMK AO2 T02330228
13976KLFT LFT20190601042510206/01/19 04:25:31  5-MIN KLFT 011025Z 00000KT 10SM CLR 23/23 A2993 40 97 1100 000/00 RMK AO2 T02330228
13976KLFT LFT20190601043010206/01/19 04:30:31  5-MIN KLFT 011030Z 00000KT 10SM CLR 23/22 A2993 40 93 1100 000/00 RMK AO2 T02330222
13976KLFT LFT20190601043510106/01/19 04:35:31  5-MIN KLFT 011035Z 00000KT 8SM CLR 23/23 A2993 30 97 1100 000/00 RMK AO2 T02330228
13976KLFT LFT20190601044010106/01/19 04:40:31  5-MIN KLFT 011040Z 00000KT 8SM CLR 23/23 A2993 40 97 1100 000/00 RMK AO2 T02330228
13976KLFT LFT20190601044510106/01/19 04:45:31  5-MIN KLFT 011045Z 00000KT 9SM CLR 23/22 A2993 40 97 1000 000/00 RMK AO2 T02280222
13976KLFT LFT20190601045010806/01/19 04:50:31  5-MIN KLFT 011050Z 00000KT 9SM CLR 23/22 A2993 40 97 1000 000/00 RMK AO2 SLP134 T02280222
13976KLFT LFT20190601045510206/01/19 04:55:31  5-MIN KLFT 011055Z 00000KT 10SM CLR 23/22 A2993 30 97 1000 000/00 RMK AO2 T02280222
13976KLFT LFT20190601050010206/01/19 05:00:31  5-MIN KLFT 011100Z 00000KT 10SM CLR 23/22 A2993 30 93 1100 000/00 RMK AO2 T02330222
13976KLFT LFT20190601050510206/01/19 05:05:31  5-MIN KLFT 011105Z 00000KT 10SM CLR 23/22 A2993 30 93 1000 000/00 RMK AO2 T02330222
13976KLFT LFT20190601051010206/01/19 05:10:31  5-MIN KLFT 011110Z 00000KT 10SM CLR 23/22 A2993 30 93 1000 000/00 RMK AO2 T02280217
13976KLFT LFT20190601051510206/01/19 05:15:31  5-MIN KLFT 011115Z 00000KT 10SM CLR 23/22 A2993 30 93 1000 000/00 RMK AO2 T02280217
13976KLFT LFT20190601052010206/01/19 05:20:31  5-MIN KLFT 011120Z 00000KT 10SM CLR 23/22 A2994 30 93 1000 000/00 RMK AO2 T02330222
13976KLFT LFT20190601052510206/01/19 05:25:31  5-MIN KLFT 011125Z 00000KT 10SM CLR 23/22 A2994 30 93 1000 000/00 RMK AO2 T02330222
13976KLFT LFT20190601053010206/01/19 05:30:31  5-MIN KLFT 011130Z 00000KT 10SM CLR 23/22 A2994 30 93 1000 000/00 RMK AO2 T02330222
13976KLFT LFT20190601053510206/01/19 05:35:31  5-MIN KLFT 011135Z 00000KT 10SM CLR 24/23 A2994 30 93 1100 000/00 RMK AO2 T02390228
13976KLFT LFT20190601054010206/01/19 05:40:31  5-MIN KLFT 011140Z 00000KT 10SM CLR 24/22 A2994 30 90 1100 000/00 RMK AO2 T02390222
13976KLFT LFT20190601054510206/01/19 05:45:31  5-MIN KLFT 011145Z 00000KT 10SM CLR 24/22 A2994 30 90 1100 000/00 RMK AO2 T02390222
13976KLFT LFT20190601055013306/01/19 05:50:31  5-MIN KLFT 011150Z 00000KT 10SM CLR 24/22 A2994 30 90 1100 000/00 RMK AO2 SLP137 70039 T02390222 10244 20228 56007
13976KLFT LFT20190601055510206/01/19 05:55:31  5-MIN KLFT 011155Z 00000KT 10SM CLR 24/23 A2994 20 93 1100 000/00 RMK AO2 T02390228
13976KLFT LFT20190601060010206/01/19 06:00:31  5-MIN KLFT 011200Z 00000KT 10SM CLR 24/23 A2994 20 93 1100 000/00 RMK AO2 T02390228
13976KLFT LFT20190601060510206/01/19 06:05:31  5-MIN KLFT 011205Z 03003KT 10SM CLR 24/23 A2994 30 93 1100 030/03 RMK AO2 T02390228
13976KLFT LFT20190601061010206/01/19 06:10:31  5-MIN KLFT 011210Z 01003KT 10SM CLR 24/23 A2994 30 90 1200 010/03 RMK AO2 T02440228
13976KLFT LFT20190601061510206/01/19 06:15:31  5-MIN KLFT 011215Z 02003KT 10SM CLR 24/23 A2994 30 90 1200 020/03 RMK AO2 T02440228
13976KLFT LFT20190601062010206/01/19 06:20:31  5-MIN KLFT 011220Z 00000KT 10SM CLR 24/23 A2994 30 90 1200 000/00 RMK AO2 T02440228
13976KLFT LFT20190601062510206/01/19 06:25:31  5-MIN KLFT 011225Z 00000KT 10SM CLR 25/23 A2994 20 90 1200 000/00 RMK AO2 T02500233
13976KLFT LFT20190601063010206/01/19 06:30:31  5-MIN KLFT 011230Z 00000KT 10SM CLR 25/23 A2994 20 90 1200 000/00 RMK AO2 T02500233
13976KLFT LFT20190601063510206/01/19 06:35:31  5-MIN KLFT 011235Z 33003KT 10SM CLR 26/23 A2995 20 84 1300 330/03 RMK AO2 T02560228
13976KLFT LFT20190601064010206/01/19 06:40:31  5-MIN KLFT 011240Z 00000KT 10SM CLR 26/23 A2994 20 84 1300 000/00 RMK AO2 T02560228
13976KLFT LFT20190601064510206/01/19 06:45:31  5-MIN KLFT 011245Z 00000KT 10SM CLR 26/23 A2994 20 87 1300 000/00 RMK AO2 T02560233
13976KLFT LFT20190601065010906/01/19 06:50:31  5-MIN KLFT 011250Z 00000KT 10SM CLR 26/23 A2994 20 81 1400 000/00 RMK AO2 SLP139 T02610228
13976KLFT LFT20190601065510206/01/19 06:55:31  5-MIN KLFT 011255Z 34003KT 10SM CLR 27/23 A2994 20 82 1400 340/03 RMK AO2 T02670233
13976KLFT LFT20190601070010206/01/19 07:00:31  5-MIN KLFT 011300Z 00000KT 10SM CLR 27/23 A2995 20 79 1400 000/00 RMK AO2 T02670228
13976KLFT LFT20190601070510206/01/19 07:05:31  5-MIN KLFT 011305Z 00000KT 10SM CLR 27/23 A2995 20 79 1400 000/00 RMK AO2 T02670228
13976KLFT LFT20190601071010206/01/19 07:10:31  5-MIN KLFT 011310Z 00000KT 10SM CLR 27/23 A2995 20 76 1500 000/00 RMK AO2 T02720228
13976KLFT LFT20190601071510206/01/19 07:15:31  5-MIN KLFT 011315Z 00000KT 10SM CLR 27/23 A2995 20 76 1500 000/00 RMK AO2 T02720228
13976KLFT LFT20190601072010206/01/19 07:20:31  5-MIN KLFT 011320Z 33003KT 10SM CLR 27/22 A2995 20 74 1500 330/03 RMK AO2 T02720222
13976KLFT LFT20190601072510206/01/19 07:25:31  5-MIN KLFT 011325Z 00000KT 10SM CLR 27/22 A2995 20 74 1500 000/00 RMK AO2 T02720222
13976KLFT LFT20190601073010206/01/19 07:30:31  5-MIN KLFT 011330Z 35003KT 10SM CLR 28/22 A2995 20 71 1500 350/03 RMK AO2 T02780222
13976KLFT LFT20190601073510206/01/19 07:35:31  5-MIN KLFT 011335Z 34005KT 10SM CLR 28/22 A2995 20 71 1500 340/05 RMK AO2 T02780222
13976KLFT LFT20190601074010206/01/19 07:40:31  5-MIN KLFT 011340Z 34003KT 10SM CLR 28/22 A2995 10 69 1600 340/03 RMK AO2 T02830222
13976KLFT LFT20190601074510206/01/19 07:45:31  5-MIN KLFT 011345Z 01004KT 10SM CLR 28/22 A2996 10 69 1600 360/04 RMK AO2 T02830222
13976KLFT LFT20190601075010906/01/19 07:50:31  5-MIN KLFT 011350Z 33004KT 10SM CLR 28/23 A2996 10 71 1600 330/04 RMK AO2 SLP145 T02830228
13976KLFT LFT20190601075510206/01/19 07:55:31  5-MIN KLFT 011355Z 35006KT 10SM CLR 28/22 A2996 10 69 1600 350/06 RMK AO2 T02830222
13976KLFT LFT20190601080010206/01/19 08:00:31  5-MIN KLFT 011400Z 01005KT 10SM CLR 28/23 A2996 10 71 1600 010/05 RMK AO2 T02830228
13976KLFT LFT20190601080510106/01/19 08:05:31  5-MIN KLFT 011405Z 01004KT 10SM CLR 29/23 A2996 0 69 1600 010/04 RMK AO2 T02890228
13976KLFT LFT20190601081010106/01/19 08:10:31  5-MIN KLFT 011410Z 33004KT 10SM CLR 29/23 A2997 0 69 1600 330/04 RMK AO2 T02890228
13976KLFT LFT20190601081510106/01/19 08:15:31  5-MIN KLFT 011415Z VRB04KT 10SM CLR 29/23 A2996 0 69 1600 VRB/04 RMK AO2 T02890228
13976KLFT LFT20190601082010106/01/19 08:20:31  5-MIN KLFT 011420Z 35005KT 10SM CLR 29/23 A2997 0 69 1600 350/05 RMK AO2 T02890228
13976KLFT LFT20190601082510106/01/19 08:25:31  5-MIN KLFT 011425Z VRB03KT 10SM CLR 29/23 A2997 0 69 1600 VRB/03 RMK AO2 T02890228
13976KLFT LFT20190601083010106/01/19 08:30:31  5-MIN KLFT 011430Z 02004KT 10SM CLR 29/23 A2997 0 67 1700 020/04 RMK AO2 T02940228
13976KLFT LFT20190601083510106/01/19 08:35:31  5-MIN KLFT 011435Z 00000KT 10SM CLR 29/23 A2996 0 67 1700 000/00 RMK AO2 T02940228
13976KLFT LFT20190601084010206/01/19 08:40:31  5-MIN KLFT 011440Z 00000KT 10SM CLR 29/23 A2996 10 67 1700 000/00 RMK AO2 T02940228
13976KLFT LFT20190601084510106/01/19 08:45:31  5-MIN KLFT 011445Z 00000KT 10SM CLR 30/23 A2996 0 65 1800 000/00 RMK AO2 T03000228
13976KLFT LFT20190601085011406/01/19 08:50:31  5-MIN KLFT 011450Z 03003KT 10SM CLR 30/23 A2997 0 67 1800 030/03 RMK AO2 SLP146 T03000233 53003
13976KLFT LFT20190601085510106/01/19 08:55:31  5-MIN KLFT 011455Z 00000KT 10SM CLR 30/23 A2997 0 65 1800 000/00 RMK AO2 T03000228
13976KLFT LFT20190601090010106/01/19 09:00:31  5-MIN KLFT 011500Z 00000KT 10SM CLR 30/23 A2997 0 65 1800 000/00 RMK AO2 T03000228
13976KLFT LFT20190601090510306/01/19 09:05:31  5-MIN KLFT 011505Z 02003KT 10SM CLR 31/23 A2997 0 65 1800 020/03 RMK AO2 T03060233 $
13976KLFT LFT20190601091010306/01/19 09:10:31  5-MIN KLFT 011510Z 30004KT 10SM CLR 31/23 A2997 0 62 1800 300/04 RMK AO2 T03060228 $
13976KLFT LFT20190601091510306/01/19 09:15:31  5-MIN KLFT 011515Z 30003KT 10SM CLR 30/23 A2997 0 65 1800 300/03 RMK AO2 T03000228 $
13976KLFT LFT20190601092010306/01/19 09:20:31  5-MIN KLFT 011520Z 32004KT 10SM CLR 31/22 A2997 0 60 1800 320/04 RMK AO2 T03060222 $
13976KLFT LFT20190601092510306/01/19 09:25:31  5-MIN KLFT 011525Z 32004KT 10SM CLR 31/22 A2997 0 58 1900 320/04 RMK AO2 T03110222 $
13976KLFT LFT20190601093010306/01/19 09:30:31  5-MIN KLFT 011530Z 00000KT 10SM CLR 31/22 A2997 0 60 1800 000/00 RMK AO2 T03060222 $
13976KLFT LFT20190601093510306/01/19 09:35:31  5-MIN KLFT 011535Z 35005KT 10SM CLR 31/22 A2997 0 58 1900 350/05 RMK AO2 T03110222 $
13976KLFT LFT20190601094010306/01/19 09:40:31  5-MIN KLFT 011540Z 30003KT 10SM CLR 32/22 A2997 0 56 1900 300/03 RMK AO2 T03170222 $
13976KLFT LFT20190601094510306/01/19 09:45:31  5-MIN KLFT 011545Z 32005KT 10SM CLR 32/22 A2997 0 56 1900 320/05 RMK AO2 T03170222 $
13976KLFT LFT20190601095011006/01/19 09:50:31  5-MIN KLFT 011550Z 33006KT 10SM CLR 32/22 A2997 0 56 1900 330/06 RMK AO2 SLP147 T03170222 $
13976KLFT LFT20190601095510306/01/19 09:55:31  5-MIN KLFT 011555Z 00000KT 10SM CLR 32/22 A2997 0 56 1900 000/00 RMK AO2 T03170222 $
13976KLFT LFT20190601100010306/01/19 10:00:31  5-MIN KLFT 011600Z 32004KT 10SM CLR 32/22 A2996 0 56 2000 320/04 RMK AO2 T03170222 $
13976KLFT LFT20190601100510306/01/19 10:05:31  5-MIN KLFT 011605Z 00000KT 10SM CLR 31/22 A2997 0 58 1900 000/00 RMK AO2 T03110222 $
13976KLFT LFT20190601101010306/01/19 10:10:31  5-MIN KLFT 011610Z 04003KT 10SM CLR 32/22 A2997 0 56 1900 040/03 RMK AO2 T03170222 $
13976KLFT LFT20190601101510306/01/19 10:15:31  5-MIN KLFT 011615Z VRB03KT 10SM CLR 32/23 A2996 0 57 2000 VRB/03 RMK AO2 T03220228 $
13976KLFT LFT20190601102010306/01/19 10:20:31  5-MIN KLFT 011620Z 00000KT 10SM CLR 32/22 A2996 0 56 2000 000/00 RMK AO2 T03170222 $
13976KLFT LFT20190601102510306/01/19 10:25:31  5-MIN KLFT 011625Z 00000KT 10SM CLR 32/23 A2996 0 57 2000 000/00 RMK AO2 T03220228 $
13976KLFT LFT20190601103010306/01/19 10:30:31  5-MIN KLFT 011630Z 00000KT 10SM CLR 32/23 A2996 0 57 2000 000/00 RMK AO2 T03220228 $
13976KLFT LFT20190601103510406/01/19 10:35:31  5-MIN KLFT 011635Z 00000KT 10SM CLR 32/23 A2996 10 57 2000 000/00 RMK AO2 T03220228 $
13976KLFT LFT20190601104010406/01/19 10:40:31  5-MIN KLFT 011640Z 00000KT 10SM CLR 32/23 A2996 10 57 2000 000/00 RMK AO2 T03220228 $
13976KLFT LFT20190601104510406/01/19 10:45:31  5-MIN KLFT 011645Z VRB03KT 10SM CLR 33/22 A2996 10 53 2100 VRB/03 RMK AO2 T03280222 $
13976KLFT LFT20190601105011106/01/19 10:50:31  5-MIN KLFT 011650Z 00000KT 10SM CLR 33/22 A2996 10 53 2100 000/00 RMK AO2 SLP145 T03280222 $
13976KLFT LFT20190601105510406/01/19 10:55:31  5-MIN KLFT 011655Z 00000KT 10SM CLR 33/22 A2996 10 53 2100 000/00 RMK AO2 T03280222 $
13976KLFT LFT20190601110010406/01/19 11:00:31  5-MIN KLFT 011700Z 03003KT 10SM CLR 33/23 A2996 10 55 2100 030/03 RMK AO2 T03280228 $
13976KLFT LFT20190601110510406/01/19 11:05:31  5-MIN KLFT 011705Z 00000KT 10SM CLR 33/22 A2996 10 51 2100 000/00 RMK AO2 T03330222 $
13976KLFT LFT20190601111010706/01/19 11:10:31  5-MIN KLFT 011710Z 00000KT 10SM FEW039 33/22 A2996 10 51 2100 000/00 RMK AO2 T03330222 $
13976KLFT LFT20190601111510706/01/19 11:15:31  5-MIN KLFT 011715Z 00000KT 10SM SCT039 33/23 A2996 10 53 2100 000/00 RMK AO2 T03330228 $
13976KLFT LFT20190601112010706/01/19 11:20:31  5-MIN KLFT 011720Z VRB03KT 10SM SCT041 33/23 A2996 10 53 2100 VRB/03 RMK AO2 T03330228 $
13976KLFT LFT20190601112510706/01/19 11:25:31  5-MIN KLFT 011725Z 17003KT 10SM SCT041 33/22 A2996 10 53 2100 170/03 RMK AO2 T03280222 $
13976KLFT LFT20190601113010706/01/19 11:30:31  5-MIN KLFT 011730Z 26005KT 10SM FEW041 33/23 A2996 10 55 2100 260/05 RMK AO2 T03280228 $
13976KLFT LFT20190601113510706/01/19 11:35:31  5-MIN KLFT 011735Z 00000KT 10SM FEW041 33/22 A2996 10 51 2100 000/00 RMK AO2 T03330222 $
13976KLFT LFT20190601114011406/01/19 11:40:31  5-MIN KLFT 011740Z 00000KT 10SM FEW043 FEW050 34/23 A2996 10 51 2200 000/00 RMK AO2 T03390228 $
13976KLFT LFT20190601114510706/01/19 11:45:31  5-MIN KLFT 011745Z 00000KT 10SM SCT047 33/22 A2995 10 51 2100 000/00 RMK AO2 T03330222 $
13976KLFT LFT20190601115013206/01/19 11:50:31  5-MIN KLFT 011750Z 33006KT 10SM SCT047 33/22 A2995 10 51 2100 330/06 RMK AO2 SLP143 T03280217 10339 20239 53009 $
13976KLFT LFT20190601115510706/01/19 11:55:31  5-MIN KLFT 011755Z 28006KT 10SM SCT047 33/22 A2995 10 50 2100 280/06 RMK AO2 T03330217 $
13976KLFT LFT20190601120010706/01/19 12:00:31  5-MIN KLFT 011800Z 26006KT 10SM FEW047 33/21 A2995 20 48 2200 260/06 RMK AO2 T03330211 $
13976KLFT LFT20190601120510706/01/19 12:05:31  5-MIN KLFT 011805Z VRB04KT 10SM FEW047 33/21 A2995 20 48 2200 VRB/04 RMK AO2 T03330211 $
13976KLFT LFT20190601121009706/01/19 12:10:31  5-MIN KLFT 011810Z 10SM FEW046 34/21 A2995 20 46 2200 M /M RMK AO2 T03390211 $
13976KLFT LFT20190601121510706/01/19 12:15:31  5-MIN KLFT 011815Z 33004KT 10SM FEW046 34/21 A2995 20 46 2200 330/04 RMK AO2 T03390211 $
13976KLFT LFT20190601122010706/01/19 12:20:31  5-MIN KLFT 011820Z VRB05KT 10SM FEW050 33/21 A2994 20 48 2200 VRB/05 RMK AO2 T03330211 $
13976KLFT LFT20190601122510706/01/19 12:25:31  5-MIN KLFT 011825Z 25007KT 10SM FEW050 33/21 A2994 20 48 2200 250/07 RMK AO2 T03330211 $
13976KLFT LFT20190601123010406/01/19 12:30:31  5-MIN KLFT 011830Z VRB05KT 10SM CLR 33/22 A2994 30 50 2200 VRB/05 RMK AO2 T03330217 $
13976KLFT LFT20190601123510406/01/19 12:35:31  5-MIN KLFT 011835Z 30006KT 10SM CLR 34/22 A2994 30 50 2200 300/06 RMK AO2 T03390222 $
13976KLFT LFT20190601124010706/01/19 12:40:31  5-MIN KLFT 011840Z 26004KT 10SM FEW050 34/22 A2994 30 50 2200 260/04 RMK AO2 T03390222 $
13976KLFT LFT20190601124510706/01/19 12:45:31  5-MIN KLFT 011845Z 23005KT 10SM SCT050 34/22 A2994 30 50 2200 230/05 RMK AO2 T03390222 $
13976KLFT LFT20190601125011406/01/19 12:50:31  5-MIN KLFT 011850Z 33006KT 10SM SCT048 34/22 A2993 30 48 2300 330/06 RMK AO2 SLP136 T03440222 $
13976KLFT LFT20190601125510706/01/19 12:55:31  5-MIN KLFT 011855Z VRB04KT 10SM SCT048 34/22 A2993 30 48 2200 VRB/04 RMK AO2 T03390217 $
13976KLFT LFT20190601130012906/01/19 13:00:31  5-MIN KLFT 011900Z 28008G14KT 200V350 10SM SCT048 34/22 A2993 30 48 2200 280/08G14 200V350 RMK AO2 T03390217 $
13976KLFT LFT20190601130511306/01/19 13:05:31  5-MIN KLFT 011905Z 30008G14KT 10SM SCT050 34/22 A2993 30 46 2300 300/08G14 RMK AO2 T03440217 $
13976KLFT LFT20190601131010706/01/19 13:10:31  5-MIN KLFT 011910Z 33004KT 10SM SCT050 34/21 A2993 30 45 2300 330/04 RMK AO2 T03440211 $
13976KLFT LFT20190601131510706/01/19 13:15:31  5-MIN KLFT 011915Z 00000KT 10SM FEW050 34/21 A2993 30 43 2300 000/00 RMK AO2 T03440206 $
13976KLFT LFT20190601132010706/01/19 13:20:31  5-MIN KLFT 011920Z 31007KT 10SM FEW050 35/22 A2993 40 45 2400 310/07 RMK AO2 T03500217 $
13976KLFT LFT20190601132512006/01/19 13:25:31  5-MIN KLFT 011925Z 31007KT 270V340 10SM CLR 34/21 A2993 40 45 2300 310/07 270V340 RMK AO2 T03440211 $
13976KLFT LFT20190601133010406/01/19 13:30:31  5-MIN KLFT 011930Z 35007KT 10SM CLR 35/22 A2992 40 45 2400 350/07 RMK AO2 T03500217 $
13976KLFT LFT20190601133510406/01/19 13:35:31  5-MIN KLFT 011935Z VRB04KT 10SM CLR 34/22 A2992 40 46 2300 VRB/04 RMK AO2 T03440217 $
13976KLFT LFT20190601134010406/01/19 13:40:31  5-MIN KLFT 011940Z 29004KT 10SM CLR 34/22 A2992 40 48 2200 290/04 RMK AO2 T03390217 $
13976KLFT LFT20190601134510706/01/19 13:45:31  5-MIN KLFT 011945Z 31008KT 10SM FEW060 34/22 A2992 50 50 2200 310/08 RMK AO2 T03390222 $
13976KLFT LFT20190601135011406/01/19 13:50:31  5-MIN KLFT 011950Z 28005KT 10SM SCT060 34/22 A2992 50 48 2200 280/05 RMK AO2 SLP130 T03390217 $
13976KLFT LFT20190601135510706/01/19 13:55:31  5-MIN KLFT 011955Z VRB04KT 10SM FEW060 34/22 A2991 50 48 2300 VRB/04 RMK AO2 T03440222 $
13976KLFT LFT20190601140010706/01/19 14:00:31  5-MIN KLFT 012000Z 27004KT 10SM FEW060 33/22 A2991 50 50 2200 270/04 RMK AO2 T03330217 $
13976KLFT LFT20190601140509706/01/19 14:05:31  5-MIN KLFT 012005Z 10SM FEW060 34/22 A2991 50 48 2300 M /M RMK AO2 T03390217 $
13976KLFT LFT20190601141010706/01/19 14:10:31  5-MIN KLFT 012010Z 31007KT 10SM FEW060 34/22 A2991 50 48 2300 310/07 RMK AO2 T03390217 $
13976KLFT LFT20190601141510706/01/19 14:15:31  5-MIN KLFT 012015Z VRB03KT 10SM FEW060 34/22 A2991 50 46 2300 VRB/03 RMK AO2 T03440217 $
13976KLFT LFT20190601142010406/01/19 14:20:31  5-MIN KLFT 012020Z 27005KT 10SM CLR 34/22 A2991 50 48 2300 270/05 RMK AO2 T03440222 $
13976KLFT LFT20190601142510406/01/19 14:25:31  5-MIN KLFT 012025Z VRB04KT 10SM CLR 34/22 A2991 50 50 2300 VRB/04 RMK AO2 T03390222 $
13976KLFT LFT20190601143012306/01/19 14:30:31  5-MIN KLFT 012030Z 28008KT 240V300 10SM FEW055 34/23 A2991 50 50 2300 280/08 240V300 RMK AO2 T03440228 $
13976KLFT LFT20190601143510706/01/19 14:35:31  5-MIN KLFT 012035Z 30007KT 10SM FEW055 34/22 A2991 50 48 2300 300/07 RMK AO2 T03440222 $
13976KLFT LFT20190601144010706/01/19 14:40:31  5-MIN KLFT 012040Z 30005KT 10SM FEW055 34/22 A2991 60 48 2300 300/05 RMK AO2 T03440222 $
13976KLFT LFT20190601144510706/01/19 14:45:31  5-MIN KLFT 012045Z 31011KT 10SM FEW050 34/22 A2991 60 48 2300 310/11 RMK AO2 T03440222 $
13976KLFT LFT20190601145012006/01/19 14:50:31  5-MIN KLFT 012050Z 30006KT 10SM FEW050 34/22 A2991 60 46 2300 300/06 RMK AO2 SLP126 T03440217 58004 $
13976KLFT LFT20190601145510706/01/19 14:55:31  5-MIN KLFT 012055Z 26007KT 10SM FEW050 33/22 A2991 60 50 2200 260/07 RMK AO2 T03330217 $
13976KLFT LFT20190601150010706/01/19 15:00:31  5-MIN KLFT 012100Z 31006KT 10SM FEW050 34/22 A2990 60 48 2300 310/06 RMK AO2 T03440222 $
13976KLFT LFT20190601150510706/01/19 15:05:31  5-MIN KLFT 012105Z VRB06KT 10SM FEW050 34/22 A2990 60 48 2300 VRB/06 RMK AO2 T03440222 $
13976KLFT LFT20190601151010706/01/19 15:10:31  5-MIN KLFT 012110Z 32008KT 10SM FEW050 34/22 A2990 60 46 2300 310/08 RMK AO2 T03440217 $
13976KLFT LFT20190601151510706/01/19 15:15:31  5-MIN KLFT 012115Z 30006KT 10SM FEW050 34/22 A2990 70 46 2300 290/06 RMK AO2 T03440217 $
13976KLFT LFT20190601152010706/01/19 15:20:31  5-MIN KLFT 012120Z 29008KT 10SM FEW050 34/21 A2990 70 45 2300 280/08 RMK AO2 T03440211 $
13976KLFT LFT20190601152510406/01/19 15:25:31  5-MIN KLFT 012125Z 30008KT 10SM CLR 34/21 A2990 70 45 2300 300/08 RMK AO2 T03440211 $
13976KLFT LFT20190601153010406/01/19 15:30:31  5-MIN KLFT 012130Z 27006KT 10SM CLR 34/21 A2990 70 43 2300 270/06 RMK AO2 T03440206 $
13976KLFT LFT20190601153510406/01/19 15:35:31  5-MIN KLFT 012135Z 30008KT 10SM CLR 34/21 A2990 70 45 2300 300/08 RMK AO2 T03440211 $
13976KLFT LFT20190601154010406/01/19 15:40:31  5-MIN KLFT 012140Z 29008KT 10SM CLR 34/21 A2989 70 46 2300 290/08 RMK AO2 T03390211 $
13976KLFT LFT20190601154512006/01/19 15:45:31  5-MIN KLFT 012145Z 30007KT 260V320 10SM CLR 34/22 A2989 70 46 2300 300/07 260V320 RMK AO2 T03440217 $
13976KLFT LFT20190601155011706/01/19 15:50:31  5-MIN KLFT 012150Z 28009G17KT 10SM CLR 34/22 A2989 70 46 2300 280/09G17 RMK AO2 SLP121 T03440217 $
13976KLFT LFT20190601155511006/01/19 15:55:31  5-MIN KLFT 012155Z 28007G17KT 10SM CLR 34/21 A2989 70 46 2300 280/07G17 RMK AO2 T03390211 $
13976KLFT LFT20190601160010406/01/19 16:00:31  5-MIN KLFT 012200Z 27007KT 10SM CLR 34/21 A2989 70 46 2300 270/07 RMK AO2 T03390211 $
13976KLFT LFT20190601160510406/01/19 16:05:31  5-MIN KLFT 012205Z 31007KT 10SM CLR 34/22 A2989 80 48 2300 310/07 RMK AO2 T03390217 $
13976KLFT LFT20190601161010406/01/19 16:10:31  5-MIN KLFT 012210Z VRB05KT 10SM CLR 34/21 A2988 80 45 2300 VRB/05 RMK AO2 T03440211 $
13976KLFT LFT20190601161510406/01/19 16:15:31  5-MIN KLFT 012215Z 27008KT 10SM CLR 34/21 A2988 80 45 2300 270/08 RMK AO2 T03390206 $
13976KLFT LFT20190601162010406/01/19 16:20:31  5-MIN KLFT 012220Z VRB05KT 10SM CLR 34/21 A2988 80 45 2300 VRB/05 RMK AO2 T03390206 $
13976KLFT LFT20190601162510406/01/19 16:25:31  5-MIN KLFT 012225Z 31007KT 10SM CLR 34/21 A2988 80 45 2300 300/07 RMK AO2 T03390206 $
13976KLFT LFT20190601163010406/01/19 16:30:31  5-MIN KLFT 012230Z 29005KT 10SM CLR 34/21 A2988 80 46 2300 290/05 RMK AO2 T03390211 $
13976KLFT LFT20190601163510406/01/19 16:35:31  5-MIN KLFT 012235Z VRB06KT 10SM CLR 34/21 A2988 80 45 2300 VRB/06 RMK AO2 T03390206 $
13976KLFT LFT20190601164010406/01/19 16:40:31  5-MIN KLFT 012240Z 35006KT 10SM CLR 34/21 A2988 80 43 2400 350/06 RMK AO2 T03440206 $
13976KLFT LFT20190601164510406/01/19 16:45:31  5-MIN KLFT 012245Z 32007KT 10SM CLR 34/21 A2988 80 43 2400 320/07 RMK AO2 T03440206 $
13976KLFT LFT20190601165011106/01/19 16:50:31  5-MIN KLFT 012250Z 30007KT 10SM CLR 34/21 A2988 80 46 2300 290/07 RMK AO2 SLP117 T03390211 $
13976KLFT LFT20190601165510406/01/19 16:55:31  5-MIN KLFT 012255Z 30009KT 10SM CLR 34/21 A2988 80 45 2300 300/09 RMK AO2 T03390206 $
13976KLFT LFT20190601170010406/01/19 17:00:31  5-MIN KLFT 012300Z 31005KT 10SM CLR 34/20 A2988 80 43 2300 310/05 RMK AO2 T03390200 $
13976KLFT LFT20190601170510406/01/19 17:05:31  5-MIN KLFT 012305Z 31006KT 10SM CLR 34/21 A2988 90 45 2300 310/06 RMK AO2 T03390206 $
13976KLFT LFT20190601171010406/01/19 17:10:31  5-MIN KLFT 012310Z 31006KT 10SM CLR 34/20 A2988 90 43 2300 310/06 RMK AO2 T03390200 $
13976KLFT LFT20190601171510406/01/19 17:15:31  5-MIN KLFT 012315Z 32006KT 10SM CLR 34/20 A2987 90 43 2300 320/06 RMK AO2 T03390200 $
13976KLFT LFT20190601172010406/01/19 17:20:31  5-MIN KLFT 012320Z 30003KT 10SM CLR 34/19 A2987 90 42 2300 300/03 RMK AO2 T03390194 $
13976KLFT LFT20190601172510406/01/19 17:25:31  5-MIN KLFT 012325Z 31006KT 10SM CLR 33/20 A2987 90 45 2200 300/06 RMK AO2 T03330200 $
13976KLFT LFT20190601173010406/01/19 17:30:31  5-MIN KLFT 012330Z 33005KT 10SM CLR 33/20 A2987 90 45 2200 330/05 RMK AO2 T03330200 $
13976KLFT LFT20190601173510406/01/19 17:35:31  5-MIN KLFT 012335Z VRB04KT 10SM CLR 33/20 A2987 90 45 2200 VRB/04 RMK AO2 T03330200 $
13976KLFT LFT20190601174010406/01/19 17:40:31  5-MIN KLFT 012340Z 31006KT 10SM CLR 33/21 A2987 90 46 2200 310/06 RMK AO2 T03330206 $
13976KLFT LFT20190601174510406/01/19 17:45:31  5-MIN KLFT 012345Z 30005KT 10SM CLR 33/21 A2987 90 46 2200 300/05 RMK AO2 T03330206 $
13976KLFT LFT20190601175012906/01/19 17:50:31  5-MIN KLFT 012350Z 30005KT 10SM CLR 33/21 A2987 90 48 2200 300/05 RMK AO2 SLP115 T03280206 10350 20328 56017 $
13976KLFT LFT20190601175510406/01/19 17:55:31  5-MIN KLFT 012355Z 30004KT 10SM CLR 33/21 A2987 90 48 2200 300/04 RMK AO2 T03330211 $
13976KLFT LFT20190601180010406/01/19 18:00:31  5-MIN KLFT 020000Z 29003KT 10SM CLR 33/21 A2987 90 46 2200 290/03 RMK AO2 T03330206 $
13976KLFT LFT20190601180510406/01/19 18:05:31  5-MIN KLFT 020005Z 28004KT 10SM CLR 33/21 A2987 90 46 2200 280/04 RMK AO2 T03330206 $
13976KLFT LFT20190601181010406/01/19 18:10:31  5-MIN KLFT 020010Z 29005KT 10SM CLR 33/21 A2987 90 49 2200 290/05 RMK AO2 T03280211 $
13976KLFT LFT20190601181510406/01/19 18:15:31  5-MIN KLFT 020015Z 32007KT 10SM CLR 33/21 A2987 90 48 2200 320/07 RMK AO2 T03280206 $
13976KLFT LFT20190601182010406/01/19 18:20:31  5-MIN KLFT 020020Z 34006KT 10SM CLR 33/20 A2987 90 46 2200 340/06 RMK AO2 T03280200 $
13976KLFT LFT20190601182510406/01/19 18:25:31  5-MIN KLFT 020025Z 29005KT 10SM CLR 33/21 A2987 90 48 2200 290/05 RMK AO2 T03280206 $
13976KLFT LFT20190601183010406/01/19 18:30:31  5-MIN KLFT 020030Z 29006KT 10SM CLR 32/21 A2987 90 51 2100 290/06 RMK AO2 T03220211 $
13976KLFT LFT20190601183510406/01/19 18:35:31  5-MIN KLFT 020035Z 30005KT 10SM CLR 32/21 A2987 90 51 2100 300/05 RMK AO2 T03220211 $
13976KLFT LFT20190601184010406/01/19 18:40:31  5-MIN KLFT 020040Z 28006KT 10SM CLR 32/21 A2987 90 51 2100 280/06 RMK AO2 T03220211 $
13976KLFT LFT20190601184510406/01/19 18:45:31  5-MIN KLFT 020045Z 31005KT 10SM CLR 32/21 A2987 90 53 2100 300/05 RMK AO2 T03170211 $
13976KLFT LFT20190601185011106/01/19 18:50:31  5-MIN KLFT 020050Z 31005KT 10SM CLR 31/21 A2987 90 54 2000 300/05 RMK AO2 SLP113 T03110211 $
13976KLFT LFT20190601185510406/01/19 18:55:31  5-MIN KLFT 020055Z 29005KT 10SM CLR 31/21 A2987 90 54 2000 290/05 RMK AO2 T03110211 $
13976KLFT LFT20190601190010406/01/19 19:00:31  5-MIN KLFT 020100Z 29005KT 10SM CLR 31/21 A2987 90 54 2000 290/05 RMK AO2 T03110211 $
13976KLFT LFT20190601190510406/01/19 19:05:31  5-MIN KLFT 020105Z 29005KT 10SM CLR 31/21 A2987 90 54 2000 290/05 RMK AO2 T03110211 $
13976KLFT LFT20190601191010406/01/19 19:10:31  5-MIN KLFT 020110Z 30003KT 10SM CLR 31/21 A2987 90 54 2000 300/03 RMK AO2 T03110211 $
13976KLFT LFT20190601191510406/01/19 19:15:31  5-MIN KLFT 020115Z 30003KT 10SM CLR 31/21 A2987 90 54 2000 300/03 RMK AO2 T03110211 $
13976KLFT LFT20190601192010406/01/19 19:20:31  5-MIN KLFT 020120Z 29003KT 10SM CLR 31/21 A2987 90 54 2000 290/03 RMK AO2 T03110211 $
13976KLFT LFT20190601192510206/01/19 19:25:31  5-MIN KLFT 020125Z 29003KT 10SM CLR 31/21 A2987 90 54 2000 290/03 RMK AO2 T03110211
13976KLFT LFT20190601193010206/01/19 19:30:31  5-MIN KLFT 020130Z 29003KT 10SM CLR 31/21 A2987 90 54 2000 290/03 RMK AO2 T03110211
13976KLFT LFT20190601193510206/01/19 19:35:31  5-MIN KLFT 020135Z 30004KT 10SM CLR 31/21 A2987 90 56 1900 300/04 RMK AO2 T03060211
13976KLFT LFT20190601194010206/01/19 19:40:31  5-MIN KLFT 020140Z 28003KT 10SM CLR 31/21 A2987 90 56 1900 280/03 RMK AO2 T03060211
13976KLFT LFT20190601194510206/01/19 19:45:31  5-MIN KLFT 020145Z 00000KT 10SM CLR 30/22 A2988 90 60 1900 000/00 RMK AO2 T03000217
13976KLFT LFT20190601195010906/01/19 19:50:31  5-MIN KLFT 020150Z 00000KT 10SM CLR 29/23 A2987 90 69 1700 000/00 RMK AO2 SLP116 T02890228
13976KLFT LFT20190601195510206/01/19 19:55:31  5-MIN KLFT 020155Z 00000KT 10SM CLR 28/24 A2987 90 76 1700 000/00 RMK AO2 T02830239
13976KLFT LFT20190601200010206/01/19 20:00:31  5-MIN KLFT 020200Z 00000KT 10SM CLR 28/24 A2988 90 79 1600 000/00 RMK AO2 T02780239
13976KLFT LFT20190601200510206/01/19 20:05:31  5-MIN KLFT 020205Z 00000KT 10SM CLR 28/24 A2988 80 79 1600 000/00 RMK AO2 T02780239
13976KLFT LFT20190601201010206/01/19 20:10:31  5-MIN KLFT 020210Z 00000KT 10SM CLR 28/24 A2988 80 82 1600 000/00 RMK AO2 T02780244
13976KLFT LFT20190601201510206/01/19 20:15:31  5-MIN KLFT 020215Z 00000KT 10SM CLR 27/24 A2988 80 82 1500 000/00 RMK AO2 T02720239
13976KLFT LFT20190601202010206/01/19 20:20:31  5-MIN KLFT 020220Z 00000KT 10SM CLR 27/24 A2988 80 82 1500 000/00 RMK AO2 T02720239
13976KLFT LFT20190601202510206/01/19 20:25:31  5-MIN KLFT 020225Z 00000KT 10SM CLR 28/24 A2988 80 79 1600 000/00 RMK AO2 T02780239
13976KLFT LFT20190601203010206/01/19 20:30:31  5-MIN KLFT 020230Z 00000KT 10SM CLR 28/24 A2988 80 79 1600 000/00 RMK AO2 T02780239
13976KLFT LFT20190601203510206/01/19 20:35:31  5-MIN KLFT 020235Z 00000KT 10SM CLR 28/24 A2988 80 82 1600 000/00 RMK AO2 T02780244
13976KLFT LFT20190601204010206/01/19 20:40:31  5-MIN KLFT 020240Z 00000KT 10SM CLR 27/24 A2988 80 84 1500 000/00 RMK AO2 T02720244
13976KLFT LFT20190601204510206/01/19 20:45:31  5-MIN KLFT 020245Z 00000KT 10SM CLR 27/25 A2988 80 87 1500 000/00 RMK AO2 T02720250
13976KLFT LFT20190601205011506/01/19 20:50:31  5-MIN KLFT 020250Z 00000KT 10SM CLR 27/25 A2988 80 87 1500 000/00 RMK AO2 SLP119 T02720250 56012
13976KLFT LFT20190601205510206/01/19 20:55:31  5-MIN KLFT 020255Z 00000KT 10SM CLR 27/25 A2988 80 90 1500 000/00 RMK AO2 T02670250
13976KLFT LFT20190601210010206/01/19 21:00:31  5-MIN KLFT 020300Z 00000KT 10SM CLR 28/25 A2989 80 84 1600 000/00 RMK AO2 T02780250
13976KLFT LFT20190601210510206/01/19 21:05:31  5-MIN KLFT 020305Z 00000KT 10SM CLR 27/25 A2989 80 90 1500 000/00 RMK AO2 T02670250
13976KLFT LFT20190601211010206/01/19 21:10:31  5-MIN KLFT 020310Z 00000KT 10SM CLR 27/25 A2989 70 90 1500 000/00 RMK AO2 T02670250
13976KLFT LFT20190601211510706/01/19 21:15:31  5-MIN KLFT 020315Z AUTO 00000KT 10SM CLR 27/25 A2989 70 90 1500 000/00 RMK AO2 T02670250
13976KLFT LFT20190601212010706/01/19 21:20:31  5-MIN KLFT 020320Z AUTO 00000KT 10SM CLR 27/25 A2989 70 90 1500 000/00 RMK AO2 T02670250
13976KLFT LFT20190601212510706/01/19 21:25:31  5-MIN KLFT 020325Z AUTO 00000KT 10SM CLR 27/25 A2989 70 87 1500 000/00 RMK AO2 T02720250
13976KLFT LFT20190601213010706/01/19 21:30:31  5-MIN KLFT 020330Z AUTO 00000KT 10SM CLR 27/25 A2989 70 90 1500 000/00 RMK AO2 T02670250
13976KLFT LFT20190601213510706/01/19 21:35:31  5-MIN KLFT 020335Z AUTO 00000KT 10SM CLR 27/25 A2989 70 90 1500 000/00 RMK AO2 T02670250
13976KLFT LFT20190601214010706/01/19 21:40:31  5-MIN KLFT 020340Z AUTO 00000KT 10SM CLR 27/25 A2989 70 90 1500 000/00 RMK AO2 T02670250
13976KLFT LFT20190601214510706/01/19 21:45:31  5-MIN KLFT 020345Z AUTO 00000KT 10SM CLR 27/25 A2989 70 90 1500 000/00 RMK AO2 T02670250
13976KLFT LFT20190601215011406/01/19 21:50:31  5-MIN KLFT 020350Z AUTO 00000KT 10SM CLR 27/24 A2989 70 87 1500 000/00 RMK AO2 SLP122 T02670244
13976KLFT LFT20190601215510706/01/19 21:55:31  5-MIN KLFT 020355Z AUTO 00000KT 10SM CLR 27/24 A2990 70 87 1500 000/00 RMK AO2 T02670244
13976KLFT LFT20190601220010706/01/19 22:00:31  5-MIN KLFT 020400Z AUTO 00000KT 10SM CLR 27/24 A2990 60 87 1500 000/00 RMK AO2 T02670244
13976KLFT LFT20190601220510706/01/19 22:05:31  5-MIN KLFT 020405Z AUTO 00000KT 10SM CLR 27/24 A2990 60 87 1500 000/00 RMK AO2 T02670244
13976KLFT LFT20190601221010706/01/19 22:10:31  5-MIN KLFT 020410Z AUTO 00000KT 10SM CLR 27/24 A2990 60 87 1500 000/00 RMK AO2 T02670244
13976KLFT LFT20190601221510706/01/19 22:15:31  5-MIN KLFT 020415Z AUTO 00000KT 10SM CLR 27/24 A2990 60 87 1500 000/00 RMK AO2 T02670244
13976KLFT LFT20190601222010706/01/19 22:20:31  5-MIN KLFT 020420Z AUTO 22003KT 10SM CLR 27/24 A2990 60 87 1500 220/03 RMK AO2 T02670244
13976KLFT LFT20190601222510706/01/19 22:25:31  5-MIN KLFT 020425Z AUTO 24003KT 10SM CLR 27/24 A2990 60 87 1500 240/03 RMK AO2 T02670244
13976KLFT LFT20190601223010706/01/19 22:30:31  5-MIN KLFT 020430Z AUTO 26003KT 10SM CLR 27/23 A2990 60 82 1500 250/03 RMK AO2 T02670233
13976KLFT LFT20190601223510706/01/19 22:35:31  5-MIN KLFT 020435Z AUTO 26003KT 10SM CLR 27/23 A2990 60 79 1500 260/03 RMK AO2 T02670228
13976KLFT LFT20190601224010706/01/19 22:40:31  5-MIN KLFT 020440Z AUTO 25003KT 10SM CLR 27/23 A2990 60 79 1500 240/03 RMK AO2 T02670228
13976KLFT LFT20190601224510706/01/19 22:45:31  5-MIN KLFT 020445Z AUTO 23003KT 10SM CLR 27/23 A2990 60 79 1500 230/03 RMK AO2 T02670228
13976KLFT LFT20190601225011406/01/19 22:50:31  5-MIN KLFT 020450Z AUTO 00000KT 10SM CLR 27/23 A2991 60 76 1500 000/00 RMK AO2 SLP126 T02720228
13976KLFT LFT20190601225510706/01/19 22:55:31  5-MIN KLFT 020455Z AUTO 00000KT 10SM CLR 27/24 A2990 60 84 1500 000/00 RMK AO2 T02670239
13976KLFT LFT20190601230010706/01/19 23:00:31  5-MIN KLFT 020500Z AUTO 00000KT 10SM CLR 26/24 A2990 60 90 1400 000/00 RMK AO2 T02610244
13976KLFT LFT20190601230510706/01/19 23:05:31  5-MIN KLFT 020505Z AUTO 00000KT 10SM CLR 26/24 A2990 60 90 1400 000/00 RMK AO2 T02610244
13976KLFT LFT20190601231010706/01/19 23:10:31  5-MIN KLFT 020510Z AUTO 22004KT 10SM CLR 26/24 A2990 60 87 1400 220/04 RMK AO2 T02610239
13976KLFT LFT20190601231510706/01/19 23:15:31  5-MIN KLFT 020515Z AUTO 23004KT 10SM CLR 26/23 A2990 60 84 1400 220/04 RMK AO2 T02610233
13976KLFT LFT20190601232010706/01/19 23:20:31  5-MIN KLFT 020520Z AUTO 23004KT 10SM CLR 26/23 A2990 60 81 1400 220/04 RMK AO2 T02610228
13976KLFT LFT20190601232510706/01/19 23:25:31  5-MIN KLFT 020525Z AUTO 25004KT 10SM CLR 26/23 A2990 60 81 1400 250/04 RMK AO2 T02610228
13976KLFT LFT20190601233010706/01/19 23:30:31  5-MIN KLFT 020530Z AUTO 26003KT 10SM CLR 27/23 A2990 60 82 1500 260/03 RMK AO2 T02670233
13976KLFT LFT20190601233510706/01/19 23:35:31  5-MIN KLFT 020535Z AUTO 26004KT 10SM CLR 27/24 A2990 60 82 1500 260/04 RMK AO2 T02720239
13976KLFT LFT20190601234010706/01/19 23:40:31  5-MIN KLFT 020540Z AUTO 28004KT 10SM CLR 27/24 A2990 60 82 1500 280/04 RMK AO2 T02720239
13976KLFT LFT20190601234510706/01/19 23:45:31  5-MIN KLFT 020545Z AUTO 29003KT 10SM CLR 27/24 A2990 60 82 1500 290/03 RMK AO2 T02720239
13976KLFT LFT20190601235014206/01/19 23:50:31  5-MIN KLFT 020550Z AUTO 27003KT 10SM CLR 27/24 A2990 60 82 1500 270/03 RMK AO2 SLP125 T02720239 10333 20261 403500228 53004
13976KLFT LFT20190601235510706/01/19 23:55:31  5-MIN KLFT 020555Z AUTO 26004KT 10SM CLR 27/24 A2990 60 82 1500 260/04 RMK AO2 T02720239
13976KLFT LFT20190602000010706/02/19 00:00:31  5-MIN KLFT 020600Z AUTO 25003KT 10SM CLR 27/24 A2990 70 82 1500 250/03 RMK AO2 T02720239
13976KLFT LFT20190602000510706/02/19 00:05:31  5-MIN KLFT 020605Z AUTO 25004KT 10SM CLR 27/24 A2990 70 82 1500 250/04 RMK AO2 T02720239
13976KLFT LFT20190602001010706/02/19 00:10:31  5-MIN KLFT 020610Z AUTO 25005KT 10SM CLR 27/24 A2989 70 82 1500 250/05 RMK AO2 T02720239
13976KLFT LFT20190602001510706/02/19 00:15:31  5-MIN KLFT 020615Z AUTO 26005KT 10SM CLR 27/24 A2989 70 84 1500 260/05 RMK AO2 T02720244
13976KLFT LFT20190602002010706/02/19 00:20:31  5-MIN KLFT 020620Z AUTO 27004KT 10SM CLR 27/24 A2989 70 84 1500 270/04 RMK AO2 T02720244
13976KLFT LFT20190602002510706/02/19 00:25:31  5-MIN KLFT 020625Z AUTO 26004KT 10SM CLR 27/24 A2989 70 84 1500 260/04 RMK AO2 T02720244
13976KLFT LFT20190602003010706/02/19 00:30:31  5-MIN KLFT 020630Z AUTO 25004KT 10SM CLR 27/24 A2989 70 84 1500 250/04 RMK AO2 T02720244
13976KLFT LFT20190602003510706/02/19 00:35:31  5-MIN KLFT 020635Z AUTO 25004KT 10SM CLR 27/24 A2989 70 84 1500 250/04 RMK AO2 T02720244
13976KLFT LFT20190602004010706/02/19 00:40:31  5-MIN KLFT 020640Z AUTO 26004KT 10SM CLR 27/24 A2989 70 87 1500 250/04 RMK AO2 T02670244
13976KLFT LFT20190602004510706/02/19 00:45:31  5-MIN KLFT 020645Z AUTO 26004KT 10SM CLR 27/24 A2989 70 87 1500 250/04 RMK AO2 T02670244
13976KLFT LFT20190602005011406/02/19 00:50:31  5-MIN KLFT 020650Z AUTO 27005KT 10SM CLR 27/24 A2989 70 84 1500 260/05 RMK AO2 SLP121 T02720244
13976KLFT LFT20190602005510706/02/19 00:55:31  5-MIN KLFT 020655Z AUTO 27005KT 10SM CLR 27/24 A2989 70 84 1500 270/05 RMK AO2 T02720244
13976KLFT LFT20190602010010706/02/19 01:00:31  5-MIN KLFT 020700Z AUTO 28006KT 10SM CLR 27/24 A2989 70 84 1500 280/06 RMK AO2 T02720244
13976KLFT LFT20190602010510706/02/19 01:05:31  5-MIN KLFT 020705Z AUTO 28005KT 10SM CLR 27/24 A2990 70 84 1500 280/05 RMK AO2 T02720244
13976KLFT LFT20190602011010706/02/19 01:10:31  5-MIN KLFT 020710Z AUTO 30004KT 10SM CLR 27/24 A2990 70 84 1500 300/04 RMK AO2 T02720244
13976KLFT LFT20190602011510706/02/19 01:15:31  5-MIN KLFT 020715Z AUTO 30006KT 10SM CLR 27/24 A2990 70 87 1500 300/06 RMK AO2 T02670244
13976KLFT LFT20190602012010706/02/19 01:20:31  5-MIN KLFT 020720Z AUTO 30005KT 10SM CLR 27/24 A2990 70 84 1500 300/05 RMK AO2 T02720244
13976KLFT LFT20190602012510706/02/19 01:25:31  5-MIN KLFT 020725Z AUTO 31005KT 10SM CLR 27/24 A2990 70 87 1500 300/05 RMK AO2 T02670244
13976KLFT LFT20190602013010706/02/19 01:30:31  5-MIN KLFT 020730Z AUTO 30005KT 10SM CLR 27/24 A2990 70 87 1500 300/05 RMK AO2 T02670244
13976KLFT LFT20190602013510706/02/19 01:35:31  5-MIN KLFT 020735Z AUTO 31005KT 10SM CLR 27/24 A2990 70 87 1500 310/05 RMK AO2 T02670244
13976KLFT LFT20190602014010706/02/19 01:40:31  5-MIN KLFT 020740Z AUTO 31005KT 10SM CLR 27/24 A2989 70 87 1500 300/05 RMK AO2 T02670244
13976KLFT LFT20190602014510706/02/19 01:45:31  5-MIN KLFT 020745Z AUTO 30006KT 10SM CLR 27/24 A2990 70 87 1500 300/06 RMK AO2 T02670244
13976KLFT LFT20190602015011406/02/19 01:50:31  5-MIN KLFT 020750Z AUTO 30005KT 10SM CLR 27/24 A2990 70 87 1500 300/05 RMK AO2 SLP123 T02670244
13976KLFT LFT20190602015510706/02/19 01:55:31  5-MIN KLFT 020755Z AUTO 30005KT 10SM CLR 27/24 A2989 70 87 1500 300/05 RMK AO2 T02670244
13976KLFT LFT20190602020010706/02/19 02:00:31  5-MIN KLFT 020800Z AUTO 29006KT 10SM CLR 27/24 A2989 70 87 1500 290/06 RMK AO2 T02670244
13976KLFT LFT20190602020510706/02/19 02:05:31  5-MIN KLFT 020805Z AUTO 31007KT 10SM CLR 27/24 A2989 70 87 1500 310/07 RMK AO2 T02670244
13976KLFT LFT20190602021010706/02/19 02:10:31  5-MIN KLFT 020810Z AUTO 31006KT 10SM CLR 27/24 A2989 70 87 1500 310/06 RMK AO2 T02670244
13976KLFT LFT20190602021510706/02/19 02:15:31  5-MIN KLFT 020815Z AUTO 31007KT 10SM CLR 27/24 A2989 70 87 1500 310/07 RMK AO2 T02670244
13976KLFT LFT20190602022010706/02/19 02:20:31  5-MIN KLFT 020820Z AUTO 31006KT 10SM CLR 27/24 A2989 80 87 1500 300/06 RMK AO2 T02670244
13976KLFT LFT20190602022510706/02/19 02:25:31  5-MIN KLFT 020825Z AUTO 30006KT 10SM CLR 27/24 A2988 80 87 1500 300/06 RMK AO2 T02670244
13976KLFT LFT20190602023010706/02/19 02:30:31  5-MIN KLFT 020830Z AUTO 30005KT 10SM CLR 27/24 A2988 80 87 1500 300/05 RMK AO2 T02670244
13976KLFT LFT20190602023510706/02/19 02:35:31  5-MIN KLFT 020835Z AUTO 31006KT 10SM CLR 27/24 A2989 80 87 1500 310/06 RMK AO2 T02670244
13976KLFT LFT20190602024010706/02/19 02:40:31  5-MIN KLFT 020840Z AUTO 31006KT 10SM CLR 27/24 A2989 70 87 1500 310/06 RMK AO2 T02670244
13976KLFT LFT20190602024510706/02/19 02:45:31  5-MIN KLFT 020845Z AUTO 31006KT 10SM CLR 27/24 A2989 80 87 1500 300/06 RMK AO2 T02670244
13976KLFT LFT20190602025012006/02/19 02:50:31  5-MIN KLFT 020850Z AUTO 30006KT 10SM CLR 27/24 A2989 70 87 1500 300/06 RMK AO2 SLP120 T02670244 50006
13976KLFT LFT20190602025510706/02/19 02:55:31  5-MIN KLFT 020855Z AUTO 30007KT 10SM CLR 27/24 A2989 70 87 1500 300/07 RMK AO2 T02670244
13976KLFT LFT20190602030010706/02/19 03:00:31  5-MIN KLFT 020900Z AUTO 30006KT 10SM CLR 27/24 A2989 70 87 1500 300/06 RMK AO2 T02670244
13976KLFT LFT20190602030510706/02/19 03:05:31  5-MIN KLFT 020905Z AUTO 30006KT 10SM CLR 27/24 A2989 80 87 1500 300/06 RMK AO2 T02670244
13976KLFT LFT20190602031010706/02/19 03:10:31  5-MIN KLFT 020910Z AUTO 30006KT 10SM CLR 27/24 A2989 80 84 1500 300/06 RMK AO2 T02670239
13976KLFT LFT20190602031510706/02/19 03:15:31  5-MIN KLFT 020915Z AUTO 30005KT 10SM CLR 27/24 A2989 70 84 1500 300/05 RMK AO2 T02670239
13976KLFT LFT20190602032010706/02/19 03:20:31  5-MIN KLFT 020920Z AUTO 30005KT 10SM CLR 27/24 A2989 70 84 1500 300/05 RMK AO2 T02670239
13976KLFT LFT20190602032510706/02/19 03:25:31  5-MIN KLFT 020925Z AUTO 29004KT 10SM CLR 27/24 A2989 70 84 1500 290/04 RMK AO2 T02670239
13976KLFT LFT20190602033010706/02/19 03:30:31  5-MIN KLFT 020930Z AUTO 29004KT 10SM CLR 27/24 A2989 80 84 1500 290/04 RMK AO2 T02670239
13976KLFT LFT20190602033510706/02/19 03:35:31  5-MIN KLFT 020935Z AUTO 29005KT 10SM CLR 27/24 A2988 80 84 1500 290/05 RMK AO2 T02670239
13976KLFT LFT20190602034010706/02/19 03:40:31  5-MIN KLFT 020940Z AUTO 28005KT 10SM CLR 27/24 A2989 80 84 1500 280/05 RMK AO2 T02670239
13976KLFT LFT20190602034510706/02/19 03:45:31  5-MIN KLFT 020945Z AUTO 29005KT 10SM CLR 26/24 A2989 70 87 1400 290/05 RMK AO2 T02610239
13976KLFT LFT20190602035011406/02/19 03:50:31  5-MIN KLFT 020950Z AUTO 29004KT 10SM CLR 26/24 A2989 70 87 1400 290/04 RMK AO2 SLP120 T02610239
13976KLFT LFT20190602035510706/02/19 03:55:31  5-MIN KLFT 020955Z AUTO 28005KT 10SM CLR 26/24 A2989 70 87 1400 280/05 RMK AO2 T02610239
13976KLFT LFT20190602040010706/02/19 04:00:31  5-MIN KLFT 021000Z AUTO 28004KT 10SM CLR 26/24 A2989 70 87 1400 280/04 RMK AO2 T02610239
13976KLFT LFT20190602040510706/02/19 04:05:31  5-MIN KLFT 021005Z AUTO 00000KT 10SM CLR 26/24 A2989 70 87 1400 000/00 RMK AO2 T02610239
13976KLFT LFT20190602041010706/02/19 04:10:31  5-MIN KLFT 021010Z AUTO 25003KT 10SM CLR 26/24 A2989 70 87 1400 250/03 RMK AO2 T02610239
13976KLFT LFT20190602041510706/02/19 04:15:31  5-MIN KLFT 021015Z AUTO 00000KT 10SM CLR 26/24 A2989 70 90 1300 000/00 RMK AO2 T02560239
13976KLFT LFT20190602042010706/02/19 04:20:31  5-MIN KLFT 021020Z AUTO 26003KT 10SM CLR 26/24 A2989 70 90 1300 260/03 RMK AO2 T02560239
13976KLFT LFT20190602042510706/02/19 04:25:31  5-MIN KLFT 021025Z AUTO 28003KT 10SM CLR 26/24 A2989 70 90 1300 270/03 RMK AO2 T02560239
13976KLFT LFT20190602043010706/02/19 04:30:31  5-MIN KLFT 021030Z AUTO 00000KT 10SM CLR 26/24 A2989 70 90 1400 000/00 RMK AO2 T02560239
13976KLFT LFT20190602043510206/02/19 04:35:31  5-MIN KLFT 021035Z 00000KT 10SM CLR 26/24 A2989 70 90 1400 000/00 RMK AO2 T02560239
13976KLFT LFT20190602044010206/02/19 04:40:31  5-MIN KLFT 021040Z 27003KT 10SM CLR 26/24 A2989 70 90 1300 260/03 RMK AO2 T02560239
13976KLFT LFT20190602044510206/02/19 04:45:31  5-MIN KLFT 021045Z 00000KT 10SM CLR 25/24 A2990 70 93 1300 000/00 RMK AO2 T02500239
13976KLFT LFT20190602045010906/02/19 04:50:31  5-MIN KLFT 021050Z 00000KT 10SM CLR 25/23 A2990 70 90 1300 000/00 RMK AO2 SLP123 T02500233
13976KLFT LFT20190602045510206/02/19 04:55:31  5-MIN KLFT 021055Z 22003KT 10SM CLR 25/23 A2990 70 90 1300 220/03 RMK AO2 T02500233
13976KLFT LFT20190602050010206/02/19 05:00:31  5-MIN KLFT 021100Z 00000KT 10SM CLR 25/23 A2990 60 90 1300 000/00 RMK AO2 T02500233
13976KLFT LFT20190602050510206/02/19 05:05:31  5-MIN KLFT 021105Z 00000KT 10SM CLR 25/23 A2990 60 90 1300 000/00 RMK AO2 T02500233
13976KLFT LFT20190602051010206/02/19 05:10:31  5-MIN KLFT 021110Z 00000KT 10SM CLR 25/24 A2990 60 93 1300 000/00 RMK AO2 T02500239
13976KLFT LFT20190602051510206/02/19 05:15:31  5-MIN KLFT 021115Z 29004KT 10SM CLR 25/24 A2990 60 93 1300 290/04 RMK AO2 T02500239
13976KLFT LFT20190602052010206/02/19 05:20:31  5-MIN KLFT 021120Z 29003KT 10SM CLR 26/24 A2990 60 90 1300 290/03 RMK AO2 T02560239
13976KLFT LFT20190602052510206/02/19 05:25:31  5-MIN KLFT 021125Z 28003KT 10SM CLR 26/24 A2990 60 90 1300 280/03 RMK AO2 T02560239
13976KLFT LFT20190602053010206/02/19 05:30:31  5-MIN KLFT 021130Z 28003KT 10SM CLR 26/24 A2990 60 90 1300 280/03 RMK AO2 T02560239
13976KLFT LFT20190602053510206/02/19 05:35:31  5-MIN KLFT 021135Z 00000KT 10SM CLR 26/24 A2990 60 93 1300 000/00 RMK AO2 T02560244
13976KLFT LFT20190602054010206/02/19 05:40:31  5-MIN KLFT 021140Z 27003KT 10SM CLR 26/24 A2991 60 87 1400 270/03 RMK AO2 T02610239
13976KLFT LFT20190602054510206/02/19 05:45:31  5-MIN KLFT 021145Z 28003KT 10SM CLR 26/24 A2991 60 87 1400 280/03 RMK AO2 T02610239
13976KLFT LFT20190602055012706/02/19 05:50:31  5-MIN KLFT 021150Z 29003KT 10SM CLR 26/24 A2991 60 87 1400 290/03 RMK AO2 SLP127 T02610239 10272 20244 56004
13976KLFT LFT20190602055510206/02/19 05:55:31  5-MIN KLFT 021155Z 28004KT 10SM CLR 26/24 A2991 50 87 1400 280/04 RMK AO2 T02610239
13976KLFT LFT20190602060010206/02/19 06:00:31  5-MIN KLFT 021200Z 28003KT 10SM CLR 26/24 A2991 60 87 1400 280/03 RMK AO2 T02610239
13976KLFT LFT20190602060510206/02/19 06:05:31  5-MIN KLFT 021205Z 00000KT 10SM CLR 26/24 A2991 60 87 1400 000/00 RMK AO2 T02610239
13976KLFT LFT20190602061010206/02/19 06:10:31  5-MIN KLFT 021210Z 27003KT 10SM CLR 27/24 A2991 50 84 1500 270/03 RMK AO2 T02670239
13976KLFT LFT20190602061510206/02/19 06:15:31  5-MIN KLFT 021215Z 29003KT 10SM CLR 27/24 A2992 50 84 1400 290/03 RMK AO2 T02670239
13976KLFT LFT20190602062010206/02/19 06:20:31  5-MIN KLFT 021220Z 29004KT 10SM CLR 27/24 A2992 50 84 1400 290/04 RMK AO2 T02670239
13976KLFT LFT20190602062510206/02/19 06:25:31  5-MIN KLFT 021225Z 30003KT 10SM CLR 27/24 A2992 50 84 1400 300/03 RMK AO2 T02670239
13976KLFT LFT20190602063010206/02/19 06:30:31  5-MIN KLFT 021230Z 31003KT 10SM CLR 27/24 A2992 40 84 1400 310/03 RMK AO2 T02670239
13976KLFT LFT20190602063510206/02/19 06:35:31  5-MIN KLFT 021235Z 30003KT 10SM CLR 27/24 A2992 40 84 1400 300/03 RMK AO2 T02670239
13976KLFT LFT20190602064010206/02/19 06:40:31  5-MIN KLFT 021240Z 00000KT 10SM CLR 27/24 A2992 40 84 1400 000/00 RMK AO2 T02670239
13976KLFT LFT20190602064510206/02/19 06:45:31  5-MIN KLFT 021245Z 31003KT 10SM CLR 27/23 A2992 40 79 1500 310/03 RMK AO2 T02720233
13976KLFT LFT20190602065010906/02/19 06:50:31  5-MIN KLFT 021250Z 31003KT 10SM CLR 27/23 A2992 40 79 1500 300/03 RMK AO2 SLP132 T02720233
13976KLFT LFT20190602065510206/02/19 06:55:31  5-MIN KLFT 021255Z 30003KT 10SM CLR 27/23 A2993 40 79 1500 300/03 RMK AO2 T02720233
13976KLFT LFT20190602070010206/02/19 07:00:31  5-MIN KLFT 021300Z 31003KT 10SM CLR 27/23 A2993 40 79 1500 310/03 RMK AO2 T02720233
13976KLFT LFT20190602070510206/02/19 07:05:31  5-MIN KLFT 021305Z 31003KT 10SM CLR 27/23 A2993 30 79 1500 310/03 RMK AO2 T02720233
13976KLFT LFT20190602071010206/02/19 07:10:31  5-MIN KLFT 021310Z 30003KT 10SM CLR 28/23 A2993 30 76 1600 300/03 RMK AO2 T02780233
13976KLFT LFT20190602071510206/02/19 07:15:31  5-MIN KLFT 021315Z 31004KT 10SM CLR 28/23 A2993 30 76 1600 310/04 RMK AO2 T02780233
13976KLFT LFT20190602072010206/02/19 07:20:31  5-MIN KLFT 021320Z 30004KT 10SM CLR 28/24 A2994 30 79 1500 300/04 RMK AO2 T02780239
13976KLFT LFT20190602072510206/02/19 07:25:31  5-MIN KLFT 021325Z 31004KT 10SM CLR 28/24 A2994 30 76 1600 310/04 RMK AO2 T02830239
13976KLFT LFT20190602073010206/02/19 07:30:31  5-MIN KLFT 021330Z 31003KT 10SM CLR 28/23 A2994 30 74 1600 310/03 RMK AO2 T02830233
13976KLFT LFT20190602073510206/02/19 07:35:31  5-MIN KLFT 021335Z 32004KT 10SM CLR 29/24 A2994 30 74 1700 320/04 RMK AO2 T02890239
13976KLFT LFT20190602074010206/02/19 07:40:31  5-MIN KLFT 021340Z 31004KT 10SM CLR 29/23 A2994 20 71 1700 310/04 RMK AO2 T02890233
13976KLFT LFT20190602074510206/02/19 07:45:31  5-MIN KLFT 021345Z 33007KT 10SM CLR 29/23 A2994 20 71 1700 330/07 RMK AO2 T02890233
13976KLFT LFT20190602075011206/02/19 07:50:31  5-MIN KLFT 021350Z 34005KT 10SM FEW048 29/23 A2995 20 69 1700 340/05 RMK AO2 SLP140 T02890228
13976KLFT LFT20190602075510506/02/19 07:55:31  5-MIN KLFT 021355Z 33005KT 10SM SCT048 29/23 A2995 20 67 1700 330/05 RMK AO2 T02940228
13976KLFT LFT20190602080010506/02/19 08:00:31  5-MIN KLFT 021400Z 33006KT 10SM BKN048 29/23 A2995 20 67 1700 330/06 RMK AO2 T02940228
13976KLFT LFT20190602080510506/02/19 08:05:31  5-MIN KLFT 021405Z 34007KT 10SM BKN048 29/23 A2995 20 67 1700 340/07 RMK AO2 T02940228
13976KLFT LFT20190602081010506/02/19 08:10:31  5-MIN KLFT 021410Z 33004KT 10SM BKN048 29/23 A2995 20 67 1700 330/04 RMK AO2 T02940228
13976KLFT LFT20190602081510506/02/19 08:15:31  5-MIN KLFT 021415Z 33006KT 10SM OVC048 30/23 A2995 20 65 1800 330/06 RMK AO2 T03000228
13976KLFT LFT20190602082010506/02/19 08:20:31  5-MIN KLFT 021420Z 35005KT 10SM OVC049 30/23 A2995 10 65 1800 350/05 RMK AO2 T03000228
13976KLFT LFT20190602082510506/02/19 08:25:31  5-MIN KLFT 021425Z 35004KT 10SM OVC049 31/23 A2995 10 62 1800 350/04 RMK AO2 T03060228
13976KLFT LFT20190602083010506/02/19 08:30:31  5-MIN KLFT 021430Z 01005KT 10SM BKN049 31/23 A2995 10 62 1800 010/05 RMK AO2 T03060228
13976KLFT LFT20190602083510506/02/19 08:35:31  5-MIN KLFT 021435Z 02005KT 10SM BKN050 31/23 A2995 20 60 1900 020/05 RMK AO2 T03110228
13976KLFT LFT20190602084010506/02/19 08:40:31  5-MIN KLFT 021440Z 34004KT 10SM BKN050 31/23 A2995 20 60 1900 340/04 RMK AO2 T03110228
13976KLFT LFT20190602084510506/02/19 08:45:31  5-MIN KLFT 021445Z VRB04KT 10SM SCT050 31/22 A2995 20 58 1900 VRB/04 RMK AO2 T03110222
13976KLFT LFT20190602085011806/02/19 08:50:31  5-MIN KLFT 021450Z 34003KT 10SM FEW050 31/22 A2995 20 58 1900 340/03 RMK AO2 SLP140 T03110222 53007
13976KLFT LFT20190602085510506/02/19 08:55:31  5-MIN KLFT 021455Z 01004KT 10SM FEW050 31/22 A2995 20 58 1900 010/04 RMK AO2 T03110222
13976KLFT LFT20190602090010206/02/19 09:00:31  5-MIN KLFT 021500Z 35004KT 10SM CLR 32/22 A2995 20 56 2000 340/04 RMK AO2 T03170222
13976KLFT LFT20190602090510406/02/19 09:05:31  5-MIN KLFT 021505Z 00000KT 10SM CLR 32/22 A2995 20 56 2000 000/00 RMK AO2 T03170222 $
13976KLFT LFT20190602091010406/02/19 09:10:31  5-MIN KLFT 021510Z 00000KT 10SM CLR 32/23 A2995 20 58 2000 000/00 RMK AO2 T03170228 $
13976KLFT LFT20190602091510406/02/19 09:15:31  5-MIN KLFT 021515Z 00000KT 10SM CLR 32/23 A2995 20 57 2000 000/00 RMK AO2 T03220228 $
13976KLFT LFT20190602092010406/02/19 09:20:31  5-MIN KLFT 021520Z 00000KT 10SM CLR 32/23 A2995 20 57 2000 000/00 RMK AO2 T03220228 $
13976KLFT LFT20190602092510406/02/19 09:25:31  5-MIN KLFT 021525Z 03004KT 10SM CLR 33/23 A2995 20 55 2100 030/04 RMK AO2 T03280228 $
13976KLFT LFT20190602093010406/02/19 09:30:31  5-MIN KLFT 021530Z 00000KT 10SM CLR 33/23 A2995 20 57 2100 000/00 RMK AO2 T03280233 $
13976KLFT LFT20190602093510406/02/19 09:35:31  5-MIN KLFT 021535Z 06004KT 10SM CLR 32/23 A2995 20 57 2000 060/04 RMK AO2 T03220228 $
13976KLFT LFT20190602094010406/02/19 09:40:31  5-MIN KLFT 021540Z 08003KT 10SM CLR 32/23 A2995 20 57 2000 080/03 RMK AO2 T03220228 $
13976KLFT LFT20190602094510406/02/19 09:45:31  5-MIN KLFT 021545Z 00000KT 10SM CLR 32/23 A2995 20 57 2000 000/00 RMK AO2 T03220228 $
13976KLFT LFT20190602095011106/02/19 09:50:31  5-MIN KLFT 021550Z 06003KT 10SM CLR 33/23 A2995 20 55 2100 060/03 RMK AO2 SLP141 T03280228 $
13976KLFT LFT20190602095510406/02/19 09:55:31  5-MIN KLFT 021555Z 05004KT 10SM CLR 33/23 A2995 20 55 2100 050/04 RMK AO2 T03280228 $
13976KLFT LFT20190602100010406/02/19 10:00:31  5-MIN KLFT 021600Z 04005KT 10SM CLR 33/23 A2995 20 55 2100 040/05 RMK AO2 T03280228 $
13976KLFT LFT20190602100510406/02/19 10:05:31  5-MIN KLFT 021605Z VRB04KT 10SM CLR 33/22 A2995 20 53 2100 VRB/04 RMK AO2 T03280222 $
13976KLFT LFT20190602101010406/02/19 10:10:31  5-MIN KLFT 021610Z 04004KT 10SM CLR 33/22 A2995 20 51 2100 040/04 RMK AO2 T03330222 $
13976KLFT LFT20190602101510406/02/19 10:15:31  5-MIN KLFT 021615Z 03005KT 10SM CLR 33/22 A2995 20 51 2200 030/05 RMK AO2 T03330222 $
13976KLFT LFT20190602204010506/02/19 20:40:31  5-MIN KLFT 030240Z 00000KT 10SM SCT060 29/23 A2990 60 71 1700 000/00 RMK AO2 T02890233
13976KLFT LFT20190602204510506/02/19 20:45:31  5-MIN KLFT 030245Z 00000KT 10SM SCT060 29/24 A2990 60 74 1700 000/00 RMK AO2 T02890239
13976KLFT LFT20190602205011806/02/19 20:50:31  5-MIN KLFT 030250Z 00000KT 10SM FEW060 29/24 A2990 60 74 1700 000/00 RMK AO2 SLP124 T02890239 55004
13976KLFT LFT20190602205510506/02/19 20:55:31  5-MIN KLFT 030255Z 13003KT 10SM FEW060 28/24 A2990 60 79 1700 120/03 RMK AO2 T02830244
13976KLFT LFT20190602210010206/02/19 21:00:31  5-MIN KLFT 030300Z 15003KT 10SM CLR 29/24 A2990 60 76 1700 140/03 RMK AO2 T02890244
13976KLFT LFT20190602210510206/02/19 21:05:31  5-MIN KLFT 030305Z 13003KT 10SM CLR 28/24 A2990 60 79 1600 130/03 RMK AO2 T02830244
13976KLFT LFT20190602211010206/02/19 21:10:31  5-MIN KLFT 030310Z 00000KT 10SM CLR 28/24 A2990 60 76 1700 000/00 RMK AO2 T02830239
13976KLFT LFT20190602211510206/02/19 21:15:31  5-MIN KLFT 030315Z 00000KT 10SM CLR 28/23 A2990 60 74 1600 000/00 RMK AO2 T02830233
13976KLFT LFT20190602212010206/02/19 21:20:31  5-MIN KLFT 030320Z 00000KT 10SM CLR 28/23 A2991 60 74 1600 000/00 RMK AO2 T02830233
13976KLFT LFT20190602212510206/02/19 21:25:31  5-MIN KLFT 030325Z 00000KT 10SM CLR 29/23 A2991 50 71 1700 000/00 RMK AO2 T02890233
13976KLFT LFT20190602213010706/02/19 21:30:31  5-MIN KLFT 030330Z AUTO 00000KT 10SM CLR 29/23 A2991 50 71 1700 000/00 RMK AO2 T02890233
13976KLFT LFT20190602213510706/02/19 21:35:31  5-MIN KLFT 030335Z AUTO 00000KT 10SM CLR 29/23 A2991 50 71 1700 000/00 RMK AO2 T02890233
13976KLFT LFT20190602214010706/02/19 21:40:31  5-MIN KLFT 030340Z AUTO 00000KT 10SM CLR 28/23 A2991 50 74 1600 000/00 RMK AO2 T02830233
13976KLFT LFT20190602214510706/02/19 21:45:31  5-MIN KLFT 030345Z AUTO 22004KT 10SM CLR 28/23 A2991 50 74 1600 210/04 RMK AO2 T02780228
13976KLFT LFT20190602215011406/02/19 21:50:31  5-MIN KLFT 030350Z AUTO 22003KT 10SM CLR 28/23 A2992 50 74 1600 220/03 RMK AO2 SLP130 T02780228
13976KLFT LFT20190602215510706/02/19 21:55:31  5-MIN KLFT 030355Z AUTO 23004KT 10SM CLR 28/22 A2992 50 69 1600 230/04 RMK AO2 T02830222
13976KLFT LFT20190602220010706/02/19 22:00:31  5-MIN KLFT 030400Z AUTO 22005KT 10SM CLR 28/22 A2992 50 69 1600 220/05 RMK AO2 T02830222
13976KLFT LFT20190602220510706/02/19 22:05:31  5-MIN KLFT 030405Z AUTO 25005KT 10SM CLR 28/22 A2992 40 69 1600 250/05 RMK AO2 T02830222
13976KLFT LFT20190602221010706/02/19 22:10:31  5-MIN KLFT 030410Z AUTO 28005KT 10SM CLR 29/22 A2992 40 67 1700 280/05 RMK AO2 T02890222
13976KLFT LFT20190602221510706/02/19 22:15:31  5-MIN KLFT 030415Z AUTO 27004KT 10SM CLR 29/22 A2992 40 67 1700 270/04 RMK AO2 T02890222
13976KLFT LFT20190602222010706/02/19 22:20:31  5-MIN KLFT 030420Z AUTO 25004KT 10SM CLR 29/22 A2992 40 64 1800 250/04 RMK AO2 T02940222
13976KLFT LFT20190602222510706/02/19 22:25:31  5-MIN KLFT 030425Z AUTO 27006KT 10SM CLR 29/23 A2992 40 69 1700 260/06 RMK AO2 T02890228
13976KLFT LFT20190602223010706/02/19 22:30:31  5-MIN KLFT 030430Z AUTO 26005KT 10SM CLR 29/23 A2992 40 69 1700 260/05 RMK AO2 T02890228
13976KLFT LFT20190602223510706/02/19 22:35:31  5-MIN KLFT 030435Z AUTO 26006KT 10SM CLR 29/23 A2992 50 71 1700 260/06 RMK AO2 T02890233
13976KLFT LFT20190602224010706/02/19 22:40:31  5-MIN KLFT 030440Z AUTO 25005KT 10SM CLR 29/23 A2992 50 71 1700 250/05 RMK AO2 T02890233
13976KLFT LFT20190602224510706/02/19 22:45:31  5-MIN KLFT 030445Z AUTO 26004KT 10SM CLR 29/23 A2992 50 71 1700 260/04 RMK AO2 T02890233
13976KLFT LFT20190602225011406/02/19 22:50:31  5-MIN KLFT 030450Z AUTO 28003KT 10SM CLR 28/23 A2992 50 74 1600 280/03 RMK AO2 SLP130 T02830233
13976KLFT LFT20190602225511006/02/19 22:55:31  5-MIN KLFT 030455Z AUTO 27004KT 10SM FEW055 28/23 A2992 40 74 1600 270/04 RMK AO2 T02830233
13976KLFT LFT20190602230011006/02/19 23:00:31  5-MIN KLFT 030500Z AUTO 28004KT 10SM SCT055 28/24 A2992 40 76 1600 280/04 RMK AO2 T02830239
13976KLFT LFT20190602230511006/02/19 23:05:31  5-MIN KLFT 030505Z AUTO 29004KT 10SM BKN055 28/24 A2992 40 76 1600 290/04 RMK AO2 T02830239
13976KLFT LFT20190602231011006/02/19 23:10:31  5-MIN KLFT 030510Z AUTO 29003KT 10SM BKN055 28/24 A2992 40 76 1600 290/03 RMK AO2 T02830239
13976KLFT LFT20190602231511006/02/19 23:15:31  5-MIN KLFT 030515Z AUTO 28003KT 10SM SCT055 28/24 A2992 40 76 1600 280/03 RMK AO2 T02830239
13976KLFT LFT20190602232011006/02/19 23:20:31  5-MIN KLFT 030520Z AUTO 28004KT 10SM SCT055 28/24 A2992 40 76 1600 280/04 RMK AO2 T02830239
13976KLFT LFT20190602232511006/02/19 23:25:31  5-MIN KLFT 030525Z AUTO 29003KT 10SM BKN060 28/24 A2992 40 76 1600 290/03 RMK AO2 T02830239
13976KLFT LFT20190602233011006/02/19 23:30:31  5-MIN KLFT 030530Z AUTO 28004KT 10SM SCT060 28/24 A2992 40 76 1600 280/04 RMK AO2 T02830239
13976KLFT LFT20190602233511006/02/19 23:35:31  5-MIN KLFT 030535Z AUTO 29005KT 10SM FEW060 28/24 A2992 40 76 1600 290/05 RMK AO2 T02830239
13976KLFT LFT20190602234011006/02/19 23:40:31  5-MIN KLFT 030540Z AUTO 28004KT 10SM FEW060 28/24 A2992 40 79 1600 280/04 RMK AO2 T02830244
13976KLFT LFT20190602234511006/02/19 23:45:31  5-MIN KLFT 030545Z AUTO 29005KT 10SM FEW060 28/24 A2992 40 82 1600 290/05 RMK AO2 T02780244
13976KLFT LFT20190602235014506/02/19 23:50:31  5-MIN KLFT 030550Z AUTO 29005KT 10SM FEW060 28/24 A2993 40 82 1600 290/05 RMK AO2 SLP133 T02780244 10344 20278 403610244 51007
13976KLFT LFT20190602235510706/02/19 23:55:31  5-MIN KLFT 030555Z AUTO 29005KT 10SM CLR 28/24 A2993 40 82 1600 290/05 RMK AO2 T02780244
13976KLFT LFT20190603000010706/03/19 00:00:31  5-MIN KLFT 030600Z AUTO 29005KT 10SM CLR 28/24 A2993 40 82 1600 290/05 RMK AO2 T02780244
13976KLFT LFT20190603000510706/03/19 00:05:31  5-MIN KLFT 030605Z AUTO 28005KT 10SM CLR 28/24 A2993 40 82 1600 280/05 RMK AO2 T02780244
13976KLFT LFT20190603001010706/03/19 00:10:31  5-MIN KLFT 030610Z AUTO 29004KT 10SM CLR 28/24 A2993 40 82 1600 290/04 RMK AO2 T02780244
13976KLFT LFT20190603001510706/03/19 00:15:31  5-MIN KLFT 030615Z AUTO 29004KT 10SM CLR 28/24 A2993 40 82 1600 290/04 RMK AO2 T02780244
13976KLFT LFT20190603002010706/03/19 00:20:31  5-MIN KLFT 030620Z AUTO 30005KT 10SM CLR 28/24 A2993 40 82 1600 300/05 RMK AO2 T02780244
13976KLFT LFT20190603002510706/03/19 00:25:31  5-MIN KLFT 030625Z AUTO 30005KT 10SM CLR 28/24 A2993 40 82 1600 300/05 RMK AO2 T02780244
13976KLFT LFT20190603003010706/03/19 00:30:31  5-MIN KLFT 030630Z AUTO 30005KT 10SM CLR 28/24 A2992 40 82 1600 300/05 RMK AO2 T02780244
13976KLFT LFT20190603003510706/03/19 00:35:31  5-MIN KLFT 030635Z AUTO 30005KT 10SM CLR 27/24 A2993 40 84 1500 300/05 RMK AO2 T02720244
13976KLFT LFT20190603004010706/03/19 00:40:31  5-MIN KLFT 030640Z AUTO 31004KT 10SM CLR 27/24 A2992 40 84 1500 300/04 RMK AO2 T02720244
13976KLFT LFT20190603004511006/03/19 00:45:31  5-MIN KLFT 030645Z AUTO 30004KT 10SM FEW060 27/24 A2993 40 84 1500 300/04 RMK AO2 T02720244
13976KLFT LFT20190603005011706/03/19 00:50:31  5-MIN KLFT 030650Z AUTO 28006KT 10SM FEW060 27/24 A2993 40 84 1500 280/06 RMK AO2 SLP133 T02720244
13976KLFT LFT20190603005511006/03/19 00:55:31  5-MIN KLFT 030655Z AUTO 29005KT 10SM FEW060 27/24 A2992 40 84 1500 290/05 RMK AO2 T02720244
13976KLFT LFT20190603010011006/03/19 01:00:31  5-MIN KLFT 030700Z AUTO 28004KT 10SM FEW060 27/24 A2992 40 84 1500 280/04 RMK AO2 T02720244
13976KLFT LFT20190603010511006/03/19 01:05:31  5-MIN KLFT 030705Z AUTO 29003KT 10SM FEW060 27/24 A2992 40 84 1500 290/03 RMK AO2 T02720244
13976KLFT LFT20190603011011006/03/19 01:10:31  5-MIN KLFT 030710Z AUTO 30004KT 10SM FEW060 27/24 A2992 40 84 1500 300/04 RMK AO2 T02720244
13976KLFT LFT20190603011510706/03/19 01:15:31  5-MIN KLFT 030715Z AUTO 31005KT 10SM CLR 27/24 A2992 40 84 1500 310/05 RMK AO2 T02720244
13976KLFT LFT20190603012010706/03/19 01:20:31  5-MIN KLFT 030720Z AUTO 30004KT 10SM CLR 27/24 A2992 40 84 1500 300/04 RMK AO2 T02720244
13976KLFT LFT20190603012510706/03/19 01:25:31  5-MIN KLFT 030725Z AUTO 31005KT 10SM CLR 27/24 A2992 40 84 1500 310/05 RMK AO2 T02720244
13976KLFT LFT20190603013010706/03/19 01:30:31  5-MIN KLFT 030730Z AUTO 31005KT 10SM CLR 27/24 A2992 50 84 1500 310/05 RMK AO2 T02720244
13976KLFT LFT20190603013510706/03/19 01:35:31  5-MIN KLFT 030735Z AUTO 31004KT 10SM CLR 27/24 A2992 50 84 1500 300/04 RMK AO2 T02720244
13976KLFT LFT20190603014010706/03/19 01:40:31  5-MIN KLFT 030740Z AUTO 30004KT 10SM CLR 27/24 A2992 50 87 1400 300/04 RMK AO2 T02670244
13976KLFT LFT20190603014510706/03/19 01:45:31  5-MIN KLFT 030745Z AUTO 30004KT 10SM CLR 27/24 A2992 50 87 1400 300/04 RMK AO2 T02670244
13976KLFT LFT20190603015011406/03/19 01:50:31  5-MIN KLFT 030750Z AUTO 30004KT 10SM CLR 27/24 A2992 50 87 1400 300/04 RMK AO2 SLP129 T02670244
13976KLFT LFT20190603015510706/03/19 01:55:31  5-MIN KLFT 030755Z AUTO 30007KT 10SM CLR 27/24 A2992 50 87 1400 300/07 RMK AO2 T02670244
13976KLFT LFT20190603020010706/03/19 02:00:31  5-MIN KLFT 030800Z AUTO 30006KT 10SM CLR 27/24 A2991 50 84 1500 300/06 RMK AO2 T02720244
13976KLFT LFT20190603020510706/03/19 02:05:31  5-MIN KLFT 030805Z AUTO 30007KT 10SM CLR 27/24 A2991 50 87 1500 300/07 RMK AO2 T02670244
13976KLFT LFT20190603021010706/03/19 02:10:31  5-MIN KLFT 030810Z AUTO 31006KT 10SM CLR 27/24 A2991 50 87 1400 310/06 RMK AO2 T02670244
13976KLFT LFT20190603021510706/03/19 02:15:31  5-MIN KLFT 030815Z AUTO 31006KT 10SM CLR 27/24 A2992 50 87 1400 310/06 RMK AO2 T02670244
13976KLFT LFT20190603022010706/03/19 02:20:31  5-MIN KLFT 030820Z AUTO 32005KT 10SM CLR 27/24 A2992 50 87 1400 320/05 RMK AO2 T02670244
13976KLFT LFT20190603022510706/03/19 02:25:31  5-MIN KLFT 030825Z AUTO 33006KT 10SM CLR 27/24 A2992 40 87 1400 330/06 RMK AO2 T02670244
13976KLFT LFT20190603023010706/03/19 02:30:31  5-MIN KLFT 030830Z AUTO 35006KT 10SM CLR 27/24 A2992 40 87 1400 350/06 RMK AO2 T02670244
13976KLFT LFT20190603023510706/03/19 02:35:31  5-MIN KLFT 030835Z AUTO 35004KT 10SM CLR 27/24 A2992 40 87 1400 350/04 RMK AO2 T02670244
13976KLFT LFT20190603024011006/03/19 02:40:31  5-MIN KLFT 030840Z AUTO 34005KT 10SM FEW060 27/24 A2993 40 84 1400 340/05 RMK AO2 T02670239
13976KLFT LFT20190603024511006/03/19 02:45:31  5-MIN KLFT 030845Z AUTO 32006KT 10SM FEW060 27/24 A2992 40 84 1400 320/06 RMK AO2 T02670239
13976KLFT LFT20190603025012306/03/19 02:50:31  5-MIN KLFT 030850Z AUTO 33005KT 10SM FEW065 27/24 A2992 40 84 1400 330/05 RMK AO2 SLP132 T02670239 51010
13976KLFT LFT20190603025511006/03/19 02:55:31  5-MIN KLFT 030855Z AUTO 31004KT 10SM SCT065 27/24 A2992 40 84 1400 310/04 RMK AO2 T02670239
13976KLFT LFT20190603030011006/03/19 03:00:31  5-MIN KLFT 030900Z AUTO 31004KT 10SM SCT065 27/24 A2992 40 84 1400 310/04 RMK AO2 T02670239
13976KLFT LFT20190603030511006/03/19 03:05:31  5-MIN KLFT 030905Z AUTO 32007KT 10SM FEW065 27/24 A2993 40 84 1400 320/07 RMK AO2 T02670239
13976KLFT LFT20190603031011006/03/19 03:10:31  5-MIN KLFT 030910Z AUTO 31005KT 10SM FEW065 27/24 A2993 40 84 1400 310/05 RMK AO2 T02670239
13976KLFT LFT20190603031511006/03/19 03:15:31  5-MIN KLFT 030915Z AUTO 34006KT 10SM FEW065 27/24 A2993 40 84 1400 340/06 RMK AO2 T02670239
13976KLFT LFT20190603032011006/03/19 03:20:31  5-MIN KLFT 030920Z AUTO 34006KT 10SM FEW070 27/24 A2993 30 84 1400 340/06 RMK AO2 T02670239
13976KLFT LFT20190603032510706/03/19 03:25:31  5-MIN KLFT 030925Z AUTO 34005KT 10SM CLR 27/24 A2993 30 87 1400 340/05 RMK AO2 T02670244
13976KLFT LFT20190603033010706/03/19 03:30:31  5-MIN KLFT 030930Z AUTO 34004KT 10SM CLR 27/24 A2993 30 87 1400 340/04 RMK AO2 T02670244
13976KLFT LFT20190603033510706/03/19 03:35:31  5-MIN KLFT 030935Z AUTO 35003KT 10SM CLR 26/24 A2993 30 90 1400 350/03 RMK AO2 T02610244
13976KLFT LFT20190603034010706/03/19 03:40:31  5-MIN KLFT 030940Z AUTO 33005KT 10SM CLR 26/24 A2993 30 90 1400 330/05 RMK AO2 T02610244
13976KLFT LFT20190603034510706/03/19 03:45:31  5-MIN KLFT 030945Z AUTO 33003KT 10SM CLR 26/24 A2993 30 87 1400 330/03 RMK AO2 T02610239
13976KLFT LFT20190603035011406/03/19 03:50:31  5-MIN KLFT 030950Z AUTO 31004KT 10SM CLR 26/24 A2993 30 87 1400 300/04 RMK AO2 SLP136 T02610239
13976KLFT LFT20190603035510706/03/19 03:55:31  5-MIN KLFT 030955Z AUTO 30003KT 10SM CLR 26/24 A2993 30 87 1400 300/03 RMK AO2 T02610239
13976KLFT LFT20190603040010706/03/19 04:00:31  5-MIN KLFT 031000Z AUTO 30004KT 10SM CLR 26/24 A2994 30 87 1400 300/04 RMK AO2 T02610239
13976KLFT LFT20190603040510706/03/19 04:05:31  5-MIN KLFT 031005Z AUTO 30003KT 10SM CLR 26/24 A2994 30 87 1400 300/03 RMK AO2 T02610239
13976KLFT LFT20190603041010706/03/19 04:10:31  5-MIN KLFT 031010Z AUTO 30003KT 10SM CLR 26/24 A2994 30 87 1400 300/03 RMK AO2 T02610239
13976KLFT LFT20190603041510206/03/19 04:15:31  5-MIN KLFT 031015Z 00000KT 10SM CLR 26/24 A2994 20 87 1400 000/00 RMK AO2 T02610239
13976KLFT LFT20190603042010206/03/19 04:20:31  5-MIN KLFT 031020Z 00000KT 10SM CLR 26/24 A2994 20 87 1400 000/00 RMK AO2 T02610239
13976KLFT LFT20190603042510206/03/19 04:25:31  5-MIN KLFT 031025Z 32004KT 10SM CLR 26/24 A2994 20 87 1400 320/04 RMK AO2 T02610239
13976KLFT LFT20190603043010206/03/19 04:30:31  5-MIN KLFT 031030Z 34004KT 10SM CLR 26/23 A2995 20 84 1300 340/04 RMK AO2 T02610233
13976KLFT LFT20190603043510206/03/19 04:35:31  5-MIN KLFT 031035Z 33004KT 10SM CLR 26/23 A2995 20 84 1300 330/04 RMK AO2 T02610233
13976KLFT LFT20190603044010206/03/19 04:40:31  5-MIN KLFT 031040Z 32004KT 10SM CLR 26/23 A2995 20 84 1300 320/04 RMK AO2 T02610233
13976KLFT LFT20190603044510206/03/19 04:45:31  5-MIN KLFT 031045Z 32005KT 10SM CLR 26/23 A2995 10 84 1300 320/05 RMK AO2 T02610233
13976KLFT LFT20190603045010906/03/19 04:50:31  5-MIN KLFT 031050Z 32004KT 10SM CLR 26/23 A2995 10 84 1300 320/04 RMK AO2 SLP142 T02610233
13976KLFT LFT20190603045510206/03/19 04:55:31  5-MIN KLFT 031055Z 31004KT 10SM CLR 26/24 A2995 10 87 1300 310/04 RMK AO2 T02610239
13976KLFT LFT20190603050010206/03/19 05:00:31  5-MIN KLFT 031100Z 31005KT 10SM CLR 26/24 A2995 10 90 1300 310/05 RMK AO2 T02560239
13976KLFT LFT20190603050510206/03/19 05:05:31  5-MIN KLFT 031105Z 32004KT 10SM CLR 26/23 A2996 10 87 1300 320/04 RMK AO2 T02560233
13976KLFT LFT20190603051010206/03/19 05:10:31  5-MIN KLFT 031110Z 33005KT 10SM CLR 26/23 A2995 10 84 1300 320/05 RMK AO2 T02610233
13976KLFT LFT20190603051510206/03/19 05:15:31  5-MIN KLFT 031115Z 33004KT 10SM CLR 26/23 A2996 10 84 1300 330/04 RMK AO2 T02610233
13976KLFT LFT20190603052010206/03/19 05:20:31  5-MIN KLFT 031120Z 30003KT 10SM CLR 26/23 A2996 10 87 1300 300/03 RMK AO2 T02560233
13976KLFT LFT20190603052510206/03/19 05:25:31  5-MIN KLFT 031125Z 32005KT 10SM CLR 26/23 A2996 10 87 1300 320/05 RMK AO2 T02560233
13976KLFT LFT20190603053010206/03/19 05:30:31  5-MIN KLFT 031130Z 33005KT 10SM CLR 26/23 A2996 10 87 1300 330/05 RMK AO2 T02560233
13976KLFT LFT20190603053510206/03/19 05:35:31  5-MIN KLFT 031135Z 33004KT 10SM CLR 26/24 A2996 10 90 1300 320/04 RMK AO2 T02560239
13976KLFT LFT20190603054010206/03/19 05:40:31  5-MIN KLFT 031140Z 32004KT 10SM CLR 26/24 A2996 10 90 1300 320/04 RMK AO2 T02560239
13976KLFT LFT20190603054510206/03/19 05:45:31  5-MIN KLFT 031145Z 32004KT 10SM CLR 26/24 A2996 10 90 1300 320/04 RMK AO2 T02560239
13976KLFT LFT20190603055012706/03/19 05:50:31  5-MIN KLFT 031150Z 33005KT 10SM CLR 26/24 A2996 10 90 1300 330/05 RMK AO2 SLP144 T02560239 10278 20256 55002
13976KLFT LFT20190603055510206/03/19 05:55:31  5-MIN KLFT 031155Z 33005KT 10SM CLR 26/24 A2996 10 87 1300 330/05 RMK AO2 T02610239
13976KLFT LFT20190603060010106/03/19 06:00:31  5-MIN KLFT 031200Z 34005KT 10SM CLR 26/24 A2996 0 87 1300 340/05 RMK AO2 T02610239
13976KLFT LFT20190603060510106/03/19 06:05:31  5-MIN KLFT 031205Z 33005KT 10SM CLR 26/24 A2996 0 87 1300 330/05 RMK AO2 T02610239
13976KLFT LFT20190603061010106/03/19 06:10:31  5-MIN KLFT 031210Z 34005KT 10SM CLR 26/24 A2997 0 87 1300 330/05 RMK AO2 T02610239
13976KLFT LFT20190603061510106/03/19 06:15:31  5-MIN KLFT 031215Z 33004KT 10SM CLR 26/24 A2997 0 87 1300 330/04 RMK AO2 T02610239
13976KLFT LFT20190603062010106/03/19 06:20:31  5-MIN KLFT 031220Z 33005KT 10SM CLR 27/24 A2997 0 84 1400 330/05 RMK AO2 T02670239
13976KLFT LFT20190603062510106/03/19 06:25:31  5-MIN KLFT 031225Z 34004KT 10SM CLR 27/23 A2997 0 82 1400 340/04 RMK AO2 T02670233
13976KLFT LFT20190603063010106/03/19 06:30:31  5-MIN KLFT 031230Z 36005KT 10SM CLR 27/23 A2997 0 82 1400 360/05 RMK AO2 T02670233
13976KLFT LFT20190603063510106/03/19 06:35:31  5-MIN KLFT 031235Z 35003KT 10SM CLR 27/23 A2997 0 79 1400 350/03 RMK AO2 T02720233
13976KLFT LFT20190603064010106/03/19 06:40:31  5-MIN KLFT 031240Z 01004KT 10SM CLR 27/24 A2997 0 82 1400 010/04 RMK AO2 T02720239
13976KLFT LFT20190603064510106/03/19 06:45:31  5-MIN KLFT 031245Z 36004KT 10SM CLR 27/23 A2997 0 79 1400 360/04 RMK AO2 T02720233
13976KLFT LFT20190603065010806/03/19 06:50:31  5-MIN KLFT 031250Z 01004KT 10SM CLR 28/23 A2998 0 76 1500 010/04 RMK AO2 SLP150 T02780233
13976KLFT LFT20190603065510406/03/19 06:55:31  5-MIN KLFT 031255Z 36004KT 10SM FEW050 28/23 A2998 0 76 1500 360/04 RMK AO2 T02780233
13976KLFT LFT20190603070010406/03/19 07:00:31  5-MIN KLFT 031300Z 02003KT 10SM SCT050 28/23 A2998 0 76 1500 020/03 RMK AO2 T02780233
13976KLFT LFT20190603070510606/03/19 07:05:31  5-MIN KLFT 031305Z 35003KT 10SM SCT050 28/24 A2998 -10 76 1600 350/03 RMK AO2 T02830239
13976KLFT LFT20190603071010606/03/19 07:10:31  5-MIN KLFT 031310Z 02004KT 10SM BKN050 28/23 A2998 -10 74 1600 010/04 RMK AO2 T02830233
13976KLFT LFT20190603071510606/03/19 07:15:31  5-MIN KLFT 031315Z 03005KT 10SM BKN055 28/24 A2999 -10 76 1600 030/05 RMK AO2 T02830239
13976KLFT LFT20190603072010606/03/19 07:20:31  5-MIN KLFT 031320Z 01004KT 10SM BKN055 28/24 A2999 -10 76 1600 010/04 RMK AO2 T02830239
13976KLFT LFT20190603072510606/03/19 07:25:31  5-MIN KLFT 031325Z 02005KT 10SM OVC055 29/24 A2999 -20 74 1600 020/05 RMK AO2 T02890239
13976KLFT LFT20190603073010606/03/19 07:30:31  5-MIN KLFT 031330Z 03005KT 10SM OVC055 28/24 A2999 -10 76 1600 030/05 RMK AO2 T02830239
13976KLFT LFT20190603073510606/03/19 07:35:31  5-MIN KLFT 031335Z 04004KT 10SM BKN055 28/24 A2999 -20 76 1500 040/04 RMK AO2 T02830239
13976KLFT LFT20190603074010606/03/19 07:40:31  5-MIN KLFT 031340Z 02005KT 10SM BKN055 29/24 A2999 -20 74 1600 020/05 RMK AO2 T02890239
13976KLFT LFT20190603074510606/03/19 07:45:31  5-MIN KLFT 031345Z 06004KT 10SM SCT055 29/24 A2999 -20 74 1600 060/04 RMK AO2 T02890239
13976KLFT LFT20190603075011306/03/19 07:50:31  5-MIN KLFT 031350Z 06004KT 10SM FEW055 29/24 A3000 -20 74 1600 050/04 RMK AO2 SLP157 T02890239
13976KLFT LFT20190603075510606/03/19 07:55:31  5-MIN KLFT 031355Z 06004KT 10SM FEW055 29/24 A3000 -20 74 1600 060/04 RMK AO2 T02890239
13976KLFT LFT20190603080010306/03/19 08:00:31  5-MIN KLFT 031400Z 04003KT 10SM CLR 29/24 A3000 -20 71 1700 040/03 RMK AO2 T02940239
13976KLFT LFT20190603080510306/03/19 08:05:31  5-MIN KLFT 031405Z 04003KT 10SM CLR 29/24 A3000 -30 71 1700 040/03 RMK AO2 T02940239
13976KLFT LFT20190603081010306/03/19 08:10:31  5-MIN KLFT 031410Z 06003KT 10SM CLR 29/24 A3000 -20 71 1700 060/03 RMK AO2 T02940239
13976KLFT LFT20190603081510306/03/19 08:15:31  5-MIN KLFT 031415Z 00000KT 10SM CLR 29/24 A3000 -20 71 1700 000/00 RMK AO2 T02940239
13976KLFT LFT20190603082010306/03/19 08:20:31  5-MIN KLFT 031420Z 00000KT 10SM CLR 30/24 A3000 -30 69 1700 000/00 RMK AO2 T03000239
13976KLFT LFT20190603082510306/03/19 08:25:31  5-MIN KLFT 031425Z 00000KT 10SM CLR 30/24 A3000 -30 69 1700 000/00 RMK AO2 T03000239
13976KLFT LFT20190603083010306/03/19 08:30:31  5-MIN KLFT 031430Z 00000KT 10SM CLR 31/24 A3000 -30 67 1800 000/00 RMK AO2 T03060239
13976KLFT LFT20190603083510306/03/19 08:35:31  5-MIN KLFT 031435Z 00000KT 10SM CLR 31/24 A3000 -30 69 1800 000/00 RMK AO2 T03060244
13976KLFT LFT20190603084010306/03/19 08:40:31  5-MIN KLFT 031440Z 04003KT 10SM CLR 31/24 A3000 -20 67 1800 040/03 RMK AO2 T03060239
13976KLFT LFT20190603084510506/03/19 08:45:31  5-MIN KLFT 031445Z VRB03KT 10SM CLR 31/23 A3000 -30 63 1800 VRB/03 RMK AO2 T03110233 $
13976KLFT LFT20190603085011806/03/19 08:50:31  5-MIN KLFT 031450Z 06004KT 10SM CLR 31/23 A3000 -30 63 1800 060/04 RMK AO2 SLP159 T03110233 51013 $
13976KLFT LFT20190603085510506/03/19 08:55:31  5-MIN KLFT 031455Z 04004KT 10SM CLR 31/23 A3000 -30 60 1800 040/04 RMK AO2 T03110228 $
13976KLFT LFT20190603090010506/03/19 09:00:31  5-MIN KLFT 031500Z 07004KT 10SM CLR 31/23 A3000 -30 63 1800 060/04 RMK AO2 T03110233 $
13976KLFT LFT20190603090510506/03/19 09:05:31  5-MIN KLFT 031505Z 04004KT 10SM CLR 31/23 A3000 -30 63 1800 040/04 RMK AO2 T03110233 $
13976KLFT LFT20190603091010506/03/19 09:10:31  5-MIN KLFT 031510Z 04004KT 10SM CLR 32/23 A3000 -30 61 1900 040/04 RMK AO2 T03170233 $
13976KLFT LFT20190603091510506/03/19 09:15:31  5-MIN KLFT 031515Z VRB03KT 10SM CLR 32/23 A3000 -30 61 1900 VRB/03 RMK AO2 T03170233 $
13976KLFT LFT20190603092010506/03/19 09:20:31  5-MIN KLFT 031520Z VRB03KT 10SM CLR 32/23 A3000 -20 61 1900 VRB/03 RMK AO2 T03170233 $
13976KLFT LFT20190603092510506/03/19 09:25:31  5-MIN KLFT 031525Z VRB03KT 10SM CLR 32/24 A3000 -20 63 1900 VRB/03 RMK AO2 T03170239 $
13976KLFT LFT20190603093010506/03/19 09:30:31  5-MIN KLFT 031530Z 00000KT 10SM CLR 32/23 A3000 -20 59 2000 000/00 RMK AO2 T03220233 $
13976KLFT LFT20190603093510506/03/19 09:35:31  5-MIN KLFT 031535Z 00000KT 10SM CLR 32/23 A3000 -20 59 2000 000/00 RMK AO2 T03220233 $
13976KLFT LFT20190603094010506/03/19 09:40:31  5-MIN KLFT 031540Z 00000KT 10SM CLR 32/24 A3000 -20 61 2000 000/00 RMK AO2 T03220239 $
13976KLFT LFT20190603094510506/03/19 09:45:31  5-MIN KLFT 031545Z 00000KT 10SM CLR 32/24 A3000 -20 61 2000 000/00 RMK AO2 T03220239 $
13976KLFT LFT20190603095011206/03/19 09:50:31  5-MIN KLFT 031550Z 00000KT 10SM CLR 33/24 A3000 -20 59 2000 000/00 RMK AO2 SLP158 T03280239 $
13976KLFT LFT20190603095510506/03/19 09:55:31  5-MIN KLFT 031555Z VRB03KT 10SM CLR 33/23 A3000 -20 55 2100 VRB/03 RMK AO2 T03330233 $
13976KLFT LFT20190603100010506/03/19 10:00:31  5-MIN KLFT 031600Z 08004KT 10SM CLR 33/23 A3000 -20 53 2100 080/04 RMK AO2 T03330228 $
13976KLFT LFT20190603100510506/03/19 10:05:31  5-MIN KLFT 031605Z 00000KT 10SM CLR 33/23 A3000 -20 55 2100 000/00 RMK AO2 T03330233 $
13976KLFT LFT20190603101010506/03/19 10:10:31  5-MIN KLFT 031610Z VRB03KT 10SM CLR 33/23 A3000 -20 53 2100 VRB/03 RMK AO2 T03330228 $
13976KLFT LFT20190603101510506/03/19 10:15:31  5-MIN KLFT 031615Z 00000KT 10SM CLR 33/23 A3000 -20 53 2100 000/00 RMK AO2 T03330228 $
13976KLFT LFT20190603102010506/03/19 10:20:31  5-MIN KLFT 031620Z VRB03KT 10SM CLR 33/23 A3000 -20 53 2100 VRB/03 RMK AO2 T03330228 $
13976KLFT LFT20190603102510506/03/19 10:25:31  5-MIN KLFT 031625Z 00000KT 10SM CLR 34/23 A3000 -20 51 2200 000/00 RMK AO2 T03390228 $
13976KLFT LFT20190603103010506/03/19 10:30:31  5-MIN KLFT 031630Z 08003KT 10SM CLR 34/23 A3000 -20 51 2200 080/03 RMK AO2 T03390228 $
13976KLFT LFT20190603103510506/03/19 10:35:31  5-MIN KLFT 031635Z 00000KT 10SM CLR 34/22 A3000 -20 50 2200 000/00 RMK AO2 T03390222 $
13976KLFT LFT20190603104010506/03/19 10:40:31  5-MIN KLFT 031640Z VRB03KT 10SM CLR 34/23 A3000 -20 51 2200 VRB/03 RMK AO2 T03390228 $
13976KLFT LFT20190603104510506/03/19 10:45:31  5-MIN KLFT 031645Z 00000KT 10SM CLR 34/23 A3000 -20 51 2200 000/00 RMK AO2 T03390228 $
13976KLFT LFT20190603105011206/03/19 10:50:31  5-MIN KLFT 031650Z 00000KT 10SM CLR 34/23 A3000 -20 51 2200 000/00 RMK AO2 SLP157 T03390228 $
13976KLFT LFT20190603105510506/03/19 10:55:31  5-MIN KLFT 031655Z 00000KT 10SM CLR 34/23 A3000 -20 52 2200 000/00 RMK AO2 T03440233 $
13976KLFT LFT20190603110010506/03/19 11:00:31  5-MIN KLFT 031700Z 08004KT 10SM CLR 34/23 A3000 -20 52 2200 070/04 RMK AO2 T03440233 $
13976KLFT LFT20190603110510506/03/19 11:05:31  5-MIN KLFT 031705Z 00000KT 10SM CLR 34/23 A2999 -20 50 2200 000/00 RMK AO2 T03440228 $
13976KLFT LFT20190603111010506/03/19 11:10:31  5-MIN KLFT 031710Z 00000KT 10SM CLR 34/22 A3000 -20 50 2200 000/00 RMK AO2 T03390222 $
13976KLFT LFT20190603111510506/03/19 11:15:31  5-MIN KLFT 031715Z 00000KT 10SM CLR 34/22 A3000 -20 48 2200 000/00 RMK AO2 T03440222 $
13976KLFT LFT20190603112010506/03/19 11:20:31  5-MIN KLFT 031720Z VRB03KT 10SM CLR 34/23 A3000 -20 50 2200 VRB/03 RMK AO2 T03440228 $
13976KLFT LFT20190603112510506/03/19 11:25:31  5-MIN KLFT 031725Z VRB03KT 10SM CLR 34/22 A2999 -20 48 2200 VRB/03 RMK AO2 T03440222 $
13976KLFT LFT20190603113010506/03/19 11:30:31  5-MIN KLFT 031730Z 00000KT 10SM CLR 34/22 A2999 -20 48 2200 000/00 RMK AO2 T03440222 $
13976KLFT LFT20190603113510506/03/19 11:35:31  5-MIN KLFT 031735Z 00000KT 10SM CLR 35/22 A3000 -20 47 2300 000/00 RMK AO2 T03500222 $
13976KLFT LFT20190603114010506/03/19 11:40:31  5-MIN KLFT 031740Z 09003KT 10SM CLR 35/22 A2999 -20 47 2300 090/03 RMK AO2 T03500222 $
13976KLFT LFT20190603114510506/03/19 11:45:31  5-MIN KLFT 031745Z 00000KT 10SM CLR 34/22 A2999 -20 48 2200 000/00 RMK AO2 T03440222 $
13976KLFT LFT20190603115013006/03/19 11:50:31  5-MIN KLFT 031750Z 00000KT 10SM CLR 35/22 A2999 -10 47 2300 000/00 RMK AO2 SLP154 T03500222 10350 20261 51014 $
13976KLFT LFT20190603115510506/03/19 11:55:31  5-MIN KLFT 031755Z 00000KT 10SM CLR 35/22 A2999 -10 47 2300 000/00 RMK AO2 T03500222 $
13976KLFT LFT20190603120010506/03/19 12:00:31  5-MIN KLFT 031800Z VRB03KT 10SM CLR 35/22 A2998 -10 47 2300 VRB/03 RMK AO2 T03500222 $
13976KLFT LFT20190603120510506/03/19 12:05:31  5-MIN KLFT 031805Z VRB04KT 10SM CLR 35/23 A2998 -10 48 2300 VRB/04 RMK AO2 T03500228 $
13976KLFT LFT20190603121010306/03/19 12:10:31  5-MIN KLFT 031810Z VRB03KT 10SM CLR 35/22 A2998 0 47 2300 VRB/03 RMK AO2 T03500222 $
13976KLFT LFT20190603121510306/03/19 12:15:31  5-MIN KLFT 031815Z 07005KT 10SM CLR 35/22 A2998 0 45 2300 060/05 RMK AO2 T03500217 $
13976KLFT LFT20190603122010306/03/19 12:20:31  5-MIN KLFT 031820Z 06003KT 10SM CLR 35/22 A2997 0 45 2300 060/03 RMK AO2 T03500217 $
13976KLFT LFT20190603122510306/03/19 12:25:31  5-MIN KLFT 031825Z VRB03KT 10SM CLR 35/22 A2997 0 45 2300 VRB/03 RMK AO2 T03500217 $
13976KLFT LFT20190603123010606/03/19 12:30:31  5-MIN KLFT 031830Z VRB03KT 10SM FEW050 35/22 A2997 0 47 2300 VRB/03 RMK AO2 T03500222 $
13976KLFT LFT20190603123511306/03/19 12:35:31  5-MIN KLFT 031835Z VRB03KT 10SM SCT050 SCT060 34/22 A2997 0 48 2300 VRB/03 RMK AO2 T03440222 $
13976KLFT LFT20190603124011306/03/19 12:40:31  5-MIN KLFT 031840Z 00000KT 10SM FEW050 SCT060 35/21 A2996 0 43 2300 000/00 RMK AO2 T03500211 $
13976KLFT LFT20190603124510606/03/19 12:45:31  5-MIN KLFT 031845Z 02005KT 10SM FEW050 36/22 A2996 0 44 2400 020/05 RMK AO2 T03560217 $
13976KLFT LFT20190603125011306/03/19 12:50:31  5-MIN KLFT 031850Z 00000KT 10SM SCT050 36/22 A2996 0 44 2400 000/00 RMK AO2 SLP146 T03560217 $
13976KLFT LFT20190603125510606/03/19 12:55:31  5-MIN KLFT 031855Z VRB04KT 10SM SCT050 36/22 A2996 0 44 2400 VRB/04 RMK AO2 T03560217 $
13976KLFT LFT20190603130010706/03/19 13:00:31  5-MIN KLFT 031900Z 09003KT 10SM FEW050 36/22 A2996 10 45 2400 090/03 RMK AO2 T03560222 $
13976KLFT LFT20190603130510706/03/19 13:05:31  5-MIN KLFT 031905Z VRB03KT 10SM FEW050 36/23 A2996 10 47 2400 VRB/03 RMK AO2 T03560228 $
13976KLFT LFT20190603131010706/03/19 13:10:31  5-MIN KLFT 031910Z 05006KT 10SM FEW050 36/22 A2996 10 44 2400 050/06 RMK AO2 T03560217 $
13976KLFT LFT20190603131510706/03/19 13:15:31  5-MIN KLFT 031915Z 06006KT 10SM FEW050 36/22 A2996 10 44 2400 060/06 RMK AO2 T03560217 $
13976KLFT LFT20190603132010706/03/19 13:20:31  5-MIN KLFT 031920Z VRB04KT 10SM FEW050 36/22 A2995 10 44 2400 VRB/04 RMK AO2 T03560217 $
13976KLFT LFT20190603132510406/03/19 13:25:31  5-MIN KLFT 031925Z VRB03KT 10SM CLR 36/22 A2995 20 44 2400 VRB/03 RMK AO2 T03560217 $
13976KLFT LFT20190603133010406/03/19 13:30:31  5-MIN KLFT 031930Z 00000KT 10SM CLR 36/22 A2995 20 44 2400 000/00 RMK AO2 T03560217 $
13976KLFT LFT20190603133510406/03/19 13:35:31  5-MIN KLFT 031935Z 00000KT 10SM CLR 36/22 A2995 20 42 2500 000/00 RMK AO2 T03610217 $
13976KLFT LFT20190603134010406/03/19 13:40:31  5-MIN KLFT 031940Z VRB03KT 10SM CLR 36/21 A2994 20 42 2400 VRB/03 RMK AO2 T03560211 $
13976KLFT LFT20190603134510406/03/19 13:45:31  5-MIN KLFT 031945Z VRB03KT 10SM CLR 36/21 A2994 20 42 2400 VRB/03 RMK AO2 T03560211 $
13976KLFT LFT20190603135011106/03/19 13:50:31  5-MIN KLFT 031950Z 00000KT 10SM CLR 36/21 A2994 20 39 2500 000/00 RMK AO2 SLP138 T03610206 $
13976KLFT LFT20190603135510206/03/19 13:55:31  5-MIN KLFT 031955Z 00000KT 10SM CLR 36/21 A2994 20 39 2500 000/00 RMK AO2 T03610206
13976KLFT LFT20190603140010506/03/19 14:00:31  5-MIN KLFT 032000Z VRB03KT 10SM SCT050 36/21 A2994 20 41 2500 VRB/03 RMK AO2 T03610211
13976KLFT LFT20190603140510506/03/19 14:05:31  5-MIN KLFT 032005Z 00000KT 10SM SCT050 36/21 A2994 30 41 2500 000/00 RMK AO2 T03610211
13976KLFT LFT20190603141010506/03/19 14:10:31  5-MIN KLFT 032010Z VRB05KT 10SM SCT050 36/21 A2994 30 39 2500 VRB/05 RMK AO2 T03610206
13976KLFT LFT20190603141510506/03/19 14:15:31  5-MIN KLFT 032015Z 07005KT 10SM SCT050 36/21 A2994 30 41 2400 070/05 RMK AO2 T03560206
13976KLFT LFT20190603142010506/03/19 14:20:31  5-MIN KLFT 032020Z VRB03KT 10SM SCT050 36/21 A2994 30 41 2500 VRB/03 RMK AO2 T03610211
13976KLFT LFT20190603142510506/03/19 14:25:31  5-MIN KLFT 032025Z VRB03KT 10SM SCT050 36/21 A2994 30 39 2500 VRB/03 RMK AO2 T03610206
13976KLFT LFT20190603143010506/03/19 14:30:31  5-MIN KLFT 032030Z 12003KT 10SM SCT050 36/20 A2993 30 38 2500 120/03 RMK AO2 T03610200
13976KLFT LFT20190603143510506/03/19 14:35:31  5-MIN KLFT 032035Z 00000KT 10SM SCT050 36/20 A2993 30 38 2500 000/00 RMK AO2 T03610200
13976KLFT LFT20190603144010506/03/19 14:40:31  5-MIN KLFT 032040Z 08006KT 10SM SCT050 37/21 A2993 30 38 2500 080/06 RMK AO2 T03670206
13976KLFT LFT20190603144510506/03/19 14:45:31  5-MIN KLFT 032045Z 06005KT 10SM SCT050 36/21 A2993 40 39 2500 060/05 RMK AO2 T03610206
13976KLFT LFT20190603145011806/03/19 14:50:31  5-MIN KLFT 032050Z 00000KT 10SM SCT050 36/21 A2993 40 39 2500 000/00 RMK AO2 SLP134 T03610206 58005
13976KLFT LFT20190603145510206/03/19 14:55:31  5-MIN KLFT 032055Z 07005KT 10SM CLR 36/21 A2993 40 39 2500 060/05 RMK AO2 T03610206
13976KLFT LFT20190603150010206/03/19 15:00:31  5-MIN KLFT 032100Z 09005KT 10SM CLR 36/20 A2993 40 38 2500 090/05 RMK AO2 T03610200
13976KLFT LFT20190603150510206/03/19 15:05:31  5-MIN KLFT 032105Z 09003KT 10SM CLR 36/20 A2993 40 39 2400 090/03 RMK AO2 T03560200
13976KLFT LFT20190603151010206/03/19 15:10:31  5-MIN KLFT 032110Z VRB03KT 10SM CLR 36/21 A2993 40 39 2500 VRB/03 RMK AO2 T03610206
13976KLFT LFT20190603151510206/03/19 15:15:31  5-MIN KLFT 032115Z 11003KT 10SM CLR 36/21 A2993 40 39 2500 110/03 RMK AO2 T03610206
13976KLFT LFT20190603152010206/03/19 15:20:31  5-MIN KLFT 032120Z 00000KT 10SM CLR 36/21 A2993 40 39 2500 000/00 RMK AO2 T03610206
13976KLFT LFT20190603152510206/03/19 15:25:31  5-MIN KLFT 032125Z 18005KT 10SM CLR 36/21 A2993 40 41 2400 180/05 RMK AO2 T03560206
13976KLFT LFT20190603153010506/03/19 15:30:31  5-MIN KLFT 032130Z 19006KT 10SM FEW060 35/22 A2993 40 47 2400 190/06 RMK AO2 T03500222
13976KLFT LFT20190603153510506/03/19 15:35:31  5-MIN KLFT 032135Z 17006KT 10SM SCT060 35/22 A2992 40 47 2400 170/06 RMK AO2 T03500222
13976KLFT LFT20190603154010506/03/19 15:40:31  5-MIN KLFT 032140Z 18009KT 10SM FEW060 34/21 A2993 40 45 2300 180/09 RMK AO2 T03440211
13976KLFT LFT20190603154510506/03/19 15:45:31  5-MIN KLFT 032145Z 20011KT 10SM FEW060 34/21 A2993 40 46 2200 200/11 RMK AO2 T03390211
13976KLFT LFT20190603155011206/03/19 15:50:31  5-MIN KLFT 032150Z 20016KT 10SM FEW060 34/22 A2992 40 50 2200 200/16 RMK AO2 SLP132 T03390222
13976KLFT LFT20190603155510506/03/19 15:55:31  5-MIN KLFT 032155Z 21012KT 10SM FEW060 32/22 A2992 40 55 2100 210/12 RMK AO2 T03220222
13976KLFT LFT20190603160010506/03/19 16:00:31  5-MIN KLFT 032200Z 21010KT 10SM FEW060 32/22 A2992 40 55 2100 210/10 RMK AO2 T03220222
13976KLFT LFT20190603160511406/03/19 16:05:31  5-MIN KLFT 032205Z 20011KT 10SM CLR 33/22 A2992 40 53 2100 200/11 RMK AO2 LTG DSNT SW T03280222
13976KLFT LFT20190603161011406/03/19 16:10:31  5-MIN KLFT 032210Z 22009KT 10SM CLR 32/22 A2992 40 55 2100 210/09 RMK AO2 LTG DSNT SW T03220222
13976KLFT LFT20190603161511406/03/19 16:15:31  5-MIN KLFT 032215Z 22008KT 10SM CLR 32/22 A2992 40 56 2000 220/08 RMK AO2 LTG DSNT SW T03170222
13976KLFT LFT20190603162011406/03/19 16:20:31  5-MIN KLFT 032220Z 23007KT 10SM CLR 31/22 A2992 40 58 1900 230/07 RMK AO2 LTG DSNT SW T03110222
13976KLFT LFT20190603162511406/03/19 16:25:31  5-MIN KLFT 032225Z 24007KT 10SM CLR 31/22 A2992 40 58 1900 230/07 RMK AO2 LTG DSNT SW T03110222
13976KLFT LFT20190603163010206/03/19 16:30:31  5-MIN KLFT 032230Z 24007KT 10SM CLR 31/22 A2992 40 58 1900 230/07 RMK AO2 T03110222
13976KLFT LFT20190603163511406/03/19 16:35:31  5-MIN KLFT 032235Z 23008KT 10SM CLR 31/22 A2992 40 58 1900 230/08 RMK AO2 LTG DSNT SW T03110222
13976KLFT LFT20190603164011406/03/19 16:40:31  5-MIN KLFT 032240Z 22006KT 10SM CLR 31/22 A2992 40 60 1900 220/06 RMK AO2 LTG DSNT SW T03060222
13976KLFT LFT20190603164511406/03/19 16:45:31  5-MIN KLFT 032245Z 22006KT 10SM CLR 31/23 A2992 40 60 1900 220/06 RMK AO2 LTG DSNT SW T03110228
13976KLFT LFT20190603165012406/03/19 16:50:31  5-MIN KLFT 032250Z 22006KT 10SM FEW120 31/22 A2993 40 58 1900 220/06 RMK AO2 LTG DSNT SW SLP133 T03110222
13976KLFT LFT20190603165511706/03/19 16:55:31  5-MIN KLFT 032255Z 20006KT 10SM FEW060 32/22 A2992 40 56 2000 200/06 RMK AO2 LTG DSNT SW T03170222
13976KLFT LFT20190603170011706/03/19 17:00:31  5-MIN KLFT 032300Z 20007KT 10SM FEW060 32/23 A2992 50 58 2000 200/07 RMK AO2 LTG DSNT SW T03170228
13976KLFT LFT20190603170511706/03/19 17:05:31  5-MIN KLFT 032305Z 21007KT 10SM FEW060 32/23 A2992 50 58 2000 210/07 RMK AO2 LTG DSNT SW T03170228
13976KLFT LFT20190603171011706/03/19 17:10:31  5-MIN KLFT 032310Z 23006KT 10SM FEW060 32/23 A2992 40 58 2000 230/06 RMK AO2 LTG DSNT SW T03170228
13976KLFT LFT20190603171511706/03/19 17:15:31  5-MIN KLFT 032315Z 23005KT 10SM FEW060 31/23 A2993 40 60 1900 220/05 RMK AO2 LTG DSNT SW T03110228
13976KLFT LFT20190603172011706/03/19 17:20:31  5-MIN KLFT 032320Z 21006KT 10SM FEW060 31/23 A2993 40 60 1900 210/06 RMK AO2 LTG DSNT SW T03110228
13976KLFT LFT20190603172511706/03/19 17:25:31  5-MIN KLFT 032325Z 21004KT 10SM FEW060 31/23 A2993 40 60 1900 210/04 RMK AO2 LTG DSNT SW T03110228
13976KLFT LFT20190603173010506/03/19 17:30:31  5-MIN KLFT 032330Z 20006KT 10SM FEW060 31/23 A2993 40 60 1900 200/06 RMK AO2 T03110228
13976KLFT LFT20190603173510506/03/19 17:35:31  5-MIN KLFT 032335Z 21007KT 10SM FEW060 32/23 A2993 40 58 2000 210/07 RMK AO2 T03170228
13976KLFT LFT20190603174010506/03/19 17:40:31  5-MIN KLFT 032340Z 22006KT 10SM FEW060 32/23 A2993 30 58 2000 210/06 RMK AO2 T03170228
13976KLFT LFT20190603174510506/03/19 17:45:31  5-MIN KLFT 032345Z 20005KT 10SM FEW060 32/23 A2993 40 61 2000 200/05 RMK AO2 T03170233
13976KLFT LFT20190603175013006/03/19 17:50:31  5-MIN KLFT 032350Z 22006KT 10SM FEW060 32/23 A2993 40 61 2000 210/06 RMK AO2 SLP134 T03170233 10367 20306 56020
13976KLFT LFT20190603175510206/03/19 17:55:31  5-MIN KLFT 032355Z 21006KT 10SM CLR 32/23 A2993 30 61 2000 210/06 RMK AO2 T03170233
13976KLFT LFT20190603180010206/03/19 18:00:31  5-MIN KLFT 040000Z 22005KT 10SM CLR 32/23 A2993 40 61 2000 220/05 RMK AO2 T03170233
13976KLFT LFT20190603180510206/03/19 18:05:31  5-MIN KLFT 040005Z 22005KT 10SM CLR 32/24 A2993 40 63 2000 220/05 RMK AO2 T03170239
13976KLFT LFT20190603181010206/03/19 18:10:31  5-MIN KLFT 040010Z 20006KT 10SM CLR 32/23 A2993 40 61 2000 200/06 RMK AO2 T03170233
13976KLFT LFT20190603181510406/03/19 18:15:31  5-MIN KLFT 040015Z 21006KT 10SM CLR 32/23 A2993 40 61 2000 210/06 RMK AO2 T03170233 $
13976KLFT LFT20190603182010406/03/19 18:20:31  5-MIN KLFT 040020Z 21006KT 10SM CLR 31/23 A2993 40 63 1900 210/06 RMK AO2 T03110233 $
13976KLFT LFT20190603182510406/03/19 18:25:31  5-MIN KLFT 040025Z 20004KT 10SM CLR 31/23 A2993 40 63 1900 200/04 RMK AO2 T03110233 $
13976KLFT LFT20190603183010406/03/19 18:30:31  5-MIN KLFT 040030Z 20005KT 10SM CLR 31/23 A2993 40 63 1900 200/05 RMK AO2 T03110233 $
13976KLFT LFT20190603183510406/03/19 18:35:31  5-MIN KLFT 040035Z 19005KT 10SM CLR 31/23 A2993 30 63 1900 190/05 RMK AO2 T03110233 $
13976KLFT LFT20190603184010406/03/19 18:40:31  5-MIN KLFT 040040Z 21006KT 10SM CLR 31/23 A2993 30 65 1900 210/06 RMK AO2 T03060233 $
13976KLFT LFT20190603184510406/03/19 18:45:31  5-MIN KLFT 040045Z 20005KT 10SM CLR 31/23 A2993 30 62 1900 200/05 RMK AO2 T03060228 $
13976KLFT LFT20190603185011106/03/19 18:50:31  5-MIN KLFT 040050Z 21005KT 10SM CLR 30/23 A2994 30 65 1800 210/05 RMK AO2 SLP137 T03000228 $
13976KLFT LFT20190603185510406/03/19 18:55:31  5-MIN KLFT 040055Z 21004KT 10SM CLR 30/23 A2994 30 67 1800 210/04 RMK AO2 T03000233 $
13976KLFT LFT20190603190010406/03/19 19:00:31  5-MIN KLFT 040100Z 21004KT 10SM CLR 29/23 A2994 20 69 1700 200/04 RMK AO2 T02940233 $
13976KLFT LFT20190603190510406/03/19 19:05:31  5-MIN KLFT 040105Z 19003KT 10SM CLR 29/23 A2994 20 69 1700 190/03 RMK AO2 T02940233 $
13976KLFT LFT20190603191010406/03/19 19:10:31  5-MIN KLFT 040110Z 00000KT 10SM CLR 29/23 A2995 20 69 1700 000/00 RMK AO2 T02940233 $
13976KLFT LFT20190603191510406/03/19 19:15:31  5-MIN KLFT 040115Z 00000KT 10SM CLR 30/23 A2995 20 67 1800 000/00 RMK AO2 T03000233 $
13976KLFT LFT20190603192010406/03/19 19:20:31  5-MIN KLFT 040120Z 00000KT 10SM CLR 29/23 A2995 20 69 1700 000/00 RMK AO2 T02940233 $
13976KLFT LFT20190603192510406/03/19 19:25:31  5-MIN KLFT 040125Z 00000KT 10SM CLR 29/24 A2995 20 71 1700 000/00 RMK AO2 T02940239 $
13976KLFT LFT20190603193010406/03/19 19:30:31  5-MIN KLFT 040130Z 00000KT 10SM CLR 29/23 A2995 20 69 1700 000/00 RMK AO2 T02940233 $
13976KLFT LFT20190603193510406/03/19 19:35:31  5-MIN KLFT 040135Z 00000KT 10SM CLR 29/23 A2995 20 69 1700 000/00 RMK AO2 T02940233 $
13976KLFT LFT20190603194010406/03/19 19:40:31  5-MIN KLFT 040140Z 00000KT 10SM CLR 29/23 A2995 10 71 1700 000/00 RMK AO2 T02890233 $
13976KLFT LFT20190603194510406/03/19 19:45:31  5-MIN KLFT 040145Z 00000KT 10SM CLR 29/24 A2996 10 74 1700 000/00 RMK AO2 T02890239 $
13976KLFT LFT20190603195011406/03/19 19:50:31  5-MIN KLFT 040150Z 00000KT 10SM SCT070 29/24 A2996 10 74 1700 000/00 RMK AO2 SLP143 T02890239 $
13976KLFT LFT20190603195510706/03/19 19:55:31  5-MIN KLFT 040155Z 00000KT 10SM BKN070 29/24 A2996 10 74 1700 000/00 RMK AO2 T02890239 $
13976KLFT LFT20190603200010706/03/19 20:00:31  5-MIN KLFT 040200Z 16003KT 10SM BKN070 29/24 A2996 10 76 1700 160/03 RMK AO2 T02890244 $
13976KLFT LFT20190603200510706/03/19 20:05:31  5-MIN KLFT 040205Z 17003KT 10SM BKN075 28/24 A2996 10 79 1600 170/03 RMK AO2 T02830244 $
13976KLFT LFT20190603201010706/03/19 20:10:31  5-MIN KLFT 040210Z 17003KT 10SM BKN075 28/24 A2996 10 76 1600 170/03 RMK AO2 T02830239 $
13976KLFT LFT20190603201510706/03/19 20:15:31  5-MIN KLFT 040215Z 00000KT 10SM SCT075 28/24 A2996 10 76 1600 000/00 RMK AO2 T02830239 $
13976KLFT LFT20190603202010606/03/19 20:20:31  5-MIN KLFT 040220Z 17003KT 10SM SCT075 28/24 A2997 0 79 1600 170/03 RMK AO2 T02830244 $
13976KLFT LFT20190603202510606/03/19 20:25:31  5-MIN KLFT 040225Z 00000KT 10SM FEW080 28/24 A2997 0 76 1600 000/00 RMK AO2 T02830239 $
13976KLFT LFT20190603203010606/03/19 20:30:31  5-MIN KLFT 040230Z 17003KT 10SM FEW080 28/24 A2997 0 76 1600 170/03 RMK AO2 T02830239 $
13976KLFT LFT20190603203510306/03/19 20:35:31  5-MIN KLFT 040235Z 16003KT 10SM CLR 28/24 A2997 0 76 1600 160/03 RMK AO2 T02830239 $
13976KLFT LFT20190603204010306/03/19 20:40:31  5-MIN KLFT 040240Z 00000KT 10SM CLR 28/24 A2997 0 76 1600 000/00 RMK AO2 T02830239 $
13976KLFT LFT20190603204510306/03/19 20:45:31  5-MIN KLFT 040245Z 00000KT 10SM CLR 28/24 A2997 0 76 1600 000/00 RMK AO2 T02830239 $
13976KLFT LFT20190603205011606/03/19 20:50:31  5-MIN KLFT 040250Z 00000KT 10SM CLR 28/24 A2997 0 76 1600 000/00 RMK AO2 SLP149 T02830239 53001 $
13976KLFT LFT20190603205510306/03/19 20:55:31  5-MIN KLFT 040255Z 17003KT 10SM CLR 28/24 A2997 0 76 1600 170/03 RMK AO2 T02830239 $
13976KLFT LFT20190603210010306/03/19 21:00:31  5-MIN KLFT 040300Z 17003KT 10SM CLR 29/24 A2998 0 74 1600 170/03 RMK AO2 T02890239 $
13976KLFT LFT20190603210510306/03/19 21:05:31  5-MIN KLFT 040305Z 00000KT 10SM CLR 28/24 A2998 0 79 1600 000/00 RMK AO2 T02830244 $
13976KLFT LFT20190603211011006/03/19 21:10:31  5-MIN KLFT 040310Z AUTO 00000KT 10SM CLR 28/24 A2998 -10 79 1600 000/00 RMK AO2 T02830244 $
13976KLFT LFT20190603211511006/03/19 21:15:31  5-MIN KLFT 040315Z AUTO 00000KT 10SM CLR 28/24 A2998 -10 76 1600 000/00 RMK AO2 T02830239 $
13976KLFT LFT20190603212011006/03/19 21:20:31  5-MIN KLFT 040320Z AUTO 00000KT 10SM CLR 28/24 A2998 -10 76 1600 000/00 RMK AO2 T02830239 $
13976KLFT LFT20190603212511006/03/19 21:25:31  5-MIN KLFT 040325Z AUTO 00000KT 10SM CLR 28/24 A2998 -10 79 1500 000/00 RMK AO2 T02780239 $
13976KLFT LFT20190603213011006/03/19 21:30:31  5-MIN KLFT 040330Z AUTO 00000KT 10SM CLR 28/24 A2998 -10 82 1500 000/00 RMK AO2 T02780244 $
13976KLFT LFT20190603213511006/03/19 21:35:31  5-MIN KLFT 040335Z AUTO 00000KT 10SM CLR 28/24 A2998 -10 82 1500 000/00 RMK AO2 T02780244 $
13976KLFT LFT20190603214011006/03/19 21:40:31  5-MIN KLFT 040340Z AUTO 00000KT 10SM CLR 28/24 A2998 -10 79 1500 000/00 RMK AO2 T02780239 $
13976KLFT LFT20190603214511006/03/19 21:45:31  5-MIN KLFT 040345Z AUTO 17003KT 10SM CLR 28/24 A2998 -10 79 1500 170/03 RMK AO2 T02780239 $
13976KLFT LFT20190603215011706/03/19 21:50:31  5-MIN KLFT 040350Z AUTO 00000KT 10SM CLR 28/24 A2998 -10 79 1500 000/00 RMK AO2 SLP152 T02780239 $
13976KLFT LFT20190603215511006/03/19 21:55:31  5-MIN KLFT 040355Z AUTO 00000KT 10SM CLR 28/24 A2998 -10 79 1500 000/00 RMK AO2 T02780239 $
13976KLFT LFT20190603220011006/03/19 22:00:31  5-MIN KLFT 040400Z AUTO 00000KT 10SM CLR 28/24 A2999 -10 79 1500 000/00 RMK AO2 T02780239 $
13976KLFT LFT20190603220511006/03/19 22:05:31  5-MIN KLFT 040405Z AUTO 00000KT 10SM CLR 28/23 A2999 -10 76 1500 000/00 RMK AO2 T02780233 $
13976KLFT LFT20190603221011006/03/19 22:10:31  5-MIN KLFT 040410Z AUTO 00000KT 10SM CLR 28/23 A2999 -10 76 1500 000/00 RMK AO2 T02780233 $
13976KLFT LFT20190603221511006/03/19 22:15:31  5-MIN KLFT 040415Z AUTO 00000KT 10SM CLR 28/24 A2998 -10 79 1500 000/00 RMK AO2 T02780239 $
13976KLFT LFT20190603222011006/03/19 22:20:31  5-MIN KLFT 040420Z AUTO 00000KT 10SM CLR 28/24 A2998 -10 79 1500 000/00 RMK AO2 T02780239 $
13976KLFT LFT20190603222511006/03/19 22:25:31  5-MIN KLFT 040425Z AUTO 00000KT 10SM CLR 27/24 A2998 -10 82 1400 000/00 RMK AO2 T02720239 $
13976KLFT LFT20190603223011006/03/19 22:30:31  5-MIN KLFT 040430Z AUTO 00000KT 10SM CLR 27/24 A2998 -10 84 1400 000/00 RMK AO2 T02720244 $
13976KLFT LFT20190603223511006/03/19 22:35:31  5-MIN KLFT 040435Z AUTO 00000KT 10SM CLR 27/24 A2998 -10 87 1400 000/00 RMK AO2 T02670244 $
13976KLFT LFT20190603224011006/03/19 22:40:31  5-MIN KLFT 040440Z AUTO 00000KT 10SM CLR 27/24 A2999 -10 84 1400 000/00 RMK AO2 T02720244 $
13976KLFT LFT20190603224511006/03/19 22:45:31  5-MIN KLFT 040445Z AUTO 00000KT 10SM CLR 27/24 A2999 -10 84 1400 000/00 RMK AO2 T02720244 $
13976KLFT LFT20190603225011706/03/19 22:50:31  5-MIN KLFT 040450Z AUTO 00000KT 10SM CLR 27/24 A2998 -10 84 1400 000/00 RMK AO2 SLP153 T02720244 $
13976KLFT LFT20190603225511006/03/19 22:55:31  5-MIN KLFT 040455Z AUTO 00000KT 10SM CLR 27/24 A2998 -10 84 1400 000/00 RMK AO2 T02720244 $
13976KLFT LFT20190603230011006/03/19 23:00:31  5-MIN KLFT 040500Z AUTO 00000KT 10SM CLR 27/24 A2999 -10 87 1400 000/00 RMK AO2 T02670244 $
13976KLFT LFT20190603230511006/03/19 23:05:31  5-MIN KLFT 040505Z AUTO 00000KT 10SM CLR 27/24 A2999 -10 87 1400 000/00 RMK AO2 T02670244 $
13976KLFT LFT20190603231011006/03/19 23:10:31  5-MIN KLFT 040510Z AUTO 00000KT 10SM CLR 27/25 A2999 -20 90 1400 000/00 RMK AO2 T02670250 $
13976KLFT LFT20190603231511006/03/19 23:15:31  5-MIN KLFT 040515Z AUTO 00000KT 10SM CLR 27/24 A2999 -10 87 1400 000/00 RMK AO2 T02670244 $
13976KLFT LFT20190603232011006/03/19 23:20:31  5-MIN KLFT 040520Z AUTO 00000KT 10SM CLR 27/25 A2999 -10 90 1400 000/00 RMK AO2 T02670250 $
13976KLFT LFT20190603232511006/03/19 23:25:31  5-MIN KLFT 040525Z AUTO 00000KT 10SM CLR 27/24 A2999 -10 87 1400 000/00 RMK AO2 T02670244 $
13976KLFT LFT20190603233011006/03/19 23:30:31  5-MIN KLFT 040530Z AUTO 00000KT 10SM CLR 27/24 A2999 -20 87 1400 000/00 RMK AO2 T02670244 $
13976KLFT LFT20190603233511006/03/19 23:35:31  5-MIN KLFT 040535Z AUTO 00000KT 10SM CLR 27/24 A2999 -10 87 1400 000/00 RMK AO2 T02670244 $
13976KLFT LFT20190603234011006/03/19 23:40:31  5-MIN KLFT 040540Z AUTO 18003KT 10SM CLR 27/24 A2999 -10 87 1400 180/03 RMK AO2 T02670244 $
13976KLFT LFT20190603234511006/03/19 23:45:31  5-MIN KLFT 040545Z AUTO 18004KT 10SM CLR 27/24 A2999 -10 87 1400 180/04 RMK AO2 T02670244 $
13976KLFT LFT20190603235014506/03/19 23:50:31  5-MIN KLFT 040550Z AUTO 17003KT 10SM CLR 27/24 A2999 -10 82 1400 170/03 RMK AO2 SLP154 T02720239 10317 20267 403670256 53015 $
13976KLFT LFT20190603235511006/03/19 23:55:31  5-MIN KLFT 040555Z AUTO 00000KT 10SM CLR 27/24 A2999 -10 82 1400 000/00 RMK AO2 T02720239 $
13976KLFT LFT20190604000011006/04/19 00:00:31  5-MIN KLFT 040600Z AUTO 00000KT 10SM CLR 27/24 A2999 -20 84 1400 000/00 RMK AO2 T02720244 $
13976KLFT LFT20190604000511006/04/19 00:05:31  5-MIN KLFT 040605Z AUTO 00000KT 10SM CLR 27/24 A2999 -20 82 1400 000/00 RMK AO2 T02720239 $
13976KLFT LFT20190604001011006/04/19 00:10:31  5-MIN KLFT 040610Z AUTO 00000KT 10SM CLR 27/24 A2999 -20 82 1400 000/00 RMK AO2 T02720239 $
13976KLFT LFT20190604001511006/04/19 00:15:31  5-MIN KLFT 040615Z AUTO 00000KT 10SM CLR 27/24 A2999 -20 82 1400 000/00 RMK AO2 T02720239 $
13976KLFT LFT20190604002011006/04/19 00:20:31  5-MIN KLFT 040620Z AUTO 00000KT 10SM CLR 27/24 A2999 -10 82 1400 000/00 RMK AO2 T02720239 $
13976KLFT LFT20190604002511006/04/19 00:25:31  5-MIN KLFT 040625Z AUTO 00000KT 10SM CLR 27/24 A2999 -10 82 1400 000/00 RMK AO2 T02720239 $
13976KLFT LFT20190604003011006/04/19 00:30:31  5-MIN KLFT 040630Z AUTO 00000KT 10SM CLR 27/24 A2999 -20 84 1400 000/00 RMK AO2 T02670239 $
13976KLFT LFT20190604003511006/04/19 00:35:31  5-MIN KLFT 040635Z AUTO 00000KT 10SM CLR 27/24 A2999 -10 84 1400 000/00 RMK AO2 T02670239 $
13976KLFT LFT20190604004011006/04/19 00:40:31  5-MIN KLFT 040640Z AUTO 00000KT 10SM CLR 27/24 A2999 -10 84 1400 000/00 RMK AO2 T02670239 $
13976KLFT LFT20190604004511006/04/19 00:45:31  5-MIN KLFT 040645Z AUTO 00000KT 10SM CLR 27/24 A2999 -10 84 1400 000/00 RMK AO2 T02670239 $
13976KLFT LFT20190604005011706/04/19 00:50:31  5-MIN KLFT 040650Z AUTO 00000KT 10SM CLR 27/24 A2998 -10 84 1400 000/00 RMK AO2 SLP153 T02670239 $
13976KLFT LFT20190604005511006/04/19 00:55:31  5-MIN KLFT 040655Z AUTO 00000KT 10SM CLR 27/24 A2998 -10 87 1400 000/00 RMK AO2 T02670244 $
13976KLFT LFT20190604010011006/04/19 01:00:31  5-MIN KLFT 040700Z AUTO 00000KT 10SM CLR 27/24 A2998 -10 84 1400 000/00 RMK AO2 T02670239 $
13976KLFT LFT20190604010511006/04/19 01:05:31  5-MIN KLFT 040705Z AUTO 00000KT 10SM CLR 27/24 A2998 -10 87 1400 000/00 RMK AO2 T02670244 $
13976KLFT LFT20190604011011006/04/19 01:10:31  5-MIN KLFT 040710Z AUTO 00000KT 10SM CLR 27/24 A2998 -10 87 1400 000/00 RMK AO2 T02670244 $
13976KLFT LFT20190604011511006/04/19 01:15:31  5-MIN KLFT 040715Z AUTO 00000KT 10SM CLR 27/24 A2998 -10 84 1400 000/00 RMK AO2 T02670239 $
13976KLFT LFT20190604012011006/04/19 01:20:31  5-MIN KLFT 040720Z AUTO 00000KT 10SM CLR 27/24 A2999 -10 84 1400 000/00 RMK AO2 T02670239 $
13976KLFT LFT20190604012511006/04/19 01:25:31  5-MIN KLFT 040725Z AUTO 00000KT 10SM CLR 27/24 A2998 -10 84 1400 000/00 RMK AO2 T02670239 $
13976KLFT LFT20190604013011006/04/19 01:30:31  5-MIN KLFT 040730Z AUTO 00000KT 10SM CLR 26/24 A2999 -10 87 1300 000/00 RMK AO2 T02610239 $
13976KLFT LFT20190604013511006/04/19 01:35:31  5-MIN KLFT 040735Z AUTO 00000KT 10SM CLR 26/24 A2998 -10 87 1300 000/00 RMK AO2 T02610239 $
13976KLFT LFT20190604014011006/04/19 01:40:31  5-MIN KLFT 040740Z AUTO 00000KT 10SM CLR 26/24 A2998 -10 90 1300 000/00 RMK AO2 T02610244 $
13976KLFT LFT20190604014511006/04/19 01:45:31  5-MIN KLFT 040745Z AUTO 00000KT 10SM CLR 26/24 A2998 -10 87 1300 000/00 RMK AO2 T02610239 $
13976KLFT LFT20190604015011706/04/19 01:50:31  5-MIN KLFT 040750Z AUTO 00000KT 10SM CLR 26/24 A2998 -10 87 1300 000/00 RMK AO2 SLP152 T02610239 $
13976KLFT LFT20190604015511006/04/19 01:55:31  5-MIN KLFT 040755Z AUTO 00000KT 10SM CLR 26/24 A2998 -10 87 1300 000/00 RMK AO2 T02610239 $
13976KLFT LFT20190604020011006/04/19 02:00:31  5-MIN KLFT 040800Z AUTO 00000KT 10SM CLR 26/24 A2998 -10 90 1300 000/00 RMK AO2 T02610244 $
13976KLFT LFT20190604020510806/04/19 02:05:31  5-MIN KLFT 040805Z AUTO 00000KT 10SM CLR 26/24 A2998 0 90 1300 000/00 RMK AO2 T02610244 $
13976KLFT LFT20190604021010806/04/19 02:10:31  5-MIN KLFT 040810Z AUTO 00000KT 10SM CLR 26/24 A2998 0 90 1300 000/00 RMK AO2 T02610244 $
13976KLFT LFT20190604021510806/04/19 02:15:31  5-MIN KLFT 040815Z AUTO 00000KT 10SM CLR 26/24 A2998 0 90 1300 000/00 RMK AO2 T02560239 $
13976KLFT LFT20190604022010806/04/19 02:20:31  5-MIN KLFT 040820Z AUTO 00000KT 10SM CLR 26/24 A2997 0 93 1300 000/00 RMK AO2 T02560244 $
13976KLFT LFT20190604022510806/04/19 02:25:31  5-MIN KLFT 040825Z AUTO 00000KT 10SM CLR 26/24 A2998 0 90 1300 000/00 RMK AO2 T02560239 $
13976KLFT LFT20190604023010806/04/19 02:30:31  5-MIN KLFT 040830Z AUTO 00000KT 10SM CLR 26/24 A2998 0 90 1300 000/00 RMK AO2 T02560239 $
13976KLFT LFT20190604023510806/04/19 02:35:31  5-MIN KLFT 040835Z AUTO 00000KT 10SM CLR 26/24 A2998 0 93 1300 000/00 RMK AO2 T02560244 $
13976KLFT LFT20190604024010806/04/19 02:40:31  5-MIN KLFT 040840Z AUTO 00000KT 10SM CLR 26/24 A2998 0 90 1300 000/00 RMK AO2 T02560239 $
13976KLFT LFT20190604024510806/04/19 02:45:31  5-MIN KLFT 040845Z AUTO 00000KT 10SM CLR 26/24 A2997 0 90 1300 000/00 RMK AO2 T02560239 $
13976KLFT LFT20190604025012106/04/19 02:50:31  5-MIN KLFT 040850Z AUTO 00000KT 10SM CLR 26/24 A2997 0 90 1300 000/00 RMK AO2 SLP149 T02560239 51005 $
13976KLFT LFT20190604025510806/04/19 02:55:31  5-MIN KLFT 040855Z AUTO 00000KT 10SM CLR 26/24 A2997 0 90 1300 000/00 RMK AO2 T02560239 $
13976KLFT LFT20190604030010806/04/19 03:00:31  5-MIN KLFT 040900Z AUTO 00000KT 10SM CLR 26/24 A2997 0 90 1300 000/00 RMK AO2 T02560239 $
13976KLFT LFT20190604030510806/04/19 03:05:31  5-MIN KLFT 040905Z AUTO 00000KT 10SM CLR 26/24 A2997 0 90 1300 000/00 RMK AO2 T02560239 $
13976KLFT LFT20190604031010806/04/19 03:10:31  5-MIN KLFT 040910Z AUTO 00000KT 10SM CLR 26/24 A2997 0 90 1300 000/00 RMK AO2 T02560239 $
13976KLFT LFT20190604031510806/04/19 03:15:31  5-MIN KLFT 040915Z AUTO 00000KT 10SM CLR 26/24 A2997 0 90 1300 000/00 RMK AO2 T02560239 $
13976KLFT LFT20190604032010806/04/19 03:20:31  5-MIN KLFT 040920Z AUTO 00000KT 10SM CLR 26/24 A2996 0 90 1300 000/00 RMK AO2 T02560239 $
13976KLFT LFT20190604032510806/04/19 03:25:31  5-MIN KLFT 040925Z AUTO 00000KT 10SM CLR 26/24 A2996 0 90 1300 000/00 RMK AO2 T02560239 $
13976KLFT LFT20190604033010806/04/19 03:30:31  5-MIN KLFT 040930Z AUTO 00000KT 10SM CLR 25/24 A2996 0 93 1200 000/00 RMK AO2 T02500239 $
13976KLFT LFT20190604033510806/04/19 03:35:31  5-MIN KLFT 040935Z AUTO 00000KT 10SM CLR 25/24 A2997 0 93 1200 000/00 RMK AO2 T02500239 $
13976KLFT LFT20190604034010806/04/19 03:40:31  5-MIN KLFT 040940Z AUTO 00000KT 10SM CLR 26/24 A2996 0 90 1300 000/00 RMK AO2 T02560239 $
13976KLFT LFT20190604034510806/04/19 03:45:31  5-MIN KLFT 040945Z AUTO 05003KT 10SM CLR 25/24 A2997 0 93 1200 050/03 RMK AO2 T02500239 $
13976KLFT LFT20190604035011506/04/19 03:50:31  5-MIN KLFT 040950Z AUTO 00000KT 10SM CLR 25/23 A2996 0 90 1200 000/00 RMK AO2 SLP146 T02500233 $
13976KLFT LFT20190604035510806/04/19 03:55:31  5-MIN KLFT 040955Z AUTO 00000KT 10SM CLR 25/24 A2997 0 93 1200 000/00 RMK AO2 T02500239 $
13976KLFT LFT20190604040010806/04/19 04:00:31  5-MIN KLFT 041000Z AUTO 00000KT 10SM CLR 24/23 A2996 0 93 1100 000/00 RMK AO2 T02440233 $
13976KLFT LFT20190604040510806/04/19 04:05:31  5-MIN KLFT 041005Z AUTO 00000KT 10SM CLR 25/23 A2997 0 90 1200 000/00 RMK AO2 T02500233 $
13976KLFT LFT20190604041010806/04/19 04:10:31  5-MIN KLFT 041010Z AUTO 00000KT 10SM CLR 25/23 A2997 0 90 1200 000/00 RMK AO2 T02500233 $
13976KLFT LFT20190604041510306/04/19 04:15:31  5-MIN KLFT 041015Z 00000KT 10SM CLR 25/23 A2997 0 90 1200 000/00 RMK AO2 T02500233 $
13976KLFT LFT20190604042010306/04/19 04:20:31  5-MIN KLFT 041020Z 00000KT 10SM CLR 25/23 A2997 0 90 1200 000/00 RMK AO2 T02500233 $
13976KLFT LFT20190604042510306/04/19 04:25:31  5-MIN KLFT 041025Z 00000KT 10SM CLR 25/23 A2997 0 90 1200 000/00 RMK AO2 T02500233 $
13976KLFT LFT20190604043010306/04/19 04:30:31  5-MIN KLFT 041030Z 00000KT 10SM CLR 25/23 A2997 0 90 1200 000/00 RMK AO2 T02500233 $
13976KLFT LFT20190604043510306/04/19 04:35:31  5-MIN KLFT 041035Z 00000KT 10SM CLR 25/23 A2997 0 90 1200 000/00 RMK AO2 T02500233 $
13976KLFT LFT20190604044010306/04/19 04:40:31  5-MIN KLFT 041040Z 00000KT 10SM CLR 25/23 A2997 0 90 1200 000/00 RMK AO2 T02500233 $
13976KLFT LFT20190604044510306/04/19 04:45:31  5-MIN KLFT 041045Z 00000KT 10SM CLR 25/23 A2997 0 90 1200 000/00 RMK AO2 T02500233 $
13976KLFT LFT20190604045011006/04/19 04:50:31  5-MIN KLFT 041050Z 00000KT 10SM CLR 25/23 A2997 0 90 1200 000/00 RMK AO2 SLP148 T02500233 $
13976KLFT LFT20190604045510306/04/19 04:55:31  5-MIN KLFT 041055Z 00000KT 10SM CLR 25/23 A2997 0 90 1200 000/00 RMK AO2 T02500233 $
13976KLFT LFT20190604050010306/04/19 05:00:31  5-MIN KLFT 041100Z 00000KT 10SM CLR 25/24 A2997 0 93 1200 000/00 RMK AO2 T02500239 $
13976KLFT LFT20190604050510306/04/19 05:05:31  5-MIN KLFT 041105Z 00000KT 10SM CLR 25/24 A2997 0 93 1200 000/00 RMK AO2 T02500239 $
13976KLFT LFT20190604051010306/04/19 05:10:31  5-MIN KLFT 041110Z 00000KT 10SM CLR 25/24 A2997 0 93 1200 000/00 RMK AO2 T02500239 $
13976KLFT LFT20190604051510306/04/19 05:15:31  5-MIN KLFT 041115Z 00000KT 10SM CLR 25/23 A2997 0 90 1200 000/00 RMK AO2 T02500233 $
13976KLFT LFT20190604052010306/04/19 05:20:31  5-MIN KLFT 041120Z 00000KT 10SM CLR 25/23 A2997 0 90 1200 000/00 RMK AO2 T02500233 $
13976KLFT LFT20190604052510306/04/19 05:25:31  5-MIN KLFT 041125Z 00000KT 10SM CLR 25/23 A2997 0 90 1200 000/00 RMK AO2 T02500233 $
13976KLFT LFT20190604053010306/04/19 05:30:31  5-MIN KLFT 041130Z 00000KT 10SM CLR 25/23 A2997 0 90 1200 000/00 RMK AO2 T02500233 $
13976KLFT LFT20190604053510306/04/19 05:35:31  5-MIN KLFT 041135Z 00000KT 10SM CLR 25/24 A2997 0 93 1200 000/00 RMK AO2 T02500239 $
13976KLFT LFT20190604054010306/04/19 05:40:31  5-MIN KLFT 041140Z 00000KT 10SM CLR 25/24 A2997 0 93 1200 000/00 RMK AO2 T02500239 $
13976KLFT LFT20190604054510306/04/19 05:45:31  5-MIN KLFT 041145Z 00000KT 10SM CLR 25/24 A2997 0 93 1200 000/00 RMK AO2 T02500239 $
13976KLFT LFT20190604055012806/04/19 05:50:31  5-MIN KLFT 041150Z 00000KT 10SM CLR 26/24 A2997 0 90 1300 000/00 RMK AO2 SLP149 T02560239 10272 20244 58006 $
13976KLFT LFT20190604055510306/04/19 05:55:31  5-MIN KLFT 041155Z 00000KT 10SM CLR 26/24 A2997 0 90 1300 000/00 RMK AO2 T02560239 $
13976KLFT LFT20190604060010306/04/19 06:00:31  5-MIN KLFT 041200Z 00000KT 10SM CLR 26/24 A2997 0 90 1300 000/00 RMK AO2 T02560239 $
13976KLFT LFT20190604060510306/04/19 06:05:31  5-MIN KLFT 041205Z 00000KT 10SM CLR 26/24 A2997 0 90 1300 000/00 RMK AO2 T02560239 $
13976KLFT LFT20190604061010306/04/19 06:10:31  5-MIN KLFT 041210Z 00000KT 10SM CLR 26/24 A2997 0 90 1300 000/00 RMK AO2 T02560239 $
13976KLFT LFT20190604061510306/04/19 06:15:31  5-MIN KLFT 041215Z 00000KT 10SM CLR 26/24 A2997 0 87 1300 000/00 RMK AO2 T02610239 $
13976KLFT LFT20190604062010306/04/19 06:20:31  5-MIN KLFT 041220Z 14003KT 10SM CLR 26/24 A2997 0 90 1300 140/03 RMK AO2 T02610244 $
13976KLFT LFT20190604062510306/04/19 06:25:31  5-MIN KLFT 041225Z 00000KT 10SM CLR 26/24 A2997 0 90 1300 000/00 RMK AO2 T02610244 $
13976KLFT LFT20190604063010306/04/19 06:30:31  5-MIN KLFT 041230Z 00000KT 10SM CLR 27/24 A2997 0 87 1400 000/00 RMK AO2 T02670244 $
13976KLFT LFT20190604063510306/04/19 06:35:31  5-MIN KLFT 041235Z 00000KT 10SM CLR 27/24 A2998 0 84 1400 000/00 RMK AO2 T02720244 $
13976KLFT LFT20190604064010306/04/19 06:40:31  5-MIN KLFT 041240Z 00000KT 10SM CLR 27/24 A2998 0 84 1400 000/00 RMK AO2 T02720244 $
13976KLFT LFT20190604064510306/04/19 06:45:31  5-MIN KLFT 041245Z 00000KT 10SM CLR 28/24 A2998 0 82 1500 000/00 RMK AO2 T02780244 $
13976KLFT LFT20190604065011006/04/19 06:50:31  5-MIN KLFT 041250Z 00000KT 10SM CLR 28/25 A2998 0 84 1500 000/00 RMK AO2 SLP150 T02780250 $
13976KLFT LFT20190604065510306/04/19 06:55:31  5-MIN KLFT 041255Z 16003KT 10SM CLR 28/25 A2998 0 84 1500 160/03 RMK AO2 T02780250 $
13976KLFT LFT20190604070010306/04/19 07:00:31  5-MIN KLFT 041300Z 00000KT 10SM CLR 28/25 A2998 0 82 1600 000/00 RMK AO2 T02830250 $
13976KLFT LFT20190604070510506/04/19 07:05:31  5-MIN KLFT 041305Z 00000KT 10SM CLR 28/25 A2998 -10 82 1600 000/00 RMK AO2 T02830250 $
13976KLFT LFT20190604071010506/04/19 07:10:31  5-MIN KLFT 041310Z VRB03KT 10SM CLR 29/25 A2998 -10 79 1600 VRB/03 RMK AO2 T02890250 $
13976KLFT LFT20190604071510506/04/19 07:15:31  5-MIN KLFT 041315Z 00000KT 10SM CLR 29/25 A2998 -10 79 1600 000/00 RMK AO2 T02890250 $
13976KLFT LFT20190604072010506/04/19 07:20:31  5-MIN KLFT 041320Z 00000KT 10SM CLR 29/25 A2998 -10 76 1700 000/00 RMK AO2 T02940250 $
13976KLFT LFT20190604072510506/04/19 07:25:31  5-MIN KLFT 041325Z VRB03KT 10SM CLR 29/25 A2999 -10 76 1700 VRB/03 RMK AO2 T02940250 $
13976KLFT LFT20190604073010506/04/19 07:30:31  5-MIN KLFT 041330Z 00000KT 10SM CLR 30/25 A2999 -10 74 1700 000/00 RMK AO2 T03000250 $
13976KLFT LFT20190604073510506/04/19 07:35:31  5-MIN KLFT 041335Z 00000KT 10SM CLR 30/26 A2999 -20 77 1700 000/00 RMK AO2 T03000256 $
13976KLFT LFT20190604074010506/04/19 07:40:31  5-MIN KLFT 041340Z 00000KT 10SM CLR 30/26 A2999 -20 77 1700 000/00 RMK AO2 T03000256 $
13976KLFT LFT20190604074510506/04/19 07:45:31  5-MIN KLFT 041345Z 00000KT 10SM CLR 31/25 A3000 -20 72 1800 000/00 RMK AO2 T03060250 $
13976KLFT LFT20190604075011206/04/19 07:50:31  5-MIN KLFT 041350Z VRB03KT 10SM CLR 31/26 A3000 -20 74 1800 VRB/03 RMK AO2 SLP157 T03060256 $
13976KLFT LFT20190604075510506/04/19 07:55:31  5-MIN KLFT 041355Z 13003KT 10SM CLR 31/25 A3000 -20 72 1800 130/03 RMK AO2 T03060250 $
13976KLFT LFT20190604080010806/04/19 08:00:31  5-MIN KLFT 041400Z 20008KT 10SM FEW023 31/26 A3000 -20 72 1800 200/08 RMK AO2 T03110256 $
13976KLFT LFT20190604080510806/04/19 08:05:31  5-MIN KLFT 041405Z 20006KT 10SM SCT030 31/25 A3000 -30 69 1800 200/06 RMK AO2 T03110250 $
13976KLFT LFT20190604081010806/04/19 08:10:31  5-MIN KLFT 041410Z 19004KT 10SM SCT030 31/25 A3001 -30 72 1800 180/04 RMK AO2 T03060250 $
13976KLFT LFT20190604081510806/04/19 08:15:31  5-MIN KLFT 041415Z 00000KT 10SM SCT030 31/25 A3001 -30 72 1800 000/00 RMK AO2 T03060250 $
13976KLFT LFT20190604082010806/04/19 08:20:31  5-MIN KLFT 041420Z VRB03KT 10SM SCT030 31/25 A3001 -30 69 1800 VRB/03 RMK AO2 T03110250 $
13976KLFT LFT20190604082510806/04/19 08:25:31  5-MIN KLFT 041425Z 14004KT 10SM SCT030 31/25 A3001 -30 72 1800 130/04 RMK AO2 T03060250 $
13976KLFT LFT20190604083010806/04/19 08:30:31  5-MIN KLFT 041430Z 11003KT 10SM SCT030 32/24 A3001 -30 65 1900 110/03 RMK AO2 T03170244 $
13976KLFT LFT20190604083512206/04/19 08:35:31  5-MIN KLFT 041435Z 14004KT 10SM SCT022 SCT030 BKN039 32/25 A3001 -30 67 1900 140/04 RMK AO2 T03170250 $
13976KLFT LFT20190604084012206/04/19 08:40:31  5-MIN KLFT 041440Z 00000KT 10SM SCT024 SCT030 BKN039 32/25 A3001 -30 65 2000 000/00 RMK AO2 T03220250 $
13976KLFT LFT20190604084510806/04/19 08:45:31  5-MIN KLFT 041445Z VRB03KT 10SM SCT024 32/25 A3001 -30 67 1900 VRB/03 RMK AO2 T03170250 $
13976KLFT LFT20190604085012806/04/19 08:50:31  5-MIN KLFT 041450Z 00000KT 10SM SCT026 SCT033 32/24 A3001 -30 65 1900 000/00 RMK AO2 SLP161 T03170244 53001 $
13976KLFT LFT20190604085512206/04/19 08:55:31  5-MIN KLFT 041455Z 00000KT 10SM SCT026 BKN033 BKN049 32/24 A3001 -30 65 1900 000/00 RMK AO2 T03170244 $
13976KLFT LFT20190604090012206/04/19 09:00:31  5-MIN KLFT 041500Z 15004KT 10SM FEW026 SCT032 BKN049 31/24 A3001 -30 65 1800 150/04 RMK AO2 T03110239 $
13976KLFT LFT20190604090512206/04/19 09:05:31  5-MIN KLFT 041505Z VRB03KT 10SM FEW026 BKN034 BKN049 32/24 A3001 -30 63 1900 VRB/03 RMK AO2 T03170239 $
13976KLFT LFT20190604091012206/04/19 09:10:31  5-MIN KLFT 041510Z VRB05KT 10SM FEW028 SCT034 BKN050 32/23 A3001 -30 61 1900 VRB/05 RMK AO2 T03170233 $
13976KLFT LFT20190604091512206/04/19 09:15:31  5-MIN KLFT 041515Z VRB04KT 10SM FEW028 SCT034 BKN047 32/23 A3001 -30 58 1900 VRB/04 RMK AO2 T03170228 $
13976KLFT LFT20190604092012206/04/19 09:20:31  5-MIN KLFT 041520Z VRB03KT 10SM BKN034 BKN044 BKN050 32/24 A3001 -30 61 2000 VRB/03 RMK AO2 T03220239 $
13976KLFT LFT20190604092512206/04/19 09:25:31  5-MIN KLFT 041525Z 00000KT 10SM BKN034 BKN042 BKN050 33/24 A3001 -30 59 2000 000/00 RMK AO2 T03280239 $
13976KLFT LFT20190604093011506/04/19 09:30:31  5-MIN KLFT 041530Z 16005KT 10SM BKN034 BKN043 33/23 A3001 -30 57 2000 160/05 RMK AO2 T03280233 $
13976KLFT LFT20190604093511506/04/19 09:35:31  5-MIN KLFT 041535Z 15003KT 10SM BKN037 BKN047 33/23 A3001 -30 55 2000 150/03 RMK AO2 T03280228 $
13976KLFT LFT20190604094011506/04/19 09:40:31  5-MIN KLFT 041540Z 13005KT 10SM SCT034 BKN044 33/23 A3001 -30 55 2000 130/05 RMK AO2 T03280228 $
13976KLFT LFT20190604094511506/04/19 09:45:31  5-MIN KLFT 041545Z VRB05KT 10SM SCT038 BKN046 32/23 A3001 -30 57 2000 VRB/05 RMK AO2 T03220228 $
13976KLFT LFT20190604095012206/04/19 09:50:31  5-MIN KLFT 041550Z VRB05KT 10SM BKN040 BKN050 33/23 A3001 -40 55 2000 VRB/05 RMK AO2 SLP162 T03280228 $
13976KLFT LFT20190604095512206/04/19 09:55:31  5-MIN KLFT 041555Z VRB03KT 10SM SCT040 SCT046 BKN055 33/23 A3001 -40 55 2000 VRB/03 RMK AO2 T03280228 $
13976KLFT LFT20190604100011506/04/19 10:00:31  5-MIN KLFT 041600Z VRB06KT 10SM SCT042 BKN055 33/23 A3001 -40 53 2100 VRB/06 RMK AO2 T03330228 $
13976KLFT LFT20190604100511506/04/19 10:05:31  5-MIN KLFT 041605Z 17006KT 10SM SCT042 SCT055 33/23 A3002 -40 53 2100 170/06 RMK AO2 T03330228 $
13976KLFT LFT20190604101011506/04/19 10:10:31  5-MIN KLFT 041610Z 15003KT 10SM BKN042 BKN055 32/23 A3002 -40 57 2000 150/03 RMK AO2 T03220228 $
13976KLFT LFT20190604101511506/04/19 10:15:31  5-MIN KLFT 041615Z 17006KT 10SM BKN042 BKN055 32/23 A3002 -40 59 2000 170/06 RMK AO2 T03220233 $
13976KLFT LFT20190604102011506/04/19 10:20:31  5-MIN KLFT 041620Z 15007KT 10SM BKN042 BKN055 33/23 A3002 -40 55 2000 150/07 RMK AO2 T03280228 $
13976KLFT LFT20190604102511506/04/19 10:25:31  5-MIN KLFT 041625Z VRB03KT 10SM BKN042 BKN055 33/23 A3002 -40 55 2000 VRB/03 RMK AO2 T03280228 $
13976KLFT LFT20190604103011506/04/19 10:30:31  5-MIN KLFT 041630Z VRB04KT 10SM BKN042 BKN055 33/22 A3002 -40 53 2000 VRB/04 RMK AO2 T03280222 $
13976KLFT LFT20190604103511506/04/19 10:35:31  5-MIN KLFT 041635Z 17006KT 10SM BKN042 BKN055 33/22 A3001 -40 51 2100 170/06 RMK AO2 T03330222 $
13976KLFT LFT20190604104011506/04/19 10:40:31  5-MIN KLFT 041640Z 20009KT 10SM BKN042 BKN055 33/22 A3002 -40 51 2100 200/09 RMK AO2 T03330222 $
13976KLFT LFT20190604104511506/04/19 10:45:31  5-MIN KLFT 041645Z 17007KT 10SM BKN042 BKN055 33/22 A3002 -40 51 2100 170/07 RMK AO2 T03330222 $
13976KLFT LFT20190604105011506/04/19 10:50:31  5-MIN KLFT 041650Z VRB04KT 10SM BKN044 33/22 A3001 -40 53 2000 VRB/04 RMK AO2 SLP163 T03280222 $
13976KLFT LFT20190604105511506/04/19 10:55:31  5-MIN KLFT 041655Z 17010KT 10SM SCT044 SCT055 34/23 A3001 -40 51 2100 170/10 RMK AO2 T03390228 $
13976KLFT LFT20190604110011506/04/19 11:00:31  5-MIN KLFT 041700Z 17009KT 10SM FEW044 SCT050 33/22 A3001 -30 51 2100 170/09 RMK AO2 T03330222 $
13976KLFT LFT20190604110510806/04/19 11:05:31  5-MIN KLFT 041705Z 18009KT 10SM FEW047 33/22 A3001 -30 50 2100 180/09 RMK AO2 T03330217 $
13976KLFT LFT20190604111010806/04/19 11:10:31  5-MIN KLFT 041710Z 20011KT 10SM FEW049 33/22 A3001 -30 50 2100 200/11 RMK AO2 T03330217 $
13976KLFT LFT20190604111511406/04/19 11:15:31  5-MIN KLFT 041715Z 16007G16KT 10SM FEW049 34/21 A3001 -30 46 2100 160/07G16 RMK AO2 T03390211 $
13976KLFT LFT20190604112013006/04/19 11:20:31  5-MIN KLFT 041720Z 16008G16KT 090V200 10SM FEW049 34/21 A3001 -30 46 2100 160/08G16 090V200 RMK AO2 T03390211 $
13976KLFT LFT20190604112511406/04/19 11:25:31  5-MIN KLFT 041725Z 18010G14KT 10SM FEW049 34/22 A3001 -30 48 2100 180/10G14 RMK AO2 T03390217 $
13976KLFT LFT20190604113010506/04/19 11:30:31  5-MIN KLFT 041730Z 18010KT 10SM CLR 34/22 A3001 -30 48 2100 180/10 RMK AO2 T03390217 $
13976KLFT LFT20190604113510506/04/19 11:35:31  5-MIN KLFT 041735Z VRB06KT 10SM CLR 34/21 A3001 -30 46 2100 VRB/06 RMK AO2 T03390211 $
13976KLFT LFT20190604114010506/04/19 11:40:31  5-MIN KLFT 041740Z 17010KT 10SM CLR 34/21 A3000 -30 46 2200 170/10 RMK AO2 T03390211 $
13976KLFT LFT20190604114510506/04/19 11:45:31  5-MIN KLFT 041745Z 17006KT 10SM CLR 34/21 A3000 -30 46 2200 170/06 RMK AO2 T03390211 $
13976KLFT LFT20190604115013306/04/19 11:50:31  5-MIN KLFT 041750Z 17007KT 10SM FEW048 33/21 A3000 -20 48 2100 160/07 RMK AO2 SLP158 T03330211 10339 20256 53012 $
13976KLFT LFT20190604115510806/04/19 11:55:31  5-MIN KLFT 041755Z VRB06KT 10SM SCT048 33/21 A3000 -20 48 2100 VRB/06 RMK AO2 T03330211 $
13976KLFT LFT20190604120010806/04/19 12:00:31  5-MIN KLFT 041800Z VRB06KT 10SM FEW050 34/21 A3000 -20 45 2200 VRB/06 RMK AO2 T03390206 $
13976KLFT LFT20190604120510806/04/19 12:05:31  5-MIN KLFT 041805Z VRB04KT 10SM FEW050 34/22 A2999 -20 46 2200 VRB/04 RMK AO2 T03440217 $
13976KLFT LFT20190604121010806/04/19 12:10:31  5-MIN KLFT 041810Z 17008KT 10SM FEW050 34/22 A2999 -20 48 2200 170/08 RMK AO2 T03390217 $
13976KLFT LFT20190604121510806/04/19 12:15:31  5-MIN KLFT 041815Z 17006KT 10SM FEW049 34/22 A2999 -20 48 2200 170/06 RMK AO2 T03390217 $
13976KLFT LFT20190604122010506/04/19 12:20:31  5-MIN KLFT 041820Z 17004KT 10SM CLR 34/21 A2999 -10 45 2200 170/04 RMK AO2 T03440211 $
13976KLFT LFT20190604122512406/04/19 12:25:31  5-MIN KLFT 041825Z 17007KT 130V190 10SM FEW049 34/21 A2999 -10 46 2200 170/07 130V190 RMK AO2 T03390211 $
13976KLFT LFT20190604123010806/04/19 12:30:31  5-MIN KLFT 041830Z VRB06KT 10SM FEW049 34/21 A2999 -10 46 2200 VRB/06 RMK AO2 T03390211 $
13976KLFT LFT20190604123511206/04/19 12:35:31  5-MIN KLFT 041835Z 18010G14KT 10SM FEW055 34/21 A2998 -10 45 2200 180/10G14 RMK AO2 T03440211
13976KLFT LFT20190604124011206/04/19 12:40:31  5-MIN KLFT 041840Z 19007G14KT 10SM FEW050 34/21 A2998 -10 45 2200 180/07G14 RMK AO2 T03440211
13976KLFT LFT20190604124510606/04/19 12:45:31  5-MIN KLFT 041845Z 16007KT 10SM FEW050 34/22 A2998 -10 46 2200 160/07 RMK AO2 T03440217
13976KLFT LFT20190604125011306/04/19 12:50:31  5-MIN KLFT 041850Z VRB06KT 10SM FEW050 34/21 A2998 -10 45 2200 VRB/06 RMK AO2 SLP152 T03440211
13976KLFT LFT20190604125510406/04/19 12:55:31  5-MIN KLFT 041855Z VRB06KT 10SM FEW050 34/22 A2998 0 46 2200 VRB/06 RMK AO2 T03440217
13976KLFT LFT20190604130010606/04/19 13:00:31  5-MIN KLFT 041900Z VRB06KT 10SM SCT050 34/22 A2998 -10 46 2200 VRB/06 RMK AO2 T03440217
13976KLFT LFT20190604130510606/04/19 13:05:31  5-MIN KLFT 041905Z VRB04KT 10SM FEW050 34/22 A2998 -10 46 2200 VRB/04 RMK AO2 T03440217
13976KLFT LFT20190604131010606/04/19 13:10:31  5-MIN KLFT 041910Z 17008KT 10SM SCT055 34/21 A2998 -10 46 2200 170/08 RMK AO2 T03390211
13976KLFT LFT20190604131510606/04/19 13:15:31  5-MIN KLFT 041915Z 18007KT 10SM SCT055 33/21 A2998 -10 48 2100 180/07 RMK AO2 T03330211
13976KLFT LFT20190604132010406/04/19 13:20:31  5-MIN KLFT 041920Z 17004KT 10SM SCT055 34/21 A2998 0 46 2200 160/04 RMK AO2 T03390211
13976KLFT LFT20190604132510406/04/19 13:25:31  5-MIN KLFT 041925Z 16005KT 10SM BKN055 34/21 A2998 0 46 2200 160/05 RMK AO2 T03390211
13976KLFT LFT20190604133010406/04/19 13:30:31  5-MIN KLFT 041930Z 18009KT 10SM BKN055 34/21 A2998 0 45 2200 180/09 RMK AO2 T03440211
13976KLFT LFT20190604133510406/04/19 13:35:31  5-MIN KLFT 041935Z 18007KT 10SM SCT055 35/21 A2998 0 43 2300 180/07 RMK AO2 T03500211
13976KLFT LFT20190604134011006/04/19 13:40:31  5-MIN KLFT 041940Z 19008G15KT 10SM SCT055 35/21 A2998 0 42 2300 180/08G15 RMK AO2 T03500206
13976KLFT LFT20190604134509406/04/19 13:45:31  5-MIN KLFT 041945Z 10SM FEW055 35/21 A2998 0 43 2300 M /M RMK AO2 T03500211
13976KLFT LFT20190604135011106/04/19 13:50:31  5-MIN KLFT 041950Z 17008KT 10SM FEW050 35/21 A2998 0 43 2300 170/08 RMK AO2 SLP150 T03500211
13976KLFT LFT20190604135510406/04/19 13:55:31  5-MIN KLFT 041955Z 18010KT 10SM FEW055 35/21 A2998 0 43 2300 170/10 RMK AO2 T03500211
13976KLFT LFT20190604140010106/04/19 14:00:31  5-MIN KLFT 042000Z 19011KT 10SM CLR 34/21 A2998 0 43 2200 190/11 RMK AO2 T03440206
13976KLFT LFT20190604140510106/04/19 14:05:31  5-MIN KLFT 042005Z 19011KT 10SM CLR 34/21 A2998 0 43 2200 190/11 RMK AO2 T03440206
13976KLFT LFT20190604141010106/04/19 14:10:31  5-MIN KLFT 042010Z 19008KT 10SM CLR 35/21 A2998 0 42 2300 180/08 RMK AO2 T03500206
13976KLFT LFT20190604141510406/04/19 14:15:31  5-MIN KLFT 042015Z 17007KT 10SM FEW050 34/22 A2997 0 46 2200 170/07 RMK AO2 T03440217
13976KLFT LFT20190604142010406/04/19 14:20:31  5-MIN KLFT 042020Z 19010KT 10SM FEW050 34/22 A2997 0 46 2200 190/10 RMK AO2 T03440217
13976KLFT LFT20190604142510406/04/19 14:25:31  5-MIN KLFT 042025Z 17006KT 10SM FEW050 34/22 A2997 0 46 2200 170/06 RMK AO2 T03440217
13976KLFT LFT20190604143010406/04/19 14:30:31  5-MIN KLFT 042030Z 20010KT 10SM SCT050 35/22 A2997 0 47 2300 200/10 RMK AO2 T03500222
13976KLFT LFT20190604143512006/04/19 14:35:31  5-MIN KLFT 042035Z 19009KT 160V220 10SM SCT050 34/21 A2997 0 45 2300 190/09 160V220 RMK AO2 T03440211
13976KLFT LFT20190604144011206/04/19 14:40:31  5-MIN KLFT 042040Z VRB03KT 10SM SCT050 SCT060 34/22 A2996 10 46 2300 VRB/03 RMK AO2 T03440217
13976KLFT LFT20190604144511206/04/19 14:45:31  5-MIN KLFT 042045Z VRB06KT 10SM SCT050 BKN060 34/22 A2996 10 46 2300 VRB/06 RMK AO2 T03440217
13976KLFT LFT20190604145012506/04/19 14:50:31  5-MIN KLFT 042050Z VRB06KT 10SM SCT050 BKN060 34/22 A2996 10 46 2300 VRB/06 RMK AO2 SLP143 T03440217 58003
13976KLFT LFT20190604145511206/04/19 14:55:31  5-MIN KLFT 042055Z 20009KT 10SM SCT050 BKN060 35/22 A2995 10 45 2300 190/09 RMK AO2 T03500217
13976KLFT LFT20190604150010506/04/19 15:00:31  5-MIN KLFT 042100Z 21008KT 10SM BKN050 35/21 A2995 10 43 2300 200/08 RMK AO2 T03500211
13976KLFT LFT20190604150510506/04/19 15:05:31  5-MIN KLFT 042105Z 16007KT 10SM BKN050 34/22 A2995 10 46 2300 160/07 RMK AO2 T03440217
13976KLFT LFT20190604151010506/04/19 15:10:31  5-MIN KLFT 042110Z 16007KT 10SM BKN050 34/22 A2995 10 46 2300 160/07 RMK AO2 T03440217
13976KLFT LFT20190604151510506/04/19 15:15:31  5-MIN KLFT 042115Z 17008KT 10SM SCT050 34/22 A2995 20 46 2300 170/08 RMK AO2 T03440217
13976KLFT LFT20190604152010506/04/19 15:20:31  5-MIN KLFT 042120Z 16008KT 10SM FEW050 34/22 A2995 20 48 2300 160/08 RMK AO2 T03440222
13976KLFT LFT20190604152510506/04/19 15:25:31  5-MIN KLFT 042125Z 18007KT 10SM FEW050 34/22 A2995 10 48 2200 180/07 RMK AO2 T03390217
13976KLFT LFT20190604153010506/04/19 15:30:31  5-MIN KLFT 042130Z 17004KT 10SM FEW047 33/22 A2996 10 50 2100 170/04 RMK AO2 T03330217
13976KLFT LFT20190604153510506/04/19 15:35:31  5-MIN KLFT 042135Z 18007KT 10SM SCT047 34/22 A2996 10 48 2200 170/07 RMK AO2 T03390217
13976KLFT LFT20190604154010506/04/19 15:40:31  5-MIN KLFT 042140Z 17009KT 10SM FEW047 34/22 A2996 10 48 2300 160/09 RMK AO2 T03440222
13976KLFT LFT20190604154510506/04/19 15:45:31  5-MIN KLFT 042145Z 16007KT 10SM FEW047 34/22 A2996 10 50 2200 160/07 RMK AO2 T03390222
13976KLFT LFT20190604155011206/04/19 15:50:31  5-MIN KLFT 042150Z 18008KT 10SM SCT049 34/23 A2996 10 51 2200 180/08 RMK AO2 SLP143 T03390228
13976KLFT LFT20190604155510506/04/19 15:55:31  5-MIN KLFT 042155Z 17008KT 10SM SCT047 34/22 A2995 10 50 2200 170/08 RMK AO2 T03390222
13976KLFT LFT20190604160011206/04/19 16:00:31  5-MIN KLFT 042200Z 17008KT 10SM SCT047 SCT055 34/22 A2995 10 50 2200 170/08 RMK AO2 T03390222
13976KLFT LFT20190604160511106/04/19 16:05:31  5-MIN KLFT 042205Z 19014G22KT 10SM SCT049 33/23 A2995 10 53 2100 190/14G22 RMK AO2 T03330228
13976KLFT LFT20190604161011106/04/19 16:10:31  5-MIN KLFT 042210Z 17013G22KT 10SM SCT049 33/23 A2995 10 57 2100 170/13G22 RMK AO2 T03280233
13976KLFT LFT20190604161511806/04/19 16:15:31  5-MIN KLFT 042215Z 18012G21KT 10SM FEW047 SCT055 32/23 A2995 10 59 2000 180/12G21 RMK AO2 T03220233
13976KLFT LFT20190604162010506/04/19 16:20:31  5-MIN KLFT 042220Z 18014KT 10SM FEW047 32/23 A2995 20 59 2000 180/14 RMK AO2 T03220233
13976KLFT LFT20190604162510506/04/19 16:25:31  5-MIN KLFT 042225Z 18011KT 10SM FEW047 32/23 A2995 20 59 2000 180/11 RMK AO2 T03220233
13976KLFT LFT20190604163010506/04/19 16:30:31  5-MIN KLFT 042230Z 18008KT 10SM FEW047 33/23 A2994 20 57 2100 180/08 RMK AO2 T03280233
13976KLFT LFT20190604163510206/04/19 16:35:31  5-MIN KLFT 042235Z 19010KT 10SM CLR 33/23 A2994 20 57 2100 190/10 RMK AO2 T03280233
13976KLFT LFT20190604164010206/04/19 16:40:31  5-MIN KLFT 042240Z 17012KT 10SM CLR 33/23 A2994 20 57 2100 170/12 RMK AO2 T03280233
13976KLFT LFT20190604164510206/04/19 16:45:31  5-MIN KLFT 042245Z 19012KT 10SM CLR 32/23 A2994 20 59 2000 190/12 RMK AO2 T03220233
13976KLFT LFT20190604165011506/04/19 16:50:31  5-MIN KLFT 042250Z 17011G17KT 10SM CLR 32/23 A2994 20 58 2000 170/11G17 RMK AO2 SLP139 T03170228
13976KLFT LFT20190604165510806/04/19 16:55:31  5-MIN KLFT 042255Z 17009G17KT 10SM CLR 32/22 A2994 30 56 2000 170/09G17 RMK AO2 T03170222
13976KLFT LFT20190604170010806/04/19 17:00:31  5-MIN KLFT 042300Z 18012G17KT 10SM CLR 31/22 A2994 30 58 1900 180/12G17 RMK AO2 T03110222
13976KLFT LFT20190604170510806/04/19 17:05:31  5-MIN KLFT 042305Z 19010G17KT 10SM CLR 31/22 A2993 30 56 1900 190/10G17 RMK AO2 T03110217
13976KLFT LFT20190604171010206/04/19 17:10:31  5-MIN KLFT 042310Z 19008KT 10SM CLR 31/22 A2993 40 58 1900 180/08 RMK AO2 T03110222
13976KLFT LFT20190604171510206/04/19 17:15:31  5-MIN KLFT 042315Z 17006KT 10SM CLR 31/22 A2992 40 58 1900 170/06 RMK AO2 T03110222
13976KLFT LFT20190604172010206/04/19 17:20:31  5-MIN KLFT 042320Z VRB06KT 10SM CLR 31/22 A2992 40 60 1900 VRB/06 RMK AO2 T03060222
13976KLFT LFT20190604172510206/04/19 17:25:31  5-MIN KLFT 042325Z 17008KT 10SM CLR 31/22 A2992 40 60 1900 170/08 RMK AO2 T03060222
13976KLFT LFT20190604173010206/04/19 17:30:31  5-MIN KLFT 042330Z 18008KT 10SM CLR 31/22 A2993 40 60 1900 180/08 RMK AO2 T03060222
13976KLFT LFT20190604173510206/04/19 17:35:31  5-MIN KLFT 042335Z 18007KT 10SM CLR 31/22 A2993 40 58 1900 180/07 RMK AO2 T03060217
13976KLFT LFT20190604174010206/04/19 17:40:31  5-MIN KLFT 042340Z 18008KT 10SM CLR 31/22 A2993 40 60 1900 180/08 RMK AO2 T03060222
13976KLFT LFT20190604174510206/04/19 17:45:31  5-MIN KLFT 042345Z 18008KT 10SM CLR 31/22 A2993 40 60 1900 180/08 RMK AO2 T03060222
13976KLFT LFT20190604175012706/04/19 17:50:31  5-MIN KLFT 042350Z 18009KT 10SM CLR 31/22 A2992 40 60 1900 180/09 RMK AO2 SLP132 T03060222 10350 20306 58015
13976KLFT LFT20190604175510206/04/19 17:55:31  5-MIN KLFT 042355Z 18008KT 10SM CLR 31/23 A2992 40 62 1900 180/08 RMK AO2 T03060228
13976KLFT LFT20190604180010206/04/19 18:00:31  5-MIN KLFT 050000Z 18010KT 10SM CLR 31/23 A2992 40 62 1900 180/10 RMK AO2 T03060228
13976KLFT LFT20190604180510206/04/19 18:05:31  5-MIN KLFT 050005Z 18008KT 10SM CLR 30/23 A2992 40 65 1800 180/08 RMK AO2 T03000228
13976KLFT LFT20190604181010206/04/19 18:10:31  5-MIN KLFT 050010Z 19007KT 10SM CLR 30/23 A2992 40 65 1800 190/07 RMK AO2 T03000228
13976KLFT LFT20190604181510206/04/19 18:15:31  5-MIN KLFT 050015Z 18008KT 10SM CLR 30/23 A2992 40 65 1800 180/08 RMK AO2 T03000228
13976KLFT LFT20190604182010206/04/19 18:20:31  5-MIN KLFT 050020Z 18008KT 10SM CLR 30/23 A2992 40 65 1800 180/08 RMK AO2 T03000228
13976KLFT LFT20190604182510206/04/19 18:25:31  5-MIN KLFT 050025Z 17007KT 10SM CLR 30/23 A2992 40 67 1800 170/07 RMK AO2 T03000233
13976KLFT LFT20190604183010206/04/19 18:30:31  5-MIN KLFT 050030Z 17006KT 10SM CLR 30/23 A2993 40 67 1800 170/06 RMK AO2 T03000233
13976KLFT LFT20190604183510206/04/19 18:35:31  5-MIN KLFT 050035Z 17006KT 10SM CLR 30/23 A2993 40 67 1800 170/06 RMK AO2 T03000233
13976KLFT LFT20190604184011306/04/19 18:40:31  5-MIN KLFT 050040Z 17004KT 10SM CLR 30/23 A2993 30 67 1800 170/04 RMK AO2 LTG DSNT S T03000233
13976KLFT LFT20190604184511306/04/19 18:45:31  5-MIN KLFT 050045Z 18006KT 10SM CLR 30/23 A2993 30 67 1800 180/06 RMK AO2 LTG DSNT S T03000233
13976KLFT LFT20190604185012006/04/19 18:50:31  5-MIN KLFT 050050Z 18005KT 10SM CLR 30/23 A2994 30 67 1800 180/05 RMK AO2 LTG DSNT S SLP137 T03000233
13976KLFT LFT20190604185511306/04/19 18:55:31  5-MIN KLFT 050055Z 18005KT 10SM CLR 30/24 A2994 20 69 1800 180/05 RMK AO2 LTG DSNT S T03000239
13976KLFT LFT20190604190011306/04/19 19:00:31  5-MIN KLFT 050100Z 18006KT 10SM CLR 30/24 A2995 20 69 1800 180/06 RMK AO2 LTG DSNT S T03000239
13976KLFT LFT20190604190510206/04/19 19:05:31  5-MIN KLFT 050105Z 19007KT 10SM CLR 30/24 A2995 10 69 1800 180/07 RMK AO2 T03000239
13976KLFT LFT20190604191010206/04/19 19:10:31  5-MIN KLFT 050110Z 18006KT 10SM CLR 30/24 A2995 10 69 1800 170/06 RMK AO2 T03000239
13976KLFT LFT20190604191510206/04/19 19:15:31  5-MIN KLFT 050115Z 18004KT 10SM CLR 29/24 A2995 20 71 1700 180/04 RMK AO2 T02940239
13976KLFT LFT20190604192011306/04/19 19:20:31  5-MIN KLFT 050120Z 20003KT 10SM CLR 29/24 A2995 10 71 1700 200/03 RMK AO2 LTG DSNT W T02940239
13976KLFT LFT20190604192511306/04/19 19:25:31  5-MIN KLFT 050125Z 19004KT 10SM CLR 29/24 A2995 10 71 1700 180/04 RMK AO2 LTG DSNT W T02940239
13976KLFT LFT20190604193011606/04/19 19:30:31  5-MIN KLFT 050130Z 19005KT 10SM FEW026 29/24 A2996 10 71 1700 180/05 RMK AO2 LTG DSNT W T02940239
13976KLFT LFT20190604193511606/04/19 19:35:31  5-MIN KLFT 050135Z 20006KT 10SM SCT028 29/24 A2996 10 71 1700 200/06 RMK AO2 LTG DSNT W T02940239
13976KLFT LFT20190604194011606/04/19 19:40:31  5-MIN KLFT 050140Z 20005KT 10SM SCT028 29/24 A2996 10 74 1700 200/05 RMK AO2 LTG DSNT W T02940244
13976KLFT LFT20190604194512206/04/19 19:45:31  5-MIN KLFT 050145Z 20008KT 10SM SCT026 SCT033 29/24 A2996 0 74 1700 200/08 RMK AO2 LTG DSNT W T02940244
13976KLFT LFT20190604195012906/04/19 19:50:31  5-MIN KLFT 050150Z 20008KT 10SM SCT026 BKN031 29/24 A2997 0 74 1700 200/08 RMK AO2 LTG DSNT W SLP147 T02940244
13976KLFT LFT20190604195512806/04/19 19:55:31  5-MIN KLFT 050155Z 21014G19KT 10SM SCT026 BKN031 29/24 A2997 0 74 1700 210/14G19 RMK AO2 LTG DSNT W T02940244
13976KLFT LFT20190604200011706/04/19 20:00:31  5-MIN KLFT 050200Z 21013G19KT 10SM FEW022 SCT029 29/24 A2997 0 76 1600 210/13G19 RMK AO2 T02890244
13976KLFT LFT20190604200510406/04/19 20:05:31  5-MIN KLFT 050205Z 20010KT 10SM FEW025 29/24 A2997 0 74 1600 200/10 RMK AO2 T02890239
13976KLFT LFT20190604201012306/04/19 20:10:31  5-MIN KLFT 050210Z 21008KT 10SM FEW023 SCT032 28/24 A2997 0 76 1600 210/08 RMK AO2 LTG DSNT SW T02830239
13976KLFT LFT20190604201512306/04/19 20:15:31  5-MIN KLFT 050215Z 21009KT 10SM FEW023 SCT034 28/24 A2997 0 76 1600 210/09 RMK AO2 LTG DSNT SW T02830239
13976KLFT LFT20190604202012306/04/19 20:20:31  5-MIN KLFT 050220Z 21007KT 10SM SCT037 SCT043 28/23 A2996 0 74 1600 210/07 RMK AO2 LTG DSNT SW T02830233
13976KLFT LFT20190604202513106/04/19 20:25:31  5-MIN KLFT 050225Z 20009KT 10SM FEW035 FEW043 SCT050 28/23 A2996 10 74 1600 200/09 RMK AO2 LTG DSNT SW T02830233
13976KLFT LFT20190604203012406/04/19 20:30:31  5-MIN KLFT 050230Z 20008KT 10SM FEW035 SCT050 28/23 A2996 10 76 1500 200/08 RMK AO2 LTG DSNT SW T02780233
13976KLFT LFT20190604203512406/04/19 20:35:31  5-MIN KLFT 050235Z 20007KT 10SM FEW035 FEW050 28/23 A2996 10 76 1500 200/07 RMK AO2 LTG DSNT SW T02780233
13976KLFT LFT20190604204012306/04/19 20:40:31  5-MIN KLFT 050240Z 21008KT 10SM FEW038 FEW050 28/23 A2996 0 76 1500 210/08 RMK AO2 LTG DSNT SW T02780233
13976KLFT LFT20190604204511306/04/19 20:45:31  5-MIN KLFT 050245Z 21007KT 10SM CLR 28/23 A2996 0 74 1500 210/07 RMK AO2 LTG DSNT SW T02780228
13976KLFT LFT20190604205012606/04/19 20:50:31  5-MIN KLFT 050250Z 21008KT 10SM CLR 27/22 A2997 0 74 1500 200/08 RMK AO2 LTG DSNT SW SLP147 T02720222 58010
13976KLFT LFT20190604205511306/04/19 20:55:31  5-MIN KLFT 050255Z 21008KT 10SM CLR 27/22 A2997 0 74 1400 210/08 RMK AO2 LTG DSNT SW T02720222
13976KLFT LFT20190604210011306/04/19 21:00:31  5-MIN KLFT 050300Z 22009KT 10SM CLR 28/22 A2997 0 71 1500 210/09 RMK AO2 LTG DSNT SW T02780222
13976KLFT LFT20190604210510106/04/19 21:05:31  5-MIN KLFT 050305Z 21007KT 10SM CLR 27/22 A2997 0 74 1400 210/07 RMK AO2 T02720222
13976KLFT LFT20190604211010106/04/19 21:10:31  5-MIN KLFT 050310Z 20004KT 10SM CLR 27/22 A2997 0 74 1400 200/04 RMK AO2 T02720222
13976KLFT LFT20190604211510106/04/19 21:15:31  5-MIN KLFT 050315Z 20008KT 10SM CLR 27/22 A2997 0 74 1400 200/08 RMK AO2 T02720222
13976KLFT LFT20190604212010106/04/19 21:20:31  5-MIN KLFT 050320Z 20007KT 10SM CLR 27/22 A2997 0 74 1400 200/07 RMK AO2 T02720222
13976KLFT LFT20190604212510606/04/19 21:25:31  5-MIN KLFT 050325Z AUTO 20007KT 10SM CLR 27/22 A2998 0 74 1400 200/07 RMK AO2 T02720222
13976KLFT LFT20190604213010606/04/19 21:30:31  5-MIN KLFT 050330Z AUTO 21006KT 10SM CLR 27/22 A2997 0 74 1400 210/06 RMK AO2 T02720222
13976KLFT LFT20190604213510606/04/19 21:35:31  5-MIN KLFT 050335Z AUTO 21006KT 10SM CLR 27/22 A2997 0 74 1400 210/06 RMK AO2 T02720222
13976KLFT LFT20190604214010606/04/19 21:40:31  5-MIN KLFT 050340Z AUTO 22006KT 10SM CLR 27/23 A2997 0 76 1400 220/06 RMK AO2 T02720228
13976KLFT LFT20190604214510606/04/19 21:45:31  5-MIN KLFT 050345Z AUTO 19006KT 10SM CLR 27/23 A2997 0 76 1400 190/06 RMK AO2 T02720228
13976KLFT LFT20190604215011306/04/19 21:50:31  5-MIN KLFT 050350Z AUTO 20006KT 10SM CLR 27/23 A2997 0 76 1500 200/06 RMK AO2 SLP147 T02720228
13976KLFT LFT20190604215510606/04/19 21:55:31  5-MIN KLFT 050355Z AUTO 19004KT 10SM CLR 27/23 A2996 0 76 1500 190/04 RMK AO2 T02720228
13976KLFT LFT20190604220010606/04/19 22:00:31  5-MIN KLFT 050400Z AUTO 19004KT 10SM CLR 27/23 A2997 0 76 1500 190/04 RMK AO2 T02720228
13976KLFT LFT20190604220510906/04/19 22:05:31  5-MIN KLFT 050405Z AUTO 20005KT 10SM FEW110 27/23 A2996 0 79 1400 200/05 RMK AO2 T02670228
13976KLFT LFT20190604221010906/04/19 22:10:31  5-MIN KLFT 050410Z AUTO 19004KT 10SM FEW110 27/23 A2996 0 79 1400 190/04 RMK AO2 T02670228
13976KLFT LFT20190604221512106/04/19 22:15:31  5-MIN KLFT 050415Z AUTO 00000KT 10SM SCT110 27/23 A2996 0 79 1400 000/00 RMK AO2 LTG DSNT SE T02670228
13976KLFT LFT20190604222012206/04/19 22:20:31  5-MIN KLFT 050420Z AUTO 00000KT 10SM FEW110 27/23 A2996 10 79 1400 000/00 RMK AO2 LTG DSNT SE T02670228
13976KLFT LFT20190604222512106/04/19 22:25:31  5-MIN KLFT 050425Z AUTO 21003KT 10SM FEW110 27/23 A2996 0 79 1400 210/03 RMK AO2 LTG DSNT SE T02670228
13976KLFT LFT20190604223012106/04/19 22:30:31  5-MIN KLFT 050430Z AUTO 00000KT 10SM FEW110 26/23 A2996 0 84 1300 000/00 RMK AO2 LTG DSNT SE T02610233
13976KLFT LFT20190604223512106/04/19 22:35:31  5-MIN KLFT 050435Z AUTO 20003KT 10SM FEW110 26/23 A2996 0 84 1300 200/03 RMK AO2 LTG DSNT SE T02610233
13976KLFT LFT20190604224011906/04/19 22:40:31  5-MIN KLFT 050440Z AUTO 00000KT 10SM CLR 26/23 A2996 10 84 1300 000/00 RMK AO2 LTG DSNT SE T02610233
13976KLFT LFT20190604224511906/04/19 22:45:31  5-MIN KLFT 050445Z AUTO 00000KT 10SM CLR 27/23 A2996 10 82 1400 000/00 RMK AO2 LTG DSNT SE T02670233
13976KLFT LFT20190604225011306/04/19 22:50:31  5-MIN KLFT 050450Z AUTO 21003KT 10SM CLR 26/23 A2996 0 84 1300 210/03 RMK AO2 SLP146 T02610233
13976KLFT LFT20190604225510606/04/19 22:55:31  5-MIN KLFT 050455Z AUTO 00000KT 10SM CLR 27/23 A2996 0 82 1400 000/00 RMK AO2 T02670233
13976KLFT LFT20190604230010606/04/19 23:00:31  5-MIN KLFT 050500Z AUTO 00000KT 10SM CLR 27/23 A2997 0 82 1400 000/00 RMK AO2 T02670233
13976KLFT LFT20190604230510606/04/19 23:05:31  5-MIN KLFT 050505Z AUTO 00000KT 10SM CLR 27/23 A2997 0 82 1400 000/00 RMK AO2 T02670233
13976KLFT LFT20190604231010906/04/19 23:10:31  5-MIN KLFT 050510Z AUTO 00000KT 10SM FEW100 27/23 A2997 0 82 1400 000/00 RMK AO2 T02670233
13976KLFT LFT20190604231510906/04/19 23:15:31  5-MIN KLFT 050515Z AUTO 00000KT 10SM SCT100 27/23 A2997 0 82 1400 000/00 RMK AO2 T02670233
13976KLFT LFT20190604232010906/04/19 23:20:31  5-MIN KLFT 050520Z AUTO 00000KT 10SM BKN100 27/24 A2997 0 84 1400 000/00 RMK AO2 T02670239
13976KLFT LFT20190604232510906/04/19 23:25:31  5-MIN KLFT 050525Z AUTO 00000KT 10SM BKN100 27/24 A2996 0 84 1400 000/00 RMK AO2 T02670239
13976KLFT LFT20190604233011006/04/19 23:30:31  5-MIN KLFT 050530Z AUTO 00000KT 10SM BKN100 27/24 A2996 10 84 1400 000/00 RMK AO2 T02670239
13976KLFT LFT20190604233511006/04/19 23:35:31  5-MIN KLFT 050535Z AUTO 00000KT 10SM BKN100 27/24 A2996 10 84 1400 000/00 RMK AO2 T02670239
13976KLFT LFT20190604234011006/04/19 23:40:31  5-MIN KLFT 050540Z AUTO 00000KT 10SM SCT100 27/24 A2996 10 84 1400 000/00 RMK AO2 T02670239
13976KLFT LFT20190604234511006/04/19 23:45:31  5-MIN KLFT 050545Z AUTO 00000KT 10SM FEW100 27/24 A2996 10 84 1400 000/00 RMK AO2 T02670239
13976KLFT LFT20190604235014506/04/19 23:50:31  5-MIN KLFT 050550Z AUTO 00000KT 10SM FEW110 27/24 A2996 10 84 1400 000/00 RMK AO2 SLP145 T02670239 10306 20261 403500244 51015
13976KLFT LFT20190604235510706/04/19 23:55:31  5-MIN KLFT 050555Z AUTO 00000KT 10SM CLR 27/24 A2996 10 84 1400 000/00 RMK AO2 T02670239
13976KLFT LFT20190605000010906/05/19 00:00:31  5-MIN KLFT 050600Z AUTO 00000KT 10SM FEW110 26/24 A2996 0 87 1300 000/00 RMK AO2 T02610239
13976KLFT LFT20190605000510906/05/19 00:05:31  5-MIN KLFT 050605Z AUTO 00000KT 10SM FEW110 26/24 A2996 0 87 1300 000/00 RMK AO2 T02610239
13976KLFT LFT20190605001010606/05/19 00:10:31  5-MIN KLFT 050610Z AUTO 12003KT 10SM CLR 26/24 A2996 0 87 1300 120/03 RMK AO2 T02610239
13976KLFT LFT20190605001510706/05/19 00:15:31  5-MIN KLFT 050615Z AUTO 00000KT 10SM CLR 26/24 A2996 10 87 1300 000/00 RMK AO2 T02610239
13976KLFT LFT20190605002010706/05/19 00:20:31  5-MIN KLFT 050620Z AUTO 00000KT 10SM CLR 26/24 A2996 10 87 1300 000/00 RMK AO2 T02610239
13976KLFT LFT20190605002510706/05/19 00:25:31  5-MIN KLFT 050625Z AUTO 00000KT 10SM CLR 26/24 A2996 10 87 1300 000/00 RMK AO2 T02610239
13976KLFT LFT20190605003012306/05/19 00:30:31  5-MIN KLFT 050630Z AUTO 00000KT 10SM -RA CLR 26/24 A2995 10 90 1300 000/00 RMK AO2 RAB29 P0000 T02610244
13976KLFT LFT20190605003512606/05/19 00:35:31  5-MIN KLFT 050635Z AUTO 00000KT 10SM -RA FEW110 26/24 A2995 10 87 1300 000/00 RMK AO2 RAB29 P0000 T02610239
13976KLFT LFT20190605004013206/05/19 00:40:31  5-MIN KLFT 050640Z AUTO 00000KT 10SM FEW100 FEW120 26/24 A2996 10 90 1300 000/00 RMK AO2 RAB29E40 P0000 T02610244
13976KLFT LFT20190605004513206/05/19 00:45:31  5-MIN KLFT 050645Z AUTO 00000KT 10SM SCT100 SCT120 26/24 A2995 10 90 1300 000/00 RMK AO2 RAB29E40 P0000 T02610244
13976KLFT LFT20190605005013206/05/19 00:50:31  5-MIN KLFT 050650Z AUTO 00000KT 10SM BKN100 26/24 A2995 10 90 1300 000/00 RMK AO2 RAB29E40 SLP142 P0000 T02610244
13976KLFT LFT20190605005511006/05/19 00:55:31  5-MIN KLFT 050655Z AUTO 00000KT 10SM SCT100 26/24 A2995 20 90 1300 000/00 RMK AO2 T02610244
13976KLFT LFT20190605010011006/05/19 01:00:31  5-MIN KLFT 050700Z AUTO 00000KT 10SM SCT100 26/24 A2995 20 90 1300 000/00 RMK AO2 T02610244
13976KLFT LFT20190605010512606/05/19 01:05:31  5-MIN KLFT 050705Z AUTO 00000KT 10SM -RA SCT100 26/24 A2995 20 90 1300 000/00 RMK AO2 RAB01 P0000 T02610244
13976KLFT LFT20190605011012606/05/19 01:10:31  5-MIN KLFT 050710Z AUTO 00000KT 10SM -RA SCT100 26/24 A2995 20 90 1400 000/00 RMK AO2 RAB01 P0000 T02610244
13976KLFT LFT20190605011513306/05/19 01:15:31  5-MIN KLFT 050715Z AUTO 00000KT 10SM -RA SCT100 SCT120 26/24 A2995 20 90 1400 000/00 RMK AO2 RAB01 P0000 T02610244
13976KLFT LFT20190605012012606/05/19 01:20:31  5-MIN KLFT 050720Z AUTO 00000KT 10SM -RA FEW095 26/24 A2995 20 90 1400 000/00 RMK AO2 RAB01 P0000 T02610244
13976KLFT LFT20190605012513306/05/19 01:25:31  5-MIN KLFT 050725Z AUTO 00000KT 10SM -RA FEW090 FEW110 26/24 A2995 20 90 1300 000/00 RMK AO2 RAB01 P0000 T02560239
13976KLFT LFT20190605013013906/05/19 01:30:31  5-MIN KLFT 050730Z AUTO 00000KT 10SM FEW075 FEW090 SCT110 26/24 A2995 20 90 1300 000/00 RMK AO2 RAB01E27 P0000 T02610244
13976KLFT LFT20190605013513306/05/19 01:35:31  5-MIN KLFT 050735Z AUTO 00000KT 10SM -RA SCT075 BKN100 26/24 A2994 20 90 1400 000/00 RMK AO2 RAB01 P0000 T02610244
13976KLFT LFT20190605014013306/05/19 01:40:31  5-MIN KLFT 050740Z AUTO 06004KT 10SM -RA SCT075 BKN110 26/24 A2994 30 90 1400 060/04 RMK AO2 RAB01 P0000 T02610244
13976KLFT LFT20190605014513206/05/19 01:45:31  5-MIN KLFT 050745Z AUTO 06004KT 10SM FEW075 BKN110 26/24 A2993 30 93 1300 060/04 RMK AO2 RAB01E45 P0000 T02560244
13976KLFT LFT20190605015013906/05/19 01:50:31  5-MIN KLFT 050750Z AUTO 06004KT 10SM FEW075 BKN110 26/24 A2993 30 93 1300 060/04 RMK AO2 RAB01E45 SLP135 P0000 T02560244
13976KLFT LFT20190605015511706/05/19 01:55:31  5-MIN KLFT 050755Z AUTO 04004KT 10SM FEW075 OVC110 26/24 A2993 30 93 1300 040/04 RMK AO2 T02560244
13976KLFT LFT20190605020012406/05/19 02:00:31  5-MIN KLFT 050800Z AUTO 03005KT 10SM FEW075 FEW100 BKN110 26/24 A2993 30 93 1300 030/05 RMK AO2 T02560244
13976KLFT LFT20190605020511706/05/19 02:05:31  5-MIN KLFT 050805Z AUTO 04003KT 10SM FEW075 BKN110 26/24 A2993 30 93 1300 040/03 RMK AO2 T02560244
13976KLFT LFT20190605021012406/05/19 02:10:31  5-MIN KLFT 050810Z AUTO 06003KT 10SM FEW075 BKN100 OVC110 26/24 A2994 30 93 1300 060/03 RMK AO2 T02560244
13976KLFT LFT20190605021512406/05/19 02:15:31  5-MIN KLFT 050815Z AUTO 05003KT 10SM FEW075 BKN095 OVC110 26/24 A2994 30 93 1300 050/03 RMK AO2 T02560244
13976KLFT LFT20190605022012406/05/19 02:20:31  5-MIN KLFT 050820Z AUTO 04003KT 10SM SCT075 BKN100 OVC110 26/24 A2993 30 93 1300 040/03 RMK AO2 T02560244
13976KLFT LFT20190605022511706/05/19 02:25:31  5-MIN KLFT 050825Z AUTO 05003KT 10SM SCT075 OVC095 26/24 A2993 40 93 1300 050/03 RMK AO2 T02560244
13976KLFT LFT20190605023011706/05/19 02:30:31  5-MIN KLFT 050830Z AUTO 06004KT 10SM SCT075 OVC095 26/24 A2992 40 93 1300 060/04 RMK AO2 T02560244
13976KLFT LFT20190605023511706/05/19 02:35:31  5-MIN KLFT 050835Z AUTO 06004KT 10SM BKN075 OVC095 26/24 A2992 40 93 1300 060/04 RMK AO2 T02560244
13976KLFT LFT20190605024011706/05/19 02:40:31  5-MIN KLFT 050840Z AUTO 07003KT 10SM SCT075 OVC100 26/24 A2992 40 93 1300 070/03 RMK AO2 T02560244
13976KLFT LFT20190605024511706/05/19 02:45:31  5-MIN KLFT 050845Z AUTO 08003KT 10SM BKN080 OVC100 26/25 A2992 40 97 1300 080/03 RMK AO2 T02560250
13976KLFT LFT20190605025013606/05/19 02:50:31  5-MIN KLFT 050850Z AUTO 08003KT 10SM BKN080 OVC100 26/25 A2993 40 97 1300 080/03 RMK AO2 SLP133 60000 T02560250 56002
13976KLFT LFT20190605025511706/05/19 02:55:31  5-MIN KLFT 050855Z AUTO 00000KT 10SM BKN080 OVC100 26/24 A2993 40 93 1300 000/00 RMK AO2 T02560244
13976KLFT LFT20190605030011706/05/19 03:00:31  5-MIN KLFT 050900Z AUTO 05003KT 10SM BKN080 OVC110 26/24 A2993 40 90 1400 050/03 RMK AO2 T02610244
13976KLFT LFT20190605030511006/05/19 03:05:31  5-MIN KLFT 050905Z AUTO 00000KT 10SM OVC080 26/24 A2993 40 90 1400 000/00 RMK AO2 T02610244
13976KLFT LFT20190605031011006/05/19 03:10:31  5-MIN KLFT 050910Z AUTO 00000KT 10SM OVC080 26/24 A2993 40 90 1400 000/00 RMK AO2 T02610244
13976KLFT LFT20190605031511006/05/19 03:15:31  5-MIN KLFT 050915Z AUTO 05003KT 10SM OVC080 26/24 A2992 40 90 1400 050/03 RMK AO2 T02610244
13976KLFT LFT20190605032011006/05/19 03:20:31  5-MIN KLFT 050920Z AUTO 00000KT 10SM OVC085 26/24 A2992 40 90 1400 000/00 RMK AO2 T02610244
13976KLFT LFT20190605032511006/05/19 03:25:31  5-MIN KLFT 050925Z AUTO 04003KT 10SM OVC085 26/24 A2992 40 93 1300 040/03 RMK AO2 T02560244
13976KLFT LFT20190605033011006/05/19 03:30:31  5-MIN KLFT 050930Z AUTO 00000KT 10SM BKN085 26/24 A2992 40 93 1300 000/00 RMK AO2 T02560244
13976KLFT LFT20190605033511006/05/19 03:35:31  5-MIN KLFT 050935Z AUTO 00000KT 10SM BKN085 26/24 A2992 40 90 1400 000/00 RMK AO2 T02610244
13976KLFT LFT20190605034011006/05/19 03:40:31  5-MIN KLFT 050940Z AUTO 00000KT 10SM BKN085 26/24 A2992 40 93 1300 000/00 RMK AO2 T02560244
13976KLFT LFT20190605034511006/05/19 03:45:31  5-MIN KLFT 050945Z AUTO 00000KT 10SM OVC085 26/24 A2992 40 93 1300 000/00 RMK AO2 T02560244
13976KLFT LFT20190605035011706/05/19 03:50:31  5-MIN KLFT 050950Z AUTO 00000KT 10SM OVC080 26/24 A2992 40 93 1300 000/00 RMK AO2 SLP132 T02560244
13976KLFT LFT20190605035511706/05/19 03:55:31  5-MIN KLFT 050955Z AUTO 00000KT 10SM FEW023 OVC080 26/24 A2992 40 90 1400 000/00 RMK AO2 T02610244
13976KLFT LFT20190605040011706/05/19 04:00:31  5-MIN KLFT 051000Z AUTO 00000KT 10SM SCT023 OVC080 26/25 A2992 40 93 1400 000/00 RMK AO2 T02610250
13976KLFT LFT20190605040512406/05/19 04:05:31  5-MIN KLFT 051005Z AUTO 00000KT 10SM FEW023 BKN046 OVC080 26/24 A2992 40 90 1400 000/00 RMK AO2 T02610244
13976KLFT LFT20190605041011906/05/19 04:10:31  5-MIN KLFT 051010Z 00000KT 10SM FEW023 BKN044 OVC085 26/24 A2992 50 90 1400 000/00 RMK AO2 T02610244
13976KLFT LFT20190605041511906/05/19 04:15:31  5-MIN KLFT 051015Z 00000KT 10SM SCT023 BKN038 OVC080 26/24 A2992 40 90 1400 000/00 RMK AO2 T02610244
13976KLFT LFT20190605042011906/05/19 04:20:31  5-MIN KLFT 051020Z 00000KT 10SM BKN022 BKN038 OVC075 26/24 A2992 40 90 1400 000/00 RMK AO2 T02610244
13976KLFT LFT20190605042511906/05/19 04:25:31  5-MIN KLFT 051025Z 11005KT 10SM SCT022 BKN044 OVC080 26/24 A2993 40 90 1400 110/05 RMK AO2 T02610244
13976KLFT LFT20190605043011906/05/19 04:30:31  5-MIN KLFT 051030Z VRB03KT 10SM FEW022 BKN070 OVC090 26/24 A2992 40 90 1400 VRB/03 RMK AO2 T02610244
13976KLFT LFT20190605043511906/05/19 04:35:31  5-MIN KLFT 051035Z VRB03KT 10SM FEW022 SCT065 BKN090 26/24 A2992 40 93 1300 VRB/03 RMK AO2 T02560244
13976KLFT LFT20190605044011906/05/19 04:40:31  5-MIN KLFT 051040Z 12003KT 10SM SCT023 BKN065 OVC090 26/24 A2993 40 93 1300 120/03 RMK AO2 T02560244
13976KLFT LFT20190605044511906/05/19 04:45:31  5-MIN KLFT 051045Z 00000KT 10SM FEW024 BKN044 OVC095 26/24 A2993 40 93 1300 000/00 RMK AO2 T02560244
13976KLFT LFT20190605045010206/05/19 04:50:31  5-MIN KLFT 051050Z 00000KT 10SM BKN028 BKN040 26/24 A2993 40 93 1300 000/00 RMK AO2
13976KLFT LFT20190605045511906/05/19 04:55:31  5-MIN KLFT 051055Z 00000KT 10SM BKN024 BKN030 BKN095 26/24 A2993 40 93 1300 000/00 RMK AO2 T02560244
13976KLFT LFT20190605050011906/05/19 05:00:31  5-MIN KLFT 051100Z 00000KT 10SM BKN024 BKN033 BKN095 26/24 A2993 40 93 1300 000/00 RMK AO2 T02560244
13976KLFT LFT20190605050511206/05/19 05:05:31  5-MIN KLFT 051105Z 00000KT 10SM BKN022 BKN037 26/24 A2993 30 93 1300 000/00 RMK AO2 T02560244
13976KLFT LFT20190605051011206/05/19 05:10:31  5-MIN KLFT 051110Z 00000KT 10SM SCT022 SCT033 26/24 A2993 30 90 1400 000/00 RMK AO2 T02610244
13976KLFT LFT20190605051510506/05/19 05:15:31  5-MIN KLFT 051115Z 00000KT 10SM BKN022 26/24 A2993 40 90 1400 000/00 RMK AO2 T02610244
13976KLFT LFT20190605052010506/05/19 05:20:31  5-MIN KLFT 051120Z 00000KT 10SM BKN022 26/24 A2993 40 90 1400 000/00 RMK AO2 T02610244
13976KLFT LFT20190605052510506/05/19 05:25:31  5-MIN KLFT 051125Z 12003KT 10SM BKN022 26/24 A2993 40 90 1400 110/03 RMK AO2 T02610244
13976KLFT LFT20190605053010506/05/19 05:30:31  5-MIN KLFT 051130Z 12003KT 10SM BKN022 26/24 A2993 30 90 1400 120/03 RMK AO2 T02610244
13976KLFT LFT20190605053510506/05/19 05:35:31  5-MIN KLFT 051135Z 11003KT 10SM BKN022 26/25 A2993 30 93 1400 110/03 RMK AO2 T02610250
13976KLFT LFT20190605054011206/05/19 05:40:31  5-MIN KLFT 051140Z 00000KT 10SM BKN022 BKN080 26/25 A2993 30 93 1400 000/00 RMK AO2 T02610250
13976KLFT LFT20190605054511206/05/19 05:45:31  5-MIN KLFT 051145Z 00000KT 10SM BKN022 BKN080 26/25 A2993 40 93 1400 000/00 RMK AO2 T02610250
13976KLFT LFT20190605055010206/05/19 05:50:31  5-MIN KLFT 051150Z VRB03KT 10SM SCT019 BKN047 26/25 A2993 30 93 1400 VRB/03 RMK AO2
13976KLFT LFT20190605055511906/05/19 05:55:31  5-MIN KLFT 051155Z 08003KT 10SM FEW019 SCT025 BKN080 26/25 A2993 40 93 1400 080/03 RMK AO2 T02610250
13976KLFT LFT20190605060011906/05/19 06:00:31  5-MIN KLFT 051200Z 09003KT 10SM FEW019 SCT065 SCT085 26/25 A2993 30 93 1400 090/03 RMK AO2 T02610250
13976KLFT LFT20190605060511906/05/19 06:05:31  5-MIN KLFT 051205Z 00000KT 10SM FEW019 FEW070 SCT085 26/25 A2994 30 93 1400 000/00 RMK AO2 T02610250
13976KLFT LFT20190605061011206/05/19 06:10:31  5-MIN KLFT 051210Z 06004KT 10SM FEW018 FEW085 26/25 A2994 30 93 1400 060/04 RMK AO2 T02610250
13976KLFT LFT20190605061510506/05/19 06:15:31  5-MIN KLFT 051215Z 07003KT 10SM FEW018 26/25 A2994 30 93 1400 070/03 RMK AO2 T02610250
13976KLFT LFT20190605062010206/05/19 06:20:31  5-MIN KLFT 051220Z 00000KT 10SM CLR 26/26 A2994 20 97 1400 000/00 RMK AO2 T02610256
13976KLFT LFT20190605062510206/05/19 06:25:31  5-MIN KLFT 051225Z 00000KT 10SM CLR 26/26 A2995 20 97 1400 000/00 RMK AO2 T02610256
13976KLFT LFT20190605063010506/05/19 06:30:31  5-MIN KLFT 051230Z 00000KT 10SM SCT017 26/26 A2995 20 97 1400 000/00 RMK AO2 T02610256
13976KLFT LFT20190605063510506/05/19 06:35:31  5-MIN KLFT 051235Z 00000KT 10SM SCT017 27/26 A2994 20 93 1400 000/00 RMK AO2 T02670256
13976KLFT LFT20190605064010506/05/19 06:40:31  5-MIN KLFT 051240Z 00000KT 10SM SCT017 27/26 A2994 20 93 1400 000/00 RMK AO2 T02670256
13976KLFT LFT20190605064510506/05/19 06:45:31  5-MIN KLFT 051245Z 00000KT 10SM SCT017 27/26 A2994 30 93 1400 000/00 RMK AO2 T02670256
13976KLFT LFT20190605065011206/05/19 06:50:31  5-MIN KLFT 051250Z 00000KT 10SM SCT017 27/26 A2994 30 93 1400 000/00 RMK AO2 SLP138 T02670256
13976KLFT LFT20190605065510206/05/19 06:55:31  5-MIN KLFT 051255Z 06003KT 10SM CLR 27/26 A2994 30 93 1400 060/03 RMK AO2 T02670256
13976KLFT LFT20190605070010206/05/19 07:00:31  5-MIN KLFT 051300Z 00000KT 10SM CLR 27/26 A2994 30 93 1400 000/00 RMK AO2 T02670256
13976KLFT LFT20190605070510206/05/19 07:05:31  5-MIN KLFT 051305Z 06003KT 10SM CLR 27/26 A2994 30 93 1400 060/03 RMK AO2 T02670256
13976KLFT LFT20190605071010206/05/19 07:10:31  5-MIN KLFT 051310Z 05003KT 10SM CLR 27/26 A2994 30 93 1400 050/03 RMK AO2 T02670256
13976KLFT LFT20190605071510206/05/19 07:15:31  5-MIN KLFT 051315Z 05004KT 10SM CLR 27/26 A2994 30 93 1400 040/04 RMK AO2 T02670256
13976KLFT LFT20190605072010206/05/19 07:20:31  5-MIN KLFT 051320Z 05004KT 10SM CLR 27/26 A2993 30 93 1400 050/04 RMK AO2 T02670256
13976KLFT LFT20190605072510206/05/19 07:25:31  5-MIN KLFT 051325Z 07003KT 10SM CLR 27/26 A2993 30 90 1500 070/03 RMK AO2 T02720256
13976KLFT LFT20190605073010206/05/19 07:30:31  5-MIN KLFT 051330Z 06003KT 10SM CLR 27/26 A2993 30 90 1500 060/03 RMK AO2 T02720256
13976KLFT LFT20190605073510506/05/19 07:35:31  5-MIN KLFT 051335Z VRB03KT 10SM FEW100 27/26 A2993 30 93 1500 VRB/03 RMK AO2 T02720261
13976KLFT LFT20190605074010506/05/19 07:40:31  5-MIN KLFT 051340Z 11003KT 10SM SCT100 27/26 A2993 30 93 1500 110/03 RMK AO2 T02720261
13976KLFT LFT20190605074510506/05/19 07:45:31  5-MIN KLFT 051345Z VRB03KT 10SM BKN100 27/26 A2993 30 93 1500 VRB/03 RMK AO2 T02720261
13976KLFT LFT20190605075011906/05/19 07:50:31  5-MIN KLFT 051350Z VRB03KT 10SM SCT020 BKN100 27/26 A2993 30 93 1500 VRB/03 RMK AO2 SLP136 T02720261
13976KLFT LFT20190605075511206/05/19 07:55:31  5-MIN KLFT 051355Z 00000KT 10SM FEW007 BKN100 27/26 A2994 30 93 1500 000/00 RMK AO2 T02720261
13976KLFT LFT20190605080011206/05/19 08:00:31  5-MIN KLFT 051400Z 00000KT 10SM FEW007 OVC100 28/26 A2994 20 90 1500 000/00 RMK AO2 T02780261
13976KLFT LFT20190605080511206/05/19 08:05:31  5-MIN KLFT 051405Z 13003KT 10SM FEW007 OVC100 28/26 A2994 20 90 1500 130/03 RMK AO2 T02780261
13976KLFT LFT20190605081011206/05/19 08:10:31  5-MIN KLFT 051410Z VRB03KT 10SM FEW007 OVC110 28/26 A2995 20 90 1500 VRB/03 RMK AO2 T02780261
13976KLFT LFT20190605081511206/05/19 08:15:31  5-MIN KLFT 051415Z 10004KT 10SM FEW006 OVC110 28/26 A2995 20 90 1500 100/04 RMK AO2 T02780261
13976KLFT LFT20190605082011206/05/19 08:20:31  5-MIN KLFT 051420Z 00000KT 10SM FEW006 OVC110 28/26 A2994 20 90 1500 000/00 RMK AO2 T02780261
13976KLFT LFT20190605082511206/05/19 08:25:31  5-MIN KLFT 051425Z 11003KT 10SM FEW006 OVC100 28/26 A2994 20 90 1500 110/03 RMK AO2 T02780261
13976KLFT LFT20190605083011206/05/19 08:30:31  5-MIN KLFT 051430Z 00000KT 10SM FEW006 OVC100 28/26 A2994 30 90 1500 000/00 RMK AO2 T02780261
13976KLFT LFT20190605083512806/05/19 08:35:31  5-MIN KLFT 051435Z VRB04KT 10SM -RA FEW006 OVC100 28/26 A2994 30 90 1500 VRB/04 RMK AO2 RAB33 P0000 T02780261
13976KLFT LFT20190605084012806/05/19 08:40:31  5-MIN KLFT 051440Z VRB03KT 10SM -RA FEW006 OVC100 28/26 A2994 20 90 1500 VRB/03 RMK AO2 RAB33 P0000 T02780261
13976KLFT LFT20190605084512106/05/19 08:45:31  5-MIN KLFT 051445Z 10004KT 10SM -RA OVC100 28/26 A2994 20 90 1500 090/04 RMK AO2 RAB33 P0000 T02780261
13976KLFT LFT20190605085014706/05/19 08:50:31  5-MIN KLFT 051450Z 11004KT 10SM -RA FEW007 OVC100 28/26 A2994 20 90 1500 100/04 RMK AO2 RAB33 SLP138 P0000 60000 T02780261 53001
13976KLFT LFT20190605085511506/05/19 08:55:31  5-MIN KLFT 051455Z VRB03KT 10SM -RA OVC100 28/26 A2994 30 90 1500 VRB/03 RMK AO2 P0000 T02780261
13976KLFT LFT20190605090012206/05/19 09:00:31  5-MIN KLFT 051500Z VRB03KT 10SM -RA FEW070 OVC100 28/27 A2994 30 94 1500 VRB/03 RMK AO2 P0000 T02780267
13976KLFT LFT20190605090512906/05/19 09:05:31  5-MIN KLFT 051505Z 00000KT 10SM -RA FEW065 SCT080 OVC100 28/27 A2994 30 94 1500 000/00 RMK AO2 P0000 T02780267
13976KLFT LFT20190605091012806/05/19 09:10:31  5-MIN KLFT 051510Z VRB03KT 10SM RA FEW032 SCT075 OVC100 28/27 A2994 20 94 1500 VRB/03 RMK AO2 P0001 T02780267
13976KLFT LFT20190605091512906/05/19 09:15:31  5-MIN KLFT 051515Z 00000KT 10SM -RA FEW032 SCT070 OVC100 28/27 A2994 20 94 1500 000/00 RMK AO2 P0001 T02780267
13976KLFT LFT20190605092012906/05/19 09:20:31  5-MIN KLFT 051520Z VRB03KT 10SM -RA FEW055 SCT075 OVC100 28/27 A2994 30 94 1500 VRB/03 RMK AO2 P0001 T02780267
13976KLFT LFT20190605092512906/05/19 09:25:31  5-MIN KLFT 051525Z VRB03KT 10SM -RA FEW055 SCT080 OVC100 28/27 A2994 20 94 1500 VRB/03 RMK AO2 P0001 T02780267
13976KLFT LFT20190605093012906/05/19 09:30:31  5-MIN KLFT 051530Z 00000KT 10SM -RA FEW060 SCT080 OVC100 28/27 A2995 20 94 1500 000/00 RMK AO2 P0001 T02780267
13976KLFT LFT20190605093512906/05/19 09:35:31  5-MIN KLFT 051535Z 00000KT 10SM -RA FEW030 BKN080 OVC100 28/27 A2995 20 94 1500 000/00 RMK AO2 P0002 T02780267
13976KLFT LFT20190605094012906/05/19 09:40:31  5-MIN KLFT 051540Z 00000KT 10SM +RA FEW014 BKN050 OVC100 28/27 A2995 20 94 1500 000/00 RMK AO2 P0004 T02780267
13976KLFT LFT20190605094512806/05/19 09:45:31  5-MIN KLFT 051545Z 23004KT 10SM RA SCT014 BKN032 OVC100 28/27 A2995 10 94 1500 230/04 RMK AO2 P0005 T02780267
13976KLFT LFT20190605095012806/05/19 09:50:31  5-MIN KLFT 051550Z 2SM +RA BR BKN007 BKN032 OVC100 27/24 A2995 10 87 1400 M /M RMK AO2 SLP143 P0017 T02670244
13976KLFT LFT20190605095514706/05/19 09:55:31  5-MIN KLFT 051555Z 22011KT 2 1/2SM +RA BR BKN007 BKN027 OVC055 25/23 A2996 10 90 1200 220/11 RMK AO2 VIS 1 1/2V5 P0004 T02500233
13976KLFT LFT20190605100015306/05/19 10:00:31  5-MIN KLFT 051600Z 24013G20KT 2 1/2SM +RA BR BKN007 BKN027 OVC055 25/23 A2996 10 90 1200 240/13G20 RMK AO2 VIS 1 1/2V4 P0016 T02500233
13976KLFT LFT20190605100514006/05/19 10:05:31  5-MIN KLFT 051605Z 20016G20KT 2 1/2SM +RA BR BKN007 BKN027 OVC055 26/24 A2997 0 90 1300 200/16G20 RMK AO2 P0023 T02560239
13976KLFT LFT20190605101014006/05/19 10:10:31  5-MIN KLFT 051610Z 19013G23KT 2 1/2SM +RA BR BKN007 BKN027 OVC055 26/23 A2997 0 87 1300 190/13G23 RMK AO2 P0037 T02560233
13976KLFT LFT20190605101514006/05/19 10:15:31  5-MIN KLFT 051615Z 20013G23KT 2 1/2SM +RA BR BKN007 BKN027 OVC055 26/23 A2997 0 87 1300 200/13G23 RMK AO2 P0041 T02560233
13976KLFT LFT20190605102013606/05/19 10:20:31  5-MIN KLFT 051620Z 22009G20KT 2 1/2SM RA BKN007 BKN027 OVC055 25/22 A2997 0 84 1200 220/09G20 RMK AO2 P0042 T02500222
13976KLFT LFT20190605102513006/05/19 10:25:31  5-MIN KLFT 051625Z 23006KT 6SM -RA BR SCT025 BKN050 OVC095 26/23 A2997 0 87 1300 230/06 RMK AO2 P0042 T02560233
13976KLFT LFT20190605103013106/05/19 10:30:31  5-MIN KLFT 051630Z 23005KT 6SM -RA BR SCT025 SCT050 OVC095 26/24 A2996 10 87 1300 230/05 RMK AO2 P0042 T02610239
13976KLFT LFT20190605103513106/05/19 10:35:31  5-MIN KLFT 051635Z 21006KT 6SM -RA BR FEW029 BKN100 OVC120 26/24 A2996 10 90 1300 210/06 RMK AO2 P0042 T02610244
13976KLFT LFT20190605104013106/05/19 10:40:31  5-MIN KLFT 051640Z 21004KT 6SM -RA BR FEW050 BKN100 OVC120 27/25 A2996 10 90 1400 210/04 RMK AO2 P0042 T02670250
13976KLFT LFT20190605104512606/05/19 10:45:31  5-MIN KLFT 051645Z 20003KT 6SM BR BKN100 OVC120 27/25 A2995 20 90 1400 200/03 RMK AO2 RAE45 P0042 T02670250
13976KLFT LFT20190605105012606/05/19 10:50:31  5-MIN KLFT 051650Z 00000KT 6SM BR OVC110 27/25 A2995 20 90 1400 000/00 RMK AO2 RAE45 SLP140 P0042 T02670250
13976KLFT LFT20190605105510506/05/19 10:55:31  5-MIN KLFT 051655Z 00000KT 10SM BKN110 27/25 A2994 20 87 1500 000/00 RMK AO2 T02720250
13976KLFT LFT20190605110010506/05/19 11:00:31  5-MIN KLFT 051700Z 00000KT 10SM BKN110 27/24 A2994 20 84 1500 000/00 RMK AO2 T02720244
13976KLFT LFT20190605110510506/05/19 11:05:31  5-MIN KLFT 051705Z 00000KT 10SM BKN110 27/25 A2994 30 87 1500 000/00 RMK AO2 T02720250
13976KLFT LFT20190605111011206/05/19 11:10:31  5-MIN KLFT 051710Z 00000KT 10SM FEW049 BKN110 27/25 A2994 20 87 1500 000/00 RMK AO2 T02720250
13976KLFT LFT20190605111511206/05/19 11:15:31  5-MIN KLFT 051715Z 00000KT 10SM FEW049 BKN110 27/25 A2994 20 87 1500 000/00 RMK AO2 T02720250
13976KLFT LFT20190605112011906/05/19 11:20:31  5-MIN KLFT 051720Z 00000KT 10SM FEW049 BKN100 BKN110 27/25 A2994 20 87 1500 000/00 RMK AO2 T02720250
13976KLFT LFT20190605112511906/05/19 11:25:31  5-MIN KLFT 051725Z 00000KT 10SM FEW049 BKN100 BKN110 27/25 A2994 30 87 1500 000/00 RMK AO2 T02720250
13976KLFT LFT20190605113012806/05/19 11:30:31  5-MIN KLFT 051730Z 00000KT 10SM -RA FEW055 BKN100 27/25 A2994 30 87 1500 000/00 RMK AO2 RAB28 P0000 T02720250
13976KLFT LFT20190605113514606/05/19 11:35:31  5-MIN KLFT 051735Z 00000KT 10SM -RA FEW050 BKN100 BKN110 28/25 A2994 30 84 1500 000/00 RMK AO2 LTG DSNT E RAB28 P0000 T02780250
13976KLFT LFT20190605114014506/05/19 11:40:31  5-MIN KLFT 051740Z 00000KT 10SM FEW055 FEW080 OVC100 28/25 A2994 30 84 1500 000/00 RMK AO2 LTG DSNT E RAB28E40 P0000 T02780250
13976KLFT LFT20190605114513906/05/19 11:45:31  5-MIN KLFT 051745Z 19003KT 10SM -RA FEW060 OVC100 28/25 A2994 30 84 1500 190/03 RMK AO2 LTG DSNT E RAB28 P0000 T02780250
13976KLFT LFT20190605115015906/05/19 11:50:31  5-MIN KLFT 051750Z 23003KT 10SM -RA FEW049 OVC100 28/25 A2994 30 84 1500 230/03 RMK AO2 RAB28 SLP137 P0000 60062 T02780250 10278 20250 51004
13976KLFT LFT20190605115512906/05/19 11:55:31  5-MIN KLFT 051755Z 23003KT 10SM -RA FEW047 BKN090 OVC110 28/24 A2993 30 79 1600 230/03 RMK AO2 P0000 T02830244
13976KLFT LFT20190605120012906/05/19 12:00:31  5-MIN KLFT 051800Z 20003KT 10SM -RA FEW026 SCT045 OVC100 28/24 A2993 30 79 1600 200/03 RMK AO2 P0000 T02780239
13976KLFT LFT20190605120512906/05/19 12:05:31  5-MIN KLFT 051805Z VRB03KT 10SM -RA FEW020 BKN075 OVC100 28/24 A2993 30 82 1600 VRB/03 RMK AO2 P0000 T02780244
13976KLFT LFT20190605121012906/05/19 12:10:31  5-MIN KLFT 051810Z 19003KT 10SM -RA SCT020 BKN046 OVC100 28/24 A2994 30 82 1500 180/03 RMK AO2 P0000 T02780244
13976KLFT LFT20190605121512906/05/19 12:15:31  5-MIN KLFT 051815Z 16003KT 10SM -RA SCT019 BKN047 OVC100 28/24 A2993 30 82 1600 160/03 RMK AO2 P0000 T02780244
13976KLFT LFT20190605122012906/05/19 12:20:31  5-MIN KLFT 051820Z 00000KT 10SM -RA FEW019 BKN043 OVC100 28/25 A2993 30 84 1600 000/00 RMK AO2 P0001 T02780250
13976KLFT LFT20190605122512906/05/19 12:25:31  5-MIN KLFT 051825Z 00000KT 10SM -RA FEW019 BKN050 OVC100 27/25 A2993 30 87 1500 000/00 RMK AO2 P0001 T02720250
13976KLFT LFT20190605123012906/05/19 12:30:31  5-MIN KLFT 051830Z 00000KT 10SM -RA SCT019 BKN042 OVC095 27/25 A2993 30 87 1500 000/00 RMK AO2 P0001 T02720250
13976KLFT LFT20190605123512806/05/19 12:35:31  5-MIN KLFT 051835Z 00000KT 7SM -RA BKN004 BKN044 OVC095 27/25 A2993 30 87 1500 000/00 RMK AO2 P0001 T02720250
13976KLFT LFT20190605124012806/05/19 12:40:31  5-MIN KLFT 051840Z 00000KT 7SM -RA BKN004 BKN044 OVC095 27/25 A2992 40 87 1500 000/00 RMK AO2 P0002 T02720250
13976KLFT LFT20190605124512806/05/19 12:45:31  5-MIN KLFT 051845Z 00000KT 7SM -RA BKN004 BKN044 OVC095 27/25 A2993 40 87 1500 000/00 RMK AO2 P0002 T02720250
13976KLFT LFT20190605125013506/05/19 12:50:31  5-MIN KLFT 051850Z 00000KT 7SM -RA BKN004 BKN044 OVC095 27/25 A2992 40 87 1500 000/00 RMK AO2 SLP132 P0002 T02720250
13976KLFT LFT20190605125512206/05/19 12:55:31  5-MIN KLFT 051855Z 05003KT 10SM -RA FEW028 OVC095 27/25 A2992 40 87 1500 050/03 RMK AO2 P0000 T02720250
13976KLFT LFT20190605130012806/05/19 13:00:31  5-MIN KLFT 051900Z 02006KT 10SM RA FEW060 SCT080 OVC100 27/26 A2992 40 90 1500 020/06 RMK AO2 P0000 T02720256
13976KLFT LFT20190605130513306/05/19 13:05:31  5-MIN KLFT 051905Z 02006KT 6SM BR FEW028 SCT060 OVC090 27/26 A2992 40 90 1500 020/06 RMK AO2 RAE02 P0001 T02720256
13976KLFT LFT20190605131013306/05/19 13:10:31  5-MIN KLFT 051910Z 03005KT 6SM BR FEW028 SCT060 OVC090 27/26 A2992 40 90 1500 030/05 RMK AO2 RAE02 P0001 T02720256
13976KLFT LFT20190605131513806/05/19 13:15:31  5-MIN KLFT 051915Z AUTO 04006KT 6SM BR FEW028 SCT060 OVC090 27/26 A2992 50 90 1500 040/06 RMK AO2 RAE02 P0001 T02720256
13976KLFT LFT20190605132013306/05/19 13:20:31  5-MIN KLFT 051920Z 05006KT 6SM BR FEW028 SCT060 OVC090 27/26 A2992 50 90 1500 050/06 RMK AO2 RAE02 P0001 T02720256
13976KLFT LFT20190605132513306/05/19 13:25:31  5-MIN KLFT 051925Z 05004KT 6SM BR FEW028 SCT060 OVC090 27/25 A2992 50 90 1400 050/04 RMK AO2 RAE02 P0001 T02670250
13976KLFT LFT20190605133013306/05/19 13:30:31  5-MIN KLFT 051930Z 05007KT 6SM BR FEW028 SCT060 OVC090 27/26 A2991 50 90 1500 050/07 RMK AO2 RAE02 P0001 T02720256
13976KLFT LFT20190605133513306/05/19 13:35:31  5-MIN KLFT 051935Z 06005KT 6SM BR FEW028 SCT060 OVC090 27/25 A2991 50 90 1500 060/05 RMK AO2 RAE02 P0002 T02670250
13976KLFT LFT20190605134013306/05/19 13:40:31  5-MIN KLFT 051940Z 06005KT 6SM BR FEW028 SCT060 OVC090 27/26 A2991 50 93 1500 060/05 RMK AO2 RAE02 P0002 T02670256
13976KLFT LFT20190605134513306/05/19 13:45:31  5-MIN KLFT 051945Z 06004KT 6SM BR FEW028 SCT060 OVC090 27/26 A2991 60 93 1500 060/04 RMK AO2 RAE02 P0003 T02670256
13976KLFT LFT20190605135014506/05/19 13:50:31  5-MIN KLFT 051950Z 06006KT 10SM -RA FEW038 BKN090 OVC110 27/26 A2991 60 93 1500 060/06 RMK AO2 RAE02B47 SLP127 P0003 T02670256
13976KLFT LFT20190605135512906/05/19 13:55:31  5-MIN KLFT 051955Z 07004KT 10SM -RA SCT034 BKN070 OVC090 26/25 A2991 50 93 1400 070/04 RMK AO2 P0000 T02610250
13976KLFT LFT20190605140012906/05/19 14:00:31  5-MIN KLFT 052000Z 07005KT 10SM -RA FEW032 SCT070 OVC095 27/25 A2991 50 90 1500 070/05 RMK AO2 P0000 T02670250
13976KLFT LFT20190605140512906/05/19 14:05:31  5-MIN KLFT 052005Z 06005KT 10SM -RA FEW032 BKN095 OVC110 26/25 A2991 50 93 1400 060/05 RMK AO2 P0000 T02610250
13976KLFT LFT20190605141012906/05/19 14:10:31  5-MIN KLFT 052010Z 09003KT 10SM -RA FEW032 SCT095 OVC120 26/25 A2991 50 93 1400 090/03 RMK AO2 P0000 T02610250
13976KLFT LFT20190605141512906/05/19 14:15:31  5-MIN KLFT 052015Z 08003KT 10SM -RA FEW028 SCT090 OVC120 26/25 A2991 50 93 1400 080/03 RMK AO2 P0000 T02610250
13976KLFT LFT20190605142012906/05/19 14:20:31  5-MIN KLFT 052020Z 06003KT 10SM -RA FEW030 FEW090 OVC110 26/25 A2991 50 93 1400 060/03 RMK AO2 P0000 T02610250
13976KLFT LFT20190605142511506/05/19 14:25:31  5-MIN KLFT 052025Z VRB04KT 10SM -RA BKN110 26/25 A2991 50 93 1400 VRB/04 RMK AO2 P0000 T02610250
13976KLFT LFT20190605143011506/05/19 14:30:31  5-MIN KLFT 052030Z 07004KT 10SM -RA OVC110 26/25 A2991 60 93 1400 070/04 RMK AO2 P0000 T02610250
13976KLFT LFT20190605143511506/05/19 14:35:31  5-MIN KLFT 052035Z 08004KT 10SM -RA OVC110 26/25 A2991 60 93 1400 070/04 RMK AO2 P0000 T02610250
13976KLFT LFT20190605144011506/05/19 14:40:31  5-MIN KLFT 052040Z 06005KT 10SM -RA BKN110 26/25 A2991 60 93 1400 060/05 RMK AO2 P0000 T02610250
13976KLFT LFT20190605144513106/05/19 14:45:31  5-MIN KLFT 052045Z 06004KT 10SM FEW036 FEW055 OVC100 26/25 A2991 60 93 1400 060/04 RMK AO2 RAE44 P0000 T02610250
13976KLFT LFT20190605145015006/05/19 14:50:31  5-MIN KLFT 052050Z VRB04KT 10SM FEW036 SCT050 BKN110 26/25 A2991 60 93 1400 VRB/04 RMK AO2 RAE44 SLP126 P0000 60006 T02610250 58002
13976KLFT LFT20190605145512906/05/19 14:55:31  5-MIN KLFT 052055Z 06004KT 10SM -RA FEW032 SCT055 BKN110 26/25 A2990 60 93 1400 060/04 RMK AO2 P0000 T02610250
13976KLFT LFT20190605150012906/05/19 15:00:31  5-MIN KLFT 052100Z 06006KT 10SM -RA FEW030 SCT050 BKN110 26/24 A2990 60 90 1400 060/06 RMK AO2 P0000 T02610244
13976KLFT LFT20190605150512906/05/19 15:05:31  5-MIN KLFT 052105Z 06006KT 10SM -RA FEW030 SCT048 OVC100 26/24 A2990 70 90 1400 060/06 RMK AO2 P0000 T02610244
13976KLFT LFT20190605151012906/05/19 15:10:31  5-MIN KLFT 052110Z 07004KT 10SM -RA FEW026 FEW046 OVC110 26/25 A2989 70 93 1400 070/04 RMK AO2 P0000 T02610250
13976KLFT LFT20190605151512206/05/19 15:15:31  5-MIN KLFT 052115Z 06005KT 10SM -RA FEW027 BKN110 26/25 A2989 70 93 1400 060/05 RMK AO2 P0000 T02610250
13976KLFT LFT20190605152012206/05/19 15:20:31  5-MIN KLFT 052120Z 06005KT 10SM -RA FEW024 BKN110 26/25 A2989 70 93 1400 060/05 RMK AO2 P0000 T02610250
13976KLFT LFT20190605152511506/05/19 15:25:31  5-MIN KLFT 052125Z 06005KT 10SM -RA BKN110 26/25 A2989 70 93 1400 060/05 RMK AO2 P0000 T02610250
13976KLFT LFT20190605153011706/05/19 15:30:31  5-MIN KLFT 052130Z 08004KT 10SM BKN110 26/25 A2989 70 93 1400 080/04 RMK AO2 RAE30 P0000 T02610250
13976KLFT LFT20190605153511506/05/19 15:35:31  5-MIN KLFT 052135Z 08003KT 10SM -RA BKN110 26/25 A2989 70 93 1400 070/03 RMK AO2 P0000 T02610250
13976KLFT LFT20190605154011506/05/19 15:40:31  5-MIN KLFT 052140Z 07003KT 10SM -RA BKN110 26/25 A2989 70 93 1400 070/03 RMK AO2 P0000 T02610250
13976KLFT LFT20190605154511506/05/19 15:45:31  5-MIN KLFT 052145Z 07004KT 10SM -RA BKN110 26/25 A2989 70 93 1400 060/04 RMK AO2 P0000 T02610250
13976KLFT LFT20190605155012206/05/19 15:50:31  5-MIN KLFT 052150Z 07003KT 10SM -RA BKN110 26/25 A2989 70 93 1400 070/03 RMK AO2 SLP120 P0000 T02610250
13976KLFT LFT20190605155511506/05/19 15:55:31  5-MIN KLFT 052155Z 00000KT 10SM -RA BKN100 26/25 A2989 70 93 1400 000/00 RMK AO2 P0000 T02610250
13976KLFT LFT20190605160011506/05/19 16:00:31  5-MIN KLFT 052200Z 00000KT 10SM -RA OVC100 26/25 A2989 70 93 1400 000/00 RMK AO2 P0000 T02610250
13976KLFT LFT20190605160512806/05/19 16:05:31  5-MIN KLFT 052205Z 00000KT 10SM RA FEW021 FEW055 OVC100 26/25 A2989 70 93 1400 000/00 RMK AO2 P0001 T02610250
13976KLFT LFT20190605161012806/05/19 16:10:31  5-MIN KLFT 052210Z 08003KT 10SM RA SCT017 SCT046 OVC100 26/25 A2989 70 93 1400 080/03 RMK AO2 P0002 T02610250
13976KLFT LFT20190605161512806/05/19 16:15:31  5-MIN KLFT 052215Z 07003KT 10SM RA SCT018 SCT039 OVC100 26/25 A2989 80 93 1400 070/03 RMK AO2 P0003 T02610250
13976KLFT LFT20190605162012806/05/19 16:20:31  5-MIN KLFT 052220Z 00000KT 10SM RA SCT018 BKN049 OVC100 26/25 A2988 80 93 1400 000/00 RMK AO2 P0003 T02610250
13976KLFT LFT20190605162512906/05/19 16:25:31  5-MIN KLFT 052225Z 08003KT 10SM -RA SCT018 BKN055 OVC110 26/25 A2988 80 93 1400 080/03 RMK AO2 P0004 T02610250
13976KLFT LFT20190605163012806/05/19 16:30:31  5-MIN KLFT 052230Z 05004KT 10SM RA SCT018 BKN050 OVC110 26/25 A2988 80 93 1400 050/04 RMK AO2 P0004 T02610250
13976KLFT LFT20190605163512806/05/19 16:35:31  5-MIN KLFT 052235Z 07003KT 10SM RA SCT018 SCT034 OVC100 26/25 A2988 80 97 1400 070/03 RMK AO2 P0005 T02560250
13976KLFT LFT20190605164012806/05/19 16:40:31  5-MIN KLFT 052240Z 07004KT 10SM RA FEW020 BKN095 OVC110 26/25 A2987 90 97 1400 070/04 RMK AO2 P0006 T02560250
13976KLFT LFT20190605164512906/05/19 16:45:31  5-MIN KLFT 052245Z 06004KT 10SM +RA FEW020 BKN070 OVC110 26/25 A2987 90 97 1400 060/04 RMK AO2 P0008 T02560250
13976KLFT LFT20190605165013706/05/19 16:50:31  5-MIN KLFT 052250Z 05006KT 4SM RA BR FEW036 BKN075 OVC095 26/25 A2987 90 97 1400 050/06 RMK AO2 SLP115 P0009 T02560250
13976KLFT LFT20190605165513106/05/19 16:55:31  5-MIN KLFT 052255Z 06005KT 3SM +RA BR BKN036 BKN070 OVC085 26/25 A2988 90 97 1400 060/05 RMK AO2 P0001 T02560250
13976KLFT LFT20190605170013106/05/19 17:00:31  5-MIN KLFT 052300Z VRB03KT 3SM +RA BR BKN036 BKN070 OVC085 26/25 A2988 80 97 1400 VRB/03 RMK AO2 P0003 T02560250
13976KLFT LFT20190605170513106/05/19 17:05:31  5-MIN KLFT 052305Z 07007KT 3SM +RA BR BKN036 BKN070 OVC085 26/25 A2987 90 97 1400 070/07 RMK AO2 P0007 T02560250
13976KLFT LFT20190605171013106/05/19 17:10:31  5-MIN KLFT 052310Z 12005KT 3SM +RA BR BKN036 BKN070 OVC085 26/24 A2987 90 93 1400 120/05 RMK AO2 P0012 T02560244
13976KLFT LFT20190605171511706/05/19 17:15:31  5-MIN KLFT 052315Z 08004KT 2SM +RA BR OVC003 25/24 A2987 90 93 1300 080/04 RMK AO2 P0014 T02500239
13976KLFT LFT20190605172011806/05/19 17:20:31  5-MIN KLFT 052320Z 19007KT 2SM +RA BR OVC003 24/23 A2986 100 93 1200 190/07 RMK AO2 P0020 T02390228
13976KLFT LFT20190605172512506/05/19 17:25:31  5-MIN KLFT 052325Z VRB04KT 2SM +RA BR OVC003 24/22 A2985 110 90 1200 VRB/04 RMK AO2 PRESFR P0024 T02390222
13976KLFT LFT20190605173011806/05/19 17:30:31  5-MIN KLFT 052330Z 00000KT 2SM +RA BR OVC003 24/22 A2986 100 90 1200 000/00 RMK AO2 P0026 T02390222
13976KLFT LFT20190605173511806/05/19 17:35:31  5-MIN KLFT 052335Z 25004KT 2SM +RA BR OVC003 24/22 A2986 100 90 1200 250/04 RMK AO2 P0032 T02390222
13976KLFT LFT20190605174011806/05/19 17:40:31  5-MIN KLFT 052340Z VRB04KT 2SM +RA BR OVC003 24/22 A2987 100 90 1200 VRB/04 RMK AO2 P0040 T02390222
13976KLFT LFT20190605174514006/05/19 17:45:31  5-MIN KLFT 052345Z 20009KT 170V240 2SM +RA BR OVC003 24/23 A2988 80 93 1200 200/09 170V240 RMK AO2 PRESRR P0055 T02390228
13976KLFT LFT20190605175014806/05/19 17:50:31  5-MIN KLFT 052350Z 20020KT 2SM +RA BR OVC003 23/22 A2988 80 90 1100 200/20 RMK AO2 SLP118 P0078 60094 T02330217 10283 20233 56009
13976KLFT LFT20190605175512506/05/19 17:55:31  5-MIN KLFT 052355Z 21009G22KT 1/2SM +RA FG OVC002 24/22 A2988 80 90 1200 210/09G22 RMK AO2 P0007 T02390222
13976KLFT LFT20190605180011906/05/19 18:00:31  5-MIN KLFT 060000Z 25011KT 1/2SM +RA FG OVC002 24/22 A2988 80 90 1200 250/11 RMK AO2 P0019 T02390222
13976KLFT LFT20190605180512506/05/19 18:05:31  5-MIN KLFT 060005Z VRB06G16KT 1/2SM +RA FG OVC002 23/22 A2987 90 93 1100 VRB/06G16 RMK AO2 P0025 T02330222
13976KLFT LFT20190605181011706/05/19 18:10:31  5-MIN KLFT 060010Z 00000KT 5SM +RA BR OVC002 23/22 A2987 90 93 1100 000/00 RMK AO2 P0029 T02330222
13976KLFT LFT20190605181511706/05/19 18:15:31  5-MIN KLFT 060015Z 00000KT 4SM +RA BR OVC002 23/22 A2987 90 93 1100 000/00 RMK AO2 P0033 T02330222
13976KLFT LFT20190605182011706/05/19 18:20:31  5-MIN KLFT 060020Z VRB04KT 4SM +RA BR OVC002 23/22 A2987 90 93 1100 VRB/04 RMK AO2 P0037 T02330222
13976KLFT LFT20190605182511606/05/19 18:25:31  5-MIN KLFT 060025Z 01004KT 4SM RA BR OVC002 23/22 A2987 90 90 1100 010/04 RMK AO2 P0038 T02330217
13976KLFT LFT20190605183011606/05/19 18:30:31  5-MIN KLFT 060030Z 06004KT 4SM RA BR OVC002 23/22 A2987 90 90 1100 060/04 RMK AO2 P0039 T02330217
13976KLFT LFT20190605183511606/05/19 18:35:31  5-MIN KLFT 060035Z 00000KT 4SM RA BR OVC002 23/22 A2987 90 93 1100 000/00 RMK AO2 P0040 T02330222
13976KLFT LFT20190605184011606/05/19 18:40:31  5-MIN KLFT 060040Z 07003KT 4SM RA BR OVC002 23/22 A2987 90 93 1100 070/03 RMK AO2 P0041 T02330222
13976KLFT LFT20190605184511706/05/19 18:45:31  5-MIN KLFT 060045Z 34003KT 4SM RA BR OVC002 23/22 A2986 100 93 1100 340/03 RMK AO2 P0041 T02330222
13976KLFT LFT20190605185012506/05/19 18:50:31  5-MIN KLFT 060050Z 02004KT 1 1/2SM RA BR FEW028 BKN047 OVC080 23/23 A2986 100 97 1100 020/04 RMK AO2 P0043
13976KLFT LFT20190605185513006/05/19 18:55:31  5-MIN KLFT 060055Z 04006KT 10SM +RA FEW031 BKN045 OVC080 23/22 A2985 110 93 1100 040/06 RMK AO2 P0001 T02330222
13976KLFT LFT20190605190013506/05/19 19:00:31  5-MIN KLFT 060100Z 03004KT 1 1/2SM RA BR BKN012 BKN047 OVC085 23/22 A2985 110 93 1100 030/04 RMK AO2 P0003 T02330222
13976KLFT LFT20190605190513606/05/19 19:05:31  5-MIN KLFT 060105Z 00000KT 1 1/2SM +RA BR BKN012 BKN047 OVC085 23/23 A2985 110 97 1100 000/00 RMK AO2 P0004 T02330228
13976KLFT LFT20190605191013506/05/19 19:10:31  5-MIN KLFT 060110Z 05003KT 1 1/2SM RA BR BKN012 BKN047 OVC085 23/23 A2984 110 97 1100 050/03 RMK AO2 P0005 T02330228
13976KLFT LFT20190605191513506/05/19 19:15:31  5-MIN KLFT 060115Z 00000KT 1 1/2SM RA BR BKN012 BKN047 OVC085 23/23 A2984 120 97 1200 000/00 RMK AO2 P0006 T02330228
13976KLFT LFT20190605192013506/05/19 19:20:31  5-MIN KLFT 060120Z 00000KT 1 1/2SM RA BR BKN012 BKN047 OVC085 23/23 A2985 110 97 1100 000/00 RMK AO2 P0007 T02330228
13976KLFT LFT20190605192513506/05/19 19:25:31  5-MIN KLFT 060125Z 00000KT 1 1/2SM RA BR BKN012 BKN047 OVC085 24/23 A2985 110 97 1200 000/00 RMK AO2 P0007 T02390233
13976KLFT LFT20190605193013506/05/19 19:30:31  5-MIN KLFT 060130Z 00000KT 1 1/2SM RA BR BKN012 BKN047 OVC085 24/23 A2985 110 97 1200 000/00 RMK AO2 P0008 T02390233
13976KLFT LFT20190605193513506/05/19 19:35:31  5-MIN KLFT 060135Z 00000KT 1 1/2SM RA BR BKN012 BKN047 OVC085 24/23 A2986 100 93 1200 000/00 RMK AO2 P0009 T02390228
13976KLFT LFT20190605194013506/05/19 19:40:31  5-MIN KLFT 060140Z 17003KT 1 1/2SM RA BR BKN012 BKN047 OVC085 24/23 A2986 100 93 1200 170/03 RMK AO2 P0010 T02390228
13976KLFT LFT20190605194513606/05/19 19:45:31  5-MIN KLFT 060145Z 00000KT 1 1/2SM +RA BR BKN012 BKN047 OVC085 24/23 A2986 100 97 1200 000/00 RMK AO2 P0013 T02390233
13976KLFT LFT20190605195014206/05/19 19:50:31  5-MIN KLFT 060150Z 00000KT 1 1/2SM RA BR BKN012 BKN047 OVC085 24/23 A2986 100 97 1200 000/00 RMK AO2 SLP109 P0015 T02390233
13976KLFT LFT20190605195513206/05/19 19:55:31  5-MIN KLFT 060155Z 00000KT 2SM +RA BR BKN008 BKN042 OVC070 24/23 A2985 110 97 1200 000/00 RMK AO2 P0000 T02390233
13976KLFT LFT20190605200013106/05/19 20:00:31  5-MIN KLFT 060200Z 00000KT 2SM RA BR BKN008 BKN042 OVC070 24/23 A2985 100 93 1200 000/00 RMK AO2 P0003 T02390228
13976KLFT LFT20190605200513106/05/19 20:05:31  5-MIN KLFT 060205Z 00000KT 2SM RA BR BKN008 BKN042 OVC070 24/23 A2985 110 97 1200 000/00 RMK AO2 P0004 T02390233
13976KLFT LFT20190605201013106/05/19 20:10:31  5-MIN KLFT 060210Z 00000KT 2SM RA BR BKN008 BKN042 OVC070 24/23 A2986 100 97 1200 000/00 RMK AO2 P0005 T02390233
13976KLFT LFT20190605201513106/05/19 20:15:31  5-MIN KLFT 060215Z 18004KT 2SM RA BR BKN008 BKN042 OVC070 24/23 A2986 100 97 1200 180/04 RMK AO2 P0006 T02390233
13976KLFT LFT20190605202013006/05/19 20:20:31  5-MIN KLFT 060220Z 19007KT 2SM RA BR BKN008 BKN042 OVC070 24/23 A2987 90 93 1200 190/07 RMK AO2 P0007 T02440233
13976KLFT LFT20190605202513006/05/19 20:25:31  5-MIN KLFT 060225Z 18008KT 2SM RA BR BKN008 BKN042 OVC070 24/23 A2987 90 97 1200 180/08 RMK AO2 P0009 T02390233
13976KLFT LFT20190605203013806/05/19 20:30:31  5-MIN KLFT 060230Z 19007KT 2SM +RA BR BKN008 BKN042 OVC070 24/23 A2988 80 93 1200 190/07 RMK AO2 PRESRR P0011 T02440233
13976KLFT LFT20190605203513006/05/19 20:35:31  5-MIN KLFT 060235Z 19008KT 2SM RA BR BKN010 BKN020 OVC042 24/23 A2988 80 97 1200 190/08 RMK AO2 P0013 T02390233
13976KLFT LFT20190605204013006/05/19 20:40:31  5-MIN KLFT 060240Z 19007KT 2SM RA BR BKN010 BKN020 OVC042 24/23 A2988 80 97 1200 190/07 RMK AO2 P0014 T02390233
13976KLFT LFT20190605204513006/05/19 20:45:31  5-MIN KLFT 060245Z 18009KT 2SM RA BR BKN006 BKN020 OVC042 24/23 A2989 80 97 1200 180/09 RMK AO2 P0017 T02390233
13976KLFT LFT20190605205014906/05/19 20:50:31  5-MIN KLFT 060250Z 18008KT 2SM RA BR BKN006 BKN020 OVC042 24/23 A2988 80 93 1200 180/08 RMK AO2 SLP118 P0019 60080 T02390228 55001
13976KLFT LFT20190605205513006/05/19 20:55:31  5-MIN KLFT 060255Z 16007KT 2SM RA BR BKN006 BKN011 OVC049 24/23 A2987 90 93 1200 160/07 RMK AO2 T02390228 PNO $
13976KLFT LFT20190605210016006/05/19 21:00:31  5-MIN KLFT 060300Z AUTO 15008KT 120V200 2SM +RA BR BKN006 BKN011 OVC049 24/23 A2986 100 93 1200 150/08 120V200 RMK AO2 PRESFR T02390228 PNO $
13976KLFT LFT20190605210514406/05/19 21:05:31  5-MIN KLFT 060305Z AUTO VRB06KT 2SM +RA BR BKN006 BKN011 OVC049 23/22 A2985 110 93 1100 VRB/06 RMK AO2 PRESFR T02330222 PNO $
13976KLFT LFT20190605211013606/05/19 21:10:31  5-MIN KLFT 060310Z AUTO 12007KT 2SM RA BR BKN006 BKN011 OVC049 23/22 A2985 110 93 1100 120/07 RMK AO2 T02330222 PNO $
13976KLFT LFT20190605211513606/05/19 21:15:31  5-MIN KLFT 060315Z AUTO 12007KT 2SM RA BR BKN006 BKN011 OVC049 23/22 A2985 110 93 1100 120/07 RMK AO2 T02330222 PNO $
13976KLFT LFT20190605212013606/05/19 21:20:31  5-MIN KLFT 060320Z AUTO 11005KT 2SM RA BR BKN006 BKN011 OVC049 23/22 A2984 120 93 1200 100/05 RMK AO2 T02330222 PNO $
13976KLFT LFT20190605212514306/05/19 21:25:31  5-MIN KLFT 060325Z AUTO 11006KT 2SM RA BR BKN006 BKN011 OVC049 23/22 A2983 130 93 1200 110/06 RMK AO2 PRESFR T02330222 PNO $
13976KLFT LFT20190605213014706/05/19 21:30:31  5-MIN KLFT 060330Z AUTO 12008G14KT 10SM RA FEW075 BKN100 BKN120 23/22 A2982 140 93 1200 120/08G14 RMK AO2 PRESFR T02330222 PNO $
13976KLFT LFT20190605213512006/05/19 21:35:31  5-MIN KLFT 060335Z AUTO 12008KT 10SM RA BKN110 23/22 A2981 140 97 1100 120/08 RMK AO2 T02280222 PNO $
13976KLFT LFT20190605214014306/05/19 21:40:31  5-MIN KLFT 060340Z AUTO 14007KT 110V180 10SM RA FEW090 BKN110 23/22 A2982 130 97 1100 130/07 110V180 RMK AO2 T02280222 PNO $
13976KLFT LFT20190605214512106/05/19 21:45:31  5-MIN KLFT 060345Z AUTO VRB06KT 10SM RA BKN110 23/23 A2983 130 100 1100 VRB/06 RMK AO2 T02280228 PNO $
13976KLFT LFT20190605215012706/05/19 21:50:31  5-MIN KLFT 060350Z AUTO VRB03KT 10SM RA BKN110 23/22 A2983 130 97 1100 VRB/03 RMK AO2 SLP101 T02280222 PNO $
13976KLFT LFT20190605215512206/05/19 21:55:31  5-MIN KLFT 060355Z AUTO VRB05KT 10SM RA BKN100 23/22 A2984 120 97 1100 VRB/05 RMK AO2 P0000 T02280222 $
13976KLFT LFT20190605220012206/05/19 22:00:31  5-MIN KLFT 060400Z AUTO VRB05KT 10SM RA BKN110 23/22 A2984 120 93 1100 VRB/05 RMK AO2 P0001 T02280217 $
13976KLFT LFT20190605220514906/05/19 22:05:31  5-MIN KLFT 060405Z AUTO VRB04KT 10SM +RA FEW048 SCT075 BKN100 23/22 A2984 110 93 1100 VRB/04 RMK AO2 LTG DSNT SW P0004 T02280217 $
13976KLFT LFT20190605221014806/05/19 22:10:31  5-MIN KLFT 060410Z AUTO VRB04KT 8SM +RA SCT050 BKN075 OVC120 23/22 A2985 110 93 1100 VRB/04 RMK AO2 LTG DSNT SW P0007 T02280217 $
13976KLFT LFT20190605221515106/05/19 22:15:31  5-MIN KLFT 060415Z AUTO VRB04KT 6SM +RA BR BKN046 BKN090 OVC110 23/22 A2985 110 93 1100 VRB/04 RMK AO2 LTG DSNT SW P0013 T02280217 $
13976KLFT LFT20190605222015006/05/19 22:20:31  5-MIN KLFT 060420Z AUTO 17004KT 6SM +RA BR BKN044 OVC110 23/22 A2986 100 93 1100 170/04 RMK AO2 LTG DSNT SW AND W P0018 T02280217 $
13976KLFT LFT20190605222514306/05/19 22:25:31  5-MIN KLFT 060425Z AUTO 16004KT 6SM +RA BR BKN046 23/22 A2986 100 93 1100 160/04 RMK AO2 LTG DSNT SW AND W P0022 T02280217 $
13976KLFT LFT20190605223014306/05/19 22:30:31  5-MIN KLFT 060430Z AUTO VRB03KT 6SM +RA BR OVC044 23/22 A2986 100 93 1100 VRB/03 RMK AO2 LTG DSNT SW AND W P0028 T02280217 $
13976KLFT LFT20190605223513706/05/19 22:35:31  5-MIN KLFT 060435Z AUTO 00000KT 5SM +RA BR OVC039 23/22 A2985 110 97 1100 000/00 RMK AO2 LTG DSNT SW P0034 T02280222 $
13976KLFT LFT20190605224013706/05/19 22:40:31  5-MIN KLFT 060440Z AUTO 00000KT 5SM +RA BR OVC037 23/22 A2985 110 97 1100 000/00 RMK AO2 LTG DSNT SW P0040 T02280222 $
13976KLFT LFT20190605224514306/05/19 22:45:31  5-MIN KLFT 060445Z AUTO 14003KT 5SM +RA BR OVC037 23/22 A2985 110 97 1100 140/03 RMK AO2 LTG DSNT SW AND W P0045 T02280222 $
13976KLFT LFT20190605225015006/05/19 22:50:31  5-MIN KLFT 060450Z AUTO VRB03KT 4SM +RA BR OVC032 23/22 A2984 110 97 1100 VRB/03 RMK AO2 LTG DSNT SW AND W SLP105 P0059 T02280222 $
13976KLFT LFT20190605225515006/05/19 22:55:31  5-MIN KLFT 060455Z AUTO 10005KT 4SM +RA BR OVC027 23/22 A2983 130 93 1100 090/05 RMK AO2 LTG DSNT SW AND W PRESFR P0003 T02280217 $
13976KLFT LFT20190605230015006/05/19 23:00:31  5-MIN KLFT 060500Z AUTO 10005KT 5SM +RA BR OVC029 23/22 A2983 130 97 1100 100/05 RMK AO2 LTG DSNT SW AND W PRESFR P0007 T02280222 $
13976KLFT LFT20190605230514706/05/19 23:05:31  5-MIN KLFT 060505Z AUTO VRB05KT 8SM -RA BKN029 BKN050 OVC065 23/22 A2982 140 97 1100 VRB/05 RMK AO2 LTG DSNT W P0007 T02280222 $
13976KLFT LFT20190605231015606/05/19 23:10:31  5-MIN KLFT 060510Z AUTO 12005KT 10SM -RA SCT027 BKN050 OVC065 23/23 A2981 140 100 1100 120/05 RMK AO2 LTG DSNT W PRESFR P0007 T02280228 $
13976KLFT LFT20190605231514106/05/19 23:15:31  5-MIN KLFT 060515Z AUTO 11006KT 10SM -RA SCT025 OVC050 23/23 A2981 150 97 1200 100/06 RMK AO2 LTG DSNT W P0007 T02330228 $
13976KLFT LFT20190605232015106/05/19 23:20:31  5-MIN KLFT 060520Z AUTO VRB06KT 10SM -RA FEW029 OVC055 23/23 A2982 140 100 1200 VRB/06 RMK AO2 LTG DSNT W RAE16B20 P0007 T02330233 $
13976KLFT LFT20190605232515806/05/19 23:25:31  5-MIN KLFT 060525Z AUTO 00000KT 10SM -RA FEW036 BKN050 OVC065 23/23 A2982 140 100 1200 000/00 RMK AO2 LTG DSNT W RAE16B20 P0007 T02330233 $
13976KLFT LFT20190605233015006/05/19 23:30:31  5-MIN KLFT 060530Z AUTO 11005KT 10SM BKN050 OVC065 23/23 A2980 150 100 1200 110/05 RMK AO2 LTG DSNT W RAE16B20E27 P0007 T02330233 $
13976KLFT LFT20190605233514906/05/19 23:35:31  5-MIN KLFT 060535Z AUTO 11005KT 10SM BKN055 OVC070 23/23 A2980 150 97 1200 110/05 RMK AO2 LTG DSNT W RAE16B20E27 P0007 T02330228 $
13976KLFT LFT20190605234015006/05/19 23:40:31  5-MIN KLFT 060540Z AUTO VRB04KT 10SM -RA SCT049 OVC070 23/23 A2980 150 97 1200 VRB/04 RMK AO2 LTG DSNT W RAE16B20 P0007 T02330228 $
13976KLFT LFT20190605234515006/05/19 23:45:31  5-MIN KLFT 060545Z AUTO VRB03KT 10SM -RA FEW049 OVC065 23/23 A2981 150 97 1200 VRB/03 RMK AO2 LTG DSNT W RAE16B20 P0007 T02330228 $
13976KLFT LFT20190605235018306/05/19 23:50:31  5-MIN KLFT 060550Z AUTO 13005KT 10SM OVC065 23/23 A2981 150 97 1200 120/05 RMK AO2 LTG DSNT W RAE16B20E49 SLP092 P0007 6//// T02330228 10244 20228 402830228 50008 $
13976KLFT LFT20190605235514006/05/19 23:55:31  5-MIN KLFT 060555Z AUTO 13005KT 10SM -RA OVC070 23/23 A2980 150 97 1200 130/05 RMK AO2 LTG DSNT W RAB54 P0000 T02330228 $
13976KLFT LFT20190606000014206/06/19 00:00:31  5-MIN KLFT 060600Z AUTO VRB05KT 10SM -RA OVC070 24/23 A2979 160 93 1300 VRB/05 RMK AO2 LTG DSNT W RAB0554 P0000 T02390228 $
13976KLFT LFT20190606000514206/06/19 00:05:31  5-MIN KLFT 060605Z AUTO 13005KT 10SM -RA BKN070 24/23 A2979 170 93 1300 130/05 RMK AO2 LTG DSNT W RAB0554 P0000 T02390228 $
13976KLFT LFT20190606001014106/06/19 00:10:31  5-MIN KLFT 060610Z AUTO VRB05KT 10SM BKN070 24/23 A2979 170 97 1300 VRB/05 RMK AO2 LTG DSNT W RAB0554E10 P0000 T02390233 $
13976KLFT LFT20190606001514606/06/19 00:15:31  5-MIN KLFT 060615Z AUTO VRB04KT 10SM VCTS SCT070 24/23 A2978 180 93 1400 VRB/04 RMK AO2 LTG DSNT W RAB0554E10 P0000 T02440233 $
13976KLFT LFT20190606002014606/06/19 00:20:31  5-MIN KLFT 060620Z AUTO VRB06KT 10SM VCTS SCT070 24/24 A2980 160 97 1300 VRB/06 RMK AO2 LTG DSNT W RAB0554E10 P0000 T02440239 $
13976KLFT LFT20190609041011306/09/19 04:10:31  5-MIN KLFT 091010Z AUTO 02003KT 10SM FEW055 24/23 A2983 130 90 1300 010/03 RMK AO2 T02440228 $
13976KLFT LFT20190609041511306/09/19 04:15:31  5-MIN KLFT 091015Z AUTO 02004KT 10SM FEW055 24/23 A2983 120 90 1300 010/04 RMK AO2 T02440228 $
13976KLFT LFT20190609042010806/09/19 04:20:31  5-MIN KLFT 091020Z 02004KT 10SM FEW055 24/23 A2983 120 90 1300 020/04 RMK AO2 T02440228 $
13976KLFT LFT20190609042510506/09/19 04:25:31  5-MIN KLFT 091025Z 02004KT 10SM CLR 24/23 A2983 120 90 1300 020/04 RMK AO2 T02440228 $
13976KLFT LFT20190609043010506/09/19 04:30:31  5-MIN KLFT 091030Z 01003KT 10SM CLR 24/23 A2984 120 90 1300 010/03 RMK AO2 T02440228 $
13976KLFT LFT20190609043510506/09/19 04:35:31  5-MIN KLFT 091035Z 01003KT 10SM CLR 24/23 A2984 120 90 1300 010/03 RMK AO2 T02440228 $
13976KLFT LFT20190609044010506/09/19 04:40:31  5-MIN KLFT 091040Z 01003KT 10SM CLR 24/23 A2984 120 90 1300 010/03 RMK AO2 T02440228 $
13976KLFT LFT20190609044510506/09/19 04:45:31  5-MIN KLFT 091045Z 02004KT 10SM CLR 24/23 A2984 120 90 1300 010/04 RMK AO2 T02440228 $
13976KLFT LFT20190609045011206/09/19 04:50:31  5-MIN KLFT 091050Z 02004KT 10SM CLR 24/23 A2984 110 90 1300 010/04 RMK AO2 SLP105 T02440228 $
13976KLFT LFT20190609045510506/09/19 04:55:31  5-MIN KLFT 091055Z 02004KT 10SM CLR 24/23 A2985 110 90 1300 020/04 RMK AO2 T02440228 $
13976KLFT LFT20190609050010506/09/19 05:00:31  5-MIN KLFT 091100Z 02004KT 10SM CLR 24/23 A2985 110 90 1300 020/04 RMK AO2 T02440228 $
13976KLFT LFT20190609050510506/09/19 05:05:31  5-MIN KLFT 091105Z 02004KT 10SM CLR 24/23 A2985 110 90 1300 020/04 RMK AO2 T02440228 $
13976KLFT LFT20190609051010506/09/19 05:10:31  5-MIN KLFT 091110Z 02003KT 10SM CLR 24/23 A2985 110 90 1300 020/03 RMK AO2 T02440228 $
13976KLFT LFT20190609051510506/09/19 05:15:31  5-MIN KLFT 091115Z 02004KT 10SM CLR 24/23 A2985 110 93 1200 020/04 RMK AO2 T02390228 $
13976KLFT LFT20190609052010506/09/19 05:20:31  5-MIN KLFT 091120Z 03003KT 10SM CLR 24/23 A2985 110 93 1200 030/03 RMK AO2 T02390228 $
13976KLFT LFT20190609052510506/09/19 05:25:31  5-MIN KLFT 091125Z 00000KT 10SM CLR 24/23 A2986 100 90 1300 000/00 RMK AO2 T02440228 $
13976KLFT LFT20190609053010506/09/19 05:30:31  5-MIN KLFT 091130Z 00000KT 10SM CLR 24/23 A2986 100 90 1300 000/00 RMK AO2 T02440228 $
13976KLFT LFT20190609053510506/09/19 05:35:31  5-MIN KLFT 091135Z 00000KT 10SM CLR 24/23 A2986 100 90 1300 000/00 RMK AO2 T02440228 $
13976KLFT LFT20190609054010506/09/19 05:40:31  5-MIN KLFT 091140Z 00000KT 10SM CLR 24/23 A2986 100 90 1300 000/00 RMK AO2 T02440228 $
13976KLFT LFT20190609054510506/09/19 05:45:31  5-MIN KLFT 091145Z 00000KT 10SM CLR 25/23 A2986 100 90 1300 000/00 RMK AO2 T02500233 $
13976KLFT LFT20190609055013006/09/19 05:50:31  5-MIN KLFT 091150Z 00000KT 10SM CLR 25/23 A2986 100 90 1300 000/00 RMK AO2 SLP112 T02500233 10278 20239 53001 $
13976KLFT LFT20190609055510406/09/19 05:55:31  5-MIN KLFT 091155Z 00000KT 10SM CLR 25/23 A2987 90 87 1300 000/00 RMK AO2 T02500228 $
13976KLFT LFT20190609060010406/09/19 06:00:31  5-MIN KLFT 091200Z 00000KT 10SM CLR 25/23 A2987 90 90 1300 000/00 RMK AO2 T02500233 $
13976KLFT LFT20190609060510406/09/19 06:05:31  5-MIN KLFT 091205Z 00000KT 10SM CLR 26/23 A2987 90 87 1400 000/00 RMK AO2 T02560233 $
13976KLFT LFT20190609061010406/09/19 06:10:31  5-MIN KLFT 091210Z 00000KT 10SM CLR 26/24 A2987 90 87 1400 000/00 RMK AO2 T02610239 $
13976KLFT LFT20190609061510406/09/19 06:15:31  5-MIN KLFT 091215Z 00000KT 10SM CLR 26/23 A2987 90 84 1400 000/00 RMK AO2 T02610233 $
13976KLFT LFT20190609062010406/09/19 06:20:31  5-MIN KLFT 091220Z 00000KT 10SM CLR 26/23 A2987 90 84 1400 000/00 RMK AO2 T02610233 $
13976KLFT LFT20190609062510406/09/19 06:25:31  5-MIN KLFT 091225Z 00000KT 10SM CLR 27/23 A2987 90 82 1500 000/00 RMK AO2 T02670233 $
13976KLFT LFT20190609063010406/09/19 06:30:31  5-MIN KLFT 091230Z 00000KT 10SM CLR 27/23 A2988 80 82 1500 000/00 RMK AO2 T02670233 $
13976KLFT LFT20190609063510406/09/19 06:35:31  5-MIN KLFT 091235Z 00000KT 10SM CLR 27/23 A2988 80 82 1500 000/00 RMK AO2 T02670233 $
13976KLFT LFT20190609064010406/09/19 06:40:31  5-MIN KLFT 091240Z 00000KT 10SM CLR 27/23 A2988 80 79 1500 000/00 RMK AO2 T02720233 $
13976KLFT LFT20190609064510406/09/19 06:45:31  5-MIN KLFT 091245Z 05003KT 10SM CLR 27/23 A2988 80 79 1500 050/03 RMK AO2 T02720233 $
13976KLFT LFT20190609065011106/09/19 06:50:31  5-MIN KLFT 091250Z 00000KT 10SM CLR 27/23 A2988 80 76 1500 000/00 RMK AO2 SLP119 T02720228 $
13976KLFT LFT20190609065510406/09/19 06:55:31  5-MIN KLFT 091255Z 00000KT 10SM CLR 27/23 A2989 80 76 1500 000/00 RMK AO2 T02720228 $
13976KLFT LFT20190609070010406/09/19 07:00:31  5-MIN KLFT 091300Z VRB03KT 10SM CLR 28/23 A2989 70 74 1600 VRB/03 RMK AO2 T02780228 $
13976KLFT LFT20190609070510406/09/19 07:05:31  5-MIN KLFT 091305Z 02003KT 10SM CLR 28/23 A2989 70 74 1600 020/03 RMK AO2 T02780228 $
13976KLFT LFT20190609071010406/09/19 07:10:31  5-MIN KLFT 091310Z 03003KT 10SM CLR 28/23 A2989 70 74 1600 030/03 RMK AO2 T02780228 $
13976KLFT LFT20190609071510406/09/19 07:15:31  5-MIN KLFT 091315Z 00000KT 10SM CLR 28/23 A2989 70 74 1600 000/00 RMK AO2 T02780228 $
13976KLFT LFT20190609072010406/09/19 07:20:31  5-MIN KLFT 091320Z 03003KT 10SM CLR 28/23 A2989 70 71 1700 030/03 RMK AO2 T02830228 $
13976KLFT LFT20190609072510406/09/19 07:25:31  5-MIN KLFT 091325Z 04003KT 10SM CLR 28/23 A2989 70 74 1700 040/03 RMK AO2 T02830233 $
13976KLFT LFT20190609073010406/09/19 07:30:31  5-MIN KLFT 091330Z 00000KT 10SM CLR 28/23 A2989 70 74 1700 000/00 RMK AO2 T02830233 $
13976KLFT LFT20190609073510406/09/19 07:35:31  5-MIN KLFT 091335Z 00000KT 10SM CLR 29/23 A2989 70 71 1700 000/00 RMK AO2 T02890233 $
13976KLFT LFT20190609074010406/09/19 07:40:31  5-MIN KLFT 091340Z 00000KT 10SM CLR 29/23 A2989 70 71 1700 000/00 RMK AO2 T02890233 $
13976KLFT LFT20190609074510406/09/19 07:45:31  5-MIN KLFT 091345Z 01003KT 10SM CLR 29/23 A2989 70 71 1700 010/03 RMK AO2 T02890233 $
13976KLFT LFT20190609075011106/09/19 07:50:31  5-MIN KLFT 091350Z 00000KT 10SM CLR 29/23 A2990 70 71 1700 000/00 RMK AO2 SLP123 T02890233 $
13976KLFT LFT20190609075510406/09/19 07:55:31  5-MIN KLFT 091355Z 04004KT 10SM CLR 29/23 A2990 70 69 1800 030/04 RMK AO2 T02940233 $
13976KLFT LFT20190609080010406/09/19 08:00:31  5-MIN KLFT 091400Z 01005KT 10SM CLR 29/23 A2990 70 67 1800 010/05 RMK AO2 T02940228 $
13976KLFT LFT20190609080510406/09/19 08:05:31  5-MIN KLFT 091405Z 05003KT 10SM CLR 29/23 A2990 70 67 1800 050/03 RMK AO2 T02940228 $
13976KLFT LFT20190609081010406/09/19 08:10:31  5-MIN KLFT 091410Z 02005KT 10SM CLR 29/23 A2990 70 67 1800 020/05 RMK AO2 T02940228 $
13976KLFT LFT20190609081510406/09/19 08:15:31  5-MIN KLFT 091415Z 04005KT 10SM CLR 29/23 A2990 60 67 1800 030/05 RMK AO2 T02940228 $
13976KLFT LFT20190609082010406/09/19 08:20:31  5-MIN KLFT 091420Z VRB04KT 10SM CLR 29/23 A2990 60 67 1800 VRB/04 RMK AO2 T02940228 $
13976KLFT LFT20190609082510406/09/19 08:25:31  5-MIN KLFT 091425Z 02005KT 10SM CLR 30/22 A2990 60 62 1800 020/05 RMK AO2 T03000222 $
13976KLFT LFT20190609083010406/09/19 08:30:31  5-MIN KLFT 091430Z 04004KT 10SM CLR 30/22 A2990 60 62 1800 040/04 RMK AO2 T03000222 $
13976KLFT LFT20190609083510406/09/19 08:35:31  5-MIN KLFT 091435Z 04003KT 10SM CLR 30/22 A2990 60 62 1800 040/03 RMK AO2 T03000222 $
13976KLFT LFT20190609084010406/09/19 08:40:31  5-MIN KLFT 091440Z 02003KT 10SM CLR 30/22 A2990 60 60 1800 020/03 RMK AO2 T03000217 $
13976KLFT LFT20190609084510406/09/19 08:45:31  5-MIN KLFT 091445Z VRB03KT 10SM CLR 30/22 A2990 60 60 1800 VRB/03 RMK AO2 T03000217 $
13976KLFT LFT20190609085011706/09/19 08:50:31  5-MIN KLFT 091450Z VRB03KT 10SM CLR 31/22 A2990 60 60 1900 VRB/03 RMK AO2 SLP124 T03060222 53018 $
13976KLFT LFT20190609085510406/09/19 08:55:31  5-MIN KLFT 091455Z 02003KT 10SM CLR 31/22 A2990 60 58 1900 020/03 RMK AO2 T03060217 $
13976KLFT LFT20190609090010406/09/19 09:00:31  5-MIN KLFT 091500Z 06003KT 10SM CLR 31/22 A2990 60 58 1900 060/03 RMK AO2 T03060217 $
13976KLFT LFT20190609090510406/09/19 09:05:31  5-MIN KLFT 091505Z 03003KT 10SM CLR 31/22 A2990 60 58 2000 020/03 RMK AO2 T03110222 $
13976KLFT LFT20190609091010406/09/19 09:10:31  5-MIN KLFT 091510Z 07004KT 10SM CLR 31/22 A2990 60 56 2000 070/04 RMK AO2 T03110217 $
13976KLFT LFT20190609091510406/09/19 09:15:31  5-MIN KLFT 091515Z 04005KT 10SM CLR 31/22 A2990 60 60 1900 040/05 RMK AO2 T03060222 $
13976KLFT LFT20190609092010406/09/19 09:20:31  5-MIN KLFT 091520Z VRB04KT 10SM CLR 31/22 A2990 60 56 2000 VRB/04 RMK AO2 T03110217 $
13976KLFT LFT20190609092510406/09/19 09:25:31  5-MIN KLFT 091525Z 00000KT 10SM CLR 31/22 A2990 60 56 2000 000/00 RMK AO2 T03110217 $
13976KLFT LFT20190609093010406/09/19 09:30:31  5-MIN KLFT 091530Z 06003KT 10SM CLR 32/22 A2990 60 56 2000 060/03 RMK AO2 T03170222 $
13976KLFT LFT20190609093510406/09/19 09:35:31  5-MIN KLFT 091535Z 07004KT 10SM CLR 32/22 A2990 60 55 2000 070/04 RMK AO2 T03170217 $
13976KLFT LFT20190609094010406/09/19 09:40:31  5-MIN KLFT 091540Z VRB03KT 10SM CLR 31/22 A2990 60 56 2000 VRB/03 RMK AO2 T03110217 $
13976KLFT LFT20190609094510406/09/19 09:45:31  5-MIN KLFT 091545Z 00000KT 10SM CLR 32/22 A2990 60 56 2000 000/00 RMK AO2 T03170222 $
13976KLFT LFT20190609095011106/09/19 09:50:31  5-MIN KLFT 091550Z 03003KT 10SM CLR 32/22 A2990 60 56 2000 030/03 RMK AO2 SLP125 T03170222 $
13976KLFT LFT20190609095510406/09/19 09:55:31  5-MIN KLFT 091555Z 00000KT 10SM CLR 32/23 A2990 60 57 2100 000/00 RMK AO2 T03220228 $
13976KLFT LFT20190609100010406/09/19 10:00:31  5-MIN KLFT 091600Z 01006KT 10SM CLR 32/22 A2990 60 55 2100 010/06 RMK AO2 T03220222 $
13976KLFT LFT20190609100510406/09/19 10:05:31  5-MIN KLFT 091605Z 02004KT 10SM CLR 32/22 A2990 60 55 2100 020/04 RMK AO2 T03220222 $
13976KLFT LFT20190609101010406/09/19 10:10:31  5-MIN KLFT 091610Z 00000KT 10SM CLR 32/22 A2990 60 53 2100 000/00 RMK AO2 T03220217 $
13976KLFT LFT20190609101510406/09/19 10:15:31  5-MIN KLFT 091615Z 35005KT 10SM CLR 32/22 A2990 60 53 2100 350/05 RMK AO2 T03220217 $
13976KLFT LFT20190609102010406/09/19 10:20:31  5-MIN KLFT 091620Z 36005KT 10SM CLR 32/22 A2990 60 53 2100 360/05 RMK AO2 T03220217 $
13976KLFT LFT20190609102510406/09/19 10:25:31  5-MIN KLFT 091625Z 00000KT 10SM CLR 32/22 A2990 60 53 2100 000/00 RMK AO2 T03220217 $
13976KLFT LFT20190609103010406/09/19 10:30:31  5-MIN KLFT 091630Z 08003KT 10SM CLR 32/22 A2990 60 55 2100 080/03 RMK AO2 T03220222 $
13976KLFT LFT20190609103510406/09/19 10:35:31  5-MIN KLFT 091635Z VRB03KT 10SM CLR 32/22 A2990 60 55 2100 VRB/03 RMK AO2 T03220222 $
13976KLFT LFT20190609104010406/09/19 10:40:31  5-MIN KLFT 091640Z 02004KT 10SM CLR 32/21 A2990 60 53 2000 020/04 RMK AO2 T03170211 $
13976KLFT LFT20190609104510406/09/19 10:45:31  5-MIN KLFT 091645Z 00000KT 10SM CLR 32/21 A2990 60 53 2000 000/00 RMK AO2 T03170211 $
13976KLFT LFT20190609105011106/09/19 10:50:31  5-MIN KLFT 091650Z VRB06KT 10SM CLR 32/21 A2990 60 51 2100 VRB/06 RMK AO2 SLP125 T03220211 $
13976KLFT LFT20190609105510406/09/19 10:55:31  5-MIN KLFT 091655Z 04007KT 10SM CLR 32/21 A2990 60 49 2100 040/07 RMK AO2 T03220206 $
13976KLFT LFT20190609110010406/09/19 11:00:31  5-MIN KLFT 091700Z VRB03KT 10SM CLR 32/20 A2990 60 48 2100 VRB/03 RMK AO2 T03220200 $
13976KLFT LFT20190609110510406/09/19 11:05:31  5-MIN KLFT 091705Z 00000KT 10SM CLR 33/21 A2990 70 48 2100 000/00 RMK AO2 T03280206 $
13976KLFT LFT20190609111010406/09/19 11:10:31  5-MIN KLFT 091710Z 07004KT 10SM CLR 33/21 A2990 70 49 2100 070/04 RMK AO2 T03280211 $
13976KLFT LFT20190609111510406/09/19 11:15:31  5-MIN KLFT 091715Z VRB03KT 10SM CLR 33/21 A2990 60 48 2100 VRB/03 RMK AO2 T03280206 $
13976KLFT LFT20190609112010406/09/19 11:20:31  5-MIN KLFT 091720Z 05006KT 10SM CLR 33/21 A2990 60 49 2100 050/06 RMK AO2 T03280211 $
13976KLFT LFT20190609112510406/09/19 11:25:31  5-MIN KLFT 091725Z 03007KT 10SM CLR 33/21 A2990 70 46 2200 030/07 RMK AO2 T03330206 $
13976KLFT LFT20190609113010406/09/19 11:30:31  5-MIN KLFT 091730Z 06006KT 10SM CLR 33/19 A2990 70 44 2100 060/06 RMK AO2 T03280194 $
13976KLFT LFT20190609113510706/09/19 11:35:31  5-MIN KLFT 091735Z VRB04KT 10SM FEW048 33/20 A2990 70 46 2100 VRB/04 RMK AO2 T03280200 $
13976KLFT LFT20190609114010706/09/19 11:40:31  5-MIN KLFT 091740Z VRB04KT 10SM FEW048 33/20 A2990 70 46 2100 VRB/04 RMK AO2 T03280200 $
13976KLFT LFT20190609114510706/09/19 11:45:31  5-MIN KLFT 091745Z 05005KT 10SM FEW048 33/21 A2990 60 46 2200 050/05 RMK AO2 T03330206 $
13976KLFT LFT20190609115013206/09/19 11:50:31  5-MIN KLFT 091750Z 02007KT 10SM FEW048 33/21 A2990 60 49 2100 020/07 RMK AO2 SLP125 T03280211 10333 20250 51012 $
13976KLFT LFT20190609115510706/09/19 11:55:31  5-MIN KLFT 091755Z 36007KT 10SM FEW050 33/21 A2991 60 48 2200 360/07 RMK AO2 T03330211 $
13976KLFT LFT20190609120010706/09/19 12:00:31  5-MIN KLFT 091800Z 02007KT 10SM FEW050 34/22 A2990 60 48 2300 020/07 RMK AO2 T03390217 $
13976KLFT LFT20190609120510706/09/19 12:05:31  5-MIN KLFT 091805Z 02007KT 10SM SCT050 33/21 A2990 60 48 2200 020/07 RMK AO2 T03330211 $
13976KLFT LFT20190609121010706/09/19 12:10:31  5-MIN KLFT 091810Z 02007KT 10SM SCT050 33/21 A2991 60 48 2100 020/07 RMK AO2 T03280206 $
13976KLFT LFT20190609121510706/09/19 12:15:31  5-MIN KLFT 091815Z 02007KT 10SM SCT050 33/21 A2991 60 48 2100 020/07 RMK AO2 T03280206 $
13976KLFT LFT20190609122010706/09/19 12:20:31  5-MIN KLFT 091820Z 01009KT 10SM SCT050 33/21 A2991 60 48 2100 010/09 RMK AO2 T03280206 $
13976KLFT LFT20190609122510706/09/19 12:25:31  5-MIN KLFT 091825Z 01004KT 10SM SCT050 33/21 A2991 60 48 2200 010/04 RMK AO2 T03330211 $
13976KLFT LFT20190609123010706/09/19 12:30:31  5-MIN KLFT 091830Z 29009KT 10SM SCT050 34/21 A2991 60 46 2300 290/09 RMK AO2 T03390211 $
13976KLFT LFT20190609123510706/09/19 12:35:31  5-MIN KLFT 091835Z 33007KT 10SM FEW050 34/21 A2991 60 46 2300 330/07 RMK AO2 T03390211 $
13976KLFT LFT20190609124010706/09/19 12:40:31  5-MIN KLFT 091840Z 01007KT 10SM FEW050 34/21 A2991 60 46 2300 010/07 RMK AO2 T03390211 $
13976KLFT LFT20190609124510706/09/19 12:45:31  5-MIN KLFT 091845Z 36009KT 10SM FEW050 33/21 A2991 50 46 2200 360/09 RMK AO2 T03330206 $
13976KLFT LFT20190609125011406/09/19 12:50:31  5-MIN KLFT 091850Z 31007KT 10SM SCT050 34/21 A2991 50 46 2300 310/07 RMK AO2 SLP127 T03390211 $
13976KLFT LFT20190609125510706/09/19 12:55:31  5-MIN KLFT 091855Z 32007KT 10SM SCT050 34/21 A2991 60 46 2300 310/07 RMK AO2 T03390211 $
13976KLFT LFT20190609130009706/09/19 13:00:31  5-MIN KLFT 091900Z 10SM SCT050 34/21 A2991 60 46 2300 M /M RMK AO2 T03390211 $
13976KLFT LFT20190609130510706/09/19 13:05:31  5-MIN KLFT 091905Z 31007KT 10SM SCT050 34/21 A2990 60 46 2300 310/07 RMK AO2 T03390211 $
13976KLFT LFT20190609131012306/09/19 13:10:31  5-MIN KLFT 091910Z 33007KT 310V020 10SM SCT050 34/21 A2990 60 45 2300 330/07 310V020 RMK AO2 T03390206 $
13976KLFT LFT20190609131510706/09/19 13:15:31  5-MIN KLFT 091915Z 01009KT 10SM SCT050 33/21 A2990 60 48 2200 010/09 RMK AO2 T03330211 $
13976KLFT LFT20190609132010706/09/19 13:20:31  5-MIN KLFT 091920Z 36010KT 10SM SCT050 33/21 A2990 60 48 2200 360/10 RMK AO2 T03330211 $
13976KLFT LFT20190609132510706/09/19 13:25:31  5-MIN KLFT 091925Z 04005KT 10SM SCT050 33/21 A2990 60 49 2100 040/05 RMK AO2 T03280211 $
13976KLFT LFT20190609133010706/09/19 13:30:31  5-MIN KLFT 091930Z 33008KT 10SM SCT050 33/22 A2990 70 50 2200 330/08 RMK AO2 T03330217 $
13976KLFT LFT20190609133510706/09/19 13:35:31  5-MIN KLFT 091935Z 34010KT 10SM SCT050 34/21 A2990 70 45 2300 340/10 RMK AO2 T03390206 $
13976KLFT LFT20190609134010706/09/19 13:40:31  5-MIN KLFT 091940Z 33006KT 10SM SCT050 34/20 A2989 70 43 2300 330/06 RMK AO2 T03390200 $
13976KLFT LFT20190609134510706/09/19 13:45:31  5-MIN KLFT 091945Z 35007KT 10SM BKN055 33/20 A2990 70 45 2200 350/07 RMK AO2 T03330200 $
13976KLFT LFT20190609135012006/09/19 13:50:31  5-MIN KLFT 091950Z 34011G15KT 10SM SCT055 34/20 A2990 60 43 2300 340/11G15 RMK AO2 SLP124 T03390200 $
13976KLFT LFT20190609135510706/09/19 13:55:31  5-MIN KLFT 091955Z 31010KT 10SM FEW055 34/20 A2990 70 43 2300 310/10 RMK AO2 T03390200 $
13976KLFT LFT20190609140010706/09/19 14:00:31  5-MIN KLFT 092000Z 33005KT 10SM SCT055 34/21 A2989 70 45 2300 330/05 RMK AO2 T03390206 $
13976KLFT LFT20190609140510706/09/19 14:05:31  5-MIN KLFT 092005Z 34009KT 10SM SCT050 34/21 A2990 70 45 2300 340/09 RMK AO2 T03390206 $
13976KLFT LFT20190609141010706/09/19 14:10:31  5-MIN KLFT 092010Z VRB05KT 10SM SCT050 33/21 A2990 70 46 2200 VRB/05 RMK AO2 T03330206 $
13976KLFT LFT20190609141510706/09/19 14:15:31  5-MIN KLFT 092015Z 01009KT 10SM BKN050 34/21 A2990 60 45 2300 360/09 RMK AO2 T03390206 $
13976KLFT LFT20190609142010706/09/19 14:20:31  5-MIN KLFT 092020Z 36009KT 10SM BKN050 34/21 A2990 60 46 2300 360/09 RMK AO2 T03390211 $
13976KLFT LFT20190609142510706/09/19 14:25:31  5-MIN KLFT 092025Z 01009KT 10SM BKN050 34/21 A2990 60 46 2300 010/09 RMK AO2 T03390211 $
13976KLFT LFT20190609143010706/09/19 14:30:31  5-MIN KLFT 092030Z 34009KT 10SM BKN050 33/21 A2990 60 46 2200 340/09 RMK AO2 T03330206 $
13976KLFT LFT20190609143510706/09/19 14:35:31  5-MIN KLFT 092035Z 36008KT 10SM BKN050 33/21 A2990 60 46 2200 360/08 RMK AO2 T03330206 $
13976KLFT LFT20190609144010706/09/19 14:40:31  5-MIN KLFT 092040Z 02008KT 10SM BKN050 34/22 A2990 60 48 2300 020/08 RMK AO2 T03390217 $
13976KLFT LFT20190609144510706/09/19 14:45:31  5-MIN KLFT 092045Z 34007KT 10SM SCT050 34/21 A2990 60 45 2300 340/07 RMK AO2 T03440211 $
13976KLFT LFT20190609145012006/09/19 14:50:31  5-MIN KLFT 092050Z 02009KT 10SM SCT050 34/22 A2990 60 46 2300 020/09 RMK AO2 SLP125 T03440217 53002 $
13976KLFT LFT20190609145510706/09/19 14:55:31  5-MIN KLFT 092055Z 02010KT 10SM BKN050 34/22 A2990 60 48 2300 020/10 RMK AO2 T03390217 $
13976KLFT LFT20190609150010706/09/19 15:00:31  5-MIN KLFT 092100Z 01007KT 10SM SCT050 34/22 A2991 60 48 2300 010/07 RMK AO2 T03390217 $
13976KLFT LFT20190609150510706/09/19 15:05:31  5-MIN KLFT 092105Z 34010KT 10SM FEW050 34/21 A2991 60 45 2300 340/10 RMK AO2 T03440211 $
13976KLFT LFT20190609151010706/09/19 15:10:31  5-MIN KLFT 092110Z 33010KT 10SM SCT050 34/21 A2991 60 45 2300 330/10 RMK AO2 T03440211 $
13976KLFT LFT20190609151510706/09/19 15:15:31  5-MIN KLFT 092115Z 33012KT 10SM SCT050 34/21 A2991 60 45 2300 330/12 RMK AO2 T03440211 $
13976KLFT LFT20190609152010706/09/19 15:20:31  5-MIN KLFT 092120Z 34012KT 10SM SCT050 34/21 A2991 60 45 2300 330/12 RMK AO2 T03390206 $
13976KLFT LFT20190609152510706/09/19 15:25:31  5-MIN KLFT 092125Z 35013KT 10SM FEW050 34/21 A2991 60 45 2300 350/13 RMK AO2 T03390206 $
13976KLFT LFT20190609153010706/09/19 15:30:31  5-MIN KLFT 092130Z 36011KT 10SM FEW050 34/21 A2991 60 45 2300 360/11 RMK AO2 T03390206 $
13976KLFT LFT20190609153510706/09/19 15:35:31  5-MIN KLFT 092135Z 34011KT 10SM FEW050 34/21 A2990 60 45 2300 340/11 RMK AO2 T03390206 $
13976KLFT LFT20190609154010406/09/19 15:40:31  5-MIN KLFT 092140Z 35010KT 10SM CLR 34/21 A2990 60 45 2300 350/10 RMK AO2 T03390206 $
13976KLFT LFT20190609154510406/09/19 15:45:31  5-MIN KLFT 092145Z 34011KT 10SM CLR 34/21 A2991 60 45 2300 340/11 RMK AO2 T03390206 $
13976KLFT LFT20190609155011406/09/19 15:50:31  5-MIN KLFT 092150Z 35012KT 10SM SCT040 34/21 A2990 60 45 2300 350/12 RMK AO2 SLP126 T03440211 $
13976KLFT LFT20190609155511006/09/19 15:55:31  5-MIN KLFT 092155Z 34010G16KT 10SM CLR 34/21 A2990 60 45 2300 340/10G16 RMK AO2 T03440211 $
13976KLFT LFT20190609160010706/09/19 16:00:31  5-MIN KLFT 092200Z 36011KT 10SM FEW060 34/21 A2990 60 45 2300 360/11 RMK AO2 T03440211 $
13976KLFT LFT20190609160511306/09/19 16:05:31  5-MIN KLFT 092205Z 34012G17KT 10SM FEW055 34/21 A2991 60 45 2300 340/12G17 RMK AO2 T03440211 $
13976KLFT LFT20190613171010306/13/19 17:10:31  5-MIN KLFT 132310Z 03009KT 10SM CLR 31/17 A3002 -40 44 1800 030/09 RMK AO2 T03060172
13976KLFT LFT20190613171510306/13/19 17:15:31  5-MIN KLFT 132315Z 02010KT 10SM CLR 31/16 A3002 -40 41 1800 020/10 RMK AO2 T03060161
13976KLFT LFT20190613172010306/13/19 17:20:31  5-MIN KLFT 132320Z 02008KT 10SM CLR 31/17 A3002 -40 42 1800 020/08 RMK AO2 T03060167
13976KLFT LFT20190613172510306/13/19 17:25:31  5-MIN KLFT 132325Z 02010KT 10SM CLR 31/16 A3002 -40 41 1800 020/10 RMK AO2 T03060161
13976KLFT LFT20190613173010306/13/19 17:30:31  5-MIN KLFT 132330Z 03009KT 10SM CLR 31/16 A3002 -40 41 1800 020/09 RMK AO2 T03060161
13976KLFT LFT20190613173510306/13/19 17:35:31  5-MIN KLFT 132335Z 04008KT 10SM CLR 30/17 A3002 -40 44 1700 040/08 RMK AO2 T03000167
13976KLFT LFT20190613174010306/13/19 17:40:31  5-MIN KLFT 132340Z 03009KT 10SM CLR 30/17 A3002 -40 44 1700 030/09 RMK AO2 T03000167
13976KLFT LFT20190613174510306/13/19 17:45:31  5-MIN KLFT 132345Z 04007KT 10SM CLR 30/17 A3002 -40 44 1700 040/07 RMK AO2 T03000167
13976KLFT LFT20190613175012806/13/19 17:50:31  5-MIN KLFT 132350Z 04007KT 10SM CLR 30/16 A3002 -40 42 1700 040/07 RMK AO2 SLP163 T03000161 10322 20300 56009
13976KLFT LFT20190613175510306/13/19 17:55:31  5-MIN KLFT 132355Z 02007KT 10SM CLR 30/17 A3002 -40 44 1700 020/07 RMK AO2 T03000167
13976KLFT LFT20190613180010306/13/19 18:00:31  5-MIN KLFT 140000Z 03005KT 10SM CLR 30/17 A3002 -40 44 1700 030/05 RMK AO2 T03000167
13976KLFT LFT20190613180510306/13/19 18:05:31  5-MIN KLFT 140005Z 04005KT 10SM CLR 29/17 A3002 -40 47 1600 040/05 RMK AO2 T02940172
13976KLFT LFT20190613181010306/13/19 18:10:31  5-MIN KLFT 140010Z 04006KT 10SM CLR 29/17 A3002 -50 45 1600 040/06 RMK AO2 T02940167
13976KLFT LFT20190613181510306/13/19 18:15:31  5-MIN KLFT 140015Z 04006KT 10SM CLR 29/16 A3002 -50 44 1600 040/06 RMK AO2 T02940161
13976KLFT LFT20190613182010306/13/19 18:20:31  5-MIN KLFT 140020Z 05006KT 10SM CLR 29/16 A3002 -50 45 1600 040/06 RMK AO2 T02890161
13976KLFT LFT20190613182510306/13/19 18:25:31  5-MIN KLFT 140025Z 05005KT 10SM CLR 29/16 A3002 -50 44 1600 040/05 RMK AO2 T02890156
13976KLFT LFT20190613183010306/13/19 18:30:31  5-MIN KLFT 140030Z 05005KT 10SM CLR 29/16 A3003 -50 44 1600 040/05 RMK AO2 T02890156
13976KLFT LFT20190613183510306/13/19 18:35:31  5-MIN KLFT 140035Z 04005KT 10SM CLR 28/16 A3003 -50 47 1500 040/05 RMK AO2 T02830161
13976KLFT LFT20190613184010306/13/19 18:40:31  5-MIN KLFT 140040Z 05003KT 10SM CLR 28/16 A3003 -50 47 1500 050/03 RMK AO2 T02830161
13976KLFT LFT20190613184510306/13/19 18:45:31  5-MIN KLFT 140045Z 04004KT 10SM CLR 28/16 A3003 -50 47 1500 040/04 RMK AO2 T02830161
13976KLFT LFT20190613185011006/13/19 18:50:31  5-MIN KLFT 140050Z 05004KT 10SM CLR 28/16 A3003 -50 48 1400 050/04 RMK AO2 SLP167 T02780161
13976KLFT LFT20190613185510306/13/19 18:55:31  5-MIN KLFT 140055Z 06003KT 10SM CLR 28/16 A3003 -50 48 1400 060/03 RMK AO2 T02780161
13976KLFT LFT20190613190010306/13/19 19:00:31  5-MIN KLFT 140100Z 06003KT 10SM CLR 27/17 A3003 -50 52 1400 060/03 RMK AO2 T02720167
13976KLFT LFT20190613190510306/13/19 19:05:31  5-MIN KLFT 140105Z 05003KT 10SM CLR 27/17 A3003 -50 54 1400 050/03 RMK AO2 T02720172
13976KLFT LFT20190613191010306/13/19 19:10:31  5-MIN KLFT 140110Z 00000KT 10SM CLR 27/17 A3003 -50 55 1300 000/00 RMK AO2 T02670172
13976KLFT LFT20190613191510306/13/19 19:15:31  5-MIN KLFT 140115Z 05003KT 10SM CLR 27/17 A3003 -50 55 1300 050/03 RMK AO2 T02670172
13976KLFT LFT20190613192010306/13/19 19:20:31  5-MIN KLFT 140120Z 05003KT 10SM CLR 26/17 A3003 -50 57 1300 040/03 RMK AO2 T02610172
13976KLFT LFT20190613192510306/13/19 19:25:31  5-MIN KLFT 140125Z 05003KT 10SM CLR 26/17 A3003 -50 55 1300 050/03 RMK AO2 T02610167
13976KLFT LFT20190613193010306/13/19 19:30:31  5-MIN KLFT 140130Z 00000KT 10SM CLR 26/17 A3003 -50 55 1300 000/00 RMK AO2 T02610167
13976KLFT LFT20190613193510306/13/19 19:35:31  5-MIN KLFT 140135Z 00000KT 10SM CLR 26/17 A3003 -60 55 1300 000/00 RMK AO2 T02610167
13976KLFT LFT20190613194010306/13/19 19:40:31  5-MIN KLFT 140140Z 00000KT 10SM CLR 26/18 A3003 -60 59 1300 000/00 RMK AO2 T02610178
13976KLFT LFT20190613194510306/13/19 19:45:31  5-MIN KLFT 140145Z 00000KT 10SM CLR 26/18 A3003 -60 61 1200 000/00 RMK AO2 T02560178
13976KLFT LFT20190613195011006/13/19 19:50:31  5-MIN KLFT 140150Z 00000KT 10SM CLR 26/18 A3004 -60 64 1200 000/00 RMK AO2 SLP170 T02560183
13976KLFT LFT20190613195510306/13/19 19:55:31  5-MIN KLFT 140155Z 00000KT 10SM CLR 25/18 A3004 -60 66 1100 000/00 RMK AO2 T02500183
13976KLFT LFT20190613200010306/13/19 20:00:31  5-MIN KLFT 140200Z 00000KT 10SM CLR 25/18 A3004 -60 66 1100 000/00 RMK AO2 T02500183
13976KLFT LFT20190613200510306/13/19 20:05:31  5-MIN KLFT 140205Z 00000KT 10SM CLR 24/19 A3004 -60 71 1100 000/00 RMK AO2 T02440189
13976KLFT LFT20190613201010306/13/19 20:10:31  5-MIN KLFT 140210Z 00000KT 10SM CLR 25/18 A3004 -60 66 1100 000/00 RMK AO2 T02500183
13976KLFT LFT20190613201510306/13/19 20:15:31  5-MIN KLFT 140215Z 00000KT 10SM CLR 24/18 A3004 -60 68 1100 000/00 RMK AO2 T02440183
13976KLFT LFT20190613202010306/13/19 20:20:31  5-MIN KLFT 140220Z 00000KT 10SM CLR 24/18 A3004 -60 68 1100 000/00 RMK AO2 T02440183
13976KLFT LFT20190613202510306/13/19 20:25:31  5-MIN KLFT 140225Z 00000KT 10SM CLR 24/19 A3004 -60 71 1100 000/00 RMK AO2 T02440189
13976KLFT LFT20190613203010306/13/19 20:30:31  5-MIN KLFT 140230Z 05003KT 10SM CLR 24/19 A3004 -60 71 1100 050/03 RMK AO2 T02440189
13976KLFT LFT20190613203510306/13/19 20:35:31  5-MIN KLFT 140235Z 00000KT 10SM CLR 24/18 A3004 -60 71 1000 000/00 RMK AO2 T02390183
13976KLFT LFT20190613204010306/13/19 20:40:31  5-MIN KLFT 140240Z 00000KT 10SM CLR 24/18 A3005 -70 71 1000 000/00 RMK AO2 T02390183
13976KLFT LFT20190613204510306/13/19 20:45:31  5-MIN KLFT 140245Z 00000KT 10SM CLR 24/19 A3005 -70 73 1000 000/00 RMK AO2 T02390189
13976KLFT LFT20190613205011606/13/19 20:50:31  5-MIN KLFT 140250Z 00000KT 10SM CLR 24/18 A3005 -70 71 1000 000/00 RMK AO2 SLP175 T02390183 56004
13976KLFT LFT20190613205510206/13/19 20:55:31  5-MIN KLFT 140255Z 00000KT 10SM CLR 23/18 A3005 -70 73 900 000/00 RMK AO2 T02330183
13976KLFT LFT20190613210010206/13/19 21:00:31  5-MIN KLFT 140300Z 00000KT 10SM CLR 23/18 A3005 -70 73 900 000/00 RMK AO2 T02330183
13976KLFT LFT20190613210510206/13/19 21:05:31  5-MIN KLFT 140305Z 00000KT 10SM CLR 23/18 A3006 -80 73 900 000/00 RMK AO2 T02330183
13976KLFT LFT20190613211010306/13/19 21:10:31  5-MIN KLFT 140310Z 00000KT 10SM CLR 24/18 A3006 -80 71 1000 000/00 RMK AO2 T02390183
13976KLFT LFT20190613211510206/13/19 21:15:31  5-MIN KLFT 140315Z 00000KT 10SM CLR 23/18 A3006 -80 73 900 000/00 RMK AO2 T02330183
13976KLFT LFT20190613212010706/13/19 21:20:31  5-MIN KLFT 140320Z AUTO 00000KT 10SM CLR 23/18 A3006 -80 76 800 000/00 RMK AO2 T02280183
13976KLFT LFT20190613212510706/13/19 21:25:31  5-MIN KLFT 140325Z AUTO 00000KT 10SM CLR 23/19 A3006 -80 78 800 000/00 RMK AO2 T02280189
13976KLFT LFT20190613213010706/13/19 21:30:31  5-MIN KLFT 140330Z AUTO 00000KT 10SM CLR 23/19 A3006 -80 78 800 000/00 RMK AO2 T02280189
13976KLFT LFT20190613213510706/13/19 21:35:31  5-MIN KLFT 140335Z AUTO 00000KT 10SM CLR 23/19 A3006 -80 78 800 000/00 RMK AO2 T02280189
13976KLFT LFT20190613214010706/13/19 21:40:31  5-MIN KLFT 140340Z AUTO 00000KT 10SM CLR 22/19 A3006 -80 84 800 000/00 RMK AO2 T02220194
13976KLFT LFT20190613214510706/13/19 21:45:31  5-MIN KLFT 140345Z AUTO 07003KT 10SM CLR 23/19 A3007 -90 81 800 060/03 RMK AO2 T02280194
13976KLFT LFT20190613215011406/13/19 21:50:31  5-MIN KLFT 140350Z AUTO 00000KT 10SM CLR 23/19 A3007 -90 81 800 000/00 RMK AO2 SLP181 T02280194
13976KLFT LFT20190613215510706/13/19 21:55:31  5-MIN KLFT 140355Z AUTO 06003KT 10SM CLR 23/20 A3007 -90 84 800 060/03 RMK AO2 T02280200
13976KLFT LFT20190613220010706/13/19 22:00:31  5-MIN KLFT 140400Z AUTO 00000KT 10SM CLR 23/19 A3007 -90 81 800 000/00 RMK AO2 T02280194
13976KLFT LFT20190613220510706/13/19 22:05:31  5-MIN KLFT 140405Z AUTO 06003KT 10SM CLR 23/19 A3007 -80 78 800 060/03 RMK AO2 T02280189
13976KLFT LFT20190613221010706/13/19 22:10:31  5-MIN KLFT 140410Z AUTO 06003KT 10SM CLR 22/18 A3007 -90 78 800 060/03 RMK AO2 T02220183
13976KLFT LFT20190613221510706/13/19 22:15:31  5-MIN KLFT 140415Z AUTO 07003KT 10SM CLR 23/18 A3007 -90 76 800 070/03 RMK AO2 T02280183
13976KLFT LFT20190613222010706/13/19 22:20:31  5-MIN KLFT 140420Z AUTO 00000KT 10SM CLR 23/18 A3007 -90 73 800 000/00 RMK AO2 T02280178
13976KLFT LFT20190613222510706/13/19 22:25:31  5-MIN KLFT 140425Z AUTO 00000KT 10SM CLR 23/18 A3007 -90 73 800 000/00 RMK AO2 T02280178
13976KLFT LFT20190613223010706/13/19 22:30:31  5-MIN KLFT 140430Z AUTO 00000KT 10SM CLR 22/18 A3007 -90 75 800 000/00 RMK AO2 T02220178
13976KLFT LFT20190613223510706/13/19 22:35:31  5-MIN KLFT 140435Z AUTO 00000KT 10SM CLR 22/18 A3007 -90 75 800 000/00 RMK AO2 T02220178
13976KLFT LFT20190613224010706/13/19 22:40:31  5-MIN KLFT 140440Z AUTO 00000KT 10SM CLR 22/18 A3007 -90 78 700 000/00 RMK AO2 T02170178
13976KLFT LFT20190613224510706/13/19 22:45:31  5-MIN KLFT 140445Z AUTO 00000KT 10SM CLR 22/18 A3007 -90 78 700 000/00 RMK AO2 T02170178
13976KLFT LFT20190613225011406/13/19 22:50:31  5-MIN KLFT 140450Z AUTO 00000KT 10SM CLR 22/18 A3007 -90 81 700 000/00 RMK AO2 SLP182 T02170183
13976KLFT LFT20190613225510706/13/19 22:55:31  5-MIN KLFT 140455Z AUTO 00000KT 10SM CLR 22/18 A3007 -90 81 700 000/00 RMK AO2 T02170183
13976KLFT LFT20190613230010706/13/19 23:00:31  5-MIN KLFT 140500Z AUTO 00000KT 10SM CLR 22/18 A3007 -90 81 700 000/00 RMK AO2 T02170183
13976KLFT LFT20190613230510706/13/19 23:05:31  5-MIN KLFT 140505Z AUTO 00000KT 10SM CLR 22/18 A3007 -90 81 700 000/00 RMK AO2 T02170183
13976KLFT LFT20190613231010706/13/19 23:10:31  5-MIN KLFT 140510Z AUTO 00000KT 10SM CLR 22/18 A3007 -90 78 800 000/00 RMK AO2 T02220183
13976KLFT LFT20190613231510706/13/19 23:15:31  5-MIN KLFT 140515Z AUTO 00000KT 10SM CLR 22/18 A3007 -90 78 800 000/00 RMK AO2 T02220183
13976KLFT LFT20190613232010706/13/19 23:20:31  5-MIN KLFT 140520Z AUTO 00000KT 10SM CLR 22/18 A3007 -90 78 800 000/00 RMK AO2 T02220183
13976KLFT LFT20190613232510706/13/19 23:25:31  5-MIN KLFT 140525Z AUTO 08003KT 10SM CLR 22/18 A3007 -90 78 800 080/03 RMK AO2 T02220183
13976KLFT LFT20190613233010706/13/19 23:30:31  5-MIN KLFT 140530Z AUTO 00000KT 10SM CLR 22/18 A3007 -90 78 800 000/00 RMK AO2 T02220183
13976KLFT LFT20190613233510706/13/19 23:35:31  5-MIN KLFT 140535Z AUTO 00000KT 10SM CLR 22/18 A3007 -90 78 800 000/00 RMK AO2 T02220183
13976KLFT LFT20190613234010706/13/19 23:40:31  5-MIN KLFT 140540Z AUTO 00000KT 10SM CLR 22/18 A3007 -90 81 700 000/00 RMK AO2 T02170183
13976KLFT LFT20190613234510706/13/19 23:45:31  5-MIN KLFT 140545Z AUTO 00000KT 10SM CLR 22/19 A3007 -90 81 800 000/00 RMK AO2 T02220189
13976KLFT LFT20190613235014206/13/19 23:50:31  5-MIN KLFT 140550Z AUTO 00000KT 10SM CLR 22/18 A3007 -90 78 800 000/00 RMK AO2 SLP182 T02220183 10300 20217 403220211 53012
13976KLFT LFT20190613235510706/13/19 23:55:31  5-MIN KLFT 140555Z AUTO 00000KT 10SM CLR 22/18 A3007 -90 78 800 000/00 RMK AO2 T02220183
13976KLFT LFT20190614000010706/14/19 00:00:31  5-MIN KLFT 140600Z AUTO 00000KT 10SM CLR 22/18 A3007 -90 78 800 000/00 RMK AO2 T02220183
13976KLFT LFT20190614000510706/14/19 00:05:31  5-MIN KLFT 140605Z AUTO 00000KT 10SM CLR 22/18 A3007 -90 78 800 000/00 RMK AO2 T02220183
13976KLFT LFT20190614001010706/14/19 00:10:31  5-MIN KLFT 140610Z AUTO 00000KT 10SM CLR 23/18 A3007 -90 73 800 000/00 RMK AO2 T02280178
13976KLFT LFT20190614001510706/14/19 00:15:31  5-MIN KLFT 140615Z AUTO 00000KT 10SM CLR 22/18 A3007 -90 75 800 000/00 RMK AO2 T02220178
13976KLFT LFT20190614002010706/14/19 00:20:31  5-MIN KLFT 140620Z AUTO 07003KT 10SM CLR 22/18 A3007 -90 75 800 070/03 RMK AO2 T02220178
13976KLFT LFT20190614002510706/14/19 00:25:31  5-MIN KLFT 140625Z AUTO 07003KT 10SM CLR 22/18 A3007 -90 75 800 060/03 RMK AO2 T02220178
13976KLFT LFT20190614003010706/14/19 00:30:31  5-MIN KLFT 140630Z AUTO 00000KT 10SM CLR 22/18 A3007 -90 75 800 000/00 RMK AO2 T02220178
13976KLFT LFT20190614003510706/14/19 00:35:31  5-MIN KLFT 140635Z AUTO 00000KT 10SM CLR 22/18 A3007 -90 75 800 000/00 RMK AO2 T02220178
13976KLFT LFT20190614004010706/14/19 00:40:31  5-MIN KLFT 140640Z AUTO 06003KT 10SM CLR 22/18 A3007 -90 78 700 060/03 RMK AO2 T02170178
13976KLFT LFT20190614004510706/14/19 00:45:31  5-MIN KLFT 140645Z AUTO 07003KT 10SM CLR 22/18 A3007 -90 78 700 070/03 RMK AO2 T02170178
13976KLFT LFT20190614005011406/14/19 00:50:31  5-MIN KLFT 140650Z AUTO 07003KT 10SM CLR 22/18 A3007 -90 78 700 070/03 RMK AO2 SLP181 T02170178
13976KLFT LFT20190614005510706/14/19 00:55:31  5-MIN KLFT 140655Z AUTO 07003KT 10SM CLR 22/18 A3007 -90 78 700 060/03 RMK AO2 T02170178
13976KLFT LFT20190614010010706/14/19 01:00:31  5-MIN KLFT 140700Z AUTO 05004KT 10SM CLR 22/17 A3006 -80 75 700 050/04 RMK AO2 T02170172
13976KLFT LFT20190614010510706/14/19 01:05:31  5-MIN KLFT 140705Z AUTO 08003KT 10SM CLR 22/17 A3006 -80 75 700 080/03 RMK AO2 T02170172
13976KLFT LFT20190614011010706/14/19 01:10:31  5-MIN KLFT 140710Z AUTO 00000KT 10SM CLR 22/18 A3007 -90 78 700 000/00 RMK AO2 T02170178
13976KLFT LFT20190614011510706/14/19 01:15:31  5-MIN KLFT 140715Z AUTO 00000KT 10SM CLR 22/18 A3006 -80 78 700 000/00 RMK AO2 T02170178
13976KLFT LFT20190614012010706/14/19 01:20:31  5-MIN KLFT 140720Z AUTO 00000KT 10SM CLR 22/17 A3006 -80 75 700 000/00 RMK AO2 T02170172
13976KLFT LFT20190614012510706/14/19 01:25:31  5-MIN KLFT 140725Z AUTO 00000KT 10SM CLR 21/17 A3006 -80 78 600 000/00 RMK AO2 T02110172
13976KLFT LFT20190614013010706/14/19 01:30:31  5-MIN KLFT 140730Z AUTO 06003KT 10SM CLR 21/17 A3006 -80 78 600 060/03 RMK AO2 T02110172
13976KLFT LFT20190614013511006/14/19 01:35:31  5-MIN KLFT 140735Z AUTO 00000KT 10SM FEW070 21/17 A3006 -80 78 600 000/00 RMK AO2 T02110172
13976KLFT LFT20190614014011006/14/19 01:40:31  5-MIN KLFT 140740Z AUTO 05003KT 10SM FEW070 21/17 A3006 -80 78 600 050/03 RMK AO2 T02110172
13976KLFT LFT20190614014510706/14/19 01:45:31  5-MIN KLFT 140745Z AUTO 05003KT 10SM CLR 21/17 A3006 -80 78 600 050/03 RMK AO2 T02110172
13976KLFT LFT20190614015011406/14/19 01:50:31  5-MIN KLFT 140750Z AUTO 04003KT 10SM CLR 21/17 A3006 -80 78 600 040/03 RMK AO2 SLP179 T02110172
13976KLFT LFT20190614015511006/14/19 01:55:31  5-MIN KLFT 140755Z AUTO 05003KT 10SM FEW065 21/17 A3006 -80 75 700 050/03 RMK AO2 T02110167
13976KLFT LFT20190614020011006/14/19 02:00:31  5-MIN KLFT 140800Z AUTO 00000KT 10SM FEW065 21/17 A3006 -80 75 700 000/00 RMK AO2 T02110167
13976KLFT LFT20190614020510706/14/19 02:05:31  5-MIN KLFT 140805Z AUTO 00000KT 10SM CLR 21/17 A3006 -80 75 700 000/00 RMK AO2 T02110167
13976KLFT LFT20190614021010706/14/19 02:10:31  5-MIN KLFT 140810Z AUTO 07003KT 10SM CLR 21/17 A3006 -80 78 700 070/03 RMK AO2 T02110172
13976KLFT LFT20190614021510706/14/19 02:15:31  5-MIN KLFT 140815Z AUTO 05003KT 10SM CLR 21/17 A3006 -80 78 600 050/03 RMK AO2 T02110172
13976KLFT LFT20190614022010706/14/19 02:20:31  5-MIN KLFT 140820Z AUTO 06004KT 10SM CLR 21/17 A3006 -80 75 700 060/04 RMK AO2 T02110167
13976KLFT LFT20190614022510706/14/19 02:25:31  5-MIN KLFT 140825Z AUTO 05003KT 10SM CLR 21/17 A3006 -80 78 600 050/03 RMK AO2 T02110172
13976KLFT LFT20190614023010706/14/19 02:30:31  5-MIN KLFT 140830Z AUTO 06003KT 10SM CLR 21/17 A3006 -80 78 600 060/03 RMK AO2 T02060167
13976KLFT LFT20190614023510706/14/19 02:35:31  5-MIN KLFT 140835Z AUTO 05003KT 10SM CLR 21/17 A3007 -80 75 600 050/03 RMK AO2 T02110167
13976KLFT LFT20190614024010706/14/19 02:40:31  5-MIN KLFT 140840Z AUTO 04003KT 10SM CLR 21/17 A3007 -90 78 600 040/03 RMK AO2 T02060167
13976KLFT LFT20190614024510706/14/19 02:45:31  5-MIN KLFT 140845Z AUTO 04003KT 10SM CLR 21/17 A3007 -80 78 600 040/03 RMK AO2 T02060167
13976KLFT LFT20190614025012006/14/19 02:50:31  5-MIN KLFT 140850Z AUTO 05003KT 10SM CLR 21/16 A3007 -90 75 600 040/03 RMK AO2 SLP180 T02060161 50007
13976KLFT LFT20190614025510706/14/19 02:55:31  5-MIN KLFT 140855Z AUTO 00000KT 10SM CLR 20/16 A3007 -90 78 500 000/00 RMK AO2 T02000161
13976KLFT LFT20190614030010706/14/19 03:00:31  5-MIN KLFT 140900Z AUTO 04003KT 10SM CLR 21/16 A3007 -90 75 600 040/03 RMK AO2 T02060161
13976KLFT LFT20190614030510706/14/19 03:05:31  5-MIN KLFT 140905Z AUTO 05003KT 10SM CLR 21/16 A3007 -90 75 600 040/03 RMK AO2 T02060161
13976KLFT LFT20190614031010706/14/19 03:10:31  5-MIN KLFT 140910Z AUTO 06003KT 10SM CLR 21/16 A3006 -80 75 600 060/03 RMK AO2 T02060161
13976KLFT LFT20190614031510706/14/19 03:15:31  5-MIN KLFT 140915Z AUTO 00000KT 10SM CLR 21/16 A3006 -80 75 600 000/00 RMK AO2 T02060161
13976KLFT LFT20190614032010706/14/19 03:20:31  5-MIN KLFT 140920Z AUTO 06003KT 10SM CLR 21/16 A3006 -80 75 600 050/03 RMK AO2 T02060161
13976KLFT LFT20190614032510706/14/19 03:25:31  5-MIN KLFT 140925Z AUTO 05003KT 10SM CLR 21/16 A3007 -90 75 600 050/03 RMK AO2 T02060161
13976KLFT LFT20190614033010706/14/19 03:30:31  5-MIN KLFT 140930Z AUTO 04003KT 10SM CLR 21/16 A3007 -90 75 600 030/03 RMK AO2 T02060161
13976KLFT LFT20190614033510706/14/19 03:35:31  5-MIN KLFT 140935Z AUTO 03004KT 10SM CLR 20/16 A3007 -90 78 500 030/04 RMK AO2 T02000161
13976KLFT LFT20190614034010706/14/19 03:40:31  5-MIN KLFT 140940Z AUTO 03006KT 10SM CLR 19/16 A3007 -90 81 400 030/06 RMK AO2 T01940161
13976KLFT LFT20190614034510706/14/19 03:45:31  5-MIN KLFT 140945Z AUTO 05003KT 10SM CLR 19/16 A3007 -90 81 400 050/03 RMK AO2 T01940161
13976KLFT LFT20190614035011406/14/19 03:50:31  5-MIN KLFT 140950Z AUTO 05004KT 10SM CLR 20/16 A3007 -90 78 500 050/04 RMK AO2 SLP182 T02000161
13976KLFT LFT20190614035510706/14/19 03:55:31  5-MIN KLFT 140955Z AUTO 05004KT 10SM CLR 20/16 A3007 -90 78 500 050/04 RMK AO2 T02000161
13976KLFT LFT20190614040010706/14/19 04:00:31  5-MIN KLFT 141000Z AUTO 05003KT 10SM CLR 21/16 A3007 -90 75 600 050/03 RMK AO2 T02060161
13976KLFT LFT20190614040510706/14/19 04:05:31  5-MIN KLFT 141005Z AUTO 05003KT 10SM CLR 20/16 A3007 -90 78 500 050/03 RMK AO2 T02000161
13976KLFT LFT20190614041010206/14/19 04:10:31  5-MIN KLFT 141010Z 05003KT 10SM CLR 20/16 A3007 -90 78 500 050/03 RMK AO2 T02000161
13976KLFT LFT20190614041510206/14/19 04:15:31  5-MIN KLFT 141015Z 05003KT 10SM CLR 20/16 A3007 -90 78 500 050/03 RMK AO2 T02000161
13976KLFT LFT20190614042010206/14/19 04:20:31  5-MIN KLFT 141020Z 05003KT 10SM CLR 21/16 A3007 -90 75 600 050/03 RMK AO2 T02060161
13976KLFT LFT20190614042510206/14/19 04:25:31  5-MIN KLFT 141025Z 05004KT 10SM CLR 21/16 A3007 -90 75 600 050/04 RMK AO2 T02060161
13976KLFT LFT20190614043010306/14/19 04:30:31  5-MIN KLFT 141030Z 00000KT 10SM CLR 21/16 A3008 -100 75 600 000/00 RMK AO2 T02060161
13976KLFT LFT20190614043510206/14/19 04:35:31  5-MIN KLFT 141035Z 00000KT 10SM CLR 21/16 A3008 -90 75 600 000/00 RMK AO2 T02060161
13976KLFT LFT20190614044010206/14/19 04:40:31  5-MIN KLFT 141040Z 07003KT 10SM CLR 21/16 A3008 -90 75 600 070/03 RMK AO2 T02060161
13976KLFT LFT20190614044510306/14/19 04:45:31  5-MIN KLFT 141045Z 00000KT 10SM CLR 21/16 A3008 -100 75 600 000/00 RMK AO2 T02060161
13976KLFT LFT20190614045011006/14/19 04:50:31  5-MIN KLFT 141050Z 00000KT 10SM CLR 21/16 A3008 -100 75 600 000/00 RMK AO2 SLP186 T02060161
13976KLFT LFT20190614045510606/14/19 04:55:31  5-MIN KLFT 141055Z 00000KT 10SM FEW070 21/16 A3008 -100 75 600 000/00 RMK AO2 T02060161
13976KLFT LFT20190614050010606/14/19 05:00:31  5-MIN KLFT 141100Z 00000KT 10SM SCT065 21/16 A3008 -100 73 600 000/00 RMK AO2 T02110161
13976KLFT LFT20190614050510606/14/19 05:05:31  5-MIN KLFT 141105Z 00000KT 10SM SCT065 21/16 A3008 -100 75 600 000/00 RMK AO2 T02060161
13976KLFT LFT20190614051010606/14/19 05:10:31  5-MIN KLFT 141110Z 00000KT 10SM SCT065 21/16 A3008 -100 75 600 000/00 RMK AO2 T02060161
13976KLFT LFT20190614051510606/14/19 05:15:31  5-MIN KLFT 141115Z 00000KT 10SM SCT065 21/16 A3009 -100 75 600 000/00 RMK AO2 T02060161
13976KLFT LFT20190614052010606/14/19 05:20:31  5-MIN KLFT 141120Z 08003KT 10SM SCT065 21/16 A3009 -100 75 600 080/03 RMK AO2 T02060161
13976KLFT LFT20190614052510606/14/19 05:25:31  5-MIN KLFT 141125Z VRB03KT 10SM FEW065 21/16 A3009 -100 75 600 VRB/03 RMK AO2 T02060161
13976KLFT LFT20190614053010606/14/19 05:30:31  5-MIN KLFT 141130Z 07004KT 10SM FEW065 21/16 A3009 -110 75 600 070/04 RMK AO2 T02060161
13976KLFT LFT20190614053510306/14/19 05:35:31  5-MIN KLFT 141135Z 07004KT 10SM CLR 21/16 A3009 -100 75 600 070/04 RMK AO2 T02060161
13976KLFT LFT20190614054010306/14/19 05:40:31  5-MIN KLFT 141140Z 07004KT 10SM CLR 21/16 A3009 -100 75 600 070/04 RMK AO2 T02060161
13976KLFT LFT20190614054510306/14/19 05:45:31  5-MIN KLFT 141145Z 06004KT 10SM CLR 21/16 A3009 -100 75 600 060/04 RMK AO2 T02060161
13976KLFT LFT20190614055012806/14/19 05:50:31  5-MIN KLFT 141150Z 07003KT 10SM CLR 21/16 A3009 -100 75 600 070/03 RMK AO2 SLP188 T02060161 10228 20194 55001
13976KLFT LFT20190614055510306/14/19 05:55:31  5-MIN KLFT 141155Z 06005KT 10SM CLR 21/16 A3009 -110 75 600 060/05 RMK AO2 T02060161
13976KLFT LFT20190614060010306/14/19 06:00:31  5-MIN KLFT 141200Z VRB03KT 10SM CLR 21/17 A3009 -100 78 600 VRB/03 RMK AO2 T02060167
13976KLFT LFT20190614060510306/14/19 06:05:31  5-MIN KLFT 141205Z 09003KT 10SM CLR 21/17 A3009 -100 75 600 090/03 RMK AO2 T02110167
13976KLFT LFT20190614061010306/14/19 06:10:31  5-MIN KLFT 141210Z 00000KT 10SM CLR 21/17 A3008 -100 75 600 000/00 RMK AO2 T02110167
13976KLFT LFT20190614061510306/14/19 06:15:31  5-MIN KLFT 141215Z VRB03KT 10SM CLR 21/17 A3008 -100 75 600 VRB/03 RMK AO2 T02110167
13976KLFT LFT20190614062010306/14/19 06:20:31  5-MIN KLFT 141220Z 08004KT 10SM CLR 21/17 A3008 -100 75 600 080/04 RMK AO2 T02110167
13976KLFT LFT20190614062510306/14/19 06:25:31  5-MIN KLFT 141225Z 08004KT 10SM CLR 21/16 A3009 -110 73 600 070/04 RMK AO2 T02110161
13976KLFT LFT20190614063010306/14/19 06:30:31  5-MIN KLFT 141230Z 07004KT 10SM CLR 21/16 A3009 -110 73 600 070/04 RMK AO2 T02110161
13976KLFT LFT20190614063510306/14/19 06:35:31  5-MIN KLFT 141235Z 08004KT 10SM CLR 22/16 A3009 -110 70 700 080/04 RMK AO2 T02170161
13976KLFT LFT20190614064010306/14/19 06:40:31  5-MIN KLFT 141240Z 07005KT 10SM CLR 22/16 A3009 -110 70 700 070/05 RMK AO2 T02170161
13976KLFT LFT20190614064510306/14/19 06:45:31  5-MIN KLFT 141245Z 08004KT 10SM CLR 22/16 A3009 -110 70 700 080/04 RMK AO2 T02170161
13976KLFT LFT20190614065011006/14/19 06:50:31  5-MIN KLFT 141250Z 09003KT 10SM CLR 22/17 A3009 -110 73 700 090/03 RMK AO2 SLP190 T02170167
13976KLFT LFT20190614065510306/14/19 06:55:31  5-MIN KLFT 141255Z VRB04KT 10SM CLR 22/17 A3009 -110 70 700 VRB/04 RMK AO2 T02220167
13976KLFT LFT20190614070010306/14/19 07:00:31  5-MIN KLFT 141300Z VRB05KT 10SM CLR 22/17 A3009 -110 70 700 VRB/05 RMK AO2 T02220167
13976KLFT LFT20190614070510306/14/19 07:05:31  5-MIN KLFT 141305Z VRB04KT 10SM CLR 22/17 A3009 -110 70 700 VRB/04 RMK AO2 T02220167
13976KLFT LFT20190614071010306/14/19 07:10:31  5-MIN KLFT 141310Z VRB04KT 10SM CLR 23/17 A3010 -110 68 800 VRB/04 RMK AO2 T02280167
13976KLFT LFT20190614071510306/14/19 07:15:31  5-MIN KLFT 141315Z VRB04KT 10SM CLR 23/17 A3010 -110 68 800 VRB/04 RMK AO2 T02280167
13976KLFT LFT20190614072010306/14/19 07:20:31  5-MIN KLFT 141320Z VRB03KT 10SM CLR 23/17 A3010 -120 66 900 VRB/03 RMK AO2 T02330167
13976KLFT LFT20190614072510306/14/19 07:25:31  5-MIN KLFT 141325Z VRB03KT 10SM CLR 23/17 A3010 -120 68 900 VRB/03 RMK AO2 T02330172
13976KLFT LFT20190614073010306/14/19 07:30:31  5-MIN KLFT 141330Z VRB03KT 10SM CLR 23/17 A3010 -120 68 900 VRB/03 RMK AO2 T02330172
13976KLFT LFT20190614073510306/14/19 07:35:31  5-MIN KLFT 141335Z VRB03KT 10SM CLR 23/17 A3010 -120 68 900 VRB/03 RMK AO2 T02330172
13976KLFT LFT20190614074010306/14/19 07:40:31  5-MIN KLFT 141340Z 00000KT 10SM CLR 24/18 A3010 -120 68 900 000/00 RMK AO2 T02390178
13976KLFT LFT20190614074509406/14/19 07:45:31  5-MIN KLFT 141345Z 10SM CLR 24/18 A3010 -120 66 1000 M /M RMK AO2 T02440178
13976KLFT LFT20190614075011106/14/19 07:50:31  5-MIN KLFT 141350Z VRB03KT 10SM CLR 24/18 A3011 -120 68 1000 VRB/03 RMK AO2 SLP194 T02440183
13976KLFT LFT20190614075510406/14/19 07:55:31  5-MIN KLFT 141355Z 00000KT 10SM CLR 24/18 A3011 -120 68 1000 000/00 RMK AO2 T02440183
13976KLFT LFT20190614080010406/14/19 08:00:31  5-MIN KLFT 141400Z 00000KT 10SM CLR 25/19 A3010 -120 68 1000 000/00 RMK AO2 T02500189
13976KLFT LFT20190614080510406/14/19 08:05:31  5-MIN KLFT 141405Z VRB03KT 10SM CLR 25/19 A3010 -120 68 1000 VRB/03 RMK AO2 T02500189
13976KLFT LFT20190614081010406/14/19 08:10:31  5-MIN KLFT 141410Z 00000KT 10SM CLR 26/19 A3010 -120 66 1100 000/00 RMK AO2 T02560189
13976KLFT LFT20190614081510406/14/19 08:15:31  5-MIN KLFT 141415Z VRB03KT 10SM CLR 26/19 A3010 -120 66 1100 VRB/03 RMK AO2 T02560189
13976KLFT LFT20190614082010406/14/19 08:20:31  5-MIN KLFT 141420Z VRB03KT 10SM CLR 26/19 A3010 -120 66 1200 VRB/03 RMK AO2 T02610194
13976KLFT LFT20190614082510406/14/19 08:25:31  5-MIN KLFT 141425Z 00000KT 10SM CLR 26/19 A3010 -120 66 1200 000/00 RMK AO2 T02610194
13976KLFT LFT20190614083010406/14/19 08:30:31  5-MIN KLFT 141430Z 00000KT 10SM CLR 26/20 A3010 -120 68 1200 000/00 RMK AO2 T02610200
13976KLFT LFT20190614083510406/14/19 08:35:31  5-MIN KLFT 141435Z 00000KT 10SM CLR 27/20 A3010 -120 66 1200 000/00 RMK AO2 T02670200
13976KLFT LFT20190614084010406/14/19 08:40:31  5-MIN KLFT 141440Z 00000KT 10SM CLR 27/21 A3010 -120 69 1200 000/00 RMK AO2 T02670206
13976KLFT LFT20190614084510406/14/19 08:45:31  5-MIN KLFT 141445Z 13004KT 10SM CLR 27/21 A3010 -120 69 1200 130/04 RMK AO2 T02670206
13976KLFT LFT20190614085011706/14/19 08:50:31  5-MIN KLFT 141450Z 09003KT 10SM CLR 27/21 A3011 -120 69 1200 090/03 RMK AO2 SLP194 T02670206 53007
13976KLFT LFT20190614085510406/14/19 08:55:31  5-MIN KLFT 141455Z VRB03KT 10SM CLR 27/21 A3011 -120 66 1300 VRB/03 RMK AO2 T02720206
13976KLFT LFT20190614090010406/14/19 09:00:31  5-MIN KLFT 141500Z 00000KT 10SM CLR 27/21 A3011 -120 66 1300 000/00 RMK AO2 T02720206
13976KLFT LFT20190614090510406/14/19 09:05:31  5-MIN KLFT 141505Z 00000KT 10SM CLR 27/21 A3011 -120 69 1300 000/00 RMK AO2 T02720211
13976KLFT LFT20190614091010406/14/19 09:10:31  5-MIN KLFT 141510Z 00000KT 10SM CLR 28/21 A3011 -120 66 1400 000/00 RMK AO2 T02780211
13976KLFT LFT20190614091510406/14/19 09:15:31  5-MIN KLFT 141515Z 00000KT 10SM CLR 28/22 A3011 -120 66 1400 000/00 RMK AO2 T02830217
13976KLFT LFT20190614092010406/14/19 09:20:31  5-MIN KLFT 141520Z VRB03KT 10SM CLR 28/21 A3011 -120 64 1400 VRB/03 RMK AO2 T02830211
13976KLFT LFT20190614092510406/14/19 09:25:31  5-MIN KLFT 141525Z 00000KT 10SM CLR 28/21 A3011 -120 64 1400 000/00 RMK AO2 T02830211
13976KLFT LFT20190614093010406/14/19 09:30:31  5-MIN KLFT 141530Z 00000KT 10SM CLR 29/22 A3011 -120 64 1500 000/00 RMK AO2 T02890217
13976KLFT LFT20190614093510406/14/19 09:35:31  5-MIN KLFT 141535Z 00000KT 10SM CLR 28/22 A3010 -120 66 1400 000/00 RMK AO2 T02830217
13976KLFT LFT20190614094010406/14/19 09:40:31  5-MIN KLFT 141540Z 00000KT 10SM CLR 29/22 A3010 -120 64 1500 000/00 RMK AO2 T02890217
13976KLFT LFT20190614094510406/14/19 09:45:31  5-MIN KLFT 141545Z 00000KT 10SM CLR 29/22 A3010 -110 64 1600 000/00 RMK AO2 T02940222
13976KLFT LFT20190614095011106/14/19 09:50:31  5-MIN KLFT 141550Z VRB03KT 10SM CLR 29/22 A3010 -110 64 1500 VRB/03 RMK AO2 SLP191 T02890217
13976KLFT LFT20190614095510406/14/19 09:55:31  5-MIN KLFT 141555Z VRB05KT 10SM CLR 29/22 A3010 -110 64 1600 VRB/05 RMK AO2 T02940222
13976KLFT LFT20190614100010406/14/19 10:00:31  5-MIN KLFT 141600Z VRB03KT 10SM CLR 29/22 A3010 -110 62 1600 VRB/03 RMK AO2 T02940217
13976KLFT LFT20190614100510406/14/19 10:05:31  5-MIN KLFT 141605Z 00000KT 10SM CLR 29/22 A3010 -110 62 1600 000/00 RMK AO2 T02940217
13976KLFT LFT20190614101010406/14/19 10:10:31  5-MIN KLFT 141610Z 17005KT 10SM CLR 29/22 A3009 -110 62 1600 170/05 RMK AO2 T02940217
13976KLFT LFT20190614101510406/14/19 10:15:31  5-MIN KLFT 141615Z 18006KT 10SM CLR 29/21 A3009 -110 58 1600 180/06 RMK AO2 T02940206
13976KLFT LFT20190614102010706/14/19 10:20:31  5-MIN KLFT 141620Z 17007KT 10SM FEW043 29/20 A3009 -110 56 1600 170/07 RMK AO2 T02940200
13976KLFT LFT20190614102510706/14/19 10:25:31  5-MIN KLFT 141625Z 22005KT 10SM FEW043 30/21 A3009 -110 56 1600 220/05 RMK AO2 T03000206
13976KLFT LFT20190614103010706/14/19 10:30:31  5-MIN KLFT 141630Z VRB05KT 10SM FEW043 29/21 A3009 -110 58 1600 VRB/05 RMK AO2 T02940206
13976KLFT LFT20190614103510406/14/19 10:35:31  5-MIN KLFT 141635Z 18007KT 10SM CLR 30/21 A3009 -110 56 1600 180/07 RMK AO2 T03000206
13976KLFT LFT20190614104012306/14/19 10:40:31  5-MIN KLFT 141640Z 16007KT 130V210 10SM FEW041 30/21 A3009 -110 56 1600 160/07 130V210 RMK AO2 T03000206
13976KLFT LFT20190614104510706/14/19 10:45:31  5-MIN KLFT 141645Z 17006KT 10SM SCT043 29/20 A3009 -110 56 1600 170/06 RMK AO2 T02940200
13976KLFT LFT20190614105011406/14/19 10:50:31  5-MIN KLFT 141650Z VRB05KT 10SM FEW043 30/21 A3009 -110 56 1600 VRB/05 RMK AO2 SLP189 T03000206
13976KLFT LFT20190614105510706/14/19 10:55:31  5-MIN KLFT 141655Z 19008KT 10SM FEW041 31/20 A3009 -110 52 1700 190/08 RMK AO2 T03060200
13976KLFT LFT20190614110010706/14/19 11:00:31  5-MIN KLFT 141700Z 20007KT 10SM FEW041 31/20 A3009 -110 52 1700 200/07 RMK AO2 T03060200
13976KLFT LFT20190614110512106/14/19 11:05:31  5-MIN KLFT 141705Z 17007KT 10SM FEW041 SCT050 SCT065 31/20 A3009 -110 52 1700 160/07 RMK AO2 T03060200
13976KLFT LFT20190614111012106/14/19 11:10:31  5-MIN KLFT 141710Z 19008KT 10SM FEW041 FEW050 SCT065 31/20 A3009 -100 52 1700 190/08 RMK AO2 T03060200
13976KLFT LFT20190614111513006/14/19 11:15:31  5-MIN KLFT 141715Z 18007KT 150V210 10SM FEW050 FEW065 31/20 A3009 -100 52 1700 180/07 150V210 RMK AO2 T03060200
13976KLFT LFT20190614112011406/14/19 11:20:31  5-MIN KLFT 141720Z 19008KT 10SM FEW050 FEW065 31/19 A3009 -100 51 1700 190/08 RMK AO2 T03060194
13976KLFT LFT20190614112511406/14/19 11:25:31  5-MIN KLFT 141725Z 20006KT 10SM FEW047 FEW065 31/21 A3009 -100 54 1700 200/06 RMK AO2 T03060206
13976KLFT LFT20190614113011406/14/19 11:30:31  5-MIN KLFT 141730Z 16006KT 10SM FEW045 SCT065 30/20 A3009 -100 54 1600 160/06 RMK AO2 T03000200
13976KLFT LFT20190614113511406/14/19 11:35:31  5-MIN KLFT 141735Z 18006KT 10SM SCT045 SCT070 30/19 A3008 -100 52 1600 180/06 RMK AO2 T03000194
13976KLFT LFT20190614114011406/14/19 11:40:31  5-MIN KLFT 141740Z 18006KT 10SM FEW045 SCT070 31/20 A3008 -100 52 1700 180/06 RMK AO2 T03060200
13976KLFT LFT20190614114511406/14/19 11:45:31  5-MIN KLFT 141745Z 17005KT 10SM FEW046 SCT070 31/21 A3008 -100 54 1700 170/05 RMK AO2 T03060206
13976KLFT LFT20190614115013906/14/19 11:50:31  5-MIN KLFT 141750Z 15006KT 10SM SCT048 BKN070 30/19 A3008 -100 52 1600 150/06 RMK AO2 SLP185 T03000194 10306 20206 51006
13976KLFT LFT20190614115511406/14/19 11:55:31  5-MIN KLFT 141755Z 20008KT 10SM SCT050 BKN070 30/19 A3008 -100 52 1600 200/08 RMK AO2 T03000194
13976KLFT LFT20190614120011306/14/19 12:00:31  5-MIN KLFT 141800Z 17005KT 10SM FEW050 BKN070 31/19 A3008 -90 51 1700 170/05 RMK AO2 T03060194
13976KLFT LFT20190614120511306/14/19 12:05:31  5-MIN KLFT 141805Z 17007KT 10SM SCT055 BKN070 30/19 A3007 -90 51 1600 170/07 RMK AO2 T03000189
13976KLFT LFT20190614121011306/14/19 12:10:31  5-MIN KLFT 141810Z 18007KT 10SM BKN055 BKN070 30/19 A3007 -90 51 1600 180/07 RMK AO2 T03000189
13976KLFT LFT20190614121511306/14/19 12:15:31  5-MIN KLFT 141815Z VRB05KT 10SM BKN055 BKN070 31/19 A3007 -90 49 1700 VRB/05 RMK AO2 T03060189
13976KLFT LFT20190614122011306/14/19 12:20:31  5-MIN KLFT 141820Z 16006KT 10SM SCT060 BKN070 30/18 A3007 -90 49 1700 160/06 RMK AO2 T03000183
13976KLFT LFT20190614122511306/14/19 12:25:31  5-MIN KLFT 141825Z 20009KT 10SM SCT055 BKN070 31/19 A3007 -90 49 1700 200/09 RMK AO2 T03060189
13976KLFT LFT20190614123011306/14/19 12:30:31  5-MIN KLFT 141830Z VRB05KT 10SM FEW055 BKN070 31/19 A3007 -90 47 1800 VRB/05 RMK AO2 T03110189
13976KLFT LFT20190614123511306/14/19 12:35:31  5-MIN KLFT 141835Z 20009KT 10SM FEW055 SCT070 31/19 A3007 -90 49 1800 200/09 RMK AO2 T03110194
13976KLFT LFT20190614124010606/14/19 12:40:31  5-MIN KLFT 141840Z 20007KT 10SM SCT065 31/19 A3007 -90 49 1800 200/07 RMK AO2 T03110194
13976KLFT LFT20190614124510606/14/19 12:45:31  5-MIN KLFT 141845Z 19008KT 10SM FEW065 32/19 A3007 -90 47 1800 190/08 RMK AO2 T03170194
13976KLFT LFT20190614125011306/14/19 12:50:31  5-MIN KLFT 141850Z 20010KT 10SM FEW060 32/19 A3007 -90 47 1800 200/10 RMK AO2 SLP181 T03170194
13976KLFT LFT20190614125510306/14/19 12:55:31  5-MIN KLFT 141855Z 19008KT 10SM CLR 32/19 A3006 -80 46 1800 190/08 RMK AO2 T03170189
13976KLFT LFT20190614130010606/14/19 13:00:31  5-MIN KLFT 141900Z 18009KT 10SM BKN040 31/18 A3006 -80 46 1800 170/09 RMK AO2 T03110183
13976KLFT LFT20190614130511206/14/19 13:05:31  5-MIN KLFT 141905Z 17006G14KT 10SM BKN040 31/18 A3006 -80 47 1700 170/06G14 RMK AO2 T03060183
13976KLFT LFT20190614131010606/14/19 13:10:31  5-MIN KLFT 141910Z VRB06KT 10SM BKN040 32/19 A3006 -80 46 1800 VRB/06 RMK AO2 T03170189
13976KLFT LFT20190614131510606/14/19 13:15:31  5-MIN KLFT 141915Z 21008KT 10SM BKN040 32/19 A3006 -80 46 1800 210/08 RMK AO2 T03170189
13976KLFT LFT20190614132010606/14/19 13:20:31  5-MIN KLFT 141920Z 18008KT 10SM BKN040 32/19 A3005 -70 46 1800 180/08 RMK AO2 T03170189
13976KLFT LFT20190614132510606/14/19 13:25:31  5-MIN KLFT 141925Z 17006KT 10SM BKN040 31/18 A3005 -70 46 1800 170/06 RMK AO2 T03110183
13976KLFT LFT20190614133010606/14/19 13:30:31  5-MIN KLFT 141930Z VRB05KT 10SM BKN040 32/18 A3005 -70 44 1900 VRB/05 RMK AO2 T03170183
13976KLFT LFT20190614133510606/14/19 13:35:31  5-MIN KLFT 141935Z 18008KT 10SM BKN040 32/18 A3005 -70 44 1900 170/08 RMK AO2 T03170183
13976KLFT LFT20190614134010606/14/19 13:40:31  5-MIN KLFT 141940Z 16007KT 10SM BKN040 31/18 A3005 -70 44 1800 160/07 RMK AO2 T03110178
13976KLFT LFT20190614134510606/14/19 13:45:31  5-MIN KLFT 141945Z 21007KT 10SM BKN040 32/18 A3005 -70 43 1900 210/07 RMK AO2 T03170178
13976KLFT LFT20190614135011306/14/19 13:50:31  5-MIN KLFT 141950Z 19006KT 10SM SCT040 32/18 A3005 -70 44 1900 190/06 RMK AO2 SLP174 T03170183
13976KLFT LFT20190614135510306/14/19 13:55:31  5-MIN KLFT 141955Z 17006KT 10SM CLR 32/18 A3004 -60 43 1900 170/06 RMK AO2 T03170178
13976KLFT LFT20190614140010606/14/19 14:00:31  5-MIN KLFT 142000Z 16007KT 10SM SCT040 32/18 A3004 -70 44 1900 160/07 RMK AO2 T03170183
13976KLFT LFT20190614140511206/14/19 14:05:31  5-MIN KLFT 142005Z 20010G16KT 10SM SCT040 32/18 A3004 -60 44 1900 190/10G16 RMK AO2 T03170183
13976KLFT LFT20190614141011206/14/19 14:10:31  5-MIN KLFT 142010Z 22008G16KT 10SM SCT040 32/18 A3004 -60 44 1900 220/08G16 RMK AO2 T03170183
13976KLFT LFT20190614141510606/14/19 14:15:31  5-MIN KLFT 142015Z 21009KT 10SM SCT040 32/18 A3004 -60 43 1900 210/09 RMK AO2 T03220183
13976KLFT LFT20190614142010606/14/19 14:20:31  5-MIN KLFT 142020Z 16004KT 10SM SCT040 32/19 A3004 -60 46 1900 160/04 RMK AO2 T03170189
13976KLFT LFT20190614142509606/14/19 14:25:31  5-MIN KLFT 142025Z 10SM SCT040 32/19 A3004 -60 46 1900 M /M RMK AO2 T03170189
13976KLFT LFT20190614143011206/14/19 14:30:31  5-MIN KLFT 142030Z 21009G16KT 10SM SCT040 32/19 A3004 -60 46 1900 210/09G16 RMK AO2 T03170189
13976KLFT LFT20190614143511206/14/19 14:35:31  5-MIN KLFT 142035Z 21007G16KT 10SM SCT040 32/18 A3004 -60 44 1900 210/07G16 RMK AO2 T03170183
13976KLFT LFT20190614144012206/14/19 14:40:31  5-MIN KLFT 142040Z 18010KT 140V220 10SM SCT040 32/18 A3003 -60 44 1900 180/10 140V220 RMK AO2 T03170183
13976KLFT LFT20190614144510606/14/19 14:45:31  5-MIN KLFT 142045Z 21010KT 10SM SCT040 32/18 A3004 -60 44 1900 210/10 RMK AO2 T03170183
13976KLFT LFT20190614145011906/14/19 14:50:31  5-MIN KLFT 142050Z 19009KT 10SM SCT060 32/19 A3003 -50 46 1900 190/09 RMK AO2 SLP169 T03170189 58009
13976KLFT LFT20190614145510606/14/19 14:55:31  5-MIN KLFT 142055Z 16008KT 10SM SCT060 31/19 A3003 -50 47 1800 160/08 RMK AO2 T03110189
13976KLFT LFT20190614150010606/14/19 15:00:31  5-MIN KLFT 142100Z 21013KT 10SM FEW060 32/19 A3003 -50 46 1900 210/13 RMK AO2 T03170189
13976KLFT LFT20190614150511206/14/19 15:05:31  5-MIN KLFT 142105Z 19008G16KT 10SM FEW060 32/19 A3003 -50 46 1900 190/08G16 RMK AO2 T03170189
13976KLFT LFT20190614151010606/14/19 15:10:31  5-MIN KLFT 142110Z 20008KT 10SM FEW060 32/19 A3003 -50 46 1900 200/08 RMK AO2 T03170189
13976KLFT LFT20190614151511206/14/19 15:15:31  5-MIN KLFT 142115Z 16006G15KT 10SM FEW055 31/19 A3003 -50 47 1800 160/06G15 RMK AO2 T03110189
13976KLFT LFT20190614152010306/14/19 15:20:31  5-MIN KLFT 142120Z 18009KT 10SM CLR 32/18 A3003 -50 44 1900 180/09 RMK AO2 T03170183
13976KLFT LFT20190614152510306/14/19 15:25:31  5-MIN KLFT 142125Z 20010KT 10SM CLR 32/18 A3002 -40 44 1900 200/10 RMK AO2 T03170183
13976KLFT LFT20190614153010306/14/19 15:30:31  5-MIN KLFT 142130Z 19009KT 10SM CLR 32/18 A3002 -40 44 1900 190/09 RMK AO2 T03170183
13976KLFT LFT20190614153510306/14/19 15:35:31  5-MIN KLFT 142135Z 18007KT 10SM CLR 31/18 A3002 -40 46 1800 180/07 RMK AO2 T03110183
13976KLFT LFT20190614154010306/14/19 15:40:31  5-MIN KLFT 142140Z VRB06KT 10SM CLR 31/18 A3002 -40 44 1800 VRB/06 RMK AO2 T03110178
13976KLFT LFT20190614154510306/14/19 15:45:31  5-MIN KLFT 142145Z 21008KT 10SM CLR 32/18 A3002 -40 44 1900 210/08 RMK AO2 T03170183
13976KLFT LFT20190614155011306/14/19 15:50:31  5-MIN KLFT 142150Z 21009KT 10SM FEW060 32/18 A3002 -40 43 1900 210/09 RMK AO2 SLP164 T03170178
13976KLFT LFT20190614155510606/14/19 15:55:31  5-MIN KLFT 142155Z 21008KT 10SM FEW055 32/18 A3002 -40 44 1900 210/08 RMK AO2 T03170183
13976KLFT LFT20190614160010606/14/19 16:00:31  5-MIN KLFT 142200Z 20010KT 10SM FEW055 32/19 A3002 -40 47 1900 200/10 RMK AO2 T03170194
13976KLFT LFT20190614160510306/14/19 16:05:31  5-MIN KLFT 142205Z 21011KT 10SM CLR 31/20 A3001 -40 51 1800 210/11 RMK AO2 T03110200
13976KLFT LFT20190630160510306/30/19 16:05:31  5-MIN KLFT 302205Z 21003KT 10SM CLR 30/21 A3000 -20 58 1700 200/03 RMK AO2 T03000211
13976KLFT LFT20190630161010306/30/19 16:10:31  5-MIN KLFT 302210Z 25003KT 10SM CLR 30/21 A3000 -20 58 1700 250/03 RMK AO2 T03000211
13976KLFT LFT20190630161510306/30/19 16:15:31  5-MIN KLFT 302215Z 00000KT 10SM CLR 31/21 A3000 -20 54 1800 000/00 RMK AO2 T03060206
13976KLFT LFT20190630162010306/30/19 16:20:31  5-MIN KLFT 302220Z 27004KT 10SM CLR 31/21 A3000 -20 56 1800 270/04 RMK AO2 T03060211
13976KLFT LFT20190630162510306/30/19 16:25:31  5-MIN KLFT 302225Z 23005KT 10SM CLR 31/22 A3000 -20 58 1800 230/05 RMK AO2 T03060217
13976KLFT LFT20190630163010306/30/19 16:30:31  5-MIN KLFT 302230Z VRB03KT 10SM CLR 31/22 A3000 -20 58 1800 VRB/03 RMK AO2 T03060217
13976KLFT LFT20190630163510606/30/19 16:35:31  5-MIN KLFT 302235Z 26004KT 10SM FEW075 30/22 A3000 -20 60 1700 260/04 RMK AO2 T03000217
13976KLFT LFT20190630164010606/30/19 16:40:31  5-MIN KLFT 302240Z 23004KT 10SM FEW070 30/22 A3000 -20 60 1700 230/04 RMK AO2 T03000217
13976KLFT LFT20190630164511306/30/19 16:45:31  5-MIN KLFT 302245Z 25007KT 10SM FEW037 SCT070 30/22 A3000 -20 62 1700 240/07 RMK AO2 T03000222
13976KLFT LFT20190630165012006/30/19 16:50:31  5-MIN KLFT 302250Z 27009KT 10SM SCT037 SCT065 31/22 A3000 -20 60 1800 270/09 RMK AO2 SLP157 T03060222
13976KLFT LFT20190630165511306/30/19 16:55:31  5-MIN KLFT 302255Z 26009KT 10SM SCT036 SCT065 31/22 A3000 -20 60 1800 250/09 RMK AO2 T03060222
13976KLFT LFT20190630170011306/30/19 17:00:31  5-MIN KLFT 302300Z 27008KT 10SM SCT036 SCT065 30/22 A2999 -20 62 1700 270/08 RMK AO2 T03000222
13976KLFT LFT20190630170511306/30/19 17:05:31  5-MIN KLFT 302305Z 24009KT 10SM FEW036 SCT065 31/22 A2999 -20 60 1800 240/09 RMK AO2 T03060222
13976KLFT LFT20190630171010606/30/19 17:10:31  5-MIN KLFT 302310Z 25007KT 10SM FEW036 30/22 A2999 -20 62 1700 250/07 RMK AO2 T03000222
13976KLFT LFT20190630171510606/30/19 17:15:31  5-MIN KLFT 302315Z 24005KT 10SM FEW036 29/22 A2999 -10 64 1700 240/05 RMK AO2 T02940222
13976KLFT LFT20190630172010606/30/19 17:20:31  5-MIN KLFT 302320Z 24003KT 10SM FEW036 30/22 A2999 -10 62 1700 240/03 RMK AO2 T03000222
13976KLFT LFT20190630172510306/30/19 17:25:31  5-MIN KLFT 302325Z 00000KT 10SM CLR 29/22 A2998 -10 64 1700 000/00 RMK AO2 T02940222
13976KLFT LFT20190630173010306/30/19 17:30:31  5-MIN KLFT 302330Z 00000KT 10SM CLR 30/22 A2998 -10 62 1700 000/00 RMK AO2 T03000222
13976KLFT LFT20190630173510306/30/19 17:35:31  5-MIN KLFT 302335Z 00000KT 10SM CLR 29/22 A2998 -10 64 1700 000/00 RMK AO2 T02940222
13976KLFT LFT20190630174010306/30/19 17:40:31  5-MIN KLFT 302340Z 00000KT 10SM CLR 30/23 A2998 -10 65 1700 000/00 RMK AO2 T03000228
13976KLFT LFT20190630174510306/30/19 17:45:31  5-MIN KLFT 302345Z 00000KT 10SM CLR 30/23 A2998 -10 65 1700 000/00 RMK AO2 T03000228
13976KLFT LFT20190630175012806/30/19 17:50:31  5-MIN KLFT 302350Z 00000KT 10SM CLR 29/22 A2999 -10 64 1700 000/00 RMK AO2 SLP153 T02940222 10311 20294 58013
13976KLFT LFT20190630175510306/30/19 17:55:31  5-MIN KLFT 302355Z 23005KT 10SM CLR 30/22 A2999 -20 62 1700 230/05 RMK AO2 T03000222
13976KLFT LFT20190630180010306/30/19 18:00:31  5-MIN KLFT 010000Z 24005KT 10SM CLR 29/22 A2999 -20 64 1700 240/05 RMK AO2 T02940222
13976KLFT LFT20190630180510306/30/19 18:05:31  5-MIN KLFT 010005Z 27005KT 10SM CLR 30/22 A2999 -10 62 1700 270/05 RMK AO2 T03000222
13976KLFT LFT20190630181010306/30/19 18:10:31  5-MIN KLFT 010010Z 29004KT 10SM CLR 30/22 A2999 -10 62 1700 290/04 RMK AO2 T03000222
13976KLFT LFT20190630181510306/30/19 18:15:31  5-MIN KLFT 010015Z 27004KT 10SM CLR 29/22 A2999 -10 62 1700 270/04 RMK AO2 T02940217
13976KLFT LFT20190630182010306/30/19 18:20:31  5-MIN KLFT 010020Z 26005KT 10SM CLR 29/22 A2999 -10 64 1700 260/05 RMK AO2 T02940222
13976KLFT LFT20190630182510306/30/19 18:25:31  5-MIN KLFT 010025Z 26005KT 10SM CLR 29/22 A2999 -20 64 1700 260/05 RMK AO2 T02940222
13976KLFT LFT20190630183010306/30/19 18:30:31  5-MIN KLFT 010030Z 24006KT 10SM CLR 29/22 A2999 -20 64 1700 240/06 RMK AO2 T02940222
13976KLFT LFT20190630183510306/30/19 18:35:31  5-MIN KLFT 010035Z 24006KT 10SM CLR 29/22 A3000 -20 67 1600 230/06 RMK AO2 T02890222
13976KLFT LFT20190630184010306/30/19 18:40:31  5-MIN KLFT 010040Z 25004KT 10SM CLR 29/22 A3000 -20 67 1600 250/04 RMK AO2 T02890222
13976KLFT LFT20190630184510306/30/19 18:45:31  5-MIN KLFT 010045Z 25005KT 10SM CLR 28/22 A3000 -20 69 1500 250/05 RMK AO2 T02830222
13976KLFT LFT20190630185011006/30/19 18:50:31  5-MIN KLFT 010050Z 24005KT 10SM CLR 28/22 A3000 -20 66 1500 240/05 RMK AO2 SLP158 T02830217
13976KLFT LFT20190630185510306/30/19 18:55:31  5-MIN KLFT 010055Z 24005KT 10SM CLR 28/22 A3000 -20 71 1500 240/05 RMK AO2 T02780222
13976KLFT LFT20190630190010306/30/19 19:00:31  5-MIN KLFT 010100Z 24005KT 10SM CLR 28/22 A3000 -30 69 1500 240/05 RMK AO2 T02780217
13976KLFT LFT20190630190510306/30/19 19:05:31  5-MIN KLFT 010105Z 25004KT 10SM CLR 28/22 A3000 -30 66 1500 250/04 RMK AO2 T02830217
13976KLFT LFT20190630191010306/30/19 19:10:31  5-MIN KLFT 010110Z 26005KT 10SM CLR 28/22 A3000 -30 69 1500 260/05 RMK AO2 T02780217
13976KLFT LFT20190630191510306/30/19 19:15:31  5-MIN KLFT 010115Z 25005KT 10SM CLR 28/22 A3000 -30 69 1500 250/05 RMK AO2 T02780217
13976KLFT LFT20190630192010306/30/19 19:20:31  5-MIN KLFT 010120Z 24005KT 10SM CLR 28/22 A3001 -30 69 1500 240/05 RMK AO2 T02780217
13976KLFT LFT20190630192510306/30/19 19:25:31  5-MIN KLFT 010125Z 24005KT 10SM CLR 27/22 A3001 -30 71 1400 230/05 RMK AO2 T02720217
13976KLFT LFT20190630193010306/30/19 19:30:31  5-MIN KLFT 010130Z 22005KT 10SM CLR 27/22 A3001 -30 76 1300 220/05 RMK AO2 T02670222
13976KLFT LFT20190630193510306/30/19 19:35:31  5-MIN KLFT 010135Z 23004KT 10SM CLR 27/22 A3001 -30 76 1300 230/04 RMK AO2 T02670222
13976KLFT LFT20190630194010306/30/19 19:40:31  5-MIN KLFT 010140Z 24004KT 10SM CLR 27/22 A3001 -30 76 1300 240/04 RMK AO2 T02670222
13976KLFT LFT20190630194510306/30/19 19:45:31  5-MIN KLFT 010145Z 24004KT 10SM CLR 27/22 A3001 -30 73 1300 240/04 RMK AO2 T02670217
13976KLFT LFT20190630195011006/30/19 19:50:31  5-MIN KLFT 010150Z 24005KT 10SM CLR 27/22 A3001 -40 73 1300 240/05 RMK AO2 SLP162 T02670217
13976KLFT LFT20190630195510806/30/19 19:55:31  5-MIN KLFT 010155Z AUTO 23004KT 10SM CLR 26/22 A3001 -40 79 1300 220/04 RMK AO2 T02610222
13976KLFT LFT20190630200010806/30/19 20:00:31  5-MIN KLFT 010200Z AUTO 22004KT 10SM CLR 26/22 A3001 -40 76 1300 220/04 RMK AO2 T02610217
13976KLFT LFT20190630200510806/30/19 20:05:31  5-MIN KLFT 010205Z AUTO 21004KT 10SM CLR 27/22 A3001 -40 73 1300 200/04 RMK AO2 T02670217
13976KLFT LFT20190630201010806/30/19 20:10:31  5-MIN KLFT 010210Z AUTO 21004KT 10SM CLR 27/22 A3002 -40 73 1300 210/04 RMK AO2 T02670217
13976KLFT LFT20190630201510806/30/19 20:15:31  5-MIN KLFT 010215Z AUTO 00000KT 10SM CLR 26/22 A3002 -40 76 1300 000/00 RMK AO2 T02610217
13976KLFT LFT20190630202010806/30/19 20:20:31  5-MIN KLFT 010220Z AUTO 00000KT 10SM CLR 26/22 A3002 -40 79 1300 000/00 RMK AO2 T02610222
13976KLFT LFT20190630202510806/30/19 20:25:31  5-MIN KLFT 010225Z AUTO 00000KT 10SM CLR 26/23 A3002 -40 84 1300 000/00 RMK AO2 T02610233
13976KLFT LFT20190630203010806/30/19 20:30:31  5-MIN KLFT 010230Z AUTO 00000KT 10SM CLR 26/23 A3002 -40 81 1300 000/00 RMK AO2 T02610228
13976KLFT LFT20190630203510806/30/19 20:35:31  5-MIN KLFT 010235Z AUTO 00000KT 10SM CLR 26/23 A3002 -50 84 1300 000/00 RMK AO2 T02610233
13976KLFT LFT20190630204010806/30/19 20:40:31  5-MIN KLFT 010240Z AUTO 00000KT 10SM CLR 26/24 A3002 -50 87 1300 000/00 RMK AO2 T02610239
13976KLFT LFT20190630204510806/30/19 20:45:31  5-MIN KLFT 010245Z AUTO 00000KT 10SM CLR 26/24 A3003 -50 87 1300 000/00 RMK AO2 T02610239
13976KLFT LFT20190630205011606/30/19 20:50:31  5-MIN KLFT 010250Z 00000KT 10SM CLR 26/24 A3003 -50 87 1300 000/00 RMK AO2 SLP168 T02610239 56011
13976KLFT LFT20190630205510806/30/19 20:55:31  5-MIN KLFT 010255Z AUTO 00000KT 10SM CLR 26/24 A3003 -50 87 1300 000/00 RMK AO2 T02610239
13976KLFT LFT20190630210010806/30/19 21:00:31  5-MIN KLFT 010300Z AUTO 00000KT 10SM CLR 26/24 A3003 -50 90 1200 000/00 RMK AO2 T02560239
13976KLFT LFT20190630210510806/30/19 21:05:31  5-MIN KLFT 010305Z AUTO 17003KT 10SM CLR 26/24 A3003 -60 90 1200 170/03 RMK AO2 T02560239
13976KLFT LFT20190630211010806/30/19 21:10:31  5-MIN KLFT 010310Z AUTO 17003KT 10SM CLR 26/24 A3003 -60 90 1200 170/03 RMK AO2 T02560239
13976KLFT LFT20190630211510706/30/19 21:15:31  5-MIN KLFT 010315Z AUTO 16003KT 9SM CLR 26/23 A3004 -60 84 1200 160/03 RMK AO2 T02610233
13976KLFT LFT20190630212010706/30/19 21:20:31  5-MIN KLFT 010320Z AUTO 00000KT 9SM CLR 26/24 A3004 -60 90 1200 000/00 RMK AO2 T02560239
13976KLFT LFT20190630212510706/30/19 21:25:31  5-MIN KLFT 010325Z AUTO 00000KT 9SM CLR 26/24 A3004 -60 90 1200 000/00 RMK AO2 T02560239
13976KLFT LFT20190630213010806/30/19 21:30:31  5-MIN KLFT 010330Z AUTO 00000KT 10SM CLR 26/24 A3004 -60 90 1200 000/00 RMK AO2 T02560239
13976KLFT LFT20190630213510806/30/19 21:35:31  5-MIN KLFT 010335Z AUTO 20003KT 10SM CLR 26/23 A3004 -60 87 1200 200/03 RMK AO2 T02560233
13976KLFT LFT20190630214010806/30/19 21:40:31  5-MIN KLFT 010340Z AUTO 00000KT 10SM CLR 26/23 A3004 -60 84 1200 000/00 RMK AO2 T02610233
13976KLFT LFT20190630214510806/30/19 21:45:31  5-MIN KLFT 010345Z AUTO 00000KT 10SM CLR 26/24 A3004 -70 90 1200 000/00 RMK AO2 T02560239
13976KLFT LFT20190630215011406/30/19 21:50:31  5-MIN KLFT 010350Z AUTO 00000KT 9SM CLR 26/24 A3004 -70 90 1200 000/00 RMK AO2 SLP173 T02560239
13976KLFT LFT20190630215510806/30/19 21:55:31  5-MIN KLFT 010355Z AUTO 00000KT 10SM CLR 25/24 A3005 -70 93 1100 000/00 RMK AO2 T02500239
13976KLFT LFT20190630220010806/30/19 22:00:31  5-MIN KLFT 010400Z AUTO 00000KT 10SM CLR 25/24 A3005 -70 93 1100 000/00 RMK AO2 T02500239
13976KLFT LFT20190630220510806/30/19 22:05:31  5-MIN KLFT 010405Z AUTO 00000KT 10SM CLR 25/24 A3005 -70 93 1100 000/00 RMK AO2 T02500239
13976KLFT LFT20190630221010706/30/19 22:10:31  5-MIN KLFT 010410Z AUTO 00000KT 9SM CLR 25/24 A3005 -70 93 1100 000/00 RMK AO2 T02500239
13976KLFT LFT20190630221510706/30/19 22:15:31  5-MIN KLFT 010415Z AUTO 00000KT 9SM CLR 25/24 A3005 -70 93 1100 000/00 RMK AO2 T02500239
13976KLFT LFT20190630222010706/30/19 22:20:31  5-MIN KLFT 010420Z AUTO 00000KT 9SM CLR 25/24 A3005 -70 93 1100 000/00 RMK AO2 T02500239
13976KLFT LFT20190630222510706/30/19 22:25:31  5-MIN KLFT 010425Z AUTO 00000KT 9SM CLR 25/24 A3004 -70 93 1100 000/00 RMK AO2 T02500239
13976KLFT LFT20190630223010706/30/19 22:30:31  5-MIN KLFT 010430Z AUTO 00000KT 9SM CLR 25/24 A3004 -60 93 1100 000/00 RMK AO2 T02500239
13976KLFT LFT20190630223510706/30/19 22:35:31  5-MIN KLFT 010435Z AUTO 00000KT 9SM CLR 25/24 A3004 -70 93 1100 000/00 RMK AO2 T02500239
13976KLFT LFT20190630224010806/30/19 22:40:31  5-MIN KLFT 010440Z AUTO 00000KT 10SM CLR 25/24 A3005 -70 93 1100 000/00 RMK AO2 T02500239
13976KLFT LFT20190630224510806/30/19 22:45:31  5-MIN KLFT 010445Z AUTO 21003KT 10SM CLR 25/23 A3005 -70 90 1100 210/03 RMK AO2 T02500233
13976KLFT LFT20190630225011506/30/19 22:50:31  5-MIN KLFT 010450Z AUTO 00000KT 10SM CLR 25/23 A3005 -70 90 1100 000/00 RMK AO2 SLP175 T02500233
13976KLFT LFT20190630225510806/30/19 22:55:31  5-MIN KLFT 010455Z AUTO 20003KT 10SM CLR 25/23 A3005 -70 87 1100 200/03 RMK AO2 T02500228
13976KLFT LFT20190630230010806/30/19 23:00:31  5-MIN KLFT 010500Z AUTO 00000KT 10SM CLR 25/23 A3005 -70 87 1100 000/00 RMK AO2 T02500228
13976KLFT LFT20190630230510806/30/19 23:05:31  5-MIN KLFT 010505Z AUTO 20003KT 10SM CLR 25/22 A3005 -70 84 1100 200/03 RMK AO2 T02500222
13976KLFT LFT20190630231010806/30/19 23:10:31  5-MIN KLFT 010510Z AUTO 20003KT 10SM CLR 24/22 A3005 -70 87 1000 200/03 RMK AO2 T02440222
13976KLFT LFT20190630231510806/30/19 23:15:31  5-MIN KLFT 010515Z AUTO 20004KT 10SM CLR 25/22 A3005 -70 84 1100 200/04 RMK AO2 T02500222
13976KLFT LFT20190630232010806/30/19 23:20:31  5-MIN KLFT 010520Z AUTO 21004KT 10SM CLR 24/22 A3005 -70 87 1000 210/04 RMK AO2 T02440222
13976KLFT LFT20190630232510806/30/19 23:25:31  5-MIN KLFT 010525Z AUTO 22004KT 10SM CLR 24/22 A3005 -70 90 1000 220/04 RMK AO2 T02390222
13976KLFT LFT20190630233010806/30/19 23:30:31  5-MIN KLFT 010530Z AUTO 22004KT 10SM CLR 24/22 A3005 -70 90 1000 220/04 RMK AO2 T02390222
13976KLFT LFT20190630233510806/30/19 23:35:31  5-MIN KLFT 010535Z AUTO 21003KT 10SM CLR 24/22 A3005 -70 87 1000 210/03 RMK AO2 T02440222
13976KLFT LFT20190630234010806/30/19 23:40:31  5-MIN KLFT 010540Z AUTO 21004KT 10SM CLR 24/22 A3005 -70 87 1000 210/04 RMK AO2 T02440222
13976KLFT LFT20190630234510806/30/19 23:45:31  5-MIN KLFT 010545Z AUTO 19004KT 10SM CLR 24/22 A3005 -70 87 1000 190/04 RMK AO2 T02440222
13976KLFT LFT20190630235014306/30/19 23:50:31  5-MIN KLFT 010550Z AUTO 17003KT 10SM CLR 25/23 A3005 -70 87 1100 170/03 RMK AO2 SLP174 T02500228 10300 20239 403110228 53015
13976KLFT LFT20190630235510806/30/19 23:55:31  5-MIN KLFT 010555Z AUTO 00000KT 10SM CLR 25/23 A3005 -70 90 1100 000/00 RMK AO2 T02500233
