53988KBKB BKB20190401000011004/01/19 00:00:31  5-MIN KBKB 010600Z AUTO 00000KT 10SM CLR 03/02 A3022 20 92 -1300 000/00 RMK AO2 T00330022 $
53988KBKB BKB20190401000511004/01/19 00:05:31  5-MIN KBKB 010605Z AUTO 00000KT 10SM CLR 04/02 A3022 30 89 -1200 000/00 RMK AO2 T00390022 $
53988KBKB BKB20190401001011004/01/19 00:10:31  5-MIN KBKB 010610Z AUTO 00000KT 10SM CLR 04/02 A3022 30 85 -1200 000/00 RMK AO2 T00390017 $
53988KBKB BKB20190401001511004/01/19 00:15:31  5-MIN KBKB 010615Z AUTO 00000KT 10SM CLR 04/02 A3021 30 85 -1200 000/00 RMK AO2 T00390017 $
53988KBKB BKB20190401002011004/01/19 00:20:31  5-MIN KBKB 010620Z AUTO 00000KT 10SM CLR 03/02 A3021 30 92 -1300 000/00 RMK AO2 T00330022 $
53988KBKB BKB20190401002511004/01/19 00:25:31  5-MIN KBKB 010625Z AUTO 00000KT 10SM CLR 04/02 A3021 30 85 -1200 000/00 RMK AO2 T00390017 $
53988KBKB BKB20190401003011004/01/19 00:30:31  5-MIN KBKB 010630Z AUTO 00000KT 10SM CLR 03/02 A3021 30 89 -1300 000/00 RMK AO2 T00330017 $
53988KBKB BKB20190401003511004/01/19 00:35:31  5-MIN KBKB 010635Z AUTO 00000KT 10SM CLR 03/02 A3021 30 89 -1300 000/00 RMK AO2 T00330017 $
53988KBKB BKB20190401004011004/01/19 00:40:31  5-MIN KBKB 010640Z AUTO 00000KT 10SM CLR 03/02 A3021 30 89 -1300 000/00 RMK AO2 T00330017 $
53988KBKB BKB20190401004511004/01/19 00:45:31  5-MIN KBKB 010645Z AUTO 00000KT 10SM CLR 04/02 A3021 30 85 -1200 000/00 RMK AO2 T00390017 $
53988KBKB BKB20190401005011704/01/19 00:50:31  5-MIN KBKB 010650Z AUTO 00000KT 10SM CLR 04/02 A3021 30 85 -1200 000/00 RMK AO2 SLP260 T00390017 $
53988KBKB BKB20190401005511004/01/19 00:55:31  5-MIN KBKB 010655Z AUTO 00000KT 10SM CLR 04/02 A3021 30 85 -1200 000/00 RMK AO2 T00390017 $
53988KBKB BKB20190401010011004/01/19 01:00:31  5-MIN KBKB 010700Z AUTO 00000KT 10SM CLR 04/01 A3021 30 82 -1200 000/00 RMK AO2 T00390011 $
53988KBKB BKB20190401010511004/01/19 01:05:31  5-MIN KBKB 010705Z AUTO 00000KT 10SM CLR 04/01 A3021 30 82 -1200 000/00 RMK AO2 T00390011 $
53988KBKB BKB20190401011011004/01/19 01:10:31  5-MIN KBKB 010710Z AUTO 00000KT 10SM CLR 04/02 A3021 30 85 -1200 000/00 RMK AO2 T00390017 $
53988KBKB BKB20190401011511004/01/19 01:15:31  5-MIN KBKB 010715Z AUTO 00000KT 10SM CLR 04/01 A3021 40 82 -1200 000/00 RMK AO2 T00390011 $
53988KBKB BKB20190401012011004/01/19 01:20:31  5-MIN KBKB 010720Z AUTO 00000KT 10SM CLR 04/01 A3021 30 82 -1200 000/00 RMK AO2 T00390011 $
53988KBKB BKB20190401012511004/01/19 01:25:31  5-MIN KBKB 010725Z AUTO 00000KT 10SM CLR 03/01 A3021 40 85 -1300 000/00 RMK AO2 T00330011 $
53988KBKB BKB20190401013011004/01/19 01:30:31  5-MIN KBKB 010730Z AUTO 00000KT 10SM CLR 03/02 A3020 40 89 -1300 000/00 RMK AO2 T00330017 $
53988KBKB BKB20190401013511004/01/19 01:35:31  5-MIN KBKB 010735Z AUTO 00000KT 10SM CLR 03/02 A3020 40 89 -1300 000/00 RMK AO2 T00330017 $
53988KBKB BKB20190401014011004/01/19 01:40:31  5-MIN KBKB 010740Z AUTO 00000KT 10SM CLR 03/02 A3020 40 89 -1300 000/00 RMK AO2 T00330017 $
53988KBKB BKB20190401014511004/01/19 01:45:31  5-MIN KBKB 010745Z AUTO 00000KT 10SM CLR 03/02 A3020 40 89 -1300 000/00 RMK AO2 T00330017 $
53988KBKB BKB20190401015011604/01/19 01:50:31  5-MIN KBKB 010750Z AUTO 00000KT 10SM CLR 03/01 A3020 40 85 -1300 000/00 RMK AO2 SLPNO T00330011 $
53988KBKB BKB20190401015511004/01/19 01:55:31  5-MIN KBKB 010755Z AUTO 00000KT 10SM CLR 03/01 A3020 40 85 -1300 000/00 RMK AO2 T00330011 $
53988KBKB BKB20190401020011004/01/19 02:00:31  5-MIN KBKB 010800Z AUTO 00000KT 10SM CLR 03/01 A3021 40 85 -1300 000/00 RMK AO2 T00330011 $
53988KBKB BKB20190401020511004/01/19 02:05:31  5-MIN KBKB 010805Z AUTO 00000KT 10SM CLR 03/01 A3020 40 85 -1300 000/00 RMK AO2 T00330011 $
53988KBKB BKB20190401021011004/01/19 02:10:31  5-MIN KBKB 010810Z AUTO 00000KT 10SM CLR 03/01 A3021 40 85 -1300 000/00 RMK AO2 T00330011 $
53988KBKB BKB20190401021511004/01/19 02:15:31  5-MIN KBKB 010815Z AUTO 00000KT 10SM CLR 03/01 A3020 40 85 -1300 000/00 RMK AO2 T00330011 $
53988KBKB BKB20190401022011004/01/19 02:20:31  5-MIN KBKB 010820Z AUTO 00000KT 10SM CLR 03/01 A3020 40 85 -1300 000/00 RMK AO2 T00330011 $
53988KBKB BKB20190401022511004/01/19 02:25:31  5-MIN KBKB 010825Z AUTO 00000KT 10SM CLR 03/01 A3020 40 89 -1300 000/00 RMK AO2 T00280011 $
53988KBKB BKB20190401023011004/01/19 02:30:31  5-MIN KBKB 010830Z AUTO 00000KT 10SM CLR 03/01 A3020 40 89 -1300 000/00 RMK AO2 T00280011 $
53988KBKB BKB20190401023511004/01/19 02:35:31  5-MIN KBKB 010835Z AUTO 00000KT 10SM CLR 03/01 A3020 40 89 -1300 000/00 RMK AO2 T00280011 $
53988KBKB BKB20190401024011004/01/19 02:40:31  5-MIN KBKB 010840Z AUTO 00000KT 10SM CLR 02/01 A3020 40 92 -1400 000/00 RMK AO2 T00220011 $
53988KBKB BKB20190401024511004/01/19 02:45:31  5-MIN KBKB 010845Z AUTO 00000KT 10SM CLR 02/01 A3021 30 92 -1400 000/00 RMK AO2 T00220011 $
53988KBKB BKB20190401025012304/01/19 02:50:31  5-MIN KBKB 010850Z AUTO 00000KT 10SM CLR 02/01 A3021 30 92 -1400 000/00 RMK AO2 SLP261 T00220011 58006 $
53988KBKB BKB20190401025511004/01/19 02:55:31  5-MIN KBKB 010855Z AUTO 00000KT 10SM CLR 02/01 A3021 30 92 -1400 000/00 RMK AO2 T00220011 $
53988KBKB BKB20190401030011004/01/19 03:00:31  5-MIN KBKB 010900Z AUTO 00000KT 10SM CLR 02/01 A3021 30 96 -1500 000/00 RMK AO2 T00170011 $
53988KBKB BKB20190401030511004/01/19 03:05:31  5-MIN KBKB 010905Z AUTO 00000KT 10SM CLR 02/01 A3021 30 92 -1500 000/00 RMK AO2 T00170006 $
53988KBKB BKB20190401031011004/01/19 03:10:31  5-MIN KBKB 010910Z AUTO 00000KT 10SM CLR 02/01 A3021 30 92 -1400 000/00 RMK AO2 T00220011 $
53988KBKB BKB20190401031511004/01/19 03:15:31  5-MIN KBKB 010915Z AUTO 00000KT 10SM CLR 02/01 A3021 30 92 -1400 000/00 RMK AO2 T00220011 $
53988KBKB BKB20190401032011004/01/19 03:20:31  5-MIN KBKB 010920Z AUTO 00000KT 10SM CLR 02/01 A3021 30 89 -1400 000/00 RMK AO2 T00220006 $
53988KBKB BKB20190401032511004/01/19 03:25:31  5-MIN KBKB 010925Z AUTO 00000KT 10SM CLR 02/01 A3021 30 92 -1400 000/00 RMK AO2 T00220011 $
53988KBKB BKB20190401033011004/01/19 03:30:31  5-MIN KBKB 010930Z AUTO 00000KT 10SM CLR 02/01 A3021 40 89 -1400 000/00 RMK AO2 T00220006 $
53988KBKB BKB20190401033511004/01/19 03:35:31  5-MIN KBKB 010935Z AUTO 00000KT 10SM CLR 02/01 A3020 40 89 -1400 000/00 RMK AO2 T00220006 $
53988KBKB BKB20190401034011004/01/19 03:40:31  5-MIN KBKB 010940Z AUTO 00000KT 10SM CLR 02/01 A3020 40 89 -1400 000/00 RMK AO2 T00220006 $
53988KBKB BKB20190401034511004/01/19 03:45:31  5-MIN KBKB 010945Z AUTO 00000KT 10SM CLR 02/01 A3020 40 92 -1500 000/00 RMK AO2 T00170006 $
53988KBKB BKB20190401035011704/01/19 03:50:31  5-MIN KBKB 010950Z AUTO 00000KT 10SM CLR 02/01 A3020 40 92 -1500 000/00 RMK AO2 SLP259 T00170006 $
53988KBKB BKB20190401035511004/01/19 03:55:31  5-MIN KBKB 010955Z AUTO 00000KT 10SM CLR 02/01 A3020 40 89 -1400 000/00 RMK AO2 T00220006 $
53988KBKB BKB20190401040011004/01/19 04:00:31  5-MIN KBKB 011000Z AUTO 00000KT 10SM CLR 02/01 A3020 40 92 -1500 000/00 RMK AO2 T00170006 $
53988KBKB BKB20190401040511004/01/19 04:05:31  5-MIN KBKB 011005Z AUTO 00000KT 10SM CLR 02/01 A3021 40 92 -1500 000/00 RMK AO2 T00170006 $
53988KBKB BKB20190401041007504/01/19 04:10:31  5-MIN KBKB 011010Z AUTO 00000KT 10SM CLR 02/01 A3021 40 
53988KBKB BKB20190401073011004/01/19 07:30:31  5-MIN KBKB 011330Z AUTO VRB06KT 10SM CLR 06/02 A3024 10 76 -1000 VRB/06 RMK AO2 T00560017 $
53988KBKB BKB20190401073510904/01/19 07:35:31  5-MIN KBKB 011335Z AUTO VRB04KT 10SM CLR 06/02 A3024 0 76 -1000 VRB/04 RMK AO2 T00610022 $
53988KBKB BKB20190401074012204/01/19 07:40:31  5-MIN KBKB 011340Z AUTO 06004KT 10SM TS FEW120 06/02 A3024 10 73 -1000 060/04 RMK AO2 TSB40 T00610017 $
53988KBKB BKB20190401074512104/01/19 07:45:31  5-MIN KBKB 011345Z AUTO VRB04KT 10SM TS FEW120 07/02 A3023 10 73 -900 VRB/04 RMK AO2 TSB40 T00670022 $
53988KBKB BKB20190401075012804/01/19 07:50:31  5-MIN KBKB 011350Z AUTO VRB03KT 10SM TS FEW120 07/02 A3023 20 73 -900 VRB/03 RMK AO2 TSB40 SLP267 T00670022 $
53988KBKB BKB20190401075511804/01/19 07:55:31  5-MIN KBKB 011355Z AUTO 00000KT 10SM FEW120 07/02 A3023 10 70 -800 000/00 RMK AO2 TSE55 T00720022 $
53988KBKB BKB20190401080012004/01/19 08:00:31  5-MIN KBKB 011400Z AUTO VRB04KT 10SM FEW120 07/02 A3023 10 70 -900 VRB/04 RMK AO2 TSE1355 T00670017 $
53988KBKB BKB20190401080512004/01/19 08:05:31  5-MIN KBKB 011405Z AUTO VRB03KT 10SM FEW120 07/02 A3023 10 70 -800 VRB/03 RMK AO2 TSE1355 T00720022 $
53988KBKB BKB20190401081011704/01/19 08:10:31  5-MIN KBKB 011410Z AUTO VRB04KT 10SM CLR 08/02 A3024 10 68 -800 VRB/04 RMK AO2 TSE1355 T00780022 $
53988KBKB BKB20190401081511704/01/19 08:15:31  5-MIN KBKB 011415Z AUTO VRB04KT 10SM CLR 08/02 A3024 10 68 -800 VRB/04 RMK AO2 TSE1355 T00780022 $
53988KBKB BKB20190401082011704/01/19 08:20:31  5-MIN KBKB 011420Z AUTO VRB04KT 10SM CLR 08/02 A3024 10 65 -700 VRB/04 RMK AO2 TSE1355 T00830022 $
53988KBKB BKB20190401082511704/01/19 08:25:31  5-MIN KBKB 011425Z AUTO VRB04KT 10SM CLR 09/02 A3024 10 63 -600 VRB/04 RMK AO2 TSE1355 T00890022 $
53988KBKB BKB20190401083011704/01/19 08:30:31  5-MIN KBKB 011430Z AUTO VRB04KT 10SM CLR 08/02 A3023 10 65 -700 VRB/04 RMK AO2 TSE1355 T00830022 $
53988KBKB BKB20190401083511704/01/19 08:35:31  5-MIN KBKB 011435Z AUTO VRB04KT 10SM CLR 09/02 A3023 10 63 -600 VRB/04 RMK AO2 TSE1355 T00890022 $
53988KBKB BKB20190401084011704/01/19 08:40:31  5-MIN KBKB 011440Z AUTO VRB04KT 10SM CLR 09/02 A3023 10 60 -600 VRB/04 RMK AO2 TSE1355 T00940022 $
53988KBKB BKB20190401084511704/01/19 08:45:31  5-MIN KBKB 011445Z AUTO VRB04KT 10SM CLR 09/02 A3023 10 60 -600 VRB/04 RMK AO2 TSE1355 T00940022 $
53988KBKB BKB20190401085013004/01/19 08:50:31  5-MIN KBKB 011450Z AUTO VRB04KT 10SM CLR 09/02 A3024 10 58 -600 VRB/04 RMK AO2 TSE1355 SLP269 T00940017 53003 $
53988KBKB BKB20190401085510904/01/19 08:55:31  5-MIN KBKB 011455Z AUTO 00000KT 10SM CLR 09/02 A3024 10 60 -600 000/00 RMK AO2 T00940022 $
53988KBKB BKB20190401090010904/01/19 09:00:31  5-MIN KBKB 011500Z AUTO VRB05KT 10SM CLR 10/02 A3024 10 58 -500 VRB/05 RMK AO2 T01000022 $
53988KBKB BKB20190401090510804/01/19 09:05:31  5-MIN KBKB 011505Z AUTO 03004KT 10SM CLR 11/02 A3024 0 56 -400 030/04 RMK AO2 T01060022 $
53988KBKB BKB20190401091010804/01/19 09:10:31  5-MIN KBKB 011510Z AUTO VRB05KT 10SM CLR 11/02 A3025 0 54 -400 VRB/05 RMK AO2 T01060017 $
53988KBKB BKB20190401091510804/01/19 09:15:31  5-MIN KBKB 011515Z AUTO VRB03KT 10SM CLR 11/02 A3025 0 56 -400 VRB/03 RMK AO2 T01060022 $
53988KBKB BKB20190401092010804/01/19 09:20:31  5-MIN KBKB 011520Z AUTO 04003KT 10SM CLR 11/02 A3024 0 54 -400 030/03 RMK AO2 T01110022 $
53988KBKB BKB20190401092510804/01/19 09:25:31  5-MIN KBKB 011525Z AUTO VRB04KT 10SM CLR 11/02 A3025 0 52 -400 VRB/04 RMK AO2 T01110017 $
53988KBKB BKB20190401093010804/01/19 09:30:31  5-MIN KBKB 011530Z AUTO 11003KT 10SM CLR 11/01 A3025 0 52 -500 100/03 RMK AO2 T01060011 $
53988KBKB BKB20190401093510804/01/19 09:35:31  5-MIN KBKB 011535Z AUTO VRB04KT 10SM CLR 12/02 A3025 0 52 -300 VRB/04 RMK AO2 T01170022 $
53988KBKB BKB20190401094010804/01/19 09:40:31  5-MIN KBKB 011540Z AUTO VRB04KT 10SM CLR 12/02 A3025 0 50 -300 VRB/04 RMK AO2 T01170017 $
53988KBKB BKB20190401094510804/01/19 09:45:31  5-MIN KBKB 011545Z AUTO VRB06KT 10SM CLR 12/02 A3025 0 50 -200 VRB/06 RMK AO2 T01220022 $
53988KBKB BKB20190401095011504/01/19 09:50:31  5-MIN KBKB 011550Z AUTO VRB03KT 10SM CLR 12/01 A3025 0 46 -300 VRB/03 RMK AO2 SLP275 T01220011 $
53988KBKB BKB20190401095510804/01/19 09:55:31  5-MIN KBKB 011555Z AUTO 00000KT 10SM CLR 12/02 A3025 0 48 -300 000/00 RMK AO2 T01220017 $
53988KBKB BKB20190401100011004/01/19 10:00:31  5-MIN KBKB 011600Z AUTO 13004KT 10SM CLR 12/01 A3026 -10 46 -300 120/04 RMK AO2 T01220011 $
53988KBKB BKB20190401100511004/01/19 10:05:31  5-MIN KBKB 011605Z AUTO VRB05KT 10SM CLR 12/02 A3026 -10 48 -300 VRB/05 RMK AO2 T01220017 $
53988KBKB BKB20190401101011004/01/19 10:10:31  5-MIN KBKB 011610Z AUTO VRB06KT 10SM CLR 13/02 A3026 -10 45 -100 VRB/06 RMK AO2 T01330017 $
53988KBKB BKB20190401101511004/01/19 10:15:31  5-MIN KBKB 011615Z AUTO VRB03KT 10SM CLR 13/01 A3026 -10 43 -100 VRB/03 RMK AO2 T01330011 $
53988KBKB BKB20190401102011004/01/19 10:20:31  5-MIN KBKB 011620Z AUTO VRB03KT 10SM CLR 13/01 A3026 -10 44 -200 VRB/03 RMK AO2 T01280011 $
53988KBKB BKB20190401102511004/01/19 10:25:31  5-MIN KBKB 011625Z AUTO VRB05KT 10SM CLR 13/01 A3026 -10 44 -200 VRB/05 RMK AO2 T01280011 $
53988KBKB BKB20190401103011004/01/19 10:30:31  5-MIN KBKB 011630Z AUTO VRB03KT 10SM CLR 14/02 A3026 -10 43 -100 VRB/03 RMK AO2 T01390017 $
53988KBKB BKB20190401103511004/01/19 10:35:31  5-MIN KBKB 011635Z AUTO 00000KT 10SM CLR 13/01 A3026 -10 43 -100 000/00 RMK AO2 T01330011 $
53988KBKB BKB20190401104010804/01/19 10:40:31  5-MIN KBKB 011640Z AUTO VRB04KT 10SM CLR 14/02 A3025 0 43 -100 VRB/04 RMK AO2 T01390017 $
53988KBKB BKB20190401104510504/01/19 10:45:31  5-MIN KBKB 011645Z AUTO VRB03KT 10SM CLR 14/02 A3025 0 43 0 VRB/03 RMK AO2 T01390017 $
53988KBKB BKB20190401105011504/01/19 10:50:31  5-MIN KBKB 011650Z AUTO VRB03KT 10SM CLR 13/01 A3024 0 43 -100 VRB/03 RMK AO2 SLP272 T01330011 $
53988KBKB BKB20190401105510504/01/19 10:55:31  5-MIN KBKB 011655Z AUTO VRB03KT 10SM CLR 14/01 A3024 0 41 0 VRB/03 RMK AO2 T01390011 $
53988KBKB BKB20190401110011104/01/19 11:00:31  5-MIN KBKB 011700Z AUTO VRB03KT 10SM FEW120 13/01 A3024 0 41 -100 VRB/03 RMK AO2 T01330006 $
53988KBKB BKB20190401110510804/01/19 11:05:31  5-MIN KBKB 011705Z AUTO 36004KT 10SM SCT120 14/01 A3024 0 41 0 360/04 RMK AO2 T01390011 $
53988KBKB BKB20190401111011104/01/19 11:10:31  5-MIN KBKB 011710Z AUTO 00000KT 10SM SCT120 13/01 A3024 0 43 -100 000/00 RMK AO2 T01330011 $
53988KBKB BKB20190401111510804/01/19 11:15:31  5-MIN KBKB 011715Z AUTO 05004KT 10SM BKN120 14/01 A3024 0 41 0 050/04 RMK AO2 T01390011 $
53988KBKB BKB20190401112010904/01/19 11:20:31  5-MIN KBKB 011720Z AUTO 00000KT 10SM BKN120 14/01 A3024 10 40 0 000/00 RMK AO2 T01390006 $
53988KBKB BKB20190401112511204/01/19 11:25:31  5-MIN KBKB 011725Z AUTO VRB03KT 10SM BKN120 13/01 A3023 10 41 -100 VRB/03 RMK AO2 T01330006 $
53988KBKB BKB20190401113010904/01/19 11:30:31  5-MIN KBKB 011730Z AUTO VRB03KT 10SM BKN120 14/01 A3022 20 41 0 VRB/03 RMK AO2 T01390011 $
53988KBKB BKB20190401113510904/01/19 11:35:31  5-MIN KBKB 011735Z AUTO VRB03KT 10SM BKN120 14/02 A3022 20 43 0 VRB/03 RMK AO2 T01390017 $
53988KBKB BKB20190401114010904/01/19 11:40:31  5-MIN KBKB 011740Z AUTO VRB03KT 10SM SCT120 14/02 A3023 20 45 0 VRB/03 RMK AO2 T01390022 $
53988KBKB BKB20190401114510904/01/19 11:45:31  5-MIN KBKB 011745Z AUTO 00000KT 10SM SCT120 14/02 A3022 30 43 0 000/00 RMK AO2 T01390017 $
53988KBKB BKB20190401115013404/01/19 11:50:31  5-MIN KBKB 011750Z AUTO 05003KT 10SM SCT120 14/02 A3022 30 43 0 040/03 RMK AO2 SLP262 T01390017 10144 20017 51005 $
53988KBKB BKB20190401115510904/01/19 11:55:31  5-MIN KBKB 011755Z AUTO VRB03KT 10SM SCT120 14/02 A3021 30 41 0 VRB/03 RMK AO2 T01440017 $
53988KBKB BKB20190401120010904/01/19 12:00:31  5-MIN KBKB 011800Z AUTO VRB04KT 10SM FEW110 14/02 A3021 30 41 0 VRB/04 RMK AO2 T01440017 $
53988KBKB BKB20190401120510904/01/19 12:05:31  5-MIN KBKB 011805Z AUTO VRB03KT 10SM FEW110 14/01 A3020 40 40 0 VRB/03 RMK AO2 T01440011 $
53988KBKB BKB20190401121009904/01/19 12:10:31  5-MIN KBKB 011810Z AUTO 10SM FEW110 14/02 A3020 40 41 0 M /M RMK AO2 T01440017 $
53988KBKB BKB20190401121511104/01/19 12:15:31  5-MIN KBKB 011815Z AUTO VRB03KT 10SM FEW110 16/02 A3020 40 40 200 VRB/03 RMK AO2 T01560022 $
53988KBKB BKB20190401122010604/01/19 12:20:31  5-MIN KBKB 011820Z AUTO 00000KT 10SM CLR 14/02 A3019 50 41 0 000/00 RMK AO2 T01440017 $
53988KBKB BKB20190401122510804/01/19 12:25:31  5-MIN KBKB 011825Z AUTO 36003KT 10SM CLR 15/02 A3019 50 40 100 360/03 RMK AO2 T01500017 $
53988KBKB BKB20190401123010604/01/19 12:30:31  5-MIN KBKB 011830Z AUTO 00000KT 10SM CLR 14/01 A3019 50 40 0 000/00 RMK AO2 T01440011 $
53988KBKB BKB20190401124007904/01/19 12:40:31  5-MIN KBKB 011840Z AUTO VRB04KT A3018 M M M VRB/04 RMK AO2 $
53988KBKB BKB20190401124509704/01/19 12:45:31  5-MIN KBKB 011845Z AUTO 00000KT 14/01 A3018 60 40 0 000/00 RMK AO2 T01440011 $
53988KBKB BKB20190401125011104/01/19 12:50:31  5-MIN KBKB 011850Z AUTO 06003KT 10SM 14/02 A3017 60 41 100 060/03 RMK AO2 SLP248 T01440017 $
53988KBKB BKB20190401125510204/01/19 12:55:31  5-MIN KBKB 011855Z AUTO VRB04KT 10SM 14/01 A3017 70 41 0 VRB/04 RMK AO2 T01390011 $
53988KBKB BKB20190401130010404/01/19 13:00:31  5-MIN KBKB 011900Z AUTO VRB04KT 10SM 14/02 A3017 70 43 100 VRB/04 RMK AO2 T01440022 $
53988KBKB BKB20190401130510404/01/19 13:05:31  5-MIN KBKB 011905Z AUTO VRB05KT 10SM 15/02 A3017 70 42 100 VRB/05 RMK AO2 T01500022 $
53988KBKB BKB20190401131010804/01/19 13:10:31  5-MIN KBKB 011910Z AUTO 02005KT 10SM CLR 15/01 A3016 70 38 100 010/05 RMK AO2 T01500011 $
53988KBKB BKB20190401131506304/01/19 13:15:31  5-MIN KBKB 011915Z AUTO M M M M /M RMK AO2 $
53988KBKB BKB20190401132510404/01/19 13:25:31  5-MIN KBKB 011925Z AUTO VRB04KT 10SM 14/02 A3015 90 43 100 VRB/04 RMK AO2 T01440022 $
53988KBKB BKB20190401133010504/01/19 13:30:31  5-MIN KBKB 011930Z AUTO VRB04KT 10SM 15/02 A3014 100 42 200 VRB/04 RMK AO2 T01500022 $
53988KBKB BKB20190401133510504/01/19 13:35:31  5-MIN KBKB 011935Z AUTO VRB03KT 10SM 14/02 A3014 100 43 100 VRB/03 RMK AO2 T01440022 $
53988KBKB BKB20190401134010204/01/19 13:40:31  5-MIN KBKB 011940Z AUTO VRB04KT 10SM 14/02 A3014 90 43 0 VRB/04 RMK AO2 T01390017 $
53988KBKB BKB20190401134510204/01/19 13:45:31  5-MIN KBKB 011945Z AUTO VRB04KT 10SM 14/02 A3014 90 45 0 VRB/04 RMK AO2 T01390022 $
53988KBKB BKB20190401135011604/01/19 13:50:31  5-MIN KBKB 011950Z AUTO VRB04KT 10SM OVC100 13/02 A3015 90 45 0 VRB/04 RMK AO2 SLP240 T01330017 $
53988KBKB BKB20190401135510904/01/19 13:55:31  5-MIN KBKB 011955Z AUTO VRB04KT 10SM OVC100 13/02 A3016 80 45 0 VRB/04 RMK AO2 T01330017 $
53988KBKB BKB20190401140011604/01/19 14:00:31  5-MIN KBKB 012000Z AUTO VRB03KT 10SM OVC100 13/02 A3017 70 45 0 VRB/03 RMK AO2 PRESRR T01330017 $
53988KBKB BKB20190401140511204/01/19 14:05:31  5-MIN KBKB 012005Z AUTO VRB04KT 10SM OVC100 13/02 A3016 70 48 -100 VRB/04 RMK AO2 T01280022 $
53988KBKB BKB20190401141011204/01/19 14:10:31  5-MIN KBKB 012010Z AUTO VRB03KT 10SM OVC100 13/02 A3016 80 48 -100 VRB/03 RMK AO2 T01280022 $
53988KBKB BKB20190401141511704/01/19 14:15:31  5-MIN KBKB 012015Z AUTO 04005KT 10SM OVC100 13/02 A3011 120 48 0 040/05 RMK AO2 PRESFR T01280022 $
53988KBKB BKB20190401142011004/01/19 14:20:31  5-MIN KBKB 012020Z AUTO VRB04KT 10SM OVC100 13/03 A3012 110 50 0 VRB/04 RMK AO2 T01280028 $
53988KBKB BKB20190401142511004/01/19 14:25:31  5-MIN KBKB 012025Z AUTO VRB03KT 10SM OVC100 13/03 A3013 100 50 0 VRB/03 RMK AO2 T01280028 $
53988KBKB BKB20190401143012604/01/19 14:30:31  5-MIN KBKB 012030Z AUTO VRB03KT 10SM -RA OVC095 13/03 A3013 100 48 0 VRB/03 RMK AO2 RAB28 P0000 T01330028 $
53988KBKB BKB20190401143512604/01/19 14:35:31  5-MIN KBKB 012035Z AUTO VRB03KT 10SM -RA OVC095 13/03 A3014 100 48 0 VRB/03 RMK AO2 RAB28 P0000 T01330028 $
53988KBKB BKB20190401144012804/01/19 14:40:31  5-MIN KBKB 012040Z AUTO VRB03KT 10SM OVC095 13/03 A3014 100 50 -100 VRB/03 RMK AO2 RAB28E37 P0000 T01280028 $
53988KBKB BKB20190401144512704/01/19 14:45:31  5-MIN KBKB 012045Z AUTO VRB03KT 10SM OVC090 13/03 A3015 90 50 -100 VRB/03 RMK AO2 RAB28E37 P0000 T01280028 $
53988KBKB BKB20190401145014004/01/19 14:50:31  5-MIN KBKB 012050Z AUTO 00000KT 10SM OVC090 13/03 A3016 80 50 -100 000/00 RMK AO2 RAB28E37 SLP244 P0000 60000 T01280028 $
53988KBKB BKB20190401145511204/01/19 14:55:31  5-MIN KBKB 012055Z AUTO 00000KT 10SM OVC095 13/03 A3016 70 52 -100 000/00 RMK AO2 T01280033 $
53988KBKB BKB20190401150011204/01/19 15:00:31  5-MIN KBKB 012100Z AUTO VRB04KT 10SM OVC095 13/03 A3016 80 50 -100 VRB/04 RMK AO2 T01280028 $
53988KBKB BKB20190401150512804/01/19 15:05:31  5-MIN KBKB 012105Z AUTO VRB04KT 10SM -RA OVC095 13/03 A3016 70 52 -100 VRB/04 RMK AO2 RAB01 P0000 T01280033 $
53988KBKB BKB20190401151013504/01/19 15:10:31  5-MIN KBKB 012110Z AUTO 00000KT 10SM -RA FEW050 OVC095 13/03 A3017 60 52 -100 000/00 RMK AO2 RAB01 P0000 T01280033 $
53988KBKB BKB20190401151513404/01/19 15:15:31  5-MIN KBKB 012115Z AUTO 00000KT 10SM FEW050 OVC095 12/03 A3018 60 54 -200 000/00 RMK AO2 RAB01E12 P0000 T01220033 $
53988KBKB BKB20190401152013404/01/19 15:20:31  5-MIN KBKB 012120Z AUTO 00000KT 10SM FEW050 OVC095 12/03 A3018 60 54 -200 000/00 RMK AO2 RAB01E12 P0000 T01220033 $
53988KBKB BKB20190401152512404/01/19 15:25:31  5-MIN KBKB 012125Z AUTO 10SM FEW050 OVC095 12/03 A3017 60 52 -200 M /M RMK AO2 RAB01E12 P0000 T01220028 $
53988KBKB BKB20190401153013404/01/19 15:30:31  5-MIN KBKB 012130Z AUTO VRB05KT 10SM FEW050 OVC090 12/02 A3016 80 52 -200 VRB/05 RMK AO2 RAB01E12 P0000 T01170022 $
53988KBKB BKB20190401182507804/01/19 18:25:31  5-MIN KBKB 020025Z AUTO M M M M /M RMK AO2 RAB01E12 P0000 $
53988KBKB BKB20190401184011504/01/19 18:40:31  5-MIN KBKB 020040Z AUTO 00000KT 10/04 A3017 70 68 -400 000/00 RMK AO2 RAB01E12 P0000 T01000044 $
53988KBKB BKB20190401184512004/01/19 18:45:31  5-MIN KBKB 020045Z AUTO 00000KT 10SM 10/04 A3017 70 68 -400 000/00 RMK AO2 RAB01E12 P0000 T01000044 $
53988KBKB BKB20190401185012704/01/19 18:50:31  5-MIN KBKB 020050Z AUTO 00000KT 10SM 10/04 A3017 70 65 -400 000/00 RMK AO2 RAB01E12 SLP248 P0000 T01000039 $
53988KBKB BKB20190401185510504/01/19 18:55:31  5-MIN KBKB 020055Z AUTO 00000KT 10SM 09/04 A3017 70 68 -500 000/00 RMK AO2 T00940039 $
53988KBKB BKB20190401190007304/01/19 19:00:31  5-MIN KBKB 020100Z AUTO 00000KT M M M 000/00 RMK AO2 $
53988KBKB BKB20190401190510004/01/19 19:05:31  5-MIN KBKB 020105Z AUTO 00000KT 09/04 A3017 70 73 -600 000/00 RMK AO2 T00890044 $
53988KBKB BKB20190401191010504/01/19 19:10:31  5-MIN KBKB 020110Z AUTO 00000KT 10SM 09/04 A3017 70 73 -600 000/00 RMK AO2 T00890044 $
53988KBKB BKB20190401191510504/01/19 19:15:31  5-MIN KBKB 020115Z AUTO 00000KT 10SM 08/04 A3017 60 76 -600 000/00 RMK AO2 T00830044 $
53988KBKB BKB20190401193007304/01/19 19:30:31  5-MIN KBKB 020130Z AUTO M M M M /M RMK AO2 T00830039 $
53988KBKB BKB20190401194010004/01/19 19:40:31  5-MIN KBKB 020140Z AUTO 00000KT 08/04 A3018 60 76 -700 000/00 RMK AO2 T00780039 $
53988KBKB BKB20190401194510504/01/19 19:45:31  5-MIN KBKB 020145Z AUTO 36003KT 10SM 08/04 A3018 60 76 -700 360/03 RMK AO2 T00780039 $
53988KBKB BKB20190401195011204/01/19 19:50:31  5-MIN KBKB 020150Z AUTO 00000KT 10SM 07/04 A3018 60 79 -800 000/00 RMK AO2 SLP251 T00720039 $
53988KBKB BKB20190401195510504/01/19 19:55:31  5-MIN KBKB 020155Z AUTO 00000KT 10SM 07/04 A3018 60 79 -800 000/00 RMK AO2 T00720039 $
53988KBKB BKB20190401200010504/01/19 20:00:31  5-MIN KBKB 020200Z AUTO 00000KT 10SM 07/04 A3019 50 79 -800 000/00 RMK AO2 T00720039 $
53988KBKB BKB20190401200510904/01/19 20:05:31  5-MIN KBKB 020205Z AUTO 00000KT 10SM CLR 07/04 A3019 50 79 -800 000/00 RMK AO2 T00720039 $
53988KBKB BKB20190401201010904/01/19 20:10:31  5-MIN KBKB 020210Z AUTO 00000KT 10SM CLR 07/04 A3019 50 79 -800 000/00 RMK AO2 T00720039 $
53988KBKB BKB20190401201510904/01/19 20:15:31  5-MIN KBKB 020215Z AUTO 00000KT 10SM CLR 07/04 A3020 40 79 -800 000/00 RMK AO2 T00720039 $
53988KBKB BKB20190401202010904/01/19 20:20:31  5-MIN KBKB 020220Z AUTO 00000KT 10SM CLR 07/04 A3020 40 82 -900 000/00 RMK AO2 T00670039 $
53988KBKB BKB20190401202510904/01/19 20:25:31  5-MIN KBKB 020225Z AUTO 00000KT 10SM CLR 07/04 A3020 40 82 -900 000/00 RMK AO2 T00670039 $
53988KBKB BKB20190401203010904/01/19 20:30:31  5-MIN KBKB 020230Z AUTO 00000KT 10SM CLR 07/04 A3020 40 82 -900 000/00 RMK AO2 T00670039 $
53988KBKB BKB20190401203510904/01/19 20:35:31  5-MIN KBKB 020235Z AUTO 00000KT 10SM CLR 07/04 A3020 40 82 -900 000/00 RMK AO2 T00670039 $
53988KBKB BKB20190401204006304/01/19 20:40:31  5-MIN KBKB 020240Z AUTO M M M M /M RMK AO2 $
53988KBKB BKB20190401204510004/01/19 20:45:31  5-MIN KBKB 020245Z AUTO 00000KT 07/03 A3021 30 79 -900 000/00 RMK AO2 T00670033 $
53988KBKB BKB20190401205011804/01/19 20:50:31  5-MIN KBKB 020250Z AUTO 00000KT 10SM 07/03 A3021 30 79 -900 000/00 RMK AO2 SLP261 60000 T00670033 $
53988KBKB BKB20190401205510504/01/19 20:55:31  5-MIN KBKB 020255Z AUTO 00000KT 10SM 07/03 A3021 30 79 -900 000/00 RMK AO2 T00670033 $
53988KBKB BKB20190401210010504/01/19 21:00:31  5-MIN KBKB 020300Z AUTO 00000KT 10SM 07/03 A3021 30 79 -900 000/00 RMK AO2 T00670033 $
53988KBKB BKB20190401210510604/01/19 21:05:31  5-MIN KBKB 020305Z AUTO 00000KT 10SM 06/04 A3022 30 86 -1000 000/00 RMK AO2 T00610039 $
53988KBKB BKB20190401211010904/01/19 21:10:31  5-MIN KBKB 020310Z AUTO 00000KT 10SM CLR 07/04 A3022 30 82 -900 000/00 RMK AO2 T00670039 $
53988KBKB BKB20190401211510904/01/19 21:15:31  5-MIN KBKB 020315Z AUTO 00000KT 10SM CLR 07/04 A3022 20 82 -900 000/00 RMK AO2 T00670039 $
53988KBKB BKB20190401212011004/01/19 21:20:31  5-MIN KBKB 020320Z AUTO 00000KT 10SM CLR 06/04 A3022 20 86 -1000 000/00 RMK AO2 T00610039 $
53988KBKB BKB20190401212511004/01/19 21:25:31  5-MIN KBKB 020325Z AUTO 00000KT 10SM CLR 06/03 A3022 20 82 -1000 000/00 RMK AO2 T00610033 $
53988KBKB BKB20190401213011004/01/19 21:30:31  5-MIN KBKB 020330Z AUTO 35003KT 10SM CLR 06/03 A3022 20 82 -1000 350/03 RMK AO2 T00610033 $
53988KBKB BKB20190401213510904/01/19 21:35:31  5-MIN KBKB 020335Z AUTO VRB03KT 10SM CLR 07/03 A3022 20 79 -900 VRB/03 RMK AO2 T00670033 $
53988KBKB BKB20190401214011004/01/19 21:40:31  5-MIN KBKB 020340Z AUTO 00000KT 10SM CLR 06/03 A3022 20 82 -1000 000/00 RMK AO2 T00610033 $
53988KBKB BKB20190401214511004/01/19 21:45:31  5-MIN KBKB 020345Z AUTO 00000KT 10SM CLR 06/03 A3022 20 82 -1000 000/00 RMK AO2 T00610033 $
53988KBKB BKB20190401215011704/01/19 21:50:31  5-MIN KBKB 020350Z AUTO 00000KT 10SM CLR 06/03 A3022 20 82 -1000 000/00 RMK AO2 SLP266 T00610033 $
53988KBKB BKB20190401215511004/01/19 21:55:31  5-MIN KBKB 020355Z AUTO 00000KT 10SM CLR 06/03 A3022 20 82 -1000 000/00 RMK AO2 T00610033 $
53988KBKB BKB20190401220011004/01/19 22:00:31  5-MIN KBKB 020400Z AUTO 00000KT 10SM CLR 06/03 A3022 20 85 -1000 000/00 RMK AO2 T00560033 $
53988KBKB BKB20190401220511004/01/19 22:05:31  5-MIN KBKB 020405Z AUTO 00000KT 10SM CLR 06/03 A3022 20 85 -1000 000/00 RMK AO2 T00560033 $
53988KBKB BKB20190401221011004/01/19 22:10:31  5-MIN KBKB 020410Z AUTO 00000KT 10SM CLR 05/03 A3022 20 89 -1100 000/00 RMK AO2 T00500033 $
53988KBKB BKB20190401221511004/01/19 22:15:31  5-MIN KBKB 020415Z AUTO 00000KT 10SM CLR 05/03 A3022 20 89 -1100 000/00 RMK AO2 T00500033 $
53988KBKB BKB20190401222011004/01/19 22:20:31  5-MIN KBKB 020420Z AUTO 00000KT 10SM CLR 04/03 A3022 20 92 -1200 000/00 RMK AO2 T00440033 $
53988KBKB BKB20190401222511004/01/19 22:25:31  5-MIN KBKB 020425Z AUTO 00000KT 10SM CLR 04/03 A3023 20 89 -1200 000/00 RMK AO2 T00440028 $
53988KBKB BKB20190401223011004/01/19 22:30:31  5-MIN KBKB 020430Z AUTO 00000KT 10SM CLR 04/03 A3023 10 89 -1200 000/00 RMK AO2 T00440028 $
53988KBKB BKB20190401223511004/01/19 22:35:31  5-MIN KBKB 020435Z AUTO 00000KT 10SM CLR 04/03 A3023 10 92 -1200 000/00 RMK AO2 T00390028 $
53988KBKB BKB20190401224011004/01/19 22:40:31  5-MIN KBKB 020440Z AUTO 00000KT 10SM CLR 04/03 A3023 10 92 -1200 000/00 RMK AO2 T00390028 $
53988KBKB BKB20190401224511004/01/19 22:45:31  5-MIN KBKB 020445Z AUTO 00000KT 10SM CLR 04/03 A3023 10 92 -1200 000/00 RMK AO2 T00390028 $
53988KBKB BKB20190401225011704/01/19 22:50:31  5-MIN KBKB 020450Z AUTO 00000KT 10SM CLR 04/03 A3023 20 92 -1200 000/00 RMK AO2 SLP267 T00390028 $
53988KBKB BKB20190401225511004/01/19 22:55:31  5-MIN KBKB 020455Z AUTO 00000KT 10SM CLR 04/03 A3023 20 92 -1200 000/00 RMK AO2 T00390028 $
53988KBKB BKB20190401230011004/01/19 23:00:31  5-MIN KBKB 020500Z AUTO 00000KT 10SM CLR 04/03 A3023 20 92 -1200 000/00 RMK AO2 T00390028 $
53988KBKB BKB20190401230511004/01/19 23:05:31  5-MIN KBKB 020505Z AUTO 00000KT 10SM CLR 04/03 A3022 20 92 -1200 000/00 RMK AO2 T00390028 $
53988KBKB BKB20190401231011004/01/19 23:10:31  5-MIN KBKB 020510Z AUTO 00000KT 10SM CLR 04/03 A3023 20 92 -1200 000/00 RMK AO2 T00390028 $
53988KBKB BKB20190401233505004/01/19 23:35:31  5-MIN KBKB 020535Z AUTO RVRNO $
53988KBKB BKB20190401234006904/01/19 23:40:31  5-MIN KBKB 020540Z AUTO A3023 M M M M /M RMK AO2 $
53988KBKB BKB20190401234510104/01/19 23:45:31  5-MIN KBKB 020545Z AUTO VRB03KT 04/03 A3023 10 92 -1200 VRB/03 RMK AO2 T00390028 $
53988KBKB BKB20190401235014104/01/19 23:50:31  5-MIN KBKB 020550Z AUTO VRB03KT 10SM 04/03 A3023 10 92 -1200 VRB/03 RMK AO2 SLP268 60000 T00390028 10100 20039 401560017 $
53988KBKB BKB20190402001506304/02/19 00:15:31  5-MIN KBKB 020615Z AUTO M M M M /M RMK AO2 $
53988KBKB BKB20190402002010104/02/19 00:20:31  5-MIN KBKB 020620Z AUTO 00000KT 04/03 A3022 20 92 -1200 000/00 RMK AO2 T00390028 $
53988KBKB BKB20190402002510604/02/19 00:25:31  5-MIN KBKB 020625Z AUTO 00000KT 10SM 04/03 A3022 20 92 -1200 000/00 RMK AO2 T00390028 $
53988KBKB BKB20190402004006304/02/19 00:40:31  5-MIN KBKB 020640Z AUTO M M M M /M RMK AO2 $
53988KBKB BKB20190402004505004/02/19 00:45:31  5-MIN KBKB 020645Z AUTO RVRNO $
53988KBKB BKB20190402005007904/02/19 00:50:31  5-MIN KBKB 020650Z AUTO 00000KT M M M 000/00 RMK AO2 SLPNO $
53988KBKB BKB20190402005509004/02/19 00:55:31  5-MIN KBKB 020655Z AUTO 00000KT 03/02 M 92 M 000/00 RMK AO2 T00330022 $
53988KBKB BKB20190402010009504/02/19 01:00:31  5-MIN KBKB 020700Z AUTO 00000KT 10SM 03/02 M 92 M 000/00 RMK AO2 T00330022 $
53988KBKB BKB20190402010509504/02/19 01:05:31  5-MIN KBKB 020705Z AUTO 00000KT 10SM 03/02 M 92 M 000/00 RMK AO2 T00330022 $
53988KBKB BKB20190402011009504/02/19 01:10:31  5-MIN KBKB 020710Z AUTO 00000KT 10SM 03/02 M 92 M 000/00 RMK AO2 T00330022 $
53988KBKB BKB20190402011509504/02/19 01:15:31  5-MIN KBKB 020715Z AUTO 00000KT 10SM 03/02 M 96 M 000/00 RMK AO2 T00280022 $
53988KBKB BKB20190402012009904/02/19 01:20:31  5-MIN KBKB 020720Z AUTO 00000KT 10SM CLR 03/02 M 92 M 000/00 RMK AO2 T00280017 $
53988KBKB BKB20190402012509904/02/19 01:25:31  5-MIN KBKB 020725Z AUTO 00000KT 10SM CLR 03/02 M 92 M 000/00 RMK AO2 T00280017 $
53988KBKB BKB20190402013009904/02/19 01:30:31  5-MIN KBKB 020730Z AUTO 00000KT 10SM CLR 03/02 M 92 M 000/00 RMK AO2 T00280017 $
53988KBKB BKB20190402013509904/02/19 01:35:31  5-MIN KBKB 020735Z AUTO 00000KT 10SM CLR 03/02 M 92 M 000/00 RMK AO2 T00280017 $
53988KBKB BKB20190402014009904/02/19 01:40:31  5-MIN KBKB 020740Z AUTO 00000KT 10SM CLR 03/02 M 92 M 000/00 RMK AO2 T00280017 $
53988KBKB BKB20190402014509904/02/19 01:45:31  5-MIN KBKB 020745Z AUTO 00000KT 10SM CLR 02/02 M 96 M 000/00 RMK AO2 T00220017 $
53988KBKB BKB20190402015010504/02/19 01:50:31  5-MIN KBKB 020750Z AUTO 00000KT 10SM CLR 02/02 M 96 M 000/00 RMK AO2 SLPNO T00220017 $
53988KBKB BKB20190402015509904/02/19 01:55:31  5-MIN KBKB 020755Z AUTO 00000KT 10SM CLR 02/01 M 92 M 000/00 RMK AO2 T00220011 $
53988KBKB BKB20190402020009904/02/19 02:00:31  5-MIN KBKB 020800Z AUTO 00000KT 10SM CLR 02/01 M 92 M 000/00 RMK AO2 T00220011 $
53988KBKB BKB20190402020509904/02/19 02:05:31  5-MIN KBKB 020805Z AUTO 00000KT 10SM CLR 02/02 M 96 M 000/00 RMK AO2 T00220017 $
53988KBKB BKB20190402021009904/02/19 02:10:31  5-MIN KBKB 020810Z AUTO 00000KT 10SM CLR 02/01 M 92 M 000/00 RMK AO2 T00220011 $
53988KBKB BKB20190402021509904/02/19 02:15:31  5-MIN KBKB 020815Z AUTO 00000KT 10SM CLR 02/01 M 96 M 000/00 RMK AO2 T00170011 $
53988KBKB BKB20190402022009904/02/19 02:20:31  5-MIN KBKB 020820Z AUTO 00000KT 10SM CLR 02/01 M 96 M 000/00 RMK AO2 T00170011 $
53988KBKB BKB20190402022509904/02/19 02:25:31  5-MIN KBKB 020825Z AUTO 00000KT 10SM CLR 02/01 M 92 M 000/00 RMK AO2 T00220011 $
53988KBKB BKB20190402023009904/02/19 02:30:31  5-MIN KBKB 020830Z AUTO 00000KT 10SM CLR 02/01 M 92 M 000/00 RMK AO2 T00220011 $
53988KBKB BKB20190402023509904/02/19 02:35:31  5-MIN KBKB 020835Z AUTO 00000KT 10SM CLR 02/01 M 96 M 000/00 RMK AO2 T00170011 $
53988KBKB BKB20190402024009804/02/19 02:40:31  5-MIN KBKB 020840Z AUTO 00000KT 9SM CLR 02/01 M 96 M 000/00 RMK AO2 T00170011 $
53988KBKB BKB20190402024509804/02/19 02:45:31  5-MIN KBKB 020845Z AUTO 00000KT 9SM CLR 02/01 M 92 M 000/00 RMK AO2 T00170006 $
53988KBKB BKB20190402025010404/02/19 02:50:31  5-MIN KBKB 020850Z AUTO 00000KT 9SM CLR 02/01 M 92 M 000/00 RMK AO2 SLPNO T00170006 $
53988KBKB BKB20190402025509804/02/19 02:55:31  5-MIN KBKB 020855Z AUTO 00000KT 9SM CLR 02/01 M 92 M 000/00 RMK AO2 T00170006 $
53988KBKB BKB20190402030009804/02/19 03:00:31  5-MIN KBKB 020900Z AUTO 00000KT 9SM CLR 02/01 M 92 M 000/00 RMK AO2 T00170006 $
53988KBKB BKB20190402030510004/02/19 03:05:31  5-MIN KBKB 020905Z AUTO 00000KT 10SM CLR 01/01 M 100 M 000/00 RMK AO2 T00110011 $
53988KBKB BKB20190402031009904/02/19 03:10:31  5-MIN KBKB 020910Z AUTO 00000KT 10SM CLR 01/01 M 96 M 000/00 RMK AO2 T00110006 $
53988KBKB BKB20190402031509904/02/19 03:15:31  5-MIN KBKB 020915Z AUTO 00000KT 10SM CLR 01/01 M 96 M 000/00 RMK AO2 T00110006 $
53988KBKB BKB20190402032009904/02/19 03:20:31  5-MIN KBKB 020920Z AUTO 00000KT 10SM CLR 01/01 M 96 M 000/00 RMK AO2 T00110006 $
53988KBKB BKB20190402032509804/02/19 03:25:31  5-MIN KBKB 020925Z AUTO 00000KT 9SM CLR 01/01 M 96 M 000/00 RMK AO2 T00110006 $
53988KBKB BKB20190402033009804/02/19 03:30:31  5-MIN KBKB 020930Z AUTO 00000KT 9SM CLR 01/01 M 96 M 000/00 RMK AO2 T00110006 $
53988KBKB BKB20190402033509804/02/19 03:35:31  5-MIN KBKB 020935Z AUTO 00000KT 9SM CLR 01/00 M 92 M 000/00 RMK AO2 T00110000 $
53988KBKB BKB20190402034009804/02/19 03:40:31  5-MIN KBKB 020940Z AUTO 00000KT 9SM CLR 01/00 M 92 M 000/00 RMK AO2 T00110000 $
53988KBKB BKB20190402034509804/02/19 03:45:31  5-MIN KBKB 020945Z AUTO 00000KT 9SM CLR 01/00 M 92 M 000/00 RMK AO2 T00110000 $
53988KBKB BKB20190402035010404/02/19 03:50:31  5-MIN KBKB 020950Z AUTO 00000KT 9SM CLR 01/01 M 96 M 000/00 RMK AO2 SLPNO T00110006 $
53988KBKB BKB20190402035509804/02/19 03:55:31  5-MIN KBKB 020955Z AUTO 00000KT 8SM CLR 01/01 M 96 M 000/00 RMK AO2 T00110006 $
53988KBKB BKB20190402040009804/02/19 04:00:31  5-MIN KBKB 021000Z AUTO 00000KT 8SM CLR 01/01 M 96 M 000/00 RMK AO2 T00110006 $
53988KBKB BKB20190402040509804/02/19 04:05:31  5-MIN KBKB 021005Z AUTO 00000KT 9SM CLR 01/00 M 92 M 000/00 RMK AO2 T00110000 $
53988KBKB BKB20190402041009804/02/19 04:10:31  5-MIN KBKB 021010Z AUTO 00000KT 9SM CLR 01/00 M 92 M 000/00 RMK AO2 T00110000 $
53988KBKB BKB20190402041509804/02/19 04:15:31  5-MIN KBKB 021015Z AUTO 00000KT 9SM CLR 01/00 M 92 M 000/00 RMK AO2 T00110000 $
53988KBKB BKB20190402042009804/02/19 04:20:31  5-MIN KBKB 021020Z AUTO 00000KT 9SM CLR 01/00 M 92 M 000/00 RMK AO2 T00110000 $
53988KBKB BKB20190402042509804/02/19 04:25:31  5-MIN KBKB 021025Z AUTO 00000KT 9SM CLR 01/00 M 96 M 000/00 RMK AO2 T00060000 $
53988KBKB BKB20190402043009804/02/19 04:30:31  5-MIN KBKB 021030Z AUTO 00000KT 9SM CLR 01/00 M 96 M 000/00 RMK AO2 T00060000 $
53988KBKB BKB20190402043509904/02/19 04:35:31  5-MIN KBKB 021035Z AUTO 00000KT 10SM CLR 01/00 M 96 M 000/00 RMK AO2 T00060000 $
53988KBKB BKB20190402044009804/02/19 04:40:31  5-MIN KBKB 021040Z AUTO 00000KT 9SM CLR 01/00 M 96 M 000/00 RMK AO2 T00060000 $
53988KBKB BKB20190402044509804/02/19 04:45:31  5-MIN KBKB 021045Z AUTO 00000KT 8SM CLR 01/00 M 96 M 000/00 RMK AO2 T00060000 $
53988KBKB BKB20190402044517004/02/19 04:45:31  5-MIN KBKB 021045Z AUTO 00000KT 8SM CLR 01/00 M 96 M 000/00 RMK AO2 5:31  5-MI000/00 RMK AO2 T00061006 $04/02/19 06:0 M 96 M 000/00 RMK AO2 T00060000 $
53988KBKB BKB20190402045010404/02/19 04:50:31  5-MIN KBKB 021050Z AUTO 00000KT 8SM CLR 01/00 M 96 M 000/00 RMK AO2 SLPNO T00060000 $
53988KBKB BKB20190402045509804/02/19 04:55:31  5-MIN KBKB 021055Z AUTO 00000KT 8SM CLR 01/00 M 96 M 000/00 RMK AO2 T00060000 $
53988KBKB BKB20190402050009804/02/19 05:00:31  5-MIN KBKB 021100Z AUTO 00000KT 9SM CLR 01/00 M 96 M 000/00 RMK AO2 T00060000 $
53988KBKB BKB20190402050509804/02/19 05:05:31  5-MIN KBKB 021105Z AUTO 00000KT 9SM CLR 01/00 M 96 M 000/00 RMK AO2 T00060000 $
53988KBKB BKB20190402051009804/02/19 05:10:31  5-MIN KBKB 021110Z AUTO 00000KT 9SM CLR 01/00 M 96 M 000/00 RMK AO2 T00060000 $
53988KBKB BKB20190402051509804/02/19 05:15:31  5-MIN KBKB 021115Z AUTO 00000KT 9SM CLR 01/00 M 96 M 000/00 RMK AO2 T00060000 $
53988KBKB BKB20190402052009904/02/19 05:20:31  5-MIN KBKB 021120Z AUTO 00000KT 10SM CLR 01/00 M 92 M 000/00 RMK AO2 T00110000 $
53988KBKB BKB20190402052509904/02/19 05:25:31  5-MIN KBKB 021125Z AUTO 00000KT 10SM CLR 01/00 M 92 M 000/00 RMK AO2 T00110000 $
53988KBKB BKB20190402053009804/02/19 05:30:31  5-MIN KBKB 021130Z AUTO 00000KT 9SM CLR 01/00 M 96 M 000/00 RMK AO2 T00060000 $
53988KBKB BKB20190402053509804/02/19 05:35:31  5-MIN KBKB 021135Z AUTO 00000KT 9SM CLR 01/00 M 96 M 000/00 RMK AO2 T00060000 $
53988KBKB BKB20190402054009804/02/19 05:40:31  5-MIN KBKB 021140Z AUTO 00000KT 9SM CLR 01/00 M 96 M 000/00 RMK AO2 T00060000 $
53988KBKB BKB20190402054509904/02/19 05:45:31  5-MIN KBKB 021145Z AUTO 00000KT 10SM CLR 01/00 M 96 M 000/00 RMK AO2 T00060000 $
53988KBKB BKB20190402055011704/02/19 05:50:31  5-MIN KBKB 021150Z AUTO 00000KT 9SM CLR 00/M01 M 96 M 000/00 RMK AO2 SLPNO T00001006 10039 20000 $
53988KBKB BKB20190402055509904/02/19 05:55:31  5-MIN KBKB 021155Z AUTO 00000KT 9SM CLR 00/M01 M 96 M 000/00 RMK AO2 T00001006 $
53988KBKB BKB20190402060009904/02/19 06:00:31  5-MIN KBKB 021200Z AUTO 00000KT 9SM CLR 00/M01 M 96 M 000/00 RMK AO2 T00001006 $
53988KBKB BKB20190402060509904/02/19 06:05:31  5-MIN KBKB 021205Z AUTO 00000KT 8SM CLR 00/M01 M 96 M 000/00 RMK AO2 T00001006 $
53988KBKB BKB20190402061009904/02/19 06:10:31  5-MIN KBKB 021210Z AUTO 00000KT 8SM CLR 00/M01 M 96 M 000/00 RMK AO2 T00001006 $
53988KBKB BKB20190402061509904/02/19 06:15:31  5-MIN KBKB 021215Z AUTO 00000KT 8SM CLR 00/M01 M 96 M 000/00 RMK AO2 T00001006 $
53988KBKB BKB20190402062009904/02/19 06:20:31  5-MIN KBKB 021220Z AUTO 00000KT 8SM CLR 01/M01 M 92 M 000/00 RMK AO2 T00061006 $
53988KBKB BKB20190402062509904/02/19 06:25:31  5-MIN KBKB 021225Z AUTO 00000KT 8SM CLR 01/M01 M 92 M 000/00 RMK AO2 T00061006 $
53988KBKB BKB20190402063009904/02/19 06:30:31  5-MIN KBKB 021230Z AUTO 00000KT 7SM CLR 01/M01 M 92 M 000/00 RMK AO2 T00061006 $
53988KBKB BKB20190402063509804/02/19 06:35:31  5-MIN KBKB 021235Z AUTO 00000KT 7SM CLR 01/00 M 96 M 000/00 RMK AO2 T00060000 $
53988KBKB BKB20190402064009804/02/19 06:40:31  5-MIN KBKB 021240Z AUTO 00000KT 7SM CLR 01/00 M 96 M 000/00 RMK AO2 T00060000 $
53988KBKB BKB20190402064505004/02/19 06:45:31  5-MIN KBKB 021245Z AUTO RVRNO $
53988KBKB BKB20190402065006304/02/19 06:50:31  5-MIN KBKB 021250Z AUTO M M M M /M RMK AO2 $
53988KBKB BKB20190402070006304/02/19 07:00:31  5-MIN KBKB 021300Z AUTO M M M M /M RMK AO2 $
53988KBKB BKB20190402070510204/02/19 07:05:31  5-MIN KBKB 021305Z AUTO 00000KT 02/02 A3020 40 100 -1400 000/00 RMK AO2 T00220022 $
53988KBKB BKB20190402071010704/02/19 07:10:31  5-MIN KBKB 021310Z AUTO 00000KT 10SM 04/04 A3021 40 100 -1200 000/00 RMK AO2 T00390039 $
53988KBKB BKB20190402071510604/02/19 07:15:31  5-MIN KBKB 021315Z AUTO 00000KT 10SM 04/04 A3021 40 96 -1100 000/00 RMK AO2 T00440039 $
53988KBKB BKB20190402080007904/02/19 08:00:31  5-MIN KBKB 021400Z AUTO 00000KT A3021 M M M 000/00 RMK AO2 $
53988KBKB BKB20190402080510504/02/19 08:05:31  5-MIN KBKB 021405Z AUTO 00000KT 10SM 09/04 A3021 30 71 -600 000/00 RMK AO2 T00890039 $
53988KBKB BKB20190402081010504/02/19 08:10:31  5-MIN KBKB 021410Z AUTO 07004KT 10SM 09/04 A3021 30 68 -500 070/04 RMK AO2 T00940039 $
53988KBKB BKB20190402081510504/02/19 08:15:31  5-MIN KBKB 021415Z AUTO 00000KT 10SM 09/04 A3021 30 68 -500 000/00 RMK AO2 T00940039 $
53988KBKB BKB20190402082010504/02/19 08:20:31  5-MIN KBKB 021420Z AUTO VRB03KT 10SM 09/03 A3021 30 65 -500 VRB/03 RMK AO2 T00940033 $
53988KBKB BKB20190402082510904/02/19 08:25:31  5-MIN KBKB 021425Z AUTO VRB04KT 10SM CLR 10/03 A3022 30 63 -500 VRB/04 RMK AO2 T01000033 $
53988KBKB BKB20190402083010904/02/19 08:30:31  5-MIN KBKB 021430Z AUTO VRB03KT 10SM CLR 10/03 A3022 30 60 -500 VRB/03 RMK AO2 T01000028 $
53988KBKB BKB20190402084007304/02/19 08:40:31  5-MIN KBKB 021440Z AUTO 00000KT M M M 000/00 RMK AO2 $
53988KBKB BKB20190402084510004/02/19 08:45:31  5-MIN KBKB 021445Z AUTO VRB03KT 11/03 A3022 20 58 -300 VRB/03 RMK AO2 T01110033 $
53988KBKB BKB20190402085011204/02/19 08:50:31  5-MIN KBKB 021450Z AUTO VRB04KT 10SM 12/03 A3022 20 56 -300 VRB/04 RMK AO2 SLP263 T01170033 $
53988KBKB BKB20190402085510504/02/19 08:55:31  5-MIN KBKB 021455Z AUTO VRB03KT 10SM 12/03 A3022 20 56 -300 VRB/03 RMK AO2 T01170033 $
53988KBKB BKB20190402090010504/02/19 09:00:31  5-MIN KBKB 021500Z AUTO VRB03KT 10SM 12/03 A3022 20 52 -200 VRB/03 RMK AO2 T01220028 $
53988KBKB BKB20190402091507004/02/19 09:15:31  5-MIN KBKB 021515Z AUTO M M M M /M RMK AO2 FZRANO $
53988KBKB BKB20190402092007904/02/19 09:20:31  5-MIN KBKB 021520Z AUTO VRB04KT A3023 M M M VRB/04 RMK AO2 $
53988KBKB BKB20190402092510004/02/19 09:25:31  5-MIN KBKB 021525Z AUTO 02003KT 13/02 A3023 10 48 -200 010/03 RMK AO2 T01280022 $
53988KBKB BKB20190402093010504/02/19 09:30:31  5-MIN KBKB 021530Z AUTO 00000KT 10SM 13/02 A3023 10 48 -200 000/00 RMK AO2 T01280022 $
53988KBKB BKB20190402093510504/02/19 09:35:31  5-MIN KBKB 021535Z AUTO VRB03KT 10SM 13/02 A3023 10 46 -100 VRB/03 RMK AO2 T01330022 $
53988KBKB BKB20190402094010504/02/19 09:40:31  5-MIN KBKB 021540Z AUTO 02003KT 10SM 13/02 A3023 10 46 -100 020/03 RMK AO2 T01330022 $
53988KBKB BKB20190402094510204/02/19 09:45:31  5-MIN KBKB 021545Z AUTO 00000KT 10SM 14/02 A3023 10 45 0 000/00 RMK AO2 T01390022 $
53988KBKB BKB20190402095011304/02/19 09:50:31  5-MIN KBKB 021550Z AUTO VRB04KT 10SM CLR 14/02 A3023 10 43 0 VRB/04 RMK AO2 SLP266 T01390017 $
53988KBKB BKB20190402095510604/02/19 09:55:31  5-MIN KBKB 021555Z AUTO VRB03KT 10SM CLR 14/02 A3023 10 43 0 VRB/03 RMK AO2 T01440022 $
53988KBKB BKB20190402100010804/02/19 10:00:31  5-MIN KBKB 021600Z AUTO VRB03KT 10SM CLR 15/03 A3023 10 43 100 VRB/03 RMK AO2 T01500028 $
53988KBKB BKB20190402104004904/02/19 10:40:31  5-MIN KBKB 021640Z AUTO RVRNO 
53988KBKB BKB20190402105007304/02/19 10:50:31  5-MIN KBKB 021650Z AUTO 34003KT M M M 330/03 RMK AO2 $
53988KBKB BKB20190402105507904/02/19 10:55:31  5-MIN KBKB 021655Z AUTO 00000KT A3023 M M M 000/00 RMK AO2 $
53988KBKB BKB20190402110010404/02/19 11:00:31  5-MIN KBKB 021700Z AUTO 25003KT 10SM 17/01 A3023 20 34 300 240/03 RMK AO2 T01670011 $
53988KBKB BKB20190402110510404/02/19 11:05:31  5-MIN KBKB 021705Z AUTO VRB05KT 10SM 17/01 A3023 20 34 300 VRB/05 RMK AO2 T01670011 $
53988KBKB BKB20190402111010404/02/19 11:10:31  5-MIN KBKB 021710Z AUTO 11004KT 10SM 16/01 A3022 20 36 200 100/04 RMK AO2 T01610011 $
53988KBKB BKB20190402111510404/02/19 11:15:31  5-MIN KBKB 021715Z AUTO VRB03KT 10SM 17/02 A3022 20 36 300 VRB/03 RMK AO2 T01670017 $
53988KBKB BKB20190402130007304/02/19 13:00:31  5-MIN KBKB 021900Z AUTO 00000KT M M M 000/00 RMK AO2 $
53988KBKB BKB20190402153006304/02/19 15:30:31  5-MIN KBKB 022130Z AUTO M M M M /M RMK AO2 $
53988KBKB BKB20190402154510004/02/19 15:45:31  5-MIN KBKB 022145Z AUTO 00000KT 21/01 A3013 100 25 900 000/00 RMK AO2 T02110006 $
53988KBKB BKB20190402155011104/02/19 15:50:31  5-MIN KBKB 022150Z AUTO 00000KT 10SM 21/01 A3013 110 26 800 000/00 RMK AO2 SLPNO T02060006 $
53988KBKB BKB20190402155510504/02/19 15:55:31  5-MIN KBKB 022155Z AUTO 00000KT 10SM 21/00 A3013 100 25 800 000/00 RMK AO2 T02060000 $
53988KBKB BKB20190402182507004/02/19 18:25:31  5-MIN KBKB 030025Z AUTO M M M M /M RMK AO2 FZRANO $
53988KBKB BKB20190402211006304/02/19 21:10:31  5-MIN KBKB 030310Z AUTO M M M M /M RMK AO2 $
53988KBKB BKB20190402212007004/02/19 21:20:31  5-MIN KBKB 030320Z AUTO M M M M /M RMK AO2 FZRANO $
53988KBKB BKB20190402213510004/02/19 21:35:31  5-MIN KBKB 030335Z AUTO 00000KT 08/03 A3018 60 73 -700 000/00 RMK AO2 T00780033 $
53988KBKB BKB20190402214010504/02/19 21:40:31  5-MIN KBKB 030340Z AUTO 00000KT 10SM 08/03 A3018 60 73 -700 000/00 RMK AO2 T00780033 $
53988KBKB BKB20190402214510504/02/19 21:45:31  5-MIN KBKB 030345Z AUTO 00000KT 10SM 08/04 A3018 60 76 -700 000/00 RMK AO2 T00780039 $
53988KBKB BKB20190402215011204/02/19 21:50:31  5-MIN KBKB 030350Z AUTO 00000KT 10SM 08/04 A3018 60 76 -700 000/00 RMK AO2 SLP250 T00780039 $
53988KBKB BKB20190403080506304/03/19 08:05:31  5-MIN KBKB 031405Z AUTO M M M M /M RMK AO2 $
53988KBKB BKB20190403084007904/03/19 08:40:31  5-MIN KBKB 031440Z AUTO 00000KT A3024 M M M 000/00 RMK AO2 $
53988KBKB BKB20190403094007304/03/19 09:40:31  5-MIN KBKB 031540Z AUTO 00000KT M M M 000/00 RMK AO2 $
53988KBKB BKB20190403094507304/03/19 09:45:31  5-MIN KBKB 031545Z AUTO VRB04KT M M M VRB/04 RMK AO2 $
53988KBKB BKB20190403095010104/03/19 09:50:31  5-MIN KBKB 031550Z AUTO 00000KT 10SM 18/06 M 46 M 000/00 RMK AO2 SLPNO T01780061 $
53988KBKB BKB20190403095509504/03/19 09:55:31  5-MIN KBKB 031555Z AUTO 00000KT 10SM 18/07 M 46 M 000/00 RMK AO2 T01830067 $
53988KBKB BKB20190403100009504/03/19 10:00:31  5-MIN KBKB 031600Z AUTO 00000KT 10SM 18/07 M 46 M 000/00 RMK AO2 T01830067 $
53988KBKB BKB20190403100509504/03/19 10:05:31  5-MIN KBKB 031605Z AUTO 00000KT 10SM 18/06 M 44 M 000/00 RMK AO2 T01830061 $
53988KBKB BKB20190403101009904/03/19 10:10:31  5-MIN KBKB 031610Z AUTO 13004KT 10SM CLR 19/06 M 43 M 130/04 RMK AO2 T01890061 $
53988KBKB BKB20190403101509904/03/19 10:15:31  5-MIN KBKB 031615Z AUTO VRB03KT 10SM CLR 19/06 M 41 M VRB/03 RMK AO2 T01940061 $
53988KBKB BKB20190403102008904/03/19 10:20:31  5-MIN KBKB 031620Z AUTO 10SM CLR 19/06 M 43 M M /M RMK AO2 T01890061 $
53988KBKB BKB20190403102509904/03/19 10:25:31  5-MIN KBKB 031625Z AUTO VRB04KT 10SM CLR 19/06 M 40 M VRB/04 RMK AO2 T01940056 $
53988KBKB BKB20190403103009904/03/19 10:30:31  5-MIN KBKB 031630Z AUTO VRB06KT 10SM CLR 20/06 M 40 M VRB/06 RMK AO2 T02000061 $
53988KBKB BKB20190403103509904/03/19 10:35:31  5-MIN KBKB 031635Z AUTO VRB06KT 10SM CLR 20/06 M 38 M VRB/06 RMK AO2 T02000056 $
53988KBKB BKB20190403104009904/03/19 10:40:31  5-MIN KBKB 031640Z AUTO VRB04KT 10SM CLR 21/06 M 37 M VRB/04 RMK AO2 T02060056 $
53988KBKB BKB20190403104509904/03/19 10:45:31  5-MIN KBKB 031645Z AUTO VRB05KT 10SM CLR 21/06 M 37 M VRB/05 RMK AO2 T02060056 $
53988KBKB BKB20190403105010504/03/19 10:50:31  5-MIN KBKB 031650Z AUTO VRB04KT 10SM CLR 21/06 M 38 M VRB/04 RMK AO2 SLPNO T02060061 $
53988KBKB BKB20190403105509904/03/19 10:55:31  5-MIN KBKB 031655Z AUTO 11008KT 10SM CLR 21/06 M 37 M 110/08 RMK AO2 T02060056 $
53988KBKB BKB20190403110009904/03/19 11:00:31  5-MIN KBKB 031700Z AUTO VRB04KT 10SM CLR 20/06 M 38 M VRB/04 RMK AO2 T02000056 $
53988KBKB BKB20190403110509904/03/19 11:05:31  5-MIN KBKB 031705Z AUTO VRB04KT 10SM CLR 21/06 M 37 M VRB/04 RMK AO2 T02110061 $
53988KBKB BKB20190403111009904/03/19 11:10:31  5-MIN KBKB 031710Z AUTO VRB06KT 10SM CLR 21/06 M 37 M VRB/06 RMK AO2 T02110061 $
53988KBKB BKB20190403111509904/03/19 11:15:31  5-MIN KBKB 031715Z AUTO VRB05KT 10SM CLR 21/06 M 37 M VRB/05 RMK AO2 T02110061 $
53988KBKB BKB20190403112009904/03/19 11:20:31  5-MIN KBKB 031720Z AUTO VRB04KT 10SM CLR 22/06 M 36 M VRB/04 RMK AO2 T02170061 $
53988KBKB BKB20190403112511504/03/19 11:25:31  5-MIN KBKB 031725Z AUTO 13008KT 100V170 10SM CLR 22/06 M 36 M 130/08 100V170 RMK AO2 T02170061 $
53988KBKB BKB20190403113009904/03/19 11:30:31  5-MIN KBKB 031730Z AUTO VRB06KT 10SM CLR 22/06 M 34 M VRB/06 RMK AO2 T02170056 $
53988KBKB BKB20190403113509904/03/19 11:35:31  5-MIN KBKB 031735Z AUTO VRB05KT 10SM CLR 22/06 M 34 M VRB/05 RMK AO2 T02170056 $
53988KBKB BKB20190403114009904/03/19 11:40:31  5-MIN KBKB 031740Z AUTO VRB05KT 10SM CLR 21/06 M 36 M VRB/05 RMK AO2 T02110056 $
53988KBKB BKB20190403114509904/03/19 11:45:31  5-MIN KBKB 031745Z AUTO VRB03KT 10SM CLR 21/05 M 34 M VRB/03 RMK AO2 T02110050 $
53988KBKB BKB20190403115011704/03/19 11:50:31  5-MIN KBKB 031750Z AUTO VRB06KT 10SM CLR 22/06 M 33 M VRB/06 RMK AO2 SLPNO T02220056 10222 20117 $
53988KBKB BKB20190403115509904/03/19 11:55:31  5-MIN KBKB 031755Z AUTO VRB05KT 10SM CLR 22/06 M 33 M VRB/05 RMK AO2 T02220056 $
53988KBKB BKB20190403120009904/03/19 12:00:31  5-MIN KBKB 031800Z AUTO VRB06KT 10SM CLR 22/05 M 33 M VRB/06 RMK AO2 T02170050 $
53988KBKB BKB20190403120509904/03/19 12:05:31  5-MIN KBKB 031805Z AUTO VRB06KT 10SM CLR 22/05 M 33 M VRB/06 RMK AO2 T02170050 $
53988KBKB BKB20190403121009904/03/19 12:10:31  5-MIN KBKB 031810Z AUTO VRB03KT 10SM CLR 22/06 M 33 M VRB/03 RMK AO2 T02220056 $
53988KBKB BKB20190403121509904/03/19 12:15:31  5-MIN KBKB 031815Z AUTO 00000KT 10SM CLR 23/06 M 32 M 000/00 RMK AO2 T02280056 $
53988KBKB BKB20190403122009904/03/19 12:20:31  5-MIN KBKB 031820Z AUTO VRB06KT 10SM CLR 23/06 M 32 M VRB/06 RMK AO2 T02280056 $
53988KBKB BKB20190403122509904/03/19 12:25:31  5-MIN KBKB 031825Z AUTO VRB05KT 10SM CLR 23/06 M 32 M VRB/05 RMK AO2 T02280056 $
53988KBKB BKB20190403123009904/03/19 12:30:31  5-MIN KBKB 031830Z AUTO VRB05KT 10SM CLR 23/06 M 31 M VRB/05 RMK AO2 T02330056 $
53988KBKB BKB20190403123509904/03/19 12:35:31  5-MIN KBKB 031835Z AUTO VRB03KT 10SM CLR 23/05 M 30 M VRB/03 RMK AO2 T02330050 $
53988KBKB BKB20190403124008904/03/19 12:40:31  5-MIN KBKB 031840Z AUTO 10SM CLR 23/06 M 31 M M /M RMK AO2 T02330056 $
53988KBKB BKB20190403124509904/03/19 12:45:31  5-MIN KBKB 031845Z AUTO VRB05KT 10SM CLR 24/06 M 30 M VRB/05 RMK AO2 T02390056 $
53988KBKB BKB20190403125010504/03/19 12:50:31  5-MIN KBKB 031850Z AUTO VRB04KT 10SM CLR 23/05 M 30 M VRB/04 RMK AO2 SLPNO T02330050 $
53988KBKB BKB20190403125510204/03/19 12:55:31  5-MIN KBKB 031855Z AUTO VRB06KT 10SM FEW080 23/06 M 31 M VRB/06 RMK AO2 T02330056 $
53988KBKB BKB20190403130010204/03/19 13:00:31  5-MIN KBKB 031900Z AUTO VRB04KT 10SM SCT085 23/06 M 31 M VRB/04 RMK AO2 T02330056 $
53988KBKB BKB20190403130510204/03/19 13:05:31  5-MIN KBKB 031905Z AUTO VRB06KT 10SM BKN085 23/06 M 32 M VRB/06 RMK AO2 T02280056 $
53988KBKB BKB20190403131010204/03/19 13:10:31  5-MIN KBKB 031910Z AUTO VRB04KT 10SM BKN090 23/06 M 32 M VRB/04 RMK AO2 T02330061 $
53988KBKB BKB20190403131510204/03/19 13:15:31  5-MIN KBKB 031915Z AUTO 00000KT 10SM BKN090 23/06 M 33 M 000/00 RMK AO2 T02280061 $
53988KBKB BKB20190403145005004/03/19 14:50:31  5-MIN KBKB 032050Z AUTO RVRNO $
53988KBKB BKB20190404014007204/04/19 01:40:31  5-MIN KBKB 040740Z AUTO TS M M M M /M RMK AO2 TSB39 $
53988KBKB BKB20190404022010304/04/19 02:20:31  5-MIN KBKB 040820Z AUTO 21003KT -TSRA A3007 M M M 200/03 RMK AO2 RAB41 TSB39 P0000 $
53988KBKB BKB20190404022512904/04/19 02:25:31  5-MIN KBKB 040825Z AUTO 00000KT 10SM -TSRA 16/14 A3007 160 90 300 000/00 RMK AO2 RAB41 TSB39 P0000 T01560139 $
53988KBKB BKB20190404023012904/04/19 02:30:31  5-MIN KBKB 040830Z AUTO 00000KT 10SM -TSRA 16/14 A3006 170 90 300 000/00 RMK AO2 RAB41 TSB39 P0000 T01560139 $
53988KBKB BKB20190404023513204/04/19 02:35:31  5-MIN KBKB 040835Z AUTO 12004KT 10SM -TSRA 16/14 A3005 180 90 300 120/04 RMK AO2 RAB41 TSB39B31 P0000 T01560139 $
53988KBKB BKB20190404024013204/04/19 02:40:31  5-MIN KBKB 040840Z AUTO 00000KT 10SM -TSRA 16/14 A3005 180 90 300 000/00 RMK AO2 RAB41 TSB39B31 P0000 T01560139 $
53988KBKB BKB20190404024513204/04/19 02:45:31  5-MIN KBKB 040845Z AUTO 00000KT 10SM -TSRA 16/14 A3006 170 90 300 000/00 RMK AO2 RAB41 TSB39B31 P0000 T01560139 $
53988KBKB BKB20190404025014304/04/19 02:50:31  5-MIN KBKB 040850Z AUTO VRB03KT 10SM -TSRA BKN021 BKN028 OVC036 16/14 A3005 180 90 300 VRB/03 RMK AO2 RAB41 TSB39B31 P0000 $
53988KBKB BKB20190404025513804/04/19 02:55:31  5-MIN KBKB 040855Z AUTO 00000KT 10SM -TSRA BKN021 BKN028 OVC036 16/14 A3005 180 90 300 000/00 RMK AO2 P0000 T01560139 $
53988KBKB BKB20190404030013804/04/19 03:00:31  5-MIN KBKB 040900Z AUTO 00000KT 10SM -TSRA BKN020 BKN028 OVC036 16/14 A3003 190 93 300 000/00 RMK AO2 P0000 T01560144 $
53988KBKB BKB20190404030513104/04/19 03:05:31  5-MIN KBKB 040905Z AUTO 11005KT 10SM -TSRA OVC020 16/14 A3002 200 93 400 100/05 RMK AO2 PRESFR P0000 T01560144 $
53988KBKB BKB20190404031012404/04/19 03:10:31  5-MIN KBKB 040910Z AUTO 00000KT 10SM -TSRA OVC020 16/14 A3003 190 93 300 000/00 RMK AO2 P0000 T01560144 $
53988KBKB BKB20190404031513004/04/19 03:15:31  5-MIN KBKB 040915Z AUTO VRB03KT 8SM -TSRA SCT014 OVC020 16/14 A3004 190 93 300 VRB/03 RMK AO2 P0000 T01560144 $
53988KBKB BKB20190404032013004/04/19 03:20:31  5-MIN KBKB 040920Z AUTO 00000KT 9SM -TSRA BKN014 OVC019 16/14 A3004 190 93 300 000/00 RMK AO2 P0000 T01560144 $
53988KBKB BKB20190404032513304/04/19 03:25:31  5-MIN KBKB 040925Z AUTO 00000KT 5SM -TSRA BR BKN014 OVC019 16/14 A3003 200 93 300 000/00 RMK AO2 P0000 T01560144 $
53988KBKB BKB20190404033013404/04/19 03:30:31  5-MIN KBKB 040930Z AUTO 22004KT 2SM +TSRA BR BKN012 OVC019 15/15 A3005 180 100 300 210/04 RMK AO2 P0000 T01500150 $
53988KBKB BKB20190404033513404/04/19 03:35:31  5-MIN KBKB 040935Z AUTO 00000KT 3SM -TSRA BR BKN012 OVC019 15/15 A3004 190 100 300 000/00 RMK AO2 P0000 T01500150 $
53988KBKB BKB20190404034012604/04/19 03:40:31  5-MIN KBKB 040940Z AUTO 00000KT 4SM -TSRA BR BKN012 16/15 A3003 200 96 300 000/00 RMK AO2 P0000 T01560150 $
53988KBKB BKB20190404034514304/04/19 03:45:31  5-MIN KBKB 040945Z AUTO 09004KT 1 3/4SM +TSRA BR BKN012 BKN020 OVC080 15/15 A3001 220 100 300 090/04 RMK AO2 T01500150 PNO $
53988KBKB BKB20190404035014604/04/19 03:50:31  5-MIN KBKB 040950Z AUTO VRB03KT 2SM -TSRA BR BKN012 BKN020 OVC080 15/15 A3002 210 100 300 VRB/03 RMK AO2 SLP195 T01500150 PNO $
53988KBKB BKB20190404035513504/04/19 03:55:31  5-MIN KBKB 040955Z AUTO 00000KT 9SM -TSRA BKN010 BKN018 OVC080 16/15 A3002 200 96 400 000/00 RMK AO2 T01560150 PNO $
53988KBKB BKB20190404040013604/04/19 04:00:31  5-MIN KBKB 041000Z AUTO VRB04KT 9SM -TSRA BKN008 BKN012 OVC025 16/16 A3002 210 100 400 VRB/04 RMK AO2 T01560156 PNO $
53988KBKB BKB20190404040514304/04/19 04:05:31  5-MIN KBKB 041005Z AUTO 19004KT 7SM -TSRA SCT005 BKN010 OVC070 16/16 A3004 190 100 300 190/04 RMK AO2 PRESRR T01560156 PNO $
53988KBKB BKB20190404041013904/04/19 04:10:31  5-MIN KBKB 041010Z AUTO VRB03KT 2SM +TSRA BR SCT005 BKN010 OVC015 16/16 A3003 200 100 300 VRB/03 RMK AO2 T01560156 PNO $
53988KBKB BKB20190404041513904/04/19 04:15:31  5-MIN KBKB 041015Z AUTO 12005KT 1SM +TSRA BR SCT005 BKN010 OVC050 16/16 A3002 210 100 400 120/05 RMK AO2 T01610161 PNO $
53988KBKB BKB20190404042014304/04/19 04:20:31  5-MIN KBKB 041020Z AUTO VRB03KT 1 1/2SM -TSRA BR FEW005 BKN010 OVC047 16/16 A3002 200 100 400 VRB/03 RMK AO2 T01610161 PNO $
53988KBKB BKB20190404042513904/04/19 04:25:31  5-MIN KBKB 041025Z AUTO VRB03KT 5SM -TSRA BR SCT007 BKN031 OVC055 16/16 A3001 210 100 400 VRB/03 RMK AO2 T01610161 PNO $
53988KBKB BKB20190404043013804/04/19 04:30:31  5-MIN KBKB 041030Z AUTO VRB04KT 4SM TSRA BR FEW007 BKN035 OVC065 16/16 A3002 210 100 400 VRB/04 RMK AO2 T01610161 PNO $
53988KBKB BKB20190404043513904/04/19 04:35:31  5-MIN KBKB 041035Z AUTO 00000KT 2SM +TSRA BR FEW006 BKN028 OVC049 16/16 A3001 210 100 400 000/00 RMK AO2 T01610161 PNO $
53988KBKB BKB20190404044013904/04/19 04:40:31  5-MIN KBKB 041040Z AUTO 30003KT 2SM -TSRA BR BKN028 BKN040 OVC049 16/16 A3002 200 100 400 290/03 RMK AO2 T01610161 PNO $
53988KBKB BKB20190404044514604/04/19 04:45:31  5-MIN KBKB 041045Z AUTO VRB03KT 4SM -TSRA BR FEW010 BKN028 OVC049 16/16 A3004 190 100 400 VRB/03 RMK AO2 PRESRR T01610161 PNO $
53988KBKB BKB20190404045014604/04/19 04:50:31  5-MIN KBKB 041050Z AUTO VRB04KT 6SM -TSRA BR SCT008 BKN028 OVC040 16/16 A3003 190 100 400 VRB/04 RMK AO2 SLP201 T01610161 PNO $
53988KBKB BKB20190404045513304/04/19 04:55:31  5-MIN KBKB 041055Z AUTO VRB05KT 8SM TS BKN008 BKN030 OVC040 17/17 A3004 190 100 500 VRB/05 RMK AO2 T01670167 PNO $
53988KBKB BKB20190404050013404/04/19 05:00:31  5-MIN KBKB 041100Z AUTO VRB03KT 10SM TS BKN008 OVC030 17/17 A3005 180 100 500 VRB/03 RMK AO2 PRESRR T01670167 PNO $
53988KBKB BKB20190404050514204/04/19 05:05:31  5-MIN KBKB 041105Z AUTO 00000KT 10SM VCTS BKN007 BKN011 OVC028 17/17 A3004 190 100 500 000/00 RMK AO2 TSE03 T01670167 PNO $
53988KBKB BKB20190404051014704/04/19 05:10:31  5-MIN KBKB 041110Z AUTO VRB04KT 10SM VCTS BKN007 OVC019 17/17 A3004 190 100 500 VRB/04 RMK AO2 TSE03 CIG 006V011 T01670167 PNO $
53988KBKB BKB20190404051513704/04/19 05:15:31  5-MIN KBKB 041115Z AUTO VRB04KT 10SM BKN007 BKN011 OVC025 17/17 A3004 190 100 500 VRB/04 RMK AO2 TSE03 T01670167 PNO $
53988KBKB BKB20190404052013704/04/19 05:20:31  5-MIN KBKB 041120Z AUTO 11004KT 10SM SCT007 BKN018 OVC025 17/17 A3003 190 100 500 110/04 RMK AO2 TSE03 T01670167 PNO $
53988KBKB BKB20190404052513704/04/19 05:25:31  5-MIN KBKB 041125Z AUTO VRB05KT 10SM FEW007 SCT011 OVC022 17/17 A3003 200 100 500 VRB/05 RMK AO2 TSE03 T01670167 PNO $
53988KBKB BKB20190404053012904/04/19 05:30:31  5-MIN KBKB 041130Z AUTO VRB03KT 10SM FEW009 OVC022 17/17 A3003 200 96 500 VRB/03 RMK AO2 TSE03 T01720167 PNO $
53988KBKB BKB20190404053512904/04/19 05:35:31  5-MIN KBKB 041135Z AUTO VRB04KT 10SM FEW009 OVC022 17/17 A3002 210 96 600 VRB/04 RMK AO2 TSE03 T01720167 PNO $
53988KBKB BKB20190404054012904/04/19 05:40:31  5-MIN KBKB 041140Z AUTO VRB03KT 10SM FEW009 OVC022 17/17 A3002 210 96 600 VRB/03 RMK AO2 TSE03 T01720167 PNO $
53988KBKB BKB20190404180519504/04/19 18:05:31  5-MIN KBKB 050005Z AUTO 00000KT 1 1/2SM BR 20/20 A2994 280 100 1000 000/00 RMK AO2 RAB2316231523162355B23162351B2326B2329 TSB23162357B2325B2328B2356B2314E2308 P0001 T02000200 $
53988KBKB BKB20190404181019004/04/19 18:10:31  5-MIN KBKB 050010Z AUTO 00000KT 1SM BR 19/19 A2994 280 100 900 000/00 RMK AO2 RAB2316231523162355B23162351B2326B2329 TSB23162357B2325B2328B2356B2314E2308 P0001 T01940194 $
53988KBKB BKB20190404181519004/04/19 18:15:31  5-MIN KBKB 050015Z AUTO 00000KT 1SM BR 19/19 A2994 280 100 900 000/00 RMK AO2 RAB2316231523162355B23162351B2326B2329 TSB23162357B2325B2328B2356B2314E2308 P0001 T01940194 $
53988KBKB BKB20190404182019404/04/19 18:20:31  5-MIN KBKB 050020Z AUTO 00000KT 1 1/4SM BR 19/19 A2994 280 100 900 000/00 RMK AO2 RAB2316231523162355B23162351B2326B2329 TSB23162357B2325B2328B2356B2314E2308 P0001 T01940194 $
53988KBKB BKB20190404182520804/04/19 18:25:31  5-MIN KBKB 050025Z AUTO 11004KT 1 1/4SM -RA BR OVC002 19/19 A2994 280 100 900 110/04 RMK AO2 RAB2316231523162355B23162351B2326B2329B25 TSB23162357B2325B2328B2356B2314E2308 P0001 T01940194 $
53988KBKB BKB20190404183020404/04/19 18:30:31  5-MIN KBKB 050030Z AUTO VRB03KT 1SM -RA BR OVC002 19/19 A2994 280 100 900 VRB/03 RMK AO2 RAB2316231523162355B23162351B2326B2329B25 TSB23162357B2325B2328B2356B2314E2308 P0001 T01940194 $
53988KBKB BKB20190404183520704/04/19 18:35:31  5-MIN KBKB 050035Z AUTO 00000KT 1 1/4SM BR OVC002 19/19 A2994 280 100 900 000/00 RMK AO2 RAB2316231523162355B23162351B2326B2329B25E34 TSB23162357B2325B2328B2356B2314E2308 P0001 T01940194 $
53988KBKB BKB20190404184020704/04/19 18:40:31  5-MIN KBKB 050040Z AUTO VRB03KT 1 1/4SM BR OVC002 19/19 A2994 280 100 900 VRB/03 RMK AO2 RAB2316231523162355B23162351B2326B2329B25E34 TSB23162357B2325B2328B2356B2314E2308 P0001 T01940194 $
53988KBKB BKB20190404184520704/04/19 18:45:31  5-MIN KBKB 050045Z AUTO VRB03KT 1 1/4SM BR OVC002 19/19 A2993 290 100 900 VRB/03 RMK AO2 RAB2316231523162355B23162351B2326B2329B25E34 TSB23162357B2325B2328B2356B2314E2308 P0001 T01940194 $
53988KBKB BKB20190404185021404/04/19 18:50:31  5-MIN KBKB 050050Z AUTO VRB03KT 1 1/2SM BR OVC002 19/19 A2994 280 100 900 VRB/03 RMK AO2 RAB2316231523162355B23162351B2326B2329B25E34 TSB23162357B2325B2328B2356B2314E2308 SLP164 P0001 T01940194 $
53988KBKB BKB20190404185511904/04/19 18:55:31  5-MIN KBKB 050055Z AUTO VRB03KT 1 1/2SM BR OVC002 19/19 A2994 280 100 900 VRB/03 RMK AO2 T01940194 $
53988KBKB BKB20190404190011904/04/19 19:00:31  5-MIN KBKB 050100Z AUTO VRB04KT 1 1/2SM BR OVC002 19/19 A2995 270 100 900 VRB/04 RMK AO2 T01940194 $
53988KBKB BKB20190404190511504/04/19 19:05:31  5-MIN KBKB 050105Z AUTO VRB03KT 2SM BR OVC002 19/19 A2995 270 100 900 VRB/03 RMK AO2 T01940194 $
53988KBKB BKB20190404191011504/04/19 19:10:31  5-MIN KBKB 050110Z AUTO VRB04KT 2SM BR OVC002 19/19 A2995 270 100 900 VRB/04 RMK AO2 T01940194 $
53988KBKB BKB20190404191511504/04/19 19:15:31  5-MIN KBKB 050115Z AUTO VRB04KT 2SM BR OVC002 19/19 A2994 280 100 900 VRB/04 RMK AO2 T01940194 $
53988KBKB BKB20190404192011904/04/19 19:20:31  5-MIN KBKB 050120Z AUTO VRB05KT 2 1/2SM BR OVC002 19/19 A2994 280 100 900 VRB/05 RMK AO2 T01940194 $
53988KBKB BKB20190404192511904/04/19 19:25:31  5-MIN KBKB 050125Z AUTO VRB03KT 2 1/2SM BR OVC002 19/19 A2994 280 100 900 VRB/03 RMK AO2 T01940194 $
53988KBKB BKB20190404193011504/04/19 19:30:31  5-MIN KBKB 050130Z AUTO VRB04KT 2SM BR OVC002 19/19 A2995 270 100 900 VRB/04 RMK AO2 T01940194 $
53988KBKB BKB20190404193511904/04/19 19:35:31  5-MIN KBKB 050135Z AUTO 09003KT 2 1/2SM BR OVC002 19/19 A2995 270 100 900 090/03 RMK AO2 T01940194 $
53988KBKB BKB20190404194011504/04/19 19:40:31  5-MIN KBKB 050140Z AUTO VRB03KT 3SM BR OVC002 19/19 A2995 270 100 900 VRB/03 RMK AO2 T01940194 $
53988KBKB BKB20190404194511504/04/19 19:45:31  5-MIN KBKB 050145Z AUTO 00000KT 4SM BR OVC002 19/19 A2996 260 100 900 000/00 RMK AO2 T01940194 $
53988KBKB BKB20190404195012204/04/19 19:50:31  5-MIN KBKB 050150Z AUTO 00000KT 4SM BR OVC002 19/19 A2996 260 100 900 000/00 RMK AO2 SLP172 T01940194 $
53988KBKB BKB20190404195511504/04/19 19:55:31  5-MIN KBKB 050155Z AUTO 00000KT 4SM BR OVC002 19/19 A2996 260 100 900 000/00 RMK AO2 T01940194 $
53988KBKB BKB20190404200011504/04/19 20:00:31  5-MIN KBKB 050200Z AUTO VRB03KT 4SM BR OVC002 19/19 A2997 250 100 900 VRB/03 RMK AO2 T01940194 $
53988KBKB BKB20190404200511504/04/19 20:05:31  5-MIN KBKB 050205Z AUTO VRB04KT 4SM BR OVC002 19/19 A2997 250 100 800 VRB/04 RMK AO2 T01890189 $
53988KBKB BKB20190404201010504/04/19 20:10:31  5-MIN KBKB 050210Z AUTO 4SM BR OVC002 19/19 A2997 260 100 800 M /M RMK AO2 T01890189 $
53988KBKB BKB20190404201511504/04/19 20:15:31  5-MIN KBKB 050215Z AUTO 00000KT 4SM BR OVC002 19/19 A2996 260 100 800 000/00 RMK AO2 T01890189 $
53988KBKB BKB20190404202506304/04/19 20:25:31  5-MIN KBKB 050225Z AUTO M M M M /M RMK AO2 $
53988KBKB BKB20190404203010104/04/19 20:30:31  5-MIN KBKB 050230Z AUTO VRB04KT 19/19 A2997 250 100 800 VRB/04 RMK AO2 T01890189 $
53988KBKB BKB20190404203510804/04/19 20:35:31  5-MIN KBKB 050235Z AUTO 00000KT 3SM BR 19/19 A2997 250 100 800 000/00 RMK AO2 T01890189 $
53988KBKB BKB20190404204010804/04/19 20:40:31  5-MIN KBKB 050240Z AUTO VRB04KT 3SM BR 19/19 A2997 250 100 800 VRB/04 RMK AO2 T01890189 $
53988KBKB BKB20190404204510804/04/19 20:45:31  5-MIN KBKB 050245Z AUTO VRB03KT 3SM BR 19/19 A2998 240 100 800 VRB/03 RMK AO2 T01890189 $
53988KBKB BKB20190404205012104/04/19 20:50:31  5-MIN KBKB 050250Z AUTO 00000KT 3SM BR 19/19 A2999 240 100 800 000/00 RMK AO2 SLP180 60001 T01890189 $
53988KBKB BKB20190404205511904/04/19 20:55:31  5-MIN KBKB 050255Z AUTO 00000KT 2 1/2SM BR OVC002 18/18 A2999 240 100 700 000/00 RMK AO2 T01830183 $
53988KBKB BKB20190404210011904/04/19 21:00:31  5-MIN KBKB 050300Z AUTO VRB03KT 2 1/2SM BR OVC002 18/18 A2999 230 100 700 VRB/03 RMK AO2 T01830183 $
53988KBKB BKB20190404210511904/04/19 21:05:31  5-MIN KBKB 050305Z AUTO VRB03KT 2 1/2SM BR OVC002 18/18 A2999 240 100 700 VRB/03 RMK AO2 T01830183 $
53988KBKB BKB20190404211011904/04/19 21:10:31  5-MIN KBKB 050310Z AUTO VRB04KT 2 1/2SM BR OVC002 18/18 A2999 240 100 700 VRB/04 RMK AO2 T01830183 $
53988KBKB BKB20190404211511904/04/19 21:15:31  5-MIN KBKB 050315Z AUTO VRB03KT 2 1/2SM BR OVC002 18/18 A2999 240 100 700 VRB/03 RMK AO2 T01830183 $
53988KBKB BKB20190404212011904/04/19 21:20:31  5-MIN KBKB 050320Z AUTO VRB04KT 2 1/2SM BR OVC002 18/18 A2999 240 100 700 VRB/04 RMK AO2 T01830183 $
53988KBKB BKB20190404212511904/04/19 21:25:31  5-MIN KBKB 050325Z AUTO 00000KT 2 1/2SM BR OVC002 18/18 A2999 240 100 700 000/00 RMK AO2 T01830183 $
53988KBKB BKB20190404213011904/04/19 21:30:31  5-MIN KBKB 050330Z AUTO VRB03KT 2 1/2SM BR OVC002 18/18 A2999 230 100 700 VRB/03 RMK AO2 T01780178 $
53988KBKB BKB20190404213511904/04/19 21:35:31  5-MIN KBKB 050335Z AUTO VRB03KT 2 1/2SM BR OVC002 18/18 A2999 230 100 700 VRB/03 RMK AO2 T01780178 $
53988KBKB BKB20190404214011904/04/19 21:40:31  5-MIN KBKB 050340Z AUTO 00000KT 2 1/2SM BR OVC002 18/18 A2999 230 100 700 000/00 RMK AO2 T01780178 $
53988KBKB BKB20190404214511904/04/19 21:45:31  5-MIN KBKB 050345Z AUTO VRB04KT 2 1/2SM BR OVC002 18/18 A2999 240 100 700 VRB/04 RMK AO2 T01780178 $
53988KBKB BKB20190404215012604/04/19 21:50:31  5-MIN KBKB 050350Z AUTO 00000KT 2 1/2SM BR OVC002 18/18 A2999 240 100 700 000/00 RMK AO2 SLP183 T01780178 $
53988KBKB BKB20190404215511904/04/19 21:55:31  5-MIN KBKB 050355Z AUTO 00000KT 2 1/2SM BR OVC003 18/18 A2999 240 100 700 000/00 RMK AO2 T01780178 $
53988KBKB BKB20190404220011904/04/19 22:00:31  5-MIN KBKB 050400Z AUTO VRB04KT 2 1/2SM BR OVC003 18/18 A2999 230 100 700 VRB/04 RMK AO2 T01780178 $
53988KBKB BKB20190404220511504/04/19 22:05:31  5-MIN KBKB 050405Z AUTO VRB03KT 3SM BR OVC003 18/18 A2999 230 100 700 VRB/03 RMK AO2 T01780178 $
53988KBKB BKB20190404221011504/04/19 22:10:31  5-MIN KBKB 050410Z AUTO 00000KT 3SM BR OVC003 18/18 A2999 230 100 700 000/00 RMK AO2 T01780178 $
53988KBKB BKB20190404221511904/04/19 22:15:31  5-MIN KBKB 050415Z AUTO VRB03KT 2 1/2SM BR OVC003 18/18 A2999 240 100 700 VRB/03 RMK AO2 T01780178 $
53988KBKB BKB20190404222011904/04/19 22:20:31  5-MIN KBKB 050420Z AUTO VRB05KT 2 1/2SM BR OVC003 18/18 A2998 240 100 700 VRB/05 RMK AO2 T01780178 $
53988KBKB BKB20190404222511504/04/19 22:25:31  5-MIN KBKB 050425Z AUTO 00000KT 3SM BR OVC002 18/18 A2999 240 100 700 000/00 RMK AO2 T01780178 $
53988KBKB BKB20190404223011504/04/19 22:30:31  5-MIN KBKB 050430Z AUTO 00000KT 4SM BR OVC002 18/18 A2999 230 100 700 000/00 RMK AO2 T01780178 $
53988KBKB BKB20190404223511504/04/19 22:35:31  5-MIN KBKB 050435Z AUTO 00000KT 3SM BR OVC002 18/18 A3000 230 100 600 000/00 RMK AO2 T01780178 $
53988KBKB BKB20190404224011504/04/19 22:40:31  5-MIN KBKB 050440Z AUTO 00000KT 3SM BR OVC002 18/18 A3000 230 100 600 000/00 RMK AO2 T01780178 $
53988KBKB BKB20190404224511904/04/19 22:45:31  5-MIN KBKB 050445Z AUTO 00000KT 2 1/2SM BR OVC002 18/18 A2999 230 100 600 000/00 RMK AO2 T01780178 $
53988KBKB BKB20190404225010904/04/19 22:50:31  5-MIN KBKB 050450Z AUTO 00000KT 2 1/2SM BR OVC002 18/18 A3000 230 100 600 000/00 RMK AO2 $
53988KBKB BKB20190404225511904/04/19 22:55:31  5-MIN KBKB 050455Z AUTO VRB03KT 2 1/2SM BR OVC002 18/18 A2999 230 100 600 VRB/03 RMK AO2 T01780178 $
53988KBKB BKB20190404230011504/04/19 23:00:31  5-MIN KBKB 050500Z AUTO VRB04KT 3SM BR OVC002 17/17 A2999 230 100 600 VRB/04 RMK AO2 T01720172 $
53988KBKB BKB20190404230511504/04/19 23:05:31  5-MIN KBKB 050505Z AUTO 00000KT 3SM BR OVC002 17/17 A3000 230 100 600 000/00 RMK AO2 T01720172 $
53988KBKB BKB20190404231011504/04/19 23:10:31  5-MIN KBKB 050510Z AUTO 15003KT 3SM BR OVC002 17/17 A3000 230 100 600 150/03 RMK AO2 T01720172 $
53988KBKB BKB20190404231511504/04/19 23:15:31  5-MIN KBKB 050515Z AUTO VRB03KT 3SM BR OVC002 17/17 A3000 230 100 600 VRB/03 RMK AO2 T01720172 $
53988KBKB BKB20190404232011504/04/19 23:20:31  5-MIN KBKB 050520Z AUTO 00000KT 3SM BR OVC002 17/17 A3000 220 100 600 000/00 RMK AO2 T01720172 $
53988KBKB BKB20190404232011504/04/19 23:20:31  5-MIN KBKB 050520Z AUTO 00000KT 3SM BR OVC002 17/17 A3000 220 100 600 110/03 RMK AO2 T01720172 $
53988KBKB BKB20190404232511504/04/19 23:25:31  5-MIN KBKB 050525Z AUTO 00000KT 4SM BR OVC002 17/17 A3000 220 100 600 000/00 RMK AO2 T01720172 $
53988KBKB BKB20190404233011504/04/19 23:30:31  5-MIN KBKB 050530Z AUTO 00000KT 3SM BR OVC003 17/17 A3000 230 100 600 000/00 RMK AO2 T01720172 $
53988KBKB BKB20190404233511904/04/19 23:35:31  5-MIN KBKB 050535Z AUTO 00000KT 2 1/2SM BR OVC003 17/17 A3000 230 100 600 000/00 RMK AO2 T01720172 $
53988KBKB BKB20190404234011504/04/19 23:40:31  5-MIN KBKB 050540Z AUTO 00000KT 2SM BR OVC003 17/17 A3000 230 100 600 000/00 RMK AO2 T01720172 $
53988KBKB BKB20190404234511504/04/19 23:45:31  5-MIN KBKB 050545Z AUTO VRB03KT 2SM BR OVC002 17/17 A3000 220 100 600 VRB/03 RMK AO2 T01720172 $
53988KBKB BKB20190404235015004/04/19 23:50:31  5-MIN KBKB 050550Z AUTO 00000KT 2SM BR OVC002 17/17 A3000 230 100 600 000/00 RMK AO2 SLP185 60001 T01720172 10194 20172 402390000 $
53988KBKB BKB20190404235511504/04/19 23:55:31  5-MIN KBKB 050555Z AUTO VRB03KT 2SM BR OVC002 17/17 A3000 220 100 600 VRB/03 RMK AO2 T01720172 $
53988KBKB BKB20190405000011904/05/19 00:00:31  5-MIN KBKB 050600Z AUTO 00000KT 1 3/4SM BR OVC002 17/17 A3000 230 100 600 000/00 RMK AO2 T01720172 $
53988KBKB BKB20190405000511904/05/19 00:05:31  5-MIN KBKB 050605Z AUTO 00000KT 1 1/2SM BR OVC002 17/17 A3000 220 100 600 000/00 RMK AO2 T01720172 $
53988KBKB BKB20190405001011904/05/19 00:10:31  5-MIN KBKB 050610Z AUTO 00000KT 1 1/2SM BR OVC002 17/17 A3000 220 100 600 000/00 RMK AO2 T01720172 $
53988KBKB BKB20190405001511904/05/19 00:15:31  5-MIN KBKB 050615Z AUTO 11003KT 1 3/4SM BR OVC002 17/17 A3000 220 100 600 110/03 RMK AO2 T01720172 $
53988KBKB BKB20190405002011904/05/19 00:20:31  5-MIN KBKB 050620Z AUTO 00000KT 1 3/4SM BR OVC002 17/17 A3000 230 100 600 000/00 RMK AO2 T01720172 $
53988KBKB BKB20190405002511904/05/19 00:25:31  5-MIN KBKB 050625Z AUTO 00000KT 1 3/4SM BR OVC002 17/17 A2999 230 100 600 000/00 RMK AO2 T01720172 $
53988KBKB BKB20190405003011904/05/19 00:30:31  5-MIN KBKB 050630Z AUTO 09003KT 1 1/2SM BR OVC002 17/17 A2999 230 100 600 090/03 RMK AO2 T01720172 $
53988KBKB BKB20190405003511904/05/19 00:35:31  5-MIN KBKB 050635Z AUTO 00000KT 1 1/4SM BR OVC002 17/17 A2999 230 100 600 000/00 RMK AO2 T01720172 $
53988KBKB BKB20190405004011904/05/19 00:40:31  5-MIN KBKB 050640Z AUTO 00000KT 1 1/4SM BR OVC002 17/17 A2999 230 100 600 000/00 RMK AO2 T01720172 $
53988KBKB BKB20190405004511904/05/19 00:45:31  5-MIN KBKB 050645Z AUTO 00000KT 1 1/4SM BR OVC002 17/17 A2999 230 100 600 000/00 RMK AO2 T01720172 $
53988KBKB BKB20190405005012604/05/19 00:50:31  5-MIN KBKB 050650Z AUTO 00000KT 1 1/4SM BR OVC002 17/17 A2999 240 100 600 000/00 RMK AO2 SLP182 T01720172 $
53988KBKB BKB20190405005511904/05/19 00:55:31  5-MIN KBKB 050655Z AUTO 00000KT 1 1/4SM BR OVC002 17/17 A2999 240 100 600 000/00 RMK AO2 T01720172 $
53988KBKB BKB20190405010011404/05/19 01:00:31  5-MIN KBKB 050700Z AUTO 00000KT 1SM BR VV002 17/17 A2999 240 100 600 000/00 RMK AO2 T01720172 $
53988KBKB BKB20190405010511404/05/19 01:05:31  5-MIN KBKB 050705Z AUTO 00000KT 1SM BR VV002 17/17 A2999 240 100 600 000/00 RMK AO2 T01720172 $
53988KBKB BKB20190405011011604/05/19 01:10:31  5-MIN KBKB 050710Z AUTO 00000KT 3/4SM BR VV002 17/17 A2999 240 100 600 000/00 RMK AO2 T01720172 $
53988KBKB BKB20190405011511604/05/19 01:15:31  5-MIN KBKB 050715Z AUTO 00000KT 3/4SM BR VV002 17/17 A2999 240 100 600 000/00 RMK AO2 T01720172 $
53988KBKB BKB20190405012011404/05/19 01:20:31  5-MIN KBKB 050720Z AUTO VRB03KT 1SM BR VV002 17/17 A2998 240 100 600 VRB/03 RMK AO2 T01720172 $
53988KBKB BKB20190405012511404/05/19 01:25:31  5-MIN KBKB 050725Z AUTO 00000KT 1SM BR VV002 17/17 A2999 240 100 600 000/00 RMK AO2 T01720172 $
53988KBKB BKB20190405013011404/05/19 01:30:31  5-MIN KBKB 050730Z AUTO 00000KT 1SM BR VV002 17/17 A2998 240 100 600 000/00 RMK AO2 T01720172 $
53988KBKB BKB20190405013511604/05/19 01:35:31  5-MIN KBKB 050735Z AUTO 00000KT 3/4SM BR VV002 17/17 A2998 240 100 600 000/00 RMK AO2 T01720172 $
53988KBKB BKB20190405014011604/05/19 01:40:31  5-MIN KBKB 050740Z AUTO 00000KT 3/4SM BR VV002 17/17 A2998 240 100 600 000/00 RMK AO2 T01720172 $
53988KBKB BKB20190405014511604/05/19 01:45:31  5-MIN KBKB 050745Z AUTO 00000KT 3/4SM BR VV002 17/17 A2998 240 100 600 000/00 RMK AO2 T01720172 $
53988KBKB BKB20190405015012304/05/19 01:50:31  5-MIN KBKB 050750Z AUTO 00000KT 3/4SM BR VV002 17/17 A2998 240 100 600 000/00 RMK AO2 SLP179 T01720172 $
53988KBKB BKB20190405015511604/05/19 01:55:31  5-MIN KBKB 050755Z AUTO 00000KT 3/4SM BR VV002 17/17 A2998 240 100 600 000/00 RMK AO2 T01720172 $
53988KBKB BKB20190405020011604/05/19 02:00:31  5-MIN KBKB 050800Z AUTO 00000KT 3/4SM BR VV002 17/17 A2998 240 100 600 000/00 RMK AO2 T01720172 $
53988KBKB BKB20190405020511604/05/19 02:05:31  5-MIN KBKB 050805Z AUTO 00000KT 3/4SM BR VV002 17/17 A2998 250 100 600 000/00 RMK AO2 T01720172 $
53988KBKB BKB20190405021011604/05/19 02:10:31  5-MIN KBKB 050810Z AUTO 00000KT 1/2SM FG VV002 17/17 A2997 250 100 600 000/00 RMK AO2 T01720172 $
53988KBKB BKB20190405021511604/05/19 02:15:31  5-MIN KBKB 050815Z AUTO 00000KT 1/2SM FG VV002 17/17 A2997 250 100 600 000/00 RMK AO2 T01720172 $
53988KBKB BKB20190405022011604/05/19 02:20:31  5-MIN KBKB 050820Z AUTO 00000KT 1/2SM FG VV002 17/17 A2997 250 100 600 000/00 RMK AO2 T01720172 $
53988KBKB BKB20190405022511604/05/19 02:25:31  5-MIN KBKB 050825Z AUTO 00000KT 3/4SM BR VV002 17/17 A2997 250 100 600 000/00 RMK AO2 T01720172 $
53988KBKB BKB20190405023011604/05/19 02:30:31  5-MIN KBKB 050830Z AUTO 00000KT 3/4SM BR VV002 17/17 A2997 250 100 600 000/00 RMK AO2 T01720172 $
53988KBKB BKB20190405023511604/05/19 02:35:31  5-MIN KBKB 050835Z AUTO 00000KT 3/4SM BR VV002 17/17 A2997 260 100 600 000/00 RMK AO2 T01720172 $
53988KBKB BKB20190405024011604/05/19 02:40:31  5-MIN KBKB 050840Z AUTO 00000KT 3/4SM BR VV002 17/17 A2996 260 100 600 000/00 RMK AO2 T01720172 $
53988KBKB BKB20190405024511604/05/19 02:45:31  5-MIN KBKB 050845Z AUTO 00000KT 3/4SM BR VV002 17/17 A2996 260 100 600 000/00 RMK AO2 T01720172 $
53988KBKB BKB20190405025012904/05/19 02:50:31  5-MIN KBKB 050850Z AUTO 00000KT 3/4SM BR VV002 17/17 A2996 260 100 600 000/00 RMK AO2 SLP173 T01720172 51004 $
53988KBKB BKB20190405025511604/05/19 02:55:31  5-MIN KBKB 050855Z AUTO 00000KT 3/4SM BR VV002 17/17 A2996 260 100 600 000/00 RMK AO2 T01720172 $
53988KBKB BKB20190405030011604/05/19 03:00:31  5-MIN KBKB 050900Z AUTO 00000KT 3/4SM BR VV002 17/17 A2997 260 100 600 000/00 RMK AO2 T01720172 $
53988KBKB BKB20190405030511604/05/19 03:05:31  5-MIN KBKB 050905Z AUTO 00000KT 1/2SM FG VV002 17/17 A2996 260 100 600 000/00 RMK AO2 T01720172 $
53988KBKB BKB20190405031011604/05/19 03:10:31  5-MIN KBKB 050910Z AUTO 00000KT 1/2SM FG VV002 17/17 A2996 260 100 600 000/00 RMK AO2 T01720172 $
53988KBKB BKB20190405031511604/05/19 03:15:31  5-MIN KBKB 050915Z AUTO 00000KT 1/2SM FG VV002 17/17 A2996 260 100 600 000/00 RMK AO2 T01720172 $
53988KBKB BKB20190405032011604/05/19 03:20:31  5-MIN KBKB 050920Z AUTO 00000KT 1/2SM FG VV002 17/17 A2996 260 100 600 000/00 RMK AO2 T01720172 $
53988KBKB BKB20190405032511604/05/19 03:25:31  5-MIN KBKB 050925Z AUTO 00000KT 1/2SM FG VV002 17/17 A2996 260 100 600 000/00 RMK AO2 T01720172 $
53988KBKB BKB20190405033011604/05/19 03:30:31  5-MIN KBKB 050930Z AUTO 00000KT 1/2SM FG VV002 17/17 A2996 260 100 600 000/00 RMK AO2 T01720172 $
53988KBKB BKB20190405033511604/05/19 03:35:31  5-MIN KBKB 050935Z AUTO 00000KT 1/2SM FG VV002 17/17 A2996 260 100 600 000/00 RMK AO2 T01720172 $
53988KBKB BKB20190405034011604/05/19 03:40:31  5-MIN KBKB 050940Z AUTO 00000KT 1/2SM FG VV002 17/17 A2996 260 100 600 000/00 RMK AO2 T01720172 $
53988KBKB BKB20190405034505004/05/19 03:45:31  5-MIN KBKB 050945Z AUTO RVRNO $
53988KBKB BKB20190405035010804/05/19 03:50:31  5-MIN KBKB 050950Z AUTO 00000KT 17/17 A2996 260 100 600 000/00 RMK AO2 SLP171 T01720172 $
53988KBKB BKB20190405035510004/05/19 03:55:31  5-MIN KBKB 050955Z AUTO 00000KT 1/2SM FG 17/17 A2996 260 100 600 000/00 RMK AO2 $
53988KBKB BKB20190405040011604/05/19 04:00:31  5-MIN KBKB 051000Z AUTO 00000KT 1/2SM FG 17/17 A2996 260 100 600 000/00 RMK AO2 SLPNO T01720172 $
53988KBKB BKB20190405040511004/05/19 04:05:31  5-MIN KBKB 051005Z AUTO 00000KT 1/2SM FG 17/17 A2996 260 100 600 000/00 RMK AO2 T01720172 $
53988KBKB BKB20190405041011004/05/19 04:10:31  5-MIN KBKB 051010Z AUTO 00000KT 1/2SM FG 17/17 A2996 260 100 600 000/00 RMK AO2 T01720172 $
53988KBKB BKB20190405041511004/05/19 04:15:31  5-MIN KBKB 051015Z AUTO 00000KT 1/2SM FG 17/17 A2996 260 100 600 000/00 RMK AO2 T01720172 $
53988KBKB BKB20190405042011604/05/19 04:20:31  5-MIN KBKB 051020Z AUTO 00000KT 1/2SM FG VV002 17/17 A2996 260 100 600 000/00 RMK AO2 T01720172 $
53988KBKB BKB20190405042511604/05/19 04:25:31  5-MIN KBKB 051025Z AUTO 00000KT 1/2SM FG VV002 17/17 A2996 260 100 600 000/00 RMK AO2 T01720172 $
53988KBKB BKB20190405043011604/05/19 04:30:31  5-MIN KBKB 051030Z AUTO 00000KT 1/2SM FG VV002 17/17 A2996 260 100 600 000/00 RMK AO2 T01720172 $
53988KBKB BKB20190405043511604/05/19 04:35:31  5-MIN KBKB 051035Z AUTO 00000KT 1/2SM FG VV002 17/17 A2996 260 100 600 000/00 RMK AO2 T01720172 $
53988KBKB BKB20190405044011604/05/19 04:40:31  5-MIN KBKB 051040Z AUTO 00000KT 1/2SM FG VV002 17/17 A2996 260 100 600 000/00 RMK AO2 T01720172 $
53988KBKB BKB20190405044511604/05/19 04:45:31  5-MIN KBKB 051045Z AUTO 00000KT 1/2SM FG VV002 17/17 A2996 260 100 600 000/00 RMK AO2 T01720172 $
53988KBKB BKB20190405045012304/05/19 04:50:31  5-MIN KBKB 051050Z AUTO 00000KT 1/2SM FG VV002 17/17 A2996 260 100 600 000/00 RMK AO2 SLP173 T01720172 $
53988KBKB BKB20190405045511604/05/19 04:55:31  5-MIN KBKB 051055Z AUTO 00000KT 1/2SM FG VV002 17/17 A2996 260 100 600 000/00 RMK AO2 T01720172 $
53988KBKB BKB20190405050011604/05/19 05:00:31  5-MIN KBKB 051100Z AUTO 00000KT 1/2SM FG VV002 17/17 A2997 260 100 600 000/00 RMK AO2 T01720172 $
53988KBKB BKB20190405050511604/05/19 05:05:31  5-MIN KBKB 051105Z AUTO 00000KT 1/2SM FG VV002 17/17 A2997 250 100 600 000/00 RMK AO2 T01720172 $
53988KBKB BKB20190405052505004/05/19 05:25:31  5-MIN KBKB 051125Z AUTO RVRNO $
53988KBKB BKB20190405145007504/05/19 14:50:31  5-MIN KBKB 052050Z AUTO M M M M /M RMK AO2 SLPNO 6//// $
53988KBKB BKB20190405151510104/05/19 15:15:31  5-MIN KBKB 052115Z AUTO VRB04KT 21/19 A2996 260 87 1100 VRB/04 RMK AO2 T02110189 $
53988KBKB BKB20190405152010604/05/19 15:20:31  5-MIN KBKB 052120Z AUTO 00000KT 10SM 21/19 A2996 260 87 1100 000/00 RMK AO2 T02110189 $
53988KBKB BKB20190405152510604/05/19 15:25:31  5-MIN KBKB 052125Z AUTO VRB03KT 10SM 21/18 A2996 260 84 1100 VRB/03 RMK AO2 T02110183 $
53988KBKB BKB20190405153010604/05/19 15:30:31  5-MIN KBKB 052130Z AUTO VRB04KT 10SM 21/19 A2996 260 87 1100 VRB/04 RMK AO2 T02110189 $
53988KBKB BKB20190405153510604/05/19 15:35:31  5-MIN KBKB 052135Z AUTO 00000KT 10SM 21/19 A2996 260 87 1100 000/00 RMK AO2 T02110189 $
53988KBKB BKB20190405154011304/05/19 15:40:31  5-MIN KBKB 052140Z AUTO VRB03KT 10SM OVC012 21/18 A2996 260 84 1100 VRB/03 RMK AO2 T02110183 $
53988KBKB BKB20190405154511304/05/19 15:45:31  5-MIN KBKB 052145Z AUTO 00000KT 10SM OVC012 22/19 A2996 260 84 1100 000/00 RMK AO2 T02170189 $
53988KBKB BKB20190405155012004/05/19 15:50:31  5-MIN KBKB 052150Z AUTO VRB03KT 10SM OVC012 22/19 A2996 260 84 1100 VRB/03 RMK AO2 SLP172 T02170189 $
53988KBKB BKB20190405155511304/05/19 15:55:31  5-MIN KBKB 052155Z AUTO VRB03KT 10SM OVC012 21/19 A2996 260 87 1100 VRB/03 RMK AO2 T02110189 $
53988KBKB BKB20190405160011304/05/19 16:00:31  5-MIN KBKB 052200Z AUTO 07003KT 10SM OVC012 21/19 A2995 270 87 1100 060/03 RMK AO2 T02110189 $
53988KBKB BKB20190405160511304/05/19 16:05:31  5-MIN KBKB 052205Z AUTO 02003KT 10SM OVC012 22/19 A2995 270 84 1100 010/03 RMK AO2 T02170189 $
53988KBKB BKB20190405161011304/05/19 16:10:31  5-MIN KBKB 052210Z AUTO VRB03KT 10SM OVC012 21/19 A2995 270 87 1100 VRB/03 RMK AO2 T02110189 $
53988KBKB BKB20190405161511304/05/19 16:15:31  5-MIN KBKB 052215Z AUTO 00000KT 10SM OVC012 21/19 A2995 270 87 1100 000/00 RMK AO2 T02110189 $
53988KBKB BKB20190405162011304/05/19 16:20:31  5-MIN KBKB 052220Z AUTO 00000KT 10SM OVC012 21/19 A2995 270 87 1100 000/00 RMK AO2 T02110189 $
53988KBKB BKB20190405162511304/05/19 16:25:31  5-MIN KBKB 052225Z AUTO 03003KT 10SM OVC012 21/19 A2996 260 87 1100 030/03 RMK AO2 T02110189 $
53988KBKB BKB20190405163011304/05/19 16:30:31  5-MIN KBKB 052230Z AUTO 00000KT 10SM OVC012 21/19 A2996 260 87 1100 000/00 RMK AO2 T02110189 $
53988KBKB BKB20190405163511304/05/19 16:35:31  5-MIN KBKB 052235Z AUTO 00000KT 10SM OVC012 21/19 A2996 270 87 1100 000/00 RMK AO2 T02110189 $
53988KBKB BKB20190405164011304/05/19 16:40:31  5-MIN KBKB 052240Z AUTO 00000KT 10SM OVC013 21/19 A2996 260 87 1100 000/00 RMK AO2 T02110189 $
53988KBKB BKB20190405164511304/05/19 16:45:31  5-MIN KBKB 052245Z AUTO VRB03KT 10SM OVC013 21/19 A2996 260 87 1100 VRB/03 RMK AO2 T02110189 $
53988KBKB BKB20190405165012004/05/19 16:50:31  5-MIN KBKB 052250Z AUTO VRB03KT 10SM OVC013 21/19 A2996 260 87 1100 VRB/03 RMK AO2 SLP173 T02110189 $
53988KBKB BKB20190405165511304/05/19 16:55:31  5-MIN KBKB 052255Z AUTO 00000KT 10SM OVC013 21/19 A2996 260 87 1100 000/00 RMK AO2 T02110189 $
53988KBKB BKB20190405170011304/05/19 17:00:31  5-MIN KBKB 052300Z AUTO 00000KT 10SM OVC014 21/19 A2996 260 87 1100 000/00 RMK AO2 T02110189 $
53988KBKB BKB20190405170511304/05/19 17:05:31  5-MIN KBKB 052305Z AUTO 00000KT 10SM OVC014 21/19 A2996 260 87 1100 000/00 RMK AO2 T02110189 $
53988KBKB BKB20190405171011304/05/19 17:10:31  5-MIN KBKB 052310Z AUTO 00000KT 10SM OVC012 21/19 A2996 260 87 1100 000/00 RMK AO2 T02110189 $
53988KBKB BKB20190405171513204/05/19 17:15:31  5-MIN KBKB 052315Z AUTO VRB03KT 10SM BKN010 OVC014 21/19 A2997 260 87 1100 VRB/03 RMK AO2 CIG 009V013 T02110189 $
53988KBKB BKB20190405172011304/05/19 17:20:31  5-MIN KBKB 052320Z AUTO 00000KT 10SM OVC012 21/19 A2997 260 90 1000 000/00 RMK AO2 T02060189 $
53988KBKB BKB20190405172511304/05/19 17:25:31  5-MIN KBKB 052325Z AUTO VRB03KT 10SM OVC012 21/19 A2996 260 90 1000 VRB/03 RMK AO2 T02060189 $
53988KBKB BKB20190405173011304/05/19 17:30:31  5-MIN KBKB 052330Z AUTO VRB03KT 10SM OVC012 21/19 A2996 260 90 1000 VRB/03 RMK AO2 T02060189 $
53988KBKB BKB20190415164010804/15/19 16:40:31  5-MIN KBKB 152240Z AUTO VRB03KT 10SM CLR 24/11 A3005 180 42 1400 VRB/03 RMK AO2 T02440111
53988KBKB BKB20190415164510704/15/19 16:45:31  5-MIN KBKB 152245Z AUTO VRB03KT 9SM CLR 24/11 A3005 180 42 1400 VRB/03 RMK AO2 T02440111
53988KBKB BKB20190415165011404/15/19 16:50:31  5-MIN KBKB 152250Z AUTO VRB05KT 9SM CLR 25/11 A3005 180 41 1400 VRB/05 RMK AO2 SLP201 T02500111
53988KBKB BKB20190415165510804/15/19 16:55:31  5-MIN KBKB 152255Z AUTO VRB03KT 10SM CLR 25/11 A3005 180 41 1400 VRB/03 RMK AO2 T02500111
53988KBKB BKB20190415170010804/15/19 17:00:31  5-MIN KBKB 152300Z AUTO 00000KT 10SM CLR 25/11 A3005 180 41 1400 000/00 RMK AO2 T02500111
53988KBKB BKB20190415170510804/15/19 17:05:31  5-MIN KBKB 152305Z AUTO VRB03KT 10SM CLR 25/12 A3005 180 43 1400 VRB/03 RMK AO2 T02500117
53988KBKB BKB20190415171010804/15/19 17:10:31  5-MIN KBKB 152310Z AUTO VRB05KT 10SM CLR 24/11 A3005 180 42 1300 VRB/05 RMK AO2 T02390106
53988KBKB BKB20190415171510804/15/19 17:15:31  5-MIN KBKB 152315Z AUTO 00000KT 10SM CLR 24/11 A3005 170 41 1400 000/00 RMK AO2 T02440106
53988KBKB BKB20190415172010804/15/19 17:20:31  5-MIN KBKB 152320Z AUTO VRB04KT 10SM CLR 24/11 A3005 170 44 1300 VRB/04 RMK AO2 T02390111
53988KBKB BKB20190415172510704/15/19 17:25:31  5-MIN KBKB 152325Z AUTO VRB03KT 9SM CLR 24/11 A3005 180 44 1300 VRB/03 RMK AO2 T02390111
53988KBKB BKB20190415173010704/15/19 17:30:31  5-MIN KBKB 152330Z AUTO VRB03KT 9SM CLR 23/11 A3005 180 45 1200 VRB/03 RMK AO2 T02330111
53988KBKB BKB20190415173510804/15/19 17:35:31  5-MIN KBKB 152335Z AUTO VRB03KT 10SM CLR 23/11 A3006 170 45 1200 VRB/03 RMK AO2 T02330111
53988KBKB BKB20190415174009804/15/19 17:40:31  5-MIN KBKB 152340Z AUTO 10SM CLR 23/12 A3006 170 47 1200 M /M RMK AO2 T02330117
53988KBKB BKB20190415174510804/15/19 17:45:31  5-MIN KBKB 152345Z AUTO 19004KT 10SM CLR 23/12 A3006 170 51 1200 190/04 RMK AO2 T02280122
53988KBKB BKB20190415175013304/15/19 17:50:31  5-MIN KBKB 152350Z AUTO VRB03KT 10SM CLR 23/12 A3006 170 51 1200 VRB/03 RMK AO2 SLP205 T02280122 10261 20228 56022
53988KBKB BKB20190415175510804/15/19 17:55:31  5-MIN KBKB 152355Z AUTO 00000KT 10SM CLR 22/12 A3006 170 52 1100 000/00 RMK AO2 T02220122
53988KBKB BKB20190415180010804/15/19 18:00:31  5-MIN KBKB 160000Z AUTO VRB03KT 10SM CLR 22/12 A3006 170 52 1100 VRB/03 RMK AO2 T02220122
53988KBKB BKB20190415180510704/15/19 18:05:31  5-MIN KBKB 160005Z AUTO 00000KT 8SM CLR 22/12 A3006 170 54 1000 000/00 RMK AO2 T02170122
53988KBKB BKB20190415181011004/15/19 18:10:31  5-MIN KBKB 160010Z AUTO 00000KT 6SM HZ CLR 22/12 A3006 170 54 1000 000/00 RMK AO2 T02170122
53988KBKB BKB20190415224506304/15/19 22:45:31  5-MIN KBKB 160445Z AUTO M M M M /M RMK AO2 $
53988KBKB BKB20190415230007304/15/19 23:00:31  5-MIN KBKB 160500Z AUTO 20003KT M M M 190/03 RMK AO2 $
53988KBKB BKB20190415232010004/15/19 23:20:31  5-MIN KBKB 160520Z AUTO VRB03KT 14/12 A3009 140 83 200 VRB/03 RMK AO2 T01440117 $
53988KBKB BKB20190415232510504/15/19 23:25:31  5-MIN KBKB 160525Z AUTO 00000KT 10SM 14/12 A3009 140 86 100 000/00 RMK AO2 T01390117 $
53988KBKB BKB20190415233010504/15/19 23:30:31  5-MIN KBKB 160530Z AUTO VRB03KT 10SM 14/12 A3010 140 86 100 VRB/03 RMK AO2 T01390117 $
53988KBKB BKB20190415233510504/15/19 23:35:31  5-MIN KBKB 160535Z AUTO 21003KT 10SM 14/12 A3010 130 86 100 210/03 RMK AO2 T01390117 $
53988KBKB BKB20190415234010504/15/19 23:40:31  5-MIN KBKB 160540Z AUTO 00000KT 10SM 14/12 A3010 140 86 100 000/00 RMK AO2 T01390117 $
53988KBKB BKB20190415234510904/15/19 23:45:31  5-MIN KBKB 160545Z AUTO 00000KT 10SM CLR 14/12 A3010 140 86 100 000/00 RMK AO2 T01390117 $
53988KBKB BKB20190415235014404/15/19 23:50:31  5-MIN KBKB 160550Z AUTO 00000KT 10SM CLR 14/12 A3009 140 86 100 000/00 RMK AO2 SLP218 6//// T01390117 10261 20139 402610139 $
53988KBKB BKB20190415235510704/15/19 23:55:31  5-MIN KBKB 160555Z AUTO 00000KT 10SM CLR 13/12 A3010 140 89 0 000/00 RMK AO2 T01330117 $
53988KBKB BKB20190419112507004/19/19 11:25:31  5-MIN KBKB 191725Z AUTO M M M M /M RMK AO2 FZRANO $
53988KBKB BKB20190419114012104/19/19 11:40:31  5-MIN KBKB 191740Z AUTO 28007G17KT 230V340 19/08 A2989 320 46 1000 280/07G17 230V340 RMK AO2 T01940078
53988KBKB BKB20190419114512504/19/19 11:45:31  5-MIN KBKB 191745Z AUTO 28007G17KT 220V340 10SM 19/07 A2990 320 46 900 280/07G17 220V340 RMK AO2 T01890072
53988KBKB BKB20190419115015804/19/19 11:50:31  5-MIN KBKB 191750Z AUTO 33007KT 280V070 10SM -RA 17/07 A2990 320 51 700 330/07 280V070 RMK AO2 RAB48 SLP152 6//// T01720072 10261 20133 PNO
53988KBKB BKB20190419115511104/19/19 11:55:31  5-MIN KBKB 191755Z AUTO VRB05KT 6SM RA 16/08 A2991 310 62 500 VRB/05 RMK AO2 P0000 T01560083
53988KBKB BKB20190419120012204/19/19 12:00:31  5-MIN KBKB 191800Z AUTO 00000KT 4SM -TSRA 13/10 A2990 310 80 200 000/00 RMK AO2 TSB1758 P0000 T01330100
53988KBKB BKB20190419120514604/19/19 12:05:31  5-MIN KBKB 191805Z AUTO VRB03KT 5SM -TSRA BR SCT049 BKN065 OVC080 13/11 A2992 300 86 200 VRB/03 RMK AO2 TSB1758 P0000 T01330111
53988KBKB BKB20190419121014504/19/19 12:10:31  5-MIN KBKB 191810Z AUTO 36005KT 4SM TSRA BR FEW041 BKN065 OVC080 13/11 A2992 300 86 100 350/05 RMK AO2 TSB1758 T01280106 PNO $
53988KBKB BKB20190419121507704/19/19 12:15:31  5-MIN KBKB 191815Z AUTO TS M M M M /M RMK AO2 TSB1758B15 $
53988KBKB BKB20190419122011404/19/19 12:20:31  5-MIN KBKB 191820Z AUTO VRB03KT TS 14/12 A2990 320 86 400 VRB/03 RMK AO2 TSB1758B15 T01440122 $
53988KBKB BKB20190419122513204/19/19 12:25:31  5-MIN KBKB 191825Z AUTO 00000KT 10SM -TSRA 15/12 A2990 320 80 400 000/00 RMK AO2 RAB24 TSB1758B15 T01500117 PNO $
53988KBKB BKB20190419123013104/19/19 12:30:31  5-MIN KBKB 191830Z AUTO VRB03KT 10SM -RA 16/12 A2990 320 80 500 VRB/03 RMK AO2 RAB24 TSB1758B15E29 T01560122 PNO
53988KBKB BKB20190419123513004/19/19 12:35:31  5-MIN KBKB 191835Z AUTO VRB03KT 10SM 17/12 A2989 330 72 600 VRB/03 RMK AO2 RAB24E35 TSB1758B15E29 T01670117 PNO
53988KBKB BKB20190419124012604/19/19 12:40:31  5-MIN KBKB 191840Z AUTO VRB05KT 10SM 18/12 A2989 330 69 800 VRB/05 RMK AO2 RAB24E35 TSB1758B15E29 T01780122
53988KBKB BKB20190419124514004/19/19 12:45:31  5-MIN KBKB 191845Z AUTO VRB06KT 10SM FEW050 FEW075 18/11 A2988 330 64 800 VRB/06 RMK AO2 RAB24E35 TSB1758B15E29 T01780111
53988KBKB BKB20190419124521104/19/19 12:45:31  5-MIN KBKB 191845Z AUTO VRB06KT 10SM FEW050 FEW075 18/11 A2988 330 64 800 VRB/06 RMK AO2 RAB24E35 TSB1758B15E29 T0178011104/19/19 12:5000045Z AUTO 00000KT 10S 61 400 000/00 RMK AO2 T01440072 $
53988KBKB BKB20190419125014704/19/19 12:50:31  5-MIN KBKB 191850Z AUTO VRB03KT 10SM FEW050 FEW095 18/11 A2988 330 62 800 VRB/03 RMK AO2 RAB24E35 TSB1758B15E29 SLP146 T01780106
53988KBKB BKB20190419125511704/19/19 12:55:31  5-MIN KBKB 191855Z AUTO VRB06KT 10SM FEW075 SCT095 17/09 A2988 330 57 700 VRB/06 RMK AO2 T01720089
53988KBKB BKB20190419130016304/19/19 13:00:31  5-MIN KBKB 191900Z AUTO 32008G16KT 250V010 8SM -RA SCT060 SCT075 BKN090 15/08 A2990 320 64 400 320/08G16 250V010 RMK AO2 RAB1857 P0000 T01500083
53988KBKB BKB20190419130516304/19/19 13:05:31  5-MIN KBKB 191905Z AUTO 36007G16KT 300V050 8SM -RA SCT060 BKN075 BKN090 13/09 A2989 320 77 200 350/07G16 300V050 RMK AO2 RAB1857 P0000 T01330094
53988KBKB BKB20190419131014004/19/19 13:10:31  5-MIN KBKB 191910Z AUTO 10SM -TSRA SCT055 BKN075 BKN095 13/09 A2989 330 77 200 M /M RMK AO2 RAB1857 TSB06 P0000 T01330094
53988KBKB BKB20190419131515004/19/19 13:15:31  5-MIN KBKB 191915Z AUTO VRB03KT 10SM -TSRA SCT060 BKN075 BKN095 15/10 A2989 330 72 400 VRB/03 RMK AO2 RAB1857 TSB06 P0000 T01500100
53988KBKB BKB20190419132014004/19/19 13:20:31  5-MIN KBKB 191920Z AUTO 10SM TS SCT060 BKN075 BKN095 16/11 A2989 330 72 500 M /M RMK AO2 RAB1857E18 TSB06 P0000 T01560106
53988KBKB BKB20190419132515004/19/19 13:25:31  5-MIN KBKB 191925Z AUTO VRB05KT 10SM FEW055 SCT070 BKN110 16/10 A2989 330 67 600 VRB/05 RMK AO2 RAB1857E18 TSB06E21 P0000 T01610100
53988KBKB BKB20190419133015104/19/19 13:30:31  5-MIN KBKB 191930Z AUTO VRB03KT 10SM -RA FEW043 SCT060 BKN070 16/10 A2989 330 67 600 VRB/03 RMK AO2 RAB1857 TSB06E21 P0000 T01610100
53988KBKB BKB20190419133515104/19/19 13:35:31  5-MIN KBKB 191935Z AUTO VRB04KT 10SM -RA FEW041 SCT065 BKN110 16/10 A2989 320 67 600 VRB/04 RMK AO2 RAB1857 TSB06E21 P0000 T01610100
53988KBKB BKB20190419134016704/19/19 13:40:31  5-MIN KBKB 191940Z AUTO 31007KT 250V350 10SM -RA FEW050 SCT075 BKN110 16/10 A2989 320 67 600 310/07 250V350 RMK AO2 RAB1857 TSB06E21 P0000 T01610100
53988KBKB BKB20190419134515604/19/19 13:45:31  5-MIN KBKB 191945Z AUTO VRB06G15KT 10SM FEW049 SCT070 BKN110 17/09 A2990 320 60 700 VRB/06G15 RMK AO2 RAB1857E41 TSB06E21 P0000 T01720094
53988KBKB BKB20190419135016304/19/19 13:50:31  5-MIN KBKB 191950Z AUTO VRB06G15KT 10SM FEW043 SCT070 SCT110 17/09 A2990 320 60 700 VRB/06G15 RMK AO2 RAB1857E41 TSB06E21 SLP151 P0000 T01720094
53988KBKB BKB20190419135513304/19/19 13:55:31  5-MIN KBKB 191955Z AUTO 30008KT 260V330 10SM FEW045 SCT070 17/08 A2990 320 55 700 300/08 260V330 RMK AO2 T01720083
53988KBKB BKB20190419140010004/19/19 14:00:31  5-MIN KBKB 192000Z AUTO 10SM FEW070 17/09 A2989 320 57 700 M /M RMK AO2 T01720089
53988KBKB BKB20190419140511704/19/19 14:05:31  5-MIN KBKB 192005Z AUTO VRB06KT 10SM FEW070 FEW085 17/08 A2989 320 57 600 VRB/06 RMK AO2 T01670083
53988KBKB BKB20190419141011004/19/19 14:10:31  5-MIN KBKB 192010Z AUTO VRB04KT 10SM SCT085 17/08 A2989 330 57 600 VRB/04 RMK AO2 T01670083
53988KBKB BKB20190419141511004/19/19 14:15:31  5-MIN KBKB 192015Z AUTO VRB06KT 10SM SCT090 18/08 A2989 330 53 800 VRB/06 RMK AO2 T01780083
53988KBKB BKB20190419142007004/19/19 14:20:31  5-MIN KBKB 192020Z AUTO M M M M /M RMK AO2 FZRANO $
53988KBKB BKB20190419142511604/19/19 14:25:31  5-MIN KBKB 192025Z AUTO 28008KT 250V340 18/08 A2988 340 52 800 280/08 250V340 RMK AO2 T01830083 $
53988KBKB BKB20190419143010504/19/19 14:30:31  5-MIN KBKB 192030Z AUTO VRB05KT 10SM 18/07 A2988 340 48 800 VRB/05 RMK AO2 T01830072 $
53988KBKB BKB20190419143510504/19/19 14:35:31  5-MIN KBKB 192035Z AUTO VRB05KT 10SM 18/07 A2988 340 48 800 VRB/05 RMK AO2 T01830072 $
53988KBKB BKB20190419144009504/19/19 14:40:31  5-MIN KBKB 192040Z AUTO 10SM 19/08 A2988 340 48 900 M /M RMK AO2 T01890078 $
53988KBKB BKB20190419144510504/19/19 14:45:31  5-MIN KBKB 192045Z AUTO VRB04KT 10SM 18/08 A2988 340 50 800 VRB/04 RMK AO2 T01830078 $
53988KBKB BKB20190419145011204/19/19 14:50:31  5-MIN KBKB 192050Z AUTO 10SM CLR 19/08 A2988 340 48 900 M /M RMK AO2 SLP144 6//// T01890078 $
53988KBKB BKB20190419145512804/19/19 14:55:31  5-MIN KBKB 192055Z AUTO 31007KT 200V010 10SM FEW050 18/07 A2988 340 48 800 300/07 200V010 RMK AO2 T01830072 $
53988KBKB BKB20190419150011204/19/19 15:00:31  5-MIN KBKB 192100Z AUTO VRB05KT 10SM FEW050 18/08 A2988 340 50 900 VRB/05 RMK AO2 T01830078 $
53988KBKB BKB20190419150511204/19/19 15:05:31  5-MIN KBKB 192105Z AUTO VRB04KT 10SM FEW050 19/08 A2987 340 50 900 VRB/04 RMK AO2 T01890083 $
53988KBKB BKB20190419151011204/19/19 15:10:31  5-MIN KBKB 192110Z AUTO VRB05KT 10SM FEW049 19/08 A2987 340 50 900 VRB/05 RMK AO2 T01890083 $
53988KBKB BKB20190419151511204/19/19 15:15:31  5-MIN KBKB 192115Z AUTO VRB05KT 10SM FEW047 18/08 A2987 340 53 800 VRB/05 RMK AO2 T01780083 $
53988KBKB BKB20190419152011204/19/19 15:20:31  5-MIN KBKB 192120Z AUTO VRB04KT 10SM FEW047 18/08 A2987 340 52 900 VRB/04 RMK AO2 T01830083 $
53988KBKB BKB20190419152511204/19/19 15:25:31  5-MIN KBKB 192125Z AUTO VRB03KT 10SM FEW047 18/08 A2987 350 52 900 VRB/03 RMK AO2 T01830083 $
53988KBKB BKB20190419153012804/19/19 15:30:31  5-MIN KBKB 192130Z AUTO 31007KT 230V010 10SM FEW047 19/08 A2986 350 50 900 300/07 230V010 RMK AO2 T01890083 $
53988KBKB BKB20190419153511204/19/19 15:35:31  5-MIN KBKB 192135Z AUTO VRB06KT 10SM FEW047 19/08 A2986 350 48 900 VRB/06 RMK AO2 T01890078 $
53988KBKB BKB20190419154012504/19/19 15:40:31  5-MIN KBKB 192140Z AUTO VRB04G18KT 10SM FEW047 SCT070 19/07 A2987 350 46 900 VRB/04G18 RMK AO2 T01890072 $
53988KBKB BKB20190419154514004/19/19 15:45:31  5-MIN KBKB 192145Z AUTO VRB06G18KT 9SM -RA FEW047 BKN065 18/08 A2988 340 51 800 VRB/06G18 RMK AO2 RAB45 P0000 T01780078 $
53988KBKB BKB20190419155015404/19/19 15:50:31  5-MIN KBKB 192150Z AUTO VRB06KT 5SM RA SCT049 BKN070 BKN090 14/09 A2989 330 72 400 VRB/06 RMK AO2 RAB45 PRESRR SLP147 P0001 T01440094 $
53988KBKB BKB20190419155513504/19/19 15:55:31  5-MIN KBKB 192155Z AUTO VRB05KT 5SM -RA FEW049 SCT065 BKN090 13/09 A2988 330 74 300 VRB/05 RMK AO2 P0000 T01330089 $
53988KBKB BKB20190419160014004/19/19 16:00:31  5-MIN KBKB 192200Z AUTO VRB03KT 10SM FEW048 SCT065 BKN095 14/10 A2988 340 74 400 VRB/03 RMK AO2 RAE2158 P0000 T01440100 $
53988KBKB BKB20190419160514004/19/19 16:05:31  5-MIN KBKB 192205Z AUTO 00000KT 10SM FEW048 SCT060 BKN095 14/09 A2988 330 74 300 000/00 RMK AO2 RAE2158 P0000 T01390094 $
53988KBKB BKB20190419161014004/19/19 16:10:31  5-MIN KBKB 192210Z AUTO 00000KT 10SM FEW047 SCT060 BKN090 14/10 A2988 330 74 400 000/00 RMK AO2 RAE2158 P0000 T01440100 $
53988KBKB BKB20190419161514004/19/19 16:15:31  5-MIN KBKB 192215Z AUTO VRB03KT 10SM FEW047 FEW065 SCT090 16/10 A2988 340 69 500 VRB/03 RMK AO2 RAE2158 P0000 T01560100 $
53988KBKB BKB20190419162012604/19/19 16:20:31  5-MIN KBKB 192220Z AUTO 32003KT 10SM FEW095 16/11 A2988 340 69 600 320/03 RMK AO2 RAE2158 P0000 T01610106 $
53988KBKB BKB20190419162512604/19/19 16:25:31  5-MIN KBKB 192225Z AUTO VRB03KT 10SM FEW095 16/10 A2988 340 67 600 VRB/03 RMK AO2 RAE2158 P0000 T01610100 $
53988KBKB BKB20190419163012304/19/19 16:30:31  5-MIN KBKB 192230Z AUTO VRB04KT 10SM CLR 17/10 A2988 340 64 600 VRB/04 RMK AO2 RAE2158 P0000 T01670100 $
53988KBKB BKB20190419163511304/19/19 16:35:31  5-MIN KBKB 192235Z AUTO 10SM CLR 17/10 A2988 340 64 700 M /M RMK AO2 RAE2158 P0000 T01670100 $
53988KBKB BKB20190419164012304/19/19 16:40:31  5-MIN KBKB 192240Z AUTO VRB04KT 10SM CLR 17/09 A2988 330 60 700 VRB/04 RMK AO2 RAE2158 P0000 T01720094 $
53988KBKB BKB20190419164511304/19/19 16:45:31  5-MIN KBKB 192245Z AUTO 10SM CLR 17/09 A2988 330 60 700 M /M RMK AO2 RAE2158 P0000 T01720094 $
53988KBKB BKB20190419165012004/19/19 16:50:31  5-MIN KBKB 192250Z AUTO 10SM CLR 17/09 A2988 330 57 700 M /M RMK AO2 RAE2158 SLP145 P0000 T01720089 $
53988KBKB BKB20190419165511204/19/19 16:55:31  5-MIN KBKB 192255Z AUTO 33006KT 10SM FEW080 18/09 A2988 330 55 800 320/06 RMK AO2 T01780089 $
53988KBKB BKB20190419170011204/19/19 17:00:31  5-MIN KBKB 192300Z AUTO VRB03KT 10SM FEW080 17/09 A2988 330 57 700 VRB/03 RMK AO2 T01720089 $
53988KBKB BKB20190419170509904/19/19 17:05:31  5-MIN KBKB 192305Z AUTO 10SM CLR 18/09 A2988 330 55 800 M /M RMK AO2 T01780089 $
53988KBKB BKB20190419171010904/19/19 17:10:31  5-MIN KBKB 192310Z AUTO VRB04KT 10SM CLR 18/09 A2988 330 55 800 VRB/04 RMK AO2 T01780089 $
53988KBKB BKB20190419171510904/19/19 17:15:31  5-MIN KBKB 192315Z AUTO VRB04KT 10SM CLR 18/09 A2989 330 55 800 VRB/04 RMK AO2 T01780089 $
53988KBKB BKB20190419172010904/19/19 17:20:31  5-MIN KBKB 192320Z AUTO VRB04KT 10SM CLR 17/08 A2989 330 55 700 VRB/04 RMK AO2 T01720083 $
53988KBKB BKB20190419172510904/19/19 17:25:31  5-MIN KBKB 192325Z AUTO VRB04KT 10SM CLR 17/08 A2989 330 57 600 VRB/04 RMK AO2 T01670083 $
53988KBKB BKB20190419173010904/19/19 17:30:31  5-MIN KBKB 192330Z AUTO VRB04KT 10SM CLR 17/08 A2989 320 55 600 VRB/04 RMK AO2 T01670078 $
53988KBKB BKB20190419173510904/19/19 17:35:31  5-MIN KBKB 192335Z AUTO VRB06KT 10SM CLR 17/07 A2989 320 51 700 VRB/06 RMK AO2 T01720072 $
53988KBKB BKB20190419174010904/19/19 17:40:31  5-MIN KBKB 192340Z AUTO VRB03KT 10SM CLR 17/07 A2990 320 53 600 VRB/03 RMK AO2 T01670072 $
53988KBKB BKB20190419174510904/19/19 17:45:31  5-MIN KBKB 192345Z AUTO 00000KT 10SM CLR 17/07 A2990 320 53 600 000/00 RMK AO2 T01670072 $
53988KBKB BKB20190419175013404/19/19 17:50:31  5-MIN KBKB 192350Z AUTO VRB04KT 10SM CLR 17/07 A2990 320 53 600 VRB/04 RMK AO2 SLP151 6//// T01670072 10189 20128 $
53988KBKB BKB20190419175510904/19/19 17:55:31  5-MIN KBKB 192355Z AUTO VRB05KT 10SM CLR 17/07 A2990 320 53 600 VRB/05 RMK AO2 T01670072 $
53988KBKB BKB20190419180009904/19/19 18:00:31  5-MIN KBKB 200000Z AUTO 10SM CLR 17/07 A2990 320 53 600 M /M RMK AO2 T01670072 $
53988KBKB BKB20190419180510904/19/19 18:05:31  5-MIN KBKB 200005Z AUTO VRB03KT 10SM CLR 16/07 A2990 320 53 600 VRB/03 RMK AO2 T01610067 $
53988KBKB BKB20190419181010904/19/19 18:10:31  5-MIN KBKB 200010Z AUTO VRB04KT 10SM CLR 16/07 A2990 320 53 600 VRB/04 RMK AO2 T01610067 $
53988KBKB BKB20190419181510904/19/19 18:15:31  5-MIN KBKB 200015Z AUTO VRB03KT 10SM CLR 16/07 A2990 310 53 600 VRB/03 RMK AO2 T01610067 $
53988KBKB BKB20190419182010904/19/19 18:20:31  5-MIN KBKB 200020Z AUTO VRB03KT 10SM CLR 16/07 A2991 310 55 500 VRB/03 RMK AO2 T01560067 $
53988KBKB BKB20190419182510904/19/19 18:25:31  5-MIN KBKB 200025Z AUTO VRB04KT 10SM CLR 16/07 A2991 310 55 500 VRB/04 RMK AO2 T01560067 $
53988KBKB BKB20190419183010904/19/19 18:30:31  5-MIN KBKB 200030Z AUTO 00000KT 10SM CLR 16/07 A2991 310 55 500 000/00 RMK AO2 T01560067 $
53988KBKB BKB20190419183510904/19/19 18:35:31  5-MIN KBKB 200035Z AUTO 00000KT 10SM CLR 15/07 A2991 310 57 400 000/00 RMK AO2 T01500067 $
53988KBKB BKB20190419184010904/19/19 18:40:31  5-MIN KBKB 200040Z AUTO 00000KT 10SM CLR 15/07 A2991 310 57 400 000/00 RMK AO2 T01500067 $
53988KBKB BKB20190419184510904/19/19 18:45:31  5-MIN KBKB 200045Z AUTO 00000KT 10SM CLR 14/07 A2991 310 61 400 000/00 RMK AO2 T01440072 $
53988KBKB BKB20190419185011604/19/19 18:50:31  5-MIN KBKB 200050Z AUTO 33003KT 10SM CLR 14/07 A2991 310 61 400 330/03 RMK AO2 SLP156 T01440072 $
53988KBKB BKB20190419185510904/19/19 18:55:31  5-MIN KBKB 200055Z AUTO 00000KT 10SM CLR 14/07 A2991 310 61 400 000/00 RMK AO2 T01440072 $
53988KBKB BKB20190419190010904/19/19 19:00:31  5-MIN KBKB 200100Z AUTO 00000KT 10SM CLR 14/07 A2992 300 64 300 000/00 RMK AO2 T01390072 $
53988KBKB BKB20190419190510904/19/19 19:05:31  5-MIN KBKB 200105Z AUTO 00000KT 10SM CLR 14/08 A2992 300 66 300 000/00 RMK AO2 T01390078 $
53988KBKB BKB20190419191010904/19/19 19:10:31  5-MIN KBKB 200110Z AUTO 00000KT 10SM CLR 13/08 A2992 300 69 200 000/00 RMK AO2 T01330078 $
53988KBKB BKB20190419191510504/19/19 19:15:31  5-MIN KBKB 200115Z AUTO 00000KT 10SM CLR 13/08 A2992 300 69 200/00 RMK AO2 T01170072 $
53988KBKB BKB20190419191510904/19/19 19:15:31  5-MIN KBKB 200115Z AUTO 00000KT 10SM CLR 13/08 A2992 300 69 200 000/00 RMK AO2 T01330078 $
53988KBKB BKB20190419192010904/19/19 19:20:31  5-MIN KBKB 200120Z AUTO 00000KT 10SM CLR 13/08 A2992 290 69 200 000/00 RMK AO2 T01330078 $
53988KBKB BKB20190419192510904/19/19 19:25:31  5-MIN KBKB 200125Z AUTO 00000KT 10SM CLR 13/08 A2993 290 71 100 000/00 RMK AO2 T01280078 $
53988KBKB BKB20190419193010904/19/19 19:30:31  5-MIN KBKB 200130Z AUTO 00000KT 10SM CLR 13/08 A2993 290 74 100 000/00 RMK AO2 T01280083 $
53988KBKB BKB20190419193510904/19/19 19:35:31  5-MIN KBKB 200135Z AUTO 00000KT 10SM CLR 13/08 A2993 290 71 100 000/00 RMK AO2 T01280078 $
53988KBKB BKB20190419194010904/19/19 19:40:31  5-MIN KBKB 200140Z AUTO 00000KT 10SM CLR 12/08 A2993 290 74 100 000/00 RMK AO2 T01220078 $
53988KBKB BKB20190419194510904/19/19 19:45:31  5-MIN KBKB 200145Z AUTO 00000KT 10SM CLR 12/08 A2993 290 74 100 000/00 RMK AO2 T01220078 $
53988KBKB BKB20190419195011604/19/19 19:50:31  5-MIN KBKB 200150Z AUTO 00000KT 10SM CLR 12/08 A2994 280 74 100 000/00 RMK AO2 SLP164 T01220078 $
53988KBKB BKB20190419195510704/19/19 19:55:31  5-MIN KBKB 200155Z AUTO 00000KT 10SM CLR 12/08 A2994 280 77 0 000/00 RMK AO2 T01170078 $
53988KBKB BKB20190419200010704/19/19 20:00:31  5-MIN KBKB 200200Z AUTO 00000KT 10SM CLR 12/07 A2994 280 74 0 000/00 RMK AO2 T01170072 $
53988KBKB BKB20190419200510704/19/19 20:05:31  5-MIN KBKB 200205Z AUTO 00000KT 10SM CLR 12/08 A2994 280 77 0 000/00 RMK AO2 T01170078 $
53988KBKB BKB20190419201010704/19/19 20:10:31  5-MIN KBKB 200210Z AUTO 00000KT 10SM CLR 12/08 A2995 270 74 0 000/00 RMK AO2 T01220078 $
53988KBKB BKB20190419201510704/19/19 20:15:31  5-MIN KBKB 200215Z AUTO 00000KT 10SM CLR 12/08 A2995 270 77 0 000/00 RMK AO2 T01170078 $
53988KBKB BKB20190419202010704/19/19 20:20:31  5-MIN KBKB 200220Z AUTO 00000KT 10SM CLR 12/07 A2995 270 71 0 000/00 RMK AO2 T01220072 $
53988KBKB BKB20190419202510704/19/19 20:25:31  5-MIN KBKB 200225Z AUTO 00000KT 10SM CLR 12/08 A2995 270 77 0 000/00 RMK AO2 T01170078 $
53988KBKB BKB20190419203010704/19/19 20:30:31  5-MIN KBKB 200230Z AUTO 00000KT 10SM CLR 12/08 A2996 270 77 0 000/00 RMK AO2 T01170078 $
53988KBKB BKB20190419203510704/19/19 20:35:31  5-MIN KBKB 200235Z AUTO 00000KT 10SM CLR 12/08 A2996 260 77 0 000/00 RMK AO2 T01170078 $
53988KBKB BKB20190419204010704/19/19 20:40:31  5-MIN KBKB 200240Z AUTO 00000KT 10SM CLR 12/08 A2996 260 74 0 000/00 RMK AO2 T01220078 $
53988KBKB BKB20190419204510704/19/19 20:45:31  5-MIN KBKB 200245Z AUTO 00000KT 10SM CLR 12/08 A2996 260 77 0 000/00 RMK AO2 T01170078 $
53988KBKB BKB20190419205012004/19/19 20:50:31  5-MIN KBKB 200250Z AUTO 00000KT 10SM CLR 12/08 A2996 260 74 0 000/00 RMK AO2 SLP172 T01220078 53008 $
53988KBKB BKB20190419205510704/19/19 20:55:31  5-MIN KBKB 200255Z AUTO 00000KT 10SM CLR 12/07 A2996 260 71 0 000/00 RMK AO2 T01220072 $
53988KBKB BKB20190419210010904/19/19 21:00:31  5-MIN KBKB 200300Z AUTO VRB03KT 10SM CLR 13/07 A2996 260 69 100 VRB/03 RMK AO2 T01280072 $
53988KBKB BKB20190419210510704/19/19 21:05:31  5-MIN KBKB 200305Z AUTO VRB03KT 10SM CLR 12/07 A2996 260 71 0 VRB/03 RMK AO2 T01220072 $
53988KBKB BKB20190419211010704/19/19 21:10:31  5-MIN KBKB 200310Z AUTO 00000KT 10SM CLR 12/08 A2996 260 74 0 000/00 RMK AO2 T01220078 $
53988KBKB BKB20190419211510704/19/19 21:15:31  5-MIN KBKB 200315Z AUTO 00000KT 10SM CLR 12/08 A2996 260 74 0 000/00 RMK AO2 T01220078 $
53988KBKB BKB20190419212010704/19/19 21:20:31  5-MIN KBKB 200320Z AUTO 00000KT 10SM CLR 12/07 A2997 260 71 0 000/00 RMK AO2 T01220072 $
53988KBKB BKB20190419212510704/19/19 21:25:31  5-MIN KBKB 200325Z AUTO 00000KT 10SM CLR 12/08 A2997 260 74 0 000/00 RMK AO2 T01220078 $
53988KBKB BKB20190419213010904/19/19 21:30:31  5-MIN KBKB 200330Z AUTO 00000KT 10SM CLR 13/07 A2997 250 69 100 000/00 RMK AO2 T01280072 $
53988KBKB BKB20190419213510704/19/19 21:35:31  5-MIN KBKB 200335Z AUTO 00000KT 10SM CLR 12/08 A2997 250 77 0 000/00 RMK AO2 T01170078 $
53988KBKB BKB20190419214010704/19/19 21:40:31  5-MIN KBKB 200340Z AUTO 00000KT 10SM CLR 12/08 A2997 250 74 0 000/00 RMK AO2 T01220078 $
53988KBKB BKB20190419214510704/19/19 21:45:31  5-MIN KBKB 200345Z AUTO 00000KT 10SM CLR 12/07 A2997 250 74 0 000/00 RMK AO2 T01170072 $
53988KBKB BKB20190419215011404/19/19 21:50:31  5-MIN KBKB 200350Z AUTO 00000KT 10SM CLR 12/08 A2997 250 77 0 000/00 RMK AO2 SLP177 T01170078 $
53988KBKB BKB20190419215510704/19/19 21:55:31  5-MIN KBKB 200355Z AUTO 00000KT 10SM CLR 12/08 A2997 250 77 0 000/00 RMK AO2 T01170078 $
53988KBKB BKB20190419220010704/19/19 22:00:31  5-MIN KBKB 200400Z AUTO 00000KT 10SM CLR 12/08 A2997 250 80 0 000/00 RMK AO2 T01170083 $
53988KBKB BKB20190419220510704/19/19 22:05:31  5-MIN KBKB 200405Z AUTO 00000KT 10SM CLR 12/08 A2997 250 80 0 000/00 RMK AO2 T01170083 $
53988KBKB BKB20190419221010704/19/19 22:10:31  5-MIN KBKB 200410Z AUTO 00000KT 10SM CLR 12/08 A2997 250 80 0 000/00 RMK AO2 T01170083 $
53988KBKB BKB20190419221510704/19/19 22:15:31  5-MIN KBKB 200415Z AUTO 00000KT 10SM CLR 12/08 A2997 250 80 0 000/00 RMK AO2 T01170083 $
53988KBKB BKB20190419222010704/19/19 22:20:31  5-MIN KBKB 200420Z AUTO 00000KT 10SM CLR 12/08 A2998 250 80 0 000/00 RMK AO2 T01170083 $
53988KBKB BKB20190419222511304/19/19 22:25:31  5-MIN KBKB 200425Z AUTO 00000KT 10SM FEW080 11/08 A2998 250 83 -100 000/00 RMK AO2 T01110083 $
53988KBKB BKB20190419223011304/19/19 22:30:31  5-MIN KBKB 200430Z AUTO 00000KT 10SM FEW080 11/08 A2998 250 83 -100 000/00 RMK AO2 T01110083 $
53988KBKB BKB20190419223511304/19/19 22:35:31  5-MIN KBKB 200435Z AUTO 00000KT 10SM FEW080 11/08 A2998 250 83 -100 000/00 RMK AO2 T01110083 $
53988KBKB BKB20190419224011304/19/19 22:40:31  5-MIN KBKB 200440Z AUTO 00000KT 10SM FEW080 11/09 A2998 250 89 -100 000/00 RMK AO2 T01060089 $
53988KBKB BKB20190419224511304/19/19 22:45:31  5-MIN KBKB 200445Z AUTO 00000KT 10SM SCT080 11/09 A2998 240 89 -100 000/00 RMK AO2 T01060089 $
53988KBKB BKB20190419225012004/19/19 22:50:31  5-MIN KBKB 200450Z AUTO 00000KT 10SM SCT080 11/09 A2998 240 89 -100 000/00 RMK AO2 SLP180 T01060089 $
53988KBKB BKB20190419225511304/19/19 22:55:31  5-MIN KBKB 200455Z AUTO 00000KT 10SM SCT080 10/09 A2998 240 93 -200 000/00 RMK AO2 T01000089 $
53988KBKB BKB20190419230011304/19/19 23:00:31  5-MIN KBKB 200500Z AUTO 00000KT 10SM SCT080 10/09 A2998 240 93 -200 000/00 RMK AO2 T01000089 $
53988KBKB BKB20190419230511304/19/19 23:05:31  5-MIN KBKB 200505Z AUTO 00000KT 10SM SCT080 10/09 A2998 240 93 -200 000/00 RMK AO2 T01000089 $
53988KBKB BKB20190419231011304/19/19 23:10:31  5-MIN KBKB 200510Z AUTO 00000KT 10SM SCT080 10/09 A2998 240 93 -200 000/00 RMK AO2 T01000089 $
53988KBKB BKB20190419231511304/19/19 23:15:31  5-MIN KBKB 200515Z AUTO 00000KT 10SM SCT080 10/09 A2998 240 93 -200 000/00 RMK AO2 T01000089 $
53988KBKB BKB20190419232011304/19/19 23:20:31  5-MIN KBKB 200520Z AUTO 00000KT 10SM SCT080 10/09 A2998 240 93 -200 000/00 RMK AO2 T01000089 $
53988KBKB BKB20190419232511304/19/19 23:25:31  5-MIN KBKB 200525Z AUTO 00000KT 10SM SCT080 10/09 A2998 240 93 -200 000/00 RMK AO2 T01000089 $
53988KBKB BKB20190419233011304/19/19 23:30:31  5-MIN KBKB 200530Z AUTO 00000KT 10SM BKN080 10/09 A2998 240 93 -200 000/00 RMK AO2 T01000089 $
53988KBKB BKB20190419233511304/19/19 23:35:31  5-MIN KBKB 200535Z AUTO 00000KT 10SM BKN080 10/08 A2998 240 89 -200 000/00 RMK AO2 T01000083 $
53988KBKB BKB20190419234011304/19/19 23:40:31  5-MIN KBKB 200540Z AUTO 00000KT 10SM BKN080 10/08 A2998 250 89 -200 000/00 RMK AO2 T01000083 $
53988KBKB BKB20190419234511304/19/19 23:45:31  5-MIN KBKB 200545Z AUTO 00000KT 10SM BKN080 10/08 A2998 250 89 -200 000/00 RMK AO2 T01000083 $
53988KBKB BKB20190419235014804/19/19 23:50:31  5-MIN KBKB 200550Z AUTO 00000KT 10SM SCT080 10/08 A2998 250 89 -200 000/00 RMK AO2 SLP179 T01000083 10167 20100 402610100 53021 $
53988KBKB BKB20190419235511304/19/19 23:55:31  5-MIN KBKB 200555Z AUTO 00000KT 10SM SCT080 10/08 A2998 250 89 -200 000/00 RMK AO2 T01000083 $
53988KBKB BKB2019042
53988KBKB BKB20190420000011304/20/19 00:00:31  5-MIN KBKB 200600Z AUTO 00000KT 10SM FEW080 10/08 A2998 250 89 -200 000/00 RMK AO2 T01000083 $
53988KBKB BKB20190420000511304/20/19 00:05:31  5-MIN KBKB 200605Z AUTO 00000KT 10SM FEW080 09/08 A2998 250 93 -300 000/00 RMK AO2 T00940083 $
53988KBKB BKB20190420001011304/20/19 00:10:31  5-MIN KBKB 200610Z AUTO 00000KT 10SM FEW080 09/08 A2998 250 93 -300 000/00 RMK AO2 T00940083 $
53988KBKB BKB20190420001511004/20/19 00:15:31  5-MIN KBKB 200615Z AUTO 00000KT 10SM CLR 09/08 A2998 250 93 -300 000/00 RMK AO2 T00940083 $
53988KBKB BKB20190420002011004/20/19 00:20:31  5-MIN KBKB 200620Z AUTO 00000KT 10SM CLR 09/08 A2998 250 93 -300 000/00 RMK AO2 T00940083 $
53988KBKB BKB20190420002511004/20/19 00:25:31  5-MIN KBKB 200625Z AUTO 00000KT 10SM CLR 09/08 A2998 250 89 -300 000/00 RMK AO2 T00940078 $
53988KBKB BKB20190420003011004/20/19 00:30:31  5-MIN KBKB 200630Z AUTO 00000KT 10SM CLR 09/08 A2997 250 89 -300 000/00 RMK AO2 T00940078 $
53988KBKB BKB20190420003511004/20/19 00:35:31  5-MIN KBKB 200635Z AUTO 00000KT 10SM CLR 09/08 A2997 250 89 -300 000/00 RMK AO2 T00940078 $
53988KBKB BKB20190420004011004/20/19 00:40:31  5-MIN KBKB 200640Z AUTO 00000KT 10SM CLR 09/08 A2997 250 89 -300 000/00 RMK AO2 T00940078 $
53988KBKB BKB20190420004511004/20/19 00:45:31  5-MIN KBKB 200645Z AUTO 00000KT 10SM CLR 09/08 A2997 250 89 -300 000/00 RMK AO2 T00940078 $
53988KBKB BKB20190420005011704/20/19 00:50:31  5-MIN KBKB 200650Z AUTO 00000KT 10SM CLR 09/08 A2998 250 89 -300 000/00 RMK AO2 SLP179 T00940078 $
53988KBKB BKB20190420005511004/20/19 00:55:31  5-MIN KBKB 200655Z AUTO 00000KT 10SM CLR 09/08 A2998 250 89 -300 000/00 RMK AO2 T00940078 $
53988KBKB BKB20190420010011004/20/19 01:00:31  5-MIN KBKB 200700Z AUTO 00000KT 10SM CLR 09/08 A2998 250 89 -300 000/00 RMK AO2 T00940078 $
53988KBKB BKB20190420010511004/20/19 01:05:31  5-MIN KBKB 200705Z AUTO 00000KT 10SM CLR 09/08 A2998 250 89 -300 000/00 RMK AO2 T00940078 $
53988KBKB BKB20190420011011004/20/19 01:10:31  5-MIN KBKB 200710Z AUTO 00000KT 10SM CLR 09/08 A2998 250 89 -300 000/00 RMK AO2 T00940078 $
53988KBKB BKB20190420011511004/20/19 01:15:31  5-MIN KBKB 200715Z AUTO 00000KT 10SM CLR 09/08 A2998 250 89 -300 000/00 RMK AO2 T00940078 $
53988KBKB BKB20190420012011004/20/19 01:20:31  5-MIN KBKB 200720Z AUTO 00000KT 10SM CLR 09/08 A2998 250 93 -300 000/00 RMK AO2 T00890078 $
53988KBKB BKB20190420012511004/20/19 01:25:31  5-MIN KBKB 200725Z AUTO 00000KT 10SM CLR 09/08 A2998 250 93 -300 000/00 RMK AO2 T00890078 $
53988KBKB BKB20190420013011004/20/19 01:30:31  5-MIN KBKB 200730Z AUTO 00000KT 10SM CLR 09/08 A2998 250 93 -300 000/00 RMK AO2 T00890078 $
53988KBKB BKB20190420013511004/20/19 01:35:31  5-MIN KBKB 200735Z AUTO 00000KT 10SM CLR 09/08 A2998 250 93 -300 000/00 RMK AO2 T00890078 $
53988KBKB BKB20190420014011004/20/19 01:40:31  5-MIN KBKB 200740Z AUTO 00000KT 10SM CLR 09/07 A2997 250 89 -300 000/00 RMK AO2 T00890072 $
53988KBKB BKB20190420014511004/20/19 01:45:31  5-MIN KBKB 200745Z AUTO 00000KT 10SM CLR 09/07 A2997 250 89 -300 000/00 RMK AO2 T00890072 $
53988KBKB BKB20190420015011704/20/19 01:50:31  5-MIN KBKB 200750Z AUTO 00000KT 10SM CLR 09/07 A2998 250 89 -300 000/00 RMK AO2 SLP180 T00890072 $
53988KBKB BKB20190420015511004/20/19 01:55:31  5-MIN KBKB 200755Z AUTO 00000KT 10SM CLR 08/07 A2998 250 93 -400 000/00 RMK AO2 T00830072 $
53988KBKB BKB20190420020011004/20/19 02:00:31  5-MIN KBKB 200800Z AUTO 00000KT 10SM CLR 08/07 A2998 240 93 -400 000/00 RMK AO2 T00830072 $
53988KBKB BKB20190420020511004/20/19 02:05:31  5-MIN KBKB 200805Z AUTO 00000KT 10SM CLR 08/07 A2998 250 93 -400 000/00 RMK AO2 T00830072 $
53988KBKB BKB20190420021011004/20/19 02:10:31  5-MIN KBKB 200810Z AUTO 00000KT 10SM CLR 08/07 A2998 240 93 -400 000/00 RMK AO2 T00830072 $
53988KBKB BKB20190420021511004/20/19 02:15:31  5-MIN KBKB 200815Z AUTO 00000KT 10SM CLR 08/07 A2998 240 93 -400 000/00 RMK AO2 T00830072 $
53988KBKB BKB20190420022011004/20/19 02:20:31  5-MIN KBKB 200820Z AUTO 00000KT 10SM CLR 08/07 A2998 250 93 -400 000/00 RMK AO2 T00830072 $
53988KBKB BKB20190420022511004/20/19 02:25:31  5-MIN KBKB 200825Z AUTO 00000KT 10SM CLR 08/07 A2998 250 93 -400 000/00 RMK AO2 T00830072 $
53988KBKB BKB20190420023011004/20/19 02:30:31  5-MIN KBKB 200830Z AUTO 00000KT 10SM CLR 08/07 A2998 250 93 -400 000/00 RMK AO2 T00830072 $
53988KBKB BKB20190420023511004/20/19 02:35:31  5-MIN KBKB 200835Z AUTO 00000KT 10SM CLR 08/07 A2998 250 93 -400 000/00 RMK AO2 T00830072 $
53988KBKB BKB20190420024011004/20/19 02:40:31  5-MIN KBKB 200840Z AUTO 00000KT 10SM CLR 08/07 A2998 240 93 -400 000/00 RMK AO2 T00830072 $
53988KBKB BKB20190420024511004/20/19 02:45:31  5-MIN KBKB 200845Z AUTO 00000KT 10SM CLR 08/07 A2998 240 93 -400 000/00 RMK AO2 T00830072 $
53988KBKB BKB20190420025012304/20/19 02:50:31  5-MIN KBKB 200850Z AUTO 00000KT 10SM CLR 08/07 A2998 240 96 -500 000/00 RMK AO2 SLP182 T00780072 50005 $
53988KBKB BKB20190420025511004/20/19 02:55:31  5-MIN KBKB 200855Z AUTO 00000KT 10SM CLR 08/07 A2998 240 96 -500 000/00 RMK AO2 T00780072 $
53988KBKB BKB20190420030011004/20/19 03:00:31  5-MIN KBKB 200900Z AUTO 00000KT 10SM CLR 08/07 A2999 240 96 -500 000/00 RMK AO2 T00780072 $
53988KBKB BKB20190420030507504/20/19 03:05:31  5-MIN KBKB 200905Z AUTO 00000KT 10SM CLR 08/07 A2999 240
53988KBKB BKB20190420030511004/20/19 03:05:31  5-MIN KBKB 200905Z AUTO 00000KT 10SM CLR 08/07 A2999 240 96 -500 000/00 RMK AO2 T00780072 $
53988KBKB BKB20190420031011004/20/19 03:10:31  5-MIN KBKB 200910Z AUTO 00000KT 10SM CLR 08/07 A2999 240 96 -500 000/00 RMK AO2 T00780072 $
53988KBKB BKB20190420031511004/20/19 03:15:31  5-MIN KBKB 200915Z AUTO 00000KT 10SM CLR 08/07 A2999 240 96 -500 000/00 RMK AO2 T00780072 $
53988KBKB BKB20190420032011004/20/19 03:20:31  5-MIN KBKB 200920Z AUTO 00000KT 10SM CLR 08/07 A2999 230 96 -500 000/00 RMK AO2 T00780072 $
53988KBKB BKB20190420032511004/20/19 03:25:31  5-MIN KBKB 200925Z AUTO 00000KT 10SM CLR 08/07 A2999 230 96 -500 000/00 RMK AO2 T00780072 $
53988KBKB BKB20190420033011004/20/19 03:30:31  5-MIN KBKB 200930Z AUTO 00000KT 10SM CLR 08/07 A2999 230 96 -500 000/00 RMK AO2 T00780072 $
53988KBKB BKB20190420033511004/20/19 03:35:31  5-MIN KBKB 200935Z AUTO 00000KT 10SM CLR 08/07 A2999 230 93 -500 000/00 RMK AO2 T00780067 $
53988KBKB BKB20190420034011004/20/19 03:40:31  5-MIN KBKB 200940Z AUTO 00000KT 10SM CLR 08/07 A2999 230 93 -500 000/00 RMK AO2 T00780067 $
53988KBKB BKB20190420034511004/20/19 03:45:31  5-MIN KBKB 200945Z AUTO 00000KT 10SM CLR 08/07 A2999 240 93 -500 000/00 RMK AO2 T00780067 $
53988KBKB BKB20190420035011704/20/19 03:50:31  5-MIN KBKB 200950Z AUTO 00000KT 10SM CLR 08/07 A2999 230 93 -500 000/00 RMK AO2 SLP185 T00780067 $
53988KBKB BKB20190420035511004/20/19 03:55:31  5-MIN KBKB 200955Z AUTO 00000KT 10SM CLR 08/07 A2999 230 93 -500 000/00 RMK AO2 T00780067 $
53988KBKB BKB20190420040011004/20/19 04:00:31  5-MIN KBKB 201000Z AUTO 00000KT 10SM CLR 07/07 A3000 230 96 -600 000/00 RMK AO2 T00720067 $
53988KBKB BKB20190420040511004/20/19 04:05:31  5-MIN KBKB 201005Z AUTO 00000KT 10SM CLR 07/07 A3000 230 96 -600 000/00 RMK AO2 T00720067 $
53988KBKB BKB20190420041011004/20/19 04:10:31  5-MIN KBKB 201010Z AUTO 00000KT 10SM CLR 07/07 A2999 230 96 -600 000/00 RMK AO2 T00720067 $
53988KBKB BKB20190420041511004/20/19 04:15:31  5-MIN KBKB 201015Z AUTO 00000KT 10SM CLR 07/07 A2999 230 96 -600 000/00 RMK AO2 T00720067 $
53988KBKB BKB20190420042011004/20/19 04:20:31  5-MIN KBKB 201020Z AUTO 00000KT 10SM CLR 07/07 A2999 230 96 -600 000/00 RMK AO2 T00720067 $
53988KBKB BKB20190420042511004/20/19 04:25:31  5-MIN KBKB 201025Z AUTO 00000KT 10SM CLR 07/07 A2999 230 96 -600 000/00 RMK AO2 T00720067 $
53988KBKB BKB20190420043010904/20/19 04:30:31  5-MIN KBKB 201030Z AUTO 00000KT 9SM CLR 07/07 A3000 230 96 -600 000/00 RMK AO2 T00720067 $
53988KBKB BKB20190420043510904/20/19 04:35:31  5-MIN KBKB 201035Z AUTO 00000KT 9SM CLR 07/07 A3000 230 96 -600 000/00 RMK AO2 T00720067 $
53988KBKB BKB20190420044011104/20/19 04:40:31  5-MIN KBKB 201040Z AUTO 00000KT 10SM CLR 07/07 A3000 220 100 -600 000/00 RMK AO2 T00670067 $
53988KBKB BKB20190420044511004/20/19 04:45:31  5-MIN KBKB 201045Z AUTO 00000KT 10SM CLR 07/06 A3000 220 96 -600 000/00 RMK AO2 T00670061 $
53988KBKB BKB20190420045011704/20/19 04:50:31  5-MIN KBKB 201050Z AUTO 00000KT 10SM CLR 07/06 A3000 220 96 -600 000/00 RMK AO2 SLP189 T00670061 $
53988KBKB BKB20190420045511004/20/19 04:55:31  5-MIN KBKB 201055Z AUTO 00000KT 10SM CLR 07/06 A3001 220 96 -600 000/00 RMK AO2 T00670061 $
53988KBKB BKB20190420050010904/20/19 05:00:31  5-MIN KBKB 201100Z AUTO 00000KT 9SM CLR 07/06 A3001 220 96 -600 000/00 RMK AO2 T00670061 $
53988KBKB BKB20190420050511004/20/19 05:05:31  5-MIN KBKB 201105Z AUTO 00000KT 10SM CLR 06/06 A3001 220 96 -700 000/00 RMK AO2 T00610056 $
53988KBKB BKB20190420051011004/20/19 05:10:31  5-MIN KBKB 201110Z AUTO 00000KT 10SM CLR 06/06 A3001 220 96 -700 000/00 RMK AO2 T00610056 $
53988KBKB BKB20190420051511004/20/19 05:15:31  5-MIN KBKB 201115Z AUTO 00000KT 10SM CLR 06/06 A3001 220 96 -700 000/00 RMK AO2 T00610056 $
53988KBKB BKB20190420052011004/20/19 05:20:31  5-MIN KBKB 201120Z AUTO 00000KT 10SM CLR 06/06 A3002 210 96 -700 000/00 RMK AO2 T00610056 $
53988KBKB BKB20190420052511004/20/19 05:25:31  5-MIN KBKB 201125Z AUTO 00000KT 10SM CLR 06/06 A3002 210 96 -700 000/00 RMK AO2 T00610056 $
53988KBKB BKB20190420053011004/20/19 05:30:31  5-MIN KBKB 201130Z AUTO 00000KT 10SM CLR 06/06 A3002 210 96 -700 000/00 RMK AO2 T00610056 $
53988KBKB BKB20190420053511004/20/19 05:35:31  5-MIN KBKB 201135Z AUTO 00000KT 10SM CLR 06/06 A3002 210 96 -700 000/00 RMK AO2 T00610056 $
53988KBKB BKB20190420054011004/20/19 05:40:31  5-MIN KBKB 201140Z AUTO 00000KT 10SM CLR 06/06 A3002 210 96 -700 000/00 RMK AO2 T00610056 $
53988KBKB BKB20190420054511004/20/19 05:45:31  5-MIN KBKB 201145Z AUTO 00000KT 10SM CLR 06/06 A3002 200 96 -700 000/00 RMK AO2 T00610056 $
53988KBKB BKB20190420055014104/20/19 05:50:31  5-MIN KBKB 201150Z AUTO 00000KT 10SM CLR 06/06 A3003 200 96 -700 000/00 RMK AO2 SLP441 7//// T00610056 10100 20061 53002 $
53988KBKB BKB20190420055511004/20/19 05:55:31  5-MIN KBKB 201155Z AUTO 00000KT 10SM CLR 06/06 A3003 200 96 -700 000/00 RMK AO2 T00610056 $
53988KBKB BKB20190420060011004/20/19 06:00:31  5-MIN KBKB 201200Z AUTO 00000KT 10SM CLR 06/06 A3003 200 96 -700 000/00 RMK AO2 T00610056 $
53988KBKB BKB20190420060511104/20/19 06:05:31  5-MIN KBKB 201205Z AUTO 00000KT 10SM CLR 06/06 A3003 190 100 -700 000/00 RMK AO2 T00610061 $
53988KBKB BKB20190420061011004/20/19 06:10:31  5-MIN KBKB 201210Z AUTO 00000KT 10SM CLR 07/06 A3004 190 96 -700 000/00 RMK AO2 T00670061 $
53988KBKB BKB20190420061511004/20/19 06:15:31  5-MIN KBKB 201215Z AUTO 00000KT 10SM CLR 07/06 A3004 190 96 -700 000/00 RMK AO2 T00670061 $
53988KBKB BKB20190420062011004/20/19 06:20:31  5-MIN KBKB 201220Z AUTO 00000KT 10SM CLR 07/06 A3004 190 93 -600 000/00 RMK AO2 T00720061 $
53988KBKB BKB20190420062511004/20/19 06:25:31  5-MIN KBKB 201225Z AUTO 00000KT 10SM CLR 07/07 A3004 190 96 -600 000/00 RMK AO2 T00720067 $
53988KBKB BKB20190420063011004/20/19 06:30:31  5-MIN KBKB 201230Z AUTO 00000KT 10SM CLR 08/07 A3004 190 93 -500 000/00 RMK AO2 T00780067 $
53988KBKB BKB20190420063511004/20/19 06:35:31  5-MIN KBKB 201235Z AUTO 00000KT 10SM CLR 08/07 A3004 180 96 -600 000/00 RMK AO2 T00780072 $
53988KBKB BKB20190420064011004/20/19 06:40:31  5-MIN KBKB 201240Z AUTO 00000KT 10SM CLR 08/07 A3005 180 93 -500 000/00 RMK AO2 T00830072 $
53988KBKB BKB20190420064511004/20/19 06:45:31  5-MIN KBKB 201245Z AUTO 00000KT 10SM CLR 09/08 A3005 180 93 -400 000/00 RMK AO2 T00890078 $
53988KBKB BKB20190420065011704/20/19 06:50:31  5-MIN KBKB 201250Z AUTO 00000KT 10SM CLR 10/08 A3005 180 89 -300 000/00 RMK AO2 SLP205 T01000083 $
53988KBKB BKB20190420065511004/20/19 06:55:31  5-MIN KBKB 201255Z AUTO 00000KT 10SM CLR 10/09 A3005 180 93 -300 000/00 RMK AO2 T01000089 $
53988KBKB BKB20190420070011004/20/19 07:00:31  5-MIN KBKB 201300Z AUTO 00000KT 10SM CLR 11/09 A3005 180 89 -200 000/00 RMK AO2 T01060089 $
53988KBKB BKB20190420070511004/20/19 07:05:31  5-MIN KBKB 201305Z AUTO 00000KT 10SM CLR 11/08 A3005 180 83 -200 000/00 RMK AO2 T01110083 $
53988KBKB BKB20190420071011304/20/19 07:10:31  5-MIN KBKB 201310Z AUTO VRB03KT 10SM FEW002 12/09 A3006 170 83 -100 VRB/03 RMK AO2 T01170089 $
53988KBKB BKB20190420071511004/20/19 07:15:31  5-MIN KBKB 201315Z AUTO 00000KT 10SM CLR 12/09 A3006 170 83 -100 000/00 RMK AO2 T01170089 $
53988KBKB BKB20190420072011004/20/19 07:20:31  5-MIN KBKB 201320Z AUTO 00000KT 10SM CLR 12/08 A3006 170 80 -100 000/00 RMK AO2 T01170083 $
53988KBKB BKB20190420072510704/20/19 07:25:31  5-MIN KBKB 201325Z AUTO 00000KT 10SM CLR 13/09 A3006 170 77 0 000/00 RMK AO2 T01280089 $
53988KBKB BKB20190420073010904/20/19 07:30:31  5-MIN KBKB 201330Z AUTO 00000KT 10SM CLR 13/09 A3006 170 74 100 000/00 RMK AO2 T01330089 $
53988KBKB BKB20190420073510904/20/19 07:35:31  5-MIN KBKB 201335Z AUTO 00000KT 10SM CLR 13/09 A3006 170 74 100 000/00 RMK AO2 T01330089 $
53988KBKB BKB20190420074010904/20/19 07:40:31  5-MIN KBKB 201340Z AUTO 00000KT 10SM CLR 13/08 A3006 170 71 100 000/00 RMK AO2 T01330083 $
53988KBKB BKB20190420074510904/20/19 07:45:31  5-MIN KBKB 201345Z AUTO 00000KT 10SM CLR 14/09 A3006 170 69 200 000/00 RMK AO2 T01440089 $
53988KBKB BKB20190420075011604/20/19 07:50:31  5-MIN KBKB 201350Z AUTO 00000KT 10SM CLR 15/09 A3006 170 66 300 000/00 RMK AO2 SLP206 T01500089 $
53988KBKB BKB20190420075510904/20/19 07:55:31  5-MIN KBKB 201355Z AUTO 00000KT 10SM CLR 15/08 A3006 170 64 300 000/00 RMK AO2 T01500083 $
53988KBKB BKB20190420080010904/20/19 08:00:31  5-MIN KBKB 201400Z AUTO VRB04KT 10SM CLR 15/07 A3006 170 59 300 VRB/04 RMK AO2 T01500072 $
53988KBKB BKB20190420080510904/20/19 08:05:31  5-MIN KBKB 201405Z AUTO 33004KT 10SM CLR 16/07 A3006 170 55 300 320/04 RMK AO2 T01560067 $
53988KBKB BKB20190420081010904/20/19 08:10:31  5-MIN KBKB 201410Z AUTO VRB03KT 10SM CLR 16/07 A3006 170 55 300 VRB/03 RMK AO2 T01560067 $
53988KBKB BKB20190420081510904/20/19 08:15:31  5-MIN KBKB 201415Z AUTO 00000KT 10SM CLR 16/07 A3006 170 55 400 000/00 RMK AO2 T01610072 $
53988KBKB BKB20190420082010904/20/19 08:20:31  5-MIN KBKB 201420Z AUTO 00000KT 10SM CLR 17/08 A3006 170 55 400 000/00 RMK AO2 T01670078 $
53988KBKB BKB20190420082510904/20/19 08:25:31  5-MIN KBKB 201425Z AUTO VRB03KT 10SM CLR 17/08 A3006 160 53 500 VRB/03 RMK AO2 T01720078 $
53988KBKB BKB20190420083010904/20/19 08:30:31  5-MIN KBKB 201430Z AUTO 02004KT 10SM CLR 17/07 A3006 170 51 400 010/04 RMK AO2 T01670067 $
53988KBKB BKB20190420083510904/20/19 08:35:31  5-MIN KBKB 201435Z AUTO 36004KT 10SM CLR 17/06 A3006 160 49 400 360/04 RMK AO2 T01670061 $
53988KBKB BKB20190420084010904/20/19 08:40:31  5-MIN KBKB 201440Z AUTO 00000KT 10SM CLR 17/06 A3007 160 47 500 000/00 RMK AO2 T01720061 $
53988KBKB BKB20190420084510904/20/19 08:45:31  5-MIN KBKB 201445Z AUTO 35004KT 10SM CLR 17/06 A3007 160 47 500 350/04 RMK AO2 T01720061 $
53988KBKB BKB20190420085012204/20/19 08:50:31  5-MIN KBKB 201450Z AUTO 00000KT 10SM CLR 18/06 A3007 160 46 600 000/00 RMK AO2 SLP211 T01780061 53016 $
53988KBKB BKB20190420085509904/20/19 08:55:31  5-MIN KBKB 201455Z AUTO 10SM CLR 18/07 A3007 160 48 600 M /M RMK AO2 T01780067 $
53988KBKB BKB20190420090010904/20/19 09:00:31  5-MIN KBKB 201500Z AUTO 33005KT 10SM CLR 18/06 A3008 160 44 600 320/05 RMK AO2 T01780056 $
53988KBKB BKB20190420090510904/20/19 09:05:31  5-MIN KBKB 201505Z AUTO VRB03KT 10SM CLR 18/05 A3008 150 42 600 VRB/03 RMK AO2 T01780050 $
53988KBKB BKB20190420091010904/20/19 09:10:31  5-MIN KBKB 201510Z AUTO VRB03KT 10SM CLR 18/05 A3008 150 42 600 VRB/03 RMK AO2 T01780050 $
53988KBKB BKB20190420091510904/20/19 09:15:31  5-MIN KBKB 201515Z AUTO 00000KT 10SM CLR 18/05 A3008 150 41 600 000/00 RMK AO2 T01830050 $
53988KBKB BKB20190420092010904/20/19 09:20:31  5-MIN KBKB 201520Z AUTO 34005KT 10SM CLR 18/04 A3008 150 38 600 330/05 RMK AO2 T01830039 $
53988KBKB BKB20190420092510904/20/19 09:25:31  5-MIN KBKB 201525Z AUTO 00000KT 10SM CLR 19/04 A3008 150 38 700 000/00 RMK AO2 T01890044 $
53988KBKB BKB20190420093010904/20/19 09:30:31  5-MIN KBKB 201530Z AUTO VRB03KT 10SM CLR 19/05 A3008 150 39 700 VRB/03 RMK AO2 T01890050 $
53988KBKB BKB20190420093510904/20/19 09:35:31  5-MIN KBKB 201535Z AUTO 00000KT 10SM CLR 19/04 A3008 150 38 700 000/00 RMK AO2 T01890044 $
53988KBKB BKB20190420094010904/20/19 09:40:31  5-MIN KBKB 201540Z AUTO VRB04KT 10SM CLR 19/04 A3008 150 37 700 VRB/04 RMK AO2 T01940044 $
53988KBKB BKB20190420094510904/20/19 09:45:31  5-MIN KBKB 201545Z AUTO VRB03KT 10SM CLR 19/04 A3009 140 37 700 VRB/03 RMK AO2 T01940044 $
53988KBKB BKB20190420095010604/20/19 09:50:31  5-MIN KBKB 201550Z AUTO 10SM CLR 19/04 A3009 140 37 700 M /M RMK AO2 SLP217 T01940044 $
53988KBKB BKB20190420095511104/20/19 09:55:31  5-MIN KBKB 201555Z AUTO 00000KT 10SM CLR 19/04 A3009 140 37 700 000/00 RM0 RMK AO2 T01940067
53988KBKB BKB20190420181510704/20/19 18:15:31  5-MIN KBKB 210015Z AUTO 00000KT 10SM CLR 19/06 A2998 250 41 900 000/00 RMK AO2 T01940061
53988KBKB BKB20190420182010704/20/19 18:20:31  5-MIN KBKB 210020Z AUTO 00000KT 10SM CLR 19/07 A2998 250 44 800 000/00 RMK AO2 T01890067
53988KBKB BKB20190420182510704/20/19 18:25:31  5-MIN KBKB 210025Z AUTO 00000KT 10SM CLR 18/06 A2998 250 44 700 000/00 RMK AO2 T01830061
53988KBKB BKB20190420183010704/20/19 18:30:31  5-MIN KBKB 210030Z AUTO 00000KT 10SM CLR 18/07 A2998 240 46 700 000/00 RMK AO2 T01830067
53988KBKB BKB20190420183510704/20/19 18:35:31  5-MIN KBKB 210035Z AUTO 00000KT 10SM CLR 18/07 A2998 240 48 700 000/00 RMK AO2 T01780067
53988KBKB BKB20190420184010704/20/19 18:40:31  5-MIN KBKB 210040Z AUTO 00000KT 10SM CLR 18/07 A2998 240 49 700 000/00 RMK AO2 T01780072
53988KBKB BKB20190420184510704/20/19 18:45:31  5-MIN KBKB 210045Z AUTO 00000KT 10SM CLR 17/07 A2998 240 51 600 000/00 RMK AO2 T01720072
53988KBKB BKB20190420185011404/20/19 18:50:31  5-MIN KBKB 210050Z AUTO 00000KT 10SM CLR 17/08 A2998 240 55 500 000/00 RMK AO2 SLP182 T01670078
53988KBKB BKB20190420185510704/20/19 18:55:31  5-MIN KBKB 210055Z AUTO 00000KT 10SM CLR 16/08 A2998 240 59 500 000/00 RMK AO2 T01610083
53988KBKB BKB20190420190010704/20/19 19:00:31  5-MIN KBKB 210100Z AUTO 00000KT 10SM CLR 16/08 A2998 240 59 500 000/00 RMK AO2 T01610083
53988KBKB BKB20190421065011804/21/19 06:50:31  5-MIN KBKB 211250Z AUTO 00000KT 10SM CLR 11/11 A3007 160 100 -200 000/00 RMK AO2 SLP210 T01110111 $
53988KBKB BKB20190421065511104/21/19 06:55:31  5-MIN KBKB 211255Z AUTO 00000KT 10SM CLR 12/12 A3007 160 100 -100 000/00 RMK AO2 T01170117 $
53988KBKB BKB20190421070010804/21/19 07:00:31  5-MIN KBKB 211300Z AUTO 00000KT 10SM CLR 12/12 A3007 160 100 0 000/00 RMK AO2 T01220122 $
53988KBKB BKB20190421070510704/21/19 07:05:31  5-MIN KBKB 211305Z AUTO 00000KT 10SM CLR 13/13 A3007 160 96 0 000/00 RMK AO2 T01330128 $
53988KBKB BKB20190421071010704/21/19 07:10:31  5-MIN KBKB 211310Z AUTO 00000KT 10SM CLR 13/13 A3007 160 96 0 000/00 RMK AO2 T01330128 $
53988KBKB BKB20190421071510904/21/19 07:15:31  5-MIN KBKB 211315Z AUTO 00000KT 10SM CLR 14/13 A3008 150 93 200 000/00 RMK AO2 T01440133 $
53988KBKB BKB20190421072010904/21/19 07:20:31  5-MIN KBKB 211320Z AUTO 19003KT 10SM CLR 15/13 A3008 150 90 200 180/03 RMK AO2 T01500133 $
53988KBKB BKB20190421072510904/21/19 07:25:31  5-MIN KBKB 211325Z AUTO 00000KT 10SM CLR 16/13 A3008 150 86 300 000/00 RMK AO2 T01560133 $
53988KBKB BKB20190421073010904/21/19 07:30:31  5-MIN KBKB 211330Z AUTO VRB03KT 10SM CLR 16/13 A3008 150 86 300 VRB/03 RMK AO2 T01560133 $
53988KBKB BKB20190421073510904/21/19 07:35:31  5-MIN KBKB 211335Z AUTO 00000KT 10SM CLR 16/13 A3008 150 83 400 000/00 RMK AO2 T01610133 $
53988KBKB BKB20190421074010904/21/19 07:40:31  5-MIN KBKB 211340Z AUTO 00000KT 10SM CLR 17/14 A3008 150 83 400 000/00 RMK AO2 T01670139 $
53988KBKB BKB20190421074510904/21/19 07:45:31  5-MIN KBKB 211345Z AUTO 00000KT 10SM CLR 17/14 A3008 150 83 400 000/00 RMK AO2 T01670139 $
53988KBKB BKB20190421075011604/21/19 07:50:31  5-MIN KBKB 211350Z AUTO VRB03KT 10SM CLR 17/14 A3008 150 83 400 VRB/03 RMK AO2 SLP214 T01670139 $
53988KBKB BKB20190421075510904/21/19 07:55:31  5-MIN KBKB 211355Z AUTO VRB03KT 10SM CLR 17/14 A3008 150 80 500 VRB/03 RMK AO2 T01720139 $
53988KBKB BKB20190421080010904/21/19 08:00:31  5-MIN KBKB 211400Z AUTO VRB04KT 10SM CLR 18/14 A3008 150 81 500 VRB/04 RMK AO2 T01780144 $
53988KBKB BKB20190421080510904/21/19 08:05:31  5-MIN KBKB 211405Z AUTO VRB03KT 10SM CLR 18/14 A3008 150 78 500 VRB/03 RMK AO2 T01780139 $
53988KBKB BKB20190421081010904/21/19 08:10:31  5-MIN KBKB 211410Z AUTO 00000KT 10SM CLR 18/14 A3009 150 78 600 000/00 RMK AO2 T01830144 $
53988KBKB BKB20190421081510904/21/19 08:15:31  5-MIN KBKB 211415Z AUTO 00000KT 10SM CLR 19/14 A3009 140 75 700 000/00 RMK AO2 T01890144 $
53988KBKB BKB20190421082010904/21/19 08:20:31  5-MIN KBKB 211420Z AUTO VRB04KT 10SM CLR 19/14 A3009 140 75 700 VRB/04 RMK AO2 T01890144 $
53988KBKB BKB20190421082510904/21/19 08:25:31  5-MIN KBKB 211425Z AUTO 16004KT 10SM CLR 19/14 A3009 140 72 700 160/04 RMK AO2 T01940144 $
53988KBKB BKB20190421083010904/21/19 08:30:31  5-MIN KBKB 211430Z AUTO VRB04KT 10SM CLR 19/14 A3009 140 72 700 VRB/04 RMK AO2 T01940144 $
53988KBKB BKB20190421083510904/21/19 08:35:31  5-MIN KBKB 211435Z AUTO VRB04KT 10SM CLR 20/14 A3009 140 70 800 VRB/04 RMK AO2 T02000144 $
53988KBKB BKB20190421084010904/21/19 08:40:31  5-MIN KBKB 211440Z AUTO VRB04KT 10SM CLR 20/14 A3009 140 70 800 VRB/04 RMK AO2 T02000144 $
53988KBKB BKB20190421084510904/21/19 08:45:31  5-MIN KBKB 211445Z AUTO VRB04KT 10SM CLR 20/14 A3009 140 70 800 VRB/04 RMK AO2 T02000144 $
53988KBKB BKB20190421085012204/21/19 08:50:31  5-MIN KBKB 211450Z AUTO VRB04KT 10SM CLR 20/14 A3009 150 67 800 VRB/04 RMK AO2 SLP216 T02000139 53012 $
53988KBKB BKB20190421085510904/21/19 08:55:31  5-MIN KBKB 211455Z AUTO VRB03KT 10SM CLR 21/14 A3009 140 65 900 VRB/03 RMK AO2 T02060139 $
53988KBKB BKB20190421090010904/21/19 09:00:31  5-MIN KBKB 211500Z AUTO VRB04KT 10SM CLR 21/14 A3009 140 65 900 VRB/04 RMK AO2 T02110144 $
53988KBKB BKB20190421090511004/21/19 09:05:31  5-MIN KBKB 211505Z AUTO 00000KT 10SM CLR 22/14 A3009 140 63 1000 000/00 RMK AO2 T02170144 $
53988KBKB BKB20190421091009904/21/19 09:10:31  5-MIN KBKB 211510Z AUTO 10SM CLR 21/14 A3009 140 63 900 M /M RMK AO2 T02110139 $
53988KBKB BKB20190421091510904/21/19 09:15:31  5-MIN KBKB 211515Z AUTO VRB05KT 10SM CLR 21/14 A3009 140 63 900 VRB/05 RMK AO2 T02110139 $
53988KBKB BKB20190421092010904/21/19 09:20:31  5-MIN KBKB 211520Z AUTO 00000KT 10SM CLR 21/13 A3009 140 61 900 000/00 RMK AO2 T02110133 $
53988KBKB BKB20190421092511004/21/19 09:25:31  5-MIN KBKB 211525Z AUTO VRB05KT 10SM CLR 22/13 A3009 140 58 1000 VRB/05 RMK AO2 T02170133 $
53988KBKB BKB20190421093011004/21/19 09:30:31  5-MIN KBKB 211530Z AUTO VRB03KT 10SM CLR 22/13 A3009 140 56 1100 VRB/03 RMK AO2 T02220133 $
53988KBKB BKB20190421093511004/21/19 09:35:31  5-MIN KBKB 211535Z AUTO VRB05KT 10SM CLR 23/14 A3010 140 57 1100 VRB/05 RMK AO2 T02280139 $
53988KBKB BKB20190421094011004/21/19 09:40:31  5-MIN KBKB 211540Z AUTO VRB05KT 10SM CLR 22/12 A3010 130 52 1000 VRB/05 RMK AO2 T02220122 $
53988KBKB BKB20190421094511004/21/19 09:45:31  5-MIN KBKB 211545Z AUTO VRB03KT 10SM CLR 22/12 A3010 130 51 1000 VRB/03 RMK AO2 T02220117 $
53988KBKB BKB20190421095011704/21/19 09:50:31  5-MIN KBKB 211550Z AUTO VRB04KT 10SM CLR 23/13 A3010 130 53 1100 VRB/04 RMK AO2 SLP221 T02280128 $
53988KBKB BKB20190421095511004/21/19 09:55:31  5-MIN KBKB 211555Z AUTO VRB06KT 10SM CLR 23/12 A3010 130 49 1100 VRB/06 RMK AO2 T02280117 $
53988KBKB BKB20190421100012604/21/19 10:00:31  5-MIN KBKB 211600Z AUTO 15008KT 120V210 10SM CLR 23/11 A3010 130 47 1100 150/08 120V210 RMK AO2 T02280111 $
53988KBKB BKB20190421100511004/21/19 10:05:31  5-MIN KBKB 211605Z AUTO VRB05KT 10SM CLR 23/11 A3010 130 47 1100 VRB/05 RMK AO2 T02280111 $
53988KBKB BKB20190421101011004/21/19 10:10:31  5-MIN KBKB 211610Z AUTO VRB04KT 10SM CLR 24/12 A3010 130 46 1200 VRB/04 RMK AO2 T02390117 $
53988KBKB BKB20190421101510004/21/19 10:15:31  5-MIN KBKB 211615Z AUTO 10SM CLR 23/11 A3011 130 45 1200 M /M RMK AO2 T02330111 $
53988KBKB BKB20190421102011004/21/19 10:20:31  5-MIN KBKB 211620Z AUTO VRB06KT 10SM CLR 23/11 A3011 130 45 1200 VRB/06 RMK AO2 T02330111 $
53988KBKB BKB20190421102511004/21/19 10:25:31  5-MIN KBKB 211625Z AUTO VRB04KT 10SM CLR 23/11 A3011 130 45 1200 VRB/04 RMK AO2 T02330111 $
53988KBKB BKB20190421103012604/21/19 10:30:31  5-MIN KBKB 211630Z AUTO 16007KT 130V270 10SM CLR 24/11 A3011 130 44 1200 160/07 130V270 RMK AO2 T02390111 $
53988KBKB BKB20190421103511004/21/19 10:35:31  5-MIN KBKB 211635Z AUTO VRB05KT 10SM CLR 24/12 A3010 130 44 1300 VRB/05 RMK AO2 T02440117 $
53988KBKB BKB20190421104010004/21/19 10:40:31  5-MIN KBKB 211640Z AUTO 10SM CLR 24/11 A3010 130 42 1300 M /M RMK AO2 T02440111 $
53988KBKB BKB20190421104511004/21/19 10:45:31  5-MIN KBKB 211645Z AUTO VRB06KT 10SM CLR 24/11 A3010 130 44 1200 VRB/06 RMK AO2 T02390111 $
53988KBKB BKB20190421105011704/21/19 10:50:31  5-MIN KBKB 211650Z AUTO VRB06KT 10SM CLR 24/11 A3010 130 44 1200 VRB/06 RMK AO2 SLP220 T02390111 $
53988KBKB BKB20190421105511004/21/19 10:55:31  5-MIN KBKB 211655Z AUTO VRB05KT 10SM CLR 24/11 A3010 130 42 1300 VRB/05 RMK AO2 T02440111 $
53988KBKB BKB20190421110011004/21/19 11:00:31  5-MIN KBKB 211700Z AUTO VRB04KT 10SM CLR 24/11 A3010 130 42 1300 VRB/04 RMK AO2 T02440111 $
53988KBKB BKB20190421110511004/21/19 11:05:31  5-MIN KBKB 211705Z AUTO VRB06KT 10SM CLR 24/11 A3010 130 42 1300 VRB/06 RMK AO2 T02440111 $
53988KBKB BKB20190421111011004/21/19 11:10:31  5-MIN KBKB 211710Z AUTO VRB05KT 10SM CLR 25/11 A3010 130 41 1400 VRB/05 RMK AO2 T02500111 $
53988KBKB BKB20190421111511004/21/19 11:15:31  5-MIN KBKB 211715Z AUTO VRB04KT 10SM CLR 25/11 A3010 140 39 1400 VRB/04 RMK AO2 T02500106 $
53988KBKB BKB20190421112011004/21/19 11:20:31  5-MIN KBKB 211720Z AUTO VRB05KT 10SM CLR 24/10 A3010 130 39 1300 VRB/05 RMK AO2 T02440100 $
53988KBKB BKB20190421112511004/21/19 11:25:31  5-MIN KBKB 211725Z AUTO VRB06KT 10SM CLR 24/10 A3010 140 39 1300 VRB/06 RMK AO2 T02440100 $
53988KBKB BKB20190421113011004/21/19 11:30:31  5-MIN KBKB 211730Z AUTO VRB06KT 10SM CLR 24/09 A3009 140 38 1300 VRB/06 RMK AO2 T02440094 $
53988KBKB BKB20190421113511004/21/19 11:35:31  5-MIN KBKB 211735Z AUTO VRB05KT 10SM CLR 25/09 A3009 140 37 1400 VRB/05 RMK AO2 T02500094 $
53988KBKB BKB20190421114011004/21/19 11:40:31  5-MIN KBKB 211740Z AUTO VRB04KT 10SM CLR 25/10 A3009 140 38 1400 VRB/04 RMK AO2 T02500100 $
53988KBKB BKB20190421114511004/21/19 11:45:31  5-MIN KBKB 211745Z AUTO VRB04KT 10SM CLR 26/10 A3009 140 37 1400 VRB/04 RMK AO2 T02560100 $
53988KBKB BKB20190421115013504/21/19 11:50:31  5-MIN KBKB 211750Z AUTO VRB04KT 10SM CLR 25/08 A3009 140 34 1400 VRB/04 RMK AO2 SLP216 T02500083 10256 20089 51014 $
53988KBKB BKB20190421115511004/21/19 11:55:31  5-MIN KBKB 211755Z AUTO VRB06KT 10SM CLR 26/09 A3009 140 34 1400 VRB/06 RMK AO2 T02560089 $
53988KBKB BKB20190421120011004/21/19 12:00:31  5-MIN KBKB 211800Z AUTO VRB06KT 10SM CLR 26/08 A3009 140 33 1400 VRB/06 RMK AO2 T02560083 $
53988KBKB BKB20190421120511004/21/19 12:05:31  5-MIN KBKB 211805Z AUTO VRB05KT 10SM CLR 26/08 A3009 140 32 1500 VRB/05 RMK AO2 T02610083 $
53988KBKB BKB20190421121011004/21/19 12:10:31  5-MIN KBKB 211810Z AUTO VRB05KT 10SM CLR 26/08 A3009 150 33 1400 VRB/05 RMK AO2 T02560083 $
53988KBKB BKB20190421121511004/21/19 12:15:31  5-MIN KBKB 211815Z AUTO VRB06KT 10SM CLR 25/07 A3009 150 31 1400 VRB/06 RMK AO2 T02500072 $
53988KBKB BKB20190421122012604/21/19 12:20:31  5-MIN KBKB 211820Z AUTO 18007KT 140V320 10SM CLR 26/08 A3008 150 33 1400 170/07 140V320 RMK AO2 T02560083 $
53988KBKB BKB20190421122510004/21/19 12:25:31  5-MIN KBKB 211825Z AUTO 10SM CLR 26/09 A3008 150 34 1400 M /M RMK AO2 T02560089 $
53988KBKB BKB20190421123011004/21/19 12:30:31  5-MIN KBKB 211830Z AUTO VRB04KT 10SM CLR 26/09 A3008 150 33 1500 VRB/04 RMK AO2 T02610089 $
53988KBKB BKB20190421123511004/21/19 12:35:31  5-MIN KBKB 211835Z AUTO VRB05KT 10SM CLR 26/08 A3008 150 31 1500 VRB/05 RMK AO2 T02610078 $
53988KBKB BKB20190421124011004/21/19 12:40:31  5-MIN KBKB 211840Z AUTO VRB06KT 10SM CLR 27/08 A3008 150 29 1600 VRB/06 RMK AO2 T02670078 $
53988KBKB BKB20190421124510004/21/19 12:45:31  5-MIN KBKB 211845Z AUTO 10SM CLR 27/08 A3008 150 31 1600 M /M RMK AO2 T02670083 $
53988KBKB BKB20190421125011704/21/19 12:50:31  5-MIN KBKB 211850Z AUTO 14009KT 10SM CLR 26/08 A3008 150 32 1400 140/09 RMK AO2 SLP213 T02560078 $
53988KBKB BKB20190421125511004/21/19 12:55:31  5-MIN KBKB 211855Z AUTO VRB03KT 10SM CLR 26/08 A3008 150 31 1500 VRB/03 RMK AO2 T02610078 $
53988KBKB BKB20190421130010004/21/19 13:00:31  5-MIN KBKB 211900Z AUTO 10SM CLR 26/08 A3008 150 32 1500 M /M RMK AO2 T02610083 $
53988KBKB BKB20190421130512604/21/19 13:05:31  5-MIN KBKB 211905Z AUTO 21007KT 160V280 10SM CLR 27/09 A3008 150 32 1600 210/07 160V280 RMK AO2 T02670089 $
53988KBKB BKB20190421131011004/21/19 13:10:31  5-MIN KBKB 211910Z AUTO VRB05KT 10SM CLR 26/08 A3007 160 32 1500 VRB/05 RMK AO2 T02610083 $
53988KBKB BKB20190421131511004/21/19 13:15:31  5-MIN KBKB 211915Z AUTO VRB03KT 10SM CLR 27/09 A3007 160 31 1600 VRB/03 RMK AO2 T02720089 $
53988KBKB BKB20190421132011004/21/19 13:20:31  5-MIN KBKB 211920Z AUTO VRB06KT 10SM CLR 26/08 A3007 160 32 1500 VRB/06 RMK AO2 T02610083 $
53988KBKB BKB20190421132511004/21/19 13:25:31  5-MIN KBKB 211925Z AUTO 16006KT 10SM CLR 26/09 A3007 160 33 1500 160/06 RMK AO2 T02610089 $
53988KBKB BKB20190421133012604/21/19 13:30:31  5-MIN KBKB 211930Z AUTO 14007KT 090V210 10SM CLR 26/09 A3007 160 33 1500 130/07 090V210 RMK AO2 T02610089 $
53988KBKB BKB20190421133511004/21/19 13:35:31  5-MIN KBKB 211935Z AUTO VRB04KT 10SM CLR 26/09 A3007 160 33 1500 VRB/04 RMK AO2 T02610089 $
53988KBKB BKB20190421134011004/21/19 13:40:31  5-MIN KBKB 211940Z AUTO VRB06KT 10SM CLR 26/08 A3007 160 32 1500 VRB/06 RMK AO2 T02610083 $
53988KBKB BKB20190421134511004/21/19 13:45:31  5-MIN KBKB 211945Z AUTO VRB06KT 10SM CLR 26/08 A3007 160 33 1500 VRB/06 RMK AO2 T02560083 $
53988KBKB BKB20190421135013304/21/19 13:50:31  5-MIN KBKB 211950Z AUTO 16007KT 100V210 10SM CLR 26/09 A3006 160 33 1500 150/07 100V210 RMK AO2 SLP208 T02610089 $
53988KBKB BKB20190421135511004/21/19 13:55:31  5-MIN KBKB 211955Z AUTO VRB06KT 10SM CLR 26/09 A3006 170 33 1500 VRB/06 RMK AO2 T02610089 $
53988KBKB BKB20190421140011004/21/19 14:00:31  5-MIN KBKB 212000Z AUTO VRB03KT 10SM CLR 26/09 A3006 170 33 1500 VRB/03 RMK AO2 T02610089 $
53988KBKB BKB20190421140511004/21/19 14:05:31  5-MIN KBKB 212005Z AUTO VRB05KT 10SM CLR 27/09 A3006 170 33 1600 VRB/05 RMK AO2 T02670094 $
53988KBKB BKB20190421141012604/21/19 14:10:31  5-MIN KBKB 212010Z AUTO 18008KT 140V200 10SM CLR 27/09 A3006 170 32 1600 170/08 140V200 RMK AO2 T02670089 $
53988KBKB BKB20190421141511004/21/19 14:15:31  5-MIN KBKB 212015Z AUTO VRB03KT 10SM CLR 27/09 A3006 170 32 1600 VRB/03 RMK AO2 T02670089 $
53988KBKB BKB20190421142012604/21/19 14:20:31  5-MIN KBKB 212020Z AUTO 19007KT 120V230 10SM CLR 27/10 A3006 170 33 1700 180/07 120V230 RMK AO2 T02720100 $
53988KBKB BKB20190421142511004/21/19 14:25:31  5-MIN KBKB 212025Z AUTO VRB04KT 10SM CLR 27/09 A3005 180 33 1600 VRB/04 RMK AO2 T02670094 $
53988KBKB BKB20190421143011004/21/19 14:30:31  5-MIN KBKB 212030Z AUTO VRB05KT 10SM CLR 27/09 A3005 180 33 1600 VRB/05 RMK AO2 T02670094 $
53988KBKB BKB20190421143511004/21/19 14:35:31  5-MIN KBKB 212035Z AUTO VRB04KT 10SM CLR 27/10 A3005 180 34 1600 VRB/04 RMK AO2 T02670100 $
53988KBKB BKB20190421144011004/21/19 14:40:31  5-MIN KBKB 212040Z AUTO VRB06KT 10SM CLR 27/09 A3005 180 33 1600 VRB/06 RMK AO2 T02670094 $
53988KBKB BKB20190421144511004/21/19 14:45:31  5-MIN KBKB 212045Z AUTO VRB05KT 10SM CLR 27/09 A3004 180 32 1600 VRB/05 RMK AO2 T02670089 $
53988KBKB BKB20190421145012304/21/19 14:50:31  5-MIN KBKB 212050Z AUTO 20007KT 10SM CLR 26/09 A3004 190 33 1600 200/07 RMK AO2 SLP200 T02610089 50001 $
53988KBKB BKB20190421145511004/21/19 14:55:31  5-MIN KBKB 212055Z AUTO VRB03KT 10SM CLR 27/09 A3004 190 32 1600 VRB/03 RMK AO2 T02670089 $
53988KBKB BKB20190421150012604/21/19 15:00:31  5-MIN KBKB 212100Z AUTO 22007KT 180V240 10SM CLR 27/09 A3004 190 32 1600 220/07 180V240 RMK AO2 T02670089 $
53988KBKB BKB20190421150511004/21/19 15:05:31  5-MIN KBKB 212105Z AUTO VRB05KT 10SM CLR 26/08 A3004 190 32 1600 VRB/05 RMK AO2 T02610083 $
53988KBKB BKB20190421151011004/21/19 15:10:31  5-MIN KBKB 212110Z AUTO VRB04KT 10SM CLR 26/09 A3004 190 34 1600 VRB/04 RMK AO2 T02610094 $
53988KBKB BKB20190421151511004/21/19 15:15:31  5-MIN KBKB 212115Z AUTO VRB05KT 10SM CLR 26/10 A3003 190 36 1600 VRB/05 RMK AO2 T02610100 $
53988KBKB BKB20190421152011004/21/19 15:20:31  5-MIN KBKB 212120Z AUTO VRB04KT 10SM CLR 27/10 A3003 190 34 1600 VRB/04 RMK AO2 T02670100 $
53988KBKB BKB20190421152511004/21/19 15:25:31  5-MIN KBKB 212125Z AUTO VRB06KT 10SM CLR 26/09 A3003 190 35 1500 VRB/06 RMK AO2 T02560094 $
53988KBKB BKB20190421153011004/21/19 15:30:31  5-MIN KBKB 212130Z AUTO VRB06KT 10SM CLR 26/09 A3003 190 35 1500 VRB/06 RMK AO2 T02560094 $
53988KBKB BKB20190421153511004/21/19 15:35:31  5-MIN KBKB 212135Z AUTO VRB05KT 10SM CLR 26/09 A3003 190 34 1500 VRB/05 RMK AO2 T02560089 $
53988KBKB BKB20190421154011004/21/19 15:40:31  5-MIN KBKB 212140Z AUTO VRB05KT 10SM CLR 27/09 A3004 190 33 1600 VRB/05 RMK AO2 T02670094 $
53988KBKB BKB20190421154511004/21/19 15:45:31  5-MIN KBKB 212145Z AUTO VRB05KT 10SM CLR 26/09 A3004 190 34 1600 VRB/05 RMK AO2 T02610094 $
53988KBKB BKB20190421155011704/21/19 15:50:31  5-MIN KBKB 212150Z AUTO VRB05KT 10SM CLR 26/09 A3004 190 35 1500 VRB/05 RMK AO2 SLP200 T02560094 $
53988KBKB BKB20190421155511004/21/19 15:55:31  5-MIN KBKB 212155Z AUTO VRB03KT 10SM CLR 26/09 A3004 190 34 1600 VRB/03 RMK AO2 T02610094 $
53988KBKB BKB20190421160011004/21/19 16:00:31  5-MIN KBKB 212200Z AUTO VRB03KT 10SM CLR 26/09 A3004 190 34 1600 VRB/03 RMK AO2 T02610094 $
53988KBKB BKB20190421160511004/21/19 16:05:31  5-MIN KBKB 212205Z AUTO VRB06KT 10SM CLR 26/10 A3004 190 37 1500 VRB/06 RMK AO2 T02560100 $
53988KBKB BKB20190421161011004/21/19 16:10:31  5-MIN KBKB 212210Z AUTO VRB03KT 10SM CLR 26/10 A3004 190 36 1600 VRB/03 RMK AO2 T02610100 $
53988KBKB BKB20190421161510004/21/19 16:15:31  5-MIN KBKB 212215Z AUTO 10SM CLR 26/10 A3005 180 36 1500 M /M RMK AO2 T02610100 $
53988KBKB BKB20190421162011004/21/19 16:20:31  5-MIN KBKB 212220Z AUTO VRB06KT 10SM CLR 26/09 A3004 180 35 1500 VRB/06 RMK AO2 T02560094 $
53988KBKB BKB20190421162510004/21/19 16:25:31  5-MIN KBKB 212225Z AUTO 10SM CLR 26/09 A3005 180 35 1500 M /M RMK AO2 T02560094 $
53988KBKB BKB20190421163011004/21/19 16:30:31  5-MIN KBKB 212230Z AUTO VRB05KT 10SM CLR 25/09 A3005 180 35 1400 VRB/05 RMK AO2 T02500089 $
53988KBKB BKB20190421163511004/21/19 16:35:31  5-MIN KBKB 212235Z AUTO VRB03KT 10SM CLR 25/09 A3005 180 35 1400 VRB/03 RMK AO2 T02500089 $
53988KBKB BKB20190421164011004/21/19 16:40:31  5-MIN KBKB 212240Z AUTO VRB05KT 10SM CLR 25/09 A3005 180 35 1400 VRB/05 RMK AO2 T02500089 $
53988KBKB BKB20190421164511004/21/19 16:45:31  5-MIN KBKB 212245Z AUTO VRB04KT 10SM CLR 25/09 A3005 180 35 1400 VRB/04 RMK AO2 T02500089 $
53988KBKB BKB20190421165011704/21/19 16:50:31  5-MIN KBKB 212250Z AUTO VRB06KT 10SM CLR 24/09 A3005 180 36 1400 VRB/06 RMK AO2 SLP204 T02440089 $
53988KBKB BKB20190421165511004/21/19 16:55:31  5-MIN KBKB 212255Z AUTO VRB04KT 10SM CLR 24/08 A3005 180 35 1400 VRB/04 RMK AO2 T02440083 $
53988KBKB BKB20190421170011004/21/19 17:00:31  5-MIN KBKB 212300Z AUTO 00000KT 10SM CLR 24/08 A3005 170 35 1400 000/00 RMK AO2 T02440083 $
53988KBKB BKB20190421170511004/21/19 17:05:31  5-MIN KBKB 212305Z AUTO VRB03KT 10SM CLR 24/08 A3005 170 35 1300 VRB/03 RMK AO2 T02440083 $
53988KBKB BKB20190421171011004/21/19 17:10:31  5-MIN KBKB 212310Z AUTO VRB04KT 10SM CLR 24/08 A3006 170 35 1300 VRB/04 RMK AO2 T02440083 $
53988KBKB BKB20190421171511004/21/19 17:15:31  5-MIN KBKB 212315Z AUTO VRB04KT 10SM CLR 24/08 A3006 170 36 1300 VRB/04 RMK AO2 T02390083 $
53988KBKB BKB20190421172011004/21/19 17:20:31  5-MIN KBKB 212320Z AUTO VRB06KT 10SM CLR 24/09 A3006 170 38 1300 VRB/06 RMK AO2 T02390089 $
53988KBKB BKB20190421172511004/21/19 17:25:31  5-MIN KBKB 212325Z AUTO VRB04KT 10SM CLR 24/09 A3006 170 38 1300 VRB/04 RMK AO2 T02390089 $
53988KBKB BKB20190421173011004/21/19 17:30:31  5-MIN KBKB 212330Z AUTO VRB03KT 10SM CLR 23/09 A3006 170 39 1200 VRB/03 RMK AO2 T02330089 $
53988KBKB BKB20190421173511004/21/19 17:35:31  5-MIN KBKB 212335Z AUTO VRB05KT 10SM CLR 23/08 A3006 170 38 1200 VRB/05 RMK AO2 T02330083 $
53988KBKB BKB20190421174011004/21/19 17:40:31  5-MIN KBKB 212340Z AUTO VRB05KT 10SM CLR 23/08 A3006 170 39 1200 VRB/05 RMK AO2 T02280083 $
53988KBKB BKB20190421174511004/21/19 17:45:31  5-MIN KBKB 212345Z AUTO 19005KT 10SM CLR 23/09 A3005 170 40 1200 180/05 RMK AO2 T02280089 $
53988KBKB BKB20190421175013504/21/19 17:50:31  5-MIN KBKB 212350Z AUTO VRB04KT 10SM CLR 23/09 A3006 170 40 1200 VRB/04 RMK AO2 SLP206 T02280089 10272 20228 58017 $
53988KBKB BKB20190421175511004/21/19 17:55:31  5-MIN KBKB 212355Z AUTO 00000KT 10SM CLR 22/09 A3006 170 43 1100 000/00 RMK AO2 T02220094 $
53988KBKB BKB20190421180011004/21/19 18:00:31  5-MIN KBKB 220000Z AUTO 00000KT 10SM CLR 22/09 A3006 170 43 1100 000/00 RMK AO2 T02220094 $
53988KBKB BKB20190421180511004/21/19 18:05:31  5-MIN KBKB 220005Z AUTO VRB04KT 10SM CLR 22/09 A3006 170 45 1000 VRB/04 RMK AO2 T02170094 $
53988KBKB BKB20190421181011004/21/19 18:10:31  5-MIN KBKB 220010Z AUTO VRB03KT 10SM CLR 22/09 A3006 170 45 1000 VRB/03 RMK AO2 T02170094 $
53988KBKB BKB20190421181510004/21/19 18:15:31  5-MIN KBKB 220015Z AUTO 10SM CLR 22/09 A3006 170 45 1000 M /M RMK AO2 T02170094 $
53988KBKB BKB20190421182011004/21/19 18:20:31  5-MIN KBKB 220020Z AUTO VRB03KT 10SM CLR 21/10 A3006 170 48 1000 VRB/03 RMK AO2 T02110100 $
53988KBKB BKB20190421182511004/21/19 18:25:31  5-MIN KBKB 220025Z AUTO 00000KT 10SM CLR 21/10 A3006 170 48 1000 000/00 RMK AO2 T02110100 $
53988KBKB BKB20190421183010904/21/19 18:30:31  5-MIN KBKB 220030Z AUTO 00000KT 10SM CLR 21/10 A3006 170 50 900 000/00 RMK AO2 T02060100 $
53988KBKB BKB20190421183510904/21/19 18:35:31  5-MIN KBKB 220035Z AUTO VRB03KT 10SM CLR 21/10 A3006 170 50 900 VRB/03 RMK AO2 T02060100 $
53988KBKB BKB20190421184010904/21/19 18:40:31  5-MIN KBKB 220040Z AUTO 00000KT 10SM CLR 21/10 A3006 170 50 900 000/00 RMK AO2 T02060100 $
53988KBKB BKB20190421184510904/21/19 18:45:31  5-MIN KBKB 220045Z AUTO 00000KT 10SM CLR 20/11 A3006 170 54 800 000/00 RMK AO2 T02000106 $
53988KBKB BKB20190421185011604/21/19 18:50:31  5-MIN KBKB 220050Z AUTO 00000KT 10SM CLR 20/11 A3006 170 54 800 000/00 RMK AO2 SLP209 T02000106 $
53988KBKB BKB20190421185510904/21/19 18:55:31  5-MIN KBKB 220055Z AUTO 00000KT 10SM CLR 20/11 A3006 170 54 800 000/00 RMK AO2 T02000106 $
53988KBKB BKB20190421190010904/21/19 19:00:31  5-MIN KBKB 220100Z AUTO 00000KT 10SM CLR 19/11 A3006 170 56 800 000/00 RMK AO2 T01940106 $
53988KBKB BKB20190421190510904/21/19 19:05:31  5-MIN KBKB 220105Z AUTO 00000KT 10SM CLR 19/11 A3007 160 56 800 000/00 RMK AO2 T01940106 $
53988KBKB BKB20190421191010904/21/19 19:10:31  5-MIN KBKB 220110Z AUTO VRB03KT 10SM CLR 19/11 A3007 160 56 800 VRB/03 RMK AO2 T01940106 $
53988KBKB BKB20190421191510904/21/19 19:15:31  5-MIN KBKB 220115Z AUTO VRB03KT 10SM CLR 19/11 A3007 160 58 800 VRB/03 RMK AO2 T01940111 $
53988KBKB BKB20190421192010904/21/19 19:20:31  5-MIN KBKB 220120Z AUTO VRB03KT 10SM CLR 19/11 A3007 160 60 700 VRB/03 RMK AO2 T01890111 $
53988KBKB BKB20190421192510904/21/19 19:25:31  5-MIN KBKB 220125Z AUTO 00000KT 10SM CLR 19/11 A3007 160 60 700 000/00 RMK AO2 T01890111 $
53988KBKB BKB20190421193010904/21/19 19:30:31  5-MIN KBKB 220130Z AUTO 00000KT 10SM CLR 18/11 A3007 160 62 600 000/00 RMK AO2 T01830111 $
53988KBKB BKB20190421193510904/21/19 19:35:31  5-MIN KBKB 220135Z AUTO VRB03KT 10SM CLR 18/11 A3007 160 62 600 VRB/03 RMK AO2 T01830111 $
53988KBKB BKB20190421194010904/21/19 19:40:31  5-MIN KBKB 220140Z AUTO 00000KT 10SM CLR 18/11 A3007 160 62 600 000/00 RMK AO2 T01830111 $
53988KBKB BKB20190421194510904/21/19 19:45:31  5-MIN KBKB 220145Z AUTO 00000KT 10SM CLR 18/11 A3008 160 64 600 000/00 RMK AO2 T01780111 $
53988KBKB BKB20190421195011604/21/19 19:50:31  5-MIN KBKB 220150Z AUTO 00000KT 10SM CLR 18/11 A3008 150 64 600 000/00 RMK AO2 SLP212 T01780111 $
53988KBKB BKB20190421195510904/21/19 19:55:31  5-MIN KBKB 220155Z AUTO 00000KT 10SM CLR 18/11 A3008 150 64 600 000/00 RMK AO2 T01780111 $
53988KBKB BKB20190421200010904/21/19 20:00:31  5-MIN KBKB 220200Z AUTO 00000KT 10SM CLR 18/11 A3008 150 64 600 000/00 RMK AO2 T01780111 $
53988KBKB BKB20190421200510904/21/19 20:05:31  5-MIN KBKB 220205Z AUTO 00000KT 10SM CLR 17/12 A3008 150 69 500 000/00 RMK AO2 T01720117 $
53988KBKB BKB20190421201010904/21/19 20:10:31  5-MIN KBKB 220210Z AUTO 00000KT 10SM CLR 18/12 A3008 150 67 600 000/00 RMK AO2 T01780117 $
53988KBKB BKB20190421201510904/21/19 20:15:31  5-MIN KBKB 220215Z AUTO VRB03KT 10SM CLR 18/12 A3008 150 67 600 VRB/03 RMK AO2 T01780117 $
53988KBKB BKB20190421202010904/21/19 20:20:31  5-MIN KBKB 220220Z AUTO VRB03KT 10SM CLR 17/12 A3008 150 69 500 VRB/03 RMK AO2 T01720117 $
53988KBKB BKB20190421202510904/21/19 20:25:31  5-MIN KBKB 220225Z AUTO 00000KT 10SM CLR 17/12 A3009 150 69 500 000/00 RMK AO2 T01720117 $
53988KBKB BKB20190421203010904/21/19 20:30:31  5-MIN KBKB 220230Z AUTO 00000KT 10SM CLR 18/12 A3009 140 67 500 000/00 RMK AO2 T01780117 $
53988KBKB BKB20190421203510904/21/19 20:35:31  5-MIN KBKB 220235Z AUTO 00000KT 10SM CLR 17/12 A3009 140 69 500 000/00 RMK AO2 T01720117 $
53988KBKB BKB20190421204010904/21/19 20:40:31  5-MIN KBKB 220240Z AUTO 00000KT 10SM CLR 17/12 A3009 140 72 400 000/00 RMK AO2 T01670117 $
53988KBKB BKB20190421204510904/21/19 20:45:31  5-MIN KBKB 220245Z AUTO 00000KT 10SM CLR 17/12 A3009 140 69 500 000/00 RMK AO2 T01720117 $
53988KBKB BKB20190421205012204/21/19 20:50:31  5-MIN KBKB 220250Z AUTO 00000KT 10SM CLR 17/12 A3009 140 69 500 000/00 RMK AO2 SLP216 T01720117 53005 $
53988KBKB BKB20190421205510904/21/19 20:55:31  5-MIN KBKB 220255Z AUTO 00000KT 10SM CLR 17/12 A3009 140 75 400 000/00 RMK AO2 T01670122 $
53988KBKB BKB20190421210010904/21/19 21:00:31  5-MIN KBKB 220300Z AUTO 00000KT 10SM CLR 17/12 A3009 140 75 400 000/00 RMK AO2 T01670122 $
53988KBKB BKB20190421210510904/21/19 21:05:31  5-MIN KBKB 220305Z AUTO VRB03KT 10SM CLR 17/12 A3009 140 75 400 VRB/03 RMK AO2 T01670122 $
53988KBKB BKB20190421211010904/21/19 21:10:31  5-MIN KBKB 220310Z AUTO 00000KT 10SM CLR 16/12 A3009 140 77 300 000/00 RMK AO2 T01610122 $
53988KBKB BKB20190421211510904/21/19 21:15:31  5-MIN KBKB 220315Z AUTO 00000KT 10SM CLR 16/12 A3009 140 77 300 000/00 RMK AO2 T01610122 $
53988KBKB BKB20190421212010904/21/19 21:20:31  5-MIN KBKB 220320Z AUTO 00000KT 10SM CLR 16/12 A3009 140 77 300 000/00 RMK AO2 T01610122 $
53988KBKB BKB20190421212510904/21/19 21:25:31  5-MIN KBKB 220325Z AUTO 00000KT 10SM CLR 17/12 A3009 140 75 400 000/00 RMK AO2 T01670122 $
53988KBKB BKB20190421213010904/21/19 21:30:31  5-MIN KBKB 220330Z AUTO 00000KT 10SM CLR 16/12 A3009 140 77 300 000/00 RMK AO2 T01610122 $
53988KBKB BKB20190421213510904/21/19 21:35:31  5-MIN KBKB 220335Z AUTO 00000KT 10SM CLR 16/12 A3009 140 77 300 000/00 RMK AO2 T01610122 $
53988KBKB BKB20190421214010904/21/19 21:40:31  5-MIN KBKB 220340Z AUTO 00000KT 10SM CLR 16/13 A3009 140 80 300 000/00 RMK AO2 T01610128 $
53988KBKB BKB20190421214510904/21/19 21:45:31  5-MIN KBKB 220345Z AUTO 00000KT 10SM CLR 16/13 A3009 140 80 300 000/00 RMK AO2 T01610128 $
53988KBKB BKB20190421215011604/21/19 21:50:31  5-MIN KBKB 220350Z AUTO 00000KT 10SM CLR 16/13 A3009 140 80 300 000/00 RMK AO2 SLP217 T01610128 $
53988KBKB BKB20190421215510904/21/19 21:55:31  5-MIN KBKB 220355Z AUTO 00000KT 10SM CLR 16/13 A3009 140 80 300 000/00 RMK AO2 T01610128 $
53988KBKB BKB20190421220010904/21/19 22:00:31  5-MIN KBKB 220400Z AUTO VRB03KT 10SM CLR 16/13 A3009 140 80 300 VRB/03 RMK AO2 T01610128 $
53988KBKB BKB20190421220510904/21/19 22:05:31  5-MIN KBKB 220405Z AUTO 00000KT 10SM CLR 16/13 A3009 140 80 300 000/00 RMK AO2 T01610128 $
53988KBKB BKB20190421221010904/21/19 22:10:31  5-MIN KBKB 220410Z AUTO VRB03KT 10SM CLR 16/13 A3009 140 83 300 VRB/03 RMK AO2 T01560128 $
53988KBKB BKB20190421221510904/21/19 22:15:31  5-MIN KBKB 220415Z AUTO 00000KT 10SM CLR 16/13 A3009 140 80 300 000/00 RMK AO2 T01610128 $
53988KBKB BKB20190421222010904/21/19 22:20:31  5-MIN KBKB 220420Z AUTO 00000KT 10SM CLR 16/13 A3009 140 80 300 000/00 RMK AO2 T01610128 $
53988KBKB BKB20190421222510904/21/19 22:25:31  5-MIN KBKB 220425Z AUTO 00000KT 10SM CLR 16/13 A3009 140 83 300 000/00 RMK AO2 T01560128 $
53988KBKB BKB20190421223010904/21/19 22:30:31  5-MIN KBKB 220430Z AUTO 00000KT 10SM CLR 15/13 A3009 140 86 200 000/00 RMK AO2 T01500128 $
53988KBKB BKB20190421223510904/21/19 22:35:31  5-MIN KBKB 220435Z AUTO 00000KT 10SM CLR 16/13 A3009 140 83 300 000/00 RMK AO2 T01560128 $
53988KBKB BKB20190421224010904/21/19 22:40:31  5-MIN KBKB 220440Z AUTO VRB03KT 10SM CLR 16/13 A3009 140 83 300 VRB/03 RMK AO2 T01560128 $
53988KBKB BKB20190421224510904/21/19 22:45:31  5-MIN KBKB 220445Z AUTO VRB03KT 10SM CLR 16/13 A3009 140 83 300 VRB/03 RMK AO2 T01560128 $
53988KBKB BKB20190421225011604/21/19 22:50:31  5-MIN KBKB 220450Z AUTO VRB03KT 10SM CLR 16/13 A3009 140 83 300 VRB/03 RMK AO2 SLP216 T01560128 $
53988KBKB BKB20190421225510904/21/19 22:55:31  5-MIN KBKB 220455Z AUTO VRB03KT 10SM CLR 16/13 A3009 140 80 300 VRB/03 RMK AO2 T01610128 $
53988KBKB BKB20190421230010904/21/19 23:00:31  5-MIN KBKB 220500Z AUTO VRB03KT 10SM CLR 16/13 A3009 140 83 300 VRB/03 RMK AO2 T01610133 $
53988KBKB BKB20190421230510904/21/19 23:05:31  5-MIN KBKB 220505Z AUTO 00000KT 10SM CLR 16/13 A3009 140 86 300 000/00 RMK AO2 T01560133 $
53988KBKB BKB20190421231010904/21/19 23:10:31  5-MIN KBKB 220510Z AUTO VRB03KT 10SM CLR 16/13 A3009 140 86 300 VRB/03 RMK AO2 T01560133 $
53988KBKB BKB20190421231510904/21/19 23:15:31  5-MIN KBKB 220515Z AUTO 00000KT 10SM CLR 16/13 A3009 140 86 300 000/00 RMK AO2 T01560133 $
53988KBKB BKB20190421232010904/21/19 23:20:31  5-MIN KBKB 220520Z AUTO 00000KT 10SM CLR 17/13 A3009 140 77 400 000/00 RMK AO2 T01670128 $
53988KBKB BKB20190421232510904/21/19 23:25:31  5-MIN KBKB 220525Z AUTO 00000KT 10SM CLR 16/13 A3009 140 83 300 000/00 RMK AO2 T01560128 $
53988KBKB BKB20190421233010904/21/19 23:30:31  5-MIN KBKB 220530Z AUTO VRB03KT 10SM CLR 16/13 A3009 140 83 300 VRB/03 RMK AO2 T01560128 $
53988KBKB BKB20190421233510904/21/19 23:35:31  5-MIN KBKB 220535Z AUTO 00000KT 10SM CLR 16/13 A3009 140 83 300 000/00 RMK AO2 T01560128 $
53988KBKB BKB20190421234010904/21/19 23:40:31  5-MIN KBKB 220540Z AUTO 00000KT 10SM CLR 16/13 A3009 140 83 300 000/00 RMK AO2 T01560128 $
53988KBKB BKB20190421234510904/21/19 23:45:31  5-MIN KBKB 220545Z AUTO VRB03KT 10SM CLR 16/13 A3009 140 83 300 VRB/03 RMK AO2 T01560128 $
53988KBKB BKB20190421235014404/21/19 23:50:31  5-MIN KBKB 220550Z AUTO 00000KT 10SM CLR 16/13 A3009 140 83 300 000/00 RMK AO2 SLP215 T01560128 10222 20150 402720083 53012 $
53988KBKB BKB20190421235510904/21/19 23:55:31  5-MIN KBKB 220555Z AUTO VRB03KT 10SM CLR 16/13 A3009 140 83 300 VRB/03 RMK AO2 T01560128 $
53988KBKB BKB20190422000010904/22/19 00:00:31  5-MIN KBKB 220600Z AUTO 00000KT 10SM CLR 16/13 A3009 140 86 300 000/00 RMK AO2 T01560133 $
53988KBKB BKB20190422000510904/22/19 00:05:31  5-MIN KBKB 220605Z AUTO VRB03KT 10SM CLR 16/13 A3009 140 83 300 VRB/03 RMK AO2 T01560128 $
53988KBKB BKB20190422001010904/22/19 00:10:31  5-MIN KBKB 220610Z AUTO 00000KT 10SM CLR 15/13 A3009 140 86 200 000/00 RMK AO2 T01500128 $
53988KBKB BKB20190422001510904/22/19 00:15:31  5-MIN KBKB 220615Z AUTO 00000KT 10SM CLR 15/13 A3009 140 86 200 000/00 RMK AO2 T01500128 $
53988KBKB BKB20190422002010904/22/19 00:20:31  5-MIN KBKB 220620Z AUTO 00000KT 10SM CLR 15/13 A3009 140 86 200 000/00 RMK AO2 T01500128 $
53988KBKB BKB20190422002510904/22/19 00:25:31  5-MIN KBKB 220625Z AUTO 00000KT 10SM CLR 15/13 A3009 140 86 200 000/00 RMK AO2 T01500128 $
53988KBKB BKB20190422003010904/22/19 00:30:31  5-MIN KBKB 220630Z AUTO 19003KT 10SM CLR 15/13 A3009 150 86 200 190/03 RMK AO2 T01500128 $
53988KBKB BKB20190422003510904/22/19 00:35:31  5-MIN KBKB 220635Z AUTO 00000KT 10SM CLR 15/13 A3009 140 86 200 000/00 RMK AO2 T01500128 $
53988KBKB BKB20190422004010904/22/19 00:40:31  5-MIN KBKB 220640Z AUTO 00000KT 10SM CLR 15/13 A3009 140 86 200 000/00 RMK AO2 T01500128 $
53988KBKB BKB20190422004510904/22/19 00:45:31  5-MIN KBKB 220645Z AUTO 00000KT 10SM CLR 15/13 A3009 140 90 200 000/00 RMK AO2 T01500133 $
53988KBKB BKB20190422005011604/22/19 00:50:31  5-MIN KBKB 220650Z AUTO 00000KT 10SM CLR 15/13 A3009 140 86 200 000/00 RMK AO2 SLP215 T01500128 $
53988KBKB BKB20190422005510904/22/19 00:55:31  5-MIN KBKB 220655Z AUTO 00000KT 10SM CLR 14/13 A3009 140 90 100 000/00 RMK AO2 T01440128 $
53988KBKB BKB20190422010010904/22/19 01:00:31  5-MIN KBKB 220700Z AUTO 00000KT 10SM CLR 15/13 A3009 140 90 200 000/00 RMK AO2 T01500133 $
53988KBKB BKB20190422010510904/22/19 01:05:31  5-MIN KBKB 220705Z AUTO 00000KT 10SM CLR 14/13 A3009 140 93 100 000/00 RMK AO2 T01440133 $
53988KBKB BKB20190422011010904/22/19 01:10:31  5-MIN KBKB 220710Z AUTO 00000KT 10SM CLR 15/13 A3009 140 90 200 000/00 RMK AO2 T01500133 $
53988KBKB BKB20190422011510904/22/19 01:15:31  5-MIN KBKB 220715Z AUTO 00000KT 10SM CLR 14/13 A3009 140 90 200 000/00 RMK AO2 T01440128 $
53988KBKB BKB20190422012010904/22/19 01:20:31  5-MIN KBKB 220720Z AUTO 00000KT 10SM CLR 15/13 A3009 140 90 200 000/00 RMK AO2 T01500133 $
53988KBKB BKB20190422012510904/22/19 01:25:31  5-MIN KBKB 220725Z AUTO 00000KT 10SM CLR 15/13 A3009 140 90 200 000/00 RMK AO2 T01500133 $
53988KBKB BKB20190422013010904/22/19 01:30:31  5-MIN KBKB 220730Z AUTO 00000KT 10SM CLR 15/13 A3009 150 90 200 000/00 RMK AO2 T01500133 $
53988KBKB BKB20190422013510904/22/19 01:35:31  5-MIN KBKB 220735Z AUTO VRB03KT 10SM CLR 14/13 A3008 150 93 200 VRB/03 RMK AO2 T01440133 $
53988KBKB BKB20190422014010904/22/19 01:40:31  5-MIN KBKB 220740Z AUTO 00000KT 10SM CLR 14/13 A3008 150 93 200 000/00 RMK AO2 T01440133 $
53988KBKB BKB20190422014510904/22/19 01:45:31  5-MIN KBKB 220745Z AUTO 00000KT 10SM CLR 14/13 A3009 150 93 200 000/00 RMK AO2 T01440133 $
53988KBKB BKB20190422015011604/22/19 01:50:31  5-MIN KBKB 220750Z AUTO 00000KT 10SM CLR 14/13 A3009 150 93 200 000/00 RMK AO2 SLP215 T01440133 $
53988KBKB BKB20190422015510904/22/19 01:55:31  5-MIN KBKB 220755Z AUTO 00000KT 10SM CLR 14/13 A3008 150 93 200 000/00 RMK AO2 T01440133 $
53988KBKB BKB20190422020010904/22/19 02:00:31  5-MIN KBKB 220800Z AUTO 00000KT 10SM CLR 14/13 A3008 150 93 200 000/00 RMK AO2 T01440133 $
53988KBKB BKB20190422020510904/22/19 02:05:31  5-MIN KBKB 220805Z AUTO 00000KT 10SM CLR 14/13 A3008 150 93 200 000/00 RMK AO2 T01440133 $
53988KBKB BKB20190422021010904/22/19 02:10:31  5-MIN KBKB 220810Z AUTO 00000KT 10SM CLR 14/13 A3008 150 93 200 000/00 RMK AO2 T01440133 $
53988KBKB BKB20190422021510904/22/19 02:15:31  5-MIN KBKB 220815Z AUTO 00000KT 10SM CLR 14/13 A3008 150 93 200 000/00 RMK AO2 T01440133 $
53988KBKB BKB20190422022010904/22/19 02:20:31  5-MIN KBKB 220820Z AUTO 00000KT 10SM CLR 14/13 A3008 150 93 200 000/00 RMK AO2 T01440133 $
53988KBKB BKB20190422022510904/22/19 02:25:31  5-MIN KBKB 220825Z AUTO 00000KT 10SM CLR 14/13 A3008 150 93 200 000/00 RMK AO2 T01440133 $
53988KBKB BKB20190422023010904/22/19 02:30:31  5-MIN KBKB 220830Z AUTO 00000KT 10SM CLR 14/13 A3007 160 96 100 000/00 RMK AO2 T01390133 $
53988KBKB BKB20190422023510904/22/19 02:35:31  5-MIN KBKB 220835Z AUTO 00000KT 10SM CLR 14/13 A3007 160 96 100 000/00 RMK AO2 T01390133 $
53988KBKB BKB20190422024010904/22/19 02:40:31  5-MIN KBKB 220840Z AUTO 00000KT 10SM CLR 14/13 A3007 160 96 100 000/00 RMK AO2 T01390133 $
53988KBKB BKB20190422024510904/22/19 02:45:31  5-MIN KBKB 220845Z AUTO 00000KT 10SM CLR 14/13 A3008 160 93 100 000/00 RMK AO2 T01390128 $
53988KBKB BKB20190422025012004/22/19 02:50:31  5-MIN KBKB 220850Z AUTO 00000KT 10SM CLR 13/13 A3007 160 96 0 000/00 RMK AO2 SLP210 T01330128 58001 $
53988KBKB BKB20190422025510704/22/19 02:55:31  5-MIN KBKB 220855Z AUTO 00000KT 10SM CLR 13/13 A3007 160 96 0 000/00 RMK AO2 T01330128 $
53988KBKB BKB20190422030010704/22/19 03:00:31  5-MIN KBKB 220900Z AUTO 00000KT 10SM CLR 13/13 A3007 160 96 0 000/00 RMK AO2 T01330128 $
53988KBKB BKB20190422030510704/22/19 03:05:31  5-MIN KBKB 220905Z AUTO 00000KT 10SM CLR 13/13 A3007 160 96 0 000/00 RMK AO2 T01330128 $
53988KBKB BKB20190422031010604/22/19 03:10:31  5-MIN KBKB 220910Z AUTO 00000KT 9SM CLR 13/13 A3007 160 96 0 000/00 RMK AO2 T01330128 $
53988KBKB BKB20190422031510704/22/19 03:15:31  5-MIN KBKB 220915Z AUTO 00000KT 10SM CLR 13/13 A3007 160 96 0 000/00 RMK AO2 T01330128 $
53988KBKB BKB20190422032010704/22/19 03:20:31  5-MIN KBKB 220920Z AUTO 00000KT 10SM CLR 13/13 A3007 160 96 0 000/00 RMK AO2 T01330128 $
53988KBKB BKB20190422032510704/22/19 03:25:31  5-MIN KBKB 220925Z AUTO 00000KT 9SM CLR 13/13 A3007 160 100 0 000/00 RMK AO2 T01280128 $
53988KBKB BKB20190422033010604/22/19 03:30:31  5-MIN KBKB 220930Z AUTO 00000KT 9SM CLR 13/12 A3007 160 96 0 000/00 RMK AO2 T01280122 $
53988KBKB BKB20190422033510604/22/19 03:35:31  5-MIN KBKB 220935Z AUTO 00000KT 9SM CLR 13/12 A3007 160 96 0 000/00 RMK AO2 T01280122 $
53988KBKB BKB20190422034010704/22/19 03:40:31  5-MIN KBKB 220940Z AUTO 00000KT 10SM CLR 13/12 A3007 160 96 0 000/00 RMK AO2 T01280122 $
53988KBKB BKB20190422034510604/22/19 03:45:31  5-MIN KBKB 220945Z AUTO 00000KT 9SM CLR 13/12 A3008 150 96 0 000/00 RMK AO2 T01280122 $
53988KBKB BKB20190422035011604/22/19 03:50:31  5-MIN KBKB 220950Z AUTO 00000KT 6SM BR CLR 13/12 A3008 150 96 0 000/00 RMK AO2 SLP213 T01280122 $
53988KBKB BKB20190422035510904/22/19 03:55:31  5-MIN KBKB 220955Z AUTO 00000KT 6SM BR CLR 13/12 A3008 150 96 0 000/00 RMK AO2 T01280122 $
53988KBKB BKB20190422040010604/22/19 04:00:31  5-MIN KBKB 221000Z AUTO 00000KT 8SM CLR 13/12 A3008 150 96 0 000/00 RMK AO2 T01280122 $
53988KBKB BKB20190422040510604/22/19 04:05:31  5-MIN KBKB 221005Z AUTO 00000KT 8SM CLR 13/12 A3008 150 96 0 000/00 RMK AO2 T01280122 $
53988KBKB BKB20190422041010604/22/19 04:10:31  5-MIN KBKB 221010Z AUTO 00000KT 8SM CLR 13/12 A3008 150 96 0 000/00 RMK AO2 T01280122 $
53988KBKB BKB20190422041510604/22/19 04:15:31  5-MIN KBKB 221015Z AUTO 00000KT 8SM CLR 13/12 A3008 150 96 0 000/00 RMK AO2 T01280122 $
53988KBKB BKB20190422042010604/22/19 04:20:31  5-MIN KBKB 221020Z AUTO 00000KT 8SM CLR 13/12 A3008 150 96 0 000/00 RMK AO2 T01280122 $
53988KBKB BKB20190422042510604/22/19 04:25:31  5-MIN KBKB 221025Z AUTO 00000KT 8SM CLR 13/12 A3008 150 96 0 000/00 RMK AO2 T01280122 $
53988KBKB BKB20190422043011004/22/19 04:30:31  5-MIN KBKB 221030Z AUTO 00000KT 8SM CLR 12/12 A3008 150 100 -100 000/00 RMK AO2 T01220122 $
53988KBKB BKB20190422043511004/22/19 04:35:31  5-MIN KBKB 221035Z AUTO 00000KT 8SM CLR 12/12 A3008 150 100 -100 000/00 RMK AO2 T01220122 $
53988KBKB BKB20190422044010604/22/19 04:40:31  5-MIN KBKB 221040Z AUTO 00000KT 8SM CLR 13/12 A3008 150 96 0 000/00 RMK AO2 T01280122 $
53988KBKB BKB20190422044510604/22/19 04:45:31  5-MIN KBKB 221045Z AUTO 00000KT 8SM CLR 13/12 A3008 150 96 0 000/00 RMK AO2 T01280122 $
53988KBKB BKB20190422045011304/22/19 04:50:31  5-MIN KBKB 221050Z AUTO 00000KT 7SM CLR 13/12 A3009 150 96 0 000/00 RMK AO2 SLP215 T01280122 $
53988KBKB BKB20190422045510904/22/19 04:55:31  5-MIN KBKB 221055Z AUTO 00000KT 5SM BR CLR 13/12 A3008 150 96 0 000/00 RMK AO2 T01280122 $
53988KBKB BKB20190422050011304/22/19 05:00:31  5-MIN KBKB 221100Z AUTO 00000KT 5SM BR CLR 12/12 A3009 150 100 -100 000/00 RMK AO2 T01220122 $
53988KBKB BKB20190422050510904/22/19 05:05:31  5-MIN KBKB 221105Z AUTO 00000KT 6SM BR CLR 13/12 A3008 150 96 0 000/00 RMK AO2 T01280122 $
53988KBKB BKB20190422051010904/22/19 05:10:31  5-MIN KBKB 221110Z AUTO 00000KT 6SM BR CLR 13/12 A3008 150 96 0 000/00 RMK AO2 T01280122 $
53988KBKB BKB20190422051510904/22/19 05:15:31  5-MIN KBKB 221115Z AUTO 00000KT 6SM BR CLR 13/12 A3008 150 96 0 000/00 RMK AO2 T01280122 $
53988KBKB BKB20190422052010604/22/19 05:20:31  5-MIN KBKB 221120Z AUTO 00000KT 7SM CLR 13/12 A3008 150 96 0 000/00 RMK AO2 T01280122 $
53988KBKB BKB20190422052510604/22/19 05:25:31  5-MIN KBKB 221125Z AUTO 00000KT 8SM CLR 13/12 A3009 150 96 0 000/00 RMK AO2 T01280122 $
53988KBKB BKB20190422053010604/22/19 05:30:31  5-MIN KBKB 221130Z AUTO 00000KT 8SM CLR 13/13 A3009 140 96 0 000/00 RMK AO2 T01330128 $
53988KBKB BKB20190422053510604/22/19 05:35:31  5-MIN KBKB 221135Z AUTO 00000KT 8SM CLR 13/13 A3009 140 96 0 000/00 RMK AO2 T01330128 $
53988KBKB BKB20190422054011004/22/19 05:40:31  5-MIN KBKB 221140Z AUTO 00000KT 6SM BR CLR 13/13 A3009 140 100 0 000/00 RMK AO2 T01280128 $
53988KBKB BKB20190422054511004/22/19 05:45:31  5-MIN KBKB 221145Z AUTO 00000KT 5SM BR CLR 13/13 A3009 140 100 0 000/00 RMK AO2 T01280128 $
53988KBKB BKB20190422055013504/22/19 05:50:31  5-MIN KBKB 221150Z AUTO 00000KT 5SM BR CLR 13/13 A3009 140 100 0 000/00 RMK AO2 SLP218 T01280128 10156 20122 58005 $
53988KBKB BKB20190422055510604/22/19 05:55:31  5-MIN KBKB 221155Z AUTO 00000KT 7SM CLR 13/13 A3009 140 96 0 000/00 RMK AO2 T01330128 $
53988KBKB BKB20190422060010604/22/19 06:00:31  5-MIN KBKB 221200Z AUTO 00000KT 9SM CLR 13/13 A3010 140 96 0 000/00 RMK AO2 T01330128 $
53988KBKB BKB20190422060510604/22/19 06:05:31  5-MIN KBKB 221205Z AUTO 00000KT 9SM CLR 13/13 A3010 130 96 0 000/00 RMK AO2 T01330128 $
53988KBKB BKB20190422061010704/22/19 06:10:31  5-MIN KBKB 221210Z AUTO 00000KT 10SM CLR 13/13 A3011 130 96 0 000/00 RMK AO2 T01330128 $
53988KBKB BKB20190422061510704/22/19 06:15:31  5-MIN KBKB 221215Z AUTO 00000KT 10SM CLR 13/13 A3011 130 96 0 000/00 RMK AO2 T01330128 $
53988KBKB BKB20190422062010704/22/19 06:20:31  5-MIN KBKB 221220Z AUTO 00000KT 9SM CLR 13/13 A3011 130 100 0 000/00 RMK AO2 T01330133 $
53988KBKB BKB20190422062510804/22/19 06:25:31  5-MIN KBKB 221225Z AUTO 00000KT 9SM CLR 14/13 A3011 120 96 100 000/00 RMK AO2 T01390133 $
53988KBKB BKB20190422063010904/22/19 06:30:31  5-MIN KBKB 221230Z AUTO 00000KT 10SM CLR 14/14 A3011 120 96 100 000/00 RMK AO2 T01440139 $
53988KBKB BKB20190422063510904/22/19 06:35:31  5-MIN KBKB 221235Z AUTO 00000KT 10SM CLR 14/14 A3011 120 96 100 000/00 RMK AO2 T01440139 $
53988KBKB BKB20190422064011004/22/19 06:40:31  5-MIN KBKB 221240Z AUTO 00000KT 10SM CLR 14/14 A3012 120 100 100 000/00 RMK AO2 T01440144 $
53988KBKB BKB20190422064510904/22/19 06:45:31  5-MIN KBKB 221245Z AUTO 00000KT 10SM CLR 15/14 A3012 110 96 200 000/00 RMK AO2 T01500144 $
53988KBKB BKB20190422065011604/22/19 06:50:31  5-MIN KBKB 221250Z AUTO 00000KT 10SM CLR 15/14 A3012 110 96 200 000/00 RMK AO2 SLP227 T01500144 $
53988KBKB BKB20190422065510904/22/19 06:55:31  5-MIN KBKB 221255Z AUTO VRB04KT 10SM CLR 15/14 A3012 120 96 200 VRB/04 RMK AO2 T01500144 $
53988KBKB BKB20190422070010904/22/19 07:00:31  5-MIN KBKB 221300Z AUTO VRB04KT 10SM CLR 16/14 A3012 120 93 200 VRB/04 RMK AO2 T01560144 $
53988KBKB BKB20190422070510904/22/19 07:05:31  5-MIN KBKB 221305Z AUTO 00000KT 10SM CLR 16/14 A3012 120 93 200 000/00 RMK AO2 T01560144 $
53988KBKB BKB20190422071010904/22/19 07:10:31  5-MIN KBKB 221310Z AUTO 00000KT 10SM CLR 16/14 A3012 120 93 300 000/00 RMK AO2 T01560144 $
53988KBKB BKB20190422071510904/22/19 07:15:31  5-MIN KBKB 221315Z AUTO 00000KT 10SM CLR 16/15 A3011 120 93 300 000/00 RMK AO2 T01610150 $
53988KBKB BKB20190422072010904/22/19 07:20:31  5-MIN KBKB 221320Z AUTO 00000KT 10SM CLR 16/15 A3012 120 93 300 000/00 RMK AO2 T01610150 $
53988KBKB BKB20190422072510904/22/19 07:25:31  5-MIN KBKB 221325Z AUTO VRB03KT 10SM CLR 17/15 A3011 120 90 400 VRB/03 RMK AO2 T01670150 $
53988KBKB BKB20190422073010904/22/19 07:30:31  5-MIN KBKB 221330Z AUTO 16005KT 10SM CLR 17/15 A3011 120 90 400 150/05 RMK AO2 T01670150 $
53988KBKB BKB20190422073021704/22/19 07:30:31  5-MIN KBKB 221330Z AUTO 16005KT 10SM CLR 17/15 A3011 120 90 400 150/05 RMK AO2 T01670150 $04/22/19 07:35:31  5-90156 $ 221420Z AUTO VRB04KT 10SM CLR 19/15 A3013 110 75 800 VRB/03 RMK AO2 T02000156 $
53988KBKB BKB20190422073510904/22/19 07:35:31  5-MIN KBKB 221335Z AUTO 15004KT 10SM CLR 17/15 A3012 120 87 400 140/04 RMK AO2 T01720150 $
53988KBKB BKB20190422074010904/22/19 07:40:31  5-MIN KBKB 221340Z AUTO VRB04KT 10SM CLR 17/15 A3012 120 87 400 VRB/04 RMK AO2 T01720150 $
53988KBKB BKB20190422074510904/22/19 07:45:31  5-MIN KBKB 221345Z AUTO 00000KT 10SM CLR 18/16 A3012 110 87 500 000/00 RMK AO2 T01780156 $
53988KBKB BKB20190422075011604/22/19 07:50:31  5-MIN KBKB 221350Z AUTO VRB05KT 10SM CLR 18/16 A3012 110 84 600 VRB/05 RMK AO2 SLP228 T01830156 $
53988KBKB BKB20190422075510904/22/19 07:55:31  5-MIN KBKB 221355Z AUTO VRB04KT 10SM CLR 18/15 A3013 110 81 600 VRB/04 RMK AO2 T01830150 $
53988KBKB BKB20190422080010904/22/19 08:00:31  5-MIN KBKB 221400Z AUTO VRB04KT 10SM CLR 18/15 A3013 110 81 600 VRB/04 RMK AO2 T01830150 $
53988KBKB BKB20190422080510904/22/19 08:05:31  5-MIN KBKB 221405Z AUTO 00000KT 10SM CLR 19/16 A3012 110 81 600 000/00 RMK AO2 T01890156 $
53988KBKB BKB20190422081010904/22/19 08:10:31  5-MIN KBKB 221410Z AUTO 15003KT 10SM CLR 19/15 A3013 110 78 600 140/03 RMK AO2 T01890150 $
53988KBKB BKB20190422081510904/22/19 08:15:31  5-MIN KBKB 221415Z AUTO VRB05KT 10SM CLR 19/15 A3013 110 78 600 VRB/05 RMK AO2 T01890150 $
53988KBKB BKB20190422082010904/22/19 08:20:31  5-MIN KBKB 221420Z AUTO VRB04KT 10SM CLR 19/15 A3013 110 75 700 VRB/04 RMK AO2 T01940150 $
53988KBKB BKB20190422082510904/22/19 08:25:31  5-MIN KBKB 221425Z AUTO VRB03KT 10SM CLR 20/16 A3013 100 75 800 VRB/03 RMK AO2 T02000156 $
53988KBKB BKB20190422083010904/22/19 08:30:31  5-MIN KBKB 221430Z AUTO VRB05KT 10SM CLR 20/16 A3013 100 75 800 VRB/05 RMK AO2 T02000156 $
53988KBKB BKB20190422084010904/22/19 08:40:31  5-MIN KBKB 221440Z AUTO VRB05KT 10SM CLR 21/16 A3013 100 75 800 VRB/05 RMK AO2 T02060161 $
53988KBKB BKB20190422084510904/22/19 08:45:31  5-MIN KBKB 221445Z AUTO VRB05KT 10SM CLR 21/16 A3013 100 73 800 VRB/05 RMK AO2 T02060156 $
53988KBKB BKB20190422085012504/22/19 08:50:31  5-MIN KBKB 221450Z AUTO VRB04KT 10SM FEW019 21/16 A3013 100 73 800 VRB/04 RMK AO2 SLP231 T02060156 52008 $
53988KBKB BKB20190422085511204/22/19 08:55:31  5-MIN KBKB 221455Z AUTO VRB05KT 10SM FEW019 21/16 A3013 100 70 900 VRB/05 RMK AO2 T02110156 $
53988KBKB BKB20190422090010204/22/19 09:00:31  5-MIN KBKB 221500Z AUTO 10SM FEW019 21/16 A3013 100 70 900 M /M RMK AO2 T02110156 $
53988KBKB BKB20190422090511204/22/19 09:05:31  5-MIN KBKB 221505Z AUTO 17006KT 10SM FEW019 21/16 A3013 100 70 900 170/06 RMK AO2 T02110156 $
53988KBKB BKB20190422091011204/22/19 09:10:31  5-MIN KBKB 221510Z AUTO VRB04KT 10SM FEW019 21/16 A3013 100 70 900 VRB/04 RMK AO2 T02110156 $
53988KBKB BKB20190422091511204/22/19 09:15:31  5-MIN KBKB 221515Z AUTO VRB04KT 10SM FEW019 22/16 A3013 110 68 900 VRB/04 RMK AO2 T02170156 $
53988KBKB BKB20190422092010904/22/19 09:20:31  5-MIN KBKB 221520Z AUTO VRB04KT 10SM CLR 22/16 A3013 110 68 900 VRB/04 RMK AO2 T02170156 $
53988KBKB BKB20190422092512504/22/19 09:25:31  5-MIN KBKB 221525Z AUTO 14007KT 100V170 10SM CLR 22/16 A3013 110 68 900 130/07 100V170 RMK AO2 T02170156 $
53988KBKB BKB20190422093010904/22/19 09:30:31  5-MIN KBKB 221530Z AUTO VRB04KT 10SM CLR 22/16 A3013 110 68 900 VRB/04 RMK AO2 T02170156 $
53988KBKB BKB20190422093511004/22/19 09:35:31  5-MIN KBKB 221535Z AUTO VRB04KT 10SM CLR 22/16 A3013 100 65 1000 VRB/04 RMK AO2 T02220156 $
53988KBKB BKB20190422094011004/22/19 09:40:31  5-MIN KBKB 221540Z AUTO VRB04KT 10SM CLR 22/16 A3013 100 65 1000 VRB/04 RMK AO2 T02220156 $
53988KBKB BKB20190422094511004/22/19 09:45:31  5-MIN KBKB 221545Z AUTO VRB03KT 10SM CLR 23/16 A3013 100 63 1100 VRB/03 RMK AO2 T02280156 $
53988KBKB BKB20190422095011704/22/19 09:50:31  5-MIN KBKB 221550Z AUTO VRB04KT 10SM CLR 23/16 A3013 100 65 1100 VRB/04 RMK AO2 SLP230 T02280161 $
53988KBKB BKB20190422095511004/22/19 09:55:31  5-MIN KBKB 221555Z AUTO VRB04KT 10SM CLR 23/16 A3013 110 63 1100 VRB/04 RMK AO2 T02280156 $
53988KBKB BKB20190422100011004/22/19 10:00:31  5-MIN KBKB 221600Z AUTO VRB04KT 10SM CLR 23/16 A3013 110 63 1100 VRB/04 RMK AO2 T02280156 $
53988KBKB BKB20190422100511004/22/19 10:05:31  5-MIN KBKB 221605Z AUTO VRB05KT 10SM CLR 23/16 A3012 110 63 1100 VRB/05 RMK AO2 T02280156 $
53988KBKB BKB20190422101011004/22/19 10:10:31  5-MIN KBKB 221610Z AUTO VRB04KT 10SM CLR 23/16 A3012 110 61 1100 VRB/04 RMK AO2 T02330156 $
53988KBKB BKB20190422101512604/22/19 10:15:31  5-MIN KBKB 221615Z AUTO 18007KT 120V220 10SM CLR 23/16 A3012 110 63 1100 180/07 120V220 RMK AO2 T02280156 $
53988KBKB BKB20190422102011004/22/19 10:20:31  5-MIN KBKB 221620Z AUTO VRB03KT 10SM CLR 22/15 A3012 110 63 1000 VRB/03 RMK AO2 T02220150 $
53988KBKB BKB20190422102511004/22/19 10:25:31  5-MIN KBKB 221625Z AUTO VRB04KT 10SM CLR 23/16 A3012 110 63 1100 VRB/04 RMK AO2 T02280156 $
53988KBKB BKB20190422103011004/22/19 10:30:31  5-MIN KBKB 221630Z AUTO VRB05KT 10SM CLR 23/16 A3012 110 61 1100 VRB/05 RMK AO2 T02330156 $
53988KBKB BKB20190422103511004/22/19 10:35:31  5-MIN KBKB 221635Z AUTO VRB04KT 10SM CLR 23/16 A3012 110 61 1100 VRB/04 RMK AO2 T02330156 $
53988KBKB BKB20190422104011004/22/19 10:40:31  5-MIN KBKB 221640Z AUTO VRB03KT 10SM CLR 24/16 A3012 110 61 1200 VRB/03 RMK AO2 T02390161 $
53988KBKB BKB20190422104511004/22/19 10:45:31  5-MIN KBKB 221645Z AUTO VRB03KT 10SM CLR 23/16 A3012 110 63 1100 VRB/03 RMK AO2 T02330161 $
53988KBKB BKB20190422105011704/22/19 10:50:31  5-MIN KBKB 221650Z AUTO VRB05KT 10SM CLR 23/16 A3012 110 63 1100 VRB/05 RMK AO2 SLP228 T02280156 $
53988KBKB BKB20190422105511004/22/19 10:55:31  5-MIN KBKB 221655Z AUTO VRB05KT 10SM CLR 23/15 A3012 110 61 1100 VRB/05 RMK AO2 T02280150 $
53988KBKB BKB20190422110011004/22/19 11:00:31  5-MIN KBKB 221700Z AUTO VRB05KT 10SM CLR 23/15 A3013 110 59 1100 VRB/05 RMK AO2 T02330150 $
53988KBKB BKB20190422110511004/22/19 11:05:31  5-MIN KBKB 221705Z AUTO VRB04KT 10SM CLR 23/15 A3013 110 61 1100 VRB/04 RMK AO2 T02280150 $
53988KBKB BKB20190422111011004/22/19 11:10:31  5-MIN KBKB 221710Z AUTO 00000KT 10SM CLR 24/16 A3012 110 59 1200 000/00 RMK AO2 T02390156 $
53988KBKB BKB20190422111510004/22/19 11:15:31  5-MIN KBKB 221715Z AUTO 10SM CLR 23/16 A3013 100 61 1100 M /M RMK AO2 T02330156 $
53988KBKB BKB20190422112011004/22/19 11:20:31  5-MIN KBKB 221720Z AUTO VRB05KT 10SM CLR 24/16 A3013 110 59 1200 VRB/05 RMK AO2 T02390156 $
53988KBKB BKB20190422112511004/22/19 11:25:31  5-MIN KBKB 221725Z AUTO VRB05KT 10SM CLR 24/16 A3013 100 59 1200 VRB/05 RMK AO2 T02390156 $
53988KBKB BKB20190422113011004/22/19 11:30:31  5-MIN KBKB 221730Z AUTO VRB03KT 10SM CLR 24/16 A3013 110 59 1200 VRB/03 RMK AO2 T02390156 $
53988KBKB BKB20190422113511004/22/19 11:35:31  5-MIN KBKB 221735Z AUTO VRB03KT 10SM CLR 24/16 A3013 110 59 1300 VRB/03 RMK AO2 T02440161 $
53988KBKB BKB20190422114011004/22/19 11:40:31  5-MIN KBKB 221740Z AUTO 00000KT 10SM CLR 25/16 A3013 110 57 1300 000/00 RMK AO2 T02500161 $
53988KBKB BKB20190422114511304/22/19 11:45:31  5-MIN KBKB 221745Z AUTO 13005KT 10SM FEW033 25/16 A3013 110 55 1300 130/05 RMK AO2 T02500156 $
53988KBKB BKB20190422115013804/22/19 11:50:31  5-MIN KBKB 221750Z AUTO VRB04KT 10SM FEW033 26/16 A3012 110 53 1400 VRB/04 RMK AO2 SLP228 T02560156 10256 20128 51014 $
53988KBKB BKB20190422115511304/22/19 11:55:31  5-MIN KBKB 221755Z AUTO VRB04KT 10SM FEW034 25/16 A3012 110 55 1300 VRB/04 RMK AO2 T02500156 $
53988KBKB BKB20190422120011304/22/19 12:00:31  5-MIN KBKB 221800Z AUTO VRB05KT 10SM FEW034 25/15 A3012 120 53 1300 VRB/05 RMK AO2 T02500150 $
53988KBKB BKB20190422120511304/22/19 12:05:31  5-MIN KBKB 221805Z AUTO VRB04KT 10SM FEW034 26/16 A3011 120 53 1400 VRB/04 RMK AO2 T02560156 $
53988KBKB BKB20190422121010304/22/19 12:10:31  5-MIN KBKB 221810Z AUTO 10SM FEW034 26/16 A3011 120 53 1400 M /M RMK AO2 T02560156 $
53988KBKB BKB20190422121511004/22/19 12:15:31  5-MIN KBKB 221815Z AUTO VRB06KT 10SM CLR 26/16 A3012 120 53 1400 VRB/06 RMK AO2 T02560156 $
53988KBKB BKB20190422122011004/22/19 12:20:31  5-MIN KBKB 221820Z AUTO VRB04KT 10SM CLR 26/16 A3011 120 53 1400 VRB/04 RMK AO2 T02560156 $
53988KBKB BKB20190422122511004/22/19 12:25:31  5-MIN KBKB 221825Z AUTO VRB04KT 10SM CLR 26/16 A3011 120 51 1500 VRB/04 RMK AO2 T02610156 $
53988KBKB BKB20190422123011004/22/19 12:30:31  5-MIN KBKB 221830Z AUTO VRB05KT 10SM CLR 26/14 A3011 120 49 1400 VRB/05 RMK AO2 T02560144 $
53988KBKB BKB20190422123511004/22/19 12:35:31  5-MIN KBKB 221835Z AUTO VRB05KT 10SM CLR 26/14 A3011 120 48 1400 VRB/05 RMK AO2 T02560139 $
53988KBKB BKB20190422124011004/22/19 12:40:31  5-MIN KBKB 221840Z AUTO VRB03KT 10SM CLR 26/14 A3010 130 49 1400 VRB/03 RMK AO2 T02560144 $
53988KBKB BKB20190422124511004/22/19 12:45:31  5-MIN KBKB 221845Z AUTO VRB06KT 10SM CLR 26/14 A3010 130 49 1400 VRB/06 RMK AO2 T02560144 $
53988KBKB BKB20190422125011704/22/19 12:50:31  5-MIN KBKB 221850Z AUTO VRB05KT 10SM CLR 26/15 A3010 130 51 1400 VRB/05 RMK AO2 SLP221 T02560150 $
53988KBKB BKB20190422125511004/22/19 12:55:31  5-MIN KBKB 221855Z AUTO VRB05KT 10SM CLR 26/15 A3010 130 51 1400 VRB/05 RMK AO2 T02560150 $
53988KBKB BKB20190422130011004/22/19 13:00:31  5-MIN KBKB 221900Z AUTO VRB04KT 10SM CLR 26/16 A3010 130 53 1400 VRB/04 RMK AO2 T02560156 $
53988KBKB BKB20190422130511004/22/19 13:05:31  5-MIN KBKB 221905Z AUTO VRB05KT 10SM CLR 26/14 A3010 130 49 1400 VRB/05 RMK AO2 T02560144 $
53988KBKB BKB20190422131011004/22/19 13:10:31  5-MIN KBKB 221910Z AUTO VRB05KT 10SM CLR 26/15 A3010 140 50 1500 VRB/05 RMK AO2 T02610150 $
53988KBKB BKB20190422131511004/22/19 13:15:31  5-MIN KBKB 221915Z AUTO VRB06KT 10SM CLR 26/14 A3009 140 49 1400 VRB/06 RMK AO2 T02560144 $
53988KBKB BKB20190422132011004/22/19 13:20:31  5-MIN KBKB 221920Z AUTO VRB05KT 10SM CLR 26/14 A3009 140 49 1400 VRB/05 RMK AO2 T02560144 $
53988KBKB BKB20190422132511004/22/19 13:25:31  5-MIN KBKB 221925Z AUTO VRB06KT 10SM CLR 26/15 A3009 140 50 1500 VRB/06 RMK AO2 T02610150 $
53988KBKB BKB20190422133011004/22/19 13:30:31  5-MIN KBKB 221930Z AUTO VRB05KT 10SM CLR 26/15 A3009 140 50 1500 VRB/05 RMK AO2 T02610150 $
53988KBKB BKB20190422133511004/22/19 13:35:31  5-MIN KBKB 221935Z AUTO VRB03KT 10SM CLR 26/16 A3009 140 51 1500 VRB/03 RMK AO2 T02610156 $
53988KBKB BKB20190422134011004/22/19 13:40:31  5-MIN KBKB 221940Z AUTO VRB04KT 10SM CLR 27/16 A3009 140 50 1600 VRB/04 RMK AO2 T02670156 $
53988KBKB BKB20190422134511004/22/19 13:45:31  5-MIN KBKB 221945Z AUTO VRB06KT 10SM CLR 27/15 A3009 140 48 1600 VRB/06 RMK AO2 T02670150 $
53988KBKB BKB20190422135012004/22/19 13:50:31  5-MIN KBKB 221950Z AUTO 00000KT 10SM FEW042 27/15 A3009 150 48 1600 000/00 RMK AO2 SLP215 T02670150 $
53988KBKB BKB20190422135511304/22/19 13:55:31  5-MIN KBKB 221955Z AUTO VRB04KT 10SM FEW042 26/15 A3008 150 50 1500 VRB/04 RMK AO2 T02610150 $
53988KBKB BKB20190422140011004/22/19 14:00:31  5-MIN KBKB 222000Z AUTO VRB05KT 10SM CLR 27/15 A3008 150 48 1600 VRB/05 RMK AO2 T02670150 $
53988KBKB BKB20190422140511004/22/19 14:05:31  5-MIN KBKB 222005Z AUTO VRB04KT 10SM CLR 27/15 A3008 150 48 1600 VRB/04 RMK AO2 T02670150 $
53988KBKB BKB20190422141011004/22/19 14:10:31  5-MIN KBKB 222010Z AUTO VRB04KT 10SM CLR 26/14 A3008 150 48 1500 VRB/04 RMK AO2 T02610144 $
53988KBKB BKB20190422141511304/22/19 14:15:31  5-MIN KBKB 222015Z AUTO VRB06KT 10SM FEW044 26/14 A3008 150 48 1500 VRB/06 RMK AO2 T02610144 $
53988KBKB BKB20190422142011304/22/19 14:20:31  5-MIN KBKB 222020Z AUTO VRB03KT 10SM FEW044 26/15 A3007 160 50 1500 VRB/03 RMK AO2 T02610150 $
53988KBKB BKB20190422142511004/22/19 14:25:31  5-MIN KBKB 222025Z AUTO VRB05KT 10SM CLR 27/15 A3008 160 48 1600 VRB/05 RMK AO2 T02670150 $
53988KBKB BKB20190422143011004/22/19 14:30:31  5-MIN KBKB 222030Z AUTO VRB06KT 10SM CLR 26/15 A3008 150 50 1500 VRB/06 RMK AO2 T02610150 $
53988KBKB BKB20190422143511004/22/19 14:35:31  5-MIN KBKB 222035Z AUTO VRB04KT 10SM CLR 26/15 A3008 150 50 1500 VRB/04 RMK AO2 T02610150 $
53988KBKB BKB20190422144010304/22/19 14:40:31  5-MIN KBKB 222040Z AUTO 10SM FEW044 26/15 A3007 160 50 1500 M /M RMK AO2 T02610150 $
53988KBKB BKB20190422144511004/22/19 14:45:31  5-MIN KBKB 222045Z AUTO VRB05KT 10SM CLR 26/15 A3007 160 50 1500 VRB/05 RMK AO2 T02610150 $
53988KBKB BKB20190422145012304/22/19 14:50:31  5-MIN KBKB 222050Z AUTO VRB03KT 10SM CLR 26/15 A3007 160 51 1500 VRB/03 RMK AO2 SLP209 T02560150 56004 $
53988KBKB BKB20190422145511004/22/19 14:55:31  5-MIN KBKB 222055Z AUTO VRB04KT 10SM CLR 26/15 A3007 160 50 1500 VRB/04 RMK AO2 T02610150 $
53988KBKB BKB20190422150011004/22/19 15:00:31  5-MIN KBKB 222100Z AUTO VRB03KT 10SM CLR 26/15 A3007 160 51 1500 VRB/03 RMK AO2 T02560150 $
53988KBKB BKB20190422150511004/22/19 15:05:31  5-MIN KBKB 222105Z AUTO VRB05KT 10SM CLR 26/15 A3006 160 50 1500 VRB/05 RMK AO2 T02610150 $
53988KBKB BKB20190422151011004/22/19 15:10:31  5-MIN KBKB 222110Z AUTO VRB05KT 10SM CLR 26/15 A3006 170 50 1500 VRB/05 RMK AO2 T02610150 $
53988KBKB BKB20190422151511004/22/19 15:15:31  5-MIN KBKB 222115Z AUTO VRB04KT 10SM CLR 27/15 A3006 170 48 1600 VRB/04 RMK AO2 T02670150 $
53988KBKB BKB20190422152011004/22/19 15:20:31  5-MIN KBKB 222120Z AUTO VRB04KT 10SM CLR 26/14 A3006 170 48 1500 VRB/04 RMK AO2 T02610144 $
53988KBKB BKB20190422152511004/22/19 15:25:31  5-MIN KBKB 222125Z AUTO VRB05KT 10SM CLR 26/14 A3006 170 48 1500 VRB/05 RMK AO2 T02610144 $
53988KBKB BKB20190422153011004/22/19 15:30:31  5-MIN KBKB 222130Z AUTO VRB05KT 10SM CLR 27/14 A3006 170 46 1600 VRB/05 RMK AO2 T02670144 $
53988KBKB BKB20190422153511004/22/19 15:35:31  5-MIN KBKB 222135Z AUTO VRB05KT 10SM CLR 27/15 A3006 170 48 1600 VRB/05 RMK AO2 T02670150 $
53988KBKB BKB20190422154011304/22/19 15:40:31  5-MIN KBKB 222140Z AUTO VRB05KT 10SM FEW047 26/14 A3006 170 48 1500 VRB/05 RMK AO2 T02610144 $
53988KBKB BKB20190422154511304/22/19 15:45:31  5-MIN KBKB 222145Z AUTO VRB03KT 10SM SCT047 26/15 A3006 170 50 1500 VRB/03 RMK AO2 T02610150 $
53988KBKB BKB20190422155012004/22/19 15:50:31  5-MIN KBKB 222150Z AUTO VRB04KT 10SM SCT047 26/15 A3006 170 51 1500 VRB/04 RMK AO2 SLP207 T02560150 $
53988KBKB BKB20190422155511304/22/19 15:55:31  5-MIN KBKB 222155Z AUTO VRB04KT 10SM SCT047 26/15 A3006 170 51 1500 VRB/04 RMK AO2 T02560150 $
53988KBKB BKB20190422160011304/22/19 16:00:31  5-MIN KBKB 222200Z AUTO 21005KT 10SM SCT047 26/15 A3006 170 50 1500 210/05 RMK AO2 T02610150 $
53988KBKB BKB20190422160511304/22/19 16:05:31  5-MIN KBKB 222205Z AUTO VRB04KT 10SM SCT047 26/15 A3007 160 50 1500 VRB/04 RMK AO2 T02610150 $
53988KBKB BKB20190422161011304/22/19 16:10:31  5-MIN KBKB 222210Z AUTO VRB04KT 10SM SCT047 26/15 A3007 160 50 1500 VRB/04 RMK AO2 T02610150 $
53988KBKB BKB20190422161511304/22/19 16:15:31  5-MIN KBKB 222215Z AUTO 16006KT 10SM FEW047 26/15 A3007 160 51 1500 160/06 RMK AO2 T02560150 $
53988KBKB BKB20190422162011304/22/19 16:20:31  5-MIN KBKB 222220Z AUTO VRB04KT 10SM SCT047 25/15 A3006 160 53 1400 VRB/04 RMK AO2 T02500150 $
53988KBKB BKB20190422162511304/22/19 16:25:31  5-MIN KBKB 222225Z AUTO VRB03KT 10SM SCT047 26/15 A3006 170 51 1500 VRB/03 RMK AO2 T02560150 $
53988KBKB BKB20190422163011304/22/19 16:30:31  5-MIN KBKB 222230Z AUTO VRB05KT 10SM BKN046 26/15 A3006 170 51 1500 VRB/05 RMK AO2 T02560150 $
53988KBKB BKB20190422163511304/22/19 16:35:31  5-MIN KBKB 222235Z AUTO VRB05KT 10SM BKN046 26/15 A3006 170 51 1500 VRB/05 RMK AO2 T02560150 $
53988KBKB BKB20190422164011304/22/19 16:40:31  5-MIN KBKB 222240Z AUTO VRB03KT 10SM BKN046 26/15 A3006 170 51 1500 VRB/03 RMK AO2 T02560150 $
53988KBKB BKB20190422164511304/22/19 16:45:31  5-MIN KBKB 222245Z AUTO 00000KT 10SM BKN046 26/16 A3006 170 53 1500 000/00 RMK AO2 T02560156 $
53988KBKB BKB20190422165011004/22/19 16:50:31  5-MIN KBKB 222250Z AUTO 10SM BKN046 25/15 A3006 170 53 1400 M /M RMK AO2 SLP207 T02500150 $
53988KBKB BKB20190422165511304/22/19 16:55:31  5-MIN KBKB 222255Z AUTO VRB03KT 10SM SCT046 25/15 A3006 170 53 1400 VRB/03 RMK AO2 T02500150 $
53988KBKB BKB20190422170011304/22/19 17:00:31  5-MIN KBKB 222300Z AUTO VRB04KT 10SM SCT046 24/15 A3006 160 55 1300 VRB/04 RMK AO2 T02440150 $
53988KBKB BKB20190422170511304/22/19 17:05:31  5-MIN KBKB 222305Z AUTO VRB04KT 10SM FEW046 24/15 A3006 160 57 1300 VRB/04 RMK AO2 T02390150 $
53988KBKB BKB20190422171011304/22/19 17:10:31  5-MIN KBKB 222310Z AUTO VRB03KT 10SM FEW046 24/15 A3006 170 57 1300 VRB/03 RMK AO2 T02390150 $
53988KBKB BKB20190422171511004/22/19 17:15:31  5-MIN KBKB 222315Z AUTO 00000KT 10SM CLR 24/16 A3006 170 59 1300 000/00 RMK AO2 T02390156 $
53988KBKB BKB20190422172011004/22/19 17:20:31  5-MIN KBKB 222320Z AUTO VRB03KT 10SM CLR 24/15 A3006 160 57 1300 VRB/03 RMK AO2 T02390150 $
53988KBKB BKB20190422172511004/22/19 17:25:31  5-MIN KBKB 222325Z AUTO 00000KT 10SM CLR 23/16 A3006 170 61 1200 000/00 RMK AO2 T02330156 $
53988KBKB BKB20190422173011004/22/19 17:30:31  5-MIN KBKB 222330Z AUTO VRB03KT 10SM CLR 23/16 A3007 160 61 1200 VRB/03 RMK AO2 T02330156 $
53988KBKB BKB20190422173511004/22/19 17:35:31  5-MIN KBKB 222335Z AUTO 00000KT 10SM CLR 23/16 A3006 170 61 1200 000/00 RMK AO2 T02330156 $
53988KBKB BKB20190422174011004/22/19 17:40:31  5-MIN KBKB 222340Z AUTO VRB03KT 10SM CLR 23/16 A3006 170 61 1200 VRB/03 RMK AO2 T02330156 $
53988KBKB BKB20190422174511004/22/19 17:45:31  5-MIN KBKB 222345Z AUTO 00000KT 10SM CLR 23/16 A3006 170 61 1200 000/00 RMK AO2 T02330156 $
53988KBKB BKB20190422175013504/22/19 17:50:31  5-MIN KBKB 222350Z AUTO 00000KT 10SM CLR 23/16 A3006 170 63 1200 000/00 RMK AO2 SLP205 T02330161 10267 20233 56018 $
53988KBKB BKB20190422175511004/22/19 17:55:31  5-MIN KBKB 222355Z AUTO 00000KT 10SM CLR 23/16 A3006 170 65 1200 000/00 RMK AO2 T02280161 $
53988KBKB BKB20190422180011004/22/19 18:00:31  5-MIN KBKB 230000Z AUTO VRB03KT 10SM CLR 23/16 A3006 170 65 1200 VRB/03 RMK AO2 T02280161 $
53988KBKB BKB20190422180511004/22/19 18:05:31  5-MIN KBKB 230005Z AUTO VRB03KT 10SM CLR 22/16 A3006 170 65 1100 VRB/03 RMK AO2 T02220156 $
53988KBKB BKB20190422181011004/22/19 18:10:31  5-MIN KBKB 230010Z AUTO 00000KT 10SM CLR 22/16 A3006 170 65 1100 000/00 RMK AO2 T02220156 $
53988KBKB BKB20190422181511004/22/19 18:15:31  5-MIN KBKB 230015Z AUTO 00000KT 10SM CLR 22/16 A3006 170 68 1100 000/00 RMK AO2 T02220161 $
53988KBKB BKB20190422182011004/22/19 18:20:31  5-MIN KBKB 230020Z AUTO 00000KT 10SM CLR 22/16 A3006 170 70 1000 000/00 RMK AO2 T02170161 $
53988KBKB BKB20190422182511004/22/19 18:25:31  5-MIN KBKB 230025Z AUTO 00000KT 10SM CLR 22/16 A3006 170 65 1100 000/00 RMK AO2 T02220156 $
53988KBKB BKB20190422183011004/22/19 18:30:31  5-MIN KBKB 230030Z AUTO 00000KT 10SM CLR 22/16 A3006 170 68 1000 000/00 RMK AO2 T02170156 $
53988KBKB BKB20190422183511004/22/19 18:35:31  5-MIN KBKB 230035Z AUTO 00000KT 10SM CLR 22/16 A3006 170 68 1000 000/00 RMK AO2 T02170156 $
53988KBKB BKB20190422184011004/22/19 18:40:31  5-MIN KBKB 230040Z AUTO 00000KT 10SM CLR 21/16 A3006 170 70 1000 000/00 RMK AO2 T02110156 $
53988KBKB BKB20190422184511004/22/19 18:45:31  5-MIN KBKB 230045Z AUTO 00000KT 10SM CLR 21/16 A3006 170 73 1000 000/00 RMK AO2 T02110161 $
53988KBKB BKB20190422185011704/22/19 18:50:31  5-MIN KBKB 230050Z AUTO 00000KT 10SM CLR 21/16 A3006 170 73 1000 000/00 RMK AO2 SLP208 T02110161 $
53988KBKB BKB20190422185510904/22/19 18:55:31  5-MIN KBKB 230055Z AUTO 00000KT 10SM CLR 21/16 A3006 170 75 900 000/00 RMK AO2 T02060161 $
53988KBKB BKB20190422190010904/22/19 19:00:31  5-MIN KBKB 230100Z AUTO 00000KT 10SM CLR 21/16 A3006 170 75 900 000/00 RMK AO2 T02060161 $
53988KBKB BKB20190422190510904/22/19 19:05:31  5-MIN KBKB 230105Z AUTO 00000KT 10SM CLR 21/16 A3006 170 75 900 000/00 RMK AO2 T02060161 $
53988KBKB BKB20190422191010904/22/19 19:10:31  5-MIN KBKB 230110Z AUTO 00000KT 10SM CLR 20/16 A3006 170 78 800 000/00 RMK AO2 T02000161 $
53988KBKB BKB20190422191510904/22/19 19:15:31  5-MIN KBKB 230115Z AUTO 00000KT 10SM CLR 20/16 A3007 160 75 800 000/00 RMK AO2 T02000156 $
53988KBKB BKB20190422192010904/22/19 19:20:31  5-MIN KBKB 230120Z AUTO 00000KT 10SM CLR 20/16 A3007 160 75 800 000/00 RMK AO2 T02000156 $
53988KBKB BKB20190422192510904/22/19 19:25:31  5-MIN KBKB 230125Z AUTO 00000KT 10SM CLR 20/16 A3007 160 78 800 000/00 RMK AO2 T02000161 $
53988KBKB BKB20190422193010904/22/19 19:30:31  5-MIN KBKB 230130Z AUTO 00000KT 10SM CLR 19/16 A3007 160 81 800 000/00 RMK AO2 T01940161 $
53988KBKB BKB20190422193510904/22/19 19:35:31  5-MIN KBKB 230135Z AUTO 00000KT 10SM CLR 19/16 A3007 160 81 800 000/00 RMK AO2 T01940161 $
53988KBKB BKB20190422194010904/22/19 19:40:31  5-MIN KBKB 230140Z AUTO 00000KT 10SM CLR 19/16 A3006 170 81 800 000/00 RMK AO2 T01940161 $
53988KBKB BKB20190422194510904/22/19 19:45:31  5-MIN KBKB 230145Z AUTO 00000KT 10SM CLR 19/16 A3006 170 81 800 000/00 RMK AO2 T01940161 $
53988KBKB BKB20190422195011604/22/19 19:50:31  5-MIN KBKB 230150Z AUTO 00000KT 10SM CLR 19/16 A3006 160 81 800 000/00 RMK AO2 SLP208 T01940161 $
53988KBKB BKB20190422195510904/22/19 19:55:31  5-MIN KBKB 230155Z AUTO 00000KT 10SM CLR 19/16 A3007 160 81 800 000/00 RMK AO2 T01940161 $
53988KBKB BKB20190422200010904/22/19 20:00:31  5-MIN KBKB 230200Z AUTO 00000KT 10SM CLR 19/16 A3007 160 84 700 000/00 RMK AO2 T01890161 $
53988KBKB BKB20190422200510904/22/19 20:05:31  5-MIN KBKB 230205Z AUTO 00000KT 10SM CLR 19/16 A3007 160 81 800 000/00 RMK AO2 T01940161 $
53988KBKB BKB20190422201010904/22/19 20:10:31  5-MIN KBKB 230210Z AUTO 00000KT 10SM CLR 19/16 A3007 160 84 700 000/00 RMK AO2 T01890161 $
53988KBKB BKB20190422201510904/22/19 20:15:31  5-MIN KBKB 230215Z AUTO 00000KT 10SM CLR 19/16 A3007 160 84 700 000/00 RMK AO2 T01890161 $
53988KBKB BKB20190422202010904/22/19 20:20:31  5-MIN KBKB 230220Z AUTO 00000KT 10SM CLR 18/16 A3007 160 87 600 000/00 RMK AO2 T01830161 $
53988KBKB BKB20190422202510904/22/19 20:25:31  5-MIN KBKB 230225Z AUTO 00000KT 10SM CLR 19/16 A3007 160 81 700 000/00 RMK AO2 T01890156 $
53988KBKB BKB20190422203010904/22/19 20:30:31  5-MIN KBKB 230230Z AUTO 00000KT 10SM CLR 19/16 A3008 150 81 700 000/00 RMK AO2 T01890156 $
53988KBKB BKB20190422203510904/22/19 20:35:31  5-MIN KBKB 230235Z AUTO 00000KT 10SM CLR 19/16 A3008 150 81 700 000/00 RMK AO2 T01890156 $
53988KBKB BKB20190422204010904/22/19 20:40:31  5-MIN KBKB 230240Z AUTO 00000KT 10SM CLR 18/16 A3008 150 84 600 000/00 RMK AO2 T01830156 $
53988KBKB BKB20190422204510904/22/19 20:45:31  5-MIN KBKB 230245Z AUTO 00000KT 10SM CLR 18/16 A3008 150 84 600 000/00 RMK AO2 T01830156 $
53988KBKB BKB20190422205012204/22/19 20:50:31  5-MIN KBKB 230250Z AUTO 00000KT 10SM CLR 18/16 A3008 150 84 600 000/00 RMK AO2 SLP214 T01830156 56003 $
53988KBKB BKB20190422205510904/22/19 20:55:31  5-MIN KBKB 230255Z AUTO 00000KT 10SM CLR 18/16 A3008 150 87 600 000/00 RMK AO2 T01830161 $
53988KBKB BKB20190422210010904/22/19 21:00:31  5-MIN KBKB 230300Z AUTO 00000KT 10SM CLR 18/16 A3008 150 90 500 000/00 RMK AO2 T01780161 $
53988KBKB BKB20190422210510904/22/19 21:05:31  5-MIN KBKB 230305Z AUTO 00000KT 10SM CLR 18/16 A3008 150 87 600 000/00 RMK AO2 T01780156 $
53988KBKB BKB20190422211010904/22/19 21:10:31  5-MIN KBKB 230310Z AUTO 00000KT 10SM CLR 18/16 A3008 150 87 500 000/00 RMK AO2 T01780156 $
53988KBKB BKB20190422211510904/22/19 21:15:31  5-MIN KBKB 230315Z AUTO 00000KT 10SM CLR 17/16 A3008 150 90 500 000/00 RMK AO2 T01720156 $
53988KBKB BKB20190422212010904/22/19 21:20:31  5-MIN KBKB 230320Z AUTO 00000KT 10SM CLR 17/16 A3008 150 90 500 000/00 RMK AO2 T01720156 $
53988KBKB BKB20190422212510904/22/19 21:25:31  5-MIN KBKB 230325Z AUTO 00000KT 10SM CLR 17/16 A3008 150 90 500 000/00 RMK AO2 T01720156 $
53988KBKB BKB20190422213010904/22/19 21:30:31  5-MIN KBKB 230330Z AUTO 00000KT 10SM CLR 17/15 A3008 150 87 500 000/00 RMK AO2 T01720150 $
53988KBKB BKB20190422213510904/22/19 21:35:31  5-MIN KBKB 230335Z AUTO 00000KT 10SM CLR 17/15 A3008 150 90 400 000/00 RMK AO2 T01670150 $
53988KBKB BKB20190422214010904/22/19 21:40:31  5-MIN KBKB 230340Z AUTO 00000KT 10SM CLR 17/15 A3008 150 90 400 000/00 RMK AO2 T01670150 $
53988KBKB BKB20190422214510904/22/19 21:45:31  5-MIN KBKB 230345Z AUTO 00000KT 10SM CLR 17/15 A3008 150 90 400 000/00 RMK AO2 T01670150 $
53988KBKB BKB20190422215011604/22/19 21:50:31  5-MIN KBKB 230350Z AUTO 00000KT 10SM CLR 17/15 A3008 150 90 400 000/00 RMK AO2 SLP214 T01670150 $
53988KBKB BKB20190422215510904/22/19 21:55:31  5-MIN KBKB 230355Z AUTO 00000KT 10SM CLR 17/16 A3008 150 93 400 000/00 RMK AO2 T01670156 $
53988KBKB BKB20190422220010904/22/19 22:00:31  5-MIN KBKB 230400Z AUTO 00000KT 10SM CLR 17/16 A3008 150 93 400 000/00 RMK AO2 T01670156 $
53988KBKB BKB20190422220510904/22/19 22:05:31  5-MIN KBKB 230405Z AUTO 00000KT 10SM CLR 17/15 A3008 150 90 400 000/00 RMK AO2 T01670150 $
53988KBKB BKB20190422221010904/22/19 22:10:31  5-MIN KBKB 230410Z AUTO 00000KT 10SM CLR 17/15 A3008 150 90 400 000/00 RMK AO2 T01670150 $
53988KBKB BKB20190422221510904/22/19 22:15:31  5-MIN KBKB 230415Z AUTO 00000KT 10SM CLR 16/15 A3008 150 93 400 000/00 RMK AO2 T01610150 $
53988KBKB BKB20190422222010904/22/19 22:20:31  5-MIN KBKB 230420Z AUTO 00000KT 10SM CLR 16/15 A3008 150 93 400 000/00 RMK AO2 T01610150 $
53988KBKB BKB20190422222510904/22/19 22:25:31  5-MIN KBKB 230425Z AUTO 00000KT 10SM CLR 16/15 A3007 160 93 400 000/00 RMK AO2 T01610150 $
53988KBKB BKB20190422223010904/22/19 22:30:31  5-MIN KBKB 230430Z AUTO 00000KT 10SM CLR 16/15 A3007 160 93 400 000/00 RMK AO2 T01610150 $
53988KBKB BKB20190422223510904/22/19 22:35:31  5-MIN KBKB 230435Z AUTO 00000KT 10SM CLR 16/15 A3007 160 93 400 000/00 RMK AO2 T01610150 $
53988KBKB BKB20190422224010904/22/19 22:40:31  5-MIN KBKB 230440Z AUTO 00000KT 10SM CLR 16/15 A3007 160 93 400 000/00 RMK AO2 T01610150 $
53988KBKB BKB20190422224510904/22/19 22:45:31  5-MIN KBKB 230445Z AUTO 00000KT 10SM CLR 16/15 A3007 160 93 400 000/00 RMK AO2 T01610150 $
53988KBKB BKB20190422225011604/22/19 22:50:31  5-MIN KBKB 230450Z AUTO 00000KT 10SM CLR 16/15 A3007 160 93 400 000/00 RMK AO2 SLP210 T01610150 $
53988KBKB BKB20190422225510904/22/19 22:55:31  5-MIN KBKB 230455Z AUTO 00000KT 10SM CLR 16/15 A3007 160 93 400 000/00 RMK AO2 T01610150 $
53988KBKB BKB20190422230010904/22/19 23:00:31  5-MIN KBKB 230500Z AUTO 00000KT 10SM CLR 16/15 A3007 160 93 400 000/00 RMK AO2 T01610150 $
53988KBKB BKB20190422230510904/22/19 23:05:31  5-MIN KBKB 230505Z AUTO 00000KT 10SM CLR 16/15 A3007 160 93 400 000/00 RMK AO2 T01610150 $
53988KBKB BKB20190422230512004/22/19 23:05:31  5-MIN KBKB 230505Z AUTO 00000KT 10SM CLR 16/15 A3007 160 93 400 000/00 RMK AO2 T01610150 $ 93 50061 $
53988KBKB BKB20190422231010904/22/19 23:10:31  5-MIN KBKB 230510Z AUTO 00000KT 10SM CLR 17/16 A3007 160 93 400 000/00 RMK AO2 T01670156 $
53988KBKB BKB20190422231510904/22/19 23:15:31  5-MIN KBKB 230515Z AUTO 00000KT 10SM CLR 17/16 A3007 160 93 400 000/00 RMK AO2 T01670156 $
53988KBKB BKB20190422232010904/22/19 23:20:31  5-MIN KBKB 230520Z AUTO 00000KT 10SM CLR 17/16 A3007 160 93 400 000/00 RMK AO2 T01670156 $
53988KBKB BKB20190422232510904/22/19 23:25:31  5-MIN KBKB 230525Z AUTO 00000KT 10SM CLR 17/16 A3007 160 90 500 000/00 RMK AO2 T01720156 $
53988KBKB BKB20190422233010904/22/19 23:30:31  5-MIN KBKB 230530Z AUTO 00000KT 10SM CLR 17/16 A3007 160 93 400 000/00 RMK AO2 T01670156 $
53988KBKB BKB20190422233510904/22/19 23:35:31  5-MIN KBKB 230535Z AUTO 00000KT 10SM CLR 17/16 A3007 160 90 500 000/00 RMK AO2 T01720156 $
53988KBKB BKB20190422234010904/22/19 23:40:31  5-MIN KBKB 230540Z AUTO 00000KT 10SM CLR 17/16 A3007 160 90 500 000/00 RMK AO2 T01720156 $
53988KBKB BKB20190422234510904/22/19 23:45:31  5-MIN KBKB 230545Z AUTO 00000KT 10SM CLR 17/16 A3007 160 90 500 000/00 RMK AO2 T01720156 $
53988KBKB BKB20190422235014404/22/19 23:50:31  5-MIN KBKB 230550Z AUTO VRB03KT 10SM CLR 17/16 A3007 160 93 500 VRB/03 RMK AO2 SLP207 T01720161 10228 20161 402670122 53008 $
53988KBKB BKB20190422235510904/22/19 23:55:31  5-MIN KBKB 230555Z AUTO 00000KT 10SM CLR 17/16 A3007 160 93 500 000/00 RMK AO2 T01720161 $
53988KBKB BKB20190423000010904/23/19 00:00:31  5-MIN KBKB 230600Z AUTO 00000KT 10SM CLR 17/16 A3007 160 93 500 000/00 RMK AO2 T01720161 $
53988KBKB BKB20190423000510904/23/19 00:05:31  5-MIN KBKB 230605Z AUTO 00000KT 10SM CLR 17/16 A3007 160 93 500 000/00 RMK AO2 T01720161 $
53988KBKB BKB20190423001010904/23/19 00:10:31  5-MIN KBKB 230610Z AUTO 00000KT 10SM CLR 17/16 A3007 160 93 500 000/00 RMK AO2 T01720161 $
53988KBKB BKB20190423001510904/23/19 00:15:31  5-MIN KBKB 230615Z AUTO 00000KT 10SM CLR 17/16 A3007 160 96 400 000/00 RMK AO2 T01670161 $
53988KBKB BKB20190423002010904/23/19 00:20:31  5-MIN KBKB 230620Z AUTO 00000KT 10SM CLR 17/16 A3007 160 93 500 000/00 RMK AO2 T01720161 $
53988KBKB BKB20190423002510904/23/19 00:25:31  5-MIN KBKB 230625Z AUTO 00000KT 10SM CLR 17/16 A3006 170 96 400 000/00 RMK AO2 T01670161 $
53988KBKB BKB20190423003010904/23/19 00:30:31  5-MIN KBKB 230630Z AUTO 00000KT 10SM CLR 17/16 A3006 170 96 400 000/00 RMK AO2 T01670161 $
53988KBKB BKB20190423003510904/23/19 00:35:31  5-MIN KBKB 230635Z AUTO 00000KT 10SM CLR 17/16 A3006 170 93 500 000/00 RMK AO2 T01720161 $
53988KBKB BKB20190423004010904/23/19 00:40:31  5-MIN KBKB 230640Z AUTO 00000KT 10SM CLR 17/16 A3006 170 93 500 000/00 RMK AO2 T01720161 $
53988KBKB BKB20190423004510904/23/19 00:45:31  5-MIN KBKB 230645Z AUTO 00000KT 10SM CLR 17/16 A3006 170 93 500 000/00 RMK AO2 T01720161 $
53988KBKB BKB20190423005011604/23/19 00:50:31  5-MIN KBKB 230650Z AUTO 00000KT 10SM CLR 17/16 A3006 170 93 500 000/00 RMK AO2 SLP205 T01720161 $
53988KBKB BKB20190423005510904/23/19 00:55:31  5-MIN KBKB 230655Z AUTO 00000KT 10SM CLR 17/16 A3006 170 93 500 000/00 RMK AO2 T01720161 $
53988KBKB BKB20190423010010904/23/19 01:00:31  5-MIN KBKB 230700Z AUTO 00000KT 10SM CLR 17/16 A3006 170 93 500 000/00 RMK AO2 T01720161 $
53988KBKB BKB20190423010510904/23/19 01:05:31  5-MIN KBKB 230705Z AUTO 00000KT 10SM CLR 17/16 A3006 170 93 500 000/00 RMK AO2 T01720161 $
53988KBKB BKB20190423011010904/23/19 01:10:31  5-MIN KBKB 230710Z AUTO 00000KT 10SM CLR 17/16 A3006 170 93 500 000/00 RMK AO2 T01720161 $
53988KBKB BKB20190423011510904/23/19 01:15:31  5-MIN KBKB 230715Z AUTO 00000KT 10SM CLR 17/16 A3005 170 93 500 000/00 RMK AO2 T01720161 $
53988KBKB BKB20190423012010904/23/19 01:20:31  5-MIN KBKB 230720Z AUTO 00000KT 10SM CLR 17/16 A3005 180 93 500 000/00 RMK AO2 T01720161 $
53988KBKB BKB20190423012510904/23/19 01:25:31  5-MIN KBKB 230725Z AUTO 00000KT 10SM CLR 17/16 A3005 180 93 500 000/00 RMK AO2 T01720161 $
53988KBKB BKB20190423013010904/23/19 01:30:31  5-MIN KBKB 230730Z AUTO 00000KT 10SM CLR 17/16 A3005 180 93 500 000/00 RMK AO2 T01720161 $
53988KBKB BKB20190423013510904/23/19 01:35:31  5-MIN KBKB 230735Z AUTO 00000KT 10SM CLR 17/16 A3005 180 93 500 000/00 RMK AO2 T01720161 $
53988KBKB BKB20190423014010904/23/19 01:40:31  5-MIN KBKB 230740Z AUTO 00000KT 10SM CLR 17/16 A3005 180 93 500 000/00 RMK AO2 T01720161 $
53988KBKB BKB20190423014510904/23/19 01:45:31  5-MIN KBKB 230745Z AUTO 00000KT 10SM CLR 17/16 A3005 180 96 500 000/00 RMK AO2 T01670161 $
53988KBKB BKB20190423015011604/23/19 01:50:31  5-MIN KBKB 230750Z AUTO 00000KT 10SM CLR 17/16 A3005 180 93 500 000/00 RMK AO2 SLP202 T01720161 $
53988KBKB BKB20190423015510904/23/19 01:55:31  5-MIN KBKB 230755Z AUTO 00000KT 10SM CLR 17/16 A3005 180 93 500 000/00 RMK AO2 T01720161 $
53988KBKB BKB20190423020010904/23/19 02:00:31  5-MIN KBKB 230800Z AUTO 00000KT 10SM CLR 17/16 A3005 170 93 500 000/00 RMK AO2 T01720161 $
53988KBKB BKB20190423020510904/23/19 02:05:31  5-MIN KBKB 230805Z AUTO 00000KT 10SM CLR 17/16 A3005 180 93 500 000/00 RMK AO2 T01720161 $
53988KBKB BKB20190423021010904/23/19 02:10:31  5-MIN KBKB 230810Z AUTO 00000KT 10SM CLR 17/16 A3005 180 93 500 000/00 RMK AO2 T01720161 $
53988KBKB BKB20190423021510904/23/19 02:15:31  5-MIN KBKB 230815Z AUTO 00000KT 10SM CLR 17/16 A3005 180 93 500 000/00 RMK AO2 T01720161 $
53988KBKB BKB20190423022010904/23/19 02:20:31  5-MIN KBKB 230820Z AUTO 00000KT 10SM CLR 17/16 A3005 180 96 500 000/00 RMK AO2 T01670161 $
53988KBKB BKB20190423022510904/23/19 02:25:31  5-MIN KBKB 230825Z AUTO 00000KT 10SM CLR 17/16 A3004 180 96 500 000/00 RMK AO2 T01670161 $
53988KBKB BKB20190423023010904/23/19 02:30:31  5-MIN KBKB 230830Z AUTO 15003KT 10SM CLR 17/16 A3004 180 96 500 140/03 RMK AO2 T01670161 $
53988KBKB BKB20190423023510904/23/19 02:35:31  5-MIN KBKB 230835Z AUTO 00000KT 10SM CLR 17/16 A3004 180 96 500 000/00 RMK AO2 T01670161 $
53988KBKB BKB20190423024010904/23/19 02:40:31  5-MIN KBKB 230840Z AUTO 00000KT 10SM CLR 17/16 A3004 180 96 500 000/00 RMK AO2 T01670161 $
53988KBKB BKB20190423024510904/23/19 02:45:31  5-MIN KBKB 230845Z AUTO 00000KT 10SM CLR 17/16 A3004 190 96 500 000/00 RMK AO2 T01670161 $
53988KBKB BKB20190423025012204/23/19 02:50:31  5-MIN KBKB 230850Z AUTO 00000KT 10SM CLR 17/16 A3004 180 96 500 000/00 RMK AO2 SLP200 T01670161 58006 $
53988KBKB BKB20190423025510904/23/19 02:55:31  5-MIN KBKB 230855Z AUTO 00000KT 10SM CLR 17/16 A3005 180 93 500 000/00 RMK AO2 T01720161 $
53988KBKB BKB20190423030010904/23/19 03:00:31  5-MIN KBKB 230900Z AUTO 00000KT 10SM CLR 17/16 A3005 180 93 500 000/00 RMK AO2 T01720161 $
53988KBKB BKB20190423030510904/23/19 03:05:31  5-MIN KBKB 230905Z AUTO 00000KT 10SM CLR 17/16 A3005 180 93 500 000/00 RMK AO2 T01720161 $
53988KBKB BKB20190423031010904/23/19 03:10:31  5-MIN KBKB 230910Z AUTO 00000KT 10SM CLR 17/16 A3005 180 96 500 000/00 RMK AO2 T01670161 $
53988KBKB BKB20190423031510904/23/19 03:15:31  5-MIN KBKB 230915Z AUTO 00000KT 10SM CLR 17/16 A3005 180 93 500 000/00 RMK AO2 T01720161 $
53988KBKB BKB20190423032010904/23/19 03:20:31  5-MIN KBKB 230920Z AUTO 00000KT 10SM CLR 17/16 A3005 180 96 500 000/00 RMK AO2 T01670161 $
53988KBKB BKB20190423032510904/23/19 03:25:31  5-MIN KBKB 230925Z AUTO 00000KT 10SM CLR 17/16 A3005 180 93 500 000/00 RMK AO2 T01720161 $
53988KBKB BKB20190423033010904/23/19 03:30:31  5-MIN KBKB 230930Z AUTO 00000KT 10SM CLR 17/16 A3005 180 96 500 000/00 RMK AO2 T01670161 $
53988KBKB BKB20190423033510904/23/19 03:35:31  5-MIN KBKB 230935Z AUTO 00000KT 10SM CLR 17/16 A3005 180 96 500 000/00 RMK AO2 T01670161 $
53988KBKB BKB20190423034010904/23/19 03:40:31  5-MIN KBKB 230940Z AUTO 00000KT 10SM CLR 17/16 A3005 180 96 500 000/00 RMK AO2 T01670161 $
53988KBKB BKB20190423034510904/23/19 03:45:31  5-MIN KBKB 230945Z AUTO 00000KT 10SM CLR 17/16 A3005 180 96 500 000/00 RMK AO2 T01670161 $
53988KBKB BKB20190423035011604/23/19 03:50:31  5-MIN KBKB 230950Z AUTO 00000KT 10SM CLR 17/16 A3005 180 96 500 000/00 RMK AO2 SLP202 T01670161 $
53988KBKB BKB20190423035510904/23/19 03:55:31  5-MIN KBKB 230955Z AUTO 00000KT 10SM CLR 17/16 A3005 180 96 500 000/00 RMK AO2 T01670161 $
53988KBKB BKB20190423040010904/23/19 04:00:31  5-MIN KBKB 231000Z AUTO 00000KT 10SM CLR 17/16 A3005 180 96 500 000/00 RMK AO2 T01670161 $
53988KBKB BKB20190423040510904/23/19 04:05:31  5-MIN KBKB 231005Z AUTO 00000KT 10SM CLR 17/16 A3005 180 96 500 000/00 RMK AO2 T01670161 $
53988KBKB BKB20190423041011004/23/19 04:10:31  5-MIN KBKB 231010Z AUTO 00000KT 10SM CLR 16/16 A3005 180 100 400 000/00 RMK AO2 T01610161 $
53988KBKB BKB20190423041511004/23/19 04:15:31  5-MIN KBKB 231015Z AUTO 00000KT 10SM CLR 16/16 A3005 180 100 400 000/00 RMK AO2 T01610161 $
53988KBKB BKB20190423042011004/23/19 04:20:31  5-MIN KBKB 231020Z AUTO 00000KT 10SM CLR 16/16 A3005 180 100 400 000/00 RMK AO2 T01610161 $
53988KBKB BKB20190423042511004/23/19 04:25:31  5-MIN KBKB 231025Z AUTO 00000KT 10SM CLR 16/16 A3005 180 100 400 000/00 RMK AO2 T01610161 $
53988KBKB BKB20190423043010904/23/19 04:30:31  5-MIN KBKB 231030Z AUTO 00000KT 9SM CLR 16/16 A3005 180 100 400 000/00 RMK AO2 T01610161 $
53988KBKB BKB20190423043510804/23/19 04:35:31  5-MIN KBKB 231035Z AUTO 00000KT 8SM CLR 16/16 A3005 180 96 400 000/00 RMK AO2 T01610156 $
53988KBKB BKB20190423044010804/23/19 04:40:31  5-MIN KBKB 231040Z AUTO 00000KT 8SM CLR 16/16 A3005 180 96 400 000/00 RMK AO2 T01610156 $
53988KBKB BKB20190423044510804/23/19 04:45:31  5-MIN KBKB 231045Z AUTO 00000KT 9SM CLR 16/16 A3004 180 96 400 000/00 RMK AO2 T01610156 $
53988KBKB BKB20190423045011504/23/19 04:50:31  5-MIN KBKB 231050Z AUTO 00000KT 9SM CLR 16/16 A3005 180 96 400 000/00 RMK AO2 SLP201 T01610156 $
53988KBKB BKB20190423045510904/23/19 04:55:31  5-MIN KBKB 231055Z AUTO 00000KT 9SM CLR 16/16 A3005 180 100 400 000/00 RMK AO2 T01610161 $
53988KBKB BKB20190423050011004/23/19 05:00:31  5-MIN KBKB 231100Z AUTO 00000KT 10SM CLR 16/16 A3005 180 100 400 000/00 RMK AO2 T01610161 $
53988KBKB BKB20190423050511004/23/19 05:05:31  5-MIN KBKB 231105Z AUTO 00000KT 10SM CLR 16/16 A3004 190 100 400 000/00 RMK AO2 T01610161 $
53988KBKB BKB20190423051010904/23/19 05:10:31  5-MIN KBKB 231110Z AUTO 00000KT 9SM CLR 16/16 A3004 190 100 400 000/00 RMK AO2 T01610161 $
53988KBKB BKB20190423051510804/23/19 05:15:31  5-MIN KBKB 231115Z AUTO 00000KT 9SM CLR 17/16 A3004 180 96 500 000/00 RMK AO2 T01670161 $
53988KBKB BKB20190423052010904/23/19 05:20:31  5-MIN KBKB 231120Z AUTO 00000KT 10SM CLR 17/16 A3004 180 96 500 000/00 RMK AO2 T01670161 $
53988KBKB BKB20190423052510904/23/19 05:25:31  5-MIN KBKB 231125Z AUTO 00000KT 10SM CLR 17/16 A3004 180 96 500 000/00 RMK AO2 T01670161 $
53988KBKB BKB20190423053010904/23/19 05:30:31  5-MIN KBKB 231130Z AUTO 00000KT 10SM CLR 17/16 A3004 180 96 500 000/00 RMK AO2 T01670161 $
53988KBKB BKB20190423053510904/23/19 05:35:31  5-MIN KBKB 231135Z AUTO 00000KT 10SM CLR 17/16 A3004 190 96 500 000/00 RMK AO2 T01670161 $
53988KBKB BKB20190423054010904/23/19 05:40:31  5-MIN KBKB 231140Z AUTO 00000KT 10SM CLR 17/16 A3005 180 96 500 000/00 RMK AO2 T01670161 $
53988KBKB BKB20190423054511004/23/19 05:45:31  5-MIN KBKB 231145Z AUTO 00000KT 10SM CLR 17/17 A3005 180 100 500 000/00 RMK AO2 T01670167 $
53988KBKB BKB20190423054517204/23/19 05:45:31  5-MIN KBKB 231145Z AUTO 00000KT 10SM CLR 17/17 A3005 180 100 500 000/00 RMK AO2 T01670167 $10SM FEW029 17/17 A3008 150 100 400 000/00 RMK AO2 T01670167 $
53988KBKB BKB20190423055013504/23/19 05:50:31  5-MIN KBKB 231150Z AUTO 00000KT 10SM CLR 17/17 A3006 170 100 500 000/00 RMK AO2 SLP205 T01670167 10172 20161 56007 $
53988KBKB BKB20190423055510904/23/19 05:55:31  5-MIN KBKB 231155Z AUTO 00000KT 10SM CLR 17/17 A3006 170 96 500 000/00 RMK AO2 T01720167 $
53988KBKB BKB20190423060011704/23/19 06:00:31  5-MIN KBKB 231200Z AUTO 00000KT 10SM CLR 17/17 A3007 160 100 400 000/00 RMK AO2 PRESRR T01670167 $
53988KBKB BKB20190423060511004/23/19 06:05:31  5-MIN KBKB 231205Z AUTO 00000KT 10SM CLR 17/17 A3007 160 100 400 000/00 RMK AO2 T01670167 $
53988KBKB BKB20190423061011004/23/19 06:10:31  5-MIN KBKB 231210Z AUTO 00000KT 10SM CLR 17/17 A3007 160 100 400 000/00 RMK AO2 T01670167 $
53988KBKB BKB20190423061511004/23/19 06:15:31  5-MIN KBKB 231215Z AUTO 00000KT 10SM CLR 17/17 A3008 150 100 400 000/00 RMK AO2 T01670167 $
53988KBKB BKB20190423062011304/23/19 06:20:31  5-MIN KBKB 231220Z AUTO 00000KT 10SM FEW029 17/17 A3008 150 100 400 000/00 RMK AO2 T01670167 $
53988KBKB BKB20190423062511204/23/19 06:25:31  5-MIN KBKB 231225Z AUTO 00000KT 10SM FEW029 17/16 A3008 150 96 400 000/00 RMK AO2 T01670161 $
53988KBKB BKB20190423063011004/23/19 06:30:31  5-MIN KBKB 231230Z AUTO 00000KT 10SM CLR 17/17 A3008 150 100 400 000/00 RMK AO2 T01670167 $
53988KBKB BKB20190423063511204/23/19 06:35:31  5-MIN KBKB 231235Z AUTO 00000KT 10SM FEW030 17/17 A3008 150 96 500 000/00 RMK AO2 T01720167 $
53988KBKB BKB20190423064011204/23/19 06:40:31  5-MIN KBKB 231240Z AUTO 00000KT 10SM SCT028 17/17 A3009 150 96 500 000/00 RMK AO2 T01720167 $
53988KBKB BKB20190423064511204/23/19 06:45:31  5-MIN KBKB 231245Z AUTO 00000KT 10SM SCT028 17/17 A3009 140 96 500 000/00 RMK AO2 T01720167 $
53988KBKB BKB20190423065012004/23/19 06:50:31  5-MIN KBKB 231250Z AUTO 00000KT 10SM FEW028 17/17 A3009 140 100 500 000/00 RMK AO2 SLP216 T01720172 $
53988KBKB BKB20190423065511304/23/19 06:55:31  5-MIN KBKB 231255Z AUTO 00000KT 10SM FEW028 17/17 A3009 140 100 500 000/00 RMK AO2 T01720172 $
53988KBKB BKB20190423070011204/23/19 07:00:31  5-MIN KBKB 231300Z AUTO 00000KT 10SM FEW028 18/17 A3009 140 96 500 000/00 RMK AO2 T01780172 $
53988KBKB BKB20190423070511204/23/19 07:05:31  5-MIN KBKB 231305Z AUTO 00000KT 10SM FEW028 18/17 A3009 150 96 500 000/00 RMK AO2 T01780172 $
53988KBKB BKB20190423071010904/23/19 07:10:31  5-MIN KBKB 231310Z AUTO 00000KT 10SM CLR 18/17 A3009 140 93 600 000/00 RMK AO2 T01830172 $
53988KBKB BKB20190423071510904/23/19 07:15:31  5-MIN KBKB 231315Z AUTO 00000KT 10SM CLR 18/17 A3009 140 93 600 000/00 RMK AO2 T01830172 $
53988KBKB BKB20190423072010904/23/19 07:20:31  5-MIN KBKB 231320Z AUTO 00000KT 10SM CLR 18/18 A3009 140 96 600 000/00 RMK AO2 T01830178 $
53988KBKB BKB20190423072510904/23/19 07:25:31  5-MIN KBKB 231325Z AUTO 13004KT 10SM CLR 18/17 A3009 140 93 600 120/04 RMK AO2 T01830172 $
53988KBKB BKB20190423073010904/23/19 07:30:31  5-MIN KBKB 231330Z AUTO 12004KT 10SM CLR 18/18 A3009 140 96 600 120/04 RMK AO2 T01830178 $
53988KBKB BKB20190423073510904/23/19 07:35:31  5-MIN KBKB 231335Z AUTO VRB03KT 10SM CLR 19/18 A3009 140 93 700 VRB/03 RMK AO2 T01890178 $
53988KBKB BKB20190423074010904/23/19 07:40:31  5-MIN KBKB 231340Z AUTO 00000KT 10SM CLR 19/18 A3008 150 93 700 000/00 RMK AO2 T01890178 $
53988KBKB BKB20190423074510904/23/19 07:45:31  5-MIN KBKB 231345Z AUTO VRB03KT 10SM CLR 19/18 A3008 150 90 700 VRB/03 RMK AO2 T01940178 $
53988KBKB BKB20190423075011604/23/19 07:50:31  5-MIN KBKB 231350Z AUTO VRB04KT 10SM CLR 19/18 A3008 150 90 700 VRB/04 RMK AO2 SLP215 T01940178 $
53988KBKB BKB20190423075510904/23/19 07:55:31  5-MIN KBKB 231355Z AUTO VRB03KT 10SM CLR 19/18 A3009 150 90 700 VRB/03 RMK AO2 T01940178 $
53988KBKB BKB20190423080011204/23/19 08:00:31  5-MIN KBKB 231400Z AUTO VRB03KT 10SM FEW008 20/18 A3009 140 90 800 VRB/03 RMK AO2 T02000183 $
53988KBKB BKB20190423080511204/23/19 08:05:31  5-MIN KBKB 231405Z AUTO VRB03KT 10SM FEW008 20/18 A3009 140 90 800 VRB/03 RMK AO2 T02000183 $
53988KBKB BKB20190423081011204/23/19 08:10:31  5-MIN KBKB 231410Z AUTO 00000KT 10SM FEW010 20/18 A3009 140 90 800 000/00 RMK AO2 T02000183 $
53988KBKB BKB20190423081510204/23/19 08:15:31  5-MIN KBKB 231415Z AUTO 10SM FEW010 20/18 A3009 140 90 800 M /M RMK AO2 T02000183 $
53988KBKB BKB20190423082011204/23/19 08:20:31  5-MIN KBKB 231420Z AUTO 00000KT 10SM FEW010 21/18 A3009 140 87 900 000/00 RMK AO2 T02060183 $
53988KBKB BKB20190423082511204/23/19 08:25:31  5-MIN KBKB 231425Z AUTO VRB03KT 10SM SCT010 21/18 A3009 140 87 900 VRB/03 RMK AO2 T02060183 $
53988KBKB BKB20190423083011204/23/19 08:30:31  5-MIN KBKB 231430Z AUTO VRB03KT 10SM FEW010 21/18 A3009 140 84 900 VRB/03 RMK AO2 T02060178 $
53988KBKB BKB20190423083511204/23/19 08:35:31  5-MIN KBKB 231435Z AUTO 18003KT 10SM FEW010 21/18 A3009 140 87 900 180/03 RMK AO2 T02060183 $
53988KBKB BKB20190423084011204/23/19 08:40:31  5-MIN KBKB 231440Z AUTO VRB03KT 10SM FEW010 21/18 A3009 140 87 900 VRB/03 RMK AO2 T02060183 $
53988KBKB BKB20190423084511304/23/19 08:45:31  5-MIN KBKB 231445Z AUTO VRB03KT 10SM FEW010 22/18 A3008 150 81 1000 VRB/03 RMK AO2 T02170183 $
53988KBKB BKB20190423085012604/23/19 08:50:31  5-MIN KBKB 231450Z AUTO VRB04KT 10SM FEW011 22/18 A3008 150 81 1000 VRB/04 RMK AO2 SLP215 T02170183 53005 $
53988KBKB BKB20190423085511304/23/19 08:55:31  5-MIN KBKB 231455Z AUTO 00000KT 10SM FEW011 22/18 A3008 150 81 1000 000/00 RMK AO2 T02170183 $
53988KBKB BKB20190423090011304/23/19 09:00:31  5-MIN KBKB 231500Z AUTO 14005KT 10SM FEW011 22/18 A3008 150 81 1000 140/05 RMK AO2 T02170183 $
53988KBKB BKB20190423090511304/23/19 09:05:31  5-MIN KBKB 231505Z AUTO VRB03KT 10SM FEW011 22/18 A3008 150 75 1100 VRB/03 RMK AO2 T02220178 $
53988KBKB BKB20190423091011004/23/19 09:10:31  5-MIN KBKB 231510Z AUTO VRB03KT 10SM CLR 22/18 A3009 150 75 1100 VRB/03 RMK AO2 T02220178 $
53988KBKB BKB20190423091511004/23/19 09:15:31  5-MIN KBKB 231515Z AUTO VRB05KT 10SM CLR 23/18 A3009 140 76 1100 VRB/05 RMK AO2 T02280183 $
53988KBKB BKB20190423092011304/23/19 09:20:31  5-MIN KBKB 231520Z AUTO VRB04KT 10SM FEW026 23/18 A3009 140 73 1200 VRB/04 RMK AO2 T02330183 $
53988KBKB BKB20190423092511304/23/19 09:25:31  5-MIN KBKB 231525Z AUTO VRB04KT 10SM FEW026 23/18 A3009 140 73 1200 VRB/04 RMK AO2 T02330183 $
53988KBKB BKB20190423093012704/23/19 09:30:31  5-MIN KBKB 231530Z AUTO 00000KT 10SM FEW019 SCT026 SCT033 23/18 A3009 140 73 1200 000/00 RMK AO2 T02330183 $
53988KBKB BKB20190423093511704/23/19 09:35:31  5-MIN KBKB 231535Z AUTO 10SM FEW019 SCT026 BKN033 24/18 A3009 140 68 1200 M /M RMK AO2 T02390178 $
53988KBKB BKB20190423094012704/23/19 09:40:31  5-MIN KBKB 231540Z AUTO VRB03KT 10SM FEW019 SCT027 BKN033 24/18 A3008 150 71 1300 VRB/03 RMK AO2 T02390183 $
53988KBKB BKB20190423094512704/23/19 09:45:31  5-MIN KBKB 231545Z AUTO VRB03KT 10SM SCT021 BKN027 BKN033 24/18 A3008 150 68 1300 VRB/03 RMK AO2 T02390178 $
53988KBKB BKB20190423095011704/23/19 09:50:31  5-MIN KBKB 231550Z AUTO VRB06KT 10SM SCT021 BKN028 BKN034 23/18 A3008 150 73 1200 VRB/06 RMK AO2 $
53988KBKB BKB20190423095512704/23/19 09:55:31  5-MIN KBKB 231555Z AUTO VRB04KT 10SM SCT021 BKN028 BKN034 23/18 A3008 160 73 1100 VRB/04 RMK AO2 T02280178 $
53988KBKB BKB20190423100012704/23/19 10:00:31  5-MIN KBKB 231600Z AUTO VRB04KT 10SM SCT021 BKN028 BKN034 23/18 A3007 160 70 1200 VRB/04 RMK AO2 T02330178 $
53988KBKB BKB20190423100512004/23/19 10:05:31  5-MIN KBKB 231605Z AUTO VRB05KT 10SM SCT021 BKN032 23/18 A3007 160 70 1200 VRB/05 RMK AO2 T02330178 $
53988KBKB BKB20190423101012004/23/19 10:10:31  5-MIN KBKB 231610Z AUTO VRB03KT 10SM BKN023 BKN030 23/18 A3007 160 73 1100 VRB/03 RMK AO2 T02280178 $
53988KBKB BKB20190423101511304/23/19 10:15:31  5-MIN KBKB 231615Z AUTO VRB03KT 10SM SCT023 23/18 A3006 170 73 1200 VRB/03 RMK AO2 T02280178 $
53988KBKB BKB20190423102011304/23/19 10:20:31  5-MIN KBKB 231620Z AUTO VRB05KT 10SM FEW023 23/18 A3006 170 73 1200 VRB/05 RMK AO2 T02280178 $
53988KBKB BKB20190423102511304/23/19 10:25:31  5-MIN KBKB 231625Z AUTO VRB04KT 10SM FEW023 23/18 A3006 170 73 1200 VRB/04 RMK AO2 T02280178 $
53988KBKB BKB20190423103011304/23/19 10:30:31  5-MIN KBKB 231630Z AUTO VRB03KT 10SM FEW023 23/18 A3007 160 73 1100 VRB/03 RMK AO2 T02280178 $
53988KBKB BKB20190423103511304/23/19 10:35:31  5-MIN KBKB 231635Z AUTO VRB04KT 10SM FEW023 23/18 A3007 160 73 1100 VRB/04 RMK AO2 T02280178 $
53988KBKB BKB20190423104011304/23/19 10:40:31  5-MIN KBKB 231640Z AUTO 00000KT 10SM FEW023 23/18 A3007 160 73 1100 000/00 RMK AO2 T02280178 $
53988KBKB BKB20190423104511004/23/19 10:45:31  5-MIN KBKB 231645Z AUTO VRB03KT 10SM CLR 23/18 A3007 160 73 1100 VRB/03 RMK AO2 T02280178 $
53988KBKB BKB20190423105012704/23/19 10:50:31  5-MIN KBKB 231650Z AUTO 00000KT 10SM FEW023 FEW031 23/18 A3008 160 76 1100 000/00 RMK AO2 SLP211 T02280183 $
53988KBKB BKB20190423105512004/23/19 10:55:31  5-MIN KBKB 231655Z AUTO VRB04KT 10SM FEW023 SCT031 23/18 A3008 160 76 1100 VRB/04 RMK AO2 T02280183 $
53988KBKB BKB20190423110012004/23/19 11:00:31  5-MIN KBKB 231700Z AUTO VRB04KT 10SM FEW023 SCT031 23/18 A3007 160 76 1100 VRB/04 RMK AO2 T02280183 $
53988KBKB BKB20190423110512004/23/19 11:05:31  5-MIN KBKB 231705Z AUTO VRB03KT 10SM FEW023 SCT030 23/18 A3008 150 73 1200 VRB/03 RMK AO2 T02330183 $
53988KBKB BKB20190423111012004/23/19 11:10:31  5-MIN KBKB 231710Z AUTO 00000KT 10SM FEW023 SCT030 23/18 A3008 150 76 1100 000/00 RMK AO2 T02280183 $
53988KBKB BKB20190423111512004/23/19 11:15:31  5-MIN KBKB 231715Z AUTO VRB04KT 10SM FEW023 SCT029 23/18 A3008 150 73 1100 VRB/04 RMK AO2 T02280178 $
53988KBKB BKB20190423112012004/23/19 11:20:31  5-MIN KBKB 231720Z AUTO VRB03KT 10SM FEW023 SCT032 23/18 A3007 160 73 1200 VRB/03 RMK AO2 T02330183 $
53988KBKB BKB20190423112512004/23/19 11:25:31  5-MIN KBKB 231725Z AUTO VRB03KT 10SM FEW023 FEW034 23/18 A3007 160 73 1200 VRB/03 RMK AO2 T02330183 $
53988KBKB BKB20190423113012004/23/19 11:30:31  5-MIN KBKB 231730Z AUTO VRB04KT 10SM FEW023 FEW032 23/18 A3007 160 73 1200 VRB/04 RMK AO2 T02330183 $
53988KBKB BKB20190423113511304/23/19 11:35:31  5-MIN KBKB 231735Z AUTO 13005KT 10SM FEW023 23/18 A3007 160 73 1100 130/05 RMK AO2 T02280178 $
53988KBKB BKB20190423114011304/23/19 11:40:31  5-MIN KBKB 231740Z AUTO VRB04KT 10SM FEW023 23/18 A3007 160 73 1200 VRB/04 RMK AO2 T02330183 $
53988KBKB BKB20190423114511304/23/19 11:45:31  5-MIN KBKB 231745Z AUTO 00000KT 10SM FEW023 23/18 A3007 160 73 1100 000/00 RMK AO2 T02280178 $
53988KBKB BKB20190423115013504/23/19 11:50:31  5-MIN KBKB 231750Z AUTO VRB04KT 10SM CLR 23/18 A3007 160 73 1200 VRB/04 RMK AO2 SLP208 T02330183 10239 20167 50007 $
53988KBKB BKB20190423115511004/23/19 11:55:31  5-MIN KBKB 231755Z AUTO VRB04KT 10SM CLR 23/18 A3006 170 73 1200 VRB/04 RMK AO2 T02330183 $
53988KBKB BKB20190423120011004/23/19 12:00:31  5-MIN KBKB 231800Z AUTO VRB03KT 10SM CLR 23/18 A3006 170 73 1200 VRB/03 RMK AO2 T02330183 $
53988KBKB BKB20190423120511304/23/19 12:05:31  5-MIN KBKB 231805Z AUTO VRB05KT 10SM FEW026 23/18 A3006 170 76 1200 VRB/05 RMK AO2 T02280183 $
53988KBKB BKB20190423121011304/23/19 12:10:31  5-MIN KBKB 231810Z AUTO 00000KT 10SM FEW024 23/18 A3006 170 73 1200 000/00 RMK AO2 T02330183 $
53988KBKB BKB20190423121511304/23/19 12:15:31  5-MIN KBKB 231815Z AUTO VRB03KT 10SM FEW024 23/18 A3006 170 76 1200 VRB/03 RMK AO2 T02280183 $
53988KBKB BKB20190423122011304/23/19 12:20:31  5-MIN KBKB 231820Z AUTO 00000KT 10SM SCT025 23/18 A3007 160 73 1200 000/00 RMK AO2 T02330183 $
53988KBKB BKB20190423122511304/23/19 12:25:31  5-MIN KBKB 231825Z AUTO VRB03KT 10SM SCT025 23/18 A3007 160 76 1100 VRB/03 RMK AO2 T02280183 $
53988KBKB BKB20190423123011304/23/19 12:30:31  5-MIN KBKB 231830Z AUTO VRB03KT 10SM SCT026 23/18 A3006 170 73 1200 VRB/03 RMK AO2 T02330183 $
53988KBKB BKB20190423123512004/23/19 12:35:31  5-MIN KBKB 231835Z AUTO VRB03KT 10SM FEW026 SCT035 23/18 A3007 160 73 1100 VRB/03 RMK AO2 T02280178 $
53988KBKB BKB20190423124011004/23/19 12:40:31  5-MIN KBKB 231840Z AUTO 10SM FEW026 FEW035 23/18 A3006 160 70 1200 M /M RMK AO2 T02330178 $
53988KBKB BKB20190423124512004/23/19 12:45:31  5-MIN KBKB 231845Z AUTO VRB04KT 10SM FEW026 FEW044 23/18 A3006 170 73 1200 VRB/04 RMK AO2 T02280178 $
53988KBKB BKB20190423125013404/23/19 12:50:31  5-MIN KBKB 231850Z AUTO VRB04KT 10SM FEW026 FEW034 SCT042 23/18 A3006 170 73 1200 VRB/04 RMK AO2 SLP206 T02280178 $
53988KBKB BKB20190423125512704/23/19 12:55:31  5-MIN KBKB 231855Z AUTO VRB03KT 10SM FEW026 FEW036 SCT044 23/18 A3006 170 76 1200 VRB/03 RMK AO2 T02280183 $
53988KBKB BKB20190423130012004/23/19 13:00:31  5-MIN KBKB 231900Z AUTO 00000KT 10SM FEW026 FEW038 23/18 A3006 170 73 1200 000/00 RMK AO2 T02330183 $
53988KBKB BKB20190423130511304/23/19 13:05:31  5-MIN KBKB 231905Z AUTO VRB04KT 10SM FEW040 23/18 A3005 180 76 1200 VRB/04 RMK AO2 T02280183 $
53988KBKB BKB20190423131011304/23/19 13:10:31  5-MIN KBKB 231910Z AUTO 00000KT 10SM FEW040 23/18 A3005 180 76 1200 000/00 RMK AO2 T02280183 $
53988KBKB BKB20190423131511304/23/19 13:15:31  5-MIN KBKB 231915Z AUTO VRB03KT 10SM FEW038 23/18 A3005 180 76 1200 VRB/03 RMK AO2 T02280183 $
53988KBKB BKB20190423132011004/23/19 13:20:31  5-MIN KBKB 231920Z AUTO 00000KT 10SM CLR 23/18 A3005 180 76 1200 000/00 RMK AO2 T02280183 $
53988KBKB BKB20190423132511004/23/19 13:25:31  5-MIN KBKB 231925Z AUTO VRB03KT 10SM CLR 23/18 A3005 180 76 1200 VRB/03 RMK AO2 T02280183 $
53988KBKB BKB20190423133011304/23/19 13:30:31  5-MIN KBKB 231930Z AUTO 00000KT 10SM FEW026 23/18 A3004 190 76 1200 000/00 RMK AO2 T02280183 $
53988KBKB BKB20190423133512704/23/19 13:35:31  5-MIN KBKB 231935Z AUTO VRB03KT 10SM FEW026 FEW100 SCT120 23/18 A3004 190 76 1200 VRB/03 RMK AO2 T02280183 $
53988KBKB BKB20190423134013604/23/19 13:40:31  5-MIN KBKB 231940Z AUTO VRB04KT 10SM -RA FEW024 SCT110 23/18 A3003 190 76 1200 VRB/04 RMK AO2 RAB40 P0000 T02280183 $
53988KBKB BKB20190423134513604/23/19 13:45:31  5-MIN KBKB 231945Z AUTO 00000KT 10SM -RA FEW024 BKN110 23/18 A3003 200 76 1200 000/00 RMK AO2 RAB40 P0000 T02280183 $
53988KBKB BKB20190423135015004/23/19 13:50:31  5-MIN KBKB 231950Z AUTO VRB03KT 10SM -RA FEW025 FEW100 BKN120 23/18 A3003 200 76 1200 VRB/03 RMK AO2 RAB40 SLP196 P0000 T02280183 $
53988KBKB BKB20190423135512004/23/19 13:55:31  5-MIN KBKB 231955Z AUTO VRB03KT 10SM FEW025 BKN110 23/18 A3003 200 76 1200 VRB/03 RMK AO2 T02280183 $
53988KBKB BKB20190423140011304/23/19 14:00:31  5-MIN KBKB 232000Z AUTO 00000KT 10SM BKN110 23/18 A3002 200 76 1200 000/00 RMK AO2 T02280183 $
53988KBKB BKB20190423140511304/23/19 14:05:31  5-MIN KBKB 232005Z AUTO 00000KT 10SM BKN110 23/18 A3002 200 73 1300 000/00 RMK AO2 T02330183 $
53988KBKB BKB20190423141011304/23/19 14:10:31  5-MIN KBKB 232010Z AUTO 00000KT 10SM SCT110 23/18 A3002 210 73 1300 000/00 RMK AO2 T02330183 $
53988KBKB BKB20190423141511304/23/19 14:15:31  5-MIN KBKB 232015Z AUTO 00000KT 10SM FEW110 23/18 A3001 210 73 1300 000/00 RMK AO2 T02330183 $
53988KBKB BKB20190423142011304/23/19 14:20:31  5-MIN KBKB 232020Z AUTO VRB03KT 10SM FEW110 23/18 A3001 220 73 1300 VRB/03 RMK AO2 T02330183 $
53988KBKB BKB20190423142511704/23/19 14:25:31  5-MIN KBKB 232025Z AUTO VRB04KT 10SM CLR 23/18 A3000 220 73 1300 VRB/04 RMK AO2 PRESFR T02330183 $
53988KBKB BKB20190423143011704/23/19 14:30:31  5-MIN KBKB 232030Z AUTO VRB05KT 10SM CLR 23/18 A3000 230 73 1300 VRB/05 RMK AO2 PRESFR T02330183 $
53988KBKB BKB20190423143511004/23/19 14:35:31  5-MIN KBKB 232035Z AUTO VRB04KT 10SM CLR 23/18 A2999 230 73 1300 VRB/04 RMK AO2 T02330183 $
53988KBKB BKB20190423144011304/23/19 14:40:31  5-MIN KBKB 232040Z AUTO 00000KT 10SM FEW023 23/18 A2999 230 73 1300 000/00 RMK AO2 T02330183 $
53988KBKB BKB20190423144511304/23/19 14:45:31  5-MIN KBKB 232045Z AUTO VRB04KT 10SM FEW023 23/18 A2999 240 73 1300 VRB/04 RMK AO2 T02330183 $
53988KBKB BKB20190423145013204/23/19 14:50:31  5-MIN KBKB 232050Z AUTO VRB05KT 10SM SCT023 23/18 A2998 240 73 1300 VRB/05 RMK AO2 SLP180 60000 T02330183 58005 $
53988KBKB BKB20190423145511304/23/19 14:55:31  5-MIN KBKB 232055Z AUTO VRB03KT 10SM FEW023 23/18 A2998 240 70 1300 VRB/03 RMK AO2 T02330178 $
53988KBKB BKB20190423150011304/23/19 15:00:31  5-MIN KBKB 232100Z AUTO 00000KT 10SM FEW023 23/18 A2998 240 73 1300 000/00 RMK AO2 T02330183 $
53988KBKB BKB20190423150511304/23/19 15:05:31  5-MIN KBKB 232105Z AUTO 00000KT 10SM FEW023 23/18 A2998 240 73 1300 000/00 RMK AO2 T02330183 $
53988KBKB BKB20190423151011304/23/19 15:10:31  5-MIN KBKB 232110Z AUTO VRB04KT 10SM FEW023 24/18 A2998 240 71 1400 VRB/04 RMK AO2 T02390183 $
53988KBKB BKB20190423151511304/23/19 15:15:31  5-MIN KBKB 232115Z AUTO 00000KT 10SM FEW023 24/18 A2998 240 71 1400 000/00 RMK AO2 T02390183 $
53988KBKB BKB20190423152011304/23/19 15:20:31  5-MIN KBKB 232120Z AUTO 13004KT 10SM FEW023 24/18 A2998 240 71 1400 130/04 RMK AO2 T02390183 $
53988KBKB BKB20190423152511304/23/19 15:25:31  5-MIN KBKB 232125Z AUTO VRB03KT 10SM FEW023 23/18 A2998 240 73 1300 VRB/03 RMK AO2 T02330183 $
53988KBKB BKB20190423153011304/23/19 15:30:31  5-MIN KBKB 232130Z AUTO 00000KT 10SM FEW023 24/18 A2998 240 71 1400 000/00 RMK AO2 T02390183 $
53988KBKB BKB20190423153511304/23/19 15:35:31  5-MIN KBKB 232135Z AUTO VRB04KT 10SM FEW023 24/18 A2998 240 71 1400 VRB/04 RMK AO2 T02390183 $
53988KBKB BKB20190423154011304/23/19 15:40:31  5-MIN KBKB 232140Z AUTO VRB03KT 10SM FEW023 23/18 A2998 240 73 1300 VRB/03 RMK AO2 T02330183 $
53988KBKB BKB20190423154511304/23/19 15:45:31  5-MIN KBKB 232145Z AUTO 00000KT 10SM FEW025 23/18 A2998 240 73 1300 000/00 RMK AO2 T02330183 $
53988KBKB BKB20190423155012004/23/19 15:50:31  5-MIN KBKB 232150Z AUTO VRB04KT 10SM FEW025 23/18 A2998 240 73 1300 VRB/04 RMK AO2 SLP179 T02330183 $
53988KBKB BKB20190423155511304/23/19 15:55:31  5-MIN KBKB 232155Z AUTO 20004KT 10SM FEW023 23/18 A2999 240 73 1300 200/04 RMK AO2 T02330183 $
53988KBKB BKB20190423160012004/23/19 16:00:31  5-MIN KBKB 232200Z AUTO 00000KT 10SM FEW023 FEW031 23/18 A2999 230 70 1300 000/00 RMK AO2 T02330178 $
53988KBKB BKB20190423160512004/23/19 16:05:31  5-MIN KBKB 232205Z AUTO 00000KT 10SM SCT029 24/18 A3000 220 68 1300 000/00 RMK AO2 PRESRR T02390178 $
53988KBKB BKB20190423161012004/23/19 16:10:31  5-MIN KBKB 232210Z AUTO 00000KT 10SM SCT027 BKN033 23/18 A3001 220 70 1300 000/00 RMK AO2 T02330178 $
53988KBKB BKB20190423161512704/23/19 16:15:31  5-MIN KBKB 232215Z AUTO 00000KT 10SM SCT027 BKN033 BKN043 23/18 A3001 210 73 1300 000/00 RMK AO2 T02330183 $
53988KBKB BKB20190423162012004/23/19 16:20:31  5-MIN KBKB 232220Z AUTO VRB04KT 10SM BKN029 BKN040 23/18 A3002 210 70 1300 VRB/04 RMK AO2 T02330178 $
53988KBKB BKB20190423162512704/23/19 16:25:31  5-MIN KBKB 232225Z AUTO 00000KT 10SM BKN027 BKN032 OVC040 23/18 A3001 210 70 1300 000/00 RMK AO2 T02330178 $
53988KBKB BKB20190423163012704/23/19 16:30:31  5-MIN KBKB 232230Z AUTO VRB03KT 10SM BKN027 BKN032 OVC045 23/18 A3001 220 73 1300 VRB/03 RMK AO2 T02330183 $
53988KBKB BKB20190423163512704/23/19 16:35:31  5-MIN KBKB 232235Z AUTO 00000KT 10SM FEW025 BKN030 OVC045 23/18 A3001 220 73 1300 000/00 RMK AO2 T02330183 $
53988KBKB BKB20190423164012004/23/19 16:40:31  5-MIN KBKB 232240Z AUTO 00000KT 10SM SCT028 OVC045 23/18 A3001 220 73 1300 000/00 RMK AO2 T02330183 $
53988KBKB BKB20190423164512704/23/19 16:45:31  5-MIN KBKB 232245Z AUTO 00000KT 10SM FEW026 BKN044 OVC050 24/18 A3000 220 71 1300 000/00 RMK AO2 T02390183 $
53988KBKB BKB20190423165013404/23/19 16:50:31  5-MIN KBKB 232250Z AUTO 00000KT 10SM FEW026 FEW030 BKN048 23/18 A3001 220 73 1300 000/00 RMK AO2 SLP188 T02330183 $
53988KBKB BKB20190423165512704/23/19 16:55:31  5-MIN KBKB 232255Z AUTO 00000KT 10SM FEW030 SCT044 BKN050 23/18 A3000 220 73 1300 000/00 RMK AO2 T02330183 $
53988KBKB BKB20190423170011304/23/19 17:00:31  5-MIN KBKB 232300Z AUTO 00000KT 10SM BKN050 23/18 A3000 220 73 1300 000/00 RMK AO2 T02330183 $
53988KBKB BKB20190423170512004/23/19 17:05:31  5-MIN KBKB 232305Z AUTO 00000KT 10SM FEW029 BKN050 23/18 A3000 230 73 1300 000/00 RMK AO2 T02330183 $
53988KBKB BKB20190423171012704/23/19 17:10:31  5-MIN KBKB 232310Z AUTO 00000KT 10SM FEW028 FEW033 BKN048 23/18 A3000 230 76 1200 000/00 RMK AO2 T02280183 $
53988KBKB BKB20190423171512704/23/19 17:15:31  5-MIN KBKB 232315Z AUTO 00000KT 10SM FEW028 SCT033 BKN043 23/18 A3000 230 76 1200 000/00 RMK AO2 T02280183 $
53988KBKB BKB20190423172012704/23/19 17:20:31  5-MIN KBKB 232320Z AUTO 00000KT 10SM FEW028 BKN043 OVC050 22/18 A3000 230 78 1200 000/00 RMK AO2 T02220183 $
53988KBKB BKB20190423172512704/23/19 17:25:31  5-MIN KBKB 232325Z AUTO 00000KT 10SM FEW026 SCT036 OVC046 22/18 A3000 230 78 1200 000/00 RMK AO2 T02220183 $
53988KBKB BKB20190423173012704/23/19 17:30:31  5-MIN KBKB 232330Z AUTO 00000KT 10SM SCT026 BKN036 OVC046 22/18 A3000 230 78 1200 000/00 RMK AO2 T02220183 $
53988KBKB BKB20190423173512704/23/19 17:35:31  5-MIN KBKB 232335Z AUTO 00000KT 10SM SCT026 BKN034 OVC049 22/18 A3000 230 78 1200 000/00 RMK AO2 T02220183 $
53988KBKB BKB20190423174012704/23/19 17:40:31  5-MIN KBKB 232340Z AUTO 00000KT 10SM SCT024 BKN032 OVC055 22/18 A3000 230 78 1200 000/00 RMK AO2 T02220183 $
53988KBKB BKB20190423174512704/23/19 17:45:31  5-MIN KBKB 232345Z AUTO 00000KT 10SM SCT024 SCT036 BKN044 22/18 A2999 230 78 1200 000/00 RMK AO2 T02220183 $
53988KBKB BKB20190423175015804/23/19 17:50:31  5-MIN KBKB 232350Z AUTO 00000KT 10SM FEW024 SCT036 BKN050 22/18 A2999 230 78 1200 000/00 RMK AO2 SLP182 60000 T02220183 10239 20222 58026 $
53988KBKB BKB20190423175512704/23/19 17:55:31  5-MIN KBKB 232355Z AUTO 00000KT 10SM FEW025 SCT050 SCT060 22/18 A2999 240 78 1200 000/00 RMK AO2 T02220183 $
53988KBKB BKB20190423180012004/23/19 18:00:31  5-MIN KBKB 240000Z AUTO 00000KT 10SM FEW025 SCT055 22/18 A2998 240 78 1200 000/00 RMK AO2 T02220183 $
53988KBKB BKB20190423180511304/23/19 18:05:31  5-MIN KBKB 240005Z AUTO 00000KT 10SM FEW023 22/18 A2999 240 81 1100 000/00 RMK AO2 T02170183 $
53988KBKB BKB20190423181011304/23/19 18:10:31  5-MIN KBKB 240010Z AUTO 00000KT 10SM SCT100 22/18 A2999 240 81 1100 000/00 RMK AO2 T02170183 $
53988KBKB BKB20190423181511304/23/19 18:15:31  5-MIN KBKB 240015Z AUTO 00000KT 10SM SCT100 22/18 A2998 240 81 1100 000/00 RMK AO2 T02170183 $
53988KBKB BKB20190423182011304/23/19 18:20:31  5-MIN KBKB 240020Z AUTO 00000KT 10SM FEW100 22/18 A2998 240 81 1100 000/00 RMK AO2 T02170183 $
53988KBKB BKB20190423182511304/23/19 18:25:31  5-MIN KBKB 240025Z AUTO 00000KT 10SM FEW100 21/18 A2999 240 84 1000 000/00 RMK AO2 T02110183 $
53988KBKB BKB20190423183011304/23/19 18:30:31  5-MIN KBKB 240030Z AUTO 00000KT 10SM FEW100 21/18 A2999 240 84 1000 000/00 RMK AO2 T02110183 $
53988KBKB BKB20190423183511304/23/19 18:35:31  5-MIN KBKB 240035Z AUTO 00000KT 10SM FEW100 21/18 A2998 240 84 1000 000/00 RMK AO2 T02110183 $
53988KBKB BKB20190423184011004/23/19 18:40:31  5-MIN KBKB 240040Z AUTO 00000KT 10SM CLR 21/18 A2998 240 84 1100 000/00 RMK AO2 T02110183 $
53988KBKB BKB20190423184511004/23/19 18:45:31  5-MIN KBKB 240045Z AUTO 12003KT 10SM CLR 21/18 A2997 250 84 1100 110/03 RMK AO2 T02110183 $
53988KBKB BKB20190423185012404/23/19 18:50:31  5-MIN KBKB 240050Z AUTO VRB04KT 10SM CLR 21/18 A2996 260 87 1000 VRB/04 RMK AO2 PRESFR SLP172 T02060183 $
53988KBKB BKB20190423185511004/23/19 18:55:31  5-MIN KBKB 240055Z AUTO VRB04KT 10SM CLR 21/18 A2997 250 84 1100 VRB/04 RMK AO2 T02110183 $
53988KBKB BKB20190423190011004/23/19 19:00:31  5-MIN KBKB 240100Z AUTO VRB03KT 10SM CLR 21/18 A2999 230 84 1000 VRB/03 RMK AO2 T02110183 $
53988KBKB BKB20190423190511004/23/19 19:05:31  5-MIN KBKB 240105Z AUTO 00000KT 10SM CLR 21/18 A2999 230 87 1000 000/00 RMK AO2 T02060183 $
53988KBKB BKB20190424030511104/24/19 03:05:31  5-MIN KBKB 240905Z AUTO 00000KT 5SM BR CLR 17/16 A2994 280 96 600 000/00 RMK AO2 T01670161 $
53988KBKB BKB20190424031011204/24/19 03:10:31  5-MIN KBKB 240910Z AUTO 00000KT 5SM BR CLR 16/16 A2994 280 100 500 000/00 RMK AO2 T01610161 $
53988KBKB BKB20190424031511204/24/19 03:15:31  5-MIN KBKB 240915Z AUTO 00000KT 4SM BR CLR 16/16 A2995 270 100 500 000/00 RMK AO2 T01610161 $
53988KBKB BKB20190424032011104/24/19 03:20:31  5-MIN KBKB 240920Z AUTO 00000KT 5SM BR CLR 17/16 A2995 270 96 600 000/00 RMK AO2 T01670161 $
53988KBKB BKB20190424032510804/24/19 03:25:31  5-MIN KBKB 240925Z AUTO 00000KT 7SM CLR 17/16 A2995 270 96 600 000/00 RMK AO2 T01670161 $
53988KBKB BKB20190424033007504/24/19 03:30:31  5-MIN KBKB 240930Z AUTO 00000KT 8SM CLR 16/16 A2995 270 
53988KBKB BKB20190424195013104/24/19 19:50:31  5-MIN KBKB 250150Z AUTO 00000KT 9SM SCT029 BKN035 BKN048 22/18 A2981 400 78 1400 000/00 RMK AO2 SLP120 T02220183
53988KBKB BKB20190424195511704/24/19 19:55:31  5-MIN KBKB 250155Z AUTO 00000KT 8SM SCT029 BKN048 22/18 A2981 400 81 1300 000/00 RMK AO2 T02170183
53988KBKB BKB20190424200012404/24/19 20:00:31  5-MIN KBKB 250200Z AUTO 00000KT 7SM FEW029 FEW035 BKN047 22/18 A2981 400 81 1300 000/00 RMK AO2 T02170183
53988KBKB BKB20190424200511704/24/19 20:05:31  5-MIN KBKB 250205Z AUTO 00000KT 7SM FEW029 SCT047 21/18 A2981 400 84 1200 000/00 RMK AO2 T02110183
53988KBKB BKB20190424201012004/24/19 20:10:31  5-MIN KBKB 250210Z AUTO 00000KT 6SM HZ FEW029 SCT047 21/18 A2981 400 84 1200 000/00 RMK AO2 T02110183
53988KBKB BKB20190424201511304/24/19 20:15:31  5-MIN KBKB 250215Z AUTO 00000KT 6SM HZ FEW027 21/18 A2981 400 84 1200 000/00 RMK AO2 T02110183
53988KBKB BKB20190424202011304/24/19 20:20:31  5-MIN KBKB 250220Z AUTO 00000KT 6SM HZ SCT025 21/18 A2982 390 84 1200 000/00 RMK AO2 T02110183
53988KBKB BKB20190424202511004/24/19 20:25:31  5-MIN KBKB 250225Z AUTO 00000KT 7SM SCT025 21/18 A2982 390 84 1200 000/00 RMK AO2 T02110183
53988KBKB BKB20190424203011704/24/19 20:30:31  5-MIN KBKB 250230Z AUTO 00000KT 7SM SCT025 21/18 A2983 380 84 1200 000/00 RMK AO2 PRESRR T02110183
53988KBKB BKB20190424203511304/24/19 20:35:31  5-MIN KBKB 250235Z AUTO 00000KT 6SM BR BKN025 21/18 A2983 380 87 1200 000/00 RMK AO2 T02060183
53988KBKB BKB20190424204011004/24/19 20:40:31  5-MIN KBKB 250240Z AUTO 00000KT 7SM BKN025 21/18 A2983 380 87 1200 000/00 RMK AO2 T02060183
53988KBKB BKB20190424204511704/24/19 20:45:31  5-MIN KBKB 250245Z AUTO 00000KT 7SM BKN025 BKN033 21/19 A2982 390 90 1200 000/00 RMK AO2 T02060189
53988KBKB BKB20190424205013004/24/19 20:50:31  5-MIN KBKB 250250Z AUTO 00000KT 7SM BKN025 BKN033 21/18 A2983 390 87 1200 000/00 RMK AO2 SLP126 T02060183 56019
53988KBKB BKB20190424205511704/24/19 20:55:31  5-MIN KBKB 250255Z AUTO 00000KT 7SM BKN025 BKN033 21/18 A2982 390 87 1200 000/00 RMK AO2 T02060183
53988KBKB BKB20190424210011704/24/19 21:00:31  5-MIN KBKB 250300Z AUTO VRB03KT 7SM BKN025 BKN033 21/18 A2982 390 87 1200 VRB/03 RMK AO2 T02060183
53988KBKB BKB20190424210512404/24/19 21:05:31  5-MIN KBKB 250305Z AUTO 00000KT 7SM FEW022 SCT028 BKN033 21/18 A2983 390 87 1200 000/00 RMK AO2 T02060183
53988KBKB BKB20190424211012404/24/19 21:10:31  5-MIN KBKB 250310Z AUTO VRB03KT 7SM FEW022 SCT028 BKN080 21/19 A2982 390 87 1200 VRB/03 RMK AO2 T02110189
53988KBKB BKB20190424211512404/24/19 21:15:31  5-MIN KBKB 250315Z AUTO VRB03KT 7SM FEW022 FEW033 BKN080 21/19 A2983 390 87 1200 VRB/03 RMK AO2 T02110189
53988KBKB BKB20190424212011704/24/19 21:20:31  5-MIN KBKB 250320Z AUTO 00000KT 7SM FEW020 SCT080 21/19 A2982 390 87 1200 000/00 RMK AO2 T02110189
53988KBKB BKB20190424212511704/24/19 21:25:31  5-MIN KBKB 250325Z AUTO 00000KT 8SM SCT018 SCT080 21/19 A2983 380 87 1200 000/00 RMK AO2 T02110189
53988KBKB BKB20190424213011704/24/19 21:30:31  5-MIN KBKB 250330Z AUTO VRB03KT 9SM FEW016 SCT080 21/19 A2983 380 87 1200 VRB/03 RMK AO2 T02110189
53988KBKB BKB20190424213511804/24/19 21:35:31  5-MIN KBKB 250335Z AUTO 00000KT 10SM SCT016 BKN080 22/19 A2983 380 84 1300 000/00 RMK AO2 T02170189
53988KBKB BKB20190424214011104/24/19 21:40:31  5-MIN KBKB 250340Z AUTO VRB03KT 10SM BKN016 22/19 A2983 380 87 1300 VRB/03 RMK AO2 T02170194
53988KBKB BKB20190424214511104/24/19 21:45:31  5-MIN KBKB 250345Z AUTO VRB03KT 10SM BKN015 22/19 A2982 390 87 1300 VRB/03 RMK AO2 T02170194
53988KBKB BKB20190424215010104/24/19 21:50:31  5-MIN KBKB 250350Z AUTO VRB04KT 10SM SCT015 21/19 A2982 390 90 1200 VRB/04 RMK AO2
53988KBKB BKB20190424215511104/24/19 21:55:31  5-MIN KBKB 250355Z AUTO VRB04KT 10SM SCT015 22/19 A2982 390 87 1300 VRB/04 RMK AO2 T02170194
53988KBKB BKB20190424220011004/24/19 22:00:31  5-MIN KBKB 250400Z AUTO VRB03KT 9SM SCT015 21/19 A2982 400 90 1200 VRB/03 RMK AO2 T02110194
53988KBKB BKB20190424220511004/24/19 22:05:31  5-MIN KBKB 250405Z AUTO VRB03KT 9SM FEW015 21/19 A2981 400 90 1200 VRB/03 RMK AO2 T02110194
53988KBKB BKB20190424221011104/24/19 22:10:31  5-MIN KBKB 250410Z AUTO VRB03KT 10SM FEW015 21/19 A2981 400 90 1200 VRB/03 RMK AO2 T02110194
53988KBKB BKB20190424221511104/24/19 22:15:31  5-MIN KBKB 250415Z AUTO VRB05KT 10SM FEW015 21/19 A2981 400 90 1200 VRB/05 RMK AO2 T02110194
53988KBKB BKB20190424222010104/24/19 22:20:31  5-MIN KBKB 250420Z AUTO 10SM FEW014 21/19 A2981 400 90 1200 M /M RMK AO2 T02110194
53988KBKB BKB20190424222511104/24/19 22:25:31  5-MIN KBKB 250425Z AUTO VRB04KT 10SM FEW014 21/19 A2980 410 90 1300 VRB/04 RMK AO2 T02110194
53988KBKB BKB20190424223011104/24/19 22:30:31  5-MIN KBKB 250430Z AUTO VRB04KT 10SM FEW013 21/20 A2979 420 93 1300 VRB/04 RMK AO2 T02110200
53988KBKB BKB20190424223511804/24/19 22:35:31  5-MIN KBKB 250435Z AUTO VRB05KT 10SM FEW013 21/20 A2978 430 93 1300 VRB/05 RMK AO2 PRESFR T02110200
53988KBKB BKB20190424224011704/24/19 22:40:31  5-MIN KBKB 250440Z AUTO VRB04KT 8SM FEW013 21/20 A2977 440 93 1300 VRB/04 RMK AO2 PRESFR T02110200
53988KBKB BKB20190424224512004/24/19 22:45:31  5-MIN KBKB 250445Z AUTO 14007KT 6SM BR FEW011 21/20 A2976 440 93 1300 140/07 RMK AO2 PRESFR T02110200
53988KBKB BKB20190424225012004/24/19 22:50:31  5-MIN KBKB 250450Z AUTO VRB04KT 6SM BR FEW011 21/20 A2978 430 93 1300 VRB/04 RMK AO2 SLP110 T02110200
53988KBKB BKB20190424225511304/24/19 22:55:31  5-MIN KBKB 250455Z AUTO VRB05KT 6SM BR FEW010 22/20 A2979 420 90 1300 VRB/05 RMK AO2 T02170200
53988KBKB BKB20190424230011704/24/19 23:00:31  5-MIN KBKB 250500Z AUTO VRB04KT 7SM SCT012 22/20 A2980 410 90 1300 VRB/04 RMK AO2 PRESRR T02170200
53988KBKB BKB20190424230511004/24/19 23:05:31  5-MIN KBKB 250505Z AUTO VRB06KT 9SM BKN012 22/20 A2979 410 90 1300 VRB/06 RMK AO2 T02170200
53988KBKB BKB20190424231011104/24/19 23:10:31  5-MIN KBKB 250510Z AUTO VRB05KT 10SM BKN012 22/20 A2980 410 90 1300 VRB/05 RMK AO2 T02170200
53988KBKB BKB20190424231512304/24/19 23:15:31  5-MIN KBKB 250515Z AUTO VRB04KT 10SM BKN010 22/20 A2979 420 90 1300 VRB/04 RMK AO2 CIG 009V014 T02170200
53988KBKB BKB20190424232011804/24/19 23:20:31  5-MIN KBKB 250520Z AUTO VRB04KT 10SM BKN010 OVC014 22/20 A2978 430 90 1300 VRB/04 RMK AO2 T02170200
53988KBKB BKB20190424232511104/24/19 23:25:31  5-MIN KBKB 250525Z AUTO VRB05KT 10SM OVC010 22/20 A2978 430 90 1300 VRB/05 RMK AO2 T02170200
53988KBKB BKB20190424233011104/24/19 23:30:31  5-MIN KBKB 250530Z AUTO VRB05KT 10SM OVC010 22/20 A2978 430 90 1300 VRB/05 RMK AO2 T02170200
53988KBKB BKB20190424233511104/24/19 23:35:31  5-MIN KBKB 250535Z AUTO VRB04KT 10SM OVC011 22/20 A2977 430 87 1400 VRB/04 RMK AO2 T02220200
53988KBKB BKB20190424234011104/24/19 23:40:31  5-MIN KBKB 250540Z AUTO VRB05KT 10SM OVC011 22/21 A2977 440 90 1400 VRB/05 RMK AO2 T02220206
53988KBKB BKB20190424234511104/24/19 23:45:31  5-MIN KBKB 250545Z AUTO VRB05KT 10SM OVC011 22/21 A2976 450 90 1400 VRB/05 RMK AO2 T02220206
53988KBKB BKB20190424235015304/24/19 23:50:31  5-MIN KBKB 250550Z AUTO VRB06KT 10SM OVC011 22/21 A2975 460 90 1400 VRB/06 RMK AO2 PRESFR SLP100 T02220206 10239 20206 402720161 53009
53988KBKB BKB20190424235511804/24/19 23:55:31  5-MIN KBKB 250555Z AUTO VRB05KT 10SM OVC011 22/21 A2974 470 90 1500 VRB/05 RMK AO2 PRESFR T02220206
53988KBKB BKB20190425000014004/25/19 00:00:31  5-MIN KBKB 250600Z AUTO 14007G17KT 110V180 10SM OVC012 22/21 A2970 500 90 1500 130/07G17 110V180 RMK AO2 PRESFR T02220206
53988KBKB BKB20190425000512804/25/19 00:05:31  5-MIN KBKB 250605Z AUTO 8SM -RA OVC010 22/21 A2972 490 90 1500 M /M RMK AO2 RAB04 CIG 009V014 P0000 T02220206
53988KBKB BKB20190425001013804/25/19 00:10:31  5-MIN KBKB 250610Z AUTO VRB03KT 8SM -RA OVC010 22/21 A2974 460 93 1400 VRB/03 RMK AO2 RAB04 CIG 009V014 P0000 T02170206
53988KBKB BKB20190425001512804/25/19 00:15:31  5-MIN KBKB 250615Z AUTO 9SM -RA OVC010 22/21 A2975 460 93 1400 M /M RMK AO2 RAB04 CIG 009V014 P0000 T02170206
53988KBKB BKB20190425002013304/25/19 00:20:31  5-MIN KBKB 250620Z AUTO VRB04KT 10SM OVC010 22/21 A2977 440 93 1400 VRB/04 RMK AO2 RAB04E16 PRESRR P0000 T02170206
53988KBKB BKB20190425002512604/25/19 00:25:31  5-MIN KBKB 250625Z AUTO VRB03KT 10SM OVC010 22/21 A2977 440 93 1400 VRB/03 RMK AO2 RAB04E16 P0000 T02170206
53988KBKB BKB20190425003012604/25/19 00:30:31  5-MIN KBKB 250630Z AUTO VRB04KT 10SM OVC010 22/21 A2977 430 90 1400 VRB/04 RMK AO2 RAB04E16 P0000 T02220206
53988KBKB BKB20190425003512604/25/19 00:35:31  5-MIN KBKB 250635Z AUTO 21006KT 10SM OVC010 22/21 A2977 430 90 1400 210/06 RMK AO2 RAB04E16 P0000 T02220206
53988KBKB BKB20190425004012604/25/19 00:40:31  5-MIN KBKB 250640Z AUTO VRB04KT 10SM OVC009 22/21 A2977 430 90 1400 VRB/04 RMK AO2 RAB04E16 P0000 T02220206
53988KBKB BKB20190425004511604/25/19 00:45:31  5-MIN KBKB 250645Z AUTO 10SM OVC009 22/21 A2977 440 90 1400 M /M RMK AO2 RAB04E16 P0000 T02220206
53988KBKB BKB20190425005013304/25/19 00:50:31  5-MIN KBKB 250650Z AUTO VRB04KT 10SM OVC009 22/21 A2977 440 90 1400 VRB/04 RMK AO2 RAB04E16 SLP107 P0000 T02220206
53988KBKB BKB20190425005511304/25/19 00:55:31  5-MIN KBKB 250655Z AUTO 10SM OVC009 22/21 A2977 440 90 1400 M /M RMK AO2 CIG 009V014 T02220206
53988KBKB BKB20190425010012304/25/19 01:00:31  5-MIN KBKB 250700Z AUTO VRB04KT 10SM OVC009 22/21 A2977 440 90 1400 VRB/04 RMK AO2 CIG 009V014 T02220206
53988KBKB BKB20190425010512304/25/19 01:05:31  5-MIN KBKB 250705Z AUTO VRB04KT 10SM OVC009 22/21 A2977 440 90 1400 VRB/04 RMK AO2 CIG 009V014 T02220206
53988KBKB BKB20190425011012304/25/19 01:10:31  5-MIN KBKB 250710Z AUTO VRB04KT 10SM OVC010 22/21 A2977 440 90 1400 VRB/04 RMK AO2 CIG 009V014 T02220206
53988KBKB BKB20190425011512304/25/19 01:15:31  5-MIN KBKB 250715Z AUTO VRB04KT 10SM OVC010 22/21 A2977 440 90 1400 VRB/04 RMK AO2 CIG 009V013 T02220206
53988KBKB BKB20190425012011104/25/19 01:20:31  5-MIN KBKB 250720Z AUTO 00000KT 10SM OVC010 22/21 A2976 450 90 1400 000/00 RMK AO2 T02220206
53988KBKB BKB20190425012511104/25/19 01:25:31  5-MIN KBKB 250725Z AUTO VRB04KT 10SM OVC010 22/21 A2976 450 90 1400 VRB/04 RMK AO2 T02220206
53988KBKB BKB20190425013011104/25/19 01:30:31  5-MIN KBKB 250730Z AUTO VRB05KT 10SM OVC010 22/21 A2976 450 90 1400 VRB/05 RMK AO2 T02220206
53988KBKB BKB20190425013511104/25/19 01:35:31  5-MIN KBKB 250735Z AUTO VRB04KT 10SM OVC010 22/21 A2976 450 90 1400 VRB/04 RMK AO2 T02220206
53988KBKB BKB20190425014013004/25/19 01:40:31  5-MIN KBKB 250740Z AUTO 00000KT 10SM BKN010 OVC015 22/21 A2975 450 90 1400 000/00 RMK AO2 CIG 009V013 T02220206
53988KBKB BKB20190425014511104/25/19 01:45:31  5-MIN KBKB 250745Z AUTO VRB03KT 10SM OVC012 22/21 A2975 450 90 1400 VRB/03 RMK AO2 T02220206
53988KBKB BKB20190425015012504/25/19 01:50:31  5-MIN KBKB 250750Z AUTO VRB03KT 10SM BKN010 OVC015 22/21 A2974 460 93 1400 VRB/03 RMK AO2 SLP098 T02220211
53988KBKB BKB20190425015511104/25/19 01:55:31  5-MIN KBKB 250755Z AUTO VRB03KT 10SM OVC010 22/21 A2974 460 93 1400 VRB/03 RMK AO2 T02220211
53988KBKB BKB20190425020011104/25/19 02:00:31  5-MIN KBKB 250800Z AUTO VRB03KT 10SM OVC010 22/21 A2974 470 93 1500 VRB/03 RMK AO2 T02220211
53988KBKB BKB20190425020514704/25/19 02:05:31  5-MIN KBKB 250805Z AUTO VRB04KT 1 1/2SM +RA BR BKN010 OVC014 22/21 A2973 480 97 1400 VRB/04 RMK AO2 RAB02 PRESFR P0000 T02170211
53988KBKB BKB20190425021012904/25/19 02:10:31  5-MIN KBKB 250810Z AUTO 00000KT 1SM -RA BR OVC010 22/21 A2973 480 97 1400 000/00 RMK AO2 RAB02 P0000 T02170211
53988KBKB BKB20190425021514004/25/19 02:15:31  5-MIN KBKB 250815Z AUTO VRB04KT 2 1/2SM -RA BR SCT006 OVC010 22/21 A2973 480 97 1400 VRB/04 RMK AO2 RAB02 P0000 T02170211
53988KBKB BKB20190425022013604/25/19 02:20:31  5-MIN KBKB 250820Z AUTO VRB03KT 5SM -RA BR BKN006 OVC010 22/21 A2973 480 97 1400 VRB/03 RMK AO2 RAB02 P0000 T02170211
53988KBKB BKB20190425022513604/25/19 02:25:31  5-MIN KBKB 250825Z AUTO VRB04KT 6SM -RA BR BKN006 OVC010 22/21 A2971 490 97 1400 VRB/04 RMK AO2 RAB02 P0000 T02170211
53988KBKB BKB20190425023013604/25/19 02:30:31  5-MIN KBKB 250830Z AUTO VRB03KT 6SM -RA BR BKN006 OVC010 22/21 A2971 490 97 1400 VRB/03 RMK AO2 RAB02 P0000 T02170211
53988KBKB BKB20190425023514004/25/19 02:35:31  5-MIN KBKB 250835Z AUTO VRB03KT 6SM BR OVC005 22/21 A2971 490 97 1400 VRB/03 RMK AO2 RAB02E35 CIG 003V010 P0000 T02170211
53988KBKB BKB20190425024014004/25/19 02:40:31  5-MIN KBKB 250840Z AUTO VRB03KT 6SM BR OVC005 22/21 A2971 490 97 1400 VRB/03 RMK AO2 RAB02E35 CIG 003V009 P0000 T02170211
53988KBKB BKB20190425024514004/25/19 02:45:31  5-MIN KBKB 250845Z AUTO VRB03KT 5SM BR OVC005 22/21 A2971 490 97 1400 VRB/03 RMK AO2 RAB02E35 CIG 003V009 P0000 T02170211
53988KBKB BKB20190425025014904/25/19 02:50:31  5-MIN KBKB 250850Z AUTO 5SM BR OVC005 22/21 A2972 480 97 1400 M /M RMK AO2 RAB02E35 CIG 003V010 SLP091 P0000 60000 T02170211 58027
53988KBKB BKB20190425025512504/25/19 02:55:31  5-MIN KBKB 250855Z AUTO VRB03KT 6SM BR OVC007 22/21 A2973 480 97 1400 VRB/03 RMK AO2 CIG 003V011 T02170211
53988KBKB BKB20190425030014104/25/19 03:00:31  5-MIN KBKB 250900Z AUTO VRB04KT 6SM TS BR OVC007 22/21 A2970 500 97 1400 VRB/04 RMK AO2 TSB0856B0857 CIG 003V011 T02170211
53988KBKB BKB20190425030514804/25/19 03:05:31  5-MIN KBKB 250905Z AUTO VRB04KT 6SM TS BR BKN007 OVC011 22/21 A2971 500 97 1400 VRB/04 RMK AO2 TSB0856B0857 CIG 004V009 T02170211
53988KBKB BKB20190425031016304/25/19 03:10:31  5-MIN KBKB 250910Z AUTO VRB04KT 6SM -TSRA BR BKN007 OVC011 22/21 A2970 500 97 1400 VRB/04 RMK AO2 RAB08 TSB0856B0857 CIG 005V009 P0000 T02170211
53988KBKB BKB20190425031516904/25/19 03:15:31  5-MIN KBKB 250915Z AUTO VRB03KT 6SM -TSRA BR BKN009 OVC012 22/21 A2971 490 97 1400 VRB/03 RMK AO2 RAB08 TSB0856B0857E12B13 CIG 005V010 P0000 T02170211
53988KBKB BKB20190425032016904/25/19 03:20:31  5-MIN KBKB 250920Z AUTO 00000KT 5SM -TSRA BR BKN009 OVC013 22/21 A2972 480 97 1400 000/00 RMK AO2 RAB08 TSB0856B0857E12B13 CIG 005V010 P0000 T02170211
53988KBKB BKB20190425032515404/25/19 03:25:31  5-MIN KBKB 250925Z AUTO 00000KT 2 1/2SM +TSRA BR OVC009 22/21 A2972 480 97 1400 000/00 RMK AO2 RAB08 TSB0856B0857E12B13 P0000 T02170211
53988KBKB BKB20190425033016004/25/19 03:30:31  5-MIN KBKB 250930Z AUTO 00000KT 2 1/2SM TSRA BR BKN007 OVC012 22/21 A2971 490 97 1400 000/00 RMK AO2 RAB08 TSB0856B0857E12B13 P0000 T02170211
53988KBKB BKB20190425033515604/25/19 03:35:31  5-MIN KBKB 250935Z AUTO VRB03KT 3SM TSRA BR BKN007 OVC012 22/21 A2970 500 97 1400 VRB/03 RMK AO2 RAB08 TSB0856B0857E12B13 T02170211 PNO $
53988KBKB BKB20190425034014904/25/19 03:40:31  5-MIN KBKB 250940Z AUTO VRB03KT 3SM TSRA BR OVC007 22/21 A2969 510 97 1400 VRB/03 RMK AO2 RAB08 TSB0856B0857E12B13 T02170211 PNO $
53988KBKB BKB20190425034515704/25/19 03:45:31  5-MIN KBKB 250945Z AUTO 00000KT 1SM +TSRA BR OVC009 22/21 A2968 520 97 1500 000/00 RMK AO2 RAB08 TSB0856B0857E12B13 PRESFR T02170211 PNO $
53988KBKB BKB20190425035017004/25/19 03:50:31  5-MIN KBKB 250950Z AUTO VRB03KT 1SM TSRA BR OVC009 22/21 A2967 530 97 1500 VRB/03 RMK AO2 VIS 1/2V2 1/2 RAB08 TSB0856B0857E12B13 SLP074 T02170211 PNO $
53988KBKB BKB20190425035513104/25/19 03:55:31  5-MIN KBKB 250955Z AUTO VRB06KT 2SM TSRA BR BKN006 OVC010 22/21 A2970 500 97 1400 VRB/06 RMK AO2 T02170211 PNO $
53988KBKB BKB20190425040012604/25/19 04:00:31  5-MIN KBKB 251000Z AUTO 1 3/4SM +TSRA BR OVC006 22/21 A2974 470 97 1400 M /M RMK AO2 PRESRR T02170211 PNO $
53988KBKB BKB20190425040513204/25/19 04:05:31  5-MIN KBKB 251005Z AUTO VRB05KT 1SM +TSRA BR BKN006 OVC012 22/21 A2973 470 97 1400 VRB/05 RMK AO2 T02170211 PNO $
53988KBKB BKB20190425041012304/25/19 04:10:31  5-MIN KBKB 251010Z AUTO 1SM +TSRA BR BKN006 OVC012 20/20 A2970 500 100 1200 M /M RMK AO2 T02000200 PNO $
53988KBKB BKB20190425041514904/25/19 04:15:31  5-MIN KBKB 251015Z AUTO VRB04KT 1SM +TSRA BR SCT006 BKN023 OVC055 19/18 A2972 490 97 1100 VRB/04 RMK AO2 VIS 1/2V3 T01890183 PNO $
53988KBKB BKB20190425042014304/25/19 04:20:31  5-MIN KBKB 251020Z AUTO VRB03KT 1 3/4SM TSRA BR SCT006 BKN029 OVC065 19/19 A2972 490 100 1100 VRB/03 RMK AO2 T01890189 PNO $
53988KBKB BKB20190425042513904/25/19 04:25:31  5-MIN KBKB 251025Z AUTO 14003KT 3SM TSRA BR FEW006 BKN027 OVC050 19/19 A2968 520 100 1100 140/03 RMK AO2 T01890189 PNO $
53988KBKB BKB20190425043013904/25/19 04:30:31  5-MIN KBKB 251030Z AUTO VRB05KT 3SM TSRA BR SCT011 BKN029 OVC045 19/19 A2971 500 100 1100 VRB/05 RMK AO2 T01890189 PNO $
53988KBKB BKB20190425043513904/25/19 04:35:31  5-MIN KBKB 251035Z AUTO 00000KT 4SM -TSRA BR BKN012 BKN030 OVC060 19/19 A2969 510 97 1200 000/00 RMK AO2 T01940189 PNO $
53988KBKB BKB20190425044013604/25/19 04:40:31  5-MIN KBKB 251040Z AUTO VRB03KT 7SM -TSRA SCT012 BKN046 OVC110 19/19 A2969 510 97 1200 VRB/03 RMK AO2 T01940189 PNO $
53988KBKB BKB20190425044513804/25/19 04:45:31  5-MIN KBKB 251045Z AUTO VRB04KT 10SM -TSRA SCT012 BKN055 OVC110 19/19 A2968 520 100 1100 VRB/04 RMK AO2 T01890189 PNO $
53988KBKB BKB20190425045014404/25/19 04:50:31  5-MIN KBKB 251050Z AUTO VRB04KT 10SM -TSRA SCT013 BKN048 OVC110 19/18 A2969 510 97 1100 VRB/04 RMK AO2 SLP080 T01890183 PNO $
53988KBKB BKB20190425045514404/25/19 04:55:31  5-MIN KBKB 251055Z AUTO VRB04KT 10SM -TSRA FEW011 BKN075 OVC110 18/18 A2971 500 96 1000 VRB/04 RMK AO2 PRESRR T01830178 PNO $
53988KBKB BKB20190425050013904/25/19 05:00:31  5-MIN KBKB 251100Z AUTO VRB05KT 5SM -TSRA BR FEW011 BKN080 OVC110 18/18 A2971 490 96 1000 VRB/05 RMK AO2 T01830178 PNO $
53988KBKB BKB20190425050513804/25/19 05:05:31  5-MIN KBKB 251105Z AUTO VRB03KT 3SM TSRA BR SCT048 BKN070 OVC110 18/18 A2971 500 96 1000 VRB/03 RMK AO2 T01830178 PNO $
53988KBKB BKB20190425051013904/25/19 05:10:31  5-MIN KBKB 251110Z AUTO 00000KT 3SM -TSRA BR SCT043 BKN070 OVC095 18/18 A2972 490 96 1000 000/00 RMK AO2 T01830178 PNO $
53988KBKB BKB20190425051514004/25/19 05:15:31  5-MIN KBKB 251115Z AUTO VRB03KT 4SM +TSRA BR FEW012 BKN043 OVC080 18/18 A2973 480 100 1000 VRB/03 RMK AO2 T01830183 PNO $
53988KBKB BKB20190425052014704/25/19 05:20:31  5-MIN KBKB 251120Z AUTO VRB03KT 2SM +TSRA BR FEW008 BKN035 OVC065 18/18 A2974 460 100 1000 VRB/03 RMK AO2 PRESRR T01830183 PNO $
53988KBKB BKB20190425052514004/25/19 05:25:31  5-MIN KBKB 251125Z AUTO VRB04KT 1SM +TSRA BR FEW008 BKN018 OVC060 18/18 A2973 470 100 1000 VRB/04 RMK AO2 T01830183 PNO $
53988KBKB BKB20190425053014304/25/19 05:30:31  5-MIN KBKB 251130Z AUTO VRB04KT 1 1/4SM TSRA BR FEW010 BKN018 OVC037 18/18 A2973 470 100 1000 VRB/04 RMK AO2 T01830183 PNO $
53988KBKB BKB20190425053514404/25/19 05:35:31  5-MIN KBKB 251135Z AUTO 00000KT 4SM -RA BR SCT010 BKN016 OVC037 18/18 A2973 480 100 1000 000/00 RMK AO2 TSE31 T01830183 PNO $
53988KBKB BKB20190425054014204/25/19 05:40:31  5-MIN KBKB 251140Z AUTO 00000KT 10SM -RA SCT007 BKN010 OVC022 18/18 A2973 480 100 1000 000/00 RMK AO2 TSE31 T01830183 PNO $
53988KBKB BKB20190425054513604/25/19 05:45:31  5-MIN KBKB 251145Z AUTO 00000KT 10SM SCT007 OVC014 19/18 A2973 470 97 1100 000/00 RMK AO2 RAE44 TSE31 T01890183 PNO $
53988KBKB BKB20190425055017304/25/19 05:50:31  5-MIN KBKB 251150Z AUTO 00000KT 10SM FEW007 OVC012 19/18 A2973 480 97 1100 000/00 RMK AO2 RAE44 TSE31 SLP092 6//// 7//// T01890183 10222 20183 58004 PNO $
53988KBKB BKB20190425055513604/25/19 05:55:31  5-MIN KBKB 251155Z AUTO 00000KT 10SM BKN010 OVC014 19/18 A2973 470 97 1100 000/00 RMK AO2 CIG 007V011 T01890183 PNO $
53988KBKB BKB20190425060014304/25/19 06:00:31  5-MIN KBKB 251200Z AUTO 00000KT 10SM BKN010 BKN014 OVC021 19/18 A2974 470 97 1100 000/00 RMK AO2 CIG 007V011 T01890183 PNO $
53988KBKB BKB20190425060513304/25/19 06:05:31  5-MIN KBKB 251205Z AUTO 00000KT 9SM -RA SCT010 OVC021 19/18 A2974 470 97 1100 000/00 RMK AO2 RAB04 T01890183 PNO $
53988KBKB BKB20190425061013304/25/19 06:10:31  5-MIN KBKB 251210Z AUTO 13003KT 7SM -RA SCT011 OVC021 19/18 A2974 460 97 1100 130/03 RMK AO2 RAB04 T01890183 PNO $
53988KBKB BKB20190425061513404/25/19 06:15:31  5-MIN KBKB 251215Z AUTO 00000KT 7SM -RA FEW011 OVC021 18/18 A2974 470 100 1000 000/00 RMK AO2 RAB04 T01830183 PNO $
53988KBKB BKB20190425062014104/25/19 06:20:31  5-MIN KBKB 251220Z AUTO 00000KT 9SM -RA FEW003 FEW009 OVC022 18/18 A2974 470 100 1000 000/00 RMK AO2 RAB04 T01830183 PNO $
53988KBKB BKB20190425062513404/25/19 06:25:31  5-MIN KBKB 251225Z AUTO 00000KT 10SM FEW003 OVC022 18/18 A2974 470 100 1000 000/00 RMK AO2 RAB04E21 T01830183 PNO $
53988KBKB BKB20190425063013404/25/19 06:30:31  5-MIN KBKB 251230Z AUTO 00000KT 10SM FEW003 OVC024 18/18 A2974 470 100 1000 000/00 RMK AO2 RAB04E21 T01830183 PNO $
53988KBKB BKB20190425063513304/25/19 06:35:31  5-MIN KBKB 251235Z AUTO 00000KT 9SM FEW003 OVC024 18/18 A2975 460 100 1000 000/00 RMK AO2 RAB04E21 T01830183 PNO $
53988KBKB BKB20190425064013304/25/19 06:40:31  5-MIN KBKB 251240Z AUTO 00000KT 9SM FEW003 OVC026 18/18 A2975 460 100 1000 000/00 RMK AO2 RAB04E21 T01830183 PNO $
53988KBKB BKB20190425064513304/25/19 06:45:31  5-MIN KBKB 251245Z AUTO 00000KT 9SM FEW003 OVC026 18/18 A2975 460 100 1000 000/00 RMK AO2 RAB04E21 T01830183 PNO $
53988KBKB BKB20190425065014004/25/19 06:50:31  5-MIN KBKB 251250Z AUTO 00000KT 8SM FEW003 OVC026 18/18 A2975 460 100 1000 000/00 RMK AO2 RAB04E21 SLP101 T01830183 PNO $
53988KBKB BKB20190425065511704/25/19 06:55:31  5-MIN KBKB 251255Z AUTO 00000KT 8SM OVC027 18/18 A2976 450 100 1000 000/00 RMK AO2 T01830183 PNO $
53988KBKB BKB20190425070012404/25/19 07:00:31  5-MIN KBKB 251300Z AUTO 00000KT 7SM FEW002 OVC027 18/18 A2976 450 100 1000 000/00 RMK AO2 T01830183 PNO $
53988KBKB BKB20190425070512404/25/19 07:05:31  5-MIN KBKB 251305Z AUTO 00000KT 7SM FEW002 OVC027 18/18 A2976 450 100 1000 000/00 RMK AO2 T01830183 PNO $
53988KBKB BKB20190425070513804/25/19 07:05:31  5-MIN KBKB 251305Z AUTO 00000KT 7SM FEW002 OVC027 18/18 A2976 4 19/19 A2977 440 100 1000 VRB/03 RMK AO2 T01890189 PNO $
53988KBKB BKB20190425071012404/25/19 07:10:31  5-MIN KBKB 251310Z AUTO 00000KT 7SM FEW002 OVC028 18/18 A2976 450 100 1000 000/00 RMK AO2 T01830183 PNO $
53988KBKB BKB20190425071512404/25/19 07:15:31  5-MIN KBKB 251315Z AUTO 00000KT 8SM FEW002 OVC028 19/19 A2976 450 100 1000 000/00 RMK AO2 T01890189 PNO $
53988KBKB BKB20190425072013004/25/19 07:20:31  5-MIN KBKB 251320Z AUTO 00000KT 9SM FEW002 BKN028 OVC041 19/18 A2976 450 97 1000 000/00 RMK AO2 T01890183 PNO $
53988KBKB BKB20190425072513204/25/19 07:25:31  5-MIN KBKB 251325Z AUTO VRB03KT 10SM SCT002 BKN030 OVC060 19/19 A2977 440 100 1000 VRB/03 RMK AO2 T01890189 PNO $
53988KBKB BKB20190425073013104/25/19 07:30:31  5-MIN KBKB 251330Z AUTO 00000KT 10SM SCT002 BKN030 BKN043 19/18 A2976 440 97 1000 000/00 RMK AO2 T01890183 PNO $
53988KBKB BKB20190425073513204/25/19 07:35:31  5-MIN KBKB 251335Z AUTO 00000KT 10SM SCT003 BKN030 BKN045 19/19 A2976 450 100 1000 000/00 RMK AO2 T01890189 PNO $
53988KBKB BKB20190425074013104/25/19 07:40:31  5-MIN KBKB 251340Z AUTO 00000KT 10SM SCT003 BKN032 BKN045 19/19 A2976 450 97 1100 000/00 RMK AO2 T01940189 PNO $
53988KBKB BKB20190425074511804/25/19 07:45:31  5-MIN KBKB 251345Z AUTO 00000KT 10SM BKN003 19/19 A2976 440 100 1100 000/00 RMK AO2 T01940194 PNO $
53988KBKB BKB20190425075012404/25/19 07:50:31  5-MIN KBKB 251350Z AUTO 00000KT 10SM BKN003 20/19 A2976 450 97 1200 000/00 RMK AO2 SLP103 T02000194 PNO $
53988KBKB BKB20190425075513604/25/19 07:55:31  5-MIN KBKB 251355Z AUTO VRB03KT 10SM BKN004 BKN008 20/19 A2976 450 97 1200 VRB/03 RMK AO2 CIG 002V006 T02000194 PNO $
53988KBKB BKB20190425080014304/25/19 08:00:31  5-MIN KBKB 251400Z AUTO VRB03KT 10SM BKN004 BKN008 OVC015 20/19 A2976 450 93 1200 VRB/03 RMK AO2 CIG 002V006 T02000189 PNO $
53988KBKB BKB20190425080514304/25/19 08:05:31  5-MIN KBKB 251405Z AUTO 00000KT 10SM BKN004 BKN010 OVC013 20/19 A2976 440 93 1200 000/00 RMK AO2 CIG 004V007 T02000189 PNO $
53988KBKB BKB20190425081012404/25/19 08:10:31  5-MIN KBKB 251410Z AUTO VRB03KT 10SM SCT004 OVC013 20/19 A2977 440 93 1200 VRB/03 RMK AO2 T02000189 PNO $
53988KBKB BKB20190425081514304/25/19 08:15:31  5-MIN KBKB 251415Z AUTO 00000KT 10SM SCT004 BKN009 OVC013 20/19 A2977 440 93 1200 000/00 RMK AO2 CIG 008V012 T02000189 PNO $
53988KBKB BKB20190425082012404/25/19 08:20:31  5-MIN KBKB 251420Z AUTO 00000KT 10SM SCT007 OVC014 20/19 A2977 440 93 1200 000/00 RMK AO2 T02000189 PNO $
53988KBKB BKB20190425082513104/25/19 08:25:31  5-MIN KBKB 251425Z AUTO 00000KT 10SM SCT007 BKN014 OVC018 21/19 A2977 440 93 1200 000/00 RMK AO2 T02060194 PNO $
53988KBKB BKB20190425083013104/25/19 08:30:31  5-MIN KBKB 251430Z AUTO 00000KT 10SM SCT009 BKN014 OVC018 21/19 A2977 440 90 1200 000/00 RMK AO2 T02060189 PNO $
53988KBKB BKB20190425083513104/25/19 08:35:31  5-MIN KBKB 251435Z AUTO 00000KT 10SM FEW009 BKN016 OVC020 21/19 A2977 440 90 1300 000/00 RMK AO2 T02110194 PNO $
53988KBKB BKB20190425084012404/25/19 08:40:31  5-MIN KBKB 251440Z AUTO VRB03KT 10SM FEW009 BKN016 21/19 A2977 440 87 1300 VRB/03 RMK AO2 T02110189 PNO $
53988KBKB BKB20190425084513104/25/19 08:45:31  5-MIN KBKB 251445Z AUTO VRB03KT 10SM FEW007 SCT015 BKN020 22/19 A2978 430 84 1300 VRB/03 RMK AO2 T02170189 PNO $
53988KBKB BKB20190425085014304/25/19 08:50:31  5-MIN KBKB 251450Z AUTO VRB05KT 10SM FEW013 BKN020 21/19 A2978 430 87 1300 VRB/05 RMK AO2 SLP109 6//// T02110189 53001 PNO $
53988KBKB BKB20190425085512404/25/19 08:55:31  5-MIN KBKB 251455Z AUTO VRB04KT 10SM FEW013 BKN020 21/18 A2978 430 84 1300 VRB/04 RMK AO2 T02110183 PNO $
53988KBKB BKB20190425090012404/25/19 09:00:31  5-MIN KBKB 251500Z AUTO 35004KT 10SM SCT015 BKN020 21/18 A2978 430 87 1200 340/04 RMK AO2 T02060183 PNO $
53988KBKB BKB20190425090512404/25/19 09:05:31  5-MIN KBKB 251505Z AUTO 00000KT 10SM SCT015 OVC020 21/18 A2978 420 87 1200 000/00 RMK AO2 T02060183 PNO $
53988KBKB BKB20190425091012404/25/19 09:10:31  5-MIN KBKB 251510Z AUTO VRB04KT 10SM BKN015 OVC022 21/18 A2979 420 87 1200 VRB/04 RMK AO2 T02060183 PNO $
53988KBKB BKB20190425091512404/25/19 09:15:31  5-MIN KBKB 251515Z AUTO VRB04KT 10SM BKN015 OVC020 21/18 A2979 420 87 1200 VRB/04 RMK AO2 T02060183 PNO $
53988KBKB BKB20190425092012404/25/19 09:20:31  5-MIN KBKB 251520Z AUTO 00000KT 10SM BKN015 OVC020 21/18 A2979 420 87 1200 000/00 RMK AO2 T02060183 PNO $
53988KBKB BKB20190425092512404/25/19 09:25:31  5-MIN KBKB 251535Z AUTO VRB03KT 10SM FEW014 OVC022 21/18 A2980 410 84 1300 VRB/03 RMK AO2 T02110183 PNO $
53988KBKB BKB20190425092517104/25/19 09:25:31  5-MIN KBKB 251525Z AUTO VRB03KT 10 5-MIN KBKB 251850Z AUTO VRB06KT 10SM FEW030 SCT036 25/16FEW036 25/16 A2978 430 57 1700 VRB/05 RMK AO2 T02500161 PNO $
53988KBKB BKB20190425094012404/25/19 09:40:31  5-MIN KBKB 251540Z AUTO VRB03KT 10SM FEW012 OVC022 22/18 A2980 410 78 1300 VRB/03 RMK AO2 T02170178 PNO $
53988KBKB BKB20190425094512404/25/19 09:45:31  5-MIN KBKB 251545Z AUTO 00000KT 10SM BKN019 OVC025 22/17 A2980 410 75 1300 000/00 RMK AO2 T02170172 PNO $
53988KBKB BKB20190425095012404/25/19 09:50:31  5-MIN KBKB 251550Z AUTO 00000KT 10SM OVC020 22/18 A2980 410 75 1400 000/00 RMK AO2 SLP116 T02220178 PNO $
53988KBKB BKB20190425095511704/25/19 09:55:31  5-MIN KBKB 251555Z AUTO VRB04KT 10SM OVC020 22/18 A2980 410 78 1300 VRB/04 RMK AO2 T02170178 PNO $
53988KBKB BKB20190425100012404/25/19 10:00:31  5-MIN KBKB 251600Z AUTO 00000KT 10SM BKN020 OVC027 22/18 A2980 410 78 1300 000/00 RMK AO2 T02170178 PNO $
53988KBKB BKB20190425100510104/25/19 10:05:31  5-MIN KBKB 251605Z AUTO 00000KT 117 A2978 430 61 1700 M /M RMK AO2 T02440167 PNO $
53988KBKB BKB20190425114011704/25/19 11:40:31  5-MIN KBKB 251740Z AUTO VRB04KT 10SM SCT030 24/16 A2978 430 61 1600 VRB/04 RMK AO2 T02390161 PNO $
53988KBKB BKB20190425114511704/25/19 11:45:31  5-MIN KBKB 251745Z AUTO VRB03KT 10SM SCT030 24/17 A2978 430 61 1700 VRB/03 RMK AO2 T02440167 PNO $
53988KBKB BKB20190425115014804/25/19 11:50:31  5-MIN KBKB 251750Z AUTO VRB06KT 10SM SCT031 25/17 A2978 430 59 1700 VRB/06 RMK AO2 SLP108 6//// T02500167 10256 20183 51016 PNO $
53988KBKB BKB20190425115511704/25/19 11:55:31  5-MIN KBKB 251755Z AUTO VRB06KT 10SM SCT031 24/16 A2978 430 59 1700 VRB/06 RMK AO2 T02440161 PNO $
53988KBKB BKB20190425120011704/25/19 12:00:31  5-MIN KBKB 251800Z AUTO VRB04KT 10SM SCT032 24/16 A2978 430 59 1700 VRB/04 RMK AO2 T02440161 PNO $
53988KBKB BKB20190425120511704/25/19 12:05:31  5-MIN KBKB 251805Z AUTO VRB03KT 10SM SCT034 24/16 A2978 430 59 1700 VRB/03 RMK AO2 T02440161 PNO $
53988KBKB BKB20190425121011704/25/19 12:10:31  5-MIN KBKB 251810Z AUTO VRB04KT 10SM SCT034 24/17 A2978 430 61 1700 VRB/04 RMK AO2 T02440167 PNO $
53988KBKB BKB20190425121511704/25/19 12:15:31  5-MIN KBKB 251815Z AUTO VRB03KT 10SM SCT034 24/16 A2978 430 59 1600 VRB/03 RMK AO2 T02390156 PNO $
53988KBKB BKB20190425122010704/25/19 12:20:31  5-MIN KBKB 251820Z AUTO 10SM BKN034 24/16 A2978 420 59 1700 M /M RMK AO2 T02440161 PNO $
53988KBKB BKB20190425122511704/25/19 12:25:31  5-MIN KBKB 251825Z AUTO VRB03KT 10SM BKN034 24/17 A2978 420 63 1600 VRB/03 RMK AO2 T02390167 PNO $
53988KBKB BKB20190425123011704/25/19 12:30:31  5-MIN KBKB 251830Z AUTO VRB04KT 10SM BKN034 24/17 A2978 430 61 1700 VRB/04 RMK AO2 T02440167 PNO $
53988KBKB BKB20190425123511704/25/19 12:35:31  5-MIN KBKB 251835Z AUTO VRB05KT 10SM BKN034 23/16 A2979 420 63 1500 VRB/05 RMK AO2 T02330161 PNO $
53988KBKB BKB20190425124012404/25/19 12:40:31  5-MIN KBKB 251840Z AUTO VRB04KT 10SM SCT031 BKN042 24/17 A2978 420 63 1600 VRB/04 RMK AO2 T02390167 PNO $
53988KBKB BKB20190425124512404/25/19 12:45:31  5-MIN KBKB 251845Z AUTO VRB05KT 10SM SCT034 BKN042 25/16 A2978 430 57 1700 VRB/05 RMK AO2 T02500161 PNO $
53988KBKB BKB20190425125013104/25/19 12:50:31  5-MIN KBKB 251850Z AUTO VRB06KT 10SM FEW030 SCT036 25/16 A2978 430 57 1700 VRB/06 RMK AO2 SLP110 T02500161 PNO $
53988KBKB BKB20190425125513104/25/19 12:55:31  5-MIN KBKB 251855Z AUTO VRB04KT 10SM FEW030 SCT036 SCT044 24/16 A2978 430 57 1700 VRB/04 RMK AO2 T02440156 PNO $
53988KBKB BKB20190425130012404/25/19 13:00:31  5-MIN KBKB 251900Z AUTO VRB05KT 10SM FEW030 FEW036 25/16 A2978 430 57 1700 VRB/05 RMK AO2 T02500161 PNO $
53988KBKB BKB20190425130511704/25/19 13:05:31  5-MIN KBKB 251905Z AUTO VRB04KT 10SM FEW035 25/16 A2978 430 55 1700 VRB/04 RMK AO2 T02500156 PNO $
53988KBKB BKB20190425131011704/25/19 13:10:31  5-MIN KBKB 251910Z AUTO VRB06KT 10SM FEW035 24/15 A2978 430 55 1700 VRB/06 RMK AO2 T02440150 PNO $
53988KBKB BKB20190425131511704/25/19 13:15:31  5-MIN KBKB 251915Z AUTO VRB04KT 10SM FEW037 25/15 A2978 430 53 1700 VRB/04 RMK AO2 T02500150 PNO $
53988KBKB BKB20190425132013304/25/19 13:20:31  5-MIN KBKB 251920Z AUTO 31007KT 240V010 10SM FEW039 25/15 A2978 430 53 1700 310/07 240V010 RMK AO2 T02500150 PNO $
53988KBKB BKB20190425132511704/25/19 13:25:31  5-MIN KBKB 251925Z AUTO VRB06KT 10SM FEW041 24/15 A2978 430 55 1700 VRB/06 RMK AO2 T02440150 PNO $
53988KBKB BKB20190425133011704/25/19 13:30:31  5-MIN KBKB 251930Z AUTO VRB04KT 10SM FEW041 24/15 A2978 430 55 1700 VRB/04 RMK AO2 T02440150 PNO $
53988KBKB BKB20190425133511704/25/19 13:35:31  5-MIN KBKB 251935Z AUTO VRB03KT 10SM SCT041 25/15 A2978 430 53 1700 VRB/03 RMK AO2 T02500150 PNO $
53988KBKB BKB20190425134011704/25/19 13:40:31  5-MIN KBKB 251940Z AUTO VRB04KT 10SM SCT043 24/15 A2978 430 57 1600 VRB/04 RMK AO2 T02390150 PNO $
53988KBKB BKB20190425134511704/25/19 13:45:31  5-MIN KBKB 251945Z AUTO 00000KT 10SM BKN043 24/15 A2978 430 57 1600 000/00 RMK AO2 T02390150 PNO $
53988KBKB BKB20190425135012404/25/19 13:50:31  5-MIN KBKB 251950Z AUTO 00000KT 10SM BKN043 24/16 A2977 440 57 1700 000/00 RMK AO2 SLP107 T02440156 PNO $
53988KBKB BKB20190425135511704/25/19 13:55:31  5-MIN KBKB 251955Z AUTO VRB03KT 10SM BKN043 25/16 A2977 440 55 1700 VRB/03 RMK AO2 T02500156 PNO $
53988KBKB BKB20190425140011704/25/19 14:00:31  5-MIN KBKB 252000Z AUTO VRB03KT 10SM BKN041 25/15 A2977 440 53 1700 VRB/03 RMK AO2 T02500150 PNO $
53988KBKB BKB20190425140510704/25/19 14:05:31  5-MIN KBKB 252005Z AUTO 10SM BKN041 26/16 A2977 440 53 1800 M /M RMK AO2 T02560156 PNO $
53988KBKB BKB20190425141011704/25/19 14:10:31  5-MIN KBKB 252010Z AUTO VRB04KT 10SM BKN041 24/16 A2977 440 57 1700 VRB/04 RMK AO2 T02440156 PNO $
53988KBKB BKB20190425141511704/25/19 14:15:31  5-MIN KBKB 252015Z AUTO VRB05KT 10SM BKN041 24/15 A2977 440 55 1700 VRB/05 RMK AO2 T02440150 PNO $
53988KBKB BKB20190425142011704/25/19 14:20:31  5-MIN KBKB 252020Z AUTO VRB04KT 10SM BKN041 26/14 A2977 440 49 1800 VRB/04 RMK AO2 T02560144 PNO $
53988KBKB BKB20190425142511704/25/19 14:25:31  5-MIN KBKB 252025Z AUTO VRB06KT 10SM SCT042 26/14 A2977 440 49 1800 VRB/06 RMK AO2 T02560144 PNO $
53988KBKB BKB20190425143013304/25/19 14:30:31  5-MIN KBKB 252030Z AUTO 27007KT 220V310 10SM FEW042 25/14 A2977 440 51 1700 270/07 220V310 RMK AO2 T02500144 PNO $
53988KBKB BKB20190425143511704/25/19 14:35:31  5-MIN KBKB 252035Z AUTO VRB06KT 10SM FEW042 26/15 A2977 440 51 1800 VRB/06 RMK AO2 T02560150 PNO $
53988KBKB BKB20190425144011704/25/19 14:40:31  5-MIN KBKB 252040Z AUTO VRB06KT 10SM SCT044 26/16 A2977 440 51 1900 VRB/06 RMK AO2 T02610156 PNO $
53988KBKB BKB20190425144511704/25/19 14:45:31  5-MIN KBKB 252045Z AUTO VRB05KT 10SM FEW047 25/14 A2977 440 51 1700 VRB/05 RMK AO2 T02500144 PNO $
53988KBKB BKB20190425145013604/25/19 14:50:31  5-MIN KBKB 252050Z AUTO VRB04KT 10SM FEW047 24/15 A2977 430 55 1700 VRB/04 RMK AO2 SLP108 6//// T02440150 50000 PNO $
53988KBKB BKB20190425145512404/25/19 14:55:31  5-MIN KBKB 252055Z AUTO VRB04KT 10SM FEW047 FEW055 24/15 A2977 430 55 1700 VRB/04 RMK AO2 T02440150 PNO $
53988KBKB BKB20190425150012404/25/19 15:00:31  5-MIN KBKB 252100Z AUTO VRB04KT 10SM SCT047 SCT055 24/14 A2978 430 55 1600 VRB/04 RMK AO2 T02390144 PNO $
53988KBKB BKB20190425150511704/25/19 15:05:31  5-MIN KBKB 252105Z AUTO VRB05KT 10SM BKN050 24/15 A2978 430 57 1600 VRB/05 RMK AO2 T02390150 PNO $
53988KBKB BKB20190425151012404/25/19 15:10:31  5-MIN KBKB 252110Z AUTO VRB05KT 10SM FEW046 SCT055 24/15 A2978 430 57 1600 VRB/05 RMK AO2 T02390150 PNO $
53988KBKB BKB20190425151511704/25/19 15:15:31  5-MIN KBKB 252115Z AUTO VRB03KT 10SM SCT050 25/15 A2977 430 53 1700 VRB/03 RMK AO2 T02500150 PNO $
53988KBKB BKB20190425152011704/25/19 15:20:31  5-MIN KBKB 252120Z AUTO VRB05KT 10SM SCT050 26/16 A2978 430 53 1800 VRB/05 RMK AO2 T02560156 PNO $
53988KBKB BKB20190425152512404/25/19 15:25:31  5-MIN KBKB 252125Z AUTO VRB03KT 10SM FEW045 SCT055 24/15 A2978 430 57 1600 VRB/03 RMK AO2 T02390150 PNO $
53988KBKB BKB20190425153011704/25/19 15:30:31  5-MIN KBKB 252130Z AUTO VRB05KT 10SM FEW055 24/15 A2978 430 55 1700 VRB/05 RMK AO2 T02440150 PNO $
53988KBKB BKB20190425153511704/25/19 15:35:31  5-MIN KBKB 252135Z AUTO VRB04KT 10SM FEW055 26/15 A2978 430 51 1800 VRB/04 RMK AO2 T02560150 PNO $
53988KBKB BKB20190425154010704/25/19 15:40:31  5-MIN KBKB 252140Z AUTO 10SM FEW044 26/15 A2978 430 51 1800 M /M RMK AO2 T02560150 PNO $
53988KBKB BKB20190425154511704/25/19 15:45:31  5-MIN KBKB 252145Z AUTO VRB06KT 10SM SCT044 26/15 A2978 430 51 1800 VRB/06 RMK AO2 T02560150 PNO $
53988KBKB BKB20190425155012404/25/19 15:50:31  5-MIN KBKB 252150Z AUTO VRB05KT 10SM SCT044 24/14 A2978 430 53 1700 VRB/05 RMK AO2 SLP109 T02440144 PNO $
53988KBKB BKB20190425155511704/25/19 15:55:31  5-MIN KBKB 252155Z AUTO VRB05KT 10SM FEW044 24/14 A2978 430 53 1700 VRB/05 RMK AO2 T02440144 PNO $
53988KBKB BKB20190425160011704/25/19 16:00:31  5-MIN KBKB 252200Z AUTO VRB03KT 10SM FEW043 25/14 A2978 430 51 1700 VRB/03 RMK AO2 T02500144 PNO $
53988KBKB BKB20190425160511704/25/19 16:05:31  5-MIN KBKB 252205Z AUTO VRB05KT 10SM FEW043 24/14 A2978 430 51 1700 VRB/05 RMK AO2 T02440139 PNO $
53988KBKB BKB20190425161011704/25/19 16:10:31  5-MIN KBKB 252210Z AUTO 00000KT 10SM FEW045 24/14 A2978 430 53 1600 000/00 RMK AO2 T02390139 PNO $
53988KBKB BKB20190425161511404/25/19 16:15:31  5-MIN KBKB 252215Z AUTO VRB04KT 10SM CLR 24/14 A2978 430 53 1700 VRB/04 RMK AO2 T02440144 PNO $
53988KBKB BKB20190425162010404/25/19 16:20:31  5-MIN KBKB 252220Z AUTO 10SM CLR 25/14 A2978 430 51 1700 M /M RMK AO2 T02500144 PNO $
53988KBKB BKB20190425162511404/25/19 16:25:31  5-MIN KBKB 252225Z AUTO VRB04KT 10SM CLR 25/14 A2978 430 51 1700 VRB/04 RMK AO2 T02500144 PNO $
53988KBKB BKB20190425163011404/25/19 16:30:31  5-MIN KBKB 252230Z AUTO VRB03KT 10SM CLR 24/14 A2978 430 53 1700 VRB/03 RMK AO2 T02440144 PNO $
53988KBKB BKB20190425163510404/25/19 16:35:31  5-MIN KBKB 252235Z AUTO 10SM CLR 25/14 A2978 430 51 1700 M /M RMK AO2 T02500144 PNO $
53988KBKB BKB20190425164011404/25/19 16:40:31  5-MIN KBKB 252240Z AUTO VRB04KT 10SM CLR 25/14 A2978 420 51 1700 VRB/04 RMK AO2 T02500144 PNO $
53988KBKB BKB20190425164510704/25/19 16:45:31  5-MIN KBKB 252245Z AUTO 10SM FEW048 25/14 A2979 420 51 1700 M /M RMK AO2 T02500144 PNO $
53988KBKB BKB20190425165012404/25/19 16:50:31  5-MIN KBKB 252250Z AUTO VRB03KT 10SM FEW048 24/14 A2979 420 53 1700 VRB/03 RMK AO2 SLP113 T02440144 PNO $
53988KBKB BKB20190425165511704/25/19 16:55:31  5-MIN KBKB 252255Z AUTO VRB05KT 10SM FEW048 24/14 A2979 420 55 1600 VRB/05 RMK AO2 T02390144 PNO $
53988KBKB BKB20190425170011704/25/19 17:00:31  5-MIN KBKB 252300Z AUTO VRB03KT 10SM SCT050 24/14 A2979 420 55 1600 VRB/03 RMK AO2 T02390144 PNO $
53988KBKB BKB20190425170511704/25/19 17:05:31  5-MIN KBKB 252305Z AUTO VRB03KT 10SM SCT050 24/14 A2979 420 53 1600 VRB/03 RMK AO2 T02440144 PNO $
53988KBKB BKB20190425171011704/25/19 17:10:31  5-MIN KBKB 252310Z AUTO VRB06KT 10SM SCT050 24/14 A2980 410 55 1600 VRB/06 RMK AO2 T02390144 PNO $
53988KBKB BKB20190425171511704/25/19 17:15:31  5-MIN KBKB 252315Z AUTO VRB03KT 10SM SCT050 24/15 A2980 410 57 1600 VRB/03 RMK AO2 T02390150 PNO $
53988KBKB BKB20190425172011704/25/19 17:20:31  5-MIN KBKB 252320Z AUTO VRB04KT 10SM SCT049 23/15 A2980 410 59 1500 VRB/04 RMK AO2 T02330150 PNO $
53988KBKB BKB20190425172511704/25/19 17:25:31  5-MIN KBKB 252325Z AUTO VRB04KT 10SM FEW049 23/14 A2980 410 57 1500 VRB/04 RMK AO2 T02330144 PNO $
53988KBKB BKB20190425173011704/25/19 17:30:31  5-MIN KBKB 252330Z AUTO VRB03KT 10SM FEW050 23/15 A2980 410 59 1500 VRB/03 RMK AO2 T02330150 PNO $
53988KBKB BKB20190425173512404/25/19 17:35:31  5-MIN KBKB 252335Z AUTO VRB05KT 10SM FEW045 FEW055 23/15 A2981 400 59 1500 VRB/05 RMK AO2 T02330150 PNO $
53988KBKB BKB20190425174011704/25/19 17:40:31  5-MIN KBKB 252340Z AUTO VRB03KT 10SM FEW050 23/15 A2981 400 59 1500 VRB/03 RMK AO2 T02330150 PNO $
53988KBKB BKB20190425174511704/25/19 17:45:31  5-MIN KBKB 252345Z AUTO 00000KT 10SM FEW050 23/16 A2981 400 61 1500 000/00 RMK AO2 T02330156 PNO $
53988KBKB BKB20190425175014804/25/19 17:50:31  5-MIN KBKB 252350Z AUTO 00000KT 10SM FEW047 23/15 A2981 400 59 1500 000/00 RMK AO2 SLP121 6//// T02330150 10261 20228 55002 PNO $
53988KBKB BKB20190425175511704/25/19 17:55:31  5-MIN KBKB 252355Z AUTO VRB03KT 10SM FEW047 23/15 A2981 400 59 1500 VRB/03 RMK AO2 T02330150 PNO $
53988KBKB BKB20190425180011704/25/19 18:00:31  5-MIN KBKB 260000Z AUTO VRB03KT 10SM FEW047 23/16 A2981 400 63 1400 VRB/03 RMK AO2 T02280156 PNO $
53988KBKB BKB20190425180511404/25/19 18:05:31  5-MIN KBKB 260005Z AUTO 00000KT 10SM CLR 23/15 A2982 390 61 1400 000/00 RMK AO2 T02280150 PNO $
53988KBKB BKB20190425181011404/25/19 18:10:31  5-MIN KBKB 260010Z AUTO 00000KT 10SM CLR 23/16 A2982 390 63 1400 000/00 RMK AO2 T02280156 PNO $
53988KBKB BKB20190425181511404/25/19 18:15:31  5-MIN KBKB 260015Z AUTO 00000KT 10SM CLR 22/16 A2982 390 65 1400 000/00 RMK AO2 T02220156 PNO $
53988KBKB BKB20190425182011404/25/19 18:20:31  5-MIN KBKB 260020Z AUTO 00000KT 10SM CLR 22/16 A2982 390 65 1400 000/00 RMK AO2 T02220156 PNO $
53988KBKB BKB20190425182511404/25/19 18:25:31  5-MIN KBKB 260025Z AUTO 00000KT 10SM CLR 22/16 A2983 390 65 1400 000/00 RMK AO2 T02220156 PNO $
53988KBKB BKB20190425183011404/25/19 18:30:31  5-MIN KBKB 260030Z AUTO 00000KT 10SM CLR 22/16 A2983 380 68 1300 000/00 RMK AO2 T02170156 PNO $
53988KBKB BKB20190425183511404/25/19 18:35:31  5-MIN KBKB 260035Z AUTO 00000KT 10SM CLR 22/16 A2983 380 70 1300 000/00 RMK AO2 T02170161 PNO $
53988KBKB BKB20190425184011404/25/19 18:40:31  5-MIN KBKB 260040Z AUTO 00000KT 10SM CLR 21/16 A2983 380 73 1200 000/00 RMK AO2 T02110161 PNO $
53988KBKB BKB20190425184511404/25/19 18:45:31  5-MIN KBKB 260045Z AUTO 00000KT 10SM CLR 21/16 A2983 380 75 1200 000/00 RMK AO2 T02060161 PNO $
53988KBKB BKB20190425185012104/25/19 18:50:31  5-MIN KBKB 260050Z AUTO 00000KT 10SM CLR 21/16 A2984 380 75 1200 000/00 RMK AO2 SLP130 T02060161 PNO $
53988KBKB BKB20190425185511404/25/19 18:55:31  5-MIN KBKB 260055Z AUTO 00000KT 10SM CLR 21/16 A2984 370 75 1100 000/00 RMK AO2 T02060161 PNO $
53988KBKB BKB20190425190011404/25/19 19:00:31  5-MIN KBKB 260100Z AUTO 00000KT 10SM CLR 20/17 A2984 370 81 1100 000/00 RMK AO2 T02000167 PNO $
53988KBKB BKB20190425190511404/25/19 19:05:31  5-MIN KBKB 260105Z AUTO 00000KT 10SM CLR 20/16 A2984 370 78 1100 000/00 RMK AO2 T02000161 PNO $
53988KBKB BKB20190425191011404/25/19 19:10:31  5-MIN KBKB 260110Z AUTO 00000KT 10SM CLR 20/16 A2984 370 78 1100 000/00 RMK AO2 T02000161 PNO $
53988KBKB BKB20190425191511404/25/19 19:15:31  5-MIN KBKB 260115Z AUTO 00000KT 10SM CLR 19/16 A2984 370 78 1000 000/00 RMK AO2 T01940156 PNO $
53988KBKB BKB20190425192011404/25/19 19:20:31  5-MIN KBKB 260120Z AUTO 00000KT 10SM CLR 19/16 A2985 370 78 1000 000/00 RMK AO2 T01940156 PNO $
53988KBKB BKB20190425192511404/25/19 19:25:31  5-MIN KBKB 260125Z AUTO 00000KT 10SM CLR 19/16 A2985 370 78 1000 000/00 RMK AO2 T01940156 PNO $
53988KBKB BKB20190425193011404/25/19 19:30:31  5-MIN KBKB 260130Z AUTO 00000KT 10SM CLR 19/16 A2985 360 78 1000 000/00 RMK AO2 T01940156 PNO $
53988KBKB BKB20190425193511304/25/19 19:35:31  5-MIN KBKB 260135Z AUTO 00000KT 10SM CLR 19/16 A2985 360 81 900 000/00 RMK AO2 T01890156 PNO $
53988KBKB BKB20190425194011304/25/19 19:40:31  5-MIN KBKB 260140Z AUTO 00000KT 10SM CLR 19/16 A2986 360 81 900 000/00 RMK AO2 T01890156 PNO $
53988KBKB BKB20190425194511304/25/19 19:45:31  5-MIN KBKB 260145Z AUTO 00000KT 10SM CLR 19/16 A2986 350 81 900 000/00 RMK AO2 T01890156 PNO $
53988KBKB BKB20190425195012004/25/19 19:50:31  5-MIN KBKB 260150Z AUTO 00000KT 10SM CLR 19/16 A2986 350 84 900 000/00 RMK AO2 SLP139 T01890161 PNO $
53988KBKB BKB20190425195511304/25/19 19:55:31  5-MIN KBKB 260155Z AUTO 00000KT 10SM CLR 18/16 A2986 350 87 900 000/00 RMK AO2 T01830161 PNO $
53988KBKB BKB20190425200011304/25/19 20:00:31  5-MIN KBKB 260200Z AUTO 00000KT 10SM CLR 18/16 A2986 350 87 900 000/00 RMK AO2 T01830161 PNO $
53988KBKB BKB20190425200511304/25/19 20:05:31  5-MIN KBKB 260205Z AUTO 00000KT 10SM CLR 18/16 A2987 350 87 900 000/00 RMK AO2 T01830161 PNO $
53988KBKB BKB20190425201011304/25/19 20:10:31  5-MIN KBKB 260210Z AUTO 00000KT 10SM CLR 18/16 A2987 340 87 900 000/00 RMK AO2 T01830161 PNO $
53988KBKB BKB20190425201511304/25/19 20:15:31  5-MIN KBKB 260215Z AUTO 00000KT 10SM CLR 18/16 A2987 340 87 900 000/00 RMK AO2 T01830161 PNO $
53988KBKB BKB20190425202011304/25/19 20:20:31  5-MIN KBKB 260220Z AUTO 00000KT 10SM CLR 18/16 A2988 340 87 800 000/00 RMK AO2 T01830161 PNO $
53988KBKB BKB20190425202511304/25/19 20:25:31  5-MIN KBKB 260225Z AUTO 00000KT 10SM CLR 18/16 A2988 340 90 800 000/00 RMK AO2 T01780161 PNO $
53988KBKB BKB20190425203011304/25/19 20:30:31  5-MIN KBKB 260230Z AUTO 00000KT 10SM CLR 18/16 A2988 330 90 800 000/00 RMK AO2 T01780161 PNO $
53988KBKB BKB20190425203511304/25/19 20:35:31  5-MIN KBKB 260235Z AUTO 00000KT 10SM CLR 18/16 A2989 330 90 800 000/00 RMK AO2 T01780161 PNO $
53988KBKB BKB20190425204011304/25/19 20:40:31  5-MIN KBKB 260240Z AUTO 00000KT 10SM CLR 17/16 A2989 330 93 700 000/00 RMK AO2 T01720161 PNO $
53988KBKB BKB20190425204511304/25/19 20:45:31  5-MIN KBKB 260245Z AUTO 00000KT 10SM CLR 17/16 A2989 330 93 700 000/00 RMK AO2 T01720161 PNO $
53988KBKB BKB20190425205013204/25/19 20:50:31  5-MIN KBKB 260250Z AUTO 00000KT 10SM CLR 17/16 A2989 320 90 700 000/00 RMK AO2 SLP149 6//// T01720156 53013 PNO $
53988KBKB BKB20190425205511304/25/19 20:55:31  5-MIN KBKB 260255Z AUTO 00000KT 10SM CLR 17/16 A2989 320 90 700 000/00 RMK AO2 T01720156 PNO $
53988KBKB BKB20190425210011304/25/19 21:00:31  5-MIN KBKB 260300Z AUTO 00000KT 10SM CLR 17/16 A2990 320 90 700 000/00 RMK AO2 T01720156 PNO $
53988KBKB BKB20190425210511304/25/19 21:05:31  5-MIN KBKB 260305Z AUTO 00000KT 10SM CLR 17/16 A2990 320 90 700 000/00 RMK AO2 T01720156 PNO $
53988KBKB BKB20190425211011304/25/19 21:10:31  5-MIN KBKB 260310Z AUTO 00000KT 10SM CLR 17/16 A2990 320 93 700 000/00 RMK AO2 T01720161 PNO $
53988KBKB BKB20190425211511304/25/19 21:15:31  5-MIN KBKB 260315Z AUTO 00000KT 10SM CLR 17/16 A2990 310 93 700 000/00 RMK AO2 T01720161 PNO $
53988KBKB BKB20190425212011304/25/19 21:20:31  5-MIN KBKB 260320Z AUTO 00000KT 10SM CLR 17/16 A2991 310 93 700 000/00 RMK AO2 T01720161 PNO $
53988KBKB BKB20190425212511304/25/19 21:25:31  5-MIN KBKB 260325Z AUTO 00000KT 10SM CLR 17/16 A2991 310 93 700 000/00 RMK AO2 T01720161 PNO $
53988KBKB BKB20190425213011304/25/19 21:30:31  5-MIN KBKB 260330Z AUTO 00000KT 10SM CLR 17/16 A2991 310 90 700 000/00 RMK AO2 T01720156 PNO $
53988KBKB BKB20190425213511304/25/19 21:35:31  5-MIN KBKB 260335Z AUTO 00000KT 10SM CLR 17/16 A2991 310 90 700 000/00 RMK AO2 T01720156 PNO $
53988KBKB BKB20190425214011304/25/19 21:40:31  5-MIN KBKB 260340Z AUTO 00000KT 10SM CLR 17/16 A2991 310 90 700 000/00 RMK AO2 T01720156 PNO $
53988KBKB BKB20190425214511304/25/19 21:45:31  5-MIN KBKB 260345Z AUTO 00000KT 10SM CLR 17/16 A2992 300 90 700 000/00 RMK AO2 T01720156 PNO $
53988KBKB BKB20190425215012004/25/19 21:50:31  5-MIN KBKB 260350Z AUTO 00000KT 10SM CLR 18/16 A2992 300 90 700 000/00 RMK AO2 SLP157 T01780161 PNO $
53988KBKB BKB20190425215511304/25/19 21:55:31  5-MIN KBKB 260355Z AUTO VRB03KT 10SM CLR 18/16 A2992 300 87 700 VRB/03 RMK AO2 T01780156 PNO $
53988KBKB BKB20190425220011304/25/19 22:00:31  5-MIN KBKB 260400Z AUTO VRB04KT 10SM CLR 19/16 A2992 300 81 900 VRB/04 RMK AO2 T01890156 PNO $
53988KBKB BKB20190425220511304/25/19 22:05:31  5-MIN KBKB 260405Z AUTO VRB03KT 10SM CLR 19/16 A2992 300 81 900 VRB/03 RMK AO2 T01890156 PNO $
53988KBKB BKB20190425221011304/25/19 22:10:31  5-MIN KBKB 260410Z AUTO VRB05KT 10SM CLR 19/16 A2992 300 78 900 VRB/05 RMK AO2 T01940156 PNO $
53988KBKB BKB20190425221511304/25/19 22:15:31  5-MIN KBKB 260415Z AUTO VRB03KT 10SM CLR 19/16 A2992 290 78 900 VRB/03 RMK AO2 T01940156 PNO $
53988KBKB BKB20190425222011304/25/19 22:20:31  5-MIN KBKB 260420Z AUTO 00000KT 10SM CLR 19/16 A2993 290 78 900 000/00 RMK AO2 T01940156 PNO $
53988KBKB BKB20190425222511304/25/19 22:25:31  5-MIN KBKB 260425Z AUTO 00000KT 10SM CLR 19/16 A2993 290 81 900 000/00 RMK AO2 T01890156 PNO $
53988KBKB BKB20190425223011304/25/19 22:30:31  5-MIN KBKB 260430Z AUTO 00000KT 10SM CLR 19/16 A2993 290 81 900 000/00 RMK AO2 T01890156 PNO $
53988KBKB BKB20190425223511304/25/19 22:35:31  5-MIN KBKB 260435Z AUTO VRB04KT 10SM CLR 19/16 A2993 290 78 900 VRB/04 RMK AO2 T01940156 PNO $
53988KBKB BKB20190425224011304/25/19 22:40:31  5-MIN KBKB 260440Z AUTO VRB04KT 10SM CLR 19/16 A2993 290 78 900 VRB/04 RMK AO2 T01940156 PNO $
53988KBKB BKB20190425224511304/25/19 22:45:31  5-MIN KBKB 260445Z AUTO VRB03KT 10SM CLR 19/16 A2993 290 81 800 VRB/03 RMK AO2 T01890156 PNO $
53988KBKB BKB20190425225012004/25/19 22:50:31  5-MIN KBKB 260450Z AUTO VRB03KT 10SM CLR 19/16 A2993 290 81 900 VRB/03 RMK AO2 SLP162 T01890156 PNO $
53988KBKB BKB20190425225511304/25/19 22:55:31  5-MIN KBKB 260455Z AUTO 00000KT 10SM CLR 19/16 A2993 290 81 800 000/00 RMK AO2 T01890156 PNO $
53988KBKB BKB20190425230011304/25/19 23:00:31  5-MIN KBKB 260500Z AUTO 00000KT 10SM CLR 18/16 A2993 280 84 800 000/00 RMK AO2 T01830156 PNO $
53988KBKB BKB20190425230511304/25/19 23:05:31  5-MIN KBKB 260505Z AUTO VRB03KT 10SM CLR 19/16 A2994 280 81 800 VRB/03 RMK AO2 T01890156 PNO $
53988KBKB BKB20190425231011304/25/19 23:10:31  5-MIN KBKB 260510Z AUTO 00000KT 10SM CLR 18/16 A2994 280 84 800 000/00 RMK AO2 T01830156 PNO $
53988KBKB BKB20190425231511304/25/19 23:15:31  5-MIN KBKB 260515Z AUTO 00000KT 10SM CLR 18/16 A2994 280 84 800 000/00 RMK AO2 T01830156 PNO $
53988KBKB BKB20190425232011304/25/19 23:20:31  5-MIN KBKB 260520Z AUTO 00000KT 10SM CLR 18/16 A2994 280 84 800 000/00 RMK AO2 T01830156 PNO $
53988KBKB BKB20190425232511304/25/19 23:25:31  5-MIN KBKB 260525Z AUTO 00000KT 10SM CLR 18/16 A2994 280 87 700 000/00 RMK AO2 T01780156 PNO $
53988KBKB BKB20190425233011304/25/19 23:30:31  5-MIN KBKB 260530Z AUTO 00000KT 10SM CLR 18/16 A2994 280 87 700 000/00 RMK AO2 T01780156 PNO $
53988KBKB BKB20190425233511304/25/19 23:35:31  5-MIN KBKB 260535Z AUTO 00000KT 10SM CLR 18/16 A2994 280 87 700 000/00 RMK AO2 T01780156 PNO $
53988KBKB BKB20190425234011304/25/19 23:40:31  5-MIN KBKB 260540Z AUTO 00000KT 10SM CLR 17/16 A2994 280 90 600 000/00 RMK AO2 T01720156 PNO $
53988KBKB BKB20190425234511304/25/19 23:45:31  5-MIN KBKB 260545Z AUTO 00000KT 10SM CLR 17/16 A2994 280 90 600 000/00 RMK AO2 T01720156 PNO $
53988KBKB BKB20190425235015404/25/19 23:50:31  5-MIN KBKB 260550Z AUTO 00000KT 10SM CLR 17/16 A2994 280 90 600 000/00 RMK AO2 SLP164 6//// T01720156 10233 20172 402610172 53027 PNO $
53988KBKB BKB20190425235511304/25/19 23:55:31  5-MIN KBKB 260555Z AUTO 00000KT 10SM CLR 17/15 A2994 280 87 600 000/00 RMK AO2 T01720150 PNO $
53988KBKB BKB20190426000011304/26/19 00:00:31  5-MIN KBKB 260600Z AUTO 00000KT 10SM CLR 17/15 A2994 280 87 600 000/00 RMK AO2 T01720150 PNO $
53988KBKB BKB20190426000511304/26/19 00:05:31  5-MIN KBKB 260605Z AUTO 00000KT 10SM CLR 17/15 A2994 280 90 600 000/00 RMK AO2 T01670150 PNO $
53988KBKB BKB20190426001011304/26/19 00:10:31  5-MIN KBKB 260610Z AUTO 00000KT 10SM CLR 17/15 A2994 280 90 600 000/00 RMK AO2 T01670150 PNO $
53988KBKB BKB20190426001511304/26/19 00:15:31  5-MIN KBKB 260615Z AUTO 00000KT 10SM CLR 16/15 A2994 280 93 500 000/00 RMK AO2 T01610150 PNO $
53988KBKB BKB20190426002011304/26/19 00:20:31  5-MIN KBKB 260620Z AUTO 00000KT 10SM CLR 16/15 A2994 280 93 500 000/00 RMK AO2 T01610150 PNO $
53988KBKB BKB20190426002511304/26/19 00:25:31  5-MIN KBKB 260625Z AUTO 00000KT 10SM CLR 16/15 A2994 280 93 500 000/00 RMK AO2 T01610150 PNO $
53988KBKB BKB20190426003011304/26/19 00:30:31  5-MIN KBKB 260630Z AUTO 00000KT 10SM CLR 16/15 A2994 280 93 500 000/00 RMK AO2 T01610150 PNO $
53988KBKB BKB20190426003511304/26/19 00:35:31  5-MIN KBKB 260635Z AUTO 00000KT 10SM CLR 16/15 A2994 280 93 500 000/00 RMK AO2 T01610150 PNO $
53988KBKB BKB20190426004011304/26/19 00:40:31  5-MIN KBKB 260640Z AUTO 00000KT 10SM CLR 16/15 A2994 280 93 500 000/00 RMK AO2 T01610150 PNO $
53988KBKB BKB20190426004511304/26/19 00:45:31  5-MIN KBKB 260645Z AUTO 00000KT 10SM CLR 16/15 A2994 280 93 500 000/00 RMK AO2 T01610150 PNO $
53988KBKB BKB20190426005012004/26/19 00:50:31  5-MIN KBKB 260650Z AUTO 00000KT 10SM CLR 16/15 A2993 290 96 500 000/00 RMK AO2 SLP163 T01560150 PNO $
53988KBKB BKB20190426005511304/26/19 00:55:31  5-MIN KBKB 260655Z AUTO 00000KT 10SM CLR 16/15 A2993 290 93 500 000/00 RMK AO2 T01610150 PNO $
53988KBKB BKB20190426010011304/26/19 01:00:31  5-MIN KBKB 260700Z AUTO VRB03KT 10SM CLR 16/15 A2993 290 93 500 VRB/03 RMK AO2 T01610150 PNO $
53988KBKB BKB20190426010511304/26/19 01:05:31  5-MIN KBKB 260705Z AUTO 00000KT 10SM CLR 17/15 A2993 290 90 600 000/00 RMK AO2 T01670150 PNO $
53988KBKB BKB20190426011011304/26/19 01:10:31  5-MIN KBKB 260710Z AUTO 00000KT 10SM CLR 17/15 A2993 290 87 700 000/00 RMK AO2 T01720150 PNO $
53988KBKB BKB20190426011511304/26/19 01:15:31  5-MIN KBKB 260715Z AUTO 00000KT 10SM CLR 17/15 A2993 290 90 600 000/00 RMK AO2 T01670150 PNO $
53988KBKB BKB20190426012011304/26/19 01:20:31  5-MIN KBKB 260720Z AUTO VRB03KT 10SM CLR 17/14 A2993 290 86 600 VRB/03 RMK AO2 T01670144 PNO $
53988KBKB BKB20190426012511304/26/19 01:25:31  5-MIN KBKB 260725Z AUTO 00000KT 10SM CLR 17/14 A2993 290 86 600 000/00 RMK AO2 T01670144 PNO $
53988KBKB BKB20190426013011304/26/19 01:30:31  5-MIN KBKB 260730Z AUTO 00000KT 10SM CLR 17/14 A2993 290 86 600 000/00 RMK AO2 T01670144 PNO $
53988KBKB BKB20190426013511304/26/19 01:35:31  5-MIN KBKB 260735Z AUTO VRB03KT 10SM CLR 17/14 A2993 290 83 700 VRB/03 RMK AO2 T01720144 PNO $
53988KBKB BKB20190426014011304/26/19 01:40:31  5-MIN KBKB 260740Z AUTO 00000KT 10SM CLR 17/14 A2993 290 83 700 000/00 RMK AO2 T01720144 PNO $
53988KBKB BKB20190426014511304/26/19 01:45:31  5-MIN KBKB 260745Z AUTO 00000KT 10SM CLR 17/14 A2993 290 83 700 000/00 RMK AO2 T01720144 PNO $
53988KBKB BKB20190426020511304/26/19 02:05:31  5-MIN KBKB 260805Z AUTO 00000KT 10SM CLR 17/14 A2993 290 83 700 000/00 RMK AO2 T01720144 PNO $
53988KBKB BKB20190426021011304/26/19 02:10:31  5-MIN KBKB 260810Z AUTO 00000KT 10SM CLR 17/14 A2993 290 83 700 000/00 RMK AO2 T01720144 PNO $
53988KBKB BKB20190426021511304/26/19 02:15:31  5-MIN KBKB 260815Z AUTO 00000KT 10SM CLR 17/14 A2993 290 83 700 000/00 RMK AO2 T01720144 PNO $
53988KBKB BKB20190426022011304/26/19 02:20:31  5-MIN KBKB 260820Z AUTO VRB03KT 10SM CLR 17/14 A2993 290 83 700 VRB/03 RMK AO2 T01720144 PNO $
53988KBKB BKB20190426022511304/26/19 02:25:31  5-MIN KBKB 260825Z AUTO 00000KT 10SM CLR 17/14 A2993 290 83 700 000/00 RMK AO2 T01720144 PNO $
53988KBKB BKB20190426023011304/26/19 02:30:31  5-MIN KBKB 260830Z AUTO 00000KT 10SM CLR 17/14 A2993 290 86 600 000/00 RMK AO2 T01670144 PNO $
53988KBKB BKB20190426023511304/26/19 02:35:31  5-MIN KBKB 260835Z AUTO 00000KT 10SM CLR 17/14 A2993 290 83 700 000/00 RMK AO2 T01720144 PNO $
53988KBKB BKB20190426024011304/26/19 02:40:31  5-MIN KBKB 260840Z AUTO 00000KT 10SM CLR 17/14 A2993 290 83 700 000/00 RMK AO2 T01720144 PNO $
53988KBKB BKB20190426024511304/26/19 02:45:31  5-MIN KBKB 260845Z AUTO 00000KT 10SM CLR 17/14 A2993 290 83 700 000/00 RMK AO2 T01720144 PNO $
53988KBKB BKB20190426025013204/26/19 02:50:31  5-MIN KBKB 260850Z AUTO 00000KT 10SM CLR 17/14 A2993 290 86 600 000/00 RMK AO2 SLP163 6//// T01670144 51015 PNO $
53988KBKB BKB20190426025511304/26/19 02:55:31  5-MIN KBKB 260855Z AUTO 00000KT 10SM CLR 17/14 A2993 290 86 600 000/00 RMK AO2 T01670144 PNO $
53988KBKB BKB20190426030011304/26/19 03:00:31  5-MIN KBKB 260900Z AUTO 00000KT 10SM CLR 17/14 A2993 290 86 600 000/00 RMK AO2 T01670144 PNO $
53988KBKB BKB20190426030511304/26/19 03:05:31  5-MIN KBKB 260905Z AUTO 00000KT 10SM CLR 17/14 A2993 280 86 600 000/00 RMK AO2 T01670144 PNO $
53988KBKB BKB20190426031011304/26/19 03:10:31  5-MIN KBKB 260910Z AUTO 00000KT 10SM CLR 17/14 A2994 280 86 600 000/00 RMK AO2 T01670144 PNO $
53988KBKB BKB20190426031511304/26/19 03:15:31  5-MIN KBKB 260915Z AUTO 00000KT 10SM CLR 17/14 A2994 280 86 600 000/00 RMK AO2 T01670144 PNO $
53988KBKB BKB20190426032011304/26/19 03:20:31  5-MIN KBKB 260920Z AUTO 00000KT 10SM CLR 17/14 A2994 280 86 600 000/00 RMK AO2 T01670144 PNO $
53988KBKB BKB20190426032511304/26/19 03:25:31  5-MIN KBKB 260925Z AUTO 00000KT 10SM CLR 17/14 A2994 280 86 600 000/00 RMK AO2 T01670144 PNO $
53988KBKB BKB20190426033011304/26/19 03:30:31  5-MIN KBKB 260930Z AUTO 00000KT 10SM CLR 16/14 A2994 280 90 500 000/00 RMK AO2 T01610144 PNO $
53988KBKB BKB20190426033511304/26/19 03:35:31  5-MIN KBKB 260935Z AUTO 00000KT 10SM CLR 16/14 A2994 280 90 500 000/00 RMK AO2 T01610144 PNO $
53988KBKB BKB20190426034011304/26/19 03:40:31  5-MIN KBKB 260940Z AUTO 00000KT 10SM CLR 16/14 A2994 280 90 500 000/00 RMK AO2 T01610144 PNO $
53988KBKB BKB20190426034511304/26/19 03:45:31  5-MIN KBKB 260945Z AUTO 00000KT 10SM CLR 16/14 A2995 270 90 500 000/00 RMK AO2 T01610144 PNO $
53988KBKB BKB20190426035012004/26/19 03:50:31  5-MIN KBKB 260950Z AUTO 00000KT 10SM CLR 16/14 A2995 270 90 500 000/00 RMK AO2 SLP168 T01610144 PNO $
53988KBKB BKB20190426035511304/26/19 03:55:31  5-MIN KBKB 260955Z AUTO 00000KT 10SM CLR 16/14 A2995 270 90 500 000/00 RMK AO2 T01610144 PNO $
53988KBKB BKB20190426040011304/26/19 04:00:31  5-MIN KBKB 261000Z AUTO 00000KT 10SM CLR 16/14 A2995 270 90 500 000/00 RMK AO2 T01610144 PNO $
53988KBKB BKB20190426040511304/26/19 04:05:31  5-MIN KBKB 261005Z AUTO 00000KT 10SM CLR 16/14 A2995 270 90 500 000/00 RMK AO2 T01610144 PNO $
53988KBKB BKB20190426041011304/26/19 04:10:31  5-MIN KBKB 261010Z AUTO 00000KT 10SM CLR 17/14 A2995 270 86 600 000/00 RMK AO2 T01670144 PNO $
53988KBKB BKB20190426041511304/26/19 04:15:31  5-MIN KBKB 261015Z AUTO VRB04KT 10SM CLR 17/14 A2995 270 86 600 VRB/04 RMK AO2 T01670144 PNO $
53988KBKB BKB20190426042011304/26/19 04:20:31  5-MIN KBKB 261020Z AUTO 00000KT 10SM CLR 17/14 A2995 270 86 600 000/00 RMK AO2 T01670144 PNO $
53988KBKB BKB20190426042511304/26/19 04:25:31  5-MIN KBKB 261025Z AUTO 00000KT 10SM CLR 17/14 A2996 270 86 600 000/00 RMK AO2 T01670144 PNO $
53988KBKB BKB20190426043011304/26/19 04:30:31  5-MIN KBKB 261030Z AUTO VRB03KT 10SM CLR 17/14 A2996 260 86 600 VRB/03 RMK AO2 T01670144 PNO $
53988KBKB BKB20190426043511304/26/19 04:35:31  5-MIN KBKB 261035Z AUTO 00000KT 10SM CLR 17/14 A2996 260 86 600 000/00 RMK AO2 T01670144 PNO $
53988KBKB BKB20190426044011304/26/19 04:40:31  5-MIN KBKB 261040Z AUTO 00000KT 10SM CLR 17/14 A2996 260 86 600 000/00 RMK AO2 T01670144 PNO $
53988KBKB BKB20190426044511304/26/19 04:45:31  5-MIN KBKB 261045Z AUTO 00000KT 10SM CLR 17/14 A2996 260 86 600 000/00 RMK AO2 T01670144 PNO $
53988KBKB BKB20190426045012004/26/19 04:50:31  5-MIN KBKB 261050Z AUTO VRB03KT 10SM CLR 17/14 A2996 260 86 600 VRB/03 RMK AO2 SLP174 T01670144 PNO $
53988KBKB BKB20190426045511304/26/19 04:55:31  5-MIN KBKB 261055Z AUTO 00000KT 10SM CLR 17/14 A2996 260 86 600 000/00 RMK AO2 T01670144 PNO $
53988KBKB BKB20190426050011304/26/19 05:00:31  5-MIN KBKB 261100Z AUTO 00000KT 10SM CLR 17/14 A2997 260 86 600 000/00 RMK AO2 T01670144 PNO $
53988KBKB BKB20190426050511304/26/19 05:05:31  5-MIN KBKB 261105Z AUTO 00000KT 10SM CLR 17/14 A2997 250 86 600 000/00 RMK AO2 T01670144 PNO $
53988KBKB BKB20190426051011304/26/19 05:10:31  5-MIN KBKB 261110Z AUTO 00000KT 10SM CLR 16/14 A2997 250 90 500 000/00 RMK AO2 T01610144 PNO $
53988KBKB BKB20190426051511304/26/19 05:15:31  5-MIN KBKB 261115Z AUTO 00000KT 10SM CLR 16/14 A2997 250 90 500 000/00 RMK AO2 T01610144 PNO $
53988KBKB BKB20190426052011304/26/19 05:20:31  5-MIN KBKB 261120Z AUTO 00000KT 10SM CLR 16/14 A2997 250 90 500 000/00 RMK AO2 T01610144 PNO $
53988KBKB BKB20190426052511304/26/19 05:25:31  5-MIN KBKB 261125Z AUTO 00000KT 10SM CLR 16/14 A2998 240 90 500 000/00 RMK AO2 T01610144 PNO $
53988KBKB BKB20190426053011304/26/19 05:30:31  5-MIN KBKB 261130Z AUTO 00000KT 10SM CLR 16/14 A2998 240 90 500 000/00 RMK AO2 T01610144 PNO $
53988KBKB BKB20190426053511304/26/19 05:35:31  5-MIN KBKB 261135Z AUTO VRB04KT 10SM CLR 17/14 A2999 240 86 500 VRB/04 RMK AO2 T01670144 PNO $
53988KBKB BKB20190426054011304/26/19 05:40:31  5-MIN KBKB 261140Z AUTO VRB03KT 10SM CLR 17/14 A2999 230 86 500 VRB/03 RMK AO2 T01670144 PNO $
53988KBKB BKB20190426054511304/26/19 05:45:31  5-MIN KBKB 261145Z AUTO VRB03KT 10SM CLR 17/14 A2999 230 86 500 VRB/03 RMK AO2 T01670144 PNO $
53988KBKB BKB20190426055015004/26/19 05:50:31  5-MIN KBKB 261150Z AUTO VRB03KT 10SM CLR 17/14 A3000 230 86 500 VRB/03 RMK AO2 SLP185 6//// 7//// T01670144 10178 20156 55002 PNO $
53988KBKB BKB20190426055511304/26/19 05:55:31  5-MIN KBKB 261155Z AUTO VRB04KT 10SM CLR 17/14 A3000 220 86 500 VRB/04 RMK AO2 T01670144 PNO $
53988KBKB BKB20190426060011304/26/19 06:00:31  5-MIN KBKB 261200Z AUTO VRB04KT 10SM CLR 17/14 A3001 220 86 500 VRB/04 RMK AO2 T01670144 PNO $
53988KBKB BKB20190426060511304/26/19 06:05:31  5-MIN KBKB 261205Z AUTO VRB04KT 10SM CLR 17/14 A3001 220 86 500 VRB/04 RMK AO2 T01670144 PNO $
53988KBKB BKB20190426061011304/26/19 06:10:31  5-MIN KBKB 261210Z AUTO VRB05KT 10SM CLR 17/14 A3001 210 86 500 VRB/05 RMK AO2 T01670144 PNO $
53988KBKB BKB20190426061511304/26/19 06:15:31  5-MIN KBKB 261215Z AUTO VRB03KT 10SM CLR 17/14 A3001 210 86 500 VRB/03 RMK AO2 T01670144 PNO $
53988KBKB BKB20190426062011304/26/19 06:20:31  5-MIN KBKB 261220Z AUTO 36003KT 10SM CLR 17/14 A3002 210 86 500 350/03 RMK AO2 T01670144 PNO $
53988KBKB BKB20190426062510304/26/19 06:25:31  5-MIN KBKB 261225Z AUTO 10SM CLR 17/14 A3002 210 86 500 M /M RMK AO2 T01670144 PNO $
53988KBKB BKB20190426063011304/26/19 06:30:31  5-MIN KBKB 261230Z AUTO VRB04KT 10SM CLR 17/14 A3002 200 83 600 VRB/04 RMK AO2 T01720144 PNO $
53988KBKB BKB20190426063511304/26/19 06:35:31  5-MIN KBKB 261235Z AUTO VRB04KT 10SM CLR 17/14 A3003 200 83 500 VRB/04 RMK AO2 T01720144 PNO $
53988KBKB BKB20190426064010304/26/19 06:40:31  5-MIN KBKB 261240Z AUTO 10SM CLR 17/14 A3003 200 83 500 M /M RMK AO2 T01720144 PNO $
53988KBKB BKB20190426064511304/26/19 06:45:31  5-MIN KBKB 261245Z AUTO 36004KT 10SM CLR 18/14 A3003 190 81 600 360/04 RMK AO2 T01780144 PNO $
53988KBKB BKB20190426065012004/26/19 06:50:31  5-MIN KBKB 261250Z AUTO VRB04KT 10SM CLR 18/15 A3003 190 83 600 VRB/04 RMK AO2 SLP197 T01780150 PNO $
53988KBKB BKB20190426065019604/26/19 06:50:31  5-MIN KBKB 261250Z AUTO VRB04KT 10SM CLR 18/15 A3003 190 83 600 VRB/04 RMK AO2 SLP197 T01780150 PNO $ 78 700 VRB/05 RMK AO2 T01890150 PNO $ 75 800 VRB/03 RMK AO2 T01940150 PNO $
53988KBKB BKB20190426065511304/26/19 06:55:31  5-MIN KBKB 261255Z AUTO VRB04KT 10SM CLR 18/15 A3004 190 81 700 VRB/04 RMK AO2 T01830150 PNO $
53988KBKB BKB20190426070011304/26/19 07:00:31  5-MIN KBKB 261300Z AUTO VRB05KT 10SM CLR 18/15 A3004 190 81 700 VRB/05 RMK AO2 T01830150 PNO $
53988KBKB BKB20190426070511304/26/19 07:05:31  5-MIN KBKB 261305Z AUTO VRB05KT 10SM CLR 18/15 A3004 190 81 700 VRB/05 RMK AO2 T01830150 PNO $
53988KBKB BKB20190426071011304/26/19 07:10:31  5-MIN KBKB 261310Z AUTO VRB04KT 10SM CLR 19/15 A3004 180 78 700 VRB/04 RMK AO2 T01890150 PNO $
53988KBKB BKB20190426071511304/26/19 07:15:31  5-MIN KBKB 261315Z AUTO VRB05KT 10SM CLR 19/15 A3005 180 78 700 VRB/05 RMK AO2 T01890150 PNO $
53988KBKB BKB20190426072011304/26/19 07:20:31  5-MIN KBKB 261320Z AUTO VRB03KT 10SM CLR 19/15 A3005 180 78 700 VRB/03 RMK AO2 T01890150 PNO $
53988KBKB BKB20190426072511304/26/19 07:25:31  5-MIN KBKB 261325Z AUTO VRB06KT 10SM CLR 19/15 A3005 180 75 800 VRB/06 RMK AO2 T01940150 PNO $
53988KBKB BKB20190426073011304/26/19 07:30:31  5-MIN KBKB 261330Z AUTO VRB03KT 10SM CLR 19/15 A3005 170 75 800 VRB/03 RMK AO2 T01940150 PNO $
53988KBKB BKB20190426073511304/26/19 07:35:31  5-MIN KBKB 261335Z AUTO VRB03KT 10SM CLR 19/16 A3006 170 78 800 VRB/03 RMK AO2 T01940156 PNO $
53988KBKB BKB20190426074011304/26/19 07:40:31  5-MIN KBKB 261340Z AUTO VRB05KT 10SM CLR 19/15 A3005 170 75 800 VRB/05 RMK AO2 T01940150 PNO $
53988KBKB BKB20190426074511304/26/19 07:45:31  5-MIN KBKB 261345Z AUTO 02004KT 10SM CLR 19/15 A3006 170 75 800 010/04 RMK AO2 T01940150 PNO $
53988KBKB BKB20190426075013604/26/19 07:50:31  5-MIN KBKB 261350Z AUTO 03007KT 350V070 10SM CLR 20/15 A3006 170 72 800 020/07 350V070 RMK AO2 SLP206 T02000150 PNO $
53988KBKB BKB20190426075511304/26/19 07:55:31  5-MIN KBKB 261355Z AUTO VRB06KT 10SM CLR 19/14 A3006 170 72 800 VRB/06 RMK AO2 T01940144 PNO $
53988KBKB BKB20190426080011304/26/19 08:00:31  5-MIN KBKB 261400Z AUTO VRB03KT 10SM CLR 20/15 A3006 170 72 800 VRB/03 RMK AO2 T02000150 PNO $
53988KBKB BKB20190426080512904/26/19 08:05:31  5-MIN KBKB 261405Z AUTO 03008KT 350V070 10SM CLR 20/15 A3006 170 72 800 020/08 350V070 RMK AO2 T02000150 PNO $
53988KBKB BKB20190426081011304/26/19 08:10:31  5-MIN KBKB 261410Z AUTO VRB06KT 10SM CLR 20/14 A3007 160 70 800 VRB/06 RMK AO2 T02000144 PNO $
53988KBKB BKB20190426081511304/26/19 08:15:31  5-MIN KBKB 261415Z AUTO VRB05KT 10SM CLR 21/14 A3007 160 67 900 VRB/05 RMK AO2 T02060144 PNO $
53988KBKB BKB20190426082011304/26/19 08:20:31  5-MIN KBKB 261420Z AUTO VRB04KT 10SM CLR 21/14 A3007 160 67 900 VRB/04 RMK AO2 T02060144 PNO $
53988KBKB BKB20190426082511304/26/19 08:25:31  5-MIN KBKB 261425Z AUTO VRB05KT 10SM CLR 21/14 A3007 160 67 900 VRB/05 RMK AO2 T02060144 PNO $
53988KBKB BKB20190426083011304/26/19 08:30:31  5-MIN KBKB 261430Z AUTO VRB06KT 10SM CLR 21/14 A3007 160 67 900 VRB/06 RMK AO2 T02060144 PNO $
53988KBKB BKB20190426083511304/26/19 08:35:31  5-MIN KBKB 261435Z AUTO VRB04KT 10SM CLR 21/15 A3007 160 68 900 VRB/04 RMK AO2 T02110150 PNO $
53988KBKB BKB20190426084011404/26/19 08:40:31  5-MIN KBKB 261440Z AUTO VRB06KT 10SM CLR 22/15 A3007 160 65 1000 VRB/06 RMK AO2 T02170150 PNO $
53988KBKB BKB20190426084511404/26/19 08:45:31  5-MIN KBKB 261445Z AUTO VRB04KT 10SM CLR 22/15 A3008 150 65 1000 VRB/04 RMK AO2 T02170150 PNO $
53988KBKB BKB20190426085013304/26/19 08:50:31  5-MIN KBKB 261450Z AUTO VRB06KT 10SM CLR 22/14 A3008 150 63 1000 VRB/06 RMK AO2 SLP212 6//// T02170144 53022 PNO $
53988KBKB BKB20190426085511404/26/19 08:55:31  5-MIN KBKB 261455Z AUTO VRB05KT 10SM CLR 22/14 A3008 150 63 1000 VRB/05 RMK AO2 T02170144 PNO $
53988KBKB BKB20190426090013004/26/19 09:00:31  5-MIN KBKB 261500Z AUTO 04007KT 340V090 10SM CLR 22/14 A3008 150 63 1000 040/07 340V090 RMK AO2 T02170144 PNO $
53988KBKB BKB20190426090513004/26/19 09:05:31  5-MIN KBKB 261505Z AUTO 03007KT 340V080 10SM CLR 22/14 A3008 150 63 1000 020/07 340V080 RMK AO2 T02170144 PNO $
53988KBKB BKB20190426091011404/26/19 09:10:31  5-MIN KBKB 261510Z AUTO VRB05KT 10SM CLR 22/14 A3008 150 61 1100 VRB/05 RMK AO2 T02220144 PNO $
53988KBKB BKB20190426091511404/26/19 09:15:31  5-MIN KBKB 261515Z AUTO VRB06KT 10SM CLR 22/14 A3008 150 61 1100 VRB/06 RMK AO2 T02220144 PNO $
53988KBKB BKB20190426092010404/26/19 09:20:31  5-MIN KBKB 261520Z AUTO 10SM CLR 23/14 A3008 150 59 1100 M /M RMK AO2 T02280144 PNO $
53988KBKB BKB20190426092511404/26/19 09:25:31  5-MIN KBKB 261525Z AUTO VRB04KT 10SM CLR 23/14 A3008 150 59 1100 VRB/04 RMK AO2 T02280144 PNO $
53988KBKB BKB20190426093010404/26/19 09:30:31  5-MIN KBKB 261530Z AUTO 10SM CLR 23/14 A3008 150 59 1100 M /M RMK AO2 T02280144 PNO $
53988KBKB BKB20190426093513004/26/19 09:35:31  5-MIN KBKB 261535Z AUTO 03007KT 350V060 10SM CLR 23/14 A3008 150 57 1100 030/07 350V060 RMK AO2 T02280139 PNO $
53988KBKB BKB20190426094011404/26/19 09:40:31  5-MIN KBKB 261540Z AUTO 00000KT 10SM CLR 23/14 A3008 150 57 1100 000/00 RMK AO2 T02280139 PNO $
53988KBKB BKB20190426094511404/26/19 09:45:31  5-MIN KBKB 261545Z AUTO VRB06KT 10SM CLR 23/14 A3008 150 55 1200 VRB/06 RMK AO2 T02330139 PNO $
53988KBKB BKB20190426095012104/26/19 09:50:31  5-MIN KBKB 261550Z AUTO 03005KT 10SM CLR 23/13 A3009 150 55 1100 030/05 RMK AO2 SLP215 T02280133 PNO $
53988KBKB BKB20190426095511404/26/19 09:55:31  5-MIN KBKB 261555Z AUTO VRB03KT 10SM CLR 24/14 A3008 150 53 1300 VRB/03 RMK AO2 T02390139 PNO $
53988KBKB BKB20190426100011404/26/19 10:00:31  5-MIN KBKB 261600Z AUTO VRB04KT 10SM CLR 23/14 A3009 140 57 1100 VRB/04 RMK AO2 T02280139 PNO $
53988KBKB BKB20190426100511404/26/19 10:05:31  5-MIN KBKB 261605Z AUTO VRB06KT 10SM CLR 23/14 A3009 140 55 1200 VRB/06 RMK AO2 T02330139 PNO $
53988KBKB BKB20190426101011404/26/19 10:10:31  5-MIN KBKB 261610Z AUTO VRB04KT 10SM CLR 23/14 A3009 140 55 1200 VRB/04 RMK AO2 T02330139 PNO $
53988KBKB BKB20190426101511404/26/19 10:15:31  5-MIN KBKB 261615Z AUTO VRB06KT 10SM CLR 24/14 A3009 140 55 1200 VRB/06 RMK AO2 T02390144 PNO $
53988KBKB BKB20190426102011404/26/19 10:20:31  5-MIN KBKB 261620Z AUTO VRB06KT 10SM CLR 24/14 A3009 140 53 1300 VRB/06 RMK AO2 T02390139 PNO $
53988KBKB BKB20190426102511404/26/19 10:25:31  5-MIN KBKB 261625Z AUTO VRB04KT 10SM CLR 24/14 A3009 140 53 1300 VRB/04 RMK AO2 T02390139 PNO $
53988KBKB BKB20190426103013004/26/19 10:30:31  5-MIN KBKB 261630Z AUTO 34007KT 280V010 10SM CLR 24/14 A3009 140 55 1200 340/07 280V010 RMK AO2 T02390144 PNO $
53988KBKB BKB20190426103511404/26/19 10:35:31  5-MIN KBKB 261635Z AUTO VRB04KT 10SM CLR 24/14 A3009 140 53 1200 VRB/04 RMK AO2 T02390139 PNO $
53988KBKB BKB20190426104007504/26/19 10:40:31  5-MIN KBKB 261640Z AUTO 10SM CLR 24/14 A3009 150 53 1300
53988KBKB BKB20190426104010404/26/19 10:40:31  5-MIN KBKB 261640Z AUTO 10SM CLR 24/14 A3009 150 53 1300 M /M RMK AO2 T02440144 PNO $
53988KBKB BKB20190426104511404/26/19 10:45:31  5-MIN KBKB 261645Z AUTO VRB04KT 10SM CLR 24/14 A3009 150 51 1300 VRB/04 RMK AO2 T02440139 PNO $
53988KBKB BKB20190426105012104/26/19 10:50:31  5-MIN KBKB 261650Z AUTO VRB06KT 10SM CLR 24/13 A3008 150 49 1300 VRB/06 RMK AO2 SLP214 T02440133 PNO $
53988KBKB BKB20190426105511404/26/19 10:55:31  5-MIN KBKB 261655Z AUTO VRB05KT 10SM CLR 24/13 A3008 150 51 1300 VRB/05 RMK AO2 T02390133 PNO $
53988KBKB BKB20190426110013004/26/19 11:00:31  5-MIN KBKB 261700Z AUTO 03007KT 360V060 10SM CLR 25/14 A3008 150 49 1400 020/07 360V060 RMK AO2 T02500139 PNO $
53988KBKB BKB20190426110510404/26/19 11:05:31  5-MIN KBKB 261705Z AUTO 10SM CLR 25/14 A3008 150 49 1400 M /M RMK AO2 T02500139 PNO $
53988KBKB BKB20190426111011404/26/19 11:10:31  5-MIN KBKB 261710Z AUTO 36005KT 10SM CLR 25/14 A3008 150 49 1400 360/05 RMK AO2 T02500139 PNO $
53988KBKB BKB20190426111511404/26/19 11:15:31  5-MIN KBKB 261715Z AUTO VRB05KT 10SM CLR 24/13 A3008 150 49 1300 VRB/05 RMK AO2 T02440133 PNO $
53988KBKB BKB20190426112011404/26/19 11:20:31  5-MIN KBKB 261720Z AUTO VRB06KT 10SM CLR 24/13 A3008 150 49 1300 VRB/06 RMK AO2 T02440133 PNO $
53988KBKB BKB20190426112511404/26/19 11:25:31  5-MIN KBKB 261725Z AUTO VRB05KT 10SM CLR 25/13 A3008 150 48 1400 VRB/05 RMK AO2 T02500133 PNO $
53988KBKB BKB20190426113011404/26/19 11:30:31  5-MIN KBKB 261730Z AUTO VRB03KT 10SM CLR 25/13 A3008 150 46 1400 VRB/03 RMK AO2 T02500128 PNO $
53988KBKB BKB20190426113513604/26/19 11:35:31  5-MIN KBKB 261735Z AUTO 03007G15KT 340V060 10SM CLR 25/12 A3008 150 44 1400 020/07G15 340V060 RMK AO2 T02500122 PNO $
53988KBKB BKB20190426114012004/26/19 11:40:31  5-MIN KBKB 261740Z AUTO VRB06G15KT 10SM CLR 25/12 A3008 160 44 1400 VRB/06G15 RMK AO2 T02500122 PNO $
53988KBKB BKB20190426114511404/26/19 11:45:31  5-MIN KBKB 261745Z AUTO VRB03KT 10SM CLR 25/12 A3007 160 44 1400 VRB/03 RMK AO2 T02500122 PNO $
53988KBKB BKB20190426115014504/26/19 11:50:31  5-MIN KBKB 261750Z AUTO VRB06KT 10SM CLR 26/13 A3007 160 44 1500 VRB/06 RMK AO2 SLP210 6//// T02560128 10256 20167 51026 PNO $
53988KBKB BKB20190426115511404/26/19 11:55:31  5-MIN KBKB 261755Z AUTO VRB05KT 10SM CLR 26/11 A3007 160 38 1500 VRB/05 RMK AO2 T02560106 PNO $
53988KBKB BKB20190426120011404/26/19 12:00:31  5-MIN KBKB 261800Z AUTO VRB04KT 10SM CLR 25/11 A3007 160 39 1400 VRB/04 RMK AO2 T02500106 PNO $
53988KBKB BKB20190426120510404/26/19 12:05:31  5-MIN KBKB 261805Z AUTO 10SM CLR 25/10 A3007 160 38 1400 M /M RMK AO2 T02500100 PNO $
53988KBKB BKB20190426121011404/26/19 12:10:31  5-MIN KBKB 261810Z AUTO 03005KT 10SM CLR 26/11 A3007 160 38 1500 020/05 RMK AO2 T02560106 PNO $
53988KBKB BKB20190426121511404/26/19 12:15:31  5-MIN KBKB 261815Z AUTO VRB04KT 10SM CLR 26/11 A3007 160 38 1500 VRB/04 RMK AO2 T02560106 PNO $
53988KBKB BKB20190426122011404/26/19 12:20:31  5-MIN KBKB 261820Z AUTO VRB05KT 10SM CLR 25/10 A3007 160 38 1400 VRB/05 RMK AO2 T02500100 PNO $
53988KBKB BKB20190426122511404/26/19 12:25:31  5-MIN KBKB 261825Z AUTO VRB05KT 10SM CLR 26/11 A3007 160 38 1500 VRB/05 RMK AO2 T02560106 PNO $
53988KBKB BKB20190426123011404/26/19 12:30:31  5-MIN KBKB 261830Z AUTO VRB04KT 10SM CLR 26/11 A3007 160 37 1500 VRB/04 RMK AO2 T02610106 PNO $
53988KBKB BKB20190426123511404/26/19 12:35:31  5-MIN KBKB 261835Z AUTO VRB03KT 10SM CLR 26/09 A3007 160 34 1500 VRB/03 RMK AO2 T02610094 PNO $
53988KBKB BKB20190426124011404/26/19 12:40:31  5-MIN KBKB 261840Z AUTO VRB04KT 10SM CLR 27/09 A3007 160 33 1600 VRB/04 RMK AO2 T02670094 PNO $
53988KBKB BKB20190426124511404/26/19 12:45:31  5-MIN KBKB 261845Z AUTO VRB04KT 10SM CLR 26/09 A3007 160 34 1500 VRB/04 RMK AO2 T02610094 PNO $
53988KBKB BKB20190426125012104/26/19 12:50:31  5-MIN KBKB 261850Z AUTO VRB06KT 10SM CLR 26/08 A3006 170 32 1500 VRB/06 RMK AO2 SLP207 T02610083 PNO $
53988KBKB BKB20190426125510404/26/19 12:55:31  5-MIN KBKB 261855Z AUTO 10SM CLR 27/07 A3006 170 28 1600 M /M RMK AO2 T02670072 PNO $
53988KBKB BKB20190426130011404/26/19 13:00:31  5-MIN KBKB 261900Z AUTO VRB04KT 10SM CLR 27/07 A3006 170 28 1600 VRB/04 RMK AO2 T02670072 PNO $
53988KBKB BKB20190426130511404/26/19 13:05:31  5-MIN KBKB 261905Z AUTO VRB05KT 10SM CLR 26/07 A3006 170 28 1500 VRB/05 RMK AO2 T02610067 PNO $
53988KBKB BKB20190426131011404/26/19 13:10:31  5-MIN KBKB 261910Z AUTO VRB04KT 10SM CLR 27/06 A3006 170 26 1600 VRB/04 RMK AO2 T02670061 PNO $
53988KBKB BKB20190426131511404/26/19 13:15:31  5-MIN KBKB 261915Z AUTO VRB05KT 10SM CLR 27/06 A3006 170 25 1600 VRB/05 RMK AO2 T02670056 PNO $
53988KBKB BKB20190426132011404/26/19 13:20:31  5-MIN KBKB 261920Z AUTO VRB06KT 10SM CLR 27/06 A3006 170 25 1600 VRB/06 RMK AO2 T02670056 PNO $
53988KBKB BKB20190426132507304/26/19 13:25:31  5-MIN KBKB 261925Z AUTO 02003KT M M M 020/03 RMK AO2 $
53988KBKB BKB20190426133009904/26/19 13:30:31  5-MIN KBKB 261930Z AUTO VRB04KT 27/04 A3006 170 22 1600 VRB/04 RMK AO2 T02670039
53988KBKB BKB20190426133510404/26/19 13:35:31  5-MIN KBKB 261935Z AUTO VRB05KT 10SM 27/06 A3006 170 24 1700 VRB/05 RMK AO2 T02720056
53988KBKB BKB20190426134010404/26/19 13:40:31  5-MIN KBKB 261940Z AUTO VRB04KT 10SM 27/04 A3006 170 23 1600 VRB/04 RMK AO2 T02670044
53988KBKB BKB20190426134510404/26/19 13:45:31  5-MIN KBKB 261945Z AUTO 03006KT 10SM 27/04 A3006 170 22 1600 030/06 RMK AO2 T02670039
53988KBKB BKB20190426135011104/26/19 13:50:31  5-MIN KBKB 261950Z AUTO VRB06KT 10SM 27/04 A3006 170 23 1600 VRB/06 RMK AO2 SLP204 T02670044
53988KBKB BKB20190426135510804/26/19 13:55:31  5-MIN KBKB 261955Z AUTO VRB05KT 10SM CLR 27/06 A3006 170 24 1700 VRB/05 RMK AO2 T02720056
53988KBKB BKB20190426140010804/26/19 14:00:31  5-MIN KBKB 262000Z AUTO VRB03KT 10SM CLR 27/04 A3005 170 22 1600 VRB/03 RMK AO2 T02670039
53988KBKB BKB20190426140510804/26/19 14:05:31  5-MIN KBKB 262005Z AUTO VRB03KT 10SM CLR 27/03 A3005 180 22 1600 VRB/03 RMK AO2 T02670033
53988KBKB BKB20190426141010804/26/19 14:10:31  5-MIN KBKB 262010Z AUTO VRB05KT 10SM CLR 27/04 A3005 180 23 1700 VRB/05 RMK AO2 T02720044
53988KBKB BKB20190426141510804/26/19 14:15:31  5-MIN KBKB 262015Z AUTO 06006KT 10SM CLR 27/04 A3005 180 23 1600 060/06 RMK AO2 T02670044
53988KBKB BKB20190426142010804/26/19 14:20:31  5-MIN KBKB 262020Z AUTO VRB03KT 10SM CLR 27/05 A3005 180 24 1700 VRB/03 RMK AO2 T02720050
53988KBKB BKB20190426142512404/26/19 14:25:31  5-MIN KBKB 262025Z AUTO 03007KT 350V060 10SM CLR 27/05 A3005 180 24 1700 020/07 350V060 RMK AO2 T02720050
53988KBKB BKB20190426143010804/26/19 14:30:31  5-MIN KBKB 262030Z AUTO VRB05KT 10SM CLR 27/04 A3005 180 22 1600 VRB/05 RMK AO2 T02670039
53988KBKB BKB20190426143509804/26/19 14:35:31  5-MIN KBKB 262035Z AUTO 10SM CLR 27/05 A3005 180 24 1600 M /M RMK AO2 T02670050
53988KBKB BKB20190426144010804/26/19 14:40:31  5-MIN KBKB 262040Z AUTO VRB05KT 10SM CLR 27/04 A3004 180 23 1600 VRB/05 RMK AO2 T02670044
53988KBKB BKB20190426144510804/26/19 14:45:31  5-MIN KBKB 262045Z AUTO VRB03KT 10SM CLR 27/04 A3004 190 23 1700 VRB/03 RMK AO2 T02720044
53988KBKB BKB20190426145012104/26/19 14:50:31  5-MIN KBKB 262050Z AUTO VRB04KT 10SM CLR 27/04 A3004 190 23 1700 VRB/04 RMK AO2 SLP198 6//// T02720044
53988KBKB BKB20190426145510804/26/19 14:55:31  5-MIN KBKB 262055Z AUTO VRB03KT 10SM CLR 27/04 A3004 190 23 1600 VRB/03 RMK AO2 T02670044
53988KBKB BKB20190426150010804/26/19 15:00:31  5-MIN KBKB 262100Z AUTO VRB05KT 10SM CLR 27/04 A3004 190 22 1600 VRB/05 RMK AO2 T02670039
53988KBKB BKB20190426150510804/26/19 15:05:31  5-MIN KBKB 262105Z AUTO VRB03KT 10SM CLR 27/04 A3003 190 22 1700 VRB/03 RMK AO2 T02720039
53988KBKB BKB20190426151010804/26/19 15:10:31  5-MIN KBKB 262110Z AUTO VRB03KT 10SM CLR 27/04 A3003 190 23 1700 VRB/03 RMK AO2 T02720044
53988KBKB BKB20190426151510804/26/19 15:15:31  5-MIN KBKB 262115Z AUTO VRB05KT 10SM CLR 27/04 A3003 200 22 1700 VRB/05 RMK AO2 T02720039
53988KBKB BKB20190426152022304/26/19 15:20:31  5-MIN KBKB 262120Z AUTO VRB03KT 10SM CLR 27/05 A3003 200 24 1700 VRB/03 RMK AOB 262220Z AUTO VRB05K1600 VRB/04 RMK AO2 T0267005604/26/19 1 00000KT 10SM CLR 27/06 A3002 210 25 1600 000/00 RMK AO2 T02670056
53988KBKB BKB20190426154510804/26/19 15:45:31  5-MIN KBKB 262145Z AUTO VRB05KT 10SM CLR 27/04 A3002 200 22 1700 VRB/05 RMK AO2 T02720039
53988KBKB BKB20190426155011504/26/19 15:50:31  5-MIN KBKB 262150Z AUTO VRB04KT 10SM CLR 27/04 A3002 200 23 1700 VRB/04 RMK AO2 SLP193 T02720044
53988KBKB BKB20190426155510804/26/19 15:55:31  5-MIN KBKB 262155Z AUTO VRB04KT 10SM CLR 27/04 A3002 200 22 1600 VRB/04 RMK AO2 T02670039
53988KBKB BKB20190426160010804/26/19 16:00:31  5-MIN KBKB 262200Z AUTO VRB05KT 10SM CLR 27/04 A3002 200 23 1700 VRB/05 RMK AO2 T02720044
53988KBKB BKB20190426160510804/26/19 16:05:31  5-MIN KBKB 262205Z AUTO 00000KT 10SM CLR 27/05 A3002 200 24 1700 000/00 RMK AO2 T02720050
53988KBKB BKB20190426161010804/26/19 16:10:31  5-MIN KBKB 262210Z AUTO 00000KT 10SM CLR 27/04 A3002 210 23 1600 000/00 RMK AO2 T02670044
53988KBKB BKB20190426161510804/26/19 16:15:31  5-MIN KBKB 262215Z AUTO VRB04KT 10SM CLR 27/06 A3002 210 25 1700 VRB/04 RMK AO2 T02720061
53988KBKB BKB20190426162010804/26/19 16:20:31  5-MIN KBKB 262220Z AUTO VRB05KT 10SM CLR 27/05 A3002 210 24 1600 VRB/05 RMK AO2 T02670050
53988KBKB BKB20190426162510804/26/19 16:25:31  5-MIN KBKB 262225Z AUTO VRB03KT 10SM CLR 27/06 A3002 210 25 1600 VRB/03 RMK AO2 T02670056
53988KBKB BKB20190426163010804/26/19 16:30:31  5-MIN KBKB 262230Z AUTO VRB04KT 10SM CLR 27/06 A3002 210 25 1600 VRB/04 RMK AO2 T02670056
53988KBKB BKB20190426163510804/26/19 16:35:31  5-MIN KBKB 262235Z AUTO VRB03KT 10SM CLR 27/05 A3002 210 24 1600 VRB/03 RMK AO2 T02670050
53988KBKB BKB20190426164010804/26/19 16:40:31  5-MIN KBKB 262240Z AUTO 00000KT 10SM CLR 26/06 A3002 210 26 1600 000/00 RMK AO2 T02610056
53988KBKB BKB20190426164510804/26/19 16:45:31  5-MIN KBKB 262245Z AUTO 00000KT 10SM CLR 27/06 A3002 210 25 1600 000/00 RMK AO2 T02670056
53988KBKB BKB20190426165011504/26/19 16:50:31  5-MIN KBKB 262250Z AUTO VRB03KT 10SM CLR 26/05 A3002 210 25 1600 VRB/03 RMK AO2 SLP191 T02610050
53988KBKB BKB20190426165510804/26/19 16:55:31  5-MIN KBKB 262255Z AUTO VRB03KT 10SM CLR 26/06 A3002 210 26 1600 VRB/03 RMK AO2 T02610056
53988KBKB BKB20190426170010804/26/19 17:00:31  5-MIN KBKB 262300Z AUTO VRB04KT 10SM CLR 26/06 A3002 210 26 1600 VRB/04 RMK AO2 T02610056
53988KBKB BKB20190426170510804/26/19 17:05:31  5-MIN KBKB 262305Z AUTO 00000KT 10SM CLR 26/06 A3002 210 26 1600 000/00 RMK AO2 T02610056
53988KBKB BKB20190426171010804/26/19 17:10:31  5-MIN KBKB 262310Z AUTO VRB04KT 10SM CLR 26/07 A3002 210 29 1500 VRB/04 RMK AO2 T02560067
53988KBKB BKB20190426171510804/26/19 17:15:31  5-MIN KBKB 262315Z AUTO VRB03KT 10SM CLR 26/06 A3002 210 27 1500 VRB/03 RMK AO2 T02560056
53988KBKB BKB20190426172010804/26/19 17:20:31  5-MIN KBKB 262320Z AUTO VRB04KT 10SM CLR 26/06 A3002 210 28 1500 VRB/04 RMK AO2 T02560061
53988KBKB BKB20190426172510804/26/19 17:25:31  5-MIN KBKB 262325Z AUTO VRB03KT 10SM CLR 25/06 A3002 210 29 1500 VRB/03 RMK AO2 T02500061
53988KBKB BKB20190426173010804/26/19 17:30:31  5-MIN KBKB 262330Z AUTO VRB03KT 10SM CLR 25/06 A3002 210 29 1500 VRB/03 RMK AO2 T02500061
53988KBKB BKB20190426173510804/26/19 17:35:31  5-MIN KBKB 262335Z AUTO VRB03KT 10SM CLR 25/06 A3002 210 29 1500 VRB/03 RMK AO2 T02500061
53988KBKB BKB20190426174010804/26/19 17:40:31  5-MIN KBKB 262340Z AUTO 00000KT 10SM CLR 24/07 A3002 210 31 1400 000/00 RMK AO2 T02440067
53988KBKB BKB20190426174510804/26/19 17:45:31  5-MIN KBKB 262345Z AUTO 00000KT 10SM CLR 24/07 A3002 210 32 1300 000/00 RMK AO2 T02390067
53988KBKB BKB20190426175013304/26/19 17:50:31  5-MIN KBKB 262350Z AUTO 00000KT 10SM CLR 24/07 A3002 210 32 1300 000/00 RMK AO2 SLP191 6//// T02390067 10278 20239
53988KBKB BKB20190426175510804/26/19 17:55:31  5-MIN KBKB 262355Z AUTO 00000KT 10SM CLR 23/07 A3002 210 33 1300 000/00 RMK AO2 T02330067
53988KBKB BKB20190426180010804/26/19 18:00:31  5-MIN KBKB 270000Z AUTO 00000KT 10SM CLR 23/07 A3002 210 35 1300 000/00 RMK AO2 T02330072
53988KBKB BKB20190426180510804/26/19 18:05:31  5-MIN KBKB 270005Z AUTO 00000KT 10SM CLR 23/08 A3001 210 37 1200 000/00 RMK AO2 T02280078
53988KBKB BKB20190426181010804/26/19 18:10:31  5-MIN KBKB 270010Z AUTO 00000KT 10SM CLR 22/08 A3001 210 39 1100 000/00 RMK AO2 T02220078
53988KBKB BKB20190426181510804/26/19 18:15:31  5-MIN KBKB 270015Z AUTO 00000KT 10SM CLR 22/07 A3001 210 37 1100 000/00 RMK AO2 T02220072
53988KBKB BKB20190426182010804/26/19 18:20:31  5-MIN KBKB 270020Z AUTO 00000KT 10SM CLR 22/08 A3002 210 40 1100 000/00 RMK AO2 T02170078
53988KBKB BKB20190426182510804/26/19 18:25:31  5-MIN KBKB 270025Z AUTO 00000KT 10SM CLR 21/08 A3002 210 42 1000 000/00 RMK AO2 T02110078
53988KBKB BKB20190426183010704/26/19 18:30:31  5-MIN KBKB 270030Z AUTO 00000KT 10SM CLR 21/08 A3002 210 45 900 000/00 RMK AO2 T02060083
53988KBKB BKB20190426183510704/26/19 18:35:31  5-MIN KBKB 270035Z AUTO 00000KT 10SM CLR 20/09 A3002 210 48 900 000/00 RMK AO2 T02000089
53988KBKB BKB20190426184010704/26/19 18:40:31  5-MIN KBKB 270040Z AUTO 00000KT 10SM CLR 20/09 A3002 210 48 900 000/00 RMK AO2 T02000089
53988KBKB BKB20190426184510704/26/19 18:45:31  5-MIN KBKB 270045Z AUTO 00000KT 10SM CLR 20/09 A3002 210 48 900 000/00 RMK AO2 T02000089
53988KBKB BKB20190426185011404/26/19 18:50:31  5-MIN KBKB 270050Z AUTO 00000KT 10SM CLR 19/09 A3002 200 50 800 000/00 RMK AO2 SLP193 T01940089
53988KBKB BKB20190426185510704/26/19 18:55:31  5-MIN KBKB 270055Z AUTO 00000KT 10SM CLR 19/09 A3002 200 52 700 000/00 RMK AO2 T01890089
53988KBKB BKB20190426190010704/26/19 19:00:31  5-MIN KBKB 270100Z AUTO 00000KT 10SM CLR 19/09 A3002 200 52 700 000/00 RMK AO2 T01890089
53988KBKB BKB20190426190510704/26/19 19:05:31  5-MIN KBKB 270105Z AUTO 00000KT 10SM CLR 18/08 A3002 200 52 700 000/00 RMK AO2 T01830083
53988KBKB BKB20190426191010704/26/19 19:10:31  5-MIN KBKB 270110Z AUTO 00000KT 10SM CLR 18/08 A3003 200 52 700 000/00 RMK AO2 T01830083
53988KBKB BKB20190426191510704/26/19 19:15:31  5-MIN KBKB 270115Z AUTO 00000KT 10SM CLR 18/08 A3003 200 53 600 000/00 RMK AO2 T01780083
53988KBKB BKB20190426192010704/26/19 19:20:31  5-MIN KBKB 270120Z AUTO 00000KT 10SM CLR 18/08 A3003 200 53 600 000/00 RMK AO2 T01780083
53988KBKB BKB20190426192510704/26/19 19:25:31  5-MIN KBKB 270125Z AUTO 00000KT 10SM CLR 17/08 A3003 200 55 500 000/00 RMK AO2 T01720083
53988KBKB BKB20190426193010704/26/19 19:30:31  5-MIN KBKB 270130Z AUTO 00000KT 10SM CLR 17/09 A3003 190 57 500 000/00 RMK AO2 T01720089
53988KBKB BKB20190426193510704/26/19 19:35:31  5-MIN KBKB 270135Z AUTO 00000KT 10SM CLR 17/08 A3003 190 57 500 000/00 RMK AO2 T01670083
53988KBKB BKB20190426194010704/26/19 19:40:31  5-MIN KBKB 270140Z AUTO 00000KT 10SM CLR 17/09 A3004 190 60 500 000/00 RMK AO2 T01670089
53988KBKB BKB20190426194510704/26/19 19:45:31  5-MIN KBKB 270145Z AUTO 00000KT 10SM CLR 17/09 A3004 190 60 500 000/00 RMK AO2 T01670089
53988KBKB BKB20190426195011404/26/19 19:50:31  5-MIN KBKB 270150Z AUTO 00000KT 10SM CLR 16/09 A3004 190 62 400 000/00 RMK AO2 SLP199 T01610089
53988KBKB BKB20190426195510704/26/19 19:55:31  5-MIN KBKB 270155Z AUTO 00000KT 10SM CLR 16/09 A3004 190 62 400 000/00 RMK AO2 T01610089
53988KBKB BKB20190426200010704/26/19 20:00:31  5-MIN KBKB 270200Z AUTO 00000KT 10SM CLR 16/09 A3004 190 62 400 000/00 RMK AO2 T01610089
53988KBKB BKB20190426200510704/26/19 20:05:31  5-MIN KBKB 270205Z AUTO 00000KT 10SM CLR 16/09 A3004 190 64 300 000/00 RMK AO2 T01560089
53988KBKB BKB20190426201010704/26/19 20:10:31  5-MIN KBKB 270210Z AUTO 00000KT 10SM CLR 16/09 A3004 180 64 300 000/00 RMK AO2 T01560089
53988KBKB BKB20190426201510704/26/19 20:15:31  5-MIN KBKB 270215Z AUTO 00000KT 10SM CLR 16/09 A3005 180 64 300 000/00 RMK AO2 T01560089
53988KBKB BKB20190426202010704/26/19 20:20:31  5-MIN KBKB 270220Z AUTO 00000KT 10SM CLR 16/09 A3005 180 64 300 000/00 RMK AO2 T01560089
53988KBKB BKB20190426202510704/26/19 20:25:31  5-MIN KBKB 270225Z AUTO 00000KT 10SM CLR 15/09 A3005 180 69 300 000/00 RMK AO2 T01500094
53988KBKB BKB20190426203010704/26/19 20:30:31  5-MIN KBKB 270230Z AUTO 00000KT 10SM CLR 15/09 A3005 180 66 300 000/00 RMK AO2 T01500089
53988KBKB BKB20190426203510704/26/19 20:35:31  5-MIN KBKB 270235Z AUTO 00000KT 10SM CLR 15/09 A3005 180 69 300 000/00 RMK AO2 T01500094
53988KBKB BKB20190426204010704/26/19 20:40:31  5-MIN KBKB 270240Z AUTO 00000KT 10SM CLR 15/10 A3005 180 72 300 000/00 RMK AO2 T01500100
53988KBKB BKB20190426204510704/26/19 20:45:31  5-MIN KBKB 270245Z AUTO 00000KT 10SM CLR 15/11 A3005 180 74 300 000/00 RMK AO2 T01500106
53988KBKB BKB20190426205012004/26/19 20:50:31  5-MIN KBKB 270250Z AUTO 00000KT 10SM CLR 15/11 A3005 180 74 300 000/00 RMK AO2 SLP204 T01500106 56008
53988KBKB BKB20190426205510704/26/19 20:55:31  5-MIN KBKB 270255Z AUTO 00000KT 10SM CLR 15/11 A3005 170 74 300 000/00 RMK AO2 T01500106
53988KBKB BKB20190426210010704/26/19 21:00:31  5-MIN KBKB 270300Z AUTO 00000KT 10SM CLR 15/10 A3005 170 72 300 000/00 RMK AO2 T01500100
53988KBKB BKB20190426210510704/26/19 21:05:31  5-MIN KBKB 270305Z AUTO 00000KT 10SM CLR 14/10 A3006 170 74 200 000/00 RMK AO2 T01440100
53988KBKB BKB20190426211010704/26/19 21:10:31  5-MIN KBKB 270310Z AUTO 00000KT 10SM CLR 14/10 A3006 170 74 200 000/00 RMK AO2 T01440100
53988KBKB BKB20190426211510704/26/19 21:15:31  5-MIN KBKB 270315Z AUTO 00000KT 10SM CLR 14/09 A3006 170 72 200 000/00 RMK AO2 T01440094
53988KBKB BKB20190426211518004/26/19 21:15:31  5-MIN KBKB 270315Z AUTO 00000KT 10SM CLR 14/09 A3006 170 72 200 000/00 RMK AO2 T0144009404/26/19 21:20:31  5- CLR 14/11 A3006 170 80 200 000/00 RMK AO2 T01440111
53988KBKB BKB20190426212010704/26/19 21:20:31  5-MIN KBKB 270320Z AUTO 00000KT 10SM CLR 14/10 A3006 170 74 200 000/00 RMK AO2 T01440100
53988KBKB BKB20190426212510704/26/19 21:25:31  5-MIN KBKB 270325Z AUTO 00000KT 10SM CLR 14/10 A3006 170 74 200 000/00 RMK AO2 T01440100
53988KBKB BKB20190426213010704/26/19 21:30:31  5-MIN KBKB 270330Z AUTO 00000KT 10SM CLR 14/11 A3006 170 80 200 000/00 RMK AO2 T01440111
53988KBKB BKB20190426213510704/26/19 21:35:31  5-MIN KBKB 270335Z AUTO 00000KT 10SM CLR 14/11 A3006 170 83 100 000/00 RMK AO2 T01390111
53988KBKB BKB20190426214010704/26/19 21:40:31  5-MIN KBKB 270340Z AUTO 00000KT 10SM CLR 14/11 A3006 170 80 100 000/00 RMK AO2 T01390106
53988KBKB BKB20190426214510704/26/19 21:45:31  5-MIN KBKB 270345Z AUTO 00000KT 10SM CLR 14/10 A3006 170 77 100 000/00 RMK AO2 T01390100
53988KBKB BKB20190426215011404/26/19 21:50:31  5-MIN KBKB 270350Z AUTO 00000KT 10SM CLR 14/10 A3006 170 77 100 000/00 RMK AO2 SLP206 T01390100
53988KBKB BKB20190426215510704/26/19 21:55:31  5-MIN KBKB 270355Z AUTO 00000KT 10SM CLR 14/10 A3006 170 77 100 000/00 RMK AO2 T01390100
53988KBKB BKB20190426220010704/26/19 22:00:31  5-MIN KBKB 270400Z AUTO 00000KT 10SM CLR 14/10 A3006 170 77 100 000/00 RMK AO2 T01390100
53988KBKB BKB20190426220510704/26/19 22:05:31  5-MIN KBKB 270405Z AUTO 00000KT 10SM CLR 13/10 A3006 170 80 100 000/00 RMK AO2 T01330100
53988KBKB BKB20190426221010704/26/19 22:10:31  5-MIN KBKB 270410Z AUTO 00000KT 10SM CLR 13/10 A3006 170 80 100 000/00 RMK AO2 T01330100
53988KBKB BKB20190426221510704/26/19 22:15:31  5-MIN KBKB 270415Z AUTO 00000KT 10SM CLR 13/09 A3006 170 77 100 000/00 RMK AO2 T01330094
53988KBKB BKB20190426222010704/26/19 22:20:31  5-MIN KBKB 270420Z AUTO 00000KT 10SM CLR 13/09 A3006 170 77 100 000/00 RMK AO2 T01330094
53988KBKB BKB20190426222510504/26/19 22:25:31  5-MIN KBKB 270425Z AUTO 00000KT 10SM CLR 13/09 A3005 180 80 0 000/00 RMK AO2 T01280094
53988KBKB BKB20190426223010504/26/19 22:30:31  5-MIN KBKB 270430Z AUTO 00000KT 10SM CLR 13/09 A3005 180 80 0 000/00 RMK AO2 T01280094
53988KBKB BKB20190426223510504/26/19 22:35:31  5-MIN KBKB 270435Z AUTO 00000KT 10SM CLR 13/09 A3005 180 80 0 000/00 RMK AO2 T01280094
53988KBKB BKB20190426223510604/26/19 22:35:31  5-MIN KBKB 270435Z AUTO 00000KT 10SM CLR 13/09 A3005 180 80 0 000/00 RMK AO2 T012800940
53988KBKB BKB20190426224010504/26/19 22:40:31  5-MIN KBKB 270440Z AUTO 00000KT 10SM CLR 13/09 A3005 180 80 0 000/00 RMK AO2 T01280094
53988KBKB BKB20190426224510504/26/19 22:45:31  5-MIN KBKB 270445Z AUTO 00000KT 10SM CLR 13/09 A3005 180 80 0 000/00 RMK AO2 T01280094
53988KBKB BKB20190426225011204/26/19 22:50:31  5-MIN KBKB 270450Z AUTO 00000KT 10SM CLR 13/09 A3005 180 80 0 000/00 RMK AO2 SLP203 T01280094
53988KBKB BKB20190426225510504/26/19 22:55:31  5-MIN KBKB 270455Z AUTO 00000KT 10SM CLR 13/09 A3005 180 80 0 000/00 RMK AO2 T01280094
53988KBKB BKB20190426230010504/26/19 23:00:31  5-MIN KBKB 270500Z AUTO 00000KT 10SM CLR 13/10 A3006 170 83 0 000/00 RMK AO2 T01280100
53988KBKB BKB20190426230510504/26/19 23:05:31  5-MIN KBKB 270505Z AUTO 00000KT 10SM CLR 13/10 A3005 180 83 0 000/00 RMK AO2 T01280100
53988KBKB BKB20190426231010504/26/19 23:10:31  5-MIN KBKB 270510Z AUTO 00000KT 10SM CLR 13/10 A3005 180 83 0 000/00 RMK AO2 T01280100
53988KBKB BKB20190426231510504/26/19 23:15:31  5-MIN KBKB 270515Z AUTO 00000KT 10SM CLR 12/11 A3005 180 89 0 000/00 RMK AO2 T01220106
53988KBKB BKB20190426232010504/26/19 23:20:31  5-MIN KBKB 270520Z AUTO 00000KT 10SM CLR 12/11 A3005 180 89 0 000/00 RMK AO2 T01220106
53988KBKB BKB20190426232510504/26/19 23:25:31  5-MIN KBKB 270525Z AUTO 00000KT 10SM CLR 13/10 A3005 180 83 0 000/00 RMK AO2 T01280100
53988KBKB BKB20190426233010504/26/19 23:30:31  5-MIN KBKB 270530Z AUTO 00000KT 10SM CLR 13/10 A3005 180 83 0 000/00 RMK AO2 T01280100
53988KBKB BKB20190426233510504/26/19 23:35:31  5-MIN KBKB 270535Z AUTO 00000KT 10SM CLR 13/11 A3005 180 86 0 000/00 RMK AO2 T01280106
53988KBKB BKB20190426234010504/26/19 23:40:31  5-MIN KBKB 270540Z AUTO 00000KT 10SM CLR 13/11 A3005 180 86 0 000/00 RMK AO2 T01280106
53988KBKB BKB20190426234510504/26/19 23:45:31  5-MIN KBKB 270545Z AUTO 00000KT 10SM CLR 12/11 A3005 180 93 0 000/00 RMK AO2 T01220111
53988KBKB BKB20190426235014004/26/19 23:50:31  5-MIN KBKB 270550Z AUTO 00000KT 10SM CLR 12/11 A3004 180 93 0 000/00 RMK AO2 SLP201 T01220111 10239 20122 402780122 53013
53988KBKB BKB20190426235510504/26/19 23:55:31  5-MIN KBKB 270555Z AUTO 00000KT 10SM CLR 12/11 A3004 180 93 0 000/00 RMK AO2 T01220111
53988KBKB BKB20190427000010504/27/19 00:00:31  5-MIN KBKB 270600Z AUTO 00000KT 10SM CLR 12/11 A3004 190 93 0 000/00 RMK AO2 T01220111
53988KBKB BKB20190427000510504/27/19 00:05:31  5-MIN KBKB 270605Z AUTO 00000KT 10SM CLR 12/11 A3004 190 93 0 000/00 RMK AO2 T01220111
53988KBKB BKB20190427001010504/27/19 00:10:31  5-MIN KBKB 270610Z AUTO 00000KT 10SM CLR 12/11 A3004 190 89 0 000/00 RMK AO2 T01220106
53988KBKB BKB20190427001510504/27/19 00:15:31  5-MIN KBKB 270615Z AUTO 00000KT 10SM CLR 13/11 A3004 190 89 0 000/00 RMK AO2 T01280111
53988KBKB BKB20190427002010504/27/19 00:20:31  5-MIN KBKB 270620Z AUTO 00000KT 10SM CLR 12/11 A3004 190 93 0 000/00 RMK AO2 T01220111
53988KBKB BKB20190427002510504/27/19 00:25:31  5-MIN KBKB 270625Z AUTO 00000KT 10SM CLR 12/11 A3004 190 93 0 000/00 RMK AO2 T01220111
53988KBKB BKB20190427003010504/27/19 00:30:31  5-MIN KBKB 270630Z AUTO 00000KT 10SM CLR 12/11 A3004 190 89 0 000/00 RMK AO2 T01220106
53988KBKB BKB20190427003510804/27/19 00:35:31  5-MIN KBKB 270635Z AUTO 00000KT 10SM CLR 12/11 A3004 190 93 -100 000/00 RMK AO2 T01170106
53988KBKB BKB20190427004010804/27/19 00:40:31  5-MIN KBKB 270640Z AUTO 00000KT 10SM CLR 12/10 A3004 190 89 -100 000/00 RMK AO2 T01170100
53988KBKB BKB20190427004510804/27/19 00:45:31  5-MIN KBKB 270645Z AUTO 00000KT 10SM CLR 12/09 A3004 190 86 -100 000/00 RMK AO2 T01170094
53988KBKB BKB20190427005011204/27/19 00:50:31  5-MIN KBKB 270650Z AUTO 00000KT 10SM CLR 12/10 A3004 190 86 0 000/00 RMK AO2 SLP198 T01220100
53988KBKB BKB20190427005510504/27/19 00:55:31  5-MIN KBKB 270655Z AUTO 00000KT 10SM CLR 12/11 A3004 190 89 0 000/00 RMK AO2 T01220106
53988KBKB BKB20190427010010504/27/19 01:00:31  5-MIN KBKB 270700Z AUTO 00000KT 10SM CLR 12/11 A3004 190 93 0 000/00 RMK AO2 T01220111
53988KBKB BKB20190427010510804/27/19 01:05:31  5-MIN KBKB 270705Z AUTO 00000KT 10SM CLR 12/11 A3003 190 93 -100 000/00 RMK AO2 T01170106
53988KBKB BKB20190427011010804/27/19 01:10:31  5-MIN KBKB 270710Z AUTO 00000KT 10SM CLR 12/11 A3003 190 93 -100 000/00 RMK AO2 T01170106
53988KBKB BKB20190427011510804/27/19 01:15:31  5-MIN KBKB 270715Z AUTO 00000KT 10SM CLR 12/10 A3003 200 89 -100 000/00 RMK AO2 T01170100
53988KBKB BKB20190427012010804/27/19 01:20:31  5-MIN KBKB 270720Z AUTO 00000KT 10SM CLR 11/10 A3003 200 93 -100 000/00 RMK AO2 T01110100
53988KBKB BKB20190427012510804/27/19 01:25:31  5-MIN KBKB 270725Z AUTO 00000KT 10SM CLR 12/10 A3003 200 89 -100 000/00 RMK AO2 T01170100
53988KBKB BKB20190427013010804/27/19 01:30:31  5-MIN KBKB 270730Z AUTO 00000KT 10SM CLR 12/10 A3003 200 89 -100 000/00 RMK AO2 T01170100
53988KBKB BKB20190427013510804/27/19 01:35:31  5-MIN KBKB 270735Z AUTO 00000KT 10SM CLR 12/10 A3002 200 89 -100 000/00 RMK AO2 T01170100
53988KBKB BKB20190427014010804/27/19 01:40:31  5-MIN KBKB 270740Z AUTO 00000KT 10SM CLR 12/11 A3002 200 93 -100 000/00 RMK AO2 T01170106
53988KBKB BKB20190427014510804/27/19 01:45:31  5-MIN KBKB 270745Z AUTO 00000KT 10SM CLR 12/11 A3002 200 93 -100 000/00 RMK AO2 T01170106
53988KBKB BKB20190427015011504/27/19 01:50:31  5-MIN KBKB 270750Z AUTO 00000KT 10SM CLR 12/11 A3002 200 93 -100 000/00 RMK AO2 SLP194 T01170106
53988KBKB BKB20190427015510804/27/19 01:55:31  5-MIN KBKB 270755Z AUTO 00000KT 10SM CLR 12/11 A3002 200 93 -100 000/00 RMK AO2 T01170106
53988KBKB BKB20190427020010804/27/19 02:00:31  5-MIN KBKB 270800Z AUTO 00000KT 10SM CLR 12/11 A3002 210 93 -100 000/00 RMK AO2 T01170106
53988KBKB BKB20190427020510804/27/19 02:05:31  5-MIN KBKB 270805Z AUTO 00000KT 10SM CLR 11/11 A3002 210 96 -100 000/00 RMK AO2 T01110106
53988KBKB BKB20190427021010804/27/19 02:10:31  5-MIN KBKB 270810Z AUTO 00000KT 10SM CLR 11/10 A3002 210 93 -100 000/00 RMK AO2 T01110100
53988KBKB BKB20190427021510804/27/19 02:15:31  5-MIN KBKB 270815Z AUTO 00000KT 10SM CLR 11/10 A3001 210 93 -100 000/00 RMK AO2 T01110100
53988KBKB BKB20190427022010804/27/19 02:20:31  5-MIN KBKB 270820Z AUTO 00000KT 10SM CLR 11/10 A3001 210 93 -100 000/00 RMK AO2 T01110100
53988KBKB BKB20190427022510804/27/19 02:25:31  5-MIN KBKB 270825Z AUTO 00000KT 10SM CLR 11/10 A3001 210 93 -100 000/00 RMK AO2 T01110100
53988KBKB BKB20190427023010804/27/19 02:30:31  5-MIN KBKB 270830Z AUTO 00000KT 10SM CLR 11/10 A3001 210 93 -100 000/00 RMK AO2 T01110100
53988KBKB BKB20190427023510804/27/19 02:35:31  5-MIN KBKB 270835Z AUTO 00000KT 10SM CLR 11/10 A3001 220 93 -100 000/00 RMK AO2 T01110100
53988KBKB BKB20190427024010804/27/19 02:40:31  5-MIN KBKB 270840Z AUTO 00000KT 10SM CLR 11/10 A3001 220 93 -100 000/00 RMK AO2 T01110100
53988KBKB BKB20190427024510804/27/19 02:45:31  5-MIN KBKB 270845Z AUTO 00000KT 10SM CLR 11/10 A3001 220 93 -100 000/00 RMK AO2 T01110100
53988KBKB BKB20190427025012104/27/19 02:50:31  5-MIN KBKB 270850Z AUTO 00000KT 10SM CLR 11/09 A3001 220 89 -100 000/00 RMK AO2 SLP188 T01110094 58004
53988KBKB BKB20190427025510504/27/19 02:55:31  5-MIN KBKB 270855Z AUTO 00000KT 10SM CLR 12/09 A3001 220 86 0 000/00 RMK AO2 T01170094
53988KBKB BKB20190427030010504/27/19 03:00:31  5-MIN KBKB 270900Z AUTO 00000KT 10SM CLR 12/10 A3000 220 89 0 000/00 RMK AO2 T01170100
53988KBKB BKB20190427030510504/27/19 03:05:31  5-MIN KBKB 270905Z AUTO 00000KT 10SM CLR 12/10 A3000 220 89 0 000/00 RMK AO2 T01170100
53988KBKB BKB20190427031010504/27/19 03:10:31  5-MIN KBKB 270910Z AUTO 00000KT 10SM CLR 12/10 A3000 220 89 0 000/00 RMK AO2 T01170100
53988KBKB BKB20190427031510804/27/19 03:15:31  5-MIN KBKB 270915Z AUTO 00000KT 10SM CLR 11/09 A3000 220 89 -100 000/00 RMK AO2 T01110094
53988KBKB BKB20190427032010504/27/19 03:20:31  5-MIN KBKB 270920Z AUTO 00000KT 10SM CLR 12/09 A3000 230 86 0 000/00 RMK AO2 T01170094
53988KBKB BKB20190427032510504/27/19 03:25:31  5-MIN KBKB 270925Z AUTO 00000KT 10SM CLR 12/09 A3000 220 83 0 000/00 RMK AO2 T01170089
53988KBKB BKB20190427033010504/27/19 03:30:31  5-MIN KBKB 270930Z AUTO 00000KT 10SM CLR 12/09 A3000 220 86 0 000/00 RMK AO2 T01170094
53988KBKB BKB20190427033510804/27/19 03:35:31  5-MIN KBKB 270935Z AUTO 00000KT 10SM CLR 11/09 A3000 220 89 -100 000/00 RMK AO2 T01110094
53988KBKB BKB20190427034010804/27/19 03:40:31  5-MIN KBKB 270940Z AUTO 00000KT 10SM CLR 11/09 A3000 230 89 -100 000/00 RMK AO2 T01110094
53988KBKB BKB20190427034510504/27/19 03:45:31  5-MIN KBKB 270945Z AUTO 00000KT 10SM CLR 12/10 A3000 220 89 0 000/00 RMK AO2 T01170100
53988KBKB BKB20190427035011204/27/19 03:50:31  5-MIN KBKB 270950Z AUTO 00000KT 10SM CLR 12/11 A3000 220 93 0 000/00 RMK AO2 SLP187 T01170106
53988KBKB BKB20190427035510804/27/19 03:55:31  5-MIN KBKB 270955Z AUTO 00000KT 10SM CLR 11/11 A3000 220 96 -100 000/00 RMK AO2 T01110106
53988KBKB BKB20190427040010804/27/19 04:00:31  5-MIN KBKB 271000Z AUTO 00000KT 10SM CLR 11/10 A3000 220 93 -100 000/00 RMK AO2 T01110100
53988KBKB BKB20190427040510804/27/19 04:05:31  5-MIN KBKB 271005Z AUTO 00000KT 10SM CLR 11/11 A3000 220 96 -100 000/00 RMK AO2 T01110106
53988KBKB BKB20190427041010804/27/19 04:10:31  5-MIN KBKB 271010Z AUTO 00000KT 10SM CLR 11/10 A3000 220 93 -100 000/00 RMK AO2 T01110100
53988KBKB BKB20190427041510804/27/19 04:15:31  5-MIN KBKB 271015Z AUTO 00000KT 10SM CLR 11/10 A3000 220 96 -200 000/00 RMK AO2 T01060100
53988KBKB BKB20190427042010804/27/19 04:20:31  5-MIN KBKB 271020Z AUTO 00000KT 10SM CLR 11/10 A3000 220 96 -200 000/00 RMK AO2 T01060100
53988KBKB BKB20190427042510804/27/19 04:25:31  5-MIN KBKB 271025Z AUTO 00000KT 10SM CLR 11/10 A3001 220 96 -200 000/00 RMK AO2 T01060100
53988KBKB BKB20190427043010804/27/19 04:30:31  5-MIN KBKB 271030Z AUTO 00000KT 10SM CLR 11/09 A3001 220 93 -200 000/00 RMK AO2 T01060094
53988KBKB BKB20190427043510804/27/19 04:35:31  5-MIN KBKB 271035Z AUTO 00000KT 10SM CLR 10/09 A3001 220 96 -200 000/00 RMK AO2 T01000094
53988KBKB BKB20190427044010804/27/19 04:40:31  5-MIN KBKB 271040Z AUTO 00000KT 10SM CLR 11/09 A3001 220 93 -200 000/00 RMK AO2 T01060094
53988KBKB BKB20190427044510804/27/19 04:45:31  5-MIN KBKB 271045Z AUTO 00000KT 10SM CLR 10/09 A3001 220 96 -200 000/00 RMK AO2 T01000094
53988KBKB BKB20190427045011504/27/19 04:50:31  5-MIN KBKB 271050Z AUTO 00000KT 10SM CLR 10/09 A3001 220 96 -200 000/00 RMK AO2 SLP188 T01000094
53988KBKB BKB20190427045510804/27/19 04:55:31  5-MIN KBKB 271055Z AUTO 00000KT 10SM CLR 10/09 A3001 220 93 -200 000/00 RMK AO2 T01000089
53988KBKB BKB20190427050010804/27/19 05:00:31  5-MIN KBKB 271100Z AUTO 00000KT 10SM CLR 10/09 A3001 220 93 -200 000/00 RMK AO2 T01000089
53988KBKB BKB20190427050510804/27/19 05:05:31  5-MIN KBKB 271105Z AUTO 00000KT 10SM CLR 10/09 A3001 220 93 -200 000/00 RMK AO2 T01000089
53988KBKB BKB20190427051010804/27/19 05:10:31  5-MIN KBKB 271110Z AUTO 00000KT 10SM CLR 10/09 A3001 220 96 -200 000/00 RMK AO2 T01000094
53988KBKB BKB20190427051510804/27/19 05:15:31  5-MIN KBKB 271115Z AUTO 00000KT 10SM CLR 10/09 A3001 220 96 -200 000/00 RMK AO2 T01000094
53988KBKB BKB20190427052010804/27/19 05:20:31  5-MIN KBKB 271120Z AUTO 00000KT 10SM CLR 10/09 A3001 220 96 -200 000/00 RMK AO2 T01000094
53988KBKB BKB20190427052510804/27/19 05:25:31  5-MIN KBKB 271125Z AUTO 00000KT 10SM CLR 10/09 A3001 220 96 -200 000/00 RMK AO2 T01000094
53988KBKB BKB20190427053010804/27/19 05:30:31  5-MIN KBKB 271130Z AUTO 00000KT 10SM CLR 10/09 A3001 210 93 -200 000/00 RMK AO2 T01000089
53988KBKB BKB20190427053510804/27/19 05:35:31  5-MIN KBKB 271135Z AUTO 00000KT 10SM CLR 10/09 A3001 210 93 -200 000/00 RMK AO2 T01000089
53988KBKB BKB20190427054010804/27/19 05:40:31  5-MIN KBKB 271140Z AUTO 00000KT 10SM CLR 10/09 A3001 210 93 -200 000/00 RMK AO2 T01000089
53988KBKB BKB20190427054510804/27/19 05:45:31  5-MIN KBKB 271145Z AUTO 00000KT 10SM CLR 10/09 A3001 210 93 -200 000/00 RMK AO2 T01000089
53988KBKB BKB20190427055013904/27/19 05:50:31  5-MIN KBKB 271150Z AUTO 00000KT 10SM CLR 10/09 A3002 210 93 -200 000/00 RMK AO2 SLP191 7//// T01000089 10128 20100 58012
53988KBKB BKB20190427055510804/27/19 05:55:31  5-MIN KBKB 271155Z AUTO 00000KT 10SM CLR 11/09 A3002 210 89 -200 000/00 RMK AO2 T01060089
53988KBKB BKB20190427060010804/27/19 06:00:31  5-MIN KBKB 271200Z AUTO 00000KT 10SM CLR 11/09 A3002 210 93 -200 000/00 RMK AO2 T01060094
53988KBKB BKB20190427060510804/27/19 06:05:31  5-MIN KBKB 271205Z AUTO 00000KT 10SM CLR 11/09 A3002 210 93 -200 000/00 RMK AO2 T01060094
53988KBKB BKB20190427061010804/27/19 06:10:31  5-MIN KBKB 271210Z AUTO 00000KT 10SM CLR 11/09 A3002 210 93 -200 000/00 RMK AO2 T01060094
53988KBKB BKB20190427061510804/27/19 06:15:31  5-MIN KBKB 271215Z AUTO 00000KT 10SM CLR 11/10 A3002 200 96 -200 000/00 RMK AO2 T01060100
53988KBKB BKB20190427062010804/27/19 06:20:31  5-MIN KBKB 271220Z AUTO 00000KT 10SM CLR 11/09 A3002 200 89 -100 000/00 RMK AO2 T01110094
53988KBKB BKB20190427062510804/27/19 06:25:31  5-MIN KBKB 271225Z AUTO 00000KT 10SM CLR 11/09 A3002 200 89 -100 000/00 RMK AO2 T01110094
53988KBKB BKB20190427063010804/27/19 06:30:31  5-MIN KBKB 271230Z AUTO 00000KT 10SM CLR 11/10 A3003 200 93 -100 000/00 RMK AO2 T01110100
53988KBKB BKB20190427063510804/27/19 06:35:31  5-MIN KBKB 271235Z AUTO 00000KT 10SM CLR 12/10 A3003 200 89 -100 000/00 RMK AO2 T01170100
53988KBKB BKB20190427064010504/27/19 06:40:31  5-MIN KBKB 271240Z AUTO 00000KT 10SM CLR 12/11 A3003 200 89 0 000/00 RMK AO2 T01220106
53988KBKB BKB20190427064510704/27/19 06:45:31  5-MIN KBKB 271245Z AUTO 00000KT 10SM CLR 13/11 A3003 200 86 100 000/00 RMK AO2 T01330111
53988KBKB BKB20190427065011404/27/19 06:50:31  5-MIN KBKB 271250Z AUTO 00000KT 10SM CLR 14/12 A3002 200 86 200 000/00 RMK AO2 SLP195 T01390117
53988KBKB BKB20190427065510704/27/19 06:55:31  5-MIN KBKB 271255Z AUTO 00000KT 10SM CLR 15/12 A3002 200 80 300 000/00 RMK AO2 T01500117
53988KBKB BKB20190427070010704/27/19 07:00:31  5-MIN KBKB 271300Z AUTO 00000KT 10SM CLR 16/11 A3002 200 74 400 000/00 RMK AO2 T01560111
53988KBKB BKB20190427070510704/27/19 07:05:31  5-MIN KBKB 271305Z AUTO 00000KT 10SM CLR 17/11 A3002 200 69 500 000/00 RMK AO2 T01670111
53988KBKB BKB20190427071010704/27/19 07:10:31  5-MIN KBKB 271310Z AUTO 00000KT 10SM CLR 17/12 A3002 200 72 500 000/00 RMK AO2 T01670117
53988KBKB BKB20190427071510704/27/19 07:15:31  5-MIN KBKB 271315Z AUTO 00000KT 10SM CLR 17/12 A3002 200 72 600 000/00 RMK AO2 T01720122
53988KBKB BKB20190427072010704/27/19 07:20:31  5-MIN KBKB 271320Z AUTO 00000KT 10SM CLR 18/11 A3002 200 64 600 000/00 RMK AO2 T01780111
53988KBKB BKB20190427072510704/27/19 07:25:31  5-MIN KBKB 271325Z AUTO 00000KT 10SM CLR 18/12 A3003 200 65 700 000/00 RMK AO2 T01830117
53988KBKB BKB20190427073010704/27/19 07:30:31  5-MIN KBKB 271330Z AUTO 00000KT 10SM CLR 19/11 A3003 200 60 700 000/00 RMK AO2 T01890111
53988KBKB BKB20190427073510704/27/19 07:35:31  5-MIN KBKB 271335Z AUTO 00000KT 10SM CLR 19/13 A3003 200 67 700 000/00 RMK AO2 T01890128
53988KBKB BKB20190427074010704/27/19 07:40:31  5-MIN KBKB 271340Z AUTO 00000KT 10SM CLR 19/12 A3002 200 62 700 000/00 RMK AO2 T01890117
53988KBKB BKB20190427074510704/27/19 07:45:31  5-MIN KBKB 271345Z AUTO 00000KT 10SM CLR 19/12 A3002 200 60 800 000/00 RMK AO2 T01940117
53988KBKB BKB20190427075011404/27/19 07:50:31  5-MIN KBKB 271350Z AUTO 00000KT 10SM CLR 20/11 A3002 200 56 900 000/00 RMK AO2 SLP194 T02000111
53988KBKB BKB20190427075510704/27/19 07:55:31  5-MIN KBKB 271355Z AUTO 00000KT 10SM CLR 20/11 A3002 210 54 900 000/00 RMK AO2 T02000106
53988KBKB BKB20190427080010704/27/19 08:00:31  5-MIN KBKB 271400Z AUTO 19004KT 10SM CLR 20/11 A3002 210 54 900 190/04 RMK AO2 T02000106
53988KBKB BKB20190427080510704/27/19 08:05:31  5-MIN KBKB 271405Z AUTO VRB04KT 10SM CLR 21/11 A3002 210 52 900 VRB/04 RMK AO2 T02060106
53988KBKB BKB20190427081010704/27/19 08:10:31  5-MIN KBKB 271410Z AUTO VRB03KT 10SM CLR 21/11 A3002 210 52 900 VRB/03 RMK AO2 T02060106
53988KBKB BKB20190427081510704/27/19 08:15:31  5-MIN KBKB 271415Z AUTO VRB04KT 10SM CLR 21/11 A3002 210 52 900 VRB/04 RMK AO2 T02060106
53988KBKB BKB20190427082010804/27/19 08:20:31  5-MIN KBKB 271420Z AUTO 20004KT 10SM CLR 21/11 A3002 210 50 1000 200/04 RMK AO2 T02110106
53988KBKB BKB20190427082510804/27/19 08:25:31  5-MIN KBKB 271425Z AUTO VRB05KT 10SM CLR 22/11 A3002 210 50 1100 VRB/05 RMK AO2 T02170111
53988KBKB BKB20190427083010804/27/19 08:30:31  5-MIN KBKB 271430Z AUTO VRB06KT 10SM CLR 21/10 A3002 210 48 1000 VRB/06 RMK AO2 T02110100
53988KBKB BKB20190427083510804/27/19 08:35:31  5-MIN KBKB 271435Z AUTO VRB03KT 10SM CLR 22/11 A3002 210 49 1100 VRB/03 RMK AO2 T02170106
53988KBKB BKB20190427084010804/27/19 08:40:31  5-MIN KBKB 271440Z AUTO VRB04KT 10SM CLR 22/11 A3001 210 49 1100 VRB/04 RMK AO2 T02170106
53988KBKB BKB20190427084510804/27/19 08:45:31  5-MIN KBKB 271445Z AUTO VRB03KT 10SM CLR 22/11 A3001 210 47 1100 VRB/03 RMK AO2 T02220106
53988KBKB BKB20190427085012104/27/19 08:50:31  5-MIN KBKB 271450Z AUTO VRB04KT 10SM CLR 22/10 A3001 210 47 1100 VRB/04 RMK AO2 SLP191 T02170100 53003
53988KBKB BKB20190427085510804/27/19 08:55:31  5-MIN KBKB 271455Z AUTO VRB03KT 10SM CLR 22/11 A3001 210 47 1100 VRB/03 RMK AO2 T02220106
53988KBKB BKB20190427090010804/27/19 09:00:31  5-MIN KBKB 271500Z AUTO VRB03KT 10SM CLR 23/11 A3001 210 45 1200 VRB/03 RMK AO2 T02280106
53988KBKB BKB20190427090510804/27/19 09:05:31  5-MIN KBKB 271505Z AUTO VRB05KT 10SM CLR 23/11 A3001 210 47 1200 VRB/05 RMK AO2 T02280111
53988KBKB BKB20190427091010804/27/19 09:10:31  5-MIN KBKB 271510Z AUTO VRB04KT 10SM CLR 23/11 A3001 210 47 1200 VRB/04 RMK AO2 T02280111
53988KBKB BKB20190427091510804/27/19 09:15:31  5-MIN KBKB 271515Z AUTO VRB04KT 10SM CLR 23/11 A3001 210 45 1300 VRB/04 RMK AO2 T02330111
53988KBKB BKB20190427092010804/27/19 09:20:31  5-MIN KBKB 271520Z AUTO VRB04KT 10SM CLR 23/11 A3001 210 45 1300 VRB/04 RMK AO2 T02330111
53988KBKB BKB20190427092510804/27/19 09:25:31  5-MIN KBKB 271525Z AUTO VRB04KT 10SM CLR 23/11 A3001 210 45 1300 VRB/04 RMK AO2 T02330111
53988KBKB BKB20190427093010804/27/19 09:30:31  5-MIN KBKB 271530Z AUTO VRB06KT 10SM CLR 24/11 A3001 220 44 1300 VRB/06 RMK AO2 T02390111
53988KBKB BKB20190427093510804/27/19 09:35:31  5-MIN KBKB 271535Z AUTO VRB06KT 10SM CLR 23/11 A3001 220 44 1300 VRB/06 RMK AO2 T02330106
53988KBKB BKB20190427094010804/27/19 09:40:31  5-MIN KBKB 271540Z AUTO VRB04KT 10SM CLR 24/11 A3000 220 42 1300 VRB/04 RMK AO2 T02390106
53988KBKB BKB20190427094510804/27/19 09:45:31  5-MIN KBKB 271545Z AUTO VRB05KT 10SM CLR 24/11 A3000 220 44 1300 VRB/05 RMK AO2 T02390111
53988KBKB BKB20190427095011504/27/19 09:50:31  5-MIN KBKB 271550Z AUTO VRB04KT 10SM CLR 24/11 A3001 220 42 1400 VRB/04 RMK AO2 SLP188 T02440111
53988KBKB BKB20190427095510804/27/19 09:55:31  5-MIN KBKB 271555Z AUTO VRB04KT 10SM CLR 24/12 A3001 210 44 1400 VRB/04 RMK AO2 T02440117
53988KBKB BKB20190427100010804/27/19 10:00:31  5-MIN KBKB 271600Z AUTO VRB04KT 10SM CLR 24/11 A3001 210 44 1300 VRB/04 RMK AO2 T02390111
53988KBKB BKB20190427100510804/27/19 10:05:31  5-MIN KBKB 271605Z AUTO VRB03KT 10SM CLR 25/12 A3001 220 43 1500 VRB/03 RMK AO2 T02500117
53988KBKB BKB20190427101010804/27/19 10:10:31  5-MIN KBKB 271610Z AUTO VRB05KT 10SM CLR 24/12 A3001 220 44 1400 VRB/05 RMK AO2 T02440117
53988KBKB BKB20190427101510804/27/19 10:15:31  5-MIN KBKB 271615Z AUTO VRB05KT 10SM CLR 25/12 A3001 220 43 1500 VRB/05 RMK AO2 T02500117
53988KBKB BKB20190427102010804/27/19 10:20:31  5-MIN KBKB 271620Z AUTO VRB05KT 10SM CLR 25/11 A3001 220 41 1500 VRB/05 RMK AO2 T02500111
53988KBKB BKB20190427102510804/27/19 10:25:31  5-MIN KBKB 271625Z AUTO 00000KT 10SM CLR 25/12 A3000 220 43 1500 000/00 RMK AO2 T02500117
53988KBKB BKB20190427103010804/27/19 10:30:31  5-MIN KBKB 271630Z AUTO VRB03KT 10SM CLR 26/12 A3001 220 41 1500 VRB/03 RMK AO2 T02560117
53988KBKB BKB20190427103510804/27/19 10:35:31  5-MIN KBKB 271635Z AUTO VRB05KT 10SM CLR 26/12 A3001 220 41 1500 VRB/05 RMK AO2 T02560117
53988KBKB BKB20190427104010804/27/19 10:40:31  5-MIN KBKB 271640Z AUTO VRB03KT 10SM CLR 26/12 A3000 220 41 1500 VRB/03 RMK AO2 T02560117
53988KBKB BKB20190427104510804/27/19 10:45:31  5-MIN KBKB 271645Z AUTO VRB03KT 10SM CLR 26/12 A3000 220 40 1600 VRB/03 RMK AO2 T02610117
53988KBKB BKB20190427105011504/27/19 10:50:31  5-MIN KBKB 271650Z AUTO VRB03KT 10SM CLR 26/12 A3000 220 40 1600 VRB/03 RMK AO2 SLP186 T02610117
53988KBKB BKB20190427105510804/27/19 10:55:31  5-MIN KBKB 271655Z AUTO VRB05KT 10SM CLR 26/12 A3000 230 40 1600 VRB/05 RMK AO2 T02610117
53988KBKB BKB20190427110010804/27/19 11:00:31  5-MIN KBKB 271700Z AUTO VRB04KT 10SM CLR 26/12 A2999 230 40 1600 VRB/04 RMK AO2 T02610117
53988KBKB BKB20190427110510804/27/19 11:05:31  5-MIN KBKB 271705Z AUTO VRB03KT 10SM CLR 26/12 A2999 240 40 1600 VRB/03 RMK AO2 T02610117
53988KBKB BKB20190427111010804/27/19 11:10:31  5-MIN KBKB 271710Z AUTO VRB05KT 10SM CLR 26/12 A2999 240 40 1600 VRB/05 RMK AO2 T02610117
53988KBKB BKB20190427111510804/27/19 11:15:31  5-MIN KBKB 271715Z AUTO VRB05KT 10SM CLR 27/12 A2998 240 40 1700 VRB/05 RMK AO2 T02670122
53988KBKB BKB20190427112010804/27/19 11:20:31  5-MIN KBKB 271720Z AUTO VRB05KT 10SM CLR 26/12 A2998 240 40 1600 VRB/05 RMK AO2 T02610117
53988KBKB BKB20190427112510804/27/19 11:25:31  5-MIN KBKB 271725Z AUTO VRB05KT 10SM CLR 26/12 A2998 240 40 1600 VRB/05 RMK AO2 T02610117
53988KBKB BKB20190427113010804/27/19 11:30:31  5-MIN KBKB 271730Z AUTO VRB05KT 10SM CLR 26/12 A2998 250 40 1600 VRB/05 RMK AO2 T02610117
53988KBKB BKB20190427113510804/27/19 11:35:31  5-MIN KBKB 271735Z AUTO VRB04KT 10SM CLR 26/12 A2997 250 40 1600 VRB/04 RMK AO2 T02610117
53988KBKB BKB20190427114010804/27/19 11:40:31  5-MIN KBKB 271740Z AUTO VRB05KT 10SM CLR 26/11 A2997 250 38 1600 VRB/05 RMK AO2 T02610111
53988KBKB BKB20190427114510804/27/19 11:45:31  5-MIN KBKB 271745Z AUTO VRB05KT 10SM CLR 27/11 A2997 260 37 1700 VRB/05 RMK AO2 T02670111
53988KBKB BKB20190427115013304/27/19 11:50:31  5-MIN KBKB 271750Z AUTO VRB06KT 10SM CLR 27/12 A2996 260 38 1700 VRB/06 RMK AO2 SLP174 T02670117 10267 20106 58001
53988KBKB BKB20190427115510804/27/19 11:55:31  5-MIN KBKB 271755Z AUTO VRB05KT 10SM CLR 27/11 A2996 260 37 1700 VRB/05 RMK AO2 T02670111
53988KBKB BKB20190427120009804/27/19 12:00:31  5-MIN KBKB 271800Z AUTO 10SM CLR 27/11 A2996 260 37 1700 M /M RMK AO2 T02670111
53988KBKB BKB20190427120512404/27/19 12:05:31  5-MIN KBKB 271805Z AUTO 22007KT 160V250 10SM CLR 27/11 A2996 260 37 1700 210/07 160V250 RMK AO2 T02670111
53988KBKB BKB20190427121010804/27/19 12:10:31  5-MIN KBKB 271810Z AUTO VRB06KT 10SM CLR 27/12 A2996 260 37 1800 VRB/06 RMK AO2 T02720117
53988KBKB BKB20190427121512404/27/19 12:15:31  5-MIN KBKB 271815Z AUTO 18007KT 110V250 10SM CLR 27/11 A2995 270 36 1800 180/07 110V250 RMK AO2 T02720111
53988KBKB BKB20190427122012404/27/19 12:20:31  5-MIN KBKB 271820Z AUTO 19007KT 160V220 10SM CLR 28/12 A2995 270 36 1800 190/07 160V220 RMK AO2 T02780117
53988KBKB BKB20190427122511404/27/19 12:25:31  5-MIN KBKB 271825Z AUTO VRB06G16KT 10SM CLR 27/11 A2995 280 37 1700 VRB/06G16 RMK AO2 T02670111
53988KBKB BKB20190427123011404/27/19 12:30:31  5-MIN KBKB 271830Z AUTO VRB03G15KT 10SM CLR 28/12 A2994 280 36 1900 VRB/03G15 RMK AO2 T02780117
53988KBKB BKB20190427123510804/27/19 12:35:31  5-MIN KBKB 271835Z AUTO VRB04KT 10SM CLR 28/12 A2994 280 36 1900 VRB/04 RMK AO2 T02780117
53988KBKB BKB20190427124010804/27/19 12:40:31  5-MIN KBKB 271840Z AUTO VRB06KT 10SM CLR 28/12 A2994 280 36 1900 VRB/06 RMK AO2 T02780117
53988KBKB BKB20190427124510804/27/19 12:45:31  5-MIN KBKB 271845Z AUTO VRB06KT 10SM CLR 28/11 A2994 280 35 1900 VRB/06 RMK AO2 T02780111
53988KBKB BKB20190427125011504/27/19 12:50:31  5-MIN KBKB 271850Z AUTO VRB04KT 10SM CLR 28/12 A2994 280 36 1900 VRB/04 RMK AO2 SLP165 T02780117
53988KBKB BKB20190427125510804/27/19 12:55:31  5-MIN KBKB 271855Z AUTO VRB03KT 10SM CLR 28/12 A2993 280 37 1900 VRB/03 RMK AO2 T02780122
53988KBKB BKB20190427130010804/27/19 13:00:31  5-MIN KBKB 271900Z AUTO VRB05KT 10SM CLR 28/12 A2993 290 36 1900 VRB/05 RMK AO2 T02830122
53988KBKB BKB20190427130512404/27/19 13:05:31  5-MIN KBKB 271905Z AUTO 19007KT 120V240 10SM CLR 28/12 A2993 290 37 1900 190/07 120V240 RMK AO2 T02780122
53988KBKB BKB20190427131010804/27/19 13:10:31  5-MIN KBKB 271910Z AUTO VRB05KT 10SM CLR 28/12 A2992 290 37 1900 VRB/05 RMK AO2 T02780122
53988KBKB BKB20190427131510804/27/19 13:15:31  5-MIN KBKB 271915Z AUTO VRB04KT 10SM CLR 28/12 A2993 290 37 1900 VRB/04 RMK AO2 T02780122
53988KBKB BKB20190427132009804/27/19 13:20:31  5-MIN KBKB 271920Z AUTO 10SM CLR 28/12 A2993 290 37 1900 M /M RMK AO2 T02780122
53988KBKB BKB20190427132510804/27/19 13:25:31  5-MIN KBKB 271925Z AUTO VRB06KT 10SM CLR 28/12 A2993 290 37 1900 VRB/06 RMK AO2 T02780122
53988KBKB BKB20190427133010804/27/19 13:30:31  5-MIN KBKB 271930Z AUTO VRB05KT 10SM CLR 28/13 A2993 290 37 1900 VRB/05 RMK AO2 T02830128
53988KBKB BKB20190427133510804/27/19 13:35:31  5-MIN KBKB 271935Z AUTO VRB05KT 10SM CLR 28/13 A2993 290 39 1900 VRB/05 RMK AO2 T02780128
53988KBKB BKB20190427134009804/27/19 13:40:31  5-MIN KBKB 271940Z AUTO 10SM CLR 28/13 A2992 300 37 1900 M /M RMK AO2 T02830128
53988KBKB BKB20190427134510804/27/19 13:45:31  5-MIN KBKB 271945Z AUTO VRB05KT 10SM CLR 28/13 A2992 300 37 1900 VRB/05 RMK AO2 T02830128
53988KBKB BKB20190427135011504/27/19 13:50:31  5-MIN KBKB 271950Z AUTO VRB06KT 10SM CLR 28/13 A2992 300 39 1900 VRB/06 RMK AO2 SLP158 T02780128
53988KBKB BKB20190427135510804/27/19 13:55:31  5-MIN KBKB 271955Z AUTO 20009KT 10SM CLR 28/12 A2992 300 37 1900 200/09 RMK AO2 T02780122
53988KBKB BKB20190427140010804/27/19 14:00:31  5-MIN KBKB 272000Z AUTO VRB05KT 10SM CLR 28/12 A2991 310 37 1900 VRB/05 RMK AO2 T02780122
53988KBKB BKB20190427140510804/27/19 14:05:31  5-MIN KBKB 272005Z AUTO VRB03KT 10SM CLR 28/13 A2991 310 37 2000 VRB/03 RMK AO2 T02830128
53988KBKB BKB20190427141010804/27/19 14:10:31  5-MIN KBKB 272010Z AUTO VRB06KT 10SM CLR 28/13 A2991 310 39 2000 VRB/06 RMK AO2 T02830133
53988KBKB BKB20190427141512404/27/19 14:15:31  5-MIN KBKB 272015Z AUTO 18007KT 140V240 10SM CLR 28/13 A2990 310 39 2000 170/07 140V240 RMK AO2 T02830133
53988KBKB BKB20190427142010804/27/19 14:20:31  5-MIN KBKB 272020Z AUTO VRB06KT 10SM CLR 28/13 A2990 310 39 2000 VRB/06 RMK AO2 T02830133
53988KBKB BKB20190427142510804/27/19 14:25:31  5-MIN KBKB 272025Z AUTO VRB05KT 10SM CLR 28/13 A2990 320 39 2000 VRB/05 RMK AO2 T02830133
53988KBKB BKB20190427143010804/27/19 14:30:31  5-MIN KBKB 272030Z AUTO VRB05KT 10SM CLR 28/14 A2990 320 40 2000 VRB/05 RMK AO2 T02830139
53988KBKB BKB20190427143511404/27/19 14:35:31  5-MIN KBKB 272035Z AUTO VRB05G16KT 10SM CLR 28/13 A2990 320 39 2000 VRB/05G16 RMK AO2 T02830133
53988KBKB BKB20190427144011404/27/19 14:40:31  5-MIN KBKB 272040Z AUTO VRB04G16KT 10SM CLR 28/14 A2990 320 40 2000 VRB/04G16 RMK AO2 T02830139
53988KBKB BKB20190427144510804/27/19 14:45:31  5-MIN KBKB 272045Z AUTO VRB05KT 10SM CLR 29/14 A2990 320 40 2000 VRB/05 RMK AO2 T02890144
53988KBKB BKB20190427145012104/27/19 14:50:31  5-MIN KBKB 272050Z AUTO VRB06KT 10SM CLR 28/14 A2990 320 42 2000 VRB/06 RMK AO2 SLP151 T02830144 58017
53988KBKB BKB20190427145510804/27/19 14:55:31  5-MIN KBKB 272055Z AUTO VRB05KT 10SM CLR 28/14 A2989 320 40 2000 VRB/05 RMK AO2 T02830139
53988KBKB BKB20190427150010804/27/19 15:00:31  5-MIN KBKB 272100Z AUTO VRB05KT 10SM CLR 28/14 A2989 330 40 2000 VRB/05 RMK AO2 T02830139
53988KBKB BKB20190427150510804/27/19 15:05:31  5-MIN KBKB 272105Z AUTO VRB06KT 10SM CLR 28/14 A2989 330 42 2000 VRB/06 RMK AO2 T02830144
53988KBKB BKB20190427151010804/27/19 15:10:31  5-MIN KBKB 272110Z AUTO VRB04KT 10SM CLR 28/14 A2988 330 42 2000 VRB/04 RMK AO2 T02830144
53988KBKB BKB20190427151510804/27/19 15:15:31  5-MIN KBKB 272115Z AUTO VRB06KT 10SM CLR 28/14 A2988 330 42 2000 VRB/06 RMK AO2 T02830144
53988KBKB BKB20190427152010804/27/19 15:20:31  5-MIN KBKB 272120Z AUTO VRB04KT 10SM CLR 29/15 A2989 330 42 2000 VRB/04 RMK AO2 T02890150
53988KBKB BKB20190427152512404/27/19 15:25:31  5-MIN KBKB 272125Z AUTO 19007KT 120V230 10SM CLR 28/14 A2988 330 42 2000 190/07 120V230 RMK AO2 T02830144
53988KBKB BKB20190427153010804/27/19 15:30:31  5-MIN KBKB 272130Z AUTO VRB06KT 10SM CLR 28/14 A2988 330 42 1900 VRB/06 RMK AO2 T02780139
53988KBKB BKB20190427153510804/27/19 15:35:31  5-MIN KBKB 272135Z AUTO VRB04KT 10SM CLR 28/14 A2988 330 43 1900 VRB/04 RMK AO2 T02780144
53988KBKB BKB20190427154010804/27/19 15:40:31  5-MIN KBKB 272140Z AUTO VRB05KT 10SM CLR 28/14 A2988 340 42 2000 VRB/05 RMK AO2 T02830144
53988KBKB BKB20190427154509804/27/19 15:45:31  5-MIN KBKB 272145Z AUTO 10SM CLR 28/14 A2988 340 43 1900 M /M RMK AO2 T02780144
53988KBKB BKB20190427155011504/27/19 15:50:31  5-MIN KBKB 272150Z AUTO VRB05KT 10SM CLR 28/15 A2988 340 45 1900 VRB/05 RMK AO2 SLP144 T02780150
53988KBKB BKB20190427155510804/27/19 15:55:31  5-MIN KBKB 272155Z AUTO VRB05KT 10SM CLR 28/15 A2988 340 45 1900 VRB/05 RMK AO2 T02780150
53988KBKB BKB20190427155514804/27/19 15:55:31  5-MIN KBKB 272155Z AUTO VRB05KT 10SM CLR 28/15 A2988 34015Z AUTO VRB03KT 10SM CLR 20/14 A2990 310 72 900 VRB/03 RMK AO2 T01940144
53988KBKB BKB20190427160012404/27/19 16:00:31  5-MIN KBKB 272200Z AUTO 22008KT 180V250 10SM CLR 28/15 A2987 340 45 1900 210/08 180V250 RMK AO2 T02780150
53988KBKB BKB20190427160510804/27/19 16:05:31  5-MIN KBKB 272205Z AUTO VRB06KT 10SM CLR 27/15 A2987 340 46 1900 VRB/06 RMK AO2 T02720150
53988KBKB BKB20190427161010804/27/19 16:10:31  5-MIN KBKB 272210Z AUTO VRB05KT 10SM CLR 27/15 A2987 350 46 1900 VRB/05 RMK AO2 T02720150
53988KBKB BKB20190427161510804/27/19 16:15:31  5-MIN KBKB 272215Z AUTO VRB05KT 10SM CLR 27/15 A2987 340 46 1900 VRB/05 RMK AO2 T02720150
53988KBKB BKB20190427162010804/27/19 16:20:31  5-MIN KBKB 272220Z AUTO VRB06KT 10SM CLR 27/16 A2988 340 48 1900 VRB/06 RMK AO2 T02720156
53988KBKB BKB20190427162511404/27/19 16:25:31  5-MIN KBKB 272225Z AUTO VRB05G15KT 10SM CLR 27/15 A2988 340 48 1800 VRB/05G15 RMK AO2 T02670150
53988KBKB BKB20190427163011404/27/19 16:30:31  5-MIN KBKB 272230Z AUTO VRB04G15KT 10SM CLR 27/16 A2988 330 48 1900 VRB/04G15 RMK AO2 T02720156
53988KBKB BKB20190427163510804/27/19 16:35:31  5-MIN KBKB 272235Z AUTO VRB03KT 10SM CLR 27/16 A2989 330 48 1900 VRB/03 RMK AO2 T02720156
53988KBKB BKB20190427164010804/27/19 16:40:31  5-MIN KBKB 272240Z AUTO VRB04KT 10SM CLR 27/16 A2989 320 48 1800 VRB/04 RMK AO2 T02720156
53988KBKB BKB20190427164511104/27/19 16:45:31  5-MIN KBKB 272245Z AUTO VRB04KT 10SM FEW048 27/16 A2990 320 50 1800 VRB/04 RMK AO2 T02670156
53988KBKB BKB20190427165011804/27/19 16:50:31  5-MIN KBKB 272250Z AUTO 19006KT 10SM FEW048 26/15 A2990 320 50 1700 190/06 RMK AO2 SLP151 T02610150
53988KBKB BKB20190427165511104/27/19 16:55:31  5-MIN KBKB 272255Z AUTO VRB04KT 10SM FEW048 26/16 A2989 320 53 1700 VRB/04 RMK AO2 T02560156
53988KBKB BKB20190427170011104/27/19 17:00:31  5-MIN KBKB 272300Z AUTO VRB04KT 10SM FEW048 26/16 A2989 330 51 1700 VRB/04 RMK AO2 T02610156
53988KBKB BKB20190427170511104/27/19 17:05:31  5-MIN KBKB 272305Z AUTO VRB03KT 10SM FEW048 26/15 A2989 330 50 1700 VRB/03 RMK AO2 T02610150
53988KBKB BKB20190427171010104/27/19 17:10:31  5-MIN KBKB 272310Z AUTO 10SM FEW048 26/15 A2989 320 51 1700 M /M RMK AO2 T02560150
53988KBKB BKB20190427171511104/27/19 17:15:31  5-MIN KBKB 272315Z AUTO VRB03KT 10SM FEW047 26/15 A2989 320 51 1700 VRB/03 RMK AO2 T02560150
53988KBKB BKB20190427172011104/27/19 17:20:31  5-MIN KBKB 272320Z AUTO VRB03KT 10SM SCT047 25/15 A2990 320 53 1600 VRB/03 RMK AO2 T02500150
53988KBKB BKB20190427172511104/27/19 17:25:31  5-MIN KBKB 272325Z AUTO 00000KT 10SM BKN047 25/16 A2990 320 57 1600 000/00 RMK AO2 T02500161
53988KBKB BKB20190427173011104/27/19 17:30:31  5-MIN KBKB 272330Z AUTO VRB03KT 10SM BKN046 26/16 A2989 330 55 1700 VRB/03 RMK AO2 T02560161
53988KBKB BKB20190427173511104/27/19 17:35:31  5-MIN KBKB 272335Z AUTO VRB04KT 10SM SCT046 26/16 A2988 330 53 1700 VRB/04 RMK AO2 T02560156
53988KBKB BKB20190427174011104/27/19 17:40:31  5-MIN KBKB 272340Z AUTO VRB03KT 10SM SCT046 25/16 A2988 330 55 1600 VRB/03 RMK AO2 T02500156
53988KBKB BKB20190427174511104/27/19 17:45:31  5-MIN KBKB 272345Z AUTO VRB03KT 10SM SCT046 25/15 A2989 330 53 1600 VRB/03 RMK AO2 T02500150
53988KBKB BKB20190427175013604/27/19 17:50:31  5-MIN KBKB 272350Z AUTO 21004KT 10SM FEW046 24/16 A2988 330 57 1500 210/04 RMK AO2 SLP147 T02440156 10289 20244 56024
53988KBKB BKB20190427175511104/27/19 17:55:31  5-MIN KBKB 272355Z AUTO VRB03KT 10SM FEW046 24/16 A2988 330 57 1500 VRB/03 RMK AO2 T02440156
53988KBKB BKB20190427180010804/27/19 18:00:31  5-MIN KBKB 280000Z AUTO 00000KT 10SM CLR 24/16 A2988 330 59 1500 000/00 RMK AO2 T02390156
53988KBKB BKB20190427180510804/27/19 18:05:31  5-MIN KBKB 280005Z AUTO VRB03KT 10SM CLR 24/16 A2988 330 59 1500 VRB/03 RMK AO2 T02390156
53988KBKB BKB20190427181010804/27/19 18:10:31  5-MIN KBKB 280010Z AUTO VRB03KT 10SM CLR 24/16 A2989 330 59 1500 VRB/03 RMK AO2 T02390156
53988KBKB BKB20190427181510804/27/19 18:15:31  5-MIN KBKB 280015Z AUTO 00000KT 10SM CLR 24/16 A2989 330 59 1500 000/00 RMK AO2 T02390156
53988KBKB BKB20190427182010804/27/19 18:20:31  5-MIN KBKB 280020Z AUTO VRB03KT 10SM CLR 23/16 A2989 330 61 1400 VRB/03 RMK AO2 T02330156
53988KBKB BKB20190427182510804/27/19 18:25:31  5-MIN KBKB 280025Z AUTO VRB03KT 10SM CLR 23/16 A2988 330 61 1400 VRB/03 RMK AO2 T02330156
53988KBKB BKB20190427183010804/27/19 18:30:31  5-MIN KBKB 280030Z AUTO VRB03KT 10SM CLR 23/16 A2989 330 61 1400 VRB/03 RMK AO2 T02330156
53988KBKB BKB20190427183510804/27/19 18:35:31  5-MIN KBKB 280035Z AUTO 00000KT 10SM CLR 23/16 A2989 330 63 1400 000/00 RMK AO2 T02280156
53988KBKB BKB20190427184010804/27/19 18:40:31  5-MIN KBKB 280040Z AUTO 00000KT 10SM CLR 22/16 A2989 330 65 1300 000/00 RMK AO2 T02220156
53988KBKB BKB20190427184510804/27/19 18:45:31  5-MIN KBKB 280045Z AUTO 00000KT 10SM CLR 22/16 A2989 330 65 1300 000/00 RMK AO2 T02220156
53988KBKB BKB20190427185011504/27/19 18:50:31  5-MIN KBKB 280050Z AUTO 00000KT 10SM CLR 22/16 A2989 330 68 1200 000/00 RMK AO2 SLP148 T02170156
53988KBKB BKB20190427185510804/27/19 18:55:31  5-MIN KBKB 280055Z AUTO 00000KT 10SM CLR 22/16 A2989 330 68 1200 000/00 RMK AO2 T02170156
53988KBKB BKB20190427190010804/27/19 19:00:31  5-MIN KBKB 280100Z AUTO VRB03KT 10SM CLR 22/16 A2989 330 68 1200 VRB/03 RMK AO2 T02170156
53988KBKB BKB20190427190510704/27/19 19:05:31  5-MIN KBKB 280105Z AUTO 00000KT 9SM CLR 22/16 A2989 320 68 1200 000/00 RMK AO2 T02170156
53988KBKB BKB20190427191010704/27/19 19:10:31  5-MIN KBKB 280110Z AUTO 00000KT 8SM CLR 21/16 A2989 320 70 1200 000/00 RMK AO2 T02110156
53988KBKB BKB20190427191510704/27/19 19:15:31  5-MIN KBKB 280115Z AUTO 00000KT 9SM CLR 21/16 A2989 320 70 1200 000/00 RMK AO2 T02110156
53988KBKB BKB20190427192010804/27/19 19:20:31  5-MIN KBKB 280120Z AUTO 00000KT 10SM CLR 21/15 A2990 320 68 1100 000/00 RMK AO2 T02110150
53988KBKB BKB20190427192510804/27/19 19:25:31  5-MIN KBKB 280125Z AUTO 00000KT 10SM CLR 21/15 A2990 320 68 1100 000/00 RMK AO2 T02110150
53988KBKB BKB20190427193010804/27/19 19:30:31  5-MIN KBKB 280130Z AUTO VRB04KT 10SM CLR 21/15 A2990 320 68 1100 VRB/04 RMK AO2 T02110150
53988KBKB BKB20190427193510804/27/19 19:35:31  5-MIN KBKB 280135Z AUTO 20003KT 10SM CLR 21/14 A2990 310 67 1100 190/03 RMK AO2 T02060144
53988KBKB BKB20190427194010804/27/19 19:40:31  5-MIN KBKB 280140Z AUTO VRB03KT 10SM CLR 21/14 A2990 310 67 1100 VRB/03 RMK AO2 T02060144
53988KBKB BKB20190427194510804/27/19 19:45:31  5-MIN KBKB 280145Z AUTO 00000KT 10SM CLR 21/14 A2990 310 67 1100 000/00 RMK AO2 T02060144
53988KBKB BKB20190427195011504/27/19 19:50:31  5-MIN KBKB 280150Z AUTO 00000KT 10SM CLR 20/14 A2991 310 70 1000 000/00 RMK AO2 SLP154 T02000144
53988KBKB BKB20190427195510804/27/19 19:55:31  5-MIN KBKB 280155Z AUTO 00000KT 10SM CLR 20/14 A2991 310 70 1000 000/00 RMK AO2 T02000144
53988KBKB BKB20190427200010804/27/19 20:00:31  5-MIN KBKB 280200Z AUTO VRB03KT 10SM CLR 20/14 A2990 310 70 1000 VRB/03 RMK AO2 T02000144
53988KBKB BKB20190427200510804/27/19 20:05:31  5-MIN KBKB 280205Z AUTO 19004KT 10SM CLR 20/14 A2990 320 70 1000 180/04 RMK AO2 T02000144
53988KBKB BKB20190427201010804/27/19 20:10:31  5-MIN KBKB 280210Z AUTO VRB04KT 10SM CLR 20/14 A2990 320 70 1000 VRB/04 RMK AO2 T02000144
53988KBKB BKB20190427201510804/27/19 20:15:31  5-MIN KBKB 280215Z AUTO VRB03KT 10SM CLR 20/14 A2990 310 70 1000 VRB/03 RMK AO2 T02000144
53988KBKB BKB20190427202010804/27/19 20:20:31  5-MIN KBKB 280220Z AUTO 18004KT 10SM CLR 20/14 A2991 310 70 1000 180/04 RMK AO2 T02000144
53988KBKB BKB20190427202510804/27/19 20:25:31  5-MIN KBKB 280225Z AUTO 00000KT 10SM CLR 20/14 A2991 310 70 1000 000/00 RMK AO2 T02000144
53988KBKB BKB20190427203010804/27/19 20:30:31  5-MIN KBKB 280230Z AUTO 00000KT 10SM CLR 20/14 A2991 310 70 1000 000/00 RMK AO2 T02000144
53988KBKB BKB20190427203510804/27/19 20:35:31  5-MIN KBKB 280235Z AUTO VRB03KT 10SM CLR 20/14 A2991 300 70 1000 VRB/03 RMK AO2 T02000144
53988KBKB BKB20190427204010704/27/19 20:40:31  5-MIN KBKB 280240Z AUTO VRB03KT 10SM CLR 19/14 A2992 300 72 900 VRB/03 RMK AO2 T01940144
53988KBKB BKB20190427204510704/27/19 20:45:31  5-MIN KBKB 280245Z AUTO 00000KT 10SM CLR 19/14 A2992 300 72 900 000/00 RMK AO2 T01940144
53988KBKB BKB20190427205012004/27/19 20:50:31  5-MIN KBKB 280250Z AUTO VRB03KT 10SM CLR 19/14 A2992 300 72 900 VRB/03 RMK AO2 SLP159 T01940144 56003
53988KBKB BKB20190427205510704/27/19 20:55:31  5-MIN KBKB 280255Z AUTO 20004KT 10SM CLR 19/14 A2992 300 72 900 190/04 RMK AO2 T01940144
53988KBKB BKB20190427210010704/27/19 21:00:31  5-MIN KBKB 280300Z AUTO VRB03KT 10SM CLR 19/14 A2992 290 72 900 VRB/03 RMK AO2 T01940144
53988KBKB BKB20190427210510704/27/19 21:05:31  5-MIN KBKB 280305Z AUTO VRB03KT 10SM CLR 19/14 A2992 300 75 900 VRB/03 RMK AO2 T01890144
53988KBKB BKB20190427211010704/27/19 21:10:31  5-MIN KBKB 280310Z AUTO VRB03KT 10SM CLR 19/14 A2992 300 72 900 VRB/03 RMK AO2 T01890139
53988KBKB BKB20190427211510704/27/19 21:15:31  5-MIN KBKB 280315Z AUTO VRB03KT 10SM CLR 19/14 A2992 300 75 900 VRB/03 RMK AO2 T01890144
53988KBKB BKB20190427212010704/27/19 21:20:31  5-MIN KBKB 280320Z AUTO VRB03KT 10SM CLR 18/14 A2992 300 78 800 VRB/03 RMK AO2 T01830144
53988KBKB BKB20190427212510704/27/19 21:25:31  5-MIN KBKB 280325Z AUTO VRB03KT 10SM CLR 18/14 A2992 300 78 800 VRB/03 RMK AO2 T01830144
53988KBKB BKB20190427213010704/27/19 21:30:31  5-MIN KBKB 280330Z AUTO VRB03KT 10SM CLR 18/14 A2993 290 75 800 VRB/03 RMK AO2 T01830139
53988KBKB BKB20190427213510704/27/19 21:35:31  5-MIN KBKB 280335Z AUTO VRB03KT 10SM CLR 18/14 A2993 290 75 800 VRB/03 RMK AO2 T01830139
53988KBKB BKB20190427214010704/27/19 21:40:31  5-MIN KBKB 280340Z AUTO 00000KT 10SM CLR 18/14 A2993 290 75 800 000/00 RMK AO2 T01830139
53988KBKB BKB20190427214510704/27/19 21:45:31  5-MIN KBKB 280345Z AUTO 00000KT 10SM CLR 18/14 A2993 290 75 800 000/00 RMK AO2 T01830139
53988KBKB BKB20190427215011404/27/19 21:50:31  5-MIN KBKB 280350Z AUTO 00000KT 10SM CLR 18/14 A2993 290 75 800 000/00 RMK AO2 SLP161 T01830139
53988KBKB BKB20190427215510704/27/19 21:55:31  5-MIN KBKB 280355Z AUTO 00000KT 10SM CLR 18/14 A2993 290 78 700 000/00 RMK AO2 T01780139
53988KBKB BKB20190427220010704/27/19 22:00:31  5-MIN KBKB 280400Z AUTO 00000KT 10SM CLR 18/14 A2993 290 78 700 000/00 RMK AO2 T01780139
53988KBKB BKB20190427220510704/27/19 22:05:31  5-MIN KBKB 280405Z AUTO 00000KT 10SM CLR 18/14 A2993 290 78 700 000/00 RMK AO2 T01780139
53988KBKB BKB20190427220514004/27/19 22:05:31  5-MIN KBKB 280405Z AUTO 00000KT 10SM CLR 18/14 A2993 290 78 700 000/00 RMK AO2 T0178013904/27/19 22:10:31  5-O2 T01500139
53988KBKB BKB20190427221010704/27/19 22:10:31  5-MIN KBKB 280410Z AUTO 00000KT 10SM CLR 18/14 A2993 290 78 700 000/00 RMK AO2 T01780139
53988KBKB BKB20190427221510704/27/19 22:15:31  5-MIN KBKB 280415Z AUTO 00000KT 10SM CLR 18/14 A2993 290 78 700 000/00 RMK AO2 T01780139
53988KBKB BKB20190427222010704/27/19 22:20:31  5-MIN KBKB 280420Z AUTO 00000KT 10SM CLR 17/14 A2993 290 80 700 000/00 RMK AO2 T01720139
53988KBKB BKB20190427222510704/27/19 22:25:31  5-MIN KBKB 280425Z AUTO 00000KT 10SM CLR 18/14 A2994 280 78 700 000/00 RMK AO2 T01780139
53988KBKB BKB20190427223010704/27/19 22:30:31  5-MIN KBKB 280430Z AUTO 00000KT 10SM CLR 17/14 A2994 280 80 700 000/00 RMK AO2 T01720139
53988KBKB BKB20190427223510704/27/19 22:35:31  5-MIN KBKB 280435Z AUTO 00000KT 10SM CLR 17/14 A2994 280 80 600 000/00 RMK AO2 T01720139
53988KBKB BKB20190427224010704/27/19 22:40:31  5-MIN KBKB 280440Z AUTO 00000KT 10SM CLR 17/14 A2994 280 80 600 000/00 RMK AO2 T01720139
53988KBKB BKB20190427224510704/27/19 22:45:31  5-MIN KBKB 280445Z AUTO 00000KT 10SM CLR 17/14 A2994 280 83 600 000/00 RMK AO2 T01670139
53988KBKB BKB20190427225011404/27/19 22:50:31  5-MIN KBKB 280450Z AUTO 00000KT 10SM CLR 17/14 A2994 280 83 600 000/00 RMK AO2 SLP164 T01670139
53988KBKB BKB20190427225510704/27/19 22:55:31  5-MIN KBKB 280455Z AUTO 00000KT 10SM CLR 17/14 A2993 290 83 600 000/00 RMK AO2 T01670139
53988KBKB BKB20190427230010704/27/19 23:00:31  5-MIN KBKB 280500Z AUTO 00000KT 10SM CLR 16/14 A2994 280 86 500 000/00 RMK AO2 T01610139
53988KBKB BKB20190427230510704/27/19 23:05:31  5-MIN KBKB 280505Z AUTO 00000KT 10SM CLR 16/14 A2994 280 86 500 000/00 RMK AO2 T01610139
53988KBKB BKB20190427231010704/27/19 23:10:31  5-MIN KBKB 280510Z AUTO 00000KT 10SM CLR 16/14 A2994 280 86 500 000/00 RMK AO2 T01610139
53988KBKB BKB20190427231510704/27/19 23:15:31  5-MIN KBKB 280515Z AUTO 00000KT 10SM CLR 16/14 A2994 280 86 500 000/00 RMK AO2 T01610139
53988KBKB BKB20190427232010704/27/19 23:20:31  5-MIN KBKB 280520Z AUTO 00000KT 10SM CLR 16/14 A2995 270 90 400 000/00 RMK AO2 T01560139
53988KBKB BKB20190427232510704/27/19 23:25:31  5-MIN KBKB 280525Z AUTO 00000KT 10SM CLR 16/14 A2995 270 90 400 000/00 RMK AO2 T01560139
53988KBKB BKB20190427233010704/27/19 23:30:31  5-MIN KBKB 280530Z AUTO 00000KT 10SM CLR 16/14 A2995 270 90 400 000/00 RMK AO2 T01560139
53988KBKB BKB20190427233510704/27/19 23:35:31  5-MIN KBKB 280535Z AUTO 00000KT 10SM CLR 16/14 A2995 270 90 400 000/00 RMK AO2 T01560139
53988KBKB BKB20190427234010704/27/19 23:40:31  5-MIN KBKB 280540Z AUTO 00000KT 10SM CLR 16/14 A2995 270 90 400 000/00 RMK AO2 T01560139
53988KBKB BKB20190427234510704/27/19 23:45:31  5-MIN KBKB 280545Z AUTO 00000KT 10SM CLR 16/14 A2995 270 90 400 000/00 RMK AO2 T01560139
53988KBKB BKB20190427235014204/27/19 23:50:31  5-MIN KBKB 280550Z AUTO 00000KT 10SM CLR 15/14 A2995 270 93 400 000/00 RMK AO2 SLP168 T01500139 10244 20150 402890100 53014
53988KBKB BKB20190427235510704/27/19 23:55:31  5-MIN KBKB 280555Z AUTO 00000KT 10SM CLR 15/14 A2995 270 93 400 000/00 RMK AO2 T01500139
53988KBKB BKB20190428000010704/28/19 00:00:31  5-MIN KBKB 280600Z AUTO 00000KT 10SM CLR 15/14 A2995 270 93 400 000/00 RMK AO2 T01500139
53988KBKB BKB20190428000510704/28/19 00:05:31  5-MIN KBKB 280605Z AUTO 00000KT 10SM CLR 15/14 A2995 270 93 400 000/00 RMK AO2 T01500139
53988KBKB BKB20190428001010704/28/19 00:10:31  5-MIN KBKB 280610Z AUTO 00000KT 10SM CLR 15/14 A2995 270 93 400 000/00 RMK AO2 T01500139
53988KBKB BKB20190428001516004/28/19 00:15:31  5-MIN KBKB 280615Z AUTO 00000KT 10SM CLR 15/14 A2995 270 93 400 000620Z AUTO 00000KT 10SM CLR 15/14 A2995 270 93 400 000/00 RMK AO2 T01500139
53988KBKB BKB20190428002510704/28/19 00:25:31  5-MIN KBKB 280625Z AUTO 00000KT 10SM CLR 15/14 A2995 270 93 400 000/00 RMK AO2 T01500139
53988KBKB BKB20190428003010704/28/19 00:30:31  5-MIN KBKB 280630Z AUTO 00000KT 10SM CLR 15/14 A2995 270 93 400 000/00 RMK AO2 T01500139
53988KBKB BKB20190428003510704/28/19 00:35:31  5-MIN KBKB 280635Z AUTO 00000KT 10SM CLR 15/14 A2995 280 93 400 000/00 RMK AO2 T01500139
53988KBKB BKB20190428004010704/28/19 00:40:31  5-MIN KBKB 280640Z AUTO 00000KT 10SM CLR 15/14 A2994 280 93 400 000/00 RMK AO2 T01500139
53988KBKB BKB20190428004510704/28/19 00:45:31  5-MIN KBKB 280645Z AUTO 00000KT 10SM CLR 15/14 A2994 280 93 400 000/00 RMK AO2 T01500139
53988KBKB BKB20190428005011404/28/19 00:50:31  5-MIN KBKB 280650Z AUTO 00000KT 10SM CLR 14/14 A2994 280 96 300 000/00 RMK AO2 SLP165 T01440139
53988KBKB BKB20190428005510704/28/19 00:55:31  5-MIN KBKB 280655Z AUTO 00000KT 10SM CLR 15/14 A2994 280 93 400 000/00 RMK AO2 T01500139
53988KBKB BKB20190428010010704/28/19 01:00:31  5-MIN KBKB 280700Z AUTO 00000KT 10SM CLR 15/14 A2994 280 93 400 000/00 RMK AO2 T01500139
53988KBKB BKB20190428010510704/28/19 01:05:31  5-MIN KBKB 280705Z AUTO 00000KT 10SM CLR 14/14 A2994 280 96 300 000/00 RMK AO2 T01440139
53988KBKB BKB20190428011010704/28/19 01:10:31  5-MIN KBKB 280710Z AUTO 00000KT 10SM CLR 14/14 A2994 280 96 300 000/00 RMK AO2 T01440139
53988KBKB BKB20190428011510704/28/19 01:15:31  5-MIN KBKB 280715Z AUTO 00000KT 10SM CLR 14/14 A2993 280 96 300 000/00 RMK AO2 T01440139
53988KBKB BKB20190428012010704/28/19 01:20:31  5-MIN KBKB 280720Z AUTO 00000KT 10SM CLR 14/14 A2993 290 96 300 000/00 RMK AO2 T01440139
53988KBKB BKB20190428012510704/28/19 01:25:31  5-MIN KBKB 280725Z AUTO 00000KT 10SM CLR 14/14 A2993 290 96 300 000/00 RMK AO2 T01440139
53988KBKB BKB20190428013010704/28/19 01:30:31  5-MIN KBKB 280730Z AUTO 00000KT 10SM CLR 14/14 A2993 280 96 300 000/00 RMK AO2 T01440139
53988KBKB BKB20190428013510704/28/19 01:35:31  5-MIN KBKB 280735Z AUTO 00000KT 10SM CLR 15/14 A2994 280 93 400 000/00 RMK AO2 T01500139
53988KBKB BKB20190428014010704/28/19 01:40:31  5-MIN KBKB 280740Z AUTO 00000KT 10SM CLR 15/14 A2994 280 93 400 000/00 RMK AO2 T01500139
53988KBKB BKB20190428014510704/28/19 01:45:31  5-MIN KBKB 280745Z AUTO 00000KT 10SM CLR 15/14 A2994 280 93 400 000/00 RMK AO2 T01500139
53988KBKB BKB20190428015011404/28/19 01:50:31  5-MIN KBKB 280750Z AUTO 00000KT 10SM CLR 15/14 A2994 280 93 400 000/00 RMK AO2 SLP166 T01500139
53988KBKB BKB20190428015510704/28/19 01:55:31  5-MIN KBKB 280755Z AUTO 00000KT 10SM CLR 15/14 A2994 280 93 400 000/00 RMK AO2 T01500139
53988KBKB BKB20190428020010704/28/19 02:00:31  5-MIN KBKB 280800Z AUTO 00000KT 10SM CLR 15/14 A2994 280 93 400 000/00 RMK AO2 T01500139
53988KBKB BKB20190428020510704/28/19 02:05:31  5-MIN KBKB 280805Z AUTO 00000KT 10SM CLR 15/14 A2994 280 96 400 000/00 RMK AO2 T01500144
53988KBKB BKB20190428021010704/28/19 02:10:31  5-MIN KBKB 280810Z AUTO 00000KT 10SM CLR 15/14 A2994 280 93 400 000/00 RMK AO2 T01500139
53988KBKB BKB20190428021510704/28/19 02:15:31  5-MIN KBKB 280815Z AUTO 00000KT 10SM CLR 15/14 A2995 280 96 400 000/00 RMK AO2 T01500144
53988KBKB BKB20190428022010704/28/19 02:20:31  5-MIN KBKB 280820Z AUTO 00000KT 10SM CLR 15/14 A2994 280 93 400 000/00 RMK AO2 T01500139
53988KBKB BKB20190428022510704/28/19 02:25:31  5-MIN KBKB 280825Z AUTO 00000KT 10SM CLR 14/14 A2994 280 96 300 000/00 RMK AO2 T01440139
53988KBKB BKB20190428023010704/28/19 02:30:31  5-MIN KBKB 280830Z AUTO 00000KT 10SM CLR 14/14 A2994 280 96 300 000/00 RMK AO2 T01440139
53988KBKB BKB20190428023510704/28/19 02:35:31  5-MIN KBKB 280835Z AUTO 00000KT 10SM CLR 14/13 A2994 280 93 300 000/00 RMK AO2 T01440133
53988KBKB BKB20190428024010704/28/19 02:40:31  5-MIN KBKB 280840Z AUTO 00000KT 10SM CLR 14/13 A2994 280 96 200 000/00 RMK AO2 T01390133
53988KBKB BKB20190428024510704/28/19 02:45:31  5-MIN KBKB 280845Z AUTO 00000KT 10SM CLR 14/13 A2994 280 96 200 000/00 RMK AO2 T01390133
53988KBKB BKB20190428025012004/28/19 02:50:31  5-MIN KBKB 280850Z AUTO 00000KT 10SM CLR 14/13 A2995 270 93 300 000/00 RMK AO2 SLP167 T01440133 53010
53988KBKB BKB20190428025510704/28/19 02:55:31  5-MIN KBKB 280855Z AUTO 00000KT 10SM CLR 14/13 A2995 270 93 300 000/00 RMK AO2 T01440133
53988KBKB BKB20190428030010704/28/19 03:00:31  5-MIN KBKB 280900Z AUTO 00000KT 10SM CLR 14/14 A2995 270 96 300 000/00 RMK AO2 T01440139
53988KBKB BKB20190428030510704/28/19 03:05:31  5-MIN KBKB 280905Z AUTO 00000KT 10SM CLR 15/14 A2996 270 93 400 000/00 RMK AO2 T01500139
53988KBKB BKB20190428031010704/28/19 03:10:31  5-MIN KBKB 280910Z AUTO 00000KT 10SM CLR 15/14 A2996 270 93 400 000/00 RMK AO2 T01500139
53988KBKB BKB20190428031510704/28/19 03:15:31  5-MIN KBKB 280915Z AUTO 00000KT 10SM CLR 15/14 A2995 270 93 400 000/00 RMK AO2 T01500139
53988KBKB BKB20190428032010704/28/19 03:20:31  5-MIN KBKB 280920Z AUTO 00000KT 10SM CLR 15/14 A2996 270 93 400 000/00 RMK AO2 T01500139
53988KBKB BKB20190428032510704/28/19 03:25:31  5-MIN KBKB 280925Z AUTO 00000KT 10SM CLR 14/14 A2995 270 96 300 000/00 RMK AO2 T01440139
53988KBKB BKB20190428033010704/28/19 03:30:31  5-MIN KBKB 280930Z AUTO 00000KT 10SM CLR 14/14 A2995 270 96 300 000/00 RMK AO2 T01440139
53988KBKB BKB20190428033510704/28/19 03:35:31  5-MIN KBKB 280935Z AUTO 00000KT 10SM CLR 14/14 A2995 270 96 300 000/00 RMK AO2 T01440139
53988KBKB BKB20190428034010704/28/19 03:40:31  5-MIN KBKB 280940Z AUTO 00000KT 10SM CLR 14/13 A2995 270 93 300 000/00 RMK AO2 T01440133
53988KBKB BKB20190428034510704/28/19 03:45:31  5-MIN KBKB 280945Z AUTO 00000KT 10SM CLR 14/13 A2995 270 96 200 000/00 RMK AO2 T01390133
53988KBKB BKB20190428035011404/28/19 03:50:31  5-MIN KBKB 280950Z AUTO 00000KT 10SM CLR 14/13 A2995 270 96 200 000/00 RMK AO2 SLP167 T01390133
53988KBKB BKB20190428035510704/28/19 03:55:31  5-MIN KBKB 280955Z AUTO 00000KT 10SM CLR 14/13 A2995 270 96 200 000/00 RMK AO2 T01390133
53988KBKB BKB20190428040010604/28/19 04:00:31  5-MIN KBKB 281000Z AUTO 00000KT 9SM CLR 14/13 A2995 270 96 200 000/00 RMK AO2 T01390133
53988KBKB BKB20190428040510704/28/19 04:05:31  5-MIN KBKB 281005Z AUTO 00000KT 10SM CLR 14/13 A2995 270 96 200 000/00 RMK AO2 T01390133
53988KBKB BKB20190428041010704/28/19 04:10:31  5-MIN KBKB 281010Z AUTO 00000KT 10SM CLR 14/13 A2995 270 96 200 000/00 RMK AO2 T01390133
53988KBKB BKB20190428041510604/28/19 04:15:31  5-MIN KBKB 281015Z AUTO 00000KT 9SM CLR 14/13 A2995 270 96 200 000/00 RMK AO2 T01390133
53988KBKB BKB20190428042010604/28/19 04:20:31  5-MIN KBKB 281020Z AUTO 00000KT 8SM CLR 14/13 A2995 270 96 200 000/00 RMK AO2 T01390133
53988KBKB BKB20190428042510604/28/19 04:25:31  5-MIN KBKB 281025Z AUTO 00000KT 8SM CLR 14/13 A2995 270 96 200 000/00 RMK AO2 T01390133
53988KBKB BKB20190428043010604/28/19 04:30:31  5-MIN KBKB 281030Z AUTO 00000KT 8SM CLR 14/13 A2995 270 96 200 000/00 RMK AO2 T01390133
53988KBKB BKB20190428043510604/28/19 04:35:31  5-MIN KBKB 281035Z AUTO 00000KT 7SM CLR 14/13 A2995 270 96 200 000/00 RMK AO2 T01390133
53988KBKB BKB20190428044010904/28/19 04:40:31  5-MIN KBKB 281040Z AUTO 00000KT 6SM BR CLR 14/13 A2995 270 96 200 000/00 RMK AO2 T01390133
53988KBKB BKB20190428044510904/28/19 04:45:31  5-MIN KBKB 281045Z AUTO 00000KT 5SM BR CLR 14/13 A2995 270 96 200 000/00 RMK AO2 T01390133
53988KBKB BKB20190428045011704/28/19 04:50:31  5-MIN KBKB 281050Z AUTO 00000KT 5SM BR CLR 13/13 A2995 270 100 200 000/00 RMK AO2 SLP170 T01330133
53988KBKB BKB20190428045510904/28/19 04:55:31  5-MIN KBKB 281055Z AUTO 00000KT 6SM BR CLR 13/13 A2995 270 96 200 000/00 RMK AO2 T01330128
53988KBKB BKB20190428050010904/28/19 05:00:31  5-MIN KBKB 281100Z AUTO 00000KT 6SM BR CLR 13/13 A2995 270 96 200 000/00 RMK AO2 T01330128
53988KBKB BKB20190428050510904/28/19 05:05:31  5-MIN KBKB 281105Z AUTO 00000KT 6SM BR CLR 13/13 A2995 270 96 200 000/00 RMK AO2 T01330128
53988KBKB BKB20190428051010904/28/19 05:10:31  5-MIN KBKB 281110Z AUTO 00000KT 5SM BR CLR 13/13 A2995 270 96 200 000/00 RMK AO2 T01330128
53988KBKB BKB20190428051510904/28/19 05:15:31  5-MIN KBKB 281115Z AUTO 00000KT 6SM BR CLR 13/13 A2995 270 96 200 000/00 RMK AO2 T01330128
53988KBKB BKB20190428052011004/28/19 05:20:31  5-MIN KBKB 281120Z AUTO 00000KT 6SM BR CLR 13/13 A2996 270 100 100 000/00 RMK AO2 T01280128
53988KBKB BKB20190428052511004/28/19 05:25:31  5-MIN KBKB 281125Z AUTO 00000KT 6SM BR CLR 13/13 A2996 260 100 100 000/00 RMK AO2 T01280128
53988KBKB BKB20190428053011004/28/19 05:30:31  5-MIN KBKB 281130Z AUTO 00000KT 5SM BR CLR 13/13 A2996 270 100 100 000/00 RMK AO2 T01280128
53988KBKB BKB20190428053510904/28/19 05:35:31  5-MIN KBKB 281135Z AUTO 00000KT 6SM BR CLR 13/12 A2996 260 96 100 000/00 RMK AO2 T01280122
53988KBKB BKB20190428054010904/28/19 05:40:31  5-MIN KBKB 281140Z AUTO 00000KT 6SM BR CLR 13/12 A2996 260 96 100 000/00 RMK AO2 T01280122
53988KBKB BKB20190428054511004/28/19 05:45:31  5-MIN KBKB 281145Z AUTO 00000KT 5SM BR CLR 13/13 A2996 260 100 100 000/00 RMK AO2 T01280128
53988KBKB BKB20190428055013404/28/19 05:50:31  5-MIN KBKB 281150Z AUTO 00000KT 5SM BR CLR 13/13 A2996 260 96 200 000/00 RMK AO2 SLP173 T01330128 10150 20128 55001
53988KBKB BKB20190428055510904/28/19 05:55:31  5-MIN KBKB 281155Z AUTO 00000KT 4SM BR CLR 13/13 A2996 260 96 200 000/00 RMK AO2 T01330128
53988KBKB BKB20190428060010904/28/19 06:00:31  5-MIN KBKB 281200Z AUTO 00000KT 4SM BR CLR 13/13 A2997 260 96 200 000/00 RMK AO2 T01330128
53988KBKB BKB20190428060511004/28/19 06:05:31  5-MIN KBKB 281205Z AUTO 00000KT 5SM BR CLR 13/13 A2997 250 100 200 000/00 RMK AO2 T01330133
53988KBKB BKB20190428061010904/28/19 06:10:31  5-MIN KBKB 281210Z AUTO 00000KT 5SM BR CLR 14/13 A2998 250 96 200 000/00 RMK AO2 T01390133
53988KBKB BKB20190428061510904/28/19 06:15:31  5-MIN KBKB 281215Z AUTO 00000KT 4SM BR CLR 14/13 A2998 240 96 200 000/00 RMK AO2 T01390133
53988KBKB BKB20190428062011004/28/19 06:20:31  5-MIN KBKB 281220Z AUTO 00000KT 5SM BR CLR 14/14 A2998 240 100 200 000/00 RMK AO2 T01390139
53988KBKB BKB20190428062511004/28/19 06:25:31  5-MIN KBKB 281225Z AUTO 00000KT 5SM BR CLR 14/14 A2998 240 100 200 000/00 RMK AO2 T01390139
53988KBKB BKB20190428063010904/28/19 06:30:31  5-MIN KBKB 281230Z AUTO 00000KT 5SM BR CLR 14/14 A2999 240 96 300 000/00 RMK AO2 T01440139
53988KBKB BKB20190428063510904/28/19 06:35:31  5-MIN KBKB 281235Z AUTO 00000KT 6SM BR CLR 15/14 A2999 240 96 300 000/00 RMK AO2 T01500144
53988KBKB BKB20190428064010704/28/19 06:40:31  5-MIN KBKB 281240Z AUTO 00000KT 7SM CLR 15/15 A2999 230 100 300 000/00 RMK AO2 T01500150
53988KBKB BKB20190428064510604/28/19 06:45:31  5-MIN KBKB 281245Z AUTO 00000KT 7SM CLR 16/15 A2999 230 96 400 000/00 RMK AO2 T01560150
53988KBKB BKB20190428065011404/28/19 06:50:31  5-MIN KBKB 281250Z AUTO 00000KT 8SM CLR 16/16 A2999 230 100 400 000/00 RMK AO2 SLP182 T01560156
53988KBKB BKB20190428065510704/28/19 06:55:31  5-MIN KBKB 281255Z AUTO 00000KT 10SM CLR 17/16 A2999 240 96 500 000/00 RMK AO2 T01670161
53988KBKB BKB20190428070010704/28/19 07:00:31  5-MIN KBKB 281300Z AUTO 00000KT 10SM CLR 17/16 A2998 240 93 500 000/00 RMK AO2 T01670156
53988KBKB BKB20190428070510704/28/19 07:05:31  5-MIN KBKB 281305Z AUTO 00000KT 10SM CLR 17/16 A2998 240 93 600 000/00 RMK AO2 T01720161
53988KBKB BKB20190428071010704/28/19 07:10:31  5-MIN KBKB 281310Z AUTO 00000KT 10SM CLR 18/16 A2998 240 90 700 000/00 RMK AO2 T01780161
53988KBKB BKB20190428071510704/28/19 07:15:31  5-MIN KBKB 281315Z AUTO VRB04KT 10SM CLR 18/16 A2998 250 87 700 VRB/04 RMK AO2 T01830161
53988KBKB BKB20190428072010704/28/19 07:20:31  5-MIN KBKB 281320Z AUTO 00000KT 10SM CLR 19/17 A2997 250 87 800 000/00 RMK AO2 T01890167
53988KBKB BKB20190428072510704/28/19 07:25:31  5-MIN KBKB 281325Z AUTO VRB03KT 10SM CLR 19/16 A2997 250 81 900 VRB/03 RMK AO2 T01940161
53988KBKB BKB20190428073010704/28/19 07:30:31  5-MIN KBKB 281330Z AUTO VRB04KT 10SM CLR 20/17 A2998 240 81 900 VRB/04 RMK AO2 T02000167
53988KBKB BKB20190428073510804/28/19 07:35:31  5-MIN KBKB 281335Z AUTO VRB03KT 10SM CLR 21/17 A3000 230 75 1000 VRB/03 RMK AO2 T02110167
53988KBKB BKB20190428074010804/28/19 07:40:31  5-MIN KBKB 281340Z AUTO VRB04KT 10SM CLR 21/16 A3000 230 75 1000 VRB/04 RMK AO2 T02060161
53988KBKB BKB20190428074510804/28/19 07:45:31  5-MIN KBKB 281345Z AUTO VRB04KT 10SM CLR 21/16 A3000 220 75 1000 VRB/04 RMK AO2 T02060161
53988KBKB BKB20190428075011504/28/19 07:50:31  5-MIN KBKB 281350Z AUTO 00000KT 10SM CLR 21/16 A3001 220 75 1000 000/00 RMK AO2 SLP188 T02060161
53988KBKB BKB20190428075510804/28/19 07:55:31  5-MIN KBKB 281355Z AUTO 00000KT 10SM CLR 21/16 A3001 220 75 1000 000/00 RMK AO2 T02060161
53988KBKB BKB20190428080010804/28/19 08:00:31  5-MIN KBKB 281400Z AUTO VRB03KT 10SM CLR 22/17 A3001 210 73 1100 VRB/03 RMK AO2 T02170167
53988KBKB BKB20190428080510804/28/19 08:05:31  5-MIN KBKB 281405Z AUTO 00000KT 10SM CLR 22/16 A3001 210 70 1100 000/00 RMK AO2 T02170161
53988KBKB BKB20190428081010804/28/19 08:10:31  5-MIN KBKB 281410Z AUTO 00000KT 10SM CLR 22/16 A3001 210 70 1100 000/00 RMK AO2 T02170161
53988KBKB BKB20190428081510804/28/19 08:15:31  5-MIN KBKB 281415Z AUTO VRB03KT 10SM CLR 22/16 A3001 220 70 1100 VRB/03 RMK AO2 T02170161
53988KBKB BKB20190428082010804/28/19 08:20:31  5-MIN KBKB 281420Z AUTO VRB04KT 10SM CLR 23/16 A3001 220 65 1200 VRB/04 RMK AO2 T02280161
53988KBKB BKB20190428082510804/28/19 08:25:31  5-MIN KBKB 281425Z AUTO VRB04KT 10SM CLR 22/16 A3000 230 65 1200 VRB/04 RMK AO2 T02220156
53988KBKB BKB20190428083010804/28/19 08:30:31  5-MIN KBKB 281430Z AUTO VRB03KT 10SM CLR 23/16 A3000 220 65 1200 VRB/03 RMK AO2 T02280161
53988KBKB BKB20190428083510804/28/19 08:35:31  5-MIN KBKB 281435Z AUTO VRB03KT 10SM CLR 22/16 A3000 230 65 1200 VRB/03 RMK AO2 T02220156
53988KBKB BKB20190428084010804/28/19 08:40:31  5-MIN KBKB 281440Z AUTO VRB05KT 10SM CLR 23/16 A3000 230 65 1200 VRB/05 RMK AO2 T02280161
53988KBKB BKB20190428084510804/28/19 08:45:31  5-MIN KBKB 281445Z AUTO VRB03KT 10SM CLR 22/16 A3000 230 65 1200 VRB/03 RMK AO2 T02220156
53988KBKB BKB20190428085012104/28/19 08:50:31  5-MIN KBKB 281450Z AUTO 00000KT 10SM CLR 23/16 A3000 230 65 1200 000/00 RMK AO2 SLP183 T02280161 53005
53988KBKB BKB20190428085510804/28/19 08:55:31  5-MIN KBKB 281455Z AUTO VRB04KT 10SM CLR 22/15 A3000 220 63 1200 VRB/04 RMK AO2 T02220150
53988KBKB BKB20190428090010804/28/19 09:00:31  5-MIN KBKB 281500Z AUTO VRB03KT 10SM CLR 22/15 A3000 230 65 1100 VRB/03 RMK AO2 T02170150
53988KBKB BKB20190428090510804/28/19 09:05:31  5-MIN KBKB 281505Z AUTO 00000KT 10SM CLR 22/15 A3000 220 65 1100 000/00 RMK AO2 T02170150
53988KBKB BKB20190428091010804/28/19 09:10:31  5-MIN KBKB 281510Z AUTO 00000KT 10SM CLR 22/16 A3001 220 68 1100 000/00 RMK AO2 T02220161
53988KBKB BKB20190428091510804/28/19 09:15:31  5-MIN KBKB 281515Z AUTO 00000KT 10SM CLR 22/16 A3001 220 68 1100 000/00 RMK AO2 T02170156
53988KBKB BKB20190428092010804/28/19 09:20:31  5-MIN KBKB 281520Z AUTO 00000KT 10SM CLR 22/16 A3001 210 68 1100 000/00 RMK AO2 T02220161
53988KBKB BKB20190428092510804/28/19 09:25:31  5-MIN KBKB 281525Z AUTO 00000KT 10SM CLR 23/16 A3002 210 65 1200 000/00 RMK AO2 T02280161
53988KBKB BKB20190428093010804/28/19 09:30:31  5-MIN KBKB 281530Z AUTO VRB03KT 10SM CLR 22/16 A3002 210 65 1100 VRB/03 RMK AO2 T02220156
53988KBKB BKB20190428093510804/28/19 09:35:31  5-MIN KBKB 281535Z AUTO 00000KT 10SM CLR 22/16 A3002 200 68 1100 000/00 RMK AO2 T02220161
53988KBKB BKB20190428094010804/28/19 09:40:31  5-MIN KBKB 281540Z AUTO 20003KT 10SM CLR 22/16 A3002 210 68 1100 200/03 RMK AO2 T02220161
53988KBKB BKB20190428094510804/28/19 09:45:31  5-MIN KBKB 281545Z AUTO VRB03KT 10SM CLR 24/16 A3002 200 61 1300 VRB/03 RMK AO2 T02390161
53988KBKB BKB20190428095011504/28/19 09:50:31  5-MIN KBKB 281550Z AUTO VRB03KT 10SM CLR 23/16 A3002 200 63 1300 VRB/03 RMK AO2 SLP192 T02330161
53988KBKB BKB20190428095510804/28/19 09:55:31  5-MIN KBKB 281555Z AUTO 00000KT 10SM CLR 23/16 A3002 200 63 1300 000/00 RMK AO2 T02330161
53988KBKB BKB20190428100010804/28/19 10:00:31  5-MIN KBKB 281600Z AUTO 11003KT 10SM CLR 24/16 A3002 210 59 1400 100/03 RMK AO2 T02440161
53988KBKB BKB20190428100510804/28/19 10:05:31  5-MIN KBKB 281605Z AUTO VRB03KT 10SM CLR 24/16 A3002 210 59 1400 VRB/03 RMK AO2 T02440161
53988KBKB BKB20190428101011104/28/19 10:10:31  5-MIN KBKB 281610Z AUTO VRB05KT 10SM FEW032 25/16 A3001 210 57 1500 VRB/05 RMK AO2 T02500161
53988KBKB BKB20190428101511104/28/19 10:15:31  5-MIN KBKB 281615Z AUTO VRB03KT 10SM FEW032 24/16 A3001 210 59 1400 VRB/03 RMK AO2 T02440161
53988KBKB BKB20190428102011104/28/19 10:20:31  5-MIN KBKB 281620Z AUTO 00000KT 10SM FEW034 24/16 A3001 210 57 1400 000/00 RMK AO2 T02440156
53988KBKB BKB20190428102511104/28/19 10:25:31  5-MIN KBKB 281625Z AUTO 00000KT 10SM FEW034 24/16 A3002 210 59 1300 000/00 RMK AO2 T02390156
53988KBKB BKB20190428103011104/28/19 10:30:31  5-MIN KBKB 281630Z AUTO VRB04KT 10SM SCT034 23/16 A3002 210 63 1300 VRB/04 RMK AO2 T02330161
53988KBKB BKB20190428103511104/28/19 10:35:31  5-MIN KBKB 281635Z AUTO 00000KT 10SM SCT036 23/16 A3002 210 63 1300 000/00 RMK AO2 T02330161
53988KBKB BKB20190428104011104/28/19 10:40:31  5-MIN KBKB 281640Z AUTO VRB03KT 10SM BKN036 23/16 A3002 210 63 1300 VRB/03 RMK AO2 T02330161
53988KBKB BKB20190428104511104/28/19 10:45:31  5-MIN KBKB 281645Z AUTO 00000KT 10SM BKN036 24/16 A3002 210 59 1400 000/00 RMK AO2 T02440161
53988KBKB BKB20190428105011804/28/19 10:50:31  5-MIN KBKB 281650Z AUTO 10003KT 10SM BKN038 24/16 A3001 210 57 1400 100/03 RMK AO2 SLP191 T02440156
53988KBKB BKB20190428105511104/28/19 10:55:31  5-MIN KBKB 281655Z AUTO 00000KT 10SM BKN038 24/16 A3001 210 57 1400 000/00 RMK AO2 T02440156
53988KBKB BKB20190428110011104/28/19 11:00:31  5-MIN KBKB 281700Z AUTO 15004KT 10SM SCT038 25/16 A3001 220 55 1500 150/04 RMK AO2 T02500156
53988KBKB BKB20190428110511104/28/19 11:05:31  5-MIN KBKB 281705Z AUTO 00000KT 10SM SCT038 25/15 A3000 220 53 1500 000/00 RMK AO2 T02500150
53988KBKB BKB20190428111011104/28/19 11:10:31  5-MIN KBKB 281710Z AUTO VRB03KT 10SM SCT038 25/15 A3000 220 53 1500 VRB/03 RMK AO2 T02500150
53988KBKB BKB20190428111511104/28/19 11:15:31  5-MIN KBKB 281715Z AUTO 00000KT 10SM SCT038 25/15 A3000 220 53 1500 000/00 RMK AO2 T02500150
53988KBKB BKB20190428112011104/28/19 11:20:31  5-MIN KBKB 281720Z AUTO 00000KT 10SM FEW040 26/15 A3000 220 51 1500 000/00 RMK AO2 T02560150
53988KBKB BKB20190428112511104/28/19 11:25:31  5-MIN KBKB 281725Z AUTO 14004KT 10SM SCT040 26/15 A3001 220 51 1500 140/04 RMK AO2 T02560150
53988KBKB BKB20190428113011104/28/19 11:30:31  5-MIN KBKB 281730Z AUTO VRB04KT 10SM SCT040 26/16 A3001 220 51 1600 VRB/04 RMK AO2 T02610156
53988KBKB BKB20190428113511104/28/19 11:35:31  5-MIN KBKB 281735Z AUTO 00000KT 10SM SCT041 26/15 A3001 220 50 1600 000/00 RMK AO2 T02610150
53988KBKB BKB20190428114011104/28/19 11:40:31  5-MIN KBKB 281740Z AUTO 00000KT 10SM FEW041 26/15 A3000 220 50 1600 000/00 RMK AO2 T02610150
53988KBKB BKB20190428114511104/28/19 11:45:31  5-MIN KBKB 281745Z AUTO VRB03KT 10SM FEW041 26/15 A3000 220 51 1500 VRB/03 RMK AO2 T02560150
53988KBKB BKB20190428115013604/28/19 11:50:31  5-MIN KBKB 281750Z AUTO VRB03KT 10SM FEW041 27/16 A2999 230 50 1700 VRB/03 RMK AO2 SLP183 T02670156 10267 20133 50012
53988KBKB BKB20190428115510804/28/19 11:55:31  5-MIN KBKB 281755Z AUTO VRB03KT 10SM CLR 26/14 A2999 230 48 1600 VRB/03 RMK AO2 T02610144
53988KBKB BKB20190428120010804/28/19 12:00:31  5-MIN KBKB 281800Z AUTO VRB05KT 10SM CLR 27/14 A3000 230 46 1700 VRB/05 RMK AO2 T02670144
53988KBKB BKB20190428120510804/28/19 12:05:31  5-MIN KBKB 281805Z AUTO 12005KT 10SM CLR 26/14 A3000 230 48 1600 110/05 RMK AO2 T02610144
53988KBKB BKB20190428121010804/28/19 12:10:31  5-MIN KBKB 281810Z AUTO VRB03KT 10SM CLR 26/14 A3000 230 48 1600 VRB/03 RMK AO2 T02610144
53988KBKB BKB20190428121511104/28/19 12:15:31  5-MIN KBKB 281815Z AUTO 00000KT 10SM FEW047 26/14 A2999 230 49 1500 000/00 RMK AO2 T02560144
53988KBKB BKB20190428122011104/28/19 12:20:31  5-MIN KBKB 281820Z AUTO VRB04KT 10SM FEW047 27/15 A2999 240 48 1700 VRB/04 RMK AO2 T02670150
53988KBKB BKB20190428122511104/28/19 12:25:31  5-MIN KBKB 281825Z AUTO 00000KT 10SM FEW046 27/14 A2998 240 46 1700 000/00 RMK AO2 T02670144
53988KBKB BKB20190428123011104/28/19 12:30:31  5-MIN KBKB 281830Z AUTO VRB04KT 10SM FEW046 27/14 A2998 240 46 1700 VRB/04 RMK AO2 T02670144
53988KBKB BKB20190428123511104/28/19 12:35:31  5-MIN KBKB 281835Z AUTO VRB03KT 10SM FEW046 27/14 A2998 240 45 1700 VRB/03 RMK AO2 T02720144
53988KBKB BKB20190428124011104/28/19 12:40:31  5-MIN KBKB 281840Z AUTO 00000KT 10SM FEW046 27/14 A2998 240 46 1700 000/00 RMK AO2 T02670144
53988KBKB BKB20190428124511104/28/19 12:45:31  5-MIN KBKB 281845Z AUTO VRB06KT 10SM FEW046 27/15 A2998 250 46 1800 VRB/06 RMK AO2 T02720150
53988KBKB BKB20190428211010704/28/19 21:10:31  5-MIN KBKB 290310Z AUTO 00000KT 10SM CLR 19/16 A2998 240 78 900 000/00 RMK AO2 T01940156
53988KBKB BKB20190428211510704/28/19 21:15:31  5-MIN KBKB 290315Z AUTO 00000KT 10SM CLR 19/16 A2998 240 81 800 000/00 RMK AO2 T01890156
53988KBKB BKB20190428212010704/28/19 21:20:31  5-MIN KBKB 290320Z AUTO 00000KT 10SM CLR 19/16 A2998 240 81 800 000/00 RMK AO2 T01890156
53988KBKB BKB20190428212510704/28/19 21:25:31  5-MIN KBKB 290325Z AUTO 00000KT 10SM CLR 19/16 A2998 240 81 800 000/00 RMK AO2 T01890156
53988KBKB BKB20190428213010704/28/19 21:30:31  5-MIN KBKB 290330Z AUTO 00000KT 10SM CLR 19/16 A2998 240 81 800 000/00 RMK AO2 T01890156
53988KBKB BKB20190428213510704/28/19 21:35:31  5-MIN KBKB 290335Z AUTO 00000KT 10SM CLR 19/16 A2998 240 81 800 000/00 RMK AO2 T01890156
53988KBKB BKB20190428214010704/28/19 21:40:31  5-MIN KBKB 290340Z AUTO 00000KT 10SM CLR 19/16 A2998 240 81 800 000/00 RMK AO2 T01890156
53988KBKB BKB20190428214510704/28/19 21:45:31  5-MIN KBKB 290345Z AUTO 00000KT 10SM CLR 18/16 A2998 250 84 700 000/00 RMK AO2 T01830156
53988KBKB BKB20190428215011404/28/19 21:50:31  5-MIN KBKB 290350Z AUTO 00000KT 10SM CLR 18/16 A2998 240 84 700 000/00 RMK AO2 SLP177 T01830156
53988KBKB BKB20190428215510704/28/19 21:55:31  5-MIN KBKB 290355Z AUTO 00000KT 10SM CLR 19/16 A2998 240 81 800 000/00 RMK AO2 T01890156
53988KBKB BKB20190428220010704/28/19 22:00:31  5-MIN KBKB 290400Z AUTO 00000KT 10SM CLR 19/16 A2998 240 81 800 000/00 RMK AO2 T01890156
53988KBKB BKB20190428220510704/28/19 22:05:31  5-MIN KBKB 290405Z AUTO VRB03KT 10SM CLR 19/16 A2998 240 81 800 VRB/03 RMK AO2 T01890156
53988KBKB BKB20190428221010704/28/19 22:10:31  5-MIN KBKB 290410Z AUTO 00000KT 10SM CLR 19/16 A2998 240 81 800 000/00 RMK AO2 T01890156
53988KBKB BKB20190428221510704/28/19 22:15:31  5-MIN KBKB 290415Z AUTO 00000KT 10SM CLR 19/16 A2998 240 81 800 000/00 RMK AO2 T01890156
53988KBKB BKB20190428222010704/28/19 22:20:31  5-MIN KBKB 290420Z AUTO 00000KT 10SM CLR 19/16 A2998 240 78 900 000/00 RMK AO2 T01940156
53988KBKB BKB20190428222510704/28/19 22:25:31  5-MIN KBKB 290425Z AUTO 00000KT 10SM CLR 19/16 A2998 240 81 800 000/00 RMK AO2 T01890156
53988KBKB BKB20190428223010704/28/19 22:30:31  5-MIN KBKB 290430Z AUTO VRB03KT 10SM CLR 19/16 A2998 240 81 800 VRB/03 RMK AO2 T01890156
53988KBKB BKB20190428223510704/28/19 22:35:31  5-MIN KBKB 290435
53988KBKB BKB20190429075511804/29/19 07:55:31  5-MIN KBKB 291355Z AUTO VRB04KT 10SM BKN008 OVC016 22/21 A3001 220 90 1100 VRB/04 RMK AO2 T02220206
53988KBKB BKB20190429080010104/29/19 08:00:31  5-MIN KBKB 291400Z AUTO 10SM OVC008 22/21 A3001 220 90 1100 M /M RMK AO2 T02220206
53988KBKB BKB20190429080511104/29/19 08:05:31  5-MIN KBKB 291405Z AUTO VRB04KT 10SM OVC010 22/21 A3001 210 90 1100 VRB/04 RMK AO2 T02220206
53988KBKB BKB20190429081013004/29/19 08:10:31  5-MIN KBKB 291410Z AUTO VRB03KT 10SM BKN010 OVC017 22/21 A3001 210 90 1100 VRB/03 RMK AO2 CIG 008V012 T02220206
53988KBKB BKB20190429081511104/29/19 08:15:31  5-MIN KBKB 291415Z AUTO VRB04KT 10SM OVC010 23/21 A3001 210 87 1200 VRB/04 RMK AO2 T02280206
53988KBKB BKB20190429082011104/29/19 08:20:31  5-MIN KBKB 291420Z AUTO VRB03KT 10SM OVC010 23/21 A3001 210 87 1200 VRB/03 RMK AO2 T02280206
53988KBKB BKB20190429082511104/29/19 08:25:31  5-MIN KBKB 291425Z AUTO VRB04KT 10SM OVC010 23/21 A3001 210 87 1200 VRB/04 RMK AO2 T02280206
53988KBKB BKB20190429083011104/29/19 08:30:31  5-MIN KBKB 291430Z AUTO 00000KT 10SM OVC010 23/21 A3001 210 87 1200 000/00 RMK AO2 T02280206
53988KBKB BKB20190429083511104/29/19 08:35:31  5-MIN KBKB 291435Z AUTO 19004KT 10SM OVC010 23/21 A3002 210 87 1200 190/04 RMK AO2 T02280206
53988KBKB BKB20190429084011104/29/19 08:40:31  5-MIN KBKB 291440Z AUTO VRB04KT 10SM OVC010 23/21 A3002 210 87 1200 VRB/04 RMK AO2 T02280206
53988KBKB BKB20190429084511104/29/19 08:45:31  5-MIN KBKB 291445Z AUTO VRB03KT 10SM OVC010 23/21 A3002 210 87 1200 VRB/03 RMK AO2 T02280206
53988KBKB BKB20190429085012404/29/19 08:50:31  5-MIN KBKB 291450Z AUTO VRB04KT 10SM OVC010 23/21 A3001 210 84 1300 VRB/04 RMK AO2 SLP190 T02330206 53008
53988KBKB BKB20190429085512304/29/19 08:55:31  5-MIN KBKB 291455Z AUTO VRB03KT 10SM OVC010 23/21 A3001 210 84 1300 VRB/03 RMK AO2 CIG 009V015 T02330206
53988KBKB BKB20190429090011104/29/19 09:00:31  5-MIN KBKB 291500Z AUTO VRB03KT 10SM OVC010 23/21 A3001 210 87 1300 VRB/03 RMK AO2 T02330211
53988KBKB BKB20190429090511104/29/19 09:05:31  5-MIN KBKB 291505Z AUTO VRB03KT 10SM OVC010 23/21 A3001 210 84 1300 VRB/03 RMK AO2 T02330206
53988KBKB BKB20190429091011004/29/19 09:10:31  5-MIN KBKB 291510Z AUTO VRB04KT 9SM OVC012 23/21 A3001 210 84 1300 VRB/04 RMK AO2 T02330206
53988KBKB BKB20190429091512604/29/19 09:15:31  5-MIN KBKB 291515Z AUTO 16007KT 130V220 9SM OVC012 23/21 A3002 210 84 1300 160/07 130V220 RMK AO2 T02330206
53988KBKB BKB20190429092011004/29/19 09:20:31  5-MIN KBKB 291520Z AUTO VRB04KT 9SM OVC012 24/21 A3002 210 81 1300 VRB/04 RMK AO2 T02390206
53988KBKB BKB20190429092511304/29/19 09:25:31  5-MIN KBKB 291525Z AUTO VRB04KT 6SM HZ OVC012 24/21 A3002 210 81 1400 VRB/04 RMK AO2 T02440211
53988KBKB BKB20190429093030204/29/19 09:30:31  5-MIN KBKB 291530Z AUTO VRB05KT 6SM HZ OVC012 24/211  5-MIN KBKB 291625Z AUTO VRB03KT 10SM SCT018 BKN023 OVC037 27/21 A3002 210 71 1600 VRB/03 RMK AO2 T0267021104/29/19 10:30:31  5-UTO 16008KT 120V220 10SM BKN023 BKN032 OVC044 27/21 A3001 210 71 1600 160/08 120V220 RMK AO2 T02670211
53988KBKB BKB20190429104514104/29/19 10:45:31  5-MIN KBKB 291645Z AUTO 15008KT 110V190 10SM BKN023 BKN028 OVC042 27/21 A3001 220 69 1700 150/08 110V190 RMK AO2 T02720211
53988KBKB BKB20190429105018704/29/19 10:50:31  5-MIN KBKB 291650Z AUTO VRB05KT 10SM BKN023 BKN031 BKN042 28/22 A3001 220 69 1800 VRB/05 RMK AO2 SLP187 T02780217BKN047 27/21 A3000 220 71 1700 VRB/04 RMK AO2 T02670211
53988KBKB BKB20190429111013404/29/19 11:10:31  5-MIN KBKB 291710Z AUTO 19007KT 140V220 10SM SCT025 BKN037 29/22 A3000 230 64 1900 180/07 140V220 RMK AO2 T02890217
53988KBKB BKB20190429111516204/29/19 11:15:31  5-MIN KBKB 291715Z AUTO VRB06G17KT 10SM SCT025 SCT030 BKN037 28/21 A3000 230 66 1800 VRB/06G17 RMK AO2 T0278021104/29/19RB/05 RMK AO2 T02830211
53988KBKB BKB20190429131011804/29/19 13:10:31  5-MIN KBKB 291910Z AUTO VRB04KT 10SM FEW033 BKN055 29/21 A2998 240 62 1900 VRB/04 RMK AO2 T02890211
53988KBKB BKB20190429131511804/29/19 13:15:31  5-MIN KBKB 291915Z AUTO VRB06KT 10SM FEW033 BKN055 30/21 A2998 240 58 2100 VRB/06 RMK AO2 T03000211
53988KBKB BKB20190429132007304/29/19 13:20:31  5-MIN KBKB 291920Z AUTO VRB06G15KT 10SM FEW033 SCT050 
53988KBKB BKB20190429190512704/29/19 19:05:31  5-MIN KBKB 300105Z AUTO VRB05KT 10SM SCT026 SCT035 BKN048 25/21 A3001 220 79 1500 VRB/05 RMK AO2 T02500211 $
53988KBKB BKB20190429191012704/29/19 19:10:31  5-MIN KBKB 300110Z AUTO VRB05KT 10SM FEW026 SCT038 BKN048 26/22 A3001 220 79 1500 VRB/05 RMK AO2 T02560217 $
53988KBKB BKB20190429191512704/29/19 19:15:31  5-MIN KBKB 300115Z AUTO VRB03KT 10SM FEW024 SCT041 SCT050 25/21 A3001 220 79 1500 VRB/03 RMK AO2 T02500211 $
53988KBKB BKB20190429192012004/29/19 19:20:31  5-MIN KBKB 300120Z AUTO VRB04KT 10SM FEW026 FEW050 25/21 A3001 210 79 1500 VRB/04 RMK AO2 T02500211 $
53988KBKB BKB20190429192512004/29/19 19:25:31  5-MIN KBKB 300125Z AUTO VRB04KT 10SM FEW038 FEW048 25/22 A3001 210 81 1500 VRB/04 RMK AO2 T02500217 $
53988KBKB BKB20190429193012504/29/19 19:30:31  5-MIN KBKB 300130Z AUTO VRB05KT 10SM FEW038 FEW048 25/22 A3002 210 81 1500 VRB/05 RMK AO2 T02500217 TSNO $
53988KBKB BKB20190429193512004/29/19 19:35:31  5-MIN KBKB 300135Z AUTO VRB04KT 10SM FEW040 FEW048 25/22 A3002 210 81 1500 VRB/04 RMK AO2 T02500217 $
53988KBKB BKB20190429194011004/29/19 19:40:31  5-MIN KBKB 300140Z AUTO VRB04KT 10SM CLR 25/22 A3002 210 81 1500 VRB/04 RMK AO2 T02500217 $
53988KBKB BKB20190429194511004/29/19 19:45:31  5-MIN KBKB 300145Z AUTO VRB03KT 10SM CLR 24/22 A3002 210 84 1400 VRB/03 RMK AO2 T02440217 $
53988KBKB BKB20190429195011704/29/19 19:50:31  5-MIN KBKB 300150Z AUTO 00000KT 10SM CLR 24/22 A3002 200 84 1400 000/00 RMK AO2 SLP192 T02440217 $
53988KBKB BKB20190429195511004/29/19 19:55:31  5-MIN KBKB 300155Z AUTO 00000KT 10SM CLR 24/22 A3003 200 84 1400 000/00 RMK AO2 T02440217 $
53988KBKB BKB20190429200011004/29/19 20:00:31  5-MIN KBKB 300200Z AUTO VRB03KT 10SM CLR 24/22 A3003 200 84 1400 VRB/03 RMK AO2 T02440217 $
53988KBKB BKB20190429200511004/29/19 20:05:31  5-MIN KBKB 300205Z AUTO 00000KT 10SM CLR 24/22 A3003 200 84 1400 000/00 RMK AO2 T02440217 $
53988KBKB BKB20190429201011004/29/19 20:10:31  5-MIN KBKB 300210Z AUTO 00000KT 10SM CLR 24/22 A3003 200 87 1300 000/00 RMK AO2 T02390217 $
53988KBKB BKB20190429201511004/29/19 20:15:31  5-MIN KBKB 300215Z AUTO VRB03KT 10SM CLR 24/22 A3003 200 84 1400 VRB/03 RMK AO2 T02440217 $
53988KBKB BKB20190429202011004/29/19 20:20:31  5-MIN KBKB 300220Z AUTO 00000KT 10SM CLR 24/22 A3003 200 87 1300 000/00 RMK AO2 T02390217 $
53988KBKB BKB20190429202511004/29/19 20:25:31  5-MIN KBKB 300225Z AUTO VRB03KT 10SM CLR 24/22 A3003 190 87 1300 VRB/03 RMK AO2 T02390217 $
53988KBKB BKB20190429203011004/29/19 20:30:31  5-MIN KBKB 300230Z AUTO 00000KT 10SM CLR 24/22 A3003 200 87 1300 000/00 RMK AO2 T02390217 $
53988KBKB BKB20190429203511004/29/19 20:35:31  5-MIN KBKB 300235Z AUTO VRB03KT 10SM CLR 24/22 A3003 200 87 1300 VRB/03 RMK AO2 T02390217 $
53988KBKB BKB20190429204011004/29/19 20:40:31  5-MIN KBKB 300240Z AUTO 00000KT 10SM CLR 23/22 A3003 190 90 1200 000/00 RMK AO2 T02330217 $
53988KBKB BKB20190429204511004/29/19 20:45:31  5-MIN KBKB 300245Z AUTO VRB03KT 10SM CLR 23/22 A3003 200 90 1200 VRB/03 RMK AO2 T02330217 $
53988KBKB BKB20190429205012304/29/19 20:50:31  5-MIN KBKB 300250Z AUTO 00000KT 10SM CLR 23/22 A3003 190 90 1200 000/00 RMK AO2 SLP197 T02330217 53001 $
53988KBKB BKB20190429205511004/29/19 20:55:31  5-MIN KBKB 300255Z AUTO 00000KT 10SM CLR 23/22 A3004 190 90 1200 000/00 RMK AO2 T02330217 $
53988KBKB BKB20190429210011004/29/19 21:00:31  5-MIN KBKB 300300Z AUTO 00000KT 10SM CLR 23/22 A3004 190 90 1200 000/00 RMK AO2 T02330217 $
53988KBKB BKB20190429210511304/29/19 21:05:31  5-MIN KBKB 300305Z AUTO 00000KT 10SM FEW016 23/22 A3004 190 90 1200 000/00 RMK AO2 T02330217 $
53988KBKB BKB20190429211011304/29/19 21:10:31  5-MIN KBKB 300310Z AUTO 00000KT 10SM FEW016 23/22 A3004 190 90 1200 000/00 RMK AO2 T02330217 $
53988KBKB BKB20190429211511304/29/19 21:15:31  5-MIN KBKB 300315Z AUTO 00000KT 10SM FEW016 23/22 A3004 190 90 1200 000/00 RMK AO2 T02330217 $
53988KBKB BKB20190429212011304/29/19 21:20:31  5-MIN KBKB 300320Z AUTO VRB03KT 10SM SCT014 23/22 A3004 190 93 1200 VRB/03 RMK AO2 T02280217 $
53988KBKB BKB20190429212511304/29/19 21:25:31  5-MIN KBKB 300325Z AUTO VRB03KT 10SM SCT014 23/22 A3004 190 90 1200 VRB/03 RMK AO2 T02330217 $
53988KBKB BKB20190429213011304/29/19 21:30:31  5-MIN KBKB 300330Z AUTO VRB03KT 10SM SCT014 23/22 A3004 190 90 1200 VRB/03 RMK AO2 T02330217 $
53988KBKB BKB20190429213511304/29/19 21:35:31  5-MIN KBKB 300335Z AUTO 00000KT 10SM BKN014 23/22 A3004 190 90 1200 000/00 RMK AO2 T02330217 $
53988KBKB BKB20190429214011304/29/19 21:40:31  5-MIN KBKB 300340Z AUTO VRB03KT 10SM BKN014 23/22 A3004 180 90 1200 VRB/03 RMK AO2 T02330217 $
53988KBKB BKB20190429214511304/29/19 21:45:31  5-MIN KBKB 300345Z AUTO 00000KT 10SM OVC014 23/22 A3004 180 90 1200 000/00 RMK AO2 T02330217 $
53988KBKB BKB20190429215012004/29/19 21:50:31  5-MIN KBKB 300350Z AUTO VRB03KT 10SM OVC013 23/22 A3004 180 90 1200 VRB/03 RMK AO2 SLP200 T02330217 $
53988KBKB BKB20190429215511304/29/19 21:55:31  5-MIN KBKB 300355Z AUTO VRB04KT 10SM OVC013 23/22 A3004 180 90 1200 VRB/04 RMK AO2 T02330217 $
53988KBKB BKB20190429220011304/29/19 22:00:31  5-MIN KBKB 300400Z AUTO 00000KT 10SM OVC013 23/22 A3004 180 90 1200 000/00 RMK AO2 T02330217 $
53988KBKB BKB20190429220511304/29/19 22:05:31  5-MIN KBKB 300405Z AUTO VRB04KT 10SM OVC014 23/22 A3004 190 90 1200 VRB/04 RMK AO2 T02330217 $
53988KBKB BKB20190429221011304/29/19 22:10:31  5-MIN KBKB 300410Z AUTO VRB04KT 10SM OVC014 23/22 A3004 190 90 1200 VRB/04 RMK AO2 T02330217 $
53988KBKB BKB20190429221511304/29/19 22:15:31  5-MIN KBKB 300415Z AUTO VRB04KT 10SM OVC014 23/22 A3004 190 90 1200 VRB/04 RMK AO2 T02330217 $
53988KBKB BKB20190429222012004/29/19 22:20:31  5-MIN KBKB 300420Z AUTO VRB04KT 10SM BKN014 OVC024 23/22 A3004 190 90 1200 VRB/04 RMK AO2 T02330217 $
53988KBKB BKB20190429222511304/29/19 22:25:31  5-MIN KBKB 300425Z AUTO VRB05KT 10SM OVC013 23/22 A3004 190 90 1200 VRB/05 RMK AO2 T02330217 $
53988KBKB BKB20190429223011304/29/19 22:30:31  5-MIN KBKB 300430Z AUTO 00000KT 10SM OVC013 23/22 A3004 190 90 1200 000/00 RMK AO2 T02330217 $
53988KBKB BKB20190429223511304/29/19 22:35:31  5-MIN KBKB 300435Z AUTO VRB05KT 10SM OVC011 23/22 A3004 190 90 1200 VRB/05 RMK AO2 T02330217 $
53988KBKB BKB20190429224011304/29/19 22:40:31  5-MIN KBKB 300440Z AUTO VRB04KT 10SM OVC011 23/22 A3003 190 90 1200 VRB/04 RMK AO2 T02330217 $
53988KBKB BKB20190429224511304/29/19 22:45:31  5-MIN KBKB 300445Z AUTO VRB04KT 10SM OVC011 23/22 A3003 190 90 1200 VRB/04 RMK AO2 T02330217 $
53988KBKB BKB20190429225012004/29/19 22:50:31  5-MIN KBKB 300450Z AUTO VRB05KT 10SM OVC011 23/22 A3003 190 90 1200 VRB/05 RMK AO2 SLP195 T02330217 $
53988KBKB BKB20190429225511304/29/19 22:55:31  5-MIN KBKB 300455Z AUTO VRB04KT 10SM OVC011 23/22 A3003 190 90 1200 VRB/04 RMK AO2 T02330217 $
53988KBKB BKB20190429230011304/29/19 23:00:31  5-MIN KBKB 300500Z AUTO VRB03KT 10SM OVC011 23/22 A3003 190 90 1200 VRB/03 RMK AO2 T02330217 $
53988KBKB BKB20190429230511304/29/19 23:05:31  5-MIN KBKB 300505Z AUTO VRB03KT 10SM OVC011 23/22 A3003 200 90 1300 VRB/03 RMK AO2 T02330217 $
53988KBKB BKB20190429231011804/29/19 23:10:31  5-MIN KBKB 300510Z AUTO VRB04KT 10SM OVC011 23/22 A3003 200 90 1300 VRB/04 RMK AO2 T02330217 TSNO $
53988KBKB BKB20190429231511804/29/19 23:15:31  5-MIN KBKB 300515Z AUTO VRB05KT 10SM OVC011 23/22 A3003 200 90 1300 VRB/05 RMK AO2 T02330217 TSNO $
53988KBKB BKB20190429232011804/29/19 23:20:31  5-MIN KBKB 300520Z AUTO VRB05KT 10SM OVC011 23/22 A3003 200 90 1300 VRB/05 RMK AO2 T02330217 TSNO $
53988KBKB BKB20190429232511304/29/19 23:25:31  5-MIN KBKB 300525Z AUTO VRB05KT 10SM OVC011 23/22 A3002 200 90 1300 VRB/05 RMK AO2 T02330217 $
53988KBKB BKB20190429233011804/29/19 23:30:31  5-MIN KBKB 300530Z AUTO 13004KT 10SM OVC011 23/22 A3002 200 90 1300 130/04 RMK AO2 T02330217 TSNO $
53988KBKB BKB20190429233511304/29/19 23:35:31  5-MIN KBKB 300535Z AUTO VRB05KT 10SM OVC011 23/22 A3002 200 90 1300 VRB/05 RMK AO2 T02330217 $
53988KBKB BKB20190429234011304/29/19 23:40:31  5-MIN KBKB 300540Z AUTO VRB06KT 10SM OVC011 23/22 A3003 200 90 1300 VRB/06 RMK AO2 T02330217 $
53988KBKB BKB20190429234511304/29/19 23:45:31  5-MIN KBKB 300545Z AUTO VRB04KT 10SM OVC011 23/22 A3002 200 90 1300 VRB/04 RMK AO2 T02330217 $
53988KBKB BKB20190429235014804/29/19 23:50:31  5-MIN KBKB 300550Z AUTO VRB05KT 10SM OVC011 23/22 A3002 200 90 1300 VRB/05 RMK AO2 SLP192 T02330217 10267 20228 403060178 51017 $
53988KBKB BKB20190429235511304/29/19 23:55:31  5-MIN KBKB 300555Z AUTO VRB06KT 10SM OVC010 23/22 A3002 200 90 1300 VRB/06 RMK AO2 T02330217 $
53988KBKB BKB20190430000011304/30/19 00:00:31  5-MIN KBKB 300600Z AUTO VRB03KT 10SM OVC010 23/22 A3002 200 90 1300 VRB/03 RMK AO2 T02330217 $
53988KBKB BKB20190430000513004/30/19 00:05:31  5-MIN KBKB 300605Z AUTO 00000KT 10SM OVC010 23/22 A3002 210 90 1300 000/00 RMK AO2 CIG 009V015 T02330217 TSNO $
53988KBKB BKB20190430001013004/30/19 00:10:31  5-MIN KBKB 300610Z AUTO VRB04KT 10SM OVC010 23/22 A3002 210 90 1300 VRB/04 RMK AO2 CIG 009V013 T02330217 TSNO $
53988KBKB BKB20190430001513004/30/19 00:15:31  5-MIN KBKB 300615Z AUTO VRB03KT 10SM OVC010 23/22 A3001 210 90 1300 VRB/03 RMK AO2 CIG 009V015 T02330217 TSNO $
53988KBKB BKB20190430002013004/30/19 00:20:31  5-MIN KBKB 300620Z AUTO VRB03KT 10SM OVC010 23/22 A3001 210 90 1300 VRB/03 RMK AO2 CIG 008V014 T02330217 TSNO $
53988KBKB BKB20190430002513004/30/19 00:25:31  5-MIN KBKB 300625Z AUTO 00000KT 10SM OVC010 23/22 A3001 210 93 1200 000/00 RMK AO2 CIG 008V013 T02280217 TSNO $
53988KBKB BKB20190430003013004/30/19 00:30:31  5-MIN KBKB 300630Z AUTO VRB04KT 10SM OVC010 23/22 A3001 210 93 1200 VRB/04 RMK AO2 CIG 008V013 T02280217 TSNO $
53988KBKB BKB20190430003513004/30/19 00:35:31  5-MIN KBKB 300635Z AUTO VRB05KT 10SM OVC010 23/22 A3001 220 90 1300 VRB/05 RMK AO2 CIG 008V013 T02330217 TSNO $
53988KBKB BKB20190430004013004/30/19 00:40:31  5-MIN KBKB 300640Z AUTO VRB03KT 10SM OVC010 23/22 A3001 220 93 1200 VRB/03 RMK AO2 CIG 008V013 T02280217 TSNO $
53988KBKB BKB20190430004513704/30/19 00:45:31  5-MIN KBKB 300645Z AUTO VRB04KT 10SM BKN010 OVC016 23/22 A3000 220 93 1200 VRB/04 RMK AO2 CIG 008V014 T02280217 TSNO $
53988KBKB BKB20190430005014404/30/19 00:50:31  5-MIN KBKB 300650Z AUTO VRB03KT 10SM BKN010 OVC016 23/22 A3000 220 93 1200 VRB/03 RMK AO2 CIG 008V014 SLP184 T02280217 TSNO $
53988KBKB BKB20190430005512504/30/19 00:55:31  5-MIN KBKB 300655Z AUTO VRB04KT 10SM BKN010 OVC017 23/22 A3000 220 90 1300 VRB/04 RMK AO2 T02330217 TSNO $
53988KBKB BKB20190430010011804/30/19 01:00:31  5-MIN KBKB 300700Z AUTO VRB04KT 10SM OVC013 23/21 A3000 230 87 1300 VRB/04 RMK AO2 T02330211 TSNO $
53988KBKB BKB20190430010510804/30/19 01:05:31  5-MIN KBKB 300705Z AUTO 10SM OVC013 23/21 A3000 220 87 1300 M /M RMK AO2 T02330211 TSNO $
53988KBKB BKB20190430011011804/30/19 01:10:31  5-MIN KBKB 300710Z AUTO VRB05KT 10SM OVC013 23/21 A3000 220 87 1300 VRB/05 RMK AO2 T02330211 TSNO $
53988KBKB BKB20190430011511804/30/19 01:15:31  5-MIN KBKB 300715Z AUTO VRB03KT 10SM OVC013 23/21 A3000 220 87 1300 VRB/03 RMK AO2 T02330211 TSNO $
53988KBKB BKB20190430012011804/30/19 01:20:31  5-MIN KBKB 300720Z AUTO VRB05KT 10SM OVC013 23/21 A3000 220 87 1300 VRB/05 RMK AO2 T02330211 TSNO $
53988KBKB BKB20190430012511804/30/19 01:25:31  5-MIN KBKB 300725Z AUTO VRB03KT 10SM OVC013 23/21 A3000 220 87 1300 VRB/03 RMK AO2 T02330211 TSNO $
53988KBKB BKB20190430013011804/30/19 01:30:31  5-MIN KBKB 300730Z AUTO VRB05KT 10SM OVC011 23/21 A3000 220 87 1300 VRB/05 RMK AO2 T02330211 TSNO $
53988KBKB BKB20190430013511804/30/19 01:35:31  5-MIN KBKB 300735Z AUTO VRB03KT 10SM OVC011 23/21 A3000 220 87 1300 VRB/03 RMK AO2 T02330211 TSNO $
53988KBKB BKB20190430014011804/30/19 01:40:31  5-MIN KBKB 300740Z AUTO VRB03KT 10SM OVC011 23/21 A3000 220 90 1200 VRB/03 RMK AO2 T02280211 TSNO $
53988KBKB BKB20190430014511504/30/19 01:45:31  5-MIN KBKB 300745Z AUTO 10SM BKN011 OVC019 23/21 A3000 220 87 1300 M /M RMK AO2 T02330211 TSNO $
53988KBKB BKB20190430015012504/30/19 01:50:31  5-MIN KBKB 300750Z AUTO VRB04KT 10SM OVC013 23/21 A3000 220 90 1200 VRB/04 RMK AO2 SLP185 T02280211 TSNO $
53988KBKB BKB20190430015511804/30/19 01:55:31  5-MIN KBKB 300755Z AUTO VRB05KT 10SM OVC013 23/21 A3000 220 87 1200 VRB/05 RMK AO2 T02280206 TSNO $
53988KBKB BKB20190430020012504/30/19 02:00:31  5-MIN KBKB 300800Z AUTO VRB03KT 10SM BKN015 OVC020 23/21 A3001 220 87 1200 VRB/03 RMK AO2 T02280206 TSNO $
53988KBKB BKB20190430020511504/30/19 02:05:31  5-MIN KBKB 300805Z AUTO 10SM BKN015 OVC025 23/21 A3001 220 87 1200 M /M RMK AO2 T02280206 TSNO $
53988KBKB BKB20190430021012504/30/19 02:10:31  5-MIN KBKB 300810Z AUTO VRB03KT 10SM SCT015 BKN025 23/21 A3001 220 87 1200 VRB/03 RMK AO2 T02280206 TSNO $
53988KBKB BKB20190430021512504/30/19 02:15:31  5-MIN KBKB 300815Z AUTO VRB03KT 10SM SCT017 BKN025 23/21 A3001 220 87 1200 VRB/03 RMK AO2 T02280206 TSNO $
53988KBKB BKB20190430022012504/30/19 02:20:31  5-MIN KBKB 300820Z AUTO VRB03KT 10SM FEW017 SCT025 23/21 A3001 220 87 1200 VRB/03 RMK AO2 T02280206 TSNO $
53988KBKB BKB20190430022512504/30/19 02:25:31  5-MIN KBKB 300825Z AUTO VRB03KT 10SM FEW017 FEW025 23/21 A3001 210 87 1200 VRB/03 RMK AO2 T02280206 TSNO $
53988KBKB BKB20190430023011804/30/19 02:30:31  5-MIN KBKB 300830Z AUTO VRB03KT 10SM FEW025 23/21 A3001 210 87 1200 VRB/03 RMK AO2 T02280206 TSNO $
53988KBKB BKB20190430023511504/30/19 02:35:31  5-MIN KBKB 300835Z AUTO 15003KT 10SM CLR 23/21 A3001 220 87 1200 140/03 RMK AO2 T02280206 TSNO $
53988KBKB BKB20190430024011504/30/19 02:40:31  5-MIN KBKB 300840Z AUTO VRB03KT 10SM CLR 22/21 A3001 220 90 1100 VRB/03 RMK AO2 T02220206 TSNO $
53988KBKB BKB20190430024511504/30/19 02:45:31  5-MIN KBKB 300845Z AUTO VRB03KT 10SM CLR 22/20 A3001 220 87 1100 VRB/03 RMK AO2 T02220200 TSNO $
53988KBKB BKB20190430024519104/30/19 02:45:31  5-MIN KBKB 300845Z AUTO VRB03KT 10SM CLR 22/20 A3001 02:50:31  5-MIN KBKB 300850Z AUTO VRB03KT 10SM CLR 22/20 A3001 220 87 1100 VRB/03 RMK AO2 SLP186 T02220200 58004 TSNO $
53988KBKB BKB20190430025012804/30/19 02:50:31  5-MIN KBKB 300850Z AUTO VRB03KT 10SM CLR 22/20 A3001 220 87 1100 VRB/03 RMK AO2 SLP186 T02220200 58004 TSNO $
53988KBKB BKB20190430025511504/30/19 02:55:31  5-MIN KBKB 300855Z AUTO VRB03KT 10SM CLR 22/20 A3001 220 87 1200 VRB/03 RMK AO2 T02220200 TSNO $
53988KBKB BKB20190430030011404/30/19 03:00:31  5-MIN KBKB 300900Z AUTO 00000KT 9SM CLR 22/20 A3001 220 87 1200 000/00 RMK AO2 T02220200 TSNO $
53988KBKB BKB20190430030511404/30/19 03:05:31  5-MIN KBKB 300905Z AUTO 00000KT 9SM CLR 22/20 A3001 220 87 1200 000/00 RMK AO2 T02220200 TSNO $
53988KBKB BKB20190430031011504/30/19 03:10:31  5-MIN KBKB 300910Z AUTO 00000KT 10SM CLR 22/20 A3001 220 87 1100 000/00 RMK AO2 T02220200 TSNO $
53988KBKB BKB20190430031511504/30/19 03:15:31  5-MIN KBKB 300915Z AUTO VRB03KT 10SM CLR 22/20 A3001 220 90 1100 VRB/03 RMK AO2 T02170200 TSNO $
53988KBKB BKB20190430032011504/30/19 03:20:31  5-MIN KBKB 300920Z AUTO 00000KT 10SM CLR 22/20 A3001 220 90 1100 000/00 RMK AO2 T02170200 TSNO $
53988KBKB BKB20190430032511504/30/19 03:25:31  5-MIN KBKB 300925Z AUTO VRB03KT 10SM CLR 22/19 A3001 220 87 1100 VRB/03 RMK AO2 T02170194 TSNO $
53988KBKB BKB20190430033011504/30/19 03:30:31  5-MIN KBKB 300930Z AUTO VRB03KT 10SM CLR 22/19 A3000 220 87 1100 VRB/03 RMK AO2 T02170194 TSNO $
53988KBKB BKB20190430033511504/30/19 03:35:31  5-MIN KBKB 300935Z AUTO VRB03KT 10SM CLR 22/19 A3000 220 87 1100 VRB/03 RMK AO2 T02170194 TSNO $
53988KBKB BKB20190430034011504/30/19 03:40:31  5-MIN KBKB 300940Z AUTO VRB03KT 10SM CLR 22/19 A3000 220 84 1100 VRB/03 RMK AO2 T02170189 TSNO $
53988KBKB BKB20190430034511504/30/19 03:45:31  5-MIN KBKB 300945Z AUTO 14004KT 10SM CLR 22/19 A3000 220 84 1100 140/04 RMK AO2 T02170189 TSNO $
53988KBKB BKB20190430035012204/30/19 03:50:31  5-MIN KBKB 300950Z AUTO 13003KT 10SM CLR 22/19 A3000 220 84 1100 130/03 RMK AO2 SLP185 T02170189 TSNO $
53988KBKB BKB20190430035511504/30/19 03:55:31  5-MIN KBKB 300955Z AUTO 00000KT 10SM CLR 21/19 A3001 220 87 1000 000/00 RMK AO2 T02110189 TSNO $
53988KBKB BKB20190430040011804/30/19 04:00:31  5-MIN KBKB 301000Z AUTO 00000KT 10SM FEW050 21/19 A3001 220 87 1000 000/00 RMK AO2 T02110189 TSNO $
53988KBKB BKB20190430040511804/30/19 04:05:31  5-MIN KBKB 301005Z AUTO 00000KT 10SM FEW050 21/19 A3001 220 87 1000 000/00 RMK AO2 T02110189 TSNO $
53988KBKB BKB20190430041012504/30/19 04:10:31  5-MIN KBKB 301010Z AUTO 00000KT 10SM FEW014 FEW050 21/19 A3001 220 87 1000 000/00 RMK AO2 T02110189 TSNO $
53988KBKB BKB20190430041512504/30/19 04:15:31  5-MIN KBKB 301015Z AUTO 00000KT 10SM SCT014 SCT050 21/19 A3001 220 87 1000 000/00 RMK AO2 T02110189 TSNO $
53988KBKB BKB20190430042012504/30/19 04:20:31  5-MIN KBKB 301020Z AUTO 00000KT 10SM SCT014 SCT050 21/19 A3001 220 87 1000 000/00 RMK AO2 T02110189 TSNO $
53988KBKB BKB20190430042512504/30/19 04:25:31  5-MIN KBKB 301025Z AUTO 00000KT 10SM FEW014 SCT050 21/19 A3001 220 87 1000 000/00 RMK AO2 T02110189 TSNO $
53988KBKB BKB20190430043011804/30/19 04:30:31  5-MIN KBKB 301030Z AUTO 00000KT 10SM FEW014 21/19 A3001 220 87 1000 000/00 RMK AO2 T02110189 TSNO $
53988KBKB BKB20190430043511804/30/19 04:35:31  5-MIN KBKB 301035Z AUTO 00000KT 10SM SCT014 21/19 A3001 220 90 1000 000/00 RMK AO2 T02060189 TSNO $
53988KBKB BKB20190430044011804/30/19 04:40:31  5-MIN KBKB 301040Z AUTO 00000KT 10SM BKN014 21/19 A3001 220 90 1000 000/00 RMK AO2 T02060189 TSNO $
53988KBKB BKB20190430044511804/30/19 04:45:31  5-MIN KBKB 301045Z AUTO 00000KT 10SM SCT013 21/18 A3001 220 87 1000 000/00 RMK AO2 T02060183 TSNO $
53988KBKB BKB20190430045012504/30/19 04:50:31  5-MIN KBKB 301050Z AUTO 00000KT 10SM FEW013 21/18 A3001 210 87 1000 000/00 RMK AO2 SLP188 T02060183 TSNO $
53988KBKB BKB20190430045512504/30/19 04:55:31  5-MIN KBKB 301055Z AUTO 00000KT 10SM FEW013 SCT050 21/18 A3001 210 87 1000 000/00 RMK AO2 T02060183 TSNO $
53988KBKB BKB20190430050012504/30/19 05:00:31  5-MIN KBKB 301100Z AUTO 00000KT 10SM FEW013 SCT050 21/18 A3001 210 87 1000 000/00 RMK AO2 T02060183 TSNO $
53988KBKB BKB20190430050512404/30/19 05:05:31  5-MIN KBKB 301105Z AUTO 00000KT 10SM FEW013 FEW050 21/18 A3002 210 87 900 000/00 RMK AO2 T02060183 TSNO $
53988KBKB BKB20190430051012404/30/19 05:10:31  5-MIN KBKB 301110Z AUTO 00000KT 10SM FEW013 SCT050 21/18 A3002 200 87 900 000/00 RMK AO2 T02060183 TSNO $
53988KBKB BKB20190430051512404/30/19 05:15:31  5-MIN KBKB 301115Z AUTO 00000KT 10SM SCT013 BKN050 21/18 A3002 200 87 900 000/00 RMK AO2 T02060183 TSNO $
53988KBKB BKB20190430052012404/30/19 05:20:31  5-MIN KBKB 301120Z AUTO 00000KT 10SM BKN013 BKN050 21/18 A3002 200 87 900 000/00 RMK AO2 T02060183 TSNO $
53988KBKB BKB20190430052511704/30/19 05:25:31  5-MIN KBKB 301125Z AUTO 00000KT 10SM BKN013 21/18 A3003 200 87 900 000/00 RMK AO2 T02060183 TSNO $
53988KBKB BKB20190430053011704/30/19 05:30:31  5-MIN KBKB 301130Z AUTO VRB03KT 10SM BKN013 21/18 A3003 200 87 900 VRB/03 RMK AO2 T02060183 TSNO $
53988KBKB BKB20190430053511704/30/19 05:35:31  5-MIN KBKB 301135Z AUTO 00000KT 10SM OVC013 21/18 A3003 200 87 900 000/00 RMK AO2 T02060183 TSNO $
53988KBKB BKB20190430054011504/30/19 05:40:31  5-MIN KBKB 301140Z AUTO 00000KT 10SM OVC013 21/18 A3003 200 87 900 000/00 RMK AO2 T02060183 TSNO
53988KBKB BKB20190430054511504/30/19 05:45:31  5-MIN KBKB 301145Z AUTO 00000KT 10SM OVC013 21/19 A3003 200 90 900 000/00 RMK AO2 T02060189 TSNO
53988KBKB BKB20190430055014004/30/19 05:50:31  5-MIN KBKB 301150Z AUTO 00000KT 10SM OVC013 21/19 A3003 200 90 900 000/00 RMK AO2 SLP194 T02060189 10233 20206 55006 TSNO
53988KBKB BKB20190430055511504/30/19 05:55:31  5-MIN KBKB 301155Z AUTO 00000KT 10SM OVC013 21/19 A3003 200 90 900 000/00 RMK AO2 T02060189 TSNO
53988KBKB BKB20190430060011404/30/19 06:00:31  5-MIN KBKB 301200Z AUTO 00000KT 8SM OVC013 21/19 A3003 200 90 900 000/00 RMK AO2 T02060189 TSNO
53988KBKB BKB20190430060020704/30/19 06:00:31  5-MIN KBKB 301200Z AUTO 00000KT 8SM OVC013 21/19 A3003 200 90 900 000/00 RMK AO2 T02060189 TSNO04/30/19 06:05:31  5-M4KT 10SM OVC010 22/19 A3004 190 87 1000 VRB/04 RMK AO2 T02170194 TSNO $
53988KBKB BKB20190430060511404/30/19 06:05:31  5-MIN KBKB 301205Z AUTO 00000KT 8SM OVC013 21/19 A3003 200 90 900 000/00 RMK AO2 T02060189 TSNO
53988KBKB BKB20190430061011604/30/19 06:10:31  5-MIN KBKB 301210Z AUTO 00000KT 10SM OVC013 21/18 A3003 190 84 1000 000/00 RMK AO2 T02110183 TSNO
53988KBKB BKB20190430061511604/30/19 06:15:31  5-MIN KBKB 301215Z AUTO 00000KT 10SM OVC012 21/18 A3003 190 84 1000 000/00 RMK AO2 T02110183 TSNO
53988KBKB BKB20190430062011604/30/19 06:20:31  5-MIN KBKB 301220Z AUTO 00000KT 10SM OVC012 21/18 A3004 190 84 1000 000/00 RMK AO2 T02110183 TSNO
53988KBKB BKB20190430062511604/30/19 06:25:31  5-MIN KBKB 301225Z AUTO 00000KT 10SM OVC012 21/18 A3004 190 84 1000 000/00 RMK AO2 T02110183 TSNO
53988KBKB BKB20190430063011604/30/19 06:30:31  5-MIN KBKB 301230Z AUTO 15003KT 10SM OVC012 21/18 A3004 190 84 1000 150/03 RMK AO2 T02110183 TSNO
53988KBKB BKB20190430063511604/30/19 06:35:31  5-MIN KBKB 301235Z AUTO 00000KT 10SM OVC012 21/18 A3004 190 84 1000 000/00 RMK AO2 T02110183 TSNO
53988KBKB BKB20190430064011604/30/19 06:40:31  5-MIN KBKB 301240Z AUTO VRB04KT 10SM OVC012 21/19 A3004 190 87 1000 VRB/04 RMK AO2 T02110189 TSNO
53988KBKB BKB20190430064511604/30/19 06:45:31  5-MIN KBKB 301245Z AUTO 00000KT 10SM OVC012 21/19 A3004 190 87 1000 000/00 RMK AO2 T02110189 TSNO
53988KBKB BKB20190430065012304/30/19 06:50:31  5-MIN KBKB 301250Z AUTO 00000KT 10SM OVC012 21/19 A3004 190 87 1000 000/00 RMK AO2 SLP198 T02110189 TSNO
53988KBKB BKB20190430065511604/30/19 06:55:31  5-MIN KBKB 301255Z AUTO 00000KT 10SM OVC011 21/19 A3004 190 87 1000 000/00 RMK AO2 T02110189 TSNO
53988KBKB BKB20190430070011604/30/19 07:00:31  5-MIN KBKB 301300Z AUTO VRB03KT 10SM OVC011 21/19 A3004 190 87 1000 VRB/03 RMK AO2 T02110189 TSNO
53988KBKB BKB20190430074511304/30/19 07:45:31  5-MIN KBKB 301345Z AUTO VRB03KT 10SM OVC010 22/19 A3004 190 87 1000 VRB/03 RMK AO2 T02170194 $
53988KBKB BKB20190430075012004/30/19 07:50:31  5-MIN KBKB 301350Z AUTO VRB04KT 10SM OVC010 22/19 A3004 180 87 1000 VRB/04 RMK AO2 SLP200 T02170194 $
53988KBKB BKB20190430075511304/30/19 07:55:31  5-MIN KBKB 301355Z AUTO VRB04KT 10SM OVC010 22/19 A3005 180 84 1100 VRB/04 RMK AO2 T02220194 $
53988KBKB BKB20190430080011304/30/19 08:00:31  5-MIN KBKB 301400Z AUTO 11005KT 10SM OVC010 22/19 A3004 180 84 1100 110/05 RMK AO2 T02220194 $
53988KBKB BKB20190430080511804/30/19 08:05:31  5-MIN KBKB 301405Z AUTO 00000KT 10SM OVC010 22/20 A3004 180 87 1100 000/00 RMK AO2 T02220200 TSNO $
53988KBKB BKB20190430081011304/30/19 08:10:31  5-MIN KBKB 301410Z AUTO VRB04KT 10SM OVC010 22/20 A3005 180 87 1100 VRB/04 RMK AO2 T02220200 $
53988KBKB BKB20190430081511304/30/19 08:15:31  5-MIN KBKB 301415Z AUTO VRB04KT 10SM OVC010 22/20 A3005 180 87 1100 VRB/04 RMK AO2 T02220200 $
53988KBKB BKB20190430082011804/30/19 08:20:31  5-MIN KBKB 301420Z AUTO VRB03KT 10SM OVC010 22/20 A3005 180 87 1100 VRB/03 RMK AO2 T02220200 TSNO $
53988KBKB BKB20190430082511804/30/19 08:25:31  5-MIN KBKB 301425Z AUTO VRB04KT 10SM OVC010 22/20 A3005 180 87 1100 VRB/04 RMK AO2 T02220200 TSNO $
53988KBKB BKB20190430083011804/30/19 08:30:31  5-MIN KBKB 301430Z AUTO VRB03KT 10SM OVC010 23/20 A3005 180 84 1200 VRB/03 RMK AO2 T02280200 TSNO $
53988KBKB BKB20190430083511804/30/19 08:35:31  5-MIN KBKB 301435Z AUTO VRB03KT 10SM OVC010 23/20 A3005 180 84 1200 VRB/03 RMK AO2 T02280200 TSNO $
53988KBKB BKB20190430084011804/30/19 08:40:31  5-MIN KBKB 301440Z AUTO VRB03KT 10SM OVC010 23/20 A3005 180 84 1200 VRB/03 RMK AO2 T02280200 TSNO $
53988KBKB BKB20190430084510804/30/19 08:45:31  5-MIN KBKB 301445Z AUTO 10SM OVC010 23/21 A3005 180 87 1200 M /M RMK AO2 T02280206 TSNO $
53988KBKB BKB20190430085013104/30/19 08:50:31  5-MIN KBKB 301450Z AUTO 00000KT 10SM OVC010 23/21 A3005 180 84 1200 000/00 RMK AO2 SLP202 T02330206 53007 TSNO $
53988KBKB BKB20190430085511804/30/19 08:55:31  5-MIN KBKB 301455Z AUTO VRB04KT 10SM OVC012 24/21 A3005 180 81 1300 VRB/04 RMK AO2 T02390206 TSNO $
53988KBKB BKB20190430090011304/30/19 09:00:31  5-MIN KBKB 301500Z AUTO VRB04KT 10SM OVC012 24/21 A3005 180 78 1400 VRB/04 RMK AO2 T02440206 $
53988KBKB BKB20190430090511304/30/19 09:05:31  5-MIN KBKB 301505Z AUTO VRB05KT 10SM OVC013 24/21 A3005 180 78 1400 VRB/05 RMK AO2 T02440206 $
53988KBKB BKB20190430091011304/30/19 09:10:31  5-MIN KBKB 301510Z AUTO VRB06KT 10SM BKN013 24/21 A3005 180 78 1400 VRB/06 RMK AO2 T02440206 $
53988KBKB BKB20190430091511304/30/19 09:15:31  5-MIN KBKB 301515Z AUTO VRB05KT 10SM BKN014 24/21 A3005 180 78 1400 VRB/05 RMK AO2 T02440206 $
53988KBKB BKB20190430092011304/30/19 09:20:31  5-MIN KBKB 301520Z AUTO VRB06KT 10SM BKN014 24/21 A3005 180 78 1400 VRB/06 RMK AO2 T02440206 $
53988KBKB BKB20190430092512004/30/19 09:25:31  5-MIN KBKB 301525Z AUTO VRB03KT 10SM BKN015 BKN022 24/21 A3005 180 78 1400 VRB/03 RMK AO2 T02440206 $
53988KBKB BKB20190430093012004/30/19 09:30:31  5-MIN KBKB 301530Z AUTO 15006KT 10SM BKN015 BKN022 25/21 A3004 180 76 1400 150/06 RMK AO2 T02500206 $
53988KBKB BKB20190430093512004/30/19 09:35:31  5-MIN KBKB 301535Z AUTO VRB03KT 10SM BKN017 BKN024 25/21 A3004 180 76 1400 VRB/03 RMK AO2 T02500206 $
53988KBKB BKB20190430094010304/30/19 09:40:31  5-MIN KBKB 301540Z AUTO 10SM SCT017 26/21 A3004 180 73 1500 M /M RMK AO2 T02560206 $
53988KBKB BKB20190430094512004/30/19 09:45:31  5-MIN KBKB 301545Z AUTO VRB03KT 10SM SCT017 BKN024 26/21 A3004 180 73 1500 VRB/03 RMK AO2 T02560206 $
53988KBKB BKB20190430095012704/30/19 09:50:31  5-MIN KBKB 301550Z AUTO VRB06KT 10SM SCT017 BKN024 26/21 A3004 180 71 1600 VRB/06 RMK AO2 SLP199 T02610206 $
53988KBKB BKB20190430095511304/30/19 09:55:31  5-MIN KBKB 301555Z AUTO VRB03KT 10SM SCT018 27/21 A3004 180 69 1600 VRB/03 RMK AO2 T02670206 $
53988KBKB BKB20190430100011304/30/19 10:00:31  5-MIN KBKB 301600Z AUTO VRB06KT 10SM SCT020 26/21 A3005 180 71 1500 VRB/06 RMK AO2 T02610206 $
53988KBKB BKB20190430100510304/30/19 10:05:31  5-MIN KBKB 301605Z AUTO 10SM SCT020 26/21 A3005 180 71 1500 M /M RMK AO2 T02610206 $
53988KBKB BKB20190430101011804/30/19 10:10:31  5-MIN KBKB 301610Z AUTO VRB05KT 10SM SCT021 26/21 A3004 180 71 1600 VRB/05 RMK AO2 T02610206 TSNO $
53988KBKB BKB20190430101511804/30/19 10:15:31  5-MIN KBKB 301615Z AUTO VRB04KT 10SM SCT021 26/21 A3004 190 71 1600 VRB/04 RMK AO2 T02610206 TSNO $
53988KBKB BKB20190430102011804/30/19 10:20:31  5-MIN KBKB 301620Z AUTO VRB04KT 10SM SCT023 26/21 A3004 180 71 1600 VRB/04 RMK AO2 T02610206 TSNO $
53988KBKB BKB20190430102511804/30/19 10:25:31  5-MIN KBKB 301625Z AUTO VRB06KT 10SM BKN023 26/21 A3004 180 71 1500 VRB/06 RMK AO2 T02610206 TSNO $
53988KBKB BKB20190430103011804/30/19 10:30:31  5-MIN KBKB 301630Z AUTO VRB03KT 10SM SCT023 27/21 A3004 180 66 1700 VRB/03 RMK AO2 T02720206 TSNO $
53988KBKB BKB20190430103511804/30/19 10:35:31  5-MIN KBKB 301635Z AUTO 13006KT 10SM SCT024 27/21 A3004 180 66 1700 130/06 RMK AO2 T02720206 TSNO $
53988KBKB BKB20190430104007804/30/19 10:40:31  5-MIN KBKB 301640Z AUTO 17006KT M M M 170/06 RMK AO2 TSNO $
53988KBKB BKB20190430104510604/30/19 10:45:31  5-MIN KBKB 301645Z AUTO VRB05KT 27/21 A3005 180 69 1600 VRB/05 RMK AO2 T02670206 TSNO $
53988KBKB BKB20190430105011804/30/19 10:50:31  5-MIN KBKB 301650Z AUTO VRB06KT 10SM 28/21 A3005 180 64 1700 VRB/06 RMK AO2 SLP200 T02780206 TSNO $
53988KBKB BKB20190430105512704/30/19 10:55:31  5-MIN KBKB 301655Z AUTO 19007KT 090V240 10SM 28/21 A3004 190 64 1700 180/07 090V240 RMK AO2 T02780206 TSNO $
53988KBKB BKB20190430110011104/30/19 11:00:31  5-MIN KBKB 301700Z AUTO 00000KT 10SM 28/21 A3004 190 64 1800 000/00 RMK AO2 T02830211 TSNO $
53988KBKB BKB20190430110511104/30/19 11:05:31  5-MIN KBKB 301705Z AUTO VRB05KT 10SM 28/21 A3004 190 64 1800 VRB/05 RMK AO2 T02830211 TSNO $
53988KBKB BKB20190430111012104/30/19 11:10:31  5-MIN KBKB 301710Z AUTO VRB06G15KT 10SM CLR 28/20 A3004 190 60 1800 VRB/06G15 RMK AO2 T02830200 TSNO $
53988KBKB BKB20190430111511604/30/19 11:15:31  5-MIN KBKB 301715Z AUTO VRB06G15KT 10SM CLR 28/20 A3004 180 60 1800 VRB/06G15 RMK AO2 T02830200 $
53988KBKB BKB20190430112012904/30/19 11:20:31  5-MIN KBKB 301720Z AUTO 18007KT 100V230 10SM FEW030 28/20 A3004 180 62 1700 170/07 100V230 RMK AO2 T02780200 $
53988KBKB BKB20190430112512004/30/19 11:25:31  5-MIN KBKB 301725Z AUTO 18006KT 10SM FEW030 FEW037 28/20 A3004 190 62 1700 180/06 RMK AO2 T02780200 $
53988KBKB BKB20190430113012904/30/19 11:30:31  5-MIN KBKB 301730Z AUTO 19007KT 130V260 10SM FEW032 28/20 A3004 190 60 1800 180/07 130V260 RMK AO2 T02830200 $
53988KBKB BKB20190430113512004/30/19 11:35:31  5-MIN KBKB 301735Z AUTO VRB05KT 10SM FEW032 SCT040 28/19 A3004 190 60 1700 VRB/05 RMK AO2 T02780194 $
53988KBKB BKB20190430114012004/30/19 11:40:31  5-MIN KBKB 301740Z AUTO VRB06KT 10SM FEW032 SCT039 28/20 A3004 190 60 1800 VRB/06 RMK AO2 T02830200 $
53988KBKB BKB20190430114511804/30/19 11:45:31  5-MIN KBKB 301745Z AUTO VRB05KT 10SM SCT034 28/20 A3004 190 60 1800 VRB/05 RMK AO2 T02830200 TSNO $
53988KBKB BKB20190430115014404/30/19 11:50:31  5-MIN KBKB 301750Z AUTO VRB05KT 10SM SCT032 SCT039 28/20 A3004 190 62 1700 VRB/05 RMK AO2 SLP196 T02780200 10289 20206 TSNO $
53988KBKB BKB20190430115511804/30/19 11:55:31  5-MIN KBKB 301755Z AUTO VRB04KT 10SM SCT034 28/20 A3003 190 60 1800 VRB/04 RMK AO2 T02830200 TSNO $
53988KBKB BKB20190430120011804/30/19 12:00:31  5-MIN KBKB 301800Z AUTO VRB04KT 10SM BKN034 28/20 A3003 190 62 1700 VRB/04 RMK AO2 T02780200 TSNO $
53988KBKB BKB20190430120511504/30/19 12:05:31  5-MIN KBKB 301805Z AUTO 10SM SCT034 BKN042 28/21 A3003 200 62 1800 M /M RMK AO2 T02830206 TSNO $
53988KBKB BKB20190430121012504/30/19 12:10:31  5-MIN KBKB 301810Z AUTO VRB03KT 10SM SCT034 BKN044 28/21 A3003 200 62 1800 VRB/03 RMK AO2 T02830206 TSNO $
53988KBKB BKB20190430121512504/30/19 12:15:31  5-MIN KBKB 301815Z AUTO VRB04KT 10SM SCT035 BKN044 28/21 A3003 200 62 1800 VRB/04 RMK AO2 T02830206 TSNO $
53988KBKB BKB20190430122012504/30/19 12:20:31  5-MIN KBKB 301820Z AUTO VRB05KT 10SM FEW035 SCT044 29/21 A3003 200 60 1900 VRB/05 RMK AO2 T02890206 TSNO $
53988KBKB BKB20190430122514704/30/19 12:25:31  5-MIN KBKB 301825Z AUTO 14007G16KT 040V200 10SM SCT038 BKN046 28/20 A3003 200 60 1800 140/07G16 040V200 RMK AO2 T02830200 TSNO $
53988KBKB BKB20190430123013804/30/19 12:30:31  5-MIN KBKB 301830Z AUTO VRB05G16KT 10SM FEW035 BKN043 BKN050 28/19 A3003 200 60 1800 VRB/05G16 RMK AO2 T02780194 TSNO $
53988KBKB BKB20190430123514104/30/19 12:35:31  5-MIN KBKB 301835Z AUTO 15007KT 080V200 10SM SCT038 BKN048 28/20 A3003 200 62 1800 150/07 080V200 RMK AO2 T02780200 TSNO $
53988KBKB BKB20190430124013804/30/19 12:40:31  5-MIN KBKB 301840Z AUTO VRB04G19KT 10SM FEW035 SCT043 SCT050 28/20 A3003 200 60 1800 VRB/04G19 RMK AO2 T02830200 TSNO $
53988KBKB BKB20190430124511504/30/19 12:45:31  5-MIN KBKB 301845Z AUTO 10SM SCT039 BKN048 29/20 A3003 190 58 1900 M /M RMK AO2 T02890200 TSNO $
53988KBKB BKB20190430125013904/30/19 12:50:31  5-MIN KBKB 301850Z AUTO 15008KT 10SM SCT034 BKN043 BKN050 28/20 A3003 190 60 1800 150/08 RMK AO2 SLP195 T02830200 TSNO $
53988KBKB BKB20190430125513204/30/19 12:55:31  5-MIN KBKB 301855Z AUTO 00000KT 10SM SCT034 BKN041 BKN049 28/20 A3003 190 62 1800 000/00 RMK AO2 T02780200 TSNO $
53988KBKB BKB20190430130010804/30/19 13:00:31  5-MIN KBKB 301900Z AUTO 10SM SCT037 29/21 A3003 200 60 1900 M /M RMK AO2 T02890206 TSNO $
53988KBKB BKB20190430130512504/30/19 13:05:31  5-MIN KBKB 301905Z AUTO VRB05KT 10SM SCT037 BKN045 29/20 A3003 200 58 1900 VRB/05 RMK AO2 T02890200 TSNO $
53988KBKB BKB20190430131013204/30/19 13:10:31  5-MIN KBKB 301910Z AUTO VRB04KT 10SM BKN037 BKN045 BKN055 29/20 A3002 200 58 1900 VRB/04 RMK AO2 T02890200 TSNO $
53988KBKB BKB20190430131514804/30/19 13:15:31  5-MIN KBKB 301915Z AUTO 16007KT 120V200 10SM SCT037 BKN047 BKN055 29/20 A3002 210 58 1900 160/07 120V200 RMK AO2 T02890200 TSNO $
53988KBKB BKB20190430132012504/30/19 13:20:31  5-MIN KBKB 301920Z AUTO VRB04KT 10SM SCT037 BKN050 29/20 A3001 210 58 1900 VRB/04 RMK AO2 T02890200 TSNO $
53988KBKB BKB20190430132512204/30/19 13:25:31  5-MIN KBKB 301925Z AUTO 10SM SCT037 BKN048 BKN055 29/21 A3002 210 60 1900 M /M RMK AO2 T02890206 TSNO $
53988KBKB BKB20190430133012504/30/19 13:30:31  5-MIN KBKB 301930Z AUTO VRB05KT 10SM SCT037 BKN048 29/21 A3001 210 60 1900 VRB/05 RMK AO2 T02890206 TSNO $
53988KBKB BKB20190430133512504/30/19 13:35:31  5-MIN KBKB 301935Z AUTO VRB05KT 10SM SCT037 BKN048 29/21 A3001 220 60 1900 VRB/05 RMK AO2 T02890206 TSNO $
53988KBKB BKB20190430134013204/30/19 13:40:31  5-MIN KBKB 301940Z AUTO VRB03KT 10SM SCT035 BKN048 BKN055 28/21 A3001 220 62 1800 VRB/03 RMK AO2 T02830206 TSNO $
53988KBKB BKB20190430134513204/30/19 13:45:31  5-MIN KBKB 301945Z AUTO VRB06KT 10SM SCT035 BKN048 BKN060 28/21 A3000 220 62 1800 VRB/06 RMK AO2 T02830206 TSNO $
53988KBKB BKB20190430135013904/30/19 13:50:31  5-MIN KBKB 301950Z AUTO VRB05KT 10SM FEW035 BKN046 BKN055 28/21 A3000 220 62 1800 VRB/05 RMK AO2 SLP185 T02830206 TSNO $
53988KBKB BKB20190430135513204/30/19 13:55:31  5-MIN KBKB 301955Z AUTO VRB04KT 10SM SCT037 BKN048 BKN055 29/21 A3000 220 60 1900 VRB/04 RMK AO2 T02890206 TSNO $
53988KBKB BKB20190430140007804/30/19 14:00:31  5-MIN KBKB 302000Z AUTO 16005KT M M M 150/05 RMK AO2 TSNO $
53988KBKB BKB20190430140510604/30/19 14:05:31  5-MIN KBKB 302005Z AUTO VRB05KT 29/21 A3000 220 60 1900 VRB/05 RMK AO2 T02890206 TSNO $
53988KBKB BKB20190430141011104/30/19 14:10:31  5-MIN KBKB 302010Z AUTO VRB05KT 10SM 29/21 A3000 230 58 2000 VRB/05 RMK AO2 T02940206 TSNO $
53988KBKB BKB20190430141510904/30/19 14:15:31  5-MIN KBKB 302015Z AUTO VRB05KT 10SM 29/21 A3000 230 60 1900 VRB/05 RMK AO2 T02890206 TSNO
53988KBKB BKB20190430142010904/30/19 14:20:31  5-MIN KBKB 302020Z AUTO VRB03KT 10SM 29/21 A2999 230 58 2000 VRB/03 RMK AO2 T02940206 TSNO
53988KBKB BKB20190430142510904/30/19 14:25:31  5-MIN KBKB 302025Z AUTO 14005KT 10SM 29/21 A2999 230 60 1900 130/05 RMK AO2 T02890206 TSNO
53988KBKB BKB20190430143011604/30/19 14:30:31  5-MIN KBKB 302030Z AUTO VRB06KT 10SM BKN038 28/21 A2999 230 62 1900 VRB/06 RMK AO2 T02830206 TSNO
53988KBKB BKB20190430143511604/30/19 14:35:31  5-MIN KBKB 302035Z AUTO VRB05KT 10SM BKN038 29/21 A2999 230 60 1900 VRB/05 RMK AO2 T02890206 TSNO
53988KBKB BKB20190430144012304/30/19 14:40:31  5-MIN KBKB 302040Z AUTO VRB05KT 10SM BKN038 BKN045 29/21 A2998 240 60 1900 VRB/05 RMK AO2 T02890206 TSNO
53988KBKB BKB20190430144510604/30/19 14:45:31  5-MIN KBKB 302045Z AUTO 10SM BKN038 29/21 A2998 240 60 1900 M /M RMK AO2 T02890206 TSNO
53988KBKB BKB20190430145013004/30/19 14:50:31  5-MIN KBKB 302050Z AUTO 22003KT 10SM BKN038 BKN050 28/20 A2998 240 60 1900 210/03 RMK AO2 SLP177 T02830200 TSNO
53988KBKB BKB20190430145512304/30/19 14:55:31  5-MIN KBKB 302055Z AUTO 16008KT 10SM BKN038 BKN047 28/21 A2998 250 62 1900 150/08 RMK AO2 T02830206 TSNO
53988KBKB BKB20190430150011304/30/19 15:00:31  5-MIN KBKB 302100Z AUTO 10SM BKN038 BKN049 29/21 A2998 250 58 2000 M /M RMK AO2 T02940206 TSNO
53988KBKB BKB20190430150512904/30/19 15:05:31  5-MIN KBKB 302105Z AUTO VRB04G16KT 10SM SCT038 SCT045 29/20 A2997 250 56 2000 VRB/04G16 RMK AO2 T02940200 TSNO
53988KBKB BKB20190430151014504/30/19 15:10:31  5-MIN KBKB 302110Z AUTO 18007G16KT 120V240 10SM SCT038 SCT055 29/20 A2997 250 58 1900 180/07G16 120V240 RMK AO2 T02890200 TSNO
53988KBKB BKB20190430151514504/30/19 15:15:31  5-MIN KBKB 302115Z AUTO 18009G17KT 120V230 10SM FEW038 SCT050 29/20 A2997 250 58 1900 180/09G17 120V230 RMK AO2 T02890200 TSNO
53988KBKB BKB20190430152012904/30/19 15:20:31  5-MIN KBKB 302120Z AUTO VRB06G17KT 10SM FEW038 FEW050 29/19 A2997 250 56 1900 VRB/06G17 RMK AO2 T02890194 TSNO
53988KBKB BKB20190430152511604/30/19 15:25:31  5-MIN KBKB 302125Z AUTO VRB05KT 10SM FEW050 28/19 A2997 250 58 1900 VRB/05 RMK AO2 T02830194 TSNO
53988KBKB BKB20190430153011604/30/19 15:30:31  5-MIN KBKB 302130Z AUTO VRB04KT 10SM FEW050 29/20 A2997 250 58 1900 VRB/04 RMK AO2 T02890200 TSNO
53988KBKB BKB20190430153513204/30/19 15:35:31  5-MIN KBKB 302135Z AUTO 17007KT 110V230 10SM FEW050 29/19 A2997 260 56 1900 170/07 110V230 RMK AO2 T02890194 TSNO
53988KBKB BKB20190430154011304/30/19 15:40:31  5-MIN KBKB 302140Z AUTO VRB05KT 10SM CLR 28/19 A2997 260 58 1900 VRB/05 RMK AO2 T02830194 TSNO
53988KBKB BKB20190430154511304/30/19 15:45:31  5-MIN KBKB 302145Z AUTO VRB03KT 10SM CLR 28/19 A2997 260 58 1900 VRB/03 RMK AO2 T02830194 TSNO
53988KBKB BKB20190430155012004/30/19 15:50:31  5-MIN KBKB 302150Z AUTO VRB04KT 10SM CLR 29/20 A2996 260 56 2000 VRB/04 RMK AO2 SLP171 T02940200 TSNO
53988KBKB BKB20190430155511304/30/19 15:55:31  5-MIN KBKB 302155Z AUTO VRB05KT 10SM CLR 29/20 A2996 260 56 2000 VRB/05 RMK AO2 T02940200 TSNO
53988KBKB BKB20190430160013204/30/19 16:00:31  5-MIN KBKB 302200Z AUTO 14007KT 110V190 10SM FEW039 29/20 A2996 260 56 2000 140/07 110V190 RMK AO2 T02940200 TSNO
53988KBKB BKB20190430160511604/30/19 16:05:31  5-MIN KBKB 302205Z AUTO VRB03KT 10SM SCT039 30/20 A2996 260 54 2100 VRB/03 RMK AO2 T03000200 TSNO
53988KBKB BKB20190430161010604/30/19 16:10:31  5-MIN KBKB 302210Z AUTO 10SM BKN039 29/20 A2996 260 56 2000 M /M RMK AO2 T02940200 TSNO
53988KBKB BKB20190430161512204/30/19 16:15:31  5-MIN KBKB 302215Z AUTO VRB06G18KT 10SM BKN039 29/20 A2996 260 58 2000 VRB/06G18 RMK AO2 T02890200 TSNO
53988KBKB BKB20190430162012204/30/19 16:20:31  5-MIN KBKB 302220Z AUTO VRB05G18KT 10SM BKN039 29/20 A2996 260 58 2000 VRB/05G18 RMK AO2 T02890200 TSNO
53988KBKB BKB20190430162513904/30/19 16:25:31  5-MIN KBKB 302225Z AUTO 13008KT 090V160 10SM BKN039 BKN049 28/20 A2996 260 60 1900 130/08 090V160 RMK AO2 T02830200 TSNO
53988KBKB BKB20190430163012304/30/19 16:30:31  5-MIN KBKB 302230Z AUTO VRB04KT 10SM BKN040 BKN049 28/21 A2996 260 64 1800 VRB/04 RMK AO2 T02780206 TSNO
53988KBKB BKB20190430163512304/30/19 16:35:31  5-MIN KBKB 302235Z AUTO VRB06KT 10SM SCT040 BKN050 28/20 A2996 260 62 1800 VRB/06 RMK AO2 T02780200 TSNO
53988KBKB BKB20190430164013904/30/19 16:40:31  5-MIN KBKB 302240Z AUTO 14008KT 100V200 10SM FEW040 BKN050 28/20 A2996 260 62 1800 140/08 100V200 RMK AO2 T02780200 TSNO
53988KBKB BKB20190430164512904/30/19 16:45:31  5-MIN KBKB 302245Z AUTO VRB04G14KT 10SM FEW040 SCT050 27/19 A2996 260 62 1800 VRB/04G14 RMK AO2 T02720194 TSNO
53988KBKB BKB20190430165012004/30/19 16:50:31  5-MIN KBKB 302250Z AUTO 10SM FEW040 FEW050 28/20 A2996 260 62 1800 M /M RMK AO2 SLP172 T02780200 TSNO
53988KBKB BKB20190430165511604/30/19 16:55:31  5-MIN KBKB 302255Z AUTO 17008KT 10SM FEW050 28/20 A2996 260 62 1800 160/08 RMK AO2 T02780200 TSNO
53988KBKB BKB20190430170011604/30/19 17:00:31  5-MIN KBKB 302300Z AUTO VRB04KT 10SM FEW050 28/19 A2996 260 60 1800 VRB/04 RMK AO2 T02780194 TSNO
53988KBKB BKB20190430170511304/30/19 17:05:31  5-MIN KBKB 302305Z AUTO VRB06KT 10SM CLR 28/20 A2996 260 62 1800 VRB/06 RMK AO2 T02780200 TSNO
53988KBKB BKB20190430171011604/30/19 17:10:31  5-MIN KBKB 302310Z AUTO VRB05KT 10SM FEW050 27/19 A2996 260 62 1800 VRB/05 RMK AO2 T02720194 TSNO
53988KBKB BKB20190430171511604/30/19 17:15:31  5-MIN KBKB 302315Z AUTO VRB06KT 10SM FEW050 27/19 A2996 260 62 1800 VRB/06 RMK AO2 T02720194 TSNO
53988KBKB BKB20190430172011604/30/19 17:20:31  5-MIN KBKB 302320Z AUTO VRB03KT 10SM FEW050 27/19 A2996 260 62 1800 VRB/03 RMK AO2 T02720194 TSNO
53988KBKB BKB20190430172511604/30/19 17:25:31  5-MIN KBKB 302325Z AUTO 17005KT 10SM FEW050 27/19 A2997 260 62 1800 160/05 RMK AO2 T02720194 TSNO
53988KBKB BKB20190430173011604/30/19 17:30:31  5-MIN KBKB 302330Z AUTO VRB03KT 10SM FEW050 27/19 A2997 260 62 1800 VRB/03 RMK AO2 T02720194 TSNO
53988KBKB BKB20190430173511604/30/19 17:35:31  5-MIN KBKB 302335Z AUTO 17007KT 10SM FEW050 27/19 A2997 260 62 1800 170/07 RMK AO2 T02720194 TSNO
53988KBKB BKB20190430174010404/30/19 17:40:31  5-MIN KBKB 302340Z AUTO VRB04KT 10SM CLR 27/19 M 62 M VRB/04 RMK AO2 T02720194 TSNO $
53988KBKB BKB20190430174510404/30/19 17:45:31  5-MIN KBKB 302345Z AUTO VRB05KT 10SM CLR 27/19 M 64 M VRB/05 RMK AO2 T02670194 TSNO $
53988KBKB BKB20190430175012204/30/19 17:50:31  5-MIN KBKB 302350Z AUTO VRB04KT 10SM CLR 27/19 M 64 M VRB/04 RMK AO2 SLPNO T02670194 10300 20267 TSNO $
53988KBKB BKB20190430175510404/30/19 17:55:31  5-MIN KBKB 302355Z AUTO VRB04KT 10SM CLR 27/19 M 64 M VRB/04 RMK AO2 T02670194 TSNO $
53988KBKB BKB20190430180010404/30/19 18:00:31  5-MIN KBKB 010000Z AUTO VRB05KT 10SM CLR 26/20 M 68 M VRB/05 RMK AO2 T02610200 TSNO $
53988KBKB BKB20190430180510404/30/19 18:05:31  5-MIN KBKB 010005Z AUTO 00000KT 10SM CLR 26/19 M 66 M 000/00 RMK AO2 T02610194 TSNO $
53988KBKB BKB20190430181010404/30/19 18:10:31  5-MIN KBKB 010010Z AUTO 00000KT 10SM CLR 26/19 M 66 M 000/00 RMK AO2 T02610194 TSNO $
53988KBKB BKB20190430181015604/30/19 18:10:31  5-MIN KBKB 010010Z AUTO 00000KT 10SM CLR 26/19 M 66 M-MIN KBKB 010015Z AUTO VRB03KT 10SM CLR 26/19 M 66 M VRB/03 RMK AO2 T02610194 TSNO $
53988KBKB BKB20190430181510404/30/19 18:15:31  5-MIN KBKB 010015Z AUTO VRB03KT 10SM CLR 26/19 M 66 M VRB/03 RMK AO2 T02610194 TSNO $
53988KBKB BKB20190430182009404/30/19 18:20:31  5-MIN KBKB 010020Z AUTO 10SM CLR 26/19 M 68 M M /M RMK AO2 T02560194 TSNO $
53988KBKB BKB20190430182510404/30/19 18:25:31  5-MIN KBKB 010025Z AUTO VRB03KT 10SM CLR 26/19 M 68 M VRB/03 RMK AO2 T02560194 TSNO $
53988KBKB BKB20190430182516804/30/19 18:25:31  5-MIN KBKB 010025Z AUTO VRB03KT 10SM CLR 26/19 M 68 M VRB/03 RMK AO2 T02560194 TSNO $TO VRB03KT 10SM CLR 25/20 M 73 M VRB/03 RMK AO2 T02500200 TSNO $
53988KBKB BKB20190430183010404/30/19 18:30:31  5-MIN KBKB 010030Z AUTO 00000KT 10SM CLR 26/20 M 71 M 000/00 RMK AO2 T02560200 TSNO $
53988KBKB BKB20190430183510404/30/19 18:35:31  5-MIN KBKB 010035Z AUTO 00000KT 10SM CLR 25/20 M 73 M 000/00 RMK AO2 T02500200 TSNO $
53988KBKB BKB20190430184010404/30/19 18:40:31  5-MIN KBKB 010040Z AUTO VRB03KT 10SM CLR 25/20 M 73 M VRB/03 RMK AO2 T02500200 TSNO $
53988KBKB BKB20190430184510404/30/19 18:45:31  5-MIN KBKB 010045Z AUTO VRB03KT 10SM CLR 25/20 M 73 M VRB/03 RMK AO2 T02500200 TSNO $
53988KBKB BKB20190430185011004/30/19 18:50:31  5-MIN KBKB 010050Z AUTO VRB03KT 10SM CLR 25/20 M 73 M VRB/03 RMK AO2 SLPNO T02500200 TSNO $
53988KBKB BKB20190430185510404/30/19 18:55:31  5-MIN KBKB 010055Z AUTO VRB03KT 10SM CLR 25/20 M 73 M VRB/03 RMK AO2 T02500200 TSNO $
53988KBKB BKB20190430185518404/30/19 18:55:31  5-MIN KBKB 010055Z AUTO VRB03KT 10SM CLR 25/20 M 73 M VRB/03 RMK AO2 T02500200 TSNO $04 010110Z AUTO VRB03KT 10SM FEW028 24/20 M 76 M VRB/03 RMK AO2 T02440200 TSNO $
53988KBKB BKB20190430190010704/30/19 19:00:31  5-MIN KBKB 010100Z AUTO 00000KT 10SM FEW035 24/20 M 76 M 000/00 RMK AO2 T02440200 TSNO $
53988KBKB BKB20190430190511404/30/19 19:05:31  5-MIN KBKB 010105Z AUTO 00000KT 10SM FEW028 FEW035 24/20 M 76 M 000/00 RMK AO2 T02440200 TSNO $
53988KBKB BKB20190430191010704/30/19 19:10:31  5-MIN KBKB 010110Z AUTO VRB03KT 10SM FEW028 24/20 M 76 M VRB/03 RMK AO2 T02440200 TSNO $
53988KBKB BKB20190430191510704/30/19 19:15:31  5-MIN KBKB 010115Z AUTO VRB03KT 10SM FEW028 24/20 M 76 M VRB/03 RMK AO2 T02440200 TSNO $
53988KBKB BKB20190430192010704/30/19 19:20:31  5-MIN KBKB 010120Z AUTO VRB03KT 10SM SCT028 24/20 M 78 M VRB/03 RMK AO2 T02390200 TSNO $
53988KBKB BKB20190430192510704/30/19 19:25:31  5-MIN KBKB 010125Z AUTO VRB03KT 10SM SCT028 24/20 M 76 M VRB/03 RMK AO2 T02440200 TSNO $
53988KBKB BKB20190430192517304/30/19 19:25:31  5-MIN KBKB 010125Z AUTO VRB03KT 10SM SCT028 24/20 M 76 M VRBKB 010725Z AUTO VRB05KT 10SM BKN016 BKN024 BKN029 23/21 M 90 M VRB/05 RMK AO2 T02280211 TSNO $
53988KBKB BKB20190430193010704/30/19 19:30:31  5-MIN KBKB 010130Z AUTO VRB03KT 10SM SCT028 24/20 M 78 M VRB/03 RMK AO2 T02390200 TSNO $
53988KBKB BKB20190430193510704/30/19 19:35:31  5-MIN KBKB 010135Z AUTO VRB04KT 10SM FEW028 24/20 M 76 M VRB/04 RMK AO2 T02440200 TSNO $
53988KBKB BKB20190430194010704/30/19 19:40:31  5-MIN KBKB 010140Z AUTO VRB05KT 10SM FEW027 24/20 M 76 M VRB/05 RMK AO2 T02440200 TSNO $
53988KBKB BKB20190430194510704/30/19 19:45:31  5-MIN KBKB 010145Z AUTO VRB05KT 10SM FEW027 24/19 M 76 M VRB/05 RMK AO2 T02390194 TSNO $
