53988KBKB BKB20190101061011101/01/19 06:10:31  5-MIN KBKB 011210Z AUTO 00000KT 5SM BR CLR 08/08 A3008 150 100 -600 000/00 RMK AO2 T00780078
53988KBKB BKB20190101061511001/01/19 06:15:31  5-MIN KBKB 011215Z AUTO 00000KT 6SM BR CLR 08/08 A3008 150 96 -500 000/00 RMK AO2 T00830078
53988KBKB BKB20190101062011001/01/19 06:20:31  5-MIN KBKB 011220Z AUTO 00000KT 6SM BR CLR 08/08 A3009 140 96 -500 000/00 RMK AO2 T00830078
53988KBKB BKB20190101062510701/01/19 06:25:31  5-MIN KBKB 011225Z AUTO 00000KT 7SM CLR 08/08 A3009 140 96 -500 000/00 RMK AO2 T00830078
53988KBKB BKB20190101063011001/01/19 06:30:31  5-MIN KBKB 011230Z AUTO 00000KT 6SM BR CLR 08/08 A3009 140 96 -500 000/00 RMK AO2 T00830078
53988KBKB BKB20190101063511001/01/19 06:35:31  5-MIN KBKB 011235Z AUTO 00000KT 5SM BR CLR 08/08 A3009 140 96 -500 000/00 RMK AO2 T00830078
53988KBKB BKB20190101064011101/01/19 06:40:31  5-MIN KBKB 011240Z AUTO 00000KT 4SM BR CLR 08/08 A3009 140 100 -600 000/00 RMK AO2 T00780078
53988KBKB BKB20190101064511101/01/19 06:45:31  5-MIN KBKB 011245Z AUTO 00000KT 4SM BR CLR 08/08 A3010 130 100 -600 000/00 RMK AO2 T00780078
53988KBKB BKB20190101065011401/01/19 06:50:31  5-MIN KBKB 011250Z AUTO 00000KT 7SM CLR 08/08 A3011 120 96 -600 000/00 RMK AO2 SLP225 T00830078
53988KBKB BKB20190101065510801/01/19 06:55:31  5-MIN KBKB 011255Z AUTO 00000KT 8SM CLR 08/08 A3011 120 100 -600 000/00 RMK AO2 T00780078
53988KBKB BKB20190101070011101/01/19 07:00:31  5-MIN KBKB 011300Z AUTO 00000KT 5SM BR CLR 08/08 A3011 120 100 -600 000/00 RMK AO2 T00780078
53988KBKB BKB20190101070511001/01/19 07:05:31  5-MIN KBKB 011305Z AUTO 00000KT 5SM BR CLR 08/07 A3011 120 96 -600 000/00 RMK AO2 T00780072
53988KBKB BKB20190101071010701/01/19 07:10:31  5-MIN KBKB 011310Z AUTO 00000KT 7SM CLR 08/07 A3011 120 96 -600 000/00 RMK AO2 T00780072
53988KBKB BKB20190101071510801/01/19 07:15:31  5-MIN KBKB 011315Z AUTO VRB03KT 7SM CLR 08/08 A3011 120 100 -600 VRB/03 RMK AO2 T00780078
53988KBKB BKB20190101072010701/01/19 07:20:31  5-MIN KBKB 011320Z AUTO 00000KT 8SM CLR 08/08 A3012 120 96 -600 000/00 RMK AO2 T00830078
53988KBKB BKB20190101072510801/01/19 07:25:31  5-MIN KBKB 011325Z AUTO VRB03KT 9SM CLR 08/08 A3012 120 100 -600 VRB/03 RMK AO2 T00830083
53988KBKB BKB20190101073010901/01/19 07:30:31  5-MIN KBKB 011330Z AUTO 00000KT 10SM CLR 08/08 A3013 110 100 -600 000/00 RMK AO2 T00830083
53988KBKB BKB20190101080010901/01/19 08:00:31  5-MIN KBKB 011400Z AUTO 00000KT 10SM CLR 09/09 A3014 100 100 -500 000/00 RMK AO2 T00890089
53988KBKB BKB20190101080510701/01/19 08:05:31  5-MIN KBKB 011405Z AUTO VRB03KT 10SM CLR 09/09 A3014 90 96 -500 VRB/03 RMK AO2 T00940089
53988KBKB BKB20190101081010801/01/19 08:10:31  5-MIN KBKB 011410Z AUTO VRB03KT 10SM CLR 09/09 A3014 90 100 -500 VRB/03 RMK AO2 T00890089
53988KBKB BKB20190101081510901/01/19 08:15:31  5-MIN KBKB 011415Z AUTO 00000KT 10SM CLR 09/09 A3014 100 100 -500 000/00 RMK AO2 T00940094
53988KBKB BKB20190101082010701/01/19 08:20:31  5-MIN KBKB 011420Z AUTO VRB04KT 10SM CLR 10/09 A3014 90 96 -400 VRB/04 RMK AO2 T01000094
53988KBKB BKB20190101082510701/01/19 08:25:31  5-MIN KBKB 011425Z AUTO VRB03KT 10SM CLR 10/09 A3014 90 96 -400 VRB/03 RMK AO2 T01000094
53988KBKB BKB20190101083010701/01/19 08:30:31  5-MIN KBKB 011430Z AUTO VRB03KT 10SM CLR 10/09 A3014 90 96 -400 VRB/03 RMK AO2 T01000094
53988KBKB BKB20190101083510701/01/19 08:35:31  5-MIN KBKB 011435Z AUTO VRB05KT 10SM CLR 10/09 A3015 90 96 -400 VRB/05 RMK AO2 T01000094
53988KBKB BKB20190101084010701/01/19 08:40:31  5-MIN KBKB 011440Z AUTO VRB04KT 10SM CLR 10/09 A3015 80 96 -400 VRB/04 RMK AO2 T01000094
53988KBKB BKB20190101084511001/01/19 08:45:31  5-MIN KBKB 011445Z AUTO 01004KT 10SM FEW005 11/09 A3016 80 93 -300 010/04 RMK AO2 T01060094
53988KBKB BKB20190101085012301/01/19 08:50:31  5-MIN KBKB 011450Z AUTO VRB05KT 10SM FEW005 11/09 A3015 90 93 -300 VRB/05 RMK AO2 SLP239 T01060094 53006
53988KBKB BKB20190101085511001/01/19 08:55:31  5-MIN KBKB 011455Z AUTO 03005KT 10SM FEW005 10/09 A3015 80 96 -400 030/05 RMK AO2 T01000094
53988KBKB BKB20190101090011001/01/19 09:00:31  5-MIN KBKB 011500Z AUTO 01005KT 10SM FEW004 11/09 A3016 80 93 -300 360/05 RMK AO2 T01060094
53988KBKB BKB20190101090511001/01/19 09:05:31  5-MIN KBKB 011505Z AUTO 35006KT 10SM FEW004 11/09 A3016 70 93 -300 350/06 RMK AO2 T01060094
53988KBKB BKB20190101091011001/01/19 09:10:31  5-MIN KBKB 011510Z AUTO VRB04KT 10SM FEW004 11/09 A3017 70 93 -400 VRB/04 RMK AO2 T01060094
53988KBKB BKB20190101091510701/01/19 09:15:31  5-MIN KBKB 011515Z AUTO VRB04KT 10SM CLR 11/09 A3017 70 93 -400 VRB/04 RMK AO2 T01060094
53988KBKB BKB20190101092010701/01/19 09:20:31  5-MIN KBKB 011520Z AUTO VRB03KT 10SM CLR 11/10 A3018 60 93 -300 VRB/03 RMK AO2 T01110100
53988KBKB BKB20190101092510701/01/19 09:25:31  5-MIN KBKB 011525Z AUTO VRB05KT 10SM CLR 12/10 A3017 70 89 -200 VRB/05 RMK AO2 T01170100
53988KBKB BKB20190101093010701/01/19 09:30:31  5-MIN KBKB 011530Z AUTO 02006KT 10SM CLR 12/10 A3017 60 89 -200 010/06 RMK AO2 T01170100
53988KBKB BKB20190101093510701/01/19 09:35:31  5-MIN KBKB 011535Z AUTO VRB04KT 10SM CLR 12/09 A3018 60 86 -200 VRB/04 RMK AO2 T01170094
53988KBKB BKB20190101094010701/01/19 09:40:31  5-MIN KBKB 011540Z AUTO VRB05KT 10SM CLR 12/10 A3017 60 89 -200 VRB/05 RMK AO2 T01170100
53988KBKB BKB20190101094510701/01/19 09:45:31  5-MIN KBKB 011545Z AUTO VRB04KT 10SM CLR 12/10 A3018 60 86 -200 VRB/04 RMK AO2 T01220100
53988KBKB BKB20190101095011401/01/19 09:50:31  5-MIN KBKB 011550Z AUTO VRB04KT 10SM CLR 12/10 A3018 60 86 -200 VRB/04 RMK AO2 SLP249 T01220100
53988KBKB BKB20190101095510701/01/19 09:55:31  5-MIN KBKB 011555Z AUTO 03004KT 10SM CLR 13/10 A3018 60 83 -100 030/04 RMK AO2 T01280100
53988KBKB BKB20190101100010701/01/19 10:00:31  5-MIN KBKB 011600Z AUTO VRB04KT 10SM CLR 13/10 A3018 60 83 -100 VRB/04 RMK AO2 T01280100
53988KBKB BKB20190101100510701/01/19 10:05:31  5-MIN KBKB 011605Z AUTO 03005KT 10SM CLR 13/10 A3019 50 83 -100 020/05 RMK AO2 T01280100
53988KBKB BKB20190101101010401/01/19 10:10:31  5-MIN KBKB 011610Z AUTO VRB04KT 10SM CLR 13/10 A3019 50 80 0 VRB/04 RMK AO2 T01330100
53988KBKB BKB20190101101510401/01/19 10:15:31  5-MIN KBKB 011615Z AUTO VRB03KT 10SM CLR 13/10 A3018 50 80 0 VRB/03 RMK AO2 T01330100
53988KBKB BKB20190101102010401/01/19 10:20:31  5-MIN KBKB 011620Z AUTO VRB03KT 10SM CLR 13/10 A3018 60 80 0 VRB/03 RMK AO2 T01330100
53988KBKB BKB20190101102509401/01/19 10:25:31  5-MIN KBKB 011625Z AUTO 10SM CLR 13/10 A3018 60 80 0 M /M RMK AO2 T01330100
53988KBKB BKB20190101103010401/01/19 10:30:31  5-MIN KBKB 011630Z AUTO VRB04KT 10SM CLR 13/10 A3018 60 80 0 VRB/04 RMK AO2 T01330100
53988KBKB BKB20190101103510401/01/19 10:35:31  5-MIN KBKB 011635Z AUTO VRB04KT 10SM CLR 14/10 A3018 60 77 0 VRB/04 RMK AO2 T01390100
53988KBKB BKB20190101104010401/01/19 10:40:31  5-MIN KBKB 011640Z AUTO VRB04KT 10SM CLR 14/11 A3018 60 80 0 VRB/04 RMK AO2 T01390106
53988KBKB BKB20190101104510601/01/19 10:45:31  5-MIN KBKB 011645Z AUTO 00000KT 10SM CLR 15/11 A3018 60 74 100 000/00 RMK AO2 T01500106
53988KBKB BKB20190101105011301/01/19 10:50:31  5-MIN KBKB 011650Z AUTO VRB04KT 10SM CLR 15/11 A3018 60 74 100 VRB/04 RMK AO2 SLP249 T01500106
53988KBKB BKB20190101105510601/01/19 10:55:31  5-MIN KBKB 011655Z AUTO VRB03KT 10SM CLR 15/11 A3018 60 74 100 VRB/03 RMK AO2 T01500106
53988KBKB BKB20190101110010601/01/19 11:00:31  5-MIN KBKB 011700Z AUTO VRB06KT 10SM CLR 15/11 A3017 60 74 100 VRB/06 RMK AO2 T01500106
53988KBKB BKB20190101110510901/01/19 11:05:31  5-MIN KBKB 011705Z AUTO VRB04KT 10SM FEW016 16/11 A3017 70 72 200 VRB/04 RMK AO2 T01560106
53988KBKB BKB20190101111010601/01/19 11:10:31  5-MIN KBKB 011710Z AUTO VRB05KT 10SM CLR 16/11 A3017 70 69 300 VRB/05 RMK AO2 T01610106
53988KBKB BKB20190101111510601/01/19 11:15:31  5-MIN KBKB 011715Z AUTO VRB04KT 10SM CLR 16/11 A3016 80 69 300 VRB/04 RMK AO2 T01610106
53988KBKB BKB20190101112010601/01/19 11:20:31  5-MIN KBKB 011720Z AUTO VRB06KT 10SM CLR 16/10 A3016 80 69 200 VRB/06 RMK AO2 T01560100
53988KBKB BKB20190101112510601/01/19 11:25:31  5-MIN KBKB 011725Z AUTO VRB04KT 10SM CLR 15/09 A3016 80 69 100 VRB/04 RMK AO2 T01500094
53988KBKB BKB20190101113010601/01/19 11:30:31  5-MIN KBKB 011730Z AUTO VRB04KT 10SM CLR 15/09 A3016 80 69 100 VRB/04 RMK AO2 T01500094
53988KBKB BKB20190101113510601/01/19 11:35:31  5-MIN KBKB 011735Z AUTO 04004KT 10SM CLR 14/10 A3016 80 74 100 040/04 RMK AO2 T01440100
53988KBKB BKB20190101114010601/01/19 11:40:31  5-MIN KBKB 011740Z AUTO VRB03KT 10SM CLR 16/10 A3016 80 69 200 VRB/03 RMK AO2 T01560100
53988KBKB BKB20190101114510601/01/19 11:45:31  5-MIN KBKB 011745Z AUTO 04006KT 10SM CLR 16/10 A3015 80 69 200 030/06 RMK AO2 T01560100
53988KBKB BKB20190101115013101/01/19 11:50:31  5-MIN KBKB 011750Z AUTO VRB04KT 10SM CLR 16/10 A3015 80 69 200 VRB/04 RMK AO2 SLP239 T01560100 10161 20078 51024
53988KBKB BKB20190101115510601/01/19 11:55:31  5-MIN KBKB 011755Z AUTO VRB03KT 10SM CLR 16/11 A3015 90 72 200 VRB/03 RMK AO2 T01560106
53988KBKB BKB20190101120010601/01/19 12:00:31  5-MIN KBKB 011800Z AUTO VRB04KT 10SM CLR 16/11 A3015 90 69 300 VRB/04 RMK AO2 T01610106
53988KBKB BKB20190101120510601/01/19 12:05:31  5-MIN KBKB 011805Z AUTO 00000KT 10SM CLR 16/11 A3014 90 69 300 000/00 RMK AO2 T01610106
53988KBKB BKB20190101121009701/01/19 12:10:31  5-MIN KBKB 011810Z AUTO 10SM CLR 17/10 A3014 100 64 400 M /M RMK AO2 T01670100
53988KBKB BKB20190101121510701/01/19 12:15:31  5-MIN KBKB 011815Z AUTO VRB05KT 10SM CLR 17/10 A3014 100 64 400 VRB/05 RMK AO2 T01670100
53988KBKB BKB20190101122010701/01/19 12:20:31  5-MIN KBKB 011820Z AUTO VRB04KT 10SM CLR 17/10 A3014 100 64 400 VRB/04 RMK AO2 T01670100
53988KBKB BKB20190101122510701/01/19 12:25:31  5-MIN KBKB 011825Z AUTO VRB04KT 10SM CLR 17/10 A3014 100 62 400 VRB/04 RMK AO2 T01720100
53988KBKB BKB20190101123010701/01/19 12:30:31  5-MIN KBKB 011830Z AUTO VRB04KT 10SM CLR 17/10 A3013 100 62 400 VRB/04 RMK AO2 T01720100
53988KBKB BKB20190101123510701/01/19 12:35:31  5-MIN KBKB 011835Z AUTO VRB05KT 10SM CLR 17/09 A3013 110 62 400 VRB/05 RMK AO2 T01670094
53988KBKB BKB20190101124010701/01/19 12:40:31  5-MIN KBKB 011840Z AUTO 03005KT 10SM CLR 17/09 A3013 110 60 400 020/05 RMK AO2 T01670089
53988KBKB BKB20190101124510701/01/19 12:45:31  5-MIN KBKB 011845Z AUTO VRB04KT 10SM CLR 17/09 A3013 110 60 400 VRB/04 RMK AO2 T01670089
53988KBKB BKB20190101125011401/01/19 12:50:31  5-MIN KBKB 011850Z AUTO VRB05KT 10SM CLR 16/09 A3013 110 62 300 VRB/05 RMK AO2 SLP232 T01610089
53988KBKB BKB20190101125510701/01/19 12:55:31  5-MIN KBKB 011855Z AUTO VRB03KT 10SM CLR 16/08 A3013 110 62 200 VRB/03 RMK AO2 T01560083
53988KBKB BKB20190101130010701/01/19 13:00:31  5-MIN KBKB 011900Z AUTO VRB03KT 10SM CLR 17/09 A3012 110 60 400 VRB/03 RMK AO2 T01670089
53988KBKB BKB20190101130510701/01/19 13:05:31  5-MIN KBKB 011905Z AUTO VRB04KT 10SM CLR 17/09 A3012 110 62 400 VRB/04 RMK AO2 T01670094
53988KBKB BKB20190101131010701/01/19 13:10:31  5-MIN KBKB 011910Z AUTO VRB04KT 10SM CLR 17/09 A3012 120 62 400 VRB/04 RMK AO2 T01670094
53988KBKB BKB20190101131510701/01/19 13:15:31  5-MIN KBKB 011915Z AUTO VRB04KT 10SM CLR 16/09 A3012 110 62 300 VRB/04 RMK AO2 T01610089
53988KBKB BKB20190101132010701/01/19 13:20:31  5-MIN KBKB 011920Z AUTO 00000KT 10SM CLR 16/09 A3012 120 67 200 000/00 RMK AO2 T01560094
53988KBKB BKB20190101132509701/01/19 13:25:31  5-MIN KBKB 011925Z AUTO 10SM CLR 17/09 A3012 110 62 400 M /M RMK AO2 T01670094
53988KBKB BKB20190101133010701/01/19 13:30:31  5-MIN KBKB 011930Z AUTO 03004KT 10SM CLR 16/09 A3012 120 64 300 020/04 RMK AO2 T01610094
53988KBKB BKB20190101133510701/01/19 13:35:31  5-MIN KBKB 011935Z AUTO VRB05KT 10SM CLR 16/09 A3011 120 64 300 VRB/05 RMK AO2 T01610094
53988KBKB BKB20190101134009701/01/19 13:40:31  5-MIN KBKB 011940Z AUTO 10SM CLR 16/09 A3011 120 64 300 M /M RMK AO2 T01610094
53988KBKB BKB20190101134510701/01/19 13:45:31  5-MIN KBKB 011945Z AUTO VRB04KT 10SM CLR 16/09 A3011 120 64 300 VRB/04 RMK AO2 T01610094
53988KBKB BKB20190101135011401/01/19 13:50:31  5-MIN KBKB 011950Z AUTO VRB04KT 10SM CLR 17/09 A3012 120 62 400 VRB/04 RMK AO2 SLP227 T01670094
53988KBKB BKB20190101135510701/01/19 13:55:31  5-MIN KBKB 011955Z AUTO VRB04KT 10SM CLR 17/09 A3012 120 62 400 VRB/04 RMK AO2 T01670094
53988KBKB BKB20190101140010701/01/19 14:00:31  5-MIN KBKB 012000Z AUTO VRB05KT 10SM CLR 16/09 A3012 110 62 300 VRB/05 RMK AO2 T01610089
53988KBKB BKB20190101140510701/01/19 14:05:31  5-MIN KBKB 012005Z AUTO 00000KT 10SM CLR 17/09 A3012 110 60 400 000/00 RMK AO2 T01670089
53988KBKB BKB20190101141010701/01/19 14:10:31  5-MIN KBKB 012010Z AUTO VRB03KT 10SM CLR 17/09 A3012 110 60 400 VRB/03 RMK AO2 T01720094
53988KBKB BKB20190101141510701/01/19 14:15:31  5-MIN KBKB 012015Z AUTO 00000KT 10SM CLR 17/09 A3012 110 60 400 000/00 RMK AO2 T01720094
53988KBKB BKB20190101142010701/01/19 14:20:31  5-MIN KBKB 012020Z AUTO VRB03KT 10SM CLR 17/10 A3012 110 62 400 VRB/03 RMK AO2 T01720100
53988KBKB BKB20190101142510701/01/19 14:25:31  5-MIN KBKB 012025Z AUTO 05003KT 10SM CLR 17/09 A3011 120 60 400 050/03 RMK AO2 T01720094
53988KBKB BKB20190101143010701/01/19 14:30:31  5-MIN KBKB 012030Z AUTO VRB04KT 10SM CLR 17/09 A3011 120 62 400 VRB/04 RMK AO2 T01670094
53988KBKB BKB20190101143510701/01/19 14:35:31  5-MIN KBKB 012035Z AUTO VRB03KT 10SM CLR 17/09 A3011 120 60 400 VRB/03 RMK AO2 T01670089
53988KBKB BKB20190101144010701/01/19 14:40:31  5-MIN KBKB 012040Z AUTO VRB05KT 10SM CLR 17/09 A3011 120 62 400 VRB/05 RMK AO2 T01670094
53988KBKB BKB20190101144510701/01/19 14:45:31  5-MIN KBKB 012045Z AUTO VRB04KT 10SM CLR 17/09 A3011 130 57 500 VRB/04 RMK AO2 T01720089
53988KBKB BKB20190101145012001/01/19 14:50:31  5-MIN KBKB 012050Z AUTO VRB03KT 10SM CLR 17/09 A3011 120 60 500 VRB/03 RMK AO2 SLP226 T01720094 58001
53988KBKB BKB20190101145510701/01/19 14:55:31  5-MIN KBKB 012055Z AUTO 03004KT 10SM CLR 17/09 A3011 120 60 400 030/04 RMK AO2 T01670089
53988KBKB BKB20190101150011001/01/19 15:00:31  5-MIN KBKB 012100Z AUTO VRB03KT 10SM FEW060 17/09 A3010 130 60 400 VRB/03 RMK AO2 T01670089
53988KBKB BKB20190101150511001/01/19 15:05:31  5-MIN KBKB 012105Z AUTO VRB03KT 10SM FEW060 16/09 A3011 120 62 300 VRB/03 RMK AO2 T01610089
53988KBKB BKB20190101151011001/01/19 15:10:31  5-MIN KBKB 012110Z AUTO VRB03KT 10SM SCT060 16/09 A3011 120 64 300 VRB/03 RMK AO2 T01610094
53988KBKB BKB20190101151511001/01/19 15:15:31  5-MIN KBKB 012115Z AUTO VRB03KT 10SM BKN060 16/09 A3011 120 64 300 VRB/03 RMK AO2 T01610094
53988KBKB BKB20190101152011001/01/19 15:20:31  5-MIN KBKB 012120Z AUTO VRB04KT 10SM BKN060 16/09 A3012 120 64 300 VRB/04 RMK AO2 T01610094
53988KBKB BKB20190101152511001/01/19 15:25:31  5-MIN KBKB 012125Z AUTO VRB03KT 10SM BKN060 16/10 A3012 120 67 300 VRB/03 RMK AO2 T01610100
53988KBKB BKB20190101153011001/01/19 15:30:31  5-MIN KBKB 012130Z AUTO VRB05KT 10SM SCT060 16/09 A3012 120 64 300 VRB/05 RMK AO2 T01610094
53988KBKB BKB20190101153511001/01/19 15:35:31  5-MIN KBKB 012135Z AUTO VRB03KT 10SM SCT060 16/09 A3012 120 64 300 VRB/03 RMK AO2 T01610094
53988KBKB BKB20190101154011001/01/19 15:40:31  5-MIN KBKB 012140Z AUTO VRB04KT 10SM BKN065 16/09 A3012 110 67 200 VRB/04 RMK AO2 T01560094
53988KBKB BKB20190101154511001/01/19 15:45:31  5-MIN KBKB 012145Z AUTO VRB04KT 10SM BKN065 16/09 A3012 110 67 200 VRB/04 RMK AO2 T01560094
53988KBKB BKB20190101155011701/01/19 15:50:31  5-MIN KBKB 012150Z AUTO VRB04KT 10SM BKN065 16/09 A3012 110 67 200 VRB/04 RMK AO2 SLP230 T01560094
53988KBKB BKB20190101155511001/01/19 15:55:31  5-MIN KBKB 012155Z AUTO 03004KT 10SM BKN065 16/09 A3012 110 67 200 030/04 RMK AO2 T01560094
53988KBKB BKB20190101160011001/01/19 16:00:31  5-MIN KBKB 012200Z AUTO VRB03KT 10SM OVC060 16/09 A3012 110 67 200 VRB/03 RMK AO2 T01560094
53988KBKB BKB20190101160511001/01/19 16:05:31  5-MIN KBKB 012205Z AUTO VRB03KT 10SM OVC065 15/09 A3012 110 69 200 VRB/03 RMK AO2 T01500094
53988KBKB BKB20190101161011001/01/19 16:10:31  5-MIN KBKB 012210Z AUTO VRB04KT 10SM OVC065 15/09 A3012 120 69 200 VRB/04 RMK AO2 T01500094
53988KBKB BKB20190101161511001/01/19 16:15:31  5-MIN KBKB 012215Z AUTO 00000KT 10SM OVC065 15/09 A3012 120 69 200 000/00 RMK AO2 T01500094
53988KBKB BKB20190101162011001/01/19 16:20:31  5-MIN KBKB 012220Z AUTO 00000KT 10SM BKN070 15/10 A3012 110 72 200 000/00 RMK AO2 T01500100
53988KBKB BKB20190101162511001/01/19 16:25:31  5-MIN KBKB 012225Z AUTO 00000KT 10SM BKN065 15/10 A3013 110 72 200 000/00 RMK AO2 T01500100
53988KBKB BKB20190101163011001/01/19 16:30:31  5-MIN KBKB 012230Z AUTO VRB03KT 10SM BKN070 15/10 A3013 110 72 200 VRB/03 RMK AO2 T01500100
53988KBKB BKB20190101163511001/01/19 16:35:31  5-MIN KBKB 012235Z AUTO VRB03KT 10SM BKN070 15/10 A3013 110 72 200 VRB/03 RMK AO2 T01500100
53988KBKB BKB20190101164011001/01/19 16:40:31  5-MIN KBKB 012240Z AUTO VRB03KT 10SM BKN070 15/09 A3013 110 69 200 VRB/03 RMK AO2 T01500094
53988KBKB BKB20190101164511001/01/19 16:45:31  5-MIN KBKB 012245Z AUTO 02004KT 10SM BKN070 14/09 A3012 110 72 100 020/04 RMK AO2 T01440094
53988KBKB BKB20190101165011701/01/19 16:50:31  5-MIN KBKB 012250Z AUTO 00000KT 10SM SCT070 14/09 A3012 110 72 100 000/00 RMK AO2 SLP230 T01440094
53988KBKB BKB20190101165511001/01/19 16:55:31  5-MIN KBKB 012255Z AUTO VRB03KT 10SM SCT070 14/09 A3013 100 72 100 VRB/03 RMK AO2 T01440094
53988KBKB BKB20190101170011001/01/19 17:00:31  5-MIN KBKB 012300Z AUTO 00000KT 10SM SCT070 14/09 A3013 100 72 100 000/00 RMK AO2 T01440094
53988KBKB BKB20190101170511001/01/19 17:05:31  5-MIN KBKB 012305Z AUTO VRB04KT 10SM BKN070 14/09 A3013 110 72 100 VRB/04 RMK AO2 T01440094
53988KBKB BKB20190101171010801/01/19 17:10:31  5-MIN KBKB 012310Z AUTO 00000KT 10SM BKN070 14/09 A3013 100 74 0 000/00 RMK AO2 T01390094
53988KBKB BKB20190101171510801/01/19 17:15:31  5-MIN KBKB 012315Z AUTO VRB03KT 10SM SCT070 14/09 A3013 100 74 0 VRB/03 RMK AO2 T01390094
53988KBKB BKB20190101172010801/01/19 17:20:31  5-MIN KBKB 012320Z AUTO 00000KT 10SM SCT070 14/10 A3013 110 77 0 000/00 RMK AO2 T01390100
53988KBKB BKB20190101172510801/01/19 17:25:31  5-MIN KBKB 012325Z AUTO VRB03KT 10SM SCT070 14/10 A3013 100 77 0 VRB/03 RMK AO2 T01390100
53988KBKB BKB20190101173010801/01/19 17:30:31  5-MIN KBKB 012330Z AUTO 00000KT 10SM SCT070 14/10 A3013 100 77 0 000/00 RMK AO2 T01390100
53988KBKB BKB20190101173510801/01/19 17:35:31  5-MIN KBKB 012335Z AUTO 00000KT 10SM SCT070 13/10 A3014 100 80 0 000/00 RMK AO2 T01330100
53988KBKB BKB20190101174010801/01/19 17:40:31  5-MIN KBKB 012340Z AUTO 00000KT 10SM BKN070 14/10 A3014 100 77 0 000/00 RMK AO2 T01390100
53988KBKB BKB20190101174510701/01/19 17:45:31  5-MIN KBKB 012345Z AUTO 36003KT 10SM BKN070 14/10 A3014 90 77 0 360/03 RMK AO2 T01390100
53988KBKB BKB20190101175013301/01/19 17:50:31  5-MIN KBKB 012350Z AUTO VRB03KT 10SM BKN065 14/10 A3014 100 77 0 VRB/03 RMK AO2 SLP235 T01390100 10172 20133 56013
53988KBKB BKB20190101175510801/01/19 17:55:31  5-MIN KBKB 012355Z AUTO VRB03KT 10SM OVC070 14/10 A3014 100 77 0 VRB/03 RMK AO2 T01390100
53988KBKB BKB20190101180010801/01/19 18:00:31  5-MIN KBKB 020000Z AUTO VRB04KT 10SM OVC070 14/10 A3014 100 77 0 VRB/04 RMK AO2 T01390100
53988KBKB BKB20190101180510801/01/19 18:05:31  5-MIN KBKB 020005Z AUTO VRB05KT 10SM OVC070 14/10 A3014 100 77 0 VRB/05 RMK AO2 T01390100
53988KBKB BKB20190101181010701/01/19 18:10:31  5-MIN KBKB 020010Z AUTO VRB04KT 10SM OVC070 14/09 A3014 90 74 0 VRB/04 RMK AO2 T01390094
53988KBKB BKB20190101181510701/01/19 18:15:31  5-MIN KBKB 020015Z AUTO 01004KT 10SM OVC070 14/09 A3015 90 74 0 010/04 RMK AO2 T01390094
53988KBKB BKB20190101182010701/01/19 18:20:31  5-MIN KBKB 020020Z AUTO VRB03KT 10SM OVC070 14/09 A3015 90 74 0 VRB/03 RMK AO2 T01390094
53988KBKB BKB20190101182510701/01/19 18:25:31  5-MIN KBKB 020025Z AUTO 00000KT 10SM OVC075 14/09 A3015 90 74 0 000/00 RMK AO2 T01390094
53988KBKB BKB20190101183010701/01/19 18:30:31  5-MIN KBKB 020030Z AUTO VRB03KT 10SM OVC075 14/09 A3015 90 74 0 VRB/03 RMK AO2 T01390094
53988KBKB BKB20190101183510701/01/19 18:35:31  5-MIN KBKB 020035Z AUTO VRB03KT 10SM OVC075 14/09 A3015 90 74 0 VRB/03 RMK AO2 T01390094
53988KBKB BKB20190101184010701/01/19 18:40:31  5-MIN KBKB 020040Z AUTO VRB04KT 10SM BKN075 14/09 A3014 90 74 0 VRB/04 RMK AO2 T01390094
53988KBKB BKB20190101184510701/01/19 18:45:31  5-MIN KBKB 020045Z AUTO 04005KT 10SM BKN075 14/09 A3015 90 74 0 030/05 RMK AO2 T01390094
53988KBKB BKB20190101185011401/01/19 18:50:31  5-MIN KBKB 020050Z AUTO 00000KT 10SM BKN075 14/09 A3015 80 74 0 000/00 RMK AO2 SLP239 T01390094
53988KBKB BKB20190101185510701/01/19 18:55:31  5-MIN KBKB 020055Z AUTO VRB03KT 10SM BKN075 13/09 A3015 80 77 0 VRB/03 RMK AO2 T01330094
53988KBKB BKB20190101190010701/01/19 19:00:31  5-MIN KBKB 020100Z AUTO 00000KT 10SM BKN075 14/09 A3016 80 74 0 000/00 RMK AO2 T01390094
53988KBKB BKB20190101190510701/01/19 19:05:31  5-MIN KBKB 020105Z AUTO 00000KT 10SM BKN075 13/09 A3016 80 77 0 000/00 RMK AO2 T01330094
53988KBKB BKB20190101191010701/01/19 19:10:31  5-MIN KBKB 020110Z AUTO 00000KT 10SM BKN075 13/09 A3017 70 77 0 000/00 RMK AO2 T01330094
53988KBKB BKB20190101191510701/01/19 19:15:31  5-MIN KBKB 020115Z AUTO 00000KT 10SM OVC075 14/09 A3016 80 74 0 000/00 RMK AO2 T01390094
53988KBKB BKB20190101192011401/01/19 19:20:31  5-MIN KBKB 020120Z AUTO 00000KT 10SM FEW050 OVC075 13/09 A3017 70 77 0 000/00 RMK AO2 T01330094
53988KBKB BKB20190101192511401/01/19 19:25:31  5-MIN KBKB 020125Z AUTO VRB03KT 10SM SCT050 OVC075 13/09 A3017 70 77 0 VRB/03 RMK AO2 T01330094
53988KBKB BKB20190101193011401/01/19 19:30:31  5-MIN KBKB 020130Z AUTO VRB03KT 10SM BKN050 OVC075 13/09 A3017 70 77 0 VRB/03 RMK AO2 T01330094
53988KBKB BKB20190101193511401/01/19 19:35:31  5-MIN KBKB 020135Z AUTO 03003KT 10SM BKN050 OVC075 13/09 A3017 70 77 0 020/03 RMK AO2 T01330094
53988KBKB BKB20190101194011401/01/19 19:40:31  5-MIN KBKB 020140Z AUTO VRB03KT 10SM BKN050 OVC075 13/09 A3016 70 77 0 VRB/03 RMK AO2 T01330094
53988KBKB BKB20190101194511401/01/19 19:45:31  5-MIN KBKB 020145Z AUTO VRB03KT 10SM BKN050 OVC080 13/09 A3016 80 77 0 VRB/03 RMK AO2 T01330094
53988KBKB BKB20190101195012101/01/19 19:50:31  5-MIN KBKB 020150Z AUTO VRB03KT 10SM BKN050 OVC075 13/09 A3017 70 77 0 VRB/03 RMK AO2 SLP245 T01330094
53988KBKB BKB20190101195511401/01/19 19:55:31  5-MIN KBKB 020155Z AUTO VRB04KT 10SM BKN055 OVC080 13/09 A3017 70 77 0 VRB/04 RMK AO2 T01330094
53988KBKB BKB20190101200011401/01/19 20:00:31  5-MIN KBKB 020200Z AUTO VRB04KT 10SM BKN060 OVC080 13/09 A3018 60 77 0 VRB/04 RMK AO2 T01330094
53988KBKB BKB20190101200511401/01/19 20:05:31  5-MIN KBKB 020205Z AUTO VRB04KT 10SM BKN060 OVC080 13/09 A3017 70 77 0 VRB/04 RMK AO2 T01330094
53988KBKB BKB20190101201011401/01/19 20:10:31  5-MIN KBKB 020210Z AUTO VRB04KT 10SM BKN060 OVC080 13/09 A3016 70 77 0 VRB/04 RMK AO2 T01330094
53988KBKB BKB20190101201511401/01/19 20:15:31  5-MIN KBKB 020215Z AUTO VRB04KT 10SM BKN060 OVC080 13/09 A3017 70 77 0 VRB/04 RMK AO2 T01330094
53988KBKB BKB20190101202011401/01/19 20:20:31  5-MIN KBKB 020220Z AUTO 02004KT 10SM BKN060 OVC080 13/09 A3016 70 77 0 020/04 RMK AO2 T01330094
53988KBKB BKB20190101202511401/01/19 20:25:31  5-MIN KBKB 020225Z AUTO VRB04KT 10SM BKN060 OVC080 13/09 A3016 80 77 0 VRB/04 RMK AO2 T01330094
53988KBKB BKB20190101203011401/01/19 20:30:31  5-MIN KBKB 020230Z AUTO VRB04KT 10SM BKN060 OVC080 13/09 A3016 80 77 0 VRB/04 RMK AO2 T01330094
53988KBKB BKB20190101203511401/01/19 20:35:31  5-MIN KBKB 020235Z AUTO VRB05KT 10SM SCT060 OVC075 13/09 A3016 80 77 0 VRB/05 RMK AO2 T01330094
53988KBKB BKB20190101204011401/01/19 20:40:31  5-MIN KBKB 020240Z AUTO 03004KT 10SM FEW060 OVC075 13/09 A3016 80 77 0 020/04 RMK AO2 T01330094
53988KBKB BKB20190101204511701/01/19 20:45:31  5-MIN KBKB 020245Z AUTO VRB04KT 10SM SCT060 OVC075 13/09 A3016 80 80 -100 VRB/04 RMK AO2 T01280094
53988KBKB BKB20190101205013001/01/19 20:50:31  5-MIN KBKB 020250Z AUTO VRB03KT 10SM BKN060 OVC075 13/09 A3016 70 80 -100 VRB/03 RMK AO2 SLP488 T01280094 52009
53988KBKB BKB20190101205511701/01/19 20:55:31  5-MIN KBKB 020255Z AUTO VRB05KT 10SM BKN060 OVC075 13/09 A3017 70 80 -100 VRB/05 RMK AO2 T01280094
53988KBKB BKB20190101210011701/01/19 21:00:31  5-MIN KBKB 020300Z AUTO VRB03KT 10SM BKN060 OVC075 13/09 A3017 70 80 -100 VRB/03 RMK AO2 T01280094
53988KBKB BKB20190101210512401/01/19 21:05:31  5-MIN KBKB 020305Z AUTO 01005KT 10SM SCT050 BKN060 OVC075 13/09 A3017 70 80 -100 010/05 RMK AO2 T01280094
53988KBKB BKB20190101211010701/01/19 21:10:31  5-MIN KBKB 020310Z AUTO 10SM BKN050 OVC060 12/09 A3017 70 83 -200 M /M RMK AO2 T01220094
53988KBKB BKB20190101211511001/01/19 21:15:31  5-MIN KBKB 020315Z AUTO VRB04KT 10SM OVC055 12/09 A3017 70 83 -200 VRB/04 RMK AO2 T01220094
53988KBKB BKB20190101212011001/01/19 21:20:31  5-MIN KBKB 020320Z AUTO VRB05KT 10SM OVC050 12/09 A3017 70 83 -200 VRB/05 RMK AO2 T01220094
53988KBKB BKB20190101212511001/01/19 21:25:31  5-MIN KBKB 020325Z AUTO VRB04KT 10SM OVC050 12/09 A3017 70 83 -200 VRB/04 RMK AO2 T01220094
53988KBKB BKB20190101213011001/01/19 21:30:31  5-MIN KBKB 020330Z AUTO VRB03KT 10SM OVC050 12/09 A3016 80 83 -100 VRB/03 RMK AO2 T01220094
53988KBKB BKB20190101213511001/01/19 21:35:31  5-MIN KBKB 020335Z AUTO VRB03KT 10SM OVC050 12/09 A3017 70 83 -200 VRB/03 RMK AO2 T01220094
53988KBKB BKB20190101214011701/01/19 21:40:31  5-MIN KBKB 020340Z AUTO VRB04KT 10SM OVC050 12/09 A3019 50 83 -200 VRB/04 RMK AO2 PRESRR T01220094
53988KBKB BKB20190101214512401/01/19 21:45:31  5-MIN KBKB 020345Z AUTO 02004KT 10SM SCT017 OVC050 12/09 A3019 50 83 -200 010/04 RMK AO2 PRESRR T01220094
53988KBKB BKB20190101215010701/01/19 21:50:31  5-MIN KBKB 020350Z AUTO VRB03KT 10SM BKN017 OVC050 12/09 A3019 50 83 -200 VRB/03 RMK AO2
53988KBKB BKB20190101215511701/01/19 21:55:31  5-MIN KBKB 020355Z AUTO VRB05KT 10SM BKN017 OVC050 12/09 A3019 50 83 -200 VRB/05 RMK AO2 T01220094
53988KBKB BKB20190101220011701/01/19 22:00:31  5-MIN KBKB 020400Z AUTO VRB03KT 10SM BKN017 OVC050 12/09 A3020 40 83 -300 VRB/03 RMK AO2 T01170089
53988KBKB BKB20190101220512401/01/19 22:05:31  5-MIN KBKB 020405Z AUTO 29003KT 10SM BKN017 OVC049 12/09 A3022 20 83 -300 280/03 RMK AO2 PRESRR T01170089
53988KBKB BKB20190101221011701/01/19 22:10:31  5-MIN KBKB 020410Z AUTO VRB03KT 10SM BKN017 OVC049 12/09 A3021 30 83 -300 VRB/03 RMK AO2 T01170089
53988KBKB BKB20190101221511701/01/19 22:15:31  5-MIN KBKB 020415Z AUTO VRB04KT 10SM BKN017 OVC048 12/09 A3020 40 83 -300 VRB/04 RMK AO2 T01170089
53988KBKB BKB20190101222012401/01/19 22:20:31  5-MIN KBKB 020420Z AUTO VRB03KT 10SM BKN017 BKN048 OVC070 12/09 A3019 50 83 -200 VRB/03 RMK AO2 T01170089
53988KBKB BKB20190101222513101/01/19 22:25:31  5-MIN KBKB 020425Z AUTO VRB03KT 10SM SCT017 BKN048 OVC080 12/09 A3018 60 83 -200 VRB/03 RMK AO2 PRESFR T01170089
53988KBKB BKB20190101223012401/01/19 22:30:31  5-MIN KBKB 020430Z AUTO 00000KT 10SM SCT017 SCT050 OVC075 12/09 A3019 50 83 -200 000/00 RMK AO2 T01170089
53988KBKB BKB20190101223512401/01/19 22:35:31  5-MIN KBKB 020435Z AUTO VRB03KT 10SM FEW017 SCT048 OVC075 12/09 A3018 50 83 -200 VRB/03 RMK AO2 T01170089
53988KBKB BKB20190101224013901/01/19 22:40:31  5-MIN KBKB 020440Z AUTO VRB04KT 9SM -RA FEW017 BKN065 OVC080 11/09 A3018 60 86 -300 VRB/04 RMK AO2 RAB36 P0001 T01110089
53988KBKB BKB20190101224514201/01/19 22:45:31  5-MIN KBKB 020445Z AUTO VRB03KT 5SM +RA BR FEW047 BKN065 OVC080 11/09 A3016 70 93 -300 VRB/03 RMK AO2 RAB36 P0003 T01060094
53988KBKB BKB20190101225014901/01/19 22:50:31  5-MIN KBKB 020450Z AUTO 00000KT 6SM -RA BR FEW047 FEW055 OVC075 11/10 A3016 80 96 -300 000/00 RMK AO2 RAB36 SLP243 P0003 T01060100
53988KBKB BKB20190101225513401/01/19 22:55:31  5-MIN KBKB 020455Z AUTO VRB03KT 10SM -RA FEW047 SCT060 OVC075 11/10 A3016 80 96 -300 VRB/03 RMK AO2 P0000 T01060100
53988KBKB BKB20190101230013801/01/19 23:00:31  5-MIN KBKB 020500Z AUTO 04003KT 10SM FEW047 BKN060 OVC070 11/10 A3016 80 96 -300 030/03 RMK AO2 RAE0459 P0000 T01060100
53988KBKB BKB20190101230513101/01/19 23:05:31  5-MIN KBKB 020505Z AUTO VRB03KT 10SM BKN060 OVC070 11/10 A3016 80 96 -300 VRB/03 RMK AO2 RAE0459 P0000 T01060100
53988KBKB BKB20190101231013101/01/19 23:10:31  5-MIN KBKB 020510Z AUTO VRB03KT 10SM BKN050 OVC070 11/10 A3016 80 96 -300 VRB/03 RMK AO2 RAE0459 P0000 T01060100
53988KBKB BKB20190101231512701/01/19 23:15:31  5-MIN KBKB 020515Z AUTO 36003KT 10SM -RA BKN050 OVC070 11/10 A3015 80 96 -300 350/03 RMK AO2 P0000 T01060100
53988KBKB BKB20190101232012701/01/19 23:20:31  5-MIN KBKB 020520Z AUTO VRB03KT 10SM -RA BKN050 OVC060 11/10 A3016 70 96 -300 VRB/03 RMK AO2 P0000 T01060100
53988KBKB BKB20190101232512901/01/19 23:25:31  5-MIN KBKB 020525Z AUTO VRB03KT 10SM BKN046 OVC055 11/10 A3017 70 96 -400 VRB/03 RMK AO2 RAE23 P0000 T01060100
53988KBKB BKB20190101233007201/01/19 23:30:31  5-MIN KBKB 020530Z AUTO 00000KT 9SM -RA OVC048 11/10 
53988KBKB BKB20190102055015001/02/19 05:50:31  5-MIN KBKB 021150Z AUTO 02005KT 5SM BR OVC004 09/09 A3011 120 96 -400 010/05 RMK AO2 SLP470 60000 70004 T00940089 10106 20094 50006
53988KBKB BKB20190102055511301/02/19 05:55:31  5-MIN KBKB 021155Z AUTO VRB05KT 5SM BR OVC004 09/09 A3011 120 96 -400 VRB/05 RMK AO2 T00940089
53988KBKB BKB20190102060011301/02/19 06:00:31  5-MIN KBKB 021200Z AUTO VRB05KT 6SM BR OVC004 09/09 A3012 120 96 -400 VRB/05 RMK AO2 T00940089
53988KBKB BKB20190102060511301/02/19 06:05:31  5-MIN KBKB 021205Z AUTO VRB06KT 6SM BR OVC004 09/09 A3011 120 96 -400 VRB/06 RMK AO2 T00940089
53988KBKB BKB20190102061011301/02/19 06:10:31  5-MIN KBKB 021210Z AUTO 02006KT 6SM BR OVC004 09/09 A3012 120 96 -400 020/06 RMK AO2 T00940089
53988KBKB BKB20190102061511301/02/19 06:15:31  5-MIN KBKB 021215Z AUTO VRB04KT 6SM BR OVC004 09/09 A3012 110 96 -400 VRB/04 RMK AO2 T00940089
53988KBKB BKB20190102062011001/02/19 06:20:31  5-MIN KBKB 021220Z AUTO VRB03KT 7SM OVC004 09/09 A3011 120 96 -400 VRB/03 RMK AO2 T00940089
53988KBKB BKB20190102062511001/02/19 06:25:31  5-MIN KBKB 021225Z AUTO VRB05KT 7SM OVC004 09/09 A3012 110 96 -400 VRB/05 RMK AO2 T00940089
53988KBKB BKB20190102063011001/02/19 06:30:31  5-MIN KBKB 021230Z AUTO 00000KT 7SM OVC004 09/09 A3013 100 96 -400 000/00 RMK AO2 T00940089
53988KBKB BKB20190102063511001/02/19 06:35:31  5-MIN KBKB 021235Z AUTO VRB05KT 7SM OVC004 09/09 A3013 100 96 -400 VRB/05 RMK AO2 T00940089
53988KBKB BKB20190102064011001/02/19 06:40:31  5-MIN KBKB 021240Z AUTO VRB04KT 7SM OVC004 09/09 A3013 110 96 -400 VRB/04 RMK AO2 T00940089
53988KBKB BKB20190102064511001/02/19 06:45:31  5-MIN KBKB 021245Z AUTO VRB04KT 8SM OVC004 09/09 A3013 110 96 -400 VRB/04 RMK AO2 T00940089
53988KBKB BKB20190102065011701/02/19 06:50:31  5-MIN KBKB 021250Z AUTO VRB05KT 9SM OVC004 09/09 A3013 100 96 -500 VRB/05 RMK AO2 SLP478 T00940089
53988KBKB BKB20190102065511001/02/19 06:55:31  5-MIN KBKB 021255Z AUTO VRB03KT 9SM OVC004 09/09 A3013 100 96 -400 VRB/03 RMK AO2 T00940089
53988KBKB BKB20190102070011001/02/19 07:00:31  5-MIN KBKB 021300Z AUTO VRB04KT 9SM OVC004 09/09 A3014 100 96 -500 VRB/04 RMK AO2 T00940089
53988KBKB BKB20190102070510901/02/19 07:05:31  5-MIN KBKB 021305Z AUTO VRB06KT 9SM OVC004 09/09 A3015 90 96 -500 VRB/06 RMK AO2 T00940089
53988KBKB BKB20190102071011001/02/19 07:10:31  5-MIN KBKB 021310Z AUTO VRB04KT 8SM OVC004 09/09 A3013 100 96 -500 VRB/04 RMK AO2 T00940089
53988KBKB BKB20190102071511001/02/19 07:15:31  5-MIN KBKB 021315Z AUTO VRB06KT 7SM OVC004 09/09 A3014 100 96 -500 VRB/06 RMK AO2 T00940089
53988KBKB BKB20190102072011201/02/19 07:20:31  5-MIN KBKB 021320Z AUTO 01005KT 6SM BR OVC004 09/09 A3014 90 96 -500 010/05 RMK AO2 T00940089
53988KBKB BKB20190102072511201/02/19 07:25:31  5-MIN KBKB 021325Z AUTO 02004KT 5SM BR OVC004 09/09 A3016 80 96 -500 020/04 RMK AO2 T00940089
53988KBKB BKB20190102073012801/02/19 07:30:31  5-MIN KBKB 021330Z AUTO VRB04KT 3SM -RA BR OVC004 09/09 A3016 80 96 -500 VRB/04 RMK AO2 RAB29 P0000 T00940089
53988KBKB BKB20190102073512901/02/19 07:35:31  5-MIN KBKB 021335Z AUTO VRB06KT 2SM -RA BR OVC004 09/09 A3015 80 100 -500 VRB/06 RMK AO2 RAB29 P0000 T00890089
53988KBKB BKB20190102074012901/02/19 07:40:31  5-MIN KBKB 021340Z AUTO VRB06KT 2SM -RA BR OVC004 09/09 A3015 80 100 -500 VRB/06 RMK AO2 RAB29 P0000 T00890089
53988KBKB BKB20190102074512901/02/19 07:45:31  5-MIN KBKB 021345Z AUTO VRB03KT 2SM -RA BR OVC004 09/09 A3016 80 100 -500 VRB/03 RMK AO2 RAB29 P0001 T00890089
53988KBKB BKB20190102075015201/02/19 07:50:31  5-MIN KBKB 021350Z AUTO VRB05KT 2 1/2SM -RA BR OVC004 09/09 A3015 80 100 -500 VRB/05 RMK AO2 RAB29 CIG 003V008 SLP240 P0001 T00890089
53988KBKB BKB20190102075513901/02/19 07:55:31  5-MIN KBKB 021355Z AUTO VRB05KT 2 1/2SM -RA BR OVC004 09/09 A3015 80 100 -500 VRB/05 RMK AO2 CIG 003V008 P0000 T00890089
53988KBKB BKB20190102080013501/02/19 08:00:31  5-MIN KBKB 021400Z AUTO VRB03KT 3SM -RA BR OVC004 09/09 A3015 80 100 -500 VRB/03 RMK AO2 CIG 003V008 P0000 T00890089
53988KBKB BKB20190102080513401/02/19 08:05:31  5-MIN KBKB 021405Z AUTO 03007KT 2SM RA BR OVC004 09/09 A3015 90 100 -500 030/07 RMK AO2 CIG 003V008 P0001 T00890089
53988KBKB BKB20190102081013101/02/19 08:10:31  5-MIN KBKB 021410Z AUTO VRB04KT 1 1/2SM RA BR OVC00OVC004 09/09 A3016 70 100 -600 020/04 RMK AO2 P0006 T00890089
53988KBKB BKB20190102083512701/02/19 08:35:31  5-MIN KBKB 021435Z AUTO VRB03KT 2 1/2SM -RA BR OVC004 09/09 A3017 70 100 -600 VRB/03 RMK AO2 P0007 T00890089
53988KBKB BKB20190102084012201/02/19 08:40:31  5-MIN KBKB 021440Z AUTO VRB03KT 3SM RA BR OVC004 09/09 A3016 70 100 -600 VRB/03 RMK AO2 P0008 T00890089
53988KBKB BKB20190102084512301/02/19 08:45:31  5-MIN KBKB 021445Z AUTO 00000KT 3SM -RA BR OVC004 09/09 A3016 80 100 -500 000/00 RMK AO2 P0008 T00890089
53988KBKB BKB20190102085011301/02/19 08:50:31  5-MIN KBKB 021450Z AUTO VRB04KT 3SM -RA BR OVC005 09/09 A3015 80 100 -500 VRB/04 RMK AO2 P0009
53988KBKB BKB20190102085512301/02/19 08:55:31  5-MIN KBKB 021455Z AUTO 03004KT 3SM -RA BR OVC005 09/09 A3015 80 100 -500 020/04 RMK AO2 P0000 T00890089
53988KBKB BKB20190102090013501/02/19 09:00:31  5-MIN KBKB 021500Z AUTO VRB06KT 4SM -RA BR OVC005 09/09 A3015 90 100 -500 VRB/06 RMK AO2 CIG 003V009 P0000 T00890089
53988KBKB BKB20190102090513401/02/19 09:05:31  5-MIN KBKB 021505Z AUTO VRB05KT 5SM -RA BR OVC005 09/08 A3015 90 96 -500 VRB/05 RMK AO2 CIG 003V011 P0001 T00890083
53988KBKB BKB20190102091013501/02/19 09:10:31  5-MIN KBKB 021510Z AUTO VRB05KT 5SM -RA BR OVC005 09/09 A3015 80 100 -500 VRB/05 RMK AO2 CIG 003V009 P0001 T00890089
53988KBKB BKB20190102091513501/02/19 09:15:31  5-MIN KBKB 021515Z AUTO VRB05KT 5SM -RA BR OVC005 09/09 A3015 80 100 -500 VRB/05 RMK AO2 CIG 003V009 P0001 T00890089
53988KBKB BKB20190102092013201/02/19 09:20:31  5-MIN KBKB 021520Z AUTO VRB03KT 7SM -RA OVC007 09/09 A3015 80 100 -500 VRB/03 RMK AO2 CIG 004V009 P0001 T00890089
53988KBKB BKB20190102092513201/02/19 09:25:31  5-MIN KBKB 021525Z AUTO 00000KT 9SM -RA OVC007 09/09 A3017 70 100 -600 000/00 RMK AO2 CIG 005V009 P0002 T00890089
53988KBKB BKB20190102093013201/02/19 09:30:31  5-MIN KBKB 021530Z AUTO VRB03KT 9SM -RA OVC007 09/09 A3016 70 100 -600 VRB/03 RMK AO2 CIG 005V009 P0002 T00890089
53988KBKB BKB20190102093512001/02/19 09:35:31  5-MIN KBKB 021535Z AUTO VRB03KT 9SM -RA OVC007 09/09 A3016 80 100 -500 VRB/03 RMK AO2 P0002 T00890089
53988KBKB BKB20190102094012001/02/19 09:40:31  5-MIN KBKB 021540Z AUTO 05003KT 8SM -RA OVC006 09/09 A3016 80 100 -500 040/03 RMK AO2 P0002 T00890089
53988KBKB BKB20190102094512001/02/19 09:45:31  5-MIN KBKB 021545Z AUTO 05005KT 7SM -RA OVC006 09/09 A3015 80 100 -500 040/05 RMK AO2 P0002 T00890089
53988KBKB BKB20190102095014101/02/19 09:50:31  5-MIN KBKB 021550Z AUTO VRB06KT 5SM RA BR OVC006 09/09 A3015 90 100 -500 VRB/06 RMK AO2 CIG 005V009 SLP238 P0004 T00890089
53988KBKB BKB20190102095513501/02/19 09:55:31  5-MIN KBKB 021555Z AUTO VRB03KT 4SM RA BR OVC006 09/09 A3014 100 100 -500 VRB/03 RMK AO2 CIG 005V010 P0001 T00890089
53988KBKB BKB20190102100013501/02/19 10:00:31  5-MIN KBKB 021600Z AUTO VRB03KT 3SM RA BR OVC006 09/09 A3014 100 100 -500 VRB/03 RMK AO2 CIG 004V008 P0002 T00890089
53988KBKB BKB20190102100513501/02/19 10:05:31  5-MIN KBKB 021605Z AUTO VRB04KT 3SM RA BR OVC006 09/09 A3014 100 100 -500 VRB/04 RMK AO2 CIG 004V010 P0003 T00890089
53988KBKB BKB20190102101013501/02/19 10:10:31  5-MIN KBKB 021610Z AUTO VRB03KT 3SM RA BR OVC006 09/09 A3013 100 100 -500 VRB/03 RMK AO2 CIG 004V010 P0004 T00890089
53988KBKB BKB20190102101513501/02/19 10:15:31  5-MIN KBKB 021615Z AUTO VRB03KT 3SM RA BR OVC006 09/09 A3014 100 100 -500 VRB/03 RMK AO2 CIG 004V010 P0005 T00890089
53988KBKB BKB20190102102014201/02/19 10:20:31  5-MIN KBKB 021620Z AUTO VRB03KT 3SM RA BR BKN006 OVC010 09/09 A3013 100 100 -500 VRB/03 RMK AO2 CIG 004V008 P0006 T00890089
53988KBKB BKB20190102102514301/02/19 10:25:31  5-MIN KBKB 021625Z AUTO VRB03KT 4SM -RA BR BKN006 OVC010 09/09 A3014 100 100 -500 VRB/03 RMK AO2 CIG 004V008 P0006 T00890089
53988KBKB BKB20190102103013501/02/19 10:30:31  5-MIN KBKB 021630Z AUTO VRB03KT 6SM -RA BR OVC006 09/09 A3014 90 100 -500 VRB/03 RMK AO2 CIG 004V011 P0007 T00890089
53988KBKB BKB20190102103513601/02/19 10:35:31  5-MIN KBKB 021635Z AUTO VRB03KT 6SM -RA BR OVC006 09/09 A3014 100 100 -500 VRB/03 RMK AO2 CIG 004V008 P0007 T00890089
53988KBKB BKB20190102104013101/02/19 10:40:31  5-MIN KBKB 021640Z AUTO VRB03KT 5SM -RA BR BKN006 OVC010 09/09 A3014 100 100 -500 VRB/03 RMK AO2 P0008 T00890089
53988KBKB BKB20190102104512701/02/19 10:45:31  5-MIN KBKB 021645Z AUTO 35003KT 2 1/2SM RA BR OVC006 09/09 A3014 100 100 -500 350/03 RMK AO2 P0010 T00890089
53988KBKB BKB20190102105012401/02/19 10:50:31  5-MIN KBKB 021650Z AUTO 01003KT 2SM RA BR OVC006 09/09 A3014 90 100 -500 360/03 RMK AO2 VIS 1 1/2V3 P0012
53988KBKB BKB20190102105512301/02/19 10:55:31  5-MIN KBKB 021655Z AUTO VRB03KT 2SM RA BR OVC006 09/09 A3014 100 100 -500 VRB/03 RMK AO2 P0001 T00890089
53988KBKB BKB20190102110012701/02/19 11:00:31  5-MIN KBKB 021700Z AUTO VRB03KT 2 1/2SM RA BR OVC006 09/09 A3014 100 100 -500 VRB/03 RMK AO2 P0003 T00890089
53988KBKB BKB20190102110512601/02/19 11:05:31  5-MIN KBKB 021705Z AUTO VRB03KT 2 1/2SM RA BR OVC008 09/09 A3014 90 100 -500 VRB/03 RMK AO2 P0004 T00890089
53988KBKB BKB20190102111012301/02/19 11:10:31  5-MIN KBKB 021710Z AUTO VRB04KT 3SM RA BR OVC008 09/09 A3014 100 100 -500 VRB/04 RMK AO2 P0005 T00890089
53988KBKB BKB20190102111513601/02/19 11:15:31  5-MIN KBKB 021715Z AUTO VRB03KT 2SM RA BR SCT006 BKN010 OVC017 09/08 A3013 100 96 -500 VRB/03 RMK AO2 P0008 T00890083
53988KBKB BKB20190102112013001/02/19 11:20:31  5-MIN KBKB 021720Z AUTO VRB06KT 2SM RA BR BKN008 OVC017 09/09 A3012 110 100 -500 VRB/06 RMK AO2 P0010 T00890089
53988KBKB BKB20190102112513701/02/19 11:25:31  5-MIN KBKB 021725Z AUTO 01003KT 2SM RA BR FEW005 BKN011 OVC022 09/09 A3012 110 100 -500 360/03 RMK AO2 P0012 T00890089
53988KBKB BKB20190102113013701/02/19 11:30:31  5-MIN KBKB 021730Z AUTO VRB03KT 2SM RA BR SCT005 BKN011 OVC016 09/09 A3012 110 100 -500 VRB/03 RMK AO2 P0014 T00890089
53988KBKB BKB20190102113513401/02/19 11:35:31  5-MIN KBKB 021735Z AUTO VRB03KT 1 1/2SM +RA BR BKN007 OVC020 09/08 A3012 120 96 -500 VRB/03 RMK AO2 P0018 T00890083
53988KBKB BKB20190102114013501/02/19 11:40:31  5-MIN KBKB 021740Z AUTO VRB03KT 1 1/4SM +RA BR BKN007 OVC020 09/09 A3011 130 100 -500 VRB/03 RMK AO2 P0021 T00890089
53988KBKB BKB20190102114513401/02/19 11:45:31  5-MIN KBKB 021745Z AUTO VRB05KT 1 1/4SM +RA BR BKN007 OVC020 09/08 A3010 130 96 -500 VRB/05 RMK AO2 P0024 T00890083
53988KBKB BKB20190102115017301/02/19 11:50:31  5-MIN KBKB 021750Z AUTO VRB04KT 1 1/4SM +RA BR FEW004 BKN009 OVC020 08/08 A3010 140 100 -500 VRB/04 RMK AO2 SLP222 P0028 60056 T00830083 10094 20083 50013
53988KBKB BKB20190102115514901/02/19 11:55:31  5-MIN KBKB 021755Z AUTO VRB04KT 1 1/4SM +RA BR FEW004 BKN009 OVC020 08/08 A3009 140 100 -500 VRB/04 RMK AO2 PRESFR P0001 T00830083
53988KBKB BKB20190102120013501/02/19 12:00:31  5-MIN KBKB 021800Z AUTO VRB06KT 1 1/2SM +RA BR BKN007 OVC020 08/08 A3009 150 100 -500 VRB/06 RMK AO2 P0004 T00830083
53988KBKB BKB20190102120512701/02/19 12:05:31  5-MIN KBKB 021805Z AUTO VRB03KT 1 3/4SM RA BR OVC007 08/08 A3008 150 100 -500 VRB/03 RMK AO2 P0006 T00830083
53988KBKB BKB20190102121012601/02/19 12:10:31  5-MIN KBKB 021810Z AUTO VRB04KT 2 1/2SM RA BR OVC007 09/08 A3008 150 96 -500 VRB/04 RMK AO2 P0007 T00890083
53988KBKB BKB20190102121512201/02/19 12:15:31  5-MIN KBKB 021815Z AUTO VRB04KT 3SM RA BR OVC007 09/08 A3007 160 96 -400 VRB/04 RMK AO2 P0008 T00890083
53988KBKB BKB20190102122011301/02/19 12:20:31  5-MIN KBKB 021820Z AUTO 4SM RA BR OVC007 09/09 A3007 160 100 -400 M /M RMK AO2 P0009 T00890089
53988KBKB BKB20190102122512201/02/19 12:25:31  5-MIN KBKB 021825Z AUTO VRB04KT 3SM RA BR OVC007 09/08 A3007 160 96 -400 VRB/04 RMK AO2 P0010 T00890083
53988KBKB BKB20190102123012901/02/19 12:30:31  5-MIN KBKB 021830Z AUTO VRB03KT 3SM RA BR BKN006 OVC017 09/08 A3007 160 96 -400 VRB/03 RMK AO2 P0011 T00890083
53988KBKB BKB20190102123512701/02/19 12:35:31  5-MIN KBKB 021835Z AUTO 00000KT 2 1/2SM RA BR OVC006 09/09 A3007 160 100 -400 000/00 RMK AO2 P0013 T00890089
53988KBKB BKB20190102124012601/02/19 12:40:31  5-MIN KBKB 021840Z AUTO VRB05KT 1 3/4SM RA BR OVC006 09/08 A3006 170 96 -400 VRB/05 RMK AO2 P0015 T00890083
53988KBKB BKB20190102124512301/02/19 12:45:31  5-MIN KBKB 021845Z AUTO VRB03KT 2SM RA BR OVC006 09/09 A3006 170 100 -400 VRB/03 RMK AO2 P0016 T00890089
53988KBKB BKB20190102125012901/02/19 12:50:31  5-MIN KBKB 021850Z AUTO VRB04KT 2SM RA BR OVC006 09/08 A3006 170 96 -400 VRB/04 RMK AO2 SLP207 P0017 T00890083
53988KBKB BKB20190102125512601/02/19 12:55:31  5-MIN KBKB 021855Z AUTO VRB05KT 1 1/2SM RA BR OVC006 09/08 A3005 180 96 -400 VRB/05 RMK AO2 P0000 T00890083
53988KBKB BKB20190102130012601/02/19 13:00:31  5-MIN KBKB 021900Z AUTO VRB05KT 1 1/4SM RA BR OVC008 09/08 A3005 180 96 -400 VRB/05 RMK AO2 P0002 T00890083
53988KBKB BKB20190102130513401/02/19 13:05:31  5-MIN KBKB 021905Z AUTO VRB04KT 1 1/2SM -RA BR SCT005 OVC008 09/08 A3004 190 96 -400 VRB/04 RMK AO2 P0002 T00890083
53988KBKB BKB20190102131013701/02/19 13:10:31  5-MIN KBKB 021910Z AUTO VRB04KT 2SM -RA BR SCT005 BKN008 OVC017 09/08 A3004 190 96 -400 VRB/04 RMK AO2 P0003 T00890083
53988KBKB BKB20190102131513701/02/19 13:15:31  5-MIN KBKB 021915Z AUTO VRB05KT 2SM -RA BR FEW005 BKN008 OVC017 09/08 A3003 200 96 -400 VRB/05 RMK AO2 P0004 T00890083
53988KBKB BKB20190102132014801/02/19 13:20:31  5-MIN KBKB 021920Z AUTO VRB04KT 2 1/2SM -RA BR SCT006 BKN011 OVC017 09/08 A3002 210 96 -400 VRB/04 RMK AO2 PRESFR P0004 T00890083
53988KBKB BKB20190102132514101/02/19 13:25:31  5-MIN KBKB 021925Z AUTO VRB03KT 2 1/2SM -RA BR SCT006 BKN011 OVC017 09/08 A3002 210 96 -400 VRB/03 RMK AO2 P0005 T00890083
53988KBKB BKB20190102133014101/02/19 13:30:31  5-MIN KBKB 021930Z AUTO VRB04KT 2 1/2SM -RA BR BKN006 BKN011 OVC018 09/08 A3002 200 96 -400 VRB/04 RMK AO2 P0006 T00890083
53988KBKB BKB20190102133513701/02/19 13:35:31  5-MIN KBKB 021935Z AUTO 01005KT 6SM -RA BR BKN006 BKN011 OVC018 09/08 A3003 200 96 -400 010/05 RMK AO2 P0006 T00890083
53988KBKB BKB20190102134012801/02/19 13:40:31  5-MIN KBKB 021940Z AUTO VRB04KT 10SM -RA BKN006 OVC018 09/08 A3004 190 96 -400 VRB/04 RMK AO2 P0006 T00890083
53988KBKB BKB20190102134512801/02/19 13:45:31  5-MIN KBKB 021945Z AUTO VRB03KT 10SM -RA BKN006 OVC016 09/08 A3004 190 96 -400 VRB/03 RMK AO2 P0006 T00890083
53988KBKB BKB20190102135012901/02/19 13:50:31  5-MIN KBKB 021950Z AUTO VRB03KT 10SM -RA OVC006 09/09 A3005 180 100 -400 VRB/03 RMK AO2 SLP205 P0006 T00890089
53988KBKB BKB20190102135513201/02/19 13:55:31  5-MIN KBKB 021955Z AUTO VRB04KT 9SM -RA OVC006 09/08 A3005 180 96 -400 VRB/04 RMK AO2 CIG 004V009 P0000 T00890083
53988KBKB BKB20190102140012301/02/19 14:00:31  5-MIN KBKB 022000Z AUTO VRB04KT 6SM -RA BR OVC006 09/08 A3005 180 96 -400 VRB/04 RMK AO2 P0000 T00890083
53988KBKB BKB20190102140512501/02/19 14:05:31  5-MIN KBKB 022005Z AUTO VRB04KT 6SM BR OVC006 09/08 A3004 190 96 -400 VRB/04 RMK AO2 RAE04 P0000 T00890083
53988KBKB BKB20190102141012301/02/19 14:10:31  5-MIN KBKB 022010Z AUTO VRB03KT 6SM -RA BR OVC005 09/08 A3005 180 96 -400 VRB/03 RMK AO2 P0001 T00890083
53988KBKB BKB20190102141512301/02/19 14:15:31  5-MIN KBKB 022015Z AUTO 01005KT 3SM RA BR OVC005 08/08 A3005 180 100 -500 360/05 RMK AO2 P0003 T00830083
53988KBKB BKB20190102142013701/02/19 14:20:31  5-MIN KBKB 022020Z AUTO VRB06KT 2SM RA BR BKN005 BKN009 OVC015 08/08 A3004 190 100 -500 VRB/06 RMK AO2 P0005 T00830083
53988KBKB BKB20190102142513701/02/19 14:25:31  5-MIN KBKB 022025Z AUTO 03005KT 3SM RA BR BKN005 BKN011 OVC018 08/08 A3003 190 100 -500 020/05 RMK AO2 P0006 T00830083
53988KBKB BKB20190102143013801/02/19 14:30:31  5-MIN KBKB 022030Z AUTO 01006KT 4SM -RA BR SCT007 BKN010 OVC020 08/08 A3003 200 100 -500 010/06 RMK AO2 P0007 T00830083
53988KBKB BKB20190102143513701/02/19 14:35:31  5-MIN KBKB 022035Z AUTO VRB03KT 3SM RA BR SCT007 BKN010 OVC020 08/08 A3002 200 100 -500 VRB/03 RMK AO2 P0008 T00830083
53988KBKB BKB20190102144014801/02/19 14:40:31  5-MIN KBKB 022040Z AUTO 02006KT 2 1/2SM RA BR SCT006 BKN010 OVC018 08/08 A3002 210 100 -500 020/06 RMK AO2 PRESFR P0010 T00830083
53988KBKB BKB20190102144514101/02/19 14:45:31  5-MIN KBKB 022045Z AUTO 03006KT 2 1/2SM RA BR BKN006 BKN014 OVC021 08/08 A3002 200 100 -500 030/06 RMK AO2 P0011 T00830083
53988KBKB BKB20190102145012701/02/19 14:50:31  5-MIN KBKB 022050Z AUTO VRB06KT 3SM RA BR BKN006 BKN015 OVC021 08/08 A3002 210 100 -500 VRB/06 RMK AO2 P0013
53988KBKB BKB20190102145514501/02/19 14:55:31  5-MIN KBKB 022055Z AUTO 03007KT 360V060 2SM RA BR BKN008 OVC021 08/08 A3001 220 96 -400 030/07 360V060 RMK AO2 P0000 T00830078
53988KBKB BKB20190102150014201/02/19 15:00:31  5-MIN KBKB 022100Z AUTO VRB04KT 2SM RA BR BKN008 OVC021 08/08 A3001 210 100 -400 VRB/04 RMK AO2 VIS 1 1/2V3 P0002 T00830083
53988KBKB BKB20190102150514201/02/19 15:05:31  5-MIN KBKB 022105Z AUTO 05006KT 2 1/2SM +RA BR BKN008 BKN011 OVC022 08/08 A3001 220 100 -400 040/06 RMK AO2 P0005 T00830083
53988KBKB BKB20190102151013101/02/19 15:10:31  5-MIN KBKB 022110Z AUTO VRB05KT 2SM +RA BR BKN008 OVC027 08/08 A3001 210 100 -400 VRB/05 RMK AO2 P0008 T00830083
53988KBKB BKB20190102151512801/02/19 15:15:31  5-MIN KBKB 022115Z AUTO VRB04KT 1 3/4SM +RA BR OVC008 08/08 A3003 200 100 -500 VRB/04 RMK AO2 P0011 T00830083
53988KBKB BKB20190102152012901/02/19 15:20:31  5-MIN KBKB 022120Z AUTO VRB04KT 2SM RA BR OVC008 08/08 A3004 190 96 -500 VRB/04 RMK AO2 PRESRR P0012 T00830078
53988KBKB BKB20190102152514001/02/19 15:25:31  5-MIN KBKB 022125Z AUTO 36005KT 1 3/4SM +RA BR OVC008 08/08 A3004 190 100 -500 360/05 RMK AO2 VIS 1 1/4V3 P0015 T00830083
53988KBKB BKB20190102153012301/02/19 15:30:31  5-MIN KBKB 022130Z AUTO 00000KT 2SM RA BR OVC008 08/08 A3005 180 100 -500 000/00 RMK AO2 P0016 T00830083
53988KBKB BKB20190102153511701/02/19 15:35:31  5-MIN KBKB 022135Z AUTO 2 1/2SM RA BR OVC008 08/08 A3004 180 100 -500 M /M RMK AO2 P0018 T00830083
53988KBKB BKB20190102154013401/02/19 15:40:31  5-MIN KBKB 022140Z AUTO VRB03KT 1 3/4SM +RA BR SCT008 OVC011 08/08 A3003 200 96 -500 VRB/03 RMK AO2 P0021 T00830078
53988KBKB BKB20190102154514201/02/19 15:45:31  5-MIN KBKB 022145Z AUTO VRB04KT 1 3/4SM +RA BR SCT008 BKN015 OVC037 08/08 A3003 200 100 -500 VRB/04 RMK AO2 P0024 T00830083
53988KBKB BKB20190102155012601/02/19 15:50:31  5-MIN KBKB 022150Z AUTO VRB04KT 2SM RA BR SCT006 BKN013 OVC037 08/08 A3004 190 96 -500 VRB/04 RMK AO2 P0025
53988KBKB BKB20190102155513701/02/19 15:55:31  5-MIN KBKB 022155Z AUTO VRB04KT 3SM -RA BR SCT006 BKN015 OVC037 08/08 A3005 180 96 -500 VRB/04 RMK AO2 P0000 T00830078
53988KBKB BKB20190102160014101/02/19 16:00:31  5-MIN KBKB 022200Z AUTO 03007KT 1 3/4SM +RA BR SCT006 BKN015 OVC038 08/08 A3004 190 96 -500 020/07 RMK AO2 P0004 T00830078
53988KBKB BKB20190102160515701/02/19 16:05:31  5-MIN KBKB 022205Z AUTO 01007KT 320V030 1 3/4SM RA BR FEW006 BKN017 OVC038 08/08 A3004 190 100 -500 360/07 320V030 RMK AO2 P0005 T00780078
53988KBKB BKB20190102161014101/02/19 16:10:31  5-MIN KBKB 022210Z AUTO VRB05KT 2 1/2SM RA BR FEW006 SCT016 OVC038 08/08 A3004 190 100 -500 VRB/05 RMK AO2 P0006 T00780078
53988KBKB BKB20190102161513801/02/19 16:15:31  5-MIN KBKB 022215Z AUTO VRB03KT 4SM -RA BR SCT006 SCT016 OVC038 08/08 A3005 180 100 -600 VRB/03 RMK AO2 P0006 T00780078
53988KBKB BKB20190102162013701/02/19 16:20:31  5-MIN KBKB 022220Z AUTO VRB03KT 3SM RA BR FEW006 BKN020 OVC038 08/08 A3005 180 100 -600 VRB/03 RMK AO2 P0007 T00780078
53988KBKB BKB20190102162514201/02/19 16:25:31  5-MIN KBKB 022225Z AUTO VRB04KT 1 3/4SM +RA BR FEW006 BKN020 OVC038 08/08 A3005 180 100 -600 VRB/04 RMK AO2 P0010 T00780078
53988KBKB BKB20190102163014101/02/19 16:30:31  5-MIN KBKB 022230Z AUTO VRB04KT 1 3/4SM -RA BR FEW006 BKN026 OVC038 08/08 A3005 180 96 -500 VRB/04 RMK AO2 P0011 T00830078
53988KBKB BKB20190102163514201/02/19 16:35:31  5-MIN KBKB 022235Z AUTO VRB04KT 2 1/2SM -RA BR FEW006 BKN026 OVC038 08/08 A3006 170 100 -600 VRB/04 RMK AO2 P0011 T00780078
53988KBKB BKB20190102164013501/02/19 16:40:31  5-MIN KBKB 022240Z AUTO VRB04KT 2 1/2SM -RA BR FEW006 OVC024 08/08 A3006 170 100 -600 VRB/04 RMK AO2 P0012 T00780078
53988KBKB BKB20190102164513401/02/19 16:45:31  5-MIN KBKB 022245Z AUTO VRB03KT 1 3/4SM RA BR FEW006 OVC022 08/08 A3006 170 100 -600 VRB/03 RMK AO2 P0014 T00780078
53988KBKB BKB20190102165014201/02/19 16:50:31  5-MIN KBKB 022250Z AUTO VRB03KT 1 3/4SM -RA BR FEW006 OVC022 08/08 A3006 170 100 -600 VRB/03 RMK AO2 SLP208 P0015 T00780078
53988KBKB BKB20190102165513501/02/19 16:55:31  5-MIN KBKB 022255Z AUTO 00000KT 2 1/2SM -RA BR FEW006 OVC024 08/08 A3006 170 100 -600 000/00 RMK AO2 P0000 T00780078
53988KBKB BKB20190102170013101/02/19 17:00:31  5-MIN KBKB 022300Z AUTO 02003KT 4SM -RA BR FEW006 OVC026 08/08 A3006 170 100 -600 020/03 RMK AO2 P0000 T00780078
53988KBKB BKB20190102170513101/02/19 17:05:31  5-MIN KBKB 022305Z AUTO VRB05KT 4SM -RA BR FEW005 OVC026 08/08 A3006 170 100 -600 VRB/05 RMK AO2 P0001 T00780078
53988KBKB BKB20190102171013101/02/19 17:10:31  5-MIN KBKB 022310Z AUTO 05005KT 4SM -RA BR FEW005 OVC028 08/08 A3005 180 100 -600 040/05 RMK AO2 P0002 T00780078
53988KBKB BKB20190102171513101/02/19 17:15:31  5-MIN KBKB 022315Z AUTO VRB06KT 4SM -RA BR FEW005 OVC028 08/08 A3005 180 100 -600 VRB/06 RMK AO2 P0002 T00780078
53988KBKB BKB20190102172013101/02/19 17:20:31  5-MIN KBKB 022320Z AUTO VRB03KT 4SM -RA BR FEW005 OVC028 08/08 A3004 180 100 -600 VRB/03 RMK AO2 P0003 T00780078
53988KBKB BKB20190102172513801/02/19 17:25:31  5-MIN KBKB 022325Z AUTO VRB03KT 3SM +RA BR FEW005 BKN028 OVC046 08/08 A3004 190 100 -500 VRB/03 RMK AO2 P0005 T00780078
53988KBKB BKB20190102173013701/02/19 17:30:31  5-MIN KBKB 022330Z AUTO 03004KT 3SM RA BR FEW005 BKN028 OVC048 08/08 A3004 190 100 -500 020/04 RMK AO2 P0007 T00780078
53988KBKB BKB20190102173513801/02/19 17:35:31  5-MIN KBKB 022335Z AUTO VRB03KT 4SM -RA BR FEW005 BKN026 OVC048 08/08 A3003 190 100 -500 VRB/03 RMK AO2 P0008 T00780078
53988KBKB BKB20190102174013701/02/19 17:40:31  5-MIN KBKB 022340Z AUTO 05005KT 5SM RA BR FEW005 BKN023 OVC046 08/08 A3003 200 100 -500 040/05 RMK AO2 P0009 T00780078
53988KBKB BKB20190102174513701/02/19 17:45:31  5-MIN KBKB 022345Z AUTO VRB05KT 5SM RA BR FEW005 BKN030 OVC046 08/08 A3002 200 100 -500 VRB/05 RMK AO2 P0010 T00780078
53988KBKB BKB20190102175016901/02/19 17:50:31  5-MIN KBKB 022350Z AUTO VRB03KT 6SM -RA BR FEW005 BKN033 OVC046 08/08 A3003 200 100 -500 VRB/03 RMK AO2 SLP198 P0011 60093 T00780078 10089 20078 58007
53988KBKB BKB20190102175513801/02/19 17:55:31  5-MIN KBKB 022355Z AUTO 03004KT 6SM -RA BR SCT005 BKN033 OVC047 08/08 A3003 200 100 -500 020/04 RMK AO2 P0000 T00780078
53988KBKB BKB20190102175518001/02/19 17:55:31  5-MIN KBKB 022355Z AUTO 03004KT 6SM -RA BR SCT005 BKN033 OVC047 08/08 A3003 200 100 -500 020/04 RMK AO2 P0000 T00780078A3012 120 100 - /M RMK AO2 P0006 T00780078
53988KBKB BKB20190102180013701/02/19 18:00:31  5-MIN KBKB 030000Z AUTO VRB05KT 6SM RA BR SCT005 BKN031 OVC047 08/08 A3003 200 100 -500 VRB/05 RMK AO2 P0001 T00780078
53988KBKB BKB20190102180513801/02/19 18:05:31  5-MIN KBKB 030005Z AUTO VRB03KT 5SM -RA BR SCT005 BKN024 OVC047 08/08 A3004 190 100 -500 VRB/03 RMK AO2 P0002 T00780078
53988KBKB BKB20190102181013701/02/19 18:10:31  5-MIN KBKB 030010Z AUTO 00000KT 5SM RA BR BKN005 BKN024 OVC049 08/08 A3005 180 100 -600 000/00 RMK AO2 P0003 T00780078
53988KBKB BKB20190102181513801/02/19 18:15:31  5-MIN KBKB 030015Z AUTO VRB04KT 6SM -RA BR BKN005 OVC020 08/08 A3005 180 100 -600 VRB/04 RMK AO2 PRESRR P0003 T00780078
53988KBKB BKB20190102182012801/02/19 18:20:31  5-MIN KBKB 030020Z AUTO VRB06KT 7SM -RA BKN005 OVC021 08/08 A3005 180 100 -600 VRB/06 RMK AO2 P0004 T00780078
53988KBKB BKB20190102182513101/02/19 18:25:31  5-MIN KBKB 030025Z AUTO 03007KT 4SM +RA BR BKN005 OVC015 08/08 A3004 190 100 -500 020/07 RMK AO2 P0007 T00780078
53988KBKB BKB20190102183013701/02/19 18:30:31  5-MIN KBKB 030030Z AUTO VRB03KT 3SM RA BR SCT005 BKN015 OVC050 08/08 A3004 180 100 -600 VRB/03 RMK AO2 P0008 T00780078
53988KBKB BKB20190102183513701/02/19 18:35:31  5-MIN KBKB 030035Z AUTO VRB03KT 4SM RA BR BKN005 BKN015 OVC050 08/08 A3006 170 100 -600 VRB/03 RMK AO2 P0009 T00780078
53988KBKB BKB20190102184013001/02/19 18:40:31  5-MIN KBKB 030040Z AUTO 02005KT 4SM RA BR BKN006 OVC017 08/08 A3005 180 100 -600 010/05 RMK AO2 P0011 T00780078
53988KBKB BKB20190102184513701/02/19 18:45:31  5-MIN KBKB 030045Z AUTO 03007KT 4SM RA BR BKN006 BKN021 OVC050 08/08 A3004 180 100 -600 030/07 RMK AO2 P0012 T00780078
53988KBKB BKB20190102185012701/02/19 18:50:31  5-MIN KBKB 030050Z AUTO VRB04KT 4SM RA BR SCT006 BKN028 OVC050 08/08 A3005 180 100 -600 VRB/04 RMK AO2 P0013
53988KBKB BKB20190102185513701/02/19 18:55:31  5-MIN KBKB 030055Z AUTO VRB03KT 4SM -RA BR SCT006 BKN040 OVC050 08/08 A3006 170 96 -500 VRB/03 RMK AO2 P0000 T00830078
53988KBKB BKB20190102190013601/02/19 19:00:31  5-MIN KBKB 030100Z AUTO VRB03KT 5SM RA BR BKN006 BKN038 OVC050 08/08 A3007 160 96 -500 VRB/03 RMK AO2 P0001 T00830078
53988KBKB BKB20190102190513601/02/19 19:05:31  5-MIN KBKB 030105Z AUTO 03007KT 4SM RA BR BKN006 BKN035 OVC050 08/08 A3006 170 96 -500 030/07 RMK AO2 P0003 T00830078
53988KBKB BKB20190102191013601/02/19 19:10:31  5-MIN KBKB 030110Z AUTO 02006KT 4SM RA BR SCT006 BKN039 OVC050 08/08 A3005 170 96 -500 020/06 RMK AO2 P0004 T00830078
53988KBKB BKB20190102191513601/02/19 19:15:31  5-MIN KBKB 030115Z AUTO VRB03KT 4SM RA BR SCT006 BKN036 OVC050 08/08 A3005 180 96 -500 VRB/03 RMK AO2 P0006 T00830078
53988KBKB BKB20190102192013601/02/19 19:20:31  5-MIN KBKB 030120Z AUTO 00000KT 4SM RA BR BKN006 BKN031 OVC050 08/08 A3006 170 96 -500 000/00 RMK AO2 P0007 T00830078
53988KBKB BKB20190102192512601/02/19 19:25:31  5-MIN KBKB 030125Z AUTO 3SM RA BR BKN006 BKN023 OVC055 08/08 A3007 160 96 -500 M /M RMK AO2 P0010 T00830078
53988KBKB BKB20190102193014301/02/19 19:30:31  5-MIN KBKB 030130Z AUTO 02005KT 3SM RA BR SCT006 BKN017 OVC055 08/08 A3008 150 96 -500 010/05 RMK AO2 PRESRR P0012 T00830078
53988KBKB BKB20190102193514301/02/19 19:35:31  5-MIN KBKB 030135Z AUTO VRB03KT 3SM RA BR FEW006 BKN024 OVC055 08/08 A3008 150 96 -500 VRB/03 RMK AO2 PRESRR P0015 T00830078
53988KBKB BKB20190102194013401/02/19 19:40:31  5-MIN KBKB 030140Z AUTO VRB04KT 2 1/2SM +RA BR FEW006 OVC027 08/08 A3008 150 96 -500 VRB/04 RMK AO2 P0020 T00830078
53988KBKB BKB20190102194513001/02/19 19:45:31  5-MIN KBKB 030145Z AUTO 03004KT 2SM +RA BR FEW006 OVC023 08/08 A3008 150 96 -500 030/04 RMK AO2 P0024 T00830078
53988KBKB BKB20190102195014201/02/19 19:50:31  5-MIN KBKB 030150Z AUTO 02004KT 2 1/2SM +RA BR FEW006 OVC020 08/08 A3008 150 100 -500 010/04 RMK AO2 SLP216 P0026 T00830083
53988KBKB BKB20190102195513001/02/19 19:55:31  5-MIN KBKB 030155Z AUTO 02005KT 3SM RA BR OVC027 08/08 A3006 170 100 -500 020/05 RMK AO2 PRESFR P0000 T00830083
53988KBKB BKB20190102200013601/02/19 20:00:31  5-MIN KBKB 030200Z AUTO VRB04KT 4SM RA BR FEW007 OVC032 08/08 A3005 180 96 -500 VRB/04 RMK AO2 PRESFR P0001 T00830078
53988KBKB BKB20190102200512901/02/19 20:05:31  5-MIN KBKB 030205Z AUTO VRB04KT 5SM RA BR FEW007 OVC030 08/08 A3006 170 96 -500 VRB/04 RMK AO2 P0003 T00830078
53988KBKB BKB20190102201012901/02/19 20:10:31  5-MIN KBKB 030210Z AUTO 00000KT 5SM RA BR SCT006 OVC032 08/08 A3008 150 96 -500 000/00 RMK AO2 P0004 T00830078
53988KBKB BKB20190102201514101/02/19 20:15:31  5-MIN KBKB 030215Z AUTO 36005KT 7SM -RA SCT006 BKN039 OVC060 08/08 A3009 150 96 -500 360/05 RMK AO2 PRESRR P0004 T00830078
53988KBKB BKB20190102202013601/02/19 20:20:31  5-MIN KBKB 030220Z AUTO VRB05KT 5SM RA BR FEW006 BKN044 OVC060 08/08 A3008 150 96 -500 VRB/05 RMK AO2 P0007 T00830078
53988KBKB BKB20190102202513001/02/19 20:25:31  5-MIN KBKB 030225Z AUTO VRB06KT 4SM RA BR FEW006 OVC049 08/08 A3008 150 100 -600 VRB/06 RMK AO2 P0008 T00780078
53988KBKB BKB20190102203013101/02/19 20:30:31  5-MIN KBKB 030230Z AUTO VRB03KT 5SM -RA BR FEW006 OVC055 08/08 A3009 140 100 -600 VRB/03 RMK AO2 P0009 T00780078
53988KBKB BKB20190102203513001/02/19 20:35:31  5-MIN KBKB 030235Z AUTO 00000KT 5SM -RA BR SCT006 OVC050 08/08 A3010 130 96 -600 000/00 RMK AO2 P0010 T00830078
53988KBKB BKB20190102204013001/02/19 20:40:31  5-MIN KBKB 030240Z AUTO VRB03KT 5SM RA BR BKN006 OVC048 08/08 A3010 140 100 -600 VRB/03 RMK AO2 P0010 T00780078
53988KBKB BKB20190102204513001/02/19 20:45:31  5-MIN KBKB 030245Z AUTO VRB04KT 4SM RA BR BKN006 OVC043 08/08 A3010 130 100 -600 VRB/04 RMK AO2 P0012 T00780078
53988KBKB BKB20190102205014901/02/19 20:50:31  5-MIN KBKB 030250Z AUTO VRB04KT 4SM RA BR BKN006 OVC041 08/08 A3010 130 100 -600 VRB/04 RMK AO2 SLP222 P0013 60055 T00780078 58009
53988KBKB BKB20190102205513101/02/19 20:55:31  5-MIN KBKB 030255Z AUTO VRB04KT 4SM -RA BR BKN006 OVC025 08/08 A3010 130 100 -600 VRB/04 RMK AO2 P0000 T00780078
53988KBKB BKB20190102210013101/02/19 21:00:31  5-MIN KBKB 030300Z AUTO 00000KT 6SM -RA BR OVC006 08/08 A3012 110 100 -600 000/00 RMK AO2 PRESRR P0000 T00780078
53988KBKB BKB20190102210512401/02/19 21:05:31  5-MIN KBKB 030305Z AUTO VRB04KT 6SM -RA BR OVC006 08/08 A3012 120 100 -600 VRB/04 RMK AO2 P0001 T00780078
53988KBKB BKB20190102211012301/02/19 21:10:31  5-MIN KBKB 030310Z AUTO VRB03KT 4SM RA BR OVC006 08/08 A3012 120 100 -600 VRB/03 RMK AO2 P0003 T00780078
53988KBKB BKB20190102211511801/02/19 21:15:31  5-MIN KBKB 030315Z AUTO 2 1/2SM +RA BR OVC006 08/08 A3010 130 100 -600 M /M RMK AO2 P0006 T00780078
53988KBKB BKB20190102212013401/02/19 21:20:31  5-MIN KBKB 030320Z AUTO 03007KT 2 1/2SM RA BR OVC007 08/08 A3009 150 100 -600 020/07 RMK AO2 PRESFR P0009 T00780078
53988KBKB BKB20190102212512301/02/19 21:25:31  5-MIN KBKB 030325Z AUTO VRB03KT 4SM -RA BR OVC007 08/07 A3009 140 96 -600 VRB/03 RMK AO2 P0010 T00780072
53988KBKB BKB20190102213012401/02/19 21:30:31  5-MIN KBKB 030330Z AUTO VRB04KT 6SM -RA BR OVC007 08/08 A3010 130 100 -600 VRB/04 RMK AO2 P0010 T00780078
53988KBKB BKB20190102213512801/02/19 21:35:31  5-MIN KBKB 030335Z AUTO VRB04KT 9SM -RA BKN007 OVC011 08/08 A3011 120 100 -600 VRB/04 RMK AO2 P0010 T00780078
53988KBKB BKB20190102214012701/02/19 21:40:31  5-MIN KBKB 030340Z AUTO VRB04KT 9SM -RA BKN007 OVC019 08/07 A3011 120 96 -600 VRB/04 RMK AO2 P0011 T00780072
53988KBKB BKB20190102214512901/02/19 21:45:31  5-MIN KBKB 030345Z AUTO VRB04KT 5SM RA BR BKN006 OVC024 08/07 A3009 140 96 -600 VRB/04 RMK AO2 P0012 T00780072
53988KBKB BKB20190102215014301/02/19 21:50:31  5-MIN KBKB 030350Z AUTO 02006KT 5SM RA BR BKN006 OVC036 08/07 A3008 150 96 -600 010/06 RMK AO2 PRESFR SLP216 P0013 T00780072
53988KBKB BKB20190102215513001/02/19 21:55:31  5-MIN KBKB 030355Z AUTO VRB04KT 6SM -RA BR BKN006 OVC040 08/07 A3009 140 96 -600 VRB/04 RMK AO2 P0000 T00780072
53988KBKB BKB20190102220013001/02/19 22:00:31  5-MIN KBKB 030400Z AUTO VRB04KT 6SM -RA BR BKN006 OVC036 08/07 A3010 140 96 -600 VRB/04 RMK AO2 P0001 T00780072
53988KBKB BKB20190102220513001/02/19 22:05:31  5-MIN KBKB 030405Z AUTO VRB04KT 6SM -RA BR BKN006 OVC038 08/07 A3009 140 96 -600 VRB/04 RMK AO2 P0002 T00780072
53988KBKB BKB20190102221012901/02/19 22:10:31  5-MIN KBKB 030410Z AUTO VRB04KT 6SM RA BR BKN006 OVC040 08/07 A3008 150 96 -600 VRB/04 RMK AO2 P0003 T00780072
53988KBKB BKB20190102221513001/02/19 22:15:31  5-MIN KBKB 030415Z AUTO VRB03KT 6SM -RA BR SCT006 OVC040 08/07 A3007 160 96 -600 VRB/03 RMK AO2 P0003 T00780072
53988KBKB BKB20190102222013401/02/19 22:20:31  5-MIN KBKB 030420Z AUTO VRB04KT 7SM -RA SCT006 BKN040 OVC070 08/07 A3007 160 96 -600 VRB/04 RMK AO2 P0004 T00780072
53988KBKB BKB20190102222513401/02/19 22:25:31  5-MIN KBKB 030425Z AUTO VRB04KT 8SM -RA SCT006 BKN040 OVC090 08/07 A3006 170 96 -600 VRB/04 RMK AO2 P0004 T00780072
53988KBKB BKB20190102223013201/02/19 22:30:31  5-MIN KBKB 030430Z AUTO 10SM -RA BKN006 BKN043 OVC085 08/07 A3005 180 96 -600 M /M RMK AO2 PRESFR P0004 T00780072
53988KBKB BKB20190102223513501/02/19 22:35:31  5-MIN KBKB 030435Z AUTO VRB03KT 10SM -RA BKN006 BKN043 OVC085 08/07 A3005 180 96 -600 VRB/03 RMK AO2 P0005 T00780072
53988KBKB BKB20190102224013501/02/19 22:40:31  5-MIN KBKB 030440Z AUTO VRB03KT 10SM -RA BKN006 BKN045 OVC085 08/07 A3005 180 96 -600 VRB/03 RMK AO2 P0005 T00780072
53988KBKB BKB20190102224512901/02/19 22:45:31  5-MIN KBKB 030445Z AUTO VRB04KT 10SM -RA BKN006 OVC085 08/08 A3005 180 100 -600 VRB/04 RMK AO2 P0005 T00780078
53988KBKB BKB20190102225014301/02/19 22:50:31  5-MIN KBKB 030450Z AUTO 00000KT 10SM -RA BKN006 BKN038 OVC085 08/08 A3005 180 100 -600 000/00 RMK AO2 SLP205 P0005 T00780078
53988KBKB BKB20190102225513601/02/19 22:55:31  5-MIN KBKB 030455Z AUTO VRB05KT 10SM -RA BKN006 BKN027 OVC085 08/08 A3004 190 100 -500 VRB/05 RMK AO2 P0000 T00780078
53988KBKB BKB20190102230012801/02/19 23:00:31  5-MIN KBKB 030500Z AUTO VRB04KT 10SM -RA BKN006 OVC080 08/07 A3004 180 96 -600 VRB/04 RMK AO2 P0000 T00780072
53988KBKB BKB20190102230512901/02/19 23:05:31  5-MIN KBKB 030505Z AUTO VRB05KT 10SM -RA BKN006 OVC037 08/08 A3005 180 100 -600 VRB/05 RMK AO2 P0000 T00780078
53988KBKB BKB20190102231012901/02/19 23:10:31  5-MIN KBKB 030510Z AUTO VRB03KT 10SM -RA BKN006 OVC045 08/08 A3003 200 100 -500 VRB/03 RMK AO2 P0000 T00780078
53988KBKB BKB20190102231512701/02/19 23:15:31  5-MIN KBKB 030515Z AUTO VRB05KT 8SM RA BKN006 OVC043 08/08 A3003 190 100 -500 VRB/05 RMK AO2 P0001 T00780078
53988KBKB BKB20190102232013001/02/19 23:20:31  5-MIN KBKB 030520Z AUTO VRB03KT 6SM RA BR BKN005 OVC043 08/08 A3003 200 100 -500 VRB/03 RMK AO2 P0002 T00780078
53988KBKB BKB20190102232513101/02/19 23:25:31  5-MIN KBKB 030525Z AUTO VRB04KT 6SM -RA BR BKN005 OVC047 08/08 A3003 200 100 -500 VRB/04 RMK AO2 P0003 T00780078
53988KBKB BKB20190102233012701/02/19 23:30:31  5-MIN KBKB 030530Z AUTO VRB05KT 7SM RA BKN005 OVC049 08/08 A3002 210 100 -500 VRB/05 RMK AO2 P0004 T00780078
53988KBKB BKB20190102233513101/02/19 23:35:31  5-MIN KBKB 030535Z AUTO VRB03KT 6SM -RA BR BKN005 OVC047 08/08 A3002 200 100 -500 VRB/03 RMK AO2 P0005 T00780078
53988KBKB BKB20190102234012701/02/19 23:40:31  5-MIN KBKB 030540Z AUTO VRB04KT 8SM -RA BKN005 OVC045 08/08 A3002 210 96 -500 VRB/04 RMK AO2 P0005 T00830078
53988KBKB BKB20190102234512101/02/19 23:45:31  5-MIN KBKB 030545Z AUTO VRB03KT 10SM -RA OVC005 08/08 A3003 200 96 -500 VRB/03 RMK AO2 P0005 T00830078
53988KBKB BKB20190102235016201/02/19 23:50:31  5-MIN KBKB 030550Z AUTO VRB04KT 10SM -RA OVC005 08/08 A3003 200 96 -500 VRB/04 RMK AO2 SLP198 P0005 60079 T00830078 10083 20078 401060078 53024
53988KBKB BKB20190102235512101/02/19 23:55:31  5-MIN KBKB 030555Z AUTO VRB03KT 10SM -RA OVC005 08/08 A3002 210 96 -500 VRB/03 RMK AO2 P0000 T00830078
53988KBKB BKB20190103000012101/03/19 00:00:31  5-MIN KBKB 030600Z AUTO 00000KT 10SM -RA OVC005 08/08 A3002 200 96 -500 000/00 RMK AO2 P0000 T00830078
53988KBKB BKB20190103000512201/03/19 00:05:31  5-MIN KBKB 030605Z AUTO VRB03KT 10SM -RA OVC005 08/08 A3003 200 100 -500 VRB/03 RMK AO2 P0001 T00830083
53988KBKB BKB20190103001012101/03/19 00:10:31  5-MIN KBKB 030610Z AUTO 00000KT 9SM -RA OVC005 08/08 A3002 200 100 -500 000/00 RMK AO2 P0001 T00830083
53988KBKB BKB20190103001512201/03/19 00:15:31  5-MIN KBKB 030615Z AUTO VRB04KT 10SM -RA OVC005 08/08 A3002 210 100 -500 VRB/04 RMK AO2 P0002 T00830083
53988KBKB BKB20190103002012201/03/19 00:20:31  5-MIN KBKB 030620Z AUTO VRB03KT 10SM -RA OVC005 08/08 A3002 200 100 -500 VRB/03 RMK AO2 P0002 T00830083
53988KBKB BKB20190103002512101/03/19 00:25:31  5-MIN KBKB 030625Z AUTO VRB03KT 8SM -RA OVC005 08/08 A3002 200 100 -500 VRB/03 RMK AO2 P0003 T00830083
53988KBKB BKB20190103003012401/03/19 00:30:31  5-MIN KBKB 030630Z AUTO VRB03KT 6SM -RA BR OVC004 08/08 A3003 200 100 -500 VRB/03 RMK AO2 P0004 T00830083
53988KBKB BKB20190103003512301/03/19 00:35:31  5-MIN KBKB 030635Z AUTO 00000KT 4SM RA BR OVC004 08/08 A3003 190 100 -500 000/00 RMK AO2 P0005 T00830083
53988KBKB BKB20190103004013001/03/19 00:40:31  5-MIN KBKB 030640Z AUTO VRB03KT 4SM RA BR BKN004 OVC040 08/08 A3003 200 100 -500 VRB/03 RMK AO2 P0007 T00830083
53988KBKB BKB20190103004513001/03/19 00:45:31  5-MIN KBKB 030645Z AUTO VRB03KT 4SM RA BR BKN004 OVC041 08/08 A3003 200 100 -500 VRB/03 RMK AO2 P0008 T00830083
53988KBKB BKB20190103005012701/03/19 00:50:31  5-MIN KBKB 030650Z AUTO VRB03KT 4SM RA BR SCT004 BKN043 OVC070 08/08 A3004 190 100 -500 VRB/03 RMK AO2 P0010
53988KBKB BKB20190103005513701/03/19 00:55:31  5-MIN KBKB 030655Z AUTO VRB04KT 5SM RA BR SCT004 BKN045 OVC070 08/08 A3003 190 100 -500 VRB/04 RMK AO2 P0000 T00830083
53988KBKB BKB20190103010013801/03/19 01:00:31  5-MIN KBKB 030700Z AUTO VRB04KT 6SM -RA BR SCT005 BKN047 OVC070 08/08 A3002 200 100 -500 VRB/04 RMK AO2 P0001 T00830083
53988KBKB BKB20190103010513801/03/19 01:05:31  5-MIN KBKB 030705Z AUTO VRB03KT 6SM -RA BR SCT005 BKN047 OVC070 08/08 A3002 210 100 -500 VRB/03 RMK AO2 P0002 T00830083
53988KBKB BKB20190103011013801/03/19 01:10:31  5-MIN KBKB 030710Z AUTO VRB03KT 6SM -RA BR SCT004 BKN047 OVC070 08/08 A3002 210 100 -500 VRB/03 RMK AO2 P0003 T00830083
53988KBKB BKB20190103011513001/03/19 01:15:31  5-MIN KBKB 030715Z AUTO VRB03KT 6SM RA BR SCT004 OVC041 08/08 A3002 210 100 -500 VRB/03 RMK AO2 P0004 T00830083
53988KBKB BKB20190103012012901/03/19 01:20:31  5-MIN KBKB 030720Z AUTO 08005KT 5SM RA BR SCT004 OVC041 09/08 A3000 220 96 -400 080/05 RMK AO2 P0005 T00890083
53988KBKB BKB20190103012513601/03/19 01:25:31  5-MIN KBKB 030725Z AUTO VRB05KT 4SM RA BR SCT004 OVC046 09/08 A2998 240 96 -300 VRB/05 RMK AO2 PRESFR P0007 T00890083
53988KBKB BKB20190103013013701/03/19 01:30:31  5-MIN KBKB 030730Z AUTO VRB05KT 4SM RA BR SCT004 OVC042 08/08 A2996 260 100 -400 VRB/05 RMK AO2 PRESFR P0008 T00830083
53988KBKB BKB20190103013513701/03/19 01:35:31  5-MIN KBKB 030735Z AUTO VRB05KT 5SM -RA BR BKN004 OVC040 09/08 A2996 270 96 -300 VRB/05 RMK AO2 PRESFR P0009 T00890083
53988KBKB BKB20190103014014001/03/19 01:40:31  5-MIN KBKB 030740Z AUTO VRB06G16KT 9SM -RA BKN004 OVC040 09/08 A2995 270 96 -300 VRB/06G16 RMK AO2 PRESFR P0009 T00890083
53988KBKB BKB20190103014514201/03/19 01:45:31  5-MIN KBKB 030745Z AUTO VRB06G16KT 10SM -RA BKN004 OVC045 09/09 A2994 280 100 -300 VRB/06G16 RMK AO2 PRESFR P0009 T00890089
53988KBKB BKB20190103015013601/03/19 01:50:31  5-MIN KBKB 030750Z AUTO 11005KT 10SM -RA BKN004 OVC045 09/09 A2995 270 100 -300 100/05 RMK AO2 SLP172 P0009 T00890089
53988KBKB BKB20190103015513501/03/19 01:55:31  5-MIN KBKB 030755Z AUTO VRB06KT 10SM -RA BKN004 BKN040 OVC100 09/09 A2995 270 96 -200 VRB/06 RMK AO2 P0000 T00940089
53988KBKB BKB20190103020012901/03/19 02:00:31  5-MIN KBKB 030800Z AUTO 11008KT 10SM -RA BKN004 OVC100 09/09 A2996 260 100 -200 100/08 RMK AO2 P0000 T00940094
53988KBKB BKB20190103020512101/03/19 02:05:31  5-MIN KBKB 030805Z AUTO VRB03KT 10SM -RA OVC004 10/09 A2995 270 96 -200 VRB/03 RMK AO2 P0000 T01000094
53988KBKB BKB20190103021012101/03/19 02:10:31  5-MIN KBKB 030810Z AUTO VRB06KT 10SM -RA OVC005 10/09 A2995 270 96 -200 VRB/06 RMK AO2 P0001 T01000094
53988KBKB BKB20190103021512101/03/19 02:15:31  5-MIN KBKB 030815Z AUTO 10005KT 10SM -RA OVC005 10/09 A2996 260 96 -200 100/05 RMK AO2 P0001 T01000094
53988KBKB BKB20190103022012101/03/19 02:20:31  5-MIN KBKB 030820Z AUTO 11007KT 10SM -RA OVC005 10/09 A2995 270 96 -200 110/07 RMK AO2 P0001 T01000094
53988KBKB BKB20190103022512101/03/19 02:25:31  5-MIN KBKB 030825Z AUTO VRB05KT 10SM -RA OVC005 10/09 A2995 270 96 -200 VRB/05 RMK AO2 P0001 T01000094
53988KBKB BKB20190103023012201/03/19 02:30:31  5-MIN KBKB 030830Z AUTO VRB05KT 10SM -RA OVC005 10/10 A2994 280 100 -200 VRB/05 RMK AO2 P0001 T01000100
53988KBKB BKB20190103023512201/03/19 02:35:31  5-MIN KBKB 030835Z AUTO 00000KT 10SM -RA OVC005 10/10 A2996 260 100 -200 000/00 RMK AO2 P0001 T01000100
53988KBKB BKB20190103024012201/03/19 02:40:31  5-MIN KBKB 030840Z AUTO VRB03KT 10SM -RA OVC005 10/10 A2995 270 100 -200 VRB/03 RMK AO2 P0001 T01000100
53988KBKB BKB20190103024512201/03/19 02:45:31  5-MIN KBKB 030845Z AUTO VRB04KT 10SM -RA OVC005 10/10 A2995 270 100 -200 VRB/04 RMK AO2 P0001 T01000100
53988KBKB BKB20190103025015301/03/19 02:50:31  5-MIN KBKB 030850Z AUTO VRB03KT 10SM -RA OVC005 10/10 A2994 280 100 -200 VRB/03 RMK AO2 CIG 004V009 SLP170 P0001 60021 T01000100 58026
53988KBKB BKB20190103025511201/03/19 02:55:31  5-MIN KBKB 030855Z AUTO 10SM -RA OVC005 11/11 A2994 280 100 -100 M /M RMK AO2 P0000 T01060106
53988KBKB BKB20190103030012201/03/19 03:00:31  5-MIN KBKB 030900Z AUTO VRB04KT 10SM -RA OVC005 11/11 A2995 270 100 -100 VRB/04 RMK AO2 P0000 T01060106
53988KBKB BKB20190103030512201/03/19 03:05:31  5-MIN KBKB 030905Z AUTO VRB04KT 10SM -RA OVC005 11/11 A2994 280 100 -100 VRB/04 RMK AO2 P0000 T01060106
53988KBKB BKB20190103031012201/03/19 03:10:31  5-MIN KBKB 030910Z AUTO VRB04KT 10SM -RA OVC005 11/11 A2994 280 100 -100 VRB/04 RMK AO2 P0000 T01060106
53988KBKB BKB20190103031512201/03/19 03:15:31  5-MIN KBKB 030915Z AUTO 00000KT 10SM -RA OVC005 11/11 A2996 260 100 -100 000/00 RMK AO2 P0000 T01060106
53988KBKB BKB20190103032012901/03/19 03:20:31  5-MIN KBKB 030920Z AUTO 00000KT 10SM -RA OVC005 11/11 A2997 250 100 -100 000/00 RMK AO2 PRESRR P0000 T01060106
53988KBKB BKB20190103032512901/03/19 03:25:31  5-MIN KBKB 030925Z AUTO 00000KT 10SM -RA OVC005 11/11 A2998 240 100 -100 000/00 RMK AO2 PRESRR P0001 T01060106
53988KBKB BKB20190103033012201/03/19 03:30:31  5-MIN KBKB 030930Z AUTO VRB03KT 10SM -RA OVC005 11/11 A2997 250 100 -100 VRB/03 RMK AO2 P0001 T01060106
53988KBKB BKB20190103033512101/03/19 03:35:31  5-MIN KBKB 030935Z AUTO 00000KT 10SM -RA OVC005 11/10 A2997 250 96 -100 000/00 RMK AO2 P0001 T01060100
53988KBKB BKB20190103034012101/03/19 03:40:31  5-MIN KBKB 030940Z AUTO 11004KT 8SM -RA OVC005 11/11 A2996 270 100 -100 100/04 RMK AO2 P0002 T01060106
53988KBKB BKB20190103034512801/03/19 03:45:31  5-MIN KBKB 030945Z AUTO 10005KT 9SM -RA OVC005 11/11 A2993 290 100 -100 090/05 RMK AO2 PRESFR P0002 T01060106
53988KBKB BKB20190103035013601/03/19 03:50:31  5-MIN KBKB 030950Z AUTO VRB05KT 10SM -RA OVC005 11/11 A2992 300 100 -100 VRB/05 RMK AO2 PRESFR SLP160 P0003 T01060106
53988KBKB BKB20190103035512901/03/19 03:55:31  5-MIN KBKB 030955Z AUTO VRB04KT 10SM -RA OVC005 11/11 A2991 310 100 -100 VRB/04 RMK AO2 PRESFR P0000 T01060106
53988KBKB BKB20190103040012201/03/19 04:00:31  5-MIN KBKB 031000Z AUTO VRB03KT 10SM -RA OVC005 11/11 A2991 310 100 -100 VRB/03 RMK AO2 P0000 T01060106
53988KBKB BKB20190103040512201/03/19 04:05:31  5-MIN KBKB 031005Z AUTO VRB04KT 10SM -RA OVC005 11/11 A2991 300 100 -100 VRB/04 RMK AO2 P0000 T01060106
53988KBKB BKB20190103041012901/03/19 04:10:31  5-MIN KBKB 031010Z AUTO VRB03KT 10SM -RA OVC004 11/11 A2995 270 100 -100 VRB/03 RMK AO2 PRESRR P0000 T01060106
53988KBKB BKB20190103041512901/03/19 04:15:31  5-MIN KBKB 031015Z AUTO 00000KT 10SM -RA OVC004 11/11 A2995 270 100 -100 000/00 RMK AO2 PRESRR P0000 T01060106
53988KBKB BKB20190103042012201/03/19 04:20:31  5-MIN KBKB 031020Z AUTO 06003KT 10SM -RA OVC004 11/11 A2993 290 100 -100 060/03 RMK AO2 P0000 T01060106
53988KBKB BKB20190103042512201/03/19 04:25:31  5-MIN KBKB 031025Z AUTO 00000KT 10SM -RA OVC004 11/11 A2993 290 100 -100 000/00 RMK AO2 P0000 T01060106
53988KBKB BKB20190103043012201/03/19 04:30:31  5-MIN KBKB 031030Z AUTO 33003KT 10SM -RA OVC004 11/11 A2995 270 100 -100 330/03 RMK AO2 P0001 T01060106
53988KBKB BKB20190103043512201/03/19 04:35:31  5-MIN KBKB 031035Z AUTO 03004KT 10SM -RA OVC004 11/11 A2994 280 100 -100 020/04 RMK AO2 P0001 T01060106
53988KBKB BKB20190103044012201/03/19 04:40:31  5-MIN KBKB 031040Z AUTO 00000KT 10SM -RA OVC004 11/11 A2993 290 100 -100 000/00 RMK AO2 P0001 T01060106
53988KBKB BKB20190103044512201/03/19 04:45:31  5-MIN KBKB 031045Z AUTO 00000KT 10SM -RA OVC004 11/11 A2992 290 100 -100 000/00 RMK AO2 P0001 T01060106
53988KBKB BKB20190103045012901/03/19 04:50:31  5-MIN KBKB 031050Z AUTO VRB03KT 10SM -RA OVC004 11/11 A2993 290 100 -100 VRB/03 RMK AO2 SLP165 P0001 T01060106
53988KBKB BKB20190103045512201/03/19 04:55:31  5-MIN KBKB 031055Z AUTO VRB03KT 10SM -RA OVC004 11/11 A2994 280 100 -100 VRB/03 RMK AO2 P0000 T01060106
53988KBKB BKB20190103050012201/03/19 05:00:31  5-MIN KBKB 031100Z AUTO VRB03KT 10SM -RA OVC004 11/11 A2994 280 100 -100 VRB/03 RMK AO2 P0000 T01060106
53988KBKB BKB20190103050512201/03/19 05:05:31  5-MIN KBKB 031105Z AUTO 00000KT 10SM -RA OVC004 11/11 A2994 280 100 -100 000/00 RMK AO2 P0000 T01060106
53988KBKB BKB20190103051012201/03/19 05:10:31  5-MIN KBKB 031110Z AUTO VRB03KT 10SM -RA OVC004 11/11 A2993 290 100 -100 VRB/03 RMK AO2 P0001 T01060106
53988KBKB BKB20190103051512201/03/19 05:15:31  5-MIN KBKB 031115Z AUTO VRB03KT 10SM -RA OVC003 11/11 A2993 290 100 -100 VRB/03 RMK AO2 P0001 T01060106
53988KBKB BKB20190103052012201/03/19 05:20:31  5-MIN KBKB 031120Z AUTO VRB03KT 10SM -RA OVC003 11/11 A2993 290 100 -100 VRB/03 RMK AO2 P0001 T01060106
53988KBKB BKB20190103052512201/03/19 05:25:31  5-MIN KBKB 031125Z AUTO 01004KT 10SM -RA OVC003 11/11 A2993 290 100 -100 360/04 RMK AO2 P0002 T01060106
53988KBKB BKB20190103053012201/03/19 05:30:31  5-MIN KBKB 031130Z AUTO 02004KT 10SM -RA OVC003 11/11 A2993 290 100 -100 020/04 RMK AO2 P0002 T01060106
53988KBKB BKB20190103053512201/03/19 05:35:31  5-MIN KBKB 031135Z AUTO VRB03KT 10SM -RA OVC003 11/11 A2993 290 100 -100 VRB/03 RMK AO2 P0002 T01060106
53988KBKB BKB20190103054012201/03/19 05:40:31  5-MIN KBKB 031140Z AUTO 03004KT 10SM -RA OVC003 11/11 A2992 300 100 -100 020/04 RMK AO2 P0002 T01060106
53988KBKB BKB20190103054512201/03/19 05:45:31  5-MIN KBKB 031145Z AUTO VRB03KT 10SM -RA OVC003 11/11 A2991 300 100 -100 VRB/03 RMK AO2 P0003 T01060106
53988KBKB BKB20190103055015801/03/19 05:50:31  5-MIN KBKB 031150Z AUTO VRB03KT 10SM -RA OVC003 11/10 A2992 300 96 -100 VRB/03 RMK AO2 SLP161 P0003 60028 70259 T01060100 10106 20083 58026
53988KBKB BKB20190103055512201/03/19 05:55:31  5-MIN KBKB 031155Z AUTO VRB03KT 10SM -RA OVC003 10/10 A2992 290 100 -100 VRB/03 RMK AO2 P0000 T01000100
53988KBKB BKB20190103060012201/03/19 06:00:31  5-MIN KBKB 031200Z AUTO VRB03KT 10SM -RA OVC003 10/10 A2992 300 100 -100 VRB/03 RMK AO2 P0000 T01000100
53988KBKB BKB20190103060512201/03/19 06:05:31  5-MIN KBKB 031205Z AUTO VRB04KT 10SM -RA OVC003 10/10 A2992 300 100 -100 VRB/04 RMK AO2 P0000 T01000100
53988KBKB BKB20190103061012201/03/19 06:10:31  5-MIN KBKB 031210Z AUTO VRB03KT 10SM -RA OVC004 10/10 A2992 300 100 -100 VRB/03 RMK AO2 P0000 T01000100
53988KBKB BKB20190103061512201/03/19 06:15:31  5-MIN KBKB 031215Z AUTO VRB03KT 10SM -RA OVC004 10/10 A2992 300 100 -100 VRB/03 RMK AO2 P0000 T01000100
53988KBKB BKB20190103062012201/03/19 06:20:31  5-MIN KBKB 031220Z AUTO 00000KT 10SM -RA OVC004 10/10 A2992 300 100 -100 000/00 RMK AO2 P0000 T01000100
53988KBKB BKB20190103062512201/03/19 06:25:31  5-MIN KBKB 031225Z AUTO 00000KT 10SM -RA OVC004 10/10 A2993 290 100 -100 000/00 RMK AO2 P0001 T01000100
53988KBKB BKB20190103063012201/03/19 06:30:31  5-MIN KBKB 031230Z AUTO 00000KT 10SM -RA OVC004 10/10 A2993 290 100 -100 000/00 RMK AO2 P0001 T01000100
53988KBKB BKB20190103063512101/03/19 06:35:31  5-MIN KBKB 031235Z AUTO 00000KT 8SM -RA OVC004 10/10 A2992 300 100 -100 000/00 RMK AO2 P0001 T01000100
53988KBKB BKB20190103064012401/03/19 06:40:31  5-MIN KBKB 031240Z AUTO 00000KT 6SM -RA BR OVC004 10/10 A2992 300 100 -100 000/00 RMK AO2 P0002 T01000100
53988KBKB BKB20190103064512401/03/19 06:45:31  5-MIN KBKB 031245Z AUTO VRB04KT 6SM -RA BR OVC004 10/10 A2991 310 100 -100 VRB/04 RMK AO2 P0002 T01000100
53988KBKB BKB20190103065012801/03/19 06:50:31  5-MIN KBKB 031250Z AUTO 00000KT 7SM -RA OVC004 10/10 A2991 300 100 -100 000/00 RMK AO2 SLP160 P0003 T01000100
53988KBKB BKB20190103065507201/03/19 06:55:31  5-MIN KBKB 031255Z AUTO VRB03KT 8SM -RA OVC004 10/10 
53988KBKB BKB20190103065512101/03/19 06:55:31  5-MIN KBKB 031255Z AUTO VRB03KT 8SM -RA OVC004 10/10 A2993 290 100 -100 VRB/03 RMK AO2 P0000 T01000100
53988KBKB BKB20190103070012201/03/19 07:00:31  5-MIN KBKB 031300Z AUTO VRB03KT 10SM -RA OVC004 10/10 A2993 290 100 -100 VRB/03 RMK AO2 P0000 T01000100
53988KBKB BKB20190103070512201/03/19 07:05:31  5-MIN KBKB 031305Z AUTO VRB03KT 10SM -RA OVC004 10/10 A2992 290 100 -100 VRB/03 RMK AO2 P0001 T01000100
53988KBKB BKB20190103071012101/03/19 07:10:31  5-MIN KBKB 031310Z AUTO VRB03KT 7SM -RA OVC004 10/10 A2992 300 100 -100 VRB/03 RMK AO2 P0001 T01000100
53988KBKB BKB20190103071512401/03/19 07:15:31  5-MIN KBKB 031315Z AUTO VRB03KT 6SM -RA BR OVC004 10/10 A2992 300 100 -100 VRB/03 RMK AO2 P0002 T01000100
53988KBKB BKB20190103072012301/03/19 07:20:31  5-MIN KBKB 031320Z AUTO VRB03KT 6SM RA BR OVC004 10/10 A2992 290 100 -100 VRB/03 RMK AO2 P0003 T01000100
53988KBKB BKB20190103072512401/03/19 07:25:31  5-MIN KBKB 031325Z AUTO VRB04KT 6SM -RA BR OVC004 10/10 A2992 300 100 -100 VRB/04 RMK AO2 P0004 T01000100
53988KBKB BKB20190103073013101/03/19 07:30:31  5-MIN KBKB 031330Z AUTO 00000KT 6SM -RA BR BKN004 OVC008 10/10 A2993 290 100 -200 000/00 RMK AO2 P0005 T01000100
53988KBKB BKB20190103073513101/03/19 07:35:31  5-MIN KBKB 031335Z AUTO 05003KT 6SM -RA BR BKN004 OVC008 10/10 A2993 290 100 -200 040/03 RMK AO2 P0005 T01000100
53988KBKB BKB20190103074013501/03/19 07:40:31  5-MIN KBKB 031340Z AUTO VRB03KT 7SM -RA BKN004 BKN008 OVC028 10/10 A2993 290 100 -100 VRB/03 RMK AO2 P0006 T01000100
53988KBKB BKB20190103074513501/03/19 07:45:31  5-MIN KBKB 031345Z AUTO VRB03KT 7SM -RA BKN004 BKN026 OVC039 10/10 A2993 290 100 -100 VRB/03 RMK AO2 P0007 T01000100
53988KBKB BKB20190103075014201/03/19 07:50:31  5-MIN KBKB 031350Z AUTO VRB04KT 8SM -RA BKN004 BKN028 OVC035 10/10 A2993 290 100 -100 VRB/04 RMK AO2 SLP165 P0007 T01000100
53988KBKB BKB20190103075513501/03/19 07:55:31  5-MIN KBKB 031355Z AUTO 00000KT 8SM -RA BKN004 BKN021 OVC028 10/10 A2994 280 100 -200 000/00 RMK AO2 P0000 T01000100
53988KBKB BKB20190103080013501/03/19 08:00:31  5-MIN KBKB 031400Z AUTO 06003KT 8SM -RA BKN004 BKN020 OVC028 10/10 A2994 280 100 -200 060/03 RMK AO2 P0000 T01000100
53988KBKB BKB20190103080512801/03/19 08:05:31  5-MIN KBKB 031405Z AUTO VRB03KT 7SM -RA BKN004 OVC018 10/10 A2993 290 100 -200 VRB/03 RMK AO2 P0001 T01000100
53988KBKB BKB20190103081012801/03/19 08:10:31  5-MIN KBKB 031410Z AUTO VRB03KT 7SM -RA BKN004 OVC018 10/10 A2994 280 100 -200 VRB/03 RMK AO2 P0001 T01000100
53988KBKB BKB20190103081512801/03/19 08:15:31  5-MIN KBKB 031415Z AUTO 03004KT 8SM -RA BKN004 OVC008 10/10 A2993 280 100 -200 030/04 RMK AO2 P0002 T01000100
53988KBKB BKB20190103082012101/03/19 08:20:31  5-MIN KBKB 031420Z AUTO VRB03KT 8SM -RA OVC004 10/10 A2994 280 100 -200 VRB/03 RMK AO2 P0002 T01000100
53988KBKB BKB20190103082512801/03/19 08:25:31  5-MIN KBKB 031425Z AUTO 00000KT 2 1/2SM +RA BR OVC005 10/10 A2994 280 100 -200 000/00 RMK AO2 P0005 T01000100
53988KBKB BKB20190103083012801/03/19 08:30:31  5-MIN KBKB 031430Z AUTO VRB03KT 1 3/4SM -RA BR OVC005 10/10 A2994 280 100 -200 VRB/03 RMK AO2 P0008 T01000100
53988KBKB BKB20190103083512301/03/19 08:35:31  5-MIN KBKB 031435Z AUTO VRB03KT 2SM RA BR OVC005 10/10 A2994 280 100 -200 VRB/03 RMK AO2 P0009 T01000100
53988KBKB BKB20190103084012401/03/19 08:40:31  5-MIN KBKB 031440Z AUTO VRB03KT 3SM -RA BR OVC005 10/10 A2995 270 100 -200 VRB/03 RMK AO2 P0010 T01000100
53988KBKB BKB20190103084512301/03/19 08:45:31  5-MIN KBKB 031445Z AUTO VRB03KT 4SM RA BR OVC006 10/10 A2994 280 100 -200 VRB/03 RMK AO2 P0012 T01000100
53988KBKB BKB20190103085011701/03/19 08:50:31  5-MIN KBKB 031450Z AUTO VRB04KT 2 1/2SM RA BR OVC008 10/10 A2995 270 100 -200 VRB/04 RMK AO2 P0013
53988KBKB BKB20190103085513501/03/19 08:55:31  5-MIN KBKB 031455Z AUTO VRB03KT 1 1/2SM +RA BR FEW004 OVC008 10/10 A2994 280 100 -200 VRB/03 RMK AO2 P0001 T01000100
53988KBKB BKB20190103090014401/03/19 09:00:31  5-MIN KBKB 031500Z AUTO VRB03KT 1 1/4SM RA BR FEW004 OVC008 10/10 A2994 280 100 -200 VRB/03 RMK AO2 VIS 3/4V3 P0003 T01000100
53988KBKB BKB20190103090514601/03/19 09:05:31  5-MIN KBKB 031505Z AUTO VRB03KT 1 3/4SM RA BR FEW004 OVC008 10/10 A2995 270 100 -200 VRB/03 RMK AO2 VIS 1 1/4V4 P0004 T01000100
53988KBKB BKB20190103091013401/03/19 09:10:31  5-MIN KBKB 031510Z AUTO VRB04KT 2 1/2SM RA BR BKN010 OVC013 10/10 A2994 280 100 -200 VRB/04 RMK AO2 P0006 T01000100
53988KBKB BKB20190103091513401/03/19 09:15:31  5-MIN KBKB 031515Z AUTO 01005KT 2 1/2SM RA BR BKN010 OVC013 10/10 A2995 280 100 -200 010/05 RMK AO2 P0008 T01000100
53988KBKB BKB20190103092013101/03/19 09:20:31  5-MIN KBKB 031520Z AUTO 31003KT 3SM -RA BR BKN007 OVC013 10/10 A2996 260 100 -200 300/03 RMK AO2 P0009 T01000100
53988KBKB BKB20190103092515001/03/19 09:25:31  5-MIN KBKB 031525Z AUTO VRB03KT 2 1/2SM -RA BR BKN007 OVC013 10/10 A2997 250 100 -200 VRB/03 RMK AO2 VIS 1V5 PRESRR P0010 T01000100
53988KBKB BKB20190103093014301/03/19 09:30:31  5-MIN KBKB 031530Z AUTO VRB03KT 2 1/2SM -RA BR BKN007 OVC012 10/10 A2997 260 100 -200 VRB/03 RMK AO2 VIS 1V5 P0011 T01000100
53988KBKB BKB20190103093512301/03/19 09:35:31  5-MIN KBKB 031535Z AUTO 04003KT 4SM RA BR OVC007 10/10 A2995 270 100 -200 040/03 RMK AO2 P0012 T01000100
53988KBKB BKB20190103094012701/03/19 09:40:31  5-MIN KBKB 031540Z AUTO 00000KT 2 1/2SM RA BR OVC007 10/10 A2996 260 100 -200 000/00 RMK AO2 P0014 T01000100
53988KBKB BKB20190103094512801/03/19 09:45:31  5-MIN KBKB 031545Z AUTO 00000KT 2 1/2SM -RA BR OVC008 10/10 A2996 260 100 -200 000/00 RMK AO2 P0015 T01000100
53988KBKB BKB20190103095011401/03/19 09:50:31  5-MIN KBKB 031550Z AUTO 04003KT 4SM -RA BR OVC008 10/10 A2995 270 100 -200 030/03 RMK AO2 P0015
53988KBKB BKB20190103095512401/03/19 09:55:31  5-MIN KBKB 031555Z AUTO 00000KT 5SM -RA BR OVC008 10/10 A2995 270 100 -200 000/00 RMK AO2 P0000 T01000100
53988KBKB BKB20190103100012401/03/19 10:00:31  5-MIN KBKB 031600Z AUTO 00000KT 6SM -RA BR OVC008 11/11 A2995 270 100 -100 000/00 RMK AO2 P0000 T01060106
53988KBKB BKB20190103100512401/03/19 10:05:31  5-MIN KBKB 031605Z AUTO VRB03KT 5SM -RA BR OVC009 11/11 A2995 270 100 -100 VRB/03 RMK AO2 P0000 T01060106
53988KBKB BKB20190103101012701/03/19 10:10:31  5-MIN KBKB 031610Z AUTO VRB03KT 2 1/2SM RA BR OVC009 11/11 A2995 270 100 -100 VRB/03 RMK AO2 P0002 T01060106
53988KBKB BKB20190103101512801/03/19 10:15:31  5-MIN KBKB 031615Z AUTO 03003KT 2 1/2SM -RA BR OVC009 11/11 A2994 280 100 -100 020/03 RMK AO2 P0002 T01060106
53988KBKB BKB20190103102012401/03/19 10:20:31  5-MIN KBKB 031620Z AUTO 00000KT 6SM -RA BR OVC009 11/11 A2995 270 100 -100 000/00 RMK AO2 P0002 T01060106
53988KBKB BKB20190103102512801/03/19 10:25:31  5-MIN KBKB 031625Z AUTO 04003KT 8SM -RA BKN005 OVC009 11/11 A2994 280 100 -100 030/03 RMK AO2 P0002 T01060106
53988KBKB BKB20190103103013101/03/19 10:30:31  5-MIN KBKB 031630Z AUTO VRB03KT 6SM -RA BR BKN005 OVC009 11/11 A2994 280 100 -100 VRB/03 RMK AO2 P0003 T01060106
53988KBKB BKB20190103103513101/03/19 10:35:31  5-MIN KBKB 031635Z AUTO 00000KT 6SM -RA BR BKN005 OVC009 11/11 A2993 290 100 -100 000/00 RMK AO2 P0003 T01060106
53988KBKB BKB20190103104012801/03/19 10:40:31  5-MIN KBKB 031640Z AUTO VRB03KT 8SM -RA BKN005 OVC009 11/11 A2993 290 100 -100 VRB/03 RMK AO2 P0003 T01060106
53988KBKB BKB20190103104512201/03/19 10:45:31  5-MIN KBKB 031645Z AUTO VRB03KT 10SM -RA OVC005 11/11 A2992 300 100 -100 VRB/03 RMK AO2 P0003 T01060106
53988KBKB BKB20190103105012801/03/19 10:50:31  5-MIN KBKB 031650Z AUTO VRB03KT 9SM -RA OVC005 11/11 A2992 300 100 -100 VRB/03 RMK AO2 SLP161 P0003 T01060106
53988KBKB BKB20190103105513501/03/19 10:55:31  5-MIN KBKB 031655Z AUTO VRB03KT 7SM -RA BKN005 OVC008 11/11 A2991 310 100 -100 VRB/03 RMK AO2 PRESFR P0000 T01060106
53988KBKB BKB20190103110012101/03/19 11:00:31  5-MIN KBKB 031700Z AUTO 00000KT 7SM -RA OVC005 11/11 A2991 310 100 -100 000/00 RMK AO2 P0000 T01060106
53988KBKB BKB20190103110512101/03/19 11:05:31  5-MIN KBKB 031705Z AUTO 00000KT 9SM -RA OVC004 11/11 A2990 310 100 -100 000/00 RMK AO2 P0000 T01060106
53988KBKB BKB20190103111012101/03/19 11:10:31  5-MIN KBKB 031710Z AUTO 00000KT 10SM OVC004 11/11 A2990 320 100 0 000/00 RMK AO2 RAE09 P0000 T01060106
53988KBKB BKB20190103111512801/03/19 11:15:31  5-MIN KBKB 031715Z AUTO VRB04KT 6SM -RA BR OVC004 11/11 A2989 330 100 0 VRB/04 RMK AO2 PRESFR P0000 T01060106
53988KBKB BKB20190103112012101/03/19 11:20:31  5-MIN KBKB 031720Z AUTO VRB03KT 5SM -RA BR OVC004 11/11 A2988 330 100 0 VRB/03 RMK AO2 P0000 T01060106
53988KBKB BKB20190103112512101/03/19 11:25:31  5-MIN KBKB 031725Z AUTO VRB03KT 6SM -RA BR OVC004 11/11 A2988 340 100 0 VRB/03 RMK AO2 P0001 T01060106
53988KBKB BKB20190103113011801/03/19 11:30:31  5-MIN KBKB 031730Z AUTO VRB03KT 7SM -RA OVC004 11/11 A2988 340 100 0 VRB/03 RMK AO2 P0001 T01060106
53988KBKB BKB20190103113510801/03/19 11:35:31  5-MIN KBKB 031735Z AUTO 10SM -RA OVC004 11/11 A2987 340 96 0 M /M RMK AO2 P0001 T01110106
53988KBKB BKB20190103114012401/03/19 11:40:31  5-MIN KBKB 031740Z AUTO 08004KT 9SM -RA OVC004 11/11 A2986 360 96 0 080/04 RMK AO2 PRESFR P0001 T01110106
53988KBKB BKB20190103114511801/03/19 11:45:31  5-MIN KBKB 031745Z AUTO VRB04KT 7SM -RA OVC004 11/11 A2986 360 100 0 VRB/04 RMK AO2 P0002 T01110111
53988KBKB BKB20190103115015201/03/19 11:50:31  5-MIN KBKB 031750Z AUTO VRB04KT 6SM -RA BR OVC004 11/11 A2985 360 100 0 VRB/04 RMK AO2 SLP138 P0002 60048 T01110111 10111 20100 53007
53988KBKB BKB20190103115511801/03/19 11:55:31  5-MIN KBKB 031755Z AUTO VRB04KT 9SM -RA OVC004 11/11 A2985 370 100 0 VRB/04 RMK AO2 P0000 T01110111
53988KBKB BKB20190103120011901/03/19 12:00:31  5-MIN KBKB 031800Z AUTO VRB05KT 10SM -RA OVC004 11/11 A2984 370 100 0 VRB/05 RMK AO2 P0000 T01110111
53988KBKB BKB20190103120512801/03/19 12:05:31  5-MIN KBKB 031805Z AUTO VRB03KT 10SM OVC004 11/11 A2983 380 100 0 VRB/03 RMK AO2 RAE05 PRESFR P0000 T01110111
53988KBKB BKB20190103121012001/03/19 12:10:31  5-MIN KBKB 031810Z AUTO VRB04KT 5SM RA BR OVC004 11/11 A2984 380 100 0 VRB/04 RMK AO2 P0002 T01110111
53988KBKB BKB20190103121512101/03/19 12:15:31  5-MIN KBKB 031815Z AUTO VRB03KT 4SM -RA BR OVC004 11/11 A2983 380 100 0 VRB/03 RMK AO2 P0002 T01110111
53988KBKB BKB20190103122011801/03/19 12:20:31  5-MIN KBKB 031820Z AUTO 00000KT 9SM -RA OVC004 11/11 A2983 380 100 0 000/00 RMK AO2 P0002 T01110111
53988KBKB BKB20190103122511901/03/19 12:25:31  5-MIN KBKB 031825Z AUTO VRB03KT 10SM -RA OVC004 11/11 A2984 380 100 0 VRB/03 RMK AO2 P0002 T01110111
53988KBKB BKB20190103123012001/03/19 12:30:31  5-MIN KBKB 031830Z AUTO 10004KT 7SM -RA OVC004 11/11 A2983 390 100 100 100/04 RMK AO2 P0004 T01110111
53988KBKB BKB20190103123512901/03/19 12:35:31  5-MIN KBKB 031835Z AUTO VRB05KT 4SM RA BR OVC004 11/11 A2980 410 100 100 VRB/05 RMK AO2 PRESFR P0005 T01110111
53988KBKB BKB20190103124011901/03/19 12:40:31  5-MIN KBKB 031840Z AUTO 3SM RA BR OVC003 11/11 A2979 410 100 100 M /M RMK AO2 PRESFR P0006 T01110111
53988KBKB BKB20190103124512201/03/19 12:45:31  5-MIN KBKB 031845Z AUTO 00000KT 3SM RA BR OVC003 11/11 A2980 410 100 100 000/00 RMK AO2 P0007 T01110111
53988KBKB BKB20190103125012601/03/19 12:50:31  5-MIN KBKB 031850Z AUTO 3SM RA BR BKN003 OVC007 11/11 A2980 410 100 100 M /M RMK AO2 SLP118 P0008 T01110111
53988KBKB BKB20190103125513301/03/19 12:55:31  5-MIN KBKB 031855Z AUTO 11004KT 2 1/2SM RA BR BKN003 OVC007 11/11 A2980 410 100 100 110/04 RMK AO2 P0001 T01110111
53988KBKB BKB20190103130013001/03/19 13:00:31  5-MIN KBKB 031900Z AUTO VRB04KT 1SM +RA BR BKN003 OVC015 11/11 A2978 430 100 100 VRB/04 RMK AO2 P0011 T01110111
53988KBKB BKB20190103130512901/03/19 13:05:31  5-MIN KBKB 031905Z AUTO VRB03KT 1SM RA BR SCT003 OVC019 11/11 A2978 430 100 100 VRB/03 RMK AO2 P0014 T01110111
53988KBKB BKB20190103131013301/03/19 13:10:31  5-MIN KBKB 031910Z AUTO VRB04KT 1 3/4SM RA BR SCT003 OVC019 11/11 A2979 420 100 100 VRB/04 RMK AO2 P0016 T01110111
53988KBKB BKB20190103131513401/03/19 13:15:31  5-MIN KBKB 031915Z AUTO VRB03KT 1 1/4SM +RA BR SCT004 OVC015 11/11 A2980 410 100 100 VRB/03 RMK AO2 P0023 T01110111
53988KBKB BKB20190103132013901/03/19 13:20:31  5-MIN KBKB 031920Z AUTO VRB04KT 1/2SM +RA FG FEW004 OVC013 11/11 A2981 400 100 100 VRB/04 RMK AO2 PRESRR P0037 T01110111
53988KBKB BKB20190103132513201/03/19 13:25:31  5-MIN KBKB 031925Z AUTO 31005KT 1/4SM +RA FG FEW004 OVC013 11/11 A2980 410 100 100 300/05 RMK AO2 P0048 T01110111
53988KBKB BKB20190103133013201/03/19 13:30:31  5-MIN KBKB 031930Z AUTO VRB03KT 1/4SM +RA FG FEW004 OVC013 11/11 A2981 400 100 100 VRB/03 RMK AO2 P0055 T01110111
53988KBKB BKB20190103133513801/03/19 13:35:31  5-MIN KBKB 031935Z AUTO VRB04KT 3/4SM RA BR FEW006 BKN011 OVC016 11/11 A2982 390 100 100 VRB/04 RMK AO2 P0057 T01110111
53988KBKB BKB20190103134013801/03/19 13:40:31  5-MIN KBKB 031940Z AUTO VRB05KT 1 1/2SM RA BR BKN006 OVC014 11/11 A2984 370 100 0 VRB/05 RMK AO2 PRESRR P0059 T01110111
53988KBKB BKB20190103134515301/03/19 13:45:31  5-MIN KBKB 031945Z AUTO VRB04KT 1 1/2SM +RA BR FEW006 BKN010 OVC021 11/11 A2982 390 100 100 VRB/04 RMK AO2 VIS 1V2 1/2 P0062 T01110111
53988KBKB BKB20190103135013001/03/19 13:50:31  5-MIN KBKB 031950Z AUTO VRB03KT 1 3/4SM RA BR FEW006 BKN014 OVC020 11/11 A2982 390 100 100 VRB/03 RMK AO2 P0063
53988KBKB BKB20190103135514101/03/19 13:55:31  5-MIN KBKB 031955Z AUTO VRB04KT 2 1/2SM -RA BR FEW006 BKN014 OVC020 11/11 A2982 390 100 100 VRB/04 RMK AO2 P0000 T01110111
53988KBKB BKB20190103140013901/03/19 14:00:31  5-MIN KBKB 032000Z AUTO 00000KT 1 1/2SM +RA BR FEW006 BKN012 OVC020 11/11 A2983 380 100 0 000/00 RMK AO2 P0004 T01110111
53988KBKB BKB20190103140513901/03/19 14:05:31  5-MIN KBKB 032005Z AUTO 00000KT 1/2SM +RA FG FEW006 BKN010 OVC020 11/11 A2983 390 100 100 000/00 RMK AO2 P0013 T01110111
53988KBKB BKB20190103141013601/03/19 14:10:31  5-MIN KBKB 032010Z AUTO VRB03KT 1/2SM RA FG FEW005 BKN010 OVC020 11/11 A2983 380 100 0 VRB/03 RMK AO2 P0015 T01060106
53988KBKB BKB20190103141513901/03/19 14:15:31  5-MIN KBKB 032015Z AUTO 00000KT 1 1/2SM -RA BR SCT008 BKN013 OVC026 11/11 A2984 370 100 0 000/00 RMK AO2 P0015 T01060106
53988KBKB BKB20190103142013501/03/19 14:20:31  5-MIN KBKB 032020Z AUTO 00000KT 6SM -RA BR FEW005 BKN011 OVC028 11/11 A2983 380 100 0 000/00 RMK AO2 P0016 T01060106
53988KBKB BKB20190103142513201/03/19 14:25:31  5-MIN KBKB 032025Z AUTO 00000KT 7SM -RA FEW005 BKN011 OVC025 11/11 A2982 390 100 0 000/00 RMK AO2 P0016 T01060106
53988KBKB BKB20190103143013501/03/19 14:30:31  5-MIN KBKB 032030Z AUTO 00000KT 6SM -RA BR FEW006 BKN015 OVC025 11/11 A2982 390 100 0 000/00 RMK AO2 P0016 T01060106
53988KBKB BKB20190103143513501/03/19 14:35:31  5-MIN KBKB 032035Z AUTO VRB03KT 5SM -RA BR FEW008 BKN018 OVC024 11/11 A2982 390 100 0 VRB/03 RMK AO2 P0017 T01060106
53988KBKB BKB20190103144013501/03/19 14:40:31  5-MIN KBKB 032040Z AUTO VRB03KT 6SM -RA BR SCT005 BKN018 OVC024 11/11 A2982 390 100 0 VRB/03 RMK AO2 P0017 T01060106
53988KBKB BKB20190103144513201/03/19 14:45:31  5-MIN KBKB 032045Z AUTO VRB03KT 9SM -RA SCT005 BKN014 OVC021 11/11 A2981 400 100 0 VRB/03 RMK AO2 P0017 T01060106
53988KBKB BKB20190103145015401/03/19 14:50:31  5-MIN KBKB 032050Z AUTO VRB04KT 6SM -RA BR BKN005 BKN017 OVC024 11/11 A2982 400 100 0 VRB/04 RMK AO2 SLP125 P0017 60091 T01060106 58035
53988KBKB BKB20190103145513501/03/19 14:55:31  5-MIN KBKB 032055Z AUTO 00000KT 6SM -RA BR BKN005 BKN015 OVC020 11/11 A2981 400 100 0 000/00 RMK AO2 P0000 T01060106
53988KBKB BKB20190103150012601/03/19 15:00:31  5-MIN KBKB 032100Z AUTO VRB03KT 10SM -RA BKN005 OVC017 11/11 A2982 400 100 0 VRB/03 RMK AO2 P0000 T01060106
53988KBKB BKB20190103150512101/03/19 15:05:31  5-MIN KBKB 032105Z AUTO VRB04KT 10SM OVC005 11/11 A2982 390 100 0 VRB/04 RMK AO2 RAE01 P0000 T01060106
53988KBKB BKB20190103151012001/03/19 15:10:31  5-MIN KBKB 032110Z AUTO 00000KT 9SM OVC005 11/11 A2982 390 100 0 000/00 RMK AO2 RAE01 P0000 T01060106
53988KBKB BKB20190103151512001/03/19 15:15:31  5-MIN KBKB 032115Z AUTO VRB03KT 8SM OVC005 11/11 A2982 390 100 0 VRB/03 RMK AO2 RAE01 P0000 T01060106
53988KBKB BKB20190103152012301/03/19 15:20:31  5-MIN KBKB 032120Z AUTO 00000KT 6SM BR OVC005 11/11 A2982 390 100 0 000/00 RMK AO2 RAE01 P0000 T01060106
53988KBKB BKB20190103152513001/03/19 15:25:31  5-MIN KBKB 032125Z AUTO VRB03KT 4SM BR BKN005 OVC018 11/11 A2982 390 100 0 VRB/03 RMK AO2 RAE01 P0000 T01060106
53988KBKB BKB20190103153013401/03/19 15:30:31  5-MIN KBKB 032130Z AUTO VRB03KT 2 1/2SM -RA BR OVC005 11/11 A2981 400 100 0 VRB/03 RMK AO2 RAE01B29 P0000 T01060106
53988KBKB BKB20190103153513001/03/19 15:35:31  5-MIN KBKB 032135Z AUTO VRB03KT 2SM -RA BR OVC005 11/11 A2982 390 100 0 VRB/03 RMK AO2 RAE01B29 P0000 T01060106
53988KBKB BKB20190103154014101/03/19 15:40:31  5-MIN KBKB 032140Z AUTO VRB04KT 2 1/2SM -RA BR BKN005 OVC018 11/11 A2982 390 100 0 VRB/04 RMK AO2 RAE01B29 P0001 T01060106
53988KBKB BKB20190103154514301/03/19 15:45:31  5-MIN KBKB 032145Z AUTO 00000KT 3SM BR BKN005 BKN010 OVC018 11/11 A2982 390 100 0 000/00 RMK AO2 RAE01B29E45 P0001 T01060106
53988KBKB BKB20190103155012601/03/19 15:50:31  5-MIN KBKB 032150Z AUTO VRB03KT 4SM BR BKN006 OVC010 11/11 A2982 390 100 0 VRB/03 RMK AO2 RAE01B29E45 P0001
53988KBKB BKB20190103155511101/03/19 15:55:31  5-MIN KBKB 032155Z AUTO 33005KT 4SM BR OVC006 11/11 A2982 390 100 0 330/05 RMK AO2 T01060106
53988KBKB BKB20190103160011101/03/19 16:00:31  5-MIN KBKB 032200Z AUTO VRB03KT 5SM BR OVC006 11/11 A2982 390 100 0 VRB/03 RMK AO2 T01060106
53988KBKB BKB20190103160511101/03/19 16:05:31  5-MIN KBKB 032205Z AUTO 00000KT 5SM BR OVC006 11/11 A2983 390 100 0 000/00 RMK AO2 T01060106
53988KBKB BKB20190103161011801/03/19 16:10:31  5-MIN KBKB 032210Z AUTO VRB03KT 5SM BR BKN006 OVC016 11/11 A2982 390 100 0 VRB/03 RMK AO2 T01060106
53988KBKB BKB20190103161512601/03/19 16:15:31  5-MIN KBKB 032215Z AUTO 00000KT 7SM BKN006 OVC016 11/10 A2982 390 96 0 000/00 RMK AO2 CIG 004V008 T01060100
53988KBKB BKB20190103162011701/03/19 16:20:31  5-MIN KBKB 032220Z AUTO 00000KT 6SM BR BKN006 OVC016 11/10 A2982 390 96 0 000/00 RMK AO2 T01060100
53988KBKB BKB20190103162511701/03/19 16:25:31  5-MIN KBKB 032225Z AUTO VRB03KT 4SM BR BKN006 OVC016 11/10 A2983 390 96 0 VRB/03 RMK AO2 T01060100
53988KBKB BKB20190103163011101/03/19 16:30:31  5-MIN KBKB 032230Z AUTO VRB03KT 3SM BR OVC005 11/11 A2982 390 100 0 VRB/03 RMK AO2 T01060106
53988KBKB BKB20190103163512301/03/19 16:35:31  5-MIN KBKB 032235Z AUTO VRB04KT 4SM BR OVC005 10/10 A2982 390 100 0 VRB/04 RMK AO2 CIG 004V009 T01000100
53988KBKB BKB20190103164011801/03/19 16:40:31  5-MIN KBKB 032240Z AUTO VRB05KT 5SM BR BKN005 OVC010 10/10 A2983 390 100 0 VRB/05 RMK AO2 T01000100
53988KBKB BKB20190103164513001/03/19 16:45:31  5-MIN KBKB 032245Z AUTO VRB03KT 6SM BR BKN005 OVC010 10/10 A2983 390 100 0 VRB/03 RMK AO2 CIG 004V009 T01000100
53988KBKB BKB20190103165013701/03/19 16:50:31  5-MIN KBKB 032250Z AUTO VRB04KT 6SM BR BKN005 OVC010 10/10 A2982 390 100 0 VRB/04 RMK AO2 CIG 004V009 SLP127 T01000100
53988KBKB BKB20190103165512201/03/19 16:55:31  5-MIN KBKB 032255Z AUTO VRB04KT 6SM BR OVC005 10/09 A2982 390 96 0 VRB/04 RMK AO2 CIG 004V009 T01000094
53988KBKB BKB20190103170011901/03/19 17:00:31  5-MIN KBKB 032300Z AUTO VRB03KT 7SM OVC005 10/09 A2982 390 96 0 VRB/03 RMK AO2 CIG 004V009 T01000094
53988KBKB BKB20190103170511401/03/19 17:05:31  5-MIN KBKB 032305Z AUTO VRB03KT 8SM BKN005 OVC020 10/09 A2982 390 96 0 VRB/03 RMK AO2 T01000094
53988KBKB BKB20190103171012501/03/19 17:10:31  5-MIN KBKB 032310Z AUTO VRB03KT 9SM BKN005 BKN014 OVC020 09/09 A2982 390 100 -100 VRB/03 RMK AO2 T00940094
53988KBKB BKB20190103171511901/03/19 17:15:31  5-MIN KBKB 032315Z AUTO 35004KT 10SM BKN005 OVC020 09/09 A2981 400 100 -100 350/04 RMK AO2 T00940094
53988KBKB BKB20190103172011901/03/19 17:20:31  5-MIN KBKB 032320Z AUTO 36003KT 10SM BKN005 OVC020 09/09 A2981 400 100 -100 350/03 RMK AO2 T00940094
53988KBKB BKB20190103172511901/03/19 17:25:31  5-MIN KBKB 032325Z AUTO 00000KT 10SM BKN005 OVC020 09/09 A2981 400 100 -100 000/00 RMK AO2 T00940094
53988KBKB BKB20190103173011901/03/19 17:30:31  5-MIN KBKB 032330Z AUTO 00000KT 10SM BKN005 OVC020 09/09 A2981 400 100 -100 000/00 RMK AO2 T00940094
53988KBKB BKB20190103173511901/03/19 17:35:31  5-MIN KBKB 032335Z AUTO 00000KT 10SM BKN005 OVC020 09/09 A2982 390 100 -100 000/00 RMK AO2 T00940094
53988KBKB BKB20190103174011201/03/19 17:40:31  5-MIN KBKB 032340Z AUTO VRB04KT 10SM OVC005 09/09 A2982 390 100 -100 VRB/04 RMK AO2 T00940094
53988KBKB BKB20190103174511201/03/19 17:45:31  5-MIN KBKB 032345Z AUTO 00000KT 10SM OVC005 09/09 A2983 380 100 -100 000/00 RMK AO2 T00940094
53988KBKB BKB20190103175014301/03/19 17:50:31  5-MIN KBKB 032350Z AUTO VRB03KT 10SM OVC005 09/09 A2983 380 100 -100 VRB/03 RMK AO2 SLP129 60092 T00940094 10111 20094 56012
53988KBKB BKB20190103175511801/03/19 17:55:31  5-MIN KBKB 032355Z AUTO 00000KT 10SM BKN005 OVC022 09/09 A2982 390 96 -100 000/00 RMK AO2 T00940089
53988KBKB BKB20190103180011801/03/19 18:00:31  5-MIN KBKB 040000Z AUTO 00000KT 10SM BKN005 OVC022 09/09 A2982 390 96 -100 000/00 RMK AO2 T00940089
53988KBKB BKB20190103180511801/03/19 18:05:31  5-MIN KBKB 040005Z AUTO 00000KT 10SM SCT005 OVC022 09/09 A2982 390 96 -100 000/00 RMK AO2 T00940089
53988KBKB BKB20190103181012501/03/19 18:10:31  5-MIN KBKB 040010Z AUTO 05003KT 10SM SCT005 BKN022 OVC039 09/09 A2981 400 96 -100 050/03 RMK AO2 T00940089
53988KBKB BKB20190103181507001/03/19 18:15:31  5-MIN KBKB 040015Z AUTO 00000KT 10SM SCT005 BKN022 
53988KBKB BKB20190104015012701/04/19 01:50:31  5-MIN KBKB 040750Z AUTO VRB03KT 10SM BKN014 BKN021 06/05 A2989 330 93 -600 VRB/03 RMK AO2 SLP151 T00610050 $
53988KBKB BKB20190104015512001/04/19 01:55:31  5-MIN KBKB 040755Z AUTO VRB03KT 10SM SCT014 OVC019 06/04 A2989 330 89 -600 VRB/03 RMK AO2 T00610044 $
53988KBKB BKB20190104020012001/04/19 02:00:31  5-MIN KBKB 040800Z AUTO VRB03KT 10SM SCT014 OVC021 06/04 A2989 330 89 -600 VRB/03 RMK AO2 T00610044 $
53988KBKB BKB20190104020512001/04/19 02:05:31  5-MIN KBKB 040805Z AUTO VRB04KT 10SM SCT012 OVC021 06/04 A2988 330 89 -600 VRB/04 RMK AO2 T00610044 $
53988KBKB BKB20190104021012001/04/19 02:10:31  5-MIN KBKB 040810Z AUTO VRB03KT 10SM SCT012 OVC021 06/04 A2988 330 92 -600 VRB/03 RMK AO2 T00560044 $
53988KBKB BKB20190104021512001/04/19 02:15:31  5-MIN KBKB 040815Z AUTO VRB06KT 10SM BKN012 OVC021 06/04 A2988 330 92 -600 VRB/06 RMK AO2 T00560044 $
53988KBKB BKB20190104022012001/04/19 02:20:31  5-MIN KBKB 040820Z AUTO VRB03KT 10SM BKN012 OVC021 06/04 A2988 330 92 -600 VRB/03 RMK AO2 T00560044 $
53988KBKB BKB20190104022512001/04/19 02:25:31  5-MIN KBKB 040825Z AUTO VRB04KT 10SM SCT011 OVC021 06/04 A2989 330 92 -600 VRB/04 RMK AO2 T00560044 $
53988KBKB BKB20190104023012001/04/19 02:30:31  5-MIN KBKB 040830Z AUTO VRB03KT 10SM SCT011 OVC021 06/04 A2989 330 92 -600 VRB/03 RMK AO2 T00560044 $
53988KBKB BKB20190104023512001/04/19 02:35:31  5-MIN KBKB 040835Z AUTO 23004KT 10SM BKN011 OVC021 06/04 A2989 330 92 -600 230/04 RMK AO2 T00560044 $
53988KBKB BKB20190104024012001/04/19 02:40:31  5-MIN KBKB 040840Z AUTO VRB04KT 10SM BKN012 OVC020 06/04 A2989 330 92 -600 VRB/04 RMK AO2 T00560044 $
53988KBKB BKB20190104024512001/04/19 02:45:31  5-MIN KBKB 040845Z AUTO VRB06KT 10SM SCT012 OVC020 06/04 A2989 330 89 -600 VRB/06 RMK AO2 T00560039 $
53988KBKB BKB20190104025013301/04/19 02:50:31  5-MIN KBKB 040850Z AUTO VRB03KT 10SM SCT013 OVC020 06/04 A2989 330 89 -600 VRB/03 RMK AO2 SLP150 T00560039 53002 $
53988KBKB BKB20190104025507901/04/19 02:55:31  5-MIN KBKB 040855Z AUTO VRB03KT A2988 M M M VRB/03 RMK AO2 $
53988KBKB BKB20190104030010101/04/19 03:00:31  5-MIN KBKB 040900Z AUTO VRB04KT 05/04 A2988 330 92 -700 VRB/04 RMK AO2 T00500039 $
53988KBKB BKB20190104030510601/04/19 03:05:31  5-MIN KBKB 040905Z AUTO VRB03KT 10SM 05/04 A2988 330 92 -700 VRB/03 RMK AO2 T00500039 $
53988KBKB BKB20190104031011101/04/19 03:10:31  5-MIN KBKB 040910Z AUTO 00000KT 10SM 05/04 A2989 330 92 -700 000/00 RMK AO2 T00500039 TSNO $
53988KBKB BKB20190104031510601/04/19 03:15:31  5-MIN KBKB 040915Z AUTO 00000KT 10SM 04/04 A2988 330 96 -800 000/00 RMK AO2 T00440039 $
53988KBKB BKB20190104032010601/04/19 03:20:31  5-MIN KBKB 040920Z AUTO 00000KT 10SM 04/04 A2989 330 96 -800 000/00 RMK AO2 T00440039 $
53988KBKB BKB20190104032511301/04/19 03:25:31  5-MIN KBKB 040925Z AUTO VRB03KT 10SM BKN020 04/04 A2988 330 96 -800 VRB/03 RMK AO2 T00440039 $
53988KBKB BKB20190104033011301/04/19 03:30:31  5-MIN KBKB 040930Z AUTO 00000KT 10SM BKN020 05/04 A2988 330 92 -700 000/00 RMK AO2 T00500039 $
53988KBKB BKB20190104033511301/04/19 03:35:31  5-MIN KBKB 040935Z AUTO VRB03KT 10SM OVC020 05/04 A2988 330 92 -700 VRB/03 RMK AO2 T00500039 $
53988KBKB BKB20190104034011301/04/19 03:40:31  5-MIN KBKB 040940Z AUTO 00000KT 10SM OVC019 04/04 A2988 330 96 -800 000/00 RMK AO2 T00440039 $
53988KBKB BKB20190104034511301/04/19 03:45:31  5-MIN KBKB 040945Z AUTO VRB03KT 10SM OVC019 04/04 A2988 330 96 -800 VRB/03 RMK AO2 T00440039 $
53988KBKB BKB20190104035012001/04/19 03:50:31  5-MIN KBKB 040950Z AUTO 00000KT 10SM OVC018 04/04 A2988 340 96 -800 000/00 RMK AO2 SLP148 T00440039 $
53988KBKB BKB20190104035511301/04/19 03:55:31  5-MIN KBKB 040955Z AUTO 00000KT 10SM OVC018 04/04 A2988 340 96 -800 000/00 RMK AO2 T00440039 $
53988KBKB BKB20190104040011301/04/19 04:00:31  5-MIN KBKB 041000Z AUTO 23003KT 10SM OVC018 04/04 A2987 340 96 -800 220/03 RMK AO2 T00440039 $
53988KBKB BKB20190104040511301/04/19 04:05:31  5-MIN KBKB 041005Z AUTO 00000KT 10SM OVC016 04/04 A2988 340 96 -800 000/00 RMK AO2 T00440039 $
53988KBKB BKB20190104041011301/04/19 04:10:31  5-MIN KBKB 041010Z AUTO VRB03KT 10SM OVC016 04/04 A2988 340 96 -800 VRB/03 RMK AO2 T00440039 $
53988KBKB BKB20190104041511301/04/19 04:15:31  5-MIN KBKB 041015Z AUTO VRB03KT 10SM OVC013 04/04 A2988 340 96 -800 VRB/03 RMK AO2 T00440039 $
53988KBKB BKB20190104042012001/04/19 04:20:31  5-MIN KBKB 041020Z AUTO VRB04KT 10SM BKN013 OVC018 04/04 A2988 340 96 -800 VRB/04 RMK AO2 T00440039 $
53988KBKB BKB20190104042511301/04/19 04:25:31  5-MIN KBKB 041025Z AUTO 22003KT 10SM OVC013 04/04 A2988 340 96 -800 210/03 RMK AO2 T00440039 $
53988KBKB BKB20190104043011301/04/19 04:30:31  5-MIN KBKB 041030Z AUTO VRB04KT 10SM OVC013 04/03 A2988 340 92 -800 VRB/04 RMK AO2 T00440033 $
53988KBKB BKB20190104043511301/04/19 04:35:31  5-MIN KBKB 041035Z AUTO VRB04KT 10SM OVC013 04/03 A2988 330 92 -800 VRB/04 RMK AO2 T00440033 $
53988KBKB BKB20190104044011301/04/19 04:40:31  5-MIN KBKB 041040Z AUTO VRB04KT 10SM OVC015 04/03 A2988 330 92 -800 VRB/04 RMK AO2 T00440033 $
53988KBKB BKB20190104044511301/04/19 04:45:31  5-MIN KBKB 041045Z AUTO VRB05KT 10SM OVC013 04/03 A2988 330 92 -800 VRB/05 RMK AO2 T00440033 $
53988KBKB BKB20190104045012001/04/19 04:50:31  5-MIN KBKB 041050Z AUTO VRB03KT 10SM OVC013 05/03 A2988 330 89 -700 VRB/03 RMK AO2 SLP149 T00500033 $
53988KBKB BKB20190104045510301/04/19 04:55:31  5-MIN KBKB 041055Z AUTO 10SM OVC013 04/03 A2988 330 92 -800 M /M RMK AO2 T00440033 $
53988KBKB BKB20190104050011301/04/19 05:00:31  5-MIN KBKB 041100Z AUTO VRB03KT 10SM OVC013 04/03 A2989 330 92 -800 VRB/03 RMK AO2 T00440033 $
53988KBKB BKB20190104050511301/04/19 05:05:31  5-MIN KBKB 041105Z AUTO VRB06KT 10SM OVC013 04/03 A2989 330 92 -800 VRB/06 RMK AO2 T00440033 $
53988KBKB BKB20190104051011301/04/19 05:10:31  5-MIN KBKB 041110Z AUTO VRB04KT 10SM OVC013 04/03 A2989 330 92 -800 VRB/04 RMK AO2 T00440033 $
53988KBKB BKB20190104051511301/04/19 05:15:31  5-MIN KBKB 041115Z AUTO VRB05KT 10SM OVC013 04/03 A2989 330 92 -800 VRB/05 RMK AO2 T00440033 $
53988KBKB BKB20190104052011301/04/19 05:20:31  5-MIN KBKB 041120Z AUTO VRB03KT 10SM OVC013 04/03 A2989 330 92 -800 VRB/03 RMK AO2 T00440033 $
53988KBKB BKB20190104052511301/04/19 05:25:31  5-MIN KBKB 041125Z AUTO VRB06KT 10SM OVC013 04/03 A2989 330 89 -800 VRB/06 RMK AO2 T00440028 $
53988KBKB BKB20190104053011301/04/19 05:30:31  5-MIN KBKB 041130Z AUTO VRB04KT 10SM OVC013 04/03 A2989 320 89 -800 VRB/04 RMK AO2 T00440028 $
53988KBKB BKB20190104053511301/04/19 05:35:31  5-MIN KBKB 041135Z AUTO VRB05KT 10SM OVC012 04/03 A2990 320 89 -800 VRB/05 RMK AO2 T00440028 $
53988KBKB BKB20190104054011301/04/19 05:40:31  5-MIN KBKB 041140Z AUTO VRB04KT 10SM BKN012 04/03 A2989 320 89 -800 VRB/04 RMK AO2 T00440028 $
53988KBKB BKB20190104054511301/04/19 05:45:31  5-MIN KBKB 041145Z AUTO VRB05KT 10SM OVC014 04/03 A2989 320 89 -800 VRB/05 RMK AO2 T00440028 $
53988KBKB BKB20190104055013801/04/19 05:50:31  5-MIN KBKB 041150Z AUTO VRB04KT 10SM OVC014 04/03 A2989 330 89 -800 VRB/04 RMK AO2 SLP152 70143 T00440028 10072 20044 $
53988KBKB BKB20190104055511301/04/19 05:55:31  5-MIN KBKB 041155Z AUTO VRB04KT 10SM OVC014 04/03 A2989 320 89 -800 VRB/04 RMK AO2 T00440028 $
53988KBKB BKB20190104060011301/04/19 06:00:31  5-MIN KBKB 041200Z AUTO VRB05KT 10SM OVC014 04/03 A2989 320 89 -800 VRB/05 RMK AO2 T00440028 $
53988KBKB BKB20190104060511301/04/19 06:05:31  5-MIN KBKB 041205Z AUTO VRB03KT 10SM OVC014 04/03 A2990 320 89 -800 VRB/03 RMK AO2 T00440028 $
53988KBKB BKB20190104061011301/04/19 06:10:31  5-MIN KBKB 041210Z AUTO VRB06KT 10SM OVC014 04/03 A2990 320 89 -800 VRB/06 RMK AO2 T00440028 $
53988KBKB BKB20190104061512001/04/19 06:15:31  5-MIN KBKB 041215Z AUTO VRB05KT 10SM BKN011 OVC016 04/03 A2990 320 89 -800 VRB/05 RMK AO2 T00440028 $
53988KBKB BKB20190104062012501/04/19 06:20:31  5-MIN KBKB 041220Z AUTO VRB05KT 10SM OVC011 04/03 A2990 320 89 -800 VRB/05 RMK AO2 CIG 009V014 T00440028 $
53988KBKB BKB20190104062512501/04/19 06:25:31  5-MIN KBKB 041225Z AUTO VRB03KT 10SM OVC011 04/03 A2990 320 92 -900 VRB/03 RMK AO2 CIG 009V015 T00390028 $
53988KBKB BKB20190104063012501/04/19 06:30:31  5-MIN KBKB 041230Z AUTO VRB05KT 10SM OVC011 04/03 A2990 310 92 -900 VRB/05 RMK AO2 CIG 009V014 T00390028 $
53988KBKB BKB20190104063512501/04/19 06:35:31  5-MIN KBKB 041235Z AUTO VRB03KT 10SM OVC010 04/03 A2990 310 92 -900 VRB/03 RMK AO2 CIG 008V013 T00390028 $
53988KBKB BKB20190104064012501/04/19 06:40:31  5-MIN KBKB 041240Z AUTO 24005KT 10SM OVC010 04/03 A2991 310 92 -900 240/05 RMK AO2 CIG 008V013 T00390028 $
53988KBKB BKB20190104064511301/04/19 06:45:31  5-MIN KBKB 041245Z AUTO VRB03KT 10SM OVC009 04/03 A2991 310 92 -900 VRB/03 RMK AO2 T00390028 $
53988KBKB BKB20190104065012001/04/19 06:50:31  5-MIN KBKB 041250Z AUTO VRB03KT 10SM OVC009 04/03 A2992 300 92 -900 VRB/03 RMK AO2 SLP161 T00390028 $
53988KBKB BKB20190104065511301/04/19 06:55:31  5-MIN KBKB 041255Z AUTO VRB04KT 10SM OVC009 04/03 A2991 300 92 -900 VRB/04 RMK AO2 T00390028 $
53988KBKB BKB20190104070011301/04/19 07:00:31  5-MIN KBKB 041300Z AUTO VRB03KT 10SM OVC009 04/03 A2991 300 92 -900 VRB/03 RMK AO2 T00390028 $
53988KBKB BKB20190104070511301/04/19 07:05:31  5-MIN KBKB 041305Z AUTO VRB03KT 10SM OVC009 04/03 A2992 300 92 -900 VRB/03 RMK AO2 T00390028 $
53988KBKB BKB20190104071012501/04/19 07:10:31  5-MIN KBKB 041310Z AUTO VRB05KT 10SM OVC009 04/03 A2992 300 92 -900 VRB/05 RMK AO2 CIG 009V013 T00390028 $
53988KBKB BKB20190104071511301/04/19 07:15:31  5-MIN KBKB 041315Z AUTO VRB05KT 10SM OVC009 04/02 A2992 290 89 -900 VRB/05 RMK AO2 T00390022 $
53988KBKB BKB20190104072011301/04/19 07:20:31  5-MIN KBKB 041320Z AUTO VRB03KT 10SM OVC010 04/02 A2993 290 89 -900 VRB/03 RMK AO2 T00390022 $
53988KBKB BKB20190104072511301/04/19 07:25:31  5-MIN KBKB 041325Z AUTO VRB05KT 10SM OVC010 04/03 A2993 290 92 -900 VRB/05 RMK AO2 T00390028 $
53988KBKB BKB20190104073011301/04/19 07:30:31  5-MIN KBKB 041330Z AUTO 26005KT 10SM OVC010 04/02 A2993 290 89 -900 250/05 RMK AO2 T00390022 $
53988KBKB BKB20190104073511301/04/19 07:35:31  5-MIN KBKB 041335Z AUTO VRB05KT 10SM OVC010 04/02 A2993 290 89 -900 VRB/05 RMK AO2 T00390022 $
53988KBKB BKB20190104074011301/04/19 07:40:31  5-MIN KBKB 041340Z AUTO VRB05KT 10SM OVC011 04/03 A2993 290 92 -900 VRB/05 RMK AO2 T00390028 $
53988KBKB BKB20190104074511301/04/19 07:45:31  5-MIN KBKB 041345Z AUTO VRB05KT 10SM OVC013 04/03 A2994 280 92 -900 VRB/05 RMK AO2 T00390028 $
53988KBKB BKB20190104075012001/04/19 07:50:31  5-MIN KBKB 041350Z AUTO VRB04KT 10SM OVC013 04/03 A2994 280 92 -900 VRB/04 RMK AO2 SLP168 T00390028 $
53988KBKB BKB20190104075511301/04/19 07:55:31  5-MIN KBKB 041355Z AUTO VRB04KT 10SM OVC013 04/03 A2994 280 89 -800 VRB/04 RMK AO2 T00440028 $
53988KBKB BKB20190104080012001/04/19 08:00:31  5-MIN KBKB 041400Z AUTO VRB03KT 10SM BKN011 OVC016 04/03 A2994 280 89 -800 VRB/03 RMK AO2 T00440028 $
53988KBKB BKB20190104080511301/04/19 08:05:31  5-MIN KBKB 041405Z AUTO VRB03KT 10SM OVC013 04/03 A2994 280 89 -800 VRB/03 RMK AO2 T00440028 $
53988KBKB BKB20190104081011301/04/19 08:10:31  5-MIN KBKB 041410Z AUTO VRB03KT 10SM OVC013 04/03 A2994 280 89 -800 VRB/03 RMK AO2 T00440028 $
53988KBKB BKB20190104081511301/04/19 08:15:31  5-MIN KBKB 041415Z AUTO 00000KT 10SM OVC013 04/03 A2995 270 89 -800 000/00 RMK AO2 T00440028 $
53988KBKB BKB20190104082010301/04/19 08:20:31  5-MIN KBKB 041420Z AUTO 10SM OVC013 04/03 A2995 270 89 -900 M /M RMK AO2 T00440028 $
53988KBKB BKB20190104082511301/04/19 08:25:31  5-MIN KBKB 041425Z AUTO VRB04KT 10SM OVC013 04/03 A2995 270 89 -900 VRB/04 RMK AO2 T00440028 $
53988KBKB BKB20190104083011301/04/19 08:30:31  5-MIN KBKB 041430Z AUTO VRB05KT 10SM OVC015 05/03 A2995 270 85 -800 VRB/05 RMK AO2 T00500028 $
53988KBKB BKB20190104083511301/04/19 08:35:31  5-MIN KBKB 041435Z AUTO VRB03KT 10SM OVC015 05/03 A2995 270 85 -800 VRB/03 RMK AO2 T00500028 $
53988KBKB BKB20190104084011301/04/19 08:40:31  5-MIN KBKB 041440Z AUTO VRB04KT 10SM OVC015 05/03 A2996 270 85 -800 VRB/04 RMK AO2 T00500028 $
53988KBKB BKB20190104084511301/04/19 08:45:31  5-MIN KBKB 041445Z AUTO VRB03KT 10SM OVC015 05/03 A2996 260 85 -800 VRB/03 RMK AO2 T00500028 $
53988KBKB BKB20190104085012601/04/19 08:50:31  5-MIN KBKB 041450Z AUTO VRB05KT 10SM OVC016 05/03 A2996 260 85 -800 VRB/05 RMK AO2 SLP175 T00500028 53005 $
53988KBKB BKB20190104085510301/04/19 08:55:31  5-MIN KBKB 041455Z AUTO 10SM OVC016 05/03 A2996 260 85 -800 M /M RMK AO2 T00500028 $
53988KBKB BKB20190104090011301/04/19 09:00:31  5-MIN KBKB 041500Z AUTO VRB03KT 10SM OVC015 05/03 A2996 260 85 -800 VRB/03 RMK AO2 T00500028 $
53988KBKB BKB20190104090511301/04/19 09:05:31  5-MIN KBKB 041505Z AUTO VRB04KT 10SM OVC015 06/03 A2996 260 82 -700 VRB/04 RMK AO2 T00560028 $
53988KBKB BKB20190104091011301/04/19 09:10:31  5-MIN KBKB 041510Z AUTO 00000KT 10SM OVC015 06/03 A2996 260 85 -700 000/00 RMK AO2 T00560033 $
53988KBKB BKB20190104091511301/04/19 09:15:31  5-MIN KBKB 041515Z AUTO VRB04KT 10SM OVC015 06/03 A2996 260 85 -700 VRB/04 RMK AO2 T00560033 $
53988KBKB BKB20190104092011301/04/19 09:20:31  5-MIN KBKB 041520Z AUTO VRB05KT 10SM OVC015 06/03 A2997 260 82 -700 VRB/05 RMK AO2 T00610033 $
53988KBKB BKB20190104092511301/04/19 09:25:31  5-MIN KBKB 041525Z AUTO 00000KT 10SM OVC015 06/03 A2997 250 85 -700 000/00 RMK AO2 T00560033 $
53988KBKB BKB20190104093011301/04/19 09:30:31  5-MIN KBKB 041530Z AUTO 00000KT 10SM OVC015 06/03 A2997 250 82 -700 000/00 RMK AO2 T00610033 $
53988KBKB BKB20190104093511301/04/19 09:35:31  5-MIN KBKB 041535Z AUTO VRB04KT 10SM OVC015 06/03 A2998 250 82 -700 VRB/04 RMK AO2 T00610033 $
53988KBKB BKB20190104094011301/04/19 09:40:31  5-MIN KBKB 041540Z AUTO 00000KT 10SM OVC015 06/03 A2998 250 82 -700 000/00 RMK AO2 T00560028 $
53988KBKB BKB20190104094511301/04/19 09:45:31  5-MIN KBKB 041545Z AUTO VRB03KT 10SM OVC014 06/03 A2998 240 82 -700 VRB/03 RMK AO2 T00610033 $
53988KBKB BKB20190104095010301/04/19 09:50:31  5-MIN KBKB 041550Z AUTO 00000KT 10SM OVC014 06/03 A2998 240 85 -700 000/00 RMK AO2 $
53988KBKB BKB20190104095511301/04/19 09:55:31  5-MIN KBKB 041555Z AUTO VRB03KT 10SM OVC014 06/03 A2998 240 82 -700 VRB/03 RMK AO2 T00610033 $
53988KBKB BKB20190104100011301/04/19 10:00:31  5-MIN KBKB 041600Z AUTO VRB05KT 10SM OVC014 06/03 A2998 240 82 -700 VRB/05 RMK AO2 T00610033 $
53988KBKB BKB20190104100511301/04/19 10:05:31  5-MIN KBKB 041605Z AUTO 00000KT 10SM OVC014 06/03 A2998 240 82 -700 000/00 RMK AO2 T00610033 $
53988KBKB BKB20190104101011301/04/19 10:10:31  5-MIN KBKB 041610Z AUTO VRB04KT 10SM OVC014 06/03 A2998 240 82 -700 VRB/04 RMK AO2 T00610033 $
53988KBKB BKB20190104101511301/04/19 10:15:31  5-MIN KBKB 041615Z AUTO VRB03KT 10SM OVC015 06/03 A2998 240 82 -700 VRB/03 RMK AO2 T00610033 $
53988KBKB BKB20190104102011301/04/19 10:20:31  5-MIN KBKB 041620Z AUTO VRB03KT 10SM OVC015 06/03 A2998 240 82 -700 VRB/03 RMK AO2 T00610033 $
53988KBKB BKB20190104102511301/04/19 10:25:31  5-MIN KBKB 041625Z AUTO VRB04KT 10SM OVC015 06/03 A2997 250 82 -700 VRB/04 RMK AO2 T00610033 $
53988KBKB BKB20190104103011301/04/19 10:30:31  5-MIN KBKB 041630Z AUTO VRB05KT 10SM OVC015 07/03 A2997 250 79 -600 VRB/05 RMK AO2 T00670033 $
53988KBKB BKB20190104103512901/04/19 10:35:31  5-MIN KBKB 041635Z AUTO 28007KT 240V320 10SM OVC015 07/03 A2997 250 76 -600 280/07 240V320 RMK AO2 T00670028 $
53988KBKB BKB20190104104011301/04/19 10:40:31  5-MIN KBKB 041640Z AUTO VRB05KT 10SM OVC017 07/03 A2997 260 79 -600 VRB/05 RMK AO2 T00670033 $
53988KBKB BKB20190104104511301/04/19 10:45:31  5-MIN KBKB 041645Z AUTO VRB04KT 10SM OVC017 07/03 A2997 260 79 -600 VRB/04 RMK AO2 T00670033 $
53988KBKB BKB20190104105012001/04/19 10:50:31  5-MIN KBKB 041650Z AUTO VRB05KT 10SM OVC017 07/03 A2997 260 79 -600 VRB/05 RMK AO2 SLP177 T00670033 $
53988KBKB BKB20190104105511301/04/19 10:55:31  5-MIN KBKB 041655Z AUTO VRB03KT 10SM OVC017 07/04 A2997 260 79 -500 VRB/03 RMK AO2 T00720039 $
53988KBKB BKB20190104110011301/04/19 11:00:31  5-MIN KBKB 041700Z AUTO 00000KT 10SM OVC017 07/04 A2996 260 79 -500 000/00 RMK AO2 T00720039 $
53988KBKB BKB20190104110511301/04/19 11:05:31  5-MIN KBKB 041705Z AUTO 00000KT 10SM OVC017 08/04 A2996 260 79 -500 000/00 RMK AO2 T00780044 $
53988KBKB BKB20190104111011301/04/19 11:10:31  5-MIN KBKB 041710Z AUTO VRB03KT 10SM OVC017 08/04 A2996 260 76 -500 VRB/03 RMK AO2 T00780039 $
53988KBKB BKB20190104111511301/04/19 11:15:31  5-MIN KBKB 041715Z AUTO VRB04KT 10SM OVC016 07/04 A2996 260 79 -500 VRB/04 RMK AO2 T00720039 $
53988KBKB BKB20190104112011301/04/19 11:20:31  5-MIN KBKB 041720Z AUTO VRB05KT 10SM OVC016 07/04 A2996 260 79 -500 VRB/05 RMK AO2 T00720039 $
53988KBKB BKB20190104112511301/04/19 11:25:31  5-MIN KBKB 041725Z AUTO VRB04KT 10SM OVC016 07/03 A2996 260 76 -500 VRB/04 RMK AO2 T00720033 $
53988KBKB BKB20190104113011301/04/19 11:30:31  5-MIN KBKB 041730Z AUTO VRB05KT 10SM OVC016 07/03 A2996 260 76 -500 VRB/05 RMK AO2 T00720033 $
53988KBKB BKB20190104113511301/04/19 11:35:31  5-MIN KBKB 041735Z AUTO VRB05KT 10SM OVC016 07/03 A2996 260 79 -600 VRB/05 RMK AO2 T00670033 $
53988KBKB BKB20190104114011301/04/19 11:40:31  5-MIN KBKB 041740Z AUTO VRB04KT 10SM OVC016 07/03 A2996 260 79 -600 VRB/04 RMK AO2 T00670033 $
53988KBKB BKB20190104114511301/04/19 11:45:31  5-MIN KBKB 041745Z AUTO VRB04KT 10SM OVC016 07/03 A2996 260 79 -600 VRB/04 RMK AO2 T00670033 $
53988KBKB BKB20190104115013801/04/19 11:50:31  5-MIN KBKB 041750Z AUTO VRB05KT 10SM OVC016 07/03 A2996 260 79 -600 VRB/05 RMK AO2 SLP175 T00670033 10078 20039 53022 $
53988KBKB BKB20190104115511301/04/19 11:55:31  5-MIN KBKB 041755Z AUTO VRB04KT 10SM OVC016 07/03 A2996 260 79 -600 VRB/04 RMK AO2 T00670033 $
53988KBKB BKB20190104120011301/04/19 12:00:31  5-MIN KBKB 041800Z AUTO VRB03KT 10SM OVC016 07/03 A2996 270 79 -600 VRB/03 RMK AO2 T00670033 $
53988KBKB BKB20190104120511301/04/19 12:05:31  5-MIN KBKB 041805Z AUTO 00000KT 10SM OVC016 07/04 A2995 270 79 -500 000/00 RMK AO2 T00720039 $
53988KBKB BKB20190104121010301/04/19 12:10:31  5-MIN KBKB 041810Z AUTO 10SM OVC016 07/03 A2995 270 76 -500 M /M RMK AO2 T00720033 $
53988KBKB BKB20190104121511301/04/19 12:15:31  5-MIN KBKB 041815Z AUTO VRB03KT 10SM OVC016 07/04 A2995 270 79 -500 VRB/03 RMK AO2 T00720039 $
53988KBKB BKB20190104122010301/04/19 12:20:31  5-MIN KBKB 041820Z AUTO 10SM OVC016 08/04 A2995 270 76 -400 M /M RMK AO2 T00780039 $
53988KBKB BKB20190104122511301/04/19 12:25:31  5-MIN KBKB 041825Z AUTO VRB05KT 10SM OVC016 07/04 A2995 270 79 -500 VRB/05 RMK AO2 T00720039 $
53988KBKB BKB20190104123011301/04/19 12:30:31  5-MIN KBKB 041830Z AUTO 00000KT 10SM OVC016 07/04 A2994 280 79 -500 000/00 RMK AO2 T00720039 $
53988KBKB BKB20190104123511301/04/19 12:35:31  5-MIN KBKB 041835Z AUTO VRB05KT 10SM OVC017 08/04 A2994 280 76 -400 VRB/05 RMK AO2 T00780039 $
53988KBKB BKB20190104124011301/04/19 12:40:31  5-MIN KBKB 041840Z AUTO VRB05KT 10SM OVC017 07/04 A2994 280 79 -500 VRB/05 RMK AO2 T00720039 $
53988KBKB BKB20190104124511301/04/19 12:45:31  5-MIN KBKB 041845Z AUTO VRB05KT 10SM OVC017 07/04 A2994 280 79 -500 VRB/05 RMK AO2 T00720039 $
53988KBKB BKB20190104125012001/04/19 12:50:31  5-MIN KBKB 041850Z AUTO VRB03KT 10SM OVC017 08/04 A2994 280 76 -400 VRB/03 RMK AO2 SLP168 T00780039 $
53988KBKB BKB20190104125510301/04/19 12:55:31  5-MIN KBKB 041855Z AUTO 10SM OVC017 08/04 A2994 280 73 -400 M /M RMK AO2 T00830039 $
53988KBKB BKB20190104130010301/04/19 13:00:31  5-MIN KBKB 041900Z AUTO 10SM OVC017 08/04 A2994 280 76 -400 M /M RMK AO2 T00780039 $
53988KBKB BKB20190104130511301/04/19 13:05:31  5-MIN KBKB 041905Z AUTO VRB06KT 10SM OVC017 08/04 A2994 280 76 -400 VRB/06 RMK AO2 T00780039 $
53988KBKB BKB20190104131011301/04/19 13:10:31  5-MIN KBKB 041910Z AUTO VRB06KT 10SM OVC018 08/04 A2994 280 76 -400 VRB/06 RMK AO2 T00780039 $
53988KBKB BKB20190104131511301/04/19 13:15:31  5-MIN KBKB 041915Z AUTO VRB04KT 10SM OVC018 08/04 A2994 280 76 -400 VRB/04 RMK AO2 T00780039 $
53988KBKB BKB20190104132011301/04/19 13:20:31  5-MIN KBKB 041920Z AUTO VRB05KT 10SM OVC018 08/04 A2994 280 76 -400 VRB/05 RMK AO2 T00780039 $
53988KBKB BKB20190104132511301/04/19 13:25:31  5-MIN KBKB 041925Z AUTO VRB03KT 10SM OVC018 08/04 A2994 280 76 -400 VRB/03 RMK AO2 T00780039 $
53988KBKB BKB20190104133011301/04/19 13:30:31  5-MIN KBKB 041930Z AUTO VRB05KT 10SM OVC018 08/04 A2993 290 76 -400 VRB/05 RMK AO2 T00780039 $
53988KBKB BKB20190104133511301/04/19 13:35:31  5-MIN KBKB 041935Z AUTO VRB05KT 10SM OVC018 08/04 A2993 290 76 -400 VRB/05 RMK AO2 T00780039 $
53988KBKB BKB20190104134011301/04/19 13:40:31  5-MIN KBKB 041940Z AUTO VRB04KT 10SM OVC018 08/04 A2993 290 73 -400 VRB/04 RMK AO2 T00830039 $
53988KBKB BKB20190104134511301/04/19 13:45:31  5-MIN KBKB 041945Z AUTO VRB05KT 10SM OVC018 08/04 A2993 290 73 -400 VRB/05 RMK AO2 T00830039 $
53988KBKB BKB20190104135012001/04/19 13:50:31  5-MIN KBKB 041950Z AUTO VRB03KT 10SM OVC018 08/04 A2993 290 73 -400 VRB/03 RMK AO2 SLP166 T00830039 $
53988KBKB BKB20190104135511301/04/19 13:55:31  5-MIN KBKB 041955Z AUTO VRB03KT 10SM OVC018 08/04 A2994 280 76 -400 VRB/03 RMK AO2 T00830044 $
53988KBKB BKB20190104140011301/04/19 14:00:31  5-MIN KBKB 042000Z AUTO VRB03KT 10SM OVC018 09/04 A2994 280 73 -300 VRB/03 RMK AO2 T00890044 $
53988KBKB BKB20190104140506301/04/19 14:05:31  5-MIN KBKB 042005Z AUTO M M M M /M RMK AO2 $
53988KBKB BKB20190104141010101/04/19 14:10:31  5-MIN KBKB 042010Z AUTO VRB03KT 08/04 A2995 270 76 -400 VRB/03 RMK AO2 T00830044 $
53988KBKB BKB20190104141510601/04/19 14:15:31  5-MIN KBKB 042015Z AUTO VRB04KT 10SM 08/04 A2995 270 76 -400 VRB/04 RMK AO2 T00830044 $
53988KBKB BKB20190104142010401/04/19 14:20:31  5-MIN KBKB 042020Z AUTO VRB06KT 10SM 08/04 A2995 270 76 -400 VRB/06 RMK AO2 T00830044
53988KBKB BKB20190104142510401/04/19 14:25:31  5-MIN KBKB 042025Z AUTO VRB03KT 10SM 08/04 A2995 280 76 -400 VRB/03 RMK AO2 T00830044
53988KBKB BKB20190104143010401/04/19 14:30:31  5-MIN KBKB 042030Z AUTO VRB04KT 10SM 09/04 A2995 270 73 -300 VRB/04 RMK AO2 T00890044
53988KBKB BKB20190104143510101/04/19 14:35:31  5-MIN KBKB 042035Z AUTO 10SM OVC020 09/05 A2994 280 76 -300 M /M RMK AO2 T00890050
53988KBKB BKB20190104144011101/04/19 14:40:31  5-MIN KBKB 042040Z AUTO VRB03KT 10SM OVC020 09/05 A2995 270 76 -300 VRB/03 RMK AO2 T00890050
53988KBKB BKB20190104144511101/04/19 14:45:31  5-MIN KBKB 042045Z AUTO VRB03KT 10SM OVC020 09/05 A2995 270 76 -300 VRB/03 RMK AO2 T00890050
53988KBKB BKB20190104145011801/04/19 14:50:31  5-MIN KBKB 042050Z AUTO 00000KT 10SM OVC020 09/04 A2995 270 73 -300 000/00 RMK AO2 SLP171 T00890044
53988KBKB BKB20190104145510101/04/19 14:55:31  5-MIN KBKB 042055Z AUTO 10SM OVC020 09/05 A2995 270 76 -300 M /M RMK AO2 T00890050
53988KBKB BKB20190104150011101/04/19 15:00:31  5-MIN KBKB 042100Z AUTO VRB04KT 10SM OVC020 09/05 A2995 270 76 -300 VRB/04 RMK AO2 T00890050
53988KBKB BKB20190104150511101/04/19 15:05:31  5-MIN KBKB 042105Z AUTO 00000KT 10SM OVC020 09/05 A2995 270 74 -200 000/00 RMK AO2 T00940050
53988KBKB BKB20190104151011101/04/19 15:10:31  5-MIN KBKB 042110Z AUTO VRB04KT 10SM OVC020 09/05 A2995 270 76 -300 VRB/04 RMK AO2 T00890050
53988KBKB BKB20190104151511101/04/19 15:15:31  5-MIN KBKB 042115Z AUTO 00000KT 10SM OVC020 09/05 A2995 270 74 -200 000/00 RMK AO2 T00940050
53988KBKB BKB20190104152011101/04/19 15:20:31  5-MIN KBKB 042120Z AUTO VRB03KT 10SM OVC021 09/05 A2995 270 74 -200 VRB/03 RMK AO2 T00940050
53988KBKB BKB20190104152511101/04/19 15:25:31  5-MIN KBKB 042125Z AUTO VRB04KT 10SM OVC021 09/05 A2996 260 74 -200 VRB/04 RMK AO2 T00940050
53988KBKB BKB20190104153011101/04/19 15:30:31  5-MIN KBKB 042130Z AUTO VRB03KT 10SM OVC021 09/05 A2996 260 74 -200 VRB/03 RMK AO2 T00940050
53988KBKB BKB20190104153511101/04/19 15:35:31  5-MIN KBKB 042135Z AUTO VRB04KT 10SM OVC020 09/05 A2996 260 74 -300 VRB/04 RMK AO2 T00940050
53988KBKB BKB20190104154011101/04/19 15:40:31  5-MIN KBKB 042140Z AUTO VRB03KT 10SM OVC020 09/05 A2996 260 74 -200 VRB/03 RMK AO2 T00940050
53988KBKB BKB20190104154511101/04/19 15:45:31  5-MIN KBKB 042145Z AUTO 00000KT 10SM OVC021 09/05 A2996 260 74 -300 000/00 RMK AO2 T00940050
53988KBKB BKB20190104155011801/04/19 15:50:31  5-MIN KBKB 042150Z AUTO VRB05KT 10SM OVC021 10/05 A2996 260 71 -200 VRB/05 RMK AO2 SLP176 T01000050
53988KBKB BKB20190104155511101/04/19 15:55:31  5-MIN KBKB 042155Z AUTO VRB03KT 10SM OVC021 10/06 A2996 260 74 -200 VRB/03 RMK AO2 T01000056
53988KBKB BKB20190104160011101/04/19 16:00:31  5-MIN KBKB 042200Z AUTO VRB03KT 10SM BKN021 09/05 A2996 260 74 -300 VRB/03 RMK AO2 T00940050
53988KBKB BKB20190104160511101/04/19 16:05:31  5-MIN KBKB 042205Z AUTO VRB04KT 10SM BKN021 09/05 A2996 260 76 -300 VRB/04 RMK AO2 T00890050
53988KBKB BKB20190104161011101/04/19 16:10:31  5-MIN KBKB 042210Z AUTO VRB03KT 10SM SCT021 09/05 A2996 260 76 -300 VRB/03 RMK AO2 T00890050
53988KBKB BKB20190104161511101/04/19 16:15:31  5-MIN KBKB 042215Z AUTO VRB03KT 10SM SCT021 09/05 A2996 260 76 -300 VRB/03 RMK AO2 T00890050
53988KBKB BKB20190104162010101/04/19 16:20:31  5-MIN KBKB 042220Z AUTO 10SM FEW021 09/05 A2997 260 76 -300 M /M RMK AO2 T00890050
53988KBKB BKB20190104162510801/04/19 16:25:31  5-MIN KBKB 042225Z AUTO 00000KT 10SM CLR 09/05 A2997 260 76 -300 000/00 RMK AO2 T00890050
53988KBKB BKB20190104163010801/04/19 16:30:31  5-MIN KBKB 042230Z AUTO VRB03KT 10SM CLR 09/05 A2997 260 76 -300 VRB/03 RMK AO2 T00890050
53988KBKB BKB20190104163510801/04/19 16:35:31  5-MIN KBKB 042235Z AUTO 00000KT 10SM CLR 09/05 A2997 260 76 -300 000/00 RMK AO2 T00890050
53988KBKB BKB20190104164010801/04/19 16:40:31  5-MIN KBKB 042240Z AUTO VRB03KT 10SM CLR 09/05 A2997 250 76 -300 VRB/03 RMK AO2 T00890050
53988KBKB BKB20190104164510801/04/19 16:45:31  5-MIN KBKB 042245Z AUTO VRB03KT 10SM CLR 09/05 A2997 260 76 -300 VRB/03 RMK AO2 T00890050
53988KBKB BKB20190104165011501/04/19 16:50:31  5-MIN KBKB 042250Z AUTO 00000KT 10SM CLR 09/05 A2997 260 76 -300 000/00 RMK AO2 SLP177 T00890050
53988KBKB BKB20190104165510801/04/19 16:55:31  5-MIN KBKB 042255Z AUTO VRB03KT 10SM CLR 09/05 A2997 250 76 -300 VRB/03 RMK AO2 T00890050
53988KBKB BKB20190104170010801/04/19 17:00:31  5-MIN KBKB 042300Z AUTO 00000KT 10SM CLR 08/05 A2997 250 79 -400 000/00 RMK AO2 T00830050
53988KBKB BKB20190104170510801/04/19 17:05:31  5-MIN KBKB 042305Z AUTO VRB03KT 10SM CLR 08/05 A2997 250 79 -400 VRB/03 RMK AO2 T00830050
53988KBKB BKB20190104171010801/04/19 17:10:31  5-MIN KBKB 042310Z AUTO 00000KT 10SM CLR 08/05 A2997 250 79 -400 000/00 RMK AO2 T00830050
53988KBKB BKB20190104171510801/04/19 17:15:31  5-MIN KBKB 042315Z AUTO 00000KT 10SM CLR 08/05 A2997 250 82 -500 000/00 RMK AO2 T00780050
53988KBKB BKB20190104172010801/04/19 17:20:31  5-MIN KBKB 042320Z AUTO 00000KT 10SM CLR 08/05 A2997 250 82 -500 000/00 RMK AO2 T00780050
53988KBKB BKB20190104172510801/04/19 17:25:31  5-MIN KBKB 042325Z AUTO 00000KT 10SM CLR 08/05 A2997 250 82 -500 000/00 RMK AO2 T00780050
53988KBKB BKB20190104173010801/04/19 17:30:31  5-MIN KBKB 042330Z AUTO 00000KT 10SM CLR 07/05 A2998 250 86 -500 000/00 RMK AO2 T00720050
53988KBKB BKB20190104173510801/04/19 17:35:31  5-MIN KBKB 042335Z AUTO 00000KT 10SM CLR 07/05 A2998 240 86 -500 000/00 RMK AO2 T00720050
53988KBKB BKB20190104174010801/04/19 17:40:31  5-MIN KBKB 042340Z AUTO 00000KT 10SM CLR 07/05 A2998 240 89 -600 000/00 RMK AO2 T00670050
53988KBKB BKB20190104174510801/04/19 17:45:31  5-MIN KBKB 042345Z AUTO 00000KT 10SM CLR 07/05 A2998 240 89 -600 000/00 RMK AO2 T00670050
53988KBKB BKB20190104175012701/04/19 17:50:31  5-MIN KBKB 042350Z AUTO 00000KT 10SM CLR 07/05 A2999 240 89 -600 000/00 RMK AO2 SLP185 T00670050 10100 20067
53988KBKB BKB20190104175510801/04/19 17:55:31  5-MIN KBKB 042355Z AUTO 00000KT 10SM CLR 06/05 A2999 240 93 -700 000/00 RMK AO2 T00610050
53988KBKB BKB20190104180010801/04/19 18:00:31  5-MIN KBKB 050000Z AUTO 00000KT 10SM CLR 06/05 A2999 240 93 -700 000/00 RMK AO2 T00610050
53988KBKB BKB20190104180510801/04/19 18:05:31  5-MIN KBKB 050005Z AUTO 00000KT 10SM CLR 06/05 A2999 230 93 -700 000/00 RMK AO2 T00610050
53988KBKB BKB20190104181010801/04/19 18:10:31  5-MIN KBKB 050010Z AUTO 00000KT 10SM CLR 06/05 A3000 230 93 -700 000/00 RMK AO2 T00610050
53988KBKB BKB20190104181510801/04/19 18:15:31  5-MIN KBKB 050015Z AUTO 00000KT 10SM CLR 06/05 A3000 230 93 -700 000/00 RMK AO2 T00610050
53988KBKB BKB20190104182010801/04/19 18:20:31  5-MIN KBKB 050020Z AUTO 00000KT 10SM CLR 06/05 A3000 230 96 -800 000/00 RMK AO2 T00560050
53988KBKB BKB20190104182510801/04/19 18:25:31  5-MIN KBKB 050025Z AUTO 00000KT 10SM CLR 06/05 A3000 230 96 -800 000/00 RMK AO2 T00560050
53988KBKB BKB20190104183010801/04/19 18:30:31  5-MIN KBKB 050030Z AUTO 00000KT 10SM CLR 06/05 A3000 220 96 -800 000/00 RMK AO2 T00560050
53988KBKB BKB20190104183510801/04/19 18:35:31  5-MIN KBKB 050035Z AUTO 00000KT 10SM CLR 06/05 A3000 220 96 -800 000/00 RMK AO2 T00560050
53988KBKB BKB20190104184010801/04/19 18:40:31  5-MIN KBKB 050040Z AUTO 00000KT 10SM CLR 06/05 A3000 220 96 -800 000/00 RMK AO2 T00560050
53988KBKB BKB20190104184510801/04/19 18:45:31  5-MIN KBKB 050045Z AUTO 00000KT 10SM CLR 06/05 A3000 220 96 -800 000/00 RMK AO2 T00560050
53988KBKB BKB20190104185011501/04/19 18:50:31  5-MIN KBKB 050050Z AUTO 00000KT 10SM CLR 05/04 A3000 220 96 -800 000/00 RMK AO2 SLP191 T00500044
53988KBKB BKB20190104185510801/04/19 18:55:31  5-MIN KBKB 050055Z AUTO 00000KT 10SM CLR 05/04 A3001 220 96 -800 000/00 RMK AO2 T00500044
53988KBKB BKB20190104190010801/04/19 19:00:31  5-MIN KBKB 050100Z AUTO 00000KT 10SM CLR 05/04 A3001 220 96 -900 000/00 RMK AO2 T00500044
53988KBKB BKB20190104190510801/04/19 19:05:31  5-MIN KBKB 050105Z AUTO 00000KT 10SM CLR 05/04 A3001 210 96 -900 000/00 RMK AO2 T00500044
53988KBKB BKB20190104191010801/04/19 19:10:31  5-MIN KBKB 050110Z AUTO 00000KT 10SM CLR 05/04 A3001 210 96 -900 000/00 RMK AO2 T00500044
53988KBKB BKB20190104191510801/04/19 19:15:31  5-MIN KBKB 050115Z AUTO 00000KT 10SM CLR 05/04 A3001 210 96 -900 000/00 RMK AO2 T00500044
53988KBKB BKB20190104192010801/04/19 19:20:31  5-MIN KBKB 050120Z AUTO 00000KT 10SM CLR 05/04 A3002 210 96 -900 000/00 RMK AO2 T00500044
53988KBKB BKB20190104192510801/04/19 19:25:31  5-MIN KBKB 050125Z AUTO 00000KT 10SM CLR 05/04 A3002 210 96 -900 000/00 RMK AO2 T00500044
53988KBKB BKB20190104193010801/04/19 19:30:31  5-MIN KBKB 050130Z AUTO 00000KT 10SM CLR 05/04 A3002 210 96 -900 000/00 RMK AO2 T00500044
53988KBKB BKB20190104193510801/04/19 19:35:31  5-MIN KBKB 050135Z AUTO 00000KT 10SM CLR 05/04 A3002 210 96 -900 000/00 RMK AO2 T00500044
53988KBKB BKB20190104194010801/04/19 19:40:31  5-MIN KBKB 050140Z AUTO 00000KT 10SM CLR 05/04 A3002 200 96 -900 000/00 RMK AO2 T00500044
53988KBKB BKB20190104194510801/04/19 19:45:31  5-MIN KBKB 050145Z AUTO 00000KT 10SM CLR 05/04 A3003 200 96 -900 000/00 RMK AO2 T00500044
53988KBKB BKB20190104195011501/04/19 19:50:31  5-MIN KBKB 050150Z AUTO 00000KT 10SM CLR 05/04 A3003 200 96 -900 000/00 RMK AO2 SLP200 T00500044
53988KBKB BKB20190104195510801/04/19 19:55:31  5-MIN KBKB 050155Z AUTO 00000KT 10SM CLR 05/04 A3003 200 96 -900 000/00 RMK AO2 T00500044
53988KBKB BKB20190104200010801/04/19 20:00:31  5-MIN KBKB 050200Z AUTO 00000KT 10SM CLR 05/04 A3003 200 96 -900 000/00 RMK AO2 T00500044
53988KBKB BKB20190104200510901/04/19 20:05:31  5-MIN KBKB 050205Z AUTO 00000KT 10SM CLR 04/04 A3003 200 100 -900 000/00 RMK AO2 T00440044
53988KBKB BKB20190104201010901/04/19 20:10:31  5-MIN KBKB 050210Z AUTO 00000KT 10SM CLR 04/04 A3003 200 100 -900 000/00 RMK AO2 T00440044
53988KBKB BKB20190104201510901/04/19 20:15:31  5-MIN KBKB 050215Z AUTO 00000KT 10SM CLR 04/04 A3003 200 100 -900 000/00 RMK AO2 T00440044
53988KBKB BKB20190104202010801/04/19 20:20:31  5-MIN KBKB 050220Z AUTO 00000KT 10SM CLR 04/04 A3003 200 96 -900 000/00 RMK AO2 T00440039
53988KBKB BKB20190104202510801/04/19 20:25:31  5-MIN KBKB 050225Z AUTO 00000KT 10SM CLR 04/04 A3003 200 96 -900 000/00 RMK AO2 T00440039
53988KBKB BKB20190104203010801/04/19 20:30:31  5-MIN KBKB 050230Z AUTO 00000KT 10SM CLR 04/04 A3003 200 96 -900 000/00 RMK AO2 T00440039
53988KBKB BKB20190104203510801/04/19 20:35:31  5-MIN KBKB 050235Z AUTO 00000KT 10SM CLR 04/04 A3003 200 96 -900 000/00 RMK AO2 T00440039
53988KBKB BKB20190104204010801/04/19 20:40:31  5-MIN KBKB 050240Z AUTO 00000KT 10SM CLR 04/04 A3003 200 96 -900 000/00 RMK AO2 T00440039
53988KBKB BKB20190104204510901/04/19 20:45:31  5-MIN KBKB 050245Z AUTO 00000KT 10SM CLR 04/04 A3003 200 100 -900 000/00 RMK AO2 T00440044
53988KBKB BKB20190104205012201/04/19 20:50:31  5-MIN KBKB 050250Z AUTO 00000KT 10SM CLR 04/04 A3003 200 100 -900 000/00 RMK AO2 SLP200 T00440044 53012
53988KBKB BKB20190104205510801/04/19 20:55:31  5-MIN KBKB 050255Z AUTO 00000KT 10SM CLR 04/04 A3003 200 96 -900 000/00 RMK AO2 T00440039
53988KBKB BKB20190104210010801/04/19 21:00:31  5-MIN KBKB 050300Z AUTO 00000KT 10SM CLR 04/04 A3003 200 96 -900 000/00 RMK AO2 T00440039
53988KBKB BKB20190104210510801/04/19 21:05:31  5-MIN KBKB 050305Z AUTO 00000KT 10SM CLR 04/04 A3003 200 96 -900 000/00 RMK AO2 T00440039
53988KBKB BKB20190104211010801/04/19 21:10:31  5-MIN KBKB 050310Z AUTO 00000KT 10SM CLR 04/04 A3003 200 96 -900 000/00 RMK AO2 T00440039
53988KBKB BKB20190104211510801/04/19 21:15:31  5-MIN KBKB 050315Z AUTO 00000KT 10SM CLR 04/04 A3003 200 96 -900 000/00 RMK AO2 T00440039
53988KBKB BKB20190104212010801/04/19 21:20:31  5-MIN KBKB 050320Z AUTO 00000KT 10SM CLR 04/04 A3003 200 96 -900 000/00 RMK AO2 T00440039
53988KBKB BKB20190104212510801/04/19 21:25:31  5-MIN KBKB 050325Z AUTO 00000KT 10SM CLR 04/04 A3003 200 96 -900 000/00 RMK AO2 T00440039
53988KBKB BKB20190104213010801/04/19 21:30:31  5-MIN KBKB 050330Z AUTO 00000KT 10SM CLR 04/04 A3003 200 96 -900 000/00 RMK AO2 T00440039
53988KBKB BKB20190104213510801/04/19 21:35:31  5-MIN KBKB 050335Z AUTO 00000KT 10SM CLR 04/04 A3003 200 96 -900 000/00 RMK AO2 T00440039
53988KBKB BKB20190104214010801/04/19 21:40:31  5-MIN KBKB 050340Z AUTO 00000KT 10SM CLR 04/04 A3003 200 96 -900 000/00 RMK AO2 T00440039
53988KBKB BKB20190104214511001/04/19 21:45:31  5-MIN KBKB 050345Z AUTO 00000KT 10SM CLR 04/04 A3003 200 100 -1000 000/00 RMK AO2 T00390039
53988KBKB BKB20190104215011701/04/19 21:50:31  5-MIN KBKB 050350Z AUTO 00000KT 10SM CLR 04/04 A3003 190 100 -1000 000/00 RMK AO2 SLP201 T00390039
53988KBKB BKB20190104215511001/04/19 21:55:31  5-MIN KBKB 050355Z AUTO 00000KT 10SM CLR 04/04 A3003 190 100 -1000 000/00 RMK AO2 T00390039
53988KBKB BKB20190104220010901/04/19 22:00:31  5-MIN KBKB 050400Z AUTO 00000KT 10SM CLR 04/03 A3003 200 96 -1000 000/00 RMK AO2 T00390033
53988KBKB BKB20190104220510901/04/19 22:05:31  5-MIN KBKB 050405Z AUTO 00000KT 10SM CLR 04/03 A3003 200 96 -1000 000/00 RMK AO2 T00390033
53988KBKB BKB20190104221011001/04/19 22:10:31  5-MIN KBKB 050410Z AUTO 00000KT 10SM CLR 04/04 A3003 190 100 -1000 000/00 RMK AO2 T00390039
53988KBKB BKB20190104221511001/04/19 22:15:31  5-MIN KBKB 050415Z AUTO 00000KT 10SM CLR 04/04 A3003 190 100 -1000 000/00 RMK AO2 T00390039
53988KBKB BKB20190104222010901/04/19 22:20:31  5-MIN KBKB 050420Z AUTO 00000KT 10SM CLR 04/03 A3003 200 96 -1000 000/00 RMK AO2 T00390033
53988KBKB BKB20190104222510901/04/19 22:25:31  5-MIN KBKB 050425Z AUTO 00000KT 10SM CLR 04/03 A3003 200 96 -1000 000/00 RMK AO2 T00390033
53988KBKB BKB20190104223010901/04/19 22:30:31  5-MIN KBKB 050430Z AUTO 00000KT 10SM CLR 04/03 A3003 200 96 -1000 000/00 RMK AO2 T00390033
53988KBKB BKB20190104223510901/04/19 22:35:31  5-MIN KBKB 050435Z AUTO 00000KT 10SM CLR 04/03 A3003 200 96 -1000 000/00 RMK AO2 T00390033
53988KBKB BKB20190104224010901/04/19 22:40:31  5-MIN KBKB 050440Z AUTO 00000KT 10SM CLR 04/03 A3003 200 96 -1000 000/00 RMK AO2 T00390033
53988KBKB BKB20190104224511001/04/19 22:45:31  5-MIN KBKB 050445Z AUTO 00000KT 10SM CLR 03/03 A3003 190 100 -1100 000/00 RMK AO2 T00330033
53988KBKB BKB20190104225011701/04/19 22:50:31  5-MIN KBKB 050450Z AUTO 00000KT 10SM CLR 03/03 A3003 190 100 -1100 000/00 RMK AO2 SLP201 T00330033
53988KBKB BKB20190104225511001/04/19 22:55:31  5-MIN KBKB 050455Z AUTO 00000KT 10SM CLR 03/03 A3004 190 100 -1100 000/00 RMK AO2 T00330033
53988KBKB BKB20190104230011001/04/19 23:00:31  5-MIN KBKB 050500Z AUTO 00000KT 10SM CLR 03/03 A3004 190 100 -1100 000/00 RMK AO2 T00330033
53988KBKB BKB20190104230510901/04/19 23:05:31  5-MIN KBKB 050505Z AUTO 00000KT 10SM CLR 04/03 A3004 190 96 -1000 000/00 RMK AO2 T00390033
53988KBKB BKB20190104231010901/04/19 23:10:31  5-MIN KBKB 050510Z AUTO 00000KT 10SM CLR 04/03 A3004 190 96 -1000 000/00 RMK AO2 T00390033
53988KBKB BKB20190104231511001/04/19 23:15:31  5-MIN KBKB 050515Z AUTO 00000KT 10SM CLR 03/03 A3004 190 100 -1100 000/00 RMK AO2 T00330033
53988KBKB BKB20190104232011001/04/19 23:20:31  5-MIN KBKB 050520Z AUTO 00000KT 10SM CLR 03/03 A3004 190 100 -1100 000/00 RMK AO2 T00330033
53988KBKB BKB20190104232511001/04/19 23:25:31  5-MIN KBKB 050525Z AUTO 00000KT 10SM CLR 03/03 A3004 180 100 -1100 000/00 RMK AO2 T00330033
53988KBKB BKB20190104233011001/04/19 23:30:31  5-MIN KBKB 050530Z AUTO 00000KT 10SM CLR 03/03 A3004 180 100 -1100 000/00 RMK AO2 T00330033
53988KBKB BKB20190104233511001/04/19 23:35:31  5-MIN KBKB 050535Z AUTO 00000KT 10SM CLR 03/03 A3005 180 100 -1100 000/00 RMK AO2 T00330033
53988KBKB BKB20190104234011001/04/19 23:40:31  5-MIN KBKB 050540Z AUTO 00000KT 10SM CLR 03/03 A3005 180 100 -1100 000/00 RMK AO2 T00330033
53988KBKB BKB20190104234511001/04/19 23:45:31  5-MIN KBKB 050545Z AUTO 00000KT 10SM CLR 03/03 A3005 180 100 -1100 000/00 RMK AO2 T00330033
53988KBKB BKB20190104235014501/04/19 23:50:31  5-MIN KBKB 050550Z AUTO 00000KT 10SM CLR 03/03 A3005 180 100 -1100 000/00 RMK AO2 SLP208 T00330033 10061 20033 401000033 51015
53988KBKB BKB20190104235511001/04/19 23:55:31  5-MIN KBKB 050555Z AUTO 00000KT 10SM CLR 03/03 A3005 180 100 -1100 000/00 RMK AO2 T00330033
53988KBKB BKB20190105000011001/05/19 00:00:31  5-MIN KBKB 050600Z AUTO 00000KT 10SM CLR 03/03 A3006 170 100 -1100 000/00 RMK AO2 T00330033
53988KBKB BKB20190105000511001/05/19 00:05:31  5-MIN KBKB 050605Z AUTO 00000KT 10SM CLR 03/03 A3006 170 100 -1100 000/00 RMK AO2 T00330033
53988KBKB BKB20190105001011001/05/19 00:10:31  5-MIN KBKB 050610Z AUTO 00000KT 10SM CLR 03/03 A3006 170 100 -1100 000/00 RMK AO2 T00330033
53988KBKB BKB20190105001511001/05/19 00:15:31  5-MIN KBKB 050615Z AUTO 00000KT 10SM CLR 03/03 A3006 170 100 -1100 000/00 RMK AO2 T00330033
53988KBKB BKB20190105002011001/05/19 00:20:31  5-MIN KBKB 050620Z AUTO 00000KT 10SM CLR 03/03 A3006 170 100 -1100 000/00 RMK AO2 T00330033
53988KBKB BKB20190105002511001/05/19 00:25:31  5-MIN KBKB 050625Z AUTO 00000KT 10SM CLR 03/03 A3006 170 100 -1100 000/00 RMK AO2 T00330033
53988KBKB BKB20190105003010901/05/19 00:30:31  5-MIN KBKB 050630Z AUTO 00000KT 10SM CLR 03/03 A3006 170 96 -1100 000/00 RMK AO2 T00330028
53988KBKB BKB20190105003510901/05/19 00:35:31  5-MIN KBKB 050635Z AUTO 00000KT 10SM CLR 03/03 A3006 170 96 -1100 000/00 RMK AO2 T00330028
53988KBKB BKB20190105004010901/05/19 00:40:31  5-MIN KBKB 050640Z AUTO 00000KT 10SM CLR 03/03 A3006 170 96 -1100 000/00 RMK AO2 T00330028
53988KBKB BKB20190105004510901/05/19 00:45:31  5-MIN KBKB 050645Z AUTO 00000KT 10SM CLR 03/03 A3007 160 96 -1100 000/00 RMK AO2 T00330028
53988KBKB BKB20190105005011601/05/19 00:50:31  5-MIN KBKB 050650Z AUTO 00000KT 10SM CLR 03/03 A3007 160 96 -1100 000/00 RMK AO2 SLP213 T00330028
53988KBKB BKB20190105005510901/05/19 00:55:31  5-MIN KBKB 050655Z AUTO 00000KT 10SM CLR 03/03 A3007 160 96 -1100 000/00 RMK AO2 T00330028
53988KBKB BKB20190105010010901/05/19 01:00:31  5-MIN KBKB 050700Z AUTO 00000KT 10SM CLR 03/03 A3007 160 96 -1100 000/00 RMK AO2 T00330028
53988KBKB BKB20190105010511001/05/19 01:05:31  5-MIN KBKB 050705Z AUTO 00000KT 10SM CLR 03/03 A3007 160 100 -1200 000/00 RMK AO2 T00280028
53988KBKB BKB20190105011011001/05/19 01:10:31  5-MIN KBKB 050710Z AUTO 00000KT 10SM CLR 03/03 A3007 160 100 -1200 000/00 RMK AO2 T00280028
53988KBKB BKB20190105011511001/05/19 01:15:31  5-MIN KBKB 050715Z AUTO 00000KT 10SM CLR 03/03 A3007 160 100 -1200 000/00 RMK AO2 T00280028
53988KBKB BKB20190105012011001/05/19 01:20:31  5-MIN KBKB 050720Z AUTO 00000KT 10SM CLR 03/03 A3007 160 100 -1200 000/00 RMK AO2 T00280028
53988KBKB BKB20190105012511001/05/19 01:25:31  5-MIN KBKB 050725Z AUTO 00000KT 10SM CLR 03/03 A3007 160 100 -1200 000/00 RMK AO2 T00280028
53988KBKB BKB20190105013011001/05/19 01:30:31  5-MIN KBKB 050730Z AUTO 00000KT 10SM CLR 03/03 A3008 150 100 -1200 000/00 RMK AO2 T00280028
53988KBKB BKB20190105013511001/05/19 01:35:31  5-MIN KBKB 050735Z AUTO 00000KT 10SM CLR 03/03 A3008 150 100 -1200 000/00 RMK AO2 T00280028
53988KBKB BKB20190105014010901/05/19 01:40:31  5-MIN KBKB 050740Z AUTO 00000KT 10SM CLR 03/02 A3008 150 96 -1200 000/00 RMK AO2 T00280022
53988KBKB BKB20190105014510901/05/19 01:45:31  5-MIN KBKB 050745Z AUTO 00000KT 10SM CLR 03/02 A3008 150 96 -1200 000/00 RMK AO2 T00280022
53988KBKB BKB20190105015011601/05/19 01:50:31  5-MIN KBKB 050750Z AUTO 00000KT 10SM CLR 03/02 A3008 150 96 -1200 000/00 RMK AO2 SLP217 T00280022
53988KBKB BKB20190105015510901/05/19 01:55:31  5-MIN KBKB 050755Z AUTO 00000KT 10SM CLR 03/02 A3008 150 96 -1200 000/00 RMK AO2 T00280022
53988KBKB BKB20190105020010801/05/19 02:00:31  5-MIN KBKB 050800Z AUTO 00000KT 9SM CLR 03/02 A3008 150 96 -1200 000/00 RMK AO2 T00280022
53988KBKB BKB20190105020510901/05/19 02:05:31  5-MIN KBKB 050805Z AUTO 00000KT 10SM CLR 03/02 A3008 150 96 -1200 000/00 RMK AO2 T00280022
53988KBKB BKB20190105021010901/05/19 02:10:31  5-MIN KBKB 050810Z AUTO 00000KT 10SM CLR 03/02 A3008 150 96 -1200 000/00 RMK AO2 T00280022
53988KBKB BKB20190105021510901/05/19 02:15:31  5-MIN KBKB 050815Z AUTO 00000KT 10SM CLR 03/02 A3008 150 96 -1200 000/00 RMK AO2 T00280022
53988KBKB BKB20190105022010901/05/19 02:20:31  5-MIN KBKB 050820Z AUTO 00000KT 10SM CLR 03/02 A3008 150 96 -1200 000/00 RMK AO2 T00280022
53988KBKB BKB20190105022511001/05/19 02:25:31  5-MIN KBKB 050825Z AUTO 00000KT 10SM CLR 02/02 A3008 150 100 -1300 000/00 RMK AO2 T00220022
53988KBKB BKB20190105023011001/05/19 02:30:31  5-MIN KBKB 050830Z AUTO 00000KT 10SM CLR 02/02 A3009 140 100 -1300 000/00 RMK AO2 T00220022
53988KBKB BKB20190105023510901/05/19 02:35:31  5-MIN KBKB 050835Z AUTO 00000KT 10SM CLR 02/02 A3009 140 96 -1300 000/00 RMK AO2 T00220017
53988KBKB BKB20190105024010901/05/19 02:40:31  5-MIN KBKB 050840Z AUTO 00000KT 10SM CLR 02/02 A3009 140 96 -1300 000/00 RMK AO2 T00220017
53988KBKB BKB20190105024510901/05/19 02:45:31  5-MIN KBKB 050845Z AUTO 00000KT 10SM CLR 02/02 A3009 140 96 -1300 000/00 RMK AO2 T00220017
53988KBKB BKB20190105025012201/05/19 02:50:31  5-MIN KBKB 050850Z AUTO 00000KT 10SM CLR 02/02 A3009 140 96 -1300 000/00 RMK AO2 SLP221 T00220017 53008
53988KBKB BKB20190105025511001/05/19 02:55:31  5-MIN KBKB 050855Z AUTO 00000KT 10SM CLR 02/02 A3009 140 100 -1400 000/00 RMK AO2 T00170017
53988KBKB BKB20190105030010901/05/19 03:00:31  5-MIN KBKB 050900Z AUTO 00000KT 10SM CLR 02/02 A3009 140 96 -1300 000/00 RMK AO2 T00220017
53988KBKB BKB20190105030510901/05/19 03:05:31  5-MIN KBKB 050905Z AUTO 00000KT 10SM CLR 02/02 A3010 140 96 -1300 000/00 RMK AO2 T00220017
53988KBKB BKB20190105031011001/05/19 03:10:31  5-MIN KBKB 050910Z AUTO 00000KT 10SM CLR 02/02 A3010 140 100 -1400 000/00 RMK AO2 T00170017
53988KBKB BKB20190105031510901/05/19 03:15:31  5-MIN KBKB 050915Z AUTO 00000KT 10SM CLR 02/01 A3010 140 96 -1400 000/00 RMK AO2 T00170011
53988KBKB BKB20190105032010901/05/19 03:20:31  5-MIN KBKB 050920Z AUTO 00000KT 10SM CLR 02/01 A3010 140 96 -1400 000/00 RMK AO2 T00170011
53988KBKB BKB20190105032510901/05/19 03:25:31  5-MIN KBKB 050925Z AUTO 00000KT 10SM CLR 02/01 A3010 130 96 -1400 000/00 RMK AO2 T00170011
53988KBKB BKB20190105033010901/05/19 03:30:31  5-MIN KBKB 050930Z AUTO 00000KT 10SM CLR 02/01 A3010 130 96 -1400 000/00 RMK AO2 T00170011
53988KBKB BKB20190105033510901/05/19 03:35:31  5-MIN KBKB 050935Z AUTO 00000KT 10SM CLR 02/01 A3010 130 96 -1400 000/00 RMK AO2 T00170011
53988KBKB BKB20190105034010901/05/19 03:40:31  5-MIN KBKB 050940Z AUTO 00000KT 10SM CLR 02/01 A3010 130 96 -1400 000/00 RMK AO2 T00170011
53988KBKB BKB20190105034510901/05/19 03:45:31  5-MIN KBKB 050945Z AUTO 00000KT 10SM CLR 02/01 A3010 130 96 -1400 000/00 RMK AO2 T00170011
53988KBKB BKB20190105035011701/05/19 03:50:31  5-MIN KBKB 050950Z AUTO 00000KT 10SM CLR 01/01 A3010 130 100 -1400 000/00 RMK AO2 SLP224 T00110011
53988KBKB BKB20190105035511001/05/19 03:55:31  5-MIN KBKB 050955Z AUTO 00000KT 10SM CLR 01/01 A3010 130 100 -1400 000/00 RMK AO2 T00110011
53988KBKB BKB20190105040010901/05/19 04:00:31  5-MIN KBKB 051000Z AUTO 00000KT 10SM CLR 02/01 A3010 130 96 -1400 000/00 RMK AO2 T00170011
53988KBKB BKB20190105040511001/05/19 04:05:31  5-MIN KBKB 051005Z AUTO 00000KT 10SM CLR 01/01 A3010 130 100 -1400 000/00 RMK AO2 T00110011
53988KBKB BKB20190105041010901/05/19 04:10:31  5-MIN KBKB 051010Z AUTO 00000KT 10SM CLR 01/01 A3010 130 96 -1400 000/00 RMK AO2 T00110006
53988KBKB BKB20190105041510901/05/19 04:15:31  5-MIN KBKB 051015Z AUTO 00000KT 10SM CLR 01/01 A3010 130 96 -1400 000/00 RMK AO2 T00110006
53988KBKB BKB20190105042010901/05/19 04:20:31  5-MIN KBKB 051020Z AUTO 00000KT 10SM CLR 01/01 A3010 130 96 -1400 000/00 RMK AO2 T00110006
53988KBKB BKB20190105042510901/05/19 04:25:31  5-MIN KBKB 051025Z AUTO 00000KT 10SM CLR 01/01 A3010 130 96 -1400 000/00 RMK AO2 T00110006
53988KBKB BKB20190105043011001/05/19 04:30:31  5-MIN KBKB 051030Z AUTO 00000KT 10SM CLR 01/01 A3010 130 100 -1400 000/00 RMK AO2 T00110011
53988KBKB BKB20190105043511301/05/19 04:35:31  5-MIN KBKB 051035Z AUTO 00000KT 10SM FEW002 01/01 A3010 140 100 -1400 000/00 RMK AO2 T00110011
53988KBKB BKB20190105044011201/05/19 04:40:31  5-MIN KBKB 051040Z AUTO 00000KT 10SM SCT002 01/01 A3010 140 96 -1400 000/00 RMK AO2 T00110006
53988KBKB BKB20190105044511201/05/19 04:45:31  5-MIN KBKB 051045Z AUTO 00000KT 10SM BKN002 01/01 A3010 140 96 -1400 000/00 RMK AO2 T00110006
53988KBKB BKB20190105045012001/05/19 04:50:31  5-MIN KBKB 051050Z AUTO 00000KT 10SM BKN002 01/01 A3010 140 100 -1400 000/00 RMK AO2 SLP222 T00110011
53988KBKB BKB20190105045511301/05/19 04:55:31  5-MIN KBKB 051055Z AUTO 00000KT 10SM BKN002 01/01 A3010 140 100 -1400 000/00 RMK AO2 T00110011
53988KBKB BKB20190105050011201/05/19 05:00:31  5-MIN KBKB 051100Z AUTO 00000KT 10SM BKN002 01/01 A3010 140 96 -1400 000/00 RMK AO2 T00110006
53988KBKB BKB20190105050511201/05/19 05:05:31  5-MIN KBKB 051105Z AUTO 00000KT 10SM BKN002 01/01 A3009 140 96 -1400 000/00 RMK AO2 T00110006
53988KBKB BKB20190105051011301/05/19 05:10:31  5-MIN KBKB 051110Z AUTO 00000KT 10SM SCT002 01/01 A3009 140 100 -1500 000/00 RMK AO2 T00060006
53988KBKB BKB20190105051511301/05/19 05:15:31  5-MIN KBKB 051115Z AUTO 00000KT 10SM FEW002 01/01 A3009 140 100 -1500 000/00 RMK AO2 T00060006
53988KBKB BKB20190105052011201/05/19 05:20:31  5-MIN KBKB 051120Z AUTO 00000KT 10SM FEW002 01/00 A3009 140 96 -1500 000/00 RMK AO2 T00060000
53988KBKB BKB20190105052511001/05/19 05:25:31  5-MIN KBKB 051125Z AUTO 00000KT 10SM CLR 01/01 A3009 140 100 -1500 000/00 RMK AO2 T00060006
53988KBKB BKB20190105053011001/05/19 05:30:31  5-MIN KBKB 051130Z AUTO 00000KT 10SM CLR 01/01 A3010 140 100 -1500 000/00 RMK AO2 T00060006
53988KBKB BKB20190105053511001/05/19 05:35:31  5-MIN KBKB 051135Z AUTO 00000KT 10SM CLR 01/01 A3010 130 100 -1500 000/00 RMK AO2 T00060006
53988KBKB BKB20190105054011301/05/19 05:40:31  5-MIN KBKB 051140Z AUTO 00000KT 10SM FEW002 01/01 A3010 130 100 -1500 000/00 RMK AO2 T00060006
53988KBKB BKB20190105054511201/05/19 05:45:31  5-MIN KBKB 051145Z AUTO 00000KT 10SM SCT002 01/00 A3010 130 96 -1500 000/00 RMK AO2 T00060000
53988KBKB BKB20190105055010201/05/19 05:50:31  5-MIN KBKB 051150Z AUTO 00000KT 10SM BKN002 01/00 A3010 130 96 -1500 000/00 RMK AO2
53988KBKB BKB20190105055511201/05/19 05:55:31  5-MIN KBKB 051155Z AUTO 00000KT 10SM BKN002 01/00 A3010 130 96 -1500 000/00 RMK AO2 T00060000
53988KBKB BKB20190105060011201/05/19 06:00:31  5-MIN KBKB 051200Z AUTO 00000KT 10SM SCT002 01/00 A3010 130 96 -1500 000/00 RMK AO2 T00060000
53988KBKB BKB20190105060511201/05/19 06:05:31  5-MIN KBKB 051205Z AUTO 00000KT 10SM SCT002 01/00 A3011 130 96 -1500 000/00 RMK AO2 T00060000
53988KBKB BKB20190105061011201/05/19 06:10:31  5-MIN KBKB 051210Z AUTO 00000KT 10SM SCT002 01/00 A3011 130 96 -1500 000/00 RMK AO2 T00060000
53988KBKB BKB20190105061511201/05/19 06:15:31  5-MIN KBKB 051215Z AUTO 00000KT 10SM SCT002 01/00 A3011 130 96 -1500 000/00 RMK AO2 T00060000
53988KBKB BKB20190105062011201/05/19 06:20:31  5-MIN KBKB 051220Z AUTO 00000KT 10SM BKN002 01/00 A3010 130 96 -1500 000/00 RMK AO2 T00060000
53988KBKB BKB20190105062511201/05/19 06:25:31  5-MIN KBKB 051225Z AUTO 00000KT 10SM BKN002 01/00 A3010 130 96 -1500 000/00 RMK AO2 T00060000
53988KBKB BKB20190105063011301/05/19 06:30:31  5-MIN KBKB 051230Z AUTO 00000KT 10SM BKN002 01/01 A3011 130 100 -1500 000/00 RMK AO2 T00060006
53988KBKB BKB20190105063511301/05/19 06:35:31  5-MIN KBKB 051235Z AUTO 00000KT 10SM OVC002 01/01 A3011 120 100 -1500 000/00 RMK AO2 T00060006
53988KBKB BKB20190105064011301/05/19 06:40:31  5-MIN KBKB 051240Z AUTO 00000KT 10SM OVC002 01/01 A3011 120 100 -1500 000/00 RMK AO2 T00060006
53988KBKB BKB20190105064511301/05/19 06:45:31  5-MIN KBKB 051245Z AUTO 00000KT 10SM OVC002 01/01 A3011 120 100 -1500 000/00 RMK AO2 T00060006
53988KBKB BKB20190105065015601/05/19 06:50:31  5-MIN KBKB 051250Z AUTO 00000KT 10SM OVC002 01/00 A3011 120 96 -1500 000/00 RMK AO2 SLP228 T00060000120 96 -1500 000/00 RMK AO2 T00060000
53988KBKB BKB20190105071011201/05/19 07:10:31  5-MIN KBKB 051310Z AUTO 00000KT 10SM OVC002 01/00 A3012 120 96 -1500 000/00 RMK AO2 T00060000
53988KBKB BKB20190105071511101/05/19 07:15:31  5-MIN KBKB 051315Z AUTO 00000KT 9SM OVC002 01/00 A3012 120 96 -1500 000/00 RMK AO2 T00060000
53988KBKB BKB20190105072011501/05/19 07:20:31  5-MIN KBKB 051320Z AUTO 00000KT 6SM BR OVC002 01/01 A3012 120 100 -1500 000/00 RMK AO2 T00060006
53988KBKB BKB20190105072511501/05/19 07:25:31  5-MIN KBKB 051325Z AUTO 00000KT 3SM BR OVC001 01/01 A3012 110 100 -1500 000/00 RMK AO2 T00060006
53988KBKB BKB20190105073011501/05/19 07:30:31  5-MIN KBKB 051330Z AUTO 00000KT 3SM BR OVC001 01/01 A3012 110 100 -1500 000/00 RMK AO2 T00060006
53988KBKB BKB20190105073511201/05/19 07:35:31  5-MIN KBKB 051335Z AUTO 00000KT 7SM OVC001 01/01 A3013 110 100 -1500 000/00 RMK AO2 T00060006
53988KBKB BKB20190105074011201/05/19 07:40:31  5-MIN KBKB 051340Z AUTO 00000KT 9SM OVC001 01/01 A3013 100 100 -1500 000/00 RMK AO2 T00060006
53988KBKB BKB20190105074511101/05/19 07:45:31  5-MIN KBKB 051345Z AUTO 00000KT 8SM OVC001 01/01 A3013 100 96 -1500 000/00 RMK AO2 T00110006
53988KBKB BKB20190105075011801/05/19 07:50:31  5-MIN KBKB 051350Z AUTO 00000KT 8SM BKN001 01/01 A3013 100 96 -1500 000/00 RMK AO2 SLP235 T00110006
53988KBKB BKB20190105075511201/05/19 07:55:31  5-MIN KBKB 051355Z AUTO 00000KT 9SM BKN002 01/01 A3014 100 100 -1500 000/00 RMK AO2 T00110011
53988KBKB BKB20190105080011201/05/19 08:00:31  5-MIN KBKB 051400Z AUTO 00000KT 9SM SCT002 01/01 A3014 100 100 -1500 000/00 RMK AO2 T00110011
53988KBKB BKB20190105080511201/05/19 08:05:31  5-MIN KBKB 051405Z AUTO 00000KT 9SM SCT002 02/02 A3014 100 100 -1400 000/00 RMK AO2 T00170017
53988KBKB BKB20190105081011201/05/19 08:10:31  5-MIN KBKB 051410Z AUTO 00000KT 10SM FEW002 02/02 A3014 90 100 -1300 000/00 RMK AO2 T00220022
53988KBKB BKB20190105081510801/05/19 08:15:31  5-MIN KBKB 051415Z AUTO 00000KT 8SM CLR 03/03 A3014 90 100 -1300 000/00 RMK AO2 T00280028
53988KBKB BKB20190105082010801/05/19 08:20:31  5-MIN KBKB 051420Z AUTO 00000KT 8SM CLR 03/03 A3015 90 100 -1300 000/00 RMK AO2 T00280028
53988KBKB BKB20190105082510801/05/19 08:25:31  5-MIN KBKB 051425Z AUTO 00000KT 8SM CLR 03/03 A3015 80 100 -1200 000/00 RMK AO2 T00330033
53988KBKB BKB20190105083011101/05/19 08:30:31  5-MIN KBKB 051430Z AUTO 00000KT 6SM BR CLR 04/04 A3015 80 100 -1100 000/00 RMK AO2 T00440044
53988KBKB BKB20190105083511001/05/19 08:35:31  5-MIN KBKB 051435Z AUTO 00000KT 6SM BR CLR 05/04 A3016 80 96 -1000 000/00 RMK AO2 T00500044
53988KBKB BKB20190105084010801/05/19 08:40:31  5-MIN KBKB 051440Z AUTO 00000KT 9SM CLR 06/06 A3016 80 100 -1000 000/00 RMK AO2 T00560056
53988KBKB BKB20190105084510701/05/19 08:45:31  5-MIN KBKB 051445Z AUTO 00000KT 10SM CLR 06/06 A3016 70 96 -900 000/00 RMK AO2 T00610056
53988KBKB BKB20190105085012001/05/19 08:50:31  5-MIN KBKB 051450Z AUTO 00000KT 10SM CLR 07/06 A3016 70 96 -800 000/00 RMK AO2 SLP246 T00670061 55000
53988KBKB BKB20190105085510801/05/19 08:55:31  5-MIN KBKB 051455Z AUTO 00000KT 10SM CLR 06/06 A3016 70 100 -900 000/00 RMK AO2 T00610061
53988KBKB BKB20190105090010801/05/19 09:00:31  5-MIN KBKB 051500Z AUTO 00000KT 10SM CLR 07/07 A3017 70 100 -800 000/00 RMK AO2 T00670067
53988KBKB BKB20190105090510701/05/19 09:05:31  5-MIN KBKB 051505Z AUTO 00000KT 10SM CLR 08/07 A3017 70 96 -700 000/00 RMK AO2 T00780072
53988KBKB BKB20190105091010701/05/19 09:10:31  5-MIN KBKB 051510Z AUTO 00000KT 10SM CLR 08/07 A3017 60 96 -700 000/00 RMK AO2 T00780072
53988KBKB BKB20190105091510701/05/19 09:15:31  5-MIN KBKB 051515Z AUTO 00000KT 10SM CLR 09/08 A3018 60 93 -600 000/00 RMK AO2 T00890078
53988KBKB BKB20190105092010701/05/19 09:20:31  5-MIN KBKB 051520Z AUTO 00000KT 10SM CLR 09/08 A3018 60 89 -500 000/00 RMK AO2 T00940078
53988KBKB BKB20190105092510701/05/19 09:25:31  5-MIN KBKB 051525Z AUTO 00000KT 10SM CLR 09/08 A3018 60 89 -500 000/00 RMK AO2 T00940078
53988KBKB BKB20190105093010701/05/19 09:30:31  5-MIN KBKB 051530Z AUTO 00000KT 10SM CLR 10/08 A3018 60 86 -400 000/00 RMK AO2 T01000078
53988KBKB BKB20190105093510701/05/19 09:35:31  5-MIN KBKB 051535Z AUTO 00000KT 10SM CLR 10/08 A3018 60 86 -400 000/00 RMK AO2 T01000078
53988KBKB BKB20190105094010701/05/19 09:40:31  5-MIN KBKB 051540Z AUTO 00000KT 10SM CLR 11/08 A3018 60 83 -400 000/00 RMK AO2 T01060078
53988KBKB BKB20190105094510701/05/19 09:45:31  5-MIN KBKB 051545Z AUTO 00000KT 10SM CLR 11/08 A3018 50 80 -300 000/00 RMK AO2 T01110078
53988KBKB BKB20190105095011401/05/19 09:50:31  5-MIN KBKB 051550Z AUTO 00000KT 10SM CLR 12/08 A3019 50 80 -200 000/00 RMK AO2 SLP252 T01170083
53988KBKB BKB20190105095510701/05/19 09:55:31  5-MIN KBKB 051555Z AUTO 00000KT 10SM CLR 12/08 A3019 50 77 -200 000/00 RMK AO2 T01170078
53988KBKB BKB20190105100010701/05/19 10:00:31  5-MIN KBKB 051600Z AUTO 00000KT 10SM CLR 12/08 A3018 50 74 -200 000/00 RMK AO2 T01220078
53988KBKB BKB20190105100510701/05/19 10:05:31  5-MIN KBKB 051605Z AUTO 00000KT 10SM CLR 12/08 A3018 50 74 -200 000/00 RMK AO2 T01220078
53988KBKB BKB20190105101010401/05/19 10:10:31  5-MIN KBKB 051610Z AUTO 00000KT 10SM CLR 13/08 A3018 50 71 0 000/00 RMK AO2 T01330083
53988KBKB BKB20190105101510401/05/19 10:15:31  5-MIN KBKB 051615Z AUTO 00000KT 10SM CLR 14/08 A3018 60 69 0 000/00 RMK AO2 T01390083
53988KBKB BKB20190105102010401/05/19 10:20:31  5-MIN KBKB 051620Z AUTO 00000KT 10SM CLR 14/08 A3018 60 69 0 000/00 RMK AO2 T01390083
53988KBKB BKB20190105102510401/05/19 10:25:31  5-MIN KBKB 051625Z AUTO 00000KT 10SM CLR 14/08 A3018 60 66 0 000/00 RMK AO2 T01440083
53988KBKB BKB20190105103010401/05/19 10:30:31  5-MIN KBKB 051630Z AUTO 00000KT 10SM CLR 14/08 A3018 60 66 0 000/00 RMK AO2 T01390078
53988KBKB BKB20190105103510601/05/19 10:35:31  5-MIN KBKB 051635Z AUTO 00000KT 10SM CLR 15/08 A3018 60 62 100 000/00 RMK AO2 T01500078
53988KBKB BKB20190105104010601/05/19 10:40:31  5-MIN KBKB 051640Z AUTO 00000KT 10SM CLR 15/08 A3018 60 62 100 000/00 RMK AO2 T01500078
53988KBKB BKB20190105104510601/05/19 10:45:31  5-MIN KBKB 051645Z AUTO 00000KT 10SM CLR 15/08 A3018 60 62 100 000/00 RMK AO2 T01500078
53988KBKB BKB20190105105011301/05/19 10:50:31  5-MIN KBKB 051650Z AUTO 00000KT 10SM CLR 16/07 A3017 60 55 300 000/00 RMK AO2 SLP247 T01610072
53988KBKB BKB20190105105510601/05/19 10:55:31  5-MIN KBKB 051655Z AUTO 00000KT 10SM CLR 16/07 A3017 60 55 300 000/00 RMK AO2 T01610072
53988KBKB BKB20190105110010601/05/19 11:00:31  5-MIN KBKB 051700Z AUTO 00000KT 10SM CLR 16/07 A3017 70 55 300 000/00 RMK AO2 T01610072
53988KBKB BKB20190105110510601/05/19 11:05:31  5-MIN KBKB 051705Z AUTO 00000KT 10SM CLR 16/07 A3017 70 55 200 000/00 RMK AO2 T01560067
53988KBKB BKB20190105111010601/05/19 11:10:31  5-MIN KBKB 051710Z AUTO VRB03KT 10SM CLR 16/06 A3017 70 53 200 VRB/03 RMK AO2 T01560061
53988KBKB BKB20190105111510601/05/19 11:15:31  5-MIN KBKB 051715Z AUTO 00000KT 10SM CLR 16/06 A3017 70 51 300 000/00 RMK AO2 T01610061
53988KBKB BKB20190105112010601/05/19 11:20:31  5-MIN KBKB 051720Z AUTO VRB03KT 10SM CLR 17/06 A3017 70 47 300 VRB/03 RMK AO2 T01670056
53988KBKB BKB20190105112510601/05/19 11:25:31  5-MIN KBKB 051725Z AUTO VRB03KT 10SM CLR 16/06 A3017 70 49 300 VRB/03 RMK AO2 T01610056
53988KBKB BKB20190105113010601/05/19 11:30:31  5-MIN KBKB 051730Z AUTO VRB03KT 10SM CLR 16/05 A3017 70 47 300 VRB/03 RMK AO2 T01610050
53988KBKB BKB20190105113510601/05/19 11:35:31  5-MIN KBKB 051735Z AUTO 00000KT 10SM CLR 16/05 A3017 70 47 300 000/00 RMK AO2 T01610050
53988KBKB BKB20190105114010601/05/19 11:40:31  5-MIN KBKB 051740Z AUTO 00000KT 10SM CLR 17/06 A3017 70 47 400 000/00 RMK AO2 T01720061
53988KBKB BKB20190105114510601/05/19 11:45:31  5-MIN KBKB 051745Z AUTO VRB03KT 10SM CLR 17/06 A3016 70 47 400 VRB/03 RMK AO2 T01720061
53988KBKB BKB20190105115013101/05/19 11:50:31  5-MIN KBKB 051750Z AUTO 00000KT 10SM CLR 17/06 A3016 80 47 300 000/00 RMK AO2 SLP242 T01670056 10172 20000 53021
53988KBKB BKB20190105115510601/05/19 11:55:31  5-MIN KBKB 051755Z AUTO 00000KT 10SM CLR 17/06 A3016 80 47 400 000/00 RMK AO2 T01720061
53988KBKB BKB20190105120010601/05/19 12:00:31  5-MIN KBKB 051800Z AUTO 23003KT 10SM CLR 18/06 A3016 80 46 500 220/03 RMK AO2 T01780061
53988KBKB BKB20190105120510601/05/19 12:05:31  5-MIN KBKB 051805Z AUTO 00000KT 10SM CLR 18/05 A3015 80 42 500 000/00 RMK AO2 T01780050
53988KBKB BKB20190105121010601/05/19 12:10:31  5-MIN KBKB 051810Z AUTO 23005KT 10SM CLR 18/06 A3016 80 44 500 220/05 RMK AO2 T01780056
53988KBKB BKB20190105121510601/05/19 12:15:31  5-MIN KBKB 051815Z AUTO 00000KT 10SM CLR 17/05 A3015 80 44 400 000/00 RMK AO2 T01720050
53988KBKB BKB20190105122010601/05/19 12:20:31  5-MIN KBKB 051820Z AUTO 00000KT 10SM CLR 18/06 A3015 90 46 500 000/00 RMK AO2 T01780061
53988KBKB BKB20190105122510601/05/19 12:25:31  5-MIN KBKB 051825Z AUTO VRB04KT 10SM CLR 18/06 A3015 90 44 500 VRB/04 RMK AO2 T01780056
53988KBKB BKB20190105123010601/05/19 12:30:31  5-MIN KBKB 051830Z AUTO 00000KT 10SM CLR 18/05 A3015 90 42 500 000/00 RMK AO2 T01780050
53988KBKB BKB20190105123510601/05/19 12:35:31  5-MIN KBKB 051835Z AUTO 00000KT 10SM CLR 18/05 A3014 90 42 500 000/00 RMK AO2 T01780050
53988KBKB BKB20190105124010601/05/19 12:40:31  5-MIN KBKB 051840Z AUTO VRB03KT 10SM CLR 18/05 A3014 90 41 500 VRB/03 RMK AO2 T01830050
53988KBKB BKB20190105124510601/05/19 12:45:31  5-MIN KBKB 051845Z AUTO VRB03KT 10SM CLR 18/04 A3014 90 39 500 VRB/03 RMK AO2 T01830044
53988KBKB BKB20190105125011401/05/19 12:50:31  5-MIN KBKB 051850Z AUTO 00000KT 10SM CLR 18/05 A3014 100 41 600 000/00 RMK AO2 SLP235 T01830050
53988KBKB BKB20190105125510701/05/19 12:55:31  5-MIN KBKB 051855Z AUTO 00000KT 10SM CLR 18/05 A3014 100 41 600 000/00 RMK AO2 T01830050
53988KBKB BKB20190105130010701/05/19 13:00:31  5-MIN KBKB 051900Z AUTO 00000KT 10SM CLR 19/05 A3014 100 39 600 000/00 RMK AO2 T01890050
53988KBKB BKB20190105130510701/05/19 13:05:31  5-MIN KBKB 051905Z AUTO VRB03KT 10SM CLR 19/06 A3014 100 40 700 VRB/03 RMK AO2 T01940056
53988KBKB BKB20190105131010701/05/19 13:10:31  5-MIN KBKB 051910Z AUTO 00000KT 10SM CLR 19/04 A3014 100 38 600 000/00 RMK AO2 T01890044
53988KBKB BKB20190105131510701/05/19 13:15:31  5-MIN KBKB 051915Z AUTO 00000KT 10SM CLR 18/04 A3013 100 39 600 000/00 RMK AO2 T01830044
53988KBKB BKB20190105132010701/05/19 13:20:31  5-MIN KBKB 051920Z AUTO 00000KT 10SM CLR 19/04 A3013 100 36 600 000/00 RMK AO2 T01890039
53988KBKB BKB20190105132510701/05/19 13:25:31  5-MIN KBKB 051925Z AUTO VRB03KT 10SM CLR 18/04 A3013 100 39 600 VRB/03 RMK AO2 T01830044
53988KBKB BKB20190105133010701/05/19 13:30:31  5-MIN KBKB 051930Z AUTO 00000KT 10SM CLR 19/04 A3013 100 36 600 000/00 RMK AO2 T01890039
53988KBKB BKB20190105133510701/05/19 13:35:31  5-MIN KBKB 051935Z AUTO 00000KT 10SM CLR 19/04 A3013 100 36 600 000/00 RMK AO2 T01890039
53988KBKB BKB20190105134010701/05/19 13:40:31  5-MIN KBKB 051940Z AUTO VRB03KT 10SM CLR 19/04 A3013 100 37 700 VRB/03 RMK AO2 T01940044
53988KBKB BKB20190105134510701/05/19 13:45:31  5-MIN KBKB 051945Z AUTO VRB04KT 10SM CLR 19/04 A3013 100 36 600 VRB/04 RMK AO2 T01890039
53988KBKB BKB20190105135011401/05/19 13:50:31  5-MIN KBKB 051950Z AUTO 26003KT 10SM CLR 19/03 A3013 100 34 600 260/03 RMK AO2 SLP233 T01890028
53988KBKB BKB20190105135510701/05/19 13:55:31  5-MIN KBKB 051955Z AUTO 00000KT 10SM CLR 19/04 A3013 100 35 700 000/00 RMK AO2 T01940039
53988KBKB BKB20190105140010701/05/19 14:00:31  5-MIN KBKB 052000Z AUTO 00000KT 10SM CLR 19/04 A3013 100 37 700 000/00 RMK AO2 T01940044
53988KBKB BKB20190105140510701/05/19 14:05:31  5-MIN KBKB 052005Z AUTO 23003KT 10SM CLR 19/04 A3013 100 37 700 220/03 RMK AO2 T01940044
53988KBKB BKB20190105141010701/05/19 14:10:31  5-MIN KBKB 052010Z AUTO VRB04KT 10SM CLR 19/05 A3013 100 38 700 VRB/04 RMK AO2 T01940050
53988KBKB BKB20190105141510701/05/19 14:15:31  5-MIN KBKB 052015Z AUTO 00000KT 10SM CLR 19/05 A3013 110 38 700 000/00 RMK AO2 T01940050
53988KBKB BKB20190105142010701/05/19 14:20:31  5-MIN KBKB 052020Z AUTO 00000KT 10SM CLR 20/06 A3013 110 38 800 000/00 RMK AO2 T02000056
53988KBKB BKB20190105142510701/05/19 14:25:31  5-MIN KBKB 052025Z AUTO 00000KT 10SM CLR 20/06 A3013 110 38 800 000/00 RMK AO2 T02000056
53988KBKB BKB20190105143010701/05/19 14:30:31  5-MIN KBKB 052030Z AUTO 00000KT 10SM CLR 20/05 A3013 100 37 800 000/00 RMK AO2 T02000050
53988KBKB BKB20190105143510701/05/19 14:35:31  5-MIN KBKB 052035Z AUTO 00000KT 10SM CLR 19/04 A3013 100 37 700 000/00 RMK AO2 T01940044
53988KBKB BKB20190105144010701/05/19 14:40:31  5-MIN KBKB 052040Z AUTO 00000KT 10SM CLR 19/05 A3013 100 38 700 000/00 RMK AO2 T01940050
53988KBKB BKB20190105144510701/05/19 14:45:31  5-MIN KBKB 052045Z AUTO 00000KT 10SM CLR 19/05 A3013 100 38 700 000/00 RMK AO2 T01940050
53988KBKB BKB20190105145012001/05/19 14:50:31  5-MIN KBKB 052050Z AUTO VRB03KT 10SM CLR 19/05 A3013 100 38 700 VRB/03 RMK AO2 SLP233 T01940050 58002
53988KBKB BKB20190105145510701/05/19 14:55:31  5-MIN KBKB 052055Z AUTO VRB03KT 10SM CLR 19/04 A3013 100 35 700 VRB/03 RMK AO2 T01940039
53988KBKB BKB20190105150010701/05/19 15:00:31  5-MIN KBKB 052100Z AUTO 00000KT 10SM CLR 19/04 A3013 100 37 700 000/00 RMK AO2 T01940044
53988KBKB BKB20190105150510701/05/19 15:05:31  5-MIN KBKB 052105Z AUTO 00000KT 10SM CLR 19/04 A3013 100 37 700 000/00 RMK AO2 T01940044
53988KBKB BKB20190105151010701/05/19 15:10:31  5-MIN KBKB 052110Z AUTO VRB03KT 10SM CLR 19/04 A3013 100 37 700 VRB/03 RMK AO2 T01940044
53988KBKB BKB20190105151510701/05/19 15:15:31  5-MIN KBKB 052115Z AUTO VRB03KT 10SM CLR 19/04 A3013 110 37 700 VRB/03 RMK AO2 T01940044
53988KBKB BKB20190105152010701/05/19 15:20:31  5-MIN KBKB 052120Z AUTO 00000KT 10SM CLR 19/04 A3013 110 37 700 000/00 RMK AO2 T01940044
53988KBKB BKB20190105152510701/05/19 15:25:31  5-MIN KBKB 052125Z AUTO 00000KT 10SM CLR 19/06 A3013 110 40 700 000/00 RMK AO2 T01940056
53988KBKB BKB20190105153010701/05/19 15:30:31  5-MIN KBKB 052130Z AUTO 00000KT 10SM CLR 19/05 A3013 110 38 700 000/00 RMK AO2 T01940050
53988KBKB BKB20190105153510701/05/19 15:35:31  5-MIN KBKB 052135Z AUTO 24003KT 10SM CLR 19/06 A3013 110 41 600 230/03 RMK AO2 T01890056
53988KBKB BKB20190105154010701/05/19 15:40:31  5-MIN KBKB 052140Z AUTO 00000KT 10SM CLR 19/05 A3013 110 39 600 000/00 RMK AO2 T01890050
53988KBKB BKB20190105154510701/05/19 15:45:31  5-MIN KBKB 052145Z AUTO 00000KT 10SM CLR 19/06 A3013 110 40 700 000/00 RMK AO2 T01940056
53988KBKB BKB20190105155011401/05/19 15:50:31  5-MIN KBKB 052150Z AUTO 00000KT 10SM CLR 19/05 A3013 110 39 600 000/00 RMK AO2 SLP232 T01890050
53988KBKB BKB20190105155510701/05/19 15:55:31  5-MIN KBKB 052155Z AUTO 23004KT 10SM CLR 19/06 A3013 110 41 600 230/04 RMK AO2 T01890056
53988KBKB BKB20190105160010701/05/19 16:00:31  5-MIN KBKB 052200Z AUTO 00000KT 10SM CLR 18/06 A3013 110 44 600 000/00 RMK AO2 T01830061
53988KBKB BKB20190105160510701/05/19 16:05:31  5-MIN KBKB 052205Z AUTO 00000KT 10SM CLR 18/06 A3013 110 44 600 000/00 RMK AO2 T01830061
53988KBKB BKB20190105161010701/05/19 16:10:31  5-MIN KBKB 052210Z AUTO 00000KT 10SM CLR 18/07 A3013 110 48 500 000/00 RMK AO2 T01780067
53988KBKB BKB20190105161510701/05/19 16:15:31  5-MIN KBKB 052215Z AUTO 00000KT 10SM CLR 17/06 A3013 110 47 400 000/00 RMK AO2 T01720061
53988KBKB BKB20190105162010701/05/19 16:20:31  5-MIN KBKB 052220Z AUTO 00000KT 10SM CLR 17/07 A3013 110 51 400 000/00 RMK AO2 T01670067
53988KBKB BKB20190105162510701/05/19 16:25:31  5-MIN KBKB 052225Z AUTO 00000KT 10SM CLR 16/07 A3013 110 57 200 000/00 RMK AO2 T01560072
53988KBKB BKB20190105163010701/05/19 16:30:31  5-MIN KBKB 052230Z AUTO 00000KT 10SM CLR 16/08 A3013 110 59 200 000/00 RMK AO2 T01560078
53988KBKB BKB20190105163510701/05/19 16:35:31  5-MIN KBKB 052235Z AUTO 00000KT 10SM CLR 16/08 A3013 110 59 200 000/00 RMK AO2 T01560078
53988KBKB BKB20190105164010701/05/19 16:40:31  5-MIN KBKB 052240Z AUTO 00000KT 10SM CLR 14/08 A3013 100 66 100 000/00 RMK AO2 T01440083
53988KBKB BKB20190105164510701/05/19 16:45:31  5-MIN KBKB 052245Z AUTO 00000KT 10SM CLR 14/08 A3013 100 66 100 000/00 RMK AO2 T01440083
53988KBKB BKB20190105165011401/05/19 16:50:31  5-MIN KBKB 052250Z AUTO 00000KT 10SM CLR 14/08 A3013 100 66 100 000/00 RMK AO2 SLP234 T01440083
53988KBKB BKB20190105165510501/05/19 16:55:31  5-MIN KBKB 052255Z AUTO 00000KT 10SM CLR 14/08 A3013 100 69 0 000/00 RMK AO2 T01390083
53988KBKB BKB20190105170010501/05/19 17:00:31  5-MIN KBKB 052300Z AUTO 00000KT 10SM CLR 14/08 A3013 110 69 0 000/00 RMK AO2 T01390083
53988KBKB BKB20190105170510501/05/19 17:05:31  5-MIN KBKB 052305Z AUTO 00000KT 10SM CLR 13/09 A3013 110 74 0 000/00 RMK AO2 T01330089
53988KBKB BKB20190105171010501/05/19 17:10:31  5-MIN KBKB 052310Z AUTO 00000KT 10SM CLR 13/09 A3013 110 74 0 000/00 RMK AO2 T01330089
53988KBKB BKB20190105171510501/05/19 17:15:31  5-MIN KBKB 052315Z AUTO 00000KT 10SM CLR 13/09 A3013 110 77 0 000/00 RMK AO2 T01280089
53988KBKB BKB20190105172010801/05/19 17:20:31  5-MIN KBKB 052320Z AUTO 00000KT 10SM CLR 12/09 A3013 110 80 -100 000/00 RMK AO2 T01220089
53988KBKB BKB20190105172510801/05/19 17:25:31  5-MIN KBKB 052325Z AUTO 00000KT 10SM CLR 12/09 A3013 110 80 -100 000/00 RMK AO2 T01220089
53988KBKB BKB20190105173010801/05/19 17:30:31  5-MIN KBKB 052330Z AUTO 00000KT 10SM CLR 12/09 A3013 110 83 -200 000/00 RMK AO2 T01170089
53988KBKB BKB20190105173510801/05/19 17:35:31  5-MIN KBKB 052335Z AUTO 00000KT 10SM CLR 12/09 A3013 110 83 -200 000/00 RMK AO2 T01170089
53988KBKB BKB20190105174010801/05/19 17:40:31  5-MIN KBKB 052340Z AUTO 00000KT 10SM CLR 11/08 A3013 110 83 -200 000/00 RMK AO2 T01110083
53988KBKB BKB20190105174510801/05/19 17:45:31  5-MIN KBKB 052345Z AUTO 00000KT 10SM CLR 11/09 A3013 110 86 -200 000/00 RMK AO2 T01110089
53988KBKB BKB20190105175013301/05/19 17:50:31  5-MIN KBKB 052350Z AUTO 00000KT 10SM CLR 11/08 A3013 110 86 -300 000/00 RMK AO2 SLP233 T01060083 10200 20106 56008
53988KBKB BKB20190105175510801/05/19 17:55:31  5-MIN KBKB 052355Z AUTO 00000KT 10SM CLR 11/08 A3013 110 86 -300 000/00 RMK AO2 T01060083
53988KBKB BKB20190105180010801/05/19 18:00:31  5-MIN KBKB 060000Z AUTO 00000KT 10SM CLR 11/08 A3013 110 86 -300 000/00 RMK AO2 T01060083
53988KBKB BKB20190105180510801/05/19 18:05:31  5-MIN KBKB 060005Z AUTO 00000KT 10SM CLR 10/08 A3013 110 86 -400 000/00 RMK AO2 T01000078
53988KBKB BKB20190105181010801/05/19 18:10:31  5-MIN KBKB 060010Z AUTO 00000KT 10SM CLR 10/08 A3013 100 86 -400 000/00 RMK AO2 T01000078
53988KBKB BKB20190105181510801/05/19 18:15:31  5-MIN KBKB 060015Z AUTO 00000KT 10SM CLR 10/08 A3013 100 86 -400 000/00 RMK AO2 T01000078
53988KBKB BKB20190105182010801/05/19 18:20:31  5-MIN KBKB 060020Z AUTO 00000KT 10SM CLR 10/08 A3013 110 86 -400 000/00 RMK AO2 T01000078
53988KBKB BKB20190105182510801/05/19 18:25:31  5-MIN KBKB 060025Z AUTO 00000KT 10SM CLR 09/08 A3013 110 89 -400 000/00 RMK AO2 T00940078
53988KBKB BKB20190105183010801/05/19 18:30:31  5-MIN KBKB 060030Z AUTO 00000KT 10SM CLR 09/08 A3013 110 89 -400 000/00 RMK AO2 T00940078
53988KBKB BKB20190105183510801/05/19 18:35:31  5-MIN KBKB 060035Z AUTO 00000KT 10SM CLR 09/08 A3013 100 89 -400 000/00 RMK AO2 T00940078
53988KBKB BKB20190105184010801/05/19 18:40:31  5-MIN KBKB 060040Z AUTO 00000KT 10SM CLR 09/08 A3013 100 93 -500 000/00 RMK AO2 T00890078
53988KBKB BKB20190105184510801/05/19 18:45:31  5-MIN KBKB 060045Z AUTO 00000KT 10SM CLR 09/08 A3013 100 93 -500 000/00 RMK AO2 T00890078
53988KBKB BKB20190105185011501/05/19 18:50:31  5-MIN KBKB 060050Z AUTO 00000KT 10SM CLR 09/07 A3014 100 89 -500 000/00 RMK AO2 SLP236 T00890072
