53988KBKB BKB20190801000010808/01/19 00:00:31  5-MIN KBKB 010600Z AUTO 00000KT 10SM CLR 23/22 A3000 230 93 1300 000/00 RMK AO2 T02330222
53988KBKB BKB20190801000510808/01/19 00:05:31  5-MIN KBKB 010605Z AUTO 00000KT 10SM CLR 23/22 A3000 230 93 1300 000/00 RMK AO2 T02330222
53988KBKB BKB20190801001010808/01/19 00:10:31  5-MIN KBKB 010610Z AUTO 00000KT 10SM CLR 23/22 A3000 230 93 1300 000/00 RMK AO2 T02330222
53988KBKB BKB20190801001510808/01/19 00:15:31  5-MIN KBKB 010615Z AUTO 00000KT 10SM CLR 24/23 A3000 220 93 1300 000/00 RMK AO2 T02390228
53988KBKB BKB20190801002010708/01/19 00:20:31  5-MIN KBKB 010620Z AUTO 00000KT 9SM CLR 24/23 A3000 220 93 1300 000/00 RMK AO2 T02390228
53988KBKB BKB20190801002510708/01/19 00:25:31  5-MIN KBKB 010625Z AUTO 00000KT 8SM CLR 23/22 A3000 220 93 1300 000/00 RMK AO2 T02330222
53988KBKB BKB20190801003010708/01/19 00:30:31  5-MIN KBKB 010630Z AUTO 00000KT 7SM CLR 23/23 A3000 230 97 1300 000/00 RMK AO2 T02330228
53988KBKB BKB20190801003511008/01/19 00:35:31  5-MIN KBKB 010635Z AUTO 00000KT 6SM BR CLR 23/22 A3000 230 93 1300 000/00 RMK AO2 T02330222
53988KBKB BKB20190801004011008/01/19 00:40:31  5-MIN KBKB 010640Z AUTO 00000KT 6SM BR CLR 23/22 A3000 230 93 1300 000/00 RMK AO2 T02330222
53988KBKB BKB20190801004510708/01/19 00:45:31  5-MIN KBKB 010645Z AUTO 00000KT 7SM CLR 23/22 A3000 230 93 1300 000/00 RMK AO2 T02330222
53988KBKB BKB20190801005011708/01/19 00:50:31  5-MIN KBKB 010650Z AUTO 00000KT 6SM BR CLR 23/22 A3000 230 93 1300 000/00 RMK AO2 SLP183 T02330222
53988KBKB BKB20190801005511008/01/19 00:55:31  5-MIN KBKB 010655Z AUTO 00000KT 6SM BR CLR 23/22 A3000 230 93 1300 000/00 RMK AO2 T02330222
53988KBKB BKB20190801010011008/01/19 01:00:31  5-MIN KBKB 010700Z AUTO 00000KT 6SM BR CLR 23/22 A3000 220 93 1300 000/00 RMK AO2 T02330222
53988KBKB BKB20190801010511008/01/19 01:05:31  5-MIN KBKB 010705Z AUTO 00000KT 5SM BR CLR 23/22 A3000 230 93 1300 000/00 RMK AO2 T02330222
53988KBKB BKB20190801011011008/01/19 01:10:31  5-MIN KBKB 010710Z AUTO 00000KT 5SM BR CLR 23/22 A3000 230 93 1300 000/00 RMK AO2 T02330222
53988KBKB BKB20190801011012808/01/19 01:10:31  5-MIN KBKB 010710Z AUKBKB 010755Z AUTO 00000KT 5SM BR SCT034 23/23 A3000 230 97 1300 000/00 RMK AO2 T02330228
53988KBKB BKB20190801011511008/01/19 01:15:31  5-MIN KBKB 010715Z AUTO 00000KT 5SM BR CLR 23/22 A2999 230 93 1300 000/00 RMK AO2 T02330222
53988KBKB BKB20190801012011008/01/19 01:20:31  5-MIN KBKB 010720Z AUTO 00000KT 5SM BR CLR 23/22 A3000 230 93 1300 000/00 RMK AO2 T02330222
53988KBKB BKB20190801012511008/01/19 01:25:31  5-MIN KBKB 010725Z AUTO 00000KT 5SM BR CLR 23/22 A3000 230 93 1300 000/00 RMK AO2 T02330222
53988KBKB BKB20190801013011008/01/19 01:30:31  5-MIN KBKB 010730Z AUTO 00000KT 3SM BR CLR 23/22 A3000 230 93 1300 000/00 RMK AO2 T02330222
53988KBKB BKB20190801013511008/01/19 01:35:31  5-MIN KBKB 010735Z AUTO 00000KT 3SM BR CLR 23/22 A3000 220 93 1300 000/00 RMK AO2 T02330222
53988KBKB BKB20190801014011008/01/19 01:40:31  5-MIN KBKB 010740Z AUTO 00000KT 3SM BR CLR 23/22 A3000 220 93 1300 000/00 RMK AO2 T02330222
53988KBKB BKB20190801014511308/01/19 01:45:31  5-MIN KBKB 010745Z AUTO 00000KT 3SM BR SCT034 23/23 A3000 220 97 1300 000/00 RMK AO2 T02330228
53988KBKB BKB20190801015012008/01/19 01:50:31  5-MIN KBKB 010750Z AUTO 00000KT 5SM BR SCT034 23/23 A3000 220 97 1300 000/00 RMK AO2 SLP184 T02330228
53988KBKB BKB20190801015511308/01/19 01:55:31  5-MIN KBKB 010755Z AUTO 00000KT 5SM BR SCT034 23/23 A3000 230 97 1300 000/00 RMK AO2 T02330228
53988KBKB BKB20190801020011308/01/19 02:00:31  5-MIN KBKB 010800Z AUTO 00000KT 5SM BR FEW034 23/22 A3000 230 93 1300 000/00 RMK AO2 T02330222
53988KBKB BKB20190801020511308/01/19 02:05:31  5-MIN KBKB 010805Z AUTO 00000KT 6SM BR FEW034 23/22 A2999 230 93 1300 000/00 RMK AO2 T02330222
53988KBKB BKB20190801021011308/01/19 02:10:31  5-MIN KBKB 010810Z AUTO 00000KT 5SM BR FEW034 23/22 A2999 230 93 1300 000/00 RMK AO2 T02330222
53988KBKB BKB20190801021511308/01/19 02:15:31  5-MIN KBKB 010815Z AUTO 00000KT 5SM BR FEW034 23/22 A3000 230 93 1300 000/00 RMK AO2 T02330222
53988KBKB BKB20190801022011308/01/19 02:20:31  5-MIN KBKB 010820Z AUTO 00000KT 5SM BR FEW001 23/22 A3000 230 93 1300 000/00 RMK AO2 T02330222
53988KBKB BKB20190801022511308/01/19 02:25:31  5-MIN KBKB 010825Z AUTO 00000KT 5SM BR FEW001 23/22 A3000 230 93 1300 000/00 RMK AO2 T02330222
53988KBKB BKB20190801023011308/01/19 02:30:31  5-MIN KBKB 010830Z AUTO 00000KT 5SM BR FEW001 23/22 A3000 220 93 1300 000/00 RMK AO2 T02330222
53988KBKB BKB20190801023511308/01/19 02:35:31  5-MIN KBKB 010835Z AUTO 00000KT 4SM BR FEW001 23/22 A3000 220 93 1300 000/00 RMK AO2 T02330222
53988KBKB BKB20190801024011308/01/19 02:40:31  5-MIN KBKB 010840Z AUTO 00000KT 4SM BR FEW001 23/22 A3000 230 93 1300 000/00 RMK AO2 T02330222
53988KBKB BKB20190801024511308/01/19 02:45:31  5-MIN KBKB 010845Z AUTO 00000KT 4SM BR SCT001 23/22 A3000 230 93 1300 000/00 RMK AO2 T02330222
53988KBKB BKB20190801025010308/01/19 02:50:31  5-MIN KBKB 010850Z AUTO 00000KT 4SM BR BKN001 23/22 A3000 230 93 1300 000/00 RMK AO2
53988KBKB BKB20190801025511308/01/19 02:55:31  5-MIN KBKB 010855Z AUTO 00000KT 4SM BR BKN001 23/22 A2999 230 93 1300 000/00 RMK AO2 T02330222
53988KBKB BKB20190801030011708/01/19 03:00:31  5-MIN KBKB 010900Z AUTO 00000KT 2 1/2SM BR BKN001 23/22 A2999 230 93 1300 000/00 RMK AO2 T02330222
53988KBKB BKB20190801030511708/01/19 03:05:31  5-MIN KBKB 010905Z AUTO 00000KT 2 1/2SM BR BKN001 23/22 A2999 230 97 1200 000/00 RMK AO2 T02280222
53988KBKB BKB20190801031011308/01/19 03:10:31  5-MIN KBKB 010910Z AUTO 00000KT 5SM BR OVC001 23/22 A2999 230 97 1200 000/00 RMK AO2 T02280222
53988KBKB BKB20190801031511308/01/19 03:15:31  5-MIN KBKB 010915Z AUTO 00000KT 5SM BR OVC001 23/22 A3000 230 97 1200 000/00 RMK AO2 T02280222
53988KBKB BKB20190801032011308/01/19 03:20:31  5-MIN KBKB 010920Z AUTO 00000KT 5SM BR OVC001 23/22 A3000 230 97 1200 000/00 RMK AO2 T02280222
53988KBKB BKB20190801032511308/01/19 03:25:31  5-MIN KBKB 010925Z AUTO 00000KT 5SM BR OVC002 23/22 A2999 230 97 1200 000/00 RMK AO2 T02280222
53988KBKB BKB20190801033011308/01/19 03:30:31  5-MIN KBKB 010930Z AUTO 00000KT 6SM BR OVC002 23/22 A2999 230 97 1200 000/00 RMK AO2 T02280222
53988KBKB BKB20190801033511308/01/19 03:35:31  5-MIN KBKB 010935Z AUTO 00000KT 5SM BR OVC002 23/22 A2999 230 93 1200 000/00 RMK AO2 T02280217
53988KBKB BKB20190801034011308/01/19 03:40:31  5-MIN KBKB 010940Z AUTO 00000KT 4SM BR OVC002 23/22 A2999 230 93 1200 000/00 RMK AO2 T02280217
53988KBKB BKB20190801034511308/01/19 03:45:31  5-MIN KBKB 010945Z AUTO 00000KT 5SM BR BKN002 23/22 A2999 230 93 1200 000/00 RMK AO2 T02280217
53988KBKB BKB20190801035012008/01/19 03:50:31  5-MIN KBKB 010950Z AUTO 00000KT 6SM BR BKN002 23/22 A3000 230 97 1200 000/00 RMK AO2 SLP183 T02280222
53988KBKB BKB20190801035511308/01/19 03:55:31  5-MIN KBKB 010955Z AUTO 00000KT 5SM BR BKN002 23/22 A3000 220 97 1200 000/00 RMK AO2 T02280222
53988KBKB BKB20190801040011308/01/19 04:00:31  5-MIN KBKB 011000Z AUTO 00000KT 4SM BR BKN002 23/22 A3000 220 93 1200 000/00 RMK AO2 T02280217
53988KBKB BKB20190801040512008/01/19 04:05:31  5-MIN KBKB 011005Z AUTO 00000KT 4SM BR SCT002 BKN035 23/22 A3000 220 93 1200 000/00 RMK AO2 T02280217
53988KBKB BKB20190801041012008/01/19 04:10:31  5-MIN KBKB 011010Z AUTO 00000KT 5SM BR FEW003 BKN035 23/22 A3000 220 97 1200 000/00 RMK AO2 T02280222
53988KBKB BKB20190801041512008/01/19 04:15:31  5-MIN KBKB 011015Z AUTO 00000KT 5SM BR SCT003 BKN037 23/22 A3000 230 97 1200 000/00 RMK AO2 T02280222
53988KBKB BKB20190801042012008/01/19 04:20:31  5-MIN KBKB 011020Z AUTO 00000KT 4SM BR BKN003 OVC037 23/22 A3000 220 97 1200 000/00 RMK AO2 T02280222
53988KBKB BKB20190801042513608/01/19 04:25:31  5-MIN KBKB 011025Z AUTO 00000KT 2 1/2SM BR BKN002 OVC037 23/22 A3000 220 97 1200 000/00 RMK AO2 VIS 1 1/2V4 T02280222
53988KBKB BKB20190801043012008/01/19 04:30:31  5-MIN KBKB 011030Z AUTO 00000KT 2SM BR BKN002 OVC037 23/22 A3000 220 93 1300 000/00 RMK AO2 T02330222
53988KBKB BKB20190801043512408/01/19 04:35:31  5-MIN KBKB 011035Z AUTO 00000KT 1 1/2SM BR BKN002 OVC036 23/22 A3000 220 93 1300 000/00 RMK AO2 T02330222
53988KBKB BKB20190801044011708/01/19 04:40:31  5-MIN KBKB 011040Z AUTO 00000KT 1 3/4SM BR OVC002 23/22 A3000 220 93 1300 000/00 RMK AO2 T02330222
53988KBKB BKB20190801044511708/01/19 04:45:31  5-MIN KBKB 011045Z AUTO 00000KT 2 1/2SM BR OVC002 23/22 A3000 220 97 1200 000/00 RMK AO2 T02280222
53988KBKB BKB20190801045012408/01/19 04:50:31  5-MIN KBKB 011050Z AUTO 00000KT 1 1/4SM BR OVC002 23/22 A3000 230 93 1300 000/00 RMK AO2 SLP183 T02330222
53988KBKB BKB20190801045511208/01/19 04:55:31  5-MIN KBKB 011055Z AUTO 00000KT 1SM BR VV002 23/22 A3000 220 93 1300 000/00 RMK AO2 T02330222
53988KBKB BKB20190801050011708/01/19 05:00:31  5-MIN KBKB 011100Z AUTO 00000KT 1 1/4SM BR OVC002 23/22 A3000 220 97 1200 000/00 RMK AO2 T02280222
53988KBKB BKB20190801050511708/01/19 05:05:31  5-MIN KBKB 011105Z AUTO 00000KT 1 1/4SM BR OVC002 23/22 A3000 220 97 1200 000/00 RMK AO2 T02280222
53988KBKB BKB20190801051011708/01/19 05:10:31  5-MIN KBKB 011110Z AUTO 00000KT 1 1/2SM BR OVC002 23/22 A3000 220 97 1200 000/00 RMK AO2 T02280222
53988KBKB BKB20190801051511708/01/19 05:15:31  5-MIN KBKB 011115Z AUTO 00000KT 1 1/4SM BR OVC002 23/22 A3001 220 97 1200 000/00 RMK AO2 T02280222
53988KBKB BKB20190801052011408/01/19 05:20:31  5-MIN KBKB 011120Z AUTO 00000KT 1/2SM FG VV002 23/22 A3001 220 97 1200 000/00 RMK AO2 T02280222
53988KBKB BKB20190801052511408/01/19 05:25:31  5-MIN KBKB 011125Z AUTO 00000KT 1/2SM FG VV002 23/22 A3001 220 93 1300 000/00 RMK AO2 T02330222
53988KBKB BKB20190801053011408/01/19 05:30:31  5-MIN KBKB 011130Z AUTO 00000KT 1/2SM FG VV002 23/22 A3001 210 93 1300 000/00 RMK AO2 T02330222
53988KBKB BKB20190801053511408/01/19 05:35:31  5-MIN KBKB 011135Z AUTO 00000KT 1/4SM FG VV002 23/23 A3002 210 97 1300 000/00 RMK AO2 T02330228
53988KBKB BKB20190801054011408/01/19 05:40:31  5-MIN KBKB 011140Z AUTO 00000KT 1/4SM FG VV002 23/22 A3002 210 97 1200 000/00 RMK AO2 T02280222
53988KBKB BKB20190801054511408/01/19 05:45:31  5-MIN KBKB 011145Z AUTO 00000KT 1/4SM FG VV002 23/22 A3002 210 97 1200 000/00 RMK AO2 T02280222
53988KBKB BKB20190801055013908/01/19 05:50:31  5-MIN KBKB 011150Z AUTO 00000KT 1/4SM FG VV002 23/23 A3002 200 97 1300 000/00 RMK AO2 SLP191 T02330228 10239 20228 58000
53988KBKB BKB20190801055511408/01/19 05:55:31  5-MIN KBKB 011155Z AUTO 00000KT 1/4SM FG VV002 23/23 A3002 200 97 1300 000/00 RMK AO2 T02330228
53988KBKB BKB20190801060011408/01/19 06:00:31  5-MIN KBKB 011200Z AUTO 00000KT 1/2SM FG VV002 23/23 A3003 200 97 1300 000/00 RMK AO2 T02330228
53988KBKB BKB20190801060511408/01/19 06:05:31  5-MIN KBKB 011205Z AUTO 00000KT 1/2SM FG VV002 23/23 A3003 200 97 1300 000/00 RMK AO2 T02330228
53988KBKB BKB20190801061011408/01/19 06:10:31  5-MIN KBKB 011210Z AUTO 00000KT 1/2SM FG VV002 23/23 A3003 200 97 1200 000/00 RMK AO2 T02330228
53988KBKB BKB20190801061511408/01/19 06:15:31  5-MIN KBKB 011215Z AUTO 00000KT 3/4SM BR VV002 23/23 A3003 190 97 1200 000/00 RMK AO2 T02330228
53988KBKB BKB20190801062011208/01/19 06:20:31  5-MIN KBKB 011220Z AUTO 00000KT 1SM BR VV002 23/23 A3004 190 97 1200 000/00 RMK AO2 T02330228
53988KBKB BKB20190801062511708/01/19 06:25:31  5-MIN KBKB 011225Z AUTO 00000KT 1 1/4SM BR OVC002 23/23 A3004 190 97 1200 000/00 RMK AO2 T02330228
53988KBKB BKB20190801063011208/01/19 06:30:31  5-MIN KBKB 011230Z AUTO 00000KT 1SM BR VV002 23/23 A3004 190 97 1200 000/00 RMK AO2 T02330228
53988KBKB BKB20190801063511708/01/19 06:35:31  5-MIN KBKB 011235Z AUTO 00000KT 1 1/4SM BR OVC002 23/23 A3004 190 97 1200 000/00 RMK AO2 T02330228
53988KBKB BKB20190801064011708/01/19 06:40:31  5-MIN KBKB 011240Z AUTO 00000KT 1 3/4SM BR OVC002 24/23 A3004 190 97 1300 000/00 RMK AO2 T02390233
53988KBKB BKB20190801064511708/01/19 06:45:31  5-MIN KBKB 011245Z AUTO 00000KT 2 1/2SM BR OVC002 24/23 A3005 180 97 1300 000/00 RMK AO2 T02390233
53988KBKB BKB20190801065012008/01/19 06:50:31  5-MIN KBKB 011250Z AUTO 00000KT 2SM BR OVC002 24/23 A3005 180 97 1300 000/00 RMK AO2 SLP200 T02390233
53988KBKB BKB20190801065511708/01/19 06:55:31  5-MIN KBKB 011255Z AUTO 00000KT 2 1/2SM BR OVC001 24/23 A3005 180 97 1300 000/00 RMK AO2 T02390233
53988KBKB BKB20190801070011308/01/19 07:00:31  5-MIN KBKB 011300Z AUTO 00000KT 4SM BR OVC001 24/23 A3005 180 97 1300 000/00 RMK AO2 T02390233
53988KBKB BKB20190801070511308/01/19 07:05:31  5-MIN KBKB 011305Z AUTO 00000KT 5SM BR OVC001 24/23 A3005 180 93 1400 000/00 RMK AO2 T02440233
53988KBKB BKB20190801071011308/01/19 07:10:31  5-MIN KBKB 011310Z AUTO 00000KT 6SM BR OVC001 24/24 A3005 180 97 1400 000/00 RMK AO2 T02440239
53988KBKB BKB20190801071511008/01/19 07:15:31  5-MIN KBKB 011315Z AUTO 00000KT 7SM BKN001 24/24 A3005 180 97 1400 000/00 RMK AO2 T02440239
53988KBKB BKB20190801072011008/01/19 07:20:31  5-MIN KBKB 011320Z AUTO 00000KT 9SM BKN001 24/24 A3005 180 97 1400 000/00 RMK AO2 T02440239
53988KBKB BKB20190801072511108/01/19 07:25:31  5-MIN KBKB 011325Z AUTO 00000KT 10SM SCT002 25/24 A3005 180 93 1400 000/00 RMK AO2 T02500239
53988KBKB BKB20190801073011108/01/19 07:30:31  5-MIN KBKB 011330Z AUTO 00000KT 10SM FEW002 25/24 A3005 170 93 1400 000/00 RMK AO2 T02500239
53988KBKB BKB20190801073511108/01/19 07:35:31  5-MIN KBKB 011335Z AUTO 00000KT 10SM FEW002 25/24 A3006 170 93 1400 000/00 RMK AO2 T02500239
53988KBKB BKB20190801074011108/01/19 07:40:31  5-MIN KBKB 011340Z AUTO 00000KT 10SM FEW002 26/24 A3006 170 93 1500 000/00 RMK AO2 T02560244
53988KBKB BKB20190801074511108/01/19 07:45:31  5-MIN KBKB 011345Z AUTO 00000KT 10SM FEW002 26/24 A3006 170 90 1500 000/00 RMK AO2 T02610244
53988KBKB BKB20190801075011508/01/19 07:50:31  5-MIN KBKB 011350Z AUTO 00000KT 10SM CLR 27/24 A3006 170 84 1600 000/00 RMK AO2 SLP205 T02670239
53988KBKB BKB20190801075510808/01/19 07:55:31  5-MIN KBKB 011355Z AUTO 00000KT 10SM CLR 27/24 A3006 170 84 1700 000/00 RMK AO2 T02720244
53988KBKB BKB20190801080010808/01/19 08:00:31  5-MIN KBKB 011400Z AUTO 00000KT 10SM CLR 27/24 A3006 170 82 1700 000/00 RMK AO2 T02720239
53988KBKB BKB20190801080510808/01/19 08:05:31  5-MIN KBKB 011405Z AUTO 00000KT 10SM CLR 28/24 A3006 170 79 1700 000/00 RMK AO2 T02780239
53988KBKB BKB20190801081010808/01/19 08:10:31  5-MIN KBKB 011410Z AUTO 00000KT 10SM CLR 27/23 A3006 170 79 1700 000/00 RMK AO2 T02720233
53988KBKB BKB20190801081510808/01/19 08:15:31  5-MIN KBKB 011415Z AUTO 00000KT 10SM CLR 28/23 A3006 170 76 1700 000/00 RMK AO2 T02780233
53988KBKB BKB20190801082010808/01/19 08:20:31  5-MIN KBKB 011420Z AUTO 00000KT 10SM CLR 28/24 A3006 170 79 1700 000/00 RMK AO2 T02780239
53988KBKB BKB20190801082510808/01/19 08:25:31  5-MIN KBKB 011425Z AUTO 00000KT 10SM CLR 28/24 A3006 170 76 1800 000/00 RMK AO2 T02830239
53988KBKB BKB20190801083010808/01/19 08:30:31  5-MIN KBKB 011430Z AUTO 00000KT 10SM CLR 29/24 A3006 170 74 1800 000/00 RMK AO2 T02890239
53988KBKB BKB20190801083510808/01/19 08:35:31  5-MIN KBKB 011435Z AUTO 00000KT 10SM CLR 29/24 A3006 170 74 1800 000/00 RMK AO2 T02890239
53988KBKB BKB20190801084011508/01/19 08:40:31  5-MIN KBKB 011440Z AUTO 00000KT 10SM CLR 29/24 A3006 170 74 1800 000/00 RMK A3 RMK AO2 T03280233
53988KBKB BKB20190801120011108/01/19 12:00:31  5-MIN KBKB 011800Z AUTO 00000KT 10SM OVC036 31/23 A3004 190 65 2100 000/00 RMK AO2 T03060233
53988KBKB BKB20190801120511108/01/19 12:05:31  5-MIN KBKB 011805Z AUTO 00000KT 10SM OVC036 31/23 A3004 190 65 2100 000/00 RMK AO2 T03060233
53988KBKB BKB20190801121011108/01/19 12:10:31  5-MIN KBKB 011810Z AUTO 00000KT 10SM OVC036 31/24 A3004 190 67 2100 000/00 RMK AO2 T03060239
53988KBKB BKB20190801121511108/01/19 12:15:31  5-MIN KBKB 011815Z AUTO 00000KT 10SM OVC036 31/23 A3004 190 65 2100 000/00 RMK AO2 T03060233
53988KBKB BKB20190801122011808/01/19 12:20:31  5-MIN KBKB 011820Z AUTO 00000KT 10SM BKN036 OVC070 31/23 A3003 200 65 2100 000/00 RMK AO2 T03060233
53988KBKB BKB20190801122511808/01/19 12:25:31  5-MIN KBKB 011825Z AUTO 00000KT 10SM BKN036 OVC070 31/23 A3003 200 63 2100 000/00 RMK AO2 T03110233
53988KBKB BKB20190801123011808/01/19 12:30:31  5-MIN KBKB 011830Z AUTO 00000KT 10SM SCT037 BKN075 32/23 A3003 200 61 2200 000/00 RMK AO2 T03170233
53988KBKB BKB20190801123511808/01/19 12:35:31  5-MIN KBKB 011835Z AUTO 00000KT 10SM SCT035 BKN075 32/23 A3003 190 61 2200 000/00 RMK AO2 T03170233
53988KBKB BKB20190801124012508/01/19 12:40:31  5-MIN KBKB 011840Z AUTO 00000KT 10SM FEW037 BKN075 BKN090 31/23 A3003 200 60 2100 000/00 RMK AO2 T03110228
53988KBKB BKB20190801124511808/01/19 12:45:31  5-MIN KBKB 011845Z AUTO VRB03KT 10SM FEW075 SCT090 32/23 A3003 200 61 2200 VRB/03 RMK AO2 T03170233
53988KBKB BKB20190801125011808/01/19 12:50:31  5-MIN KBKB 011850Z AUTO VRB03KT 10SM FEW080 32/23 A3002 200 59 2300 VRB/03 RMK AO2 SLP192 T03220233
53988KBKB BKB20190801125511108/01/19 12:55:31  5-MIN KBKB 011855Z AUTO VRB03KT 10SM FEW085 33/23 A3003 200 57 2300 VRB/03 RMK AO2 T03280233
53988KBKB BKB20190801130011108/01/19 13:00:31  5-MIN KBKB 011900Z AUTO 00000KT 10SM FEW085 32/24 A3002 200 63 2200 000/00 RMK AO2 T03170239
53988KBKB BKB20190801130511108/01/19 13:05:31  5-MIN KBKB 011905Z AUTO 00000KT 10SM FEW090 32/23 A3002 210 61 2200 000/00 RMK AO2 T03170233
53988KBKB BKB20190801131010808/01/19 13:10:31  5-MIN KBKB 011910Z AUTO 00000KT 10SM CLR 31/23 A3002 210 63 2100 000/00 RMK AO2 T03110233
53988KBKB BKB20190801131510808/01/19 13:15:31  5-MIN KBKB 011915Z AUTO VRB03KT 10SM CLR 32/23 A3002 200 61 2200 VRB/03 RMK AO2 T03170233
53988KBKB BKB20190801132010808/01/19 13:20:31  5-MIN KBKB 011920Z AUTO 13003KT 10SM CLR 31/23 A3002 210 63 2100 130/03 RMK AO2 T03110233
53988KBKB BKB20190801132510808/01/19 13:25:31  5-MIN KBKB 011925Z AUTO 00000KT 10SM CLR 32/24 A3002 210 63 2200 000/00 RMK AO2 T03170239
53988KBKB BKB20190801133010808/01/19 13:30:31  5-MIN KBKB 011930Z AUTO 00000KT 10SM CLR 32/23 A3002 210 61 2200 000/00 RMK AO2 T03170233
53988KBKB BKB20190801133511108/01/19 13:35:31  5-MIN KBKB 011935Z AUTO VRB03KT 10SM FEW039 32/24 A3002 210 63 2200 VRB/03 RMK AO2 T03170239
53988KBKB BKB20190801134011108/01/19 13:40:31  5-MIN KBKB 011940Z AUTO VRB03KT 10SM FEW039 32/23 A3002 210 61 2200 VRB/03 RMK AO2 T03170233
53988KBKB BKB20190801134511108/01/19 13:45:31  5-MIN KBKB 011945Z AUTO 00000KT 10SM FEW039 32/24 A3001 210 63 2200 000/00 RMK AO2 T03170239
53988KBKB BKB20190801135012508/01/19 13:50:31  5-MIN KBKB 011950Z AUTO 00000KT 10SM FEW041 FEW047 31/23 A3002 210 63 2100 000/00 RMK AO2 SLP189 T03110233
53988KBKB BKB20190801135511108/01/19 13:55:31  5-MIN KBKB 011955Z AUTO 00000KT 10SM SCT044 31/23 A3001 210 63 2100 000/00 RMK AO2 T03110233
53988KBKB BKB20190801140011808/01/19 14:00:31  5-MIN KBKB 012000Z AUTO 00000KT 10SM SCT044 SCT055 31/23 A3001 220 63 2100 000/00 RMK AO2 T03110233
53988KBKB BKB20190801140511808/01/19 14:05:31  5-MIN KBKB 012005Z AUTO 00000KT 10SM FEW044 SCT055 31/24 A3001 220 65 2100 000/00 RMK AO2 T03110239
53988KBKB BKB20190801141011808/01/19 14:10:31  5-MIN KBKB 012010Z AUTO 00000KT 10SM FEW044 SCT060 31/23 A3000 220 63 2200 000/00 RMK AO2 T03110233
53988KBKB BKB20190801141511808/01/19 14:15:31  5-MIN KBKB 012015Z AUTO 00000KT 10SM FEW045 SCT060 31/23 A3000 220 63 2200 000/00 RMK AO2 T03110233
53988KBKB BKB20190801142011808/01/19 14:20:31  5-MIN KBKB 012020Z AUTO 00000KT 10SM FEW045 FEW055 32/24 A3000 230 63 2200 000/00 RMK AO2 T03170239
53988KBKB BKB20190801142511108/01/19 14:25:31  5-MIN KBKB 012025Z AUTO 00000KT 10SM FEW055 31/24 A3000 230 65 2200 000/00 RMK AO2 T03110239
53988KBKB BKB20190801143011108/01/19 14:30:31  5-MIN KBKB 012030Z AUTO 00000KT 10SM FEW060 31/24 A3000 230 65 2200 000/00 RMK AO2 T03110239
53988KBKB BKB20190801143510808/01/19 14:35:31  5-MIN KBKB 012035Z AUTO VRB03KT 10SM CLR 32/24 A3000 230 61 2300 VRB/03 RMK AO2 T03220239
53988KBKB BKB20190801144010808/01/19 14:40:31  5-MIN KBKB 012040Z AUTO 00000KT 10SM CLR 32/23 A2999 230 59 2300 000/00 RMK AO2 T03220233
53988KBKB BKB20190801144510808/01/19 14:45:31  5-MIN KBKB 012045Z AUTO 00000KT 10SM CLR 32/23 A2999 240 59 2300 000/00 RMK AO2 T03220233
53988KBKB BKB20190801145012408/01/19 14:50:31  5-MIN KBKB 012050Z AUTO 00000KT 10SM FEW033 32/23 A2998 240 59 2300 000/00 RMK AO2 SLP178 T03220233 58007
53988KBKB BKB20190801145511108/01/19 14:55:31  5-MIN KBKB 012055Z AUTO VRB03KT 10SM BKN033 32/23 A2998 240 61 2200 VRB/03 RMK AO2 T03170233
53988KBKB BKB20190801150011108/01/19 15:00:31  5-MIN KBKB 012100Z AUTO 00000KT 10SM BKN033 31/23 A2998 250 63 2200 000/00 RMK AO2 T03110233
53988KBKB BKB20190801150511108/01/19 15:05:31  5-MIN KBKB 012105Z AUTO 00000KT 10SM BKN033 31/24 A2998 250 65 2200 000/00 RMK AO2 T03110239
53988KBKB BKB20190801151011108/01/19 15:10:31  5-MIN KBKB 012110Z AUTO 00000KT 10SM BKN033 31/24 A2998 240 65 2200 000/00 RMK AO2 T03110239
53988KBKB BKB20190801151511108/01/19 15:15:31  5-MIN KBKB 012115Z AUTO 00000KT 10SM OVC033 31/23 A2997 250 63 2200 000/00 RMK AO2 T03110233
53988KBKB BKB20190801152011808/01/19 15:20:31  5-MIN KBKB 012120Z AUTO 00000KT 10SM BKN032 OVC040 32/24 A2997 250 63 2300 000/00 RMK AO2 T03170239
53988KBKB BKB20190801152511108/01/19 15:25:31  5-MIN KBKB 012125Z AUTO 00000KT 10SM OVC035 31/24 A2997 250 65 2200 000/00 RMK AO2 T03110239
53988KBKB BKB20190801153011108/01/19 15:30:31  5-MIN KBKB 012130Z AUTO 00000KT 10SM OVC037 31/23 A2997 250 63 2200 000/00 RMK AO2 T03110233
53988KBKB BKB20190801153511808/01/19 15:35:31  5-MIN KBKB 012135Z AUTO 13003KT 10SM BKN037 BKN047 31/24 A2997 250 67 2100 120/03 RMK AO2 T03060239
53988KBKB BKB20190801154011808/01/19 15:40:31  5-MIN KBKB 012140Z AUTO 00000KT 10SM BKN037 BKN047 31/24 A2997 250 65 2200 000/00 RMK AO2 T03110239
53988KBKB BKB20190801154511108/01/19 15:45:31  5-MIN KBKB 012145Z AUTO 00000KT 10SM SCT040 31/24 A2997 250 67 2100 000/00 RMK AO2 T03060239
53988KBKB BKB20190801155011808/01/19 15:50:31  5-MIN KBKB 012150Z AUTO 00000KT 10SM SCT040 31/24 A2997 250 65 2200 000/00 RMK AO2 SLP175 T03110239
53988KBKB BKB20190801155511108/01/19 15:55:31  5-MIN KBKB 012155Z AUTO 00000KT 10SM SCT042 31/24 A2997 250 65 2200 000/00 RMK AO2 T03110239
53988KBKB BKB20190801160011808/01/19 16:00:31  5-MIN KBKB 012200Z AUTO VRB03KT 10SM SCT042 SCT055 31/24 A2998 250 65 2200 VRB/03 RMK AO2 T03110239
53988KBKB BKB20190801160511808/01/19 16:05:31  5-MIN KBKB 012205Z AUTO 00000KT 10SM BKN040 BKN055 31/24 A2998 250 65 2200 000/00 RMK AO2 T03110239
53988KBKB BKB20190801161011808/01/19 16:10:31  5-MIN KBKB 012210Z AUTO 00000KT 10SM BKN037 BKN044 31/24 A2997 250 65 2200 000/00 RMK AO2 T03110239
53988KBKB BKB20190801161511808/01/19 16:15:31  5-MIN KBKB 012215Z AUTO 00000KT 10SM SCT037 SCT044 31/24 A2997 250 65 2200 000/00 RMK AO2 T03110239
53988KBKB BKB20190801162011108/01/19 16:20:31  5-MIN KBKB 012220Z AUTO 00000KT 10SM SCT039 31/24 A2997 260 67 2200 000/00 RMK AO2 T03110244
53988KBKB BKB20190801162511108/01/19 16:25:31  5-MIN KBKB 012225Z AUTO 00000KT 10SM BKN037 31/23 A2997 260 65 2100 000/00 RMK AO2 T03060233
53988KBKB BKB20190801163011108/01/19 16:30:31  5-MIN KBKB 012230Z AUTO 00000KT 10SM BKN037 30/24 A2996 260 69 2100 000/00 RMK AO2 T03000239
53988KBKB BKB20190801163511108/01/19 16:35:31  5-MIN KBKB 012235Z AUTO 00000KT 10SM BKN037 30/24 A2996 260 72 2100 000/00 RMK AO2 T03000244
53988KBKB BKB20190801164011808/01/19 16:40:31  5-MIN KBKB 012240Z AUTO 00000KT 10SM BKN037 BKN055 30/25 A2996 260 74 2100 000/00 RMK AO2 T03000250
53988KBKB BKB20190801164511808/01/19 16:45:31  5-MIN KBKB 012245Z AUTO 00000KT 10SM SCT037 BKN055 30/24 A2996 260 72 2100 000/00 RMK AO2 T03000244
53988KBKB BKB20190801165012508/01/19 16:50:31  5-MIN KBKB 012250Z AUTO 00000KT 10SM BKN035 BKN055 30/24 A2996 260 72 2100 000/00 RMK AO2 SLP170 T03000244
53988KBKB BKB20190801165511808/01/19 16:55:31  5-MIN KBKB 012255Z AUTO 00000KT 10SM BKN035 BKN055 29/25 A2996 260 76 2000 000/00 RMK AO2 T02940250
53988KBKB BKB20190801170011808/01/19 17:00:31  5-MIN KBKB 012300Z AUTO 00000KT 10SM BKN035 BKN055 29/25 A2996 260 76 2000 000/00 RMK AO2 T02940250
53988KBKB BKB20190801170511808/01/19 17:05:31  5-MIN KBKB 012305Z AUTO 00000KT 10SM FEW035 SCT055 30/25 A2996 260 74 2100 000/00 RMK AO2 T03000250
53988KBKB BKB20190801171011808/01/19 17:10:31  5-MIN KBKB 012310Z AUTO 00000KT 10SM FEW035 SCT055 30/25 A2996 260 74 2100 000/00 RMK AO2 T03000250
53988KBKB BKB20190801171511108/01/19 17:15:31  5-MIN KBKB 012315Z AUTO 00000KT 10SM FEW034 30/24 A2996 260 72 2100 000/00 RMK AO2 T03000244
53988KBKB BKB20190801172011108/01/19 17:20:31  5-MIN KBKB 012320Z AUTO 00000KT 10SM FEW034 30/24 A2996 260 72 2100 000/00 RMK AO2 T03000244
53988KBKB BKB20190801172510808/01/19 17:25:31  5-MIN KBKB 012325Z AUTO 00000KT 10SM CLR 29/25 A2996 260 76 2000 000/00 RMK AO2 T02940250
53988KBKB BKB20190801173010808/01/19 17:30:31  5-MIN KBKB 012330Z AUTO 00000KT 10SM CLR 29/24 A2996 270 74 2000 000/00 RMK AO2 T02940244
53988KBKB BKB20190801173510808/01/19 17:35:31  5-MIN KBKB 012335Z AUTO 00000KT 10SM CLR 29/24 A2996 260 74 2000 000/00 RMK AO2 T02940244
53988KBKB BKB20190801174010808/01/19 17:40:31  5-MIN KBKB 012340Z AUTO 00000KT 10SM CLR 29/25 A2996 270 76 2000 000/00 RMK AO2 T02940250
53988KBKB BKB20190801174510808/01/19 17:45:31  5-MIN KBKB 012345Z AUTO 00000KT 10SM CLR 29/24 A2995 270 74 2000 000/00 RMK AO2 T02940244
53988KBKB BKB20190801175013308/01/19 17:50:31  5-MIN KBKB 012350Z AUTO 00000KT 10SM CLR 29/25 A2995 270 76 2000 000/00 RMK AO2 SLP168 T02940250 10328 20294 58020
53988KBKB BKB20190801175510808/01/19 17:55:31  5-MIN KBKB 012355Z AUTO 00000KT 10SM CLR 29/25 A2995 270 79 2000 000/00 RMK AO2 T02890250
53988KBKB BKB20190801180010808/01/19 18:00:31  5-MIN KBKB 020000Z AUTO 00000KT 10SM CLR 29/24 A2995 270 76 2000 000/00 RMK AO2 T02890244
53988KBKB BKB20190801180510808/01/19 18:05:31  5-MIN KBKB 020005Z AUTO 00000KT 10SM CLR 29/25 A2995 270 79 2000 000/00 RMK AO2 T02890250
53988KBKB BKB20190801181010808/01/19 18:10:31  5-MIN KBKB 020010Z AUTO 00000KT 10SM CLR 29/25 A2995 270 79 2000 000/00 RMK AO2 T02890250
53988KBKB BKB20190801181510808/01/19 18:15:31  5-MIN KBKB 020015Z AUTO 00000KT 10SM CLR 29/25 A2995 270 79 2000 000/00 RMK AO2 T02890250
53988KBKB BKB20190801182010808/01/19 18:20:31  5-MIN KBKB 020020Z AUTO 00000KT 10SM CLR 28/25 A2994 280 82 1900 000/00 RMK AO2 T02830250
53988KBKB BKB20190801182510808/01/19 18:25:31  5-MIN KBKB 020025Z AUTO 00000KT 10SM CLR 28/25 A2994 280 82 1900 000/00 RMK AO2 T02830250
53988KBKB BKB20190801183010808/01/19 18:30:31  5-MIN KBKB 020030Z AUTO 00000KT 10SM CLR 28/25 A2995 270 82 1900 000/00 RMK AO2 T02830250
53988KBKB BKB20190801183510808/01/19 18:35:31  5-MIN KBKB 020035Z AUTO 00000KT 10SM CLR 28/25 A2995 270 82 1900 000/00 RMK AO2 T02830250
53988KBKB BKB20190801184010808/01/19 18:40:31  5-MIN KBKB 020040Z AUTO 00000KT 10SM CLR 28/25 A2995 270 82 1900 000/00 RMK AO2 T02830250
53988KBKB BKB20190801184510808/01/19 18:45:31  5-MIN KBKB 020045Z AUTO 00000KT 10SM CLR 28/25 A2995 270 84 1800 000/00 RMK AO2 T02780250
53988KBKB BKB20190801185012408/01/19 18:50:31  5-MIN KBKB 020050Z AUTO 00000KT 10SM TS CLR 28/25 A2995 270 84 1800 000/00 RMK AO2 TSB50 SLP168 T02780250
53988KBKB BKB20190801185511108/01/19 18:55:31  5-MIN KBKB 020055Z AUTO 00000KT 10SM TS CLR 27/25 A2996 260 87 1800 000/00 RMK AO2 T02720250
53988KBKB BKB20190801190011108/01/19 19:00:31  5-MIN KBKB 020100Z AUTO 00000KT 10SM TS CLR 27/25 A2996 260 87 1800 000/00 RMK AO2 T02720250
53988KBKB BKB20190801190511408/01/19 19:05:31  5-MIN KBKB 020105Z AUTO 00000KT 10SM CLR 27/24 A2996 260 84 1800 000/00 RMK AO2 TSE05 T02720244
53988KBKB BKB20190801191011708/01/19 19:10:31  5-MIN KBKB 020110Z AUTO 00000KT 10SM FEW042 27/25 A2996 260 87 1800 000/00 RMK AO2 TSE05 T02720250
53988KBKB BKB20190801191512408/01/19 19:15:31  5-MIN KBKB 020115Z AUTO 00000KT 10SM FEW031 SCT042 27/25 A2996 260 87 1800 000/00 RMK AO2 TSE05 T02720250
53988KBKB BKB20190801192012408/01/19 19:20:31  5-MIN KBKB 020120Z AUTO 00000KT 10SM SCT031 BKN042 27/25 A2996 260 87 1800 000/00 RMK AO2 TSE05 T02720250
53988KBKB BKB20190801192512408/01/19 19:25:31  5-MIN KBKB 020125Z AUTO 00000KT 10SM BKN031 BKN042 27/25 A2996 260 87 1800 000/00 RMK AO2 TSE05 T02720250
53988KBKB BKB20190801193015708/01/19 19:30:31  5-MIN KBKB 020130Z AUTO 00000KT 10SM BKN031 BKN042 28/24 A2997 260 82 1800 000/00 RMK AO2 TSE05 T02780244 87 1600 000/00 RMK AO2 T02610239
53988KBKB BKB20190801202010808/01/19 20:20:31  5-MIN KBKB 020220Z AUTO 00000KT 10SM CLR 26/24 A2998 250 87 1600 000/00 RMK AO2 T02610239
53988KBKB BKB20190801202511108/01/19 20:25:31  5-MIN KBKB 020225Z AUTO 00000KT 10SM FEW050 26/24 A2998 240 90 1600 000/00 RMK AO2 T02560239
53988KBKB BKB20190801203011108/01/19 20:30:31  5-MIN KBKB 020230Z AUTO 00000KT 10SM FEW050 26/24 A2998 240 90 1600 000/00 RMK AO2 T02560239
53988KBKB BKB20190801203510808/01/19 20:35:31  5-MIN KBKB 020235Z AUTO 00000KT 10SM CLR 26/24 A2998 240 90 1600 000/00 RMK AO2 T02560239
53988KBKB BKB20190801203516208/01/19 20:35:31  5-MIN KBKB 020235Z AUTO 00000KT 10SM CLR 26/24 A2998 240 90 1600 000/00 RMK AO2 T02560239M CLR 26/24 A2998 250 87 1600 000/00 RMK AO2 T02610239
53988KBKB BKB20190801204011108/01/19 20:40:31  5-MIN KBKB 020240Z AUTO 00000KT 10SM FEW043 26/24 A2998 240 90 1600 000/00 RMK AO2 T02560239
53988KBKB BKB20190801204510808/01/19 20:45:31  5-MIN KBKB 020245Z AUTO 00000KT 10SM CLR 26/24 A2999 240 90 1600 000/00 RMK AO2 T02560239
53988KBKB BKB20190801204516408/01/19 20:45:31  5-MIN KBKB 020245Z AUTO 00000KT 10SM CLR 26/24 A2999 240 90 1600 000/00 RMK AO2 T0KT 10SM FEW050 26/24 A2998 240 90 1600 000/00 RMK AO2 T02560239
53988KBKB BKB20190801205012108/01/19 20:50:31  5-MIN KBKB 020250Z AUTO 00000KT 10SM CLR 26/24 A2999 230 90 1500 000/00 RMK AO2 SLP181 T02560239 57009
53988KBKB BKB20190801205510808/01/19 20:55:31  5-MIN KBKB 020255Z AUTO 00000KT 10SM CLR 26/24 A2999 230 90 1500 000/00 RMK AO2 T02560239
53988KBKB BKB20190801210011108/01/19 21:00:31  5-MIN KBKB 020300Z AUTO 00000KT 10SM FEW039 26/24 A3000 230 90 1500 000/00 RMK AO2 T02560239
53988KBKB BKB20190801210511108/01/19 21:05:31  5-MIN KBKB 020305Z AUTO 00000KT 10SM FEW036 25/23 A3000 230 90 1500 000/00 RMK AO2 T02500233
53988KBKB BKB20190801211011108/01/19 21:10:31  5-MIN KBKB 020310Z AUTO 00000KT 10SM FEW036 25/23 A3000 230 90 1500 000/00 RMK AO2 T02500233
53988KBKB BKB20190801211511108/01/19 21:15:31  5-MIN KBKB 020315Z AUTO 00000KT 10SM FEW036 25/23 A3000 230 90 1500 000/00 RMK AO2 T02500233
53988KBKB BKB20190801212011108/01/19 21:20:31  5-MIN KBKB 020320Z AUTO 00000KT 10SM FEW036 25/23 A3000 230 90 1500 000/00 RMK AO2 T02500233
53988KBKB BKB20190801212511108/01/19 21:25:31  5-MIN KBKB 020325Z AUTO 00000KT 10SM FEW036 25/23 A3000 230 90 1500 000/00 RMK AO2 T02500233
53988KBKB BKB20190801213011108/01/19 21:30:31  5-MIN KBKB 020330Z AUTO 00000KT 10SM FEW036 25/23 A3000 220 90 1500 000/00 RMK AO2 T02500233
53988KBKB BKB20190801213511108/01/19 21:35:31  5-MIN KBKB 020335Z AUTO 00000KT 10SM FEW038 25/23 A3000 220 90 1500 000/00 RMK AO2 T02500233
53988KBKB BKB20190801214011108/01/19 21:40:31  5-MIN KBKB 020340Z AUTO 00000KT 10SM FEW038 25/23 A3000 220 90 1500 000/00 RMK AO2 T02500233
53988KBKB BKB20190801214511108/01/19 21:45:31  5-MIN KBKB 020345Z AUTO 00000KT 10SM FEW036 25/23 A3000 220 90 1500 000/00 RMK AO2 T02500233
53988KBKB BKB20190801215011808/01/19 21:50:31  5-MIN KBKB 020350Z AUTO 00000KT 10SM FEW036 25/23 A3000 230 90 1500 000/00 RMK AO2 SLP184 T02500233
53988KBKB BKB20190801215511108/01/19 21:55:31  5-MIN KBKB 020355Z AUTO 00000KT 10SM FEW036 25/23 A3000 230 90 1500 000/00 RMK AO2 T02500233
53988KBKB BKB20190801220011108/01/19 22:00:31  5-MIN KBKB 020400Z AUTO 00000KT 10SM FEW034 25/24 A3000 230 93 1500 000/00 RMK AO2 T02500239
53988KBKB BKB20190801220511108/01/19 22:05:31  5-MIN KBKB 020405Z AUTO 00000KT 10SM FEW034 25/24 A3000 230 93 1500 000/00 RMK AO2 T02500239
53988KBKB BKB20190801221011108/01/19 22:10:31  5-MIN KBKB 020410Z AUTO 00000KT 10SM FEW034 26/23 A3000 230 87 1500 000/00 RMK AO2 T02560233
53988KBKB BKB20190801221511108/01/19 22:15:31  5-MIN KBKB 020415Z AUTO 00000KT 10SM FEW034 25/23 A3000 230 90 1500 000/00 RMK AO2 T02500233
53988KBKB BKB20190801222011108/01/19 22:20:31  5-MIN KBKB 020420Z AUTO 00000KT 10SM FEW034 25/23 A3000 230 90 1500 000/00 RMK AO2 T02500233
53988KBKB BKB20190801222510708/01/19 22:25:31  5-MIN KBKB 020425Z AUTO 00000KT 9SM CLR 25/24 A3000 230 93 1500 000/00 RMK AO2 T02500239
53988KBKB BKB20190801223010708/01/19 22:30:31  5-MIN KBKB 020430Z AUTO 00000KT 8SM CLR 25/24 A3000 230 93 1500 000/00 RMK AO2 T02500239
53988KBKB BKB20190801223510708/01/19 22:35:31  5-MIN KBKB 020435Z AUTO 00000KT 7SM CLR 25/24 A3000 230 93 1500 000/00 RMK AO2 T02500239
53988KBKB BKB20190801224011008/01/19 22:40:31  5-MIN KBKB 020440Z AUTO 00000KT 6SM BR CLR 25/24 A3000 230 93 1500 000/00 RMK AO2 T02500239
53988KBKB BKB20190801224511008/01/19 22:45:31  5-MIN KBKB 020445Z AUTO 00000KT 6SM BR CLR 24/24 A3000 230 97 1400 000/00 RMK AO2 T02440239
53988KBKB BKB20190801225011308/01/19 22:50:31  5-MIN KBKB 020450Z AUTO 00000KT 7SM CLR 24/23 A3000 230 93 1400 000/00 RMK AO2 SLP183 T0244023
53988KBKB BKB20190801230511008/01/19 23:05:31  5-MIN KBKB 020505Z AUTO 00000KT 6SM BR CLR 24/23 A3000 230 93 1400 000/00 RMK AO2 T02440233
53988KBKB BKB20190801231011008/01/19 23:10:31  5-MIN KBKB 020510Z AUTO 00000KT 5SM BR CLR 24/23 A2999 230 93 1400 000/00 RMK AO2 T02440233
53988KBKB BKB20190801231511008/01/19 23:15:31  5-MIN KBKB 020515Z AUTO 00000KT 6SM BR CLR 24/23 A2999 230 93 1400 000/00 RMK AO2 T02440233
53988KBKB BKB20190801232011008/01/19 23:20:31  5-MIN KBKB 020520Z AUTO 00000KT 6SM BR CLR 24/23 A2999 230 93 1400 000/00 RMK AO2 T02440233
53988KBKB BKB20190801232511008/01/19 23:25:31  5-MIN KBKB 020525Z AUTO 00000KT 5SM BR CLR 24/23 A2999 240 93 1400 000/00 RMK AO2 T02440233
53988KBKB BKB20190801233011008/01/19 23:30:31  5-MIN KBKB 020530Z AUTO 00000KT 5SM BR CLR 24/23 A2999 240 93 1400 000/00 RMK AO2 T02440233
53988KBKB BKB20190801233511008/01/19 23:35:31  5-MIN KBKB 020535Z AUTO 00000KT 5SM BR CLR 24/23 A2999 240 93 1400 000/00 RMK AO2 T02440233
53988KBKB BKB20190801234011008/01/19 23:40:31  5-MIN KBKB 020540Z AUTO 00000KT 5SM BR CLR 24/23 A2998 240 93 1400 000/00 RMK AO2 T02440233
53988KBKB BKB20190801234511008/01/19 23:45:31  5-MIN KBKB 020545Z AUTO 00000KT 4SM BR CLR 24/23 A2999 240 93 1400 000/00 RMK AO2 T02440233
53988KBKB BKB20190801235010408/01/19 23:50:31  5-MIN KBKB 020550Z AUTO 00000KT 2 1/2SM BR CLR 24/23 A2999 240 93 1400 000/00 RMK AO2
53988KBKB BKB20190801235511408/01/19 23:55:31  5-MIN KBKB 020555Z AUTO 00000KT 2 1/2SM BR CLR 24/23 A2999 240 97 1400 000/00 RMK AO2 T02390233
53988KBKB BKB20190802000011008/02/19 00:00:31  5-MIN KBKB 020600Z AUTO 00000KT 4SM BR CLR 24/23 A2999 240 97 1400 000/00 RMK AO2 T02390233
53988KBKB BKB20190802000511008/02/19 00:05:31  5-MIN KBKB 020605Z AUTO 00000KT 4SM BR CLR 24/23 A2999 240 97 1400 000/00 RMK AO2 T02390233
53988KBKB BKB20190802001011008/02/19 00:10:31  5-MIN KBKB 020610Z AUTO 00000KT 4SM BR CLR 24/23 A2998 240 97 1400 000/00 RMK AO2 T02390233
53988KBKB BKB20190802001511008/02/19 00:15:31  5-MIN KBKB 020615Z AUTO 00000KT 5SM BR CLR 24/23 A2999 240 93 1400 000/00 RMK AO2 T02390228
53988KBKB BKB20190802002011008/02/19 00:20:31  5-MIN KBKB 020620Z AUTO 00000KT 6SM BR CLR 24/23 A2999 240 93 1400 000/00 RMK AO2 T02390228
53988KBKB BKB20190802002511008/02/19 00:25:31  5-MIN KBKB 020625Z AUTO 00000KT 5SM BR CLR 24/23 A2999 240 93 1400 000/00 RMK AO2 T02390228
53988KBKB BKB20190802003011008/02/19 00:30:31  5-MIN KBKB 020630Z AUTO 00000KT 5SM BR CLR 24/23 A2999 240 93 1400 000/00 RMK AO2 T02390228
53988KBKB BKB20190802003511008/02/19 00:35:31  5-MIN KBKB 020635Z AUTO 00000KT 4SM BR CLR 23/23 A2999 240 97 1300 000/00 RMK AO2 T02330228
53988KBKB BKB20190802004011008/02/19 00:40:31  5-MIN KBKB 020640Z AUTO 00000KT 4SM BR CLR 23/23 A2999 240 97 1300 000/00 RMK AO2 T02330228
53988KBKB BKB20190802004511008/02/19 00:45:31  5-MIN KBKB 020645Z AUTO 00000KT 5SM BR CLR 23/23 A2999 230 97 1300 000/00 RMK AO2 T02330228
53988KBKB BKB20190802005011708/02/19 00:50:31  5-MIN KBKB 020650Z AUTO 00000KT 5SM BR CLR 23/22 A2999 230 93 1300 000/00 RMK AO2 SLP180 T02330222
53988KBKB BKB20190802005511008/02/19 00:55:31  5-MIN KBKB 020655Z AUTO 00000KT 5SM BR CLR 23/22 A2999 240 93 1300 000/00 RMK AO2 T02330222
53988KBKB BKB20190802010011008/02/19 01:00:31  5-MIN KBKB 020700Z AUTO 00000KT 5SM BR CLR 23/22 A2999 240 93 1300 000/00 RMK AO2 T02330222
53988KBKB BKB20190802010511008/02/19 01:05:31  5-MIN KBKB 020705Z AUTO 00000KT 5SM BR CLR 23/22 A2999 240 93 1300 000/00 RMK AO2 T02330222
53988KBKB BKB20190802011011008/02/19 01:10:31  5-MIN KBKB 020710Z AUTO 00000KT 5SM BR CLR 23/22 A2998 240 93 1300 000/00 RMK AO2 T02330222
53988KBKB BKB20190802011511008/02/19 01:15:31  5-MIN KBKB 020715Z AUTO 00000KT 6SM BR CLR 23/22 A2998 240 93 1300 000/00 RMK AO2 T02330222
53988KBKB BKB20190802012011008/02/19 01:20:31  5-MIN KBKB 020720Z AUTO 00000KT 5SM BR CLR 23/22 A2998 240 97 1200 000/00 RMK AO2 T02280222
53988KBKB BKB20190802012511008/02/19 01:25:31  5-MIN KBKB 020725Z AUTO 00000KT 4SM BR CLR 23/22 A2998 240 97 1200 000/00 RMK AO2 T02280222
53988KBKB BKB20190802013011008/02/19 01:30:31  5-MIN KBKB 020730Z AUTO 00000KT 4SM BR CLR 23/22 A2998 240 97 1200 000/00 RMK AO2 T02280222
53988KBKB BKB20190802013511008/02/19 01:35:31  5-MIN KBKB 020735Z AUTO 00000KT 5SM BR CLR 23/22 A2998 240 97 1200 000/00 RMK AO2 T02280222
53988KBKB BKB20190802014011008/02/19 01:40:31  5-MIN KBKB 020740Z AUTO 00000KT 5SM BR CLR 23/22 A2998 240 97 1200 000/00 RMK AO2 T02280222
53988KBKB BKB20190802014511008/02/19 01:45:31  5-MIN KBKB 020745Z AUTO 00000KT 4SM BR CLR 23/22 A2998 250 93 1200 000/00 RMK AO2 T02280217
53988KBKB BKB20190802015011708/02/19 01:50:31  5-MIN KBKB 020750Z AUTO 00000KT 4SM BR CLR 23/22 A2998 240 93 1200 000/00 RMK AO2 SLP177 T02280217
53988KBKB BKB20190802015511008/02/19 01:55:31  5-MIN KBKB 020755Z AUTO 00000KT 4SM BR CLR 23/22 A2998 240 93 1200 000/00 RMK AO2 T02280217
53988KBKB BKB20190802020011008/02/19 02:00:31  5-MIN KBKB 020800Z AUTO 00000KT 4SM BR CLR 23/22 A2998 240 93 1200 000/00 RMK AO2 T02280217
53988KBKB BKB20190802020511008/02/19 02:05:31  5-MIN KBKB 020805Z AUTO 00000KT 4SM BR CLR 23/22 A2998 240 93 1200 000/00 RMK AO2 T02280217
53988KBKB BKB20190802021011008/02/19 02:10:31  5-MIN KBKB 020810Z AUTO 00000KT 4SM BR CLR 23/22 A2998 250 93 1200 000/00 RMK AO2 T02280217
53988KBKB BKB20190802021511008/02/19 02:15:31  5-MIN KBKB 020815Z AUTO 00000KT 4SM BR CLR 23/22 A2997 250 93 1300 000/00 RMK AO2 T02280217
53988KBKB BKB20190802022011008/02/19 02:20:31  5-MIN KBKB 020820Z AUTO 00000KT 4SM BR CLR 23/22 A2997 250 93 1300 000/00 RMK AO2 T02280217
53988KBKB BKB20190802022511008/02/19 02:25:31  5-MIN KBKB 020825Z AUTO 00000KT 4SM BR CLR 22/22 A2997 250 97 1200 000/00 RMK AO2 T02220217
53988KBKB BKB20190802023011008/02/19 02:30:31  5-MIN KBKB 020830Z AUTO 00000KT 4SM BR CLR 22/22 A2997 250 97 1200 000/00 RMK AO2 T02220217
53988KBKB BKB20190802023511008/02/19 02:35:31  5-MIN KBKB 020835Z AUTO 00000KT 4SM BR CLR 22/22 A2997 250 97 1200 000/00 RMK AO2 T02220217
53988KBKB BKB20190802024011008/02/19 02:40:31  5-MIN KBKB 020840Z AUTO 00000KT 4SM BR CLR 22/22 A2997 250 97 1200 000/00 RMK AO2 T02220217
53988KBKB BKB20190802024511008/02/19 02:45:31  5-MIN KBKB 020845Z AUTO 00000KT 4SM BR CLR 22/22 A2998 250 97 1200 000/00 RMK AO2 T02220217
53988KBKB BKB20190802025012308/02/19 02:50:31  5-MIN KBKB 020850Z AUTO 00000KT 5SM BR CLR 22/22 A2998 250 97 1200 000/00 RMK AO2 SLP176 T02220217 58002
53988KBKB BKB20190802025511008/02/19 02:55:31  5-MIN KBKB 020855Z AUTO 00000KT 5SM BR CLR 22/22 A2998 250 97 1200 000/00 RMK AO2 T02220217
53988KBKB BKB20190802030011008/02/19 03:00:31  5-MIN KBKB 020900Z AUTO 00000KT 5SM BR CLR 22/22 A2998 240 97 1200 000/00 RMK AO2 T02220217
53988KBKB BKB20190802030511008/02/19 03:05:31  5-MIN KBKB 020905Z AUTO 00000KT 5SM BR CLR 22/22 A2998 240 97 1200 000/00 RMK AO2 T02220217
53988KBKB BKB20190802031011008/02/19 03:10:31  5-MIN KBKB 020910Z AUTO 00000KT 5SM BR CLR 22/22 A2998 240 97 1200 000/00 RMK AO2 T02220217
53988KBKB BKB20190802031511008/02/19 03:15:31  5-MIN KBKB 020915Z AUTO 00000KT 5SM BR CLR 22/22 A2998 240 97 1200 000/00 RMK AO2 T02220217
53988KBKB BKB20190802032011008/02/19 03:20:31  5-MIN KBKB 020920Z AUTO 00000KT 5SM BR CLR 22/21 A2998 250 93 1200 000/00 RMK AO2 T02220211
53988KBKB BKB20190802032511008/02/19 03:25:31  5-MIN KBKB 020925Z AUTO 00000KT 4SM BR CLR 22/21 A2998 250 93 1200 000/00 RMK AO2 T02220211
53988KBKB BKB20190802033011008/02/19 03:30:31  5-MIN KBKB 020930Z AUTO 00000KT 4SM BR CLR 22/21 A2998 250 93 1200 000/00 RMK AO2 T02220211
53988KBKB BKB20190802033511008/02/19 03:35:31  5-MIN KBKB 020935Z AUTO 00000KT 4SM BR CLR 22/21 A2998 250 93 1200 000/00 RMK AO2 T02220211
53988KBKB BKB20190802034011008/02/19 03:40:31  5-MIN KBKB 020940Z AUTO 00000KT 3SM BR CLR 22/21 A2998 250 93 1200 000/00 RMK AO2 T02220211
53988KBKB BKB20190802034511008/02/19 03:45:31  5-MIN KBKB 020945Z AUTO 00000KT 3SM BR CLR 22/21 A2997 250 93 1200 000/00 RMK AO2 T02220211
53988KBKB BKB20190802035011708/02/19 03:50:31  5-MIN KBKB 020950Z AUTO 00000KT 4SM BR CLR 22/21 A2997 250 93 1200 000/00 RMK AO2 SLP175 T02220211
53988KBKB BKB20190802035511008/02/19 03:55:31  5-MIN KBKB 020955Z AUTO 00000KT 3SM BR CLR 22/21 A2997 250 93 1200 000/00 RMK AO2 T02220211
53988KBKB BKB20190802040011008/02/19 04:00:31  5-MIN KBKB 021000Z AUTO 00000KT 3SM BR CLR 22/21 A2997 250 97 1100 000/00 RMK AO2 T02170211
53988KBKB BKB20190802040511008/02/19 04:05:31  5-MIN KBKB 021005Z AUTO 00000KT 3SM BR CLR 22/21 A2998 250 97 1100 000/00 RMK AO2 T02170211
53988KBKB BKB20190802041011008/02/19 04:10:31  5-MIN KBKB 021010Z AUTO 00000KT 3SM BR CLR 22/21 A2998 250 97 1100 000/00 RMK AO2 T02170211
53988KBKB BKB20190802041511008/02/19 04:15:31  5-MIN KBKB 021015Z AUTO 00000KT 3SM BR CLR 22/21 A2998 250 97 1100 000/00 RMK AO2 T02170211
53988KBKB BKB20190802042011008/02/19 04:20:31  5-MIN KBKB 021020Z AUTO 00000KT 4SM BR CLR 22/21 A2998 250 97 1100 000/00 RMK AO2 T02170211
53988KBKB BKB20190802042511008/02/19 04:25:31  5-MIN KBKB 021025Z AUTO 00000KT 4SM BR CLR 22/21 A2998 240 97 1100 000/00 RMK AO2 T02170211
53988KBKB BKB20190802043011008/02/19 04:30:31  5-MIN KBKB 021030Z AUTO 00000KT 4SM BR CLR 22/21 A2998 240 97 1100 000/00 RMK AO2 T02170211
53988KBKB BKB20190802043511008/02/19 04:35:31  5-MIN KBKB 021035Z AUTO 00000KT 4SM BR CLR 22/21 A2998 250 97 1100 000/00 RMK AO2 T02170211
53988KBKB BKB20190802044011008/02/19 04:40:31  5-MIN KBKB 021040Z AUTO 00000KT 3SM BR CLR 22/21 A2997 250 97 1100 000/00 RMK AO2 T02170211
53988KBKB BKB20190802044511008/02/19 04:45:31  5-MIN KBKB 021045Z AUTO 00000KT 3SM BR CLR 22/21 A2997 250 93 1100 000/00 RMK AO2 T02170206
53988KBKB BKB20190802045011708/02/19 04:50:31  5-MIN KBKB 021050Z AUTO 00000KT 4SM BR CLR 22/21 A2997 250 93 1100 000/00 RMK AO2 SLP175 T02170206
53988KBKB BKB20190802045511008/02/19 04:55:31  5-MIN KBKB 021055Z AUTO 00000KT 4SM BR CLR 22/21 A2997 250 93 1100 000/00 RMK AO2 T02170206
53988KBKB BKB20190802050011008/02/19 05:00:31  5-MIN KBKB 021100Z AUTO 00000KT 4SM BR CLR 22/21 A2997 250 93 1100 000/00 RMK AO2 T02170206
53988KBKB BKB20190802050511008/02/19 05:05:31  5-MIN KBKB 021105Z AUTO 00000KT 4SM BR CLR 22/21 A2997 250 93 1100 000/00 RMK AO2 T02170206
53988KBKB BKB20190802051011008/02/19 05:10:31  5-MIN KBKB 021110Z AUTO 00000KT 4SM BR CLR 22/21 A2997 250 93 1100 000/00 RMK AO2 T02170206
53988KBKB BKB20190802051511008/02/19 05:15:31  5-MIN KBKB 021115Z AUTO 00000KT 4SM BR CLR 22/21 A2997 250 93 1100 000/00 RMK AO2 T02170206
53988KBKB BKB20190802052011008/02/19 05:20:31  5-MIN KBKB 021120Z AUTO 00000KT 4SM BR CLR 22/21 A2997 250 93 1100 000/00 RMK AO2 T02170206
53988KBKB BKB20190802052511008/02/19 05:25:31  5-MIN KBKB 021125Z AUTO 00000KT 4SM BR CLR 22/21 A2998 250 93 1100 000/00 RMK AO2 T02170206
53988KBKB BKB20190802053011008/02/19 05:30:31  5-MIN KBKB 021130Z AUTO 00000KT 3SM BR CLR 22/21 A2998 250 93 1100 000/00 RMK AO2 T02170206
53988KBKB BKB20190802053511408/02/19 05:35:31  5-MIN KBKB 021135Z AUTO 00000KT 2 1/2SM BR CLR 22/21 A2998 250 93 1100 000/00 RMK AO2 T02170206
53988KBKB BKB20190802054011408/02/19 05:40:31  5-MIN KBKB 021140Z AUTO 00000KT 2 1/2SM BR CLR 22/21 A2998 250 93 1100 000/00 RMK AO2 T02170206
53988KBKB BKB20190802054511408/02/19 05:45:31  5-MIN KBKB 021145Z AUTO 00000KT 2 1/2SM BR CLR 22/21 A2998 250 93 1100 000/00 RMK AO2 T02170206
53988KBKB BKB20190802055013908/02/19 05:50:31  5-MIN KBKB 021150Z AUTO 00000KT 2 1/2SM BR CLR 22/21 A2998 250 93 1100 000/00 RMK AO2 SLP176 T02170206 10239 20217 58003
53988KBKB BKB20190802055511408/02/19 05:55:31  5-MIN KBKB 021155Z AUTO 00000KT 2 1/2SM BR CLR 22/21 A2998 250 93 1100 000/00 RMK AO2 T02170206
53988KBKB BKB20190802060011008/02/19 06:00:31  5-MIN KBKB 021200Z AUTO 00000KT 3SM BR CLR 22/21 A2998 250 93 1100 000/00 RMK AO2 T02170206
53988KBKB BKB20190802060511008/02/19 06:05:31  5-MIN KBKB 021205Z AUTO 00000KT 3SM BR CLR 22/21 A2998 250 93 1100 000/00 RMK AO2 T02170206
53988KBKB BKB20190802061011008/02/19 06:10:31  5-MIN KBKB 021210Z AUTO 00000KT 3SM BR CLR 22/21 A2998 240 97 1100 000/00 RMK AO2 T02170211
53988KBKB BKB20190802061511008/02/19 06:15:31  5-MIN KBKB 021215Z AUTO 00000KT 4SM BR CLR 22/21 A2998 240 97 1100 000/00 RMK AO2 T02170211
53988KBKB BKB20190802062015408/02/19 06:20:31  5-MIN KBKB 021220Z AUTO 00000KT 4S9 07:30:31  5-MIN KBKB 021330Z AUTO 00000KT 10SM CLR 27/23 A2999 230 82 1700 000/00 RMK AO2 T02670233
53988KBKB BKB20190802071510808/02/19 07:15:31  5-MIN KBKB 021315Z AUTO 00000KT 10SM CLR 26/23 A2999 230 84 1500 000/00 RMK AO2 T02560228
53988KBKB BKB20190802072010808/02/19 07:20:31  5-MIN KBKB 021320Z AUTO 00000KT 10SM CLR 26/23 A2999 230 84 1600 000/00 RMK AO2 T02610233
53988KBKB BKB20190802072510808/02/19 07:25:31  5-MIN KBKB 021325Z AUTO 00000KT 10SM CLR 27/23 A2999 230 82 1700 000/00 RMK AO2 T02670233
53988KBKB BKB20190802073010808/02/19 07:30:31  5-MIN KBKB 021330Z AUTO 00000KT 10SM CLR 27/23 A2999 230 82 1700 000/00 RMK AO2 T02670233
53988KBKB BKB20190802073506208/02/19 07:35:31  5-MIN KBKB 021335Z AUTO 00000KTO2 T02560233
53988KBKB BKB20190802073510808/02/19 07:35:31  5-MIN KBKB 021335Z AUTO 00000KT 10SM CLR 27/23 A2999 230 82 1700 000/00 RMK AO2 T02670233
53988KBKB BKB20190802074010808/02/19 07:40:31  5-MIN KBKB 021340Z AUTO 00000KT 10SM CLR 27/23 A2999 230 82 1700 000/00 RMK AO2 T02670233
53988KBKB BKB20190802074510808/02/19 07:45:31  5-MIN KBKB 021345Z AUTO VRB03KT 10SM CLR 27/23 A2999 230 79 1700 VRB/03 RMK AO2 T02720233
53988KBKB BKB20190802074517208/02/19 07:45:31  5-MIN KBKB 021345Z AUTO VRB03KT 10SM CLR 27/238/02/19 07:25:31  5-MIN KBKB 021325Z AUTO 00000KT 10SM CLR 27/23 A2999 230 82 1700 000/00 RMK AO2 T02670233
53988KBKB BKB20190802075011508/02/19 07:50:31  5-MIN KBKB 021350Z AUTO 00000KT 10SM CLR 27/23 A3000 230 79 1700 000/00 RMK AO2 SLP182 T02720233
53988KBKB BKB20190802075505508/02/19 07:55:31  5-MIN KBKB 021355Z AUTO 00000KT 10SM
53988KBKB BKB20190802075510808/02/19 07:55:31  5-MIN KBKB 021355Z AUTO 00000KT 10SM CLR 28/23 A2999 230 76 1800 000/00 RMK AO2 T02780233
53988KBKB BKB20190802080010808/02/19 08:00:31  5-MIN KBKB 021400Z AUTO 00000KT 10SM CLR 28/23 A2999 230 76 1800 000/00 RMK AO2 T02780233
53988KBKB BKB20190802080510808/02/19 08:05:31  5-MIN KBKB 021405Z AUTO VRB04KT 10SM CLR 28/23 A2999 230 76 1800 VRB/04 RMK AO2 T02780233
53988KBKB BKB20190802081010808/02/19 08:10:31  5-MIN KBKB 021410Z AUTO VRB04KT 10SM CLR 28/23 A2999 230 76 1800 VRB/04 RMK AO2 T02780233
53988KBKB BKB20190802081510808/02/19 08:15:31  5-MIN KBKB 021415Z AUTO 00000KT 10SM CLR 28/23 A2999 230 74 1800 000/00 RMK AO2 T02780228
53988KBKB BKB20190802082010808/02/19 08:20:31  5-MIN KBKB 021420Z AUTO 01004KT 10SM CLR 28/23 A2999 230 71 1900 360/04 RMK AO2 T02830228
53988KBKB BKB20190802082511108/02/19 08:25:31  5-MIN KBKB 021425Z AUTO 00000KT 10SM FEW090 28/23 A2999 230 71 1900 000/00 RMK AO2 T02830228
53988KBKB BKB20190802083011108/02/19 08:30:31  5-MIN KBKB 021430Z AUTO 00000KT 10SM FEW090 28/23 A2999 230 74 1900 000/00 RMK AO2 T02830233
53988KBKB BKB20190802083511108/02/19 08:35:31  5-MIN KBKB 021435Z AUTO 00000KT 10SM FEW090 28/23 A2999 230 71 1900 000/00 RMK AO2 T02830228
53988KBKB BKB20190802084011108/02/19 08:40:31  5-MIN KBKB 021440Z AUTO 05004KT 10SM FEW090 29/23 A2999 230 69 1900 050/04 RMK AO2 T02890228
53988KBKB BKB20190802084511108/02/19 08:45:31  5-MIN KBKB 021445Z AUTO 00000KT 10SM FEW090 29/23 A3000 230 71 1900 000/00 RMK AO2 T02890233
53988KBKB BKB20190802085012408/02/19 08:50:31  5-MIN KBKB 021450Z AUTO VRB04KT 10SM FEW090 29/24 A3000 230 71 2000 VRB/04 RMK AO2 SLP183 T02940239 55000
53988KBKB BKB20190802085511108/02/19 08:55:31  5-MIN KBKB 021455Z AUTO VRB03KT 10SM FEW020 28/23 A3000 230 71 1900 VRB/03 RMK AO2 T02830228
53988KBKB BKB20190802090011108/02/19 09:00:31  5-MIN KBKB 021500Z AUTO 00000KT 10SM FEW020 29/23 A3000 230 71 1900 000/00 RMK AO2 T02890233
53988KBKB BKB20190802090511108/02/19 09:05:31  5-MIN KBKB 021505Z AUTO VRB03KT 10SM FEW019 29/23 A2999 230 71 1900 VRB/03 RMK AO2 T02890233
53988KBKB BKB20190802091011108/02/19 09:10:31  5-MIN KBKB 021510Z AUTO 00000KT 10SM SCT019 29/23 A3000 230 69 2000 000/00 RMK AO2 T02940233
53988KBKB BKB20190802091511108/02/19 09:15:31  5-MIN KBKB 021515Z AUTO VRB03KT 10SM FEW021 29/23 A3000 230 67 2000 VRB/03 RMK AO2 T02940228
53988KBKB BKB20190802092011108/02/19 09:20:31  5-MIN KBKB 021520Z AUTO VRB03KT 10SM FEW021 30/23 A3000 230 67 2000 VRB/03 RMK AO2 T03000233
53988KBKB BKB20190802092511108/02/19 09:25:31  5-MIN KBKB 021525Z AUTO 00000KT 10SM SCT021 29/23 A2999 230 67 2000 000/00 RMK AO2 T02940228
53988KBKB BKB20190802093011608/02/19 09:30:31  5-MIN KBKB 021530Z AUTO 00000KT 10SM SCT021 30/23 A2999 230 67 2000 000/00 B/04 RMK AO2 T03170222
53988KBKB BKB20190802100510808/02/19 10:05:31  5-MIN KBKB 021605Z AUTO 00000KT 10SM CLR 31/22 A2999 230 58 2200 000/00 RMK AO2 T03110222
53988KBKB BKB20190802101010808/02/19 10:10:31  5-MIN KBKB 021610Z AUTO VRB03KT 10SM CLR 32/23 A2999 230 58 2200 VRB/03 RMK AO2 T03170228
53988KBKB BKB20190802101510808/02/19 10:15:31  5-MIN KBKB 021615Z AUTO VRB03KT 10SM CLR 31/23 A2999 230 60 2200 VRB/03 RMK AO2 T03110228
53988KBKB BKB20190802102011108/02/19 10:20:31  5-MIN KBKB 021620Z AUTO 00000KT 10SM FEW032 31/22 A2999 230 58 2200 000/00 RMK AO2 T03110222
53988KBKB BKB20190802102511108/02/19 10:25:31  5-MIN KBKB 021625Z AUTO VRB03KT 10SM FEW032 32/23 A2999 230 58 2200 VRB/03 RMK AO2 T03170228
53988KBKB BKB20190802103011108/02/19 10:30:31  5-MIN KBKB 021630Z AUTO VRB04KT 10SM FEW032 31/22 A2999 230 56 2200 VRB/04 RMK AO2 T03110217
53988KBKB BKB20190802103511108/02/19 10:35:31  5-MIN KBKB 021635Z AUTO VRB03KT 10SM FEW032 31/22 A2999 240 56 2200 VRB/03 RMK AO2 T03110217
53988KBKB BKB20190802104011108/02/19 10:40:31  5-MIN KBKB 021640Z AUTO VRB03KT 10SM FEW032 32/22 A2999 240 56 2200 VRB/03 RMK AO2 T03170222
53988KBKB BKB20190802104511108/02/19 10:45:31  5-MIN KBKB 021645Z AUTO 00000KT 10SM FEW032 31/22 A2998 240 58 2200 000/00 RMK AO2 T03110222
53988KBKB BKB20190802105011508/02/19 10:50:31  5-MIN KBKB 021650Z AUTO 00000KT 10SM CLR 31/21 A2998 240 54 2200 000/00 RMK AO2 SLP178 T03110211
53988KBKB BKB20190802105509808/02/19 10:55:31  5-MIN KBKB 021655Z AUTO 10SM CLR 32/22 A2998 240 56 2200 M /M RMK AO2 T03170222
53988KBKB BKB20190802110010808/02/19 11:00:31  5-MIN KBKB 021700Z AUTO VRB04KT 10SM CLR 32/22 A2998 240 56 2200 VRB/04 RMK AO2 T03170222
53988KBKB BKB20190802110510808/02/19 11:05:31  5-MIN KBKB 021705Z AUTO VRB04KT 10SM CLR 32/22 A2998 240 55 2200 VRB/04 RMK AO2 T03170217
53988KBKB BKB20190802111010808/02/19 11:10:31  5-MIN KBKB 021710Z AUTO 00000KT 10SM CLR 32/22 A2998 240 55 2200 000/00 RMK AO2 T03170217
53988KBKB BKB20190802111511108/02/19 11:15:31  5-MIN KBKB 021715Z AUTO VRB03KT 10SM FEW039 32/22 A2998 240 53 2300 VRB/03 RMK AO2 T03220217
53988KBKB BKB20190802112011108/02/19 11:20:31  5-MIN KBKB 021720Z AUTO VRB04KT 10SM FEW040 32/21 A2998 250 51 2300 VRB/04 RMK AO2 T03220211
53988KBKB BKB20190802112511108/02/19 11:25:31  5-MIN KBKB 021725Z AUTO VRB03KT 10SM FEW042 32/22 A2998 240 55 2200 VRB/03 RMK AO2 T03170217
53988KBKB BKB20190802113011108/02/19 11:30:31  5-MIN KBKB 021730Z AUTO VRB04KT 10SM FEW040 32/22 A2998 240 55 2300 VRB/04 RMK AO2 T03220222
53988KBKB BKB20190802113511108/02/19 11:35:31  5-MIN KBKB 021735Z AUTO VRB03KT 10SM FEW040 32/22 A2998 250 55 2300 VRB/03 RMK AO2 T03220222
53988KBKB BKB20190802114011108/02/19 11:40:31  5-MIN KBKB 021740Z AUTO VRB03KT 10SM FEW040 32/22 A2998 250 55 2200 VRB/03 RMK AO2 T03170217
53988KBKB BKB20190802114511108/02/19 11:45:31  5-MIN KBKB 021745Z AUTO VRB05KT 10SM SCT040 32/22 A2997 250 53 2300 VRB/05 RMK AO2 T03220217
53988KBKB BKB20190802115013608/02/19 11:50:31  5-MIN KBKB 021750Z AUTO VRB05KT 10SM SCT040 32/22 A2998 250 55 2300 VRB/05 RMK AO2 SLP175 T03220222 10322 20217 51007
53988KBKB BKB20190802115511108/02/19 11:55:31  5-MIN KBKB 021755Z AUTO 00000KT 10SM SCT041 32/22 A2998 250 53 2300 000/00 RMK AO2 T03220217
53988KBKB BKB20190802120011108/02/19 12:00:31  5-MIN KBKB 021800Z AUTO VRB03KT 10SM SCT041 33/22 A2997 250 51 2400 VRB/03 RMK AO2 T03280217
53988KBKB BKB20190802120511808/02/19 12:05:31  5-MIN KBKB 021805Z AUTO VRB03KT 10SM SCT041 BKN050 33/22 A2997 250 51 2400 VRB/03 RMK AO2 T03280217
53988KBKB BKB20190802121011808/02/19 12:10:31  5-MIN KBKB 021810Z AUTO VRB03KT 10SM SCT042 SCT050 33/21 A2997 250 49 2400 VRB/03 RMK AO2 T03280211
53988KBKB BKB20190802121511108/02/19 12:15:31  5-MIN KBKB 021815Z AUTO VRB03KT 10SM FEW042 32/22 A2997 250 53 2300 VRB/03 RMK AO2 T03220217
53988KBKB BKB20190802122011108/02/19 12:20:31  5-MIN KBKB 021820Z AUTO VRB03KT 10SM SCT044 32/21 A2997 260 51 2300 VRB/03 RMK AO2 T03220211
53988KBKB BKB20190802122511108/02/19 12:25:31  5-MIN KBKB 021825Z AUTO VRB04KT 10SM SCT044 32/22 A2996 260 53 2300 VRB/04 RMK AO2 T03220217
53988KBKB BKB20190802123010108/02/19 12:30:31  5-MIN KBKB 021830Z AUTO 10SM FEW044 33/22 A2996 260 51 2400 M /M RMK AO2 T03280217
53988KBKB BKB20190802123511108/02/19 12:35:31  5-MIN KBKB 021835Z AUTO VRB03KT 10SM FEW044 32/22 A2996 260 53 2300 VRB/03 RMK AO2 T03220217
53988KBKB BKB20190802124011108/02/19 12:40:31  5-MIN KBKB 021840Z AUTO 36005KT 10SM FEW043 32/21 A2996 260 51 2300 360/05 RMK AO2 T03220211
53988KBKB BKB20190802124511108/02/19 12:45:31  5-MIN KBKB 021845Z AUTO 00000KT 10SM FEW043 32/21 A2996 260 51 2300 000/00 RMK AO2 T03220211
53988KBKB BKB20190802125011808/02/19 12:50:31  5-MIN KBKB 021850Z AUTO VRB04KT 10SM SCT045 32/21 A2996 260 53 2300 VRB/04 RMK AO2 SLP169 T03170211
53988KBKB BKB20190802125510108/02/19 12:55:31  5-MIN KBKB 021855Z AUTO 10SM SCT045 31/21 A2996 260 54 2200 M /M RMK AO2 T03110211
53988KBKB BKB20190802130011108/02/19 13:00:31  5-MIN KBKB 021900Z AUTO 04005KT 10SM FEW045 33/22 A2996 260 51 2400 040/05 RMK AO2 T03280217
53988KBKB BKB20190802130511108/02/19 13:05:31  5-MIN KBKB 021905Z AUTO VRB05KT 10SM FEW045 33/21 A2995 270 49 2400 VRB/05 RMK AO2 T03280211
53988KBKB BKB20190802131011108/02/19 13:10:31  5-MIN KBKB 021910Z AUTO VRB05KT 10SM FEW044 33/22 A2995 270 50 2500 VRB/05 RMK AO2 T03330217
53988KBKB BKB20190802131511808/02/19 13:15:31  5-MIN KBKB 021915Z AUTO VRB03KT 10SM FEW044 FEW055 32/21 A2995 270 51 2300 VRB/03 RMK AO2 T03220211
53988KBKB BKB20190802132011108/02/19 13:20:31  5-MIN KBKB 021920Z AUTO VRB03KT 10SM FEW050 32/22 A2995 270 53 2300 VRB/03 RMK AO2 T03220217
53988KBKB BKB20190802132511108/02/19 13:25:31  5-MIN KBKB 021925Z AUTO VRB06KT 10SM FEW080 33/22 A2995 270 51 2400 VRB/06 RMK AO2 T03280217
53988KBKB BKB20190802133011108/02/19 13:30:31  5-MIN KBKB 021930Z AUTO VRB05KT 10SM SCT080 32/22 A2995 270 55 2300 VRB/05 RMK AO2 T03170217
53988KBKB BKB20190802133511108/02/19 13:35:31  5-MIN KBKB 021935Z AUTO VRB03KT 10SM FEW080 32/22 A2994 280 55 2300 VRB/03 RMK AO2 T03170217
53988KBKB BKB20190802134011108/02/19 13:40:31  5-MIN KBKB 021940Z AUTO 00000KT 10SM FEW080 32/22 A2994 280 53 2300 000/00 RMK AO2 T03220217
53988KBKB BKB20190802134511108/02/19 13:45:31  5-MIN KBKB 021945Z AUTO VRB04KT 10SM FEW080 33/21 A2994 280 49 2400 VRB/04 RMK AO2 T03280211
53988KBKB BKB20190802135010808/02/19 13:50:31  5-MIN KBKB 021950Z AUTO 10SM FEW080 32/21 A2994 280 51 2300 M /M RMK AO2 SLP164 T03220211
53988KBKB BKB20190802135510808/02/19 13:55:31  5-MIN KBKB 021955Z AUTO VRB04KT 10SM CLR 32/22 A2994 280 53 2400 VRB/04 RMK AO2 T03220217
53988KBKB BKB20190802140010808/02/19 14:00:31  5-MIN KBKB 022000Z AUTO VRB05KT 10SM CLR 33/21 A2993 290 49 2400 VRB/05 RMK AO2 T03280211
53988KBKB BKB20190802140510808/02/19 14:05:31  5-MIN KBKB 022005Z AUTO VRB05KT 10SM CLR 33/22 A2993 290 50 2500 VRB/05 RMK AO2 T03330217
53988KBKB BKB20190802141010808/02/19 14:10:31  5-MIN KBKB 022010Z AUTO 00000KT 10SM CLR 33/21 A2993 290 48 2500 000/00 RMK AO2 T03330211
53988KBKB BKB20190802141509808/02/19 14:15:31  5-MIN KBKB 022015Z AUTO 10SM CLR 33/21 A2993 290 48 2500 M /M RMK AO2 T03330211
53988KBKB BKB20190802142010808/02/19 14:20:31  5-MIN KBKB 022020Z AUTO VRB05KT 10SM CLR 33/21 A2992 300 49 2400 VRB/05 RMK AO2 T03280211
53988KBKB BKB20190802142510808/02/19 14:25:31  5-MIN KBKB 022025Z AUTO VRB05KT 10SM CLR 33/21 A2992 300 48 2400 VRB/05 RMK AO2 T03280206
53988KBKB BKB20190802143010808/02/19 14:30:31  5-MIN KBKB 022030Z AUTO VRB04KT 10SM CLR 33/21 A2992 300 49 2400 VRB/04 RMK AO2 T03280211
53988KBKB BKB20190802143510808/02/19 14:35:31  5-MIN KBKB 022035Z AUTO VRB06KT 10SM CLR 33/21 A2992 300 49 2400 VRB/06 RMK AO2 T03280211
53988KBKB BKB20190802144010808/02/19 14:40:31  5-MIN KBKB 022040Z AUTO VRB05KT 10SM CLR 33/21 A2992 300 48 2400 VRB/05 RMK AO2 T03280206
53988KBKB BKB20190802144510808/02/19 14:45:31  5-MIN KBKB 022045Z AUTO VRB04KT 10SM CLR 33/21 A2992 300 48 2400 VRB/04 RMK AO2 T03280206
53988KBKB BKB20190802145012108/02/19 14:50:31  5-MIN KBKB 022050Z AUTO VRB05KT 10SM CLR 33/21 A2992 300 49 2400 VRB/05 RMK AO2 SLP156 T03280211 58007
53988KBKB BKB20190802145510808/02/19 14:55:31  5-MIN KBKB 022055Z AUTO VRB03KT 10SM CLR 33/21 A2992 300 49 2400 VRB/03 RMK AO2 T03280211
53988KBKB BKB20190802150010808/02/19 15:00:31  5-MIN KBKB 022100Z AUTO 00000KT 10SM CLR 33/21 A2992 300 49 2400 000/00 RMK AO2 T03280211
53988KBKB BKB20190802150510808/02/19 15:05:31  5-MIN KBKB 022105Z AUTO VRB04KT 10SM CLR 33/21 A2992 300 49 2400 VRB/04 RMK AO2 T03280211
53988KBKB BKB20190802151010808/02/19 15:10:31  5-MIN KBKB 022110Z AUTO VRB04KT 10SM CLR 33/21 A2991 310 49 2400 VRB/04 RMK AO2 T03280211
53988KBKB BKB20190802151510808/02/19 15:15:31  5-MIN KBKB 022115Z AUTO VRB05KT 10SM CLR 33/21 A2991 310 49 2400 VRB/05 RMK AO2 T03280211
53988KBKB BKB20190802152010808/02/19 15:20:31  5-MIN KBKB 022120Z AUTO VRB04KT 10SM CLR 33/21 A2991 310 49 2400 VRB/04 RMK AO2 T03280211
53988KBKB BKB20190802152511108/02/19 15:25:31  5-MIN KBKB 022125Z AUTO VRB05KT 10SM FEW050 33/21 A2991 310 48 2400 VRB/05 RMK AO2 T03280206
53988KBKB BKB20190802153011108/02/19 15:30:31  5-MIN KBKB 022130Z AUTO VRB03KT 10SM FEW050 33/21 A2991 310 48 2400 VRB/03 RMK AO2 T03280206
53988KBKB BKB20190802153510808/02/19 15:35:31  5-MIN KBKB 022135Z AUTO VRB03KT 10SM CLR 33/21 A2991 310 46 2500 VRB/03 RMK AO2 T03330206
53988KBKB BKB20190802154010808/02/19 15:40:31  5-MIN KBKB 022140Z AUTO VRB04KT 10SM CLR 33/21 A2991 310 48 2400 VRB/04 RMK AO2 T03280206
53988KBKB BKB20190802154510808/02/19 15:45:31  5-MIN KBKB 022145Z AUTO 04005KT 10SM CLR 33/21 A2991 310 48 2400 040/05 RMK AO2 T03280206
53988KBKB BKB20190802155011508/02/19 15:50:31  5-MIN KBKB 022150Z AUTO 00000KT 10SM CLR 32/21 A2991 310 49 2400 000/00 RMK AO2 SLP152 T03220206
53988KBKB BKB20190802155510808/02/19 15:55:31  5-MIN KBKB 022155Z AUTO 00000KT 10SM CLR 32/21 A2991 310 49 2400 000/00 RMK AO2 T03220206
53988KBKB BKB20190802160010808/02/19 16:00:31  5-MIN KBKB 022200Z AUTO 00000KT 10SM CLR 33/21 A2990 310 48 2500 000/00 RMK AO2 T03330211
53988KBKB BKB20190802160510808/02/19 16:05:31  5-MIN KBKB 022205Z AUTO VRB03KT 10SM CLR 33/21 A2990 320 49 2500 VRB/03 RMK AO2 T03280211
53988KBKB BKB20190802161010808/02/19 16:10:31  5-MIN KBKB 022210Z AUTO VRB04KT 10SM CLR 33/21 A2990 310 46 2500 VRB/04 RMK AO2 T03330206
53988KBKB BKB20190802161510808/02/19 16:15:31  5-MIN KBKB 022215Z AUTO 00000KT 10SM CLR 32/20 A2990 320 48 2400 000/00 RMK AO2 T03220200
53988KBKB BKB20190802162010808/02/19 16:20:31  5-MIN KBKB 022220Z AUTO 00000KT 10SM CLR 32/21 A2990 310 49 2400 000/00 RMK AO2 T03220206
53988KBKB BKB20190802162510808/02/19 16:25:31  5-MIN KBKB 022225Z AUTO 00000KT 10SM CLR 33/20 A2990 320 46 2500 000/00 RMK AO2 T03280200
53988KBKB BKB20190802163010808/02/19 16:30:31  5-MIN KBKB 022230Z AUTO VRB04KT 10SM CLR 33/20 A2990 310 46 2500 VRB/04 RMK AO2 T03280200
53988KBKB BKB20190802163510808/02/19 16:35:31  5-MIN KBKB 022235Z AUTO VRB03KT 10SM CLR 33/20 A2990 320 46 2500 VRB/03 RMK AO2 T03280200
53988KBKB BKB20190802164010808/02/19 16:40:31  5-MIN KBKB 022240Z AUTO 00000KT 10SM CLR 33/20 A2990 320 46 2500 000/00 RMK AO2 T03280200
53988KBKB BKB20190802164510808/02/19 16:45:31  5-MIN KBKB 022245Z AUTO VRB03KT 10SM CLR 33/21 A2990 320 48 2500 VRB/03 RMK AO2 T03280206
53988KBKB BKB20190802165011508/02/19 16:50:31  5-MIN KBKB 022250Z AUTO VRB03KT 10SM CLR 32/21 A2990 320 49 2400 VRB/03 RMK AO2 SLP150 T03220206
53988KBKB BKB20190802165510808/02/19 16:55:31  5-MIN KBKB 022255Z AUTO 04003KT 10SM CLR 32/21 A2990 320 51 2400 040/03 RMK AO2 T03220211
53988KBKB BKB20190802170010808/02/19 17:00:31  5-MIN KBKB 022300Z AUTO 00000KT 10SM CLR 32/21 A2990 310 51 2400 000/00 RMK AO2 T03220211
53988KBKB BKB20190802170510808/02/19 17:05:31  5-MIN KBKB 022305Z AUTO 00000KT 10SM CLR 31/21 A2990 320 53 2300 000/00 RMK AO2 T03110206
53988KBKB BKB20190802171010808/02/19 17:10:31  5-MIN KBKB 022310Z AUTO 00000KT 10SM CLR 31/21 A2990 310 56 2200 000/00 RMK AO2 T03060211
53988KBKB BKB20190802171510808/02/19 17:15:31  5-MIN KBKB 022315Z AUTO 00000KT 10SM CLR 31/21 A2990 320 54 2300 000/00 RMK AO2 T03110211
53988KBKB BKB20190802172010808/02/19 17:20:31  5-MIN KBKB 022320Z AUTO 00000KT 10SM CLR 31/21 A2990 320 54 2300 000/00 RMK AO2 T03110211
53988KBKB BKB20190802172510808/02/19 17:25:31  5-MIN KBKB 022325Z AUTO 00000KT 10SM CLR 31/21 A2990 320 54 2300 000/00 RMK AO2 T03110211
53988KBKB BKB20190802173010808/02/19 17:30:31  5-MIN KBKB 022330Z AUTO 00000KT 10SM CLR 31/21 A2990 320 54 2300 000/00 RMK AO2 T03110211
53988KBKB BKB20190802173510808/02/19 17:35:31  5-MIN KBKB 022335Z AUTO 00000KT 10SM CLR 31/21 A2990 320 54 2300 000/00 RMK AO2 T03110211
53988KBKB BKB20190802174010808/02/19 17:40:31  5-MIN KBKB 022340Z AUTO 00000KT 10SM CLR 31/21 A2990 310 56 2200 000/00 RMK AO2 T03060211
53988KBKB BKB20190802174510808/02/19 17:45:31  5-MIN KBKB 022345Z AUTO 00000KT 10SM CLR 31/21 A2990 310 56 2200 000/00 RMK AO2 T03060211
53988KBKB BKB20190802175013308/02/19 17:50:31  5-MIN KBKB 022350Z AUTO 00000KT 10SM CLR 31/21 A2990 310 56 2200 000/00 RMK AO2 SLP151 T03060211 10333 20300 57019
53988KBKB BKB20190802175510808/02/19 17:55:31  5-MIN KBKB 022355Z AUTO 00000KT 10SM CLR 30/21 A2990 310 58 2100 000/00 RMK AO2 T03000211
53988KBKB BKB20190802180010808/02/19 18:00:31  5-MIN KBKB 030000Z AUTO 00000KT 10SM CLR 30/21 A2990 320 58 2100 000/00 RMK AO2 T03000211
53988KBKB BKB20190802180510808/02/19 18:05:31  5-MIN KBKB 030005Z AUTO 00000KT 10SM CLR 29/21 A2990 310 60 2100 000/00 RMK AO2 T02940211
53988KBKB BKB20190802181010808/02/19 18:10:31  5-MIN KBKB 030010Z AUTO 00000KT 10SM CLR 29/22 A2990 310 64 2000 000/00 RMK AO2 T02890217
53988KBKB BKB20190802181509908/02/19 18:15:31  5-MIN KBKB 030015Z AUTO 00000KT 10SM CL2992 300 76 1800 000/00 RMK AO2 T02670222
53988KBKB BKB20190802190510808/02/19 19:05:31  5-MIN KBKB 030105Z AUTO 00000KT 10SM CLR 27/22 A2992 300 76 1800 000/00 RMK AO2 T02670222
53988KBKB BKB20190802191010808/02/19 19:10:31  5-MIN KBKB 030110Z AUTO 00000KT 10SM CLR 26/22 A2992 300 79 1700 000/00 RMK AO2 T02610222
53988KBKB BKB20190802191510808/02/19 19:15:31  5-MIN KBKB 030115Z AUTO 00000KT 10SM CLR 26/22 A2992 300 81 1600 000/00 RMK AO2 T02560222
53988KBKB BKB20190802192010808/02/19 19:20:31  5-MIN KBKB 030120Z AUTO 00000KT 10SM CLR 26/22 A2992 300 76 1700 000/00 RMK AO2 T02610217
53988KBKB BKB20190802192510808/02/19 19:25:31  5-MIN KBKB 030125Z AUTO 00000KT 10SM CLR 26/23 A2992 300 84 1600 000/00 RMK AO2 T02560228
53988KBKB BKB20190802192516908/02/19 19:25:31  5-MIN KBKB 030125Z AUTO 00000KT 10SM CLR 26/23 A2992 300 84 1600 000/00 RMK AO2 T025602280KT 10SM CLR 27/22 A2992 300 76 1800 000/00 RMK AO2 T02670222
53988KBKB BKB20190802193010808/02/19 19:30:31  5-MIN KBKB 030130Z AUTO 00000KT 10SM CLR 26/22 A2992 300 81 1600 000/00 RMK AO2 T02560222
53988KBKB BKB20190802193510808/02/19 19:35:31  5-MIN KBKB 030135Z AUTO 00000KT 10SM CLR 26/22 A2992 300 79 1600 000/00 RMK AO2 T02560217
53988KBKB BKB20190802193517008/02/19 19:35:31  5-MIN KBKB 030135Z AUTO 00000KT 10SM CLR 26/22 A2992 300 79 1600 000/00 R030115Z AUTO 00000KT 10SM CLR 26/22 A2992 300 81 1600 000/00 RMK AO2 T02560222
53988KBKB BKB20190802194010808/02/19 19:40:31  5-MIN KBKB 030140Z AUTO 00000KT 10SM CLR 26/22 A2991 300 81 1600 000/00 RMK AO2 T02560222
53988KBKB BKB20190802194510808/02/19 19:45:31  5-MIN KBKB 030145Z AUTO 00000KT 10SM CLR 26/22 A2992 300 79 1600 000/00 RMK AO2 T02560217
53988KBKB BKB20190802195011508/02/19 19:50:31  5-MIN KBKB 030150Z AUTO 00000KT 10SM CLR 25/22 A2992 300 84 1600 000/00 RMK AO2 SLP157 T02500222
53988KBKB BKB20190802195510808/02/19 19:55:31  5-MIN KBKB 030155Z AUTO 00000KT 10SM CLR 25/22 A2992 300 84 1600 000/00 RMK AO2 T02500222
53988KBKB BKB20190802200010808/02/19 20:00:31  5-MIN KBKB 030200Z AUTO 00000KT 10SM CLR 25/22 A2992 300 81 1600 000/00 RMK AO2 T02500217
53988KBKB BKB20190802200510808/02/19 20:05:31  5-MIN KBKB 030205Z AUTO 00000KT 10SM CLR 24/22 A2992 300 84 1500 000/00 RMK AO2 T02440217
53988KBKB BKB20190802201010808/02/19 20:10:31  5-MIN KBKB 030210Z AUTO 00000KT 10SM CLR 24/22 A2992 290 84 1500 000/00 RMK AO2 T02440217
53988KBKB BKB20190802201510808/02/19 20:15:31  5-MIN KBKB 030215Z AUTO 00000KT 10SM CLR 24/22 A2992 290 84 1500 000/00 RMK AO2 T02440217
53988KBKB BKB20190802202010808/02/19 20:20:31  5-MIN KBKB 030220Z AUTO 00000KT 10SM CLR 24/22 A2993 290 84 1500 000/00 RMK AO2 T02440217
53988KBKB BKB20190802202510808/02/19 20:25:31  5-MIN KBKB 030225Z AUTO 00000KT 10SM CLR 24/22 A2992 290 84 1500 000/00 RMK AO2 T02440217
53988KBKB BKB20190802203010808/02/19 20:30:31  5-MIN KBKB 030230Z AUTO 00000KT 10SM CLR 24/22 A2993 290 84 1500 000/00 RMK AO2 T02440217
53988KBKB BKB20190802203510808/02/19 20:35:31  5-MIN KBKB 030235Z AUTO 00000KT 10SM CLR 24/22 A2993 290 87 1500 000/00 RMK AO2 T02440222
53988KBKB BKB20190802204010808/02/19 20:40:31  5-MIN KBKB 030240Z AUTO 00000KT 10SM CLR 24/22 A2993 290 87 1500 000/00 RMK AO2 T02440222
53988KBKB BKB20190802204510808/02/19 20:45:31  5-MIN KBKB 030245Z AUTO 00000KT 10SM CLR 24/22 A2993 290 90 1400 000/00 RMK AO2 T02390222
53988KBKB BKB20190802205012108/02/19 20:50:31  5-MIN KBKB 030250Z AUTO 00000KT 10SM CLR 24/22 A2993 290 84 1500 000/00 RMK AO2 SLP160 T02440217 55005
53988KBKB BKB20190802205510808/02/19 20:55:31  5-MIN KBKB 030255Z AUTO 00000KT 10SM CLR 24/22 A2993 290 87 1400 000/00 RMK AO2 T02390217
53988KBKB BKB20190802210010808/02/19 21:00:31  5-MIN KBKB 030300Z AUTO 00000KT 10SM CLR 24/22 A2993 290 87 1400 000/00 RMK AO2 T02390217
53988KBKB BKB20190802210510808/02/19 21:05:31  5-MIN KBKB 030305Z AUTO 00000KT 10SM CLR 24/22 A2993 290 87 1400 000/00 RMK AO2 T02390217
53988KBKB BKB20190802211010808/02/19 21:10:31  5-MIN KBKB 030310Z AUTO 00000KT 10SM CLR 24/22 A2993 290 84 1500 000/00 RMK AO2 T02440217
53988KBKB BKB20190802211510808/02/19 21:15:31  5-MIN KBKB 030315Z AUTO 00000KT 10SM CLR 24/22 A2994 280 87 1400 000/00 RMK AO2 T02390217
53988KBKB BKB20190802212015608/02/19 21:20:31  5-MIN KBKB 030320Z AUTO 00000KT 10SM CLR 24/22 A2993 2KBKB 030345Z AUTO 00000KT 10SM CLR 24/22 A2994 280 90 1400 000/00 RMK AO2 T02390222
53988KBKB BKB20190802215011508/02/19 21:50:31  5-MIN KBKB 030350Z AUTO 00000KT 10SM CLR 24/22 A2993 290 90 1400 000/00 RMK AO2 SLP161 T02390222
53988KBKB BKB20190802215510808/02/19 21:55:31  5-MIN KBKB 030355Z AUTO 00000KT 10SM CLR 23/22 A2993 290 90 1400 000/00 RMK AO2 T02330217
53988KBKB BKB20190802220010808/02/19 22:00:31  5-MIN KBKB 030400Z AUTO 00000KT 10SM CLR 23/22 A2993 290 90 1400 000/00 RMK AO2 T02330217
53988KBKB BKB20190802225011508/02/19 22:50:31  5-MIN KBKB 030450Z AUTO 00000KT 10SM CLR 23/22 A2994 280 90 1400 000/00 RMK AO2 SLP163 T02330217
53988KBKB BKB20190802225510808/02/19 22:55:31  5-MIN KBKB 030455Z AUTO 00000KT 10SM CLR 23/22 A2994 280 90 1400 000/00 RMK AO2 T02330217
53988KBKB BKB20190802230010808/02/19 23:00:31  5-MIN KBKB 030500Z AUTO 00000KT 10SM CLR 23/22 A2994 280 90 1400 000/00 RMK AO2 T02330217
53988KBKB BKB20190802230510808/02/19 23:05:31  5-MIN KBKB 030505Z AUTO 00000KT 10SM CLR 23/22 A2994 280 90 1400 000/00 RMK AO2 T02330217
53988KBKB BKB20190802231010808/02/19 23:10:31  5-MIN KBKB 030510Z AUTO 00000KT 10SM CLR 23/22 A2993 290 90 1400 000/00 RMK AO2 T02330217
53988KBKB BKB20190802231510808/02/19 23:15:31  5-MIN KBKB 030515Z AUTO 00000KT 10SM CLR 23/22 A2993 290 90 1400 000/00 RMK AO2 T02330217
53988KBKB BKB20190802232010808/02/19 23:20:31  5-MIN KBKB 030520Z AUTO 00000KT 10SM CLR 23/22 A2993 290 90 1400 000/00 RMK AO2 T02330217
53988KBKB BKB20190802232510808/02/19 23:25:31  5-MIN KBKB 030525Z AUTO 00000KT 10SM CLR 23/22 A2993 290 90 1400 000/00 RMK AO2 T02330217
53988KBKB BKB20190802233010808/02/19 23:30:31  5-MIN KBKB 030530Z AUTO 00000KT 10SM CLR 23/22 A2993 290 90 1400 000/00 RMK AO2 T02330217
53988KBKB BKB20190802233510808/02/19 23:35:31  5-MIN KBKB 030535Z AUTO 00000KT 10SM CLR 23/21 A2993 290 87 1400 000/00 RMK AO2 T02330211
53988KBKB BKB20190802234010808/02/19 23:40:31  5-MIN KBKB 030540Z AUTO 00000KT 10SM CLR 23/21 A2993 290 87 1400 000/00 RMK AO2 T02330211
53988KBKB BKB20190802234510808/02/19 23:45:31  5-MIN KBKB 030545Z AUTO 00000KT 10SM CLR 23/21 A2993 290 87 1400 000/00 RMK AO2 T02330211
53988KBKB BKB20190802235014308/02/19 23:50:31  5-MIN KBKB 030550Z AUTO 00000KT 10SM CLR 23/21 A2993 290 87 1400 000/00 RMK AO2 SLP159 T02330211 10300 20228 403330217 51009
53988KBKB BKB20190802235510808/02/19 23:55:31  5-MIN KBKB 030555Z AUTO 00000KT 10SM CLR 23/21 A2993 290 87 1400 000/00 RMK AO2 T02330211
53988KBKB BKB20190803000010808/03/19 00:00:31  5-MIN KBKB 030600Z AUTO 00000KT 10SM CLR 23/22 A2993 290 90 1400 000/00 RMK AO2 T02330217
53988KBKB BKB20190803000510808/03/19 00:05:31  5-MIN KBKB 030605Z AUTO 00000KT 10SM CLR 23/22 A2993 290 93 1300 000/00 RMK AO2 T02280217
53988KBKB BKB20190803001010808/03/19 00:10:31  5-MIN KBKB 030610Z AUTO 00000KT 10SM CLR 23/22 A2993 290 93 1300 000/00 RMK AO2 T02280217
53988KBKB BKB20190803001510808/03/19 00:15:31  5-MIN KBKB 030615Z AUTO 00000KT 10SM CLR 23/21 A2993 290 90 1300 000/00 RMK AO2 T02280211
53988KBKB BKB20190803002010808/03/19 00:20:31  5-MIN KBKB 030620Z AUTO 00000KT 10SM CLR 23/21 A2993 290 90 1300 000/00 RMK AO2 T02280211
53988KBKB BKB20190803002510808/03/19 00:25:31  5-MIN KBKB 030625Z AUTO 00000KT 10SM CLR 23/21 A2993 290 90 1300 000/00 RMK AO2 T02280211
53988KBKB BKB20190803003010808/03/19 00:30:31  5-MIN KBKB 030630Z AUTO 00000KT 10SM CLR 22/21 A2993 290 93 1200 000/00 RMK AO2 T02220211
53988KBKB BKB20190803003510808/03/19 00:35:31  5-MIN KBKB 030635Z AUTO 00000KT 10SM CLR 23/21 A2993 290 90 1300 000/00 RMK AO2 T02280211
53988KBKB BKB20190803004010808/03/19 00:40:31  5-MIN KBKB 030640Z AUTO 00000KT 10SM CLR 22/21 A2993 290 93 1200 000/00 RMK AO2 T02220211
53988KBKB BKB20190803004510808/03/19 00:45:31  5-MIN KBKB 030645Z AUTO 00000KT 10SM CLR 22/21 A2993 290 93 1200 000/00 RMK AO2 T02220211
53988KBKB BKB20190803005011508/03/19 00:50:31  5-MIN KBKB 030650Z AUTO 00000KT 10SM CLR 22/21 A2993 290 93 1200 000/00 RMK AO2 SLP161 T02220211
53988KBKB BKB20190803025012008/03/19 02:50:31  5-MIN KBKB 030850Z AUTO 00000KT 9SM CLR 22/21 A2992 300 93 1200 000/00 RMK AO2 SLP158 T02170206 58002
53988KBKB BKB20190803025510808/03/19 02:55:31  5-MIN KBKB 030855Z AUTO 00000KT 10SM CLR 22/21 A2992 300 93 1200 000/00 RMK AO2 T02170206
53988KBKB BKB20190803030010808/03/19 03:00:31  5-MIN KBKB 030900Z AUTO 00000KT 10SM CLR 22/21 A2992 300 90 1200 000/00 RMK AO2 T02220206
53988KBKB BKB20190803030510808/03/19 03:05:31  5-MIN KBKB 030905Z AUTO 00000KT 10SM CLR 22/21 A2992 290 90 1200 000/00 RMK AO2 T02220206
53988KBKB BKB20190803031010808/03/19 03:10:31  5-MIN KBKB 030910Z AUTO 00000KT 10SM CLR 22/21 A2993 290 90 1200 000/00 RMK AO2 T02220206
53988KBKB BKB20190803031510808/03/19 03:15:31  5-MIN KBKB 030915Z AUTO 00000KT 10SM CLR 22/21 A2993 290 90 1200 000/00 RMK AO2 T02220206
53988KBKB BKB20190803032014408/03/19 03:20:31  5-MIN KBKB 030920Z AUTO 00000KT 9SM CLR 22/21 A2993 290 93 1200 000/00 RMK AO2 T0217020608/03/19 03:25:3/00 RMK AO2 T02170206
53988KBKB BKB20190803040010808/03/19 04:00:31  5-MIN KBKB 031000Z AUTO 00000KT 10SM CLR 22/21 A2992 300 93 1200 000/00 RMK AO2 T02170206
53988KBKB BKB20190803040510808/03/19 04:05:31  5-MIN KBKB 031005Z AUTO 00000KT 10SM CLR 22/21 A2992 300 93 1200 000/00 RMK AO2 T02170206
53988KBKB BKB20190803041010808/03/19 04:10:31  5-MIN KBKB 031010Z AUTO 00000KT 10SM CLR 22/21 A2992 300 93 1200 000/00 RMK AO2 T02170206
53988KBKB BKB20190803041510808/03/19 04:15:31  5-MIN KBKB 031015Z AUTO 00000KT 10SM CLR 22/21 A2992 300 93 1200 000/00 RMK AO2 T02170206
53988KBKB BKB20190803042010708/03/19 04:20:31  5-MIN KBKB 031020Z AUTO 00000KT 8SM CLR 22/21 A2992 300 93 1200 000/00 RMK AO2 T02170206
53988KBKB BKB20190803042510708/03/19 04:25:31  5-MIN KBKB 031025Z AUTO 00000KT 7SM CLR 22/21 A2992 300 93 1200 000/00 RMK AO2 T02170206
53988KBKB BKB20190803043010708/03/19 04:30:31  5-MIN KBKB 031030Z AUTO 00000KT 7SM CLR 22/21 A2992 300 93 1200 000/00 RMK AO2 T02170206
53988KBKB BKB20190803043510708/03/19 04:35:31  5-MIN KBKB 031035Z AUTO 00000KT 7SM CLR 22/21 A2992 300 93 1200 000/00 RMK AO2 T02170206
53988KBKB BKB20190803044010708/03/19 04:40:31  5-MIN KBKB 031040Z AUTO 00000KT 7SM CLR 22/21 A2992 300 93 1200 000/00 RMK AO2 T02170206
53988KBKB BKB20190803044511008/03/19 04:45:31  5-MIN KBKB 031045Z AUTO 00000KT 6SM BR CLR 22/21 A2992 300 93 1200 000/00 RMK AO2 T02170206
53988KBKB BKB20190803045011708/03/19 04:50:31  5-MIN KBKB 031050Z AUTO 00000KT 6SM BR CLR 21/21 A2992 300 97 1100 000/00 RMK AO2 SLP158 T02110206
53988KBKB BKB20190803045511008/03/19 04:55:31  5-MIN KBKB 031055Z AUTO 00000KT 6SM BR CLR 21/21 A2992 300 97 1100 000/00 RMK AO2 T02110206
53988KBKB BKB20190803050010708/03/19 05:00:31  5-MIN KBKB 031100Z AUTO 00000KT 7SM CLR 21/21 A2992 300 97 1100 000/00 RMK AO2 T02110206
53988KBKB BKB20190803050510708/03/19 05:05:31  5-MIN KBKB 031105Z AUTO 00000KT 7SM CLR 21/21 A2993 290 97 1100 000/00 RMK AO2 T02110206
53988KBKB BKB20190803051010708/03/19 05:10:31  5-MIN KBKB 031110Z AUTO 00000KT 7SM CLR 21/21 A2993 290 97 1100 000/00 RMK AO2 T02110206
53988KBKB BKB20190803051510708/03/19 05:15:31  5-MIN KBKB 031115Z AUTO 00000KT 7SM CLR 22/21 A2993 290 93 1200 000/00 RMK AO2 T02170206
53988KBKB BKB20190803052010708/03/19 05:20:31  5-MIN KBKB 031120Z AUTO 00000KT 8SM CLR 21/21 A2993 290 97 1100 000/00 RMK AO2 T02110206
53988KBKB BKB20190803052510708/03/19 05:25:31  5-MIN KBKB 031125Z AUTO 00000KT 7SM CLR 21/21 A2993 290 97 1100 000/00 RMK AO2 T02110206
53988KBKB BKB20190803053011008/03/19 05:30:31  5-MIN KBKB 031130Z AUTO 00000KT 6SM BR CLR 22/21 A2993 290 93 1200 000/00 RMK AO2 T02170206
53988KBKB BKB20190803053511008/03/19 05:35:31  5-MIN KBKB 031135Z AUTO 00000KT 6SM BR CLR 22/21 A2993 290 93 1200 000/00 RMK AO2 T02170206
53988KBKB BKB20190803054011008/03/19 05:40:31  5-MIN KBKB 031140Z AUTO 00000KT 5SM BR CLR 22/21 A2993 290 93 1200 000/00 RMK AO2 T02170206
53988KBKB BKB20190803054511008/03/19 05:45:31  5-MIN KBKB 031145Z AUTO 00000KT 5SM BR CLR 21/21 A2993 290 97 1100 000/00 RMK AO2 T02110206
53988KBKB BKB20190803055013508/03/19 05:50:31  5-MIN KBKB 031150Z AUTO 00000KT 5SM BR CLR 22/21 A2994 280 93 1200 000/00 RMK AO2 SLP162 T02170206 10233 20211 58001
53988KBKB BKB20190803055511008/03/19 05:55:31  5-MIN KBKB 031155Z AUTO 00000KT 5SM BR CLR 22/21 A2994 280 93 1200 000/00 RMK AO2 T02170206
53988KBKB BKB20190803060015008/03/19 06:00:31  5-MIN KBKB 031200Z AUTO 00000KT 4SM BR CLR 22/21 A2994 280 93 1200 000/00 RMK AO2 T02170206 84 1500 000/00 RMK AO2 SLP167 T02440217
53988KBKB BKB20190803065510808/03/19 06:55:31  5-MIN KBKB 031255Z AUTO 00000KT 10SM CLR 24/22 A2995 270 84 1500 000/00 RMK AO2 T02440217
53988KBKB BKB20190803070010808/03/19 07:00:31  5-MIN KBKB 031300Z AUTO 00000KT 10SM CLR 25/22 A2995 270 81 1500 000/00 RMK AO2 T02500217
53988KBKB BKB20190803070510008/03/19 07:05:31  5-MIN KBKB 031305Z AUTO 00000KT 10SM CLR 26/22 A2995 270 RMK AO2 SLP167 T02720222
53988KBKB BKB20190803075011508/03/19 07:50:31  5-MIN KBKB 031350Z AUTO 00000KT 10SM CLR 27/22 A2995 270 74 1800 000/00 RMK AO2 SLP167 T02720222
53988KBKB BKB20190803075510808/03/19 07:55:31  5-MIN KBKB 031355Z AUTO 00000KT 10SM CLR 28/22 A2995 270 71 1800 000/00 RMK AO2 T02780222
53988KBKB BKB20190803080010808/03/19 08:00:31  5-MIN KBKB 031400Z AUTO 00000KT 10SM CLR 28/22 A2995 270 71 1800 000/00 RMK AO2 T02780222
53988KBKB BKB20190803080510808/03/19 08:05:31  5-MIN KBKB 031405Z AUTO 00000KT 10SM CLR 28/22 A2995 270 71 1800 000/00 RMK AO2 T02780222
53988KBKB BKB20190803081010808/03/19 08:10:31  5-MIN KBKB 031410Z AUTO 00000KT 10SM CLR 28/23 A2995 270 74 1800 000/00 RMK AO2 T02780228
53988KBKB BKB20190803081510808/03/19 08:15:31  5-MIN KBKB 031415Z AUTO 00000KT 10SM CLR 28/23 A2995 270 71 1900 000/00 RMK AO2 T02830228
53988KBKB BKB20190803082010808/03/19 08:20:31  5-MIN KBKB 031420Z AUTO 00000KT 10SM CLR 29/23 A2995 270 69 2000 000/00 RMK AO2 T02890228
53988KBKB BKB20190803082510808/03/19 08:25:31  5-MIN KBKB 031425Z AUTO 00000KT 10SM CLR 29/23 A2994 280 67 2000 000/00 RMK AO2 T02940228
53988KBKB BKB20190803083010808/03/19 08:30:31  5-MIN KBKB 031430Z AUTO 00000KT 10SM CLR 29/23 A2994 280 69 2000 000/00 RMK AO2 T02890228
53988KBKB BKB20190803083510808/03/19 08:35:31  5-MIN KBKB 031435Z AUTO 00000KT 10SM CLR 29/23 A2994 280 69 2000 000/00 RMK AO2 T02890228
53988KBKB BKB20190803084010808/03/19 08:40:31  5-MIN KBKB 031440Z AUTO 00000KT 10SM CLR 29/23 A2995 270 67 2000 000/00 RMK AO2 T02940228
53988KBKB BKB20190803084510808/03/19 08:45:31  5-MIN KBKB 031445Z AUTO 00000KT 10SM CLR 29/22 A2995 270 64 2000 000/00 RMK AO2 T02940222
53988KBKB BKB20190803085012108/03/19 08:50:31  5-MIN KBKB 031450Z AUTO 00000KT 10SM CLR 30/22 A2995 270 62 2100 000/00 RMK AO2 SLP166 T03000222 53005
53988KBKB BKB20190803085510808/03/19 08:55:31  5-MIN KBKB 031455Z AUTO 00000KT 10SM CLR 30/22 A2995 270 60 2100 000/00 RMK AO2 T03000217
53988KBKB BKB20190803090010808/03/19 09:00:31  5-MIN KBKB 031500Z AUTO 00000KT 10SM CLR 30/22 A2995 270 62 2100 000/00 RMK AO2 T03000222
53988KBKB BKB20190803090510808/03/19 09:05:31  5-MIN KBKB 031505Z AUTO 00000KT 10SM CLR 31/22 A2995 270 60 2200 000/00 RMK AO2 T03060222
53988KBKB BKB20190803091010808/03/19 09:10:31  5-MIN KBKB 031510Z AUTO 00000KT 10SM CLR 30/21 A2995 270 56 2100 000/00 RMK AO2 T03000206
53988KBKB BKB20190803091510808/03/19 09:15:31  5-MIN KBKB 031515Z AUTO 00000KT 10SM CLR 31/21 A2995 270 54 2200 000/00 RMK AO2 T03060206
53988KBKB BKB20190803092010808/03/19 09:20:31  5-MIN KBKB 031520Z AUTO 00000KT 10SM CLR 31/21 A2995 270 54 2200 000/00 RMK AO2 T03060206
53988KBKB BKB20190803092510808/03/19 09:25:31  5-MIN KBKB 031525Z AUTO 00000KT 10SM CLR 31/21 A2995 270 54 2200 000/00 RMK AO2 T03060206
53988KBKB BKB20190803093010808/03/19 09:30:31  5-MIN KBKB 031530Z AUTO 00000KT 10SM CLR 31/22 A2995 270 56 2200 000/00 RMK AO2 T03110217
53988KBKB BKB20190803093510808/03/19 09:35:31  5-MIN KBKB 031535Z AUTO 00000KT 10SM CLR 31/22 A2995 270 56 2200 000/00 RMK AO2 T03110217
53988KBKB BKB20190803094011108/03/19 09:40:31  5-MIN KBKB 031540Z AUTO 00000KT 10SM FEW037 31/21 A2995 270 56 2200 000/00 RMK AO2 T03060211
53988KBKB BKB20190803094511108/03/19 09:45:31  5-MIN KBKB 031545Z AUTO 00000KT 10SM SCT037 31/22 A2995 270 56 2200 000/00 RMK AO2 T03110217
53988KBKB BKB20190803095011808/03/19 09:50:31  5-MIN KBKB 031550Z AUTO VRB03KT 10SM BKN037 31/22 A2995 270 56 2200 VRB/03 RMK AO2 SLP167 T03110217
53988KBKB BKB20190803095511108/03/19 09:55:31  5-MIN KBKB 031555Z AUTO 00000KT 10SM SCT039 29/21 A2995 270 60 2000 000/00 RMK AO2 T02940211
53988KBKB BKB20190803100011108/03/19 10:00:31  5-MIN KBKB 031600Z AUTO 00000KT 10SM SCT039 31/22 A2995 270 58 2200 000/00 RMK AO2 T03060217
53988KBKB BKB20190803100511108/03/19 10:05:31  5-MIN KBKB 031605Z AUTO 00000KT 10SM SCT039 31/21 A2995 270 54 2200 000/00 RMK AO2 T03110211
53988KBKB BKB20190803101011108/03/19 10:10:31  5-MIN KBKB 031610Z AUTO VRB03KT 10SM SCT039 31/22 A2995 270 56 2200 VRB/03 RMK AO2 T03110217
53988KBKB BKB20190803101511108/03/19 10:15:31  5-MIN KBKB 031615Z AUTO 32003KT 10SM SCT039 31/22 A2995 270 58 2200 320/03 RMK AO2 T03060217
53988KBKB BKB20190803102011108/03/19 10:20:31  5-MIN KBKB 031620Z AUTO 00000KT 10SM SCT040 30/22 A2995 270 60 2100 000/00 RMK AO2 T03000217
53988KBKB BKB20190803102511108/03/19 10:25:31  5-MIN KBKB 031625Z AUTO 00000KT 10SM FEW040 30/22 A2995 270 60 2100 000/00 RMK AO2 T03000217
53988KBKB BKB20190803103011108/03/19 10:30:31  5-MIN KBKB 031630Z AUTO 00000KT 10SM SCT040 31/22 A2995 270 56 2200 000/00 RMK AO2 T03110217
53988KBKB BKB20190803103511108/03/19 10:35:31  5-MIN KBKB 031635Z AUTO VRB05KT 10SM SCT040 32/22 A2995 270 53 2300 VRB/05 RMK AO2 T03220217
53988KBKB BKB20190803104011108/03/19 10:40:31  5-MIN KBKB 031640Z AUTO 36004KT 10SM FEW041 32/21 A2995 270 53 2300 350/04 RMK AO2 T03170211
53988KBKB BKB20190803104511108/03/19 10:45:31  5-MIN KBKB 031645Z AUTO VRB03KT 10SM FEW041 32/21 A2995 280 51 2300 VRB/03 RMK AO2 T03220211
53988KBKB BKB20190803105011808/03/19 10:50:31  5-MIN KBKB 031650Z AUTO 01005KT 10SM FEW041 32/21 A2994 280 51 2300 360/05 RMK AO2 SLP165 T03220211
53988KBKB BKB20190803105511108/03/19 10:55:31  5-MIN KBKB 031655Z AUTO VRB03KT 10SM FEW042 31/21 A2994 280 53 2200 VRB/03 RMK AO2 T03110206
53988KBKB BKB20190803110010808/03/19 11:00:31  5-MIN KBKB 031700Z AUTO VRB03KT 10SM CLR 32/21 A2994 280 51 2300 VRB/03 RMK AO2 T03220211
53988KBKB BKB20190803110511108/03/19 11:05:31  5-MIN KBKB 031705Z AUTO 00000KT 10SM FEW044 32/22 A2994 280 53 2300 000/00 RMK AO2 T03220217
53988KBKB BKB20190803111011108/03/19 11:10:31  5-MIN KBKB 031710Z AUTO VRB03KT 10SM FEW042 32/22 A2994 280 55 2300 VRB/03 RMK AO2 T03170217
53988KBKB BKB20190803111511108/03/19 11:15:31  5-MIN KBKB 031715Z AUTO VRB04KT 10SM FEW042 31/22 A2994 280 56 2200 VRB/04 RMK AO2 T03110217
53988KBKB BKB20190803112011108/03/19 11:20:31  5-MIN KBKB 031720Z AUTO VRB03KT 10SM FEW042 32/21 A2994 280 53 2300 VRB/03 RMK AO2 T03170211
53988KBKB BKB20190803112511108/03/19 11:25:31  5-MIN KBKB 031725Z AUTO 00000KT 10SM FEW042 32/21 A2994 280 49 2400 000/00 RMK AO2 T03220206
53988KBKB BKB20190803113011108/03/19 11:30:31  5-MIN KBKB 031730Z AUTO VRB04KT 10SM SCT042 32/21 A2994 280 53 2300 VRB/04 RMK AO2 T03170211
53988KBKB BKB20190803113511108/03/19 11:35:31  5-MIN KBKB 031735Z AUTO 00000KT 10SM SCT043 31/21 A2994 280 54 2200 000/00 RMK AO2 T03110211
53988KBKB BKB20190803114011108/03/19 11:40:31  5-MIN KBKB 031740Z AUTO VRB03KT 10SM FEW043 33/22 A2993 290 53 2400 VRB/03 RMK AO2 T03280222
53988KBKB BKB20190803114511108/03/19 11:45:31  5-MIN KBKB 031745Z AUTO 03005KT 10SM FEW043 33/22 A2993 290 51 2400 030/05 RMK AO2 T03280217
53988KBKB BKB20190803115013608/03/19 11:50:31  5-MIN KBKB 031750Z AUTO 06004KT 10SM FEW043 33/22 A2993 290 51 2400 050/04 RMK AO2 SLP161 T03280217 10328 20217 50004
53988KBKB BKB20190803115510808/03/19 11:55:31  5-MIN KBKB 031755Z AUTO 10SM FEW043 FEW065 32/21 A2993 290 51 2400 M /M RMK AO2 T03220211
53988KBKB BKB20190803120011108/03/19 12:00:31  5-MIN KBKB 031800Z AUTO VRB04KT 10SM FEW060 32/21 A2993 290 51 2400 VRB/04 RMK AO2 T03220211
53988KBKB BKB20190803120511808/03/19 12:05:31  5-MIN KBKB 031805Z AUTO 00000KT 10SM FEW049 FEW060 32/21 A2993 290 51 2400 000/00 RMK AO2 T03220211
53988KBKB BKB20190803121011808/03/19 12:10:31  5-MIN KBKB 031810Z AUTO VRB03KT 10SM SCT047 SCT060 33/21 A2993 290 49 2400 VRB/03 RMK AO2 T03280211
53988KBKB BKB20190803121511808/03/19 12:15:31  5-MIN KBKB 031815Z AUTO VRB04KT 10SM BKN047 BKN060 31/21 A2993 290 54 2200 VRB/04 RMK AO2 T03110211
53988KBKB BKB20190803122011808/03/19 12:20:31  5-MIN KBKB 031820Z AUTO 00000KT 10SM SCT045 BKN060 32/21 A2993 290 51 2400 000/00 RMK AO2 T03220211
53988KBKB BKB20190803122511808/03/19 12:25:31  5-MIN KBKB 031825Z AUTO 00000KT 10SM SCT045 SCT060 33/22 A2993 290 51 2400 000/00 RMK AO2 T03280217
53988KBKB BKB20190803123010108/03/19 12:30:31  5-MIN KBKB 031830Z AUTO 10SM SCT045 33/22 A2992 290 50 2500 M /M RMK AO2 T03330217
53988KBKB BKB20190803123511108/03/19 12:35:31  5-MIN KBKB 031835Z AUTO VRB05KT 10SM SCT045 33/21 A2992 290 49 2400 VRB/05 RMK AO2 T03280211
53988KBKB BKB20190803124011108/03/19 12:40:31  5-MIN KBKB 031840Z AUTO 00000KT 10SM FEW045 32/21 A2992 300 49 2400 000/00 RMK AO2 T03220206
53988KBKB BKB20190803124511808/03/19 12:45:31  5-MIN KBKB 031845Z AUTO 00000KT 10SM FEW048 SCT060 33/21 A2992 300 48 2400 000/00 RMK AO2 T03280206
53988KBKB BKB20190803125012508/03/19 12:50:31  5-MIN KBKB 031850Z AUTO VRB03KT 10SM FEW050 SCT060 33/21 A2992 300 49 2400 VRB/03 RMK AO2 SLP157 T03280211
53988KBKB BKB20190803125511808/03/19 12:55:31  5-MIN KBKB 031855Z AUTO 00000KT 10SM SCT050 BKN060 32/21 A2992 300 51 2300 000/00 RMK AO2 T03170206
53988KBKB BKB20190803130011808/03/19 13:00:31  5-MIN KBKB 031900Z AUTO VRB04KT 10SM BKN048 BKN060 33/22 A2992 300 51 2400 VRB/04 RMK AO2 T03280217
53988KBKB BKB20190803130511808/03/19 13:05:31  5-MIN KBKB 031905Z AUTO VRB03KT 10SM BKN048 BKN060 32/22 A2992 300 53 2400 VRB/03 RMK AO2 T03220217
53988KBKB BKB20190803131011808/03/19 13:10:31  5-MIN KBKB 031910Z AUTO VRB03KT 10SM BKN048 BKN060 32/21 A2991 300 51 2400 VRB/03 RMK AO2 T03220211
53988KBKB BKB20190803131511808/03/19 13:15:31  5-MIN KBKB 031915Z AUTO 02003KT 10SM BKN048 OVC060 32/21 A2991 310 53 2300 010/03 RMK AO2 T03170211
53988KBKB BKB20190803132011808/03/19 13:20:31  5-MIN KBKB 031920Z AUTO VRB03KT 10SM BKN048 BKN060 33/21 A2991 310 49 2400 VRB/03 RMK AO2 T03280211
53988KBKB BKB20190803132511808/03/19 13:25:31  5-MIN KBKB 031925Z AUTO 00000KT 10SM BKN049 BKN060 33/21 A2991 310 48 2500 000/00 RMK AO2 T03330211
53988KBKB BKB20190803133011108/03/19 13:30:31  5-MIN KBKB 031930Z AUTO VRB03KT 10SM SCT049 34/22 A2990 310 48 2600 VRB/03 RMK AO2 T03390217
53988KBKB BKB20190803133511108/03/19 13:35:31  5-MIN KBKB 031935Z AUTO 31003KT 10SM SCT049 33/21 A2990 310 48 2500 310/03 RMK AO2 T03330211
53988KBKB BKB20190803134011108/03/19 13:40:31  5-MIN KBKB 031940Z AUTO VRB05KT 10SM FEW049 33/21 A2990 310 49 2500 VRB/05 RMK AO2 T03280211
53988KBKB BKB20190803134511108/03/19 13:45:31  5-MIN KBKB 031945Z AUTO 00000KT 10SM SCT055 32/21 A2990 320 51 2400 000/00 RMK AO2 T03220211
53988KBKB BKB20190803135011808/03/19 13:50:31  5-MIN KBKB 031950Z AUTO 00000KT 10SM SCT055 32/21 A2990 320 53 2300 000/00 RMK AO2 SLP150 T03170211
53988KBKB BKB20190803135511108/03/19 13:55:31  5-MIN KBKB 031955Z AUTO 00000KT 10SM BKN055 31/21 A2990 320 54 2300 000/00 RMK AO2 T03110211
53988KBKB BKB20190803140011108/03/19 14:00:31  5-MIN KBKB 032000Z AUTO 00000KT 10SM BKN055 31/21 A2990 320 53 2300 000/00 RMK AO2 T03110206
53988KBKB BKB20190803140511108/03/19 14:05:31  5-MIN KBKB 032005Z AUTO 00000KT 10SM SCT055 31/22 A2989 320 56 2300 000/00 RMK AO2 T03110217
53988KBKB BKB20190803141011108/03/19 14:10:31  5-MIN KBKB 032010Z AUTO 04004KT 10SM SCT055 33/21 A2989 330 49 2500 030/04 RMK AO2 T03280211
53988KBKB BKB20190803141511108/03/19 14:15:31  5-MIN KBKB 032015Z AUTO VRB03KT 10SM FEW055 33/20 A2989 330 45 2500 VRB/03 RMK AO2 T03330200
53988KBKB BKB20190803142011108/03/19 14:20:31  5-MIN KBKB 032020Z AUTO VRB04KT 10SM FEW055 32/21 A2989 330 51 2300 VRB/04 RMK AO2 T03170206
53988KBKB BKB20190803142511108/03/19 14:25:31  5-MIN KBKB 032025Z AUTO VRB04KT 10SM FEW050 32/21 A2989 330 51 2300 VRB/04 RMK AO2 T03170206
53988KBKB BKB20190803143011108/03/19 14:30:31  5-MIN KBKB 032030Z AUTO VRB03KT 10SM SCT050 33/21 A2989 330 48 2500 VRB/03 RMK AO2 T03330211
53988KBKB BKB20190803143511108/03/19 14:35:31  5-MIN KBKB 032035Z AUTO VRB03KT 10SM BKN050 32/20 A2989 330 48 2400 VRB/03 RMK AO2 T03220200
53988KBKB BKB20190803144011108/03/19 14:40:31  5-MIN KBKB 032040Z AUTO VRB04KT 10SM BKN050 32/21 A2989 330 53 2300 VRB/04 RMK AO2 T03170211
53988KBKB BKB20190803144511108/03/19 14:45:31  5-MIN KBKB 032045Z AUTO 00000KT 10SM SCT050 32/20 A2988 330 49 2400 000/00 RMK AO2 T03170200
53988KBKB BKB20190803145012408/03/19 14:50:31  5-MIN KBKB 032050Z AUTO 00000KT 10SM SCT055 31/21 A2988 330 54 2300 000/00 RMK AO2 SLP143 T03110211 58005
53988KBKB BKB20190803145511108/03/19 14:55:31  5-MIN KBKB 032055Z AUTO VRB03KT 10SM BKN050 33/21 A2988 340 49 2500 VRB/03 RMK AO2 T03280211
53988KBKB BKB20190803150011108/03/19 15:00:31  5-MIN KBKB 032100Z AUTO VRB04KT 10SM BKN050 33/21 A2988 340 46 2500 VRB/04 RMK AO2 T03330206
53988KBKB BKB20190803150511108/03/19 15:05:31  5-MIN KBKB 032105Z AUTO VRB03KT 10SM BKN050 34/21 A2988 340 46 2600 VRB/03 RMK AO2 T03390211
53988KBKB BKB20190803151011108/03/19 15:10:31  5-MIN KBKB 032110Z AUTO VRB04KT 10SM BKN050 33/21 A2988 340 48 2500 VRB/04 RMK AO2 T03280206
53988KBKB BKB20190803151511108/03/19 15:15:31  5-MIN KBKB 032115Z AUTO 00000KT 10SM SCT050 34/21 A2987 340 46 2600 000/00 RMK AO2 T03390211
53988KBKB BKB20190803152011108/03/19 15:20:31  5-MIN KBKB 032120Z AUTO VRB03KT 10SM BKN050 33/21 A2987 340 48 2500 VRB/03 RMK AO2 T03330211
53988KBKB BKB20190803152511108/03/19 15:25:31  5-MIN KBKB 032125Z AUTO 02005KT 10SM BKN055 34/21 A2987 340 46 2600 020/05 RMK AO2 T03390211
53988KBKB BKB20190803153011108/03/19 15:30:31  5-MIN KBKB 032130Z AUTO 00000KT 10SM BKN055 33/21 A2987 340 46 2500 000/00 RMK AO2 T03330206
53988KBKB BKB20190803153511808/03/19 15:35:31  5-MIN KBKB 032135Z AUTO 00000KT 10SM BKN055 BKN065 34/21 A2987 340 46 2600 000/00 RMK AO2 T03390211
53988KBKB BKB20190803154011108/03/19 15:40:31  5-MIN KBKB 032140Z AUTO VRB04KT 10SM BKN055 34/21 A2987 340 46 2600 VRB/04 RMK AO2 T03390211
53988KBKB BKB20190803154511108/03/19 15:45:31  5-MIN KBKB 032145Z AUTO VRB03KT 10SM BKN055 33/21 A2987 340 46 2500 VRB/03 RMK AO2 T03330206
53988KBKB BKB20190803155011808/03/19 15:50:31  5-MIN KBKB 032150Z AUTO VRB03KT 10SM BKN060 33/21 A2987 340 46 2500 VRB/03 RMK AO2 SLP140 T03330206
53988KBKB BKB20190803155511108/03/19 15:55:31  5-MIN KBKB 032155Z AUTO VRB03KT 10SM BKN060 33/21 A2987 340 46 2500 VRB/03 RMK AO2 T03330206
53988KBKB BKB20190803160011108/03/19 16:00:31  5-MIN KBKB 032200Z AUTO VRB03KT 10SM SCT060 33/20 A2987 340 45 2500 VRB/03 RMK AO2 T03330200
53988KBKB BKB20190803160511108/03/19 16:05:31  5-MIN KBKB 032205Z AUTO VRB03KT 10SM FEW060 33/20 A2987 350 45 2500 VRB/03 RMK AO2 T03330200
53988KBKB BKB20190803161011108/03/19 16:10:31  5-MIN KBKB 032210Z AUTO VRB03KT 10SM FEW060 33/20 A2987 340 45 2500 VRB/03 RMK AO2 T03330200
53988KBKB BKB20190803161510808/03/19 16:15:31  5-MIN KBKB 032215Z AUTO VRB03KT 10SM CLR 33/20 A2987 340 45 2500 VRB/03 RMK AO2 T03330200
53988KBKB BKB20190803162009908/03/19 16:20:31  5-MIN KBKB 032220Z AUTO 00000KT 10SM C 5-MI 350 44 2500 VRB/05 RMK AO2 T03280194
53988KBKB BKB20190803171010808/03/19 17:10:31  5-MIN KBKB 032310Z AUTO 00000KT 10SM CLR 32/19 A2986 350 44 2400 000/00 RMK AO2 T03220189
53988KBKB BKB20190803171510808/03/19 17:15:31  5-MIN KBKB 032315Z AUTO VRB03KT 10SM CLR 32/19 A2986 350 46 2400 VRB/03 RMK AO2 T03220194
53988KBKB BKB20190803172010808/03/19 17:20:31  5-MIN KBKB 032320Z AUTO 07003KT 10SM CLR 32/19 A2986 350 44 2400 070/03 RMK AO2 T03220189
53988KBKB BKB20190803172510808/03/19 17:25:31  5-MIN KBKB 032325Z AUTO VRB04KT 10SM CLR 32/19 A2986 350 46 2400 VRB/04 RMK AO2 T03220194
53988KBKB BKB20190803173010808/03/19 17:30:31  5-MIN KBKB 032330Z AUTO 00000KT 10SM CLR 32/20 A2986 350 49 2400 000/00 RMK AO2 T03170200
53988KBKB BKB20190803173510808/03/19 17:35:31  5-MIN KBKB 032335Z AUTO 00000KT 10SM CLR 32/20 A2986 350 49 2400 000/00 RMK AO2 T03170200
53988KBKB BKB20190803173516808/03/19 17:35:31  5-MIN KBKB 032335Z AUTO 00000KT 10SM CLR 32/20 A2986 350 49 2400 000/00 RMK AO2 T0317020008/03/1 CLR 32/19 A2986 350 46 2400 VRB/03 RMK AO2 T03220194
53988KBKB BKB20190803174010808/03/19 17:40:31  5-MIN KBKB 032340Z AUTO VRB03KT 10SM CLR 32/20 A2986 350 49 2400 VRB/03 RMK AO2 T03170200
53988KBKB BKB20190803174510808/03/19 17:45:31  5-MIN KBKB 032345Z AUTO 00000KT 10SM CLR 31/20 A2986 350 51 2300 000/00 RMK AO2 T03110200
53988KBKB BKB20190803174516808/03/19 17:45:31  5-MIN KBKB 032345Z AUTO 00000KT 10SM CLR 31/20 A2986 350 51 2300 000/00 RMK AO2 T03110200KT 10SM CLR 32/19 A2986 350 46 2400 VRB/04 RMK AO2 T03220194
53988KBKB BKB20190803175013308/03/19 17:50:31  5-MIN KBKB 032350Z AUTO VRB03KT 10SM CLR 31/20 A2987 350 51 2300 VRB/03 RMK AO2 SLP138 T03110200 10339 20311 58017
53988KBKB BKB20190803175510808/03/19 17:55:31  5-MIN KBKB 032355Z AUTO 00000KT 10SM CLR 31/19 A2987 350 49 2300 000/00 RMK AO2 T03110194
53988KBKB BKB20190803180010808/03/19 18:00:31  5-MIN KBKB 040000Z AUTO 00000KT 10SM CLR 31/19 A2987 350 51 2200 000/00 RMK AO2 T03060194
53988KBKB BKB20190803180510808/03/19 18:05:31  5-MIN KBKB 040005Z AUTO 00000KT 10SM CLR 30/21 A2987 350 56 2200 000/00 RMK AO2 T03000206
53988KBKB BKB20190803181010808/03/19 18:10:31  5-MIN KBKB 040010Z AUTO 00000KT 10SM CLR 29/21 A2987 350 60 2100 000/00 RMK AO2 T02940211
53988KBKB BKB20190803181510808/03/19 18:15:31  5-MIN KBKB 040015Z AUTO 00000KT 10SM CLR 29/21 A2987 350 60 2100 000/00 RMK AO2 T02890206
53988KBKB BKB20190803182010808/03/19 18:20:31  5-MIN KBKB 040020Z AUTO 00000KT 10SM CLR 28/21 A2987 350 64 2000 000/00 RMK AO2 T02830211
53988KBKB BKB20190803182510808/03/19 18:25:31  5-MIN KBKB 040025Z AUTO 00000KT 10SM CLR 28/21 A2987 350 62 2000 000/00 RMK AO2 T02830206
53988KBKB BKB20190803183010808/03/19 18:30:31  5-MIN KBKB 040030Z AUTO 00000KT 10SM CLR 28/21 A2987 340 64 2000 000/00 RMK AO2 T02830211
53988KBKB BKB20190803183510808/03/19 18:35:31  5-MIN KBKB 040035Z AUTO 00000KT 10SM CLR 28/21 A2987 350 66 1900 000/00 RMK AO2 T02780211
53988KBKB BKB20190803184010808/03/19 18:40:31  5-MIN KBKB 040040Z AUTO 00000KT 10SM CLR 27/21 A2987 340 69 1900 000/00 RMK AO2 T02720211
53988KBKB BKB20190803184510808/03/19 18:45:31  5-MIN KBKB 040045Z AUTO 00000KT 10SM CLR 27/21 A2987 340 69 1900 000/00 RMK AO2 T02720211
53988KBKB BKB20190803185011508/03/19 18:50:31  5-MIN KBKB 040050Z AUTO 00000KT 10SM CLR 27/22 A2987 340 71 1900 000/00 RMK AO2 SLP140 T02720217
53988KBKB BKB20190803185510808/03/19 18:55:31  5-MIN KBKB 040055Z AUTO 00000KT 10SM CLR 27/21 A2987 340 71 1800 000/00 RMK AO2 T02670211
53988KBKB BKB20190803190010808/03/19 19:00:31  5-MIN KBKB 040100Z AUTO 00000KT 10SM CLR 27/21 A2988 340 71 1800 000/00 RMK AO2 T02670211
53988KBKB BKB20190803190510808/03/19 19:05:31  5-MIN KBKB 040105Z AUTO 00000KT 10SM CLR 26/21 A2988 340 73 1700 000/00 RMK AO2 T02610211
53988KBKB BKB20190803191010808/03/19 19:10:31  5-MIN KBKB 040110Z AUTO 00000KT 10SM CLR 26/22 A2988 340 76 1700 000/00 RMK AO2 T02610217
53988KBKB BKB20190803191510808/03/19 19:15:31  5-MIN KBKB 040115Z AUTO 00000KT 10SM CLR 26/22 A2988 340 76 1700 000/00 RMK AO2 T02610217
53988KBKB BKB20190803192010808/03/19 19:20:31  5-MIN KBKB 040120Z AUTO 00000KT 10SM CLR 26/21 A2988 340 73 1700 000/00 RMK AO2 T02610211
53988KBKB BKB20190803192510808/03/19 19:25:31  5-MIN KBKB 040125Z AUTO 00000KT 10SM CLR 26/21 A2988 340 76 1700 000/00 RMK AO2 T02560211
53988KBKB BKB20190803193010808/03/19 19:30:31  5-MIN KBKB 040130Z AUTO 00000KT 10SM CLR 26/21 A2988 340 76 1700 000/00 RMK AO2 T02560211
53988KBKB BKB20190803193510808/03/19 19:35:31  5-MIN KBKB 040135Z AUTO 00000KT 10SM CLR 26/21 A2988 330 76 1700 000/00 RMK AO2 T02560211
53988KBKB BKB20190803194010808/03/19 19:40:31  5-MIN KBKB 040140Z AUTO 00000KT 10SM CLR 25/21 A2988 330 79 1600 000/00 RMK AO2 T02500211
53988KBKB BKB20190803194510808/03/19 19:45:31  5-MIN KBKB 040145Z AUTO 00000KT 10SM CLR 25/21 A2988 330 79 1600 000/00 RMK AO2 T02500211
53988KBKB BKB20190803195011508/03/19 19:50:31  5-MIN KBKB 040150Z AUTO 00000KT 10SM CLR 25/21 A2988 330 79 1600 000/00 RMK AO2 SLP145 T02500211
53988KBKB BKB20190803195510808/03/19 19:55:31  5-MIN KBKB 040155Z AUTO 00000KT 10SM CLR 25/21 A2989 330 79 1600 000/00 RMK AO2 T02500211
53988KBKB BKB20190803200010808/03/19 20:00:31  5-MIN KBKB 040200Z AUTO 00000KT 10SM CLR 25/21 A2989 330 79 1600 000/00 RMK AO2 T02500211
53988KBKB BKB20190803200510808/03/19 20:05:31  5-MIN KBKB 040205Z AUTO 00000KT 10SM CLR 24/21 A2989 320 81 1500 000/00 RMK AO2 T02440211
53988KBKB BKB20190803201010808/03/19 20:10:31  5-MIN KBKB 040210Z AUTO 00000KT 10SM CLR 24/21 A2990 320 81 1500 000/00 RMK AO2 T02440211
53988KBKB BKB20190803201510808/03/19 20:15:31  5-MIN KBKB 040215Z AUTO 00000KT 10SM CLR 24/22 A2990 320 84 1500 000/00 RMK AO2 T02440217
53988KBKB BKB20190803202010808/03/19 20:20:31  5-MIN KBKB 040220Z AUTO 00000KT 10SM CLR 24/21 A2990 320 81 1500 000/00 RMK AO2 T02440211
53988KBKB BKB20190803202510808/03/19 20:25:31  5-MIN KBKB 040225Z AUTO 00000KT 10SM CLR 24/21 A2990 320 81 1500 000/00 RMK AO2 T02440211
53988KBKB BKB20190803203010808/03/19 20:30:31  5-MIN KBKB 040230Z AUTO 00000KT 10SM CLR 24/21 A2990 310 81 1500 000/00 RMK AO2 T02440211
53988KBKB BKB20190803203510808/03/19 20:35:31  5-MIN KBKB 040235Z AUTO 00000KT 10SM CLR 24/21 A2990 310 81 1500 000/00 RMK AO2 T02440211
53988KBKB BKB20190803204010808/03/19 20:40:31  5-MIN KBKB 040240Z AUTO 00000KT 10SM CLR 24/21 A2991 310 84 1500 000/00 RMK AO2 T02390211
53988KBKB BKB20190803204510808/03/19 20:45:31  5-MIN KBKB 040245Z AUTO 00000KT 10SM CLR 24/21 A2991 310 84 1500 000/00 RMK AO2 T02390211
53988KBKB BKB20190803205012108/03/19 20:50:31  5-MIN KBKB 040250Z AUTO 00000KT 10SM CLR 24/21 A2991 310 84 1500 000/00 RMK AO2 SLP153 T02390211 56004
53988KBKB BKB20190803205510808/03/19 20:55:31  5-MIN KBKB 040255Z AUTO 00000KT 10SM CLR 24/21 A2991 310 84 1400 000/00 RMK AO2 T02390211
53988KBKB BKB20190803210010808/03/19 21:00:31  5-MIN KBKB 040300Z AUTO 00000KT 10SM CLR 24/21 A2991 310 84 1400 000/00 RMK AO2 T02390211
53988KBKB BKB20190803210510808/03/19 21:05:31  5-MIN KBKB 040305Z AUTO 00000KT 10SM CLR 24/22 A2991 300 87 1400 000/00 RMK AO2 T02390217
53988KBKB BKB20190803211010808/03/19 21:10:31  5-MIN KBKB 040310Z AUTO 00000KT 10SM CLR 24/22 A2991 300 87 1400 000/00 RMK AO2 T02390217
53988KBKB BKB20190803211510808/03/19 21:15:31  5-MIN KBKB 040315Z AUTO 00000KT 10SM CLR 24/22 A2991 300 87 1400 000/00 RMK AO2 T02390217
53988KBKB BKB20190803212010808/03/19 21:20:31  5-MIN KBKB 040320Z AUTO 00000KT 10SM CLR 24/22 A2992 300 87 1400 000/00 RMK AO2 T02390217
53988KBKB BKB20190803212510808/03/19 21:25:31  5-MIN KBKB 040325Z AUTO 00000KT 10SM CLR 24/22 A2992 300 87 1400 000/00 RMK AO2 T02390217
53988KBKB BKB20190803213010808/03/19 21:30:31  5-MIN KBKB 040330Z AUTO 00000KT 10SM CLR 23/22 A2992 300 90 1400 000/00 RMK AO2 T02330217
53988KBKB BKB20190803213510808/03/19 21:35:31  5-MIN KBKB 040335Z AUTO 00000KT 10SM CLR 24/22 A2992 300 87 1400 000/00 RMK AO2 T02390217
53988KBKB BKB20190803214010808/03/19 21:40:31  5-MIN KBKB 040340Z AUTO 00000KT 10SM CLR 24/21 A2992 300 84 1400 000/00 RMK AO2 T02390211
53988KBKB BKB20190803214510808/03/19 21:45:31  5-MIN KBKB 040345Z AUTO 00000KT 10SM CLR 23/21 A2992 300 87 1400 000/00 RMK AO2 T02330211
53988KBKB BKB20190803215011508/03/19 21:50:31  5-MIN KBKB 040350Z AUTO 00000KT 10SM CLR 23/21 A2992 300 87 1400 000/00 RMK AO2 SLP156 T02330211
53988KBKB BKB20190803215510808/03/19 21:55:31  5-MIN KBKB 040355Z AUTO 00000KT 10SM CLR 23/22 A2992 300 90 1400 000/00 RMK AO2 T02330217
53988KBKB BKB20190803220010808/03/19 22:00:31  5-MIN KBKB 040400Z AUTO 00000KT 10SM CLR 23/22 A2992 300 90 1400 000/00 RMK AO2 T02330217
53988KBKB BKB20190803220510808/03/19 22:05:31  5-MIN KBKB 040405Z AUTO 00000KT 10SM CLR 23/22 A2992 300 90 1400 000/00 RMK AO2 T02330217
53988KBKB BKB20190803221010808/03/19 22:10:31  5-MIN KBKB 040410Z AUTO 00000KT 10SM CLR 24/21 A2992 290 81 1500 000/00 RMK AO2 T02440211
53988KBKB BKB20190803221510808/03/19 22:15:31  5-MIN KBKB 040415Z AUTO 00000KT 10SM CLR 23/21 A2992 290 90 1300 000/00 RMK AO2 T02280211
53988KBKB BKB20190803222010808/03/19 22:20:31  5-MIN KBKB 040420Z AUTO 00000KT 10SM CLR 23/21 A2992 300 90 1300 000/00 RMK AO2 T02280211
53988KBKB BKB20190803222510808/03/19 22:25:31  5-MIN KBKB 040425Z AUTO 00000KT 10SM CLR 23/21 A2992 300 90 1300 000/00 RMK AO2 T02280211
53988KBKB BKB20190803223010808/03/19 22:30:31  5-MIN KBKB 040430Z AUTO 00000KT 10SM CLR 23/21 A2992 290 90 1300 000/00 RMK AO2 T02280211
53988KBKB BKB20190803223510808/03/19 22:35:31  5-MIN KBKB 040435Z AUTO 00000KT 10SM CLR 23/21 A2992 300 87 1300 000/00 RMK AO2 T02280206
53988KBKB BKB20190803224010808/03/19 22:40:31  5-MIN KBKB 040440Z AUTO 00000KT 10SM CLR 23/21 A2992 300 90 1300 000/00 RMK AO2 T02280211
53988KBKB BKB20190803224510808/03/19 22:45:31  5-MIN KBKB 040445Z AUTO 00000KT 10SM CLR 23/21 A2992 290 90 1300 000/00 RMK AO2 T02280211
53988KBKB BKB20190803225011508/03/19 22:50:31  5-MIN KBKB 040450Z AUTO 00000KT 10SM CLR 23/21 A2993 290 87 1300 000/00 RMK AO2 SLP159 T02280206
53988KBKB BKB20190803225510808/03/19 22:55:31  5-MIN KBKB 040455Z AUTO 00000KT 10SM CLR 23/21 A2993 290 90 1300 000/00 RMK AO2 T02280211
53988KBKB BKB20190803230010808/03/19 23:00:31  5-MIN KBKB 040500Z AUTO 00000KT 10SM CLR 23/21 A2993 290 90 1300 000/00 RMK AO2 T02280211
53988KBKB BKB20190803230510808/03/19 23:05:31  5-MIN KBKB 040505Z AUTO 00000KT 10SM CLR 23/21 A2993 290 90 1300 000/00 RMK AO2 T02280211
53988KBKB BKB20190803231010808/03/19 23:10:31  5-MIN KBKB 040510Z AUTO 00000KT 10SM CLR 23/21 A2993 290 90 1300 000/00 RMK AO2 T02280211
53988KBKB BKB20190803231510808/03/19 23:15:31  5-MIN KBKB 040515Z AUTO 00000KT 10SM CLR 23/21 A2993 290 87 1300 000/00 RMK AO2 T02280206
53988KBKB BKB20190803232010808/03/19 23:20:31  5-MIN KBKB 040520Z AUTO 00000KT 10SM CLR 23/21 A2993 290 87 1300 000/00 RMK AO2 T02280206
53988KBKB BKB20190803232510808/03/19 23:25:31  5-MIN KBKB 040525Z AUTO 00000KT 10SM CLR 22/21 A2993 290 90 1200 000/00 RMK AO2 T02220206
53988KBKB BKB20190803233010808/03/19 23:30:31  5-MIN KBKB 040530Z AUTO 00000KT 10SM CLR 23/21 A2993 290 87 1300 000/00 RMK AO2 T02280206
53988KBKB BKB20190803233510808/03/19 23:35:31  5-MIN KBKB 040535Z AUTO 00000KT 10SM CLR 22/21 A2993 290 90 1200 000/00 RMK AO2 T02220206
53988KBKB BKB20190803234010808/03/19 23:40:31  5-MIN KBKB 040540Z AUTO 00000KT 10SM CLR 22/21 A2993 290 90 1200 000/00 RMK AO2 T02220206
53988KBKB BKB20190803234510808/03/19 23:45:31  5-MIN KBKB 040545Z AUTO 00000KT 10SM CLR 22/21 A2993 290 90 1200 000/00 RMK AO2 T02220206
53988KBKB BKB20190803235014308/03/19 23:50:31  5-MIN KBKB 040550Z AUTO 00000KT 10SM CLR 22/21 A2993 290 90 1200 000/00 RMK AO2 SLP161 T02220206 10311 20222 403390211 53015
53988KBKB BKB20190803235510808/03/19 23:55:31  5-MIN KBKB 040555Z AUTO 00000KT 10SM CLR 22/21 A2993 290 90 1200 000/00 RMK AO2 T02220206
53988KBKB BKB20190804000010808/04/19 00:00:31  5-MIN KBKB 040600Z AUTO 00000KT 10SM CLR 22/21 A2993 290 90 1200 000/00 RMK AO2 T02220206
53988KBKB BKB20190804000510808/04/19 00:05:31  5-MIN KBKB 040605Z AUTO 00000KT 10SM CLR 22/21 A2993 290 90 1200 000/00 RMK AO2 T02220206
53988KBKB BKB20190804001010808/04/19 00:10:31  5-MIN KBKB 040610Z AUTO 00000KT 10SM CLR 22/21 A2993 290 90 1200 000/00 RMK AO2 T02220206
53988KBKB BKB20190804001510808/04/19 00:15:31  5-MIN KBKB 040615Z AUTO 00000KT 10SM CLR 22/21 A2993 290 90 1200 000/00 RMK AO2 T02220206
53988KBKB BKB20190804002010808/04/19 00:20:31  5-MIN KBKB 040620Z AUTO 00000KT 10SM CLR 22/21 A2993 290 90 1200 000/00 RMK AO2 T02220206
53988KBKB BKB20190804002510808/04/19 00:25:31  5-MIN KBKB 040625Z AUTO 00000KT 10SM CLR 22/21 A2993 290 90 1200 000/00 RMK AO2 T02220206
53988KBKB BKB20190804003010808/04/19 00:30:31  5-MIN KBKB 040630Z AUTO 00000KT 10SM CLR 23/21 A2993 290 87 1300 000/00 RMK AO2 T02280206
53988KBKB BKB20190804003510808/04/19 00:35:31  5-MIN KBKB 040635Z AUTO 00000KT 10SM CLR 23/21 A2993 290 87 1300 000/00 RMK AO2 T02280206
53988KBKB BKB20190804004010808/04/19 00:40:31  5-MIN KBKB 040640Z AUTO 00000KT 10SM CLR 23/21 A2993 290 90 1300 000/00 RMK AO2 T02280211
53988KBKB BKB20190804004510808/04/19 00:45:31  5-MIN KBKB 040645Z AUTO 00000KT 10SM CLR 23/21 A2993 290 90 1300 000/00 RMK AO2 T02280211
53988KBKB BKB20190804005011508/04/19 00:50:31  5-MIN KBKB 040650Z AUTO 00000KT 10SM CLR 23/21 A2993 290 90 1300 000/00 RMK AO2 SLP159 T02280211
53988KBKB BKB20190804005510808/04/19 00:55:31  5-MIN KBKB 040655Z AUTO 00000KT 10SM CLR 23/21 A2993 290 90 1300 000/00 RMK AO2 T02280211
53988KBKB BKB20190804010010808/04/19 01:00:31  5-MIN KBKB 040700Z AUTO 00000KT 10SM CLR 23/21 A2992 290 90 1300 000/00 RMK AO2 T02280211
53988KBKB BKB20190804010510808/04/19 01:05:31  5-MIN KBKB 040705Z AUTO 00000KT 10SM CLR 23/21 A2992 290 90 1300 000/00 RMK AO2 T02280211
53988KBKB BKB20190804011010808/04/19 01:10:31  5-MIN KBKB 040710Z AUTO 00000KT 10SM CLR 23/22 A2992 300 93 1300 000/00 RMK AO2 T02280217
53988KBKB BKB20190804011510808/04/19 01:15:31  5-MIN KBKB 040715Z AUTO 00000KT 10SM CLR 23/22 A2992 300 93 1300 000/00 RMK AO2 T02280217
53988KBKB BKB20190804012010808/04/19 01:20:31  5-MIN KBKB 040720Z AUTO 00000KT 10SM CLR 23/21 A2992 300 90 1300 000/00 RMK AO2 T02280211
53988KBKB BKB20190804012510808/04/19 01:25:31  5-MIN KBKB 040725Z AUTO 00000KT 10SM CLR 23/21 A2992 300 90 1300 000/00 RMK AO2 T02280211
53988KBKB BKB20190804013010808/04/19 01:30:31  5-MIN KBKB 040730Z AUTO 00000KT 10SM CLR 23/21 A2992 300 90 1300 000/00 RMK AO2 T02280211
53988KBKB BKB20190804013510808/04/19 01:35:31  5-MIN KBKB 040735Z AUTO 00000KT 10SM CLR 23/21 A2992 300 90 1300 000/00 RMK AO2 T02280211
53988KBKB BKB20190804014010808/04/19 01:40:31  5-MIN KBKB 040740Z AUTO 00000KT 10SM CLR 23/22 A2992 300 93 1300 000/00 RMK AO2 T02280217
53988KBKB BKB20190804014510808/04/19 01:45:31  5-MIN KBKB 040745Z AUTO 00000KT 10SM CLR 23/21 A2992 300 90 1300 000/00 RMK AO2 T02280211
53988KBKB BKB20190804015011508/04/19 01:50:31  5-MIN KBKB 040750Z AUTO 00000KT 10SM CLR 23/22 A2992 300 93 1300 000/00 RMK AO2 SLP156 T02280217
53988KBKB BKB20190804015510808/04/19 01:55:31  5-MIN KBKB 040755Z AUTO 00000KT 10SM CLR 23/22 A2992 300 93 1300 000/00 RMK AO2 T02280217
53988KBKB BKB20190804020010808/04/19 02:00:31  5-MIN KBKB 040800Z AUTO 00000KT 10SM CLR 23/22 A2992 300 93 1300 000/00 RMK AO2 T02280217
53988KBKB BKB20190804020510808/04/19 02:05:31  5-MIN KBKB 040805Z AUTO 00000KT 10SM CLR 23/22 A2992 300 93 1300 000/00 RMK AO2 T02280217
53988KBKB BKB20190804021010808/04/19 02:10:31  5-MIN KBKB 040810Z AUTO 00000KT 10SM CLR 23/22 A2992 300 93 1300 000/00 RMK AO2 T02280217
53988KBKB BKB20190804021510808/04/19 02:15:31  5-MIN KBKB 040815Z AUTO 00000KT 10SM CLR 23/21 A2992 300 90 1300 000/00 RMK AO2 T02280211
53988KBKB BKB20190804022010808/04/19 02:20:31  5-MIN KBKB 040820Z AUTO 00000KT 10SM CLR 23/21 A2992 300 90 1300 000/00 RMK AO2 T02280211
53988KBKB BKB20190804022510808/04/19 02:25:31  5-MIN KBKB 040825Z AUTO 00000KT 10SM CLR 23/21 A2992 300 90 1300 000/00 RMK AO2 T02280211
53988KBKB BKB20190804023010808/04/19 02:30:31  5-MIN KBKB 040830Z AUTO 00000KT 10SM CLR 23/21 A2992 300 90 1300 000/00 RMK AO2 T02280211
53988KBKB BKB20190804023510808/04/19 02:35:31  5-MIN KBKB 040835Z AUTO 00000KT 10SM CLR 23/21 A2992 300 90 1300 000/00 RMK AO2 T02280211
53988KBKB BKB20190804024009508/04/19 02:40:31  5-MIN KBKB 040840Z AUTO 00000KT 9SM CLR 290 93 1300 000/00 RMK AO2 T02280217
53988KBKB BKB20190804031010708/04/19 03:10:31  5-MIN KBKB 040910Z AUTO 00000KT 9SM CLR 23/22 A2993 290 93 1300 000/00 RMK AO2 T02280217
53988KBKB BKB20190804031510708/04/19 03:15:31  5-MIN KBKB 040915Z AUTO 00000KT 9SM CLR 23/22 A2993 290 93 1300 000/00 RMK AO2 T02280217
53988KBKB BKB20190804032010708/04/19 03:20:31  5-MIN KBKB 040920Z AUTO 00000KT 8SM CLR 23/22 A2993 290 93 1300 000/00 RMK AO2 T02280217
53988KBKB BKB20190804032510708/04/19 03:25:31  5-MIN KBKB 040925Z AUTO 00000KT 8SM CLR 23/22 A2993 290 93 1300 000/00 RMK AO2 T02280217
53988KBKB BKB20190804033010708/04/19 03:30:31  5-MIN KBKB 040930Z AUTO 00000KT 8SM CLR 23/22 A2993 290 93 1300 000/00 RMK AO2 T02280217
53988KBKB BKB20190804033510708/04/19 03:35:31  5-MIN KBKB 040935Z AUTO 00000KT 8SM CLR 23/22 A2993 290 93 1300 000/00 RMK AO2 T02280217
53988KBKB BKB20190804034006608/04/19 03:40:31  5-MIN KBKB 040940Z AUTO 00000 RMK AO2 T02280217
53988KBKB BKB20190804034010708/04/19 03:40:31  5-MIN KBKB 040940Z AUTO 00000KT 8SM CLR 23/22 A2993 290 93 1300 000/00 RMK AO2 T02280217
53988KBKB BKB20190804034510708/04/19 03:45:31  5-MIN KBKB 040945Z AUTO 00000KT 8SM CLR 23/22 A2993 290 93 1300 000/00 RMK AO2 T02280217
53988KBKB BKB20190804035011408/04/19 03:50:31  5-MIN KBKB 040950Z AUTO 00000KT 8SM CLR 23/22 A2993 290 93 1300 000/00 RMK AO2 SLP159 T02280217
53988KBKB BKB20190804035510708/04/19 03:55:31  5-MIN KBKB 040955Z AUTO 00000KT 8SM CLR 23/22 A2993 290 93 1300 000/00 RMK AO2 T02280217
53988KBKB BKB20190804040010708/04/19 04:00:31  5-MIN KBKB 041000Z AUTO 00000KT 8SM CLR 23/22 A2993 290 93 1300 000/00 RMK AO2 T02280217
53988KBKB BKB20190804040510708/04/19 04:05:31  5-MIN KBKB 041005Z AUTO 00000KT 9SM CLR 23/22 A2993 290 93 1300 000/00 RMK AO2 T02280217
53988KBKB BKB20190804041010708/04/19 04:10:31  5-MIN KBKB 041010Z AUTO 00000KT 9SM CLR 23/22 A2993 290 93 1300 000/00 RMK AO2 T02280217
53988KBKB BKB20190804041510708/04/19 04:15:31  5-MIN KBKB 041015Z AUTO 00000KT 9SM CLR 23/22 A2993 290 93 1300 000/00 RMK AO2 T02280217
53988KBKB BKB20190804042010708/04/19 04:20:31  5-MIN KBKB 041020Z AUTO 00000KT 9SM CLR 23/22 A2993 290 93 1300 000/00 RMK AO2 T02280217
53988KBKB BKB20190804042510708/04/19 04:25:31  5-MIN KBKB 041025Z AUTO 00000KT 8SM CLR 23/22 A2993 290 93 1300 000/00 RMK AO2 T02280217
53988KBKB BKB20190804043010708/04/19 04:30:31  5-MIN KBKB 041030Z AUTO 00000KT 7SM CLR 23/22 A2993 290 93 1300 000/00 RMK AO2 T02280217
53988KBKB BKB20190804043510708/04/19 04:35:31  5-MIN KBKB 041035Z AUTO 00000KT 7SM CLR 23/22 A2993 290 93 1300 000/00 RMK AO2 T02280217
53988KBKB BKB20190804044010708/04/19 04:40:31  5-MIN KBKB 041040Z AUTO 00000KT 7SM CLR 23/22 A2993 290 93 1300 000/00 RMK AO2 T02280217
53988KBKB BKB20190804044510708/04/19 04:45:31  5-MIN KBKB 041045Z AUTO 00000KT 7SM CLR 23/22 A2993 290 93 1300 000/00 RMK AO2 T02280217
53988KBKB BKB20190804045011408/04/19 04:50:31  5-MIN KBKB 041050Z AUTO 00000KT 7SM CLR 23/22 A2993 290 93 1300 000/00 RMK AO2 SLP159 T02280217
53988KBKB BKB20190804045511008/04/19 04:55:31  5-MIN KBKB 041055Z AUTO 00000KT 6SM BR CLR 23/22 A2993 290 93 1300 000/00 RMK AO2 T02280217
53988KBKB BKB20190804050011008/04/19 05:00:31  5-MIN KBKB 041100Z AUTO 00000KT 6SM BR CLR 22/22 A2993 290 97 1200 000/00 RMK AO2 T02220217
53988KBKB BKB20190804050511008/04/19 05:05:31  5-MIN KBKB 041105Z AUTO 00000KT 6SM BR CLR 22/21 A2993 290 93 1200 000/00 RMK AO2 T02220211
53988KBKB BKB20190804051011008/04/19 05:10:31  5-MIN KBKB 041110Z AUTO 00000KT 5SM BR CLR 22/21 A2993 290 93 1200 000/00 RMK AO2 T02220211
53988KBKB BKB20190804051511008/04/19 05:15:31  5-MIN KBKB 041115Z AUTO 00000KT 5SM BR CLR 22/21 A2993 290 93 1200 000/00 RMK AO2 T02220211
53988KBKB BKB20190804052011008/04/19 05:20:31  5-MIN KBKB 041120Z AUTO 00000KT 5SM BR CLR 22/21 A2993 290 93 1200 000/00 RMK AO2 T02220211
53988KBKB BKB20190804052511008/04/19 05:25:31  5-MIN KBKB 041125Z AUTO 00000KT 5SM BR CLR 22/21 A2993 290 93 1200 000/00 RMK AO2 T02220211
53988KBKB BKB20190804053011008/04/19 05:30:31  5-MIN KBKB 041130Z AUTO 00000KT 4SM BR CLR 22/21 A2993 290 93 1200 000/00 RMK AO2 T02220211
53988KBKB BKB20190804053511008/04/19 05:35:31  5-MIN KBKB 041135Z AUTO 00000KT 3SM BR CLR 22/21 A2993 290 93 1200 000/00 RMK AO2 T02220211
53988KBKB BKB20190804054011008/04/19 05:40:31  5-MIN KBKB 041140Z AUTO 00000KT 3SM BR CLR 22/21 A2993 290 93 1200 000/00 RMK AO2 T02220211
53988KBKB BKB20190804054511008/04/19 05:45:31  5-MIN KBKB 041145Z AUTO 00000KT 3SM BR CLR 22/21 A2993 290 93 1200 000/00 RMK AO2 T02220211
53988KBKB BKB20190804055007508/04/19 05:50:31  5-MIN KBKB 041150Z AUTO 00000K0 000/00 RMK AO2 T02390228
53988KBKB BKB20190804060511008/04/19 06:05:31  5-MIN KBKB 041205Z AUTO 00000KT 3SM BR CLR 22/21 A2994 280 93 1200 000/00 RMK AO2 T02220211
53988KBKB BKB20190804061011008/04/19 06:10:31  5-MIN KBKB 041210Z AUTO 00000KT 3SM BR CLR 22/22 A2994 280 97 1200 000/00 RMK AO2 T02220217
53988KBKB BKB20190804061511008/04/19 06:15:31  5-MIN KBKB 041215Z AUTO 00000KT 4SM BR CLR 22/22 A2994 280 97 1200 000/00 RMK AO2 T02220217
53988KBKB BKB20190804062011008/04/19 06:20:31  5-MIN KBKB 041220Z AUTO 00000KT 4SM BR CLR 23/22 A2994 280 93 1300 000/00 RMK AO2 T02280217
53988KBKB BKB20190804062511008/04/19 06:25:31  5-MIN KBKB 041225Z AUTO 00000KT 5SM BR CLR 23/22 A2994 280 93 1300 000/00 RMK AO2 T02280217
53988KBKB BKB20190804063011008/04/19 06:30:31  5-MIN KBKB 041230Z AUTO 00000KT 6SM BR CLR 23/22 A2995 270 93 1300 000/00 RMK AO2 T02330222
53988KBKB BKB20190804063510708/04/19 06:35:31  5-MIN KBKB 041235Z AUTO 00000KT 7SM CLR 23/22 A2995 270 93 1300 000/00 RMK AO2 T02330222
53988KBKB BKB20190804064010708/04/19 06:40:31  5-MIN KBKB 041240Z AUTO 00000KT 7SM CLR 23/22 A2995 270 93 1300 000/00 RMK AO2 T02330222
53988KBKB BKB20190804064510708/04/19 06:45:31  5-MIN KBKB 041245Z AUTO 00000KT 7SM CLR 23/22 A2995 270 93 1300 000/00 RMK AO2 T02330222
53988KBKB BKB20190804065011408/04/19 06:50:31  5-MIN KBKB 041250Z AUTO 00000KT 7SM CLR 23/22 A2995 270 93 1300 000/00 RMK AO2 SLP168 T02330222
53988KBKB BKB20190804065510708/04/19 06:55:31  5-MIN KBKB 041255Z AUTO 00000KT 7SM CLR 24/23 A2995 270 93 1400 000/00 RMK AO2 T02390228
53988KBKB BKB20190804070010708/04/19 07:00:31  5-MIN KBKB 041300Z AUTO 00000KT 8SM CLR 24/23 A2995 270 90 1500 000/00 RMK AO2 T02440228
53988KBKB BKB20190804070510708/04/19 07:05:31  5-MIN KBKB 041305Z AUTO 00000KT 9SM CLR 25/23 A2995 270 87 1500 000/00 RMK AO2 T02500228
53988KBKB BKB20190804071010808/04/19 07:10:31  5-MIN KBKB 041310Z AUTO 00000KT 10SM CLR 26/23 A2995 270 84 1600 000/00 RMK AO2 T02560228
53988KBKB BKB20190804071510808/04/19 07:15:31  5-MIN KBKB 041315Z AUTO 00000KT 10SM CLR 26/23 A2995 270 81 1700 000/00 RMK AO2 T02610228
53988KBKB BKB20190804072010808/04/19 07:20:31  5-MIN KBKB 041320Z AUTO 00000KT 10SM CLR 26/23 A2996 270 84 1700 000/00 RMK AO2 T02610233
53988KBKB BKB20190804072510808/04/19 07:25:31  5-MIN KBKB 041325Z AUTO 00000KT 10SM CLR 27/23 A2996 270 79 1700 000/00 RMK AO2 T02670228
53988KBKB BKB20190804073010808/04/19 07:30:31  5-MIN KBKB 041330Z AUTO 00000KT 10SM CLR 27/22 A2996 260 74 1800 000/00 RMK AO2 T02720222
53988KBKB BKB20190804073510808/04/19 07:35:31  5-MIN KBKB 041335Z AUTO 00000KT 10SM CLR 27/23 A2996 260 76 1800 000/00 RMK AO2 T02720228
53988KBKB BKB20190804074010808/04/19 07:40:31  5-MIN KBKB 041340Z AUTO 00000KT 10SM CLR 27/23 A2996 260 76 1800 000/00 RMK AO2 T02720228
53988KBKB BKB20190804074510808/04/19 07:45:31  5-MIN KBKB 041345Z AUTO 00000KT 10SM CLR 28/23 A2996 260 74 1800 000/00 RMK AO2 T02780228
53988KBKB BKB20190804075011508/04/19 07:50:31  5-MIN KBKB 041350Z AUTO 00000KT 10SM CLR 28/23 A2996 260 74 1800 000/00 RMK AO2 SLP170 T02780228
53988KBKB BKB20190804075510808/04/19 07:55:31  5-MIN KBKB 041355Z AUTO 00000KT 10SM CLR 28/23 A2996 260 74 1900 000/00 RMK AO2 T02830233
53988KBKB BKB20190804080010808/04/19 08:00:31  5-MIN KBKB 041400Z AUTO 00000KT 10SM CLR 28/23 A2996 260 74 1900 000/00 RMK AO2 T02830233
53988KBKB BKB20190804080510808/04/19 08:05:31  5-MIN KBKB 041405Z AUTO 00000KT 10SM CLR 28/23 A2996 260 74 1900 000/00 RMK AO2 T02830233
53988KBKB BKB20190804081010808/04/19 08:10:31  5-MIN KBKB 041410Z AUTO 00000KT 10SM CLR 28/23 A2996 260 74 1900 000/00 RMK AO2 T02830233
53988KBKB BKB20190804081510808/04/19 08:15:31  5-MIN KBKB 041415Z AUTO 00000KT 10SM CLR 29/23 A2996 260 71 2000 000/00 RMK AO2 T02890233
53988KBKB BKB20190804082010808/04/19 08:20:31  5-MIN KBKB 041420Z AUTO 00000KT 10SM CLR 29/23 A2996 260 69 2000 000/00 RMK AO2 T02940233
53988KBKB BKB20190804082510808/04/19 08:25:31  5-MIN KBKB 041425Z AUTO 00000KT 10SM CLR 29/23 A2996 260 69 2000 000/00 RMK AO2 T02940233
53988KBKB BKB20190804083010808/04/19 08:30:31  5-MIN KBKB 041430Z AUTO 22003KT 10SM CLR 29/24 A2996 260 71 2000 220/03 RMK AO2 T02940239
53988KBKB BKB20190804083510808/04/19 08:35:31  5-MIN KBKB 041435Z AUTO 15003KT 10SM CLR 29/23 A2996 260 69 2000 140/03 RMK AO2 T02940233
53988KBKB BKB20190804084010808/04/19 08:40:31  5-MIN KBKB 041440Z AUTO 00000KT 10SM CLR 30/24 A2996 260 69 2100 000/00 RMK AO2 T03000239
53988KBKB BKB20190804084510808/04/19 08:45:31  5-MIN KBKB 041445Z AUTO 00000KT 10SM CLR 31/24 A2996 260 67 2100 000/00 RMK AO2 T03060239
53988KBKB BKB20190804085012108/04/19 08:50:31  5-MIN KBKB 041450Z AUTO 00000KT 10SM CLR 30/23 A2996 260 67 2100 000/00 RMK AO2 SLP170 T03000233 53004
53988KBKB BKB20190804085510808/04/19 08:55:31  5-MIN KBKB 041455Z AUTO 00000KT 10SM CLR 31/24 A2996 260 67 2100 000/00 RMK AO2 T03060239
53988KBKB BKB20190804090010808/04/19 09:00:31  5-MIN KBKB 041500Z AUTO 00000KT 10SM CLR 31/24 A2996 260 67 2100 000/00 RMK AO2 T03060239
53988KBKB BKB20190804090510808/04/19 09:05:31  5-MIN KBKB 041505Z AUTO VRB03KT 10SM CLR 31/24 A2996 260 65 2200 VRB/03 RMK AO2 T03110239
53988KBKB BKB20190804091011108/04/19 09:10:31  5-MIN KBKB 041510Z AUTO 00000KT 10SM FEW024 31/24 A2996 260 65 2200 000/00 RMK AO2 T03110239
53988KBKB BKB20190804091510808/04/19 09:15:31  5-MIN KBKB 041515Z AUTO 00000KT 10SM CLR 31/23 A2996 260 65 2100 000/00 RMK AO2 T03060233
53988KBKB BKB20190804092010808/04/19 09:20:31  5-MIN KBKB 041520Z AUTO 00000KT 10SM CLR 31/23 A2996 260 63 2200 000/00 RMK AO2 T03110233
53988KBKB BKB20190804092510808/04/19 09:25:31  5-MIN KBKB 041525Z AUTO 00000KT 10SM CLR 31/24 A2996 260 65 2200 000/00 RMK AO2 T03110239
53988KBKB BKB20190804093010808/04/19 09:30:31  5-MIN KBKB 041530Z AUTO VRB03KT 10SM CLR 32/24 A2996 260 63 2300 VRB/03 RMK AO2 T03170239
53988KBKB BKB20190804093510808/04/19 09:35:31  5-MIN KBKB 041535Z AUTO 00000KT 10SM CLR 31/24 A2996 260 65 2200 000/00 RMK AO2 T03110239
53988KBKB BKB20190804094010808/04/19 09:40:31  5-MIN KBKB 041540Z AUTO 00000KT 10SM CLR 32/24 A2996 260 63 2300 000/00 RMK AO2 T03170239
53988KBKB BKB20190804094510808/04/19 09:45:31  5-MIN KBKB 041545Z AUTO 00000KT 10SM CLR 32/23 A2996 260 61 2300 000/00 RMK AO2 T03170233
53988KBKB BKB20190804095011508/04/19 09:50:31  5-MIN KBKB 041550Z AUTO 22003KT 10SM CLR 31/23 A2996 260 60 2200 220/03 RMK AO2 SLP170 T03110228
53988KBKB BKB20190804095512508/04/19 09:55:31  5-MIN KBKB 041555Z AUTO 00000KT 10SM FEW030 FEW039 SCT048 31/23 A2996 260 65 2100 000/00 RMK AO2 T03060233
53988KBKB BKB20190804100012508/04/19 10:00:31  5-MIN KBKB 041600Z AUTO 00000KT 10SM FEW032 SCT040 BKN047 31/23 A2996 260 65 2100 000/00 RMK AO2 T03060233
53988KBKB BKB20190804100512508/04/19 10:05:31  5-MIN KBKB 041605Z AUTO 00000KT 10SM FEW032 SCT040 SCT047 31/24 A2996 260 65 2200 000/00 RMK AO2 T03110239
53988KBKB BKB20190804101012508/04/19 10:10:31  5-MIN KBKB 041610Z AUTO 00000KT 10SM FEW032 FEW040 SCT047 31/24 A2996 260 65 2200 000/00 RMK AO2 T03110239
53988KBKB BKB20190804101512508/04/19 10:15:31  5-MIN KBKB 041615Z AUTO 00000KT 10SM FEW031 SCT047 SCT055 31/23 A2996 260 63 2200 000/00 RMK AO2 T03110233
53988KBKB BKB20190804102012508/04/19 10:20:31  5-MIN KBKB 041620Z AUTO 00000KT 10SM FEW031 SCT040 BKN049 31/23 A2996 260 60 2200 000/00 RMK AO2 T03110228
53988KBKB BKB20190804102511808/04/19 10:25:31  5-MIN KBKB 041625Z AUTO 00000KT 10SM SCT036 BKN049 32/23 A2996 260 61 2300 000/00 RMK AO2 T03170233
53988KBKB BKB20190804103011808/04/19 10:30:31  5-MIN KBKB 041630Z AUTO 00000KT 10SM BKN036 BKN049 31/23 A2996 260 63 2200 000/00 RMK AO2 T03110233
53988KBKB BKB20190804103511808/04/19 10:35:31  5-MIN KBKB 041635Z AUTO 00000KT 10SM BKN034 BKN049 31/23 A2996 260 63 2200 000/00 RMK AO2 T03110233
53988KBKB BKB20190804104011808/04/19 10:40:31  5-MIN KBKB 041640Z AUTO 00000KT 10SM BKN034 OVC049 31/24 A2996 260 65 2200 000/00 RMK AO2 T03110239
53988KBKB BKB20190804104511808/04/19 10:45:31  5-MIN KBKB 041645Z AUTO 00000KT 10SM BKN034 OVC047 31/23 A2996 260 63 2200 000/00 RMK AO2 T03110233
53988KBKB BKB20190804105011808/04/19 10:50:31  5-MIN KBKB 041650Z AUTO VRB03KT 10SM OVC034 31/23 A2996 260 65 2100 VRB/03 RMK AO2 SLP169 T03060233
53988KBKB BKB20190804105511108/04/19 10:55:31  5-MIN KBKB 041655Z AUTO VRB03KT 10SM OVC034 30/24 A2996 260 69 2100 VRB/03 RMK AO2 T03000239
53988KBKB BKB20190804110014108/04/19 11:00:31  5-MIN KBKB 041700Z AUTO 00000KT 3SM RA FEW029 BKN034 OVC050 27/23 A2996 260 76 1800 000/00 RMK AO2 RAB1656 P0003 T02720228
53988KBKB BKB20190804110514508/04/19 11:05:31  5-MIN KBKB 041705Z AUTO 00000KT 1SM +RA BR BKN033 BKN041 OVC050 26/23 A2996 270 87 1600 000/00 RMK AO2 RAB1656 P0011 T02560233
53988KBKB BKB20190804111014508/04/19 11:10:31  5-MIN KBKB 041710Z AUTO 00000KT 1SM -RA BR SCT033 BKN041 OVC080 25/24 A2996 260 93 1500 000/00 RMK AO2 RAB1656 P0012 T02500239
53988KBKB BKB20190804111514908/04/19 11:15:31  5-MIN KBKB 041715Z AUTO 00000KT 2 1/2SM -RA BR SCT033 BKN044 OVC080 26/23 A2996 260 87 1600 000/00 RMK AO2 RAB1656 P0012 T02560233
53988KBKB BKB20190804112014508/04/19 11:20:31  5-MIN KBKB 041720Z AUTO 00000KT 6SM -RA BR FEW031 BKN048 OVC075 26/24 A2996 260 90 1600 000/00 RMK AO2 RAB1656 P0013 T02610244
53988KBKB BKB20190804112514508/04/19 11:25:31  5-MIN KBKB 041725Z AUTO VRB04KT 6SM -RA BR FEW036 SCT049 OVC080 26/24 A2996 270 90 1700 VRB/04 RMK AO2 RAB1656 P0013 T02610244
53988KBKB BKB20190804113014208/04/19 11:30:31  5-MIN KBKB 041730Z AUTO 00000KT 7SM -RA FEW049 SCT070 OVC080 26/24 A2995 270 90 1700 000/00 RMK AO2 RAB1656 P0013 T02610244
53988KBKB BKB20190804113513608/04/19 11:35:31  5-MIN KBKB 041735Z AUTO 00000KT 10SM -RA FEW050 OVC080 26/24 A2995 270 87 1700 000/00 RMK AO2 RAB1656 P0013 T02610239
53988KBKB BKB20190804114014008/04/19 11:40:31  5-MIN KBKB 041740Z AUTO 00000KT 10SM VCTS FEW070 OVC085 26/24 A2996 260 87 1600 000/00 RMK AO2 RAB1656E36 P0013 T02610239
53988KBKB BKB20190804114514708/04/19 11:45:31  5-MIN KBKB 041745Z AUTO 00000KT 10SM VCTS FEW065 SCT080 OVC090 27/24 A2996 260 87 1700 000/00 RMK AO2 RAB1656E36 P0013 T02670244
53988KBKB BKB20190804115012708/04/19 11:50:31  5-MIN KBKB 041750Z AUTO VRB03KT 10SM TS OVC090 27/24 A2996 270 87 1700 VRB/03 RMK AO2 RAB1656E36 TSB49 P0013
53988KBKB BKB20190804115511408/04/19 11:55:31  5-MIN KBKB 041755Z AUTO VRB03KT 10SM TS BKN090 27/24 A2996 270 84 1800 VRB/03 RMK AO2 T02720244
53988KBKB BKB20190804120012108/04/19 12:00:31  5-MIN KBKB 041800Z AUTO VRB03KT 10SM TS FEW033 BKN090 27/24 A2996 260 84 1800 VRB/03 RMK AO2 T02720244
53988KBKB BKB20190804120511108/04/19 12:05:31  5-MIN KBKB 041805Z AUTO 10SM TS SCT033 BKN095 27/23 A2996 260 79 1700 M /M RMK AO2 T02670228
53988KBKB BKB20190804121012808/04/19 12:10:31  5-MIN KBKB 041810Z AUTO VRB04KT 10SM TS BKN035 BKN050 BKN095 26/22 A2995 270 79 1600 VRB/04 RMK AO2 T02560217
53988KBKB BKB20190804121512808/04/19 12:15:31  5-MIN KBKB 041815Z AUTO VRB03KT 10SM TS SCT035 BKN050 BKN070 26/22 A2995 270 81 1600 VRB/03 RMK AO2 T02560222
53988KBKB BKB20190804122014808/04/19 12:20:31  5-MIN KBKB 041820Z AUTO 00000KT 8SM -TSRA SCT035 BKN048 BKN070 26/23 A2995 270 84 1600 000/00 RMK AO2 RAB17 TSB20 P0001 T02560228
53988KBKB BKB20190804122514808/04/19 12:25:31  5-MIN KBKB 041825Z AUTO 13003KT 8SM -TSRA FEW033 BKN041 OVC080 25/23 A2996 260 87 1500 130/03 RMK AO2 RAB17 TSB20 P0001 T02500228
53988KBKB BKB20190804123014908/04/19 12:30:31  5-MIN KBKB 041830Z AUTO 09004KT 10SM -TSRA BKN038 BKN047 OVC095 25/23 A2996 260 87 1500 090/04 RMK AO2 RAB17 TSB20 P0001 T02500228
53988KBKB BKB20190804123514908/04/19 12:35:31  5-MIN KBKB 041835Z AUTO VRB03KT 10SM -TSRA SCT041 BKN075 OVC095 26/23 A2996 260 84 1600 VRB/03 RMK AO2 RAB17 TSB20 P0001 T02610233
53988KBKB BKB20190804124014908/04/19 12:40:31  5-MIN KBKB 041840Z AUTO 26005KT 10SM -TSRA SCT041 BKN065 BKN080 27/24 A2996 260 84 1800 250/05 RMK AO2 RAB17 TSB20 P0001 T02720244
53988KBKB BKB20190804124507908/04/19 12:45:31  5-MIN KBKB 041845Z AUTO VRB04KT 10SM TS SCT041 BKN047 780233
53988KBKB BKB20190804132511708/04/19 13:25:31  5-MIN KBKB 041925Z AUTO VRB03KT 10SM CLR 29/23 A2994 280 71 2000 VRB/03 RMK AO2 TSB00E16 T02890233
53988KBKB BKB20190804133011708/04/19 13:30:31  5-MIN KBKB 041930Z AUTO VRB03KT 10SM CLR 28/23 A2994 280 74 1900 VRB/03 RMK AO2 TSB00E16 T02830233
53988KBKB BKB20190804133511708/04/19 13:35:31  5-MIN KBKB 041935Z AUTO VRB03KT 10SM CLR 28/23 A2993 290 74 1900 VRB/03 RMK AO2 TSB00E16 T02830233
53988KBKB BKB20190804134011708/04/19 13:40:31  5-MIN KBKB 041940Z AUTO VRB03KT 10SM CLR 28/23 A2993 290 74 1900 VRB/03 RMK AO2 TSB00E16 T02830233
53988KBKB BKB20190804134511708/04/19 13:45:31  5-MIN KBKB 041945Z AUTO VRB03KT 10SM CLR 28/23 A2993 290 74 1900 VRB/03 RMK AO2 TSB00E16 T02830233
53988KBKB BKB20190804134514508/04/19 13:45:31  5-MIN KBKB 041945Z AUTO VRB03KT 10SM CLR 28/23 A2993 290 74 1900 VRB/03 RMK AO2 TSB00E16 T028302303 RMK AO2 TSB00E16 T02890233
53988KBKB BKB20190804135012408/04/19 13:50:31  5-MIN KBKB 041950Z AUTO VRB03KT 10SM CLR 28/23 A2993 290 74 1900 VRB/03 RMK AO2 TSB00E16 SLP160 T02830233
53988KBKB BKB20190804135510808/04/19 13:55:31  5-MIN KBKB 041955Z AUTO VRB04KT 10SM CLR 29/23 A2993 290 71 2000 VRB/04 RMK AO2 T02890233
53988KBKB BKB20190804135513708/04/19 13:55:31  5-MIN KBKB 041955Z AUTO VRB04KT 10SM CLR 29/23 A2993 290 71 2000 VRB/04 RMK AO2 T0289023303 RMK AO2 TSB00E16 T02830233
53988KBKB BKB20190804140010808/04/19 14:00:31  5-MIN KBKB 042000Z AUTO VRB03KT 10SM CLR 29/23 A2992 290 69 2000 VRB/03 RMK AO2 T02890228
53988KBKB BKB20190804140510808/04/19 14:05:31  5-MIN KBKB 042005Z AUTO VRB03KT 10SM CLR 29/23 A2992 300 71 2000 VRB/03 RMK AO2 T02890233
53988KBKB BKB20190804141010808/04/19 14:10:31  5-MIN KBKB 042010Z AUTO 00000KT 10SM CLR 29/23 A2992 300 69 2000 000/00 RMK AO2 T02890228
53988KBKB BKB20190804141510808/04/19 14:15:31  5-MIN KBKB 042015Z AUTO VRB03KT 10SM CLR 29/23 A2992 300 69 2100 VRB/03 RMK AO2 T02940233
53988KBKB BKB20190804142010808/04/19 14:20:31  5-MIN KBKB 042020Z AUTO VRB03KT 10SM CLR 29/23 A2992 300 69 2100 VRB/03 RMK AO2 T02940233
53988KBKB BKB20190804142510808/04/19 14:25:31  5-MIN KBKB 042025Z AUTO VRB03KT 10SM CLR 29/23 A2991 300 67 2100 VRB/03 RMK AO2 T02940228
53988KBKB BKB20190804143010808/04/19 14:30:31  5-MIN KBKB 042030Z AUTO 00000KT 10SM CLR 29/23 A2991 310 69 2100 000/00 RMK AO2 T02940233
53988KBKB BKB20190804143510808/04/19 14:35:31  5-MIN KBKB 042035Z AUTO VRB03KT 10SM CLR 30/23 A2991 310 67 2100 VRB/03 RMK AO2 T03000233
53988KBKB BKB20190804144010808/04/19 14:40:31  5-MIN KBKB 042040Z AUTO VRB03KT 10SM CLR 31/23 A2991 310 65 2200 VRB/03 RMK AO2 T03060233
53988KBKB BKB20190804144510808/04/19 14:45:31  5-MIN KBKB 042045Z AUTO 00000KT 10SM CLR 31/23 A2991 310 65 2200 000/00 RMK AO2 T03060233
53988KBKB BKB20190804145012708/04/19 14:50:31  5-MIN KBKB 042050Z AUTO VRB03KT 10SM CLR 31/23 A2990 310 63 2300 VRB/03 RMK AO2 SLP151 60001 T03110233 58002
53988KBKB BKB20190804145510808/04/19 14:55:31  5-MIN KBKB 042055Z AUTO 00000KT 10SM CLR 31/23 A2990 310 63 2300 000/00 RMK AO2 T03110233
53988KBKB BKB20190804150009808/04/19 15:00:31  5-MIN KBKB 042100Z AUTO 10SM CLR 31/23 A2990 310 63 2300 M /M RMK AO2 T03110233
53988KBKB BKB20190804150510808/04/19 15:05:31  5-MIN KBKB 042105Z AUTO 28003KT 10SM CLR 32/23 A2990 310 58 2300 270/03 RMK AO2 T03170228
53988KBKB BKB20190804151010808/04/19 15:10:31  5-MIN KBKB 042110Z AUTO VRB03KT 10SM CLR 32/23 A2990 310 58 2300 VRB/03 RMK AO2 T03170228
53988KBKB BKB20190804151511108/04/19 15:15:31  5-MIN KBKB 042115Z AUTO 00000KT 10SM FEW100 32/23 A2991 310 61 2300 000/00 RMK AO2 T03170233
53988KBKB BKB20190804152011108/04/19 15:20:31  5-MIN KBKB 042120Z AUTO VRB03KT 10SM FEW100 31/23 A2991 310 63 2300 VRB/03 RMK AO2 T03110233
53988KBKB BKB20190804152511108/04/19 15:25:31  5-MIN KBKB 042125Z AUTO VRB03KT 10SM SCT100 31/23 A2991 310 63 2300 VRB/03 RMK AO2 T03110233
53988KBKB BKB20190804153014708/04/19 15:30:31  5-MIN KBKB 042130Z AUTO 23003KT 10SM BKN100 31/23 A2991 310 60 2300 220/03 RMK AO2 T03110228320 69 2100 000/00 RMK AO2 T03000239
53988KBKB BKB20190804170510808/04/19 17:05:31  5-MIN KBKB 042305Z AUTO 00000KT 10SM CLR 31/24 A2990 320 65 2300 000/00 RMK AO2 T03110239
53988KBKB BKB20190804171011108/04/19 17:10:31  5-MIN KBKB 042310Z AUTO 00000KT 10SM FEW100 31/24 A2990 320 67 2200 000/00 RMK AO2 T03060239
53988KBKB BKB20190804171511108/04/19 17:15:31  5-MIN KBKB 042315Z AUTO 22003KT 10SM SCT100 31/24 A2990 320 69 2200 220/03 RMK AO2 T03060244
53988KBKB BKB20190804172011108/04/19 17:20:31  5-MIN KBKB 042320Z AUTO 00000KT 10SM SCT100 30/24 A2990 320 69 2100 000/00 RMK AO2 T03000239
53988KBKB BKB20190804172511108/04/19 17:25:31  5-MIN KBKB 042325Z AUTO 00000KT 10SM BKN100 30/24 A2990 320 69 2100 000/00 RMK AO2 T03000239
53988KBKB BKB20190804173011108/04/19 17:30:31  5-MIN KBKB 042330Z AUTO 00000KT 10SM BKN100 30/24 A2990 320 72 2100 000/00 RMK AO2 T03000244
53988KBKB BKB20190804173511108/04/19 17:35:31  5-MIN KBKB 042335Z AUTO 00000KT 10SM BKN100 30/24 A2990 320 72 2100 000/00 RMK AO2 T03000244
53988KBKB BKB20190804174011108/04/19 17:40:31  5-MIN KBKB 042340Z AUTO 00000KT 10SM SCT100 30/24 A2990 320 72 2100 000/00 RMK AO2 T03000244
53988KBKB BKB20190804174016108/04/19 17:40:31  5-MIN KBKB 042340Z AUTO 00000KT 10SM SCT100 30/24 A2990 320 72 2100 0AUTO 00000KT 10SM SCT100 30/24 A2990 320 69 2100 000/00 RMK AO2 T03000239
53988KBKB BKB20190804174511108/04/19 17:45:31  5-MIN KBKB 042345Z AUTO 00000KT 10SM FEW100 30/24 A2990 320 69 2100 000/00 RMK AO2 T03000239
53988KBKB BKB20190804175014208/04/19 17:50:31  5-MIN KBKB 042350Z AUTO 00000KT 10SM FEW100 30/24 A2990 320 69 2100 000/00 RMK AO2 SLP150 60001 T03000239 10322 20250 58018
53988KBKB BKB20190804175016108/04/19 17:50:31  5-MIN KBKB 042350Z AUTO 00000KT 10SM FEW100 30/24 A2990 320 69 2100 000/00 R000KT 10SM BKN100 30/24 A2990 320 72 2100 000/00 RMK AO2 T03000244
53988KBKB BKB20190804175510808/04/19 17:55:31  5-MIN KBKB 042355Z AUTO 00000KT 10SM CLR 29/24 A2990 320 71 2100 000/00 RMK AO2 T02940239
53988KBKB BKB20190804180010808/04/19 18:00:31  5-MIN KBKB 050000Z AUTO 00000KT 10SM CLR 29/24 A2990 320 76 2000 000/00 RMK AO2 T02890244
53988KBKB BKB20190804180013508/04/19 18:00:31  5-MIN KBKB 050000Z AUTO 00000KT 10SM CLR 29/24 A29000KT 10SM SCT100 30/24 A2990 320 72 2100 000/00 RMK AO2 T03000244
53988KBKB BKB20190804180510808/04/19 18:05:31  5-MIN KBKB 050005Z AUTO 00000KT 10SM CLR 29/24 A2990 320 76 2000 000/00 RMK AO2 T02890244
53988KBKB BKB20190804181010808/04/19 18:10:31  5-MIN KBKB 050010Z AUTO VRB03KT 10SM CLR 29/24 A2990 320 76 2000 VRB/03 RMK AO2 T02890244
53988KBKB BKB20190804181510808/04/19 18:15:31  5-MIN KBKB 050015Z AUTO VRB03KT 10SM CLR 28/24 A2990 320 76 2000 VRB/03 RMK AO2 T02830239
53988KBKB BKB20190804182010808/04/19 18:20:31  5-MIN KBKB 050020Z AUTO 00000KT 10SM CLR 28/24 A2990 320 79 2000 000/00 RMK AO2 T02830244
53988KBKB BKB20190804182511108/04/19 18:25:31  5-MIN KBKB 050025Z AUTO VRB03KT 10SM FEW018 28/24 A2990 310 82 1900 VRB/03 RMK AO2 T02780244
53988KBKB BKB20190804183011108/04/19 18:30:31  5-MIN KBKB 050030Z AUTO 00000KT 10SM FEW018 28/24 A2990 310 79 1900 000/00 RMK AO2 T02780239
53988KBKB BKB20190804183510808/04/19 18:35:31  5-MIN KBKB 050035Z AUTO 00000KT 10SM CLR 28/24 A2990 310 82 1900 000/00 RMK AO2 T02780244
53988KBKB BKB20190804184010808/04/19 18:40:31  5-MIN KBKB 050040Z AUTO VRB03KT 10SM CLR 28/24 A2991 310 82 1900 VRB/03 RMK AO2 T02780244
53988KBKB BKB20190804184510808/04/19 18:45:31  5-MIN KBKB 050045Z AUTO VRB03KT 10SM CLR 28/24 A2990 310 79 1900 VRB/03 RMK AO2 T02780239
53988KBKB BKB20190804185011508/04/19 18:50:31  5-MIN KBKB 050050Z AUTO 00000KT 10SM CLR 28/23 A2991 310 76 1900 000/00 RMK AO2 SLP152 T02780233
53988KBKB BKB20190804185510808/04/19 18:55:31  5-MIN KBKB 050055Z AUTO 00000KT 10SM CLR 28/23 A2991 310 76 1900 000/00 RMK AO2 T02780233
53988KBKB BKB20190804190010808/04/19 19:00:31  5-MIN KBKB 050100Z AUTO 00000KT 10SM CLR 27/23 A2990 310 79 1800 000/00 RMK AO2 T02720233
53988KBKB BKB20190804190510808/04/19 19:05:31  5-MIN KBKB 050105Z AUTO 00000KT 10SM CLR 27/23 A2990 310 79 1800 000/00 RMK AO2 T02720233
53988KBKB BKB20190804191010808/04/19 19:10:31  5-MIN KBKB 050110Z AUTO VRB03KT 10SM CLR 27/23 A2990 310 79 1800 VRB/03 RMK AO2 T02720233
53988KBKB BKB20190804191510808/04/19 19:15:31  5-MIN KBKB 050115Z AUTO 00000KT 10SM CLR 27/24 A2990 310 84 1800 000/00 RMK AO2 T02670239
53988KBKB BKB20190804192010808/04/19 19:20:31  5-MIN KBKB 050120Z AUTO 00000KT 10SM CLR 27/23 A2990 320 82 1800 000/00 RMK AO2 T02670233
53988KBKB BKB20190804192510808/04/19 19:25:31  5-MIN KBKB 050125Z AUTO 00000KT 10SM CLR 27/23 A2990 320 82 1800 000/00 RMK AO2 T02670233
53988KBKB BKB20190804193010808/04/19 19:30:31  5-MIN KBKB 050130Z AUTO 00000KT 10SM CLR 27/23 A2990 320 82 1800 000/00 RMK AO2 T02670233
53988KBKB BKB20190804193510808/04/19 19:35:31  5-MIN KBKB 050135Z AUTO 00000KT 10SM CLR 26/23 A2990 310 84 1700 000/00 RMK AO2 T02610233
53988KBKB BKB20190804194010808/04/19 19:40:31  5-MIN KBKB 050140Z AUTO 00000KT 10SM CLR 26/23 A2991 310 84 1700 000/00 RMK AO2 T02610233
53988KBKB BKB20190804194510808/04/19 19:45:31  5-MIN KBKB 050145Z AUTO 00000KT 10SM CLR 26/23 A2991 310 84 1700 000/00 RMK AO2 T02610233
53988KBKB BKB20190804195011508/04/19 19:50:31  5-MIN KBKB 050150Z AUTO 00000KT 10SM CLR 26/23 A2991 310 87 1600 000/00 RMK AO2 SLP153 T02560233
53988KBKB BKB20190804195510808/04/19 19:55:31  5-MIN KBKB 050155Z AUTO 00000KT 10SM CLR 26/23 A2991 310 84 1600 000/00 RMK AO2 T02560228
53988KBKB BKB20190804200010808/04/19 20:00:31  5-MIN KBKB 050200Z AUTO 00000KT 10SM CLR 26/23 A2991 310 84 1600 000/00 RMK AO2 T02560228
53988KBKB BKB20190804200510808/04/19 20:05:31  5-MIN KBKB 050205Z AUTO 00000KT 10SM CLR 26/23 A2992 300 84 1600 000/00 RMK AO2 T02560228
53988KBKB BKB20190804201010808/04/19 20:10:31  5-MIN KBKB 050210Z AUTO 00000KT 10SM CLR 26/23 A2992 300 87 1600 000/00 RMK AO2 T02560233
53988KBKB BKB20190804201510808/04/19 20:15:31  5-MIN KBKB 050215Z AUTO 00000KT 10SM CLR 26/23 A2992 300 87 1600 000/00 RMK AO2 T02560233
53988KBKB BKB20190804202010808/04/19 20:20:31  5-MIN KBKB 050220Z AUTO 00000KT 10SM CLR 25/23 A2992 300 90 1600 000/00 RMK AO2 T02500233
53988KBKB BKB20190804202510808/04/19 20:25:31  5-MIN KBKB 050225Z AUTO 00000KT 10SM CLR 25/23 A2992 300 90 1600 000/00 RMK AO2 T02500233
53988KBKB BKB20190804203010808/04/19 20:30:31  5-MIN KBKB 050230Z AUTO 00000KT 10SM CLR 25/23 A2992 300 90 1600 000/00 RMK AO2 T02500233
53988KBKB BKB20190804203510808/04/19 20:35:31  5-MIN KBKB 050235Z AUTO 00000KT 10SM CLR 25/23 A2992 300 87 1600 000/00 RMK AO2 T02500228
53988KBKB BKB20190804204010808/04/19 20:40:31  5-MIN KBKB 050240Z AUTO 00000KT 10SM CLR 25/23 A2993 290 87 1600 000/00 RMK AO2 T02500228
53988KBKB BKB20190804204510808/04/19 20:45:31  5-MIN KBKB 050245Z AUTO 00000KT 10SM CLR 24/23 A2993 290 93 1500 000/00 RMK AO2 T02440233
53988KBKB BKB20190804205012108/04/19 20:50:31  5-MIN KBKB 050250Z AUTO 00000KT 10SM CLR 24/23 A2993 290 93 1500 000/00 RMK AO2 SLP160 T02440233 55001
53988KBKB BKB20190804205510808/04/19 20:55:31  5-MIN KBKB 050255Z AUTO 00000KT 10SM CLR 24/23 A2993 290 90 1500 000/00 RMK AO2 T02440228
53988KBKB BKB20190804210010808/04/19 21:00:31  5-MIN KBKB 050300Z AUTO 00000KT 10SM CLR 24/23 A2994 280 90 1500 000/00 RMK AO2 T02440228
53988KBKB BKB20190804210510808/04/19 21:05:31  5-MIN KBKB 050305Z AUTO 00000KT 10SM CLR 24/23 A2994 280 90 1500 000/00 RMK AO2 T02440228
53988KBKB BKB20190804211010808/04/19 21:10:31  5-MIN KBKB 050310Z AUTO 00000KT 10SM CLR 24/23 A2994 280 90 1500 000/00 RMK AO2 T02440228
53988KBKB BKB20190804211510808/04/19 21:15:31  5-MIN KBKB 050315Z AUTO 00000KT 10SM CLR 24/23 A2994 280 90 1500 000/00 RMK AO2 T02440228
53988KBKB BKB20190804212010808/04/19 21:20:31  5-MIN KBKB 050320Z AUTO 00000KT 10SM CLR 24/23 A2994 280 90 1500 000/00 RMK AO2 T02440228
53988KBKB BKB20190804212510808/04/19 21:25:31  5-MIN KBKB 050325Z AUTO 00000KT 10SM CLR 24/23 A2994 280 90 1500 000/00 RMK AO2 T02440228
53988KBKB BKB20190804213010808/04/19 21:30:31  5-MIN KBKB 050330Z AUTO 00000KT 10SM CLR 24/23 A2993 280 93 1400 000/00 RMK AO2 T02390228
53988KBKB BKB20190804213510808/04/19 21:35:31  5-MIN KBKB 050335Z AUTO 00000KT 10SM CLR 24/23 A2993 290 93 1400 000/00 RMK AO2 T02390228
53988KBKB BKB20190804214010808/04/19 21:40:31  5-MIN KBKB 050340Z AUTO 00000KT 10SM CLR 24/23 A2993 290 93 1400 000/00 RMK AO2 T02390228
53988KBKB BKB20190804214510808/04/19 21:45:31  5-MIN KBKB 050345Z AUTO 00000KT 10SM CLR 24/23 A2993 290 93 1400 000/00 RMK AO2 T02390228
53988KBKB BKB20190804215011508/04/19 21:50:31  5-MIN KBKB 050350Z AUTO 00000KT 10SM CLR 24/23 A2992 290 93 1400 000/00 RMK AO2 SLP158 T02390228
53988KBKB BKB20190804215510708/04/19 21:55:31  5-MIN KBKB 050355Z AUTO 00000KT 9SM CLR 24/23 A2993 290 93 1400 000/00 RMK AO2 T02390228
53988KBKB BKB20190804220010708/04/19 22:00:31  5-MIN KBKB 050400Z AUTO 00000KT 8SM CLR 24/23 A2992 300 93 1400 000/00 RMK AO2 T02390228
53988KBKB BKB20190804220510708/04/19 22:05:31  5-MIN KBKB 050405Z AUTO 00000KT 8SM CLR 23/22 A2992 300 93 1400 000/00 RMK AO2 T02330222
53988KBKB BKB20190804221010708/04/19 22:10:31  5-MIN KBKB 050410Z AUTO 00000KT 8SM CLR 23/22 A2992 300 93 1400 000/00 RMK AO2 T02330222
53988KBKB BKB20190804221510708/04/19 22:15:31  5-MIN KBKB 050415Z AUTO 00000KT 8SM CLR 23/22 A2992 300 93 1400 000/00 RMK AO2 T02330222
53988KBKB BKB20190804222010708/04/19 22:20:31  5-MIN KBKB 050420Z AUTO 00000KT 8SM CLR 23/23 A2992 300 97 1400 000/00 RMK AO2 T02330228
53988KBKB BKB20190804222510708/04/19 22:25:31  5-MIN KBKB 050425Z AUTO 00000KT 8SM CLR 23/23 A2992 300 97 1400 000/00 RMK AO2 T02330228
53988KBKB BKB20190804223010708/04/19 22:30:31  5-MIN KBKB 050430Z AUTO 00000KT 7SM CLR 23/23 A2992 300 97 1400 000/00 RMK AO2 T02330228
53988KBKB BKB20190804223510708/04/19 22:35:31  5-MIN KBKB 050435Z AUTO 00000KT 7SM CLR 23/23 A2992 300 97 1400 000/00 RMK AO2 T02330228
53988KBKB BKB20190804224011008/04/19 22:40:31  5-MIN KBKB 050440Z AUTO 00000KT 6SM BR CLR 23/22 A2992 300 93 1400 000/00 RMK AO2 T02330222
53988KBKB BKB20190804224511008/04/19 22:45:31  5-MIN KBKB 050445Z AUTO 00000KT 5SM BR CLR 23/22 A2992 300 93 1400 000/00 RMK AO2 T02330222
53988KBKB BKB20190804225011708/04/19 22:50:31  5-MIN KBKB 050450Z AUTO 00000KT 6SM BR CLR 23/22 A2992 300 93 1400 000/00 RMK AO2 SLP156 T02330222
53988KBKB BKB20190804225511008/04/19 22:55:31  5-MIN KBKB 050455Z AUTO 00000KT 6SM BR CLR 23/22 A2992 300 93 1400 000/00 RMK AO2 T02330222
53988KBKB BKB20190804230011008/04/19 23:00:31  5-MIN KBKB 050500Z AUTO 00000KT 6SM BR CLR 23/22 A2992 300 93 1400 000/00 RMK AO2 T02330222
53988KBKB BKB20190804230511008/04/19 23:05:31  5-MIN KBKB 050505Z AUTO 00000KT 6SM BR CLR 23/22 A2992 300 93 1400 000/00 RMK AO2 T02330222
53988KBKB BKB20190804231011008/04/19 23:10:31  5-MIN KBKB 050510Z AUTO 00000KT 6SM BR CLR 23/22 A2992 300 93 1400 000/00 RMK AO2 T02330222
53988KBKB BKB20190804231511008/04/19 23:15:31  5-MIN KBKB 050515Z AUTO 00000KT 5SM BR CLR 23/22 A2992 300 97 1300 000/00 RMK AO2 T02280222
53988KBKB BKB20190804232011008/04/19 23:20:31  5-MIN KBKB 050520Z AUTO 00000KT 5SM BR CLR 23/22 A2992 300 93 1400 000/00 RMK AO2 T02330222
53988KBKB BKB20190804232511008/04/19 23:25:31  5-MIN KBKB 050525Z AUTO 00000KT 6SM BR CLR 23/22 A2993 290 97 1300 000/00 RMK AO2 T02280222
53988KBKB BKB20190804233011008/04/19 23:30:31  5-MIN KBKB 050530Z AUTO 00000KT 5SM BR CLR 23/22 A2992 290 97 1300 000/00 RMK AO2 T02280222
53988KBKB BKB20190804233511008/04/19 23:35:31  5-MIN KBKB 050535Z AUTO 00000KT 5SM BR CLR 23/22 A2993 290 97 1300 000/00 RMK AO2 T02280222
53988KBKB BKB20190804234011008/04/19 23:40:31  5-MIN KBKB 050540Z AUTO 00000KT 5SM BR CLR 23/22 A2993 290 97 1300 000/00 RMK AO2 T02280222
53988KBKB BKB20190804234511008/04/19 23:45:31  5-MIN KBKB 050545Z AUTO 00000KT 5SM BR CLR 23/22 A2993 290 97 1300 000/00 RMK AO2 T02280222
53988KBKB BKB20190804235014508/04/19 23:50:31  5-MIN KBKB 050550Z AUTO 00000KT 5SM BR CLR 23/22 A2993 290 97 1300 000/00 RMK AO2 SLP159 T02280222 10294 20228 403220222 53011
53988KBKB BKB20190804235511008/04/19 23:55:31  5-MIN KBKB 050555Z AUTO 00000KT 5SM BR CLR 23/22 A2993 290 97 1300 000/00 RMK AO2 T02280222
53988KBKB BKB20190805000011008/05/19 00:00:31  5-MIN KBKB 050600Z AUTO 00000KT 5SM BR CLR 23/22 A2993 290 97 1300 000/00 RMK AO2 T02280222
53988KBKB BKB20190805000511008/05/19 00:05:31  5-MIN KBKB 050605Z AUTO 00000KT 5SM BR CLR 23/22 A2993 290 97 1300 000/00 RMK AO2 T02280222
53988KBKB BKB20190805001011008/05/19 00:10:31  5-MIN KBKB 050610Z AUTO 00000KT 5SM BR CLR 23/22 A2993 290 93 1300 000/00 RMK AO2 T02280217
53988KBKB BKB20190805001511008/05/19 00:15:31  5-MIN KBKB 050615Z AUTO 00000KT 5SM BR CLR 23/22 A2994 280 93 1300 000/00 RMK AO2 T02280217
53988KBKB BKB20190805002011008/05/19 00:20:31  5-MIN KBKB 050620Z AUTO 00000KT 5SM BR CLR 23/22 A2994 280 93 1300 000/00 RMK AO2 T02280217
53988KBKB BKB20190805002511008/05/19 00:25:31  5-MIN KBKB 050625Z AUTO 00000KT 4SM BR CLR 23/22 A2994 280 93 1300 000/00 RMK AO2 T02280217
53988KBKB BKB20190805003011008/05/19 00:30:31  5-MIN KBKB 050630Z AUTO 00000KT 4SM BR CLR 23/22 A2994 280 93 1300 000/00 RMK AO2 T02280217
53988KBKB BKB20190805003511008/05/19 00:35:31  5-MIN KBKB 050635Z AUTO 00000KT 4SM BR CLR 23/22 A2994 280 93 1300 000/00 RMK AO2 T02280217
53988KBKB BKB20190805004011008/05/19 00:40:31  5-MIN KBKB 050640Z AUTO 00000KT 4SM BR CLR 23/22 A2994 280 93 1300 000/00 RMK AO2 T02280217
53988KBKB BKB20190805004511008/05/19 00:45:31  5-MIN KBKB 050645Z AUTO 00000KT 4SM BR CLR 23/22 A2994 280 93 1300 000/00 RMK AO2 T02280217
53988KBKB BKB20190805005011708/05/19 00:50:31  5-MIN KBKB 050650Z AUTO 00000KT 4SM BR CLR 23/22 A2994 280 93 1300 000/00 RMK AO2 SLP162 T02280217
53988KBKB BKB20190805005511008/05/19 00:55:31  5-MIN KBKB 050655Z AUTO 00000KT 4SM BR CLR 23/22 A2994 280 93 1300 000/00 RMK AO2 T02280217
53988KBKB BKB20190805010011008/05/19 01:00:31  5-MIN KBKB 050700Z AUTO 00000KT 4SM BR CLR 23/22 A2994 280 93 1300 000/00 RMK AO2 T02280217
53988KBKB BKB20190805010511008/05/19 01:05:31  5-MIN KBKB 050705Z AUTO 00000KT 4SM BR CLR 23/22 A2994 280 93 1300 000/00 RMK AO2 T02280217
53988KBKB BKB20190805011011008/05/19 01:10:31  5-MIN KBKB 050710Z AUTO 00000KT 4SM BR CLR 23/22 A2994 280 93 1300 000/00 RMK AO2 T02280217
53988KBKB BKB20190805011014608/05/19 01:10:31  5-MIN KBKB 050710Z AUTO 00000KT 4SM BR CLR 23/22 A2994 280 93 1300 000/00 RMK AO2 T02280217290 93 1200 000/00 RMK AO2 T02220211
53988KBKB BKB20190805011511008/05/19 01:15:31  5-MIN KBKB 050715Z AUTO 00000KT 5SM BR CLR 23/22 A2994 280 93 1300 000/00 RMK AO2 T02280217
53988KBKB BKB20190805012011008/05/19 01:20:31  5-MIN KBKB 050720Z AUTO 00000KT 4SM BR CLR 23/22 A2994 280 93 1300 000/00 RMK AO2 T02280217
53988KBKB BKB20190805012511008/05/19 01:25:31  5-MIN KBKB 050725Z AUTO 00000KT 4SM BR CLR 22/22 A2994 280 97 1200 000/00 RMK AO2 T02220217
53988KBKB BKB20190805013011008/05/19 01:30:31  5-MIN KBKB 050730Z AUTO 00000KT 4SM BR CLR 23/22 A2994 280 93 1300 000/00 RMK AO2 T02280217
53988KBKB BKB20190805013511008/05/19 01:35:31  5-MIN KBKB 050735Z AUTO 00000KT 5SM BR CLR 23/22 A2994 280 93 1300 000/00 RMK AO2 T02280217
53988KBKB BKB20190805014011008/05/19 01:40:31  5-MIN KBKB 050740Z AUTO 00000KT 5SM BR CLR 22/22 A2993 280 97 1200 000/00 RMK AO2 T02220217
53988KBKB BKB20190805014511008/05/19 01:45:31  5-MIN KBKB 050745Z AUTO 00000KT 4SM BR CLR 22/22 A2994 280 97 1200 000/00 RMK AO2 T02220217
53988KBKB BKB20190805015011708/05/19 01:50:31  5-MIN KBKB 050750Z AUTO 00000KT 4SM BR CLR 22/22 A2993 280 97 1200 000/00 RMK AO2 SLP162 T02220217
53988KBKB BKB20190805015511008/05/19 01:55:31  5-MIN KBKB 050755Z AUTO 00000KT 4SM BR CLR 22/22 A2993 290 97 1200 000/00 RMK AO2 T02220217
53988KBKB BKB20190805020011008/05/19 02:00:31  5-MIN KBKB 050800Z AUTO 00000KT 4SM BR CLR 22/21 A2993 290 93 1200 000/00 RMK AO2 T02220211
53988KBKB BKB20190805020511008/05/19 02:05:31  5-MIN KBKB 050805Z AUTO 00000KT 4SM BR CLR 22/21 A2994 280 93 1200 000/00 RMK AO2 T02220211
53988KBKB BKB20190805021011008/05/19 02:10:31  5-MIN KBKB 050810Z AUTO 00000KT 4SM BR CLR 22/21 A2994 280 93 1200 000/00 RMK AO2 T02220211
53988KBKB BKB20190805021016208/05/19 02:10:31  5-MIN KBKB 050810Z AUTO 00000KT 4SM BR CLR 22/21 A2994 280 93 1200 000/00 RMK AO2 T0222021108/05/19 280 97 1200 000/00 RMK AO2 SLP162 T02220217
53988KBKB BKB20190805021511308/05/19 02:15:31  5-MIN KBKB 050815Z AUTO 00000KT 5SM BR FEW031 22/22 A2994 280 97 1200 000/00 RMK AO2 T02220217
53988KBKB BKB20190805022011308/05/19 02:20:31  5-MIN KBKB 050820Z AUTO 00000KT 4SM BR FEW031 22/21 A2994 280 93 1200 000/00 RMK AO2 T02220211
53988KBKB BKB20190805022511308/05/19 02:25:31  5-MIN KBKB 050825Z AUTO 00000KT 4SM BR FEW031 22/21 A2994 280 93 1200 000/00 RMK AO2 T02220211
53988KBKB BKB20190805023011308/05/19 02:30:31  5-MIN KBKB 050830Z AUTO 00000KT 4SM BR SCT029 22/22 A2994 280 97 1200 000/00 RMK AO2 T02220217
53988KBKB BKB20190805023511308/05/19 02:35:31  5-MIN KBKB 050835Z AUTO 00000KT 4SM BR SCT029 22/21 A2994 280 93 1200 000/00 RMK AO2 T02220211
53988KBKB BKB20190805024011308/05/19 02:40:31  5-MIN KBKB 050840Z AUTO 00000KT 4SM BR FEW029 22/22 A2994 280 97 1200 000/00 RMK AO2 T02220217
53988KBKB BKB20190805024511308/05/19 02:45:31  5-MIN KBKB 050845Z AUTO 00000KT 4SM BR FEW029 22/21 A2994 280 93 1200 000/00 RMK AO2 T02220211
53988KBKB BKB20190805025012608/05/19 02:50:31  5-MIN KBKB 050850Z AUTO 00000KT 4SM BR FEW029 22/21 A2994 280 93 1200 000/00 RMK AO2 SLP163 T02220211 55001
53988KBKB BKB20190805025511308/05/19 02:55:31  5-MIN KBKB 050855Z AUTO 00000KT 4SM BR FEW029 22/21 A2994 280 93 1200 000/00 RMK AO2 T02220211
53988KBKB BKB20190805030011008/05/19 03:00:31  5-MIN KBKB 050900Z AUTO 00000KT 4SM BR CLR 22/21 A2994 280 93 1200 000/00 RMK AO2 T02220211
53988KBKB BKB20190805030511008/05/19 03:05:31  5-MIN KBKB 050905Z AUTO 00000KT 4SM BR CLR 22/21 A2994 280 93 1200 000/00 RMK AO2 T02220211
53988KBKB BKB20190805031011008/05/19 03:10:31  5-MIN KBKB 050910Z AUTO 00000KT 4SM BR CLR 22/21 A2994 280 93 1200 000/00 RMK AO2 T02220211
53988KBKB BKB20190805031511008/05/19 03:15:31  5-MIN KBKB 050915Z AUTO 00000KT 4SM BR CLR 22/21 A2994 280 93 1200 000/00 RMK AO2 T02220211
53988KBKB BKB20190805032011008/05/19 03:20:31  5-MIN KBKB 050920Z AUTO 00000KT 5SM BR CLR 22/21 A2993 290 93 1200 000/00 RMK AO2 T02220211
53988KBKB BKB20190805032511008/05/19 03:25:31  5-MIN KBKB 050925Z AUTO 00000KT 4SM BR CLR 22/21 A2993 290 93 1200 000/00 RMK AO2 T02220211
53988KBKB BKB20190805033011008/05/19 03:30:31  5-MIN KBKB 050930Z AUTO 00000KT 4SM BR CLR 22/21 A2993 290 93 1200 000/00 RMK AO2 T02220211
53988KBKB BKB20190805033511008/05/19 03:35:31  5-MIN KBKB 050935Z AUTO 00000KT 5SM BR CLR 22/21 A2993 290 97 1200 000/00 RMK AO2 T02170211
53988KBKB BKB20190805034011008/05/19 03:40:31  5-MIN KBKB 050940Z AUTO 00000KT 4SM BR CLR 22/21 A2993 290 93 1200 000/00 RMK AO2 T02220211
53988KBKB BKB20190805034511008/05/19 03:45:31  5-MIN KBKB 050945Z AUTO 00000KT 5SM BR CLR 22/21 A2993 290 93 1200 000/00 RMK AO2 T02220211
53988KBKB BKB20190805035011708/05/19 03:50:31  5-MIN KBKB 050950Z AUTO 00000KT 5SM BR CLR 22/21 A2993 290 93 1200 000/00 RMK AO2 SLP161 T02220211
53988KBKB BKB20190805035511008/05/19 03:55:31  5-MIN KBKB 050955Z AUTO 00000KT 4SM BR CLR 22/21 A2993 290 93 1200 000/00 RMK AO2 T02220211
53988KBKB BKB20190805040011008/05/19 04:00:31  5-MIN KBKB 051000Z AUTO 00000KT 5SM BR CLR 22/21 A2993 290 93 1200 000/00 RMK AO2 T02220211
53988KBKB BKB20190805040011108/05/19 04:00:31  5-MIN KBKB 051000Z AUTO 00000KT 5SM BR CLR 22/21 A2993 290 93 1200 000/00 RMK AO2 T022202111
53988KBKB BKB20190805040511008/05/19 04:05:31  5-MIN KBKB 051005Z AUTO 00000KT 4SM BR CLR 22/21 A2993 290 93 1200 000/00 RMK AO2 T02220211
53988KBKB BKB20190805041011008/05/19 04:10:31  5-MIN KBKB 051010Z AUTO 00000KT 4SM BR CLR 22/21 A2994 280 93 1200 000/00 RMK AO2 T02220211
53988KBKB BKB20190805041511008/05/19 04:15:31  5-MIN KBKB 051015Z AUTO 00000KT 4SM BR CLR 22/21 A2994 280 93 1200 000/00 RMK AO2 T02220211
53988KBKB BKB20190805042011008/05/19 04:20:31  5-MIN KBKB 051020Z AUTO 00000KT 4SM BR CLR 22/21 A2994 280 93 1200 000/00 RMK AO2 T02220211
53988KBKB BKB20190805042511008/05/19 04:25:31  5-MIN KBKB 051025Z AUTO 00000KT 4SM BR CLR 22/21 A2994 280 97 1200 000/00 RMK AO2 T02170211
53988KBKB BKB20190805043011008/05/19 04:30:31  5-MIN KBKB 051030Z AUTO 00000KT 3SM BR CLR 22/21 A2994 280 97 1200 000/00 RMK AO2 T02170211
53988KBKB BKB20190805043511008/05/19 04:35:31  5-MIN KBKB 051035Z AUTO 00000KT 3SM BR CLR 22/21 A2994 280 97 1200 000/00 RMK AO2 T02170211
53988KBKB BKB20190805044011008/05/19 04:40:31  5-MIN KBKB 051040Z AUTO 00000KT 3SM BR CLR 22/21 A2994 280 97 1200 000/00 RMK AO2 T02170211
53988KBKB BKB20190805044511008/05/19 04:45:31  5-MIN KBKB 051045Z AUTO 00000KT 3SM BR CLR 22/21 A2995 280 97 1200 000/00 RMK AO2 T02170211
53988KBKB BKB20190805045011708/05/19 04:50:31  5-MIN KBKB 051050Z AUTO 00000KT 3SM BR CLR 22/21 A2995 270 97 1200 000/00 RMK AO2 SLP166 T02170211
53988KBKB BKB20190805045511008/05/19 04:55:31  5-MIN KBKB 051055Z AUTO 00000KT 4SM BR CLR 22/21 A2995 270 97 1200 000/00 RMK AO2 T02170211
53988KBKB BKB20190805050011008/05/19 05:00:31  5-MIN KBKB 051100Z AUTO 00000KT 4SM BR CLR 22/21 A2995 270 97 1200 000/00 RMK AO2 T02170211
53988KBKB BKB20190805050511008/05/19 05:05:31  5-MIN KBKB 051105Z AUTO 00000KT 4SM BR CLR 22/21 A2995 270 97 1200 000/00 RMK AO2 T02170211
53988KBKB BKB20190805051011008/05/19 05:10:31  5-MIN KBKB 051110Z AUTO 00000KT 5SM BR CLR 22/21 A2995 270 97 1200 000/00 RMK AO2 T02170211
53988KBKB BKB20190805051511008/05/19 05:15:31  5-MIN KBKB 051115Z AUTO 00000KT 5SM BR CLR 22/21 A2995 270 97 1100 000/00 RMK AO2 T02170211
53988KBKB BKB20190805052011008/05/19 05:20:31  5-MIN KBKB 051120Z AUTO 00000KT 5SM BR CLR 22/21 A2995 270 97 1100 000/00 RMK AO2 T02170211
53988KBKB BKB20190805052511008/05/19 05:25:31  5-MIN KBKB 051125Z AUTO 00000KT 4SM BR CLR 22/21 A2995 270 97 1100 000/00 RMK AO2 T02170211
53988KBKB BKB20190805053011008/05/19 05:30:31  5-MIN KBKB 051130Z AUTO 00000KT 4SM BR CLR 22/21 A2995 270 97 1100 000/00 RMK AO2 T02170211
53988KBKB BKB20190805053511408/05/19 05:35:31  5-MIN KBKB 051135Z AUTO 00000KT 2 1/2SM BR CLR 22/21 A2995 270 97 1100 000/00 RMK AO2 T02170211
53988KBKB BKB20190805054011408/05/19 05:40:31  5-MIN KBKB 051140Z AUTO 00000KT 2 1/2SM BR CLR 22/21 A2996 270 93 1200 000/00 RMK AO2 T02220211
53988KBKB BKB20190805054511008/05/19 05:45:31  5-MIN KBKB 051145Z AUTO 00000KT 3SM BR CLR 22/21 A2996 260 97 1100 000/00 RMK AO2 T02170211
53988KBKB BKB20190805055014108/05/19 05:50:31  5-MIN KBKB 051150Z AUTO 00000KT 3SM BR CLR 22/21 A2996 260 93 1200 000/00 RMK AO2 SLP170 70014 T02220211 10228 20217 53006
53988KBKB BKB20190805055511008/05/19 05:55:31  5-MIN KBKB 051155Z AUTO 00000KT 3SM BR CLR 22/21 A2996 260 93 1200 000/00 RMK AO2 T02220211
53988KBKB BKB20190805060011008/05/19 06:00:31  5-MIN KBKB 051200Z AUTO 00000KT 3SM BR CLR 22/21 A2996 260 93 1200 000/00 RMK AO2 T02220211
53988KBKB BKB20190805060511008/05/19 06:05:31  5-MIN KBKB 051205Z AUTO 00000KT 4SM BR CLR 22/21 A2996 260 93 1200 000/00 RMK AO2 T02220211
53988KBKB BKB20190805061011008/05/19 06:10:31  5-MIN KBKB 051210Z AUTO 00000KT 4SM BR CLR 22/22 A2996 260 97 1200 000/00 RMK AO2 T02220217
53988KBKB BKB20190805061511008/05/19 06:15:31  5-MIN KBKB 051215Z AUTO 00000KT 4SM BR CLR 22/22 A2996 260 97 1200 000/00 RMK AO2 T02220217
53988KBKB BKB20190805062011008/05/19 06:20:31  5-MIN KBKB 051220Z AUTO 00000KT 4SM BR CLR 22/22 A2997 260 97 1200 000/00 RMK AO2 T02220217
53988KBKB BKB20190805062511008/05/19 06:25:31  5-MIN KBKB 051225Z AUTO 00000KT 4SM BR CLR 23/22 A2997 250 93 1300 000/00 RMK AO2 T02280217
53988KBKB BKB20190805063011008/05/19 06:30:31  5-MIN KBKB 051230Z AUTO 00000KT 4SM BR CLR 23/22 A2997 250 97 1300 000/00 RMK AO2 T02280222
53988KBKB BKB20190805063511008/05/19 06:35:31  5-MIN KBKB 051235Z AUTO 00000KT 5SM BR CLR 23/22 A2997 250 93 1300 000/00 RMK AO2 T02330222
53988KBKB BKB20190805064011008/05/19 06:40:31  5-MIN KBKB 051240Z AUTO 00000KT 6SM BR CLR 24/23 A2997 250 93 1400 000/00 RMK AO2 T02390228
53988KBKB BKB20190805064511008/05/19 06:45:31  5-MIN KBKB 051245Z AUTO 00000KT 6SM BR CLR 24/23 A2997 250 93 1400 000/00 RMK AO2 T02390228
53988KBKB BKB20190805065011708/05/19 06:50:31  5-MIN KBKB 051250Z AUTO 00000KT 6SM BR CLR 24/23 A2997 250 93 1400 000/00 RMK AO2 SLP174 T02390228
53988KBKB BKB20190805065510708/05/19 06:55:31  5-MIN KBKB 051255Z AUTO 00000KT 8SM CLR 24/23 A2997 250 93 1400 000/00 RMK AO2 T02440233
53988KBKB BKB20190805070010808/05/19 07:00:31  5-MIN KBKB 051300Z AUTO 00000KT 10SM CLR 25/23 A2997 250 87 1500 000/00 RMK AO2 T02500228
53988KBKB BKB20190805070510808/05/19 07:05:31  5-MIN KBKB 051305Z AUTO 00000KT 10SM CLR 25/23 A2998 250 90 1500 000/00 RMK AO2 T02500233
53988KBKB BKB20190805071010808/05/19 07:10:31  5-MIN KBKB 051310Z AUTO 00000KT 10SM CLR 26/23 A2997 250 87 1600 000/00 RMK AO2 T02560233
53988KBKB BKB20190805071510808/05/19 07:15:31  5-MIN KBKB 051315Z AUTO 00000KT 10SM CLR 26/23 A2997 250 81 1600 000/00 RMK AO2 T02610228
53988KBKB BKB20190805072010808/05/19 07:20:31  5-MIN KBKB 051320Z AUTO 00000KT 10SM CLR 26/23 A2997 250 84 1600 000/00 RMK AO2 T02610233
53988KBKB BKB20190805072520908/05/19 07:25:31  5-MIN KBKB 051325Z AUTO 00000KT 10SM CLR 26/22 AB 051435Z AUTO VRB03KT 10SM CLR 29/24 A2997 250 71 2000 VRB/03B 051415Z AUTO 00000KT 10SM CLR 29/23 A2998 250 71 1900 000/00 RMK AO2 T02890233
53988KBKB BKB20190805082010808/05/19 08:20:31  5-MIN KBKB 051420Z AUTO VRB03KT 10SM CLR 29/23 A2998 250 71 1900 VRB/03 RMK AO2 T02890233
53988KBKB BKB20190805082510808/05/19 08:25:31  5-MIN KBKB 051425Z AUTO VRB03KT 10SM CLR 29/23 A2997 250 71 1900 VRB/03 RMK AO2 T02890233
53988KBKB BKB20190805083010808/05/19 08:30:31  5-MIN KBKB 051430Z AUTO VRB04KT 10SM CLR 29/24 A2998 250 71 2000 VRB/04 RMK AO2 T02940239
53988KBKB BKB20190805083510808/05/19 08:35:31  5-MIN KBKB 051435Z AUTO VRB03KT 10SM CLR 29/24 A2997 250 71 2000 VRB/03 RMK AO2 T02940239
53988KBKB BKB20190805084011108/05/19 08:40:31  5-MIN KBKB 051440Z AUTO 00000KT 10SM FEW022 30/24 A2997 250 69 2100 000/00 RMK AO2 T03000239
53988KBKB BKB20190805084510808/05/19 08:45:31  5-MIN KBKB 051445Z AUTO 00000KT 10SM FEW022 30/24 A2998  71 1900 VRB/03 RMK AO2 T02890233
53988KBKB BKB20190805084511108/05/19 08:45:31  5-MIN KBKB 051445Z AUTO 00000KT 10SM FEW022 30/24 A2998 250 69 2100 000/00 RMK AO2 T03000239
53988KBKB BKB20190805085012408/05/19 08:50:31  5-MIN KBKB 051450Z AUTO VRB03KT 10SM SCT024 30/23 A2998 250 67 2100 VRB/03 RMK AO2 SLP176 T03000233 51009
53988KBKB BKB20190805085511108/05/19 08:55:31  5-MIN KBKB 051455Z AUTO VRB04KT 10SM SCT024 30/23 A2998 250 67 2100 VRB/04 RMK AO2 T03000233
53988KBKB BKB20190805085515008/05/19 08:55:31  5-MIN KBKB 051455Z AUTO 8/05/19 08:35:31  5-MIN KBKB 051435Z AUTO VRB03KT 10SM CLR 29/24 A2997 250 71 2000 VRB/03 RMK AO2 T02940239
53988KBKB BKB20190805090011108/05/19 09:00:31  5-MIN KBKB 051500Z AUTO 00000KT 10SM SCT024 29/23 A2998 250 67 2000 000/00 RMK AO2 T02940228
53988KBKB BKB20190805090511108/05/19 09:05:31  5-MIN KBKB 051505Z AUTO VRB04KT 10SM BKN024 30/23 A2998 250 65 2100 VRB/04 RMK AO2 T03000228
53988KBKB BKB20190805091011108/05/19 09:10:31  5-MIN KBKB 051510Z AUTO VRB03KT 10SM SCT024 30/23 A2998 250 67 2100 VRB/03 RMK AO2 T03000233
53988KBKB BKB20190805091511108/05/19 09:15:31  5-MIN KBKB 051515Z AUTO VRB03KT 10SM SCT026 30/23 A2998 250 67 2100 VRB/03 RMK AO2 T03000233
53988KBKB BKB20190805092011108/05/19 09:20:31  5-MIN KBKB 051520Z AUTO VRB03KT 10SM SCT026 31/23 A2998 250 65 2100 VRB/03 RMK AO2 T03060233
53988KBKB BKB20190805092511108/05/19 09:25:31  5-MIN KBKB 051525Z AUTO VRB04KT 10SM SCT026 31/23 A2997 250 65 2100 VRB/04 RMK AO2 T03060233
53988KBKB BKB20190805093011808/05/19 09:30:31  5-MIN KBKB 051530Z AUTO 00000KT 10SM FEW027 SCT033 31/23 A2998 250 63 2200 000/00 RMK AO2 T03110233
53988KBKB BKB20190805093511108/05/19 09:35:31  5-MIN KBKB 051535Z AUTO VRB03KT 10SM SCT029 30/23 A2998 250 65 2100 VRB/03 RMK AO2 T03000228
53988KBKB BKB20190805094011108/05/19 09:40:31  5-MIN KBKB 051540Z AUTO 00000KT 10SM SCT029 31/23 A2998 250 65 2100 000/00 RMK AO2 T03060233
53988KBKB BKB20190805094511808/05/19 09:45:31  5-MIN KBKB 051545Z AUTO 00000KT 10SM SCT029 SCT034 31/23 A2997 250 63 2200 000/00 RMK AO2 T03110233
53988KBKB BKB20190805095012508/05/19 09:50:31  5-MIN KBKB 051550Z AUTO 00000KT 10SM SCT030 BKN037 31/23 A2997 250 62 2100 000/00 RMK AO2 SLP175 T03060228
53988KBKB BKB20190805095511108/05/19 09:55:31  5-MIN KBKB 051555Z AUTO VRB03KT 10SM SCT030 31/23 A2997 250 62 2100 VRB/03 RMK AO2 T03060228
53988KBKB BKB20190805100011108/05/19 10:00:31  5-MIN KBKB 051600Z AUTO VRB03KT 10SM FEW030 31/23 A2997 250 60 2200 VRB/03 RMK AO2 T03110228
53988KBKB BKB20190805100511108/05/19 10:05:31  5-MIN KBKB 051605Z AUTO 00000KT 10SM FEW030 32/23 A2997 250 61 2300 000/00 RMK AO2 T03170233
53988KBKB BKB20190805101011108/05/19 10:10:31  5-MIN KBKB 051610Z AUTO 00000KT 10SM FEW030 32/23 A2997 250 58 2300 000/00 RMK AO2 T03170228
53988KBKB BKB20190805101510808/05/19 10:15:31  5-MIN KBKB 051615Z AUTO VRB03KT 10SM CLR 31/23 A2997 250 62 2100 VRB/03 RMK AO2 T03060228
53988KBKB BKB20190805102010808/05/19 10:20:31  5-MIN KBKB 051620Z AUTO 00000KT 10SM CLR 31/23 A2997 250 63 2200 000/00 RMK AO2 T03110233
53988KBKB BKB20190805102510808/05/19 10:25:31  5-MIN KBKB 051625Z AUTO VRB04KT 10SM CLR 32/23 A2997 250 61 2300 VRB/04 RMK AO2 T03170233
53988KBKB BKB20190805103009108/05/19 10:30:31  5-MIN KBKB 051630Z AUTO VRB03KT 10SM CLR 32/23 A2997 250 58 230003330228
53988KBKB BKB20190805122510808/05/19 12:25:31  5-MIN KBKB 051825Z AUTO 00000KT 10SM CLR 33/22 A2995 280 51 2500 000/00 RMK AO2 T03330222
53988KBKB BKB20190805123011108/05/19 12:30:31  5-MIN KBKB 051830Z AUTO VRB04KT 10SM FEW047 34/22 A2994 280 50 2500 VRB/04 RMK AO2 T03390222
53988KBKB BKB20190805123511108/05/19 12:35:31  5-MIN KBKB 051835Z AUTO 00000KT 10SM SCT047 33/22 A2994 280 50 2500 000/00 RMK AO2 T03330217
53988KBKB BKB20190805124011108/05/19 12:40:31  5-MIN KBKB 051840Z AUTO 00000KT 10SM SCT047 32/22 A2994 280 55 2300 000/00 RMK AO2 T03220222
53988KBKB BKB20190805124505308/05/19 12:45:31  5-MIN KBKB 051845Z AUTO 0T03330228
53988KBKB BKB20190805124511108/05/19 12:45:31  5-MIN KBKB 051845Z AUTO 00000KT 10SM FEW049 34/22 A2994 280 48 2500 000/00 RMK AO2 T03390217
53988KBKB BKB20190805125011808/05/19 12:50:31  5-MIN KBKB 051850Z AUTO 25003KT 10SM FEW049 33/22 A2994 280 50 2500 250/03 RMK AO2 SLP165 T03330217
53988KBKB BKB20190805133511108/05/19 13:35:31  5-MIN KBKB 051935Z AUTO VRB03KT 10SM SCT048 35/22 A2993 290 47 2700 VRB/03 RMK AO2 T03500222
53988KBKB BKB20190805134011108/05/19 13:40:31  5-MIN KBKB 051940Z AUTO 00000KT 10SM BKN049 34/22 A2992 300 46 2600 000/00 RMK AO2 T03440217
53988KBKB BKB20190805134511108/05/19 13:45:31  5-MIN KBKB 051945Z AUTO 00000KT 10SM BKN049 34/22 A2992 300 48 2600 000/00 RMK AO2 T03440222
53988KBKB BKB20190805135011808/05/19 13:50:31  5-MIN KBKB 051950Z AUTO 00000KT 10SM BKN055 33/22 A2992 300 51 2500 000/00 RMK AO2 SLP157 T03330222
53988KBKB BKB20190805135511108/05/19 13:55:31  5-MIN KBKB 051955Z AUTO 00000KT 10SM BKN055 34/22 A2992 300 50 2600 000/00 RMK AO2 T03390222
53988KBKB BKB20190805140011108/05/19 14:00:31  5-MIN KBKB 052000Z AUTO 00000KT 10SM BKN055 34/22 A2992 300 48 2600 000/00 RMK AO2 T03440222
53988KBKB BKB20190805140511108/05/19 14:05:31  5-MIN KBKB 052005Z AUTO 00000KT 10SM SCT055 34/22 A2992 300 48 2600 000/00 RMK AO2 T03440222
53988KBKB BKB20190805141011108/05/19 14:10:31  5-MIN KBKB 052010Z AUTO 00000KT 10SM FEW055 35/22 A2991 310 47 2700 000/00 RMK AO2 T03500222
53988KBKB BKB20190805141511108/05/19 14:15:31  5-MIN KBKB 052015Z AUTO VRB03KT 10SM FEW060 35/22 A2991 310 47 2700 VRB/03 RMK AO2 T03500222
53988KBKB BKB20190805142010808/05/19 14:20:31  5-MIN KBKB 052020Z AUTO 00000KT 10SM CLR 33/22 A2991 310 50 2500 000/00 RMK AO2 T03330217
53988KBKB BKB20190805142510808/05/19 14:25:31  5-MIN KBKB 052025Z AUTO 00000KT 10SM CLR 34/21 A2991 310 46 2600 000/00 RMK AO2 T03390211
53988KBKB BKB20190805143010808/05/19 14:30:31  5-MIN KBKB 052030Z AUTO 00000KT 10SM CLR 33/22 A2991 310 51 2500 000/00 RMK AO2 T03330222
53988KBKB BKB20190805143511108/05/19 14:35:31  5-MIN KBKB 052035Z AUTO 18003KT 10SM FEW050 33/22 A2991 310 50 2500 170/03 RMK AO2 T03330217
53988KBKB BKB20190805144011108/05/19 14:40:31  5-MIN KBKB 052040Z AUTO 00000KT 10SM SCT050 33/22 A2991 310 50 2500 000/00 RMK AO2 T03330217
53988KBKB BKB20190805144511108/05/19 14:45:31  5-MIN KBKB 052045Z AUTO 00000KT 10SM SCT050 34/21 A2991 310 46 2600 000/00 RMK AO2 T03390211
53988KBKB BKB20190805145018308/05/19 14:50:31  5-MIN KBKB 052050Z AUTO 00000KT 10SM SCT050 34/22 A2991 310 46 2600 000/00 RMK AO2 SLP153 T03440217 5800708/05/19 5 33/22 A2991 310 50 2500 000/00 RMK AO2 T03330217
53988KBKB BKB20190805152011108/05/19 15:20:31  5-MIN KBKB 052120Z AUTO 00000KT 10SM SCT055 32/22 A2990 310 56 2300 000/00 RMK AO2 T03170222
53988KBKB BKB20190805152511108/05/19 15:25:31  5-MIN KBKB 052125Z AUTO 00000KT 10SM FEW055 33/22 A2990 320 50 2500 000/00 RMK AO2 T03330217
53988KBKB BKB20190805153016908/05/19 15:30:31  5-MIN KBKB 052130Z AUTO 00000KT 10SM FEW055 33/22 A2990 320 51 2500 000/00 RMK AO2 T0333022208/05/19 15:/23 A2989 330 55 2500 000/00 RMK AO2 T03330233
53988KBKB BKB20190805172011108/05/19 17:20:31  5-MIN KBKB 052320Z AUTO 00000KT 10SM FEW050 33/23 A2989 330 53 2500 000/00 RMK AO2 T03330228
53988KBKB BKB20190805172511108/05/19 17:25:31  5-MIN KBKB 052325Z AUTO 00000KT 10SM SCT050 33/23 A2989 330 53 2500 000/00 RMK AO2 T03330228
53988KBKB BKB20190805173014408/05/19 17:30:31  5-MIN KBKB 052330Z AUTO 00000KT 10SM FEW050 33/23 A2989 330 57 2500 000/00 RMK AO2 T03280233 79 2000 000/00 RMK AO2 T02830244
53988KBKB BKB20190805192010808/05/19 19:20:31  5-MIN KBKB 060120Z AUTO 00000KT 10SM CLR 28/24 A2990 320 76 2000 000/00 RMK AO2 T02830239
53988KBKB BKB20190805192510808/05/19 19:25:31  5-MIN KBKB 060125Z AUTO 00000KT 10SM CLR 28/24 A2990 320 76 2000 000/00 RMK AO2 T02830239
53988KBKB BKB20190805193009808/05/19 19:30:31  5-MIN KBKB 060130Z AUTO 00000KT 10SM CLR 28/24 A2990 32000/00 RMK AO2 T02610233
53988KBKB BKB20190805210510808/05/19 21:05:31  5-MIN KBKB 060305Z AUTO 00000KT 10SM CLR 26/24 A2992 300 87 1700 000/00 RMK AO2 T02610239
53988KBKB BKB20190805211010808/05/19 21:10:31  5-MIN KBKB 060310Z AUTO 00000KT 10SM CLR 26/24 A2992 300 87 1700 000/00 RMK AO2 T02610239
53988KBKB BKB20190805211510808/05/19 21:15:31  5-MIN KBKB 060315Z AUTO 00000KT 10SM CLR 26/24 A2992 300 87 1700 000/00 RMK AO2 T02610239
53988KBKB BKB20190805212013408/05/19 21:20:31  5-MIN KBKB 060320Z:31  5-MIN KBKB 060355Z AUTO 00000KT 10SM FEW050 26/24 A2993 290 90 1600 000/00 RMK AO2 T02560239
53988KBKB BKB20190805220011108/05/19 22:00:31  5-MIN KBKB 060400Z AUTO 00000KT 10SM FEW050 26/24 A2993 290 90 1600 000/00 RMK AO2 T02560239
53988KBKB BKB20190805220511108/05/19 22:05:31  5-MIN KBKB 060405Z AUTO 00000KT 10SM FEW050 26/24 A2993 290 90 1600 000/00 RMK AO2 T02560239
53988KBKB BKB20190805221011108/05/19 22:10:31  5-MIN KBKB 060410Z AUTO 00000KT 10SM FEW050 24/24 A2993 290 97 1500 000/00 RMK AO2 T02440239
53988KBKB BKB20190805221511108/05/19 22:15:31  5-MIN KBKB 060415Z AUTO 00000KT 10SM FEW050 26/24 A2993 290 90 1600 000/00 RMK AO2 T02560239
53988KBKB BKB20190805222011108/05/19 22:20:31  5-MIN KBKB 060420Z AUTO 00000KT 10SM FEW050 26/24 A2993 290 90 1600 000/00 RMK AO2 T02560239
53988KBKB BKB20190805222510808/05/19 22:25:31  5-MIN KBKB 060425Z AUTO 00000KT 10SM CLR 26/24 A2993 290 90 1600 000/00 RMK AO2 T02560239
53988KBKB BKB20190805223010808/05/19 22:30:31  5-MIN KBKB 060430Z AUTO 00000KT 10SM CLR 26/24 A2993 290 90 1600 000/00 RMK AO2 T02560239
53988KBKB BKB20190805223510808/05/19 22:35:31  5-MIN KBKB 060435Z AUTO 00000KT 10SM CLR 26/24 A2993 290 90 1600 000/00 RMK AO2 T02560239
53988KBKB BKB20190805224010808/05/19 22:40:31  5-MIN KBKB 060440Z AUTO 00000KT 10SM CLR 26/24 A2993 290 90 1600 000/00 RMK AO2 T02560239
53988KBKB BKB20190805224513908/05/19 22:45:31  5-MIN KBKB 060445Z AUTO 00000KT 10SM CLR 26/24 A2992 290 90 1600 00/23 A2992 300 90 1600 000/00 RMK AO2 SLP155 T02500233
53988KBKB BKB20190806005510808/06/19 00:55:31  5-MIN KBKB 060655Z AUTO 00000KT 10SM CLR 25/24 A2992 300 93 1600 000/00 RMK AO2 T02500239
53988KBKB BKB20190806010010808/06/19 01:00:31  5-MIN KBKB 060700Z AUTO 00000KT 10SM CLR 25/24 A2992 300 93 1600 000/00 RMK AO2 T02500239
53988KBKB BKB20190806010510808/06/19 01:05:31  5-MIN KBKB 060705Z AUTO 00000KT 10SM CLR 25/23 A2992 300 90 1600 000/00 RMK AO2 T02500233
53988KBKB BKB20190806011010808/06/19 01:10:31  5-MIN KBKB 060710Z AUTO 00000KT 10SM CLR 25/23 A2992 300 90 1600 000/00 RMK AO2 T02500233
53988KBKB BKB20190806011510808/06/19 01:15:31  5-MIN KBKB 060715Z AUTO 00000KT 10SM CLR 25/24 A2992 300 93 1600 000/00 RMK AO2 T02500239
53988KBKB BKB20190806012010808/06/19 01:20:31  5-MIN KBKB 060720Z AUTO 00000KT 10SM CLR 25/23 A2992 300 90 1600 000/00 RMK AO2 T02500233
53988KBKB BKB20190806012510808/06/19 01:25:31  5-MIN KBKB 060725Z AUTO 00000KT 10SM CLR 25/23 A2992 300 90 1600 000/00 RMK AO2 T02500233
53988KBKB BKB20190806013010808/06/19 01:30:31  5-MIN KBKB 060730Z AUTO 00000KT 10SM CLR 24/23 A2992 300 93 1500 000/00 RMK AO2 T02440233
53988KBKB BKB20190806114511108/06/19 11:45:31  5-MIN KBKB 061745Z AUTO 00000KT 10SM SCT042 33/23 A2995 270 55 2500 000/00 RMK AO2 T03330233
53988KBKB BKB20190806115013608/06/19 11:50:31  5-MIN KBKB 061750Z AUTO VRB03KT 10SM FEW042 33/23 A2995 270 53 2500 VRB/03 RMK AO2 SLP164 T03330228 10333 20233 50006
53988KBKB BKB20190806115511108/06/19 11:55:31  5-MIN KBKB 061755Z AUTO 00000KT 10SM FEW042 33/22 A2994 280 53 2400 000/00 RMK AO2 T03280222
53988KBKB BKB20190806120011108/06/19 12:00:31  5-MIN KBKB 061800Z AUTO 00000KT 10SM SCT044 34/23 A2994 280 51 2500 000/00 RMK AO2 T03390228
53988KBKB BKB20190806120511108/06/19 12:05:31  5-MIN KBKB 061805Z AUTO 00000KT 10SM BKN044 34/23 A2994 280 52 2600 000/00 RMK AO2 T03440233
53988KBKB BKB20190806121011108/06/19 12:10:31  5-MIN KBKB 061810Z AUTO VRB03KT 10SM SCT046 33/23 A2994 280 53 2500 VRB/03 RMK AO2 T03330228
53988KBKB BKB20190806121511108/06/19 12:15:31  5-MIN KBKB 061815Z AUTO 00000KT 10SM BKN048 32/23 A2994 280 57 2400 000/00 RMK AO2 T03220228
53988KBKB BKB20190806122011108/06/19 12:20:31  5-MIN KBKB 061820Z AUTO 00000KT 10SM BKN046 32/23 A2994 280 59 2400 000/00 RMK AO2 T03220233
53988KBKB BKB20190806122511108/06/19 12:25:31  5-MIN KBKB 061825Z AUTO VRB03KT 10SM BKN046 33/22 A2994 280 51 2500 VRB/03 RMK AO2 T03330222
53988KBKB BKB20190806123011108/06/19 12:30:31  5-MIN KBKB 061830Z AUTO 00000KT 10SM SCT046 34/22 A2994 280 50 2500 000/00 RMK AO2 T03390222
53988KBKB BKB20190806123511108/06/19 12:35:31  5-MIN KBKB 061835Z AUTO 00000KT 10SM FEW046 34/22 A2993 290 48 2500 000/00 RMK AO2 T03390217
53988KBKB BKB20190806124011808/06/19 12:40:31  5-MIN KBKB 061840Z AUTO VRB03KT 10SM FEW046 SCT060 33/22 A2993 290 51 2500 VRB/03 RMK AO2 T03330222
53988KBKB BKB20190806124511108/06/19 12:45:31  5-MIN KBKB 061845Z AUTO 00000KT 10SM SCT050 33/23 A2993 290 55 2400 000/00 RMK AO2 T03280228
53988KBKB BKB20190806125011808/06/19 12:50:31  5-MIN KBKB 061850Z AUTO VRB03KT 10SM SCT050 34/23 A2992 290 51 2500 VRB/03 RMK AO2 SLP157 T03390228
53988KBKB BKB20190806125511108/06/19 12:55:31  5-MIN KBKB 061855Z AUTO 00000KT 10SM SCT050 34/22 A2992 300 50 2600 000/00 RMK AO2 T03390222
53988KBKB BKB20190806130011108/06/19 13:00:31  5-MIN KBKB 061900Z AUTO VRB03KT 10SM SCT050 34/23 A2992 300 50 2600 VRB/03 RMK AO2 T03440228
53988KBKB BKB20190806130511108/06/19 13:05:31  5-MIN KBKB 061905Z AUTO VRB03KT 10SM FEW050 34/23 A2991 300 50 2600 VRB/03 RMK AO2 T03440228
53988KBKB BKB20190806131019108/06/19 13:10:31  5-MIN KBKB 061910Z AUTO 22004KT 10SM FEW050 34/23 A2991 310 50 2600 220/04 RMK AO2 T0344022808/06/1900KT 10SM BKN050 BKN060 35/22 A2990 320 47 2700 000/00 RMK AO2 T03500222
53988KBKB BKB20190806134011808/06/19 13:40:31  5-MIN KBKB 061940Z AUTO 00000KT 10SM BKN050 BKN060 34/22 A2990 320 48 2600 000/00 RMK AO2 T03390217
53988KBKB BKB20190806134511808/06/19 13:45:31  5-MIN KBKB 061945Z AUTO 00000KT 10SM SCT050 BKN060 34/22 A2990 320 48 2600 000/00 RMK AO2 T03390217
53988KBKB BKB20190806135009308/06/19 13:50:31  5-MIN KBKB 061950Z AUTO 00000KT 10SM BKN055 34/22 A2990  RMK AO2 T03330233
53988KBKB BKB20190806162510808/06/19 16:25:31  5-MIN KBKB 062225Z AUTO VRB03KT 10SM CLR 33/23 A2988 330 57 2500 VRB/03 RMK AO2 T03280233
53988KBKB BKB20190806163010808/06/19 16:30:31  5-MIN KBKB 062230Z AUTO 00000KT 10SM CLR 33/23 A2988 330 57 2500 000/00 RMK AO2 T03280233
53988KBKB BKB20190806163510808/06/19 16:35:31  5-MIN KBKB 062235Z AUTO 00000KT 10SM CLR 33/23 A2989 330 57 2500 000/00 RMK AO2 T03280233
53988KBKB BKB20190806164010808/06/19 16:40:31  5-MIN KBKB 062240Z AUTO 00000KT 10SM CLR 32/23 A2989 330 59 2400 000/00 RMK AO2 T03220233
53988KBKB BKB20190806164510808/06/19 16:45:31  5-MIN KBKB 062245Z AUTO 00000KT 10SM CLR 33/24 A2988 330 59 2500 000/00 RMK AO2 T03280239
53988KBKB BKB20190806165011508/06/19 16:50:31  5-MIN KBKB 062250Z AUTO 00000KT 10SM CLR 32/24 A2988 330 61 2400 000/00 RMK AO2 SLP144 T03220239
53988KBKB BKB20190806165510808/06/19 16:55:31  5-MIN KBKB 062255Z AUTO 00000KT 10SM CLR 32/24 A2988 340 63 2400 000/00 RMK AO2 T03220244
53988KBKB BKB20190806171510808/06/19 17:15:31  5-MIN KBKB 062315Z AUTO 00000KT 10SM CLR 32/24 A2988 340 63 2400 000/00 RMK AO2 T03220244
53988KBKB BKB20190806172010808/06/19 17:20:31  5-MIN KBKB 062320Z AUTO 00000KT 10SM CLR 32/24 A2987 340 65 2400 000/00 RMK AO2 T03170244
53988KBKB BKB20190806172510808/06/19 17:25:31  5-MIN KBKB 062325Z AUTO 00000KT 10SM CLR 32/25 A2987 340 67 2400 000/00 RMK AO2 T03170250
53988KBKB BKB20190806173010808/06/19 17:30:31  5-MIN KBKB 062330Z AUTO 00000KT 10SM CLR 32/24 A2988 340 65 2400 000/00 RMK AO2 T03170244
53988KBKB BKB20190806173510808/06/19 17:35:31  5-MIN KBKB 062335Z AUTO 00000KT 10SM CLR 32/24 A2987 340 65 2400 000/00 RMK AO2 T03170244
53988KBKB BKB20190806174010808/06/19 17:40:31  5-MIN KBKB 062340Z AUTO 00000KT 10SM CLR 31/25 A2987 340 69 2300 000/00 RMK AO2 T03110250
53988KBKB BKB20190806174510808/06/19 17:45:31  5-MIN KBKB 062345Z AUTO 00000KT 10SM CLR 31/24 A2987 340 67 2300 000/00 RMK AO2 T03110244
53988KBKB BKB20190806175013308/06/19 17:50:31  5-MIN KBKB 062350Z AUTO 00000KT 10SM CLR 31/25 A2987 340 72 2200 000/00 RMK AO2 SLP140 T03060250 10350 20306 56014
53988KBKB BKB20190806175510808/06/19 17:55:31  5-MIN KBKB 062355Z AUTO 00000KT 10SM CLR 31/26 A2987 340 74 2200 000/00 RMK AO2 T03060256
53988KBKB BKB20190806180012408/06/19 18:00:31  5-MIN KBKB 070000Z AUTO 00000KT 10SM CLR 30/26T 10SM CLR 29/25 A2986 350 76 2100 000/00 RMK AO2 T02940250
53988KBKB BKB20190806180510808/06/19 18:05:31  5-MIN KBKB 070005Z AUTO 00000KT 10SM CLR 30/26 A2988 340 77 2200 000/00 RMK AO2 T03000256
53988KBKB BKB20190806181010808/06/19 18:10:31  5-MIN KBKB 070010Z AUTO 00000KT 10SM CLR 30/26 A2987 340 77 2200 000/00 RMK AO2 T03000256
53988KBKB BKB20190806181510808/06/19 18:15:31  5-MIN KBKB 070015Z AUTO 00000KT 10SM CLR 29/26 A2987 340 79 2100 000/00 RMK AO2 T02940256
53988KBKB BKB20190806182010808/06/19 18:20:31  5-MIN KBKB 070020Z AUTO 00000KT 10SM CLR 29/26 A2987 350 79 2100 000/00 RMK AO2 T02940256
53988KBKB BKB20190806182510808/06/19 18:25:31  5-MIN KBKB 070025Z AUTO 00000KT 10SM CLR 29/25 A2987 350 76 2100 000/00 RMK AO2 T02940250
53988KBKB BKB20190806183010808/06/19 18:30:31  5-MIN KBKB 070030Z AUTO 00000KT 10SM CLR 29/26 A2986 350 79 2100 000/00 RMK AO2 T02940256
53988KBKB BKB20190806183510808/06/19 18:35:31  5-MIN KBKB 070035Z AUTO 00000KT 10SM CLR 29/25 A2986 350 76 2100 000/00 RMK AO2 T02940250
53988KBKB BKB20190806184010808/06/19 18:40:31  5-MIN KBKB 070040Z AUTO 00000KT 10SM CLR 29/25 A2986 350 76 2100 000/00 RMK AO2 T02940250
53988KBKB BKB20190806184510808/06/19 18:45:31  5-MIN KBKB 070045Z AUTO 00000KT 10SM CLR 29/25 A2986 350 76 2100 000/00 RMK AO2 T02940250
53988KBKB BKB20190806185011508/06/19 18:50:31  5-MIN KBKB 070050Z AUTO 00000KT 10SM CLR 30/24 A2987 350 72 2200 000/00 RMK AO2 SLP138 T03000244
53988KBKB BKB20190806185510808/06/19 18:55:31  5-MIN KBKB 070055Z AUTO 00000KT 10SM CLR 29/25 A2987 350 76 2100 000/00 RMK AO2 T02940250
53988KBKB BKB20190806190010808/06/19 19:00:31  5-MIN KBKB 070100Z AUTO 00000KT 10SM CLR 29/25 A2987 350 76 2100 000/00 RMK AO2 T02940250
53988KBKB BKB20190806190510808/06/19 19:05:31  5-MIN KBKB 070105Z AUTO 00000KT 10SM CLR 29/25 A2987 340 79 2100 000/00 RMK AO2 T02890250
53988KBKB BKB20190806191010808/06/19 19:10:31  5-MIN KBKB 070110Z AUTO 00000KT 10SM CLR 29/25 A2987 340 79 2100 000/00 RMK AO2 T02890250
53988KBKB BKB20190806191510808/06/19 19:15:31  5-MIN KBKB 070115Z AUTO 00000KT 10SM CLR 29/25 A2987 340 79 2100 000/00 RMK AO2 T02890250
53988KBKB BKB20190806192010808/06/19 19:20:31  5-MIN KBKB 070120Z AUTO 00000KT 10SM CLR 28/25 A2988 340 82 2000 000/00 RMK AO2 T02830250
53988KBKB BKB20190806192510808/06/19 19:25:31  5-MIN KBKB 070125Z AUTO 00000KT 10SM CLR 28/25 A2988 340 82 2000 000/00 RMK AO2 T02830250
53988KBKB BKB20190806193010808/06/19 19:30:31  5-MIN KBKB 070130Z AUTO 00000KT 10SM CLR 28/25 A2988 340 82 2000 000/00 RMK AO2 T02830250
53988KBKB BKB20190806193510808/06/19 19:35:31  5-MIN KBKB 070135Z AUTO 00000KT 10SM CLR 28/25 A2988 340 82 2000 000/00 RMK AO2 T02830250
53988KBKB BKB20190806194010808/06/19 19:40:31  5-MIN KBKB 070140Z AUTO 00000KT 10SM CLR 28/25 A2988 340 84 1900 000/00 RMK AO2 T02780250
53988KBKB BKB20190806194510808/06/19 19:45:31  5-MIN KBKB 070145Z AUTO 00000KT 10SM CLR 28/25 A2988 340 84 1900 000/00 RMK AO2 T02780250
53988KBKB BKB20190806195011508/06/19 19:50:31  5-MIN KBKB 070150Z AUTO 00000KT 10SM CLR 28/25 A2988 330 84 1900 000/00 RMK AO2 SLP144 T02780250
53988KBKB BKB20190806195510808/06/19 19:55:31  5-MIN KBKB 070155Z AUTO 00000KT 10SM CLR 28/25 A2989 330 84 1900 000/00 RMK AO2 T02780250
53988KBKB BKB20190806200010808/06/19 20:00:31  5-MIN KBKB 070200Z AUTO 00000KT 10SM CLR 28/25 A2989 330 84 1900 000/00 RMK AO2 T02780250
53988KBKB BKB20190806200510808/06/19 20:05:31  5-MIN KBKB 070205Z AUTO 00000KT 10SM CLR 28/25 A2989 330 84 1900 000/00 RMK AO2 T02780250
53988KBKB BKB20190806201010808/06/19 20:10:31  5-MIN KBKB 070210Z AUTO 00000KT 10SM CLR 28/25 A2989 330 84 1900 000/00 RMK AO2 T02780250
53988KBKB BKB20190806201510808/06/19 20:15:31  5-MIN KBKB 070215Z AUTO 00000KT 10SM CLR 28/25 A2989 330 84 1900 000/00 RMK AO2 T02780250
53988KBKB BKB20190806202010808/06/19 20:20:31  5-MIN KBKB 070220Z AUTO 00000KT 10SM CLR 28/25 A2989 330 84 1900 000/00 RMK AO2 T02780250
53988KBKB BKB20190806202014208/06/19 20:20:31  5-MIN KBKB 070220Z AUTO 00000KT 10SM CLR 28/25 A2989 330O VRB03KT 10SM CLR 27/25 A2991 310 87 1800 VRB/03 RMK AO2 T02720250
53988KBKB BKB20190806202510808/06/19 20:25:31  5-MIN KBKB 070225Z AUTO 00000KT 10SM CLR 28/25 A2989 330 84 1900 000/00 RMK AO2 T02780250
53988KBKB BKB20190806203010808/06/19 20:30:31  5-MIN KBKB 070230Z AUTO 00000KT 10SM CLR 28/25 A2989 330 84 1900 000/00 RMK AO2 T02780250
53988KBKB BKB20190806203510808/06/19 20:35:31  5-MIN KBKB 070235Z AUTO 00000KT 10SM CLR 28/25 A2989 320 84 1900 000/00 RMK AO2 T02780250
53988KBKB BKB20190806204010808/06/19 20:40:31  5-MIN KBKB 070240Z AUTO 00000KT 10SM CLR 27/25 A2989 320 87 1800 000/00 RMK AO2 T02720250
53988KBKB BKB20190806204510808/06/19 20:45:31  5-MIN KBKB 070245Z AUTO 00000KT 10SM CLR 27/25 A2990 320 87 1800 000/00 RMK AO2 T02720250
53988KBKB BKB20190806205012108/06/19 20:50:31  5-MIN KBKB 070250Z AUTO 00000KT 10SM CLR 27/25 A2990 320 87 1800 000/00 RMK AO2 SLP148 T02720250 56009
53988KBKB BKB20190806205510808/06/19 20:55:31  5-MIN KBKB 070255Z AUTO 00000KT 10SM CLR 27/25 A2990 320 87 1800 000/00 RMK AO2 T02720250
53988KBKB BKB20190806210010808/06/19 21:00:31  5-MIN KBKB 070300Z AUTO 00000KT 10SM CLR 27/25 A2990 310 87 1800 000/00 RMK AO2 T02720250
53988KBKB BKB20190806210510808/06/19 21:05:31  5-MIN KBKB 070305Z AUTO 00000KT 10SM CLR 27/25 A2990 310 87 1800 000/00 RMK AO2 T02720250
53988KBKB BKB20190806211010808/06/19 21:10:31  5-MIN KBKB 070310Z AUTO 00000KT 10SM CLR 27/25 A2990 310 87 1800 000/00 RMK AO2 T02720250
53988KBKB BKB20190806211510808/06/19 21:15:31  5-MIN KBKB 070315Z AUTO 00000KT 10SM CLR 27/25 A2991 310 87 1800 000/00 RMK AO2 T02720250
53988KBKB BKB20190806212010808/06/19 21:20:31  5-MIN KBKB 070320Z AUTO 00000KT 10SM CLR 27/25 A2990 310 87 1800 000/00 RMK AO2 T02720250
53988KBKB BKB20190806212510808/06/19 21:25:31  5-MIN KBKB 070325Z AUTO 00000KT 10SM CLR 27/25 A2990 310 90 1800 000/00 RMK AO2 T02670250
53988KBKB BKB20190806213010808/06/19 21:30:31  5-MIN KBKB 070330Z AUTO 00000KT 10SM CLR 27/25 A2991 310 87 1800 000/00 RMK AO2 T02720250
53988KBKB BKB20190806213510808/06/19 21:35:31  5-MIN KBKB 070335Z AUTO 00000KT 10SM CLR 27/25 A2991 310 87 1800 000/00 RMK AO2 T02720250
53988KBKB BKB20190806214010808/06/19 21:40:31  5-MIN KBKB 070340Z AUTO 00000KT 10SM CLR 27/25 A2991 310 90 1800 000/00 RMK AO2 T02670250
53988KBKB BKB20190806214510808/06/19 21:45:31  5-MIN KBKB 070345Z AUTO 00000KT 10SM CLR 27/25 A2991 310 90 1800 000/00 RMK AO2 T02670250
53988KBKB BKB20190806215011508/06/19 21:50:31  5-MIN KBKB 070350Z AUTO 00000KT 10SM CLR 27/25 A2991 310 87 1800 000/00 RMK AO2 SLP153 T02720250
53988KBKB BKB20190806215510808/06/19 21:55:31  5-MIN KBKB 070355Z AUTO 00000KT 10SM CLR 27/25 A2991 310 90 1800 000/00 RMK AO2 T02670250
53988KBKB BKB20190806220010808/06/19 22:00:31  5-MIN KBKB 070400Z AUTO 00000KT 10SM CLR 27/25 A2991 310 90 1800 000/00 RMK AO2 T02670250
53988KBKB BKB20190806220510808/06/19 22:05:31  5-MIN KBKB 070405Z AUTO 00000KT 10SM CLR 27/25 A2991 310 90 1800 000/00 RMK AO2 T02670250
53988KBKB BKB20190806221010808/06/19 22:10:31  5-MIN KBKB 070410Z AUTO 00000KT 10SM CLR 27/25 A2991 310 90 1800 000/00 RMK AO2 T02670250
53988KBKB BKB20190806221510808/06/19 22:15:31  5-MIN KBKB 070415Z AUTO VRB03KT 10SM CLR 27/25 A2991 310 87 1800 VRB/03 RMK AO2 T02720250
53988KBKB BKB20190806222010808/06/19 22:20:31  5-MIN KBKB 070420Z AUTO VRB04KT 10SM CLR 27/25 A2991 310 87 1800 VRB/04 RMK AO2 T02720250
53988KBKB BKB20190806222510808/06/19 22:25:31  5-MIN KBKB 070425Z AUTO 00000KT 10SM CLR 27/25 A2991 310 87 1800 000/00 RMK AO2 T02720250
53988KBKB BKB20190806223010808/06/19 22:30:31  5-MIN KBKB 070430Z AUTO VRB03KT 10SM CLR 27/25 A2991 310 87 1800 VRB/03 RMK AO2 T02720250
53988KBKB BKB20190806223510808/06/19 22:35:31  5-MIN KBKB 070435Z AUTO 00000KT 10SM CLR 27/25 A2991 310 87 1800 000/00 RMK AO2 T02720250
53988KBKB BKB20190806224010808/06/19 22:40:31  5-MIN KBKB 070440Z AUTO VRB03KT 10SM CLR 27/25 A2991 310 87 1800 VRB/03 RMK AO2 T02720250
53988KBKB BKB20190806224510808/06/19 22:45:31  5-MIN KBKB 070445Z AUTO 00000KT 10SM CLR 27/25 A2991 310 87 1800 000/00 RMK AO2 T02720250
53988KBKB BKB20190806225009908/06/19 22:50:31  5-MIN KBKB 070450Z AUTO10SM CLR 27/25 A2993 290 90 1700 000/00 RMK AO2 T02670250
53988KBKB BKB20190806225011508/06/19 22:50:31  5-MIN KBKB 070450Z AUTO 20003KT 10SM CLR 27/25 A2992 300 87 1800 190/03 RMK AO2 SLP154 T02720250
53988KBKB BKB20190806225510808/06/19 22:55:31  5-MIN KBKB 070455Z AUTO 21003KT 10SM CLR 27/25 A2992 300 87 1800 200/03 RMK AO2 T02720250
53988KBKB BKB20190806230010808/06/19 23:00:31  5-MIN KBKB 070500Z AUTO 00000KT 10SM CLR 27/25 A2992 300 87 1800 000/00 RMK AO2 T02720250
53988KBKB BKB20190806230510808/06/19 23:05:31  5-MIN KBKB 070505Z AUTO VRB03KT 10SM CLR 27/25 A2992 300 87 1800 VRB/03 RMK AO2 T02720250
53988KBKB BKB20190806231010808/06/19 23:10:31  5-MIN KBKB 070510Z AUTO 00000KT 10SM CLR 27/25 A2992 290 87 1800 000/00 RMK AO2 T02720250
53988KBKB BKB20190806231510808/06/19 23:15:31  5-MIN KBKB 070515Z AUTO 00000KT 10SM CLR 27/25 A2992 290 87 1800 000/00 RMK AO2 T02720250
53988KBKB BKB20190806232010808/06/19 23:20:31  5-MIN KBKB 070520Z AUTO 00000KT 10SM CLR 27/25 A2992 290 90 1700 000/00 RMK AO2 T02670250
53988KBKB BKB20190806232510808/06/19 23:25:31  5-MIN KBKB 070525Z AUTO 00000KT 10SM CLR 27/25 A2993 290 90 1700 000/00 RMK AO2 T02670250
53988KBKB BKB20190806233010808/06/19 23:30:31  5-MIN KBKB 070530Z AUTO 00000KT 10SM CLR 27/25 A2993 290 90 1700 000/00 RMK AO2 T02670250
53988KBKB BKB20190806233510808/06/19 23:35:31  5-MIN KBKB 070535Z AUTO 00000KT 10SM CLR 27/25 A2993 290 90 1700 000/00 RMK AO2 T02670250
53988KBKB BKB20190806234010808/06/19 23:40:31  5-MIN KBKB 070540Z AUTO 00000KT 10SM CLR 27/24 A2993 290 87 1700 000/00 RMK AO2 T02670244
53988KBKB BKB20190806234510808/06/19 23:45:31  5-MIN KBKB 070545Z AUTO 00000KT 10SM CLR 27/24 A2993 290 87 1700 000/00 RMK AO2 T02670244
53988KBKB BKB20190806235014308/06/19 23:50:31  5-MIN KBKB 070550Z AUTO 00000KT 10SM CLR 27/24 A2993 290 87 1700 000/00 RMK AO2 SLP160 T02670244 10306 20267 403500233 53008
53988KBKB BKB20190806235510808/06/19 23:55:31  5-MIN KBKB 070555Z AUTO 00000KT 10SM CLR 27/24 A2993 290 87 1700 000/00 RMK AO2 T02670244
53988KBKB BKB20190807000010808/07/19 00:00:31  5-MIN KBKB 070600Z AUTO 00000KT 10SM CLR 27/24 A2993 290 87 1700 000/00 RMK AO2 T02670244
53988KBKB BKB20190807000510808/07/19 00:05:31  5-MIN KBKB 070605Z AUTO 00000KT 10SM CLR 26/24 A2993 290 90 1700 000/00 RMK AO2 T02610244
53988KBKB BKB20190807001010808/07/19 00:10:31  5-MIN KBKB 070610Z AUTO 00000KT 10SM CLR 26/24 A2993 290 90 1700 000/00 RMK AO2 T02610244
53988KBKB BKB20190807001510808/07/19 00:15:31  5-MIN KBKB 070615Z AUTO 00000KT 10SM CLR 26/24 A2993 290 90 1700 000/00 RMK AO2 T02610244
53988KBKB BKB20190807002010808/07/19 00:20:31  5-MIN KBKB 070620Z AUTO 00000KT 10SM CLR 26/24 A2993 290 90 1700 000/00 RMK AO2 T02610244
53988KBKB BKB20190807002510808/07/19 00:25:31  5-MIN KBKB 070625Z AUTO 00000KT 10SM CLR 26/24 A2993 290 90 1700 000/00 RMK AO2 T02610244
53988KBKB BKB20190807003010808/07/19 00:30:31  5-MIN KBKB 070630Z AUTO 00000KT 10SM CLR 26/24 A2993 290 93 1600 000/00 RMK AO2 T02560244
53988KBKB BKB20190807003510808/07/19 00:35:31  5-MIN KBKB 070635Z AUTO 00000KT 10SM CLR 26/24 A2993 290 93 1600 000/00 RMK AO2 T02560244
53988KBKB BKB20190807004010808/07/19 00:40:31  5-MIN KBKB 070640Z AUTO 00000KT 10SM CLR 26/24 A2993 290 93 1600 000/00 RMK AO2 T02560244
53988KBKB BKB20190807004510808/07/19 00:45:31  5-MIN KBKB 070645Z AUTO 00000KT 10SM CLR 26/24 A2993 290 93 1600 000/00 RMK AO2 T02560244
53988KBKB BKB20190807005011508/07/19 00:50:31  5-MIN KBKB 070650Z AUTO 00000KT 10SM CLR 26/24 A2993 290 93 1600 000/00 RMK AO2 SLP159 T02560244
53988KBKB BKB20190807005509408/07/19 00:55:31  5-MIN KBKB 070655Z AUTO 00000KT 10SM CLR 26/24 A2993 2/00 RMK AO2 T02560244
53988KBKB BKB20190807014510808/07/19 01:45:31  5-MIN KBKB 070745Z AUTO 00000KT 10SM CLR 26/24 A2992 300 93 1600 000/00 RMK AO2 T02560244
53988KBKB BKB20190807015011508/07/19 01:50:31  5-MIN KBKB 070750Z AUTO 00000KT 10SM CLR 25/24 A2992 300 97 1600 000/00 RMK AO2 SLP156 T02500244
53988KBKB BKB20190807015510808/07/19 01:55:31  5-MIN KBKB 070755Z AUTO 00000KT 10SM CLR 25/24 A2992 300 93 1600 000/00 RMK AO2 T02500239
53988KBKB BKB20190807020010708/07/19 02:00:31  5-MIN KBKB 070800Z AUTO 00000KT 9SM CLR 25/24 A2992 300 97 1600 000/00 RMK AO2 T02500244
53988KBKB BKB20190807020016308/07/19 02:00:31  5-MIN KBKB 070800Z AUTO 00000KT 9SM CLR 25/24 A2992 300 97 1600 000/0740Z AUTO 00000KT 10SM CLR 26/24 A2992 300 93 1600 000/00 RMK AO2 T02560244
53988KBKB BKB20190807020510708/07/19 02:05:31  5-MIN KBKB 070805Z AUTO 00000KT 9SM CLR 25/24 A2992 300 97 1600 000/00 RMK AO2 T02500244
53988KBKB BKB20190807021010708/07/19 02:10:31  5-MIN KBKB 070810Z AUTO 00000KT 8SM CLR 25/24 A2992 300 97 1600 000/00 RMK AO2 T02500244
53988KBKB BKB20190807021011508/07/19 02:10:31  5-MIN KBKB 070810Z AUTO 00000KT 8SM CLR 25/24 A2992 300  97 1600 000/00 RMK AO2 SLP156 T02500244
53988KBKB BKB20190807021510708/07/19 02:15:31  5-MIN KBKB 070815Z AUTO 00000KT 7SM CLR 25/24 A2992 300 93 1600 000/00 RMK AO2 T02500239
53988KBKB BKB20190807022010708/07/19 02:20:31  5-MIN KBKB 070820Z AUTO 00000KT 7SM CLR 25/24 A2992 300 93 1600 000/00 RMK AO2 T02500239
53988KBKB BKB20190807022510708/07/19 02:25:31  5-MIN KBKB 070825Z AUTO 00000KT 7SM CLR 25/24 A2992 300 93 1600 000/00 RMK AO2 T02500239
53988KBKB BKB20190807023010708/07/19 02:30:31  5-MIN KBKB 070830Z AUTO 00000KT 7SM CLR 25/24 A2992 300 93 1600 000/00 RMK AO2 T02500239
53988KBKB BKB20190807023510708/07/19 02:35:31  5-MIN KBKB 070835Z AUTO 00000KT 8SM CLR 25/24 A2991 300 93 1600 000/00 RMK AO2 T02500239
53988KBKB BKB20190807024010708/07/19 02:40:31  5-MIN KBKB 070840Z AUTO 00000KT 7SM CLR 25/24 A2991 300 93 1600 000/00 RMK AO2 T02500239
53988KBKB BKB20190807024510708/07/19 02:45:31  5-MIN KBKB 070845Z AUTO 00000KT 8SM CLR 25/24 A2991 300 93 1600 000/00 RMK AO2 T02500239
53988KBKB BKB20190807025012008/07/19 02:50:31  5-MIN KBKB 070850Z AUTO 00000KT 9SM CLR 25/24 A2992 300 93 1600 000/00 RMK AO2 SLP154 T02500239 53011
53988KBKB BKB20190807025510808/07/19 02:55:31  5-MIN KBKB 070855Z AUTO 00000KT 10SM CLR 25/24 A2992 300 93 1600 000/00 RMK AO2 T02500239
53988KBKB BKB20190807030010808/07/19 03:00:31  5-MIN KBKB 070900Z AUTO 00000KT 10SM CLR 25/24 A2992 300 93 1600 000/00 RMK AO2 T02500239
53988KBKB BKB20190807030510808/07/19 03:05:31  5-MIN KBKB 070905Z AUTO 00000KT 10SM CLR 25/24 A2992 300 93 1600 000/00 RMK AO2 T02500239
53988KBKB BKB20190807031010708/07/19 03:10:31  5-MIN KBKB 070910Z AUTO 00000KT 9SM CLR 25/24 A2992 300 97 1600 000/00 RMK AO2 T02500244
53988KBKB BKB20190807031510808/07/19 03:15:31  5-MIN KBKB 070915Z AUTO 00000KT 10SM CLR 25/24 A2992 300 97 1600 000/00 RMK AO2 T02500244
53988KBKB BKB20190807032010808/07/19 03:20:31  5-MIN KBKB 070920Z AUTO 00000KT 10SM CLR 25/24 A2992 300 97 1600 000/00 RMK AO2 T02500244
53988KBKB BKB20190807032510808/07/19 03:25:31  5-MIN KBKB 070925Z AUTO 00000KT 10SM CLR 25/24 A2992 300 93 1600 000/00 RMK AO2 T02500239
53988KBKB BKB20190807033010808/07/19 03:30:31  5-MIN KBKB 070930Z AUTO 00000KT 10SM CLR 25/24 A2992 300 97 1600 000/00 RMK AO2 T02500244
53988KBKB BKB20190807033510808/07/19 03:35:31  5-MIN KBKB 070935Z AUTO 00000KT 10SM CLR 25/24 A2992 300 93 1600 000/00 RMK AO2 T02500239
53988KBKB BKB20190807034010708/07/19 03:40:31  5-MIN KBKB 070940Z AUTO 00000KT 8SM CLR 25/24 A2992 300 93 1600 000/00 RMK AO2 T02500239
53988KBKB BKB20190807034510708/07/19 03:45:31  5-MIN KBKB 070945Z AUTO 00000KT 8SM CLR 25/24 A2992 300 97 1600 000/00 RMK AO2 T02500244
53988KBKB BKB20190807035011408/07/19 03:50:31  5-MIN KBKB 070950Z AUTO 00000KT 9SM CLR 25/24 A2992 300 93 1600 000/00 RMK AO2 SLP156 T02500239
53988KBKB BKB20190807035515208/07/19 03:55:31  5-MIN KBKB 070955Z AUTO 00000KT 10SM CLR 25/24 A2992 300 97 1600 000/00 RMK AO2 T0250024408/07/AO2 SLP167 T02500239 10267 20244 58005
53988KBKB BKB20190807054011008/07/19 05:40:31  5-MIN KBKB 071140Z AUTO 00000KT 5SM BR CLR 24/24 A2995 270 97 1500 000/00 RMK AO2 T02440239
53988KBKB BKB20190807054511008/07/19 05:45:31  5-MIN KBKB 071145Z AUTO 00000KT 6SM BR CLR 25/24 A2995 270 93 1500 000/00 RMK AO2 T02500239
53988KBKB BKB20190807055013208/07/19 05:50:31  5-MIN KBKB 071150Z AUTO 00000KT 7SM CLR 25/24 A2995 270 93 1500 000/00 RMK AO2 SLP167 T02500239 10267 20244 58005
53988KBKB BKB20190807055510708/07/19 05:55:31  5-MIN KBKB 071155Z AUTO 00000KT 7SM CLR 25/24 A2995 270 97 1500 000/00 RMK AO2 T02500244
53988KBKB BKB20190807055514408/07/19 05:55:31  5-MIN KBKB 071155Z AUTO 00000KT 7SM CLR 25/24 71135Z AUTO 00000KT 5SM BR CLR 24/24 A2994 280 97 1500 000/00 RMK AO2 T02440239
53988KBKB BKB20190807060010708/07/19 06:00:31  5-MIN KBKB 071200Z AUTO 00000KT 7SM CLR 25/24 A2995 270 97 1500 000/00 RMK AO2 T02500244
53988KBKB BKB20190807060014308/07/19 06:00:31  5-MIN KBKB 071200Z AUTO 00000KT 7SM CLR 25/24 A2995 270 97 1500 000/00 RMK AO2 T02500244270 93 1500 000/00 RMK AO2 T02500239
53988KBKB BKB20190808154011108/08/19 15:40:31  5-MIN KBKB 082140Z AUTO VRB04KT 10SM BKN055 35/23 A2991 310 48 2700 VRB/04 RMK AO2 T03500228
53988KBKB BKB20190808154511108/08/19 15:45:31  5-MIN KBKB 082145Z AUTO 00000KT 10SM BKN050 35/23 A2991 310 50 2700 000/00 RMK AO2 T03500233
53988KBKB BKB20190808155011808/08/19 15:50:31  5-MIN KBKB 082150Z AUTO VRB05KT 10SM BKN050 35/23 A2990 310 48 2700 VRB/05 RMK AO2 SLP150 T03500228
53988KBKB BKB20190808155511108/08/19 15:55:31  5-MIN KBKB 082155Z AUTO 00000KT 10SM BKN055 35/23 A2990 320 48 2700 000/00 RMK AO2 T03500228
53988KBKB BKB20190808160011108/08/19 16:00:31  5-MIN KBKB 082200Z AUTO 15004KT 10SM SCT050 35/23 A2990 320 48 2700 140/04 RMK AO2 T03500228
53988KBKB BKB20190808160511108/08/19 16:05:31  5-MIN KBKB 082205Z AUTO VRB03KT 10SM FEW050 35/23 A2990 320 48 2700 VRB/03 RMK AO2 T03500228
53988KBKB BKB20190808161011108/08/19 16:10:31  5-MIN KBKB 082210Z AUTO 00000KT 10SM FEW055 34/22 A2990 320 48 2600 000/00 RMK AO2 T03440222
53988KBKB BKB20190808161510808/08/19 16:15:31  5-MIN KBKB 082215Z AUTO 00000KT 10SM CLR 34/22 A2990 320 48 2600 000/00 RMK AO2 T03440222
53988KBKB BKB20190808162010808/08/19 16:20:31  5-MIN KBKB 082220Z AUTO 00000KT 10SM CLR 34/22 A2990 320 48 2600 000/00 RMK AO2 T03440222
53988KBKB BKB20190808162510808/08/19 16:25:31  5-MIN KBKB 082225Z AUTO 00000KT 10SM CLR 35/23 A2990 320 48 2700 000/00 RMK AO2 T03500228
53988KBKB BKB20190808163010808/08/19 16:30:31  5-MIN KBKB 082230Z AUTO VRB03KT 10SM CLR 35/22 A2990 320 47 2700 VRB/03 RMK AO2 T03500222
53988KBKB BKB20190808163510808/08/19 16:35:31  5-MIN KBKB 082235Z AUTO 00000KT 10SM CLR 35/23 A2990 320 48 2700 000/00 RMK AO2 T03500228
53988KBKB BKB20190808164010808/08/19 16:40:31  5-MIN KBKB 082240Z AUTO VRB03KT 10SM CLR 35/23 A2990 320 48 2700 VRB/03 RMK AO2 T03500228
53988KBKB BKB20190808164510808/08/19 16:45:31  5-MIN KBKB 082245Z AUTO VRB04KT 10SM CLR 34/23 A2990 320 50 2600 VRB/04 RMK AO2 T03440228
53988KBKB BKB20190808165011508/08/19 16:50:31  5-MIN KBKB 082250Z AUTO VRB04KT 10SM CLR 34/23 A2990 320 50 2600 VRB/04 RMK AO2 SLP149 T03440228
53988KBKB BKB20190808165510808/08/19 16:55:31  5-MIN KBKB 082255Z AUTO 00000KT 10SM CLR 34/22 A2990 320 48 2600 000/00 RMK AO2 T03440222
53988KBKB BKB20190808170010808/08/19 17:00:31  5-MIN KBKB 082300Z AUTO 00000KT 10SM CLR 34/23 A2990 320 50 2600 000/00 RMK AO2 T03440228
53988KBKB BKB20190808170510808/08/19 17:05:31  5-MIN KBKB 082305Z AUTO 00000KT 10SM CLR 34/23 A2990 320 50 2600 000/00 RMK AO2 T03440228
53988KBKB BKB20190808171010808/08/19 17:10:31  5-MIN KBKB 082310Z AUTO 00000KT 10SM CLR 34/23 A2990 320 50 2600 000/00 RMK AO2 T03440228
53988KBKB BKB20190808171510808/08/19 17:15:31  5-MIN KBKB 082315Z AUTO VRB04KT 10SM CLR 34/23 A2989 320 51 2600 VRB/04 RMK AO2 T03390228
53988KBKB BKB20190808172010808/08/19 17:20:31  5-MIN KBKB 082320Z AUTO 00000KT 10SM CLR 34/23 A2990 320 51 2600 000/00 RMK AO2 T03390228
53988KBKB BKB20190808172510808/08/19 17:25:31  5-MIN KBKB 082325Z AUTO 00000KT 10SM CLR 34/23 A2990 320 53 2600 000/00 RMK AO2 T03390233
53988KBKB BKB20190808173010808/08/19 17:30:31  5-MIN KBKB 082330Z AUTO 00000KT 10SM CLR 33/24 A2990 320 57 2500 000/00 RMK AO2 T03330239
53988KBKB BKB20190808173510808/08/19 17:35:31  5-MIN KBKB 082335Z AUTO 00000KT 10SM CLR 33/23 A2990 310 55 2500 000/00 RMK AO2 T03330233
53988KBKB BKB20190808174010808/08/19 17:40:31  5-MIN KBKB 082340Z AUTO VRB03KT 10SM CLR 33/23 A2990 310 55 2500 VRB/03 RMK AO2 T03330233
53988KBKB BKB20190808174510808/08/19 17:45:31  5-MIN KBKB 082345Z AUTO 00000KT 10SM CLR 33/23 A2990 310 57 2500 000/00 RMK AO2 T03280233
53988KBKB BKB20190808175013308/08/19 17:50:31  5-MIN KBKB 082350Z AUTO 00000KT 10SM CLR 33/23 A2990 310 57 2400 000/00 RMK AO2 SLP150 T03280233 10361 20328 58016
53988KBKB BKB20190808175510808/08/19 17:55:31  5-MIN KBKB 082355Z AUTO 00000KT 10SM CLR 33/23 A2990 310 57 2500 000/00 RMK AO2 T03280233
53988KBKB BKB20190808180010808/08/19 18:00:31  5-MIN KBKB 090000Z AUTO VRB03KT 10SM CLR 32/24 A2990 310 61 2400 VRB/03 RMK AO2 T03220239
53988KBKB BKB20190808180510808/08/19 18:05:31  5-MIN KBKB 090005Z AUTO 00000KT 10SM CLR 32/24 A2990 320 61 2400 000/00 RMK AO2 T03220239
53988KBKB BKB20190808181010808/08/19 18:10:31  5-MIN KBKB 090010Z AUTO 00000KT 10SM CLR 32/24 A2990 320 61 2400 000/00 RMK AO2 T03220239
53988KBKB BKB20190808181510808/08/19 18:15:31  5-MIN KBKB 090015Z AUTO 00000KT 10SM CLR 32/24 A2990 320 61 2400 000/00 RMK AO2 T03220239
53988KBKB BKB20190808182010808/08/19 18:20:31  5-MIN KBKB 090020Z AUTO 00000KT 10SM CLR 32/24 A2990 310 63 2300 000/00 RMK AO2 T03170239
53988KBKB BKB20190808182510808/08/19 18:25:31  5-MIN KBKB 090025Z AUTO 00000KT 10SM CLR 32/24 A2990 310 63 2300 000/00 RMK AO2 T03170239
53988KBKB BKB20190808183010808/08/19 18:30:31  5-MIN KBKB 090030Z AUTO 00000KT 10SM CLR 31/24 A2990 310 65 2300 000/00 RMK AO2 T03110239
53988KBKB BKB20190808183510808/08/19 18:35:31  5-MIN KBKB 090035Z AUTO 00000KT 10SM CLR 31/24 A2991 310 65 2300 000/00 RMK AO2 T03110239
53988KBKB BKB20190808184010808/08/19 18:40:31  5-MIN KBKB 090040Z AUTO VRB04KT 10SM CLR 31/24 A2991 310 69 2200 VRB/04 RMK AO2 T03060244
53988KBKB BKB20190808184510808/08/19 18:45:31  5-MIN KBKB 090045Z AUTO VRB03KT 10SM CLR 31/24 A2991 310 69 2200 VRB/03 RMK AO2 T03060244
53988KBKB BKB20190808185011508/08/19 18:50:31  5-MIN KBKB 090050Z AUTO VRB03KT 10SM CLR 30/24 A2991 310 72 2100 VRB/03 RMK AO2 SLP152 T03000244
53988KBKB BKB20190808185510808/08/19 18:55:31  5-MIN KBKB 090055Z AUTO 00000KT 10SM CLR 30/25 A2991 310 74 2100 000/00 RMK AO2 T03000250
53988KBKB BKB20190808190010808/08/19 19:00:31  5-MIN KBKB 090100Z AUTO VRB03KT 10SM CLR 29/25 A2991 310 76 2100 VRB/03 RMK AO2 T02940250
53988KBKB BKB20190808190510808/08/19 19:05:31  5-MIN KBKB 090105Z AUTO 00000KT 10SM CLR 29/25 A2991 310 76 2100 000/00 RMK AO2 T02940250
53988KBKB BKB20190808191010808/08/19 19:10:31  5-MIN KBKB 090110Z AUTO 00000KT 10SM CLR 29/25 A2991 310 76 2100 000/00 RMK AO2 T02940250
53988KBKB BKB20190808191510808/08/19 19:15:31  5-MIN KBKB 090115Z AUTO 00000KT 10SM CLR 29/24 A2991 310 76 2000 000/00 RMK AO2 T02890244
53988KBKB BKB20190808192011508/08/19 19:20:31  5-MIN KBKB 090120Z AUTO 20003KT 10SM CLR 29/24 A2990 310 76 2000 200/03 R00/00 RMK AO2 T02720239
53988KBKB BKB20190808204510808/08/19 20:45:31  5-MIN KBKB 090245Z AUTO 00000KT 10SM CLR 27/24 A2991 300 82 1800 000/00 RMK AO2 T02720239
53988KBKB BKB20190808205012108/08/19 20:50:31  5-MIN KBKB 090250Z AUTO 00000KT 10SM CLR 27/24 A2991 310 82 1800 000/00 RMK AO2 SLP153 T02720239 55001
53988KBKB BKB20190808205510808/08/19 20:55:31  5-MIN KBKB 090255Z AUTO 00000KT 10SM CLR 27/24 A2991 300 84 1800 000/00 RMK AO2 T02670239
53988KBKB BKB20190808210010808/08/19 21:00:31  5-MIN KBKB 090300Z AUTO 00000KT 10SM CLR 27/24 A2991 310 84 1800 000/00 RMK AO2 T02670239
53988KBKB BKB20190808210510808/08/19 21:05:31  5-MIN KBKB 090305Z AUTO 00000KT 10SM CLR 27/24 A2991 300 84 1800 000/00 RMK AO2 T02670239
53988KBKB BKB20190808211010808/08/19 21:10:31  5-MIN KBKB 090310Z AUTO 00000KT 10SM CLR 27/24 A2991 300 84 1800 000/00 RMK AO2 T02670239
53988KBKB BKB20190808211510808/08/19 21:15:31  5-MIN KBKB 090315Z AUTO 00000KT 10SM CLR 27/24 A2991 300 87 1700 000/00 RMK AO2 T02610239
53988KBKB BKB20190808213510808/08/19 21:35:31  5-MIN KBKB 090335Z AUTO 00000KT 10SM CLR 26/24 A2992 300 87 1700 000/00 RMK AO2 T02610239
53988KBKB BKB20190808214010808/08/19 21:40:31  5-MIN KBKB 090340Z AUTO 00000KT 10SM CLR 26/24 A2992 300 87 1700 000/00 RMK AO2 T02610239
53988KBKB BKB20190808214510808/08/19 21:45:31  5-MIN KBKB 090345Z AUTO 00000KT 10SM CLR 26/24 A2992 300 87 1700 000/00 RMK AO2 T02610239
53988KBKB BKB20190808215011508/08/19 21:50:31  5-MIN KBKB 090350Z AUTO 00000KT 10SM CLR 26/24 A2992 300 87 1700 000/00 RMK AO2 SLP155 T02610239
53988KBKB BKB20190808215510808/08/19 21:55:31  5-MIN KBKB 090355Z AUTO 00000KT 10SM CLR 26/24 A2992 300 87 1700 000/00 RMK AO2 T02610239
53988KBKB BKB20190808220010808/08/19 22:00:31  5-MIN KBKB 090400Z AUTO 00000KT 10SM CLR 26/24 A2992 300 87 1700 000/00 RMK AO2 T02610239
53988KBKB BKB20190808220510808/08/19 22:05:31  5-MIN KBKB 090405Z AUTO 00000KT 10SM CLR 26/24 A2992 300 87 1700 000/00 RMK AO2 T02610239
53988KBKB BKB20190808221010808/08/19 22:10:31  5-MIN KBKB 090410Z AUTO 00000KT 10SM CLR 26/24 A2992 300 87 1700 000/00 RMK AO2 T02610239
53988KBKB BKB20190808221510808/08/19 22:15:31  5-MIN KBKB 090415Z AUTO 00000KT 10SM CLR 26/24 A2992 300 87 1700 000/00 RMK AO2 T02610239
53988KBKB BKB20190808222010808/08/19 22:20:31  5-MIN KBKB 090420Z AUTO 00000KT 10SM CLR 26/24 A2992 300 87 1700 000/00 RMK AO2 T02610239
53988KBKB BKB20190808222510808/08/19 22:25:31  5-MIN KBKB 090425Z AUTO 00000KT 10SM CLR 26/24 A2992 300 87 1700 000/00 RMK AO2 T02610239
53988KBKB BKB20190808223010808/08/19 22:30:31  5-MIN KBKB 090430Z AUTO 00000KT 10SM CLR 26/24 A2992 300 87 1700 000/00 RMK AO2 T02610239
53988KBKB BKB20190808223510808/08/19 22:35:31  5-MIN KBKB 090435Z AUTO 00000KT 10SM CLR 26/24 A2992 300 87 1700 000/00 RMK AO2 T02610239
53988KBKB BKB20190808224010808/08/19 22:40:31  5-MIN KBKB 090440Z AUTO 00000KT 10SM CLR 26/24 A2993 290 87 1700 000/00 RMK AO2 T02610239
53988KBKB BKB20190808224510808/08/19 22:45:31  5-MIN KBKB 090445Z AUTO 00000KT 10SM CLR 26/24 A2993 290 87 1700 000/00 RMK AO2 T02610239
53988KBKB BKB20190808225011508/08/19 22:50:31  5-MIN KBKB 090450Z AUTO 00000KT 10SM CLR 26/24 A2993 290 87 1700 000/00 RMK AO2 SLP159 T02610239
53988KBKB BKB20190808225510808/08/19 22:55:31  5-MIN KBKB 090455Z AUTO 00000KT 10SM CLR 26/24 A2993 290 87 1700 000/00 RMK AO2 T02610239
53988KBKB BKB20190808230010808/08/19 23:00:31  5-MIN KBKB 090500Z AUTO 00000KT 10SM CLR 26/24 A2993 290 87 1700 000/00 RMK AO2 T02610239
53988KBKB BKB20190808230510808/08/19 23:05:31  5-MIN KBKB 090505Z AUTO 00000KT 10SM CLR 26/24 A2993 290 90 1600 000/00 RMK AO2 T02560239
53988KBKB BKB20190808231010808/08/19 23:10:31  5-MIN KBKB 090510Z AUTO 00000KT 10SM CLR 26/24 A2993 290 90 1600 000/00 RMK AO2 T02560239
53988KBKB BKB20190808231510808/08/19 23:15:31  5-MIN KBKB 090515Z AUTO 00000KT 10SM CLR 26/24 A2993 290 90 1700 000/00 RMK AO2 T02610244
53988KBKB BKB20190808232010808/08/19 23:20:31  5-MIN KBKB 090520Z AUTO 00000KT 10SM CLR 26/24 A2993 290 90 1700 000/00 RMK AO2 T02610244
53988KBKB BKB20190808232510808/08/19 23:25:31  5-MIN KBKB 090525Z AUTO 00000KT 10SM CLR 26/24 A2993 290 90 1700 000/00 RMK AO2 T02610244
53988KBKB BKB20190808233014108/08/19 23:30:31  5-MIN KBKB 090530Z AUTO 00000KT 10SM CLR 26/24 A2993 290 90 1700 000/00 RMK AO2 T02610244 90 1700 000/00 RMK AO2 T02610244
53988KBKB BKB20190809003510808/09/19 00:35:31  5-MIN KBKB 090635Z AUTO 00000KT 10SM CLR 26/24 A2992 300 93 1600 000/00 RMK AO2 T02560244
53988KBKB BKB20190809004010708/09/19 00:40:31  5-MIN KBKB 090640Z AUTO 00000KT 9SM CLR 26/24 A2992 300 93 1600 000/00 RMK AO2 T02560244
53988KBKB BKB20190809004513008/09/19 00:45:31  5-MIN KBKB 090645Z AUTO 00000KT 9SM CLR 26/24 A2992 300 93 160025/24 A2993 290 93 1600 000/00 RMK AO2 T02500239
53988KBKB BKB20190809032512008/09/19 03:25:31  5-MIN KBKB 090925Z AUTO 00000KT 5SM BR SCT009 BKN015 25/24 A2993 290 93 1600 000/00 RMK AO2 T02500239
53988KBKB BKB20190809033012008/09/19 03:30:31  5-MIN KBKB 090930Z AUTO 00000KT 5SM BR SCT009 BKN015 25/24 A2993 290 93 1600 000/00 RMK AO2 T02500239
53988KBKB BKB20190809033512708/09/19 03:35:31  5-MIN KBKB 090935Z AUTO 00000KT 5SM BR FEW005 SCT009 BKN013 25/24 A2993 290 93 1600 000/00 RMK AO2 T02500239
53988KBKB BKB20190809135011808/09/19 13:50:31  5-MIN KBKB 091950Z AUTO VRB03KT 10SM FEW049 34/23 A2994 280 51 2500 VRB/03 RMK AO2 SLP161 T03390228
53988KBKB BKB20190809135511108/09/19 13:55:31  5-MIN KBKB 091955Z AUTO VRB03KT 10SM FEW049 35/23 A2993 290 50 2700 VRB/03 RMK AO2 T03500233
53988KBKB BKB20190809140011108/09/19 14:00:31  5-MIN KBKB 092000Z AUTO VRB04KT 10SM FEW050 34/23 A2993 290 52 2600 VRB/04 RMK AO2 T03440233
53988KBKB BKB20190809140511108/09/19 14:05:31  5-MIN KBKB 092005Z AUTO 00000KT 10SM FEW055 34/23 A2993 290 51 2500 000/00 RMK AO2 T03390228
53988KBKB BKB20190809141011108/09/19 14:10:31  5-MIN KBKB 092010Z AUTO VRB04KT 10SM SCT055 34/23 A2993 290 50 2600 VRB/04 RMK AO2 T03440228
53988KBKB BKB20190809141511108/09/19 14:15:31  5-MIN KBKB 092015Z AUTO VRB03KT 10SM SCT055 34/22 A2993 290 48 2600 VRB/03 RMK AO2 T03440222
53988KBKB BKB20190809142011108/09/19 14:20:31  5-MIN KBKB 092020Z AUTO VRB05KT 10SM FEW055 34/23 A2993 290 50 2600 VRB/05 RMK AO2 T03440228
53988KBKB BKB20190809142511108/09/19 14:25:31  5-MIN KBKB 092025Z AUTO 00000KT 10SM FEW055 34/23 A2993 290 51 2500 000/00 RMK AO2 T03390228
53988KBKB BKB20190809143011108/09/19 14:30:31  5-MIN KBKB 092030Z AUTO VRB03KT 10SM SCT055 34/23 A2992 290 52 2600 VRB/03 RMK AO2 T03440233
53988KBKB BKB20190809143511108/09/19 14:35:31  5-MIN KBKB 092035Z AUTO 00000KT 10SM BKN055 33/23 A2992 300 55 2500 000/00 RMK AO2 T03330233
53988KBKB BKB20190809144011108/09/19 14:40:31  5-MIN KBKB 092040Z AUTO VRB03KT 10SM SCT055 34/24 A2992 300 53 2600 VRB/03 RMK AO2 T03440239
53988KBKB BKB20190809144511108/09/19 14:45:31  5-MIN KBKB 092045Z AUTO VRB05KT 10SM BKN050 34/23 A2992 300 52 2600 VRB/05 RMK AO2 T03440233
53988KBKB BKB20190809145012408/09/19 14:50:31  5-MIN KBKB 092050Z AUTO VRB05KT 10SM BKN050 35/23 A2992 300 50 2700 VRB/05 RMK AO2 SLP154 T03500233 58004
53988KBKB BKB20190809145511808/09/19 14:55:31  5-MIN KBKB 092055Z AUTO VRB05KT 10SM BKN050 BKN060 36/23 A2991 310 48 2700 VRB/05 RMK AO2 T03560233
53988KBKB BKB20190809150011808/09/19 15:00:31  5-MIN KBKB 092100Z AUTO 00000KT 10SM BKN050 BKN065 36/23 A2991 310 48 2700 000/00 RMK AO2 T03560233
53988KBKB BKB20190809150511808/09/19 15:05:31  5-MIN KBKB 092105Z AUTO VRB04KT 10SM SCT050 SCT060 35/23 A2991 310 50 2700 VRB/04 RMK AO2 T03500233
53988KBKB BKB20190809151011108/09/19 15:10:31  5-MIN KBKB 092110Z AUTO 00000KT 10SM BKN055 34/24 A2991 310 53 2600 000/00 RMK AO2 T03440239
53988KBKB BKB20190809151517708/09/19 15:15:31  5-MIN KBKB 092115Z AUTO VRB05KT 10SM BKN055 36/24 A2991 310 50 2700 VRB/05 RMK AO2 T0356023908/09/19 15:20:55 34/23 A2990 320 53 2600 000/00 RMK AO2 T03390233
53988KBKB BKB20190809154511808/09/19 15:45:31  5-MIN KBKB 092145Z AUTO VRB04KT 10SM SCT060 SCT075 35/24 A2990 320 52 2700 VRB/04 RMK AO2 T03500239
53988KBKB BKB20190809155012508/09/19 15:50:31  5-MIN KBKB 092150Z AUTO VRB05KT 10SM SCT060 SCT075 34/23 A2990 320 52 2600 VRB/05 RMK AO2 SLP149 T03440233
53988KBKB BKB20190809155517808/09/19 15:55:31  5-MIN KBKB 092155Z AUTO VRB03KT 10SM FEW060 34/23 A2990 320 51 2600 VRB000KT 10SM CLR 32/24 A2991 310 61 2400 000/00 RMK AO2 SLP152 T03220239 10356 20322 58019
53988KBKB BKB20190809175510808/09/19 17:55:31  5-MIN KBKB 092355Z AUTO 20003KT 10SM CLR 32/24 A2991 310 61 2400 200/03 RMK AO2 T03220239
53988KBKB BKB20190809180010808/09/19 18:00:31  5-MIN KBKB 100000Z AUTO 00000KT 10SM CLR 32/24 A2991 310 61 2400 000/00 RMK AO2 T03220239
53988KBKB BKB20190809180508308/09/19 18:05:31  5-MIN KBKB 100005Z AUTO 00000KT 10SM CLR 32/24 A2991 310 65 2250
53988KBKB BKB20190809194010808/09/19 19:40:31  5-MIN KBKB 100140Z AUTO 00000KT 10SM CLR 29/25 A2991 310 79 2000 000/00 RMK AO2 T02890250
53988KBKB BKB20190809194510808/09/19 19:45:31  5-MIN KBKB 100145Z AUTO VRB03KT 10SM CLR 29/25 A2991 310 79 2000 VRB/03 RMK AO2 T02890250
53988KBKB BKB20190809195011508/09/19 19:50:31  5-MIN KBKB 100150Z AUTO 00000KT 10SM CLR 29/24 A2991 310 76 2000 000/00 RMK AO2 SLP151 T02890244
53988KBKB BKB20190809195512408/09/19 19:55:31  5-MIN KBKB 100155Z AUTO 00000K230Z AUTO 00000KT 10SM CLR 28/25 A2992 300 82 1900 000/00 RMK AO2 T02830250
53988KBKB BKB20190809203510808/09/19 20:35:31  5-MIN KBKB 100235Z AUTO 00000KT 10SM CLR 29/24 A2992 290 76 2000 000/00 RMK AO2 T02890244
53988KBKB BKB20190809204010808/09/19 20:40:31  5-MIN KBKB 100240Z AUTO 00000KT 10SM CLR 28/24 A2992 290 79 1900 000/00 RMK AO2 T02830244
53988KBKB BKB20190809204510808/09/19 20:45:31  5-MIN KBKB 100245Z AUTO 00000KT 10SM CLR 28/24 A2993 290 79 1900 VRB/04 RMK AO2 T02830244
53988KBKB BKB20190809210510808/09/19 21:05:31  5-MIN KBKB 100305Z AUTO 00000KT 10SM CLR 28/24 A2994 280 79 1900 000/00 RMK AO2 T02830244
53988KBKB BKB20190809211010808/09/19 21:10:31  5-MIN KBKB 100310Z AUTO VRB03KT 10SM CLR 28/24 A2994 280 79 1900 VRB/03 RMK AO2 T02830244
53988KBKB BKB20190809211510808/09/19 21:15:31  5-MIN KBKB 100315Z AUTO VRB03KT 10SM CLR 28/24 A2994 280 79 1900 VRB/03 RMK AO2 T02830244
53988KBKB BKB20190809212010808/09/19 21:20:31  5-MIN KBKB 100320Z AUTO VRB04KT 10SM CLR 28/24 A2993 290 76 1900 VRB/04 RMK AO2 T02830239
53988KBKB BKB20190809212510808/09/19 21:25:31  5-MIN KBKB 100325Z AUTO VRB04KT 10SM CLR 28/24 A2993 280 76 1900 VRB/04 RMK AO2 T02830239
53988KBKB BKB20190809213010808/09/19 21:30:31  5-MIN KBKB 100330Z AUTO VRB03KT 10SM CLR 28/24 A2993 280 76 1900 VRB/03 RMK AO2 T02830239
53988KBKB BKB20190809213510808/09/19 21:35:31  5-MIN KBKB 100335Z AUTO 00000KT 10SM CLR 28/24 A2993 280 79 1900 000/00 RMK AO2 T02780239
53988KBKB BKB20190809214010808/09/19 21:40:31  5-MIN KBKB 100340Z AUTO 21003KT 10SM CLR 28/24 A2994 280 76 1900 210/03 RMK AO2 T02830239
53988KBKB BKB20190809214510808/09/19 21:45:31  5-MIN KBKB 100345Z AUTO VRB03KT 10SM CLR 28/24 A2994 280 79 1900 VRB/03 RMK AO2 T02780239
53988KBKB BKB20190809215011508/09/19 21:50:31  5-MIN KBKB 100350Z AUTO VRB03KT 10SM CLR 28/24 A2994 280 79 1900 VRB/03 RMK AO2 SLP162 T02780239
53988KBKB BKB20190809215510808/09/19 21:55:31  5-MIN KBKB 100355Z AUTO VRB04KT 10SM CLR 28/24 A2994 280 79 1900 VRB/04 RMK AO2 T02780239
53988KBKB BKB20190809220010808/09/19 22:00:31  5-MIN KBKB 100400Z AUTO 00000KT 10SM CLR 28/24 A2994 280 79 1900 000/00 RMK AO2 T02780239
53988KBKB BKB20190809220510808/09/19 22:05:31  5-MIN KBKB 100405Z AUTO 00000KT 10SM CLR 28/24 A2994 280 79 1900 000/00 RMK AO2 T02780239
53988KBKB BKB20190809221010808/09/19 22:10:31  5-MIN KBKB 100410Z AUTO 00000KT 10SM CLR 28/24 A2994 280 79 1900 000/00 RMK AO2 T02780239
53988KBKB BKB20190809221510808/09/19 22:15:31  5-MIN KBKB 100415Z AUTO VRB03KT 10SM CLR 28/24 A2994 280 79 1900 VRB/03 RMK AO2 T02780239
53988KBKB BKB20190809222010808/09/19 22:20:31  5-MIN KBKB 100420Z AUTO VRB03KT 10SM CLR 28/24 A2994 280 79 1900 VRB/03 RMK AO2 T02780239
53988KBKB BKB20190809222510808/09/19 22:25:31  5-MIN KBKB 100425Z AUTO 00000KT 10SM CLR 28/24 A2994 280 79 1900 000/00 RMK AO2 T02780239
53988KBKB BKB20190809223010808/09/19 22:30:31  5-MIN KBKB 100430Z AUTO VRB03KT 10SM CLR 27/24 A2994 280 82 1800 VRB/03 RMK AO2 T02720239
53988KBKB BKB20190809223510808/09/19 22:35:31  5-MIN KBKB 100435Z AUTO 00000KT 10SM CLR 27/24 A2994 280 84 1800 000/00 RMK AO2 T02720244
53988KBKB BKB20190809224014108/09/19 22:40:31  5-MIN KBKB 100440Z AUTO 00000KT 10SM CLR 27/24 A2994 280 84 1800 000/00 RMK AO2 T02720244 87 1700 220/03 RMK AO2 T02670244
53988KBKB BKB20190809233510808/09/19 23:35:31  5-MIN KBKB 100535Z AUTO 23003KT 10SM CLR 27/24 A2994 280 87 1700 220/03 RMK AO2 T02670244
53988KBKB BKB20190809234010808/09/19 23:40:31  5-MIN KBKB 100540Z AUTO VRB03KT 10SM CLR 27/24 A2994 280 87 1700 VRB/03 RMK AO2 T02670244
53988KBKB BKB20190809234510808/09/19 23:45:31  5-MIN KBKB 100545Z AUTO 00000KT 10SM CLR 27/24 A2993 290 87 1700 000/00 RMK AO2 T02670244
53988KBKB BKB20190809235014308/09/19 23:50:31  5-MIN KBKB 100550Z AUTO 00000KT 10SM CLR 26/24 A2993 290 90 1700 000/00 RMK AO2 SLP160 T02610244 10322 20261 403560250 53008
53988KBKB BKB20190809235510808/09/19 23:55:31  5-MIN KBKB 100555Z AUTO 00000KT 10SM CLR 26/24 A2993 290 90 1700 000/00 RMK AO2 T02610244
53988KBKB BKB20190810000010808/10/19 00:00:31  5-MIN KBKB 100600Z AUTO 00000KT 10SM CLR 26/24 A2993 290 90 1700 000/00 RMK AO2 T02610244
53988KBKB BKB20190810000510808/10/19 00:05:31  5-MIN KBKB 100605Z AUTO 00000KT 10SM CLR 26/24 A2993 290 90 1700 000/00 RMK AO2 T02610244
53988KBKB BKB20190810001010808/10/19 00:10:31  5-MIN KBKB 100610Z AUTO 00000KT 10SM CLR 26/24 A2993 290 90 1700 000/00 RMK AO2 T02610244
53988KBKB BKB20190810001510808/10/19 00:15:31  5-MIN KBKB 100615Z AUTO VRB04KT 10SM CLR 26/24 A2992 300 90 1700 VRB/04 RMK AO2 T02610244
53988KBKB BKB20190810002010808/10/19 00:20:31  5-MIN KBKB 100620Z AUTO 00000KT 10SM CLR 26/24 A2992 300 90 1700 000/00 RMK AO2 T02610244
53988KBKB BKB20190810002510808/10/19 00:25:31  5-MIN KBKB 100625Z AUTO VRB03KT 10SM CLR 26/24 A2992 300 90 1700 VRB/03 RMK AO2 T02610244
53988KBKB BKB20190810003010808/10/19 00:30:31  5-MIN KBKB 100630Z AUTO 00000KT 10SM CLR 26/24 A2992 300 90 1700 000/00 RMK AO2 T02610244
53988KBKB BKB20190810003510808/10/19 00:35:31  5-MIN KBKB 100635Z AUTO VRB03KT 10SM CLR 26/24 A2992 300 90 1700 VRB/03 RMK AO2 T02610244
53988KBKB BKB20190810004010808/10/19 00:40:31  5-MIN KBKB 100640Z AUTO 00000KT 10SM CLR 26/24 A2992 300 90 1700 000/00 RMK AO2 T02610244
53988KBKB BKB20190810004510808/10/19 00:45:31  5-MIN KBKB 100645Z AUTO VRB03KT 10SM CLR 26/24 A2992 290 90 1700 VRB/03 RMK AO2 T02610244
53988KBKB BKB20190810005011508/10/19 00:50:31  5-MIN KBKB 100650Z AUTO 00000KT 10SM CLR 26/24 A2992 300 90 1700 000/00 RMK AO2 SLP156 T02610244
53988KBKB BKB20190810005510808/10/19 00:55:31  5-MIN KBKB 100655Z AUTO 00000KT 10SM CLR 26/24 A2992 300 90 1700 000/00 RMK AO2 T02610244
53988KBKB BKB20190810010010808/10/19 01:00:31  5-MIN KBKB 100700Z AUTO 00000KT 10SM CLR 26/24 A2992 300 90 1700 000/00 RMK AO2 T02610244
53988KBKB BKB20190810010510808/10/19 01:05:31  5-MIN KBKB 100705Z AUTO 00000KT 10SM CLR 26/24 A2992 300 90 1700 000/00 RMK AO2 T02610244
53988KBKB BKB20190810011010808/10/19 01:10:31  5-MIN KBKB 100710Z AUTO 00000KT 10SM CLR 26/24 A2992 300 93 1600 000/00 RMK AO2 T02560244
53988KBKB BKB20190810011510708/10/19 01:15:31  5-MIN KBKB 100715Z AUTO 00000KT 9SM CLR 26/24 A2992 300 93 1600 000/00 RMK AO2 T02560244
53988KBKB BKB20190810012015008/10/19 01:20:31  5-MIN KBKB 100720Z AUTO 00000KT 10SM CLR 26/24 A2992 300 90 1700 000/00 RM 9SM CLR 26/24 A2992 290 93 1600 000/00 RMK AO2 T02560244
53988KBKB BKB20190810113511108/10/19 11:35:31  5-MIN KBKB 101735Z AUTO VRB05KT 10SM SCT035 33/23 A2999 230 57 2400 VRB/05 RMK AO2 T03280233
53988KBKB BKB20190810114011108/10/19 11:40:31  5-MIN KBKB 101740Z AUTO 00000KT 10SM SCT033 33/24 A2999 230 61 2400 000/00 RMK AO2 T03280244
53988KBKB BKB20190810114511808/10/19 11:45:31  5-MIN KBKB 101745Z AUTO 00000KT 10SM SCT035 SCT042 33/24 A2999 230 59 2400 000/00 RMK AO2 T03280239
53988KBKB BKB20190810115014308/10/19 11:50:31  5-MIN KBKB 101750Z AUTO VRB03KT 10SM FEW035 SCT042 34/24 A2999 230 57 2500 VRB/03 RMK AO2 SLP179 T03390244 10339 20244 51011
53988KBKB BKB20190810115511108/10/19 11:55:31  5-MIN KBKB 101755Z AUTO 00000KT 10SM SCT037 33/23 A2999 240 53 2400 000/00 RMK AO2 T03330228
53988KBKB BKB20190810120011108/10/19 12:00:31  5-MIN KBKB 101800Z AUTO VRB03KT 10SM SCT037 33/23 A2999 240 55 2400 VRB/03 RMK AO2 T03330233
53988KBKB BKB20190810120511108/10/19 12:05:31  5-MIN KBKB 101805Z AUTO VRB05KT 10SM SCT037 33/23 A2998 240 53 2400 VRB/05 RMK AO2 T03330228
53988KBKB BKB20190810121011108/10/19 12:10:31  5-MIN KBKB 101810Z AUTO VRB04KT 10SM SCT039 33/23 A2998 250 57 2400 VRB/04 RMK AO2 T03280233
53988KBKB BKB20190810121511108/10/19 12:15:31  5-MIN KBKB 101815Z AUTO VRB04KT 10SM FEW039 33/24 A2998 250 59 2400 VRB/04 RMK AO2 T03280239
53988KBKB BKB20190810122011108/10/19 12:20:31  5-MIN KBKB 101820Z AUTO VRB04KT 10SM FEW039 33/23 A2997 250 55 2400 VRB/04 RMK AO2 T03330233
53988KBKB BKB20190810122511108/10/19 12:25:31  5-MIN KBKB 101825Z AUTO 21005KT 10SM FEW037 33/23 A2997 250 55 2400 200/05 RMK AO2 T03330233
53988KBKB BKB20190810123011108/10/19 12:30:31  5-MIN KBKB 101830Z AUTO VRB04KT 10SM FEW037 34/24 A2997 260 55 2500 VRB/04 RMK AO2 T03390239
53988KBKB BKB20190810123510808/10/19 12:35:31  5-MIN KBKB 101835Z AUTO VRB04KT 10SM CLR 34/23 A2996 260 53 2500 VRB/04 RMK AO2 T03390233
53988KBKB BKB20190810124010808/10/19 12:40:31  5-MIN KBKB 101840Z AUTO VRB03KT 10SM CLR 33/24 A2996 260 57 2400 VRB/03 RMK AO2 T03330239
53988KBKB BKB20190810124510808/10/19 12:45:31  5-MIN KBKB 101845Z AUTO 00000KT 10SM CLR 34/23 A2996 270 53 2500 000/00 RMK AO2 T03390233
53988KBKB BKB20190810125011508/10/19 12:50:31  5-MIN KBKB 101850Z AUTO VRB03KT 10SM CLR 34/24 A2995 270 53 2600 VRB/03 RMK AO2 SLP167 T03440239
53988KBKB BKB20190810125511108/10/19 12:55:31  5-MIN KBKB 101855Z AUTO VRB03KT 10SM FEW041 34/23 A2995 270 52 2600 VRB/03 RMK AO2 T03440233
53988KBKB BKB20190810130014708/10/19 13:00:31  5-MIN KBKB 101900Z AUTO VRB04KT 10SM FEW041 34/23 A2995 270 51 2500 VRB/04 RMK AO2 T03390228300 48 2700 VRB/03 RMK AO2 T03500228
53988KBKB BKB20190810145007908/10/19 14:50:31  5-MIN KBKB 102050Z AUTO 00000KT 10SM FEW047310 50 2600 00233
53988KBKB BKB20190810151511108/10/19 15:15:31  5-MIN KBKB 102115Z AUTO VRB04KT 10SM SCT049 34/23 A2991 310 50 2600 VRB/04 RMK AO2 T03440228
53988KBKB BKB20190810152011108/10/19 15:20:31  5-MIN KBKB 102120Z AUTO VRB03KT 10SM SCT049 34/23 A2991 310 51 2600 VRB/03 RMK AO2 T03390228
53988KBKB BKB20190810152511808/10/19 15:25:31  5-MIN KBKB 102125Z AUTO 00000KT 10SM SCT049 SCT055 34/23 A2991 310 51 2600 000/00 RMK AO2 T03390228
53988KBKB BKB20190810153011108/10/19 15:30:31  5-MIN KBKB 102130Z AUTO VRB03KT 10SM FEW049 34/23 A2991 310 50 2600 VRB/03 RMK AO2 T03440228
53988KBKB BKB20190810153511108/10/19 15:35:31  5-MIN KBKB 102135Z AUTO 00000KT 10SM FEW050 34/23 A2991 310 50 2600 000/00 RMK AO2 T03440228
53988KBKB BKB20190810154011108/10/19 15:40:31  5-MIN KBKB 102140Z AUTO 23004KT 10SM FEW050 34/23 A2991 310 50 2600 230/04 RMK AO2 T03440228
53988KBKB BKB20190810154511108/10/19 15:45:31  5-MIN KBKB 102145Z AUTO 24003KT 10SM FEW050 34/23 A2991 310 50 2600 240/03 RMK AO2 T03440228
53988KBKB BKB20190810155011808/10/19 15:50:31  5-MIN KBKB 102150Z AUTO VRB03KT 10SM FEW050 35/23 A2991 310 48 2700 VRB/03 RMK AO2 SLP151 T03500228
53988KBKB BKB20190810155510808/10/19 15:55:31  5-MIN KBKB 102155Z AUTO VRB04KT 10SM CLR 34/23 A2991 310 50 2600 VRB/04 RMK AO2 T03440228
53988KBKB BKB20190810160010808/10/19 16:00:31  5-MIN KBKB 102200Z AUTO 00000KT 10SM CLR 34/23 A2991 310 51 2600 000/00 RMK AO2 T03390228
53988KBKB BKB20190810160510808/10/19 16:05:31  5-MIN KBKB 102205Z AUTO 00000KT 10SM CLR 34/23 A2990 310 52 2600 000/00 RMK AO2 T03440233
53988KBKB BKB20190810161010808/10/19 16:10:31  5-MIN KBKB 102210Z AUTO VRB03KT 10SM CLR 35/23 A2990 310 50 2700 VRB/03 RMK AO2 T03500233
53988KBKB BKB20190810161510808/10/19 16:15:31  5-MIN KBKB 102215Z AUTO 00000KT 10SM CLR 35/23 A2990 310 50 2700 000/00 RMK AO2 T03500233
53988KBKB BKB20190810162010008/10/19 16:20:31  5-MIN KBKB 102220Z AUTO 00000KT 10SM FEW049 34/23 A2990 310 50 2600 000/003330233
53988KBKB BKB20190810173010808/10/19 17:30:31  5-MIN KBKB 102330Z AUTO VRB03KT 10SM CLR 33/23 A2990 320 55 2500 VRB/03 RMK AO2 T03280228
53988KBKB BKB20190810173510808/10/19 17:35:31  5-MIN KBKB 102335Z AUTO 00000KT 10SM CLR 33/23 A2990 320 55 2500 000/00 RMK AO2 T03280228
53988KBKB BKB20190810174010808/10/19 17:40:31  5-MIN KBKB 102340Z AUTO 00000KT 10SM CLR 33/23 A2990 320 55 2500 000/00 RMK AO2 T03280228
53988KBKB BKB20190810174508308/10/19 17:45:31  5-MIN KBKB 102345Z AUTO 00000KT 82 1900 000/00 RMK AO2 T02830250
53988KBKB BKB20190810205012108/10/19 20:50:31  5-MIN KBKB 110250Z AUTO 00000KT 10SM CLR 28/25 A2995 270 82 1900 000/00 RMK AO2 SLP165 T02830250 56005
53988KBKB BKB20190810205510808/10/19 20:55:31  5-MIN KBKB 110255Z AUTO 00000KT 10SM CLR 28/25 A2995 270 82 1900 000/00 RMK AO2 T02830250
53988KBKB BKB20190810210010808/10/19 21:00:31  5-MIN KBKB 110300Z AUTO 00000KT 10SM CLR 28/25 A2995 270 82 1900 000/00 RMK AO2 T02830250
53988KBKB BKB20190810210510808/10/19 21:05:31  5-MIN KBKB 110305Z AUTO 00000KT 10SM CLR 28/25 A2995 270 84 1800 000/00 RMK AO2 T02780250
53988KBKB BKB20190810211010808/10/19 21:10:31  5-MIN KBKB 110310Z AUTO 00000KT 10SM CLR 28/25 A2995 270 84 1800 000/00 RMK AO2 T02780250
53988KBKB BKB20190810211510808/10/19 21:15:31  5-MIN KBKB 110315Z AUTO 00000KT 10SM CLR 28/25 A2995 270 84 1800 000/00 RMK AO2 T02780250
53988KBKB BKB20190810212010808/10/19 21:20:31  5-MIN KBKB 110320Z AUTO 00000KT 10SM CLR 28/25 A2995 270 84 1800 000/00 RMK AO2 T02780250
53988KBKB BKB20190810212510808/10/19 21:25:31  5-MIN KBKB 110325Z AUTO 00000KT 10SM CLR 28/25 A2996 270 82 1900 000/00 RMK AO2 T02830250
53988KBKB BKB20190810213010808/10/19 21:30:31  5-MIN KBKB 110330Z AUTO 00000KT 10SM CLR 28/25 A2996 270 82 1900 000/00 RMK AO2 T02830250
53988KBKB BKB20190810213510808/10/19 21:35:31  5-MIN KBKB 110335Z AUTO 00000KT 10SM CLR 28/25 A2996 270 84 1800 000/00 RMK AO2 T02780250
53988KBKB BKB20190810214010808/10/19 21:40:31  5-MIN KBKB 110340Z AUTO 00000KT 10SM CLR 28/25 A2995 270 84 1800 000/00 RMK AO2 T02780250
53988KBKB BKB20190810214510808/10/19 21:45:31  5-MIN KBKB 110345Z AUTO 00000KT 10SM CLR 28/25 A2995 270 84 1800 000/00 RMK AO2 T02780250
53988KBKB BKB20190810215011508/10/19 21:50:31  5-MIN KBKB 110350Z AUTO 00000KT 10SM CLR 28/25 A2995 270 84 1800 000/00 RMK AO2 SLP167 T02780250
53988KBKB BKB20190810215510808/10/19 21:55:31  5-MIN KBKB 110355Z AUTO 00000KT 10SM CLR 28/25 A2996 270 84 1800 000/00 RMK AO2 T02780250
53988KBKB BKB20190810215510808/10/19 21:55:31  5-MIN KBKB 110355Z AUTO 00000KT 10SM CLR 28/25 A2996 270 93 1700 000/00 RMK AO2 T02610250
53988KBKB BKB20190810220010808/10/19 22:00:31  5-MIN KBKB 110400Z AUTO 00000KT 10SM CLR 28/25 A2996 270 84 1800 000/00 RMK AO2 T02780250
53988KBKB BKB20190810220510808/10/19 22:05:31  5-MIN KBKB 110405Z AUTO 00000KT 10SM CLR 28/25 A2996 270 84 1800 000/00 RMK AO2 T02780250
53988KBKB BKB20190810221010808/10/19 22:10:31  5-MIN KBKB 110410Z AUTO 00000KT 10SM CLR 27/25 A2996 270 87 1800 000/00 RMK AO2 T02720250
53988KBKB BKB20190810221510808/10/19 22:15:31  5-MIN KBKB 110415Z AUTO 00000KT 10SM CLR 27/25 A2995 270 87 1800 000/00 RMK AO2 T02720250
53988KBKB BKB20190810222010808/10/19 22:20:31  5-MIN KBKB 110420Z AUTO 00000KT 10SM CLR 27/25 A2995 270 87 1800 000/00 RMK AO2 T02720250
53988KBKB BKB20190810222510808/10/19 22:25:31  5-MIN KBKB 110425Z AUTO 00000KT 10SM CLR 27/25 A2995 270 87 1800 000/00 RMK AO2 T02720250
53988KBKB BKB20190810223010808/10/19 22:30:31  5-MIN KBKB 110430Z AUTO 00000KT 10SM CLR 27/25 A2995 270 87 1800 000/00 RMK AO2 T02720250
53988KBKB BKB20190810223510808/10/19 22:35:31  5-MIN KBKB 110435Z AUTO 00000KT 10SM CLR 27/25 A2995 270 87 1800 000/00 RMK AO2 T02720250
53988KBKB BKB20190810224010808/10/19 22:40:31  5-MIN KBKB 110440Z AUTO 00000KT 10SM CLR 27/25 A2995 270 87 1800 000/00 RMK AO2 T02720250
53988KBKB BKB20190810224510808/10/19 22:45:31  5-MIN KBKB 110445Z AUTO 00000KT 10SM CLR 27/25 A2995 270 87 1800 000/00 RMK AO2 T02720250
53988KBKB BKB20190810225011508/10/19 22:50:31  5-MIN KBKB 110450Z AUTO 00000KT 10SM CLR 27/25 A2995 270 87 1800 000/00 RMK AO2 SLP165 T02720250
53988KBKB BKB20190810225510808/10/19 22:55:31  5-MIN KBKB 110455Z AUTO 00000KT 10SM CLR 27/25 A2995 270 90 1700 000/00 RMK AO2 T02670250
53988KBKB BKB20190810230010808/10/19 23:00:31  5-MIN KBKB 110500Z AUTO 00000KT 10SM CLR 27/25 A2995 270 90 1700 000/00 RMK AO2 T02670250
53988KBKB BKB20190810230510808/10/19 23:05:31  5-MIN KBKB 110505Z AUTO 00000KT 10SM CLR 27/25 A2995 270 90 1700 000/00 RMK AO2 T02670250
53988KBKB BKB20190810231010808/10/19 23:10:31  5-MIN KBKB 110510Z AUTO 00000KT 10SM CLR 27/25 A2995 270 90 1700 000/00 RMK AO2 T02670250
53988KBKB BKB20190810231510808/10/19 23:15:31  5-MIN KBKB 110515Z AUTO 00000KT 10SM CLR 27/25 A2994 280 90 1700 000/00 RMK AO2 T02670250
53988KBKB BKB20190810232010808/10/19 23:20:31  5-MIN KBKB 110520Z AUTO 00000KT 10SM CLR 27/25 A2994 280 90 1700 000/00 RMK AO2 T02670250
53988KBKB BKB20190810232510808/10/19 23:25:31  5-MIN KBKB 110525Z AUTO 00000KT 10SM CLR 27/25 A2995 270 90 1700 000/00 RMK AO2 T02670250
53988KBKB BKB20190810233010808/10/19 23:30:31  5-MIN KBKB 110530Z AUTO 00000KT 10SM CLR 26/25 A2994 280 93 1700 000/00 RMK AO2 T02610250
53988KBKB BKB20190810233510808/10/19 23:35:31  5-MIN KBKB 110535Z AUTO 00000KT 10SM CLR 26/25 A2994 280 93 1700 000/00 RMK AO2 T02610250
53988KBKB BKB20190810234010808/10/19 23:40:31  5-MIN KBKB 110540Z AUTO 00000KT 10SM CLR 26/24 A2994 280 90 1700 000/00 RMK AO2 T02610244
53988KBKB BKB20190810234510808/10/19 23:45:31  5-MIN KBKB 110545Z AUTO 00000KT 10SM CLR 26/24 A2995 270 90 1700 000/00 RMK AO2 T02610244
53988KBKB BKB20190810235014308/10/19 23:50:31  5-MIN KBKB 110550Z AUTO 00000KT 10SM CLR 26/24 A2995 270 90 1700 000/00 RMK AO2 SLP164 T02610244 10322 20261 403500244 53016
53988KBKB BKB20190810235510808/10/19 23:55:31  5-MIN KBKB 110555Z AUTO 00000KT 10SM CLR 26/24 A2995 270 90 1700 000/00 RMK AO2 T02610244
53988KBKB BKB20190811000010808/11/19 00:00:31  5-MIN KBKB 110600Z AUTO 00000KT 10SM CLR 26/24 A2995 270 90 1700 000/00 RMK AO2 T02610244
53988KBKB BKB20190811000510808/11/19 00:05:31  5-MIN KBKB 110605Z AUTO 00000KT 10SM CLR 26/24 A2995 270 90 1700 000/00 RMK AO2 T02610244
53988KBKB BKB20190811001010808/11/19 00:10:31  5-MIN KBKB 110610Z AUTO 00000KT 10SM CLR 26/24 A2995 270 90 1700 000/00 RMK AO2 T02610244
53988KBKB BKB20190811001510808/11/19 00:15:31  5-MIN KBKB 110615Z AUTO 00000KT 10SM CLR 26/24 A2995 270 90 1700 000/00 RMK AO2 T02610244
53988KBKB BKB20190811002010808/11/19 00:20:31  5-MIN KBKB 110620Z AUTO 00000KT 10SM CLR 26/24 A2995 270 93 1600 000/00 RMK AO2 T02560244
53988KBKB BKB20190811002510808/11/19 00:25:31  5-MIN KBKB 110625Z AUTO 00000KT 10SM CLR 26/24 A2995 270 93 1600 000/00 RMK AO2 T02560244
53988KBKB BKB20190811003010808/11/19 00:30:31  5-MIN KBKB 110630Z AUTO 00000KT 10SM CLR 26/24 A2995 270 93 1600 000/00 RMK AO2 T02560244
53988KBKB BKB20190811003510808/11/19 00:35:31  5-MIN KBKB 110635Z AUTO 00000KT 10SM CLR 26/24 A2995 270 93 1600 000/00 RMK AO2 T02560244
53988KBKB BKB20190811004010808/11/19 00:40:31  5-MIN KBKB 110640Z AUTO 00000KT 10SM CLR 26/24 A2995 270 93 1600 000/00 RMK AO2 T02560244
53988KBKB BKB20190811004510808/11/19 00:45:31  5-MIN KBKB 110645Z AUTO 00000KT 10SM CLR 26/24 A2995 270 93 1600 000/00 RMK AO2 T02560244
53988KBKB BKB20190811005011508/11/19 00:50:31  5-MIN KBKB 110650Z AUTO 00000KT 10SM CLR 26/24 A2995 270 93 1600 000/00 RMK AO2 SLP165 T02560244
53988KBKB BKB20190811005510808/11/19 00:55:31  5-MIN KBKB 110655Z AUTO 00000KT 10SM CLR 26/24 A2995 270 93 1600 000/00 RMK AO2 T02560244
53988KBKB BKB20190811010010808/11/19 01:00:31  5-MIN KBKB 110700Z AUTO 00000KT 10SM CLR 26/24 A2995 270 93 1600 000/00 RMK AO2 T02560244
53988KBKB BKB20190811010510808/11/19 01:05:31  5-MIN KBKB 110705Z AUTO 00000KT 10SM CLR 26/24 A2995 270 93 1600 000/00 RMK AO2 T02560244
53988KBKB BKB20190811011010808/11/19 01:10:31  5-MIN KBKB 110710Z AUTO 00000KT 10SM CLR 26/24 A2995 270 93 1600 000/00 RMK AO2 T02560244
53988KBKB BKB20190811011510808/11/19 01:15:31  5-MIN KBKB 110715Z AUTO 00000KT 10SM CLR 26/24 A2995 270 93 1600 000/00 RMK AO2 T02560244
53988KBKB BKB20190811012010808/11/19 01:20:31  5-MIN KBKB 110720Z AUTO 00000KT 10SM CLR 26/24 A2994 280 93 1600 000/00 RMK AO2 T02560244
53988KBKB BKB20190811012510808/11/19 01:25:31  5-MIN KBKB 110725Z AUTO 00000KT 10SM CLR 26/24 A2994 280 93 1600 000/00 RMK AO2 T02560244
53988KBKB BKB20190811013010808/11/19 01:30:31  5-MIN KBKB 110730Z AUTO 00000KT 10SM CLR 26/24 A2994 280 90 1700 000/00 RMK AO2 T02610244
53988KBKB BKB20190811013510808/11/19 01:35:31  5-MIN KBKB 110735Z AUTO 00000KT 10SM CLR 26/24 A2994 280 90 1700 000/00 RMK AO2 T02610244
53988KBKB BKB20190811014010808/11/19 01:40:31  5-MIN KBKB 110740Z AUTO 00000KT 10SM CLR 26/24 A2994 280 93 1600 000/00 RMK AO2 T02560244
53988KBKB BKB20190811014510808/11/19 01:45:31  5-MIN KBKB 110745Z AUTO 00000KT 10SM CLR 26/24 A2994 280 93 1600 000/00 RMK AO2 T02560244
53988KBKB BKB20190811015011508/11/19 01:50:31  5-MIN KBKB 110750Z AUTO 00000KT 10SM CLR 26/24 A2995 280 93 1600 000/00 RMK AO2 SLP164 T02560244
53988KBKB BKB20190811015510808/11/19 01:55:31  5-MIN KBKB 110755Z AUTO 00000KT 10SM CLR 26/24 A2995 270 93 1600 000/00 RMK AO2 T02560244
53988KBKB BKB20190811020010808/11/19 02:00:31  5-MIN KBKB 110800Z AUTO 00000KT 10SM CLR 26/24 A2995 270 93 1600 000/00 RMK AO2 T02560244
53988KBKB BKB20190811020510808/11/19 02:05:31  5-MIN KBKB 110805Z AUTO 00000KT 10SM CLR 26/24 A2995 270 93 1600 000/00 RMK AO2 T02560244
53988KBKB BKB20190811021010808/11/19 02:10:31  5-MIN KBKB 110810Z AUTO 00000KT 10SM CLR 26/24 A2995 270 93 1600 000/00 RMK AO2 T02560244
53988KBKB BKB20190811021510808/11/19 02:15:31  5-MIN KBKB 110815Z AUTO 00000KT 10SM CLR 26/24 A2995 270 93 1600 000/00 RMK AO2 T02560244
53988KBKB BKB20190811022010808/11/19 02:20:31  5-MIN KBKB 110820Z AUTO 00000KT 10SM CLR 26/24 A2995 270 93 1600 000/00 RMK AO2 T02560244
53988KBKB BKB20190811022510808/11/19 02:25:31  5-MIN KBKB 110825Z AUTO 00000KT 10SM CLR 26/24 A2995 270 93 1600 000/00 RMK AO2 T02560244
53988KBKB BKB20190811023010808/11/19 02:30:31  5-MIN KBKB 110830Z AUTO 00000KT 10SM CLR 26/24 A2995 270 93 1600 000/00 RMK AO2 T02560244
53988KBKB BKB20190811023510808/11/19 02:35:31  5-MIN KBKB 110835Z AUTO 00000KT 10SM CLR 25/24 A2995 270 97 1500 000/00 RMK AO2 T02500244
53988KBKB BKB20190811024010708/11/19 02:40:31  5-MIN KBKB 110840Z AUTO 00000KT 9SM CLR 25/24 A2995 270 93 1500 000/00 RMK AO2 T02500239
53988KBKB BKB20190811024510708/11/19 02:45:31  5-MIN KBKB 110845Z AUTO 00000KT 9SM CLR 25/24 A2995 270 93 1500 000/00 RMK AO2 T02500239
53988KBKB BKB20190811025012008/11/19 02:50:31  5-MIN KBKB 110850Z AUTO 00000KT 8SM CLR 25/24 A2995 270 93 1500 000/00 RMK AO2 SLP166 T02500239 58000
53988KBKB BKB20190811025510708/11/19 02:55:31  5-MIN KBKB 110855Z AUTO 00000KT 8SM CLR 25/24 A2995 270 93 1500 000/00 RMK AO2 T02500239
53988KBKB BKB20190811030010708/11/19 03:00:31  5-MIN KBKB 110900Z AUTO 00000KT 8SM CLR 25/24 A2995 270 93 1500 000/00 RMK AO2 T02500239
53988KBKB BKB20190811030510708/11/19 03:05:31  5-MIN KBKB 110905Z AUTO 00000KT 8SM CLR 25/24 A2995 270 93 1500 000/00 RMK AO2 T02500239
53988KBKB BKB20190811031010708/11/19 03:10:31  5-MIN KBKB 110910Z AUTO 00000KT 7SM CLR 25/24 A2995 270 93 1500 000/00 RMK AO2 T02500239
53988KBKB BKB20190811031510708/11/19 03:15:31  5-MIN KBKB 110915Z AUTO 00000KT 7SM CLR 25/24 A2996 270 93 1500 000/00 RMK AO2 T02500239
53988KBKB BKB20190811032010708/11/19 03:20:31  5-MIN KBKB 110920Z AUTO 00000KT 7SM CLR 25/24 A2996 270 93 1500 000/00 RMK AO2 T02500239
53988KBKB BKB20190811032510708/11/19 03:25:31  5-MIN KBKB 110925Z AUTO 00000KT 7SM CLR 25/24 A2996 260 93 1500 000/00 RMK AO2 T02500239
53988KBKB BKB20190811033011008/11/19 03:30:31  5-MIN KBKB 110930Z AUTO 00000KT 6SM BR CLR 25/24 A2995 270 93 1500 000/00 RMK AO2 T02500239
53988KBKB BKB20190811033511008/11/19 03:35:31  5-MIN KBKB 110935Z AUTO 00000KT 6SM BR CLR 25/24 A2995 270 93 1500 000/00 RMK AO2 T02500239
53988KBKB BKB20190811034010708/11/19 03:40:31  5-MIN KBKB 110940Z AUTO 00000KT 7SM CLR 25/24 A2995 270 93 1500 000/00 RMK AO2 T02500239
53988KBKB BKB20190811034510708/11/19 03:45:31  5-MIN KBKB 110945Z AUTO 00000KT 7SM CLR 25/24 A2996 270 93 1500 000/00 RMK AO2 T02500239
53988KBKB BKB20190811035011408/11/19 03:50:31  5-MIN KBKB 110950Z AUTO 00000KT 8SM CLR 25/24 A2996 270 93 1500 000/00 RMK AO2 SLP168 T02500239
53988KBKB BKB20190811035510708/11/19 03:55:31  5-MIN KBKB 110955Z AUTO 00000KT 7SM CLR 25/24 A2996 260 93 1500 000/00 RMK AO2 T02500239
53988KBKB BKB20190811040010708/11/19 04:00:31  5-MIN KBKB 111000Z AUTO 00000KT 7SM CLR 25/24 A2996 270 93 1500 000/00 RMK AO2 T02500239
53988KBKB BKB20190811040510708/11/19 04:05:31  5-MIN KBKB 111005Z AUTO 00000KT 7SM CLR 25/24 A2996 270 97 1500 000/00 RMK AO2 T02500244
53988KBKB BKB20190811041010708/11/19 04:10:31  5-MIN KBKB 111010Z AUTO 00000KT 7SM CLR 25/24 A2996 260 93 1500 000/00 RMK AO2 T02500239
53988KBKB BKB20190811041511008/11/19 04:15:31  5-MIN KBKB 111015Z AUTO 00000KT 6SM BR CLR 25/24 A2996 260 93 1500 000/00 RMK AO2 T02500239
53988KBKB BKB20190811042011008/11/19 04:20:31  5-MIN KBKB 111020Z AUTO 00000KT 6SM BR CLR 25/24 A2996 270 93 1500 000/00 RMK AO2 T02500239
53988KBKB BKB20190811042511008/11/19 04:25:31  5-MIN KBKB 111025Z AUTO 00000KT 5SM BR CLR 25/24 A2995 270 93 1500 000/00 RMK AO2 T02500239
53988KBKB BKB20190811043011008/11/19 04:30:31  5-MIN KBKB 111030Z AUTO 00000KT 5SM BR CLR 25/24 A2995 270 93 1500 000/00 RMK AO2 T02500239
53988KBKB BKB20190811043511008/11/19 04:35:31  5-MIN KBKB 111035Z AUTO 00000KT 4SM BR CLR 24/24 A2996 270 97 1500 000/00 RMK AO2 T02440239
53988KBKB BKB20190811044011008/11/19 04:40:31  5-MIN KBKB 111040Z AUTO 00000KT 4SM BR CLR 24/24 A2996 260 97 1500 000/00 RMK AO2 T02440239
53988KBKB BKB20190811044511008/11/19 04:45:31  5-MIN KBKB 111045Z AUTO 00000KT 4SM BR CLR 24/24 A2996 260 97 1500 000/00 RMK AO2 T02440239
53988KBKB BKB20190811045011008/11/19 04:50:31  5-MIN KBKB 111050Z AUTO 00000KT 4SM BR CLR 24/24 A2996 230 97 1400 000/00 RMK AO2 T02440239
53988KBKB BKB20190811055511708/11/19 05:55:31  5-MIN KBKB 111155Z AUTO 00000KT 2 1/2SM BR FEW012 24/24 A2999 230 97 1400 000/00 RMK AO2 T02440239
53988KBKB BKB20190811060011008/11/19 06:00:31  5-MIN KBKB 111200Z AUTO 00000KT 3SM BR CLR 24/24 A2999 230 97 1400 000/00 RMK AO2 T02440239
53988KBKB BKB20190811060511008/11/19 06:05:31  5-MIN KBKB 111205Z AUTO 00000KT 3SM BR CLR 24/24 A2999 230 97 1400 000/00 RMK AO2 T02440239
53988KBKB BKB20190811061011008/11/19 06:10:31  5-MIN KBKB 111210Z AUTO 00000KT 3SM BR CLR 25/24 A2999 230 93 1500 000/00 RMK AO2 T02500239
53988KBKB BKB20190811061015708/11/19 06:10:31  5-MIN KBKB 111210Z AUTO 00000KT 3SM BR CLR 25/24 A2999 230 93 1500 000/00 RMK AO2 T0250023BR FEW012 24/24 A2999 230 97 1400 000/00 RMK AO2
53988KBKB BKB20190811061511008/11/19 06:15:31  5-MIN KBKB 111215Z AUTO 00000KT 4SM BR CLR 25/24 A2999 230 93 1500 000/00 RMK AO2 T02500239
53988KBKB BKB20190811062011008/11/19 06:20:31  5-MIN KBKB 111220Z AUTO 00000KT 4SM BR CLR 25/24 A2999 230 97 1500 000/00 RMK AO2 T02500244
53988KBKB BKB20190811062016208/11/19 06:20:31  5-MIN KBKB 111220Z AUTO 00000KT 4SM BR CLR 25/24 A2999 230 97 1500 000/00 RMK AO2 T0250024408/11/19 06:259 230 97 1400 000/00 RMK AO2 T02440239
53988KBKB BKB20190811062511308/11/19 06:25:31  5-MIN KBKB 111225Z AUTO 00000KT 4SM BR FEW015 25/24 A3000 230 97 1500 000/00 RMK AO2 T02500244
53988KBKB BKB20190811063011308/11/19 06:30:31  5-MIN KBKB 111230Z AUTO 00000KT 5SM BR FEW015 26/24 A3000 220 93 1500 000/00 RMK AO2 T02560244
53988KBKB BKB20190811063015908/11/19 06:30:31  5-MIN KBKB 111230Z AUTO 00000KT 5SM BR FEW015 26/24 A3000 220 93 1500 000/00 RMK AO2 T0256024408/11/19 0230 93 1500 000/00 RMK AO2 T02500239
53988KBKB BKB20190811063511308/11/19 06:35:31  5-MIN KBKB 111235Z AUTO 00000KT 6SM BR SCT015 26/25 A3001 220 97 1500 000/00 RMK AO2 T02560250
53988KBKB BKB20190811064011008/11/19 06:40:31  5-MIN KBKB 111240Z AUTO 00000KT 7SM SCT016 26/25 A3001 220 93 1600 000/00 RMK AO2 T02610250
53988KBKB BKB20190811064511008/11/19 06:45:31  5-MIN KBKB 111245Z AUTO 00000KT 8SM BKN016 26/25 A3001 210 93 1600 000/00 RMK AO2 T02610250
53988KBKB BKB20190811065011708/11/19 06:50:31  5-MIN KBKB 111250Z AUTO 00000KT 9SM SCT016 27/25 A3001 210 90 1600 000/00 RMK AO2 SLP188 T02670250
53988KBKB BKB20190811065511108/11/19 06:55:31  5-MIN KBKB 111255Z AUTO 00000KT 10SM SCT016 27/26 A3001 210 90 1700 000/00 RMK AO2 T02720256
53988KBKB BKB20190811070011108/11/19 07:00:31  5-MIN KBKB 111300Z AUTO 00000KT 10SM SCT016 28/26 A3002 210 87 1800 000/00 RMK AO2 T02780256
53988KBKB BKB20190811070511108/11/19 07:05:31  5-MIN KBKB 111305Z AUTO VRB04KT 10SM FEW016 28/26 A3002 210 87 1800 VRB/04 RMK AO2 T02780256
53988KBKB BKB20190811071011108/11/19 07:10:31  5-MIN KBKB 111310Z AUTO 00000KT 10SM FEW016 28/26 A3002 210 87 1800 000/00 RMK AO2 T02780256
53988KBKB BKB20190811071511808/11/19 07:15:31  5-MIN KBKB 111315Z AUTO VRB03KT 10SM FEW009 SCT018 28/26 A3002 210 87 1800 VRB/03 RMK AO2 T02830261
53988KBKB BKB20190811072010108/11/19 07:20:31  5-MIN KBKB 111320Z AUTO 10SM SCT009 28/26 A3002 210 85 1800 M /M RMK AO2 T02830256
53988KBKB BKB20190811072511108/11/19 07:25:31  5-MIN KBKB 111325Z AUTO VRB03KT 10SM SCT009 28/26 A3002 210 85 1800 VRB/03 RMK AO2 T02830256
53988KBKB BKB20190811073011108/11/19 07:30:31  5-MIN KBKB 111330Z AUTO VRB03KT 10SM BKN010 28/26 A3002 210 85 1800 VRB/03 RMK AO2 T02830256
53988KBKB BKB20190811073511108/11/19 07:35:31  5-MIN KBKB 111335Z AUTO VRB03KT 10SM BKN010 28/26 A3002 200 85 1800 VRB/03 RMK AO2 T02830256
53988KBKB BKB20190811074013108/11/19 07:40:31  5-MIN KBKB 111340Z AUTO VRB03KT 10SM BKN010 28/26 A3002 200 85 1800 VRB/03 RMK AO2 T0283025608/1MK AO2 T03000250
53988KBKB BKB20190811080011108/11/19 08:00:31  5-MIN KBKB 111400Z AUTO VRB03KT 10SM BKN012 29/26 A3003 200 82 1900 VRB/03 RMK AO2 T02890256
53988KBKB BKB20190811080511108/11/19 08:05:31  5-MIN KBKB 111405Z AUTO VRB04KT 10SM BKN012 29/26 A3002 200 79 1900 VRB/04 RMK AO2 T02940256
53988KBKB BKB20190811081011808/11/19 08:10:31  5-MIN KBKB 111410Z AUTO 00000KT 10SM BKN012 BKN018 29/26 A3003 200 79 1900 000/00 RMK AO2 T02940256
53988KBKB BKB20190811081511808/11/19 08:15:31  5-MIN KBKB 111415Z AUTO 00000KT 10SM BKN013 BKN018 29/26 A3003 200 79 1900 000/00 RMK AO2 T02940256
53988KBKB BKB20190811082011108/11/19 08:20:31  5-MIN KBKB 111420Z AUTO VRB03KT 10SM BKN013 29/26 A3003 200 79 1900 VRB/03 RMK AO2 T02940256
53988KBKB BKB20190811082511808/11/19 08:25:31  5-MIN KBKB 111425Z AUTO VRB03KT 10SM BKN013 BKN020 29/26 A3003 200 79 1900 VRB/03 RMK AO2 T02940256
53988KBKB BKB20190811083011808/11/19 08:30:31  5-MIN KBKB 111430Z AUTO VRB03KT 10SM BKN015 BKN020 29/26 A3003 200 79 1900 VRB/03 RMK AO2 T02940256
53988KBKB BKB20190811083511808/11/19 08:35:31  5-MIN KBKB 111435Z AUTO VRB05KT 10SM SCT015 BKN020 29/26 A3003 200 79 1900 VRB/05 RMK AO2 T02940256
53988KBKB BKB20190811084012508/11/19 08:40:31  5-MIN KBKB 111440Z AUTO VRB04KT 10SM SCT015 BKN020 BKN024 30/26 A3003 200 77 2000 VRB/04 RMK AO2 T03000256
53988KBKB BKB20190811084511808/11/19 08:45:31  5-MIN KBKB 111445Z AUTO VRB05KT 10SM SCT015 BKN022 30/25 A3003 200 74 2000 VRB/05 RMK AO2 T03000250
53988KBKB BKB20190811085010808/11/19 08:50:31  5-MIN KBKB 111450Z AUTO VRB04KT 10SM SCT017 SCT030 30/25 A3003 200 74 2000 VRB/04 RMK AO2
53988KBKB BKB20190811085511808/11/19 08:55:31  5-MIN KBKB 111455Z AUTO VRB05KT 10SM FEW017 SCT023 31/25 A3003 200 72 2100 VRB/05 RMK AO2 T03060250
53988KBKB BKB20190811090011808/11/19 09:00:31  5-MIN KBKB 111500Z AUTO VRB04KT 10SM FEW017 SCT023 31/25 A3003 200 72 2100 VRB/04 RMK AO2 T03060250
53988KBKB BKB20190811090511808/11/19 09:05:31  5-MIN KBKB 111505Z AUTO VRB04KT 10SM FEW018 FEW024 31/25 A3003 200 72 2100 VRB/04 RMK AO2 T03060250
53988KBKB BKB20190811091011808/11/19 09:10:31  5-MIN KBKB 111510Z AUTO 00000KT 10SM FEW020 FEW032 31/25 A3003 200 72 2100 000/00 RMK AO2 T03060250
53988KBKB BKB20190811091511808/11/19 09:15:31  5-MIN KBKB 111515Z AUTO 28004KT 10SM FEW020 FEW025 31/25 A3003 200 69 2100 280/04 RMK AO2 T03110250
53988KBKB BKB20190811092011108/11/19 09:20:31  5-MIN KBKB 111520Z AUTO VRB04KT 10SM SCT023 31/25 A3003 200 69 2100 VRB/04 RMK AO2 T03110250
53988KBKB BKB20190811092511108/11/19 09:25:31  5-MIN KBKB 111525Z AUTO VRB03KT 10SM SCT023 32/25 A3003 200 67 2200 VRB/03 RMK AO2 T03170250
53988KBKB BKB20190811093011808/11/19 09:30:31  5-MIN KBKB 111530Z AUTO VRB05KT 10SM SCT024 SCT030 31/24 A3003 200 67 2100 VRB/05 RMK AO2 T03110244
53988KBKB BKB20190811093511808/11/19 09:35:31  5-MIN KBKB 111535Z AUTO 00000KT 10SM SCT024 SCT031 31/24 A3003 200 67 2100 000/00 RMK AO2 T03110244
53988KBKB BKB20190811094011108/11/19 09:40:31  5-MIN KBKB 111540Z AUTO VRB03KT 10SM SCT024 32/24 A3003 200 65 2200 VRB/03 RMK AO2 T03170244
53988KBKB BKB20190811094511108/11/19 09:45:31  5-MIN KBKB 111545Z AUTO VRB04KT 10SM BKN026 32/24 A3003 200 65 2200 VRB/04 RMK AO2 T03170244
53988KBKB BKB20190811095010108/11/19 09:50:31  5-MIN KBKB 111550Z AUTO VRB03KT 10SM BKN026 32/24 A3003 200 63 2300 VRB/03 RMK AO2
53988KBKB BKB20190811095511108/11/19 09:55:31  5-MIN KBKB 111555Z AUTO 00000KT 10SM BKN026 32/24 A3003 200 65 2200 000/00 RMK AO2 T03170244
53988KBKB BKB20190811100011808/11/19 10:00:31  5-MIN KBKB 111600Z AUTO 00000KT 10SM BKN026 BKN034 31/24 A3003 200 67 2100 000/00 RMK AO2 T03110244
53988KBKB BKB20190811100511108/11/19 10:05:31  5-MIN KBKB 111605Z AUTO 00000KT 10SM BKN028 30/24 A3003 200 69 2000 000/00 RMK AO2 T03000239
53988KBKB BKB20190811101011108/11/19 10:10:31  5-MIN KBKB 111610Z AUTO 00000KT 10SM BKN028 31/24 A3003 200 69 2100 000/00 RMK AO2 T03060244
53988KBKB BKB20190811101511108/11/19 10:15:31  5-MIN KBKB 111615Z AUTO VRB04KT 10SM SCT028 32/24 A3002 200 63 2200 VRB/04 RMK AO2 T03170239
53988KBKB BKB20190811102011108/11/19 10:20:31  5-MIN KBKB 111620Z AUTO 00000KT 10SM FEW027 32/24 A3002 200 61 2300 000/00 RMK AO2 T03220239
53988KBKB BKB20190811102511108/11/19 10:25:31  5-MIN KBKB 111625Z AUTO 00000KT 10SM FEW027 32/24 A3002 210 61 2300 000/00 RMK AO2 T03220239
53988KBKB BKB20190811103010808/11/19 10:30:31  5-MIN KBKB 111630Z AUTO 27004KT 10SM CLR 32/23 A3002 210 59 2300 260/04 RMK AO2 T03220233
53988KBKB BKB20190811103510808/11/19 10:35:31  5-MIN KBKB 111635Z AUTO 00000KT 10SM CLR 33/24 A3002 210 57 2400 000/00 RMK AO2 T03330239
53988KBKB BKB20190811104011108/11/19 10:40:31  5-MIN KBKB 111640Z AUTO VRB03KT 10SM FEW035 33/23 A3001 210 57 2300 VRB/03 RMK AO2 T03280233
53988KBKB BKB20190811104511108/11/19 10:45:31  5-MIN KBKB 111645Z AUTO VRB03KT 10SM SCT035 33/23 A3001 220 57 2300 VRB/03 RMK AO2 T03280233
53988KBKB BKB20190811105011808/11/19 10:50:31  5-MIN KBKB 111650Z AUTO VRB03KT 10SM FEW037 33/23 A3001 220 57 2300 VRB/03 RMK AO2 SLP185 T03280233
53988KBKB BKB20190811105511108/11/19 10:55:31  5-MIN KBKB 111655Z AUTO VRB03KT 10SM FEW037 33/23 A3000 220 55 2300 VRB/03 RMK AO2 T03280228
53988KBKB BKB20190811110011108/11/19 11:00:31  5-MIN KBKB 111700Z AUTO 24004KT 10SM FEW037 33/23 A3000 220 55 2300 230/04 RMK AO2 T03280228
53988KBKB BKB20190811110511108/11/19 11:05:31  5-MIN KBKB 111705Z AUTO VRB04KT 10SM SCT036 33/23 A3000 230 55 2400 VRB/04 RMK AO2 T03330233
53988KBKB BKB20190811111011108/11/19 11:10:31  5-MIN KBKB 111710Z AUTO VRB04KT 10SM SCT036 32/23 A3000 230 61 2200 VRB/04 RMK AO2 T03170233
53988KBKB BKB20190811111511108/11/19 11:15:31  5-MIN KBKB 111715Z AUTO 00000KT 10SM SCT036 32/23 A3000 230 59 2300 000/00 RMK AO2 T03220233
53988KBKB BKB20190811112011108/11/19 11:20:31  5-MIN KBKB 111720Z AUTO VRB03KT 10SM FEW036 33/23 A3000 230 57 2300 VRB/03 RMK AO2 T03280233
53988KBKB BKB20190811112511108/11/19 11:25:31  5-MIN KBKB 111725Z AUTO 00000KT 10SM FEW036 33/23 A3000 230 55 2400 000/00 RMK AO2 T03330233
53988KBKB BKB20190811113011108/11/19 11:30:31  5-MIN KBKB 111730Z AUTO VRB04KT 10SM SCT038 34/23 A3000 230 51 2500 VRB/04 RMK AO2 T03390228
53988KBKB BKB20190811113511108/11/19 11:35:31  5-MIN KBKB 111735Z AUTO 00000KT 10SM FEW038 34/23 A2999 230 51 2500 000/00 RMK AO2 T03390228
53988KBKB BKB20190811114011108/11/19 11:40:31  5-MIN KBKB 111740Z AUTO VRB03KT 10SM FEW040 34/22 A2999 230 50 2500 VRB/03 RMK AO2 T03390222
53988KBKB BKB20190811114510108/11/19 11:45:31  5-MIN KBKB 111745Z AUTO 10SM FEW042 34/23 A2999 230 51 2500 M /M RMK AO2 T03390228
53988KBKB BKB20190811115013608/11/19 11:50:31  5-MIN KBKB 111750Z AUTO VRB03KT 10SM FEW042 34/23 A2999 240 53 2500 VRB/03 RMK AO2 SLP179 T03390233 10344 20244 51013
53988KBKB BKB20190811115511108/11/19 11:55:31  5-MIN KBKB 111755Z AUTO VRB03KT 10SM FEW042 34/23 A2999 240 52 2500 VRB/03 RMK AO2 T03440233
53988KBKB BKB20190811120011108/11/19 12:00:31  5-MIN KBKB 111800Z AUTO VRB04KT 10SM SCT042 33/23 A2999 240 55 2400 VRB/04 RMK AO2 T03280228
53988KBKB BKB20190811120511108/11/19 12:05:31  5-MIN KBKB 111805Z AUTO VRB04KT 10SM BKN042 33/23 A2998 240 55 2400 VRB/04 RMK AO2 T03330233
53988KBKB BKB20190811121011108/11/19 12:10:31  5-MIN KBKB 111810Z AUTO 28004KT 10SM BKN042 34/23 A2998 240 52 2500 280/04 RMK AO2 T03440233
53988KBKB BKB20190811121511108/11/19 12:15:31  5-MIN KBKB 111815Z AUTO VRB04KT 10SM SCT044 34/23 A2998 240 50 2500 VRB/04 RMK AO2 T03440228
53988KBKB BKB20190811122011108/11/19 12:20:31  5-MIN KBKB 111820Z AUTO 00000KT 10SM SCT044 34/22 A2998 240 48 2500 000/00 RMK AO2 T03440222
53988KBKB BKB20190811122511108/11/19 12:25:31  5-MIN KBKB 111825Z AUTO VRB05KT 10SM BKN044 33/22 A2998 250 51 2400 VRB/05 RMK AO2 T03330222
53988KBKB BKB20190811123011108/11/19 12:30:31  5-MIN KBKB 111830Z AUTO 00000KT 10SM SCT044 34/23 A2997 250 50 2600 000/00 RMK AO2 T03440228
53988KBKB BKB20190811123511108/11/19 12:35:31  5-MIN KBKB 111835Z AUTO VRB04KT 10SM SCT046 34/23 A2997 250 51 2500 VRB/04 RMK AO2 T03390228
53988KBKB BKB20190811124011108/11/19 12:40:31  5-MIN KBKB 111840Z AUTO VRB04KT 10SM SCT046 34/23 A2997 250 51 2500 VRB/04 RMK AO2 T03390228
53988KBKB BKB20190811124511108/11/19 12:45:31  5-MIN KBKB 111845Z AUTO 00000KT 10SM SCT046 34/22 A2997 250 50 2500 000/00 RMK AO2 T03390222
53988KBKB BKB20190811125011808/11/19 12:50:31  5-MIN KBKB 111850Z AUTO 00000KT 10SM SCT046 34/22 A2997 250 48 2600 000/00 RMK AO2 SLP172 T03440222
53988KBKB BKB20190811125511108/11/19 12:55:31  5-MIN KBKB 111855Z AUTO 00000KT 10SM FEW046 34/22 A2997 250 48 2600 000/00 RMK AO2 T03440222
53988KBKB BKB20190811130011108/11/19 13:00:31  5-MIN KBKB 111900Z AUTO 00000KT 10SM SCT048 34/23 A2997 260 50 2600 000/00 RMK AO2 T03440228
53988KBKB BKB20190811130511108/11/19 13:05:31  5-MIN KBKB 111905Z AUTO VRB03KT 10SM SCT048 34/22 A2996 260 48 2600 VRB/03 RMK AO2 T03440222
53988KBKB BKB20190811131011108/11/19 13:10:31  5-MIN KBKB 111910Z AUTO VRB03KT 10SM FEW048 35/23 A2996 260 48 2600 VRB/03 RMK AO2 T03500228
53988KBKB BKB20190811131511108/11/19 13:15:31  5-MIN KBKB 111915Z AUTO VRB04KT 10SM FEW048 36/23 A2996 260 48 2700 VRB/04 RMK AO2 T03560233
53988KBKB BKB20190811132011108/11/19 13:20:31  5-MIN KBKB 111920Z AUTO 00000KT 10SM FEW048 34/22 A2996 260 46 2600 000/00 RMK AO2 T03440217
53988KBKB BKB20190811132511108/11/19 13:25:31  5-MIN KBKB 111925Z AUTO VRB03KT 10SM FEW048 35/22 A2996 260 45 2600 VRB/03 RMK AO2 T03500217
53988KBKB BKB20190811133010808/11/19 13:30:31  5-MIN KBKB 111930Z AUTO VRB03KT 10SM CLR 34/22 A2996 260 46 2600 VRB/03 RMK AO2 T03440217
53988KBKB BKB20190811133510808/11/19 13:35:31  5-MIN KBKB 111935Z AUTO VRB03KT 10SM CLR 35/22 A2995 270 47 2600 VRB/03 RMK AO2 T03500222
53988KBKB BKB20190811134010808/11/19 13:40:31  5-MIN KBKB 111940Z AUTO 00000KT 10SM CLR 36/22 A2995 270 45 2700 000/00 RMK AO2 T03560222
53988KBKB BKB20190811134510808/11/19 13:45:31  5-MIN KBKB 111945Z AUTO VRB03KT 10SM CLR 35/22 A2995 270 47 2600 VRB/03 RMK AO2 T03500222
53988KBKB BKB20190811135011508/11/19 13:50:31  5-MIN KBKB 111950Z AUTO 00000KT 10SM CLR 35/23 A2995 270 48 2600 000/00 RMK AO2 SLP166 T03500228
53988KBKB BKB20190811135511108/11/19 13:55:31  5-MIN KBKB 111955Z AUTO VRB04KT 10SM FEW050 35/23 A2995 270 48 2600 VRB/04 RMK AO2 T03500228
53988KBKB BKB20190811140011108/11/19 14:00:31  5-MIN KBKB 112000Z AUTO VRB03KT 10SM SCT050 36/23 A2995 270 45 2800 VRB/03 RMK AO2 T03610228
53988KBKB BKB20190811140511108/11/19 14:05:31  5-MIN KBKB 112005Z AUTO 21003KT 10SM FEW050 36/22 A2995 270 45 2700 210/03 RMK AO2 T03560222
53988KBKB BKB20190811141011108/11/19 14:10:31  5-MIN KBKB 112010Z AUTO VRB03KT 10SM FEW050 35/22 A2995 270 47 2600 VRB/03 RMK AO2 T03500222
53988KBKB BKB20190811141511108/11/19 14:15:31  5-MIN KBKB 112015Z AUTO 00000KT 10SM FEW050 36/22 A2995 280 45 2700 000/00 RMK AO2 T03560222
53988KBKB BKB20190811142011108/11/19 14:20:31  5-MIN KBKB 112020Z AUTO 00000KT 10SM FEW050 36/22 A2994 280 44 2800 000/00 RMK AO2 T03610222
53988KBKB BKB20190811142510808/11/19 14:25:31  5-MIN KBKB 112025Z AUTO 00000KT 10SM CLR 36/22 A2994 280 45 2700 000/00 RMK AO2 T03560222
53988KBKB BKB20190811143011108/11/19 14:30:31  5-MIN KBKB 112030Z AUTO 00000KT 10SM FEW055 36/22 A2994 280 44 2700 000/00 RMK AO2 T03560217
53988KBKB BKB20190811143511108/11/19 14:35:31  5-MIN KBKB 112035Z AUTO 00000KT 10SM FEW055 36/22 A2994 280 44 2800 000/00 RMK AO2 T03610222
53988KBKB BKB20190811144011108/11/19 14:40:31  5-MIN KBKB 112040Z AUTO VRB03KT 10SM SCT055 36/22 A2994 280 45 2700 VRB/03 RMK AO2 T03560222
53988KBKB BKB20190811144511108/11/19 14:45:31  5-MIN KBKB 112045Z AUTO 23004KT 10SM BKN055 35/22 A2994 280 45 2700 220/04 RMK AO2 T03500217
53988KBKB BKB20190811145012408/11/19 14:50:31  5-MIN KBKB 112050Z AUTO VRB03KT 10SM BKN055 36/22 A2994 280 44 2800 VRB/03 RMK AO2 SLP161 T03610222 58013
53988KBKB BKB20190811145511108/11/19 14:55:31  5-MIN KBKB 112055Z AUTO 00000KT 10SM BKN055 36/22 A2993 290 44 2800 000/00 RMK AO2 T03610222
53988KBKB BKB20190811150018508/11/19 15:00:31  5-MIN KBKB 112100Z AUTO 00000KT 10SM SCT055 36/22 A2993 290 45 2700 000/00 RMK AO2 T03560222 AUTO VRB03KT 10SM FEW055 35/23 A2992 300 48 2700 VRB/03 RMK AO2 T03500228
53988KBKB BKB20190811161511108/11/19 16:15:31  5-MIN KBKB 112215Z AUTO VRB03KT 10SM FEW055 35/23 A2993 290 48 2700 VRB/03 RMK AO2 T03500228
53988KBKB BKB20190811162011108/11/19 16:20:31  5-MIN KBKB 112220Z AUTO VRB03KT 10SM FEW055 34/22 A2993 290 48 2600 VRB/03 RMK AO2 T03440222
53988KBKB BKB20190811162511108/11/19 16:25:31  5-MIN KBKB 112225Z AUTO VRB03KT 10SM FEW055 35/23 A2993 290 48 2700 VRB/03 RMK AO2 T03500228
53988KBKB BKB20190811163010808/11/19 16:30:31  5-MIN KBKB 112230Z AUTO 00000KT 10SM CLR 35/23 A2993 290 48 2700 000/00 RMK AO2 T03500228
53988KBKB BKB20190811163016108/11/19 16:30:31  5-MIN KBKB 112230Z AUTO 00000KT 10SM CLR 35/23 A2993 290 48 2700 000/00 RMK AO2 T035002FEW055 35/23 A2992 300 48 2700 VRB/03 RMK AO2 T03500228
53988KBKB BKB20190811163510808/11/19 16:35:31  5-MIN KBKB 112235Z AUTO VRB03KT 10SM CLR 35/23 A2992 290 48 2700 VRB/03 RMK AO2 T03500228
53988KBKB BKB20190811164010808/11/19 16:40:31  5-MIN KBKB 112240Z AUTO VRB03KT 10SM CLR 34/23 A2992 290 50 2600 VRB/03 RMK AO2 T03440228
53988KBKB BKB20190811164016708/11/19 16:40:31  5-MIN KBKB 112240Z AUTO VRB03KT 10SM CLR 34/23 A2992 290 50 2600 VRB/03 RMK AOO VRB03KT 10SM FEW055 34/22 A2993 290 48 2600 VRB/03 RMK AO2 T03440222
53988KBKB BKB20190811164510808/11/19 16:45:31  5-MIN KBKB 112245Z AUTO VRB03KT 10SM CLR 35/23 A2992 300 48 2700 VRB/03 RMK AO2 T03500228
53988KBKB BKB20190811165011508/11/19 16:50:31  5-MIN KBKB 112250Z AUTO VRB03KT 10SM CLR 34/22 A2992 300 48 2600 VRB/03 RMK AO2 SLP157 T03440222
53988KBKB BKB20190811165017008/11/19 16:50:31  5-MIN KBKB 112250Z AUTO VRB03KT 10SM CLR 34/22 A2992 300 48 2600 VRB/03 RMK AO2 SLPTO 00000KT 10SM CLR 35/23 A2993 290 48 2700 000/00 RMK AO2 T03500228
53988KBKB BKB20190811165510808/11/19 16:55:31  5-MIN KBKB 112255Z AUTO VRB03KT 10SM CLR 34/22 A2992 290 48 2600 VRB/03 RMK AO2 T03440222
53988KBKB BKB20190811170010808/11/19 17:00:31  5-MIN KBKB 112300Z AUTO 00000KT 10SM CLR 34/22 A2992 290 48 2600 000/00 RMK AO2 T03440222
53988KBKB BKB20190811170510808/11/19 17:05:31  5-MIN KBKB 112305Z AUTO 00000KT 10SM CLR 34/23 A2992 300 50 2600 000/00 RMK AO2 T03440228
53988KBKB BKB20190811171010808/11/19 17:10:31  5-MIN KBKB 112310Z AUTO 00000KT 10SM CLR 34/22 A2992 300 48 2600 000/00 RMK AO2 T03440222
53988KBKB BKB20190811171510808/11/19 17:15:31  5-MIN KBKB 112315Z AUTO 00000KT 10SM CLR 34/23 A2992 300 51 2600 000/00 RMK AO2 T03390228
53988KBKB BKB20190811172010808/11/19 17:20:31  5-MIN KBKB 112320Z AUTO 00000KT 10SM CLR 34/23 A2992 300 51 2600 000/00 RMK AO2 T03390228
53988KBKB BKB20190811172510808/11/19 17:25:31  5-MIN KBKB 112325Z AUTO 00000KT 10SM CLR 34/23 A2992 300 51 2600 000/00 RMK AO2 T03390228
53988KBKB BKB20190811173010808/11/19 17:30:31  5-MIN KBKB 112330Z AUTO 00000KT 10SM CLR 33/23 A2992 300 53 2500 000/00 RMK AO2 T03330228
53988KBKB BKB20190811173510808/11/19 17:35:31  5-MIN KBKB 112335Z AUTO 00000KT 10SM CLR 33/23 A2992 300 53 2500 000/00 RMK AO2 T03330228
53988KBKB BKB20190811174010808/11/19 17:40:31  5-MIN KBKB 112340Z AUTO 00000KT 10SM CLR 33/23 A2992 300 53 2500 000/00 RMK AO2 T03330228
53988KBKB BKB20190811174510808/11/19 17:45:31  5-MIN KBKB 112345Z AUTO 00000KT 10SM CLR 33/22 A2992 300 53 2400 000/00 RMK AO2 T03280222
53988KBKB BKB20190811175013308/11/19 17:50:31  5-MIN KBKB 112350Z AUTO 00000KT 10SM CLR 32/23 A2991 300 57 2400 000/00 RMK AO2 SLP155 T03220228 10361 20322 56018
53988KBKB BKB20190811175510808/11/19 17:55:31  5-MIN KBKB 112355Z AUTO 00000KT 10SM CLR 32/23 A2992 300 57 2400 000/00 RMK AO2 T03220228
53988KBKB BKB20190811180010808/11/19 18:00:31  5-MIN KBKB 120000Z AUTO 00000KT 10SM CLR 32/23 A2992 300 57 2400 000/00 RMK AO2 T03220228
53988KBKB BKB20190811180507208/11/19 18:05:31  5-MIN KBKB 120005Z AUTO 00000KT 10SM CLR 32/23 A29ED.
53988KBKB BKB20190811190010808/11/19 19:00:31  5-MIN KBKB 120100Z AUTO 00000KT 10SM CLR 29/24 A2993 290 74 2000 000/00 RMK AO2 T02890239
53988KBKB BKB20190811190510808/11/19 19:05:31  5-MIN KBKB 120105Z AUTO 00000KT 10SM CLR 28/23 A2993 290 74 1900 000/00 RMK AO2 T02830233
53988KBKB BKB20190811191010808/11/19 19:10:31  5-MIN KBKB 120110Z AUTO 00000KT 10SM CLR 28/24 A2993 290 76 1900 000/00 RMK AO2 T02830239
53988KBKB BKB20190811191510808/11/19 19:15:31  5-MIN KBKB 120115Z AUTO 00000KT 10SM CLR 28/24 A2993 290 76 1900 000/00 RMK AO2 T02830239
53988KBKB BKB20190811192010808/11/19 19:20:31  5-MIN KBKB 120120Z AUTO 00000KT 10SM CLR 28/23 A2993 290 74 1900 000/00 RMK AO2 T02830233
53988KBKB BKB20190811192510808/11/19 19:25:31  5-MIN KBKB 120125Z AUTO 00000KT 10SM CLR 28/23 A2993 290 74 1900 000/00 RMK AO2 T02830233
53988KBKB BKB20190811193010808/11/19 19:30:31  5-MIN KBKB 120130Z AUTO 00000KT 10SM CLR 28/24 A2993 290 79 1900 000/00 RMK AO2 T02780239
53988KBKB BKB20190811193510808/11/19 19:35:31  5-MIN KBKB 120135Z AUTO 00000KT 10SM CLR 28/24 A2993 290 76 1900 000/00 RMK AO2 T02830239
53988KBKB BKB20190811194010808/11/19 19:40:31  5-MIN KBKB 120140Z AUTO 00000KT 10SM CLR 28/24 A2992 290 79 1900 000/00 RMK AO2 T02780239
53988KBKB BKB20190811194510808/11/19 19:45:31  5-MIN KBKB 120145Z AUTO 00000KT 10SM CLR 28/24 A2993 290 79 1900 000/00 RMK AO2 T02780239
53988KBKB BKB20190811195011508/11/19 19:50:31  5-MIN KBKB 120150Z AUTO 00000KT 10SM CLR 28/24 A2993 290 79 1900 000/00 RMK AO2 SLP159 T02780239
53988KBKB BKB20190811195510808/11/19 19:55:31  5-MIN KBKB 120155Z AUTO 00000KT 10SM CLR 27/24 A2993 290 82 1800 000/00 RMK AO2 T02720239
53988KBKB BKB20190811200010808/11/19 20:00:31  5-MIN KBKB 120200Z AUTO 00000KT 10SM CLR 28/24 A2993 290 79 1900 000/00 RMK AO2 T02780239
53988KBKB BKB20190811200510808/11/19 20:05:31  5-MIN KBKB 120205Z AUTO 00000KT 10SM CLR 28/24 A2993 290 79 1900 000/00 RMK AO2 T02780239
53988KBKB BKB20190811201010808/11/19 20:10:31  5-MIN KBKB 120210Z AUTO 00000KT 10SM CLR 28/24 A2993 290 79 1900 000/00 RMK AO2 T02780239
53988KBKB BKB20190811201510808/11/19 20:15:31  5-MIN KBKB 120215Z AUTO 00000KT 10SM CLR 28/24 A2993 290 79 1900 000/00 RMK AO2 T02780239
53988KBKB BKB20190811202010808/11/19 20:20:31  5-MIN KBKB 120220Z AUTO 00000KT 10SM CLR 27/24 A2993 290 82 1800 000/00 RMK AO2 T02720239
53988KBKB BKB20190811202510808/11/19 20:25:31  5-MIN KBKB 120225Z AUTO 00000KT 10SM CLR 27/24 A2993 290 82 1800 000/00 RMK AO2 T02720239
53988KBKB BKB20190811203010808/11/19 20:30:31  5-MIN KBKB 120230Z AUTO 00000KT 10SM CLR 27/24 A2993 290 82 1800 000/00 RMK AO2 T02720239
53988KBKB BKB20190811203510808/11/19 20:35:31  5-MIN KBKB 120235Z AUTO 00000KT 10SM CLR 27/24 A2993 290 82 1800 000/00 RMK AO2 T02720239
53988KBKB BKB20190811204010808/11/19 20:40:31  5-MIN KBKB 120240Z AUTO 00000KT 10SM CLR 27/24 A2993 290 82 1800 000/00 RMK AO2 T02720239
53988KBKB BKB20190811204510808/11/19 20:45:31  5-MIN KBKB 120245Z AUTO 00000KT 10SM CLR 27/24 A2993 290 82 1800 000/00 RMK AO2 T02720239
53988KBKB BKB20190811205012108/11/19 20:50:31  5-MIN KBKB 120250Z AUTO 00000KT 10SM CLR 27/24 A2993 290 82 1800 000/00 RMK AO2 SLP158 T02720239 56006
53988KBKB BKB20190811205510808/11/19 20:55:31  5-MIN KBKB 120255Z AUTO 00000KT 10SM CLR 27/24 A2993 290 82 1800 000/00 RMK AO2 T02720239
53988KBKB BKB20190811210010808/11/19 21:00:31  5-MIN KBKB 120300Z AUTO 00000KT 10SM CLR 27/24 A2993 290 82 1800 000/00 RMK AO2 T02720239
53988KBKB BKB20190811210510808/11/19 21:05:31  5-MIN KBKB 120305Z AUTO 00000KT 10SM CLR 27/24 A2993 290 84 1700 000/00 RMK AO2 T02670239
53988KBKB BKB20190811211010808/11/19 21:10:31  5-MIN KBKB 120310Z AUTO 00000KT 10SM CLR 27/24 A2992 290 84 1700 000/00 RMK AO2 T02670239
53988KBKB BKB20190811211510808/11/19 21:15:31  5-MIN KBKB 120315Z AUTO 00000KT 10SM CLR 27/24 A2992 300 84 1800 000/00 RMK AO2 T02670239
53988KBKB BKB20190811212010808/11/19 21:20:31  5-MIN KBKB 120320Z AUTO 00000KT 10SM CLR 27/24 A2992 300 84 1800 000/00 RMK AO2 T02670239
53988KBKB BKB20190811212510808/11/19 21:25:31  5-MIN KBKB 120325Z AUTO 00000KT 10SM CLR 27/24 A2992 300 84 1800 000/00 RMK AO2 T02670239
53988KBKB BKB20190811213010808/11/19 21:30:31  5-MIN KBKB 120330Z AUTO 00000KT 10SM CLR 27/24 A2992 300 84 1800 000/00 RMK AO2 T02670239
53988KBKB BKB20190811213510808/11/19 21:35:31  5-MIN KBKB 120335Z AUTO 00000KT 10SM CLR 27/24 A2992 290 84 1700 000/00 RMK AO2 T02670239
53988KBKB BKB20190811214010808/11/19 21:40:31  5-MIN KBKB 120340Z AUTO 00000KT 10SM CLR 26/24 A2992 290 87 1700 000/00 RMK AO2 T02610239
53988KBKB BKB20190811214510808/11/19 21:45:31  5-MIN KBKB 120345Z AUTO 00000KT 10SM CLR 27/24 A2992 300 84 1700 000/00 RMK AO2 T02670239
53988KBKB BKB20190811215011508/11/19 21:50:31  5-MIN KBKB 120350Z AUTO 00000KT 10SM CLR 27/24 A2992 300 84 1700 000/00 RMK AO2 SLP157 T02670239
53988KBKB BKB20190811215510808/11/19 21:55:31  5-MIN KBKB 120355Z AUTO 00000KT 10SM CLR 27/24 A2992 300 84 1800 000/00 RMK AO2 T02670239
53988KBKB BKB20190811220010808/11/19 22:00:31  5-MIN KBKB 120400Z AUTO 00000KT 10SM CLR 26/24 A2992 300 87 1700 000/00 RMK AO2 T02610239
53988KBKB BKB20190811220510808/11/19 22:05:31  5-MIN KBKB 120405Z AUTO 00000KT 10SM CLR 26/24 A2992 300 87 1700 000/00 RMK AO2 T02610239
53988KBKB BKB20190811221010808/11/19 22:10:31  5-MIN KBKB 120410Z AUTO 00000KT 10SM CLR 26/24 A2992 300 87 1700 000/00 RMK AO2 T02610239
53988KBKB BKB20190811221510808/11/19 22:15:31  5-MIN KBKB 120415Z AUTO 00000KT 10SM CLR 26/24 A2992 300 87 1700 000/00 RMK AO2 T02610239
53988KBKB BKB20190811222010808/11/19 22:20:31  5-MIN KBKB 120420Z AUTO 00000KT 10SM CLR 26/24 A2992 300 87 1700 000/00 RMK AO2 T02610239
53988KBKB BKB20190811222510808/11/19 22:25:31  5-MIN KBKB 120425Z AUTO 00000KT 10SM CLR 26/24 A2992 300 87 1700 000/00 RMK AO2 T02610239
53988KBKB BKB20190811223010808/11/19 22:30:31  5-MIN KBKB 120430Z AUTO 00000KT 10SM CLR 26/24 A2992 300 87 1700 000/00 RMK AO2 T02610239
53988KBKB BKB20190811223510808/11/19 22:35:31  5-MIN KBKB 120435Z AUTO 00000KT 10SM CLR 26/24 A2992 300 87 1700 000/00 RMK AO2 T02610239
53988KBKB BKB20190811224010808/11/19 22:40:31  5-MIN KBKB 120440Z AUTO 00000KT 10SM CLR 26/24 A2992 300 87 1700 000/00 RMK AO2 T02610239
53988KBKB BKB20190811224510808/11/19 22:45:31  5-MIN KBKB 120445Z AUTO 00000KT 10SM CLR 26/24 A2992 290 87 1700 000/00 RMK AO2 T02610239
53988KBKB BKB20190811225011508/11/19 22:50:31  5-MIN KBKB 120450Z AUTO 00000KT 10SM CLR 27/24 A2993 290 87 1700 000/00 RMK AO2 SLP157 T02670244
53988KBKB BKB20190811225510808/11/19 22:55:31  5-MIN KBKB 120455Z AUTO 00000KT 10SM CLR 27/24 A2993 290 87 1700 000/00 RMK AO2 T02670244
53988KBKB BKB20190811230010808/11/19 23:00:31  5-MIN KBKB 120500Z AUTO 00000KT 10SM CLR 27/24 A2992 290 87 1700 000/00 RMK AO2 T02670244
53988KBKB BKB20190811230510808/11/19 23:05:31  5-MIN KBKB 120505Z AUTO 21003KT 10SM CLR 27/24 A2992 300 87 1800 210/03 RMK AO2 T02670244
53988KBKB BKB20190811231010808/11/19 23:10:31  5-MIN KBKB 120510Z AUTO VRB03KT 10SM CLR 27/24 A2992 300 84 1800 VRB/03 RMK AO2 T02720244
53988KBKB BKB20190811231510808/11/19 23:15:31  5-MIN KBKB 120515Z AUTO 00000KT 10SM CLR 27/24 A2992 300 84 1800 000/00 RMK AO2 T02720244
53988KBKB BKB20190811232010808/11/19 23:20:31  5-MIN KBKB 120520Z AUTO VRB03KT 10SM CLR 27/25 A2992 300 87 1800 VRB/03 RMK AO2 T02720250
53988KBKB BKB20190811232510808/11/19 23:25:31  5-MIN KBKB 120525Z AUTO 00000KT 10SM CLR 27/25 A2992 300 87 1800 000/00 RMK AO2 T02720250
53988KBKB BKB20190811233010808/11/19 23:30:31  5-MIN KBKB 120530Z AUTO 00000KT 10SM CLR 27/25 A2992 300 87 1800 000/00 RMK AO2 T02720250
53988KBKB BKB20190811233510808/11/19 23:35:31  5-MIN KBKB 120535Z AUTO 00000KT 10SM CLR 27/25 A2992 300 90 1800 000/00 RMK AO2 T02670250
53988KBKB BKB20190811234010808/11/19 23:40:31  5-MIN KBKB 120540Z AUTO 00000KT 10SM CLR 27/25 A2992 300 90 1800 000/00 RMK AO2 T02670250
53988KBKB BKB20190811234510808/11/19 23:45:31  5-MIN KBKB 120545Z AUTO 00000KT 10SM CLR 27/25 A2992 300 90 1800 000/00 RMK AO2 T02670250
53988KBKB BKB20190811235014308/11/19 23:50:31  5-MIN KBKB 120550Z AUTO 00000KT 10SM CLR 27/25 A2992 300 90 1800 000/00 RMK AO2 SLP156 T02670250 10322 20261 403610244 50004
53988KBKB BKB20190811235510808/11/19 23:55:31  5-MIN KBKB 120555Z AUTO 00000KT 10SM CLR 27/25 A2992 300 87 1800 000/00 RMK AO2 T02720250
53988KBKB BKB20190812000010808/12/19 00:00:31  5-MIN KBKB 120600Z AUTO 00000KT 10SM CLR 27/25 A2992 300 90 1800 000/00 RMK AO2 T02670250
53988KBKB BKB20190812000510808/12/19 00:05:31  5-MIN KBKB 120605Z AUTO 00000KT 10SM CLR 27/25 A2992 300 90 1800 000/00 RMK AO2 T02670250
53988KBKB BKB20190812001010808/12/19 00:10:31  5-MIN KBKB 120610Z AUTO 00000KT 10SM CLR 27/25 A2992 300 90 1800 000/00 RMK AO2 T02670250
53988KBKB BKB20190812001510808/12/19 00:15:31  5-MIN KBKB 120615Z AUTO VRB03KT 10SM CLR 27/25 A2992 300 90 1800 VRB/03 RMK AO2 T02670250
53988KBKB BKB20190812002010808/12/19 00:20:31  5-MIN KBKB 120620Z AUTO 00000KT 10SM CLR 27/25 A2992 300 90 1800 000/00 RMK AO2 T02670250
53988KBKB BKB20190812002510808/12/19 00:25:31  5-MIN KBKB 120625Z AUTO VRB03KT 10SM CLR 27/25 A2992 300 90 1800 VRB/03 RMK AO2 T02670250
53988KBKB BKB20190812003010808/12/19 00:30:31  5-MIN KBKB 120630Z AUTO 00000KT 10SM CLR 27/25 A2992 300 90 1800 000/00 RMK AO2 T02670250
53988KBKB BKB20190812003510808/12/19 00:35:31  5-MIN KBKB 120635Z AUTO 00000KT 10SM CLR 27/25 A2991 310 90 1800 000/00 RMK AO2 T02670250
53988KBKB BKB20190812004010808/12/19 00:40:31  5-MIN KBKB 120640Z AUTO 00000KT 10SM CLR 27/25 A2991 310 90 1800 000/00 RMK AO2 T02670250
53988KBKB BKB20190812004510808/12/19 00:45:31  5-MIN KBKB 120645Z AUTO 00000KT 10SM CLR 26/25 A2991 310 93 1700 000/00 RMK AO2 T02610250
53988KBKB BKB20190812005011508/12/19 00:50:31  5-MIN KBKB 120650Z AUTO 00000KT 10SM CLR 26/25 A2991 310 93 1700 000/00 RMK AO2 SLP151 T02610250
53988KBKB BKB20190812005510808/12/19 00:55:31  5-MIN KBKB 120655Z AUTO 00000KT 10SM CLR 26/25 A2991 310 93 1700 000/00 RMK AO2 T02610250
53988KBKB BKB20190812010010808/12/19 01:00:31  5-MIN KBKB 120700Z AUTO 00000KT 10SM CLR 27/25 A2991 310 90 1800 000/00 RMK AO2 T02670250
53988KBKB BKB20190812010510808/12/19 01:05:31  5-MIN KBKB 120705Z AUTO 00000KT 10SM CLR 26/25 A2991 310 93 1700 000/00 RMK AO2 T02610250
53988KBKB BKB20190812011010808/12/19 01:10:31  5-MIN KBKB 120710Z AUTO 00000KT 10SM CLR 26/25 A2991 310 93 1700 000/00 RMK AO2 T02610250
53988KBKB BKB20190812011510808/12/19 01:15:31  5-MIN KBKB 120715Z AUTO 00000KT 10SM CLR 26/25 A2991 310 93 1700 000/00 RMK AO2 T02610250
53988KBKB BKB20190812012010808/12/19 01:20:31  5-MIN KBKB 120720Z AUTO 00000KT 10SM CLR 26/24 A2991 310 90 1700 000/00 RMK AO2 T02610244
53988KBKB BKB20190812012510808/12/19 01:25:31  5-MIN KBKB 120725Z AUTO 00000KT 10SM CLR 26/24 A2991 310 90 1700 000/00 RMK AO2 T02610244
53988KBKB BKB20190812013010808/12/19 01:30:31  5-MIN KBKB 120730Z AUTO 00000KT 10SM CLR 26/24 A2991 310 90 1700 000/00 RMK AO2 T02610244
53988KBKB BKB20190812013510808/12/19 01:35:31  5-MIN KBKB 120735Z AUTO 00000KT 10SM CLR 26/24 A2991 310 90 1700 000/00 RMK AO2 T02610244
53988KBKB BKB20190812014010808/12/19 01:40:31  5-MIN KBKB 120740Z AUTO 00000KT 10SM CLR 26/24 A2990 310 93 1600 000/00 RMK AO2 T02560244
53988KBKB BKB20190812014510808/12/19 01:45:31  5-MIN KBKB 120745Z AUTO 00000KT 10SM CLR 26/24 A2991 310 93 1600 000/00 RMK AO2 T02560244
53988KBKB BKB20190812015011508/12/19 01:50:31  5-MIN KBKB 120750Z AUTO 00000KT 10SM CLR 26/24 A2991 310 93 1600 000/00 RMK AO2 SLP151 T02560244
53988KBKB BKB20190812015510808/12/19 01:55:31  5-MIN KBKB 120755Z AUTO 00000KT 10SM CLR 26/24 A2991 310 93 1600 000/00 RMK AO2 T02560244
53988KBKB BKB20190812020009308/12/19 02:00:31  5-MIN KBKB 120800Z AUTO 00000KT 10SM CLR 26/24600 000/00 RMK AO2 T02560244
53988KBKB BKB20190812024011008/12/19 02:40:31  5-MIN KBKB 120840Z AUTO 00000KT 6SM BR CLR 26/24 A2992 300 93 1600 000/00 RMK AO2 T02560244
53988KBKB BKB20190812024510708/12/19 02:45:31  5-MIN KBKB 120845Z AUTO 00000KT 7SM CLR 26/24 A2992 300 93 1600 000/00 RMK AO2 T02560244
53988KBKB BKB20190812025012008/12/19 02:50:31  5-MIN KBKB 120850Z AUTO 00000KT 7SM CLR 26/24 A2992 300 93 1600 000/00 RMK AO2 SLP156 T02560244 56001
53988KBKB BKB20190812025510708/12/19 02:55:31  5-MIN KBKB 120855Z AUTO 00000KT 7SM CLR 26/24 A2992 290 93 1600 000/00 RMK AO2 T02560244
53988KBKB BKB20190812025515708/12/19 02:55:31  5-MIN KBKB 120855Z AUTO 00000KT 7SM CLR 26/24 A2992 290 93 1600 000/00 RMK AO2 6SM BR CLR 26/24 A2992 300 93 1600 000/00 RMK AO2 T02560244
53988KBKB BKB20190812030010708/12/19 03:00:31  5-MIN KBKB 120900Z AUTO 00000KT 7SM CLR 26/24 A2993 290 93 1600 000/00 RMK AO2 T02560244
53988KBKB BKB20190812030510708/12/19 03:05:31  5-MIN KBKB 120905Z AUTO 00000KT 7SM CLR 26/24 A2992 300 93 1600 000/00 RMK AO2 T02560244
53988KBKB BKB20190812030515808/12/19 03:05:31  5-MIN KBKB 120905Z AUTO 00000KT 7SM CLR 26/24 A2992 300 93 1600 000/00 RMK AO2 T02560244LR 26/24 A2992 300 93 1600 000/00 RMK AO2 T02560244
53988KBKB BKB20190812031010708/12/19 03:10:31  5-MIN KBKB 120910Z AUTO 00000KT 7SM CLR 26/24 A2992 300 93 1600 000/00 RMK AO2 T02560244
53988KBKB BKB20190812031511008/12/19 03:15:31  5-MIN KBKB 120915Z AUTO 00000KT 6SM BR CLR 26/24 A2992 300 93 1600 000/00 RMK AO2 T02560244
53988KBKB BKB20190812032011008/12/19 03:20:31  5-MIN KBKB 120920Z AUTO 00000KT 6SM BR CLR 26/24 A2992 290 93 1600 000/00 RMK AO2 T02560244
53988KBKB BKB20190812032510708/12/19 03:25:31  5-MIN KBKB 120925Z AUTO 00000KT 7SM CLR 26/24 A2993 290 93 1600 000/00 RMK AO2 T02560244
53988KBKB BKB20190812033010708/12/19 03:30:31  5-MIN KBKB 120930Z AUTO 00000KT 7SM CLR 26/24 A2993 290 93 1600 000/00 RMK AO2 T02560244
53988KBKB BKB20190812033510708/12/19 03:35:31  5-MIN KBKB 120935Z AUTO 00000KT 7SM CLR 26/24 A2993 290 93 1600 000/00 RMK AO2 T02560244
53988KBKB BKB20190812034011008/12/19 03:40:31  5-MIN KBKB 120940Z AUTO 00000KT 6SM BR CLR 26/24 A2993 290 93 1600 000/00 RMK AO2 T02560244
53988KBKB BKB20190812034511008/12/19 03:45:31  5-MIN KBKB 120945Z AUTO 00000KT 5SM BR CLR 26/24 A2993 290 93 1600 000/00 RMK AO2 T02560244
53988KBKB BKB20190812035011708/12/19 03:50:31  5-MIN KBKB 120950Z AUTO 00000KT 5SM BR CLR 26/24 A2993 290 93 1600 000/00 RMK AO2 SLP158 T02560244
53988KBKB BKB20190812035511008/12/19 03:55:31  5-MIN KBKB 120955Z AUTO 00000KT 5SM BR CLR 26/24 A2993 290 93 1600 000/00 RMK AO2 T02560244
53988KBKB BKB20190812040011008/12/19 04:00:31  5-MIN KBKB 121000Z AUTO 00000KT 5SM BR CLR 25/24 A2993 290 97 1600 000/00 RMK AO2 T02500244
53988KBKB BKB20190812040511008/12/19 04:05:31  5-MIN KBKB 121005Z AUTO 00000KT 5SM BR CLR 25/24 A2993 290 97 1600 000/00 RMK AO2 T02500244
53988KBKB BKB20190812041011008/12/19 04:10:31  5-MIN KBKB 121010Z AUTO 00000KT 4SM BR CLR 25/24 A2993 290 97 1600 000/00 RMK AO2 T02500244
53988KBKB BKB20190812041511008/12/19 04:15:31  5-MIN KBKB 121015Z AUTO 00000KT 4SM BR CLR 25/24 A2993 290 97 1600 000/00 RMK AO2 T02500244
53988KBKB BKB20190812042011008/12/19 04:20:31  5-MIN KBKB 121020Z AUTO 00000KT 4SM BR CLR 25/24 A2993 290 97 1600 000/00 RMK AO2 T02500244
53988KBKB BKB20190812042511008/12/19 04:25:31  5-MIN KBKB 121025Z AUTO 00000KT 5SM BR CLR 26/24 A2993 290 93 1600 000/00 RMK AO2 T02560244
53988KBKB BKB20190812043011008/12/19 04:30:31  5-MIN KBKB 121030Z AUTO 00000KT 5SM BR CLR 25/24 A2993 290 97 1600 000/00 RMK AO2 T02500244
53988KBKB BKB20190812043511008/12/19 04:35:31  5-MIN KBKB 121035Z AUTO 00000KT 5SM BR CLR 26/24 A2993 290 93 1600 000/00 RMK AO2 T02560244
53988KBKB BKB20190812044011008/12/19 04:40:31  5-MIN KBKB 121040Z AUTO 00000KT 5SM BR CLR 25/24 A2993 290 97 1600 000/00 RMK AO2 T02500244
53988KBKB BKB20190812044511008/12/19 04:45:31  5-MIN KBKB 121045Z AUTO 00000KT 4SM BR CLR 25/24 A2993 290 97 1600 000/00 RMK AO2 T02500244
53988KBKB BKB20190812045011708/12/19 04:50:31  5-MIN KBKB 121050Z AUTO 00000KT 4SM BR CLR 25/24 A2993 290 97 1600 000/00 RMK AO2 SLP159 T02500244
53988KBKB BKB20190812045507708/12/19 04:55:31  5-MIN KBKB 121055Z AUTO 00000KT 5SM BR 0 RMK AO2 T02610256
53988KBKB BKB20190812060011308/12/19 06:00:31  5-MIN KBKB 121200Z AUTO 00000KT 3SM BR FEW010 25/24 A2996 270 97 1500 000/00 RMK AO2 T02500244
53988KBKB BKB20190812060511308/12/19 06:05:31  5-MIN KBKB 121205Z AUTO 00000KT 3SM BR SCT010 25/24 A2996 270 97 1500 000/00 RMK AO2 T02500244
53988KBKB BKB20190812061011308/12/19 06:10:31  5-MIN KBKB 121210Z AUTO 00000KT 3SM BR FEW010 25/24 A2996 260 97 1500 000/00 RMK AO2 T02500244
53988KBKB BKB20190812061512008/12/19 06:15:31  5-MIN KBKB 121215Z AUTO 00000KT 4SM BR FEW005 SCT010 26/24 A2996 260 93 1600 000/00 RMK AO2 T02560244
53988KBKB BKB20190812062012008/12/19 06:20:31  5-MIN KBKB 121220Z AUTO 00000KT 4SM BR SCT005 BKN010 26/24 A2996 260 93 1600 000/00 RMK AO2 T02560244
53988KBKB BKB20190812062512008/12/19 06:25:31  5-MIN KBKB 121225Z AUTO 00000KT 5SM BR SCT005 BKN010 26/25 A2996 260 97 1600 000/00 RMK AO2 T02560250
53988KBKB BKB20190812063012008/12/19 06:30:31  5-MIN KBKB 121230Z AUTO 00000KT 5SM BR BKN005 BKN010 26/25 A2996 260 97 1600 000/00 RMK AO2 T02560250
53988KBKB BKB20190812063512008/12/19 06:35:31  5-MIN KBKB 121235Z AUTO 00000KT 5SM BR BKN006 BKN011 26/25 A2996 260 93 1600 000/00 RMK AO2 T02610250
53988KBKB BKB20190812064012008/12/19 06:40:31  5-MIN KBKB 121240Z AUTO 00000KT 5SM BR BKN006 OVC011 26/26 A2996 260 97 1600 000/00 RMK AO2 T02610256
53988KBKB BKB20190812064511308/12/19 06:45:31  5-MIN KBKB 121245Z AUTO 00000KT 5SM BR OVC006 27/26 A2996 260 93 1700 000/00 RMK AO2 T02670256
53988KBKB BKB20190812065011708/12/19 06:50:31  5-MIN KBKB 121250Z AUTO 00000KT 7SM OVC006 27/26 A2996 260 93 1700 000/00 RMK AO2 SLP172 T02670256
53988KBKB BKB20190812065014108/12/19 06:50:31  5-MIN KBKB 121250Z AUTO 00000KT 7SM OVC006 27/26 A2996 260  BKN005 BKN010 26/25 A2996 260 97 1600 000/00 RMK AO2 T02560250
53988KBKB BKB20190812065511008/12/19 06:55:31  5-MIN KBKB 121255Z AUTO 00000KT 8SM OVC006 27/26 A2996 260 93 1700 000/00 RMK AO2 T02670256
53988KBKB BKB20190812070011108/12/19 07:00:31  5-MIN KBKB 121300Z AUTO 00000KT 10SM OVC006 27/26 A2996 260 93 1700 000/00 RMK AO2 T02670256
53988KBKB BKB20190812070511108/12/19 07:05:31  5-MIN KBKB 121305Z AUTO 00000KT 10SM OVC006 27/26 A2996 260 90 1800 000/00 RMK AO2 T02720256
53988KBKB BKB20190812071011108/12/19 07:10:31  5-MIN KBKB 121310Z AUTO 00000KT 10SM OVC006 27/26 A2996 260 90 1800 000/00 RMK AO2 T02720256
53988KBKB BKB20190812071511108/12/19 07:15:31  5-MIN KBKB 121315Z AUTO 00000KT 10SM OVC006 27/26 A2997 260 93 1800 000/00 RMK AO2 T02720261
53988KBKB BKB20190812072011108/12/19 07:20:31  5-MIN KBKB 121320Z AUTO 00000KT 10SM OVC006 27/26 A2997 250 90 1800 000/00 RMK AO2 T02720256
53988KBKB BKB20190812072511808/12/19 07:25:31  5-MIN KBKB 121325Z AUTO VRB03KT 10SM BKN006 OVC010 28/26 A2997 250 90 1800 VRB/03 RMK AO2 T02780261
53988KBKB BKB20190812073012308/12/19 07:30:31  5-MIN KBKB 121330Z AUTO VRB03KT 10SM OVC006 28/26 A2997 250 90 1800 VRB/03 RMK AO2 CIG 006V011 T02780261
53988KBKB BKB20190812073512308/12/19 07:35:31  5-MIN KBKB 121335Z AUTO 00000KT 10SM BKN006 28/26 A2997 250 87 1900 000/00 RMK AO2 CIG 006V011 T02830261
53988KBKB BKB20190812074012308/12/19 07:40:31  5-MIN KBKB 121340Z AUTO VRB03KT 10SM BKN008 28/26 A2997 250 87 1900 VRB/03 RMK AO2 CIG 006V012 T02830261
53988KBKB BKB20190812074512308/12/19 07:45:31  5-MIN KBKB 121345Z AUTO 00000KT 10SM BKN008 28/26 A2997 250 85 1900 000/00 RMK AO2 CIG 006V012 T02830256
53988KBKB BKB20190812075013008/12/19 07:50:31  5-MIN KBKB 121350Z AUTO VRB03KT 10SM OVC008 28/26 A2998 250 85 1900 VRB/03 RMK AO2 CIG 007V012 SLP176 T02830256
53988KBKB BKB20190812075512308/12/19 07:55:31  5-MIN KBKB 121355Z AUTO VRB04KT 10SM OVC010 28/26 A2998 250 85 1900 VRB/04 RMK AO2 CIG 007V014 T02830256
53988KBKB BKB20190812080011108/12/19 08:00:31  5-MIN KBKB 121400Z AUTO 00000KT 10SM OVC010 28/26 A2998 240 85 1900 000/00 RMK AO2 T02830256
53988KBKB BKB20190812080511108/12/19 08:05:31  5-MIN KBKB 121405Z AUTO 00000KT 10SM OVC011 29/26 A2998 240 79 2000 000/00 RMK AO2 T02940256
53988KBKB BKB20190812081011108/12/19 08:10:31  5-MIN KBKB 121410Z AUTO VRB04KT 10SM OVC011 29/26 A2998 250 82 2000 VRB/04 RMK AO2 T02940261
53988KBKB BKB20190812081511108/12/19 08:15:31  5-MIN KBKB 121415Z AUTO VRB03KT 10SM OVC011 29/26 A2998 250 79 2000 VRB/03 RMK AO2 T02940256
53988KBKB BKB20190812082011108/12/19 08:20:31  5-MIN KBKB 121420Z AUTO 00000KT 10SM OVC013 30/26 A2998 240 77 2100 000/00 RMK AO2 T03000256
53988KBKB BKB20190812082511108/12/19 08:25:31  5-MIN KBKB 121425Z AUTO VRB04KT 10SM BKN013 29/26 A2998 240 79 2000 VRB/04 RMK AO2 T02940256
53988KBKB BKB20190812083011108/12/19 08:30:31  5-MIN KBKB 121430Z AUTO VRB04KT 10SM BKN013 31/26 A2998 240 74 2100 VRB/04 RMK AO2 T03060256
53988KBKB BKB20190812083511108/12/19 08:35:31  5-MIN KBKB 121435Z AUTO VRB05KT 10SM BKN015 31/26 A2998 240 72 2200 VRB/05 RMK AO2 T03110256
53988KBKB BKB20190812084011808/12/19 08:40:31  5-MIN KBKB 121440Z AUTO 00000KT 10SM BKN015 BKN021 31/26 A2998 240 74 2100 000/00 RMK AO2 T03060256
53988KBKB BKB20190812084511808/12/19 08:45:31  5-MIN KBKB 121445Z AUTO VRB04KT 10SM BKN015 BKN021 29/25 A2998 240 76 2000 VRB/04 RMK AO2 T02940250
53988KBKB BKB20190812085013108/12/19 08:50:31  5-MIN KBKB 121450Z AUTO VRB04KT 10SM SCT015 BKN022 31/25 A2998 240 72 2100 VRB/04 RMK AO2 SLP177 T03060250 53010
53988KBKB BKB20190812085511808/12/19 08:55:31  5-MIN KBKB 121455Z AUTO 00000KT 10SM SCT018 BKN025 31/25 A2998 240 72 2100 000/00 RMK AO2 T03060250
53988KBKB BKB20190812090011808/12/19 09:00:31  5-MIN KBKB 121500Z AUTO 00000KT 10SM FEW016 BKN023 31/25 A2998 240 69 2200 000/00 RMK AO2 T03110250
53988KBKB BKB20190812090512508/12/19 09:05:31  5-MIN KBKB 121505Z AUTO VRB04KT 10SM FEW016 BKN023 BKN028 31/25 A2998 240 72 2100 VRB/04 RMK AO2 T03060250
53988KBKB BKB20190812091011108/12/19 09:10:31  5-MIN KBKB 121510Z AUTO VRB05KT 10SM BKN022 30/24 A2998 240 72 2100 VRB/05 RMK AO2 T03000244
53988KBKB BKB20190812091511108/12/19 09:15:31  5-MIN KBKB 121515Z AUTO 00000KT 10SM BKN022 31/24 A2998 240 69 2100 000/00 RMK AO2 T03060244
53988KBKB BKB20190812092011108/12/19 09:20:31  5-MIN KBKB 121520Z AUTO 00000KT 10SM BKN022 32/25 A2998 240 67 2200 000/00 RMK AO2 T03170250
53988KBKB BKB20190812092511108/12/19 09:25:31  5-MIN KBKB 121525Z AUTO VRB04KT 10SM BKN022 32/25 A2998 240 67 2200 VRB/04 RMK AO2 T03170250
53988KBKB BKB20190812093011108/12/19 09:30:31  5-MIN KBKB 121530Z AUTO 00000KT 10SM BKN022 31/25 A2998 240 72 2100 000/00 RMK AO2 T03060250
53988KBKB BKB20190812093511108/12/19 09:35:31  5-MIN KBKB 121535Z AUTO VRB03KT 10SM SCT022 32/24 A2998 240 65 2200 VRB/03 RMK AO2 T03170244
53988KBKB BKB20190812094011108/12/19 09:40:31  5-MIN KBKB 121540Z AUTO 00000KT 10SM FEW022 33/25 A2998 240 63 2400 000/00 RMK AO2 T03280250
53988KBKB BKB20190812094511108/12/19 09:45:31  5-MIN KBKB 121545Z AUTO VRB03KT 10SM FEW022 32/24 A2998 250 65 2200 VRB/03 RMK AO2 T03170244
53988KBKB BKB20190812095011808/12/19 09:50:31  5-MIN KBKB 121550Z AUTO 00000KT 10SM FEW022 32/24 A2998 250 65 2200 000/00 RMK AO2 SLP175 T03170244
53988KBKB BKB20190812095511108/12/19 09:55:31  5-MIN KBKB 121555Z AUTO VRB04KT 10SM FEW024 32/24 A2998 250 63 2300 VRB/04 RMK AO2 T03220244
53988KBKB BKB20190812100011108/12/19 10:00:31  5-MIN KBKB 121600Z AUTO 24006KT 10SM FEW027 32/24 A2998 250 63 2300 240/06 RMK AO2 T03220244
53988KBKB BKB20190812100511108/12/19 10:05:31  5-MIN KBKB 121605Z AUTO VRB04KT 10SM FEW027 32/24 A2997 250 63 2300 VRB/04 RMK AO2 T03220244
53988KBKB BKB20190812101011108/12/19 10:10:31  5-MIN KBKB 121610Z AUTO VRB03KT 10SM FEW027 32/24 A2997 250 63 2300 VRB/03 RMK AO2 T03220244
53988KBKB BKB20190812101511108/12/19 10:15:31  5-MIN KBKB 121615Z AUTO VRB04KT 10SM FEW027 32/24 A2997 250 61 2300 VRB/04 RMK AO2 T03220239
53988KBKB BKB20190812102011108/12/19 10:20:31  5-MIN KBKB 121620Z AUTO 00000KT 10SM FEW027 32/24 A2997 250 63 2300 000/00 RMK AO2 T03170239
53988KBKB BKB20190812102511108/12/19 10:25:31  5-MIN KBKB 121625Z AUTO 00000KT 10SM FEW029 32/24 A2997 250 65 2300 000/00 RMK AO2 T03170244
53988KBKB BKB20190812103010808/12/19 10:30:31  5-MIN KBKB 121630Z AUTO VRB03KT 10SM CLR 33/24 A2997 250 59 2400 VRB/03 RMK AO2 T03280239
53988KBKB BKB20190812103510808/12/19 10:35:31  5-MIN KBKB 121635Z AUTO VRB04KT 10SM CLR 33/23 A2997 250 57 2400 VRB/04 RMK AO2 T03280233
53988KBKB BKB20190812104010808/12/19 10:40:31  5-MIN KBKB 121640Z AUTO VRB04KT 10SM CLR 33/23 A2997 250 53 2400 VRB/04 RMK AO2 T03330228
53988KBKB BKB20190812104510808/12/19 10:45:31  5-MIN KBKB 121645Z AUTO VRB04KT 10SM CLR 33/22 A2997 250 51 2400 VRB/04 RMK AO2 T03280217
53988KBKB BKB20190812105011508/12/19 10:50:31  5-MIN KBKB 121650Z AUTO VRB04KT 10SM CLR 33/22 A2997 250 50 2400 VRB/04 RMK AO2 SLP172 T03330217
53988KBKB BKB20190812105510808/12/19 10:55:31  5-MIN KBKB 121655Z AUTO VRB04KT 10SM CLR 33/23 A2997 250 53 2400 VRB/04 RMK AO2 T03330228
53988KBKB BKB20190812110011108/12/19 11:00:31  5-MIN KBKB 121700Z AUTO VRB05KT 10SM FEW038 33/23 A2997 250 55 2400 VRB/05 RMK AO2 T03330233
53988KBKB BKB20190812110511108/12/19 11:05:31  5-MIN KBKB 121705Z AUTO 00000KT 10SM FEW038 33/23 A2997 250 55 2400 000/00 RMK AO2 T03330233
53988KBKB BKB20190812111011108/12/19 11:10:31  5-MIN KBKB 121710Z AUTO VRB03KT 10SM FEW038 34/23 A2996 260 53 2500 VRB/03 RMK AO2 T03390233
53988KBKB BKB20190812111511108/12/19 11:15:31  5-MIN KBKB 121715Z AUTO VRB04KT 10SM FEW038 34/23 A2996 260 53 2500 VRB/04 RMK AO2 T03390233
53988KBKB BKB20190812112011108/12/19 11:20:31  5-MIN KBKB 121720Z AUTO VRB04KT 10SM FEW038 33/23 A2996 260 55 2400 VRB/04 RMK AO2 T03330233
53988KBKB BKB20190812112511108/12/19 11:25:31  5-MIN KBKB 121725Z AUTO VRB03KT 10SM FEW038 33/23 A2996 260 53 2400 VRB/03 RMK AO2 T03330228
53988KBKB BKB20190812113010808/12/19 11:30:31  5-MIN KBKB 121730Z AUTO VRB05KT 10SM CLR 33/22 A2996 260 51 2400 VRB/05 RMK AO2 T03330222
53988KBKB BKB20190812113510808/12/19 11:35:31  5-MIN KBKB 121735Z AUTO VRB05KT 10SM CLR 34/23 A2996 260 51 2500 VRB/05 RMK AO2 T03390228
53988KBKB BKB20190812114010808/12/19 11:40:31  5-MIN KBKB 121740Z AUTO VRB04KT 10SM CLR 34/23 A2996 260 51 2500 VRB/04 RMK AO2 T03390228
53988KBKB BKB20190812114510808/12/19 11:45:31  5-MIN KBKB 121745Z AUTO VRB03KT 10SM CLR 34/23 A2996 260 52 2600 VRB/03 RMK AO2 T03440233
53988KBKB BKB20190812115013608/12/19 11:50:31  5-MIN KBKB 121750Z AUTO VRB03KT 10SM FEW042 34/23 A2995 270 51 2500 VRB/03 RMK AO2 SLP167 T03390228 10344 20250 51010
53988KBKB BKB20190812115511108/12/19 11:55:31  5-MIN KBKB 121755Z AUTO VRB03KT 10SM SCT042 34/23 A2995 270 52 2600 VRB/03 RMK AO2 T03440233
53988KBKB BKB20190812120011108/12/19 12:00:31  5-MIN KBKB 121800Z AUTO 00000KT 10SM BKN042 33/23 A2995 270 55 2500 000/00 RMK AO2 T03330233
53988KBKB BKB20190812120511108/12/19 12:05:31  5-MIN KBKB 121805Z AUTO VRB03KT 10SM BKN042 33/23 A2995 270 53 2500 VRB/03 RMK AO2 T03330228
53988KBKB BKB20190812121011108/12/19 12:10:31  5-MIN KBKB 121810Z AUTO 00000KT 10SM BKN042 33/23 A2995 270 57 2400 000/00 RMK AO2 T03280233
53988KBKB BKB20190812121511108/12/19 12:15:31  5-MIN KBKB 121815Z AUTO 00000KT 10SM BKN042 34/23 A2995 280 53 2500 000/00 RMK AO2 T03390233
53988KBKB BKB20190812122011108/12/19 12:20:31  5-MIN KBKB 121820Z AUTO 27003KT 10SM BKN043 33/24 A2995 280 57 2500 260/03 RMK AO2 T03330239
53988KBKB BKB20190812122511108/12/19 12:25:31  5-MIN KBKB 121825Z AUTO 00000KT 10SM BKN043 34/23 A2994 280 53 2500 000/00 RMK AO2 T03390233
53988KBKB BKB20190812123011108/12/19 12:30:31  5-MIN KBKB 121830Z AUTO VRB04KT 10SM BKN043 35/23 A2994 280 50 2600 VRB/04 RMK AO2 T03500233
53988KBKB BKB20190812123511108/12/19 12:35:31  5-MIN KBKB 121835Z AUTO 00000KT 10SM SCT045 35/23 A2994 280 48 2700 000/00 RMK AO2 T03500228
53988KBKB BKB20190812124011108/12/19 12:40:31  5-MIN KBKB 121840Z AUTO 00000KT 10SM SCT045 35/23 A2994 280 50 2700 000/00 RMK AO2 T03500233
53988KBKB BKB20190812124510108/12/19 12:45:31  5-MIN KBKB 121845Z AUTO 10SM FEW042 35/23 A2994 280 48 2700 M /M RMK AO2 T03500228
53988KBKB BKB20190812125011808/12/19 12:50:31  5-MIN KBKB 121850Z AUTO VRB03KT 10SM FEW046 35/23 A2994 280 50 2700 VRB/03 RMK AO2 SLP162 T03500233
53988KBKB BKB20190812125510808/12/19 12:55:31  5-MIN KBKB 121855Z AUTO 00000KT 10SM CLR 35/23 A2994 280 50 2700 000/00 RMK AO2 T03500233
53988KBKB BKB20190812130011108/12/19 13:00:31  5-MIN KBKB 121900Z AUTO VRB03KT 10SM FEW049 34/23 A2993 290 50 2600 VRB/03 RMK AO2 T03440228
53988KBKB BKB20190812130511108/12/19 13:05:31  5-MIN KBKB 121905Z AUTO VRB03KT 10SM FEW049 36/23 A2993 290 47 2700 VRB/03 RMK AO2 T03560228
53988KBKB BKB20190812131011108/12/19 13:10:31  5-MIN KBKB 121910Z AUTO VRB04KT 10SM FEW049 36/23 A2993 290 47 2700 VRB/04 RMK AO2 T03560228
53988KBKB BKB20190812131517708/12/19 13:15:31  5-MIN KBKB 121915Z AUTO 00000KT 10SM FEW049 34/22 A2993 290 48 2600 000/00 RMK AO2 T0344022208/12/19SM SCT055 35/22 A2990 320 47 2700 VRB/03 RMK AO2 T03500222
53988KBKB BKB20190812142011108/12/19 14:20:31  5-MIN KBKB 122020Z AUTO 00000KT 10SM SCT050 34/22 A2990 310 48 2600 000/00 RMK AO2 T03440222
53988KBKB BKB20190812142511108/12/19 14:25:31  5-MIN KBKB 122025Z AUTO VRB03KT 10SM SCT055 35/22 A2990 320 47 2700 VRB/03 RMK AO2 T03500222
53988KBKB BKB20190812143011108/12/19 14:30:31  5-MIN KBKB 122030Z AUTO VRB03KT 10SM BKN050 36/22 A2990 320 45 2800 VRB/03 RMK AO2 T03560222
53988KBKB BKB20190812143511108/12/19 14:35:31  5-MIN KBKB 122035Z AUTO 00000KT 10SM BKN055 35/22 A2989 320 45 2700 000/00 RMK AO2 T03500217
53988KBKB BKB20190812143515908/12/19 14:35:31  5-MIN KBKB 122035Z AUTO 00000KT 10SM BKN055 35/22 A2989 320 45 2700 000/00 RMK AO2 T0350021708/23 A2991 310 53 2500 000/00 RMK AO2 T03330228
53988KBKB BKB20190812144011108/12/19 14:40:31  5-MIN KBKB 122040Z AUTO VRB04KT 10SM SCT050 34/22 A2989 330 48 2600 VRB/04 RMK AO2 T03440222
53988KBKB BKB20190812144511108/12/19 14:45:31  5-MIN KBKB 122045Z AUTO VRB03KT 10SM SCT055 35/22 A2989 330 47 2700 VRB/03 RMK AO2 T03500222
53988KBKB BKB20190812144515908/12/19 14:45:31  5-MIN KBKB 122045Z AUTO VRB03KT 10SM SCT055 35/22 A2989 330 47 2700 VRB/03 RMK AO2 T0350022208/22 A2990 320 47 2700 VRB/03 RMK AO2 T03500222
53988KBKB BKB20190812145012408/12/19 14:50:31  5-MIN KBKB 122050Z AUTO VRB04KT 10SM FEW055 36/22 A2988 330 45 2800 VRB/04 RMK AO2 SLP144 T03560222 58011
53988KBKB BKB20190812145511108/12/19 14:55:31  5-MIN KBKB 122055Z AUTO VRB04KT 10SM FEW055 36/22 A2988 330 44 2800 VRB/04 RMK AO2 T03560217
53988KBKB BKB20190812145514708/12/19 14:55:31  5-MIN KBKB 122055Z AUTO VRB04KT 10SM FEW055 36/22 A2988 330 44 2800 VRB/04 RMK AO2 T03560217320 45 2700 000/00 RMK AO2 T03500217
53988KBKB BKB20190812150010808/12/19 15:00:31  5-MIN KBKB 122100Z AUTO VRB03KT 10SM CLR 35/21 A2988 330 43 2700 VRB/03 RMK AO2 T03500211
53988KBKB BKB20190812150510808/12/19 15:05:31  5-MIN KBKB 122105Z AUTO VRB03KT 10SM CLR 34/22 A2988 340 50 2600 VRB/03 RMK AO2 T03390222
53988KBKB BKB20190812151010808/12/19 15:10:31  5-MIN KBKB 122110Z AUTO VRB03KT 10SM CLR 36/22 A2988 340 45 2800 VRB/03 RMK AO2 T03560222
53988KBKB BKB20190812151510808/12/19 15:15:31  5-MIN KBKB 122115Z AUTO 00000KT 10SM CLR 36/22 A2988 340 45 2800 000/00 RMK AO2 T03560222
53988KBKB BKB20190812152011108/12/19 15:20:31  5-MIN KBKB 122120Z AUTO VRB03KT 10SM FEW055 36/22 A2988 340 45 2800 VRB/03 RMK AO2 T03560222
53988KBKB BKB20190812152511108/12/19 15:25:31  5-MIN KBKB 122125Z AUTO VRB04KT 10SM FEW055 36/22 A2987 340 45 2800 VRB/04 RMK AO2 T03560222
53988KBKB BKB20190812153011108/12/19 15:30:31  5-MIN KBKB 122130Z AUTO VRB05KT 10SM FEW055 36/22 A2987 340 45 2800 VRB/05 RMK AO2 T03560222
53988KBKB BKB20190812153511108/12/19 15:35:31  5-MIN KBKB 122135Z AUTO VRB03KT 10SM FEW055 35/22 A2987 340 47 2700 VRB/03 RMK AO2 T03500222
53988KBKB BKB20190812154011108/12/19 15:40:31  5-MIN KBKB 122140Z AUTO VRB03KT 10SM FEW055 36/23 A2987 340 47 2800 VRB/03 RMK AO2 T03560228
53988KBKB BKB20190812154511108/12/19 15:45:31  5-MIN KBKB 122145Z AUTO VRB03KT 10SM FEW055 36/23 A2987 340 47 2800 VRB/03 RMK AO2 T03560228
53988KBKB BKB20190812155011508/12/19 15:50:31  5-MIN KBKB 122150Z AUTO 16003KT 10SM CLR 35/22 A2987 340 47 2700 150/03 RMK AO2 SLP140 T03500222
53988KBKB BKB20190812155510808/12/19 15:55:31  5-MIN KBKB 122155Z AUTO 00000KT 10SM CLR 35/22 A2987 340 47 2700 000/00 RMK AO2 T03500222
53988KBKB BKB20190812160010808/12/19 16:00:31  5-MIN KBKB 122200Z AUTO 00000KT 10SM CLR 36/22 A2987 340 45 2800 000/00 RMK AO2 T03560222
53988KBKB BKB20190812160510808/12/19 16:05:31  5-MIN KBKB 122205Z AUTO 00000KT 10SM CLR 34/23 A2987 350 51 2600 000/00 RMK AO2 T03390228
53988KBKB BKB20190812161010808/12/19 16:10:31  5-MIN KBKB 122210Z AUTO 00000KT 10SM CLR 35/23 A2987 350 48 2700 000/00 RMK AO2 T03500228
53988KBKB BKB20190812161511108/12/19 16:15:31  5-MIN KBKB 122215Z AUTO 00000KT 10SM FEW050 36/23 A2987 350 47 2800 000/00 RMK AO2 T03560228
53988KBKB BKB20190812162011108/12/19 16:20:31  5-MIN KBKB 122220Z AUTO VRB04KT 10SM FEW050 35/23 A2987 350 48 2700 VRB/04 RMK AO2 T03500228
53988KBKB BKB20190812162513808/12/19 16:25:31  5-MIN KBKB 122225Z AUTO 23004KT 1IN KBKB 122355Z AUTO 00000KT 10SM CLR 32/24 A2986 350 61 2400 000/00 RMK AO2 T03220239
53988KBKB BKB20190812170011108/12/19 17:00:31  5-MIN KBKB 122300Z AUTO 15004KT 10SM SCT049 34/23 A2986 350 52 2700 150/04 RMK AO2 T03440233
53988KBKB BKB20190812170511108/12/19 17:05:31  5-MIN KBKB 122305Z AUTO 00000KT 10SM FEW049 34/23 A2986 350 52 2700 000/00 RMK AO2 T03440233
53988KBKB BKB20190812171011108/12/19 17:10:31  5-MIN KBKB 122310Z AUTO 21003KT 10SM FEW050 34/23 A2986 350 50 2700 200/03 RMK AO2 T03440228
53988KBKB BKB20190812171511108/12/19 17:15:31  5-MIN KBKB 122315Z AUTO 00000KT 10SM FEW050 34/23 A2986 350 50 2700 000/00 RMK AO2 T03440228
53988KBKB BKB20190812172011108/12/19 17:20:31  5-MIN KBKB 122320Z AUTO 22003KT 10SM FEW050 34/23 A2986 350 51 2600 210/03 RMK AO2 T03390228
53988KBKB BKB20190812172510808/12/19 17:25:31  5-MIN KBKB 122325Z AUTO 00000KT 10SM CLR 34/23 A2986 350 51 2600 000/00 RMK AO2 T03390228
53988KBKB BKB20190812173010808/12/19 17:30:31  5-MIN KBKB 122330Z AUTO 00000KT 10SM CLR 33/23 A2986 350 53 2600 000/00 RMK AO2 T03330228
53988KBKB BKB20190812173510808/12/19 17:35:31  5-MIN KBKB 122335Z AUTO 00000KT 10SM CLR 33/23 A2986 350 55 2600 000/00 RMK AO2 T03330233
53988KBKB BKB20190812174010808/12/19 17:40:31  5-MIN KBKB 122340Z AUTO 00000KT 10SM CLR 33/23 A2986 350 55 2600 000/00 RMK AO2 T03330233
53988KBKB BKB20190812174510808/12/19 17:45:31  5-MIN KBKB 122345Z AUTO 00000KT 10SM CLR 33/24 A2986 350 59 2500 000/00 RMK AO2 T03280239
53988KBKB BKB20190812175013308/12/19 17:50:31  5-MIN KBKB 122350Z AUTO 00000KT 10SM CLR 33/24 A2986 350 59 2500 000/00 RMK AO2 SLP136 T03280239 10361 20328 58022
53988KBKB BKB20190812175510808/12/19 17:55:31  5-MIN KBKB 122355Z AUTO 00000KT 10SM CLR 32/24 A2986 350 61 2400 000/00 RMK AO2 T03220239
53988KBKB BKB20190812180010808/12/19 18:00:31  5-MIN KBKB 130000Z AUTO 00000KT 10SM CLR 32/24 A2986 350 61 2400 000/00 RMK AO2 T03220239
53988KBKB BKB20190812180510808/12/19 18:05:31  5-MIN KBKB 130005Z AUTO 00000KT 10SM CLR 32/24 A2986 350 61 2400 000/00 RMK AO2 T03220239
53988KBKB BKB20190812181010808/12/19 18:10:31  5-MIN KBKB 130010Z AUTO 00000KT 10SM CLR 32/24 A2986 360 63 2400 000/00 RMK AO2 T03170239
53988KBKB BKB20190812181510808/12/19 18:15:31  5-MIN KBKB 130015Z AUTO 00000KT 10SM CLR 32/24 A2986 360 65 2400 000/00 RMK AO2 T03170244
53988KBKB BKB20190812182010808/12/19 18:20:31  5-MIN KBKB 130020Z AUTO 00000KT 10SM CLR 31/24 A2986 350 67 2300 000/00 RMK AO2 T03110244
53988KBKB BKB20190812182510808/12/19 18:25:31  5-MIN KBKB 130025Z AUTO 00000KT 10SM CLR 31/24 A2986 350 69 2300 000/00 RMK AO2 T03060244
53988KBKB BKB20190812183010808/12/19 18:30:31  5-MIN KBKB 130030Z AUTO 00000KT 10SM CLR 31/24 A2986 350 69 2300 000/00 RMK AO2 T03060244
53988KBKB BKB20190812183510808/12/19 18:35:31  5-MIN KBKB 130035Z AUTO 00000KT 10SM CLR 31/24 A2986 350 69 2300 000/00 RMK AO2 T03060244
53988KBKB BKB20190812184010808/12/19 18:40:31  5-MIN KBKB 130040Z AUTO 00000KT 10SM CLR 30/24 A2986 350 72 2200 000/00 RMK AO2 T03000244
53988KBKB BKB20190812184510808/12/19 18:45:31  5-MIN KBKB 130045Z AUTO 00000KT 10SM CLR 29/24 A2987 350 74 2100 000/00 RMK AO2 T02940244
53988KBKB BKB20190812185011508/12/19 18:50:31  5-MIN KBKB 130050Z AUTO 00000KT 10SM CLR 29/24 A2986 350 74 2100 000/00 RMK AO2 SLP138 T02940244
53988KBKB BKB20190812185510808/12/19 18:55:31  5-MIN KBKB 130055Z AUTO 00000KT 10SM CLR 29/24 A2986 350 74 2100 000/00 RMK AO2 T02940244
53988KBKB BKB20190812190010808/12/19 19:00:31  5-MIN KBKB 130100Z AUTO 00000KT 10SM CLR 29/24 A2986 350 76 2100 000/00 RMK AO2 T02890244
53988KBKB BKB20190812190510808/12/19 19:05:31  5-MIN KBKB 130105Z AUTO 00000KT 10SM CLR 29/24 A2986 350 76 2100 000/00 RMK AO2 T02890244
53988KBKB BKB20190812191010808/12/19 19:10:31  5-MIN KBKB 130110Z AUTO 00000KT 10SM CLR 29/24 A2986 350 76 2100 000/00 RMK AO2 T02890244
53988KBKB BKB20190812191510808/12/19 19:15:31  5-MIN KBKB 130115Z AUTO 00000KT 10SM CLR 28/24 A2986 350 79 2000 000/00 RMK AO2 T02830244
53988KBKB BKB20190812192010808/12/19 19:20:31  5-MIN KBKB 130120Z AUTO 00000KT 10SM CLR 29/24 A2986 350 76 2100 000/00 RMK AO2 T02890244
53988KBKB BKB20190812192510808/12/19 19:25:31  5-MIN KBKB 130125Z AUTO 00000KT 10SM CLR 28/24 A2986 350 79 2000 000/00 RMK AO2 T02830244
53988KBKB BKB20190812193010808/12/19 19:30:31  5-MIN KBKB 130130Z AUTO 00000KT 10SM CLR 28/24 A2986 350 79 2000 000/00 RMK AO2 T02830244
53988KBKB BKB20190812193510808/12/19 19:35:31  5-MIN KBKB 130135Z AUTO 00000KT 10SM CLR 28/24 A2986 350 79 2000 000/00 RMK AO2 T02830244
53988KBKB BKB20190812194010808/12/19 19:40:31  5-MIN KBKB 130140Z AUTO 00000KT 10SM CLR 28/24 A2987 350 82 1900 000/00 RMK AO2 T02780244
53988KBKB BKB20190812194510808/12/19 19:45:31  5-MIN KBKB 130145Z AUTO 00000KT 10SM CLR 28/24 A2987 340 82 1900 000/00 RMK AO2 T02780244
53988KBKB BKB20190812195011508/12/19 19:50:31  5-MIN KBKB 130150Z AUTO 00000KT 10SM CLR 28/24 A2987 340 82 1900 000/00 RMK AO2 SLP140 T02780244
53988KBKB BKB20190812195510808/12/19 19:55:31  5-MIN KBKB 130155Z AUTO 00000KT 10SM CLR 28/24 A2987 340 82 1900 000/00 RMK AO2 T02780244
53988KBKB BKB20190812200010808/12/19 20:00:31  5-MIN KBKB 130200Z AUTO 00000KT 10SM CLR 28/24 A2987 340 82 1900 000/00 RMK AO2 T02780244
53988KBKB BKB20190812200510808/12/19 20:05:31  5-MIN KBKB 130205Z AUTO 00000KT 10SM CLR 28/24 A2987 340 82 1900 000/00 RMK AO2 T02780244
53988KBKB BKB20190812201010808/12/19 20:10:31  5-MIN KBKB 130210Z AUTO 00000KT 10SM CLR 28/24 A2987 340 82 1900 000/00 RMK AO2 T02780244
53988KBKB BKB20190812201510808/12/19 20:15:31  5-MIN KBKB 130215Z AUTO 00000KT 10SM CLR 28/24 A2988 340 82 1900 000/00 RMK AO2 T02780244
53988KBKB BKB20190812202010808/12/19 20:20:31  5-MIN KBKB 130220Z AUTO 00000KT 10SM CLR 28/24 A2988 340 82 1900 000/00 RMK AO2 T02780244
53988KBKB BKB20190812202510808/12/19 20:25:31  5-MIN KBKB 130225Z AUTO 00000KT 10SM CLR 28/24 A2988 340 79 2000 000/00 RMK AO2 T02830244
53988KBKB BKB20190812203010808/12/19 20:30:31  5-MIN KBKB 130230Z AUTO 00000KT 10SM CLR 28/24 A2988 340 79 2000 000/00 RMK AO2 T02830244
53988KBKB BKB20190812203510808/12/19 20:35:31  5-MIN KBKB 130235Z AUTO 00000KT 10SM CLR 28/24 A2988 340 79 2000 000/00 RMK AO2 T02830244
53988KBKB BKB20190812204010808/12/19 20:40:31  5-MIN KBKB 130240Z AUTO 00000KT 10SM CLR 28/24 A2988 340 82 1900 000/00 RMK AO2 T02780244
53988KBKB BKB20190812204510808/12/19 20:45:31  5-MIN KBKB 130245Z AUTO 00000KT 10SM CLR 28/24 A2988 340 82 1900 000/00 RMK AO2 T02780244
53988KBKB BKB20190812205012108/12/19 20:50:31  5-MIN KBKB 130250Z AUTO 00000KT 10SM CLR 28/24 A2988 330 82 1900 000/00 RMK AO2 SLP142 T02780244 56007
53988KBKB BKB20190812205510808/12/19 20:55:31  5-MIN KBKB 130255Z AUTO 00000KT 10SM CLR 28/24 A2988 330 82 1900 000/00 RMK AO2 T02780244
53988KBKB BKB20190812210010808/12/19 21:00:31  5-MIN KBKB 130300Z AUTO 00000KT 10SM CLR 28/24 A2988 330 82 1900 000/00 RMK AO2 T02780244
53988KBKB BKB20190812210510808/12/19 21:05:31  5-MIN KBKB 130305Z AUTO 00000KT 10SM CLR 28/24 A2988 330 82 1900 000/00 RMK AO2 T02780244
53988KBKB BKB20190812211010808/12/19 21:10:31  5-MIN KBKB 130310Z AUTO 00000KT 10SM CLR 28/24 A2988 340 82 1900 000/00 RMK AO2 T02780244
53988KBKB BKB20190812211510808/12/19 21:15:31  5-MIN KBKB 130315Z AUTO 00000KT 10SM CLR 27/25 A2988 330 87 1900 000/00 RMK AO2 T02720250
53988KBKB BKB20190812212010808/12/19 21:20:31  5-MIN KBKB 130320Z AUTO 00000KT 10SM CLR 27/25 A2989 330 87 1900 000/00 RMK AO2 T02720250
53988KBKB BKB20190812212510808/12/19 21:25:31  5-MIN KBKB 130325Z AUTO 00000KT 10SM CLR 27/25 A2989 330 87 1900 000/00 RMK AO2 T02720250
53988KBKB BKB20190812213010808/12/19 21:30:31  5-MIN KBKB 130330Z AUTO 00000KT 10SM CLR 27/25 A2989 330 87 1900 000/00 RMK AO2 T02720250
53988KBKB BKB20190812213510808/12/19 21:35:31  5-MIN KBKB 130335Z AUTO 00000KT 10SM CLR 27/25 A2989 330 87 1900 000/00 RMK AO2 T02720250
53988KBKB BKB20190812214010808/12/19 21:40:31  5-MIN KBKB 130340Z AUTO 00000KT 10SM CLR 27/25 A2989 330 87 1900 000/00 RMK AO2 T02720250
53988KBKB BKB20190812214510808/12/19 21:45:31  5-MIN KBKB 130345Z AUTO 00000KT 10SM CLR 27/25 A2989 330 87 1900 000/00 RMK AO2 T02720250
53988KBKB BKB20190812215011508/12/19 21:50:31  5-MIN KBKB 130350Z AUTO 00000KT 10SM CLR 27/25 A2989 330 87 1900 000/00 RMK AO2 SLP145 T02720250
53988KBKB BKB20190812215510808/12/19 21:55:31  5-MIN KBKB 130355Z AUTO 00000KT 10SM CLR 27/25 A2989 330 87 1900 000/00 RMK AO2 T02720250
53988KBKB BKB20190812220010808/12/19 22:00:31  5-MIN KBKB 130400Z AUTO 00000KT 10SM CLR 27/25 A2989 330 87 1800 000/00 RMK AO2 T02720250
53988KBKB BKB20190812220510808/12/19 22:05:31  5-MIN KBKB 130405Z AUTO 00000KT 10SM CLR 27/25 A2989 330 87 1800 000/00 RMK AO2 T02720250
53988KBKB BKB20190812221010808/12/19 22:10:31  5-MIN KBKB 130410Z AUTO 00000KT 10SM CLR 27/25 A2989 330 87 1800 000/00 RMK AO2 T02720250
53988KBKB BKB20190812221510808/12/19 22:15:31  5-MIN KBKB 130415Z AUTO 00000KT 10SM CLR 27/25 A2989 320 87 1800 000/00 RMK AO2 T02720250
53988KBKB BKB20190812222010808/12/19 22:20:31  5-MIN KBKB 130420Z AUTO 00000KT 10SM CLR 27/25 A2989 320 87 1800 000/00 RMK AO2 T02720250
53988KBKB BKB20190812222510808/12/19 22:25:31  5-MIN KBKB 130425Z AUTO 00000KT 10SM CLR 27/25 A2989 330 87 1800 000/00 RMK AO2 T02720250
53988KBKB BKB20190812223010808/12/19 22:30:31  5-MIN KBKB 130430Z AUTO 00000KT 10SM CLR 27/25 A2989 330 87 1900 000/00 RMK AO2 T02720250
53988KBKB BKB20190812223510808/12/19 22:35:31  5-MIN KBKB 130435Z AUTO 00000KT 10SM CLR 27/25 A2989 330 87 1900 000/00 RMK AO2 T02720250
53988KBKB BKB20190812224010808/12/19 22:40:31  5-MIN KBKB 130440Z AUTO 00000KT 10SM CLR 27/25 A2989 330 87 1900 000/00 RMK AO2 T02720250
53988KBKB BKB20190812224510808/12/19 22:45:31  5-MIN KBKB 130445Z AUTO 00000KT 10SM CLR 27/25 A2989 330 87 1900 000/00 RMK AO2 T02720250
53988KBKB BKB20190812225011508/12/19 22:50:31  5-MIN KBKB 130450Z AUTO 00000KT 10SM CLR 27/25 A2989 330 87 1900 000/00 RMK AO2 SLP145 T02720250
53988KBKB BKB20190812225510808/12/19 22:55:31  5-MIN KBKB 130455Z AUTO 00000KT 10SM CLR 27/25 A2989 330 87 1900 000/00 RMK AO2 T02720250
53988KBKB BKB20190812230010808/12/19 23:00:31  5-MIN KBKB 130500Z AUTO 00000KT 10SM CLR 27/25 A2989 330 87 1900 000/00 RMK AO2 T02720250
53988KBKB BKB20190812230510808/12/19 23:05:31  5-MIN KBKB 130505Z AUTO 00000KT 10SM CLR 27/24 A2989 330 84 1900 000/00 RMK AO2 T02720244
53988KBKB BKB20190812231010808/12/19 23:10:31  5-MIN KBKB 130510Z AUTO 00000KT 10SM CLR 27/24 A2989 320 84 1800 000/00 RMK AO2 T02720244
53988KBKB BKB20190812231510808/12/19 23:15:31  5-MIN KBKB 130515Z AUTO 00000KT 10SM CLR 27/24 A2989 320 84 1800 000/00 RMK AO2 T02720244
53988KBKB BKB20190812232010808/12/19 23:20:31  5-MIN KBKB 130520Z AUTO 00000KT 10SM CLR 27/24 A2990 320 84 1800 000/00 RMK AO2 T02720244
53988KBKB BKB20190812232510808/12/19 23:25:31  5-MIN KBKB 130525Z AUTO 00000KT 10SM CLR 27/24 A2990 320 84 1800 000/00 RMK AO2 T02720244
53988KBKB BKB20190812233010808/12/19 23:30:31  5-MIN KBKB 130530Z AUTO 00000KT 10SM CLR 27/24 A2990 320 87 1800 000/00 RMK AO2 T02670244
53988KBKB BKB20190812233510808/12/19 23:35:31  5-MIN KBKB 130535Z AUTO 00000KT 10SM CLR 27/24 A2990 320 87 1800 000/00 RMK AO2 T02670244
53988KBKB BKB20190812234010808/12/19 23:40:31  5-MIN KBKB 130540Z AUTO 00000KT 10SM CLR 27/24 A2990 320 87 1800 000/00 RMK AO2 T02670244
53988KBKB BKB20190812234510808/12/19 23:45:31  5-MIN KBKB 130545Z AUTO 00000KT 10SM CLR 27/24 A2990 320 87 1800 000/00 RMK AO2 T02670244
53988KBKB BKB20190812235014308/12/19 23:50:31  5-MIN KBKB 130550Z AUTO 00000KT 10SM CLR 27/24 A2990 320 87 1800 000/00 RMK AO2 SLP148 T02670244 10322 20267 403610250 53006
53988KBKB BKB20190812235510808/12/19 23:55:31  5-MIN KBKB 130555Z AUTO 00000KT 10SM CLR 27/24 A2990 320 87 1800 000/00 RMK AO2 T02670244
53988KBKB BKB20190813000010808/13/19 00:00:31  5-MIN KBKB 130600Z AUTO 00000KT 10SM CLR 26/24 A2990 320 90 1700 000/00 RMK AO2 T02610244
53988KBKB BKB20190813000510808/13/19 00:05:31  5-MIN KBKB 130605Z AUTO 00000KT 10SM CLR 26/24 A2989 320 90 1700 000/00 RMK AO2 T02610244
53988KBKB BKB20190813001010808/13/19 00:10:31  5-MIN KBKB 130610Z AUTO 00000KT 10SM CLR 26/24 A2989 320 90 1700 000/00 RMK AO2 T02610244
53988KBKB BKB20190813001510808/13/19 00:15:31  5-MIN KBKB 130615Z AUTO 00000KT 10SM CLR 26/24 A2989 320 90 1700 000/00 RMK AO2 T02610244
53988KBKB BKB20190813002010808/13/19 00:20:31  5-MIN KBKB 130620Z AUTO 00000KT 10SM CLR 26/24 A2989 320 90 1700 000/00 RMK AO2 T02610244
53988KBKB BKB20190813002514708/13/19 00:25:31  5-MIN KBKB 130625Z AUTO 00000KT 10SM CLR 26/2KBKB 130735Z AUTO 00000KT 10SM CLR 26/24 A2988 330 93 1700 000/00 RMK AO2 T02560244
53988KBKB BKB20190813014010808/13/19 01:40:31  5-MIN KBKB 130740Z AUTO 00000KT 10SM CLR 26/24 A2988 330 93 1700 000/00 RMK AO2 T02560244
53988KBKB BKB20190813014510808/13/19 01:45:31  5-MIN KBKB 130745Z AUTO 00000KT 10SM CLR 26/24 A2988 330 93 1700 000/00 RMK AO2 T02560244
53988KBKB BKB20190813015011508/13/19 01:50:31  5-MIN KBKB 130750Z AUTO 00000KT 10SM CLR 26/24 A2988 330 93 1700 000/00 RMK AO2 SLP143 T02560244
53988KBKB BKB20190813015510808/13/19 01:55:31  5-MIN KBKB 130755Z AUTO 00000KT 10SM CLR 26/24 A2988 330 93 1700 000/00 RMK AO2 T02560244
53988KBKB BKB20190813020010808/13/19 02:00:31  5-MIN KBKB 130800Z AUTO 00000KT 10SM CLR 26/24 A2988 330 93 1700 000/00 RMK AO2 T02560244
53988KBKB BKB20190813020510808/13/19 02:05:31  5-MIN KBKB 130805Z AUTO 00000KT 10SM CLR 25/24 A2988 330 97 1600 000/00 RMK AO2 T02500244
53988KBKB BKB20190813020516508/13/19 02:05:31  5-MIN KBKB 130805Z AUTO 00000KT 10SM CLR 25/24 A1:45:31  5-MIN KBKB 130745Z AUTO 00000KT 10SM CLR 26/24 A2988 330 93 1700 000/00 RMK AO2 T02560244
53988KBKB BKB20190813021010808/13/19 02:10:31  5-MIN KBKB 130810Z AUTO 00000KT 10SM CLR 25/24 A2988 330 97 1600 000/00 RMK AO2 T02500244
53988KBKB BKB20190813021506208/13/19 02:15:31  5-MIN KBKB 130815Z AUT AO2 SLP143 T02560244
53988KBKB BKB20190813021510808/13/19 02:15:31  5-MIN KBKB 130815Z AUTO 00000KT 10SM CLR 25/24 A2988 330 93 1600 000/00 RMK AO2 T02500239
53988KBKB BKB20190813022010708/13/19 02:20:31  5-MIN KBKB 130820Z AUTO 00000KT 9SM CLR 25/24 A2988 340 93 1600 000/00 RMK AO2 T02500239
53988KBKB BKB20190813022510708/13/19 02:25:31  5-MIN KBKB 130825Z AUTO 00000KT 9SM CLR 25/24 A2988 340 93 1600 000/00 RMK AO2 T02500239
53988KBKB BKB20190813023010708/13/19 02:30:31  5-MIN KBKB 130830Z AUTO 00000KT 9SM CLR 25/24 A2988 340 93 1600 000/00 RMK AO2 T02500239
53988KBKB BKB20190813023510708/13/19 02:35:31  5-MIN KBKB 130835Z AUTO 00000KT 9SM CLR 25/24 A2988 340 93 1600 000/00 RMK AO2 T02500239
53988KBKB BKB20190813024010808/13/19 02:40:31  5-MIN KBKB 130840Z AUTO 00000KT 10SM CLR 25/24 A2988 340 93 1600 000/00 RMK AO2 T02500239
53988KBKB BKB20190813024510808/13/19 02:45:31  5-MIN KBKB 130845Z AUTO 00000KT 10SM CLR 25/24 A2988 340 97 1600 000/00 RMK AO2 T02500244
53988KBKB BKB20190813025012108/13/19 02:50:31  5-MIN KBKB 130850Z AUTO 00000KT 10SM CLR 26/24 A2988 340 93 1700 000/00 RMK AO2 SLP141 T02560244 51005
53988KBKB BKB20190813025510808/13/19 02:55:31  5-MIN KBKB 130855Z AUTO 00000KT 10SM CLR 25/24 A2988 340 97 1600 000/00 RMK AO2 T02500244
53988KBKB BKB20190813030010808/13/19 03:00:31  5-MIN KBKB 130900Z AUTO 00000KT 10SM CLR 25/24 A2988 330 93 1600 000/00 RMK AO2 T02500239
53988KBKB BKB20190813030510808/13/19 03:05:31  5-MIN KBKB 130905Z AUTO 00000KT 10SM CLR 25/24 A2988 330 93 1600 000/00 RMK AO2 T02500239
53988KBKB BKB20190813031010708/13/19 03:10:31  5-MIN KBKB 130910Z AUTO 00000KT 9SM CLR 25/24 A2988 330 93 1600 000/00 RMK AO2 T02500239
53988KBKB BKB20190813031510708/13/19 03:15:31  5-MIN KBKB 130915Z AUTO 00000KT 9SM CLR 25/24 A2989 330 93 1600 000/00 RMK AO2 T02500239
53988KBKB BKB20190813032010708/13/19 03:20:31  5-MIN KBKB 130920Z AUTO 00000KT 9SM CLR 25/24 A2989 330 97 1600 000/00 RMK AO2 T02500244
53988KBKB BKB20190813032513608/13/19 03:25:31  5-MIN KBKB 130925Z AUTO 00000KT 8SM CLR 25/24 A2989 330 93 1600 000/00 RMK AO2 T0250ING COMPLETE, 144 5MIN(S) LISTED.
53988KBKB BKB20190813040010708/13/19 04:00:31  5-MIN KBKB 131000Z AUTO 00000KT 8SM CLR 25/24 A2989 330 93 1600 000/00 RMK AO2 T02500239
53988KBKB BKB20190813040510708/13/19 04:05:31  5-MIN KBKB 131005Z AUTO 00000KT 8SM CLR 25/24 A2989 330 93 1600 000/00 RMK AO2 T02500239
53988KBKB BKB20190813041010708/13/19 04:10:31  5-MIN KBKB 131010Z AUTO 00000KT 8SM CLR 25/24 A2989 330 93 1600 000/00 RMK AO2 T02500239
53988KBKB BKB20190813041510708/13/19 04:15:31  5-MIN KBKB 131015Z AUTO 00000KT 7SM CLR 24/24 A2989 320 97 1500 000/00 RMK AO2 T02440239
53988KBKB BKB20190813042010708/13/19 04:20:31  5-MIN KBKB 131020Z AUTO 00000KT 7SM CLR 24/24 A2990 320 97 1500 000/00 RMK AO2 T02440239
53988KBKB BKB20190813042510708/13/19 04:25:31  5-MIN KBKB 131025Z AUTO 00000KT 7SM CLR 24/24 A2990 320 97 1500 000/00 RMK AO2 T02440239
53988KBKB BKB20190813043010708/13/19 04:30:31  5-MIN KBKB 131030Z AUTO 00000KT 7SM CLR 24/24 A2990 320 97 1500 000/00 RMK AO2 T02440239
53988KBKB BKB20190813043511008/13/19 04:35:31  5-MIN KBKB 131035Z AUTO 00000KT 6SM BR CLR 24/24 A2990 320 97 1500 000/00 RMK AO2 T02440239
53988KBKB BKB20190813044011008/13/19 04:40:31  5-MIN KBKB 131040Z AUTO 00000KT 6SM BR CLR 24/24 A2990 320 97 1500 000/00 RMK AO2 T02440239
53988KBKB BKB20190813044511008/13/19 04:45:31  5-MIN KBKB 131045Z AUTO 00000KT 6SM BR CLR 24/24 A2990 320 97 1500 000/00 RMK AO2 T02440239
53988KBKB BKB20190813045011708/13/19 04:50:31  5-MIN KBKB 131050Z AUTO 00000KT 6SM BR CLR 24/24 A2990 320 97 1500 000/00 RMK AO2 SLP148 T02440239
53988KBKB BKB20190813045511008/13/19 04:55:31  5-MIN KBKB 131055Z AUTO 00000KT 6SM BR CLR 24/24 A2990 320 97 1500 000/00 RMK AO2 T02440239
53988KBKB BKB20190813050011008/13/19 05:00:31  5-MIN KBKB 131100Z AUTO 00000KT 6SM BR CLR 25/24 A2990 320 93 1600 000/00 RMK AO2 T02500239
53988KBKB BKB20190813050511008/13/19 05:05:31  5-MIN KBKB 131105Z AUTO 00000KT 6SM BR CLR 24/24 A2990 320 97 1500 000/00 RMK AO2 T02440239
53988KBKB BKB20190813051011008/13/19 05:10:31  5-MIN KBKB 131110Z AUTO 00000KT 6SM BR CLR 25/24 A2990 320 93 1600 000/00 RMK AO2 T02500239
53988KBKB BKB20190813051510708/13/19 05:15:31  5-MIN KBKB 131115Z AUTO 00000KT 7SM CLR 25/24 A2990 320 93 1600 000/00 RMK AO2 T02500239
53988KBKB BKB20190813052010708/13/19 05:20:31  5-MIN KBKB 131120Z AUTO 00000KT 8SM CLR 26/24 A2990 310 93 1600 000/00 RMK AO2 T02560244
53988KBKB BKB20190813052510708/13/19 05:25:31  5-MIN KBKB 131125Z AUTO 00000KT 7SM CLR 25/24 A2991 310 97 1600 000/00 RMK AO2 T02500244
53988KBKB BKB20190813053010708/13/19 05:30:31  5-MIN KBKB 131130Z AUTO 00000KT 7SM CLR 25/24 A2991 310 97 1600 000/00 RMK AO2 T02500244
53988KBKB BKB20190813053511008/13/19 05:35:31  5-MIN KBKB 131135Z AUTO 00000KT 6SM BR CLR 25/24 A2991 310 97 1600 000/00 RMK AO2 T02500244
53988KBKB BKB20190813054011008/13/19 05:40:31  5-MIN KBKB 131140Z AUTO 00000KT 6SM BR CLR 26/24 A2991 310 93 1600 000/00 RMK AO2 T02560244
53988KBKB BKB20190813054511008/13/19 05:45:31  5-MIN KBKB 131145Z AUTO 00000KT 6SM BR CLR 26/24 A2991 300 93 1600 000/00 RMK AO2 T02560244
53988KBKB BKB20190813055013508/13/19 05:50:31  5-MIN KBKB 131150Z AUTO 00000KT 6SM BR CLR 25/24 A2992 300 97 1600 000/00 RMK AO2 SLP155 T02500244 10267 20244 58006
53988KBKB BKB20190813055511008/13/19 05:55:31  5-MIN KBKB 131155Z AUTO 00000KT 6SM BR CLR 25/24 A2992 300 97 1600 000/00 RMK AO2 T02500244
53988KBKB BKB20190813060011008/13/19 06:00:31  5-MIN KBKB 131200Z AUTO 00000KT 6SM BR CLR 26/24 A2992 300 93 1600 000/00 RMK AO2 T02560244
53988KBKB BKB20190813060511008/13/19 06:05:31  5-MIN KBKB 131205Z AUTO 00000KT 6SM BR CLR 26/24 A2992 300 93 1600 000/00 RMK AO2 T02560244
53988KBKB BKB20190813061010708/13/19 06:10:31  5-MIN KBKB 131210Z AUTO 00000KT 7SM CLR 26/24 A2993 290 93 1600 000/00 RMK AO2 T02560244
53988KBKB BKB20190813061510708/13/19 06:15:31  5-MIN KBKB 131215Z AUTO 00000KT 7SM CLR 26/24 A2993 290 93 1600 000/00 RMK AO2 T02560244
53988KBKB BKB20190813062011008/13/19 06:20:31  5-MIN KBKB 131220Z AUTO 00000KT 8SM FEW014 26/25 A2992 290 97 1600 000/00 RMK AO2 T02560250
53988KBKB BKB20190813062511108/13/19 06:25:31  5-MIN KBKB 131225Z AUTO 00000KT 10SM FEW014 26/25 A2992 290 93 1700 000/00 RMK AO2 T02610250
53988KBKB BKB20190813063011108/13/19 06:30:31  5-MIN KBKB 131230Z AUTO 00000KT 10SM FEW014 26/25 A2992 290 93 1700 000/00 RMK AO2 T02610250
53988KBKB BKB20190813063511108/13/19 06:35:31  5-MIN KBKB 131235Z AUTO 00000KT 10SM FEW014 26/25 A2993 290 93 1700 000/00 RMK AO2 T02610250
53988KBKB BKB20190813064011108/13/19 06:40:31  5-MIN KBKB 131240Z AUTO 00000KT 10SM FEW014 27/25 A2993 290 90 1700 000/00 RMK AO2 T02670250
53988KBKB BKB20190813064511108/13/19 06:45:31  5-MIN KBKB 131245Z AUTO 00000KT 10SM FEW014 27/26 A2993 290 93 1700 000/00 RMK AO2 T02670256
53988KBKB BKB20190813065011808/13/19 06:50:31  5-MIN KBKB 131250Z AUTO VRB03KT 10SM FEW014 27/26 A2993 290 93 1700 VRB/03 RMK AO2 SLP159 T02670256
53988KBKB BKB20190813065511108/13/19 06:55:31  5-MIN KBKB 131255Z AUTO VRB03KT 10SM FEW014 27/26 A2993 290 90 1800 VRB/03 RMK AO2 T02720256
53988KBKB BKB20190813070011108/13/19 07:00:31  5-MIN KBKB 131300Z AUTO VRB03KT 10SM FEW014 27/26 A2993 290 90 1800 VRB/03 RMK AO2 T02720256
53988KBKB BKB20190813070510808/13/19 07:05:31  5-MIN KBKB 131305Z AUTO 00000KT 10SM CLR 28/26 A2993 290 87 1900 000/00 RMK AO2 T02780256
53988KBKB BKB20190813071010808/13/19 07:10:31  5-MIN KBKB 131310Z AUTO VRB04KT 10SM CLR 28/26 A2993 290 87 1900 VRB/04 RMK AO2 T02780256
53988KBKB BKB20190813071510808/13/19 07:15:31  5-MIN KBKB 131315Z AUTO VRB03KT 10SM CLR 28/26 A2993 290 85 1900 VRB/03 RMK AO2 T02830256
53988KBKB BKB20190813072010808/13/19 07:20:31  5-MIN KBKB 131320Z AUTO VRB04KT 10SM CLR 28/26 A2993 290 85 1900 VRB/04 RMK AO2 T02830256
53988KBKB BKB20190813072510808/13/19 07:25:31  5-MIN KBKB 131325Z AUTO VRB03KT 10SM CLR 28/26 A2993 290 85 1900 VRB/03 RMK AO2 T02830256
53988KBKB BKB20190813073010808/13/19 07:30:31  5-MIN KBKB 131330Z AUTO VRB04KT 10SM CLR 29/26 A2993 290 82 2000 VRB/04 RMK AO2 T02890256
53988KBKB BKB20190813073511108/13/19 07:35:31  5-MIN KBKB 131335Z AUTO VRB03KT 10SM FEW011 29/26 A2993 290 82 2000 VRB/03 RMK AO2 T02890256
53988KBKB BKB20190813074011108/13/19 07:40:31  5-MIN KBKB 131340Z AUTO 00000KT 10SM FEW011 29/26 A2993 290 79 2100 000/00 RMK AO2 T02940256
53988KBKB BKB20190813074511108/13/19 07:45:31  5-MIN KBKB 131345Z AUTO VRB03KT 10SM FEW012 29/26 A2993 290 82 2000 VRB/03 RMK AO2 T02890256
53988KBKB BKB20190813075011808/13/19 07:50:31  5-MIN KBKB 131350Z AUTO VRB03KT 10SM FEW012 29/26 A2993 290 79 2000 VRB/03 RMK AO2 SLP160 T02940256
53988KBKB BKB20190813075511108/13/19 07:55:31  5-MIN KBKB 131355Z AUTO VRB04KT 10SM FEW012 29/25 A2993 290 79 2000 VRB/04 RMK AO2 T02890250
53988KBKB BKB20190813080011108/13/19 08:00:31  5-MIN KBKB 131400Z AUTO VRB05KT 10SM FEW012 29/26 A2993 290 79 2100 VRB/05 RMK AO2 T02940256
53988KBKB BKB20190813080511108/13/19 08:05:31  5-MIN KBKB 131405Z AUTO VRB04KT 10SM FEW012 30/25 A2993 290 74 2100 VRB/04 RMK AO2 T03000250
53988KBKB BKB20190813081011108/13/19 08:10:31  5-MIN KBKB 131410Z AUTO VRB04KT 10SM FEW014 30/25 A2993 290 74 2100 VRB/04 RMK AO2 T03000250
53988KBKB BKB20190813081511108/13/19 08:15:31  5-MIN KBKB 131415Z AUTO VRB05KT 10SM FEW016 30/25 A2993 290 74 2100 VRB/05 RMK AO2 T03000250
53988KBKB BKB20190813082011108/13/19 08:20:31  5-MIN KBKB 131420Z AUTO VRB03KT 10SM FEW016 31/26 A2994 280 74 2200 VRB/03 RMK AO2 T03060256
53988KBKB BKB20190813082511108/13/19 08:25:31  5-MIN KBKB 131425Z AUTO VRB03KT 10SM FEW018 31/25 A2994 280 72 2200 VRB/03 RMK AO2 T03060250
53988KBKB BKB20190813083011108/13/19 08:30:31  5-MIN KBKB 131430Z AUTO VRB04KT 10SM FEW018 31/25 A2994 280 69 2200 VRB/04 RMK AO2 T03110250
53988KBKB BKB20190813083511108/13/19 08:35:31  5-MIN KBKB 131435Z AUTO 00000KT 10SM FEW018 31/25 A2994 280 72 2200 000/00 RMK AO2 T03060250
53988KBKB BKB20190813084011108/13/19 08:40:31  5-MIN KBKB 131440Z AUTO VRB03KT 10SM FEW018 31/25 A2994 280 69 2200 VRB/03 RMK AO2 T03110250
53988KBKB BKB20190813084511108/13/19 08:45:31  5-MIN KBKB 131445Z AUTO VRB03KT 10SM FEW019 31/25 A2994 280 69 2200 VRB/03 RMK AO2 T03110250
53988KBKB BKB20190813085012408/13/19 08:50:31  5-MIN KBKB 131450Z AUTO VRB05KT 10SM FEW021 31/24 A2994 280 67 2200 VRB/05 RMK AO2 SLP161 T03110244 53014
53988KBKB BKB20190813085511108/13/19 08:55:31  5-MIN KBKB 131455Z AUTO VRB03KT 10SM SCT021 31/24 A2994 280 67 2200 VRB/03 RMK AO2 T03110244
53988KBKB BKB20190813090011108/13/19 09:00:31  5-MIN KBKB 131500Z AUTO 00000KT 10SM BKN023 31/25 A2994 280 69 2200 000/00 RMK AO2 T03110250
53988KBKB BKB20190813090511108/13/19 09:05:31  5-MIN KBKB 131505Z AUTO 00000KT 10SM SCT023 31/24 A2994 280 69 2200 000/00 RMK AO2 T03060244
53988KBKB BKB20190813091011108/13/19 09:10:31  5-MIN KBKB 131510Z AUTO VRB05KT 10SM SCT023 32/24 A2994 280 65 2300 VRB/05 RMK AO2 T03170244
53988KBKB BKB20190813091511108/13/19 09:15:31  5-MIN KBKB 131515Z AUTO 00000KT 10SM BKN023 31/25 A2994 280 69 2200 000/00 RMK AO2 T03110250
53988KBKB BKB20190813092011108/13/19 09:20:31  5-MIN KBKB 131520Z AUTO VRB03KT 10SM SCT023 31/24 A2994 280 67 2200 VRB/03 RMK AO2 T03110244
53988KBKB BKB20190813092511108/13/19 09:25:31  5-MIN KBKB 131525Z AUTO VRB05KT 10SM SCT024 32/24 A2994 280 63 2300 VRB/05 RMK AO2 T03220244
53988KBKB BKB20190813093011108/13/19 09:30:31  5-MIN KBKB 131530Z AUTO VRB04KT 10SM SCT024 32/24 A2994 280 63 2300 VRB/04 RMK AO2 T03220244
53988KBKB BKB20190813093511108/13/19 09:35:31  5-MIN KBKB 131535Z AUTO VRB03KT 10SM SCT025 32/24 A2994 280 63 2300 VRB/03 RMK AO2 T03220244
53988KBKB BKB20190813094011108/13/19 09:40:31  5-MIN KBKB 131540Z AUTO VRB03KT 10SM SCT027 32/24 A2994 280 65 2300 VRB/03 RMK AO2 T03170244
53988KBKB BKB20190813094511108/13/19 09:45:31  5-MIN KBKB 131545Z AUTO VRB03KT 10SM SCT027 32/24 A2994 280 63 2300 VRB/03 RMK AO2 T03220244
53988KBKB BKB20190813095011808/13/19 09:50:31  5-MIN KBKB 131550Z AUTO VRB03KT 10SM SCT029 32/24 A2994 280 63 2300 VRB/03 RMK AO2 SLP164 T03170239
53988KBKB BKB20190813095511808/13/19 09:55:31  5-MIN KBKB 131555Z AUTO 00000KT 10SM SCT029 SCT034 32/24 A2994 280 63 2300 000/00 RMK AO2 T03170239
53988KBKB BKB20190813100010108/13/19 10:00:31  5-MIN KBKB 131600Z AUTO 10SM SCT029 33/25 A2995 270 63 2400 M /M RMK AO2 T03280250
53988KBKB BKB20190813100511108/13/19 10:05:31  5-MIN KBKB 131605Z AUTO 00000KT 10SM SCT031 31/24 A2995 270 65 2200 000/00 RMK AO2 T03110239
53988KBKB BKB20190813101011108/13/19 10:10:31  5-MIN KBKB 131610Z AUTO VRB04KT 10SM SCT031 32/24 A2995 270 61 2300 VRB/04 RMK AO2 T03220239
53988KBKB BKB20190813101511108/13/19 10:15:31  5-MIN KBKB 131615Z AUTO 00000KT 10SM SCT031 33/24 A2995 270 59 2400 000/00 RMK AO2 T03280239
53988KBKB BKB20190813102011108/13/19 10:20:31  5-MIN KBKB 131620Z AUTO VRB03KT 10SM FEW031 33/23 A2994 280 57 2400 VRB/03 RMK AO2 T03280233
53988KBKB BKB20190813102511108/13/19 10:25:31  5-MIN KBKB 131625Z AUTO VRB05KT 10SM SCT031 34/24 A2994 280 55 2500 VRB/05 RMK AO2 T03390239
53988KBKB BKB20190813103012508/13/19 10:30:31  5-MIN KBKB 131630Z AUTO 00000KT 10SM SCT031 SCT041 BKN049 32/23 A2994 280 61 2300 000/00 RMK AO2 T03170233
53988KBKB BKB20190813103512508/13/19 10:35:31  5-MIN KBKB 131635Z AUTO 00000KT 10SM FEW031 SCT041 BKN060 32/23 A2994 280 61 2300 000/00 RMK AO2 T03170233
53988KBKB BKB20190813104012508/13/19 10:40:31  5-MIN KBKB 131640Z AUTO VRB04KT 10SM FEW031 SCT050 BKN065 33/24 A2994 280 57 2500 VRB/04 RMK AO2 T03330239
53988KBKB BKB20190813104512508/13/19 10:45:31  5-MIN KBKB 131645Z AUTO 00000KT 10SM FEW033 SCT050 BKN060 33/24 A2994 280 57 2500 000/00 RMK AO2 T03330239
53988KBKB BKB20190813105013208/13/19 10:50:31  5-MIN KBKB 131650Z AUTO 22004KT 10SM FEW033 SCT041 BKN060 33/24 A2994 280 59 2400 220/04 RMK AO2 SLP163 T03280239
53988KBKB BKB20190813105512508/13/19 10:55:31  5-MIN KBKB 131655Z AUTO VRB04KT 10SM FEW038 FEW050 SCT060 33/24 A2994 280 59 2400 VRB/04 RMK AO2 T03280239
53988KBKB BKB20190813110011808/13/19 11:00:31  5-MIN KBKB 131700Z AUTO 00000KT 10SM FEW036 SCT065 34/24 A2994 280 55 2500 000/00 RMK AO2 T03390239
53988KBKB BKB20190813110511808/13/19 11:05:31  5-MIN KBKB 131705Z AUTO 00000KT 10SM FEW036 FEW065 34/23 A2993 280 53 2500 000/00 RMK AO2 T03390233
53988KBKB BKB20190813123011108/13/19 12:30:31  5-MIN KBKB 131830Z AUTO VRB03KT 10SM FEW065 36/23 A2991 310 47 2700 VRB/03 RMK AO2 T03560228
53988KBKB BKB20190813123511108/13/19 12:35:31  5-MIN KBKB 131835Z AUTO VRB03KT 10SM FEW065 35/23 A2991 310 50 2700 VRB/03 RMK AO2 T03500233
53988KBKB BKB20190813124011108/13/19 12:40:31  5-MIN KBKB 131840Z AUTO VRB03KT 10SM FEW065 35/24 A2991 310 52 2700 VRB/03 RMK AO2 T03500239
53988KBKB BKB20190813124511108/13/19 12:45:31  5-MIN KBKB 131845Z AUTO VRB03KT 10SM FEW065 35/24 A2991 310 50 2600 000/00 RMK AO2 T03440228
53988KBKB BKB20190813124511108/13/19 12:45:31  5-MIN KBKB 131845Z AUTO VRB03KT 10SM FEW065 35/24 A2991 310 52 2700 VRB/03 RMK AO2 T03500239
53988KBKB BKB20190813125011508/13/19 12:50:31  5-MIN KBKB 131850Z AUTO VRB04KT 10SM CLR 35/24 A2990 310 52 2700 VRB/04 RMK AO2 SLP150 T03500239
53988KBKB BKB20190813125510808/13/19 12:55:31  5-MIN KBKB 131855Z AUTO VRB03KT 10SM CLR 35/23 A2990 310 50 2700 VRB/03 RMK AO2 T03500233
53988KBKB BKB20190813125515708/13/19 12:55:31  5-MIN KBKB 131855Z AUTO VRB03KT 10SM CLR 35/23 A2990 310 131835Z AUTO VRB03KT 10SM FEW065 35/23 A2991 310 50 2700 VRB/03 RMK AO2 T03500233
53988KBKB BKB20190813130010808/13/19 13:00:31  5-MIN KBKB 131900Z AUTO VRB03KT 10SM CLR 36/24 A2990 320 50 2800 VRB/03 RMK AO2 T03560239
53988KBKB BKB20190813130510808/13/19 13:05:31  5-MIN KBKB 131905Z AUTO 00000KT 10SM CLR 36/23 A2990 320 48 2800 000/00 RMK AO2 T03560233
53988KBKB BKB20190813130516308/13/19 13:05:31  5-MIN KBKB 131905Z AUTO 00000KT 10SM CLR 36/23 A2990 320 48 2800 000/00AUTO VRB03KT 10SM FEW065 35/24 A2991 310 52 2700 VRB/03 RMK AO2 T03500239
53988KBKB BKB20190813131010808/13/19 13:10:31  5-MIN KBKB 131910Z AUTO VRB03KT 10SM CLR 36/23 A2989 320 47 2800 VRB/03 RMK AO2 T03610233
53988KBKB BKB20190813131510808/13/19 13:15:31  5-MIN KBKB 131915Z AUTO 00000KT 10SM CLR 36/23 A2989 330 48 2800 000/00 RMK AO2 T03560233
53988KBKB BKB20190813131517008/13/19 13:15:31  5-MIN KBKB 131915Z AUTO 00000KT 10SM CLR 36/23 A2989 330 48 2800 000/00 RMK AO2 T035O VRB03KT 10SM CLR 35/23 A2990 310 50 2700 VRB/03 RMK AO2 T03500233
53988KBKB BKB20190813132010808/13/19 13:20:31  5-MIN KBKB 131920Z AUTO VRB04KT 10SM CLR 35/23 A2989 330 50 2700 VRB/04 RMK AO2 T03500233
53988KBKB BKB20190813132510808/13/19 13:25:31  5-MIN KBKB 131925Z AUTO 00000KT 10SM CLR 36/24 A2989 330 50 2800 000/00 RMK AO2 T03560239
53988KBKB BKB20190813133010808/13/19 13:30:31  5-MIN KBKB 131930Z AUTO VRB03KT 10SM CLR 36/23 A2989 330 48 2800 VRB/03 RMK AO2 T03560233
53988KBKB BKB20190813133511108/13/19 13:35:31  5-MIN KBKB 131935Z AUTO VRB03KT 10SM FEW050 36/23 A2989 330 47 2800 VRB/03 RMK AO2 T03610233
53988KBKB BKB20190813134011108/13/19 13:40:31  5-MIN KBKB 131940Z AUTO VRB03KT 10SM SCT050 36/23 A2989 330 47 2800 VRB/03 RMK AO2 T03610233
53988KBKB BKB20190813134511108/13/19 13:45:31  5-MIN KBKB 131945Z AUTO 19003KT 10SM SCT050 36/23 A2988 330 47 2800 190/03 RMK AO2 T03610233
53988KBKB BKB20190813135011808/13/19 13:50:31  5-MIN KBKB 131950Z AUTO 00000KT 10SM FEW050 36/23 A2988 330 48 2800 000/00 RMK AO2 SLP142 T03560233
53988KBKB BKB20190813135511108/13/19 13:55:31  5-MIN KBKB 131955Z AUTO 00000KT 10SM FEW050 36/23 A2988 340 47 2800 000/00 RMK AO2 T03610233
53988KBKB BKB20190813140011108/13/19 14:00:31  5-MIN KBKB 132000Z AUTO 00000KT 10SM FEW050 36/23 A2988 340 48 2800 000/00 RMK AO2 T03560233
53988KBKB BKB20190813140511108/13/19 14:05:31  5-MIN KBKB 132005Z AUTO 00000KT 10SM FEW050 36/23 A2988 340 48 2800 000/00 RMK AO2 T03560233
53988KBKB BKB20190813141010808/13/19 14:10:31  5-MIN KBKB 132010Z AUTO 00000KT 10SM CLR 34/23 A2988 340 50 2700 000/00 RMK AO2 T03440228
53988KBKB BKB20190813141515108/13/19 14:15:31  5-MIN KBKB 132015Z AUTO VRB03KT 10SM FEW050 36/23 A2988 340 48 2800 VRB/03 RMK AO2 T03560233 50 2700 VRB/04 RMK AO2 SLP134 T03500233
53988KBKB BKB20190813155510808/13/19 15:55:31  5-MIN KBKB 132155Z AUTO 00000KT 10SM CLR 36/23 A2986 360 47 2900 000/00 RMK AO2 T03610233
53988KBKB BKB20190814145509808/14/19 14:55:31  5-MIN KBKB 142055Z AUTO 10SM CLR 35/23 A2987 350 48 2700 M /M RMK AO2 T03500228
53988KBKB BKB20190814150010808/14/19 15:00:31  5-MIN KBKB 142100Z AUTO VRB04KT 10SM CLR 35/23 A2987 340 50 2700 VRB/04 RMK AO2 T03500233
53988KBKB BKB20190814150510808/14/19 15:05:31  5-MIN KBKB 142105Z AUTO VRB05KT 10SM CLR 34/22 A2988 340 48 2700 VRB/05 RMK AO2 T03440222
53988KBKB BKB20190814151010808/14/19 15:10:31  5-MIN KBKB 142110Z AUTO VRB04KT 10SM CLR 34/22 A2987 340 48 2700 VRB/04 RMK AO2 T03440222
53988KBKB BKB20190814151510808/14/19 15:15:31  5-MIN KBKB 142115Z AUTO 04005KT 10SM CLR 34/22 A2987 350 48 2700 040/05 RMK AO2 T03440222
53988KBKB BKB20190814152010808/14/19 15:20:31  5-MIN KBKB 142120Z AUTO VRB05KT 10SM CLR 34/22 A2987 350 48 2700 VRB/05 RMK AO2 T03440222
53988KBKB BKB20190814152510808/14/19 15:25:31  5-MIN KBKB 142125Z AUTO VRB05KT 10SM CLR 34/23 A2987 350 50 2700 VRB/05 RMK AO2 T03440228
53988KBKB BKB20190814153010808/14/19 15:30:31  5-MIN KBKB 142130Z AUTO VRB03KT 10SM CLR 35/23 A2987 350 48 2700 VRB/03 RMK AO2 T03500228
53988KBKB BKB20190814153510808/14/19 15:35:31  5-MIN KBKB 142135Z AUTO VRB03KT 10SM CLR 35/23 A2987 340 48 2700 VRB/03 RMK AO2 T03500228
53988KBKB BKB20190814154010808/14/19 15:40:31  5-MIN KBKB 142140Z AUTO 00000KT 10SM CLR 34/22 A2988 340 50 2600 000/00 RMK AO2 T03390222
53988KBKB BKB20190814154510808/14/19 15:45:31  5-MIN KBKB 142145Z AUTO 04004KT 10SM CLR 34/23 A2988 340 50 2700 040/04 RMK AO2 T03440228
53988KBKB BKB20190814155011508/14/19 15:50:31  5-MIN KBKB 142150Z AUTO VRB03KT 10SM CLR 35/23 A2988 330 50 2700 VRB/03 RMK AO2 SLP143 T03500233
53988KBKB BKB20190814155510808/14/19 15:55:31  5-MIN KBKB 142155Z AUTO VRB04KT 10SM CLR 34/23 A2988 330 52 2700 VRB/04 RMK AO2 T03440233
53988KBKB BKB20190814160010808/14/19 16:00:31  5-MIN KBKB 142200Z AUTO 00000KT 10SM CLR 34/24 A2988 330 55 2600 000/00 RMK AO2 T03390239
53988KBKB BKB20190814160510808/14/19 16:05:31  5-MIN KBKB 142205Z AUTO VRB04KT 10SM CLR 34/24 A2989 330 55 2600 VRB/04 RMK AO2 T03390239
53988KBKB BKB20190814161011108/14/19 16:10:31  5-MIN KBKB 142210Z AUTO 00000KT 10SM FEW039 33/24 A2989 330 57 2500 000/00 RMK AO2 T03330239
53988KBKB BKB20190814161511808/14/19 16:15:31  5-MIN KBKB 142215Z AUTO 00000KT 10SM FEW039 SCT110 33/24 A2989 320 61 2500 000/00 RMK AO2 T03280244
53988KBKB BKB20190814162011808/14/19 16:20:31  5-MIN KBKB 142220Z AUTO 00000KT 10SM SCT039 BKN110 33/24 A2989 320 61 2500 000/00 RMK AO2 T03280244
53988KBKB BKB20190814162511808/14/19 16:25:31  5-MIN KBKB 142225Z AUTO 00000KT 10SM BKN039 BKN110 32/24 A2990 320 63 2400 000/00 RMK AO2 T03220244
53988KBKB BKB20190814163012108/14/19 16:30:31  5-MIN KBKB 142230Z AUTO 00000KT 10SM BKN039 BKN110 32/24 A2989 3 AO2 RAE12 TSB15B16B33 P0009 T02720261
53988KBKB BKB20190814175017408/14/19 17:50:31  5-MIN KBKB 142350Z AUTO VRB03KT 5SM TS BR BKN065 27/26 A2990 320 93 1800 VRB/03 RMK AO2 RAE12 TSB15B16B33B46 SLP149 P0009 60027 T02670256 10361 20267 58017
53988KBKB BKB20190814175511308/14/19 17:55:31  5-MIN KBKB 142355Z AUTO 00000KT 8SM TS BKN070 27/26 A2990 320 93 1800 000/00 RMK AO2 T02670256
53988KBKB BKB20190814180011808/14/19 18:00:31  5-MIN KBKB 150000Z AUTO 00000KT 9SM40 BKN065 27/25 A2992 300 90 1800 000/00 RMK AO2 TSE14 T02670250
53988KBKB BKB20190814182513008/14/19 18:25:31  5-MIN KBKB 150025Z AUTO 00000KT 8SM BKN029 BKN040 BKN070 26/25 A2992 300 93 1700 000/00 RMK AO2 TSE14 T02610250
53988KBKB BKB20190814183012308/14/19 18:30:31  5-MIN KBKB 150030Z AUTO 00000KT 8SM BKN029 OVC040 26/25 A2992 300 93 1700 000/00 RMK AO2 TSE14 T02610250
53988KBKB BKB20190814183511608/14/19 18:35:31  5-MIN KBKB 150035Z AUTO 00000KT 7SM OVC031 27/25 A2992 300 90 1800 000/00 RMK AO2 TSE14 T02670250
53988KBKB BKB20190814184011608/14/19 18:40:31  5-MIN KBKB 150040Z AUTO 00000KT 7SM OVC029 26/25 A2991 310 93 1700 000/00 RMK AO2 TSE14 T02610250
53988KBKB BKB20190814184513008/14/19 18:45:31  5-MIN KBKB 150045Z AUTO 00000KT 8SM BKN029 BKN035 OVC045 26/25 A2992 300 93 1700 000/00 RMK AO2 TSE14 T02610250
53988KBKB BKB20190814185016108/14/19 18:50:31  5-MIN KBKB 150050Z AUTO 00000KT 6SM -TSRA BR BKN029 BKN039 OVC048 26/25 A2992 300 93 1700 000/00 RMK AO2 RAB49 TSE14B49 SLP157 P0000 T02610250
53988KBKB BKB20190814185513108/14/19 18:55:31  5-MIN KBKB 150055Z AUTO VRB03KT 3SM TSRA BR BKN028 OVC040 26/25 A2993 290 93 1700 VRB/03 RMK AO2 P0000 T02610250
53988KBKB BKB20190814190013908/14/19 19:00:31  5-MIN KBKB 150100Z AUTO VRB04KT 3SM -TSRA BR BKN028 BKN040 OVC048 26/25 A2993 290 93 1700 VRB/04 RMK AO2 P0000 T02610250
53988KBKB BKB20190814190505808/14/19 19:05:31  5-MIN KBKB 150105Z AUTO 00000 T02610250
53988KBKB BKB20190814192514208/14/19 19:25:31  5-MIN KBKB 150125Z AUTO 00000KT 9SM FEW026 FEW080 BKN110 26/25 A2993 290 93 1700 000/00 RMK AO2 RAE10 TSE25 P0000 T02610250
53988KBKB BKB20190814193013508/14/19 19:30:31  5-MIN KBKB 150130Z AUTO VRB03KT 9SM FEW080 BKN110 26/24 A2993 290 93 1600 VRB/03 RMK AO2 RAE10 TSE25 P0000 T02560244
53988KBKB BKB20190814193513608/14/19 19:35:31  5-MIN KBKB 150135Z AUTO 00000KT 10SM FEW080 OVC120 25/24 A2993 290 93 1600 000/00 RMK AO2 RAE10 TSE25 P0000 T02500239
53988KBKB BKB20190814194012908/14/19 19:40:31  5-MIN KBKB 150140Z AUTO 00000KT 10SM BKN110 25/24 A2993 290 93 1600 000/00 RMK AO2 RAE10 TSE25 P0000 T02500239
53988KBKB BKB20190814194512908/14/19 19:45:31  5-MIN KBKB 150145Z AUTO 00000KT 10SM BKN110 25/24 A2993 290 93 1600 000/00 RMK AO2 RAE10 TSE25 P0000 T02500239
53988KBKB BKB20190814195013508/14/19 19:50:31  5-MIN KBKB 150150Z AUTO 00000KT 9SM BKN110 25/24 A2993 290 93 1600 000/00 RMK AO2 RAE10 TSE25 SLP161 P0000 T02500239
53988KBKB BKB20190814195511008/14/19 19:55:31  5-MIN KBKB 150155Z AUTO 00000KT 8SM BKN120 25/24 A2993 290 93 1600 000/00 RMK AO2 T02500239
53988KBKB BKB20190814200011008/14/19 20:00:31  5-MIN KBKB 150200Z AUTO 00000KT 8SM BKN120 25/24 A2993 290 93 1600 000/00 RMK AO2 T02500239
53988KBKB BKB20190814200511008/14/19 20:05:31  5-MIN KBKB 150205Z AUTO 00000KT 8SM SCT120 24/24 A2993 290 97 1500 000/00 RMK AO2 T02440239
53988KBKB BKB20190814201011008/14/19 20:10:31  5-MIN KBKB 150210Z AUTO 00000KT 9SM SCT120 24/24 A2994 280 97 1500 000/00 RMK AO2 T02440239
53988KBKB BKB20190814201511108/14/19 20:15:31  5-MIN KBKB 150215Z AUTO 00000KT 10SM BKN120 24/24 A2994 280 97 1500 000/00 RMK AO2 T02440239
53988KBKB BKB20190814202011108/14/19 20:20:31  5-MIN KBKB 150220Z AUTO 00000KT 10SM SCT120 25/24 A2995 270 93 1500 000/00 RMK AO2 T02500239
53988KBKB BKB20190814202511008/14/19 20:25:31  5-MIN KBKB 150225Z AUTO 00000KT 9SM FEW120 25/24 A2995 270 93 1500 000/00 RMK AO2 T02500239
53988KBKB BKB20190814203011008/14/19 20:30:31  5-MIN KBKB 150230Z AUTO 00000KT 9SM FEW120 25/24 A2995 270 93 1500 000/00 RMK AO2 T02500239
53988KBKB BKB20190814203511008/14/19 20:35:31  5-MIN KBKB 150235Z AUTO 00000KT 9SM FEW120 24/24 A2995 270 97 1500 000/00 RMK AO2 T02440239
53988KBKB BKB20190814204011008/14/19 20:40:31  5-MIN KBKB 150240Z AUTO 00000KT 8SM FEW120 25/24 A2996 260 93 1500 000/00 RMK AO2 T02500239
53988KBKB BKB20190814204510708/14/19 20:45:31  5-MIN KBKB 150245Z AUTO 00000KT 7SM CLR 25/24 A2996 260 93 1500 000/00 RMK AO2 T02500239
53988KBKB BKB20190814205012608/14/19 20:50:31  5-MIN KBKB 150250Z AUTO 00000KT 7SM CLR 24/24 A2995 270 97 1500 000/00 RMK AO2 SLP168 60002 T02440239 51010
53988KBKB BKB20190814205510708/14/19 20:55:31  5-MIN KBKB 150255Z AUTO 00000KT 8SM CLR 25/24 A2995 270 93 1500 000/00 RMK AO2 T02500239
53988KBKB BKB20190814210010708/14/19 21:00:31  5-MIN KBKB 150300Z AUTO 00000KT 8SM CLR 25/24 A2996 260 93 1500 000/00 RMK AO2 T02500239
53988KBKB BKB20190814210510708/14/19 21:05:31  5-MIN KBKB 150305Z AUTO 00000KT 7SM CLR 25/24 A2996 260 93 1500 000/00 RMK AO2 T02500239
53988KBKB BKB20190814211010708/14/19 21:10:31  5-MIN KBKB 150310Z AUTO 00000KT 7SM CLR 25/24 A2996 260 93 1500 000/00 RMK AO2 T02500239
53988KBKB BKB20190814211510708/14/19 21:15:31  5-MIN KBKB 150315Z AUTO 00000KT 7SM CLR 25/24 A2995 270 93 1500 000/00 RMK AO2 T02500239
53988KBKB BKB20190814212011308/14/19 21:20:31  5-MIN KBKB 150320Z AUTO 00000KT 7T 5SM BR CLR 25/24 A2994 280 93 1500 000/00 RMK AO2 T02500239
53988KBKB BKB20190814221011008/14/19 22:10:31  5-MIN KBKB 150410Z AUTO 00000KT 5SM BR CLR 25/24 A2994 280 93 1500 000/00 RMK AO2 T02500239
53988KBKB BKB20190814221511008/14/19 22:15:31  5-MIN KBKB 150415Z AUTO 00000KT 5SM BR CLR 25/24 A2994 280 93 1500 000/00 RMK AO2 T02500239
53988KBKB BKB20190814222012608/14/19 22:20:31  5-MIN KBKB 150420Z AUTO 00000KT 6SM BR CLR 25/24 A2994 280 93 1500 000/00 RMK AO2 T02500239MK AO2 T02440233
53988KBKB BKB20190814235015108/14/19 23:50:31  5-MIN KBKB 150550Z AUTO 00000KT 4SM BR CLR 24/24 A2995 270 97 1500 000/00 RMK AO2 SLP166 60002 T02440239 10267 20244 403610244 51018
53988KBKB BKB20190814235511008/14/19 23:55:31  5-MIN KBKB 150555Z AUTO 00000KT 4SM BR CLR 24/24 A2995 270 97 1500 000/00 RMK AO2 T02440239
53988KBKB BKB20190815000011008/15/19 00:00:31  5-MIN KBKB 150600Z AUTO 00000KT 5SM BR CLR 24/24 A2995 270 97 1500 000/00 RMK AO2 T02440239
53988KBKB BKB20190815000511008/15/19 00:05:31  5-MIN KBKB 150605Z AUTO 00000KT 5SM BR CLR 24/24 A2995 270 97 1500 000/00 RMK AO2 T02440239
53988KBKB BKB20190815001011008/15/19 00:10:31  5-MIN KBKB 150610Z AUTO 00000KT 5SM BR CLR 24/24 A2995 270 97 1500 000/00 RMK AO2 T02440239
53988KBKB BKB20190815001511008/15/19 00:15:31  5-MIN KBKB 150615Z AUTO 00000KT 6SM BR CLR 24/24 A2995 270 97 1500 000/00 RMK AO2 T02440239
53988KBKB BKB20190815002011008/15/19 00:20:31  5-MIN KBKB 150620Z AUTO 00000KT 6SM BR CLR 24/24 A2995 270 97 1500 000/00 RMK AO2 T02440239
53988KBKB BKB20190815002511008/15/19 00:25:31  5-MIN KBKB 150625Z AUTO 00000KT 5SM BR CLR 24/23 A2995 270 93 1500 000/00 RMK AO2 T02440233
53988KBKB BKB20190815003011008/15/19 00:30:31  5-MIN KBKB 150630Z AUTO 00000KT 5SM BR CLR 24/24 A2995 270 97 1500 000/00 RMK AO2 T02440239
53988KBKB BKB20190815003511008/15/19 00:35:31  5-MIN KBKB 150635Z AUTO 00000KT 6SM BR CLR 24/24 A2995 280 97 1500 000/00 RMK AO2 T02440239
53988KBKB BKB20190815004011008/15/19 00:40:31  5-MIN KBKB 150640Z AUTO 00000KT 5SM BR CLR 24/23 A2995 270 93 1500 000/00 RMK AO2 T02440233
53988KBKB BKB20190815004511008/15/19 00:45:31  5-MIN KBKB 150645Z AUTO 00000KT 5SM BR CLR 24/23 A2995 270 93 1500 000/00 RMK AO2 T02440233
53988KBKB BKB20190815005011708/15/19 00:50:31  5-MIN KBKB 150650Z AUTO 00000KT 4SM BR CLR 24/23 A2994 280 93 1500 000/00 RMK AO2 SLP164 T02440233
53988KBKB BKB20190815005511008/15/19 00:55:31  5-MIN KBKB 150655Z AUTO 00000KT 4SM BR CLR 24/23 A2994 280 93 1500 000/00 RMK AO2 T02440233
53988KBKB BKB20190815010011008/15/19 01:00:31  5-MIN KBKB 150700Z AUTO 00000KT 4SM BR CLR 24/23 A2994 280 93 1500 000/00 RMK AO2 T02440233
53988KBKB BKB20190815010511008/15/19 01:05:31  5-MIN KBKB 150705Z AUTO 00000KT 4SM BR CLR 24/23 A2994 280 93 1500 000/00 RMK AO2 T02440233
53988KBKB BKB20190815011011008/15/19 01:10:31  5-MIN KBKB 150710Z AUTO 00000KT 4SM BR CLR 24/23 A2994 280 93 1500 000/00 RMK AO2 T02440233
53988KBKB BKB20190815011511008/15/19 01:15:31  5-MIN KBKB 150715Z AUTO 00000KT 5SM BR CLR 24/24 A2994 280 97 1500 000/00 RMK AO2 T02440239
53988KBKB BKB20190815012011008/15/19 01:20:31  5-MIN KBKB 150720Z AUTO 00000KT 5SM BR CLR 24/23 A2994 280 93 1500 000/00 RMK AO2 T02440233
53988KBKB BKB20190815012511008/15/19 01:25:31  5-MIN KBKB 150725Z AUTO 00000KT 5SM BR CLR 24/23 A2994 280 93 1500 000/00 RMK AO2 T02440233
53988KBKB BKB20190815013011008/15/19 01:30:31  5-MIN KBKB 150730Z AUTO 00000KT 5SM BR CLR 24/23 A2994 280 93 1500 000/00 RMK AO2 T02440233
53988KBKB BKB20190815013511008/15/19 01:35:31  5-MIN KBKB 150735Z AUTO 00000KT 5SM BR CLR 24/23 A2994 280 93 1500 000/00 RMK AO2 T02440233
53988KBKB BKB20190815014011308/15/19 01:40:31  5-MIN KBKB 150740Z AUTO 00000KT 4SM BR FEW002 24/23 A2995 280 93 1500 000/00 RMK AO2 T02440233
53988KBKB BKB20190815014511008/15/19 01:45:31  5-MIN KBKB 150745Z AUTO 00000KT 4SM BR CLR 24/23 A2994 280 93 1500 000/00 RMK AO2 T02440233
53988KBKB BKB20190815015011708/15/19 01:50:31  5-MIN KBKB 150750Z AUTO 00000KT 5SM BR CLR 24/23 A2994 280 93 1500 000/00 RMK AO2 SLP164 T02440233
53988KBKB BKB20190815015511008/15/19 01:55:31  5-MIN KBKB 150755Z AUTO 00000KT 5SM BR CLR 24/23 A2994 280 93 1500 000/00 RMK AO2 T02440233
53988KBKB BKB20190815020011008/15/19 02:00:31  5-MIN KBKB 150800Z AUTO 00000KT 5SM BR CLR 24/23 A2994 280 93 1500 000/00 RMK AO2 T02440233
53988KBKB BKB20190815020509508/15/19 02:05:31  5-MIN KBKB 150805Z AUTO 00000KT 7SM CLR 24/23 A2994 280 93 1500 000/00 R5001
53988KBKB BKB20190815020510708/15/19 02:05:31  5-MIN KBKB 150805Z AUTO 00000KT 7SM CLR 24/23 A2994 280 93 1500 000/00 RMK AO2 T02440233
53988KBKB BKB20190815021010708/15/19 02:10:31  5-MIN KBKB 150810Z AUTO 00000KT 8SM CLR 24/23 A2994 280 93 1500 000/00 RMK AO2 T02440233
53988KBKB BKB20190815021510708/15/19 02:15:31  5-MIN KBKB 150815Z AUTO 00000KT 8SM CLR 24/23 A2994 280 93 1500 000/00 RMK AO2 T02440233
53988KBKB BKB20190815022010708/15/19 02:20:31  5-MIN KBKB 150820Z AUTO 00000KT 9SM CLR 24/23 A2994 280 93 1500 000/00 RMK AO2 T02440233
53988KBKB BKB20190815022510708/15/19 02:25:31  5-MIN KBKB 150825Z AUTO 00000KT 9SM CLR 24/23 A2994 280 93 1500 000/00 RMK AO2 T02440233
53988KBKB BKB20190815023010708/15/19 02:30:31  5-MIN KBKB 150830Z AUTO 00000KT 8SM CLR 24/23 A2994 280 93 1500 000/00 RMK AO2 T02440233
53988KBKB BKB20190815023510708/15/19 02:35:31  5-MIN KBKB 150835Z AUTO 00000KT 7SM CLR 24/23 A2994 280 93 1500 000/00 RMK AO2 T02440233
53988KBKB BKB20190815024010708/15/19 02:40:31  5-MIN KBKB 150840Z AUTO 00000KT 7SM CLR 24/23 A2994 280 93 1500 000/00 RMK AO2 T02440233
53988KBKB BKB20190815024510708/15/19 02:45:31  5-MIN KBKB 150845Z AUTO 00000KT 8SM CLR 24/23 A2994 280 93 1500 000/00 RMK AO2 T02440233
53988KBKB BKB20190815025012008/15/19 02:50:31  5-MIN KBKB 150850Z AUTO 00000KT 8SM CLR 24/23 A2994 280 93 1500 000/00 RMK AO2 SLP163 T02440233 55001
53988KBKB BKB20190815025510708/15/19 02:55:31  5-MIN KBKB 150855Z AUTO 00000KT 8SM CLR 24/23 A2994 280 93 1500 000/00 RMK AO2 T02440233
53988KBKB BKB20190815030010708/15/19 03:00:31  5-MIN KBKB 150900Z AUTO 00000KT 8SM CLR 24/23 A2994 280 93 1500 000/00 RMK AO2 T02440233
53988KBKB BKB20190815030510708/15/19 03:05:31  5-MIN KBKB 150905Z AUTO 00000KT 7SM CLR 24/23 A2994 280 93 1500 000/00 RMK AO2 T02440233
53988KBKB BKB20190815031010708/15/19 03:10:31  5-MIN KBKB 150910Z AUTO 00000KT 7SM CLR 24/23 A2994 280 93 1500 000/00 RMK AO2 T02440233
53988KBKB BKB20190815031510708/15/19 03:15:31  5-MIN KBKB 150915Z AUTO 01003KT 7SM CLR 24/23 A2994 280 93 1500 360/03 RMK AO2 T02440233
53988KBKB BKB20190815032010708/15/19 03:20:31  5-MIN KBKB 150920Z AUTO VRB03KT 9SM CLR 24/23 A2994 280 93 1500 VRB/03 RMK AO2 T02440233
53988KBKB BKB20190815032510708/15/19 03:25:31  5-MIN KBKB 150925Z AUTO 01003KT 9SM CLR 24/23 A2994 280 93 1500 010/03 RMK AO2 T02440233
53988KBKB BKB20190815033010708/15/19 03:30:31  5-MIN KBKB 150930Z AUTO 36003KT 9SM CLR 24/23 A2994 280 93 1500 360/03 RMK AO2 T02440233
53988KBKB BKB20190815033510708/15/19 03:35:31  5-MIN KBKB 150935Z AUTO 00000KT 9SM CLR 24/23 A2994 280 93 1500 000/00 RMK AO2 T02440233
53988KBKB BKB20190815034010708/15/19 03:40:31  5-MIN KBKB 150940Z AUTO 00000KT 9SM CLR 24/23 A2994 280 93 1500 000/00 RMK AO2 T02440233
53988KBKB BKB20190815034510708/15/19 03:45:31  5-MIN KBKB 150945Z AUTO 00000KT 9SM CLR 24/23 A2994 280 93 1500 000/00 RMK AO2 T02440233
53988KBKB BKB20190815035011408/15/19 03:50:31  5-MIN KBKB 150950Z AUTO 00000KT 8SM CLR 24/23 A2994 280 93 1500 000/00 RMK AO2 SLP164 T02440233
53988KBKB BKB20190815035510708/15/19 03:55:31  5-MIN KBKB 150955Z AUTO 00000KT 8SM CLR 24/23 A2994 280 93 1500 000/00 RMK AO2 T02440233
53988KBKB BKB20190815040010708/15/19 04:00:31  5-MIN KBKB 151000Z AUTO 00000KT 8SM CLR 24/23 A2994 280 93 1500 000/00 RMK AO2 T02440233
53988KBKB BKB20190815040510708/15/19 04:05:31  5-MIN KBKB 151005Z AUTO 00000KT 7SM CLR 24/23 A2995 280 93 1500 000/00 RMK AO2 T02440233
53988KBKB BKB20190815041010708/15/19 04:10:31  5-MIN KBKB 151010Z AUTO 00000KT 7SM CLR 24/23 A2995 270 93 1500 000/00 RMK AO2 T02440233
53988KBKB BKB20190815041510708/15/19 04:15:31  5-MIN KBKB 151015Z AUTO 00000KT 8SM CLR 24/23 A2995 270 93 1500 000/00 RMK AO2 T02440233
53988KBKB BKB20190815042010708/15/19 04:20:31  5-MIN KBKB 151020Z AUTO 00000KT 8SM CLR 24/23 A2994 280 93 1500 000/00 RMK AO2 T02440233
53988KBKB BKB20190815042511008/15/19 04:25:31  5-MIN KBKB 151025Z AUTO 00000KT 6SM BR CLR 24/23 A2994 280 93 1500 000/00 RMK AO2 T02440233
53988KBKB BKB20190815043011008/15/19 04:30:31  5-MIN KBKB 151030Z AUTO 00000KT 5SM BR CLR 24/23 A2994 280 93 1500 000/00 RMK AO2 T02440233
53988KBKB BKB20190815043511008/15/19 04:35:31  5-MIN KBKB 151035Z AUTO 00000KT 5SM BR CLR 24/23 A2994 280 93 1500 000/00 RMK AO2 T02440233
53988KBKB BKB20190815044011008/15/19 04:40:31  5-MIN KBKB 151040Z AUTO 00000KT 5SM BR CLR 24/23 A2994 280 93 1500 000/00 RMK AO2 T02440233
53988KBKB BKB20190815044511008/15/19 04:45:31  5-MIN KBKB 151045Z AUTO 00000KT 5SM BR CLR 24/23 A2994 280 93 1500 000/00 RMK AO2 T02440233
53988KBKB BKB20190815045011708/15/19 04:50:31  5-MIN KBKB 151050Z AUTO 00000KT 6SM BR CLR 24/23 A2994 280 93 1500 000/00 RMK AO2 SLP164 T02440233
53988KBKB BKB20190815045511008/15/19 04:55:31  5-MIN KBKB 151055Z AUTO 00000KT 6SM BR CLR 24/23 A2995 280 93 1500 000/00 RMK AO2 T02440233
53988KBKB BKB20190815050010708/15/19 05:00:31  5-MIN KBKB 151100Z AUTO 00000KT 7SM CLR 24/23 A2995 270 93 1500 000/00 RMK AO2 T02440233
53988KBKB BKB20190815050511008/15/19 05:05:31  5-MIN KBKB 151105Z AUTO 00000KT 6SM BR CLR 24/23 A2995 270 93 1500 000/00 RMK AO2 T02440233
53988KBKB BKB20190815051011008/15/19 05:10:31  5-MIN KBKB 151110Z AUTO 00000KT 6SM BR CLR 24/23 A2995 270 93 1500 000/00 RMK AO2 T02440233
53988KBKB BKB20190815051511008/15/19 05:15:31  5-MIN KBKB 151115Z AUTO 00000KT 5SM BR CLR 24/23 A2995 270 93 1500 000/00 RMK AO2 T02440233
53988KBKB BKB20190815052011008/15/19 05:20:31  5-MIN KBKB 151120Z AUTO 00000KT 5SM BR CLR 24/23 A2995 270 93 1500 000/00 RMK AO2 T02440233
53988KBKB BKB20190815052511008/15/19 05:25:31  5-MIN KBKB 151125Z AUTO 00000KT 6SM BR CLR 24/23 A2995 270 93 1500 000/00 RMK AO2 T02440233
53988KBKB BKB20190815053010708/15/19 05:30:31  5-MIN KBKB 151130Z AUTO 00000KT 8SM CLR 24/23 A2996 270 93 1500 000/00 RMK AO2 T02440233
53988KBKB BKB20190815053517008/15/19 05:35:31  5-MIN KBKB 151135Z AUTO 00000KT 8SM CLR 24/23 A2996 260 93 1500 01630Z AUTO VRB03KT 10SM FEW025 SCT047 32/25 A2997 250 65 2300 VRB/03 RMK AO2 T03220250
53988KBKB BKB20190815103011808/15/19 10:30:31  5-MIN KBKB 151630Z AUTO VRB03KT 10SM FEW025 SCT047 32/25 A2997 250 65 2300 VRB/03 RMK AO2 T03220250
53988KBKB BKB20190815103511108/15/19 10:35:31  5-MIN KBKB 151635Z AUTO 00000KT 10SM SCT047 33/24 A2997 250 61 2400 000/00 RMK AO2 T03280244
53988KBKB BKB20190815104011108/15/19 10:40:31  5-MIN KBKB 151640Z AUTO VRB03KT 10SM SCT047 32/24 A2997 250 63 2300 VRB/03 RMK AO2 T03220244
53988KBKB BKB20190815104511808/15/19 10:45:31  5-MIN KBKB 151645Z AUTO 00000KT 10SM FEW030 SCT047 32/24 A2997 250 63 2300 000/00 RMK AO2 T03220244
53988KBKB BKB20190815104515608/15/19 10:45:31  5-MIN KBKB 151645Z AUT15/19 10:25:31  5-MIN KBKB 151625Z AUTO 11004KT 10SM FEW024 FEW030 32/26 A2997 250 69 2300 110/04 RMK AO2 T03170256
53988KBKB BKB20190815105012508/15/19 10:50:31  5-MIN KBKB 151650Z AUTO 00000KT 10SM SCT030 BKN047 32/25 A2997 260 65 2300 000/00 RMK AO2 SLP172 T03220250
53988KBKB BKB20190815105511808/15/19 10:55:31  5-MIN KBKB 151655Z AUTO 00000KT 10SM SCT030 BKN047 32/24 A2997 260 65 2300 000/00 RMK AO2 T03170244
53988KBKB BKB20190815110012508/15/19 11:00:31  5-MIN KBKB 151700Z AUTO VRB04KT 10SM FEW030 SCT036 SCT047 33/25 A2996 260 63 2400 VRB/04 RMK AO2 T03280250
53988KBKB BKB20190815110013408/15/19 11:00:31  5-MIN KBKB 151700Z AUTO VRB04KT 10SM FEW030 SCT036 SCT047 33/25 A2996 260 63 2400 VRB/04 RMK AO2 T03280250T03220244
53988KBKB BKB20190815110512508/15/19 11:05:31  5-MIN KBKB 151705Z AUTO 00000KT 10SM FEW030 SCT036 BKN046 33/24 A2996 260 61 2400 000/00 RMK AO2 T03280244
53988KBKB BKB20190815111012508/15/19 11:10:31  5-MIN KBKB 151710Z AUTO 00000KT 10SM FEW030 SCT036 BKN045 33/24 A2996 260 59 2400 000/00 RMK AO2 T03330244
53988KBKB BKB20190815111012608/15/19 11:10:31  5-MIN KBKB 151710Z AUTO 00000KT 10SM FEW030 SCT036 BKN045 33/24 A2996 260 59  000/00 RMK AOK AO2 T033302440
53988KBKB BKB20190815111512508/15/19 11:15:31  5-MIN KBKB 151715Z AUTO VRB03KT 10SM FEW030 SCT036 BKN048 33/24 A2996 260 57 2400 VRB/03 RMK AO2 T03330239
53988KBKB BKB20190815112011808/15/19 11:20:31  5-MIN KBKB 151720Z AUTO VRB03KT 10SM FEW036 FEW045 33/24 A2996 260 61 2400 VRB/03 RMK AO2 T03280244
53988KBKB BKB20190815112020508/15/19 11:20:31  5-MIN KBKB 151720Z AUTO VRB03KT 10SM FEW036 FEW045 33/24 A2996 260 61 2400 VRB/03 RMK AO2 T0328024408/KB 151745Z AUTO 00000KT 10SM FEW034 33/24 A2995 270 59 2400 000/00 RMK AO2 T03280239
53988KBKB BKB20190815112511808/15/19 11:25:31  5-MIN KBKB 151725Z AUTO VRB03KT 10SM FEW036 FEW045 32/24 A2996 260 63 2300 VRB/03 RMK AO2 T03170239
53988KBKB BKB20190815113012508/15/19 11:30:31  5-MIN KBKB 151730Z AUTO 00000KT 10SM FEW036 SCT045 SCT065 32/24 A2996 260 65 2300 000/00 RMK AO2 T03170244
53988KBKB BKB20190815113511808/15/19 11:35:31  5-MIN KBKB 151735Z AUTO VRB03KT 10SM FEW034 SCT065 32/24 A2996 270 63 2300 VRB/03 RMK AO2 T03220244
53988KBKB BKB20190815114011108/15/19 11:40:31  5-MIN KBKB 151740Z AUTO VRB04KT 10SM FEW034 33/25 A2995 270 61 2500 VRB/04 RMK AO2 T03330250
53988KBKB BKB20190815114511108/15/19 11:45:31  5-MIN KBKB 151745Z AUTO 00000KT 10SM FEW034 33/24 A2995 270 59 2400 000/00 RMK AO2 T03280239
53988KBKB BKB20190815115013608/15/19 11:50:31  5-MIN KBKB 151750Z AUTO VRB03KT 10SM FEW033 32/24 A2995 270 63 2300 VRB/03 RMK AO2 SLP166 T03220244 10333 20244 51005
53988KBKB BKB20190815115511108/15/19 11:55:31  5-MIN KBKB 151755Z AUTO VRB04KT 10SM FEW033 34/24 A2995 270 57 2500 VRB/04 RMK AO2 T03390244
53988KBKB BKB20190815120011108/15/19 12:00:31  5-MIN KBKB 151800Z AUTO VRB03KT 10SM FEW033 33/23 A2995 280 55 2500 VRB/03 RMK AO2 T03330233
53988KBKB BKB20190815120511108/15/19 12:05:31  5-MIN KBKB 151805Z AUTO 00000KT 10SM FEW033 34/24 A2995 270 55 2500 000/00 RMK AO2 T03390239
53988KBKB BKB20190815121009808/15/19 12:10:31  5-MIN KBKB 151810Z AUTO 10SM CLR 34/24 A2994 280 55 2500 M /M RMK AO2 T03390239
53988KBKB BKB20190815121510808/15/19 12:15:31  5-MIN KBKB 151815Z AUTO VRB03KT 10SM CLR 34/23 A2994 280 53 2500 VRB/03 RMK AO2 T03390233
53988KBKB BKB20190815122010808/15/19 12:20:31  5-MIN KBKB 151820Z AUTO VRB03KT 10SM CLR 34/24 A2994 280 53 2600 VRB/03 RMK AO2 T03440239
53988KBKB BKB20190815122510808/15/19 12:25:31  5-MIN KBKB 151825Z AUTO 00000KT 10SM CLR 34/24 A2994 280 53 2600 000/00 RMK AO2 T03440239
53988KBKB BKB20190815123009808/15/19 12:30:31  5-MIN KBKB 151830Z AUTO 10SM CLR 34/23 A2994 280 52 2600 M /M RMK AO2 T03440233
53988KBKB BKB20190815123510808/15/19 12:35:31  5-MIN KBKB 151835Z AUTO 12004KT 10SM CLR 34/24 A2994 280 53 2600 110/04 RMK AO2 T03440239
53988KBKB BKB20190815124010808/15/19 12:40:31  5-MIN KBKB 151840Z AUTO VRB04KT 10SM CLR 34/24 A2993 290 53 2600 VRB/04 RMK AO2 T03440239
53988KBKB BKB20190815124510808/15/19 12:45:31  5-MIN KBKB 151845Z AUTO VRB03KT 10SM CLR 34/24 A2993 290 55 2600 VRB/03 RMK AO2 T03440244
53988KBKB BKB20190815125011508/15/19 12:50:31  5-MIN KBKB 151850Z AUTO VRB05KT 10SM CLR 34/24 A2993 290 55 2600 VRB/05 RMK AO2 SLP160 T03440244
53988KBKB BKB20190815125510808/15/19 12:55:31  5-MIN KBKB 151855Z AUTO VRB04KT 10SM CLR 34/24 A2993 290 53 2600 VRB/04 RMK AO2 T03440239
53988KBKB BKB20190815130010808/15/19 13:00:31  5-MIN KBKB 151900Z AUTO VRB03KT 10SM CLR 34/23 A2993 290 52 2600 VRB/03 RMK AO2 T03440233
53988KBKB BKB20190815130510808/15/19 13:05:31  5-MIN KBKB 151905Z AUTO VRB04KT 10SM CLR 34/24 A2993 290 53 2600 VRB/04 RMK AO2 T03440239
53988KBKB BKB20190815131010808/15/19 13:10:31  5-MIN KBKB 151910Z AUTO VRB03KT 10SM CLR 34/24 A2992 300 53 2600 VRB/03 RMK AO2 T03440239
53988KBKB BKB20190815131510808/15/19 13:15:31  5-MIN KBKB 151915Z AUTO VRB03KT 10SM CLR 35/24 A2992 300 53 2700 VRB/03 RMK AO2 T03500244
53988KBKB BKB20190815132010808/15/19 13:20:31  5-MIN KBKB 151920Z AUTO 00000KT 10SM CLR 35/24 A2992 300 53 2700 000/00 RMK AO2 T03500244
53988KBKB BKB20190815132510808/15/19 13:25:31  5-MIN KBKB 151925Z AUTO VRB04KT 10SM CLR 35/24 A2991 300 53 2700 VRB/04 RMK AO2 T03500244
53988KBKB BKB20190815133011108/15/19 13:30:31  5-MIN KBKB 151930Z AUTO VRB03KT 10SM FEW041 34/24 A2991 310 53 2600 VRB/03 RMK AO2 T03440239
53988KBKB BKB20190815133511108/15/19 13:35:31  5-MIN KBKB 151935Z AUTO VRB05KT 10SM FEW041 34/24 A2991 310 53 2600 VRB/05 RMK AO2 T03440239
53988KBKB BKB20190815134011108/15/19 13:40:31  5-MIN KBKB 151940Z AUTO 05005KT 10SM SCT041 34/24 A2990 310 53 2600 050/05 RMK AO2 T03440239
53988KBKB BKB20190815134511108/15/19 13:45:31  5-MIN KBKB 151945Z AUTO VRB03KT 10SM SCT041 34/24 A2990 310 55 2600 VRB/03 RMK AO2 T03390239
53988KBKB BKB20190815135011808/15/19 13:50:31  5-MIN KBKB 151950Z AUTO VRB03KT 10SM SCT041 34/24 A2990 320 55 2600 VRB/03 RMK AO2 SLP149 T03440244
53988KBKB BKB20190815135511108/15/19 13:55:31  5-MIN KBKB 151955Z AUTO VRB04KT 10SM FEW041 34/24 A2990 320 53 2600 VRB/04 RMK AO2 T03440239
53988KBKB BKB20190815140011108/15/19 14:00:31  5-MIN KBKB 152000Z AUTO VRB04KT 10SM FEW042 35/24 A2990 320 53 2700 VRB/04 RMK AO2 T03500244
53988KBKB BKB20190815140511108/15/19 14:05:31  5-MIN KBKB 152005Z AUTO VRB04KT 10SM FEW042 34/24 A2989 330 53 2600 VRB/04 RMK AO2 T03440239
53988KBKB BKB20190815141010808/15/19 14:10:31  5-MIN KBKB 152010Z AUTO VRB05KT 10SM CLR 35/24 A2989 330 52 2700 VRB/05 RMK AO2 T03500239
53988KBKB BKB20190815141509808/15/19 14:15:31  5-MIN KBKB 152015Z AUTO 10SM CLR 35/24 A2989 330 53 2700 M /M RMK AO2 T03500244
53988KBKB BKB20190815142010808/15/19 14:20:31  5-MIN KBKB 152020Z AUTO VRB03KT 10SM CLR 35/24 A2989 330 52 2700 VRB/03 RMK AO2 T03500239
53988KBKB BKB20190815142510808/15/19 14:25:31  5-MIN KBKB 152025Z AUTO VRB05KT 10SM CLR 34/24 A2989 320 53 2600 VRB/05 RMK AO2 T03440239
53988KBKB BKB20190815143010808/15/19 14:30:31  5-MIN KBKB 152030Z AUTO VRB03KT 10SM CLR 34/24 A2990 320 55 2600 VRB/03 RMK AO2 T03390239
53988KBKB BKB20190815143510808/15/19 14:35:31  5-MIN KBKB 152035Z AUTO VRB04KT 10SM CLR 34/24 A2990 320 53 2600 VRB/04 RMK AO2 T03440239
53988KBKB BKB20190815144010808/15/19 14:40:31  5-MIN KBKB 152040Z AUTO VRB04KT 10SM CLR 36/24 A2989 320 50 2800 VRB/04 RMK AO2 T03560239
53988KBKB BKB20190815144510808/15/19 14:45:31  5-MIN KBKB 152045Z AUTO VRB04KT 10SM CLR 35/23 A2989 320 50 2700 VRB/04 RMK AO2 T03500233
53988KBKB BKB20190815145012108/15/19 14:50:31  5-MIN KBKB 152050Z AUTO VRB05KT 10SM CLR 36/24 A2989 320 50 2800 VRB/05 RMK AO2 SLP146 T03560239 58008
53988KBKB BKB20190815145510808/15/19 14:55:31  5-MIN KBKB 152055Z AUTO VRB03KT 10SM CLR 35/24 A2989 330 52 2700 VRB/03 RMK AO2 T03500239
53988KBKB BKB20190815150010808/15/19 15:00:31  5-MIN KBKB 152100Z AUTO 00000KT 10SM CLR 35/24 A2989 330 52 2700 000/00 RMK AO2 T03500239
53988KBKB BKB20190815150510808/15/19 15:05:31  5-MIN KBKB 152105Z AUTO VRB05KT 10SM CLR 36/24 A2989 330 50 2800 VRB/05 RMK AO2 T03560239
53988KBKB BKB20190815151010808/15/19 15:10:31  5-MIN KBKB 152110Z AUTO 05004KT 10SM CLR 34/23 A2989 330 52 2700 040/04 RMK AO2 T03440233
53988KBKB BKB20190815151510808/15/19 15:15:31  5-MIN KBKB 152115Z AUTO 00000KT 10SM CLR 35/24 A2988 340 52 2700 000/00 RMK AO2 T03500239
53988KBKB BKB20190815152011108/15/19 15:20:31  5-MIN KBKB 152120Z AUTO VRB04KT 10SM FEW045 36/24 A2988 340 50 2800 VRB/04 RMK AO2 T03560239
53988KBKB BKB20190815152511108/15/19 15:25:31  5-MIN KBKB 152125Z AUTO VRB06KT 10SM FEW045 34/23 A2988 340 52 2700 VRB/06 RMK AO2 T03440233
53988KBKB BKB20190815153011108/15/19 15:30:31  5-MIN KBKB 152130Z AUTO VRB03KT 10SM FEW045 34/24 A2988 340 53 2700 VRB/03 RMK AO2 T03440239
53988KBKB BKB20190815153511108/15/19 15:35:31  5-MIN KBKB 152135Z AUTO VRB05KT 10SM SCT045 35/23 A2988 340 50 2700 VRB/05 RMK AO2 T03500233
53988KBKB BKB20190815154011108/15/19 15:40:31  5-MIN KBKB 152140Z AUTO VRB04KT 10SM SCT045 34/23 A2988 340 52 2700 VRB/04 RMK AO2 T03440233
53988KBKB BKB20190815154511108/15/19 15:45:31  5-MIN KBKB 152145Z AUTO VRB04KT 10SM SCT046 34/23 A2988 340 53 2600 VRB/04 RMK AO2 T03390233
53988KBKB BKB20190815155011808/15/19 15:50:31  5-MIN KBKB 152150Z AUTO VRB05KT 10SM FEW046 34/23 A2988 340 53 2600 VRB/05 RMK AO2 SLP140 T03390233
53988KBKB BKB20190815155511108/15/19 15:55:31  5-MIN KBKB 152155Z AUTO VRB03KT 10SM FEW046 34/24 A2988 340 55 2600 VRB/03 RMK AO2 T03390239
53988KBKB BKB20190815160011108/15/19 16:00:31  5-MIN KBKB 152200Z AUTO VRB03KT 10SM FEW046 34/24 A2988 340 55 2600 VRB/03 RMK AO2 T03390239
53988KBKB BKB20190815160510808/15/19 16:05:31  5-MIN KBKB 152205Z AUTO VRB04KT 10SM CLR 33/23 A2988 330 55 2500 VRB/04 RMK AO2 T03330233
53988KBKB BKB20190815161010808/15/19 16:10:31  5-MIN KBKB 152210Z AUTO VRB03KT 10SM CLR 33/23 A2988 330 55 2500 VRB/03 RMK AO2 T03330233
53988KBKB BKB20190815161510808/15/19 16:15:31  5-MIN KBKB 152215Z AUTO 00000KT 10SM CLR 33/23 A2988 330 55 2500 000/00 RMK AO2 T03330233
53988KBKB BKB20190815162010808/15/19 16:20:31  5-MIN KBKB 152220Z AUTO 00000KT 10SM CLR 33/23 A2989 330 55 2500 000/00 RMK AO2 T03330233
53988KBKB BKB20190815162510808/15/19 16:25:31  5-MIN KBKB 152225Z AUTO 00000KT 10SM CLR 33/24 A2989 330 57 2500 000/00 RMK AO2 T03330239
53988KBKB BKB20190815163010808/15/19 16:30:31  5-MIN KBKB 152230Z AUTO VRB03KT 10SM CLR 33/24 A2989 330 59 2500 VRB/03 RMK AO2 T03330244
53988KBKB BKB20190815163510808/15/19 16:35:31  5-MIN KBKB 152235Z AUTO VRB04KT 10SM CLR 33/24 A2989 330 59 2500 VRB/04 RMK AO2 T03330244
53988KBKB BKB20190815164010808/15/19 16:40:31  5-MIN KBKB 152240Z AUTO VRB03KT 10SM CLR 33/24 A2989 320 59 2500 VRB/03 RMK AO2 T03330244
53988KBKB BKB20190815164510808/15/19 16:45:31  5-MIN KBKB 152245Z AUTO VRB03KT 10SM CLR 33/25 A2989 320 61 2500 VRB/03 RMK AO2 T03330250
53988KBKB BKB20190815165011508/15/19 16:50:31  5-MIN KBKB 152250Z AUTO VRB03KT 10SM CLR 33/24 A2989 320 59 2500 VRB/03 RMK AO2 SLP147 T03330244
53988KBKB BKB20190815165511108/15/19 16:55:31  5-MIN KBKB 152255Z AUTO 12004KT 10SM FEW046 34/25 A2989 320 59 2600 110/04 RMK AO2 T03390250
53988KBKB BKB20190815170011108/15/19 17:00:31  5-MIN KBKB 152300Z AUTO VRB03KT 10SM FEW046 33/24 A2989 320 59 2500 VRB/03 RMK AO2 T03330244
53988KBKB BKB20190815170511108/15/19 17:05:31  5-MIN KBKB 152305Z AUTO VRB03KT 10SM FEW046 33/24 A2989 320 61 2500 VRB/03 RMK AO2 T03280244
53988KBKB BKB20190815171011108/15/19 17:10:31  5-MIN KBKB 152310Z AUTO VRB03KT 10SM FEW046 33/25 A2990 320 61 2500 VRB/03 RMK AO2 T03330250
53988KBKB BKB20190815171510808/15/19 17:15:31  5-MIN KBKB 152315Z AUTO VRB04KT 10SM CLR 33/24 A2990 320 59 2500 VRB/04 RMK AO2 T03330244
53988KBKB BKB20190815172010808/15/19 17:20:31  5-MIN KBKB 152320Z AUTO VRB03KT 10SM CLR 33/24 A2990 320 61 2500 VRB/03 RMK AO2 T03280244
53988KBKB BKB20190815172510808/15/19 17:25:31  5-MIN KBKB 152325Z AUTO VRB03KT 10SM CLR 33/24 A2990 320 61 2500 VRB/03 RMK AO2 T03280244
53988KBKB BKB20190815173010808/15/19 17:30:31  5-MIN KBKB 152330Z AUTO VRB03KT 10SM CLR 33/24 A2990 320 61 2500 VRB/03 RMK AO2 T03280244
53988KBKB BKB20190815173510808/15/19 17:35:31  5-MIN KBKB 152335Z AUTO VRB04KT 10SM CLR 32/25 A2990 310 65 2400 VRB/04 RMK AO2 T03220250
53988KBKB BKB20190815174010808/15/19 17:40:31  5-MIN KBKB 152340Z AUTO VRB05KT 10SM CLR 32/25 A2991 310 67 2300 VRB/05 RMK AO2 T03170250
53988KBKB BKB20190815174510808/15/19 17:45:31  5-MIN KBKB 152345Z AUTO VRB04KT 10SM CLR 31/25 A2991 310 72 2200 VRB/04 RMK AO2 T03060250
53988KBKB BKB20190815175013308/15/19 17:50:31  5-MIN KBKB 152350Z AUTO VRB03KT 10SM CLR 30/24 A2991 310 72 2100 VRB/03 RMK AO2 SLP154 T03000244 10356 20300 56020
53988KBKB BKB20190815175510808/15/19 17:55:31  5-MIN KBKB 152355Z AUTO VRB03KT 10SM CLR 29/24 A2991 300 71 2100 VRB/03 RMK AO2 T02940239
53988KBKB BKB20190815180014508/15/19 18:00:31  5-MIN KBKB 160000Z AUTO 00000KT 10SM CLR 29/24 A2992 300 74 2000 000 10SM CLR 27/23 A2993 290 82 1700 000/00 RMK AO2 T02670233
53988KBKB BKB20190815185510808/15/19 18:55:31  5-MIN KBKB 160055Z AUTO 00000KT 10SM CLR 27/23 A2993 290 79 1800 000/00 RMK AO2 T02720233
53988KBKB BKB20190815190010808/15/19 19:00:31  5-MIN KBKB 160100Z AUTO 00000KT 10SM CLR 27/23 A2993 290 79 1800 000/00 RMK AO2 T02720233
53988KBKB BKB20190815190510808/15/19 19:05:31  5-MIN KBKB 160105Z AUTO 00000KT 10SM CLR 27/23 A2994 280 82 1700 000/00 RMK AO2 T02670233
53988KBKB BKB20190815191010808/15/19 19:10:31  5-MIN KBKB 160110Z AUTO 00000KT 10SM CLR 27/23 A2993 290 82 1700 000/00 RMK AO2 T02670233
53988KBKB BKB20190815191506208/15/19 19:15:31  5-MIN KBKB 160115Z AUTO 00000KT60 T02720233
53988KBKB BKB20190815191510808/15/19 19:15:31  5-MIN KBKB 160115Z AUTO 00000KT 10SM CLR 27/23 A2993 290 82 1700 000/00 RMK AO2 T02670233
53988KBKB BKB20190815192010808/15/19 19:20:31  5-MIN KBKB 160120Z AUTO 00000KT 10SM CLR 27/23 A2993 290 82 1700 000/00 RMK AO2 T02670233
53988KBKB BKB20190815192510808/15/19 19:25:31  5-MIN KBKB 160125Z AUTO 00000KT 10SM CLR 26/23 A2993 290 84 1700 000/00 RMK AO2 T02610233
53988KBKB BKB20190815193010808/15/19 19:30:31  5-MIN KBKB 160130Z AUTO 00000KT 10SM CLR 26/23 A2993 290 84 1700 000/00 RMK AO2 T02610233
53988KBKB BKB20190815193506208/15/19 19:35:31  5-MIN KBKB 160135Z AUTO 00RMK AO2 T02670233
53988KBKB BKB20190815193510808/15/19 19:35:31  5-MIN KBKB 160135Z AUTO 00000KT 10SM CLR 26/23 A2993 290 84 1700 000/00 RMK AO2 T02610233
53988KBKB BKB20190815194010808/15/19 19:40:31  5-MIN KBKB 160140Z AUTO 00000KT 10SM CLR 26/23 A2992 300 87 1600 000/00 RMK AO2 T02560233
53988KBKB BKB20190815194510808/15/19 19:45:31  5-MIN KBKB 160145Z AUTO 00000KT 10SM CLR 26/23 A2992 300 87 1600 000/00 RMK AO2 T02560233
53988KBKB BKB20190815195011508/15/19 19:50:31  5-MIN KBKB 160150Z AUTO 00000KT 10SM CLR 26/24 A2992 300 90 1600 000/00 RMK AO2 SLP158 T02560239
53988KBKB BKB20190815195510808/15/19 19:55:31  5-MIN KBKB 160155Z AUTO 00000KT 10SM CLR 26/23 A2992 300 87 1600 000/00 RMK AO2 T02560233
53988KBKB BKB20190815200010808/15/19 20:00:31  5-MIN KBKB 160200Z AUTO 00000KT 10SM CLR 26/23 A2993 290 87 1600 000/00 RMK AO2 T02560233
53988KBKB BKB20190815200510808/15/19 20:05:31  5-MIN KBKB 160205Z AUTO 00000KT 10SM CLR 26/24 A2993 290 90 1600 000/00 RMK AO2 T02560239
53988KBKB BKB20190815201010808/15/19 20:10:31  5-MIN KBKB 160210Z AUTO 00000KT 10SM CLR 26/23 A2993 290 87 1600 000/00 RMK AO2 T02560233
53988KBKB BKB20190815201510808/15/19 20:15:31  5-MIN KBKB 160215Z AUTO 00000KT 10SM CLR 26/23 A2993 290 87 1600 000/00 RMK AO2 T02560233
53988KBKB BKB20190815202010808/15/19 20:20:31  5-MIN KBKB 160220Z AUTO 00000KT 10SM CLR 26/23 A2994 280 87 1600 000/00 RMK AO2 T02560233
53988KBKB BKB20190815202510808/15/19 20:25:31  5-MIN KBKB 160225Z AUTO 00000KT 10SM CLR 26/23 A2993 290 87 1600 000/00 RMK AO2 T02560233
53988KBKB BKB20190815203010808/15/19 20:30:31  5-MIN KBKB 160230Z AUTO 00000KT 10SM CLR 25/23 A2994 280 90 1500 000/00 RMK AO2 T02500233
53988KBKB BKB20190815203510808/15/19 20:35:31  5-MIN KBKB 160235Z AUTO 00000KT 10SM CLR 25/23 A2994 280 90 1500 000/00 RMK AO2 T02500233
53988KBKB BKB20190815204010808/15/19 20:40:31  5-MIN KBKB 160240Z AUTO 00000KT 10SM CLR 25/23 A2994 280 90 1500 000/00 RMK AO2 T02500233
53988KBKB BKB20190815204510808/15/19 20:45:31  5-MIN KBKB 160245Z AUTO 00000KT 10SM CLR 25/23 A2994 280 90 1500 000/00 RMK AO2 T02500233
53988KBKB BKB20190815205012108/15/19 20:50:31  5-MIN KBKB 160250Z AUTO 00000KT 10SM CLR 25/23 A2994 280 90 1500 000/00 RMK AO2 SLP164 T02500233 53008
53988KBKB BKB20190815205513708/15/19 20:55:31  5-MIN KBKB 160255Z AU  5-MIN KBKB 160450Z AUTO 00000KT 9SM CLR 24/23 A2994 280 93 1400 000/00 RMK AO2 SLP164 T02390228
53988KBKB BKB20190815225510708/15/19 22:55:31  5-MIN KBKB 160455Z AUTO 00000KT 9SM CLR 24/23 A2994 280 93 1400 000/00 RMK AO2 T02390228
53988KBKB BKB20190816080010808/16/19 08:00:31  5-MIN KBKB 161400Z AUTO 00000KT 10SM CLR 29/22 A2998 240 67 1900 000/00 RMK AO2 T02890222
53988KBKB BKB20190816080510808/16/19 08:05:31  5-MIN KBKB 161405Z AUTO 00000KT 10SM CLR 29/23 A2998 240 67 2000 000/00 RMK AO2 T02940228
53988KBKB BKB20190816081010808/16/19 08:10:31  5-MIN KBKB 161410Z AUTO 00000KT 10SM CLR 29/23 A2998 240 67 2000 000/00 RMK AO2 T02940228
53988KBKB BKB20190816081510808/16/19 08:15:31  5-MIN KBKB 161415Z AUTO 00000KT 10SM CLR 29/23 A2998 240 67 2000 000/00 RMK AO2 T02940228
53988KBKB BKB20190816082010808/16/19 08:20:31  5-MIN KBKB 161420Z AUTO VRB03KT 10SM CLR 29/22 A2998 240 64 2000 VRB/03 RMK AO2 T02940222
53988KBKB BKB20190816082510808/16/19 08:25:31  5-MIN KBKB 161425Z AUTO 00000KT 10SM CLR 29/22 A2998 240 64 2000 000/00 RMK AO2 T02940222
53988KBKB BKB20190816083010808/16/19 08:30:31  5-MIN KBKB 161430Z AUTO 00000KT 10SM CLR 30/23 A2998 250 65 2100 000/00 RMK AO2 T03000228
53988KBKB BKB20190816083510808/16/19 08:35:31  5-MIN KBKB 161435Z AUTO 00000KT 10SM CLR 31/23 A2998 250 62 2100 000/00 RMK AO2 T03060228
53988KBKB BKB20190816084010808/16/19 08:40:31  5-MIN KBKB 161440Z AUTO 00000KT 10SM CLR 31/23 A2998 240 62 2100 000/00 RMK AO2 T03060228
53988KBKB BKB20190816084510808/16/19 08:45:31  5-MIN KBKB 161445Z AUTO 14003KT 10SM CLR 31/23 A2998 240 62 2100 130/03 RMK AO2 T03060228
53988KBKB BKB20190816085012108/16/19 08:50:31  5-MIN KBKB 161450Z AUTO 00000KT 10SM CLR 31/23 A2998 240 62 2100 000/00 RMK AO2 SLP177 T03060228 53007
53988KBKB BKB20190816085510808/16/19 08:55:31  5-MIN KBKB 161455Z AUTO 00000KT 10SM CLR 31/23 A2998 240 63 2200 000/00 RMK AO2 T03110233
53988KBKB BKB20190816090010808/16/19 09:00:31  5-MIN KBKB 161500Z AUTO 00000KT 10SM CLR 31/23 A2998 240 63 2200 000/00 RMK AO2 T03110233
53988KBKB BKB20190816090510808/16/19 09:05:31  5-MIN KBKB 161505Z AUTO 00000KT 10SM CLR 31/23 A2998 240 62 2100 000/00 RMK AO2 T03060228
53988KBKB BKB20190816091010808/16/19 09:10:31  5-MIN KBKB 161510Z AUTO 00000KT 10SM CLR 31/23 A2998 240 62 2100 000/00 RMK AO2 T03060228
53988KBKB BKB20190816091510808/16/19 09:15:31  5-MIN KBKB 161515Z AUTO 00000KT 10SM CLR 31/23 A2998 240 60 2200 000/00 RMK AO2 T03110228
53988KBKB BKB20190816092010808/16/19 09:20:31  5-MIN KBKB 161520Z AUTO 00000KT 10SM CLR 31/23 A2998 240 62 2100 000/00 RMK AO2 T03060228
53988KBKB BKB20190816092510808/16/19 09:25:31  5-MIN KBKB 161525Z AUTO VRB03KT 10SM CLR 31/23 A2998 240 63 2200 VRB/03 RMK AO2 T03110233
53988KBKB BKB20190816093010808/16/19 09:30:31  5-MIN KBKB 161530Z AUTO 00000KT 10SM CLR 31/23 A2999 240 63 2200 000/00 RMK AO2 T03110233
53988KBKB BKB20190816093510808/16/19 09:35:31  5-MIN KBKB 161535Z AUTO 00000KT 10SM CLR 32/23 A2999 240 61 2200 000/00 RMK AO2 T03170233
53988KBKB BKB20190816094011108/16/19 09:40:31  5-MIN KBKB 161540Z AUTO VRB03KT 10SM FEW030 31/23 A2999 240 63 2200 VRB/03 RMK AO2 T03110233
53988KBKB BKB20190816094511108/16/19 09:45:31  5-MIN KBKB 161545Z AUTO VRB03KT 10SM SCT030 32/23 A2999 240 61 2200 VRB/03 RMK AO2 T03170233
53988KBKB BKB20190816095011808/16/19 09:50:31  5-MIN KBKB 161550Z AUTO VRB04KT 10SM FEW031 31/23 A2999 240 63 2200 VRB/04 RMK AO2 SLP180 T03110233
53988KBKB BKB20190816095511108/16/19 09:55:31  5-MIN KBKB 161555Z AUTO VRB04KT 10SM FEW031 32/23 A2999 240 61 2200 VRB/04 RMK AO2 T03170233
53988KBKB BKB20190816100011108/16/19 10:00:31  5-MIN KBKB 161600Z AUTO VRB04KT 10SM FEW031 32/24 A2999 240 61 2300 VRB/04 RMK AO2 T03220239
53988KBKB BKB20190816100511108/16/19 10:05:31  5-MIN KBKB 161605Z AUTO 00000KT 10SM SCT031 32/23 A2998 240 61 2200 000/00 RMK AO2 T03170233
53988KBKB BKB20190816101011108/16/19 10:10:31  5-MIN KBKB 161610Z AUTO VRB03KT 10SM SCT031 32/24 A2998 240 63 2200 VRB/03 RMK AO2 T03170239
53988KBKB BKB20190816101511108/16/19 10:15:31  5-MIN KBKB 161615Z AUTO VRB04KT 10SM FEW031 32/23 A2998 240 59 2300 VRB/04 RMK AO2 T03220233
53988KBKB BKB20190816102011108/16/19 10:20:31  5-MIN KBKB 161620Z AUTO VRB03KT 10SM FEW031 32/23 A2998 240 59 2300 VRB/03 RMK AO2 T03220233
53988KBKB BKB20190816102511108/16/19 10:25:31  5-MIN KBKB 161625Z AUTO VRB04KT 10SM FEW031 33/23 A2998 240 57 2400 VRB/04 RMK AO2 T03280233
53988KBKB BKB20190816103011108/16/19 10:30:31  5-MIN KBKB 161630Z AUTO VRB03KT 10SM FEW031 32/23 A2998 240 58 2200 VRB/03 RMK AO2 T03170228
53988KBKB BKB20190816103511108/16/19 10:35:31  5-MIN KBKB 161635Z AUTO VRB03KT 10SM SCT032 32/23 A2998 240 61 2200 VRB/03 RMK AO2 T03170233
53988KBKB BKB20190816104011108/16/19 10:40:31  5-MIN KBKB 161640Z AUTO 00000KT 10SM SCT032 31/23 A2998 240 63 2200 000/00 RMK AO2 T03110233
53988KBKB BKB20190816104511108/16/19 10:45:31  5-MIN KBKB 161645Z AUTO 00000KT 10SM SCT035 32/23 A2998 250 59 2300 000/00 RMK AO2 T03220233
53988KBKB BKB20190816105011808/16/19 10:50:31  5-MIN KBKB 161650Z AUTO 00000KT 10SM FEW033 33/23 A2997 250 57 2400 000/00 RMK AO2 SLP174 T03280233
53988KBKB BKB20190816105511108/16/19 10:55:31  5-MIN KBKB 161655Z AUTO 00000KT 10SM FEW033 33/23 A2997 250 55 2400 000/00 RMK AO2 T03330233
53988KBKB BKB20190816110011108/16/19 11:00:31  5-MIN KBKB 161700Z AUTO 00000KT 10SM FEW033 33/23 A2997 250 57 2400 000/00 RMK AO2 T03280233
53988KBKB BKB20190816110511108/16/19 11:05:31  5-MIN KBKB 161705Z AUTO 00000KT 10SM FEW037 33/23 A2997 250 55 2400 000/00 RMK AO2 T03330233
53988KBKB BKB20190816111010808/16/19 11:10:31  5-MIN KBKB 161710Z AUTO 12003KT 10SM CLR 33/24 A2997 260 57 2400 120/03 RMK AO2 T03330239
53988KBKB BKB20190816111510808/16/19 11:15:31  5-MIN KBKB 161715Z AUTO 00000KT 10SM CLR 33/23 A2996 260 57 2400 000/00 RMK AO2 T03280233
53988KBKB BKB20190816112017208/16/19 11:20:31  5-MIN KBKB 161720Z AUTO 00000KT 10SM FEW037 33/23 A2996 260 57 2400 000/00 RMK AO2 T03RB05KT 10SM FEW050 35/22 A2990 320 47 2700 VRB/05 RMK AO2 T03500222
53988KBKB BKB20190816150510808/16/19 15:05:31  5-MIN KBKB 162105Z AUTO VRB03KT 10SM CLR 35/22 A2990 320 47 2700 VRB/03 RMK AO2 T03500222
53988KBKB BKB20190816151010808/16/19 15:10:31  5-MIN KBKB 162110Z AUTO VRB03KT 10SM CLR 36/23 A2990 320 47 2800 VRB/03 RMK AO2 T03560228
53988KBKB BKB20190816151510808/16/19 15:15:31  5-MIN KBKB 162115Z AUTO VRB05KT 10SM CLR 36/23 A2990 320 47 2800 VRB/05 RMK AO2 T03560228
53988KBKB BKB20190816152010808/16/19 15:20:31  5-MIN KBKB 162120Z AUTO 14005KT 10SM CLR 35/22 A2990 320 47 2700 130/05 RMK AO2 T03500222
53988KBKB BKB20190816152510808/16/19 15:25:31  5-MIN KBKB 162125Z AUTO VRB03KT 10SM CLR 35/22 A2989 320 47 2700 VRB/03 RMK AO2 T03500222
53988KBKB BKB20190816152510808/16/19 15:25:31  5-MIN KBKB 162125Z AUTO VRB03KT 10SM CLR 35/22 A2989 320 47 2800 VRB/03 RMK AO2 T03560228
53988KBKB BKB20190816153011108/16/19 15:30:31  5-MIN KBKB 162130Z AUTO 00000KT 10SM FEW055 36/23 A2990 320 47 2800 000/00 RMK AO2 T03560228
53988KBKB BKB20190816153511108/16/19 15:35:31  5-MIN KBKB 162135Z AUTO VRB04KT 10SM FEW055 35/22 A2990 320 47 2700 VRB/04 RMK AO2 T03500222
53988KBKB BKB20190816154011108/16/19 15:40:31  5-MIN KBKB 162140Z AUTO VRB03KT 10SM FEW055 35/22 A2990 320 47 2700 VRB/03 RMK AO2 T03500222
53988KBKB BKB20190816154511108/16/19 15:45:31  5-MIN KBKB 162145Z AUTO VRB03KT 10SM FEW055 35/22 A2989 320 47 2700 VRB/03 RMK AO2 T03500222
53988KBKB BKB20190816155011808/16/19 15:50:31  5-MIN KBKB 162150Z AUTO 11004KT 10SM FEW055 34/22 A2989 320 48 2600 110/04 RMK AO2 SLP147 T03440222
53988KBKB BKB20190816155016308/16/19 15:50:31  5-MIN KBKB 162150Z AUTO 11004KT 10SM FEW055 34/22 A2989 N KBKB 162130Z AUTO 00000KT 10SM FEW055 36/23 A2990 320 47 2800 000/00 RMK AO2 T03560228
53988KBKB BKB20190816155511108/16/19 15:55:31  5-MIN KBKB 162155Z AUTO VRB04KT 10SM FEW055 34/22 A2989 320 48 2600 VRB/04 RMK AO2 T03440222
53988KBKB BKB20190816160010808/16/19 16:00:31  5-MIN KBKB 162200Z AUTO VRB04KT 10SM CLR 34/22 A2989 320 48 2600 VRB/04 RMK AO2 T03440222
53988KBKB BKB20190816160019408/16/19 16:00:31  5-MIN KBKB 162200Z AUTO VRB04KT 10SM CLR 34/22 A2989 320 48 2600 VRB/04 RMK AO2 T03440222 82 1900 000/00 RMK AO2 T02780244 CLR 28/24 A2988 330 76 2000 000/00 RMK AO2 T02830239
53988KBKB BKB20190816160510808/16/19 16:05:31  5-MIN KBKB 162205Z AUTO 00000KT 10SM CLR 35/22 A2989 320 47 2700 000/00 RMK AO2 T03500222
53988KBKB BKB20190816161010808/16/19 16:10:31  5-MIN KBKB 162210Z AUTO VRB03KT 10SM CLR 35/22 A2989 320 47 2700 VRB/03 RMK AO2 T03500222
53988KBKB BKB20190816161517208/16/19 16:15:31  5-MIN KBKB 162215Z AUTO VRB03KT 10SM CLR 35/22 A29815:55:31  5-MIN KBKB 162155Z AUTO VRB04KT 10SM FEW055 34/22 A2989 320 48 2600 VRB/04 RMK AO2 T03440222
53988KBKB BKB20190816185011508/16/19 18:50:31  5-MIN KBKB 170050Z AUTO 00000KT 10SM CLR 28/24 A2988 330 79 2000 000/00 RMK AO2 SLP145 T02830244
53988KBKB BKB20190816185510808/16/19 18:55:31  5-MIN KBKB 170055Z AUTO 00000KT 10SM CLR 28/24 A2989 330 76 2000 000/00 RMK AO2 T02830239
53988KBKB BKB20190816190010808/16/19 19:00:31  5-MIN KBKB 170100Z AUTO 00000KT 10SM CLR 28/24 A2989 330 79 1900 000/00 RMK AO2 T02780239
53988KBKB BKB20190816190510808/16/19 19:05:31  5-MIN KBKB 170105Z AUTO 00000KT 10SM CLR 28/24 A2989 330 82 1900 000/00 RMK AO2 T02780244
53988KBKB BKB20190816191010808/16/19 19:10:31  5-MIN KBKB 170110Z AUTO 00000KT 10SM CLR 28/24 A2989 330 79 1900 000/00 RMK AO2 T02780239
53988KBKB BKB20190816191510808/16/19 19:15:31  5-MIN KBKB 170115Z AUTO 00000KT 10SM CLR 28/24 A2989 330 79 1900 000/00 RMK AO2 T02780239
53988KBKB BKB20190816191517008/16/19 19:15:31  5-MIN KBKB 170115Z AUTO 00000KT 10SM CLR 28/24 A2989 330 79 1900 000/00 RMK AO2Z AUTO 00000KT 10SM CLR 28/24 A2989 330 76 2000 000/00 RMK AO2 T02830239
53988KBKB BKB20190816192010808/16/19 19:20:31  5-MIN KBKB 170120Z AUTO 00000KT 10SM CLR 28/24 A2989 320 82 1900 000/00 RMK AO2 T02780244
53988KBKB BKB20190816192510808/16/19 19:25:31  5-MIN KBKB 170125Z AUTO 00000KT 10SM CLR 28/24 A2990 320 82 1900 000/00 RMK AO2 T02780244
53988KBKB BKB20190816192517008/16/19 19:25:31  5-MIN KBKB 170125Z AUTO 00000KT 10SM CLR 28/24 A2990 320 82 1900 000/00 RMK AO2 T0278 00000KT 10SM CLR 28/24 A2989 330 82 1900 000/00 RMK AO2 T02780244
53988KBKB BKB20190816193010808/16/19 19:30:31  5-MIN KBKB 170130Z AUTO 00000KT 10SM CLR 27/24 A2990 320 84 1800 000/00 RMK AO2 T02720244
53988KBKB BKB20190816193510808/16/19 19:35:31  5-MIN KBKB 170135Z AUTO 00000KT 10SM CLR 27/24 A2990 320 79 1900 000/00 RMK AO2 T02780239
53988KBKB BKB20190816193510808/16/19 19:35:31  5-MIN KBKB 170135Z AUTO 00000KT 10SM CLR 27/24 A2990 320 82 1800 000/00 RMK AO2 T02720239
53988KBKB BKB20190816194010808/16/19 19:40:31  5-MIN KBKB 170140Z AUTO 00000KT 10SM CLR 27/24 A2990 310 82 1800 000/00 RMK AO2 T02720239
53988KBKB BKB20190816194510808/16/19 19:45:31  5-MIN KBKB 170145Z AUTO 00000KT 10SM CLR 27/24 A2990 310 82 1800 000/00 RMK AO2 T02720239
53988KBKB BKB20190816194517008/16/19 19:45:31  5-MIN KBKB 170145Z AUTO 00000KT 10SM CLR 27/24 A2990 310 82 1800 000/00 RMK 125Z AUTO 00000KT 10SM CLR 28/24 A2990 320 82 1900 000/00 RMK AO2 T02780244
53988KBKB BKB20190816195011508/16/19 19:50:31  5-MIN KBKB 170150Z AUTO 00000KT 10SM CLR 27/24 A2990 310 84 1800 000/00 RMK AO2 SLP151 T02670239
53988KBKB BKB20190816195510808/16/19 19:55:31  5-MIN KBKB 170155Z AUTO 00000KT 10SM CLR 27/24 A2990 310 82 1800 000/00 RMK AO2 T02720239
53988KBKB BKB20190816195516308/16/19 19:55:31  5-MIN KBKB 170155Z AUTO 00000KT 10SM CLR 27/24 A2990 310 82 1800 000/00 RMK AO 00000KT 10SM CLR 27/24 A2990 320 82 1800 000/00 RMK AO2 T02720239
53988KBKB BKB20190817170010808/17/19 17:00:31  5-MIN KBKB 172300Z AUTO 00000KT 10SM CLR 31/27 A2987 350 79 2200 000/00 RMK AO2 T03060267
53988KBKB BKB20190817170510808/17/19 17:05:31  5-MIN KBKB 172305Z AUTO 00000KT 10SM CLR 31/26 A2987 350 77 2200 000/00 RMK AO2 T03060261
53988KBKB BKB20190817171010808/17/19 17:10:31  5-MIN KBKB 172310Z AUTO 00000KT 10SM CLR 31/27 A2987 350 79 2200 000/00 RMK AO2 T03060267
53988KBKB BKB20190817171510808/17/19 17:15:31  5-MIN KBKB 172315Z AUTO 00000KT 10SM CLR 29/27 A2987 350 85 2100 000/00 RMK AO2 T02940267
53988KBKB BKB20190817172010808/17/19 17:20:31  5-MIN KBKB 172320Z AUTO 00000KT 10SM CLR 29/27 A2986 350 85 2100 000/00 RMK AO2 T02940267
53988KBKB BKB20190817172510808/17/19 17:25:31  5-MIN KBKB 172325Z AUTO 00000KT 10SM CLR 29/27 A2986 350 85 2100 000/00 RMK AO2 T02940267
53988KBKB BKB20190817173010808/17/19 17:30:31  5-MIN KBKB 172330Z AUTO 00000KT 10SM CLR 30/27 A2986 350 85 2200 000/00 RMK AO2 T03000272
53988KBKB BKB20190817173511108/17/19 17:35:31  5-MIN KBKB 172335Z AUTO VRB03KT 10SM FEW028 30/26 A2986 360 79 2200 VRB/03 RMK AO2 T03000261
53988KBKB BKB20190817174011808/17/19 17:40:31  5-MIN KBKB 172340Z AUTO 00000KT 10SM SCT023 SCT030 29/26 A2986 360 82 2100 000/00 RMK AO2 T02940261
53988KBKB BKB20190817174511808/17/19 17:45:31  5-MIN KBKB 172345Z AUTO 00000KT 10SM BKN023 BKN030 29/27 A2986 360 85 2100 000/00 RMK AO2 T02940267
53988KBKB BKB20190817175014908/17/19 17:50:31  5-MIN KBKB 172350Z AUTO 00000KT 10SM BKN021 BKN029 29/26 A2986 350 85 2100 000/00 RMK AO2 SLP136 60120 T02890261 10306 20250 56013
53988KBKB BKB20190817175512508/17/19 17:55:31  5-MIN KBKB 172355Z AUTO VRB04KT 10SM BKN021 BKN029 BKN065 29/26 A2986 350 85 2100 VRB/04 RMK AO2 T02890261
53988KBKB BKB20190817180012508/17/19 18:00:31  5-MIN KBKB 180000Z AUTO 00000KT 10SM SCT022 BKN029 BKN065 29/26 A2986 350 82 2100 000/00 RMK AO2 T02890256
53988KBKB BKB20190817180511808/17/19 18:05:31  5-MIN KBKB 180005Z AUTO VRB03KT 10SM SCT022 BKN065 28/26 A2986 350 85 2000 VRB/03 RMK AO2 T02830256
53988KBKB BKB20190817181011808/17/19 18:10:31  5-MIN KBKB 180010Z AUTO 00000KT 10SM SCT022 SCT065 28/26 A2986 350 85 2000 000/00 RMK AO2 T02830256
53988KBKB BKB20190817181511808/17/19 18:15:31  5-MIN KBKB 180015Z AUTO VRB03KT 10SM FEW018 FEW065 28/26 A2987 350 85 2000 VRB/03 RMK AO2 T02830256
53988KBKB BKB20190817182011108/17/19 18:20:31  5-MIN KBKB 180020Z AUTO 00000KT 10SM FEW065 28/26 A2987 350 85 2000 000/00 RMK AO2 T02830256
53988KBKB BKB20190817182510808/17/19 18:25:31  5-MIN KBKB 180025Z AUTO 00000KT 10SM CLR 28/26 A2987 350 87 1900 000/00 RMK AO2 T02780256
53988KBKB BKB20190817183010808/17/19 18:30:31  5-MIN KBKB 180030Z AUTO 00000KT 10SM CLR 28/26 A2987 340 87 1900 000/00 RMK AO2 T02780256
53988KBKB BKB20190817183510808/17/19 18:35:31  5-MIN KBKB 180035Z AUTO 00000KT 10SM CLR 27/26 A2987 340 90 1900 000/00 RMK AO2 T02720256
53988KBKB BKB20190817184010808/17/19 18:40:31  5-MIN KBKB 180040Z AUTO 00000KT 10SM CLR 27/26 A2987 340 90 1900 000/00 RMK AO2 T02720256
53988KBKB BKB20190817184510808/17/19 18:45:31  5-MIN KBKB 180045Z AUTO 00000KT 10SM CLR 27/26 A2987 340 90 1900 000/00 RMK AO2 T02720256
53988KBKB BKB20190817185011508/17/19 18:50:31  5-MIN KBKB 180050Z AUTO 00000KT 10SM CLR 27/26 A2987 340 90 1900 000/00 RMK AO2 SLP141 T02720256
53988KBKB BKB20190817185510808/17/19 18:55:31  5-MIN KBKB 180055Z AUTO 00000KT 10SM CLR 27/26 A2988 340 90 1900 000/00 RMK AO2 T02720256
53988KBKB BKB20190817190010808/17/19 19:00:31  5-MIN KBKB 180100Z AUTO 00000KT 10SM CLR 27/26 A2988 340 90 1900 000/00 RMK AO2 T02720256
53988KBKB BKB20190817190510808/17/19 19:05:31  5-MIN KBKB 180105Z AUTO 00000KT 10SM CLR 27/25 A2988 340 87 1900 000/00 RMK AO2 T02720250
53988KBKB BKB20190817191010808/17/19 19:10:31  5-MIN KBKB 180110Z AUTO 00000KT 10SM CLR 27/25 A2988 340 90 1800 000/00 RMK AO2 T02670250
53988KBKB BKB20190817191510808/17/19 19:15:31  5-MIN KBKB 180115Z AUTO 00000KT 10SM CLR 27/25 A2988 340 90 1800 000/00 RMK AO2 T02670250
53988KBKB BKB20190817192010808/17/19 19:20:31  5-MIN KBKB 180120Z AUTO 00000KT 10SM CLR 27/25 A2988 340 90 1800 000/00 RMK AO2 T02670250
53988KBKB BKB20190817192510808/17/19 19:25:31  5-MIN KBKB 180125Z AUTO 00000KT 10SM CLR 27/25 A2988 330 90 1800 000/00 RMK AO2 T02670250
53988KBKB BKB20190817193010808/17/19 19:30:31  5-MIN KBKB 180130Z AUTO 00000KT 10SM CLR 27/25 A2988 330 90 1800 000/00 RMK AO2 T02670250
53988KBKB BKB20190817193510808/17/19 19:35:31  5-MIN KBKB 180135Z AUTO 00000KT 10SM CLR 27/25 A2988 330 90 1800 000/00 RMK AO2 T02670250
53988KBKB BKB20190817194010808/17/19 19:40:31  5-MIN KBKB 180140Z AUTO 00000KT 10SM CLR 27/25 A2988 330 90 1800 000/00 RMK AO2 T02670250
53988KBKB BKB20190817194510808/17/19 19:45:31  5-MIN KBKB 180145Z AUTO 00000KT 10SM CLR 27/24 A2988 330 87 1800 000/00 RMK AO2 T02670244
53988KBKB BKB20190817195011508/17/19 19:50:31  5-MIN KBKB 180150Z AUTO 00000KT 10SM CLR 27/24 A2988 330 87 1800 000/00 RMK AO2 SLP144 T02670244
53988KBKB BKB20190817195510808/17/19 19:55:31  5-MIN KBKB 180155Z AUTO 00000KT 10SM CLR 27/24 A2988 330 87 1800 000/00 RMK AO2 T02670244
53988KBKB BKB20190817200010808/17/19 20:00:31  5-MIN KBKB 180200Z AUTO 00000KT 10SM CLR 26/24 A2989 330 90 1700 000/00 RMK AO2 T02610244
53988KBKB BKB20190817200510808/17/19 20:05:31  5-MIN KBKB 180205Z AUTO 00000KT 10SM CLR 26/24 A2989 330 90 1700 000/00 RMK AO2 T02610244
53988KBKB BKB20190817201010808/17/19 20:10:31  5-MIN KBKB 180210Z AUTO 00000KT 10SM CLR 26/24 A2989 330 90 1700 000/00 RMK AO2 T02610244
53988KBKB BKB20190817201510808/17/19 20:15:31  5-MIN KBKB 180215Z AUTO 00000KT 10SM CLR 26/24 A2989 330 93 1700 000/00 RMK AO2 T02560244
53988KBKB BKB20190817202010808/17/19 20:20:31  5-MIN KBKB 180220Z AUTO 00000KT 10SM CLR 26/24 A2989 330 93 1700 000/00 RMK AO2 T02560244
53988KBKB BKB20190817202510808/17/19 20:25:31  5-MIN KBKB 180225Z AUTO 00000KT 10SM CLR 26/24 A2989 330 93 1700 000/00 RMK AO2 T02560244
53988KBKB BKB20190817203010808/17/19 20:30:31  5-MIN KBKB 180230Z AUTO 00000KT 10SM CLR 26/24 A2989 330 90 1700 000/00 RMK AO2 T02560239
53988KBKB BKB20190817203510808/17/19 20:35:31  5-MIN KBKB 180235Z AUTO 00000KT 10SM CLR 26/24 A2989 330 90 1700 000/00 RMK AO2 T02560239
53988KBKB BKB20190817204010808/17/19 20:40:31  5-MIN KBKB 180240Z AUTO 00000KT 10SM CLR 26/24 A2989 330 90 1700 000/00 RMK AO2 T02560239
53988KBKB BKB20190817204510808/17/19 20:45:31  5-MIN KBKB 180245Z AUTO 00000KT 10SM CLR 26/24 A2989 320 90 1700 000/00 RMK AO2 T02560239
53988KBKB BKB20190817205012108/17/19 20:50:31  5-MIN KBKB 180250Z AUTO 00000KT 10SM CLR 26/24 A2989 320 90 1700 000/00 RMK AO2 SLP148 T02560239 55002
53988KBKB BKB20190817205510808/17/19 20:55:31  5-MIN KBKB 180255Z AUTO 00000KT 10SM CLR 26/24 A2990 320 90 1700 000/00 RMK AO2 T02560239
53988KBKB BKB20190817210010808/17/19 21:00:31  5-MIN KBKB 180300Z AUTO 00000KT 10SM CLR 26/24 A2990 320 90 1700 000/00 RMK AO2 T02560239
53988KBKB BKB20190817210510808/17/19 21:05:31  5-MIN KBKB 180305Z AUTO 00000KT 10SM CLR 26/24 A2990 320 90 1700 000/00 RMK AO2 T02560239
53988KBKB BKB20190817211010808/17/19 21:10:31  5-MIN KBKB 180310Z AUTO 00000KT 10SM CLR 26/24 A2990 320 90 1700 000/00 RMK AO2 T02560239
53988KBKB BKB20190817211510808/17/19 21:15:31  5-MIN KBKB 180315Z AUTO 00000KT 10SM CLR 26/24 A2990 310 90 1600 000/00 RMK AO2 T02560239
53988KBKB BKB20190817212010808/17/19 21:20:31  5-MIN KBKB 180320Z AUTO 00000KT 10SM CLR 26/24 A2990 310 90 1600 000/00 RMK AO2 T02560239
53988KBKB BKB20190817212510808/17/19 21:25:31  5-MIN KBKB 180325Z AUTO 00000KT 10SM CLR 26/24 A2991 310 90 1600 000/00 RMK AO2 T02560239
53988KBKB BKB20190817213010808/17/19 21:30:31  5-MIN KBKB 180330Z AUTO 00000KT 10SM CLR 26/24 A2991 310 90 1600 000/00 RMK AO2 T02560239
53988KBKB BKB20190817213510808/17/19 21:35:31  5-MIN KBKB 180335Z AUTO 00000KT 10SM CLR 26/24 A2991 310 90 1600 000/00 RMK AO2 T02560239
53988KBKB BKB20190817214010808/17/19 21:40:31  5-MIN KBKB 180340Z AUTO 00000KT 10SM CLR 26/24 A2990 310 90 1600 000/00 RMK AO2 T02560239
53988KBKB BKB20190817214510808/17/19 21:45:31  5-MIN KBKB 180345Z AUTO 00000KT 10SM CLR 26/24 A2991 310 90 1600 000/00 RMK AO2 T02560239
53988KBKB BKB20190817215011508/17/19 21:50:31  5-MIN KBKB 180350Z AUTO 00000KT 10SM CLR 26/24 A2991 310 90 1600 000/00 RMK AO2 SLP152 T02560239
53988KBKB BKB20190817215510808/17/19 21:55:31  5-MIN KBKB 180355Z AUTO 00000KT 10SM CLR 25/24 A2991 310 93 1600 000/00 RMK AO2 T02500239
53988KBKB BKB20190817220010808/17/19 22:00:31  5-MIN KBKB 180400Z AUTO 00000KT 10SM CLR 25/24 A2991 310 93 1600 000/00 RMK AO2 T02500239
53988KBKB BKB20190817220510808/17/19 22:05:31  5-MIN KBKB 180405Z AUTO 00000KT 10SM CLR 25/24 A2991 310 93 1600 000/00 RMK AO2 T02500239
53988KBKB BKB20190817221010808/17/19 22:10:31  5-MIN KBKB 180410Z AUTO 00000KT 10SM CLR 25/24 A2991 310 93 1600 000/00 RMK AO2 T02500239
53988KBKB BKB20190817221510808/17/19 22:15:31  5-MIN KBKB 180415Z AUTO VRB03KT 10SM CLR 25/24 A2991 300 93 1600 VRB/03 RMK AO2 T02500239
53988KBKB BKB20190817222010808/17/19 22:20:31  5-MIN KBKB 180420Z AUTO 00000KT 10SM CLR 26/24 A2991 300 90 1600 000/00 RMK AO2 T02560239
53988KBKB BKB20190817222510808/17/19 22:25:31  5-MIN KBKB 180425Z AUTO 00000KT 10SM CLR 26/24 A2991 300 90 1600 000/00 RMK AO2 T02560239
53988KBKB BKB20190817223010808/17/19 22:30:31  5-MIN KBKB 180430Z AUTO 00000KT 10SM CLR 26/24 A2991 300 90 1600 000/00 RMK AO2 T02560239
53988KBKB BKB20190817223510808/17/19 22:35:31  5-MIN KBKB 180435Z AUTO 00000KT 10SM CLR 26/24 A2991 310 90 1600 000/00 RMK AO2 T02560239
53988KBKB BKB20190817224010808/17/19 22:40:31  5-MIN KBKB 180440Z AUTO 00000KT 10SM CLR 26/24 A2991 310 90 1600 000/00 RMK AO2 T02560239
53988KBKB BKB20190817224510808/17/19 22:45:31  5-MIN KBKB 180445Z AUTO 00000KT 10SM CLR 26/24 A2991 310 90 1600 000/00 RMK AO2 T02560239
53988KBKB BKB20190817225011508/17/19 22:50:31  5-MIN KBKB 180450Z AUTO 00000KT 10SM CLR 26/24 A2991 310 90 1600 000/00 RMK AO2 SLP152 T02560239
53988KBKB BKB20190817225510808/17/19 22:55:31  5-MIN KBKB 180455Z AUTO VRB03KT 10SM CLR 26/24 A2991 310 90 1600 VRB/03 RMK AO2 T02560239
53988KBKB BKB20190817230010808/17/19 23:00:31  5-MIN KBKB 180500Z AUTO VRB03KT 10SM CLR 26/24 A2991 310 90 1600 VRB/03 RMK AO2 T02560239
53988KBKB BKB20190817230510808/17/19 23:05:31  5-MIN KBKB 180505Z AUTO 00000KT 10SM CLR 26/24 A2991 310 90 1600 000/00 RMK AO2 T02560239
53988KBKB BKB20190817231010808/17/19 23:10:31  5-MIN KBKB 180510Z AUTO 00000KT 10SM CLR 26/24 A2991 310 90 1600 000/00 RMK AO2 T02560239
53988KBKB BKB20190817231510808/17/19 23:15:31  5-MIN KBKB 180515Z AUTO 00000KT 10SM CLR 26/24 A2991 310 90 1600 000/00 RMK AO2 T02560239
53988KBKB BKB20190817232010808/17/19 23:20:31  5-MIN KBKB 180520Z AUTO 00000KT 10SM CLR 26/24 A2991 310 90 1600 000/00 RMK AO2 T02560239
53988KBKB BKB20190817232510808/17/19 23:25:31  5-MIN KBKB 180525Z AUTO 00000KT 10SM CLR 26/24 A2991 310 90 1600 000/00 RMK AO2 T02560239
53988KBKB BKB20190817233010808/17/19 23:30:31  5-MIN KBKB 180530Z AUTO 00000KT 10SM CLR 26/24 A2991 310 90 1600 000/00 RMK AO2 T02560239
53988KBKB BKB20190817233510808/17/19 23:35:31  5-MIN KBKB 180535Z AUTO 00000KT 10SM CLR 26/24 A2991 310 90 1600 000/00 RMK AO2 T02560239
53988KBKB BKB20190817234010808/17/19 23:40:31  5-MIN KBKB 180540Z AUTO 00000KT 10SM CLR 26/24 A2991 310 93 1600 000/00 RMK AO2 T02560244
53988KBKB BKB20190817234510808/17/19 23:45:31  5-MIN KBKB 180545Z AUTO 00000KT 10SM CLR 26/24 A2991 310 93 1600 000/00 RMK AO2 T02560244
53988KBKB BKB20190817235014308/17/19 23:50:31  5-MIN KBKB 180550Z AUTO 00000KT 10SM CLR 26/24 A2991 310 93 1600 000/00 RMK AO2 SLP153 T02560244 10289 20250 403390239 51012
53988KBKB BKB20190817235510808/17/19 23:55:31  5-MIN KBKB 180555Z AUTO 00000KT 10SM CLR 25/24 A2991 310 97 1600 000/00 RMK AO2 T02500244
53988KBKB BKB20190818000010808/18/19 00:00:31  5-MIN KBKB 180600Z AUTO 00000KT 10SM CLR 25/24 A2991 310 93 1600 000/00 RMK AO2 T02500239
53988KBKB BKB20190818000510808/18/19 00:05:31  5-MIN KBKB 180605Z AUTO 00000KT 10SM CLR 25/24 A2991 310 93 1600 000/00 RMK AO2 T02500239
53988KBKB BKB20190818001010808/18/19 00:10:31  5-MIN KBKB 180610Z AUTO 00000KT 10SM CLR 25/24 A2991 310 93 1600 000/00 RMK AO2 T02500239
53988KBKB BKB20190818001510708/18/19 00:15:31  5-MIN KBKB 180615Z AUTO 00000KT 9SM CLR 25/24 A2991 310 93 1600 000/00 RMK AO2 T02500239
53988KBKB BKB20190818002010708/18/19 00:20:31  5-MIN KBKB 180620Z AUTO 00000KT 8SM CLR 25/24 A2991 310 93 1600 000/00 RMK AO2 T02500239
53988KBKB BKB20190818002510708/18/19 00:25:31  5-MIN KBKB 180625Z AUTO 00000KT 7SM CLR 25/24 A2991 310 93 1600 000/00 RMK AO2 T02500239
53988KBKB BKB20190818003010708/18/19 00:30:31  5-MIN KBKB 180630Z AUTO 00000KT 8SM CLR 25/24 A2990 310 93 1600 000/00 RMK AO2 T02500239
53988KBKB BKB20190818003510708/18/19 00:35:31  5-MIN KBKB 180635Z AUTO 00000KT 9SM CLR 25/24 A2991 310 93 1600 000/00 RMK AO2 T02500239
53988KBKB BKB20190818004010708/18/19 00:40:31  5-MIN KBKB 180640Z AUTO 00000KT 8SM CLR 25/24 A2990 310 93 1600 000/00 RMK AO2 T02500239
53988KBKB BKB20190818004510708/18/19 00:45:31  5-MIN KBKB 180645Z AUTO 00000KT 9SM CLR 25/24 A2990 310 93 1600 000/00 RMK AO2 T02500239
53988KBKB BKB20190818005011408/18/19 00:50:31  5-MIN KBKB 180650Z AUTO 00000KT 9SM CLR 25/24 A2990 320 93 1600 000/00 RMK AO2 SLP150 T02500239
53988KBKB BKB20190818005510708/18/19 00:55:31  5-MIN KBKB 180655Z AUTO 00000KT 8SM CLR 25/24 A2990 320 93 1600 000/00 RMK AO2 T02500239
53988KBKB BKB20190818010013608/18/19 01:00:31  5-MIN KBKB 180700Z AUTO 00000KT 8SM CLR 25/24 A2990 320 93 13 FEW029 25/24 A2990 310 93 1600 000/00 RMK AO2 T02500239
53988KBKB BKB20190818013511708/18/19 01:35:31  5-MIN KBKB 180735Z AUTO 00000KT 9SM SCT023 SCT029 25/24 A2990 310 93 1600 000/00 RMK AO2 T02500239
53988KBKB BKB20190818014011708/18/19 01:40:31  5-MIN KBKB 180740Z AUTO 00000KT 9SM FEW023 SCT029 25/24 A2990 310 93 1600 000/00 RMK AO2 T02500239
53988KBKB BKB20190818014511708/18/19 01:45:31  5-MIN KBKB 180745Z AUTO 00000KT 8SM FEW023 FEW029 25/24 A2990 310 93 1600 000/00 RMK AO2 T02500239
53988KBKB BKB20190818015012008/18/19 01:50:31  5-MIN KBKB 180750Z AUTO 00000KT 6SM BR FEW023 25/24 A2990 310 93 1600 000/00 RMK AO2 SLP151 T02500239
53988KBKB BKB20190818015014508/18/19 01:50:31  5-MIN KBKB 180750Z AUTO 00000KT 6SM BR FEW023 25/TO 00000KT 9SM SCT023 SCT029 25/24 A2990 310 93 1600 000/00 RMK AO2 T02500239
53988KBKB BKB20190818015511308/18/19 01:55:31  5-MIN KBKB 180755Z AUTO 00000KT 5SM BR FEW023 25/24 A2990 310 93 1600 000/00 RMK AO2 T02500239
53988KBKB BKB20190818020011008/18/19 02:00:31  5-MIN KBKB 180800Z AUTO 00000KT 5SM BR CLR 25/24 A2990 310 93 1600 000/00 RMK AO2 T02500239
53988KBKB BKB20190818020014608/18/19 02:00:31  5-MIN KBKB 180800Z AUTO :31  5-MIN KBKB 180740Z AUTO 00000KT 9SM FEW023 SCT029 25/24 A2990 310 93 1600 000/00 RMK AO2 T02500239
53988KBKB BKB20190818020511008/18/19 02:05:31  5-MIN KBKB 180805Z AUTO 00000KT 5SM BR CLR 25/24 A2990 320 93 1600 000/00 RMK AO2 T02500239
53988KBKB BKB20190818021011008/18/19 02:10:31  5-MIN KBKB 180810Z AUTO 00000KT 5SM BR CLR 24/24 A2990 320 97 1500 000/00 RMK AO2 T02440239
53988KBKB BKB20190818021511008/18/19 02:15:31  5-MIN KBKB 180815Z AUTO 00000KT 5SM BR CLR 24/24 A2990 320 97 1500 000/00 RMK AO2 T02440239
53988KBKB BKB20190818022011008/18/19 02:20:31  5-MIN KBKB 180820Z AUTO 00000KT 5SM BR CLR 24/24 A2990 320 97 1500 000/00 RMK AO2 T02440239
53988KBKB BKB20190818022511008/18/19 02:25:31  5-MIN KBKB 180825Z AUTO 00000KT 5SM BR CLR 24/24 A2990 320 97 1500 000/00 RMK AO2 T02440239
53988KBKB BKB20190818023010708/18/19 02:30:31  5-MIN KBKB 180830Z AUTO 00000KT 7SM CLR 25/24 A2990 320 93 1600 000/00 RMK AO2 T02500239
53988KBKB BKB20190818023510708/18/19 02:35:31  5-MIN KBKB 180835Z AUTO 00000KT 9SM CLR 25/24 A2990 320 93 1600 000/00 RMK AO2 T02500239
53988KBKB BKB20190818024010708/18/19 02:40:31  5-MIN KBKB 180840Z AUTO 00000KT 8SM CLR 24/24 A2990 320 97 1500 000/00 RMK AO2 T02440239
53988KBKB BKB20190818024510708/18/19 02:45:31  5-MIN KBKB 180845Z AUTO 00000KT 7SM CLR 24/24 A2990 320 97 1500 000/00 RMK AO2 T02440239
53988KBKB BKB20190818025012008/18/19 02:50:31  5-MIN KBKB 180850Z AUTO 00000KT 7SM CLR 24/24 A2990 320 97 1500 000/00 RMK AO2 SLP149 T02440239 51005
53988KBKB BKB20190818025511008/18/19 02:55:31  5-MIN KBKB 180855Z AUTO 00000KT 6SM BR CLR 24/24 A2990 320 97 1500 000/00 RMK AO2 T02440239
53988KBKB BKB20190818030011008/18/19 03:00:31  5-MIN KBKB 180900Z AUTO 00000KT 6SM BR CLR 24/24 A2990 320 97 1500 000/00 RMK AO2 T02440239
53988KBKB BKB20190818030510708/18/19 03:05:31  5-MIN KBKB 180905Z AUTO 00000KT 7SM CLR 24/24 A2990 320 97 1500 000/00 RMK AO2 T02440239
53988KBKB BKB20190818031010708/18/19 03:10:31  5-MIN KBKB 180910Z AUTO 00000KT 7SM CLR 24/24 A2990 320 97 1500 000/00 RMK AO2 T02440239
53988KBKB BKB20190818031511008/18/19 03:15:31  5-MIN KBKB 180915Z AUTO 00000KT 7SM FEW003 24/24 A2990 320 97 1500 000/00 RMK AO2 T02440239
53988KBKB BKB20190818032011008/18/19 03:20:31  5-MIN KBKB 180920Z AUTO 00000KT 7SM SCT003 24/24 A2990 320 97 1500 000/00 RMK AO2 T02440239
53988KBKB BKB20190818032511008/18/19 03:25:31  5-MIN KBKB 180925Z AUTO 00000KT 7SM SCT003 24/24 A2990 320 97 1500 000/00 RMK AO2 T02440239
53988KBKB BKB20190818033011008/18/19 03:30:31  5-MIN KBKB 180930Z AUTO 00000KT 7SM BKN003 24/24 A2990 320 97 1500 000/00 RMK AO2 T02440239
53988KBKB BKB20190818033511308/18/19 03:35:31  5-MIN KBKB 180935Z AUTO 00000KT 6SM BR BKN003 24/24 A2990 320 97 1500 000/00 RMK AO2 T02440239
53988KBKB BKB20190818034011308/18/19 03:40:31  5-MIN KBKB 180940Z AUTO 00000KT 6SM BR BKN003 25/24 A2990 320 93 1600 000/00 RMK AO2 T02500239
53988KBKB BKB20190818034511308/18/19 03:45:31  5-MIN KBKB 180945Z AUTO 00000KT 6SM BR OVC003 25/24 A2990 320 93 1600 000/00 RMK AO2 T02500239
53988KBKB BKB20190818035012808/18/19 03:50:31  5-MIN KBKB 180950Z AUTO 00000KT 6SM BR OVC003 25/24 FG VV002 25/24 A2991 310 97 1600 000/00 RMK AO2 T02500244
53988KBKB BKB20190818040011308/18/19 04:00:31  5-MIN KBKB 181000Z AUTO 00000KT 4SM BR OVC002 25/24 A2990 310 93 1600 000/00 RMK AO2 T02500239
53988KBKB BKB20190818040511308/18/19 04:05:31  5-MIN KBKB 181005Z AUTO 00000KT 3SM BR OVC002 25/24 A2990 320 93 1600 000/00 RMK AO2 T02500239
53988KBKB BKB20190818041011708/18/19 04:10:31  5-MIN KBKB 181010Z AUTO 00000KT 2 1/2SM BR OVC002 25/24 A2990 310 93 1600 000/00 RMK AO2 T02500239
53988KBKB BKB20190818041511308/18/19 04:15:31  5-MIN KBKB 181015Z AUTO 00000KT 2SM BR OVC002 25/24 A2990 310 93 1600 000/00 RMK AO2 T02500239
53988KBKB BKB20190818042011708/18/19 04:20:31  5-MIN KBKB 181020Z AUTO 00000KT 1 3/4SM BR OVC002 25/24 A2991 310 97 1600 000/00 RMK AO2 T02500244
53988KBKB BKB20190818042511708/18/19 04:25:31  5-MIN KBKB 181025Z AUTO 00000KT 1 1/4SM BR OVC002 25/24 A2991 310 97 1600 000/00 RMK AO2 T02500244
53988KBKB BKB20190818043011208/18/19 04:30:31  5-MIN KBKB 181030Z AUTO 00000KT 1SM BR VV002 25/24 A2991 310 97 1600 000/00 RMK AO2 T02500244
53988KBKB BKB20190818043511408/18/19 04:35:31  5-MIN KBKB 181035Z AUTO 00000KT 3/4SM BR VV002 25/24 A2991 310 97 1600 000/00 RMK AO2 T02500244
53988KBKB BKB20190818044011408/18/19 04:40:31  5-MIN KBKB 181040Z AUTO 00000KT 1/2SM FG VV002 25/24 A2991 310 97 1600 000/00 RMK AO2 T02500244
53988KBKB BKB20190818044511408/18/19 04:45:31  5-MIN KBKB 181045Z AUTO 00000KT 1/2SM FG VV002 25/24 A2991 310 97 1600 000/00 RMK AO2 T02500244
53988KBKB BKB20190818045012108/18/19 04:50:31  5-MIN KBKB 181050Z AUTO 00000KT 1/2SM FG VV002 25/24 A2991 310 93 1600 000/00 RMK AO2 SLP154 T02500239
53988KBKB BKB20190818045511408/18/19 04:55:31  5-MIN KBKB 181055Z AUTO 00000KT 1/2SM FG VV002 25/24 A2991 310 97 1600 000/00 RMK AO2 T02500244
53988KBKB BKB20190818050011408/18/19 05:00:31  5-MIN KBKB 181100Z AUTO 00000KT 1/2SM FG VV002 25/24 A2991 310 97 1600 000/00 RMK AO2 T02500244
53988KBKB BKB20190818050511408/18/19 05:05:31  5-MIN KBKB 181105Z AUTO 00000KT 1/2SM FG VV002 25/24 A2991 300 97 1600 000/00 RMK AO2 T02500244
53988KBKB BKB20190818051011408/18/19 05:10:31  5-MIN KBKB 181110Z AUTO 00000KT 1/2SM FG VV002 24/24 A2991 310 97 1500 000/00 RMK AO2 T02440239
53988KBKB BKB20190818051511408/18/19 05:15:31  5-MIN KBKB 181115Z AUTO 00000KT 1/2SM FG VV002 24/24 A2991 300 97 1500 000/00 RMK AO2 T02440239
53988KBKB BKB20190818052011408/18/19 05:20:31  5-MIN KBKB 181120Z AUTO 00000KT 1/2SM FG VV002 24/24 A2992 300 97 1500 000/00 RMK AO2 T02440239
53988KBKB BKB20190818052511408/18/19 05:25:31  5-MIN KBKB 181125Z AUTO 00000KT 1/4SM FG VV002 24/24 A2992 300 97 1500 000/00 RMK AO2 T02440239
53988KBKB BKB20190818053011408/18/19 05:30:31  5-MIN KBKB 181130Z AUTO 00000KT 1/4SM FG VV002 24/24 A2992 300 97 1500 000/00 RMK AO2 T02440239
53988KBKB BKB20190818053511408/18/19 05:35:31  5-MIN KBKB 181135Z AUTO 00000KT 1/4SM FG VV002 24/24 A2992 300 97 1500 000/00 RMK AO2 T02440239
53988KBKB BKB20190818054011408/18/19 05:40:31  5-MIN KBKB 181140Z AUTO 00000KT 1/4SM FG VV002 24/24 A2993 290 97 1500 000/00 RMK AO2 T02440239
53988KBKB BKB20190818054511408/18/19 05:45:31  5-MIN KBKB 181145Z AUTO 00000KT 1/4SM FG VV002 25/24 A2993 290 97 1600 000/00 RMK AO2 T02500244
53988KBKB BKB20190818055014508/18/19 05:50:31  5-MIN KBKB 181150Z AUTO 00000KT 1/4SM FG VV002 24/24 A2993 290 97 1500 000/00 RMK AO2 SLP161 70125 T02440239 10250 20244 56004
53988KBKB BKB20190818055511508/18/19 05:55:31  5-MIN KBKB 181155Z AUTO 00000KT 1/4SM FG VV002 24/24 A2993 290 100 1500 000/00 RMK AO2 T02440244
53988KBKB BKB20190818060011408/18/19 06:00:31  5-MIN KBKB 181200Z AUTO 00000KT 1/4SM FG VV002 25/24 A2993 290 97 1600 000/00 RMK AO2 T02500244
53988KBKB BKB20190818060511408/18/19 06:05:31  5-MIN KBKB 181205Z AUTO 00000KT 1/4SM FG VV002 25/24 A2993 290 97 1500 000/00 RMK AO2 T02500244
53988KBKB BKB20190818061011408/18/19 06:10:31  5-MIN KBKB 181210Z AUTO 00000KT 1/4SM FG VV002 25/24 A2994 280 97 1500 000/00 RMK AO2 T02500244
53988KBKB BKB20190818061511408/18/19 06:15:31  5-MIN KBKB 181215Z AUTO 00000KT 1/2SM FG VV002 25/24 A2994 280 97 1500 000/00 RMK AO2 T02500244
53988KBKB BKB20190818062011408/18/19 06:20:31  5-MIN KBKB 181220Z AUTO 00000KT 3/4SM BR VV002 25/24 A2994 280 97 1500 000/00 RMK AO2 T02500244
53988KBKB BKB20190818062511408/18/19 06:25:31  5-MIN KBKB 181225Z AUTO 00000KT 3/4SM BR VV002 25/24 A2994 280 97 1500 000/00 RMK AO2 T02500244
53988KBKB BKB20190818063011408/18/19 06:30:31  5-MIN KBKB 181230Z AUTO 00000KT 3/4SM BR VV002 25/24 A2994 280 97 1500 000/00 RMK AO2 T02500244
53988KBKB BKB20190818063511408/18/19 06:35:31  5-MIN KBKB 181235Z AUTO 14003KT 3/4SM BR VV002 25/24 A2994 280 97 1500 130/03 RMK AO2 T02500244
53988KBKB BKB20190818064011408/18/19 06:40:31  5-MIN KBKB 181240Z AUTO 00000KT 3/4SM BR VV002 25/24 A2994 280 97 1500 000/00 RMK AO2 T02500244
53988KBKB BKB20190818064511208/18/19 06:45:31  5-MIN KBKB 181245Z AUTO 00000KT 1SM BR VV002 25/24 A2994 280 97 1500 000/00 RMK AO2 T02500244
53988KBKB BKB20190818065012408/18/19 06:50:31  5-MIN KBKB 181250Z AUTO 00000KT 1 1/4SM BR OVC002 25/24 A2994 280 97 1500 000/00 RMK AO2 SLP165 T02500244
53988KBKB BKB20190818065511708/18/19 06:55:31  5-MIN KBKB 181255Z AUTO 13003KT 1 3/4SM BR OVC002 26/25 A2994 280 97 1600 130/03 RMK AO2 T02560250
53988KBKB BKB20190818070011308/18/19 07:00:31  5-MIN KBKB 181300Z AUTO 00000KT 3SM BR OVC002 26/25 A2995 270 97 1600 000/00 RMK AO2 T02560250
53988KBKB BKB20190818070511308/18/19 07:05:31  5-MIN KBKB 181305Z AUTO 00000KT 5SM BR OVC002 26/25 A2994 280 97 1600 000/00 RMK AO2 T02560250
53988KBKB BKB20190818071011008/18/19 07:10:31  5-MIN KBKB 181310Z AUTO VRB03KT 7SM OVC002 26/25 A2994 280 97 1600 VRB/03 RMK AO2 T02560250
53988KBKB BKB20190818071511108/18/19 07:15:31  5-MIN KBKB 181315Z AUTO 00000KT 10SM BKN002 26/25 A2994 280 93 1700 000/00 RMK AO2 T02610250
53988KBKB BKB20190818072011108/18/19 07:20:31  5-MIN KBKB 181320Z AUTO 00000KT 10SM BKN002 26/26 A2994 280 97 1700 000/00 RMK AO2 T02610256
53988KBKB BKB20190818072511108/18/19 07:25:31  5-MIN KBKB 181325Z AUTO VRB03KT 10SM SCT002 26/25 A2995 270 93 1700 VRB/03 RMK AO2 T02610250
53988KBKB BKB20190818073011108/18/19 07:30:31  5-MIN KBKB 181330Z AUTO VRB03KT 10SM SCT002 26/25 A2995 270 93 1700 VRB/03 RMK AO2 T02610250
53988KBKB BKB20190818073511108/18/19 07:35:31  5-MIN KBKB 181335Z AUTO VRB03KT 10SM FEW002 26/25 A2995 280 93 1700 VRB/03 RMK AO2 T02610250
53988KBKB BKB20190818074011108/18/19 07:40:31  5-MIN KBKB 181340Z AUTO 00000KT 10SM FEW002 27/25 A2994 280 90 1700 000/00 RMK AO2 T02670250
53988KBKB BKB20190818074510808/18/19 07:45:31  5-MIN KBKB 181345Z AUTO VRB03KT 10SM CLR 27/26 A2995 280 93 1700 VRB/03 RMK AO2 T02670256
53988KBKB BKB20190818075011508/18/19 07:50:31  5-MIN KBKB 181350Z AUTO 00000KT 10SM CLR 27/26 A2995 280 90 1800 000/00 RMK AO2 SLP165 T02720256
53988KBKB BKB20190818075510808/18/19 07:55:31  5-MIN KBKB 181355Z AUTO VRB03KT 10SM CLR 28/26 A2994 280 87 1900 VRB/03 RMK AO2 T02780256
53988KBKB BKB20190818080010808/18/19 08:00:31  5-MIN KBKB 181400Z AUTO VRB03KT 10SM CLR 28/26 A2995 270 85 1900 VRB/03 RMK AO2 T02830256
53988KBKB BKB20190818080510808/18/19 08:05:31  5-MIN KBKB 181405Z AUTO VRB04KT 10SM CLR 29/25 A2995 270 79 2000 VRB/04 RMK AO2 T02890250
53988KBKB BKB20190818081010808/18/19 08:10:31  5-MIN KBKB 181410Z AUTO VRB04KT 10SM CLR 29/26 A2995 270 82 2000 VRB/04 RMK AO2 T02890256
53988KBKB BKB20190818081510808/18/19 08:15:31  5-MIN KBKB 181415Z AUTO VRB03KT 10SM CLR 29/25 A2995 270 79 2000 VRB/03 RMK AO2 T02890250
53988KBKB BKB20190818082010808/18/19 08:20:31  5-MIN KBKB 181420Z AUTO 00000KT 10SM CLR 29/26 A2995 270 79 2000 000/00 RMK AO2 T02940256
53988KBKB BKB20190818082510808/18/19 08:25:31  5-MIN KBKB 181425Z AUTO 00000KT 10SM CLR 30/26 A2995 270 77 2100 000/00 RMK AO2 T03000256
53988KBKB BKB20190818083010808/18/19 08:30:31  5-MIN KBKB 181430Z AUTO VRB04KT 10SM CLR 30/26 A2995 270 77 2100 VRB/04 RMK AO2 T03000256
53988KBKB BKB20190818083510808/18/19 08:35:31  5-MIN KBKB 181435Z AUTO VRB03KT 10SM CLR 29/25 A2995 270 76 2000 VRB/03 RMK AO2 T02940250
53988KBKB BKB20190818084010808/18/19 08:40:31  5-MIN KBKB 181440Z AUTO VRB03KT 10SM CLR 30/26 A2995 270 77 2100 VRB/03 RMK AO2 T03000256
53988KBKB BKB20190818084511108/18/19 08:45:31  5-MIN KBKB 181445Z AUTO 19004KT 10SM FEW021 30/26 A2996 270 77 2100 190/04 RMK AO2 T03000256
53988KBKB BKB20190818085012408/18/19 08:50:31  5-MIN KBKB 181450Z AUTO VRB04KT 10SM FEW021 30/25 A2996 260 74 2100 VRB/04 RMK AO2 SLP169 T03000250 53012
53988KBKB BKB20190818085511108/18/19 08:55:31  5-MIN KBKB 181455Z AUTO 00000KT 10SM FEW021 29/25 A2996 270 76 2000 000/00 RMK AO2 T02940250
53988KBKB BKB20190818090011808/18/19 09:00:31  5-MIN KBKB 181500Z AUTO 00000KT 10SM FEW020 SCT026 30/25 A2996 260 74 2100 000/00 RMK AO2 T03000250
53988KBKB BKB20190818090512508/18/19 09:05:31  5-MIN KBKB 181505Z AUTO 00000KT 10SM FEW020 SCT028 BKN034 30/25 A2996 260 74 2100 000/00 RMK AO2 T03000250
53988KBKB BKB20190818091012508/18/19 09:10:31  5-MIN KBKB 181510Z AUTO VRB03KT 10SM FEW020 SCT028 BKN036 30/25 A2996 260 74 2100 VRB/03 RMK AO2 T03000250
53988KBKB BKB20190818091512508/18/19 09:15:31  5-MIN KBKB 181515Z AUTO VRB03KT 10SM FEW020 SCT028 BKN037 31/26 A2996 260 74 2100 VRB/03 RMK AO2 T03060256
53988KBKB BKB20190818092012508/18/19 09:20:31  5-MIN KBKB 181520Z AUTO VRB03KT 10SM FEW024 SCT030 BKN039 31/25 A2996 260 72 2100 VRB/03 RMK AO2 T03060250
53988KBKB BKB20190818092512508/18/19 09:25:31  5-MIN KBKB 181525Z AUTO VRB03KT 10SM FEW024 BKN037 BKN046 31/25 A2996 260 72 2100 VRB/03 RMK AO2 T03060250
53988KBKB BKB20190818093012508/18/19 09:30:31  5-MIN KBKB 181530Z AUTO 00000KT 10SM SCT027 SCT037 BKN046 31/25 A2996 260 72 2100 000/00 RMK AO2 T03060250
53988KBKB BKB20190818093512508/18/19 09:35:31  5-MIN KBKB 181535Z AUTO VRB04KT 10SM FEW027 SCT037 BKN046 31/25 A2996 270 72 2100 VRB/04 RMK AO2 T03060250
53988KBKB BKB20190818094012508/18/19 09:40:31  5-MIN KBKB 181540Z AUTO VRB03KT 10SM FEW027 FEW037 SCT046 31/25 A2996 260 69 2200 VRB/03 RMK AO2 T03110250
53988KBKB BKB20190818094512508/18/19 09:45:31  5-MIN KBKB 181545Z AUTO VRB03KT 10SM FEW027 FEW038 SCT049 32/25 A2995 270 67 2300 VRB/03 RMK AO2 T03170250
53988KBKB BKB20190818095013208/18/19 09:50:31  5-MIN KBKB 181550Z AUTO VRB04KT 10SM FEW026 SCT044 SCT049 31/25 A2995 270 69 2200 VRB/04 RMK AO2 SLP168 T03110250
53988KBKB BKB20190818095511808/18/19 09:55:31  5-MIN KBKB 181555Z AUTO 00000KT 10SM FEW026 FEW042 32/25 A2995 270 65 2300 000/00 RMK AO2 T03220250
53988KBKB BKB20190818100011108/18/19 10:00:31  5-MIN KBKB 181600Z AUTO 23004KT 10SM FEW042 32/26 A2996 270 67 2300 230/04 RMK AO2 T03220256
53988KBKB BKB20190818100511808/18/19 10:05:31  5-MIN KBKB 181605Z AUTO VRB04KT 10SM FEW030 FEW038 31/24 A2996 270 67 2200 VRB/04 RMK AO2 T03110244
53988KBKB BKB20190818101011808/18/19 10:10:31  5-MIN KBKB 181610Z AUTO 00000KT 10SM FEW030 SCT038 31/24 A2996 270 69 2100 000/00 RMK AO2 T03060244
53988KBKB BKB20190818101511808/18/19 10:15:31  5-MIN KBKB 181615Z AUTO VRB03KT 10SM FEW030 FEW040 32/25 A2995 270 67 2300 VRB/03 RMK AO2 T03170250
53988KBKB BKB20190818102011108/18/19 10:20:31  5-MIN KBKB 181620Z AUTO 00000KT 10SM FEW030 31/24 A2995 270 67 2200 000/00 RMK AO2 T03110244
53988KBKB BKB20190818102511108/18/19 10:25:31  5-MIN KBKB 181625Z AUTO VRB04KT 10SM FEW030 32/24 A2995 270 63 2300 VRB/04 RMK AO2 T03220244
53988KBKB BKB20190818103011808/18/19 10:30:31  5-MIN KBKB 181630Z AUTO VRB04KT 10SM FEW030 FEW035 33/24 A2995 270 61 2400 VRB/04 RMK AO2 T03280244
53988KBKB BKB20190818103511108/18/19 10:35:31  5-MIN KBKB 181635Z AUTO VRB04KT 10SM FEW032 32/24 A2995 270 63 2300 VRB/04 RMK AO2 T03170239
53988KBKB BKB20190818104010108/18/19 10:40:31  5-MIN KBKB 181640Z AUTO 10SM FEW032 32/24 A2995 270 63 2300 M /M RMK AO2 T03220244
53988KBKB BKB20190818104511108/18/19 10:45:31  5-MIN KBKB 181645Z AUTO 00000KT 10SM FEW034 32/24 A2995 270 65 2300 000/00 RMK AO2 T03170244
53988KBKB BKB20190818105012508/18/19 10:50:31  5-MIN KBKB 181650Z AUTO VRB05KT 10SM FEW034 SCT044 33/24 A2995 270 61 2400 VRB/05 RMK AO2 SLP164 T03280244
53988KBKB BKB20190818105511808/18/19 10:55:31  5-MIN KBKB 181655Z AUTO VRB04KT 10SM FEW034 SCT044 33/24 A2994 280 59 2500 VRB/04 RMK AO2 T03330244
53988KBKB BKB20190818110011808/18/19 11:00:31  5-MIN KBKB 181700Z AUTO VRB05KT 10SM FEW036 SCT044 33/24 A2994 280 59 2400 VRB/05 RMK AO2 T03280239
53988KBKB BKB20190818110511808/18/19 11:05:31  5-MIN KBKB 181705Z AUTO VRB03KT 10SM FEW036 SCT044 32/24 A2994 280 61 2300 VRB/03 RMK AO2 T03220239
53988KBKB BKB20190818111011808/18/19 11:10:31  5-MIN KBKB 181710Z AUTO 00000KT 10SM FEW036 SCT044 32/24 A2994 280 61 2300 000/00 RMK AO2 T03220239
53988KBKB BKB20190818111511808/18/19 11:15:31  5-MIN KBKB 181715Z AUTO VRB04KT 10SM FEW036 FEW044 33/24 A2994 280 59 2500 VRB/04 RMK AO2 T03330244
53988KBKB BKB20190818112011108/18/19 11:20:31  5-MIN KBKB 181720Z AUTO VRB04KT 10SM FEW036 33/24 A2994 280 57 2500 VRB/04 RMK AO2 T03330239
53988KBKB BKB20190818112516508/18/19 11:25:31  5-MIN KBKB 181725Z AUTO VRB04KT 10SM FEW038 33/24 A2994 280 57 2500 VRB/04 RMK AO2 T03330239EW043 34/24 A2993 290 53 2600 VRB/04 RMK AO2 T03440239
53988KBKB BKB20190818121511108/18/19 12:15:31  5-MIN KBKB 181815Z AUTO VRB03KT 10SM FEW044 34/23 A2993 290 52 2600 VRB/03 RMK AO2 T03440233
53988KBKB BKB20190818122011108/18/19 12:20:31  5-MIN KBKB 181820Z AUTO VRB03KT 10SM FEW044 34/23 A2993 290 50 2600 VRB/03 RMK AO2 T03440228
53988KBKB BKB20190818122511108/18/19 12:25:31  5-MIN KBKB 181825Z AUTO VRB06KT 10SM FEW044 34/23 A2993 290 52 2600 VRB/06 RMK AO2 T03440233
53988KBKB BKB20190818123010808/18/19 12:30:31  5-MIN KBKB 181830Z AUTO VRB03KT 10SM CLR 35/23 A2993 290 50 2700 VRB/03 RMK AO2 T03500233
53988KBKB BKB20190818123015908/18/19 12:30:31  5-MIN KBKB 181830Z AUTO VRB03KT 10SM CLR 35/23 A2993 290 50 2700 VRB/03 RMK AO2 T0350023308/18/19 12:35:290 53 2600 VRB/04 RMK AO2 T03440239
53988KBKB BKB20190818123511108/18/19 12:35:31  5-MIN KBKB 181835Z AUTO VRB05KT 10SM FEW047 34/23 A2993 290 53 2500 VRB/05 RMK AO2 T03390233
53988KBKB BKB20190818124011108/18/19 12:40:31  5-MIN KBKB 181840Z AUTO VRB04KT 10SM SCT047 34/23 A2992 300 53 2600 VRB/04 RMK AO2 T03390233
53988KBKB BKB20190818124016408/18/19 12:40:31  5-MIN KBKB 181840Z AUTO VRB04KT 10SM SCT047 34/23 A2992 300 53 2600 VRB/04 RMK AO2 T0339023308/18/19 12:45:31  5-M0 2600 VRB/03 RMK AO2 T03440228
53988KBKB BKB20190818124511108/18/19 12:45:31  5-MIN KBKB 181845Z AUTO VRB06KT 10SM SCT047 36/24 A2992 300 50 2700 VRB/06 RMK AO2 T03560239
53988KBKB BKB20190818125011808/18/19 12:50:31  5-MIN KBKB 181850Z AUTO 00000KT 10SM FEW047 36/24 A2992 300 50 2700 000/00 RMK AO2 SLP156 T03560239
53988KBKB BKB20190818125511808/18/19 12:55:31  5-MIN KBKB 181855Z AUTO 20007KT 10SM FEW047 SCT060 33/23 A2992 290 55 2500 190/07 RMK AO2 T03330233
53988KBKB BKB20190818130013408/18/19 13:00:31  5-MIN KBKB 181900Z AUTO 19007KT 140V270 10SM FEW047 SCT060 32/24 A2992 300 61 2400 180/07 140V270 RMK AO2 T03220239
53988KBKB BKB20190818130511808/18/19 13:05:31  5-MIN KBKB 181905Z AUTO VRB05KT 10SM FEW046 FEW060 33/23 A2993 290 57 2400 VRB/05 RMK AO2 T03280233
53988KBKB BKB20190818131011108/18/19 13:10:31  5-MIN KBKB 181910Z AUTO VRB06KT 10SM FEW060 33/23 A2993 290 57 2400 VRB/06 RMK AO2 T03280233
53988KBKB BKB20190818131511108/18/19 13:15:31  5-MIN KBKB 181915Z AUTO VRB05KT 10SM FEW060 32/23 A2993 290 59 2400 VRB/05 RMK AO2 T03220233
53988KBKB BKB20190818132010808/18/19 13:20:31  5-MIN KBKB 181920Z AUTO VRB05KT 10SM CLR 32/23 A2992 290 61 2300 VRB/05 RMK AO2 T03170233
53988KBKB BKB20190818132510808/18/19 13:25:31  5-MIN KBKB 181925Z AUTO VRB04KT 10SM CLR 33/24 A2992 300 59 2400 VRB/04 RMK AO2 T03280239
53988KBKB BKB20190818133010808/18/19 13:30:31  5-MIN KBKB 181930Z AUTO VRB06KT 10SM CLR 32/23 A2992 300 57 2400 VRB/06 RMK AO2 T03220228
53988KBKB BKB20190818133510808/18/19 13:35:31  5-MIN KBKB 181935Z AUTO VRB06KT 10SM CLR 32/23 A2991 300 57 2400 VRB/06 RMK AO2 T03220228
53988KBKB BKB20190818134010808/18/19 13:40:31  5-MIN KBKB 181940Z AUTO VRB05KT 10SM CLR 32/23 A2991 310 57 2400 VRB/05 RMK AO2 T03220228
53988KBKB BKB20190818134510808/18/19 13:45:31  5-MIN KBKB 181945Z AUTO VRB04KT 10SM CLR 32/23 A2991 310 57 2400 VRB/04 RMK AO2 T03220228
53988KBKB BKB20190818135011508/18/19 13:50:31  5-MIN KBKB 181950Z AUTO VRB04KT 10SM CLR 33/23 A2991 310 57 2400 VRB/04 RMK AO2 SLP152 T03280233
53988KBKB BKB20190818135510808/18/19 13:55:31  5-MIN KBKB 181955Z AUTO 00000KT 10SM CLR 33/23 A2991 310 57 2400 000/00 RMK AO2 T03280233
53988KBKB BKB20190818140009808/18/19 14:00:31  5-MIN KBKB 182000Z AUTO 10SM CLR 33/24 A2991 310 57 2500 M /M RMK AO2 T03330239
53988KBKB BKB20190818140510808/18/19 14:05:31  5-MIN KBKB 182005Z AUTO VRB05KT 10SM CLR 33/24 A2991 310 57 2500 VRB/05 RMK AO2 T03330239
53988KBKB BKB20190818141010808/18/19 14:10:31  5-MIN KBKB 182010Z AUTO VRB04KT 10SM CLR 33/24 A2991 310 59 2400 VRB/04 RMK AO2 T03280239
53988KBKB BKB20190818141510808/18/19 14:15:31  5-MIN KBKB 182015Z AUTO VRB05KT 10SM CLR 32/24 A2991 310 61 2400 VRB/05 RMK AO2 T03220239
53988KBKB BKB20190818142005708/18/19 14:20:31  5-MIN KBKB 182020Z AUTO VRB03KT 10SM44
53988KBKB BKB20190818155011808/18/19 15:50:31  5-MIN KBKB 182150Z AUTO 00000KT 10SM BKN120 31/25 A2991 300 69 2300 000/00 RMK AO2 SLP154 T03110250
53988KBKB BKB20190818155511108/18/19 15:55:31  5-MIN KBKB 182155Z AUTO VRB05KT 10SM SCT120 31/25 A2991 300 69 2300 VRB/05 RMK AO2 T03110250
53988KBKB BKB20190818165511108/18/19 16:55:31  5-MIN KBKB 182255Z AUTO 00000KT 10SM FEW100 31/25 A2992 300 69 2200 000/00 RMK AO2 T03110250
53988KBKB BKB20190818170011108/18/19 17:00:31  5-MIN KBKB 182300Z AUTO VRB03KT 10SM FEW100 31/24 A2992 300 69 2200 VRB/03 RMK AO2 T03060244
53988KBKB BKB20190818170511108/18/19 17:05:31  5-MIN KBKB 182305Z AUTO VRB03KT 10SM FEW100 31/24 A2991 300 69 2200 VRB/03 RMK AO2 T03060244
53988KBKB BKB20190818171011108/18/19 17:10:31  5-MIN KBKB 182310Z AUTO VRB03KT 10SM FEW100 31/24 A2991 310 69 2200 VRB/03 RMK AO2 T03060244
53988KBKB BKB20190818171511808/18/19 17:15:31  5-MIN KBKB 182315Z AUTO VRB03KT 10SM FEW100 30/23 A2990 320 67 2100 VRB/03 RMK AO2 PRESFR T03000233
53988KBKB BKB20190818172010808/18/19 17:20:31  5-MIN KBKB 182320Z AUTO VRB03KT 10SM CLR 29/23 A2990 310 69 2100 VRB/03 RMK AO2 T02940233
53988KBKB BKB20190818172510808/18/19 17:25:31  5-MIN KBKB 182325Z AUTO 00000KT 10SM CLR 29/23 A2990 310 69 2100 000/00 RMK AO2 T02940233
53988KBKB BKB20190818173010808/18/19 17:30:31  5-MIN KBKB 182330Z AUTO 00000KT 10SM CLR 29/24 A2990 310 71 2100 000/00 RMK AO2 T02940239
53988KBKB BKB20190818173510808/18/19 17:35:31  5-MIN KBKB 182335Z AUTO 00000KT 10SM CLR 29/24 A2991 310 71 2100 000/00 RMK AO2 T02940239
53988KBKB BKB20190818174010808/18/19 17:40:31  5-MIN KBKB 182340Z AUTO VRB03KT 10SM CLR 29/24 A2991 310 74 2100 VRB/03 RMK AO2 T02940244
53988KBKB BKB20190818174510808/18/19 17:45:31  5-MIN KBKB 182345Z AUTO VRB04KT 10SM CLR 29/24 A2991 310 74 2100 VRB/04 RMK AO2 T02940244
53988KBKB BKB20190818175013308/18/19 17:50:31  5-MIN KBKB 182350Z AUTO 00000KT 10SM CLR 29/24 A2991 310 74 2100 000/00 RMK AO2 SLP154 T02940244 10356 20294 55006
53988KBKB BKB20190818175510808/18/19 17:55:31  5-MIN KBKB 182355Z AUTO 00000KT 10SM CLR 29/24 A2991 300 74 2100 000/00 RMK AO2 T02940244
53988KBKB BKB20190818180010808/18/19 18:00:31  5-MIN KBKB 190000Z AUTO 00000KT 10SM CLR 29/24 A2992 300 76 2000 000/00 RMK AO2 T02890244
53988KBKB BKB20190818180510808/18/19 18:05:31  5-MIN KBKB 190005Z AUTO 00000KT 10SM CLR 29/24 A2992 300 76 2000 000/00 RMK AO2 T02890244
53988KBKB BKB20190818181010808/18/19 18:10:31  5-MIN KBKB 190010Z AUTO 00000KT 10SM CLR 29/24 A2992 300 76 2000 000/00 RMK AO2 T02890244
53988KBKB BKB20190818181510808/18/19 18:15:31  5-MIN KBKB 190015Z AUTO VRB03KT 10SM CLR 29/24 A2992 300 74 2000 VRB/03 RMK AO2 T02890239
53988KBKB BKB20190818182010808/18/19 18:20:31  5-MIN KBKB 190020Z AUTO 00000KT 10SM CLR 28/24 A2992 300 79 1900 000/00 RMK AO2 T02830244
53988KBKB BKB20190818182511108/18/19 18:25:31  5-MIN KBKB 190025Z AUTO VRB04KT 10SM FEW120 28/24 A2992 290 79 1900 VRB/04 RMK AO2 T02830244
53988KBKB BKB20190818183008008/18/19 18:30:31  5-MIN KBKB 190030Z AUTO VRB04KT 10SM  A2992 300 82 1900 V0244
53988KBKB BKB20190818185510808/18/19 18:55:31  5-MIN KBKB 190055Z AUTO VRB06KT 10SM CLR 27/24 A2992 300 82 1800 VRB/06 RMK AO2 T02720239
53988KBKB BKB20190818190010808/18/19 19:00:31  5-MIN KBKB 190100Z AUTO 00000KT 10SM CLR 27/24 A2992 300 82 1800 000/00 RMK AO2 T02720239
53988KBKB BKB20190818190510808/18/19 19:05:31  5-MIN KBKB 190105Z AUTO VRB03KT 10SM CLR 27/24 A2992 300 82 1800 VRB/03 RMK AO2 T02720239
53988KBKB BKB20190818191010808/18/19 19:10:31  5-MIN KBKB 190110Z AUTO 00000KT 10SM CLR 27/24 A2992 300 82 1800 000/00 RMK AO2 T02720239
53988KBKB BKB20190818191510808/18/19 19:15:31  5-MIN KBKB 190115Z AUTO VRB03KT 10SM CLR 27/24 A2991 300 84 1800 VRB/03 RMK AO2 T02720244
53988KBKB BKB20190818192010808/18/19 19:20:31  5-MIN KBKB 190120Z AUTO 00000KT 10SM CLR 27/24 A2991 300 87 1800 000/00 RMK AO2 T02670244
53988KBKB BKB20190818192515908/18/19 19:25:31  5-MIN KBKB 190125Z AUTO 00000KT 10SM CLR 27/24 A2992 300 87 1800 000/00 RMK AO2 T0267024408/1891 300 87 1800 000/00 RMK AO2 SLP155 T02670244
53988KBKB BKB20190818195510808/18/19 19:55:31  5-MIN KBKB 190155Z AUTO 00000KT 10SM CLR 27/24 A2992 300 87 1800 000/00 RMK AO2 T02670244
53988KBKB BKB20190818200010808/18/19 20:00:31  5-MIN KBKB 190200Z AUTO 00000KT 10SM CLR 26/24 A2992 300 90 1700 000/00 RMK AO2 T02610244
53988KBKB BKB20190818200510808/18/19 20:05:31  5-MIN KBKB 190205Z AUTO 00000KT 10SM CLR 26/24 A2993 290 90 1700 000/00 RMK AO2 T02610244
53988KBKB BKB20190818201010808/18/19 20:10:31  5-MIN KBKB 190210Z AUTO 00000KT 10SM CLR 26/24 A2993 290 90 1700 000/00 RMK AO2 T02610244
53988KBKB BKB20190818201510808/18/19 20:15:31  5-MIN KBKB 190215Z AUTO 00000KT 10SM CLR 26/24 A2993 290 90 1700 000/00 RMK AO2 T02610244
53988KBKB BKB20190818202010808/18/19 20:20:31  5-MIN KBKB 190220Z AUTO 00000KT 10SM CLR 26/24 A2994 280 90 1700 000/00 RMK AO2 T02610244
53988KBKB BKB20190818202510808/18/19 20:25:31  5-MIN KBKB 190225Z AUTO 00000KT 10SM CLR 26/24 A2994 280 90 1700 000/00 RMK AO2 T02610244
53988KBKB BKB20190818203010808/18/19 20:30:31  5-MIN KBKB 190230Z AUTO 00000KT 10SM CLR 26/24 A2994 280 93 1600 000/00 RMK AO2 T02560244
53988KBKB BKB20190818203510808/18/19 20:35:31  5-MIN KBKB 190235Z AUTO 00000KT 10SM CLR 26/24 A2993 290 93 1600 000/00 RMK AO2 T02560244
53988KBKB BKB20190818204010808/18/19 20:40:31  5-MIN KBKB 190240Z AUTO 00000KT 10SM CLR 26/24 A2994 280 93 1600 000/00 RMK AO2 T02560244
53988KBKB BKB20190818204510808/18/19 20:45:31  5-MIN KBKB 190245Z AUTO 00000KT 10SM CLR 26/24 A2994 280 93 1600 000/00 RMK AO2 T02560244
53988KBKB BKB20190818205012108/18/19 20:50:31  5-MIN KBKB 190250Z AUTO 00000KT 10SM CLR 26/24 A2993 290 93 1600 000/00 RMK AO2 SLP161 T02560244 58001
53988KBKB BKB20190818205510808/18/19 20:55:31  5-MIN KBKB 190255Z AUTO 00000KT 10SM CLR 26/24 A2993 290 93 1600 000/00 RMK AO2 T02560244
53988KBKB BKB20190818210010808/18/19 21:00:31  5-MIN KBKB 190300Z AUTO 00000KT 10SM CLR 26/24 A2993 290 93 1600 000/00 RMK AO2 T02560244
53988KBKB BKB20190818210510808/18/19 21:05:31  5-MIN KBKB 190305Z AUTO 00000KT 10SM CLR 26/24 A2993 290 93 1600 000/00 RMK AO2 T02560244
53988KBKB BKB20190818211010808/18/19 21:10:31  5-MIN KBKB 190310Z AUTO 00000KT 10SM CLR 26/24 A2994 280 93 1600 000/00 RMK AO2 T02560244
53988KBKB BKB20190818211510808/18/19 21:15:31  5-MIN KBKB 190315Z AUTO 00000KT 10SM CLR 26/24 A2994 280 90 1700 000/00 RMK AO2 T02610244
53988KBKB BKB20190818212010808/18/19 21:20:31  5-MIN KBKB 190320Z AUTO 00000KT 10SM CLR 26/24 A2994 280 93 1600 000/00 RMK AO2 T02560244
53988KBKB BKB20190818212510808/18/19 21:25:31  5-MIN KBKB 190325Z AUTO 00000KT 10SM CLR 26/24 A2994 280 93 1600 000/00 RMK AO2 T02560244
53988KBKB BKB20190818213010808/18/19 21:30:31  5-MIN KBKB 190330Z AUTO 00000KT 10SM CLR 26/24 A2994 280 93 1600 000/00 RMK AO2 T02560244
53988KBKB BKB20190818213511508/18/19 21:35:31  5-MIN KBKB 190335Z AUTO 00000KT 10SM CLR 26/24 A2994 280 93 1600 000/00 RMK AO2 SLP165 T02560244
53988KBKB BKB20190818215510808/18/19 21:55:31  5-MIN KBKB 190355Z AUTO 00000KT 10SM CLR 26/24 A2995 270 93 1600 000/00 RMK AO2 T02560244
53988KBKB BKB20190818220010808/18/19 22:00:31  5-MIN KBKB 190400Z AUTO 00000KT 10SM CLR 26/24 A2995 270 87 1700 000/00 RMK AO2 T02610239
53988KBKB BKB20190818220521608/18/19 22:05:31  5-MIN KBKB 190405Z AUTO 00000KT 10SM CLR 25/24 A29958/18/19 23:50:31  5-MIN KBKB 190550Z AUTO 00000KT 10SM FEW024 25/24 A2995 270 93 1500 000/00 RMK AO2 SLP167 T02500239 10294 20250 403560244 53006
53988KBKB BKB20190818235511108/18/19 23:55:31  5-MIN KBKB 190555Z AUTO 00000KT 10SM FEW023 25/24 A2995 270 93 1500 000/00 RMK AO2 T02500239
53988KBKB BKB20190819000014308/19/19 00:00:31  5-MIN KBKB 190600Z AUTO 00000KT 9SM FEW023 25/24 A2995 270 93 1500 000/00 RMK AO2 T02500239 97 1500 000/00 RMK AO2 T02440239
53988KBKB BKB20190819004510708/19/19 00:45:31  5-MIN KBKB 190645Z AUTO 00000KT 9SM CLR 24/24 A2995 270 97 1500 000/00 RMK AO2 T02440239
53988KBKB BKB20190819005011508/19/19 00:50:31  5-MIN KBKB 190650Z AUTO 00000KT 10SM CLR 25/24 A2995 270 93 1500 000/00 RMK AO2 SLP167 T02500239
53988KBKB BKB20190819005510808/19/19 00:55:31  5-MIN KBKB 190655Z AUTO 00000KT 10SM CLR 25/24 A2995 270 93 1500 000/00 RMK AO2 T02500239
53988KBKB BKB20190819010010808/19/19 01:00:31  5-MIN KBKB 190700Z AUTO 00000KT 10SM CLR 25/24 A2995 270 93 1500 000/00 RMK AO2 T02500239
53988KBKB BKB20190819010510708/19/19 01:05:31  5-MIN KBKB 190705Z AUTO 00000KT 9SM CLR 25/24 A2995 270 93 1500 000/00 RMK AO2 T02500239
53988KBKB BKB20190819011010708/19/19 01:10:31  5-MIN KBKB 190710Z AUTO 00000KT 9SM CLR 25/24 A2995 270 93 1500 000/00 RMK AO2 T02500239
53988KBKB BKB20190819011510708/19/19 01:15:31  5-MIN KBKB 190715Z AUTO 00000KT 9SM CLR 25/24 A2995 270 93 1500 000/00 RMK AO2 T02500239
53988KBKB BKB20190819012010708/19/19 01:20:31  5-MIN KBKB 190720Z AUTO 00000KT 8SM CLR 25/24 A2995 270 93 1500 000/00 RMK AO2 T02500239
53988KBKB BKB20190819012510708/19/19 01:25:31  5-MIN KBKB 190725Z AUTO 00000KT 8SM CLR 25/24 A2995 270 93 1500 000/00 RMK AO2 T02500239
53988KBKB BKB20190819013010708/19/19 01:30:31  5-MIN KBKB 190730Z AUTO 00000KT 7SM CLR 25/24 A2995 270 93 1500 000/00 RMK AO2 T02500239
53988KBKB BKB20190819013510708/19/19 01:35:31  5-MIN KBKB 190735Z AUTO 00000KT 7SM CLR 24/24 A2995 270 97 1500 000/00 RMK AO2 T02440239
53988KBKB BKB20190819014010708/19/19 01:40:31  5-MIN KBKB 190740Z AUTO 00000KT 7SM CLR 24/24 A2995 270 97 1500 000/00 RMK AO2 T02440239
53988KBKB BKB20190819014510708/19/19 01:45:31  5-MIN KBKB 190745Z AUTO 00000KT 7SM CLR 24/24 A2995 270 97 1500 000/00 RMK AO2 T02440239
53988KBKB BKB20190819015011708/19/19 01:50:31  5-MIN KBKB 190750Z AUTO 00000KT 6SM BR CLR 24/24 A2995 270 97 1500 000/00 RMK AO2 SLP165 T02440239
53988KBKB BKB20190819015511008/19/19 01:55:31  5-MIN KBKB 190755Z AUTO 00000KT 6SM BR CLR 24/24 A2995 270 97 1500 000/00 RMK AO2 T02440239
53988KBKB BKB20190819020011008/19/19 02:00:31  5-MIN KBKB 190800Z AUTO 00000KT 5SM BR CLR 24/24 A2995 270 97 1500 000/00 RMK AO2 T02440239
53988KBKB BKB20190819020511008/19/19 02:05:31  5-MIN KBKB 190805Z AUTO 00000KT 5SM BR CLR 24/24 A2995 270 97 1500 000/00 RMK AO2 T02440239
53988KBKB BKB20190820104511108/20/19 10:45:31  5-MIN KBKB 201645Z AUTO 00000KT 10SM FEW031 32/24 A3003 190 63 2200 000/00 RMK AO2 T03170239
53988KBKB BKB20190820105011808/20/19 10:50:31  5-MIN KBKB 201650Z AUTO VRB03KT 10SM FEW031 32/24 A3003 190 61 2200 VRB/03 RMK AO2 SLP194 T03220239
53988KBKB BKB20190820105511108/20/19 10:55:31  5-MIN KBKB 201655Z AUTO 19003KT 10SM SCT033 33/24 A3003 190 59 2300 190/03 RMK AO2 T03280239
53988KBKB BKB20190820110011108/20/19 11:00:31  5-MIN KBKB 201700Z AUTO VRB04KT 10SM BKN036 32/24 A3003 190 61 2200 VRB/04 RMK AO2 T03220239
53988KBKB BKB20190820110511108/20/19 11:05:31  5-MIN KBKB 201705Z AUTO VRB03KT 10SM BKN036 32/24 A3004 190 63 2200 VRB/03 RMK AO2 T03170239
53988KBKB BKB20190820111011108/20/19 11:10:31  5-MIN KBKB 201710Z AUTO 12003KT 10SM SCT036 32/24 A3003 190 61 2200 110/03 RMK AO2 T03220239
53988KBKB BKB20190820111511108/20/19 11:15:31  5-MIN KBKB 201715Z AUTO 00000KT 10SM SCT037 33/24 A3003 200 59 2300 000/00 RMK AO2 T03280239
53988KBKB BKB20190820112011108/20/19 11:20:31  5-MIN KBKB 201720Z AUTO 00000KT 10SM SCT037 33/24 A3003 200 59 2300 000/00 RMK AO2 T03280239
53988KBKB BKB20190820112511108/20/19 11:25:31  5-MIN KBKB 201725Z AUTO 00000KT 10SM FEW037 33/23 A3003 200 55 2400 000/00 RMK AO2 T03330233
53988KBKB BKB20190820113011108/20/19 11:30:31  5-MIN KBKB 201730Z AUTO 00000KT 10SM FEW037 34/24 A3003 200 55 2400 000/00 RMK AO2 T03390239
53988KBKB BKB20190820113510808/20/19 11:35:31  5-MIN KBKB 201735Z AUTO 00000KT 10SM CLR 34/24 A3002 200 55 2400 000/00 RMK AO2 T03390239
53988KBKB BKB20190820114011108/20/19 11:40:31  5-MIN KBKB 201740Z AUTO VRB04KT 10SM FEW037 33/23 A3002 200 55 2400 VRB/04 RMK AO2 T03330233
53988KBKB BKB20190820114511108/20/19 11:45:31  5-MIN KBKB 201745Z AUTO 00000KT 10SM FEW037 34/24 A3002 210 55 2400 000/00 RMK AO2 T03390239
53988KBKB BKB20190820115013608/20/19 11:50:31  5-MIN KBKB 201750Z AUTO 00000KT 10SM SCT037 34/24 A3002 210 55 2400 000/00 RMK AO2 SLP190 T03390239 10339 20239 50003
53988KBKB BKB20190820115511108/20/19 11:55:31  5-MIN KBKB 201755Z AUTO VRB04KT 10SM FEW037 33/24 A3002 200 59 2300 VRB/04 RMK AO2 T03280239
53988KBKB BKB20190820120011108/20/19 12:00:31  5-MIN KBKB 201800Z AUTO 00000KT 10SM SCT037 33/24 A3002 200 59 2300 000/00 RMK AO2 T03280239
53988KBKB BKB20190820120511108/20/19 12:05:31  5-MIN KBKB 201805Z AUTO 00000KT 10SM BKN037 33/24 A3002 210 59 2400 000/00 RMK AO2 T03330244
53988KBKB BKB20190820121012508/20/19 12:10:31  5-MIN KBKB 201810Z AUTO 00000KT 10SM BKN037 BKN044 BKN090 32/24 A3002 210 63 2200 000/00 RMK AO2 T03170239
53988KBKB BKB20190820121512508/20/19 12:15:31  5-MIN KBKB 201815Z AUTO 00000KT 10SM SCT039 BKN075 BKN090 32/24 A3002 210 63 2200 000/00 RMK AO2 T03170239
53988KBKB BKB20190820122012508/20/19 12:20:31  5-MIN KBKB 201820Z AUTO 00000KT 10SM BKN039 BKN070 BKN085 32/23 A3002 210 61 2200 000/00 RMK AO2 T03170233
53988KBKB BKB20190820122512508/20/19 12:25:31  5-MIN KBKB 201825Z AUTO 00000KT 10SM BKN039 BKN075 OVC090 32/24 A3001 210 61 2300 000/00 RMK AO2 T03220239
53988KBKB BKB20190820123012508/20/19 12:30:31  5-MIN KBKB 201830Z AUTO 00000KT 10SM BKN040 BKN075 BKN090 33/24 A3001 220 61 2300 000/00 RMK AO2 T03280244
53988KBKB BKB20190820123512508/20/19 12:35:31  5-MIN KBKB 201835Z AUTO 00000KT 10SM SCT040 SCT075 BKN090 32/24 A3001 220 61 2300 000/00 RMK AO2 T03220239
53988KBKB BKB20190820124011808/20/19 12:40:31  5-MIN KBKB 201840Z AUTO 00000KT 10SM SCT040 BKN075 32/24 A3001 220 63 2200 000/00 RMK AO2 T03170239
53988KBKB BKB20190820124511108/20/19 12:45:31  5-MIN KBKB 201845Z AUTO 00000KT 10SM SCT040 33/24 A3000 220 59 2300 000/00 RMK AO2 T03280239
53988KBKB BKB20190820125011808/20/19 12:50:31  5-MIN KBKB 201850Z AUTO 00000KT 10SM FEW040 34/24 A3000 220 55 2500 000/00 RMK AO2 SLP183 T03390239
53988KBKB BKB20190820125511108/20/19 12:55:31  5-MIN KBKB 201855Z AUTO VRB03KT 10SM FEW038 34/24 A3000 220 55 2500 VRB/03 RMK AO2 T03390239
53988KBKB BKB20190820130011108/20/19 13:00:31  5-MIN KBKB 201900Z AUTO 00000KT 10SM FEW060 34/24 A3000 230 55 2500 000/00 RMK AO2 T03390239
53988KBKB BKB20190820130511108/20/19 13:05:31  5-MIN KBKB 201905Z AUTO VRB03KT 10SM FEW060 34/24 A3000 230 55 2500 VRB/03 RMK AO2 T03390239
53988KBKB BKB20190820131011108/20/19 13:10:31  5-MIN KBKB 201910Z AUTO VRB04KT 10SM FEW060 34/24 A3000 230 55 2500 VRB/04 RMK AO2 T03390239
53988KBKB BKB20190820131511108/20/19 13:15:31  5-MIN KBKB 201915Z AUTO 00000KT 10SM FEW060 34/24 A2999 230 55 2500 000/00 RMK AO2 T03390239
53988KBKB BKB20190820132011808/20/19 13:20:31  5-MIN KBKB 201920Z AUTO VRB03KT 10SM FEW043 FEW065 34/23 A2999 230 53 2500 VRB/03 RMK AO2 T03390233
53988KBKB BKB20190820132511108/20/19 13:25:31  5-MIN KBKB 201925Z AUTO 00000KT 10SM SCT043 34/23 A2999 230 53 2500 000/00 RMK AO2 T03390233
53988KBKB BKB20190820133011108/20/19 13:30:31  5-MIN KBKB 201930Z AUTO VRB04KT 10SM BKN043 34/24 A2999 230 55 2500 VRB/04 RMK AO2 T03390239
53988KBKB BKB20190820133511108/20/19 13:35:31  5-MIN KBKB 201935Z AUTO VRB04KT 10SM BKN043 33/23 A2999 230 55 2400 VRB/04 RMK AO2 T03330233
53988KBKB BKB20190820134011108/20/19 13:40:31  5-MIN KBKB 201940Z AUTO VRB04KT 10SM BKN043 33/23 A2999 240 57 2400 VRB/04 RMK AO2 T03280233
53988KBKB BKB20190820134511108/20/19 13:45:31  5-MIN KBKB 201945Z AUTO VRB04KT 10SM SCT042 33/23 A2999 240 55 2400 VRB/04 RMK AO2 T03330233
53988KBKB BKB20190820135011808/20/19 13:50:31  5-MIN KBKB 201950Z AUTO 00000KT 10SM SCT042 35/24 A2999 240 53 2600 000/00 RMK AO2 SLP179 T03500244
53988KBKB BKB20190820135511108/20/19 13:55:31  5-MIN KBKB 201955Z AUTO VRB03KT 10SM FEW042 34/24 A2999 240 55 2500 VRB/03 RMK AO2 T03390239
53988KBKB BKB20190820140011108/20/19 14:00:31  5-MIN KBKB 202000Z AUTO VRB03KT 10SM FEW042 34/24 A2998 240 55 2500 VRB/03 RMK AO2 T03390239
53988KBKB BKB20190820140510808/20/19 14:05:31  5-MIN KBKB 202005Z AUTO VRB03KT 10SM CLR 34/24 A2998 240 55 2500 VRB/03 RMK AO2 T03390239
53988KBKB BKB20190820141011108/20/19 14:10:31  5-MIN KBKB 202010Z AUTO VRB03KT 10SM FEW070 34/24 A2998 240 57 2500 VRB/03 RMK AO2 T03390244
53988KBKB BKB20190820141511808/20/19 14:15:31  5-MIN KBKB 202015Z AUTO 00000KT 10SM FEW050 SCT070 34/24 A2998 240 55 2500 000/00 RMK AO2 T03390239
53988KBKB BKB20190820142010808/20/19 14:20:31  5-MIN KBKB 202020Z AUTO 10SM FEW050 FEW070 34/23 A2998 250 53 2500 M /M RMK AO2 T03390233
53988KBKB BKB20190820142512508/20/19 14:25:31  5-MIN KBKB 202025Z AUTO VRB04KT 10SM FEW050 FEW070 SCT120 34/23 A2998 240 53 2500 VRB/04 RMK AO2 T03390233
53988KBKB BKB20190820143012508/20/19 14:30:31  5-MIN KBKB 202030Z AUTO VRB05KT 10SM FEW050 FEW070 SCT120 34/23 A2998 240 53 2500 VRB/05 RMK AO2 T03390233
53988KBKB BKB20190820143512508/20/19 14:35:31  5-MIN KBKB 202035Z AUTO VRB05KT 10SM FEW050 FEW070 SCT120 34/23 A2998 240 53 2500 VRB/05 RMK AO2 T03390233
53988KBKB BKB20190820144011808/20/19 14:40:31  5-MIN KBKB 202040Z AUTO VRB06KT 10SM FEW050 SCT120 34/23 A2998 240 53 2500 VRB/06 RMK AO2 T03390233
53988KBKB BKB20190820144511108/20/19 14:45:31  5-MIN KBKB 202045Z AUTO VRB05KT 10SM SCT120 33/23 A2998 240 55 2400 VRB/05 RMK AO2 T03330233
53988KBKB BKB20190820145012408/20/19 14:50:31  5-MIN KBKB 202050Z AUTO VRB03KT 10SM SCT120 33/23 A2998 250 55 2400 VRB/03 RMK AO2 SLP175 T03330233 58003
53988KBKB BKB20190820145511108/20/19 14:55:31  5-MIN KBKB 202055Z AUTO VRB03KT 10SM FEW120 34/23 A2997 250 53 2500 VRB/03 RMK AO2 T03390233
53988KBKB BKB20190820150011108/20/19 15:00:31  5-MIN KBKB 202100Z AUTO 12004KT 10SM FEW120 34/24 A2998 250 55 2500 110/04 RMK AO2 T03390239
53988KBKB BKB20190820150511108/20/19 15:05:31  5-MIN KBKB 202105Z AUTO VRB03KT 10SM FEW120 33/24 A2997 250 59 2400 VRB/03 RMK AO2 T03280239
53988KBKB BKB20190820151010808/20/19 15:10:31  5-MIN KBKB 202110Z AUTO VRB03KT 10SM CLR 33/23 A2997 250 57 2400 VRB/03 RMK AO2 T03280233
53988KBKB BKB20190820151510808/20/19 15:15:31  5-MIN KBKB 202115Z AUTO VRB04KT 10SM CLR 33/24 A2997 250 57 2400 VRB/04 RMK AO2 T03330239
53988KBKB BKB20190820152010808/20/19 15:20:31  5-MIN KBKB 202120Z AUTO 00000KT 10SM CLR 33/24 A2997 250 59 2400 000/00 RMK AO2 T03280239
53988KBKB BKB20190820152510808/20/19 15:25:31  5-MIN KBKB 202125Z AUTO 00000KT 10SM CLR 33/24 A2997 260 57 2400 000/00 RMK AO2 T03330239
53988KBKB BKB20190820153010808/20/19 15:30:31  5-MIN KBKB 202130Z AUTO VRB04KT 10SM CLR 33/24 A2997 260 57 2400 VRB/04 RMK AO2 T03330239
53988KBKB BKB20190822034511308/22/19 03:45:31  5-MIN KBKB 220945Z AUTO 00000KT 5SM BR OVC002 24/23 A2997 260 93 1500 000/00 RMK AO2 T02440233
53988KBKB BKB20190822035012008/22/19 03:50:31  5-MIN KBKB 220950Z AUTO 00000KT 5SM BR OVC002 24/23 A2997 260 97 1400 000/00 RMK AO2 SLP171 T02390233
53988KBKB BKB20190822035511308/22/19 03:55:31  5-MIN KBKB 220955Z AUTO 00000KT 5SM BR OVC002 24/23 A2997 260 97 1400 000/00 RMK AO2 T02390233
53988KBKB BKB20190822040011308/22/19 04:00:31  5-MIN KBKB 221000Z AUTO 00000KT 5SM BR OVC002 24/23 A2997 260 97 1400 000/00 RMK AO2 T02390233
53988KBKB BKB20190822040511308/22/19 04:05:31  5-MIN KBKB 221005Z AUTO 00000KT 5SM BR OVC002 24/23 A2997 260 97 1400 000/00 RMK AO2 T02390233
53988KBKB BKB20190822041011308/22/19 04:10:31  5-MIN KBKB 221010Z AUTO 00000KT 5SM BR OVC002 24/23 A2997 260 97 1400 000/00 RMK AO2 T02390233
53988KBKB BKB20190822041511308/22/19 04:15:31  5-MIN KBKB 221015Z AUTO 00000KT 5SM BR BKN001 24/23 A2996 260 97 1400 000/00 RMK AO2 T02390233
53988KBKB BKB20190822042012008/22/19 04:20:31  5-MIN KBKB 221020Z AUTO 00000KT 5SM BR BKN001 BKN005 24/23 A2997 260 97 1400 000/00 RMK AO2 T02390233
53988KBKB BKB20190822042512008/22/19 04:25:31  5-MIN KBKB 221025Z AUTO 00000KT 5SM BR SCT001 BKN005 24/23 A2997 260 97 1400 000/00 RMK AO2 T02390233
53988KBKB BKB20190822043012008/22/19 04:30:31  5-MIN KBKB 221030Z AUTO 00000KT 5SM BR FEW001 BKN005 24/23 A2997 260 97 1400 000/00 RMK AO2 T02390233
53988KBKB BKB20190822043512008/22/19 04:35:31  5-MIN KBKB 221035Z AUTO 00000KT 5SM BR FEW001 SCT005 24/23 A2996 260 97 1400 000/00 RMK AO2 T02390233
53988KBKB BKB20190822044012008/22/19 04:40:31  5-MIN KBKB 221040Z AUTO 00000KT 4SM BR FEW001 FEW005 24/23 A2996 260 93 1400 000/00 RMK AO2 T02390228
53988KBKB BKB20190822044511308/22/19 04:45:31  5-MIN KBKB 221045Z AUTO 00000KT 4SM BR FEW005 24/23 A2997 260 93 1400 000/00 RMK AO2 T02390228
53988KBKB BKB20190822045012008/22/19 04:50:31  5-MIN KBKB 221050Z AUTO 00000KT 3SM BR FEW005 24/23 A2997 250 93 1400 000/00 RMK AO2 SLP173 T02390228
53988KBKB BKB20190822045511008/22/19 04:55:31  5-MIN KBKB 221055Z AUTO 00000KT 4SM BR CLR 24/23 A2997 250 93 1400 000/00 RMK AO2 T02390228
53988KBKB BKB20190822050011008/22/19 05:00:31  5-MIN KBKB 221100Z AUTO 00000KT 4SM BR CLR 23/23 A2997 250 97 1300 000/00 RMK AO2 T02330228
53988KBKB BKB20190822050511008/22/19 05:05:31  5-MIN KBKB 221105Z AUTO 00000KT 4SM BR CLR 23/23 A2997 250 97 1300 000/00 RMK AO2 T02330228
53988KBKB BKB20190822051011008/22/19 05:10:31  5-MIN KBKB 221110Z AUTO 00000KT 5SM BR CLR 23/23 A2997 250 97 1300 000/00 RMK AO2 T02330228
53988KBKB BKB20190822051511008/22/19 05:15:31  5-MIN KBKB 221115Z AUTO 00000KT 5SM BR CLR 23/23 A2998 250 97 1300 000/00 RMK AO2 T02330228
53988KBKB BKB20190822052011008/22/19 05:20:31  5-MIN KBKB 221120Z AUTO 00000KT 4SM BR CLR 23/23 A2998 250 97 1300 000/00 RMK AO2 T02330228
53988KBKB BKB20190822052511308/22/19 05:25:31  5-MIN KBKB 221125Z AUTO 00000KT 4SM BR FEW006 23/23 A2998 240 97 1300 000/00 RMK AO2 T02330228
53988KBKB BKB20190822053011308/22/19 05:30:31  5-MIN KBKB 221130Z AUTO 00000KT 4SM BR FEW006 23/23 A2998 240 97 1300 000/00 RMK AO2 T02330228
53988KBKB BKB20190822053511008/22/19 05:35:31  5-MIN KBKB 221135Z AUTO 00000KT 4SM BR CLR 23/23 A2998 240 97 1300 000/00 RMK AO2 T02330228
53988KBKB BKB20190822054011008/22/19 05:40:31  5-MIN KBKB 221140Z AUTO 00000KT 4SM BR CLR 23/23 A2998 240 97 1300 000/00 RMK AO2 T02330228
53988KBKB BKB20190822054511308/22/19 05:45:31  5-MIN KBKB 221145Z AUTO 00000KT 3SM BR FEW005 23/23 A2998 240 97 1300 000/00 RMK AO2 T02330228
53988KBKB BKB20190822055013808/22/19 05:50:31  5-MIN KBKB 221150Z AUTO 00000KT 4SM BR SCT005 23/23 A2998 240 97 1300 000/00 RMK AO2 SLP178 T02330228 10244 20233 57001
53988KBKB BKB20190822055512008/22/19 05:55:31  5-MIN KBKB 221155Z AUTO 00000KT 5SM BR SCT001 SCT005 23/23 A2999 240 97 1300 000/00 RMK AO2 T02330228
53988KBKB BKB20190822060012008/22/19 06:00:31  5-MIN KBKB 221200Z AUTO 00000KT 5SM BR BKN001 BKN005 24/23 A2999 240 93 1400 000/00 RMK AO2 T02390228
53988KBKB BKB20190822060511308/22/19 06:05:31  5-MIN KBKB 221205Z AUTO 00000KT 3SM BR BKN001 24/23 A2999 230 93 1400 000/00 RMK AO2 T02390228
53988KBKB BKB20190822061012708/22/19 06:10:31  5-MIN KBKB 221210Z AUTO 00000KT 1 1/2SM BR OVC001 24/23 A2999 230 97 1400 000/00 RMK AO2 VIS 3/4V4 T02390233
53988KBKB BKB20190822061511208/22/19 06:15:31  5-MIN KBKB 221215Z AUTO 00000KT 1SM BR VV002 24/23 A2999 230 97 1400 000/00 RMK AO2 T02390233
53988KBKB BKB20190822062011408/22/19 06:20:31  5-MIN KBKB 221220Z AUTO 00000KT 3/4SM BR VV002 24/23 A2999 230 97 1400 000/00 RMK AO2 T02390233
53988KBKB BKB20190822062511408/22/19 06:25:31  5-MIN KBKB 221225Z AUTO 00000KT 1/2SM FG VV002 24/23 A3000 230 97 1400 000/00 RMK AO2 T02390233
53988KBKB BKB20190822063011408/22/19 06:30:31  5-MIN KBKB 221230Z AUTO 00000KT 1/2SM FG VV002 24/23 A3000 230 97 1400 000/00 RMK AO2 T02390233
53988KBKB BKB20190822063511408/22/19 06:35:31  5-MIN KBKB 221235Z AUTO 00000KT 1/2SM FG VV002 24/23 A3000 230 97 1400 000/00 RMK AO2 T02390233
53988KBKB BKB20190822064011408/22/19 06:40:31  5-MIN KBKB 221240Z AUTO 00000KT 1/2SM FG VV002 24/23 A3000 230 93 1400 000/00 RMK AO2 T02440233
53988KBKB BKB20190822064511408/22/19 06:45:31  5-MIN KBKB 221245Z AUTO 00000KT 3/4SM BR VV002 24/23 A3000 220 93 1400 000/00 RMK AO2 T02440233
53988KBKB BKB20190822065010708/22/19 06:50:31  5-MIN KBKB 221250Z AUTO 00000KT 1 1/4SM BR OVC002 24/24 A3000 230 97 1400 000/00 RMK AO2
53988KBKB BKB20190822065511708/22/19 06:55:31  5-MIN KBKB 221255Z AUTO 00000KT 2 1/2SM BR OVC002 24/24 A3000 220 97 1400 000/00 RMK AO2 T02440239
53988KBKB BKB20190822070011308/22/19 07:00:31  5-MIN KBKB 221300Z AUTO 00000KT 5SM BR OVC002 24/24 A3000 220 97 1400 000/00 RMK AO2 T02440239
53988KBKB BKB20190822070511708/22/19 07:05:31  5-MIN KBKB 221305Z AUTO 00000KT 8SM BKN002 OVC095 25/24 A3000 220 97 1500 000/00 RMK AO2 T02500244
53988KBKB BKB20190822071011708/22/19 07:10:31  5-MIN KBKB 221310Z AUTO 00000KT 9SM BKN002 BKN095 25/24 A3000 220 93 1500 000/00 RMK AO2 T02500239
53988KBKB BKB20190822071511808/22/19 07:15:31  5-MIN KBKB 221315Z AUTO 00000KT 10SM BKN002 BKN095 26/24 A3000 220 93 1500 000/00 RMK AO2 T02560244
53988KBKB BKB20190822072011808/22/19 07:20:31  5-MIN KBKB 221320Z AUTO 00000KT 10SM SCT002 SCT095 26/24 A3001 220 90 1500 000/00 RMK AO2 T02560239
53988KBKB BKB20190822072511808/22/19 07:25:31  5-MIN KBKB 221325Z AUTO 00000KT 10SM FEW002 SCT095 26/24 A3001 220 87 1600 000/00 RMK AO2 T02610239
53988KBKB BKB20190822073011808/22/19 07:30:31  5-MIN KBKB 221330Z AUTO 00000KT 10SM FEW002 SCT100 26/24 A3001 220 87 1600 000/00 RMK AO2 T02610239
53988KBKB BKB20190822073511108/22/19 07:35:31  5-MIN KBKB 221335Z AUTO 00000KT 10SM FEW100 27/24 A3001 220 82 1700 000/00 RMK AO2 T02720239
53988KBKB BKB20190822074011108/22/19 07:40:31  5-MIN KBKB 221340Z AUTO 00000KT 10SM FEW100 27/24 A3001 220 84 1700 000/00 RMK AO2 T02670239
53988KBKB BKB20190822074511108/22/19 07:45:31  5-MIN KBKB 221345Z AUTO 00000KT 10SM FEW100 27/24 A3000 220 84 1700 000/00 RMK AO2 T02720244
53988KBKB BKB20190822075011808/22/19 07:50:31  5-MIN KBKB 221350Z AUTO 00000KT 10SM FEW100 28/24 A3000 220 82 1800 000/00 RMK AO2 SLP185 T02780244
53988KBKB BKB20190822075510808/22/19 07:55:31  5-MIN KBKB 221355Z AUTO 00000KT 10SM CLR 28/24 A3000 220 82 1800 000/00 RMK AO2 T02780244
53988KBKB BKB20190822080010808/22/19 08:00:31  5-MIN KBKB 221400Z AUTO 00000KT 10SM CLR 28/24 A3000 220 82 1800 000/00 RMK AO2 T02780244
53988KBKB BKB20190822080511108/22/19 08:05:31  5-MIN KBKB 221405Z AUTO 00000KT 10SM FEW100 28/24 A3000 220 79 1800 000/00 RMK AO2 T02830244
53988KBKB BKB20190822081011108/22/19 08:10:31  5-MIN KBKB 221410Z AUTO 00000KT 10SM FEW100 28/24 A3000 220 79 1800 000/00 RMK AO2 T02830244
53988KBKB BKB20190822081510808/22/19 08:15:31  5-MIN KBKB 221415Z AUTO 00000KT 10SM CLR 29/24 A3000 230 76 1900 000/00 RMK AO2 T02890244
53988KBKB BKB20190822082010808/22/19 08:20:31  5-MIN KBKB 221420Z AUTO 00000KT 10SM CLR 29/24 A3000 230 76 1900 000/00 RMK AO2 T02890244
53988KBKB BKB20190822082510808/22/19 08:25:31  5-MIN KBKB 221425Z AUTO 00000KT 10SM CLR 29/24 A3000 220 74 2000 000/00 RMK AO2 T02940244
53988KBKB BKB20190822083010808/22/19 08:30:31  5-MIN KBKB 221430Z AUTO 00000KT 10SM CLR 29/24 A3000 220 74 2000 000/00 RMK AO2 T02940244
53988KBKB BKB20190822083510808/22/19 08:35:31  5-MIN KBKB 221435Z AUTO 00000KT 10SM CLR 30/24 A3000 220 72 2000 000/00 RMK AO2 T03000244
53988KBKB BKB20190822084010808/22/19 08:40:31  5-MIN KBKB 221440Z AUTO VRB03KT 10SM CLR 29/24 A3000 220 71 2000 VRB/03 RMK AO2 T02940239
53988KBKB BKB20190822084511808/22/19 08:45:31  5-MIN KBKB 221445Z AUTO VRB03KT 10SM FEW019 FEW024 30/24 A3000 220 69 2000 VRB/03 RMK AO2 T03000239
53988KBKB BKB20190822085012408/22/19 08:50:31  5-MIN KBKB 221450Z AUTO 00000KT 10SM SCT022 30/24 A3000 220 72 2000 000/00 RMK AO2 SLP184 T03000244 53008
53988KBKB BKB20190822085511108/22/19 08:55:31  5-MIN KBKB 221455Z AUTO 00000KT 10SM SCT024 30/24 A3000 220 72 2000 000/00 RMK AO2 T03000244
53988KBKB BKB20190822090011108/22/19 09:00:31  5-MIN KBKB 221500Z AUTO VRB03KT 10SM SCT024 29/24 A3000 220 71 2000 VRB/03 RMK AO2 T02940239
53988KBKB BKB20190822090511108/22/19 09:05:31  5-MIN KBKB 221505Z AUTO 00000KT 10SM SCT024 29/23 A3000 220 69 2000 000/00 RMK AO2 T02940233
53988KBKB BKB20190822091011108/22/19 09:10:31  5-MIN KBKB 221510Z AUTO VRB03KT 10SM SCT024 29/24 A3000 230 74 1900 VRB/03 RMK AO2 T02890239
53988KBKB BKB20190822091511108/22/19 09:15:31  5-MIN KBKB 221515Z AUTO 00000KT 10SM FEW024 29/24 A3000 230 71 2000 000/00 RMK AO2 T02940239
53988KBKB BKB20190822092011808/22/19 09:20:31  5-MIN KBKB 221520Z AUTO 00000KT 10SM FEW024 FEW100 29/24 A3000 230 74 1900 000/00 RMK AO2 T02890239
53988KBKB BKB20190822092511808/22/19 09:25:31  5-MIN KBKB 221525Z AUTO VRB03KT 10SM FEW024 SCT095 29/24 A3000 230 74 1900 VRB/03 RMK AO2 T02890239
53988KBKB BKB20190822093014008/22/19 09:30:31  5-MIN KBKB 221530Z AUTO 00000KT 8SM -RA FEW024 SCT050 BKN095 29/24 A3000 230 74 1900 000/00 RMK AO2 RAB28 P0000 T02890239
53988KBKB BKB20190822093514008/22/19 09:35:31  5-MIN KBKB 221535Z AUTO 00000KT 7SM -RA FEW049 SCT055 BKN095 28/25 A3000 230 84 1800 000/00 RMK AO2 RAB28 P0001 T02780250
53988KBKB BKB20190822094014008/22/19 09:40:31  5-MIN KBKB 221540Z AUTO 00000KT 9SM -RA FEW049 SCT055 BKN100 27/25 A3000 230 87 1700 000/00 RMK AO2 RAB28 P0001 T02720250
53988KBKB BKB20190822094514108/22/19 09:45:31  5-MIN KBKB 221545Z AUTO 00000KT 10SM -RA FEW049 SCT055 BKN100 27/25 A3000 230 87 1700 000/00 RMK AO2 RAB28 P0001 T02720250
53988KBKB BKB20190822095014008/22/19 09:50:31  5-MIN KBKB 221550Z AUTO 00000KT 10SM FEW050 BKN100 28/24 A3000 230 79 1800 000/00 RMK AO2 RAB28E46 SLP183 P0001 T02780239
53988KBKB BKB20190822095512508/22/19 09:55:31  5-MIN KBKB 221555Z AUTO 00000KT 10SM FEW050 FEW055 BKN100 28/24 A3000 230 79 1800 000/00 RMK AO2 T02780239
53988KBKB BKB20190822100011808/22/19 10:00:31  5-MIN KBKB 221600Z AUTO 00000KT 10SM FEW048 BKN100 28/24 A3000 230 82 1800 000/00 RMK AO2 T02780244
53988KBKB BKB20190822100511108/22/19 10:05:31  5-MIN KBKB 221605Z AUTO 00000KT 10SM SCT100 28/24 A3000 230 76 1900 000/00 RMK AO2 T02830239
53988KBKB BKB20190822101011108/22/19 10:10:31  5-MIN KBKB 221610Z AUTO 00000KT 10SM SCT100 29/24 A3000 230 74 1900 000/00 RMK AO2 T02890239
53988KBKB BKB20190822101516008/22/19 10:15:31  5-MIN KBKB 221615Z AUTO 00000KT 10SM SCT100 29/25 A2999 230 79 1900 000/00 RMK AO2T 10SM CLR 32/22 A2997 250 55 2200 130/03 RMK AO2 T03170217
53988KBKB BKB20190822111010808/22/19 11:10:31  5-MIN KBKB 221710Z AUTO VRB05KT 10SM CLR 33/22 A2998 250 53 2400 VRB/05 RMK AO2 T03280222
53988KBKB BKB20190822111510808/22/19 11:15:31  5-MIN KBKB 221715Z AUTO 00000KT 10SM CLR 33/22 A2998 250 51 2400 000/00 RMK AO2 T03280217
53988KBKB BKB20190822112011108/22/19 11:20:31  5-MIN KBKB 221720Z AUTO VRB04KT 10SM FEW043 33/21 A2998 250 49 2400 VRB/04 RMK AO2 T03280211
53988KBKB BKB20190822112510808/22/19 11:25:31  5-MIN KBKB 221725Z AUTO 14003KT 10SM CLR 32/22 A2997 250 55 2200 130/03 RMK AO2 T03170217
53988KBKB BKB20190822113005908/22/19 11:30:31  5-MIN KBKB 221730Z AUTO VK AO2 T03280222
53988KBKB BKB20190822113010808/22/19 11:30:31  5-MIN KBKB 221730Z AUTO VRB03KT 10SM CLR 32/22 A2997 250 56 2300 VRB/03 RMK AO2 T03170222
53988KBKB BKB20190822113510808/22/19 11:35:31  5-MIN KBKB 221735Z AUTO VRB03KT 10SM CLR 33/22 A2997 260 51 2400 VRB/03 RMK AO2 T03280217
53988KBKB BKB20190822114010808/22/19 11:40:31  5-MIN KBKB 221740Z AUTO VRB03KT 10SM CLR 33/22 A2996 260 51 2400 VRB/03 RMK AO2 T03280217
53988KBKB BKB20190822114510808/22/19 11:45:31  5-MIN KBKB 221745Z AUTO VRB03KT 10SM CLR 33/22 A2996 260 50 2400 VRB/03 RMK AO2 T03330217
53988KBKB BKB20190822114516808/22/19 11:45:31  5-MIN KBKB 221745Z AUTO VRB03KT 10SM CLR 33/22 A2996 260 50 2400 VRB/03 RMK AO2 T03330217KT 10SM CLR 32/22 A2997 250 55 2200 130/03 RMK AO2 T03170217
53988KBKB BKB20190822115013908/22/19 11:50:31  5-MIN KBKB 221750Z AUTO VRB04KT 10SM CLR 33/22 A2996 260 50 2400 VRB/04 RMK AO2 SLP169 60001 T03330217 10339 20233 50001
53988KBKB BKB20190822115510808/22/19 11:55:31  5-MIN KBKB 221755Z AUTO VRB03KT 10SM CLR 33/22 A2995 270 51 2400 VRB/03 RMK AO2 T03280217
53988KBKB BKB20190822120010808/22/19 12:00:31  5-MIN KBKB 221800Z AUTO VRB03KT 10SM CLR 33/22 A2995 270 50 2500 VRB/03 RMK AO2 T03330217
53988KBKB BKB20190822120510808/22/19 12:05:31  5-MIN KBKB 221805Z AUTO 00000KT 10SM CLR 33/22 A2995 270 51 2400 000/00 RMK AO2 T03280217
53988KBKB BKB20190822121010808/22/19 12:10:31  5-MIN KBKB 221810Z AUTO 00000KT 10SM CLR 34/22 A2995 270 48 2500 000/00 RMK AO2 T03390217
53988KBKB BKB20190822121510808/22/19 12:15:31  5-MIN KBKB 221815Z AUTO VRB03KT 10SM CLR 34/22 A2995 280 50 2500 VRB/03 RMK AO2 T03390222
53988KBKB BKB20190822122011108/22/19 12:20:31  5-MIN KBKB 221820Z AUTO VRB03KT 10SM FEW047 33/22 A2994 280 50 2500 VRB/03 RMK AO2 T03330217
53988KBKB BKB20190822122511108/22/19 12:25:31  5-MIN KBKB 221825Z AUTO 17004KT 10SM FEW047 33/22 A2995 270 50 2500 170/04 RMK AO2 T03330217
53988KBKB BKB20190822123010808/22/19 12:30:31  5-MIN KBKB 221830Z AUTO VRB04KT 10SM CLR 33/21 A2995 270 48 2500 VRB/04 RMK AO2 T03330211
53988KBKB BKB20190822123511108/22/19 12:35:31  5-MIN KBKB 221835Z AUTO VRB03KT 10SM FEW050 33/22 A2994 280 50 2500 VRB/03 RMK AO2 T03330217
53988KBKB BKB20190822124011108/22/19 12:40:31  5-MIN KBKB 221840Z AUTO VRB03KT 10SM FEW050 33/21 A2994 280 48 2500 VRB/03 RMK AO2 T03330211
53988KBKB BKB20190822124510108/22/19 12:45:31  5-MIN KBKB 221845Z AUTO 10SM FEW050 33/21 A2994 280 48 2500 M /M RMK AO2 T03330211
53988KBKB BKB20190822125011508/22/19 12:50:31  5-MIN KBKB 221850Z AUTO 18003KT 10SM CLR 32/21 A2994 280 51 2400 170/03 RMK AO2 SLP163 T03220211
53988KBKB BKB20190822125510808/22/19 12:55:31  5-MIN KBKB 221855Z AUTO 00000KT 10SM CLR 32/21 A2994 280 51 2400 000/00 RMK AO2 T03220211
53988KBKB BKB20190822130011108/22/19 13:00:31  5-MIN KBKB 221900Z AUTO 00000KT 10SM FEW049 34/22 A2994 280 50 2500 000/00 RMK AO2 T03390222
53988KBKB BKB20190822130511108/22/19 13:05:31  5-MIN KBKB 221905Z AUTO VRB03KT 10SM SCT049 34/22 A2993 290 48 2500 VRB/03 RMK AO2 T03390217
53988KBKB BKB20190822131011108/22/19 13:10:31  5-MIN KBKB 221910Z AUTO VRB03KT 10SM SCT049 34/22 A2993 290 48 2500 VRB/03 RMK AO2 T03390217
53988KBKB BKB20190822131511108/22/19 13:15:31  5-MIN KBKB 221915Z AUTO VRB04KT 10SM SCT049 33/22 A2993 290 51 2500 VRB/04 RMK AO2 T03330222
53988KBKB BKB20190822132011108/22/19 13:20:31  5-MIN KBKB 221920Z AUTO VRB03KT 10SM SCT049 33/22 A2992 300 50 2500 VRB/03 RMK AO2 T03330217
53988KBKB BKB20190822132511108/22/19 13:25:31  5-MIN KBKB 221925Z AUTO 00000KT 10SM SCT050 32/22 A2992 300 53 2400 000/00 RMK AO2 T03220217
53988KBKB BKB20190822133011108/22/19 13:30:31  5-MIN KBKB 221930Z AUTO 10003KT 10SM SCT050 32/22 A2992 300 53 2400 100/03 RMK AO2 T03220217
53988KBKB BKB20190822133511108/22/19 13:35:31  5-MIN KBKB 221935Z AUTO VRB03KT 10SM SCT050 33/22 A2991 310 51 2400 VRB/03 RMK AO2 T03280217
53988KBKB BKB20190822134010608/22/19 13:40:31  5-MIN KBKB 221940Z AUTO 00000KT 10SM BKN050 BKN060 32/22 A2991 310/03 RMK AO2 T03390211
53988KBKB BKB20190822144511108/22/19 14:45:31  5-MIN KBKB 222045Z AUTO 00000KT 10SM FEW048 34/22 A2989 330 48 2600 000/00 RMK AO2 T03390217
53988KBKB BKB20190822145012108/22/19 14:50:31  5-MIN KBKB 222050Z AUTO 00000KT 10SM CLR 34/22 A2989 330 48 2600 000/00 RMK AO2 SLP146 T03390217 58016
53988KBKB BKB20190822145511108/22/19 14:55:31  5-MIN KBKB 222055Z AUTO VRB03KT 10SM FEW050 33/22 A2989 330 50 2500 VRB/03 RMK AO2 T03330217
53988KBKB BKB20190822150011108/22/19 15:00:31  5-MIN KBKB 222100Z AUTO 00000KT 10SM FEW050 34/22 A2989 330 48 2600 000/00 RMK AO2 T03390217
53988KBKB BKB20190822150511108/22/19 15:05:31  5-MIN KBKB 222105Z AUTO 00000KT 10SM FEW050 34/22 A2989 330 48 2600 000/00 RMK AO2 T03390217
53988KBKB BKB20190822151011108/22/19 15:10:31  5-MIN KBKB 222110Z AUTO 00000KT 10SM FEW050 34/22 A2989 330 46 2700 000/00 RMK AO2 T03440217
53988KBKB BKB20190822151511108/22/19 15:15:31  5-MIN KBKB 222115Z AUTO 00000KT 10SM FEW050 34/22 A2989 330 46 2700 000/00 RMK AO2 T03440217
53988KBKB BKB20190822152011108/22/19 15:20:31  5-MIN KBKB 222120Z AUTO 00000KT 10SM FEW050 34/22 A2989 330 46 2700 000/00 RMK AO2 T03440217
53988KBKB BKB20190822152510808/22/19 15:25:31  5-MIN KBKB 222125Z AUTO 00000KT 10SM CLR 34/22 A2988 330 48 2600 000/00 RMK AO2 T03390217
53988KBKB BKB20190822153010808/22/19 15:30:31  5-MIN KBKB 222130Z AUTO VRB03KT 10SM CLR 34/21 A2988 330 46 2600 VRB/03 RMK AO2 T03390211
53988KBKB BKB20190822153511108/22/19 15:35:31  5-MIN KBKB 222135Z AUTO VRB04KT 10SM FEW055 34/22 A2988 330 48 2600 VRB/04 RMK AO2 T03390217
53988KBKB BKB20190822153516908/22/19 15:35:31  5-MIN KBKB 222135Z AUTO VRB04KT 10SM FEW0552/19 15:15:31  5-MIN KBKB 222115Z AUTO 00000KT 10SM FEW050 34/22 A2989 330 46 2700 000/00 RMK AO2 T03440217
53988KBKB BKB20190822154011108/22/19 15:40:31  5-MIN KBKB 222140Z AUTO VRB04KT 10SM FEW055 33/22 A2989 330 50 2500 VRB/04 RMK AO2 T03330217
53988KBKB BKB20190822154510808/22/19 15:45:31  5-MIN KBKB 222145Z AUTO VRB04KT 10SM CLR 33/22 A2989 330 51 2500 VRB/04 RMK AO2 T03330222
53988KBKB BKB20190822155011808/22/19 15:50:31  5-MIN KBKB 222150Z AUTO VRB03KT 10SM FEW050 32/22 A2989 330 55 2400 VRB/03 RMK AO2 SLP145 T03220222
53988KBKB BKB20190822155511108/22/19 15:55:31  5-MIN KBKB 222155Z AUTO VRB05KT 10SM FEW050 33/22 A2989 330 53 2500 VRB/05 RMK AO2 T03280222
53988KBKB BKB20190822160011108/22/19 16:00:31  5-MIN KBKB 222200Z AUTO VRB04KT 10SM FEW050 33/22 A2989 330 53 2500 VRB/04 RMK AO2 T03280222
53988KBKB BKB20190822160511108/22/19 16:05:31  5-MIN KBKB 222205Z AUTO VRB05KT 10SM FEW050 33/22 A2989 330 53 2500 VRB/05 RMK AO2 T03280222
53988KBKB BKB20190822161011108/22/19 16:10:31  5-MIN KBKB 222210Z AUTO VRB03KT 10SM FEW050 33/22 A2989 330 53 2500 VRB/03 RMK AO2 T03280222
53988KBKB BKB20190822161511108/22/19 16:15:31  5-MIN KBKB 222215Z AUTO VRB04KT 10SM FEW050 32/22 A2989 330 55 2400 VRB/04 RMK AO2 T03220222
53988KBKB BKB20190822162010808/22/19 16:20:31  5-MIN KBKB 222220Z AUTO VRB04KT 10SM CLR 33/22 A2988 330 53 2500 VRB/04 RMK AO2 T03280222
53988KBKB BKB20190822162510808/22/19 16:25:31  5-MIN KBKB 222225Z AUTO VRB03KT 10SM CLR 32/22 A2988 330 55 2400 VRB/03 RMK AO2 T03220222
53988KBKB BKB20190822163010808/22/19 16:30:31  5-MIN KBKB 222230Z AUTO VRB04KT 10SM CLR 33/22 A2988 330 53 2500 VRB/04 RMK AO2 T03280222
53988KBKB BKB20190822163510808/22/19 16:35:31  5-MIN KBKB 222235Z AUTO VRB03KT 10SM CLR 32/22 A2988 330 53 2400 VRB/03 RMK AO2 T03220217
53988KBKB BKB20190822164010808/22/19 16:40:31  5-MIN KBKB 222240Z AUTO VRB03KT 10SM CLR 32/22 A2988 330 55 2400 VRB/03 RMK AO2 T03220222
53988KBKB BKB20190822164510808/22/19 16:45:31  5-MIN KBKB 222245Z AUTO 00000KT 10SM CLR 32/22 A2988 330 55 2400 000/00 RMK AO2 T03220222
53988KBKB BKB20190822165011508/22/19 16:50:31  5-MIN KBKB 222250Z AUTO 13004KT 10SM CLR 32/22 A2988 330 56 2400 130/04 RMK AO2 SLP144 T03170222
53988KBKB BKB20190822165510808/22/19 16:55:31  5-MIN KBKB 222255Z AUTO VRB05KT 10SM CLR 32/22 A2988 330 56 2400 VRB/05 RMK AO2 T03170222
53988KBKB BKB20190822170010808/22/19 17:00:31  5-MIN KBKB 222300Z AUTO VRB04KT 10SM CLR 31/23 A2988 330 60 2300 VRB/04 RMK AO2 T03110228
53988KBKB BKB20190822170510808/22/19 17:05:31  5-MIN KBKB 222305Z AUTO VRB04KT 10SM CLR 31/23 A2988 330 60 2300 VRB/04 RMK AO2 T03110228
53988KBKB BKB20190822171010808/22/19 17:10:31  5-MIN KBKB 222310Z AUTO VRB03KT 10SM CLR 31/23 A2988 330 60 2300 VRB/03 RMK AO2 T03110228
53988KBKB BKB20190822171510808/22/19 17:15:31  5-MIN KBKB 222315Z AUTO VRB03KT 10SM CLR 31/23 A2988 330 60 2300 VRB/03 RMK AO2 T03110228
53988KBKB BKB20190822172010808/22/19 17:20:31  5-MIN KBKB 222320Z AUTO 00000KT 10SM CLR 31/22 A2989 330 58 2300 000/00 RMK AO2 T03110222
53988KBKB BKB20190822172510808/22/19 17:25:31  5-MIN KBKB 222325Z AUTO 14003KT 10SM CLR 31/22 A2989 330 60 2200 140/03 RMK AO2 T03060222
53988KBKB BKB20190822173010808/22/19 17:30:31  5-MIN KBKB 222330Z AUTO 00000KT 10SM CLR 31/22 A2989 330 60 2200 000/00 RMK AO2 T03060222
53988KBKB BKB20190822173510808/22/19 17:35:31  5-MIN KBKB 222335Z AUTO 00000KT 10SM CLR 31/22 A2988 330 60 2200 000/00 RMK AO2 T03060222
53988KBKB BKB20190822174010808/22/19 17:40:31  5-MIN KBKB 222340Z AUTO 00000KT 10SM CLR 31/22 A2988 330 60 2200 000/00 RMK AO2 T03060222
53988KBKB BKB20190822174510808/22/19 17:45:31  5-MIN KBKB 222345Z AUTO 00000KT 10SM CLR 30/23 A2989 330 65 2200 000/00 RMK AO2 T03000228
53988KBKB BKB20190822175013308/22/19 17:50:31  5-MIN KBKB 222350Z AUTO 00000KT 10SM CLR 30/23 A2989 330 65 2200 000/00 RMK AO2 SLP146 T03000228 10344 20300 56022
53988KBKB BKB20190822175510808/22/19 17:55:31  5-MIN KBKB 222355Z AUTO 00000KT 10SM CLR 30/23 A2989 330 65 2200 000/00 RMK AO2 T03000228
53988KBKB BKB20190822180010808/22/19 18:00:31  5-MIN KBKB 230000Z AUTO VRB04KT 10SM CLR 29/23 A2989 320 67 2100 VRB/04 RMK AO2 T02940228
53988KBKB BKB20190822180510808/22/19 18:05:31  5-MIN KBKB 230005Z AUTO VRB03KT 10SM CLR 30/23 A2990 320 65 2200 VRB/03 RMK AO2 T03000228
53988KBKB BKB20190822181010808/22/19 18:10:31  5-MIN KBKB 230010Z AUTO 00000KT 10SM CLR 29/23 A2990 320 67 2100 000/00 RMK AO2 T02940228
53988KBKB BKB20190822181510808/22/19 18:15:31  5-MIN KBKB 230015Z AUTO 00000KT 10SM CLR 29/23 A2990 320 69 2100 000/00 RMK AO2 T02940233
53988KBKB BKB20190822182010808/22/19 18:20:31  5-MIN KBKB 230020Z AUTO 00000KT 10SM CLR 29/23 A2990 320 69 2100 000/00 RMK AO2 T02940233
53988KBKB BKB20190822182510808/22/19 18:25:31  5-MIN KBKB 230025Z AUTO 00000KT 10SM CLR 29/24 A2990 320 74 2000 000/00 RMK AO2 T02890239
53988KBKB BKB20190822183010808/22/19 18:30:31  5-MIN KBKB 230030Z AUTO 00000KT 10SM CLR 29/24 A2990 320 74 2000 000/00 RMK AO2 T02890239
53988KBKB BKB20190822183511108/22/19 18:35:31  5-MIN KBKB 230035Z AUTO 00000KT 10SM FEW040 29/24 A2990 320 74 2000 000/00 RMK AO2 T02890239
53988KBKB BKB20190822184011108/22/19 18:40:31  5-MIN KBKB 230040Z AUTO 00000KT 10SM SCT040 29/24 A2990 310 76 2000 000/00 RMK AO2 T02890244
53988KBKB BKB20190822184511108/22/19 18:45:31  5-MIN KBKB 230045Z AUTO 00000KT 10SM SCT040 29/24 A2991 310 76 2000 000/00 RMK AO2 T02890244
53988KBKB BKB20190822185012508/22/19 18:50:31  5-MIN KBKB 230050Z AUTO 00000KT 10SM FEW040 SCT048 28/24 A2991 310 79 2000 000/00 RMK AO2 SLP152 T02830244
53988KBKB BKB20190822185511808/22/19 18:55:31  5-MIN KBKB 230055Z AUTO 00000KT 10SM FEW041 SCT048 28/24 A2991 310 79 2000 000/00 RMK AO2 T02830244
53988KBKB BKB20190822190011808/22/19 19:00:31  5-MIN KBKB 230100Z AUTO 00000KT 10SM SCT043 BKN050 28/24 A2991 310 79 2000 000/00 RMK AO2 T02830244
53988KBKB BKB20190822190511108/22/19 19:05:31  5-MIN KBKB 230105Z AUTO 00000KT 10SM SCT045 28/24 A2991 310 79 1900 000/00 RMK AO2 T02830244
53988KBKB BKB20190822191011108/22/19 19:10:31  5-MIN KBKB 230110Z AUTO VRB03KT 10SM SCT045 28/24 A2991 300 79 1900 VRB/03 RMK AO2 T02830244
53988KBKB BKB20190822191511108/22/19 19:15:31  5-MIN KBKB 230115Z AUTO 00000KT 10SM SCT045 28/24 A2992 300 82 1900 000/00 RMK AO2 T02780244
53988KBKB BKB20190822192011108/22/19 19:20:31  5-MIN KBKB 230120Z AUTO 00000KT 10SM FEW043 28/24 A2992 300 82 1900 000/00 RMK AO2 T02780244
53988KBKB BKB20190822192511108/22/19 19:25:31  5-MIN KBKB 230125Z AUTO 00000KT 10SM FEW043 28/24 A2992 300 82 1900 000/00 RMK AO2 T02780244
53988KBKB BKB20190822193011108/22/19 19:30:31  5-MIN KBKB 230130Z AUTO 00000KT 10SM FEW043 27/24 A2992 300 84 1800 000/00 RMK AO2 T02720244
53988KBKB BKB20190822193511108/22/19 19:35:31  5-MIN KBKB 230135Z AUTO 00000KT 10SM FEW043 27/24 A2992 300 84 1800 000/00 RMK AO2 T02720244
53988KBKB BKB20190822194010808/22/19 19:40:31  5-MIN KBKB 230140Z AUTO 00000KT 10SM CLR 27/24 A2992 300 84 1800 000/00 RMK AO2 T02720244
53988KBKB BKB20190822194510808/22/19 19:45:31  5-MIN KBKB 230145Z AUTO 00000KT 10SM CLR 27/24 A2991 300 84 1800 000/00 RMK AO2 T02720244
53988KBKB BKB20190822195011508/22/19 19:50:31  5-MIN KBKB 230150Z AUTO 00000KT 10SM CLR 27/24 A2991 300 84 1800 000/00 RMK AO2 SLP155 T02720244
53988KBKB BKB20190822195510808/22/19 19:55:31  5-MIN KBKB 230155Z AUTO 00000KT 10SM CLR 27/24 A2991 300 84 1800 000/00 RMK AO2 T02720244
53988KBKB BKB20190822200010808/22/19 20:00:31  5-MIN KBKB 230200Z AUTO 00000KT 10SM CLR 27/24 A2992 300 84 1800 000/00 RMK AO2 T02720244
53988KBKB BKB20190822200510808/22/19 20:05:31  5-MIN KBKB 230205Z AUTO 00000KT 10SM CLR 27/24 A2992 300 84 1800 000/00 RMK AO2 T02720244
53988KBKB BKB20190822201010808/22/19 20:10:31  5-MIN KBKB 230210Z AUTO 00000KT 10SM CLR 27/24 A2992 300 87 1800 000/00 RMK AO2 T02670244
53988KBKB BKB20190822201510808/22/19 20:15:31  5-MIN KBKB 230215Z AUTO 00000KT 10SM CLR 27/24 A2992 290 87 1700 000/00 RMK AO2 T02670244
53988KBKB BKB20190822202010808/22/19 20:20:31  5-MIN KBKB 230220Z AUTO 00000KT 10SM CLR 27/24 A2993 290 87 1700 000/00 RMK AO2 T02670244
53988KBKB BKB20190822202510808/22/19 20:25:31  5-MIN KBKB 230225Z AUTO 00000KT 10SM CLR 26/24 A2993 290 87 1700 000/00 RMK AO2 T02610239
53988KBKB BKB20190822203010808/22/19 20:30:31  5-MIN KBKB 230230Z AUTO 00000KT 10SM CLR 26/24 A2993 290 90 1700 000/00 RMK AO2 T02610244
53988KBKB BKB20190822203510808/22/19 20:35:31  5-MIN KBKB 230235Z AUTO 00000KT 10SM CLR 26/24 A2994 280 90 1700 000/00 RMK AO2 T02610244
53988KBKB BKB20190822204010808/22/19 20:40:31  5-MIN KBKB 230240Z AUTO 00000KT 10SM CLR 27/24 A2994 280 84 1700 000/00 RMK AO2 T02670239
53988KBKB BKB20190822204510808/22/19 20:45:31  5-MIN KBKB 230245Z AUTO 00000KT 10SM CLR 26/24 A2994 280 87 1700 000/00 RMK AO2 T02610239
53988KBKB BKB20190822205012108/22/19 20:50:31  5-MIN KBKB 230250Z AUTO 00000KT 10SM CLR 27/24 A2994 280 84 1700 000/00 RMK AO2 SLP163 T02670239 55000
53988KBKB BKB20190822205510808/22/19 20:55:31  5-MIN KBKB 230255Z AUTO 00000KT 10SM CLR 27/24 A2994 280 84 1700 000/00 RMK AO2 T02670239
53988KBKB BKB20190822210010808/22/19 21:00:31  5-MIN KBKB 230300Z AUTO 00000KT 10SM CLR 27/24 A2994 280 84 1700 000/00 RMK AO2 T02670239
53988KBKB BKB20190822210510808/22/19 21:05:31  5-MIN KBKB 230305Z AUTO 00000KT 10SM CLR 27/24 A2994 280 84 1700 000/00 RMK AO2 T02670239
53988KBKB BKB20190822211010808/22/19 21:10:31  5-MIN KBKB 230310Z AUTO 00000KT 10SM CLR 27/24 A2994 280 84 1700 000/00 RMK AO2 T02670239
53988KBKB BKB20190822211510808/22/19 21:15:31  5-MIN KBKB 230315Z AUTO 00000KT 10SM CLR 26/24 A2994 280 87 1700 000/00 RMK AO2 T02610239
53988KBKB BKB20190822212010808/22/19 21:20:31  5-MIN KBKB 230320Z AUTO 00000KT 10SM CLR 26/24 A2994 280 87 1700 000/00 RMK AO2 T02610239
53988KBKB BKB20190822212510808/22/19 21:25:31  5-MIN KBKB 230325Z AUTO 00000KT 10SM CLR 26/23 A2994 280 84 1700 000/00 RMK AO2 T02610233
53988KBKB BKB20190822213010808/22/19 21:30:31  5-MIN KBKB 230330Z AUTO 00000KT 10SM CLR 26/24 A2994 280 87 1700 000/00 RMK AO2 T02610239
53988KBKB BKB20190822213510808/22/19 21:35:31  5-MIN KBKB 230335Z AUTO 00000KT 10SM CLR 26/24 A2995 270 87 1700 000/00 RMK AO2 T02610239
53988KBKB BKB20190822214010808/22/19 21:40:31  5-MIN KBKB 230340Z AUTO 00000KT 10SM CLR 26/23 A2995 270 84 1700 000/00 RMK AO2 T02610233
53988KBKB BKB20190822214510808/22/19 21:45:31  5-MIN KBKB 230345Z AUTO 00000KT 10SM CLR 26/23 A2995 270 84 1700 000/00 RMK AO2 T02610233
53988KBKB BKB20190822215011508/22/19 21:50:31  5-MIN KBKB 230350Z AUTO 00000KT 10SM CLR 26/23 A2995 270 84 1700 000/00 RMK AO2 SLP166 T02610233
53988KBKB BKB20190822215510808/22/19 21:55:31  5-MIN KBKB 230355Z AUTO 00000KT 10SM CLR 26/23 A2995 270 84 1700 000/00 RMK AO2 T02610233
53988KBKB BKB20190822220010808/22/19 22:00:31  5-MIN KBKB 230400Z AUTO 00000KT 10SM CLR 25/23 A2995 270 90 1500 000/00 RMK AO2 T02500233
53988KBKB BKB20190822220510808/22/19 22:05:31  5-MIN KBKB 230405Z AUTO 00000KT 10SM CLR 26/23 A2995 270 84 1700 000/00 RMK AO2 T02610233
53988KBKB BKB20190822221010808/22/19 22:10:31  5-MIN KBKB 230410Z AUTO 00000KT 10SM CLR 26/23 A2995 270 84 1700 000/00 RMK AO2 T02610233
53988KBKB BKB20190822221510808/22/19 22:15:31  5-MIN KBKB 230415Z AUTO 00000KT 10SM CLR 26/23 A2995 270 84 1700 000/00 RMK AO2 T02610233
53988KBKB BKB20190822222010808/22/19 22:20:31  5-MIN KBKB 230420Z AUTO 00000KT 10SM CLR 26/23 A2995 270 84 1700 000/00 RMK AO2 T02610233
53988KBKB BKB20190822222510808/22/19 22:25:31  5-MIN KBKB 230425Z AUTO 00000KT 10SM CLR 26/23 A2995 270 84 1700 000/00 RMK AO2 T02610233
53988KBKB BKB20190822223010808/22/19 22:30:31  5-MIN KBKB 230430Z AUTO 00000KT 10SM CLR 26/24 A2995 270 90 1600 000/00 RMK AO2 T02560239
53988KBKB BKB20190822223510808/22/19 22:35:31  5-MIN KBKB 230435Z AUTO 00000KT 10SM CLR 26/23 A2995 270 87 1600 000/00 RMK AO2 T02560233
53988KBKB BKB20190822224010808/22/19 22:40:31  5-MIN KBKB 230440Z AUTO 00000KT 10SM CLR 26/24 A2995 270 90 1600 000/00 RMK AO2 T02560239
53988KBKB BKB20190822224510808/22/19 22:45:31  5-MIN KBKB 230445Z AUTO 00000KT 10SM CLR 26/23 A2995 270 87 1600 000/00 RMK AO2 T02560233
53988KBKB BKB20190822225011508/22/19 22:50:31  5-MIN KBKB 230450Z AUTO 00000KT 10SM CLR 26/24 A2995 270 90 1600 000/00 RMK AO2 SLP166 T02560239
53988KBKB BKB20190822225510808/22/19 22:55:31  5-MIN KBKB 230455Z AUTO 00000KT 10SM CLR 26/24 A2995 270 90 1600 000/00 RMK AO2 T02560239
53988KBKB BKB20190822230010808/22/19 23:00:31  5-MIN KBKB 230500Z AUTO 00000KT 10SM CLR 26/24 A2995 270 90 1600 000/00 RMK AO2 T02560239
53988KBKB BKB20190822230510808/22/19 23:05:31  5-MIN KBKB 230505Z AUTO 00000KT 10SM CLR 26/24 A2995 270 90 1600 000/00 RMK AO2 T02560239
53988KBKB BKB20190822231011808/22/19 23:10:31  5-MIN KBKB 230510Z AUTO 00000KT 10SM CLR 25/24 A2995 270 A2995 270 90 1500 000/00 RMK AO2 T02500233
53988KBKB BKB20190822234011808/22/19 23:40:31  5-MIN KBKB 230540Z AUTO 00000KT 10SM FEW019 FEW025 25/23 A2995 270 90 1500 000/00 RMK AO2 T02500233
53988KBKB BKB20190822234511108/22/19 23:45:31  5-MIN KBKB 230545Z AUTO 00000KT 10SM FEW025 25/23 A2994 280 90 1500 000/00 RMK AO2 T02500233
53988KBKB BKB20190822235014308/22/19 23:50:31  5-MIN KBKB 230550Z AUTO 00000KT 10SM CLR 24/23 A2994 280 93 1500 000/00 RMK AO2 SLP162 T02440233 10300 20244 403440233 53017
53988KBKB BKB20190822235510808/22/19 23:55:31  5-MIN KBKB 230555Z AUTO 00000KT 10SM CLR 25/23 A2994 280 90 1500 000/00 RMK AO2 T02500233
53988KBKB BKB20190823000010808/23/19 00:00:31  5-MIN KBKB 230600Z AUTO 00000KT 10SM CLR 25/23 A2993 280 90 1500 000/00 RMK AO2 T02500233
53988KBKB BKB20190823000013408/23/19 00:00:31  5-MIN KBKB 230600Z AUTO 00000KT 10SM CLR 25/23 A2993 280 90 1500 000/00 RMK AO2270 90 1500 000/00 RMK AO2 T02500233
53988KBKB BKB20190823000510808/23/19 00:05:31  5-MIN KBKB 230605Z AUTO 00000KT 10SM CLR 24/23 A2993 290 93 1500 000/00 RMK AO2 T02440233
53988KBKB BKB20190823001010808/23/19 00:10:31  5-MIN KBKB 230610Z AUTO 00000KT 10SM CLR 24/23 A2993 290 93 1500 000/00 RMK AO2 T02440233
53988KBKB BKB20190823001510808/23/19 00:15:31  5-MIN KBKB 230615Z AUTO 00000KT 10SM CLR 24/23 A2993 290 93 1500 000/00 RMK AO2 T02440233
53988KBKB BKB20190823002010808/23/19 00:20:31  5-MIN KBKB 230620Z AUTO 00000KT 10SM CLR 24/23 A2993 290 93 1500 000/00 RMK AO2 T02440233
53988KBKB BKB20190823002510808/23/19 00:25:31  5-MIN KBKB 230625Z AUTO 00000KT 10SM CLR 24/23 A2993 290 93 1500 000/00 RMK AO2 T02440233
53988KBKB BKB20190823003010808/23/19 00:30:31  5-MIN KBKB 230630Z AUTO 00000KT 10SM CLR 24/23 A2992 290 93 1500 000/00 RMK AO2 T02440233
53988KBKB BKB20190823003510808/23/19 00:35:31  5-MIN KBKB 230635Z AUTO 00000KT 10SM CLR 24/23 A2993 290 93 1500 000/00 RMK AO2 T02440233
53988KBKB BKB20190823004010808/23/19 00:40:31  5-MIN KBKB 230640Z AUTO 00000KT 10SM CLR 24/23 A2993 290 93 1500 000/00 RMK AO2 T02440233
53988KBKB BKB20190823004510808/23/19 00:45:31  5-MIN KBKB 230645Z AUTO 00000KT 10SM CLR 24/23 A2993 290 93 1500 000/00 RMK AO2 T02440233
53988KBKB BKB20190823005011508/23/19 00:50:31  5-MIN KBKB 230650Z AUTO 00000KT 10SM CLR 24/23 A2993 290 97 1400 000/00 RMK AO2 SLP158 T02390233
53988KBKB BKB20190823005510708/23/19 00:55:31  5-MIN KBKB 230655Z AUTO 00000KT 9SM CLR 24/23 A2993 290 97 1400 000/00 RMK AO2 T02390233
53988KBKB BKB20190823010010708/23/19 01:00:31  5-MIN KBKB 230700Z AUTO 00000KT 9SM CLR 24/23 A2992 300 93 1400 000/00 RMK AO2 T02390228
53988KBKB BKB20190823010510708/23/19 01:05:31  5-MIN KBKB 230705Z AUTO 00000KT 9SM CLR 24/23 A2992 300 93 1400 000/00 RMK AO2 T02390228
53988KBKB BKB20190823011010708/23/19 01:10:31  5-MIN KBKB 230710Z AUTO 00000KT 9SM CLR 24/23 A2992 300 97 1400 000/00 RMK AO2 T02390233
53988KBKB BKB20190823011510708/23/19 01:15:31  5-MIN KBKB 230715Z AUTO 00000KT 9SM CLR 24/23 A2992 300 97 1400 000/00 RMK AO2 T02390233
53988KBKB BKB20190823012010708/23/19 01:20:31  5-MIN KBKB 230720Z AUTO 00000KT 9SM CLR 24/23 A2992 300 93 1400 000/00 RMK AO2 T02390228
53988KBKB BKB20190823012510708/23/19 01:25:31  5-MIN KBKB 230725Z AUTO 00000KT 9SM CLR 24/23 A2992 300 93 1400 000/00 RMK AO2 T02390228
53988KBKB BKB20190823013010708/23/19 01:30:31  5-MIN KBKB 230730Z AUTO 00000KT 8SM CLR 24/23 A2992 300 93 1400 000/00 RMK AO2 T02390228
53988KBKB BKB20190823013510708/23/19 01:35:31  5-MIN KBKB 230735Z AUTO 00000KT 9SM CLR 24/23 A2992 300 93 1400 000/00 RMK AO2 T02390228
53988KBKB BKB20190823014010708/23/19 01:40:31  5-MIN KBKB 230740Z AUTO 00000KT 9SM CLR 24/23 A2992 300 93 1400 000/00 RMK AO2 T02390228
53988KBKB BKB20190823014510708/23/19 01:45:31  5-MIN KBKB 230745Z AUTO 00000KT 9SM CLR 24/23 A2992 300 93 1400 000/00 RMK AO2 T02390228
53988KBKB BKB20190823015011408/23/19 01:50:31  5-MIN KBKB 230750Z AUTO 00000KT 9SM CLR 24/23 A2992 300 93 1400 000/00 RMK AO2 SLP154 T02390228
53988KBKB BKB20190823015510708/23/19 01:55:31  5-MIN KBKB 230755Z AUTO 00000KT 9SM CLR 24/23 A2992 300 93 1400 000/00 RMK AO2 T02390228
53988KBKB BKB20190823020010708/23/19 02:00:31  5-MIN KBKB 230800Z AUTO 00000KT 9SM CLR 24/23 A2991 300 93 1400 000/00 RMK AO2 T02390228
53988KBKB BKB20190823020510708/23/19 02:05:31  5-MIN KBKB 230805Z AUTO 00000KT 9SM CLR 24/23 A2991 300 93 1400 000/00 RMK AO2 T02390228
53988KBKB BKB20190823021010708/23/19 02:10:31  5-MIN KBKB 230810Z AUTO 00000KT 9SM CLR 24/23 A2991 300 93 1400 000/00 RMK AO2 T02390228
53988KBKB BKB20190823021510708/23/19 02:15:31  5-MIN KBKB 230815Z AUTO 00000KT 9SM CLR 24/23 A2991 310 93 1400 000/00 RMK AO2 T02390228
53988KBKB BKB20190823021515008/23/19 02:15:31  5-MIN KBKB 230815Z AUTO 00000KT9 02:40:31  5-MIN KBKB 230840Z AUTO 00000KT 9SM CLR 24/23 A2991 310 93 1500 000/00 RMK AO2 T02390228
53988KBKB BKB20190823022010708/23/19 02:20:31  5-MIN KBKB 230820Z AUTO 00000KT 8SM CLR 24/23 A2991 310 93 1400 000/00 RMK AO2 T02390228
53988KBKB BKB20190823022510708/23/19 02:25:31  5-MIN KBKB 230825Z AUTO 00000KT 8SM CLR 24/23 A2991 310 93 1500 000/00 RMK AO2 T02390228
53988KBKB BKB20190823023010708/23/19 02:30:31  5-MIN KBKB 230830Z AUTO 00000KT 9SM CLR 24/23 A2991 310 93 1500 000/00 RMK AO2 T02390228
53988KBKB BKB20190823023510708/23/19 02:35:31  5-MIN KBKB 230835Z AUTO 00000KT 9SM CLR 24/23 A2991 310 97 1500 000/00 RMK AO2 T02390233
53988KBKB BKB20190823024010708/23/19 02:40:31  5-MIN KBKB 230840Z AUTO 00000KT 9SM CLR 24/23 A2991 310 93 1500 000/00 RMK AO2 T02390228
53988KBKB BKB20190823024510708/23/19 02:45:31  5-MIN KBKB 230845Z AUTO 00000KT 9SM CLR 24/23 A2991 310 93 1400 000/00 RMK AO2 T02390228
53988KBKB BKB20190823025012008/23/19 02:50:31  5-MIN KBKB 230850Z AUTO 00000KT 9SM CLR 24/23 A2991 300 93 1400 000/00 RMK AO2 SLP153 T02390228 58001
53988KBKB BKB20190823025510708/23/19 02:55:31  5-MIN KBKB 230855Z AUTO 00000KT 8SM CLR 24/23 A2991 300 93 1400 000/00 RMK AO2 T02390228
53988KBKB BKB20190823030010708/23/19 03:00:31  5-MIN KBKB 230900Z AUTO 00000KT 9SM CLR 24/23 A2992 300 93 1400 000/00 RMK AO2 T02390228
53988KBKB BKB20190823030510708/23/19 03:05:31  5-MIN KBKB 230905Z AUTO 00000KT 9SM CLR 24/23 A2991 300 93 1400 000/00 RMK AO2 T02390228
53988KBKB BKB20190823031010708/23/19 03:10:31  5-MIN KBKB 230910Z AUTO 00000KT 8SM CLR 24/23 A2991 310 93 1400 000/00 RMK AO2 T02390228
53988KBKB BKB20190823031510708/23/19 03:15:31  5-MIN KBKB 230915Z AUTO 00000KT 9SM CLR 24/23 A2992 300 97 1400 000/00 RMK AO2 T02390233
53988KBKB BKB20190823032010808/23/19 03:20:31  5-MIN KBKB 230920Z AUTO 00000KT 10SM CLR 24/23 A2992 300 97 1400 000/00 RMK AO2 T02390233
53988KBKB BKB20190823032510708/23/19 03:25:31  5-MIN KBKB 230925Z AUTO 00000KT 9SM CLR 24/23 A2992 300 93 1400 000/00 RMK AO2 T02390228
53988KBKB BKB20190823033010708/23/19 03:30:31  5-MIN KBKB 230930Z AUTO 00000KT 8SM CLR 24/23 A2992 300 93 1400 000/00 RMK AO2 T02390228
53988KBKB BKB20190823033510708/23/19 03:35:31  5-MIN KBKB 230935Z AUTO 00000KT 8SM CLR 24/23 A2992 290 93 1400 000/00 RMK AO2 T02390228
53988KBKB BKB20190823034010708/23/19 03:40:31  5-MIN KBKB 230940Z AUTO 00000KT 7SM CLR 24/23 A2992 290 93 1400 000/00 RMK AO2 T02390228
53988KBKB BKB20190823034510708/23/19 03:45:31  5-MIN KBKB 230945Z AUTO 00000KT 7SM CLR 24/23 A2992 300 93 1400 000/00 RMK AO2 T02390228
53988KBKB BKB20190823035011408/23/19 03:50:31  5-MIN KBKB 230950Z AUTO 00000KT 7SM CLR 24/23 A2992 290 93 1400 000/00 RMK AO2 SLP158 T02390228
53988KBKB BKB20190823035510708/23/19 03:55:31  5-MIN KBKB 230955Z AUTO 00000KT 7SM CLR 24/23 A2993 290 93 1400 000/00 RMK AO2 T02390228
53988KBKB BKB20190823040011008/23/19 04:00:31  5-MIN KBKB 231000Z AUTO 00000KT 6SM BR CLR 24/23 A2993 290 93 1400 000/00 RMK AO2 T02390228
53988KBKB BKB20190823040511308/23/19 04:05:31  5-MIN KBKB 231005Z AUTO 00000KT 6SM BR FEW024 24/23 A2992 290 93 1400 000/00 RMK AO2 T02390228
53988KBKB BKB20190823041011308/23/19 04:10:31  5-MIN KBKB 231010Z AUTO 00000KT 6SM BR FEW026 24/23 A2992 290 93 1400 000/00 RMK AO2 T02390228
53988KBKB BKB20190823041511008/23/19 04:15:31  5-MIN KBKB 231015Z AUTO 00000KT 7SM FEW026 24/23 A2993 290 93 1400 000/00 RMK AO2 T02390228
53988KBKB BKB20190823042011308/23/19 04:20:31  5-MIN KBKB 231020Z AUTO 00000KT 6SM BR FEW026 24/23 A2993 290 93 1400 000/00 RMK AO2 T02390228
53988KBKB BKB20190823042511308/23/19 04:25:31  5-MIN KBKB 231025Z AUTO 00000KT 6SM BR FEW026 24/23 A2993 290 93 1400 000/00 RMK AO2 T02390228
53988KBKB BKB20190823043011008/23/19 04:30:31  5-MIN KBKB 231030Z AUTO 00000KT 7SM FEW026 24/23 A2993 290 93 1400 000/00 RMK AO2 T02390228
53988KBKB BKB20190823043511008/23/19 04:35:31  5-MIN KBKB 231035Z AUTO 00000KT 6SM BR CLR 24/23 A2994 280 93 1400 000/00 RMK AO2 T02390228
53988KBKB BKB20190823044011008/23/19 04:40:31  5-MIN KBKB 231040Z AUTO 00000KT 6SM BR CLR 24/23 A2994 280 93 1400 000/00 RMK AO2 T02390228
53988KBKB BKB20190823044510708/23/19 04:45:31  5-MIN KBKB 231045Z AUTO 00000KT 7SM CLR 24/23 A2994 280 93 1400 000/00 RMK AO2 T02390228
53988KBKB BKB20190823045011408/23/19 04:50:31  5-MIN KBKB 231050Z AUTO 00000KT 7SM CLR 24/23 A2994 280 93 1400 000/00 RMK AO2 SLP163 T02390228
53988KBKB BKB20190823045510708/23/19 04:55:31  5-MIN KBKB 231055Z AUTO 00000KT 7SM CLR 24/23 A2994 280 93 1400 000/00 RMK AO2 T02390228
53988KBKB BKB20190823050016808/23/19 05:00:31  5-MIN KBKB 231100Z AUTO 00000KT 7SM CSM  06:50:31  5-MIN KBKB 231250Z AUTO VRB03KT 7SM OVC002 24/24 A2997 250 97 1400 VRB/03 RMK AO2 SLP173 T02440239
53988KBKB BKB20190823065511008/23/19 06:55:31  5-MIN KBKB 231255Z AUTO 00000KT 8SM OVC002 24/24 A2997 250 97 1400 000/00 RMK AO2 T02440239
53988KBKB BKB20190823070011008/23/19 07:00:31  5-MIN KBKB 231300Z AUTO 00000KT 9SM OVC002 24/24 A2997 260 97 1400 000/00 RMK AO2 T02440239
53988KBKB BKB20190823070511108/23/19 07:05:31  5-MIN KBKB 231305Z AUTO 00000KT 10SM OVC003 25/24 A2997 250 97 1500 000/00 RMK AO2 T02500244
53988KBKB BKB20190823071011108/23/19 07:10:31  5-MIN KBKB 231310Z AUTO 00000KT 10SM OVC003 25/24 A2997 250 97 1500 000/00 RMK AO2 T02500244
53988KBKB BKB20190823071511108/23/19 07:15:31  5-MIN KBKB 231315Z AUTO 00000KT 10SM OVC003 25/24 A2997 250 97 1500 000/00 RMK AO2 T02500244
53988KBKB BKB20190823072011808/23/19 07:20:31  5-MIN KBKB 231320Z AUTO VRB03KT 10SM BKN004 OVC015 26/24 A2997 250 93 1600 VRB/03 RMK AO2 T02560244
53988KBKB BKB20190823072016308/23/19 07:20:31  5-MIN KBKB 231320Z AUTO VRB03KT 10SM BKN09 07:00:31  5-MIN KBKB 231300Z AUTO 00000KT 9SM OVC002 24/24 A2997 260 97 1400 000/00 RMK AO2 T02440239
53988KBKB BKB20190823072513008/23/19 07:25:31  5-MIN KBKB 231325Z AUTO VRB03KT 10SM BKN004 OVC015 26/24 A2997 250 93 1600 VRB/03 RMK AO2 CIG 003V007 T02560244
53988KBKB BKB20190823072515408/23/19 07:25:31  5-MIN KBKB 231325Z AUTO VRB03KT 10SM BKN004 OVC015 26/24 A2997 250 93 1600 VRB/03 RMK AO2 CIG 003V007 T0256024408/23/19 07:30:31  5-M44
53988KBKB BKB20190823073013008/23/19 07:30:31  5-MIN KBKB 231330Z AUTO VRB04KT 10SM BKN004 OVC015 26/24 A2997 250 90 1600 VRB/04 RMK AO2 CIG 004V007 T02610244
53988KBKB BKB20190823073511808/23/19 07:35:31  5-MIN KBKB 231335Z AUTO 00000KT 10SM BKN006 OVC015 27/24 A2997 250 87 1700 000/00 RMK AO2 T02500244
53988KBKB BKB20190823073513008/23/19 07:35:31  5-MIN KBKB 231335Z AUTO 00000KT 10SM BKN006 OVC015 27/24 A2997 250 87 1700 000/00 RMK AO2 CIG 004V007 T02670244
53988KBKB BKB20190823074011808/23/19 07:40:31  5-MIN KBKB 231340Z AUTO VRB03KT 10SM SCT006 OVC015 27/24 A2997 260 84 1800 VRB/03 RMK AO2 T02720244
53988KBKB BKB20190823074511808/23/19 07:45:31  5-MIN KBKB 231345Z AUTO VRB03KT 10SM FEW006 BKN015 27/24 A1600 VRB/03 RMK AO2 CIG 003V007 T02560244
53988KBKB BKB20190823074511808/23/19 07:45:31  5-MIN KBKB 231345Z AUTO VRB03KT 10SM FEW006 BKN015 27/24 A2997 260 84 1800 VRB/03 RMK AO2 T02720244
53988KBKB BKB20190823075010808/23/19 07:50:31  5-MIN KBKB 231350Z AUTO VRB03KT 10SM FEW006 SCT015 27/24 A2996 260 84 1800 VRB/03 RMK AO2
53988KBKB BKB20190823075511808/23/19 07:55:31  5-MIN KBKB 231355Z AUTO VRB03KT 10SM FEW007 SCT015 28/24 A2996 260 82 1800 VRB/03 RMK AO2 T02780244
53988KBKB BKB20190823075515008/23/19 07:55:31  5-MIN KBKB 231355Z AUTO VRB03KT 10SM FEW007 SCT015 28/24 A2996 26VC015 27/24 A2997 250 87 1700 000/00 RMK AO2 CIG 004V007 T02670244
53988KBKB BKB20190823080009108/23/19 08:00:31  5-MIN KBKB 231400Z AUTO VRB03KT 10SM FEW007 FEW015 28/24 A29O2 T03110239
53988KBKB BKB20190823102512508/23/19 10:25:31  5-MIN KBKB 231625Z AUTO VRB04KT 10SM SCT026 BKN033 BKN042 31/24 A2995 270 65 2200 VRB/04 RMK AO2 T03110239
53988KBKB BKB20190823103012508/23/19 10:30:31  5-MIN KBKB 231630Z AUTO VRB05KT 10SM BKN028 BKN039 BKN050 30/24 A2995 270 69 2100 VRB/05 RMK AO2 T03000239
53988KBKB BKB20190823103512508/23/19 10:35:31  5-MIN KBKB 231635Z AUTO VRB05KT 10SM SCT028 SCT033 BKN050 31/24 A2995 280 69 2200 VRB/05 RMK AO2 T03060244
53988KBKB BKB20190823104012108/23/19 10:40:31  5-MIN KBKB 231640Z AUTO VRB04KT 10SM FEWBKN033 BKN075 32/24 A2995 270 65 2300 VRB/03 RMK AO2 T03170244
53988KBKB BKB20190823104012508/23/19 10:40:31  5-MIN KBKB 231640Z AUTO VRB04KT 10SM FEW028 FEW034 SCT050 31/24 A2995 280 69 2200 VRB/04 RMK AO2 T03060244
53988KBKB BKB20190823104512508/23/19 10:45:31  5-MIN KBKB 231645Z AUTO VRB05KT 10SM FEW026 SCT038 SCT050 30/24 A2995 270 69 2100 VRB/05 RMK AO2 T03000239
53988KBKB BKB20190823105012108/23/19 10:50:31  5-MIN KBKB 231650ZO VRB05KT 10SM BKN028 BKN039 BKN050 30/24 A2995 270 69 2100 VRB/05 RMK AO2 T03000239
53988KBKB BKB20190823105012508/23/19 10:50:31  5-MIN KBKB 231650Z AUTO VRB04KT 10SM FEW026 SCT050 31/24 A2994 280 69 2200 VRB/04 RMK AO2 SLP165 T03060244
53988KBKB BKB20190823105511808/23/19 10:55:31  5-MIN KBKB 231655Z AUTO VRB05KT 10SM FEW028 FEW050 31/24 A2994 280 67 2200 VRB/05 RMK AO2 T03110244
53988KBKB BKB20190823105517308/23/19 10:55:31  5-MIN KBKB 231655Z AUTO VRB05KT 10SM FEW028 FEW050 31/24 A2994 280 67 2200 VRB/05 RMK AO2 T03110244SCT050 31/24 A2995 280 69 2200 VRB/04 RMK AO2 T03060244
53988KBKB BKB20190823110011108/23/19 11:00:31  5-MIN KBKB 231700Z AUTO VRB04KT 10SM FEW055 31/24 A2994 280 65 2200 VRB/04 RMK AO2 T03110239
53988KBKB BKB20190823110510808/23/19 11:05:31  5-MIN KBKB 231705Z AUTO VRB03KT 10SM CLR 32/25 A2994 280 65 2300 VRB/03 RMK AO2 T03220250
53988KBKB BKB20190823110515808/23/19 11:05:31  5-MIN KBKB 231705Z AUTO VRB03KT 10SM CLR 32/25 A2994 280 65 2300 VRB/03 RMK AO2 T03220250 A2994 280 69 2200 VRB/04 RMK AO2 SLP165 T03060244
53988KBKB BKB20190823111011108/23/19 11:10:31  5-MIN KBKB 231710Z AUTO VRB06KT 10SM FEW023 32/24 A2995 280 65 2300 VRB/06 RMK AO2 T03170244
53988KBKB BKB20190823111511808/23/19 11:15:31  5-MIN KBKB 231715Z AUTO VRB05KT 10SM FEW026 SCT048 31/24 A2994 280 67 2200 VRB/05 RMK AO2 T03110244
53988KBKB BKB20190823111513008/23/19 11:15:31  5-MIN KBKB 231715Z AUTO VRB05KT 10SM FEW026 SCT048 31/24BKN044 31/24 A2993 290 69 2200 VRB/03 RMK AO2 T03060244
53988KBKB BKB20190823112004608/23/19 11:20:31  5-MIN KBKB 231720Z 03110244
53988KBKB BKB20190823112012508/23/19 11:20:31  5-MIN KBKB 231720Z AUTO VRB06KT 10SM FEW026 SCT033 SCT048 31/24 A2994 280 69 2200 VRB/06 RMK AO2 T03060244
53988KBKB BKB20190823112514008/23/19 11:25:31  5-MIN KBKB 231725Z AUTO VRB04KT 10SM FEW028 SCT032 BKN046 31/24 A2994 280 69 2200 VRB/04 RMK AO2 T0306024408/23/103220250
53988KBKB BKB20190823124510808/23/19 12:45:31  5-MIN KBKB 231845Z AUTO 10SM SCT029 BKN038 31/24 A2992 300 65 2300 M /M RMK AO2 T03110239
53988KBKB BKB20190823125012508/23/19 12:50:31  5-MIN KBKB 231850Z AUTO 17004KT 10SM SCT029 BKN040 31/24 A2992 300 65 2300 160/04 RMK AO2 SLP155 T03110239
53988KBKB BKB20190823125512508/23/19 12:55:31  5-MIN KBKB 231855Z AUTO VRB06KT 10SM FEW029 BKN039 BKN055 31/24 A2992 300 67 2200 VRB/06 RMK AO2 T03110244
53988KBKB BKB20190823130012508/23/19 13:00:31  5-MIN KBKB 231900Z AUTO VRB04KT 10SM FEW029 SCT039 BKN050 32/25 A2992 300 65 2400 VRB/04 RMK AO2 T03220250
53988KBKB BKB20190823130512508/23/19 13:05:31  5-MIN KBKB 231905Z AUTO VRB04KT 10SM FEW029 SCT039 SCT055 31/24 A2992 300 67 2200 VRB/04 RMK AO2 T03110244
53988KBKB BKB20190823131012508/23/19 13:10:31  5-MIN KBKB 231910Z AUTO VRB05KT 10SM FEW027 BKN038 BKN055 31/24 A2993 290 69 2200 VRB/05 RMK AO2 T03060244
53988KBKB BKB20190823131512508/23/19 13:15:31  5-MIN KBKB 231915Z AUTO VRB06KT 10SM FEW024 SCT038 BKN045 32/24 A2993 290 65 2300 VRB/06 RMK AO2 T03170244
53988KBKB BKB20190823132012508/23/19 13:20:31  5-MIN KBKB 231920Z AUTO VRB05KT 10SM FEW024 FEW035 BKN045 31/24 A2993 290 69 2200 VRB/05 RMK AO2 T03060244
53988KBKB BKB20190823132512508/23/19 13:25:31  5-MIN KBKB 231925Z AUTO VRB04KT 10SM SCT024 SCT040 SCT047 31/24 A2993 290 69 2200 VRB/04 RMK AO2 T03060244
53988KBKB BKB20190823133012508/23/19 13:30:31  5-MIN KBKB 231930Z AUTO VRB05KT 10SM FEW024 BKN029 BKN040 30/24 A2993 290 69 2100 VRB/05 RMK AO2 T03000239
53988KBKB BKB20190823133512508/23/19 13:35:31  5-MIN KBKB 231935Z AUTO VRB03KT 10SM FEW023 SCT031 BKN044 31/24 A2993 290 69 2200 VRB/03 RMK AO2 T03060244
53988KBKB BKB20190823134012508/23/19 13:40:31  5-MIN KBKB 231940Z AUTO VRB05KT 10SM FEW023 SCT031 BKN044 31/24 A2993 290 67 2200 VRB/05 RMK AO2 T03110244
53988KBKB BKB20190823134512508/23/19 13:45:31  5-MIN KBKB 231945Z AUTO VRB03KT 10SM SCT023 SCT031 BKN042 32/24 A2993 290 65 2300 VRB/03 RMK AO2 T03170244
53988KBKB BKB20190823135013208/23/19 13:50:31  5-MIN KBKB 231950Z AUTO VRB05KT 10SM SCT025 BKN031 BKN042 31/24 A2992 290 67 2200 VRB/05 RMK AO2 SLP158 T03110244
53988KBKB BKB20190823135512508/23/19 13:55:31  5-MIN KBKB 231955Z AUTO VRB05KT 10SM SCT025 SCT031 BKN042 31/24 A2992 300 69 2200 VRB/05 RMK AO2 T03060244
53988KBKB BKB20190823140012508/23/19 14:00:31  5-MIN KBKB 232000Z AUTO 21005KT 10SM SCT025 SCT031 BKN042 30/24 A2991 300 69 2100 200/05 RMK AO2 T03000239
53988KBKB BKB20190823140511508/23/19 14:05:31  5-MIN KBKB 232005Z AUTO 10SM FEW025 SCT030 SCT055 31/24 A2991 310 67 2300 M /M RMK AO2 T03110244
53988KBKB BKB20190823141011108/23/19 14:10:31  5-MIN KBKB 232010Z AUTO VRB04KT 10SM SCT025 31/24 A2991 300 67 2300 VRB/04 RMK AO2 T03110244
53988KBKB BKB20190823141511108/23/19 14:15:31  5-MIN KBKB 232015Z AUTO VRB05KT 10SM FEW025 31/24 A2991 310 67 2300 VRB/05 RMK AO2 T03110244
53988KBKB BKB20190823142011108/23/19 14:20:31  5-MIN KBKB 232020Z AUTO VRB04KT 10SM FEW025 31/24 A2991 310 65 2300 VRB/04 RMK AO2 T03110239
53988KBKB BKB20190823142511108/23/19 14:25:31  5-MIN KBKB 232025Z AUTO VRB04KT 10SM FEW027 31/24 A2991 310 67 2200 VRB/04 RMK AO2 T03060239
53988KBKB BKB20190823143011108/23/19 14:30:31  5-MIN KBKB 232030Z AUTO VRB06KT 10SM FEW026 31/24 A2991 310 67 2200 VRB/06 RMK AO2 T03060239
53988KBKB BKB20190823143510808/23/19 14:35:31  5-MIN KBKB 232035Z AUTO VRB05KT 10SM CLR 31/24 A2990 310 67 2200 VRB/05 RMK AO2 T03060239
53988KBKB BKB20190823144011108/23/19 14:40:31  5-MIN KBKB 232040Z AUTO 00000KT 10SM FEW028 31/24 A2990 320 65 2300 000/00 RMK AO2 T03110239
53988KBKB BKB20190823144511108/23/19 14:45:31  5-MIN KBKB 232045Z AUTO VRB04KT 10SM FEW028 31/24 A2990 310 65 2300 VRB/04 RMK AO2 T03110239
53988KBKB BKB20190823145012408/23/19 14:50:31  5-MIN KBKB 232050Z AUTO VRB05KT 10SM FEW028 31/24 A2990 320 65 2300 VRB/05 RMK AO2 SLP150 T03110239 58010
53988KBKB BKB20190823145511808/23/19 14:55:31  5-MIN KBKB 232055Z AUTO VRB04KT 10SM FEW029 FEW035 32/24 A2990 310 63 2300 VRB/04 RMK AO2 T03170239
53988KBKB BKB20190823150011808/23/19 15:00:31  5-MIN KBKB 232100Z AUTO VRB03KT 10SM FEW029 FEW035 31/24 A2991 310 65 2300 VRB/03 RMK AO2 T03110239
53988KBKB BKB20190823150510808/23/19 15:05:31  5-MIN KBKB 232105Z AUTO 22005KT 10SM CLR 31/24 A2991 310 67 2200 210/05 RMK AO2 T03060239
53988KBKB BKB20190823151011108/23/19 15:10:31  5-MIN KBKB 232110Z AUTO VRB03KT 10SM FEW033 31/23 A2991 310 65 2200 VRB/03 RMK AO2 T03060233
53988KBKB BKB20190823151510808/23/19 15:15:31  5-MIN KBKB 232115Z AUTO VRB04KT 10SM CLR 31/23 A2991 310 65 2200 VRB/04 RMK AO2 T03060233
53988KBKB BKB20190823152010808/23/19 15:20:31  5-MIN KBKB 232120Z AUTO VRB03KT 10SM CLR 31/23 A2991 310 65 2200 VRB/03 RMK AO2 T03060233
53988KBKB BKB20190823152511108/23/19 15:25:31  5-MIN KBKB 232125Z AUTO VRB03KT 10SM FEW070 31/23 A2991 310 65 2200 VRB/03 RMK AO2 T03060233
53988KBKB BKB20190823153011108/23/19 15:30:31  5-MIN KBKB 232130Z AUTO VRB03KT 10SM FEW070 31/24 A2990 320 65 2300 VRB/03 RMK AO2 T03110239
53988KBKB BKB20190823153511108/23/19 15:35:31  5-MIN KBKB 232135Z AUTO VRB03KT 10SM FEW070 32/24 A2990 320 63 2300 VRB/03 RMK AO2 T03170239
53988KBKB BKB20190823154011108/23/19 15:40:31  5-MIN KBKB 232140Z AUTO VRB03KT 10SM FEW070 31/23 A2990 310 63 2300 VRB/03 RMK AO2 T03110233
53988KBKB BKB20190823154511108/23/19 15:45:31  5-MIN KBKB 232145Z AUTO VRB03KT 10SM FEW070 31/23 A2991 310 63 2300 VRB/03 RMK AO2 T03110233
53988KBKB BKB20190823155011808/23/19 15:50:31  5-MIN KBKB 232150Z AUTO VRB03KT 10SM FEW070 31/23 A2991 310 63 2300 VRB/03 RMK AO2 SLP152 T03110233
53988KBKB BKB20190823155511108/23/19 15:55:31  5-MIN KBKB 232155Z AUTO VRB03KT 10SM FEW032 31/23 A2991 310 63 2300 VRB/03 RMK AO2 T03110233
53988KBKB BKB20190823160011108/23/19 16:00:31  5-MIN KBKB 232200Z AUTO VRB03KT 10SM SCT032 31/24 A2991 310 65 2300 VRB/03 RMK AO2 T03110239
53988KBKB BKB20190823160511808/23/19 16:05:31  5-MIN KBKB 232205Z AUTO 15003KT 10SM SCT030 SCT040 31/24 A2991 310 65 2300 140/03 RMK AO2 T03110239
53988KBKB BKB20190823161011808/23/19 16:10:31  5-MIN KBKB 232210Z AUTO 00000KT 10SM FEW030 SCT044 31/24 A2991 310 67 2200 000/00 RMK AO2 T03060239
53988KBKB BKB20190823161511108/23/19 16:15:31  5-MIN KBKB 232215Z AUTO VRB03KT 10SM FEW030 31/23 A2991 310 65 2200 VRB/03 RMK AO2 T03060233
53988KBKB BKB20190823162011108/23/19 16:20:31  5-MIN KBKB 232220Z AUTO 00000KT 10SM FEW032 31/24 A2991 310 67 2200 000/00 RMK AO2 T03060239
53988KBKB BKB20190823162511108/23/19 16:25:31  5-MIN KBKB 232225Z AUTO VRB03KT 10SM SCT032 31/24 A2991 310 67 2200 VRB/03 RMK AO2 T03060239
53988KBKB BKB20190823163011108/23/19 16:30:31  5-MIN KBKB 232230Z AUTO 00000KT 10SM SCT032 31/23 A2991 310 63 2300 000/00 RMK AO2 T03110233
53988KBKB BKB20190823163511108/23/19 16:35:31  5-MIN KBKB 232235Z AUTO VRB03KT 10SM SCT033 31/23 A2991 310 63 2300 VRB/03 RMK AO2 T03110233
53988KBKB BKB20190823164011108/23/19 16:40:31  5-MIN KBKB 232240Z AUTO VRB04KT 10SM FEW033 31/23 A2991 310 65 2200 VRB/04 RMK AO2 T03060233
53988KBKB BKB20190823164511108/23/19 16:45:31  5-MIN KBKB 232245Z AUTO 00000KT 10SM FEW033 30/23 A2991 310 67 2100 000/00 RMK AO2 T03000233
53988KBKB BKB20190823165011808/23/19 16:50:31  5-MIN KBKB 232250Z AUTO VRB03KT 10SM FEW033 30/23 A2990 310 67 2100 VRB/03 RMK AO2 SLP151 T03000233
53988KBKB BKB20190823165511108/23/19 16:55:31  5-MIN KBKB 232255Z AUTO 00000KT 10SM FEW033 29/23 A2990 310 69 2100 000/00 RMK AO2 T02940233
53988KBKB BKB20190823170010808/23/19 17:00:31  5-MIN KBKB 232300Z AUTO 00000KT 10SM CLR 29/24 A2990 320 71 2100 000/00 RMK AO2 T02940239
53988KBKB BKB20190823170510808/23/19 17:05:31  5-MIN KBKB 232305Z AUTO 00000KT 10SM CLR 29/24 A2990 320 71 2100 000/00 RMK AO2 T02940239
53988KBKB BKB20190823171011108/23/19 17:10:31  5-MIN KBKB 232310Z AUTO 00000KT 10SM FEW030 29/24 A2990 320 74 2000 000/00 RMK AO2 T02890239
53988KBKB BKB20190823171511808/23/19 17:15:31  5-MIN KBKB 232315Z AUTO VRB03KT 10SM SCT030 SCT035 29/24 A2990 320 74 2000 VRB/03 RMK AO2 T02890239
53988KBKB BKB20190823172011108/23/19 17:20:31  5-MIN KBKB 232320Z AUTO 00000KT 10SM SCT032 29/24 A2990 320 74 2000 000/00 RMK AO2 T02890239
53988KBKB BKB20190823172511808/23/19 17:25:31  5-MIN KBKB 232325Z AUTO 00000KT 10SM FEW030 FEW035 29/24 A2990 310 74 2000 000/00 RMK AO2 T02890239
53988KBKB BKB20190823173011108/23/19 17:30:31  5-MIN KBKB 232330Z AUTO 11003KT 10SM SCT032 29/24 A2990 310 74 2000 100/03 RMK AO2 T02890239
53988KBKB BKB20190823173510808/23/19 17:35:31  5-MIN KBKB 232335Z AUTO 10SM FEW023 BKN032 28/23 A2991 310 74 2000 M /M RMK AO2 T02830233
53988KBKB BKB20190823174011808/23/19 17:40:31  5-MIN KBKB 232340Z AUTO VRB06KT 10SM FEW025 BKN032 27/23 A2991 310 76 1800 VRB/06 RMK AO2 T02720228
53988KBKB BKB20190823174512508/23/19 17:45:31  5-MIN KBKB 232345Z AUTO 00000KT 10SM FEW025 SCT032 BKN040 27/23 A2991 300 79 1800 000/00 RMK AO2 T02670228
53988KBKB BKB20190823175015008/23/19 17:50:31  5-MIN KBKB 232350Z AUTO 00000KT 10SM SCT027 BKN040 BKN055 26/23 A2991 310 81 1700 000/00 RMK AO2 SLP154 T02610228 10322 20261 58010
53988KBKB BKB20190823175512508/23/19 17:55:31  5-MIN KBKB 232355Z AUTO 00000KT 10SM SCT027 BKN040 OVC100 26/22 A2991 310 81 1600 000/00 RMK AO2 T02560222
53988KBKB BKB20190823180011508/23/19 18:00:31  5-MIN KBKB 240000Z AUTO 10SM FEW025 BKN070 OVC095 26/22 A2991 310 81 1600 M /M RMK AO2 T02560222
53988KBKB BKB20190823180512508/23/19 18:05:31  5-MIN KBKB 240005Z AUTO VRB03KT 10SM FEW035 BKN070 OVC100 25/22 A2992 300 84 1600 VRB/03 RMK AO2 T02500222
53988KBKB BKB20190823181012508/23/19 18:10:31  5-MIN KBKB 240010Z AUTO VRB04KT 10SM FEW039 SCT070 OVC100 24/22 A2991 310 84 1500 VRB/04 RMK AO2 T02440217
53988KBKB BKB20190823181514708/23/19 18:15:31  5-MIN KBKB 240015Z AUTO 00000KT 10SM T 5-MIN KBKB 240120Z AUTO 00000KT 10SM CLR 24/23 A2991 310 90 1500 000/00 RMK AO2 T02440228
53988KBKB BKB20190823192510808/23/19 19:25:31  5-MIN KBKB 240125Z AUTO 00000KT 10SM CLR 24/22 A2991 310 87 1500 000/00 RMK AO2 T02440222
53988KBKB BKB20190823193010808/23/19 19:30:31  5-MIN KBKB 240130Z AUTO 00000KT 10SM CLR 24/22 A2991 310 87 1500 000/00 RMK AO2 T02440222
53988KBKB BKB20190823193510808/23/19 19:35:31  5-MIN KBKB 240135Z AUTO 00000KT 10SM CLR 24/22 A2991 300 87 1500 000/00 RMK AO2 T02440222
53988KBKB BKB20190823194010808/23/19 19:40:31  5-MIN KBKB 240140Z AUTO 00000KT 10SM CLR 24/22 A2992 300 87 1500 000/00 RMK AO2 T02440222
53988KBKB BKB20190823194010808/23/19 19:40:31  5-MIN KBKB 240140Z AUTO 00000KT 10SM CLR 24/22 A2992 300 90 1500 000/00 RMK AO2 T02440228
53988KBKB BKB20190823194510808/23/19 19:45:31  5-MIN KBKB 240145Z AUTO 00000KT 10SM CLR 24/22 A2992 300 87 1500 000/00 RMK AO2 T02440222
53988KBKB BKB20190823195011508/23/19 19:50:31  5-MIN KBKB 240150Z AUTO 00000KT 10SM CLR 24/22 A2992 300 87 1500 000/00 RMK AO2 SLP156 T02440222
53988KBKB BKB20190823195017008/23/19 19:50:31  5-MIN KBKB 240150Z AUTO 00000KT 10SM CLR 24/22 A2992 300 87 1500 000/00 RMK0130Z AUTO 00000KT 10SM CLR 24/22 A2991 310 87 1500 000/00 RMK AO2 T02440222
53988KBKB BKB20190823195510808/23/19 19:55:31  5-MIN KBKB 240155Z AUTO 00000KT 10SM CLR 24/23 A2992 300 90 1500 000/00 RMK AO2 T02440228
53988KBKB BKB20190823195516108/23/19 19:55:31  5-MIN KBKB 240155Z AUTO 00000KT 10SM CLR 24/23 A2992 300 90 1500 000/00 RMK AO2 T0244022808/23/19 20:00:31300 87 1500 000/00 RMK AO2 T02440222
53988KBKB BKB20190823200010808/23/19 20:00:31  5-MIN KBKB 240200Z AUTO 00000KT 10SM CLR 24/23 A2992 300 90 1500 000/00 RMK AO2 T02440228
53988KBKB BKB20190823200510808/23/19 20:05:31  5-MIN KBKB 240205Z AUTO 00000KT 10SM CLR 24/23 A2992 300 90 1500 000/00 RMK AO2 T02440228
53988KBKB BKB20190823201010808/23/19 20:10:31  5-MIN KBKB 240210Z AUTO 00000KT 10SM CLR 24/23 A2992 300 90 1500 000/00 RMK AO2 T02440228
53988KBKB BKB20190823201510808/23/19 20:15:31  5-MIN KBKB 240215Z AUTO 00000KT 10SM CLR 24/23 A2992 290 90 1500 000/00 RMK AO2 T02440228
53988KBKB BKB20190823202011108/23/19 20:20:31  5-MIN KBKB 240220Z AUTO 00000KT 10SM FEW018 24/22 A2993 290 87 1500 000/00 RMK AO2 T02440222
53988KBKB BKB20190823202511108/23/19 20:25:31  5-MIN KBKB 240225Z AUTO 00000KT 10SM FEW018 24/22 A2993 290 87 1500 000/00 RMK AO2 T02440222
53988KBKB BKB20190823203011108/23/19 20:30:31  5-MIN KBKB 240230Z AUTO 00000KT 10SM FEW018 24/22 A2993 290 87 1500 000/00 RMK AO2 T02440222
53988KBKB BKB20190823203511108/23/19 20:35:31  5-MIN KBKB 240235Z AUTO 00000KT 10SM FEW018 24/22 A2993 290 87 1500 000/00 RMK AO2 T02440222
53988KBKB BKB20190823204011108/23/19 20:40:31  5-MIN KBKB 240240Z AUTO 00000KT 10SM FEW018 24/22 A2993 290 87 1500 000/00 RMK AO2 T02440222
53988KBKB BKB20190823204511108/23/19 20:45:31  5-MIN KBKB 240245Z AUTO 00000KT 10SM FEW018 24/22 A2993 290 87 1500 000/00 RMK AO2 T02440222
53988KBKB BKB20190823205012108/23/19 20:50:31  5-MIN KBKB 240250Z AUTO 00000KT 10SM CLR 24/22 A2993 290 90 1400 000/00 RMK AO2 SLP159 T02390222 53002
53988KBKB BKB20190823205510808/23/19 20:55:31  5-MIN KBKB 240255Z AUTO 00000KT 10SM CLR 24/22 A2993 290 87 1500 000/00 RMK AO2 T02440222
53988KBKB BKB20190823210010808/23/19 21:00:31  5-MIN KBKB 240300Z AUTO 00000KT 10SM CLR 24/22 A2993 290 87 1500 000/00 RMK AO2 T02440222
53988KBKB BKB20190823210510808/23/19 21:05:31  5-MIN KBKB 240305Z AUTO 00000KT 10SM CLR 24/22 A2992 290 87 1500 000/00 RMK AO2 T02440222
53988KBKB BKB20190823211010808/23/19 21:10:31  5-MIN KBKB 240310Z AUTO 00000KT 10SM CLR 24/22 A2993 290 90 1400 000/00 RMK AO2 T02390222
53988KBKB BKB20190823211513808/23/19 21:15:31  5-MIN KBKB 240315Z AUTO 00000K5-MIN KBKB 240510Z AUTO 00000KT 10SM CLR 23/22 A2993 290 93 1400 000/00 RMK AO2 T02330222
53988KBKB BKB20190823231010808/23/19 23:10:31  5-MIN KBKB 240510Z AUTO 00000KT 10SM CLR 23/22 A2993 290 93 1400 000/00 RMK AO2 T02330222
53988KBKB BKB20190823231510808/23/19 23:15:31  5-MIN KBKB 240515Z AUTO 00000KT 10SM CLR 23/22 A2993 290 93 1400 000/00 RMK AO2 T02330222
53988KBKB BKB20190823232010808/23/19 23:20:31  5-MIN KBKB 240520Z AUTO 00000KT 10SM CLR 23/22 A2993 290 93 1400 000/00 RMK AO2 T02330222
53988KBKB BKB20190823232510808/23/19 23:25:31  5-MIN KBKB 240525Z AUTO 00000KT 10SM CLR 23/22 A2993 290 93 1400 000/00 RMK AO2 T02330222
53988KBKB BKB20190823233010808/23/19 23:30:31  5-MIN KBKB 240530Z AUTO 00000KT 10SM CLR 23/22 A2993 290 93 1400 000/00 RMK AO2 T02330222
53988KBKB BKB20190823233510808/23/19 23:35:31  5-MIN KBKB 240535Z AUTO 00000KT 10SM CLR 23/22 A2993 290 93 1400 000/00 RMK AO2 T02330222
53988KBKB BKB20190823234006208/23/19 23:40:31  5-MIN KBKB 240540Z AUTO 00RMK AO2 T02330222
53988KBKB BKB20190823234010808/23/19 23:40:31  5-MIN KBKB 240540Z AUTO 00000KT 10SM CLR 23/22 A2993 290 93 1400 000/00 RMK AO2 T02330222
53988KBKB BKB20190823234510808/23/19 23:45:31  5-MIN KBKB 240545Z AUTO 00000KT 10SM CLR 23/22 A2994 280 93 1400 000/00 RMK AO2 T02330222
53988KBKB BKB20190823235014308/23/19 23:50:31  5-MIN KBKB 240550Z AUTO 00000KT 10SM CLR 23/22 A2994 280 93 1400 000/00 RMK AO2 SLP163 T02330222 10256 20233 403220233 53005
53988KBKB BKB20190823235510808/23/19 23:55:31  5-MIN KBKB 240555Z AUTO 00000KT 10SM CLR 23/22 A2994 280 93 1400 000/00 RMK AO2 T02330222
53988KBKB BKB20190823235513508/23/19 23:55:31  5-MIN KBKB 240555Z AUTO 00000KT 10SM CLR 23/22 A2994 280 93 1400 000/00 RMK AO2 T0233022200 000/00 RMK AO2 T02330222
53988KBKB BKB20190824000010808/24/19 00:00:31  5-MIN KBKB 240600Z AUTO 00000KT 10SM CLR 23/22 A2994 280 93 1400 000/00 RMK AO2 T02330222
53988KBKB BKB20190824000510808/24/19 00:05:31  5-MIN KBKB 240605Z AUTO 00000KT 10SM CLR 23/22 A2993 290 93 1400 000/00 RMK AO2 T02330222
53988KBKB BKB20190824000513508/24/19 00:05:31  5-MIN KBKB 240605Z AUTO 00000KT 10SM CLR 23/22 A2993 290 93 1400 000/00 2 A2994 280 93 1400 000/00 RMK AO2 T02330222
53988KBKB BKB20190824001010808/24/19 00:10:31  5-MIN KBKB 240610Z AUTO 14003KT 10SM CLR 23/22 A2993 290 93 1400 130/03 RMK AO2 T02330222
53988KBKB BKB20190824001510808/24/19 00:15:31  5-MIN KBKB 240615Z AUTO 00000KT 10SM CLR 23/22 A2993 290 93 1400 000/00 RMK AO2 T02330222
53988KBKB BKB20190824001515608/24/19 00:15:31  5-MIN KBKB 240615Z AUTO 00000K8/24/19 00:40:31  5-MIN KBKB 240640Z AUTO 00000KT 10SM CLR 23/22 A2993 290 93 1400 000/00 RMK AO2 T02330222
53988KBKB BKB20190824002010808/24/19 00:20:31  5-MIN KBKB 240620Z AUTO 00000KT 10SM CLR 23/22 A2994 280 93 1400 000/00 RMK AO2 T02330222
53988KBKB BKB20190824002510808/24/19 00:25:31  5-MIN KBKB 240625Z AUTO 00000KT 10SM CLR 23/22 A2993 290 93 1400 000/00 RMK AO2 T02330222
53988KBKB BKB20190824003010808/24/19 00:30:31  5-MIN KBKB 240630Z AUTO 00000KT 10SM CLR 23/22 A2993 290 93 1400 000/00 RMK AO2 T02330222
53988KBKB BKB20190824003510808/24/19 00:35:31  5-MIN KBKB 240635Z AUTO 00000KT 10SM CLR 23/22 A2993 290 93 1400 000/00 RMK AO2 T02330222
53988KBKB BKB20190824004010808/24/19 00:40:31  5-MIN KBKB 240640Z AUTO 00000KT 10SM CLR 23/22 A2993 290 93 1400 000/00 RMK AO2 T02330222
53988KBKB BKB20190824004510808/24/19 00:45:31  5-MIN KBKB 240645Z AUTO 00000KT 10SM CLR 23/22 A2993 280 93 1400 000/00 RMK AO2 T02330222
53988KBKB BKB20190824005011508/24/19 00:50:31  5-MIN KBKB 240650Z AUTO 00000KT 10SM CLR 23/22 A2994 280 93 1400 000/00 RMK AO2 SLP163 T02330222
53988KBKB BKB20190824005510808/24/19 00:55:31  5-MIN KBKB 240655Z AUTO 00000KT 10SM CLR 23/22 A2994 280 93 1400 000/00 RMK AO2 T02330222
53988KBKB BKB20190824010010808/24/19 01:00:31  5-MIN KBKB 240700Z AUTO 00000KT 10SM CLR 23/22 A2994 280 93 1400 000/00 RMK AO2 T02330222
53988KBKB BKB20190824010510808/24/19 01:05:31  5-MIN KBKB 240705Z AUTO 00000KT 10SM CLR 23/22 A2993 290 93 1400 000/00 RMK AO2 T02330222
53988KBKB BKB20190824011011108/24/19 01:10:31  5-MIN KBKB 240710Z AUTO 00000KT 10SM FEW046 23/22 A2993 290 93 1400 000/00 RMK AO2 T02330222
53988KBKB BKB20190824011511108/24/19 01:15:31  5-MIN KBKB 240715Z AUTO 00000KT 10SM SCT044 23/22 A2993 290 93 1400 000/00 RMK AO2 T02330222
53988KBKB BKB20190824012011808/24/19 01:20:31  5-MIN KBKB 240720Z AUTO 00000KT 10SM SCT041 BKN049 23/22 A2993 290 93 1400 000/00 RMK AO2 T02330222
53988KBKB BKB20190824012511808/24/19 01:25:31  5-MIN KBKB 240725Z AUTO 00000KT 10SM BKN038 BKN047 24/23 A2994 280 93 1400 000/00 RMK AO2 T02390228
53988KBKB BKB20190824013011808/24/19 01:30:31  5-MIN KBKB 240730Z AUTO 00000KT 10SM BKN036 BKN047 24/23 A2994 280 93 1400 000/00 RMK AO2 T02390228
53988KBKB BKB20190824013511808/24/19 01:35:31  5-MIN KBKB 240735Z AUTO 00000KT 10SM BKN036 BKN047 24/23 A2994 280 93 1400 000/00 RMK AO2 T02390228
53988KBKB BKB20190824014011808/24/19 01:40:31  5-MIN KBKB 240740Z AUTO 00000KT 10SM BKN037 BKN049 23/22 A2994 280 93 1400 000/00 RMK AO2 T02330222
53988KBKB BKB20190824014511808/24/19 01:45:31  5-MIN KBKB 240745Z AUTO 00000KT 10SM SCT037 BKN065 23/22 A2994 280 93 1300 000/00 RMK AO2 T02330222
53988KBKB BKB20190824015012508/24/19 01:50:31  5-MIN KBKB 240750Z AUTO 00000KT 10SM SCT037 BKN065 23/22 A2994 280 93 1300 000/00 RMK AO2 SLP164 T02330222
53988KBKB BKB20190824015511808/24/19 01:55:31  5-MIN KBKB 240755Z AUTO 00000KT 10SM FEW037 BKN070 23/22 A2994 280 93 1300 000/00 RMK AO2 T02330222
53988KBKB BKB20190824020011108/24/19 02:00:31  5-MIN KBKB 240800Z AUTO 00000KT 10SM BKN070 23/22 A2995 270 93 1300 000/00 RMK AO2 T02330222
53988KBKB BKB20190824020511108/24/19 02:05:31  5-MIN KBKB 240805Z AUTO 00000KT 10SM BKN070 23/23 A2995 270 97 1300 000/00 RMK AO2 T02330228
53988KBKB BKB20190824021011108/24/19 02:10:31  5-MIN KBKB 240810Z AUTO 00000KT 10SM BKN070 23/23 A2995 270 97 1300 000/00 RMK AO2 T02330228
53988KBKB BKB20190824021511108/24/19 02:15:31  5-MIN KBKB 240815Z AUTO 00000KT 10SM BKN070 23/23 A2995 270 97 1300 000/00 RMK AO2 T02330228
53988KBKB BKB20190824022011108/24/19 02:20:31  5-MIN KBKB 240820Z AUTO 00000KT 10SM BKN070 23/23 A2995 270 97 1300 000/00 RMK AO2 T02330228
53988KBKB BKB20190824022511108/24/19 02:25:31  5-MIN KBKB 240825Z AUTO 00000KT 10SM SCT075 23/22 A2995 270 93 1300 000/00 RMK AO2 T02330222
53988KBKB BKB20190824023011108/24/19 02:30:31  5-MIN KBKB 240830Z AUTO 00000KT 10SM FEW075 23/22 A2995 270 93 1300 000/00 RMK AO2 T02330222
53988KBKB BKB20190824023511108/24/19 02:35:31  5-MIN KBKB 240835Z AUTO 00000KT 10SM FEW075 23/23 A2996 270 97 1300 000/00 RMK AO2 T02330228
53988KBKB BKB20190824024011808/24/19 02:40:31  5-MIN KBKB 240840Z AUTO 00000KT 10SM FEW080 SCT120 23/23 A2996 270 97 1300 000/00 RMK AO2 T02330228
53988KBKB BKB20190824024511808/24/19 02:45:31  5-MIN KBKB 240845Z AUTO 00000KT 10SM FEW080 SCT120 23/23 A2996 260 97 1300 000/00 RMK AO2 T02330228
53988KBKB BKB20190824025010808/24/19 02:50:31  5-MIN KBKB 240850Z AUTO 00000KT 10SM FEW005 SCT080 23/23 A2995 270 97 1300 000/00 RMK AO2
53988KBKB BKB20190824025511808/24/19 02:55:31  5-MIN KBKB 240855Z AUTO 00000KT 10SM FEW005 BKN080 23/23 A2996 270 97 1300 000/00 RMK AO2 T02330228
53988KBKB BKB20190824030011808/24/19 03:00:31  5-MIN KBKB 240900Z AUTO 00000KT 10SM FEW005 BKN080 23/23 A2996 270 97 1300 000/00 RMK AO2 T02330228
53988KBKB BKB20190824030511808/24/19 03:05:31  5-MIN KBKB 240905Z AUTO 00000KT 10SM SCT005 BKN080 24/23 A2995 270 93 1400 000/00 RMK AO2 T02390228
53988KBKB BKB20190824031011808/24/19 03:10:31  5-MIN KBKB 240910Z AUTO 00000KT 10SM SCT005 BKN080 23/23 A2995 270 97 1300 000/00 RMK AO2 T02330228
53988KBKB BKB20190824031511808/24/19 03:15:31  5-MIN KBKB 240915Z AUTO 00000KT 10SM SCT005 BKN080 23/23 A2996 270 97 1300 000/00 RMK AO2 T02330228
53988KBKB BKB20190824032011808/24/19 03:20:31  5-MIN KBKB 240920Z AUTO 00000KT 10SM SCT005 BKN080 23/23 A2996 270 97 1300 000/00 RMK AO2 T02330228
53988KBKB BKB20190824032511808/24/19 03:25:31  5-MIN KBKB 240925Z AUTO 00000KT 10SM SCT005 BKN080 23/23 A2996 270 97 1300 000/00 RMK AO2 T02330228
53988KBKB BKB20190824033012508/24/19 03:30:31  5-MIN KBKB 240930Z AUTO 00000KT 10SM SCT005 SCT065 BKN085 23/23 A2995 270 97 1300 000/00 RMK AO2 T02330228
53988KBKB BKB20190824033512508/24/19 03:35:31  5-MIN KBKB 240935Z AUTO 00000KT 10SM FEW005 SCT065 BKN085 23/23 A2995 270 97 1300 000/00 RMK AO2 T02330228
53988KBKB BKB20190824034012508/24/19 03:40:31  5-MIN KBKB 240940Z AUTO 00000KT 10SM FEW004 SCT065 OVC085 24/23 A2995 270 93 1400 000/00 RMK AO2 T02390228
53988KBKB BKB20190824034511808/24/19 03:45:31  5-MIN KBKB 240945Z AUTO 00000KT 10SM FEW006 OVC085 24/23 A2995 270 93 1400 000/00 RMK AO2 T02390228
53988KBKB BKB20190824035012508/24/19 03:50:31  5-MIN KBKB 240950Z AUTO 00000KT 10SM FEW006 OVC085 24/23 A2996 260 93 1400 000/00 RMK AO2 SLP169 T02390228
53988KBKB BKB20190824035511808/24/19 03:55:31  5-MIN KBKB 240955Z AUTO 00000KT 10SM FEW006 OVC085 24/23 A2996 260 93 1400 000/00 RMK AO2 T02390228
53988KBKB BKB20190824040012508/24/19 04:00:31  5-MIN KBKB 241000Z AUTO 00000KT 10SM FEW004 FEW008 OVC085 24/23 A2996 260 93 1400 000/00 RMK AO2 T02390228
53988KBKB BKB20190824040512508/24/19 04:05:31  5-MIN KBKB 241005Z AUTO 00000KT 10SM SCT004 SCT008 OVC085 24/23 A2996 260 93 1400 000/00 RMK AO2 T02390228
53988KBKB BKB20190824041011808/24/19 04:10:31  5-MIN KBKB 241010Z AUTO 00000KT 10SM SCT004 OVC085 24/23 A2996 260 93 1400 000/00 RMK AO2 T02390228
53988KBKB BKB20190824041511808/24/19 04:15:31  5-MIN KBKB 241015Z AUTO 00000KT 10SM SCT004 OVC085 24/23 A2996 260 93 1400 000/00 RMK AO2 T02390228
53988KBKB BKB20190824042011808/24/19 04:20:31  5-MIN KBKB 241020Z AUTO 00000KT 10SM SCT003 OVC085 24/23 A2996 270 93 1400 000/00 RMK AO2 T02390228
53988KBKB BKB20190824042511808/24/19 04:25:31  5-MIN KBKB 241025Z AUTO 00000KT 10SM SCT003 OVC090 24/23 A2996 260 93 1400 000/00 RMK AO2 T02390228
53988KBKB BKB20190824043011808/24/19 04:30:31  5-MIN KBKB 241030Z AUTO 00000KT 10SM BKN003 OVC090 24/23 A2996 260 93 1400 000/00 RMK AO2 T02390228
53988KBKB BKB20190824043511808/24/19 04:35:31  5-MIN KBKB 241035Z AUTO 00000KT 10SM BKN003 OVC090 24/23 A2995 270 93 1400 000/00 RMK AO2 T02390228
53988KBKB BKB20190824044011808/24/19 04:40:31  5-MIN KBKB 241040Z AUTO 00000KT 10SM BKN003 OVC090 24/23 A2996 270 93 1400 000/00 RMK AO2 T02390228
53988KBKB BKB20190824044511808/24/19 04:45:31  5-MIN KBKB 241045Z AUTO 00000KT 10SM BKN003 OVC090 24/23 A2996 260 93 1400 000/00 RMK AO2 T02390228
53988KBKB BKB20190824045012508/24/19 04:50:31  5-MIN KBKB 241050Z AUTO 00000KT 10SM BKN003 OVC090 24/23 A2996 260 93 1400 000/00 RMK AO2 SLP169 T02390228
53988KBKB BKB20190824045513008/24/19 04:55:31  5-MIN KBKB 241055Z AUTO 00000KT 10SM BKN005 OVC090 24/23 A2996 270 93 1400 000/00 RMK AO2 CIG 003V006 T02390228
53988KBKB BKB20190824050013008/24/19 05:00:31  5-MIN KBKB 241100Z AUTO 00000KT 10SM BKN005 OVC090 24/23 A2996 260 93 1400 000/00 RMK AO2 CIG 003V007 T02390228
53988KBKB BKB20190824050513708/24/19 05:05:31  5-MIN KBKB 241105Z AUTO 00000KT 10SM BKN005 BKN038 OVC090 24/23 A2996 260 93 1400 000/00 RMK AO2 CIG 003V008 T02390228
53988KBKB BKB20190824051013708/24/19 05:10:31  5-MIN KBKB 241110Z AUTO 00000KT 10SM BKN005 BKN022 OVC036 24/23 A2996 260 93 1400 000/00 RMK AO2 CIG 003V010 T02390228
53988KBKB BKB20190824051513708/24/19 05:15:31  5-MIN KBKB 241115Z AUTO 00000KT 10SM BKN005 BKN022 OVC048 24/23 A2996 260 93 1400 000/00 RMK AO2 CIG 003V011 T02390228
53988KBKB BKB20190824052013708/24/19 05:20:31  5-MIN KBKB 241120Z AUTO 00000KT 10SM BKN005 BKN042 OVC090 24/23 A2997 260 93 1400 000/00 RMK AO2 CIG 003V011 T02390228
53988KBKB BKB20190824052513708/24/19 05:25:31  5-MIN KBKB 241125Z AUTO 00000KT 10SM BKN006 BKN041 BKN090 24/23 A2997 260 93 1400 000/00 RMK AO2 CIG 003V011 T02390228
53988KBKB BKB20190824053013708/24/19 05:30:31  5-MIN KBKB 241130Z AUTO 00000KT 10SM BKN006 BKN043 BKN090 24/23 A2997 260 93 1400 000/00 RMK AO2 CIG 003V011 T02390228
53988KBKB BKB20190824053512508/24/19 05:35:31  5-MIN KBKB 241135Z AUTO 00000KT 10SM SCT006 SCT043 SCT060 24/23 A2996 260 93 1400 000/00 RMK AO2 T02390228
53988KBKB BKB20190824054012508/24/19 05:40:31  5-MIN KBKB 241140Z AUTO 00000KT 10SM FEW006 SCT009 SCT060 24/23 A2996 260 93 1400 000/00 RMK AO2 T02390228
53988KBKB BKB20190824054511808/24/19 05:45:31  5-MIN KBKB 241145Z AUTO 00000KT 10SM FEW007 SCT065 24/23 A2996 260 93 1400 000/00 RMK AO2 T02390228
53988KBKB BKB20190824055014308/24/19 05:50:31  5-MIN KBKB 241150Z AUTO 00000KT 10SM FEW005 FEW065 24/23 A2997 260 93 1400 000/00 RMK AO2 SLP172 T02390228 10239 20233 51006
53988KBKB BKB20190824055511108/24/19 05:55:31  5-MIN KBKB 241155Z AUTO 00000KT 10SM FEW090 24/23 A2997 250 93 1400 000/00 RMK AO2 T02390228
53988KBKB BKB20190824060011108/24/19 06:00:31  5-MIN KBKB 241200Z AUTO 00000KT 10SM SCT090 24/23 A2997 250 93 1400 000/00 RMK AO2 T02390228
53988KBKB BKB20190824060511808/24/19 06:05:31  5-MIN KBKB 241205Z AUTO 00000KT 10SM FEW004 SCT090 24/23 A2997 250 93 1400 000/00 RMK AO2 T02390228
53988KBKB BKB20190824061011808/24/19 06:10:31  5-MIN KBKB 241210Z AUTO 00000KT 10SM FEW004 SCT090 24/23 A2996 260 93 1400 000/00 RMK AO2 T02390228
53988KBKB BKB20190824061511108/24/19 06:15:31  5-MIN KBKB 241215Z AUTO 00000KT 10SM SCT090 24/23 A2996 260 93 1400 000/00 RMK AO2 T02390228
53988KBKB BKB20190824062011108/24/19 06:20:31  5-MIN KBKB 241220Z AUTO 00000KT 10SM FEW090 24/23 A2996 260 93 1400 000/00 RMK AO2 T02390228
53988KBKB BKB20190824062511808/24/19 06:25:31  5-MIN KBKB 241225Z AUTO 00000KT 10SM FEW003 FEW090 24/23 A2996 260 93 1400 000/00 RMK AO2 T02390228
53988KBKB BKB20190824063011808/24/19 06:30:31  5-MIN KBKB 241230Z AUTO 00000KT 10SM FEW003 SCT090 24/23 A2996 260 93 1400 000/00 RMK AO2 T02390228
53988KBKB BKB20190824063511108/24/19 06:35:31  5-MIN KBKB 241235Z AUTO 00000KT 10SM FEW003 24/23 A2996 270 93 1400 000/00 RMK AO2 T02390228
53988KBKB BKB20190824064011108/24/19 06:40:31  5-MIN KBKB 241240Z AUTO 00000KT 10SM FEW003 24/23 A2996 270 93 1400 000/00 RMK AO2 T02390228
53988KBKB BKB20190824064511108/24/19 06:45:31  5-MIN KBKB 241245Z AUTO 00000KT 10SM FEW003 24/23 A2996 270 93 1400 000/00 RMK AO2 T02390228
53988KBKB BKB20190824065012508/24/19 06:50:31  5-MIN KBKB 241250Z AUTO 00000KT 10SM SCT003 SCT100 24/23 A2996 260 97 1400 000/00 RMK AO2 SLP170 T02390233
53988KBKB BKB20190824065511808/24/19 06:55:31  5-MIN KBKB 241255Z AUTO 00000KT 10SM SCT003 SCT095 24/23 A2996 260 93 1400 000/00 RMK AO2 T02390228
53988KBKB BKB20190824070011808/24/19 07:00:31  5-MIN KBKB 241300Z AUTO 00000KT 10SM FEW003 SCT095 24/23 A2996 260 93 1500 000/00 RMK AO2 T02440233
53988KBKB BKB20190824070511808/24/19 07:05:31  5-MIN KBKB 241305Z AUTO VRB03KT 10SM FEW004 FEW095 25/23 A2996 270 90 1500 VRB/03 RMK AO2 T02500233
53988KBKB BKB20190824071019108/24/19 07:10:31  5-MIN KBKB 241310Z AUTO VRB04KT 10SM FEW004 FEW095 25/23 A2996 270 90 1500 VRAUTO VRB05KT 10SM FEW011 OVC090 26/23 A2996090 26/23 A2996 260 84 1600 VRB/04 RMK AO2 T02560228
53988KBKB BKB20190824074011808/24/19 07:40:31  5-MIN KBKB 241340Z AUTO VRB03KT 10SM FEW011 BKN090 26/23 A2996 260 84 1600 VRB/03 RMK AO2 T02560228
53988KBKB BKB20190824074511808/24/19 07:45:31  5-MIN KBKB 241345Z AUTO VRB03KT 10SM FEW011 BKN090 26/23 A2996 260 84 1600 VRB/03 RMK AO2 T02560228
53988KBKB BKB20190824075012508/24/19 07:50:31  5-MIN KBKB 241350Z AUTO VRB04KT 10SM FEW011 OVC090 26/23 A2996 260 84 1600 VRB/04 RMK AO2 SLP171 T02560228
53988KBKB BKB20190824075511808/24/19 07:55:31  5-MIN KBKB 241355Z AUTO VRB05KT 10SM FEW011 OVC090 26/23 A2996 260 81 1600 VRB/05 RMK AO2 T02610228
53988KBKB BKB20190824080011808/24/19 08:00:31  5-MIN KBKB 241400Z AUTO VRB05KT 10SM FEW011 OVC095 27/23 A2996 260 79 1700 VRB/05 RMK AO2 T02670228
53988KBKB BKB20190824080511808/24/19 08:05:31  5-MIN KBKB 241405Z AUTO VRB04KT 10SM FEW011 BKN095 27/23 A2996 260 79 1800 VRB/04 RMK AO2 T02720233
53988KBKB BKB20190824080513308/24/19 08:05:31  5-MIN KBKB 241405Z AUTO VRB04KT 10SM FEW011 BKN095 27/23 A2996 26 26/23 A2996 260 84 1600 VRB/03 RMK AO2 T02560228
53988KBKB BKB20190824081011108/24/19 08:10:31  5-MIN KBKB 241410Z AUTO VRB05KT 10SM BKN095 27/23 A2996 260 79 1700 VRB/05 RMK AO2 T02670228
53988KBKB BKB20190824081511808/24/19 08:15:31  5-MIN KBKB 241415Z AUTO VRB03KT 10SM FEW012 BKN100 27/23 A2995 270 79 1800 VRB/03 RMK AO2 T02720233
53988KBKB BKB20190824082011108/24/19 08:20:31  5-MIN KBKB 241420Z AUTO VRB03KT 10SM SCT095 28/23 A2995 270 76 1800 VRB/03 RMK AO2 T02780233
53988KBKB BKB20190824082511108/24/19 08:25:31  5-MIN KBKB 241425Z AUTO 00000KT 10SM FEW100 28/23 A2995 270 76 1800 000/00 RMK AO2 T02780233
53988KBKB BKB20190824083011108/24/19 08:30:31  5-MIN KBKB 241430Z AUTO VRB03KT 10SM FEW100 27/23 A2995 270 79 1800 VRB/03 RMK AO2 T02720233
53988KBKB BKB20190824083511108/24/19 08:35:31  5-MIN KBKB 241435Z AUTO VRB04KT 10SM FEW100 28/23 A2995 270 76 1800 VRB/04 RMK AO2 T02780233
53988KBKB BKB20190824084011108/24/19 08:40:31  5-MIN KBKB 241440Z AUTO VRB04KT 10SM FEW015 28/23 A2995 270 76 1800 VRB/04 RMK AO2 T02780233
53988KBKB BKB20190824084511108/24/19 08:45:31  5-MIN KBKB 241445Z AUTO VRB03KT 10SM FEW015 28/23 A2995 270 76 1800 VRB/03 RMK AO2 T02780233
53988KBKB BKB20190824085012408/24/19 08:50:31  5-MIN KBKB 241450Z AUTO 00000KT 10SM FEW015 28/23 A2995 270 74 1900 000/00 RMK AO2 SLP168 T02830233 53005
53988KBKB BKB20190824085511108/24/19 08:55:31  5-MIN KBKB 241455Z AUTO VRB04KT 10SM FEW015 29/23 A2996 270 71 2000 VRB/04 RMK AO2 T02890233
53988KBKB BKB20190824090011108/24/19 09:00:31  5-MIN KBKB 241500Z AUTO VRB04KT 10SM FEW017 29/23 A2996 260 71 2000 VRB/04 RMK AO2 T02890233
53988KBKB BKB20190824090511108/24/19 09:05:31  5-MIN KBKB 241505Z AUTO VRB03KT 10SM SCT019 29/23 A2996 260 71 2000 VRB/03 RMK AO2 T02890233
53988KBKB BKB20190824091011108/24/19 09:10:31  5-MIN KBKB 241510Z AUTO VRB05KT 10SM SCT021 29/23 A2996 260 69 2000 VRB/05 RMK AO2 T02940233
53988KBKB BKB20190824091511108/24/19 09:15:31  5-MIN KBKB 241515Z AUTO VRB03KT 10SM SCT021 28/23 A2996 260 71 1900 VRB/03 RMK AO2 T02830228
53988KBKB BKB20190824092011108/24/19 09:20:31  5-MIN KBKB 241520Z AUTO VRB04KT 10SM SCT021 28/23 A2996 260 71 1900 VRB/04 RMK AO2 T02830228
53988KBKB BKB20190824092511808/24/19 09:25:31  5-MIN KBKB 241525Z AUTO 15005KT 10SM SCT021 BKN027 29/23 A2996 260 69 2000 150/05 RMK AO2 T02890228
53988KBKB BKB20190824093011808/24/19 09:30:31  5-MIN KBKB 241530Z AUTO VRB03KT 10SM SCT021 SCT028 29/23 A2996 260 69 2000 VRB/03 RMK AO2 T02890228
53988KBKB BKB20190824093511808/24/19 09:35:31  5-MIN KBKB 241535Z AUTO VRB05KT 10SM SCT021 SCT028 29/23 A2996 260 69 2000 VRB/05 RMK AO2 T02890228
53988KBKB BKB20190824094011808/24/19 09:40:31  5-MIN KBKB 241540Z AUTO VRB04KT 10SM SCT023 BKN030 29/23 A2996 260 69 2000 VRB/04 RMK AO2 T02940233
53988KBKB BKB20190824094511808/24/19 09:45:31  5-MIN KBKB 241545Z AUTO VRB04KT 10SM SCT023 BKN030 29/23 A2996 260 67 2000 VRB/04 RMK AO2 T02940228
53988KBKB BKB20190824095012508/24/19 09:50:31  5-MIN KBKB 241550Z AUTO VRB03KT 10SM FEW023 SCT028 29/23 A2996 260 67 2000 VRB/03 RMK AO2 SLP170 T02940228
53988KBKB BKB20190824095511108/24/19 09:55:31  5-MIN KBKB 241555Z AUTO VRB04KT 10SM SCT026 29/23 A2996 260 69 2000 VRB/04 RMK AO2 T02890228
53988KBKB BKB20190824100016708/24/19 10:00:31  5-MIN KBKB 241600Z AUTO VRB04KT 10SM BKN026 29/23 A2996 260 67 2000 VRB/04 RMK AO2 T02BKN030 BKN050 29/23 A2994 280 69 2000 VRB/04 RMK AO2 T02940233
53988KBKB BKB20190824113012508/24/19 11:30:31  5-MIN KBKB 241730Z AUTO VRB04KT 10SM BKN025 BKN030 BKN050 30/23 A2994 280 67 2100 VRB/04 RMK AO2 T03000233
53988KBKB BKB20190824113511808/24/19 11:35:31  5-MIN KBKB 241735Z AUTO VRB04KT 10SM BKN025 BKN050 29/23 A2994 280 69 2000 VRB/04 RMK AO2 T02940233
53988KBKB BKB20190824114013908/24/19 11:40:31  5-MIN KBKB 241740Z AUTO VRB05KT 4SM RA BKN023 BKN031 BKN050 27/23 A2994 280 79 1800 VRB/05 RMK AO2 RAB39 P0001 T02720233
53988KBKB BKB20190824124012508/24/19 12:40:31  5-MIN KBKB 241840Z AUTO VRB04KT 10SM FEW028 FEW048 BKN065 29/24 A2992 290 71 2100 VRB/04 RMK AO2 T02940239
53988KBKB BKB20190824124512508/24/19 12:45:31  5-MIN KBKB 241845Z AUTO VRB03KT 10SM FEW023 SCT028 BKN065 29/24 A2993 290 74 2000 VRB/03 RMK AO2 T02890239
53988KBKB BKB20190824125014708/24/19 12:50:31  5-MIN KBKB 241850Z AUTO VRB04KT 5SM -RA SCT021 BKN030 BKN045 28/24 A2993 290 76 1900 VRB/04 RMK AO2 RAB49 SLP159 P0003 T02830239
53988KBKB BKB20190824125513708/24/19 12:55:31  5-MIN KBKB 241855Z AUTO VRB03KT 4SM -RA BR FEW020 SCT027 BKN045 27/25 A2993 290 90 1700 VRB/03 RMK AO2 P0000 T02670250
53988KBKB BKB20190824130012408/24/19 13:00:31  5-MIN KBKB 241900Z AUTO 7SM -RA SCT025 BKN045 OVC110 27/26 A2993 290 90 1800 M /M RMK AO2 P0000 T02720256
53988KBKB BKB20190824130513508/24/19 13:05:31  5-MIN KBKB 241905Z AUTO VRB06KT 10SM -RA SCT025 BKN050 OVC110 27/26 A2992 300 90 1800 VRB/06 RMK AO2 P0000 T02720256
53988KBKB BKB20190824131013508/24/19 13:10:31  5-MIN KBKB 241910Z AUTO 00000KT 10SM -RA FEW025 BKN042 OVC100 28/26 A2992 300 87 1900 000/00 RMK AO2 P0000 T02780256
53988KBKB BKB20190824131513508/24/19 13:15:31  5-MIN KBKB 241915Z AUTO VRB04KT 10SM -RA FEW028 BKN070 OVC110 28/25 A2992 300 84 1900 VRB/04 RMK AO2 P0000 T02780250
53988KBKB BKB20190824132013708/24/19 13:20:31  5-MIN KBKB 241920Z AUTO VRB04KT 10SM FEW044 SCT065 BKN100 28/24 A2992 300 82 1900 VRB/04 RMK AO2 RAE18 P0000 T02780244
53988KBKB BKB20190824132513508/24/19 13:25:31  5-MIN KBKB 241925Z AUTO VRB03KT 10SM -RA FEW049 SCT065 BKN110 28/25 A2992 300 82 1900 VRB/03 RMK AO2 P0000 T02830250
53988KBKB BKB20190824133013708/24/19 13:30:31  5-MIN KBKB 241930Z AUTO VRB04KT 10SM SCT049 SCT060 BKN075 28/25 A2992 300 82 1900 VRB/04 RMK AO2 RAE29 P0000 T02830250
53988KBKB BKB20190824133513708/24/19 13:35:31  5-MIN KBKB 241935Z AUTO VRB05KT 10SM FEW049 SCT065 BKN075 28/24 A2991 300 82 1900 VRB/05 RMK AO2 RAE29 P0000 T02780244
53988KBKB BKB20190824134013708/24/19 13:40:31  5-MIN KBKB 241940Z AUTO VRB04KT 10SM FEW039 SCT050 BKN075 28/25 A2991 310 82 1900 VRB/04 RMK AO2 RAE29 P0000 T02830250
53988KBKB BKB20190824134512708/24/19 13:45:31  5-MIN KBKB 241945Z AUTO 10SM FEW018 SCT039 BKN065 29/25 A2992 300 79 2000 M /M RMK AO2 RAE29 P0000 T02890250
53988KBKB BKB20190824135015208/24/19 13:50:31  5-MIN KBKB 241950Z AUTO VRB04KT 3SM RA BR SCT021 BKN038 BKN047 26/24 A2992 300 87 1700 VRB/04 RMK AO2 RAE29B47 SLP158 P0004 T02610239
53988KBKB BKB20190824135520208/24/19 13:55:31  5-MIN KBKB 241955Z AUTO VRB03KT 1SM +RA BR SCT015 BKN023 OVC070 25/23 A2992 290AUTO VRB03KT 10SM BKN009 BKN014 26/24 A2989 320 90 1700 VRB/03 RMK AO2 RAE15 CIG 005V009 P0000 T02610244
53988KBKB BKB20190824154513708/24/19 15:45:31  5-MIN KBKB 242145Z AUTO 00000KT 10SM SCT009 BKN014 OVC019 26/24 A2989 330 90 1700 000/00 RMK AO2 RAE15 P0000 T02610244
53988KBKB BKB20190824155014408/24/19 15:50:31  5-MIN KBKB 242150Z AUTO VRB03KT 10SM FEW009 BKN014 OVC019 26/24 A2989 330 90 1700 VRB/03 RMK AO2 RAE15 SLP146 P0000 T02610244
53988KBKB BKB20190824155511808/24/19 15:55:31  5-MIN KBKB 242155Z AUTO 00000KT 10SM FEW009 BKN016 27/24 A2989 330 87 1800 000/00 RMK AO2 T02670244
53988KBKB BKB20190824160011808/24/19 16:00:31  5-MIN KBKB 242200Z AUTO 13004KT 10SM FEW009 BKN016 27/24 A2989 330 87 1800 120/04 RMK AO2 T02670244
53988KBKB BKB20190824160511808/24/19 16:05:31  5-MIN KBKB 242205Z AUTO VRB03KT 10SM BKN017 BKN023 27/24 A2989 330 87 1800 VRB/03 RMK AO2 T02670244
53988KBKB BKB20190824161011808/24/19 16:10:31  5-MIN KBKB 242210Z AUTO VRB04KT 10SM SCT015 BKN021 27/24 A2989 330 87 1800 VRB/04 RMK AO2 T02670244
53988KBKB BKB20190824161512708/24/19 16:15:31  5-MIN KBKB 242215Z AUTO VRB03KT 3SM BR FEW009 SCT015 BKN020 27/24 A2989 320 87 1800 VRB/03 RMK AO2 T02670244
53988KBKB BKB20190824162017808/24/19 16:20:31  5-MIN KBKB 242220Z AUTO VRB06KT 1 1/2SM +RA BR SCT011 SCT018 BKN023 26/24 A2990 320 90 1700 VRB/06 RMK AO2 RAB16 P0005 T025602390 1500 000/00 RMK AO2 T02440233
53988KBKB BKB20190824203511808/24/19 20:35:31  5-MIN KBKB 250235Z AUTO 00000KT 10SM FEW032 OVC065 24/23 A2993 290 93 1500 000/00 RMK AO2 T02440233
53988KBKB BKB20190824204011808/24/19 20:40:31  5-MIN KBKB 250240Z AUTO 00000KT 10SM FEW032 OVC065 24/23 A2993 290 93 1500 000/00 RMK AO2 T02440233
53988KBKB BKB20190824204511108/24/19 20:45:31  5-MIN KBKB 250245Z AUTO 00000KT 10SM OVC065 24/23 A2993 290 93 1500 000/00 RMK AO2 T02440233
53988KBKB BKB20190824205013008/24/19 20:50:31  5-MIN KBKB 250250Z AUTO 00000KT 10SM OVC065 24/23 A2993 290 93 1500 000/00 RMK AO2 SLP159 60002 T02440233 55002
53988KBKB BKB20190824205511108/24/19 20:55:31  5-MIN KBKB 250255Z AUTO 00000KT 10SM OVC065 24/23 A2993 290 93 1500 000/00 RMK AO2 T02440233
53988KBKB BKB20190824210011108/24/19 21:00:31  5-MIN KBKB 250300Z AUTO 00000KT 10SM OVC070 24/23 A2993 290 93 1500 000/00 RMK AO2 T02440233
53988KBKB BKB20190824210511108/24/19 21:05:31  5-MIN KBKB 250305Z AUTO 00000KT 10SM OVC070 24/23 A2993 290 93 1500 000/00 RMK AO2 T02440233
53988KBKB BKB20190824211011108/24/19 21:10:31  5-MIN KBKB 250310Z AUTO VRB03KT 10SM OVC070 24/23 A2993 290 93 1500 VRB/03 RMK AO2 T02440233
53988KBKB BKB20190824211511108/24/19 21:15:31  5-MIN KBKB 250315Z AUTO 00000KT 10SM OVC070 24/23 A2993 290 93 1500 000/00 RMK AO2 T02440233
53988KBKB BKB20190824212011808/24/19 21:20:31  5-MIN KBKB 250320Z AUTO VRB03KT 10SM SCT030 OVC070 24/23 A2993 290 93 1500 VRB/03 RMK AO2 T02440233
53988KBKB BKB20190824212511808/24/19 21:25:31  5-MIN KBKB 250325Z AUTO VRB03KT 10SM SCT030 OVC075 24/23 A2993 290 93 1500 VRB/03 RMK AO2 T02440233
53988KBKB BKB20190824213011808/24/19 21:30:31  5-MIN KBKB 250330Z AUTO 00000KT 10SM BKN030 OVC070 24/23 A2993 290 93 1500 000/00 RMK AO2 T02440233
53988KBKB BKB20190824213511808/24/19 21:35:31  5-MIN KBKB 250335Z AUTO 00000KT 10SM BKN030 OVC075 24/23 A2993 290 93 1500 000/00 RMK AO2 T02440233
53988KBKB BKB20190824214011108/24/19 21:40:31  5-MIN KBKB 250340Z AUTO 00000KT 10SM OVC032 24/23 A2992 300 93 1500 000/00 RMK AO2 T02440233
53988KBKB BKB20190824214511108/24/19 21:45:31  5-MIN KBKB 250345Z AUTO 00000KT 10SM OVC032 24/23 A2992 300 93 1500 000/00 RMK AO2 T02440233
53988KBKB BKB20190824215011808/24/19 21:50:31  5-MIN KBKB 250350Z AUTO 00000KT 10SM OVC032 24/23 A2992 300 93 1500 000/00 RMK AO2 SLP157 T02440233
53988KBKB BKB20190824215511808/24/19 21:55:31  5-MIN KBKB 250355Z AUTO 00000KT 10SM FEW013 OVC032 24/23 A2992 300 93 1500 000/00 RMK AO2 T02440233
53988KBKB BKB20190824220011808/24/19 22:00:31  5-MIN KBKB 250400Z AUTO 00000KT 10SM SCT013 OVC032 24/23 A2992 300 97 1400 000/00 RMK AO2 T02390233
53988KBKB BKB20190824220511808/24/19 22:05:31  5-MIN KBKB 250405Z AUTO 00000KT 10SM BKN013 OVC034 24/23 A2992 300 93 1500 000/00 RMK AO2 T02440233
53988KBKB BKB20190824221015008/24/19 22:10:31  5-MIN KBKB 250410Z AUTO 00000KT 10SM BKN013 OVC034 24/23 A2993 290 93 1500 000/00 RMK AO2 T02440STING COMPLETE, 144 5MIN(S) LISTED.
53988KBKB BKB20190825084511108/25/19 08:45:31  5-MIN KBKB 251445Z AUTO VRB03KT 10SM OVC004 25/24 A2991 310 93 1600 VRB/03 RMK AO2 T02500239
53988KBKB BKB20190825085013008/25/19 08:50:31  5-MIN KBKB 251450Z AUTO 13003KT 10SM OVC004 25/24 A2991 310 93 1600 120/03 RMK AO2 SLP153 60000 T02500239 55004
53988KBKB BKB20190825085511108/25/19 08:55:31  5-MIN KBKB 251455Z AUTO 14003KT 10SM OVC004 25/24 A2991 310 93 1600 140/03 RMK AO2 T02500239
53988KBKB BKB20190825090011108/25/19 09:00:31  5-MIN KBKB 251500Z AUTO 00000KT 10SM OVC004 25/24 A2991 310 93 1600 000/00 RMK AO2 T02500239
53988KBKB BKB20190825090511108/25/19 09:05:31  5-MIN KBKB 251505Z AUTO 00000KT 10SM OVC004 25/24 A2991 300 93 1600 000/00 RMK AO2 T02500239
53988KBKB BKB20190825091011108/25/19 09:10:31  5-MIN KBKB 251510Z AUTO VRB04KT 10SM OVC004 25/24 A2991 310 93 1600 VRB/04 RMK AO2 T02500239
53988KBKB BKB20190825091512208/25/19 09:15:31  5-MIN KBKB 251515Z AUTO VRB04KT 9SM OVC004 25/24 A2991 300 93 1600 VRB/04 RMK AO2 CIG 003V007 T02500239
53988KBKB BKB20190825092012208/25/19 09:20:31  5-MIN KBKB 251520Z AUTO VRB04KT 7SM OVC004 25/24 A2991 300 93 1600 VRB/04 RMK AO2 CIG 003V007 T02500239
53988KBKB BKB20190825092512908/25/19 09:25:31  5-MIN KBKB 251525Z AUTO 00000KT 7SM BKN004 OVC009 26/24 A2991 300 93 1600 000/00 RMK AO2 CIG 003V008 T02560244
53988KBKB BKB20190825093011208/25/19 09:30:31  5-MIN KBKB 251530Z AUTO 9SM OVC005 26/24 A2991 310 90 1600 M /M RMK AO2 CIG 003V009 T02560239
53988KBKB BKB20190825093512308/25/19 09:35:31  5-MIN KBKB 251535Z AUTO VRB03KT 10SM OVC005 26/24 A2991 310 90 1700 VRB/03 RMK AO2 CIG 003V009 T02610244
53988KBKB BKB20190825094012308/25/19 09:40:31  5-MIN KBKB 251540Z AUTO VRB04KT 10SM OVC007 26/24 A2991 310 90 1600 VRB/04 RMK AO2 CIG 004V011 T02560239
53988KBKB BKB20190825094512308/25/19 09:45:31  5-MIN KBKB 251545Z AUTO VRB03KT 10SM OVC007 26/24 A2991 310 90 1600 VRB/03 RMK AO2 CIG 004V012 T02560239
53988KBKB BKB20190825095013008/25/19 09:50:31  5-MIN KBKB 251550Z AUTO VRB03KT 10SM OVC007 26/24 A2991 310 90 1600 VRB/03 RMK AO2 CIG 004V009 SLP154 T02560239
53988KBKB BKB20190825095513008/25/19 09:55:31  5-MIN KBKB 251555Z AUTO VRB03KT 10SM BKN007 OVC011 26/24 A2991 310 90 1600 VRB/03 RMK AO2 CIG 004V009 T02560239
53988KBKB BKB20190825100012308/25/19 10:00:31  5-MIN KBKB 251600Z AUTO VRB03KT 10SM OVC009 26/24 A2991 310 90 1600 VRB/03 RMK AO2 CIG 005V012 T02560239
53988KBKB BKB20190825100512308/25/19 10:05:31  5-MIN KBKB 251605Z AUTO 00000KT 10SM OVC009 26/24 A2991 310 90 1600 000/00 RMK AO2 CIG 005V012 T02560239
53988KBKB BKB20190825101012708/25/19 10:10:31  5-MIN KBKB 251610Z AUTO 12003KT 10SM -RA OVC009 26/24 A2990 310 90 1700 120/03 RMK AO2 RAB09 P0000 T02610244
53988KBKB BKB20190825101514108/25/19 10:15:31  5-MIN KBKB 251615Z AUTO VRB03KT 10SM -RA SCT008 BKN011 OVC050 26/24 A2991 310 90 1600 VRB/03 RMK AO2 RAB09 P0000 T02560239
53988KBKB BKB20190825102013408/25/19 10:20:31  5-MIN KBKB 251620Z AUTO VRB03KT 10SM -RA BKN008 OVC012 26/24 A2991 310 93 1600 VRB/03 RMK AO2 RAB09 P0000 T02560244
53988KBKB BKB20190825102513408/25/19 10:25:31  5-MIN KBKB 251625Z AUTO 00000KT 10SM -RA SCT008 OVC012 26/24 A2990 310 93 1600 000/00 RMK AO2 RAB09 P0000 T02560244
53988KBKB BKB20190825103013408/25/19 10:30:31  5-MIN KBKB 251630Z AUTO 00000KT 10SM -RA SCT008 OVC012 26/24 A2990 310 93 1600 000/00 RMK AO2 RAB09 P0000 T02560244
53988KBKB BKB20190825103513408/25/19 10:35:31  5-MIN KBKB 251635Z AUTO 00000KT 10SM -RA SCT008 BKN012 26/24 A2990 320 90 1700 000/00 RMK AO2 RAB09 P0000 T02610244
53988KBKB BKB20190825104015208/25/19 10:40:31  5-MIN KBKB 251640Z AUTO 00000KT 9SM -RA BKN010 BKN013 OVC018 26/24 A2990 320 90 1700 000/00 RMK AO2 RAB09 CIG 006V011 P0001 T02610244
53988KBKB BKB20190825104514008/25/19 10:45:31  5-MIN KBKB 251645Z AUTO 00000KT 7SM -RA FEW007 BKN010 OVC018 26/24 A2990 320 93 1700 000/00 RMK AO2 RAB09 P0002 T02560244
53988KBKB BKB20190825105014708/25/19 10:50:31  5-MIN KBKB 251650Z AUTO 00000KT 7SM -RA FEW007 BKN010 OVC018 26/24 A2990 320 90 1700 000/00 RMK AO2 RAB09 SLP149 P0002 T02610244
53988KBKB BKB20190825105513708/25/19 10:55:31  5-MIN KBKB 251655Z AUTO 00000KT 5SM -RA BR BKN008 BKN012 OVC018 26/24 A2990 320 90 1700 000/00 RMK AO2 P0000 T02610244
53988KBKB BKB20190825110014008/25/19 11:00:31  5-MIN KBKB 251700Z AUTO 00000KT 2 1/2SM RA BR BKN008 BKN012 OVC017 26/24 A2990 320 93 1600 000/00 RMK AO2 P0002 T02560244
53988KBKB BKB20190825110513408/25/19 11:05:31  5-MIN KBKB 251705Z AUTO 00000KT 2 1/2SM -RA BR BKN008 OVC012 26/24 A2990 310 90 1700 000/00 RMK AO2 P0003 T02610244
53988KBKB BKB20190825111013708/25/19 11:10:31  5-MIN KBKB 251710Z AUTO 00000KT 4SM -RA BR BKN006 BKN010 OVC017 26/25 A2990 310 93 1700 000/00 RMK AO2 P0003 T02610250
53988KBKB BKB20190825111513708/25/19 11:15:31  5-MIN KBKB 251715Z AUTO 00000KT 6SM -RA BR SCT006 BKN014 OVC023 26/25 A2990 310 93 1700 000/00 RMK AO2 P0003 T02610250
53988KBKB BKB20190825112013408/25/19 11:20:31  5-MIN KBKB 251720Z AUTO 00000KT 8SM -RA SCT008 BKN023 OVC038 26/25 A2990 320 93 1700 000/00 RMK AO2 P0003 T02610250
53988KBKB BKB20190825112513708/25/19 11:25:31  5-MIN KBKB 251725Z AUTO 00000KT 6SM -RA BR FEW006 SCT014 OVC021 26/25 A2990 320 93 1700 000/00 RMK AO2 P0004 T02610250
53988KBKB BKB20190825113013008/25/19 11:30:31  5-MIN KBKB 251730Z AUTO 00000KT 5SM -RA BR FEW008 OVC021 26/25 A2990 320 93 1700 000/00 RMK AO2 P0004 T02610250
53988KBKB BKB20190825113513008/25/19 11:35:31  5-MIN KBKB 251735Z AUTO 00000KT 6SM -RA BR FEW012 BKN023 27/25 A2989 320 90 1800 000/00 RMK AO2 P0004 T02670250
53988KBKB BKB20190825114013508/25/19 11:40:31  5-MIN KBKB 251740Z AUTO 00000KT 10SM -RA FEW012 SCT019 BKN023 26/25 A2989 330 93 1700 000/00 RMK AO2 P0004 T02610250
53988KBKB BKB20190825114512808/25/19 11:45:31  5-MIN KBKB 251745Z AUTO 00000KT 10SM -RA SCT012 OVC023 26/25 A2989 330 93 1700 000/00 RMK AO2 P0004 T02610250
53988KBKB BKB20190825115016608/25/19 11:50:31  5-MIN KBKB 251750Z AUTO 00000KT 10SM -RA FEW004 BKN018 OVC027 26/25 A2988 340 93 1700 000/00 RMK AO2 SLP143 P0004 60007 T02610250 10267 20239 51013
53988KBKB BKB20190825115513508/25/19 11:55:31  5-MIN KBKB 251755Z AUTO 10004KT 10SM -RA FEW004 BKN025 OVC042 26/25 A2987 340 93 1700 090/04 RMK AO2 P0000 T02610250
53988KBKB BKB20190825120014208/25/19 12:00:31  5-MIN KBKB 251800Z AUTO 00000KT 10SM -RA FEW005 BKN022 OVC042 26/25 A2987 350 93 1700 000/00 RMK AO2 PRESFR P0000 T02610250
53988KBKB BKB20190825120514208/25/19 12:05:31  5-MIN KBKB 251805Z AUTO VRB03KT 10SM -RA FEW005 BKN028 OVC042 26/24 A2986 350 90 1800 VRB/03 RMK AO2 PRESFR P0000 T02610244
53988KBKB BKB20190825121013508/25/19 12:10:31  5-MIN KBKB 251810Z AUTO 00000KT 10SM -RA FEW005 BKN041 OVC050 26/25 A2986 360 93 1800 000/00 RMK AO2 P0000 T02610250
53988KBKB BKB20190825121513508/25/19 12:15:31  5-MIN KBKB 251815Z AUTO 00000KT 10SM -RA FEW010 BKN037 OVC048 26/25 A2986 360 93 1800 000/00 RMK AO2 P0000 T02610250
53988KBKB BKB20190825122013508/25/19 12:20:31  5-MIN KBKB 251820Z AUTO 00000KT 10SM -RA FEW010 BKN032 OVC040 26/24 A2986 360 90 1800 000/00 RMK AO2 P0000 T02610244
53988KBKB BKB20190825122513508/25/19 12:25:31  5-MIN KBKB 251825Z AUTO 00000KT 10SM -RA FEW023 BKN034 BKN044 27/25 A2986 350 90 1800 000/00 RMK AO2 P0000 T02670250
53988KBKB BKB20190825123013508/25/19 12:30:31  5-MIN KBKB 251830Z AUTO 00000KT 10SM -RA SCT025 BKN036 BKN046 27/25 A2986 350 90 1800 000/00 RMK AO2 P0000 T02670250
53988KBKB BKB20190825123513508/25/19 12:35:31  5-MIN KBKB 251835Z AUTO 00000KT 10SM -RA SCT010 SCT025 OVC036 27/25 A2987 350 90 1800 000/00 RMK AO2 P0000 T02670250
53988KBKB BKB20190825124013508/25/19 12:40:31  5-MIN KBKB 251840Z AUTO 00000KT 10SM -RA SCT008 BKN012 OVC034 26/25 A2986 350 93 1800 000/00 RMK AO2 P0000 T02610250
53988KBKB BKB20190825124512508/25/19 12:45:31  5-MIN KBKB 251845Z AUTO 10SM -RA BKN010 BKN023 OVC034 26/25 A2986 350 93 1800 M /M RMK AO2 P0001 T02610250
53988KBKB BKB20190825125014808/25/19 12:50:31  5-MIN KBKB 251850Z AUTO 00000KT 1 1/2SM +RA BR BKN010 BKN014 OVC025 26/25 A2986 350 93 1800 000/00 RMK AO2 SLP138 P0006 T02610250
53988KBKB BKB20190825125513908/25/19 12:55:31  5-MIN KBKB 251855Z AUTO 00000KT 3/4SM +RA BR SCT010 BKN016 OVC023 26/25 A2986 350 93 1800 000/00 RMK AO2 P0001 T02610250
53988KBKB BKB20190825130013408/25/19 13:00:31  5-MIN KBKB 251900Z AUTO 00000KT 1 1/4SM -RA BR BKN010 OVC018 26/25 A2986 350 93 1800 000/00 RMK AO2 P0001 T02610250
53988KBKB BKB20190825130513708/25/19 13:05:31  5-MIN KBKB 251905Z AUTO 00000KT 5SM -RA BR BKN012 BKN016 OVC049 27/25 A2985 360 90 1800 000/00 RMK AO2 P0001 T02670250
53988KBKB BKB20190825131013408/25/19 13:10:31  5-MIN KBKB 251910Z AUTO 00000KT 9SM -RA BKN012 BKN016 OVC022 27/26 A2985 360 93 1800 000/00 RMK AO2 P0001 T02670256
53988KBKB BKB20190825131513008/25/19 13:15:31  5-MIN KBKB 251915Z AUTO 08004KT 10SM BKN012 OVC018 27/25 A2985 370 90 1800 080/04 RMK AO2 RAE12 P0001 T02670250
53988KBKB BKB20190825132013008/25/19 13:20:31  5-MIN KBKB 251920Z AUTO VRB04KT 10SM BKN012 BKN023 26/25 A2984 370 93 1800 VRB/04 RMK AO2 RAE12 P0001 T02610250
53988KBKB BKB20190825132513708/25/19 13:25:31  5-MIN KBKB 251925Z AUTO VRB03KT 10SM BKN014 BKN019 OVC110 27/25 A2984 370 90 1800 VRB/03 RMK AO2 RAE12 P0001 T02670250
53988KBKB BKB20190825133012708/25/19 13:30:31  5-MIN KBKB 251930Z AUTO 10SM SCT012 BKN017 OVC045 26/25 A2984 370 93 1800 M /M RMK AO2 RAE12 P0001 T02610250
53988KBKB BKB20190825133513708/25/19 13:35:31  5-MIN KBKB 251935Z AUTO VRB04KT 10SM SCT009 BKN018 OVC110 27/25 A2984 370 90 1800 VRB/04 RMK AO2 RAE12 P0001 T02670250
53988KBKB BKB20190825134013708/25/19 13:40:31  5-MIN KBKB 251940Z AUTO 00000KT 10SM FEW005 BKN017 OVC110 26/25 A2984 370 93 1800 000/00 RMK AO2 RAE12 P0001 T02610250
53988KBKB BKB20190825134513708/25/19 13:45:31  5-MIN KBKB 251945Z AUTO VRB03KT 10SM BKN019 BKN031 OVC110 26/24 A2984 370 90 1800 VRB/03 RMK AO2 RAE12 P0001 T02610244
53988KBKB BKB20190825135013708/25/19 13:50:31  5-MIN KBKB 251950Z AUTO 00000KT 10SM BKN020 OVC031 26/24 A2984 370 90 1800 000/00 RMK AO2 RAE12 SLP131 P0001 T02610244
53988KBKB BKB20190825135512508/25/19 13:55:31  5-MIN KBKB 251955Z AUTO 00000KT 10SM SCT017 BKN024 OVC036 26/24 A2984 370 90 1800 000/00 RMK AO2 T02610244
53988KBKB BKB20190825140012508/25/19 14:00:31  5-MIN KBKB 252000Z AUTO 00000KT 10SM SCT015 BKN024 OVC028 27/24 A2984 370 87 1800 000/00 RMK AO2 T02670244
53988KBKB BKB20190825140512508/25/19 14:05:31  5-MIN KBKB 252005Z AUTO 00000KT 10SM SCT015 BKN020 OVC038 27/25 A2984 380 90 1800 000/00 RMK AO2 T02670250
53988KBKB BKB20190825141012508/25/19 14:10:31  5-MIN KBKB 252010Z AUTO VRB03KT 10SM FEW015 BKN023 OVC038 27/24 A2984 380 87 1800 VRB/03 RMK AO2 T02670244
53988KBKB BKB20190825141514108/25/19 14:15:31  5-MIN KBKB 252015Z AUTO 00000KT 10SM -RA SCT015 BKN023 OVC038 27/24 A2984 380 87 1800 000/00 RMK AO2 RAB13 P0000 T02670244
53988KBKB BKB20190825142014308/25/19 14:20:31  5-MIN KBKB 252020Z AUTO 00000KT 6SM -RA BR FEW012 BKN022 OVC027 26/24 A2983 380 90 1800 000/00 RMK AO2 RAB13 P0000 T02610244
53988KBKB BKB20190825142511108/25/19 14:25:31  5-MIN KBKB 252025Z AUTO 00000KT 5SM -RA BR BKN014 BKN022 OVC027 26/2400/00 RMK AO2 T02720250
53988KBKB BKB20190825150512508/25/19 15:05:31  5-MIN KBKB 252105Z AUTO 00000KT 10SM FEW012 BKN017 OVC046 28/24 A2982 390 82 2000 000/00 RMK AO2 T02780244
53988KBKB BKB20190825151011808/25/19 15:10:31  5-MIN KBKB 252110Z AUTO 17004KT 10SM BKN018 OVC045 27/24 A2982 390 84 1900 170/04 RMK AO2 T02720244
53988KBKB BKB20190825151511808/25/19 15:15:31  5-MIN KBKB 252115Z AUTO 00000KT 10SM SCT018 OVC047 27/24 A2982 390 84 1900 000/00 RMK AO2 T02720244
53988KBKB BKB20190825152012508/25/19 15:20:31  5-MIN KBKB 252120Z AUTO 00000KT 10SM SCT018 BKN049 OVC060 28/24 A2982 390 82 2000 000/00 RMK AO2 T02780244
53988KBKB BKB20190825152512508/25/19 15:25:31  5-MIN KBKB 252125Z AUTO 00000KT 10SM FEW018 BKN049 OVC060 28/25 A2981 400 84 2000 000/00 RMK AO2 T02780250
53988KBKB BKB20190825152513508/25/19 15:25:31  5-MIN KBKB 252125Z AUTO 00000KT 10SM FEW018 BKN049 OVC060 28/25 A2981 400 A2982 390 82 2000 000/00 RMK AO2 T02780244
53988KBKB BKB20190825153012508/25/19 15:30:31  5-MIN KBKB 252130Z AUTO 00000KT 10SM FEW018 SCT048 OVC055 28/24 A2981 400 82 2000 000/00 RMK AO2 T02780244
53988KBKB BKB20190825153511108/25/19 15:35:31  5-MIN KBKB 252135Z AUTO VRB03KT 10SM OVC055 27/24 A2981 400 84 1900 VRB/03 RMK AO2 T02720244
53988KBKB BKB20190825153512108/25/19 15:35:31  5-MIN KBKB 252135Z AUTO VRB03KT KT 10SM SCT018 OVC047 27/24 A2982 390 84 1900 000/00 RMK AO2 T02720244
53988KBKB BKB20190825154011108/25/19 15:40:31  5-MIN KBKB 252140Z AUTO VRB03KT 10SM OVC055 27/24 A2981 400 84 1900 VRB/03 RMK AO2 T02720244
53988KBKB BKB20190825154511808/25/19 15:45:31  5-MIN KBKB 252145Z AUTO 00000KT 10SM FEW014 OVC055 28/24 A2982 400 82 2000 000/00 RMK AO2 T02780244
53988KBKB BKB20190825155012508/25/19 15:50:31  5-MIN KBKB 252150Z AUTO 14003KT 10SM FEW014 OVC060 28/24 A2981 400 82 2000 140/03 RMK AO2 SLP120 T02780244
53988KBKB BKB20190825155511808/25/19 15:55:31  5-MIN KBKB 252155Z AUTO 00000KT 10SM FEW014 OVC060 28/24 A2981 400 82 2000 000/00 RMK AO2 T02780244
53988KBKB BKB20190825160011808/25/19 16:00:31  5-MIN KBKB 252200Z AUTO 00000KT 10SM FEW014 OVC060 28/25 A2981 400 82 2100 000/00 RMK AO2 T02830250
53988KBKB BKB20190825160511808/25/19 16:05:31  5-MIN KBKB 252205Z AUTO VRB03KT 10SM SCT014 OVC060 28/24 A2981 400 82 2000 VRB/03 RMK AO2 T02780244
53988KBKB BKB20190825161011808/25/19 16:10:31  5-MIN KBKB 252210Z AUTO VRB04KT 10SM SCT013 BKN060 28/25 A2980 410 84 2000 VRB/04 RMK AO2 T02780250
53988KBKB BKB20190825161511808/25/19 16:15:31  5-MIN KBKB 252215Z AUTO 00000KT 10SM SCT013 BKN060 28/24 A2981 410 82 2000 000/00 RMK AO2 T02780244
53988KBKB BKB20190825162011808/25/19 16:20:31  5-MIN KBKB 252220Z AUTO 00000KT 10SM SCT013 BKN060 27/25 A2980 410 87 1900 000/00 RMK AO2 T02720250
53988KBKB BKB20190825162511808/25/19 16:25:31  5-MIN KBKB 252225Z AUTO 00000KT 10SM BKN013 BKN060 27/25 A2980 410 87 1900 000/00 RMK AO2 T02720250
53988KBKB BKB20190825163011108/25/19 16:30:31  5-MIN KBKB 252230Z AUTO VRB04KT 10SM BKN013 27/25 A2980 410 87 1900 VRB/04 RMK AO2 T02720250
53988KBKB BKB20190825163511108/25/19 16:35:31  5-MIN KBKB 252235Z AUTO 00000KT 10SM BKN013 27/25 A2980 410 87 2000 000/00 RMK AO2 T02720250
53988KBKB BKB20190825164011808/25/19 16:40:31  5-MIN KBKB 252240Z AUTO VRB03KT 10SM BKN013 BKN021 28/25 A2980 410 84 2000 VRB/03 RMK AO2 T02780250
53988KBKB BKB20190825164511808/25/19 16:45:31  5-MIN KBKB 252245Z AUTO 00000KT 10SM BKN013 BKN023 27/25 A2980 410 87 2000 000/00 RMK AO2 T02720250
53988KBKB BKB20190825165012508/25/19 16:50:31  5-MIN KBKB 252250Z AUTO 00000KT 10SM BKN013 BKN023 27/25 A2979 420 87 2000 000/00 RMK AO2 SLP112 T02720250
53988KBKB BKB20190825165511808/25/19 16:55:31  5-MIN KBKB 252255Z AUTO 00000KT 10SM BKN013 BKN019 27/25 A2979 420 87 2000 000/00 RMK AO2 T02720250
53988KBKB BKB20190825170011808/25/19 17:00:31  5-MIN KBKB 252300Z AUTO 00000KT 10SM BKN013 BKN022 27/25 A2979 420 87 2000 000/00 RMK AO2 T02720250
53988KBKB BKB20190825170515408/25/19 17:05:31  5-MIN KBKB 252305Z AUTO VRB03KT 10SM SCT013 BKN020 27/24 A2979 420 84 2000 VRB/03 RMK AO2 T02720244420 93 1800 000/00 RMK AO2 T02560244
53988KBKB BKB20190825185511108/25/19 18:55:31  5-MIN KBKB 260055Z AUTO 00000KT 10SM BKN013 26/24 A2979 420 93 1800 000/00 RMK AO2 T02560244
53988KBKB BKB20190825190011108/25/19 19:00:31  5-MIN KBKB 260100Z AUTO 00000KT 10SM SCT013 26/24 A2979 420 93 1800 000/00 RMK AO2 T02560244
53988KBKB BKB20190825190511108/25/19 19:05:31  5-MIN KBKB 260105Z AUTO 00000KT 10SM FEW013 26/24 A2979 420 93 1800 000/00 RMK AO2 T02560244
53988KBKB BKB20190825191011108/25/19 19:10:31  5-MIN KBKB 260110Z AUTO 00000KT 10SM FEW013 26/24 A2979 420 93 1800 000/00 RMK AO2 T02560244
53988KBKB BKB20190825191016308/25/19 19:10:31  5-MIN KBKB 260110Z AUTO 0008/25/19 18:50:31  5-MIN KBKB 260050Z AUTO 00000KT 10SM BKN013 26/24 A2979 420 90 1800 000/00 RMK AO2 SLP112 T02610244
53988KBKB BKB20190825191511108/25/19 19:15:31  5-MIN KBKB 260115Z AUTO 00000KT 10SM FEW013 26/24 A2979 420 93 1800 000/00 RMK AO2 T02560244
53988KBKB BKB20190825192010808/25/19 19:20:31  5-MIN KBKB 260120Z AUTO 00000KT 10SM CLR 26/24 A2979 420 90 1800 000/00 RMK AO2 T02560239
53988KBKB BKB20190825192016308/25/19 19:20:31  5-MIN KBKB 260120Z AUTO 00000KT 10SM25/19 19:00:31  5-MIN KBKB 260100Z AUTO 00000KT 10SM SCT013 26/24 A2979 420 93 1800 000/00 RMK AO2 T02560244
53988KBKB BKB20190825192510808/25/19 19:25:31  5-MIN KBKB 260125Z AUTO 00000KT 10SM CLR 26/24 A2979 420 90 1800 000/00 RMK AO2 T02560239
53988KBKB BKB20190825193010808/25/19 19:30:31  5-MIN KBKB 260130Z AUTO 00000KT 10SM CLR 25/24 A2980 410 93 1700 000/00 RMK AO2 T02500239
53988KBKB BKB20190825193016908/25/19 19:30:31  5-MIN KBKB 260130Z AUTO 00000KT 10SM CLR 25/24  19:10:31  5-MIN KBKB 260110Z AUTO 00000KT 10SM FEW013 26/24 A2979 420 93 1800 000/00 RMK AO2 T02560244
53988KBKB BKB20190825193510808/25/19 19:35:31  5-MIN KBKB 260135Z AUTO 00000KT 10SM CLR 25/24 A2980 410 93 1700 000/00 RMK AO2 T02500239
53988KBKB BKB20190825194006208/25/19 19:40:31  5-MIN KBKB 260140Z AUT/00 RMK AO2 T02560244
53988KBKB BKB20190825194010808/25/19 19:40:31  5-MIN KBKB 260140Z AUTO 00000KT 10SM CLR 25/24 A2980 410 93 1700 000/00 RMK AO2 T02500239
53988KBKB BKB20190825194511108/25/19 19:45:31  5-MIN KBKB 260145Z AUTO 00000KT 10SM FEW008 25/24 A2980 410 93 1700 000/00 RMK AO2 T02500239
53988KBKB BKB20190825194516808/25/19 19:45:31  5-MIN KBKB 260145Z AUTO 00000KT 10SM FEW008 25/24 A2980 410 93 1700 000/00 RMK AO2 T0250023908/25/19 26/24 A2979 420 90 1800 000/00 RMK AO2 T02560239
53988KBKB BKB20190825195010108/25/19 19:50:31  5-MIN KBKB 260150Z AUTO 00000KT 10SM SCT008 25/24 A2980 410 93 1700 000/00 RMK AO2
53988KBKB BKB20190825195511108/25/19 19:55:31  5-MIN KBKB 260155Z AUTO 00000KT 10SM SCT008 25/24 A2980 410 93 1700 000/00 RMK AO2 T02500239
53988KBKB BKB20190825200011108/25/19 20:00:31  5-MIN KBKB 260200Z AUTO 00000KT 10SM BKN008 25/24 A2981 400 93 1700 000/00 RMK AO2 T02500239
53988KBKB BKB20190825200511108/25/19 20:05:31  5-MIN KBKB 260205Z AUTO 00000KT 10SM BKN008 25/24 A2981 400 93 1700 000/00 RMK AO2 T02500239
53988KBKB BKB20190825201011108/25/19 20:10:31  5-MIN KBKB 260210Z AUTO 00000KT 10SM BKN008 25/24 A2981 400 93 1700 000/00 RMK AO2 T02500239
53988KBKB BKB20190825201511108/25/19 20:15:31  5-MIN KBKB 260215Z AUTO 00000KT 10SM OVC008 25/24 A2982 390 93 1700 000/00 RMK AO2 T02500239
53988KBKB BKB20190825202010308/25/19 20:20:31  5-MIN KBKB 260220Z AUTO 00000KT 10SM OVC008 25/24 A2982 390 93 1700 05MIN(S) LISTED.
53988KBKB BKB20190825202011108/25/19 20:20:31  5-MIN KBKB 260220Z AUTO 00000KT 10SM OVC008 25/24 A2982 390 93 1700 000/00 RMK AO2 T02500239
53988KBKB BKB20190825202511108/25/19 20:25:31  5-MIN KBKB 260225Z AUTO 00000KT 10SM OVC008 25/24 A2982 390 93 1700 000/00 RMK AO2 T02500239
53988KBKB BKB20190825203011108/25/19 20:30:31  5-MIN KBKB 260230Z AUTO 00000KT 10SM OVC008 25/24 A2982 390 93 1700 000/00 RMK AO2 T02500239
53988KBKB BKB20190825203511108/25/19 20:35:31  5-MIN KBKB 260235Z AUTO 00000KT 10SM OVC007 25/24 A2983 390 93 1700 000/00 RMK AO2 T02500239
53988KBKB BKB20190825204011108/25/19 20:40:31  5-MIN KBKB 260240Z AUTO 00000KT 10SM OVC007 25/24 A2983 380 93 1700 000/00 RMK AO2 T02500239
53988KBKB BKB20190825204511108/25/19 20:45:31  5-MIN KBKB 260245Z AUTO 00000KT 10SM OVC007 25/24 A2983 380 93 1700 000/00 RMK AO2 T02500239
53988KBKB BKB20190825205012408/25/19 20:50:31  5-MIN KBKB 260250Z AUTO 00000KT 10SM OVC007 25/24 A2983 380 93 1700 000/00 RMK AO2 SLP126 T02500239 56014
53988KBKB BKB20190825205512308/25/19 20:55:31  5-MIN KBKB 260255Z AUTO VRB03KT 10SM BKN007 25/24 A2983 380 93 1700 VRB/03 RMK AO2 CIG 005V010 T02500239
53988KBKB BKB20190825210012308/25/19 21:00:31  5-MIN KBKB 260300Z AUTO 00000KT 10SM BKN007 25/24 A2983 380 93 1700 000/00 RMK AO2 CIG 004V010 T02500239
53988KBKB BKB20190825210512308/25/19 21:05:31  5-MIN KBKB 260305Z AUTO 00000KT 10SM BKN005 25/24 A2983 380 93 1700 000/00 RMK AO2 CIG 004V010 T02500239
53988KBKB BKB20190825211012308/25/19 21:10:31  5-MIN KBKB 260310Z AUTO 00000KT 10SM BKN005 25/24 A2983 380 93 1700 000/00 RMK AO2 CIG 004V010 T02500239
53988KBKB BKB20190825211511708/25/19 21:15:31  5-MIN KBKB 260315Z AUTO 00000KT 9SM BKN005 BKN008 25/24 A2983 380 93 1700 000/00 RMK AO2 T02500239
53988KBKB BKB20190825212011008/25/19 21:20:31  5-MIN KBKB 260320Z AUTO 00000KT 9SM BKN005 25/24 A2983 380 93 1700 000/00 RMK AO2 T02500239
53988KBKB BKB20190825212511008/25/19 21:25:31  5-MIN KBKB 260325Z AUTO VRB03KT 9SM OVC005 24/24 A2984 380 97 1600 VRB/03 RMK AO2 T02440239
53988KBKB BKB20190825213011108/25/19 21:30:31  5-MIN KBKB 260330Z AUTO 00000KT 10SM OVC004 24/24 A2984 380 97 1600 000/00 RMK AO2 T02440239
53988KBKB BKB20190825213511108/25/19 21:35:31  5-MIN KBKB 260335Z AUTO 00000KT 10SM OVC004 24/24 A2984 370 97 1600 000/00 RMK AO2 T02440239
53988KBKB BKB20190825214011008/25/19 21:40:31  5-MIN KBKB 260340Z AUTO 00000KT 9SM OVC004 24/24 A2984 370 97 1600 000/00 RMK AO2 T02440239
53988KBKB BKB20190825214511008/25/19 21:45:31  5-MIN KBKB 260345Z AUTO VRB03KT 9SM OVC004 24/24 A2984 370 97 1600 VRB/03 RMK AO2 T02440239
53988KBKB BKB20190825215011708/25/19 21:50:31  5-MIN KBKB 260350Z AUTO 00000KT 9SM OVC004 24/23 A2984 370 93 1600 000/00 RMK AO2 SLP129 T02440233
53988KBKB BKB20190825215511108/25/19 21:55:31  5-MIN KBKB 260355Z AUTO 00000KT 10SM OVC004 24/23 A2984 370 93 1600 000/00 RMK AO2 T02440233
53988KBKB BKB20190825220011108/25/19 22:00:31  5-MIN KBKB 260400Z AUTO 00000KT 10SM OVC004 24/23 A2984 370 93 1600 000/00 RMK AO2 T02440233
53988KBKB BKB20190825220511108/25/19 22:05:31  5-MIN KBKB 260405Z AUTO 00000KT 10SM OVC004 24/23 A2984 370 93 1600 000/00 RMK AO2 T02440233
53988KBKB BKB20190825221011108/25/19 22:10:31  5-MIN KBKB 260410Z AUTO 00000KT 10SM OVC004 24/23 A2984 370 93 1600 000/00 RMK AO2 T02440233
53988KBKB BKB20190825221511108/25/19 22:15:31  5-MIN KBKB 260415Z AUTO 00000KT 10SM OVC004 24/23 A2984 370 93 1600 000/00 RMK AO2 T02440233
53988KBKB BKB20190825222011108/25/19 22:20:31  5-MIN KBKB 260420Z AUTO 00000KT 10SM OVC004 24/23 A2984 370 93 1600 000/00 RMK AO2 T02440233
53988KBKB BKB20190825222511108/25/19 22:25:31  5-MIN KBKB 260425Z AUTO 00000KT 10SM OVC004 24/23 A2984 370 93 1600 000/00 RMK AO2 T02440233
53988KBKB BKB20190825223011108/25/19 22:30:31  5-MIN KBKB 260430Z AUTO 00000KT 10SM OVC004 24/23 A2984 370 93 1600 000/00 RMK AO2 T02440233
53988KBKB BKB20190825223511108/25/19 22:35:31  5-MIN KBKB 260435Z AUTO 00000KT 10SM OVC004 24/23 A2984 370 93 1600 000/00 RMK AO2 T02440233
53988KBKB BKB20190825224011108/25/19 22:40:31  5-MIN KBKB 260440Z AUTO 00000KT 10SM OVC004 24/23 A2984 370 93 1600 000/00 RMK AO2 T02440233
53988KBKB BKB20190825224511108/25/19 22:45:31  5-MIN KBKB 260445Z AUTO 00000KT 10SM OVC004 24/23 A2984 370 93 1600 000/00 RMK AO2 T02440233
53988KBKB BKB20190825225011708/25/19 22:50:31  5-MIN KBKB 260450Z AUTO 20003KT 9SM OVC004 24/23 A2984 370 93 1600 200/03 RMK AO2 SLP130 T02440233
53988KBKB BKB20190825225511008/25/19 22:55:31  5-MIN KBKB 260455Z AUTO 00000KT 7SM OVC003 24/23 A2984 370 93 1600 000/00 RMK AO2 T02440233
53988KBKB BKB20190825230011008/25/19 23:00:31  5-MIN KBKB 260500Z AUTO 00000KT 7SM OVC003 24/23 A2984 370 93 1600 000/00 RMK AO2 T02440233
53988KBKB BKB20190825230511308/25/19 23:05:31  5-MIN KBKB 260505Z AUTO 00000KT 6SM BR OVC003 24/24 A2984 370 97 1600 000/00 RMK AO2 T02440239
53988KBKB BKB20190825231011308/25/19 23:10:31  5-MIN KBKB 260510Z AUTO 00000KT 5SM BR OVC003 24/24 A2984 370 97 1600 000/00 RMK AO2 T02440239
53988KBKB BKB20190825231511308/25/19 23:15:31  5-MIN KBKB 260515Z AUTO 00000KT 5SM BR OVC002 24/24 A2985 370 97 1600 000/00 RMK AO2 T02440239
53988KBKB BKB20190825232011308/25/19 23:20:31  5-MIN KBKB 260520Z AUTO 00000KT 4SM BR OVC002 24/24 A2985 370 97 1600 000/00 RMK AO2 T02440239
53988KBKB BKB20190825232511308/25/19 23:25:31  5-MIN KBKB 260525Z AUTO 00000KT 3SM BR OVC002 24/24 A2985 370 97 1600 000/00 RMK AO2 T02440239
53988KBKB BKB20190825233011308/25/19 23:30:31  5-MIN KBKB 260530Z AUTO 00000KT 3SM BR OVC002 24/24 A2985 370 97 1600 000/00 RMK AO2 T02440239
53988KBKB BKB20190825233511308/25/19 23:35:31  5-MIN KBKB 260535Z AUTO 00000KT 4SM BR OVC002 24/24 A2985 370 97 1600 000/00 RMK AO2 T02440239
53988KBKB BKB20190825234011308/25/19 23:40:31  5-MIN KBKB 260540Z AUTO 00000KT 5SM BR OVC002 24/24 A2985 370 97 1600 000/00 RMK AO2 T02440239
53988KBKB BKB20190825234511308/25/19 23:45:31  5-MIN KBKB 260545Z AUTO 20003KT 6SM BR OVC002 24/24 A2984 370 97 1600 200/03 RMK AO2 T02440239
53988KBKB BKB20190825235014808/25/19 23:50:31  5-MIN KBKB 260550Z AUTO 00000KT 6SM BR OVC002 24/24 A2984 370 97 1600 000/00 RMK AO2 SLP130 T02440239 10256 20244 402830239 53016
53988KBKB BKB20190825235511308/25/19 23:55:31  5-MIN KBKB 260555Z AUTO 00000KT 5SM BR OVC002 24/24 A2984 370 97 1600 000/00 RMK AO2 T02440239
53988KBKB BKB20190826000011308/26/19 00:00:31  5-MIN KBKB 260600Z AUTO 00000KT 5SM BR OVC002 24/24 A2984 370 97 1600 000/00 RMK AO2 T02440239
53988KBKB BKB20190826000511308/26/19 00:05:31  5-MIN KBKB 260605Z AUTO 00000KT 5SM BR OVC002 24/24 A2984 370 97 1600 000/00 RMK AO2 T02440239
53988KBKB BKB20190826001011308/26/19 00:10:31  5-MIN KBKB 260610Z AUTO 00000KT 5SM BR OVC002 24/24 A2984 370 97 1600 000/00 RMK AO2 T02440239
53988KBKB BKB20190826001511308/26/19 00:15:31  5-MIN KBKB 260615Z AUTO 00000KT 4SM BR OVC002 24/24 A2984 380 97 1600 000/00 RMK AO2 T02440239
53988KBKB BKB20190826002011308/26/19 00:20:31  5-MIN KBKB 260620Z AUTO 00000KT 4SM BR OVC002 24/24 A2983 380 97 1600 000/00 RMK AO2 T02440239
53988KBKB BKB20190826002511308/26/19 00:25:31  5-MIN KBKB 260625Z AUTO VRB03KT 3SM BR OVC002 24/24 A2983 380 97 1600 VRB/03 RMK AO2 T02440239
53988KBKB BKB20190826003011308/26/19 00:30:31  5-MIN KBKB 260630Z AUTO 00000KT 2SM BR OVC002 24/24 A2983 380 97 1600 000/00 RMK AO2 T02440239
53988KBKB BKB20190826003511708/26/19 00:35:31  5-MIN KBKB 260635Z AUTO 00000KT 1 3/4SM BR OVC002 24/24 A2983 380 97 1600 000/00 RMK AO2 T02440239
53988KBKB BKB20190826004011708/26/19 00:40:31  5-MIN KBKB 260640Z AUTO 00000KT 1 1/2SM BR OVC002 24/24 A2983 380 97 1600 000/00 RMK AO2 T02440239
53988KBKB BKB20190826004511708/26/19 00:45:31  5-MIN KBKB 260645Z AUTO 00000KT 1 3/4SM BR OVC002 24/24 A2983 390 97 1600 000/00 RMK AO2 T02440239
53988KBKB BKB20190826005012408/26/19 00:50:31  5-MIN KBKB 260650Z AUTO 00000KT 1 1/2SM BR OVC002 24/24 A2983 390 97 1600 000/00 RMK AO2 SLP125 T02440239
53988KBKB BKB20190826005511708/26/19 00:55:31  5-MIN KBKB 260655Z AUTO 00000KT 1 1/2SM BR OVC002 24/24 A2982 390 97 1600 000/00 RMK AO2 T02440239
53988KBKB BKB20190826010011708/26/19 01:00:31  5-MIN KBKB 260700Z AUTO 00000KT 1 3/4SM BR OVC002 24/24 A2982 390 97 1600 000/00 RMK AO2 T02440239
53988KBKB BKB20190826010511308/26/19 01:05:31  5-MIN KBKB 260705Z AUTO 00000KT 2SM BR OVC002 24/24 A2982 390 97 1600 000/00 RMK AO2 T02440239
53988KBKB BKB20190826011011708/26/19 01:10:31  5-MIN KBKB 260710Z AUTO 00000KT 2 1/2SM BR OVC002 24/24 A2982 390 97 1600 000/00 RMK AO2 T02440239
53988KBKB BKB20190826011511708/26/19 01:15:31  5-MIN KBKB 260715Z AUTO 19003KT 2 1/2SM BR OVC002 24/24 A2982 390 97 1600 190/03 RMK AO2 T02440239
53988KBKB BKB20190826012011308/26/19 01:20:31  5-MIN KBKB 260720Z AUTO 21003KT 3SM BR OVC002 24/24 A2982 390 97 1600 200/03 RMK AO2 T02440239
53988KBKB BKB20190826012511308/26/19 01:25:31  5-MIN KBKB 260725Z AUTO 00000KT 3SM BR OVC002 24/24 A2983 390 97 1600 000/00 RMK AO2 T02440239
53988KBKB BKB20190826013011308/26/19 01:30:31  5-MIN KBKB 260730Z AUTO 00000KT 4SM BR OVC002 24/24 A2983 380 97 1600 000/00 RMK AO2 T02440239
53988KBKB BKB20190826013511308/26/19 01:35:31  5-MIN KBKB 260735Z AUTO 00000KT 6SM BR OVC002 24/24 A2983 380 97 1600 000/00 RMK AO2 T02440239
53988KBKB BKB20190826014011308/26/19 01:40:31  5-MIN KBKB 260740Z AUTO 00000KT 6SM BR OVC002 24/24 A2983 390 97 1600 000/00 RMK AO2 T02440239
53988KBKB BKB20190826014511308/26/19 01:45:31  5-MIN KBKB 260745Z AUTO 00000KT 5SM BR OVC002 24/24 A2983 380 97 1600 000/00 RMK AO2 T02440239
53988KBKB BKB20190826015012008/26/19 01:50:31  5-MIN KBKB 260750Z AUTO 00000KT 5SM BR OVC002 24/24 A2983 380 97 1600 000/00 RMK AO2 SLP125 T02440239
53988KBKB BKB20190826015511308/26/19 01:55:31  5-MIN KBKB 260755Z AUTO 00000KT 4SM BR OVC002 24/24 A2983 380 97 1600 000/00 RMK AO2 T02440239
53988KBKB BKB20190826020011308/26/19 02:00:31  5-MIN KBKB 260800Z AUTO 00000KT 4SM BR OVC002 24/24 A2983 380 97 1600 000/00 RMK AO2 T02440239
53988KBKB BKB20190826020511308/26/19 02:05:31  5-MIN KBKB 260805Z AUTO 00000KT 4SM BR OVC002 24/24 A2983 380 97 1600 000/00 RMK AO2 T02440239
53988KBKB BKB20190826021011308/26/19 02:10:31  5-MIN KBKB 260810Z AUTO 00000KT 4SM BR OVC002 24/24 A2983 380 97 1600 000/00 RMK AO2 T02440239
53988KBKB BKB20190826021511308/26/19 02:15:31  5-MIN KBKB 260815Z AUTO VRB03KT 4SM BR OVC002 24/24 A2983 380 97 1600 VRB/03 RMK AO2 T02440239
53988KBKB BKB20190826022011308/26/19 02:20:31  5-MIN KBKB 260820Z AUTO 00000KT 4SM BR OVC002 24/24 A2983 380 97 1600 000/00 RMK AO2 T02440239
53988KBKB BKB20190826022511308/26/19 02:25:31  5-MIN KBKB 260825Z AUTO 00000KT 5SM BR OVC002 24/24 A2983 390 97 1600 000/00 RMK AO2 T02440239
53988KBKB BKB20190826023011308/26/19 02:30:31  5-MIN KBKB 260830Z AUTO 00000KT 5SM BR OVC002 24/24 A2982 390 97 1600 000/00 RMK AO2 T02440239
53988KBKB BKB20190826023511308/26/19 02:35:31  5-MIN KBKB 260835Z AUTO 00000KT 6SM BR OVC002 24/24 A2982 390 97 1600 000/00 RMK AO2 T02440239
53988KBKB BKB20190826024011008/26/19 02:40:31  5-MIN KBKB 260840Z AUTO 00000KT 7SM OVC002 24/24 A2982 390 97 1600 000/00 RMK AO2 T02440239
53988KBKB BKB20190826024511008/26/19 02:45:31  5-MIN KBKB 260845Z AUTO 20003KT 8SM OVC002 24/24 A2982 390 97 1600 200/03 RMK AO2 T02440239
53988KBKB BKB20190826025012308/26/19 02:50:31  5-MIN KBKB 260850Z AUTO VRB03KT 8SM OVC002 24/24 A2983 390 97 1600 VRB/03 RMK AO2 SLP124 T02440239 50003
53988KBKB BKB20190826025511008/26/19 02:55:31  5-MIN KBKB 260855Z AUTO 00000KT 8SM OVC003 24/24 A2983 390 97 1600 000/00 RMK AO2 T02440239
53988KBKB BKB20190826030011008/26/19 03:00:31  5-MIN KBKB 260900Z AUTO 21003KT 9SM OVC003 24/24 A2983 390 97 1600 210/03 RMK AO2 T02440239
53988KBKB BKB20190826030511008/26/19 03:05:31  5-MIN KBKB 260905Z AUTO 20004KT 8SM OVC003 24/23 A2983 380 93 1600 200/04 RMK AO2 T02440233
53988KBKB BKB20190826031011008/26/19 03:10:31  5-MIN KBKB 260910Z AUTO VRB03KT 8SM OVC003 24/24 A2983 380 97 1600 VRB/03 RMK AO2 T02440239
53988KBKB BKB20190826031511008/26/19 03:15:31  5-MIN KBKB 260915Z AUTO VRB03KT 8SM OVC003 24/23 A2983 390 97 1600 VRB/03 RMK AO2 T02440239
53988KBKB BKB20190826034511008/26/19 03:45:31  5-MIN KBKB 260945Z AUTO 00000KT 8SM OVC003 24/24 A2983 390 97 1600 000/00 RMK AO2 T02440239
53988KBKB BKB20190826035011708/26/19 03:50:31  5-MIN KBKB 260950Z AUTO 00000KT 8SM OVC003 24/24 A2982 390 97 1600 000/00 RMK AO2 SLP124 T02440239
53988KBKB BKB20190826035511008/26/19 03:55:31  5-MIN KBKB 260955Z AUTO VRB03KT 8SM OVC003 24/24 A2983 390 97 1600 VRB/03 RMK AO2 T02440239
53988KBKB BKB20190826040011008/26/19 04:00:31  5-MIN KBKB 261000Z AUTO VRB03KT 8SM OVC003 24/24 A2983 390 97 1600 VRB/03 RMK AO2 T02440239
53988KBKB BKB20190826040511008/26/19 04:05:31  5-MIN KBKB 261005Z AUTO 00000KT 8SM OVC003 24/24 A2982 390 97 1600 000/00 RMK AO2 T02440239
53988KBKB BKB20190826041011008/26/19 04:10:31  5-MIN KBKB 261010Z AUTO 22003KT 9SM OVC003 24/24 A2982 390 97 1600 220/03 RMK AO2 T02440239
53988KBKB BKB20190826041016608/26/19 04:10:31  5-MIN KBKB 261010Z AUTO 22003KT 9SM OVC03:50:31  5-MIN KBKB 260950Z AUTO 00000KT 8SM OVC003 24/24 A2982 390 97 1600 000/00 RMK AO2 SLP124 T02440239
53988KBKB BKB20190826041511008/26/19 04:15:31  5-MIN KBKB 261015Z AUTO 00000KT 9SM OVC003 24/24 A2982 390 97 1600 000/00 RMK AO2 T02440239
53988KBKB BKB20190826042011008/26/19 04:20:31  5-MIN KBKB 261020Z AUTO VRB03KT 9SM OVC003 24/24 A2982 390 97 1600 VRB/03 RMK AO2 T02440239
53988KBKB BKB20190826042511008/26/19 04:25:31  5-MIN KBKB 261025Z AUTO VRB03KT 9SM OVC003 24/24 A2982 390 97 1600 VRB/03 RMK AO2 T02440239
53988KBKB BKB20190826043011008/26/19 04:30:31  5-MIN KBKB 261030Z AUTO 00000KT 9SM OVC003 24/24 A2982 390 97 1600 000/00 RMK AO2 T02440239
53988KBKB BKB20190826043511008/26/19 04:35:31  5-MIN KBKB 261035Z AUTO 00000KT 9SM OVC003 24/24 A2982 390 97 1600 000/00 RMK AO2 T02440239
53988KBKB BKB20190826044011008/26/19 04:40:31  5-MIN KBKB 261040Z AUTO 00000KT 8SM OVC003 24/24 A2982 390 97 1600 000/00 RMK AO2 T02440239
53988KBKB BKB20190826044511008/26/19 04:45:31  5-MIN KBKB 261045Z AUTO 00000KT 8SM OVC003 24/24 A2982 390 97 1600 000/00 RMK AO2 T02440239
53988KBKB BKB20190826045011708/26/19 04:50:31  5-MIN KBKB 261050Z AUTO 00000KT 8SM OVC003 24/24 A2982 390 97 1600 000/00 RMK AO2 SLP122 T02440239
53988KBKB BKB20190826045511008/26/19 04:55:31  5-MIN KBKB 261055Z AUTO VRB03KT 8SM OVC003 25/24 A2982 390 93 1700 VRB/03 RMK AO2 T02500239
53988KBKB BKB20190826050011008/26/19 05:00:31  5-MIN KBKB 261100Z AUTO 00000KT 8SM OVC003 25/24 A2982 390 93 1700 000/00 RMK AO2 T02500239
53988KBKB BKB20190826050511008/26/19 05:05:31  5-MIN KBKB 261105Z AUTO VRB03KT 8SM OVC003 25/24 A2982 390 93 1700 VRB/03 RMK AO2 T02500239
53988KBKB BKB20190826051011008/26/19 05:10:31  5-MIN KBKB 261110Z AUTO VRB03KT 8SM OVC003 25/24 A2982 390 93 1700 VRB/03 RMK AO2 T02500239
53988KBKB BKB20190826051511008/26/19 05:15:31  5-MIN KBKB 261115Z AUTO 00000KT 9SM OVC003 25/24 A2982 390 93 1700 000/00 RMK AO2 T02500239
53988KBKB BKB20190826052011008/26/19 05:20:31  5-MIN KBKB 261120Z AUTO 00000KT 9SM OVC003 25/24 A2982 390 93 1700 000/00 RMK AO2 T02500239
53988KBKB BKB20190826052511008/26/19 05:25:31  5-MIN KBKB 261125Z AUTO 00000KT 9SM OVC003 25/24 A2982 390 93 1700 000/00 RMK AO2 T02500239
53988KBKB BKB20190826053011008/26/19 05:30:31  5-MIN KBKB 261130Z AUTO VRB03KT 9SM OVC003 25/24 A2983 390 93 1700 VRB/03 RMK AO2 T02500239
53988KBKB BKB20190826053511008/26/19 05:35:31  5-MIN KBKB 261135Z AUTO VRB03KT 8SM OVC003 25/24 A2983 390 93 1700 VRB/03 RMK AO2 T02500239
53988KBKB BKB20190826054011008/26/19 05:40:31  5-MIN KBKB 261140Z AUTO 00000KT 8SM OVC003 25/24 A2983 380 93 1700 000/00 RMK AO2 T02500239
53988KBKB BKB20190826054511008/26/19 05:45:31  5-MIN KBKB 261145Z AUTO VRB03KT 8SM OVC003 25/24 A2983 380 93 1700 VRB/03 RMK AO2 T02500239
53988KBKB BKB20190826055014108/26/19 05:50:31  5-MIN KBKB 261150Z AUTO 00000KT 7SM OVC003 25/24 A2983 380 93 1700 000/00 RMK AO2 SLP126 70019 T02500239 10250 20244 56005
53988KBKB BKB20190826055511008/26/19 05:55:31  5-MIN KBKB 261155Z AUTO 00000KT 7SM OVC003 25/24 A2983 380 93 1700 000/00 RMK AO2 T02500239
53988KBKB BKB20190826060011308/26/19 06:00:31  5-MIN KBKB 261200Z AUTO 00000KT 6SM BR OVC003 25/24 A2983 380 93 1700 000/00 RMK AO2 T02500239
53988KBKB BKB20190826060511308/26/19 06:05:31  5-MIN KBKB 261205Z AUTO 00000KT 6SM BR OVC003 25/24 A2983 380 93 1700 000/00 RMK AO2 T02500239
53988KBKB BKB20190826061011308/26/19 06:10:31  5-MIN KBKB 261210Z AUTO 00000KT 6SM BR OVC003 25/24 A2984 380 93 1700 000/00 RMK AO2 T02500239
53988KBKB BKB20190826061508608/26/19 06:15:31  5-MIN KBKB 261215Z AUTO VRB03KT 6SM BR OVC003 25/24 AV011 T02720250
53988KBKB BKB20190826064511008/26/19 06:45:31  5-MIN KBKB 261245Z AUTO 00000KT 7SM OVC003 26/24 A2985 370 93 1700 000/00 RMK AO2 T02560244
53988KBKB BKB20190826065011708/26/19 06:50:31  5-MIN KBKB 261250Z AUTO 00000KT 8SM OVC003 26/24 A2984 370 93 1700 000/00 RMK AO2 SLP131 T02560244
53988KBKB BKB20190826065511008/26/19 06:55:31  5-MIN KBKB 261255Z AUTO VRB03KT 9SM BKN003 26/24 A2984 370 93 1700 VRB/03 RMK AO2 T02560244
53988KBKB BKB20190826070011108/26/19 07:00:31  5-MIN KBKB 261300Z AUTO 00000KT 10SM BKN003 26/24 A2984 370 90 1800 000/00 RMK AO2 T02610244
53988KBKB BKB20190826070512308/26/19 07:05:31  5-MIN KBKB 261305Z AUTO 22003KT 10SM BKN004 26/24 A2984 370 90 1800 220/03 RMK AO2 CIG 003V006 T02610244
53988KBKB BKB20190826071011108/26/19 07:10:31  5-MIN KBKB 261310Z AUTO VRB03KT 10SM SCT004 27/24 A2984 370 87 1800 VRB/03 RMK AO2 T02670244
53988KBKB BKB20190826071511108/26/19 07:15:31  5-MIN KBKB 261315Z AUTO VRB04KT 10SM SCT004 27/24 A2984 370 87 1800 VRB/04 RMK AO2 T02670244
53988KBKB BKB20190826072011108/26/19 07:20:31  5-MIN KBKB 261320Z AUTO 00000KT 10SM SCT006 27/25 A2984 370 90 1800 000/00 RMK AO2 T02670250
53988KBKB BKB20190826072511108/26/19 07:25:31  5-MIN KBKB 261325Z AUTO VRB03KT 10SM SCT006 27/25 A2984 370 87 1900 VRB/03 RMK AO2 T02720250
53988KBKB BKB20190826073012308/26/19 07:30:31  5-MIN KBKB 261330Z AUTO VRB03KT 10SM BKN006 27/25 A2984 370 87 1900 VRB/03 RMK AO2 CIG 006V011 T02720250
53988KBKB BKB20190826073512308/26/19 07:35:31  5-MIN KBKB 261335Z AUTO VRB05KT 10SM BKN008 27/25 A2985 370 87 1900 VRB/05 RMK AO2 CIG 006V011 T02720250
53988KBKB BKB20190826074013008/26/19 07:40:31  5-MIN KBKB 261340Z AUTO VRB03KT 10SM BKN008 BKN031 27/25 A2984 370 87 1900 VRB/03 RMK AO2 CIG 006V011 T02720250
53988KBKB BKB20190826074513008/26/19 07:45:31  5-MIN KBKB 261345Z AUTO 00000KT 10SM BKN008 BKN031 28/25 A2984 370 84 2000 000/00 RMK AO2 CIG 006V011 T02780250
53988KBKB BKB20190826075013708/26/19 07:50:31  5-MIN KBKB 261350Z AUTO VRB03KT 10SM BKN008 BKN031 28/25 A2984 370 82 2000 VRB/03 RMK AO2 CIG 007V011 SLP131 T02830250
53988KBKB BKB20190826075513008/26/19 07:55:31  5-MIN KBKB 261355Z AUTO VRB03KT 10SM BKN010 OVC031 28/26 A2984 370 85 2000 VRB/03 RMK AO2 CIG 007V012 T02830256
53988KBKB BKB20190826080013708/26/19 08:00:31  5-MIN KBKB 261400Z AUTO VRB03KT 10SM BKN010 BKN016 OVC032 28/25 A2984 370 82 2000 VRB/03 RMK AO2 CIG 008V013 T02830250
53988KBKB BKB20190826080512508/26/19 08:05:31  5-MIN KBKB 261405Z AUTO VRB03KT 10SM BKN010 BKN016 OVC032 28/25 A2984 370 82 2000 VRB/03 RMK AO2 T02830250
53988KBKB BKB20190826081011808/26/19 08:10:31  5-MIN KBKB 261410Z AUTO 23005KT 10SM BKN010 BKN016 29/26 A2984 380 82 2100 230/05 RMK AO2 T02890256
53988KBKB BKB20190826081511808/26/19 08:15:31  5-MIN KBKB 261415Z AUTO 00000KT 10SM BKN011 OVC016 28/25 A2984 380 82 2000 000/00 RMK AO2 T02830250
53988KBKB BKB20190826082011808/26/19 08:20:31  5-MIN KBKB 261420Z AUTO VRB04KT 10SM BKN011 BKN018 29/26 A2984 380 82 2100 VRB/04 RMK AO2 T02890256
53988KBKB BKB20190826082510808/26/19 08:25:31  5-MIN KBKB 261425Z AUTO 10SM BKN011 BKN018 28/25 A2984 380 82 2000 M /M RMK AO2 T02830250
53988KBKB BKB20190826083011808/26/19 08:30:31  5-MIN KBKB 261430Z AUTO 00000KT 10SM BKN013 BKN018 28/25 A2984 380 82 2000 000/00 RMK AO2 T02830250
53988KBKB BKB20190826083511808/26/19 08:35:31  5-MIN KBKB 261435Z AUTO VRB04KT 10SM BKN013 BKN018 28/25 A2984 380 82 2000 VRB/04 RMK AO2 T02830250
53988KBKB BKB20190826084011808/26/19 08:40:31  5-MIN KBKB 261440Z AUTO VRB04KT 10SM BKN013 BKN020 28/25 A2984 380 82 2000 VRB/04 RMK AO2 T02830250
53988KBKB BKB20190826084511808/26/19 08:45:31  5-MIN KBKB 261445Z AUTO VRB03KT 10SM SCT013 BKN020 28/25 A2984 380 82 2000 VRB/03 RMK AO2 T02830250
53988KBKB BKB20190826085010808/26/19 08:50:31  5-MIN KBKB 261450Z AUTO 22006KT 10SM SCT015 BKN023 28/25 A2984 380 82 2000 220/06 RMK AO2
53988KBKB BKB20190826085512508/26/19 08:55:31  5-MIN KBKB 261455Z AUTO VRB04KT 10SM SCT015 BKN021 BKN027 29/26 A2984 380 79 2200 VRB/04 RMK AO2 T02940256
53988KBKB BKB20190826090012508/26/19 09:00:31  5-MIN KBKB 261500Z AUTO VRB04KT 10SM FEW013 BKN020 BKN025 29/25 A2984 370 76 2200 VRB/04 RMK AO2 T02940250
53988KBKB BKB20190826090511808/26/19 09:05:31  5-MIN KBKB 261505Z AUTO 00000KT 10SM BKN017 BKN024 29/25 A2984 370 76 2200 000/00 RMK AO2 T02940250
53988KBKB BKB20190826091012508/26/19 09:10:31  5-MIN KBKB 261510Z AUTO VRB05KT 10SM SCT017 BKN022 BKN027 29/26 A2984 370 79 2200 VRB/05 RMK AO2 T02940256
53988KBKB BKB20190826091512508/26/19 09:15:31  5-MIN KBKB 261515Z AUTO VRB04KT 10SM SCT017 SCT022 BKN029 29/25 A2984 370 76 2200 VRB/04 RMK AO2 T02940250
53988KBKB BKB20190826092012508/26/19 09:20:31  5-MIN KBKB 261520Z AUTO VRB05KT 10SM FEW017 SCT022 BKN036 29/25 A2984 370 76 2200 VRB/05 RMK AO2 T02940250
53988KBKB BKB20190826092512508/26/19 09:25:31  5-MIN KBKB 261525Z AUTO VRB04KT 10SM FEW017 SCT027 BKN048 29/25 A2984 370 79 2100 VRB/04 RMK AO2 T02890250
53988KBKB BKB20190826093012508/26/19 09:30:31  5-MIN KBKB 261530Z AUTO VRB04KT 10SM FEW017 SCT027 BKN036 30/25 A2984 370 74 2200 VRB/04 RMK AO2 T03000250
53988KBKB BKB20190826093512508/26/19 09:35:31  5-MIN KBKB 261535Z AUTO VRB05KT 10SM SCT019 BKN027 BKN034 30/25 A2984 370 74 2200 VRB/05 RMK AO2 T03000250
53988KBKB BKB20190826094012508/26/19 09:40:31  5-MIN KBKB 261540Z AUTO VRB03KT 10SM SCT019 BKN027 BKN034 31/25 A2984 380 72 2300 VRB/03 RMK AO2 T03060250
53988KBKB BKB20190826094510808/26/19 09:45:31  5-MIN KBKB 261545Z AUTO 10SM SCT021 BKN027 31/25 A2984 380 69 2300 M /M RMK AO2 T03110250
53988KBKB BKB20190826095012508/26/19 09:50:31  5-MIN KBKB 261550Z AUTO VRB06KT 10SM SCT023 BKN027 31/25 A2984 380 72 2300 VRB/06 RMK AO2 SLP128 T03060250
53988KBKB BKB20190826095512508/26/19 09:55:31  5-MIN KBKB 261555Z AUTO VRB05KT 10SM SCT021 BKN027 BKN033 31/25 A2984 380 69 2300 VRB/05 RMK AO2 T03110250
53988KBKB BKB20190826100010308/26/19 10:00:31  5-MIN KBKB 261600Z AUTO VRB03KT 10SM SCT023 BKN027  59 2800 VRB/04 RMK AO2 T03440256
53988KBKB BKB20190826133511108/26/19 13:35:31  5-MIN KBKB 261935Z AUTO VRB04KT 10SM FEW036 34/25 A2980 410 59 2700 VRB/04 RMK AO2 T03390250
53988KBKB BKB20190826134011108/26/19 13:40:31  5-MIN KBKB 261940Z AUTO VRB04KT 10SM FEW038 34/25 A2980 410 57 2800 VRB/04 RMK AO2 T03440250
53988KBKB BKB20190826134511108/26/19 13:45:31  5-MIN KBKB 261945Z AUTO VRB05KT 10SM SCT038 34/25 A2980 410 59 2700 VRB/05 RMK AO2 T03390250
53988KBKB BKB20190826135012508/26/19 13:50:31  5-MIN KBKB 261950Z AUTO VRB03KT 10SM BKN038 BKN047 33/25 A2980 410 61 2600 VRB/03 RMK AO2 SLP114 T03330250
53988KBKB BKB20190826135512508/26/19 13:55:31  5-MIN KBKB 261955Z AUTO 00000KT 10SM SCT038 BKN047 BKN065 34/25 A2980 410 59 2700 000/00 RMK AO2 T03390250
53988KBKB BKB20190826140012508/26/19 14:00:31  5-MIN KBKB 262000Z AUTO 00000KT 10SM SCT038 BKN045 BKN065 34/25 A2979 420 57 2800 000/00 RMK AO2 T03440250
53988KBKB BKB20190826140013308/26/19 14:00:31  5-MIN KBKB 262000Z AUTO 00000KT 10SM SCT038 BKN045 BKN065 34/25 A2979 420 57 2800 000/00 RMK AO2 T0344025003440250
53988KBKB BKB20190826140510808/26/19 14:05:31  5-MIN KBKB 262005Z AUTO 10SM BKN041 BKN065 35/26 A2979 420 57 2800 M /M RMK AO2 T03500256
53988KBKB BKB20190826141012508/26/19 14:10:31  5-MIN KBKB 262010Z AUTO VRB03KT 10SM FEW038 SCT046 SCT065 34/24 A2979 420 55 2800 VRB/03 RMK AO2 T03440244
53988KBKB BKB20190826141512508/26/19 14:15:31  5-MIN KBKB 262015Z AUTO VRB04KT 10SM FEW038 SCT046 SCT065 34/24 A2979 420 55 2800 VRB/04 RMK AO2 T03440244
53988KBKB BKB20190826142011808/26/19 14:20:31  5-MIN KBKB 262020Z AUTO VRB06KT 10SM FEW042 FEW065 33/24 A2979 420 59 2600 VRB/06 RMK AO2 T03330244
53988KBKB BKB20190826142511108/26/19 14:25:31  5-MIN KBKB 262025Z AUTO VRB04KT 10SM FEW040 34/25 A2978 430 57 2800 VRB/04 RMK AO2 T03440250
53988KBKB BKB20190826142512608/26/19 14:25:31  5-MIN KBKB 262025Z AUTO VRB04KT 10SM FEW040 34/25 A2978 430 57 2800 V979 420 57 2800 M /M RMK AO2 T03500256
53988KBKB BKB20190826143010808/26/19 14:30:31  5-MIN KBKB 262030Z AUTO VRB05KT 10SM CLR 34/25 A2978 430 59 2700 VRB/05 RMK AO2 T03390250
53988KBKB BKB20190826143511808/26/19 14:35:31  5-MIN KBKB 262035Z AUTO VRB03KT 10SM FEW039 FEW050 33/24 A2978 430 59 2600 VRB/03 RMK AO2 T03330244
53988KBKB BKB20190826144011808/26/19 14:40:31  5-MIN KBKB 262040Z AUTO VRB05KT 10SM FEW039 FEW050 33/25 A2978 430 63 2600 VRB/05 RMK AO2 T03280250
53988KBKB BKB20190826144514108/26/19 14:45:31  5-MIN KBKB 262045Z AUTO VRB03KT 10SM CLR 33/25 A2978 430  AUTO VRB010SM CLR 33/24 A2979 420 59 2600 M /M RMK AO2 T03280239
53988KBKB BKB20190826163510808/26/19 16:35:31  5-MIN KBKB 262235Z AUTO VRB04KT 10SM CLR 33/24 A2979 420 59 2600 VRB/04 RMK AO2 T03280239
53988KBKB BKB20190826164010808/26/19 16:40:31  5-MIN KBKB 262240Z AUTO VRB03KT 10SM CLR 33/24 A2979 420 59 2600 VRB/03 RMK AO2 T03280239
53988KBKB BKB20190826164515408/26/19 16:45:31  5-MIN KBKB 262245Z AUTO VRB03KT 10SM CLR 32/24 A2979 420 61 2500 VRB/03 RMK AO2 T03220228/25 A2981 400 82 2100 000/00 RMK AO2 T02830250
53988KBKB BKB20190826174510808/26/19 17:45:31  5-MIN KBKB 262345Z AUTO 00000KT 10SM CLR 31/24 A2980 410 69 2300 000/00 RMK AO2 T03060244
53988KBKB BKB20190826175013308/26/19 17:50:31  5-MIN KBKB 262350Z AUTO 00000KT 10SM CLR 31/24 A2980 410 69 2300 000/00 RMK AO2 SLP116 T03060244 10350 20306 58015
53988KBKB BKB20190826175510808/26/19 17:55:31  5-MIN KBKB 262355Z AUTO 00000KT 10SM CLR 31/24 A2980 410 69 2300 000/00 RMK AO2 T03060244
53988KBKB BKB20190826180010808/26/19 18:00:31  5-MIN KBKB 270000Z AUTO 00000KT 10SM CLR 30/24 A2980 410 72 2300 000/00 RMK AO2 T03000244
53988KBKB BKB20190826180510808/26/19 18:05:31  5-MIN KBKB 270005Z AUTO 00000KT 10SM CLR 30/24 A2981 400 72 2300 000/00 RMK AO2 T03000244
53988KBKB BKB20190826181010808/26/19 18:10:31  5-MIN KBKB 270010Z AUTO 00000KT 10SM CLR 30/25 A2981 400 74 2300 000/00 RMK AO2 T03000250
53988KBKB BKB20190826181510808/26/19 18:15:31  5-MIN KBKB 270015Z AUTO 00000KT 10SM CLR 29/25 A2981 400 76 2200 000/00 RMK AO2 T02940250
53988KBKB BKB20190826182010808/26/19 18:20:31  5-MIN KBKB 270020Z AUTO 00000KT 10SM CLR 29/25 A2981 400 76 2200 000/00 RMK AO2 T02940250
53988KBKB BKB20190826182510808/26/19 18:25:31  5-MIN KBKB 270025Z AUTO 00000KT 10SM CLR 29/25 A2981 400 79 2100 000/00 RMK AO2 T02890250
53988KBKB BKB20190826183010808/26/19 18:30:31  5-MIN KBKB 270030Z AUTO 00000KT 10SM CLR 29/25 A2981 400 79 2100 000/00 RMK AO2 T02890250
53988KBKB BKB20190826183510808/26/19 18:35:31  5-MIN KBKB 270035Z AUTO 00000KT 10SM CLR 29/25 A2981 400 79 2100 000/00 RMK AO2 T02890250
53988KBKB BKB20190826184010808/26/19 18:40:31  5-MIN KBKB 270040Z AUTO 00000KT 10SM CLR 28/25 A2981 400 82 2100 000/00 RMK AO2 T02830250
53988KBKB BKB20190826184510808/26/19 18:45:31  5-MIN KBKB 270045Z AUTO 00000KT 10SM CLR 28/25 A2981 400 82 2100 000/00 RMK AO2 T02830250
53988KBKB BKB20190826185011508/26/19 18:50:31  5-MIN KBKB 270050Z AUTO 00000KT 10SM CLR 28/25 A2981 400 82 2100 000/00 RMK AO2 SLP121 T02830250
53988KBKB BKB20190826185510808/26/19 18:55:31  5-MIN KBKB 270055Z AUTO 00000KT 10SM CLR 28/25 A2981 400 84 2000 000/00 RMK AO2 T02780250
53988KBKB BKB20190826190010808/26/19 19:00:31  5-MIN KBKB 270100Z AUTO 00000KT 10SM CLR 28/25 A2982 400 84 2000 000/00 RMK AO2 T02780250
53988KBKB BKB20190826190510808/26/19 19:05:31  5-MIN KBKB 270105Z AUTO 00000KT 10SM CLR 28/25 A2981 400 84 2000 000/00 RMK AO2 T02780250
53988KBKB BKB20190826191010808/26/19 19:10:31  5-MIN KBKB 270110Z AUTO 00000KT 10SM CLR 28/25 A2982 390 84 2000 000/00 RMK AO2 T02780250
53988KBKB BKB20190826191510808/26/19 19:15:31  5-MIN KBKB 270115Z AUTO 00000KT 10SM CLR 28/25 A2982 390 84 2000 000/00 RMK AO2 T02780250
53988KBKB BKB20190826192010808/26/19 19:20:31  5-MIN KBKB 270120Z AUTO 00000KT 10SM CLR 27/25 A2982 390 87 1900 000/00 RMK AO2 T02720250
53988KBKB BKB20190826192510808/26/19 19:25:31  5-MIN KBKB 270125Z AUTO 00000KT 10SM CLR 27/25 A2982 390 87 1900 000/00 RMK AO2 T02720250
53988KBKB BKB20190826193010808/26/19 19:30:31  5-MIN KBKB 270130Z AUTO 00000KT 10SM CLR 27/25 A2983 380 87 1900 000/00 RMK AO2 T02720250
53988KBKB BKB20190826193510808/26/19 19:35:31  5-MIN KBKB 270135Z AUTO 00000KT 10SM CLR 27/25 A2983 380 87 1900 000/00 RMK AO2 T02720250
53988KBKB BKB20190826194010808/26/19 19:40:31  5-MIN KBKB 270140Z AUTO 00000KT 10SM CLR 27/25 A2984 380 87 1900 000/00 RMK AO2 T02720250
53988KBKB BKB20190826194510808/26/19 19:45:31  5-MIN KBKB 270145Z AUTO 00000KT 10SM CLR 27/25 A2984 370 87 1900 000/00 RMK AO2 T02720250
53988KBKB BKB20190826195011508/26/19 19:50:31  5-MIN KBKB 270150Z AUTO 00000KT 10SM CLR 27/25 A2984 370 87 1900 000/00 RMK AO2 SLP129 T02720250
53988KBKB BKB20190826195510808/26/19 19:55:31  5-MIN KBKB 270155Z AUTO 00000KT 10SM CLR 28/25 A2984 370 84 2000 000/00 RMK AO2 T02780250
53988KBKB BKB20190826200010808/26/19 20:00:31  5-MIN KBKB 270200Z AUTO 00000KT 10SM CLR 28/25 A2985 370 84 2000 000/00 RMK AO2 T02780250
53988KBKB BKB20190826200510808/26/19 20:05:31  5-MIN KBKB 270205Z AUTO 00000KT 10SM CLR 28/25 A2985 360 84 2000 000/00 RMK AO2 T02780250
53988KBKB BKB20190826201010808/26/19 20:10:31  5-MIN KBKB 270210Z AUTO 00000KT 10SM CLR 28/25 A2985 370 84 2000 000/00 RMK AO2 T02780250
53988KBKB BKB20190826201510808/26/19 20:15:31  5-MIN KBKB 270215Z AUTO 00000KT 10SM CLR 28/25 A2985 370 84 2000 000/00 RMK AO2 T02780250
53988KBKB BKB20190826202010808/26/19 20:20:31  5-MIN KBKB 270220Z AUTO VRB03KT 10SM CLR 28/25 A2985 370 84 2000 VRB/03 RMK AO2 T02780250
53988KBKB BKB20190826202510808/26/19 20:25:31  5-MIN KBKB 270225Z AUTO VRB03KT 10SM CLR 28/25 A2985 360 84 2000 VRB/03 RMK AO2 T02780250
53988KBKB BKB20190826203010808/26/19 20:30:31  5-MIN KBKB 270230Z AUTO 00000KT 10SM CLR 28/25 A2985 360 84 2000 000/00 RMK AO2 T02780250
53988KBKB BKB20190826203510808/26/19 20:35:31  5-MIN KBKB 270235Z AUTO VRB03KT 10SM CLR 28/25 A2985 360 84 2000 VRB/03 RMK AO2 T02780250
53988KBKB BKB20190826204010808/26/19 20:40:31  5-MIN KBKB 270240Z AUTO VRB03KT 10SM CLR 28/25 A2985 370 84 2000 VRB/03 RMK AO2 T02780250
53988KBKB BKB20190826204510808/26/19 20:45:31  5-MIN KBKB 270245Z AUTO 00000KT 10SM CLR 28/25 A2985 360 84 2000 000/00 RMK AO2 T02780250
53988KBKB BKB20190826205012108/26/19 20:50:31  5-MIN KBKB 270250Z AUTO VRB03KT 10SM CLR 28/25 A2985 360 84 2000 VRB/03 RMK AO2 SLP134 T02780250 53006
53988KBKB BKB20190826205510808/26/19 20:55:31  5-MIN KBKB 270255Z AUTO VRB03KT 10SM CLR 28/25 A2985 360 84 2000 VRB/03 RMK AO2 T02780250
53988KBKB BKB20190826210010808/26/19 21:00:31  5-MIN KBKB 270300Z AUTO 00000KT 10SM CLR 28/25 A2985 360 84 2000 000/00 RMK AO2 T02780250
53988KBKB BKB20190826210510808/26/19 21:05:31  5-MIN KBKB 270305Z AUTO VRB03KT 10SM CLR 27/26 A2985 360 90 1900 VRB/03 RMK AO2 T02720256
53988KBKB BKB20190826211010808/26/19 21:10:31  5-MIN KBKB 270310Z AUTO 00000KT 10SM CLR 28/25 A2985 360 84 2000 000/00 RMK AO2 T02780250
53988KBKB BKB20190826211510808/26/19 21:15:31  5-MIN KBKB 270315Z AUTO VRB04KT 10SM CLR 27/25 A2985 360 87 1900 VRB/04 RMK AO2 T02720250
53988KBKB BKB20190826212010808/26/19 21:20:31  5-MIN KBKB 270320Z AUTO 00000KT 10SM CLR 27/26 A2985 360 90 1900 000/00 RMK AO2 T02720256
53988KBKB BKB20190826212510808/26/19 21:25:31  5-MIN KBKB 270325Z AUTO VRB03KT 10SM CLR 27/26 A2986 360 90 1900 VRB/03 RMK AO2 T02720256
53988KBKB BKB20190826213010808/26/19 21:30:31  5-MIN KBKB 270330Z AUTO VRB03KT 10SM CLR 27/26 A2986 360 90 1900 VRB/03 RMK AO2 T02720256
53988KBKB BKB20190826213510808/26/19 21:35:31  5-MIN KBKB 270335Z AUTO VRB03KT 10SM CLR 27/26 A2986 360 90 1900 VRB/03 RMK AO2 T02720256
53988KBKB BKB20190826214010808/26/19 21:40:31  5-MIN KBKB 270340Z AUTO VRB03KT 10SM CLR 27/26 A2986 360 90 1900 VRB/03 RMK AO2 T02720256
53988KBKB BKB20190826214510808/26/19 21:45:31  5-MIN KBKB 270345Z AUTO VRB03KT 10SM CLR 27/26 A2986 360 90 1900 VRB/03 RMK AO2 T02720256
53988KBKB BKB20190826215011508/26/19 21:50:31  5-MIN KBKB 270350Z AUTO 00000KT 10SM CLR 27/26 A2985 360 90 1900 000/00 RMK AO2 SLP133 T02720256
53988KBKB BKB20190826215510808/26/19 21:55:31  5-MIN KBKB 270355Z AUTO 00000KT 10SM CLR 27/26 A2985 360 90 1900 000/00 RMK AO2 T02720256
53988KBKB BKB20190826220010808/26/19 22:00:31  5-MIN KBKB 270400Z AUTO 00000KT 10SM CLR 27/26 A2985 360 90 1900 000/00 RMK AO2 T02720256
53988KBKB BKB20190826220510808/26/19 22:05:31  5-MIN KBKB 270405Z AUTO VRB03KT 10SM CLR 27/26 A2985 370 90 1900 VRB/03 RMK AO2 T02720256
53988KBKB BKB20190826221010808/26/19 22:10:31  5-MIN KBKB 270410Z AUTO 00000KT 10SM CLR 27/26 A2985 370 93 1800 000/00 RMK AO2 T02670256
53988KBKB BKB20190826221510808/26/19 22:15:31  5-MIN KBKB 270415Z AUTO 00000KT 10SM CLR 27/26 A2985 360 93 1800 000/00 RMK AO2 T02670256
53988KBKB BKB20190826222010808/26/19 22:20:31  5-MIN KBKB 270420Z AUTO 00000KT 10SM CLR 27/26 A2985 360 93 1800 000/00 RMK AO2 T02670256
53988KBKB BKB20190826222510808/26/19 22:25:31  5-MIN KBKB 270425Z AUTO VRB03KT 10SM CLR 27/26 A2985 360 93 1800 VRB/03 RMK AO2 T02670256
53988KBKB BKB20190826223010808/26/19 22:30:31  5-MIN KBKB 270430Z AUTO VRB03KT 10SM CLR 27/26 A2985 360 93 1800 VRB/03 RMK AO2 T02670256
53988KBKB BKB20190826223510808/26/19 22:35:31  5-MIN KBKB 270435Z AUTO VRB03KT 10SM CLR 27/26 A2985 360 93 1800 VRB/03 RMK AO2 T02670256
53988KBKB BKB20190826224010808/26/19 22:40:31  5-MIN KBKB 270440Z AUTO 00000KT 10SM CLR 27/26 A2985 360 93 1800 000/00 RMK AO2 T02670256
53988KBKB BKB20190826224510808/26/19 22:45:31  5-MIN KBKB 270445Z AUTO 00000KT 10SM CLR 27/26 A2985 370 93 1800 000/00 RMK AO2 T02670256
53988KBKB BKB20190826225011508/26/19 22:50:31  5-MIN KBKB 270450Z AUTO VRB03KT 10SM CLR 27/26 A2984 370 93 1800 VRB/03 RMK AO2 SLP129 T02670256
53988KBKB BKB20190826225510808/26/19 22:55:31  5-MIN KBKB 270455Z AUTO 00000KT 10SM CLR 27/26 A2985 370 93 1800 000/00 RMK AO2 T02670256
53988KBKB BKB20190826230010808/26/19 23:00:31  5-MIN KBKB 270500Z AUTO VRB03KT 10SM CLR 27/26 A2984 370 93 1800 VRB/03 RMK AO2 T02670256
53988KBKB BKB20190826230511108/26/19 23:05:31  5-MIN KBKB 270505Z AUTO 00000KT 10SM FEW006 27/26 A2984 370 93 1800 000/00 RMK AO2 T02670256
53988KBKB BKB20190826231011108/26/19 23:10:31  5-MIN KBKB 270510Z AUTO 19004KT 10SM SCT006 27/26 A2984 370 93 1800 180/04 RMK AO2 T02670256
53988KBKB BKB20190826231511008/26/19 23:15:31  5-MIN KBKB 270515Z AUTO VRB03KT 9SM SCT006 27/26 A2984 370 93 1800 VRB/03 RMK AO2 T02670256
53988KBKB BKB20190826232011008/26/19 23:20:31  5-MIN KBKB 270520Z AUTO VRB03KT 9SM SCT006 27/26 A2984 370 93 1800 VRB/03 RMK AO2 T02670256
53988KBKB BKB20190826232511008/26/19 23:25:31  5-MIN KBKB 270525Z AUTO 00000KT 9SM BKN006 27/26 A2984 370 93 1800 000/00 RMK AO2 T02670256
53988KBKB BKB20190826233011008/26/19 23:30:31  5-MIN KBKB 270530Z AUTO 00000KT 9SM BKN006 27/26 A2984 370 93 1800 000/00 RMK AO2 T02670256
53988KBKB BKB20190826233511008/26/19 23:35:31  5-MIN KBKB 270535Z AUTO 20003KT 9SM BKN006 27/26 A2984 370 93 1800 190/03 RMK AO2 T02670256
53988KBKB BKB20190826234011008/26/19 23:40:31  5-MIN KBKB 270540Z AUTO VRB03KT 9SM BKN006 27/26 A2985 370 93 1800 VRB/03 RMK AO2 T02670256
53988KBKB BKB20190826234511008/26/19 23:45:31  5-MIN KBKB 270545Z AUTO 20003KT 9SM BKN006 27/26 A2985 370 93 1800 200/03 RMK AO2 T02670256
53988KBKB BKB20190826235015708/26/19 23:50:31  5-MIN KBKB 270550Z AUTO 00000KT 9SM OVC006 27/26 A2985 370 93 1800 000/00 RMK AO2 CIG 004V009 SLP131 T02670256 10306 20267 403500244 51018
53988KBKB BKB20190826235512208/26/19 23:55:31  5-MIN KBKB 270555Z AUTO 00000KT 8SM OVC006 27/26 A2984 370 93 1800 000/00 RMK AO2 CIG 005V009 T02670256
53988KBKB BKB20190827000012208/27/19 00:00:31  5-MIN KBKB 270600Z AUTO VRB04KT 8SM OVC006 27/26 A2984 370 93 1800 VRB/04 RMK AO2 CIG 005V009 T02670256
53988KBKB BKB20190827000512208/27/19 00:05:31  5-MIN KBKB 270605Z AUTO VRB03KT 9SM OVC006 27/26 A2984 370 93 1800 VRB/03 RMK AO2 CIG 005V009 T02670256
53988KBKB BKB20190827001020808/27/19 00:10:31  5-MIN KBKB 270610Z AUTO 00000KT 9SM OVC006 27/26 A2985 370 93 1800 000/00 RMK AO2 CIG 005V009 T0267025608/27/19 00:15:TO VRB03KT 10SM OVC006 27/26 A2986 360 90 1900 VRB/03 RMK AO2 T02720256
53988KBKB BKB20190827012511008/27/19 01:25:31  5-MIN KBKB 270725Z AUTO 00000KT 9SM OVC006 27/26 A2986 360 90 1900 000/00 RMK AO2 T02720256
53988KBKB BKB20190827013011008/27/19 01:30:31  5-MIN KBKB 270730Z AUTO 00000KT 9SM OVC006 27/26 A2986 360 90 1900 000/00 RMK AO2 T02720256
53988KBKB BKB20190827013511208/27/19 01:35:31  5-MIN KBKB 270735Z AUTO 9SM OVC006 27/26 A2986 360 90 1900 M /M RMK AO2 CIG 005V010 T02720256
53988KBKB BKB20190827014012208/27/19 01:40:31  5-MIN KBKB 270740Z AUTO 21003KT 9SM OVC006 27/26 A2986 350 90 1900 210/03 RMK AO2 CIG 005V010 T02720256
53988KBKB BKB20190827014016408/27/19 01:40:31  5-MIN KBKB 270740Z AUTO 21003KT 9SM OV7/19 01:20:31  5-MIN KBKB 270720Z AUTO VRB03KT 10SM OVC006 27/26 A2986 360 90 1900 VRB/03 RMK AO2 T02720256
53988KBKB BKB20190827014511008/27/19 01:45:31  5-MIN KBKB 270745Z AUTO VRB03KT 9SM OVC006 27/26 A2986 350 90 1900 VRB/03 RMK AO2 T02720256
53988KBKB BKB20190827015012908/27/19 01:50:31  5-MIN KBKB 270750Z AUTO VRB03KT 9SM OVC006 27/26 A2986 360 90 1900 VRB/03 RMK AO2 CIG 005V010 SLP134 T02720256
53988KBKB BKB20190827015015208/27/19 01:50:31  5-MIN KBKB 270750Z AUTO VRB03KT 9SM O:31  5-MIN KBKB 270730Z AUTO 00000KT 9SM OVC006 27/26 A2986 360 90 1900 000/00 RMK AO2 T02720256
53988KBKB BKB20190827015512908/27/19 01:55:31  5-MIN KBKB 270755Z AUTO VRB03KT 9SM BKN008 OVC012 27/26 A2985 360 90 1900 VRB/03 RMK AO2 CIG 005V010 T02720256
53988KBKB BKB20190827015517708/27/19 01:55:31  5-MIN KBKB 270755Z AUTO VRB03KT 9SM BKN008 OVC012 27/26 A2985 360 90 1900 VRB/03 RMK AO2 CIG 005V010 T02720256350 90 1900 210/03 RMK AO2 CIG 005V010 T02720256
53988KBKB BKB20190827020013008/27/19 02:00:31  5-MIN KBKB 270800Z AUTO VRB03KT 10SM BKN008 OVC012 27/26 A2985 360 90 1900 VRB/03 RMK AO2 CIG 005V011 T02720256
53988KBKB BKB20190827020513008/27/19 02:05:31  5-MIN KBKB 270805Z AUTO 00000KT 10SM BKN008 OVC012 27/26 A2986 360 90 1900 000/00 RMK AO2 CIG 005V011 T02720256
53988KBKB BKB20190827021012308/27/19 02:10:31  5-MIN KBKB 270810Z AUTO VRB04KT 10SM OVC010 27/26 A2986 350 90 1900 VRB/04 RMK AO2 CIG 006V013 T02720256
53988KBKB BKB20190827021512308/27/19 02:15:31  5-MIN KBKB 270815Z AUTO VRB04KT 10SM OVC010 27/26 A2986 350 90 1900 VRB/04 RMK AO2 CIG 007V013 T02720256
53988KBKB BKB20190827022013008/27/19 02:20:31  5-MIN KBKB 270820Z AUTO 00000KT 10SM BKN010 OVC017 27/26 A2987 350 90 1900 000/00 RMK AO2 CIG 007V014 T02720256
53988KBKB BKB20190827022513008/27/19 02:25:31  5-MIN KBKB 270825Z AUTO VRB03KT 10SM BKN010 OVC017 27/26 A2987 350 90 1900 VRB/03 RMK AO2 CIG 007V014 T02720256
53988KBKB BKB20190827023011808/27/19 02:30:31  5-MIN KBKB 270830Z AUTO VRB03KT 10SM BKN013 OVC019 27/26 A2986 350 90 1900 VRB/03 RMK AO2 T02720256
53988KBKB BKB20190827023511808/27/19 02:35:31  5-MIN KBKB 270835Z AUTO VRB03KT 10SM BKN013 OVC019 27/26 A2986 350 90 1900 VRB/03 RMK AO2 T02720256
53988KBKB BKB20190827024011808/27/19 02:40:31  5-MIN KBKB 270840Z AUTO 00000KT 10SM BKN012 OVC018 27/26 A2986 350 90 1900 000/00 RMK AO2 T02720256
53988KBKB BKB20190827024511808/27/19 02:45:31  5-MIN KBKB 270845Z AUTO VRB04KT 10SM BKN012 OVC018 27/26 A2986 350 90 1900 VRB/04 RMK AO2 T02720256
53988KBKB BKB20190827025013108/27/19 02:50:31  5-MIN KBKB 270850Z AUTO 00000KT 10SM BKN012 BKN018 27/26 A2986 350 90 1900 000/00 RMK AO2 SLP136 T02720256 56003
53988KBKB BKB20190827025511808/27/19 02:55:31  5-MIN KBKB 270855Z AUTO 00000KT 10SM BKN012 BKN018 27/26 A2986 350 90 1900 000/00 RMK AO2 T02720256
53988KBKB BKB20190827030011808/27/19 03:00:31  5-MIN KBKB 270900Z AUTO VRB03KT 10SM BKN012 BKN017 27/26 A2986 360 90 1900 VRB/03 RMK AO2 T02720256
53988KBKB BKB20190827030511808/27/19 03:05:31  5-MIN KBKB 270905Z AUTO 00000KT 10SM BKN012 BKN019 27/26 A2985 360 90 1900 000/00 RMK AO2 T02720256
53988KBKB BKB20190827031011808/27/19 03:10:31  5-MIN KBKB 270910Z AUTO VRB03KT 10SM BKN012 OVC019 27/26 A2986 360 90 1900 VRB/03 RMK AO2 T02720256
53988KBKB BKB20190827031509408/27/19 03:15:31  5-MIN KBKB 270915Z AUTO 00000KT 10SM BKN012 OVC019 27/26 A2985 360 90 20256
53988KBKB BKB20190827050012308/27/19 05:00:31  5-MIN KBKB 271100Z AUTO VRB03KT 10SM OVC007 27/26 A2989 320 90 1800 VRB/03 RMK AO2 CIG 007V012 T02720256
53988KBKB BKB20190827050512308/27/19 05:05:31  5-MIN KBKB 271105Z AUTO 00000KT 10SM OVC007 27/26 A2989 320 90 1800 000/00 RMK AO2 CIG 007V012 T02720256
53988KBKB BKB20190827051012308/27/19 05:10:31  5-MIN KBKB 271110Z AUTO 00000KT 10SM OVC008 27/26 A2990 320 90 1800 000/00 RMK AO2 CIG 007V012 T02720256
53988KBKB BKB20190827051511108/27/19 05:15:31  5-MIN KBKB 271115Z AUTO 00000KT 10SM OVC008 27/26 A2990 320 90 1800 000/00 RMK AO2 T02720256
53988KBKB BKB20190827051512708/27/19 05:15:31  5-MIN KBKB 271115Z AUTO 00000KT 10SM OVC008 27/26 A2990 989 320 90 1800 000/00 RMK AO2 CIG 007V012 T02720256
53988KBKB BKB20190827052011108/27/19 05:20:31  5-MIN KBKB 271120Z AUTO 00000KT 10SM OVC008 27/26 A2990 320 90 1800 000/00 RMK AO2 T02720256
53988KBKB BKB20190827052512308/27/19 05:25:31  5-MIN KBKB 271125Z AUTO 00000KT 10SM OVC008 27/26 A2990 320 90 1800 000/00 RMK AO2 CIG 006V011 T02720256
53988KBKB BKB20190827052514908/27/19 05:25:31  5-MIN KBKB 271125Z AUTO 00000KT 10SM OVC008 27/26 A2990 320 90 1VC007 27/26 A2989 320 90 1800 000/00 RMK AO2 CIG 007V012 T02720256
53988KBKB BKB20190827053011108/27/19 05:30:31  5-MIN KBKB 271130Z AUTO 00000KT 10SM OVC007 27/26 A2990 320 90 1800 000/00 RMK AO2 T02720256
53988KBKB BKB20190827053511108/27/19 05:35:31  5-MIN KBKB 271135Z AUTO VRB03KT 10SM OVC007 27/26 A2990 320 90 1800 VRB/03 RMK AO2 T02720256
53988KBKB BKB20190827053515008/27/19 05:35:31  5-MIN KBKB 271135Z AUTO VRB03KT 10SM OVC007 27/26 A2990 Z AUTO 00000KT 10SM OVC008 27/26 A2990 320 90 1800 000/00 RMK AO2 T02720256
53988KBKB BKB20190827054011108/27/19 05:40:31  5-MIN KBKB 271140Z AUTO 00000KT 10SM OVC007 27/26 A2990 310 90 1800 000/00 RMK AO2 T02720256
53988KBKB BKB20190827154510808/27/19 15:45:31  5-MIN KBKB 272145Z AUTO 00000KT 10SM CLR 32/24 A2991 310 63 2400 000/00 RMK AO2 T03220244
53988KBKB BKB20190827155011508/27/19 15:50:31  5-MIN KBKB 272150Z AUTO 00000KT 10SM CLR 32/25 A2991 310 65 2400 000/00 RMK AO2 SLP151 T03220250
53988KBKB BKB20190827155510808/27/19 15:55:31  5-MIN KBKB 272155Z AUTO 00000KT 10SM CLR 32/26 A2990 310 67 2400 000/00 RMK AO2 T03220256
53988KBKB BKB20190827160010808/27/19 16:00:31  5-MIN KBKB 272200Z AUTO 00000KT 10SM CLR 32/25 A2990 320 65 2400 000/00 RMK AO2 T03220250
53988KBKB BKB20190827160510808/27/19 16:05:31  5-MIN KBKB 272205Z AUTO 00000KT 10SM CLR 32/25 A2990 320 65 2400 000/00 RMK AO2 T03220250
53988KBKB BKB20190827161010808/27/19 16:10:31  5-MIN KBKB 272210Z AUTO 00000KT 10SM CLR 32/24 A2990 310 63 2400 000/00 RMK AO2 T03220244
53988KBKB BKB20190827161510808/27/19 16:15:31  5-MIN KBKB 272215Z AUTO 00000KT 10SM CLR 32/24 A2990 310 63 2400 000/00 RMK AO2 T03220244
53988KBKB BKB20190827162010808/27/19 16:20:31  5-MIN KBKB 272220Z AUTO 00000KT 10SM CLR 32/24 A2990 320 63 2400 000/00 RMK AO2 T03220244
53988KBKB BKB20190827162510808/27/19 16:25:31  5-MIN KBKB 272225Z AUTO 16003KT 10SM CLR 33/24 A2990 320 61 2500 150/03 RMK AO2 T03280244
53988KBKB BKB20190827163010808/27/19 16:30:31  5-MIN KBKB 272230Z AUTO 00000KT 10SM CLR 33/25 A2990 320 63 2500 000/00 RMK AO2 T03280250
53988KBKB BKB20190827163510808/27/19 16:35:31  5-MIN KBKB 272235Z AUTO 00000KT 10SM CLR 32/24 A2990 320 63 2400 000/00 RMK AO2 T03220244
53988KBKB BKB20190827164010808/27/19 16:40:31  5-MIN KBKB 272240Z AUTO VRB03KT 10SM CLR 33/24 A2990 320 59 2500 VRB/03 RMK AO2 T03280239
53988KBKB BKB20190827164510808/27/19 16:45:31  5-MIN KBKB 272245Z AUTO 00000KT 10SM CLR 33/24 A2990 320 61 2500 000/00 RMK AO2 T03280244
53988KBKB BKB20190827165011508/27/19 16:50:31  5-MIN KBKB 272250Z AUTO 00000KT 10SM CLR 33/24 A2989 320 61 2500 000/00 RMK AO2 SLP147 T03280244
53988KBKB BKB20190827165510808/27/19 16:55:31  5-MIN KBKB 272255Z AUTO 00000KT 10SM CLR 32/24 A2989 320 61 2400 000/00 RMK AO2 T03220239
53988KBKB BKB20190827170010808/27/19 17:00:31  5-MIN KBKB 272300Z AUTO 00000KT 10SM CLR 32/24 A2989 320 63 2400 000/00 RMK AO2 T03220244
53988KBKB BKB20190827170510808/27/19 17:05:31  5-MIN KBKB 272305Z AUTO 00000KT 10SM CLR 32/24 A2989 320 63 2400 000/00 RMK AO2 T03220244
53988KBKB BKB20190827171010808/27/19 17:10:31  5-MIN KBKB 272310Z AUTO 00000KT 10SM CLR 32/24 A2989 320 61 2400 000/00 RMK AO2 T03220239
53988KBKB BKB20190827171510808/27/19 17:15:31  5-MIN KBKB 272315Z AUTO 00000KT 10SM CLR 32/24 A2990 320 63 2300 000/00 RMK AO2 T03170239
53988KBKB BKB20190827172010808/27/19 17:20:31  5-MIN KBKB 272320Z AUTO 00000KT 10SM CLR 32/24 A2989 320 65 2300 000/00 RMK AO2 T03170244
53988KBKB BKB20190827172510808/27/19 17:25:31  5-MIN KBKB 272325Z AUTO 00000KT 10SM CLR 32/24 A2989 320 65 2300 000/00 RMK AO2 T03170244
53988KBKB BKB20190827173010808/27/19 17:30:31  5-MIN KBKB 272330Z AUTO 00000KT 10SM CLR 31/25 A2989 330 72 2200 000/00 RMK AO2 T03060250
53988KBKB BKB20190827173510808/27/19 17:35:31  5-MIN KBKB 272335Z AUTO 00000KT 10SM CLR 31/25 A2989 330 72 2200 000/00 RMK AO2 T03060250
53988KBKB BKB20190827174010808/27/19 17:40:31  5-MIN KBKB 272340Z AUTO VRB03KT 10SM CLR 31/24 A2989 330 69 2200 VRB/03 RMK AO2 T03060244
53988KBKB BKB20190827174510808/27/19 17:45:31  5-MIN KBKB 272345Z AUTO 00000KT 10SM CLR 31/24 A2989 330 69 2200 000/00 RMK AO2 T03060244
53988KBKB BKB20190827175013308/27/19 17:50:31  5-MIN KBKB 272350Z AUTO 00000KT 10SM CLR 31/24 A2989 330 69 2200 000/00 RMK AO2 SLP144 T03060244 10344 20306 55019
53988KBKB BKB20190827175510808/27/19 17:55:31  5-MIN KBKB 272355Z AUTO 00000KT 10SM CLR 31/25 A2989 330 72 2200 000/00 RMK AO2 T03060250
53988KBKB BKB20190827180010808/27/19 18:00:31  5-MIN KBKB 280000Z AUTO 00000KT 10SM CLR 30/25 A2989 320 74 2200 000/00 RMK AO2 T03000250
53988KBKB BKB20190827180510808/27/19 18:05:31  5-MIN KBKB 280005Z AUTO 00000KT 10SM CLR 29/25 A2989 320 76 2100 000/00 RMK AO2 T02940250
53988KBKB BKB20190827181010808/27/19 18:10:31  5-MIN KBKB 280010Z AUTO 00000KT 10SM CLR 29/25 A2989 320 76 2100 000/00 RMK AO2 T02940250
53988KBKB BKB20190827181510808/27/19 18:15:31  5-MIN KBKB 280015Z AUTO 00000KT 10SM CLR 29/25 A2990 320 79 2000 000/00 RMK AO2 T02890250
53988KBKB BKB20190827182010808/27/19 18:20:31  5-MIN KBKB 280020Z AUTO 00000KT 10SM CLR 29/25 A2990 320 76 2100 000/00 RMK AO2 T02940250
53988KBKB BKB20190827182510808/27/19 18:25:31  5-MIN KBKB 280025Z AUTO 00000KT 10SM CLR 29/26 A2990 320 82 2000 000/00 RMK AO2 T02890256
53988KBKB BKB20190827183010808/27/19 18:30:31  5-MIN KBKB 280030Z AUTO 00000KT 10SM CLR 28/26 A2990 320 85 2000 000/00 RMK AO2 T02830256
53988KBKB BKB20190827183510808/27/19 18:35:31  5-MIN KBKB 280035Z AUTO 00000KT 10SM CLR 28/25 A2990 320 82 2000 000/00 RMK AO2 T02830250
53988KBKB BKB20190827184010808/27/19 18:40:31  5-MIN KBKB 280040Z AUTO 00000KT 10SM CLR 28/26 A2990 310 85 2000 000/00 RMK AO2 T02830256
53988KBKB BKB20190827184510808/27/19 18:45:31  5-MIN KBKB 280045Z AUTO 00000KT 10SM CLR 28/26 A2991 310 85 2000 000/00 RMK AO2 T02830256
53988KBKB BKB20190827185011508/27/19 18:50:31  5-MIN KBKB 280050Z AUTO 00000KT 10SM CLR 28/26 A2991 310 87 1900 000/00 RMK AO2 SLP152 T02780256
53988KBKB BKB20190827185510808/27/19 18:55:31  5-MIN KBKB 280055Z AUTO 00000KT 10SM CLR 28/26 A2991 310 87 1900 000/00 RMK AO2 T02780256
53988KBKB BKB20190827190010808/27/19 19:00:31  5-MIN KBKB 280100Z AUTO 00000KT 10SM CLR 28/25 A2991 310 84 1900 000/00 RMK AO2 T02780250
53988KBKB BKB20190827190510808/27/19 19:05:31  5-MIN KBKB 280105Z AUTO 00000KT 10SM CLR 28/25 A2991 300 84 1900 000/00 RMK AO2 T02780250
53988KBKB BKB20190827191010808/27/19 19:10:31  5-MIN KBKB 280110Z AUTO 00000KT 10SM CLR 28/25 A2991 300 84 1900 000/00 RMK AO2 T02780250
53988KBKB BKB20190827191510808/27/19 19:15:31  5-MIN KBKB 280115Z AUTO 00000KT 10SM CLR 27/25 A2992 300 87 1800 000/00 RMK AO2 T02720250
53988KBKB BKB20190827192010808/27/19 19:20:31  5-MIN KBKB 280120Z AUTO 00000KT 10SM CLR 27/25 A2992 300 87 1800 000/00 RMK AO2 T02720250
53988KBKB BKB20190827192510808/27/19 19:25:31  5-MIN KBKB 280125Z AUTO 00000KT 10SM CLR 27/25 A2992 300 87 1800 000/00 RMK AO2 T02720250
53988KBKB BKB20190827193010808/27/19 19:30:31  5-MIN KBKB 280130Z AUTO 00000KT 10SM CLR 27/25 A2993 290 87 1800 000/00 RMK AO2 T02720250
53988KBKB BKB20190827193511108/27/19 19:35:31  5-MIN KBKB 280135Z AUTO 00000KT 10SM CLR 27/25 A2993 290240 97 1400 000/00 RMK AO2 T02440239
53988KBKB BKB20190827234510708/27/19 23:45:31  5-MIN KBKB 280545Z AUTO 00000KT 8SM CLR 26/24 A2998 240 93 1600 000/00 RMK AO2 T02560244
53988KBKB BKB20190827235014208/27/19 23:50:31  5-MIN KBKB 280550Z AUTO 00000KT 8SM CLR 26/24 A2998 240 93 1600 000/00 RMK AO2 SLP176 T02560244 10306 20256 403440256 53021
53988KBKB BKB20190827235510708/27/19 23:55:31  5-MIN KBKB 280555Z AUTO 00000KT 7SM CLR 25/24 A2998 240 97 1500 000/00 RMK AO2 T02500244
53988KBKB BKB20190828000010708/28/19 00:00:31  5-MIN KBKB 280600Z AUTO 00000KT 7SM CLR 25/24 A2998 240 97 1500 000/00 RMK AO2 T02500244
53988KBKB BKB20190828000511008/28/19 00:05:31  5-MIN KBKB 280605Z AUTO 00000KT 7SM FEW036 25/24 A2998 240 97 1500 000/00 RMK AO2 T02500244
53988KBKB BKB20190828001011008/28/19 00:10:31  5-MIN KBKB 280610Z AUTO 00000KT 7SM SCT036 25/24 A2998 240 97 1500 000/00 RMK AO2 T02500244
53988KBKB BKB20190828001511008/28/19 00:15:31  5-MIN KBKB 280615Z AUTO 00000KT 7SM SCT036 26/24 A2998 250 93 1600 000/00 RMK AO2 T02560244
53988KBKB BKB20190828002011708/28/19 00:20:31  5-MIN KBKB 280620Z AUTO 00000KT 7SM FEW019 BKN036 26/24 A2997 250 93 1600 000/00 RMK AO2 T02560244
53988KBKB BKB20190828002512408/28/19 00:25:31  5-MIN KBKB 280625Z AUTO 00000KT 7SM FEW019 SCT029 BKN036 26/24 A2998 250 93 1600 000/00 RMK AO2 T02560244
53988KBKB BKB20190828003012408/28/19 00:30:31  5-MIN KBKB 280630Z AUTO 00000KT 8SM SCT021 BKN029 OVC036 26/24 A2998 250 93 1600 000/00 RMK AO2 T02560244
53988KBKB BKB20190828003512408/28/19 00:35:31  5-MIN KBKB 280635Z AUTO 00000KT 8SM SCT021 BKN027 OVC036 26/24 A2997 250 93 1600 000/00 RMK AO2 T02560244
53988KBKB BKB20190828004012408/28/19 00:40:31  5-MIN KBKB 280640Z AUTO 00000KT 8SM SCT021 BKN029 OVC038 26/24 A2997 250 93 1600 000/00 RMK AO2 T02560244
53988KBKB BKB20190828004512408/28/19 00:45:31  5-MIN KBKB 280645Z AUTO 00000KT 8SM SCT021 BKN029 BKN043 26/24 A2997 250 93 1600 000/00 RMK AO2 T02560244
53988KBKB BKB20190828005011408/28/19 00:50:31  5-MIN KBKB 280650Z AUTO 00000KT 8SM FEW021 SCT029 BKN043 26/24 A2997 250 93 1600 000/00 RMK AO2
53988KBKB BKB20190828005512408/28/19 00:55:31  5-MIN KBKB 280655Z AUTO 00000KT 8SM FEW021 SCT027 SCT043 26/24 A2997 250 93 1600 000/00 RMK AO2 T02560244
53988KBKB BKB20190828010011708/28/19 01:00:31  5-MIN KBKB 280700Z AUTO 00000KT 8SM FEW027 FEW043 26/24 A2997 250 93 1600 000/00 RMK AO2 T02560244
53988KBKB BKB20190828010511008/28/19 01:05:31  5-MIN KBKB 280705Z AUTO 00000KT 7SM FEW043 26/24 A2997 250 93 1600 000/00 RMK AO2 T02560244
53988KBKB BKB20190828011011008/28/19 01:10:31  5-MIN KBKB 280710Z AUTO 00000KT 6SM BR CLR 26/24 A2997 250 93 1600 000/00 RMK AO2 T02560244
53988KBKB BKB20190828011510708/28/19 01:15:31  5-MIN KBKB 280715Z AUTO 00000KT 7SM CLR 26/24 A2997 250 93 1600 000/00 RMK AO2 T02560244
53988KBKB BKB20190828012011008/28/19 01:20:31  5-MIN KBKB 280720Z AUTO 00000KT 6SM BR CLR 25/24 A2997 250 93 1500 000/00 RMK AO2 T02500239
53988KBKB BKB20190828012511008/28/19 01:25:31  5-MIN KBKB 280725Z AUTO 00000KT 6SM BR CLR 25/24 A2997 250 93 1500 000/00 RMK AO2 T02500239
53988KBKB BKB20190828013011008/28/19 01:30:31  5-MIN KBKB 280730Z AUTO 00000KT 6SM BR CLR 25/24 A2997 260 97 1500 000/00 RMK AO2 T02500244
53988KBKB BKB20190828013511008/28/19 01:35:31  5-MIN KBKB 280735Z AUTO 00000KT 6SM BR CLR 25/24 A2997 260 97 1500 000/00 RMK AO2 T02500244
53988KBKB BKB20190828014011008/28/19 01:40:31  5-MIN KBKB 280740Z AUTO 00000KT 5SM BR CLR 25/24 A2997 250 93 1500 000/00 RMK AO2 T02500239
53988KBKB BKB20190828014511008/28/19 01:45:31  5-MIN KBKB 280745Z AUTO 00000KT 4SM BR CLR 25/24 A2997 260 93 1500 000/00 RMK AO2 T02500239
53988KBKB BKB20190828015011708/28/19 01:50:31  5-MIN KBKB 280750Z AUTO 00000KT 4SM BR CLR 25/24 A2997 260 93 1500 000/00 RMK AO2 SLP172 T02500239
53988KBKB BKB20190828015511008/28/19 01:55:31  5-MIN KBKB 280755Z AUTO 00000KT 4SM BR CLR 25/24 A2997 260 93 1500 000/00 RMK AO2 T02500239
53988KBKB BKB20190828020011008/28/19 02:00:31  5-MIN KBKB 280800Z AUTO 00000KT 5SM BR CLR 25/24 A2997 260 93 1500 000/00 RMK AO2 T02500239
53988KBKB BKB20190828020511008/28/19 02:05:31  5-MIN KBKB 280805Z AUTO 00000KT 5SM BR CLR 25/24 A2997 250 93 1500 000/00 RMK AO2 T02500239
53988KBKB BKB20190828021011008/28/19 02:10:31  5-MIN KBKB 280810Z AUTO 00000KT 5SM BR CLR 25/24 A2997 250 93 1500 000/00 RMK AO2 T02500239
53988KBKB BKB20190828021511008/28/19 02:15:31  5-MIN KBKB 280815Z AUTO 00000KT 5SM BR CLR 25/24 A2997 250 93 1500 000/00 RMK AO2 T02500239
53988KBKB BKB20190828022011008/28/19 02:20:31  5-MIN KBKB 280820Z AUTO 00000KT 4SM BR CLR 25/24 A2997 250 93 1500 000/00 RMK AO2 T02500239
53988KBKB BKB20190828022511008/28/19 02:25:31  5-MIN KBKB 280825Z AUTO 00000KT 4SM BR CLR 24/24 A2997 250 97 1400 000/00 RMK AO2 T02440239
53988KBKB BKB20190828023011008/28/19 02:30:31  5-MIN KBKB 280830Z AUTO 00000KT 5SM BR CLR 24/24 A2997 250 97 1400 000/00 RMK AO2 T02440239
53988KBKB BKB20190828023511008/28/19 02:35:31  5-MIN KBKB 280835Z AUTO 00000KT 5SM BR CLR 24/24 A2997 250 97 1400 000/00 RMK AO2 T02440239
53988KBKB BKB20190828024011008/28/19 02:40:31  5-MIN KBKB 280840Z AUTO 00000KT 5SM BR CLR 24/24 A2998 240 97 1400 000/00 RMK AO2 T02440239
53988KBKB BKB20190828024511008/28/19 02:45:31  5-MIN KBKB 280845Z AUTO 00000KT 4SM BR CLR 24/24 A2998 240 97 1400 000/00 RMK AO2 T02440239
53988KBKB BKB20190828025012308/28/19 02:50:31  5-MIN KBKB 280850Z AUTO 00000KT 4SM BR CLR 24/24 A2998 240 97 1400 000/00 RMK AO2 SLP177 T02440239 51009
53988KBKB BKB20190828025511008/28/19 02:55:31  5-MIN KBKB 280855Z AUTO 00000KT 5SM BR CLR 24/24 A2998 240 97 1400 000/00 RMK AO2 T02440239
53988KBKB BKB20190828030011008/28/19 03:00:31  5-MIN KBKB 280900Z AUTO 00000KT 4SM BR CLR 24/24 A2998 240 97 1400 000/00 RMK AO2 T02440239
53988KBKB BKB20190828030511008/28/19 03:05:31  5-MIN KBKB 280905Z AUTO 00000KT 4SM BR CLR 24/24 A2998 240 97 1400 000/00 RMK AO2 T02440239
53988KBKB BKB20190828031011008/28/19 03:10:31  5-MIN KBKB 280910Z AUTO 00000KT 5SM BR CLR 24/24 A2998 240 97 1400 000/00 RMK AO2 T02440239
53988KBKB BKB20190828031511008/28/19 03:15:31  5-MIN KBKB 280915Z AUTO 00000KT 5SM BR CLR 24/24 A2998 240 97 1400 000/00 RMK AO2 T02440239
53988KBKB BKB20190828032011008/28/19 03:20:31  5-MIN KBKB 280920Z AUTO 00000KT 5SM BR CLR 24/24 A2998 250 97 1400 000/00 RMK AO2 T02440239
53988KBKB BKB20190828032511008/28/19 03:25:31  5-MIN KBKB 280925Z AUTO 00000KT 5SM BR CLR 24/24 A2998 240 97 1400 000/00 RMK AO2 T02440239
53988KBKB BKB20190828033011008/28/19 03:30:31  5-MIN KBKB 280930Z AUTO 00000KT 5SM BR CLR 24/24 A2998 240 97 1400 000/00 RMK AO2 T02440239
53988KBKB BKB20190828033511008/28/19 03:35:31  5-MIN KBKB 280935Z AUTO 00000KT 5SM BR CLR 24/24 A2998 240 97 1400 000/00 RMK AO2 T02440239
53988KBKB BKB20190828034011008/28/19 03:40:31  5-MIN KBKB 280940Z AUTO 00000KT 5SM BR CLR 24/24 A2998 240 97 1400 000/00 RMK AO2 T02440239
53988KBKB BKB20190828034511008/28/19 03:45:31  5-MIN KBKB 280945Z AUTO 00000KT 5SM BR CLR 24/24 A2998 240 97 1400 000/00 RMK AO2 T02440239
53988KBKB BKB20190828035011708/28/19 03:50:31  5-MIN KBKB 280950Z AUTO 00000KT 5SM BR CLR 24/24 A2999 240 97 1400 000/00 RMK AO2 SLP179 T02440239
53988KBKB BKB20190828035511008/28/19 03:55:31  5-MIN KBKB 280955Z AUTO 00000KT 5SM BR CLR 24/23 A2999 230 93 1400 000/00 RMK AO2 T02440233
53988KBKB BKB20190828040011008/28/19 04:00:31  5-MIN KBKB 281000Z AUTO 00000KT 4SM BR CLR 24/24 A2999 230 97 1400 000/00 RMK AO2 T02440239
53988KBKB BKB20190828040511008/28/19 04:05:31  5-MIN KBKB 281005Z AUTO 00000KT 4SM BR CLR 24/24 A2999 230 97 1400 000/00 RMK AO2 T02440239
53988KBKB BKB20190828041011008/28/19 04:10:31  5-MIN KBKB 281010Z AUTO 00000KT 5SM BR CLR 24/24 A2999 230 97 1400 000/00 RMK AO2 T02440239
53988KBKB BKB20190828041511008/28/19 04:15:31  5-MIN KBKB 281015Z AUTO 00000KT 5SM BR CLR 24/24 A2999 230 97 1400 000/00 RMK AO2 T02440239
53988KBKB BKB20190828042011008/28/19 04:20:31  5-MIN KBKB 281020Z AUTO 00000KT 5SM BR CLR 24/24 A2999 230 97 1400 000/00 RMK AO2 T02440239
53988KBKB BKB20190828042511008/28/19 04:25:31  5-MIN KBKB 281025Z AUTO 00000KT 5SM BR CLR 24/24 A2999 230 97 1400 000/00 RMK AO2 T02440239
53988KBKB BKB20190828043011008/28/19 04:30:31  5-MIN KBKB 281030Z AUTO 00000KT 5SM BR CLR 24/24 A2999 230 97 1400 000/00 RMK AO2 T02440239
53988KBKB BKB20190828043511008/28/19 04:35:31  5-MIN KBKB 281035Z AUTO 00000KT 5SM BR CLR 24/24 A3000 230 97 1400 000/00 RMK AO2 T02440239
53988KBKB BKB20190828044011008/28/19 04:40:31  5-MIN KBKB 281040Z AUTO 00000KT 4SM BR CLR 24/24 A3000 230 97 1400 000/00 RMK AO2 T02440239
53988KBKB BKB20190828044511008/28/19 04:45:31  5-MIN KBKB 281045Z AUTO 00000KT 4SM BR CLR 24/24 A3000 220 97 1400 000/00 RMK AO2 T02440239
53988KBKB BKB20190828045011708/28/19 04:50:31  5-MIN KBKB 281050Z AUTO 00000KT 4SM BR CLR 24/24 A3001 220 97 1400 000/00 RMK AO2 SLP185 T02440239
53988KBKB BKB20190828045511008/28/19 04:55:31  5-MIN KBKB 281055Z AUTO 00000KT 4SM BR CLR 24/24 A3001 220 97 1400 000/00 RMK AO2 T02440239
53988KBKB BKB20190828050011008/28/19 05:00:31  5-MIN KBKB 281100Z AUTO 00000KT 5SM BR CLR 24/24 A3001 210 97 1400 000/00 RMK AO2 T02440239
53988KBKB BKB20190828050511008/28/19 05:05:31  5-MIN KBKB 281105Z AUTO 00000KT 5SM BR CLR 24/23 A3002 210 93 1400 000/00 RMK AO2 T02440233
53988KBKB BKB20190828051011008/28/19 05:10:31  5-MIN KBKB 281110Z AUTO 00000KT 5SM BR CLR 24/23 A3002 210 93 1400 000/00 RMK AO2 T02440233
53988KBKB BKB20190828051511308/28/19 05:15:31  5-MIN KBKB 281115Z AUTO 00000KT 5SM BR FEW005 24/23 A3002 200 93 1400 000/00 RMK AO2 T02440233
53988KBKB BKB20190828052012008/28/19 05:20:31  5-MIN KBKB 281120Z AUTO 00000KT 6SM BR SCT005 SCT075 24/24 A3003 200 97 1400 000/00 RMK AO2 T02440239
53988KBKB BKB20190828052511708/28/19 05:25:31  5-MIN KBKB 281125Z AUTO 00000KT 7SM FEW005 BKN080 25/24 A3003 200 93 1400 000/00 RMK AO2 T02500239
53988KBKB BKB20190828053011708/28/19 05:30:31  5-MIN KBKB 281130Z AUTO 00000KT 8SM FEW006 BKN080 25/24 A3003 200 93 1400 000/00 RMK AO2 T02500239
53988KBKB BKB20190828053512408/28/19 05:35:31  5-MIN KBKB 281135Z AUTO VRB03KT 8SM FEW006 FEW011 SCT080 25/24 A3003 200 93 1400 VRB/03 RMK AO2 T02500239
53988KBKB BKB20190828054012408/28/19 05:40:31  5-MIN KBKB 281140Z AUTO VRB03KT 8SM FEW006 SCT011 BKN080 25/24 A3003 200 93 1400 VRB/03 RMK AO2 T02500239
53988KBKB BKB20190828054512408/28/19 05:45:31  5-MIN KBKB 281145Z AUTO 00000KT 9SM FEW006 SCT011 BKN080 25/24 A3003 200 93 1400 000/00 RMK AO2 T02500239
53988KBKB BKB20190828055014208/28/19 05:50:31  5-MIN KBKB 281150Z AUTO VRB04KT 9SM SCT011 BKN080 25/24 A3003 200 93 1400 VRB/04 RMK AO2 SLP193 T02500239 10256 20244 53001
53988KBKB BKB20190828055511108/28/19 05:55:31  5-MIN KBKB 281155Z AUTO VRB03KT 10SM BKN011 25/23 A3003 200 90 1400 VRB/03 RMK AO2 T02500233
53988KBKB BKB20190828060011108/28/19 06:00:31  5-MIN KBKB 281200Z AUTO VRB03KT 10SM BKN011 25/23 A3002 200 90 1400 VRB/03 RMK AO2 T02500233
53988KBKB BKB20190828060511108/28/19 06:05:31  5-MIN KBKB 281205Z AUTO VRB03KT 10SM BKN011 25/23 A3002 200 90 1400 VRB/03 RMK AO2 T02500233
53988KBKB BKB20190828061011108/28/19 06:10:31  5-MIN KBKB 281210Z AUTO VRB03KT 10SM BKN011 25/23 A3002 200 87 1400 VRB/03 RMK AO2 T02500228
53988KBKB BKB20190828061511108/28/19 06:15:31  5-MIN KBKB 281215Z AUTO VRB03KT 10SM BKN011 25/23 A3002 210 87 1500 VRB/03 RMK AO2 T02500228
53988KBKB BKB20190828062011108/28/19 06:20:31  5-MIN KBKB 281220Z AUTO 00000KT 10SM BKN011 25/23 A3002 210 87 1500 000/00 RMK AO2 T02500228
53988KBKB BKB20190828062509808/28/19 06:25:31  5-MIN KBKB 281310Z AUTO 10SM CLR 27/22 A3002 210 76 1600 M /M RMK AO2 T02670222
53988KBKB BKB20190828071510808/28/19 07:15:31  5-MIN KBKB 281315Z AUTO 00000KT 10SM CLR 27/22 A3001 210 76 1600 000/00 RMK AO2 T02670222
53988KBKB BKB20190828072010808/28/19 07:20:31  5-MIN KBKB 281320Z AUTO VRB03KT 10SM CLR 27/22 A3002 210 74 1700 VRB/03 RMK AO2 T02720222
53988KBKB BKB20190828072510808/28/19 07:25:31  5-MIN KBKB 281325Z AUTO 35003KT 10SM CLR 27/22 A3001 210 74 1700 350/03 RMK AO2 T02720222
53988KBKB BKB20190828073010808/28/19 07:30:31  5-MIN KBKB 281330Z AUTO VRB03KT 10SM CLR 27/22 A3001 210 74 1700 VRB/03 RMK AO2 T02720222
53988KBKB BKB20190828073016808/28/19 07:30:31  5-MIN KBKB 281330Z AUTO VRB03KT 10SM CLR 27/22 A3001 210 74 1700 VRB/03 RMK AO2 T0272022208/28/19 07:35:31  5-MI02 210 76 1600 M /M RMK AO2 T02670222
53988KBKB BKB20190828073510808/28/19 07:35:31  5-MIN KBKB 281335Z AUTO VRB03KT 10SM CLR 28/22 A3002 210 71 1800 VRB/03 RMK AO2 T02780222
53988KBKB BKB20190828074010808/28/19 07:40:31  5-MIN KBKB 281340Z AUTO VRB03KT 10SM CLR 28/22 A3002 210 71 1800 VRB/03 RMK AO2 T02780222
53988KBKB BKB20190828074010808/28/19 07:40:31  5-MIN KBKB 281340Z AUTO VRB03KT 10SM CLR 28/22 A3002 210 74 1700 VRB/03 RMK AO2 T02720222
53988KBKB BKB20190828074510808/28/19 07:45:31  5-MIN KBKB 281345Z AUTO VRB03KT 10SM CLR 28/22 A3002 210 71 1800 VRB/03 RMK AO2 T02780222
53988KBKB BKB20190828075011508/28/19 07:50:31  5-MIN KBKB 281350Z AUTO 00000KT 10SM CLR 28/22 A3002 210 69 1800 000/00 RMK AO2 SLP190 T02830222
53988KBKB BKB20190828075510808/28/19 07:55:31  5-MIN KBKB 281355Z AUTO 00000KT 10SM CLR 28/22 A3002 210 69 1800 000/00 RMK AO2 T02830222
53988KBKB BKB20190828080010808/28/19 08:00:31  5-MIN KBKB 281400Z AUTO VRB04KT 10SM CLR 28/22 A3002 200 69 1800 VRB/04 RMK AO2 T02830222
53988KBKB BKB20190828080510808/28/19 08:05:31  5-MIN KBKB 281405Z AUTO VRB03KT 10SM CLR 29/22 A3002 200 67 1900 VRB/03 RMK AO2 T02890222
53988KBKB BKB20190828081010808/28/19 08:10:31  5-MIN KBKB 281410Z AUTO 00000KT 10SM CLR 29/23 A3003 200 69 1900 000/00 RMK AO2 T02890228
53988KBKB BKB20190828081510808/28/19 08:15:31  5-MIN KBKB 281415Z AUTO 00000KT 10SM CLR 29/23 A3003 200 69 1900 000/00 RMK AO2 T02890228
53988KBKB BKB20190828082010808/28/19 08:20:31  5-MIN KBKB 281420Z AUTO 00000KT 10SM CLR 29/23 A3003 200 67 1900 000/00 RMK AO2 T02940228
53988KBKB BKB20190828082510808/28/19 08:25:31  5-MIN KBKB 281425Z AUTO VRB04KT 10SM CLR 29/23 A3003 200 69 1900 VRB/04 RMK AO2 T02890228
53988KBKB BKB20190828083010808/28/19 08:30:31  5-MIN KBKB 281430Z AUTO VRB03KT 10SM CLR 29/23 A3003 200 67 1900 VRB/03 RMK AO2 T02940228
53988KBKB BKB20190828083510808/28/19 08:35:31  5-MIN KBKB 281435Z AUTO VRB03KT 10SM CLR 29/23 A3003 200 67 1900 VRB/03 RMK AO2 T02940228
53988KBKB BKB20190828084010808/28/19 08:40:31  5-MIN KBKB 281440Z AUTO VRB05KT 10SM CLR 30/23 A3003 200 65 2000 VRB/05 RMK AO2 T03000228
53988KBKB BKB20190828084510808/28/19 08:45:31  5-MIN KBKB 281445Z AUTO 00000KT 10SM CLR 30/23 A3003 190 65 2000 000/00 RMK AO2 T03000228
53988KBKB BKB20190828085012108/28/19 08:50:31  5-MIN KBKB 281450Z AUTO VRB03KT 10SM CLR 30/23 A3004 190 65 2000 VRB/03 RMK AO2 SLP196 T03000228 53015
53988KBKB BKB20190828085510808/28/19 08:55:31  5-MIN KBKB 281455Z AUTO 00000KT 10SM CLR 29/23 A3004 190 67 1900 000/00 RMK AO2 T02940228
53988KBKB BKB20190828090010808/28/19 09:00:31  5-MIN KBKB 281500Z AUTO 04003KT 10SM CLR 29/23 A3004 190 67 1900 040/03 RMK AO2 T02940228
53988KBKB BKB20190828090510808/28/19 09:05:31  5-MIN KBKB 281505Z AUTO 00000KT 10SM CLR 29/23 A3004 190 67 1900 000/00 RMK AO2 T02940228
53988KBKB BKB20190828091010808/28/19 09:10:31  5-MIN KBKB 281510Z AUTO VRB03KT 10SM CLR 29/23 A3004 190 67 1900 VRB/03 RMK AO2 T02940228
53988KBKB BKB20190828091510808/28/19 09:15:31  5-MIN KBKB 281515Z AUTO VRB03KT 10SM CLR 29/23 A3004 190 69 1900 VRB/03 RMK AO2 T02890228
53988KBKB BKB20190828092010808/28/19 09:20:31  5-MIN KBKB 281520Z AUTO 00000KT 10SM CLR 29/23 A3004 190 67 1900 000/00 RMK AO2 T02940228
53988KBKB BKB20190828111510808/28/19 11:15:31  5-MIN KBKB 281715Z AUTO VRB04KT 10SM CLR 33/22 A3001 220 53 2300 VRB/04 RMK AO2 T03280222
53988KBKB BKB20190828112010808/28/19 11:20:31  5-MIN KBKB 281720Z AUTO 00000KT 10SM CLR 33/22 A3001 210 53 2300 000/00 RMK AO2 T03280222
53988KBKB BKB20190828112510808/28/19 11:25:31  5-MIN KBKB 281725Z AUTO 00000KT 10SM CLR 33/22 A3001 220 53 2300 000/00 RMK AO2 T03280222
53988KBKB BKB20190828113010808/28/19 11:30:31  5-MIN KBKB 281730Z AUTO VRB04KT 10SM CLR 33/23 A3001 220 55 2300 VRB/04 RMK AO2 T03280228
53988KBKB BKB20190828113017008/28/19 11:30:31  5-MIN KBKB 281730Z AUTO VRB04KT 10SM CLR 33/23 A3001 220 55 2300 VRB/04  281710Z AUTO VRB03KT 10SM CLR 33/23 A3001 210 55 2300 VRB/03 RMK AO2 T03280228
53988KBKB BKB20190828113510808/28/19 11:35:31  5-MIN KBKB 281735Z AUTO 20003KT 10SM CLR 33/23 A3000 220 55 2300 200/03 RMK AO2 T03280228
53988KBKB BKB20190828114011108/28/19 11:40:31  5-MIN KBKB 281740Z AUTO VRB03KT 10SM FEW040 33/23 A3000 220 53 2400 VRB/03 RMK AO2 T03330228
53988KBKB BKB20190828114017208/28/19 11:40:31  5-MIN KBKB 281740Z AUTO VRB03KT 10SM FEW040 33/23 A19 11:20:31  5-MIN KBKB 281720Z AUTO 00000KT 10SM CLR 33/22 A3001 210 53 2300 000/00 RMK AO2 T03280222
53988KBKB BKB20190830064510708/30/19 06:45:31  5-MIN KBKB 301245Z AUTO 00000KT 7SM CLR 24/23 A3005 180 97 1300 000/00 RMK AO2 T02390233
53988KBKB BKB20190830065011408/30/19 06:50:31  5-MIN KBKB 301250Z AUTO 00000KT 9SM CLR 24/23 A3005 180 93 1400 000/00 RMK AO2 SLP200 T02440233
53988KBKB BKB20190830065510708/30/19 06:55:31  5-MIN KBKB 301255Z AUTO 00000KT 9SM CLR 25/23 A3005 180 90 1400 000/00 RMK AO2 T02500233
53988KBKB BKB20190830070010808/30/19 07:00:31  5-MIN KBKB 301300Z AUTO 00000KT 10SM CLR 25/23 A3005 180 90 1400 000/00 RMK AO2 T02500233
53988KBKB BKB20190830070510808/30/19 07:05:31  5-MIN KBKB 301305Z AUTO 00000KT 10SM CLR 26/24 A3004 190 90 1500 000/00 RMK AO2 T02560239
53988KBKB BKB20190830071010808/30/19 07:10:31  5-MIN KBKB 301310Z AUTO 00000KT 10SM CLR 26/24 A3004 190 90 1500 000/00 RMK AO2 T02560239
53988KBKB BKB20190830071510808/30/19 07:15:31  5-MIN KBKB 301315Z AUTO 00000KT 10SM CLR 26/24 A3004 190 87 1600 000/00 RMK AO2 T02610239
53988KBKB BKB20190830072010808/30/19 07:20:31  5-MIN KBKB 301320Z AUTO VRB03KT 10SM CLR 26/24 A3004 190 87 1600 VRB/03 RMK AO2 T02610239
53988KBKB BKB20190830072510808/30/19 07:25:31  5-MIN KBKB 301325Z AUTO 00000KT 10SM CLR 27/23 A3004 190 82 1600 000/00 RMK AO2 T02670233
53988KBKB BKB20190830073010808/30/19 07:30:31  5-MIN KBKB 301330Z AUTO 00000KT 10SM CLR 27/24 A3004 190 84 1600 000/00 RMK AO2 T02670239
53988KBKB BKB20190830073510808/30/19 07:35:31  5-MIN KBKB 301335Z AUTO 00000KT 10SM CLR 27/24 A3004 190 82 1700 000/00 RMK AO2 T02720239
53988KBKB BKB20190830074010808/30/19 07:40:31  5-MIN KBKB 301340Z AUTO 00000KT 10SM CLR 27/24 A3003 190 82 1700 000/00 RMK AO2 T02720239
53988KBKB BKB20190830074510808/30/19 07:45:31  5-MIN KBKB 301345Z AUTO 00000KT 10SM CLR 28/23 A3004 190 76 1700 000/00 RMK AO2 T02780233
53988KBKB BKB20190830075011508/30/19 07:50:31  5-MIN KBKB 301350Z AUTO 00000KT 10SM CLR 28/23 A3003 190 76 1700 000/00 RMK AO2 SLP195 T02780233
53988KBKB BKB20190830075510808/30/19 07:55:31  5-MIN KBKB 301355Z AUTO 00000KT 10SM CLR 28/23 A3003 190 74 1800 000/00 RMK AO2 T02830233
53988KBKB BKB20190830080010808/30/19 08:00:31  5-MIN KBKB 301400Z AUTO 00000KT 10SM CLR 28/23 A3004 190 74 1800 000/00 RMK AO2 T02830233
53988KBKB BKB20190830080510808/30/19 08:05:31  5-MIN KBKB 301405Z AUTO 01003KT 10SM CLR 29/24 A3003 190 74 1900 010/03 RMK AO2 T02890239
53988KBKB BKB20190830081010808/30/19 08:10:31  5-MIN KBKB 301410Z AUTO 00000KT 10SM CLR 28/23 A3003 190 74 1800 000/00 RMK AO2 T02830233
53988KBKB BKB20190830081510808/30/19 08:15:31  5-MIN KBKB 301415Z AUTO 00000KT 10SM CLR 29/23 A3003 190 71 1900 000/00 RMK AO2 T02890233
53988KBKB BKB20190830082010808/30/19 08:20:31  5-MIN KBKB 301420Z AUTO 04003KT 10SM CLR 29/23 A3003 190 71 1900 040/03 RMK AO2 T02890233
53988KBKB BKB20190830082510808/30/19 08:25:31  5-MIN KBKB 301425Z AUTO 00000KT 10SM CLR 29/23 A3003 190 69 1900 000/00 RMK AO2 T02940233
53988KBKB BKB20190830083010808/30/19 08:30:31  5-MIN KBKB 301430Z AUTO VRB03KT 10SM CLR 29/23 A3003 190 69 1900 VRB/03 RMK AO2 T02940233
53988KBKB BKB20190830083510808/30/19 08:35:31  5-MIN KBKB 301435Z AUTO 00000KT 10SM CLR 30/23 A3003 190 67 2000 000/00 RMK AO2 T03000233
53988KBKB BKB20190830084010808/30/19 08:40:31  5-MIN KBKB 301440Z AUTO 00000KT 10SM CLR 29/23 A3003 190 69 1900 000/00 RMK AO2 T02940233
53988KBKB BKB20190830084510808/30/19 08:45:31  5-MIN KBKB 301445Z AUTO 00000KT 10SM CLR 30/23 A3003 200 67 2000 000/00 RMK AO2 T03000233
53988KBKB BKB20190830085012108/30/19 08:50:31  5-MIN KBKB 301450Z AUTO 00000KT 10SM CLR 30/23 A3003 200 67 2000 000/00 RMK AO2 SLP195 T03000233 53023
53988KBKB BKB20190830085510808/30/19 08:55:31  5-MIN KBKB 301455Z AUTO 00000KT 10SM CLR 31/24 A3003 190 67 2100 000/00 RMK AO2 T03060239
53988KBKB BKB20190830090010808/30/19 09:00:31  5-MIN KBKB 301500Z AUTO 00000KT 10SM CLR 31/24 A3003 190 65 2100 000/00 RMK AO2 T03110239
53988KBKB BKB20190830090510808/30/19 09:05:31  5-MIN KBKB 301505Z AUTO 00000KT 10SM CLR 31/24 A3003 200 65 2100 000/00 RMK AO2 T03110239
53988KBKB BKB20190830091010808/30/19 09:10:31  5-MIN KBKB 301510Z AUTO 00000KT 10SM CLR 31/23 A3003 200 63 2100 000/00 RMK AO2 T03110233
53988KBKB BKB20190830091510808/30/19 09:15:31  5-MIN KBKB 301515Z AUTO 00000KT 10SM CLR 31/23 A3003 200 63 2100 000/00 RMK AO2 T03110233
53988KBKB BKB20190830092010808/30/19 09:20:31  5-MIN KBKB 301520Z AUTO 00000KT 10SM CLR 31/23 A3003 200 63 2100 000/00 RMK AO2 T03110233
53988KBKB BKB20190830092510808/30/19 09:25:31  5-MIN KBKB 301525Z AUTO 00000KT 10SM CLR 32/24 A3003 200 63 2200 000/00 RMK AO2 T03170239
53988KBKB BKB20190830093010808/30/19 09:30:31  5-MIN KBKB 301530Z AUTO 00000KT 10SM CLR 31/23 A3003 200 63 2100 000/00 RMK AO2 T03110233
53988KBKB BKB20190830093510808/30/19 09:35:31  5-MIN KBKB 301535Z AUTO 00000KT 10SM CLR 32/24 A3003 200 63 2200 000/00 RMK AO2 T03170239
53988KBKB BKB20190830094010808/30/19 09:40:31  5-MIN KBKB 301540Z AUTO 07004KT 10SM CLR 31/23 A3003 200 63 2100 070/04 RMK AO2 T03110233
53988KBKB BKB20190830094510808/30/19 09:45:31  5-MIN KBKB 301545Z AUTO VRB03KT 10SM CLR 32/23 A3003 200 61 2200 VRB/03 RMK AO2 T03170233
53988KBKB BKB20190830095011808/30/19 09:50:31  5-MIN KBKB 301550Z AUTO 00000KT 10SM FEW029 32/23 A3003 200 59 2200 000/00 RMK AO2 SLP193 T03220233
53988KBKB BKB20190830095511808/30/19 09:55:31  5-MIN KBKB 301555Z AUTO 00000KT 10SM SCT029 SCT037 31/23 A3003 200 63 2100 000/00 RMK AO2 T03110233
53988KBKB BKB20190830100011108/30/19 10:00:31  5-MIN KBKB 301600Z AUTO 00000KT 10SM SCT030 31/24 A3003 200 65 2100 000/00 RMK AO2 T03110239
53988KBKB BKB20190830100511808/30/19 10:05:31  5-MIN KBKB 301605Z AUTO VRB04KT 10SM SCT032 BKN043 32/23 A3003 200 59 2200 VRB/04 RMK AO2 T03220233
53988KBKB BKB20190830101012508/30/19 10:10:31  5-MIN KBKB 301610Z AUTO 00000KT 10SM SCT032 BKN043 BKN050 32/23 A3003 200 57 2200 000/00 RMK AO2 T03220228
53988KBKB BKB20190830101511808/30/19 10:15:31  5-MIN KBKB 301615Z AUTO 02005KT 10SM SCT032 BKN047 32/23 A3003 200 57 2300 010/05 RMK AO2 T03220228
53988KBKB BKB20190830102011808/30/19 10:20:31  5-MIN KBKB 301620Z AUTO 00000KT 10SM FEW031 SCT043 32/23 A3002 200 57 2300 000/00 RMK AO2 T03220228
53988KBKB BKB20190830102511808/30/19 10:25:31  5-MIN KBKB 301625Z AUTO 00000KT 10SM FEW033 FEW043 32/23 A3002 200 58 2200 000/00 RMK AO2 T03170228
53988KBKB BKB20190830103011808/30/19 10:30:31  5-MIN KBKB 301630Z AUTO VRB03KT 10SM FEW038 FEW048 32/23 A3002 210 61 2200 VRB/03 RMK AO2 T03170233
53988KBKB BKB20190830103511108/30/19 10:35:31  5-MIN KBKB 301635Z AUTO VRB03KT 10SM FEW035 33/23 A3002 210 57 2300 VRB/03 RMK AO2 T03280233
53988KBKB BKB20190830104010808/30/19 10:40:31  5-MIN KBKB 301640Z AUTO VRB03KT 10SM CLR 33/23 A3002 210 57 2300 VRB/03 RMK AO2 T03280233
53988KBKB BKB20190830104510808/30/19 10:45:31  5-MIN KBKB 301645Z AUTO 00000KT 10SM CLR 33/23 A3002 210 57 2300 000/00 RMK AO2 T03280233
53988KBKB BKB20190830105011808/30/19 10:50:31  5-MIN KBKB 301650Z AUTO 00000KT 10SM FEW037 33/23 A3002 210 53 2400 000/00 RMK AO2 SLP188 T03330228
53988KBKB BKB20190830105511108/30/19 10:55:31  5-MIN KBKB 301655Z AUTO VRB04KT 10SM SCT039 33/23 A3001 210 53 2400 VRB/04 RMK AO2 T03330228
53988KBKB BKB20190830110011108/30/19 11:00:31  5-MIN KBKB 301700Z AUTO 00000KT 10SM FEW039 32/23 A3001 220 57 2300 000/00 RMK AO2 T03220228
53988KBKB BKB20190830110511108/30/19 11:05:31  5-MIN KBKB 301705Z AUTO VRB03KT 10SM FEW041 33/23 A3001 220 55 2300 VRB/03 RMK AO2 T03280228
53988KBKB BKB20190830111011108/30/19 11:10:31  5-MIN KBKB 301710Z AUTO 13003KT 10SM FEW041 33/23 A3001 220 55 2300 120/03 RMK AO2 T03280228
53988KBKB BKB20190830111511108/30/19 11:15:31  5-MIN KBKB 301715Z AUTO 11004KT 10SM SCT041 32/22 A3001 220 56 2200 100/04 RMK AO2 T03170222
53988KBKB BKB20190830112011108/30/19 11:20:31  5-MIN KBKB 301720Z AUTO 00000KT 10SM SCT041 33/23 A3001 220 55 2300 000/00 RMK AO2 T03280228
53988KBKB BKB20190830112511108/30/19 11:25:31  5-MIN KBKB 301725Z AUTO VRB04KT 10SM FEW042 33/23 A3000 220 53 2400 VRB/04 RMK AO2 T03330228
53988KBKB BKB20190830113011108/30/19 11:30:31  5-MIN KBKB 301730Z AUTO 12005KT 10SM SCT042 33/22 A3000 220 51 2400 120/05 RMK AO2 T03330222
53988KBKB BKB20190830113511108/30/19 11:35:31  5-MIN KBKB 301735Z AUTO 00000KT 10SM SCT042 33/22 A3000 220 53 2300 000/00 RMK AO2 T03280222
53988KBKB BKB20190830114011108/30/19 11:40:31  5-MIN KBKB 301740Z AUTO 00000KT 10SM BKN042 32/22 A3000 220 55 2300 000/00 RMK AO2 T03220222
53988KBKB BKB20190830114511808/30/19 11:45:31  5-MIN KBKB 301745Z AUTO VRB03KT 10SM BKN042 BKN060 33/22 A3000 220 51 2400 VRB/03 RMK AO2 T03330222
53988KBKB BKB20190830115014308/30/19 11:50:31  5-MIN KBKB 301750Z AUTO VRB04KT 10SM SCT043 BKN065 34/23 A3000 220 50 2500 VRB/04 RMK AO2 SLP183 T03440228 10344 20228 55006
53988KBKB BKB20190830115511808/30/19 11:55:31  5-MIN KBKB 301755Z AUTO VRB04KT 10SM SCT043 BKN070 34/23 A3000 220 51 2500 VRB/04 RMK AO2 T03390228
53988KBKB BKB20190830120011808/30/19 12:00:31  5-MIN KBKB 301800Z AUTO 00000KT 10SM SCT043 BKN070 33/22 A3000 230 51 2400 000/00 RMK AO2 T03330222
53988KBKB BKB20190830120511808/30/19 12:05:31  5-MIN KBKB 301805Z AUTO 07005KT 10SM FEW043 SCT065 33/22 A2999 230 51 2400 070/05 RMK AO2 T03330222
53988KBKB BKB20190830121011108/30/19 12:10:31  5-MIN KBKB 301810Z AUTO 07003KT 10SM FEW065 32/22 A2999 230 53 2300 060/03 RMK AO2 T03220217
53988KBKB BKB20190830121511108/30/19 12:15:31  5-MIN KBKB 301815Z AUTO 00000KT 10SM FEW070 33/22 A2999 230 51 2400 000/00 RMK AO2 T03330222
53988KBKB BKB20190830122010808/30/19 12:20:31  5-MIN KBKB 301820Z AUTO 00000KT 10SM CLR 34/22 A2999 230 50 2500 000/00 RMK AO2 T03390222
53988KBKB BKB20190830122510808/30/19 12:25:31  5-MIN KBKB 301825Z AUTO VRB04KT 10SM CLR 33/22 A2999 230 53 2400 VRB/04 RMK AO2 T03280222
53988KBKB BKB20190830123010808/30/19 12:30:31  5-MIN KBKB 301830Z AUTO VRB03KT 10SM CLR 32/22 A2999 230 53 2300 VRB/03 RMK AO2 T03220217
53988KBKB BKB20190830123511108/30/19 12:35:31  5-MIN KBKB 301835Z AUTO 00000KT 10SM FEW046 33/22 A2998 240 53 2400 000/00 RMK AO2 T03280222
53988KBKB BKB20190830124010108/30/19 12:40:31  5-MIN KBKB 301840Z AUTO 10SM FEW046 33/22 A2999 240 53 2400 M /M RMK AO2 T03280222
53988KBKB BKB20190830124510808/30/19 12:45:31  5-MIN KBKB 301845Z AUTO 00000KT 10SM CLR 32/23 A2998 240 57 2300 000/00 RMK AO2 T03220228
53988KBKB BKB20190830125011508/30/19 12:50:31  5-MIN KBKB 301850Z AUTO 00000KT 10SM CLR 32/23 A2998 240 58 2200 000/00 RMK AO2 SLP177 T03170228
53988KBKB BKB20190830125511108/30/19 12:55:31  5-MIN KBKB 301855Z AUTO 00000KT 10SM FEW085 33/23 A2998 240 55 2400 000/00 RMK AO2 T03280228
53988KBKB BKB20190830130011808/30/19 13:00:31  5-MIN KBKB 301900Z AUTO 00000KT 10SM SCT047 SCT085 33/22 A2998 240 51 2400 000/00 RMK AO2 T03330222
53988KBKB BKB20190830130511108/30/19 13:05:31  5-MIN KBKB 301905Z AUTO 00000KT 10SM SCT049 33/22 A2998 240 53 2400 000/00 RMK AO2 T03280222
53988KBKB BKB20190830131011808/30/19 13:10:31  5-MIN KBKB 301910Z AUTO 00000KT 10SM SCT049 BKN085 32/23 A2998 240 57 2300 000/00 RMK AO2 T03220228
53988KBKB BKB20190830131511808/30/19 13:15:31  5-MIN KBKB 301915Z AUTO 00000KT 10SM FEW049 SCT085 32/23 A2998 250 57 2300 000/00 RMK AO2 T03220228
53988KBKB BKB20190830132011808/30/19 13:20:31  5-MIN KBKB 301920Z AUTO VRB04KT 10SM FEW049 SCT085 32/22 A2997 250 55 2300 VRB/04 RMK AO2 T03220222
53988KBKB BKB20190830132511108/30/19 13:25:31  5-MIN KBKB 301925Z AUTO 00000KT 10SM FEW049 32/23 A2997 250 58 2300 000/00 RMK AO2 T03170228
53988KBKB BKB20190830133011108/30/19 13:30:31  5-MIN KBKB 301930Z AUTO 00000KT 10SM FEW049 33/23 A2997 250 55 2400 000/00 RMK AO2 T03330233
53988KBKB BKB20190830133512908/30/19 13:35:31  5-MIN KBKB 301935Z AUTO VRB03KT 10SM FEW047 34/22 A299 FEW046 34/23 A2996 260 51 2500 VRB/03 RMK AO2 T03390228
53988KBKB BKB20190830141511108/30/19 14:15:31  5-MIN KBKB 302015Z AUTO VRB03KT 10SM FEW046 33/23 A2996 270 55 2400 VRB/03 RMK AO2 T03280228
53988KBKB BKB20190830142011108/30/19 14:20:31  5-MIN KBKB 302020Z AUTO VRB03KT 10SM FEW046 34/23 A2996 260 51 2500 VRB/03 RMK AO2 T03390228
53988KBKB BKB20190830142511108/30/19 14:25:31  5-MIN KBKB 302025Z AUTO VRB03KT 10SM FEW046 34/22 A2996 270 48 2600 VRB/03 RMK AO2 T03440222
53988KBKB BKB20190830143010808/30/19 14:30:31  5-MIN KBKB 302030Z AUTO VRB06KT 10SM CLR 34/23 A2995 270 51 2500 VRB/06 RMK AO2 T03390228
53988KBKB BKB20190830143016108/30/19 14:30:31  5-MIN KBKB 302030Z AUTO VRB06KT 10SM CLR 34/23 A2995 270 51 2500 VRB/06 RMK AO2 T0339022808/30/19 14:35:31  5-MI 2400 VRB/03 RMK AO2 T03280233
53988KBKB BKB20190830143510808/30/19 14:35:31  5-MIN KBKB 302035Z AUTO VRB03KT 10SM CLR 33/23 A2995 270 53 2500 VRB/03 RMK AO2 T03330228
53988KBKB BKB20190830144010808/30/19 14:40:31  5-MIN KBKB 302040Z AUTO VRB05KT 10SM CLR 34/23 A2995 270 51 2500 VRB/05 RMK AO2 T03390228
53988KBKB BKB20190830144016708/30/19 14:40:31  5-MIN KBKB 302040Z AUTO VRB05KT 10SM CLR 34/23 A2995 270 51 2500 VRB/05 RMK AO2 T03390T 10SM FEW046 34/23 A2996 260 51 2500 VRB/03 RMK AO2 T03390228
53988KBKB BKB20190830144510808/30/19 14:45:31  5-MIN KBKB 302045Z AUTO VRB05KT 10SM CLR 34/22 A2995 270 50 2500 VRB/05 RMK AO2 T03390222
53988KBKB BKB20190830145012108/30/19 14:50:31  5-MIN KBKB 302050Z AUTO VRB03KT 10SM CLR 33/22 A2994 280 50 2500 VRB/03 RMK AO2 SLP165 T03330217 58011
53988KBKB BKB20190830145510808/30/19 14:55:31  5-MIN KBKB 302055Z AUTO VRB04KT 10SM CLR 34/22 A2994 280 50 2500 VRB/04 RMK AO2 T03390222
53988KBKB BKB20190830150010808/30/19 15:00:31  5-MIN KBKB 302100Z AUTO VRB04KT 10SM CLR 34/22 A2994 280 48 2500 VRB/04 RMK AO2 T03390217
53988KBKB BKB20190830150511108/30/19 15:05:31  5-MIN KBKB 302105Z AUTO VRB03KT 10SM FEW049 34/22 A2995 270 48 2600 VRB/03 RMK AO2 T03440222
53988KBKB BKB20190830151011108/30/19 15:10:31  5-MIN KBKB 302110Z AUTO 00000KT 10SM SCT049 34/23 A2995 270 50 2600 000/00 RMK AO2 T03440228
53988KBKB BKB20190830151511108/30/19 15:15:31  5-MIN KBKB 302115Z AUTO VRB05KT 10SM BKN047 34/23 A2995 270 50 2600 VRB/05 RMK AO2 T03440228
53988KBKB BKB20190830152011808/30/19 15:20:31  5-MIN KBKB 302120Z AUTO VRB06KT 10SM BKN047 BKN055 34/23 A2995 270 51 2500 VRB/06 RMK AO2 T03390228
53988KBKB BKB20190830152512508/30/19 15:25:31  5-MIN KBKB 302125Z AUTO 00000KT 10SM BKN047 BKN060 BKN080 33/23 A2995 270 55 2400 000/00 RMK AO2 T03280228
53988KBKB BKB20190830153012508/30/19 15:30:31  5-MIN KBKB 302130Z AUTO 00000KT 10SM BKN047 BKN060 BKN080 32/23 A2995 270 57 2300 000/00 RMK AO2 T03220228
53988KBKB BKB20190830153512508/30/19 15:35:31  5-MIN KBKB 302135Z AUTO VRB03KT 10SM SCT047 SCT060 BKN080 32/23 A2995 270 58 2300 VRB/03 RMK AO2 T03170228
53988KBKB BKB20190830154012508/30/19 15:40:31  5-MIN KBKB 302140Z AUTO 00000KT 10SM FEW045 SCT055 SCT080 31/23 A2995 270 60 2200 000/00 RMK AO2 T03110228
53988KBKB BKB20190830154512508/30/19 15:45:31  5-MIN KBKB 302145Z AUTO 00000KT 10SM FEW049 FEW060 SCT080 31/23 A2995 270 60 2200 000/00 RMK AO2 T03110228
53988KBKB BKB20190830155012508/30/19 15:50:31  5-MIN KBKB 302150Z AUTO 00000KT 10SM FEW055 FEW080 31/24 A2995 270 69 2200 000/00 RMK AO2 SLP166 T03060244
53988KBKB BKB20190830155510808/30/19 15:55:31  5-MIN KBKB 302155Z AUTO 00000KT 10SM CLR 31/24 A2995 270 67 2200 000/00 RMK AO2 T03060239
53988KBKB BKB20190830160010808/30/19 16:00:31  5-MIN KBKB 302200Z AUTO 00000KT 10SM CLR 31/24 A2995 270 67 2200 000/00 RMK AO2 T03060239
53988KBKB BKB20190830160510808/30/19 16:05:31  5-MIN KBKB 302205Z AUTO 00000KT 10SM CLR 31/24 A2995 270 69 2200 000/00 RMK AO2 T03060244
53988KBKB BKB20190830161010808/30/19 16:10:31  5-MIN KBKB 302210Z AUTO 00000KT 10SM CLR 30/24 A2995 270 72 2100 000/00 RMK AO2 T03000244
53988KBKB BKB20190830161510808/30/19 16:15:31  5-MIN KBKB 302215Z AUTO 00000KT 10SM CLR 30/24 A2995 270 72 2100 000/00 RMK AO2 T03000244
53988KBKB BKB20190830162011808/30/19 16:20:31  5-MIN KBKB 302220Z AUTO 00000KT 10SM FEW049 FEW070 30/24 A2995 270 72 2100 000/00 RMK AO2 T03000244
53988KBKB BKB20190830162510408/30/19 16:25:31  5-MIN KBKB 302225Z AUTOSCT060 BKN080 28/25 A2996 260 84 1800 000/00 RMK AO2 T02780250
53988KBKB BKB20190830174510108/30/19 17:45:31  5-MIN KBKB 302345Z AUTO 10SM BKN050 29/26 A2996 260 82 2000 M /M RMK AO2 T02890256
53988KBKB BKB20190830175013608/30/19 17:50:31  5-MIN KBKB 302350Z AUTO 00000KT 10SM OVC050 29/26 A2996 260 82 2000 000/00 RMK AO2 SLP172 T02890256 10350 20289 56019
53988KBKB BKB20190830175511808/30/19 17:55:31  5-MIN KBKB 302355Z AUTO 00000KT 10SM BKN050 OVC060 29/26 A2996 260 82 2000 000/00 RMK AO2 T02890256
53988KBKB BKB20190830180012508/30/19 18:00:31  5-MIN KBKB 310000Z AUTO 00000KT 10SM BKN049 BKN060 OVC085 28/25 A2996 260 82 1900 000/00 RMK AO2 T02830250
53988KBKB BKB20190830180512508/30/19 18:05:31  5-MIN KBKB 310005Z AUTO 00000KT 10SM BKN049 BKN060 BKN085 28/25 A2996 260 82 1900 000/00 RMK AO2 T02830250
53988KBKB BKB20190830181012508/30/19 18:10:31  5-MIN KBKB 310010Z AUTO 00000KT 10SM SCT049 SCT060 BKN080 28/25 A2996 260 84 1800 000/00 RMK AO2 T02780250
53988KBKB BKB20190830181512108/30/19 18:15:31  5-MIN KBKB 310015Z AUTO 00000KT 10SM FEW049 SCT060 SCT080 28/25 A2996 260 84 1800 00 RMK AO2 T02890256
53988KBKB BKB20190830181512508/30/19 18:15:31  5-MIN KBKB 310015Z AUTO 00000KT 10SM FEW049 SCT060 SCT080 28/25 A2996 260 84 1800 000/00 RMK AO2 T02780250
53988KBKB BKB20190830182012508/30/19 18:20:31  5-MIN KBKB 310020Z AUTO 00000KT 10SM FEW049 FEW060 SCT080 28/25 A2997 260 84 1800 000/00 RMK AO2 T02780250
53988KBKB BKB20190830182511808/30/19 18:25:31  5-MIN KBKB 310025Z AUTO 00000KT 10SM SCT050 SCT085 28/25 A2997 250 84 1800 000/00 RMK AO2 T02780250
53988KBKB BKB20190830182512108/30/19 18:25:31  5-MIN KBKB 310025Z AUTO 000010SM BKN049 BKN060 BKN085 28/25 A2996 260 82 1900 000/00 RMK AO2 T02830250
53988KBKB BKB20190830183011108/30/19 18:30:31  5-MIN KBKB 310030Z AUTO 00000KT 10SM BKN048 28/25 A2997 250 84 1800 000/00 RMK AO2 T02780250
53988KBKB BKB20190830183511108/30/19 18:35:31  5-MIN KBKB 310035Z AUTO 00000KT 10SM BKN048 28/25 A2998 250 84 1800 000/00 RMK AO2 T02780250
53988KBKB BKB20190830183514208/30/19 18:35:31  5-MIN KBKB 310035Z AUTO 00000KT 15Z AUTO 00000KT 10SM FEW049 SCT060 SCT080 28/25 A2996 260 84 1800 000/00 RMK AO2 T02780250
53988KBKB BKB20190830184011808/30/19 18:40:31  5-MIN KBKB 310040Z AUTO 00000KT 10SM BKN048 BKN055 28/24 A2998 240 82 1800 000/00 RMK AO2 T02780244
53988KBKB BKB20190830184016108/30/19 18:40:31  5-MIN KBKB 310040Z AUTO 00000KT 10SM BKN048 BKN055 28/24 A2998 240 82 1800 000/00 RMK AO2 T02780244 A2997 250 84 1800 000/00 RMK AO2 T02780250
53988KBKB BKB20190830184511108/30/19 18:45:31  5-MIN KBKB 310045Z AUTO VRB03KT 10SM OVC048 28/24 A2998 240 82 1800 VRB/03 RMK AO2 T02780244
53988KBKB BKB20190830185012508/30/19 18:50:31  5-MIN KBKB 310050Z AUTO 00000KT 10SM BKN048 OVC060 28/24 A2999 240 79 1800 000/00 RMK AO2 SLP179 T02780239
53988KBKB BKB20190830185511808/30/19 18:55:31  5-MIN KBKB 310055Z AUTO 00000KT 10SM BKN048 OVC060 28/24 A2999 240 79 1800 000/00 RMK AO2 T02780239
53988KBKB BKB20190830190011808/30/19 19:00:31  5-MIN KBKB 310100Z AUTO 00000KT 10SM BKN048 OVC065 28/23 A2999 230 76 1800 000/00 RMK AO2 T02780233
53988KBKB BKB20190830190512508/30/19 19:05:31  5-MIN KBKB 310105Z AUTO 00000KT 10SM BKN048 BKN055 OVC070 28/23 A2999 230 76 1800 000/00 RMK AO2 T02780233
53988KBKB BKB20190830191011808/30/19 19:10:31  5-MIN KBKB 310110Z AUTO 00000KT 10SM SCT047 BKN060 27/23 A2999 230 79 1700 000/00 RMK AO2 T02720233
53988KBKB BKB20190830191511808/30/19 19:15:31  5-MIN KBKB 310115Z AUTO 00000KT 10SM FEW047 SCT060 27/23 A2999 230 79 1700 000/00 RMK AO2 T02720233
53988KBKB BKB20190830192012508/30/19 19:20:31  5-MIN KBKB 310120Z AUTO VRB03KT 10SM FEW047 SCT055 SCT070 27/23 A2999 230 79 1700 VRB/03 RMK AO2 T02720233
53988KBKB BKB20190830192511808/30/19 19:25:31  5-MIN KBKB 310125Z AUTO VRB04KT 10SM FEW047 FEW055 27/23 A2999 230 79 1700 VRB/04 RMK AO2 T02670228
53988KBKB BKB20190830193012008/30/19 19:30:31  5-MIN KBKB 310130Z AUTO VRB03KT 10SM TS FEW055 26/22 A3000 230 76 1600 VRB/03 RMK AO2 TSB29 T02610217
53988KBKB BKB20190830193511708/30/19 19:35:31  5-MIN KBKB 310135Z AUTO 00000KT 10SM TS CLR 26/22 A2999 230 76 1600 000/00 RMK AO2 TSB29 T02610217
53988KBKB BKB20190830194011708/30/19 19:40:31  5-MIN KBKB 310140Z AUTO VRB03KT 10SM TS CLR 26/21 A2999 230 76 1500 VRB/03 RMK AO2 TSB29 T02560211
53988KBKB BKB20190830194511708/30/19 19:45:31  5-MIN KBKB 310145Z AUTO 00000KT 10SM CLR 26/21 A2999 240 76 1600 000/00 RMK AO2 TSB29E44 T02560211
53988KBKB BKB20190830195012408/30/19 19:50:31  5-MIN KBKB 310150Z AUTO 00000KT 10SM CLR 26/21 A2998 240 76 1600 000/00 RMK AO2 TSB29E44 SLP178 T02560211
53988KBKB BKB20190830195510808/30/19 19:55:31  5-MIN KBKB 310155Z AUTO 00000KT 10SM CLR 26/21 A2998 240 76 1600 000/00 RMK AO2 T02560211
53988KBKB BKB20190830200010808/30/19 20:00:31  5-MIN KBKB 310200Z AUTO 00000KT 10SM CLR 25/22 A2998 240 81 1500 000/00 RMK AO2 T02500217
53988KBKB BKB20190830200510808/30/19 20:05:31  5-MIN KBKB 310205Z AUTO 00000KT 10SM CLR 25/22 A2998 240 81 1500 000/00 RMK AO2 T02500217
53988KBKB BKB20190830201010808/30/19 20:10:31  5-MIN KBKB 310210Z AUTO 00000KT 10SM CLR 25/22 A2997 250 81 1500 000/00 RMK AO2 T02500217
53988KBKB BKB20190830201510808/30/19 20:15:31  5-MIN KBKB 310215Z AUTO 00000KT 10SM CLR 24/22 A2997 250 84 1400 000/00 RMK AO2 T02440217
53988KBKB BKB20190830202010808/30/19 20:20:31  5-MIN KBKB 310220Z AUTO 00000KT 10SM CLR 24/22 A2997 250 84 1400 000/00 RMK AO2 T02440217
53988KBKB BKB20190830202510808/30/19 20:25:31  5-MIN KBKB 310225Z AUTO 00000KT 10SM CLR 24/22 A2998 240 84 1400 000/00 RMK AO2 T02440217
53988KBKB BKB20190830203010808/30/19 20:30:31  5-MIN KBKB 310230Z AUTO 00000KT 10SM CLR 24/22 A2998 240 84 1400 000/00 RMK AO2 T02440217
53988KBKB BKB20190830203510808/30/19 20:35:31  5-MIN KBKB 310235Z AUTO 00000KT 10SM CLR 24/22 A2998 240 90 1400 000/00 RMK AO2 T02390222
53988KBKB BKB20190830204010808/30/19 20:40:31  5-MIN KBKB 310240Z AUTO 00000KT 10SM CLR 24/22 A2998 240 87 1400 000/00 RMK AO2 T02390217
53988KBKB BKB20190830204510808/30/19 20:45:31  5-MIN KBKB 310245Z AUTO 00000KT 10SM CLR 24/22 A2998 240 87 1400 000/00 RMK AO2 T02390217
53988KBKB BKB20190830205012108/30/19 20:50:31  5-MIN KBKB 310250Z AUTO 00000KT 10SM CLR 24/22 A2998 250 87 1400 000/00 RMK AO2 SLP176 T02390217 53007
53988KBKB BKB20190830205510808/30/19 20:55:31  5-MIN KBKB 310255Z AUTO 00000KT 10SM CLR 24/22 A2998 250 87 1400 000/00 RMK AO2 T02390217
53988KBKB BKB20190830210010808/30/19 21:00:31  5-MIN KBKB 310300Z AUTO 00000KT 10SM CLR 24/22 A2998 250 87 1400 000/00 RMK AO2 T02390217
53988KBKB BKB20190830210510808/30/19 21:05:31  5-MIN KBKB 310305Z AUTO 00000KT 10SM CLR 24/22 A2998 250 87 1400 000/00 RMK AO2 T02390217
53988KBKB BKB20190830211010808/30/19 21:10:31  5-MIN KBKB 310310Z AUTO 00000KT 10SM CLR 24/22 A2998 250 87 1400 000/00 RMK AO2 T02390217
53988KBKB BKB20190830211510808/30/19 21:15:31  5-MIN KBKB 310315Z AUTO 00000KT 10SM CLR 24/21 A2998 240 84 1400 000/00 RMK AO2 T02390211
53988KBKB BKB20190830212010808/30/19 21:20:31  5-MIN KBKB 310320Z AUTO 00000KT 10SM CLR 24/21 A2998 240 84 1400 000/00 RMK AO2 T02390211
53988KBKB BKB20190830212510808/30/19 21:25:31  5-MIN KBKB 310325Z AUTO 00000KT 10SM CLR 24/21 A2998 240 84 1400 000/00 RMK AO2 T02390211
53988KBKB BKB20190830213010808/30/19 21:30:31  5-MIN KBKB 310330Z AUTO 00000KT 10SM CLR 24/21 A2998 240 84 1400 000/00 RMK AO2 T02390211
53988KBKB BKB20190830213510808/30/19 21:35:31  5-MIN KBKB 310335Z AUTO 00000KT 10SM CLR 23/22 A2998 240 90 1300 000/00 RMK AO2 T02330217
53988KBKB BKB20190830214010808/30/19 21:40:31  5-MIN KBKB 310340Z AUTO 00000KT 10SM CLR 23/22 A2998 240 90 1300 000/00 RMK AO2 T02330217
53988KBKB BKB20190830214510808/30/19 21:45:31  5-MIN KBKB 310345Z AUTO 00000KT 10SM CLR 23/22 A2998 240 90 1300 000/00 RMK AO2 T02330217
53988KBKB BKB20190830215011508/30/19 21:50:31  5-MIN KBKB 310350Z AUTO 00000KT 10SM CLR 23/22 A2998 240 90 1300 000/00 RMK AO2 SLP177 T02330217
53988KBKB BKB20190830215510808/30/19 21:55:31  5-MIN KBKB 310355Z AUTO 00000KT 10SM CLR 24/22 A2998 240 87 1400 000/00 RMK AO2 T02390217
53988KBKB BKB20190830220010808/30/19 22:00:31  5-MIN KBKB 310400Z AUTO 00000KT 10SM CLR 24/22 A2998 240 87 1400 000/00 RMK AO2 T02390217
53988KBKB BKB20190830220510808/30/19 22:05:31  5-MIN KBKB 310405Z AUTO 00000KT 10SM CLR 23/22 A2998 240 90 1300 000/00 RMK AO2 T02330217
53988KBKB BKB20190830221010808/30/19 22:10:31  5-MIN KBKB 310410Z AUTO 00000KT 10SM CLR 23/22 A2999 240 90 1300 000/00 RMK AO2 T02330217
53988KBKB BKB20190830221510808/30/19 22:15:31  5-MIN KBKB 310415Z AUTO 00000KT 10SM CLR 23/22 A2999 230 90 1300 000/00 RMK AO2 T02330217
53988KBKB BKB20190830222010808/30/19 22:20:31  5-MIN KBKB 310420Z AUTO 00000KT 10SM CLR 23/22 A2999 230 90 1300 000/00 RMK AO2 T02330217
53988KBKB BKB20190830222510808/30/19 22:25:31  5-MIN KBKB 310425Z AUTO 00000KT 10SM CLR 23/22 A2999 230 90 1300 000/00 RMK AO2 T02330217
53988KBKB BKB20190830223010808/30/19 22:30:31  5-MIN KBKB 310430Z AUTO 00000KT 10SM CLR 23/22 A2999 230 90 1300 000/00 RMK AO2 T02330217
53988KBKB BKB20190830223510808/30/19 22:35:31  5-MIN KBKB 310435Z AUTO 00000KT 10SM CLR 23/22 A2999 230 90 1300 000/00 RMK AO2 T02330217
53988KBKB BKB20190830224010808/30/19 22:40:31  5-MIN KBKB 310440Z AUTO 00000KT 10SM CLR 23/22 A2999 230 93 1200 000/00 RMK AO2 T02280217
53988KBKB BKB20190830224510808/30/19 22:45:31  5-MIN KBKB 310445Z AUTO 00000KT 10SM CLR 23/22 A2999 230 93 1200 000/00 RMK AO2 T02280217
53988KBKB BKB20190830225011508/30/19 22:50:31  5-MIN KBKB 310450Z AUTO 00000KT 10SM CLR 23/22 A3000 230 93 1200 000/00 RMK AO2 SLP183 T02280217
53988KBKB BKB20190830225510808/30/19 22:55:31  5-MIN KBKB 310455Z AUTO 00000KT 10SM CLR 23/22 A3000 230 93 1200 000/00 RMK AO2 T02280217
53988KBKB BKB20190830230010808/30/19 23:00:31  5-MIN KBKB 310500Z AUTO 00000KT 10SM CLR 23/22 A3000 230 93 1200 000/00 RMK AO2 T02280217
53988KBKB BKB20190830230510808/30/19 23:05:31  5-MIN KBKB 310505Z AUTO 00000KT 10SM CLR 23/22 A3000 220 93 1200 000/00 RMK AO2 T02280217
53988KBKB BKB20190830231010808/30/19 23:10:31  5-MIN KBKB 310510Z AUTO 00000KT 10SM CLR 23/22 A3000 220 93 1200 000/00 RMK AO2 T02280217
53988KBKB BKB20190830231510808/30/19 23:15:31  5-MIN KBKB 310515Z AUTO 00000KT 10SM CLR 23/22 A3001 220 93 1200 000/00 RMK AO2 T02280217
53988KBKB BKB20190830232010808/30/19 23:20:31  5-MIN KBKB 310520Z AUTO 00000KT 10SM CLR 23/22 A3001 220 93 1200 000/00 RMK AO2 T02280217
53988KBKB BKB20190830232510808/30/19 23:25:31  5-MIN KBKB 310525Z AUTO 00000KT 10SM CLR 23/22 A3000 220 93 1200 000/00 RMK AO2 T02280217
53988KBKB BKB20190830233010808/30/19 23:30:31  5-MIN KBKB 310530Z AUTO 00000KT 10SM CLR 23/22 A3000 220 93 1200 000/00 RMK AO2 T02280217
53988KBKB BKB20190830233510808/30/19 23:35:31  5-MIN KBKB 310535Z AUTO 00000KT 10SM CLR 23/22 A3001 220 93 1200 000/00 RMK AO2 T02280217
53988KBKB BKB20190830234010808/30/19 23:40:31  5-MIN KBKB 310540Z AUTO 00000KT 10SM CLR 23/22 A3001 220 93 1200 000/00 RMK AO2 T02280217
53988KBKB BKB20190830234510808/30/19 23:45:31  5-MIN KBKB 310545Z AUTO 00000KT 10SM CLR 23/22 A3000 220 93 1200 000/00 RMK AO2 T02280217
53988KBKB BKB20190830235014308/30/19 23:50:31  5-MIN KBKB 310550Z AUTO 00000KT 10SM CLR 23/21 A3000 220 90 1200 000/00 RMK AO2 SLP184 T02280211 10289 20228 403500222 56003
53988KBKB BKB20190830235510808/30/19 23:55:31  5-MIN KBKB 310555Z AUTO 00000KT 10SM CLR 23/22 A3000 220 93 1200 000/00 RMK AO2 T02280217
53988KBKB BKB20190831000010808/31/19 00:00:31  5-MIN KBKB 310600Z AUTO 00000KT 10SM CLR 23/22 A3000 220 93 1200 000/00 RMK AO2 T02280217
53988KBKB BKB20190831000510808/31/19 00:05:31  5-MIN KBKB 310605Z AUTO 00000KT 10SM CLR 22/21 A3000 220 93 1200 000/00 RMK AO2 T02220211
53988KBKB BKB20190831001010708/31/19 00:10:31  5-MIN KBKB 310610Z AUTO 00000KT 9SM CLR 22/21 A3000 220 93 1200 000/00 RMK AO2 T02220211
53988KBKB BKB20190831001510708/31/19 00:15:31  5-MIN KBKB 310615Z AUTO 00000KT 9SM CLR 22/21 A3000 220 93 1200 000/00 RMK AO2 T02220211
53988KBKB BKB20190831002010708/31/19 00:20:31  5-MIN KBKB 310620Z AUTO 00000KT 9SM CLR 22/21 A3000 220 93 1200 000/00 RMK AO2 T02220211
53988KBKB BKB20190831002510708/31/19 00:25:31  5-MIN KBKB 310625Z AUTO 00000KT 9SM CLR 22/21 A3000 220 93 1200 000/00 RMK AO2 T02220211
53988KBKB BKB20190831003010708/31/19 00:30:31  5-MIN KBKB 310630Z AUTO 00000KT 8SM CLR 22/21 A3000 220 93 1200 000/00 RMK AO2 T02220211
53988KBKB BKB20190831003510708/31/19 00:35:31  5-MIN KBKB 310635Z AUTO 00000KT 7SM CLR 22/21 A3000 220 93 1200 000/00 RMK AO2 T02220211
53988KBKB BKB20190831004010708/31/19 00:40:31  5-MIN KBKB 310640Z AUTO 00000KT 7SM CLR 22/21 A3000 220 93 1200 000/00 RMK AO2 T02220211
53988KBKB BKB20190831004510708/31/19 00:45:31  5-MIN KBKB 310645Z AUTO 00000KT 7SM CLR 22/21 A3001 220 93 1200 000/00 RMK AO2 T02220211
53988KBKB BKB20190831005011408/31/19 00:50:31  5-MIN KBKB 310650Z AUTO 00000KT 8SM CLR 22/21 A3001 220 93 1100 000/00 RMK AO2 SLP186 T02220211
53988KBKB BKB20190831005510708/31/19 00:55:31  5-MIN KBKB 310655Z AUTO 00000KT 8SM CLR 22/21 A3001 220 93 1100 000/00 RMK AO2 T02220211
53988KBKB BKB20190831010010708/31/19 01:00:31  5-MIN KBKB 310700Z AUTO 00000KT 8SM CLR 22/21 A3001 220 93 1200 000/00 RMK AO2 T02220211
53988KBKB BKB20190831010510708/31/19 01:05:31  5-MIN KBKB 310705Z AUTO 00000KT 8SM CLR 22/21 A3000 220 93 1200 000/00 RMK AO2 T02220211
53988KBKB BKB20190831011009508/31/19 01:10:31  5-MIN KBKB 310710Z AUTO 00000KT 8SM CLR 22/21 A3000 220 90 RMK AO2 T02220211
53988KBKB BKB20190831015011408/31/19 01:50:31  5-MIN KBKB 310750Z AUTO 00000KT 7SM CLR 22/21 A3000 220 97 1100 000/00 RMK AO2 SLP185 T02170211
53988KBKB BKB20190831015511008/31/19 01:55:31  5-MIN KBKB 310755Z AUTO 00000KT 6SM BR CLR 22/21 A3000 220 93 1200 000/00 RMK AO2 T02220211
53988KBKB BKB20190831020011008/31/19 02:00:31  5-MIN KBKB 310800Z AUTO 00000KT 6SM BR CLR 22/21 A3000 220 97 1100 000/00 RMK AO2 T02170211
53988KBKB BKB20190831020511008/31/19 02:05:31  5-MIN KBKB 310805Z AUTO 00000KT 6SM BR CLR 22/21 A3000 220 93 1200 000/00 RMK AO2 T02220211
53988KBKB BKB20190831021011008/31/19 02:10:31  5-MIN KBKB 310810Z AUTO 00000KT 6SM BR CLR 22/21 A3001 220 97 1100 000/00 RMK AO2 T02170211
53988KBKB BKB20190831021511008/31/19 02:15:31  5-MIN KBKB 310815Z AUTO 00000KT 6SM BR CLR 22/21 A3001 220 97 1100 000/00 RMK AO2 T02170211
53988KBKB BKB20190831022005408/31/19 02:20:31  5-MIN KBKB 310820Z AUTAO2 T02220211
53988KBKB BKB20190831022010708/31/19 02:20:31  5-MIN KBKB 310820Z AUTO 00000KT 7SM CLR 22/21 A3000 220 97 1100 000/00 RMK AO2 T02170211
53988KBKB BKB20190831022510708/31/19 02:25:31  5-MIN KBKB 310825Z AUTO 00000KT 7SM CLR 22/21 A3000 220 97 1100 000/00 RMK AO2 T02170211
53988KBKB BKB20190831023010708/31/19 02:30:31  5-MIN KBKB 310830Z AUTO 00000KT 7SM CLR 22/21 A3000 220 97 1100 000/00 RMK AO2 T02170211
53988KBKB BKB20190831023511008/31/19 02:35:31  5-MIN KBKB 310835Z AUTO 00000KT 6SM BR CLR 22/21 A3000 230 97 1100 000/00 RMK AO2 T02170211
53988KBKB BKB20190831024011008/31/19 02:40:31  5-MIN KBKB 310840Z AUTO 00000KT 6SM BR CLR 22/21 A3000 230 97 1100 000/00 RMK AO2 T02170211
53988KBKB BKB20190831024511008/31/19 02:45:31  5-MIN KBKB 310845Z AUTO 00000KT 6SM BR CLR 22/21 A3000 230 97 1100 000/00 RMK AO2 T02170211
53988KBKB BKB20190831025012308/31/19 02:50:31  5-MIN KBKB 310850Z AUTO 00000KT 6SM BR CLR 22/21 A3000 220 97 1100 000/00 RMK AO2 SLP184 T02170211 53008
53988KBKB BKB20190831025511008/31/19 02:55:31  5-MIN KBKB 310855Z AUTO 00000KT 6SM BR CLR 22/21 A3000 220 97 1100 000/00 RMK AO2 T02170211
53988KBKB BKB20190831030011008/31/19 03:00:31  5-MIN KBKB 310900Z AUTO 00000KT 5SM BR CLR 22/21 A3000 230 97 1100 000/00 RMK AO2 T02170211
53988KBKB BKB20190831030511008/31/19 03:05:31  5-MIN KBKB 310905Z AUTO 00000KT 5SM BR CLR 22/21 A3000 230 97 1100 000/00 RMK AO2 T02170211
53988KBKB BKB20190831031011008/31/19 03:10:31  5-MIN KBKB 310910Z AUTO 00000KT 6SM BR CLR 22/21 A3000 230 97 1100 000/00 RMK AO2 T02170211
53988KBKB BKB20190831031511008/31/19 03:15:31  5-MIN KBKB 310915Z AUTO 00000KT 6SM BR CLR 22/21 A3000 230 97 1100 000/00 RMK AO2 T02170211
53988KBKB BKB20190831032011008/31/19 03:20:31  5-MIN KBKB 310920Z AUTO 00000KT 5SM BR CLR 22/21 A3000 230 97 1100 000/00 RMK AO2 T02170211
53988KBKB BKB20190831032511008/31/19 03:25:31  5-MIN KBKB 310925Z AUTO 00000KT 5SM BR CLR 22/21 A3000 230 93 1100 000/00 RMK AO2 T02170206
53988KBKB BKB20190831033011008/31/19 03:30:31  5-MIN KBKB 310930Z AUTO 00000KT 5SM BR CLR 22/21 A3000 220 97 1100 000/00 RMK AO2 T02170211
53988KBKB BKB20190831033511008/31/19 03:35:31  5-MIN KBKB 310935Z AUTO 00000KT 5SM BR CLR 22/21 A3000 230 93 1100 000/00 RMK AO2 T02170206
53988KBKB BKB20190831034011008/31/19 03:40:31  5-MIN KBKB 310940Z AUTO 00000KT 4SM BR CLR 22/21 A3000 230 93 1100 000/00 RMK AO2 T02170206
53988KBKB BKB20190831034511008/31/19 03:45:31  5-MIN KBKB 310945Z AUTO 00000KT 5SM BR CLR 22/21 A3000 230 93 1100 000/00 RMK AO2 T02170206
53988KBKB BKB20190831035011708/31/19 03:50:31  5-MIN KBKB 310950Z AUTO 00000KT 5SM BR CLR 22/21 A3000 220 93 1100 000/00 RMK AO2 SLP184 T02170206
53988KBKB BKB20190831035511008/31/19 03:55:31  5-MIN KBKB 310955Z AUTO 00000KT 5SM BR CLR 22/21 A3000 220 93 1100 000/00 RMK AO2 T02170206
53988KBKB BKB20190831040011008/31/19 04:00:31  5-MIN KBKB 311000Z AUTO 00000KT 5SM BR CLR 22/21 A3000 220 93 1100 000/00 RMK AO2 T02170206
53988KBKB BKB20190831040511908/31/19 04:05:31  5-MIN KBKB 311005Z AUTO 00000KT 5SM BR CLR 22/21 A3000 220 93 1100 000/00 RMK AO2 T0217020608/370206
53988KBKB BKB20190831054011008/31/19 05:40:31  5-MIN KBKB 311140Z AUTO 00000KT 4SM BR CLR 22/21 A3001 210 97 1100 000/00 RMK AO2 T02170211
53988KBKB BKB20190831064011008/31/19 06:40:31  5-MIN KBKB 311240Z AUTO 00000KT 5SM BR CLR 22/22 A3002 210 97 1100 000/00 RMK AO2 T02220217
53988KBKB BKB20190831064511008/31/19 06:45:31  5-MIN KBKB 311245Z AUTO 00000KT 6SM BR CLR 23/22 A3002 210 93 1200 000/00 RMK AO2 T02280217
53988KBKB BKB20190831065011408/31/19 06:50:31  5-MIN KBKB 311250Z AUTO 00000KT 7SM CLR 23/22 A3002 210 93 1300 000/00 RMK AO2 SLP190 T02330222
53988KBKB BKB20190831065510708/31/19 06:55:31  5-MIN KBKB 311255Z AUTO 00000KT 8SM CLR 24/23 A3002 210 93 1300 000/00 RMK AO2 T02390228
53988KBKB BKB20190831070010708/31/19 07:00:31  5-MIN KBKB 311300Z AUTO 00000KT 8SM CLR 24/23 A3002 210 93 1300 000/00 RMK AO2 T02390228
53988KBKB BKB20190831070510708/31/19 07:05:31  5-MIN KBKB 311305Z AUTO 00000KT 9SM CLR 24/23 A3002 210 93 1400 000/00 RMK AO2 T02440233
53988KBKB BKB20190831071010708/31/19 07:10:31  5-MIN KBKB 311310Z AUTO 00000KT 9SM CLR 25/23 A3002 210 90 1500 000/00 RMK AO2 T02500233
53988KBKB BKB20190831071510808/31/19 07:15:31  5-MIN KBKB 311315Z AUTO 00000KT 10SM CLR 26/23 A3002 200 87 1500 000/00 RMK AO2 T02560233
53988KBKB BKB20190831072010808/31/19 07:20:31  5-MIN KBKB 311320Z AUTO 00000KT 10SM CLR 26/24 A3002 200 87 1600 000/00 RMK AO2 T02610239
53988KBKB BKB20190831072510808/31/19 07:25:31  5-MIN KBKB 311325Z AUTO 00000KT 10SM CLR 27/24 A3003 200 84 1600 000/00 RMK AO2 T02670239
53988KBKB BKB20190831073010808/31/19 07:30:31  5-MIN KBKB 311330Z AUTO 00000KT 10SM CLR 27/23 A3003 200 82 1600 000/00 RMK AO2 T02670233
53988KBKB BKB20190831073510808/31/19 07:35:31  5-MIN KBKB 311335Z AUTO 00000KT 10SM CLR 27/23 A3003 200 82 1600 000/00 RMK AO2 T02670233
53988KBKB BKB20190831074010808/31/19 07:40:31  5-MIN KBKB 311340Z AUTO 00000KT 10SM CLR 27/24 A3003 200 82 1700 000/00 RMK AO2 T02720239
53988KBKB BKB20190831074510808/31/19 07:45:31  5-MIN KBKB 311345Z AUTO 00000KT 10SM CLR 27/23 A3003 200 79 1700 000/00 RMK AO2 T02720233
53988KBKB BKB20190831075011508/31/19 07:50:31  5-MIN KBKB 311350Z AUTO 00000KT 10SM CLR 28/24 A3003 200 79 1800 000/00 RMK AO2 SLP194 T02780239
53988KBKB BKB20190831075510808/31/19 07:55:31  5-MIN KBKB 311355Z AUTO 00000KT 10SM CLR 28/24 A3003 200 79 1800 000/00 RMK AO2 T02780239
53988KBKB BKB20190831080010808/31/19 08:00:31  5-MIN KBKB 311400Z AUTO 00000KT 10SM CLR 28/23 A3003 200 74 1800 000/00 RMK AO2 T02830233
53988KBKB BKB20190831080510808/31/19 08:05:31  5-MIN KBKB 311405Z AUTO 00000KT 10SM CLR 28/23 A3003 200 74 1800 000/00 RMK AO2 T02830233
53988KBKB BKB20190831081010808/31/19 08:10:31  5-MIN KBKB 311410Z AUTO 00000KT 10SM CLR 29/23 A3003 200 71 1900 000/00 RMK AO2 T02890233
53988KBKB BKB20190831081515408/31/19 08:15:31  5-MIN KBKB 311415Z AUTO 00000KT 10SM CLR 29/24 A3003 200 311440Z AUTO VRB03KT 10SM CLR 29/23 A3003 200 69 1900 VRB/03 RMK AO2 T02940233
53988KBKB BKB20190831084510808/31/19 08:45:31  5-MIN KBKB 311445Z AUTO 00000KT 10SM CLR 30/23 A3002 200 67 2000 000/00 RMK AO2 T03000233
53988KBKB BKB20190831085012108/31/19 08:50:31  5-MIN KBKB 311450Z AUTO 00000KT 10SM CLR 30/23 A3002 200 67 2000 000/00 RMK AO2 SLP191 T03000233 53004
53988KBKB BKB20190831085509608/31/19 08:55:31  5-MIN KBKB 311455Z AUTO 00000KT 10SM CLR 31/23 A3002 200 65 2MK AO2 T03110217
53988KBKB BKB20190831104011108/31/19 10:40:31  5-MIN KBKB 311640Z AUTO 00000KT 10SM BKN038 31/22 A3003 200 56 2100 000/00 RMK AO2 T03110217
53988KBKB BKB20190831104511108/31/19 10:45:31  5-MIN KBKB 311645Z AUTO 00000KT 10SM BKN040 31/23 A3002 200 62 2100 000/00 RMK AO2 T03060228
53988KBKB BKB20190831105011808/31/19 10:50:31  5-MIN KBKB 311650Z AUTO 00000KT 10SM OVC040 30/23 A3002 200 65 2000 000/00 RMK AO2 SLP192 T03000228
53988KBKB BKB20190831154511108/31/19 15:45:31  5-MIN KBKB 312145Z AUTO VRB04KT 10SM FEW055 34/22 A2995 270 48 2500 VRB/04 RMK AO2 T03390217
53988KBKB BKB20190831155011808/31/19 15:50:31  5-MIN KBKB 312150Z AUTO VRB03KT 10SM FEW055 34/21 A2995 270 46 2500 VRB/03 RMK AO2 SLP167 T03390211
53988KBKB BKB20190831155511108/31/19 15:55:31  5-MIN KBKB 312155Z AUTO 00000KT 10SM FEW055 33/21 A2995 270 48 2500 000/00 RMK AO2 T03330211
53988KBKB BKB20190831160011108/31/19 16:00:31  5-MIN KBKB 312200Z AUTO VRB03KT 10SM FEW055 33/21 A2995 270 49 2400 VRB/03 RMK AO2 T03280211
53988KBKB BKB20190831160511108/31/19 16:05:31  5-MIN KBKB 312205Z AUTO 00000KT 10SM FEW055 33/21 A2995 270 46 2500 000/00 RMK AO2 T03330206
53988KBKB BKB20190831161010808/31/19 16:10:31  5-MIN KBKB 312210Z AUTO 00000KT 10SM CLR 33/22 A2995 270 50 2500 000/00 RMK AO2 T03330217
53988KBKB BKB20190831161510808/31/19 16:15:31  5-MIN KBKB 312215Z AUTO 00000KT 10SM CLR 33/22 A2995 270 50 2500 000/00 RMK AO2 T03330217
53988KBKB BKB20190831162010808/31/19 16:20:31  5-MIN KBKB 312220Z AUTO VRB03KT 10SM CLR 33/22 A2994 280 50 2500 VRB/03 RMK AO2 T03330217
53988KBKB BKB20190831162510808/31/19 16:25:31  5-MIN KBKB 312225Z AUTO VRB04KT 10SM CLR 33/21 A2994 280 48 2500 VRB/04 RMK AO2 T03330211
53988KBKB BKB20190831163010808/31/19 16:30:31  5-MIN KBKB 312230Z AUTO 00000KT 10SM CLR 33/22 A2994 280 50 2500 000/00 RMK AO2 T03330217
53988KBKB BKB20190831163510808/31/19 16:35:31  5-MIN KBKB 312235Z AUTO 00000KT 10SM CLR 33/21 A2994 280 48 2500 000/00 RMK AO2 T03330211
53988KBKB BKB20190831164010808/31/19 16:40:31  5-MIN KBKB 312240Z AUTO VRB03KT 10SM CLR 33/22 A2994 280 50 2500 VRB/03 RMK AO2 T03330217
53988KBKB BKB20190831164510808/31/19 16:45:31  5-MIN KBKB 312245Z AUTO VRB03KT 10SM CLR 33/22 A2994 280 51 2400 VRB/03 RMK AO2 T03280217
53988KBKB BKB20190831165011508/31/19 16:50:31  5-MIN KBKB 312250Z AUTO VRB04KT 10SM CLR 33/21 A2994 280 49 2400 VRB/04 RMK AO2 SLP163 T03280211
53988KBKB BKB20190831165510808/31/19 16:55:31  5-MIN KBKB 312255Z AUTO 00000KT 10SM CLR 33/21 A2994 280 49 2400 000/00 RMK AO2 T03280211
53988KBKB BKB20190831170010808/31/19 17:00:31  5-MIN KBKB 312300Z AUTO 00000KT 10SM CLR 33/21 A2994 280 49 2400 000/00 RMK AO2 T03280211
53988KBKB BKB20190831170510808/31/19 17:05:31  5-MIN KBKB 312305Z AUTO 00000KT 10SM CLR 32/22 A2994 280 53 2300 000/00 RMK AO2 T03220217
53988KBKB BKB20190831171010808/31/19 17:10:31  5-MIN KBKB 312310Z AUTO 00000KT 10SM CLR 32/22 A2994 280 53 2300 000/00 RMK AO2 T03220217
53988KBKB BKB20190831171510808/31/19 17:15:31  5-MIN KBKB 312315Z AUTO 00000KT 10SM CLR 32/22 A2994 280 55 2300 000/00 RMK AO2 T03170217
53988KBKB BKB20190831172010808/31/19 17:20:31  5-MIN KBKB 312320Z AUTO 00000KT 10SM CLR 32/22 A2994 280 55 2300 000/00 RMK AO2 T03170217
53988KBKB BKB20190831172510808/31/19 17:25:31  5-MIN KBKB 312325Z AUTO 00000KT 10SM CLR 31/22 A2994 280 56 2200 000/00 RMK AO2 T03110217
53988KBKB BKB20190831173010808/31/19 17:30:31  5-MIN KBKB 312330Z AUTO 00000KT 10SM CLR 30/22 A2995 280 62 2100 000/00 RMK AO2 T03000222
53988KBKB BKB20190831173510808/31/19 17:35:31  5-MIN KBKB 312335Z AUTO 00000KT 10SM CLR 29/22 A2995 270 64 2000 000/00 RMK AO2 T02940222
53988KBKB BKB20190831174010808/31/19 17:40:31  5-MIN KBKB 312340Z AUTO 00000KT 10SM CLR 29/22 A2995 280 62 2000 000/00 RMK AO2 T02940217
53988KBKB BKB20190831174510808/31/19 17:45:31  5-MIN KBKB 312345Z AUTO 00000KT 10SM CLR 28/22 A2994 280 69 1900 000/00 RMK AO2 T02830222
53988KBKB BKB20190831175012308/31/19 17:50:31  5-MIN KBKB 312350Z AUTO 10SM CLR 28/22 A2995 270 69 1900 M /M RMK AO2 SLP165 T02830222 10350 20283 57019
53988KBKB BKB20190831175510808/31/19 17:55:31  5-MIN KBKB 312355Z AUTO 00000KT 10SM CLR 28/22 A2995 270 71 1800 000/00 RMK AO2 T02780222
53988KBKB BKB20190831180010808/31/19 18:00:31  5-MIN KBKB 010000Z AUTO 00000KT 10SM CLR 28/22 A2995 270 71 1800 000/00 RMK AO2 T02780222
53988KBKB BKB20190831180510808/31/19 18:05:31  5-MIN KBKB 010005Z AUTO 00000KT 10SM CLR 28/23 A2995 270 74 1800 000/00 RMK AO2 T02780228
53988KBKB BKB20190831181010808/31/19 18:10:31  5-MIN KBKB 010010Z AUTO 00000KT 10SM CLR 28/23 A2995 270 74 1800 000/00 RMK AO2 T02780228
53988KBKB BKB20190831181510808/31/19 18:15:31  5-MIN KBKB 010015Z AUTO 00000KT 10SM CLR 27/23 A2995 270 79 1800 000/00 RMK AO2 T02720233
53988KBKB BKB20190831182010808/31/19 18:20:31  5-MIN KBKB 010020Z AUTO 00000KT 10SM CLR 27/23 A2995 270 76 1800 000/00 RMK AO2 T02720228
53988KBKB BKB20190831182510808/31/19 18:25:31  5-MIN KBKB 010025Z AUTO 00000KT 10SM CLR 27/22 A2995 270 74 1800 000/00 RMK AO2 T02720222
53988KBKB BKB20190831183010808/31/19 18:30:31  5-MIN KBKB 010030Z AUTO 00000KT 10SM CLR 27/23 A2995 270 79 1700 000/00 RMK AO2 T02670228
53988KBKB BKB20190831183510808/31/19 18:35:31  5-MIN KBKB 010035Z AUTO 00000KT 10SM CLR 27/23 A2995 270 79 1700 000/00 RMK AO2 T02670228
53988KBKB BKB20190831184010808/31/19 18:40:31  5-MIN KBKB 010040Z AUTO 00000KT 10SM CLR 27/23 A2996 270 79 1700 000/00 RMK AO2 T02670228
53988KBKB BKB20190831184510808/31/19 18:45:31  5-MIN KBKB 010045Z AUTO 00000KT 10SM CLR 27/23 A2996 260 79 1700 000/00 RMK AO2 T02670228
53988KBKB BKB20190831185011508/31/19 18:50:31  5-MIN KBKB 010050Z AUTO 00000KT 10SM CLR 27/23 A2996 260 79 1700 000/00 RMK AO2 SLP170 T02670228
53988KBKB BKB20190831185510808/31/19 18:55:31  5-MIN KBKB 010055Z AUTO 00000KT 10SM CLR 26/23 A2996 260 81 1600 000/00 RMK AO2 T02610228
53988KBKB BKB20190831190010808/31/19 19:00:31  5-MIN KBKB 010100Z AUTO 00000KT 10SM CLR 26/23 A2996 260 81 1600 000/00 RMK AO2 T02610228
53988KBKB BKB20190831190510808/31/19 19:05:31  5-MIN KBKB 010105Z AUTO 00000KT 10SM CLR 26/23 A2996 260 81 1600 000/00 RMK AO2 T02610228
53988KBKB BKB20190831191010808/31/19 19:10:31  5-MIN KBKB 010110Z AUTO 00000KT 10SM CLR 26/23 A2996 260 81 1600 000/00 RMK AO2 T02610228
53988KBKB BKB20190831191510808/31/19 19:15:31  5-MIN KBKB 010115Z AUTO 00000KT 10SM CLR 26/23 A2996 260 81 1600 000/00 RMK AO2 T02610228
53988KBKB BKB20190831192010808/31/19 19:20:31  5-MIN KBKB 010120Z AUTO 00000KT 10SM CLR 26/23 A2996 260 84 1600 000/00 RMK AO2 T02560228
53988KBKB BKB20190831192510808/31/19 19:25:31  5-MIN KBKB 010125Z AUTO 00000KT 10SM CLR 26/23 A2996 260 84 1600 000/00 RMK AO2 T02560228
53988KBKB BKB20190831193010808/31/19 19:30:31  5-MIN KBKB 010130Z AUTO 00000KT 10SM CLR 26/23 A2997 260 84 1600 000/00 RMK AO2 T02560228
53988KBKB BKB20190831193510808/31/19 19:35:31  5-MIN KBKB 010135Z AUTO 00000KT 10SM CLR 26/23 A2997 250 84 1600 000/00 RMK AO2 T02560228
53988KBKB BKB20190831194010808/31/19 19:40:31  5-MIN KBKB 010140Z AUTO 00000KT 10SM CLR 25/23 A2997 250 87 1500 000/00 RMK AO2 T02500228
53988KBKB BKB20190831194510808/31/19 19:45:31  5-MIN KBKB 010145Z AUTO 00000KT 10SM CLR 25/23 A2997 250 87 1500 000/00 RMK AO2 T02500228
53988KBKB BKB20190831195011508/31/19 19:50:31  5-MIN KBKB 010150Z AUTO 00000KT 10SM CLR 26/22 A2997 250 81 1600 000/00 RMK AO2 SLP175 T02560222
53988KBKB BKB20190831195511108/31/19 19:55:31  5-MIN KBKB 010155Z AUTO 00000KT 10SM FEW055 26/22 A2998 250 81 1600 000/00 RMK AO2 T02560222
53988KBKB BKB20190831200011108/31/19 20:00:31  5-MIN KBKB 010200Z AUTO 00000KT 10SM SCT055 26/23 A2998 240 84 1600 000/00 RMK AO2 T02560228
53988KBKB BKB20190831200511108/31/19 20:05:31  5-MIN KBKB 010205Z AUTO 00000KT 10SM BKN055 26/23 A2998 240 87 1600 000/00 RMK AO2 T02560233
53988KBKB BKB20190831201011108/31/19 20:10:31  5-MIN KBKB 010210Z AUTO 00000KT 10SM BKN055 26/23 A2998 240 87 1600 000/00 RMK AO2 T02560233
53988KBKB BKB20190831201511108/31/19 20:15:31  5-MIN KBKB 010215Z AUTO 00000KT 10SM BKN055 26/23 A2998 240 87 1600 000/00 RMK AO2 T02560233
53988KBKB BKB20190831202011108/31/19 20:20:31  5-MIN KBKB 010220Z AUTO 00000KT 10SM BKN055 26/23 A2999 240 87 1600 000/00 RMK AO2 T02560233
53988KBKB BKB20190831202511108/31/19 20:25:31  5-MIN KBKB 010225Z AUTO 00000KT 10SM BKN055 26/23 A2999 240 87 1600 000/00 RMK AO2 T02560233
53988KBKB BKB20190831203011108/31/19 20:30:31  5-MIN KBKB 010230Z AUTO 00000KT 10SM BKN055 26/23 A2999 240 87 1600 000/00 RMK AO2 T02560233
53988KBKB BKB20190831203511108/31/19 20:35:31  5-MIN KBKB 010235Z AUTO 00000KT 10SM BKN055 26/23 A2999 230 84 1500 000/00 RMK AO2 T02560228
53988KBKB BKB20190831204011108/31/19 20:40:31  5-MIN KBKB 010240Z AUTO 00000KT 10SM BKN060 26/23 A2999 230 84 1500 000/00 RMK AO2 T02560228
53988KBKB BKB20190831204511108/31/19 20:45:31  5-MIN KBKB 010245Z AUTO 00000KT 10SM BKN060 26/23 A2999 230 84 1500 000/00 RMK AO2 T02560228
53988KBKB BKB20190831205012408/31/19 20:50:31  5-MIN KBKB 010250Z AUTO 00000KT 10SM SCT060 25/23 A2999 240 87 1500 000/00 RMK AO2 SLP180 T02500228 55003
53988KBKB BKB20190831205511108/31/19 20:55:31  5-MIN KBKB 010255Z AUTO 00000KT 10SM FEW060 25/22 A2999 230 84 1500 000/00 RMK AO2 T02500222
53988KBKB BKB20190831210011108/31/19 21:00:31  5-MIN KBKB 010300Z AUTO 00000KT 10SM FEW060 25/22 A2999 230 84 1500 000/00 RMK AO2 T02500222
53988KBKB BKB20190831210511108/31/19 21:05:31  5-MIN KBKB 010305Z AUTO 00000KT 10SM FEW060 25/22 A2999 230 84 1500 000/00 RMK AO2 T02500222
53988KBKB BKB20190831211010808/31/19 21:10:31  5-MIN KBKB 010310Z AUTO 00000KT 10SM CLR 25/23 A2999 230 87 1500 000/00 RMK AO2 T02500228
53988KBKB BKB20190831211510808/31/19 21:15:31  5-MIN KBKB 010315Z AUTO 00000KT 10SM CLR 25/23 A2999 230 87 1500 000/00 RMK AO2 T02500228
53988KBKB BKB20190831212010808/31/19 21:20:31  5-MIN KBKB 010320Z AUTO 00000KT 10SM CLR 25/23 A2999 230 87 1500 000/00 RMK AO2 T02500228
53988KBKB BKB20190831212510808/31/19 21:25:31  5-MIN KBKB 010325Z AUTO 00000KT 10SM CLR 25/23 A2999 230 87 1500 000/00 RMK AO2 T02500228
53988KBKB BKB20190831213010808/31/19 21:30:31  5-MIN KBKB 010330Z AUTO 00000KT 10SM CLR 25/22 A2999 230 84 1500 000/00 RMK AO2 T02500222
53988KBKB BKB20190831213510808/31/19 21:35:31  5-MIN KBKB 010335Z AUTO 00000KT 10SM CLR 24/22 A2999 230 87 1400 000/00 RMK AO2 T02440222
53988KBKB BKB20190831214010808/31/19 21:40:31  5-MIN KBKB 010340Z AUTO 00000KT 10SM CLR 24/23 A2999 230 90 1400 000/00 RMK AO2 T02440228
53988KBKB BKB20190831214510808/31/19 21:45:31  5-MIN KBKB 010345Z AUTO 00000KT 10SM CLR 24/23 A2999 230 90 1400 000/00 RMK AO2 T02440228
53988KBKB BKB20190831215011508/31/19 21:50:31  5-MIN KBKB 010350Z AUTO 00000KT 10SM CLR 24/23 A2999 230 90 1400 000/00 RMK AO2 SLP180 T02440228
53988KBKB BKB20190831215510808/31/19 21:55:31  5-MIN KBKB 010355Z AUTO 00000KT 10SM CLR 24/23 A2999 230 90 1400 000/00 RMK AO2 T02440228
53988KBKB BKB20190831220010808/31/19 22:00:31  5-MIN KBKB 010400Z AUTO 00000KT 10SM CLR 24/23 A2999 230 90 1400 000/00 RMK AO2 T02440228
53988KBKB BKB20190831220509908/31/19 22:05:31  5-MIN KBKB 010405Z AUTO 00000KT 10SM CLR 24/22 A2999 230 90 1400 000/9 T02330222
53988KBKB BKB20190831225510808/31/19 22:55:31  5-MIN KBKB 010455Z AUTO 00000KT 10SM CLR 23/22 A2999 240 93 1300 000/00 RMK AO2 T02330222
53988KBKB BKB20190831230010808/31/19 23:00:31  5-MIN KBKB 010500Z AUTO 00000KT 10SM CLR 23/22 A2999 240 93 1300 000/00 RMK AO2 T02330222
53988KBKB BKB20190831230510808/31/19 23:05:31  5-MIN KBKB 010505Z AUTO 00000KT 10SM CLR 23/22 A2999 230 93 1300 000/00 RMK AO2 T02330222
53988KBKB BKB20190831231010808/31/19 23:10:31  5-MIN KBKB 010510Z AUTO 00000KT 10SM CLR 23/22 A2999 240 93 1300 000/00 RMK AO2 T02330222
53988KBKB BKB20190831231510808/31/19 23:15:31  5-MIN KBKB 010515Z AUTO 00000KT 10SM CLR 23/22 A2999 240 90 1300 000/00 RMK AO2 T02330217
53988KBKB BKB20190831232010808/31/19 23:20:31  5-MIN KBKB 010520Z AUTO 00000KT 10SM CLR 23/22 A2999 240 90 1300 000/00 RMK AO2 T02330217
53988KBKB BKB20190831232016808/31/19 23:20:31  5-MIN KBKB 010520Z AUTO 00000KT 10SM CLR 23/22 A2999 240 90 1300 000/00 RMK AO2 T0233021708/31/19 2R 23/22 A2999 240 93 1300 000/00 RMK AO2 T02330222
53988KBKB BKB20190831232510808/31/19 23:25:31  5-MIN KBKB 010525Z AUTO 00000KT 10SM CLR 23/22 A2999 240 90 1300 000/00 RMK AO2 T02330217
53988KBKB BKB20190831233010808/31/19 23:30:31  5-MIN KBKB 010530Z AUTO 00000KT 10SM CLR 23/22 A2999 240 90 1300 000/00 RMK AO2 T02330217
53988KBKB BKB20190831233010808/31/19 23:30:31  5-MIN KBKB 010530Z AUTO 00000KT 10SM CLR 23/22 A2999 240 93 1300 000/00 RMK AO2 T02330222
53988KBKB BKB20190831233510808/31/19 23:35:31  5-MIN KBKB 010535Z AUTO 00000KT 10SM CLR 23/22 A2999 240 93 1300 000/00 RMK AO2 T02330222
53988KBKB BKB20190831234010808/31/19 23:40:31  5-MIN KBKB 010540Z AUTO 00000KT 10SM CLR 23/22 A2999 230 90 1300 000/00 RMK AO2 T02330217
53988KBKB BKB20190831234510808/31/19 23:45:31  5-MIN KBKB 010545Z AUTO 00000KT 10SM CLR 23/22 A2999 240 90 1300 000/00 RMK AO2 T02330217
53988KBKB BKB20190831235014308/31/19 23:50:31  5-MIN KBKB 010550Z AUTO 00000KT 10SM CLR 23/22 A2999 240 90 1300 000/00 RMK AO2 SLP179 T02330217 10278 20233 403500217 52015
53988KBKB BKB20190831235510808/31/19 23:55:31  5-MIN KBKB 010555Z AUTO 00000KT 10SM CLR 23/22 A2999 240 90 1300 000/00 RMK AO2 T02330217
